"ID","Address","City","State","Zip","lat","long","id","input_address","match_indicator","match_type","matched_address","tiger_line_id","tiger_side"
134501,"2426 ROLLING FARMS ROAD","GLENSHAW","PA",15116,40.5404574190001,-79.941694863,1,"2426 ROLLING FARMS ROAD, GLENSHAW, PA, 15116","Match","Exact","2426 ROLLING FARMS RD, GLENSHAW, PA, 15116",51708514,"R"
134502,"2426 S 179TH STREET","OMAHA","NE",68130,41.238088288,-96.195184607,2,"2426 S 179TH STREET, OMAHA, NE, 68130","Match","Exact","2426 S 179TH ST, OMAHA, NE, 68130",117018781,"R"
134503,"2426 SENECA ST","PASADENA","CA",91107,34.1392539560001,-118.10072848,3,"2426 SENECA ST, PASADENA, CA, 91107","Match","Exact","2426 SENECA ST, PASADENA, CA, 91107",141633226,"R"
134504,"2426 STERLING MANOR DRIVE","BUFORD","GA",30518,34.147554825,-84.013845498,4,"2426 STERLING MANOR DRIVE, BUFORD, GA, 30518","Match","Non_Exact","2426 STERLING MANOR DR NE, BUFORD, GA, 30518",625649523,"L"
134505,"2426 T ST APT 3","SACRAMENTO","CA",95818,38.5640685490001,-121.478641789,5,"2426 T ST APT 3, SACRAMENTO, CA, 95818","Match","Non_Exact","2426 T ST, SACRAMENTO, CA, 95816",652197820,"R"
134506,"2426 TX 36","BELLVILLE","TX",77418,NA,NA,6,"2426 TX 36, BELLVILLE, TX, 77418","No_Match",NA,NA,NA,NA
134507,"2426 VINEYARD LANE","CROFTON","MD",21114,39.0282673310001,-76.676075746,7,"2426 VINEYARD LANE, CROFTON, MD, 21114","Match","Exact","2426 VINEYARD LN, CROFTON, MD, 21114",650120914,"R"
134508,"2426 WASHINGTON AVE","WACO","TX",76701,31.5419481970001,-97.1505771069999,8,"2426 WASHINGTON AVE, WACO, TX, 76701","Match","Exact","2426 WASHINGTON AVE, WACO, TX, 76701",146735926,"L"
134509,"2426 WESTMINSTER WEST ROAD APT 3","PUTNEY","VT",5346,43.0520362440001,-72.5338111949999,9,"2426 WESTMINSTER WEST ROAD APT 3, PUTNEY, VT, 5346","Match","Exact","2426 WESTMINSTER WEST RD, PUTNEY, VT, 05346",171100727,"R"
134510,"2426 WILD VALLEY DRIVE","JACKSON","MS",39211,32.3554374890001,-90.1223297669999,10,"2426 WILD VALLEY DRIVE, JACKSON, MS, 39211","Match","Exact","2426 WILD VALLEY DR, JACKSON, MS, 39211",65373803,"L"
134511,"2426 WILTSHIRE","BERKLEY","MI",48072,42.4986644780001,-83.18281067,11,"2426 WILTSHIRE, BERKLEY, MI, 48072","Match","Non_Exact","2426 WILTSHIRE RD, BERKLEY, MI, 48072",69737861,"R"
134512,"2426 YAVAPAI STREET","CHINO VALLEY","AZ",86323,34.7809019360001,-112.474616923,12,"2426 YAVAPAI STREET, CHINO VALLEY, AZ, 86323","Match","Non_Exact","2426 N YAVAPAI ST, CHINO VALLEY, AZ, 86323",159448166,"R"
134513,"2426","MONTGOMERY","AL",36102,NA,NA,13,"2426, MONTGOMERY, AL, 36102","No_Match",NA,NA,NA,NA
134514,"24260 WOODSAGE DR","BONITA SPRINGS","FL",34134,26.3910731610001,-81.81483707,14,"24260 WOODSAGE DR, BONITA SPRINGS, FL, 34134","Match","Exact","24260 WOODSAGE DR, BONITA SPGS, FL, 34134",600391937,"L"
134515,"24261 STATE HWY 68","WABASSO","MN",56293,44.3989978650001,-95.30242548,15,"24261 STATE HWY 68, WABASSO, MN, 56293","Match","Exact","24261 STATE HWY 68, WABASSO, MN, 56293",33812455,"R"
134516,"24262 HIGHWAY 7","WARSAW","MO",65355,NA,NA,16,"24262 HIGHWAY 7, WARSAW, MO, 65355","No_Match",NA,NA,NA,NA
134517,"24262 WALNUT STREET UNIT B","NEW HALL","CA",91321,34.3777581260001,-118.528447006,17,"24262 WALNUT STREET UNIT B, NEW HALL, CA, 91321","Match","Non_Exact","24262 WALNUT ST, NEWHALL, CA, 91321",141537998,"R"
134518,"24263 SWIFT DEER TRL","CORONA","CA",92883,33.766286216,-117.484915288,18,"24263 SWIFT DEER TRL, CORONA, CA, 92883","Match","Exact","24263 SWIFT DEER TRL, CORONA, CA, 92883",624284529,"L"
134519,"24264 E DESMET RD","LIBERTY LAKE","WA",99019,47.6669607040001,-117.078775777,19,"24264 E DESMET RD, LIBERTY LAKE, WA, 99019","Match","Non_Exact","24264 E DESMET CT, LIBERTY LAKE, WA, 99019",605655431,"L"
134520,"24265 E 4TH DR","AURORA","CO",80018,39.721721261,-104.705761732,20,"24265 E 4TH DR, AURORA, CO, 80018","Match","Exact","24265 E 4TH DR, AURORA, CO, 80018",177563871,"L"
134521,"24265 ELECTRIC AVENUE","RED BLUFF","CA",96080,40.1457902600001,-122.134053012,21,"24265 ELECTRIC AVENUE, RED BLUFF, CA, 96080","Match","Exact","24265 ELECTRIC AVE, RED BLUFF, CA, 96080",119386908,"R"
134522,"2427 222ND AVE NE","SAMMAMISH","WA",98074,47.6320528430001,-122.044009221,22,"2427 222ND AVE NE, SAMMAMISH, WA, 98074","Match","Exact","2427 222ND AVE NE, SAMMAMISH, WA, 98074",186617572,"L"
134523,"2427 41ST NE","CANTON","OH",44705,40.8417400540001,-81.340725425,23,"2427 41ST NE, CANTON, OH, 44705","Match","Non_Exact","2427 41ST ST NE, CANTON, OH, 44705",64716075,"L"
134524,"2427 ACADEMY CIRCLE E304","KISSIMMEE","FL",34744,28.281969309,-81.344099794,24,"2427 ACADEMY CIRCLE E304, KISSIMMEE, FL, 34744","Match","Non_Exact","2427 ACADEMY CIR E, KISSIMMEE, FL, 34744",607071186,"L"
134525,"2427 BAXTER RD SW","ATLANTA","GA",30315,33.6882016800001,-84.412984174,25,"2427 BAXTER RD SW, ATLANTA, GA, 30315","Match","Exact","2427 BAXTER RD SW, ATLANTA, GA, 30315",17349367,"R"
134526,"2427 BELLWOOD DRIVE","PITTSBURGH","PA",15237,40.592844422,-80.0825267979999,26,"2427 BELLWOOD DRIVE, PITTSBURGH, PA, 15237","Match","Exact","2427 BELLWOOD DR, PITTSBURGH, PA, 15237",51605400,"R"
134527,"2427 BREATHSTONE DRIVE","POWELL","OH",43065,40.1355526880001,-83.080836645,27,"2427 BREATHSTONE DRIVE, POWELL, OH, 43065","Match","Exact","2427 BREATHSTONE DR, POWELL, OH, 43065",635591083,"L"
134528,"2427 COPPER CREEK ROAD","CHESTER SPRINGS","PA",19425,40.0837098760001,-75.66935813,28,"2427 COPPER CREEK ROAD, CHESTER SPRINGS, PA, 19425","Match","Exact","2427 COPPER CREEK RD, CHESTER SPRINGS, PA, 19425",634175159,"L"
134529,"2427 EATON FERRY ROAD","LITTLETON","NC",27850,36.532392875,-77.940879916,29,"2427 EATON FERRY ROAD, LITTLETON, NC, 27850","Match","Exact","2427 EATON FERRY RD, LITTLETON, NC, 27850",54105929,"R"
134530,"2427 GLEN LAUREL DRIVE","GREENSBORO","NC",27406,36.036593011,-79.701582447,30,"2427 GLEN LAUREL DRIVE, GREENSBORO, NC, 27406","Match","Exact","2427 GLEN LAUREL DR, GREENSBORO, NC, 27406",131087970,"L"
134531,"2427 HARRISON AVE","CINCINNATI","OH",45211,39.1400448850001,-84.57995762,31,"2427 HARRISON AVE, CINCINNATI, OH, 45211","Match","Exact","2427 HARRISON AVE, CINCINNATI, OH, 45211",103965313,"L"
134532,"2427 KELLOGG CT","DUARTE","CA",91010,34.1410738700001,-117.953275669,32,"2427 KELLOGG CT, DUARTE, CA, 91010","Match","Exact","2427 KELLOGG CT, DUARTE, CA, 91010",241126533,"R"
134533,"2427 LINDSAY ROAD","GORDONSVILLE","VA",22942,38.0740414050001,-78.231797065,33,"2427 LINDSAY ROAD, GORDONSVILLE, VA, 22942","Match","Exact","2427 LINDSAY RD, GORDONSVILLE, VA, 22942",84944717,"R"
134534,"2427 LINKSMAN LANE","WARRINGTON","PA",18976,40.244172753,-75.1470109329999,34,"2427 LINKSMAN LANE, WARRINGTON, PA, 18976","Match","Exact","2427 LINKSMAN LN, WARRINGTON, PA, 18976",134764190,"R"
134535,"2427 LOCH STONE DR","GASTONIA","NC",28054,35.2302110950001,-81.180200241,35,"2427 LOCH STONE DR, GASTONIA, NC, 28054","Match","Exact","2427 LOCH STONE DR, GASTONIA, NC, 28054",70451550,"R"
134536,"2427 LOCKE LANE","HOUSTON","TX",77019,29.743744366,-95.416305441,36,"2427 LOCKE LANE, HOUSTON, TX, 77019","Match","Exact","2427 LOCKE LN, HOUSTON, TX, 77019",96063025,"L"
134537,"2427 N  4TH STREET","PHILADELPHIA","PA",19133,39.9877354430001,-75.1392385939999,37,"2427 N  4TH STREET, PHILADELPHIA, PA, 19133","Match","Exact","2427 N 4TH ST, PHILADELPHIA, PA, 19133",131419304,"R"
134538,"2427 PARIS AVE NE","GRAND RAPIDS","MI",49505,43.007085784,-85.656152122,38,"2427 PARIS AVE NE, GRAND RAPIDS, MI, 49505","Match","Exact","2427 PARIS AVE NE, GRAND RAPIDS, MI, 49505",12451758,"L"
134539,"2427 PARKLAND DR","DECATUR","GA",30032,33.7171911230001,-84.300305029,39,"2427 PARKLAND DR, DECATUR, GA, 30032","Match","Exact","2427 PARKLAND DR, DECATUR, GA, 30032",23368356,"R"
134540,"2427 POMONA LN","WILMETTE","IL",60091,42.0759210850001,-87.735374495,40,"2427 POMONA LN, WILMETTE, IL, 60091","Match","Exact","2427 POMONA LN, WILMETTE, IL, 60091",111874447,"R"
134541,"2427 REYNOLDS MANOR DR","OTTAWA","IL",61350,41.366722356,-88.8368153759999,41,"2427 REYNOLDS MANOR DR, OTTAWA, IL, 61350","Match","Exact","2427 REYNOLDS MANOR DR, OTTAWA, IL, 61350",8587566,"L"
134542,"2427 ROCHELLE AVE","MONROVIA","CA",91016,34.121281438,-118.005450007,42,"2427 ROCHELLE AVE, MONROVIA, CA, 91016","Match","Non_Exact","2427 S ROCHELLE AVE, MONROVIA, CA, 91016",641496128,"R"
134543,"2427 W PROVIDENCE AVE","SPOKANE","WA",99205,47.6925815290001,-117.446973971,43,"2427 W PROVIDENCE AVE, SPOKANE, WA, 99205","Match","Exact","2427 W PROVIDENCE AVE, SPOKANE, WA, 99205",189873151,"L"
134544,"2427 WEST BECHER STREET","MILWAUKEE","WI",53215,43.0066974160001,-87.944214227,44,"2427 WEST BECHER STREET, MILWAUKEE, WI, 53215","Match","Exact","2427 W BECHER ST, MILWAUKEE, WI, 53215",77750889,"L"
134545,"2427 WEST WILDWOOD LANE","WICHITA","KS",67217,NA,NA,45,"2427 WEST WILDWOOD LANE, WICHITA, KS, 67217","No_Match",NA,NA,NA,NA
134546,"24270 RADCLIFT ST","OAK PARK","MI",48237,42.4698300370001,-83.1956610989999,46,"24270 RADCLIFT ST, OAK PARK, MI, 48237","Match","Exact","24270 RADCLIFT ST, OAK PARK, MI, 48237",69740811,"R"
134547,"24273 MAIN STREET","NEWHALL","CA",91321,NA,NA,47,"24273 MAIN STREET, NEWHALL, CA, 91321","No_Match",NA,NA,NA,NA
134548,"24274 YUCCA ST","MENIFEE","CA",92584,NA,NA,48,"24274 YUCCA ST, MENIFEE, CA, 92584","No_Match",NA,NA,NA,NA
134549,"2428 39TH ST NW","WASHINGTON","DC",20007,38.921534846,-77.0770563359999,49,"2428 39TH ST NW, WASHINGTON, DC, 20007","Match","Exact","2428 39TH ST NW, WASHINGTON, DC, 20007",76220973,"L"
134550,"2428 ALDER STREET","BAKERSFIELD","CA",93301,35.381729867,-119.029289192,50,"2428 ALDER STREET, BAKERSFIELD, CA, 93301","Match","Exact","2428 ALDER ST, BAKERSFIELD, CA, 93301",109087219,"R"
134551,"2428 ALMEDA AVE SUITE 146","NORFOLK","VA",23513,36.8808072940001,-76.2172121139999,51,"2428 ALMEDA AVE SUITE 146, NORFOLK, VA, 23513","Match","Exact","2428 ALMEDA AVE, NORFOLK, VA, 23513",636655360,"R"
134552,"2428 APIARY COURT","VIRGINIA BEACH","VA",23454,36.8328869170001,-76.052938591,52,"2428 APIARY COURT, VIRGINIA BEACH, VA, 23454","Match","Exact","2428 APIARY CT, VIRGINIA BCH, VA, 23454",625051115,"R"
134553,"2428 COBBLESTONE CT","IMPERIAL","MO",63052,38.387346587,-90.418566625,53,"2428 COBBLESTONE CT, IMPERIAL, MO, 63052","Match","Non_Exact","2428 COBBLESTONE, IMPERIAL, MO, 63052",607844538,"R"
134554,"2428 CRIMSON RIDGE CIR NW","ROCHESTER","MN",55901,44.0839609710001,-92.494454293,54,"2428 CRIMSON RIDGE CIR NW, ROCHESTER, MN, 55901","Match","Exact","2428 CRIMSON RIDGE CIR NW, ROCHESTER, MN, 55901",30575389,"L"
134555,"2428 EVERGREEN DRIVE","ROYAL OAK","MI",48073,42.510088189,-83.1619445109999,55,"2428 EVERGREEN DRIVE, ROYAL OAK, MI, 48073","Match","Exact","2428 EVERGREEN DR, ROYAL OAK, MI, 48073",630357880,"R"
134556,"2428 FREEDOM DRIVE","CHARLOTTE","NC",28208,35.2350884090001,-80.879420422,56,"2428 FREEDOM DRIVE, CHARLOTTE, NC, 28208","Match","Exact","2428 FREEDOM DR, CHARLOTTE, NC, 28208",70476897,"R"
134557,"2428 HEYWARD BROCKINGTON ROAD","COLUMBIA","SC",29203,34.1422731540001,-81.058058542,57,"2428 HEYWARD BROCKINGTON ROAD, COLUMBIA, SC, 29203","Match","Exact","2428 HEYWARD BROCKINGTON RD, COLUMBIA, SC, 29203",604793603,"R"
134558,"2428 HIGH ST","CRESCENT SPRINGS","KY",41017,39.0498575710001,-84.576914457,58,"2428 HIGH ST, CRESCENT SPRINGS, KY, 41017","Match","Exact","2428 HIGH ST, CRESCENT SPGS, KY, 41017",103881188,"L"
134559,"2428 JONES AVE NE","RENTON","WA",98056,47.513402178,-122.1964256,59,"2428 JONES AVE NE, RENTON, WA, 98056","Match","Exact","2428 JONES AVE NE, RENTON, WA, 98056",186957226,"R"
134560,"2428 LOS ROBLES DR","FERNANDINA BEACH","FL",32034,30.607511194,-81.451674176,60,"2428 LOS ROBLES DR, FERNANDINA BEACH, FL, 32034","Match","Exact","2428 LOS ROBLES DR, FERNANDINA BCH, FL, 32034",84114063,"L"
134561,"2428 MEADOW POND TRAIL","WHITE HALL","AR",71602,34.3296791500001,-92.1301547369999,61,"2428 MEADOW POND TRAIL, WHITE HALL, AR, 71602","Match","Exact","2428 MEADOW POND TRL, WHITE HALL, AR, 71602",2538976,"L"
134562,"2428 N 3RD STREET","SHEBOYGAN","WI",53083,43.7706406500001,-87.7045677259999,62,"2428 N 3RD STREET, SHEBOYGAN, WI, 53083","Match","Exact","2428 N 3RD ST, SHEBOYGAN, WI, 53083",79497764,"L"
134563,"2428 N 48TH STREET","MILWAUKEE","WI",53210,43.0630565540001,-87.973763156,63,"2428 N 48TH STREET, MILWAUKEE, WI, 53210","Match","Exact","2428 N 48TH ST, MILWAUKEE, WI, 53210",77732319,"R"
134564,"2428 NW 120TH","OKLAHOMA CITY","OK",73120,35.5924637580001,-97.556763691,64,"2428 NW 120TH, OKLAHOMA CITY, OK, 73120","Match","Non_Exact","2428 NW 120TH ST, OKLAHOMA CITY, OK, 73120",100392765,"L"
134565,"2428 PARK AVE APT  11","WEST BEND","WI",53090,43.4330547850001,-88.2143747109999,65,"2428 PARK AVE APT  11, WEST BEND, WI, 53090","Match","Exact","2428 PARK AVE, WEST BEND, WI, 53090",79567401,"R"
134566,"2428 PATRICIA LANE","HOMEWOOD","IL",60430,41.558529809,-87.6760711649999,66,"2428 PATRICIA LANE, HOMEWOOD, IL, 60430","Match","Exact","2428 PATRICIA LN, HOMEWOOD, IL, 60430",111709438,"R"
134567,"2428 SNOW CREEK LN","CHARLOTTE","NC",28273,35.158151074,-80.929982691,67,"2428 SNOW CREEK LN, CHARLOTTE, NC, 28273","Match","Exact","2428 SNOW CREEK LN, CHARLOTTE, NC, 28273",70522839,"L"
134568,"2428 WESTMONT DRVIE","ROYAL PALM BEACH","FL",33411,NA,NA,68,"2428 WESTMONT DRVIE, ROYAL PALM BEACH, FL, 33411","Tie",NA,NA,NA,NA
134569,"2428 WINDY PINES BEND","VIRGINIA BEACH","VA",23456,36.768250622,-76.0347618919999,69,"2428 WINDY PINES BEND, VIRGINIA BEACH, VA, 23456","Match","Exact","2428 WINDY PINES BEND, VA BCH, VA, 23456",122270226,"R"
134570,"24281 POSTAL AVE","MORENO VALLEY","CA",92553,33.940399094,-117.238919153,70,"24281 POSTAL AVE, MORENO VALLEY, CA, 92553","Match","Exact","24281 POSTAL AVE, MORENO VALLEY, CA, 92553",608992782,"R"
134571,"24282 VALYERMO DR","MISSION VIEJO","CA",92691,33.610099486,-117.662706345,71,"24282 VALYERMO DR, MISSION VIEJO, CA, 92691","Match","Exact","24282 VALYERMO DR, MISSION VIEJO, CA, 92691",144065513,"L"
134572,"24285 RED OAK RD","WAYNESVILLE","MO",65583,37.808843849,-92.273541579,72,"24285 RED OAK RD, WAYNESVILLE, MO, 65583","Match","Exact","24285 RED OAK RD, WAYNESVILLE, MO, 65583",26400869,"L"
134573,"24287 SW 114TH COURT","MIAMI","FL",33032,NA,NA,73,"24287 SW 114TH COURT, MIAMI, FL, 33032","Tie",NA,NA,NA,NA
134574,"24287 SW 114TH CRT","HOMESTEAD","FL",33032,25.541990733,-80.376526552,74,"24287 SW 114TH CRT, HOMESTEAD, FL, 33032","Match","Exact","24287 SW 114 CT, HOMESTEAD, FL, 33032",625213820,"L"
134575,"24287 SW 114TH CT","HOMESTEAD","FL",33032,25.541990733,-80.376526552,75,"24287 SW 114TH CT, HOMESTEAD, FL, 33032","Match","Exact","24287 SW 114 CT, HOMESTEAD, FL, 33032",625213820,"L"
134576,"2429 APACHE DRIVE","MELBOURNE","FL",32935,28.114792682,-80.6610511,76,"2429 APACHE DRIVE, MELBOURNE, FL, 32935","Match","Exact","2429 APACHE DR, MELBOURNE, FL, 32935",93902378,"L"
134577,"2429 BISSONNET ST   MAILBOX 243","HOUSTON","TX",77005,29.7255050270001,-95.415583274,77,"2429 BISSONNET ST   MAILBOX 243, HOUSTON, TX, 77005","Match","Exact","2429 BISSONNET ST, HOUSTON, TX, 77005",642474454,"L"
134578,"2429 BISSONNET UNIT 543","HOUSTON","TX",77005,29.7255050270001,-95.415583274,78,"2429 BISSONNET UNIT 543, HOUSTON, TX, 77005","Match","Non_Exact","2429 BISSONNET ST, HOUSTON, TX, 77005",642474454,"L"
134579,"2429 BOUNDARY OAKS CT","SANTA MARIA","CA",93455,34.915876827,-120.448326308,79,"2429 BOUNDARY OAKS CT, SANTA MARIA, CA, 93455","Match","Exact","2429 BOUNDARY OAKS CT, SANTA MARIA, CA, 93455",108619576,"L"
134580,"2429 CAMBRIDGE RD","HIGH RIDGE","MO",63049,38.4729291850001,-90.529489032,80,"2429 CAMBRIDGE RD, HIGH RIDGE, MO, 63049","Match","Exact","2429 CAMBRIDGE RD, HIGH RIDGE, MO, 63049",62778792,"R"
134581,"2429 CARMONA AVE","LOS ANGELES","CA",91606,34.034826593,-118.362962336,81,"2429 CARMONA AVE, LOS ANGELES, CA, 91606","Match","Non_Exact","2429 CARMONA AVE, LOS ANGELES, CA, 90016",141600757,"R"
134582,"2429 DOVER STREET","ANDERSON","IN",46013,40.0613290700001,-85.646977793,82,"2429 DOVER STREET, ANDERSON, IN, 46013","Match","Exact","2429 DOVER ST, ANDERSON, IN, 46013",31116670,"R"
134583,"2429 E DAHLIA DRIVE","PHOENIX","AZ",85032,33.603397445,-112.029836163,83,"2429 E DAHLIA DRIVE, PHOENIX, AZ, 85032","Match","Exact","2429 E DAHLIA DR, PHOENIX, AZ, 85032",128184084,"R"
134584,"2429 E FLOWER ST","PHOENIX","AZ",85016,33.4857606690001,-112.029479843,84,"2429 E FLOWER ST, PHOENIX, AZ, 85016","Match","Exact","2429 E FLOWER ST, PHOENIX, AZ, 85016",128210043,"R"
134585,"2429 E SEEGER AVE","VISALIA","CA",93292,36.310318749,-119.266099022,85,"2429 E SEEGER AVE, VISALIA, CA, 93292","Match","Exact","2429 E SEEGER AVE, VISALIA, CA, 93292",607602477,"R"
134586,"2429 E TREMONT AVENUE","BRONX","NY",10461,40.8426006710001,-73.852271683,86,"2429 E TREMONT AVENUE, BRONX, NY, 10461","Match","Exact","2429 E TREMONT AVE, BRONX, NY, 10461",80305427,"L"
134587,"2429 E VALLEY STREET","SEATTLE","WA",98112,47.6259197370001,-122.30065505,87,"2429 E VALLEY STREET, SEATTLE, WA, 98112","Match","Exact","2429 E VALLEY ST, SEATTLE, WA, 98112",186587971,"R"
134588,"2429 EAST 16TH STREET","INDIANAPOLIS","IN",46201,39.7879756350001,-86.120951803,88,"2429 EAST 16TH STREET, INDIANAPOLIS, IN, 46201","Match","Exact","2429 E 16TH ST, INDIANAPOLIS, IN, 46201",652688433,"R"
134589,"2429 ECHO DRIVE NE","ATLANTA","GA",30345,33.849836141,-84.289192196,89,"2429 ECHO DRIVE NE, ATLANTA, GA, 30345","Match","Exact","2429 ECHO DR NE, ATLANTA, GA, 30345",23359537,"R"
134590,"2429 FARRIER PLACE","OWENSBORO","KY",42301,37.7488838630001,-87.123195091,90,"2429 FARRIER PLACE, OWENSBORO, KY, 42301","Match","Exact","2429 FARRIER PL, OWENSBORO, KY, 42301",37558880,"L"
134591,"2429 GILHAM WAY","SANTA ROSA","CA",94505,38.419541452,-122.692482089,91,"2429 GILHAM WAY, SANTA ROSA, CA, 94505","Match","Non_Exact","2429 GILHAM WAY, SANTA ROSA, CA, 95404",624730474,"L"
134592,"2429 HAVERFORD RD","SPRINGFIELD","IL",62704,39.771925606,-89.695851478,92,"2429 HAVERFORD RD, SPRINGFIELD, IL, 62704","Match","Exact","2429 HAVERFORD RD, SPRINGFIELD, IL, 62704",628714784,"R"
134593,"2429 HIGHLAND CAPE LANE","VIRGINIA BEACH","VA",23456,36.758931449,-76.118468035,93,"2429 HIGHLAND CAPE LANE, VIRGINIA BEACH, VA, 23456","Match","Exact","2429 HIGHLAND CAPE LN, VA BCH, VA, 23456",624689013,"R"
134594,"2429 MCCLENDON ST","HOUSTON","TX",77030,29.707926554,-95.415405477,94,"2429 MCCLENDON ST, HOUSTON, TX, 77030","Match","Exact","2429 MCCLENDON ST, HOUSTON, TX, 77030",96063931,"L"
134595,"2429 MINER ST","IDAHO SPRINGS","CO",80452,39.7419634670001,-105.50913034,95,"2429 MINER ST, IDAHO SPRINGS, CO, 80452","Match","Exact","2429 MINER ST, IDAHO SPRINGS, CO, 80452",648913305,"L"
134596,"2429 NORTH 16TH STREET","MILWAUKEE","WI",53206,43.0628302270001,-87.9326339369999,96,"2429 NORTH 16TH STREET, MILWAUKEE, WI, 53206","Match","Exact","2429 N 16TH ST, MILWAUKEE, WI, 53206",77739254,"L"
134597,"2429 NORTH 33RD STREET","PHILADELPHIA","PA",19132,39.9939967810001,-75.185859125,97,"2429 NORTH 33RD STREET, PHILADELPHIA, PA, 19132","Match","Exact","2429 N 33RD ST, PHILADELPHIA, PA, 19132",131401841,"R"
134598,"2429 RIDGLEY STREET","BALTIMORE","MD",21230,39.26298361,-76.643979139,98,"2429 RIDGLEY STREET, BALTIMORE, MD, 21230","Match","Non_Exact","2429 RIDGELY ST, BALTIMORE, MD, 21230",206460062,"L"
134599,"2429 RIVERDALE AVENUE","LOS ANGELES","CA",90031,34.0920250550001,-118.233581311,99,"2429 RIVERDALE AVENUE, LOS ANGELES, CA, 90031","Match","Exact","2429 RIVERDALE AVE, LOS ANGELES, CA, 90031",141617533,"L"
134600,"2429 ROANOKE SPRINGS DRIVE","RUSKIN","FL",33570,27.6903548450001,-82.4309576969999,100,"2429 ROANOKE SPRINGS DRIVE, RUSKIN, FL, 33570","Match","Exact","2429 ROANOKE SPRINGS DR, RUSKIN, FL, 33570",646596005,"R"
134601,"2429 S REYNOLDS ROAD","TOLEDO","OH",43614,41.5960542130001,-83.6646173939999,101,"2429 S REYNOLDS ROAD, TOLEDO, OH, 43614","Match","Exact","2429 S REYNOLDS RD, TOLEDO, OH, 43614",33930629,"L"
134602,"2429 STUART DRIVE","FORT WORTH","TX",76104,32.7167355730001,-97.324200028,102,"2429 STUART DRIVE, FORT WORTH, TX, 76104","Match","Exact","2429 STUART DR, FORT WORTH, TX, 76104",102135263,"L"
134603,"2429 VALLEY VIEW AVENUE","SALT LAKE CITY","UT",84117,40.6650390090001,-111.820237792,103,"2429 VALLEY VIEW AVENUE, SALT LAKE CITY, UT, 84117","Match","Exact","2429 VALLEY VIEW AVE, SALT LAKE CITY, UT, 84117",623987640,"L"
134604,"24292 WHITNEY CT","LAGUNA NIGUEL","CA",92677,33.552081749,-117.705958542,104,"24292 WHITNEY CT, LAGUNA NIGUEL, CA, 92677","Match","Exact","24292 WHITNEY CT, LAGUNA NIGUEL, CA, 92677",144088164,"R"
134605,"242B BIRCHWOOD DRIVE","TRANSFER","PA",16154,41.313037755,-80.4151130549999,105,"242B BIRCHWOOD DRIVE, TRANSFER, PA, 16154","Match","Exact","242 BIRCHWOOD DR, TRANSFER, PA, 16154",605363293,"L"
134606,"243 169 AVE NE","BELLEVUE","WA",98008,47.6122121720001,-122.115346352,106,"243 169 AVE NE, BELLEVUE, WA, 98008","Match","Exact","243 169TH AVE NE, BELLEVUE, WA, 98008",648636293,"L"
134607,"243 6TH AVE W","NEWARK","NJ",7107,40.7567302510001,-74.187698725,107,"243 6TH AVE W, NEWARK, NJ, 7107","Match","Exact","243 6TH AVE W, NEWARK, NJ, 07107",63454842,"R"
134608,"243 6TH STREET SUITE 100","HOLLISTER","CA",95023,36.8503891570001,-121.401526627,108,"243 6TH STREET SUITE 100, HOLLISTER, CA, 95023","Match","Exact","243 6TH ST, HOLLISTER, CA, 95023",125435826,"L"
134609,"243 ALLENDE ST","LAREDO","TX",78041,27.53743316,-99.4949053829999,109,"243 ALLENDE ST, LAREDO, TX, 78041","Match","Exact","243 ALLENDE ST, LAREDO, TX, 78041",21671002,"R"
134610,"243 BAKOS BLVD","BUFFALO","NY",14211,42.90570489,-78.800792442,110,"243 BAKOS BLVD, BUFFALO, NY, 14211","Match","Exact","243 BAKOS BLVD, BUFFALO, NY, 14211",636676083,"L"
134611,"243 BENTLEY COURT","AMERICAN CANYON","CA",94503,38.164290335,-122.258289991,111,"243 BENTLEY COURT, AMERICAN CANYON, CA, 94503","Match","Exact","243 BENTLEY CT, AMERICAN CANYON, CA, 94503",67420206,"L"
134612,"243 BERNARD DR","KING OF PRUSSIA","PA",19406,40.111489727,-75.3824094089999,112,"243 BERNARD DR, KING OF PRUSSIA, PA, 19406","Match","Exact","243 BERNARD DR, KING OF PRUSSIA, PA, 19406",135070683,"L"
134613,"243 BOYD RD","VILLA RICA","GA",30180,33.679970687,-84.924851185,113,"243 BOYD RD, VILLA RICA, GA, 30180","Match","Exact","243 BOYD RD, VILLA RICA, GA, 30180",17136209,"L"
134614,"243 BRACKETT ST","PORTLAND","ME",4102,43.6520367250001,-70.270049528,114,"243 BRACKETT ST, PORTLAND, ME, 4102","Match","Exact","243 BRACKETT ST, PORTLAND, ME, 04102",78028070,"R"
134615,"243 BRANCHWOOD DRIVE","JACKSONVILLE","NC",28546,34.7863267970001,-77.4096728769999,115,"243 BRANCHWOOD DRIVE, JACKSONVILLE, NC, 28546","Match","Exact","243 BRANCHWOOD DR, JACKSONVILLE, NC, 28546",14012186,"L"
134616,"243 BRIDGEWATER BLVD","KOKOMO","IN",46902,40.4316368510001,-86.1318953379999,116,"243 BRIDGEWATER BLVD, KOKOMO, IN, 46902","Match","Exact","243 BRIDGEWATER BLVD, KOKOMO, IN, 46902",645314554,"R"
134617,"243 BROADWAY 9188 SMB1001","NEWARK","NJ",7104,40.7589699440001,-74.169355923,117,"243 BROADWAY 9188 SMB1001, NEWARK, NJ, 7104","Match","Exact","243 BROADWAY, NEWARK, NJ, 07104",63455123,"R"
134618,"243 BROADWAY 9188","NEWARD","NJ",7104,40.7589699440001,-74.169355923,118,"243 BROADWAY 9188, NEWARD, NJ, 7104","Match","Non_Exact","243 BROADWAY, NEWARK, NJ, 07104",63455123,"R"
134619,"243 CARRIAGE HILL DRIVE W","HINCKLEY","MN",55037,46.003874303,-92.9477275249999,119,"243 CARRIAGE HILL DRIVE W, HINCKLEY, MN, 55037","Match","Exact","243 CARRIAGE HILL DR W, HINCKLEY, MN, 55037",626687963,"R"
134620,"243 CHURCH STREET NW STE 100E","VIENNA","VA",22180,38.9051673490001,-77.263368628,120,"243 CHURCH STREET NW STE 100E, VIENNA, VA, 22180","Match","Non_Exact","243 CHURCH ST NE, VIENNA, VA, 22180",75968780,"R"
134621,"243 CHURCH STREET NW SUITE 100E","VIENNA","VA",22180,38.9051673490001,-77.263368628,121,"243 CHURCH STREET NW SUITE 100E, VIENNA, VA, 22180","Match","Non_Exact","243 CHURCH ST NE, VIENNA, VA, 22180",75968780,"R"
134622,"243 COLLEGE ST","GILBERTOWN","AL",36908,31.8712224820001,-88.3154047909999,122,"243 COLLEGE ST, GILBERTOWN, AL, 36908","Match","Exact","243 COLLEGE ST, GILBERTOWN, AL, 36908",114151,"L"
134623,"243 COMMERCE STREET","GREENVILLE","NC",27858,35.587455112,-77.375441312,123,"243 COMMERCE STREET, GREENVILLE, NC, 27858","Match","Exact","243 COMMERCE ST, GREENVILLE, NC, 27858",80012021,"L"
134624,"243 CONCORD AVE","FAIRFIELD","CA",94533,38.2431026300001,-122.069149057,124,"243 CONCORD AVE, FAIRFIELD, CA, 94533","Match","Exact","243 CONCORD AVE, FAIRFIELD, CA, 94533",192533465,"R"
134625,"243 CR 4882 SOUTH","DAYTON","TX",77535,29.959343507,-94.963361667,125,"243 CR 4882 SOUTH, DAYTON, TX, 77535","Match","Non_Exact","243 CO RD 4882, DAYTON, TX, 77535",611052434,"L"
134626,"243 DOUGLAS DRIVE","OCEANSIDE","CA",92058,33.233084422,-117.324682467,126,"243 DOUGLAS DRIVE, OCEANSIDE, CA, 92058","Match","Exact","243 DOUGLAS DR, OCEANSIDE, CA, 92058",645318767,"L"
134627,"243 E 18TH ST","PATERSON","NJ",7524,40.931639997,-74.151640169,127,"243 E 18TH ST, PATERSON, NJ, 7524","Match","Exact","243 E 18TH ST, PATERSON, NJ, 07524",65264192,"L"
134628,"243 E CENTER AVE","SEBRING","FL",33870,27.496384935,-81.438855253,128,"243 E CENTER AVE, SEBRING, FL, 33870","Match","Exact","243 E CENTER AVE, SEBRING, FL, 33870",4632890,"R"
134629,"243 E HIGH STREET","WAYNESBURG","PA",15370,39.896407046,-80.183302625,129,"243 E HIGH STREET, WAYNESBURG, PA, 15370","Match","Exact","243 E HIGH ST, WAYNESBURG, PA, 15370",51363577,"R"
134630,"243 E MAIN ST","BATESVILLE","AR",72501,35.7708483850001,-91.6527598979999,130,"243 E MAIN ST, BATESVILLE, AR, 72501","Match","Exact","243 E MAIN ST, BATESVILLE, AR, 72501",41641453,"L"
134631,"243 EASR 32ND STREET SUITE 319","CHICAGO","IL",60616,NA,NA,131,"243 EASR 32ND STREET SUITE 319, CHICAGO, IL, 60616","No_Match",NA,NA,NA,NA
134632,"243 EAST 16TH ST","HOLLAND","MI",49423,42.783120151,-86.096436522,132,"243 EAST 16TH ST, HOLLAND, MI, 49423","Match","Exact","243 E 16TH ST, HOLLAND, MI, 49423",71078136,"R"
134633,"243 EAST CENTER AVE","SEBRING","FL",33870,27.4963827330001,-81.4388629599999,133,"243 EAST CENTER AVE, SEBRING, FL, 33870","Match","Exact","243 E CENTER AVE, SEBRING, FL, 33870",4632890,"R"
134634,"243 EMERSON ST","KENNER","LA",70065,30.011575242,-90.270152829,134,"243 EMERSON ST, KENNER, LA, 70065","Match","Exact","243 EMERSON ST, KENNER, LA, 70065",93492392,"R"
134635,"243 ENFIELD GREEN","FREDERIKSTED","VI",840,NA,NA,135,"243 ENFIELD GREEN, FREDERIKSTED, VI, 840","No_Match",NA,NA,NA,NA
134636,"243 ENNISBROOK DRIVE SE","SMYRNA","GA",30082,33.875613645,-84.5410455319999,136,"243 ENNISBROOK DRIVE SE, SMYRNA, GA, 30082","Match","Exact","243 ENNISBROOK DR SE, SMYRNA, GA, 30082",17239530,"R"
134637,"243 FIFTH AVENUE","NEW YORK","NJ",10016,NA,NA,137,"243 FIFTH AVENUE, NEW YORK, NJ, 10016","No_Match",NA,NA,NA,NA
134638,"243 FREDDIE STREET","DALLAS","TX",75217,32.713569147,-96.6750731229999,138,"243 FREDDIE STREET, DALLAS, TX, 75217","Match","Exact","243 FREDDIE ST, DALLAS, TX, 75217",102958977,"L"
134639,"243 FRIENDSHIP ROAD","FRIERSON","LA",71027,32.2381390830001,-93.687925873,139,"243 FRIENDSHIP ROAD, FRIERSON, LA, 71027","Match","Exact","243 FRIENDSHIP RD, FRIERSON, LA, 71027",635173577,"R"
134640,"243 GALLANT FOX LANE","WEBSTER","NY",14580,43.260370075,-77.42779768,140,"243 GALLANT FOX LANE, WEBSTER, NY, 14580","Match","Exact","243 GALLANT FOX LN, WEBSTER, NY, 14580",624764880,"R"
134641,"243 GILSUM STREET","KEENE","NH",3431,42.9491951840001,-72.277943915,141,"243 GILSUM STREET, KEENE, NH, 3431","Match","Exact","243 GILSUM ST, KEENE, NH, 03431",625415956,"R"
134642,"243 GOLDEN ROCK","CHRISTIANSTED","VI",820,NA,NA,142,"243 GOLDEN ROCK, CHRISTIANSTED, VI, 820","No_Match",NA,NA,NA,NA
134643,"243 GRANT 167092","SHERIDAN","AR",72150,34.1742752070001,-92.3954083199999,143,"243 GRANT 167092, SHERIDAN, AR, 72150","Match","Exact","243 GRANT 167092, SHERIDAN, AR, 72150",2489885,"R"
134644,"243 GRIMES STREET SUITE D","EUGENE","OR",97402,44.057319889,-123.156478943,144,"243 GRIMES STREET SUITE D, EUGENE, OR, 97402","Match","Exact","243 GRIMES ST, EUGENE, OR, 97402",178164066,"L"
134645,"243 GRUEING BOX 250","HAINES","AK",99827,NA,NA,145,"243 GRUEING BOX 250, HAINES, AK, 99827","No_Match",NA,NA,NA,NA
134646,"243 HARRISBURG SCHOOL RD","QUAKERTOWN","PA",18951,40.4740456980001,-75.2358682399999,146,"243 HARRISBURG SCHOOL RD, QUAKERTOWN, PA, 18951","Match","Exact","243 HARRISBURG SCHOOL RD, QUAKERTOWN, PA, 18951",632045931,"R"
134647,"243 HAYWOOD MEWS","LANCASTER","TX",75146,32.5897940350001,-96.791323183,147,"243 HAYWOOD MEWS, LANCASTER, TX, 75146","Match","Exact","243 HAYWOOD MEWS, LANCASTER, TX, 75146",618778983,"R"
134648,"243 HICKOK RD","LYNCHBURG","VA",24502,37.321679182,-79.2383120499999,148,"243 HICKOK RD, LYNCHBURG, VA, 24502","Match","Exact","243 HICKOK RD, LYNCHBURG, VA, 24502",644909245,"R"
134649,"243 HIGH STREET","MORGANTOWN","WV",26505,39.629498762,-79.9561529979999,149,"243 HIGH STREET, MORGANTOWN, WV, 26505","Match","Exact","243 HIGH ST, MORGANTOWN, WV, 26505",636679351,"L"
134650,"243 HIGHLAND MEADOWS PL","DAVENPORT","FL",33837,28.150816149,-81.620144526,150,"243 HIGHLAND MEADOWS PL, DAVENPORT, FL, 33837","Match","Exact","243 HIGHLAND MEADOWS PL, DAVENPORT, FL, 33837",614460711,"R"
134651,"243 HILLANDALE DRIVE","STOCKBRIDGE","GA",30281,33.565793838,-84.2583049739999,151,"243 HILLANDALE DRIVE, STOCKBRIDGE, GA, 30281","Match","Exact","243 HILLANDALE DR, STOCKBRIDGE, GA, 30281",23195460,"R"
134652,"243 HOFFMAN BLVD","EAST ORANGE","NJ",7017,40.7753556000001,-74.196169782,152,"243 HOFFMAN BLVD, EAST ORANGE, NJ, 7017","Match","Exact","243 HOFFMAN BLVD, EAST ORANGE, NJ, 07017",653863248,"L"
134653,"243 HUDSON STREET","CORNWALL ON HUDSON","NY",12520,41.4446658890001,-74.0150757549999,153,"243 HUDSON STREET, CORNWALL ON HUDSON, NY, 12520","Match","Exact","243 HUDSON ST, CORNWALL ON HUDSON, NY, 12520",124414630,"R"
134654,"243 I STREET","SPRINGFIELD","OR",97477,44.0543358530001,-123.028650334,154,"243 I STREET, SPRINGFIELD, OR, 97477","Match","Non_Exact","243 W I ST, SPRINGFIELD, OR, 97477",178172579,"L"
134655,"243 IWALANI ST","HILO","HI",96720,19.687656883,-155.080793799,155,"243 IWALANI ST, HILO, HI, 96720","Match","Exact","243 IWALANI ST, HILO, HI, 96720",614314165,"R"
134656,"243 JACKSON AVE","SYOSSET","NY",11791,40.8160812780001,-73.501161547,156,"243 JACKSON AVE, SYOSSET, NY, 11791","Match","Exact","243 JACKSON AVE, SYOSSET, NY, 11791",147640157,"L"
134657,"243 JANICE ST","LODI","OH",44254,41.0359365750001,-81.999249348,157,"243 JANICE ST, LODI, OH, 44254","Match","Exact","243 JANICE ST, LODI, OH, 44254",58683312,"R"
134658,"243 KOONCE RD","TRINITY","TX",75862,30.9427604090001,-95.440766332,158,"243 KOONCE RD, TRINITY, TX, 75862","Match","Exact","243 KOONCE RD, TRINITY, TX, 75862",22191870,"R"
134659,"243 LAKEWOOD AVE","BAYVILLE","NJ",8721,39.9271498160001,-74.1504826349999,159,"243 LAKEWOOD AVE, BAYVILLE, NJ, 8721","Match","Exact","243 LAKEWOOD AVE, BAYVILLE, NJ, 08721",203731428,"L"
134660,"243 LARCHMONT LANE","HANOVER","MA",2339,42.1271116610001,-70.8458213709999,160,"243 LARCHMONT LANE, HANOVER, MA, 2339","Match","Exact","243 LARCHMONT LN, HANOVER, MA, 02339",87433531,"R"
134661,"243 LARKSPUR RD","COLUMBIA","SC",29203,34.0695508860001,-81.190442535,161,"243 LARKSPUR RD, COLUMBIA, SC, 29203","Match","Non_Exact","243 LARKSPUR RD, COLUMBIA, SC, 29212",70049037,"R"
134662,"243 LARKSPUR RD","COLUMBIA","SC",29212,34.0695508860001,-81.190442535,162,"243 LARKSPUR RD, COLUMBIA, SC, 29212","Match","Exact","243 LARKSPUR RD, COLUMBIA, SC, 29212",70049037,"R"
134663,"243 LAUREL ST APT A6","HARTFORD","CT",6105,41.765561088,-72.6971313509999,163,"243 LAUREL ST APT A6, HARTFORD, CT, 6105","Match","Exact","243 LAUREL ST, HARTFORD, CT, 06105",3494510,"L"
134664,"243 MACDOUGAL STREET","BROOKLYN","NY",11233,40.680224239,-73.911436841,164,"243 MACDOUGAL STREET, BROOKLYN, NY, 11233","Match","Exact","243 MACDOUGAL ST, BROOKLYN, NY, 11233",59083262,"L"
134665,"243 MAGNOLIA STREET","COSTA MESA","CA",92627,33.6379321420001,-117.913871671,165,"243 MAGNOLIA STREET, COSTA MESA, CA, 92627","Match","Exact","243 MAGNOLIA ST, COSTA MESA, CA, 92627",144046433,"R"
134666,"243 MAIN STREET","JOHNSON CITY","NY",13790,42.1153971250001,-75.9558092899999,166,"243 MAIN STREET, JOHNSON CITY, NY, 13790","Match","Exact","243 MAIN ST, JOHNSON CITY, NY, 13790",46340171,"R"
134667,"243 MANSFIELD AVE","WILLIMANTIC","CT",6226,41.722016943,-72.2247292709999,167,"243 MANSFIELD AVE, WILLIMANTIC, CT, 6226","Match","Exact","243 MANSFIELD AVE, WILLIMANTIC, CT, 06226",56454873,"R"
134668,"243 MARKET STREET","RICHFIELD","PA",17086,40.6882517770001,-77.110717108,168,"243 MARKET STREET, RICHFIELD, PA, 17086","Match","Exact","243 MARKET ST, RICHFIELD, PA, 17086",47933759,"L"
134669,"243 MINDY CT","LEESBURG","VA",20175,39.098627713,-77.5694817249999,169,"243 MINDY CT, LEESBURG, VA, 20175","Match","Non_Exact","243 MINDY CT SE, LEESBURG, VA, 20175",625185246,"L"
134670,"243 MOUNT LUCAS ROAD","PRINCETON","NJ",8540,40.3692614720001,-74.6606925839999,170,"243 MOUNT LUCAS ROAD, PRINCETON, NJ, 8540","Match","Exact","243 MOUNT LUCAS RD, PRINCETON, NJ, 08540",60170657,"R"
134671,"243 N BROAD STREET SUITE D","WINDER","GA",30680,NA,NA,171,"243 N BROAD STREET SUITE D, WINDER, GA, 30680","Tie",NA,NA,NA,NA
134672,"243 NELLIEFIELD CREEK DRIVE","CHARLESTON","SC",29492,32.9226557430001,-79.848514426,172,"243 NELLIEFIELD CREEK DRIVE, CHARLESTON, SC, 29492","Match","Exact","243 NELLIEFIELD CREEK DR, CHARLESTON, SC, 29492",647148961,"L"
134673,"243 NEWKIRK AVENUE","HAMILTON","NJ",8610,40.2172970290001,-74.7235026499999,173,"243 NEWKIRK AVENUE, HAMILTON, NJ, 8610","Match","Exact","243 NEWKIRK AVE, HAMILTON, NJ, 08610",60183082,"R"
134674,"243 NIGHTINGALE AVENUE","STEPHENS CITY","VA",22655,39.1013181370001,-78.2022505049999,174,"243 NIGHTINGALE AVENUE, STEPHENS CITY, VA, 22655","Match","Exact","243 NIGHTINGALE AVE, STEPHENS CITY, VA, 22655",55588929,"R"
134675,"243 NORA STREET","PINEVILLE","LA",71360,31.3372966270001,-92.4127994359999,175,"243 NORA STREET, PINEVILLE, LA, 71360","Match","Exact","243 NORA ST, PINEVILLE, LA, 71360",11812063,"L"
134676,"243 NORTH 2ND STREET","ALBEMARLE","NC",28001,35.353101742,-80.1979830499999,176,"243 NORTH 2ND STREET, ALBEMARLE, NC, 28001","Match","Exact","243 N 2ND ST, ALBEMARLE, NC, 28001",14080102,"L"
134677,"243 NORTH RANDOLPHVILLE ROAD","PISCATAWAY","NJ",8854,40.562697149,-74.4673257159999,177,"243 NORTH RANDOLPHVILLE ROAD, PISCATAWAY, NJ, 8854","Match","Exact","243 N RANDOLPHVILLE RD, PISCATAWAY, NJ, 08854",647259569,"L"
134678,"243 NW 40TH RD","CLINTON","MO",64735,38.3722101560001,-93.7992949539999,178,"243 NW 40TH RD, CLINTON, MO, 64735","Match","Exact","243 NW 40TH RD, CLINTON, MO, 64735",44946117,"L"
134679,"243 NW 6TH AVE","DELRAY BEACH","FL",33444,26.466048404,-80.0792815619999,179,"243 NW 6TH AVE, DELRAY BEACH, FL, 33444","Match","Exact","243 NW 6TH AVE, DELRAY BEACH, FL, 33444",115291018,"R"
134680,"243 OFFICE PLAZA DR","TALLAHASSEE","FL",32301,30.4443447800001,-84.259657051,180,"243 OFFICE PLAZA DR, TALLAHASSEE, FL, 32301","Match","Exact","243 OFFICE PLZ, TALLAHASSEE, FL, 32301",82854036,"R"
134681,"243 PALM STREET","HOLLY SPRINGS","GA",30115,34.1709184000001,-84.499551601,181,"243 PALM STREET, HOLLY SPRINGS, GA, 30115","Match","Exact","243 PALM ST, HOLLY SPRINGS, GA, 30115",68826294,"R"
134682,"243 PATTEE CREEK DR","MISSOULA","MT",59801,46.84152857,-114.000218803,182,"243 PATTEE CREEK DR, MISSOULA, MT, 59801","Match","Exact","243 PATTEE CREEK DR, MISSOULA, MT, 59801",637629537,"L"
134683,"243 PINE RIDGE ROAD","HOBOKEN","GA",31542,31.2037869490001,-82.11765752,183,"243 PINE RIDGE ROAD, HOBOKEN, GA, 31542","Match","Exact","243 PINE RIDGE RD, HOBOKEN, GA, 31542",627560119,"L"
134684,"243 POINTE ROAD","INMAN","SC",29349,35.111313097,-82.0530222259999,184,"243 POINTE ROAD, INMAN, SC, 29349","Match","Exact","243 POINTE RD, INMAN, SC, 29349",19482315,"L"
134685,"243 QUIET WATERS ROAD","BELMONT","NC",28012,35.176627061,-81.0347294759999,185,"243 QUIET WATERS ROAD, BELMONT, NC, 28012","Match","Exact","243 QUIET WATERS RD, BELMONT, NC, 28012",70452479,"L"
134686,"243 R BAR M RANCH RD","FLORENCE","SC",29501,34.254473884,-79.748570031,186,"243 R BAR M RANCH RD, FLORENCE, SC, 29501","Match","Exact","243 R BAR M RANCH RD, FLORENCE, SC, 29501",28910557,"L"
134687,"243 REVERE DR","BALLSTON SPA","NY",12020,43.019250974,-73.865706226,187,"243 REVERE DR, BALLSTON SPA, NY, 12020","Match","Exact","243 REVERE DR, BALLSTON SPA, NY, 12020",18783046,"R"
134688,"243 RIDGE ST","MILLIS","MA",2054,42.189726535,-71.370730464,188,"243 RIDGE ST, MILLIS, MA, 2054","Match","Exact","243 RIDGE ST, MILLIS, MA, 02054",87237333,"L"
134689,"243 RIDGEWOOD DR","MILLERSBURG","PA",17061,40.5406372460001,-76.9401185789999,189,"243 RIDGEWOOD DR, MILLERSBURG, PA, 17061","Match","Exact","243 RIDGEWOOD DR, MILLERSBURG, PA, 17061",70840568,"R"
134690,"243 ROSEMONT GARDEN","LEXINGTON","KY",40503,38.0197462580001,-84.52298145,190,"243 ROSEMONT GARDEN, LEXINGTON, KY, 40503","Match","Exact","243 ROSEMONT GARDEN, LEXINGTON, KY, 40503",31922562,"R"
134691,"243 SHERPHARD AVE","NEWARK","NJ",7112,NA,NA,191,"243 SHERPHARD AVE, NEWARK, NJ, 7112","No_Match",NA,NA,NA,NA
134692,"243 SHORE BLVD","BAYVILLE","NJ",8721,39.9284346060001,-74.14719034,192,"243 SHORE BLVD, BAYVILLE, NJ, 8721","Match","Exact","243 SHORE BLVD, BAYVILLE, NJ, 08721",203767259,"L"
134693,"243 SIXTH STREET SUITE 100","HOLLISTER","CA",95023,36.8503891570001,-121.401526627,193,"243 SIXTH STREET SUITE 100, HOLLISTER, CA, 95023","Match","Exact","243 6TH ST, HOLLISTER, CA, 95023",125435826,"L"
134694,"243 SPINDLEWOOD AVE","CAMARILLO","CA",93012,34.2100832670001,-119.012475267,194,"243 SPINDLEWOOD AVE, CAMARILLO, CA, 93012","Match","Exact","243 SPINDLEWOOD AVE, CAMARILLO, CA, 93012",109961614,"R"
134695,"243 STEVENS AVE","JERSEY CITY","NJ",7305,40.705165025,-74.093555093,195,"243 STEVENS AVE, JERSEY CITY, NJ, 7305","Match","Exact","243 STEVENS AVE, JERSEY CITY, NJ, 07305",59613380,"L"
134696,"243 SW SCALEHOUSE LOOP 5A","BEND","OR",97702,NA,NA,196,"243 SW SCALEHOUSE LOOP 5A, BEND, OR, 97702","No_Match",NA,NA,NA,NA
134697,"243 VALLEY OAKS DRIVE","WINONA","MN",55987,44.014457066,-91.627895435,197,"243 VALLEY OAKS DRIVE, WINONA, MN, 55987","Match","Exact","243 VALLEY OAKS DR, WINONA, MN, 55987",31667073,"R"
134698,"243 W 85TH ST","LOS ANGELES","CA",90003,33.961541681,-118.276907106,198,"243 W 85TH ST, LOS ANGELES, CA, 90003","Match","Exact","243 W 85TH ST, LOS ANGELES, CA, 90003",141660305,"R"
134699,"243 W LIVE OAK","JACKSBORO","TX",76458,33.2227267280001,-98.16174383,199,"243 W LIVE OAK, JACKSBORO, TX, 76458","Match","Non_Exact","243 W LIVE OAK ST, JACKSBORO, TX, 76458",182937840,"R"
134700,"243 W SUNSET AVE","COEUR DALENE","ID",83815,47.713490924,-116.789753495,200,"243 W SUNSET AVE, COEUR DALENE, ID, 83815","Match","Non_Exact","243 W SUNSET AVE, COEUR D ALENE, ID, 83815",192946895,"R"
134701,"243 W UNIVERSITY STREET","WOOSTER","OH",44691,40.8101930880001,-81.942845678,201,"243 W UNIVERSITY STREET, WOOSTER, OH, 44691","Match","Exact","243 W UNIVERSITY ST, WOOSTER, OH, 44691",58722998,"L"
134702,"243 WEAVER STREET","WINOOSKI","VT",5404,44.496932755,-73.186659408,202,"243 WEAVER STREET, WINOOSKI, VT, 5404","Match","Exact","243 WEAVER ST, WINOOSKI, VT, 05404",135827645,"R"
134703,"243 WEBSTER LAKE DRIVE","TEMPLE","GA",30179,33.7461176940001,-85.047992017,203,"243 WEBSTER LAKE DRIVE, TEMPLE, GA, 30179","Match","Exact","243 WEBSTER LAKE DR, TEMPLE, GA, 30179",628029598,"R"
134704,"243 WEST 60TH STREET APT 8B","NEW YORK","NY",10023,40.771635636,-73.9885199619999,204,"243 WEST 60TH STREET APT 8B, NEW YORK, NY, 10023","Match","Exact","243 W 60TH ST, NEW YORK, NY, 10023",650153456,"R"
134705,"243 WEST 99TH STREET APT 6D","NEW YORK","NY",10025,40.796672116,-73.970527408,205,"243 WEST 99TH STREET APT 6D, NEW YORK, NY, 10025","Match","Exact","243 W 99TH ST, NEW YORK, NY, 10025",59656578,"R"
134706,"243 WEST HICKORY ROAD","BATTLE CREEK","MI",49017,NA,NA,206,"243 WEST HICKORY ROAD, BATTLE CREEK, MI, 49017","No_Match",NA,NA,NA,NA
134707,"243 WILDWOOD WAY","SALINAS","CA",93908,36.5806196140001,-121.632591633,207,"243 WILDWOOD WAY, SALINAS, CA, 93908","Match","Exact","243 WILDWOOD WAY, SALINAS, CA, 93908",640551878,"L"
134708,"243 WINTHROP STREET","BROOKLYN","NY",11225,40.656992329,-73.9520029559999,208,"243 WINTHROP STREET, BROOKLYN, NY, 11225","Match","Exact","243 WINTHROP ST, BROOKLYN, NY, 11225",59079610,"L"
134709,"243-14 134TH AVENUE","ROSEDALE","NY",11422,40.6726318020001,-73.731195417,209,"243-14 134TH AVENUE, ROSEDALE, NY, 11422","Match","Exact","243-14 134TH AVE, ROSEDALE, NY, 11422",59721664,"R"
134710,"243-18 134TH AVENUE","ROSEDALE","NY",11422,40.672622017,-73.731165784,210,"243-18 134TH AVENUE, ROSEDALE, NY, 11422","Match","Exact","243-18 134TH AVE, ROSEDALE, NY, 11422",59721664,"R"
134711,"243","OKANOGAN","WA",98840,NA,NA,211,"243, OKANOGAN, WA, 98840","No_Match",NA,NA,NA,NA
134712,"2430 20TH AVENUE","SAN FRANCISCO","CA",94116,37.742375499,-122.476711605,212,"2430 20TH AVENUE, SAN FRANCISCO, CA, 94116","Match","Exact","2430 20TH AVE, SAN FRANCISCO, CA, 94116",192278330,"L"
134713,"2430 2ND ST","CUYAHOGA FALLS","OH",44221,41.1413882510001,-81.4807660389999,213,"2430 2ND ST, CUYAHOGA FALLS, OH, 44221","Match","Exact","2430 2ND ST, CUYAHOGA FALLS, OH, 44221",636624456,"L"
134714,"2430 7TH AVE APT 17E","NEW YORK","NY",10030,40.8194123800001,-73.940707376,214,"2430 7TH AVE APT 17E, NEW YORK, NY, 10030","Match","Exact","2430 7TH AVE, NEW YORK, NY, 10030",59656312,"L"
134715,"2430 APOLLO DR","LOS ANGELES","CA",90046,34.1152837450001,-118.365029531,215,"2430 APOLLO DR, LOS ANGELES, CA, 90046","Match","Exact","2430 APOLLO DR, LOS ANGELES, CA, 90046",141593693,"R"
134716,"2430 ARCADIA DRIVE","CANTON","MI",48188,42.290790789,-83.440033316,216,"2430 ARCADIA DRIVE, CANTON, MI, 48188","Match","Exact","2430 ARCADIA DR, CANTON, MI, 48188",635282804,"L"
134717,"2430 AUSLEY BEND DR NW","HARTSELLE","AL",35640,34.475985064,-86.971378863,217,"2430 AUSLEY BEND DR NW, HARTSELLE, AL, 35640","Match","Exact","2430 AUSLEY BEND DR NW, HARTSELLE, AL, 35640",97143779,"R"
134718,"2430 BLACK TERN WAY","ELK GROVE","CA",95757,38.39627962,-121.478096098,218,"2430 BLACK TERN WAY, ELK GROVE, CA, 95757","Match","Exact","2430 BLACK TERN WAY, ELK GROVE, CA, 95757",133407518,"R"
134719,"2430 BLOSSOM STREET","COLUMBIA","SC",29205,33.9971486000001,-81.010235608,219,"2430 BLOSSOM STREET, COLUMBIA, SC, 29205","Match","Exact","2430 BLOSSOM ST, COLUMBIA, SC, 29205",71821822,"R"
134720,"2430 BLUFFCREST LN","CINCINNATI","OH",45238,39.1298462030001,-84.5823272659999,220,"2430 BLUFFCREST LN, CINCINNATI, OH, 45238","Match","Exact","2430 BLUFFCREST LN, CINCINNATI, OH, 45238",633017526,"R"
134721,"2430 CALLE DEL ORO","LA JOLLA","CA",92037,32.8584581700001,-117.250128246,221,"2430 CALLE DEL ORO, LA JOLLA, CA, 92037","Match","Non_Exact","2430 CLL DEL ORO, LA JOLLA, CA, 92037",612855906,"L"
134722,"2430 CARLLYN DR","YORK","PA",17403,39.9190331620001,-76.711274831,222,"2430 CARLLYN DR, YORK, PA, 17403","Match","Exact","2430 CARLLYN DR, YORK, PA, 17403",88759384,"R"
134723,"2430 CHANNEL DRIVE","CHEYENNE","WY",82009,41.2745599340001,-104.82342931,223,"2430 CHANNEL DRIVE, CHEYENNE, WY, 82009","Match","Non_Exact","2430 CHANNELL DR, CHEYENNE, WY, 82009",160172719,"L"
134724,"2430 CHESHIRE BRIDGE RD APT 508","ATLANTA","GA",30324,33.8209184410001,-84.351431831,224,"2430 CHESHIRE BRIDGE RD APT 508, ATLANTA, GA, 30324","Match","Exact","2430 CHESHIRE BRIDGE RD, ATLANTA, GA, 30324",640546380,"L"
134725,"2430 COTTAGE CT","MISSOULA","MT",59801,46.8566700980001,-114.036527433,225,"2430 COTTAGE CT, MISSOULA, MT, 59801","Match","Exact","2430 COTTAGE CT, MISSOULA, MT, 59801",205237608,"R"
134726,"2430 E MARYLAND DR","TEMPE","AZ",85281,33.4202769360001,-111.885850565,226,"2430 E MARYLAND DR, TEMPE, AZ, 85281","Match","Exact","2430 E MARYLAND DR, TEMPE, AZ, 85281",128232871,"L"
134727,"2430 GRANADA CIRCLE EAST","SAINT PETERSBURG","FL",33712,27.7339313040001,-82.6664018989999,227,"2430 GRANADA CIRCLE EAST, SAINT PETERSBURG, FL, 33712","Match","Exact","2430 GRANADA CIR E, SAINT PETERSBURG, FL, 33712",124710132,"L"
134728,"2430 HIGHWAY-34 BUILDING-B SUITE-22","MANASQUAN","NJ",8736,NA,NA,228,"2430 HIGHWAY-34 BUILDING-B SUITE-22, MANASQUAN, NJ, 8736","No_Match",NA,NA,NA,NA
134729,"2430 MADELINE LOOP","CEDAR PARK","TX",78613,30.4734208290001,-97.833105636,229,"2430 MADELINE LOOP, CEDAR PARK, TX, 78613","Match","Exact","2430 MADELINE LOOP, CEDAR PARK, TX, 78613",623724418,"L"
134730,"2430 MARYLAND AVE","CINCINNATI","OH",45204,39.1038870470001,-84.5551586779999,230,"2430 MARYLAND AVE, CINCINNATI, OH, 45204","Match","Exact","2430 MARYLAND AVE, CINCINNATI, OH, 45204",624027358,"R"
134731,"2430 MCRAE BLVD","EL PASO","TX",79925,31.7721794300001,-106.35579597,231,"2430 MCRAE BLVD, EL PASO, TX, 79925","Match","Exact","2430 MCRAE BLVD, EL PASO, TX, 79925",189409636,"R"
134732,"2430 N MINNESOTA AVE","JOPLIN","MO",64801,37.1111403510001,-94.5048364089999,232,"2430 N MINNESOTA AVE, JOPLIN, MO, 64801","Match","Exact","2430 N MINNESOTA AVE, JOPLIN, MO, 64801",66158298,"R"
134733,"2430 N NAOMI STREET APT 210","BURBANK","CA",91504,34.1963869090001,-118.340083834,233,"2430 N NAOMI STREET APT 210, BURBANK, CA, 91504","Match","Non_Exact","2430 N NAOMI ST, BURBANK, CA, 91504",142047893,"R"
134734,"2430 N SWAN ROAD","TUCSON","AZ",85711,32.251566774,-110.892641397,234,"2430 N SWAN ROAD, TUCSON, AZ, 85711","Match","Non_Exact","2430 N SWAN RD, TUCSON, AZ, 85712",121179448,"R"
134735,"2430 NW 185TH TERRACE APT 107","MIAMI GARDENS","FL",33056,25.943569725,-80.243353116,235,"2430 NW 185TH TERRACE APT 107, MIAMI GARDENS, FL, 33056","Match","Non_Exact","2430 NW 185TH TER, MIAMI GARDENS, FL, 33056",646583890,"R"
134736,"2430 OCEAN VIEW AVE SUITE 703","LOS ANGELES","CA",90057,34.0626875790001,-118.277630187,236,"2430 OCEAN VIEW AVE SUITE 703, LOS ANGELES, CA, 90057","Match","Exact","2430 OCEAN VIEW AVE, LOS ANGELES, CA, 90057",141605315,"L"
134737,"2430 OLD COUNTY ROAD","NEWARK","DE",19702,39.589715389,-75.742677223,237,"2430 OLD COUNTY ROAD, NEWARK, DE, 19702","Match","Exact","2430 OLD COUNTY RD, NEWARK, DE, 19702",187265566,"R"
134738,"2430 ONTARIO STREET","SCHERERVILLE","IN",46375,41.4776505350001,-87.472000774,238,"2430 ONTARIO STREET, SCHERERVILLE, IN, 46375","Match","Exact","2430 ONTARIO ST, SCHERERVILLE, IN, 46375",652684045,"L"
134739,"2430 ONTARIO","SCHERERVILLE","IN",46375,41.4776505350001,-87.472000774,239,"2430 ONTARIO, SCHERERVILLE, IN, 46375","Match","Non_Exact","2430 ONTARIO ST, SCHERERVILLE, IN, 46375",652684045,"L"
134740,"2430 POLK ST","RENO","NV",89503,39.542343008,-119.841671093,240,"2430 POLK ST, RENO, NV, 89503","Match","Exact","2430 POLK ST, RENO, NV, 89503",107041988,"L"
134741,"2430 ROMAN FOREST BLVD","ROMAN FOREST","TX",77357,30.1786585130001,-95.163626168,241,"2430 ROMAN FOREST BLVD, ROMAN FOREST, TX, 77357","Match","Exact","2430 ROMAN FOREST BLVD, ROMAN FOREST, TX, 77357",79288639,"R"
134742,"2430 S 28TH STREET","MILWAUKEE","WI",53215,42.999905744,-87.949328352,242,"2430 S 28TH STREET, MILWAUKEE, WI, 53215","Match","Exact","2430 S 28TH ST, MILWAUKEE, WI, 53215",77750711,"L"
134743,"2430 S NOVA RD","SOUTH DAYTONA","FL",32119,29.157711933,-81.021700569,243,"2430 S NOVA RD, SOUTH DAYTONA, FL, 32119","Match","Exact","2430 S NOVA RD, S DAYTONA, FL, 32119",639880688,"R"
134744,"2430 S SWAN RD","TUCSON","AZ",85711,32.1955397130001,-110.892558002,244,"2430 S SWAN RD, TUCSON, AZ, 85711","Match","Exact","2430 S SWAN RD, TUCSON, AZ, 85711",121406855,"R"
134745,"2430 SE EVANS AVE","TROUTDALE","OR",97060,45.5238224920001,-122.38014022,245,"2430 SE EVANS AVE, TROUTDALE, OR, 97060","Match","Exact","2430 SE EVANS AVE, TROUTDALE, OR, 97060",157530106,"R"
134746,"2430 SHADOWLAWN DR STE 12","NAPLES","FL",34112,26.1310318070001,-81.770602318,246,"2430 SHADOWLAWN DR STE 12, NAPLES, FL, 34112","Match","Exact","2430 SHADOWLAWN DR, NAPLES, FL, 34112",640845321,"R"
134747,"2430 SIRES LANE","LONGVIEW","WA",98632,46.1651803940001,-122.990183853,247,"2430 SIRES LANE, LONGVIEW, WA, 98632","Match","Exact","2430 SIRES LN, LONGVIEW, WA, 98632",184513582,"R"
134748,"2430 SOUTH 28TH STREET","MILWAUKEE","WI",53215,42.9999089090001,-87.949328309,248,"2430 SOUTH 28TH STREET, MILWAUKEE, WI, 53215","Match","Exact","2430 S 28TH ST, MILWAUKEE, WI, 53215",77750711,"L"
134749,"2430 SOUTH 37TH STREET","LINCOLN","NE",68506,40.788710092,-96.668047467,249,"2430 SOUTH 37TH STREET, LINCOLN, NE, 68506","Match","Exact","2430 S 37TH ST, LINCOLN, NE, 68506",28256030,"L"
134750,"2430 SOUTH 86TH LANE","TOLLESON","AZ",85353,33.424858778,-112.246241967,250,"2430 SOUTH 86TH LANE, TOLLESON, AZ, 85353","Match","Exact","2430 S 86TH LN, TOLLESON, AZ, 85353",128863369,"R"
134751,"2430 SOUTH WAKULLA POINT","HOMOSASSA","FL",34448,28.8266267020001,-82.550601409,251,"2430 SOUTH WAKULLA POINT, HOMOSASSA, FL, 34448","Match","Exact","2430 S WAKULLA PT, HOMOSASSA, FL, 34448",86233015,"L"
134752,"2430 TERMINAL DRIVE","ST PETERSBURG","FL",33712,27.7652566200001,-82.6661849499999,252,"2430 TERMINAL DRIVE, ST PETERSBURG, FL, 33712","Match","Non_Exact","2430 TERMINAL DR S, SAINT PETERSBURG, FL, 33712",124706014,"R"
134753,"2430 TISCH RD","ROCK CREEK","OH",44084,NA,NA,253,"2430 TISCH RD, ROCK CREEK, OH, 44084","No_Match",NA,NA,NA,NA
134754,"2430 VANDERBILT BCH RD STE 108-2711","NAPLES","FL",34109,26.243804703,-81.7716476589999,254,"2430 VANDERBILT BCH RD STE 108-2711, NAPLES, FL, 34109","Match","Exact","2430 VANDERBILT BEACH RD, NAPLES, FL, 34109",649930741,"R"
134755,"2430 VANDERBILT BEACH RD ST 165 108","NAPLES","FL",34109,26.243804703,-81.7716476589999,255,"2430 VANDERBILT BEACH RD ST 165 108, NAPLES, FL, 34109","Match","Exact","2430 VANDERBILT BEACH RD, NAPLES, FL, 34109",649930741,"R"
134756,"2430 VANDERBILT BEACH ROAD 108-27","NAPLES","FL",34109,26.243804703,-81.7716476589999,256,"2430 VANDERBILT BEACH ROAD 108-27, NAPLES, FL, 34109","Match","Exact","2430 VANDERBILT BEACH RD, NAPLES, FL, 34109",649930741,"R"
134757,"2430 VARDON PLACE","FLOSSMOOR","IL",60422,41.544271441,-87.675600678,257,"2430 VARDON PLACE, FLOSSMOOR, IL, 60422","Match","Exact","2430 VARDON PL, FLOSSMOOR, IL, 60422",111709836,"R"
134758,"2430 VASANTA WAY","LOS ANGELES","CA",90068,34.1138529720001,-118.32373755,258,"2430 VASANTA WAY, LOS ANGELES, CA, 90068","Match","Exact","2430 VASANTA WAY, LOS ANGELES, CA, 90068",141594670,"R"
134759,"2430 W BAYSHORE RD","GULF BREEZE","FL",32563,NA,NA,259,"2430 W BAYSHORE RD, GULF BREEZE, FL, 32563","Tie",NA,NA,NA,NA
134760,"2430 W MAIN STREET","LOUISVILLE","KY",40212,38.260353137,-85.790188405,260,"2430 W MAIN STREET, LOUISVILLE, KY, 40212","Match","Exact","2430 W MAIN ST, LOUISVILLE, KY, 40212",96841546,"L"
134761,"2430 W WELLS ST","MILWAUKEE","WI",53233,43.04025298,-87.9435859929999,261,"2430 W WELLS ST, MILWAUKEE, WI, 53233","Match","Exact","2430 W WELLS ST, MILWAUKEE, WI, 53233",77740326,"R"
134762,"2430 WHITE HORSE RD","BERWYN","PA",19312,40.003627824,-75.441640153,262,"2430 WHITE HORSE RD, BERWYN, PA, 19312","Match","Exact","2430 WHITE HORSE RD, BERWYN, PA, 19312",179513405,"L"
134763,"2430 WILMINGTON PIKE","KETTERING","OH",45419,39.712302806,-84.142858146,263,"2430 WILMINGTON PIKE, KETTERING, OH, 45419","Match","Exact","2430 WILMINGTON PIKE, KETTERING, OH, 45419",143582705,"L"
134764,"2430-B PERIWINKLE WAY","SANIBEL","FL",33957,26.435708634,-82.079068623,264,"2430-B PERIWINKLE WAY, SANIBEL, FL, 33957","Match","Exact","2430 PERIWINKLE WAY, SANIBEL, FL, 33957",618019170,"R"
134765,"24300 DEXTER AVE","TOMAH","WI",54660,44.068923441,-90.509466496,265,"24300 DEXTER AVE, TOMAH, WI, 54660","Match","Exact","24300 DEXTER AVE, TOMAH, WI, 54660",51083071,"R"
134766,"24300 E BUNDSCHU RD","INDEPENDENCE","MO",64056,39.118755379,-94.290107419,266,"24300 E BUNDSCHU RD, INDEPENDENCE, MO, 64056","Match","Exact","24300 E BUNDSCHU RD, INDEPENDENCE, MO, 64056",91468882,"L"
134767,"24300 SOUTHFIELD RD STE 212","SOUTHFIELD","MI",48075,NA,NA,267,"24300 SOUTHFIELD RD STE 212, SOUTHFIELD, MI, 48075","No_Match",NA,NA,NA,NA
134768,"24301 AIRPORTER WAY","LAGUNA NIGUEL","CA",92677,33.5647781230001,-117.705965184,268,"24301 AIRPORTER WAY, LAGUNA NIGUEL, CA, 92677","Match","Exact","24301 AIRPORTER WAY, LAGUNA NIGUEL, CA, 92677",144109368,"R"
134769,"24301 BRAZOS TOWN CROSSING 500-14","ROSENBERG","TX",77471,29.5429934320001,-95.751203102,269,"24301 BRAZOS TOWN CROSSING 500-14, ROSENBERG, TX, 77471","Match","Exact","24301 BRAZOS TOWN CROSSING, ROSENBERG, TX, 77471",641161080,"R"
134770,"24301 FORBES RD","OAKWOOD VILLAGE","OH",44146,41.372706414,-81.506835127,270,"24301 FORBES RD, OAKWOOD VILLAGE, OH, 44146","Match","Exact","24301 FORBES RD, OAKWOOD VILLAGE, OH, 44146",61154475,"R"
134771,"24301 SOUTHLAND DR STE 401","HAYWARD","CA",94545,37.652231618,-122.106128965,271,"24301 SOUTHLAND DR STE 401, HAYWARD, CA, 94545","Match","Non_Exact","24301 SOUTHLAND PL, HAYWARD, CA, 94545",125020620,"L"
134772,"24301 SW 114 PATH","HOMESTEAD","FL",33032,25.5418162490001,-80.377674868,272,"24301 SW 114 PATH, HOMESTEAD, FL, 33032","Match","Exact","24301 SW 114TH PATH, HOMESTEAD, FL, 33032",641626085,"L"
134773,"24301 SW 114TH PATH","HOMESTEAD","FL",33032,25.5418162490001,-80.377674868,273,"24301 SW 114TH PATH, HOMESTEAD, FL, 33032","Match","Exact","24301 SW 114TH PATH, HOMESTEAD, FL, 33032",641626085,"L"
134774,"24302 FM 2100 RD","HUFFMAN","TX",77336,30.0278056290001,-95.088379803,274,"24302 FM 2100 RD, HUFFMAN, TX, 77336","Match","Exact","24302 FM 2100 RD, HUFFMAN, TX, 77336",96665999,"R"
134775,"24303 SAFFRON PLUM","SAN ANTONIO","TX",78261,29.6680364100001,-98.424510894,275,"24303 SAFFRON PLUM, SAN ANTONIO, TX, 78261","Match","Exact","24303 SAFFRON PLUM, SAN ANTONIO, TX, 78261",619982979,"R"
134776,"24303 SCHUBERT LANE","SHOREWOOD","IL",60404,41.487137832,-88.204714602,276,"24303 SCHUBERT LANE, SHOREWOOD, IL, 60404","Match","Exact","24303 SCHUBERT LN, SHOREWOOD, IL, 60404",111591800,"L"
134777,"24303 SCHUBERT LN","SHOREWOOD","IL",60404,41.487137832,-88.204714602,277,"24303 SCHUBERT LN, SHOREWOOD, IL, 60404","Match","Exact","24303 SCHUBERT LN, SHOREWOOD, IL, 60404",111591800,"L"
134778,"24303 WOOLSEY CYN RD 147","CANOGA PARK","CA",91304,34.2370535480001,-118.656970928,278,"24303 WOOLSEY CYN RD 147, CANOGA PARK, CA, 91304","Match","Exact","24303 WOOLSEY CANYON RD, CANOGA PARK, CA, 91304",142668103,"R"
134779,"24304 E 850 RD","FAY","OK",73646,NA,NA,279,"24304 E 850 RD, FAY, OK, 73646","No_Match",NA,NA,NA,NA
134780,"24307 CORNERSTONE DRIVE","YARDLEY","PA",19067,40.2037334450001,-74.877474128,280,"24307 CORNERSTONE DRIVE, YARDLEY, PA, 19067","Match","Exact","24307 CORNERSTONE DR, YARDLEY, PA, 19067",647090513,"L"
134781,"24307 MAGIC MOUNTAIN PARKWAY 522","VALENCIA","CA",91355,NA,NA,281,"24307 MAGIC MOUNTAIN PARKWAY 522, VALENCIA, CA, 91355","No_Match",NA,NA,NA,NA
134782,"24307 MAGIC MOUNTAIN PKWY BOX 237","VALENCIA","CA",91355,NA,NA,282,"24307 MAGIC MOUNTAIN PKWY BOX 237, VALENCIA, CA, 91355","No_Match",NA,NA,NA,NA
134783,"24307 MAGIC MOUNTAIN PKWY NUM 136","VALENCIA","CA",91355,NA,NA,283,"24307 MAGIC MOUNTAIN PKWY NUM 136, VALENCIA, CA, 91355","No_Match",NA,NA,NA,NA
134784,"24307 MAGIC MOUNTAIN PKWY STE 196","VALENCIA","CA",91355,NA,NA,284,"24307 MAGIC MOUNTAIN PKWY STE 196, VALENCIA, CA, 91355","No_Match",NA,NA,NA,NA
134785,"24307 MAGIC MOUNTAIN PKWY SUITE 309","VALENCIA","CA",91355,NA,NA,285,"24307 MAGIC MOUNTAIN PKWY SUITE 309, VALENCIA, CA, 91355","No_Match",NA,NA,NA,NA
134786,"24309 NARBONNE AVE SUITE 105","LOMITA","CA",90717,33.8047303700001,-118.319940795,286,"24309 NARBONNE AVE SUITE 105, LOMITA, CA, 90717","Match","Exact","24309 NARBONNE AVE, LOMITA, CA, 90717",641479386,"R"
134787,"24309 NE 163RD COURT","BATTLE GROUND","WA",98604,45.798876276,-122.50465476,287,"24309 NE 163RD COURT, BATTLE GROUND, WA, 98604","Match","Exact","24309 NE 163RD CT, BATTLE GROUND, WA, 98604",158350505,"L"
134788,"2431 21ST AVENUE","OAKLAND","CA",94606,37.7927602520001,-122.231759373,288,"2431 21ST AVENUE, OAKLAND, CA, 94606","Match","Non_Exact","2431 21ST, OAKLAND, CA, 94606",606127813,"L"
134789,"2431 ALAN DALE LN","YORKVILLE","IL",60560,41.6740748280001,-88.45679119,289,"2431 ALAN DALE LN, YORKVILLE, IL, 60560","Match","Exact","2431 ALAN DALE LN, YORKVILLE, IL, 60560",54498601,"L"
134790,"2431 ALOMA AVENUE SUITE 124","WINTER PARK","FL",32792,28.6013470880001,-81.320860602,290,"2431 ALOMA AVENUE SUITE 124, WINTER PARK, FL, 32792","Match","Exact","2431 ALOMA AVE, WINTER PARK, FL, 32792",639771608,"L"
134791,"2431 ALOMA AVENUE SUITE 126","WINTER PARK","FL",32792,28.6013470880001,-81.320860602,291,"2431 ALOMA AVENUE SUITE 126, WINTER PARK, FL, 32792","Match","Exact","2431 ALOMA AVE, WINTER PARK, FL, 32792",639771608,"L"
134792,"2431 BLUESPRUCE COURT","AURORA","IL",60502,41.8157400600001,-88.253868709,292,"2431 BLUESPRUCE COURT, AURORA, IL, 60502","Match","Non_Exact","2431 BLUE SPRUCE CT, AURORA, IL, 60502",112683007,"R"
134793,"2431 CARSWELL AVE JBSA-LACKLAND","SAN ANTONIO","TX",78236,NA,NA,293,"2431 CARSWELL AVE JBSA-LACKLAND, SAN ANTONIO, TX, 78236","No_Match",NA,NA,NA,NA
134794,"2431 DEER SPRINGS DRIVE","ELLENWOOD","GA",30294,33.6788349390001,-84.2924508,294,"2431 DEER SPRINGS DRIVE, ELLENWOOD, GA, 30294","Match","Exact","2431 DEER SPRINGS DR, ELLENWOOD, GA, 30294",619383044,"L"
134795,"2431 E MARQUISE COURT","FRESNO","CA",93720,36.8609864380001,-119.73980315,295,"2431 E MARQUISE COURT, FRESNO, CA, 93720","Match","Exact","2431 E MARQUISE CT, FRESNO, CA, 93720",197632390,"R"
134796,"2431 FERRY PARK","DETROIT","MI",48208,42.3600188500001,-83.096834815,296,"2431 FERRY PARK, DETROIT, MI, 48208","Match","Non_Exact","2431 FERRY PARK ST, DETROIT, MI, 48208",95475664,"L"
134797,"2431 HOLLYHILL DRIVE","SAN ANTONIO","TX",78222,29.3975585520001,-98.390829298,297,"2431 HOLLYHILL DRIVE, SAN ANTONIO, TX, 78222","Match","Exact","2431 HOLLYHILL DR, SAN ANTONIO, TX, 78222",101537230,"R"
134798,"2431 JOAN COLLIER TRACE","KATY","TX",77494,NA,NA,298,"2431 JOAN COLLIER TRACE, KATY, TX, 77494","No_Match",NA,NA,NA,NA
134799,"2431 LOST MESA","GRAND PRAIRIE","TX",75052,32.690767952,-97.0381941539999,299,"2431 LOST MESA, GRAND PRAIRIE, TX, 75052","Match","Exact","2431 LOST MESA, GRAND PRAIRIE, TX, 75052",102121885,"R"
134800,"2431 MEMPHIS AVE","EL PASO","TX",79930,31.7995450020001,-106.468027844,300,"2431 MEMPHIS AVE, EL PASO, TX, 79930","Match","Exact","2431 MEMPHIS AVE, EL PASO, TX, 79930",189340375,"L"
134801,"2431 N 36TH STREET","KANSAS CITY","CA",66104,NA,NA,301,"2431 N 36TH STREET, KANSAS CITY, CA, 66104","No_Match",NA,NA,NA,NA
134802,"2431 N GARRETT AVE UNIT 2","DALLAS","TX",75206,32.8133640070001,-96.7806392269999,302,"2431 N GARRETT AVE UNIT 2, DALLAS, TX, 75206","Match","Non_Exact","2431 N GARRETT AVE, DALLAS, TX, 75206",102910490,"L"
134803,"2431 N MOUNTAIN AVENUE","UPLAND","CA",91784,34.1521848350001,-117.666655789,303,"2431 N MOUNTAIN AVENUE, UPLAND, CA, 91784","Match","Exact","2431 N MOUNTAIN AVE, UPLAND, CA, 91784",144669014,"L"
134804,"2431 N SANDSTONE PL","CASA GRANDE","AZ",85122,32.9248331590001,-111.753944512,304,"2431 N SANDSTONE PL, CASA GRANDE, AZ, 85122","Match","Exact","2431 N SANDSTONE PL, CASA GRANDE, AZ, 85122",129257840,"L"
134805,"2431 NW IRVING ST APARTMENT 20","PORTLAND","OR",97210,45.52761242,-122.700889334,305,"2431 NW IRVING ST APARTMENT 20, PORTLAND, OR, 97210","Match","Non_Exact","2431 NW IRVING ST, PORTLAND, OR, 97210",157589510,"R"
134806,"2431 RESERVE TRAIL","VESTAVIA","AL",35243,NA,NA,306,"2431 RESERVE TRAIL, VESTAVIA, AL, 35243","No_Match",NA,NA,NA,NA
134807,"2431 S FUNDY CIRCLE","AURORA","CO",80013,39.674142347,-104.757617163,307,"2431 S FUNDY CIRCLE, AURORA, CO, 80013","Match","Exact","2431 S FUNDY CIR, AURORA, CO, 80013",635725317,"R"
134808,"2431 TOWN CT N","LAWRENCE TOWNSHIP","NJ",8648,40.285527847,-74.677374738,308,"2431 TOWN CT N, LAWRENCE TOWNSHIP, NJ, 8648","Match","Exact","2431 TOWN CT N, LAWRENCE TOWNSHIP, NJ, 08648",60198731,"L"
134809,"2431 WINCHESTER RD","SHADY VALLEY","TN",37688,36.5407645870001,-81.9066225509999,309,"2431 WINCHESTER RD, SHADY VALLEY, TN, 37688","Match","Exact","2431 WINCHESTER RD, SHADY VALLEY, TN, 37688",612561291,"L"
134810,"24310 LEACHWOOD DR","KATY","TX",77493,29.801218781,-95.790274228,310,"24310 LEACHWOOD DR, KATY, TX, 77493","Match","Exact","24310 LEACHWOOD DR, KATY, TX, 77493",623858074,"R"
134811,"24310 WHIP O WILL LANE","BONITA SPRINGS","FL",34135,26.3846202830001,-81.7778475539999,311,"24310 WHIP O WILL LANE, BONITA SPRINGS, FL, 34135","Match","Exact","24310 WHIP O WILL LN, BONITA SPGS, FL, 34135",640651107,"L"
134812,"24311 452ND AVE","MADISON","SD",57042,43.8601212630001,-97.169301317,312,"24311 452ND AVE, MADISON, SD, 57042","Match","Exact","24311 452ND AVE, MADISON, SD, 57042",203671556,"L"
134813,"24311 MISTY DEW PL","ALDIE","VA",20105,38.9449328330001,-77.573011577,313,"24311 MISTY DEW PL, ALDIE, VA, 20105","Match","Exact","24311 MISTY DEW PL, ALDIE, VA, 20105",642442735,"R"
134814,"24311 N ELK CHATTAROY RD","CHATTAROY","WA",99003,47.8784567800001,-117.342758928,314,"24311 N ELK CHATTAROY RD, CHATTAROY, WA, 99003","Match","Exact","24311 N ELK CHATTAROY RD, CHATTAROY, WA, 99003",635832216,"L"
134815,"24311 ROBINS CREEK ROAD","PRESTON","MD",21655,38.8205532760001,-75.862231503,315,"24311 ROBINS CREEK ROAD, PRESTON, MD, 21655","Match","Exact","24311 ROBINS CREEK RD, PRESTON, MD, 21655",68298754,"R"
134816,"24311 WINTER LAKES DR","KATY","TX",77493,29.872653432,-95.795372458,316,"24311 WINTER LAKES DR, KATY, TX, 77493","Match","Exact","24311 WINTER LAKES DR, KATY, TX, 77493",652756007,"L"
134817,"24312 ROSITA DR","WILDOMAR","CA",92595,33.609447651,-117.235848274,317,"24312 ROSITA DR, WILDOMAR, CA, 92595","Match","Exact","24312 ROSITA DR, WILDOMAR, CA, 92595",608996608,"L"
134818,"24312 ROSITA DRIVE","WILDOMAR","CA",92595,33.609447651,-117.235848274,318,"24312 ROSITA DRIVE, WILDOMAR, CA, 92595","Match","Exact","24312 ROSITA DR, WILDOMAR, CA, 92595",608996608,"L"
134819,"24312 TITUS DRIVE","DANA POINT","CA",92629,33.486850271,-117.705636462,319,"24312 TITUS DRIVE, DANA POINT, CA, 92629","Match","Exact","24312 TITUS DR, DANA POINT, CA, 92629",144417921,"L"
134820,"24313 SPARROW POND COURT","ALDIE","VA",20105,38.9452874080001,-77.57019881,320,"24313 SPARROW POND COURT, ALDIE, VA, 20105","Match","Exact","24313 SPARROW POND CT, ALDIE, VA, 20105",641136296,"R"
134821,"24314 115TH PL SE","KENT","WA",98030,47.383766006,-122.187453256,321,"24314 115TH PL SE, KENT, WA, 98030","Match","Exact","24314 115TH PL SE, KENT, WA, 98030",624364405,"R"
134822,"24315 89TH PL W","EDMONDS","WA",98026,47.7781268370001,-122.35234569,322,"24315 89TH PL W, EDMONDS, WA, 98026","Match","Exact","24315 89TH PL W, EDMONDS, WA, 98026",187755455,"L"
134823,"24315 BRIDEWATER WAY","BROWSTOWN","MI",48134,42.127287912,-83.294016933,323,"24315 BRIDEWATER WAY, BROWSTOWN, MI, 48134","Match","Non_Exact","24315 BRIDGEWATER WAY, BROWNSTOWN, MI, 48134",627870776,"L"
134824,"24315 KENNEDY RANCH LN","HOCKLEY","TX",77447,30.0195018160001,-95.8044559699999,324,"24315 KENNEDY RANCH LN, HOCKLEY, TX, 77447","Match","Exact","24315 KENNEDY RANCH LN, HOCKLEY, TX, 77447",95999951,"R"
134825,"24316 W 143RD STREET STE 102","PLAINFIELD","IL",60544,41.62192658,-88.2420192129999,325,"24316 W 143RD STREET STE 102, PLAINFIELD, IL, 60544","Match","Non_Exact","24316 W 143RD ST, PLAINFIELD, IL, 60544",111642102,"L"
134826,"24317 180TH ST","PAYNESVILLE","MN",56362,45.383196851,-94.6084485869999,326,"24317 180TH ST, PAYNESVILLE, MN, 56362","Match","Exact","24317 180TH ST, PAYNESVILLE, MN, 56362",612000012,"L"
134827,"24318 HEMLOCK AVE STE E4","MORENO VALLEY","CA",92557,33.941950074,-117.240429494,327,"24318 HEMLOCK AVE STE E4, MORENO VALLEY, CA, 92557","Match","Exact","24318 HEMLOCK AVE, MORENO VALLEY, CA, 92557",194820649,"L"
134828,"24318 PLANTATION DR","ATLANTA","GA",30324,33.836034102,-84.356933103,328,"24318 PLANTATION DR, ATLANTA, GA, 30324","Match","Exact","24318 PLANTATION DR, ATLANTA, GA, 30324",647350350,"R"
134829,"2432 22ND STREET","LUBBOCK","TX",79411,33.57456061,-101.868380337,329,"2432 22ND STREET, LUBBOCK, TX, 79411","Match","Exact","2432 22ND ST, LUBBOCK, TX, 79411",185253455,"R"
134830,"2432 ANGELA STREET","WEST COVINA","CA",91792,34.0194372620001,-117.895861563,330,"2432 ANGELA STREET, WEST COVINA, CA, 91792","Match","Exact","2432 ANGELA ST, WEST COVINA, CA, 91792",141716927,"R"
134831,"2432 ASHLEY LOOP","REIDSVILLE","NC",27320,36.410778049,-79.722470618,331,"2432 ASHLEY LOOP, REIDSVILLE, NC, 27320","Match","Exact","2432 ASHLEY LOOP, REIDSVILLE, NC, 27320",56214131,"L"
134832,"2432 ASHPOINT STREET","COLUMBUS","OH",43219,40.022164715,-82.913853613,332,"2432 ASHPOINT STREET, COLUMBUS, OH, 43219","Match","Exact","2432 ASHPOINT ST, COLUMBUS, OH, 43219",624655103,"L"
134833,"2432 AUTUMN VIEW WAY","PARKVILLE","MD",21234,39.411926609,-76.5408540779999,333,"2432 AUTUMN VIEW WAY, PARKVILLE, MD, 21234","Match","Exact","2432 AUTUMN VIEW WAY, PARKVILLE, MD, 21234",191501605,"R"
134834,"2432 BALMORAL STREET","UNION CITY","CA",94587,37.5977153540001,-122.056883779,334,"2432 BALMORAL STREET, UNION CITY, CA, 94587","Match","Exact","2432 BALMORAL ST, UNION CITY, CA, 94587",125024892,"L"
134835,"2432 BERGER DR","BRYAN","TX",77802,30.6745837010001,-96.342386784,335,"2432 BERGER DR, BRYAN, TX, 77802","Match","Exact","2432 BERGER DR, BRYAN, TX, 77802",21844103,"R"
134836,"2432 BERRYVILLE PIKE LOT 213","WINCHESTER","VA",22603,39.1850468120001,-78.098523357,336,"2432 BERRYVILLE PIKE LOT 213, WINCHESTER, VA, 22603","Match","Exact","2432 BERRYVILLE PIKE, WINCHESTER, VA, 22603",641193543,"R"
134837,"2432 CAVE HOLLOW WAY","BOUNTIFUL","UT",84010,40.8630574970001,-111.844045255,337,"2432 CAVE HOLLOW WAY, BOUNTIFUL, UT, 84010","Match","Exact","2432 CAVE HOLLOW WAY, BOUNTIFUL, UT, 84010",229353829,"R"
134838,"2432 CLAY ST","PADUCAH","KY",42001,37.0804658820001,-88.629214724,338,"2432 CLAY ST, PADUCAH, KY, 42001","Match","Exact","2432 CLAY ST, PADUCAH, KY, 42001",8393815,"R"
134839,"2432 CR107","LINCOLN","TX",78948,30.2688924450001,-97.043416569,339,"2432 CR107, LINCOLN, TX, 78948","Match","Exact","2432 CO RD 107, LINCOLN, TX, 78948",624973741,"R"
134840,"2432 DRY RUN RD","CHILLICOTHE","OH",45601,39.361044174,-82.890907274,340,"2432 DRY RUN RD, CHILLICOTHE, OH, 45601","Match","Exact","2432 DRY RUN RD, CHILLICOTHE, OH, 45601",37482779,"R"
134841,"2432 LESLIE","DETROIT","MI",48238,42.390404851,-83.1169472669999,341,"2432 LESLIE, DETROIT, MI, 48238","Match","Non_Exact","2432 LESLIE ST, DETROIT, MI, 48238",95471427,"R"
134842,"2432 LINCOLN BLVD STE C","SANTA MONICA","CA",90405,NA,NA,342,"2432 LINCOLN BLVD STE C, SANTA MONICA, CA, 90405","No_Match",NA,NA,NA,NA
134843,"2432 N TEUTONIA AVENUE","MILWAUKEE","WI",53206,43.0630856380001,-87.928679314,343,"2432 N TEUTONIA AVENUE, MILWAUKEE, WI, 53206","Match","Exact","2432 N TEUTONIA AVE, MILWAUKEE, WI, 53206",77739335,"R"
134844,"2432 NIAGARA ST","NIAGARA FALLS","NY",14303,43.0884404490001,-79.0325611009999,344,"2432 NIAGARA ST, NIAGARA FALLS, NY, 14303","Match","Exact","2432 NIAGARA ST, NIAGARA FALLS, NY, 14303",48686552,"L"
134845,"2432 NW 194TH ST","EDMOND","OK",73012,35.6700127410001,-97.554650255,345,"2432 NW 194TH ST, EDMOND, OK, 73012","Match","Exact","2432 NW 194TH ST, EDMOND, OK, 73012",642069330,"L"
134846,"2432 ORMSBY CIR W","JACKSONVILLE","FL",32210,30.2735851670001,-81.736923352,346,"2432 ORMSBY CIR W, JACKSONVILLE, FL, 32210","Match","Exact","2432 ORMSBY CIR W, JACKSONVILLE, FL, 32210",83911537,"L"
134847,"2432 PRETTY BAYOU ISLAND DRIVE","PANAMA CITY","FL",32405,30.1937571120001,-85.698890188,347,"2432 PRETTY BAYOU ISLAND DRIVE, PANAMA CITY, FL, 32405","Match","Exact","2432 PRETTY BAYOU ISLAND DR, PANAMA CITY, FL, 32405",7059934,"L"
134848,"2432 PRETTY BAYOU ISLAND DRIVE","PANAMA CITY","FM",32405,NA,NA,348,"2432 PRETTY BAYOU ISLAND DRIVE, PANAMA CITY, FM, 32405","No_Match",NA,NA,NA,NA
134849,"2432 S POPLAR DRIVE","FORT COLLINS","CO",80521,40.5740381260001,-105.121274955,349,"2432 S POPLAR DRIVE, FORT COLLINS, CO, 80521","Match","Exact","2432 POPLAR DR, FORT COLLINS, CO, 80521",188489493,"R"
134850,"2432 SPRING VALLEY ROAD","LANCASTER","PA",17601,40.0624256090001,-76.3682634199999,350,"2432 SPRING VALLEY ROAD, LANCASTER, PA, 17601","Match","Exact","2432 SPRING VALLEY RD, LANCASTER, PA, 17601",179696635,"L"
134851,"2432 TOMPAU PLACE","ALPINE","CA",91901,32.8151954890001,-116.791687848,351,"2432 TOMPAU PLACE, ALPINE, CA, 91901","Match","Exact","2432 TOMPAU PL, ALPINE, CA, 91901",195422884,"R"
134852,"2432 VICTORY BOULEVARD","STATEN ISLAND","NY",10314,40.6106523620001,-74.144447565,352,"2432 VICTORY BOULEVARD, STATEN ISLAND, NY, 10314","Match","Exact","2432 VICTORY BLVD, STATEN ISLAND, NY, 10314",59871586,"L"
134853,"2432 W EUGIE  AVE","PHOENIX","AZ",85029,33.609005209,-112.11166867,353,"2432 W EUGIE  AVE, PHOENIX, AZ, 85029","Match","Exact","2432 W EUGIE AVE, PHOENIX, AZ, 85029",128181331,"R"
134854,"2432 WILEY ST","HOLLYWOOD","FL",33020,25.9986825990001,-80.155073682,354,"2432 WILEY ST, HOLLYWOOD, FL, 33020","Match","Exact","2432 WILEY ST, HOLLYWOOD, FL, 33020",114735860,"L"
134855,"2432 WILEY STREET","HOLLYWOOD","FL",33020,25.9986825990001,-80.155073682,355,"2432 WILEY STREET, HOLLYWOOD, FL, 33020","Match","Exact","2432 WILEY ST, HOLLYWOOD, FL, 33020",114735860,"L"
134856,"2432 WYMAN STREET","DALLAS","TX",75088,32.8428074070001,-96.863871248,356,"2432 WYMAN STREET, DALLAS, TX, 75088","Match","Non_Exact","2432 WYMAN ST, DALLAS, TX, 75235",627209752,"R"
134857,"24321 RIDGEDALE ST","OAK PARK","MI",48237,42.4693817400001,-83.1836862919999,357,"24321 RIDGEDALE ST, OAK PARK, MI, 48237","Match","Exact","24321 RIDGEDALE ST, OAK PARK, MI, 48237",69741060,"L"
134858,"24323 SEDLEY ROAD","RICHMOND HEIGHTS","OH",44143,41.5692604490001,-81.513188277,358,"24323 SEDLEY ROAD, RICHMOND HEIGHTS, OH, 44143","Match","Exact","24323 SEDLEY RD, RICHMOND HEIGHTS, OH, 44143",61147458,"R"
134859,"24325 CRENSHAW BLVD STE 145","TORRANCE","CA",90505,33.8045669430001,-118.327941552,359,"24325 CRENSHAW BLVD STE 145, TORRANCE, CA, 90505","Match","Exact","24325 CRENSHAW BLVD, TORRANCE, CA, 90505",638700154,"R"
134860,"24325 CRENSHAW BLVD STE 244","TORRANCE","CA",90505,33.8045669430001,-118.327941552,360,"24325 CRENSHAW BLVD STE 244, TORRANCE, CA, 90505","Match","Exact","24325 CRENSHAW BLVD, TORRANCE, CA, 90505",638700154,"R"
134861,"24325 CRENSHAW BLVD UNIT 238","TORRANCE","CA",90505,33.8045669430001,-118.327941552,361,"24325 CRENSHAW BLVD UNIT 238, TORRANCE, CA, 90505","Match","Exact","24325 CRENSHAW BLVD, TORRANCE, CA, 90505",638700154,"R"
134862,"24325 CRENSHAW BOULEVARD - STE 350","TORRANCE","CA",90505,33.8045669430001,-118.327941552,362,"24325 CRENSHAW BOULEVARD - STE 350, TORRANCE, CA, 90505","Match","Exact","24325 CRENSHAW BLVD, TORRANCE, CA, 90505",638700154,"R"
134863,"24328 VERMONT AVE STE 302","HARBOR CITY","CA",90710,33.8037778340001,-118.290305352,363,"24328 VERMONT AVE STE 302, HARBOR CITY, CA, 90710","Match","Non_Exact","24328 S VERMONT AVE, HARBOR CITY, CA, 90710",141670036,"L"
134864,"2433 78TH AVE NE","MEDINA","WA",98039,47.632529672,-122.235930555,364,"2433 78TH AVE NE, MEDINA, WA, 98039","Match","Exact","2433 78TH AVE NE, MEDINA, WA, 98039",641259228,"L"
134865,"2433 APPALOOSA LN","CELINA","TX",75009,33.2923149760001,-96.7803131539999,365,"2433 APPALOOSA LN, CELINA, TX, 75009","Match","Exact","2433 APPALOOSA LN, CELINA, TX, 75009",649029198,"R"
134866,"2433 BERMONT RED LANE","FORT WORTH","TX",76131,32.883230156,-97.326368303,366,"2433 BERMONT RED LANE, FORT WORTH, TX, 76131","Match","Exact","2433 BERMONT RED LN, FORT WORTH, TX, 76131",648338269,"L"
134867,"2433 DUTCH BRANCH ROAD","COLUMBIA","SC",29210,34.0311451540001,-81.127633809,367,"2433 DUTCH BRANCH ROAD, COLUMBIA, SC, 29210","Match","Exact","2433 DUTCH BRANCH RD, COLUMBIA, SC, 29210",70050204,"R"
134868,"2433 E MONTECITO AVE","PHOENIX","AZ",85016,33.4998788350001,-112.028824717,368,"2433 E MONTECITO AVE, PHOENIX, AZ, 85016","Match","Exact","2433 E MONTECITO AVE, PHOENIX, AZ, 85016",623878460,"L"
134869,"2433 ENSENADA LANE","FORT WORTH","TX",76108,32.737278001,-97.507491685,369,"2433 ENSENADA LANE, FORT WORTH, TX, 76108","Match","Exact","2433 ENSENADA LN, FORT WORTH, TX, 76108",102156560,"L"
134870,"2433 N GETTYSBURG AVE","DAYTON","OH",45406,39.789285976,-84.25379379,370,"2433 N GETTYSBURG AVE, DAYTON, OH, 45406","Match","Exact","2433 N GETTYSBURG AVE, DAYTON, OH, 45406",143565178,"L"
134871,"2433 PARK SUMMIT BLVD","APEX","NC",27523,35.7482304930001,-78.825282266,371,"2433 PARK SUMMIT BLVD, APEX, NC, 27523","Match","Exact","2433 PARK SUMMIT BLVD, APEX, NC, 27523",612817328,"L"
134872,"2433 S 16TH AVE","BROADVIEW","IL",60155,41.859790122,-87.8516288979999,372,"2433 S 16TH AVE, BROADVIEW, IL, 60155","Match","Exact","2433 16TH AVE, BROADVIEW, IL, 60155",111791108,"L"
134873,"2433 SW 12TH COURT","LEE'S SUMMIT","MO",64081,38.8995220360001,-94.426048786,373,"2433 SW 12TH COURT, LEE'S SUMMIT, MO, 64081","Match","Non_Exact","2433 SW 12TH CT, LEES SUMMIT, MO, 64081",91511825,"L"
134874,"2433 VIA SONOMA","PALOS VERDES EST","CA",90274,33.7887602100001,-118.388280897,374,"2433 VIA SONOMA, PALOS VERDES EST, CA, 90274","Match","Exact","2433 VIA SONOMA, PALOS VERDES ESTATES, CA, 90274",141585181,"L"
134875,"2433 WEST 5900 NORTH","CEDAR CITY","UT",84721,37.784954112,-113.095268414,375,"2433 WEST 5900 NORTH, CEDAR CITY, UT, 84721","Match","Exact","2433 W 5900 N, CEDAR CITY, UT, 84721",636686026,"L"
134876,"24330 CHURCH ST","OAK PARK","MI",48237,42.4702430180001,-83.1922236889999,376,"24330 CHURCH ST, OAK PARK, MI, 48237","Match","Exact","24330 CHURCH ST, OAK PARK, MI, 48237",69740861,"R"
134877,"24330 JOHN R ROAD PMB 2250","HAZEL PARK","MI",48303,42.4708505230001,-83.104401606,377,"24330 JOHN R ROAD PMB 2250, HAZEL PARK, MI, 48303","Match","Non_Exact","24330 JOHN R RD, HAZEL PARK, MI, 48030",69747500,"R"
134878,"24331 OAKHILL DR","EUCLID","OH",44117,41.5757632230001,-81.5115783369999,378,"24331 OAKHILL DR, EUCLID, OH, 44117","Match","Exact","24331 OAKHILL DR, EUCLID, OH, 44117",61108796,"L"
134879,"24331 RANCHER LANE","DENHAM SPRINGS","LA",70726,30.422535227,-90.9427093309999,379,"24331 RANCHER LANE, DENHAM SPRINGS, LA, 70726","Match","Exact","24331 RANCHER LN, DENHAM SPRINGS, LA, 70726",115086233,"R"
134880,"24332 SHUFELT ROAD","SEAFORD","DE",19973,38.6495712400001,-75.674188401,380,"24332 SHUFELT ROAD, SEAFORD, DE, 19973","Match","Exact","24332 SHUFELT RD, SEAFORD, DE, 19973",106121458,"L"
134881,"24333 INDOPLEX CIRCLE","FARMINGTON HILLS","MI",48335,42.4716073930001,-83.3916884019999,381,"24333 INDOPLEX CIRCLE, FARMINGTON HILLS, MI, 48335","Match","Exact","24333 INDOPLEX CIR, FARMINGTON HILLS, MI, 48335",69784470,"L"
134882,"24336 348TH AVE","PUKWANA","SD",57370,NA,NA,382,"24336 348TH AVE, PUKWANA, SD, 57370","No_Match",NA,NA,NA,NA
134883,"24337 W CAMELOT RD","JOLIET","IL",60404,41.4766957430001,-88.205468782,383,"24337 W CAMELOT RD, JOLIET, IL, 60404","Match","Exact","24337 W CAMELOT RD, JOLIET, IL, 60404",111537425,"R"
134884,"2434 ARLINGTON BOULEVARD","CHARLOTTESVILLE","VA",22903,38.0506106730001,-78.507885812,384,"2434 ARLINGTON BOULEVARD, CHARLOTTESVILLE, VA, 22903","Match","Exact","2434 ARLINGTON BLVD, CHARLOTTESVILLE, VA, 22903",649784911,"L"
134885,"2434 AVE D","COUNCIL BLUFFS","IA",51501,41.265363904,-95.880396321,385,"2434 AVE D, COUNCIL BLUFFS, IA, 51501","Match","Exact","2434 AVE D, COUNCIL BLUFFS, IA, 51501",43900201,"R"
134886,"2434 COBURN LANE","SHREVEPORT","LA",71107,32.5335372330001,-93.819031723,386,"2434 COBURN LANE, SHREVEPORT, LA, 71107","Match","Exact","2434 COBURN LN, SHREVEPORT, LA, 71107",57430671,"R"
134887,"2434 E 56TH PL","TULSA","OK",74105,36.0814177780001,-95.956926723,387,"2434 E 56TH PL, TULSA, OK, 74105","Match","Exact","2434 E 56TH PL, TULSA, OK, 74105",166444475,"R"
134888,"2434 ELLIS ST APT 810","DALLAS","TX",75204,32.799199452,-96.796393204,388,"2434 ELLIS ST APT 810, DALLAS, TX, 75204","Match","Exact","2434 ELLIS ST, DALLAS, TX, 75204",102909222,"R"
134889,"2434 FOREST HILLS BLVD","GREENWOD","IN",46143,39.578970242,-86.188640157,389,"2434 FOREST HILLS BLVD, GREENWOD, IN, 46143","Match","Non_Exact","2434 FOREST HILLS BLVD, GREENWOOD, IN, 46143",114654942,"R"
134890,"2434 GOLAY ROAD","CAMBRIDGE CITY","IN",47327,39.7982906490001,-85.211829103,390,"2434 GOLAY ROAD, CAMBRIDGE CITY, IN, 47327","Match","Exact","2434 GOLAY RD, CAMBRIDGE CITY, IN, 47327",31336351,"L"
134891,"2434 HUDSON ROAD SUITE 133","GREER","SC",29650,34.8936682350001,-82.2899807969999,391,"2434 HUDSON ROAD SUITE 133, GREER, SC, 29650","Match","Exact","2434 HUDSON RD, GREER, SC, 29650",653327969,"L"
134892,"2434 INDEPENDENCE LANE UNIT 106","MADISON","WI",53704,43.1309153990001,-89.3087677569999,392,"2434 INDEPENDENCE LANE UNIT 106, MADISON, WI, 53704","Match","Exact","2434 INDEPENDENCE LN, MADISON, WI, 53704",49557063,"L"
134893,"2434 LILLIAN MILLER PKWY","DENTON","TX",76205,33.185375643,-97.10880238,393,"2434 LILLIAN MILLER PKWY, DENTON, TX, 76205","Match","Exact","2434 LILLIAN MILLER PKWY, DENTON, TX, 76205",218066969,"L"
134894,"2434 MYRTLE STREET","WINTERVILLE","NC",28590,35.5326367170001,-77.4020816569999,394,"2434 MYRTLE STREET, WINTERVILLE, NC, 28590","Match","Exact","2434 MYRTLE ST, WINTERVILLE, NC, 28590",80010438,"L"
134895,"2434 NORTH CORONA STREET","COLORADO SPRINGS","CO",80907,38.867218973,-104.814769971,395,"2434 NORTH CORONA STREET, COLORADO SPRINGS, CO, 80907","Match","Exact","2434 N CORONA ST, COLORADO SPRINGS, CO, 80907",105512949,"L"
134896,"2434 PICKWICK ROAD","BALTIMORE","MD",21207,39.317080838,-76.704237177,396,"2434 PICKWICK ROAD, BALTIMORE, MD, 21207","Match","Exact","2434 PICKWICK RD, BALTIMORE, MD, 21207",647410266,"L"
134897,"2434 QUEEN STREET S","ST. PETERSBURG","FL",33712,27.746068972,-82.657306917,397,"2434 QUEEN STREET S, ST. PETERSBURG, FL, 33712","Match","Exact","2434 QUEEN ST S, SAINT PETERSBURG, FL, 33712",124719007,"L"
134898,"2434 REMINGTON BOULEVARD","KISSIMMEE","FL",34744,28.2805012900001,-81.332535201,398,"2434 REMINGTON BOULEVARD, KISSIMMEE, FL, 34744","Match","Exact","2434 REMINGTON BLVD, KISSIMMEE, FL, 34744",630462650,"R"
134899,"2434 ROMAN FOREST BLVD","NEW CANEY","TX",77357,30.1787177580001,-95.163593852,399,"2434 ROMAN FOREST BLVD, NEW CANEY, TX, 77357","Match","Exact","2434 ROMAN FOREST BLVD, NEW CANEY, TX, 77357",79288639,"R"
134900,"2434 S SERVICE ROAD","SAINT CLAIR","MO",63077,NA,NA,400,"2434 S SERVICE ROAD, SAINT CLAIR, MO, 63077","No_Match",NA,NA,NA,NA
134901,"2434 SE WEST BLACKWELL DRIVE","PORT ST LUCIE","FL",34952,27.268383208,-80.265354504,401,"2434 SE WEST BLACKWELL DRIVE, PORT ST LUCIE, FL, 34952","Match","Exact","2434 SE WEST BLACKWELL DR, PORT ST LUCIE, FL, 34952",120173943,"R"
134902,"2434 SW SHERWOOD DR","PORTLAND","OR",97201,45.503254945,-122.700931678,402,"2434 SW SHERWOOD DR, PORTLAND, OR, 97201","Match","Exact","2434 SW SHERWOOD DR, PORTLAND, OR, 97201",157604589,"L"
134903,"2434 W WARNER AVE","CHICAGO","IL",60618,41.9567568250001,-87.689677334,403,"2434 W WARNER AVE, CHICAGO, IL, 60618","Match","Exact","2434 W WARNER AVE, CHICAGO, IL, 60618",605157146,"R"
134904,"2434 WAIOMAO RD","HONOLULU","HI",96816,21.302996751,-157.784008135,404,"2434 WAIOMAO RD, HONOLULU, HI, 96816","Match","Exact","2434 WAIOMAO RD, HONOLULU, HI, 96816",203239986,"L"
134905,"2434 WATERFALL LANE","COLUMBUS","OH",43209,39.9298724540001,-82.9303506689999,405,"2434 WATERFALL LANE, COLUMBUS, OH, 43209","Match","Exact","2434 WATERFALL LN, COLUMBUS, OH, 43209",218676811,"L"
134906,"2434 WEBBER STREET","SARASOTA","FL",34239,27.3083179160001,-82.5208550949999,406,"2434 WEBBER STREET, SARASOTA, FL, 34239","Match","Exact","2434 WEBBER ST, SARASOTA, FL, 34239",16405271,"R"
134907,"2434 WESTWIND RD","LAS CRUCES","NM",88007,32.3504950060001,-106.838850879,407,"2434 WESTWIND RD, LAS CRUCES, NM, 88007","Match","Exact","2434 WESTWIND RD, LAS CRUCES, NM, 88007",651095296,"R"
134908,"2434","TULSA","OK",74101,NA,NA,408,"2434, TULSA, OK, 74101","No_Match",NA,NA,NA,NA
134909,"24340 SUNNYMEAD BOULEVARD","MORENO VALLEY","CA",92553,33.9391107100001,-117.238524171,409,"24340 SUNNYMEAD BOULEVARD, MORENO VALLEY, CA, 92553","Match","Exact","24340 SUNNYMEAD BLVD, MORENO VALLEY, CA, 92553",194749372,"L"
134910,"24342 EL MOLINA AVE","VALENCIA","CA",91355,34.444856697,-118.567703705,410,"24342 EL MOLINA AVE, VALENCIA, CA, 91355","Match","Exact","24342 EL MOLINA AVE, VALENCIA, CA, 91355",627284249,"R"
134911,"24342 RIDGEVIEW DR","FARMINGTON HLS","MI",48336,42.472094358,-83.3542398229999,411,"24342 RIDGEVIEW DR, FARMINGTON HLS, MI, 48336","Match","Exact","24342 RIDGEVIEW DR, FARMINGTON HILLS, MI, 48336",69784481,"R"
134912,"24345 LA HWY 1032","DENHAM SPRINGS","LA",70726,NA,NA,412,"24345 LA HWY 1032, DENHAM SPRINGS, LA, 70726","No_Match",NA,NA,NA,NA
134913,"24345 WILDERNESS OAK APT 29","SAN ANTONIO","TX",78258,29.666017233,-98.472331915,413,"24345 WILDERNESS OAK APT 29, SAN ANTONIO, TX, 78258","Match","Exact","24345 WILDERNESS OAK, SAN ANTONIO, TX, 78258",652306798,"L"
134914,"24349 CHIPPEWA","FARMINGTON HILLS","MI",48335,42.470176741,-83.405603417,414,"24349 CHIPPEWA, FARMINGTON HILLS, MI, 48335","Match","Exact","24349 CHIPPEWA, FARMINGTON HILLS, MI, 48335",625754829,"R"
134915,"24349 S 201ST CT","QUEEN CREEK","AZ",85142,33.2274573940001,-111.650626941,415,"24349 S 201ST CT, QUEEN CREEK, AZ, 85142","Match","Exact","24349 S 201ST CT, QUEEN CREEK, AZ, 85142",633352543,"R"
134916,"2435 - 27TH AVENUE","SAN FRANCISCO","CA",94116,NA,NA,416,"2435 - 27TH AVENUE, SAN FRANCISCO, CA, 94116","No_Match",NA,NA,NA,NA
134917,"2435 15TH AVENUE SOUTH","MINNEAPOLIS","MN",55404,44.95846148,-93.253626889,417,"2435 15TH AVENUE SOUTH, MINNEAPOLIS, MN, 55404","Match","Exact","2435 15TH AVE S, MINNEAPOLIS, MN, 55404",43633409,"L"
134918,"2435 15TH STREET","WYANDOTTE","MI",48192,42.2085130300001,-83.171217284,418,"2435 15TH STREET, WYANDOTTE, MI, 48192","Match","Exact","2435 15TH ST, WYANDOTTE, MI, 48192",642524124,"L"
134919,"2435 BADGER LANE","CARLSBAD","CA",92010,33.143637025,-117.281016284,419,"2435 BADGER LANE, CARLSBAD, CA, 92010","Match","Exact","2435 BADGER LN, CARLSBAD, CA, 92010",195769541,"L"
134920,"2435 BAILEY RD","CUYAHOGA FALLS","OH",44221,41.1410281710001,-81.468941795,420,"2435 BAILEY RD, CUYAHOGA FALLS, OH, 44221","Match","Exact","2435 BAILEY RD, CUYAHOGA FALLS, OH, 44221",61348857,"R"
134921,"2435 BELLVIEW AVE NW","ATLANTA","GA",30318,33.7773100590001,-84.4670327439999,421,"2435 BELLVIEW AVE NW, ATLANTA, GA, 30318","Match","Exact","2435 BELLVIEW AVE NW, ATLANTA, GA, 30318",17339621,"R"
134922,"2435 BURLINGTON ST NE","SALEM","OR",97305,44.9588488200001,-122.973827977,422,"2435 BURLINGTON ST NE, SALEM, OR, 97305","Match","Exact","2435 BURLINGTON ST NE, SALEM, OR, 97305",156269566,"L"
134923,"2435 DIVISADERO STREET","SAN FRANCISCO","CA",94115,37.7919587370001,-122.441224972,423,"2435 DIVISADERO STREET, SAN FRANCISCO, CA, 94115","Match","Exact","2435 DIVISADERO ST, SAN FRANCISCO, CA, 94115",192279589,"L"
134924,"2435 DIXIE AVE","SMYRNA","GA",30080,33.8925852880001,-84.518921736,424,"2435 DIXIE AVE, SMYRNA, GA, 30080","Match","Exact","2435 DIXIE AVE, SMYRNA, GA, 30080",649419919,"L"
134925,"2435 E NORTH ST SUITE 1108-109","GREENVILLE","SC",29615,34.8693689350001,-82.353653333,425,"2435 E NORTH ST SUITE 1108-109, GREENVILLE, SC, 29615","Match","Non_Exact","2435 E NORTH ST, GREENVILLE, SC, 29615",38302731,"L"
134926,"2435 EAST HEBRON PARKWAY","CARROLLTON","TX",75010,33.024536336,-96.8642666279999,426,"2435 EAST HEBRON PARKWAY, CARROLLTON, TX, 75010","Match","Exact","2435 E HEBRON PKWY, CARROLLTON, TX, 75010",614154830,"L"
134927,"2435 EAST NORTH ST SUITE 1108-266","GREENVILLE","SC",29615,34.86936874,-82.353654846,427,"2435 EAST NORTH ST SUITE 1108-266, GREENVILLE, SC, 29615","Match","Exact","2435 E NORTH ST, GREENVILLE, SC, 29615",38302731,"L"
134928,"2435 EAST NORTH STREET","GREENVILLE","SC",29615,34.86936874,-82.353654846,428,"2435 EAST NORTH STREET, GREENVILLE, SC, 29615","Match","Exact","2435 E NORTH ST, GREENVILLE, SC, 29615",38302731,"L"
134929,"2435 ESPLANADE AVENUE","NEW ORLEANS","LA",70119,29.9745674930001,-90.076066371,429,"2435 ESPLANADE AVENUE, NEW ORLEANS, LA, 70119","Match","Exact","2435 ESPLANADE AVE, NEW ORLEANS, LA, 70119",191709559,"R"
134930,"2435 FAIRFOREST CLEVEDALE RD U 235","FAIRFOREST","SC",29336,NA,NA,430,"2435 FAIRFOREST CLEVEDALE RD U 235, FAIRFOREST, SC, 29336","No_Match",NA,NA,NA,NA
134931,"2435 FIREMESA ST SUITE 110","LAS VEGAS","NV",89128,36.2046556830001,-115.257516097,431,"2435 FIREMESA ST SUITE 110, LAS VEGAS, NV, 89128","Match","Non_Exact","2435 FIRE MESA ST, LAS VEGAS, NV, 89128",632842422,"L"
134932,"2435 HARBOR AVE","MEMPHIS","TN",38113,35.086829363,-90.121265896,432,"2435 HARBOR AVE, MEMPHIS, TN, 38113","Match","Exact","2435 HARBOR AVE, MEMPHIS, TN, 38113",72896662,"L"
134933,"2435 KENILWORTH AVENUE","BERWYN","IL",60402,41.84599905,-87.795665748,433,"2435 KENILWORTH AVENUE, BERWYN, IL, 60402","Match","Exact","2435 KENILWORTH AVE, BERWYN, IL, 60402",605114686,"L"
134934,"2435 KING BLVD SUITE B42","CASPER","WY",82604,NA,NA,434,"2435 KING BLVD SUITE B42, CASPER, WY, 82604","No_Match",NA,NA,NA,NA
134935,"2435 MIRACLE MILE","BULLHEAD CITY","AZ",86442,35.0973462220001,-114.596486548,435,"2435 MIRACLE MILE, BULLHEAD CITY, AZ, 86442","Match","Exact","2435 MIRACLE MILE, BULLHEAD CITY, AZ, 86442",190317453,"L"
134936,"2435 MORNINGSTAR LANE","IDAHO FALLS","ID",83402,43.5013603630001,-112.080746394,436,"2435 MORNINGSTAR LANE, IDAHO FALLS, ID, 83402","Match","Exact","2435 MORNINGSTAR LN, IDAHO FALLS, ID, 83402",119123185,"L"
134937,"2435 N 82ND STREET","MESA","AZ",85207,33.4593784030001,-111.654201222,437,"2435 N 82ND STREET, MESA, AZ, 85207","Match","Exact","2435 N 82ND ST, MESA, AZ, 85207",128252986,"R"
134938,"2435 N DIXIE HIGHWAY","WILTON MANORS","FL",33305,26.157823066,-80.132035521,438,"2435 N DIXIE HIGHWAY, WILTON MANORS, FL, 33305","Match","Exact","2435 N DIXIE HWY, WILTON MANORS, FL, 33305",114722099,"L"
134939,"2435 N DIXIE HWY","WILTON MANORS","FL",33305,26.157823066,-80.132035521,439,"2435 N DIXIE HWY, WILTON MANORS, FL, 33305","Match","Exact","2435 N DIXIE HWY, WILTON MANORS, FL, 33305",114722099,"L"
134940,"2435 NORTH 25TH STREET","PHILADELPHIA","PA",19132,39.992663271,-75.173120968,440,"2435 NORTH 25TH STREET, PHILADELPHIA, PA, 19132","Match","Exact","2435 N 25TH ST, PHILADELPHIA, PA, 19132",131402633,"R"
134941,"2435 NW SHADY BEND LN","LEE'S SUMMIT","MO",64081,38.928476892,-94.426422965,441,"2435 NW SHADY BEND LN, LEE'S SUMMIT, MO, 64081","Match","Non_Exact","2435 NW SHADY BEND ST, LEES SUMMIT, MO, 64081",91503504,"L"
134942,"2435 OAK PARK DRIVE","COOKEVILLE","TN",38506,36.197675029,-85.469094732,442,"2435 OAK PARK DRIVE, COOKEVILLE, TN, 38506","Match","Exact","2435 OAK PARK DR, COOKEVILLE, TN, 38506",25143014,"R"
134943,"2435 ORANGE AVE","LA CRESCENTA","CA",91214,34.229619515,-118.231646446,443,"2435 ORANGE AVE, LA CRESCENTA, CA, 91214","Match","Exact","2435 ORANGE AVE, LA CRESCENTA, CA, 91214",141589694,"R"
134944,"2435 PICKETTVILLE ROAD","JACKSONVILLE","FL",32220,NA,NA,444,"2435 PICKETTVILLE ROAD, JACKSONVILLE, FL, 32220","No_Match",NA,NA,NA,NA
134945,"2435 PONDEROSA RIDGE DRIVE","MANVEL","TX",77578,29.5262312360001,-95.4036119089999,445,"2435 PONDEROSA RIDGE DRIVE, MANVEL, TX, 77578","Match","Exact","2435 PONDEROSA RIDGE DR, MANVEL, TX, 77578",651881532,"L"
134946,"2435 Q AVENUE","CLUTIER","IA",52217,42.0883168030001,-92.455752052,446,"2435 Q AVENUE, CLUTIER, IA, 52217","Match","Exact","2435 Q AVE, CLUTIER, IA, 52217",90974951,"R"
134947,"2435 S 61ST AVE","CICERO","IL",60804,41.8464754610001,-87.776055067,447,"2435 S 61ST AVE, CICERO, IL, 60804","Match","Exact","2435 S 61ST AVE, CICERO, IL, 60804",111795348,"L"
134948,"2435 S FORGOTTEN LANE","REPUBLIC","MO",65738,NA,NA,448,"2435 S FORGOTTEN LANE, REPUBLIC, MO, 65738","No_Match",NA,NA,NA,NA
134949,"2435 S LELAND ST UNIT 3","SAN PEDRO","CA",90731,33.722134582,-118.301231306,449,"2435 S LELAND ST UNIT 3, SAN PEDRO, CA, 90731","Match","Non_Exact","2435 S LELAND ST, SAN PEDRO, CA, 90731",141690413,"R"
134950,"2435 S PEORIA AVE","TULSA","OK",74114,36.12921291,-95.9756564529999,450,"2435 S PEORIA AVE, TULSA, OK, 74114","Match","Exact","2435 S PEORIA AVE, TULSA, OK, 74114",166442239,"L"
134951,"2435 SE GREEN OAKS BLVD 137","ARLINGTON","TX",76018,32.6606389510001,-97.0660372739999,451,"2435 SE GREEN OAKS BLVD 137, ARLINGTON, TX, 76018","Match","Non_Exact","2435 SE GREEN OAKS BLVD, ARLINGTON, TX, 76018",102132129,"L"
134952,"2435 SHOAL CREEK RD","COLBERT","GA",30628,34.010633727,-83.2287817439999,452,"2435 SHOAL CREEK RD, COLBERT, GA, 30628","Match","Exact","2435 SHOAL CREEK RD, COLBERT, GA, 30628",5020134,"R"
134953,"2435 SLEEPY HOLLOW DR","STATE COLLEGE","PA",16803,40.7860176840001,-77.912671706,453,"2435 SLEEPY HOLLOW DR, STATE COLLEGE, PA, 16803","Match","Exact","2435 SLEEPY HOLLOW DR, STATE COLLEGE, PA, 16803",50383259,"R"
134954,"2435 SQUIRE PLACE 100","DALLAS","TX",75234,32.9305584260001,-96.897848725,454,"2435 SQUIRE PLACE 100, DALLAS, TX, 75234","Match","Exact","2435 SQUIRE PL, DALLAS, TX, 75234",102888897,"L"
134955,"2435 SQUIRE PLACE STE 100","FARMERS BRANCH","TX",75234,32.9305584260001,-96.897848725,455,"2435 SQUIRE PLACE STE 100, FARMERS BRANCH, TX, 75234","Match","Exact","2435 SQUIRE PL, FARMERS BRANCH, TX, 75234",102888897,"L"
134956,"2435 SQUIRE PLACE SUITE 100","FARMERS BRANCH","TX",75234,32.9305584260001,-96.897848725,456,"2435 SQUIRE PLACE SUITE 100, FARMERS BRANCH, TX, 75234","Match","Exact","2435 SQUIRE PL, FARMERS BRANCH, TX, 75234",102888897,"L"
134957,"2435 TEXAS PARKWAY - SUITE G","MISSOURI CITY","TX",77489,29.5951881400001,-95.526702829,457,"2435 TEXAS PARKWAY - SUITE G, MISSOURI CITY, TX, 77489","Match","Exact","2435 TEXAS PKWY, MISSOURI CITY, TX, 77489",78274525,"R"
134958,"2435 W THOMAS ST UNIT 1F","CHICAGO","IL",60622,41.9011855420001,-87.68808641,458,"2435 W THOMAS ST UNIT 1F, CHICAGO, IL, 60622","Match","Non_Exact","2435 W THOMAS ST, CHICAGO, IL, 60622",605058771,"L"
134959,"2435 WALNUT AVE","VENICE","CA",90291,33.994526777,-118.449515077,459,"2435 WALNUT AVE, VENICE, CA, 90291","Match","Exact","2435 WALNUT AVE, VENICE, CA, 90291",141577061,"R"
134960,"2435","RICHARDSON","TX",75080,NA,NA,460,"2435, RICHARDSON, TX, 75080","No_Match",NA,NA,NA,NA
134961,"24350 CONDON ST","OAK PARK","MI",48237,42.4710168450001,-83.173712387,461,"24350 CONDON ST, OAK PARK, MI, 48237","Match","Exact","24350 CONDON ST, OAK PARK, MI, 48237",630377561,"R"
134962,"24352 EAGLES LANDING PL","ALDIE","VA",20105,38.943321704,-77.56893731,462,"24352 EAGLES LANDING PL, ALDIE, VA, 20105","Match","Exact","24352 EAGLES LANDING PL, ALDIE, VA, 20105",641136276,"L"
134963,"24354 SQUIRES ROAD","COLUMBIA STATION","OH",44028,NA,NA,463,"24354 SQUIRES ROAD, COLUMBIA STATION, OH, 44028","No_Match",NA,NA,NA,NA
134964,"24355 CREEKSIDE RD UNIT 801664","VALENCIA","CA",91380,34.4217336090001,-118.56148424,464,"24355 CREEKSIDE RD UNIT 801664, VALENCIA, CA, 91380","Match","Non_Exact","24355 CREEKSIDE RD, VALENCIA, CA, 91355",241248006,"R"
134965,"24359 NORTHWESTERN HWY STE 200","SOUTHFIELD","MI",48075,42.467774164,-83.235458576,465,"24359 NORTHWESTERN HWY STE 200, SOUTHFIELD, MI, 48075","Match","Exact","24359 NORTHWESTERN HWY, SOUTHFIELD, MI, 48075",69815661,"L"
134966,"24359 NORTHWESTERN HWY SUITE 150","SOUTHFIELD","MI",48075,42.467774164,-83.235458576,466,"24359 NORTHWESTERN HWY SUITE 150, SOUTHFIELD, MI, 48075","Match","Exact","24359 NORTHWESTERN HWY, SOUTHFIELD, MI, 48075",69815661,"L"
134967,"2436 29TH STREET APT 2B","ASTORIA","NY",11102,NA,NA,467,"2436 29TH STREET APT 2B, ASTORIA, NY, 11102","No_Match",NA,NA,NA,NA
134968,"2436 30TH STREET","BOULDER","CO",80301,40.0257032440001,-105.253676149,468,"2436 30TH STREET, BOULDER, CO, 80301","Match","Exact","2436 30TH ST, BOULDER, CO, 80301",220750794,"R"
134969,"2436 BEMAN CT","WINTER PARK","FL",32792,28.6219909870001,-81.301839241,469,"2436 BEMAN CT, WINTER PARK, FL, 32792","Match","Exact","2436 BEMAN CT, WINTER PARK, FL, 32792",93745422,"R"
134970,"2436 CANTERBURY ST","EUGENE","OR",97404,44.099519623,-123.147246501,470,"2436 CANTERBURY ST, EUGENE, OR, 97404","Match","Exact","2436 CANTERBURY ST, EUGENE, OR, 97404",178163431,"L"
134971,"2436 CHIMNEY ROCK RD","HOUSTON","TX",77056,29.740398285,-95.477191733,471,"2436 CHIMNEY ROCK RD, HOUSTON, TX, 77056","Match","Exact","2436 CHIMNEY ROCK RD, HOUSTON, TX, 77056",96033017,"R"
134972,"2436 COLUMBUS ST","NEW ORLEANS","LA",70119,29.9762260680001,-90.074617632,472,"2436 COLUMBUS ST, NEW ORLEANS, LA, 70119","Match","Exact","2436 COLUMBUS ST, NEW ORLEANS, LA, 70119",191709554,"L"
134973,"2436 EAST 4TH STREET 1052","LONG BEACH","CA",90814,33.771691537,-118.162449496,473,"2436 EAST 4TH STREET 1052, LONG BEACH, CA, 90814","Match","Exact","2436 E 4TH ST, LONG BEACH, CA, 90814",141701437,"R"
134974,"2436 EAST 4TH STREET 797","LONG BEACH","CA",90814,33.771691537,-118.162449496,474,"2436 EAST 4TH STREET 797, LONG BEACH, CA, 90814","Match","Exact","2436 E 4TH ST, LONG BEACH, CA, 90814",141701437,"R"
134975,"2436 EMERSON AVE S","ST PETERSBURG","FL",33712,27.765592364,-82.666281,475,"2436 EMERSON AVE S, ST PETERSBURG, FL, 33712","Match","Exact","2436 EMERSON AVE S, SAINT PETERSBURG, FL, 33712",124706009,"L"
134976,"2436 KENT DRIVE","IRVING","TX",75062,32.84153589,-97.010011817,476,"2436 KENT DRIVE, IRVING, TX, 75062","Match","Exact","2436 KENT DR, IRVING, TX, 75062",617055013,"L"
134977,"2436 MAPLE BLUFF COURT","BAILEYS HARBOR","WI",54202,45.062689608,-87.12730368,477,"2436 MAPLE BLUFF COURT, BAILEYS HARBOR, WI, 54202","Match","Exact","2436 MAPLE BLUFF CT, BAILEYS HARBOR, WI, 54202",625082326,"L"
134978,"2436 N FED HWY 380","LIGHTHOUSE POINT","FL",33064,NA,NA,478,"2436 N FED HWY 380, LIGHTHOUSE POINT, FL, 33064","No_Match",NA,NA,NA,NA
134979,"2436 N FEDERAL HWY STE 138","LIGHTHOUSE POINT","FL",33064,NA,NA,479,"2436 N FEDERAL HWY STE 138, LIGHTHOUSE POINT, FL, 33064","No_Match",NA,NA,NA,NA
134980,"2436 N LAKE DR","MILWAUKEE","WI",53211,43.0627699290001,-87.8778115329999,480,"2436 N LAKE DR, MILWAUKEE, WI, 53211","Match","Exact","2436 N LAKE DR, MILWAUKEE, WI, 53211",77744292,"R"
134981,"2436 NORTH FEDERAL HIGHWAY  312","LIGHTHOUSE POINT","FL",33064,NA,NA,481,"2436 NORTH FEDERAL HIGHWAY  312, LIGHTHOUSE POINT, FL, 33064","No_Match",NA,NA,NA,NA
134982,"2436 NORTH FEDERAL HIGHWAY NUM 193","LIGHTHOUSE POINT","FL",33064,NA,NA,482,"2436 NORTH FEDERAL HIGHWAY NUM 193, LIGHTHOUSE POINT, FL, 33064","No_Match",NA,NA,NA,NA
134983,"2436 NW 37TH TER","GAINESVILLE","FL",32605,29.6756792730001,-82.3793231929999,483,"2436 NW 37TH TER, GAINESVILLE, FL, 32605","Match","Exact","2436 NW 37TH TER, GAINESVILLE, FL, 32605",6804764,"L"
134984,"2436 PENNSYLVANIA AVENUE","MADISON","WI",53704,43.104463308,-89.358443742,484,"2436 PENNSYLVANIA AVENUE, MADISON, WI, 53704","Match","Exact","2436 PENNSYLVANIA AVE, MADISON, WI, 53704",49472657,"L"
134985,"2436 S FERGUSON AVENUE","SPRINGFIELD","MO",65807,37.170673843,-93.307927064,485,"2436 S FERGUSON AVENUE, SPRINGFIELD, MO, 65807","Match","Exact","2436 S FERGUSON AVE, SPRINGFIELD, MO, 65807",76675452,"L"
134986,"2436 S VALLEY PKWY APT 2209","LEWISVILLE","TX",75067,33.0039505710001,-97.018948726,486,"2436 S VALLEY PKWY APT 2209, LEWISVILLE, TX, 75067","Match","Non_Exact","2436 S VALLEY PKWY, LEWISVILLE, TX, 75067",640354896,"R"
134987,"2436 S VALLEY PKWY APT2209","LEWISVILLE","TX",75067,33.0039505710001,-97.018948726,487,"2436 S VALLEY PKWY APT2209, LEWISVILLE, TX, 75067","Match","Non_Exact","2436 S VALLEY PKWY, LEWISVILLE, TX, 75067",640354896,"R"
134988,"2436 SANDTOWN ROAD","FELTON","DE",19943,39.022285374,-75.678261805,488,"2436 SANDTOWN ROAD, FELTON, DE, 19943","Match","Exact","2436 SANDTOWN RD, FELTON, DE, 19943",68091074,"L"
134989,"2436 SHOAL TERRACE","DECATUR","GA",30034,NA,NA,489,"2436 SHOAL TERRACE, DECATUR, GA, 30034","No_Match",NA,NA,NA,NA
134990,"2436 SILVER PALM RD","NORTH PORT","FL",34288,27.054120632,-82.153680073,490,"2436 SILVER PALM RD, NORTH PORT, FL, 34288","Match","Exact","2436 SILVER PALM RD, NORTH PORT, FL, 34288",16391651,"R"
134991,"2436 VINING DRIVE","COLUMBUS","OH",43229,40.0674784450001,-82.954151092,491,"2436 VINING DRIVE, COLUMBUS, OH, 43229","Match","Exact","2436 VINING DR, COLUMBUS, OH, 43229",135707154,"L"
134992,"2436 W REPETTO AVENUE","MONTEBELLO","CA",90640,34.014964418,-118.12737449,492,"2436 W REPETTO AVENUE, MONTEBELLO, CA, 90640","Match","Exact","2436 REPETTO AVE, MONTEBELLO, CA, 90640",141639375,"R"
134993,"2436 WEST LINCOLN STREET","BIRMINGHAM","MI",48009,42.537340896,-83.244457542,493,"2436 WEST LINCOLN STREET, BIRMINGHAM, MI, 48009","Match","Exact","2436 W LINCOLN ST, BIRMINGHAM, MI, 48009",640603238,"R"
134994,"2436 ZINOW","HAMTRAMCK","MI",48212,42.4022991100001,-83.0663075749999,494,"2436 ZINOW, HAMTRAMCK, MI, 48212","Match","Non_Exact","2436 ZINOW ST, HAMTRAMCK, MI, 48212",95464976,"R"
134995,"24360 NOVI ROAD SUITE A","NOVI","MI",48375,42.468891222,-83.474849069,495,"24360 NOVI ROAD SUITE A, NOVI, MI, 48375","Match","Exact","24360 NOVI RD, NOVI, MI, 48375",69820122,"R"
134996,"24361 GREENFIELD ROAD  SUITE 312","SOUTHFIELD","MI",48075,42.4699278190001,-83.201562267,496,"24361 GREENFIELD ROAD  SUITE 312, SOUTHFIELD, MI, 48075","Match","Exact","24361 GREENFIELD RD, SOUTHFIELD, MI, 48075",69815717,"L"
134997,"24366 US HWY 98","FAIRHOPE","AL",36532,30.5791141980001,-87.8983866149999,497,"24366 US HWY 98, FAIRHOPE, AL, 36532","Match","Exact","24366 US HWY 98, FAIRHOPE, AL, 36532",131717883,"R"
134998,"2437 132ND AVENUE SE","BELLEVUE","WA",98005,47.5889113110001,-122.16433239,498,"2437 132ND AVENUE SE, BELLEVUE, WA, 98005","Match","Exact","2437 132ND AVE SE, BELLEVUE, WA, 98005",186934284,"L"
134999,"2437 160TH ROAD","GUTHRIE CENTER","IA",50115,41.770613209,-94.4662304299999,499,"2437 160TH ROAD, GUTHRIE CENTER, IA, 50115","Match","Non_Exact","2437 160 TH RD, GUTHRIE CENTER, IA, 50115",68670884,"R"
135000,"2437 BARETTA DR","MESQUITE","TX",75181,32.7566546620001,-96.562251015,500,"2437 BARETTA DR, MESQUITE, TX, 75181","Match","Exact","2437 BARETTA DR, MESQUITE, TX, 75181",103197607,"R"
