"ID","Address","City","State","Zip","lat","long","id","input_address","match_indicator","match_type","matched_address","tiger_line_id","tiger_side"
306001,"8791 HEATHERMIST WAY","ELK GROVE","CA",95624,38.437468562,-121.377340215,1,"8791 HEATHERMIST WAY, ELK GROVE, CA, 95624","Match","Exact","8791 HEATHERMIST WAY, ELK GROVE, CA, 95624",133382899,"L"
306002,"8791 LAKE JORDAN CT","N DINWIDDIE","VA",23803,37.151128811,-77.5203493929999,2,"8791 LAKE JORDAN CT, N DINWIDDIE, VA, 23803","Match","Exact","8791 LAKE JORDAN CT, NORTH DINWIDDIE, VA, 23803",633054499,"R"
306003,"8791 NEPTUNE DRIVE","CINCINNATI","OH",45231,39.2281522920001,-84.564930417,3,"8791 NEPTUNE DRIVE, CINCINNATI, OH, 45231","Match","Exact","8791 NEPTUNE DR, CINCINNATI, OH, 45231",103919548,"L"
306004,"8791 RANDALL DR","FISHERS","IN",46038,39.97344689,-86.0163626199999,4,"8791 RANDALL DR, FISHERS, IN, 46038","Match","Exact","8791 RANDALL DR, FISHERS, IN, 46038",29327709,"R"
306005,"8791 SOUTH WARHAWK ROAD","CONIFER","CO",80433,39.558957552,-105.358730152,5,"8791 SOUTH WARHAWK ROAD, CONIFER, CO, 80433","Match","Exact","8791 S WARHAWK RD, CONIFER, CO, 80433",634646909,"R"
306006,"8792 PARSONS BLVD 2ND FLOOR","JAMAICA","NY",11432,NA,NA,6,"8792 PARSONS BLVD 2ND FLOOR, JAMAICA, NY, 11432","No_Match",NA,NA,NA,NA
306007,"8792 RAGING BULL LANE","WELLINGTON","CO",80549,NA,NA,7,"8792 RAGING BULL LANE, WELLINGTON, CO, 80549","No_Match",NA,NA,NA,NA
306008,"8795 BROWN RD","GREENWOOD","MI",48006,43.1555053290001,-82.721586802,8,"8795 BROWN RD, GREENWOOD, MI, 48006","Match","Exact","8795 BROWN RD, GREENWOOD, MI, 48006",110986990,"L"
306009,"8795 RALSTON RD STE 113","ARVADA","CO",80002,39.8020672500001,-105.095773453,9,"8795 RALSTON RD STE 113, ARVADA, CO, 80002","Match","Exact","8795 RALSTON RD, ARVADA, CO, 80002",177287795,"R"
306010,"8795 STATE HIGHWAY N","KANSAS CITY","MO",64153,NA,NA,10,"8795 STATE HIGHWAY N, KANSAS CITY, MO, 64153","No_Match",NA,NA,NA,NA
306011,"8795 YELLOWSTONE LANE","LANSING","MI",48917,42.753206472,-84.681165942,11,"8795 YELLOWSTONE LANE, LANSING, MI, 48917","Match","Exact","8795 YELLOWSTONE LN, LANSING, MI, 48917",617450519,"R"
306012,"8796 ROUTE 219","BROCKWAY","PA",15824,41.2314073960001,-78.7824805449999,12,"8796 ROUTE 219, BROCKWAY, PA, 15824","Match","Non_Exact","8796 US HWY 219, BROCKWAY, PA, 15824",66455236,"R"
306013,"8797 CHATHAM ROAD","MEDINA","OH",44256,41.099075337,-82.007342767,13,"8797 CHATHAM ROAD, MEDINA, OH, 44256","Match","Exact","8797 CHATHAM RD, MEDINA, OH, 44256",58683387,"R"
306014,"8797 CR 858","MCKINNEY","TX",75071,33.2306821440001,-96.732009761,14,"8797 CR 858, MCKINNEY, TX, 75071","Match","Exact","8797 CO RD 858, MCKINNEY, TX, 75071",123558136,"R"
306015,"8797 GRAPE WAGON CIRCLE","SAN JOSE","CA",95135,37.2869742230001,-121.739747548,15,"8797 GRAPE WAGON CIRCLE, SAN JOSE, CA, 95135","Match","Exact","8797 GRAPE WAGON CIR, SAN JOSE, CA, 95135",123171610,"L"
306016,"8797 MUSTANG DR","FREDERICK","CO",80504,40.128334694,-104.948207607,16,"8797 MUSTANG DR, FREDERICK, CO, 80504","Match","Exact","8797 MUSTANG DR, FREDERICK, CO, 80504",614113827,"R"
306017,"8797 PATTERSON STREET","BARNWELL","SC",29812,33.2353991000001,-81.354924451,17,"8797 PATTERSON STREET, BARNWELL, SC, 29812","Match","Exact","8797 PATTERSON ST, BARNWELL, SC, 29812",19078733,"L"
306018,"8797 S CIRCLE E DR","FARWELL","MI",48622,43.8598993190001,-84.895728119,18,"8797 S CIRCLE E DR, FARWELL, MI, 48622","Match","Exact","8797 S CIRCLE E DR, FARWELL, MI, 48622",110383931,"L"
306019,"8798 POGUE ROAD","THREE SPRINGS","PA",17264,40.193292625,-77.966523695,19,"8798 POGUE ROAD, THREE SPRINGS, PA, 17264","Match","Exact","8798 POGUE RD, THREE SPRINGS, PA, 17264",50618349,"R"
306020,"8798 SYLVAN ROAD","LIBERTY","NC",27298,35.856021513,-79.4566143759999,20,"8798 SYLVAN ROAD, LIBERTY, NC, 27298","Match","Exact","8798 SYLVAN RD, LIBERTY, NC, 27298",635651019,"R"
306021,"8799 E EASTER PL","CENTENNIAL","CO",80112,39.587231011,-104.886920175,21,"8799 E EASTER PL, CENTENNIAL, CO, 80112","Match","Exact","8799 E EASTER PL, CENTENNIAL, CO, 80112",177346977,"L"
306022,"8799 NORTH LOOP EAST SUITE 200","HOUSTON","TX",77029,NA,NA,22,"8799 NORTH LOOP EAST SUITE 200, HOUSTON, TX, 77029","No_Match",NA,NA,NA,NA
306023,"87996 BILL CREEK LANE","BANDON","OR",97411,43.1059260540001,-124.396607716,23,"87996 BILL CREEK LANE, BANDON, OR, 97411","Match","Exact","87996 BILL CREEK LN, BANDON, OR, 97411",136994373,"L"
306024,"88 3RD ST SE","HURON","SD",57350,44.3632414320001,-98.2126506339999,24,"88 3RD ST SE, HURON, SD, 57350","Match","Exact","88 3RD ST SE, HURON, SD, 57350",201051533,"L"
306025,"88 ADELPHI ST","BROOKLYN","NY",11205,40.694966418,-73.97222692,25,"88 ADELPHI ST, BROOKLYN, NY, 11205","Match","Exact","88 ADELPHI ST, BROOKLYN, NY, 11205",59100602,"R"
306026,"88 AGRESS RD","MILLSTONE TWP","NJ",8535,40.20459147,-74.443981741,26,"88 AGRESS RD, MILLSTONE TWP, NJ, 8535","Match","Exact","88 AGRESS RD, MILLSTONE TOWNSHIP, NJ, 08535",90504511,"L"
306027,"88 ALLEN AVE STE 1","PORTLAND","ME",4103,43.691636875,-70.292898752,27,"88 ALLEN AVE STE 1, PORTLAND, ME, 4103","Match","Exact","88 ALLEN AVE, PORTLAND, ME, 04103",624159417,"L"
306028,"88 ALLEN STREET","MARION","MA",2738,41.696340267,-70.763663196,28,"88 ALLEN STREET, MARION, MA, 2738","Match","Exact","88 ALLEN ST, MARION, MA, 02738",87423760,"L"
306029,"88 ALVAH WILSON RD","GILFORD","NH",3249,43.5414375710001,-71.404876416,29,"88 ALVAH WILSON RD, GILFORD, NH, 3249","Match","Exact","88 ALVAH WILSON RD, GILFORD, NH, 03249",145502703,"R"
306030,"88 ANSEL HALLET ROAD","WEST YARMOUTH","MA",2673,41.6822652600001,-70.2574787619999,30,"88 ANSEL HALLET ROAD, WEST YARMOUTH, MA, 2673","Match","Exact","88 ANSEL HALLET RD, W YARMOUTH, MA, 02673",121637787,"R"
306031,"88 ARGONE ROAD EAST","HAMPTON BAYS","NY",11946,40.8757392000001,-72.508007853,31,"88 ARGONE ROAD EAST, HAMPTON BAYS, NY, 11946","Match","Non_Exact","88 ARGONNE RD E, HAMPTON BAYS, NY, 11946",114027535,"R"
306032,"88 B MAHA ROAD","MAKAWAO","HI",96768,NA,NA,32,"88 B MAHA ROAD, MAKAWAO, HI, 96768","Tie",NA,NA,NA,NA
306033,"88 BAHIA TRACE TRAIL","OCALA","FL",34472,29.136009217,-82.008554825,33,"88 BAHIA TRACE TRAIL, OCALA, FL, 34472","Match","Exact","88 BAHIA TRACE TRL, OCALA, FL, 34472",116821676,"R"
306034,"88 BASKERVILL DRIVE","PAWLEYS ISLAND","SC",29585,33.461880482,-79.112958099,34,"88 BASKERVILL DRIVE, PAWLEYS ISLAND, SC, 29585","Match","Exact","88 BASKERVILL DR, PAWLEYS ISLAND, SC, 29585",638221329,"L"
306035,"88 BELL ROAD","LITTLETON","ME",4730,46.1842607400001,-67.808358771,35,"88 BELL ROAD, LITTLETON, ME, 4730","Match","Exact","88 BELL RD, LITTLETON, ME, 04730",123816810,"L"
306036,"88 BERMUDA POINTE CIRCLE","HILTON HEAD ISLAND","SC",29926,32.2269780030001,-80.754032732,36,"88 BERMUDA POINTE CIRCLE, HILTON HEAD ISLAND, SC, 29926","Match","Exact","88 BERMUDA POINTE CIR, HILTON HEAD ISLAND, SC, 29926",639641470,"L"
306037,"88 BLOOMINGDALE ROAD","STATEN ISLAND","NY",10309,40.526258205,-74.215705623,37,"88 BLOOMINGDALE ROAD, STATEN ISLAND, NY, 10309","Match","Exact","88 BLOOMINGDALE RD, STATEN ISLAND, NY, 10309",59873620,"L"
306038,"88 BOBBIE DRIVE","IVYLAND","PA",18974,40.2081593140001,-75.046402056,38,"88 BOBBIE DRIVE, IVYLAND, PA, 18974","Match","Exact","88 BOBBIE DR, IVYLAND, PA, 18974",639893521,"L"
306039,"88 BONNIE MEADOW ROAD","SCARSDALE","NY",10583,40.9751541100001,-73.78882092,39,"88 BONNIE MEADOW ROAD, SCARSDALE, NY, 10583","Match","Exact","88 BONNIE MEADOW RD, SCARSDALE, NY, 10583",139740714,"R"
306040,"88 BRADY WAY","WHITEFISH","MT",59937,48.343857992,-114.353211712,40,"88 BRADY WAY, WHITEFISH, MT, 59937","Match","Exact","88 BRADY WAY, WHITEFISH, MT, 59937",634570766,"R"
306041,"88 BRIARWOOD AVENUE","SPRINGFIELD","MA",1118,42.100339789,-72.527104274,41,"88 BRIARWOOD AVENUE, SPRINGFIELD, MA, 1118","Match","Exact","88 BRIARWOOD AVE, SPRINGFIELD, MA, 01118",4037002,"R"
306042,"88 BROAD ST","LYNN","MA",1902,42.4635607760001,-70.93846279,42,"88 BROAD ST, LYNN, MA, 1902","Match","Exact","88 BROAD ST, LYNN, MA, 01902",86645953,"L"
306043,"88 BROAD STREET 8TH FLOOR","BOSTON","MA",2110,NA,NA,43,"88 BROAD STREET 8TH FLOOR, BOSTON, MA, 2110","No_Match",NA,NA,NA,NA
306044,"88 BROAD STREET SUITE 1400","COLUMBUS","OH",43215,NA,NA,44,"88 BROAD STREET SUITE 1400, COLUMBUS, OH, 43215","Tie",NA,NA,NA,NA
306045,"88 BROADWAY","TAUNTON","MA",2780,NA,NA,45,"88 BROADWAY, TAUNTON, MA, 2780","Tie",NA,NA,NA,NA
306046,"88 BROOKE CREST LN","STAFFORD","VA",22554,38.3860932480001,-77.3312779889999,46,"88 BROOKE CREST LN, STAFFORD, VA, 22554","Match","Exact","88 BROOKE CREST LN, STAFFORD, VA, 22554",632949335,"R"
306047,"88 BURTIS PT ROAD","AUBURN","NY",13021,42.865216994,-76.508784625,47,"88 BURTIS PT ROAD, AUBURN, NY, 13021","Match","Exact","88 BURTIS POINT RD, AUBURN, NY, 13021",641262474,"L"
306048,"88 BUTTS ROAD","WOODSTOCK","CT",6281,41.9256488620001,-71.9497976819999,48,"88 BUTTS ROAD, WOODSTOCK, CT, 6281","Match","Exact","88 BUTTS RD, WOODSTOCK, CT, 06281",56457655,"L"
306049,"88 CAREY AVENUE","BUTLER","NJ",7405,40.9983930760001,-74.333495587,49,"88 CAREY AVENUE, BUTLER, NJ, 7405","Match","Exact","88 CAREY AVE, BUTLER, NJ, 07405",60427383,"L"
306050,"88 CEDAR ST","POTTSTOWN","PA",19464,40.24610885,-75.6225779869999,50,"88 CEDAR ST, POTTSTOWN, PA, 19464","Match","Exact","88 CEDAR ST, POTTSTOWN, PA, 19464",135062441,"R"
306051,"88 CENTRAL AVENUE","EAST BRUNSWICK","NJ",8816,40.4121086650001,-74.38664568,51,"88 CENTRAL AVENUE, EAST BRUNSWICK, NJ, 8816","Match","Exact","88 CENTRAL AVE, E BRUNSWICK, NJ, 08816",60361717,"L"
306052,"88 CESAR CHAVEZ ST UNIT 334","ST PAUL","MN",55107,NA,NA,52,"88 CESAR CHAVEZ ST UNIT 334, ST PAUL, MN, 55107","No_Match",NA,NA,NA,NA
306053,"88 CLAYTON ENGLISH DRIVE","FORSYTH","GA",31029,33.0158281770001,-83.9452207259999,53,"88 CLAYTON ENGLISH DRIVE, FORSYTH, GA, 31029","Match","Exact","88 CLAYTON ENGLISH DR, FORSYTH, GA, 31029",66664495,"R"
306054,"88 COPPERMILL ROAD","WETHERSFIELD","CT",6109,41.6815597180001,-72.675197778,54,"88 COPPERMILL ROAD, WETHERSFIELD, CT, 6109","Match","Exact","88 COPPERMILL RD, WETHERSFIELD, CT, 06109",3526866,"L"
306055,"88 COUNTY FARM ROAD APT 47","WILLIAMSON","GA",30292,33.111977519,-84.344951038,55,"88 COUNTY FARM ROAD APT 47, WILLIAMSON, GA, 30292","Match","Non_Exact","88 COUNTY FARM RD, WILLIAMSON, GA, 30292",652438729,"R"
306056,"88 COZY CORNER","AVENEL","NJ",7001,40.5872570330001,-74.2876395879999,56,"88 COZY CORNER, AVENEL, NJ, 7001","Match","Exact","88 COZY CORNER, AVENEL, NJ, 07001",60274690,"R"
306057,"88 CURSON STREET","WEST WARWICK","RI",2893,41.705920081,-71.5290850769999,57,"88 CURSON STREET, WEST WARWICK, RI, 2893","Match","Exact","88 CURSON ST, WEST WARWICK, RI, 02893",159142360,"L"
306058,"88 CYPRESS DRIVE","FAIRFAX","CA",94930,37.981555982,-122.596001259,58,"88 CYPRESS DRIVE, FAIRFAX, CA, 94930","Match","Exact","88 CYPRESS DR, FAIRFAX, CA, 94930",192785910,"R"
306059,"88 DOMINGA AVE","FAIRFAX","CA",94930,37.98499202,-122.58901872,59,"88 DOMINGA AVE, FAIRFAX, CA, 94930","Match","Exact","88 DOMINGA AVE, FAIRFAX, CA, 94930",192773216,"R"
306060,"88 EAGLE ROCK AVE  BOND FORCE HOUSE","ROSELAND","NJ",7068,40.818450484,-74.287036508,60,"88 EAGLE ROCK AVE  BOND FORCE HOUSE, ROSELAND, NJ, 7068","Match","Exact","88 EAGLE ROCK AVE, ROSELAND, NJ, 07068",635267662,"R"
306061,"88 EAGLE ROCK CIR","SPRING","TX",77381,30.172028352,-95.51595564,61,"88 EAGLE ROCK CIR, SPRING, TX, 77381","Match","Exact","88 EAGLE ROCK CIR, SPRING, TX, 77381",79295565,"R"
306062,"88 EAST 51ST STREET / SUITE 1R","BROOKLYN","NY",11203,40.6599293990001,-73.930247026,62,"88 EAST 51ST STREET / SUITE 1R, BROOKLYN, NY, 11203","Match","Exact","88 E 51ST ST, BROOKLYN, NY, 11203",59083503,"R"
306063,"88 EAST 6TH STREET SUITE 306","PITTSBURG","CA",94565,38.0312445180001,-121.884103113,63,"88 EAST 6TH STREET SUITE 306, PITTSBURG, CA, 94565","Match","Exact","88 E 6TH ST, PITTSBURG, CA, 94565",636424387,"R"
306064,"88 EAST BROAD STREET SUITE 1400","COLUMBUS","OH",43215,39.96248461,-82.9983367469999,64,"88 EAST BROAD STREET SUITE 1400, COLUMBUS, OH, 43215","Match","Exact","88 E BROAD ST, COLUMBUS, OH, 43215",218649211,"L"
306065,"88 EAST WIND DR","LUMBERTON","NC",28358,34.6706177460001,-78.84766973,65,"88 EAST WIND DR, LUMBERTON, NC, 28358","Match","Non_Exact","88 EASTWIND DR, LUMBERTON, NC, 28358",651563646,"R"
306066,"88 FAHY AVENUE","STATEN ISLAND","NY",10314,40.619689248,-74.166245664,66,"88 FAHY AVENUE, STATEN ISLAND, NY, 10314","Match","Exact","88 FAHY AVE, STATEN ISLAND, NY, 10314",59887975,"R"
306067,"88 FIREHOUSE DRIVE","TROY","PA",16947,NA,NA,67,"88 FIREHOUSE DRIVE, TROY, PA, 16947","No_Match",NA,NA,NA,NA
306068,"88 FRESHWIND CT","RICHMOND","TX",77406,29.5926194150001,-95.7520270479999,68,"88 FRESHWIND CT, RICHMOND, TX, 77406","Match","Exact","88 FRESHWIND CT, RICHMOND, TX, 77406",648705504,"R"
306069,"88 GIFFORD AVE APT 2","JERESEY CITY","NJ",7304,40.721836238,-74.0767213729999,69,"88 GIFFORD AVE APT 2, JERESEY CITY, NJ, 7304","Match","Non_Exact","88 GIFFORD AVE, JERSEY CITY, NJ, 07304",59604222,"R"
306070,"88 GLOCKER WAY SUITE 258","POTTSTOWN","PA",19465,40.2089149870001,-75.659891064,70,"88 GLOCKER WAY SUITE 258, POTTSTOWN, PA, 19465","Match","Exact","88 GLOCKER WAY, POTTSTOWN, PA, 19465",649914037,"R"
306071,"88 GODFREY ROAD W","WESTON","CT",6883,41.2343209310001,-73.3910566499999,71,"88 GODFREY ROAD W, WESTON, CT, 6883","Match","Non_Exact","88 GODFREY RD, WESTON, CT, 06883",618520051,"L"
306072,"88 GRAND AVE","NEWARK","NJ",7106,40.7475823770001,-74.2195333079999,72,"88 GRAND AVE, NEWARK, NJ, 7106","Match","Exact","88 GRAND AVE, NEWARK, NJ, 07106",618580694,"R"
306073,"88 GRANT DRIVE EAST","VALLEY STREAM","NY",11580,40.676357281,-73.700618285,73,"88 GRANT DRIVE EAST, VALLEY STREAM, NY, 11580","Match","Exact","88 GRANT DR E, VALLEY STREAM, NY, 11580",147669921,"L"
306074,"88 GREENWICH STREET","NEW YORK","NY",10004,40.705879973,-74.014495422,74,"88 GREENWICH STREET, NEW YORK, NY, 10004","Match","Exact","88 GREENWICH ST, NEW YORK, NY, 10004",59659602,"L"
306075,"88 GULF BRIDGE ROAD","WEST MONROE","NY",13167,43.2926134160001,-76.07230458,75,"88 GULF BRIDGE ROAD, WEST MONROE, NY, 13167","Match","Exact","88 GULF BRIDGE RD, WEST MONROE, NY, 13167",57818318,"R"
306076,"88 HARRIMAN ROAD","GRANITE CANON","WY",82059,41.0122343130001,-105.249761883,76,"88 HARRIMAN ROAD, GRANITE CANON, WY, 82059","Match","Exact","88 HARRIMAN RD, GRANITE CANON, WY, 82059",160145446,"L"
306077,"88 HERITAGE STREET","BAXLEY","GA",31513,31.77541009,-82.3384637079999,77,"88 HERITAGE STREET, BAXLEY, GA, 31513","Match","Exact","88 HERITAGE ST, BAXLEY, GA, 31513",4476223,"L"
306078,"88 HEWITT AVENUE","STATEN ISLAND","NY",10301,40.6078749590001,-74.099672689,78,"88 HEWITT AVENUE, STATEN ISLAND, NY, 10301","Match","Exact","88 HEWITT AVE, STATEN ISLAND, NY, 10301",59887432,"L"
306079,"88 HOMAN POINT AVE","CRAWFORDVILLE","FL",32327,30.175833707,-84.363061734,79,"88 HOMAN POINT AVE, CRAWFORDVILLE, FL, 32327","Match","Exact","88 HOMAN POINT AVE, CRAWFORDVILLE, FL, 32327",624753511,"R"
306080,"88 HORTON STREET","BRONX","NY",10464,40.8393676810001,-73.7843156009999,80,"88 HORTON STREET, BRONX, NY, 10464","Match","Exact","88 HORTON ST, BRONX, NY, 10464",80307927,"R"
306081,"88 HOWARD BEER RD","CLANCY","MT",59634,46.516559801,-111.96645523,81,"88 HOWARD BEER RD, CLANCY, MT, 59634","Match","Exact","88 HOWARD BEER RD, CLANCY, MT, 59634",652190523,"L"
306082,"88 HOWELL ST NE","ATLANTA","GA",30312,33.756863255,-84.369978098,82,"88 HOWELL ST NE, ATLANTA, GA, 30312","Match","Exact","88 HOWELL ST NE, ATLANTA, GA, 30312",17357290,"L"
306083,"88 JAMES AVE","CRANFORD","NJ",7016,40.6486543950001,-74.315984441,83,"88 JAMES AVE, CRANFORD, NJ, 7016","Match","Exact","88 JAMES AVE, CRANFORD, NJ, 07016",60574039,"R"
306084,"88 KELSEY MILL RD","NORTHWOOD","NH",3261,43.216473545,-71.231097426,84,"88 KELSEY MILL RD, NORTHWOOD, NH, 3261","Match","Exact","88 KELSEY MILL RD, NORTHWOOD, NH, 03261",113702126,"L"
306085,"88 KIRKWOOD RD NE","ATLANTA","GA",30317,33.754303518,-84.321747515,85,"88 KIRKWOOD RD NE, ATLANTA, GA, 30317","Match","Exact","88 KIRKWOOD RD NE, ATLANTA, GA, 30317",23366545,"L"
306086,"88 LA MIRAGE CIRCLE","ALISO VIEJO","CA",92656,33.5535922290001,-117.730530182,86,"88 LA MIRAGE CIRCLE, ALISO VIEJO, CA, 92656","Match","Exact","88 LA MIRAGE CIR, ALISO VIEJO, CA, 92656",144405667,"L"
306087,"88 LAKELAND ROAD","CRANSTON","RI",2910,41.770898716,-71.4480537439999,87,"88 LAKELAND ROAD, CRANSTON, RI, 2910","Match","Exact","88 LAKELAND RD, CRANSTON, RI, 02910",47471083,"L"
306088,"88 LAKESHORE DRIVE","EASTCHESTER","NY",10709,40.962543569,-73.8001233849999,88,"88 LAKESHORE DRIVE, EASTCHESTER, NY, 10709","Match","Exact","88 LAKESHORE DR, EASTCHESTER, NY, 10709",139740609,"R"
306089,"88 LAUREL RD","CHESTNUT HILL","MA",2467,42.3158387030001,-71.166460397,89,"88 LAUREL RD, CHESTNUT HILL, MA, 2467","Match","Exact","88 LAUREL RD, CHESTNUT HILL, MA, 02467",87240943,"L"
306090,"88 LEE COURT","ELMONT","NY",11003,40.7058270630001,-73.711808154,90,"88 LEE COURT, ELMONT, NY, 11003","Match","Exact","88 LEE CT, ELMONT, NY, 11003",147665316,"L"
306091,"88 LEXINGTON AVENUE M1","NEW YORK","NY",10016,40.7417592,-73.9831155909999,91,"88 LEXINGTON AVENUE M1, NEW YORK, NY, 10016","Match","Exact","88 LEXINGTON AVE, NEW YORK, NY, 10016",652206922,"L"
306092,"88 LINCOLN AVENUE APT 1L","PELHAM","NY",10803,40.915439475,-73.8085082539999,92,"88 LINCOLN AVENUE APT 1L, PELHAM, NY, 10803","Match","Exact","88 LINCOLN AVE, PELHAM, NY, 10803",139749171,"R"
306093,"88 LINFIELD-TRAPPE RD","TRAPPE","PA",19426,NA,NA,93,"88 LINFIELD-TRAPPE RD, TRAPPE, PA, 19426","No_Match",NA,NA,NA,NA
306094,"88 MADISON ST","ANOKA","MN",55303,45.1954482800001,-93.390795972,94,"88 MADISON ST, ANOKA, MN, 55303","Match","Exact","88 MADISON ST, ANOKA, MN, 55303",97481309,"R"
306095,"88 MARKET STREET","SALEM","NJ",8079,39.573750481,-75.466259828,95,"88 MARKET STREET, SALEM, NJ, 8079","Match","Exact","88 MARKET ST, SALEM, NJ, 08079",174421054,"L"
306096,"88 MILAN AVENUE","NORWALK","OH",44857,41.249378612,-82.611789003,96,"88 MILAN AVENUE, NORWALK, OH, 44857","Match","Exact","88 MILAN AVE, NORWALK, OH, 44857",12600878,"R"
306097,"88 MORGAN STREET APT 201","JERSEY CITY","NJ",7302,40.7195791180001,-74.036635487,97,"88 MORGAN STREET APT 201, JERSEY CITY, NJ, 7302","Match","Exact","88 MORGAN ST, JERSEY CITY, NJ, 07302",59606342,"R"
306098,"88 MORNINGSIDE AVENUE APT 3F","NEW YORK","NY",10027,40.8093775930001,-73.955459541,98,"88 MORNINGSIDE AVENUE APT 3F, NEW YORK, NY, 10027","Match","Exact","88 MORNINGSIDE AVE, NEW YORK, NY, 10027",59656061,"R"
306099,"88 MYAGUEZ ST URB PEREZ MORRIS","SAN JUAN","PR",917,NA,NA,99,"88 MYAGUEZ ST URB PEREZ MORRIS, SAN JUAN, PR, 917","No_Match",NA,NA,NA,NA
306100,"88 N TIEBREAKER DRIVE","GRANTSVILLE","UT",84029,40.6020003350001,-112.482175785,100,"88 N TIEBREAKER DRIVE, GRANTSVILLE, UT, 84029","Match","Exact","88 TIEBREAKER DR, GRANTSVILLE, UT, 84029",155398218,"L"
306101,"88 NEW DORP PLAZA SUITE 100","STATEN ISLAND","NY",10306,40.5728574680001,-74.117812331,101,"88 NEW DORP PLAZA SUITE 100, STATEN ISLAND, NY, 10306","Match","Non_Exact","88 NEW DORP PLZ, STATEN ISLAND, NY, 10306",59867807,"L"
306102,"88 NORTH CAMERON STREET","SARATOGA SPRINGS","UT",84043,40.3637978620001,-111.864181081,102,"88 NORTH CAMERON STREET, SARATOGA SPRINGS, UT, 84043","Match","Non_Exact","88 CAMERON ST, SARATOGA SPRINGS, UT, 84043",134262057,"R"
306103,"88 NORTH JACKSON AVENUE UNIT 309","SAN JOSE","CA",95116,37.360610797,-121.845592832,103,"88 NORTH JACKSON AVENUE UNIT 309, SAN JOSE, CA, 95116","Match","Exact","88 N JACKSON AVE, SAN JOSE, CA, 95116",122998204,"R"
306104,"88 NOTCH HILL ROAD 165B","NORTH BRANFORD","CT",6471,41.316265007,-72.750533639,104,"88 NOTCH HILL ROAD 165B, NORTH BRANFORD, CT, 6471","Match","Exact","88 NOTCH HILL RD, N BRANFORD, CT, 06471",648781861,"L"
306105,"88 NW 209TH AVE","BEAVERTON","OR",97006,45.520463948,-122.892188761,105,"88 NW 209TH AVE, BEAVERTON, OR, 97006","Match","Exact","88 NW 209TH AVE, BEAVERTON, OR, 97006",158234983,"L"
306106,"88 OAKRIDGE DR","PARKERSBURG","WV",26104,39.2924497240001,-81.5096498359999,106,"88 OAKRIDGE DR, PARKERSBURG, WV, 26104","Match","Exact","88 OAKRIDGE DR, PARKERSBURG, WV, 26104",90882069,"L"
306107,"88 OLD TAVERN CIRCLE","LYNCHBURG","VA",24501,37.315194918,-79.17973947,107,"88 OLD TAVERN CIRCLE, LYNCHBURG, VA, 24501","Match","Exact","88 OLD TAVERN CIR, LYNCHBURG, VA, 24501",625381937,"R"
306108,"88 P ST NW APT B","WASHINGTON","DC",20001,38.909637522,-77.0117414709999,108,"88 P ST NW APT B, WASHINGTON, DC, 20001","Match","Exact","88 P ST NW, WASHINGTON, DC, 20001",652670780,"L"
306109,"88 PANTHER DR","SPARTA","TN",38583,35.90597116,-85.471552209,109,"88 PANTHER DR, SPARTA, TN, 38583","Match","Exact","88 PANTHER DR, SPARTA, TN, 38583",646450592,"L"
306110,"88 PECAN LANE","CALERA","AL",35040,33.1114717840001,-86.7311099309999,110,"88 PECAN LANE, CALERA, AL, 35040","Match","Exact","88 PECAN LN, CALERA, AL, 35040",82126818,"R"
306111,"88 PENNSYLVANIA AVE","ORELAND","PA",19075,40.115516535,-75.176492051,111,"88 PENNSYLVANIA AVE, ORELAND, PA, 19075","Match","Exact","88 PENNSYLVANIA AVE, ORELAND, PA, 19075",605625463,"R"
306112,"88 PINE STREET - 21ST FLOOR","NEW YORK","NY",10005,40.7058441200001,-74.007102945,112,"88 PINE STREET - 21ST FLOOR, NEW YORK, NY, 10005","Match","Exact","88 PINE ST, NEW YORK, NY, 10005",59660500,"L"
306113,"88 PLANTATION DRIVE","SOUTHERN PINES","NC",28387,35.18857222,-79.417238716,113,"88 PLANTATION DRIVE, SOUTHERN PINES, NC, 28387","Match","Exact","88 PLANTATION DR, SOUTHERN PINES, NC, 28387",627894647,"L"
306114,"88 POND LN","RANDOLPH","MA",2368,42.189355758,-71.047496654,114,"88 POND LN, RANDOLPH, MA, 2368","Match","Exact","88 POND LN, RANDOLPH, MA, 02368",87265127,"R"
306115,"88 PRYDE AVE","BIGGS","CA",95917,39.3941161970001,-121.693184858,115,"88 PRYDE AVE, BIGGS, CA, 95917","Match","Exact","88 PRYDE AVE, BIGGS, CA, 95917",68430610,"R"
306116,"88 RED OAK RD","MARTINSVILLE","VA",24112,36.634853981,-79.943549434,116,"88 RED OAK RD, MARTINSVILLE, VA, 24112","Match","Exact","88 RED OAK RD, MARTINSVILLE, VA, 24112",55534832,"R"
306117,"88 REGIS DRIVE","STATEN ISLAND","NY",10314,40.6195815310001,-74.157570349,117,"88 REGIS DRIVE, STATEN ISLAND, NY, 10314","Match","Exact","88 REGIS DR, STATEN ISLAND, NY, 10314",59871081,"L"
306118,"88 RIVER RD","ELKTON","MD",21921,39.5617580520001,-75.846814829,118,"88 RIVER RD, ELKTON, MD, 21921","Match","Exact","88 RIVER RD, ELKTON, MD, 21921",207855889,"R"
306119,"88 RIVERS EDGE RD","NORTH EAST","MD",21901,39.501098445,-75.9341992619999,119,"88 RIVERS EDGE RD, NORTH EAST, MD, 21901","Match","Exact","88 RIVERS EDGE RD, NORTH EAST, MD, 21901",187392963,"R"
306120,"88 ROGER WILLIAMS AVE","RUMFORD","RI",2916,41.838434138,-71.3630381409999,120,"88 ROGER WILLIAMS AVE, RUMFORD, RI, 2916","Match","Exact","88 ROGER WILLIAMS AVE, RUMFORD, RI, 02916",47473732,"L"
306121,"88 ROLLER RINK ROAD","OXFORD","ME",4270,44.1436186830001,-70.4785287999999,121,"88 ROLLER RINK ROAD, OXFORD, ME, 4270","Match","Exact","88 ROLLER RINK RD, OXFORD, ME, 04270",92682744,"L"
306122,"88 ROLLING STREET","LYNBROOK","NY",11563,40.6642032780001,-73.66497556,122,"88 ROLLING STREET, LYNBROOK, NY, 11563","Match","Exact","88 ROLLING ST, LYNBROOK, NY, 11563",147675247,"R"
306123,"88 ROUTE 610","WOODBINE","NJ",8270,39.2573362410001,-74.722753199,123,"88 ROUTE 610, WOODBINE, NJ, 8270","Match","Non_Exact","88 CO HWY 610, WOODBINE, NJ, 08270",174349719,"R"
306124,"88 RYLE PARK AVE","WOODLAND PARK","NJ",7424,40.894896681,-74.2107603009999,124,"88 RYLE PARK AVE, WOODLAND PARK, NJ, 7424","Match","Exact","88 RYLE PARK AVE, WOODLAND PARK, NJ, 07424",65261473,"R"
306125,"88 S 3RD ST","SAN JOSE","CA",95113,37.3355572510001,-121.887247181,125,"88 S 3RD ST, SAN JOSE, CA, 95113","Match","Exact","88 S 3RD ST, SAN JOSE, CA, 95113",652204775,"L"
306126,"88 S 3RD STREET NO 280","SAN JOSE","CA",95113,NA,NA,126,"88 S 3RD STREET NO 280, SAN JOSE, CA, 95113","No_Match",NA,NA,NA,NA
306127,"88 S 4TH EAST STREET","DOWNEY","ID",83234,NA,NA,127,"88 S 4TH EAST STREET, DOWNEY, ID, 83234","No_Match",NA,NA,NA,NA
306128,"88 S WALKUP AVE","CRYSTAL LAKE","IL",60014,42.238999655,-88.3209008379999,128,"88 S WALKUP AVE, CRYSTAL LAKE, IL, 60014","Match","Exact","88 S WALKUP AVE, CRYSTAL LAKE, IL, 60014",119820710,"L"
306129,"88 SANTA CLARA STREET","WATSONVILLE","CA",95076,36.92176712,-121.765923192,129,"88 SANTA CLARA STREET, WATSONVILLE, CA, 95076","Match","Exact","88 SANTA CLARA ST, WATSONVILLE, CA, 95076",125513171,"R"
306130,"88 SEIDLE ROAD","MERCER","PA",16137,41.272884064,-80.299714943,130,"88 SEIDLE ROAD, MERCER, PA, 16137","Match","Exact","88 SEIDLE RD, MERCER, PA, 16137",70644086,"R"
306131,"88 SKYLINE DRIVE","MILLINGTON","ND",7946,NA,NA,131,"88 SKYLINE DRIVE, MILLINGTON, ND, 7946","No_Match",NA,NA,NA,NA
306132,"88 SLAUGHTER ROAD","ARDMORE","TN",38449,NA,NA,132,"88 SLAUGHTER ROAD, ARDMORE, TN, 38449","No_Match",NA,NA,NA,NA
306133,"88 SOUTH 1300 EAST","HYRUM","UT",84319,41.6321120580001,-111.81894982,133,"88 SOUTH 1300 EAST, HYRUM, UT, 84319","Match","Exact","88 S 1300 E, HYRUM, UT, 84319",155111484,"R"
306134,"88 SOUTH 3RD STREET NUMBER 217","SAN JOSE","CA",95113,37.3355864110001,-121.887267777,134,"88 SOUTH 3RD STREET NUMBER 217, SAN JOSE, CA, 95113","Match","Exact","88 S 3RD ST, SAN JOSE, CA, 95113",652204775,"L"
306135,"88 SOUTH GRANDBAY CIRCLE","AURORA","CO",80018,39.714404958,-104.700955973,135,"88 SOUTH GRANDBAY CIRCLE, AURORA, CO, 80018","Match","Non_Exact","88 S GRAND BAY CIR, AURORA, CO, 80018",177378496,"L"
306136,"88 SUMER LANE SOUTH","DOUGLASVILLE","GA",30134,33.7880531120001,-84.790820476,136,"88 SUMER LANE SOUTH, DOUGLASVILLE, GA, 30134","Match","Non_Exact","88 SUMER LN, DOUGLASVILLE, GA, 30134",207993954,"L"
306137,"88 SUMMER STREET","MEDWAY","MA",2053,42.1535207680001,-71.443323844,137,"88 SUMMER STREET, MEDWAY, MA, 2053","Match","Exact","88 SUMMER ST, MEDWAY, MA, 02053",640929137,"L"
306138,"88 SUNRISE DRIVE","RANCHO MIRAGE","CA",92270,33.749975578,-116.411923414,138,"88 SUNRISE DRIVE, RANCHO MIRAGE, CA, 92270","Match","Exact","88 SUNRISE DR, RANCHO MIRAGE, CA, 92270",194768778,"R"
306139,"88 SW 7TH STREET UNIT 2012","MIAMI","FL",33130,NA,NA,139,"88 SW 7TH STREET UNIT 2012, MIAMI, FL, 33130","No_Match",NA,NA,NA,NA
306140,"88 TODD ROAD","KATONAH","NY",10536,41.2892748940001,-73.657502213,140,"88 TODD ROAD, KATONAH, NY, 10536","Match","Exact","88 TODD RD, KATONAH, NY, 10536",139754086,"R"
306141,"88 TRAP FALLS ROAD","SHELTON","CT",6484,41.2678678350001,-73.133494308,141,"88 TRAP FALLS ROAD, SHELTON, CT, 6484","Match","Exact","88 TRAP FALLS RD, SHELTON, CT, 06484",3280952,"L"
306142,"88 W 50 SOUTH H-1","CENTERVILLE","UT",84014,40.916776026,-111.880441931,142,"88 W 50 SOUTH H-1, CENTERVILLE, UT, 84014","Match","Non_Exact","88 W 50 S, CENTERVILLE, UT, 84014",229352838,"R"
306143,"88 W HIGHBANKS RD","DEBARY","FL",32713,28.8901590300001,-81.321033394,143,"88 W HIGHBANKS RD, DEBARY, FL, 32713","Match","Exact","88 W HIGHBANKS RD, DEBARY, FL, 32713",94572701,"L"
306144,"88 WEST HOUGHTON LAKE DRIVE","PRUDENVILLE","MI",48651,44.3044551880001,-84.6414810529999,144,"88 WEST HOUGHTON LAKE DRIVE, PRUDENVILLE, MI, 48651","Match","Exact","88 W HOUGHTON LAKE DR, PRUDENVILLE, MI, 48651",179425992,"L"
306145,"88 WEST SCHILLER STREET / UNIT 303","CHICAGO","IL",60610,41.907844594,-87.631374024,145,"88 WEST SCHILLER STREET / UNIT 303, CHICAGO, IL, 60610","Match","Exact","88 W SCHILLER ST, CHICAGO, IL, 60610",611577130,"R"
306146,"88 WILD ROSE DRIVE","CANON CITY","CO",81212,38.4091381010001,-105.259235713,146,"88 WILD ROSE DRIVE, CANON CITY, CO, 81212","Match","Exact","88 WILD ROSE DR, CANON CITY, CO, 81212",612600630,"R"
306147,"88 WINTHROP ST","MEDFORD","MA",2155,42.4128841300001,-71.120904025,147,"88 WINTHROP ST, MEDFORD, MA, 2155","Match","Exact","88 WINTHROP ST, MEDFORD, MA, 02155",86855873,"L"
306148,"88-11 205 STREET","HOLLIS","NY",11423,40.720423426,-73.7601110099999,148,"88-11 205 STREET, HOLLIS, NY, 11423","Match","Exact","88-11 205TH ST, HOLLIS, NY, 11423",59716708,"L"
306149,"88-11 DORAN AVENUE","GLENDALE","NY",11385,40.7096516870001,-73.86367641,149,"88-11 DORAN AVENUE, GLENDALE, NY, 11385","Match","Exact","88-11 DORAN AVE, GLENDALE, NY, 11385",59705483,"L"
306150,"88-24 MERRICK BLVD","JAMAICA","NY",11432,40.708552899,-73.79575611,150,"88-24 MERRICK BLVD, JAMAICA, NY, 11432","Match","Exact","88-24 MERRICK BLVD, JAMAICA, NY, 11432",59712125,"R"
306151,"88-2724 HONOMALINO RD","CAPTAIN COOK","HI",96750,19.203211799,-155.860176599,151,"88-2724 HONOMALINO RD, CAPTAIN COOK, HI, 96750","Match","Non_Exact","88 HONOMALINO RD, CAPTAIN COOK, HI, 96704",203030129,"R"
306152,"88-30 51ST AVENUE APARTMENT 4D","ELMHURST","NY",11373,40.7390967750001,-73.875672083,152,"88-30 51ST AVENUE APARTMENT 4D, ELMHURST, NY, 11373","Match","Exact","88-30 51ST AVE, ELMHURST, NY, 11373",59730640,"L"
306153,"88-42 76 STREET","WOODHAVEN","NY",11421,40.688631833,-73.8649552969999,153,"88-42 76 STREET, WOODHAVEN, NY, 11421","Match","Exact","88-42 76TH ST, WOODHAVEN, NY, 11421",59706911,"R"
306154,"880 ADAIR DR","CHINO VALLEY","AZ",86323,34.732866401,-112.450088972,154,"880 ADAIR DR, CHINO VALLEY, AZ, 86323","Match","Non_Exact","880 E ADAIR DR, CHINO VALLEY, AZ, 86323",159502244,"L"
306155,"880 ALBANY AVENUE","BROOKLYN","NY",11203,40.6524733110001,-73.9391793789999,155,"880 ALBANY AVENUE, BROOKLYN, NY, 11203","Match","Exact","880 ALBANY AVE, BROOKLYN, NY, 11203",59079873,"R"
306156,"880 BANKS ROAD","COCONUT CREEK","FL",33063,26.2395906840001,-80.194296982,156,"880 BANKS ROAD, COCONUT CREEK, FL, 33063","Match","Exact","880 BANKS RD, COCONUT CREEK, FL, 33063",114693014,"L"
306157,"880 BLOOMFIELD AVENUE","VERONA","NJ",7044,NA,NA,157,"880 BLOOMFIELD AVENUE, VERONA, NJ, 7044","No_Match",NA,NA,NA,NA
306158,"880 BLUEBONNET ROAD","GILMER","TX",75644,32.808932844,-94.945921574,158,"880 BLUEBONNET ROAD, GILMER, TX, 75644","Match","Exact","880 BLUEBONNET RD, GILMER, TX, 75644",618117014,"R"
306159,"880 BOYNTON AVE APT 16H","BRONX","NY",10473,40.821377107,-73.8765244479999,159,"880 BOYNTON AVE APT 16H, BRONX, NY, 10473","Match","Exact","880 BOYNTON AVE, BRONX, NY, 10473",609079650,"R"
306160,"880 BOYNTON AVE UNIT 1K","BRONX","NY",10473,40.821377107,-73.8765244479999,160,"880 BOYNTON AVE UNIT 1K, BRONX, NY, 10473","Match","Exact","880 BOYNTON AVE, BRONX, NY, 10473",609079650,"R"
306161,"880 BURBANK AVE","SUFFIELD","CT",6078,41.999370286,-72.611484482,161,"880 BURBANK AVE, SUFFIELD, CT, 6078","Match","Exact","880 BURBANK AVE, SUFFIELD, CT, 06078",3479603,"L"
306162,"880 CASHMERE DRIVE","LAKE HAVASU CITY","AZ",86404,34.5100259320001,-114.316853535,162,"880 CASHMERE DRIVE, LAKE HAVASU CITY, AZ, 86404","Match","Exact","880 CASHMERE DR, LAKE HAVASU CITY, AZ, 86404",190278891,"R"
306163,"880 CHERRY ORCHARD RD","DOVER","PA",17315,40.042641039,-76.840480927,163,"880 CHERRY ORCHARD RD, DOVER, PA, 17315","Match","Exact","880 CHERRY ORCHARD RD, DOVER, PA, 17315",88748503,"R"
306164,"880 CHESAPEAKE PLACE","CHULA VISTA","CA",91914,32.6555079440001,-116.946159647,164,"880 CHESAPEAKE PLACE, CHULA VISTA, CA, 91914","Match","Exact","880 CHESAPEAKE PL, CHULA VISTA, CA, 91914",195765161,"L"
306165,"880 CR 3100","KEMPNER","TX",76539,31.1007927210001,-98.097116662,165,"880 CR 3100, KEMPNER, TX, 76539","Match","Exact","880 CO RD 3100, KEMPNER, TX, 76539",146695324,"L"
306166,"880 CREMINS ROAD","LAWRENCEVILLE","GA",30046,33.9349512210001,-84.000918482,166,"880 CREMINS ROAD, LAWRENCEVILLE, GA, 30046","Match","Exact","880 CREMINS RD, LAWRENCEVILLE, GA, 30046",88951188,"L"
306167,"880 DORSEA ROAD","LANCASTER","PA",17601,40.0599135320001,-76.382999147,167,"880 DORSEA ROAD, LANCASTER, PA, 17601","Match","Exact","880 DORSEA RD, LANCASTER, PA, 17601",179660612,"L"
306168,"880 E BROADWAY","GLENDALE","CA",91205,34.146289129,-118.244542904,168,"880 E BROADWAY, GLENDALE, CA, 91205","Match","Exact","880 E BROADWAY, GLENDALE, CA, 91205",142731142,"R"
306169,"880 E144 ST APT 1","CLEVELAND","OH",44110,NA,NA,169,"880 E144 ST APT 1, CLEVELAND, OH, 44110","No_Match",NA,NA,NA,NA
306170,"880 EAST BRANCH ROAD","PATTERSON","NY",12563,41.4823929840001,-73.569476508,170,"880 EAST BRANCH ROAD, PATTERSON, NY, 12563","Match","Exact","880 E BRANCH RD, PATTERSON, NY, 12563",645380431,"R"
306171,"880 EAST FREMONT AVE UNIT 501","SUNNYVALE","CA",94087,37.352082834,-122.014607763,171,"880 EAST FREMONT AVE UNIT 501, SUNNYVALE, CA, 94087","Match","Exact","880 E FREMONT AVE, SUNNYVALE, CA, 94087",618171103,"R"
306172,"880 EASTERN AVENUE NE","WASHINGTON","DC",20019,38.9011962160001,-76.920029386,172,"880 EASTERN AVENUE NE, WASHINGTON, DC, 20019","Match","Exact","880 EASTERN AVE NE, WASHINGTON, DC, 20019",76234003,"L"
306173,"880 ELIJAH PAYNE CIRCLE","BLAIRSVILLE","GA",30512,NA,NA,173,"880 ELIJAH PAYNE CIRCLE, BLAIRSVILLE, GA, 30512","No_Match",NA,NA,NA,NA
306174,"880 FARMVIEW CT","VALPARAISO","IN",46383,41.5614381400001,-86.976684457,174,"880 FARMVIEW CT, VALPARAISO, IN, 46383","Match","Exact","880 FARMVIEW CT, VALPARAISO, IN, 46383",119926305,"R"
306175,"880 FRONTAGE ROAD STE H","PESHTIGO","WI",54157,45.0533165740001,-87.727843953,175,"880 FRONTAGE ROAD STE H, PESHTIGO, WI, 54157","Match","Exact","880 FRONTAGE RD, PESHTIGO, WI, 54157",170008210,"L"
306176,"880 GLENWOOD AVE SE 2325","ATLANTA","GA",30316,33.739769229,-84.3583542,176,"880 GLENWOOD AVE SE 2325, ATLANTA, GA, 30316","Match","Exact","880 GLENWOOD AVE SE, ATLANTA, GA, 30316",17424420,"L"
306177,"880 GLENWOOD AVE SE SUITE 3187","ATLANTA","GA",30316,33.739769229,-84.3583542,177,"880 GLENWOOD AVE SE SUITE 3187, ATLANTA, GA, 30316","Match","Exact","880 GLENWOOD AVE SE, ATLANTA, GA, 30316",17424420,"L"
306178,"880 HAMPSHIRE ROAD SUITE X","WESTLAKE VILLAGE","CA",91301,NA,NA,178,"880 HAMPSHIRE ROAD SUITE X, WESTLAKE VILLAGE, CA, 91301","No_Match",NA,NA,NA,NA
306179,"880 HARRIS JONES ROAD","LOUISBURG","NC",27549,36.1768304450001,-78.215045796,179,"880 HARRIS JONES ROAD, LOUISBURG, NC, 27549","Match","Exact","880 HARRIS JONES RD, LOUISBURG, NC, 27549",90225532,"L"
306180,"880 HARRISON ST SE SUITE DD","LEESBURG","VA",20175,39.1028867200001,-77.558169257,180,"880 HARRISON ST SE SUITE DD, LEESBURG, VA, 20175","Match","Exact","880 HARRISON ST SE, LEESBURG, VA, 20175",62331823,"R"
306181,"880 HEINZ PARKWAY","ESTES PARK","CO",80517,40.3651744810001,-105.546352225,181,"880 HEINZ PARKWAY, ESTES PARK, CO, 80517","Match","Exact","880 HEINZ PKWY, ESTES PARK, CO, 80517",188620352,"L"
306182,"880 HIGH STREET","CARBONDALE","IL",62901,37.7274487760001,-89.227323906,182,"880 HIGH STREET, CARBONDALE, IL, 62901","Match","Non_Exact","880 W HIGH ST, CARBONDALE, IL, 62901",95068112,"L"
306183,"880 HWY 6 SOUTH  APT 4058","HOUSTON","TX",77079,29.773157617,-95.643137408,183,"880 HWY 6 SOUTH  APT 4058, HOUSTON, TX, 77079","Match","Non_Exact","880 HWY 6 S, HOUSTON, TX, 77079",96628942,"R"
306184,"880 KRISSY DEE","MEDFORD","OR",97501,42.3353875930001,-122.896380918,184,"880 KRISSY DEE, MEDFORD, OR, 97501","Match","Exact","880 KRISSY DEE, MEDFORD, OR, 97501",155552435,"R"
306185,"880 LAFAYETTE ROAD UNIT 13","MEDINA","OH",44256,41.1262456910001,-81.8875548189999,185,"880 LAFAYETTE ROAD UNIT 13, MEDINA, OH, 44256","Match","Exact","880 LAFAYETTE RD, MEDINA, OH, 44256",639699507,"R"
306186,"880 LEGION CLUB ROAD","SALISBURY","NC",28146,35.603928351,-80.4538345989999,186,"880 LEGION CLUB ROAD, SALISBURY, NC, 28146","Match","Exact","880 LEGION CLUB RD, SALISBURY, NC, 28146",25263472,"L"
306187,"880 MAIN STREET SUITE 110","WILLIAMSTOWN","MA",1267,42.712130345,-73.202972895,187,"880 MAIN STREET SUITE 110, WILLIAMSTOWN, MA, 1267","Match","Exact","880 MAIN ST, WILLIAMSTOWN, MA, 01267",649724882,"R"
306188,"880 MARIETTA HWY STE 630305","ROSWELL","GA",30075,34.0059361680001,-84.389123898,188,"880 MARIETTA HWY STE 630305, ROSWELL, GA, 30075","Match","Exact","880 MARIETTA HWY, ROSWELL, GA, 30075",642631208,"L"
306189,"880 MERIDIAN BAY LANE UNIT 121","FOSTER CITY","CA",94404,37.5538448360001,-122.278427825,189,"880 MERIDIAN BAY LANE UNIT 121, FOSTER CITY, CA, 94404","Match","Exact","880 MERIDIAN BAY LN, FOSTER CITY, CA, 94404",627765466,"R"
306190,"880 MOCKINGBIRD DR","HARRISONBURG","VA",22802,38.4467535790001,-78.8439744729999,190,"880 MOCKINGBIRD DR, HARRISONBURG, VA, 22802","Match","Exact","880 MOCKINGBIRD DR, HARRISONBURG, VA, 22802",55762317,"R"
306191,"880 N AVALON ST","MEMPHIS","TN",38107,35.162457278,-90.004263707,191,"880 N AVALON ST, MEMPHIS, TN, 38107","Match","Exact","880 N AVALON ST, MEMPHIS, TN, 38107",72911843,"R"
306192,"880 NW 123 CT","MIAMI","FL",33182,25.777516033,-80.3933947579999,192,"880 NW 123 CT, MIAMI, FL, 33182","Match","Exact","880 NW 123RD CT, MIAMI, FL, 33182",635560592,"L"
306193,"880 NW 6TH ST","TOLEDO","OR",97391,44.6245966760001,-123.947886012,193,"880 NW 6TH ST, TOLEDO, OR, 97391","Match","Exact","880 NW 6TH ST, TOLEDO, OR, 97391",155953235,"R"
306194,"880 OAK PARK RD STE 200","COVINA","CA",91724,NA,NA,194,"880 OAK PARK RD STE 200, COVINA, CA, 91724","No_Match",NA,NA,NA,NA
306195,"880 PINER ROAD STE 49","SANTA ROSA","CA",95403,38.470823103,-122.740371596,195,"880 PINER ROAD STE 49, SANTA ROSA, CA, 95403","Match","Exact","880 PINER RD, SANTA ROSA, CA, 95403",651501152,"L"
306196,"880 RED SAGE LANE","SALT LAKE CITY","UT",84107,40.671014063,-111.865889543,196,"880 RED SAGE LANE, SALT LAKE CITY, UT, 84107","Match","Non_Exact","880 E RED SAGE LN, SALT LAKE CITY, UT, 84107",638532984,"R"
306197,"880 REFLECTION LOOP E","WINTER HAVEN","FL",33884,27.976549908,-81.667492123,197,"880 REFLECTION LOOP E, WINTER HAVEN, FL, 33884","Match","Non_Exact","880 REFLECTIONS LOOP E, WINTER HAVEN, FL, 33884",104889717,"R"
306198,"880 RIDGEWOOD ST 1","BROWNSVILLE","TX",78520,25.9327744670001,-97.500714051,198,"880 RIDGEWOOD ST 1, BROWNSVILLE, TX, 78520","Match","Exact","880 RIDGEWOOD ST, BROWNSVILLE, TX, 78520",89979689,"R"
306199,"880 RUNNYMEDE ROAD","WOODSIDE","CA",94062,37.4458435380001,-122.272930015,199,"880 RUNNYMEDE ROAD, WOODSIDE, CA, 94062","Match","Exact","880 RUNNYMEDE RD, WOODSIDE, CA, 94062",192411199,"L"
306200,"880 S OLD WOODWARD AVE","BIRMINGHAM","MI",48009,42.540335091,-83.208097584,200,"880 S OLD WOODWARD AVE, BIRMINGHAM, MI, 48009","Match","Exact","880 S OLD WOODWARD AVE, BIRMINGHAM, MI, 48009",642870976,"R"
306201,"880 S SAGINAW STREET","LAPEER","MI",48446,43.039666636,-83.303843507,201,"880 S SAGINAW STREET, LAPEER, MI, 48446","Match","Exact","880 S SAGINAW ST, LAPEER, MI, 48446",110457848,"L"
306202,"880 SCENIC LAKE DRIVE","LAWRENCEVILLE","GA",30045,33.8921242070001,-83.898082905,202,"880 SCENIC LAKE DRIVE, LAWRENCEVILLE, GA, 30045","Match","Exact","880 SCENIC LAKE DR, LAWRENCEVILLE, GA, 30045",88950003,"R"
306203,"880 SCHOFFERS RD","BIRDSBORO","PA",19508,40.3069806830001,-75.829087022,203,"880 SCHOFFERS RD, BIRDSBORO, PA, 19508","Match","Exact","880 SCHOFFERS RD, BIRDSBORO, PA, 19508",653373617,"L"
306204,"880 SHARON SCHOOL RD","STATESVILLE","NC",28625,35.7695115110001,-81.061962197,204,"880 SHARON SCHOOL RD, STATESVILLE, NC, 28625","Match","Exact","880 SHARON SCHOOL RD, STATESVILLE, NC, 28625",45980801,"R"
306205,"880 SW BILTMORE ST","PORT ST LUCIE","FL",34983,27.309393727,-80.3722442549999,205,"880 SW BILTMORE ST, PORT ST LUCIE, FL, 34983","Match","Exact","880 SW BILTMORE ST, PORT ST LUCIE, FL, 34983",610718135,"R"
306206,"880 THIERIOT AVENUE 4G","BRONX","NY",10473,40.82319174,-73.8624177459999,206,"880 THIERIOT AVENUE 4G, BRONX, NY, 10473","Match","Exact","880 THIERIOT AVE, BRONX, NY, 10473",80304984,"R"
306207,"880 UPHAM STREET","SAN LUIS OBISPO","CA",93401,35.2742561100001,-120.656418415,207,"880 UPHAM STREET, SAN LUIS OBISPO, CA, 93401","Match","Exact","880 UPHAM ST, SAN LUIS OBISPO, CA, 93401",109732366,"L"
306208,"880 W LIBERTY ST","SUMTER","SC",29150,33.9210934970001,-80.373672649,208,"880 W LIBERTY ST, SUMTER, SC, 29150","Match","Exact","880 W LIBERTY ST, SUMTER, SC, 29150",202670387,"L"
306209,"880 WEST FIRST ST SUITE 510","LOS ANGELES","CA",90012,34.0573760300001,-118.25137053,209,"880 WEST FIRST ST SUITE 510, LOS ANGELES, CA, 90012","Match","Exact","880 W 1ST ST, LOS ANGELES, CA, 90012",141617227,"L"
306210,"880 WEST KNICKERBOCKER DRIVE","SUNNYVALE","CA",94087,37.3623757280001,-122.048963409,210,"880 WEST KNICKERBOCKER DRIVE, SUNNYVALE, CA, 94087","Match","Exact","880 W KNICKERBOCKER DR, SUNNYVALE, CA, 94087",122937057,"L"
306211,"880 WESTFALL ROAD SUITE E","ROCHESTER","NY",14618,43.1153067600001,-77.598171526,211,"880 WESTFALL ROAD SUITE E, ROCHESTER, NY, 14618","Match","Exact","880 WESTFALL RD, ROCHESTER, NY, 14618",14561977,"L"
306212,"880 WILLAIM BLVD 613","RIDGELAND","MS",39157,32.4047940730001,-90.099429261,212,"880 WILLAIM BLVD 613, RIDGELAND, MS, 39157","Match","Non_Exact","880 WILLIAM BLVD, RIDGELAND, MS, 39157",152487524,"L"
306213,"8800 APPALOOSA RUN","AUSTIN","TX",78737,30.192781117,-97.935878302,213,"8800 APPALOOSA RUN, AUSTIN, TX, 78737","Match","Exact","8800 APPALOOSA RUN, AUSTIN, TX, 78737",63936869,"R"
306214,"8800 ARLINGTON EXPRESSWAY","JACKSONVILLE","FL",32211,30.325085663,-81.564405065,214,"8800 ARLINGTON EXPRESSWAY, JACKSONVILLE, FL, 32211","Match","Exact","8800 ARLINGTON EXPY, JACKSONVILLE, FL, 32211",83904448,"R"
306215,"8800 BAY AVENUE    UNIT 101","NORTH BEACH","MD",20714,38.7026606530001,-76.532296403,215,"8800 BAY AVENUE    UNIT 101, NORTH BEACH, MD, 20714","Match","Exact","8800 BAY AVE, NORTH BEACH, MD, 20714",78164107,"L"
306216,"8800 BOVELDER DR","LAUREL","MD",20708,39.0504606330001,-76.85239991,216,"8800 BOVELDER DR, LAUREL, MD, 20708","Match","Exact","8800 BOVELDER DR, LAUREL, MD, 20708",76339794,"L"
306217,"8800 COASTAL DR","AUSTIN","TX",78749,30.198782124,-97.847972924,217,"8800 COASTAL DR, AUSTIN, TX, 78749","Match","Exact","8800 COASTAL DR, AUSTIN, TX, 78749",63939371,"R"
306218,"8800 COLLINS ROAD","INDIAN LAND","SC",29707,34.9657954370001,-80.83906196,218,"8800 COLLINS ROAD, INDIAN LAND, SC, 29707","Match","Exact","8800 COLLINS RD, INDIAN LAND, SC, 29707",645295192,"R"
306219,"8800 COUNTRY OAK DR","ODENTON","MD",20024,39.065112001,-76.724896251,219,"8800 COUNTRY OAK DR, ODENTON, MD, 20024","Match","Non_Exact","8800 COUNTRY OAK DR, ODENTON, MD, 21113",68201761,"L"
306220,"8800 FONDREN RD 221","HOUSTON","TX",77074,29.6833730440001,-95.508729848,220,"8800 FONDREN RD 221, HOUSTON, TX, 77074","Match","Exact","8800 FONDREN RD, HOUSTON, TX, 77074",96604112,"R"
306221,"8800 GRAYWOLF RIDGE TRAIL","FORT WORTH","TX",76244,32.9006642620001,-97.263413368,221,"8800 GRAYWOLF RIDGE TRAIL, FORT WORTH, TX, 76244","Match","Exact","8800 GRAYWOLF RIDGE TRL, FORT WORTH, TX, 76244",619870522,"R"
306222,"8800 HARDESTY DR","CLINTON","MD",20735,38.767707155,-76.907415299,222,"8800 HARDESTY DR, CLINTON, MD, 20735","Match","Exact","8800 HARDESTY DR, CLINTON, MD, 20735",76342989,"L"
306223,"8800 HOLDEN BLVD","FAIRFIELD","OH",45014,NA,NA,223,"8800 HOLDEN BLVD, FAIRFIELD, OH, 45014","No_Match",NA,NA,NA,NA
306224,"8800 HOWLAND PLACE","BRISTOW","VA",20136,38.765478527,-77.593250461,224,"8800 HOWLAND PLACE, BRISTOW, VA, 20136","Match","Exact","8800 HOWLAND PL, BRISTOW, VA, 20136",207141844,"L"
306225,"8800 JARRETT VALLEY DRIVE","VIENNA","VA",22182,38.935453835,-77.2482989929999,225,"8800 JARRETT VALLEY DRIVE, VIENNA, VA, 22182","Match","Exact","8800 JARRETT VALLEY DR, VIENNA, VA, 22182",76046535,"R"
306226,"8800 N AUTUMN RD","OKLAHOMA CITY","OK",73151,35.5606563580001,-97.409432581,226,"8800 N AUTUMN RD, OKLAHOMA CITY, OK, 73151","Match","Exact","8800 AUTUMN RD, OKLAHOMA CITY, OK, 73151",100411431,"R"
306227,"8800 N INDUSTRIAL RD","PEORIA","IL",61615,40.7941888340001,-89.6270928929999,227,"8800 N INDUSTRIAL RD, PEORIA, IL, 61615","Match","Exact","8800 N INDUSTRIAL RD, PEORIA, IL, 61615",8711709,"R"
306228,"8800 QUEENSBURY LANE","STURTEVANT","WI",53177,42.68988498,-87.8923292429999,228,"8800 QUEENSBURY LANE, STURTEVANT, WI, 53177","Match","Exact","8800 QUEENSBURY LN, STURTEVANT, WI, 53177",77919147,"R"
306229,"8800 RUMFIELD RD","NORTH RICHLAND HILLS","TX",76182,32.883917748,-97.1958303659999,229,"8800 RUMFIELD RD, NORTH RICHLAND HILLS, TX, 76182","Match","Exact","8800 RUMFIELD RD, NORTH RICHLAND HILLS, TX, 76182",101861464,"R"
306230,"8800 RYAN PATRICK DR NW","ALBUQUERQUE","NM",87114,35.1837215100001,-106.687365135,230,"8800 RYAN PATRICK DR NW, ALBUQUERQUE, NM, 87114","Match","Exact","8800 RYAN PATRICK DR NW, ALBUQUERQUE, NM, 87114",206743974,"R"
306231,"8800 SE 287TH AVE","BORING","OR",97009,45.45983863,-122.367745889,231,"8800 SE 287TH AVE, BORING, OR, 97009","Match","Exact","8800 SE 287TH AVE, BORING, OR, 97009",649974597,"L"
306232,"8800 SE SUNNYSIDE RD 257-S","CLACKAMAS","OR",97015,45.4332596180001,-122.572928423,232,"8800 SE SUNNYSIDE RD 257-S, CLACKAMAS, OR, 97015","Match","Non_Exact","8800 SE SUNNYSIDE RD, CLACKAMAS, OR, 97015",157983516,"R"
306233,"8800 SIERRA COLLEGE BLVD APT 1212","ROSEVILLE","CA",95661,38.7394343710001,-121.225994088,233,"8800 SIERRA COLLEGE BLVD APT 1212, ROSEVILLE, CA, 95661","Match","Exact","8800 SIERRA COLLEGE BLVD, ROSEVILLE, CA, 95661",608088820,"L"
306234,"8800 TIDEWATER TRAIL","URBANNA","VA",23175,NA,NA,234,"8800 TIDEWATER TRAIL, URBANNA, VA, 23175","No_Match",NA,NA,NA,NA
306235,"8800 W 85TH STREET","OVERLAND PARK","KS",66212,38.9748858670001,-94.687385776,235,"8800 W 85TH STREET, OVERLAND PARK, KS, 66212","Match","Exact","8800 W 85TH ST, OVERLAND PARK, KS, 66212",91275812,"R"
306236,"8800 WEST 85TH STREET","OVERLAND PARK","KS",66212,38.9748858840001,-94.687376692,236,"8800 WEST 85TH STREET, OVERLAND PARK, KS, 66212","Match","Exact","8800 W 85TH ST, OVERLAND PARK, KS, 66212",91275812,"R"
306237,"8800-304 AUTUMN WINDS DR","RALEIGH","NC",27615,35.9046651150001,-78.659915809,237,"8800-304 AUTUMN WINDS DR, RALEIGH, NC, 27615","Match","Exact","8800 AUTUMN WINDS DR, RALEIGH, NC, 27615",72621081,"L"
306238,"880021","BOCA RATON","FL",33488,NA,NA,238,"880021, BOCA RATON, FL, 33488","No_Match",NA,NA,NA,NA
306239,"88005 OVERSEAS HIGHWAY NUM 10-133","ISLAMORADA","FL",33036,24.971668989,-80.556948581,239,"88005 OVERSEAS HIGHWAY NUM 10-133, ISLAMORADA, FL, 33036","Match","Exact","88005 OVERSEAS HWY, ISLAMORADA, FL, 33036",116490708,"R"
306240,"88005 TALLASSEE HWY","TALLASSEE","AL",36078,32.575548703,-85.959959532,240,"88005 TALLASSEE HWY, TALLASSEE, AL, 36078","Match","Exact","88005 TALLASSEE HWY, TALLASSEE, AL, 36078",1355913,"R"
306241,"88007 HIGH MOUNTAIN DRIVE","HOUSTON","TX",77088,NA,NA,241,"88007 HIGH MOUNTAIN DRIVE, HOUSTON, TX, 77088","No_Match",NA,NA,NA,NA
306242,"8801 10TH ST","LUBBOCK","TX",79416,33.5866332580001,-102.010382259,242,"8801 10TH ST, LUBBOCK, TX, 79416","Match","Exact","8801 10TH ST, LUBBOCK, TX, 79416",635040331,"R"
306243,"8801 CHEF MENTEUR HWY","NEW ORLEANS","LA",70127,30.015063787,-89.983864838,243,"8801 CHEF MENTEUR HWY, NEW ORLEANS, LA, 70127","Match","Exact","8801 CHEF MENTEUR HWY, NEW ORLEANS, LA, 70127",191743809,"L"
306244,"8801 CHICAGO AVENUE SOUTH","BLOOMINGTON","MN",55420,44.844043872,-93.263266065,244,"8801 CHICAGO AVENUE SOUTH, BLOOMINGTON, MN, 55420","Match","Exact","8801 CHICAGO AVE S, BLOOMINGTON, MN, 55420",43596326,"L"
306245,"8801 CHISHOLM CT","OLIVETTE","MO",63132,38.677687054,-90.362875056,245,"8801 CHISHOLM CT, OLIVETTE, MO, 63132","Match","Exact","8801 CHISHOLM CT, OLIVETTE, MO, 63132",100132763,"R"
306246,"8801 E ENT DRIVE","WICHITA","KS",67210,37.6391520240001,-97.235834116,246,"8801 E ENT DRIVE, WICHITA, KS, 67210","Match","Exact","8801 E ENT DR, WICHITA, KS, 67210",115668787,"L"
306247,"8801 EMMETT F LOWRY EXPY APT 1818","TEXAS CITY","TX",77591,29.3982419720001,-95.009142722,247,"8801 EMMETT F LOWRY EXPY APT 1818, TEXAS CITY, TX, 77591","Match","Exact","8801 EMMETT F LOWRY EXPY, TEXAS CITY, TX, 77591",96723586,"L"
306248,"8801 FAST PARK DRIVE SUITE 301","RALEIGH","NC",27617,NA,NA,248,"8801 FAST PARK DRIVE SUITE 301, RALEIGH, NC, 27617","No_Match",NA,NA,NA,NA
306249,"8801 HOLDEN BLVD","FAIRFIELD","OH",45014,39.337482574,-84.514831062,249,"8801 HOLDEN BLVD, FAIRFIELD, OH, 45014","Match","Exact","8801 HOLDEN BLVD, FAIRFIELD, OH, 45014",113798531,"R"
306250,"8801 HUNTERS LAKE DR APT 913","TAMPA","FL",33647,28.139926582,-82.352679428,250,"8801 HUNTERS LAKE DR APT 913, TAMPA, FL, 33647","Match","Exact","8801 HUNTERS LAKE DR, TAMPA, FL, 33647",104619442,"R"
306251,"8801 KELLY LANE","STREETSBORO","OH",44241,41.2311323640001,-81.3391411859999,251,"8801 KELLY LANE, STREETSBORO, OH, 44241","Match","Exact","8801 KELLY LN, STREETSBORO, OH, 44241",648141623,"R"
306252,"8801 LAKE FOREST BLVD 16105","NEW ORLEANS","LA",70127,30.028264774,-89.988137093,252,"8801 LAKE FOREST BLVD 16105, NEW ORLEANS, LA, 70127","Match","Exact","8801 LAKE FOREST BLVD, NEW ORLEANS, LA, 70127",191721086,"L"
306253,"8801 MARAUDER","CORPUS CHRISTI","TX",78414,27.645753045,-97.413970287,253,"8801 MARAUDER, CORPUS CHRISTI, TX, 78414","Match","Non_Exact","8801 MARAUDER DR, CORPUS CHRISTI, TX, 78414",627227374,"L"
306254,"8801 N CENTRAL AVE STE 103","PHOENIX","AZ",85020,33.5642433560001,-112.073881131,254,"8801 N CENTRAL AVE STE 103, PHOENIX, AZ, 85020","Match","Non_Exact","8801 N CENTRAL AVE, PHOENIX, AZ, 85020",128206465,"R"
306255,"8801 NALL AVE","PRAIRIE VILLAGE","KS",66207,38.9703260910001,-94.648967742,255,"8801 NALL AVE, PRAIRIE VILLAGE, KS, 66207","Match","Exact","8801 NALL AVE, PRAIRIE VLG, KS, 66207",91297960,"L"
306256,"8801 NW 11TH COURT","PEMBROKE PINES","FL",33024,26.018173614,-80.262605628,256,"8801 NW 11TH COURT, PEMBROKE PINES, FL, 33024","Match","Exact","8801 NW 11TH CT, PEMBROKE PINES, FL, 33024",114712435,"R"
306257,"8801 NW 23RD STREET","DORAL","FL",33172,25.7944462130001,-80.339654203,257,"8801 NW 23RD STREET, DORAL, FL, 33172","Match","Exact","8801 NW 23RD ST, DORAL, FL, 33172",642892075,"L"
306258,"8801 ROCK CREEK ROAD","PLACERVILLE","CA",95667,38.797986748,-120.734213426,258,"8801 ROCK CREEK ROAD, PLACERVILLE, CA, 95667","Match","Exact","8801 ROCK CREEK RD, PLACERVILLE, CA, 95667",133056985,"L"
306259,"8801 SEMMES DRIVE","SEMMES","AL",36575,30.7679165770001,-88.249763629,259,"8801 SEMMES DRIVE, SEMMES, AL, 36575","Match","Exact","8801 SEMMES DR, SEMMES, AL, 36575",61889769,"L"
306260,"8801 SOUTHLEA CT","FAIRFAX","VA",22031,38.8404807370001,-77.251195135,260,"8801 SOUTHLEA CT, FAIRFAX, VA, 22031","Match","Exact","8801 SOUTHLEA CT, FAIRFAX, VA, 22031",215980742,"R"
306261,"8801 SPLITARROW DR","AUSTIN","TX",78717,30.50167724,-97.741002585,261,"8801 SPLITARROW DR, AUSTIN, TX, 78717","Match","Exact","8801 SPLITARROW DR, AUSTIN, TX, 78717",126467062,"L"
306262,"8801 SUN HAVEN LANE","PEARLAND","TX",77584,29.5615137830001,-95.35647908,262,"8801 SUN HAVEN LANE, PEARLAND, TX, 77584","Match","Exact","8801 SUN HAVEN LN, PEARLAND, TX, 77584",116650556,"L"
306263,"8801 SUN HAVEN WAY","FORT WORTH","TX",76244,32.9003225170001,-97.258885407,263,"8801 SUN HAVEN WAY, FORT WORTH, TX, 76244","Match","Exact","8801 SUN HAVEN WAY, FORT WORTH, TX, 76244",637607058,"L"
306264,"8801 WOODWARD AVE","DETROIT","MI",48202,42.380423238,-83.080138314,264,"8801 WOODWARD AVE, DETROIT, MI, 48202","Match","Exact","8801 WOODWARD AVE, DETROIT, MI, 48202",95475395,"L"
306265,"8801 WOODWARD AVENUE","DETROIT","MI",48202,42.380423238,-83.080138314,265,"8801 WOODWARD AVENUE, DETROIT, MI, 48202","Match","Exact","8801 WOODWARD AVE, DETROIT, MI, 48202",95475395,"L"
306266,"8801","CHARLOTTE","NC",28262,NA,NA,266,"8801, CHARLOTTE, NC, 28262","No_Match",NA,NA,NA,NA
306267,"8802 BROCKEN FOREST","HELOTES","TX",78023,29.567256,-98.657835158,267,"8802 BROCKEN FOREST, HELOTES, TX, 78023","Match","Exact","8802 BROCKEN FOREST, HELOTES, TX, 78023",621908246,"R"
306268,"8802 CREEK RUN ROAD","YOUNGSTOWN","FL",32466,30.309448768,-85.570613495,268,"8802 CREEK RUN ROAD, YOUNGSTOWN, FL, 32466","Match","Exact","8802 CREEK RUN RD, YOUNGSTOWN, FL, 32466",7051640,"L"
306269,"8802 EAST 148TH LANE","BRIGHTON","CO",80602,39.9671051560001,-104.885589326,269,"8802 EAST 148TH LANE, BRIGHTON, CO, 80602","Match","Exact","8802 E 148TH LN, BRIGHTON, CO, 80602",601659470,"R"
306270,"8802 HADLEY ST","OVERLAND PARK","KS",66212,38.9698816700001,-94.682203239,270,"8802 HADLEY ST, OVERLAND PARK, KS, 66212","Match","Exact","8802 HADLEY ST, OVERLAND PARK, KS, 66212",91275857,"R"
306271,"8802 HIGHWAY 412 W","PARAGOULD","AR",72450,NA,NA,271,"8802 HIGHWAY 412 W, PARAGOULD, AR, 72450","No_Match",NA,NA,NA,NA
306272,"8802 LASALLE ST UNIT C","CYPRESS","CA",90630,NA,NA,272,"8802 LASALLE ST UNIT C, CYPRESS, CA, 90630","No_Match",NA,NA,NA,NA
306273,"8802 LINN STATION ROAD","LOUISVILLE","KY",40222,38.2300790350001,-85.5949608029999,273,"8802 LINN STATION ROAD, LOUISVILLE, KY, 40222","Match","Exact","8802 LINN STATION RD, LOUISVILLE, KY, 40222",96864016,"L"
306274,"8802 PATTON ROAD","WYNDMOOR","PA",19038,40.0908127060001,-75.20014916,274,"8802 PATTON ROAD, WYNDMOOR, PA, 19038","Match","Exact","8802 PATTON RD, WYNDMOOR, PA, 19038",135106050,"L"
306275,"8802 REPARTO AVE","ORLANDO","FL",32825,28.527444067,-81.261096089,275,"8802 REPARTO AVE, ORLANDO, FL, 32825","Match","Exact","8802 REPARTO AVE, ORLANDO, FL, 32825",94294935,"L"
306276,"8802 S URBANA AVE","TULSA","OK",74137,36.034806277,-95.926127959,276,"8802 S URBANA AVE, TULSA, OK, 74137","Match","Exact","8802 S URBANA AVE, TULSA, OK, 74137",166486254,"L"
306277,"8802 SIGRID RD","RANDALLSTOWN","MD",21133,39.373038373,-76.781919231,277,"8802 SIGRID RD, RANDALLSTOWN, MD, 21133","Match","Exact","8802 SIGRID RD, RANDALLSTOWN, MD, 21133",191466281,"R"
306278,"8803 APPLEBLOSSOM CT UNIT 2","SANTEE","CA",92071,32.8357097200001,-116.975122615,278,"8803 APPLEBLOSSOM CT UNIT 2, SANTEE, CA, 92071","Match","Non_Exact","8803 APPLE BLOSSOM CT, SANTEE, CA, 92071",612886960,"R"
306279,"8803 BRECKSVILLE ROAD SUITE 7-267","BRECKSVILLE","OH",44141,41.322316432,-81.6268064499999,279,"8803 BRECKSVILLE ROAD SUITE 7-267, BRECKSVILLE, OH, 44141","Match","Exact","8803 BRECKSVILLE RD, BRECKSVILLE, OH, 44141",61179526,"L"
306280,"8803 CARROLLWOOD LANE","CORDOVA","TN",38016,35.1923630910001,-89.770025409,280,"8803 CARROLLWOOD LANE, CORDOVA, TN, 38016","Match","Exact","8803 CARROLLWOOD LN, CORDOVA, TN, 38016",72945492,"R"
306281,"8803 CREEK WATER DR","SPRING","TX",77379,30.0218433310001,-95.552374292,281,"8803 CREEK WATER DR, SPRING, TX, 77379","Match","Exact","8803 CREEK WATER DR, SPRING, TX, 77379",96165792,"R"
306282,"8803 RANCHO STREET","ALTA LOMA","CA",91701,34.1535872760001,-117.614190885,282,"8803 RANCHO STREET, ALTA LOMA, CA, 91701","Match","Exact","8803 RANCHO ST, RANCHO CUCAMONGA, CA, 91701",144633756,"R"
306283,"8803 S URBANA AVE","TULSA","OK",74137,36.034805958,-95.926114406,283,"8803 S URBANA AVE, TULSA, OK, 74137","Match","Exact","8803 S URBANA AVE, TULSA, OK, 74137",166486254,"R"
306284,"8803 WAVERLY DRIVE","TUSCALOOSA","AL",35405,33.1268028980001,-87.540950161,284,"8803 WAVERLY DRIVE, TUSCALOOSA, AL, 35405","Match","Exact","8803 WAVERLY DR, TUSCALOOSA, AL, 35405",82194900,"L"
306285,"8803 WILHITE LANE","SHERWOOD","AR",72120,34.834479333,-92.218056347,285,"8803 WILHITE LANE, SHERWOOD, AR, 72120","Match","Exact","8803 WILHITE LN, SHERWOOD, AR, 72120",83538065,"L"
306286,"8804 DELLA LANE","FORT WASHINTON","MD",20744,38.768679476,-76.980924057,286,"8804 DELLA LANE, FORT WASHINTON, MD, 20744","Match","Non_Exact","8804 DELLA LN, FORT WASHINGTON, MD, 20744",76355522,"L"
306287,"8804 EL RICO DRIVE","INDIANAPOLIS","IN",46240,39.916420299,-86.1256704739999,287,"8804 EL RICO DRIVE, INDIANAPOLIS, IN, 46240","Match","Non_Exact","8804 ELRICO DR, INDIANAPOLIS, IN, 46240",107983302,"L"
306288,"8804 FM 2931","PILOT POINT","TX",76258,33.315627675,-96.935901423,288,"8804 FM 2931, PILOT POINT, TX, 76258","Match","Exact","8804 FM 2931, PILOT POINT, TX, 76258",649553907,"L"
306289,"8804 GRELLE LN","AUSTIN","TX",78744,30.1601256100001,-97.7630465679999,289,"8804 GRELLE LN, AUSTIN, TX, 78744","Match","Exact","8804 GRELLE LN, AUSTIN, TX, 78744",646491933,"R"
306290,"8804 HOOPER AVE","LOS ANGELES","CA",90002,33.957269771,-118.253968279,290,"8804 HOOPER AVE, LOS ANGELES, CA, 90002","Match","Exact","8804 HOOPER AVE, LOS ANGELES, CA, 90002",142760493,"L"
306291,"8804 JONQUIL DR","WACO","TX",76708,NA,NA,291,"8804 JONQUIL DR, WACO, TX, 76708","Tie",NA,NA,NA,NA
306292,"8804 LAKES BLVD","WEST PALM BEACH","FL",33412,26.8076748890001,-80.205285218,292,"8804 LAKES BLVD, WEST PALM BEACH, FL, 33412","Match","Exact","8804 LAKES BLVD, WEST PALM BEACH, FL, 33412",115338118,"L"
306293,"8804 PRISCILLA CT","LANHAM","MD",20706,38.9720998000001,-76.86712614,293,"8804 PRISCILLA CT, LANHAM, MD, 20706","Match","Exact","8804 PRISCILLA CT, LANHAM, MD, 20706",76348430,"R"
306294,"8804 STAGHORN SUITE 28","LOUISVILLE","KY",40242,38.277216964,-85.5897984489999,294,"8804 STAGHORN SUITE 28, LOUISVILLE, KY, 40242","Match","Non_Exact","8804 STAGHORN DR, LOUISVILLE, KY, 40242",640115856,"L"
306295,"8804 STEPHANIE ROAD","RANDALLSTOWN","MD",21133,39.3697519020001,-76.784513924,295,"8804 STEPHANIE ROAD, RANDALLSTOWN, MD, 21133","Match","Exact","8804 STEPHANIE RD, RANDALLSTOWN, MD, 21133",191466709,"R"
306296,"8804 TRACY DRIVE","SANDY","UT",84093,40.591645768,-111.810206435,296,"8804 TRACY DRIVE, SANDY, UT, 84093","Match","Exact","8804 TRACY DR, SANDY, UT, 84093",176096138,"R"
306297,"8804 WOODLAND MEADOWS COURT","ANNANDALE","VA",22003,38.8117906370001,-77.250492553,297,"8804 WOODLAND MEADOWS COURT, ANNANDALE, VA, 22003","Match","Exact","8804 WOODLAND MEADOWS CT, ANNANDALE, VA, 22003",76022538,"R"
306298,"88044 PINE ST","VENETA","OR",97487,44.0482009290001,-123.345701833,298,"88044 PINE ST, VENETA, OR, 97487","Match","Exact","88044 PINE ST, VENETA, OR, 97487",618379480,"L"
306299,"8805 CARDINAL LN","SILSBEE","TX",77656,30.42024202,-94.165307706,299,"8805 CARDINAL LN, SILSBEE, TX, 77656","Match","Exact","8805 CARDINAL LN, SILSBEE, TX, 77656",23976685,"R"
306300,"8805 CHAMBERY BLVD SUITE 300-124","JOHNSTON","IA",50131,NA,NA,300,"8805 CHAMBERY BLVD SUITE 300-124, JOHNSTON, IA, 50131","No_Match",NA,NA,NA,NA
306301,"8805 CHAMBERY BLVD-STE 300-NO 150","JOHNSTON","IA",50131,NA,NA,301,"8805 CHAMBERY BLVD-STE 300-NO 150, JOHNSTON, IA, 50131","No_Match",NA,NA,NA,NA
306302,"8805 MELROSE LANE","RIVER RIDGE","LA",70123,29.95058191,-90.2078558809999,302,"8805 MELROSE LANE, RIVER RIDGE, LA, 70123","Match","Exact","8805 MELROSE LN, RIVER RIDGE, LA, 70123",93501499,"R"
306303,"8805 NE 34TH STREET","YARROW POINT","WA",98004,47.641535613,-122.218814984,303,"8805 NE 34TH STREET, YARROW POINT, WA, 98004","Match","Exact","8805 NE 34TH ST, YARROW POINT, WA, 98004",186602464,"R"
306304,"8805 NW 48 ST","SUNRISE","FL",33351,26.1843040410001,-80.268425303,304,"8805 NW 48 ST, SUNRISE, FL, 33351","Match","Exact","8805 NW 48TH ST, SUNRISE, FL, 33351",114752255,"R"
306305,"8805 SPINNAKER WAY UNIT C1","YPSILANTI","MI",48197,42.212982863,-83.58620731,305,"8805 SPINNAKER WAY UNIT C1, YPSILANTI, MI, 48197","Match","Exact","8805 SPINNAKER WAY, YPSILANTI, MI, 48197",26043122,"L"
306306,"8805 STROUT ROAD","CLARKSVILLE","OH",45113,39.3817051460001,-84.042115703,306,"8805 STROUT ROAD, CLARKSVILLE, OH, 45113","Match","Exact","8805 STROUT RD, CLARKSVILLE, OH, 45113",159015995,"R"
306307,"8805 TALON CT","MCKINNEY","TX",75070,33.2006183,-96.730693198,307,"8805 TALON CT, MCKINNEY, TX, 75070","Match","Non_Exact","8805 TALON CT, MCKINNEY, TX, 75072",210506079,"L"
306308,"8805 TAMIAMI TRAIL N 154","NAPLES","FL",34108,26.2486494410001,-81.8011803329999,308,"8805 TAMIAMI TRAIL N 154, NAPLES, FL, 34108","Match","Exact","8805 TAMIAMI TRL N, NAPLES, FL, 34108",636361984,"L"
306309,"8805 TAMIAMI TRAIL NORTH STE 322","NAPLES","FL",34108,26.2486494410001,-81.8011803329999,309,"8805 TAMIAMI TRAIL NORTH STE 322, NAPLES, FL, 34108","Match","Exact","8805 TAMIAMI TRL N, NAPLES, FL, 34108",636361984,"L"
306310,"8805 TRILLIUM DR","YPSILANTI","MI",48197,42.1989644240001,-83.587445369,310,"8805 TRILLIUM DR, YPSILANTI, MI, 48197","Match","Exact","8805 TRILLIUM DR, YPSILANTI, MI, 48197",648231295,"R"
306311,"8805 TYLER DR","LANTANA","TX",76226,33.098962697,-97.129021635,311,"8805 TYLER DR, LANTANA, TX, 76226","Match","Exact","8805 TYLER DR, LANTANA, TX, 76226",636960973,"L"
306312,"8805 VAN FLEET ROAD","RIVERVIEW","FL",33578,27.8636359160001,-82.345126224,312,"8805 VAN FLEET ROAD, RIVERVIEW, FL, 33578","Match","Exact","8805 VAN FLEET RD, RIVERVIEW, FL, 33578",104539560,"R"
306313,"8805 WATERSWAY DRIVE","ROWLETT","TX",75088,32.897366989,-96.5162874549999,313,"8805 WATERSWAY DRIVE, ROWLETT, TX, 75088","Match","Exact","8805 WATERSWAY DR, ROWLETT, TX, 75088",123790616,"L"
306314,"8806 CHARLEMONT ROAD","GOODE","VA",24556,37.418091713,-79.3708742439999,314,"8806 CHARLEMONT ROAD, GOODE, VA, 24556","Match","Exact","8806 CHARLEMONT RD, GOODE, VA, 24556",228445672,"R"
306315,"8806 CHELMSFORD WAY STE A","INGLEWOOD","CA",90305,33.957583206,-118.339681219,315,"8806 CHELMSFORD WAY STE A, INGLEWOOD, CA, 90305","Match","Exact","8806 CHELMSFORD WAY, INGLEWOOD, CA, 90305",241247640,"L"
306316,"8806 CHELMSFORD WAY UNIT D","INGLEWOOD","CA",90305,33.957583206,-118.339681219,316,"8806 CHELMSFORD WAY UNIT D, INGLEWOOD, CA, 90305","Match","Exact","8806 CHELMSFORD WAY, INGLEWOOD, CA, 90305",241247640,"L"
306317,"8806 HIGHWAY 41","CHARLESTON","AR",72933,35.361546187,-93.9340039589999,317,"8806 HIGHWAY 41, CHARLESTON, AR, 72933","Match","Non_Exact","8806 STATE HWY 41, CHARLESTON, AR, 72933",610616511,"R"
306318,"8806 MOSSBRIAR CT","HOUSTON","TX",77095,29.9090203270001,-95.67283458,318,"8806 MOSSBRIAR CT, HOUSTON, TX, 77095","Match","Exact","8806 MOSSBRIAR CT, HOUSTON, TX, 77095",625224815,"R"
306319,"8806 NANCY LN","FT WASHINGTON","MD",20744,38.768394662,-76.96579207,319,"8806 NANCY LN, FT WASHINGTON, MD, 20744","Match","Exact","8806 NANCY LN, FT WASHINGTON, MD, 20744",641486095,"L"
306320,"8806 S PLEASANT","CHICAGO","IL",60643,41.7329381280001,-87.675828407,320,"8806 S PLEASANT, CHICAGO, IL, 60643","Match","Non_Exact","8806 S PLEASANT AVE, CHICAGO, IL, 60643",111821188,"R"
306321,"8806 S REDWOOD ROAD","WEST JORDAN","UT",84088,40.5916294150001,-111.938745436,321,"8806 S REDWOOD ROAD, WEST JORDAN, UT, 84088","Match","Exact","8806 S REDWOOD RD, WEST JORDAN, UT, 84088",176132609,"R"
306322,"8806 W 49TH TERRACE","MERRIAM","KS",66203,39.0392248480001,-94.687571545,322,"8806 W 49TH TERRACE, MERRIAM, KS, 66203","Match","Exact","8806 W 49TH TER, MERRIAM, KS, 66203",91272722,"R"
306323,"8806 WALNUTES CIRCLE","ALEXANDRIA","VA",22309,NA,NA,323,"8806 WALNUTES CIRCLE, ALEXANDRIA, VA, 22309","No_Match",NA,NA,NA,NA
306324,"8806","SOLON SPRINGS","WI",54873,NA,NA,324,"8806, SOLON SPRINGS, WI, 54873","No_Match",NA,NA,NA,NA
306325,"8807 AIRPORT BLVD STE 103","LEESBURG","FL",34788,28.828484933,-81.81060956,325,"8807 AIRPORT BLVD STE 103, LEESBURG, FL, 34788","Match","Exact","8807 AIRPORT BLVD, LEESBURG, FL, 34788",640587752,"R"
306326,"8807 ANGLERS POINT DR","TEMPLE TERRACE","FL",33637,NA,NA,326,"8807 ANGLERS POINT DR, TEMPLE TERRACE, FL, 33637","No_Match",NA,NA,NA,NA
306327,"8807 GRAMEL STREET","NORFOLK","VA",23503,36.9387294650001,-76.264318781,327,"8807 GRAMEL STREET, NORFOLK, VA, 23503","Match","Exact","8807 GRAMEL ST, NORFOLK, VA, 23503",122132719,"L"
306328,"8807 NE 117TH TER","KANSAS CITY","MO",64157,39.3059660380001,-94.4723750489999,328,"8807 NE 117TH TER, KANSAS CITY, MO, 64157","Match","Exact","8807 NE 117TH TER, KANSAS CITY, MO, 64157",641529863,"L"
306329,"8807 RIDGECREST DR","MANVEL","TX",77578,29.454209254,-95.3323926909999,329,"8807 RIDGECREST DR, MANVEL, TX, 77578","Match","Exact","8807 RIDGECREST DR, MANVEL, TX, 77578",116575902,"R"
306330,"8807 RIDGECREST DRIVE","MANVEL","TX",77578,29.454209254,-95.3323926909999,330,"8807 RIDGECREST DRIVE, MANVEL, TX, 77578","Match","Exact","8807 RIDGECREST DR, MANVEL, TX, 77578",116575902,"R"
306331,"8807 THORNTON ROAD STE M","STOCKTON","CA",95209,38.030263308,-121.333798734,331,"8807 THORNTON ROAD STE M, STOCKTON, CA, 95209","Match","Exact","8807 THORNTON RD, STOCKTON, CA, 95209",133888417,"L"
306332,"8807 W DAHLIA DR","PEORIA","AZ",85381,33.6020015670001,-112.248497676,332,"8807 W DAHLIA DR, PEORIA, AZ, 85381","Match","Exact","8807 W DAHLIA DR, PEORIA, AZ, 85381",619132142,"L"
306333,"8807 WOODWAY DRIVE","WACO","TX",76712,31.4986926940001,-97.217739092,333,"8807 WOODWAY DRIVE, WACO, TX, 76712","Match","Exact","8807 WOODWAY DR, WACO, TX, 76712",639335831,"R"
306334,"8808 41 AVE N","NEWHOPE","MN",55427,45.031549038,-93.391721852,334,"8808 41 AVE N, NEWHOPE, MN, 55427","Match","Non_Exact","8808 41ST AVE N, NEW HOPE, MN, 55427",43608828,"R"
306335,"8808 COLESVILLE ROAD","SILVER SPRING","MD",20910,38.99916389,-77.026130495,335,"8808 COLESVILLE ROAD, SILVER SPRING, MD, 20910","Match","Exact","8808 COLESVILLE RD, SILVER SPRING, MD, 20910",62068099,"L"
306336,"8808 GARY STREET","FORT SMITH","AR",72903,35.3484240110001,-94.3353687439999,336,"8808 GARY STREET, FORT SMITH, AR, 72903","Match","Exact","8808 GARY ST, FORT SMITH, AR, 72903",56105263,"R"
306337,"8808 LEAVER AVE NW","CANAL FULTON","OH",44614,40.908423758,-81.595151035,337,"8808 LEAVER AVE NW, CANAL FULTON, OH, 44614","Match","Exact","8808 LEAVER AVE NW, CANAL FULTON, OH, 44614",64706882,"R"
306338,"8808 OAKRIDGE DRIVE","MIDWEST CITY","OK",73110,35.476106976,-97.3750044069999,338,"8808 OAKRIDGE DRIVE, MIDWEST CITY, OK, 73110","Match","Exact","8808 OAKRIDGE DR, MIDWEST CITY, OK, 73110",100416339,"R"
306339,"8808 OLD GLORY CT NE","ALBUQUERQUE","NM",87109,35.1638168590001,-106.546305196,339,"8808 OLD GLORY CT NE, ALBUQUERQUE, NM, 87109","Match","Exact","8808 OLD GLORY CT NE, ALBUQUERQUE, NM, 87109",206714014,"R"
306340,"8808 S FAIRVIEW DR","OKLAHOMA CITY","OK",73159,35.378539587,-97.5591650109999,340,"8808 S FAIRVIEW DR, OKLAHOMA CITY, OK, 73159","Match","Exact","8808 S FAIRVIEW DR, OKLAHOMA CITY, OK, 73159",100406266,"L"
306341,"8808 SCARLET KNIGHT NE","ALBUQUERQUE","NM",87122,35.184761479,-106.501714463,341,"8808 SCARLET KNIGHT NE, ALBUQUERQUE, NM, 87122","Match","Non_Exact","8808 SCARLET KNIGHT ST NE, ALBUQUERQUE, NM, 87122",632575898,"R"
306342,"8808 WANDERING TRAIL DR","POTOMAC","MD",20854,39.0670515950001,-77.181080731,342,"8808 WANDERING TRAIL DR, POTOMAC, MD, 20854","Match","Exact","8808 WANDERING TRAIL DR, POTOMAC, MD, 20854",62053226,"L"
306343,"88085 433 AVENUE","AINSWORTH","NE",69210,NA,NA,343,"88085 433 AVENUE, AINSWORTH, NE, 69210","No_Match",NA,NA,NA,NA
306344,"8809 AMARANTH LANE","YPSILANTI","MI",48197,42.193694844,-83.5858100839999,344,"8809 AMARANTH LANE, YPSILANTI, MI, 48197","Match","Exact","8809 AMARANTH LN, YPSILANTI, MI, 48197",619099739,"L"
306345,"8809 BARNSLEY CT APT 23","LAUREL","MD",20708,39.0761616340001,-76.853605162,345,"8809 BARNSLEY CT APT 23, LAUREL, MD, 20708","Match","Exact","8809 BARNSLEY CT, LAUREL, MD, 20708",76325881,"R"
306346,"8809 CINCINNATI DAYTON ROAD","WEST CHESTER","OH",45069,39.332579305,-84.40524168,346,"8809 CINCINNATI DAYTON ROAD, WEST CHESTER, OH, 45069","Match","Exact","8809 CINCINNATI DAYTON RD, WEST CHESTER, OH, 45069",113799207,"R"
306347,"8809 KEY WEST CIRCLE","TAMPA","FL",33626,28.0634416140001,-82.583928649,347,"8809 KEY WEST CIRCLE, TAMPA, FL, 33626","Match","Exact","8809 KEY WEST CIR, TAMPA, FL, 33626",653521664,"L"
306348,"8809 LAKE RD","SEVILLE","OH",44273,41.033247121,-81.906296717,348,"8809 LAKE RD, SEVILLE, OH, 44273","Match","Exact","8809 LAKE RD, SEVILLE, OH, 44273",641107694,"L"
306349,"8809 LOUGHRAN ROAD","FT WASHINGTON","MD",20744,38.7690931770001,-77.015984079,349,"8809 LOUGHRAN ROAD, FT WASHINGTON, MD, 20744","Match","Exact","8809 LOUGHRAN RD, FT WASHINGTON, MD, 20744",76302140,"R"
306350,"8809 MEISENHEIMER AVE","LAS VEGAS","NV",89143,36.3120673870001,-115.288144901,350,"8809 MEISENHEIMER AVE, LAS VEGAS, NV, 89143","Match","Exact","8809 MEISENHEIMER AVE, LAS VEGAS, NV, 89143",201965746,"L"
306351,"8809 MILNERS CT","FOLEY","AL",36535,30.3535379530001,-87.741992437,351,"8809 MILNERS CT, FOLEY, AL, 36535","Match","Exact","8809 MILNERS CT, FOLEY, AL, 36535",619279590,"R"
306352,"8809 PRESTWICK LANE","ORLAND PARK","IL",60462,41.6466979410001,-87.835793924,352,"8809 PRESTWICK LANE, ORLAND PARK, IL, 60462","Match","Exact","8809 PRESTWICK LN, ORLAND PARK, IL, 60462",111813926,"L"
306353,"8809 REDWOOD CT","LAVISTE","NE",68128,41.1894387020001,-96.049223867,353,"8809 REDWOOD CT, LAVISTE, NE, 68128","Match","Non_Exact","8809 REDWOOD CT, LAVISTA, NE, 68128",28500802,"L"
306354,"8809 S STONY ISLAND AVE UNIT 2","CHICAGO","IL",60617,41.7348376190001,-87.5851601049999,354,"8809 S STONY ISLAND AVE UNIT 2, CHICAGO, IL, 60617","Match","Exact","8809 STONY ISLAND AVE, CHICAGO, IL, 60617",605550054,"L"
306355,"8809 SAND PINE DRIVE","NAVARRE","FL",32566,30.4338977350001,-86.854617896,355,"8809 SAND PINE DRIVE, NAVARRE, FL, 32566","Match","Exact","8809 SAND PINE DR, NAVARRE, FL, 32566",74582663,"R"
306356,"8809 SPRUCE BROOK ST","ANCHORAGE","AK",99507,61.1409612470001,-149.818196648,356,"8809 SPRUCE BROOK ST, ANCHORAGE, AK, 99507","Match","Exact","8809 SPRUCE BROOK ST, ANCHORAGE, AK, 99507",605182677,"L"
306357,"8809 THOMAS STREET STE 108","SHERWOOD","AR",72120,34.835367315,-92.225717474,357,"8809 THOMAS STREET STE 108, SHERWOOD, AR, 72120","Match","Exact","8809 THOMAS ST, SHERWOOD, AR, 72120",83552254,"L"
306358,"8809 TRACY DRIVE","OKLAHOMA CITY","OK",73132,35.561264786,-97.672512765,358,"8809 TRACY DRIVE, OKLAHOMA CITY, OK, 73132","Match","Exact","8809 TRACY DR, OKLAHOMA CITY, OK, 73132",100386782,"L"
306359,"8809 WELLER LANE","KELLER","TX",76244,32.900500983,-97.2970894869999,359,"8809 WELLER LANE, KELLER, TX, 76244","Match","Exact","8809 WELLER LN, KELLER, TX, 76244",619863432,"L"
306360,"8809 WINDING HOLLOW WAY","SPRINGFIELD","VA",22152,38.7848454040001,-77.24859566,360,"8809 WINDING HOLLOW WAY, SPRINGFIELD, VA, 22152","Match","Exact","8809 WINDING HOLLOW WAY, SPRINGFIELD, VA, 22152",75975369,"L"
306361,"881 69TH AVE APT 414","OAKLAND","CA",94621,37.7564003310001,-122.19694672,361,"881 69TH AVE APT 414, OAKLAND, CA, 94621","Match","Exact","881 69TH AVE, OAKLAND, CA, 94621",125008236,"L"
306362,"881 ALMA REAL DRIVE SUITE 112","PACIFIC PALISADES","CA",90272,34.0449229130001,-118.525055476,362,"881 ALMA REAL DRIVE SUITE 112, PACIFIC PALISADES, CA, 90272","Match","Exact","881 ALMA REAL DR, PACIFIC PALISADES, CA, 90272",141558519,"L"
306363,"881 ASHBURN WAY","SWEDESBORO","NJ",8085,39.7440847390001,-75.340601224,363,"881 ASHBURN WAY, SWEDESBORO, NJ, 8085","Match","Exact","881 ASHBURN WAY, SWEDESBORO, NJ, 08085",134608038,"R"
306364,"881 BAXTER DR - 100","SOUTH JORDAN","UT",84095,40.5612230300001,-111.914969684,364,"881 BAXTER DR - 100, SOUTH JORDAN, UT, 84095","Match","Exact","881 BAXTER DR, SOUTH JORDAN, UT, 84095",618147361,"R"
306365,"881 BRACHT PINER ROAD","MORNING VIEW","KY",41063,38.819468344,-84.564248167,365,"881 BRACHT PINER ROAD, MORNING VIEW, KY, 41063","Match","Non_Exact","881 BRACHT-PINER RD, MORNING VIEW, KY, 41063",632854208,"R"
306366,"881 BUCKBOARD LANE","IDAHO FALLS","ID",83402,43.5026321120001,-112.075049801,366,"881 BUCKBOARD LANE, IDAHO FALLS, ID, 83402","Match","Exact","881 BUCKBOARD LN, IDAHO FALLS, ID, 83402",119153259,"L"
306367,"881 BUCKBOARD LN","IDAHO FALLS","ID",83402,43.5026321120001,-112.075049801,367,"881 BUCKBOARD LN, IDAHO FALLS, ID, 83402","Match","Exact","881 BUCKBOARD LN, IDAHO FALLS, ID, 83402",119153259,"L"
306368,"881 CALLE CLAVEL","THOUSAND OAKS","CA",91360,34.2075430510001,-118.863559414,368,"881 CALLE CLAVEL, THOUSAND OAKS, CA, 91360","Match","Non_Exact","881 CLL CLAVEL, THOUSAND OAKS, CA, 91360",110049234,"L"
306369,"881 COUNTY ROUTE 164","CALLICOON","NY",12723,41.759081892,-74.989012728,369,"881 COUNTY ROUTE 164, CALLICOON, NY, 12723","Match","Exact","881 CO RTE 164, CALLICOON, NY, 12723",128976435,"L"
306370,"881 CR 3226","QUITMAN","TX",75783,32.75390185,-95.39457011,370,"881 CR 3226, QUITMAN, TX, 75783","Match","Exact","881 CO RD 3226, QUITMAN, TX, 75783",42992086,"L"
306371,"881 DELVIN DRIVE","SAINT LOUIS","MO",63141,38.632520636,-90.458854811,371,"881 DELVIN DRIVE, SAINT LOUIS, MO, 63141","Match","Exact","881 DELVIN DR, SAINT LOUIS, MO, 63141",100162770,"R"
306372,"881 DOE RUN LANE","NEWCASTLE","CA",95658,38.897969141,-121.145830156,372,"881 DOE RUN LANE, NEWCASTLE, CA, 95658","Match","Exact","881 DOE RUN LN, NEWCASTLE, CA, 95658",106779714,"R"
306373,"881 DRESSLER LN","ROCHESTER HILLS","MI",48307,42.6545752170001,-83.1499068479999,373,"881 DRESSLER LN, ROCHESTER HILLS, MI, 48307","Match","Exact","881 DRESSLER LN, ROCHESTER HILLS, MI, 48307",69772750,"L"
306374,"881 E PICACHO AVE","LAS CRUCES","NM",88001,32.3180050620001,-106.771155057,374,"881 E PICACHO AVE, LAS CRUCES, NM, 88001","Match","Exact","881 E PICACHO AVE, LAS CRUCES, NM, 88001",616319281,"L"
306375,"881 HEX HWY","HAMBURG","PA",19526,40.5387174520001,-76.017983021,375,"881 HEX HWY, HAMBURG, PA, 19526","Match","Exact","881 HEX HWY, HAMBURG, PA, 19526",80427551,"R"
306376,"881 HIGHLAND TRAIL","PRAIRIE DU SAC","WI",53578,43.297345196,-89.732613874,376,"881 HIGHLAND TRAIL, PRAIRIE DU SAC, WI, 53578","Match","Exact","881 HIGHLAND TRL, PRAIRIE DU SAC, WI, 53578",86569057,"L"
306377,"881 HUNLEY DR","VIRGINIA BEACH","VA",23462,36.810043168,-76.111998838,377,"881 HUNLEY DR, VIRGINIA BEACH, VA, 23462","Match","Exact","881 HUNLEY DR, VA BCH, VA, 23462",641468443,"R"
306378,"881 HUTCHINSON FERRY RD","BAINBRIDGE","GA",39819,30.7347716940001,-84.6901606979999,378,"881 HUTCHINSON FERRY RD, BAINBRIDGE, GA, 39819","Match","Exact","881 HUTCHINSON FERRY RD, BAINBRIDGE, GA, 39819",84287307,"R"
306379,"881 LINE ST UNIT 200","HOLLISTER","CA",95023,36.8474614580001,-121.41266039,379,"881 LINE ST UNIT 200, HOLLISTER, CA, 95023","Match","Exact","881 LINE ST, HOLLISTER, CA, 95023",125453690,"R"
306380,"881 LOOMIS TRAIL ROAD","LYNDEN","WA",98264,48.9499955150001,-122.528812243,380,"881 LOOMIS TRAIL ROAD, LYNDEN, WA, 98264","Match","Exact","881 LOOMIS TRAIL RD, LYNDEN, WA, 98264",183782792,"L"
306381,"881 MADISON AVE","MEMPHIS","TN",38103,35.1404310980001,-90.032049237,381,"881 MADISON AVE, MEMPHIS, TN, 38103","Match","Exact","881 MADISON AVE, MEMPHIS, TN, 38103",638681456,"R"
306382,"881 MADISON AVENUE","MEMPHIS","TN",38163,35.1404310980001,-90.032049237,382,"881 MADISON AVENUE, MEMPHIS, TN, 38163","Match","Non_Exact","881 MADISON AVE, MEMPHIS, TN, 38103",638681456,"R"
306383,"881 MAIN ST BOX 11","PAWTUCKET","RI",2860,41.868097677,-71.398855657,383,"881 MAIN ST BOX 11, PAWTUCKET, RI, 2860","Match","Exact","881 MAIN ST, PAWTUCKET, RI, 02860",47463009,"R"
306384,"881 MAIN ST","CARRINGTON","ND",58421,47.4495430060001,-99.124490198,384,"881 MAIN ST, CARRINGTON, ND, 58421","Match","Exact","881 MAIN ST, CARRINGTON, ND, 58421",173965142,"R"
306385,"881 MAIN STREET","PAWTUCKET","RI",2860,41.868097677,-71.398855657,385,"881 MAIN STREET, PAWTUCKET, RI, 2860","Match","Exact","881 MAIN ST, PAWTUCKET, RI, 02860",47463009,"R"
306386,"881 MANSFIELD ST","HOUSTON","TX",77091,29.8513966410001,-95.421861719,386,"881 MANSFIELD ST, HOUSTON, TX, 77091","Match","Exact","881 MANSFIELD ST, HOUSTON, TX, 77091",96053203,"L"
306387,"881 MARTIN BEHERMAN","METARIE","LA",70005,30.0062320540001,-90.130814979,387,"881 MARTIN BEHERMAN, METARIE, LA, 70005","Match","Non_Exact","881 MARTIN BEHRMAN AVE, METAIRIE, LA, 70005",93498747,"R"
306388,"881 NOLA RUTH BLVD","HARKER HEIGHTS","TX",76548,31.075477662,-97.642296753,388,"881 NOLA RUTH BLVD, HARKER HEIGHTS, TX, 76548","Match","Exact","881 NOLA RUTH BLVD, HARKER HEIGHTS, TX, 76548",146142775,"L"
306389,"881 ODD FELLOWS HALL RD","PULASKI","TN",38478,35.2763142810001,-86.952636141,389,"881 ODD FELLOWS HALL RD, PULASKI, TN, 38478","Match","Exact","881 ODD FELLOWS HALL RD, PULASKI, TN, 38478",647977750,"R"
306390,"881 SAXON AVE","AKRON","OH",44314,41.0552036350001,-81.558437983,390,"881 SAXON AVE, AKRON, OH, 44314","Match","Exact","881 SAXON AVE, AKRON, OH, 44314",61342869,"R"
306391,"881 SCHENCK AVENUE APT B","BROOKLYN","NY",11207,40.6588018960001,-73.8821797859999,391,"881 SCHENCK AVENUE APT B, BROOKLYN, NY, 11207","Match","Exact","881 SCHENCK AVE, BROOKLYN, NY, 11207",59085381,"L"
306392,"881 SENOIA ROAD","TYRONE","GA",30290,33.474560389,-84.596990724,392,"881 SENOIA ROAD, TYRONE, GA, 30290","Match","Exact","881 SENOIA RD, TYRONE, GA, 30290",638647988,"L"
306393,"881 SOUTH BRYAN SREET","ELMHURST","IL",60126,NA,NA,393,"881 SOUTH BRYAN SREET, ELMHURST, IL, 60126","No_Match",NA,NA,NA,NA
306394,"881 SOUTH MIMOSA RD","GILMER","TX",75644,32.748149357,-95.0809836619999,394,"881 SOUTH MIMOSA RD, GILMER, TX, 75644","Match","Exact","881 S MIMOSA RD, GILMER, TX, 75644",147602061,"R"
306395,"881 STONEHENGE","TIPP CITY","OH",45371,39.985192092,-84.2156184469999,395,"881 STONEHENGE, TIPP CITY, OH, 45371","Match","Non_Exact","881 STONEHENGE DR, TIPP CITY, OH, 45371",135304081,"L"
306396,"881 THOUSAND OAKS DRIVE","LAWRENCEVILLE","GA",30043,34.0142315160001,-83.993908203,396,"881 THOUSAND OAKS DRIVE, LAWRENCEVILLE, GA, 30043","Match","Exact","881 THOUSAND OAKS DR, LAWRENCEVILLE, GA, 30043",88911416,"R"
306397,"881 TOYON AVENUE","SAN JOSE","CA",95127,37.3909573650001,-121.833117561,397,"881 TOYON AVENUE, SAN JOSE, CA, 95127","Match","Exact","881 TOYON AVE, SAN JOSE, CA, 95127",123183331,"L"
306398,"881 VEGAS VIEW DR","HENDERSON","NV",89052,35.995906087,-115.086356181,398,"881 VEGAS VIEW DR, HENDERSON, NV, 89052","Match","Exact","881 VEGAS VIEW DR, HENDERSON, NV, 89052",637078170,"L"
306399,"881 W 100TH AVE","NORTHGLENN","CO",80260,39.8776352100001,-104.997635352,399,"881 W 100TH AVE, NORTHGLENN, CO, 80260","Match","Exact","881 W 100TH AVE, NORTHGLENN, CO, 80260",177438744,"R"
306400,"881 W ARCHERFIELD DR","MERIDIAN","ID",83646,43.64972787,-116.405462572,400,"881 W ARCHERFIELD DR, MERIDIAN, ID, 83646","Match","Exact","881 W ARCHERFIELD DR, MERIDIAN, ID, 83646",648078917,"R"
306401,"881 W BAXTER DRIVE STE 100","SOUTH JORDAN","UT",84095,40.561218522,-111.914969684,401,"881 W BAXTER DRIVE STE 100, SOUTH JORDAN, UT, 84095","Match","Exact","881 BAXTER DR, SOUTH JORDAN, UT, 84095",618147361,"R"
306402,"881 W WALNUT STREET","SAINT CHARLES","MI",48655,43.2994444880001,-84.153828133,402,"881 W WALNUT STREET, SAINT CHARLES, MI, 48655","Match","Exact","881 W WALNUT ST, SAINT CHARLES, MI, 48655",80202491,"R"
306403,"881 WEST SARAGOSA STREET","CHANDLER","AZ",85225,33.2948010630001,-111.856428448,403,"881 WEST SARAGOSA STREET, CHANDLER, AZ, 85225","Match","Exact","881 W SARAGOSA ST, CHANDLER, AZ, 85225",128782176,"L"
306404,"881 WOODLEAF PARK DR","MABLETON","GA",30126,33.8260853510001,-84.529368491,404,"881 WOODLEAF PARK DR, MABLETON, GA, 30126","Match","Exact","881 WOODLEAF PARK DR, MABLETON, GA, 30126",614169618,"R"
306405,"881","CHESTERFIELD","MO",63017,NA,NA,405,"881, CHESTERFIELD, MO, 63017","No_Match",NA,NA,NA,NA
306406,"8810 178TH STREET APT 4D","JAMAICA","NY",11432,NA,NA,406,"8810 178TH STREET APT 4D, JAMAICA, NY, 11432","No_Match",NA,NA,NA,NA
306407,"8810 E 88TH AVE LOT 1","HENDERSON","CO",80640,39.8562372480001,-104.884913576,407,"8810 E 88TH AVE LOT 1, HENDERSON, CO, 80640","Match","Non_Exact","8810 E 88TH AVE, HENDERSON, CO, 80640",638716100,"R"
306408,"8810 GREYLAG LOOP","BLACKLICK","OH",43004,40.0094027060001,-82.7760133209999,408,"8810 GREYLAG LOOP, BLACKLICK, OH, 43004","Match","Exact","8810 GREYLAG LOOP, BLACKLICK, OH, 43004",637926626,"L"
306409,"8810 JODIE LANE","AUSTIN","TX",78748,30.1829033490001,-97.817491032,409,"8810 JODIE LANE, AUSTIN, TX, 78748","Match","Exact","8810 JODIE LN, AUSTIN, TX, 78748",649138690,"L"
306410,"8810 JODIE LANE","AUSTIN","TX",78784,30.1829033490001,-97.817491032,410,"8810 JODIE LANE, AUSTIN, TX, 78784","Match","Non_Exact","8810 JODIE LN, AUSTIN, TX, 78748",649138690,"L"
306411,"8810 MANCHESTER RD APT 7","SILVER SPRING","MD",20901,38.9999231260001,-77.009796314,411,"8810 MANCHESTER RD APT 7, SILVER SPRING, MD, 20901","Match","Exact","8810 MANCHESTER RD, SILVER SPRING, MD, 20901",639106070,"L"
306412,"8810 MELISSA CT","WAXAHACHIE","TX",75167,32.4905574580001,-96.881892593,412,"8810 MELISSA CT, WAXAHACHIE, TX, 75167","Match","Exact","8810 MELISSA CT, WAXAHACHIE, TX, 75167",624548071,"L"
306413,"8810 N VIA LA SERENA","PARADISE VALLEY","AZ",85253,33.566027805,-111.96564086,413,"8810 N VIA LA SERENA, PARADISE VALLEY, AZ, 85253","Match","Exact","8810 N VIA LA SERENA, PARADISE VALLEY, AZ, 85253",128220785,"L"
306414,"8810 NE 91ST TERR","KANSAS CITY","MO",64157,39.2588517130001,-94.474481541,414,"8810 NE 91ST TERR, KANSAS CITY, MO, 64157","Match","Exact","8810 NE 91ST TER, KANSAS CITY, MO, 64157",89787304,"R"
306415,"8810 POCAHONTAS TRAIL TRLR 21","WILLIAMSBURG","VA",23185,37.214506767,-76.6196279609999,415,"8810 POCAHONTAS TRAIL TRLR 21, WILLIAMSBURG, VA, 23185","Match","Exact","8810 POCAHONTAS TRL, WILLIAMSBURG, VA, 23185",103778078,"L"
306416,"8810 RUSTLING LEAVES RD","HOUSTON","TX",77083,29.6824824010001,-95.630864679,416,"8810 RUSTLING LEAVES RD, HOUSTON, TX, 77083","Match","Non_Exact","8810 RUSTLING LEAVES DR, HOUSTON, TX, 77083",96293506,"R"
306417,"8810 SPANISH RIDGE AVENUE","LAS VEGAS","NV",89148,NA,NA,417,"8810 SPANISH RIDGE AVENUE, LAS VEGAS, NV, 89148","No_Match",NA,NA,NA,NA
306418,"8810B CHURCH LANE","RANDALLSTOWN","MD",21133,39.3675236350001,-76.7873713939999,418,"8810B CHURCH LANE, RANDALLSTOWN, MD, 21133","Match","Exact","8810 CHURCH LN, RANDALLSTOWN, MD, 21133",191466659,"R"
306419,"8811 13TH STREET","LUBBOCK","TX",79416,33.583356484,-102.010749981,419,"8811 13TH STREET, LUBBOCK, TX, 79416","Match","Exact","8811 13TH ST, LUBBOCK, TX, 79416",635040482,"R"
306420,"8811 CAMPUS DR","MOUNT PLEASANT","WI",53406,NA,NA,420,"8811 CAMPUS DR, MOUNT PLEASANT, WI, 53406","No_Match",NA,NA,NA,NA
306421,"8811 CESSNA DRIVE","NEW PORT RICHEY","FL",34654,28.285528028,-82.6339645799999,421,"8811 CESSNA DRIVE, NEW PORT RICHEY, FL, 34654","Match","Exact","8811 CESSNA DR, NEW PORT RICHEY, FL, 34654",620594855,"L"
306422,"8811 DENINGTON DRIVE","LOUISVILLE","KY",40222,38.2361062210001,-85.589939998,422,"8811 DENINGTON DRIVE, LOUISVILLE, KY, 40222","Match","Exact","8811 DENINGTON DR, LOUISVILLE, KY, 40222",96864079,"R"
306423,"8811 E HAMPDEN AVE SUITE 100","DENVER","CT",80231,NA,NA,423,"8811 E HAMPDEN AVE SUITE 100, DENVER, CT, 80231","No_Match",NA,NA,NA,NA
306424,"8811 GARVEY AVE STE 102","ROSEMEAD","CA",91770,34.0626898620001,-118.076971235,424,"8811 GARVEY AVE STE 102, ROSEMEAD, CA, 91770","Match","Exact","8811 GARVEY AVE, ROSEMEAD, CA, 91770",241241091,"L"
306425,"8811 HIGHWAY A1A","VERO BEACH","FL",32963,NA,NA,425,"8811 HIGHWAY A1A, VERO BEACH, FL, 32963","No_Match",NA,NA,NA,NA
306426,"8811 LANGFIELD CT","HOUSTON","TX",77040,29.8696599850001,-95.500647972,426,"8811 LANGFIELD CT, HOUSTON, TX, 77040","Match","Exact","8811 LANGFIELD CT, HOUSTON, TX, 77040",96556997,"R"
306427,"8811 LOTTSFORD RD SUITE 245","UPPER MARLBORO","MD",20774,38.8972683750001,-76.842619801,427,"8811 LOTTSFORD RD SUITE 245, UPPER MARLBORO, MD, 20774","Match","Exact","8811 LOTTSFORD RD, UPPER MARLBORO, MD, 20774",76382051,"R"
306428,"8811 OTTO","DETROIT","CO",48204,NA,NA,428,"8811 OTTO, DETROIT, CO, 48204","No_Match",NA,NA,NA,NA
306429,"8811 PALOMINO CT","CHARLOTTE","NC",28216,35.343364272,-80.895595053,429,"8811 PALOMINO CT, CHARLOTTE, NC, 28216","Match","Exact","8811 PALOMINO CT, CHARLOTTE, NC, 28216",70519605,"R"
306430,"8811 S YALE AVE STE 400","TULSA","OK",74137,36.0368201430001,-95.922054071,430,"8811 S YALE AVE STE 400, TULSA, OK, 74137","Match","Non_Exact","8811 S YALE AVE, TULSA, OK, 74137",640450822,"R"
306431,"8811 SIENNA SPRINGS BLVD APT 2812","MISSOURI CITY","TX",77459,29.531178477,-95.532237623,431,"8811 SIENNA SPRINGS BLVD APT 2812, MISSOURI CITY, TX, 77459","Match","Exact","8811 SIENNA SPRINGS BLVD, MISSOURI CITY, TX, 77459",637078483,"L"
306432,"8811 SUGAR STREET","CHENEY","WA",99004,47.5954168320001,-117.535957183,432,"8811 SUGAR STREET, CHENEY, WA, 99004","Match","Non_Exact","8811 W SUGAR ST, CHENEY, WA, 99004",623831123,"R"
306433,"8811 TEEL PARKWAY STE 250","FRISCO","TX",75036,NA,NA,433,"8811 TEEL PARKWAY STE 250, FRISCO, TX, 75036","No_Match",NA,NA,NA,NA
306434,"8811 TEEL PARKWAY SUITE 100-5161","FRISCO","TX",75036,NA,NA,434,"8811 TEEL PARKWAY SUITE 100-5161, FRISCO, TX, 75036","No_Match",NA,NA,NA,NA
306435,"8811 TEEL PARKWAY SUITE 100-5825","FRISCO","TX",75035,NA,NA,435,"8811 TEEL PARKWAY SUITE 100-5825, FRISCO, TX, 75035","No_Match",NA,NA,NA,NA
306436,"8811 TEEL PKWY STE 100-6015","FRISCO","TX",75035,NA,NA,436,"8811 TEEL PKWY STE 100-6015, FRISCO, TX, 75035","No_Match",NA,NA,NA,NA
306437,"8811 W HWY 252","HACKETT","AR",72937,35.105952985,-94.404442026,437,"8811 W HWY 252, HACKETT, AR, 72937","Match","Non_Exact","8811 STATE HWY 252, HACKETT, AR, 72937",634262114,"R"
306438,"8811 WEST 225 NORTH","ETNA GREEN","IN",46524,41.2638379650001,-86.0156895919999,438,"8811 WEST 225 NORTH, ETNA GREEN, IN, 46524","Match","Exact","8811 W 225 N, ETNA GREEN, IN, 46524",7935684,"L"
306439,"8811","OMAHA","NE",68114,NA,NA,439,"8811, OMAHA, NE, 68114","No_Match",NA,NA,NA,NA
306440,"8812 CASWICK CT","NOLENSVILLE","TN",37135,35.986097396,-86.673994444,440,"8812 CASWICK CT, NOLENSVILLE, TN, 37135","Match","Exact","8812 CASWICK CT, NOLENSVILLE, TN, 37135",631994196,"L"
306441,"8812 MCCARTNEY WAY  SUITE 618","CHARLOTTE","NC",28216,35.3495548240001,-80.875620215,441,"8812 MCCARTNEY WAY  SUITE 618, CHARLOTTE, NC, 28216","Match","Exact","8812 MCCARTNEY WAY, CHARLOTTE, NC, 28216",70531728,"R"
306442,"8812 MCCARTNEY WAY","CHARLOTTE","NC",28216,35.3495548240001,-80.875620215,442,"8812 MCCARTNEY WAY, CHARLOTTE, NC, 28216","Match","Exact","8812 MCCARTNEY WAY, CHARLOTTE, NC, 28216",70531728,"R"
306443,"8812 MONTGOMERY RD","CINCINNATI","OH",45236,39.215833758,-84.3585135869999,443,"8812 MONTGOMERY RD, CINCINNATI, OH, 45236","Match","Exact","8812 MONTGOMERY RD, CINCINNATI, OH, 45236",613482752,"R"
306444,"8812 MUNSON AVENUE","NIAGARA FALLS","NY",14304,43.0810548540001,-78.9615371739999,444,"8812 MUNSON AVENUE, NIAGARA FALLS, NY, 14304","Match","Exact","8812 MUNSON AVE, NIAGARA FALLS, NY, 14304",48687807,"L"
306445,"8812 SCR 1110","MIDLAND","TX",79706,NA,NA,445,"8812 SCR 1110, MIDLAND, TX, 79706","No_Match",NA,NA,NA,NA
306446,"8812 SPRING AVENUE","OCEAN SPRINGS","MS",39564,30.381031717,-88.756373932,446,"8812 SPRING AVENUE, OCEAN SPRINGS, MS, 39564","Match","Exact","8812 SPRING AVE, OCEAN SPRINGS, MS, 39564",623949959,"L"
306447,"8812 STONEHAVEN RD","RANDALLSTOWN","MD",21133,39.363595682,-76.790414128,447,"8812 STONEHAVEN RD, RANDALLSTOWN, MD, 21133","Match","Exact","8812 STONEHAVEN RD, RANDALLSTOWN, MD, 21133",191466662,"R"
306448,"8813 GRAYWOLF RIDGE TRAIL","FORT WORTH","TX",76244,32.900785118,-97.263410504,448,"8813 GRAYWOLF RIDGE TRAIL, FORT WORTH, TX, 76244","Match","Exact","8813 GRAYWOLF RIDGE TRL, FORT WORTH, TX, 76244",619870522,"L"
306449,"8813 HEISKELL ROAD","POWELL","TN",37849,36.060146692,-84.0394010319999,449,"8813 HEISKELL ROAD, POWELL, TN, 37849","Match","Exact","8813 HEISKELL RD, POWELL, TN, 37849",645245041,"L"
306450,"8813 JODY CIRCLE SOUTH","COTTAGE GROVE","MN",55016,44.823197861,-92.913010393,450,"8813 JODY CIRCLE SOUTH, COTTAGE GROVE, MN, 55016","Match","Exact","8813 JODY CIR S, COTTAGE GROVE, MN, 55016",97809530,"R"
306451,"8813 KELLER COURT","HUNTERSVILLE","NC",28078,35.4047423280001,-80.828372883,451,"8813 KELLER COURT, HUNTERSVILLE, NC, 28078","Match","Exact","8813 KELLER CT, HUNTERSVILLE, NC, 28078",648221906,"R"
306452,"8813 LAKECREST WAY","UNION CITY","GA",30291,33.6048761810001,-84.562019393,452,"8813 LAKECREST WAY, UNION CITY, GA, 30291","Match","Exact","8813 LAKECREST WAY, UNION CITY, GA, 30291",628952792,"L"
306453,"8813 LATREC AVE UNIT 101","ORLANDO","FL",32819,28.438025209,-81.478994853,453,"8813 LATREC AVE UNIT 101, ORLANDO, FL, 32819","Match","Exact","8813 LATREC AVE, ORLANDO, FL, 32819",640899992,"R"
306454,"8813 LITTLE GERONIMO STREET","SAN ANTONIO","TX",78254,29.5224928760001,-98.797232658,454,"8813 LITTLE GERONIMO STREET, SAN ANTONIO, TX, 78254","Match","Exact","8813 LITTLE GERONIMO ST, SAN ANTONIO, TX, 78254",638591493,"L"
306455,"8813 MUSTANG HILL CT","LAS VEGAS","NV",89131,NA,NA,455,"8813 MUSTANG HILL CT, LAS VEGAS, NV, 89131","No_Match",NA,NA,NA,NA
306456,"8813 RED FOX DRIVE","LAS VEGAS","NV",89123,36.029514454,-115.129680737,456,"8813 RED FOX DRIVE, LAS VEGAS, NV, 89123","Match","Exact","8813 RED FOX DR, LAS VEGAS, NV, 89123",632589624,"R"
306457,"8813 SOUTH EUCLID","CHICAGO","IL",60617,41.7348848460001,-87.5768718309999,457,"8813 SOUTH EUCLID, CHICAGO, IL, 60617","Match","Non_Exact","8813 S EUCLID AVE, CHICAGO, IL, 60617",111776074,"L"
306458,"8813 VIBURNUM AVE","CALIFORNIA CITY","CA",93505,35.1077945640001,-117.971143983,458,"8813 VIBURNUM AVE, CALIFORNIA CITY, CA, 93505","Match","Exact","8813 VIBURNUM AVE, CALIF CITY, CA, 93505",109023399,"L"
306459,"8813 VILLA LA JOLLA DRIVE-2002","LA JOLLA","CA",92037,32.866234542,-117.233387591,459,"8813 VILLA LA JOLLA DRIVE-2002, LA JOLLA, CA, 92037","Match","Non_Exact","8813 VILLA LA JOLLA DR, LA JOLLA, CA, 92037",611600313,"R"
306460,"8813 W PATTERSON ST","TAMPA","FL",33615,28.0183301330001,-82.58365858,460,"8813 W PATTERSON ST, TAMPA, FL, 33615","Match","Exact","8813 W PATTERSON ST, TAMPA, FL, 33615",104639412,"R"
306461,"8814 137TH AVE SE","NEWCASTLE","WA",98059,47.5234403200001,-122.158626608,461,"8814 137TH AVE SE, NEWCASTLE, WA, 98059","Match","Exact","8814 137 AVE SE, NEWCASTLE, WA, 98059",641004792,"L"
306462,"8814 CAROUSEL LN","HOUSTON","TX",77080,29.814917295,-95.5101840899999,462,"8814 CAROUSEL LN, HOUSTON, TX, 77080","Match","Exact","8814 CAROUSEL LN, HOUSTON, TX, 77080",647096498,"R"
306463,"8814 COMMUNITY SQUARE LANE","UPPER MARLBORO","MD",20772,NA,NA,463,"8814 COMMUNITY SQUARE LANE, UPPER MARLBORO, MD, 20772","No_Match",NA,NA,NA,NA
306464,"8814 CRESTVIEW DR","INDIANAPOLIS","IN",46240,39.9160936060001,-86.133925835,464,"8814 CRESTVIEW DR, INDIANAPOLIS, IN, 46240","Match","Exact","8814 CRESTVIEW DR, INDIANAPOLIS, IN, 46240",107983246,"L"
306465,"8814 MUSTAND DRIVE","CEDARVILLE","AR",72932,NA,NA,465,"8814 MUSTAND DRIVE, CEDARVILLE, AR, 72932","No_Match",NA,NA,NA,NA
306466,"8814 REEDY BRANCH DRIVE","JACKSONVILLE","FL",32256,30.2082912600001,-81.518924482,466,"8814 REEDY BRANCH DRIVE, JACKSONVILLE, FL, 32256","Match","Exact","8814 REEDY BRANCH DR, JACKSONVILLE, FL, 32256",83957699,"R"
306467,"8814 SW  206 LN","MIAMI","FL",33189,25.5752819260001,-80.334144535,467,"8814 SW  206 LN, MIAMI, FL, 33189","Match","Exact","8814 SW 206TH LN, MIAMI, FL, 33189",625179489,"R"
306468,"8814 TORCHWOOD DRIVE","TRINITY","FL",34655,28.180666784,-82.667352744,468,"8814 TORCHWOOD DRIVE, TRINITY, FL, 34655","Match","Exact","8814 TORCHWOOD DR, TRINITY, FL, 34655",86400724,"R"
306469,"8814 VETERANS MEMORIAL BLVD STE","METAIRIE","LA",70003,NA,NA,469,"8814 VETERANS MEMORIAL BLVD STE, METAIRIE, LA, 70003","No_Match",NA,NA,NA,NA
306470,"8814 VETERANS MEMORIAL BLVD","METAIRIE","LA",70003,NA,NA,470,"8814 VETERANS MEMORIAL BLVD, METAIRIE, LA, 70003","No_Match",NA,NA,NA,NA
306471,"8815 17TH AVE S","SEATTLE","WA",98106,47.5244443970001,-122.356440198,471,"8815 17TH AVE S, SEATTLE, WA, 98106","Match","Non_Exact","8815 17TH AVE SW, SEATTLE, WA, 98106",186591486,"R"
306472,"8815 BELLE GLEN DR","HOUSTON","TX",77099,29.680914596,-95.586809166,472,"8815 BELLE GLEN DR, HOUSTON, TX, 77099","Match","Exact","8815 BELLE GLEN DR, HOUSTON, TX, 77099",96035827,"R"
306473,"8815 BIRD FOREST DR","HOUTON","TX",77088,29.8943798600001,-95.472574654,473,"8815 BIRD FOREST DR, HOUTON, TX, 77088","Match","Non_Exact","8815 BIRD FOREST DR, HOUSTON, TX, 77088",96026749,"L"
306474,"8815 CENTRE PARK DRIVE SUITE 320","COLUMBIA","MD",21045,39.227237529,-76.8152112019999,474,"8815 CENTRE PARK DRIVE SUITE 320, COLUMBIA, MD, 21045","Match","Exact","8815 CENTRE PARK DR, COLUMBIA, MD, 21045",158948561,"R"
306475,"8815 CONROY WINDERMERE RD 365","ORLANDO","FL",32835,28.4935809350001,-81.5062512059999,475,"8815 CONROY WINDERMERE RD 365, ORLANDO, FL, 32835","Match","Exact","8815 CONROY WINDERMERE RD, ORLANDO, FL, 32835",606123323,"R"
306476,"8815 CONROY WINDERMERE RD STE 266","ORLANDO","FL",32835,28.4935809350001,-81.5062512059999,476,"8815 CONROY WINDERMERE RD STE 266, ORLANDO, FL, 32835","Match","Exact","8815 CONROY WINDERMERE RD, ORLANDO, FL, 32835",606123323,"R"
306477,"8815 CONROY WINDERMERE ROAD STE 628","ORLANDO","CA",32835,NA,NA,477,"8815 CONROY WINDERMERE ROAD STE 628, ORLANDO, CA, 32835","No_Match",NA,NA,NA,NA
306478,"8815 CONROY-WINDERMERE RD 529","GOTHA","FL",32835,28.4935809350001,-81.5062512059999,478,"8815 CONROY-WINDERMERE RD 529, GOTHA, FL, 32835","Match","Non_Exact","8815 CONROY WINDERMERE RD, ORLANDO, FL, 32835",606123323,"R"
306479,"8815 COUNTY ROAD 192","ANDERSON","TX",77830,30.5890536380001,-96.109001645,479,"8815 COUNTY ROAD 192, ANDERSON, TX, 77830","Match","Exact","8815 CO RD 192, ANDERSON, TX, 77830",653223001,"R"
306480,"8815 CROMWELL DRIVE","SPRINGFIELD","VA",22151,38.808702494,-77.2492972059999,480,"8815 CROMWELL DRIVE, SPRINGFIELD, VA, 22151","Match","Exact","8815 CROMWELL DR, SPRINGFIELD, VA, 22151",75975218,"L"
306481,"8815 EARL COURT","BETHESDA","MD",20817,39.000113148,-77.1597343989999,481,"8815 EARL COURT, BETHESDA, MD, 20817","Match","Exact","8815 EARL CT, BETHESDA, MD, 20817",62057110,"R"
306482,"8815 EAST HEATHERWOOD ROAD","ANAHEIM HILLS","CA",92808,33.8558951160001,-117.722620001,482,"8815 EAST HEATHERWOOD ROAD, ANAHEIM HILLS, CA, 92808","Match","Non_Exact","8815 E HEATHERWOOD RD, ANAHEIM, CA, 92808",144133916,"R"
306483,"8815 ELM DRAKE LANE","HUMBLE","TX",77338,30.009376941,-95.2898825939999,483,"8815 ELM DRAKE LANE, HUMBLE, TX, 77338","Match","Exact","8815 ELM DRAKE LN, HUMBLE, TX, 77338",631801167,"L"
306484,"8815 JENNY LANE","FREDERICKSBURG","VA",22407,38.20282014,-77.519453775,484,"8815 JENNY LANE, FREDERICKSBURG, VA, 22407","Match","Exact","8815 JENNY LN, FREDERICKSBURG, VA, 22407",85022791,"L"
306485,"8815 LEESHIRE LANE","RALEIGH","NC",27615,35.9008541800001,-78.671468039,485,"8815 LEESHIRE LANE, RALEIGH, NC, 27615","Match","Exact","8815 LEESHIRE LN, RALEIGH, NC, 27615",208345836,"L"
306486,"8815 MUSIC STREET","RUSSELL","OH",44072,41.4452290420001,-81.327643978,486,"8815 MUSIC STREET, RUSSELL, OH, 44072","Match","Exact","8815 MUSIC ST, RUSSELL, OH, 44072",137440143,"R"
306487,"8815 PINE KNOB RD","CLARKSTON","MI",48348,42.76776826,-83.371176239,487,"8815 PINE KNOB RD, CLARKSTON, MI, 48348","Match","Exact","8815 PINE KNOB RD, CLARKSTON, MI, 48348",69693267,"R"
306488,"8815 S EAST END AVE","CHICAGO","IL",60617,41.73478005,-87.582820458,488,"8815 S EAST END AVE, CHICAGO, IL, 60617","Match","Exact","8815 S EAST END AVE, CHICAGO, IL, 60617",111775410,"L"
306489,"8815 UNIVERSITY EAST DRIVE STE 210","CHARLOTTE","NC",28213,35.2860096950001,-80.728405043,489,"8815 UNIVERSITY EAST DRIVE STE 210, CHARLOTTE, NC, 28213","Match","Exact","8815 UNIVERSITY EAST DR, CHARLOTTE, NC, 28213",642242609,"R"
306490,"8816 26TH AVE NW","SEATTLE","WA",98117,47.692981698,-122.390239164,490,"8816 26TH AVE NW, SEATTLE, WA, 98117","Match","Exact","8816 26TH AVE NW, SEATTLE, WA, 98117",186714596,"R"
306491,"8816 26TH AVENUE","BROOKLYN","NY",11214,40.592276574,-73.9894967559999,491,"8816 26TH AVENUE, BROOKLYN, NY, 11214","Match","Exact","8816 26TH AVE, BROOKLYN, NY, 11214",59088967,"R"
306492,"8816 ACADIA DRIVE","EAGLE RIVER","AK",99577,61.2999381440001,-149.568151575,492,"8816 ACADIA DRIVE, EAGLE RIVER, AK, 99577","Match","Exact","8816 ACADIA DR, EAGLE RIVER, AK, 99577",605336267,"L"
306493,"8816 BRENNAN CIR 201","TAMPA","FL",33615,28.009118346,-82.586879588,493,"8816 BRENNAN CIR 201, TAMPA, FL, 33615","Match","Exact","8816 BRENNAN CIR, TAMPA, FL, 33615",104579164,"L"
306494,"8816 FOOTHILL BLVD STE 103-273","RANCHO CUCAMONGA","CA",91730,34.1067989090001,-117.612493263,494,"8816 FOOTHILL BLVD STE 103-273, RANCHO CUCAMONGA, CA, 91730","Match","Exact","8816 FOOTHILL BLVD, RANCHO CUCAMONGA, CA, 91730",636195926,"R"
306495,"8816 FOOTHILL BLVD SUITE 103-195","RANCHO CUCAMONGA","CA",91730,34.1067989090001,-117.612493263,495,"8816 FOOTHILL BLVD SUITE 103-195, RANCHO CUCAMONGA, CA, 91730","Match","Exact","8816 FOOTHILL BLVD, RANCHO CUCAMONGA, CA, 91730",636195926,"R"
306496,"8816 FOOTHILL BLVD/ SUITE 103-195","RANCHO CUCAMONGA","CA",91730,34.1067989090001,-117.612493263,496,"8816 FOOTHILL BLVD/ SUITE 103-195, RANCHO CUCAMONGA, CA, 91730","Match","Non_Exact","8816 FOOTHILL BLVD, RANCHO CUCAMONGA, CA, 91730",636195926,"R"
306497,"8816 LAKECREST WAY","UNION CITY","GA",30291,NA,NA,497,"8816 LAKECREST WAY, UNION CITY, GA, 30291","No_Match",NA,NA,NA,NA
306498,"8816 MANCHESTER ROAD BOX 318","ST LOUIS","MO",63144,38.612563445,-90.3496874909999,498,"8816 MANCHESTER ROAD BOX 318, ST LOUIS, MO, 63144","Match","Exact","8816 MANCHESTER RD, SAINT LOUIS, MO, 63144",100135340,"L"
306499,"8816 NESBIT AVE APT 101","SEATTLE","WA",98103,47.6926368970001,-122.343460563,499,"8816 NESBIT AVE APT 101, SEATTLE, WA, 98103","Match","Non_Exact","8816 NESBIT AVE N, SEATTLE, WA, 98103",186579826,"R"
306500,"8816 OLD GREENSBORO ROAD APT 9204","TUSCALOOSA","AL",35405,NA,NA,500,"8816 OLD GREENSBORO ROAD APT 9204, TUSCALOOSA, AL, 35405","No_Match",NA,NA,NA,NA
