"ID","Address","City","State","Zip","lat","long","id","input_address","match_indicator","match_type","matched_address","tiger_line_id","tiger_side"
328501,"P O BOX 832","ROBBINSVILLE","NC",28771,NA,NA,1,"P O BOX 832, ROBBINSVILLE, NC, 28771","No_Match",NA,NA,NA,NA
328502,"P O BOX 833","BRUCE","MS",38915,NA,NA,2,"P O BOX 833, BRUCE, MS, 38915","No_Match",NA,NA,NA,NA
328503,"P O BOX 833","POINTE AUX PINS","MI",49775,NA,NA,3,"P O BOX 833, POINTE AUX PINS, MI, 49775","No_Match",NA,NA,NA,NA
328504,"P O BOX 834","NICOMA PARK","OK",73066,NA,NA,4,"P O BOX 834, NICOMA PARK, OK, 73066","No_Match",NA,NA,NA,NA
328505,"P O BOX 835 359 LOUISANA STREET","STURGEON BAY","WI",54235,44.8353897710001,-87.3763754779999,5,"P O BOX 835 359 LOUISANA STREET, STURGEON BAY, WI, 54235","Match","Non_Exact","359 LOUISIANA ST, STURGEON BAY, WI, 54235",167249150,"R"
328506,"P O BOX 835","BARBOURSVILLE","WV",25504,NA,NA,6,"P O BOX 835, BARBOURSVILLE, WV, 25504","No_Match",NA,NA,NA,NA
328507,"P O BOX 835","FALFURRIAS","TX",78355,NA,NA,7,"P O BOX 835, FALFURRIAS, TX, 78355","No_Match",NA,NA,NA,NA
328508,"P O BOX 835","FORESTVILLE","CA",95436,NA,NA,8,"P O BOX 835, FORESTVILLE, CA, 95436","No_Match",NA,NA,NA,NA
328509,"P O BOX 8354","MORENO VALLEY","CA",92552,NA,NA,9,"P O BOX 8354, MORENO VALLEY, CA, 92552","No_Match",NA,NA,NA,NA
328510,"P O BOX 8359","EASTPOINTW","MI",48021,NA,NA,10,"P O BOX 8359, EASTPOINTW, MI, 48021","No_Match",NA,NA,NA,NA
328511,"P O BOX 836","CORDOVA","TN",38088,NA,NA,11,"P O BOX 836, CORDOVA, TN, 38088","No_Match",NA,NA,NA,NA
328512,"P O BOX 838","OAKHURST","CA",93644,NA,NA,12,"P O BOX 838, OAKHURST, CA, 93644","No_Match",NA,NA,NA,NA
328513,"P O BOX 8385","NEW BEDFORD","MA",2742,NA,NA,13,"P O BOX 8385, NEW BEDFORD, MA, 2742","No_Match",NA,NA,NA,NA
328514,"P O BOX 839","OAKRIDGE","OR",97463,NA,NA,14,"P O BOX 839, OAKRIDGE, OR, 97463","No_Match",NA,NA,NA,NA
328515,"P O BOX 8390","ALEXANDRIA","VA",22306,NA,NA,15,"P O BOX 8390, ALEXANDRIA, VA, 22306","No_Match",NA,NA,NA,NA
328516,"P O BOX 84","FAIRFIELD","TX",75840,NA,NA,16,"P O BOX 84, FAIRFIELD, TX, 75840","No_Match",NA,NA,NA,NA
328517,"P O BOX 84","HODGENVILLE","KY",42748,NA,NA,17,"P O BOX 84, HODGENVILLE, KY, 42748","No_Match",NA,NA,NA,NA
328518,"P O BOX 84","LEMOYNE","PA",17043,NA,NA,18,"P O BOX 84, LEMOYNE, PA, 17043","No_Match",NA,NA,NA,NA
328519,"P O BOX 84","MILLBURY","MA",1527,NA,NA,19,"P O BOX 84, MILLBURY, MA, 1527","No_Match",NA,NA,NA,NA
328520,"P O BOX 84","POCOLA","OK",74902,NA,NA,20,"P O BOX 84, POCOLA, OK, 74902","No_Match",NA,NA,NA,NA
328521,"P O BOX 8401","TUCSON","AZ",85738,NA,NA,21,"P O BOX 8401, TUCSON, AZ, 85738","No_Match",NA,NA,NA,NA
328522,"P O BOX 841","BELTSVILLE","MD",20704,NA,NA,22,"P O BOX 841, BELTSVILLE, MD, 20704","No_Match",NA,NA,NA,NA
328523,"P O BOX 841","BOAZ","AL",35957,NA,NA,23,"P O BOX 841, BOAZ, AL, 35957","No_Match",NA,NA,NA,NA
328524,"P O BOX 841356","PEARLAND","TX",77584,NA,NA,24,"P O BOX 841356, PEARLAND, TX, 77584","No_Match",NA,NA,NA,NA
328525,"P O BOX 841395","PEARLAND","TX",77584,NA,NA,25,"P O BOX 841395, PEARLAND, TX, 77584","No_Match",NA,NA,NA,NA
328526,"P O BOX 841401","PEMBROKE PINES","FL",33084,NA,NA,26,"P O BOX 841401, PEMBROKE PINES, FL, 33084","No_Match",NA,NA,NA,NA
328527,"P O BOX 841971","PEARLAND","TX",77584,NA,NA,27,"P O BOX 841971, PEARLAND, TX, 77584","No_Match",NA,NA,NA,NA
328528,"P O BOX 842","EAST LIVERPOOL","OH",43920,NA,NA,28,"P O BOX 842, EAST LIVERPOOL, OH, 43920","No_Match",NA,NA,NA,NA
328529,"P O BOX 842","LANCASTER","TX",75146,NA,NA,29,"P O BOX 842, LANCASTER, TX, 75146","No_Match",NA,NA,NA,NA
328530,"P O BOX 842","SEVERNA PARK","MD",21146,NA,NA,30,"P O BOX 842, SEVERNA PARK, MD, 21146","No_Match",NA,NA,NA,NA
328531,"P O BOX 842049","HOUSTON","TX",77284,NA,NA,31,"P O BOX 842049, HOUSTON, TX, 77284","No_Match",NA,NA,NA,NA
328532,"P O BOX 84294","PEARLAND","TX",77584,NA,NA,32,"P O BOX 84294, PEARLAND, TX, 77584","No_Match",NA,NA,NA,NA
328533,"P O BOX 843","BIRMINGHAM","AL",35201,NA,NA,33,"P O BOX 843, BIRMINGHAM, AL, 35201","No_Match",NA,NA,NA,NA
328534,"P O BOX 843","DANA POINT","CA",92629,NA,NA,34,"P O BOX 843, DANA POINT, CA, 92629","No_Match",NA,NA,NA,NA
328535,"P O BOX 843","FARMINGTON","NM",87499,NA,NA,35,"P O BOX 843, FARMINGTON, NM, 87499","No_Match",NA,NA,NA,NA
328536,"P O BOX 84301","PEARLAND","TX",77584,NA,NA,36,"P O BOX 84301, PEARLAND, TX, 77584","No_Match",NA,NA,NA,NA
328537,"P O BOX 8431","SHREVEPORT","LA",71148,NA,NA,37,"P O BOX 8431, SHREVEPORT, LA, 71148","No_Match",NA,NA,NA,NA
328538,"P O BOX 8434","HOUSTON","TX",77288,NA,NA,38,"P O BOX 8434, HOUSTON, TX, 77288","No_Match",NA,NA,NA,NA
328539,"P O BOX 844 16 HUDSON AVE","GLENS FALLS","NY",12801,43.3056741510001,-73.651346269,39,"P O BOX 844 16 HUDSON AVE, GLENS FALLS, NY, 12801","Match","Exact","16 HUDSON AVE, GLENS FALLS, NY, 12801",618934253,"L"
328540,"P O BOX 844","WAIANAE","HI",96792,NA,NA,40,"P O BOX 844, WAIANAE, HI, 96792","No_Match",NA,NA,NA,NA
328541,"P O BOX 8440","FRESNO","CA",93747,NA,NA,41,"P O BOX 8440, FRESNO, CA, 93747","No_Match",NA,NA,NA,NA
328542,"P O BOX 845","EVANS","GA",30809,NA,NA,42,"P O BOX 845, EVANS, GA, 30809","No_Match",NA,NA,NA,NA
328543,"P O BOX 845","HAMILTON","TX",76531,NA,NA,43,"P O BOX 845, HAMILTON, TX, 76531","No_Match",NA,NA,NA,NA
328544,"P O BOX 8454","WEST MEMPHIS","AR",72303,NA,NA,44,"P O BOX 8454, WEST MEMPHIS, AR, 72303","No_Match",NA,NA,NA,NA
328545,"P O BOX 84572","SAN DIEGO","CA",92188,NA,NA,45,"P O BOX 84572, SAN DIEGO, CA, 92188","No_Match",NA,NA,NA,NA
328546,"P O BOX 8470","WACO","TX",76714,NA,NA,46,"P O BOX 8470, WACO, TX, 76714","No_Match",NA,NA,NA,NA
328547,"P O BOX 8484","BANGOR","ME",4402,NA,NA,47,"P O BOX 8484, BANGOR, ME, 4402","No_Match",NA,NA,NA,NA
328548,"P O BOX 849","DECATUR","AL",35602,NA,NA,48,"P O BOX 849, DECATUR, AL, 35602","No_Match",NA,NA,NA,NA
328549,"P O BOX 85","BELMAR","NJ",7719,NA,NA,49,"P O BOX 85, BELMAR, NJ, 7719","No_Match",NA,NA,NA,NA
328550,"P O BOX 85","CADIZ","KY",42211,NA,NA,50,"P O BOX 85, CADIZ, KY, 42211","No_Match",NA,NA,NA,NA
328551,"P O BOX 85","HEATH SPRINGS","SC",29058,NA,NA,51,"P O BOX 85, HEATH SPRINGS, SC, 29058","No_Match",NA,NA,NA,NA
328552,"P O BOX 85","MISSION","TX",78572,NA,NA,52,"P O BOX 85, MISSION, TX, 78572","No_Match",NA,NA,NA,NA
328553,"P O BOX 85","REDFIELD","IA",50233,NA,NA,53,"P O BOX 85, REDFIELD, IA, 50233","No_Match",NA,NA,NA,NA
328554,"P O BOX 85","SPURGER","TX",77660,NA,NA,54,"P O BOX 85, SPURGER, TX, 77660","No_Match",NA,NA,NA,NA
328555,"P O BOX 85","WATERTOWN","TN",37184,NA,NA,55,"P O BOX 85, WATERTOWN, TN, 37184","No_Match",NA,NA,NA,NA
328556,"P O BOX 850323","MESQUITE","TX",75185,NA,NA,56,"P O BOX 850323, MESQUITE, TX, 75185","No_Match",NA,NA,NA,NA
328557,"P O BOX 851182","YUKON","OK",73085,NA,NA,57,"P O BOX 851182, YUKON, OK, 73085","No_Match",NA,NA,NA,NA
328558,"P O BOX 8524","HUNTSVILLE","AL",35808,NA,NA,58,"P O BOX 8524, HUNTSVILLE, AL, 35808","No_Match",NA,NA,NA,NA
328559,"P O BOX 8525","MICHIGAN CITY","IN",46361,NA,NA,59,"P O BOX 8525, MICHIGAN CITY, IN, 46361","No_Match",NA,NA,NA,NA
328560,"P O BOX 853","BREWTON","AL",36427,NA,NA,60,"P O BOX 853, BREWTON, AL, 36427","No_Match",NA,NA,NA,NA
328561,"P O BOX 854","HINTON","OK",73047,NA,NA,61,"P O BOX 854, HINTON, OK, 73047","No_Match",NA,NA,NA,NA
328562,"P O BOX 854","LOUISVILLE","MS",39339,NA,NA,62,"P O BOX 854, LOUISVILLE, MS, 39339","No_Match",NA,NA,NA,NA
328563,"P O BOX 8544","SOUTH CHARLESTON","WV",25303,NA,NA,63,"P O BOX 8544, SOUTH CHARLESTON, WV, 25303","No_Match",NA,NA,NA,NA
328564,"P O BOX 85472","SEATTLE","WA",98145,NA,NA,64,"P O BOX 85472, SEATTLE, WA, 98145","No_Match",NA,NA,NA,NA
328565,"P O BOX 85482","BATON ROUGE","LA",70884,NA,NA,65,"P O BOX 85482, BATON ROUGE, LA, 70884","No_Match",NA,NA,NA,NA
328566,"P O BOX 855","CULLMAN","AL",35056,NA,NA,66,"P O BOX 855, CULLMAN, AL, 35056","No_Match",NA,NA,NA,NA
328567,"P O BOX 8558","SPRINGDALE","AR",72766,NA,NA,67,"P O BOX 8558, SPRINGDALE, AR, 72766","No_Match",NA,NA,NA,NA
328568,"P O BOX 856","SANTA MARGARITA","CA",93453,NA,NA,68,"P O BOX 856, SANTA MARGARITA, CA, 93453","No_Match",NA,NA,NA,NA
328569,"P O BOX 857","WELLS","TX",75976,NA,NA,69,"P O BOX 857, WELLS, TX, 75976","No_Match",NA,NA,NA,NA
328570,"P O BOX 857","YONKERS","NY",10703,NA,NA,70,"P O BOX 857, YONKERS, NY, 10703","No_Match",NA,NA,NA,NA
328571,"P O BOX 86","INDUSTRY","TX",78944,NA,NA,71,"P O BOX 86, INDUSTRY, TX, 78944","No_Match",NA,NA,NA,NA
328572,"P O BOX 86","MOUNT VERNON","NY",10552,NA,NA,72,"P O BOX 86, MOUNT VERNON, NY, 10552","No_Match",NA,NA,NA,NA
328573,"P O BOX 860","WINNSBORO","TX",75494,NA,NA,73,"P O BOX 860, WINNSBORO, TX, 75494","No_Match",NA,NA,NA,NA
328574,"P O BOX 860013","PLANO","TX",75086,NA,NA,74,"P O BOX 860013, PLANO, TX, 75086","No_Match",NA,NA,NA,NA
328575,"P O BOX 860563","SHAWNEE","KS",66286,NA,NA,75,"P O BOX 860563, SHAWNEE, KS, 66286","No_Match",NA,NA,NA,NA
328576,"P O BOX 861","SNELLVILLE","GA",30078,NA,NA,76,"P O BOX 861, SNELLVILLE, GA, 30078","No_Match",NA,NA,NA,NA
328577,"P O BOX 861","VAN VLECK","TX",77482,NA,NA,77,"P O BOX 861, VAN VLECK, TX, 77482","No_Match",NA,NA,NA,NA
328578,"P O BOX 861544","LOS ANGELES","CA",90086,NA,NA,78,"P O BOX 861544, LOS ANGELES, CA, 90086","No_Match",NA,NA,NA,NA
328579,"P O BOX 862","BRISTOW","OK",74010,NA,NA,79,"P O BOX 862, BRISTOW, OK, 74010","No_Match",NA,NA,NA,NA
328580,"P O BOX 862","CAMDEN","SC",29021,NA,NA,80,"P O BOX 862, CAMDEN, SC, 29021","No_Match",NA,NA,NA,NA
328581,"P O BOX 862","DESTIN","FL",32540,NA,NA,81,"P O BOX 862, DESTIN, FL, 32540","No_Match",NA,NA,NA,NA
328582,"P O BOX 862","GRIFFIN","GA",30224,NA,NA,82,"P O BOX 862, GRIFFIN, GA, 30224","No_Match",NA,NA,NA,NA
328583,"P O BOX 863","RED BLUFF","CA",96080,NA,NA,83,"P O BOX 863, RED BLUFF, CA, 96080","No_Match",NA,NA,NA,NA
328584,"P O BOX 8632","ROUND ROCK","TX",78683,NA,NA,84,"P O BOX 8632, ROUND ROCK, TX, 78683","No_Match",NA,NA,NA,NA
328585,"P O BOX 864","BELINGTON","WV",26250,NA,NA,85,"P O BOX 864, BELINGTON, WV, 26250","No_Match",NA,NA,NA,NA
328586,"P O BOX 86422","TUCSON","AZ",85754,NA,NA,86,"P O BOX 86422, TUCSON, AZ, 85754","No_Match",NA,NA,NA,NA
328587,"P O BOX 866","LYONS","GA",30436,NA,NA,87,"P O BOX 866, LYONS, GA, 30436","No_Match",NA,NA,NA,NA
328588,"P O BOX 866","WHITE HOUSE","TN",37188,NA,NA,88,"P O BOX 866, WHITE HOUSE, TN, 37188","No_Match",NA,NA,NA,NA
328589,"P O BOX 867","JEFFERSON CITY","MO",65101,NA,NA,89,"P O BOX 867, JEFFERSON CITY, MO, 65101","No_Match",NA,NA,NA,NA
328590,"P O BOX 8673","WAUKEGAN","IL",60079,NA,NA,90,"P O BOX 8673, WAUKEGAN, IL, 60079","No_Match",NA,NA,NA,NA
328591,"P O BOX 868","KENANSVILLE","NC",28349,NA,NA,91,"P O BOX 868, KENANSVILLE, NC, 28349","No_Match",NA,NA,NA,NA
328592,"P O BOX 86975","LOS ANGELES","CA",90086,NA,NA,92,"P O BOX 86975, LOS ANGELES, CA, 90086","No_Match",NA,NA,NA,NA
328593,"P O BOX 87","BELLEFONTE","PA",16823,NA,NA,93,"P O BOX 87, BELLEFONTE, PA, 16823","No_Match",NA,NA,NA,NA
328594,"P O BOX 87","GLENWOOD","IL",60425,NA,NA,94,"P O BOX 87, GLENWOOD, IL, 60425","No_Match",NA,NA,NA,NA
328595,"P O BOX 87","HEIDELBERG","MS",39439,NA,NA,95,"P O BOX 87, HEIDELBERG, MS, 39439","No_Match",NA,NA,NA,NA
328596,"P O BOX 87","JOSHUA","TX",76058,NA,NA,96,"P O BOX 87, JOSHUA, TX, 76058","No_Match",NA,NA,NA,NA
328597,"P O BOX 8701","NAPLES","FL",34104,NA,NA,97,"P O BOX 8701, NAPLES, FL, 34104","No_Match",NA,NA,NA,NA
328598,"P O BOX 870221","NEW ORLEANS","LA",70187,NA,NA,98,"P O BOX 870221, NEW ORLEANS, LA, 70187","No_Match",NA,NA,NA,NA
328599,"P O BOX 871","BRINKLEY","AR",72021,NA,NA,99,"P O BOX 871, BRINKLEY, AR, 72021","No_Match",NA,NA,NA,NA
328600,"P O BOX 871","HUMBLE","TX",77347,NA,NA,100,"P O BOX 871, HUMBLE, TX, 77347","No_Match",NA,NA,NA,NA
328601,"P O BOX 871","LIZELLA","GA",31052,NA,NA,101,"P O BOX 871, LIZELLA, GA, 31052","No_Match",NA,NA,NA,NA
328602,"P O BOX 8713","GRAND RAPIDS","MI",49518,NA,NA,102,"P O BOX 8713, GRAND RAPIDS, MI, 49518","No_Match",NA,NA,NA,NA
328603,"P O BOX 871348","STONE MOUNTAIN","GA",30087,NA,NA,103,"P O BOX 871348, STONE MOUNTAIN, GA, 30087","No_Match",NA,NA,NA,NA
328604,"P O BOX 871613","CANTON","MI",48187,NA,NA,104,"P O BOX 871613, CANTON, MI, 48187","No_Match",NA,NA,NA,NA
328605,"P O BOX 871852","NEW ORLEANS","LA",70187,NA,NA,105,"P O BOX 871852, NEW ORLEANS, LA, 70187","No_Match",NA,NA,NA,NA
328606,"P O BOX 871881","VANCOUVER","WA",98687,NA,NA,106,"P O BOX 871881, VANCOUVER, WA, 98687","No_Match",NA,NA,NA,NA
328607,"P O BOX 872","GRAY","LA",70359,NA,NA,107,"P O BOX 872, GRAY, LA, 70359","No_Match",NA,NA,NA,NA
328608,"P O BOX 87353","CAROL STREAM","IL",60188,NA,NA,108,"P O BOX 87353, CAROL STREAM, IL, 60188","No_Match",NA,NA,NA,NA
328609,"P O BOX 8737","LUMBERTON","TX",77657,NA,NA,109,"P O BOX 8737, LUMBERTON, TX, 77657","No_Match",NA,NA,NA,NA
328610,"P O BOX 874","TEMPLE","GA",30179,NA,NA,110,"P O BOX 874, TEMPLE, GA, 30179","No_Match",NA,NA,NA,NA
328611,"P O BOX 87550","CHICAGO","IL",60680,NA,NA,111,"P O BOX 87550, CHICAGO, IL, 60680","No_Match",NA,NA,NA,NA
328612,"P O BOX 876","NAMPA","ID",83651,NA,NA,112,"P O BOX 876, NAMPA, ID, 83651","No_Match",NA,NA,NA,NA
328613,"P O BOX 8763","METAIRIE","LA",70011,NA,NA,113,"P O BOX 8763, METAIRIE, LA, 70011","No_Match",NA,NA,NA,NA
328614,"P O BOX 877","MORRISVILLE","NC",27560,NA,NA,114,"P O BOX 877, MORRISVILLE, NC, 27560","No_Match",NA,NA,NA,NA
328615,"P O BOX 8779","FLEMING ISLAND","FL",32006,NA,NA,115,"P O BOX 8779, FLEMING ISLAND, FL, 32006","No_Match",NA,NA,NA,NA
328616,"P O BOX 878","HAMMOND","LA",70401,NA,NA,116,"P O BOX 878, HAMMOND, LA, 70401","No_Match",NA,NA,NA,NA
328617,"P O BOX 878","VAN VLECK","TX",77482,NA,NA,117,"P O BOX 878, VAN VLECK, TX, 77482","No_Match",NA,NA,NA,NA
328618,"P O BOX 879","OLIVE HILL","KY",41164,NA,NA,118,"P O BOX 879, OLIVE HILL, KY, 41164","No_Match",NA,NA,NA,NA
328619,"P O BOX 88","FORT DAVIS","AL",36031,NA,NA,119,"P O BOX 88, FORT DAVIS, AL, 36031","No_Match",NA,NA,NA,NA
328620,"P O BOX 88","LANGLEY","SC",29834,NA,NA,120,"P O BOX 88, LANGLEY, SC, 29834","No_Match",NA,NA,NA,NA
328621,"P O BOX 88","PORT JEFF STATION","NY",11776,NA,NA,121,"P O BOX 88, PORT JEFF STATION, NY, 11776","No_Match",NA,NA,NA,NA
328622,"P O BOX 88","SANDY","OR",97055,NA,NA,122,"P O BOX 88, SANDY, OR, 97055","No_Match",NA,NA,NA,NA
328623,"P O BOX 880251","PORT SAINT LUCIE","FL",34988,NA,NA,123,"P O BOX 880251, PORT SAINT LUCIE, FL, 34988","No_Match",NA,NA,NA,NA
328624,"P O BOX 881","GOLDSBORO","NC",27533,NA,NA,124,"P O BOX 881, GOLDSBORO, NC, 27533","No_Match",NA,NA,NA,NA
328625,"P O BOX 881","SMYRNA","TN",37167,NA,NA,125,"P O BOX 881, SMYRNA, TN, 37167","No_Match",NA,NA,NA,NA
328626,"P O BOX 882","MOORESVILLE","NC",28115,NA,NA,126,"P O BOX 882, MOORESVILLE, NC, 28115","No_Match",NA,NA,NA,NA
328627,"P O BOX 883","ATLANTA","GA",30101,NA,NA,127,"P O BOX 883, ATLANTA, GA, 30101","No_Match",NA,NA,NA,NA
328628,"P O BOX 883","HOCKESSIN","DE",19707,NA,NA,128,"P O BOX 883, HOCKESSIN, DE, 19707","No_Match",NA,NA,NA,NA
328629,"P O BOX 883","JENKS","OK",74037,NA,NA,129,"P O BOX 883, JENKS, OK, 74037","No_Match",NA,NA,NA,NA
328630,"P O BOX 884","MILFORD","MA",1757,NA,NA,130,"P O BOX 884, MILFORD, MA, 1757","No_Match",NA,NA,NA,NA
328631,"P O BOX 885","ROSENBERG","TX",77471,NA,NA,131,"P O BOX 885, ROSENBERG, TX, 77471","No_Match",NA,NA,NA,NA
328632,"P O BOX 88701","TUKWILA","WA",98188,NA,NA,132,"P O BOX 88701, TUKWILA, WA, 98188","No_Match",NA,NA,NA,NA
328633,"P O BOX 888442","DUNWOODY","GA",30356,NA,NA,133,"P O BOX 888442, DUNWOODY, GA, 30356","No_Match",NA,NA,NA,NA
328634,"P O BOX 8885","SPRING","TX",77387,NA,NA,134,"P O BOX 8885, SPRING, TX, 77387","No_Match",NA,NA,NA,NA
328635,"P O BOX 889","SUWANEE","GA",30024,NA,NA,135,"P O BOX 889, SUWANEE, GA, 30024","No_Match",NA,NA,NA,NA
328636,"P O BOX 891","ORLANDO","FL",32802,NA,NA,136,"P O BOX 891, ORLANDO, FL, 32802","No_Match",NA,NA,NA,NA
328637,"P O BOX 892","ALBANY","LA",70711,NA,NA,137,"P O BOX 892, ALBANY, LA, 70711","No_Match",NA,NA,NA,NA
328638,"P O BOX 892","RIVERDALE","MD",20738,NA,NA,138,"P O BOX 892, RIVERDALE, MD, 20738","No_Match",NA,NA,NA,NA
328639,"P O BOX 893010","TEMECULA","CA",92589,NA,NA,139,"P O BOX 893010, TEMECULA, CA, 92589","No_Match",NA,NA,NA,NA
328640,"P O BOX 894055","MILILANI","HI",96789,NA,NA,140,"P O BOX 894055, MILILANI, HI, 96789","No_Match",NA,NA,NA,NA
328641,"P O BOX 89833","GREEN BAY","WI",54308,NA,NA,141,"P O BOX 89833, GREEN BAY, WI, 54308","No_Match",NA,NA,NA,NA
328642,"P O BOX 9","BLACKSHEAR","GA",31516,NA,NA,142,"P O BOX 9, BLACKSHEAR, GA, 31516","No_Match",NA,NA,NA,NA
328643,"P O BOX 9","DEXTER","ME",4930,NA,NA,143,"P O BOX 9, DEXTER, ME, 4930","No_Match",NA,NA,NA,NA
328644,"P O BOX 9","HAMPDEN","ME",4444,NA,NA,144,"P O BOX 9, HAMPDEN, ME, 4444","No_Match",NA,NA,NA,NA
328645,"P O BOX 9","SNOW SHOE","PA",16874,NA,NA,145,"P O BOX 9, SNOW SHOE, PA, 16874","No_Match",NA,NA,NA,NA
328646,"P O BOX 90","CLIFTON PARK","NY",12065,NA,NA,146,"P O BOX 90, CLIFTON PARK, NY, 12065","No_Match",NA,NA,NA,NA
328647,"P O BOX 90","GRANT-VALKARIA","FL",32949,NA,NA,147,"P O BOX 90, GRANT-VALKARIA, FL, 32949","No_Match",NA,NA,NA,NA
328648,"P O BOX 90","HAWTHORNE","NJ",7507,NA,NA,148,"P O BOX 90, HAWTHORNE, NJ, 7507","No_Match",NA,NA,NA,NA
328649,"P O BOX 90","SALE CREEK","TN",37373,NA,NA,149,"P O BOX 90, SALE CREEK, TN, 37373","No_Match",NA,NA,NA,NA
328650,"P O BOX 900","KANNAPOLIS","NC",28083,NA,NA,150,"P O BOX 900, KANNAPOLIS, NC, 28083","No_Match",NA,NA,NA,NA
328651,"P O BOX 900","THREE RIVERS","CA",93271,NA,NA,151,"P O BOX 900, THREE RIVERS, CA, 93271","No_Match",NA,NA,NA,NA
328652,"P O BOX 901","HALLETTSVILLE","TX",77964,NA,NA,152,"P O BOX 901, HALLETTSVILLE, TX, 77964","No_Match",NA,NA,NA,NA
328653,"P O BOX 901","LOS GATOS","CA",95031,NA,NA,153,"P O BOX 901, LOS GATOS, CA, 95031","No_Match",NA,NA,NA,NA
328654,"P O BOX 901","ZEBULON","GA",30295,NA,NA,154,"P O BOX 901, ZEBULON, GA, 30295","No_Match",NA,NA,NA,NA
328655,"P O BOX 901055","MEMPHIS","TN",38190,NA,NA,155,"P O BOX 901055, MEMPHIS, TN, 38190","No_Match",NA,NA,NA,NA
328656,"P O BOX 90129","SIOUX FALLS","SD",57109,NA,NA,156,"P O BOX 90129, SIOUX FALLS, SD, 57109","No_Match",NA,NA,NA,NA
328657,"P O BOX 90176","SAN BERNARDINO","CA",92427,NA,NA,157,"P O BOX 90176, SAN BERNARDINO, CA, 92427","No_Match",NA,NA,NA,NA
328658,"P O BOX 902","DEERFIELD BEACH","FL",33443,NA,NA,158,"P O BOX 902, DEERFIELD BEACH, FL, 33443","No_Match",NA,NA,NA,NA
328659,"P O BOX 902","SPARTA","TN",38583,NA,NA,159,"P O BOX 902, SPARTA, TN, 38583","No_Match",NA,NA,NA,NA
328660,"P O BOX 9021","MONTGOMERY","AL",36108,NA,NA,160,"P O BOX 9021, MONTGOMERY, AL, 36108","No_Match",NA,NA,NA,NA
328661,"P O BOX 902198","HOMESTEAD","FL",33030,NA,NA,161,"P O BOX 902198, HOMESTEAD, FL, 33030","No_Match",NA,NA,NA,NA
328662,"P O BOX 90257","WASHINGTON","DC",20090,NA,NA,162,"P O BOX 90257, WASHINGTON, DC, 20090","No_Match",NA,NA,NA,NA
328663,"P O BOX 9027","PENSACOLA","FL",32513,NA,NA,163,"P O BOX 9027, PENSACOLA, FL, 32513","No_Match",NA,NA,NA,NA
328664,"P O BOX 90281","SAN ANTONIO","TX",78209,NA,NA,164,"P O BOX 90281, SAN ANTONIO, TX, 78209","No_Match",NA,NA,NA,NA
328665,"P O BOX 90292","TUCSON","AZ",85752,NA,NA,165,"P O BOX 90292, TUCSON, AZ, 85752","No_Match",NA,NA,NA,NA
328666,"P O BOX 903","NORTH LIBERTY","IN",46554,NA,NA,166,"P O BOX 903, NORTH LIBERTY, IN, 46554","No_Match",NA,NA,NA,NA
328667,"P O BOX 9036","TEMECULA","CA",92589,NA,NA,167,"P O BOX 9036, TEMECULA, CA, 92589","No_Match",NA,NA,NA,NA
328668,"P O BOX 904","SEAHURST","WA",98062,NA,NA,168,"P O BOX 904, SEAHURST, WA, 98062","No_Match",NA,NA,NA,NA
328669,"P O BOX 90403","NASHVILLE","TN",37209,NA,NA,169,"P O BOX 90403, NASHVILLE, TN, 37209","No_Match",NA,NA,NA,NA
328670,"P O BOX 905","ISLAMORADA","FL",33036,NA,NA,170,"P O BOX 905, ISLAMORADA, FL, 33036","No_Match",NA,NA,NA,NA
328671,"P O BOX 90508","LOS ANGELES","CA",90009,NA,NA,171,"P O BOX 90508, LOS ANGELES, CA, 90009","No_Match",NA,NA,NA,NA
328672,"P O BOX 906","ORANGE","CA",92856,NA,NA,172,"P O BOX 906, ORANGE, CA, 92856","No_Match",NA,NA,NA,NA
328673,"P O BOX 906","PALM HARBOR","FL",34683,NA,NA,173,"P O BOX 906, PALM HARBOR, FL, 34683","No_Match",NA,NA,NA,NA
328674,"P O BOX 90645","MILWAUKEE","WI",53209,NA,NA,174,"P O BOX 90645, MILWAUKEE, WI, 53209","No_Match",NA,NA,NA,NA
328675,"P O BOX 90751","SAN BERNARDINO","CA",92427,NA,NA,175,"P O BOX 90751, SAN BERNARDINO, CA, 92427","No_Match",NA,NA,NA,NA
328676,"P O BOX 9083","BOISE","ID",83707,NA,NA,176,"P O BOX 9083, BOISE, ID, 83707","No_Match",NA,NA,NA,NA
328677,"P O BOX 9083","MOBILE","AL",36691,NA,NA,177,"P O BOX 9083, MOBILE, AL, 36691","No_Match",NA,NA,NA,NA
328678,"P O BOX 9085","ST PAUL","MN",55109,NA,NA,178,"P O BOX 9085, ST PAUL, MN, 55109","No_Match",NA,NA,NA,NA
328679,"P O BOX 909","CLEVELAND","MS",38732,NA,NA,179,"P O BOX 909, CLEVELAND, MS, 38732","No_Match",NA,NA,NA,NA
328680,"P O BOX 91 206 E BROADWAY ST","BARDSTOWN","KY",40004,37.811561673,-85.4641106349999,180,"P O BOX 91 206 E BROADWAY ST, BARDSTOWN, KY, 40004","Match","Exact","206 E BROADWAY ST, BARDSTOWN, KY, 40004",35141581,"R"
328681,"P O BOX 91","FORT WORTH","TX",76101,NA,NA,181,"P O BOX 91, FORT WORTH, TX, 76101","No_Match",NA,NA,NA,NA
328682,"P O BOX 91","HOUSTON","TX",77001,NA,NA,182,"P O BOX 91, HOUSTON, TX, 77001","No_Match",NA,NA,NA,NA
328683,"P O BOX 910","BATTLE CREEK","MI",49016,NA,NA,183,"P O BOX 910, BATTLE CREEK, MI, 49016","No_Match",NA,NA,NA,NA
328684,"P O BOX 91044","COLUMBUS","OH",43209,NA,NA,184,"P O BOX 91044, COLUMBUS, OH, 43209","No_Match",NA,NA,NA,NA
328685,"P O BOX 9105","NEW IBERIA","LA",70562,NA,NA,185,"P O BOX 9105, NEW IBERIA, LA, 70562","No_Match",NA,NA,NA,NA
328686,"P O BOX 91071","AUSTIN","TX",78709,NA,NA,186,"P O BOX 91071, AUSTIN, TX, 78709","No_Match",NA,NA,NA,NA
328687,"P O BOX 911","AUBURN","NY",13021,NA,NA,187,"P O BOX 911, AUBURN, NY, 13021","No_Match",NA,NA,NA,NA
328688,"P O BOX 91113","LAKELAND","FL",33804,NA,NA,188,"P O BOX 91113, LAKELAND, FL, 33804","No_Match",NA,NA,NA,NA
328689,"P O BOX 911201","LEXINGTON","KY",40591,NA,NA,189,"P O BOX 911201, LEXINGTON, KY, 40591","No_Match",NA,NA,NA,NA
328690,"P O BOX 912","ATHENS","TX",75751,NA,NA,190,"P O BOX 912, ATHENS, TX, 75751","No_Match",NA,NA,NA,NA
328691,"P O BOX 912","DANBURY","TX",77534,NA,NA,191,"P O BOX 912, DANBURY, TX, 77534","No_Match",NA,NA,NA,NA
328692,"P O BOX 912","MONETA","VA",24121,NA,NA,192,"P O BOX 912, MONETA, VA, 24121","No_Match",NA,NA,NA,NA
328693,"P O BOX 91267","HOUSTON","TX",77291,NA,NA,193,"P O BOX 91267, HOUSTON, TX, 77291","No_Match",NA,NA,NA,NA
328694,"P O BOX 91282","RALEIGH","NC",27675,NA,NA,194,"P O BOX 91282, RALEIGH, NC, 27675","No_Match",NA,NA,NA,NA
328695,"P O BOX 913","PARAMOUNT","CA",90723,NA,NA,195,"P O BOX 913, PARAMOUNT, CA, 90723","No_Match",NA,NA,NA,NA
328696,"P O BOX 914","BELLE GLADE","FL",33430,NA,NA,196,"P O BOX 914, BELLE GLADE, FL, 33430","No_Match",NA,NA,NA,NA
328697,"P O BOX 914","EVADALE","TX",77615,NA,NA,197,"P O BOX 914, EVADALE, TX, 77615","No_Match",NA,NA,NA,NA
328698,"P O BOX 91434","MOBILE","AL",36691,NA,NA,198,"P O BOX 91434, MOBILE, AL, 36691","No_Match",NA,NA,NA,NA
328699,"P O BOX 91462","LAKELAND","FL",33804,NA,NA,199,"P O BOX 91462, LAKELAND, FL, 33804","No_Match",NA,NA,NA,NA
328700,"P O BOX 915","COLUMBIA","MO",65205,NA,NA,200,"P O BOX 915, COLUMBIA, MO, 65205","No_Match",NA,NA,NA,NA
328701,"P O BOX 915","DUVALL","WA",98019,NA,NA,201,"P O BOX 915, DUVALL, WA, 98019","No_Match",NA,NA,NA,NA
328702,"P O BOX 915","FARMVILLE","NC",27828,NA,NA,202,"P O BOX 915, FARMVILLE, NC, 27828","No_Match",NA,NA,NA,NA
328703,"P O BOX 9156","RIVIERA BEACH","FL",33419,NA,NA,203,"P O BOX 9156, RIVIERA BEACH, FL, 33419","No_Match",NA,NA,NA,NA
328704,"P O BOX 9166","JACKSON","MS",39286,NA,NA,204,"P O BOX 9166, JACKSON, MS, 39286","No_Match",NA,NA,NA,NA
328705,"P O BOX 9183","NAPERVILLE","IL",60567,NA,NA,205,"P O BOX 9183, NAPERVILLE, IL, 60567","No_Match",NA,NA,NA,NA
328706,"P O BOX 9192","HUNTINGTON","WV",25704,NA,NA,206,"P O BOX 9192, HUNTINGTON, WV, 25704","No_Match",NA,NA,NA,NA
328707,"P O BOX 91984","ANCHORAGE","AK",99509,NA,NA,207,"P O BOX 91984, ANCHORAGE, AK, 99509","No_Match",NA,NA,NA,NA
328708,"P O BOX 91987","LAKELAND","FL",33804,NA,NA,208,"P O BOX 91987, LAKELAND, FL, 33804","No_Match",NA,NA,NA,NA
328709,"P O BOX 92","CANTON","MS",39046,NA,NA,209,"P O BOX 92, CANTON, MS, 39046","No_Match",NA,NA,NA,NA
328710,"P O BOX 92","CORNING","CA",96021,NA,NA,210,"P O BOX 92, CORNING, CA, 96021","No_Match",NA,NA,NA,NA
328711,"P O BOX 92","HAILEY","ID",83333,NA,NA,211,"P O BOX 92, HAILEY, ID, 83333","No_Match",NA,NA,NA,NA
328712,"P O BOX 92","LISMAN","AL",36912,NA,NA,212,"P O BOX 92, LISMAN, AL, 36912","No_Match",NA,NA,NA,NA
328713,"P O BOX 92","PLANTERSVILLE","TX",77363,NA,NA,213,"P O BOX 92, PLANTERSVILLE, TX, 77363","No_Match",NA,NA,NA,NA
328714,"P O BOX 92","PONTOTOC","MS",38863,NA,NA,214,"P O BOX 92, PONTOTOC, MS, 38863","No_Match",NA,NA,NA,NA
328715,"P O BOX 92","SMITHTON","MO",65350,NA,NA,215,"P O BOX 92, SMITHTON, MO, 65350","No_Match",NA,NA,NA,NA
328716,"P O BOX 92","VEGA","TX",79092,NA,NA,216,"P O BOX 92, VEGA, TX, 79092","No_Match",NA,NA,NA,NA
328717,"P O BOX 920587","HOUSTON","TX",77292,NA,NA,217,"P O BOX 920587, HOUSTON, TX, 77292","No_Match",NA,NA,NA,NA
328718,"P O BOX 921","WINSTON","GA",30187,NA,NA,218,"P O BOX 921, WINSTON, GA, 30187","No_Match",NA,NA,NA,NA
328719,"P O BOX 9214","MOBILE","AL",36610,NA,NA,219,"P O BOX 9214, MOBILE, AL, 36610","No_Match",NA,NA,NA,NA
328720,"P O BOX 9217","MONTGOMERY","AL",36108,NA,NA,220,"P O BOX 9217, MONTGOMERY, AL, 36108","No_Match",NA,NA,NA,NA
328721,"P O BOX 921904","NORCROSS","GA",30010,NA,NA,221,"P O BOX 921904, NORCROSS, GA, 30010","No_Match",NA,NA,NA,NA
328722,"P O BOX 922","OKMULGEE","OK",74447,NA,NA,222,"P O BOX 922, OKMULGEE, OK, 74447","No_Match",NA,NA,NA,NA
328723,"P O BOX 923","OAK GROVE","KY",42262,NA,NA,223,"P O BOX 923, OAK GROVE, KY, 42262","No_Match",NA,NA,NA,NA
328724,"P O BOX 924","FORNEY","TX",75126,NA,NA,224,"P O BOX 924, FORNEY, TX, 75126","No_Match",NA,NA,NA,NA
328725,"P O BOX 924","VILLE PLATTE","LA",70586,NA,NA,225,"P O BOX 924, VILLE PLATTE, LA, 70586","No_Match",NA,NA,NA,NA
328726,"P O BOX 9241","MICHIGAN CITY","IN",46361,NA,NA,226,"P O BOX 9241, MICHIGAN CITY, IN, 46361","No_Match",NA,NA,NA,NA
328727,"P O BOX 925","FALKVILLE","AL",35640,NA,NA,227,"P O BOX 925, FALKVILLE, AL, 35640","No_Match",NA,NA,NA,NA
328728,"P O BOX 925","MOUNTAIN HOME","ID",83647,NA,NA,228,"P O BOX 925, MOUNTAIN HOME, ID, 83647","No_Match",NA,NA,NA,NA
328729,"P O BOX 92716","LAKELAND","FL",33804,NA,NA,229,"P O BOX 92716, LAKELAND, FL, 33804","No_Match",NA,NA,NA,NA
328730,"P O BOX 9282","COLLEGE STATION","TX",77842,NA,NA,230,"P O BOX 9282, COLLEGE STATION, TX, 77842","No_Match",NA,NA,NA,NA
328731,"P O BOX 929","DAYTONA BEACH","FL",32115,NA,NA,231,"P O BOX 929, DAYTONA BEACH, FL, 32115","No_Match",NA,NA,NA,NA
328732,"P O BOX 929","MS STATE","MS",39762,NA,NA,232,"P O BOX 929, MS STATE, MS, 39762","No_Match",NA,NA,NA,NA
328733,"P O BOX 9298","SANTA FE","NM",87504,NA,NA,233,"P O BOX 9298, SANTA FE, NM, 87504","No_Match",NA,NA,NA,NA
328734,"P O BOX 93 21745 S CORAL DR","LEXINGTON PARK","MD",20653,38.2632843170001,-76.4496638049999,234,"P O BOX 93 21745 S CORAL DR, LEXINGTON PARK, MD, 20653","Match","Exact","21745 S CORAL DR, LEXINGTON PARK, MD, 20653",36635135,"L"
328735,"P O BOX 93","ADDISON","TX",75001,NA,NA,235,"P O BOX 93, ADDISON, TX, 75001","No_Match",NA,NA,NA,NA
328736,"P O BOX 93","GATESVILLE","NC",27938,NA,NA,236,"P O BOX 93, GATESVILLE, NC, 27938","No_Match",NA,NA,NA,NA
328737,"P O BOX 93","MARLTON","NJ",8053,NA,NA,237,"P O BOX 93, MARLTON, NJ, 8053","No_Match",NA,NA,NA,NA
328738,"P O BOX 93","NEW CASTLE","IN",47362,NA,NA,238,"P O BOX 93, NEW CASTLE, IN, 47362","No_Match",NA,NA,NA,NA
328739,"P O BOX 93","PERKASIE","PA",18944,NA,NA,239,"P O BOX 93, PERKASIE, PA, 18944","No_Match",NA,NA,NA,NA
328740,"P O BOX 930609","NORCROSS","GA",30003,NA,NA,240,"P O BOX 930609, NORCROSS, GA, 30003","No_Match",NA,NA,NA,NA
328741,"P O BOX 932","MURRELLS INLET","SC",29576,NA,NA,241,"P O BOX 932, MURRELLS INLET, SC, 29576","No_Match",NA,NA,NA,NA
328742,"P O BOX 932","SOMERSET","KY",42502,NA,NA,242,"P O BOX 932, SOMERSET, KY, 42502","No_Match",NA,NA,NA,NA
328743,"P O BOX 933","THATCHER","AZ",85552,NA,NA,243,"P O BOX 933, THATCHER, AZ, 85552","No_Match",NA,NA,NA,NA
328744,"P O BOX 93381","CLEVELAND","OH",44101,NA,NA,244,"P O BOX 93381, CLEVELAND, OH, 44101","No_Match",NA,NA,NA,NA
328745,"P O BOX 934","EVERGREEN","CO",80439,NA,NA,245,"P O BOX 934, EVERGREEN, CO, 80439","No_Match",NA,NA,NA,NA
328746,"P O BOX 935","MANCHESTER","MD",21102,NA,NA,246,"P O BOX 935, MANCHESTER, MD, 21102","No_Match",NA,NA,NA,NA
328747,"P O BOX 935","STROUDSBURG","PA",18360,NA,NA,247,"P O BOX 935, STROUDSBURG, PA, 18360","No_Match",NA,NA,NA,NA
328748,"P O BOX 936","YARNELL","AZ",85362,NA,NA,248,"P O BOX 936, YARNELL, AZ, 85362","No_Match",NA,NA,NA,NA
328749,"P O BOX 9363","DOTHAN","AL",36304,NA,NA,249,"P O BOX 9363, DOTHAN, AL, 36304","No_Match",NA,NA,NA,NA
328750,"P O BOX 938","DENHAM SPRINGS","LA",70726,NA,NA,250,"P O BOX 938, DENHAM SPRINGS, LA, 70726","No_Match",NA,NA,NA,NA
328751,"P O BOX 9383","MEMPHIS","TN",38190,NA,NA,251,"P O BOX 9383, MEMPHIS, TN, 38190","No_Match",NA,NA,NA,NA
328752,"P O BOX 94","AMERY","WI",54001,NA,NA,252,"P O BOX 94, AMERY, WI, 54001","No_Match",NA,NA,NA,NA
328753,"P O BOX 94","MIDWAY","GA",31320,NA,NA,253,"P O BOX 94, MIDWAY, GA, 31320","No_Match",NA,NA,NA,NA
328754,"P O BOX 94","SILVERHILL","AL",36576,NA,NA,254,"P O BOX 94, SILVERHILL, AL, 36576","No_Match",NA,NA,NA,NA
328755,"P O BOX 940031","HOUSTON","TX",77094,NA,NA,255,"P O BOX 940031, HOUSTON, TX, 77094","No_Match",NA,NA,NA,NA
328756,"P O BOX 940672","PLANO","TX",75094,NA,NA,256,"P O BOX 940672, PLANO, TX, 75094","No_Match",NA,NA,NA,NA
328757,"P O BOX 941","AUSTELL","GA",30168,NA,NA,257,"P O BOX 941, AUSTELL, GA, 30168","No_Match",NA,NA,NA,NA
328758,"P O BOX 941054","ATLANTA","GA",31141,NA,NA,258,"P O BOX 941054, ATLANTA, GA, 31141","No_Match",NA,NA,NA,NA
328759,"P O BOX 94108","PASADENA","CA",91109,NA,NA,259,"P O BOX 94108, PASADENA, CA, 91109","No_Match",NA,NA,NA,NA
328760,"P O BOX 941081","PLANO","TX",75094,NA,NA,260,"P O BOX 941081, PLANO, TX, 75094","No_Match",NA,NA,NA,NA
328761,"P O BOX 941522","HOUSTON","TX",77094,NA,NA,261,"P O BOX 941522, HOUSTON, TX, 77094","No_Match",NA,NA,NA,NA
328762,"P O BOX 942","ALVIN","TX",77512,NA,NA,262,"P O BOX 942, ALVIN, TX, 77512","No_Match",NA,NA,NA,NA
328763,"P O BOX 942","BELTSVILLE","MD",20705,NA,NA,263,"P O BOX 942, BELTSVILLE, MD, 20705","No_Match",NA,NA,NA,NA
328764,"P O BOX 942","SPRINGFIELD","OH",45501,NA,NA,264,"P O BOX 942, SPRINGFIELD, OH, 45501","No_Match",NA,NA,NA,NA
328765,"P O BOX 943","SUSANVILLE","CA",96130,NA,NA,265,"P O BOX 943, SUSANVILLE, CA, 96130","No_Match",NA,NA,NA,NA
328766,"P O BOX 9434","SCOTTSDALE","AZ",85252,NA,NA,266,"P O BOX 9434, SCOTTSDALE, AZ, 85252","No_Match",NA,NA,NA,NA
328767,"P O BOX 944","GROESBECK","TX",76642,NA,NA,267,"P O BOX 944, GROESBECK, TX, 76642","No_Match",NA,NA,NA,NA
328768,"P O BOX 944","JACKSONVILLE","IL",62651,NA,NA,268,"P O BOX 944, JACKSONVILLE, IL, 62651","No_Match",NA,NA,NA,NA
328769,"P O BOX 94673","BIRMINGHAM","AL",35220,NA,NA,269,"P O BOX 94673, BIRMINGHAM, AL, 35220","No_Match",NA,NA,NA,NA
328770,"P O BOX 947","TEMPE","AZ",85281,NA,NA,270,"P O BOX 947, TEMPE, AZ, 85281","No_Match",NA,NA,NA,NA
328771,"P O BOX 95","CANBY","MN",56220,NA,NA,271,"P O BOX 95, CANBY, MN, 56220","No_Match",NA,NA,NA,NA
328772,"P O BOX 95","EASTLAKE","CO",80614,NA,NA,272,"P O BOX 95, EASTLAKE, CO, 80614","No_Match",NA,NA,NA,NA
328773,"P O BOX 95","GAINESVILLE","MO",65655,NA,NA,273,"P O BOX 95, GAINESVILLE, MO, 65655","No_Match",NA,NA,NA,NA
328774,"P O BOX 95","JACKSON","MN",56143,NA,NA,274,"P O BOX 95, JACKSON, MN, 56143","No_Match",NA,NA,NA,NA
328775,"P O BOX 95","LOREAUVILLE","LA",70552,NA,NA,275,"P O BOX 95, LOREAUVILLE, LA, 70552","No_Match",NA,NA,NA,NA
328776,"P O BOX 95","MAC ARTHUR","WV",25873,NA,NA,276,"P O BOX 95, MAC ARTHUR, WV, 25873","No_Match",NA,NA,NA,NA
328777,"P O BOX 95","MORGAN CITY","LA",70381,NA,NA,277,"P O BOX 95, MORGAN CITY, LA, 70381","No_Match",NA,NA,NA,NA
328778,"P O BOX 950085","LAKE MARY","FL",32795,NA,NA,278,"P O BOX 950085, LAKE MARY, FL, 32795","No_Match",NA,NA,NA,NA
328779,"P O BOX 951","PERRY","GA",31069,NA,NA,279,"P O BOX 951, PERRY, GA, 31069","No_Match",NA,NA,NA,NA
328780,"P O BOX 9515","RAPID CITY","SD",57709,NA,NA,280,"P O BOX 9515, RAPID CITY, SD, 57709","No_Match",NA,NA,NA,NA
328781,"P O BOX 952","BURLESON","TX",76097,NA,NA,281,"P O BOX 952, BURLESON, TX, 76097","No_Match",NA,NA,NA,NA
328782,"P O BOX 952","COLUMBIA","IL",62236,NA,NA,282,"P O BOX 952, COLUMBIA, IL, 62236","No_Match",NA,NA,NA,NA
328783,"P O BOX 952","CORONA DEL MAR","CA",92625,NA,NA,283,"P O BOX 952, CORONA DEL MAR, CA, 92625","No_Match",NA,NA,NA,NA
328784,"P O BOX 953","CLARCONA","FL",32710,NA,NA,284,"P O BOX 953, CLARCONA, FL, 32710","No_Match",NA,NA,NA,NA
328785,"P O BOX 953","COTTONWOOD","CA",96022,NA,NA,285,"P O BOX 953, COTTONWOOD, CA, 96022","No_Match",NA,NA,NA,NA
328786,"P O BOX 953521","LAKE MARY","FL",32795,NA,NA,286,"P O BOX 953521, LAKE MARY, FL, 32795","No_Match",NA,NA,NA,NA
328787,"P O BOX 9536","HUNTINGTON","WV",25704,NA,NA,287,"P O BOX 9536, HUNTINGTON, WV, 25704","No_Match",NA,NA,NA,NA
328788,"P O BOX 9543","CHICAGO","IL",60609,NA,NA,288,"P O BOX 9543, CHICAGO, IL, 60609","No_Match",NA,NA,NA,NA
328789,"P O BOX 95468","SOUTH JORDAN","UT",84095,NA,NA,289,"P O BOX 95468, SOUTH JORDAN, UT, 84095","No_Match",NA,NA,NA,NA
328790,"P O BOX 955","HARRISBURG","NC",28075,NA,NA,290,"P O BOX 955, HARRISBURG, NC, 28075","No_Match",NA,NA,NA,NA
328791,"P O BOX 955","WILDOMAR","CA",92595,NA,NA,291,"P O BOX 955, WILDOMAR, CA, 92595","No_Match",NA,NA,NA,NA
328792,"P O BOX 956","OMAHA","TX",75571,NA,NA,292,"P O BOX 956, OMAHA, TX, 75571","No_Match",NA,NA,NA,NA
328793,"P O BOX 957","AGUADA","PR",602,NA,NA,293,"P O BOX 957, AGUADA, PR, 602","No_Match",NA,NA,NA,NA
328794,"P O BOX 957235","DULUTH","GA",30095,NA,NA,294,"P O BOX 957235, DULUTH, GA, 30095","No_Match",NA,NA,NA,NA
328795,"P O BOX 958","MARIANNA","AR",72360,NA,NA,295,"P O BOX 958, MARIANNA, AR, 72360","No_Match",NA,NA,NA,NA
328796,"P O BOX 958","SAN BERNARDINO","CA",92402,NA,NA,296,"P O BOX 958, SAN BERNARDINO, CA, 92402","No_Match",NA,NA,NA,NA
328797,"P O BOX 958188","DULUTH","GA",30096,NA,NA,297,"P O BOX 958188, DULUTH, GA, 30096","No_Match",NA,NA,NA,NA
328798,"P O BOX 95886","SEATTLE","WA",98145,NA,NA,298,"P O BOX 95886, SEATTLE, WA, 98145","No_Match",NA,NA,NA,NA
328799,"P O BOX 959","SWEENY","TX",77480,NA,NA,299,"P O BOX 959, SWEENY, TX, 77480","No_Match",NA,NA,NA,NA
328800,"P O BOX 96","NORTH EASTON","MA",2356,NA,NA,300,"P O BOX 96, NORTH EASTON, MA, 2356","No_Match",NA,NA,NA,NA
328801,"P O BOX 960","POPLARVILLE","MS",39470,NA,NA,301,"P O BOX 960, POPLARVILLE, MS, 39470","No_Match",NA,NA,NA,NA
328802,"P O BOX 960321","RIVERDALE","GA",30296,NA,NA,302,"P O BOX 960321, RIVERDALE, GA, 30296","No_Match",NA,NA,NA,NA
328803,"P O BOX 961","LITTLE FALLS","NY",13365,NA,NA,303,"P O BOX 961, LITTLE FALLS, NY, 13365","No_Match",NA,NA,NA,NA
328804,"P O BOX 961","MARRERO","LA",70073,NA,NA,304,"P O BOX 961, MARRERO, LA, 70073","No_Match",NA,NA,NA,NA
328805,"P O BOX 961","MARTINSBURG","WV",25402,NA,NA,305,"P O BOX 961, MARTINSBURG, WV, 25402","No_Match",NA,NA,NA,NA
328806,"P O BOX 961711","RIVERDALE","GA",30296,NA,NA,306,"P O BOX 961711, RIVERDALE, GA, 30296","No_Match",NA,NA,NA,NA
328807,"P O BOX 962","LATROBE","PA",15650,NA,NA,307,"P O BOX 962, LATROBE, PA, 15650","No_Match",NA,NA,NA,NA
328808,"P O BOX 962833","RIVERDALE","GA",30296,NA,NA,308,"P O BOX 962833, RIVERDALE, GA, 30296","No_Match",NA,NA,NA,NA
328809,"P O BOX 963","WHARTON","TX",77488,NA,NA,309,"P O BOX 963, WHARTON, TX, 77488","No_Match",NA,NA,NA,NA
328810,"P O BOX 9636","TYLER","TX",75711,NA,NA,310,"P O BOX 9636, TYLER, TX, 75711","No_Match",NA,NA,NA,NA
328811,"P O BOX 964","LIBERTY","MS",39645,NA,NA,311,"P O BOX 964, LIBERTY, MS, 39645","No_Match",NA,NA,NA,NA
328812,"P O BOX 964","MOLINE","IL",61266,NA,NA,312,"P O BOX 964, MOLINE, IL, 61266","No_Match",NA,NA,NA,NA
328813,"P O BOX 964","WHARTON","TX",77488,NA,NA,313,"P O BOX 964, WHARTON, TX, 77488","No_Match",NA,NA,NA,NA
328814,"P O BOX 965","LAKE FOREST","CA",92609,NA,NA,314,"P O BOX 965, LAKE FOREST, CA, 92609","No_Match",NA,NA,NA,NA
328815,"P O BOX 967","CONRAD","MT",59425,NA,NA,315,"P O BOX 967, CONRAD, MT, 59425","No_Match",NA,NA,NA,NA
328816,"P O BOX 9685","FAYETTEVILLE","NC",28311,NA,NA,316,"P O BOX 9685, FAYETTEVILLE, NC, 28311","No_Match",NA,NA,NA,NA
328817,"P O BOX 97","CROSBY","PA",16724,NA,NA,317,"P O BOX 97, CROSBY, PA, 16724","No_Match",NA,NA,NA,NA
328818,"P O BOX 9705","FOUNTAIN VALLEY","CA",92728,NA,NA,318,"P O BOX 9705, FOUNTAIN VALLEY, CA, 92728","No_Match",NA,NA,NA,NA
328819,"P O BOX 970776","YPSILANTI","MI",48197,NA,NA,319,"P O BOX 970776, YPSILANTI, MI, 48197","No_Match",NA,NA,NA,NA
328820,"P O BOX 971","NEW PORT RICHEY","FL",34656,NA,NA,320,"P O BOX 971, NEW PORT RICHEY, FL, 34656","No_Match",NA,NA,NA,NA
328821,"P O BOX 972","DICKSON","TN",37056,NA,NA,321,"P O BOX 972, DICKSON, TN, 37056","No_Match",NA,NA,NA,NA
328822,"P O BOX 972","TOWNSEND","MA",1469,NA,NA,322,"P O BOX 972, TOWNSEND, MA, 1469","No_Match",NA,NA,NA,NA
328823,"P O BOX 9721","GREENSBORO","NC",27429,NA,NA,323,"P O BOX 9721, GREENSBORO, NC, 27429","No_Match",NA,NA,NA,NA
328824,"P O BOX 973","PORT NECHES","TX",77651,NA,NA,324,"P O BOX 973, PORT NECHES, TX, 77651","No_Match",NA,NA,NA,NA
328825,"P O BOX 973","ROCKWELL","NC",28138,NA,NA,325,"P O BOX 973, ROCKWELL, NC, 28138","No_Match",NA,NA,NA,NA
328826,"P O BOX 974","TYRONE","GA",30290,NA,NA,326,"P O BOX 974, TYRONE, GA, 30290","No_Match",NA,NA,NA,NA
328827,"P O BOX 9742","ST THOMAS","VI",801,NA,NA,327,"P O BOX 9742, ST THOMAS, VI, 801","No_Match",NA,NA,NA,NA
328828,"P O BOX 975","BASTROP","LA",71220,NA,NA,328,"P O BOX 975, BASTROP, LA, 71220","No_Match",NA,NA,NA,NA
328829,"P O BOX 975","MATTESON","IL",60443,NA,NA,329,"P O BOX 975, MATTESON, IL, 60443","No_Match",NA,NA,NA,NA
328830,"P O BOX 975","PAWLEYS","SC",29585,NA,NA,330,"P O BOX 975, PAWLEYS, SC, 29585","No_Match",NA,NA,NA,NA
328831,"P O BOX 976","ARKANSAS CITY","KS",67005,NA,NA,331,"P O BOX 976, ARKANSAS CITY, KS, 67005","No_Match",NA,NA,NA,NA
328832,"P O BOX 9774","FORT WAYNE","IN",46899,NA,NA,332,"P O BOX 9774, FORT WAYNE, IN, 46899","No_Match",NA,NA,NA,NA
328833,"P O BOX 9782","CANTON","OH",44711,NA,NA,333,"P O BOX 9782, CANTON, OH, 44711","No_Match",NA,NA,NA,NA
328834,"P O BOX 98","ALACHUA","FL",32616,NA,NA,334,"P O BOX 98, ALACHUA, FL, 32616","No_Match",NA,NA,NA,NA
328835,"P O BOX 98","BEAR CREEK","AL",35543,NA,NA,335,"P O BOX 98, BEAR CREEK, AL, 35543","No_Match",NA,NA,NA,NA
328836,"P O BOX 98","DADEVILLE","AL",36853,NA,NA,336,"P O BOX 98, DADEVILLE, AL, 36853","No_Match",NA,NA,NA,NA
328837,"P O BOX 98","EAST OLYMPIA","WA",98540,NA,NA,337,"P O BOX 98, EAST OLYMPIA, WA, 98540","No_Match",NA,NA,NA,NA
328838,"P O BOX 98","PINE LEVEL","AL",36065,NA,NA,338,"P O BOX 98, PINE LEVEL, AL, 36065","No_Match",NA,NA,NA,NA
328839,"P O BOX 98","TROY","TX",76579,NA,NA,339,"P O BOX 98, TROY, TX, 76579","No_Match",NA,NA,NA,NA
328840,"P O BOX 981","DOVER","DE",19903,NA,NA,340,"P O BOX 981, DOVER, DE, 19903","No_Match",NA,NA,NA,NA
328841,"P O BOX 982","CARROLLTON","GA",30112,NA,NA,341,"P O BOX 982, CARROLLTON, GA, 30112","No_Match",NA,NA,NA,NA
328842,"P O BOX 982","NEW YORK","NY",10024,NA,NA,342,"P O BOX 982, NEW YORK, NY, 10024","No_Match",NA,NA,NA,NA
328843,"P O BOX 982","VALRICO","FL",33595,NA,NA,343,"P O BOX 982, VALRICO, FL, 33595","No_Match",NA,NA,NA,NA
328844,"P O BOX 9825 EDGEWOOD AVE","JACKSONVILLE","FL",32208,NA,NA,344,"P O BOX 9825 EDGEWOOD AVE, JACKSONVILLE, FL, 32208","No_Match",NA,NA,NA,NA
328845,"P O BOX 9829","NEWARK","DE",19714,NA,NA,345,"P O BOX 9829, NEWARK, DE, 19714","No_Match",NA,NA,NA,NA
328846,"P O BOX 9834","WILMINGTON","DE",19809,NA,NA,346,"P O BOX 9834, WILMINGTON, DE, 19809","No_Match",NA,NA,NA,NA
328847,"P O BOX 984","GARNER","NC",27529,NA,NA,347,"P O BOX 984, GARNER, NC, 27529","No_Match",NA,NA,NA,NA
328848,"P O BOX 986","POWHATAN","VA",23139,NA,NA,348,"P O BOX 986, POWHATAN, VA, 23139","No_Match",NA,NA,NA,NA
328849,"P O BOX 987","FOREST CITY","NC",28043,NA,NA,349,"P O BOX 987, FOREST CITY, NC, 28043","No_Match",NA,NA,NA,NA
328850,"P O BOX 989","MOUNT VERNON","TX",75457,NA,NA,350,"P O BOX 989, MOUNT VERNON, TX, 75457","No_Match",NA,NA,NA,NA
328851,"P O BOX 99","CARLISLE","IA",50047,NA,NA,351,"P O BOX 99, CARLISLE, IA, 50047","No_Match",NA,NA,NA,NA
328852,"P O BOX 99","ONTARIO","WI",54651,NA,NA,352,"P O BOX 99, ONTARIO, WI, 54651","No_Match",NA,NA,NA,NA
328853,"P O BOX 990635","REDDING","CA",96099,NA,NA,353,"P O BOX 990635, REDDING, CA, 96099","No_Match",NA,NA,NA,NA
328854,"P O BOX 991","DELAWARE","OH",43015,NA,NA,354,"P O BOX 991, DELAWARE, OH, 43015","No_Match",NA,NA,NA,NA
328855,"P O BOX 991","HIRAM","GA",30141,NA,NA,355,"P O BOX 991, HIRAM, GA, 30141","No_Match",NA,NA,NA,NA
328856,"P O BOX 991","REDMOND","WA",98073,NA,NA,356,"P O BOX 991, REDMOND, WA, 98073","No_Match",NA,NA,NA,NA
328857,"P O BOX 991","TRACY","CA",95378,NA,NA,357,"P O BOX 991, TRACY, CA, 95378","No_Match",NA,NA,NA,NA
328858,"P O BOX 991603","LOUISVILLE","KY",40269,NA,NA,358,"P O BOX 991603, LOUISVILLE, KY, 40269","No_Match",NA,NA,NA,NA
328859,"P O BOX 991751","LOUISVILLE","KY",40269,NA,NA,359,"P O BOX 991751, LOUISVILLE, KY, 40269","No_Match",NA,NA,NA,NA
328860,"P O BOX 991791","REDDING","CA",96099,NA,NA,360,"P O BOX 991791, REDDING, CA, 96099","No_Match",NA,NA,NA,NA
328861,"P O BOX 993","MOUNT CLEMENS","MI",48046,NA,NA,361,"P O BOX 993, MOUNT CLEMENS, MI, 48046","No_Match",NA,NA,NA,NA
328862,"P O BOX 9930","SPOKANE","WA",99209,NA,NA,362,"P O BOX 9930, SPOKANE, WA, 99209","No_Match",NA,NA,NA,NA
328863,"P O BOX 993891","REDDING","CA",96099,NA,NA,363,"P O BOX 993891, REDDING, CA, 96099","No_Match",NA,NA,NA,NA
328864,"P O BOX 995","ALBERT LEA","MN",56007,NA,NA,364,"P O BOX 995, ALBERT LEA, MN, 56007","No_Match",NA,NA,NA,NA
328865,"P O BOX 995","MARION","AL",36756,NA,NA,365,"P O BOX 995, MARION, AL, 36756","No_Match",NA,NA,NA,NA
328866,"P O BOX 996","PIKEVILLE","TN",37367,NA,NA,366,"P O BOX 996, PIKEVILLE, TN, 37367","No_Match",NA,NA,NA,NA
328867,"P O BOX 99826","RALEIGH","NC",27624,NA,NA,367,"P O BOX 99826, RALEIGH, NC, 27624","No_Match",NA,NA,NA,NA
328868,"P O BOX 999","HARPERS FERRY","WV",25425,NA,NA,368,"P O BOX 999, HARPERS FERRY, WV, 25425","No_Match",NA,NA,NA,NA
328869,"P O BOX 999","LOUISBURG","NC",27549,NA,NA,369,"P O BOX 999, LOUISBURG, NC, 27549","No_Match",NA,NA,NA,NA
328870,"P O BOX B","PINETOPS","NC",27864,NA,NA,370,"P O BOX B, PINETOPS, NC, 27864","No_Match",NA,NA,NA,NA
328871,"P O BOX C","FORT STOCKTON","TX",79735,NA,NA,371,"P O BOX C, FORT STOCKTON, TX, 79735","No_Match",NA,NA,NA,NA
328872,"P O BOX H","DALY CITY","CA",94017,NA,NA,372,"P O BOX H, DALY CITY, CA, 94017","No_Match",NA,NA,NA,NA
328873,"P O BOX J","MARCY","NY",13403,NA,NA,373,"P O BOX J, MARCY, NY, 13403","No_Match",NA,NA,NA,NA
328874,"P O BOX L","KENBRIDGE","VA",23944,NA,NA,374,"P O BOX L, KENBRIDGE, VA, 23944","No_Match",NA,NA,NA,NA
328875,"P O BOX L","MANSON","WA",98831,NA,NA,375,"P O BOX L, MANSON, WA, 98831","No_Match",NA,NA,NA,NA
328876,"P O BOX X","CORVALLIS","OR",97339,NA,NA,376,"P O BOX X, CORVALLIS, OR, 97339","No_Match",NA,NA,NA,NA
328877,"P O BOX","ANAHUAC","TX",77514,NA,NA,377,"P O BOX, ANAHUAC, TX, 77514","No_Match",NA,NA,NA,NA
328878,"P O BOX218","ST CHARLES","VA",24282,NA,NA,378,"P O BOX218, ST CHARLES, VA, 24282","No_Match",NA,NA,NA,NA
328879,"P O BOX243","CAMPBELL","CA",95009,NA,NA,379,"P O BOX243, CAMPBELL, CA, 95009","No_Match",NA,NA,NA,NA
328880,"P O BOX33","HILLROSE","CO",80733,NA,NA,380,"P O BOX33, HILLROSE, CO, 80733","No_Match",NA,NA,NA,NA
328881,"P O BOX730","KATHLEEN","FL",33849,NA,NA,381,"P O BOX730, KATHLEEN, FL, 33849","No_Match",NA,NA,NA,NA
328882,"P O BOX824141","DALLAS","TX",75382,NA,NA,382,"P O BOX824141, DALLAS, TX, 75382","No_Match",NA,NA,NA,NA
328883,"P O BPX 1531","TAOS","NM",87571,NA,NA,383,"P O BPX 1531, TAOS, NM, 87571","No_Match",NA,NA,NA,NA
328884,"P O BPX 3060","SUN VALLEY","ID",83353,NA,NA,384,"P O BPX 3060, SUN VALLEY, ID, 83353","No_Match",NA,NA,NA,NA
328885,"P O BPX 6511","SAVANNAH","GA",31414,NA,NA,385,"P O BPX 6511, SAVANNAH, GA, 31414","No_Match",NA,NA,NA,NA
328886,"P O BPX 744","MATAGORDA","TX",77457,NA,NA,386,"P O BPX 744, MATAGORDA, TX, 77457","No_Match",NA,NA,NA,NA
328887,"P O BX 6731","BRYAN","TX",77805,NA,NA,387,"P O BX 6731, BRYAN, TX, 77805","No_Match",NA,NA,NA,NA
328888,"P O BX 95062","NORTH LITTLE ROCK","AR",72190,NA,NA,388,"P O BX 95062, NORTH LITTLE ROCK, AR, 72190","No_Match",NA,NA,NA,NA
328889,"P O DRAWER 1389","NEW BERN","NC",28563,NA,NA,389,"P O DRAWER 1389, NEW BERN, NC, 28563","No_Match",NA,NA,NA,NA
328890,"P O DRAWER 2228","DOTHAN","AL",36302,NA,NA,390,"P O DRAWER 2228, DOTHAN, AL, 36302","No_Match",NA,NA,NA,NA
328891,"P O DRAWER 3388","HUNTSVILLE","AL",35810,NA,NA,391,"P O DRAWER 3388, HUNTSVILLE, AL, 35810","No_Match",NA,NA,NA,NA
328892,"P O VOX 412139","ATLANTA","GA",30349,NA,NA,392,"P O VOX 412139, ATLANTA, GA, 30349","No_Match",NA,NA,NA,NA
328893,"P O","SILVER SPRING","MD",20036,NA,NA,393,"P O, SILVER SPRING, MD, 20036","No_Match",NA,NA,NA,NA
328894,"P OBOX 141","WILSALL","MT",59086,NA,NA,394,"P OBOX 141, WILSALL, MT, 59086","No_Match",NA,NA,NA,NA
328895,"P ON BOX 14633","HOUSTON","TX",77221,NA,NA,395,"P ON BOX 14633, HOUSTON, TX, 77221","No_Match",NA,NA,NA,NA
328896,"P-O BOX 11641","KILLEEN","TX",76547,NA,NA,396,"P-O BOX 11641, KILLEEN, TX, 76547","No_Match",NA,NA,NA,NA
328897,"P-O-BOX 1054","ORANGEBURG","SC",29116,NA,NA,397,"P-O-BOX 1054, ORANGEBURG, SC, 29116","No_Match",NA,NA,NA,NA
328898,"P","BROOKEVILLE","MD",20833,NA,NA,398,"P, BROOKEVILLE, MD, 20833","No_Match",NA,NA,NA,NA
328899,"P","NEWINGTON","CT",6131,NA,NA,399,"P, NEWINGTON, CT, 6131","No_Match",NA,NA,NA,NA
328900,"P.O. BOX 25064","WILMINGTON","DE",19899,NA,NA,400,"P.O. BOX 25064, WILMINGTON, DE, 19899","No_Match",NA,NA,NA,NA
328901,"P.O. BOX 70","BLOOMFIELD","IA",52537,NA,NA,401,"P.O. BOX 70, BLOOMFIELD, IA, 52537","No_Match",NA,NA,NA,NA
328902,"P/ O/ BOX 44596","DETROIT","MI",48244,NA,NA,402,"P/ O/ BOX 44596, DETROIT, MI, 48244","No_Match",NA,NA,NA,NA
328903,"P/O BOX 8163","KETCHIKAN","AK",99901,NA,NA,403,"P/O BOX 8163, KETCHIKAN, AK, 99901","No_Match",NA,NA,NA,NA
328904,"P0 BOX 11","TALLMADGE","OH",44278,NA,NA,404,"P0 BOX 11, TALLMADGE, OH, 44278","No_Match",NA,NA,NA,NA
328905,"P0 BOX 201224","SHAKER HEIGHTS","OH",44120,NA,NA,405,"P0 BOX 201224, SHAKER HEIGHTS, OH, 44120","No_Match",NA,NA,NA,NA
328906,"P0 BOX 2386","LIVERMORE","CA",94551,NA,NA,406,"P0 BOX 2386, LIVERMORE, CA, 94551","No_Match",NA,NA,NA,NA
328907,"P0 BOX 2558","WEAVERVILLE","NC",28787,NA,NA,407,"P0 BOX 2558, WEAVERVILLE, NC, 28787","No_Match",NA,NA,NA,NA
328908,"P0 BOX 270","BLANCHESTER","OH",45107,NA,NA,408,"P0 BOX 270, BLANCHESTER, OH, 45107","No_Match",NA,NA,NA,NA
328909,"P0 BOX 3096","TORRANCE","CA",90510,NA,NA,409,"P0 BOX 3096, TORRANCE, CA, 90510","No_Match",NA,NA,NA,NA
328910,"P0 BOX 463","MONMOUTH","OR",97361,NA,NA,410,"P0 BOX 463, MONMOUTH, OR, 97361","No_Match",NA,NA,NA,NA
328911,"P0 BOX 5175","EDMOND","OK",73083,NA,NA,411,"P0 BOX 5175, EDMOND, OK, 73083","No_Match",NA,NA,NA,NA
328912,"P0 BOX 52","MERRICK","NY",11566,NA,NA,412,"P0 BOX 52, MERRICK, NY, 11566","No_Match",NA,NA,NA,NA
328913,"P0 BOX 82063","KENMORE","WA",98028,NA,NA,413,"P0 BOX 82063, KENMORE, WA, 98028","No_Match",NA,NA,NA,NA
328914,"P0 BOX 87","GLEN COVE","NY",11542,NA,NA,414,"P0 BOX 87, GLEN COVE, NY, 11542","No_Match",NA,NA,NA,NA
328915,"P0 BOX 874","RICHMOND","VT",5477,NA,NA,415,"P0 BOX 874, RICHMOND, VT, 5477","No_Match",NA,NA,NA,NA
328916,"P0 BOX 90037","COLUMBIA","SC",29204,NA,NA,416,"P0 BOX 90037, COLUMBIA, SC, 29204","No_Match",NA,NA,NA,NA
328917,"P0 BOX 952206","LAKE MARY","FL",32746,NA,NA,417,"P0 BOX 952206, LAKE MARY, FL, 32746","No_Match",NA,NA,NA,NA
328918,"P4121 PINE VIEW RD","BIRNAMWOOD","WI",54414,NA,NA,418,"P4121 PINE VIEW RD, BIRNAMWOOD, WI, 54414","No_Match",NA,NA,NA,NA
328919,"PALMAR DORADO NORTE 32021 C REAL","DORADO","PR",646,NA,NA,419,"PALMAR DORADO NORTE 32021 C REAL, DORADO, PR, 646","No_Match",NA,NA,NA,NA
328920,"PALMER AVENUE","SALTVILLE","VA",24370,NA,NA,420,"PALMER AVENUE, SALTVILLE, VA, 24370","No_Match",NA,NA,NA,NA
328921,"PAMELA SMITH 4939 W RAY ROAD 4 334","CHANDLER","AZ",85226,NA,NA,421,"PAMELA SMITH 4939 W RAY ROAD 4 334, CHANDLER, AZ, 85226","No_Match",NA,NA,NA,NA
328922,"PAMPLIN HALL 1016 880 W CAMPUS DR","BLACKSBURG","VA",24061,NA,NA,422,"PAMPLIN HALL 1016 880 W CAMPUS DR, BLACKSBURG, VA, 24061","No_Match",NA,NA,NA,NA
328923,"PARK CIRCLE DR APT F72","FLOWOOD","MS",39232,NA,NA,423,"PARK CIRCLE DR APT F72, FLOWOOD, MS, 39232","No_Match",NA,NA,NA,NA
328924,"PARK DR PO BOX 152","FAYETTEVILEE","WV",25840,NA,NA,424,"PARK DR PO BOX 152, FAYETTEVILEE, WV, 25840","No_Match",NA,NA,NA,NA
328925,"PARQUE BATEY CENTRAL CALLE UNION","FAJARDO","PR",738,NA,NA,425,"PARQUE BATEY CENTRAL CALLE UNION, FAJARDO, PR, 738","No_Match",NA,NA,NA,NA
328926,"PASCACK VALLY HS / 200 PIERMONT AVE","HILLSDALE","NJ",7642,41.00761585,-74.029994503,426,"PASCACK VALLY HS / 200 PIERMONT AVE, HILLSDALE, NJ, 7642","Match","Exact","200 PIERMONT AVE, HILLSDALE, NJ, 07642",64369220,"L"
328927,"PASEO CORALES II 695 MAR DEL NORTE","DORADO","PR",646,NA,NA,427,"PASEO CORALES II 695 MAR DEL NORTE, DORADO, PR, 646","No_Match",NA,NA,NA,NA
328928,"PASO","EL PASO","TX",79922,NA,NA,428,"PASO, EL PASO, TX, 79922","No_Match",NA,NA,NA,NA
328929,"PATHFINDER SCHOOL 2100 EAST M36","PINCKNEY","MI",48169,NA,NA,429,"PATHFINDER SCHOOL 2100 EAST M36, PINCKNEY, MI, 48169","No_Match",NA,NA,NA,NA
328930,"PAUL HAYNES 2789 WEST MAIN STREET","WAPPINGERS FALLS","NY",12590,41.6072145030001,-73.9208112859999,430,"PAUL HAYNES 2789 WEST MAIN STREET, WAPPINGERS FALLS, NY, 12590","Match","Exact","2789 W MAIN ST, WAPPINGERS FALLS, NY, 12590",4226182,"L"
328931,"PB BOX 3552","EATONTON","GA",31024,NA,NA,431,"PB BOX 3552, EATONTON, GA, 31024","No_Match",NA,NA,NA,NA
328932,"PBS 39 839 SESAME STREET","BETHLEHEM","PA",18015,NA,NA,432,"PBS 39 839 SESAME STREET, BETHLEHEM, PA, 18015","No_Match",NA,NA,NA,NA
328933,"PBX 2374","LANCASTER","OH",43130,NA,NA,433,"PBX 2374, LANCASTER, OH, 43130","No_Match",NA,NA,NA,NA
328934,"PCC SS 215 12000 SW 49TH AVENUE","PORTLAND","OR",97219,45.4393937660001,-122.727751351,434,"PCC SS 215 12000 SW 49TH AVENUE, PORTLAND, OR, 97219","Match","Exact","12000 SW 49TH AVE, PORTLAND, OR, 97219",157564627,"L"
328935,"PEABODY MUSEUM/ 180 MAIN STREET","ANDOVER","MA",1810,42.649953683,-71.1360814559999,435,"PEABODY MUSEUM/ 180 MAIN STREET, ANDOVER, MA, 1810","Match","Exact","180 MAIN ST, ANDOVER, MA, 01810",636956084,"L"
328936,"PEMBROKE","EAST PEMBROKE","NY",14056,NA,NA,436,"PEMBROKE, EAST PEMBROKE, NY, 14056","No_Match",NA,NA,NA,NA
328937,"PERKINS 829 PARK AVENUE APT 3A","NEW YORK","NY",10021,NA,NA,437,"PERKINS 829 PARK AVENUE APT 3A, NEW YORK, NY, 10021","No_Match",NA,NA,NA,NA
328938,"PERRY ATHLETICS - 2555 W BRITTON RD","PERRY","MI",48872,42.8341923470001,-84.211479975,438,"PERRY ATHLETICS - 2555 W BRITTON RD, PERRY, MI, 48872","Match","Exact","2555 BRITTON RD, PERRY, MI, 48872",647748204,"R"
328939,"PETERSON AIR FORCE BASE 1ST SGTS","COLORADO SPRINGS","CO",80840,NA,NA,439,"PETERSON AIR FORCE BASE 1ST SGTS, COLORADO SPRINGS, CO, 80840","No_Match",NA,NA,NA,NA
328940,"PHARMACY DEPT 33-57 HARRISON ST","JOHNSON CITY","NY",13790,NA,NA,440,"PHARMACY DEPT 33-57 HARRISON ST, JOHNSON CITY, NY, 13790","Tie",NA,NA,NA,NA
328941,"PIA PO BOX 15036","FLAGSTAFF","AZ",86011,NA,NA,441,"PIA PO BOX 15036, FLAGSTAFF, AZ, 86011","No_Match",NA,NA,NA,NA
328942,"PIO BOX 899","GOLDENDALE","WA",98620,NA,NA,442,"PIO BOX 899, GOLDENDALE, WA, 98620","No_Match",NA,NA,NA,NA
328943,"PKF OCONNOR DAVIES 500 MAMARONECK","HARRISON","NY",10528,40.978667316,-73.74326626,443,"PKF OCONNOR DAVIES 500 MAMARONECK, HARRISON, NY, 10528","Match","Non_Exact","500 MAMARONECK AVE, HARRISON, NY, 10528",139833271,"R"
328944,"PLAINS","TUPPERS PLAINS","OH",45783,NA,NA,444,"PLAINS, TUPPERS PLAINS, OH, 45783","No_Match",NA,NA,NA,NA
328945,"PLANE AND OTTO STREETS","GORDON","PA",17936,40.7500325240001,-76.342069166,445,"PLANE AND OTTO STREETS, GORDON, PA, 17936","Match","Non_Exact","PLANE ST & OTTO ST, GORDON, PA, 17936",NA,NA
328946,"PLANETARIUM PO BOX 897","NEW YORK","NY",10024,NA,NA,446,"PLANETARIUM PO BOX 897, NEW YORK, NY, 10024","No_Match",NA,NA,NA,NA
328947,"PLANTATION OAKS BLVD","ORANGE PARK","FL",32065,NA,NA,447,"PLANTATION OAKS BLVD, ORANGE PARK, FL, 32065","No_Match",NA,NA,NA,NA
328948,"PLAZA 447 ROUTE 10 EAST SUITE 12","RANDOLPH","NJ",7869,NA,NA,448,"PLAZA 447 ROUTE 10 EAST SUITE 12, RANDOLPH, NJ, 7869","No_Match",NA,NA,NA,NA
328949,"PLUMMER 4 02 200 1ST STREET SW","ROCHESTER","MN",55905,NA,NA,449,"PLUMMER 4 02 200 1ST STREET SW, ROCHESTER, MN, 55905","No_Match",NA,NA,NA,NA
328950,"PMB 103 1093 A1A BEACH","ST AUGUSTINE","FL",32084,NA,NA,450,"PMB 103 1093 A1A BEACH, ST AUGUSTINE, FL, 32084","No_Match",NA,NA,NA,NA
328951,"PMB 104 818 SW 3RD AVENUE","PORTLAND","OR",97204,45.517422337,-122.67597734,451,"PMB 104 818 SW 3RD AVENUE, PORTLAND, OR, 97204","Match","Exact","818 SW 3RD AVE, PORTLAND, OR, 97204",157504666,"L"
328952,"PMB 1178","POWELL","OH",43065,NA,NA,452,"PMB 1178, POWELL, OH, 43065","No_Match",NA,NA,NA,NA
328953,"PMB 11923","PENSACOLA","FL",32524,NA,NA,453,"PMB 11923, PENSACOLA, FL, 32524","No_Match",NA,NA,NA,NA
328954,"PMB 122 107 S WEST ST","ALEXANDRIA","VA",22314,38.80589379,-77.0546676879999,454,"PMB 122 107 S WEST ST, ALEXANDRIA, VA, 22314","Match","Exact","107 S WEST ST, ALEXANDRIA, VA, 22314",75991408,"R"
328955,"PMB 123 401 S PARK STREET","CHEWELAH","WA",99109,48.2729641380001,-117.715418947,455,"PMB 123 401 S PARK STREET, CHEWELAH, WA, 99109","Match","Exact","401 S PARK ST, CHEWELAH, WA, 99109",634836723,"R"
328956,"PMB 125 893 MAIN ST","ENGLEWOOD","OH",45322,NA,NA,456,"PMB 125 893 MAIN ST, ENGLEWOOD, OH, 45322","Tie",NA,NA,NA,NA
328957,"PMB 127 UNION AVE","NORTH BEND","OR",97459,NA,NA,457,"PMB 127 UNION AVE, NORTH BEND, OR, 97459","No_Match",NA,NA,NA,NA
328958,"PMB 151 - 1459 18TH STREET","SAN FRANCISCO","CA",94107,37.7625429330001,-122.397082258,458,"PMB 151 - 1459 18TH STREET, SAN FRANCISCO, CA, 94107","Match","Exact","1459 18TH ST, SAN FRANCISCO, CA, 94107",192288275,"L"
328959,"PMB 152 14925 SW BARROWS RD ST 109","BEAVERTON","OR",97007,45.428742033,-122.831819191,459,"PMB 152 14925 SW BARROWS RD ST 109, BEAVERTON, OR, 97007","Match","Non_Exact","14925 SW BARROWS RD, BEAVERTON, OR, 97007",158223953,"R"
328960,"PMB 162 1385 FORDHAM DRIVE STE 105","VIRGINIA BEACH","VA",23464,36.799404656,-76.1770855939999,460,"PMB 162 1385 FORDHAM DRIVE STE 105, VIRGINIA BEACH, VA, 23464","Match","Exact","1385 FORDHAM DR, VA BCH, VA, 23464",122296321,"R"
328961,"PMB 162 18160 COTTONWOOD RD","SUNRIVER","OR",97707,43.8985504550001,-121.421468395,461,"PMB 162 18160 COTTONWOOD RD, SUNRIVER, OR, 97707","Match","Exact","18160 COTTONWOOD RD, SUNRIVER, OR, 97707",152563623,"R"
328962,"PMB 165 PO BOX 8700","CAROLINA","PR",985,NA,NA,462,"PMB 165 PO BOX 8700, CAROLINA, PR, 985","No_Match",NA,NA,NA,NA
328963,"PMB 166   344 GROVE STREET","JERSEY CITY","NJ",7302,40.7205902590001,-74.04279093,463,"PMB 166   344 GROVE STREET, JERSEY CITY, NJ, 7302","Match","Exact","344 GROVE ST, JERSEY CITY, NJ, 07302",59606226,"R"
328964,"PMB 171 78 BEAVER ST","BROOKLYN","NY",11206,NA,NA,464,"PMB 171 78 BEAVER ST, BROOKLYN, NY, 11206","No_Match",NA,NA,NA,NA
328965,"PMB 189 4736 ONONDAGA BLVD","SYRACUSE","NY",13207,NA,NA,465,"PMB 189 4736 ONONDAGA BLVD, SYRACUSE, NY, 13207","Tie",NA,NA,NA,NA
328966,"PMB 196 10 OLD CLAIRTON RD STE 12A","PITTSBURGH","PA",15236,NA,NA,466,"PMB 196 10 OLD CLAIRTON RD STE 12A, PITTSBURGH, PA, 15236","No_Match",NA,NA,NA,NA
328967,"PMB 199 3495 LAKESIDE DRIVE","RENO","NV",89509,39.492495024,-119.807879141,467,"PMB 199 3495 LAKESIDE DRIVE, RENO, NV, 89509","Match","Exact","3495 LAKESIDE DR, RENO, NV, 89509",107052480,"R"
328968,"PMB 2052 - 1 JACKSON CREEK ROAD","CLANCY","MT",59634,46.5408315450001,-111.948055202,468,"PMB 2052 - 1 JACKSON CREEK ROAD, CLANCY, MT, 59634","Match","Exact","1 JACKSON CREEK RD, CLANCY, MT, 59634",153387969,"L"
328969,"PMB 215  455 STATE ROAD","VINEYARD HAVEN","MA",2568,41.445721441,-70.617049761,469,"PMB 215  455 STATE ROAD, VINEYARD HAVEN, MA, 2568","Match","Exact","455 STATE RD, VINEYARD HAVEN, MA, 02568",647949697,"L"
328970,"PMB 230 1800 21ST STREET","SACRAMENTO","CA",95811,38.56746507,-121.482406765,470,"PMB 230 1800 21ST STREET, SACRAMENTO, CA, 95811","Match","Exact","1800 21ST ST, SACRAMENTO, CA, 95811",133420040,"R"
328971,"PMB 237  1590 SUGARLAND DR   STE B","SHERIDAN","WY",82801,44.7812657850001,-106.938486718,471,"PMB 237  1590 SUGARLAND DR   STE B, SHERIDAN, WY, 82801","Match","Exact","1590 SUGARLAND DR, SHERIDAN, WY, 82801",605378523,"R"
328972,"PMB 244 1147 S SALISBURY BLVD STE8","SALISBURY","MD",21801,NA,NA,472,"PMB 244 1147 S SALISBURY BLVD STE8, SALISBURY, MD, 21801","Tie",NA,NA,NA,NA
328973,"PMB 250- 289 N FORDHAM BLVD-  STE A","CHAPEL HILL","NC",27514,NA,NA,473,"PMB 250- 289 N FORDHAM BLVD-  STE A, CHAPEL HILL, NC, 27514","No_Match",NA,NA,NA,NA
328974,"PMB 251 540 E YOUNG STE A","WARRENSBURG","MO",64093,NA,NA,474,"PMB 251 540 E YOUNG STE A, WARRENSBURG, MO, 64093","No_Match",NA,NA,NA,NA
328975,"PMB 266 7257 FULTON DR NW STE 59","CANTON","OH",44718,40.86058589,-81.483299269,475,"PMB 266 7257 FULTON DR NW STE 59, CANTON, OH, 44718","Match","Exact","7257 FULTON DR NW, CANTON, OH, 44718",64671728,"R"
328976,"PMB 293 PO BOX 7891","GUAYNABO","PR",970,NA,NA,476,"PMB 293 PO BOX 7891, GUAYNABO, PR, 970","No_Match",NA,NA,NA,NA
328977,"PMB 315","SANDY","OR",97055,NA,NA,477,"PMB 315, SANDY, OR, 97055","No_Match",NA,NA,NA,NA
328978,"PMB 321  379 AMHERST ST","NASHUA","NH",3063,42.7847350150001,-71.508162119,478,"PMB 321  379 AMHERST ST, NASHUA, NH, 3063","Match","Exact","379 AMHERST ST, NASHUA, NH, 03063",113577475,"R"
328979,"PMB 344 PO BOX 30800","HONOLULU","HI",96820,NA,NA,479,"PMB 344 PO BOX 30800, HONOLULU, HI, 96820","No_Match",NA,NA,NA,NA
328980,"PMB 352 202 NORTH DAVIS","WARNER ROBINS","GA",31093,32.621296081,-83.613048421,480,"PMB 352 202 NORTH DAVIS, WARNER ROBINS, GA, 31093","Match","Non_Exact","202 N DAVIS DR, WARNER ROBINS, GA, 31093",91220012,"R"
328981,"PMB 385  15774 S LAGRANGE RD","ORLAND PARK","IL",60462,NA,NA,481,"PMB 385  15774 S LAGRANGE RD, ORLAND PARK, IL, 60462","No_Match",NA,NA,NA,NA
328982,"PMB 441 333 MAMARONECK AVENUE","WHITE PLAINS","NY",10605,41.0240806800001,-73.7628896689999,482,"PMB 441 333 MAMARONECK AVENUE, WHITE PLAINS, NY, 10605","Match","Exact","333 MAMARONECK AVE, WHITE PLAINS, NY, 10605",139741921,"L"
328983,"PMB 583 PPP BOX 10000","SAIPAN","MP",96950,NA,NA,483,"PMB 583 PPP BOX 10000, SAIPAN, MP, 96950","No_Match",NA,NA,NA,NA
328984,"PMB 69 3941 TAMIAMI TRAIL 3157","PUNTA GORDA","FL",33950,26.8919448500001,-82.024343486,484,"PMB 69 3941 TAMIAMI TRAIL 3157, PUNTA GORDA, FL, 33950","Match","Exact","3941 TAMIAMI TRL, PUNTA GORDA, FL, 33950",642902373,"R"
328985,"PMB 728 138 WINSTON CHURCHILL AVE","SAN JUAN","PR",926,NA,NA,485,"PMB 728 138 WINSTON CHURCHILL AVE, SAN JUAN, PR, 926","No_Match",NA,NA,NA,NA
328986,"PMB 736 PPP 10000","SAIPAN","MP",96950,NA,NA,486,"PMB 736 PPP 10000, SAIPAN, MP, 96950","No_Match",NA,NA,NA,NA
328987,"PMB 784 267 CALLE SIERRA MORENA","SAN JUAN","PR",926,18.361999295,-66.074617969,487,"PMB 784 267 CALLE SIERRA MORENA, SAN JUAN, PR, 926","Match","Non_Exact","267 CLL SIERRA MORENA, SAN JUAN, PR, 00926",206614141,"L"
328988,"PMB 7951 PO BOX 257","OLYMPIA","WA",98507,NA,NA,488,"PMB 7951 PO BOX 257, OLYMPIA, WA, 98507","No_Match",NA,NA,NA,NA
328989,"PMB NO 537 5331 MACADAM AVE","PORTLAND","OR",97239,NA,NA,489,"PMB NO 537 5331 MACADAM AVE, PORTLAND, OR, 97239","No_Match",NA,NA,NA,NA
328990,"PMB/ 4110 SE HAWTHORNE BLVD","PORTLAND","OR",97214,45.5120324580001,-122.619946645,490,"PMB/ 4110 SE HAWTHORNE BLVD, PORTLAND, OR, 97214","Match","Exact","4110 SE HAWTHORNE BLVD, PORTLAND, OR, 97214",157514232,"R"
328991,"PMB218 2566 SHALLOWFORD RD STE 104","ATLANTA","GA",30345,33.8618621530001,-84.286719429,491,"PMB218 2566 SHALLOWFORD RD STE 104, ATLANTA, GA, 30345","Match","Non_Exact","2566 SHALLOWFORD RD NE, ATLANTA, GA, 30345",23359558,"L"
328992,"PMB246 5500 PRYTANIA ST","NEW ORLEANS","LA",70115,29.9253358120001,-90.114987029,492,"PMB246 5500 PRYTANIA ST, NEW ORLEANS, LA, 70115","Match","Exact","5500 PRYTANIA ST, NEW ORLEANS, LA, 70115",191702580,"L"
328993,"PMB421 4880 LWR ROSWELL RD STE 165","MARIETTA","GA",30068,33.994886453,-84.409781219,493,"PMB421 4880 LWR ROSWELL RD STE 165, MARIETTA, GA, 30068","Match","Non_Exact","4880 ROSWELL RD, MARIETTA, GA, 30062",640540794,"R"
328994,"PNB 201 19215 SE 34TH STREET 106","CAMAS","WA",98607,45.5966685430001,-122.477752694,494,"PNB 201 19215 SE 34TH STREET 106, CAMAS, WA, 98607","Match","Non_Exact","19215 SE 34TH ST, CAMAS, WA, 98607",652636510,"R"
328995,"PO  BOX  1001","PORTERVILLE","CA",93258,NA,NA,495,"PO  BOX  1001, PORTERVILLE, CA, 93258","No_Match",NA,NA,NA,NA
328996,"PO  BOX  10753","OAKLAND","CA",94610,NA,NA,496,"PO  BOX  10753, OAKLAND, CA, 94610","No_Match",NA,NA,NA,NA
328997,"PO  BOX  21656","PIEDMONT","CA",94620,NA,NA,497,"PO  BOX  21656, PIEDMONT, CA, 94620","No_Match",NA,NA,NA,NA
328998,"PO  BOX  87184","PHOENIX","AZ",85080,NA,NA,498,"PO  BOX  87184, PHOENIX, AZ, 85080","No_Match",NA,NA,NA,NA
328999,"PO  BOX 1027","ELLENBORO","NC",28040,NA,NA,499,"PO  BOX 1027, ELLENBORO, NC, 28040","No_Match",NA,NA,NA,NA
329000,"PO  BOX 10560","NAPA","CA",94559,NA,NA,500,"PO  BOX 10560, NAPA, CA, 94559","No_Match",NA,NA,NA,NA
