"ID","Address","City","State","Zip","lat","long","id","input_address","match_indicator","match_type","matched_address","tiger_line_id","tiger_side"
28001,"11469 OLIVE BLVD SUITE 312","ST LOUIS","MO",63141,38.671231651,-90.434665486,1,"11469 OLIVE BLVD SUITE 312, ST LOUIS, MO, 63141","Match","Exact","11469 OLIVE BLVD, SAINT LOUIS, MO, 63141",615047830,"R"
28002,"1147 BEDFORD STREET","CLAYSBURG","PA",16625,40.3057831620001,-78.4474165679999,2,"1147 BEDFORD STREET, CLAYSBURG, PA, 16625","Match","Exact","1147 BEDFORD ST, CLAYSBURG, PA, 16625",49726399,"L"
28003,"1147 BEVERWIL DRIVE","LOS ANGELES","CA",90035,34.056875867,-118.399106032,3,"1147 BEVERWIL DRIVE, LOS ANGELES, CA, 90035","Match","Exact","1147 BEVERWIL DR, LOS ANGELES, CA, 90035",640415695,"R"
28004,"1147 BISHOPS VIEW LN","KNOXVILLE","TN",37932,35.922768279,-84.155321277,4,"1147 BISHOPS VIEW LN, KNOXVILLE, TN, 37932","Match","Exact","1147 BISHOPS VIEW LN, KNOXVILLE, TN, 37932",624375293,"L"
28005,"1147 BROOK FOREST AVE 423","SHOREWOOD","IL",60404,41.5419329920001,-88.199440749,5,"1147 BROOK FOREST AVE 423, SHOREWOOD, IL, 60404","Match","Exact","1147 BROOK FOREST AVE, SHOREWOOD, IL, 60404",635516585,"R"
28006,"1147 BROOK FOREST AVENUE SUITE 205","SHOREWOOD","IL",60404,41.5419329920001,-88.199440749,6,"1147 BROOK FOREST AVENUE SUITE 205, SHOREWOOD, IL, 60404","Match","Exact","1147 BROOK FOREST AVE, SHOREWOOD, IL, 60404",635516585,"R"
28007,"1147 BROOKFOREST AVENUE 150","SHOREWOOD","IL",60404,41.5419329920001,-88.199440749,7,"1147 BROOKFOREST AVENUE 150, SHOREWOOD, IL, 60404","Match","Non_Exact","1147 BROOK FOREST AVE, SHOREWOOD, IL, 60404",635516585,"R"
28008,"1147 CALLE AMAPOLA","SAN DIMAS","CA",91773,34.071684674,-117.828529825,8,"1147 CALLE AMAPOLA, SAN DIMAS, CA, 91773","Match","Non_Exact","1147 CLL AMAPOLA, SAN DIMAS, CA, 91773",141798776,"L"
28009,"1147 CAMBRIDGE STREET","NOVATO","CA",94947,38.079468175,-122.558561314,9,"1147 CAMBRIDGE STREET, NOVATO, CA, 94947","Match","Exact","1147 CAMBRIDGE ST, NOVATO, CA, 94947",192761083,"L"
28010,"1147 DEEPWOOD DR","MACEDONIA","OH",44056,41.3186664020001,-81.49731517,10,"1147 DEEPWOOD DR, MACEDONIA, OH, 44056","Match","Exact","1147 DEEPWOOD DR, MACEDONIA, OH, 44056",61386841,"L"
28011,"1147 E 88TH PLACE","LOS ANGELES","CA",90002,33.956532161,-118.254785732,11,"1147 E 88TH PLACE, LOS ANGELES, CA, 90002","Match","Exact","1147 E 88TH PL, LOS ANGELES, CA, 90002",142760498,"L"
28012,"1147 EAST 86TH STREET","BROOKLYN","NY",11236,40.634176772,-73.904218949,12,"1147 EAST 86TH STREET, BROOKLYN, NY, 11236","Match","Exact","1147 E 86TH ST, BROOKLYN, NY, 11236",59086789,"L"
28013,"1147 ENCINO AVE","CLOVIS","CA",93619,36.816310306,-119.640976465,13,"1147 ENCINO AVE, CLOVIS, CA, 93619","Match","Exact","1147 ENCINO AVE, CLOVIS, CA, 93619",642313382,"L"
28014,"1147 ENTERPRISE STREET","LAKELAND","FL",33805,28.0576120750001,-82.000881987,14,"1147 ENTERPRISE STREET, LAKELAND, FL, 33805","Match","Exact","1147 ENTERPRISE ST, LAKELAND, FL, 33805",104837867,"R"
28015,"1147 HANNAH RAE COURT","CHARLOTTE","NC",28214,35.2680364440001,-80.9217911709999,15,"1147 HANNAH RAE COURT, CHARLOTTE, NC, 28214","Match","Exact","1147 HANNAH RAE CT, CHARLOTTE, NC, 28214",70563208,"R"
28016,"1147 HILDA DRIVE","JACKSON","MS",39213,32.3749008130001,-90.227034063,16,"1147 HILDA DRIVE, JACKSON, MS, 39213","Match","Exact","1147 HILDA DR, JACKSON, MS, 39213",611215521,"L"
28017,"1147 HOLDEN AVE","ORLANDO","FL",32839,28.4946207720001,-81.385313803,17,"1147 HOLDEN AVE, ORLANDO, FL, 32839","Match","Exact","1147 HOLDEN AVE, ORLANDO, FL, 32839",94283685,"R"
28018,"1147 HOOVER AVE SUITE A","CHESAPEAKE","VA",23324,36.817310202,-76.268458182,18,"1147 HOOVER AVE SUITE A, CHESAPEAKE, VA, 23324","Match","Exact","1147 HOOVER AVE, CHESAPEAKE, VA, 23324",121770399,"L"
28019,"1147 KATHERINE DR","SIERRA VISTA","AZ",85635,31.532361548,-110.287763422,19,"1147 KATHERINE DR, SIERRA VISTA, AZ, 85635","Match","Exact","1147 KATHERINE DR, SIERRA VISTA, AZ, 85635",120949301,"L"
28020,"1147 LAKEWOOD CIRCLE","NAPERVILLE","IL",60540,41.750511401,-88.190892414,20,"1147 LAKEWOOD CIRCLE, NAPERVILLE, IL, 60540","Match","Exact","1147 LAKEWOOD CIR, NAPERVILLE, IL, 60540",112686262,"L"
28021,"1147 LANCELOT STREET","STREETSBORO","OH",44241,NA,NA,21,"1147 LANCELOT STREET, STREETSBORO, OH, 44241","No_Match",NA,NA,NA,NA
28022,"1147 N CLINTON AVE","DALLAS","TX",75208,32.758344145,-96.841463228,22,"1147 N CLINTON AVE, DALLAS, TX, 75208","Match","Exact","1147 N CLINTON AVE, DALLAS, TX, 75208",102945688,"L"
28023,"1147 N MASON AVE","CHICAGO","IL",60651,41.9010753480001,-87.774109961,23,"1147 N MASON AVE, CHICAGO, IL, 60651","Match","Exact","1147 N MASON AVE, CHICAGO, IL, 60651",111753770,"R"
28024,"1147 N WESTERN AVE","CHICAGO","IL",60622,41.9023514900001,-87.687001634,24,"1147 N WESTERN AVE, CHICAGO, IL, 60622","Match","Exact","1147 N WESTERN AVE, CHICAGO, IL, 60622",111763660,"R"
28025,"1147 N WOOD STREET","GRIFFITH","IN",46319,41.541956186,-87.422170062,25,"1147 N WOOD STREET, GRIFFITH, IN, 46319","Match","Exact","1147 N WOOD ST, GRIFFITH, IN, 46319",98429225,"R"
28026,"1147 PLEASURE DRIVE WEST","LITCHFIELD","MN",55355,NA,NA,26,"1147 PLEASURE DRIVE WEST, LITCHFIELD, MN, 55355","No_Match",NA,NA,NA,NA
28027,"1147 S SALISBURY BLVD","SALISBURY","MD",21801,38.3448769240001,-75.6034511999999,27,"1147 S SALISBURY BLVD, SALISBURY, MD, 21801","Match","Exact","1147 S SALISBURY BLVD, SALISBURY, MD, 21801",114471433,"R"
28028,"1147 STATE ROUTE 97","LEXINGTON","OH",44904,40.6607556290001,-82.5531331459999,28,"1147 STATE ROUTE 97, LEXINGTON, OH, 44904","Match","Exact","1147 STATE RTE 97, LEXINGTON, OH, 44904",207217820,"R"
28029,"1147 W 47TH ST","LOS ANGELES","CA",90037,34.000634764,-118.295264901,29,"1147 W 47TH ST, LOS ANGELES, CA, 90037","Match","Exact","1147 W 47TH ST, LOS ANGELES, CA, 90037",141607791,"R"
28030,"1147 W 86TH PL","MERRILLVILLE","IN",46410,NA,NA,30,"1147 W 86TH PL, MERRILLVILLE, IN, 46410","Tie",NA,NA,NA,NA
28031,"1147 W LINDEN ST 2","RIVERSIDE","CA",92507,33.9793733120001,-117.336600319,31,"1147 W LINDEN ST 2, RIVERSIDE, CA, 92507","Match","Non_Exact","1147 W LINDEN ST, RIVERSIDE, CA, 92507",612881193,"R"
28032,"1147 WAKEFIELD FARM ROAD","ZEBULON","NC",27597,35.8560249290001,-78.312743336,32,"1147 WAKEFIELD FARM ROAD, ZEBULON, NC, 27597","Match","Exact","1147 WAKEFIELD FARM RD, ZEBULON, NC, 27597",72643940,"L"
28033,"1147 WHITE PLAINS ROAD APT 1FL","BRONX","NY",10472,40.8294080630001,-73.861128002,33,"1147 WHITE PLAINS ROAD APT 1FL, BRONX, NY, 10472","Match","Exact","1147 WHITE PLAINS RD, BRONX, NY, 10472",80305000,"L"
28034,"1147 WORDEN ST SE","GRAND RAPIDS","MI",49507,42.947399395,-85.640718481,34,"1147 WORDEN ST SE, GRAND RAPIDS, MI, 49507","Match","Exact","1147 WORDEN ST SE, GRAND RAPIDS, MI, 49507",12461625,"L"
28035,"1147","KEMAH","TX",77565,NA,NA,35,"1147, KEMAH, TX, 77565","No_Match",NA,NA,NA,NA
28036,"11470 ORION STREET","RIVERSIDE","CA",92505,33.9269505440001,-117.503832127,36,"11470 ORION STREET, RIVERSIDE, CA, 92505","Match","Exact","11470 ORION ST, RIVERSIDE, CA, 92505",195077849,"L"
28037,"11470 SOUTH DAVOL STREET","CHICAGO","IL",60643,41.685244762,-87.664530422,37,"11470 SOUTH DAVOL STREET, CHICAGO, IL, 60643","Match","Exact","11470 S DAVOL ST, CHICAGO, IL, 60643",111823653,"R"
28038,"11470 SW 5TH TERR","MIAMI","FL",33174,25.7635680920001,-80.382207992,38,"11470 SW 5TH TERR, MIAMI, FL, 33174","Match","Non_Exact","11470 SW 5TH TER, MIAMI, FL, 33174",116049303,"R"
28039,"11471 MITCHELL ST APT 2","HAMTRAMCK","MI",48212,42.4014233660001,-83.059796924,39,"11471 MITCHELL ST APT 2, HAMTRAMCK, MI, 48212","Match","Exact","11471 MITCHELL ST, HAMTRAMCK, MI, 48212",95465004,"L"
28040,"11472 MISTYS RUN","FORT WORTH","TX",76244,32.942129573,-97.2953935419999,40,"11472 MISTYS RUN, FORT WORTH, TX, 76244","Match","Exact","11472 MISTYS RUN, FORT WORTH, TX, 76244",101940832,"R"
28041,"11472 PIONEER ROAD","CEDARBURG","WI",53012,43.2788090120001,-88.052690077,41,"11472 PIONEER ROAD, CEDARBURG, WI, 53012","Match","Exact","11472 PIONEER RD, CEDARBURG, WI, 53012",635637271,"R"
28042,"11473 59TH TERRACE","SEMINOLE","FL",33772,27.8263671780001,-82.796814706,42,"11473 59TH TERRACE, SEMINOLE, FL, 33772","Match","Exact","11473 59TH TER, SEMINOLE, FL, 33772",124691017,"R"
28043,"11473 WATERHAVEN CT","RESTON","VA",20190,38.9643472710001,-77.343095891,43,"11473 WATERHAVEN CT, RESTON, VA, 20190","Match","Exact","11473 WATERHAVEN CT, RESTON, VA, 20190",76042316,"R"
28044,"11474 CASA GRANDE TRAIL","FRISCO","TX",75033,33.1749734700001,-96.872087643,44,"11474 CASA GRANDE TRAIL, FRISCO, TX, 75033","Match","Exact","11474 CASA GRANDE TRL, FRISCO, TX, 75033",619670422,"R"
28045,"11474 HIGHWAY 585","OAK GROVE","LA",71263,32.8771208150001,-91.492727804,45,"11474 HIGHWAY 585, OAK GROVE, LA, 71263","Match","Non_Exact","11474 STATE RTE 585, OAK GROVE, LA, 71263",71262098,"R"
28046,"11474 SEAY CT","MACHIPONGO","VA",23405,NA,NA,46,"11474 SEAY CT, MACHIPONGO, VA, 23405","No_Match",NA,NA,NA,NA
28047,"11475 ALTAMONT DR","FRISCO","TX",75033,33.1723422850001,-96.857088807,47,"11475 ALTAMONT DR, FRISCO, TX, 75033","Match","Exact","11475 ALTAMONT DR, FRISCO, TX, 75033",614155816,"R"
28048,"11475 ARMOUR AVE","BEAUMONT","CA",92223,33.960951983,-117.057045381,48,"11475 ARMOUR AVE, BEAUMONT, CA, 92223","Match","Exact","11475 ARMOUR AVE, BEAUMONT, CA, 92223",629872145,"R"
28049,"11475 BARNER ROAD","FOLEY","AL",36535,30.391221063,-87.708784107,49,"11475 BARNER ROAD, FOLEY, AL, 36535","Match","Exact","11475 BARNER RD, FOLEY, AL, 36535",649216677,"L"
28050,"11475 CLAY COURT UNIT 105","FISHERS","IN",46037,39.9536036330001,-85.997773432,50,"11475 CLAY COURT UNIT 105, FISHERS, IN, 46037","Match","Exact","11475 CLAY CT, FISHERS, IN, 46037",638169133,"L"
28051,"11475 HELENA ST","COMMERCE CITY","CO",80022,NA,NA,51,"11475 HELENA ST, COMMERCE CITY, CO, 80022","No_Match",NA,NA,NA,NA
28052,"11475 PLANK RD","BURLINGTON","IA",52601,40.847918006,-91.15938153,52,"11475 PLANK RD, BURLINGTON, IA, 52601","Match","Exact","11475 PLANK RD, BURLINGTON, IA, 52601",5550179,"L"
28053,"11475 PORTERVILLE ROAD","EAST AURORA","NY",14052,42.790251772,-78.5589965789999,53,"11475 PORTERVILLE ROAD, EAST AURORA, NY, 14052","Match","Exact","11475 PORTERVILLE RD, EAST AURORA, NY, 14052",48344827,"R"
28054,"11476 FOREST TRAILS DRIVE","WILLIS","TX",77318,30.4073869590001,-95.5254510359999,54,"11476 FOREST TRAILS DRIVE, WILLIS, TX, 77318","Match","Exact","11476 FOREST TRAILS DR, WILLIS, TX, 77318",636292523,"R"
28055,"11477 ELANE DRIVE","JACKSONVILLE","FL",32218,30.4438641790001,-81.6334119159999,55,"11477 ELANE DRIVE, JACKSONVILLE, FL, 32218","Match","Non_Exact","11477 ELAINE DR, JACKSONVILLE, FL, 32218",83891302,"R"
28056,"11479 MEADS DRIVE","MCCALLA","AL",35111,33.231149257,-87.1058230799999,56,"11479 MEADS DRIVE, MCCALLA, AL, 35111","Match","Non_Exact","11479 MEADS DR, MC CALLA, AL, 35111",82183170,"L"
28057,"11479 PINE DR","PARKER","CO",80134,39.509095115,-104.759434726,57,"11479 PINE DR, PARKER, CO, 80134","Match","Exact","11479 PINE DR, PARKER, CO, 80134",130803948,"L"
28058,"11479 S PINE DR SUITE 10","PARKER","CO",80134,39.509082318,-104.759432799,58,"11479 S PINE DR SUITE 10, PARKER, CO, 80134","Match","Exact","11479 PINE DR, PARKER, CO, 80134",130803948,"L"
28059,"11479 SOUTH PINE DRIVE","PARKER","CO",80134,39.509095115,-104.759434726,59,"11479 SOUTH PINE DRIVE, PARKER, CO, 80134","Match","Exact","11479 S PINE DR, PARKER, CO, 80134",130803948,"L"
28060,"11479 ULMERTON ROAD","LARGO","FL",33778,27.8946618320001,-82.798311285,60,"11479 ULMERTON ROAD, LARGO, FL, 33778","Match","Exact","11479 ULMERTON RD, LARGO, FL, 33778",124673481,"R"
28061,"11479 W PRAIRIE AVE","POST FALLS","ID",83854,47.745053392,-116.940947232,61,"11479 W PRAIRIE AVE, POST FALLS, ID, 83854","Match","Exact","11479 W PRAIRIE AVE, POST FALLS, ID, 83854",192947730,"R"
28062,"1148 BANK ST","HILLSIDE","NJ",7205,40.6905357370001,-74.2165051599999,62,"1148 BANK ST, HILLSIDE, NJ, 7205","Match","Exact","1148 BANK ST, HILLSIDE, NJ, 07205",60577805,"L"
28063,"1148 CALVERT ROAD","RISING SUN","MD",21911,39.697106815,-75.9868268069999,63,"1148 CALVERT ROAD, RISING SUN, MD, 21911","Match","Exact","1148 CALVERT RD, RISING SUN, MD, 21911",207860456,"R"
28064,"1148 CELEBRATION AVENUE","CELEBRATION","FL",34747,28.3102781810001,-81.552166695,64,"1148 CELEBRATION AVENUE, CELEBRATION, FL, 34747","Match","Exact","1148 CELEBRATION AVE, CELEBRATION, FL, 34747",176694604,"L"
28065,"1148 CHESSLAWN CIRCLE WEST","CHESAPEAKE","VA",23320,NA,NA,65,"1148 CHESSLAWN CIRCLE WEST, CHESAPEAKE, VA, 23320","No_Match",NA,NA,NA,NA
28066,"1148 DEITZ CIRCLE","OAKDALE","CA",95361,37.7734194710001,-120.861129957,66,"1148 DEITZ CIRCLE, OAKDALE, CA, 95361","Match","Exact","1148 DEITZ CIR, OAKDALE, CA, 95361",102626223,"R"
28067,"1148 EAST 100TH STREET","BROOKLYN","NY",11236,40.641079909,-73.893785909,67,"1148 EAST 100TH STREET, BROOKLYN, NY, 11236","Match","Exact","1148 E 100TH ST, BROOKLYN, NY, 11236",59086766,"R"
28068,"1148 EAST BIRKEN","ST GEORGE","UT",84780,NA,NA,68,"1148 EAST BIRKEN, ST GEORGE, UT, 84780","No_Match",NA,NA,NA,NA
28069,"1148 EAST PITTSTON ROAD","PITTSTON","ME",4345,44.175423917,-69.672548897,69,"1148 EAST PITTSTON ROAD, PITTSTON, ME, 4345","Match","Exact","1148 E PITTSTON RD, PITTSTON, ME, 04345",607799961,"R"
28070,"1148 EDWARDS LAKE RD","BIRMINGHAM","AL",35235,33.6081895630001,-86.670853214,70,"1148 EDWARDS LAKE RD, BIRMINGHAM, AL, 35235","Match","Exact","1148 EDWARDS LAKE RD, BIRMINGHAM, AL, 35235",651069268,"L"
28071,"1148 FEDORA STREET SUITE 6","LOS ANGELES","CA",90006,34.0499932560001,-118.297874079,71,"1148 FEDORA STREET SUITE 6, LOS ANGELES, CA, 90006","Match","Exact","1148 FEDORA ST, LOS ANGELES, CA, 90006",141605082,"L"
28072,"1148 FORDYCE LANE","SAINT CHARLES","MO",63303,38.765250614,-90.510290864,72,"1148 FORDYCE LANE, SAINT CHARLES, MO, 63303","Match","Exact","1148 FORDYCE LN, SAINT CHARLES, MO, 63303",100021572,"R"
28073,"1148 FRANKLIN GATEWAY SE STE C","MARIETTA","GA",30067,33.924736717,-84.492031977,73,"1148 FRANKLIN GATEWAY SE STE C, MARIETTA, GA, 30067","Match","Non_Exact","1148 FRANKLIN RD SE, MARIETTA, GA, 30067",17214081,"R"
28074,"1148 FRONT STREET","EVANSTON","WY",82930,41.269438085,-110.96666231,74,"1148 FRONT STREET, EVANSTON, WY, 82930","Match","Exact","1148 FRONT ST, EVANSTON, WY, 82930",160259866,"R"
28075,"1148 GRAND HILLTOP DRIVE","APOPKA","FL",32703,28.6481789860001,-81.525252638,75,"1148 GRAND HILLTOP DRIVE, APOPKA, FL, 32703","Match","Exact","1148 GRAND HILLTOP DR, APOPKA, FL, 32703",646559371,"R"
28076,"1148 LUKE STREET","KING","NC",27021,36.3249349330001,-80.3441029209999,76,"1148 LUKE STREET, KING, NC, 27021","Match","Exact","1148 LUKE ST, KING, NC, 27021",56334163,"R"
28077,"1148 MANSELL AVE","AUSTIN","TX",78721,30.2765472140001,-97.685969341,77,"1148 MANSELL AVE, AUSTIN, TX, 78721","Match","Exact","1148 MANSELL AVE, AUSTIN, TX, 78721",63951536,"L"
28078,"1148 MAXWELL MANOR","WARMINSTER","PA",18974,NA,NA,78,"1148 MAXWELL MANOR, WARMINSTER, PA, 18974","Tie",NA,NA,NA,NA
28079,"1148 N 1100 E","GREENTOWN","IN",46936,40.494991627,-85.918912943,79,"1148 N 1100 E, GREENTOWN, IN, 46936","Match","Exact","1148 N 1100 E, GREENTOWN, IN, 46936",27259406,"R"
28080,"1148 N HICKORY PLACE","BROKEN ARROW","OK",74012,36.0652792110001,-95.801417175,80,"1148 N HICKORY PLACE, BROKEN ARROW, OK, 74012","Match","Exact","1148 N HICKORY PL, BROKEN ARROW, OK, 74012",166458407,"L"
28081,"1148 N LAKE AVENUE SUITE 2","PASADENA","CA",91104,34.1654883850001,-118.132386339,81,"1148 N LAKE AVENUE SUITE 2, PASADENA, CA, 91104","Match","Non_Exact","1148 N LAKE AVE, PASADENA, CA, 91104",141628636,"R"
28082,"1148 NORTH BROAD STREET","ROME","GA",30161,34.26089669,-85.159770081,82,"1148 NORTH BROAD STREET, ROME, GA, 30161","Match","Exact","1148 N BROAD ST, ROME, GA, 30161",30676211,"R"
28083,"1148 NW 165 AVENUE","PEMBROKE PINES","FL",33028,26.017395713,-80.3670828049999,83,"1148 NW 165 AVENUE, PEMBROKE PINES, FL, 33028","Match","Exact","1148 NW 165TH AVE, PEMBROKE PINES, FL, 33028",114781678,"L"
28084,"1148 OTTAWA DR","PORT CLINTON","OH",43452,41.4999374600001,-82.947593759,84,"1148 OTTAWA DR, PORT CLINTON, OH, 43452","Match","Exact","1148 OTTAWA DR, PORT CLINTON, OH, 43452",44060424,"L"
28085,"1148 PULASKI HWY STE 197","BEAR","DE",19701,39.6298652070001,-75.665507465,85,"1148 PULASKI HWY STE 197, BEAR, DE, 19701","Match","Exact","1148 PULASKI HWY, BEAR, DE, 19701",606248998,"L"
28086,"1148 RICE AVE","GAHANNA","OH",43230,40.0054346680001,-82.842744167,86,"1148 RICE AVE, GAHANNA, OH, 43230","Match","Exact","1148 RICE AVE, GAHANNA, OH, 43230",218653428,"L"
28087,"1148 ROTONDA CIRCLE","ROTONDA WEST","FL",33947,26.872016634,-82.267107739,87,"1148 ROTONDA CIRCLE, ROTONDA WEST, FL, 33947","Match","Exact","1148 ROTONDA CIR, ROTONDA WEST, FL, 33947",4312237,"R"
28088,"1148 S 6TH ST","LOUISVILLE","KY",40203,38.2357290480001,-85.7635853749999,88,"1148 S 6TH ST, LOUISVILLE, KY, 40203","Match","Exact","1148 S 6TH ST, LOUISVILLE, KY, 40203",618513596,"R"
28089,"1148 S CRESCENT HTS BLVD","LOS ANGELES","CA",90035,34.055374498,-118.370761065,89,"1148 S CRESCENT HTS BLVD, LOS ANGELES, CA, 90035","Match","Exact","1148 S CRESCENT HEIGHTS BLVD, LOS ANGELES, CA, 90035",141598870,"L"
28090,"1148 SHAWNEE RIDGE DRIVE","CHESWICK","PA",15024,40.562694983,-79.8486931099999,90,"1148 SHAWNEE RIDGE DRIVE, CHESWICK, PA, 15024","Match","Exact","1148 SHAWNEE RIDGE DR, CHESWICK, PA, 15024",627645856,"R"
28091,"1148 TURNER ST","CLEARWATER","FL",33756,27.959479012,-82.7897969209999,91,"1148 TURNER ST, CLEARWATER, FL, 33756","Match","Exact","1148 TURNER ST, CLEARWATER, FL, 33756",124776224,"L"
28092,"1148 W LEGACY CROSSING BLVD 400","CENTERVILLE","UT",84014,40.9200163350001,-111.894642543,92,"1148 W LEGACY CROSSING BLVD 400, CENTERVILLE, UT, 84014","Match","Non_Exact","1148 W LEGACY CROSSING BLVD, CENTERVILLE, UT, 84014",645858729,"L"
28093,"1148 WILLIAMSON STREET","MADISON","WI",53703,43.082626201,-89.365225041,93,"1148 WILLIAMSON STREET, MADISON, WI, 53703","Match","Exact","1148 WILLIAMSON ST, MADISON, WI, 53703",49473294,"L"
28094,"11480 53RD AVE SUITE A","ALLENDALE","MI",49401,42.9783680200001,-85.916975854,94,"11480 53RD AVE SUITE A, ALLENDALE, MI, 49401","Match","Exact","11480 53RD AVE, ALLENDALE, MI, 49401",71110129,"R"
28095,"11480 CHEYENNE TRAIL SUITE A","PARMA HEIGHTS","OH",44130,41.400628634,-81.7682771789999,95,"11480 CHEYENNE TRAIL SUITE A, PARMA HEIGHTS, OH, 44130","Match","Exact","11480 CHEYENNE TRL, PARMA HEIGHTS, OH, 44130",624550648,"L"
28096,"11480 PRIVATE DR 2048","ROLLA","MO",65401,NA,NA,96,"11480 PRIVATE DR 2048, ROLLA, MO, 65401","No_Match",NA,NA,NA,NA
28097,"11480 SOUTH ST STE 210","CERRITOS","CA",90703,33.8584049180001,-118.089023755,97,"11480 SOUTH ST STE 210, CERRITOS, CA, 90703","Match","Exact","11480 SOUTH ST, CERRITOS, CA, 90703",647450402,"R"
28098,"11481 COURTNEY WATERS LANE","JACKSONVILLE","FL",32258,30.165416518,-81.588505131,98,"11481 COURTNEY WATERS LANE, JACKSONVILLE, FL, 32258","Match","Exact","11481 COURTNEY WATERS LN, JACKSONVILLE, FL, 32258",83951048,"R"
28099,"11481 SW HALL BLVD 201Z","TIGARD","OR",97223,45.436989345,-122.765378948,99,"11481 SW HALL BLVD 201Z, TIGARD, OR, 97223","Match","Non_Exact","11481 SW HALL BLVD, TIGARD, OR, 97223",637755603,"R"
28100,"11483 INDIAN HILLS PLACE APT 207","WALDORF","MD",20602,38.5784820590001,-76.9138669399999,100,"11483 INDIAN HILLS PLACE APT 207, WALDORF, MD, 20602","Match","Exact","11483 INDIAN HILLS PL, WALDORF, MD, 20602",642955563,"L"
28101,"11483 W NEW HOPE RD","STAR","ID",83669,43.71749857,-116.495637087,101,"11483 W NEW HOPE RD, STAR, ID, 83669","Match","Exact","11483 W NEW HOPE RD, STAR, ID, 83669",652343918,"L"
28102,"11484 ESCOBA PLACE","SAN DIEGO","CA",92127,33.03570303,-117.08102184,102,"11484 ESCOBA PLACE, SAN DIEGO, CA, 92127","Match","Exact","11484 ESCOBA PL, SAN DIEGO, CA, 92127",195315161,"L"
28103,"11484 MORENO AVE","LAKESIDE","CA",92040,32.8863108130001,-116.9250461,103,"11484 MORENO AVE, LAKESIDE, CA, 92040","Match","Exact","11484 MORENO AVE, LAKESIDE, CA, 92040",195331959,"L"
28104,"11484 RONCAT CT","LAS VEGAS","NV",89141,35.9811821320001,-115.186172806,104,"11484 RONCAT CT, LAS VEGAS, NV, 89141","Match","Exact","11484 RONCAT CT, LAS VEGAS, NV, 89141",612989907,"L"
28105,"11484 S CHURCH STREET","CHICAGO","IL",60643,41.685132894,-87.668993816,105,"11484 S CHURCH STREET, CHICAGO, IL, 60643","Match","Exact","11484 S CHURCH ST, CHICAGO, IL, 60643",111823422,"R"
28106,"11485 N FARLEY ROAD","PLATTE CITY","MO",64079,39.305805214,-94.8257482289999,106,"11485 N FARLEY ROAD, PLATTE CITY, MO, 64079","Match","Exact","11485 N FARLEY RD, PLATTE CITY, MO, 64079",39705207,"L"
28107,"11485 OLD PUEBLO ROAD","FOUNTAIN","CO",80817,38.6605230320001,-104.691591628,107,"11485 OLD PUEBLO ROAD, FOUNTAIN, CO, 80817","Match","Exact","11485 OLD PUEBLO RD, FOUNTAIN, CO, 80817",647971520,"R"
28108,"11487 FM 1716 E","HENDERSON","TX",75652,32.299433376,-94.698174443,108,"11487 FM 1716 E, HENDERSON, TX, 75652","Match","Non_Exact","11487 FM 1716, HENDERSON, TX, 75652",79629191,"L"
28109,"11487 JOHNSTOWN ROAD","NEW ALBANY","OH",43054,40.1161253650001,-82.7708843899999,109,"11487 JOHNSTOWN ROAD, NEW ALBANY, OH, 43054","Match","Non_Exact","11487 E JOHNSTOWN RD, NEW ALBANY, OH, 43054",218698422,"L"
28110,"11488 OPEN VIEW LN","SOUTH JORDAN","UT",84009,40.5431764780001,-112.005208987,110,"11488 OPEN VIEW LN, SOUTH JORDAN, UT, 84009","Match","Exact","11488 OPEN VIEW LN, SOUTH JORDAN, UT, 84009",611644006,"R"
28111,"1148A STATE ROAD 503","CUNDIYO","NM",87522,NA,NA,111,"1148A STATE ROAD 503, CUNDIYO, NM, 87522","No_Match",NA,NA,NA,NA
28112,"1149 4TH AVENUE","SACRAMENTO","CA",95818,38.5546734480001,-121.501827461,112,"1149 4TH AVENUE, SACRAMENTO, CA, 95818","Match","Exact","1149 4TH AVE, SACRAMENTO, CA, 95818",133322048,"L"
28113,"1149 ARBOR CREEK DR UNIT 2C","KIRKWOOD","MO",63122,38.568130135,-90.4703217219999,113,"1149 ARBOR CREEK DR UNIT 2C, KIRKWOOD, MO, 63122","Match","Exact","1149 ARBOR CREEK DR, KIRKWOOD, MO, 63122",604539316,"R"
28114,"1149 CLEARSPRING DR","CHARLESTON","SC",29412,32.697090147,-79.9631425059999,114,"1149 CLEARSPRING DR, CHARLESTON, SC, 29412","Match","Exact","1149 CLEARSPRING DR, CHARLESTON, SC, 29412",605515668,"R"
28115,"1149 HILLSBORO MILE","HILLSBORO BEACH","FL",33062,26.292389917,-80.079205201,115,"1149 HILLSBORO MILE, HILLSBORO BEACH, FL, 33062","Match","Exact","1149 HILLSBORO MILE, HILLSBORO BCH, FL, 33062",650081807,"R"
28116,"1149 LANCASTER AVE","ROSEMONT","PA",19010,NA,NA,116,"1149 LANCASTER AVE, ROSEMONT, PA, 19010","No_Match",NA,NA,NA,NA
28117,"1149 MARTIN LUTHER KING DRIVE","HAYWARD","CA",94541,37.66073306,-122.09306653,117,"1149 MARTIN LUTHER KING DRIVE, HAYWARD, CA, 94541","Match","Exact","1149 MARTIN LUTHER KING DR, HAYWARD, CA, 94541",640783620,"L"
28118,"1149 MILLBRAE AVE","MILLBRAE","CA",94030,37.5927542760001,-122.400715123,118,"1149 MILLBRAE AVE, MILLBRAE, CA, 94030","Match","Exact","1149 MILLBRAE AVE, MILLBRAE, CA, 94030",635981167,"L"
28119,"1149 OAKHURST DRIVE","SAN DIEGO","CA",92114,32.6947106750001,-117.072848261,119,"1149 OAKHURST DRIVE, SAN DIEGO, CA, 92114","Match","Exact","1149 OAKHURST DR, SAN DIEGO, CA, 92114",195352318,"L"
28120,"1149 PARKSIDE TRAIL","EVANS","GA",30809,33.582370929,-82.1415994769999,120,"1149 PARKSIDE TRAIL, EVANS, GA, 30809","Match","Exact","1149 PARKSIDE TRL, EVANS, GA, 30809",55381287,"R"
28121,"1149 PEN PARK ROAD   B","CHARLOTTESVILLE","VA",22901,NA,NA,121,"1149 PEN PARK ROAD   B, CHARLOTTESVILLE, VA, 22901","No_Match",NA,NA,NA,NA
28122,"1149 PHILLIPS AVE","DAYTON","OH",45410,39.7447084570001,-84.1556425649999,122,"1149 PHILLIPS AVE, DAYTON, OH, 45410","Match","Exact","1149 PHILLIPS AVE, DAYTON, OH, 45410",143575174,"R"
28123,"1149 REGAL HILLS LN","MABLETON","GA",30126,33.789983266,-84.528775143,123,"1149 REGAL HILLS LN, MABLETON, GA, 30126","Match","Exact","1149 REGAL HILLS LN, MABLETON, GA, 30126",642999335,"L"
28124,"1149 ROAD 848","TRUJILLO ALTO","PR",978,NA,NA,124,"1149 ROAD 848, TRUJILLO ALTO, PR, 978","No_Match",NA,NA,NA,NA
28125,"1149 S 60TH STREET","PHILADELPHIA","PA",19143,39.9453176420001,-75.2442243679999,125,"1149 S 60TH STREET, PHILADELPHIA, PA, 19143","Match","Exact","1149 S 60TH ST, PHILADELPHIA, PA, 19143",131397906,"L"
28126,"1149 S RIDGE ROAD","GREEN BAY","WI",54304,44.5141208490001,-88.056256102,126,"1149 S RIDGE ROAD, GREEN BAY, WI, 54304","Match","Exact","1149 S RIDGE RD, GREEN BAY, WI, 54304",148099411,"L"
28127,"1149 S VOLUSIA AVE","ORANGE CITY","FL",32763,28.9362547900001,-81.298894005,127,"1149 S VOLUSIA AVE, ORANGE CITY, FL, 32763","Match","Exact","1149 S VOLUSIA AVE, ORANGE CITY, FL, 32763",94593500,"R"
28128,"1149 SUNSET CREEK LANE","PLEASONTON","CA",94566,37.6443143330001,-121.868200301,128,"1149 SUNSET CREEK LANE, PLEASONTON, CA, 94566","Match","Non_Exact","1149 SUNSET CREEK LN, PLEASANTON, CA, 94566",125084945,"L"
28129,"1149 TAYLOR DRIVE","FOLCROFT","PA",19032,39.8854351100001,-75.281233233,129,"1149 TAYLOR DRIVE, FOLCROFT, PA, 19032","Match","Exact","1149 TAYLOR DR, FOLCROFT, PA, 19032",134885260,"L"
28130,"1149 THIEL DRIVE","SCHERERVILLE","IN",46375,41.4805746490001,-87.4790631769999,130,"1149 THIEL DRIVE, SCHERERVILLE, IN, 46375","Match","Exact","1149 THIEL DR, SCHERERVILLE, IN, 46375",98445256,"R"
28131,"1149 W 85TH STREET UNIT 1","LOS ANGELES","CA",90044,33.9609487480001,-118.294932091,131,"1149 W 85TH STREET UNIT 1, LOS ANGELES, CA, 90044","Match","Non_Exact","1149 W 85TH ST, LOS ANGELES, CA, 90044",141659924,"R"
28132,"1149 W HACIENDA DR","WEST VALLEY CITY","UT",84119,40.6961879770001,-111.924666507,132,"1149 W HACIENDA DR, WEST VALLEY CITY, UT, 84119","Match","Exact","1149 HACIENDA DR, WEST VALLEY CITY, UT, 84119",176079009,"L"
28133,"1149 W HAMPTON SPRINGS AVENUE","PERRY","FL",32348,30.110400435,-83.5936011479999,133,"1149 W HAMPTON SPRINGS AVENUE, PERRY, FL, 32348","Match","Non_Exact","1149 W HAMPTON SPRINGS AVE, PERRY, FL, 32347",53968855,"R"
28134,"1149 W TRIGGER LN","COCHISE","AZ",85606,31.9869255770001,-109.926737532,134,"1149 W TRIGGER LN, COCHISE, AZ, 85606","Match","Exact","1149 W TRIGGER LN, COCHISE, AZ, 85606",121040170,"R"
28135,"1149 WAYBURN","GROSSE POINTE PARK","MI",48230,42.3796821460001,-82.94155289,135,"1149 WAYBURN, GROSSE POINTE PARK, MI, 48230","Match","Exact","1149 WAYBURN, GROSSE POINTE PARK, MI, 48230",95488932,"L"
28136,"1149 WEST 84TH STREET","CHICAGO","IL",60620,41.741392266,-87.653180657,136,"1149 WEST 84TH STREET, CHICAGO, IL, 60620","Match","Exact","1149 W 84TH ST, CHICAGO, IL, 60620",604996094,"L"
28137,"11490 DEER RIVER LANE","MINNETONKA","MN",55343,NA,NA,137,"11490 DEER RIVER LANE, MINNETONKA, MN, 55343","No_Match",NA,NA,NA,NA
28138,"11490 FARM ROAD 2020","MONETT","MO",65708,NA,NA,138,"11490 FARM ROAD 2020, MONETT, MO, 65708","No_Match",NA,NA,NA,NA
28139,"11490 OKEECHOBEE BLVD STE 5","ROYAL PALM BEACH","FL",33411,26.706241601,-80.224476249,139,"11490 OKEECHOBEE BLVD STE 5, ROYAL PALM BEACH, FL, 33411","Match","Exact","11490 OKEECHOBEE BLVD, ROYAL PALM BEACH, FL, 33411",115532780,"R"
28140,"11490 OKEECHOBEE BLVD SUITE 5","ROYAL PALM BEACH","FL",33411,26.706241601,-80.224476249,140,"11490 OKEECHOBEE BLVD SUITE 5, ROYAL PALM BEACH, FL, 33411","Match","Exact","11490 OKEECHOBEE BLVD, ROYAL PALM BEACH, FL, 33411",115532780,"R"
28141,"11490 SE SUNNYSIDE RD APT 32","CLACKAMAS","OR",97015,45.4322192400001,-122.545614346,141,"11490 SE SUNNYSIDE RD APT 32, CLACKAMAS, OR, 97015","Match","Non_Exact","11490 SE SUNNYSIDE RD, CLACKAMAS, OR, 97015",651784595,"L"
28142,"11491 305TH AVENUE","PRINCETON","MN",55371,45.5231295140001,-93.5578694439999,142,"11491 305TH AVENUE, PRINCETON, MN, 55371","Match","Non_Exact","11491 305TH AVE NW, PRINCETON, MN, 55371",97766762,"L"
28143,"11491 E OSTENSON RD","LAKE NEBAGAMON","WI",54849,46.5003753410001,-91.704326352,143,"11491 E OSTENSON RD, LAKE NEBAGAMON, WI, 54849","Match","Exact","11491 E OSTENSON RD, LAKE NEBAGAMON, WI, 54849",164849427,"L"
28144,"11491 LADY DELL DRIVE","WAYNESBORO","PA",17268,39.762321593,-77.547885795,144,"11491 LADY DELL DRIVE, WAYNESBORO, PA, 17268","Match","Exact","11491 LADY DELL DR, WAYNESBORO, PA, 17268",649924183,"L"
28145,"11491 MCCLUMPHA ROAD","PLYMOUTH","MI",48170,42.3646500130001,-83.499182387,145,"11491 MCCLUMPHA ROAD, PLYMOUTH, MI, 48170","Match","Non_Exact","11491 MC CLUMPHA RD, PLYMOUTH, MI, 48170",95407534,"L"
28146,"11493 CLEARCREEK RD NW","SILVERDALE","WA",98383,47.6684709260001,-122.692215903,146,"11493 CLEARCREEK RD NW, SILVERDALE, WA, 98383","Match","Non_Exact","11493 CLEAR CREEK RD NW, SILVERDALE, WA, 98383",642403548,"L"
28147,"11493 SE 37TH LN","MORRISTON","FL",32668,29.279639183,-82.581535232,147,"11493 SE 37TH LN, MORRISTON, FL, 32668","Match","Exact","11493 SE 37TH LN, MORRISTON, FL, 32668",612306847,"L"
28148,"11493 WOLF RD","GENESEO","IL",61254,41.4990600720001,-90.211543999,148,"11493 WOLF RD, GENESEO, IL, 61254","Match","Exact","11493 WOLF RD, GENESEO, IL, 61254",8905722,"R"
28149,"11495 SUNSET HILLS RD STE 110","RESTON","VA",20190,38.9523521610001,-77.345016089,149,"11495 SUNSET HILLS RD STE 110, RESTON, VA, 20190","Match","Exact","11495 SUNSET HILLS RD, RESTON, VA, 20190",641104948,"L"
28150,"11496 PIERSON RD C-7","WELLINGTON","FL",33414,26.636547245,-80.228370761,150,"11496 PIERSON RD C-7, WELLINGTON, FL, 33414","Match","Exact","11496 PIERSON RD, WELLINGTON, FL, 33414",637894009,"R"
28151,"11497 RIDGECREST DRIVE","ROSCOE","IL",61073,42.423746022,-88.973884185,151,"11497 RIDGECREST DRIVE, ROSCOE, IL, 61073","Match","Exact","11497 RIDGECREST DR, ROSCOE, IL, 61073",49282559,"R"
28152,"114A W FABRA LN","BOERNE","TX",78006,29.8297109050001,-98.761377792,152,"114A W FABRA LN, BOERNE, TX, 78006","Match","Exact","114 W FABRA LN, BOERNE, TX, 78006",102756029,"L"
28153,"114A W JEFFERSON ST","FALLS CHURCH","VA",22046,38.8864167580001,-77.165366136,153,"114A W JEFFERSON ST, FALLS CHURCH, VA, 22046","Match","Exact","114 W JEFFERSON ST, FALLS CHURCH, VA, 22046",638338246,"R"
28154,"115  SAN CARLOS DRIVE","CLINTON","MS",39056,32.3676119880001,-90.3606562269999,154,"115  SAN CARLOS DRIVE, CLINTON, MS, 39056","Match","Exact","115 SAN CARLOS DR, CLINTON, MS, 39056",65358726,"L"
28155,"115 1/2 SOUTH AVE","MT CLEMENS","MI",48043,42.5924774430001,-82.88249525,155,"115 1/2 SOUTH AVE, MT CLEMENS, MI, 48043","Match","Exact","115 SOUTH AVE, MOUNT CLEMENS, MI, 48043",110682589,"L"
28156,"115 10TH ST W","HARVEY","ND",58341,47.768725336,-99.9364530509999,156,"115 10TH ST W, HARVEY, ND, 58341","Match","Exact","115 10TH ST W, HARVEY, ND, 58341",174077954,"R"
28157,"115 15 FARMERS BLVD","ST ALBANS","NY",11412,NA,NA,157,"115 15 FARMERS BLVD, ST ALBANS, NY, 11412","No_Match",NA,NA,NA,NA
28158,"115 26TH AVE S SUITE 4","SEATTLE","WA",98144,47.601208608,-122.298934527,158,"115 26TH AVE S SUITE 4, SEATTLE, WA, 98144","Match","Exact","115 26TH AVE S, SEATTLE, WA, 98144",652988470,"R"
28159,"115 28 210TH ST","QUEENS","NY",11411,NA,NA,159,"115 28 210TH ST, QUEENS, NY, 11411","No_Match",NA,NA,NA,NA
28160,"115 2ND AVE S SUITE 1004","MINNEAPOLIS","MN",55401,44.982373771,-93.263988121,160,"115 2ND AVE S SUITE 1004, MINNEAPOLIS, MN, 55401","Match","Exact","115 2ND AVE S, MINNEAPOLIS, MN, 55401",43631962,"L"
28161,"115 2ND ST SE","RIO RANCHO","NM",87124,35.261516511,-106.703191854,161,"115 2ND ST SE, RIO RANCHO, NM, 87124","Match","Exact","115 2ND ST SE, RIO RANCHO, NM, 87124",193994491,"R"
28162,"115 3RD ST SE SUITE 1200","CEDAR RAPIDS","IA",52401,41.9791804920001,-91.667450134,162,"115 3RD ST SE SUITE 1200, CEDAR RAPIDS, IA, 52401","Match","Exact","115 3RD ST SE, CEDAR RAPIDS, IA, 52401",17025668,"R"
28163,"115 3RD ST SOUTH","LONG PRAIRIE","MN",56347,45.972790021,-94.860572522,163,"115 3RD ST SOUTH, LONG PRAIRIE, MN, 56347","Match","Exact","115 3RD ST S, LONG PRAIRIE, MN, 56347",201422928,"L"
28164,"115 5TH STREET","MARYSVILLE","CA",95901,39.1406477020001,-121.585422223,164,"115 5TH STREET, MARYSVILLE, CA, 95901","Match","Exact","115 5TH ST, MARYSVILLE, CA, 95901",106941113,"R"
28165,"115 7TH ST NW","ALTOONA","IA",50009,41.6573777190001,-93.4648658089999,165,"115 7TH ST NW, ALTOONA, IA, 50009","Match","Exact","115 7TH ST NW, ALTOONA, IA, 50009",65803386,"R"
28166,"115 ACORN DRIVE","HENDERSONVILLE","NC",28792,35.3816938730001,-82.482990522,166,"115 ACORN DRIVE, HENDERSONVILLE, NC, 28792","Match","Exact","115 ACORN DR, HENDERSONVILLE, NC, 28792",152310359,"R"
28167,"115 AINSLEY DRIVE","THIBODAUX","LA",70301,29.7875976290001,-90.865312938,167,"115 AINSLEY DRIVE, THIBODAUX, LA, 70301","Match","Exact","115 AINSLEY DR, THIBODAUX, LA, 70301",648289836,"L"
28168,"115 ALECIAS WAY","EVANSTON","WY",82930,41.249006084,-110.954391714,168,"115 ALECIAS WAY, EVANSTON, WY, 82930","Match","Exact","115 ALECIAS WAY, EVANSTON, WY, 82930",614928708,"L"
28169,"115 ALFORD STREET","LAGRANGE","GA",30240,33.038467154,-85.0381361949999,169,"115 ALFORD STREET, LAGRANGE, GA, 30240","Match","Exact","115 ALFORD ST, LAGRANGE, GA, 30240",1761871,"R"
28170,"115 ALOHI PLACE","MAKAWAO","HI",96768,20.842768468,-156.34901859,170,"115 ALOHI PLACE, MAKAWAO, HI, 96768","Match","Exact","115 ALOHI PL, MAKAWAO, HI, 96768",85069454,"L"
28171,"115 ALTA VISTA ROAD","WILLIAMSBURG","NM",87942,33.0532024880001,-107.316381173,171,"115 ALTA VISTA ROAD, WILLIAMSBURG, NM, 87942","Match","Exact","115 ALTA VISTA RD, WILLIAMSBURG, NM, 87942",193110170,"L"
28172,"115 ANACOSTIA AVENUE NE","WASHINGTON","DC",20019,38.8911075950001,-76.961224263,172,"115 ANACOSTIA AVENUE NE, WASHINGTON, DC, 20019","Match","Exact","115 ANACOSTIA AVE NE, WASHINGTON, DC, 20019",640486178,"R"
28173,"115 ANGELS WAY","WINCHESTER","VA",22603,39.293252726,-78.229125385,173,"115 ANGELS WAY, WINCHESTER, VA, 22603","Match","Exact","115 ANGELS WAY, WINCHESTER, VA, 22603",55599805,"L"
28174,"115 ARIELLE DR","NEWARK","DE",19702,39.6442589820001,-75.724865339,174,"115 ARIELLE DR, NEWARK, DE, 19702","Match","Exact","115 ARIELLE DR, NEWARK, DE, 19702",187285155,"L"
28175,"115 ARLINGTON AVE","LAKEWOOD","NJ",8701,40.083503127,-74.208217259,175,"115 ARLINGTON AVE, LAKEWOOD, NJ, 8701","Match","Exact","115 ARLINGTON AVE, LAKEWOOD, NJ, 08701",203724252,"L"
28176,"115 ARROWHEAD DRIVE","HENDERSONVILLE","TN",37075,36.3404863380001,-86.59239632,176,"115 ARROWHEAD DRIVE, HENDERSONVILLE, TN, 37075","Match","Exact","115 ARROWHEAD DR, HENDERSONVILLE, TN, 37075",647233206,"R"
28177,"115 ARUNDEL ROAD","MORRIS PLAINS","NJ",7950,40.870376074,-74.467250747,177,"115 ARUNDEL ROAD, MORRIS PLAINS, NJ, 7950","Match","Exact","115 ARUNDEL RD, MORRIS PLAINS, NJ, 07950",60440909,"L"
28178,"115 ASHLAND PLACE APT 9C","BROOKLYN","NY",11201,40.6922796040001,-73.978988793,178,"115 ASHLAND PLACE APT 9C, BROOKLYN, NY, 11201","Match","Exact","115 ASHLAND PL, BROOKLYN, NY, 11201",650072157,"L"
28179,"115 ASHWORTH DRIVE","DURHAM","NC",27707,35.9437928200001,-78.968972916,179,"115 ASHWORTH DRIVE, DURHAM, NC, 27707","Match","Exact","115 ASHWORTH DR, DURHAM, NC, 27707",71767058,"L"
28180,"115 AUDUBON DRIVE 14","MAUMELLE","AR",72113,34.8509393730001,-92.405302927,180,"115 AUDUBON DRIVE 14, MAUMELLE, AR, 72113","Match","Exact","115 AUDUBON DR, MAUMELLE, AR, 72113",641816694,"R"
28181,"115 AUTRY MILL RD","JOHNS CREEK","GA",30022,34.0254894080001,-84.2334591759999,181,"115 AUTRY MILL RD, JOHNS CREEK, GA, 30022","Match","Exact","115 AUTRY MILL RD, JOHNS CREEK, GA, 30022",17394111,"R"
28182,"115 AVERY PLACE","BUFFALO","NY",14225,42.9151072230001,-78.797766085,182,"115 AVERY PLACE, BUFFALO, NY, 14225","Match","Exact","115 AVERY PL, BUFFALO, NY, 14225",635608222,"R"
28183,"115 AZALEA CIRCLE","ROMEOVILLE","IL",60446,41.6183256690001,-88.134833752,183,"115 AZALEA CIRCLE, ROMEOVILLE, IL, 60446","Match","Exact","115 AZALEA CIR, ROMEOVILLE, IL, 60446",111635841,"L"
28184,"115 B HOMESTEAD DRIVE","MADISON","MS",39110,NA,NA,184,"115 B HOMESTEAD DRIVE, MADISON, MS, 39110","No_Match",NA,NA,NA,NA
28185,"115 BAR 71 LN","LEESVILLE","LA",71446,31.2327852010001,-93.191264611,185,"115 BAR 71 LN, LEESVILLE, LA, 71446","Match","Exact","115 BAR 71 LN, LEESVILLE, LA, 71446",616394331,"L"
28186,"115 BARBARA DRIVE","CLUTE","TX",77531,29.0274965790001,-95.385760252,186,"115 BARBARA DRIVE, CLUTE, TX, 77531","Match","Exact","115 BARBARA DR, CLUTE, TX, 77531",116581241,"R"
28187,"115 BAYBERRY","NORTH LIBERTY","IA",52317,41.739305239,-91.595943669,187,"115 BAYBERRY, NORTH LIBERTY, IA, 52317","Match","Non_Exact","115 BAYBERRY LN, NORTH LIBERTY, IA, 52317",84493602,"R"
28188,"115 BEACON HILL DRIVE","DOBBS FERRY","NY",10522,41.012289391,-73.863578468,188,"115 BEACON HILL DRIVE, DOBBS FERRY, NY, 10522","Match","Exact","115 BEACON HILL DR, DOBBS FERRY, NY, 10522",139825507,"R"
28189,"115 BEACONSFIELD DR","MERIDIANVILLE","AL",35759,34.856055999,-86.588550326,189,"115 BEACONSFIELD DR, MERIDIANVILLE, AL, 35759","Match","Exact","115 BEACONSFIELD DR, MERIDIANVILLE, AL, 35759",627227126,"R"
28190,"115 BEDFORD STREET","WEST BRIDGEWATER","MA",2379,42.0062562520001,-70.9993685489999,190,"115 BEDFORD STREET, WEST BRIDGEWATER, MA, 2379","Match","Exact","115 BEDFORD ST, W BRIDGEWATER, MA, 02379",87463157,"R"
28191,"115 BEECHING STREET","WORCESTER","MA",1602,42.2791712210001,-71.835154018,191,"115 BEECHING STREET, WORCESTER, MA, 1602","Match","Exact","115 BEECHING ST, WORCESTER, MA, 01602",40007462,"L"
28192,"115 BEECHWOOD ROAD","FT MITCHELL","KY",41017,39.048954973,-84.556826519,192,"115 BEECHWOOD ROAD, FT MITCHELL, KY, 41017","Match","Exact","115 BEECHWOOD RD, FORT MITCHELL, KY, 41017",103875007,"L"
28193,"115 BERNHART ROAD","WALLKILL","NY",12589,NA,NA,193,"115 BERNHART ROAD, WALLKILL, NY, 12589","No_Match",NA,NA,NA,NA
28194,"115 BIRCH AVE","BALA CYNWYD","PA",19004,40.001657247,-75.234873744,194,"115 BIRCH AVE, BALA CYNWYD, PA, 19004","Match","Exact","115 BIRCH AVE, BALA CYNWYD, PA, 19004",135091542,"R"
28195,"115 BLUE HERON LANE","HEATH","TX",75032,32.8651469180001,-96.4732817669999,195,"115 BLUE HERON LANE, HEATH, TX, 75032","Match","Exact","115 BLUE HERON LN, HEATH, TX, 75032",123785197,"R"
28196,"115 BLUE RIDGE TRAIL","POWDER SPRINGS","GA",30127,33.821873071,-84.729235699,196,"115 BLUE RIDGE TRAIL, POWDER SPRINGS, GA, 30127","Match","Exact","115 BLUE RIDGE TRL, POWDER SPGS, GA, 30127",17745169,"L"
28197,"115 BLUE STREAK BLVD","LANCASTER","PA",17606,NA,NA,197,"115 BLUE STREAK BLVD, LANCASTER, PA, 17606","No_Match",NA,NA,NA,NA
28198,"115 BLUE STREAK BOULEVARD","LANCASTER","PA",17601,NA,NA,198,"115 BLUE STREAK BOULEVARD, LANCASTER, PA, 17601","No_Match",NA,NA,NA,NA
28199,"115 BLUEGILL LN","STATESVILLE","NC",28625,35.881355952,-80.9013279769999,199,"115 BLUEGILL LN, STATESVILLE, NC, 28625","Match","Exact","115 BLUEGILL LN, STATESVILLE, NC, 28625",634966840,"R"
28200,"115 BOOKER PALM","SAN ANTONIO","TX",78239,29.5272795130001,-98.381477984,200,"115 BOOKER PALM, SAN ANTONIO, TX, 78239","Match","Exact","115 BOOKER PALM, SAN ANTONIO, TX, 78239",101760610,"L"
28201,"115 BRANTLEY STREET","NAHUNTA","GA",31153,NA,NA,201,"115 BRANTLEY STREET, NAHUNTA, GA, 31153","No_Match",NA,NA,NA,NA
28202,"115 BRIDLE ROAD","GLENSHAW","PA",15116,40.5449397360001,-79.974367947,202,"115 BRIDLE ROAD, GLENSHAW, PA, 15116","Match","Exact","115 BRIDLE RD, GLENSHAW, PA, 15116",51640148,"L"
28203,"115 BRISTOL CT","PLANO","TX",75019,32.9699184460001,-96.98842938,203,"115 BRISTOL CT, PLANO, TX, 75019","Match","Non_Exact","115 BRISTOL CT, COPPELL, TX, 75019",102997535,"R"
28204,"115 BROAD STREET","SALISBURY","MD",21801,38.367411073,-75.598631112,204,"115 BROAD STREET, SALISBURY, MD, 21801","Match","Exact","115 BROAD ST, SALISBURY, MD, 21801",641649601,"L"
28205,"115 BROOKLYN AVE","DAYTON","OH",45417,39.75255858,-84.239957013,205,"115 BROOKLYN AVE, DAYTON, OH, 45417","Match","Exact","115 BROOKLYN AVE, DAYTON, OH, 45417",143567457,"L"
28206,"115 BROWN AVE NW","CANTON","OH",44703,40.8011519450001,-81.3866142429999,206,"115 BROWN AVE NW, CANTON, OH, 44703","Match","Exact","115 BROWN AVE NW, CANTON, OH, 44703",64680703,"L"
28207,"115 BULLOCK RD","CHADDS FORD","PA",19317,39.859752911,-75.593083997,207,"115 BULLOCK RD, CHADDS FORD, PA, 19317","Match","Exact","115 BULLOCK RD, CHADDS FORD, PA, 19317",606679234,"R"
28208,"115 BURKE DRIVE","BUFFALO","NY",14215,42.9449040370001,-78.799393879,208,"115 BURKE DRIVE, BUFFALO, NY, 14215","Match","Exact","115 BURKE DR, BUFFALO, NY, 14215",48297179,"R"
28209,"115 CABIN LANE","PITTSBURGH","PA",15238,40.5169077520001,-79.864302128,209,"115 CABIN LANE, PITTSBURGH, PA, 15238","Match","Exact","115 CABIN LN, PITTSBURGH, PA, 15238",51665323,"L"
28210,"115 CACCIOLA PL","WESTFIELD","NJ",7090,40.647901835,-74.3402087279999,210,"115 CACCIOLA PL, WESTFIELD, NJ, 7090","Match","Exact","115 CACCIOLA PL, WESTFIELD, NJ, 07090",60573684,"L"
28211,"115 CAMBRIDGE DRIVE","ABERDEEN","NJ",7747,40.4000258570001,-74.219727717,211,"115 CAMBRIDGE DRIVE, ABERDEEN, NJ, 7747","Match","Exact","115 CAMBRIDGE DR, ABERDEEN, NJ, 07747",90473675,"L"
28212,"115 CAUDLE DRIVE","EVA","AL",35621,34.3214842350001,-86.661533262,212,"115 CAUDLE DRIVE, EVA, AL, 35621","Match","Exact","115 CAUDLE DR, EVA, AL, 35621",635791882,"R"
28213,"115 CEDAR DR","DOVER","PA",17315,40.00374169,-76.845242298,213,"115 CEDAR DR, DOVER, PA, 17315","Match","Exact","115 CEDAR DR, DOVER, PA, 17315",88754489,"L"
28214,"115 CEMETARY ROAD","NEW BRAINTREE","MA",1531,42.313280461,-72.0986220579999,214,"115 CEMETARY ROAD, NEW BRAINTREE, MA, 1531","Match","Non_Exact","115 CEMETERY RD, NEW BRAINTREE, MA, 01531",39995957,"R"
28215,"115 CENTRAL ISLAND STREET SUITE 300","CHARLESTON","SC",29492,32.8632700900001,-79.906548202,215,"115 CENTRAL ISLAND STREET SUITE 300, CHARLESTON, SC, 29492","Match","Exact","115 CENTRAL ISLAND ST, CHARLESTON, SC, 29492",653319508,"L"
28216,"115 CENTRAL PARK WEST SUITE 15C","NEW YORK","NY",10023,40.775938802,-73.976168441,216,"115 CENTRAL PARK WEST SUITE 15C, NEW YORK, NY, 10023","Match","Exact","115 CENTRAL PARK W, NEW YORK, NY, 10023",59657077,"L"
28217,"115 CENTRAL PLAZA NORTH","CANTON","OH",44702,40.798616343,-81.3748290349999,217,"115 CENTRAL PLAZA NORTH, CANTON, OH, 44702","Match","Exact","115 CENTRAL PLZ N, CANTON, OH, 44702",64682242,"L"
28218,"115 CHANCELLORSVILLE DRIVE","STEPHENS CITY","VA",22655,39.091139685,-78.1692387149999,218,"115 CHANCELLORSVILLE DRIVE, STEPHENS CITY, VA, 22655","Match","Exact","115 CHANCELLORSVILLE DR, STEPHENS CITY, VA, 22655",55593679,"L"
28219,"115 CHAPEL PLACE","AMSTERDAM","NY",12010,42.957894466,-74.1951679319999,219,"115 CHAPEL PLACE, AMSTERDAM, NY, 12010","Match","Exact","115 CHAPEL PL, AMSTERDAM, NY, 12010",18621151,"R"
28220,"115 CHAPEL WAY","BUMPASS","VA",23024,37.823539925,-77.8191785229999,220,"115 CHAPEL WAY, BUMPASS, VA, 23024","Match","Exact","115 CHAPEL WAY, BUMPASS, VA, 23024",84948374,"R"
28221,"115 CHARLES STREET APT 4","NEW YORK","NY",10014,40.734409875,-74.0064255619999,221,"115 CHARLES STREET APT 4, NEW YORK, NY, 10014","Match","Exact","115 CHARLES ST, NEW YORK, NY, 10014",59659869,"R"
28222,"115 CHARLES STREET APT 6","NEW YORK","NY",10014,40.734409875,-74.0064255619999,222,"115 CHARLES STREET APT 6, NEW YORK, NY, 10014","Match","Exact","115 CHARLES ST, NEW YORK, NY, 10014",59659869,"R"
28223,"115 CHELSEA PLACE","MT LAUREL","NJ",8054,39.957934112,-74.927396856,223,"115 CHELSEA PLACE, MT LAUREL, NJ, 8054","Match","Exact","115 CHELSEA PL, MOUNT LAUREL, NJ, 08054",134031205,"R"
28224,"115 CHESTER STREET SUITE B","FRONT ROYAL","VA",22630,38.920048851,-78.191781976,224,"115 CHESTER STREET SUITE B, FRONT ROYAL, VA, 22630","Match","Exact","115 CHESTER ST, FRONT ROYAL, VA, 22630",159091828,"R"
28225,"115 CHRIS COLUMBUS DR  SUITE 202","JERSEY CITY","NJ",7302,NA,NA,225,"115 CHRIS COLUMBUS DR  SUITE 202, JERSEY CITY, NJ, 7302","No_Match",NA,NA,NA,NA
28226,"115 CHURCH STREET","HOOSICK FALLS","NY",12090,42.8984324620001,-73.3519345129999,226,"115 CHURCH STREET, HOOSICK FALLS, NY, 12090","Match","Exact","115 CHURCH ST, HOOSICK FALLS, NY, 12090",35751067,"L"
28227,"115 CIMMARON COURT","CARY","NC",27511,35.779060798,-78.7975333059999,227,"115 CIMMARON COURT, CARY, NC, 27511","Match","Exact","115 CIMMARON CT, CARY, NC, 27511",72554128,"L"
28228,"115 CINNAMON TREE DR","ABINGDON","MD",21009,39.485828596,-76.313816704,228,"115 CINNAMON TREE DR, ABINGDON, MD, 21009","Match","Exact","115 CINNAMON TREE DR, ABINGDON, MD, 21009",191648724,"L"
28229,"115 CIRCLE DR","HAMPSTEAD","NC",28443,34.3446772230001,-77.7074165509999,229,"115 CIRCLE DR, HAMPSTEAD, NC, 28443","Match","Exact","115 CIRCLE DR, HAMPSTEAD, NC, 28443",14142836,"L"
28230,"115 CLAIRIDGE LN","LAWRENCEVILLE","GA",30046,33.919678176,-83.99203654,230,"115 CLAIRIDGE LN, LAWRENCEVILLE, GA, 30046","Match","Exact","115 CLAIRIDGE LN, LAWRENCEVILLE, GA, 30046",625088304,"R"
28231,"115 CLEARMEADOW","ALEXANDRIA","KY",41001,38.9404173770001,-84.386467032,231,"115 CLEARMEADOW, ALEXANDRIA, KY, 41001","Match","Non_Exact","115 CLEARMEADOW DR, ALEXANDRIA, KY, 41001",104455663,"L"
28232,"115 COASTAL WAY","CHESAPEAKE","VA",23320,36.7661552910001,-76.250081299,232,"115 COASTAL WAY, CHESAPEAKE, VA, 23320","Match","Exact","115 COASTAL WAY, CHESAPEAKE, VA, 23320",121772364,"R"
28233,"115 COPPER ROCK COVE","VICTORIA","TX",77904,NA,NA,233,"115 COPPER ROCK COVE, VICTORIA, TX, 77904","No_Match",NA,NA,NA,NA
28234,"115 COPPERSTONE CIRCLE","CLARKSVILLE","TN",37043,36.5030070930001,-87.2363452069999,234,"115 COPPERSTONE CIRCLE, CLARKSVILLE, TN, 37043","Match","Non_Exact","115 COPPERSTONE DR, CLARKSVILLE, TN, 37043",642254695,"R"
28235,"115 CORNELL DR SE 40723","ALBUQUERQUE","NM",87196,35.080597244,-106.619552226,235,"115 CORNELL DR SE 40723, ALBUQUERQUE, NM, 87196","Match","Non_Exact","115 CORNELL DR SE, ALBUQUERQUE, NM, 87106",206710004,"R"
28236,"115 CR 9740","CARRIZO SPRINGS","TX",78834,NA,NA,236,"115 CR 9740, CARRIZO SPRINGS, TX, 78834","No_Match",NA,NA,NA,NA
28237,"115 CRANBURY DRIVE","TRUMBULL","CT",6611,41.293590597,-73.205624604,237,"115 CRANBURY DRIVE, TRUMBULL, CT, 6611","Match","Exact","115 CRANBURY DR, TRUMBULL, CT, 06611",3218107,"R"
28238,"115 CREEKSIDE LANE","BEECH CREEK","PA",16822,41.0752296590001,-77.5927586179999,238,"115 CREEKSIDE LANE, BEECH CREEK, PA, 16822","Match","Exact","115 CREEKSIDE LN, BEECH CREEK, PA, 16822",50368609,"L"
28239,"115 CRESTVIEW DR","GUYTON","GA",31312,32.195996569,-81.366183478,239,"115 CRESTVIEW DR, GUYTON, GA, 31312","Match","Exact","115 CRESTVIEW DR, GUYTON, GA, 31312",619923009,"R"
28240,"115 CRESTVIEW LAN","FITCHBURG","MA",1420,42.561621829,-71.786324657,240,"115 CRESTVIEW LAN, FITCHBURG, MA, 1420","Match","Non_Exact","115 CRESTVIEW LN, FITCHBURG, MA, 01420",40028857,"R"
28241,"115 CRIPPLE CREEK  DRIVE","LOUISBURG","NC",27549,36.1047180360001,-78.33125117,241,"115 CRIPPLE CREEK  DRIVE, LOUISBURG, NC, 27549","Match","Exact","115 CRIPPLE CREEK DR, LOUISBURG, NC, 27549",653493945,"L"
28242,"115 CRYSTAL BEACH BLVD","MORICHES","NY",11955,40.7914541270001,-72.817982829,242,"115 CRYSTAL BEACH BLVD, MORICHES, NY, 11955","Match","Exact","115 CRYSTAL BEACH BLVD, MORICHES, NY, 11955",114021401,"L"
28243,"115 CYPRESS DRIVE","BROCKTON","MA",2301,42.0788731060001,-71.059364188,243,"115 CYPRESS DRIVE, BROCKTON, MA, 2301","Match","Exact","115 CYPRESS DR, BROCKTON, MA, 02301",87465554,"R"
28244,"115 DAVID DR","HAMMOND","LA",70403,NA,NA,244,"115 DAVID DR, HAMMOND, LA, 70403","No_Match",NA,NA,NA,NA
28245,"115 DEAN DR STE D","SANTA PAULA","CA",93060,34.349399713,-119.077431029,245,"115 DEAN DR STE D, SANTA PAULA, CA, 93060","Match","Exact","115 DEAN DR, SANTA PAULA, CA, 93060",109988633,"R"
28246,"115 DEE HEAD ROAD","NEW HAVEN","KY",40051,37.648325211,-85.534043445,246,"115 DEE HEAD ROAD, NEW HAVEN, KY, 40051","Match","Exact","115 DEE HEAD RD, NEW HAVEN, KY, 40051",35143756,"L"
28247,"115 DEVRIES AVENUE","SLEEPY HOLLOW","NY",10591,41.090749427,-73.865083892,247,"115 DEVRIES AVENUE, SLEEPY HOLLOW, NY, 10591","Match","Exact","115 DEVRIES AVE, SLEEPY HOLLOW, NY, 10591",139730721,"L"
28248,"115 DEWITT AVENUE","ASBURY PARK","NJ",7712,40.215626023,-74.023219476,248,"115 DEWITT AVENUE, ASBURY PARK, NJ, 7712","Match","Exact","115 DEWITT AVE, ASBURY PARK, NJ, 07712",647646240,"L"
28249,"115 DICKINSON AVE","MONROE","WA",98272,47.8525909510001,-121.982504107,249,"115 DICKINSON AVE, MONROE, WA, 98272","Match","Non_Exact","115 DICKINSON RD, MONROE, WA, 98272",187797030,"R"
28250,"115 DICKINSON ROAD","MONROE","WA",98272,47.8525909510001,-121.982504107,250,"115 DICKINSON ROAD, MONROE, WA, 98272","Match","Exact","115 DICKINSON RD, MONROE, WA, 98272",187797030,"R"
28251,"115 DOUBLE CREEK DR","JARRELL","TX",76537,30.8361661370001,-97.6223738049999,251,"115 DOUBLE CREEK DR, JARRELL, TX, 76537","Match","Exact","115 DOUBLE CREEK DR, JARRELL, TX, 76537",634435445,"L"
28252,"115 DOVER COURT","BOSSIER CITY","LA",71111,32.5657400040001,-93.7137313059999,252,"115 DOVER COURT, BOSSIER CITY, LA, 71111","Match","Exact","115 DOVER CT, BOSSIER CITY, LA, 71111",108522169,"R"
28253,"115 DOVER FURNACE RD","DOVER PLAINS","NY",12522,41.683831137,-73.585373835,253,"115 DOVER FURNACE RD, DOVER PLAINS, NY, 12522","Match","Exact","115 DOVER FURNACE RD, DOVER PLAINS, NY, 12522",648339629,"R"
28254,"115 DOVER FURNANCE ROAD","DOVER PLAINS","NY",12522,NA,NA,254,"115 DOVER FURNANCE ROAD, DOVER PLAINS, NY, 12522","No_Match",NA,NA,NA,NA
28255,"115 DUREN FARMS DRIVE","LITHONIA","GA",30058,NA,NA,255,"115 DUREN FARMS DRIVE, LITHONIA, GA, 30058","No_Match",NA,NA,NA,NA
28256,"115 E 116 STREET","NEW YORK","NY",10029,40.79904938,-73.942603075,256,"115 E 116 STREET, NEW YORK, NY, 10029","Match","Exact","115 E 116TH ST, NEW YORK, NY, 10029",59658039,"L"
28257,"115 E 18TH ST","HOLLAND","MI",49423,42.781266648,-86.1019681239999,257,"115 E 18TH ST, HOLLAND, MI, 49423","Match","Exact","115 E 18TH ST, HOLLAND, MI, 49423",71077735,"L"
28258,"115 E 54TH STREET 302","MINNEAPOLIS","MN",55419,44.9051691490001,-93.276506302,258,"115 E 54TH STREET 302, MINNEAPOLIS, MN, 55419","Match","Non_Exact","115 E 54TH ST, MINNEAPOLIS, MN, 55419",43634341,"R"
28259,"115 E 8TH AVE","HAVANA","FL",32333,NA,NA,259,"115 E 8TH AVE, HAVANA, FL, 32333","Tie",NA,NA,NA,NA
28260,"115 E 95TH STREET","CHICAGO","IL",60619,41.721782606,-87.6202616959999,260,"115 E 95TH STREET, CHICAGO, IL, 60619","Match","Exact","115 E 95TH ST, CHICAGO, IL, 60619",111773243,"R"
28261,"115 E 9TH AVE","WINFIELD","KS",67156,37.240307724,-96.996933466,261,"115 E 9TH AVE, WINFIELD, KS, 67156","Match","Exact","115 E 9TH AVE, WINFIELD, KS, 67156",44348858,"R"
28262,"115 E BROADWAY APT B102","SAN GABRIEL","CA",91776,NA,NA,262,"115 E BROADWAY APT B102, SAN GABRIEL, CA, 91776","Tie",NA,NA,NA,NA
28263,"115 E CALHOUN ST","SALEM","VA",24153,37.2922091930001,-80.0562784319999,263,"115 E CALHOUN ST, SALEM, VA, 24153","Match","Exact","115 E CALHOUN ST, SALEM, VA, 24153",62901188,"L"
28264,"115 E CANNON ST","LAGRANGE","GA",30241,33.028553301,-85.028347388,264,"115 E CANNON ST, LAGRANGE, GA, 30241","Match","Exact","115 E CANNON ST, LAGRANGE, GA, 30241",1760004,"L"
28265,"115 E CHARLESTON AVENUE","WILDWOOD CREST","NJ",8043,NA,NA,265,"115 E CHARLESTON AVENUE, WILDWOOD CREST, NJ, 8043","No_Match",NA,NA,NA,NA
28266,"115 E COLLEGE AVE ROOM 5","ALVARADO","TX",76009,32.406922604,-97.2121221579999,266,"115 E COLLEGE AVE ROOM 5, ALVARADO, TX, 76009","Match","Non_Exact","115 E COLLEGE AVE, ALVARADO, TX, 76009",103519760,"L"
28267,"115 E COMMERCE","MEXIA","TX",76667,31.681056518,-96.484608204,267,"115 E COMMERCE, MEXIA, TX, 76667","Match","Non_Exact","115 E COMMERCE ST, MEXIA, TX, 76667",25049268,"L"
28268,"115 E DEWEY","NAMPA","ID",83686,43.563437982,-116.571967397,268,"115 E DEWEY, NAMPA, ID, 83686","Match","Non_Exact","115 E DEWEY AVE, NAMPA, ID, 83686",638378818,"R"
28269,"115 E EVERGREEN ROAD","LEBANON","PA",17042,40.3088617240001,-76.4043167149999,269,"115 E EVERGREEN ROAD, LEBANON, PA, 17042","Match","Exact","115 E EVERGREEN RD, LEBANON, PA, 17042",80674707,"L"
28270,"115 E FALL CREEK PARKWAY SOUTH DR","INDIANAPOLIS","IN",46205,39.804352802,-86.154751839,270,"115 E FALL CREEK PARKWAY SOUTH DR, INDIANAPOLIS, IN, 46205","Match","Exact","115 E FALL CREEK PKWY S DR, INDIANAPOLIS, IN, 46205",107989655,"R"
28271,"115 E FITZSIMMONS RD","OAK CREEK","WI",53154,42.864815202,-87.9126015319999,271,"115 E FITZSIMMONS RD, OAK CREEK, WI, 53154","Match","Exact","115 E FITZSIMMONS RD, OAK CREEK, WI, 53154",77723220,"R"
28272,"115 E GOODWIN SUITE H","PRESCOTT","AZ",86303,NA,NA,272,"115 E GOODWIN SUITE H, PRESCOTT, AZ, 86303","No_Match",NA,NA,NA,NA
28273,"115 E HARVARD ST","LAKEWOOD","NJ",8701,NA,NA,273,"115 E HARVARD ST, LAKEWOOD, NJ, 8701","Tie",NA,NA,NA,NA
28274,"115 E HINDS AVE","SHERRILL","NY",13461,43.069818608,-75.6003531379999,274,"115 E HINDS AVE, SHERRILL, NY, 13461","Match","Exact","115 E HINDS AVE, SHERRILL, NY, 13461",171542359,"L"
28275,"115 E LAKE STREET","MINNEAPOLIS","MN",55408,44.9483451310001,-93.2764219539999,275,"115 E LAKE STREET, MINNEAPOLIS, MN, 55408","Match","Exact","115 E LAKE ST, MINNEAPOLIS, MN, 55408",43633547,"R"
28276,"115 E LIPOA STREET","KIHEI","HI",96753,20.748130244,-156.45025056,276,"115 E LIPOA STREET, KIHEI, HI, 96753","Match","Exact","115 E LIPOA ST, KIHEI, HI, 96753",85102258,"R"
28277,"115 E LOGAN ST","BRAZIL","IN",47834,39.5279599470001,-87.127052673,277,"115 E LOGAN ST, BRAZIL, IN, 47834","Match","Exact","115 E LOGAN ST, BRAZIL, IN, 47834",41741631,"L"
28278,"115 E MAIN STREET SUITE A1B-7D","BUFORD","GA",30518,34.1189637680001,-84.007843886,278,"115 E MAIN STREET SUITE A1B-7D, BUFORD, GA, 30518","Match","Non_Exact","115 W MAIN ST, BUFORD, GA, 30518",88882239,"R"
28279,"115 E MICHELTORENA STREET STE 200","SANTA BARBARA","CA",93101,NA,NA,279,"115 E MICHELTORENA STREET STE 200, SANTA BARBARA, CA, 93101","Tie",NA,NA,NA,NA
28280,"115 E MILLARD ST","NEW LONDON","WI",54961,44.383055417,-88.739268338,280,"115 E MILLARD ST, NEW LONDON, WI, 54961","Match","Exact","115 E MILLARD ST, NEW LONDON, WI, 54961",74951194,"R"
28281,"115 E MONROE AVENUE APT 400","SAINT LOUIS","MO",63122,NA,NA,281,"115 E MONROE AVENUE APT 400, SAINT LOUIS, MO, 63122","Tie",NA,NA,NA,NA
28282,"115 E PARADISE LN","PHOENIX","AZ",85022,33.6313603620001,-112.072834037,282,"115 E PARADISE LN, PHOENIX, AZ, 85022","Match","Exact","115 E PARADISE LN, PHOENIX, AZ, 85022",128914724,"R"
28283,"115 E PUTNAM AVE STE 100","GREENWICH","CT",6830,NA,NA,283,"115 E PUTNAM AVE STE 100, GREENWICH, CT, 6830","Tie",NA,NA,NA,NA
28284,"115 E REED ST APT 307","SAN JOSE","CA",95112,37.3282646270001,-121.881336404,284,"115 E REED ST APT 307, SAN JOSE, CA, 95112","Match","Non_Exact","115 E REED ST, SAN JOSE, CA, 95112",122908765,"L"
28285,"115 E SANTA CLARA STREET / SUITE 7","SAN JOSE","CA",95116,NA,NA,285,"115 E SANTA CLARA STREET / SUITE 7, SAN JOSE, CA, 95116","No_Match",NA,NA,NA,NA
28286,"115 E WASHINGTON ST","GREENWOOD","MS",38930,33.519796693,-90.1809828,286,"115 E WASHINGTON ST, GREENWOOD, MS, 38930","Match","Exact","115 E WASHINGTON ST, GREENWOOD, MS, 38930",1048392,"L"
28287,"115 E WOODSIDE ST","SOUTH BEND","IN",46614,41.644416537,-86.2487130119999,287,"115 E WOODSIDE ST, SOUTH BEND, IN, 46614","Match","Exact","115 E WOODSIDE ST, SOUTH BEND, IN, 46614",8082627,"L"
28288,"115 E54TH STREET 302","MINNEAPOLIS","MN",55419,NA,NA,288,"115 E54TH STREET 302, MINNEAPOLIS, MN, 55419","No_Match",NA,NA,NA,NA
28289,"115 EAGLE LANE","JONESBORO","GA",30238,33.478091867,-84.4050112589999,289,"115 EAGLE LANE, JONESBORO, GA, 30238","Match","Exact","115 EAGLE LN, JONESBORO, GA, 30238",75933527,"R"
28290,"115 EAST 116TH STREET SUITE 5A","NEW YORK","NY",10029,40.799060017,-73.942628143,290,"115 EAST 116TH STREET SUITE 5A, NEW YORK, NY, 10029","Match","Exact","115 E 116TH ST, NEW YORK, NY, 10029",59658039,"L"
28291,"115 EAST 87TH STREET","NEW YORK","NY",10128,40.7806243900001,-73.9561409299999,291,"115 EAST 87TH STREET, NEW YORK, NY, 10128","Match","Exact","115 E 87TH ST, NEW YORK, NY, 10128",642471756,"L"
28292,"115 EAST CHURCH STREET","OZARK","MO",65721,NA,NA,292,"115 EAST CHURCH STREET, OZARK, MO, 65721","Tie",NA,NA,NA,NA
28293,"115 EAST COLLEGE AVE NUMBER 125","ROSWELL","NM",88202,NA,NA,293,"115 EAST COLLEGE AVE NUMBER 125, ROSWELL, NM, 88202","No_Match",NA,NA,NA,NA
28294,"115 EAST COLLEGE BOULEVARD BOX 117","ROSWELL","NM",88201,33.4086865740001,-104.522493305,294,"115 EAST COLLEGE BOULEVARD BOX 117, ROSWELL, NM, 88201","Match","Exact","115 E COLLEGE BLVD, ROSWELL, NM, 88201",639474789,"R"
28295,"115 EAST COLLEGE STREET APT B","GRANVILLE","OH",43023,40.069159659,-82.519668398,295,"115 EAST COLLEGE STREET APT B, GRANVILLE, OH, 43023","Match","Exact","115 E COLLEGE ST, GRANVILLE, OH, 43023",61503045,"L"
28296,"115 EAST DAYTON STREET","FREMONT","MI",49412,43.468027755,-85.942873025,296,"115 EAST DAYTON STREET, FREMONT, MI, 49412","Match","Exact","115 E DAYTON ST, FREMONT, MI, 49412",150218647,"R"
28297,"115 EAST EVERGREEN RD","LEBANON","PA",17042,40.3088603470001,-76.404318046,297,"115 EAST EVERGREEN RD, LEBANON, PA, 17042","Match","Exact","115 E EVERGREEN RD, LEBANON, PA, 17042",80674707,"L"
28298,"115 EAST HARDEN STREET","GRAHAM","NC",27253,36.070701291,-79.399982161,298,"115 EAST HARDEN STREET, GRAHAM, NC, 27253","Match","Exact","115 E HARDEN ST, GRAHAM, NC, 27253",71665358,"R"
28299,"115 EAST MAIN ST","NEW LONDON","OH",44851,41.0849714300001,-82.395688948,299,"115 EAST MAIN ST, NEW LONDON, OH, 44851","Match","Exact","115 E MAIN ST, NEW LONDON, OH, 44851",12611960,"R"
28300,"115 EAST MAIN STREET","ALLEGANY","NY",14706,42.084613276,-78.485613547,300,"115 EAST MAIN STREET, ALLEGANY, NY, 14706","Match","Exact","115 E MAIN ST, ALLEGANY, NY, 14706",122032984,"R"
28301,"115 EAST MAIN STREET","NEW LONDON","OH",44851,41.0849714300001,-82.395688948,301,"115 EAST MAIN STREET, NEW LONDON, OH, 44851","Match","Exact","115 E MAIN ST, NEW LONDON, OH, 44851",12611960,"R"
28302,"115 EAST MAIN STREET","VAN BUREN","IN",46991,40.61751036,-85.5042407129999,302,"115 EAST MAIN STREET, VAN BUREN, IN, 46991","Match","Exact","115 E MAIN ST, VAN BUREN, IN, 46991",95017641,"L"
28303,"115 EAST PARK AVENUE STE 1","TALLAHASSEE","FL",32301,30.4418741320001,-84.28173201,303,"115 EAST PARK AVENUE STE 1, TALLAHASSEE, FL, 32301","Match","Exact","115 E PARK AVE, TALLAHASSEE, FL, 32301",82850766,"R"
28304,"115 EAST TIERRA BUENA LANE","PHOENIX","AZ",85022,33.6289224240001,-112.072648305,304,"115 EAST TIERRA BUENA LANE, PHOENIX, AZ, 85022","Match","Exact","115 E TIERRA BUENA LN, PHOENIX, AZ, 85022",128183002,"L"
28305,"115 EAST UTICA ST","BUFFALO","NY",14209,42.911194149,-78.861661516,305,"115 EAST UTICA ST, BUFFALO, NY, 14209","Match","Exact","115 E UTICA ST, BUFFALO, NY, 14209",48289811,"R"
28306,"115 EAST VAN FLEET DRIVE SUITE 313","BARTOW","FM",33830,NA,NA,306,"115 EAST VAN FLEET DRIVE SUITE 313, BARTOW, FM, 33830","No_Match",NA,NA,NA,NA
28307,"115 EAST WALL STREET","SHERMAN","TX",75092,33.6377532180001,-96.608955545,307,"115 EAST WALL STREET, SHERMAN, TX, 75092","Match","Non_Exact","115 E WALL ST, SHERMAN, TX, 75090",63355790,"L"
28308,"115 EAST WEDGEWOOD CIRCLE","NEWNAN","GA",30263,33.387558384,-84.833777944,308,"115 EAST WEDGEWOOD CIRCLE, NEWNAN, GA, 30263","Match","Exact","115 E WEDGEWOOD CIR, NEWNAN, GA, 30263",9343069,"L"
28309,"115 EDGAR STREET","LINCOLN","IL",62656,40.1573481900001,-89.3713669049999,309,"115 EDGAR STREET, LINCOLN, IL, 62656","Match","Exact","115 EDGAR ST, LINCOLN, IL, 62656",22445947,"L"
28310,"115 EGYPTIAN TRAIL","ARCOLA","IL",61910,NA,NA,310,"115 EGYPTIAN TRAIL, ARCOLA, IL, 61910","No_Match",NA,NA,NA,NA
28311,"115 ELIOT ST","CHESTNUT HILL","MA",2467,42.328570701,-71.148369526,311,"115 ELIOT ST, CHESTNUT HILL, MA, 2467","Match","Exact","115 ELIOT ST, CHESTNUT HILL, MA, 02467",87244686,"R"
28312,"115 ELIOT STREET","CHESTNUT HILL","MA",2467,42.328570701,-71.148369526,312,"115 ELIOT STREET, CHESTNUT HILL, MA, 2467","Match","Exact","115 ELIOT ST, CHESTNUT HILL, MA, 02467",87244686,"R"
28313,"115 ELLIS FARM ROAD","COLUMBIANA","AL",35051,33.1783302910001,-86.593779017,313,"115 ELLIS FARM ROAD, COLUMBIANA, AL, 35051","Match","Exact","115 ELLIS FARM RD, COLUMBIANA, AL, 35051",640800934,"L"
28314,"115 ELM STREET","KINGSTON","MA",2364,41.985797753,-70.737426285,314,"115 ELM STREET, KINGSTON, MA, 2364","Match","Exact","115 ELM ST, KINGSTON, MA, 02364",87488038,"R"
28315,"115 ELMWOOD AVE","BUFFALO","NY",14201,42.900196394,-78.877162369,315,"115 ELMWOOD AVE, BUFFALO, NY, 14201","Match","Exact","115 ELMWOOD AVE, BUFFALO, NY, 14201",48290433,"R"
28316,"115 EMBLETON ROAD","OWINGS MILLS","MD",21117,39.441629947,-76.7945433359999,316,"115 EMBLETON ROAD, OWINGS MILLS, MD, 21117","Match","Exact","115 EMBLETON RD, OWINGS MILLS, MD, 21117",191465488,"R"
28317,"115 EVERGREEN LANE","UPPER SANDUSKY","OH",43351,40.827911412,-83.265464094,317,"115 EVERGREEN LANE, UPPER SANDUSKY, OH, 43351","Match","Exact","115 EVERGREEN LN, UPPER SANDUSKY, OH, 43351",13052024,"R"
28318,"115 FELLER CURVE","VAN METER","IA",50261,41.5258009820001,-93.959893548,318,"115 FELLER CURVE, VAN METER, IA, 50261","Match","Exact","115 FELLER CURV, VAN METER, IA, 50261",65633056,"L"
28319,"115 FILBERT STREET","HAMDEN","CT",6517,41.3648367340001,-72.91233715,319,"115 FILBERT STREET, HAMDEN, CT, 6517","Match","Exact","115 FILBERT ST, HAMDEN, CT, 06517",3699422,"R"
28320,"115 FIREHOUSE ROAD","POCONO PINES","PA",18350,41.106372917,-75.475203764,320,"115 FIREHOUSE ROAD, POCONO PINES, PA, 18350","Match","Exact","115 FIREHOUSE RD, POCONO PINES, PA, 18350",648019203,"L"
28321,"115 FIRST STREET","KEYPORT","NJ",7735,40.4388496620001,-74.1979303159999,321,"115 FIRST STREET, KEYPORT, NJ, 7735","Match","Exact","115 1ST ST, KEYPORT, NJ, 07735",90536327,"L"
28322,"115 FLAHERTY LANE","FRIENDSVILLE","PA",18818,NA,NA,322,"115 FLAHERTY LANE, FRIENDSVILLE, PA, 18818","No_Match",NA,NA,NA,NA
28323,"115 FLYING CLOUD ISLE","FOSTER CITY","CA",94404,37.5652305880001,-122.26435034,323,"115 FLYING CLOUD ISLE, FOSTER CITY, CA, 94404","Match","Exact","115 FLYING CLOUD ISLE, FOSTER CITY, CA, 94404",192384380,"L"
28324,"115 FOURTH STREET","WHITESBORO","TX",76273,33.663773292,-96.906896758,324,"115 FOURTH STREET, WHITESBORO, TX, 76273","Match","Exact","115 4TH ST, WHITESBORO, TX, 76273",63346238,"R"
28325,"115 FRANK EDWARDS ROAD","ELLABELL","GA",31308,NA,NA,325,"115 FRANK EDWARDS ROAD, ELLABELL, GA, 31308","No_Match",NA,NA,NA,NA
28326,"115 FRANKLIN STREET NE SUITE H-21","WASHINGTON","DC",20002,38.9261176740001,-77.00525426,326,"115 FRANKLIN STREET NE SUITE H-21, WASHINGTON, DC, 20002","Match","Exact","115 FRANKLIN ST NE, WASHINGTON, DC, 20002",76224561,"R"
28327,"115 FREDERICK ST R1","NEW HAVEN","CT",6515,41.3338995350001,-72.9794756919999,327,"115 FREDERICK ST R1, NEW HAVEN, CT, 6515","Match","Exact","115 FREDERICK ST, NEW HAVEN, CT, 06515",3697079,"R"
28328,"115 FREHOLD COURT","CARY","NC",27519,35.8042924580001,-78.858023236,328,"115 FREHOLD COURT, CARY, NC, 27519","Match","Exact","115 FREHOLD CT, CARY, NC, 27519",72655176,"R"
28329,"115 FRONT STREET STE 300","JUPITER","FL",33477,NA,NA,329,"115 FRONT STREET STE 300, JUPITER, FL, 33477","No_Match",NA,NA,NA,NA
28330,"115 FRONT STREET","SMYRNA","TN",37167,NA,NA,330,"115 FRONT STREET, SMYRNA, TN, 37167","No_Match",NA,NA,NA,NA
28331,"115 GARDEN DRIVE","MANTEO","NC",27954,35.9235601670001,-75.6775590839999,331,"115 GARDEN DRIVE, MANTEO, NC, 27954","Match","Exact","115 GARDEN DR, MANTEO, NC, 27954",81307393,"L"
28332,"115 GASLIGHT BLVD","LUFKIN","TX",75904,31.332652308,-94.752312864,332,"115 GASLIGHT BLVD, LUFKIN, TX, 75904","Match","Exact","115 GASLIGHT BLVD, LUFKIN, TX, 75904",23871910,"R"
28333,"115 GENEVIEVE CT","PEACHTREE CITY","GA",30269,NA,NA,333,"115 GENEVIEVE CT, PEACHTREE CITY, GA, 30269","No_Match",NA,NA,NA,NA
28334,"115 GENTLE DOE DRIVE","FAYETTEVILLE","GA",30214,33.5003207020001,-84.4940028359999,334,"115 GENTLE DOE DRIVE, FAYETTEVILLE, GA, 30214","Match","Exact","115 GENTLE DOE DR, FAYETTEVILLE, GA, 30214",75936142,"R"
28335,"115 GLEN CREEK RD NE","FRIDLEY","MN",55432,45.101377928,-93.272001334,335,"115 GLEN CREEK RD NE, FRIDLEY, MN, 55432","Match","Exact","115 GLEN CREEK RD NE, FRIDLEY, MN, 55432",97487165,"R"
28336,"115 GOLD AVE SW SUITE 209","ALBUQUERQUE","NM",87102,35.083106216,-106.648487348,336,"115 GOLD AVE SW SUITE 209, ALBUQUERQUE, NM, 87102","Match","Exact","115 GOLD AVE SW, ALBUQUERQUE, NM, 87102",206708846,"R"
28337,"115 GOLD STREET","BUFFALO","NY",14206,42.887809211,-78.8050071759999,337,"115 GOLD STREET, BUFFALO, NY, 14206","Match","Exact","115 GOLD ST, BUFFALO, NY, 14206",48301546,"R"
28338,"115 GOLF CREST COVE","LAKEWAY","TX",78734,30.356291216,-97.962537649,338,"115 GOLF CREST COVE, LAKEWAY, TX, 78734","Match","Exact","115 GOLF CREST COVE, LAKEWAY, TX, 78734",63999295,"L"
28339,"115 GOOSE CASTLE TERRACE","CURRITUCK","NC",27929,36.428963906,-75.9718119,339,"115 GOOSE CASTLE TERRACE, CURRITUCK, NC, 27929","Match","Exact","115 GOOSE CASTLE TER, CURRITUCK, NC, 27929",81385843,"L"
28340,"115 GOVERNORS RD","HILTON HEAD","SC",29928,32.148673753,-80.78624856,340,"115 GOVERNORS RD, HILTON HEAD, SC, 29928","Match","Exact","115 GOVERNORS RD, HILTON HEAD, SC, 29928",612419435,"L"
28341,"115 GRACES DRIVE","ST. GABRIEL","LA",70776,30.309389944,-91.1175882809999,341,"115 GRACES DRIVE, ST. GABRIEL, LA, 70776","Match","Exact","115 GRACES DR, SAINT GABRIEL, LA, 70776",627174613,"R"
28342,"115 GRAHAM ST","WASHINGTON","GA",30673,33.7279400360001,-82.7582832419999,342,"115 GRAHAM ST, WASHINGTON, GA, 30673","Match","Exact","115 GRAHAM ST, WASHINGTON, GA, 30673",34177441,"R"
28343,"115 GRANTHAM LANE","JACKSONVILLE","NC",28546,34.796793144,-77.387141024,343,"115 GRANTHAM LANE, JACKSONVILLE, NC, 28546","Match","Exact","115 GRANTHAM LN, JACKSONVILLE, NC, 28546",14034266,"L"
28344,"115 GRAY WOLF ROAD","HOLLISTER","MO",65672,36.5676102470001,-93.221652992,344,"115 GRAY WOLF ROAD, HOLLISTER, MO, 65672","Match","Exact","115 GRAY WOLF RD, HOLLISTER, MO, 65672",627115689,"L"
28345,"115 GRAYROCK DR","CROZET","VA",22932,38.071244951,-78.7206125399999,345,"115 GRAYROCK DR, CROZET, VA, 22932","Match","Exact","115 GRAYROCK DR, CROZET, VA, 22932",636707800,"L"
28346,"115 GREAT PINES DR","OXFORD","MI",48371,42.82644595,-83.3285102259999,346,"115 GREAT PINES DR, OXFORD, MI, 48371","Match","Non_Exact","115 GREATPINES DR, OXFORD, MI, 48371",69824559,"L"
28347,"115 GREEN HILL ROAD","KILLING","CT",6419,41.340154612,-72.573588215,347,"115 GREEN HILL ROAD, KILLING, CT, 6419","Match","Non_Exact","115 GREEN HILL RD, KILLINGWORTH, CT, 06419",113879027,"R"
28348,"115 GREEN VALLEY DRIVE","CHURCHVILLE","PA",18966,40.191099014,-75.0059963319999,348,"115 GREEN VALLEY DRIVE, CHURCHVILLE, PA, 18966","Match","Exact","115 GREEN VALLEY DR, CHURCHVILLE, PA, 18966",134709195,"R"
28349,"115 GREGG MILL RD","GREENEVILLE","TN",37743,36.0600496710001,-82.9600926799999,349,"115 GREGG MILL RD, GREENEVILLE, TN, 37743","Match","Exact","115 GREGG MILL RD, GREENEVILLE, TN, 37743",611356795,"L"
28350,"115 GREY FRIAR LANE","EAU CLAIRE","WI",54701,44.7684965540001,-91.5007153189999,350,"115 GREY FRIAR LANE, EAU CLAIRE, WI, 54701","Match","Exact","115 GREY FRIAR LN, EAU CLAIRE, WI, 54701",46075932,"L"
28351,"115 GROVE STREET","BUFFALO","NY",14207,42.9503730910001,-78.8833586169999,351,"115 GROVE STREET, BUFFALO, NY, 14207","Match","Exact","115 GROVE ST, BUFFALO, NY, 14207",48288533,"R"
28352,"115 HAMPDEN ST","CHICOPEE","MA",1013,42.1399278160001,-72.608676777,352,"115 HAMPDEN ST, CHICOPEE, MA, 1013","Match","Exact","115 HAMPDEN ST, CHICOPEE, MA, 01013",4058533,"L"
28353,"115 HANOVER AVE","COLONIAL HEIGHTS","VA",23834,37.240088359,-77.41054862,353,"115 HANOVER AVE, COLONIAL HEIGHTS, VA, 23834","Match","Exact","115 HANOVER AVE, COLONIAL HEIGHTS, VA, 23834",201634391,"L"
28354,"115 HARLEM ST","STARKVILLE","MS",39759,33.464640482,-88.8240885719999,354,"115 HARLEM ST, STARKVILLE, MS, 39759","Match","Exact","115 HARLEM ST, STARKVILLE, MS, 39759",796816,"R"
28355,"115 HARRY C RAYSOR DR","SAINT MATTHEWS","SC",29135,33.671567952,-80.770462768,355,"115 HARRY C RAYSOR DR, SAINT MATTHEWS, SC, 29135","Match","Exact","115 HARRY C RAYSOR DR, SAINT MATTHEWS, SC, 29135",71399843,"R"
28356,"115 HASKELL DRIVE","LANCASTER","PA",17601,40.063796192,-76.303307842,356,"115 HASKELL DRIVE, LANCASTER, PA, 17601","Match","Exact","115 HASKELL DR, LANCASTER, PA, 17601",640641917,"R"
28357,"115 HEART DR RM 2241 MAIL STOP 600","GREENVILLE","NC",27834,NA,NA,357,"115 HEART DR RM 2241 MAIL STOP 600, GREENVILLE, NC, 27834","No_Match",NA,NA,NA,NA
28358,"115 HIAWATHA TRAIL","FRANKFORT","KY",40601,38.209177262,-84.829216237,358,"115 HIAWATHA TRAIL, FRANKFORT, KY, 40601","Match","Exact","115 HIAWATHA TRL, FRANKFORT, KY, 40601",97046778,"R"
28359,"115 HICKORY ST - SUITE 204 Q","MELBOURNE","FL",32904,28.0802018860001,-80.6768244259999,359,"115 HICKORY ST - SUITE 204 Q, MELBOURNE, FL, 32904","Match","Exact","115 HICKORY ST, MELBOURNE, FL, 32904",93902996,"L"
28360,"115 HIGH POINT WALK","SANDY SPRINGS","GA",30342,33.891850156,-84.366448111,360,"115 HIGH POINT WALK, SANDY SPRINGS, GA, 30342","Match","Non_Exact","115 HIGH POINT WALK NE, SANDY SPRINGS, GA, 30342",17402931,"L"
28361,"115 HOLLY CREEK DRIVE","IRMO","SC",29063,34.115052905,-81.154408272,361,"115 HOLLY CREEK DRIVE, IRMO, SC, 29063","Match","Exact","115 HOLLY CREEK DR, IRMO, SC, 29063",71860835,"L"
28362,"115 HOMEWOOD CT","GENOA","IL",60135,42.091462725,-88.692844237,362,"115 HOMEWOOD CT, GENOA, IL, 60135","Match","Exact","115 HOMEWOOD CT, GENOA, IL, 60135",52274364,"R"
28363,"115 HUNTERS LANE","YORKTOWN","VA",23692,37.1777826480001,-76.425923331,363,"115 HUNTERS LANE, YORKTOWN, VA, 23692","Match","Exact","115 HUNTERS LN, YORKTOWN, VA, 23692",103789018,"L"
28364,"115 INDIAN PT RD","GLASGOW","KY",42141,36.9358127450001,-86.058393186,364,"115 INDIAN PT RD, GLASGOW, KY, 42141","Match","Exact","115 INDIAN POINT RD, GLASGOW, KY, 42141",29523864,"R"
28365,"115 INNISBROOK CT","NEW BERN","NC",28562,35.114706186,-77.1031756369999,365,"115 INNISBROOK CT, NEW BERN, NC, 28562","Match","Exact","115 INNISBROOK CT, NEW BERN, NC, 28562",34120902,"L"
28366,"115 INWOOD BOULEVARD","AVON LAKE","OH",44012,41.5108366310001,-82.024436291,366,"115 INWOOD BOULEVARD, AVON LAKE, OH, 44012","Match","Exact","115 INWOOD BLVD, AVON LAKE, OH, 44012",55421192,"L"
28367,"115 JACKSON ENERGY LANE","MCKEE","KY",40447,NA,NA,367,"115 JACKSON ENERGY LANE, MCKEE, KY, 40447","No_Match",NA,NA,NA,NA
28368,"115 JACKSON STREET","HUNTINGTON","WV",25705,38.4039490120001,-82.400074537,368,"115 JACKSON STREET, HUNTINGTON, WV, 25705","Match","Exact","115 JACKSON ST, HUNTINGTON, WV, 25705",101319325,"R"
28369,"115 JANE LN","HILLSBORO","TX",76645,32.0157617040001,-97.100035659,369,"115 JANE LN, HILLSBORO, TX, 76645","Match","Exact","115 JANE LN, HILLSBORO, TX, 76645",160542564,"R"
28370,"115 JEFFERSON LANE","COATESVILLE","PA",19320,40.0397049170001,-75.836177812,370,"115 JEFFERSON LANE, COATESVILLE, PA, 19320","Match","Exact","115 JEFFERSON LN, COATESVILLE, PA, 19320",179556595,"L"
28371,"115 JOHANNA CIR","SOUTHINGTON","CT",6489,41.644097656,-72.867057006,371,"115 JOHANNA CIR, SOUTHINGTON, CT, 6489","Match","Exact","115 JOHANNA CIR, SOUTHINGTON, CT, 06489",3529703,"R"
28372,"115 JOHNSON AVENUE","WALLINGTON","NJ",7057,40.846579858,-74.102979201,372,"115 JOHNSON AVENUE, WALLINGTON, NJ, 7057","Match","Exact","115 JOHNSON AVE, WALLINGTON, NJ, 07057",64394770,"L"
28373,"115 JP ELLIS LANE","HAYNESVILLE","LA",71038,32.949842619,-93.137092486,373,"115 JP ELLIS LANE, HAYNESVILLE, LA, 71038","Match","Exact","115 JP ELLIS LN, HAYNESVILLE, LA, 71038",624552164,"L"
28374,"115 JUSTICE CENTER DRIVE SUITE 1222","ROGERSVILLE","TN",37857,NA,NA,374,"115 JUSTICE CENTER DRIVE SUITE 1222, ROGERSVILLE, TN, 37857","No_Match",NA,NA,NA,NA
28375,"115 KATE CIRCLE","WEST MONROE","LA",71291,32.5461097,-92.143279902,375,"115 KATE CIRCLE, WEST MONROE, LA, 71291","Match","Exact","115 KATE CIR, WEST MONROE, LA, 71291",161097403,"L"
28376,"115 KELLY DRIVE","WAXAHACHIE","TX",75167,32.487886653,-96.8743061389999,376,"115 KELLY DRIVE, WAXAHACHIE, TX, 75167","Match","Exact","115 KELLY DR, WAXAHACHIE, TX, 75167",625228488,"R"
28377,"115 KENDALL DRIVE","OAKLAND","MD",21550,39.3907876860001,-79.464642488,377,"115 KENDALL DRIVE, OAKLAND, MD, 21550","Match","Exact","115 KENDALL DR, OAKLAND, MD, 21550",74180941,"L"
28378,"115 KENT ROAD PO BOX 713","HOWELL","NJ",7731,40.1284024600001,-74.227662746,378,"115 KENT ROAD PO BOX 713, HOWELL, NJ, 7731","Match","Exact","115 KENT RD, HOWELL, NJ, 07731",90519650,"R"
28379,"115 KERSHAW STREET","NEWARK","DE",19711,NA,NA,379,"115 KERSHAW STREET, NEWARK, DE, 19711","No_Match",NA,NA,NA,NA
28380,"115 KINGS WAY","NEW BRAUNFELS","TX",78132,NA,NA,380,"115 KINGS WAY, NEW BRAUNFELS, TX, 78132","No_Match",NA,NA,NA,NA
28381,"115 LAKE CAROLINA BLVD","COLUMBIA","SC",29229,34.1781011940001,-80.8956480749999,381,"115 LAKE CAROLINA BLVD, COLUMBIA, SC, 29229","Match","Exact","115 LAKE CAROLINA BLVD, COLUMBIA, SC, 29229",617902387,"L"
28382,"115 LAKE LATIMER COVE NE","KENNESAW","GA",30144,34.0624145900001,-84.54579602,382,"115 LAKE LATIMER COVE NE, KENNESAW, GA, 30144","Match","Exact","115 LAKE LATIMER COVE NE, KENNESAW, GA, 30144",17204467,"L"
28383,"115 LALANNE ROAD","ROCHESTER","NY",14623,43.074943487,-77.601447379,383,"115 LALANNE ROAD, ROCHESTER, NY, 14623","Match","Exact","115 LALANNE RD, ROCHESTER, NY, 14623",14544121,"R"
28384,"115 LANE 102 WEST OTTER LAKE","ANGOLA","IN",46703,41.643579661,-85.164981961,384,"115 LANE 102 WEST OTTER LAKE, ANGOLA, IN, 46703","Match","Non_Exact","115 LN 102 W OTTER LK, ANGOLA, IN, 46703",7722428,"L"
28385,"115 LAPIERRE AVE","MAGNOLIA","NJ",8049,NA,NA,385,"115 LAPIERRE AVE, MAGNOLIA, NJ, 8049","No_Match",NA,NA,NA,NA
28386,"115 LARKSONG","IRVINE","CA",92602,33.7424422330001,-117.756218495,386,"115 LARKSONG, IRVINE, CA, 92602","Match","Exact","115 LARKSONG, IRVINE, CA, 92602",649290338,"L"
28387,"115 LAVENDER HILL COURT","SIMPSONVILLE","SC",29681,34.7775891310001,-82.254998943,387,"115 LAVENDER HILL COURT, SIMPSONVILLE, SC, 29681","Match","Exact","115 LAVENDER HILL CT, SIMPSONVILLE, SC, 29681",636739031,"L"
28388,"115 LAWRENCE PLACE","NEW ROCHELLE","NY",10801,40.9269752810001,-73.802240218,388,"115 LAWRENCE PLACE, NEW ROCHELLE, NY, 10801","Match","Exact","115 LAWRENCE PL, NEW ROCHELLE, NY, 10801",139749701,"R"
28389,"115 LAWTON STREET APT 3B","YONKERS","NY",10705,40.9102859660001,-73.881235636,389,"115 LAWTON STREET APT 3B, YONKERS, NY, 10705","Match","Exact","115 LAWTON ST, YONKERS, NY, 10705",139744132,"L"
28390,"115 LEGACY LANE","HAVELOCK","NC",28532,34.8645210930001,-76.888937749,390,"115 LEGACY LANE, HAVELOCK, NC, 28532","Match","Exact","115 LEGACY LN, HAVELOCK, NC, 28532",623899647,"L"
28391,"115 LEHUA ST UNIT 861034","WAHIAWA","HI",96786,21.498191509,-158.027138544,391,"115 LEHUA ST UNIT 861034, WAHIAWA, HI, 96786","Match","Exact","115 LEHUA ST, WAHIAWA, HI, 96786",203224536,"L"
28392,"115 LEICESTER STREET","PORT CHESTER","NY",10573,41.009122731,-73.668215752,392,"115 LEICESTER STREET, PORT CHESTER, NY, 10573","Match","Exact","115 LEICESTER ST, PORT CHESTER, NY, 10573",139762241,"R"
28393,"115 LEVERICH ST","HEMPSTEAD","NY",11550,40.7071379500001,-73.609035686,393,"115 LEVERICH ST, HEMPSTEAD, NY, 11550","Match","Exact","115 LEVERICH ST, HEMPSTEAD, NY, 11550",147690435,"L"
28394,"115 LIBRARY HILL LANE       STE A","LEXINGTON","SC",29072,33.976289824,-81.220897026,394,"115 LIBRARY HILL LANE       STE A, LEXINGTON, SC, 29072","Match","Exact","115 LIBRARY HILL LN, LEXINGTON, SC, 29072",70089138,"L"
28395,"115 LITTLE RANCH CIRCLE","OAKLEY","CA",94561,37.9751804680001,-121.703385433,395,"115 LITTLE RANCH CIRCLE, OAKLEY, CA, 94561","Match","Exact","115 LITTLE RANCH CIR, OAKLEY, CA, 94561",629630186,"R"
28396,"115 LOCHWOOD WEST DR","CARY","NC",27518,35.7324425210001,-78.761370137,396,"115 LOCHWOOD WEST DR, CARY, NC, 27518","Match","Exact","115 LOCHWOOD WEST DR, CARY, NC, 27518",72539552,"L"
28397,"115 LONG CREEK DR","COVINGTON","GA",30016,33.5353471620001,-83.92128779,397,"115 LONG CREEK DR, COVINGTON, GA, 30016","Match","Exact","115 LONG CREEK DR, COVINGTON, GA, 30016",638240119,"L"
28398,"115 LORNA LANE","TONAWANDA","NY",14150,43.015937169,-78.8377222949999,398,"115 LORNA LANE, TONAWANDA, NY, 14150","Match","Exact","115 LORNA LN, TONAWANDA, NY, 14150",48284661,"R"
28399,"115 LUMMIS MILL ROAD","BRIDGETON","NJ",8302,39.36902581,-75.21535406,399,"115 LUMMIS MILL ROAD, BRIDGETON, NJ, 8302","Match","Exact","115 LUMMIS MILL RD, BRIDGETON, NJ, 08302",174124821,"R"
28400,"115 MAIN AVE N","FAYETTEVILLE","TN",37334,35.1524168620001,-86.5705536309999,400,"115 MAIN AVE N, FAYETTEVILLE, TN, 37334","Match","Exact","115 MAIN AVE N, FAYETTEVILLE, TN, 37334",58303642,"R"
28401,"115 MAIN RD","WEST HAVEN","VT",5743,43.6362275650001,-73.2994645319999,401,"115 MAIN RD, WEST HAVEN, VT, 5743","Match","Exact","115 MAIN RD, WEST HAVEN, VT, 05743",641174089,"L"
28402,"115 MAIN STREET PO BOX 642","ALTAMONT","NY",12209,42.7030089570001,-74.0250903789999,402,"115 MAIN STREET PO BOX 642, ALTAMONT, NY, 12209","Match","Non_Exact","115 MAIN ST, ALTAMONT, NY, 12009",18300745,"L"
28403,"115 MAIN STREET","MARBLE FALLS","TX",78654,30.5702935140001,-98.27844512,403,"115 MAIN STREET, MARBLE FALLS, TX, 78654","Match","Exact","115 MAIN ST, MARBLE FALLS, TX, 78654",146491917,"R"
28404,"115 MAIN STREET","NORTHFIELD","MA",1360,42.6996497100001,-72.4536748639999,404,"115 MAIN STREET, NORTHFIELD, MA, 1360","Match","Exact","115 MAIN ST, NORTHFIELD, MA, 01360",39912499,"R"
28405,"115 MAITLAND AVE","ALTAMONTE SPRINGS","FL",32701,28.662129797,-81.365897035,405,"115 MAITLAND AVE, ALTAMONTE SPRINGS, FL, 32701","Match","Exact","115 MAITLAND AVE, ALTAMONTE SPRINGS, FL, 32701",605414147,"L"
28406,"115 MANOR DRIVE","LANSDALE","PA",19446,40.2476281680001,-75.262605241,406,"115 MANOR DRIVE, LANSDALE, PA, 19446","Match","Exact","115 MANOR DR, LANSDALE, PA, 19446",135107016,"R"
28407,"115 MAPLECREST ST SW","N CANTON","OH",44720,40.8626604880001,-81.398277223,407,"115 MAPLECREST ST SW, N CANTON, OH, 44720","Match","Exact","115 MAPLECREST ST SW, NORTH CANTON, OH, 44720",64676455,"R"
28408,"115 MARINA DRIVE","GUN BARREL CITY","TX",75156,32.3156547290001,-96.147843316,408,"115 MARINA DRIVE, GUN BARREL CITY, TX, 75156","Match","Exact","115 MARINA DR, GUN BARREL CITY, TX, 75156",651905433,"R"
28409,"115 MARION ROAD","MIDDLEBORO","MA",2346,41.8538635890001,-70.882791224,409,"115 MARION ROAD, MIDDLEBORO, MA, 2346","Match","Exact","115 MARION RD, MIDDLEBORO, MA, 02346",87466317,"L"
28410,"115 MARK LN","FAYETTEVILLE","GA",30214,33.496857407,-84.461156241,410,"115 MARK LN, FAYETTEVILLE, GA, 30214","Match","Exact","115 MARK LN, FAYETTEVILLE, GA, 30214",75932647,"R"
28411,"115 MARLBORO DRIVE","GREENVILLE","SC",29605,34.7895024700001,-82.3896028509999,411,"115 MARLBORO DRIVE, GREENVILLE, SC, 29605","Match","Exact","115 MARLBORO DR, GREENVILLE, SC, 29605",38305555,"L"
28412,"115 MARTIN LUTHER KING DRIVE SW","ATLANTA","GA",30303,33.7523455080001,-84.3926181429999,412,"115 MARTIN LUTHER KING DRIVE SW, ATLANTA, GA, 30303","Match","Exact","115 MARTIN LUTHER KING JR DR SW, ATLANTA, GA, 30303",653670930,"R"
28413,"115 MARY ANN DRIVE","FRIENDSWOOD","TX",77546,29.5371283160001,-95.2115198399999,413,"115 MARY ANN DRIVE, FRIENDSWOOD, TX, 77546","Match","Exact","115 MARY ANN DR, FRIENDSWOOD, TX, 77546",96681460,"R"
28414,"115 MATTIE STREET","DENHAM SPRINGS","LA",70726,30.4852918350001,-90.956350175,414,"115 MATTIE STREET, DENHAM SPRINGS, LA, 70726","Match","Exact","115 MATTIE ST, DENHAM SPRINGS, LA, 70726",115078799,"R"
28415,"115 MCCLELLAN ST","PHILADELPHIA","PA",19148,39.9247947360001,-75.1481052839999,415,"115 MCCLELLAN ST, PHILADELPHIA, PA, 19148","Match","Exact","115 MCCLELLAN ST, PHILADELPHIA, PA, 19148",131436531,"R"
28416,"115 MEADOW DR","LAFONTAINE","IN",46940,40.6686895980001,-85.7176676839999,416,"115 MEADOW DR, LAFONTAINE, IN, 46940","Match","Non_Exact","115 MEADOW DR, LA FONTAINE, IN, 46940",15522696,"R"
28417,"115 MEADOW ROAD EAST","DURANGO","CO",81301,37.2710015660001,-107.749488428,417,"115 MEADOW ROAD EAST, DURANGO, CO, 81301","Match","Exact","115 MEADOW RD E, DURANGO, CO, 81301",91697244,"L"
28418,"115 MEADOW VIEW DRIVE","LYNCHURG","VA",24502,37.390183069,-79.193546095,418,"115 MEADOW VIEW DRIVE, LYNCHURG, VA, 24502","Match","Non_Exact","115 MEADOW VIEW DR, LYNCHBURG, VA, 24502",62623926,"R"
28419,"115 MIDVALE AVENUE","SIOUX CITY","IA",51104,42.5256720950001,-96.41054705,419,"115 MIDVALE AVENUE, SIOUX CITY, IA, 51104","Match","Exact","115 MIDVALE AVE, SIOUX CITY, IA, 51104",93421495,"L"
28420,"115 MILETREE RD","EAST PEORIA","IL",61611,40.806404898,-89.521748605,420,"115 MILETREE RD, EAST PEORIA, IL, 61611","Match","Exact","115 MILETREE RD, EAST PEORIA, IL, 61611",8997645,"L"
28421,"115 MILL STREET MAIL STOP 314","BELMONT","MA",2478,42.3961913590001,-71.194980308,421,"115 MILL STREET MAIL STOP 314, BELMONT, MA, 2478","Match","Exact","115 MILL ST, BELMONT, MA, 02478",86884586,"R"
28422,"115 MISSISSIPPI AVE SE","WASHINGTON","DC",20032,38.833404536,-77.005321383,422,"115 MISSISSIPPI AVE SE, WASHINGTON, DC, 20032","Match","Exact","115 MISSISSIPPI AVE SE, WASHINGTON, DC, 20032",76232578,"R"
28423,"115 MLK JR DRIVE SUITE 275","ATLANTA","GA",30303,33.7523455080001,-84.3926181429999,423,"115 MLK JR DRIVE SUITE 275, ATLANTA, GA, 30303","Match","Non_Exact","115 MARTIN LUTHER KING JR DR SW, ATLANTA, GA, 30303",653670930,"R"
28424,"115 MONTERAY AVE","OAKWOOD","OH",45419,39.7114601910001,-84.1700001839999,424,"115 MONTERAY AVE, OAKWOOD, OH, 45419","Match","Non_Exact","115 E MONTERAY AVE, OAKWOOD, OH, 45419",143581513,"L"
28425,"115 MORGAN RUN","SNOW HILL","MD",21863,38.1686387400001,-75.3871380739999,425,"115 MORGAN RUN, SNOW HILL, MD, 21863","Match","Exact","115 MORGAN RUN, SNOW HILL, MD, 21863",623930417,"R"
28426,"115 MORRISON ROAD","SANBORNTON","NH",3269,43.5296148850001,-71.618501473,426,"115 MORRISON ROAD, SANBORNTON, NH, 3269","Match","Exact","115 MORRISON RD, SANBORNTON, NH, 03269",145501196,"L"
28427,"115 MURCHISON STREET / PO BOX 108","ATHENS","TX",75751,NA,NA,427,"115 MURCHISON STREET / PO BOX 108, ATHENS, TX, 75751","Tie",NA,NA,NA,NA
28428,"115 MYERS STREET","MONESSEN","PA",15062,40.152764475,-79.8820869959999,428,"115 MYERS STREET, MONESSEN, PA, 15062","Match","Exact","115 MYERS ST, MONESSEN, PA, 15062",52959202,"L"
28429,"115 MYRTLE ST","VACAVILLE","CA",95688,38.358876287,-121.995757999,429,"115 MYRTLE ST, VACAVILLE, CA, 95688","Match","Exact","115 MYRTLE ST, VACAVILLE, CA, 95688",192534385,"L"
28430,"115 N 3RD STREET","OREGON","IL",61061,42.0156977570001,-89.331173947,430,"115 N 3RD STREET, OREGON, IL, 61061","Match","Exact","115 N 3RD ST, OREGON, IL, 61061",52328827,"R"
28431,"115 N 4TH","MANHATTAN","KS",66502,39.179569787,-96.5618080679999,431,"115 N 4TH, MANHATTAN, KS, 66502","Match","Non_Exact","115 N 4TH ST, MANHATTAN, KS, 66502",27794620,"L"
28432,"115 N 85TH ST STE 202","SEATTLE","WA",98103,47.6905951420001,-122.357218012,432,"115 N 85TH ST STE 202, SEATTLE, WA, 98103","Match","Non_Exact","115 N 85TH ST, SEATTLE, WA, 98103",186579000,"R"
28433,"115 N 85TH ST SUITE 202","SEATTLE","WA",98103,47.6905951420001,-122.357218012,433,"115 N 85TH ST SUITE 202, SEATTLE, WA, 98103","Match","Non_Exact","115 N 85TH ST, SEATTLE, WA, 98103",186579000,"R"
28434,"115 N BEATTY ST APT 409","PITTSBURGH","PA",15206,40.462244078,-79.926769451,434,"115 N BEATTY ST APT 409, PITTSBURGH, PA, 15206","Match","Exact","115 BEATTY ST, PITTSBURGH, PA, 15206",51644896,"L"
28435,"115 N BROADWAY","INOLA","OK",74036,36.1527075930001,-95.510578965,435,"115 N BROADWAY, INOLA, OK, 74036","Match","Non_Exact","115 N BROADWAY AVE, INOLA, OK, 74036",20704075,"R"
28436,"115 N BUTRICK ST","WAUKEGAN","IL",60085,42.3611735050001,-87.848314407,436,"115 N BUTRICK ST, WAUKEGAN, IL, 60085","Match","Exact","115 N BUTRICK ST, WAUKEGAN, IL, 60085",119645013,"R"
28437,"115 N CHAUTAUQUA","SEDAN","KS",67361,37.1269600750001,-96.186819955,437,"115 N CHAUTAUQUA, SEDAN, KS, 67361","Match","Non_Exact","115 N CHAUTAUQUA ST, SEDAN, KS, 67361",18235939,"L"
28438,"115 N D ST UNIT A","LOMPOC","CA",93436,34.6397313150001,-120.452801917,438,"115 N D ST UNIT A, LOMPOC, CA, 93436","Match","Non_Exact","115 N D ST, LOMPOC, CA, 93436",108658292,"R"
28439,"115 N MAIN AVENUE","DENVER CITY","TX",79323,32.9646759080001,-102.829209944,439,"115 N MAIN AVENUE, DENVER CITY, TX, 79323","Match","Exact","115 N MAIN AVE, DENVER CITY, TX, 79323",171733628,"L"
28440,"115 N MAIN ST","WOODLAND","MI",48897,42.7273189270001,-85.1341986909999,440,"115 N MAIN ST, WOODLAND, MI, 48897","Match","Exact","115 N MAIN ST, WOODLAND, MI, 48897",635596835,"L"
28441,"115 N OLYMPIC AVE","ARLINGTON","WA",98223,48.1927179750001,-122.126479472,441,"115 N OLYMPIC AVE, ARLINGTON, WA, 98223","Match","Exact","115 N OLYMPIC AVE, ARLINGTON, WA, 98223",187741004,"R"
28442,"115 NOB HILL STREET","ASHLAND","OR",97520,42.1986618390001,-122.718892725,442,"115 NOB HILL STREET, ASHLAND, OR, 97520","Match","Exact","115 NOB HILL ST, ASHLAND, OR, 97520",155521659,"L"
28443,"115 NORTH 1ST STREET","MINNEAPOLIS","MN",55401,NA,NA,443,"115 NORTH 1ST STREET, MINNEAPOLIS, MN, 55401","No_Match",NA,NA,NA,NA
28444,"115 NORTH BOND ST","BEL AIR","MD",21014,39.5372192990001,-76.351898534,444,"115 NORTH BOND ST, BEL AIR, MD, 21014","Match","Exact","115 N BOND ST, BEL AIR, MD, 21014",606802563,"R"
28445,"115 NORTH BROADWAY","SOUTH AMBOY","NJ",8879,40.482746606,-74.2795816299999,445,"115 NORTH BROADWAY, SOUTH AMBOY, NJ, 8879","Match","Non_Exact","115 S BROADWAY, SOUTH AMBOY, NJ, 08879",60284260,"L"
28446,"115 NORTH FINDLEY STREET","PUNXSUTAWNEY","PA",15767,40.9435606650001,-78.971161485,446,"115 NORTH FINDLEY STREET, PUNXSUTAWNEY, PA, 15767","Match","Exact","115 N FINDLEY ST, PUNXSUTAWNEY, PA, 15767",66453654,"L"
28447,"115 NORTH MAIN STREET","LICKING","MO",65542,37.500797295,-91.856927781,447,"115 NORTH MAIN STREET, LICKING, MO, 65542","Match","Exact","115 N MAIN ST, LICKING, MO, 65542",26469367,"L"
28448,"115 NORTH MAIN STREET","VERSAILLES","KY",40383,38.053174364,-84.730298697,448,"115 NORTH MAIN STREET, VERSAILLES, KY, 40383","Match","Exact","115 N MAIN ST, VERSAILLES, KY, 40383",38496147,"L"
28449,"115 NORTH RAILWAY AVENUE","CANISTOTA","SD",57012,NA,NA,449,"115 NORTH RAILWAY AVENUE, CANISTOTA, SD, 57012","No_Match",NA,NA,NA,NA
28450,"115 NORTH STREET","NATCHITOCHES","LA",71457,31.7545837050001,-93.097534603,450,"115 NORTH STREET, NATCHITOCHES, LA, 71457","Match","Exact","115 NORTH ST, NATCHITOCHES, LA, 71457",13349853,"R"
28451,"115 NORTH WASHINGTON STREET","MILFORD","DE",19963,38.914850845,-75.427469624,451,"115 NORTH WASHINGTON STREET, MILFORD, DE, 19963","Match","Exact","115 N WASHINGTON ST, MILFORD, DE, 19963",68083585,"R"
28452,"115 NORTH WILLIAM STREET","SOUTHBEND","IN",46601,41.676467685,-86.2560957059999,452,"115 NORTH WILLIAM STREET, SOUTHBEND, IN, 46601","Match","Non_Exact","115 N WILLIAM ST, SOUTH BEND, IN, 46601",8087896,"L"
28453,"115 NORTH WILLIS AVE","LIVINGSTON","TX",77351,30.7118092360001,-94.9417607779999,453,"115 NORTH WILLIS AVE, LIVINGSTON, TX, 77351","Match","Exact","115 N WILLIS AVE, LIVINGSTON, TX, 77351",23220809,"L"
28454,"115 NORTHSIDE SQUARE","HUNTSVILLE","AL",35801,34.730658367,-86.5852906219999,454,"115 NORTHSIDE SQUARE, HUNTSVILLE, AL, 35801","Match","Exact","115 NORTHSIDE SQ, HUNTSVILLE, AL, 35801",58170726,"R"
28455,"115 NORTON ROAD","WORCESTER","VT",5682,44.350756253,-72.558230817,455,"115 NORTON ROAD, WORCESTER, VT, 5682","Match","Exact","115 NORTON RD, WORCESTER, VT, 05682",136697354,"R"
28456,"115 NORWAY STREET APT 18","BOSTON","MA",2115,42.345293811,-71.088819292,456,"115 NORWAY STREET APT 18, BOSTON, MA, 2115","Match","Exact","115 NORWAY ST, BOSTON, MA, 02115",85722031,"R"
28457,"115 NW 202ND TERRACE APT510","MIAMI GARDENS","FL",33169,25.9612470770001,-80.2038373299999,457,"115 NW 202ND TERRACE APT510, MIAMI GARDENS, FL, 33169","Match","Non_Exact","115 NW 202ND TER, MIAMI GARDENS, FL, 33169",116028939,"R"
28458,"115 NW DOWNY DR","SUBLIMITY","OR",97385,44.8316123980001,-122.798395483,458,"115 NW DOWNY DR, SUBLIMITY, OR, 97385","Match","Exact","115 NW DOWNY DR, SUBLIMITY, OR, 97385",156232743,"L"
28459,"115 OAKDALE AVE","CATONSVILLE","MD",21228,39.2742451490001,-76.7533151329999,459,"115 OAKDALE AVE, CATONSVILLE, MD, 21228","Match","Exact","115 OAKDALE AVE, CATONSVILLE, MD, 21228",191483343,"R"
28460,"115 OAKLAND AVE SUITE 103","ROCK HILL","SC",29730,34.9312019910001,-81.024661741,460,"115 OAKLAND AVE SUITE 103, ROCK HILL, SC, 29730","Match","Exact","115 OAKLAND AVE, ROCK HILL, SC, 29730",642585756,"L"
28461,"115 OKLAHOMA DRIVE","DARLINGTON","SC",29532,34.315997184,-79.8528703969999,461,"115 OKLAHOMA DRIVE, DARLINGTON, SC, 29532","Match","Exact","115 OKLAHOMA DR, DARLINGTON, SC, 29532",78398857,"L"
28462,"115 OLD FALLSTON ROAD","CHERRYVILLE","NC",28021,35.40620763,-81.425089418,462,"115 OLD FALLSTON ROAD, CHERRYVILLE, NC, 28021","Match","Exact","115 OLD FALLSTON RD, CHERRYVILLE, NC, 28021",70459011,"L"
28463,"115 OLD PROS WAY","CARY","NC",27513,35.8065772940001,-78.837870994,463,"115 OLD PROS WAY, CARY, NC, 27513","Match","Exact","115 OLD PROS WAY, CARY, NC, 27513",72567438,"L"
28464,"115 OLD STATE POINT","EVANSVILLE","IN",47711,38.0687475870001,-87.561747597,464,"115 OLD STATE POINT, EVANSVILLE, IN, 47711","Match","Exact","115 OLD STATE PT, EVANSVILLE, IN, 47711",642906112,"R"
28465,"115 OMAR","IRVINE","CA",92620,33.7161854730001,-117.743010476,465,"115 OMAR, IRVINE, CA, 92620","Match","Exact","115 OMAR, IRVINE, CA, 92620",651112061,"L"
28466,"115 PACES DRIVE","FAYETTEVILLE","GA",30214,33.4365609130001,-84.46029385,466,"115 PACES DRIVE, FAYETTEVILLE, GA, 30214","Match","Non_Exact","115 PACES DR, FAYETTEVILLE, GA, 30215",75935464,"R"
28467,"115 PADDOCK DRIVE","FRUITLAND","MD",21826,38.3076374500001,-75.616088099,467,"115 PADDOCK DRIVE, FRUITLAND, MD, 21826","Match","Exact","115 PADDOCK DR, FRUITLAND, MD, 21826",601190601,"L"
28468,"115 PARK ST","GROVE HILL","AL",36451,NA,NA,468,"115 PARK ST, GROVE HILL, AL, 36451","No_Match",NA,NA,NA,NA
28469,"115 PARK STREET","WATSONTOWN","PA",17777,41.07839377,-76.857501385,469,"115 PARK STREET, WATSONTOWN, PA, 17777","Match","Exact","115 PARK ST, WATSONTOWN, PA, 17777",48089369,"L"
28470,"115 PARKER AVENUE","EASTON","PA",18042,40.7093972220001,-75.203222414,470,"115 PARKER AVENUE, EASTON, PA, 18042","Match","Exact","115 PARKER AVE, EASTON, PA, 18042",136883782,"R"
28471,"115 PARKVIEW TERRACE LANE","HIGH POINT","NC",27282,35.994040265,-79.952655105,471,"115 PARKVIEW TERRACE LANE, HIGH POINT, NC, 27282","Match","Non_Exact","115 PARKVIEW TERRACE LN, JAMESTOWN, NC, 27282",131071140,"L"
28472,"115 PARKVIEW TERRACE LANE","JAMESTOWN","NC",27282,35.994040265,-79.952655105,472,"115 PARKVIEW TERRACE LANE, JAMESTOWN, NC, 27282","Match","Exact","115 PARKVIEW TERRACE LN, JAMESTOWN, NC, 27282",131071140,"L"
28473,"115 PARSONS","ROBINSON","KS",66532,39.8157743310001,-95.410372691,473,"115 PARSONS, ROBINSON, KS, 66532","Match","Non_Exact","115 PARSONS ST, ROBINSON, KS, 66532",9769834,"L"
28474,"115 PASATIEMPO DRIVE","BAKERSFIELD","CA",93305,35.401656755,-119.001400462,474,"115 PASATIEMPO DRIVE, BAKERSFIELD, CA, 93305","Match","Exact","115 PASATIEMPO DR, BAKERSFIELD, CA, 93305",109500247,"R"
28475,"115 PAUL ST","AUBURN","ME",4210,44.073196748,-70.220267846,475,"115 PAUL ST, AUBURN, ME, 4210","Match","Exact","115 PAUL ST, AUBURN, ME, 04210",77962234,"R"
28476,"115 PENN BLVD","EAST LANSDOWNE","PA",19050,39.9436262850001,-75.260636373,476,"115 PENN BLVD, EAST LANSDOWNE, PA, 19050","Match","Exact","115 PENN BLVD, E LANSDOWNE, PA, 19050",134878483,"R"
28477,"115 PETERSEN PARKWAY","THAYNE","WY",83127,NA,NA,477,"115 PETERSEN PARKWAY, THAYNE, WY, 83127","No_Match",NA,NA,NA,NA
28478,"115 PHEASANT RUN DRIVE","BATESVILLE","IN",47006,39.3121643790001,-85.2096595899999,478,"115 PHEASANT RUN DRIVE, BATESVILLE, IN, 47006","Match","Exact","115 PHEASANT RUN DR, BATESVILLE, IN, 47006",33191085,"R"
28479,"115 PHELPS PLACE","SYRACUSE","NY",13212,42.9987267110001,-76.1385303979999,479,"115 PHELPS PLACE, SYRACUSE, NY, 13212","Match","Non_Exact","115 PHELPS PL, SYRACUSE, NY, 13205",46577419,"L"
28480,"115 PIRATES COVE ROAD","STOCKTON SPRINGS","ME",4981,44.497865727,-68.8189879719999,480,"115 PIRATES COVE ROAD, STOCKTON SPRINGS, ME, 4981","Match","Exact","115 PIRATES COVE RD, STOCKTON SPRINGS, ME, 04981",75635695,"R"
28481,"115 PISGAH HIGH ROAD","BRANDON","MS",39047,32.486667551,-89.867423209,481,"115 PISGAH HIGH ROAD, BRANDON, MS, 39047","Match","Exact","115 PISGAH HIGH RD, BRANDON, MS, 39047",638870051,"R"
28482,"115 POLIFLY ROAD 4H","HACKENSACK","NJ",7601,40.877623407,-74.05724695,482,"115 POLIFLY ROAD 4H, HACKENSACK, NJ, 7601","Match","Exact","115 POLIFLY RD, HACKENSACK, NJ, 07601",64386296,"R"
28483,"115 POPULAR CIRCLE","WARSAW","NC",28398,34.9868840880001,-78.040025509,483,"115 POPULAR CIRCLE, WARSAW, NC, 28398","Match","Exact","115 POPULAR CIR, WARSAW, NC, 28398",632222118,"L"
28484,"115 POST ROAD","NORTH HAMPTON","NH",3862,42.9806112750001,-70.8452184239999,484,"115 POST ROAD, NORTH HAMPTON, NH, 3862","Match","Exact","115 POST RD, NORTH HAMPTON, NH, 03862",113689661,"R"
28485,"115 PRAYER BARN RD","HARTSELLE","AL",35640,34.4630055100001,-86.816700919,485,"115 PRAYER BARN RD, HARTSELLE, AL, 35640","Match","Exact","115 PRAYER BARN RD, HARTSELLE, AL, 35640",652597580,"R"
28486,"115 QUEEN VICTORIA LANE","JACKSON","MS",39209,32.33524221,-90.2723692759999,486,"115 QUEEN VICTORIA LANE, JACKSON, MS, 39209","Match","Exact","115 QUEEN VICTORIA LN, JACKSON, MS, 39209",65364176,"L"
28487,"115 RED FOX LANE","SEDONA","AZ",86351,34.7778668650001,-111.783015388,487,"115 RED FOX LANE, SEDONA, AZ, 86351","Match","Exact","115 RED FOX LN, SEDONA, AZ, 86351",159474298,"L"
28488,"115 RED FOX LN","SEDONA","AZ",86351,34.7778668650001,-111.783015388,488,"115 RED FOX LN, SEDONA, AZ, 86351","Match","Exact","115 RED FOX LN, SEDONA, AZ, 86351",159474298,"L"
28489,"115 REDWOOD STREET","SANTA CRUZ","CA",95060,36.9627533670001,-122.036792665,489,"115 REDWOOD STREET, SANTA CRUZ, CA, 95060","Match","Exact","115 REDWOOD ST, SANTA CRUZ, CA, 95060",605917109,"L"
28490,"115 RENWOOD PL","SPRINGBORO","OH",45066,39.561010067,-84.23908539,490,"115 RENWOOD PL, SPRINGBORO, OH, 45066","Match","Exact","115 RENWOOD PL, SPRINGBORO, OH, 45066",159019373,"L"
28491,"115 RIBAUT ROAD","BEAUFORT","SC",29902,32.4390350050001,-80.685729379,491,"115 RIBAUT ROAD, BEAUFORT, SC, 29902","Match","Exact","115 RIBAUT RD, BEAUFORT, SC, 29902",635578047,"R"
28492,"115 RICHARD ARRINGTON JR BLVD N","BIRMINGHAM","AL",35203,33.51528983,-86.804378011,492,"115 RICHARD ARRINGTON JR BLVD N, BIRMINGHAM, AL, 35203","Match","Exact","115 RICHARD ARRINGTON JR BLVD N, BIRMINGHAM, AL, 35203",81705913,"R"
28493,"115 RICHMOND ROAD WEST","EAST SYRACUSE","NY",13057,43.0672891130001,-76.033069246,493,"115 RICHMOND ROAD WEST, EAST SYRACUSE, NY, 13057","Match","Exact","115 RICHMOND RD W, EAST SYRACUSE, NY, 13057",46623411,"L"
28494,"115 RIDGEWOOD AVE","HOLYOKE","MA",1040,42.2048919700001,-72.6351651589999,494,"115 RIDGEWOOD AVE, HOLYOKE, MA, 1040","Match","Exact","115 RIDGEWOOD AVE, HOLYOKE, MA, 01040",4017083,"R"
28495,"115 RISELEY LANE EXT","WOODSTOCK","NY",12498,42.0339760890001,-74.110925795,495,"115 RISELEY LANE EXT, WOODSTOCK, NY, 12498","Match","Non_Exact","115 RISELEY LN EXD, WOODSTOCK, NY, 12498",41907850,"L"
28496,"115 RIVER ROAD PIER BLDG STE 112","EDGEWATER","NJ",7020,40.8066528200001,-73.991123479,496,"115 RIVER ROAD PIER BLDG STE 112, EDGEWATER, NJ, 7020","Match","Exact","115 RIVER RD, EDGEWATER, NJ, 07020",64427772,"L"
28497,"115 ROAD V","LEIGH","NE",68643,41.714128143,-97.243498916,497,"115 ROAD V, LEIGH, NE, 68643","Match","Non_Exact","115 ROAD W, LEIGH, NE, 68643",136048491,"L"
28498,"115 ROBIN LANE","ZEBULON","NC",27597,35.708150147,-78.323493382,498,"115 ROBIN LANE, ZEBULON, NC, 27597","Match","Exact","115 ROBIN LN, ZEBULON, NC, 27597",26546571,"L"
28499,"115 ROCK HILL RD","CLIFTON","NJ",7013,40.8740384860001,-74.1840551779999,499,"115 ROCK HILL RD, CLIFTON, NJ, 7013","Match","Exact","115 ROCK HILL RD, CLIFTON, NJ, 07013",65250141,"L"
28500,"115 ROCKCASTLE BLUFFS ROAD","SOMERSET","KY",42501,NA,NA,500,"115 ROCKCASTLE BLUFFS ROAD, SOMERSET, KY, 42501","No_Match",NA,NA,NA,NA
