"ID","Address","City","State","Zip","lat","long","id","input_address","match_indicator","match_type","matched_address","tiger_line_id","tiger_side"
98001,"1911 ARCH STREET","PHILADELPHIA","PA",19103,39.955437321,-75.1714042149999,1,"1911 ARCH STREET, PHILADELPHIA, PA, 19103","Match","Exact","1911 ARCH ST, PHILADELPHIA, PA, 19103",131407370,"R"
98002,"1911 BEECH AVE","MERCEDES","TX",78570,26.1633524440001,-97.874732577,2,"1911 BEECH AVE, MERCEDES, TX, 78570","Match","Exact","1911 BEECH AVE, MERCEDES, TX, 78570",635307819,"L"
98003,"1911 BLOSSOM COURT","FAIRFIELD","CA",94533,38.2641462220001,-122.014338494,3,"1911 BLOSSOM COURT, FAIRFIELD, CA, 94533","Match","Exact","1911 BLOSSOM CT, FAIRFIELD, CA, 94533",192553914,"L"
98004,"1911 BURLINGTON AVE N","ST PETERSBURG","FL",33713,27.7738496800001,-82.659178826,4,"1911 BURLINGTON AVE N, ST PETERSBURG, FL, 33713","Match","Exact","1911 BURLINGTON AVE N, SAINT PETERSBURG, FL, 33713",124707344,"R"
98005,"1911 CAMINO LUMBRE","SANTA FE","NM",87505,NA,NA,5,"1911 CAMINO LUMBRE, SANTA FE, NM, 87505","No_Match",NA,NA,NA,NA
98006,"1911 CLIFF VALLEY WAY","ATLANTA","GA",30329,33.835380264,-84.324746679,6,"1911 CLIFF VALLEY WAY, ATLANTA, GA, 30329","Match","Non_Exact","1911 CLIFF VALLEY WAY NE, ATLANTA, GA, 30329",650743126,"L"
98007,"1911 COGSWELL AVENUE","PELL CITY","AL",35125,33.586351328,-86.2856978149999,7,"1911 COGSWELL AVENUE, PELL CITY, AL, 35125","Match","Exact","1911 COGSWELL AVE, PELL CITY, AL, 35125",636437079,"L"
98008,"1911 CROWELL STREET","DURHAM","NC",27707,35.962352868,-78.882955807,8,"1911 CROWELL STREET, DURHAM, NC, 27707","Match","Exact","1911 CROWELL ST, DURHAM, NC, 27707",71743231,"L"
98009,"1911 DOUGLAS BLVD SUITE 85-190","ROSEVILLE","CA",95661,38.744237867,-121.257091394,9,"1911 DOUGLAS BLVD SUITE 85-190, ROSEVILLE, CA, 95661","Match","Exact","1911 DOUGLAS BLVD, ROSEVILLE, CA, 95661",648314164,"L"
98010,"1911 E ORANGE GROVE RD","TUCSON","AZ",85718,32.3235148570001,-110.941708024,10,"1911 E ORANGE GROVE RD, TUCSON, AZ, 85718","Match","Exact","1911 E ORANGE GROVE RD, TUCSON, AZ, 85718",121383323,"L"
98011,"1911 E SENECA LN","MOUNT PROSPECT","IL",60056,42.1012820510001,-87.895699501,11,"1911 E SENECA LN, MOUNT PROSPECT, IL, 60056","Match","Exact","1911 E SENECA LN, MOUNT PROSPECT, IL, 60056",111718904,"R"
98012,"1911 EXCEL DRIVE","MANKATO","MN",56001,44.1795178510001,-93.943104965,12,"1911 EXCEL DRIVE, MANKATO, MN, 56001","Match","Exact","1911 EXCEL DR, MANKATO, MN, 56001",28109699,"L"
98013,"1911 EXETER AVENUE","BESSEMER","AL",35020,33.397380646,-86.944021473,13,"1911 EXETER AVENUE, BESSEMER, AL, 35020","Match","Exact","1911 EXETER AVE, BESSEMER, AL, 35020",81710799,"R"
98014,"1911 FIELDSTONE WAY","FREDERICK","MD",21702,39.4619357670001,-77.408713201,14,"1911 FIELDSTONE WAY, FREDERICK, MD, 21702","Match","Exact","1911 FIELDSTONE WAY, FREDERICK, MD, 21702",60706673,"L"
98015,"1911 FRISCO ST","JEANERETTE","LA",70544,29.9171389100001,-91.67475293,15,"1911 FRISCO ST, JEANERETTE, LA, 70544","Match","Exact","1911 FRISCO ST, JEANERETTE, LA, 70544",85357524,"L"
98016,"1911 FUNSTON AVE","SAN FRANCISCO","CA",94116,37.7524720430001,-122.469761484,16,"1911 FUNSTON AVE, SAN FRANCISCO, CA, 94116","Match","Exact","1911 FUNSTON AVE, SAN FRANCISCO, CA, 94116",640405905,"R"
98017,"1911 GRANT AVE","REDONDO BEACH","CA",90278,33.8690166000001,-118.378686442,17,"1911 GRANT AVE, REDONDO BEACH, CA, 90278","Match","Exact","1911 GRANT AVE, REDONDO BEACH, CA, 90278",141583031,"L"
98018,"1911 GRAYSON HIGHWAY   SUITE 8-145","GRAYSON","GA",30017,33.8984806930001,-83.960415819,18,"1911 GRAYSON HIGHWAY   SUITE 8-145, GRAYSON, GA, 30017","Match","Exact","1911 GRAYSON HWY, GRAYSON, GA, 30017",628090921,"L"
98019,"1911 GRAYSON HIGHWAY SUITE 8-103","GRAYSON","GA",30017,33.8984806930001,-83.960415819,19,"1911 GRAYSON HIGHWAY SUITE 8-103, GRAYSON, GA, 30017","Match","Exact","1911 GRAYSON HWY, GRAYSON, GA, 30017",628090921,"L"
98020,"1911 GRAYSON HIGHWAY SUITE 8-145","GRAYSON","GA",30017,33.8984806930001,-83.960415819,20,"1911 GRAYSON HIGHWAY SUITE 8-145, GRAYSON, GA, 30017","Match","Exact","1911 GRAYSON HWY, GRAYSON, GA, 30017",628090921,"L"
98021,"1911 GRAYSON HIGHWAY","GRAYSON","GA",30017,33.8984806930001,-83.960415819,21,"1911 GRAYSON HIGHWAY, GRAYSON, GA, 30017","Match","Exact","1911 GRAYSON HWY, GRAYSON, GA, 30017",628090921,"L"
98022,"1911 GRAYSON HWY 8 198","GRAYSON","GA",30017,33.8984806930001,-83.960415819,22,"1911 GRAYSON HWY 8 198, GRAYSON, GA, 30017","Match","Exact","1911 GRAYSON HWY, GRAYSON, GA, 30017",628090921,"L"
98023,"1911 GRAYSON HWY SUITE 8 140","GRAYSON","GA",30017,33.8984806930001,-83.960415819,23,"1911 GRAYSON HWY SUITE 8 140, GRAYSON, GA, 30017","Match","Exact","1911 GRAYSON HWY, GRAYSON, GA, 30017",628090921,"L"
98024,"1911 GRAYSON HWY","GRAYSON","GA",30017,33.8984806930001,-83.960415819,24,"1911 GRAYSON HWY, GRAYSON, GA, 30017","Match","Exact","1911 GRAYSON HWY, GRAYSON, GA, 30017",628090921,"L"
98025,"1911 GREEN CANYON ROAD","FALLBROOK","CA",92029,33.357938244,-117.2161,25,"1911 GREEN CANYON ROAD, FALLBROOK, CA, 92029","Match","Non_Exact","1911 GREEN CANYON RD, FALLBROOK, CA, 92028",195287176,"R"
98026,"1911 HARDESTY AVE","KANSAS CITY","MO",64127,39.0881199990001,-94.5196456799999,26,"1911 HARDESTY AVE, KANSAS CITY, MO, 64127","Match","Exact","1911 HARDESTY AVE, KANSAS CITY, MO, 64127",91517350,"L"
98027,"1911 HARDING STREET","INDIANAPOLIS","IN",46202,39.7933880210001,-86.187448031,27,"1911 HARDING STREET, INDIANAPOLIS, IN, 46202","Match","Non_Exact","1911 N HARDING ST, INDIANAPOLIS, IN, 46202",107986640,"R"
98028,"1911 HARTSHORN AVE","TROY","MI",48083,42.551897796,-83.1427109859999,28,"1911 HARTSHORN AVE, TROY, MI, 48083","Match","Exact","1911 HARTSHORN AVE, TROY, MI, 48083",69794967,"L"
98029,"1911 HWY Y","FOLEY","MO",63347,NA,NA,29,"1911 HWY Y, FOLEY, MO, 63347","No_Match",NA,NA,NA,NA
98030,"1911 IRONWOOD LANE","BENSALEM","PA",19020,40.1058267290001,-74.930851785,30,"1911 IRONWOOD LANE, BENSALEM, PA, 19020","Match","Exact","1911 IRONWOOD LN, BENSALEM, PA, 19020",134768472,"L"
98031,"1911 J AVE STE 1","SHEPPARD AFB","TX",76311,NA,NA,31,"1911 J AVE STE 1, SHEPPARD AFB, TX, 76311","No_Match",NA,NA,NA,NA
98032,"1911 JANET LN","DECATUR","GA",30035,33.7347436360001,-84.221033069,32,"1911 JANET LN, DECATUR, GA, 30035","Match","Exact","1911 JANET LN, DECATUR, GA, 30035",23377634,"R"
98033,"1911 JOHNSVILLE BROOKVILLE RD","BROOKVILLE","OH",45309,39.7727351510001,-84.423180106,33,"1911 JOHNSVILLE BROOKVILLE RD, BROOKVILLE, OH, 45309","Match","Exact","1911 JOHNSVILLE BROOKVILLE RD, BROOKVILLE, OH, 45309",143559938,"L"
98034,"1911 KELONA DRIVE","SPRING","TX",77386,30.1343124850001,-95.411566877,34,"1911 KELONA DRIVE, SPRING, TX, 77386","Match","Exact","1911 KELONA DR, SPRING, TX, 77386",79285275,"L"
98035,"1911 KRESSON RD","CHERRY HILL","NJ",8003,39.8742708620001,-74.955469496,35,"1911 KRESSON RD, CHERRY HILL, NJ, 8003","Match","Exact","1911 KRESSON RD, CHERRY HILL, NJ, 08003",134417939,"L"
98036,"1911 LAUREL OAK CT","ARLINGTON","TX",76001,32.6437890930001,-97.136520703,36,"1911 LAUREL OAK CT, ARLINGTON, TX, 76001","Match","Exact","1911 LAUREL OAK CT, ARLINGTON, TX, 76001",618453399,"R"
98037,"1911 LINCOLN DRIVE","ANNAPOLIS","MD",21401,38.9734701140001,-76.521622452,37,"1911 LINCOLN DRIVE, ANNAPOLIS, MD, 21401","Match","Exact","1911 LINCOLN DR, ANNAPOLIS, MD, 21401",68184727,"L"
98038,"1911 MAIN AVE SUITE 206","DURANGO","CO",81301,37.2844383930001,-107.877108019,38,"1911 MAIN AVE SUITE 206, DURANGO, CO, 81301","Match","Exact","1911 MAIN AVE, DURANGO, CO, 81301",642435725,"L"
98039,"1911 MATHEWS AVENUE - APT 4","REDONDO BEACH","CA",90278,33.873792614,-118.379454368,39,"1911 MATHEWS AVENUE - APT 4, REDONDO BEACH, CA, 90278","Match","Exact","1911 MATHEWS AVE, REDONDO BEACH, CA, 90278",141583034,"L"
98040,"1911 MCFARLAND RD","JUNCTION CITY","KS",66441,39.0192132500001,-96.865591439,40,"1911 MCFARLAND RD, JUNCTION CITY, KS, 66441","Match","Non_Exact","1911 MC FARLAND RD, JUNCTION CITY, KS, 66441",28400993,"L"
98041,"1911 N BLUE MILLS RD","INDEPENDENCE","MO",64058,39.137753473,-94.339179139,41,"1911 N BLUE MILLS RD, INDEPENDENCE, MO, 64058","Match","Exact","1911 N BLUE MILLS RD, INDEPENDENCE, MO, 64058",91468550,"L"
98042,"1911 N MASCHER STREET","PHILADELPHIA","PA",19122,39.979189778,-75.135435152,42,"1911 N MASCHER STREET, PHILADELPHIA, PA, 19122","Match","Exact","1911 N MASCHER ST, PHILADELPHIA, PA, 19122",131425101,"R"
98043,"1911 NE 104TH TERRANCE","KANSAS CITY","MO",64155,NA,NA,43,"1911 NE 104TH TERRANCE, KANSAS CITY, MO, 64155","No_Match",NA,NA,NA,NA
98044,"1911 NE INNER LOOP","GEORGETOWN","TX",78626,30.6627895550001,-97.6491708349999,44,"1911 NE INNER LOOP, GEORGETOWN, TX, 78626","Match","Exact","1911 NE INNER LOOP, GEORGETOWN, TX, 78626",126529461,"R"
98045,"1911 NORTH CENTER AVENUE","SOMERSET","PA",15501,40.047348877,-79.0758198789999,45,"1911 NORTH CENTER AVENUE, SOMERSET, PA, 15501","Match","Exact","1911 N CENTER AVE, SOMERSET, PA, 15501",70243407,"L"
98046,"1911 NW 150 AVE SUITE 202","PEMBROKE PINES","FL",33028,26.026332758,-80.34750294,46,"1911 NW 150 AVE SUITE 202, PEMBROKE PINES, FL, 33028","Match","Non_Exact","1911 NW 150TH AVE, PEMBROKE PINES, FL, 33028",114801318,"L"
98047,"1911 NW JUANITA PLACE","CAPE CORAL","FL",33993,26.6876656250001,-81.975204842,47,"1911 NW JUANITA PLACE, CAPE CORAL, FL, 33993","Match","Exact","1911 NW JUANITA PL, CAPE CORAL, FL, 33993",118005720,"R"
98048,"1911 OAK HOLLOW CT","MISSOURI CITY","TX",77489,29.5808658510001,-95.5319751819999,48,"1911 OAK HOLLOW CT, MISSOURI CITY, TX, 77489","Match","Exact","1911 OAK HOLLOW CT, MISSOURI CITY, TX, 77489",78276145,"R"
98049,"1911 OAKVIEW DR","ROUND ROCK","TX",78681,30.5279079370001,-97.703920097,49,"1911 OAKVIEW DR, ROUND ROCK, TX, 78681","Match","Exact","1911 OAKVIEW DR, ROUND ROCK, TX, 78681",126476176,"L"
98050,"1911 PARKER STREET","BERKELEY","CA",94704,37.8616216550001,-122.271505574,50,"1911 PARKER STREET, BERKELEY, CA, 94704","Match","Exact","1911 PARKER ST, BERKELEY, CA, 94704",606130036,"L"
98051,"1911 PLANTATION PALMS DR","BRANDON","FL",33511,27.931273311,-82.3155529219999,51,"1911 PLANTATION PALMS DR, BRANDON, FL, 33511","Match","Exact","1911 PLANTATION PALMS DR, BRANDON, FL, 33511",104668986,"R"
98052,"1911 PRAIRIE DELL ROAD","UNION","MO",63084,NA,NA,52,"1911 PRAIRIE DELL ROAD, UNION, MO, 63084","No_Match",NA,NA,NA,NA
98053,"1911 ROOSEVELT STREET / APT 4","HOLLYWOOD","FL",33020,26.025316649,-80.14559831,53,"1911 ROOSEVELT STREET / APT 4, HOLLYWOOD, FL, 33020","Match","Exact","1911 ROOSEVELT ST, HOLLYWOOD, FL, 33020",114730484,"R"
98054,"1911 S FIR PLACE","BROKEN ARROW","OK",74012,36.033031974,-95.8237116559999,54,"1911 S FIR PLACE, BROKEN ARROW, OK, 74012","Match","Exact","1911 S FIR PL, BROKEN ARROW, OK, 74012",166463676,"L"
98055,"1911 SADDLEBROOK DR U163","MURFREESBORO","TN",37129,35.877521001,-86.395117871,55,"1911 SADDLEBROOK DR U163, MURFREESBORO, TN, 37129","Match","Exact","1911 SADDLEBROOK DR, MURFREESBORO, TN, 37129",650654947,"R"
98056,"1911 SADDLEBROOK DRIVE APT B10","MURFREESBORO","TN",37129,35.877521001,-86.395117871,56,"1911 SADDLEBROOK DRIVE APT B10, MURFREESBORO, TN, 37129","Match","Exact","1911 SADDLEBROOK DR, MURFREESBORO, TN, 37129",650654947,"R"
98057,"1911 SADDLEBROOK DRIVE UNIT F47","MURFREESBORO","TN",37129,35.877521001,-86.395117871,57,"1911 SADDLEBROOK DRIVE UNIT F47, MURFREESBORO, TN, 37129","Match","Exact","1911 SADDLEBROOK DR, MURFREESBORO, TN, 37129",650654947,"R"
98058,"1911 SAMPSON","BUTTE","MT",59701,45.982628892,-112.511421727,58,"1911 SAMPSON, BUTTE, MT, 59701","Match","Non_Exact","1911 SAMPSON AVE, BUTTE, MT, 59701",153579437,"R"
98059,"1911 SE TIBBETTS ST","PORTLAND","OR",97202,45.500631673,-122.64649321,59,"1911 SE TIBBETTS ST, PORTLAND, OR, 97202","Match","Exact","1911 SE TIBBETTS ST, PORTLAND, OR, 97202",157509468,"L"
98060,"1911 SECOND ST","LIVERMORE","CA",94550,37.6798509910001,-121.771921547,60,"1911 SECOND ST, LIVERMORE, CA, 94550","Match","Exact","1911 2ND ST, LIVERMORE, CA, 94550",606103522,"R"
98061,"1911 SENECA RD","EUCLID","OH",44117,41.557380815,-81.540841454,61,"1911 SENECA RD, EUCLID, OH, 44117","Match","Exact","1911 SENECA RD, EUCLID, OH, 44117",638889748,"L"
98062,"1911 SHERWOOD DRIVE","CAMBRIA","CA",93428,35.541884898,-121.093042631,62,"1911 SHERWOOD DRIVE, CAMBRIA, CA, 93428","Match","Exact","1911 SHERWOOD DR, CAMBRIA, CA, 93428",109857064,"R"
98063,"1911 SMILEY RD NE","LUDOWICI","GA",31316,31.840584801,-81.7724236299999,63,"1911 SMILEY RD NE, LUDOWICI, GA, 31316","Match","Non_Exact","1911 SMILEY RD, LUDOWICI, GA, 31316",647486226,"L"
98064,"1911 SOUTH 12TH STREET","ST LOUIS","MO",63104,38.6094637410001,-90.2088372699999,64,"1911 SOUTH 12TH STREET, ST LOUIS, MO, 63104","Match","Exact","1911 S 12TH ST, SAINT LOUIS, MO, 63104",107605430,"R"
98065,"1911 SOUTH HIGHWAY 76","RUSSELL SPRINGS","KY",42642,NA,NA,65,"1911 SOUTH HIGHWAY 76, RUSSELL SPRINGS, KY, 42642","No_Match",NA,NA,NA,NA
98066,"1911 SOUTH JOSEPHINE STREET 433","DENVER","CO",80210,39.681366478,-104.957933823,66,"1911 SOUTH JOSEPHINE STREET 433, DENVER, CO, 80210","Match","Exact","1911 S JOSEPHINE ST, DENVER, CO, 80210",638611326,"R"
98067,"1911 SPANISH BAY","SAN ANTONIO","TX",78260,29.675339837,-98.4586537549999,67,"1911 SPANISH BAY, SAN ANTONIO, TX, 78260","Match","Exact","1911 SPANISH BAY, SAN ANTONIO, TX, 78260",101702957,"R"
98068,"1911 STIRRUP LN","ALEXANDRIA","VA",22308,38.725989929,-77.0640585789999,68,"1911 STIRRUP LN, ALEXANDRIA, VA, 22308","Match","Exact","1911 STIRRUP LN, ALEXANDRIA, VA, 22308",75991268,"L"
98069,"1911 STONEY CHASE DR","LAWRENCEVILLE","GA",30044,33.9407699930001,-84.0559412859999,69,"1911 STONEY CHASE DR, LAWRENCEVILLE, GA, 30044","Match","Exact","1911 STONEY CHASE DR, LAWRENCEVILLE, GA, 30044",639806816,"L"
98070,"1911 SW BRANDON ST","SEATTLE","WA",98106,47.5537051270001,-122.358521929,70,"1911 SW BRANDON ST, SEATTLE, WA, 98106","Match","Exact","1911 SW BRANDON ST, SEATTLE, WA, 98106",186590934,"R"
98071,"1911 SW CAMPUS DR APT 653","FEDERAL WAY","WA",98023,47.3006754090001,-122.359242795,71,"1911 SW CAMPUS DR APT 653, FEDERAL WAY, WA, 98023","Match","Non_Exact","1911 SW CAMPUS DR, FEDERAL WAY, WA, 98023",648735512,"R"
98072,"1911 SW CAMPUS DR PO BOX 686","FEDERAL WAY","WA",98003,NA,NA,72,"1911 SW CAMPUS DR PO BOX 686, FEDERAL WAY, WA, 98003","No_Match",NA,NA,NA,NA
98073,"1911 SW CAMPUS DR UNIT 241","FEDERAL WAY","WA",98023,47.3006754090001,-122.359242795,73,"1911 SW CAMPUS DR UNIT 241, FEDERAL WAY, WA, 98023","Match","Non_Exact","1911 SW CAMPUS DR, FEDERAL WAY, WA, 98023",648735512,"R"
98074,"1911 SW CAMPUS DRIVE 663","FEDERAL WAY","WA",98023,47.3006754090001,-122.359242795,74,"1911 SW CAMPUS DRIVE 663, FEDERAL WAY, WA, 98023","Match","Non_Exact","1911 SW CAMPUS DR, FEDERAL WAY, WA, 98023",648735512,"R"
98075,"1911 SW CAMPUS DRIVE NUM 646","FEDERAL WAY","WA",98023,47.3006754090001,-122.359242795,75,"1911 SW CAMPUS DRIVE NUM 646, FEDERAL WAY, WA, 98023","Match","Non_Exact","1911 SW CAMPUS DR, FEDERAL WAY, WA, 98023",648735512,"R"
98076,"1911 SW CAMPUS DRIVE","FEDERAL WAY","WA",98023,47.3006754090001,-122.359242795,76,"1911 SW CAMPUS DRIVE, FEDERAL WAY, WA, 98023","Match","Exact","1911 SW CAMPUS DR, FEDERAL WAY, WA, 98023",648735512,"R"
98077,"1911 TYLER TRAIL","MCHENRY","IL",60051,42.354444786,-88.247891623,77,"1911 TYLER TRAIL, MCHENRY, IL, 60051","Match","Exact","1911 TYLER TRL, MCHENRY, IL, 60051",119873917,"L"
98078,"1911 W 30TH ST","CLEVELAND","OH",44113,41.4824642740001,-81.707101231,78,"1911 W 30TH ST, CLEVELAND, OH, 44113","Match","Exact","1911 W 30TH ST, CLEVELAND, OH, 44113",61109670,"L"
98079,"1911 W BELMONT","CHICAGO","IL",60618,NA,NA,79,"1911 W BELMONT, CHICAGO, IL, 60618","No_Match",NA,NA,NA,NA
98080,"1911 W BRADLEY PL","CHICAGO","IL",60613,41.949616683,-87.676772512,80,"1911 W BRADLEY PL, CHICAGO, IL, 60613","Match","Exact","1911 W BRADLEY PL, CHICAGO, IL, 60613",605152275,"L"
98081,"1911 WALTER RALEIGH","WINDCREST","TX",78239,29.522033391,-98.364459262,81,"1911 WALTER RALEIGH, WINDCREST, TX, 78239","Match","Exact","1911 WALTER RALEIGH, WINDCREST, TX, 78239",624512673,"L"
98082,"1911 WARM SPRINGS RD","COLUMBUS","GA",31904,32.49595666,-84.96406684,82,"1911 WARM SPRINGS RD, COLUMBUS, GA, 31904","Match","Exact","1911 WARM SPRINGS RD, COLUMBUS, GA, 31904",98938591,"L"
98083,"1911 WASHINGTON AVENUE","CEDAR RAPIDS","IA",52304,NA,NA,83,"1911 WASHINGTON AVENUE, CEDAR RAPIDS, IA, 52304","No_Match",NA,NA,NA,NA
98084,"1911 WEST 85TH AVENUE APT M366","MERRILLVILLE","IN",46410,41.463732642,-87.358525506,84,"1911 WEST 85TH AVENUE APT M366, MERRILLVILLE, IN, 46410","Match","Exact","1911 W 85TH AVE, MERRILLVILLE, IN, 46410",631988124,"R"
98085,"1911 WESTRIDGE DR UNIT A","AUSTIN","TX",78704,30.2561171410001,-97.779562152,85,"1911 WESTRIDGE DR UNIT A, AUSTIN, TX, 78704","Match","Exact","1911 WESTRIDGE DR, AUSTIN, TX, 78704",63943708,"L"
98086,"1911 WINDY WILLOW LANE","DALLAS","NC",28034,35.31046982,-81.14394434,86,"1911 WINDY WILLOW LANE, DALLAS, NC, 28034","Match","Exact","1911 WINDY WILLOW LN, DALLAS, NC, 28034",649160906,"R"
98087,"1911 WOLF TECH LANE APT 102","RALEIGH","NC",27603,35.751106529,-78.695375004,87,"1911 WOLF TECH LANE APT 102, RALEIGH, NC, 27603","Match","Exact","1911 WOLF TECH LN, RALEIGH, NC, 27603",208346958,"L"
98088,"1911 WOODSHADE COURT","BOWIE","MD",20721,38.915507689,-76.7928251,88,"1911 WOODSHADE COURT, BOWIE, MD, 20721","Match","Exact","1911 WOODSHADE CT, BOWIE, MD, 20721",76359876,"R"
98089,"1911-A BATAAN RD","REDONDO BEACH","CA",90278,33.8846573160001,-118.378393917,89,"1911-A BATAAN RD, REDONDO BEACH, CA, 90278","Match","Exact","1911 BATAAN RD, REDONDO BEACH, CA, 90278",141582867,"L"
98090,"19110 CORK AVE","SANDY","OR",97055,45.3848690670001,-122.271548258,90,"19110 CORK AVE, SANDY, OR, 97055","Match","Exact","19110 CORK AVE, SANDY, OR, 97055",641457551,"L"
98091,"19110 FIR CANYON TRL","CYPRESS","TX",77429,29.984337897,-95.717570666,91,"19110 FIR CANYON TRL, CYPRESS, TX, 77429","Match","Exact","19110 FIR CANYON TRL, CYPRESS, TX, 77429",628041446,"R"
98092,"19110 MONTGOMERY VILLAGE AVENUE","MONTGOMERY VILLAGE","MD",20886,39.1700513370001,-77.2043842099999,92,"19110 MONTGOMERY VILLAGE AVENUE, MONTGOMERY VILLAGE, MD, 20886","Match","Exact","19110 MONTGOMERY VILLAGE AVE, MONTGOMERY VILLAGE, MD, 20886",62050061,"L"
98093,"19110 STONE POINT STREET","SPRING","TX",77388,30.0533260390001,-95.481287707,93,"19110 STONE POINT STREET, SPRING, TX, 77388","Match","Exact","19110 STONE POINT ST, SPRING, TX, 77388",96008351,"R"
98094,"19111 ELIZABETH BLVD","MADILL","OK",73446,34.1001931160001,-96.792286276,94,"19111 ELIZABETH BLVD, MADILL, OK, 73446","Match","Exact","19111 ELIZABETH BLVD, MADILL, OK, 73446",640762404,"L"
98095,"19113 E COTTONWOOD DR 936","PARKER","CO",80138,39.5567296610001,-104.769219285,95,"19113 E COTTONWOOD DR 936, PARKER, CO, 80138","Match","Exact","19113 COTTONWOOD DR, PARKER, CO, 80138",645008708,"L"
98096,"19113 NE 25TH STREET","VANCOUVER","WA",98684,45.6406362590001,-122.480390849,96,"19113 NE 25TH STREET, VANCOUVER, WA, 98684","Match","Exact","19113 NE 25TH ST, VANCOUVER, WA, 98684",646675724,"R"
98097,"19114 CHOCTAW ROAD","BEND","OR",97702,43.990274577,-121.369748348,97,"19114 CHOCTAW ROAD, BEND, OR, 97702","Match","Exact","19114 CHOCTAW RD, BEND, OR, 97702",636596557,"R"
98098,"19114 N 78TH LANE","GLENDALE","AZ",85308,33.6569725680001,-112.227215545,98,"19114 N 78TH LANE, GLENDALE, AZ, 85308","Match","Exact","19114 N 78TH LN, GLENDALE, AZ, 85308",128386327,"R"
98099,"19114 SILVER SPUR ROAD","SPRINGDALE","AR",72764,36.145503735,-94.061232553,99,"19114 SILVER SPUR ROAD, SPRINGDALE, AR, 72764","Match","Exact","19114 SILVER SPUR RD, SPRINGDALE, AR, 72764",49068238,"L"
98100,"191141 4750 J STREET","SACRAMENTO","CA",95819,38.5671261530001,-121.444083102,100,"191141 4750 J STREET, SACRAMENTO, CA, 95819","Match","Exact","4750 J ST, SACRAMENTO, CA, 95819",133334815,"R"
98101,"19115 E 55TH AVE","DENVER","CO",80249,39.7948731560001,-104.765184705,101,"19115 E 55TH AVE, DENVER, CO, 80249","Match","Exact","19115 E 55TH AVE, DENVER, CO, 80249",650195616,"L"
98102,"19115 LEAPWOOD AVENUE","CARSON","CA",90746,33.8573448430001,-118.261942013,102,"19115 LEAPWOOD AVENUE, CARSON, CA, 90746","Match","Exact","19115 LEAPWOOD AVE, CARSON, CA, 90746",141680473,"R"
98103,"19115 NE 45TH PL","SAMMAMISH","WA",98074,47.6497673420001,-122.082662906,103,"19115 NE 45TH PL, SAMMAMISH, WA, 98074","Match","Exact","19115 NE 45TH PL, SAMMAMISH, WA, 98074",186920770,"L"
98104,"19115 TIMBER TRACE TRAIL","HUMBLE","TX",77346,29.9943646680001,-95.170757662,104,"19115 TIMBER TRACE TRAIL, HUMBLE, TX, 77346","Match","Non_Exact","19115 TIMBER TRACE DR, HUMBLE, TX, 77346",96416821,"L"
98105,"19116 QUEENSPORT LANE C","HUNTINGTON BEACH","CA",92646,33.6857735510001,-117.986370992,105,"19116 QUEENSPORT LANE C, HUNTINGTON BEACH, CA, 92646","Match","Exact","19116 QUEENSPORT LN, HUNTINGTON BEACH, CA, 92646",144071380,"R"
98106,"19117 RICHMOND BEACH DRIVE NW","SHORELINE","WA",98177,47.767722796,-122.38762201,106,"19117 RICHMOND BEACH DRIVE NW, SHORELINE, WA, 98177","Match","Exact","19117 RICHMOND BEACH DR NW, SHORELINE, WA, 98177",186572916,"L"
98107,"19117 W 61ST AVE","GOLDEN","CO",80403,39.8064069420001,-105.216593002,107,"19117 W 61ST AVE, GOLDEN, CO, 80403","Match","Exact","19117 W 61ST AVE, GOLDEN, CO, 80403",177750310,"R"
98108,"19118 EAST VIA DEL VERDE","QUEEN CREEK","AZ",85142,33.239864015,-111.670947086,108,"19118 EAST VIA DEL VERDE, QUEEN CREEK, AZ, 85142","Match","Exact","19118 E VIA DEL VERDE, QUEEN CREEK, AZ, 85142",642640988,"R"
98109,"19119 COLLINSON","EASTPOINTE","MI",48021,42.4523663570001,-82.931449153,109,"19119 COLLINSON, EASTPOINTE, MI, 48021","Match","Non_Exact","19119 COLLINSON AVE, EASTPOINTE, MI, 48021",110685280,"L"
98110,"1912 8TH AVE W","SEATTLE","WA",98119,47.636169583,-122.367665629,110,"1912 8TH AVE W, SEATTLE, WA, 98119","Match","Exact","1912 8TH AVE W, SEATTLE, WA, 98119",186581865,"R"
98111,"1912 ASHLAND DR","CLEARWATER","FL",33763,27.999276923,-82.758249635,111,"1912 ASHLAND DR, CLEARWATER, FL, 33763","Match","Exact","1912 ASHLAND DR, CLEARWATER, FL, 33763",124781683,"L"
98112,"1912 BASSET TRAIL","GREENSBORO","NC",27410,36.1098972680001,-79.8664203769999,112,"1912 BASSET TRAIL, GREENSBORO, NC, 27410","Match","Exact","1912 BASSET TRL, GREENSBORO, NC, 27410",131050345,"R"
98113,"1912 BROADWAY SUITE 105","SANTA MONICA","CA",90404,34.026624236,-118.479251018,113,"1912 BROADWAY SUITE 105, SANTA MONICA, CA, 90404","Match","Exact","1912 BROADWAY, SANTA MONICA, CA, 90404",142715853,"R"
98114,"1912 BROOKSTONE RIDGE","COLLEGE PARK","GA",30349,33.597626394,-84.424843835,114,"1912 BROOKSTONE RIDGE, COLLEGE PARK, GA, 30349","Match","Exact","1912 BROOKSTONE RIDGE, COLLEGE PARK, GA, 30349",23322269,"R"
98115,"1912 CHEROKEE AVENUE SW","CULLMAN","AL",35055,34.148237647,-86.845329555,115,"1912 CHEROKEE AVENUE SW, CULLMAN, AL, 35055","Match","Exact","1912 CHEROKEE AVE SW, CULLMAN, AL, 35055",130221138,"L"
98116,"1912 E OCEAN VIEW AVENUE APT D","NORFOLK","VA",23503,36.9380235420001,-76.2217429899999,116,"1912 E OCEAN VIEW AVENUE APT D, NORFOLK, VA, 23503","Match","Non_Exact","1912 E OCEAN VIEW AVE, NORFOLK, VA, 23503",639823163,"L"
98117,"1912 E WARNE AVE","SAINT LOUIS","MO",63107,38.6770956990001,-90.2142384049999,117,"1912 E WARNE AVE, SAINT LOUIS, MO, 63107","Match","Exact","1912 E WARNE AVE, SAINT LOUIS, MO, 63107",107603326,"L"
98118,"1912 EASTCHESTER DR STE 400","HIGH POINT","NC",27265,36.0109925420001,-79.9839160349999,118,"1912 EASTCHESTER DR STE 400, HIGH POINT, NC, 27265","Match","Exact","1912 EASTCHESTER DR, HIGH POINT, NC, 27265",641622788,"R"
98119,"1912 FAISON AVENUE","FORT MILL","SC",29708,35.0167223730001,-80.9751279609999,119,"1912 FAISON AVENUE, FORT MILL, SC, 29708","Match","Exact","1912 FAISON AVE, FORT MILL, SC, 29708",618822218,"R"
98120,"1912 FENWICK AVENUE","EAU CLAIRE","WI",54701,44.8036794510001,-91.474587819,120,"1912 FENWICK AVENUE, EAU CLAIRE, WI, 54701","Match","Exact","1912 FENWICK AVE, EAU CLAIRE, WI, 54701",46068222,"L"
98121,"1912 FREEMAN ROAD","CALEDONIA","MS",39740,33.727581163,-88.287654995,121,"1912 FREEMAN ROAD, CALEDONIA, MS, 39740","Match","Exact","1912 FREEMAN RD, CALEDONIA, MS, 39740",649550114,"R"
98122,"1912 GLENWICK DR","PLANO","TX",75075,33.018643502,-96.728060039,122,"1912 GLENWICK DR, PLANO, TX, 75075","Match","Exact","1912 GLENWICK DR, PLANO, TX, 75075",123488226,"L"
98123,"1912 GREEN MOUNTAIN DR APT 421","LITTLE ROCK","AR",72212,34.7703485600001,-92.403647963,123,"1912 GREEN MOUNTAIN DR APT 421, LITTLE ROCK, AR, 72212","Match","Exact","1912 GREEN MOUNTAIN DR, LITTLE ROCK, AR, 72212",83535214,"R"
98124,"1912 GREEN MOUNTAIN DRIVE APT 122","LITTLE ROCK","AR",72212,34.7703485600001,-92.403647963,124,"1912 GREEN MOUNTAIN DRIVE APT 122, LITTLE ROCK, AR, 72212","Match","Exact","1912 GREEN MOUNTAIN DR, LITTLE ROCK, AR, 72212",83535214,"R"
98125,"1912 I STREET","SACRAMENTO","CA",95811,38.5780914740001,-121.48061161,125,"1912 I STREET, SACRAMENTO, CA, 95811","Match","Exact","1912 I ST, SACRAMENTO, CA, 95811",133324214,"R"
98126,"1912 MANCHESTER RD","ST. JOSEPH","MO",64505,39.790113133,-94.836586514,126,"1912 MANCHESTER RD, ST. JOSEPH, MO, 64505","Match","Exact","1912 MANCHESTER RD, SAINT JOSEPH, MO, 64505",15951547,"R"
98127,"1912 MARTIN AVENUE","MC ALLEN","TX",78504,26.2621886910001,-98.230929724,127,"1912 MARTIN AVENUE, MC ALLEN, TX, 78504","Match","Non_Exact","1912 MARTIN AVE, MCALLEN, TX, 78504",71493657,"L"
98128,"1912 MARTIN LUTHER KING JR BLVD","DALLAS","TX",75215,32.7632497870001,-96.7752311949999,128,"1912 MARTIN LUTHER KING JR BLVD, DALLAS, TX, 75215","Match","Exact","1912 MARTIN LUTHER KING JR BLVD, DALLAS, TX, 75215",103196927,"R"
98129,"1912 MEMORIAL DRIVE","CAYCE","SC",29033,33.9572675680001,-81.084896515,129,"1912 MEMORIAL DRIVE, CAYCE, SC, 29033","Match","Exact","1912 MEMORIAL DR, CAYCE, SC, 29033",70055715,"R"
98130,"1912 MESA GRANDE LOOP NE","RIO RANCHO","NM",87144,35.305201653,-106.697705432,130,"1912 MESA GRANDE LOOP NE, RIO RANCHO, NM, 87144","Match","Exact","1912 MESA GRANDE LOOP NE, RIO RANCHO, NM, 87144",611360354,"L"
98131,"1912 MIDLAND AVENUE","GLENWOOD SPRINGS","CO",81601,39.5325822570001,-107.329607608,131,"1912 MIDLAND AVENUE, GLENWOOD SPRINGS, CO, 81601","Match","Exact","1912 MIDLAND AVE, GLENWOOD SPGS, CO, 81601",605472192,"R"
98132,"1912 MOODY ROAD","VIRGINIA BEACH","VA",23455,36.9007234160001,-76.173327996,132,"1912 MOODY ROAD, VIRGINIA BEACH, VA, 23455","Match","Exact","1912 MOODY RD, VIRGINIA BCH, VA, 23455",122258505,"R"
98133,"1912 N CHAMBERS TER","CLAREMORE","OK",74017,NA,NA,133,"1912 N CHAMBERS TER, CLAREMORE, OK, 74017","No_Match",NA,NA,NA,NA
98134,"1912 NE 84TH WAY","VANCOUVER","WA",98665,45.683782283,-122.652450827,134,"1912 NE 84TH WAY, VANCOUVER, WA, 98665","Match","Exact","1912 NE 84TH WAY, VANCOUVER, WA, 98665",158352315,"L"
98135,"1912 OLD COURT RD","TOWSON","MD",21204,39.4089488450001,-76.6556166679999,135,"1912 OLD COURT RD, TOWSON, MD, 21204","Match","Exact","1912 OLD COURT RD, TOWSON, MD, 21204",191541532,"R"
98136,"1912 OLIVINE COURT","SILVER SPRING","MD",20904,39.0687729090001,-76.9737758539999,136,"1912 OLIVINE COURT, SILVER SPRING, MD, 20904","Match","Exact","1912 OLIVINE CT, SILVER SPRING, MD, 20904",62073000,"L"
98137,"1912 OSBORNE RD","CUMMINGS","KS",66016,39.445750048,-95.1890452919999,137,"1912 OSBORNE RD, CUMMINGS, KS, 66016","Match","Exact","1912 OSBORNE RD, CUMMINGS, KS, 66016",10057800,"L"
98138,"1912 PARK AVENUE","BALTIMORE","MD",21217,39.311995397,-76.628109213,138,"1912 PARK AVENUE, BALTIMORE, MD, 21217","Match","Exact","1912 PARK AVE, BALTIMORE, MD, 21217",206416828,"L"
98139,"1912 PENFIELD ST","PHILADELPHIA","PA",19138,40.066472606,-75.147647637,139,"1912 PENFIELD ST, PHILADELPHIA, PA, 19138","Match","Exact","1912 PENFIELD ST, PHILADELPHIA, PA, 19138",652294156,"L"
98140,"1912 PIN OAK DRIVE","CHANDLER","OK",74834,35.693864691,-96.903332357,140,"1912 PIN OAK DRIVE, CHANDLER, OK, 74834","Match","Exact","1912 PIN OAK DR, CHANDLER, OK, 74834",635818625,"L"
98141,"1912 QUARTET DR","NORTH LAS VEGAS","NV",89032,36.229750547,-115.169180398,141,"1912 QUARTET DR, NORTH LAS VEGAS, NV, 89032","Match","Exact","1912 QUARTET DR, N LAS VEGAS, NV, 89032",201908867,"R"
98142,"1912 RAMBLEWOOD RD","PETERSBURG","VA",23805,37.19280265,-77.4118113489999,142,"1912 RAMBLEWOOD RD, PETERSBURG, VA, 23805","Match","Exact","1912 RAMBLEWOOD RD, PETERSBURG, VA, 23805",54152046,"L"
98143,"1912 SOUTH 31ST","MCALLEN","TX",78503,26.190356219,-98.2586755249999,143,"1912 SOUTH 31ST, MCALLEN, TX, 78503","Match","Non_Exact","1912 S 31ST ST, MCALLEN, TX, 78503",71500510,"R"
98144,"1912 SOUTH ALDEN STREE","PHILADELPHIA","PA",19143,39.936159145,-75.227417593,144,"1912 SOUTH ALDEN STREE, PHILADELPHIA, PA, 19143","Match","Non_Exact","1912 S ALDEN ST, PHILADELPHIA, PA, 19143",131409114,"R"
98145,"1912 SPRUCE STREET APT 2F","PHILADELPHIA","PA",19103,39.948004623,-75.173033576,145,"1912 SPRUCE STREET APT 2F, PHILADELPHIA, PA, 19103","Match","Exact","1912 SPRUCE ST, PHILADELPHIA, PA, 19103",131407149,"L"
98146,"1912 SPYGLASS CT","LAWRENCE","KS",66047,38.9503395360001,-95.306223065,146,"1912 SPYGLASS CT, LAWRENCE, KS, 66047","Match","Exact","1912 SPYGLASS CT, LAWRENCE, KS, 66047",17690818,"R"
98147,"1912 SUAZE ST","EDINBURG","TX",78541,26.324942659,-98.188877916,147,"1912 SUAZE ST, EDINBURG, TX, 78541","Match","Non_Exact","1912 N SUAZE ST, EDINBURG, TX, 78541",71542542,"R"
98148,"1912 TRENT VALLEY LN","KNOXVILLE","TN",37938,36.069366829,-83.973841823,148,"1912 TRENT VALLEY LN, KNOXVILLE, TN, 37938","Match","Exact","1912 TRENT VALLEY LN, KNOXVILLE, TN, 37938",604667462,"R"
98149,"1912 TRINITY DRIVE","HUNTERTOWN","IN",46748,41.2304114140001,-85.169791093,149,"1912 TRINITY DRIVE, HUNTERTOWN, IN, 46748","Match","Non_Exact","1912 TRINITY ST, HUNTERTOWN, IN, 46748",635655181,"R"
98150,"1912 W MC DONALD AVE","NORTH LAS VEGAS","NV",89032,36.2038227670001,-115.167243816,150,"1912 W MC DONALD AVE, NORTH LAS VEGAS, NV, 89032","Match","Non_Exact","1912 W MCDONALD AVE, N LAS VEGAS, NV, 89032",201863905,"R"
98151,"1912 WILDCAT ROAD","BIG STONE GAP","VA",24219,36.856927698,-82.753991904,151,"1912 WILDCAT ROAD, BIG STONE GAP, VA, 24219","Match","Exact","1912 WILDCAT RD, BIG STONE GAP, VA, 24219",83457117,"R"
98152,"19120 FM 529 UNIT E","CYPRESS","TX",77433,29.88000141,-95.7006447209999,152,"19120 FM 529 UNIT E, CYPRESS, TX, 77433","Match","Non_Exact","19120 FM 529, CYPRESS, TX, 77433",642106281,"L"
98153,"19120 FREEPORT ST NW 660","ELK RIVER","MN",55330,NA,NA,153,"19120 FREEPORT ST NW 660, ELK RIVER, MN, 55330","Tie",NA,NA,NA,NA
98154,"19120 NW 10TH AVENUE","MIAMI","FL",33169,25.9496152180001,-80.217521872,154,"19120 NW 10TH AVENUE, MIAMI, FL, 33169","Match","Non_Exact","19120 NW 10TH AVE, MIAMI, FL, 33169",116029301,"L"
98155,"19121 CARVER LANE","FOLEY","AL",36535,30.4434037180001,-87.697839168,155,"19121 CARVER LANE, FOLEY, AL, 36535","Match","Exact","19121 CARVER LN, FOLEY, AL, 36535",131694181,"R"
98156,"19121 NW 80 CT","MIAMI","FL",33015,NA,NA,156,"19121 NW 80 CT, MIAMI, FL, 33015","Tie",NA,NA,NA,NA
98157,"19123 E VIA DE ARBOLES","QUEEN CREEK","AZ",85142,33.228601483,-111.671020208,157,"19123 E VIA DE ARBOLES, QUEEN CREEK, AZ, 85142","Match","Exact","19123 E VIA DE ARBOLES, QUEEN CREEK, AZ, 85142",642657945,"R"
98158,"19123 RUSTIC GATE","CYPRESS","TX",77433,29.8867754500001,-95.698784978,158,"19123 RUSTIC GATE, CYPRESS, TX, 77433","Match","Non_Exact","19123 RUSTIC GATE DR, CYPRESS, TX, 77433",626962494,"R"
98159,"19123 YOKO LANE","RIVERSIDE","CA",92508,33.9117923850001,-117.330951608,159,"19123 YOKO LANE, RIVERSIDE, CA, 92508","Match","Exact","19123 YOKO LN, RIVERSIDE, CA, 92508",627185942,"R"
98160,"19123 YONTZ ROAD","BROOKSVILLE","FL",34601,28.5778436800001,-82.418815632,160,"19123 YONTZ ROAD, BROOKSVILLE, FL, 34601","Match","Exact","19123 YONTZ RD, BROOKSVILLE, FL, 34601",85460553,"L"
98161,"19124 CROSSDALE AVE","CERRITOS","CA",90703,33.8568733210001,-118.096828697,161,"19124 CROSSDALE AVE, CERRITOS, CA, 90703","Match","Exact","19124 CROSSDALE AVE, CERRITOS, CA, 90703",141743413,"L"
98162,"19124 GRENELEFE COURT","NORTH FORT MYERS","FL",33903,26.741593015,-81.935829892,162,"19124 GRENELEFE COURT, NORTH FORT MYERS, FL, 33903","Match","Exact","19124 GRENELEFE CT, N FORT MYERS, FL, 33903",118076974,"R"
98163,"19125 MESA DRIVE","VILLA PARK","CA",92861,33.8229573140001,-117.798615498,163,"19125 MESA DRIVE, VILLA PARK, CA, 92861","Match","Exact","19125 MESA DR, VILLA PARK, CA, 92861",609069716,"L"
98164,"19125 SE 44TH WAY","ISSAQUAH","WA",98027,47.565872347,-122.085631964,164,"19125 SE 44TH WAY, ISSAQUAH, WA, 98027","Match","Exact","19125 SE 44TH WAY, ISSAQUAH, WA, 98027",186615968,"R"
98165,"19127 E VALLEJO STREET","QUEEN CREEK","AZ",85142,33.2240100440001,-111.670759136,165,"19127 E VALLEJO STREET, QUEEN CREEK, AZ, 85142","Match","Exact","19127 E VALLEJO ST, QUEEN CREEK, AZ, 85142",651690715,"R"
98166,"1913 5TH AVE E","WEST FARGO","ND",58078,46.8709163660001,-96.86927909,166,"1913 5TH AVE E, WEST FARGO, ND, 58078","Match","Exact","1913 5TH AVE E, WEST FARGO, ND, 58078",151449518,"R"
98167,"1913 68TH STREET","WINDSOR HEIGHTS","IA",50324,41.6116309290001,-93.709685843,167,"1913 68TH STREET, WINDSOR HEIGHTS, IA, 50324","Match","Exact","1913 68TH ST, WINDSOR HEIGHTS, IA, 50324",65828628,"R"
98168,"1913 ARMSTRONG DRIVE","PLANO","TX",75074,33.0286714470001,-96.6879837119999,168,"1913 ARMSTRONG DRIVE, PLANO, TX, 75074","Match","Exact","1913 ARMSTRONG DR, PLANO, TX, 75074",210523568,"L"
98169,"1913 BAKER ROAD","ASHVILLE","AL",35953,NA,NA,169,"1913 BAKER ROAD, ASHVILLE, AL, 35953","No_Match",NA,NA,NA,NA
98170,"1913 BELLES FERRY COURT","WINTERVILLE","NC",28590,NA,NA,170,"1913 BELLES FERRY COURT, WINTERVILLE, NC, 28590","No_Match",NA,NA,NA,NA
98171,"1913 BENTWATER PARKWAY","GRANBURY","TX",76049,32.494042462,-97.758587126,171,"1913 BENTWATER PARKWAY, GRANBURY, TX, 76049","Match","Exact","1913 BENTWATER PKWY, GRANBURY, TX, 76049",636772679,"R"
98172,"1913 BRIDGEWATER DRIVE","ALLEN","TX",75013,33.117948149,-96.7263380969999,172,"1913 BRIDGEWATER DRIVE, ALLEN, TX, 75013","Match","Exact","1913 BRIDGEWATER DR, ALLEN, TX, 75013",123561382,"R"
98173,"1913 BROAD RIPPLE AVE","INDIANAPOLIS","IN",46220,39.868648111,-86.128019081,173,"1913 BROAD RIPPLE AVE, INDIANAPOLIS, IN, 46220","Match","Exact","1913 BROAD RIPPLE AVE, INDIANAPOLIS, IN, 46220",107984891,"R"
98174,"1913 CARDAMON DR","TRINITY","FL",34655,28.187175412,-82.643033448,174,"1913 CARDAMON DR, TRINITY, FL, 34655","Match","Exact","1913 CARDAMON DR, TRINITY, FL, 34655",86401042,"R"
98175,"1913 CHELSEA GREEN DRIVE","VIRGINIA BEACH","VA",23456,36.776625016,-76.0352323609999,175,"1913 CHELSEA GREEN DRIVE, VIRGINIA BEACH, VA, 23456","Match","Exact","1913 CHELSEA GREEN DR, VA BCH, VA, 23456",641468355,"R"
98176,"1913 DEE AVE","COLUMBUS","GA",31903,32.4196208600001,-84.960276129,176,"1913 DEE AVE, COLUMBUS, GA, 31903","Match","Exact","1913 DEE AVE, COLUMBUS, GA, 31903",98942268,"R"
98177,"1913 DERBY GLEN DRIVE","ORLANDO","FL",32837,28.359333506,-81.397138876,177,"1913 DERBY GLEN DRIVE, ORLANDO, FL, 32837","Match","Exact","1913 DERBY GLEN DR, ORLANDO, FL, 32837",94396511,"L"
98178,"1913 DUNLAVY","HOUSTON","TX",77006,29.7488746270001,-95.40214043,178,"1913 DUNLAVY, HOUSTON, TX, 77006","Match","Non_Exact","1913 DUNLAVY ST, HOUSTON, TX, 77006",652311390,"L"
98179,"1913 DUPONT AVE S UNIT 4","MINNEAPOLIS","MN",55403,44.9641082410001,-93.293062832,179,"1913 DUPONT AVE S UNIT 4, MINNEAPOLIS, MN, 55403","Match","Exact","1913 DUPONT AVE S, MINNEAPOLIS, MN, 55403",43624659,"L"
98180,"1913 E LINDA VISTA","FLAGSTAFF","AZ",86004,35.2220427730001,-111.616195155,180,"1913 E LINDA VISTA, FLAGSTAFF, AZ, 86004","Match","Non_Exact","1913 E LINDA VISTA DR, FLAGSTAFF, AZ, 86004",188863165,"L"
98181,"1913 EUCLID AVENUE STE 108","SAN DIEGO","CA",92105,32.725445875,-117.08488936,181,"1913 EUCLID AVENUE STE 108, SAN DIEGO, CA, 92105","Match","Exact","1913 EUCLID AVE, SAN DIEGO, CA, 92105",195699104,"R"
98182,"1913 FREEMANSBURG AVE","EASTON","PA",18042,40.68272647,-75.2391699519999,182,"1913 FREEMANSBURG AVE, EASTON, PA, 18042","Match","Exact","1913 FREEMANSBURG AVE, EASTON, PA, 18042",136881836,"R"
98183,"1913 GLACIER RIDGE DRIVE","PLAINFIELD","IL",60586,41.5548331910001,-88.243780809,183,"1913 GLACIER RIDGE DRIVE, PLAINFIELD, IL, 60586","Match","Exact","1913 GLACIER RIDGE DR, PLAINFIELD, IL, 60586",651472449,"L"
98184,"1913 LYNCH ST","SAINT LOUIS","MO",63118,38.601228474,-90.216869918,184,"1913 LYNCH ST, SAINT LOUIS, MO, 63118","Match","Exact","1913 LYNCH ST, SAINT LOUIS, MO, 63118",107602636,"R"
98185,"1913 MAPLEVIEW COURT","SWANSEA","IL",62226,38.5604816270001,-89.9603302529999,185,"1913 MAPLEVIEW COURT, SWANSEA, IL, 62226","Match","Exact","1913 MAPLEVIEW CT, SWANSEA, IL, 62226",107870339,"R"
98186,"1913 MARSDALE ROAD","BALTIMORE","MD",21222,39.2577555560001,-76.486171194,186,"1913 MARSDALE ROAD, BALTIMORE, MD, 21222","Match","Exact","1913 MARSDALE RD, BALTIMORE, MD, 21222",191516129,"L"
98187,"1913 MC 6014","YELLVILLE","AR",72687,NA,NA,187,"1913 MC 6014, YELLVILLE, AR, 72687","No_Match",NA,NA,NA,NA
98188,"1913 MYSTIC DRIVE","DURHAM","NC",27712,36.0857941090001,-78.9446973669999,188,"1913 MYSTIC DRIVE, DURHAM, NC, 27712","Match","Exact","1913 MYSTIC DR, DURHAM, NC, 27712",71767171,"L"
98189,"1913 N WILBURN AVE","BETHANY","OK",73008,35.488509455,-97.640505809,189,"1913 N WILBURN AVE, BETHANY, OK, 73008","Match","Exact","1913 N WILBURN AVE, BETHANY, OK, 73008",100389615,"L"
98190,"1913 NORTH STREET","BATON ROUGE","LA",70802,30.4530607560001,-91.168957237,190,"1913 NORTH STREET, BATON ROUGE, LA, 70802","Match","Exact","1913 NORTH ST, BATON ROUGE, LA, 70802",92182417,"L"
98191,"1913 OAK ST","SOUTH PASADENA","CA",91030,34.1078063780001,-118.143820509,191,"1913 OAK ST, SOUTH PASADENA, CA, 91030","Match","Exact","1913 OAK ST, SOUTH PASADENA, CA, 91030",141631215,"R"
98192,"1913 OLD SAVANNAH RD","AUGUSTA","GA",30901,33.448886374,-81.989044588,192,"1913 OLD SAVANNAH RD, AUGUSTA, GA, 30901","Match","Exact","1913 OLD SAVANNAH RD, AUGUSTA, GA, 30901",55657355,"R"
98193,"1913 P ST SE","WASHINGTON","DC",20020,38.8720196200001,-76.9770901429999,193,"1913 P ST SE, WASHINGTON, DC, 20020","Match","Exact","1913 P ST SE, WASHINGTON, DC, 20020",76231718,"R"
98194,"1913 REINDEER PLACE","BEAR","DE",19701,NA,NA,194,"1913 REINDEER PLACE, BEAR, DE, 19701","No_Match",NA,NA,NA,NA
98195,"1913 S SPAULDING AVE","CHICAGO","IL",60623,41.854954429,-87.707772823,195,"1913 S SPAULDING AVE, CHICAGO, IL, 60623","Match","Exact","1913 S SPAULDING AVE, CHICAGO, IL, 60623",111799504,"L"
98196,"1913 SOUTH WILLIAMSBURG ROAD","BASSFIELD","MS",39421,31.4610888670001,-89.7423080619999,196,"1913 SOUTH WILLIAMSBURG ROAD, BASSFIELD, MS, 39421","Match","Exact","1913 S WILLIAMSBURG RD, BASSFIELD, MS, 39421",381998,"L"
98197,"1913 ST RT 183","ATWATER","OH",44201,41.0404087430001,-81.148012416,197,"1913 ST RT 183, ATWATER, OH, 44201","Match","Non_Exact","1913 STATE RTE 183, ATWATER, OH, 44201",640663510,"L"
98198,"1913 SW WEBSTER ST","SEATLLE","WA",98106,47.5355124710001,-122.358895559,198,"1913 SW WEBSTER ST, SEATLLE, WA, 98106","Match","Non_Exact","1913 SW WEBSTER ST, SEATTLE, WA, 98106",186591147,"L"
98199,"1913 THE WOODS CIRCLE","BARNHART","MO",63012,38.348334154,-90.410039512,199,"1913 THE WOODS CIRCLE, BARNHART, MO, 63012","Match","Exact","1913 THE WOODS CIR, BARNHART, MO, 63012",62799985,"R"
98200,"1913 TRAVIS RUN","ROCKY MOUNT","NC",27804,NA,NA,200,"1913 TRAVIS RUN, ROCKY MOUNT, NC, 27804","No_Match",NA,NA,NA,NA
98201,"1913 UNION STREET","INDIANAPOLIS","IN",46225,39.7421862480001,-86.157105223,201,"1913 UNION STREET, INDIANAPOLIS, IN, 46225","Match","Exact","1913 UNION ST, INDIANAPOLIS, IN, 46225",107992617,"L"
98202,"1913 WARREN STREET","AUGUSTA","GA",30904,33.4774592160001,-82.000536242,202,"1913 WARREN STREET, AUGUSTA, GA, 30904","Match","Exact","1913 WARREN ST, AUGUSTA, GA, 30904",55638518,"R"
98203,"1913 WATKINS ROAD","CASSATT","SC",29032,34.3561079580001,-80.417834269,203,"1913 WATKINS ROAD, CASSATT, SC, 29032","Match","Exact","1913 WATKINS RD, CASSATT, SC, 29032",635590230,"L"
98204,"1913 WAVEPORT PLACE","WHITES CREEK","TN",37189,36.2407488040001,-86.799781384,204,"1913 WAVEPORT PLACE, WHITES CREEK, TN, 37189","Match","Exact","1913 WAVEPORT PL, WHITES CREEK, TN, 37189",617929744,"L"
98205,"1913 WEST 7TH","CLOVIS","NM",88101,34.404677167,-103.228861705,205,"1913 WEST 7TH, CLOVIS, NM, 88101","Match","Non_Exact","1913 W 7TH ST, CLOVIS, NM, 88101",641142291,"L"
98206,"1913 WINCHESTER STREET","MCKINNEY","TX",75070,33.1848017770001,-96.7199602269999,206,"1913 WINCHESTER STREET, MCKINNEY, TX, 75070","Match","Non_Exact","1913 WINCHESTER ST, MCKINNEY, TX, 75072",123563078,"R"
98207,"19131 BURNHAMN AVE","LANSINGIN","IL",60438,NA,NA,207,"19131 BURNHAMN AVE, LANSINGIN, IL, 60438","No_Match",NA,NA,NA,NA
98208,"19131 CYPRESS GREEN DRIVE","LUTZ","FL",33558,28.158889539,-82.502425671,208,"19131 CYPRESS GREEN DRIVE, LUTZ, FL, 33558","Match","Exact","19131 CYPRESS GREEN DR, LUTZ, FL, 33558",104640214,"R"
98209,"19131 ROTH RD","PERRIS","CA",92570,33.8104090160001,-117.327830187,209,"19131 ROTH RD, PERRIS, CA, 92570","Match","Exact","19131 ROTH RD, PERRIS, CA, 92570",194873319,"R"
98210,"19131 SAN JUAN","DETROIT","MA",48221,NA,NA,210,"19131 SAN JUAN, DETROIT, MA, 48221","No_Match",NA,NA,NA,NA
98211,"19132 108TH LN SE","RENTON","WA",98055,47.430728786,-122.195278017,211,"19132 108TH LN SE, RENTON, WA, 98055","Match","Exact","19132 108TH LN SE, RENTON, WA, 98055",624299752,"R"
98212,"19135 SILVERCREST","SOUTHFIELD","MI",48075,42.4568191340001,-83.231555133,212,"19135 SILVERCREST, SOUTHFIELD, MI, 48075","Match","Non_Exact","19135 SILVERCREST ST, SOUTHFIELD, MI, 48075",69739601,"L"
98213,"19135 US HWY 19N APT C21","CLEARWATER","FL",33764,NA,NA,213,"19135 US HWY 19N APT C21, CLEARWATER, FL, 33764","No_Match",NA,NA,NA,NA
98214,"19136 BECKETT DRIVE","ODESSA","FL",33556,28.1556566300001,-82.564426464,214,"19136 BECKETT DRIVE, ODESSA, FL, 33556","Match","Exact","19136 BECKETT DR, ODESSA, FL, 33556",104613680,"L"
98215,"19137 SYLVAN ST","TARZANA","CA",91335,34.1848696070001,-118.549619662,215,"19137 SYLVAN ST, TARZANA, CA, 91335","Match","Exact","19137 SYLVAN ST, TARZANA, CA, 91335",141554332,"R"
98216,"19139 CANDLETRAIL DR","SPRING","TX",77388,30.046759852,-95.460033306,216,"19139 CANDLETRAIL DR, SPRING, TX, 77388","Match","Exact","19139 CANDLETRAIL DR, SPRING, TX, 77388",96008897,"L"
98217,"19139 FRIAR ST","TARZANA","CA",91335,34.185665511,-118.549878753,217,"19139 FRIAR ST, TARZANA, CA, 91335","Match","Exact","19139 FRIAR ST, TARZANA, CA, 91335",141554341,"R"
98218,"1914 13TH AVE","MDN","MS",39301,32.377077507,-88.691888233,218,"1914 13TH AVE, MDN, MS, 39301","Match","Non_Exact","1914 13TH AVE, MERIDIAN, MS, 39301",191348,"R"
98219,"1914 37TH STREET","WEST PALM BEACH","FL",33407,26.750754945,-80.083211523,219,"1914 37TH STREET, WEST PALM BEACH, FL, 33407","Match","Exact","1914 37TH ST, WEST PALM BEACH, FL, 33407",115579966,"L"
98220,"1914 40TH TERR SW","NAPLES","FL",34116,26.1934225430001,-81.68849249,220,"1914 40TH TERR SW, NAPLES, FL, 34116","Match","Exact","1914 40TH TER SW, NAPLES, FL, 34116",115194503,"R"
98221,"1914 BAY AVENUE","BOOKLYN","NY",11230,40.617692241,-73.9558601539999,221,"1914 BAY AVENUE, BOOKLYN, NY, 11230","Match","Non_Exact","1914 BAY AVE, BROOKLYN, NY, 11230",59089970,"R"
98222,"1914 BENNING ROAD NE","WASHINGTON","DC",20002,38.8988499880001,-76.975659145,222,"1914 BENNING ROAD NE, WASHINGTON, DC, 20002","Match","Exact","1914 BENNING RD NE, WASHINGTON, DC, 20002",76231323,"L"
98223,"1914 BOGART AVE","BRONX","NY",10462,40.849717265,-73.859718975,223,"1914 BOGART AVE, BRONX, NY, 10462","Match","Exact","1914 BOGART AVE, BRONX, NY, 10462",80304500,"R"
98224,"1914 BROADWAY N","FARGO","ND",58102,46.904963303,-96.7874308739999,224,"1914 BROADWAY N, FARGO, ND, 58102","Match","Non_Exact","1914 BROADWAY, FARGO, ND, 58102",151445943,"L"
98225,"1914 CAREY ROAD","KINSTON","NC",28501,35.2819452790001,-77.5941367249999,225,"1914 CAREY ROAD, KINSTON, NC, 28501","Match","Exact","1914 CAREY RD, KINSTON, NC, 28501",13875383,"L"
98226,"1914 CREEGAN PARK CT","HOUSTON","TX",77047,29.6241365120001,-95.400417023,226,"1914 CREEGAN PARK CT, HOUSTON, TX, 77047","Match","Exact","1914 CREEGAN PARK CT, HOUSTON, TX, 77047",624584738,"L"
98227,"1914 CYPRESS DRIVE","MURFREESBORO","TN",37130,35.8266379400001,-86.3620128699999,227,"1914 CYPRESS DRIVE, MURFREESBORO, TN, 37130","Match","Exact","1914 CYPRESS DR, MURFREESBORO, TN, 37130",59016018,"L"
98228,"1914 DARTFORD DR","CORDOVA","TN",38016,35.1774270070001,-89.7665914899999,228,"1914 DARTFORD DR, CORDOVA, TN, 38016","Match","Exact","1914 DARTFORD DR, CORDOVA, TN, 38016",72965290,"R"
98229,"1914 DEERHURST LN","HOUSTON","TX",77088,29.886804054,-95.432111505,229,"1914 DEERHURST LN, HOUSTON, TX, 77088","Match","Exact","1914 DEERHURST LN, HOUSTON, TX, 77088",96052426,"L"
98230,"1914 E 11TH STREET N","WICHITA","KS",67214,37.704481334,-97.3148087179999,230,"1914 E 11TH STREET N, WICHITA, KS, 67214","Match","Exact","1914 E 11TH ST N, WICHITA, KS, 67214",115636862,"L"
98231,"1914 EAST 11TH STREET","WICHITA","KS",67214,37.7044813040001,-97.3148112709999,231,"1914 EAST 11TH STREET, WICHITA, KS, 67214","Match","Non_Exact","1914 E 11TH ST N, WICHITA, KS, 67214",115636862,"L"
98232,"1914 ELLSWORTH STREET","PHILADELPHIA","PA",19146,39.9378876600001,-75.175265823,232,"1914 ELLSWORTH STREET, PHILADELPHIA, PA, 19146","Match","Exact","1914 ELLSWORTH ST, PHILADELPHIA, PA, 19146",131407298,"L"
98233,"1914 FLORENCE AVENUE","LOWELL","AR",72745,36.252775167,-94.178382875,233,"1914 FLORENCE AVENUE, LOWELL, AR, 72745","Match","Exact","1914 FLORENCE AVE, LOWELL, AR, 72745",614094044,"L"
98234,"1914 GRAND BLVD","EUCLID","OH",44117,41.560485419,-81.53607766,234,"1914 GRAND BLVD, EUCLID, OH, 44117","Match","Exact","1914 GRAND BLVD, EUCLID, OH, 44117",61124437,"R"
98235,"1914 HENNESSY PLACE","BRONX","NY",10453,40.854479983,-73.9153164209999,235,"1914 HENNESSY PLACE, BRONX, NY, 10453","Match","Exact","1914 HENNESSY PL, BRONX, NY, 10453",80299536,"R"
98236,"1914 HOUSATONIC COURT","APEX","NC",27523,35.7597127550001,-78.8632711769999,236,"1914 HOUSATONIC COURT, APEX, NC, 27523","Match","Exact","1914 HOUSATONIC CT, APEX, NC, 27523",72611463,"R"
98237,"1914 KESWICK VILLAGE CT","CONYERS","GA",30013,33.6864114200001,-83.9583097459999,237,"1914 KESWICK VILLAGE CT, CONYERS, GA, 30013","Match","Non_Exact","1914 KESWICK VILLAGE CT NE, CONYERS, GA, 30013",23747909,"L"
98238,"1914 LA MESA LANE","DECATUR","GA",30032,33.734807844,-84.246224037,238,"1914 LA MESA LANE, DECATUR, GA, 30032","Match","Exact","1914 LA MESA LN, DECATUR, GA, 30032",23370861,"L"
98239,"1914 LAKE DOUGLAS RD","BAINBRIDGE","GA",39819,30.8807444560001,-84.552278265,239,"1914 LAKE DOUGLAS RD, BAINBRIDGE, GA, 39819","Match","Exact","1914 LAKE DOUGLAS RD, BAINBRIDGE, GA, 39819",84287889,"L"
98240,"1914 LOMITA ROAD SE","ATLANTA","GA",30316,33.737049158,-84.31908284,240,"1914 LOMITA ROAD SE, ATLANTA, GA, 30316","Match","Exact","1914 LOMITA RD SE, ATLANTA, GA, 30316",23391704,"L"
98241,"1914 MACONDRAY DR","HOUSTON","TX",77396,29.9756345170001,-95.240662758,241,"1914 MACONDRAY DR, HOUSTON, TX, 77396","Match","Non_Exact","1914 MACONDRAY DR, HUMBLE, TX, 77396",625669036,"L"
98242,"1914 MOUNTSHIRE DR","MISSOURI CITY","TX",77489,29.6006822850001,-95.517208992,242,"1914 MOUNTSHIRE DR, MISSOURI CITY, TX, 77489","Match","Exact","1914 MOUNTSHIRE DR, MISSOURI CITY, TX, 77489",78279235,"L"
98243,"1914 N NORDICA AVE","CHICAGO","IL",60707,41.9146824010001,-87.802298111,243,"1914 N NORDICA AVE, CHICAGO, IL, 60707","Match","Exact","1914 N NORDICA AVE, CHICAGO, IL, 60707",605037495,"L"
98244,"1914 N SAINT PAUL","WICHITA","KS",67203,37.717901926,-97.375982119,244,"1914 N SAINT PAUL, WICHITA, KS, 67203","Match","Non_Exact","1914 N SAINT PAUL ST, WICHITA, KS, 67203",115683231,"R"
98245,"1914 NW 167 AVE","PEMBROKE PINES","FL",33028,26.0231924780001,-80.370066631,245,"1914 NW 167 AVE, PEMBROKE PINES, FL, 33028","Match","Exact","1914 NW 167TH AVE, PEMBROKE PINES, FL, 33028",114781732,"L"
98246,"1914 ODESSA DRIVE","SAN ANTONIO","TX",78220,29.4035651340001,-98.401058064,246,"1914 ODESSA DRIVE, SAN ANTONIO, TX, 78220","Match","Exact","1914 ODESSA DR, SAN ANTONIO, TX, 78220",101537031,"L"
98247,"1914 ORA DRIVE","STATESVILLE","NC",28625,35.7812593560001,-80.852079303,247,"1914 ORA DRIVE, STATESVILLE, NC, 28625","Match","Exact","1914 ORA DR, STATESVILLE, NC, 28625",649731279,"R"
98248,"1914 PELICAN LANE","NAVARRE","FL",32566,30.406527668,-86.94016207,248,"1914 PELICAN LANE, NAVARRE, FL, 32566","Match","Exact","1914 PELICAN LN, NAVARRE, FL, 32566",74560273,"R"
98249,"1914 QUIET HOLLOW DRIVE","FRESNO","TX",77545,29.5272127430001,-95.481746188,249,"1914 QUIET HOLLOW DRIVE, FRESNO, TX, 77545","Match","Exact","1914 QUIET HOLLOW DR, FRESNO, TX, 77545",637596727,"R"
98250,"1914 RIDGE DRIVE","WASHINGTON","IN",47501,38.6339412900001,-87.1604045289999,250,"1914 RIDGE DRIVE, WASHINGTON, IN, 47501","Match","Exact","1914 RIDGE DR, WASHINGTON, IN, 47501",32072700,"L"
98251,"1914 ROSEMONT DRIVE APT 15","GREENVILLE","NC",27858,35.561550525,-77.35319573,251,"1914 ROSEMONT DRIVE APT 15, GREENVILLE, NC, 27858","Match","Exact","1914 ROSEMONT DR, GREENVILLE, NC, 27858",637648818,"L"
98252,"1914 S AUSTRIAN PINE ST","LOCKPORT","IL",60441,41.5770209180001,-88.051189339,252,"1914 S AUSTRIAN PINE ST, LOCKPORT, IL, 60441","Match","Exact","1914 AUSTRIAN PINE ST, LOCKPORT, IL, 60441",111611587,"L"
98253,"1914 SANDERLING CT","LAWRENCEVILLE","GA",30043,34.0211974490001,-83.942440109,253,"1914 SANDERLING CT, LAWRENCEVILLE, GA, 30043","Match","Exact","1914 SANDERLING CT, LAWRENCEVILLE, GA, 30043",627584966,"L"
98254,"1914 SIDEWHEEL WAY","JACKSONVILLE","FL",32223,30.142291825,-81.651584164,254,"1914 SIDEWHEEL WAY, JACKSONVILLE, FL, 32223","Match","Exact","1914 SIDEWHEEL WAY, JACKSONVILLE, FL, 32223",83933955,"L"
98255,"1914 SKILLMAN STREET SUITE 110-192","DALLAS","TX",75206,32.8129411260001,-96.7618129689999,255,"1914 SKILLMAN STREET SUITE 110-192, DALLAS, TX, 75206","Match","Exact","1914 SKILLMAN ST, DALLAS, TX, 75206",102919668,"R"
98256,"1914 SNOWY EGRET","NEW BRAUNFELS","TX",78130,29.672641609,-98.137352143,256,"1914 SNOWY EGRET, NEW BRAUNFELS, TX, 78130","Match","Exact","1914 SNOWY EGRET, NEW BRAUNFELS, TX, 78130",638171074,"L"
98257,"1914 STANBERRY STREET","FAYETTEVILLE","NC",28301,35.0892572660001,-78.895120381,257,"1914 STANBERRY STREET, FAYETTEVILLE, NC, 28301","Match","Exact","1914 STANBERRY ST, FAYETTEVILLE, NC, 28301",64200813,"R"
98258,"1914 SUMMERDALE DRIVE","RALEIGH","NC",27604,35.8027386470001,-78.582817453,258,"1914 SUMMERDALE DRIVE, RALEIGH, NC, 27604","Match","Exact","1914 SUMMERDALE DR, RALEIGH, NC, 27604",72578814,"R"
98259,"1914 TALCOTT LN","SUGAR LAND","TX",77479,29.5837683250001,-95.652881774,259,"1914 TALCOTT LN, SUGAR LAND, TX, 77479","Match","Exact","1914 TALCOTT LN, SUGAR LAND, TX, 77479",617959499,"R"
98260,"1914 W 6TH STREET","TEXARKANA","TX",75501,33.422176064,-94.064399119,260,"1914 W 6TH STREET, TEXARKANA, TX, 75501","Match","Exact","1914 W 6TH ST, TEXARKANA, TX, 75501",57669847,"R"
98261,"1914 W PORTOBELLO AVE","MESA","AZ",85202,33.359586198,-111.874415428,261,"1914 W PORTOBELLO AVE, MESA, AZ, 85202","Match","Exact","1914 W PORTOBELLO AVE, MESA, AZ, 85202",128239980,"R"
98262,"1914 WEST 35TH PLACE","LOS ANGELES","CA",90018,34.023633956,-118.314172863,262,"1914 WEST 35TH PLACE, LOS ANGELES, CA, 90018","Match","Exact","1914 W 35TH PL, LOS ANGELES, CA, 90018",141605829,"L"
98263,"1914 WEST CAPITAL AVE","GRAND ISLAND","NE",68803,40.9459200360001,-98.363611233,263,"1914 WEST CAPITAL AVE, GRAND ISLAND, NE, 68803","Match","Exact","1914 W CAPITAL AVE, GRAND ISLAND, NE, 68803",196268306,"R"
98264,"1914 WYNFOREST DR","DEER PARK","TX",77536,29.695600536,-95.103591557,264,"1914 WYNFOREST DR, DEER PARK, TX, 77536","Match","Exact","1914 WYNFOREST DR, DEER PARK, TX, 77536",618752387,"L"
98265,"19140 HARNETT STREET","PORTER RANCH","CA",91326,34.2603383200001,-118.550916553,265,"19140 HARNETT STREET, PORTER RANCH, CA, 91326","Match","Exact","19140 HARNETT ST, PORTER RANCH, CA, 91326",141539500,"L"
98266,"19141 STONE OAK PKWY SUITE 104","SAN ANTONIO","TX",78258,29.6261773730001,-98.4950622109999,266,"19141 STONE OAK PKWY SUITE 104, SAN ANTONIO, TX, 78258","Match","Exact","19141 STONE OAK PKWY, SAN ANTONIO, TX, 78258",101556243,"L"
98267,"19143 CACHAGUA ROAD","CARMEL VALLEY","CA",93924,36.397354756,-121.650719513,267,"19143 CACHAGUA ROAD, CARMEL VALLEY, CA, 93924","Match","Exact","19143 CACHAGUA RD, CARMEL VALLEY, CA, 93924",196848546,"R"
98268,"19144 WATERCREST AVE","MAPLE HTS","OH",44137,41.4099738630001,-81.539472647,268,"19144 WATERCREST AVE, MAPLE HTS, OH, 44137","Match","Exact","19144 WATERCREST AVE, MAPLE HEIGHTS, OH, 44137",642637098,"L"
98269,"19146 E HIGHLAND DRIVE","SAUCIER","MS",39574,30.559619442,-89.14168108,269,"19146 E HIGHLAND DRIVE, SAUCIER, MS, 39574","Match","Exact","19146 E HIGHLAND DR, SAUCIER, MS, 39574",111398718,"R"
98270,"19146 YONKA ST","DETROIT","MI",48234,42.433774742,-83.06615548,270,"19146 YONKA ST, DETROIT, MI, 48234","Match","Exact","19146 YONKA ST, DETROIT, MI, 48234",95464118,"R"
98271,"19147 WEST MCNICHOLS","DETROIT","MI",48219,42.4153282030001,-83.2297624459999,271,"19147 WEST MCNICHOLS, DETROIT, MI, 48219","Match","Non_Exact","19147 W MCNICHOLS RD, DETROIT, MI, 48219",95422326,"L"
98272,"19148 CHARTERED CREEK PLACE","LEESBURG","VA",20176,39.0858001650001,-77.5067847399999,272,"19148 CHARTERED CREEK PLACE, LEESBURG, VA, 20176","Match","Exact","19148 CHARTERED CREEK PL, LEESBURG, VA, 20176",62356424,"R"
98273,"19149 COMMONWEALTH TERRACE","LEESBURG","VA",20176,39.086130084,-77.4907184309999,273,"19149 COMMONWEALTH TERRACE, LEESBURG, VA, 20176","Match","Exact","19149 COMMONWEALTH TER, LEESBURG, VA, 20176",62356671,"R"
98274,"19149 SOUTHAMPTON DR","EVANSVILLE","IN",47725,38.152677323,-87.5371287309999,274,"19149 SOUTHAMPTON DR, EVANSVILLE, IN, 47725","Match","Exact","19149 SOUTHAMPTON DR, EVANSVILLE, IN, 47725",624260919,"L"
98275,"1915  GREY FALCON CIR SW","VERO BEACH","FL",32962,27.571503389,-80.408019837,275,"1915  GREY FALCON CIR SW, VERO BEACH, FL, 32962","Match","Exact","1915 GREY FALCON CIR SW, VERO BEACH, FL, 32962",631726828,"R"
98276,"1915 59TH STREET","BROOKLYN","NY",11204,40.6210338020001,-73.984033315,276,"1915 59TH STREET, BROOKLYN, NY, 11204","Match","Exact","1915 59TH ST, BROOKLYN, NY, 11204",59088378,"L"
98277,"1915 ANASAZI COURT","COLORADO SPRINGS","CO",80919,38.929806711,-104.862349395,277,"1915 ANASAZI COURT, COLORADO SPRINGS, CO, 80919","Match","Exact","1915 ANASAZI CT, COLORADO SPRINGS, CO, 80919",105549061,"R"
98278,"1915 AVENUE F ENSLEY","BIRMINGHAM","AL",35218,33.512071361,-86.896180299,278,"1915 AVENUE F ENSLEY, BIRMINGHAM, AL, 35218","Match","Exact","1915 AVE F, BIRMINGHAM, AL, 35218",81722129,"L"
98279,"1915 BRIDGEPOINTE CIRCLE / 39","VERO BEACH","FL",32967,27.678186151,-80.404696589,279,"1915 BRIDGEPOINTE CIRCLE / 39, VERO BEACH, FL, 32967","Match","Exact","1915 BRIDGEPOINTE CIR, VERO BEACH, FL, 32967",625029897,"L"
98280,"1915 BROAD RIPPLE AVE","INDIANAPOLIS","IN",46220,39.868648249,-86.1279976499999,280,"1915 BROAD RIPPLE AVE, INDIANAPOLIS, IN, 46220","Match","Exact","1915 BROAD RIPPLE AVE, INDIANAPOLIS, IN, 46220",107984891,"R"
98281,"1915 BROADWAY ST   APT 324","SAN ANTONIO","TX",78215,29.4437191060001,-98.4765171829999,281,"1915 BROADWAY ST   APT 324, SAN ANTONIO, TX, 78215","Match","Non_Exact","1915 BROADWAY, SAN ANTONIO, TX, 78215",101525045,"L"
98282,"1915 COVE PARK DRIVE","KEMAH","TX",77565,29.5492337320001,-95.048048791,282,"1915 COVE PARK DRIVE, KEMAH, TX, 77565","Match","Exact","1915 COVE PARK DR, KEMAH, TX, 77565",96682638,"R"
98283,"1915 CRESTRIDGE ST","STEPHENVILLE","TX",76401,32.2185679560001,-98.2260553249999,283,"1915 CRESTRIDGE ST, STEPHENVILLE, TX, 76401","Match","Non_Exact","1915 CRESTRIDGE DR, STEPHENVILLE, TX, 76401",158515254,"R"
98284,"1915 E 22ND AVE","DENVER","CO",80205,NA,NA,284,"1915 E 22ND AVE, DENVER, CO, 80205","Tie",NA,NA,NA,NA
98285,"1915 E SECOND STREET","DEFIANCE","OH",43512,41.2825672380001,-84.3266298189999,285,"1915 E SECOND STREET, DEFIANCE, OH, 43512","Match","Exact","1915 E 2ND ST, DEFIANCE, OH, 43512",640395661,"L"
98286,"1915 EAST ROVEY CIRCLE","PHOENIX","AZ",85016,33.5250163960001,-112.040643469,286,"1915 EAST ROVEY CIRCLE, PHOENIX, AZ, 85016","Match","Exact","1915 E ROVEY CIR, PHOENIX, AZ, 85016",128321448,"L"
98287,"1915 EASTSIDE LAKE ROAD","GRAHAM","TX",76450,33.1870641880001,-98.641018984,287,"1915 EASTSIDE LAKE ROAD, GRAHAM, TX, 76450","Match","Exact","1915 EASTSIDE LAKE RD, GRAHAM, TX, 76450",183313325,"L"
98288,"1915 EN BROADWAY ST","COLUMBUS","OH",43224,NA,NA,288,"1915 EN BROADWAY ST, COLUMBUS, OH, 43224","No_Match",NA,NA,NA,NA
98289,"1915 FIELDSTONE CIRCLE","PASO ROBLES","CA",93346,35.60589923,-120.649645229,289,"1915 FIELDSTONE CIRCLE, PASO ROBLES, CA, 93346","Match","Non_Exact","1915 FIELDSTONE CIR, PASO ROBLES, CA, 93446",642190078,"L"
98290,"1915 FIFTH AVENUE","TROY","NY",12180,42.7324963880001,-73.687472978,290,"1915 FIFTH AVENUE, TROY, NY, 12180","Match","Exact","1915 5TH AVE, TROY, NY, 12180",35728862,"L"
98291,"1915 FM 2372","STRAWN","TX",76475,32.5509814270001,-98.531745992,291,"1915 FM 2372, STRAWN, TX, 76475","Match","Exact","1915 FM 2372, STRAWN, TX, 76475",158858132,"R"
98292,"1915 GARDENVIEW CIR","SANTA ROSA","CA",95403,38.4797721100001,-122.718789269,292,"1915 GARDENVIEW CIR, SANTA ROSA, CA, 95403","Match","Exact","1915 GARDENVIEW CIR, SANTA ROSA, CA, 95403",605028748,"L"
98293,"1915 GENE DRIVE","MOUNT PLEASANT","TX",75455,33.1546590400001,-94.943846187,293,"1915 GENE DRIVE, MOUNT PLEASANT, TX, 75455","Match","Exact","1915 GENE DR, MOUNT PLEASANT, TX, 75455",83219467,"R"
98294,"1915 GENE SARAZEN WAY","BRASELTON","GA",30517,34.097409939,-83.8315107499999,294,"1915 GENE SARAZEN WAY, BRASELTON, GA, 30517","Match","Exact","1915 GENE SARAZEN WAY, BRASELTON, GA, 30517",640547022,"R"
98295,"1915 GRANDVIEW AVENUE","POCATELLO","ID",83204,42.847117715,-112.437194538,295,"1915 GRANDVIEW AVENUE, POCATELLO, ID, 83204","Match","Exact","1915 GRANDVIEW AVE, POCATELLO, ID, 83204",204372050,"R"
98296,"1915 HARRIS DRIVE","GREENSBORO","NC",27406,35.985877852,-79.8283817239999,296,"1915 HARRIS DRIVE, GREENSBORO, NC, 27406","Match","Exact","1915 HARRIS DR, GREENSBORO, NC, 27406",131045695,"L"
98297,"1915 HARRISON AVENUE","BUTTE","MT",59701,45.994688593,-112.513281211,297,"1915 HARRISON AVENUE, BUTTE, MT, 59701","Match","Exact","1915 HARRISON AVE, BUTTE, MT, 59701",637384446,"R"
98298,"1915 IVY STREET","DENVER","CO",80220,39.746005671,-104.919965994,298,"1915 IVY STREET, DENVER, CO, 80220","Match","Exact","1915 IVY ST, DENVER, CO, 80220",177312311,"L"
98299,"1915 KNAPP STREET","OSHKOSH","WI",54902,43.997394054,-88.5626235719999,299,"1915 KNAPP STREET, OSHKOSH, WI, 54902","Match","Exact","1915 KNAPP ST, OSHKOSH, WI, 54902",74490031,"R"
98300,"1915 KYNETTE DR","EULESS","TX",76040,32.8328745760001,-97.115259657,300,"1915 KYNETTE DR, EULESS, TX, 76040","Match","Exact","1915 KYNETTE DR, EULESS, TX, 76040",101872238,"L"
98301,"1915 LAKEMONT AVE APT 330","ORLANDO","FL",32814,28.5696478410001,-81.328002639,301,"1915 LAKEMONT AVE APT 330, ORLANDO, FL, 32814","Match","Exact","1915 LAKEMONT AVE, ORLANDO, FL, 32814",611294269,"R"
98302,"1915 LOUISVILLE RD","FRANKFORT","KY",40601,38.169939728,-84.925912958,302,"1915 LOUISVILLE RD, FRANKFORT, KY, 40601","Match","Exact","1915 LOUISVILLE RD, FRANKFORT, KY, 40601",97050992,"R"
98303,"1915 MAGNOLIA LANE","MUNSTER","IN",46321,41.5428007940001,-87.483206273,303,"1915 MAGNOLIA LANE, MUNSTER, IN, 46321","Match","Exact","1915 MAGNOLIA LN, MUNSTER, IN, 46321",98421696,"L"
98304,"1915 MAIN ST","NAPA","CA",94559,38.3063833030001,-122.291339564,304,"1915 MAIN ST, NAPA, CA, 94559","Match","Exact","1915 MAIN ST, NAPA, CA, 94559",67415602,"L"
98305,"1915 MEADOWBROOK ST","PONCA CITY","OK",74604,36.7246091580001,-97.052591755,305,"1915 MEADOWBROOK ST, PONCA CITY, OK, 74604","Match","Exact","1915 MEADOWBROOK ST, PONCA CITY, OK, 74604",115902038,"R"
98306,"1915 MULLER ROAD","BLYTHEWOOD","SC",29016,34.2226377200001,-81.040142585,306,"1915 MULLER ROAD, BLYTHEWOOD, SC, 29016","Match","Exact","1915 MULLER RD, BLYTHEWOOD, SC, 29016",71811910,"L"
98307,"1915 N 92 ST","SEATTLE","WA",98103,47.695941341,-122.334734279,307,"1915 N 92 ST, SEATTLE, WA, 98103","Match","Exact","1915 N 92ND ST, SEATTLE, WA, 98103",186579885,"R"
98308,"1915 N KEDZIE","CHICAGO","IL",60647,41.91601833,-87.706855478,308,"1915 N KEDZIE, CHICAGO, IL, 60647","Match","Non_Exact","1915 KEDZIE AVE, CHICAGO, IL, 60647",605278021,"L"
98309,"1915 N LOCUST GROVE RD","MERIIDIAN","ID",83646,43.6219436060001,-116.3745893,309,"1915 N LOCUST GROVE RD, MERIIDIAN, ID, 83646","Match","Non_Exact","1915 N LOCUST GROVE RD, MERIDIAN, ID, 83646",635099671,"R"
98310,"1915 NAPA AVENUE","BERKELEY","CA",94707,37.8864892490001,-122.275163375,310,"1915 NAPA AVENUE, BERKELEY, CA, 94707","Match","Exact","1915 NAPA AVE, BERKELEY, CA, 94707",606339449,"L"
98311,"1915 NE 102ND AVENUE","PORTLAND","OR",97220,45.5363846810001,-122.558019671,311,"1915 NE 102ND AVENUE, PORTLAND, OR, 97220","Match","Exact","1915 NE 102ND AVE, PORTLAND, OR, 97220",157518790,"L"
98312,"1915 NE STUCKI AVENUE SUITE 308","HILLSBORO","OR",97006,NA,NA,312,"1915 NE STUCKI AVENUE SUITE 308, HILLSBORO, OR, 97006","No_Match",NA,NA,NA,NA
98313,"1915 NW 67TH STREET","SEATTLE","WA",98117,47.677699906,-122.381267358,313,"1915 NW 67TH STREET, SEATTLE, WA, 98117","Match","Exact","1915 NW 67TH ST, SEATTLE, WA, 98117",186658952,"L"
98314,"1915 PEACE VALLEY CT NE","GRAND RAPIDS","MI",49505,43.008073848,-85.6214171,314,"1915 PEACE VALLEY CT NE, GRAND RAPIDS, MI, 49505","Match","Exact","1915 PEACE VALLEY CT NE, GRAND RAPIDS, MI, 49505",619149977,"R"
98315,"1915 PLAINFIELD AVE","SOUTH PLAINFIELD","NJ",7080,40.5926609140001,-74.4202543819999,315,"1915 PLAINFIELD AVE, SOUTH PLAINFIELD, NJ, 7080","Match","Exact","1915 PLAINFIELD AVE, S PLAINFIELD, NJ, 07080",60260702,"L"
98316,"1915 RIVER ROAD LOT 31","BERWICK","LA",70342,29.680914784,-91.223399574,316,"1915 RIVER ROAD LOT 31, BERWICK, LA, 70342","Match","Exact","1915 RIVER RD, BERWICK, LA, 70342",85899543,"L"
98317,"1915 S FRENCH AVE SANFORD FL 32771","543 WOODFORD DRIVE","FL",32771,NA,NA,317,"1915 S FRENCH AVE SANFORD FL 32771, 543 WOODFORD DRIVE, FL, 32771","No_Match",NA,NA,NA,NA
98318,"1915 S MOUNTAIN AVE UNIT 29","ONTARIO","CA",91762,NA,NA,318,"1915 S MOUNTAIN AVE UNIT 29, ONTARIO, CA, 91762","No_Match",NA,NA,NA,NA
98319,"1915 S ROCKWOOD BLVD","SPOKANE","WA",99203,47.6379490090001,-117.398365329,319,"1915 S ROCKWOOD BLVD, SPOKANE, WA, 99203","Match","Exact","1915 S ROCKWOOD BLVD, SPOKANE, WA, 99203",189881275,"L"
98320,"1915 SANDY LAKE ROAD","CARROLLTON","TX",75006,32.968555537,-96.929198368,320,"1915 SANDY LAKE ROAD, CARROLLTON, TX, 75006","Match","Exact","1915 SANDY LAKE RD, CARROLLTON, TX, 75006",103210908,"L"
98321,"1915 SCHLOTTER CIRCLE  UNIT 204","HOLIDAY","FL",34690,28.1873083310001,-82.734439448,321,"1915 SCHLOTTER CIRCLE  UNIT 204, HOLIDAY, FL, 34690","Match","Exact","1915 SCHLOTTER CIR, HOLIDAY, FL, 34690",635361044,"R"
98322,"1915 SHILOH DRIVE","BISMARCK","ND",58503,46.834333169,-100.761402706,322,"1915 SHILOH DRIVE, BISMARCK, ND, 58503","Match","Exact","1915 SHILOH DR, BISMARCK, ND, 58503",640621014,"L"
98323,"1915 SOUTH MAIN STREET","MIDDLETOWN","OH",45044,39.4957799270001,-84.4183745299999,323,"1915 SOUTH MAIN STREET, MIDDLETOWN, OH, 45044","Match","Exact","1915 S MAIN ST, MIDDLETOWN, OH, 45044",113791685,"L"
98324,"1915 SW 150 AVE","MIRAMAR","FL",33027,25.9917098290001,-80.3500451049999,324,"1915 SW 150 AVE, MIRAMAR, FL, 33027","Match","Exact","1915 SW 150TH AVE, MIRAMAR, FL, 33027",114797702,"L"
98325,"1915 THRIFT AVENUE","MEMPHIS","TN",38127,35.2136014230001,-90.000425089,325,"1915 THRIFT AVENUE, MEMPHIS, TN, 38127","Match","Exact","1915 THRIFT AVE, MEMPHIS, TN, 38127",72910667,"R"
98326,"1915 VISTA RIDGE CT","DRAPER","UT",84020,40.474695212,-111.838608569,326,"1915 VISTA RIDGE CT, DRAPER, UT, 84020","Match","Exact","1915 VISTA RIDGE CT, DRAPER, UT, 84020",641974830,"R"
98327,"1915 W 1ST ST STE A","SANTA ANA","CA",92703,33.7453802480001,-117.895067293,327,"1915 W 1ST ST STE A, SANTA ANA, CA, 92703","Match","Non_Exact","1915 W 1ST ST, SANTA ANA, CA, 92703",144040722,"R"
98328,"1915 W DALLAS ST STE 210","HOUSTON","TX",77019,29.7576014790001,-95.386365763,328,"1915 W DALLAS ST STE 210, HOUSTON, TX, 77019","Match","Non_Exact","1915 W DALLAS ST, HOUSTON, TX, 77019",96062546,"L"
98329,"1915 W OLMOS DR","SAN ANTONIO","TX",78201,29.4736238020001,-98.526307892,329,"1915 W OLMOS DR, SAN ANTONIO, TX, 78201","Match","Exact","1915 W OLMOS DR, SAN ANTONIO, TX, 78201",101513319,"R"
98330,"1915 WEST 8TH ST SUITE 100","SIOUX FALLS","SD",57103,43.548478856,-96.70242317,330,"1915 WEST 8TH ST SUITE 100, SIOUX FALLS, SD, 57103","Match","Non_Exact","1915 E 8TH ST, SIOUX FALLS, SD, 57103",34973874,"R"
98331,"1915 WEST MOUNT HOPE AVENUE","LANSING","MI",48910,42.7120711790001,-84.578050215,331,"1915 WEST MOUNT HOPE AVENUE, LANSING, MI, 48910","Match","Exact","1915 W MOUNT HOPE AVE, LANSING, MI, 48910",630536797,"L"
98332,"1915 WESTHEIMER RD","HOUSTON","TX",77098,29.7427570310001,-95.407626219,332,"1915 WESTHEIMER RD, HOUSTON, TX, 77098","Match","Exact","1915 WESTHEIMER RD, HOUSTON, TX, 77098",96064030,"L"
98333,"1915 WESTLAWN AVE","RACINE","WI",53405,NA,NA,333,"1915 WESTLAWN AVE, RACINE, WI, 53405","No_Match",NA,NA,NA,NA
98334,"1915 WHITCOMB STREET SUITE 5","RICHMOND","VA",23223,37.553436651,-77.42183524,334,"1915 WHITCOMB STREET SUITE 5, RICHMOND, VA, 23223","Match","Exact","1915 WHITCOMB ST, RICHMOND, VA, 23223",201540928,"R"
98335,"1915 WINDSONG DRIVE","JOHNSTOWN","CO",80534,40.3399089320001,-104.929114849,335,"1915 WINDSONG DRIVE, JOHNSTOWN, CO, 80534","Match","Exact","1915 WINDSONG DR, JOHNSTOWN, CO, 80534",639807781,"L"
98336,"1915 WOODSHADE COURT","BOWIE","MD",20721,38.9154330380001,-76.7927865469999,336,"1915 WOODSHADE COURT, BOWIE, MD, 20721","Match","Exact","1915 WOODSHADE CT, BOWIE, MD, 20721",76359876,"R"
98337,"1915","KAILUA","HI",96734,NA,NA,337,"1915, KAILUA, HI, 96734","No_Match",NA,NA,NA,NA
98338,"19150 SW 16TH STREET","PEMBROKE PINES","FL",33029,25.994246645,-80.403177516,338,"19150 SW 16TH STREET, PEMBROKE PINES, FL, 33029","Match","Non_Exact","19150 SW 16TH ST, PEMBROKE PINES, FL, 33029",114781053,"L"
98339,"19151 COUNTY ROAD 95-A","WOODLAND","CA",95695,NA,NA,339,"19151 COUNTY ROAD 95-A, WOODLAND, CA, 95695","No_Match",NA,NA,NA,NA
98340,"19151 SW 108TH AVE UNIT 21","MIAMI","FL",33157,NA,NA,340,"19151 SW 108TH AVE UNIT 21, MIAMI, FL, 33157","No_Match",NA,NA,NA,NA
98341,"19153 LOT WHITCOMB DR","OREGON CITY","OR",97045,45.3274932790001,-122.603972461,341,"19153 LOT WHITCOMB DR, OREGON CITY, OR, 97045","Match","Non_Exact","19153 S LOT WHITCOMB DR, OREGON CITY, OR, 97045",157949874,"R"
98342,"19156 WOODINGHAM","DETROIT","MI",48221,42.4319924280001,-83.150687623,342,"19156 WOODINGHAM, DETROIT, MI, 48221","Match","Non_Exact","19156 WOODINGHAM DR, DETROIT, MI, 48221",95425486,"R"
98343,"19158 HUNTINGTON AVE","HARPER WOODS","MI",48225,42.441918662,-82.938748808,343,"19158 HUNTINGTON AVE, HARPER WOODS, MI, 48225","Match","Exact","19158 HUNTINGTON AVE, HARPER WOODS, MI, 48225",95705496,"R"
98344,"19159 ROSE RD","OREGON CITY","OR",97045,45.3292848890001,-122.627330224,344,"19159 ROSE RD, OREGON CITY, OR, 97045","Match","Exact","19159 ROSE RD, OREGON CITY, OR, 97045",624766964,"R"
98345,"1916 9TH STREET","ST THOMAS","VI",802,NA,NA,345,"1916 9TH STREET, ST THOMAS, VI, 802","No_Match",NA,NA,NA,NA
98346,"1916 ALYSSUM PLACE","WINSTON-SALEM","NC",27127,36.057279947,-80.275127829,346,"1916 ALYSSUM PLACE, WINSTON-SALEM, NC, 27127","Match","Exact","1916 ALYSSUM PL, WINSTON SALEM, NC, 27127",84610452,"L"
98347,"1916 BOOKBINDER DR","ST. LOUIS","MO",63146,38.6949785740001,-90.488135845,347,"1916 BOOKBINDER DR, ST. LOUIS, MO, 63146","Match","Exact","1916 BOOKBINDER DR, SAINT LOUIS, MO, 63146",100122755,"R"
98348,"1916 CHESTERVILLE RD","MINERAL WELLS","WV",26150,39.1484374670001,-81.4951186439999,348,"1916 CHESTERVILLE RD, MINERAL WELLS, WV, 26150","Match","Exact","1916 CHESTERVILLE RD, MINERAL WELLS, WV, 26150",90883415,"L"
98349,"1916 CORRIENTE CT","CHARLOTTE","NC",28213,35.2769168070001,-80.730754492,349,"1916 CORRIENTE CT, CHARLOTTE, NC, 28213","Match","Exact","1916 CORRIENTE CT, CHARLOTTE, NC, 28213",618145838,"R"
98350,"1916 DOWNING AVENUE","WESTCHESTER","IL",60154,41.850951584,-87.8892203839999,350,"1916 DOWNING AVENUE, WESTCHESTER, IL, 60154","Match","Exact","1916 DOWNING AVE, WESTCHESTER, IL, 60154",111788001,"R"
98351,"1916 DRAKE ROAD","LEBANON","OH",45036,NA,NA,351,"1916 DRAKE ROAD, LEBANON, OH, 45036","No_Match",NA,NA,NA,NA
98352,"1916 E 1900 N","LAYTON","UT",84040,41.0876332610001,-111.929186384,352,"1916 E 1900 N, LAYTON, UT, 84040","Match","Exact","1916 E 1900 N, LAYTON, UT, 84040",229360869,"R"
98353,"1916 FAIRMEADE AVE","MEMPHIS","TN",38114,35.079763594,-90.000578703,353,"1916 FAIRMEADE AVE, MEMPHIS, TN, 38114","Match","Exact","1916 FAIRMEADE AVE, MEMPHIS, TN, 38114",72957447,"L"
98354,"1916 FOUNTAIN VIEW","EDMOND","OK",73013,35.6371564400001,-97.509455993,354,"1916 FOUNTAIN VIEW, EDMOND, OK, 73013","Match","Exact","1916 FOUNTAIN VW, EDMOND, OK, 73013",100386227,"R"
98355,"1916 FOXWOOD DR","MESQUITE","TX",75181,32.741777977,-96.551285309,355,"1916 FOXWOOD DR, MESQUITE, TX, 75181","Match","Exact","1916 FOXWOOD DR, MESQUITE, TX, 75181",627305018,"R"
98356,"1916 HAMPTON PARK DRIVE","HOOVER","AL",35216,33.3773161990001,-86.794249346,356,"1916 HAMPTON PARK DRIVE, HOOVER, AL, 35216","Match","Exact","1916 HAMPTON PARK DR, HOOVER, AL, 35216",609038406,"L"
98357,"1916 LAKE ROAD","PONCA CITY","OK",74604,36.70943822,-97.05810796,357,"1916 LAKE ROAD, PONCA CITY, OK, 74604","Match","Exact","1916 LAKE RD, PONCA CITY, OK, 74604",115904291,"L"
98358,"1916 LEATHER FERN DR","OCOEE","FL",34761,28.5414168,-81.5389535039999,358,"1916 LEATHER FERN DR, OCOEE, FL, 34761","Match","Exact","1916 LEATHER FERN DR, OCOEE, FL, 34761",649053458,"L"
98359,"1916 MAIN STREET - SUITE 71892","NIAGARA FALLS","NY",14305,43.106132706,-79.05333395,359,"1916 MAIN STREET - SUITE 71892, NIAGARA FALLS, NY, 14305","Match","Exact","1916 MAIN ST, NIAGARA FALLS, NY, 14305",48683568,"L"
98360,"1916 MONTVIEW DRIVE","GREELEY","CO",80631,40.4078378350001,-104.71173563,360,"1916 MONTVIEW DRIVE, GREELEY, CO, 80631","Match","Exact","1916 MONTVIEW DR, GREELEY, CO, 80631",188676447,"L"
98361,"1916 MYRTLE AVENUE","KANSAS CITY","MO",64127,39.0885983420001,-94.5357151439999,361,"1916 MYRTLE AVENUE, KANSAS CITY, MO, 64127","Match","Exact","1916 MYRTLE AVE, KANSAS CITY, MO, 64127",91450998,"R"
98362,"1916 N 1150 E","LEHI","UT",84043,40.4114113630001,-111.831524879,362,"1916 N 1150 E, LEHI, UT, 84043","Match","Exact","1916 N 1150 E, LEHI, UT, 84043",636856707,"R"
98363,"1916 N PEORIA AVE","PEORIA","IL",61603,40.71063172,-89.59146234,363,"1916 N PEORIA AVE, PEORIA, IL, 61603","Match","Exact","1916 N PEORIA AVE, PEORIA, IL, 61603",8719080,"R"
98364,"1916 NATURE PARK DRIVE","NORTH LAS VEGAS","NV",89084,36.292141202,-115.169682002,364,"1916 NATURE PARK DRIVE, NORTH LAS VEGAS, NV, 89084","Match","Exact","1916 NATURE PARK DR, N LAS VEGAS, NV, 89084",627614182,"L"
98365,"1916 ORANGE AVENUE","NATIONAL CITY","CA",91950,32.6729490590001,-117.079157394,365,"1916 ORANGE AVENUE, NATIONAL CITY, CA, 91950","Match","Non_Exact","1916 ORANGE ST, NATIONAL CITY, CA, 91950",639050263,"R"
98366,"1916 PIKE PLACE STE 12 NUMBER 411","SEATTLE","WA",98101,47.609800309,-122.342448185,366,"1916 PIKE PLACE STE 12 NUMBER 411, SEATTLE, WA, 98101","Match","Exact","1916 PIKE PL, SEATTLE, WA, 98101",186589305,"R"
98367,"1916 SANDPIPER LANE","PLANO","TX",75075,33.013575259,-96.730222429,367,"1916 SANDPIPER LANE, PLANO, TX, 75075","Match","Exact","1916 SANDPIPER LN, PLANO, TX, 75075",123488184,"L"
98368,"1916 SENATE C","ST LOUIS","MO",63118,38.6023486340001,-90.216221644,368,"1916 SENATE C, ST LOUIS, MO, 63118","Match","Non_Exact","1916 SENATE ST, SAINT LOUIS, MO, 63118",107602634,"L"
98369,"1916 SPRUCE DR NW","WASHINGTON","DC",20012,38.9908637550001,-77.038979908,369,"1916 SPRUCE DR NW, WASHINGTON, DC, 20012","Match","Exact","1916 SPRUCE DR NW, WASHINGTON, DC, 20012",76221333,"L"
98370,"1916 STRATFORD ROAD","LAWRENCE","KS",66044,38.961579881,-95.2587771509999,370,"1916 STRATFORD ROAD, LAWRENCE, KS, 66044","Match","Exact","1916 STRATFORD RD, LAWRENCE, KS, 66044",17684306,"R"
98371,"1916 SUNRISE STREET","ANN ARBOR","MI",48103,42.288662818,-83.772761491,371,"1916 SUNRISE STREET, ANN ARBOR, MI, 48103","Match","Exact","1916 SUNRISE ST, ANN ARBOR, MI, 48103",26012305,"R"
98372,"1916 VINEBURN AVE","LOS ANGELES","CA",90032,34.0654301870001,-118.189997836,372,"1916 VINEBURN AVE, LOS ANGELES, CA, 90032","Match","Exact","1916 VINEBURN AVE, LOS ANGELES, CA, 90032",141817863,"R"
98373,"1916 W SPENCER ST","PHILADELPHIA","PA",19141,40.047152973,-75.151636159,373,"1916 W SPENCER ST, PHILADELPHIA, PA, 19141","Match","Exact","1916 W SPENCER ST, PHILADELPHIA, PA, 19141",131413540,"L"
98374,"1916 WEST GIRARD AVENUE","PHILADELPHIA","PA",19130,39.972533841,-75.167761277,374,"1916 WEST GIRARD AVENUE, PHILADELPHIA, PA, 19130","Match","Exact","1916 W GIRARD AVE, PHILADELPHIA, PA, 19130",131406037,"L"
98375,"1916 WYNDHAM DRIVE","SARASOTA","FL",34235,27.3528649100001,-82.458072909,375,"1916 WYNDHAM DRIVE, SARASOTA, FL, 34235","Match","Exact","1916 WYNDHAM DR, SARASOTA, FL, 34235",16420942,"L"
98376,"19160 CANTERBURY","DETROIT","MI",48221,42.432667586,-83.1330999259999,376,"19160 CANTERBURY, DETROIT, MI, 48221","Match","Non_Exact","19160 CANTERBURY RD, DETROIT, MI, 48221",95461076,"R"
98377,"19160 WOODSIDE","HARPER","MI",48225,NA,NA,377,"19160 WOODSIDE, HARPER, MI, 48225","No_Match",NA,NA,NA,NA
98378,"19161 DEQUINDRE","DETROIT","MI",48234,42.433722323,-83.082926625,378,"19161 DEQUINDRE, DETROIT, MI, 48234","Match","Non_Exact","19161 DEQUINDRE ST, DETROIT, MI, 48234",95463308,"L"
98379,"19161 GOTHARD STREET","HUNTINGTON BEACH","CA",92648,33.684344433,-118.001785208,379,"19161 GOTHARD STREET, HUNTINGTON BEACH, CA, 92648","Match","Exact","19161 GOTHARD ST, HUNTINGTON BEACH, CA, 92648",617968790,"R"
98380,"19162 HAMBURG","DETROIT","MI",48205,42.4352593620001,-82.997307542,380,"19162 HAMBURG, DETROIT, MI, 48205","Match","Non_Exact","19162 HAMBURG AVE, DETROIT, MI, 48205",95466730,"R"
98381,"19162","SACRAMENTO","CA",95819,NA,NA,381,"19162, SACRAMENTO, CA, 95819","No_Match",NA,NA,NA,NA
98382,"19165 E PRENTICE CIR","CENTENNIAL","CO",80015,39.619020564,-104.765378503,382,"19165 E PRENTICE CIR, CENTENNIAL, CO, 80015","Match","Exact","19165 E PRENTICE CIR, CENTENNIAL, CO, 80015",177520434,"L"
98383,"19165 LAWRENCE 1240","MARIONVILLE","MO",65705,36.9931787840001,-93.628295115,383,"19165 LAWRENCE 1240, MARIONVILLE, MO, 65705","Match","Exact","19165 LAWRENCE 1240, MARIONVILLE, MO, 65705",640340874,"L"
98384,"19167 STEDWICK DRIVE","MONTGOMERY VILLAGE","MD",20886,39.1706151220001,-77.211614727,384,"19167 STEDWICK DRIVE, MONTGOMERY VILLAGE, MD, 20886","Match","Exact","19167 STEDWICK DR, MONTGOMERY VILLAGE, MD, 20886",642919070,"R"
98385,"19167 TRINITY ST","DETROIT","MI",48219,42.429957534,-83.249868781,385,"19167 TRINITY ST, DETROIT, MI, 48219","Match","Exact","19167 TRINITY ST, DETROIT, MI, 48219",95421577,"L"
98386,"1917  HARLESS  STREET","LAKE CHARLES","LA",70601,30.258812026,-93.194330367,386,"1917  HARLESS  STREET, LAKE CHARLES, LA, 70601","Match","Exact","1917 HARLESS ST, LAKE CHARLES, LA, 70601",88435981,"L"
98387,"1917 33RD STREET SOUTH","MOORHEAD","MN",56560,46.8556642940001,-96.7269580939999,387,"1917 33RD STREET SOUTH, MOORHEAD, MN, 56560","Match","Exact","1917 33RD ST S, MOORHEAD, MN, 56560",168036040,"R"
98388,"1917 36TH ST S","MOORHEAD","MN",56560,46.8574267120001,-96.723222397,388,"1917 36TH ST S, MOORHEAD, MN, 56560","Match","Exact","1917 36TH ST S, MOORHEAD, MN, 56560",633513694,"R"
98389,"1917 6TH STREET SW","ROCHESTER","MN",55902,44.016741209,-92.492211518,389,"1917 6TH STREET SW, ROCHESTER, MN, 55902","Match","Exact","1917 6TH ST SW, ROCHESTER, MN, 55902",30552325,"R"
98390,"1917 ALGAROBA ST 202A","HONOLULU","HI",96826,21.2944249920001,-157.831327597,390,"1917 ALGAROBA ST 202A, HONOLULU, HI, 96826","Match","Exact","1917 ALGAROBA ST, HONOLULU, HI, 96826",203241631,"R"
98391,"1917 BRUCE PLACE SE","WASHINGTON","DC",20020,38.851574348,-76.976870806,391,"1917 BRUCE PLACE SE, WASHINGTON, DC, 20020","Match","Exact","1917 BRUCE PL SE, WASHINGTON, DC, 20020",76232730,"L"
98392,"1917 COLLEGE AVE","KANSAS CITY","MO",64127,39.0889783700001,-94.544382433,392,"1917 COLLEGE AVE, KANSAS CITY, MO, 64127","Match","Exact","1917 COLLEGE AVE, KANSAS CITY, MO, 64127",91450024,"L"
98393,"1917 CONCOURSE DRIVE","SAN JOSE","CA",95131,37.3968803380001,-121.894809271,393,"1917 CONCOURSE DRIVE, SAN JOSE, CA, 95131","Match","Exact","1917 CONCOURSE DR, SAN JOSE, CA, 95131",122961864,"L"
98394,"1917 CRAWFORD DRIVE","MESQUITE","TX",75149,32.748842069,-96.5721128609999,394,"1917 CRAWFORD DRIVE, MESQUITE, TX, 75149","Match","Exact","1917 CRAWFORD DR, MESQUITE, TX, 75149",103196115,"L"
98395,"1917 DELACORTE DRIVE","BAKERSFIELD","CA",93311,35.337654899,-119.095459161,395,"1917 DELACORTE DRIVE, BAKERSFIELD, CA, 93311","Match","Exact","1917 DELACORTE DR, BAKERSFIELD, CA, 93311",624052751,"L"
98396,"1917 DEVONSHIRE AVENUE","MODESTO","CA",95355,37.6530884850001,-120.963241615,396,"1917 DEVONSHIRE AVENUE, MODESTO, CA, 95355","Match","Exact","1917 DEVONSHIRE AVE, MODESTO, CA, 95355",102606292,"L"
98397,"1917 DOW RD","PAVILION","NY",14525,42.847206596,-77.941533705,397,"1917 DOW RD, PAVILION, NY, 14525","Match","Exact","1917 DOW RD, PAVILION, NY, 14525",14473365,"R"
98398,"1917 DUNLAP AVE","EAST POINT","GA",30344,33.668858346,-84.451434647,398,"1917 DUNLAP AVE, EAST POINT, GA, 30344","Match","Exact","1917 DUNLAP AVE, EAST POINT, GA, 30344",17347900,"R"
98399,"1917 DUVAL ST","MOBILE","AL",36606,30.663247826,-88.085987481,399,"1917 DUVAL ST, MOBILE, AL, 36606","Match","Exact","1917 DUVAL ST, MOBILE, AL, 36606",61933219,"L"
98400,"1917 E 79TH ST","CHICAGO","IL",60649,41.7515783280001,-87.5777788519999,400,"1917 E 79TH ST, CHICAGO, IL, 60649","Match","Exact","1917 E 79TH ST, CHICAGO, IL, 60649",111775895,"R"
98401,"1917 E CANOVA LN","compton","CA",90221,33.905707052,-118.20212333,401,"1917 E CANOVA LN, compton, CA, 90221","Match","Exact","1917 CANOVA LN, COMPTON, CA, 90221",623995056,"R"
98402,"1917 EAST VAUGHN STREE","TEMPE","AZ",85283,33.3616463270001,-111.90517474,402,"1917 EAST VAUGHN STREE, TEMPE, AZ, 85283","Match","Non_Exact","1917 E VAUGHN ST, TEMPE, AZ, 85283",243913488,"R"
98403,"1917 FURNESS STRE ET","MAPLEWOOD","MN",55109,44.998812624,-93.0098102809999,403,"1917 FURNESS STRE ET, MAPLEWOOD, MN, 55109","Match","Non_Exact","1917 FURNESS ST, MAPLEWOOD, MN, 55109",650537571,"L"
98404,"1917 GLENROSE DRIVE","FAIRBORN","OH",45324,39.789954342,-84.026943252,404,"1917 GLENROSE DRIVE, FAIRBORN, OH, 45324","Match","Exact","1917 GLENROSE DR, FAIRBORN, OH, 45324",143384547,"R"
98405,"1917 GULF BLVD","INDIAN ROCKS BEACH","FL",33785,27.90159599,-82.847818885,405,"1917 GULF BLVD, INDIAN ROCKS BEACH, FL, 33785","Match","Exact","1917 GULF BLVD, INDIAN ROCKS BEACH, FL, 33785",124663199,"R"
98406,"1917 HOLSTON DRIVE","JONESBORO","GA",30236,33.5273816640001,-84.328297015,406,"1917 HOLSTON DRIVE, JONESBORO, GA, 30236","Match","Exact","1917 HOLSTON DR, JONESBORO, GA, 30236",23325437,"R"
98407,"1917 LANARK AVENUE","DALLAS","TX",75203,32.726060144,-96.79511765,407,"1917 LANARK AVENUE, DALLAS, TX, 75203","Match","Exact","1917 LANARK AVE, DALLAS, TX, 75203",103193684,"L"
98408,"1917 LAWRENCE ROAD","ARDMORE","OK",73401,34.1657206720001,-97.152095021,408,"1917 LAWRENCE ROAD, ARDMORE, OK, 73401","Match","Exact","1917 LAWRENCE RD, ARDMORE, OK, 73401",14829140,"R"
98409,"1917 LEWIS AVE","ROCKVILLE","MD",20851,39.067954012,-77.126154883,409,"1917 LEWIS AVE, ROCKVILLE, MD, 20851","Match","Exact","1917 LEWIS AVE, ROCKVILLE, MD, 20851",62055388,"R"
98410,"1917 N ELSTON","CHICAGO","IL",60642,41.916636942,-87.6665343339999,410,"1917 N ELSTON, CHICAGO, IL, 60642","Match","Non_Exact","1917 N ELSTON AVE, CHICAGO, IL, 60642",111764515,"R"
98411,"1917 NE 118TH RD","NORTH MIAMI","FL",33181,25.884702052,-80.159244241,411,"1917 NE 118TH RD, NORTH MIAMI, FL, 33181","Match","Exact","1917 NE 118TH RD, NORTH MIAMI, FL, 33181",116050442,"L"
98412,"1917 NORTH UBER STREET","PHILADELPHIA","PA",19121,39.983470142,-75.165816556,412,"1917 NORTH UBER STREET, PHILADELPHIA, PA, 19121","Match","Exact","1917 N UBER ST, PHILADELPHIA, PA, 19121",131405817,"R"
98413,"1917 NW 81ST AVE","CORAL SPRINGS","FL",33071,26.253906032,-80.234778358,413,"1917 NW 81ST AVE, CORAL SPRINGS, FL, 33071","Match","Exact","1917 NW 81ST AVE, CORAL SPRINGS, FL, 33071",114738128,"R"
98414,"1917 PRECIOUS CIR","APOPKA","FL",32712,28.7121656780001,-81.536591302,414,"1917 PRECIOUS CIR, APOPKA, FL, 32712","Match","Exact","1917 PRECIOUS CIR, APOPKA, FL, 32712",94368126,"R"
98415,"1917 RANDOLPH STREET NORTH EAST","WASH DC","DC",20018,38.9383040120001,-76.977183711,415,"1917 RANDOLPH STREET NORTH EAST, WASH DC, DC, 20018","Match","Non_Exact","1917 RANDOLPH ST NE, WASHINGTON, DC, 20018",76229070,"R"
98416,"1917 S 67TH STREET","OMAHA","NE",68154,NA,NA,416,"1917 S 67TH STREET, OMAHA, NE, 68154","No_Match",NA,NA,NA,NA
98417,"1917 SHANNON ROAD","DENISON","TX",75020,33.7054483050001,-96.568140364,417,"1917 SHANNON ROAD, DENISON, TX, 75020","Match","Exact","1917 SHANNON RD, DENISON, TX, 75020",653853568,"R"
98418,"1917 STONEHILL DR","JUSTIN","TX",76247,33.038172903,-97.318565174,418,"1917 STONEHILL DR, JUSTIN, TX, 76247","Match","Exact","1917 STONEHILL DR, JUSTIN, TX, 76247",614161740,"L"
98419,"1917 SUNRISE COURT","ELBERTON","GA",30635,34.0690057890001,-82.844166883,419,"1917 SUNRISE COURT, ELBERTON, GA, 30635","Match","Exact","1917 SUNRISE CT, ELBERTON, GA, 30635",22957415,"L"
98420,"1917 TIEHACK LANE","GARLAND","TX",75044,32.94578553,-96.656529524,420,"1917 TIEHACK LANE, GARLAND, TX, 75044","Match","Exact","1917 TIEHACK LN, GARLAND, TX, 75044",102925593,"R"
98421,"1917 TRENT BLVD","NEW BERN","NC",28560,35.1049926540001,-77.069404449,421,"1917 TRENT BLVD, NEW BERN, NC, 28560","Match","Exact","1917 TRENT BLVD, NEW BERN, NC, 28560",34154210,"R"
98422,"1917 UNIVERSITY STREET","GAUTIER","MS",39553,30.3782806620001,-88.641239666,422,"1917 UNIVERSITY STREET, GAUTIER, MS, 39553","Match","Exact","1917 UNIVERSITY ST, GAUTIER, MS, 39553",89250058,"L"
98423,"1917 VICTORY BLVD","PORTSMOUTH","VA",23702,36.79474294,-76.325997631,423,"1917 VICTORY BLVD, PORTSMOUTH, VA, 23702","Match","Exact","1917 VICTORY BLVD, PORTSMOUTH, VA, 23702",647883783,"R"
98424,"1917 W 12TH ST NORTH","WICHITA","KS",67203,37.7066274920001,-97.361998,424,"1917 W 12TH ST NORTH, WICHITA, KS, 67203","Match","Exact","1917 W 12TH ST N, WICHITA, KS, 67203",115633788,"L"
98425,"1917 W FINN PLACE","MILWAUKEE","WI",53206,43.083571584,-87.9351505399999,425,"1917 W FINN PLACE, MILWAUKEE, WI, 53206","Match","Exact","1917 W FINN PL, MILWAUKEE, WI, 53206",77739031,"L"
98426,"1917 WALNUT ST","ALBERTVILLE","AL",35950,34.2424608540001,-86.208190836,426,"1917 WALNUT ST, ALBERTVILLE, AL, 35950","Match","Exact","1917 WALNUT ST, ALBERTVILLE, AL, 35950",99242202,"R"
98427,"1917 WALNUT STREET","PHILADELPHIA","PA",19103,39.9504308,-75.172945806,427,"1917 WALNUT STREET, PHILADELPHIA, PA, 19103","Match","Exact","1917 WALNUT ST, PHILADELPHIA, PA, 19103",131407460,"R"
98428,"1917 WEST ALICE","WEST PEORIA","IL",61604,40.6978796930001,-89.6238903989999,428,"1917 WEST ALICE, WEST PEORIA, IL, 61604","Match","Non_Exact","1917 W ALICE AVE, WEST PEORIA, IL, 61604",637933111,"R"
98429,"1917 WEST SUPERIOR STREET","DULUTH","MN",55806,46.7686309160001,-92.1220373519999,429,"1917 WEST SUPERIOR STREET, DULUTH, MN, 55806","Match","Exact","1917 W SUPERIOR ST, DULUTH, MN, 55806",163213994,"R"
98430,"1917 WEST VINE STREET","BLYTHEVILLE","AR",72315,35.924564581,-89.92569795,430,"1917 WEST VINE STREET, BLYTHEVILLE, AR, 72315","Match","Exact","1917 W VINE ST, BLYTHEVILLE, AR, 72315",47217646,"R"
98431,"1917 WINDY HILL LN","INDIANAPOLIS","IN",46239,39.743334045,-86.034778406,431,"1917 WINDY HILL LN, INDIANAPOLIS, IN, 46239","Match","Exact","1917 WINDY HILL LN, INDIANAPOLIS, IN, 46239",108045519,"R"
98432,"19170 PEMBERTON PL","RIVERSIDE","GA",92508,NA,NA,432,"19170 PEMBERTON PL, RIVERSIDE, GA, 92508","No_Match",NA,NA,NA,NA
98433,"19170 SOUTHFORK DR","PRIOR LAKE","MN",55372,44.671536286,-93.374410483,433,"19170 SOUTHFORK DR, PRIOR LAKE, MN, 55372","Match","Exact","19170 SOUTHFORK DR, PRIOR LAKE, MN, 55372",38155995,"R"
98434,"19173 CRYSTAL STREET","WESTON","FL",33332,26.0642269690001,-80.403038736,434,"19173 CRYSTAL STREET, WESTON, FL, 33332","Match","Exact","19173 CRYSTAL ST, WESTON, FL, 33332",114818336,"R"
98435,"19174 CASTLEBAY LANE","PORTER RANCH","CA",91326,34.2940970290001,-118.551277402,435,"19174 CASTLEBAY LANE, PORTER RANCH, CA, 91326","Match","Exact","19174 CASTLEBAY LN, PORTER RANCH, CA, 91326",141539049,"L"
98436,"19174 E HAMPDEN DR","AURORA","CO",80013,39.65127317,-104.762037433,436,"19174 E HAMPDEN DR, AURORA, CO, 80013","Match","Exact","19174 E HAMPDEN DR, AURORA, CO, 80013",177519120,"R"
98437,"19175 E OBERLIN DRIVE","AURORA","CO",80013,39.6402974380001,-104.765082343,437,"19175 E OBERLIN DRIVE, AURORA, CO, 80013","Match","Exact","19175 E OBERLIN DR, AURORA, CO, 80013",177369623,"L"
98438,"19176 MIAMI BLVD","FORT MYERS","FL",33967,26.458658056,-81.804665196,438,"19176 MIAMI BLVD, FORT MYERS, FL, 33967","Match","Exact","19176 MIAMI BLVD, FORT MYERS, FL, 33967",117978935,"L"
98439,"19177 STATE HIGHWAY 120","GROVELAND","CA",95321,NA,NA,439,"19177 STATE HIGHWAY 120, GROVELAND, CA, 95321","Tie",NA,NA,NA,NA
98440,"19178 CAMERON","DETROIT","MI",48203,42.433560943,-83.0936755399999,440,"19178 CAMERON, DETROIT, MI, 48203","Match","Non_Exact","19178 CAMERON ST, DETROIT, MI, 48203",95463009,"R"
98441,"1917A  ALTA VISTA DR","VISTA","CA",92084,33.1973270930001,-117.219468894,441,"1917A  ALTA VISTA DR, VISTA, CA, 92084","Match","Exact","1917 ALTA VISTA DR, VISTA, CA, 92084",195713257,"R"
98442,"1917A HAAS ROAD","APOPKA","FL",32712,28.7719795890001,-81.542575755,442,"1917A HAAS ROAD, APOPKA, FL, 32712","Match","Exact","1917 HAAS RD, APOPKA, FL, 32712",622177876,"L"
98443,"1918 19TH AVE NE","MINNEAPOLIS","MN",55418,45.007766164,-93.233007663,443,"1918 19TH AVE NE, MINNEAPOLIS, MN, 55418","Match","Exact","1918 19TH AVE NE, MINNEAPOLIS, MN, 55418",43637558,"R"
98444,"1918 68TH ST","BROOKLYN","NY",11204,40.6158149890001,-73.989337491,444,"1918 68TH ST, BROOKLYN, NY, 11204","Match","Exact","1918 68TH ST, BROOKLYN, NY, 11204",59088401,"R"
98445,"1918 BALTIMORE AVE","CINCINNATI","OH",45225,39.1364325540001,-84.559463181,445,"1918 BALTIMORE AVE, CINCINNATI, OH, 45225","Match","Exact","1918 BALTIMORE AVE, CINCINNATI, OH, 45225",103970881,"R"
98446,"1918 BASIL LANE","FLINT","MI",48504,43.0623495520001,-83.727746439,446,"1918 BASIL LANE, FLINT, MI, 48504","Match","Exact","1918 BASIL LN, FLINT, MI, 48504",69587832,"R"
98447,"1918 BROOKHILL DR","GARLAND","TX",75043,32.8645352180001,-96.575412627,447,"1918 BROOKHILL DR, GARLAND, TX, 75043","Match","Exact","1918 BROOKHILL DR, GARLAND, TX, 75043",643222011,"R"
98448,"1918 COLONY PARK DR","AUGUSTA","GA",30909,33.460588052,-82.0538656539999,448,"1918 COLONY PARK DR, AUGUSTA, GA, 30909","Match","Exact","1918 COLONY PARK DR, AUGUSTA, GA, 30909",55648709,"L"
98449,"1918 COLUMBIA STREET UNIT 2","SAN DIEGO","CA",92101,32.7249105130001,-117.167836887,449,"1918 COLUMBIA STREET UNIT 2, SAN DIEGO, CA, 92101","Match","Exact","1918 COLUMBIA ST, SAN DIEGO, CA, 92101",195343309,"L"
98450,"1918 COUNTY RD  E E","WHITE BEAR LAKE","MN",55110,NA,NA,450,"1918 COUNTY RD  E E, WHITE BEAR LAKE, MN, 55110","No_Match",NA,NA,NA,NA
98451,"1918 COUNTY RD E E","WHITE BEAR LAKE","MN",55110,NA,NA,451,"1918 COUNTY RD E E, WHITE BEAR LAKE, MN, 55110","No_Match",NA,NA,NA,NA
98452,"1918 DAVID DUBOIN ROAD","NEW IBERIA","LA",70560,29.9562290160001,-91.8413332709999,452,"1918 DAVID DUBOIN ROAD, NEW IBERIA, LA, 70560","Match","Exact","1918 DAVID DUBOIN RD, NEW IBERIA, LA, 70560",85367125,"L"
98453,"1918 E 16TH ST","MUNCIE","IN",47302,40.1743846190001,-85.3648826369999,453,"1918 E 16TH ST, MUNCIE, IN, 47302","Match","Exact","1918 E 16TH ST, MUNCIE, IN, 47302",30838711,"L"
98454,"1918 FERN DRIVE","MURFREESBORO","TN",37130,35.8199120240001,-86.361254844,454,"1918 FERN DRIVE, MURFREESBORO, TN, 37130","Match","Exact","1918 FERN DR, MURFREESBORO, TN, 37130",59016079,"R"
98455,"1918 FREEMAN STREET","HOUSTON","TX",77009,29.7766674310001,-95.360939608,455,"1918 FREEMAN STREET, HOUSTON, TX, 77009","Match","Exact","1918 FREEMAN ST, HOUSTON, TX, 77009",96066422,"R"
98456,"1918 GAMMON STREET","CHARLESTON","SC",29414,32.8100914930001,-80.071851467,456,"1918 GAMMON STREET, CHARLESTON, SC, 29414","Match","Exact","1918 GAMMON ST, CHARLESTON, SC, 29414",645441838,"R"
98457,"1918 GREGORY RUN NE","ATLANTA","GA",30345,NA,NA,457,"1918 GREGORY RUN NE, ATLANTA, GA, 30345","No_Match",NA,NA,NA,NA
98458,"1918 HARMONY TRACE","LITHONIA","GA",30058,33.736064922,-84.0491487529999,458,"1918 HARMONY TRACE, LITHONIA, GA, 30058","Match","Exact","1918 HARMONY TRCE, LITHONIA, GA, 30058",642671547,"L"
98459,"1918 HOMECREST AVE","BROOKLYN","NY",11229,40.6026128240001,-73.959965541,459,"1918 HOMECREST AVE, BROOKLYN, NY, 11229","Match","Exact","1918 HOMECREST AVE, BROOKLYN, NY, 11229",59089927,"R"
98460,"1918 HUMBOLDT AVENUE S","MINNEAPOLIS","MN",55403,44.964035111,-93.298178831,460,"1918 HUMBOLDT AVENUE S, MINNEAPOLIS, MN, 55403","Match","Exact","1918 HUMBOLDT AVE S, MINNEAPOLIS, MN, 55403",43624563,"R"
98461,"1918 LAKESHORE AVE APT 52","OAKLAND","CA",94606,37.803436821,-122.253415563,461,"1918 LAKESHORE AVE APT 52, OAKLAND, CA, 94606","Match","Exact","1918 LAKESHORE AVE, OAKLAND, CA, 94606",618784402,"R"
98462,"1918 LAWNDALE DRIVE","SPRING HILL","TN",37174,35.758588494,-86.904703888,462,"1918 LAWNDALE DRIVE, SPRING HILL, TN, 37174","Match","Exact","1918 LAWNDALE DR, SPRING HILL, TN, 37174",73123100,"R"
98463,"1918 N 77TH COURT","ELMWOOD PARK","IL",60707,41.9147404570001,-87.819407599,463,"1918 N 77TH COURT, ELMWOOD PARK, IL, 60707","Match","Exact","1918 N 77TH CT, ELMWOOD PARK, IL, 60707",605262656,"L"
98464,"1918 N ALVIN STREET","APPLETON","WI",54911,44.2791910060001,-88.4131312389999,464,"1918 N ALVIN STREET, APPLETON, WI, 54911","Match","Exact","1918 N ALVIN ST, APPLETON, WI, 54911",74885584,"R"
98465,"1918 N LINN ST","PEORIA","IL",61604,40.7108093840001,-89.595564601,465,"1918 N LINN ST, PEORIA, IL, 61604","Match","Exact","1918 N LINN ST, PEORIA, IL, 61604",8719028,"R"
98466,"1918 N PARKER AVE","INDIANAPOLIS","IN",46218,39.7928001280001,-86.1130474459999,466,"1918 N PARKER AVE, INDIANAPOLIS, IN, 46218","Match","Exact","1918 N PARKER AVE, INDIANAPOLIS, IN, 46218",107998889,"L"
98467,"1918 NATCHEZ TRACE","ALLEN","TX",75013,33.12710385,-96.6803860099999,467,"1918 NATCHEZ TRACE, ALLEN, TX, 75013","Match","Exact","1918 NATCHEZ TRCE, ALLEN, TX, 75013",210527841,"L"
98468,"1918 NEWTON ST NE","WASHINGTON","DC",20018,38.9341061540001,-76.977675129,468,"1918 NEWTON ST NE, WASHINGTON, DC, 20018","Match","Exact","1918 NEWTON ST NE, WASHINGTON, DC, 20018",76229133,"L"
98469,"1918 PEARL ROAD","BRUNSWICK","OH",44212,41.223126828,-81.841470186,469,"1918 PEARL ROAD, BRUNSWICK, OH, 44212","Match","Exact","1918 PEARL RD, BRUNSWICK, OH, 44212",632475938,"R"
98470,"1918 PUTMAN WAY","GARLAND","TX",75040,32.939090809,-96.6022059319999,470,"1918 PUTMAN WAY, GARLAND, TX, 75040","Match","Exact","1918 PUTMAN WAY, GARLAND, TX, 75040",103164424,"R"
98471,"1918 RAYCONDA ROAD APT 107","FAYETTEVILLE","NC",28304,35.0324768780001,-79.018728971,471,"1918 RAYCONDA ROAD APT 107, FAYETTEVILLE, NC, 28304","Match","Exact","1918 RAYCONDA RD, FAYETTEVILLE, NC, 28304",64260283,"L"
98472,"1918 REGIMENT WAY","FREDERICK","MD",21701,39.468463408,-77.443817823,472,"1918 REGIMENT WAY, FREDERICK, MD, 21701","Match","Non_Exact","1918 REGIMENT WAY, FREDERICK, MD, 21702",640663176,"R"
98473,"1918 RUSTIC CREEK DRIVE","GARLAND","TX",75040,32.895950466,-96.603153902,473,"1918 RUSTIC CREEK DRIVE, GARLAND, TX, 75040","Match","Exact","1918 RUSTIC CREEK DR, GARLAND, TX, 75040",103281000,"R"
98474,"1918 S CHERRY ST","DENVER","CO",80222,39.68165638,-104.93412563,474,"1918 S CHERRY ST, DENVER, CO, 80222","Match","Exact","1918 S CHERRY ST, DENVER, CO, 80222",177340185,"L"
98475,"1918 SIERRA DRIVE","ELKO","NV",89801,40.8418640890001,-115.784738805,475,"1918 SIERRA DRIVE, ELKO, NV, 89801","Match","Exact","1918 SIERRA DR, ELKO, NV, 89801",154616051,"L"
98476,"1918 SILVER STREET","JACKSONVILLE","FL",32206,30.3476350720001,-81.65691128,476,"1918 SILVER STREET, JACKSONVILLE, FL, 32206","Match","Exact","1918 SILVER ST, JACKSONVILLE, FL, 32206",83898925,"L"
98477,"1918 SOUTH MICHIGAN AVENUE UNIT 303","CHICAGO","IL",60616,41.856494818,-87.623907469,477,"1918 SOUTH MICHIGAN AVENUE UNIT 303, CHICAGO, IL, 60616","Match","Exact","1918 S MICHIGAN AVE, CHICAGO, IL, 60616",111769898,"R"
98478,"1918 SPRUCEWOOD WAY","PORT ORANGE","FL",32128,29.072080339,-81.054188172,478,"1918 SPRUCEWOOD WAY, PORT ORANGE, FL, 32128","Match","Exact","1918 SPRUCEWOOD WAY, PORT ORANGE, FL, 32128",94530430,"R"
98479,"1918 SULGRAVE AVENUE","BALTIMORE","MD",21209,39.3651923890001,-76.656967428,479,"1918 SULGRAVE AVENUE, BALTIMORE, MD, 21209","Match","Exact","1918 SULGRAVE AVE, BALTIMORE, MD, 21209",206406026,"R"
98480,"1918 SUMMER BREEZE RD APARTMENT B","MISSION","TX",78572,NA,NA,480,"1918 SUMMER BREEZE RD APARTMENT B, MISSION, TX, 78572","Tie",NA,NA,NA,NA
98481,"1918 SUTTERS CHASE DRIVE","SUGAR LAND","TX",77479,29.5527984500001,-95.663680487,481,"1918 SUTTERS CHASE DRIVE, SUGAR LAND, TX, 77479","Match","Exact","1918 SUTTERS CHASE DR, SUGAR LAND, TX, 77479",635324224,"L"
98482,"1918 SW YELLOWTAIL AVENUE","PORT SAINT LUCIE","FL",34953,27.267120952,-80.408265477,482,"1918 SW YELLOWTAIL AVENUE, PORT SAINT LUCIE, FL, 34953","Match","Exact","1918 SW YELLOWTAIL AVE, PORT ST LUCIE, FL, 34953",120140868,"L"
98483,"1918 THOMAS DRIVE","ANNAPOLIS","MD",21409,38.9985753170001,-76.480359629,483,"1918 THOMAS DRIVE, ANNAPOLIS, MD, 21409","Match","Exact","1918 THOMAS DR, ANNAPOLIS, MD, 21409",68175622,"R"
98484,"1918 WEST BRUSHY VALLEY ROAD","POWELL","TN",37849,36.0478747970001,-84.0665858799999,484,"1918 WEST BRUSHY VALLEY ROAD, POWELL, TN, 37849","Match","Non_Exact","1918 W BRUSHY VALLEY DR, POWELL, TN, 37849",42606626,"L"
98485,"1918 WILLOWOOD DRIVE","JACKSONVILLE","FL",32225,30.353639544,-81.51099943,485,"1918 WILLOWOOD DRIVE, JACKSONVILLE, FL, 32225","Match","Exact","1918 WILLOWOOD DR, JACKSONVILLE, FL, 32225",83905290,"L"
98486,"1918 WINCHESTER DRIVE","EAST LANSING","MI",48823,42.7558199430001,-84.496006616,486,"1918 WINCHESTER DRIVE, EAST LANSING, MI, 48823","Match","Exact","1918 WINCHESTER DR, EAST LANSING, MI, 48823",629958474,"R"
98487,"1918 WRIGHTS WAY","JONESBORO","GA",30236,33.546152695,-84.3284298889999,487,"1918 WRIGHTS WAY, JONESBORO, GA, 30236","Match","Exact","1918 WRIGHTS WAY, JONESBORO, GA, 30236",23324197,"R"
98488,"1918","SNOHOMISH","WA",98291,NA,NA,488,"1918, SNOHOMISH, WA, 98291","No_Match",NA,NA,NA,NA
98489,"19180 KEENAN CUT OFF RD","MONTGOMERY","TX",77316,30.3250008960001,-95.660618402,489,"19180 KEENAN CUT OFF RD, MONTGOMERY, TX, 77316","Match","Exact","19180 KEENAN CUT OFF RD, MONTGOMERY, TX, 77316",79326019,"L"
98490,"19180 SHEPHERD LAKE RD","MT. VERNON","AL",36560,NA,NA,490,"19180 SHEPHERD LAKE RD, MT. VERNON, AL, 36560","No_Match",NA,NA,NA,NA
98491,"19181 BECKER ROAD","HOCKLEY","TX",77447,30.0554362890001,-95.798578994,491,"19181 BECKER ROAD, HOCKLEY, TX, 77447","Match","Exact","19181 BECKER RD, HOCKLEY, TX, 77447",96170578,"L"
98492,"19182 DUNURE PLACE","PORTER RANCH","CA",91326,34.2928799920001,-118.552074497,492,"19182 DUNURE PLACE, PORTER RANCH, CA, 91326","Match","Exact","19182 DUNURE PL, PORTER RANCH, CA, 91326",142668197,"L"
98493,"19184 LIVE OAK STREET","HESPERIA","CA",92345,34.416070448,-117.244097159,493,"19184 LIVE OAK STREET, HESPERIA, CA, 92345","Match","Exact","19184 LIVE OAK ST, HESPERIA, CA, 92345",144594181,"R"
98494,"19184 RUTHERFORD","DETROIT","MI",48235,42.4311216990001,-83.205270002,494,"19184 RUTHERFORD, DETROIT, MI, 48235","Match","Non_Exact","19184 RUTHERFORD ST, DETROIT, MI, 48235",95423114,"R"
98495,"19186 160TH ST","SUMNER","IA",50674,42.862007749,-91.969588872,495,"19186 160TH ST, SUMNER, IA, 50674","Match","Exact","19186 160TH ST, SUMNER, IA, 50674",108212210,"R"
98496,"19188 CALDWELL","DETROIT","MI",48234,42.4352255740001,-83.0470771939999,496,"19188 CALDWELL, DETROIT, MI, 48234","Match","Non_Exact","19188 CALDWELL ST, DETROIT, MI, 48234",95739810,"R"
98497,"19189 GLENWOOD ROAD","RICHMOND","MN",56368,45.465061527,-94.504276438,497,"19189 GLENWOOD ROAD, RICHMOND, MN, 56368","Match","Exact","19189 GLENWOOD RD, RICHMOND, MN, 56368",611997638,"R"
98498,"1919 10TH AVE SW","DEVILS LAKE","ND",58301,48.089573069,-98.879146615,498,"1919 10TH AVE SW, DEVILS LAKE, ND, 58301","Match","Exact","1919 10TH AVE SW, DEVILS LAKE, ND, 58301",181185016,"L"
98499,"1919 15TH STREET SE","WASHINGTON","DC",20020,38.8662215890001,-76.983251423,499,"1919 15TH STREET SE, WASHINGTON, DC, 20020","Match","Exact","1919 15TH ST SE, WASHINGTON, DC, 20020",76231184,"R"
98500,"1919 18TH STREET","HUNTINGTON","WV",25701,38.4066575360001,-82.422786016,500,"1919 18TH STREET, HUNTINGTON, WV, 25701","Match","Exact","1919 18TH ST, HUNTINGTON, WV, 25701",101318587,"R"
