"ID","Address","City","State","Zip","lat","long","id","input_address","match_indicator","match_type","matched_address","tiger_line_id","tiger_side"
334501,"PO BOX 148","JORDAN","MT",59337,NA,NA,1,"PO BOX 148, JORDAN, MT, 59337","No_Match",NA,NA,NA,NA
334502,"PO BOX 148","LANCASTER","KY",40444,NA,NA,2,"PO BOX 148, LANCASTER, KY, 40444","No_Match",NA,NA,NA,NA
334503,"PO BOX 148","LOGAN","UT",84323,NA,NA,3,"PO BOX 148, LOGAN, UT, 84323","No_Match",NA,NA,NA,NA
334504,"PO BOX 148","MORRILTON","AR",72110,NA,NA,4,"PO BOX 148, MORRILTON, AR, 72110","No_Match",NA,NA,NA,NA
334505,"PO BOX 148","MULBERRY","FL",33860,NA,NA,5,"PO BOX 148, MULBERRY, FL, 33860","No_Match",NA,NA,NA,NA
334506,"PO BOX 148","POPLARVILLE","MS",39470,NA,NA,6,"PO BOX 148, POPLARVILLE, MS, 39470","No_Match",NA,NA,NA,NA
334507,"PO BOX 148","ROSEBORO","NC",28382,NA,NA,7,"PO BOX 148, ROSEBORO, NC, 28382","No_Match",NA,NA,NA,NA
334508,"PO BOX 148","SCHAGHTICOKE","NY",12154,NA,NA,8,"PO BOX 148, SCHAGHTICOKE, NY, 12154","No_Match",NA,NA,NA,NA
334509,"PO BOX 148","SHELBYVILLE","KY",40066,NA,NA,9,"PO BOX 148, SHELBYVILLE, KY, 40066","No_Match",NA,NA,NA,NA
334510,"PO BOX 148","THOMASTON","CT",6787,NA,NA,10,"PO BOX 148, THOMASTON, CT, 6787","No_Match",NA,NA,NA,NA
334511,"PO BOX 148","WESTBROOK","CT",6498,NA,NA,11,"PO BOX 148, WESTBROOK, CT, 6498","No_Match",NA,NA,NA,NA
334512,"PO BOX 148","WILTON","NH",3086,NA,NA,12,"PO BOX 148, WILTON, NH, 3086","No_Match",NA,NA,NA,NA
334513,"PO BOX 1480","FALLBROOK","CA",92088,NA,NA,13,"PO BOX 1480, FALLBROOK, CA, 92088","No_Match",NA,NA,NA,NA
334514,"PO BOX 1480","FORT PIERCE","FL",34954,NA,NA,14,"PO BOX 1480, FORT PIERCE, FL, 34954","No_Match",NA,NA,NA,NA
334515,"PO BOX 14802","ROCHESTER","NY",14608,NA,NA,15,"PO BOX 14802, ROCHESTER, NY, 14608","No_Match",NA,NA,NA,NA
334516,"PO BOX 14802","ROCHESTER","NY",14614,NA,NA,16,"PO BOX 14802, ROCHESTER, NY, 14614","No_Match",NA,NA,NA,NA
334517,"PO BOX 14803","ALBANY","NY",12212,NA,NA,17,"PO BOX 14803, ALBANY, NY, 12212","No_Match",NA,NA,NA,NA
334518,"PO BOX 1481","BAYTOWN","TX",77522,NA,NA,18,"PO BOX 1481, BAYTOWN, TX, 77522","No_Match",NA,NA,NA,NA
334519,"PO BOX 1481","ELKINS","WV",26241,NA,NA,19,"PO BOX 1481, ELKINS, WV, 26241","No_Match",NA,NA,NA,NA
334520,"PO BOX 1481","IRMO","SC",29063,NA,NA,20,"PO BOX 1481, IRMO, SC, 29063","No_Match",NA,NA,NA,NA
334521,"PO BOX 1481","JOSHUA","TX",76058,NA,NA,21,"PO BOX 1481, JOSHUA, TX, 76058","No_Match",NA,NA,NA,NA
334522,"PO BOX 1481","RANCHO SANTA FE","CA",92067,NA,NA,22,"PO BOX 1481, RANCHO SANTA FE, CA, 92067","No_Match",NA,NA,NA,NA
334523,"PO BOX 1481","SMYRNA","GA",30081,NA,NA,23,"PO BOX 1481, SMYRNA, GA, 30081","No_Match",NA,NA,NA,NA
334524,"PO BOX 1481","SUSANVILLE","CA",96130,NA,NA,24,"PO BOX 1481, SUSANVILLE, CA, 96130","No_Match",NA,NA,NA,NA
334525,"PO BOX 14812","TALLAHASSEE","FL",32317,NA,NA,25,"PO BOX 14812, TALLAHASSEE, FL, 32317","No_Match",NA,NA,NA,NA
334526,"PO BOX 1482","JAMESTOWN","NC",27282,NA,NA,26,"PO BOX 1482, JAMESTOWN, NC, 27282","No_Match",NA,NA,NA,NA
334527,"PO BOX 1482","JENA","LA",71342,NA,NA,27,"PO BOX 1482, JENA, LA, 71342","No_Match",NA,NA,NA,NA
334528,"PO BOX 1482","MILFORD","PA",18337,NA,NA,28,"PO BOX 1482, MILFORD, PA, 18337","No_Match",NA,NA,NA,NA
334529,"PO BOX 1482","MOUNT JULIET","TN",37121,NA,NA,29,"PO BOX 1482, MOUNT JULIET, TN, 37121","No_Match",NA,NA,NA,NA
334530,"PO BOX 1482","PORT TOWNSEND","WA",98368,NA,NA,30,"PO BOX 1482, PORT TOWNSEND, WA, 98368","No_Match",NA,NA,NA,NA
334531,"PO BOX 1482","SANTA CRUZ","CA",95061,NA,NA,31,"PO BOX 1482, SANTA CRUZ, CA, 95061","No_Match",NA,NA,NA,NA
334532,"PO BOX 1483","FERNDALE","WA",98248,NA,NA,32,"PO BOX 1483, FERNDALE, WA, 98248","No_Match",NA,NA,NA,NA
334533,"PO BOX 1483","GEORGETOWN","TX",78627,NA,NA,33,"PO BOX 1483, GEORGETOWN, TX, 78627","No_Match",NA,NA,NA,NA
334534,"PO BOX 1483","GRANTS PASS","OR",97526,NA,NA,34,"PO BOX 1483, GRANTS PASS, OR, 97526","No_Match",NA,NA,NA,NA
334535,"PO BOX 1483","LINDEN","TX",75563,NA,NA,35,"PO BOX 1483, LINDEN, TX, 75563","No_Match",NA,NA,NA,NA
334536,"PO BOX 1483","ORACLE","AZ",85623,NA,NA,36,"PO BOX 1483, ORACLE, AZ, 85623","No_Match",NA,NA,NA,NA
334537,"PO BOX 1483","ORANGE PARK","FL",32067,NA,NA,37,"PO BOX 1483, ORANGE PARK, FL, 32067","No_Match",NA,NA,NA,NA
334538,"PO BOX 1483","SEWARD","AK",99664,NA,NA,38,"PO BOX 1483, SEWARD, AK, 99664","No_Match",NA,NA,NA,NA
334539,"PO BOX 1483","WALDORF","MD",20604,NA,NA,39,"PO BOX 1483, WALDORF, MD, 20604","No_Match",NA,NA,NA,NA
334540,"PO BOX 1483","WALTERBORO","SC",29488,NA,NA,40,"PO BOX 1483, WALTERBORO, SC, 29488","No_Match",NA,NA,NA,NA
334541,"PO BOX 14831","GAINESVILLE","FL",32604,NA,NA,41,"PO BOX 14831, GAINESVILLE, FL, 32604","No_Match",NA,NA,NA,NA
334542,"PO BOX 14833","CLEARWATER","FL",33766,NA,NA,42,"PO BOX 14833, CLEARWATER, FL, 33766","No_Match",NA,NA,NA,NA
334543,"PO BOX 1484","DEARBORN","MI",48121,NA,NA,43,"PO BOX 1484, DEARBORN, MI, 48121","No_Match",NA,NA,NA,NA
334544,"PO BOX 1484","DENISON","TX",75021,NA,NA,44,"PO BOX 1484, DENISON, TX, 75021","No_Match",NA,NA,NA,NA
334545,"PO BOX 1484","FRESNO","CA",93716,NA,NA,45,"PO BOX 1484, FRESNO, CA, 93716","No_Match",NA,NA,NA,NA
334546,"PO BOX 1484","FRISCO","TX",75034,NA,NA,46,"PO BOX 1484, FRISCO, TX, 75034","No_Match",NA,NA,NA,NA
334547,"PO BOX 1484","HELENA","MT",59624,NA,NA,47,"PO BOX 1484, HELENA, MT, 59624","No_Match",NA,NA,NA,NA
334548,"PO BOX 1484","RUIDOSO DOWNS","NM",88346,NA,NA,48,"PO BOX 1484, RUIDOSO DOWNS, NM, 88346","No_Match",NA,NA,NA,NA
334549,"PO BOX 1484","THATCHER","AZ",85552,NA,NA,49,"PO BOX 1484, THATCHER, AZ, 85552","No_Match",NA,NA,NA,NA
334550,"PO BOX 1484","WRIGHTSVILLE","NC",28480,NA,NA,50,"PO BOX 1484, WRIGHTSVILLE, NC, 28480","No_Match",NA,NA,NA,NA
334551,"PO BOX 14843","GREENVILLE","SC",29610,NA,NA,51,"PO BOX 14843, GREENVILLE, SC, 29610","No_Match",NA,NA,NA,NA
334552,"PO BOX 1485","CAMBRIDGE","MD",21613,NA,NA,52,"PO BOX 1485, CAMBRIDGE, MD, 21613","No_Match",NA,NA,NA,NA
334553,"PO BOX 1485","COLUMBIA","MO",65205,NA,NA,53,"PO BOX 1485, COLUMBIA, MO, 65205","No_Match",NA,NA,NA,NA
334554,"PO BOX 1485","EPHRATA","WA",98823,NA,NA,54,"PO BOX 1485, EPHRATA, WA, 98823","No_Match",NA,NA,NA,NA
334555,"PO BOX 1485","FAYETTEVILLE","NC",28302,NA,NA,55,"PO BOX 1485, FAYETTEVILLE, NC, 28302","No_Match",NA,NA,NA,NA
334556,"PO BOX 1485","LaPorte","CO",80535,NA,NA,56,"PO BOX 1485, LaPorte, CO, 80535","No_Match",NA,NA,NA,NA
334557,"PO BOX 1485","LEXINGTON","KY",40588,NA,NA,57,"PO BOX 1485, LEXINGTON, KY, 40588","No_Match",NA,NA,NA,NA
334558,"PO BOX 1485","POTTSTOWN","PA",19464,NA,NA,58,"PO BOX 1485, POTTSTOWN, PA, 19464","No_Match",NA,NA,NA,NA
334559,"PO BOX 1485","WALTERBORO","SC",29488,NA,NA,59,"PO BOX 1485, WALTERBORO, SC, 29488","No_Match",NA,NA,NA,NA
334560,"PO BOX 14851","BRADENTON","FL",34280,NA,NA,60,"PO BOX 14851, BRADENTON, FL, 34280","No_Match",NA,NA,NA,NA
334561,"PO BOX 1486","DUMAS","TN",79029,NA,NA,61,"PO BOX 1486, DUMAS, TN, 79029","No_Match",NA,NA,NA,NA
334562,"PO BOX 1486","GROTON","CT",6340,NA,NA,62,"PO BOX 1486, GROTON, CT, 6340","No_Match",NA,NA,NA,NA
334563,"PO BOX 1486","OAK GROVE","LA",71263,NA,NA,63,"PO BOX 1486, OAK GROVE, LA, 71263","No_Match",NA,NA,NA,NA
334564,"PO BOX 1486","PULLMAN","WA",99163,NA,NA,64,"PO BOX 1486, PULLMAN, WA, 99163","No_Match",NA,NA,NA,NA
334565,"PO BOX 1486","THIBODAUX","LA",70302,NA,NA,65,"PO BOX 1486, THIBODAUX, LA, 70302","No_Match",NA,NA,NA,NA
334566,"PO BOX 14863","PORTLAND","OR",97293,NA,NA,66,"PO BOX 14863, PORTLAND, OR, 97293","No_Match",NA,NA,NA,NA
334567,"PO BOX 14864","MINNEAPOLIS","MN",55414,NA,NA,67,"PO BOX 14864, MINNEAPOLIS, MN, 55414","No_Match",NA,NA,NA,NA
334568,"PO BOX 14866","ATLANTA","GA",30324,NA,NA,68,"PO BOX 14866, ATLANTA, GA, 30324","No_Match",NA,NA,NA,NA
334569,"PO BOX 1487","SOUTHAMPTON","PA",18966,NA,NA,69,"PO BOX 1487, SOUTHAMPTON, PA, 18966","No_Match",NA,NA,NA,NA
334570,"PO BOX 1487","TALENT","OR",97540,NA,NA,70,"PO BOX 1487, TALENT, OR, 97540","No_Match",NA,NA,NA,NA
334571,"PO BOX 1487","WESTMINSTER","CA",92684,NA,NA,71,"PO BOX 1487, WESTMINSTER, CA, 92684","No_Match",NA,NA,NA,NA
334572,"PO BOX 14873","COLUMBUS","OH",43214,NA,NA,72,"PO BOX 14873, COLUMBUS, OH, 43214","No_Match",NA,NA,NA,NA
334573,"PO BOX 1488","SPRINGFIELD","OH",45501,NA,NA,73,"PO BOX 1488, SPRINGFIELD, OH, 45501","No_Match",NA,NA,NA,NA
334574,"PO BOX 1489-05402","BURLINGTON","VT",5402,NA,NA,74,"PO BOX 1489-05402, BURLINGTON, VT, 5402","No_Match",NA,NA,NA,NA
334575,"PO BOX 1489","WESTCLIFFE","CO",81252,NA,NA,75,"PO BOX 1489, WESTCLIFFE, CO, 81252","No_Match",NA,NA,NA,NA
334576,"PO BOX 149","CTR. BARNSTEAD","NH",3225,NA,NA,76,"PO BOX 149, CTR. BARNSTEAD, NH, 3225","No_Match",NA,NA,NA,NA
334577,"PO BOX 149","EAST HAMPTON","NY",11937,NA,NA,77,"PO BOX 149, EAST HAMPTON, NY, 11937","No_Match",NA,NA,NA,NA
334578,"PO BOX 149","EXETER","NH",3833,NA,NA,78,"PO BOX 149, EXETER, NH, 3833","No_Match",NA,NA,NA,NA
334579,"PO BOX 149","GLENWOOD","AR",71943,NA,NA,79,"PO BOX 149, GLENWOOD, AR, 71943","No_Match",NA,NA,NA,NA
334580,"PO BOX 149","HARTFORD","CT",6101,NA,NA,80,"PO BOX 149, HARTFORD, CT, 6101","No_Match",NA,NA,NA,NA
334581,"PO BOX 149","HUMMELSTOWN","PA",17036,NA,NA,81,"PO BOX 149, HUMMELSTOWN, PA, 17036","No_Match",NA,NA,NA,NA
334582,"PO BOX 149","LOUISA","VA",23093,NA,NA,82,"PO BOX 149, LOUISA, VA, 23093","No_Match",NA,NA,NA,NA
334583,"PO BOX 149","SILVERHILL","AL",36576,NA,NA,83,"PO BOX 149, SILVERHILL, AL, 36576","No_Match",NA,NA,NA,NA
334584,"PO BOX 149","SPRING CITY","PA",19475,NA,NA,84,"PO BOX 149, SPRING CITY, PA, 19475","No_Match",NA,NA,NA,NA
334585,"PO BOX 149","TAUNTON","MA",2780,NA,NA,85,"PO BOX 149, TAUNTON, MA, 2780","No_Match",NA,NA,NA,NA
334586,"PO BOX 149","UNDERHILL CENTER","VT",5490,NA,NA,86,"PO BOX 149, UNDERHILL CENTER, VT, 5490","No_Match",NA,NA,NA,NA
334587,"PO BOX 149","WAYNE","PA",19087,NA,NA,87,"PO BOX 149, WAYNE, PA, 19087","No_Match",NA,NA,NA,NA
334588,"PO BOX 149","WILDORADO","TX",79098,NA,NA,88,"PO BOX 149, WILDORADO, TX, 79098","No_Match",NA,NA,NA,NA
334589,"PO BOX 1490","DILLINGHAM","AK",99576,NA,NA,89,"PO BOX 1490, DILLINGHAM, AK, 99576","No_Match",NA,NA,NA,NA
334590,"PO BOX 1490/4149 HAYES CIRCLE","WELLINGTON","CO",80549,NA,NA,90,"PO BOX 1490/4149 HAYES CIRCLE, WELLINGTON, CO, 80549","No_Match",NA,NA,NA,NA
334591,"PO BOX 1491","BRADENTON","FL",34206,NA,NA,91,"PO BOX 1491, BRADENTON, FL, 34206","No_Match",NA,NA,NA,NA
334592,"PO BOX 1491","EASTLAND","TX",76448,NA,NA,92,"PO BOX 1491, EASTLAND, TX, 76448","No_Match",NA,NA,NA,NA
334593,"PO BOX 1491","GREENWOOD LAKE","NY",10925,NA,NA,93,"PO BOX 1491, GREENWOOD LAKE, NY, 10925","No_Match",NA,NA,NA,NA
334594,"PO BOX 1491","LANCASTER","PA",17608,NA,NA,94,"PO BOX 1491, LANCASTER, PA, 17608","No_Match",NA,NA,NA,NA
334595,"PO BOX 1491","MALTA","MT",59538,NA,NA,95,"PO BOX 1491, MALTA, MT, 59538","No_Match",NA,NA,NA,NA
334596,"PO BOX 1491","OHKAY OWINGEH","NM",87566,NA,NA,96,"PO BOX 1491, OHKAY OWINGEH, NM, 87566","No_Match",NA,NA,NA,NA
334597,"PO BOX 14916","ROCHESTER","NY",14614,NA,NA,97,"PO BOX 14916, ROCHESTER, NY, 14614","No_Match",NA,NA,NA,NA
334598,"PO BOX 14916","TALLAHASSEE","FL",32317,NA,NA,98,"PO BOX 14916, TALLAHASSEE, FL, 32317","No_Match",NA,NA,NA,NA
334599,"PO BOX 1492","KAILUA","HI",96734,NA,NA,99,"PO BOX 1492, KAILUA, HI, 96734","No_Match",NA,NA,NA,NA
334600,"PO BOX 1492","LAURENS","SC",29360,NA,NA,100,"PO BOX 1492, LAURENS, SC, 29360","No_Match",NA,NA,NA,NA
334601,"PO BOX 1492","LOVELAND","CO",80539,NA,NA,101,"PO BOX 1492, LOVELAND, CO, 80539","No_Match",NA,NA,NA,NA
334602,"PO BOX 1492","PATERSON","NJ",7505,NA,NA,102,"PO BOX 1492, PATERSON, NJ, 7505","No_Match",NA,NA,NA,NA
334603,"PO BOX 1492","POLSON","MT",59860,NA,NA,103,"PO BOX 1492, POLSON, MT, 59860","No_Match",NA,NA,NA,NA
334604,"PO BOX 1492","QUARTZSITE","AZ",85346,NA,NA,104,"PO BOX 1492, QUARTZSITE, AZ, 85346","No_Match",NA,NA,NA,NA
334605,"PO BOX 1492","WILMINGTON","VT",5363,NA,NA,105,"PO BOX 1492, WILMINGTON, VT, 5363","No_Match",NA,NA,NA,NA
334606,"PO BOX 14922","DETROIT","MI",48214,NA,NA,106,"PO BOX 14922, DETROIT, MI, 48214","No_Match",NA,NA,NA,NA
334607,"PO BOX 14926","PORTLAND","OR",97214,NA,NA,107,"PO BOX 14926, PORTLAND, OR, 97214","No_Match",NA,NA,NA,NA
334608,"PO BOX 1493","BREMERTON","WA",98337,NA,NA,108,"PO BOX 1493, BREMERTON, WA, 98337","No_Match",NA,NA,NA,NA
334609,"PO BOX 1493","EUREKA","MT",59917,NA,NA,109,"PO BOX 1493, EUREKA, MT, 59917","No_Match",NA,NA,NA,NA
334610,"PO BOX 1493","FLAT ROCK","NC",28731,NA,NA,110,"PO BOX 1493, FLAT ROCK, NC, 28731","No_Match",NA,NA,NA,NA
334611,"PO BOX 1493","FORT COLLINS","CO",80522,NA,NA,111,"PO BOX 1493, FORT COLLINS, CO, 80522","No_Match",NA,NA,NA,NA
334612,"PO BOX 1493","MARIPOSA","CA",95338,NA,NA,112,"PO BOX 1493, MARIPOSA, CA, 95338","No_Match",NA,NA,NA,NA
334613,"PO BOX 1493","PICKENS","SC",29671,NA,NA,113,"PO BOX 1493, PICKENS, SC, 29671","No_Match",NA,NA,NA,NA
334614,"PO BOX 1493","ROCKWALL","TX",75087,NA,NA,114,"PO BOX 1493, ROCKWALL, TX, 75087","No_Match",NA,NA,NA,NA
334615,"PO BOX 1493","SARASOTA","FL",34230,NA,NA,115,"PO BOX 1493, SARASOTA, FL, 34230","No_Match",NA,NA,NA,NA
334616,"PO BOX 1493","THREE RIVERS","TX",78071,NA,NA,116,"PO BOX 1493, THREE RIVERS, TX, 78071","No_Match",NA,NA,NA,NA
334617,"PO BOX 14932","CINCINNATI","OH",45250,NA,NA,117,"PO BOX 14932, CINCINNATI, OH, 45250","No_Match",NA,NA,NA,NA
334618,"PO BOX 14936","ATLANTA","GA",30324,NA,NA,118,"PO BOX 14936, ATLANTA, GA, 30324","No_Match",NA,NA,NA,NA
334619,"PO BOX 14938","SAN FRANCISCO","CA",94114,NA,NA,119,"PO BOX 14938, SAN FRANCISCO, CA, 94114","No_Match",NA,NA,NA,NA
334620,"PO BOX 1494","FRESNO","TX",77545,NA,NA,120,"PO BOX 1494, FRESNO, TX, 77545","No_Match",NA,NA,NA,NA
334621,"PO BOX 1494","RALEIGH","NC",27602,NA,NA,121,"PO BOX 1494, RALEIGH, NC, 27602","No_Match",NA,NA,NA,NA
334622,"PO BOX 1494","RHINELANDER","WI",54501,NA,NA,122,"PO BOX 1494, RHINELANDER, WI, 54501","No_Match",NA,NA,NA,NA
334623,"PO BOX 1494","RIVERVIEW","FL",33568,NA,NA,123,"PO BOX 1494, RIVERVIEW, FL, 33568","No_Match",NA,NA,NA,NA
334624,"PO BOX 1495","BAYFIELD","WI",54814,NA,NA,124,"PO BOX 1495, BAYFIELD, WI, 54814","No_Match",NA,NA,NA,NA
334625,"PO BOX 1495","BROKEN ARROW","OK",74013,NA,NA,125,"PO BOX 1495, BROKEN ARROW, OK, 74013","No_Match",NA,NA,NA,NA
334626,"PO BOX 1495","GRAND RAPIDS","MI",49501,NA,NA,126,"PO BOX 1495, GRAND RAPIDS, MI, 49501","No_Match",NA,NA,NA,NA
334627,"PO BOX 1495","HIGH POINT","NC",27261,NA,NA,127,"PO BOX 1495, HIGH POINT, NC, 27261","No_Match",NA,NA,NA,NA
334628,"PO BOX 1495","KEY LARGO","FL",33037,NA,NA,128,"PO BOX 1495, KEY LARGO, FL, 33037","No_Match",NA,NA,NA,NA
334629,"PO BOX 1495","LOVELAND","CO",80539,NA,NA,129,"PO BOX 1495, LOVELAND, CO, 80539","No_Match",NA,NA,NA,NA
334630,"PO BOX 1495","STOW","OH",44224,NA,NA,130,"PO BOX 1495, STOW, OH, 44224","No_Match",NA,NA,NA,NA
334631,"PO BOX 14953","AUGUSTA","GA",30919,NA,NA,131,"PO BOX 14953, AUGUSTA, GA, 30919","No_Match",NA,NA,NA,NA
334632,"PO BOX 1496","HAMILTON","MT",59840,NA,NA,132,"PO BOX 1496, HAMILTON, MT, 59840","No_Match",NA,NA,NA,NA
334633,"PO BOX 1496","JUNCOS","PR",777,NA,NA,133,"PO BOX 1496, JUNCOS, PR, 777","No_Match",NA,NA,NA,NA
334634,"PO BOX 1496","LOS ALAMITOS","CA",90720,NA,NA,134,"PO BOX 1496, LOS ALAMITOS, CA, 90720","No_Match",NA,NA,NA,NA
334635,"PO BOX 1496","MABLETON","GA",30126,NA,NA,135,"PO BOX 1496, MABLETON, GA, 30126","No_Match",NA,NA,NA,NA
334636,"PO BOX 1496","MCCLEARY","WA",98557,NA,NA,136,"PO BOX 1496, MCCLEARY, WA, 98557","No_Match",NA,NA,NA,NA
334637,"PO BOX 14964","TUCSON","AZ",85732,NA,NA,137,"PO BOX 14964, TUCSON, AZ, 85732","No_Match",NA,NA,NA,NA
334638,"PO BOX 1497","COLUMBUS","IN",47202,NA,NA,138,"PO BOX 1497, COLUMBUS, IN, 47202","No_Match",NA,NA,NA,NA
334639,"PO BOX 1497","JOSHUA TREE","CA",92252,NA,NA,139,"PO BOX 1497, JOSHUA TREE, CA, 92252","No_Match",NA,NA,NA,NA
334640,"PO BOX 1497","PEMBROKE","NC",28372,NA,NA,140,"PO BOX 1497, PEMBROKE, NC, 28372","No_Match",NA,NA,NA,NA
334641,"PO BOX 1497","SIMI VALLEY","CA",93062,NA,NA,141,"PO BOX 1497, SIMI VALLEY, CA, 93062","No_Match",NA,NA,NA,NA
334642,"PO BOX 1497","WALKER","LA",70785,NA,NA,142,"PO BOX 1497, WALKER, LA, 70785","No_Match",NA,NA,NA,NA
334643,"PO BOX 14974","HUMBLE","TX",77347,NA,NA,143,"PO BOX 14974, HUMBLE, TX, 77347","No_Match",NA,NA,NA,NA
334644,"PO BOX 14974","ODESSA","TX",79768,NA,NA,144,"PO BOX 14974, ODESSA, TX, 79768","No_Match",NA,NA,NA,NA
334645,"PO BOX 1498","FORT LAUDERDALE","FL",33302,NA,NA,145,"PO BOX 1498, FORT LAUDERDALE, FL, 33302","No_Match",NA,NA,NA,NA
334646,"PO BOX 1498","MULBERRY","FL",33860,NA,NA,146,"PO BOX 1498, MULBERRY, FL, 33860","No_Match",NA,NA,NA,NA
334647,"PO BOX 1498","NORTH HIGHLANDS","CA",95660,NA,NA,147,"PO BOX 1498, NORTH HIGHLANDS, CA, 95660","No_Match",NA,NA,NA,NA
334648,"PO BOX 1498","PORT SALERNO","FL",34992,NA,NA,148,"PO BOX 1498, PORT SALERNO, FL, 34992","No_Match",NA,NA,NA,NA
334649,"PO BOX 1498","WEATHERFORD","TX",76086,NA,NA,149,"PO BOX 1498, WEATHERFORD, TX, 76086","No_Match",NA,NA,NA,NA
334650,"PO BOX 1499","PRINCETON","NJ",8542,NA,NA,150,"PO BOX 1499, PRINCETON, NJ, 8542","No_Match",NA,NA,NA,NA
334651,"PO BOX 14996","RALEIGH","NC",27620,NA,NA,151,"PO BOX 14996, RALEIGH, NC, 27620","No_Match",NA,NA,NA,NA
334652,"PO BOX 15   146 BANKS ROAD","BARNESVILLE","GA",30204,33.0645668870001,-84.123090414,152,"PO BOX 15   146 BANKS ROAD, BARNESVILLE, GA, 30204","Match","Exact","146 BANKS RD, BARNESVILLE, GA, 30204",66657940,"R"
334653,"PO BOX 15","ACTON","CA",93510,NA,NA,153,"PO BOX 15, ACTON, CA, 93510","No_Match",NA,NA,NA,NA
334654,"PO BOX 15","BRADFORD","NH",3221,NA,NA,154,"PO BOX 15, BRADFORD, NH, 3221","No_Match",NA,NA,NA,NA
334655,"PO BOX 15","BUFFALO","NY",14209,NA,NA,155,"PO BOX 15, BUFFALO, NY, 14209","No_Match",NA,NA,NA,NA
334656,"PO BOX 15","BURNT HILLS","NY",12027,NA,NA,156,"PO BOX 15, BURNT HILLS, NY, 12027","No_Match",NA,NA,NA,NA
334657,"PO BOX 15","COVINGTON","IN",47932,NA,NA,157,"PO BOX 15, COVINGTON, IN, 47932","No_Match",NA,NA,NA,NA
334658,"PO BOX 15","CUMMING","GA",30028,NA,NA,158,"PO BOX 15, CUMMING, GA, 30028","No_Match",NA,NA,NA,NA
334659,"PO BOX 15","DECORAH","IA",52101,NA,NA,159,"PO BOX 15, DECORAH, IA, 52101","No_Match",NA,NA,NA,NA
334660,"PO BOX 15","EAGLEVILLE","CA",96110,NA,NA,160,"PO BOX 15, EAGLEVILLE, CA, 96110","No_Match",NA,NA,NA,NA
334661,"PO BOX 15","ELBURN","IL",60119,NA,NA,161,"PO BOX 15, ELBURN, IL, 60119","No_Match",NA,NA,NA,NA
334662,"PO BOX 15","KNIGHTDALE","NC",27545,NA,NA,162,"PO BOX 15, KNIGHTDALE, NC, 27545","No_Match",NA,NA,NA,NA
334663,"PO BOX 15","LITITZ","PA",17543,NA,NA,163,"PO BOX 15, LITITZ, PA, 17543","No_Match",NA,NA,NA,NA
334664,"PO BOX 15","LITTLEFIELD","TX",79339,NA,NA,164,"PO BOX 15, LITTLEFIELD, TX, 79339","No_Match",NA,NA,NA,NA
334665,"PO BOX 15","MANHATTAN","MT",59741,NA,NA,165,"PO BOX 15, MANHATTAN, MT, 59741","No_Match",NA,NA,NA,NA
334666,"PO BOX 15","MARIETTA","GA",30061,NA,NA,166,"PO BOX 15, MARIETTA, GA, 30061","No_Match",NA,NA,NA,NA
334667,"PO BOX 15","MARINE","IL",62061,NA,NA,167,"PO BOX 15, MARINE, IL, 62061","No_Match",NA,NA,NA,NA
334668,"PO BOX 15","NAZARETH","PA",18064,NA,NA,168,"PO BOX 15, NAZARETH, PA, 18064","No_Match",NA,NA,NA,NA
334669,"PO BOX 15","NEW PARIS","PA",15554,NA,NA,169,"PO BOX 15, NEW PARIS, PA, 15554","No_Match",NA,NA,NA,NA
334670,"PO BOX 15","PARSONS","WV",26287,NA,NA,170,"PO BOX 15, PARSONS, WV, 26287","No_Match",NA,NA,NA,NA
334671,"PO BOX 15","SONOMA","CA",95476,NA,NA,171,"PO BOX 15, SONOMA, CA, 95476","No_Match",NA,NA,NA,NA
334672,"PO BOX 15","STANHOPE","NJ",7874,NA,NA,172,"PO BOX 15, STANHOPE, NJ, 7874","No_Match",NA,NA,NA,NA
334673,"PO BOX 15","SUFFERN","NY",10901,NA,NA,173,"PO BOX 15, SUFFERN, NY, 10901","No_Match",NA,NA,NA,NA
334674,"PO BOX 15","TAOS","NM",87571,NA,NA,174,"PO BOX 15, TAOS, NM, 87571","No_Match",NA,NA,NA,NA
334675,"PO BOX 15","TERRETON","ID",83450,NA,NA,175,"PO BOX 15, TERRETON, ID, 83450","No_Match",NA,NA,NA,NA
334676,"PO BOX 15","WHITWELL","TN",37397,NA,NA,176,"PO BOX 15, WHITWELL, TN, 37397","No_Match",NA,NA,NA,NA
334677,"PO BOX 15","WINTON","NC",27986,NA,NA,177,"PO BOX 15, WINTON, NC, 27986","No_Match",NA,NA,NA,NA
334678,"PO BOX 150","BANDERA","TX",78003,NA,NA,178,"PO BOX 150, BANDERA, TX, 78003","No_Match",NA,NA,NA,NA
334679,"PO BOX 150","BARRACKVILLE","WV",26559,NA,NA,179,"PO BOX 150, BARRACKVILLE, WV, 26559","No_Match",NA,NA,NA,NA
334680,"PO BOX 150","BROOKVILLE","IN",47012,NA,NA,180,"PO BOX 150, BROOKVILLE, IN, 47012","No_Match",NA,NA,NA,NA
334681,"PO BOX 150","CAMP SHERMAN","OR",97730,NA,NA,181,"PO BOX 150, CAMP SHERMAN, OR, 97730","No_Match",NA,NA,NA,NA
334682,"PO BOX 150","GAMBELL","AK",99742,NA,NA,182,"PO BOX 150, GAMBELL, AK, 99742","No_Match",NA,NA,NA,NA
334683,"PO BOX 150","GREENTOWN","PA",18426,NA,NA,183,"PO BOX 150, GREENTOWN, PA, 18426","No_Match",NA,NA,NA,NA
334684,"PO BOX 150","LOS ALTOS","CA",94023,NA,NA,184,"PO BOX 150, LOS ALTOS, CA, 94023","No_Match",NA,NA,NA,NA
334685,"PO BOX 150","MILBANK","SD",57252,NA,NA,185,"PO BOX 150, MILBANK, SD, 57252","No_Match",NA,NA,NA,NA
334686,"PO BOX 150","MURRELLS INLET","SC",29576,NA,NA,186,"PO BOX 150, MURRELLS INLET, SC, 29576","No_Match",NA,NA,NA,NA
334687,"PO BOX 150","NESPELEM","WA",99155,NA,NA,187,"PO BOX 150, NESPELEM, WA, 99155","No_Match",NA,NA,NA,NA
334688,"PO BOX 150","NEWTON HAMILTON","PA",17075,NA,NA,188,"PO BOX 150, NEWTON HAMILTON, PA, 17075","No_Match",NA,NA,NA,NA
334689,"PO BOX 150","NORTH BALTIMORE","OH",45872,NA,NA,189,"PO BOX 150, NORTH BALTIMORE, OH, 45872","No_Match",NA,NA,NA,NA
334690,"PO BOX 150","NORVELT","PA",15674,NA,NA,190,"PO BOX 150, NORVELT, PA, 15674","No_Match",NA,NA,NA,NA
334691,"PO BOX 150","PENN YAN","NY",14527,NA,NA,191,"PO BOX 150, PENN YAN, NY, 14527","No_Match",NA,NA,NA,NA
334692,"PO BOX 150","ROBERTSDALE","PA",16674,NA,NA,192,"PO BOX 150, ROBERTSDALE, PA, 16674","No_Match",NA,NA,NA,NA
334693,"PO BOX 150","SAINT JAMES","MN",56081,NA,NA,193,"PO BOX 150, SAINT JAMES, MN, 56081","No_Match",NA,NA,NA,NA
334694,"PO BOX 150","SEA GIRT","NJ",8750,NA,NA,194,"PO BOX 150, SEA GIRT, NJ, 8750","No_Match",NA,NA,NA,NA
334695,"PO BOX 150","THORP","WA",98946,NA,NA,195,"PO BOX 150, THORP, WA, 98946","No_Match",NA,NA,NA,NA
334696,"PO BOX 150","WEATHERLY","PA",18255,NA,NA,196,"PO BOX 150, WEATHERLY, PA, 18255","No_Match",NA,NA,NA,NA
334697,"PO BOX 150","WEST FORKS","ME",4985,NA,NA,197,"PO BOX 150, WEST FORKS, ME, 4985","No_Match",NA,NA,NA,NA
334698,"PO BOX 150","WHITE PLAINS","NY",10603,NA,NA,198,"PO BOX 150, WHITE PLAINS, NY, 10603","No_Match",NA,NA,NA,NA
334699,"PO BOX 1500","ANAHUAC","TX",77514,NA,NA,199,"PO BOX 1500, ANAHUAC, TX, 77514","No_Match",NA,NA,NA,NA
334700,"PO BOX 1500","CORONA DEL MAR","CA",92625,NA,NA,200,"PO BOX 1500, CORONA DEL MAR, CA, 92625","No_Match",NA,NA,NA,NA
334701,"PO BOX 1500","FISHERSVILLE","VA",22939,NA,NA,201,"PO BOX 1500, FISHERSVILLE, VA, 22939","No_Match",NA,NA,NA,NA
334702,"PO BOX 1500","MARTINSBURG","WV",25402,NA,NA,202,"PO BOX 1500, MARTINSBURG, WV, 25402","No_Match",NA,NA,NA,NA
334703,"PO BOX 1500","PINE BLUFF","AR",71613,NA,NA,203,"PO BOX 1500, PINE BLUFF, AR, 71613","No_Match",NA,NA,NA,NA
334704,"PO BOX 15001","TUMWATER","WA",98511,NA,NA,204,"PO BOX 15001, TUMWATER, WA, 98511","No_Match",NA,NA,NA,NA
334705,"PO BOX 150021","ALTAMONTE SPRINGS","FL",32715,NA,NA,205,"PO BOX 150021, ALTAMONTE SPRINGS, FL, 32715","No_Match",NA,NA,NA,NA
334706,"PO BOX 15007","FORT WORTH","TX",76119,NA,NA,206,"PO BOX 15007, FORT WORTH, TX, 76119","No_Match",NA,NA,NA,NA
334707,"PO BOX 15008","PORTLAND","OR",97293,NA,NA,207,"PO BOX 15008, PORTLAND, OR, 97293","No_Match",NA,NA,NA,NA
334708,"PO BOX 1501","ALPINE","TX",79831,NA,NA,208,"PO BOX 1501, ALPINE, TX, 79831","No_Match",NA,NA,NA,NA
334709,"PO BOX 1501","BELLINGHAM","WA",98227,NA,NA,209,"PO BOX 1501, BELLINGHAM, WA, 98227","No_Match",NA,NA,NA,NA
334710,"PO BOX 1501","CHOWCHILLA","CA",93610,NA,NA,210,"PO BOX 1501, CHOWCHILLA, CA, 93610","No_Match",NA,NA,NA,NA
334711,"PO BOX 1501","CONWAY","SC",29528,NA,NA,211,"PO BOX 1501, CONWAY, SC, 29528","No_Match",NA,NA,NA,NA
334712,"PO BOX 1501","IDYLLWILD","CA",92549,NA,NA,212,"PO BOX 1501, IDYLLWILD, CA, 92549","No_Match",NA,NA,NA,NA
334713,"PO BOX 1501","LOUISVILLE","KY",40201,NA,NA,213,"PO BOX 1501, LOUISVILLE, KY, 40201","No_Match",NA,NA,NA,NA
334714,"PO BOX 1501","MCDONOUGH","GA",30253,NA,NA,214,"PO BOX 1501, MCDONOUGH, GA, 30253","No_Match",NA,NA,NA,NA
334715,"PO BOX 1501","MOUNT VERNON","WA",98273,NA,NA,215,"PO BOX 1501, MOUNT VERNON, WA, 98273","No_Match",NA,NA,NA,NA
334716,"PO BOX 1501","RAWLINS","WY",82301,NA,NA,216,"PO BOX 1501, RAWLINS, WY, 82301","No_Match",NA,NA,NA,NA
334717,"PO BOX 15010","SACRAMENTO","CA",95851,NA,NA,217,"PO BOX 15010, SACRAMENTO, CA, 95851","No_Match",NA,NA,NA,NA
334718,"PO BOX 150103","KEW GARDENS","NY",11415,NA,NA,218,"PO BOX 150103, KEW GARDENS, NY, 11415","No_Match",NA,NA,NA,NA
334719,"PO BOX 15011","HATTIESBURG","MS",39404,NA,NA,219,"PO BOX 15011, HATTIESBURG, MS, 39404","No_Match",NA,NA,NA,NA
334720,"PO BOX 150137","GRAND RAPIDS","MI",49515,NA,NA,220,"PO BOX 150137, GRAND RAPIDS, MI, 49515","No_Match",NA,NA,NA,NA
334721,"PO BOX 15019","WASHINGTON","DC",20003,NA,NA,221,"PO BOX 15019, WASHINGTON, DC, 20003","No_Match",NA,NA,NA,NA
334722,"PO BOX 1502","BRUCE","MS",38915,NA,NA,222,"PO BOX 1502, BRUCE, MS, 38915","No_Match",NA,NA,NA,NA
334723,"PO BOX 1502","BUCKEYE LAKE","OH",43008,NA,NA,223,"PO BOX 1502, BUCKEYE LAKE, OH, 43008","No_Match",NA,NA,NA,NA
334724,"PO BOX 1502","CROWN POINT","IN",46308,NA,NA,224,"PO BOX 1502, CROWN POINT, IN, 46308","No_Match",NA,NA,NA,NA
334725,"PO BOX 1502","DUNEDIN","FL",34697,NA,NA,225,"PO BOX 1502, DUNEDIN, FL, 34697","No_Match",NA,NA,NA,NA
334726,"PO BOX 1502","SHOW LOW","AZ",85902,NA,NA,226,"PO BOX 1502, SHOW LOW, AZ, 85902","No_Match",NA,NA,NA,NA
334727,"PO BOX 1502","STANWOOD","WA",98292,NA,NA,227,"PO BOX 1502, STANWOOD, WA, 98292","No_Match",NA,NA,NA,NA
334728,"PO BOX 1502","WALL","NJ",7719,NA,NA,228,"PO BOX 1502, WALL, NJ, 7719","No_Match",NA,NA,NA,NA
334729,"PO BOX 15023","CLEVELAND","OH",44112,NA,NA,229,"PO BOX 15023, CLEVELAND, OH, 44112","No_Match",NA,NA,NA,NA
334730,"PO BOX 150264","FORT WORTH","TX",76108,NA,NA,230,"PO BOX 150264, FORT WORTH, TX, 76108","No_Match",NA,NA,NA,NA
334731,"PO BOX 150274","CAPE CORAL","FL",33915,NA,NA,231,"PO BOX 150274, CAPE CORAL, FL, 33915","No_Match",NA,NA,NA,NA
334732,"PO BOX 150285","SAN RAFAEL","CA",94915,NA,NA,232,"PO BOX 150285, SAN RAFAEL, CA, 94915","No_Match",NA,NA,NA,NA
334733,"PO BOX 1503","STUDIO CITY","CA",91614,NA,NA,233,"PO BOX 1503, STUDIO CITY, CA, 91614","No_Match",NA,NA,NA,NA
334734,"PO BOX 1503","VALPARAISO","IN",46384,NA,NA,234,"PO BOX 1503, VALPARAISO, IN, 46384","No_Match",NA,NA,NA,NA
334735,"PO BOX 15031","SAINT LOUIS","MO",63110,NA,NA,235,"PO BOX 15031, SAINT LOUIS, MO, 63110","No_Match",NA,NA,NA,NA
334736,"PO BOX 15032","PHILADELPHIA","PA",19130,NA,NA,236,"PO BOX 15032, PHILADELPHIA, PA, 19130","No_Match",NA,NA,NA,NA
334737,"PO BOX 150331","CARSON CITY","NV",89315,NA,NA,237,"PO BOX 150331, CARSON CITY, NV, 89315","No_Match",NA,NA,NA,NA
334738,"PO BOX 150341","GRAND RAPIDS","MI",49515,NA,NA,238,"PO BOX 150341, GRAND RAPIDS, MI, 49515","No_Match",NA,NA,NA,NA
334739,"PO BOX 150382","LAKEWOOD","CO",80215,NA,NA,239,"PO BOX 150382, LAKEWOOD, CO, 80215","No_Match",NA,NA,NA,NA
334740,"PO BOX 1504","DALHART","TX",79022,NA,NA,240,"PO BOX 1504, DALHART, TX, 79022","No_Match",NA,NA,NA,NA
334741,"PO BOX 1504","MONROE","MI",48161,NA,NA,241,"PO BOX 1504, MONROE, MI, 48161","No_Match",NA,NA,NA,NA
334742,"PO BOX 1504","RALEIGH","NC",27602,NA,NA,242,"PO BOX 1504, RALEIGH, NC, 27602","No_Match",NA,NA,NA,NA
334743,"PO BOX 1504","RIVERTON","WY",82501,NA,NA,243,"PO BOX 1504, RIVERTON, WY, 82501","No_Match",NA,NA,NA,NA
334744,"PO BOX 150429","SAN RAFAEL","CA",94915,NA,NA,244,"PO BOX 150429, SAN RAFAEL, CA, 94915","No_Match",NA,NA,NA,NA
334745,"PO BOX 150437","BROOKLYN","NY",11215,NA,NA,245,"PO BOX 150437, BROOKLYN, NY, 11215","No_Match",NA,NA,NA,NA
334746,"PO BOX 150462","OGDEN","UT",84415,NA,NA,246,"PO BOX 150462, OGDEN, UT, 84415","No_Match",NA,NA,NA,NA
334747,"PO BOX 1505","ANN ARBOR","MI",48106,NA,NA,247,"PO BOX 1505, ANN ARBOR, MI, 48106","No_Match",NA,NA,NA,NA
334748,"PO BOX 1505","MEREDITH","NH",3253,NA,NA,248,"PO BOX 1505, MEREDITH, NH, 3253","No_Match",NA,NA,NA,NA
334749,"PO BOX 1505","TUPELO","MS",38802,NA,NA,249,"PO BOX 1505, TUPELO, MS, 38802","No_Match",NA,NA,NA,NA
334750,"PO BOX 15054","RIO RANCHO","NM",87144,NA,NA,250,"PO BOX 15054, RIO RANCHO, NM, 87144","No_Match",NA,NA,NA,NA
334751,"PO BOX 150564","FORT WORTH","TX",76108,NA,NA,251,"PO BOX 150564, FORT WORTH, TX, 76108","No_Match",NA,NA,NA,NA
334752,"PO BOX 150586","FORT WORTH","TX",76108,NA,NA,252,"PO BOX 150586, FORT WORTH, TX, 76108","No_Match",NA,NA,NA,NA
334753,"PO BOX 150594","ATLANTA","GA",30315,NA,NA,253,"PO BOX 150594, ATLANTA, GA, 30315","No_Match",NA,NA,NA,NA
334754,"PO BOX 1506","CENTREVILLE","VA",20122,NA,NA,254,"PO BOX 1506, CENTREVILLE, VA, 20122","No_Match",NA,NA,NA,NA
334755,"PO BOX 1506","CLEARLAKE OAKS","CA",95423,NA,NA,255,"PO BOX 1506, CLEARLAKE OAKS, CA, 95423","No_Match",NA,NA,NA,NA
334756,"PO BOX 15063","DETROIT","MI",48215,NA,NA,256,"PO BOX 15063, DETROIT, MI, 48215","No_Match",NA,NA,NA,NA
334757,"PO BOX 15064","COLORADO SPRINGS","CO",80910,NA,NA,257,"PO BOX 15064, COLORADO SPRINGS, CO, 80910","No_Match",NA,NA,NA,NA
334758,"PO BOX 150642","AUSTIN","TX",78715,NA,NA,258,"PO BOX 150642, AUSTIN, TX, 78715","No_Match",NA,NA,NA,NA
334759,"PO BOX 15065","DETROIT","MI",48215,NA,NA,259,"PO BOX 15065, DETROIT, MI, 48215","No_Match",NA,NA,NA,NA
334760,"PO BOX 15065","LONG BEACH","CA",90815,NA,NA,260,"PO BOX 15065, LONG BEACH, CA, 90815","No_Match",NA,NA,NA,NA
334761,"PO BOX 15066","JERSEY CITY","NJ",7305,NA,NA,261,"PO BOX 15066, JERSEY CITY, NJ, 7305","No_Match",NA,NA,NA,NA
334762,"PO BOX 150683","OGDEN","UT",84415,NA,NA,262,"PO BOX 150683, OGDEN, UT, 84415","No_Match",NA,NA,NA,NA
334763,"PO BOX 1507","MILLBROOK","AL",36054,NA,NA,263,"PO BOX 1507, MILLBROOK, AL, 36054","No_Match",NA,NA,NA,NA
334764,"PO BOX 1507","SPARTANBURG","SC",29302,NA,NA,264,"PO BOX 1507, SPARTANBURG, SC, 29302","No_Match",NA,NA,NA,NA
334765,"PO BOX 1507","WOODBRIDGE","VA",22195,NA,NA,265,"PO BOX 1507, WOODBRIDGE, VA, 22195","No_Match",NA,NA,NA,NA
334766,"PO BOX 15071","WILMINGTON","DE",19850,NA,NA,266,"PO BOX 15071, WILMINGTON, DE, 19850","No_Match",NA,NA,NA,NA
334767,"PO BOX 15072","SAVANNAH","GA",31416,NA,NA,267,"PO BOX 15072, SAVANNAH, GA, 31416","No_Match",NA,NA,NA,NA
334768,"PO BOX 15074","TUCSON","AZ",85708,NA,NA,268,"PO BOX 15074, TUCSON, AZ, 85708","No_Match",NA,NA,NA,NA
334769,"PO BOX 150773","SAN RAPHAEL","CA",94915,NA,NA,269,"PO BOX 150773, SAN RAPHAEL, CA, 94915","No_Match",NA,NA,NA,NA
334770,"PO BOX 150785","ATLANTA","GA",30315,NA,NA,270,"PO BOX 150785, ATLANTA, GA, 30315","No_Match",NA,NA,NA,NA
334771,"PO BOX 1508","CHANDLER","TX",75758,NA,NA,271,"PO BOX 1508, CHANDLER, TX, 75758","No_Match",NA,NA,NA,NA
334772,"PO BOX 1508","COPPERAS COVE","TX",76522,NA,NA,272,"PO BOX 1508, COPPERAS COVE, TX, 76522","No_Match",NA,NA,NA,NA
334773,"PO BOX 1508","EDMOND","OK",73083,NA,NA,273,"PO BOX 1508, EDMOND, OK, 73083","No_Match",NA,NA,NA,NA
334774,"PO BOX 1508","FRESNO","TX",77545,NA,NA,274,"PO BOX 1508, FRESNO, TX, 77545","No_Match",NA,NA,NA,NA
334775,"PO BOX 1508","INDIANOLA","MS",38751,NA,NA,275,"PO BOX 1508, INDIANOLA, MS, 38751","No_Match",NA,NA,NA,NA
334776,"PO BOX 15083","AUGUSTA","GA",30919,NA,NA,276,"PO BOX 15083, AUGUSTA, GA, 30919","No_Match",NA,NA,NA,NA
334777,"PO BOX 15083","COLORADO SPRINGS","CO",80935,NA,NA,277,"PO BOX 15083, COLORADO SPRINGS, CO, 80935","No_Match",NA,NA,NA,NA
334778,"PO BOX 15083","MARMET","WV",25365,NA,NA,278,"PO BOX 15083, MARMET, WV, 25365","No_Match",NA,NA,NA,NA
334779,"PO BOX 15085","HOUSTON","TX",77220,NA,NA,279,"PO BOX 15085, HOUSTON, TX, 77220","No_Match",NA,NA,NA,NA
334780,"PO BOX 150892","LAKEWOOD","CO",80215,NA,NA,280,"PO BOX 150892, LAKEWOOD, CO, 80215","No_Match",NA,NA,NA,NA
334781,"PO BOX 1509","BRUSH PRAIRIE","WA",98606,NA,NA,281,"PO BOX 1509, BRUSH PRAIRIE, WA, 98606","No_Match",NA,NA,NA,NA
334782,"PO BOX 1509","SPIRIT LAKE","ID",83869,NA,NA,282,"PO BOX 1509, SPIRIT LAKE, ID, 83869","No_Match",NA,NA,NA,NA
334783,"PO BOX 150917","DALLAS","TX",75315,NA,NA,283,"PO BOX 150917, DALLAS, TX, 75315","No_Match",NA,NA,NA,NA
334784,"PO BOX 15096","DETROIT","MI",48215,NA,NA,284,"PO BOX 15096, DETROIT, MI, 48215","No_Match",NA,NA,NA,NA
334785,"PO BOX 15098","SANFRANCISCO","CA",94115,NA,NA,285,"PO BOX 15098, SANFRANCISCO, CA, 94115","No_Match",NA,NA,NA,NA
334786,"PO BOX 150996","ELY","NV",89315,NA,NA,286,"PO BOX 150996, ELY, NV, 89315","No_Match",NA,NA,NA,NA
334787,"PO BOX 151","AVON","NY",14414,NA,NA,287,"PO BOX 151, AVON, NY, 14414","No_Match",NA,NA,NA,NA
334788,"PO BOX 151","BOONE","NC",28607,NA,NA,288,"PO BOX 151, BOONE, NC, 28607","No_Match",NA,NA,NA,NA
334789,"PO BOX 151","CANFIELD","OH",44406,NA,NA,289,"PO BOX 151, CANFIELD, OH, 44406","No_Match",NA,NA,NA,NA
334790,"PO BOX 151","DEWITT","MI",48820,NA,NA,290,"PO BOX 151, DEWITT, MI, 48820","No_Match",NA,NA,NA,NA
334791,"PO BOX 151","FLAGSTAFF","AZ",86002,NA,NA,291,"PO BOX 151, FLAGSTAFF, AZ, 86002","No_Match",NA,NA,NA,NA
334792,"PO BOX 151","FRANKLIN","OH",45005,NA,NA,292,"PO BOX 151, FRANKLIN, OH, 45005","No_Match",NA,NA,NA,NA
334793,"PO BOX 151","GREENCASTLE","PA",17225,NA,NA,293,"PO BOX 151, GREENCASTLE, PA, 17225","No_Match",NA,NA,NA,NA
334794,"PO BOX 151","HAMBURG","PA",19526,NA,NA,294,"PO BOX 151, HAMBURG, PA, 19526","No_Match",NA,NA,NA,NA
334795,"PO BOX 151","HARRISVILLE","WV",26362,NA,NA,295,"PO BOX 151, HARRISVILLE, WV, 26362","No_Match",NA,NA,NA,NA
334796,"PO BOX 151","HONOR","MI",49640,NA,NA,296,"PO BOX 151, HONOR, MI, 49640","No_Match",NA,NA,NA,NA
334797,"PO BOX 151","LAKE OSWEGO","OR",97034,NA,NA,297,"PO BOX 151, LAKE OSWEGO, OR, 97034","No_Match",NA,NA,NA,NA
334798,"PO BOX 151","LEXINGTON","TN",38351,NA,NA,298,"PO BOX 151, LEXINGTON, TN, 38351","No_Match",NA,NA,NA,NA
334799,"PO BOX 151","LILESVILLE","NC",28091,NA,NA,299,"PO BOX 151, LILESVILLE, NC, 28091","No_Match",NA,NA,NA,NA
334800,"PO BOX 151","LITTLEROCK","CA",93543,NA,NA,300,"PO BOX 151, LITTLEROCK, CA, 93543","No_Match",NA,NA,NA,NA
334801,"PO BOX 151","LOUISE","TX",77455,NA,NA,301,"PO BOX 151, LOUISE, TX, 77455","No_Match",NA,NA,NA,NA
334802,"PO BOX 151","MT VERNON","TX",75457,NA,NA,302,"PO BOX 151, MT VERNON, TX, 75457","No_Match",NA,NA,NA,NA
334803,"PO BOX 151","OAKFIELD","WI",53065,NA,NA,303,"PO BOX 151, OAKFIELD, WI, 53065","No_Match",NA,NA,NA,NA
334804,"PO BOX 151","OCONTO","WI",54153,NA,NA,304,"PO BOX 151, OCONTO, WI, 54153","No_Match",NA,NA,NA,NA
334805,"PO BOX 151","PLEASANT GROVE","AL",35127,NA,NA,305,"PO BOX 151, PLEASANT GROVE, AL, 35127","No_Match",NA,NA,NA,NA
334806,"PO BOX 151","PROSPER","TX",75078,NA,NA,306,"PO BOX 151, PROSPER, TX, 75078","No_Match",NA,NA,NA,NA
334807,"PO BOX 151","SIDNEY","TX",76474,NA,NA,307,"PO BOX 151, SIDNEY, TX, 76474","No_Match",NA,NA,NA,NA
334808,"PO BOX 151","SIMPSONVILLE","MD",21150,NA,NA,308,"PO BOX 151, SIMPSONVILLE, MD, 21150","No_Match",NA,NA,NA,NA
334809,"PO BOX 151","SLATON","TX",79364,NA,NA,309,"PO BOX 151, SLATON, TX, 79364","No_Match",NA,NA,NA,NA
334810,"PO BOX 151","SOUTH LYON","MI",48178,NA,NA,310,"PO BOX 151, SOUTH LYON, MI, 48178","No_Match",NA,NA,NA,NA
334811,"PO BOX 151","SOUTHAMPTON","MA",1073,NA,NA,311,"PO BOX 151, SOUTHAMPTON, MA, 1073","No_Match",NA,NA,NA,NA
334812,"PO BOX 151","SYOSSET","NY",11791,NA,NA,312,"PO BOX 151, SYOSSET, NY, 11791","No_Match",NA,NA,NA,NA
334813,"PO BOX 151","TOMAH","WI",54660,NA,NA,313,"PO BOX 151, TOMAH, WI, 54660","No_Match",NA,NA,NA,NA
334814,"PO BOX 151","YORKTOWN","IN",47396,NA,NA,314,"PO BOX 151, YORKTOWN, IN, 47396","No_Match",NA,NA,NA,NA
334815,"PO BOX 1510","CONVERSE","TX",78109,NA,NA,315,"PO BOX 1510, CONVERSE, TX, 78109","No_Match",NA,NA,NA,NA
334816,"PO BOX 1510","CRAIG","CO",81626,NA,NA,316,"PO BOX 1510, CRAIG, CO, 81626","No_Match",NA,NA,NA,NA
334817,"PO BOX 1510","REYNOLDSBURG","OH",43068,NA,NA,317,"PO BOX 1510, REYNOLDSBURG, OH, 43068","No_Match",NA,NA,NA,NA
334818,"PO BOX 1510","SAINT PETERS","MO",63376,NA,NA,318,"PO BOX 1510, SAINT PETERS, MO, 63376","No_Match",NA,NA,NA,NA
334819,"PO BOX 1510","SAN JUAN CAPISTRANO","CA",92675,NA,NA,319,"PO BOX 1510, SAN JUAN CAPISTRANO, CA, 92675","No_Match",NA,NA,NA,NA
334820,"PO BOX 15101","TAMPA","FL",33684,NA,NA,320,"PO BOX 15101, TAMPA, FL, 33684","No_Match",NA,NA,NA,NA
334821,"PO BOX 151066","TAMPA","FL",33684,NA,NA,321,"PO BOX 151066, TAMPA, FL, 33684","No_Match",NA,NA,NA,NA
334822,"PO BOX 151098","ARLINGTON","TX",76015,NA,NA,322,"PO BOX 151098, ARLINGTON, TX, 76015","No_Match",NA,NA,NA,NA
334823,"PO BOX 1511","CHANDLER","TX",75758,NA,NA,323,"PO BOX 1511, CHANDLER, TX, 75758","No_Match",NA,NA,NA,NA
334824,"PO BOX 1511","DICKSON","TN",37056,NA,NA,324,"PO BOX 1511, DICKSON, TN, 37056","No_Match",NA,NA,NA,NA
334825,"PO BOX 1511","EASTLAKE","CO",80614,NA,NA,325,"PO BOX 1511, EASTLAKE, CO, 80614","No_Match",NA,NA,NA,NA
334826,"PO BOX 1511","LA CRESCENTA","CA",91214,NA,NA,326,"PO BOX 1511, LA CRESCENTA, CA, 91214","No_Match",NA,NA,NA,NA
334827,"PO BOX 1511","LAKE CHARLES","LA",70602,NA,NA,327,"PO BOX 1511, LAKE CHARLES, LA, 70602","No_Match",NA,NA,NA,NA
334828,"PO BOX 1511","LOUISA","KY",41230,NA,NA,328,"PO BOX 1511, LOUISA, KY, 41230","No_Match",NA,NA,NA,NA
334829,"PO BOX 1511","MANNFORD","OK",74044,NA,NA,329,"PO BOX 1511, MANNFORD, OK, 74044","No_Match",NA,NA,NA,NA
334830,"PO BOX 1511","MAPLE GROVE","MN",55311,NA,NA,330,"PO BOX 1511, MAPLE GROVE, MN, 55311","No_Match",NA,NA,NA,NA
334831,"PO BOX 1511","MONTEAGLE","TN",37356,NA,NA,331,"PO BOX 1511, MONTEAGLE, TN, 37356","No_Match",NA,NA,NA,NA
334832,"PO BOX 1511","PORT CHESTER","NY",10573,NA,NA,332,"PO BOX 1511, PORT CHESTER, NY, 10573","No_Match",NA,NA,NA,NA
334833,"PO BOX 151101","DALLAS","TX",75315,NA,NA,333,"PO BOX 151101, DALLAS, TX, 75315","No_Match",NA,NA,NA,NA
334834,"PO BOX 15111","LITTLE ROCK","AR",72231,NA,NA,334,"PO BOX 15111, LITTLE ROCK, AR, 72231","No_Match",NA,NA,NA,NA
334835,"PO BOX 15113","WEST PALM BEACH","FL",33416,NA,NA,335,"PO BOX 15113, WEST PALM BEACH, FL, 33416","No_Match",NA,NA,NA,NA
334836,"PO BOX 151133","AUSTIN","TX",78715,NA,NA,336,"PO BOX 151133, AUSTIN, TX, 78715","No_Match",NA,NA,NA,NA
334837,"PO BOX 151135","LAKEWOOD","CO",80215,NA,NA,337,"PO BOX 151135, LAKEWOOD, CO, 80215","No_Match",NA,NA,NA,NA
334838,"PO BOX 15115","AUSTIN","TX",78715,NA,NA,338,"PO BOX 15115, AUSTIN, TX, 78715","No_Match",NA,NA,NA,NA
334839,"PO BOX 151162","ELY","NV",89315,NA,NA,339,"PO BOX 151162, ELY, NV, 89315","No_Match",NA,NA,NA,NA
334840,"PO BOX 1512","BUFFALO","TX",75831,NA,NA,340,"PO BOX 1512, BUFFALO, TX, 75831","No_Match",NA,NA,NA,NA
334841,"PO BOX 1512","DENVER","NC",28307,NA,NA,341,"PO BOX 1512, DENVER, NC, 28307","No_Match",NA,NA,NA,NA
334842,"PO BOX 1512","EASTSOUND","WA",98245,NA,NA,342,"PO BOX 1512, EASTSOUND, WA, 98245","No_Match",NA,NA,NA,NA
334843,"PO BOX 1512","GRANTS PASS","OR",97528,NA,NA,343,"PO BOX 1512, GRANTS PASS, OR, 97528","No_Match",NA,NA,NA,NA
334844,"PO BOX 1512","HARRISONBURG","VA",22803,NA,NA,344,"PO BOX 1512, HARRISONBURG, VA, 22803","No_Match",NA,NA,NA,NA
334845,"PO BOX 1512","LARGO","FL",33779,NA,NA,345,"PO BOX 1512, LARGO, FL, 33779","No_Match",NA,NA,NA,NA
334846,"PO BOX 1512","SYKESVILLE","MD",21784,NA,NA,346,"PO BOX 1512, SYKESVILLE, MD, 21784","No_Match",NA,NA,NA,NA
334847,"PO BOX 1512","TUALATIN","OR",97062,NA,NA,347,"PO BOX 1512, TUALATIN, OR, 97062","No_Match",NA,NA,NA,NA
334848,"PO BOX 151206","LAKEWOOD","CO",80215,NA,NA,348,"PO BOX 151206, LAKEWOOD, CO, 80215","No_Match",NA,NA,NA,NA
334849,"PO BOX 15126","SAN ANTONIO","TX",78212,NA,NA,349,"PO BOX 15126, SAN ANTONIO, TX, 78212","No_Match",NA,NA,NA,NA
334850,"PO BOX 15127 NE 24TH ST UNIT 301","REDMOND","WA",98052,47.6315255280001,-122.138855579,350,"PO BOX 15127 NE 24TH ST UNIT 301, REDMOND, WA, 98052","Match","Non_Exact","15127 NE 24TH ST, REDMOND, WA, 98052",186611485,"R"
334851,"PO BOX 15128 665 WILLETT AVE","RIVERSIDE","RI",2915,41.768525851,-71.349516896,351,"PO BOX 15128 665 WILLETT AVE, RIVERSIDE, RI, 2915","Match","Exact","665 WILLETT AVE, RIVERSIDE, RI, 02915",47476359,"R"
334852,"PO BOX 1513","FRANKLIN","TN",37065,NA,NA,352,"PO BOX 1513, FRANKLIN, TN, 37065","No_Match",NA,NA,NA,NA
334853,"PO BOX 1513","HAMMOND","LA",70404,NA,NA,353,"PO BOX 1513, HAMMOND, LA, 70404","No_Match",NA,NA,NA,NA
334854,"PO BOX 1513","RIALTO","CA",92377,NA,NA,354,"PO BOX 1513, RIALTO, CA, 92377","No_Match",NA,NA,NA,NA
334855,"PO BOX 1513","RIVERVIEW","FL",33568,NA,NA,355,"PO BOX 1513, RIVERVIEW, FL, 33568","No_Match",NA,NA,NA,NA
334856,"PO BOX 1513","TAHLEQUAH","OK",74465,NA,NA,356,"PO BOX 1513, TAHLEQUAH, OK, 74465","No_Match",NA,NA,NA,NA
334857,"PO BOX 1513","WHITE PLAINS","MD",20695,NA,NA,357,"PO BOX 1513, WHITE PLAINS, MD, 20695","No_Match",NA,NA,NA,NA
334858,"PO BOX 1513","WINTER PARK","FL",32790,NA,NA,358,"PO BOX 1513, WINTER PARK, FL, 32790","No_Match",NA,NA,NA,NA
334859,"PO BOX 151333","TAMPA","FL",33684,NA,NA,359,"PO BOX 151333, TAMPA, FL, 33684","No_Match",NA,NA,NA,NA
334860,"PO BOX 1514","COLUMBUS","GA",31902,NA,NA,360,"PO BOX 1514, COLUMBUS, GA, 31902","No_Match",NA,NA,NA,NA
334861,"PO BOX 1514","HEWITT","TX",76643,NA,NA,361,"PO BOX 1514, HEWITT, TX, 76643","No_Match",NA,NA,NA,NA
334862,"PO BOX 1514","KAPAAU","HI",96755,NA,NA,362,"PO BOX 1514, KAPAAU, HI, 96755","No_Match",NA,NA,NA,NA
334863,"PO BOX 151411","CAPE CORAL","FL",33915,NA,NA,363,"PO BOX 151411, CAPE CORAL, FL, 33915","No_Match",NA,NA,NA,NA
334864,"PO BOX 151414","DALLAS","TX",75315,NA,NA,364,"PO BOX 151414, DALLAS, TX, 75315","No_Match",NA,NA,NA,NA
334865,"PO BOX 15142","LAS CRUCES","NM",88004,NA,NA,365,"PO BOX 15142, LAS CRUCES, NM, 88004","No_Match",NA,NA,NA,NA
334866,"PO BOX 151431","LUFKIN","TX",75915,NA,NA,366,"PO BOX 151431, LUFKIN, TX, 75915","No_Match",NA,NA,NA,NA
334867,"PO BOX 1515","BUNA","TX",77612,NA,NA,367,"PO BOX 1515, BUNA, TX, 77612","No_Match",NA,NA,NA,NA
334868,"PO BOX 1515","HOULTON","ME",4730,NA,NA,368,"PO BOX 1515, HOULTON, ME, 4730","No_Match",NA,NA,NA,NA
334869,"PO BOX 1515","TAYLOR","AZ",85939,NA,NA,369,"PO BOX 1515, TAYLOR, AZ, 85939","No_Match",NA,NA,NA,NA
334870,"PO BOX 1515","WALDPORT","OR",97394,NA,NA,370,"PO BOX 1515, WALDPORT, OR, 97394","No_Match",NA,NA,NA,NA
334871,"PO BOX 15151","LENEXA","KS",66215,NA,NA,371,"PO BOX 15151, LENEXA, KS, 66215","No_Match",NA,NA,NA,NA
334872,"PO BOX 151512","CAPE CORAL","FL",33915,NA,NA,372,"PO BOX 151512, CAPE CORAL, FL, 33915","No_Match",NA,NA,NA,NA
334873,"PO BOX 15154","EVANSVILLE","IN",47716,NA,NA,373,"PO BOX 15154, EVANSVILLE, IN, 47716","No_Match",NA,NA,NA,NA
334874,"PO BOX 1516","BOWLING GREEN","KY",42102,NA,NA,374,"PO BOX 1516, BOWLING GREEN, KY, 42102","No_Match",NA,NA,NA,NA
334875,"PO BOX 1516","LOS ALAMOS","NM",87544,NA,NA,375,"PO BOX 1516, LOS ALAMOS, NM, 87544","No_Match",NA,NA,NA,NA
334876,"PO BOX 15164","ARLINGTON","VA",22215,NA,NA,376,"PO BOX 15164, ARLINGTON, VA, 22215","No_Match",NA,NA,NA,NA
334877,"PO BOX 15165","MILL CREEK","WA",98082,NA,NA,377,"PO BOX 15165, MILL CREEK, WA, 98082","No_Match",NA,NA,NA,NA
334878,"PO BOX 151685","DALLAS","TX",75315,NA,NA,378,"PO BOX 151685, DALLAS, TX, 75315","No_Match",NA,NA,NA,NA
334879,"PO BOX 1517 OLD CHELSEA STATION","NEW YORK","NY",10113,NA,NA,379,"PO BOX 1517 OLD CHELSEA STATION, NEW YORK, NY, 10113","No_Match",NA,NA,NA,NA
334880,"PO BOX 1517","SHINER","TX",77984,NA,NA,380,"PO BOX 1517, SHINER, TX, 77984","No_Match",NA,NA,NA,NA
334881,"PO BOX 151741","TAMPA","FL",33684,NA,NA,381,"PO BOX 151741, TAMPA, FL, 33684","No_Match",NA,NA,NA,NA
334882,"PO BOX 151784","DALLAS","TX",75315,NA,NA,382,"PO BOX 151784, DALLAS, TX, 75315","No_Match",NA,NA,NA,NA
334883,"PO BOX 1518","BILLINGS","MT",59103,NA,NA,383,"PO BOX 1518, BILLINGS, MT, 59103","No_Match",NA,NA,NA,NA
334884,"PO BOX 1518","JACKSON","MI",49204,NA,NA,384,"PO BOX 1518, JACKSON, MI, 49204","No_Match",NA,NA,NA,NA
334885,"PO BOX 1518","LEXINGTON","NC",29071,NA,NA,385,"PO BOX 1518, LEXINGTON, NC, 29071","No_Match",NA,NA,NA,NA
334886,"PO BOX 1518","NAMPA","ID",83653,NA,NA,386,"PO BOX 1518, NAMPA, ID, 83653","No_Match",NA,NA,NA,NA
334887,"PO BOX 1518","NEW YORK","NY",10159,NA,NA,387,"PO BOX 1518, NEW YORK, NY, 10159","No_Match",NA,NA,NA,NA
334888,"PO BOX 1518","PINE LAKE","GA",30072,NA,NA,388,"PO BOX 1518, PINE LAKE, GA, 30072","No_Match",NA,NA,NA,NA
334889,"PO BOX 1519","ELKINS","WV",26241,NA,NA,389,"PO BOX 1519, ELKINS, WV, 26241","No_Match",NA,NA,NA,NA
334890,"PO BOX 1519","HOPEWELL","VA",23860,NA,NA,390,"PO BOX 1519, HOPEWELL, VA, 23860","No_Match",NA,NA,NA,NA
334891,"PO BOX 15192","BOISE","ID",83715,NA,NA,391,"PO BOX 15192, BOISE, ID, 83715","No_Match",NA,NA,NA,NA
334892,"PO BOX 152","ADDISON","ME",4606,NA,NA,392,"PO BOX 152, ADDISON, ME, 4606","No_Match",NA,NA,NA,NA
334893,"PO BOX 152","AMADOR CITY","CA",95601,NA,NA,393,"PO BOX 152, AMADOR CITY, CA, 95601","No_Match",NA,NA,NA,NA
334894,"PO BOX 152","BOWIE","TX",76230,NA,NA,394,"PO BOX 152, BOWIE, TX, 76230","No_Match",NA,NA,NA,NA
334895,"PO BOX 152","BUCKLEY","WA",98321,NA,NA,395,"PO BOX 152, BUCKLEY, WA, 98321","No_Match",NA,NA,NA,NA
334896,"PO BOX 152","CARDINGTON","OH",43315,NA,NA,396,"PO BOX 152, CARDINGTON, OH, 43315","No_Match",NA,NA,NA,NA
334897,"PO BOX 152","CLIFTON","TN",38425,NA,NA,397,"PO BOX 152, CLIFTON, TN, 38425","No_Match",NA,NA,NA,NA
334898,"PO BOX 152","CLYMER","NY",14724,NA,NA,398,"PO BOX 152, CLYMER, NY, 14724","No_Match",NA,NA,NA,NA
334899,"PO BOX 152","COMFORT","TX",78013,NA,NA,399,"PO BOX 152, COMFORT, TX, 78013","No_Match",NA,NA,NA,NA
334900,"PO BOX 152","FOREST GROVE","OR",97116,NA,NA,400,"PO BOX 152, FOREST GROVE, OR, 97116","No_Match",NA,NA,NA,NA
334901,"PO BOX 152","GAIL","TX",79738,NA,NA,401,"PO BOX 152, GAIL, TX, 79738","No_Match",NA,NA,NA,NA
334902,"PO BOX 152","GORHAM","NH",3581,NA,NA,402,"PO BOX 152, GORHAM, NH, 3581","No_Match",NA,NA,NA,NA
334903,"PO BOX 152","HASKINS","OH",43525,NA,NA,403,"PO BOX 152, HASKINS, OH, 43525","No_Match",NA,NA,NA,NA
334904,"PO BOX 152","HEMPSTEAD","TX",77445,NA,NA,404,"PO BOX 152, HEMPSTEAD, TX, 77445","No_Match",NA,NA,NA,NA
334905,"PO BOX 152","IDYLLWILD","CA",92549,NA,NA,405,"PO BOX 152, IDYLLWILD, CA, 92549","No_Match",NA,NA,NA,NA
334906,"PO BOX 152","KENANSVILLE","NC",28349,NA,NA,406,"PO BOX 152, KENANSVILLE, NC, 28349","No_Match",NA,NA,NA,NA
334907,"PO BOX 152","LANSDOWNE","PW",19050,NA,NA,407,"PO BOX 152, LANSDOWNE, PW, 19050","No_Match",NA,NA,NA,NA
334908,"PO BOX 152","LURAY","KS",67649,NA,NA,408,"PO BOX 152, LURAY, KS, 67649","No_Match",NA,NA,NA,NA
334909,"PO BOX 152","MANAWA","WI",54949,NA,NA,409,"PO BOX 152, MANAWA, WI, 54949","No_Match",NA,NA,NA,NA
334910,"PO BOX 152","MCALPIN","FL",32062,NA,NA,410,"PO BOX 152, MCALPIN, FL, 32062","No_Match",NA,NA,NA,NA
334911,"PO BOX 152","MILTON","FL",32570,NA,NA,411,"PO BOX 152, MILTON, FL, 32570","No_Match",NA,NA,NA,NA
334912,"PO BOX 152","MOHEGAN LAKE","NY",10527,NA,NA,412,"PO BOX 152, MOHEGAN LAKE, NY, 10527","No_Match",NA,NA,NA,NA
334913,"PO BOX 152","MOUNT HOREB","WI",53572,NA,NA,413,"PO BOX 152, MOUNT HOREB, WI, 53572","No_Match",NA,NA,NA,NA
334914,"PO BOX 152","OXFORD","MA",1540,NA,NA,414,"PO BOX 152, OXFORD, MA, 1540","No_Match",NA,NA,NA,NA
334915,"PO BOX 152","PATTON","PA",16668,NA,NA,415,"PO BOX 152, PATTON, PA, 16668","No_Match",NA,NA,NA,NA
334916,"PO BOX 152","PERRY HALL","MD",21128,NA,NA,416,"PO BOX 152, PERRY HALL, MD, 21128","No_Match",NA,NA,NA,NA
334917,"PO BOX 152","POMFRET CEMTER","CT",6259,NA,NA,417,"PO BOX 152, POMFRET CEMTER, CT, 6259","No_Match",NA,NA,NA,NA
334918,"PO BOX 152","ROBINSON","IL",62454,NA,NA,418,"PO BOX 152, ROBINSON, IL, 62454","No_Match",NA,NA,NA,NA
334919,"PO BOX 152","SIOUX FALLS","SD",57101,NA,NA,419,"PO BOX 152, SIOUX FALLS, SD, 57101","No_Match",NA,NA,NA,NA
334920,"PO BOX 152","SUN PRAIRIE","WI",53590,NA,NA,420,"PO BOX 152, SUN PRAIRIE, WI, 53590","No_Match",NA,NA,NA,NA
334921,"PO BOX 152","TEAGUE","TX",75860,NA,NA,421,"PO BOX 152, TEAGUE, TX, 75860","No_Match",NA,NA,NA,NA
334922,"PO BOX 152","WICKLIFFE","KY",42087,NA,NA,422,"PO BOX 152, WICKLIFFE, KY, 42087","No_Match",NA,NA,NA,NA
334923,"PO BOX 1520","NEW YORK","NY",10021,NA,NA,423,"PO BOX 1520, NEW YORK, NY, 10021","No_Match",NA,NA,NA,NA
334924,"PO BOX 1521","HANOVER","PA",17331,NA,NA,424,"PO BOX 1521, HANOVER, PA, 17331","No_Match",NA,NA,NA,NA
334925,"PO BOX 1521","RIO GRANDE CITY","TX",78582,NA,NA,425,"PO BOX 1521, RIO GRANDE CITY, TX, 78582","No_Match",NA,NA,NA,NA
334926,"PO BOX 1521","WASHINGTON","DC",20002,NA,NA,426,"PO BOX 1521, WASHINGTON, DC, 20002","No_Match",NA,NA,NA,NA
334927,"PO BOX 152111","ARLINGTON","TX",76015,NA,NA,427,"PO BOX 152111, ARLINGTON, TX, 76015","No_Match",NA,NA,NA,NA
334928,"PO BOX 152132","TAMPA","FL",33684,NA,NA,428,"PO BOX 152132, TAMPA, FL, 33684","No_Match",NA,NA,NA,NA
334929,"PO BOX 15214","DEL CITY","OK",73155,NA,NA,429,"PO BOX 15214, DEL CITY, OK, 73155","No_Match",NA,NA,NA,NA
334930,"PO BOX 152182","ARLINGTON","TX",76015,NA,NA,430,"PO BOX 152182, ARLINGTON, TX, 76015","No_Match",NA,NA,NA,NA
334931,"PO BOX 1522","EDWARDS","CO",81632,NA,NA,431,"PO BOX 1522, EDWARDS, CO, 81632","No_Match",NA,NA,NA,NA
334932,"PO BOX 1522","FOLSOM","CA",95763,NA,NA,432,"PO BOX 1522, FOLSOM, CA, 95763","No_Match",NA,NA,NA,NA
334933,"PO BOX 1522","FORTSON","GA",31808,NA,NA,433,"PO BOX 1522, FORTSON, GA, 31808","No_Match",NA,NA,NA,NA
334934,"PO BOX 1522","KESHENA","WI",54135,NA,NA,434,"PO BOX 1522, KESHENA, WI, 54135","No_Match",NA,NA,NA,NA
334935,"PO BOX 1522","MONTEREY","CA",93942,NA,NA,435,"PO BOX 1522, MONTEREY, CA, 93942","No_Match",NA,NA,NA,NA
334936,"PO BOX 1522","PLACENTIA","CA",92871,NA,NA,436,"PO BOX 1522, PLACENTIA, CA, 92871","No_Match",NA,NA,NA,NA
334937,"PO BOX 1522","STEPHENVILLE","TX",76401,NA,NA,437,"PO BOX 1522, STEPHENVILLE, TX, 76401","No_Match",NA,NA,NA,NA
334938,"PO BOX 152292","AUSTIN","TX",78715,NA,NA,438,"PO BOX 152292, AUSTIN, TX, 78715","No_Match",NA,NA,NA,NA
334939,"PO BOX 1523","MONTPELIER","VT",5602,NA,NA,439,"PO BOX 1523, MONTPELIER, VT, 5602","No_Match",NA,NA,NA,NA
334940,"PO BOX 1523","SOUTH BEND","IN",46634,NA,NA,440,"PO BOX 1523, SOUTH BEND, IN, 46634","No_Match",NA,NA,NA,NA
334941,"PO BOX 152304","CAPE CORAL","FL",33915,NA,NA,441,"PO BOX 152304, CAPE CORAL, FL, 33915","No_Match",NA,NA,NA,NA
334942,"PO BOX 15231","FRESNO","CA",93702,NA,NA,442,"PO BOX 15231, FRESNO, CA, 93702","No_Match",NA,NA,NA,NA
334943,"PO BOX 152352","SAN DIEGO","CA",92195,NA,NA,443,"PO BOX 152352, SAN DIEGO, CA, 92195","No_Match",NA,NA,NA,NA
334944,"PO BOX 1524","ALVIN","TX",77512,NA,NA,444,"PO BOX 1524, ALVIN, TX, 77512","No_Match",NA,NA,NA,NA
334945,"PO BOX 1524","ANDERSON","SC",29622,NA,NA,445,"PO BOX 1524, ANDERSON, SC, 29622","No_Match",NA,NA,NA,NA
334946,"PO BOX 1524","BENNINGTON","VT",5201,NA,NA,446,"PO BOX 1524, BENNINGTON, VT, 5201","No_Match",NA,NA,NA,NA
334947,"PO BOX 1524","GIDDINGS","TX",78942,NA,NA,447,"PO BOX 1524, GIDDINGS, TX, 78942","No_Match",NA,NA,NA,NA
334948,"PO BOX 1524","TEMPLE HILLS","MD",20757,NA,NA,448,"PO BOX 1524, TEMPLE HILLS, MD, 20757","No_Match",NA,NA,NA,NA
334949,"PO BOX 1524","TURLOCK","CA",95380,NA,NA,449,"PO BOX 1524, TURLOCK, CA, 95380","No_Match",NA,NA,NA,NA
334950,"PO BOX 152401","SAN DIEGO","CA",92195,NA,NA,450,"PO BOX 152401, SAN DIEGO, CA, 92195","No_Match",NA,NA,NA,NA
334951,"PO BOX 152481","SAN DIEGO","CA",92195,NA,NA,451,"PO BOX 152481, SAN DIEGO, CA, 92195","No_Match",NA,NA,NA,NA
334952,"PO BOX 1525","BETHEL","AK",99559,NA,NA,452,"PO BOX 1525, BETHEL, AK, 99559","No_Match",NA,NA,NA,NA
334953,"PO BOX 1525","MENA","AR",71953,NA,NA,453,"PO BOX 1525, MENA, AR, 71953","No_Match",NA,NA,NA,NA
334954,"PO BOX 1525","MONTICELLO","MN",55362,NA,NA,454,"PO BOX 1525, MONTICELLO, MN, 55362","No_Match",NA,NA,NA,NA
334955,"PO BOX 1525","SALTILLO","MS",38866,NA,NA,455,"PO BOX 1525, SALTILLO, MS, 38866","No_Match",NA,NA,NA,NA
334956,"PO BOX 15251","PLANTATION","FL",33318,NA,NA,456,"PO BOX 15251, PLANTATION, FL, 33318","No_Match",NA,NA,NA,NA
334957,"PO BOX 15252","BOSTON","MA",2215,NA,NA,457,"PO BOX 15252, BOSTON, MA, 2215","No_Match",NA,NA,NA,NA
334958,"PO BOX 15257","PORTLAND","OR",97293,NA,NA,458,"PO BOX 15257, PORTLAND, OR, 97293","No_Match",NA,NA,NA,NA
334959,"PO BOX 15258","SARASOTA","FL",34277,NA,NA,459,"PO BOX 15258, SARASOTA, FL, 34277","No_Match",NA,NA,NA,NA
334960,"PO BOX 1526","BRANSON","MO",65615,NA,NA,460,"PO BOX 1526, BRANSON, MO, 65615","No_Match",NA,NA,NA,NA
334961,"PO BOX 1526","COVINGTON","GA",30015,NA,NA,461,"PO BOX 1526, COVINGTON, GA, 30015","No_Match",NA,NA,NA,NA
334962,"PO BOX 1526","VILLALBA","PR",766,NA,NA,462,"PO BOX 1526, VILLALBA, PR, 766","No_Match",NA,NA,NA,NA
334963,"PO BOX 152622","LUFKIN","TX",75915,NA,NA,463,"PO BOX 152622, LUFKIN, TX, 75915","No_Match",NA,NA,NA,NA
334964,"PO BOX 152651","ARLINGTON","TX",76015,NA,NA,464,"PO BOX 152651, ARLINGTON, TX, 76015","No_Match",NA,NA,NA,NA
334965,"PO BOX 152676","AUSTIN","TX",78715,NA,NA,465,"PO BOX 152676, AUSTIN, TX, 78715","No_Match",NA,NA,NA,NA
334966,"PO BOX 1527","AMHERST","VA",24521,NA,NA,466,"PO BOX 1527, AMHERST, VA, 24521","No_Match",NA,NA,NA,NA
334967,"PO BOX 1527","NEVADA CITY","CA",95959,NA,NA,467,"PO BOX 1527, NEVADA CITY, CA, 95959","No_Match",NA,NA,NA,NA
334968,"PO BOX 152704","TAMPA","FL",33614,NA,NA,468,"PO BOX 152704, TAMPA, FL, 33614","No_Match",NA,NA,NA,NA
334969,"PO BOX 15271","HATTIESBURG","MS",39404,NA,NA,469,"PO BOX 15271, HATTIESBURG, MS, 39404","No_Match",NA,NA,NA,NA
334970,"PO BOX 15274","GROSSE POINTE","MI",48230,NA,NA,470,"PO BOX 15274, GROSSE POINTE, MI, 48230","No_Match",NA,NA,NA,NA
334971,"PO BOX 15274","WEST PALM BEACH","FL",33416,NA,NA,471,"PO BOX 15274, WEST PALM BEACH, FL, 33416","No_Match",NA,NA,NA,NA
334972,"PO BOX 1528","MADISON","WI",53701,NA,NA,472,"PO BOX 1528, MADISON, WI, 53701","No_Match",NA,NA,NA,NA
334973,"PO BOX 152804","CAPE CORAL","FL",33915,NA,NA,473,"PO BOX 152804, CAPE CORAL, FL, 33915","No_Match",NA,NA,NA,NA
334974,"PO BOX 15292","AUGUSTA","GA",30309,NA,NA,474,"PO BOX 15292, AUGUSTA, GA, 30309","No_Match",NA,NA,NA,NA
334975,"PO BOX 15295","HUMBLE","TX",77347,NA,NA,475,"PO BOX 15295, HUMBLE, TX, 77347","No_Match",NA,NA,NA,NA
334976,"PO BOX 153","AURORA","MN",55705,NA,NA,476,"PO BOX 153, AURORA, MN, 55705","No_Match",NA,NA,NA,NA
334977,"PO BOX 153","BARGERSVILLE","IN",46106,NA,NA,477,"PO BOX 153, BARGERSVILLE, IN, 46106","No_Match",NA,NA,NA,NA
334978,"PO BOX 153","BELLEVILLE","IL",62222,NA,NA,478,"PO BOX 153, BELLEVILLE, IL, 62222","No_Match",NA,NA,NA,NA
334979,"PO BOX 153","CAMPTONVILLE","CA",95922,NA,NA,479,"PO BOX 153, CAMPTONVILLE, CA, 95922","No_Match",NA,NA,NA,NA
334980,"PO BOX 153","CHANNING","TX",79018,NA,NA,480,"PO BOX 153, CHANNING, TX, 79018","No_Match",NA,NA,NA,NA
334981,"PO BOX 153","CHATHAM","MI",49816,NA,NA,481,"PO BOX 153, CHATHAM, MI, 49816","No_Match",NA,NA,NA,NA
334982,"PO BOX 153","CHINOOK","MT",59523,NA,NA,482,"PO BOX 153, CHINOOK, MT, 59523","No_Match",NA,NA,NA,NA
334983,"PO BOX 153","CICERO","IN",46034,NA,NA,483,"PO BOX 153, CICERO, IN, 46034","No_Match",NA,NA,NA,NA
334984,"PO BOX 153","ERIE","IL",61250,NA,NA,484,"PO BOX 153, ERIE, IL, 61250","No_Match",NA,NA,NA,NA
334985,"PO BOX 153","ESPANOLA","NM",87532,NA,NA,485,"PO BOX 153, ESPANOLA, NM, 87532","No_Match",NA,NA,NA,NA
334986,"PO BOX 153","EUDORA","KS",66025,NA,NA,486,"PO BOX 153, EUDORA, KS, 66025","No_Match",NA,NA,NA,NA
334987,"PO BOX 153","FONDA","NY",12068,NA,NA,487,"PO BOX 153, FONDA, NY, 12068","No_Match",NA,NA,NA,NA
334988,"PO BOX 153","FREEDOM","OK",73842,NA,NA,488,"PO BOX 153, FREEDOM, OK, 73842","No_Match",NA,NA,NA,NA
334989,"PO BOX 153","GALLATIN GATEWAY","MT",59730,NA,NA,489,"PO BOX 153, GALLATIN GATEWAY, MT, 59730","No_Match",NA,NA,NA,NA
334990,"PO BOX 153","GATES MILLS","OH",44040,NA,NA,490,"PO BOX 153, GATES MILLS, OH, 44040","No_Match",NA,NA,NA,NA
334991,"PO BOX 153","GENOA","OH",43430,NA,NA,491,"PO BOX 153, GENOA, OH, 43430","No_Match",NA,NA,NA,NA
334992,"PO BOX 153","GREENFIELD","IN",46140,NA,NA,492,"PO BOX 153, GREENFIELD, IN, 46140","No_Match",NA,NA,NA,NA
334993,"PO BOX 153","GROVEPORT","OH",43125,NA,NA,493,"PO BOX 153, GROVEPORT, OH, 43125","No_Match",NA,NA,NA,NA
334994,"PO BOX 153","HAWK POINT","MO",63349,NA,NA,494,"PO BOX 153, HAWK POINT, MO, 63349","No_Match",NA,NA,NA,NA
334995,"PO BOX 153","HENRIETTA","TX",76365,NA,NA,495,"PO BOX 153, HENRIETTA, TX, 76365","No_Match",NA,NA,NA,NA
334996,"PO BOX 153","IRONTON","OH",45638,NA,NA,496,"PO BOX 153, IRONTON, OH, 45638","No_Match",NA,NA,NA,NA
334997,"PO BOX 153","LAFAYETTE","NY",13084,NA,NA,497,"PO BOX 153, LAFAYETTE, NY, 13084","No_Match",NA,NA,NA,NA
334998,"PO BOX 153","LIBERTY HILL","SC",29074,NA,NA,498,"PO BOX 153, LIBERTY HILL, SC, 29074","No_Match",NA,NA,NA,NA
334999,"PO BOX 153","LIBERTY HILL","TX",78642,NA,NA,499,"PO BOX 153, LIBERTY HILL, TX, 78642","No_Match",NA,NA,NA,NA
335000,"PO BOX 153","LIMA","OH",45802,NA,NA,500,"PO BOX 153, LIMA, OH, 45802","No_Match",NA,NA,NA,NA
