"ID","Address","City","State","Zip","lat","long","id","input_address","match_indicator","match_type","matched_address","tiger_line_id","tiger_side"
188501,"3694 LALIQUE LANE","FAYETTEVILLE","AR",72704,36.1192393900001,-94.191120257,1,"3694 LALIQUE LANE, FAYETTEVILLE, AR, 72704","Match","Non_Exact","3694 N LALIQUE LN, FAYETTEVILLE, AR, 72704",617846807,"R"
188502,"3694 S ACOMA ST","ENGLEWOOD","CO",80110,39.6495342360001,-104.988892027,2,"3694 S ACOMA ST, ENGLEWOOD, CO, 80110","Match","Exact","3694 S ACOMA ST, ENGLEWOOD, CO, 80110",177333515,"L"
188503,"3694 S CREEKWOOD WAY","BOISE","ID",83709,43.569259372,-116.276729028,3,"3694 S CREEKWOOD WAY, BOISE, ID, 83709","Match","Exact","3694 S CREEKWOOD WAY, BOISE, ID, 83709",617936210,"L"
188504,"3694 TAMARIND AVENUE","RIALTO","CA",92377,34.166269722,-117.419913845,4,"3694 TAMARIND AVENUE, RIALTO, CA, 92377","Match","Non_Exact","3694 N TAMARIND AVE, RIALTO, CA, 92377",144965800,"L"
188505,"3694 WINDCREST RD","MEMPHIS","TN",38116,35.047585742,-90.004497825,5,"3694 WINDCREST RD, MEMPHIS, TN, 38116","Match","Exact","3694 WINDCREST RD, MEMPHIS, TN, 38116",72918828,"L"
188506,"36947 REYNOLDS DR","FREMONT","CA",94536,37.5654739570001,-122.007042355,6,"36947 REYNOLDS DR, FREMONT, CA, 94536","Match","Exact","36947 REYNOLDS DR, FREMONT, CA, 94536",606220507,"R"
188507,"3695 CUMBERLAND BLVD SE APT 2402","ATLANTA","GA",30339,33.887063831,-84.455279853,7,"3695 CUMBERLAND BLVD SE APT 2402, ATLANTA, GA, 30339","Match","Exact","3695 CUMBERLAND BLVD SE, ATLANTA, GA, 30339",643417888,"R"
188508,"3695 CUMBERLAND BLVD STE 1402","ATLANTA","GA",30339,33.887063831,-84.455279853,8,"3695 CUMBERLAND BLVD STE 1402, ATLANTA, GA, 30339","Match","Non_Exact","3695 CUMBERLAND BLVD SE, ATLANTA, GA, 30339",643417888,"R"
188509,"3695 E BURKE BLVD","CONNELLY SPRINGS","NC",28612,35.724614226,-81.481142015,9,"3695 E BURKE BLVD, CONNELLY SPRINGS, NC, 28612","Match","Exact","3695 E BURKE BLVD, CONNELLY SPRINGS, NC, 28612",627143626,"R"
188510,"3695 GREEN ROAD UNIT 22896","BEACHWOOD","OH",44122,41.459662683,-81.5170087399999,10,"3695 GREEN ROAD UNIT 22896, BEACHWOOD, OH, 44122","Match","Exact","3695 GREEN RD, BEACHWOOD, OH, 44122",61129545,"L"
188511,"3695 HIGHWAY 6 220","SUGARLAND","TX",77478,NA,NA,11,"3695 HIGHWAY 6 220, SUGARLAND, TX, 77478","No_Match",NA,NA,NA,NA
188512,"3695 HIGHWAY 6 S SUITE 110","SUGAR LAND","TX",77478,NA,NA,12,"3695 HIGHWAY 6 S SUITE 110, SUGAR LAND, TX, 77478","No_Match",NA,NA,NA,NA
188513,"3695 KETCHUM COURT","WOODBRIDGE","VA",22193,38.6163602680001,-77.32243841,13,"3695 KETCHUM COURT, WOODBRIDGE, VA, 22193","Match","Exact","3695 KETCHUM CT, WOODBRIDGE, VA, 22193",76520237,"R"
188514,"3695 LAKE DRIVE","COCOA","FL",32926,28.3600387880001,-80.782978499,14,"3695 LAKE DRIVE, COCOA, FL, 32926","Match","Exact","3695 LAKE DR, COCOA, FL, 32926",93915687,"L"
188515,"3695 RIVER HOLLOW RUN","DULUTH","GA",30096,33.9866096850001,-84.200828563,15,"3695 RIVER HOLLOW RUN, DULUTH, GA, 30096","Match","Exact","3695 RIVER HOLLOW RUN, DULUTH, GA, 30096",88933840,"L"
188516,"3695 ROOSEVELT HIGHWAY","COLLEGE PARK","GA",30349,33.6202246500001,-84.508669558,16,"3695 ROOSEVELT HIGHWAY, COLLEGE PARK, GA, 30349","Match","Exact","3695 ROOSEVELT HWY, COLLEGE PARK, GA, 30349",17422714,"R"
188517,"3695 SADDLE ROCK ROAD","COLORADO SPRINGS","CO",80918,38.9118398210001,-104.757447704,17,"3695 SADDLE ROCK ROAD, COLORADO SPRINGS, CO, 80918","Match","Exact","3695 SADDLE ROCK RD, COLORADO SPRINGS, CO, 80918",105510758,"R"
188518,"3695 SECOR AVENUE","BRONX","NY",10466,40.886697735,-73.832484729,18,"3695 SECOR AVENUE, BRONX, NY, 10466","Match","Exact","3695 SECOR AVE, BRONX, NY, 10466",80297890,"L"
188519,"3695 SPORTSMANS RD","GREENCASTLE","PA",17225,39.8184994700001,-77.768468121,19,"3695 SPORTSMANS RD, GREENCASTLE, PA, 17225","Match","Exact","3695 SPORTSMANS RD, GREENCASTLE, PA, 17225",605516215,"L"
188520,"3695 W 1850 N T-201","LEHI","UT",84043,40.409991092,-111.909293059,20,"3695 W 1850 N T-201, LEHI, UT, 84043","Match","Non_Exact","3695 W 1850 N, LEHI, UT, 84043",651133416,"R"
188521,"3695 W 72ND AVENUE","WESTMINSTER","CO",80030,39.8272861,-105.035720216,21,"3695 W 72ND AVENUE, WESTMINSTER, CO, 80030","Match","Exact","3695 W 72ND AVE, WESTMINSTER, CO, 80030",177298439,"R"
188522,"3695-F CASCADE ROAD BOX 2166","ATLANTA","GA",30331,33.723646237,-84.509274536,22,"3695-F CASCADE ROAD BOX 2166, ATLANTA, GA, 30331","Match","Exact","3695 CASCADE RD, ATLANTA, GA, 30331",643274000,"R"
188523,"36950 MILLS ROAD","AVON","OH",44011,41.4188002600001,-82.040698893,23,"36950 MILLS ROAD, AVON, OH, 44011","Match","Exact","36950 MILLS RD, AVON, OH, 44011",651497776,"R"
188524,"36952","INDIANAPOLIS","IN",46236,NA,NA,24,"36952, INDIANAPOLIS, IN, 46236","No_Match",NA,NA,NA,NA
188525,"3695F CASCADE ROAD SW 2153","ATLANTA","GA",30331,33.7303974220001,-84.567020231,25,"3695F CASCADE ROAD SW 2153, ATLANTA, GA, 30331","Match","Exact","3695 CASCADE RD SW, ATLANTA, GA, 30331",652439262,"L"
188526,"3696 DAVID DRIVE","NORTH HIGHLANDS","CA",95660,38.676283734,-121.377579487,26,"3696 DAVID DRIVE, NORTH HIGHLANDS, CA, 95660","Match","Exact","3696 DAVID DR, NORTH HIGHLANDS, CA, 95660",133331590,"R"
188527,"3696 DEBELLE ST","CLARKSTON","GA",30021,33.804067972,-84.23778878,27,"3696 DEBELLE ST, CLARKSTON, GA, 30021","Match","Exact","3696 DEBELLE ST, CLARKSTON, GA, 30021",23363140,"L"
188528,"3696 HIGHWAY 6 SUITE 1111","SUGARLAND","TX",77478,29.5891121180001,-95.597064686,28,"3696 HIGHWAY 6 SUITE 1111, SUGARLAND, TX, 77478","Match","Non_Exact","3696 STATE HWY 6, SUGAR LAND, TX, 77478",637957188,"R"
188529,"3696 KINGS PARK CIRCLE","MACON","GA",31217,32.8478420800001,-83.549872829,29,"3696 KINGS PARK CIRCLE, MACON, GA, 31217","Match","Exact","3696 KINGS PARK CIR, MACON, GA, 31217",81065354,"L"
188530,"3696 N MAVERICK RD","GOLDEN VALLEY","AZ",86413,35.234164741,-114.209600983,30,"3696 N MAVERICK RD, GOLDEN VALLEY, AZ, 86413","Match","Exact","3696 MAVERICK RD, GOLDEN VALLEY, AZ, 86413",190331917,"L"
188531,"3696 S HIBISCUS WAY","DENVER","CO",80237,39.648357112,-104.925322175,31,"3696 S HIBISCUS WAY, DENVER, CO, 80237","Match","Exact","3696 S HIBISCUS WAY, DENVER, CO, 80237",177341925,"L"
188532,"3696 W US HWY 380","JACKSBORO","TX",76458,33.1726844180001,-97.9186332799999,32,"3696 W US HWY 380, JACKSBORO, TX, 76458","Match","Exact","3696 US HWY 380, JACKSBORO, TX, 76458",103661490,"L"
188533,"3697 50TH AVENUE NORTH","SAINT PETERSBURG","FL",33714,27.8174308640001,-82.6833918839999,33,"3697 50TH AVENUE NORTH, SAINT PETERSBURG, FL, 33714","Match","Exact","3697 50TH AVE N, SAINT PETERSBURG, FL, 33714",124701887,"R"
188534,"3697 EAST BRANDON WAY","DOYLESTOWN","PA",18902,40.347658091,-75.0886000689999,34,"3697 EAST BRANDON WAY, DOYLESTOWN, PA, 18902","Match","Exact","3697 E BRANDON WAY, DOYLESTOWN, PA, 18902",134744260,"L"
188535,"3697 POCO LOCO DRIVE","ALBUQUERQUE","NM",87105,35.028474945,-106.667607129,35,"3697 POCO LOCO DRIVE, ALBUQUERQUE, NM, 87105","Match","Non_Exact","3697 POCO LOCO DR SW, ALBUQUERQUE, NM, 87105",624400787,"R"
188536,"3697 SANDHILL CANE DRIVE","LAKELAND","FL",33811,27.9741396100001,-82.018551421,36,"3697 SANDHILL CANE DRIVE, LAKELAND, FL, 33811","Match","Non_Exact","3697 SANDHILL CRANE DR, LAKELAND, FL, 33811",618501228,"R"
188537,"3698 10TH ST NE","ST PETERSBURG","FL",33705,27.805572209,-82.620728436,37,"3698 10TH ST NE, ST PETERSBURG, FL, 33705","Match","Non_Exact","3698 10TH ST NE, SAINT PETERSBURG, FL, 33704",636396143,"R"
188538,"3698 72ND PL SE","MERCER ISLAND","WA",98040,47.577726238,-122.242239787,38,"3698 72ND PL SE, MERCER ISLAND, WA, 98040","Match","Exact","3698 72ND PL SE, MERCER ISLAND, WA, 98040",186930005,"L"
188539,"3698 CENTER RD","BRUNSWICK","OH",44212,41.238316625,-81.819248247,39,"3698 CENTER RD, BRUNSWICK, OH, 44212","Match","Exact","3698 CENTER RD, BRUNSWICK, OH, 44212",58694302,"R"
188540,"3698 FAIRVIEW AVE","JACKSON","MI",49203,42.241184,-84.3447212139999,40,"3698 FAIRVIEW AVE, JACKSON, MI, 49203","Match","Exact","3698 FAIRVIEW AVE, JACKSON, MI, 49203",647392587,"L"
188541,"3698 GREEN LEVEL RD","ROCKY MOUNT","VA",24151,37.0793858220001,-79.937538213,41,"3698 GREEN LEVEL RD, ROCKY MOUNT, VA, 24151","Match","Exact","3698 GREEN LEVEL RD, ROCKY MOUNT, VA, 24151",56403963,"R"
188542,"3698 INNER PERIMETER ROAD  BOX 2992","VALDOSTA","GA",31604,30.8827648650001,-83.275656629,42,"3698 INNER PERIMETER ROAD  BOX 2992, VALDOSTA, GA, 31604","Match","Non_Exact","3698 INNER PERIMETER RD, VALDOSTA, GA, 31602",621960685,"L"
188543,"3698 SAINT CLAIR DRIVE","NEW BALTIMORE","MI",48047,NA,NA,43,"3698 SAINT CLAIR DRIVE, NEW BALTIMORE, MI, 48047","No_Match",NA,NA,NA,NA
188544,"36987 PARK TRAIL","CITY CENTER","MN",55012,45.4831616070001,-92.7858932079999,44,"36987 PARK TRAIL, CITY CENTER, MN, 55012","Match","Non_Exact","36987 PARK TRL, CENTER CITY, MN, 55012",97593462,"R"
188545,"3699 BUCHANAN AVENUE","MEMPHIS","TN",38122,35.1632406480001,-89.936177243,45,"3699 BUCHANAN AVENUE, MEMPHIS, TN, 38122","Match","Exact","3699 BUCHANAN AVE, MEMPHIS, TN, 38122",72915435,"R"
188546,"3699 DOE CT","LIMA","OH",45807,40.7545798960001,-84.173300131,46,"3699 DOE CT, LIMA, OH, 45807","Match","Exact","3699 DOE CT, LIMA, OH, 45807",35573362,"R"
188547,"3699 FALKIRK WAY","EL DORADO HILLS","CA",95762,38.695023511,-121.075273458,47,"3699 FALKIRK WAY, EL DORADO HILLS, CA, 95762","Match","Exact","3699 FALKIRK WAY, EL DORADO HILLS, CA, 95762",133061339,"L"
188548,"3699 NE JOHN OLSEN AVE","HILLSBORO","OR",97124,NA,NA,48,"3699 NE JOHN OLSEN AVE, HILLSBORO, OR, 97124","No_Match",NA,NA,NA,NA
188549,"3699 NE JOHN OLSEN AVENUE","HILLSBORO","OR",97124,NA,NA,49,"3699 NE JOHN OLSEN AVENUE, HILLSBORO, OR, 97124","No_Match",NA,NA,NA,NA
188550,"3699 PRISM LANE","KIELER","WI",53812,NA,NA,50,"3699 PRISM LANE, KIELER, WI, 53812","No_Match",NA,NA,NA,NA
188551,"3699 WILSHIRE BLVD STE 670","LOS ANGELES","CA",90010,34.0617138970001,-118.306490105,51,"3699 WILSHIRE BLVD STE 670, LOS ANGELES, CA, 90010","Match","Exact","3699 WILSHIRE BLVD, LOS ANGELES, CA, 90010",141603841,"R"
188552,"36W380 MCKAY DRIVE","ST. CHARLES","IL",60175,41.967741534,-88.328160881,52,"36W380 MCKAY DRIVE, ST. CHARLES, IL, 60175","Match","Non_Exact","36 MCKAY RD, SAINT CHARLES, IL, 60175",119584871,"R"
188553,"36W656 RIVER GRANGE RD","ST CHARLES","IL",60175,41.9639565320001,-88.3331827929999,53,"36W656 RIVER GRANGE RD, ST CHARLES, IL, 60175","Match","Exact","36W656 RIVER GRANGE RD, SAINT CHARLES, IL, 60175",119547297,"L"
188554,"36W858 WHISPERING TRAIL","ST CHARLES","IL",60175,41.9706604030001,-88.338545306,54,"36W858 WHISPERING TRAIL, ST CHARLES, IL, 60175","Match","Non_Exact","36 WHISPERING TRAIL CT, SAINT CHARLES, IL, 60175",119551277,"L"
188555,"37 3RD AVENUE","ROEBLING","NJ",8554,40.1195733170001,-74.774522299,55,"37 3RD AVENUE, ROEBLING, NJ, 8554","Match","Exact","37 3RD AVE, ROEBLING, NJ, 08554",134079692,"R"
188556,"37 7TH ST","FLAGTOWN","NJ",8821,40.521227756,-74.689490829,56,"37 7TH ST, FLAGTOWN, NJ, 8821","Match","Exact","37 7TH ST, FLAGTOWN, NJ, 08821",59964411,"R"
188557,"37 A STREET","SAINT ALBANS","WV",25177,38.392906818,-81.8395405639999,57,"37 A STREET, SAINT ALBANS, WV, 25177","Match","Exact","37 A ST, SAINT ALBANS, WV, 25177",78583362,"L"
188558,"37 ALTONWOOD PL 2","YONKERS","NY",10710,40.957045685,-73.869105928,58,"37 ALTONWOOD PL 2, YONKERS, NY, 10710","Match","Exact","37 ALTONWOOD PL, YONKERS, NY, 10710",139744279,"L"
188559,"37 AMESBURY COURT","LADERA RANCH","CA",92694,33.567047196,-117.642722206,59,"37 AMESBURY COURT, LADERA RANCH, CA, 92694","Match","Exact","37 AMESBURY CT, LADERA RANCH, CA, 92694",609045192,"R"
188560,"37 ANAWAN STREET","BROCKTON","MA",2302,42.09438672,-71.0041410589999,60,"37 ANAWAN STREET, BROCKTON, MA, 2302","Match","Exact","37 ANAWAN ST, BROCKTON, MA, 02302",87442727,"R"
188561,"37 ANITA DR","CHARLESTON","SC",29407,32.7924241200001,-79.992375834,61,"37 ANITA DR, CHARLESTON, SC, 29407","Match","Exact","37 ANITA DR, CHARLESTON, SC, 29407",108803870,"L"
188562,"37 ARMSTRONG RD","ENFIELD","CT",6082,42.011772428,-72.546917923,62,"37 ARMSTRONG RD, ENFIELD, CT, 6082","Match","Exact","37 ARMSTRONG RD, ENFIELD, CT, 06082",3480710,"L"
188563,"37 ASHTON ROAD","YONKERS","NY",10705,40.9200650130001,-73.905222511,63,"37 ASHTON ROAD, YONKERS, NY, 10705","Match","Exact","37 ASHTON RD, YONKERS, NY, 10705",139743622,"R"
188564,"37 ATLANTIC AVENUE","ERLANGER","KY",41018,39.0464723950001,-84.623645826,64,"37 ATLANTIC AVENUE, ERLANGER, KY, 41018","Match","Exact","37 ATLANTIC AVE, ERLANGER, KY, 41018",81958210,"R"
188565,"37 ATTAWANHOOD TRAIL","AMSTON","CT",6231,41.6319310120001,-72.3651701219999,65,"37 ATTAWANHOOD TRAIL, AMSTON, CT, 6231","Match","Exact","37 ATTAWANHOOD TRL, AMSTON, CT, 06231",57004634,"R"
188566,"37 ATTERBURY AVE","TRENTON","NJ",8618,40.226840834,-74.7823476579999,66,"37 ATTERBURY AVE, TRENTON, NJ, 8618","Match","Exact","37 ATTERBURY AVE, TRENTON, NJ, 08618",60178097,"R"
188567,"37 AUGUSTA COURSE AVE","LAS VEGAS",NA,89148,36.0338997690001,-115.287333106,67,"37 AUGUSTA COURSE AVE, LAS VEGAS, , 89148","Match","Exact","37 AUGUSTA COURSE AVE, LAS VEGAS, NV, 89148",650743527,"R"
188568,"37 AVALON GARDENS DRIVE","NANUET","NY",10954,NA,NA,68,"37 AVALON GARDENS DRIVE, NANUET, NY, 10954","No_Match",NA,NA,NA,NA
188569,"37 BALMORAL","RICHARDSON","TX",75082,32.9850727480001,-96.621063937,69,"37 BALMORAL, RICHARDSON, TX, 75082","Match","Exact","37 BALMORAL, RICHARDSON, TX, 75082",642474746,"R"
188570,"37 BANDACON WAY","BLOOMINGTON","IL",61704,40.4978332360001,-88.932910431,70,"37 BANDACON WAY, BLOOMINGTON, IL, 61704","Match","Non_Exact","37 BANDECON WAY, BLOOMINGTON, IL, 61704",20591795,"R"
188571,"37 BANOR RD","WENTZVILLE","MO",63385,NA,NA,71,"37 BANOR RD, WENTZVILLE, MO, 63385","No_Match",NA,NA,NA,NA
188572,"37 BEAVER DAM DRIVE","SICKLERVILLE","NJ",8081,39.749485984,-74.960665321,72,"37 BEAVER DAM DRIVE, SICKLERVILLE, NJ, 8081","Match","Exact","37 BEAVER DAM DR, SICKLERVILLE, NJ, 08081",134379177,"R"
188573,"37 BEECH DRIVE","NEW LONDON","CT",6320,41.321949165,-72.0995877089999,73,"37 BEECH DRIVE, NEW LONDON, CT, 6320","Match","Exact","37 BEECH DR, NEW LONDON, CT, 06320",56859959,"R"
188574,"37 BELLES FLEURS CIRCLE","LITTLE ROCK","AR",72223,34.794554932,-92.456158666,74,"37 BELLES FLEURS CIRCLE, LITTLE ROCK, AR, 72223","Match","Exact","37 BELLES FLEURS CIR, LITTLE ROCK, AR, 72223",650460744,"L"
188575,"37 BELMONT STREET SUITE 203","BROCKTON","MA",2301,42.0804115610001,-71.021494402,75,"37 BELMONT STREET SUITE 203, BROCKTON, MA, 2301","Match","Exact","37 BELMONT ST, BROCKTON, MA, 02301",87443936,"R"
188576,"37 BELMONT STREET","BROCKTON","MA",2301,42.0804115610001,-71.021494402,76,"37 BELMONT STREET, BROCKTON, MA, 2301","Match","Exact","37 BELMONT ST, BROCKTON, MA, 02301",87443936,"R"
188577,"37 BENCHMARK VLG","TOOELE","UT",84074,40.5267821360001,-112.279986174,77,"37 BENCHMARK VLG, TOOELE, UT, 84074","Match","Non_Exact","37 BENCHMARK VLG VLG, TOOELE, UT, 84074",607228590,"R"
188578,"37 BENTON ROAD UNIT 1","SOMERVILLE","MA",2143,42.388041866,-71.105879299,78,"37 BENTON ROAD UNIT 1, SOMERVILLE, MA, 2143","Match","Exact","37 BENTON RD, SOMERVILLE, MA, 02143",86868534,"R"
188579,"37 BERG AVENUE","TRENTON","NJ",8610,40.2054251220001,-74.730172242,79,"37 BERG AVENUE, TRENTON, NJ, 8610","Match","Exact","37 BERG AVE, TRENTON, NJ, 08610",60182426,"R"
188580,"37 BERTA PLACE","BASKING RIDGE","NJ",7920,40.7114705290001,-74.549772288,80,"37 BERTA PLACE, BASKING RIDGE, NJ, 7920","Match","Exact","37 BERTA PL, BASKING RIDGE, NJ, 07920",59945758,"R"
188581,"37 BIRCH LANE","LINCOLN","ME",4457,45.28844195,-68.498036133,81,"37 BIRCH LANE, LINCOLN, ME, 4457","Match","Exact","37 BIRCH LN, LINCOLN, ME, 04457",627116526,"R"
188582,"37 BIRCH STREET","MILFORD","MA",1757,42.148112677,-71.4962063369999,82,"37 BIRCH STREET, MILFORD, MA, 1757","Match","Exact","37 BIRCH ST, MILFORD, MA, 01757",40033927,"L"
188583,"37 BRADLEY STREET 1","SOMERVILLE","MA",2145,42.389087148,-71.0939322199999,83,"37 BRADLEY STREET 1, SOMERVILLE, MA, 2145","Match","Exact","37 BRADLEY ST, SOMERVILLE, MA, 02145",86869140,"R"
188584,"37 BRIARWOOD DRIVE","OLD SAYBROOK","CT",6475,41.2743977690001,-72.385899362,84,"37 BRIARWOOD DRIVE, OLD SAYBROOK, CT, 6475","Match","Exact","37 BRIARWOOD DR, OLD SAYBROOK, CT, 06475",113878543,"L"
188585,"37 BRIGHTON CIRCLE","CHARLESTON","SC",29414,32.801919856,-80.0537325769999,85,"37 BRIGHTON CIRCLE, CHARLESTON, SC, 29414","Match","Exact","37 BRIGHTON CIR, CHARLESTON, SC, 29414",108869206,"R"
188586,"37 BROOK STREET","BARRINTON","RI",2806,41.7552141830001,-71.343090515,86,"37 BROOK STREET, BARRINTON, RI, 2806","Match","Non_Exact","37 BROOK ST, BARRINGTON, RI, 02806",46486522,"L"
188587,"37 BROOK STREET","BARTINGTON","RI",2806,41.7552141830001,-71.343090515,87,"37 BROOK STREET, BARTINGTON, RI, 2806","Match","Non_Exact","37 BROOK ST, BARRINGTON, RI, 02806",46486522,"L"
188588,"37 BROOK","ISLIP","NY",11751,40.743695759,-73.2200864389999,88,"37 BROOK, ISLIP, NY, 11751","Match","Non_Exact","37 BROOK ST, ISLIP, NY, 11751",113997056,"L"
188589,"37 BUCKS MILL ROAD","COLTS NECK","NJ",7722,40.2837643460001,-74.1977813399999,89,"37 BUCKS MILL ROAD, COLTS NECK, NJ, 7722","Match","Exact","37 BUCKS MILL RD, COLTS NECK, NJ, 07722",90449601,"R"
188590,"37 BUENA VISTA AVENUE","SALEM","MA",1970,42.5101706630001,-70.922570142,90,"37 BUENA VISTA AVENUE, SALEM, MA, 1970","Match","Exact","37 BUENA VISTA AVE, SALEM, MA, 01970",86641320,"L"
188591,"37 BURNS PLAZA UNIT 7","PALMYRA","VA",22963,37.9309172820001,-78.3450840739999,91,"37 BURNS PLAZA UNIT 7, PALMYRA, VA, 22963","Match","Exact","37 BURNS PLZ, PALMYRA, VA, 22963",73786692,"L"
188592,"37 BUSHNELL LANE","EUGENE","OR",97404,44.091261967,-123.146252735,92,"37 BUSHNELL LANE, EUGENE, OR, 97404","Match","Exact","37 BUSHNELL LN, EUGENE, OR, 97404",624647105,"R"
188593,"37 CAIN STREET","PROCTOR","VT",5765,43.659182087,-73.046367039,93,"37 CAIN STREET, PROCTOR, VT, 5765","Match","Exact","37 CAIN ST, PROCTOR, VT, 05765",138945343,"R"
188594,"37 CALLE MAYAGUEZ","SAN JUAN","PR",917,18.412179844,-66.051578806,94,"37 CALLE MAYAGUEZ, SAN JUAN, PR, 917","Match","Non_Exact","37 CLL MAYAGUEZ, SAN JUAN, PR, 00917",206609547,"L"
188595,"37 CALUMET PARKWAY BLDG J SUITE 102","NEWNAN","GA",30263,33.4012620440001,-84.77013576,95,"37 CALUMET PARKWAY BLDG J SUITE 102, NEWNAN, GA, 30263","Match","Exact","37 CALUMET PKWY, NEWNAN, GA, 30263",645782739,"R"
188596,"37 CAPITOL HILL DR","ST LOUIS","MO",63136,38.7605792160001,-90.260943491,96,"37 CAPITOL HILL DR, ST LOUIS, MO, 63136","Match","Exact","37 CAPITOL HILL DR, SAINT LOUIS, MO, 63136",100148187,"L"
188597,"37 CARPENTER STREET","KEENE","NH",3431,42.9311293970001,-72.270059616,97,"37 CARPENTER STREET, KEENE, NH, 3431","Match","Exact","37 CARPENTER ST, KEENE, NH, 03431",124051297,"L"
188598,"37 CASTLE STREET","EAST GREENWICH","RI",2818,41.65939452,-71.446460722,98,"37 CASTLE STREET, EAST GREENWICH, RI, 2818","Match","Exact","37 CASTLE ST, EAST GREENWICH, RI, 02818",159154403,"R"
188599,"37 CATALINA AVENUE","BARNEGAT","NJ",8005,39.7557283520001,-74.273063795,99,"37 CATALINA AVENUE, BARNEGAT, NJ, 8005","Match","Exact","37 CATALINA AVE, BARNEGAT, NJ, 08005",203697687,"L"
188600,"37 CENTRAL TREE ROAD","RUTLAND","MA",1543,42.3784762510001,-71.9285340719999,100,"37 CENTRAL TREE ROAD, RUTLAND, MA, 1543","Match","Exact","37 CENTRAL TREE RD, RUTLAND, MA, 01543",636823271,"L"
188601,"37 CHAMPAGNE DRIVE","LAKE SAINT LOUIS","MO",63367,38.7974039210001,-90.7991660069999,101,"37 CHAMPAGNE DRIVE, LAKE SAINT LOUIS, MO, 63367","Match","Exact","37 CHAMPAGNE DR, LAKE SAINT LOUIS, MO, 63367",100012809,"L"
188602,"37 CHAMPAGNE DRIVE","LAKE ST. LOUIS","MO",63367,38.7974039210001,-90.7991660069999,102,"37 CHAMPAGNE DRIVE, LAKE ST. LOUIS, MO, 63367","Match","Exact","37 CHAMPAGNE DR, LAKE SAINT LOUIS, MO, 63367",100012809,"L"
188603,"37 CHAPEL ST","PRATTSBURGH","NY",14873,42.523646689,-77.2884887339999,103,"37 CHAPEL ST, PRATTSBURGH, NY, 14873","Match","Exact","37 CHAPEL ST, PRATTSBURGH, NY, 14873",14724939,"R"
188604,"37 CHAPEL STREET","WATERBURY","CT",6704,41.5882494750001,-73.0518891039999,104,"37 CHAPEL STREET, WATERBURY, CT, 6704","Match","Exact","37 CHAPEL ST, WATERBURY, CT, 06704",3726707,"L"
188605,"37 CHELMSFORD ST","LAWRENCE","MA",1841,42.719427238,-71.1748626419999,105,"37 CHELMSFORD ST, LAWRENCE, MA, 1841","Match","Exact","37 CHELMSFORD ST, LAWRENCE, MA, 01841",86679089,"R"
188606,"37 CHITTENDEN HILL ROAD","CLINTON","CT",6413,41.3275653110001,-72.509641038,106,"37 CHITTENDEN HILL ROAD, CLINTON, CT, 6413","Match","Exact","37 CHITTENDEN HILL RD, CLINTON, CT, 06413",627064010,"L"
188607,"37 COMMER COURT  SUITE 329","SAN FRANCISCO","CA",94124,37.73255398,-122.384894477,107,"37 COMMER COURT  SUITE 329, SAN FRANCISCO, CA, 94124","Match","Exact","37 COMMER CT, SAN FRANCISCO, CA, 94124",641023845,"R"
188608,"37 COMSTOCK COURT","LEADVILLE","CO",80461,39.258836423,-106.304286828,108,"37 COMSTOCK COURT, LEADVILLE, CO, 80461","Match","Exact","37 COMSTOCK CT, LEADVILLE, CO, 80461",105939878,"L"
188609,"37 CONVENT COURT","SAN RAFAEL","CA",94901,37.9877825240001,-122.513949642,109,"37 CONVENT COURT, SAN RAFAEL, CA, 94901","Match","Exact","37 CONVENT CT, SAN RAFAEL, CA, 94901",192766896,"L"
188610,"37 COOKE STREET","WATERBURY","CT",6710,41.5591737510001,-73.038616712,110,"37 COOKE STREET, WATERBURY, CT, 6710","Match","Exact","37 COOKE ST, WATERBURY, CT, 06710",635789271,"L"
188611,"37 CORDONE DR","SAN ANSELMO","CA",94960,37.9849676480001,-122.570865,111,"37 CORDONE DR, SAN ANSELMO, CA, 94960","Match","Exact","37 CORDONE DR, SAN ANSELMO, CA, 94960",192784145,"L"
188612,"37 CORONA CIRCLE","ODESSA","TX",79763,31.859218981,-102.408410055,112,"37 CORONA CIRCLE, ODESSA, TX, 79763","Match","Exact","37 CORONA CIR, ODESSA, TX, 79763",139440074,"R"
188613,"37 COUNTRY MEADOW RD","HACKETTSTOWN","NJ",7840,40.80956294,-74.8689916019999,113,"37 COUNTRY MEADOW RD, HACKETTSTOWN, NJ, 7840","Match","Exact","37 COUNTRY MEADOW RD, HACKETTSTOWN, NJ, 07840",645489152,"L"
188614,"37 COUNTRYSIDE LANE","NORWOOD","MA",2062,42.1749776450001,-71.225053218,114,"37 COUNTRYSIDE LANE, NORWOOD, MA, 2062","Match","Exact","37 COUNTRYSIDE LN, NORWOOD, MA, 02062",87254355,"R"
188615,"37 COUNTY ROAD 3479A","CLEVELAND","TX",77327,NA,NA,115,"37 COUNTY ROAD 3479A, CLEVELAND, TX, 77327","No_Match",NA,NA,NA,NA
188616,"37 DANIEL RIDGE","WESTFIELD","MA",1085,42.10397005,-72.77319182,116,"37 DANIEL RIDGE, WESTFIELD, MA, 1085","Match","Exact","37 DANIEL RIDGE, WESTFIELD, MA, 01085",4046502,"L"
188617,"37 DEAN STREET","BRAINTREE","MA",2184,42.217765548,-71.008378901,117,"37 DEAN STREET, BRAINTREE, MA, 2184","Match","Exact","37 DEAN ST, BRAINTREE, MA, 02184",87266029,"R"
188618,"37 DECATUR STREET","ROOSEVELT","NY",11575,40.6782232260001,-73.5771894969999,118,"37 DECATUR STREET, ROOSEVELT, NY, 11575","Match","Exact","37 DECATUR ST, ROOSEVELT, NY, 11575",147692301,"L"
188619,"37 DEER RUN CIR","NORTH SIOUX CITY","SD",57049,42.5503467670001,-96.54207486,119,"37 DEER RUN CIR, NORTH SIOUX CITY, SD, 57049","Match","Exact","37 DEER RUN CIR, NORTH SIOUX CITY, SD, 57049",176351501,"R"
188620,"37 DIANE DRIVE","MANCHESTER","CT",6040,41.75995189,-72.5385142929999,120,"37 DIANE DRIVE, MANCHESTER, CT, 6040","Match","Exact","37 DIANE DR, MANCHESTER, CT, 06040",635489233,"L"
188621,"37 DISTLER AVENUE","WEST CALDWELL","NJ",7006,40.851114443,-74.305869829,121,"37 DISTLER AVENUE, WEST CALDWELL, NJ, 7006","Match","Exact","37 DISTLER AVE, W CALDWELL, NJ, 07006",63457357,"R"
188622,"37 DOGWOOD DRIVE LOOP","OCALA","FL",34472,NA,NA,122,"37 DOGWOOD DRIVE LOOP, OCALA, FL, 34472","Tie",NA,NA,NA,NA
188623,"37 DRUM ROAD","SHARON","CT",6069,41.9147354500001,-73.4758987549999,123,"37 DRUM ROAD, SHARON, CT, 6069","Match","Exact","37 DRUM RD, SHARON, CT, 06069",651681016,"R"
188624,"37 DUMONT AVENUE","BROOKLYN","NY",11212,40.66276907,-73.918246261,124,"37 DUMONT AVENUE, BROOKLYN, NY, 11212","Match","Exact","37 DUMONT AVE, BROOKLYN, NY, 11212",59083955,"L"
188625,"37 E BEACON DR","SARATOGA SPRINGS","UT",84045,40.29115713,-111.877197581,125,"37 E BEACON DR, SARATOGA SPRINGS, UT, 84045","Match","Exact","37 E BEACON DR, SARATOGA SPRINGS, UT, 84045",629679399,"L"
188626,"37 E GERMANIA ST","HANOVER TOWNSHIP","PA",18706,41.2180978260001,-75.8948038619999,126,"37 E GERMANIA ST, HANOVER TOWNSHIP, PA, 18706","Match","Exact","37 E GERMANIA ST, HANOVER TOWNSHIP, PA, 18706",80914662,"R"
188627,"37 E NARRAGANSETT ST","PHILADELPHIA","PA",19144,40.038313117,-75.175722311,127,"37 E NARRAGANSETT ST, PHILADELPHIA, PA, 19144","Match","Exact","37 E NARRAGANSETT ST, PHILADELPHIA, PA, 19144",131401085,"R"
188628,"37 E WREN CR","KETTERING","OH",45420,39.717280868,-84.127729462,128,"37 E WREN CR, KETTERING, OH, 45420","Match","Exact","37 E WREN CIR, KETTERING, OH, 45420",143582984,"R"
188629,"37 EAST HIGH STREET","CARLISLE","PA",17013,40.2013602440001,-77.1877351109999,129,"37 EAST HIGH STREET, CARLISLE, PA, 17013","Match","Exact","37 E HIGH ST, CARLISLE, PA, 17013",60933274,"R"
188630,"37 EAST SPRINGTOWN ROAD","LONG VALLEY","NJ",7853,40.7981091710001,-74.791473592,130,"37 EAST SPRINGTOWN ROAD, LONG VALLEY, NJ, 7853","Match","Exact","37 E SPRINGTOWN RD, LONG VALLEY, NJ, 07853",60457872,"L"
188631,"37 EAST WASHINGTON AVE","WASHINGTON","NJ",7882,40.7585345570001,-74.978998415,131,"37 EAST WASHINGTON AVE, WASHINGTON, NJ, 7882","Match","Exact","37 E WASHINGTON AVE, WASHINGTON, NJ, 07882",98089850,"R"
188632,"37 EASTWIND LANE","EDGEWOOD","NM",87015,35.137366027,-106.237793177,132,"37 EASTWIND LANE, EDGEWOOD, NM, 87015","Match","Exact","37 EASTWIND LN, EDGEWOOD, NM, 87015",169404703,"R"
188633,"37 EGBERT PL","STATEN ISLAND","NY",10305,40.60830715,-74.066121715,133,"37 EGBERT PL, STATEN ISLAND, NY, 10305","Match","Exact","37 EGBERT PL, STATEN ISLAND, NY, 10305",625318165,"L"
188634,"37 ELLINGTON ST 2","DORCHESTER","MA",2121,42.301972291,-71.083834919,134,"37 ELLINGTON ST 2, DORCHESTER, MA, 2121","Match","Exact","37 ELLINGTON ST, DORCHESTER, MA, 02121",85701613,"R"
188635,"37 ENFILANDE AVE","FOOTHILL RANCH","CA",92610,NA,NA,135,"37 ENFILANDE AVE, FOOTHILL RANCH, CA, 92610","No_Match",NA,NA,NA,NA
188636,"37 ETHAN ALLEN LANE","STAMFORD","CT",6903,41.1295698160001,-73.561936722,136,"37 ETHAN ALLEN LANE, STAMFORD, CT, 6903","Match","Exact","37 ETHAN ALLEN LN, STAMFORD, CT, 06903",3257800,"R"
188637,"37 ETNA PLACE","NANUET","NY",10954,41.120089593,-74.010094791,137,"37 ETNA PLACE, NANUET, NY, 10954","Match","Exact","37 ETNA PL, NANUET, NY, 10954",124627579,"R"
188638,"37 EVERGREEN AVENUE","KEY WEST","FL",33040,24.5877940570001,-81.739781245,138,"37 EVERGREEN AVENUE, KEY WEST, FL, 33040","Match","Exact","37 EVERGREEN AVE, KEY WEST, FL, 33040",116487504,"R"
188639,"37 FARRAND DR","PARSIPPANY","NJ",7054,40.869985668,-74.389289731,139,"37 FARRAND DR, PARSIPPANY, NJ, 7054","Match","Exact","37 FARRAND DR, PARSIPPANY, NJ, 07054",60458421,"L"
188640,"37 FARRIDGE CT","ROSEVILLE","CA",95678,38.791496739,-121.299550201,140,"37 FARRIDGE CT, ROSEVILLE, CA, 95678","Match","Exact","37 FARRIDGE CT, ROSEVILLE, CA, 95678",106808210,"L"
188641,"37 FENWOOD DR","BELLEVILLE","IL",62220,38.502760682,-90.009754605,141,"37 FENWOOD DR, BELLEVILLE, IL, 62220","Match","Exact","37 FENWOOD DR, BELLEVILLE, IL, 62220",107861468,"R"
188642,"37 FESSLER DRIVE","SPRING VALLEY","NY",10977,41.137685602,-74.060090762,142,"37 FESSLER DRIVE, SPRING VALLEY, NY, 10977","Match","Exact","37 FESSLER DR, SPRING VALLEY, NY, 10977",124592836,"R"
188643,"37 FOREST AVE","SALAMANCA","NY",14779,42.170498174,-78.747358634,143,"37 FOREST AVE, SALAMANCA, NY, 14779","Match","Exact","37 FOREST AVE, SALAMANCA, NY, 14779",122056460,"R"
188644,"37 FRANKLIN STREET SUITE 900","BUFFALO","NY",14202,42.8817009590001,-78.878005921,144,"37 FRANKLIN STREET SUITE 900, BUFFALO, NY, 14202","Match","Exact","37 FRANKLIN ST, BUFFALO, NY, 14202",48346011,"R"
188645,"37 FRESHWATER DRIVE","PALM HARBOR","FL",34684,NA,NA,145,"37 FRESHWATER DRIVE, PALM HARBOR, FL, 34684","No_Match",NA,NA,NA,NA
188646,"37 FRONT STRETCH","BEAR RIVER","WY",82930,41.3776601370001,-111.030147174,146,"37 FRONT STRETCH, BEAR RIVER, WY, 82930","Match","Exact","37 FRONT STRETCH, BEAR RIVER, WY, 82930",160272490,"R"
188647,"37 GLADYS STREET","NEW BEDFORD","MA",2745,41.7022577870001,-70.946635699,147,"37 GLADYS STREET, NEW BEDFORD, MA, 2745","Match","Exact","37 GLADYS ST, NEW BEDFORD, MA, 02745",46776047,"R"
188648,"37 GOLDFINCH LANE","LISBON","IA",52253,NA,NA,148,"37 GOLDFINCH LANE, LISBON, IA, 52253","No_Match",NA,NA,NA,NA
188649,"37 GRAND BAY SCHOOL LANE","LAKELAND","GA",31635,31.0432636900001,-83.172319849,149,"37 GRAND BAY SCHOOL LANE, LAKELAND, GA, 31635","Match","Exact","37 GRAND BAY SCHOOL LN, LAKELAND, GA, 31635",634573339,"L"
188650,"37 GROVE STREET","WINCHESTER","MA",1890,42.4419871810001,-71.141870196,150,"37 GROVE STREET, WINCHESTER, MA, 1890","Match","Non_Exact","37 GROVE PL, WINCHESTER, MA, 01890",87111766,"R"
188651,"37 HALL RD","CHATHAM","NJ",7928,40.7254497550001,-74.4039777359999,151,"37 HALL RD, CHATHAM, NJ, 7928","Match","Exact","37 HALL RD, CHATHAM, NJ, 07928",60469663,"L"
188652,"37 HAPPY VALLEY ROAD","BEARSVILLE","NY",12409,42.018661218,-74.2424930339999,152,"37 HAPPY VALLEY ROAD, BEARSVILLE, NY, 12409","Match","Exact","37 HAPPY VALLEY RD, BEARSVILLE, NY, 12409",41860677,"L"
188653,"37 HARBOUR ISLE DR E UNIT PH6","HUTCHINSON","FL",34949,27.4611426540001,-80.304984597,153,"37 HARBOUR ISLE DR E UNIT PH6, HUTCHINSON, FL, 34949","Match","Non_Exact","37 HARBOUR ISLE DR E, HUTCHINSON IS, FL, 34949",610740841,"L"
188654,"37 HARRISON STREET","PAWTUCKET","RI",2860,41.8742862400001,-71.3892304999999,154,"37 HARRISON STREET, PAWTUCKET, RI, 2860","Match","Exact","37 HARRISON ST, PAWTUCKET, RI, 02860",47464206,"R"
188655,"37 HART ST","BROOKLYN","NY",11206,40.692987433,-73.9504454039999,155,"37 HART ST, BROOKLYN, NY, 11206","Match","Exact","37 HART ST, BROOKLYN, NY, 11206",59078746,"L"
188656,"37 HAWAII COVE","ODESSA","TX",79762,31.906108573,-102.342904621,156,"37 HAWAII COVE, ODESSA, TX, 79762","Match","Exact","37 HAWAII COVE, ODESSA, TX, 79762",600585413,"L"
188657,"37 HEDGES RD","WARWICK","NY",10990,41.2892973420001,-74.420171786,157,"37 HEDGES RD, WARWICK, NY, 10990","Match","Exact","37 HEDGES RD, WARWICK, NY, 10990",124495363,"L"
188658,"37 HEMLOCK STREET","BROOKLYN","NY",11208,40.6889898360001,-73.872372508,158,"37 HEMLOCK STREET, BROOKLYN, NY, 11208","Match","Exact","37 HEMLOCK ST, BROOKLYN, NY, 11208",639217386,"L"
188659,"37 HICKS AVENUE","MEDFORD","MA",2155,42.4012845720001,-71.102576362,159,"37 HICKS AVENUE, MEDFORD, MA, 2155","Match","Exact","37 HICKS AVE, MEDFORD, MA, 02155",87092675,"R"
188660,"37 HIGH ST APT 2","CAMBRIDGE","MA",2138,42.3782046680001,-71.149562187,160,"37 HIGH ST APT 2, CAMBRIDGE, MA, 2138","Match","Exact","37 HIGH ST, CAMBRIDGE, MA, 02138",86892033,"R"
188661,"37 HIGH STREET","CANAAN","CT",6018,42.021671573,-73.3291690739999,161,"37 HIGH STREET, CANAAN, CT, 6018","Match","Exact","37 HIGH ST, CANAAN, CT, 06018",3112420,"R"
188662,"37 HIGHLAND AVENUE","RUMSON","NJ",7760,40.374516627,-73.996255107,162,"37 HIGHLAND AVENUE, RUMSON, NJ, 7760","Match","Exact","37 HIGHLAND AVE, RUMSON, NJ, 07760",90452934,"L"
188663,"37 HILLTOP AVENUE","BERKELEY HEIGHTS","NJ",7922,40.6620712110001,-74.4409103039999,163,"37 HILLTOP AVENUE, BERKELEY HEIGHTS, NJ, 7922","Match","Exact","37 HILLTOP AVE, BERKELEY HEIGHTS, NJ, 07922",60564089,"R"
188664,"37 HITCHCOCK LANE","AMELIA","OH",45102,39.0329577790001,-84.2196270269999,164,"37 HITCHCOCK LANE, AMELIA, OH, 45102","Match","Exact","37 HITCHCOCK LN, AMELIA, OH, 45102",600589219,"R"
188665,"37 HOLECOMB DRIVE","HILLSBOROUGH","NJ",8844,40.4881593700001,-74.589847334,165,"37 HOLECOMB DRIVE, HILLSBOROUGH, NJ, 8844","Match","Exact","37 HOLECOMB DR, HILLSBOROUGH, NJ, 08844",649363829,"L"
188666,"37 HONEYSUCKLE DR","NEWARK","DE",19702,39.6375990810001,-75.666345171,166,"37 HONEYSUCKLE DR, NEWARK, DE, 19702","Match","Exact","37 HONEYSUCKLE DR, NEWARK, DE, 19702",187277386,"L"
188667,"37 HUTCHINSON STREET SUITE 605","ATLANTA","GA",30307,33.7546559150001,-84.34069035,167,"37 HUTCHINSON STREET SUITE 605, ATLANTA, GA, 30307","Match","Non_Exact","37 HUTCHINSON ST NE, ATLANTA, GA, 30307",652441414,"R"
188668,"37 IMPERIAL WAY","N WATERBORO","ME",4061,43.649714804,-70.722833884,168,"37 IMPERIAL WAY, N WATERBORO, ME, 4061","Match","Exact","37 IMPERIAL WAY, NORTH WATERBORO, ME, 04061",92751729,"R"
188669,"37 INWAY CT","COLUMBIA","SC",29223,34.125838054,-80.902726774,169,"37 INWAY CT, COLUMBIA, SC, 29223","Match","Exact","37 INWAY CT, COLUMBIA, SC, 29223",648814663,"L"
188670,"37 JACKSON RD","VILONIA","AR",72173,35.15335593,-92.271088558,170,"37 JACKSON RD, VILONIA, AR, 72173","Match","Exact","37 JACKSON RD, VILONIA, AR, 72173",141069422,"L"
188671,"37 KAIKUONO ST","HILO","HI",96720,19.7013415710001,-155.116592547,171,"37 KAIKUONO ST, HILO, HI, 96720","Match","Exact","37 KAIKUONO ST, HILO, HI, 96720",203022810,"R"
188672,"37 KEAP S","BROOKLYN","NY",11249,NA,NA,172,"37 KEAP S, BROOKLYN, NY, 11249","No_Match",NA,NA,NA,NA
188673,"37 KELLY RD","SOUTH WINDSOR","CT",6074,41.8273361920001,-72.515948145,173,"37 KELLY RD, SOUTH WINDSOR, CT, 6074","Match","Exact","37 KELLY RD, SOUTH WINDSOR, CT, 06074",3492034,"R"
188674,"37 KING STREET","CHAPPAQUA","NY",10514,41.159168535,-73.7722852909999,174,"37 KING STREET, CHAPPAQUA, NY, 10514","Match","Exact","37 KING ST, CHAPPAQUA, NY, 10514",139736292,"L"
188675,"37 KINGSMAN CIRCLE","FORT MYERS","FL",33905,26.6538971590001,-81.819313359,175,"37 KINGSMAN CIRCLE, FORT MYERS, FL, 33905","Match","Exact","37 KINGSMAN CIR, FORT MYERS, FL, 33905",118022628,"R"
188676,"37 KIRKWOOD ROAD","GIBBSBORO","NJ",8026,39.837755503,-74.967188746,176,"37 KIRKWOOD ROAD, GIBBSBORO, NJ, 8026","Match","Exact","37 KIRKWOOD RD, GIBBSBORO, NJ, 08026",134359405,"L"
188677,"37 KITTERY AVE","ROWLEY","MA",1969,42.73061626,-70.8699403539999,177,"37 KITTERY AVE, ROWLEY, MA, 1969","Match","Exact","37 KITTERY AVE, ROWLEY, MA, 01969",86703367,"L"
188678,"37 KLONDIKE AVE","FITCHBURG","MA",1420,42.5911181540001,-71.776275233,178,"37 KLONDIKE AVE, FITCHBURG, MA, 1420","Match","Exact","37 KLONDIKE AVE, FITCHBURG, MA, 01420",40072387,"R"
188679,"37 LAKEVIEW DRIVE","HAYESVILLE","NC",28904,35.0090135620001,-83.84663081,179,"37 LAKEVIEW DRIVE, HAYESVILLE, NC, 28904","Match","Exact","37 LAKEVIEW DR, HAYESVILLE, NC, 28904",35944952,"L"
188680,"37 LANARK  AVENUE NEWARK NJ","NEWARK","NJ",7106,40.750420578,-74.231806618,180,"37 LANARK  AVENUE NEWARK NJ, NEWARK, NJ, 7106","Match","Exact","37 LANARK AVE, NEWARK, NJ, 07106",63455970,"R"
188681,"37 LANDVIEW DRIVE","DIX HILLS","NY",11746,40.801060363,-73.347611066,181,"37 LANDVIEW DRIVE, DIX HILLS, NY, 11746","Match","Exact","37 LANDVIEW DR, DIX HILLS, NY, 11746",638062696,"L"
188682,"37 LANSDALE ST","ROCHESTER","NY",14620,43.1409021110001,-77.589965959,182,"37 LANSDALE ST, ROCHESTER, NY, 14620","Match","Exact","37 LANSDALE ST, ROCHESTER, NY, 14620",14540973,"R"
188683,"37 LANTERN LANE","BURLINGTON","MA",1803,NA,NA,183,"37 LANTERN LANE, BURLINGTON, MA, 1803","No_Match",NA,NA,NA,NA
188684,"37 LAWRENCE ROAD","SCARSDALE","NY",10583,40.98618164,-73.769224833,184,"37 LAWRENCE ROAD, SCARSDALE, NY, 10583","Match","Exact","37 LAWRENCE RD, SCARSDALE, NY, 10583",139742266,"L"
188685,"37 LEEWARD COVE DR","THE WOODLANDS","TX",77381,30.159835878,-95.488309807,185,"37 LEEWARD COVE DR, THE WOODLANDS, TX, 77381","Match","Exact","37 LEEWARD COVE DR, THE WOODLANDS, TX, 77381",79305795,"R"
188686,"37 LENOX AVE","BRIDGEPORT","CT",6605,41.170978319,-73.2138721379999,186,"37 LENOX AVE, BRIDGEPORT, CT, 6605","Match","Exact","37 LENOX AVE, BRIDGEPORT, CT, 06605",3221860,"L"
188687,"37 LEWIS ROAD","BELMONT","MA",2478,42.3780684280001,-71.164308095,187,"37 LEWIS ROAD, BELMONT, MA, 2478","Match","Exact","37 LEWIS RD, BELMONT, MA, 02478",86891840,"R"
188688,"37 LEXINGTON AVE","MOUNT VERNON","NY",10552,40.921383022,-73.823007128,188,"37 LEXINGTON AVE, MOUNT VERNON, NY, 10552","Match","Exact","37 LEXINGTON AVE, MOUNT VERNON, NY, 10552",139748666,"L"
188689,"37 LIBERTY BELL BOULEVARD","PLEASANT HILL","IA",50327,41.587484192,-93.524583385,189,"37 LIBERTY BELL BOULEVARD, PLEASANT HILL, IA, 50327","Match","Exact","37 LIBERTY BELL BLVD, PLEASANT HILL, IA, 50327",65790597,"L"
188690,"37 LIBRARY RD","NEW SHARON","ME",4955,44.640178007,-70.022516918,190,"37 LIBRARY RD, NEW SHARON, ME, 4955","Match","Non_Exact","37 LIBRARY LN, NEW SHARON, ME, 04955",165298997,"R"
188691,"37 LINCOLN STREET","ESSEX JUNCTION","VT",5452,44.4939019230001,-73.1114805829999,191,"37 LINCOLN STREET, ESSEX JUNCTION, VT, 5452","Match","Exact","37 LINCOLN ST, ESSEX JCT, VT, 05452",135829941,"R"
188692,"37 LISTER DR","MARION","NC",28752,35.6070272750001,-81.982462893,192,"37 LISTER DR, MARION, NC, 28752","Match","Exact","37 LISTER DR, MARION, NC, 28752",35908336,"L"
188693,"37 LOCUST AVE","DANBURY","CT",8610,NA,NA,193,"37 LOCUST AVE, DANBURY, CT, 8610","No_Match",NA,NA,NA,NA
188694,"37 LOST LAKE DRIVE","DIVIDE","CO",80814,38.955942603,-105.223764579,194,"37 LOST LAKE DRIVE, DIVIDE, CO, 80814","Match","Exact","37 LOST LAKE DR, DIVIDE, CO, 80814",130940828,"L"
188695,"37 MAIN STREET","NARROWSBURG","NY",12764,41.6086475210001,-75.061195121,195,"37 MAIN STREET, NARROWSBURG, NY, 12764","Match","Exact","37 MAIN ST, NARROWSBURG, NY, 12764",128973088,"R"
188696,"37 MAIN STREET","SKOWHEGAN","ME",4976,44.7614366000001,-69.7168334309999,196,"37 MAIN STREET, SKOWHEGAN, ME, 4976","Match","Exact","37 MAIN ST, SKOWHEGAN, ME, 04976",124138780,"L"
188697,"37 MAIN STREET","SPARTA","NJ",7871,41.038154746,-74.634393224,197,"37 MAIN STREET, SPARTA, NJ, 7871","Match","Exact","37 MAIN ST, SPARTA, NJ, 07871",641811541,"L"
188698,"37 MALVERN LANE APT 11","SMYRNA","DE",19977,39.2800041140001,-75.6028113959999,198,"37 MALVERN LANE APT 11, SMYRNA, DE, 19977","Match","Exact","37 MALVERN LN, SMYRNA, DE, 19977",617127874,"R"
188699,"37 MAPLE STREET","CORNWALL","NY",12518,41.4383226640001,-74.040814783,199,"37 MAPLE STREET, CORNWALL, NY, 12518","Match","Exact","37 MAPLE ST, CORNWALL, NY, 12518",124412721,"R"
188700,"37 MARSH AVE","WORCESTER","MA",1605,42.2896137270001,-71.778301233,200,"37 MARSH AVE, WORCESTER, MA, 1605","Match","Exact","37 MARSH AVE, WORCESTER, MA, 01605",40086994,"L"
188701,"37 MEADOWBROOD DR","GRAFTON","OH",44044,NA,NA,201,"37 MEADOWBROOD DR, GRAFTON, OH, 44044","No_Match",NA,NA,NA,NA
188702,"37 MEETING STREET  APT B","COVENTRY","RI",2816,41.698862537,-71.550349193,202,"37 MEETING STREET  APT B, COVENTRY, RI, 2816","Match","Exact","37 MEETING ST, COVENTRY, RI, 02816",159142426,"L"
188703,"37 MILL HILL","BARNET","VT",5821,44.2958449480001,-72.049337269,203,"37 MILL HILL, BARNET, VT, 5821","Match","Non_Exact","37 MILL HILL RD, BARNET, VT, 05821",181077511,"R"
188704,"37 MONAGHAN CIRCLE","SACRAMENTO","CA",95823,38.468248843,-121.437720222,204,"37 MONAGHAN CIRCLE, SACRAMENTO, CA, 95823","Match","Exact","37 MONAGHAN CIR, SACRAMENTO, CA, 95823",133417181,"L"
188705,"37 MONUMENT AVENUE","CHARLESTOWN","MA",2129,42.3745686980001,-71.061888656,205,"37 MONUMENT AVENUE, CHARLESTOWN, MA, 2129","Match","Exact","37 MONUMENT AVE, CHARLESTOWN, MA, 02129",639418822,"R"
188706,"37 MORNING STAR DR","SPARTA","NJ",7871,41.0302407360001,-74.613523234,206,"37 MORNING STAR DR, SPARTA, NJ, 7871","Match","Exact","37 MORNING STAR DR, SPARTA, NJ, 07871",98013009,"L"
188707,"37 MOUNTAINSIDE DRIVE","MORRISTOWN","NJ",7960,40.785215581,-74.5002943709999,207,"37 MOUNTAINSIDE DRIVE, MORRISTOWN, NJ, 7960","Match","Exact","37 MOUNTAINSIDE DR, MORRISTOWN, NJ, 07960",649302717,"R"
188708,"37 MYRTLE STREET APT 2","LOWELL","MA",1850,42.6509801730001,-71.299569076,208,"37 MYRTLE STREET APT 2, LOWELL, MA, 1850","Match","Exact","37 MYRTLE ST, LOWELL, MA, 01850",86877759,"R"
188709,"37 N FOREST AVENUE","ROCKVILLE CENTRE","NY",11570,40.6566820290001,-73.6377531269999,209,"37 N FOREST AVENUE, ROCKVILLE CENTRE, NY, 11570","Match","Exact","37 N FOREST AVE, ROCKVILLE CENTRE, NY, 11570",638231897,"R"
188710,"37 N HIGHLAND ST","WINCHESTER","KY",40391,37.993603524,-84.1749523889999,210,"37 N HIGHLAND ST, WINCHESTER, KY, 40391","Match","Exact","37 N HIGHLAND ST, WINCHESTER, KY, 40391",31795373,"R"
188711,"37 N ORANGE AVE SUITE 500","ORLANDO","FL",32801,NA,NA,211,"37 N ORANGE AVE SUITE 500, ORLANDO, FL, 32801","Tie",NA,NA,NA,NA
188712,"37 N ORANGE AVENUE","ORLANDO","FL",32801,28.542807371,-81.379026036,212,"37 N ORANGE AVENUE, ORLANDO, FL, 32801","Match","Exact","37 N ORANGE AVE, ORLANDO, FL, 32801",94282413,"R"
188713,"37 NEW DORP PLAZA","STATEN ISLAND","NY",10306,40.57377724,-74.117220437,213,"37 NEW DORP PLAZA, STATEN ISLAND, NY, 10306","Match","Exact","37 NEW DORP PLZ, STATEN ISLAND, NY, 10306",59867809,"R"
188714,"37 NEW STREET","JERSEY CITY","NJ",7305,40.697751327,-74.090016581,214,"37 NEW STREET, JERSEY CITY, NJ, 7305","Match","Exact","37 NEW ST, JERSEY CITY, NJ, 07305",59603302,"L"
188715,"37 NORTH BARTON STREET","NORCROSS","GA",30071,33.9443107760001,-84.215477252,215,"37 NORTH BARTON STREET, NORCROSS, GA, 30071","Match","Exact","37 N BARTON ST, NORCROSS, GA, 30071",88884175,"L"
188716,"37 NORTH ORANGE AVE SUITE 840","ORLANDO","FL",32801,28.5428043040001,-81.379026169,216,"37 NORTH ORANGE AVE SUITE 840, ORLANDO, FL, 32801","Match","Exact","37 N ORANGE AVE, ORLANDO, FL, 32801",94282413,"R"
188717,"37 NORTH STREET","GORHAM","ME",4038,43.7224057540001,-70.4879856219999,217,"37 NORTH STREET, GORHAM, ME, 4038","Match","Exact","37 NORTH ST, GORHAM, ME, 04038",78039768,"R"
188718,"37 NORTH STREET","MANORVILLE","NY",11949,40.8754984720001,-72.81038403,218,"37 NORTH STREET, MANORVILLE, NY, 11949","Match","Exact","37 NORTH ST, MANORVILLE, NY, 11949",114057232,"L"
188719,"37 NORTH WENATCHEE AVENUE","WENATCHEE","WA",98801,47.4251669870001,-120.311843537,219,"37 NORTH WENATCHEE AVENUE, WENATCHEE, WA, 98801","Match","Exact","37 N WENATCHEE AVE, WENATCHEE, WA, 98801",156973616,"L"
188720,"37 NW 48TH STREET","MIAMI","FL",33127,25.820032288,-80.1965069,220,"37 NW 48TH STREET, MIAMI, FL, 33127","Match","Exact","37 NW 48TH ST, MIAMI, FL, 33127",116007353,"R"
188721,"37 O E  FISHER LN","DEWITT","AR",72042,34.3107644450001,-91.3088266189999,221,"37 O E  FISHER LN, DEWITT, AR, 72042","Match","Exact","37 O E FISHER LN, DEWITT, AR, 72042",649859478,"R"
188722,"37 ONDAORA PKWY","HIGHLAND FALLS","NY",10928,41.359974117,-73.965750618,222,"37 ONDAORA PKWY, HIGHLAND FALLS, NY, 10928","Match","Exact","37 ONDAORA PKWY, HIGHLAND FALLS, NY, 10928",124498874,"R"
188723,"37 ORCHARD LANE","LEVITTOWN","PA",19055,40.151147258,-74.83677954,223,"37 ORCHARD LANE, LEVITTOWN, PA, 19055","Match","Exact","37 ORCHARD LN, LEVITTOWN, PA, 19055",134737405,"L"
188724,"37 ORCHARD STREET","PASSAIC","NJ",7055,40.84887393,-74.126567345,224,"37 ORCHARD STREET, PASSAIC, NJ, 7055","Match","Exact","37 ORCHARD ST, PASSAIC, NJ, 07055",65252445,"L"
188725,"37 OSBORNE ROAD","BROOKLINE","MA",1752,NA,NA,225,"37 OSBORNE ROAD, BROOKLINE, MA, 1752","No_Match",NA,NA,NA,NA
188726,"37 PACKANACK LAKE ROAD","WAYNE","NJ",7470,40.9338937370001,-74.2655085659999,226,"37 PACKANACK LAKE ROAD, WAYNE, NJ, 7470","Match","Exact","37 PACKANACK LAKE RD, WAYNE, NJ, 07470",65270566,"L"
188727,"37 PARK PLACE","ENGLEWOOD","NJ",7631,40.8958360600001,-73.972452083,227,"37 PARK PLACE, ENGLEWOOD, NJ, 7631","Match","Exact","37 PARK PL, ENGLEWOOD, NJ, 07631",64375297,"L"
188728,"37 PARK STREET","DANVERS","MA",1923,42.5651813600001,-70.933793307,228,"37 PARK STREET, DANVERS, MA, 1923","Match","Exact","37 PARK ST, DANVERS, MA, 01923",86639484,"R"
188729,"37 PENT RD APT 4","MADISON","CT",6443,41.2697791250001,-72.571597482,229,"37 PENT RD APT 4, MADISON, CT, 6443","Match","Exact","37 PENT RD, MADISON, CT, 06443",3710512,"L"
188730,"37 PERRY BRANCH","GILBERT","WV",25621,37.637061734,-81.946527711,230,"37 PERRY BRANCH, GILBERT, WV, 25621","Match","Non_Exact","37 PERRY BRANCH RD, GILBERT, WV, 25621",653348397,"L"
188731,"37 PLAISTOW RD UNIT 7 267","PLAISTOW","NH",3865,42.824406895,-71.1049849729999,231,"37 PLAISTOW RD UNIT 7 267, PLAISTOW, NH, 3865","Match","Exact","37 PLAISTOW RD, PLAISTOW, NH, 03865",113671721,"R"
188732,"37 PLEASANT STREET","BRISTOL","CT",6010,41.670018579,-72.9467427599999,232,"37 PLEASANT STREET, BRISTOL, CT, 6010","Match","Exact","37 PLEASANT ST, BRISTOL, CT, 06010",3506068,"L"
188733,"37 PLEASANT STREET","EPPING","NH",3042,43.0390715880001,-71.077001262,233,"37 PLEASANT STREET, EPPING, NH, 3042","Match","Exact","37 PLEASANT ST, EPPING, NH, 03042",646876679,"R"
188734,"37 PO BOX","ST ALBANS BAY","VT",5481,NA,NA,234,"37 PO BOX, ST ALBANS BAY, VT, 5481","No_Match",NA,NA,NA,NA
188735,"37 POST RD","HOOKSETT","NH",3106,43.1010112960001,-71.4434149369999,235,"37 POST RD, HOOKSETT, NH, 3106","Match","Exact","37 POST RD, HOOKSETT, NH, 03106",642785274,"R"
188736,"37 PREAKNESS PLAZA","ORANGE PARK","FL",32073,30.1599261740001,-81.737952239,236,"37 PREAKNESS PLAZA, ORANGE PARK, FL, 32073","Match","Exact","37 PREAKNESS PLZ, ORANGE PARK, FL, 32073",83823153,"L"
188737,"37 PRESIDENTS DR","MECHANICSBURG","PA",17050,40.212874598,-77.045580829,237,"37 PRESIDENTS DR, MECHANICSBURG, PA, 17050","Match","Exact","37 PRESIDENTS DR, MECHANICSBURG, PA, 17050",624339046,"L"
188738,"37 PRIEM ST","ROCHESTER","NY",14607,43.150058818,-77.597954726,238,"37 PRIEM ST, ROCHESTER, NY, 14607","Match","Exact","37 PRIEM ST, ROCHESTER, NY, 14607",14568793,"L"
188739,"37 PRIEM STREET","ROCHESTER","NY",14607,43.150058818,-77.597954726,239,"37 PRIEM STREET, ROCHESTER, NY, 14607","Match","Exact","37 PRIEM ST, ROCHESTER, NY, 14607",14568793,"L"
188740,"37 PROSPECT AVENUE","SAG HARBOR","NY",11963,40.9990351500001,-72.2875002229999,240,"37 PROSPECT AVENUE, SAG HARBOR, NY, 11963","Match","Exact","37 PROSPECT AVE, SAG HARBOR, NY, 11963",113959995,"R"
188741,"37 PROSPECT ST","AMSTERDAM","NY",12010,42.9408655330001,-74.1873242779999,241,"37 PROSPECT ST, AMSTERDAM, NY, 12010","Match","Exact","37 PROSPECT ST, AMSTERDAM, NY, 12010",18616436,"R"
188742,"37 PROVIDENCE COURT","NEWTOWN","PA",18940,40.2540554,-74.976389005,242,"37 PROVIDENCE COURT, NEWTOWN, PA, 18940","Match","Exact","37 PROVIDENCE CT, NEWTOWN, PA, 18940",617547853,"R"
188743,"37 QUAIL COURT","WINDER","GA",30680,33.9913678940001,-83.790875236,243,"37 QUAIL COURT, WINDER, GA, 30680","Match","Exact","37 QUAIL CT, WINDER, GA, 30680",77572286,"R"
188744,"37 QUINCY PLACE NW UNIT","WASHINGTON","DC",20001,38.9118681370001,-77.0100309269999,244,"37 QUINCY PLACE NW UNIT, WASHINGTON, DC, 20001","Match","Exact","37 QUINCY PL NW, WASHINGTON, DC, 20001",638287646,"R"
188745,"37 RANCHO VIEJO BLVD","SANTA FE","NM",87508,35.5980507720001,-106.029567609,245,"37 RANCHO VIEJO BLVD, SANTA FE, NM, 87508","Match","Exact","37 RANCHO VIEJO BLVD, SANTA FE, NM, 87508",651331538,"R"
188746,"37 RANDOLPH ROAD","NEWPORT NEWS","VA",23601,37.025134398,-76.4585498929999,246,"37 RANDOLPH ROAD, NEWPORT NEWS, VA, 23601","Match","Exact","37 RANDOLPH RD, NEWPORT NEWS, VA, 23601",103754854,"L"
188747,"37 REAR WEST TOWN STREET","LEBANON","CT",6249,NA,NA,247,"37 REAR WEST TOWN STREET, LEBANON, CT, 6249","No_Match",NA,NA,NA,NA
188748,"37 RENA LANE","LAKEWOOD","NJ",8701,40.0699719740001,-74.218862402,248,"37 RENA LANE, LAKEWOOD, NJ, 8701","Match","Exact","37 RENA LN, LAKEWOOD, NJ, 08701",203809463,"R"
188749,"37 RESERVOIR ROAD","LEE","MA",1238,42.3244824500001,-73.237231832,249,"37 RESERVOIR ROAD, LEE, MA, 1238","Match","Exact","37 RESERVOIR RD, LEE, MA, 01238",3926789,"R"
188750,"37 RIDGEWOOD CIR","WIMBERLEY","TX",78676,30.0374519170001,-98.1488742939999,250,"37 RIDGEWOOD CIR, WIMBERLEY, TX, 78676","Match","Exact","37 RIDGEWOOD CIR, WIMBERLEY, TX, 78676",63816804,"R"
188751,"37 RINGWOOD AVE","ATHERTON","CA",94027,37.4637766490001,-122.171829378,251,"37 RINGWOOD AVE, ATHERTON, CA, 94027","Match","Exact","37 RINGWOOD AVE, ATHERTON, CA, 94027",192400894,"L"
188752,"37 ROBIN HOOD RD","MORRIS PLAINS","NJ",7950,40.8500811100001,-74.465782363,252,"37 ROBIN HOOD RD, MORRIS PLAINS, NJ, 7950","Match","Exact","37 ROBIN HOOD RD, MORRIS PLAINS, NJ, 07950",60442650,"L"
188753,"37 ROLLING HILLS DRIVE","TONASKET","WA",98855,48.6683256630001,-119.495695667,253,"37 ROLLING HILLS DRIVE, TONASKET, WA, 98855","Match","Exact","37 ROLLING HILLS DR, TONASKET, WA, 98855",639974262,"R"
188754,"37 ROSEDALE AVE","EWING","NJ",8638,40.246345153,-74.772170419,254,"37 ROSEDALE AVE, EWING, NJ, 8638","Match","Exact","37 ROSEDALE AVE, EWING, NJ, 08638",60177295,"R"
188755,"37 S LAFAYETTE SQUARE","LAGRANGE","GA",30240,NA,NA,255,"37 S LAFAYETTE SQUARE, LAGRANGE, GA, 30240","No_Match",NA,NA,NA,NA
188756,"37 SADDLEBROOK CT","ORCHARD PARK","NY",14127,42.7993926570001,-78.724214608,256,"37 SADDLEBROOK CT, ORCHARD PARK, NY, 14127","Match","Non_Exact","37 SADDLE BROOK CT, ORCHARD PARK, NY, 14127",623774282,"L"
188757,"37 SAINT JAMES AVE","HAVERHILL","MA",1830,42.7783708750001,-71.068236451,257,"37 SAINT JAMES AVE, HAVERHILL, MA, 1830","Match","Exact","37 ST JAMES AVE, HAVERHILL, MA, 01830",86617745,"R"
188758,"37 SAINT MARYS LANE","NORWALK","CT",6851,41.1360185830001,-73.408179906,258,"37 SAINT MARYS LANE, NORWALK, CT, 6851","Match","Exact","37 SAINT MARYS LN, NORWALK, CT, 06851",3261592,"L"
188759,"37 SAMOSET AVENUE","HULL","MA",2045,42.280390577,-70.86921516,259,"37 SAMOSET AVENUE, HULL, MA, 2045","Match","Exact","37 SAMOSET AVE, HULL, MA, 02045",87429889,"R"
188760,"37 SCHOOL RD","BERNARDSTON","MA",1337,42.665086059,-72.5580070239999,260,"37 SCHOOL RD, BERNARDSTON, MA, 1337","Match","Exact","37 SCHOOL RD, BERNARDSTON, MA, 01337",39911587,"R"
188761,"37 SCHOOL STREET","BYFIELD","MA",1922,42.745147176,-70.925828568,261,"37 SCHOOL STREET, BYFIELD, MA, 1922","Match","Exact","37 SCHOOL ST, BYFIELD, MA, 01922",86697469,"R"
188762,"37 SHIELD","IRVIN","CA",92618,NA,NA,262,"37 SHIELD, IRVIN, CA, 92618","No_Match",NA,NA,NA,NA
188763,"37 SILVERADO DRIVE","KINSEY","AL",36303,31.278718774,-85.34102849,263,"37 SILVERADO DRIVE, KINSEY, AL, 36303","Match","Exact","37 SILVERADO DR, KINSEY, AL, 36303",101219952,"R"
188764,"37 SNOWMASS COURT","O'FALLON","MO",63368,38.7706007950001,-90.6893565999999,264,"37 SNOWMASS COURT, O'FALLON, MO, 63368","Match","Non_Exact","37 SNOWMASS CT, O FALLON, MO, 63368",605575649,"R"
188765,"37 SOUTH 333DR LANE D","FEDERAL WAY","WA",98003,NA,NA,265,"37 SOUTH 333DR LANE D, FEDERAL WAY, WA, 98003","No_Match",NA,NA,NA,NA
188766,"37 SOUTH ASHLAND AVENUE","CHICAGO","IL",60607,41.880640983,-87.666663998,266,"37 SOUTH ASHLAND AVENUE, CHICAGO, IL, 60607","Match","Exact","37 S ASHLAND AVE, CHICAGO, IL, 60607",641743024,"R"
188767,"37 STANLEY FILED ROAD","DEER ISLE","ME",4627,44.1937012130001,-68.664884289,267,"37 STANLEY FILED ROAD, DEER ISLE, ME, 4627","Match","Non_Exact","37 STANLEY FIELD RD, DEER ISLE, ME, 04627",635005295,"L"
188768,"37 STARLAKE LANE","NORWICH","VT",5055,43.747427476,-72.24705048,268,"37 STARLAKE LANE, NORWICH, VT, 5055","Match","Exact","37 STARLAKE LN, NORWICH, VT, 05055",139255173,"L"
188769,"37 STATE ROAD","GREAT BARRINGTON","MA",1230,42.2014222180001,-73.3575371539999,269,"37 STATE ROAD, GREAT BARRINGTON, MA, 1230","Match","Exact","37 STATE RD, GREAT BARRINGTON, MA, 01230",3957506,"R"
188770,"37 STATEHOUSE PL","IRVINE","CA",92602,33.7382347830001,-117.775996452,270,"37 STATEHOUSE PL, IRVINE, CA, 92602","Match","Exact","37 STATEHOUSE PL, IRVINE, CA, 92602",144132426,"L"
188771,"37 STONEHOUSE ROAD","BASKING RIDGE","NJ",7920,40.6837600690001,-74.5488104949999,271,"37 STONEHOUSE ROAD, BASKING RIDGE, NJ, 7920","Match","Exact","37 STONEHOUSE RD, BASKING RIDGE, NJ, 07920",59946124,"L"
188772,"37 SURREY TRAIL SE","ROME","GU",30161,NA,NA,272,"37 SURREY TRAIL SE, ROME, GU, 30161","No_Match",NA,NA,NA,NA
188773,"37 SW 251ST RD","WARRENSBURG","MO",64093,NA,NA,273,"37 SW 251ST RD, WARRENSBURG, MO, 64093","No_Match",NA,NA,NA,NA
188774,"37 TAFF AVE","STAMFORD","CT",6902,41.038504899,-73.549489205,274,"37 TAFF AVE, STAMFORD, CT, 6902","Match","Exact","37 TAFF AVE, STAMFORD, CT, 06902",3245047,"R"
188775,"37 TAMARACK STREET","HOWELL","NJ",7731,40.114289173,-74.1463163299999,275,"37 TAMARACK STREET, HOWELL, NJ, 7731","Match","Exact","37 TAMARACK ST, HOWELL, NJ, 07731",90466572,"R"
188776,"37 TANNERY RD","DILLSBURG","PA",17019,40.090013975,-77.0110141229999,276,"37 TANNERY RD, DILLSBURG, PA, 17019","Match","Exact","37 TANNERY RD, DILLSBURG, PA, 17019",88759656,"L"
188777,"37 TECUMSEH DRIVE","CHILLICOTHE","OH",45601,39.3467395110001,-83.019860326,277,"37 TECUMSEH DRIVE, CHILLICOTHE, OH, 45601","Match","Exact","37 TECUMSEH DR, CHILLICOTHE, OH, 45601",37491029,"R"
188778,"37 TERRACE STREET","DALLAS","PA",18612,41.3273572160001,-75.939319901,278,"37 TERRACE STREET, DALLAS, PA, 18612","Match","Exact","37 TERRACE ST, DALLAS, PA, 18612",80909801,"R"
188779,"37 TERRELL LANE","HOLLIS","NH",3049,42.7067520470001,-71.550765429,279,"37 TERRELL LANE, HOLLIS, NH, 3049","Match","Exact","37 TERRELL LN, HOLLIS, NH, 03049",113574790,"R"
188780,"37 TERRILL ROAD","OLD BRIDGE","NJ",8857,40.3949275510001,-74.328414729,280,"37 TERRILL ROAD, OLD BRIDGE, NJ, 8857","Match","Exact","37 TERRILL RD, OLD BRIDGE, NJ, 08857",60285605,"R"
188781,"37 THOMPSON POND ROAD","SPENCER","MA",1562,42.301829798,-71.9754401169999,281,"37 THOMPSON POND ROAD, SPENCER, MA, 1562","Match","Exact","37 THOMPSON POND RD, SPENCER, MA, 01562",40003385,"R"
188782,"37 TODD ROAD","WOLCOTT","CT",6716,41.577028485,-72.9785673809999,282,"37 TODD ROAD, WOLCOTT, CT, 6716","Match","Exact","37 TODD RD, WOLCOTT, CT, 06716",3735967,"L"
188783,"37 TYLER STREET MV 717A","BOSTON","MA",2111,42.3501771840001,-71.0609415609999,283,"37 TYLER STREET MV 717A, BOSTON, MA, 2111","Match","Exact","37 TYLER ST, BOSTON, MA, 02111",85710489,"R"
188784,"37 UNION CT","HASKELL","NJ",7420,41.0174309830001,-74.299383859,284,"37 UNION CT, HASKELL, NJ, 7420","Match","Exact","37 UNION CT, HASKELL, NJ, 07420",65271322,"L"
188785,"37 UNION STREET SOUTH","CONCORD","NC",28027,35.409746426,-80.5804004889999,285,"37 UNION STREET SOUTH, CONCORD, NC, 28027","Match","Non_Exact","37 UNION ST S, CONCORD, NC, 28025",24926829,"L"
188786,"37 VALENCIA AVENUE","STATEN ISLAND","NY",10301,40.6351062040001,-74.1007897329999,286,"37 VALENCIA AVENUE, STATEN ISLAND, NY, 10301","Match","Exact","37 VALENCIA AVE, STATEN ISLAND, NY, 10301",59878417,"R"
188787,"37 VALERIE STREET","VALLSCREEK","WV",24815,37.232615235,-81.645293575,287,"37 VALERIE STREET, VALLSCREEK, WV, 24815","Match","Exact","37 VALERIE ST, VALLSCREEK, WV, 24815",74280051,"L"
188788,"37 VAN BUREN STREET","PORT JEFFERSON STA","NY",11776,40.917164638,-73.024550819,288,"37 VAN BUREN STREET, PORT JEFFERSON STA, NY, 11776","Match","Exact","37 VAN BUREN ST, PORT JEFFERSON STATION, NY, 11776",114263865,"L"
188789,"37 VILLAGE CT","HAZLET","NJ",7730,40.4159653200001,-74.174041339,289,"37 VILLAGE CT, HAZLET, NJ, 7730","Match","Exact","37 VILLAGE CT, HAZLET, NJ, 07730",90513199,"R"
188790,"37 VINE LANE","LEVITTOWN","PA",19054,40.181288566,-74.828955321,290,"37 VINE LANE, LEVITTOWN, PA, 19054","Match","Exact","37 VINE LN, LEVITTOWN, PA, 19054",134737325,"L"
188791,"37 VREELAND STREET","LODI","NJ",7644,40.8880745220001,-74.0830990279999,291,"37 VREELAND STREET, LODI, NJ, 7644","Match","Exact","37 VREELAND ST, LODI, NJ, 07644",64384889,"L"
188792,"37 W 118TH STREET SUITE 3","NEW YORK","NY",10026,40.8026292760001,-73.9470455159999,292,"37 W 118TH STREET SUITE 3, NEW YORK, NY, 10026","Match","Non_Exact","37 W 118TH ST, NEW YORK, NY, 10026",652209498,"R"
188793,"37 W 26ST 9TH FLOOR","NEW YORK","NY",10010,NA,NA,293,"37 W 26ST 9TH FLOOR, NEW YORK, NY, 10010","No_Match",NA,NA,NA,NA
188794,"37 W 26TH STREET SUITE 302","NEW YORK","NY",10010,NA,NA,294,"37 W 26TH STREET SUITE 302, NEW YORK, NY, 10010","Tie",NA,NA,NA,NA
188795,"37 W BROAD STREET","NEWTON FALLS","OH",44444,41.187915855,-80.9763902459999,295,"37 W BROAD STREET, NEWTON FALLS, OH, 44444","Match","Exact","37 W BROAD ST, NEWTON FALLS, OH, 44444",117401970,"L"
188796,"37 W CHOPS POINT RD","BATH","ME",4530,43.9750200300001,-69.8344554619999,296,"37 W CHOPS POINT RD, BATH, ME, 4530","Match","Exact","37 W CHOPS POINT RD, BATH, ME, 04530",75613257,"R"
188797,"37 W RIGBY ST","MANNING","SC",29102,33.696615025,-80.212150349,297,"37 W RIGBY ST, MANNING, SC, 29102","Match","Exact","37 W RIGBY ST, MANNING, SC, 29102",71432212,"R"
188798,"37 WALL STREET APT 9F","NEW YORK","NY",10005,40.706725432,-74.01006186,298,"37 WALL STREET APT 9F, NEW YORK, NY, 10005","Match","Exact","37 WALL ST, NEW YORK, NY, 10005",639542765,"R"
188799,"37 WARWICK ST  APT 1202","BOSTON","MA",2120,42.3359208580001,-71.0844220559999,299,"37 WARWICK ST  APT 1202, BOSTON, MA, 2120","Match","Exact","37 WARWICK ST, BOSTON, MA, 02120",85700115,"R"
188800,"37 WEST FOX CREEK LANE","WHITESBORO","TX",76273,33.6645736890001,-96.9307158129999,300,"37 WEST FOX CREEK LANE, WHITESBORO, TX, 76273","Match","Exact","37 W FOX CREEK LN, WHITESBORO, TX, 76273",63378159,"L"
188801,"37 WEST SOUTHCREST CIRCLE","EDWARDSVILLE","IL",62025,38.7822411060001,-89.944936824,301,"37 WEST SOUTHCREST CIRCLE, EDWARDSVILLE, IL, 62025","Match","Exact","37 W SOUTHCREST CIR, EDWARDSVILLE, IL, 62025",107741798,"L"
188802,"37 WESTFIELD AVENUE","CLARK","NJ",7066,40.6185032340001,-74.2966448449999,302,"37 WESTFIELD AVENUE, CLARK, NJ, 7066","Match","Exact","37 WESTFIELD AVE, CLARK, NJ, 07066",60561848,"L"
188803,"37 WESTMORELAND STREET","DORCHESTER","MA",2122,NA,NA,303,"37 WESTMORELAND STREET, DORCHESTER, MA, 2122","No_Match",NA,NA,NA,NA
188804,"37 WHITE OAK LANE","SUDBURY","MA",1776,42.391096814,-71.454904345,304,"37 WHITE OAK LANE, SUDBURY, MA, 1776","Match","Exact","37 WHITE OAK LN, SUDBURY, MA, 01776",86925456,"L"
188805,"37 WHITTIER AVENUE","SOMERSET","NJ",8873,40.4984122710001,-74.466721536,305,"37 WHITTIER AVENUE, SOMERSET, NJ, 8873","Match","Exact","37 WHITTIER AVE, SOMERSET, NJ, 08873",59950418,"R"
188806,"37 WILLIAMS AVE","SPRING VALLEY","NY",10977,NA,NA,306,"37 WILLIAMS AVE, SPRING VALLEY, NY, 10977","Tie",NA,NA,NA,NA
188807,"37 WOODS DRIVE","37 WOODS DRIVE","PA",17301,NA,NA,307,"37 WOODS DRIVE, 37 WOODS DRIVE, PA, 17301","No_Match",NA,NA,NA,NA
188808,"37 WYOMING AVENUE","LONG BEACH","NY",11561,40.5852657350001,-73.691426985,308,"37 WYOMING AVENUE, LONG BEACH, NY, 11561","Match","Exact","37 WYOMING AVE, LONG BEACH, NY, 11561",147679437,"L"
188809,"37 YOUNG AVE","HILLSIDE","NJ",7205,40.7100603760001,-74.240575146,309,"37 YOUNG AVE, HILLSIDE, NJ, 7205","Match","Exact","37 YOUNG AVE, HILLSIDE, NJ, 07205",60576352,"L"
188810,"37-01 FAIR LAWN AVENUE","FAIR LAWN","NJ",7410,40.9220959680001,-74.10288912,310,"37-01 FAIR LAWN AVENUE, FAIR LAWN, NJ, 7410","Match","Non_Exact","37 FAIR LAWN PKWY, FAIR LAWN, NJ, 07410",64381072,"R"
188811,"37-06 82ND STREET SUITE 308","JACKSON HEIGHTS","NY",11372,40.7494684760001,-73.884267549,311,"37-06 82ND STREET SUITE 308, JACKSON HEIGHTS, NY, 11372","Match","Exact","37-6 82ND ST, JACKSON HEIGHTS, NY, 11372",59693854,"R"
188812,"37-11D PRINCE STREET","FLUSHING","NY",11354,NA,NA,312,"37-11D PRINCE STREET, FLUSHING, NY, 11354","Tie",NA,NA,NA,NA
188813,"37-15 73RD STREET 2ND FL","JACKSON HIGHTS","NY",11372,40.748521764,-73.892640113,313,"37-15 73RD STREET 2ND FL, JACKSON HIGHTS, NY, 11372","Match","Non_Exact","37-15 73RD ST, JACKSON HEIGHTS, NY, 11372",59693785,"L"
188814,"37-17 UNION STREET 3RD FLOOR","FLUSHING","NY",11354,40.7622570090001,-73.827424218,314,"37-17 UNION STREET 3RD FLOOR, FLUSHING, NY, 11354","Match","Exact","37-17 UNION ST, FLUSHING, NY, 11354",59701049,"L"
188815,"37-19 57TH STREET","WOODSIDE","NY",11377,40.7500337130001,-73.905376637,315,"37-19 57TH STREET, WOODSIDE, NY, 11377","Match","Exact","37-19 57TH ST, WOODSIDE, NY, 11377",59693309,"L"
188816,"37-20 74TH STREET  2ND FL","JACKSON HEIGHTS","NY",11372,40.748373846,-73.8917326499999,316,"37-20 74TH STREET  2ND FL, JACKSON HEIGHTS, NY, 11372","Match","Exact","37-20 74TH ST, JACKSON HEIGHTS, NY, 11372",59693791,"R"
188817,"37-204 NW TERRANCE 201","PEMBROK PINES","FL",33024,NA,NA,317,"37-204 NW TERRANCE 201, PEMBROK PINES, FL, 33024","No_Match",NA,NA,NA,NA
188818,"37-30 83RD STREET SUITE 6B","JACKSON HEIGHTS","NY",11372,40.7491353440001,-73.883255845,318,"37-30 83RD STREET SUITE 6B, JACKSON HEIGHTS, NY, 11372","Match","Exact","37-30 83RD ST, JACKSON HEIGHTS, NY, 11372",59693856,"R"
188819,"37-42 86TH STRET APT - 1B","JACKSON HEIGHTS","NY",11372,40.7492099470001,-73.880429013,319,"37-42 86TH STRET APT - 1B, JACKSON HEIGHTS, NY, 11372","Match","Non_Exact","37-42 86TH ST, JACKSON HEIGHTS, NY, 11372",59695519,"R"
188820,"37-47 76TH STREET 3RD FLOOR","JACKSON HEIGHTS","NY",11372,40.747882094,-73.8897218819999,320,"37-47 76TH STREET 3RD FLOOR, JACKSON HEIGHTS, NY, 11372","Match","Exact","37-47 76TH ST, JACKSON HEIGHTS, NY, 11372",59693776,"L"
188821,"37-53 90TH STREET","FLUSHING","NY",11372,40.7494201540001,-73.876658979,321,"37-53 90TH STREET, FLUSHING, NY, 11372","Match","Exact","37-53 90TH ST, FLUSHING, NY, 11372",59730004,"L"
188822,"37-55 72ND STREET BASEMENT","JACKSON HEIGHTS","NY",11372,40.7475004250001,-73.8937520229999,322,"37-55 72ND STREET BASEMENT, JACKSON HEIGHTS, NY, 11372","Match","Exact","37-55 72ND ST, JACKSON HEIGHTS, NY, 11372",59693782,"L"
188823,"37-55 91ST STREET","JACKSON HEIGHTS","NY",11372,40.74915214,-73.875667526,323,"37-55 91ST STREET, JACKSON HEIGHTS, NY, 11372","Match","Exact","37-55 91ST ST, JACKSON HEIGHTS, NY, 11372",59695526,"L"
188824,"37-63 83RD STREET SUITE 1B","JACKSON HEIGHTS","NY",11372,40.74855797,-73.883136759,324,"37-63 83RD STREET SUITE 1B, JACKSON HEIGHTS, NY, 11372","Match","Exact","37-63 83RD ST, JACKSON HEIGHTS, NY, 11372",59693856,"L"
188825,"37-63 83RD STREET SUITE 1M","JACKSON HEIGHTS","NY",11372,40.74855797,-73.883136759,325,"37-63 83RD STREET SUITE 1M, JACKSON HEIGHTS, NY, 11372","Match","Exact","37-63 83RD ST, JACKSON HEIGHTS, NY, 11372",59693856,"L"
188826,"37","SIERRA VISTA","AZ",85635,NA,NA,326,"37, SIERRA VISTA, AZ, 85635","No_Match",NA,NA,NA,NA
188827,"370 ANDREWS RD","TRENTON","NC",28585,35.0405440370001,-77.328669098,327,"370 ANDREWS RD, TRENTON, NC, 28585","Match","Exact","370 ANDREWS RD, TRENTON, NC, 28585",13856457,"L"
188828,"370 ANGUS AVENUE E","SAN BRUNO","CA",94066,37.6268612270001,-122.407745239,328,"370 ANGUS AVENUE E, SAN BRUNO, CA, 94066","Match","Exact","370 ANGUS AVE E, SAN BRUNO, CA, 94066",192374044,"R"
188829,"370 ASYLUM ST","HARTFORD","CT",6103,41.7675992330001,-72.679639218,329,"370 ASYLUM ST, HARTFORD, CT, 6103","Match","Exact","370 ASYLUM ST, HARTFORD, CT, 06103",3494789,"R"
188830,"370 ATLANTA HIGHWAY","ROCKMART","GA",30153,NA,NA,330,"370 ATLANTA HIGHWAY, ROCKMART, GA, 30153","Tie",NA,NA,NA,NA
188831,"370 BALTIMORE AVE","ODENTON","MD",21113,39.090404193,-76.6990335409999,331,"370 BALTIMORE AVE, ODENTON, MD, 21113","Match","Exact","370 BALTIMORE AVE, ODENTON, MD, 21113",618449017,"R"
188832,"370 BAYSIDE DRIVE NORTH","LONG BEACH","CA",90803,33.767809475,-118.131058922,332,"370 BAYSIDE DRIVE NORTH, LONG BEACH, CA, 90803","Match","Exact","370 BAYSIDE DR N, LONG BEACH, CA, 90803",141775062,"R"
188833,"370 BLACK OAK COURT","MARIETTA","GA",30008,33.9215094900001,-84.559375374,333,"370 BLACK OAK COURT, MARIETTA, GA, 30008","Match","Exact","370 BLACK OAK CT, MARIETTA, GA, 30008",17187405,"L"
188834,"370 BOSTON TURNPIKE ROAD","SHREWSBURY","MA",1545,42.276125963,-71.7296446,334,"370 BOSTON TURNPIKE ROAD, SHREWSBURY, MA, 1545","Match","Exact","370 BOSTON TPKE, SHREWSBURY, MA, 01545",40114284,"R"
188835,"370 BUCKLAND COVE","EADS","TN",38028,35.1148413130001,-89.666563503,335,"370 BUCKLAND COVE, EADS, TN, 38028","Match","Exact","370 BUCKLAND COVE, EADS, TN, 38028",636758950,"R"
188836,"370 BUENA VISTA BLVD  UNIT 90","WASHINGTON","UT",84780,37.1375505560001,-113.515427566,336,"370 BUENA VISTA BLVD  UNIT 90, WASHINGTON, UT, 84780","Match","Exact","370 BUENA VISTA BLVD, WASHINGTON, UT, 84780",635258011,"L"
188837,"370 CATALINA DRIVE","COLORADO SPRINGS","CO",80906,38.7785975580001,-104.79448202,337,"370 CATALINA DRIVE, COLORADO SPRINGS, CO, 80906","Match","Exact","370 CATALINA DR, COLORADO SPRINGS, CO, 80906",636177490,"L"
188838,"370 CEDAR RD","ELKINS PARK","PA",19027,NA,NA,338,"370 CEDAR RD, ELKINS PARK, PA, 19027","No_Match",NA,NA,NA,NA
188839,"370 CENTER STREET","CARLSTADT","NJ",7072,40.8467688800001,-74.092913627,339,"370 CENTER STREET, CARLSTADT, NJ, 7072","Match","Exact","370 CENTER ST, CARLSTADT, NJ, 07072",642739362,"L"
188840,"370 CLARK CREEK PASS","ACWORTH","GA",30102,34.0806227580001,-84.60791607,340,"370 CLARK CREEK PASS, ACWORTH, GA, 30102","Match","Exact","370 CLARK CREEK PASS, ACWORTH, GA, 30102",641149134,"R"
188841,"370 CLIFFORD AVE NE","ATLANTA","GA",30317,33.7640422310001,-84.3155877629999,341,"370 CLIFFORD AVE NE, ATLANTA, GA, 30317","Match","Exact","370 CLIFFORD AVE NE, ATLANTA, GA, 30317",23366578,"L"
188842,"370 COMMON ST STE 319","DEDHAM","MA",2026,42.258977315,-71.197029989,342,"370 COMMON ST STE 319, DEDHAM, MA, 2026","Match","Exact","370 COMMON ST, DEDHAM, MA, 02026",87242781,"L"
188843,"370 CORTLAND","HIGHLAND PARK","MI",48203,42.392438439,-83.1029757599999,343,"370 CORTLAND, HIGHLAND PARK, MI, 48203","Match","Non_Exact","370 CORTLAND ST, HIGHLAND PARK, MI, 48203",95704813,"R"
188844,"370 CROOKED CREEK ROAD","EATONTON","GA",31024,33.302885272,-83.29991612,344,"370 CROOKED CREEK ROAD, EATONTON, GA, 31024","Match","Exact","370 CROOKED CREEK RD, EATONTON, GA, 31024",16671770,"L"
188845,"370 CROWN VETCH LN","ALPHARETTA","GA",30005,34.068268247,-84.214232169,345,"370 CROWN VETCH LN, ALPHARETTA, GA, 30005","Match","Exact","370 CROWN VETCH LN, ALPHARETTA, GA, 30005",17430247,"R"
188846,"370 DONNAN AVE","WASHINGTON","PA",15301,40.1768572660001,-80.252243718,346,"370 DONNAN AVE, WASHINGTON, PA, 15301","Match","Exact","370 DONNAN AVE, WASHINGTON, PA, 15301",52802903,"L"
188847,"370 E 31ST STREET","BROOKLYN","NY",11226,40.6417129920001,-73.947625473,347,"370 E 31ST STREET, BROOKLYN, NY, 11226","Match","Exact","370 E 31 ST, BROOKLYN, NY, 11226",59081572,"R"
188848,"370 E 76TH ST APT B303","NEW YORK","NY",10021,40.770605233,-73.954636753,348,"370 E 76TH ST APT B303, NEW YORK, NY, 10021","Match","Non_Exact","370 E 76TH ST, NEW YORK, NY, 10021",650087080,"R"
188849,"370 E JERSEY ST","GLADSTONE","OR",97027,45.3851814600001,-122.593672274,349,"370 E JERSEY ST, GLADSTONE, OR, 97027","Match","Exact","370 E JERSEY ST, GLADSTONE, OR, 97027",157917247,"L"
188850,"370 E MAPLE ROAD THIRD FLOOR","BIRMINGHAM","MI",48009,NA,NA,350,"370 E MAPLE ROAD THIRD FLOOR, BIRMINGHAM, MI, 48009","Tie",NA,NA,NA,NA
188851,"370 E MAPLE","BIRMINGHAM","MI",48009,42.5467635190001,-83.211669069,351,"370 E MAPLE, BIRMINGHAM, MI, 48009","Match","Non_Exact","370 E MAPLE RD, BIRMINGHAM, MI, 48009",69815426,"R"
188852,"370 E ROWLAND STREET","COVINA","CA",91723,34.078947742,-117.883953452,352,"370 E ROWLAND STREET, COVINA, CA, 91723","Match","Exact","370 E ROWLAND ST, COVINA, CA, 91723",141716148,"R"
188853,"370 E WALDO ST","GROVELAND","FL",34736,28.5549083110001,-81.855132437,353,"370 E WALDO ST, GROVELAND, FL, 34736","Match","Exact","370 E WALDO ST, GROVELAND, FL, 34736",94103745,"L"
188854,"370 EAST 76TH STREET APT B1008","NEW YORK","NY",10021,40.770611289,-73.954651067,354,"370 EAST 76TH STREET APT B1008, NEW YORK, NY, 10021","Match","Exact","370 E 76TH ST, NEW YORK, NY, 10021",650087080,"R"
188855,"370 EAST MAPLE ROAD FOURTH FLOOR","BIRMINGHAM","MI",48009,42.5467633390001,-83.211677181,355,"370 EAST MAPLE ROAD FOURTH FLOOR, BIRMINGHAM, MI, 48009","Match","Exact","370 E MAPLE RD, BIRMINGHAM, MI, 48009",69815426,"R"
188856,"370 EAST SUNSET ROAD","SAN ANTONIO","TX",78209,29.5072059400001,-98.459920328,356,"370 EAST SUNSET ROAD, SAN ANTONIO, TX, 78209","Match","Exact","370 E SUNSET RD, SAN ANTONIO, TX, 78209",101580405,"R"
188857,"370 FEATHERWOOD DR","CORNELIA","GA",30531,34.541105724,-83.559648098,357,"370 FEATHERWOOD DR, CORNELIA, GA, 30531","Match","Exact","370 FEATHERWOOD DR, CORNELIA, GA, 30531",41724305,"R"
188858,"370 FRANKLIN TPK","MAHWAH","NJ",7430,41.0852378270001,-74.141829856,358,"370 FRANKLIN TPK, MAHWAH, NJ, 7430","Match","Exact","370 FRANKLIN TPKE, MAHWAH, NJ, 07430",64442291,"L"
188859,"370 FREDERICK CIRCLE","FLINT","TX",75762,32.1888728860001,-95.3164459389999,359,"370 FREDERICK CIRCLE, FLINT, TX, 75762","Match","Exact","370 FREDERICK CIR, FLINT, TX, 75762",641518054,"L"
188860,"370 GOLF LINKS ROAD","MALVERN","AR",72104,34.2866034480001,-92.746560168,360,"370 GOLF LINKS ROAD, MALVERN, AR, 72104","Match","Exact","370 GOLF LINKS RD, MALVERN, AR, 72104",23910005,"R"
188861,"370 HAMILTON ST","COSTA MESA","CA",92627,33.6507963490001,-117.914743232,361,"370 HAMILTON ST, COSTA MESA, CA, 92627","Match","Exact","370 HAMILTON ST, COSTA MESA, CA, 92627",623785917,"R"
188862,"370 HAMSTEAD CT","ROSELLE","IL",60172,41.9760586950001,-88.113214507,362,"370 HAMSTEAD CT, ROSELLE, IL, 60172","Match","Exact","370 HAMSTEAD CT, ROSELLE, IL, 60172",112518586,"L"
188863,"370 HARLEM AVE","BRIDGEPORT","CT",6606,41.200487799,-73.2113638279999,363,"370 HARLEM AVE, BRIDGEPORT, CT, 6606","Match","Exact","370 HARLEM AVE, BRIDGEPORT, CT, 06606",3223133,"R"
188864,"370 HELMS RD","LABELLE","FL",33935,26.732411111,-81.432522061,364,"370 HELMS RD, LABELLE, FL, 33935","Match","Exact","370 HELMS RD, LABELLE, FL, 33935",647586975,"L"
188865,"370 HERITAGE LOOP DR","HUTTO","TX",78634,30.630022146,-97.545844673,365,"370 HERITAGE LOOP DR, HUTTO, TX, 78634","Match","Exact","370 HERITAGE LOOP, HUTTO, TX, 78634",126477305,"L"
188866,"370 HEXON RD","SELAH","WA",98942,46.7017463980001,-120.527679042,366,"370 HEXON RD, SELAH, WA, 98942","Match","Exact","370 HEXON RD, SELAH, WA, 98942",184941660,"L"
188867,"370 HIGHLAND AVENUE","SALEM","MA",1970,42.4985849920001,-70.92974438,367,"370 HIGHLAND AVENUE, SALEM, MA, 1970","Match","Exact","370 HIGHLAND AVE, SALEM, MA, 01970",86694292,"R"
188868,"370 JAMES STREET SUITE 201","NEW HAVEN","CT",6513,41.3135523650001,-72.903920695,368,"370 JAMES STREET SUITE 201, NEW HAVEN, CT, 6513","Match","Exact","370 JAMES ST, NEW HAVEN, CT, 06513",3703556,"L"
188869,"370 JON SCOTT DRIVE","ALPHARETTA","GA",30009,34.0653565430001,-84.2944368569999,369,"370 JON SCOTT DRIVE, ALPHARETTA, GA, 30009","Match","Exact","370 JON SCOTT DR, ALPHARETTA, GA, 30009",17352938,"L"
188870,"370 KLEIN AVE","VALLEJO","CA",94592,38.095400415,-122.276757414,370,"370 KLEIN AVE, VALLEJO, CA, 94592","Match","Exact","370 KLEIN AVE, VALLEJO, CA, 94592",627232972,"L"
188871,"370 LAKE TAHOE CT UNIT 201","ALTAMONTE SPRINGS","FL",32701,28.6580171270001,-81.378994091,371,"370 LAKE TAHOE CT UNIT 201, ALTAMONTE SPRINGS, FL, 32701","Match","Exact","370 LAKE TAHOE CT, ALTAMONTE SPRINGS, FL, 32701",93754020,"L"
188872,"370 LAKEWOOD DR","ASHDOWN","AR",71822,33.6760289220001,-94.112738388,372,"370 LAKEWOOD DR, ASHDOWN, AR, 71822","Match","Exact","370 LAKEWOOD DR, ASHDOWN, AR, 71822",84783128,"L"
188873,"370 LEXINGTON AVE APT 3B","BROOKLYN","NY",11216,40.688164172,-73.946668346,373,"370 LEXINGTON AVE APT 3B, BROOKLYN, NY, 11216","Match","Exact","370 LEXINGTON AVE, BROOKLYN, NY, 11216",59079160,"R"
188874,"370 LEXINGTON AVE SUITE 1000","NEW YORK","NY",10017,40.7506773220001,-73.9766144719999,374,"370 LEXINGTON AVE SUITE 1000, NEW YORK, NY, 10017","Match","Exact","370 LEXINGTON AVE, NEW YORK, NY, 10017",59662082,"L"
188875,"370 LEXINGTON AVE","CORTLAND","IL",60112,41.9073622060001,-88.6760739759999,375,"370 LEXINGTON AVE, CORTLAND, IL, 60112","Match","Exact","370 LEXINGTON AVE, CORTLAND, IL, 60112",635520925,"R"
188876,"370 LEXINGTON AVENUE 10FL STE 1001","NEW YORK","NY",10017,40.7506773220001,-73.9766144719999,376,"370 LEXINGTON AVENUE 10FL STE 1001, NEW YORK, NY, 10017","Match","Exact","370 LEXINGTON AVE, NEW YORK, NY, 10017",59662082,"L"
188877,"370 LIVINGSTON LANDING","CORDOVA","SC",29039,33.405919087,-80.869711013,377,"370 LIVINGSTON LANDING, CORDOVA, SC, 29039","Match","Non_Exact","370 LIVINGSTON LANDING RD, CORDOVA, SC, 29039",605531228,"R"
188878,"370 N MAIN STREET","LELAND","IL",60531,41.6173999700001,-88.799237692,378,"370 N MAIN STREET, LELAND, IL, 60531","Match","Exact","370 N MAIN ST, LELAND, IL, 60531",8601722,"L"
188879,"370 N STATE HWY 360 APT 3112","MANSFIELD","TX",76063,32.568382237,-97.082335347,379,"370 N STATE HWY 360 APT 3112, MANSFIELD, TX, 76063","Match","Exact","370 STATE HWY 360, MANSFIELD, TX, 76063",650123591,"R"
188880,"370 NAPLES RD","HARRISON","ME",4040,44.0832722530001,-70.673002283,380,"370 NAPLES RD, HARRISON, ME, 4040","Match","Exact","370 NAPLES RD, HARRISON, ME, 04040",78018466,"R"
188881,"370 NE CAMANO DRIVE","CAMANO ISLAND","WA",98282,48.2181789950001,-122.477462937,381,"370 NE CAMANO DRIVE, CAMANO ISLAND, WA, 98282","Match","Exact","370 NE CAMANO DR, CAMANO ISLAND, WA, 98282",187615409,"R"
188882,"370 NIX RD","MARSHALL","NC",28753,35.8051916590001,-82.675942554,382,"370 NIX RD, MARSHALL, NC, 28753","Match","Exact","370 NIX RD, MARSHALL, NC, 28753",653460773,"R"
188883,"370 NORH INTERCHANGE","DILLON","MT",59725,NA,NA,383,"370 NORH INTERCHANGE, DILLON, MT, 59725","No_Match",NA,NA,NA,NA
188884,"370 NORTH AVENUE","DUNELLEN","NJ",8812,40.590964382,-74.4644336819999,384,"370 NORTH AVENUE, DUNELLEN, NJ, 8812","Match","Exact","370 NORTH AVE, DUNELLEN, NJ, 08812",60259452,"R"
188885,"370 NORTH GRATIOT","CLINTON TOWNSHIP","MI",48036,42.6143459460001,-82.868873203,385,"370 NORTH GRATIOT, CLINTON TOWNSHIP, MI, 48036","Match","Non_Exact","370 N GRATIOT AVE, CLINTON TOWNSHIP, MI, 48036",110691534,"R"
188886,"370 NORTH VALLEY LANE","GREENWOOD","IN",46142,NA,NA,386,"370 NORTH VALLEY LANE, GREENWOOD, IN, 46142","No_Match",NA,NA,NA,NA
188887,"370 NORTHHSIDE DR NW SUITE 1421","ATLANTA","GA",30318,NA,NA,387,"370 NORTHHSIDE DR NW SUITE 1421, ATLANTA, GA, 30318","No_Match",NA,NA,NA,NA
188888,"370 NW 146TH DRIVE","NEWBERRY","FL",32669,29.657138472,-82.498838463,388,"370 NW 146TH DRIVE, NEWBERRY, FL, 32669","Match","Exact","370 NW 146TH DR, NEWBERRY, FL, 32669",6863862,"L"
188889,"370 OAKHAVEN WAY","VILLA RICA","GA",30180,33.713596769,-84.932101304,389,"370 OAKHAVEN WAY, VILLA RICA, GA, 30180","Match","Exact","370 OAKHAVEN WAY, VILLA RICA, GA, 30180",618916500,"L"
188890,"370 PROSPECT PLACE","ALPHARETTA","GA",30005,34.0608756600001,-84.2265586669999,390,"370 PROSPECT PLACE, ALPHARETTA, GA, 30005","Match","Exact","370 PROSPECT PL, ALPHARETTA, GA, 30005",618450130,"L"
188891,"370 RALSTON CREEK ST","CHARLESTON","SC",29492,32.870482259,-79.896699295,391,"370 RALSTON CREEK ST, CHARLESTON, SC, 29492","Match","Exact","370 RALSTON CREEK ST, CHARLESTON, SC, 29492",605137772,"L"
188892,"370 RANDY ROAD","CAROL STREAM","IL",60188,41.9067532070001,-88.107742984,392,"370 RANDY ROAD, CAROL STREAM, IL, 60188","Match","Exact","370 RANDY RD, CAROL STREAM, IL, 60188",112520110,"R"
188893,"370 RIVER RD","BOGOTA","NJ",7603,40.880000169,-74.032577308,393,"370 RIVER RD, BOGOTA, NJ, 7603","Match","Exact","370 RIVER RD, BOGOTA, NJ, 07603",64389118,"L"
188894,"370 ROYCROFT AVENUE","LONG BEACH","CA",90814,33.7704117820001,-118.138268919,394,"370 ROYCROFT AVENUE, LONG BEACH, CA, 90814","Match","Exact","370 ROYCROFT AVE, LONG BEACH, CA, 90814",141702329,"R"
188895,"370 S 300 E","SALT LAKE CITY","UT",84129,40.761324576,-111.882504169,395,"370 S 300 E, SALT LAKE CITY, UT, 84129","Match","Non_Exact","370 S 300 E, SLC, UT, 84111",176138539,"R"
188896,"370 S LOWE AVE STE A391","COOKEVILLE","TN",38501,36.154303047,-85.499456387,396,"370 S LOWE AVE STE A391, COOKEVILLE, TN, 38501","Match","Non_Exact","370 S LOWE AVE, COOKEVILLE, TN, 38501",615201328,"R"
188897,"370 S PARK ST","LYNDEN","WA",98264,48.9506972570001,-122.456270051,397,"370 S PARK ST, LYNDEN, WA, 98264","Match","Exact","370 S PARK ST, LYNDEN, WA, 98264",183779997,"R"
188898,"370 SOMERSET DRIVE","DALLAS","GA",30132,33.999857868,-84.768207677,398,"370 SOMERSET DRIVE, DALLAS, GA, 30132","Match","Exact","370 SOMERSET DR, DALLAS, GA, 30132",618963841,"R"
188899,"370 SOUTH LOWE AVENUE SUITE A230","COOKEVILLE","TN",38501,36.154337995,-85.499455274,399,"370 SOUTH LOWE AVENUE SUITE A230, COOKEVILLE, TN, 38501","Match","Exact","370 S LOWE AVE, COOKEVILLE, TN, 38501",615201328,"R"
188900,"370 SQUARE ROAD","ST. ALBANS","ME",4971,44.9076675790001,-69.337898993,400,"370 SQUARE ROAD, ST. ALBANS, ME, 4971","Match","Exact","370 SQUARE RD, SAINT ALBANS, ME, 04971",635598784,"L"
188901,"370 SUMMIT AVENUE","ST. PAUL","MN",55102,44.9427428710001,-93.115482411,401,"370 SUMMIT AVENUE, ST. PAUL, MN, 55102","Match","Exact","370 SUMMIT AVE, SAINT PAUL, MN, 55102",97647819,"L"
188902,"370 SYLVAN LAKE RD","HOPEWELL JUNCTION","NY",12533,41.605485506,-73.731303021,402,"370 SYLVAN LAKE RD, HOPEWELL JUNCTION, NY, 12533","Match","Exact","370 SYLVAN LAKE RD, HOPEWELL JCT, NY, 12533",4174863,"L"
188903,"370 VAN BUREN AVENUE APARTMENT 102","OAKLAND","CA",94610,37.8105913570001,-122.254408151,403,"370 VAN BUREN AVENUE APARTMENT 102, OAKLAND, CA, 94610","Match","Exact","370 VAN BUREN AVE, OAKLAND, CA, 94610",125000510,"L"
188904,"370 VIA PARAISO","MONTEREY","CA",93940,36.5887932630001,-121.906276848,404,"370 VIA PARAISO, MONTEREY, CA, 93940","Match","Exact","370 VIA PARAISO, MONTEREY, CA, 93940",196814887,"R"
188905,"370 VICTORIA BAY","ALAMEDA","CA",94502,37.7392642840001,-122.239157135,405,"370 VICTORIA BAY, ALAMEDA, CA, 94502","Match","Exact","370 VICTORIA BAY, ALAMEDA, CA, 94502",627322570,"L"
188906,"370 W SPRING STREET","SOUTH ELGIN","IL",60177,41.9949603150001,-88.2998098899999,406,"370 W SPRING STREET, SOUTH ELGIN, IL, 60177","Match","Exact","370 W SPRING ST, SOUTH ELGIN, IL, 60177",119503649,"R"
188907,"370 WALLACE RD APT G12","NASHVILLE","TN",37211,36.0784734600001,-86.722301564,407,"370 WALLACE RD APT G12, NASHVILLE, TN, 37211","Match","Exact","370 WALLACE RD, NASHVILLE, TN, 37211",97220073,"R"
188908,"370 WEST MAIN STREET","REXBURG","ID",83440,43.8260480810001,-111.794372182,408,"370 WEST MAIN STREET, REXBURG, ID, 83440","Match","Exact","370 W MAIN ST, REXBURG, ID, 83440",119090969,"R"
188909,"370 WILLS RUPARD ROAD","WINCHESTER","KY",40391,37.9284737,-84.078347073,409,"370 WILLS RUPARD ROAD, WINCHESTER, KY, 40391","Match","Exact","370 WILLS RUPARD RD, WINCHESTER, KY, 40391",31794397,"R"
188910,"370 WYNBROOK DRIVE","MCDONOUGH","GA",30253,33.4680200230001,-84.186337919,410,"370 WYNBROOK DRIVE, MCDONOUGH, GA, 30253","Match","Exact","370 WYNBROOK DR, MCDONOUGH, GA, 30253",210414239,"R"
188911,"3700 9TH STREET SE APT 1227","WASHINGTON","DC",20032,38.834883716,-76.9941740739999,411,"3700 9TH STREET SE APT 1227, WASHINGTON, DC, 20032","Match","Exact","3700 9TH ST SE, WASHINGTON, DC, 20032",76232370,"L"
188912,"3700 9TH STREET SE APT 313","WASHINGTON","DC",20032,38.834883716,-76.9941740739999,412,"3700 9TH STREET SE APT 313, WASHINGTON, DC, 20032","Match","Exact","3700 9TH ST SE, WASHINGTON, DC, 20032",76232370,"L"
188913,"3700 AMBROSE HILLS RD","FALLS CHURCH","VA",22041,38.843655325,-77.140823459,413,"3700 AMBROSE HILLS RD, FALLS CHURCH, VA, 22041","Match","Exact","3700 AMBROSE HILLS RD, FALLS CHURCH, VA, 22041",651943876,"L"
188914,"3700 APPLETON AVE","INDEPENDENCE","MO",64052,39.0552099110001,-94.45076575,414,"3700 APPLETON AVE, INDEPENDENCE, MO, 64052","Match","Exact","3700 APPLETON AVE, INDEPENDENCE, MO, 64052",91463214,"R"
188915,"3700 APPLING ROAD","BARTLETT","TN",38133,35.2264649480001,-89.807919096,415,"3700 APPLING ROAD, BARTLETT, TN, 38133","Match","Exact","3700 APPLING RD, BARTLETT, TN, 38133",607398409,"L"
188916,"3700 BRANT WAY","ANTIOCH","CA",94509,37.982879686,-121.848391531,416,"3700 BRANT WAY, ANTIOCH, CA, 94509","Match","Exact","3700 BRANT WAY, ANTIOCH, CA, 94509",192113836,"R"
188917,"3700 BRIARCLIFF TRACE","OWENSBORO","KY",42303,37.7349256790001,-87.0873906529999,417,"3700 BRIARCLIFF TRACE, OWENSBORO, KY, 42303","Match","Exact","3700 BRIARCLIFF TRCE, OWENSBORO, KY, 42303",37569142,"R"
188918,"3700 BROADMOOR COURT","VIRGINIA BEACH","VA",23452,36.8433114490001,-76.10294412,418,"3700 BROADMOOR COURT, VIRGINIA BEACH, VA, 23452","Match","Exact","3700 BROADMOOR CT, VA BCH, VA, 23452",122266621,"R"
188919,"3700 BROMM RD","EVANSVILLE","IN",47720,38.0904154830001,-87.615930396,419,"3700 BROMM RD, EVANSVILLE, IN, 47720","Match","Exact","3700 BROMM RD, EVANSVILLE, IN, 47720",636637518,"L"
188920,"3700 BUFFALO SPEEDWAY SUITE 420","HOUSTON","TX",77098,29.733009334,-95.428972287,420,"3700 BUFFALO SPEEDWAY SUITE 420, HOUSTON, TX, 77098","Match","Non_Exact","3700 BUFFALO SPEEDWAY, HOUSTON, TX, 77005",96062886,"R"
188921,"3700 BURNTWOOD COURT","CHARLOTTE","NC",28227,35.1841902090001,-80.719155415,421,"3700 BURNTWOOD COURT, CHARLOTTE, NC, 28227","Match","Exact","3700 BURNTWOOD CT, CHARLOTTE, NC, 28227",70504316,"R"
188922,"3700 BUTTERFIELD CROSSING DRIVE","CASTLE ROCK","CO",80109,39.4120871640001,-104.895425469,422,"3700 BUTTERFIELD CROSSING DRIVE, CASTLE ROCK, CO, 80109","Match","Exact","3700 BUTTERFIELD CROSSING DR, CASTLE ROCK, CO, 80109",130821456,"L"
188923,"3700 BUTTONWOOD COURT","HAMILTON","OH",45011,39.3908652740001,-84.493734146,423,"3700 BUTTONWOOD COURT, HAMILTON, OH, 45011","Match","Exact","3700 BUTTONWOOD CT, HAMILTON, OH, 45011",113808470,"L"
188924,"3700 CAMPFIELD ROAD","BALTIMORE","MD",21207,39.345743375,-76.7242082129999,424,"3700 CAMPFIELD ROAD, BALTIMORE, MD, 21207","Match","Exact","3700 CAMPFIELD RD, BALTIMORE, MD, 21207",191469242,"L"
188925,"3700 CAPITAL CIRCLE SE","TALLAHASSEE","FL",32311,30.398049864,-84.235138569,425,"3700 CAPITAL CIRCLE SE, TALLAHASSEE, FL, 32311","Match","Exact","3700 CAPITAL CIR SE, TALLAHASSEE, FL, 32311",653173890,"R"
188926,"3700 CASA VERDE STREET UNIT 2316","SAN JOSE","CA",95134,37.4130164320001,-121.939586679,426,"3700 CASA VERDE STREET UNIT 2316, SAN JOSE, CA, 95134","Match","Exact","3700 CASA VERDE ST, SAN JOSE, CA, 95134",646661949,"L"
188927,"3700 COGBILL ROAD","N CHESTERFIELD","VA",23234,37.4456394380001,-77.463394453,427,"3700 COGBILL ROAD, N CHESTERFIELD, VA, 23234","Match","Exact","3700 COGBILL RD, NORTH CHESTERFIELD, VA, 23234",201546819,"R"
188928,"3700 CRESTWOOD PKWY STE 1000","DULUTH","GA",30096,33.9466450740001,-84.12872261,428,"3700 CRESTWOOD PKWY STE 1000, DULUTH, GA, 30096","Match","Exact","3700 CRESTWOOD PKWY, DULUTH, GA, 30096",637987438,"L"
188929,"3700 CYPRESS SPRINGS PLACE","LOUISVILLE","KY",40245,38.2910973200001,-85.500250423,429,"3700 CYPRESS SPRINGS PLACE, LOUISVILLE, KY, 40245","Match","Exact","3700 CYPRESS SPRINGS PL, LOUISVILLE, KY, 40245",96885701,"R"
188930,"3700 DEL PASO ROAD","SACRAMENTO","CA",95834,38.655620227,-121.550603687,430,"3700 DEL PASO ROAD, SACRAMENTO, CA, 95834","Match","Exact","3700 DEL PASO RD, SACRAMENTO, CA, 95834",618064585,"L"
188931,"3700 E 16TH AVE","APACHE JUNCTION","AZ",85119,33.4005224490001,-111.507924236,431,"3700 E 16TH AVE, APACHE JUNCTION, AZ, 85119","Match","Exact","3700 E 16TH AVE, APACHE JUNCTION, AZ, 85119",129233481,"L"
188932,"3700 EXCALIBUR CT 101","BOWIE","MD",20716,38.9395335670001,-76.726597735,432,"3700 EXCALIBUR CT 101, BOWIE, MD, 20716","Match","Exact","3700 EXCALIBUR CT, BOWIE, MD, 20716",76399967,"L"
188933,"3700 FALLENTREE LN","CINCINNATI","OH",45236,39.2282542940001,-84.408703842,433,"3700 FALLENTREE LN, CINCINNATI, OH, 45236","Match","Exact","3700 FALLENTREE LN, CINCINNATI, OH, 45236",103949059,"L"
188934,"3700 FLATIRON COURT","GREENSBORO","NC",27406,36.0387547730001,-79.715646022,434,"3700 FLATIRON COURT, GREENSBORO, NC, 27406","Match","Exact","3700 FLATIRON CT, GREENSBORO, NC, 27406",131098888,"L"
188935,"3700 FOX STONE DR","RALEIGH","NC",27603,35.6763057470001,-78.709465187,435,"3700 FOX STONE DR, RALEIGH, NC, 27603","Match","Exact","3700 FOX STONE DR, RALEIGH, NC, 27603",72597916,"R"
188936,"3700 FRANKFORD AVENUE","BALTIMORE","MD",21206,39.3444565620001,-76.55475054,436,"3700 FRANKFORD AVENUE, BALTIMORE, MD, 21206","Match","Exact","3700 FRANKFORD AVE, BALTIMORE, MD, 21206",206411502,"L"
188937,"3700 FREDRICKSBURG RD SUITE 220","SAN ANTONIO","TX",78201,29.480545007,-98.5420310809999,437,"3700 FREDRICKSBURG RD SUITE 220, SAN ANTONIO, TX, 78201","Match","Non_Exact","3700 FREDERICKSBURG RD, SAN ANTONIO, TX, 78201",101512010,"R"
188938,"3700 GERBER DAIRY RD","WINTER HAVEN","FL",33880,27.9347402560001,-81.7544086199999,438,"3700 GERBER DAIRY RD, WINTER HAVEN, FL, 33880","Match","Exact","3700 GERBER DAIRY RD, WINTER HAVEN, FL, 33880",647093643,"R"
188939,"3700 H STREET","VANCOUVER","WA",98663,45.648022214,-122.663997099,439,"3700 H STREET, VANCOUVER, WA, 98663","Match","Exact","3700 H ST, VANCOUVER, WA, 98663",158325047,"L"
188940,"3700 HEMINGWAY DR","CHATTANOOGA","TN",37406,35.0529970700001,-85.2281200909999,440,"3700 HEMINGWAY DR, CHATTANOOGA, TN, 37406","Match","Exact","3700 HEMINGWAY DR, CHATTANOOGA, TN, 37406",59310776,"R"
188941,"3700 HEMINGWAY DRIVE","CHATTANOOGA","TN",37406,35.0529970700001,-85.2281200909999,441,"3700 HEMINGWAY DRIVE, CHATTANOOGA, TN, 37406","Match","Exact","3700 HEMINGWAY DR, CHATTANOOGA, TN, 37406",59310776,"R"
188942,"3700 INDEPENDENCE AVE","BRONX","NY",10460,40.88806329,-73.913139132,442,"3700 INDEPENDENCE AVE, BRONX, NY, 10460","Match","Non_Exact","3700 INDEPENDENCE AVE, BRONX, NY, 10463",80295904,"R"
188943,"3700 INDEPENDENCE AVE","BRONX","NY",10463,40.88806329,-73.913139132,443,"3700 INDEPENDENCE AVE, BRONX, NY, 10463","Match","Exact","3700 INDEPENDENCE AVE, BRONX, NY, 10463",80295904,"R"
188944,"3700 JAMES RIVER ROAD","MIDLOTHIAN","VA",23113,37.551614452,-77.648136387,444,"3700 JAMES RIVER ROAD, MIDLOTHIAN, VA, 23113","Match","Exact","3700 JAMES RIVER RD, MIDLOTHIAN, VA, 23113",201586674,"L"
188945,"3700 KATELLA AVENUE SUITE A","LOS ALAMITOS","CA",90720,NA,NA,445,"3700 KATELLA AVENUE SUITE A, LOS ALAMITOS, CA, 90720","No_Match",NA,NA,NA,NA
188946,"3700 LAKE WASHINGTON ROAD","MELBOURNE","FL",32934,28.14631151,-80.686186328,446,"3700 LAKE WASHINGTON ROAD, MELBOURNE, FL, 32934","Match","Exact","3700 LAKE WASHINGTON RD, MELBOURNE, FL, 32934",647526492,"R"
188947,"3700 LEGACY DR 23104","FRISCO","TX",75034,33.071654301,-96.763923452,447,"3700 LEGACY DR 23104, FRISCO, TX, 75034","Match","Exact","3700 LEGACY DR, FRISCO, TX, 75034",123485869,"L"
188948,"3700 LEGACY DR APT 4206","FRISCO","TX",75034,33.071654301,-96.763923452,448,"3700 LEGACY DR APT 4206, FRISCO, TX, 75034","Match","Exact","3700 LEGACY DR, FRISCO, TX, 75034",123485869,"L"
188949,"3700 LIBAL STREET","GREEN BAY","WI",54301,44.4548571070001,-88.0320940399999,449,"3700 LIBAL STREET, GREEN BAY, WI, 54301","Match","Exact","3700 LIBAL ST, GREEN BAY, WI, 54301",148101978,"R"
188950,"3700 MAPLESHADE LANE APT 2003","PLANO","TX",75075,33.0031387860001,-96.762404153,450,"3700 MAPLESHADE LANE APT 2003, PLANO, TX, 75075","Match","Exact","3700 MAPLESHADE LN, PLANO, TX, 75075",600642473,"R"
188951,"3700 MAPLESHADE LANE APT 2077","PLANO","TX",75075,33.0031387860001,-96.762404153,451,"3700 MAPLESHADE LANE APT 2077, PLANO, TX, 75075","Match","Exact","3700 MAPLESHADE LN, PLANO, TX, 75075",600642473,"R"
188952,"3700 MARKET STREET SUITE E1","CLARKSTON","GA",30021,33.8093106740001,-84.239388906,452,"3700 MARKET STREET SUITE E1, CLARKSTON, GA, 30021","Match","Exact","3700 MARKET ST, CLARKSTON, GA, 30021",23363087,"L"
188953,"3700 MIDAS AVENUE STE B3","ROCKLIN","CA",95677,NA,NA,453,"3700 MIDAS AVENUE STE B3, ROCKLIN, CA, 95677","No_Match",NA,NA,NA,NA
188954,"3700 MONTEREY DRIVE","ST LOUIS PARK","MN",55416,44.9377736210001,-93.340877995,454,"3700 MONTEREY DRIVE, ST LOUIS PARK, MN, 55416","Match","Exact","3700 MONTEREY DR, SAINT LOUIS PARK, MN, 55416",43626039,"R"
188955,"3700 MOUNT WASHINGTON ST","DALLAS","TX",75211,32.7433166810001,-96.879476246,455,"3700 MOUNT WASHINGTON ST, DALLAS, TX, 75211","Match","Exact","3700 MOUNT WASHINGTON ST, DALLAS, TX, 75211",102940046,"L"
188956,"3700 N 10TH ST STE 303","MCALLEN","TX",78501,26.236646813,-98.224368795,456,"3700 N 10TH ST STE 303, MCALLEN, TX, 78501","Match","Non_Exact","3700 N 10TH ST, MCALLEN, TX, 78501",71494846,"R"
188957,"3700 N 10TH ST SUITE 102","MCALLEN","TX",78501,26.236646813,-98.224368795,457,"3700 N 10TH ST SUITE 102, MCALLEN, TX, 78501","Match","Non_Exact","3700 N 10TH ST, MCALLEN, TX, 78501",71494846,"R"
188958,"3700 N CLASSEN BLVD","OKLAHOMA CITY","OK",73118,35.507864899,-97.534231587,458,"3700 N CLASSEN BLVD, OKLAHOMA CITY, OK, 73118","Match","Exact","3700 N CLASSEN BLVD, OKLAHOMA CITY, OK, 73118",100399850,"R"
188959,"3700 N COUNTRY CLUB RD","DUNCAN","OK",73533,34.5472435510001,-97.958139154,459,"3700 N COUNTRY CLUB RD, DUNCAN, OK, 73533","Match","Exact","3700 COUNTRY CLUB RD, DUNCAN, OK, 73533",13647798,"R"
188960,"3700 N HICKORY LN","OCONOMOWOC","WI",53066,43.087732515,-88.433943702,460,"3700 N HICKORY LN, OCONOMOWOC, WI, 53066","Match","Exact","3700 N HICKORY LN, OCONOMOWOC, WI, 53066",53807076,"R"
188961,"3700 N MAC","IRVING","TX",75062,NA,NA,461,"3700 N MAC, IRVING, TX, 75062","No_Match",NA,NA,NA,NA
188962,"3700 N ORIOLE AVENUE","CHICAGO","IL",60634,41.9467350480001,-87.816836576,462,"3700 N ORIOLE AVENUE, CHICAGO, IL, 60634","Match","Exact","3700 N ORIOLE AVE, CHICAGO, IL, 60634",605264404,"L"
188963,"3700 N SHANNON","BETHANY","OK",73008,35.507798737,-97.661655589,463,"3700 N SHANNON, BETHANY, OK, 73008","Match","Non_Exact","3700 N SHANNON AVE, BETHANY, OK, 73008",100389120,"R"
188964,"3700 NORTH CHESTNUT STREET","CHASKA","MN",55318,NA,NA,464,"3700 NORTH CHESTNUT STREET, CHASKA, MN, 55318","No_Match",NA,NA,NA,NA
188965,"3700 NORTH CLASSEN BLVD","OKLAHOMA CITY","OK",73118,35.507864899,-97.534231587,465,"3700 NORTH CLASSEN BLVD, OKLAHOMA CITY, OK, 73118","Match","Exact","3700 N CLASSEN BLVD, OKLAHOMA CITY, OK, 73118",100399850,"R"
188966,"3700 NORTHVIEW DRIVE","BOWIE","MD",20716,38.940823777,-76.7425085799999,466,"3700 NORTHVIEW DRIVE, BOWIE, MD, 20716","Match","Exact","3700 NORTHVIEW DR, BOWIE, MD, 20716",76399868,"L"
188967,"3700 NW 107TH TER SOUTH UNIT","CORAL SPIRNGS","FL",33065,NA,NA,467,"3700 NW 107TH TER SOUTH UNIT, CORAL SPIRNGS, FL, 33065","No_Match",NA,NA,NA,NA
188968,"3700 NW 23RD PLACE","COCONUT CREEK","FL",33066,26.2588260960001,-80.173961369,468,"3700 NW 23RD PLACE, COCONUT CREEK, FL, 33066","Match","Exact","3700 NW 23RD PL, COCONUT CREEK, FL, 33066",114791619,"R"
188969,"3700 OAKVIEW TERRACE NE","WASHINGTON","DC",20017,38.935258145,-76.9900394909999,469,"3700 OAKVIEW TERRACE NE, WASHINGTON, DC, 20017","Match","Exact","3700 OAKVIEW TER NE, WASHINGTON, DC, 20017",76228709,"L"
188970,"3700 OLD GREENBRIER PIKE 1807","SPRINGFIELD","TN",37172,36.482074298,-86.850490097,470,"3700 OLD GREENBRIER PIKE 1807, SPRINGFIELD, TN, 37172","Match","Non_Exact","3700 OLD GREENBRIER PIKE, SPRINGFIELD, TN, 37172",605279085,"R"
188971,"3700 ORLEANS AVE 5210","NEW ORLEANS","LA",70119,29.976788598,-90.0919401089999,471,"3700 ORLEANS AVE 5210, NEW ORLEANS, LA, 70119","Match","Exact","3700 ORLEANS AVE, NEW ORLEANS, LA, 70119",191752086,"L"
188972,"3700 ORLEANS AVE APT 5448","NEW ORLEANS","LA",70119,29.976788598,-90.0919401089999,472,"3700 ORLEANS AVE APT 5448, NEW ORLEANS, LA, 70119","Match","Exact","3700 ORLEANS AVE, NEW ORLEANS, LA, 70119",191752086,"L"
188973,"3700 OSUNA NE STE 505","ALBUQUERQUE","NM",87109,35.1538546240001,-106.603911172,473,"3700 OSUNA NE STE 505, ALBUQUERQUE, NM, 87109","Match","Non_Exact","3700 OSUNA RD NE, ALBUQUERQUE, NM, 87109",206739230,"R"
188974,"3700 PECOS MCCLEOD","LAS VEGAS","NV",89121,NA,NA,474,"3700 PECOS MCCLEOD, LAS VEGAS, NV, 89121","No_Match",NA,NA,NA,NA
188975,"3700 PENNINGTON AVE","CURTIS BAY","MD",21226,39.2313699270001,-76.589021773,475,"3700 PENNINGTON AVE, CURTIS BAY, MD, 21226","Match","Exact","3700 PENNINGTON AVE, CURTIS BAY, MD, 21226",206427103,"R"
188976,"3700 REXFORD DRIVE","MODESTO","CA",95356,37.692082913,-120.982937631,476,"3700 REXFORD DRIVE, MODESTO, CA, 95356","Match","Exact","3700 REXFORD DR, MODESTO, CA, 95356",102633338,"R"
188977,"3700 RIVER RIDGE DR NE","CEDAR RAPIDS","IA",52402,42.01569985,-91.6983743219999,477,"3700 RIVER RIDGE DR NE, CEDAR RAPIDS, IA, 52402","Match","Exact","3700 RIVER RIDGE DR NE, CEDAR RAPIDS, IA, 52402",17041579,"L"
188978,"3700 RIVERSIDE DR STE 413","COLUMBUS","OH",43221,40.028328828,-83.0914953829999,478,"3700 RIVERSIDE DR STE 413, COLUMBUS, OH, 43221","Match","Exact","3700 RIVERSIDE DR, COLUMBUS, OH, 43221",218691201,"R"
188979,"3700 ROSSMOOR BLVD","SILVER SPRING","MD",20906,NA,NA,479,"3700 ROSSMOOR BLVD, SILVER SPRING, MD, 20906","No_Match",NA,NA,NA,NA
188980,"3700 S ARIZONA AVE","CHANDLER","AZ",85248,33.253177056,-111.84134314,480,"3700 S ARIZONA AVE, CHANDLER, AZ, 85248","Match","Exact","3700 S ARIZONA AVE, CHANDLER, AZ, 85248",637148025,"L"
188981,"3700 S RUSSELL STE C1117","MISSOULA","MT",59801,NA,NA,481,"3700 S RUSSELL STE C1117, MISSOULA, MT, 59801","No_Match",NA,NA,NA,NA
188982,"3700 SAN LUCAS LN","DENTON","TX",76208,33.1733179760001,-97.07673289,482,"3700 SAN LUCAS LN, DENTON, TX, 76208","Match","Exact","3700 SAN LUCAS LN, DENTON, TX, 76208",646926485,"L"
188983,"3700 SE 25TH CT","DES MOINES","IA",50320,41.551072321,-93.568758765,483,"3700 SE 25TH CT, DES MOINES, IA, 50320","Match","Exact","3700 SE 25TH CT, DES MOINES, IA, 50320",65808885,"L"
188984,"3700 SHADY GROVE RD","CLARKSVILLE","TN",37043,36.468332225,-87.204996729,484,"3700 SHADY GROVE RD, CLARKSVILLE, TN, 37043","Match","Exact","3700 SHADY GROVE RD, CLARKSVILLE, TN, 37043",636665413,"L"
188985,"3700 SOUTH CARAWAY RD APT H7","JONESBORO","AR",72404,35.799313097,-90.678417893,485,"3700 SOUTH CARAWAY RD APT H7, JONESBORO, AR, 72404","Match","Exact","3700 S CARAWAY RD, JONESBORO, AR, 72404",46925203,"R"
188986,"3700 SOUTH WAVERLY SUITE D","LANSING","MI",48911,42.6949580890001,-84.603126351,486,"3700 SOUTH WAVERLY SUITE D, LANSING, MI, 48911","Match","Non_Exact","3700 S WAVERLY RD, LANSING, MI, 48911",12035863,"R"
188987,"3700 SOUTHWEST FWY","HOUSTON","TX",77027,NA,NA,487,"3700 SOUTHWEST FWY, HOUSTON, TX, 77027","No_Match",NA,NA,NA,NA
188988,"3700 SUNTREE CT UNIT 126","ARLINGTON","TX",76014,NA,NA,488,"3700 SUNTREE CT UNIT 126, ARLINGTON, TX, 76014","No_Match",NA,NA,NA,NA
188989,"3700 TWANA DRIVE APT 03","DES MOINES","IA",50310,41.6392164760001,-93.668822015,489,"3700 TWANA DRIVE APT 03, DES MOINES, IA, 50310","Match","Exact","3700 TWANA DR, DES MOINES, IA, 50310",65779163,"L"
188990,"3700 VALLEY VIEW LN","FARMERS BRANCH","TX",75244,NA,NA,490,"3700 VALLEY VIEW LN, FARMERS BRANCH, TX, 75244","No_Match",NA,NA,NA,NA
188991,"3700 W 103RD STREET","CHICAGO","IL",60655,41.706019805,-87.713762407,491,"3700 W 103RD STREET, CHICAGO, IL, 60655","Match","Exact","3700 W 103RD ST, CHICAGO, IL, 60655",639800758,"R"
188992,"3700 WATT AVENUE SUITE 8","SACRAMENTO","CA",95821,38.632539191,-121.382885941,492,"3700 WATT AVENUE SUITE 8, SACRAMENTO, CA, 95821","Match","Exact","3700 WATT AVE, SACRAMENTO, CA, 95821",635443169,"R"
188993,"3700 WEST 19TH AVE APARTMENT P3","STILLWATER","OK",74074,36.1014257580001,-97.108528629,493,"3700 WEST 19TH AVE APARTMENT P3, STILLWATER, OK, 74074","Match","Exact","3700 W 19TH AVE, STILLWATER, OK, 74074",166387156,"L"
188994,"3700 WEST I-40 SERVICE ROAD","OKLAHOMA CITY","OK",73108,NA,NA,494,"3700 WEST I-40 SERVICE ROAD, OKLAHOMA CITY, OK, 73108","No_Match",NA,NA,NA,NA
188995,"3700 WEST MUNGALL DRIVE APARTMENT 6","ANAHEIM","CA",92804,33.823273466,-118.013064482,495,"3700 WEST MUNGALL DRIVE APARTMENT 6, ANAHEIM, CA, 92804","Match","Exact","3700 W MUNGALL DR, ANAHEIM, CA, 92804",612201764,"L"
188996,"3700 WESTERN BLVD","RALEIGH","NC",27606,35.7850000820001,-78.687128032,496,"3700 WESTERN BLVD, RALEIGH, NC, 27606","Match","Exact","3700 WESTERN BLVD, RALEIGH, NC, 27606",72502850,"R"
188997,"3700 WILLIAMS DRIVE","MARIANNA","FL",32446,30.833933932,-85.174784871,497,"3700 WILLIAMS DRIVE, MARIANNA, FL, 32446","Match","Exact","3700 WILLIAMS DR, MARIANNA, FL, 32446",7180835,"R"
188998,"3700 WILSHIRE BLVD SUITE 645","LOS ANGELES","CA",90010,34.0617016460001,-118.306689389,498,"3700 WILSHIRE BLVD SUITE 645, LOS ANGELES, CA, 90010","Match","Exact","3700 WILSHIRE BLVD, LOS ANGELES, CA, 90010",141603836,"L"
188999,"37000 GRAND RIVER SUITE 300","FARMINGTON HILLS","MI",48335,42.468666118,-83.4134519199999,499,"37000 GRAND RIVER SUITE 300, FARMINGTON HILLS, MI, 48335","Match","Non_Exact","37000 GRAND RIVER AVE, FARMINGTON HILLS, MI, 48335",69724244,"R"
189000,"37000 WOODWARD AVENUE SUITE 300","BLOOMFIELD HILLS","MI",48304,42.562044207,-83.225327942,500,"37000 WOODWARD AVENUE SUITE 300, BLOOMFIELD HILLS, MI, 48304","Match","Exact","37000 WOODWARD AVE, BLOOMFIELD HILLS, MI, 48304",69815330,"L"
