"ID","Address","City","State","Zip","lat","long","id","input_address","match_indicator","match_type","matched_address","tiger_line_id","tiger_side"
329001,"PO  BOX 106","EUTAW","AL",35462,NA,NA,1,"PO  BOX 106, EUTAW, AL, 35462","No_Match",NA,NA,NA,NA
329002,"PO  BOX 107","MIDLAND","TX",79702,NA,NA,2,"PO  BOX 107, MIDLAND, TX, 79702","No_Match",NA,NA,NA,NA
329003,"PO  BOX 1156","HEALDSBURG","CA",95448,NA,NA,3,"PO  BOX 1156, HEALDSBURG, CA, 95448","No_Match",NA,NA,NA,NA
329004,"PO  BOX 12424","JACKSONVILLE","FL",32209,NA,NA,4,"PO  BOX 12424, JACKSONVILLE, FL, 32209","No_Match",NA,NA,NA,NA
329005,"PO  BOX 1355","NORTH CONWAY","NH",3860,NA,NA,5,"PO  BOX 1355, NORTH CONWAY, NH, 3860","No_Match",NA,NA,NA,NA
329006,"PO  BOX 14-3940","MIAMI","FL",33134,NA,NA,6,"PO  BOX 14-3940, MIAMI, FL, 33134","No_Match",NA,NA,NA,NA
329007,"PO  BOX 14655","DETROIT","MI",48214,NA,NA,7,"PO  BOX 14655, DETROIT, MI, 48214","No_Match",NA,NA,NA,NA
329008,"PO  BOX 1481","MISSOULA","MT",59806,NA,NA,8,"PO  BOX 1481, MISSOULA, MT, 59806","No_Match",NA,NA,NA,NA
329009,"PO  BOX 170","PALM CITY","FL",34991,NA,NA,9,"PO  BOX 170, PALM CITY, FL, 34991","No_Match",NA,NA,NA,NA
329010,"PO  BOX 171","IRONWOOD","MI",49938,NA,NA,10,"PO  BOX 171, IRONWOOD, MI, 49938","No_Match",NA,NA,NA,NA
329011,"PO  BOX 17102","DENVER","CO",80217,NA,NA,11,"PO  BOX 17102, DENVER, CO, 80217","No_Match",NA,NA,NA,NA
329012,"PO  BOX 1924","BETHEL","ME",4271,NA,NA,12,"PO  BOX 1924, BETHEL, ME, 4271","No_Match",NA,NA,NA,NA
329013,"PO  BOX 193","JESUP","GA",31598,NA,NA,13,"PO  BOX 193, JESUP, GA, 31598","No_Match",NA,NA,NA,NA
329014,"PO  BOX 19382","CHICAGO","IL",60619,NA,NA,14,"PO  BOX 19382, CHICAGO, IL, 60619","No_Match",NA,NA,NA,NA
329015,"PO  BOX 194","LEAKEY","TX",78873,NA,NA,15,"PO  BOX 194, LEAKEY, TX, 78873","No_Match",NA,NA,NA,NA
329016,"PO  BOX 19409","CHICAGO","IL",60619,NA,NA,16,"PO  BOX 19409, CHICAGO, IL, 60619","No_Match",NA,NA,NA,NA
329017,"PO  BOX 1978","DOUGLASVILLE","GA",30133,NA,NA,17,"PO  BOX 1978, DOUGLASVILLE, GA, 30133","No_Match",NA,NA,NA,NA
329018,"PO  BOX 201108","SAN ANTONIO","TX",78220,NA,NA,18,"PO  BOX 201108, SAN ANTONIO, TX, 78220","No_Match",NA,NA,NA,NA
329019,"PO  BOX 2202","CYPRESS","CA",90630,NA,NA,19,"PO  BOX 2202, CYPRESS, CA, 90630","No_Match",NA,NA,NA,NA
329020,"PO  BOX 2231","WALDPORT","OR",97376,NA,NA,20,"PO  BOX 2231, WALDPORT, OR, 97376","No_Match",NA,NA,NA,NA
329021,"PO  BOX 230662","CENTREVILLE","VA",20120,NA,NA,21,"PO  BOX 230662, CENTREVILLE, VA, 20120","No_Match",NA,NA,NA,NA
329022,"PO  BOX 231","CASTLEROCK","CO",80104,NA,NA,22,"PO  BOX 231, CASTLEROCK, CO, 80104","No_Match",NA,NA,NA,NA
329023,"PO  BOX 232","MABLETON","GA",30126,NA,NA,23,"PO  BOX 232, MABLETON, GA, 30126","No_Match",NA,NA,NA,NA
329024,"PO  BOX 237","KINGSVILLE","MD",21087,NA,NA,24,"PO  BOX 237, KINGSVILLE, MD, 21087","No_Match",NA,NA,NA,NA
329025,"PO  BOX 243","FLOSSMOOR","IL",60422,NA,NA,25,"PO  BOX 243, FLOSSMOOR, IL, 60422","No_Match",NA,NA,NA,NA
329026,"PO  BOX 252","MONTGOMERY","NY",12549,NA,NA,26,"PO  BOX 252, MONTGOMERY, NY, 12549","No_Match",NA,NA,NA,NA
329027,"PO  BOX 2622 EAST SIDE STATION","PROVIDENCE","RI",2906,NA,NA,27,"PO  BOX 2622 EAST SIDE STATION, PROVIDENCE, RI, 2906","No_Match",NA,NA,NA,NA
329028,"PO  BOX 268","MILL RIVER","MA",1244,NA,NA,28,"PO  BOX 268, MILL RIVER, MA, 1244","No_Match",NA,NA,NA,NA
329029,"PO  BOX 2735","BETHEL","AK",99559,NA,NA,29,"PO  BOX 2735, BETHEL, AK, 99559","No_Match",NA,NA,NA,NA
329030,"PO  BOX 28","FREDERICKTOWN","OH",43019,NA,NA,30,"PO  BOX 28, FREDERICKTOWN, OH, 43019","No_Match",NA,NA,NA,NA
329031,"PO  BOX 29253","HENRICO","VA",23242,NA,NA,31,"PO  BOX 29253, HENRICO, VA, 23242","No_Match",NA,NA,NA,NA
329032,"PO  BOX 310628","HOUSTON","TX",77231,NA,NA,32,"PO  BOX 310628, HOUSTON, TX, 77231","No_Match",NA,NA,NA,NA
329033,"PO  BOX 331252","HOUSTON","TX",77233,NA,NA,33,"PO  BOX 331252, HOUSTON, TX, 77233","No_Match",NA,NA,NA,NA
329034,"PO  BOX 37","GREENFIELD","OH",45123,NA,NA,34,"PO  BOX 37, GREENFIELD, OH, 45123","No_Match",NA,NA,NA,NA
329035,"PO  BOX 374","PALACIOS","TX",77465,NA,NA,35,"PO  BOX 374, PALACIOS, TX, 77465","No_Match",NA,NA,NA,NA
329036,"PO  BOX 392","WESTFIELD","NY",14787,NA,NA,36,"PO  BOX 392, WESTFIELD, NY, 14787","No_Match",NA,NA,NA,NA
329037,"PO  BOX 4021","MADISON","CT",6443,NA,NA,37,"PO  BOX 4021, MADISON, CT, 6443","No_Match",NA,NA,NA,NA
329038,"PO  BOX 4061","WHITEFISH","MT",59937,NA,NA,38,"PO  BOX 4061, WHITEFISH, MT, 59937","No_Match",NA,NA,NA,NA
329039,"PO  BOX 42104","LAS VEGAS","NV",89116,NA,NA,39,"PO  BOX 42104, LAS VEGAS, NV, 89116","No_Match",NA,NA,NA,NA
329040,"PO  BOX 422","HEATHSVILLE","VA",22473,NA,NA,40,"PO  BOX 422, HEATHSVILLE, VA, 22473","No_Match",NA,NA,NA,NA
329041,"PO  BOX 43","BROOKVILLE","IN",47012,NA,NA,41,"PO  BOX 43, BROOKVILLE, IN, 47012","No_Match",NA,NA,NA,NA
329042,"PO  BOX 4324","EL CENTRO","CA",92244,NA,NA,42,"PO  BOX 4324, EL CENTRO, CA, 92244","No_Match",NA,NA,NA,NA
329043,"PO  BOX 45","BOHEMIA","NY",11716,NA,NA,43,"PO  BOX 45, BOHEMIA, NY, 11716","No_Match",NA,NA,NA,NA
329044,"PO  BOX 458","HAGERMAN","ID",83332,NA,NA,44,"PO  BOX 458, HAGERMAN, ID, 83332","No_Match",NA,NA,NA,NA
329045,"PO  BOX 471","FALLS CITY","TX",78113,NA,NA,45,"PO  BOX 471, FALLS CITY, TX, 78113","No_Match",NA,NA,NA,NA
329046,"PO  BOX 48","PALO ALTO","CA",94304,NA,NA,46,"PO  BOX 48, PALO ALTO, CA, 94304","No_Match",NA,NA,NA,NA
329047,"PO  BOX 49327","CHARLOTTE","NC",28277,NA,NA,47,"PO  BOX 49327, CHARLOTTE, NC, 28277","No_Match",NA,NA,NA,NA
329048,"PO  BOX 50604","ATLANTA","GA",30302,NA,NA,48,"PO  BOX 50604, ATLANTA, GA, 30302","No_Match",NA,NA,NA,NA
329049,"PO  BOX 51361","BOSTON","MA",2215,NA,NA,49,"PO  BOX 51361, BOSTON, MA, 2215","No_Match",NA,NA,NA,NA
329050,"PO  BOX 5137","BERGENFIELD","NJ",7621,NA,NA,50,"PO  BOX 5137, BERGENFIELD, NJ, 7621","No_Match",NA,NA,NA,NA
329051,"PO  BOX 535","CHANNELVIEW","TX",77530,NA,NA,51,"PO  BOX 535, CHANNELVIEW, TX, 77530","No_Match",NA,NA,NA,NA
329052,"PO  BOX 5552","YEADON","PA",19050,NA,NA,52,"PO  BOX 5552, YEADON, PA, 19050","No_Match",NA,NA,NA,NA
329053,"PO  BOX 562","AROMAS","CA",95004,NA,NA,53,"PO  BOX 562, AROMAS, CA, 95004","No_Match",NA,NA,NA,NA
329054,"PO  BOX 5661","SOMERSET","NJ",8875,NA,NA,54,"PO  BOX 5661, SOMERSET, NJ, 8875","No_Match",NA,NA,NA,NA
329055,"PO  BOX 573","HAMPDEN","ME",4444,NA,NA,55,"PO  BOX 573, HAMPDEN, ME, 4444","No_Match",NA,NA,NA,NA
329056,"PO  BOX 577","SCOTTSVILLE","VA",24590,NA,NA,56,"PO  BOX 577, SCOTTSVILLE, VA, 24590","No_Match",NA,NA,NA,NA
329057,"PO  BOX 60142","WASHINGTON","DC",20039,NA,NA,57,"PO  BOX 60142, WASHINGTON, DC, 20039","No_Match",NA,NA,NA,NA
329058,"PO  BOX 612","TULIA","TX",79088,NA,NA,58,"PO  BOX 612, TULIA, TX, 79088","No_Match",NA,NA,NA,NA
329059,"PO  BOX 637","NORTHFIELD","NJ",8225,NA,NA,59,"PO  BOX 637, NORTHFIELD, NJ, 8225","No_Match",NA,NA,NA,NA
329060,"PO  BOX 64333","SUNNYVALE","CA",94088,NA,NA,60,"PO  BOX 64333, SUNNYVALE, CA, 94088","No_Match",NA,NA,NA,NA
329061,"PO  BOX 65","MINEOLA","TX",75773,NA,NA,61,"PO  BOX 65, MINEOLA, TX, 75773","No_Match",NA,NA,NA,NA
329062,"PO  BOX 683","DADE CITY","FL",33526,NA,NA,62,"PO  BOX 683, DADE CITY, FL, 33526","No_Match",NA,NA,NA,NA
329063,"PO  BOX 7","DELAVAN","WI",53115,NA,NA,63,"PO  BOX 7, DELAVAN, WI, 53115","No_Match",NA,NA,NA,NA
329064,"PO  BOX 70","GLENWOOD","IL",60425,NA,NA,64,"PO  BOX 70, GLENWOOD, IL, 60425","No_Match",NA,NA,NA,NA
329065,"PO  BOX 707","GAMBRILLS","MD",21054,NA,NA,65,"PO  BOX 707, GAMBRILLS, MD, 21054","No_Match",NA,NA,NA,NA
329066,"PO  BOX 7121","GOODYEAR","AZ",85338,NA,NA,66,"PO  BOX 7121, GOODYEAR, AZ, 85338","No_Match",NA,NA,NA,NA
329067,"PO  BOX 718","CANDOR","NY",13743,NA,NA,67,"PO  BOX 718, CANDOR, NY, 13743","No_Match",NA,NA,NA,NA
329068,"PO  BOX 76026","SAINT PETERSBURG","FL",33734,NA,NA,68,"PO  BOX 76026, SAINT PETERSBURG, FL, 33734","No_Match",NA,NA,NA,NA
329069,"PO  BOX 785","HUDSON","NY",12534,NA,NA,69,"PO  BOX 785, HUDSON, NY, 12534","No_Match",NA,NA,NA,NA
329070,"PO  BOX 814","BELLE CHASSE","LA",70037,NA,NA,70,"PO  BOX 814, BELLE CHASSE, LA, 70037","No_Match",NA,NA,NA,NA
329071,"PO  BOX 815","LA PORTE","TX",77572,NA,NA,71,"PO  BOX 815, LA PORTE, TX, 77572","No_Match",NA,NA,NA,NA
329072,"PO  BOX 82","CALUMET","MI",49913,NA,NA,72,"PO  BOX 82, CALUMET, MI, 49913","No_Match",NA,NA,NA,NA
329073,"PO  BOX 82144","LAS  VEGAS","NV",89117,NA,NA,73,"PO  BOX 82144, LAS  VEGAS, NV, 89117","No_Match",NA,NA,NA,NA
329074,"PO  BOX 83","SHALLOTTE","NC",28459,NA,NA,74,"PO  BOX 83, SHALLOTTE, NC, 28459","No_Match",NA,NA,NA,NA
329075,"PO  BOX 834","AUBURN","NY",13021,NA,NA,75,"PO  BOX 834, AUBURN, NY, 13021","No_Match",NA,NA,NA,NA
329076,"PO  BOX 895","RACINE","OH",45771,NA,NA,76,"PO  BOX 895, RACINE, OH, 45771","No_Match",NA,NA,NA,NA
329077,"PO  BOX 9715","SPOKANE","WA",99209,NA,NA,77,"PO  BOX 9715, SPOKANE, WA, 99209","No_Match",NA,NA,NA,NA
329078,"PO  BOX 973","CELINA","TX",75009,NA,NA,78,"PO  BOX 973, CELINA, TX, 75009","No_Match",NA,NA,NA,NA
329079,"PO  BOX 976","NORTH KINGSTOWN","RI",2852,NA,NA,79,"PO  BOX 976, NORTH KINGSTOWN, RI, 2852","No_Match",NA,NA,NA,NA
329080,"PO  BOX 998292","PAGO PAGO","AS",96799,NA,NA,80,"PO  BOX 998292, PAGO PAGO, AS, 96799","No_Match",NA,NA,NA,NA
329081,"PO /BOX 833","NEWARK","OH",43058,NA,NA,81,"PO /BOX 833, NEWARK, OH, 43058","No_Match",NA,NA,NA,NA
329082,"PO 1018","PINE LAKE","GA",30072,NA,NA,82,"PO 1018, PINE LAKE, GA, 30072","No_Match",NA,NA,NA,NA
329083,"PO 102","BANGOR","MI",49013,NA,NA,83,"PO 102, BANGOR, MI, 49013","No_Match",NA,NA,NA,NA
329084,"PO 103 - NEW LEBANON","NEW LEBANON","OH",45345,NA,NA,84,"PO 103 - NEW LEBANON, NEW LEBANON, OH, 45345","No_Match",NA,NA,NA,NA
329085,"PO 104","BROOKLINE","NH",3033,NA,NA,85,"PO 104, BROOKLINE, NH, 3033","No_Match",NA,NA,NA,NA
329086,"PO 1294","WEST POINT","MS",39773,NA,NA,86,"PO 1294, WEST POINT, MS, 39773","No_Match",NA,NA,NA,NA
329087,"PO 1328","GRANTS PASS","OR",97528,NA,NA,87,"PO 1328, GRANTS PASS, OR, 97528","No_Match",NA,NA,NA,NA
329088,"PO 1405","SANTA CRUZ","CA",95061,NA,NA,88,"PO 1405, SANTA CRUZ, CA, 95061","No_Match",NA,NA,NA,NA
329089,"PO 141","LACKEY","VT",23694,NA,NA,89,"PO 141, LACKEY, VT, 23694","No_Match",NA,NA,NA,NA
329090,"PO 143","UNION","MO",63084,NA,NA,90,"PO 143, UNION, MO, 63084","No_Match",NA,NA,NA,NA
329091,"PO 1495","LAKE CITY","SC",29560,NA,NA,91,"PO 1495, LAKE CITY, SC, 29560","No_Match",NA,NA,NA,NA
329092,"PO 150384","GRAND RAPIDS","MI",49515,NA,NA,92,"PO 150384, GRAND RAPIDS, MI, 49515","No_Match",NA,NA,NA,NA
329093,"PO 154","VILAS","NC",28692,NA,NA,93,"PO 154, VILAS, NC, 28692","No_Match",NA,NA,NA,NA
329094,"PO 158","MADILL","OK",73446,NA,NA,94,"PO 158, MADILL, OK, 73446","No_Match",NA,NA,NA,NA
329095,"PO 165","GLOUCESTER POINT","VA",23602,NA,NA,95,"PO 165, GLOUCESTER POINT, VA, 23602","No_Match",NA,NA,NA,NA
329096,"PO 166","ROCKLIN","CA",95677,NA,NA,96,"PO 166, ROCKLIN, CA, 95677","No_Match",NA,NA,NA,NA
329097,"PO 169","MACON","GA",31202,NA,NA,97,"PO 169, MACON, GA, 31202","No_Match",NA,NA,NA,NA
329098,"PO 171","KENT","OH",44240,NA,NA,98,"PO 171, KENT, OH, 44240","No_Match",NA,NA,NA,NA
329099,"PO 17323","RENO","NV",89511,NA,NA,99,"PO 17323, RENO, NV, 89511","No_Match",NA,NA,NA,NA
329100,"PO 1830","TROY","OH",45373,NA,NA,100,"PO 1830, TROY, OH, 45373","No_Match",NA,NA,NA,NA
329101,"PO 185","POLAND","NY",13431,NA,NA,101,"PO 185, POLAND, NY, 13431","No_Match",NA,NA,NA,NA
329102,"PO 1851","GREEN BAY","WI",54305,NA,NA,102,"PO 1851, GREEN BAY, WI, 54305","No_Match",NA,NA,NA,NA
329103,"PO 1880","CHILLICOTHE","OH",45601,NA,NA,103,"PO 1880, CHILLICOTHE, OH, 45601","No_Match",NA,NA,NA,NA
329104,"PO 1888","CARMICHAEL","CA",95609,NA,NA,104,"PO 1888, CARMICHAEL, CA, 95609","No_Match",NA,NA,NA,NA
329105,"PO 2029","MONTGOMERY","TX",77356,NA,NA,105,"PO 2029, MONTGOMERY, TX, 77356","No_Match",NA,NA,NA,NA
329106,"PO 2033 2605 CAMINO TASSAJARA","DANVILLE","CA",94526,NA,NA,106,"PO 2033 2605 CAMINO TASSAJARA, DANVILLE, CA, 94526","No_Match",NA,NA,NA,NA
329107,"PO 2072","NEPTUNE CITY","NJ",7754,NA,NA,107,"PO 2072, NEPTUNE CITY, NJ, 7754","No_Match",NA,NA,NA,NA
329108,"PO 21100","TULSA","OK",74121,NA,NA,108,"PO 21100, TULSA, OK, 74121","No_Match",NA,NA,NA,NA
329109,"PO 212","WESTPORT","IN",47283,NA,NA,109,"PO 212, WESTPORT, IN, 47283","No_Match",NA,NA,NA,NA
329110,"PO 2147","MISSOURI CITY","TX",77459,NA,NA,110,"PO 2147, MISSOURI CITY, TX, 77459","No_Match",NA,NA,NA,NA
329111,"PO 217","LISBON","IA",52253,NA,NA,111,"PO 217, LISBON, IA, 52253","No_Match",NA,NA,NA,NA
329112,"PO 2312","MALTA","NY",12020,NA,NA,112,"PO 2312, MALTA, NY, 12020","No_Match",NA,NA,NA,NA
329113,"PO 241","FAYETTE","MS",39069,NA,NA,113,"PO 241, FAYETTE, MS, 39069","No_Match",NA,NA,NA,NA
329114,"PO 2506","VENTURA","CA",93002,NA,NA,114,"PO 2506, VENTURA, CA, 93002","No_Match",NA,NA,NA,NA
329115,"PO 255","MARYLHURST","OR",97036,NA,NA,115,"PO 255, MARYLHURST, OR, 97036","No_Match",NA,NA,NA,NA
329116,"PO 26396","CHARLOTTE","NC",28221,NA,NA,116,"PO 26396, CHARLOTTE, NC, 28221","No_Match",NA,NA,NA,NA
329117,"PO 26761","FEDERAAL WAY","WA",98093,NA,NA,117,"PO 26761, FEDERAAL WAY, WA, 98093","No_Match",NA,NA,NA,NA
329118,"PO 27162","GREENVILLE","SC",29616,NA,NA,118,"PO 27162, GREENVILLE, SC, 29616","No_Match",NA,NA,NA,NA
329119,"PO 28351","AUSTIN","TX",78755,NA,NA,119,"PO 28351, AUSTIN, TX, 78755","No_Match",NA,NA,NA,NA
329120,"PO 301","GRAHAM","NC",27253,NA,NA,120,"PO 301, GRAHAM, NC, 27253","No_Match",NA,NA,NA,NA
329121,"PO 30864","CORPUS CHRISTI","TX",78463,NA,NA,121,"PO 30864, CORPUS CHRISTI, TX, 78463","No_Match",NA,NA,NA,NA
329122,"PO 3114","VALLEJO","CA",94590,NA,NA,122,"PO 3114, VALLEJO, CA, 94590","No_Match",NA,NA,NA,NA
329123,"PO 321","RUCKERSVILLE","VA",22968,NA,NA,123,"PO 321, RUCKERSVILLE, VA, 22968","No_Match",NA,NA,NA,NA
329124,"PO 336","MANCHESTER","IA",52057,NA,NA,124,"PO 336, MANCHESTER, IA, 52057","No_Match",NA,NA,NA,NA
329125,"PO 353","SPOKANE VALLEY","WA",99016,NA,NA,125,"PO 353, SPOKANE VALLEY, WA, 99016","No_Match",NA,NA,NA,NA
329126,"PO 373","FORT DICK","CA",95538,NA,NA,126,"PO 373, FORT DICK, CA, 95538","No_Match",NA,NA,NA,NA
329127,"PO 381","RIVERVIEW","FL",33568,NA,NA,127,"PO 381, RIVERVIEW, FL, 33568","No_Match",NA,NA,NA,NA
329128,"PO 400438","CHARLOTTESVILLE","VA",22903,NA,NA,128,"PO 400438, CHARLOTTESVILLE, VA, 22903","No_Match",NA,NA,NA,NA
329129,"PO 405","BELLEVILLE","WI",53508,NA,NA,129,"PO 405, BELLEVILLE, WI, 53508","No_Match",NA,NA,NA,NA
329130,"PO 412","DUNSMUIR","CA",96025,NA,NA,130,"PO 412, DUNSMUIR, CA, 96025","No_Match",NA,NA,NA,NA
329131,"PO 434","LA CONNER","WA",98257,NA,NA,131,"PO 434, LA CONNER, WA, 98257","No_Match",NA,NA,NA,NA
329132,"PO 4531","AKRON","OH",44310,NA,NA,132,"PO 4531, AKRON, OH, 44310","No_Match",NA,NA,NA,NA
329133,"PO 4569","EAGLE","CO",81631,NA,NA,133,"PO 4569, EAGLE, CO, 81631","No_Match",NA,NA,NA,NA
329134,"PO 465","BERKELEY SPRINGS","WV",25411,NA,NA,134,"PO 465, BERKELEY SPRINGS, WV, 25411","No_Match",NA,NA,NA,NA
329135,"PO 470236","CELEBRATION","FL",34747,NA,NA,135,"PO 470236, CELEBRATION, FL, 34747","No_Match",NA,NA,NA,NA
329136,"PO 480616","CHARLOTTE","NC",28269,NA,NA,136,"PO 480616, CHARLOTTE, NC, 28269","No_Match",NA,NA,NA,NA
329137,"PO 51791","LIVONIA","MI",48151,NA,NA,137,"PO 51791, LIVONIA, MI, 48151","No_Match",NA,NA,NA,NA
329138,"PO 527","FISHERS","IN",46038,NA,NA,138,"PO 527, FISHERS, IN, 46038","No_Match",NA,NA,NA,NA
329139,"PO 542","CANTON","TX",75103,NA,NA,139,"PO 542, CANTON, TX, 75103","No_Match",NA,NA,NA,NA
329140,"PO 5487","AIKEN","SC",29804,NA,NA,140,"PO 5487, AIKEN, SC, 29804","No_Match",NA,NA,NA,NA
329141,"PO 56","HAMILTON","MO",64644,NA,NA,141,"PO 56, HAMILTON, MO, 64644","No_Match",NA,NA,NA,NA
329142,"PO 56","TENAKEE SPRINGS","AK",99841,NA,NA,142,"PO 56, TENAKEE SPRINGS, AK, 99841","No_Match",NA,NA,NA,NA
329143,"PO 5621","LANSING","IL",60438,NA,NA,143,"PO 5621, LANSING, IL, 60438","No_Match",NA,NA,NA,NA
329144,"PO 5646","CONCORD","NC",28027,NA,NA,144,"PO 5646, CONCORD, NC, 28027","No_Match",NA,NA,NA,NA
329145,"PO 576688","MODESTO","CA",95357,NA,NA,145,"PO 576688, MODESTO, CA, 95357","No_Match",NA,NA,NA,NA
329146,"PO 581","PITTSFIELD","ME",4967,NA,NA,146,"PO 581, PITTSFIELD, ME, 4967","No_Match",NA,NA,NA,NA
329147,"PO 601","JACKSBORO","TX",76458,NA,NA,147,"PO 601, JACKSBORO, TX, 76458","No_Match",NA,NA,NA,NA
329148,"PO 601832","MIAMI","FL",33160,NA,NA,148,"PO 601832, MIAMI, FL, 33160","No_Match",NA,NA,NA,NA
329149,"PO 6032","SAGINAW","MI",48608,NA,NA,149,"PO 6032, SAGINAW, MI, 48608","No_Match",NA,NA,NA,NA
329150,"PO 624","FROSTBURG","MD",21532,NA,NA,150,"PO 624, FROSTBURG, MD, 21532","No_Match",NA,NA,NA,NA
329151,"PO 6259","DENVER","CO",80206,NA,NA,151,"PO 6259, DENVER, CO, 80206","No_Match",NA,NA,NA,NA
329152,"PO 660214","LIHUE","HI",96766,NA,NA,152,"PO 660214, LIHUE, HI, 96766","No_Match",NA,NA,NA,NA
329153,"PO 671343","MARIETTA","GA",30066,NA,NA,153,"PO 671343, MARIETTA, GA, 30066","No_Match",NA,NA,NA,NA
329154,"PO 672414","HOUSTON","TX",77267,NA,NA,154,"PO 672414, HOUSTON, TX, 77267","No_Match",NA,NA,NA,NA
329155,"PO 718","BRECKENRIDGE","CO",80424,NA,NA,155,"PO 718, BRECKENRIDGE, CO, 80424","No_Match",NA,NA,NA,NA
329156,"PO 732","MUSKEGO","WI",53150,NA,NA,156,"PO 732, MUSKEGO, WI, 53150","No_Match",NA,NA,NA,NA
329157,"PO 750","CANYONVILLE","OR",97417,NA,NA,157,"PO 750, CANYONVILLE, OR, 97417","No_Match",NA,NA,NA,NA
329158,"PO 7816","NORFOLK","VA",23509,NA,NA,158,"PO 7816, NORFOLK, VA, 23509","No_Match",NA,NA,NA,NA
329159,"PO 789","HIGH SPRINGS","FL",32655,NA,NA,159,"PO 789, HIGH SPRINGS, FL, 32655","No_Match",NA,NA,NA,NA
329160,"PO 798","KEENE VALLEY","NY",12943,NA,NA,160,"PO 798, KEENE VALLEY, NY, 12943","No_Match",NA,NA,NA,NA
329161,"PO 8013","BLOOMFIELD","MI",48302,NA,NA,161,"PO 8013, BLOOMFIELD, MI, 48302","No_Match",NA,NA,NA,NA
329162,"PO 813689","SMYRNA","GA",30081,NA,NA,162,"PO 813689, SMYRNA, GA, 30081","No_Match",NA,NA,NA,NA
329163,"PO 836","RICHTON PARK","IL",60471,NA,NA,163,"PO 836, RICHTON PARK, IL, 60471","No_Match",NA,NA,NA,NA
329164,"PO 8411","JACKSON","WY",83002,NA,NA,164,"PO 8411, JACKSON, WY, 83002","No_Match",NA,NA,NA,NA
329165,"PO 850046","MESQUITE","TX",75185,NA,NA,165,"PO 850046, MESQUITE, TX, 75185","No_Match",NA,NA,NA,NA
329166,"PO 862","OWATONNA","MN",55060,NA,NA,166,"PO 862, OWATONNA, MN, 55060","No_Match",NA,NA,NA,NA
329167,"PO 8776","LEXINGTON","KY",40533,NA,NA,167,"PO 8776, LEXINGTON, KY, 40533","No_Match",NA,NA,NA,NA
329168,"PO 880","LAVALETTE","WV",25701,NA,NA,168,"PO 880, LAVALETTE, WV, 25701","No_Match",NA,NA,NA,NA
329169,"PO 886 1901 INDUSTRIAL DRIVE","FINDLAY","OH",45839,41.066728203,-83.61302297,169,"PO 886 1901 INDUSTRIAL DRIVE, FINDLAY, OH, 45839","Match","Non_Exact","1901 INDUSTRIAL DR, FINDLAY, OH, 45840",36473646,"R"
329170,"PO 888","COLUMBIA","TN",38402,NA,NA,170,"PO 888, COLUMBIA, TN, 38402","No_Match",NA,NA,NA,NA
329171,"PO 9088","GREENVILLE","TX",75404,NA,NA,171,"PO 9088, GREENVILLE, TX, 75404","No_Match",NA,NA,NA,NA
329172,"PO 91655","ALBUQUERQUE","NM",87199,NA,NA,172,"PO 91655, ALBUQUERQUE, NM, 87199","No_Match",NA,NA,NA,NA
329173,"PO 9367","NAPERVILLE","IL",60657,NA,NA,173,"PO 9367, NAPERVILLE, IL, 60657","No_Match",NA,NA,NA,NA
329174,"PO 94132","PASADENA","CA",91109,NA,NA,174,"PO 94132, PASADENA, CA, 91109","No_Match",NA,NA,NA,NA
329175,"PO 976","ASHLAND","WI",54806,NA,NA,175,"PO 976, ASHLAND, WI, 54806","No_Match",NA,NA,NA,NA
329176,"PO 9871","WILMINGTON","DE",19809,NA,NA,176,"PO 9871, WILMINGTON, DE, 19809","No_Match",NA,NA,NA,NA
329177,"PO 996","CHANNELVIEW","TX",77530,NA,NA,177,"PO 996, CHANNELVIEW, TX, 77530","No_Match",NA,NA,NA,NA
329178,"PO B OX 1296","DELTA JUNCTION","AK",99737,NA,NA,178,"PO B OX 1296, DELTA JUNCTION, AK, 99737","No_Match",NA,NA,NA,NA
329179,"PO B OX 63","BASEHOR","KS",66007,NA,NA,179,"PO B OX 63, BASEHOR, KS, 66007","No_Match",NA,NA,NA,NA
329180,"PO B","MONTGOMERYVILLE","PA",18936,NA,NA,180,"PO B, MONTGOMERYVILLE, PA, 18936","No_Match",NA,NA,NA,NA
329181,"PO BIX 459491","ATLANTA","GA",31145,NA,NA,181,"PO BIX 459491, ATLANTA, GA, 31145","No_Match",NA,NA,NA,NA
329182,"PO BO 1021","EXETER","CA",93221,NA,NA,182,"PO BO 1021, EXETER, CA, 93221","No_Match",NA,NA,NA,NA
329183,"PO BO 200601","AUSTIN","TX",78720,NA,NA,183,"PO BO 200601, AUSTIN, TX, 78720","No_Match",NA,NA,NA,NA
329184,"PO BO 41065","DES MOINES","IA",50311,NA,NA,184,"PO BO 41065, DES MOINES, IA, 50311","No_Match",NA,NA,NA,NA
329185,"PO BO 505","PATASKALA","OH",43062,NA,NA,185,"PO BO 505, PATASKALA, OH, 43062","No_Match",NA,NA,NA,NA
329186,"PO BO 514","PARSHALL","ND",58770,NA,NA,186,"PO BO 514, PARSHALL, ND, 58770","No_Match",NA,NA,NA,NA
329187,"PO BO 550671","JACKSONVILLE","FL",32255,NA,NA,187,"PO BO 550671, JACKSONVILLE, FL, 32255","No_Match",NA,NA,NA,NA
329188,"PO BO 6075","WOLCOTT","CT",6716,NA,NA,188,"PO BO 6075, WOLCOTT, CT, 6716","No_Match",NA,NA,NA,NA
329189,"PO BOC 3264","BUTTE","MT",59702,NA,NA,189,"PO BOC 3264, BUTTE, MT, 59702","No_Match",NA,NA,NA,NA
329190,"PO BOS 344","HIGHLAND PARK","IL",60035,NA,NA,190,"PO BOS 344, HIGHLAND PARK, IL, 60035","No_Match",NA,NA,NA,NA
329191,"PO BOX   110894","NASHVILLE","TN",37222,NA,NA,191,"PO BOX   110894, NASHVILLE, TN, 37222","No_Match",NA,NA,NA,NA
329192,"PO BOX  10962","GREENSBORO","NC",27404,NA,NA,192,"PO BOX  10962, GREENSBORO, NC, 27404","No_Match",NA,NA,NA,NA
329193,"PO BOX  11212","MILWAUKEE","WI",53211,NA,NA,193,"PO BOX  11212, MILWAUKEE, WI, 53211","No_Match",NA,NA,NA,NA
329194,"PO BOX  1134","SANFORD","FL",32772,NA,NA,194,"PO BOX  1134, SANFORD, FL, 32772","No_Match",NA,NA,NA,NA
329195,"PO BOX  11938","PORTLAND","OR",97211,NA,NA,195,"PO BOX  11938, PORTLAND, OR, 97211","No_Match",NA,NA,NA,NA
329196,"PO BOX  1441","MARINA","CA",93933,NA,NA,196,"PO BOX  1441, MARINA, CA, 93933","No_Match",NA,NA,NA,NA
329197,"PO BOX  153144","IRVING","TX",75015,NA,NA,197,"PO BOX  153144, IRVING, TX, 75015","No_Match",NA,NA,NA,NA
329198,"PO BOX  1532","LAKE STEVENS","WA",98291,NA,NA,198,"PO BOX  1532, LAKE STEVENS, WA, 98291","No_Match",NA,NA,NA,NA
329199,"PO BOX  15474","HUMBLE","TX",77347,NA,NA,199,"PO BOX  15474, HUMBLE, TX, 77347","No_Match",NA,NA,NA,NA
329200,"PO BOX  15602","SAVANNAH","GA",31416,NA,NA,200,"PO BOX  15602, SAVANNAH, GA, 31416","No_Match",NA,NA,NA,NA
329201,"PO BOX  17304","LITTLE ROCK","AR",72222,NA,NA,201,"PO BOX  17304, LITTLE ROCK, AR, 72222","No_Match",NA,NA,NA,NA
329202,"PO BOX  176","RICHWOOD","OH",43344,NA,NA,202,"PO BOX  176, RICHWOOD, OH, 43344","No_Match",NA,NA,NA,NA
329203,"PO BOX  1785","HENDERSON","NC",27536,NA,NA,203,"PO BOX  1785, HENDERSON, NC, 27536","No_Match",NA,NA,NA,NA
329204,"PO BOX  200733","SAN ANTONIO","TX",78220,NA,NA,204,"PO BOX  200733, SAN ANTONIO, TX, 78220","No_Match",NA,NA,NA,NA
329205,"PO BOX  2096","FREMONT","NE",68026,NA,NA,205,"PO BOX  2096, FREMONT, NE, 68026","No_Match",NA,NA,NA,NA
329206,"PO BOX  2207","ROCK SPRINGS","WY",82902,NA,NA,206,"PO BOX  2207, ROCK SPRINGS, WY, 82902","No_Match",NA,NA,NA,NA
329207,"PO BOX  231","RICHMOND","VA",23228,NA,NA,207,"PO BOX  231, RICHMOND, VA, 23228","No_Match",NA,NA,NA,NA
329208,"PO BOX  251361","PLANO","TX",75025,NA,NA,208,"PO BOX  251361, PLANO, TX, 75025","No_Match",NA,NA,NA,NA
329209,"PO BOX  252","PAGO PAGO","AS",96799,NA,NA,209,"PO BOX  252, PAGO PAGO, AS, 96799","No_Match",NA,NA,NA,NA
329210,"PO BOX  2646","TELLURIDE","CO",81321,NA,NA,210,"PO BOX  2646, TELLURIDE, CO, 81321","No_Match",NA,NA,NA,NA
329211,"PO BOX  302","STONINGTON","CT",6378,NA,NA,211,"PO BOX  302, STONINGTON, CT, 6378","No_Match",NA,NA,NA,NA
329212,"PO BOX  308","OSWEGO","IL",60543,NA,NA,212,"PO BOX  308, OSWEGO, IL, 60543","No_Match",NA,NA,NA,NA
329213,"PO BOX  3251","LAKE JACKSON","TX",77566,NA,NA,213,"PO BOX  3251, LAKE JACKSON, TX, 77566","No_Match",NA,NA,NA,NA
329214,"PO BOX  33475","CHARLOTTE","NC",28233,NA,NA,214,"PO BOX  33475, CHARLOTTE, NC, 28233","No_Match",NA,NA,NA,NA
329215,"PO BOX  3448","EAST ST LOUIS","IL",62203,NA,NA,215,"PO BOX  3448, EAST ST LOUIS, IL, 62203","No_Match",NA,NA,NA,NA
329216,"PO BOX  388","JULIAETTA","ID",83535,NA,NA,216,"PO BOX  388, JULIAETTA, ID, 83535","No_Match",NA,NA,NA,NA
329217,"PO BOX  41","URICH","MO",64788,NA,NA,217,"PO BOX  41, URICH, MO, 64788","No_Match",NA,NA,NA,NA
329218,"PO BOX  4146","BATTLE CREEK","MI",49015,NA,NA,218,"PO BOX  4146, BATTLE CREEK, MI, 49015","No_Match",NA,NA,NA,NA
329219,"PO BOX  426","DECATUR","MS",39327,NA,NA,219,"PO BOX  426, DECATUR, MS, 39327","No_Match",NA,NA,NA,NA
329220,"PO BOX  428537","CINCINNATI","OH",45242,NA,NA,220,"PO BOX  428537, CINCINNATI, OH, 45242","No_Match",NA,NA,NA,NA
329221,"PO BOX  43","BROWNS MILLS","NJ",8015,NA,NA,221,"PO BOX  43, BROWNS MILLS, NJ, 8015","No_Match",NA,NA,NA,NA
329222,"PO BOX  4486","AUSTIN","TX",78765,NA,NA,222,"PO BOX  4486, AUSTIN, TX, 78765","No_Match",NA,NA,NA,NA
329223,"PO BOX  450431","ATLANTA","GA",31145,NA,NA,223,"PO BOX  450431, ATLANTA, GA, 31145","No_Match",NA,NA,NA,NA
329224,"PO BOX  464","CLOVERDALE","VA",24077,NA,NA,224,"PO BOX  464, CLOVERDALE, VA, 24077","No_Match",NA,NA,NA,NA
329225,"PO BOX  467","ELKTON","VA",22827,NA,NA,225,"PO BOX  467, ELKTON, VA, 22827","No_Match",NA,NA,NA,NA
329226,"PO BOX  487","ABERDEEN","MD",21001,NA,NA,226,"PO BOX  487, ABERDEEN, MD, 21001","No_Match",NA,NA,NA,NA
329227,"PO BOX  493","MARION","MA",2738,NA,NA,227,"PO BOX  493, MARION, MA, 2738","No_Match",NA,NA,NA,NA
329228,"PO BOX  50844","MOBILE","AL",36605,NA,NA,228,"PO BOX  50844, MOBILE, AL, 36605","No_Match",NA,NA,NA,NA
329229,"PO BOX  51","EAST STROUDSBURG","PA",18301,NA,NA,229,"PO BOX  51, EAST STROUDSBURG, PA, 18301","No_Match",NA,NA,NA,NA
329230,"PO BOX  515","WILSON","WY",83014,NA,NA,230,"PO BOX  515, WILSON, WY, 83014","No_Match",NA,NA,NA,NA
329231,"PO BOX  5303","GREENWICH","CT",6831,NA,NA,231,"PO BOX  5303, GREENWICH, CT, 6831","No_Match",NA,NA,NA,NA
329232,"PO BOX  5631","KINGSPORT","TN",37663,NA,NA,232,"PO BOX  5631, KINGSPORT, TN, 37663","No_Match",NA,NA,NA,NA
329233,"PO BOX  570","CRAIGSVILLE","WV",26205,NA,NA,233,"PO BOX  570, CRAIGSVILLE, WV, 26205","No_Match",NA,NA,NA,NA
329234,"PO BOX  570372","TARZANA","CA",91357,NA,NA,234,"PO BOX  570372, TARZANA, CA, 91357","No_Match",NA,NA,NA,NA
329235,"PO BOX  60424 209 EAST JAVA DR","SUNNVALE","CA",94089,37.4116188670001,-122.017351046,235,"PO BOX  60424 209 EAST JAVA DR, SUNNVALE, CA, 94089","Match","Non_Exact","209 E JAVA DR, SUNNYVALE, CA, 94089",122956829,"L"
329236,"PO BOX  6483","MOHAVE VALLEY","AZ",86440,NA,NA,236,"PO BOX  6483, MOHAVE VALLEY, AZ, 86440","No_Match",NA,NA,NA,NA
329237,"PO BOX  662","OZONE PARK","NY",11417,NA,NA,237,"PO BOX  662, OZONE PARK, NY, 11417","No_Match",NA,NA,NA,NA
329238,"PO BOX  666","SANDSTON","VA",23150,NA,NA,238,"PO BOX  666, SANDSTON, VA, 23150","No_Match",NA,NA,NA,NA
329239,"PO BOX  720811","ORLANDO","FL",32822,NA,NA,239,"PO BOX  720811, ORLANDO, FL, 32822","No_Match",NA,NA,NA,NA
329240,"PO BOX  731032","ELMHURST","NY",11373,NA,NA,240,"PO BOX  731032, ELMHURST, NY, 11373","No_Match",NA,NA,NA,NA
329241,"PO BOX  764","COLUMBIA","KY",42728,NA,NA,241,"PO BOX  764, COLUMBIA, KY, 42728","No_Match",NA,NA,NA,NA
329242,"PO BOX  859","ACTON","MA",1720,NA,NA,242,"PO BOX  859, ACTON, MA, 1720","No_Match",NA,NA,NA,NA
329243,"PO BOX  924","CASTLE ROCK","CO",80104,NA,NA,243,"PO BOX  924, CASTLE ROCK, CO, 80104","No_Match",NA,NA,NA,NA
329244,"PO BOX  933","FRANKLINTON","NC",27525,NA,NA,244,"PO BOX  933, FRANKLINTON, NC, 27525","No_Match",NA,NA,NA,NA
329245,"PO BOX  939","MILL VALLEY","CA",94942,NA,NA,245,"PO BOX  939, MILL VALLEY, CA, 94942","No_Match",NA,NA,NA,NA
329246,"PO BOX  9616","NAPERVILLE","IL",60567,NA,NA,246,"PO BOX  9616, NAPERVILLE, IL, 60567","No_Match",NA,NA,NA,NA
329247,"PO BOX  979","SILER CITY","NC",27344,NA,NA,247,"PO BOX  979, SILER CITY, NC, 27344","No_Match",NA,NA,NA,NA
329248,"PO BOX - 1079","SOUTH WINDSOR","CT",6074,NA,NA,248,"PO BOX - 1079, SOUTH WINDSOR, CT, 6074","No_Match",NA,NA,NA,NA
329249,"PO BOX 0037","VALLEY FORGE","PA",19481,NA,NA,249,"PO BOX 0037, VALLEY FORGE, PA, 19481","No_Match",NA,NA,NA,NA
329250,"PO BOX 0176","WYNCOTE","PA",19095,NA,NA,250,"PO BOX 0176, WYNCOTE, PA, 19095","No_Match",NA,NA,NA,NA
329251,"PO BOX 0182","BARRINGTON","IL",60011,NA,NA,251,"PO BOX 0182, BARRINGTON, IL, 60011","No_Match",NA,NA,NA,NA
329252,"PO BOX 033395","JUNEAU","AK",99803,NA,NA,252,"PO BOX 033395, JUNEAU, AK, 99803","No_Match",NA,NA,NA,NA
329253,"PO BOX 0335","NEW PRAGUE","MN",56071,NA,NA,253,"PO BOX 0335, NEW PRAGUE, MN, 56071","No_Match",NA,NA,NA,NA
329254,"PO BOX 05","FOX","AR",72051,NA,NA,254,"PO BOX 05, FOX, AR, 72051","No_Match",NA,NA,NA,NA
329255,"PO BOX 0573","KAHULUI","HI",96733,NA,NA,255,"PO BOX 0573, KAHULUI, HI, 96733","No_Match",NA,NA,NA,NA
329256,"PO BOX 06 / HC 32 BOX 216","MT. JUDEA","AR",72655,NA,NA,256,"PO BOX 06 / HC 32 BOX 216, MT. JUDEA, AR, 72655","No_Match",NA,NA,NA,NA
329257,"PO BOX 060357","PALM BAY","FL",32906,NA,NA,257,"PO BOX 060357, PALM BAY, FL, 32906","No_Match",NA,NA,NA,NA
329258,"PO BOX 06085","CHICAGO","IL",60606,NA,NA,258,"PO BOX 06085, CHICAGO, IL, 60606","No_Match",NA,NA,NA,NA
329259,"PO BOX 06365","COLUMBUS","OH",43206,NA,NA,259,"PO BOX 06365, COLUMBUS, OH, 43206","No_Match",NA,NA,NA,NA
329260,"PO BOX 06538","COLUMBUS","OH",43206,NA,NA,260,"PO BOX 06538, COLUMBUS, OH, 43206","No_Match",NA,NA,NA,NA
329261,"PO BOX 0666","DALTON","GA",30722,NA,NA,261,"PO BOX 0666, DALTON, GA, 30722","No_Match",NA,NA,NA,NA
329262,"PO BOX 071","SAUSALITO","CA",94966,NA,NA,262,"PO BOX 071, SAUSALITO, CA, 94966","No_Match",NA,NA,NA,NA
329263,"PO BOX 07104","MILWAUKEE","WI",53207,NA,NA,263,"PO BOX 07104, MILWAUKEE, WI, 53207","No_Match",NA,NA,NA,NA
329264,"PO BOX 080731","RACINE","WI",53408,NA,NA,264,"PO BOX 080731, RACINE, WI, 53408","No_Match",NA,NA,NA,NA
329265,"PO BOX 0832 1200 WILLIAM ST","BUFFALO","NY",14240,42.884876896,-78.826814011,265,"PO BOX 0832 1200 WILLIAM ST, BUFFALO, NY, 14240","Match","Non_Exact","1200 WILLIAM ST, BUFFALO, NY, 14206",639748352,"L"
329266,"PO BOX 085286","RACINE","WI",53408,NA,NA,266,"PO BOX 085286, RACINE, WI, 53408","No_Match",NA,NA,NA,NA
329267,"PO BOX 085454","RACINE","WI",53403,NA,NA,267,"PO BOX 085454, RACINE, WI, 53403","No_Match",NA,NA,NA,NA
329268,"PO BOX 085922","RACINE","WI",53408,NA,NA,268,"PO BOX 085922, RACINE, WI, 53408","No_Match",NA,NA,NA,NA
329269,"PO BOX 0867","CEDAR HILL","TX",75106,NA,NA,269,"PO BOX 0867, CEDAR HILL, TX, 75106","No_Match",NA,NA,NA,NA
329270,"PO BOX 090109","MILWAUKEE","WI",53209,NA,NA,270,"PO BOX 090109, MILWAUKEE, WI, 53209","No_Match",NA,NA,NA,NA
329271,"PO BOX 0964","EAGLE","CO",81631,NA,NA,271,"PO BOX 0964, EAGLE, CO, 81631","No_Match",NA,NA,NA,NA
329272,"PO BOX 0984","VILLA RICA","GA",30180,NA,NA,272,"PO BOX 0984, VILLA RICA, GA, 30180","No_Match",NA,NA,NA,NA
329273,"PO BOX 1        426 SPARKS DRIVE","GRANADA","MN",56039,43.7000812570001,-94.3412830519999,273,"PO BOX 1        426 SPARKS DRIVE, GRANADA, MN, 56039","Match","Exact","426 SPARKS DR, GRANADA, MN, 56039",9977334,"L"
329274,"PO BOX 1  10432 HWY 1","JENNER","CA",95450,NA,NA,274,"PO BOX 1  10432 HWY 1, JENNER, CA, 95450","No_Match",NA,NA,NA,NA
329275,"PO BOX 1  S105 W37570 ESTATES DR","EAGLE","WI",53119,NA,NA,275,"PO BOX 1  S105 W37570 ESTATES DR, EAGLE, WI, 53119","Tie",NA,NA,NA,NA
329276,"PO BOX 1 10432 HWY 1","JENNER","CA",95450,NA,NA,276,"PO BOX 1 10432 HWY 1, JENNER, CA, 95450","No_Match",NA,NA,NA,NA
329277,"PO BOX 1","ALBANY","OH",45710,NA,NA,277,"PO BOX 1, ALBANY, OH, 45710","No_Match",NA,NA,NA,NA
329278,"PO BOX 1","ALBURTIS","PA",18011,NA,NA,278,"PO BOX 1, ALBURTIS, PA, 18011","No_Match",NA,NA,NA,NA
329279,"PO BOX 1","ALEDO","IL",61231,NA,NA,279,"PO BOX 1, ALEDO, IL, 61231","No_Match",NA,NA,NA,NA
329280,"PO BOX 1","ALTOONA","WI",54720,NA,NA,280,"PO BOX 1, ALTOONA, WI, 54720","No_Match",NA,NA,NA,NA
329281,"PO BOX 1","ANGELICA","NY",14709,NA,NA,281,"PO BOX 1, ANGELICA, NY, 14709","No_Match",NA,NA,NA,NA
329282,"PO BOX 1","ATHENS","WI",54411,NA,NA,282,"PO BOX 1, ATHENS, WI, 54411","No_Match",NA,NA,NA,NA
329283,"PO BOX 1","BOGARD","MO",64622,NA,NA,283,"PO BOX 1, BOGARD, MO, 64622","No_Match",NA,NA,NA,NA
329284,"PO BOX 1","BUDE","MS",39630,NA,NA,284,"PO BOX 1, BUDE, MS, 39630","No_Match",NA,NA,NA,NA
329285,"PO BOX 1","CANTWELL","AK",99729,NA,NA,285,"PO BOX 1, CANTWELL, AK, 99729","No_Match",NA,NA,NA,NA
329286,"PO BOX 1","CHATFIELD","TX",75105,NA,NA,286,"PO BOX 1, CHATFIELD, TX, 75105","No_Match",NA,NA,NA,NA
329287,"PO BOX 1","CINEBAR","WA",98533,NA,NA,287,"PO BOX 1, CINEBAR, WA, 98533","No_Match",NA,NA,NA,NA
329288,"PO BOX 1","CLINTON CORNERS","NY",12514,NA,NA,288,"PO BOX 1, CLINTON CORNERS, NY, 12514","No_Match",NA,NA,NA,NA
329289,"PO BOX 1","COLUMBIA","NJ",7832,NA,NA,289,"PO BOX 1, COLUMBIA, NJ, 7832","No_Match",NA,NA,NA,NA
329290,"PO BOX 1","CORY","IN",47846,NA,NA,290,"PO BOX 1, CORY, IN, 47846","No_Match",NA,NA,NA,NA
329291,"PO BOX 1","DAYTON","MN",55327,NA,NA,291,"PO BOX 1, DAYTON, MN, 55327","No_Match",NA,NA,NA,NA
329292,"PO BOX 1","DURAND","WI",54736,NA,NA,292,"PO BOX 1, DURAND, WI, 54736","No_Match",NA,NA,NA,NA
329293,"PO BOX 1","EMINENCE","MO",65466,NA,NA,293,"PO BOX 1, EMINENCE, MO, 65466","No_Match",NA,NA,NA,NA
329294,"PO BOX 1","EVADALE","TX",77615,NA,NA,294,"PO BOX 1, EVADALE, TX, 77615","No_Match",NA,NA,NA,NA
329295,"PO BOX 1","FISHER","PA",16225,NA,NA,295,"PO BOX 1, FISHER, PA, 16225","No_Match",NA,NA,NA,NA
329296,"PO BOX 1","FORT COLLINS","CO",80522,NA,NA,296,"PO BOX 1, FORT COLLINS, CO, 80522","No_Match",NA,NA,NA,NA
329297,"PO BOX 1","FRANKLIN","VT",5457,NA,NA,297,"PO BOX 1, FRANKLIN, VT, 5457","No_Match",NA,NA,NA,NA
329298,"PO BOX 1","FREMONT","NE",68026,NA,NA,298,"PO BOX 1, FREMONT, NE, 68026","No_Match",NA,NA,NA,NA
329299,"PO BOX 1","FRUITLAND PARK","FL",34731,NA,NA,299,"PO BOX 1, FRUITLAND PARK, FL, 34731","No_Match",NA,NA,NA,NA
329300,"PO BOX 1","GERMANTOWN","WI",53022,NA,NA,300,"PO BOX 1, GERMANTOWN, WI, 53022","No_Match",NA,NA,NA,NA
329301,"PO BOX 1","GOLDFIELD","IA",50542,NA,NA,301,"PO BOX 1, GOLDFIELD, IA, 50542","No_Match",NA,NA,NA,NA
329302,"PO BOX 1","GRANADA","MN",56039,NA,NA,302,"PO BOX 1, GRANADA, MN, 56039","No_Match",NA,NA,NA,NA
329303,"PO BOX 1","HARRINGTON PARK","NJ",7640,NA,NA,303,"PO BOX 1, HARRINGTON PARK, NJ, 7640","No_Match",NA,NA,NA,NA
329304,"PO BOX 1","HASBROUCK HEIGHTS","NJ",7604,NA,NA,304,"PO BOX 1, HASBROUCK HEIGHTS, NJ, 7604","No_Match",NA,NA,NA,NA
329305,"PO BOX 1","HINCKLEY","ME",4944,NA,NA,305,"PO BOX 1, HINCKLEY, ME, 4944","No_Match",NA,NA,NA,NA
329306,"PO BOX 1","JORDAN","MN",55352,NA,NA,306,"PO BOX 1, JORDAN, MN, 55352","No_Match",NA,NA,NA,NA
329307,"PO BOX 1","LA FERIA","TX",78559,NA,NA,307,"PO BOX 1, LA FERIA, TX, 78559","No_Match",NA,NA,NA,NA
329308,"PO BOX 1","LA JOYA","TX",78560,NA,NA,308,"PO BOX 1, LA JOYA, TX, 78560","No_Match",NA,NA,NA,NA
329309,"PO BOX 1","LOPEZ ISLAND","WA",98261,NA,NA,309,"PO BOX 1, LOPEZ ISLAND, WA, 98261","No_Match",NA,NA,NA,NA
329310,"PO BOX 1","LOWELL","VT",5847,NA,NA,310,"PO BOX 1, LOWELL, VT, 5847","No_Match",NA,NA,NA,NA
329311,"PO BOX 1","MACKINAC ISLAND","MI",49757,NA,NA,311,"PO BOX 1, MACKINAC ISLAND, MI, 49757","No_Match",NA,NA,NA,NA
329312,"PO BOX 1","MANILA","UT",84046,NA,NA,312,"PO BOX 1, MANILA, UT, 84046","No_Match",NA,NA,NA,NA
329313,"PO BOX 1","MAY","OK",73851,NA,NA,313,"PO BOX 1, MAY, OK, 73851","No_Match",NA,NA,NA,NA
329314,"PO BOX 1","MILAN","IN",47031,NA,NA,314,"PO BOX 1, MILAN, IN, 47031","No_Match",NA,NA,NA,NA
329315,"PO BOX 1","MILFORD","NY",13807,NA,NA,315,"PO BOX 1, MILFORD, NY, 13807","No_Match",NA,NA,NA,NA
329316,"PO BOX 1","MONDOVI","WI",54755,NA,NA,316,"PO BOX 1, MONDOVI, WI, 54755","No_Match",NA,NA,NA,NA
329317,"PO BOX 1","MONTROSE","PA",18801,NA,NA,317,"PO BOX 1, MONTROSE, PA, 18801","No_Match",NA,NA,NA,NA
329318,"PO BOX 1","MOUNT LEMMON","AZ",85619,NA,NA,318,"PO BOX 1, MOUNT LEMMON, AZ, 85619","No_Match",NA,NA,NA,NA
329319,"PO BOX 1","NEW RIVER","VA",24141,NA,NA,319,"PO BOX 1, NEW RIVER, VA, 24141","No_Match",NA,NA,NA,NA
329320,"PO BOX 1","NEWBURGH","NY",12550,NA,NA,320,"PO BOX 1, NEWBURGH, NY, 12550","No_Match",NA,NA,NA,NA
329321,"PO BOX 1","NINEVEH","NY",13813,NA,NA,321,"PO BOX 1, NINEVEH, NY, 13813","No_Match",NA,NA,NA,NA
329322,"PO BOX 1","PRINCETON","KY",42445,NA,NA,322,"PO BOX 1, PRINCETON, KY, 42445","No_Match",NA,NA,NA,NA
329323,"PO BOX 1","ROSALIA","WA",99170,NA,NA,323,"PO BOX 1, ROSALIA, WA, 99170","No_Match",NA,NA,NA,NA
329324,"PO BOX 1","SCIO","OR",97374,NA,NA,324,"PO BOX 1, SCIO, OR, 97374","No_Match",NA,NA,NA,NA
329325,"PO BOX 1","SCOTTVILLE","MI",49454,NA,NA,325,"PO BOX 1, SCOTTVILLE, MI, 49454","No_Match",NA,NA,NA,NA
329326,"PO BOX 1","SEARSMONT","ME",4973,NA,NA,326,"PO BOX 1, SEARSMONT, ME, 4973","No_Match",NA,NA,NA,NA
329327,"PO BOX 1","SHEPHERDSVILLE","KY",40165,NA,NA,327,"PO BOX 1, SHEPHERDSVILLE, KY, 40165","No_Match",NA,NA,NA,NA
329328,"PO BOX 1","TESUQUE","NM",87574,NA,NA,328,"PO BOX 1, TESUQUE, NM, 87574","No_Match",NA,NA,NA,NA
329329,"PO BOX 1","TOMALES","CA",94971,NA,NA,329,"PO BOX 1, TOMALES, CA, 94971","No_Match",NA,NA,NA,NA
329330,"PO BOX 1","VAUGHN","WA",98394,NA,NA,330,"PO BOX 1, VAUGHN, WA, 98394","No_Match",NA,NA,NA,NA
329331,"PO BOX 1","WELCH","OK",74369,NA,NA,331,"PO BOX 1, WELCH, OK, 74369","No_Match",NA,NA,NA,NA
329332,"PO BOX 1","WESTBROOK","TX",79565,NA,NA,332,"PO BOX 1, WESTBROOK, TX, 79565","No_Match",NA,NA,NA,NA
329333,"PO BOX 1","WHEATON","IL",60187,NA,NA,333,"PO BOX 1, WHEATON, IL, 60187","No_Match",NA,NA,NA,NA
329334,"PO BOX 1","WHITEFACE","TX",79379,NA,NA,334,"PO BOX 1, WHITEFACE, TX, 79379","No_Match",NA,NA,NA,NA
329335,"PO BOX 1","WILLOW SPRINGS","NC",27591,NA,NA,335,"PO BOX 1, WILLOW SPRINGS, NC, 27591","No_Match",NA,NA,NA,NA
329336,"PO BOX 10      96 DOUGLAS RD","NORTH FERRISBURG","VT",5473,44.2582410810001,-73.1762633929999,336,"PO BOX 10      96 DOUGLAS RD, NORTH FERRISBURG, VT, 5473","Match","Non_Exact","96 DOUGLAS RD, N FERRISBURGH, VT, 05473",136452444,"R"
329337,"PO BOX 10","ALEXANDRIA","PA",16611,NA,NA,337,"PO BOX 10, ALEXANDRIA, PA, 16611","No_Match",NA,NA,NA,NA
329338,"PO BOX 10","BLUFFTON","IN",46714,NA,NA,338,"PO BOX 10, BLUFFTON, IN, 46714","No_Match",NA,NA,NA,NA
329339,"PO BOX 10","COLBERT","WA",99005,NA,NA,339,"PO BOX 10, COLBERT, WA, 99005","No_Match",NA,NA,NA,NA
329340,"PO BOX 10","CRESTWOOD","KY",40014,NA,NA,340,"PO BOX 10, CRESTWOOD, KY, 40014","No_Match",NA,NA,NA,NA
329341,"PO BOX 10","CROZIER","VA",23039,NA,NA,341,"PO BOX 10, CROZIER, VA, 23039","No_Match",NA,NA,NA,NA
329342,"PO BOX 10","EULESS","TX",76039,NA,NA,342,"PO BOX 10, EULESS, TX, 76039","No_Match",NA,NA,NA,NA
329343,"PO BOX 10","FRANKLIN","WV",26807,NA,NA,343,"PO BOX 10, FRANKLIN, WV, 26807","No_Match",NA,NA,NA,NA
329344,"PO BOX 10","GARBERVILLE","CA",95542,NA,NA,344,"PO BOX 10, GARBERVILLE, CA, 95542","No_Match",NA,NA,NA,NA
329345,"PO BOX 10","JOHNSTON","IA",50131,NA,NA,345,"PO BOX 10, JOHNSTON, IA, 50131","No_Match",NA,NA,NA,NA
329346,"PO BOX 10","JUNCTION CITY","OR",97448,NA,NA,346,"PO BOX 10, JUNCTION CITY, OR, 97448","No_Match",NA,NA,NA,NA
329347,"PO BOX 10","MCHENRY","MD",21541,NA,NA,347,"PO BOX 10, MCHENRY, MD, 21541","No_Match",NA,NA,NA,NA
329348,"PO BOX 10","NORTH HIGHLANDS","CA",95660,NA,NA,348,"PO BOX 10, NORTH HIGHLANDS, CA, 95660","No_Match",NA,NA,NA,NA
329349,"PO BOX 10","PLEASANT HILL","TN",38578,NA,NA,349,"PO BOX 10, PLEASANT HILL, TN, 38578","No_Match",NA,NA,NA,NA
329350,"PO BOX 10","ROSEAU","MN",56751,NA,NA,350,"PO BOX 10, ROSEAU, MN, 56751","No_Match",NA,NA,NA,NA
329351,"PO BOX 10","ROSEMONT","WV",26424,NA,NA,351,"PO BOX 10, ROSEMONT, WV, 26424","No_Match",NA,NA,NA,NA
329352,"PO BOX 10","SAINT JOHNS","AZ",85936,NA,NA,352,"PO BOX 10, SAINT JOHNS, AZ, 85936","No_Match",NA,NA,NA,NA
329353,"PO BOX 10","SALEM","NY",12865,NA,NA,353,"PO BOX 10, SALEM, NY, 12865","No_Match",NA,NA,NA,NA
329354,"PO BOX 10","SANTA MARGARITA","CA",93453,NA,NA,354,"PO BOX 10, SANTA MARGARITA, CA, 93453","No_Match",NA,NA,NA,NA
329355,"PO BOX 10","SYLVESTER","WV",25193,NA,NA,355,"PO BOX 10, SYLVESTER, WV, 25193","No_Match",NA,NA,NA,NA
329356,"PO BOX 10","WAKA","TX",79093,NA,NA,356,"PO BOX 10, WAKA, TX, 79093","No_Match",NA,NA,NA,NA
329357,"PO BOX 10","WINSLOW","NJ",8095,NA,NA,357,"PO BOX 10, WINSLOW, NJ, 8095","No_Match",NA,NA,NA,NA
329358,"PO BOX 10","WOODSBORO","TX",78393,NA,NA,358,"PO BOX 10, WOODSBORO, TX, 78393","No_Match",NA,NA,NA,NA
329359,"PO BOX 10","WOODSON","IL",62695,NA,NA,359,"PO BOX 10, WOODSON, IL, 62695","No_Match",NA,NA,NA,NA
329360,"PO BOX 100 PMB 241","MAMMOTH LAKES","CA",93546,NA,NA,360,"PO BOX 100 PMB 241, MAMMOTH LAKES, CA, 93546","No_Match",NA,NA,NA,NA
329361,"PO BOX 100-442","MAMMOTH LAKES","CA",93546,NA,NA,361,"PO BOX 100-442, MAMMOTH LAKES, CA, 93546","No_Match",NA,NA,NA,NA
329362,"PO BOX 100","APEX","NC",27502,NA,NA,362,"PO BOX 100, APEX, NC, 27502","No_Match",NA,NA,NA,NA
329363,"PO BOX 100","ARBUCKLE","CA",95912,NA,NA,363,"PO BOX 100, ARBUCKLE, CA, 95912","No_Match",NA,NA,NA,NA
329364,"PO BOX 100","ARKVILLE","NY",12406,NA,NA,364,"PO BOX 100, ARKVILLE, NY, 12406","No_Match",NA,NA,NA,NA
329365,"PO BOX 100","CARSON CITY","NV",89702,NA,NA,365,"PO BOX 100, CARSON CITY, NV, 89702","No_Match",NA,NA,NA,NA
329366,"PO BOX 100","COLDSPRING","TX",77331,NA,NA,366,"PO BOX 100, COLDSPRING, TX, 77331","No_Match",NA,NA,NA,NA
329367,"PO BOX 100","CONCORD","GA",30206,NA,NA,367,"PO BOX 100, CONCORD, GA, 30206","No_Match",NA,NA,NA,NA
329368,"PO BOX 100","COSTILLA","NM",87524,NA,NA,368,"PO BOX 100, COSTILLA, NM, 87524","No_Match",NA,NA,NA,NA
329369,"PO BOX 100","DEVON","PA",19333,NA,NA,369,"PO BOX 100, DEVON, PA, 19333","No_Match",NA,NA,NA,NA
329370,"PO BOX 100","DIXMONT","ME",4932,NA,NA,370,"PO BOX 100, DIXMONT, ME, 4932","No_Match",NA,NA,NA,NA
329371,"PO BOX 100","FRAZEYSBURG","OH",43822,NA,NA,371,"PO BOX 100, FRAZEYSBURG, OH, 43822","No_Match",NA,NA,NA,NA
329372,"PO BOX 100","FULTON","TX",78358,NA,NA,372,"PO BOX 100, FULTON, TX, 78358","No_Match",NA,NA,NA,NA
329373,"PO BOX 100","GALENA","MD",21635,NA,NA,373,"PO BOX 100, GALENA, MD, 21635","No_Match",NA,NA,NA,NA
329374,"PO BOX 100","HAWTHORNE","NV",89415,NA,NA,374,"PO BOX 100, HAWTHORNE, NV, 89415","No_Match",NA,NA,NA,NA
329375,"PO BOX 100","HOLUALOA","HI",96725,NA,NA,375,"PO BOX 100, HOLUALOA, HI, 96725","No_Match",NA,NA,NA,NA
329376,"PO BOX 100","HUGOTON","KS",67951,NA,NA,376,"PO BOX 100, HUGOTON, KS, 67951","No_Match",NA,NA,NA,NA
329377,"PO BOX 100","LAWN","PA",17041,NA,NA,377,"PO BOX 100, LAWN, PA, 17041","No_Match",NA,NA,NA,NA
329378,"PO BOX 100","LEBANON","NH",3766,NA,NA,378,"PO BOX 100, LEBANON, NH, 3766","No_Match",NA,NA,NA,NA
329379,"PO BOX 100","LYNN","AR",72440,NA,NA,379,"PO BOX 100, LYNN, AR, 72440","No_Match",NA,NA,NA,NA
329380,"PO BOX 100","MIDDLETOWN","CA",95461,NA,NA,380,"PO BOX 100, MIDDLETOWN, CA, 95461","No_Match",NA,NA,NA,NA
329381,"PO BOX 100","MIDDLETOWN","DE",19709,NA,NA,381,"PO BOX 100, MIDDLETOWN, DE, 19709","No_Match",NA,NA,NA,NA
329382,"PO BOX 100","NEW DURHAM","NH",3855,NA,NA,382,"PO BOX 100, NEW DURHAM, NH, 3855","No_Match",NA,NA,NA,NA
329383,"PO BOX 100","NEW LONDON","MN",56273,NA,NA,383,"PO BOX 100, NEW LONDON, MN, 56273","No_Match",NA,NA,NA,NA
329384,"PO BOX 100","NEW TRIPOLI","PA",18066,NA,NA,384,"PO BOX 100, NEW TRIPOLI, PA, 18066","No_Match",NA,NA,NA,NA
329385,"PO BOX 100","OWENTON","KY",40359,NA,NA,385,"PO BOX 100, OWENTON, KY, 40359","No_Match",NA,NA,NA,NA
329386,"PO BOX 100","POTTERVILLE","MI",48876,NA,NA,386,"PO BOX 100, POTTERVILLE, MI, 48876","No_Match",NA,NA,NA,NA
329387,"PO BOX 100","ROSEAU","MN",56751,NA,NA,387,"PO BOX 100, ROSEAU, MN, 56751","No_Match",NA,NA,NA,NA
329388,"PO BOX 100","SALISBURY","NH",3268,NA,NA,388,"PO BOX 100, SALISBURY, NH, 3268","No_Match",NA,NA,NA,NA
329389,"PO BOX 100","ST CHARLES","MO",63302,NA,NA,389,"PO BOX 100, ST CHARLES, MO, 63302","No_Match",NA,NA,NA,NA
329390,"PO BOX 100","STUYVESANT FALLS","NY",12174,NA,NA,390,"PO BOX 100, STUYVESANT FALLS, NY, 12174","No_Match",NA,NA,NA,NA
329391,"PO BOX 100","WILLISTON","FL",32696,NA,NA,391,"PO BOX 100, WILLISTON, FL, 32696","No_Match",NA,NA,NA,NA
329392,"PO BOX 1000 - 4 LONG HALL DR","BERWICK","ME",3901,43.259252127,-70.802826592,392,"PO BOX 1000 - 4 LONG HALL DR, BERWICK, ME, 3901","Match","Exact","4 LONG HALL DR, BERWICK, ME, 03901",635543330,"L"
329393,"PO BOX 1000","EPHRATA","WA",98823,NA,NA,393,"PO BOX 1000, EPHRATA, WA, 98823","No_Match",NA,NA,NA,NA
329394,"PO BOX 1000","LIBBY","MT",59923,NA,NA,394,"PO BOX 1000, LIBBY, MT, 59923","No_Match",NA,NA,NA,NA
329395,"PO BOX 1000","SAINT PAUL","MN",55117,NA,NA,395,"PO BOX 1000, SAINT PAUL, MN, 55117","No_Match",NA,NA,NA,NA
329396,"PO BOX 1000","UMPQUA","OR",97486,NA,NA,396,"PO BOX 1000, UMPQUA, OR, 97486","No_Match",NA,NA,NA,NA
329397,"PO BOX 10001","WASHINGTON","DC",20018,NA,NA,397,"PO BOX 10001, WASHINGTON, DC, 20018","No_Match",NA,NA,NA,NA
329398,"PO BOX 10008","CORPUS CHRISTI","TX",78460,NA,NA,398,"PO BOX 10008, CORPUS CHRISTI, TX, 78460","No_Match",NA,NA,NA,NA
329399,"PO BOX 10008","EUGENE","OR",97440,NA,NA,399,"PO BOX 10008, EUGENE, OR, 97440","No_Match",NA,NA,NA,NA
329400,"PO BOX 100084","SAN ANTONIO","TX",78201,NA,NA,400,"PO BOX 100084, SAN ANTONIO, TX, 78201","No_Match",NA,NA,NA,NA
329401,"PO BOX 10009","SWANZEY","NH",3446,NA,NA,401,"PO BOX 10009, SWANZEY, NH, 3446","No_Match",NA,NA,NA,NA
329402,"PO BOX 1001","ALBEMARLE","NC",28002,NA,NA,402,"PO BOX 1001, ALBEMARLE, NC, 28002","No_Match",NA,NA,NA,NA
329403,"PO BOX 1001","CUERO","TX",77954,NA,NA,403,"PO BOX 1001, CUERO, TX, 77954","No_Match",NA,NA,NA,NA
329404,"PO BOX 1001","HOLLIS","NH",3049,NA,NA,404,"PO BOX 1001, HOLLIS, NH, 3049","No_Match",NA,NA,NA,NA
329405,"PO BOX 1001","IMPERIAL","NE",69033,NA,NA,405,"PO BOX 1001, IMPERIAL, NE, 69033","No_Match",NA,NA,NA,NA
329406,"PO BOX 1001","KINGSVILLE","TX",78363,NA,NA,406,"PO BOX 1001, KINGSVILLE, TX, 78363","No_Match",NA,NA,NA,NA
329407,"PO BOX 1001","LA CROSSE","WI",54602,NA,NA,407,"PO BOX 1001, LA CROSSE, WI, 54602","No_Match",NA,NA,NA,NA
329408,"PO BOX 1001","MANY","LA",71449,NA,NA,408,"PO BOX 1001, MANY, LA, 71449","No_Match",NA,NA,NA,NA
329409,"PO BOX 1001","MARLOW","NH",3456,NA,NA,409,"PO BOX 1001, MARLOW, NH, 3456","No_Match",NA,NA,NA,NA
329410,"PO BOX 1001","PITTSBORO","NC",27312,NA,NA,410,"PO BOX 1001, PITTSBORO, NC, 27312","No_Match",NA,NA,NA,NA
329411,"PO BOX 1001","SALISBURY","MD",21803,NA,NA,411,"PO BOX 1001, SALISBURY, MD, 21803","No_Match",NA,NA,NA,NA
329412,"PO BOX 1001","SWANSBORO","NC",28584,NA,NA,412,"PO BOX 1001, SWANSBORO, NC, 28584","No_Match",NA,NA,NA,NA
329413,"PO BOX 100103","CUDAHY","WI",53110,NA,NA,413,"PO BOX 100103, CUDAHY, WI, 53110","No_Match",NA,NA,NA,NA
329414,"PO BOX 10011","SWANZEY","NH",3446,NA,NA,414,"PO BOX 10011, SWANZEY, NH, 3446","No_Match",NA,NA,NA,NA
329415,"PO BOX 100113","CAPE CORAL","FL",33910,NA,NA,415,"PO BOX 100113, CAPE CORAL, FL, 33910","No_Match",NA,NA,NA,NA
329416,"PO BOX 10014","PEORIA","IL",61612,NA,NA,416,"PO BOX 10014, PEORIA, IL, 61612","No_Match",NA,NA,NA,NA
329417,"PO BOX 100157","PITTSBURGH","PA",15233,NA,NA,417,"PO BOX 100157, PITTSBURGH, PA, 15233","No_Match",NA,NA,NA,NA
329418,"PO BOX 100172","DENVER","CO",80250,NA,NA,418,"PO BOX 100172, DENVER, CO, 80250","No_Match",NA,NA,NA,NA
329419,"PO BOX 100192","IRONDALE","AL",35210,NA,NA,419,"PO BOX 100192, IRONDALE, AL, 35210","No_Match",NA,NA,NA,NA
329420,"PO BOX 100197","GAINESVILLE","FL",32610,NA,NA,420,"PO BOX 100197, GAINESVILLE, FL, 32610","No_Match",NA,NA,NA,NA
329421,"PO BOX 1002","ELLENWOOD","GA",30294,NA,NA,421,"PO BOX 1002, ELLENWOOD, GA, 30294","No_Match",NA,NA,NA,NA
329422,"PO BOX 1002","FORT MYERS","FL",33902,NA,NA,422,"PO BOX 1002, FORT MYERS, FL, 33902","No_Match",NA,NA,NA,NA
329423,"PO BOX 1002","GARRISON","ND",58540,NA,NA,423,"PO BOX 1002, GARRISON, ND, 58540","No_Match",NA,NA,NA,NA
329424,"PO BOX 1002","GRAND MARAIS","MN",55604,NA,NA,424,"PO BOX 1002, GRAND MARAIS, MN, 55604","No_Match",NA,NA,NA,NA
329425,"PO BOX 1002","LAKE STEVENS","WA",98258,NA,NA,425,"PO BOX 1002, LAKE STEVENS, WA, 98258","No_Match",NA,NA,NA,NA
329426,"PO BOX 1002","MIRA LOMA","CA",91752,NA,NA,426,"PO BOX 1002, MIRA LOMA, CA, 91752","No_Match",NA,NA,NA,NA
329427,"PO BOX 1002","NAVASOTA","TX",77868,NA,NA,427,"PO BOX 1002, NAVASOTA, TX, 77868","No_Match",NA,NA,NA,NA
329428,"PO BOX 1002","PATAGONIA","AZ",85624,NA,NA,428,"PO BOX 1002, PATAGONIA, AZ, 85624","No_Match",NA,NA,NA,NA
329429,"PO BOX 1002","PORT ORCHARD","WA",98366,NA,NA,429,"PO BOX 1002, PORT ORCHARD, WA, 98366","No_Match",NA,NA,NA,NA
329430,"PO BOX 1002","SUMNER","WA",98390,NA,NA,430,"PO BOX 1002, SUMNER, WA, 98390","No_Match",NA,NA,NA,NA
329431,"PO BOX 1002","SUNRAY","TX",79086,NA,NA,431,"PO BOX 1002, SUNRAY, TX, 79086","No_Match",NA,NA,NA,NA
329432,"PO BOX 1002","WYNNE","AR",72396,NA,NA,432,"PO BOX 1002, WYNNE, AR, 72396","No_Match",NA,NA,NA,NA
329433,"PO BOX 10023","FORT WAYNE","IN",46805,NA,NA,433,"PO BOX 10023, FORT WAYNE, IN, 46805","No_Match",NA,NA,NA,NA
329434,"PO BOX 10025","AKRON","OH",44310,NA,NA,434,"PO BOX 10025, AKRON, OH, 44310","No_Match",NA,NA,NA,NA
329435,"PO BOX 1003","ASHLAND","OR",97520,NA,NA,435,"PO BOX 1003, ASHLAND, OR, 97520","No_Match",NA,NA,NA,NA
329436,"PO BOX 1003","DEEP RIVER","CT",6417,NA,NA,436,"PO BOX 1003, DEEP RIVER, CT, 6417","No_Match",NA,NA,NA,NA
329437,"PO BOX 1003","DEER PARK","NY",11729,NA,NA,437,"PO BOX 1003, DEER PARK, NY, 11729","No_Match",NA,NA,NA,NA
329438,"PO BOX 1003","ELMIRA","NY",14902,NA,NA,438,"PO BOX 1003, ELMIRA, NY, 14902","No_Match",NA,NA,NA,NA
329439,"PO BOX 1003","HENDERSON","KY",42420,NA,NA,439,"PO BOX 1003, HENDERSON, KY, 42420","No_Match",NA,NA,NA,NA
329440,"PO BOX 1003","OBERLIN","LA",70655,NA,NA,440,"PO BOX 1003, OBERLIN, LA, 70655","No_Match",NA,NA,NA,NA
329441,"PO BOX 1003","PINE GROVE","KY",70453,NA,NA,441,"PO BOX 1003, PINE GROVE, KY, 70453","No_Match",NA,NA,NA,NA
329442,"PO BOX 1003","PINETOPS","NC",27864,NA,NA,442,"PO BOX 1003, PINETOPS, NC, 27864","No_Match",NA,NA,NA,NA
329443,"PO BOX 1003","S YARMOUTH","MA",2664,NA,NA,443,"PO BOX 1003, S YARMOUTH, MA, 2664","No_Match",NA,NA,NA,NA
329444,"PO BOX 1003","TORRINGTON","CT",6790,NA,NA,444,"PO BOX 1003, TORRINGTON, CT, 6790","No_Match",NA,NA,NA,NA
329445,"PO BOX 1003","WAXHAW","NC",28173,NA,NA,445,"PO BOX 1003, WAXHAW, NC, 28173","No_Match",NA,NA,NA,NA
329446,"PO BOX 1003","WEST BEND","WI",53095,NA,NA,446,"PO BOX 1003, WEST BEND, WI, 53095","No_Match",NA,NA,NA,NA
329447,"PO BOX 1003","WILMETTE","IL",60091,NA,NA,447,"PO BOX 1003, WILMETTE, IL, 60091","No_Match",NA,NA,NA,NA
329448,"PO BOX 1003","WITTMANN","AZ",85361,NA,NA,448,"PO BOX 1003, WITTMANN, AZ, 85361","No_Match",NA,NA,NA,NA
329449,"PO BOX 1003","WORTHINGTON","OH",43085,NA,NA,449,"PO BOX 1003, WORTHINGTON, OH, 43085","No_Match",NA,NA,NA,NA
329450,"PO BOX 10030","ASPEN","CO",81612,NA,NA,450,"PO BOX 10030, ASPEN, CO, 81612","No_Match",NA,NA,NA,NA
329451,"PO BOX 10031","HOUSTON","TX",77026,NA,NA,451,"PO BOX 10031, HOUSTON, TX, 77026","No_Match",NA,NA,NA,NA
329452,"PO BOX 100332","FORT WORTH","TX",76185,NA,NA,452,"PO BOX 100332, FORT WORTH, TX, 76185","No_Match",NA,NA,NA,NA
329453,"PO BOX 100351","CAPE CORAL","FL",33910,NA,NA,453,"PO BOX 100351, CAPE CORAL, FL, 33910","No_Match",NA,NA,NA,NA
329454,"PO BOX 100357","ARLINGTON","VA",22630,NA,NA,454,"PO BOX 100357, ARLINGTON, VA, 22630","No_Match",NA,NA,NA,NA
329455,"PO BOX 100362 2319 NOSTRAND AVENUE","BROOKLYN","NY",11210,40.6280216650001,-73.94710106,455,"PO BOX 100362 2319 NOSTRAND AVENUE, BROOKLYN, NY, 11210","Match","Exact","2319 NOSTRAND AVE, BROOKLYN, NY, 11210",59081796,"L"
329456,"PO BOX 100383","FORT WORTH","TX",76185,NA,NA,456,"PO BOX 100383, FORT WORTH, TX, 76185","No_Match",NA,NA,NA,NA
329457,"PO BOX 100392","MILWAUKEE","WI",53210,NA,NA,457,"PO BOX 100392, MILWAUKEE, WI, 53210","No_Match",NA,NA,NA,NA
329458,"PO BOX 100392","NASHVILLE","TN",37224,NA,NA,458,"PO BOX 100392, NASHVILLE, TN, 37224","No_Match",NA,NA,NA,NA
329459,"PO BOX 1004","ARCHER","FL",32618,NA,NA,459,"PO BOX 1004, ARCHER, FL, 32618","No_Match",NA,NA,NA,NA
329460,"PO BOX 1004","LEVITTOWN","PA",19058,NA,NA,460,"PO BOX 1004, LEVITTOWN, PA, 19058","No_Match",NA,NA,NA,NA
329461,"PO BOX 1004","MT PLEASANT","TX",75456,NA,NA,461,"PO BOX 1004, MT PLEASANT, TX, 75456","No_Match",NA,NA,NA,NA
329462,"PO BOX 1004","MUNCIE","IN",47308,NA,NA,462,"PO BOX 1004, MUNCIE, IN, 47308","No_Match",NA,NA,NA,NA
329463,"PO BOX 1004","PURCELLVILLE","VA",20132,NA,NA,463,"PO BOX 1004, PURCELLVILLE, VA, 20132","No_Match",NA,NA,NA,NA
329464,"PO BOX 1004","QUITMAN","TX",75783,NA,NA,464,"PO BOX 1004, QUITMAN, TX, 75783","No_Match",NA,NA,NA,NA
329465,"PO BOX 1004","SAINT JOSEPH","IL",61873,NA,NA,465,"PO BOX 1004, SAINT JOSEPH, IL, 61873","No_Match",NA,NA,NA,NA
329466,"PO BOX 10041","MELVILLE","NY",11747,NA,NA,466,"PO BOX 10041, MELVILLE, NY, 11747","No_Match",NA,NA,NA,NA
329467,"PO BOX 100412  2319 NOSTRAND AVENUE","BROOKLYN","NY",11210,40.6280216650001,-73.94710106,467,"PO BOX 100412  2319 NOSTRAND AVENUE, BROOKLYN, NY, 11210","Match","Exact","2319 NOSTRAND AVE, BROOKLYN, NY, 11210",59081796,"L"
329468,"PO BOX 100435","ANCHORAGE","AK",99510,NA,NA,468,"PO BOX 100435, ANCHORAGE, AK, 99510","No_Match",NA,NA,NA,NA
329469,"PO BOX 100483","DENVER","CO",80250,NA,NA,469,"PO BOX 100483, DENVER, CO, 80250","No_Match",NA,NA,NA,NA
329470,"PO BOX 10049","TYLER","TX",75711,NA,NA,470,"PO BOX 10049, TYLER, TX, 75711","No_Match",NA,NA,NA,NA
329471,"PO BOX 100496","BROOKLYN","NY",11210,NA,NA,471,"PO BOX 100496, BROOKLYN, NY, 11210","No_Match",NA,NA,NA,NA
329472,"PO BOX 1005","APOPKA","FL",32704,NA,NA,472,"PO BOX 1005, APOPKA, FL, 32704","No_Match",NA,NA,NA,NA
329473,"PO BOX 1005","AZUSA","CA",91702,NA,NA,473,"PO BOX 1005, AZUSA, CA, 91702","No_Match",NA,NA,NA,NA
329474,"PO BOX 1005","BASTROP","TX",78602,NA,NA,474,"PO BOX 1005, BASTROP, TX, 78602","No_Match",NA,NA,NA,NA
329475,"PO BOX 1005","CHILLICOTHE","OH",45601,NA,NA,475,"PO BOX 1005, CHILLICOTHE, OH, 45601","No_Match",NA,NA,NA,NA
329476,"PO BOX 1005","DECATUR","MS",39327,NA,NA,476,"PO BOX 1005, DECATUR, MS, 39327","No_Match",NA,NA,NA,NA
329477,"PO BOX 1005","HARTFORD","CT",6143,NA,NA,477,"PO BOX 1005, HARTFORD, CT, 6143","No_Match",NA,NA,NA,NA
329478,"PO BOX 1005","HELENA","MT",59624,NA,NA,478,"PO BOX 1005, HELENA, MT, 59624","No_Match",NA,NA,NA,NA
329479,"PO BOX 1005","MCGEHEE","AR",71654,NA,NA,479,"PO BOX 1005, MCGEHEE, AR, 71654","No_Match",NA,NA,NA,NA
329480,"PO BOX 1005","MIDDLETOWN","NY",10940,NA,NA,480,"PO BOX 1005, MIDDLETOWN, NY, 10940","No_Match",NA,NA,NA,NA
329481,"PO BOX 1005","RHINELANDER","WI",54501,NA,NA,481,"PO BOX 1005, RHINELANDER, WI, 54501","No_Match",NA,NA,NA,NA
329482,"PO BOX 1005","SHAFTER","CA",93263,NA,NA,482,"PO BOX 1005, SHAFTER, CA, 93263","No_Match",NA,NA,NA,NA
329483,"PO BOX 10054","RALEIGH","NC",27605,NA,NA,483,"PO BOX 10054, RALEIGH, NC, 27605","No_Match",NA,NA,NA,NA
329484,"PO BOX 100549","DENVER","CO",80210,NA,NA,484,"PO BOX 100549, DENVER, CO, 80210","No_Match",NA,NA,NA,NA
329485,"PO BOX 100591","NASHVILLE","TN",37224,NA,NA,485,"PO BOX 100591, NASHVILLE, TN, 37224","No_Match",NA,NA,NA,NA
329486,"PO BOX 1006","BUFFALO","MO",65622,NA,NA,486,"PO BOX 1006, BUFFALO, MO, 65622","No_Match",NA,NA,NA,NA
329487,"PO BOX 1006","CHINO VALLEY","AZ",86323,NA,NA,487,"PO BOX 1006, CHINO VALLEY, AZ, 86323","No_Match",NA,NA,NA,NA
329488,"PO BOX 1006","WHITNEY POINT","NY",13862,NA,NA,488,"PO BOX 1006, WHITNEY POINT, NY, 13862","No_Match",NA,NA,NA,NA
329489,"PO BOX 10061","COLUMBIA","MO",65205,NA,NA,489,"PO BOX 10061, COLUMBIA, MO, 65205","No_Match",NA,NA,NA,NA
329490,"PO BOX 100624","FORT WORTH","TX",76185,NA,NA,490,"PO BOX 100624, FORT WORTH, TX, 76185","No_Match",NA,NA,NA,NA
329491,"PO BOX 100626","BROOKLYN","NY",11210,NA,NA,491,"PO BOX 100626, BROOKLYN, NY, 11210","No_Match",NA,NA,NA,NA
329492,"PO BOX 100631","DENVER","CO",80250,NA,NA,492,"PO BOX 100631, DENVER, CO, 80250","No_Match",NA,NA,NA,NA
329493,"PO BOX 100647","BROOKLYN","NY",11210,NA,NA,493,"PO BOX 100647, BROOKLYN, NY, 11210","No_Match",NA,NA,NA,NA
329494,"PO BOX 10067","VA BEACH","VA",23450,NA,NA,494,"PO BOX 10067, VA BEACH, VA, 23450","No_Match",NA,NA,NA,NA
329495,"PO BOX 10068","ROCKVILLE","MD",20849,NA,NA,495,"PO BOX 10068, ROCKVILLE, MD, 20849","No_Match",NA,NA,NA,NA
329496,"PO BOX 1007 / 2155 SYCAMORE AVE","BUENA VISTA","VA",24416,37.7353864020001,-79.3550824069999,496,"PO BOX 1007 / 2155 SYCAMORE AVE, BUENA VISTA, VA, 24416","Match","Exact","2155 SYCAMORE AVE, BUENA VISTA, VA, 24416",63113714,"L"
329497,"PO BOX 1007","GOLDENROD","FL",32733,NA,NA,497,"PO BOX 1007, GOLDENROD, FL, 32733","No_Match",NA,NA,NA,NA
329498,"PO BOX 1007","LAKE OSWEGO","OR",97034,NA,NA,498,"PO BOX 1007, LAKE OSWEGO, OR, 97034","No_Match",NA,NA,NA,NA
329499,"PO BOX 1007","REPUBLIC","WA",99166,NA,NA,499,"PO BOX 1007, REPUBLIC, WA, 99166","No_Match",NA,NA,NA,NA
329500,"PO BOX 1007","TOMBALL","TX",77377,NA,NA,500,"PO BOX 1007, TOMBALL, TX, 77377","No_Match",NA,NA,NA,NA
