"ID","Address","City","State","Zip","lat","long","id","input_address","match_indicator","match_type","matched_address","tiger_line_id","tiger_side"
29501,"11595 ALLENDALE","GOLDEN","CO",80004,NA,NA,1,"11595 ALLENDALE, GOLDEN, CO, 80004","No_Match",NA,NA,NA,NA
29502,"11595 FOX HALL LANE","FLORISSANT","MO",63033,38.787538383,-90.241265807,2,"11595 FOX HALL LANE, FLORISSANT, MO, 63033","Match","Exact","11595 FOX HALL LN, FLORISSANT, MO, 63033",100167246,"L"
29503,"11595 HOSFORD RD","CHARDON","OH",44024,41.6116788,-81.223934987,3,"11595 HOSFORD RD, CHARDON, OH, 44024","Match","Exact","11595 HOSFORD RD, CHARDON, OH, 44024",137434316,"R"
29504,"11595 KING RD","ROSWELL","GA",30075,34.062946503,-84.383388768,4,"11595 KING RD, ROSWELL, GA, 30075","Match","Exact","11595 KING RD, ROSWELL, GA, 30075",629462843,"R"
29505,"11595 KING ROAD","ROSWELL","GA",30075,34.062946503,-84.383388768,5,"11595 KING ROAD, ROSWELL, GA, 30075","Match","Exact","11595 KING RD, ROSWELL, GA, 30075",629462843,"R"
29506,"11596 AVONDALE DRIVE","FAIRFAX","VA",22030,38.857320423,-77.345937648,6,"11596 AVONDALE DRIVE, FAIRFAX, VA, 22030","Match","Exact","11596 AVONDALE DR, FAIRFAX, VA, 22030",76034074,"R"
29507,"11596 TOWNSHIP HWY 44","UPPER SANDUSKY","OH",43351,40.8761596940001,-83.3373365469999,7,"11596 TOWNSHIP HWY 44, UPPER SANDUSKY, OH, 43351","Match","Non_Exact","11596 CO HWY 44, UPPER SANDUSKY, OH, 43351",13052467,"L"
29508,"11597 233ND STREET","CAMBRIA HEIGHTS","NY",11411,NA,NA,8,"11597 233ND STREET, CAMBRIA HEIGHTS, NY, 11411","No_Match",NA,NA,NA,NA
29509,"11598 WHISPERINGBROOK LANE","JACKSONVILLE","FL",32218,30.4456243710001,-81.679474973,9,"11598 WHISPERINGBROOK LANE, JACKSONVILLE, FL, 32218","Match","Exact","11598 WHISPERINGBROOK LN, JACKSONVILLE, FL, 32218",83961209,"L"
29510,"11599 AILERON CT","INVER GROVE HEIGHTS","MN",55077,44.7813056570001,-93.1040165759999,10,"11599 AILERON CT, INVER GROVE HEIGHTS, MN, 55077","Match","Exact","11599 AILERON CT, INVER GROVE HEIGHTS, MN, 55077",619669421,"L"
29511,"11599 KIBLER RD","GREENSBORO","MD",21639,38.925574737,-75.816418773,11,"11599 KIBLER RD, GREENSBORO, MD, 21639","Match","Exact","11599 KIBLER RD, GREENSBORO, MD, 21639",68295821,"R"
29512,"11599 LOST TREE WAY","NORTH PALM BEACH","FL",33408,26.845959803,-80.053069221,12,"11599 LOST TREE WAY, NORTH PALM BEACH, FL, 33408","Match","Exact","11599 LOST TREE WAY, NORTH PALM BEACH, FL, 33408",629633071,"L"
29513,"11599 NEWBRIDGE CT","CARMEL","IN",46032,39.9550410030001,-86.198617154,13,"11599 NEWBRIDGE CT, CARMEL, IN, 46032","Match","Exact","11599 NEWBRIDGE CT, CARMEL, IN, 46032",29309449,"R"
29514,"115A E CENTRAL BLVD","PALISADES PARK","NJ",7650,40.8462602770001,-73.994146617,14,"115A E CENTRAL BLVD, PALISADES PARK, NJ, 7650","Match","Exact","115 E CENTRAL BLVD, PALISADES PARK, NJ, 07650",64390753,"L"
29515,"115W 18TH ST","NEW YORK","NY",10011,40.7401087690001,-73.9955897469999,15,"115W 18TH ST, NEW YORK, NY, 10011","Match","Non_Exact","115 W 18TH ST, NEW YORK, NY, 10011",59653329,"R"
29516,"116 1/2 W MISSION ST","STRAWBERRY POINT","IA",52076,42.6838349500001,-91.536361843,16,"116 1/2 W MISSION ST, STRAWBERRY POINT, IA, 52076","Match","Exact","116 W MISSION ST, STRAWBERRY POINT, IA, 52076",48479449,"L"
29517,"116 13TH STREET","WATERVLIET","NY",12189,42.7234342510001,-73.703643578,17,"116 13TH STREET, WATERVLIET, NY, 12189","Match","Exact","116 13TH ST, WATERVLIET, NY, 12189",18313395,"L"
29518,"116 1ST ST N","NEWTON","IA",50208,41.6997476550001,-93.053666151,18,"116 1ST ST N, NEWTON, IA, 50208","Match","Exact","116 1ST ST N, NEWTON, IA, 50208",89424752,"R"
29519,"116 2ND AVE SE","BAUDETTE","MN",56623,48.711599037,-94.594089857,19,"116 2ND AVE SE, BAUDETTE, MN, 56623","Match","Exact","116 2ND AVE SE, BAUDETTE, MN, 56623",176525485,"L"
29520,"116 2ND ST SUITE 105","TAYLOR","TX",76574,NA,NA,20,"116 2ND ST SUITE 105, TAYLOR, TX, 76574","Tie",NA,NA,NA,NA
29521,"116 35TH AVENUE NE","FARGO","ND",58102,46.922318798,-96.7675712449999,21,"116 35TH AVENUE NE, FARGO, ND, 58102","Match","Exact","116 35TH AVE NE, FARGO, ND, 58102",151446072,"L"
29522,"116 5TH AVE NW APT 1","ALTOONA","IA",50009,41.652088629,-93.4693412029999,22,"116 5TH AVE NW APT 1, ALTOONA, IA, 50009","Match","Exact","116 5TH AVE NW, ALTOONA, IA, 50009",65851163,"L"
29523,"116 5TH ST","GILROY","CA",95020,37.0079644510001,-121.57087805,23,"116 5TH ST, GILROY, CA, 95020","Match","Exact","116 5TH ST, GILROY, CA, 95020",122932185,"L"
29524,"116 5TH STREET SE","WATFORD CITY","ND",58854,47.800848124,-103.276295142,24,"116 5TH STREET SE, WATFORD CITY, ND, 58854","Match","Exact","116 5TH ST SE, WATFORD CITY, ND, 58854",167654164,"R"
29525,"116 ABBEY ROAD","NEW FREEDOM","PA",17349,39.7433785010001,-76.679590216,25,"116 ABBEY ROAD, NEW FREEDOM, PA, 17349","Match","Exact","116 ABBEY RD, NEW FREEDOM, PA, 17349",88747537,"R"
29526,"116 ADAMS STREET","AGAWAM","MA",1001,42.05677616,-72.62085275,26,"116 ADAMS STREET, AGAWAM, MA, 1001","Match","Exact","116 ADAMS ST, AGAWAM, MA, 01001",4034284,"R"
29527,"116 AFTON PARKWAY","PORTSMOUTH","VA",23321,36.8000599120001,-76.311865484,27,"116 AFTON PARKWAY, PORTSMOUTH, VA, 23321","Match","Non_Exact","116 AFTON PKWY, PORTSMOUTH, VA, 23702",122195849,"R"
29528,"116 AMBERLY CIRCLE","AIKEN","SC",29803,33.5153311830001,-81.736817786,28,"116 AMBERLY CIRCLE, AIKEN, SC, 29803","Match","Exact","116 AMBERLY CIR, AIKEN, SC, 29803",647670155,"R"
29529,"116 ARBOR VILLAGE DRIVE","POOLER","GA",31322,32.1521687910001,-81.2552520039999,29,"116 ARBOR VILLAGE DRIVE, POOLER, GA, 31322","Match","Exact","116 ARBOR VILLAGE DR, POOLER, GA, 31322",641724693,"L"
29530,"116 ASH ST","BORGER","TX",79007,35.653866372,-101.440796978,30,"116 ASH ST, BORGER, TX, 79007","Match","Exact","116 ASH ST, BORGER, TX, 79007",636396733,"R"
29531,"116 ASPASIE DRIVE","LAFAYETTE","LA",70508,30.1396875620001,-92.015329126,31,"116 ASPASIE DRIVE, LAFAYETTE, LA, 70508","Match","Exact","116 ASPASIE DR, LAFAYETTE, LA, 70508",85619546,"L"
29532,"116 AUGUSTA NATIONAL","ANDERSON","SC",29621,34.532394061,-82.6000470609999,32,"116 AUGUSTA NATIONAL, ANDERSON, SC, 29621","Match","Exact","116 AUGUSTA NATIONAL, ANDERSON, SC, 29621",25499760,"R"
29533,"116 B WINTHROP STREET","FRAMINGHAM","MA",1702,42.2689495160001,-71.424395095,33,"116 B WINTHROP STREET, FRAMINGHAM, MA, 1702","Match","Exact","116 WINTHROP ST, FRAMINGHAM, MA, 01702",87103022,"L"
29534,"116 BAILEY ROAD","FORT DEFIANCE","VA",24437,38.225019558,-78.970379559,34,"116 BAILEY ROAD, FORT DEFIANCE, VA, 24437","Match","Exact","116 BAILEY RD, FORT DEFIANCE, VA, 24437",213442090,"R"
29535,"116 BAKER AVE","BERKELEY HEIGHTS","NJ",7922,40.6909232260001,-74.423172643,35,"116 BAKER AVE, BERKELEY HEIGHTS, NJ, 7922","Match","Exact","116 BAKER AVE, BERKELEY HEIGHTS, NJ, 07922",60563907,"L"
29536,"116 BAKERS POINT RD","COLUMBIA","SC",29223,34.0956094250001,-80.8697538069999,36,"116 BAKERS POINT RD, COLUMBIA, SC, 29223","Match","Exact","116 BAKERS POINT RD, COLUMBIA, SC, 29223",71858077,"L"
29537,"116 BALA AVE STE 4B","BALA CYNWYD","PA",19004,40.004269939,-75.232019087,37,"116 BALA AVE STE 4B, BALA CYNWYD, PA, 19004","Match","Exact","116 BALA AVE, BALA CYNWYD, PA, 19004",135091563,"L"
29538,"116 BANNERMANS MILL RD","RICHLANDS","NC",28574,34.819857299,-77.559176248,38,"116 BANNERMANS MILL RD, RICHLANDS, NC, 28574","Match","Exact","116 BANNERMANS MILL RD, RICHLANDS, NC, 28574",636121343,"R"
29539,"116 BANNON CT","HINESVILLE","GA",31313,31.800087327,-81.644077389,39,"116 BANNON CT, HINESVILLE, GA, 31313","Match","Exact","116 BANNON CT, HINESVILLE, GA, 31313",619374829,"R"
29540,"116 BARTON ROAD","STOW","MA",1775,42.404493577,-71.50530696,40,"116 BARTON ROAD, STOW, MA, 1775","Match","Exact","116 BARTON RD, STOW, MA, 01775",87114754,"R"
29541,"116 BARTON STREET","WEST MEMPHIS","AR",72301,NA,NA,41,"116 BARTON STREET, WEST MEMPHIS, AR, 72301","No_Match",NA,NA,NA,NA
29542,"116 BASCOM ROAD","LEBANON","CT",6249,41.6415904500001,-72.285808703,42,"116 BASCOM ROAD, LEBANON, CT, 6249","Match","Exact","116 BASCOM RD, LEBANON, CT, 06249",636469187,"L"
29543,"116 BASSEDENA CIRCLE S","LAKELAND","FL",33805,28.0704548690001,-81.9581349589999,43,"116 BASSEDENA CIRCLE S, LAKELAND, FL, 33805","Match","Exact","116 BASSEDENA CIR S, LAKELAND, FL, 33805",104808069,"L"
29544,"116 BEACH 59TH STREET NUM 302","ARVERNE","NY",11692,40.5904175090001,-73.788734268,44,"116 BEACH 59TH STREET NUM 302, ARVERNE, NY, 11692","Match","Exact","116 BEACH 59TH ST, ARVERNE, NY, 11692",59737543,"R"
29545,"116 BEACHWOOD CIRCLE","PEARL","MS",39208,32.2390264260001,-90.044065878,45,"116 BEACHWOOD CIRCLE, PEARL, MS, 39208","Match","Non_Exact","116 BEECHWOOD CIR, PEARL, MS, 39208",639204853,"L"
29546,"116 BEL AIR HILLS ROAD","BELLEFONTE","PA",16823,40.8931947230001,-77.786167652,46,"116 BEL AIR HILLS ROAD, BELLEFONTE, PA, 16823","Match","Exact","116 BEL AIR HILLS RD, BELLEFONTE, PA, 16823",50359644,"R"
29547,"116 BENNETT DRIVE","LYNCHBURG","VA",24501,37.3911758690001,-79.208156274,47,"116 BENNETT DRIVE, LYNCHBURG, VA, 24501","Match","Non_Exact","116 BENNETT ST, LYNCHBURG, VA, 24501",637328655,"R"
29548,"116 BERRY PATCH LANE","CHAPEL HILL","NC",27514,35.9440351980001,-79.02174819,48,"116 BERRY PATCH LANE, CHAPEL HILL, NC, 27514","Match","Exact","116 BERRY PATCH LN, CHAPEL HILL, NC, 27514",72414377,"R"
29549,"116 BLACKBURN DRIVE","NOTTINGHAM","PA",19362,39.7564148880001,-76.029097146,49,"116 BLACKBURN DRIVE, NOTTINGHAM, PA, 19362","Match","Exact","116 BLACKBURN DR, NOTTINGHAM, PA, 19362",627005427,"L"
29550,"116 BLOWING TREE DRIVE","GEORGETOWN","MA",40324,NA,NA,50,"116 BLOWING TREE DRIVE, GEORGETOWN, MA, 40324","No_Match",NA,NA,NA,NA
29551,"116 BLUEBIRD DRIVE","GREENWOOD","MS",38930,33.5072998040001,-90.140774667,51,"116 BLUEBIRD DRIVE, GREENWOOD, MS, 38930","Match","Exact","116 BLUEBIRD DR, GREENWOOD, MS, 38930",1055154,"L"
29552,"116 BRADY LANE","STATESVILLE","NC",28625,35.7892816,-81.007491918,52,"116 BRADY LANE, STATESVILLE, NC, 28625","Match","Exact","116 BRADY LN, STATESVILLE, NC, 28625",45980574,"R"
29553,"116 BREESPORT ROAD","HORSEHEADS","NY",14845,42.1845352400001,-76.78313494,53,"116 BREESPORT ROAD, HORSEHEADS, NY, 14845","Match","Exact","116 BREESPORT RD, HORSEHEADS, NY, 14845",18566604,"R"
29554,"116 BRIDLE DRIVE","ANGIER","NC",27501,35.524431613,-78.599079241,54,"116 BRIDLE DRIVE, ANGIER, NC, 27501","Match","Exact","116 BRIDLE DR, ANGIER, NC, 27501",623953359,"R"
29555,"116 BRIGHAM HILL RD","NORTH GRAFTON","MA",1536,42.2130088870001,-71.709157267,55,"116 BRIGHAM HILL RD, NORTH GRAFTON, MA, 1536","Match","Exact","116 BRIGHAM HILL RD, NORTH GRAFTON, MA, 01536",642603268,"R"
29556,"116 BRIGHTMOOR CT","CANTON","GA",30115,34.2335803130001,-84.349681339,56,"116 BRIGHTMOOR CT, CANTON, GA, 30115","Match","Exact","116 BRIGHTMOOR CT, CANTON, GA, 30115",629561192,"R"
29557,"116 BROAD STREET","BEVERLY","NJ",8010,40.066769385,-74.9219592319999,57,"116 BROAD STREET, BEVERLY, NJ, 8010","Match","Exact","116 BROAD ST, BEVERLY, NJ, 08010",134028374,"L"
29558,"116 BROWN KNIGHT LN","LEWISVILLE","TX",75056,33.053786039,-96.9096086709999,58,"116 BROWN KNIGHT LN, LEWISVILLE, TX, 75056","Match","Exact","116 BROWN KNIGHT LN, LEWISVILLE, TX, 75056",641486169,"R"
29559,"116 BRUSHWOOD LANE","PALM COAST","FL",32137,29.560354365,-81.251720747,59,"116 BRUSHWOOD LANE, PALM COAST, FL, 32137","Match","Exact","116 BRUSHWOOD LN, PALM COAST, FL, 32137",94948194,"R"
29560,"116 BRYAN RD SUITE 102","WILMINGTON","NC",28412,34.170984124,-77.9450244289999,60,"116 BRYAN RD SUITE 102, WILMINGTON, NC, 28412","Match","Exact","116 BRYAN RD, WILMINGTON, NC, 28412",152760143,"L"
29561,"116 BYRUM STREET","CARY","NC",27511,35.781176944,-78.780018288,61,"116 BYRUM STREET, CARY, NC, 27511","Match","Exact","116 BYRUM ST, CARY, NC, 27511",72498530,"R"
29562,"116 CABERNET DRIVE","CHAPEL HILL","NC",27516,35.953933889,-79.066605587,62,"116 CABERNET DRIVE, CHAPEL HILL, NC, 27516","Match","Exact","116 CABERNET DR, CHAPEL HILL, NC, 27516",618066918,"R"
29563,"116 CAPEBERRY","IRVINE","CA",92603,33.643589327,-117.775917733,63,"116 CAPEBERRY, IRVINE, CA, 92603","Match","Exact","116 CAPEBERRY, IRVINE, CA, 92603",633526986,"R"
29564,"116 CARDINAL DRIVE","CONSHOHOCKEN","PA",19428,40.0882415950001,-75.302585119,64,"116 CARDINAL DRIVE, CONSHOHOCKEN, PA, 19428","Match","Exact","116 CARDINAL DR, CONSHOHOCKEN, PA, 19428",135103285,"L"
29565,"116 CARROLL STREET","SHREVEPORT","LA",71105,32.453591918,-93.710525118,65,"116 CARROLL STREET, SHREVEPORT, LA, 71105","Match","Exact","116 CARROLL ST, SHREVEPORT, LA, 71105",636241996,"R"
29566,"116 CASPER AVE","NEWCASTLE","WY",82701,43.8494123340001,-104.21009257,66,"116 CASPER AVE, NEWCASTLE, WY, 82701","Match","Exact","116 CASPER AVE, NEWCASTLE, WY, 82701",147492485,"R"
29567,"116 CELENTANO DRIVE","NAUGATUCK","CT",6770,41.4824722770001,-73.035265857,67,"116 CELENTANO DRIVE, NAUGATUCK, CT, 6770","Match","Non_Exact","116 CELANTANO DR, NAUGATUCK, CT, 06770",653165636,"L"
29568,"116 CENTRAL AVE","HOUMA","LA",70364,29.5981912880001,-90.725261356,68,"116 CENTRAL AVE, HOUMA, LA, 70364","Match","Exact","116 CENTRAL AVE, HOUMA, LA, 70364",92050947,"R"
29569,"116 CENTRAL PARK SOUTH APT 10E","NEW YORK","NY",10019,40.765934133,-73.976853466,69,"116 CENTRAL PARK SOUTH APT 10E, NEW YORK, NY, 10019","Match","Exact","116 CENTRAL PARK S, NEW YORK, NY, 10019",59657120,"L"
29570,"116 CHARLES AVE","SHREVEPORT","LA",71105,32.45889077,-93.709028374,70,"116 CHARLES AVE, SHREVEPORT, LA, 71105","Match","Exact","116 CHARLES AVE, SHREVEPORT, LA, 71105",57441789,"R"
29571,"116 CHARLTON ST","WAHIAWA","HI",96786,21.489426501,-158.04713482,71,"116 CHARLTON ST, WAHIAWA, HI, 96786","Match","Exact","116 CHARLTON ST, WAHIAWA, HI, 96786",203224324,"L"
29572,"116 CHELSEA AVENUE","GLENSIDE","PA",19038,40.1141715890001,-75.171044791,72,"116 CHELSEA AVENUE, GLENSIDE, PA, 19038","Match","Exact","116 CHELSEA AVE, GLENSIDE, PA, 19038",634044775,"L"
29573,"116 CHILDRESS CIRCLE","GREENVILLE","SC",29617,34.869976433,-82.448899389,73,"116 CHILDRESS CIRCLE, GREENVILLE, SC, 29617","Match","Exact","116 CHILDRESS CIR, GREENVILLE, SC, 29617",38295682,"R"
29574,"116 CHURCH STREET 3RD FLOOR","CHARLESTON","SC",29401,32.776716659,-79.929227579,74,"116 CHURCH STREET 3RD FLOOR, CHARLESTON, SC, 29401","Match","Exact","116 CHURCH ST, CHARLESTON, SC, 29401",108807941,"R"
29575,"116 CIRCLE AVENUE  UNIT 2","FOREST PARK","IL",60130,41.8845029770001,-87.809453377,75,"116 CIRCLE AVENUE  UNIT 2, FOREST PARK, IL, 60130","Match","Exact","116 CIRCLE AVE, FOREST PARK, IL, 60130",605143038,"L"
29576,"116 CITRUS LANE","PONTE VEDRA BEACH","FL",32082,30.216700539,-81.387270267,76,"116 CITRUS LANE, PONTE VEDRA BEACH, FL, 32082","Match","Exact","116 CITRUS LN, PONTE VEDRA BEACH, FL, 32082",92601542,"L"
29577,"116 CLARK CREEK LN","LONGVIEW","WA",98632,46.1851368310001,-122.990631361,77,"116 CLARK CREEK LN, LONGVIEW, WA, 98632","Match","Exact","116 CLARK CREEK LN, LONGVIEW, WA, 98632",628973922,"L"
29578,"116 CLEAR WATER COURT","ROSEVILLE","CA",95678,38.7676760520001,-121.311925564,78,"116 CLEAR WATER COURT, ROSEVILLE, CA, 95678","Match","Non_Exact","116 CLEARWATER CT, ROSEVILLE, CA, 95678",106794793,"R"
29579,"116 COAL ST","BUTLER","PA",16001,40.8526486060001,-79.8977161999999,79,"116 COAL ST, BUTLER, PA, 16001","Match","Exact","116 COAL ST, BUTLER, PA, 16001",52680450,"L"
29580,"116 COLLEGE STREET","ADAIRSVILLE","GA",30103,34.3681975050001,-84.939436648,80,"116 COLLEGE STREET, ADAIRSVILLE, GA, 30103","Match","Exact","116 COLLEGE ST, ADAIRSVILLE, GA, 30103",635854728,"L"
29581,"116 CONWAY AVE","NARBERTH","PA",19072,40.004947874,-75.2642855509999,81,"116 CONWAY AVE, NARBERTH, PA, 19072","Match","Exact","116 CONWAY AVE, NARBERTH, PA, 19072",135087793,"L"
29582,"116 CORPORATE DRIVE","ELIZABETH CITY","NC",27909,36.3637824940001,-76.301162334,82,"116 CORPORATE DRIVE, ELIZABETH CITY, NC, 27909","Match","Exact","116 CORPORATE DR, ELIZABETH CITY, NC, 27909",18591505,"L"
29583,"116 COUNTY ROAD 610","ENTERPRISE","AL",36330,31.262492928,-85.890718995,83,"116 COUNTY ROAD 610, ENTERPRISE, AL, 36330","Match","Exact","116 CO RD 610, ENTERPRISE, AL, 36330",653329697,"R"
29584,"116 COUNTY ROUTE 17A","COMSTOCK","NY",12821,43.44948327,-73.372459006,84,"116 COUNTY ROUTE 17A, COMSTOCK, NY, 12821","Match","Exact","116 CO RTE 17A, COMSTOCK, NY, 12821",139145515,"L"
29585,"116 CRISTIE DR","VERONA","PA",15147,40.4782054780001,-79.836019423,85,"116 CRISTIE DR, VERONA, PA, 15147","Match","Exact","116 CRISTIE DR, VERONA, PA, 15147",51667049,"L"
29586,"116 CROW HILL ROAD","JACKSON","NJ",8527,40.1218591200001,-74.307978163,86,"116 CROW HILL ROAD, JACKSON, NJ, 8527","Match","Exact","116 CROW HILL RD, JACKSON, NJ, 08527",203718941,"L"
29587,"116 DANVILLE ST","HARRODSBURG","KY",40330,NA,NA,87,"116 DANVILLE ST, HARRODSBURG, KY, 40330","No_Match",NA,NA,NA,NA
29588,"116 DAVID DRIVE","STURGIS","SD",57785,44.4011301730001,-103.516310642,88,"116 DAVID DRIVE, STURGIS, SD, 57785","Match","Exact","116 DAVID DR, STURGIS, SD, 57785",636613771,"R"
29589,"116 DAVIS RD","RIO GRANDE","NJ",8242,39.021083563,-74.8814640099999,89,"116 DAVIS RD, RIO GRANDE, NJ, 8242","Match","Exact","116 DAVIS RD, RIO GRANDE, NJ, 08242",174336513,"R"
29590,"116 DAWN RIVER CV","AUSTIN","TX",78732,30.3502997360001,-97.91464122,90,"116 DAWN RIVER CV, AUSTIN, TX, 78732","Match","Exact","116 DAWN RIVER COVE, AUSTIN, TX, 78732",64104457,"R"
29591,"116 DEPOT RD","CANTERBURY","CT",6331,41.640684723,-71.97904721,91,"116 DEPOT RD, CANTERBURY, CT, 6331","Match","Exact","116 DEPOT RD, CANTERBURY, CT, 06331",617195849,"R"
29592,"116 DEVOE STREET APT 2","BROOKLYN","NY",11211,40.7135642960001,-73.946671237,92,"116 DEVOE STREET APT 2, BROOKLYN, NY, 11211","Match","Exact","116 DEVOE ST, BROOKLYN, NY, 11211",59076861,"R"
29593,"116 DILLARD DR","WESTWEGO","LA",70094,29.9130154700001,-90.216574742,93,"116 DILLARD DR, WESTWEGO, LA, 70094","Match","Exact","116 DILLARD DR, WESTWEGO, LA, 70094",93496719,"R"
29594,"116 DITTMAN LN","KARNS CITY","PA",16041,40.9765563060001,-79.714906043,94,"116 DITTMAN LN, KARNS CITY, PA, 16041","Match","Exact","116 DITTMAN LN, KARNS CITY, PA, 16041",52677119,"L"
29595,"116 DIVISION ST W","MAPLE LAKE","MN",55358,45.2296451450001,-94.0015373799999,95,"116 DIVISION ST W, MAPLE LAKE, MN, 55358","Match","Non_Exact","116 DIVISION ST E, MAPLE LAKE, MN, 55358",43995892,"R"
29596,"116 DORADO AVENUE","SEWELL","NJ",8080,39.760574842,-75.081215136,96,"116 DORADO AVENUE, SEWELL, NJ, 8080","Match","Exact","116 DORADO AVE, SEWELL, NJ, 08080",134586782,"L"
29597,"116 E 10TH AVE","SELAH","WA",98942,46.6441104900001,-120.529393592,97,"116 E 10TH AVE, SELAH, WA, 98942","Match","Non_Exact","116 10TH AVE E, SELAH, WA, 98942",184933472,"R"
29598,"116 E 32ND STREET","MINNEAPOLIS","MN",55408,44.944967331,-93.276378951,98,"116 E 32ND STREET, MINNEAPOLIS, MN, 55408","Match","Exact","116 E 32ND ST, MINNEAPOLIS, MN, 55408",43633574,"L"
29599,"116 E 63RD STREET 1C","NEW YORK","NY",10065,40.7651060330001,-73.967252307,99,"116 E 63RD STREET 1C, NEW YORK, NY, 10065","Match","Non_Exact","116 E 63RD ST, NEW YORK, NY, 10065",59657434,"R"
29600,"116 E 6TH ST","MEDFORD","OR",97501,42.3270324800001,-122.873669673,100,"116 E 6TH ST, MEDFORD, OR, 97501","Match","Exact","116 E 6TH ST, MEDFORD, OR, 97501",155514411,"R"
29601,"116 E 8TH STREET","OWENSBORO","KY",42303,37.7683474030001,-87.110363403,101,"116 E 8TH STREET, OWENSBORO, KY, 42303","Match","Exact","116 E 8TH ST, OWENSBORO, KY, 42303",37559248,"R"
29602,"116 E ALBIA RD","CHARITON","IA",50049,41.0074258060001,-93.294143086,102,"116 E ALBIA RD, CHARITON, IA, 50049","Match","Exact","116 ALBIA RD, CHARITON, IA, 50049",83739352,"R"
29603,"116 E APPLEWAY","COEUR D ALENE","ID",83814,47.7007246320001,-116.785556624,103,"116 E APPLEWAY, COEUR D ALENE, ID, 83814","Match","Non_Exact","116 E APPLEWAY AVE, COEUR D ALENE, ID, 83814",640599575,"L"
29604,"116 E COMA AV  295","HIDALGO","TX",78557,26.1078819050001,-98.261680284,104,"116 E COMA AV  295, HIDALGO, TX, 78557","Match","Non_Exact","116 W COMA AVE, HIDALGO, TX, 78557",71558367,"R"
29605,"116 E FOOTHILL BLVD","GLENDORA","CA",91741,34.136054275,-117.865170125,105,"116 E FOOTHILL BLVD, GLENDORA, CA, 91741","Match","Exact","116 E FOOTHILL BLVD, GLENDORA, CA, 91741",141710423,"R"
29606,"116 E LIVE OAK AVE STE 28","ARCADIA","CA",91006,34.107912824,-118.026592275,106,"116 E LIVE OAK AVE STE 28, ARCADIA, CA, 91006","Match","Non_Exact","116 E LIVE OAK AVE, ARCADIA, CA, 91006",141645740,"R"
29607,"116 E MAIN ST 201","ROCK HILL","SC",29730,NA,NA,107,"116 E MAIN ST 201, ROCK HILL, SC, 29730","Tie",NA,NA,NA,NA
29608,"116 E MAIN STREET SUITE 201","ROCK HILL","SC",29730,NA,NA,108,"116 E MAIN STREET SUITE 201, ROCK HILL, SC, 29730","Tie",NA,NA,NA,NA
29609,"116 E MAIN STREET","BRANDON","WI",53919,NA,NA,109,"116 E MAIN STREET, BRANDON, WI, 53919","Tie",NA,NA,NA,NA
29610,"116 E MAIN STREET","CAMDEN","TN",38320,36.0578357800001,-88.095205662,110,"116 E MAIN STREET, CAMDEN, TN, 38320","Match","Exact","116 E MAIN ST, CAMDEN, TN, 38320",19117165,"R"
29611,"116 E RALEIGH STREET UNIT 170","SILER CITY","NC",27344,NA,NA,111,"116 E RALEIGH STREET UNIT 170, SILER CITY, NC, 27344","Tie",NA,NA,NA,NA
29612,"116 E SOUTH ST","WOOSTER","OH",44691,40.7970198510001,-81.939380864,112,"116 E SOUTH ST, WOOSTER, OH, 44691","Match","Exact","116 E SOUTH ST, WOOSTER, OH, 44691",58734900,"L"
29613,"116 E SPENCER","SAINT FRANCIS","KS",67756,39.772095891,-101.801077052,113,"116 E SPENCER, SAINT FRANCIS, KS, 67756","Match","Non_Exact","116 SPENCER ST, SAINT FRANCIS, KS, 67756",161415598,"R"
29614,"116 E VETERAN MEMORIAL BLVD STE B","HARKER HEIGHTS","TX",76548,31.0895990860001,-97.663925733,114,"116 E VETERAN MEMORIAL BLVD STE B, HARKER HEIGHTS, TX, 76548","Match","Non_Exact","116 E VETERANS MEMORIAL BLVD, HARKER HEIGHTS, TX, 76548",146142177,"R"
29615,"116 E WASHINGTON ST","MOMENCE","IL",60954,41.1630215640001,-87.662389553,115,"116 E WASHINGTON ST, MOMENCE, IL, 60954","Match","Exact","116 E WASHINGTON ST, MOMENCE, IL, 60954",98348736,"R"
29616,"116 EAST 32ND STREET  SUITE 101","MINNEAPOLIS","MN",55408,44.944967331,-93.276382558,116,"116 EAST 32ND STREET  SUITE 101, MINNEAPOLIS, MN, 55408","Match","Exact","116 E 32ND ST, MINNEAPOLIS, MN, 55408",43633574,"L"
29617,"116 EAST 66TH STREET APT 10E","NEW YORK","NY",10065,40.766906437,-73.965701488,117,"116 EAST 66TH STREET APT 10E, NEW YORK, NY, 10065","Match","Exact","116 E 66TH ST, NEW YORK, NY, 10065",59657454,"R"
29618,"116 EAST BOZEMAN LANE","FORT WORTH","TX",76108,32.8239624290001,-97.579559914,118,"116 EAST BOZEMAN LANE, FORT WORTH, TX, 76108","Match","Exact","116 E BOZEMAN LN, FORT WORTH, TX, 76108",103606921,"L"
29619,"116 EAST GALE STREET","EDENTON","NC",27932,36.061748123,-76.607071834,119,"116 EAST GALE STREET, EDENTON, NC, 27932","Match","Exact","116 E GALE ST, EDENTON, NC, 27932",18468762,"L"
29620,"116 EAST LAWSON STREET","HAHIRA","GA",31632,30.9927679190001,-83.371557423,120,"116 EAST LAWSON STREET, HAHIRA, GA, 31632","Match","Exact","116 E LAWSON ST, HAHIRA, GA, 31632",87713984,"R"
29621,"116 EAST MAIN STREEET","WAKEFIELD","VA",23888,36.9709074990001,-76.980698971,121,"116 EAST MAIN STREEET, WAKEFIELD, VA, 23888","Match","Non_Exact","116 E MAIN ST, WAKEFIELD, VA, 23888",168089523,"L"
29622,"116 FARRAND PARK","HIGHLAND PARK","MI",48203,42.401522867,-83.0893454599999,122,"116 FARRAND PARK, HIGHLAND PARK, MI, 48203","Match","Exact","116 FARRAND PARK, HIGHLAND PARK, MI, 48203",95463720,"R"
29623,"116 FIRESTEDE CT","WHITE HOUSE","TN",37188,36.454246422,-86.660987652,123,"116 FIRESTEDE CT, WHITE HOUSE, TN, 37188","Match","Exact","116 FIRESTEDE CT, WHITE HOUSE, TN, 37188",601431717,"R"
29624,"116 FIRST STREET","ELKLAND","PA",16920,41.9880518480001,-77.31392927,124,"116 FIRST STREET, ELKLAND, PA, 16920","Match","Exact","116 1ST ST, ELKLAND, PA, 16920",189655766,"L"
29625,"116 FOX RIDGE DRIVE","NAZARETH","PA",18064,40.7886901840001,-75.3597367799999,125,"116 FOX RIDGE DRIVE, NAZARETH, PA, 18064","Match","Exact","116 FOX RIDGE DR, NAZARETH, PA, 18064",634134017,"R"
29626,"116 FOXBERRY CT","ORANGEBURG","SC",29118,33.5278491220001,-80.854975651,126,"116 FOXBERRY CT, ORANGEBURG, SC, 29118","Match","Exact","116 FOXBERRY CT, ORANGEBURG, SC, 29118",605541253,"R"
29627,"116 FRANCOIS DRIVE","LAFAYETTE","LA",70507,30.3071267780001,-92.034528009,127,"116 FRANCOIS DRIVE, LAFAYETTE, LA, 70507","Match","Exact","116 FRANCOIS DR, LAFAYETTE, LA, 70507",85613458,"L"
29628,"116 FRANK BUNN DR","FORSYTH","GA",31029,33.0669881580001,-83.9152596179999,128,"116 FRANK BUNN DR, FORSYTH, GA, 31029","Match","Exact","116 FRANK BUNN DR, FORSYTH, GA, 31029",66673426,"L"
29629,"116 FRANKLIN STREET","SELMA","AL",36701,32.4087568360001,-87.0179438499999,129,"116 FRANKLIN STREET, SELMA, AL, 36701","Match","Non_Exact","116 FRANKLIN ST, SELMA, AL, 36703",1298840,"R"
29630,"116 GAY STREET -  UNIT 224","PHOENIXVILLE","PA",19460,40.131584011,-75.518099325,130,"116 GAY STREET -  UNIT 224, PHOENIXVILLE, PA, 19460","Match","Exact","116 GAY ST, PHOENIXVILLE, PA, 19460",179494748,"R"
29631,"116 GENERAL MUDGE STREET","ALBANY","GA",31707,31.624464183,-84.200872756,131,"116 GENERAL MUDGE STREET, ALBANY, GA, 31707","Match","Exact","116 GENERAL MUDGE ST, ALBANY, GA, 31707",124573593,"R"
29632,"116 GEORGIA LANE","KINGSTON","TN",37763,35.881544756,-84.539002554,132,"116 GEORGIA LANE, KINGSTON, TN, 37763","Match","Exact","116 GEORGIA LN, KINGSTON, TN, 37763",88601733,"R"
29633,"116 GLACIER DRIVE SUITE 105","LOLO","MT",59847,46.7650145600001,-114.079159225,133,"116 GLACIER DRIVE SUITE 105, LOLO, MT, 59847","Match","Exact","116 GLACIER DR, LOLO, MT, 59847",205235707,"L"
29634,"116 GLENDALE ROAD","UPPER DARBY","PA",19082,39.9590510800001,-75.2608842179999,134,"116 GLENDALE ROAD, UPPER DARBY, PA, 19082","Match","Exact","116 GLENDALE RD, UPPER DARBY, PA, 19082",134878189,"R"
29635,"116 GLENWOOD DRIVE","MONROE","LA",71203,NA,NA,135,"116 GLENWOOD DRIVE, MONROE, LA, 71203","No_Match",NA,NA,NA,NA
29636,"116 GLORIA RD SW","BIRMINGHAM","AL",35211,33.4666638680001,-86.863770962,136,"116 GLORIA RD SW, BIRMINGHAM, AL, 35211","Match","Exact","116 GLORIA RD SW, BIRMINGHAM, AL, 35211",81559182,"L"
29637,"116 GOLDFINCH COURT","PIEDMONT","SC",29673,34.7063049070001,-82.472692538,137,"116 GOLDFINCH COURT, PIEDMONT, SC, 29673","Match","Exact","116 GOLDFINCH CT, PIEDMONT, SC, 29673",25507803,"R"
29638,"116 GRANDGER RD","RAEFORD","NC",28376,NA,NA,138,"116 GRANDGER RD, RAEFORD, NC, 28376","No_Match",NA,NA,NA,NA
29639,"116 GREENBRIAR DR","GAFFNEY","SC",29341,35.081924181,-81.680549941,139,"116 GREENBRIAR DR, GAFFNEY, SC, 29341","Match","Exact","116 GREENBRIAR DR, GAFFNEY, SC, 29341",18988173,"R"
29640,"116 GREENHAVEN COURT","ELIZABETHTOWN","KY",42701,37.6326579760001,-85.819264849,140,"116 GREENHAVEN COURT, ELIZABETHTOWN, KY, 42701","Match","Exact","116 GREENHAVEN CT, ELIZABETHTOWN, KY, 42701",34633487,"L"
29641,"116 GROVE HOLLOW COURT","SANFORD","FL",32773,28.761508683,-81.3090677389999,141,"116 GROVE HOLLOW COURT, SANFORD, FL, 32773","Match","Exact","116 GROVE HOLLOW CT, SANFORD, FL, 32773",93753592,"L"
29642,"116 HANCOCK AMD MOORE LN","TAYLORSVILLE","NC",28681,NA,NA,142,"116 HANCOCK AMD MOORE LN, TAYLORSVILLE, NC, 28681","No_Match",NA,NA,NA,NA
29643,"116 HANOVER AVE","DAYTON","OH",45417,39.744453752,-84.273335005,143,"116 HANOVER AVE, DAYTON, OH, 45417","Match","Non_Exact","116 HANOVER ST, DAYTON, OH, 45417",143566374,"L"
29644,"116 HARDAWAY DR","GOODLETTSVILLE","TN",37072,36.295220939,-86.7136470249999,144,"116 HARDAWAY DR, GOODLETTSVILLE, TN, 37072","Match","Exact","116 HARDAWAY DR, GOODLETTSVILLE, TN, 37072",97182570,"L"
29645,"116 HAWTHORNE AVE","EAST ISLIP","NY",11704,40.708272929,-73.340494323,145,"116 HAWTHORNE AVE, EAST ISLIP, NY, 11704","Match","Non_Exact","116 HAWTHORNE AVE, BABYLON, NY, 11704",113976835,"L"
29646,"116 HAYES COURT","BREESE","IL",62230,38.608009968,-89.509444597,146,"116 HAYES COURT, BREESE, IL, 62230","Match","Exact","116 HAYES CT, BREESE, IL, 62230",94819944,"L"
29647,"116 HAZEL DRIVE","RIVER RIDGE","LA",70123,29.945013343,-90.2160337619999,147,"116 HAZEL DRIVE, RIVER RIDGE, LA, 70123","Match","Exact","116 HAZEL DR, RIVER RIDGE, LA, 70123",93533791,"L"
29648,"116 HERITAGE WAY","UNION","SC",29379,34.742682508,-81.645537205,148,"116 HERITAGE WAY, UNION, SC, 29379","Match","Exact","116 HERITAGE WAY, UNION, SC, 29379",640877869,"R"
29649,"116 HICKORY CIRCLE","CORTLAND","OH",44410,41.343464269,-80.714611528,149,"116 HICKORY CIRCLE, CORTLAND, OH, 44410","Match","Exact","116 HICKORY CIR, CORTLAND, OH, 44410",117406910,"R"
29650,"116 HIDEAWAY LANE CENTRAL","HIDEAWAY","TX",75771,32.4724014760001,-95.456874485,150,"116 HIDEAWAY LANE CENTRAL, HIDEAWAY, TX, 75771","Match","Non_Exact","116 HIDE-A-WAY LANE CENTRAL, HIDEAWAY, TX, 75771",642468814,"L"
29651,"116 HILLSIDE AVENUE","COBLESKILL","NY",12043,42.68691585,-74.4747363669999,151,"116 HILLSIDE AVENUE, COBLESKILL, NY, 12043","Match","Exact","116 HILLSIDE AVE, COBLESKILL, NY, 12043",627120058,"L"
29652,"116 HIWAY LANE","INTERNATIONAL FALLS","MN",56649,48.597853168,-93.423760896,152,"116 HIWAY LANE, INTERNATIONAL FALLS, MN, 56649","Match","Exact","116 HIWAY LN, INTERNATIONAL FALLS, MN, 56649",176474548,"L"
29653,"116 HOLLIS AVE","QUINCY","MA",2171,42.277962029,-71.022884075,153,"116 HOLLIS AVE, QUINCY, MA, 2171","Match","Exact","116 HOLLIS AVE, QUINCY, MA, 02171",87248674,"L"
29654,"116 HOLLOW COURT","GARNER","NC",27529,35.653226413,-78.6174198419999,154,"116 HOLLOW COURT, GARNER, NC, 27529","Match","Exact","116 HOLLOW CT, GARNER, NC, 27529",72648549,"R"
29655,"116 HOLLY TREE RD","CARROLLTON","GA",30116,33.6072358970001,-84.994460182,155,"116 HOLLY TREE RD, CARROLLTON, GA, 30116","Match","Exact","116 HOLLY TREE RD, CARROLLTON, GA, 30116",17118395,"R"
29656,"116 HOPE STREET","PROVIDENCE","RI",2906,41.822626014,-71.396853855,156,"116 HOPE STREET, PROVIDENCE, RI, 2906","Match","Exact","116 HOPE ST, PROVIDENCE, RI, 02906",47467688,"L"
29657,"116 HURST CREEK RD","LAKEWAY","TX",78734,30.3683505650001,-97.979376535,157,"116 HURST CREEK RD, LAKEWAY, TX, 78734","Match","Exact","116 HURST CREEK RD, LAKEWAY, TX, 78734",63922641,"L"
29658,"116 INSKIP AVE","OCEAN GROVE","NJ",7756,40.208206229,-74.013361671,158,"116 INSKIP AVE, OCEAN GROVE, NJ, 7756","Match","Exact","116 INSKIP AVE, OCEAN GROVE, NJ, 07756",90464224,"L"
29659,"116 JULIA ISLAND CIRCLE","SACRAMENTO","CA",95834,NA,NA,159,"116 JULIA ISLAND CIRCLE, SACRAMENTO, CA, 95834","No_Match",NA,NA,NA,NA
29660,"116 KANAWHA VIEW RD","RED HOUSE","WV",25168,38.5516707620001,-81.885994951,160,"116 KANAWHA VIEW RD, RED HOUSE, WV, 25168","Match","Exact","116 KANAWHA VW, RED HOUSE, WV, 25168",130519458,"R"
29661,"116 KATHERINE ST","SUFFOLK","VA",23434,36.735244123,-76.5757705299999,161,"116 KATHERINE ST, SUFFOLK, VA, 23434","Match","Exact","116 KATHERINE ST, SUFFOLK, VA, 23434",122227107,"L"
29662,"116 KAUKIS DRIVE","LE SUEUR","MN",56058,44.4496254260001,-93.9085324339999,162,"116 KAUKIS DRIVE, LE SUEUR, MN, 56058","Match","Exact","116 KAUKIS DR, LE SUEUR, MN, 56058",28660199,"R"
29663,"116 KIM CT","RUSSELLVILLE","KY",42276,NA,NA,163,"116 KIM CT, RUSSELLVILLE, KY, 42276","No_Match",NA,NA,NA,NA
29664,"116 KIRAM TER SW","ATLANTA","GA",30331,33.6662199090001,-84.549054183,164,"116 KIRAM TER SW, ATLANTA, GA, 30331","Match","Non_Exact","116 KIRAM TER, ATLANTA, GA, 30331",644636107,"L"
29665,"116 LABARRE","GIBBON","NE",68840,NA,NA,165,"116 LABARRE, GIBBON, NE, 68840","No_Match",NA,NA,NA,NA
29666,"116 LAIRD CIR","PANAMA CITY BEACH","FL",32408,30.1796721370001,-85.7734300669999,166,"116 LAIRD CIR, PANAMA CITY BEACH, FL, 32408","Match","Exact","116 LAIRD CIR, PANAMA CITY BEACH, FL, 32408",7020937,"L"
29667,"116 LAKE EMERALD DRIVE 302","FORT LAUDERDALE","FL",33309,26.1738958940001,-80.174679063,167,"116 LAKE EMERALD DRIVE 302, FORT LAUDERDALE, FL, 33309","Match","Exact","116 LAKE EMERALD DR, FORT LAUDERDALE, FL, 33309",614406673,"R"
29668,"116 LESLIE CT","BRISTOL","TN",37620,36.571593469,-82.1473298019999,168,"116 LESLIE CT, BRISTOL, TN, 37620","Match","Exact","116 LESLIE CT, BRISTOL, TN, 37620",127863878,"R"
29669,"116 LINCOLN AVE","HIGHLAND PARK","NJ",8904,40.5008047470001,-74.434231314,169,"116 LINCOLN AVE, HIGHLAND PARK, NJ, 8904","Match","Exact","116 LINCOLN AVE, HIGHLAND PARK, NJ, 08904",60360928,"R"
29670,"116 LINDA DR","SAN MARCOS","TX",78666,29.876108178,-97.9284989769999,170,"116 LINDA DR, SAN MARCOS, TX, 78666","Match","Exact","116 LINDA DR, SAN MARCOS, TX, 78666",63827551,"R"
29671,"116 LINDEN BOULEVARD","BROOKLYN","NY",11226,40.652399174,-73.9543471069999,171,"116 LINDEN BOULEVARD, BROOKLYN, NY, 11226","Match","Exact","116 LINDEN BLVD, BROOKLYN, NY, 11226",650074271,"R"
29672,"116 LISA DRIVE 67","WARNER ROBINS","GA",31093,32.618481912,-83.6316752119999,172,"116 LISA DRIVE 67, WARNER ROBINS, GA, 31093","Match","Non_Exact","116 LOIS DR, WARNER ROBINS, GA, 31093",91218506,"R"
29673,"116 LOBDELL AVE","BATON ROUGE","LA",70806,NA,NA,173,"116 LOBDELL AVE, BATON ROUGE, LA, 70806","No_Match",NA,NA,NA,NA
29674,"116 LOCKWOOD DR","WARNER ROBINS","GA",31093,32.640475042,-83.6370485799999,174,"116 LOCKWOOD DR, WARNER ROBINS, GA, 31093","Match","Exact","116 LOCKWOOD DR, WARNER ROBINS, GA, 31093",91258776,"L"
29675,"116 LONG PINE DR","LEESBURG","GA",31763,31.63554974,-84.0967470319999,175,"116 LONG PINE DR, LEESBURG, GA, 31763","Match","Exact","116 LONG PINE DR, LEESBURG, GA, 31763",124577539,"L"
29676,"116 LOWES FOODS DRIVE SUITE 177","LEWISVILLE","NC",27023,36.1007894460001,-80.4111455399999,176,"116 LOWES FOODS DRIVE SUITE 177, LEWISVILLE, NC, 27023","Match","Exact","116 LOWES FOODS DR, LEWISVILLE, NC, 27023",632479833,"R"
29677,"116 LOWRY LANE","WILMORE","KY",40390,37.857734941,-84.667523699,177,"116 LOWRY LANE, WILMORE, KY, 40390","Match","Exact","116 LOWRY LN, WILMORE, KY, 40390",38463825,"R"
29678,"116 MACY CT","CHRISTIANA","TN",37037,35.689658923,-86.490247784,178,"116 MACY CT, CHRISTIANA, TN, 37037","Match","Exact","116 MACY CT, CHRISTIANA, TN, 37037",606768543,"R"
29679,"116 MAGNOLIA DRIVE","DANVILLE","VA",24541,36.572941185,-79.417779321,179,"116 MAGNOLIA DRIVE, DANVILLE, VA, 24541","Match","Exact","116 MAGNOLIA DR, DANVILLE, VA, 24541",56588509,"R"
29680,"116 MAIN STREET SUITE 208","MEDWAY","MA",2053,42.1503098100001,-71.415538482,180,"116 MAIN STREET SUITE 208, MEDWAY, MA, 2053","Match","Exact","116 MAIN ST, MEDWAY, MA, 02053",87292093,"L"
29681,"116 MAIN STREET","BROOKHAVEN","MS",39601,31.586423138,-90.435179342,181,"116 MAIN STREET, BROOKHAVEN, MS, 39601","Match","Exact","116 MAIN ST, BROOKHAVEN, MS, 39601",617487121,"R"
29682,"116 MAIN STREET","PIKEVILLE","KY",41501,37.477953052,-82.518381108,182,"116 MAIN STREET, PIKEVILLE, KY, 41501","Match","Exact","116 MAIN ST, PIKEVILLE, KY, 41501",40417019,"R"
29683,"116 MAIN STREET","STATEN ISLAND","NY",10307,40.511965758,-74.2496820929999,183,"116 MAIN STREET, STATEN ISLAND, NY, 10307","Match","Exact","116 MAIN ST, STATEN ISLAND, NY, 10307",642648662,"R"
29684,"116 MANGROVE PT","HARDEVILLE","SC",29927,32.177935055,-81.025778394,184,"116 MANGROVE PT, HARDEVILLE, SC, 29927","Match","Non_Exact","116 MANGROVE PT, HARDEEVILLE, SC, 29927",624952612,"R"
29685,"116 MAQUOIT ROAD - ROOM 106","BRUNSWICK","ME",4011,43.8822043540001,-69.9827109,185,"116 MAQUOIT ROAD - ROOM 106, BRUNSWICK, ME, 4011","Match","Exact","116 MAQUOIT RD, BRUNSWICK, ME, 04011",78076152,"L"
29686,"116 MARKET STREET APT 4","PHILADELPHIA","PA",19106,39.9497640170001,-75.14289674,186,"116 MARKET STREET APT 4, PHILADELPHIA, PA, 19106","Match","Exact","116 MARKET ST, PHILADELPHIA, PA, 19106",131424606,"L"
29687,"116 MARMION WAY APT 13","SOUTH PASADENA","CA",91030,34.1111263830001,-118.176482451,187,"116 MARMION WAY APT 13, SOUTH PASADENA, CA, 91030","Match","Exact","116 MARMION WAY, SOUTH PASADENA, CA, 91030",142247721,"L"
29688,"116 MARMION WAY NUM 6","SOUTH PASADENA","CA",91030,34.1111263830001,-118.176482451,188,"116 MARMION WAY NUM 6, SOUTH PASADENA, CA, 91030","Match","Exact","116 MARMION WAY, SOUTH PASADENA, CA, 91030",142247721,"L"
29689,"116 MARSHALL ST","BOONE","IA",50036,42.05680267,-93.878270841,189,"116 MARSHALL ST, BOONE, IA, 50036","Match","Exact","116 MARSHALL ST, BOONE, IA, 50036",64934827,"R"
29690,"116 MARYKIRK PLACE","GARNER","ND",27529,NA,NA,190,"116 MARYKIRK PLACE, GARNER, ND, 27529","No_Match",NA,NA,NA,NA
29691,"116 MASON ST FL 2","GREENWICH","CT",6830,41.0284268,-73.624061239,191,"116 MASON ST FL 2, GREENWICH, CT, 6830","Match","Exact","116 MASON ST, GREENWICH, CT, 06830",3243583,"R"
29692,"116 MATCH POINT DRIVE","CHAPIN","SC",29036,34.122147979,-81.29308374,192,"116 MATCH POINT DRIVE, CHAPIN, SC, 29036","Match","Exact","116 MATCH POINT DR, CHAPIN, SC, 29036",71849445,"R"
29693,"116 MATTHEW CT","EAGLE LAKE","MN",56024,44.161992845,-93.88928273,193,"116 MATTHEW CT, EAGLE LAKE, MN, 56024","Match","Non_Exact","116 MATHEW CT, EAGLE LAKE, MN, 56024",28113676,"L"
29694,"116 MEADOWS LN","TROY","AL",36079,31.763722736,-85.942168093,194,"116 MEADOWS LN, TROY, AL, 36079","Match","Exact","116 MEADOWS LN, TROY, AL, 36079",612851593,"L"
29695,"116 MICHAEL LN","SHARPSVILLE","IN",46068,40.3868354370001,-86.121880827,195,"116 MICHAEL LN, SHARPSVILLE, IN, 46068","Match","Exact","116 MICHAEL LN, SHARPSVILLE, IN, 46068",653402692,"R"
29696,"116 MICHIGAN AVENUE","SAINT LOUIS","MI",48880,NA,NA,196,"116 MICHIGAN AVENUE, SAINT LOUIS, MI, 48880","No_Match",NA,NA,NA,NA
29697,"116 MILLET CIRCLE","CANTONMENT","FL",32533,NA,NA,197,"116 MILLET CIRCLE, CANTONMENT, FL, 32533","No_Match",NA,NA,NA,NA
29698,"116 MISSOURI LANE","MT HOLLY","NC",28120,35.2690205960001,-81.01828933,198,"116 MISSOURI LANE, MT HOLLY, NC, 28120","Match","Exact","116 MISSOURI LN, MOUNT HOLLY, NC, 28120",70453925,"L"
29699,"116 MOSAIC OAKS CIR","SANTA ROSA BEACH","FL",32459,30.3889273200001,-86.2045847959999,199,"116 MOSAIC OAKS CIR, SANTA ROSA BEACH, FL, 32459","Match","Exact","116 MOSAIC OAKS CIR, SANTA ROSA BEACH, FL, 32459",650948038,"R"
29700,"116 MOUNTAIN VIEW LN","ELMA","WA",98541,46.9567938600001,-123.366084293,200,"116 MOUNTAIN VIEW LN, ELMA, WA, 98541","Match","Exact","116 MOUNTAIN VIEW LN, ELMA, WA, 98541",180606591,"R"
29701,"116 N 2ND STREET","KNOXVILLE","IA",50138,41.3191610210001,-93.097661123,201,"116 N 2ND STREET, KNOXVILLE, IA, 50138","Match","Exact","116 N 2ND ST, KNOXVILLE, IA, 50138",89478272,"R"
29702,"116 N 5TH STREET","NEW HYDE PARK","NY",11040,NA,NA,202,"116 N 5TH STREET, NEW HYDE PARK, NY, 11040","Tie",NA,NA,NA,NA
29703,"116 N 6TH STREET","MARSHALL","IL",62441,39.390735105,-87.6959849309999,203,"116 N 6TH STREET, MARSHALL, IL, 62441","Match","Exact","116 N 6TH ST, MARSHALL, IL, 62441",5642749,"L"
29704,"116 N BUFFALO STREET","WARSAW","IN",46580,41.238314378,-85.856630979,204,"116 N BUFFALO STREET, WARSAW, IN, 46580","Match","Exact","116 N BUFFALO ST, WARSAW, IN, 46580",7920256,"R"
29705,"116 N DOUGLAS","BLUE SPRINGS","NE",68318,40.1396155830001,-96.657390145,205,"116 N DOUGLAS, BLUE SPRINGS, NE, 68318","Match","Non_Exact","116 N DOUGLAS ST, BLUE SPRINGS, NE, 68318",11616872,"R"
29706,"116 N FALMOUTH HWY","N FALMOUTH","MA",2556,41.623414745,-70.622702477,206,"116 N FALMOUTH HWY, N FALMOUTH, MA, 2556","Match","Exact","116 N FALMOUTH HWY, N FALMOUTH, MA, 02556",121668206,"L"
29707,"116 N FORAKER AVE","WATONGA","OK",73772,35.845098181,-98.4218674589999,207,"116 N FORAKER AVE, WATONGA, OK, 73772","Match","Exact","116 N FORAKER AVE, WATONGA, OK, 73772",606152652,"R"
29708,"116 N HERSEY AVE  PO BOX 369","BELOIT","KS",67420,NA,NA,208,"116 N HERSEY AVE  PO BOX 369, BELOIT, KS, 67420","Tie",NA,NA,NA,NA
29709,"116 N HERSEY AVE","BELOIT","KS",67420,39.4592810250001,-98.1090284859999,209,"116 N HERSEY AVE, BELOIT, KS, 67420","Match","Exact","116 N HERSEY AVE, BELOIT, KS, 67420",148303851,"R"
29710,"116 N MAIN ST","COTTONWOOD","AZ",86326,34.7413069680001,-112.009778353,210,"116 N MAIN ST, COTTONWOOD, AZ, 86326","Match","Exact","116 N MAIN ST, COTTONWOOD, AZ, 86326",159452784,"L"
29711,"116 N MAIN STREET","DECATUR","TN",37322,35.514789632,-84.789445668,211,"116 N MAIN STREET, DECATUR, TN, 37322","Match","Exact","116 N MAIN ST, DECATUR, TN, 37322",79417922,"R"
29712,"116 N NASH ST","HILLSBOROUGH","NC",27278,36.075544429,-79.111195346,212,"116 N NASH ST, HILLSBOROUGH, NC, 27278","Match","Exact","116 N NASH ST, HILLSBOROUGH, NC, 27278",72389500,"R"
29713,"116 N RING AVENUE","TARPON SPRINGS","FL",34689,28.1476274940001,-82.753568969,213,"116 N RING AVENUE, TARPON SPRINGS, FL, 34689","Match","Exact","116 N RING AVE, TARPON SPNGS, FL, 34689",124660718,"R"
29714,"116 N SAXONY DRIVE","OLATHE","KS",66061,NA,NA,214,"116 N SAXONY DRIVE, OLATHE, KS, 66061","Tie",NA,NA,NA,NA
29715,"116 N TAYLOR STREET","GUNNISON","CO",81230,38.5446577640001,-106.924323965,215,"116 N TAYLOR STREET, GUNNISON, CO, 81230","Match","Exact","116 N TAYLOR ST, GUNNISON, CO, 81230",108363822,"R"
29716,"116 N WALNUT ST","MUNCIE","IN",47305,40.1938687540001,-85.386492807,216,"116 N WALNUT ST, MUNCIE, IN, 47305","Match","Exact","116 N WALNUT ST, MUNCIE, IN, 47305",30836432,"R"
29717,"116 NE STAFFORD ST","PORTLAND","OR",97211,45.576480669,-122.664645641,217,"116 NE STAFFORD ST, PORTLAND, OR, 97211","Match","Exact","116 NE STAFFORD ST, PORTLAND, OR, 97211",157502325,"R"
29718,"116 NIZZEAR LN","CARROLLTON","GA",30117,NA,NA,218,"116 NIZZEAR LN, CARROLLTON, GA, 30117","No_Match",NA,NA,NA,NA
29719,"116 NORTH BERLIN AVENUE","NEW OXFORD","PA",17350,39.865962596,-77.05344708,219,"116 NORTH BERLIN AVENUE, NEW OXFORD, PA, 17350","Match","Exact","116 N BERLIN AVE, NEW OXFORD, PA, 17350",60865326,"R"
29720,"116 NORTH BROADWAY SUITE A","SILOAM SPRINGS","AR",72761,36.185311036,-94.540607076,220,"116 NORTH BROADWAY SUITE A, SILOAM SPRINGS, AR, 72761","Match","Non_Exact","116 N BROADWAY ST, SILOAM SPRINGS, AR, 72761",47828602,"L"
29721,"116 NORTH LINTEL DRIVE","FUQUAY VARINA","NC",27526,35.5851579280001,-78.775217982,221,"116 NORTH LINTEL DRIVE, FUQUAY VARINA, NC, 27526","Match","Exact","116 N LINTEL DR, FUQUAY VARINA, NC, 27526",208367246,"R"
29722,"116 NORTH MAIN STREET","SMYRNA","DE",19977,39.3018249130001,-75.607752062,222,"116 NORTH MAIN STREET, SMYRNA, DE, 19977","Match","Exact","116 N MAIN ST, SMYRNA, DE, 19977",68085183,"R"
29723,"116 NORTH MARION STREET","RUSSELVILLE","OH",45168,38.8673355540001,-83.784012406,223,"116 NORTH MARION STREET, RUSSELVILLE, OH, 45168","Match","Non_Exact","116 N MARION ST, RUSSELLVILLE, OH, 45168",100970546,"R"
29724,"116 NORTH SPRUCE STREET","WINSTON-SALEM","NC",27101,36.0927885420001,-80.247911377,224,"116 NORTH SPRUCE STREET, WINSTON-SALEM, NC, 27101","Match","Non_Exact","116 S SPRUCE ST, WINSTON SALEM, NC, 27101",84610833,"R"
29725,"116 NORTH THOMAS STREET","GILMAN","IL",60938,40.7674550620001,-87.9902260169999,225,"116 NORTH THOMAS STREET, GILMAN, IL, 60938","Match","Exact","116 N THOMAS ST, GILMAN, IL, 60938",90753044,"L"
29726,"116 NW 11TH AVENUE","FT LAUDERDALE","FL",33311,26.12310058,-80.1562290689999,226,"116 NW 11TH AVENUE, FT LAUDERDALE, FL, 33311","Match","Non_Exact","116 NW 11TH AVE, FORT LAUDERDALE, FL, 33311",114721437,"R"
29727,"116 NW 19TH ST","BATTLE GROUND","WA",98604,45.7944942390001,-122.53849874,227,"116 NW 19TH ST, BATTLE GROUND, WA, 98604","Match","Exact","116 NW 19TH ST, BATTLE GROUND, WA, 98604",158362010,"R"
29728,"116 NW BOWDOIN PLACE","SEATTLE","WA",98107,47.654864978,-122.357590063,228,"116 NW BOWDOIN PLACE, SEATTLE, WA, 98107","Match","Exact","116 NW BOWDOIN PL, SEATTLE, WA, 98107",186581059,"R"
29729,"116 OAK HILL DRIVE","OAKLAND","ME",4963,44.5610150410001,-69.7256305289999,229,"116 OAK HILL DRIVE, OAKLAND, ME, 4963","Match","Exact","116 OAK HILL DR, OAKLAND, ME, 04963",75473309,"L"
29730,"116 OAKVILLE DRIVE","PITTSBURGH","PA",15220,NA,NA,230,"116 OAKVILLE DRIVE, PITTSBURGH, PA, 15220","No_Match",NA,NA,NA,NA
29731,"116 OLD KEENE RD","ATHOL","MA",1331,42.6049797540001,-72.2174723809999,231,"116 OLD KEENE RD, ATHOL, MA, 1331","Match","Exact","116 OLD KEENE RD, ATHOL, MA, 01331",39989732,"L"
29732,"116 ORIENT AVENUE","JERSEY CITY","NJ",7305,40.711421493,-74.081181223,232,"116 ORIENT AVENUE, JERSEY CITY, NJ, 7305","Match","Exact","116 ORIENT AVE, JERSEY CITY, NJ, 07305",59604310,"R"
29733,"116 ORIOLE LANE","PHOENIXVILLE","PA",19460,40.1604226700001,-75.495077016,233,"116 ORIOLE LANE, PHOENIXVILLE, PA, 19460","Match","Exact","116 ORIOLE LN, PHOENIXVILLE, PA, 19460",605655830,"L"
29734,"116 OVERLOOK DRIVE","MONTAGUE","NJ",7827,41.305214187,-74.783614445,234,"116 OVERLOOK DRIVE, MONTAGUE, NJ, 7827","Match","Exact","116 OVERLOOK DR, MONTAGUE, NJ, 07827",98014260,"L"
29735,"116 OVERSTONE DRIVE","ELIZABETHTON","TN",37643,36.357531696,-82.186411204,235,"116 OVERSTONE DRIVE, ELIZABETHTON, TN, 37643","Match","Exact","116 OVERSTONE DR, ELIZABETHTON, TN, 37643",43048936,"R"
29736,"116 PACES RUN CT","COLUMBIA","SC",29223,34.080918991,-80.957698427,236,"116 PACES RUN CT, COLUMBIA, SC, 29223","Match","Exact","116 PACES RUN CT, COLUMBIA, SC, 29223",604763190,"R"
29737,"116 PAINE ROAD","WESTMORELAND","NH",3467,42.954941698,-72.464425209,237,"116 PAINE ROAD, WESTMORELAND, NH, 3467","Match","Exact","116 PAINE RD, WESTMORELAND, NH, 03467",124075326,"L"
29738,"116 PARIS AVENUE","NORTHVALE","NJ",7647,41.00771644,-73.951807119,238,"116 PARIS AVENUE, NORTHVALE, NJ, 7647","Match","Exact","116 PARIS AVE, NORTHVALE, NJ, 07647",64370963,"L"
29739,"116 PARIS CIRCLE","AURORA","CO",80011,39.7188241970001,-104.848425627,239,"116 PARIS CIRCLE, AURORA, CO, 80011","Match","Exact","116 PARIS CIR, AURORA, CO, 80011",177524638,"R"
29740,"116 PARKER ROAD","FRAMINGHAM","MA",1702,42.2875773220001,-71.480688605,240,"116 PARKER ROAD, FRAMINGHAM, MA, 1702","Match","Exact","116 PARKER RD, FRAMINGHAM, MA, 01702",87098639,"L"
29741,"116 PINEHURST AVENUE APT E15","NEW YORK","NY",10033,40.8520319720001,-73.938897089,241,"116 PINEHURST AVENUE APT E15, NEW YORK, NY, 10033","Match","Exact","116 PINEHURST AVE, NEW YORK, NY, 10033",650152929,"L"
29742,"116 PINETOP ROAD","GORE","VA",22637,39.204017945,-78.408389842,242,"116 PINETOP ROAD, GORE, VA, 22637","Match","Exact","116 PINETOP RD, GORE, VA, 22637",55576199,"R"
29743,"116 PLEASANT STREET","PERU","NY",12972,44.580191212,-73.537363461,243,"116 PLEASANT STREET, PERU, NY, 12972","Match","Exact","116 PLEASANT ST, PERU, NY, 12972",642861109,"R"
29744,"116 PORTSMOUTH DRIVE","NOVATO","CA",94949,38.062533957,-122.521797973,244,"116 PORTSMOUTH DRIVE, NOVATO, CA, 94949","Match","Exact","116 PORTSMOUTH DR, NOVATO, CA, 94949",192786602,"L"
29745,"116 RENZ LN","GEYSERVILLE","CA",95441,38.7091765440001,-122.909536523,245,"116 RENZ LN, GEYSERVILLE, CA, 95441","Match","Exact","116 RENZ LN, GEYSERVILLE, CA, 95441",67531214,"L"
29746,"116 RESERVATION ROAD","CHESAPEAKE","VA",23322,36.720728842,-76.240562051,246,"116 RESERVATION ROAD, CHESAPEAKE, VA, 23322","Match","Exact","116 RESERVATION RD, CHESAPEAKE, VA, 23322",121800078,"R"
29747,"116 RHODE ISLAND AVENUE","EAST ORANGE","NJ",7018,40.7515899250001,-74.2199145599999,247,"116 RHODE ISLAND AVENUE, EAST ORANGE, NJ, 7018","Match","Exact","116 RHODE ISLAND AVE, EAST ORANGE, NJ, 07018",63456045,"R"
29748,"116 RICHBORO NEWTOWN ROAD","NEWTOWN","PA",18940,NA,NA,248,"116 RICHBORO NEWTOWN ROAD, NEWTOWN, PA, 18940","No_Match",NA,NA,NA,NA
29749,"116 RICHBORO ROAD","NEWTOWN","PA",18940,NA,NA,249,"116 RICHBORO ROAD, NEWTOWN, PA, 18940","No_Match",NA,NA,NA,NA
29750,"116 RIDGE COURT","SAYLORSBURG","PA",18353,40.966684941,-75.4154303729999,250,"116 RIDGE COURT, SAYLORSBURG, PA, 18353","Match","Exact","116 RIDGE CT, SAYLORSBURG, PA, 18353",624887653,"R"
29751,"116 RIVER BIRCH ROAD","CHELSEA","AL",35403,33.311899167,-86.675489757,251,"116 RIVER BIRCH ROAD, CHELSEA, AL, 35403","Match","Non_Exact","116 RIVER BIRCH RD, CHELSEA, AL, 35043",637650750,"L"
29752,"116 RIVERCLIFF DRIVE","MILFORD","CT",6460,41.195883151,-73.10543294,252,"116 RIVERCLIFF DRIVE, MILFORD, CT, 6460","Match","Exact","116 RIVERCLIFF DR, MILFORD, CT, 06460",3713568,"L"
29753,"116 ROBERTA DRIVE APT B","SUMMERVILLE","SC",29485,32.991425889,-80.167987403,253,"116 ROBERTA DRIVE APT B, SUMMERVILLE, SC, 29485","Match","Exact","116 ROBERTA DR, SUMMERVILLE, SC, 29485",178460143,"L"
29754,"116 ROBINSON RD","ASPEN","CO",81611,39.1858540000001,-106.808593509,254,"116 ROBINSON RD, ASPEN, CO, 81611","Match","Exact","116 ROBINSON RD, ASPEN, CO, 81611",629300438,"L"
29755,"116 ROLLING RIDGE","DEL RIO","TX",78840,29.4126348460001,-100.921482411,255,"116 ROLLING RIDGE, DEL RIO, TX, 78840","Match","Non_Exact","116 ROLLING RIDGE DR, DEL RIO, TX, 78840",640789222,"L"
29756,"116 ROLLINS ROAD","INTERLACHEN","FL",32148,29.6649496420001,-81.8876228949999,256,"116 ROLLINS ROAD, INTERLACHEN, FL, 32148","Match","Exact","116 ROLLINS RD, INTERLACHEN, FL, 32148",86109679,"R"
29757,"116 ROUGHLEAF TRAIL","HAMPSTEAD","NC",28443,34.4439607210001,-77.610691787,257,"116 ROUGHLEAF TRAIL, HAMPSTEAD, NC, 28443","Match","Exact","116 ROUGHLEAF TRL, HAMPSTEAD, NC, 28443",617833855,"L"
29758,"116 ROXEN RD","ROCKVILLE","NY",11570,40.6791398870001,-73.636334291,258,"116 ROXEN RD, ROCKVILLE, NY, 11570","Match","Non_Exact","116 ROXEN RD, ROCKVILLE CTR, NY, 11570",147685691,"L"
29759,"116 RUBY LANE","MAIDEN","NC",28650,35.5711123150001,-81.191415948,259,"116 RUBY LANE, MAIDEN, NC, 28650","Match","Exact","116 RUBY LN, MAIDEN, NC, 28650",45924752,"L"
29760,"116 RUHAMAH CHURCH ROAD","STARR","SC",29684,34.3923786020001,-82.813913756,260,"116 RUHAMAH CHURCH ROAD, STARR, SC, 29684","Match","Exact","116 RUHAMAH CHURCH RD, STARR, SC, 29684",25456304,"R"
29761,"116 RUIDOSA LANE","MORGANTOWN","WV",26508,39.6444207690001,-79.8826235499999,261,"116 RUIDOSA LANE, MORGANTOWN, WV, 26508","Match","Exact","116 RUIDOSA LN, MORGANTOWN, WV, 26508",624459468,"R"
29762,"116 RUM RIVER DRIVE SOUTH   UNIT 7","PRINCETON","MN",55371,45.5694362680001,-93.580120769,262,"116 RUM RIVER DRIVE SOUTH   UNIT 7, PRINCETON, MN, 55371","Match","Exact","116 RUM RIVER DR S, PRINCETON, MN, 55371",163060366,"R"
29763,"116 S 3RD STREET","RICHMOND","VA",23219,37.540390852,-77.4426926739999,263,"116 S 3RD STREET, RICHMOND, VA, 23219","Match","Exact","116 S 3RD ST, RICHMOND, VA, 23219",201539433,"R"
29764,"116 S GARO AVE","COLORADO SPRINGS","CO",80910,38.830364038,-104.779933125,264,"116 S GARO AVE, COLORADO SPRINGS, CO, 80910","Match","Exact","116 S GARO AVE, COLORADO SPRINGS, CO, 80910",105517804,"R"
29765,"116 S GILLETTE AVENUE","GILLETTE","WY",82716,44.2938816430001,-105.504015955,265,"116 S GILLETTE AVENUE, GILLETTE, WY, 82716","Match","Exact","116 S GILLETTE AVE, GILLETTE, WY, 82716",146322846,"L"
29766,"116 S JACKSON STREET","SPRING LAKE","MI",49456,43.0764437980001,-86.19888853,266,"116 S JACKSON STREET, SPRING LAKE, MI, 49456","Match","Exact","116 S JACKSON ST, SPRING LAKE, MI, 49456",71085390,"R"
29767,"116 S MAIN STREET","MOORESVILLE","NC",28115,35.5815245000001,-80.814293608,267,"116 S MAIN STREET, MOORESVILLE, NC, 28115","Match","Exact","116 S MAIN ST, MOORESVILLE, NC, 28115",45992415,"R"
29768,"116 S MAPLE ST","ORLEANS","IN",47452,38.662514936,-86.452759398,268,"116 S MAPLE ST, ORLEANS, IN, 47452","Match","Exact","116 S MAPLE ST, ORLEANS, IN, 47452",32150716,"R"
29769,"116 S MUESSING","INDIANAPOLIS","IN",56229,NA,NA,269,"116 S MUESSING, INDIANAPOLIS, IN, 56229","No_Match",NA,NA,NA,NA
29770,"116 S ROCK AVE","VIROQUA","WI",54665,43.555989853,-90.890581837,270,"116 S ROCK AVE, VIROQUA, WI, 54665","Match","Exact","116 S ROCK AVE, VIROQUA, WI, 54665",48628397,"L"
29771,"116 S SHAWNEE TERRACE","LOUISVILLE","KY",40212,38.265639508,-85.821850136,271,"116 S SHAWNEE TERRACE, LOUISVILLE, KY, 40212","Match","Exact","116 S SHAWNEE TER, LOUISVILLE, KY, 40212",96835992,"R"
29772,"116 S THIRD ST","CENTRAL POINT","OR",97502,42.3741238960001,-122.914373418,272,"116 S THIRD ST, CENTRAL POINT, OR, 97502","Match","Exact","116 S 3RD ST, CENTRAL POINT, OR, 97502",155511546,"R"
29773,"116 S WASHINGTON STREET","MT PULASKI","IL",62548,40.0093715300001,-89.2851961269999,273,"116 S WASHINGTON STREET, MT PULASKI, IL, 62548","Match","Exact","116 S WASHINGTON ST, MOUNT PULASKI, IL, 62548",22449297,"L"
29774,"116 S WESTERN UNIT 121126","CHICAGO","IL",60612,NA,NA,274,"116 S WESTERN UNIT 121126, CHICAGO, IL, 60612","No_Match",NA,NA,NA,NA
29775,"116 SALMON HOLE RD","AVON","ME",4966,44.8208943660001,-70.335502444,275,"116 SALMON HOLE RD, AVON, ME, 4966","Match","Exact","116 SALMON HOLE RD, AVON, ME, 04966",165305041,"L"
29776,"116 SANDHURST DRIVE","MOUNT LAUREL","NJ",8054,39.9663008640001,-74.8610192629999,276,"116 SANDHURST DRIVE, MOUNT LAUREL, NJ, 8054","Match","Exact","116 SANDHURST DR, MOUNT LAUREL, NJ, 08054",134062562,"L"
29777,"116 SANDY SPRINGS LANE","TALLAHASSEE","FL",32312,30.5565717710001,-84.2786096679999,277,"116 SANDY SPRINGS LANE, TALLAHASSEE, FL, 32312","Match","Exact","116 SANDY SPRINGS LN, TALLAHASSEE, FL, 32312",82891015,"R"
29778,"116 SCHRAMM ROAD","NEENAH","WI",54956,44.1339029920001,-88.480438191,278,"116 SCHRAMM ROAD, NEENAH, WI, 54956","Match","Non_Exact","116 SCHRAMM WAY, NEENAH, WI, 54956",74505946,"L"
29779,"116 SE HOOD AVE","GRESHAM","OR",97080,45.497262434,-122.427672307,279,"116 SE HOOD AVE, GRESHAM, OR, 97080","Match","Exact","116 SE HOOD AVE, GRESHAM, OR, 97080",157529114,"L"
29780,"116 SEAMAN AVENUE 3A","NEW YORK","NY",10034,40.868547629,-73.9238446809999,280,"116 SEAMAN AVENUE 3A, NEW YORK, NY, 10034","Match","Exact","116 SEAMAN AVE, NEW YORK, NY, 10034",59658839,"L"
29781,"116 SHALIMAR","CASTLE HILLS","TX",78213,29.5106948640001,-98.516770391,281,"116 SHALIMAR, CASTLE HILLS, TX, 78213","Match","Non_Exact","116 SHALIMAR DR, CASTLE HILLS, TX, 78213",101494392,"R"
29782,"116 SHERWOOD MEADOWS CIRCLE","MARTHASVILLE","MO",63357,38.6702554410001,-90.957601197,282,"116 SHERWOOD MEADOWS CIRCLE, MARTHASVILLE, MO, 63357","Match","Exact","116 SHERWOOD MEADOWS CIR, MARTHASVILLE, MO, 63357",605601677,"L"
29783,"116 SHIRLEY ROAD","SEAFORD","VA",23696,37.202104714,-76.424960703,283,"116 SHIRLEY ROAD, SEAFORD, VA, 23696","Match","Exact","116 SHIRLEY RD, SEAFORD, VA, 23696",103752417,"R"
29784,"116 SIXTH AVENUE","BROOKLYN","NY",11217,40.6786553360001,-73.9757872389999,284,"116 SIXTH AVENUE, BROOKLYN, NY, 11217","Match","Exact","116 6TH AVE, BROOKLYN, NY, 11217",59077716,"R"
29785,"116 SLIPPER SHELL COURT","MOUNT PLEASANT","SC",29464,32.852888282,-79.882604116,285,"116 SLIPPER SHELL COURT, MOUNT PLEASANT, SC, 29464","Match","Exact","116 SLIPPER SHELL CT, MOUNT PLEASANT, SC, 29464",645443116,"R"
29786,"116 SLOVER ROAD","MECHANICSBURG","PA",17055,40.1604125980001,-77.0020414649999,286,"116 SLOVER ROAD, MECHANICSBURG, PA, 17055","Match","Exact","116 SLOVER RD, MECHANICSBURG, PA, 17055",60959685,"R"
29787,"116 SOUTH CHARLES STREET","BELLEVILLE","IL",62220,38.5124402020001,-89.979041314,287,"116 SOUTH CHARLES STREET, BELLEVILLE, IL, 62220","Match","Exact","116 S CHARLES ST, BELLEVILLE, IL, 62220",107842735,"L"
29788,"116 SOUTH DRIVE","ISLAMORADA","FL",33036,NA,NA,288,"116 SOUTH DRIVE, ISLAMORADA, FL, 33036","No_Match",NA,NA,NA,NA
29789,"116 SOUTH GAY STREET APT 603","KNOXVILLE","TN",37902,35.968621473,-83.920564992,289,"116 SOUTH GAY STREET APT 603, KNOXVILLE, TN, 37902","Match","Exact","116 S GAY ST, KNOXVILLE, TN, 37902",42619938,"L"
29790,"116 SOUTH KERR AVE UNIT C","WILMINGTON","NC",28403,34.238215477,-77.8890194369999,290,"116 SOUTH KERR AVE UNIT C, WILMINGTON, NC, 28403","Match","Exact","116 S KERR AVE, WILMINGTON, NC, 28403",152733547,"R"
29791,"116 SOUTH MAGNOLIA AVENUE","OCALA","FL",34471,29.1853399550001,-82.13696027,291,"116 SOUTH MAGNOLIA AVENUE, OCALA, FL, 34471","Match","Exact","116 S MAGNOLIA AVE, OCALA, FL, 34471",116725578,"R"
29792,"116 SOUTH MAIN ST SUITE 205","MOORESVILLE","NC",28115,35.5815428970001,-80.8142719699999,292,"116 SOUTH MAIN ST SUITE 205, MOORESVILLE, NC, 28115","Match","Exact","116 S MAIN ST, MOORESVILLE, NC, 28115",45992415,"R"
29793,"116 SOUTH MAIN STREET APARTMEN","BLACKSTONE","VA",23824,37.079638867,-77.9979124499999,293,"116 SOUTH MAIN STREET APARTMEN, BLACKSTONE, VA, 23824","Match","Exact","116 S MAIN ST, BLACKSTONE, VA, 23824",54367875,"L"
29794,"116 SOUTH MAIN STREET SUITE 205","MOORESVILLE","NC",28115,35.5815428970001,-80.8142719699999,294,"116 SOUTH MAIN STREET SUITE 205, MOORESVILLE, NC, 28115","Match","Exact","116 S MAIN ST, MOORESVILLE, NC, 28115",45992415,"R"
29795,"116 SOUTH STATE STREET","UKIAH","CA",95482,39.149864526,-123.207644238,295,"116 SOUTH STATE STREET, UKIAH, CA, 95482","Match","Exact","116 S STATE ST, UKIAH, CA, 95482",67318151,"L"
29796,"116 SOUTH STERLING STREET","FRANKLINTON","NC",27525,36.1014485490001,-78.455773039,296,"116 SOUTH STERLING STREET, FRANKLINTON, NC, 27525","Match","Non_Exact","116 STERLING ST, FRANKLINTON, NC, 27525",90226818,"L"
29797,"116 SOUTH VERITY PARKWAY","MIDDLETOWN","OH",45044,39.514183647,-84.4029136789999,297,"116 SOUTH VERITY PARKWAY, MIDDLETOWN, OH, 45044","Match","Exact","116 S VERITY PKWY, MIDDLETOWN, OH, 45044",113795569,"R"
29798,"116 SPANISH TRAIL","BASTROP","TX",78602,30.134769781,-97.4121216949999,298,"116 SPANISH TRAIL, BASTROP, TX, 78602","Match","Exact","116 SPANISH TRL, BASTROP, TX, 78602",624921323,"R"
29799,"116 SPRINGBROOKE DRIVE","VENETIA","PA",15367,40.288410663,-80.068056739,299,"116 SPRINGBROOKE DRIVE, VENETIA, PA, 15367","Match","Exact","116 SPRINGBROOKE DR, VENETIA, PA, 15367",52829844,"R"
29800,"116 STATE ROAD","PLYMOUTH","MA",2360,NA,NA,300,"116 STATE ROAD, PLYMOUTH, MA, 2360","No_Match",NA,NA,NA,NA
29801,"116 STEEPLECHASE","GENESEO","NY",14454,42.8072954730001,-77.7962156259999,301,"116 STEEPLECHASE, GENESEO, NY, 14454","Match","Non_Exact","116 STEEPLECHASE DR, GENESEO, NY, 14454",624906356,"L"
29802,"116 STEUBEN STREET","EAST ORANGE","NJ",7018,40.7527796460001,-74.202586044,302,"116 STEUBEN STREET, EAST ORANGE, NJ, 7018","Match","Exact","116 STEUBEN ST, EAST ORANGE, NJ, 07018",63456113,"L"
29803,"116 STICKLE RD","BEAVER FALLS","PA",15010,40.7867071060001,-80.37857854,303,"116 STICKLE RD, BEAVER FALLS, PA, 15010","Match","Exact","116 STICKLE RD, BEAVER FALLS, PA, 15010",52555435,"R"
29804,"116 STOKES DRIVE","SMYRNA","TN",37167,35.9780798790001,-86.530721098,304,"116 STOKES DRIVE, SMYRNA, TN, 37167","Match","Exact","116 STOKES DR, SMYRNA, TN, 37167",617751786,"L"
29805,"116 SUGAR STREET","SAINT LOUISVILLE","OH",43071,40.171358162,-82.4190160919999,305,"116 SUGAR STREET, SAINT LOUISVILLE, OH, 43071","Match","Exact","116 SUGAR ST, SAINT LOUISVILLE, OH, 43071",61555410,"L"
29806,"116 SUMMIT AVENUE","WINTHROP","MA",2152,42.383817014,-70.9744118899999,306,"116 SUMMIT AVENUE, WINTHROP, MA, 2152","Match","Exact","116 SUMMIT AVE, WINTHROP, MA, 02152",85714943,"L"
29807,"116 SUNNY DAY WAY","DAVENPORT","FL",33897,NA,NA,307,"116 SUNNY DAY WAY, DAVENPORT, FL, 33897","No_Match",NA,NA,NA,NA
29808,"116 SUTTON DR","PERRY","GA",31069,32.4940070380001,-83.719633011,308,"116 SUTTON DR, PERRY, GA, 31069","Match","Exact","116 SUTTON DR, PERRY, GA, 31069",633282823,"L"
29809,"116 SW 138TH ST","OKLAHOMA CITY","OK",73170,35.3300550550001,-97.514035415,309,"116 SW 138TH ST, OKLAHOMA CITY, OK, 73170","Match","Exact","116 SW 138TH ST, OKLAHOMA CITY, OK, 73170",99935144,"L"
29810,"116 SYLVAN STREET","RUTHERFORD","NJ",7070,40.823351674,-74.106441251,310,"116 SYLVAN STREET, RUTHERFORD, NJ, 7070","Match","Exact","116 SYLVAN ST, RUTHERFORD, NJ, 07070",64395479,"R"
29811,"116 TERRY BLVD","GERING","NE",69341,41.8444647640001,-103.670055874,311,"116 TERRY BLVD, GERING, NE, 69341","Match","Exact","116 TERRY BLVD, GERING, NE, 69341",642428812,"R"
29812,"116 THATCHER AVENUE","BUFFALO","NY",14215,42.9387941890001,-78.81839421,312,"116 THATCHER AVENUE, BUFFALO, NY, 14215","Match","Exact","116 THATCHER AVE, BUFFALO, NY, 14215",48296948,"L"
29813,"116 THEO STREET","LAFAYETTE","LA",70508,30.1945586570001,-92.0006949309999,313,"116 THEO STREET, LAFAYETTE, LA, 70508","Match","Exact","116 THEO ST, LAFAYETTE, LA, 70508",85619636,"R"
29814,"116 TIMBER LN","KERRVILLE","TX",78028,30.07624092,-99.222853485,314,"116 TIMBER LN, KERRVILLE, TX, 78028","Match","Exact","116 TIMBER LN, KERRVILLE, TX, 78028",176886880,"L"
29815,"116 TOYON AVENUE","SOUTH SAN FRANCISCO","CA",94080,37.651529134,-122.423477248,315,"116 TOYON AVENUE, SOUTH SAN FRANCISCO, CA, 94080","Match","Exact","116 TOYON AVE, S SAN FRAN, CA, 94080",192372314,"R"
29816,"116 TRADEPARK DR","SOMERSET","KY",42503,NA,NA,316,"116 TRADEPARK DR, SOMERSET, KY, 42503","No_Match",NA,NA,NA,NA
29817,"116 TRADEPARK DRIVE","SOMERSET","KY",42503,NA,NA,317,"116 TRADEPARK DRIVE, SOMERSET, KY, 42503","No_Match",NA,NA,NA,NA
29818,"116 TRESSLER ST","PLEASANT GAP","PA",16823,40.866169654,-77.747595479,318,"116 TRESSLER ST, PLEASANT GAP, PA, 16823","Match","Exact","116 TRESSLER ST, PLEASANT GAP, PA, 16823",50397998,"R"
29819,"116 TUTBURY PL","CARY","NC",27519,35.7880484410001,-78.863542162,319,"116 TUTBURY PL, CARY, NC, 27519","Match","Exact","116 TUTBURY PL, CARY, NC, 27519",72588210,"L"
29820,"116 TYSON DRIVE","BERRYVILLE","VA",22611,39.153492683,-77.991936698,320,"116 TYSON DRIVE, BERRYVILLE, VA, 22611","Match","Exact","116 TYSON DR, BERRYVILLE, VA, 22611",627023316,"R"
29821,"116 UNAKA AVE","ASHEVILLE","NC",28803,35.5641734800001,-82.5224827019999,321,"116 UNAKA AVE, ASHEVILLE, NC, 28803","Match","Exact","116 UNAKA AVE, ASHEVILLE, NC, 28803",638674220,"L"
29822,"116 VALDEZ AVE","GOLETA","CA",93117,34.4409142810001,-119.838261196,322,"116 VALDEZ AVE, GOLETA, CA, 93117","Match","Exact","116 VALDEZ AVE, GOLETA, CA, 93117",108601097,"R"
29823,"116 VALENCIA STREET","ROYAL PALM BEACH","FL",33411,26.7301096420001,-80.227267318,323,"116 VALENCIA STREET, ROYAL PALM BEACH, FL, 33411","Match","Exact","116 VALENCIA ST, ROYAL PALM BEACH, FL, 33411",644071381,"R"
29824,"116 VALLEY HILL DR","MOUNT GILEAD","NC",27306,35.3125487190001,-79.966705899,324,"116 VALLEY HILL DR, MOUNT GILEAD, NC, 27306","Match","Exact","116 VALLEY HILL DR, MOUNT GILEAD, NC, 27306",20038612,"R"
29825,"116 VALLEYVIEW DRIVE","GOLDSBORO","NC",27534,35.3479875570001,-77.892924717,325,"116 VALLEYVIEW DRIVE, GOLDSBORO, NC, 27534","Match","Non_Exact","116 VALLEY VIEW DR, GOLDSBORO, NC, 27534",636120091,"R"
29826,"116 VAN NUYS AVENUE","OXNARD","CA",93035,34.1497632360001,-119.21571776,326,"116 VAN NUYS AVENUE, OXNARD, CA, 93035","Match","Exact","116 VAN NUYS AVE, OXNARD, CA, 93035",110115796,"R"
29827,"116 VIA BENEVENTO","NEW SMYRNA BEACH","FL",32169,29.039445539,-80.9137037419999,327,"116 VIA BENEVENTO, NEW SMYRNA BEACH, FL, 32169","Match","Exact","116 VIA BENEVENTO, NEW SMYRNA BEACH, FL, 32169",94531653,"R"
29828,"116 VIA DEL MILAGRO","MONTEREY","CA",93940,36.5742021470001,-121.780427838,328,"116 VIA DEL MILAGRO, MONTEREY, CA, 93940","Match","Exact","116 VIA DEL MILAGRO, MONTEREY, CA, 93940",196862255,"L"
29829,"116 VINELAND PARKWAY DR","VINE GROVE","KY",40175,37.8192096510001,-85.978366631,329,"116 VINELAND PARKWAY DR, VINE GROVE, KY, 40175","Match","Exact","116 VINELAND PARKWAY DR, VINE GROVE, KY, 40175",646625999,"L"
29830,"116 VON DALE DRIVE","BIRMINGHAM","AL",35215,NA,NA,330,"116 VON DALE DRIVE, BIRMINGHAM, AL, 35215","No_Match",NA,NA,NA,NA
29831,"116 W 2N N STREET","SUMMERVILLE","SC",29483,NA,NA,331,"116 W 2N N STREET, SUMMERVILLE, SC, 29483","No_Match",NA,NA,NA,NA
29832,"116 W 3RD ST","CARTHAGE","MO",64836,37.177078807,-94.311109152,332,"116 W 3RD ST, CARTHAGE, MO, 64836","Match","Exact","116 W 3RD ST, CARTHAGE, MO, 64836",66140718,"L"
29833,"116 W 6TH AVE","PINE BLUFF","AR",71601,34.2238261190001,-92.004523666,333,"116 W 6TH AVE, PINE BLUFF, AR, 71601","Match","Non_Exact","116 W 6TH AVE, PINE BLUFF, AR, 71601",2551794,"L"
29834,"116 W 870 N","OREM","UT",84057,40.3132057720001,-111.698451743,334,"116 W 870 N, OREM, UT, 84057","Match","Exact","116 W 870 N, OREM, UT, 84057",134245413,"R"
29835,"116 W COLLEGE ST","DENTON","TX",76201,33.2278077230001,-97.132988717,335,"116 W COLLEGE ST, DENTON, TX, 76201","Match","Exact","116 W COLLEGE ST, DENTON, TX, 76201",103435220,"L"
29836,"116 W GREEN ST","ITHACA","NY",14850,42.4386084320001,-76.499804873,336,"116 W GREEN ST, ITHACA, NY, 14850","Match","Exact","116 W GREEN ST, ITHACA, NY, 14850",611253072,"L"
29837,"116 W HICKS ST","LAWRENCEVILLE","VA",23868,36.757738499,-77.847370117,337,"116 W HICKS ST, LAWRENCEVILLE, VA, 23868","Match","Exact","116 HICKS ST, LAWRENCEVILLE, VA, 23868",54030047,"R"
29838,"116 W KINGSBRIDGE ROAD","MOUNT VERNON","NY",10550,40.894939063,-73.835561629,338,"116 W KINGSBRIDGE ROAD, MOUNT VERNON, NY, 10550","Match","Exact","116 W KINGSBRIDGE RD, MOUNT VERNON, NY, 10550",139747608,"L"
29839,"116 W LINCOLN AVE","LINCOLN","KS",67455,39.0402021570001,-98.148146619,339,"116 W LINCOLN AVE, LINCOLN, KS, 67455","Match","Exact","116 W LINCOLN AVE, LINCOLN, KS, 67455",171135685,"R"
29840,"116 W MAIN STREET 301A","SALISBURY","MD",21801,NA,NA,340,"116 W MAIN STREET 301A, SALISBURY, MD, 21801","Tie",NA,NA,NA,NA
29841,"116 W MAIN STREET P O BOX 723","FLOYD","VA",24091,NA,NA,341,"116 W MAIN STREET P O BOX 723, FLOYD, VA, 24091","Tie",NA,NA,NA,NA
29842,"116 W NORWOOD PL","SAN GABRIEL","CA",91776,34.0764631550001,-118.100198135,342,"116 W NORWOOD PL, SAN GABRIEL, CA, 91776","Match","Exact","116 W NORWOOD PL, SAN GABRIEL, CA, 91776",141639996,"L"
29843,"116 W OAK ST","EL DORADO SPRINGS","MO",64743,37.8671941760001,-94.022577438,343,"116 W OAK ST, EL DORADO SPRINGS, MO, 64743","Match","Non_Exact","116 W OAK ST, EL DORADO SPG, MO, 64744",44898132,"L"
29844,"116 W PLYMOUTH STREET","BREMEN","IN",46506,41.446528803,-86.146751449,344,"116 W PLYMOUTH STREET, BREMEN, IN, 46506","Match","Exact","116 W PLYMOUTH ST, BREMEN, IN, 46506",7639991,"L"
29845,"116 W SHARPNACK STREET","PHILADELPHIA","PA",19119,40.046976124,-75.1867155799999,345,"116 W SHARPNACK STREET, PHILADELPHIA, PA, 19119","Match","Exact","116 W SHARPNACK ST, PHILADELPHIA, PA, 19119",131395386,"L"
29846,"116 WALLABOUT ST APT 5A","BROOKLYN","NY",11249,40.699502361,-73.9584332919999,346,"116 WALLABOUT ST APT 5A, BROOKLYN, NY, 11249","Match","Exact","116 WALLABOUT ST, BROOKLYN, NY, 11249",59078588,"R"
29847,"116 WALTER STREET","YORKVILLE","OH",43971,40.1602771670001,-80.707877024,347,"116 WALTER STREET, YORKVILLE, OH, 43971","Match","Exact","116 WALTER ST, YORKVILLE, OH, 43971",605787571,"R"
29848,"116 WARE PL","WINCHESTER","VA",22602,39.173885356,-78.111157949,348,"116 WARE PL, WINCHESTER, VA, 22602","Match","Exact","116 WARE PL, WINCHESTER, VA, 22602",55587414,"R"
29849,"116 WARNER COURT","CLINTON","IL",61727,NA,NA,349,"116 WARNER COURT, CLINTON, IL, 61727","No_Match",NA,NA,NA,NA
29850,"116 WASHINGTON STREET","EAST GLACIER","MT",59434,48.4398516320001,-113.21748079,350,"116 WASHINGTON STREET, EAST GLACIER, MT, 59434","Match","Non_Exact","116 WASHINGTON ST, E GLACIER PAR, MT, 59434",203998177,"L"
29851,"116 WATER ST","FAIRMONT","MN",56031,43.6403139860001,-94.45780404,351,"116 WATER ST, FAIRMONT, MN, 56031","Match","Exact","116 WATER ST, FAIRMONT, MN, 56031",9976516,"R"
29852,"116 WATER STREET","TORRINGTON","CT",6790,41.801742066,-73.124426888,352,"116 WATER STREET, TORRINGTON, CT, 6790","Match","Exact","116 WATER ST, TORRINGTON, CT, 06790",3103129,"R"
29853,"116 WAWONA ST","MANTECA","CA",95337,37.78931971,-121.216350152,353,"116 WAWONA ST, MANTECA, CA, 95337","Match","Exact","116 WAWONA ST, MANTECA, CA, 95337",133858764,"L"
29854,"116 WESLEY DRIVE","DESOTO","TX",75115,32.579725721,-96.856387098,354,"116 WESLEY DRIVE, DESOTO, TX, 75115","Match","Exact","116 WESLEY DR, DESOTO, TX, 75115",102953969,"R"
29855,"116 WEST 23RD STREET","NEW YORK","NY",10011,40.7431565740001,-73.9934234309999,355,"116 WEST 23RD STREET, NEW YORK, NY, 10011","Match","Exact","116 W 23RD ST, NEW YORK, NY, 10011",59653397,"L"
29856,"116 WEST BEVERLEY ST","STAUNTON","VA",24401,38.14939173,-79.073906047,356,"116 WEST BEVERLEY ST, STAUNTON, VA, 24401","Match","Exact","116 W BEVERLEY ST, STAUNTON, VA, 24401",98814218,"R"
29857,"116 WEST FIRST AVE","PETAL","MS",39465,31.3540058520001,-89.263514801,357,"116 WEST FIRST AVE, PETAL, MS, 39465","Match","Exact","116 W 1ST AVE, PETAL, MS, 39465",326039,"R"
29858,"116 WESTERN AVE APT 1","LYNN","MA",1904,42.4808964040001,-70.9453961249999,358,"116 WESTERN AVE APT 1, LYNN, MA, 1904","Match","Exact","116 WESTERN AVE, LYNN, MA, 01904",86645131,"L"
29859,"116 WESTON AVENUE","GLOUCESTER CITY","NJ",8030,39.8839116090001,-75.101189569,359,"116 WESTON AVENUE, GLOUCESTER CITY, NJ, 8030","Match","Exact","116 WESTON AVE, GLOUCESTER CITY, NJ, 08030",134350751,"R"
29860,"116 WESTWOOD DRIVE","DALLAS","GA",30132,33.9302258640001,-84.851765142,360,"116 WESTWOOD DRIVE, DALLAS, GA, 30132","Match","Exact","116 WESTWOOD DR, DALLAS, GA, 30132",207991999,"R"
29861,"116 WHALER HARBOUR","MYRTLE BEACH","SC",29577,33.6910247440001,-78.956619465,361,"116 WHALER HARBOUR, MYRTLE BEACH, SC, 29577","Match","Exact","116 WHALER HARBOUR, MYRTLE BEACH, SC, 29577",29058782,"R"
29862,"116 WHITE PINE COURT","PARAMUS","NJ",7652,40.9391671910001,-74.089573504,362,"116 WHITE PINE COURT, PARAMUS, NJ, 7652","Match","Exact","116 WHITE PINE CT, PARAMUS, NJ, 07652",64427714,"R"
29863,"116 WHITETAIL RD","SEALE","AL",36875,32.3214740110001,-85.1120113919999,363,"116 WHITETAIL RD, SEALE, AL, 36875","Match","Exact","116 WHITETAIL RD, SEALE, AL, 36875",69284672,"L"
29864,"116 WILLOW CREEK RD","EL DORADO","AR",71730,NA,NA,364,"116 WILLOW CREEK RD, EL DORADO, AR, 71730","No_Match",NA,NA,NA,NA
29865,"116 WILSON AVE","WAYNESBURG","OH",44688,40.667811622,-81.2620899459999,365,"116 WILSON AVE, WAYNESBURG, OH, 44688","Match","Exact","116 WILSON AVE, WAYNESBURG, OH, 44688",64689921,"R"
29866,"116 WILSON AVE","WEST DEPTFORD","NJ",8096,39.857058092,-75.140527313,366,"116 WILSON AVE, WEST DEPTFORD, NJ, 8096","Match","Exact","116 WILSON AVE, WEST DEPTFORD, NJ, 08096",134583435,"R"
29867,"116 WILSON PIKE CIR","BRENTWOOD","TN",37027,NA,NA,367,"116 WILSON PIKE CIR, BRENTWOOD, TN, 37027","No_Match",NA,NA,NA,NA
29868,"116 WINDSONG TRAIL","CANTON","GA",30114,34.171424261,-84.577335207,368,"116 WINDSONG TRAIL, CANTON, GA, 30114","Match","Exact","116 WINDSONG TRL, CANTON, GA, 30114",628857378,"L"
29869,"116 WINESAP STREET","PATASKALA","OH",43062,39.953966318,-82.6919603919999,369,"116 WINESAP STREET, PATASKALA, OH, 43062","Match","Exact","116 WINESAP ST, PATASKALA, OH, 43062",647867005,"R"
29870,"116 WINNERS CIRCLE","HESSMER","LA",71341,31.0537477570001,-92.1230162849999,370,"116 WINNERS CIRCLE, HESSMER, LA, 71341","Match","Exact","116 WINNERS CIR, HESSMER, LA, 71341",651152754,"R"
29871,"116 WINTERWOOD CT","COLUMBIA","SC",29203,34.112928434,-81.066912824,371,"116 WINTERWOOD CT, COLUMBIA, SC, 29203","Match","Exact","116 WINTERWOOD CT, COLUMBIA, SC, 29203",71854084,"R"
29872,"116 YELLOW BREECHES DRIVE","CAMP HILL","PA",17011,40.221105105,-76.895547864,372,"116 YELLOW BREECHES DRIVE, CAMP HILL, PA, 17011","Match","Exact","116 YELLOW BREECHES DR, CAMP HILL, PA, 17011",88737339,"L"
29873,"116 YORK GATE DR","PATASKALA","OH",43062,39.9806721300001,-82.62883176,373,"116 YORK GATE DR, PATASKALA, OH, 43062","Match","Exact","116 YORK GATE DR, PATASKALA, OH, 43062",627909523,"R"
29874,"116-11 NASHVILLE BLVD","CAMBRIA HEIGHTS","NY",11411,40.697544421,-73.744171282,374,"116-11 NASHVILLE BLVD, CAMBRIA HEIGHTS, NY, 11411","Match","Exact","116-11 NASHVILLE BLVD, CAMBRIA HTS, NY, 11411",59730530,"R"
29875,"116-19 131ST STREET","SOUTH OZONE PARK","NY",11420,40.677637551,-73.8087458529999,375,"116-19 131ST STREET, SOUTH OZONE PARK, NY, 11420","Match","Exact","116-19 131ST ST, SOUTH OZONE PARK, NY, 11420",59713928,"L"
29876,"116-34 167 STREET","JAMAICA","NY",11434,40.6864307820001,-73.7801679999999,376,"116-34 167 STREET, JAMAICA, NY, 11434","Match","Exact","116-34 167TH ST, JAMAICA, NY, 11434",59715021,"R"
29877,"116-67 SUTPHIN BLVD","JAMAICA","NY",11434,40.680907249,-73.792208812,377,"116-67 SUTPHIN BLVD, JAMAICA, NY, 11434","Match","Exact","116-67 SUTPHIN BLVD, JAMAICA, NY, 11434",59714597,"L"
29878,"116","LIBERTYVILLE","IL",60048,NA,NA,378,"116, LIBERTYVILLE, IL, 60048","No_Match",NA,NA,NA,NA
29879,"116","MCGRAWS","WV",25875,NA,NA,379,"116, MCGRAWS, WV, 25875","No_Match",NA,NA,NA,NA
29880,"116","RHINELANDER","WI",54501,NA,NA,380,"116, RHINELANDER, WI, 54501","No_Match",NA,NA,NA,NA
29881,"1160 166TH AVE NW","ANDOVER","MN",55304,45.271058016,-93.2943627559999,381,"1160 166TH AVE NW, ANDOVER, MN, 55304","Match","Exact","1160 166TH AVE NW, ANDOVER, MN, 55304",642704200,"R"
29882,"1160 ALABAMA AVENUE","FORT LAUDERDALE","FL",33312,26.107837906,-80.1921015789999,382,"1160 ALABAMA AVENUE, FORT LAUDERDALE, FL, 33312","Match","Exact","1160 ALABAMA AVE, FORT LAUDERDALE, FL, 33312",114714647,"L"
29883,"1160 AVALON PLACE","MATTHEWS","NC",28104,35.1408297840001,-80.617824226,383,"1160 AVALON PLACE, MATTHEWS, NC, 28104","Match","Exact","1160 AVALON PL, MATTHEWS, NC, 28104",651598443,"R"
29884,"1160 BEREA DRIVE","BOULDER","CO",80305,39.9777083980001,-105.250213711,384,"1160 BEREA DRIVE, BOULDER, CO, 80305","Match","Exact","1160 BEREA DR, BOULDER, CO, 80305",635354184,"R"
29885,"1160 BLANKENSHIP ROAD","WEST LINN","OR",97068,45.35139503,-122.665345368,385,"1160 BLANKENSHIP ROAD, WEST LINN, OR, 97068","Match","Exact","1160 BLANKENSHIP RD, WEST LINN, OR, 97068",625034012,"L"
29886,"1160 BRITTON AVE","SAN JOSE","CA",95125,37.304542971,-121.903082682,386,"1160 BRITTON AVE, SAN JOSE, CA, 95125","Match","Exact","1160 BRITTON AVE, SAN JOSE, CA, 95125",122909467,"L"
29887,"1160 COUNTY RD 956","ASHLAND","OH",44805,40.9236773310001,-82.349029914,387,"1160 COUNTY RD 956, ASHLAND, OH, 44805","Match","Exact","1160 CO RD 956, ASHLAND, OH, 44805",30144333,"L"
29888,"1160 CROOKED CREEK ROAD","LITHONIA","GA",30058,33.7594072580001,-84.1223656029999,388,"1160 CROOKED CREEK ROAD, LITHONIA, GA, 30058","Match","Exact","1160 CROOKED CREEK RD, LITHONIA, GA, 30058",23387307,"R"
29889,"1160 CYPRESS LOFT PLACE","LAKE MARY","FL",32746,28.776839395,-81.406282608,389,"1160 CYPRESS LOFT PLACE, LAKE MARY, FL, 32746","Match","Exact","1160 CYPRESS LOFT PL, LAKE MARY, FL, 32746",93791608,"L"
29890,"1160 E MARIPOSA AVE","EL SEGUNDO","CA",90245,33.923607099,-118.404169417,390,"1160 E MARIPOSA AVE, EL SEGUNDO, CA, 90245","Match","Exact","1160 E MARIPOSA AVE, EL SEGUNDO, CA, 90245",141580067,"R"
29891,"1160 EAST MILL ROAD","MATTITUCK","NY",11952,41.0098152100001,-72.542553687,391,"1160 EAST MILL ROAD, MATTITUCK, NY, 11952","Match","Exact","1160 E MILL RD, MATTITUCK, NY, 11952",114049521,"R"
29892,"1160 EDITH DRIVE","DAYTONA BEACH","FM",32117,NA,NA,392,"1160 EDITH DRIVE, DAYTONA BEACH, FM, 32117","No_Match",NA,NA,NA,NA
29893,"1160 EMMA STREET","ASHLAND","OR",97520,42.1800023440001,-122.698044771,393,"1160 EMMA STREET, ASHLAND, OR, 97520","Match","Exact","1160 EMMA ST, ASHLAND, OR, 97520",155523635,"L"
29894,"1160 EVELYN LN STE 19","SACRAMENTO","CA",95864,38.5858602800001,-121.399174529,394,"1160 EVELYN LN STE 19, SACRAMENTO, CA, 95864","Match","Exact","1160 EVELYN LN, SACRAMENTO, CA, 95864",133335652,"R"
29895,"1160 FORTUNE AVE","DETROIT LAKES","MN",56501,46.811911853,-95.824459307,395,"1160 FORTUNE AVE, DETROIT LAKES, MN, 56501","Match","Exact","1160 FORTUNE AVE, DETROIT LAKES, MN, 56501",167963086,"L"
29896,"1160 FRANKLIN ST","OLD FORGE","PA",18518,41.3786203970001,-75.746125631,396,"1160 FRANKLIN ST, OLD FORGE, PA, 18518","Match","Exact","1160 FRANKLIN ST, OLD FORGE, PA, 18518",139320337,"L"
29897,"1160 GRASSY HOLLOW WAY","PASO ROBLES","CA",93446,35.6234875100001,-120.653635139,397,"1160 GRASSY HOLLOW WAY, PASO ROBLES, CA, 93446","Match","Exact","1160 GRASSY HOLLOW WAY, PASO ROBLES, CA, 93446",645312414,"R"
29898,"1160 HADDON AVENUE","CAMDEN","NJ",8103,39.9333421950001,-75.104588587,398,"1160 HADDON AVENUE, CAMDEN, NJ, 8103","Match","Exact","1160 HADDON AVE, CAMDEN, NJ, 08103",134347683,"L"
29899,"1160 HWY 22","WELLMAN","IA",52356,41.4685963000001,-91.913389647,399,"1160 HWY 22, WELLMAN, IA, 52356","Match","Non_Exact","1160 STATE HWY 22, WELLMAN, IA, 52356",84178863,"R"
29900,"1160 JADEN GAVIN DRIVE","SPRINGFIELD","TN",37172,36.4696942150001,-86.879622953,400,"1160 JADEN GAVIN DRIVE, SPRINGFIELD, TN, 37172","Match","Non_Exact","1160 JADEN GAVEN DR, SPRINGFIELD, TN, 37172",645145771,"L"
29901,"1160 JOSEPHINE ST","OREGON CITY","OR",97045,45.3356950510001,-122.625462664,401,"1160 JOSEPHINE ST, OREGON CITY, OR, 97045","Match","Exact","1160 JOSEPHINE ST, OREGON CITY, OR, 97045",157944538,"R"
29902,"1160 KANE CONCOURSE BLVD SUITE 401","BAY HARBOR ISLANDS","FL",33154,NA,NA,402,"1160 KANE CONCOURSE BLVD SUITE 401, BAY HARBOR ISLANDS, FL, 33154","No_Match",NA,NA,NA,NA
29903,"1160 KATHERINE AVENUE","FARMINGTON","NM",87401,36.7182839120001,-108.131310013,403,"1160 KATHERINE AVENUE, FARMINGTON, NM, 87401","Match","Exact","1160 KATHERINE AVE, FARMINGTON, NM, 87401",127485356,"R"
29904,"1160 KING MARK DR","LEWISVILLE","TX",75056,33.032367521,-96.902768281,404,"1160 KING MARK DR, LEWISVILLE, TX, 75056","Match","Exact","1160 KING MARK DR, LEWISVILLE, TX, 75056",103416385,"R"
29905,"1160 MARY STREET","VANDERGRIFT","PA",15690,40.6192136610001,-79.5823400309999,405,"1160 MARY STREET, VANDERGRIFT, PA, 15690","Match","Exact","1160 MARY ST, VANDERGRIFT, PA, 15690",653368779,"R"
29906,"1160 MISSION STREET UNIT 1611","SAN FRANCISCO","CA",94103,37.778266655,-122.412142913,406,"1160 MISSION STREET UNIT 1611, SAN FRANCISCO, CA, 94103","Match","Exact","1160 MISSION ST, SAN FRANCISCO, CA, 94103",650095806,"R"
29907,"1160 MONTGOMERY STREET","ALEXANDER CITY","AL",35010,32.9440015320001,-85.939456822,407,"1160 MONTGOMERY STREET, ALEXANDER CITY, AL, 35010","Match","Exact","1160 MONTGOMERY ST, ALEX CITY, AL, 35010",1664260,"R"
29908,"1160 N COAST HWY 101 UNIT 234292","ENCINITAS","CA",92024,33.0689133160001,-117.303752909,408,"1160 N COAST HWY 101 UNIT 234292, ENCINITAS, CA, 92024","Match","Exact","1160 COAST HWY 101, ENCINITAS, CA, 92024",195292485,"L"
29909,"1160 NORTH CHICKASAW TRAIL","ORLANDO","FL",32825,28.5592500820001,-81.277758061,409,"1160 NORTH CHICKASAW TRAIL, ORLANDO, FL, 32825","Match","Exact","1160 N CHICKASAW TRL, ORLANDO, FL, 32825",631939734,"L"
29910,"1160 OLD MOORE ROAD","SELMA","NC",27576,35.62060387,-78.2659397099999,410,"1160 OLD MOORE ROAD, SELMA, NC, 27576","Match","Exact","1160 OLD MOORE RD, SELMA, NC, 27576",26523426,"L"
29911,"1160 OLD PEACHTREE RD STE B","DULUTH","GA",30097,NA,NA,411,"1160 OLD PEACHTREE RD STE B, DULUTH, GA, 30097","No_Match",NA,NA,NA,NA
29912,"1160 PARKSIDE DRIVE","ALEXANDRIA","KY",41001,38.8959258080001,-84.378649926,412,"1160 PARKSIDE DRIVE, ALEXANDRIA, KY, 41001","Match","Exact","1160 PARKSIDE DR, ALEXANDRIA, KY, 41001",104457391,"L"
29913,"1160 PIERCE STREET UNIT 105","LAKEWOOD","CO",80214,39.735092808,-105.07192362,413,"1160 PIERCE STREET UNIT 105, LAKEWOOD, CO, 80214","Match","Exact","1160 PIERCE ST, LAKEWOOD, CO, 80214",177370449,"R"
29914,"1160 RAVINIA DR","GURNEE","IL",60031,42.3760457400001,-87.994999991,414,"1160 RAVINIA DR, GURNEE, IL, 60031","Match","Exact","1160 RAVINIA DR, GURNEE, IL, 60031",119687380,"L"
29915,"1160 RT 22 WEST","MOUNTAINSIDE","NJ",7092,NA,NA,415,"1160 RT 22 WEST, MOUNTAINSIDE, NJ, 7092","No_Match",NA,NA,NA,NA
29916,"1160 S MICHIGAN AVE APT 2303","CHICAGO","IL",60605,41.8682372120001,-87.624176329,416,"1160 S MICHIGAN AVE APT 2303, CHICAGO, IL, 60605","Match","Non_Exact","1160 S MICHIGAN AVE, CHICAGO, IL, 60605",641805248,"R"
29917,"1160 SIMON MILLER ROAD","PORTSMOUTH","OH",45662,38.7624257850001,-82.847185861,417,"1160 SIMON MILLER ROAD, PORTSMOUTH, OH, 45662","Match","Exact","1160 SIMON MILLER RD, PORTSMOUTH, OH, 45662",55119676,"R"
29918,"1160 SW 20TH AVE","CAPE CORAL","FL",33991,26.6311873400001,-82.015330978,418,"1160 SW 20TH AVE, CAPE CORAL, FL, 33991","Match","Non_Exact","1160 SW 20TH AVE, CAPE CORAL, FL, 33991",118057062,"L"
29919,"1160 TRAILWOOD S","HOPKINS","MN",55343,44.9086202060001,-93.415071896,419,"1160 TRAILWOOD S, HOPKINS, MN, 55343","Match","Exact","1160 TRAILWOOD S, HOPKINS, MN, 55343",43827160,"L"
29920,"1160 WEST 19TH STREET UNIT 1","CHICAGO","IL",60608,41.8566118570001,-87.6553768859999,420,"1160 WEST 19TH STREET UNIT 1, CHICAGO, IL, 60608","Match","Exact","1160 W 19TH ST, CHICAGO, IL, 60608",605110282,"R"
29921,"1160 WEST 7TH STREET SUITE 4","SAN PEDRO","CA",90731,33.7378921970001,-118.302465676,421,"1160 WEST 7TH STREET SUITE 4, SAN PEDRO, CA, 90731","Match","Exact","1160 W 7TH ST, SAN PEDRO, CA, 90731",141690232,"R"
29922,"1160 WEST END BOULEVARD","WINSTON-SALEM","NC",27101,36.090759635,-80.259452121,422,"1160 WEST END BOULEVARD, WINSTON-SALEM, NC, 27101","Match","Non_Exact","1160 W END BLVD SW, WINSTON SALEM, NC, 27101",84610152,"L"
29923,"1160 WEST LAKETON  APT D","MUSKEGON","MI",49441,43.219986206,-86.27160703,423,"1160 WEST LAKETON  APT D, MUSKEGON, MI, 49441","Match","Non_Exact","1160 W LAKETON AVE, MUSKEGON, MI, 49441",635739893,"R"
29924,"1160 WILMINGTON AVE SW","ATLANTA","GA",30310,33.7240135170001,-84.426029628,424,"1160 WILMINGTON AVE SW, ATLANTA, GA, 30310","Match","Exact","1160 WILMINGTON AVE SW, ATLANTA, GA, 30310",17345104,"L"
29925,"1160 WOODBRIDGE STREET","SAINT PAUL","MN",55117,45.038329064,-93.108747638,425,"1160 WOODBRIDGE STREET, SAINT PAUL, MN, 55117","Match","Non_Exact","1160 WOODBRIDGE ST, SAINT PAUL, MN, 55126",619830508,"R"
29926,"11600 BRONCO CT","UPPER MARLBORO","MD",20772,38.817416037,-76.804501573,426,"11600 BRONCO CT, UPPER MARLBORO, MD, 20772","Match","Exact","11600 BRONCO CT, UPPER MARLBORO, MD, 20772",624713070,"L"
29927,"11600 E WASHINGTION ST 29391","INDIANAPOLIS","IN",46229,39.7763619310001,-85.959352778,427,"11600 E WASHINGTION ST 29391, INDIANAPOLIS, IN, 46229","Match","Non_Exact","11600 E WASHINGTON ST, INDIANAPOLIS, IN, 46229",108068188,"L"
29928,"11600 HIGHWAY 66","ASHLAND","OR",97520,42.122297857,-122.45991591,428,"11600 HIGHWAY 66, ASHLAND, OR, 97520","Match","Non_Exact","11600 STATE HWY 66, ASHLAND, OR, 97520",155527318,"L"
29929,"11600 N 75TH AVE","PEORIA","AZ",85345,33.5903952960001,-112.220257252,429,"11600 N 75TH AVE, PEORIA, AZ, 85345","Match","Exact","11600 N 75TH AVE, PEORIA, AZ, 85345",128950468,"L"
29930,"11600 PACESFERRY DR","RALEIGH","NC",27614,35.941138386,-78.617999622,430,"11600 PACESFERRY DR, RALEIGH, NC, 27614","Match","Exact","11600 PACESFERRY DR, RALEIGH, NC, 27614",72524406,"R"
29931,"11600 ROULADE PLACE","CLINTON","MD",20735,38.7301170320001,-76.946282146,431,"11600 ROULADE PLACE, CLINTON, MD, 20735","Match","Exact","11600 ROULADE PL, CLINTON, MD, 20735",76317409,"R"
29932,"11600 SE 265TH PL","KENT","WA",98030,47.3637255090001,-122.186580167,432,"11600 SE 265TH PL, KENT, WA, 98030","Match","Exact","11600 SE 265TH PL, KENT, WA, 98030",186713164,"L"
29933,"11600 SIMMS AVE","INGLEWOOD","CA",90303,33.928467423,-118.327556952,433,"11600 SIMMS AVE, INGLEWOOD, CA, 90303","Match","Non_Exact","11600 S SIMMS AVE, INGLEWOOD, CA, 90303",141657267,"L"
29934,"11600 W 72ND PLACE","ARVADA","CO",80005,39.8281004350001,-105.128558474,434,"11600 W 72ND PLACE, ARVADA, CO, 80005","Match","Non_Exact","11600 W 72ND PL, ARVADA, CO, 80005",627444346,"L"
29935,"11600 W FM 471","SAN ANTONIO","TX",78253,29.4997311610001,-98.719404643,435,"11600 W FM 471, SAN ANTONIO, TX, 78253","Match","Exact","11600 FM 471, SAN ANTONIO, TX, 78253",101700245,"R"
29936,"11600 WARNER AVE UNIT 536","FOUNTAIN VALLEY","CA",92708,33.7163584310001,-117.926893765,436,"11600 WARNER AVE UNIT 536, FOUNTAIN VALLEY, CA, 92708","Match","Exact","11600 WARNER AVE, FOUNTAIN VALLEY, CA, 92708",616433101,"L"
29937,"11600 WASHINGTON PLACE SUITE 116A","LOS ANGELES","CA",90066,34.0048230470001,-118.420572031,437,"11600 WASHINGTON PLACE SUITE 116A, LOS ANGELES, CA, 90066","Match","Exact","11600 WASHINGTON PL, LOS ANGELES, CA, 90066",141573974,"L"
29938,"11600 WHITE RAPIDS ROAD","CHARLOTTE","NC",28214,35.2837062880001,-80.989014319,438,"11600 WHITE RAPIDS ROAD, CHARLOTTE, NC, 28214","Match","Exact","11600 WHITE RAPIDS RD, CHARLOTTE, NC, 28214",641593754,"R"
29939,"11601 BIRCHHAVEN AVENUE","BAKERSFIELD","CA",93312,35.3730433100001,-119.130143493,439,"11601 BIRCHHAVEN AVENUE, BAKERSFIELD, CA, 93312","Match","Exact","11601 BIRCHHAVEN AVE, BAKERSFIELD, CA, 93312",636491059,"L"
29940,"11601 BOLTHOUSE DRIVE SUITE 200","BAKERSFIELD","CA",93311,35.312669267,-119.131440133,440,"11601 BOLTHOUSE DRIVE SUITE 200, BAKERSFIELD, CA, 93311","Match","Exact","11601 BOLTHOUSE DR, BAKERSFIELD, CA, 93311",648094993,"L"
29941,"11601 LAGO VISTA WEST","DALLAS","TX",75234,32.9040532710001,-96.92222888,441,"11601 LAGO VISTA WEST, DALLAS, TX, 75234","Match","Exact","11601 LAGO VIS W, DALLAS, TX, 75234",639641937,"R"
29942,"11601 LEWISHAM PLACE SUITE 303","WALDORF","MD",20602,NA,NA,442,"11601 LEWISHAM PLACE SUITE 303, WALDORF, MD, 20602","No_Match",NA,NA,NA,NA
29943,"11601 NW 6TH PLACE","PLANTATION","FL",33325,26.129349916,-80.30409208,443,"11601 NW 6TH PLACE, PLANTATION, FL, 33325","Match","Exact","11601 NW 6TH PL, PLANTATION, FL, 33325",114766025,"L"
29944,"11601 PLANO ROAD STE120","DALLAS","TX",75243,32.9053804220001,-96.700574086,444,"11601 PLANO ROAD STE120, DALLAS, TX, 75243","Match","Exact","11601 PLANO RD, DALLAS, TX, 75243",102917290,"L"
29945,"11601 ROYAL PALM BLVD","CORAL SPRINGS","FL",33065,26.259149656,-80.280782702,445,"11601 ROYAL PALM BLVD, CORAL SPRINGS, FL, 33065","Match","Exact","11601 ROYAL PALM BLVD, CORAL SPRINGS, FL, 33065",640933223,"R"
29946,"11601 SENECA FOREST CIRCLE","GERMANTOWN","MD",20876,39.207806352,-77.235101216,446,"11601 SENECA FOREST CIRCLE, GERMANTOWN, MD, 20876","Match","Exact","11601 SENECA FOREST CIR, GERMANTOWN, MD, 20876",62106126,"L"
29947,"11601 SHADOW CREEK PARKWAY","PEARLAND","TX",77584,NA,NA,447,"11601 SHADOW CREEK PARKWAY, PEARLAND, TX, 77584","No_Match",NA,NA,NA,NA
29948,"11601 SHADOW CREEK PKWY 111-258","PEARLAND","TX",77584,NA,NA,448,"11601 SHADOW CREEK PKWY 111-258, PEARLAND, TX, 77584","No_Match",NA,NA,NA,NA
29949,"11601 SHADOW CREEK PKWY NO-111-554","PEARLAND","TX",77584,NA,NA,449,"11601 SHADOW CREEK PKWY NO-111-554, PEARLAND, TX, 77584","No_Match",NA,NA,NA,NA
29950,"11601 SHADOW CREEK PKWY STE 111-324","PEARLAND","TX",77584,NA,NA,450,"11601 SHADOW CREEK PKWY STE 111-324, PEARLAND, TX, 77584","No_Match",NA,NA,NA,NA
29951,"11601 SHADOW CREEK PKWY STE 111-380","PEARLAND","TX",77584,NA,NA,451,"11601 SHADOW CREEK PKWY STE 111-380, PEARLAND, TX, 77584","No_Match",NA,NA,NA,NA
29952,"11601 SHADOW CREEK PKWY/111-575","PEARLAND","TX",77584,NA,NA,452,"11601 SHADOW CREEK PKWY/111-575, PEARLAND, TX, 77584","No_Match",NA,NA,NA,NA
29953,"11601 SHADOW CREEK","PEARLAND","TX",77584,NA,NA,453,"11601 SHADOW CREEK, PEARLAND, TX, 77584","No_Match",NA,NA,NA,NA
29954,"11601 SHADOW CRK PKWAY STE 111-158","PEARLAND","TX",77584,NA,NA,454,"11601 SHADOW CRK PKWAY STE 111-158, PEARLAND, TX, 77584","No_Match",NA,NA,NA,NA
29955,"11601 W 181ST AVE","LOWELL","IN",46356,41.290020876,-87.475500158,455,"11601 W 181ST AVE, LOWELL, IN, 46356","Match","Exact","11601 W 181ST AVE, LOWELL, IN, 46356",635882078,"R"
29956,"11601 WASHINGTON STREET","PEMBROKE PINES","FL",33025,26.000496475,-80.301626793,456,"11601 WASHINGTON STREET, PEMBROKE PINES, FL, 33025","Match","Exact","11601 WASHINGTON ST, PEMBROKE PINES, FL, 33025",608971408,"L"
29957,"11601 WILSHIRE BL 2150","LOS ANGELES","CA",90025,34.050734665,-118.459293332,457,"11601 WILSHIRE BL 2150, LOS ANGELES, CA, 90025","Match","Exact","11601 WILSHIRE BLVD, LOS ANGELES, CA, 90025",141567137,"R"
29958,"11601 WILSHIRE BLVD STE 1650","LOS ANGELES","CA",90025,34.050734665,-118.459293332,458,"11601 WILSHIRE BLVD STE 1650, LOS ANGELES, CA, 90025","Match","Exact","11601 WILSHIRE BLVD, LOS ANGELES, CA, 90025",141567137,"R"
29959,"11602 ASSISI STREET","UPPER MARLBORO","MD",20772,38.7583437750001,-76.805498712,459,"11602 ASSISI STREET, UPPER MARLBORO, MD, 20772","Match","Exact","11602 ASSISI ST, UPPER MARLBORO, MD, 20772",76321519,"L"
29960,"11602 BAY CROSSING DR","PEARLAND","TX",77584,29.5666477950001,-95.399126544,460,"11602 BAY CROSSING DR, PEARLAND, TX, 77584","Match","Exact","11602 BAY CROSSING DR, PEARLAND, TX, 77584",116648382,"L"
29961,"11602 GARRICK AVE","SYLMAR","CA",91342,34.2806982440001,-118.379224257,461,"11602 GARRICK AVE, SYLMAR, CA, 91342","Match","Exact","11602 GARRICK AVE, SYLMAR, CA, 91342",141551584,"R"
29962,"11602 GUNPOWDER DR FORT","WASHINGTON","MD",20745,NA,NA,462,"11602 GUNPOWDER DR FORT, WASHINGTON, MD, 20745","No_Match",NA,NA,NA,NA
29963,"11602 MEADOW RIDGE LN","GREAT FALLS","VA",22066,39.01648942,-77.345880114,463,"11602 MEADOW RIDGE LN, GREAT FALLS, VA, 22066","Match","Exact","11602 MEADOW RIDGE LN, GREAT FALLS, VA, 22066",624435244,"L"
29964,"11602 MOUNT BALDWIN COURT","RANCHO CUCAMONGA","CA",91737,34.138010873,-117.552537395,464,"11602 MOUNT BALDWIN COURT, RANCHO CUCAMONGA, CA, 91737","Match","Exact","11602 MT BALDWIN CT, RANCHO CUCAMONGA, CA, 91737",144991083,"L"
29965,"11602 S REDWOOD RD","SOUTH JORDAN","UT",84095,40.5401524380001,-111.93868537,465,"11602 S REDWOOD RD, SOUTH JORDAN, UT, 84095","Match","Exact","11602 S REDWOOD RD, SOUTH JORDAN, UT, 84095",611646113,"R"
29966,"11603 200TH 9TH ST EAST","GRAHAM","WA",98338,NA,NA,466,"11603 200TH 9TH ST EAST, GRAHAM, WA, 98338","No_Match",NA,NA,NA,NA
29967,"11603 DONNER PASS ROAD","TRUCKEE","CA",96161,39.326111091,-120.212565277,467,"11603 DONNER PASS ROAD, TRUCKEE, CA, 96161","Match","Exact","11603 DONNER PASS RD, TRUCKEE, CA, 96161",640108850,"L"
29968,"11603 HIGHWAY 65 NORTH","DENNARD","AR",72629,NA,NA,468,"11603 HIGHWAY 65 NORTH, DENNARD, AR, 72629","No_Match",NA,NA,NA,NA
29969,"11603 S LOOMIS ST","CHICAGO","IL",60643,41.6828914640001,-87.656672051,469,"11603 S LOOMIS ST, CHICAGO, IL, 60643","Match","Exact","11603 S LOOMIS ST, CHICAGO, IL, 60643",111823759,"L"
29970,"11603 S THROOP ST","CHICAGO","IL",60643,41.6829236230001,-87.654236,470,"11603 S THROOP ST, CHICAGO, IL, 60643","Match","Exact","11603 S THROOP ST, CHICAGO, IL, 60643",111833365,"L"
29971,"11603 WAYBURN ST","DETROIT","MI",48224,42.42412073,-82.951471009,471,"11603 WAYBURN ST, DETROIT, MI, 48224","Match","Exact","11603 WAYBURN ST, DETROIT, MI, 48224",95469319,"L"
29972,"11604 ATKINSON AVE","HAWTHORNE","CA",90250,33.928597123,-118.325274165,472,"11604 ATKINSON AVE, HAWTHORNE, CA, 90250","Match","Exact","11604 ATKINSON AVE, HAWTHORNE, CA, 90250",141808264,"L"
29973,"11604 BONANZA DRIVE","TEHACHAPI","CA",93561,35.1794177410001,-118.336841827,473,"11604 BONANZA DRIVE, TEHACHAPI, CA, 93561","Match","Exact","11604 BONANZA DR, TEHACHAPI, CA, 93561",108984948,"L"
29974,"11604 CHENOWETH HILLS PLACE","LOUISVILLE","KY",40299,38.1771078140001,-85.5552649049999,474,"11604 CHENOWETH HILLS PLACE, LOUISVILLE, KY, 40299","Match","Exact","11604 CHENOWETH HILLS PL, LOUISVILLE, KY, 40299",647938946,"R"
29975,"11604 TONSING DRIVE","GARFIELD HEIGHTS","OH",44125,41.4149169560001,-81.6029844339999,475,"11604 TONSING DRIVE, GARFIELD HEIGHTS, OH, 44125","Match","Exact","11604 TONSING DR, GARFIELD HEIGHTS, OH, 44125",61127992,"R"
29976,"11605 COUNTY ROAD 2312","TERRELL","TX",75160,32.838322744,-96.170829055,476,"11605 COUNTY ROAD 2312, TERRELL, TX, 75160","Match","Exact","11605 CO RD 2312, TERRELL, TX, 75160",123768669,"R"
29977,"11605 CRITERION AVE","SAINT LOUIS","MO",63138,38.7801226,-90.2076314399999,477,"11605 CRITERION AVE, SAINT LOUIS, MO, 63138","Match","Exact","11605 CRITERION AVE, SAINT LOUIS, MO, 63138",100150975,"L"
29978,"11605 DEHN AVE","INGLEWOOD","CA",90303,33.928648475,-118.332008135,478,"11605 DEHN AVE, INGLEWOOD, CA, 90303","Match","Non_Exact","11605 S DEHN AVE, INGLEWOOD, CA, 90303",141657218,"R"
29979,"11605 DESTINATION DR UNIT 5402","BROOMFIELD","CO",80021,39.9073216040001,-105.093970706,479,"11605 DESTINATION DR UNIT 5402, BROOMFIELD, CO, 80021","Match","Exact","11605 DESTINATION DR, BROOMFIELD, CO, 80021",649047521,"L"
29980,"11605 E SHELBY DR","COLLIERVILLE","TN",38017,NA,NA,480,"11605 E SHELBY DR, COLLIERVILLE, TN, 38017","No_Match",NA,NA,NA,NA
29981,"11605 EAST SHELBY DRIVE","COLLIERVILLE","TN",38017,NA,NA,481,"11605 EAST SHELBY DRIVE, COLLIERVILLE, TN, 38017","No_Match",NA,NA,NA,NA
29982,"11605 LAFAYETTE DRIVE","PARMA HEIGHTS","OH",44130,41.3805695880001,-81.7676398469999,482,"11605 LAFAYETTE DRIVE, PARMA HEIGHTS, OH, 44130","Match","Exact","11605 LAFAYETTE DR, PARMA HEIGHTS, OH, 44130",61104392,"L"
29983,"11605 MERIDIAN MKT VW 124-173","FALCON","CO",80831,38.9381135740001,-104.61301549,483,"11605 MERIDIAN MKT VW 124-173, FALCON, CO, 80831","Match","Exact","11605 MERIDIAN MARKET VW, FALCON, CO, 80831",634982819,"R"
29984,"11605 MONTAGUE COURT","POTOMAC","MD",20854,39.045759618,-77.2004436,484,"11605 MONTAGUE COURT, POTOMAC, MD, 20854","Match","Exact","11605 MONTAGUE CT, POTOMAC, MD, 20854",62096453,"R"
29985,"11605 NE 27TH AVE","VANCOUVER","WA",98686,45.705374932,-122.644391444,485,"11605 NE 27TH AVE, VANCOUVER, WA, 98686","Match","Exact","11605 NE 27TH AVE, VANCOUVER, WA, 98686",158323104,"R"
29986,"11605 PINE FOREST DRIVE","NEW PORT RICHEY","FL",34654,28.325584345,-82.645687091,486,"11605 PINE FOREST DRIVE, NEW PORT RICHEY, FL, 34654","Match","Exact","11605 PINE FOREST DR, NEW PORT RICHEY, FL, 34654",86338189,"L"
29987,"11605 ROULADE PLACE","CLINTON","MD",20735,38.7300735380001,-76.946334865,487,"11605 ROULADE PLACE, CLINTON, MD, 20735","Match","Exact","11605 ROULADE PL, CLINTON, MD, 20735",76317409,"L"
29988,"11605 RUTLAND AVENUE","CLEVELAND","OH",44108,41.5482589970001,-81.604374848,488,"11605 RUTLAND AVENUE, CLEVELAND, OH, 44108","Match","Exact","11605 RUTLAND AVE, CLEVELAND, OH, 44108",61120084,"L"
29989,"11605 STUDT AVE   SUITE G","SAINT LOUIS","MO",63141,38.668347886,-90.440885485,489,"11605 STUDT AVE   SUITE G, SAINT LOUIS, MO, 63141","Match","Exact","11605 STUDT AVE, SAINT LOUIS, MO, 63141",640056091,"R"
29990,"11605 SW 3RD STREET","YUKON","OK",73099,35.4638963530001,-97.728791304,490,"11605 SW 3RD STREET, YUKON, OK, 73099","Match","Exact","11605 SW 3RD ST, YUKON, OK, 73099",92528873,"R"
29991,"11605 VISTAWALL ST","WILLIS","TX",77318,NA,NA,491,"11605 VISTAWALL ST, WILLIS, TX, 77318","No_Match",NA,NA,NA,NA
29992,"11605 WEST 73RD AVENUE","ARVADA","CO",80005,39.8288666990001,-105.128719416,492,"11605 WEST 73RD AVENUE, ARVADA, CO, 80005","Match","Exact","11605 W 73RD AVE, ARVADA, CO, 80005",177284443,"R"
29993,"11605 WHITTIER ROAD","BOWIE","MD",20721,38.943353765,-76.804027578,493,"11605 WHITTIER ROAD, BOWIE, MD, 20721","Match","Exact","11605 WHITTIER RD, BOWIE, MD, 20721",76311073,"R"
29994,"11606 BRAEWICK DR","HOUSTON","TX",77035,29.6531908650001,-95.497679703,494,"11606 BRAEWICK DR, HOUSTON, TX, 77035","Match","Exact","11606 BRAEWICK DR, HOUSTON, TX, 77035",96038267,"R"
29995,"11606 KNIGHTSBRIDGE PLACE","WELLINGTON","FL",33449,26.6094800980001,-80.231156861,495,"11606 KNIGHTSBRIDGE PLACE, WELLINGTON, FL, 33449","Match","Exact","11606 KNIGHTSBRIDGE PL, WELLINGTON, FL, 33449",115568367,"R"
29996,"11606 LENNINGTON DR","HOUSTON","TX",77064,29.9417602350001,-95.561896674,496,"11606 LENNINGTON DR, HOUSTON, TX, 77064","Match","Exact","11606 LENNINGTON DR, HOUSTON, TX, 77064",96006478,"R"
29997,"11606 SAN VICENTE BLVD","LOS ANGELES","CA",90049,34.05375938,-118.462764808,497,"11606 SAN VICENTE BLVD, LOS ANGELES, CA, 90049","Match","Exact","11606 SAN VICENTE BLVD, LOS ANGELES, CA, 90049",141567100,"L"
29998,"11606 SETTLERS CIRCLE","GERMANTOWN","MD",20876,39.20633414,-77.238961874,498,"11606 SETTLERS CIRCLE, GERMANTOWN, MD, 20876","Match","Exact","11606 SETTLERS CIR, GERMANTOWN, MD, 20876",62097033,"L"
29999,"11607 LAPOYNOR ST","MANOR","TX",78653,30.3359132800001,-97.5622582459999,499,"11607 LAPOYNOR ST, MANOR, TX, 78653","Match","Exact","11607 LAPOYNOR ST, MANOR, TX, 78653",638298474,"L"
30000,"11607 RIVERSHORE DRIVE","DUNKIRK","MD",20754,38.7372780260001,-76.681678457,500,"11607 RIVERSHORE DRIVE, DUNKIRK, MD, 20754","Match","Exact","11607 RIVERSHORE DR, DUNKIRK, MD, 20754",78173002,"R"
