"ID","Address","City","State","Zip","lat","long","id","input_address","match_indicator","match_type","matched_address","tiger_line_id","tiger_side"
232501,"509 1/2 EAST DEYOUNG STREET","MARION","IL",62959,37.7405519070001,-88.9209536289999,1,"509 1/2 EAST DEYOUNG STREET, MARION, IL, 62959","Match","Exact","509 E DEYOUNG ST, MARION, IL, 62959",6039355,"L"
232502,"509 13TH ST STE 7","MODESTO","CA",95354,37.637971926,-120.991879162,2,"509 13TH ST STE 7, MODESTO, CA, 95354","Match","Exact","509 13TH ST, MODESTO, CA, 95354",102604936,"L"
232503,"509 19TH STREET N","BESSEMER","AL",35020,33.4037995730001,-86.955683726,3,"509 19TH STREET N, BESSEMER, AL, 35020","Match","Exact","509 19TH ST N, BESSEMER, AL, 35020",81710649,"R"
232504,"509 21ST STREET","WEST PALM BEACH","FL",33407,26.7332716720001,-80.055395722,4,"509 21ST STREET, WEST PALM BEACH, FL, 33407","Match","Exact","509 21ST ST, WEST PALM BEACH, FL, 33407",115277643,"R"
232505,"509 33RD STREET SE","WASHINGTON","DC",20019,38.882752424,-76.959814684,5,"509 33RD STREET SE, WASHINGTON, DC, 20019","Match","Exact","509 33RD ST SE, WASHINGTON, DC, 20019",76231911,"R"
232506,"509 3RD ST","TRENTON","ND",58853,48.0715117240001,-103.842723498,6,"509 3RD ST, TRENTON, ND, 58853","Match","Exact","509 3RD ST, TRENTON, ND, 58853",649259607,"L"
232507,"509 49TH AVENUE","BELLWOOD","IL",60104,41.8828601390001,-87.893038385,7,"509 49TH AVENUE, BELLWOOD, IL, 60104","Match","Exact","509 49TH AVE, BELLWOOD, IL, 60104",111726766,"L"
232508,"509 4TH","BREMERTON","WA",98310,NA,NA,8,"509 4TH, BREMERTON, WA, 98310","No_Match",NA,NA,NA,NA
232509,"509 6TH AVE NE","CROSBY","MN",56441,46.487093035,-93.941888857,9,"509 6TH AVE NE, CROSBY, MN, 56441","Match","Exact","509 6TH AVE NE, CROSBY, MN, 56441",162818171,"R"
232510,"509 ACACIA AVE","SEBASTIAN","FL",32958,27.8007910440001,-80.483104348,10,"509 ACACIA AVE, SEBASTIAN, FL, 32958","Match","Exact","509 ACACIA AVE, SEBASTIAN, FL, 32958",120329488,"L"
232511,"509 ARCOLA DRIVE","COLUMBIA","SC",29223,34.1262066040001,-80.900785974,11,"509 ARCOLA DRIVE, COLUMBIA, SC, 29223","Match","Exact","509 ARCOLA DR, COLUMBIA, SC, 29223",71870462,"R"
232512,"509 ARMSTRONG AVE","APOLLO","PA",15613,40.585444212,-79.5651140959999,12,"509 ARMSTRONG AVE, APOLLO, PA, 15613","Match","Exact","509 ARMSTRONG AVE, APOLLO, PA, 15613",52474580,"L"
232513,"509 ASTOR CIRCLE","NORFOLK","VA",23505,36.9119723750001,-76.258012212,13,"509 ASTOR CIRCLE, NORFOLK, VA, 23505","Match","Exact","509 ASTOR CIR, NORFOLK, VA, 23505",122134245,"R"
232514,"509 BALDWIN ROAD","SUMMIT","NY",12175,42.5563491250001,-74.587844745,14,"509 BALDWIN ROAD, SUMMIT, NY, 12175","Match","Exact","509 BALDWIN RD, SUMMIT, NY, 12175",649868783,"L"
232515,"509 BEALL STREET","CUMBERLAND","MD",21502,39.6484239010001,-78.774126274,15,"509 BEALL STREET, CUMBERLAND, MD, 21502","Match","Exact","509 BEALL ST, CUMBERLAND, MD, 21502",123312395,"R"
232516,"509 BELOIT AVE UNIT 1","FOREST PARK","IL",60130,41.877382821,-87.811952906,16,"509 BELOIT AVE UNIT 1, FOREST PARK, IL, 60130","Match","Exact","509 BELOIT AVE, FOREST PARK, IL, 60130",111754593,"R"
232517,"509 BLACK DIAMOND RD","PORT ANGELES","WA",98363,48.1068132190001,-123.45474566,17,"509 BLACK DIAMOND RD, PORT ANGELES, WA, 98363","Match","Exact","509 BLACK DIAMOND RD, PORT ANGELES, WA, 98363",623984974,"R"
232518,"509 BRANCH CROSSING DRIVE","COVINGTON","LA",70435,30.502404837,-90.098899928,18,"509 BRANCH CROSSING DRIVE, COVINGTON, LA, 70435","Match","Exact","509 BRANCH CROSSING DR, COVINGTON, LA, 70435",111321819,"L"
232519,"509 BROADWAY","PATERSON","NJ",7514,40.9183891920001,-74.1524477789999,19,"509 BROADWAY, PATERSON, NJ, 7514","Match","Non_Exact","509 BROADWAY AVE, PATERSON, NJ, 07514",65264443,"L"
232520,"509 BUCKINGHAM PLACE","DESOTO","TX",75115,32.5820393280001,-96.859574298,20,"509 BUCKINGHAM PLACE, DESOTO, TX, 75115","Match","Exact","509 BUCKINGHAM PL, DESOTO, TX, 75115",103186191,"R"
232521,"509 CARAWAY CT","SAINT JOHNS","FL",32259,30.1070288990001,-81.609966244,21,"509 CARAWAY CT, SAINT JOHNS, FL, 32259","Match","Exact","509 CARAWAY CT, SAINT JOHNS, FL, 32259",92608401,"L"
232522,"509 CARY WOODS CIR","CARY","IL",60013,42.198599013,-88.237092648,22,"509 CARY WOODS CIR, CARY, IL, 60013","Match","Exact","509 CARY WOODS CIR, CARY, IL, 60013",119872200,"L"
232523,"509 CASSWAY ARCH","CHESAPEAKE","VA",23323,36.726681032,-76.3318140929999,23,"509 CASSWAY ARCH, CHESAPEAKE, VA, 23323","Match","Exact","509 CASSWAY ARCH, CHESAPEAKE, VA, 23323",121780593,"L"
232524,"509 CEDAR HILL ROAD","FAR ROCKAWAY","NY",11691,40.602772266,-73.7389281769999,24,"509 CEDAR HILL ROAD, FAR ROCKAWAY, NY, 11691","Match","Exact","509 CEDAR HILL RD, FAR ROCKAWAY, NY, 11691",59730587,"L"
232525,"509 CEDARWOOD CT","BARBERTON","OH",44203,40.99656479,-81.5967661889999,25,"509 CEDARWOOD CT, BARBERTON, OH, 44203","Match","Exact","509 CEDARWOOD CT, BARBERTON, OH, 44203",625491611,"R"
232526,"509 CHURCH STREET","LAFAYETTE","TN",37083,36.52527761,-86.036543361,26,"509 CHURCH STREET, LAFAYETTE, TN, 37083","Match","Exact","509 CHURCH ST, LAFAYETTE, TN, 37083",29696813,"L"
232527,"509 COLGATE COURT","BENSALEM","PA",19020,40.1103505950001,-74.9109229319999,27,"509 COLGATE COURT, BENSALEM, PA, 19020","Match","Exact","509 COLGATE CT, BENSALEM, PA, 19020",134759358,"L"
232528,"509 COPHER CT","EULESS","TX",76040,32.830139909,-97.0755220629999,28,"509 COPHER CT, EULESS, TX, 76040","Match","Exact","509 COPHER CT, EULESS, TX, 76040",101874775,"L"
232529,"509 DAVIE ROAD","CARRBORO","NC",27510,35.9104270180001,-79.084192005,29,"509 DAVIE ROAD, CARRBORO, NC, 27510","Match","Exact","509 DAVIE RD, CARRBORO, NC, 27510",72378309,"R"
232530,"509 DUNWOODY COURT","FRANKLIN","TN",37069,35.949595489,-86.8649380849999,30,"509 DUNWOODY COURT, FRANKLIN, TN, 37069","Match","Exact","509 DUNWOODY CT, FRANKLIN, TN, 37069",73123551,"L"
232531,"509 E  3RD STREET","BROOKLYN","NY",11218,40.6393847310001,-73.9766372719999,31,"509 E  3RD STREET, BROOKLYN, NY, 11218","Match","Exact","509 E 3RD ST, BROOKLYN, NY, 11218",59080618,"L"
232532,"509 E 75TH ST - 2ND FLOOR","CHICAGO","IL",60619,41.758454376,-87.612285417,32,"509 E 75TH ST - 2ND FLOOR, CHICAGO, IL, 60619","Match","Non_Exact","509 E 75TH ST, CHICAGO, IL, 60619",111772577,"R"
232533,"509 E 75TH ST FL 2","CHICAGO","IL",60619,41.758454376,-87.612285417,33,"509 E 75TH ST FL 2, CHICAGO, IL, 60619","Match","Non_Exact","509 E 75TH ST, CHICAGO, IL, 60619",111772577,"R"
232534,"509 E 75TH STREET 2ND FL","CHICAGO","IL",60619,41.758454376,-87.612285417,34,"509 E 75TH STREET 2ND FL, CHICAGO, IL, 60619","Match","Non_Exact","509 E 75TH ST, CHICAGO, IL, 60619",111772577,"R"
232535,"509 E 75TH STREET 2ND FLOOR","CHICAGO","IL",60619,41.758454376,-87.612285417,35,"509 E 75TH STREET 2ND FLOOR, CHICAGO, IL, 60619","Match","Non_Exact","509 E 75TH ST, CHICAGO, IL, 60619",111772577,"R"
232536,"509 E CAPITOL STREET","JACKSON","MS",39201,32.299440933,-90.181536696,36,"509 E CAPITOL STREET, JACKSON, MS, 39201","Match","Exact","509 E CAPITOL ST, JACKSON, MS, 39201",65372651,"R"
232537,"509 E ELGIN","BROKEN ARROW","OK",74012,36.0554359700001,-95.785132361,37,"509 E ELGIN, BROKEN ARROW, OK, 74012","Match","Non_Exact","509 E ELGIN ST, BROKEN ARROW, OK, 74012",166458989,"R"
232538,"509 E ELLICOTT STREET","TAMPA","FL",33603,27.991048705,-82.455084748,38,"509 E ELLICOTT STREET, TAMPA, FL, 33603","Match","Exact","509 E ELLICOTT ST, TAMPA, FL, 33603",104522247,"R"
232539,"509 E HARRISON AVENUE","COEUR D'ALENE","ID",83814,47.6862283520001,-116.778559277,39,"509 E HARRISON AVENUE, COEUR D'ALENE, ID, 83814","Match","Non_Exact","509 E HARRISON AVE, COEUR D ALENE, ID, 83814",192948100,"R"
232540,"509 E LANCASTER BLVD UNIT 7","LANCASTER","CA",93535,34.696795013,-118.12104923,40,"509 E LANCASTER BLVD UNIT 7, LANCASTER, CA, 93535","Match","Non_Exact","509 E LANCASTER BLVD, LANCASTER, CA, 93535",640126385,"L"
232541,"509 E MAIN ST","GENEVA","OH",44041,41.8082679250001,-80.939361671,41,"509 E MAIN ST, GENEVA, OH, 44041","Match","Exact","509 E MAIN ST, GENEVA, OH, 44041",117311397,"L"
232542,"509 E PIUTE AVE","PHOENIX","AZ",85024,33.6633056690001,-112.067985214,42,"509 E PIUTE AVE, PHOENIX, AZ, 85024","Match","Exact","509 E PIUTE AVE, PHOENIX, AZ, 85024",128182245,"R"
232543,"509 EAST CENTER STREET","LEXINGTON","NC",27292,35.817922326,-80.247392067,43,"509 EAST CENTER STREET, LEXINGTON, NC, 27292","Match","Exact","509 E CENTER ST, LEXINGTON, NC, 27292",20217507,"R"
232544,"509 EAST DUNN ROAD","NEW CARLISLE","IN",46552,41.701587208,-86.5010622459999,44,"509 EAST DUNN ROAD, NEW CARLISLE, IN, 46552","Match","Exact","509 E DUNN RD, NEW CARLISLE, IN, 46552",638716056,"R"
232545,"509 EAST EXETER STREET","GLADSTONE","OR",97027,45.383148362,-122.588240106,45,"509 EAST EXETER STREET, GLADSTONE, OR, 97027","Match","Exact","509 E EXETER ST, GLADSTONE, OR, 97027",157917425,"R"
232546,"509 EAST WATAUGA AVENUE","JOHNSON CITY","TN",37601,36.3263084210001,-82.3512728599999,46,"509 EAST WATAUGA AVENUE, JOHNSON CITY, TN, 37601","Match","Exact","509 E WATAUGA AVE, JOHNSON CITY, TN, 37601",127923983,"L"
232547,"509 ELBETHEL RD","GAFFNEY","SC",29340,34.932018455,-81.6067894669999,47,"509 ELBETHEL RD, GAFFNEY, SC, 29340","Match","Exact","509 ELBETHEL RD, GAFFNEY, SC, 29340",18985149,"L"
232548,"509 ELM ST","RICHLAND","PA",17087,40.3620656310001,-76.264105673,48,"509 ELM ST, RICHLAND, PA, 17087","Match","Exact","509 ELM ST, RICHLAND, PA, 17087",639692877,"L"
232549,"509 ELMWOOD CT","KALAMAZOO","MI",49007,42.2960524850001,-85.595018647,49,"509 ELMWOOD CT, KALAMAZOO, MI, 49007","Match","Exact","509 ELMWOOD CT, KALAMAZOO, MI, 49007",642921087,"R"
232550,"509 EMBER DRIVE","DURHAM","NC",27703,35.964596869,-78.806092094,50,"509 EMBER DRIVE, DURHAM, NC, 27703","Match","Exact","509 EMBER DR, DURHAM, NC, 27703",614176625,"L"
232551,"509 EMORY ST","AKRON","OH",44310,NA,NA,51,"509 EMORY ST, AKRON, OH, 44310","No_Match",NA,NA,NA,NA
232552,"509 ENERGY CENTER BLVD SUITE 803","NORTHPORT","AL",35473,33.2402754500001,-87.552201789,52,"509 ENERGY CENTER BLVD SUITE 803, NORTHPORT, AL, 35473","Match","Exact","509 ENERGY CENTER BLVD, NORTHPORT, AL, 35473",82224384,"R"
232553,"509 FLAMINGO DR","W. PALM BEACH","FL",33401,26.696247274,-80.055910276,53,"509 FLAMINGO DR, W. PALM BEACH, FL, 33401","Match","Exact","509 FLAMINGO DR, WEST PALM BEACH, FL, 33401",115528322,"R"
232554,"509 FOREST RD","PERKASIE","PA",18944,40.3635781200001,-75.2232374979999,54,"509 FOREST RD, PERKASIE, PA, 18944","Match","Exact","509 FOREST RD, PERKASIE, PA, 18944",624493330,"L"
232555,"509 FOXGLOVE WAY","STAFFORD","VA",22554,38.444374484,-77.4335713999999,55,"509 FOXGLOVE WAY, STAFFORD, VA, 22554","Match","Exact","509 FOXGLOVE WAY, STAFFORD, VA, 22554",652158567,"L"
232556,"509 GARTRELL ST","ASHLAND","KY",41101,38.4479483810001,-82.6147075929999,56,"509 GARTRELL ST, ASHLAND, KY, 41101","Match","Exact","509 GARTRELL ST, ASHLAND, KY, 41101",151048622,"L"
232557,"509 GLENWOOD TOWERS   701","RALEIGH","NC",27603,35.786863834,-78.647238543,57,"509 GLENWOOD TOWERS   701, RALEIGH, NC, 27603","Match","Non_Exact","509 GLENWOOD AVE, RALEIGH, NC, 27603",72503497,"L"
232558,"509 GOLDEN CREEK DR","ROUND ROCK","TX",78665,30.5164138380001,-97.6266851779999,58,"509 GOLDEN CREEK DR, ROUND ROCK, TX, 78665","Match","Exact","509 GOLDEN CREEK DR, ROUND ROCK, TX, 78665",617770229,"R"
232559,"509 GRAVEL PIKE","COLLEGEVILLE","PA",19426,40.2187404760001,-75.4536288749999,59,"509 GRAVEL PIKE, COLLEGEVILLE, PA, 19426","Match","Exact","509 GRAVEL PIKE, COLLEGEVILLE, PA, 19426",605629005,"L"
232560,"509 GREEN RIVER RD","CHESNEE","SC",29325,35.052393341,-81.874786703,60,"509 GREEN RIVER RD, CHESNEE, SC, 29325","Match","Non_Exact","509 GREEN RIVER RD, CHESNEE, SC, 29323",19485022,"R"
232561,"509 GREENTOWN ROAD","TRENTON","NC",28585,35.069301572,-77.384679454,61,"509 GREENTOWN ROAD, TRENTON, NC, 28585","Match","Exact","509 GREENTOWN RD, TRENTON, NC, 28585",13860217,"R"
232562,"509 GULLEY STREET","FARMERVILLE","LA",71241,32.7783770450001,-92.401745722,62,"509 GULLEY STREET, FARMERVILLE, LA, 71241","Match","Exact","509 GULLEY ST, FARMERVILLE, LA, 71241",150042125,"L"
232563,"509 HALSEY AVENUE UNIT 2","PITTSBURGH","PA",15221,40.419959851,-79.8488286159999,63,"509 HALSEY AVENUE UNIT 2, PITTSBURGH, PA, 15221","Match","Exact","509 HALSEY AVE, PITTSBURGH, PA, 15221",51670045,"R"
232564,"509 HARRIET STREET","FLINT","MI",48504,43.0327158420001,-83.697129412,64,"509 HARRIET STREET, FLINT, MI, 48504","Match","Non_Exact","509 HARRIET ST, FLINT, MI, 48505",69567685,"L"
232565,"509 HAZLETT AVE APT A","BALTIMORE","MD",21229,39.277346654,-76.6983593859999,65,"509 HAZLETT AVE APT A, BALTIMORE, MD, 21229","Match","Exact","509 HAZLETT AVE, BALTIMORE, MD, 21229",206412834,"L"
232566,"509 HEATH LN","COPPELL","TX",75019,32.9564005510001,-97.005601715,66,"509 HEATH LN, COPPELL, TX, 75019","Match","Exact","509 HEATH LN, COPPELL, TX, 75019",625001111,"R"
232567,"509 HEGNER WAY","SEWICKLEY","PA",15143,40.540638093,-80.1803388229999,67,"509 HEGNER WAY, SEWICKLEY, PA, 15143","Match","Exact","509 HEGNER WAY, SEWICKLEY, PA, 15143",51706074,"L"
232568,"509 HERON WALK SE","SAMMAMISH","WA",98074,NA,NA,68,"509 HERON WALK SE, SAMMAMISH, WA, 98074","No_Match",NA,NA,NA,NA
232569,"509 HICKORY STREET","STATESVILLE","NC",28677,35.7912091320001,-80.900725033,69,"509 HICKORY STREET, STATESVILLE, NC, 28677","Match","Exact","509 HICKORY ST, STATESVILLE, NC, 28677",45985889,"L"
232570,"509 HIDDEN HARBOUR DR","INDIAN ROCKS BEACH","FL",33785,27.891942837,-82.846720771,70,"509 HIDDEN HARBOUR DR, INDIAN ROCKS BEACH, FL, 33785","Match","Exact","509 HIDDEN HARBOUR DR, INDIAN ROCKS BEACH, FL, 33785",124749703,"R"
232571,"509 HIGHLAND MEADOWS DRIVE","SPARTA","WI",54656,43.9486469190001,-90.831437168,71,"509 HIGHLAND MEADOWS DRIVE, SPARTA, WI, 54656","Match","Exact","509 HIGHLAND MEADOWS DR, SPARTA, WI, 54656",51080860,"R"
232572,"509 HIGHWAY 105 SUITE 306","MONUMENT","CO",80132,NA,NA,72,"509 HIGHWAY 105 SUITE 306, MONUMENT, CO, 80132","No_Match",NA,NA,NA,NA
232573,"509 HILLS APT 142","EL PASO","TX",79901,NA,NA,73,"509 HILLS APT 142, EL PASO, TX, 79901","No_Match",NA,NA,NA,NA
232574,"509 HOCHUNK PLAZA N","WINNEBAGO","NE",68071,NA,NA,74,"509 HOCHUNK PLAZA N, WINNEBAGO, NE, 68071","No_Match",NA,NA,NA,NA
232575,"509 JEFFERSON STREET","LAFAYETTE","LA",70501,30.225497725,-92.018529434,75,"509 JEFFERSON STREET, LAFAYETTE, LA, 70501","Match","Exact","509 JEFFERSON ST, LAFAYETTE, LA, 70501",85616015,"L"
232576,"509 KATHY DR","DESOTO","TX",75115,32.602708712,-96.866575923,76,"509 KATHY DR, DESOTO, TX, 75115","Match","Exact","509 KATHY DR, DESOTO, TX, 75115",102953489,"R"
232577,"509 KAYS LANDING DR","SANFORD","FL",32771,28.7953144570001,-81.306734723,77,"509 KAYS LANDING DR, SANFORD, FL, 32771","Match","Exact","509 KAYS LANDING DR, SANFORD, FL, 32771",618451866,"R"
232578,"509 KELVINGTON DRIVE","ANNA","TX",75409,33.3540819360001,-96.557225522,78,"509 KELVINGTON DRIVE, ANNA, TX, 75409","Match","Exact","509 KELVINGTON DR, ANNA, TX, 75409",642935313,"R"
232579,"509 KENNEDY ST","AMA","LA",70031,29.940411205,-90.29458393,79,"509 KENNEDY ST, AMA, LA, 70031","Match","Exact","509 KENNEDY ST, AMA, LA, 70031",635284353,"L"
232580,"509 KESSLER BOULEVARD WEST DRIVE","INDIANAPOLIS","IN",46228,39.8626441060001,-86.169317081,80,"509 KESSLER BOULEVARD WEST DRIVE, INDIANAPOLIS, IN, 46228","Match","Exact","509 KESSLER BOULEVARD WEST DR, INDIANAPOLIS, IN, 46228",107983736,"L"
232581,"509 LAUREL RIDGE ROAD","NORTH CHARLESTON","SC",29418,32.900619577,-80.094509202,81,"509 LAUREL RIDGE ROAD, NORTH CHARLESTON, SC, 29418","Match","Exact","509 LAUREL RIDGE RD, N CHARLESTON, SC, 29418",178466304,"L"
232582,"509 LAURELWOOD RD","BURLESON","TX",76028,32.4981247690001,-97.365371861,82,"509 LAURELWOOD RD, BURLESON, TX, 76028","Match","Exact","509 LAURELWOOD RD, BURLESON, TX, 76028",103539281,"R"
232583,"509 LINDEN CIRCLE","CHARLESTON","SC",29407,32.7825504420001,-80.00157868,83,"509 LINDEN CIRCLE, CHARLESTON, SC, 29407","Match","Exact","509 LINDEN CIR, CHARLESTON, SC, 29407",108902236,"R"
232584,"509 LONDONTOWN RD","EDGEWATER","MD",21037,38.9340921950001,-76.549662145,84,"509 LONDONTOWN RD, EDGEWATER, MD, 21037","Match","Exact","509 LONDONTOWN RD, EDGEWATER, MD, 21037",68200074,"R"
232585,"509 MADISON AVE 4TH FLR","NEW YORK","NY",10022,40.7595833770001,-73.9743291779999,85,"509 MADISON AVE 4TH FLR, NEW YORK, NY, 10022","Match","Exact","509 MADISON AVE, NEW YORK, NY, 10022",59657215,"R"
232586,"509 MAPLE COVE LANE NW","MADISON","AL",35757,34.771361143,-86.739178656,86,"509 MAPLE COVE LANE NW, MADISON, AL, 35757","Match","Exact","509 MAPLE COVE LN NW, MADISON, AL, 35757",648025613,"L"
232587,"509 MAPLE DRIVE","SPRINGDALE","AR",72764,36.1804795150001,-94.1353837889999,87,"509 MAPLE DRIVE, SPRINGDALE, AR, 72764","Match","Exact","509 MAPLE DR, SPRINGDALE, AR, 72764",639303391,"L"
232588,"509 MARTIN LUTHER KIND BLVD","TRENTON","NJ",8618,NA,NA,88,"509 MARTIN LUTHER KIND BLVD, TRENTON, NJ, 8618","No_Match",NA,NA,NA,NA
232589,"509 MEADOW LEA DRIVE","AUSTIN","TX",78745,30.1894925070001,-97.7887918489999,89,"509 MEADOW LEA DRIVE, AUSTIN, TX, 78745","Match","Exact","509 MEADOW LEA DR, AUSTIN, TX, 78745",63949481,"L"
232590,"509 MILLHOUSE RD","CASTLE HAYNE","NC",28429,34.336949437,-77.880794979,90,"509 MILLHOUSE RD, CASTLE HAYNE, NC, 28429","Match","Exact","509 MILLHOUSE RD, CASTLE HAYNE, NC, 28429",152732315,"L"
232591,"509 MILLIGAN DRIVE","STONE MOUNTAIN","GA",30083,33.7907334430001,-84.240005415,91,"509 MILLIGAN DRIVE, STONE MOUNTAIN, GA, 30083","Match","Exact","509 MILLIGAN DR, STONE MOUNTAIN, GA, 30083",23369953,"R"
232592,"509 MOCKINGBIRD LANE","WEATHERFORD","TX",76086,32.7429099060001,-97.811457508,92,"509 MOCKINGBIRD LANE, WEATHERFORD, TX, 76086","Match","Exact","509 MOCKINGBIRD LN, WEATHERFORD, TX, 76086",103579893,"L"
232593,"509 MONTROSE DR","ROMEOVILLE","IL",60446,41.6479431060001,-88.09431876,93,"509 MONTROSE DR, ROMEOVILLE, IL, 60446","Match","Exact","509 MONTROSE DR, ROMEOVILLE, IL, 60446",111535876,"R"
232594,"509 N 190TH STREET","SHORELINE","WA",98133,47.7668409080001,-122.35299272,94,"509 N 190TH STREET, SHORELINE, WA, 98133","Match","Exact","509 N 190TH ST, SHORELINE, WA, 98133",640611830,"R"
232595,"509 N ALMOND WAY","BANNING","CA",92220,33.9299442970001,-116.866904105,95,"509 N ALMOND WAY, BANNING, CA, 92220","Match","Exact","509 ALMOND WAY, BANNING, CA, 92220",194688709,"L"
232596,"509 N CUSTER STREET","WEATHERFORD","OK",73096,35.530296256,-98.7077354199999,96,"509 N CUSTER STREET, WEATHERFORD, OK, 73096","Match","Exact","509 N CUSTER ST, WEATHERFORD, OK, 73096",150574485,"L"
232597,"509 N LAUREL VALLEY DRIVE","AZUSA","CA",91702,34.1455896350001,-117.912953041,97,"509 N LAUREL VALLEY DRIVE, AZUSA, CA, 91702","Match","Exact","509 N LAUREL VALLEY DR, AZUSA, CA, 91702",142818737,"R"
232598,"509 N MAIN","HUXLEY","IA",50124,41.8964316130001,-93.606193703,98,"509 N MAIN, HUXLEY, IA, 50124","Match","Non_Exact","509 N MAIN AVE, HUXLEY, IA, 50124",647651103,"L"
232599,"509 N PARKER ST","RISING STAR","TX",76471,32.1014168180001,-98.965664905,99,"509 N PARKER ST, RISING STAR, TX, 76471","Match","Exact","509 PARKER ST, RISING STAR, TX, 76471",158693996,"L"
232600,"509 N POINSETTIA PL","LOS ANGELES","CA",90036,34.080490293,-118.348652428,100,"509 N POINSETTIA PL, LOS ANGELES, CA, 90036","Match","Exact","509 N POINSETTIA PL, LOS ANGELES, CA, 90036",141599548,"L"
232601,"509 N POPLAR ST","CHARLOTTE","NC",28202,35.2321363410001,-80.8405865089999,101,"509 N POPLAR ST, CHARLOTTE, NC, 28202","Match","Exact","509 N POPLAR ST, CHARLOTTE, NC, 28202",70479153,"L"
232602,"509 N ROSS AVE","MEXIA","TX",76667,31.6848264070001,-96.4739980589999,102,"509 N ROSS AVE, MEXIA, TX, 76667","Match","Exact","509 N ROSS AVE, MEXIA, TX, 76667",25049098,"L"
232603,"509 N SALINAS BLVD UNIT 1329","DONNA","TX",78537,NA,NA,103,"509 N SALINAS BLVD UNIT 1329, DONNA, TX, 78537","Tie",NA,NA,NA,NA
232604,"509 N WESTOVER BLVD APT 221","ALBANY","GA",31707,31.6034263080001,-84.2208462949999,104,"509 N WESTOVER BLVD APT 221, ALBANY, GA, 31707","Match","Non_Exact","509 N WESTOVER BLVD, ALBANY, GA, 31707",618685068,"L"
232605,"509 NAPLES TERRACE LANE","LAMARQUE","TX",77568,NA,NA,105,"509 NAPLES TERRACE LANE, LAMARQUE, TX, 77568","No_Match",NA,NA,NA,NA
232606,"509 NE 50TH COURT","POMPANO BEACH","FL",33064,26.293099027,-80.115094662,106,"509 NE 50TH COURT, POMPANO BEACH, FL, 33064","Match","Non_Exact","509 NE 50TH CT, POMPANO BEACH, FL, 33064",114742011,"L"
232607,"509 NE LIBERTY CT","ANKENY","IA",50021,41.751876042,-93.5898425459999,107,"509 NE LIBERTY CT, ANKENY, IA, 50021","Match","Exact","509 NE LIBERTY CT, ANKENY, IA, 50021",65864025,"L"
232608,"509 NORTH BROADWAY AVENUE","SYLACAUGA","AL",35150,33.1586674340001,-86.250891084,108,"509 NORTH BROADWAY AVENUE, SYLACAUGA, AL, 35150","Match","Non_Exact","509 BROADWAY AVE, SYLACAUGA, AL, 35150",66963574,"L"
232609,"509 NORTH CAMPBELL STATION RD","FARRAGUT","TN",37934,35.891099931,-84.1714435169999,109,"509 NORTH CAMPBELL STATION RD, FARRAGUT, TN, 37934","Match","Exact","509 N CAMPBELL STATION RD, FARRAGUT, TN, 37934",604623994,"R"
232610,"509 NORTH GRAHAM STREET UNIT3D","CHARLOTTE","NC",28202,35.2338287470001,-80.842526543,110,"509 NORTH GRAHAM STREET UNIT3D, CHARLOTTE, NC, 28202","Match","Exact","509 N GRAHAM ST, CHARLOTTE, NC, 28202",70479116,"L"
232611,"509 NORTH RIDGE STREET","DANVILLE","VA",24541,36.589512298,-79.399547202,111,"509 NORTH RIDGE STREET, DANVILLE, VA, 24541","Match","Exact","509 N RIDGE ST, DANVILLE, VA, 24541",56589599,"L"
232612,"509 NW 83RD ST","VANCOUVER","WA",98665,45.682061065,-122.675953858,112,"509 NW 83RD ST, VANCOUVER, WA, 98665","Match","Exact","509 NW 83RD ST, VANCOUVER, WA, 98665",158321288,"L"
232613,"509 OAK CIRCLE","EASLEY","SC",29640,34.836362794,-82.594110008,113,"509 OAK CIRCLE, EASLEY, SC, 29640","Match","Exact","509 OAK CIR, EASLEY, SC, 29640",26208789,"R"
232614,"509 OLD SPEEDWAY DR NW","CONCORD","NC",28027,35.409434886,-80.6467390399999,114,"509 OLD SPEEDWAY DR NW, CONCORD, NC, 28027","Match","Exact","509 OLD SPEEDWAY DR NW, CONCORD, NC, 28027",648693980,"R"
232615,"509 OLIVE WAY SUITE 1451","SEATTLE","WA",98101,47.6127382440001,-122.337194908,115,"509 OLIVE WAY SUITE 1451, SEATTLE, WA, 98101","Match","Exact","509 OLIVE WAY, SEATTLE, WA, 98101",239762477,"R"
232616,"509 OLIVE WAY/ SUITE 1711","SEATTLE","WA",98101,47.6127382440001,-122.337194908,116,"509 OLIVE WAY/ SUITE 1711, SEATTLE, WA, 98101","Match","Non_Exact","509 OLIVE WAY, SEATTLE, WA, 98101",239762477,"R"
232617,"509 PARKWAY DRIVE","IRVINGTON","KY",40146,37.8753747110001,-86.2746979349999,117,"509 PARKWAY DRIVE, IRVINGTON, KY, 40146","Match","Exact","509 PARKWAY DR, IRVINGTON, KY, 40146",8022678,"R"
232618,"509 PARKWAY ROAD","HARRISBURG","PA",17110,40.316794671,-76.89629644,118,"509 PARKWAY ROAD, HARRISBURG, PA, 17110","Match","Exact","509 PARKWAY RD, HARRISBURG, PA, 17110",70815764,"R"
232619,"509 PINCHOT WAY","WOODSTOCK","GA",30188,34.0982324620001,-84.4502011169999,119,"509 PINCHOT WAY, WOODSTOCK, GA, 30188","Match","Exact","509 PINCHOT WAY, WOODSTOCK, GA, 30188",617673506,"R"
232620,"509 PINEHURST COURT","ROSLYN","NY",11576,40.7649166800001,-73.680094513,120,"509 PINEHURST COURT, ROSLYN, NY, 11576","Match","Exact","509 PINEHURST CT, ROSLYN, NY, 11576",147695082,"L"
232621,"509 PLEASANT STREET","PARIS","KY",40361,38.2109583530001,-84.249948946,121,"509 PLEASANT STREET, PARIS, KY, 40361","Match","Exact","509 PLEASANT ST, PARIS, KY, 40361",31878874,"L"
232622,"509 RANSOM UNITY B","BROOKINGS","OR",97415,42.0602843620001,-124.279896115,122,"509 RANSOM UNITY B, BROOKINGS, OR, 97415","Match","Non_Exact","509 RANSOM AVE, BROOKINGS, OR, 97415",137107870,"R"
232623,"509 READS LN","FAR ROCKAWAY","NY",11691,40.600302142,-73.739238853,123,"509 READS LN, FAR ROCKAWAY, NY, 11691","Match","Exact","509 READS LN, FAR ROCKAWAY, NY, 11691",59723885,"L"
232624,"509 RIDGEWOOD ROAD","LOUISVILLE","KY",40207,38.266541024,-85.684469007,124,"509 RIDGEWOOD ROAD, LOUISVILLE, KY, 40207","Match","Exact","509 RIDGEWOOD RD, LOUISVILLE, KY, 40207",96851654,"R"
232625,"509 ROUTE 146","ALTAMONT","NY",12209,NA,NA,125,"509 ROUTE 146, ALTAMONT, NY, 12209","No_Match",NA,NA,NA,NA
232626,"509 ROUTE 32 APT 1","HIGHLAND MILLS","NY",10930,41.347062168,-74.126272312,126,"509 ROUTE 32 APT 1, HIGHLAND MILLS, NY, 10930","Match","Non_Exact","509 STATE RTE 32, HIGHLAND MILLS, NY, 10930",124493230,"L"
232627,"509 RUNNYMEDE DR","FAYETTEVILLE","NC",28314,35.0653924170001,-78.989197668,127,"509 RUNNYMEDE DR, FAYETTEVILLE, NC, 28314","Match","Non_Exact","509 RUNNYMEADE, FAYETTEVILLE, NC, 28314",64221106,"L"
232628,"509 RUSHWOOD COURT","SUFFOLK","VA",23435,36.8356861950001,-76.530428355,128,"509 RUSHWOOD COURT, SUFFOLK, VA, 23435","Match","Exact","509 RUSHWOOD CT, SUFFOLK, VA, 23435",122233683,"L"
232629,"509 S 137TH STREET","BONNER SPRINGS","KS",66012,39.0894126200001,-94.8966605859999,129,"509 S 137TH STREET, BONNER SPRINGS, KS, 66012","Match","Exact","509 S 137TH ST, BONNER SPRINGS, KS, 66012",648746727,"R"
232630,"509 S 22ND AVE","BOZEMAN","MT",59718,45.674591133,-111.06575339,130,"509 S 22ND AVE, BOZEMAN, MT, 59718","Match","Exact","509 S 22ND AVE, BOZEMAN, MT, 59718",624256842,"R"
232631,"509 S 5TH ST APT 16","CHAMPAIGN","IL",61820,NA,NA,131,"509 S 5TH ST APT 16, CHAMPAIGN, IL, 61820","Tie",NA,NA,NA,NA
232632,"509 S ALTON BLVD","ALTON","TX",78573,NA,NA,132,"509 S ALTON BLVD, ALTON, TX, 78573","No_Match",NA,NA,NA,NA
232633,"509 S CHICKASAW TRAIL 365","ORLANDO","FL",32825,28.536445062,-81.275362162,133,"509 S CHICKASAW TRAIL 365, ORLANDO, FL, 32825","Match","Non_Exact","509 S CHICKASAW TRL, ORLANDO, FL, 32825",652515026,"L"
232634,"509 S COLLEGE STREET","NEWBERG","OR",97132,45.296660982,-122.972870717,134,"509 S COLLEGE STREET, NEWBERG, OR, 97132","Match","Exact","509 S COLLEGE ST, NEWBERG, OR, 97132",156501149,"R"
232635,"509 S MAIN ST SUITE A","LAS CRUCES","NM",88001,32.314367685,-106.779954211,135,"509 S MAIN ST SUITE A, LAS CRUCES, NM, 88001","Match","Non_Exact","509 N MAIN ST, LAS CRUCES, NM, 88001",189543813,"L"
232636,"509 S SEMINOLE AVE","OKMULGEE","OK",74447,35.618970393,-95.9739984239999,136,"509 S SEMINOLE AVE, OKMULGEE, OK, 74447","Match","Exact","509 S SEMINOLE AVE, OKMULGEE, OK, 74447",166248032,"R"
232637,"509 S SPRUCE STREET","LARAMIE","WY",82072,41.309520349,-105.602400232,137,"509 S SPRUCE STREET, LARAMIE, WY, 82072","Match","Exact","509 S SPRUCE ST, LARAMIE, WY, 82072",168740369,"R"
232638,"509 SANDERLING LANE","IMPERIAL BEACH","CA",91932,32.586170397,-117.119133234,138,"509 SANDERLING LANE, IMPERIAL BEACH, CA, 91932","Match","Exact","509 SANDERLING LN, IMPERIAL BEACH, CA, 91932",652032364,"L"
232639,"509 SANDY PL","OXON HILL","MD",20745,38.7805922920001,-77.001211999,139,"509 SANDY PL, OXON HILL, MD, 20745","Match","Exact","509 SANDY PL, OXON HILL, MD, 20745",76315307,"R"
232640,"509 SAPPHIRE LANE","OCALA","FL",34472,29.0945558710001,-81.99902707,140,"509 SAPPHIRE LANE, OCALA, FL, 34472","Match","Exact","509 SAPPHIRE LN, OCALA, FL, 34472",116709267,"R"
232641,"509 SCHOONER WAY","DOVER","DE",19901,39.1782685060001,-75.5116065569999,141,"509 SCHOONER WAY, DOVER, DE, 19901","Match","Exact","509 SCHOONER WAY, DOVER, DE, 19901",68100874,"R"
232642,"509 SE 13TH ST","GRIMES","IA",50111,41.6775263590001,-93.789814591,142,"509 SE 13TH ST, GRIMES, IA, 50111","Match","Exact","509 SE 13TH ST, GRIMES, IA, 50111",608968506,"R"
232643,"509 SENTOSA DR UNIT 309","ST JOHNS","FL",32259,NA,NA,143,"509 SENTOSA DR UNIT 309, ST JOHNS, FL, 32259","No_Match",NA,NA,NA,NA
232644,"509 SERENITY LAKE CT","BARGERSVILLE","IN",46106,NA,NA,144,"509 SERENITY LAKE CT, BARGERSVILLE, IN, 46106","No_Match",NA,NA,NA,NA
232645,"509 SHOEMAKER AVE","JENKINTOWN","PA",19046,40.0991123380001,-75.129278362,145,"509 SHOEMAKER AVE, JENKINTOWN, PA, 19046","Match","Exact","509 SHOEMAKER AVE, JENKINTOWN, PA, 19046",135093562,"L"
232646,"509 SMILEY RD","HAMPTON","VA",23663,37.0367254440001,-76.311769435,146,"509 SMILEY RD, HAMPTON, VA, 23663","Match","Exact","509 SMILEY RD, HAMPTON, VA, 23663",103760048,"L"
232647,"509 SMITH STREET","WEST MONROE","LA",71292,32.484906562,-92.1642775459999,147,"509 SMITH STREET, WEST MONROE, LA, 71292","Match","Exact","509 SMITH ST, WEST MONROE, LA, 71292",161081682,"L"
232648,"509 SO JEFFERSON","ABILENE","TX",79605,32.4456128100001,-99.780913932,148,"509 SO JEFFERSON, ABILENE, TX, 79605","Match","Non_Exact","509 S JEFFERSON DR, ABILENE, TX, 79605",129958513,"L"
232649,"509 SOUTH  BROAD STREET","PHILADELPHIA","PA",19147,39.9443883860001,-75.165250175,149,"509 SOUTH  BROAD STREET, PHILADELPHIA, PA, 19147","Match","Exact","509 S BROAD ST, PHILADELPHIA, PA, 19147",131456482,"L"
232650,"509 SOUTH EXETER STREET 4TH FLOOR","BALTIMORE","MD",21202,39.2852288220001,-76.600360388,150,"509 SOUTH EXETER STREET 4TH FLOOR, BALTIMORE, MD, 21202","Match","Exact","509 S EXETER ST, BALTIMORE, MD, 21202",206421744,"L"
232651,"509 SOUTH MARKET STREET","MUNCY","PA",17756,41.1974286340001,-76.7873481139999,151,"509 SOUTH MARKET STREET, MUNCY, PA, 17756","Match","Exact","509 S MARKET ST, MUNCY, PA, 17756",59450776,"L"
232652,"509 SOUTH STREET","MADERA","CA",93638,36.970377726,-120.062599702,152,"509 SOUTH STREET, MADERA, CA, 93638","Match","Non_Exact","509 E SOUTH ST, MADERA, CA, 93638",102337849,"R"
232653,"509 SPECTATOR AVE","HYATTSVILLE","MD",20785,38.896213888,-76.866817236,153,"509 SPECTATOR AVE, HYATTSVILLE, MD, 20785","Match","Exact","509 SPECTATOR AVE, HYATTSVILLE, MD, 20785",639485284,"R"
232654,"509 STRATFORD ST","HIGHLANDS","TX",77562,29.8217682310001,-95.063030039,154,"509 STRATFORD ST, HIGHLANDS, TX, 77562","Match","Exact","509 STRATFORD ST, HIGHLANDS, TX, 77562",96100898,"R"
232655,"509 STRAWBERRY RIDGE BLVD","VALRICO","FL",33594,27.931776284,-82.224305418,155,"509 STRAWBERRY RIDGE BLVD, VALRICO, FL, 33594","Match","Exact","509 STRAWBERRY RIDGE BLVD, VALRICO, FL, 33594",104599024,"R"
232656,"509 SW 2ND PL","POMPANO BEACH","FL",33060,26.2274529060001,-80.133023663,156,"509 SW 2ND PL, POMPANO BEACH, FL, 33060","Match","Exact","509 SW 2ND PL, POMPANO BEACH, FL, 33060",114694594,"R"
232657,"509 SWEDE STREET","NORRISTOWN","PA",19401,40.11634758,-75.343565615,157,"509 SWEDE STREET, NORRISTOWN, PA, 19401","Match","Exact","509 SWEDE ST, NORRISTOWN, PA, 19401",135082042,"L"
232658,"509 TAMRANDON LN","BIRMINGHAM","AL",35005,33.5913050020001,-86.923545406,158,"509 TAMRANDON LN, BIRMINGHAM, AL, 35005","Match","Non_Exact","509 TAMRANDON LN, ADAMSVILLE, AL, 35005",81542497,"R"
232659,"509 TRINIDAD DR","NORMAN","OK",73072,35.212887272,-97.496038395,159,"509 TRINIDAD DR, NORMAN, OK, 73072","Match","Exact","509 TRINIDAD DR, NORMAN, OK, 73072",99907335,"L"
232660,"509 UBER WAY","GROVE CITY","PA",16127,41.156015429,-80.094288136,160,"509 UBER WAY, GROVE CITY, PA, 16127","Match","Exact","509 UBER WAY, GROVE CITY, PA, 16127",70649503,"R"
232661,"509 UTAH STREET","HIAWATHA","KS",66434,39.8518566050001,-95.5340790549999,161,"509 UTAH STREET, HIAWATHA, KS, 66434","Match","Exact","509 UTAH ST, HIAWATHA, KS, 66434",9768689,"L"
232662,"509 VALLEY MEADOW PLACE","ESCONDIDO","CA",92027,33.1371661110001,-117.034472088,162,"509 VALLEY MEADOW PLACE, ESCONDIDO, CA, 92027","Match","Exact","509 VALLEY MEADOW PL, ESCONDIDO, CA, 92027",195316969,"R"
232663,"509 W 121ST ST APT 611","NEW YORK","NY",10027,40.8103068520001,-73.959414922,163,"509 W 121ST ST APT 611, NEW YORK, NY, 10027","Match","Non_Exact","509 W 121ST ST, NEW YORK, NY, 10027",639467393,"R"
232664,"509 W 34TH ST","WILMINGTON","DE",19802,39.7623167290001,-75.532492089,164,"509 W 34TH ST, WILMINGTON, DE, 19802","Match","Exact","509 W 34TH ST, WILMINGTON, DE, 19802",187258442,"R"
232665,"509 W 6TH ST","CLE ELUM","WA",98922,47.200153013,-120.945990593,165,"509 W 6TH ST, CLE ELUM, WA, 98922","Match","Exact","509 W 6TH ST, CLE ELUM, WA, 98922",157198314,"R"
232666,"509 W ATLANTIC ST","BRANSON","MO",65616,36.6451742570001,-93.22199763,166,"509 W ATLANTIC ST, BRANSON, MO, 65616","Match","Exact","509 W ATLANTIC ST, BRANSON, MO, 65616",20154430,"L"
232667,"509 W CHURCH ST","LYNN","IN",47355,40.0485526790001,-84.946021345,167,"509 W CHURCH ST, LYNN, IN, 47355","Match","Exact","509 W CHURCH ST, LYNN, IN, 47355",31219290,"L"
232668,"509 W CLEVELAND","CUERO","TX",77954,29.102184161,-97.28955883,168,"509 W CLEVELAND, CUERO, TX, 77954","Match","Non_Exact","509 W CLEVELAND ST, CUERO, TX, 77954",44115242,"R"
232669,"509 W CORRIENTE CT","SAN TAN VALLEY","AZ",85143,33.1963082670001,-111.571512549,169,"509 W CORRIENTE CT, SAN TAN VALLEY, AZ, 85143","Match","Exact","509 W CORRIENTE CT, SAN TAN VALLEY, AZ, 85143",627632085,"L"
232670,"509 W HERRING ROAD","MASONTOWN","WV",26542,39.5524827670001,-79.785632248,170,"509 W HERRING ROAD, MASONTOWN, WV, 26542","Match","Non_Exact","509 W HERRING, MASONTOWN, WV, 26542",51495474,"L"
232671,"509 W JEFFERSON ST","WASHINGTON","IA",52353,41.29747138,-91.6969562899999,171,"509 W JEFFERSON ST, WASHINGTON, IA, 52353","Match","Exact","509 W JEFFERSON ST, WASHINGTON, IA, 52353",84182442,"L"
232672,"509 W MAIN STREET","RIPON","CA",95366,37.739402065,-121.128684804,172,"509 W MAIN STREET, RIPON, CA, 95366","Match","Exact","509 W MAIN ST, RIPON, CA, 95366",133864140,"R"
232673,"509 W MARKET ST","COLUMBIA CITY","IN",46725,41.1558838880001,-85.494381495,173,"509 W MARKET ST, COLUMBIA CITY, IN, 46725","Match","Exact","509 W MARKET ST, COLUMBIA CITY, IN, 46725",6644119,"L"
232674,"509 W WISCONSIN AVE","MILWAUKEE","WI",53203,43.0387941230001,-87.91767588,174,"509 W WISCONSIN AVE, MILWAUKEE, WI, 53203","Match","Exact","509 W WISCONSIN AVE, MILWAUKEE, WI, 53203",77741786,"L"
232675,"509 WASHBURN ROAD","WASHBURN","ME",4786,46.7548905290001,-68.104783155,175,"509 WASHBURN ROAD, WASHBURN, ME, 4786","Match","Exact","509 WASHBURN RD, WASHBURN, ME, 04786",123835430,"R"
232676,"509 WEST 3RD STREET","CHESTER","PA",19013,39.843622849,-75.365994273,176,"509 WEST 3RD STREET, CHESTER, PA, 19013","Match","Exact","509 W 3RD ST, CHESTER, PA, 19013",134881921,"L"
232677,"509 WEST BERCKMAN STREET","FRUITLAND PARK","FL",34731,28.85786037,-81.912254616,177,"509 WEST BERCKMAN STREET, FRUITLAND PARK, FL, 34731","Match","Exact","509 W BERCKMAN ST, FRUITLAND PARK, FL, 34731",94230929,"L"
232678,"509 WEST REED STREET","MOBERLY","MO",65270,39.419778847,-92.4417267869999,178,"509 WEST REED STREET, MOBERLY, MO, 65270","Match","Exact","509 W REED ST, MOBERLY, MO, 65270",23795210,"R"
232679,"509 WHETSTONE GLEN STREET","GAITHERSBURG","MD",20877,39.151779483,-77.188669152,179,"509 WHETSTONE GLEN STREET, GAITHERSBURG, MD, 20877","Match","Exact","509 WHETSTONE GLEN ST, GAITHERSBURG, MD, 20877",638731561,"R"
232680,"509 WILD PLUM CIRCLE","DERBY","KS",67037,37.5764069740001,-97.263906003,180,"509 WILD PLUM CIRCLE, DERBY, KS, 67037","Match","Exact","509 WILD PLUM CIR, DERBY, KS, 67037",115684403,"R"
232681,"509 WISTERIA LANE","MORGANTON","GA",30560,34.8659954890001,-84.141093599,181,"509 WISTERIA LANE, MORGANTON, GA, 30560","Match","Exact","509 WISTERIA LN, MORGANTON, GA, 30560",653491866,"L"
232682,"509 ZENITH DR","GLENVIEW","IL",60025,42.0682947060001,-87.863220004,182,"509 ZENITH DR, GLENVIEW, IL, 60025","Match","Exact","509 ZENITH DR, GLENVIEW, IL, 60025",111874011,"R"
232683,"5090 CENTER ST NE","SALEM","OR",97317,44.939593603,-122.957701764,183,"5090 CENTER ST NE, SALEM, OR, 97317","Match","Exact","5090 CENTER ST NE, SALEM, OR, 97317",613684119,"R"
232684,"5090 ELIOT ST","DENVER","CO",80221,39.7889785250001,-105.023942194,184,"5090 ELIOT ST, DENVER, CO, 80221","Match","Exact","5090 ELIOT ST, DENVER, CO, 80221",177299093,"R"
232685,"5090 GOLDENS PATH","YORK","PA",17408,39.965675903,-76.817685252,185,"5090 GOLDENS PATH, YORK, PA, 17408","Match","Exact","5090 GOLDENS PATH, YORK, PA, 17408",620175083,"R"
232686,"5090 KENT CT","RANCHO CUCAMONGA","CA",91739,NA,NA,186,"5090 KENT CT, RANCHO CUCAMONGA, CA, 91739","No_Match",NA,NA,NA,NA
232687,"5090 N CORTE DE CATALONIA","TUCSON","AZ",85718,32.2994390380001,-110.920668904,187,"5090 N CORTE DE CATALONIA, TUCSON, AZ, 85718","Match","Exact","5090 N CORTE DE CATALONIA, TUCSON, AZ, 85718",121387733,"R"
232688,"5090 N WALDO RD","MIDLAND","MI",48642,43.7566251330001,-84.186908688,188,"5090 N WALDO RD, MIDLAND, MI, 48642","Match","Exact","5090 N WALDO RD, MIDLAND, MI, 48642",81190040,"R"
232689,"5090 NORTH 40TH STREET","PHOENIX","AZ",85018,33.5134661450001,-111.995280726,189,"5090 NORTH 40TH STREET, PHOENIX, AZ, 85018","Match","Exact","5090 N 40TH ST, PHOENIX, AZ, 85018",638422981,"L"
232690,"5090 OAK LN","GARDEN VALLEY","CA",95633,38.845956168,-120.862609683,190,"5090 OAK LN, GARDEN VALLEY, CA, 95633","Match","Exact","5090 OAK LN, GARDEN VALLEY, CA, 95633",636428439,"R"
232691,"5090 RICHMOND AVE APT 177","HOUSTON","TX",77056,29.7318001030001,-95.463898101,191,"5090 RICHMOND AVE APT 177, HOUSTON, TX, 77056","Match","Exact","5090 RICHMOND AVE, HOUSTON, TX, 77056",96620587,"R"
232692,"5090 RICHMOND AVE STE 111","HOUSTON","TX",77056,29.7318001030001,-95.463898101,192,"5090 RICHMOND AVE STE 111, HOUSTON, TX, 77056","Match","Exact","5090 RICHMOND AVE, HOUSTON, TX, 77056",96620587,"R"
232693,"5090 RICHMOND AVE STE 352","HOUSTON","TX",77056,29.7318001030001,-95.463898101,193,"5090 RICHMOND AVE STE 352, HOUSTON, TX, 77056","Match","Exact","5090 RICHMOND AVE, HOUSTON, TX, 77056",96620587,"R"
232694,"5090 RICHMOND AVE STE 620","HOUSTON","TX",77056,29.7318001030001,-95.463898101,194,"5090 RICHMOND AVE STE 620, HOUSTON, TX, 77056","Match","Exact","5090 RICHMOND AVE, HOUSTON, TX, 77056",96620587,"R"
232695,"5090 RICHMOND AVENUE 288","HOUSTON","TX",77056,29.7318001030001,-95.463898101,195,"5090 RICHMOND AVENUE 288, HOUSTON, TX, 77056","Match","Exact","5090 RICHMOND AVE, HOUSTON, TX, 77056",96620587,"R"
232696,"5090 SATURN RING COURT","GREENACRES","FL",33463,26.6025791540001,-80.12919362,196,"5090 SATURN RING COURT, GREENACRES, FL, 33463","Match","Exact","5090 SATURN RING CT, GREENACRES, FL, 33463",115531901,"L"
232697,"5090 SHOREHAM PLACE UNIT 206","SAN DIEGO","CA",92122,32.852736571,-117.185463621,197,"5090 SHOREHAM PLACE UNIT 206, SAN DIEGO, CA, 92122","Match","Exact","5090 SHOREHAM PL, SAN DIEGO, CA, 92122",195304562,"L"
232698,"5090 SPINET DR","MELBOURNE","FL",32940,28.192000959,-80.69804369,198,"5090 SPINET DR, MELBOURNE, FL, 32940","Match","Exact","5090 SPINET DR, MELBOURNE, FL, 32940",93959222,"L"
232699,"5090 TENNYSON DRIVE","BEAUMONT","TX",77706,30.1140561600001,-94.158723938,199,"5090 TENNYSON DRIVE, BEAUMONT, TX, 77706","Match","Exact","5090 TENNYSON DR, BEAUMONT, TX, 77706",73849785,"R"
232700,"5090 W LAREDO ST","CHANDLER","AZ",85226,33.3132193220001,-111.929712796,200,"5090 W LAREDO ST, CHANDLER, AZ, 85226","Match","Exact","5090 W LAREDO ST, CHANDLER, AZ, 85226",128777512,"L"
232701,"5090 WINDING GLEN DR","LITHONIA","GA",30038,33.6972833250001,-84.178553031,201,"5090 WINDING GLEN DR, LITHONIA, GA, 30038","Match","Exact","5090 WINDING GLEN DR, LITHONIA, GA, 30038",23399294,"R"
232702,"50909 HIGHWAY 31","SUMMER LAKE","OR",97640,42.892651695,-120.810491138,202,"50909 HIGHWAY 31, SUMMER LAKE, OR, 97640","Match","Non_Exact","50909 STATE HWY 31, SUMMER LAKE, OR, 97640",177925535,"R"
232703,"50909 HWY 31","SUMMER LAKE","OR",97640,42.892651695,-120.810491138,203,"50909 HWY 31, SUMMER LAKE, OR, 97640","Match","Non_Exact","50909 STATE HWY 31, SUMMER LAKE, OR, 97640",177925535,"R"
232704,"5091 COUNTY ROAD 119","WESTCLIFFE","CO",81252,37.997098156,-105.445349183,204,"5091 COUNTY ROAD 119, WESTCLIFFE, CO, 81252","Match","Exact","5091 CO RD 119, WESTCLIFFE, CO, 81252",642914822,"L"
232705,"5091 HIGHWAY 260","SHOW LOW","AZ",85929,NA,NA,205,"5091 HIGHWAY 260, SHOW LOW, AZ, 85929","No_Match",NA,NA,NA,NA
232706,"5091 NEW TRIER AVENUE","SAN JOSE","CA",95136,37.2598789530001,-121.862328735,206,"5091 NEW TRIER AVENUE, SAN JOSE, CA, 95136","Match","Exact","5091 NEW TRIER AVE, SAN JOSE, CA, 95136",122922535,"R"
232707,"5091 SEYBURN STREET","DETROIT","MI",48213,42.3765323320001,-83.014358962,207,"5091 SEYBURN STREET, DETROIT, MI, 48213","Match","Exact","5091 SEYBURN ST, DETROIT, MI, 48213",95483230,"L"
232708,"5092 GALILEO AVE","TROTWOOD","OH",45426,39.8278131530001,-84.28718524,208,"5092 GALILEO AVE, TROTWOOD, OH, 45426","Match","Exact","5092 GALILEO AVE, TROTWOOD, OH, 45426",645836335,"R"
232709,"5092 HOTZE RD","SALEM","IL",62881,38.6596800200001,-88.977254111,209,"5092 HOTZE RD, SALEM, IL, 62881","Match","Exact","5092 HOTZE RD, SALEM, IL, 62881",93040310,"R"
232710,"5092 SW 129TH TERRACE","MIRAMAR","FL",33027,25.961434148,-80.318625916,210,"5092 SW 129TH TERRACE, MIRAMAR, FL, 33027","Match","Non_Exact","5092 SW 129TH TER, MIRAMAR, FL, 33027",114817855,"R"
232711,"50920 CHERRY FARM TRAIL","GRANGER","IN",46530,41.7546262660001,-86.126740851,211,"50920 CHERRY FARM TRAIL, GRANGER, IN, 46530","Match","Exact","50920 CHERRY FARM TRL, GRANGER, IN, 46530",8071060,"L"
232712,"5093 N FLUSS COVE","BARTLETT","TN",38135,NA,NA,212,"5093 N FLUSS COVE, BARTLETT, TN, 38135","Tie",NA,NA,NA,NA
232713,"5093 S LAFONTAINE AVE","SPRINGFIELD","MO",65810,37.121616208,-93.322298157,213,"5093 S LAFONTAINE AVE, SPRINGFIELD, MO, 65810","Match","Exact","5093 S LAFONTAINE AVE, SPRINGFIELD, MO, 65810",76693782,"L"
232714,"5093 SOUTH 1500 WEST","RIVERDALE","UT",84405,41.171799424,-112.015517759,214,"5093 SOUTH 1500 WEST, RIVERDALE, UT, 84405","Match","Non_Exact","5093 1500 W, RIVERDALE, UT, 84405",640937529,"R"
232715,"5094 CHARMIAN DRIVE","SANTA ROSA","CA",95409,38.4665791,-122.658600987,215,"5094 CHARMIAN DRIVE, SANTA ROSA, CA, 95409","Match","Exact","5094 CHARMIAN DR, SANTA ROSA, CA, 95409",67533883,"R"
232716,"5094 FALLEN OAK DRIVE","MORGAN HILL","CA",95037,37.1087630120001,-121.742616234,216,"5094 FALLEN OAK DRIVE, MORGAN HILL, CA, 95037","Match","Exact","5094 FALLEN OAK DR, MORGAN HILL, CA, 95037",122947824,"R"
232717,"5094 HIGHWAY 309 S","BYHALIA","MS",38611,NA,NA,217,"5094 HIGHWAY 309 S, BYHALIA, MS, 38611","No_Match",NA,NA,NA,NA
232718,"5094 LA RAMADA DR","SANTA BARBARA","CA",93111,34.446114149,-119.799779912,218,"5094 LA RAMADA DR, SANTA BARBARA, CA, 93111","Match","Exact","5094 LA RAMADA DR, SANTA BARBARA, CA, 93111",635869226,"R"
232719,"5094 MEADOWSWEET DRIVE","PALMDALE","CA",93551,34.623091618,-118.222668444,219,"5094 MEADOWSWEET DRIVE, PALMDALE, CA, 93551","Match","Exact","5094 MEADOWSWEET DR, PALMDALE, CA, 93551",627905512,"R"
232720,"5094","DENVER","CO",80238,NA,NA,220,"5094, DENVER, CO, 80238","No_Match",NA,NA,NA,NA
232721,"5095 COLE RD","SAGINAW","MI",48601,43.3492078260001,-83.944440992,221,"5095 COLE RD, SAGINAW, MI, 48601","Match","Exact","5095 COLE RD, SAGINAW, MI, 48601",80216394,"L"
232722,"5095 E ARMSTRONG ROAD","LODI","CA",95240,38.0868792590001,-121.253693137,222,"5095 E ARMSTRONG ROAD, LODI, CA, 95240","Match","Exact","5095 ARMSTRONG RD, LODI, CA, 95240",133914274,"L"
232723,"5095 ESTES PARKWAY","LONGVIEW","TX",75603,32.409129201,-94.700007609,223,"5095 ESTES PARKWAY, LONGVIEW, TX, 75603","Match","Exact","5095 ESTES PKWY, LONGVIEW, TX, 75603",141121735,"R"
232724,"5095 FOURTH STREET","EAGLE RIVER","MI",49950,47.413117443,-88.293991827,224,"5095 FOURTH STREET, EAGLE RIVER, MI, 49950","Match","Exact","5095 4TH ST, EAGLE RIVER, MI, 49950",642555911,"L"
232725,"5095 GLENDORA DRIVE","POWDER SPRINGS","GA",30127,33.8824861960001,-84.699709798,225,"5095 GLENDORA DRIVE, POWDER SPRINGS, GA, 30127","Match","Exact","5095 GLENDORA DR, POWDER SPGS, GA, 30127",17216977,"L"
232726,"5095 MAPLE ST","SILVER SPRINGS","NV",89429,39.373411864,-119.207247942,226,"5095 MAPLE ST, SILVER SPRINGS, NV, 89429","Match","Exact","5095 MAPLE ST, SILVER SPRINGS, NV, 89429",140337069,"R"
232727,"5095 NAPILIHAU ST STE 109B UNIT 204","LAHAINA","HI",96761,20.9850563000001,-156.665849823,227,"5095 NAPILIHAU ST STE 109B UNIT 204, LAHAINA, HI, 96761","Match","Exact","5095 NAPILIHAU ST, LAHAINA, HI, 96761",85056401,"R"
232728,"5095 NAPILIHAU STREET SUITE 108A","LAHAINA","HI",96761,20.9850563000001,-156.665849823,228,"5095 NAPILIHAU STREET SUITE 108A, LAHAINA, HI, 96761","Match","Exact","5095 NAPILIHAU ST, LAHAINA, HI, 96761",85056401,"R"
232729,"5095 ORLEANS CT","DENVER","CO",80249,39.787762586,-104.737227874,229,"5095 ORLEANS CT, DENVER, CO, 80249","Match","Non_Exact","5095 N ORLEANS CT, DENVER, CO, 80249",641117260,"L"
232730,"5095 PINE BURR BLVD","BEAUMONT","TX",77708,30.124616125,-94.1405085489999,230,"5095 PINE BURR BLVD, BEAUMONT, TX, 77708","Match","Exact","5095 PINE BURR BLVD, BEAUMONT, TX, 77708",73850147,"L"
232731,"5095 SPRINGTREE CT","LITHONIA","GA",30038,33.675863389,-84.181173658,231,"5095 SPRINGTREE CT, LITHONIA, GA, 30038","Match","Exact","5095 SPRINGTREE CT, LITHONIA, GA, 30038",23373865,"R"
232732,"50950 CENTURY COURT","WIXOM","MI",48393,NA,NA,232,"50950 CENTURY COURT, WIXOM, MI, 48393","No_Match",NA,NA,NA,NA
232733,"5096 BRIAN BOULEVARD","BOYNTON BEACH","FL",33472,26.545349706,-80.123894118,233,"5096 BRIAN BOULEVARD, BOYNTON BEACH, FL, 33472","Match","Exact","5096 BRIAN BLVD, BOYNTON BEACH, FL, 33472",115577378,"R"
232734,"5096 ELK RIVER ROAD N","ELKVIEW","WV",25071,38.4420056500001,-81.484113421,234,"5096 ELK RIVER ROAD N, ELKVIEW, WV, 25071","Match","Non_Exact","5096 ELK RIVER RD, ELKVIEW, WV, 25071",78675353,"R"
232735,"5097 LEONARD RD STE 2","MEMPHIS","TN",38109,35.0091949760001,-90.04866321,235,"5097 LEONARD RD STE 2, MEMPHIS, TN, 38109","Match","Exact","5097 LEONARD RD, MEMPHIS, TN, 38109",72922396,"R"
232736,"5097 LEONARD ROAD STE 4","MEMPHIS","TN",38109,35.0091949760001,-90.04866321,236,"5097 LEONARD ROAD STE 4, MEMPHIS, TN, 38109","Match","Exact","5097 LEONARD RD, MEMPHIS, TN, 38109",72922396,"R"
232737,"5097 OLD WILLIAM PENN HIGHWAY","EXPORT","PA",15632,40.4203431010001,-79.6527573229999,237,"5097 OLD WILLIAM PENN HIGHWAY, EXPORT, PA, 15632","Match","Exact","5097 OLD WILLIAM PENN HWY, EXPORT, PA, 15632",52970054,"R"
232738,"5097 SAND HILL DRIVE","COLORADO SPRINGS","CO",80923,38.931066097,-104.732349134,238,"5097 SAND HILL DRIVE, COLORADO SPRINGS, CO, 80923","Match","Exact","5097 SAND HILL DR, COLORADO SPRINGS, CO, 80923",105574184,"R"
232739,"5097 VILLAS TER","STONE MOUNTAIN","GA",30088,33.739875467,-84.182851123,239,"5097 VILLAS TER, STONE MOUNTAIN, GA, 30088","Match","Exact","5097 VILLAS TER, STONE MOUNTAIN, GA, 30088",639799013,"L"
232740,"5098 DALEWOOD LANE","LAKE WORTH","FL",33467,26.5989480640001,-80.169064491,240,"5098 DALEWOOD LANE, LAKE WORTH, FL, 33467","Match","Exact","5098 DALEWOOD LN, LAKE WORTH, FL, 33467",115578181,"R"
232741,"5098 FOOTHILL BLVD","GRANTS PASS","OR",97526,42.4245912210001,-123.194233702,241,"5098 FOOTHILL BLVD, GRANTS PASS, OR, 97526","Match","Exact","5098 FOOTHILL BLVD, GRANTS PASS, OR, 97526",642566184,"L"
232742,"5098 FOOTHILLS BLVD 3109","ROSEVILLE","CA",95747,38.762324178,-121.310818489,242,"5098 FOOTHILLS BLVD 3109, ROSEVILLE, CA, 95747","Match","Exact","5098 FOOTHILLS BLVD, ROSEVILLE, CA, 95747",652199193,"L"
232743,"5098 FOOTHILLS BLVD SUITE 3-397","ROSEVILLE","CA",95747,38.762324178,-121.310818489,243,"5098 FOOTHILLS BLVD SUITE 3-397, ROSEVILLE, CA, 95747","Match","Exact","5098 FOOTHILLS BLVD, ROSEVILLE, CA, 95747",652199193,"L"
232744,"5098 FOOTHILLS BLVD SUITE 3-494","ROSEVILLE","CA",95747,38.762324178,-121.310818489,244,"5098 FOOTHILLS BLVD SUITE 3-494, ROSEVILLE, CA, 95747","Match","Exact","5098 FOOTHILLS BLVD, ROSEVILLE, CA, 95747",652199193,"L"
232745,"5098 FOOTHILLS BLVD SUITE NO 3 468","ROSEVILLE","CA",95747,38.762324178,-121.310818489,245,"5098 FOOTHILLS BLVD SUITE NO 3 468, ROSEVILLE, CA, 95747","Match","Exact","5098 FOOTHILLS BLVD, ROSEVILLE, CA, 95747",652199193,"L"
232746,"5098 G ST SE","WASHINGTON","DC",20019,38.8806509550001,-76.929554438,246,"5098 G ST SE, WASHINGTON, DC, 20019","Match","Exact","5098 G ST SE, WASHINGTON, DC, 20019",635724075,"L"
232747,"5098 N STATE ROAD 129","OSGOOD","IN",47037,39.1498743240001,-85.205772716,247,"5098 N STATE ROAD 129, OSGOOD, IN, 47037","Match","Non_Exact","5098 STATE RD 129, OSGOOD, IN, 47037",653413732,"R"
232748,"5098 W LAURESTON WAY","HERRIMAN","UT",84096,40.5202245,-112.012838159,248,"5098 W LAURESTON WAY, HERRIMAN, UT, 84096","Match","Exact","5098 W LAURESTON WAY, HERRIMAN, UT, 84096",645876571,"L"
232749,"5099 IRONWOOD LANE","JOHNSTOWN","CO",80534,40.3835588640001,-104.985921106,249,"5099 IRONWOOD LANE, JOHNSTOWN, CO, 80534","Match","Exact","5099 IRONWOOD LN, JOHNSTOWN, CO, 80534",645455913,"R"
232750,"5099 JOSEPH LANE","SAN JOSE","CA",95118,37.24830673,-121.903445403,250,"5099 JOSEPH LANE, SAN JOSE, CA, 95118","Match","Exact","5099 JOSEPH LN, SAN JOSE, CA, 95118",122946706,"R"
232751,"5099 ROYAL OAKS DRIVE","OROVILLE","CA",95966,39.531000643,-121.471945346,251,"5099 ROYAL OAKS DRIVE, OROVILLE, CA, 95966","Match","Exact","5099 ROYAL OAKS DR, OROVILLE, CA, 95966",68423355,"L"
232752,"5099 US HWY 377 S  STE 400","AUBREY","TX",76227,NA,NA,252,"5099 US HWY 377 S  STE 400, AUBREY, TX, 76227","No_Match",NA,NA,NA,NA
232753,"509A BUCHANAN STREET","SAN FRANCISCO","CA",94102,37.774823241,-122.427629636,253,"509A BUCHANAN STREET, SAN FRANCISCO, CA, 94102","Match","Exact","509 BUCHANAN ST, SAN FRANCISCO, CA, 94102",192283779,"L"
232754,"509A MAIN STREET","ELLENDALE","DE",19941,38.8070185760001,-75.42477504,254,"509A MAIN STREET, ELLENDALE, DE, 19941","Match","Exact","509 MAIN ST, ELLENDALE, DE, 19941",106079513,"R"
232755,"509B ZENITH DR","GLENVIEW","IL",60025,42.068265667,-87.863247514,255,"509B ZENITH DR, GLENVIEW, IL, 60025","Match","Exact","509 ZENITH DR, GLENVIEW, IL, 60025",111874011,"R"
232756,"50A LOCUST HILL AVENUE SUITE 5J","YONKERS","NY",10701,NA,NA,256,"50A LOCUST HILL AVENUE SUITE 5J, YONKERS, NY, 10701","No_Match",NA,NA,NA,NA
232757,"50A SPRING ST","SOMERVILLE","MA",2143,42.386350716,-71.108362114,257,"50A SPRING ST, SOMERVILLE, MA, 2143","Match","Exact","50 SPRING ST, SOMERVILLE, MA, 02143",86911667,"L"
232758,"50SENECA TEMP AT 121 UPPER BENNETT","HORNELL","NY",14843,42.332885656,-77.652081298,258,"50SENECA TEMP AT 121 UPPER BENNETT, HORNELL, NY, 14843","Match","Non_Exact","121 UPPER BENNETT ST, HORNELL, NY, 14843",14709159,"R"
232759,"51 11TH STREET","TURNERS FALLS","MA",1376,42.6027829490001,-72.565115183,259,"51 11TH STREET, TURNERS FALLS, MA, 1376","Match","Exact","51 11TH ST, TURNERS FALLS, MA, 01376",39937200,"L"
232760,"51 3RD STREET","ATHENS","NY",12015,42.2627079310001,-73.8166875489999,260,"51 3RD STREET, ATHENS, NY, 12015","Match","Exact","51 3RD ST, ATHENS, NY, 12015",35670387,"L"
232761,"51 50TH AVE","BELLWOOD","IL",60104,41.8912397610001,-87.89442546,261,"51 50TH AVE, BELLWOOD, IL, 60104","Match","Exact","51 50TH AVE, BELLWOOD, IL, 60104",111726719,"L"
232762,"51 ALEXANDER AVE","BELMONT","MA",2478,42.3979262170001,-71.1731909069999,262,"51 ALEXANDER AVE, BELMONT, MA, 2478","Match","Exact","51 ALEXANDER AVE, BELMONT, MA, 02478",86885765,"R"
232763,"51 ALGONQUIN ROAD","CANTON","MA",2021,42.196758974,-71.13551367,263,"51 ALGONQUIN ROAD, CANTON, MA, 2021","Match","Exact","51 ALGONQUIN RD, CANTON, MA, 02021",87246876,"R"
232764,"51 AMHERST WAY","PRINCETON JUNCTION","NJ",8550,40.2949575750001,-74.6142089529999,264,"51 AMHERST WAY, PRINCETON JUNCTION, NJ, 8550","Match","Exact","51 AMHERST WAY, PRINCETON JCT, NJ, 08550",633902736,"L"
232765,"51 ANCHOR DRIVE","WATERFORD","NY",12188,42.830434258,-73.729648015,265,"51 ANCHOR DRIVE, WATERFORD, NY, 12188","Match","Exact","51 ANCHOR DR, WATERFORD, NY, 12188",18784575,"L"
232766,"51 ARIZONA ST","COVENTRY","RI",2816,41.6817666000001,-71.557091293,266,"51 ARIZONA ST, COVENTRY, RI, 2816","Match","Exact","51 ARIZONA ST, COVENTRY, RI, 02816",159141886,"R"
232767,"51 ASHFORD DRIVE","PLAINSBORO","NJ",8536,40.326031388,-74.5609809709999,267,"51 ASHFORD DRIVE, PLAINSBORO, NJ, 8536","Match","Exact","51 ASHFORD DR, PLAINSBORO, NJ, 08536",647271441,"L"
232768,"51 BEDFORD ROAD SUITE 3","KATONAH","NY",10536,41.2554180230001,-73.6844848969999,268,"51 BEDFORD ROAD SUITE 3, KATONAH, NY, 10536","Match","Exact","51 BEDFORD RD, KATONAH, NY, 10536",139754379,"L"
232769,"51 BEDFORD STREET","NEW BEDFORD","MA",2740,41.628093898,-70.9266412379999,269,"51 BEDFORD STREET, NEW BEDFORD, MA, 2740","Match","Exact","51 BEDFORD ST, NEW BEDFORD, MA, 02740",46791635,"R"
232770,"51 BEEMER HILL ROAD","BRANCHVILLE","NJ",7826,41.1953887180001,-74.69344044,270,"51 BEEMER HILL ROAD, BRANCHVILLE, NJ, 7826","Match","Non_Exact","51 BEEMERHILL RD, BRANCHVILLE, NJ, 07826",98010030,"R"
232771,"51 BERKELEY AVENUE","ORINDA","CA",94563,37.8905950760001,-122.204830108,271,"51 BERKELEY AVENUE, ORINDA, CA, 94563","Match","Exact","51 BERKELEY AVE, ORINDA, CA, 94563",192044856,"L"
232772,"51 BEVERLY DRIVE","ARCATA","CA",95521,40.857898698,-124.068582892,272,"51 BEVERLY DRIVE, ARCATA, CA, 95521","Match","Exact","51 BEVERLY DR, ARCATA, CA, 95521",112992547,"L"
232773,"51 BLUEBERRY LANE","MERIDEN","CT",6450,NA,NA,273,"51 BLUEBERRY LANE, MERIDEN, CT, 6450","No_Match",NA,NA,NA,NA
232774,"51 BOGAN RD","STANLEY","NM",87056,NA,NA,274,"51 BOGAN RD, STANLEY, NM, 87056","No_Match",NA,NA,NA,NA
232775,"51 BOULEVARD AVE","GREENLAWN","NY",11740,40.8698210630001,-73.361491283,275,"51 BOULEVARD AVE, GREENLAWN, NY, 11740","Match","Exact","51 BOULEVARD AVE, GREENLAWN, NY, 11740",113964605,"L"
232776,"51 BREEZEWOOD DRIVE","LILLINGTON","NC",27546,35.3023642040001,-78.973881621,276,"51 BREEZEWOOD DRIVE, LILLINGTON, NC, 27546","Match","Exact","51 BREEZEWOOD DR, LILLINGTON, NC, 27546",637654337,"R"
232777,"51 BRIER BEND","ACWORTH","GA",30101,34.0551672,-84.7769524989999,277,"51 BRIER BEND, ACWORTH, GA, 30101","Match","Non_Exact","51 BRIER BEND CT, ACWORTH, GA, 30101",642893571,"L"
232778,"51 BRIGHTON AVE","SAN FRANCISCO","CA",94112,37.7191533760001,-122.455120492,278,"51 BRIGHTON AVE, SAN FRANCISCO, CA, 94112","Match","Exact","51 BRIGHTON AVE, SAN FRANCISCO, CA, 94112",192285930,"L"
232779,"51 BRINTON DR","NASHUA","NH",3064,42.795742626,-71.467174927,279,"51 BRINTON DR, NASHUA, NH, 3064","Match","Exact","51 BRINTON DR, NASHUA, NH, 03064",113587227,"R"
232780,"51 BROOKLAWN PLACE","BRIDGEPORT","CT",6604,41.181319596,-73.2150880839999,280,"51 BROOKLAWN PLACE, BRIDGEPORT, CT, 6604","Match","Exact","51 BROOKLAWN PL, BRIDGEPORT, CT, 06604",3223668,"L"
232781,"51 BRUCKNER BLVD    APT 2B","BRONX","NY",10454,40.8065905460001,-73.9268723769999,281,"51 BRUCKNER BLVD    APT 2B, BRONX, NY, 10454","Match","Exact","51 BRUCKNER BLVD, BRONX, NY, 10454",640940082,"L"
232782,"51 CAMBRIDGE LANE","LINCOLNSHIRE","IL",60069,42.1908256830001,-87.9144829099999,282,"51 CAMBRIDGE LANE, LINCOLNSHIRE, IL, 60069","Match","Exact","51 CAMBRIDGE LN, LINCOLNSHIRE, IL, 60069",119700974,"R"
232783,"51 CARTO ROAD","TYLERTOWN","MS",39667,31.126156456,-90.0973138579999,283,"51 CARTO ROAD, TYLERTOWN, MS, 39667","Match","Exact","51 CARTO RD, TYLERTOWN, MS, 39667",612498054,"R"
232784,"51 CEDAR ST APT 4413","WOBURN","MA",1801,42.4972944530001,-71.122531959,284,"51 CEDAR ST APT 4413, WOBURN, MA, 1801","Match","Exact","51 CEDAR ST, WOBURN, MA, 01801",87105379,"R"
232785,"51 CHADBOURNE ROAD","BELCHERTOWN","MA",1007,42.286708199,-72.403714947,285,"51 CHADBOURNE ROAD, BELCHERTOWN, MA, 1007","Match","Exact","51 CHADBOURNE RD, BELCHERTOWN, MA, 01007",39855656,"L"
232786,"51 CHURCH LANE","RIVERHEAD","NY",11901,40.948446253,-72.620148978,286,"51 CHURCH LANE, RIVERHEAD, NY, 11901","Match","Exact","51 CHURCH LN, RIVERHEAD, NY, 11901",114071043,"L"
232787,"51 CLIFTON AVENUE APT C-1214","NEWARK","NJ",7104,40.7511582000001,-74.179822535,287,"51 CLIFTON AVENUE APT C-1214, NEWARK, NJ, 7104","Match","Exact","51 CLIFTON AVE, NEWARK, NJ, 07104",63494896,"R"
232788,"51 CLINTON STREET","NEW BRITAIN","CT",6053,41.673912891,-72.797847835,288,"51 CLINTON STREET, NEW BRITAIN, CT, 6053","Match","Exact","51 CLINTON ST, NEW BRITAIN, CT, 06053",3510443,"R"
232789,"51 COACH LANE","NORWOOD","MA",2062,42.1589987520001,-71.192582418,289,"51 COACH LANE, NORWOOD, MA, 2062","Match","Exact","51 COACH LN, NORWOOD, MA, 02062",87255573,"R"
232790,"51 COLUMBIA BLVD","WATERBURY","CT",6710,41.566574605,-73.0427303439999,290,"51 COLUMBIA BLVD, WATERBURY, CT, 6710","Match","Exact","51 COLUMBIA BLVD, WATERBURY, CT, 06710",604755010,"L"
232791,"51 CONTINENTAL DRIVE","NEW WINDSOR","NY",12553,41.4592734770001,-74.051791284,291,"51 CONTINENTAL DRIVE, NEW WINDSOR, NY, 12553","Match","Exact","51 CONTINENTAL DR, NEW WINDSOR, NY, 12553",124412477,"L"
232792,"51 COOPER DRIVE","DALLAS","GA",30157,33.922652435,-84.782063073,292,"51 COOPER DRIVE, DALLAS, GA, 30157","Match","Exact","51 COOPER DR, DALLAS, GA, 30157",207993306,"R"
232793,"51 COOPER STREET","PAWTUCKET","RI",2860,41.875730538,-71.4029718529999,293,"51 COOPER STREET, PAWTUCKET, RI, 2860","Match","Exact","51 COOPER ST, PAWTUCKET, RI, 02860",47462830,"R"
232794,"51 CORDELLO AVE","CENTRAL ISLIP","NY",11722,40.7842261700001,-73.203602428,294,"51 CORDELLO AVE, CENTRAL ISLIP, NY, 11722","Match","Exact","51 CORDELLO AVE, CENTRAL ISLIP, NY, 11722",113989671,"R"
232795,"51 CRAFTS ROAD","CARMEL","NY",10512,41.3922164630001,-73.6991793729999,295,"51 CRAFTS ROAD, CARMEL, NY, 10512","Match","Exact","51 CRAFTS RD, CARMEL, NY, 10512",139690121,"L"
232796,"51 CRESCENT STREET","BRIDGEPORT","CT",6608,NA,NA,296,"51 CRESCENT STREET, BRIDGEPORT, CT, 6608","Tie",NA,NA,NA,NA
232797,"51 CROSS ROAD","PATTERSON","NY",12563,41.506295692,-73.626631975,297,"51 CROSS ROAD, PATTERSON, NY, 12563","Match","Exact","51 CROSS RD, PATTERSON, NY, 12563",139694675,"L"
232798,"51 CROSSWAY","SCARSDALE","NY",10583,40.9797691540001,-73.7674712149999,298,"51 CROSSWAY, SCARSDALE, NY, 10583","Match","Exact","51 CROSSWAY, SCARSDALE, NY, 10583",139841791,"R"
232799,"51 CRYSTAL HILL COURT","STRASBURG","VA",22657,38.994616464,-78.345281523,299,"51 CRYSTAL HILL COURT, STRASBURG, VA, 22657","Match","Exact","51 CRYSTAL HILL CT, STRASBURG, VA, 22657",55950072,"L"
232800,"51 CURTIS ST","SAN FRANCISCO","CA",94112,37.7139909970001,-122.439833997,300,"51 CURTIS ST, SAN FRANCISCO, CA, 94112","Match","Exact","51 CURTIS ST, SAN FRANCISCO, CA, 94112",192292339,"L"
232801,"51 DANBURY STREET SW","WASHINGTON","DC",20032,38.8277962130001,-77.0094021149999,301,"51 DANBURY STREET SW, WASHINGTON, DC, 20032","Match","Exact","51 DANBURY ST SW, WASHINGTON, DC, 20032",76227827,"R"
232802,"51 DEWEY ST","DORCHESTER","MA",2125,42.3165617820001,-71.075628076,302,"51 DEWEY ST, DORCHESTER, MA, 2125","Match","Exact","51 DEWEY ST, DORCHESTER, MA, 02125",85701800,"R"
232803,"51 DUNNS CORNER ROAD","WESTERLY","RI",2891,41.358509016,-71.7721210349999,303,"51 DUNNS CORNER ROAD, WESTERLY, RI, 2891","Match","Exact","51 DUNNS CORNER RD, WESTERLY, RI, 02891",646780085,"R"
232804,"51 DUTCH HILL ROAD","HAMPTON","NJ",8827,40.721245465,-74.9537974409999,304,"51 DUTCH HILL ROAD, HAMPTON, NJ, 8827","Match","Exact","51 DUTCH HILL RD, HAMPTON, NJ, 08827",635445394,"L"
232805,"51 E 400 S STE 100","SALT LAKE CITY","UT",84111,NA,NA,305,"51 E 400 S STE 100, SALT LAKE CITY, UT, 84111","No_Match",NA,NA,NA,NA
232806,"51 E COX RD","EDGERTON","WI",53534,42.783496901,-89.040106822,306,"51 E COX RD, EDGERTON, WI, 53534","Match","Exact","51 E COX RD, EDGERTON, WI, 53534",49864865,"L"
232807,"51 E JEFFERSON ST 19201","ORLANDO","FL",32802,NA,NA,307,"51 E JEFFERSON ST 19201, ORLANDO, FL, 32802","No_Match",NA,NA,NA,NA
232808,"51 E SPRING VALLEY PK","CENTERVILLE","OH",45458,39.6136020710001,-84.158782545,308,"51 E SPRING VALLEY PK, CENTERVILLE, OH, 45458","Match","Non_Exact","51 SPRING VALLEY PIKE, CENTERVILLE, OH, 45458",643160585,"L"
232809,"51 EAST 9TH STREET","CHESTER","DE",19013,NA,NA,309,"51 EAST 9TH STREET, CHESTER, DE, 19013","No_Match",NA,NA,NA,NA
232810,"51 EAST FULTON STREET","EPHRATA","PA",17522,40.1764463000001,-76.1791275579999,310,"51 EAST FULTON STREET, EPHRATA, PA, 17522","Match","Exact","51 E FULTON ST, EPHRATA, PA, 17522",179719927,"R"
232811,"51 EAST JEFFERSON STREET UNIT 4578","APAPKA","FL",32712,NA,NA,311,"51 EAST JEFFERSON STREET UNIT 4578, APAPKA, FL, 32712","No_Match",NA,NA,NA,NA
232812,"51 EAST JEFFERSON STREET","ORLANDO","FL",32802,28.5446297570001,-81.378412887,312,"51 EAST JEFFERSON STREET, ORLANDO, FL, 32802","Match","Non_Exact","51 E JEFFERSON ST, ORLANDO, FL, 32801",94281886,"L"
232813,"51 ELIZABETH STREET","VALLEY STREAM","NY",11580,40.686186729,-73.72082564,313,"51 ELIZABETH STREET, VALLEY STREAM, NY, 11580","Match","Exact","51 ELIZABETH ST, VALLEY STREAM, NY, 11580",147667755,"R"
232814,"51 ELM STREET","MONTCLAIR","NJ",7042,40.8082214660001,-74.214792008,314,"51 ELM STREET, MONTCLAIR, NJ, 7042","Match","Exact","51 ELM ST, MONTCLAIR, NJ, 07042",63448299,"L"
232815,"51 ELM STREET","NEW HAVEN","CT",6511,NA,NA,315,"51 ELM STREET, NEW HAVEN, CT, 6511","Tie",NA,NA,NA,NA
232816,"51 EMILY AVE","ELMONT","NY",11003,40.6937497770001,-73.711491531,316,"51 EMILY AVE, ELMONT, NY, 11003","Match","Exact","51 EMILY AVE, ELMONT, NY, 11003",147667899,"L"
232817,"51 ESTABUENO DR","ORINDA","CA",94563,37.8442522060001,-122.150136181,317,"51 ESTABUENO DR, ORINDA, CA, 94563","Match","Exact","51 ESTABUENO DR, ORINDA, CA, 94563",639043966,"L"
232818,"51 FARRAGUT PLACE NW","WASHINGTON DC","DC",20011,38.951094061,-77.009099619,318,"51 FARRAGUT PLACE NW, WASHINGTON DC, DC, 20011","Match","Exact","51 FARRAGUT PL NW, WASHINGTON, DC, 20011",76223876,"R"
232819,"51 FIELDSTONE ROAD","STAMFORD","CT",6902,41.0736463150001,-73.536718536,319,"51 FIELDSTONE ROAD, STAMFORD, CT, 6902","Match","Exact","51 FIELDSTONE RD, STAMFORD, CT, 06902",3270389,"L"
232820,"51 FLAGG COURT","STATEN ISLAND","NY",10304,40.5884065440001,-74.107667722,320,"51 FLAGG COURT, STATEN ISLAND, NY, 10304","Match","Exact","51 FLAGG CT, STATEN ISLAND, NY, 10304",59887047,"L"
232821,"51 FOREST ROAD SUITE 316/322","MONROE","NY",10950,NA,NA,321,"51 FOREST ROAD SUITE 316/322, MONROE, NY, 10950","No_Match",NA,NA,NA,NA
232822,"51 FOUR CORNERS RD","STATEN ISLAND","NY",10304,40.5907919630001,-74.103333483,322,"51 FOUR CORNERS RD, STATEN ISLAND, NY, 10304","Match","Exact","51 FOUR CORNERS RD, STATEN ISLAND, NY, 10304",59868206,"R"
232823,"51 FRANKLIN STREET FLOOR 3","BOSTON","MA",2110,42.355612379,-71.058630878,323,"51 FRANKLIN STREET FLOOR 3, BOSTON, MA, 2110","Match","Exact","51 FRANKLIN ST, BOSTON, MA, 02110",85709872,"R"
232824,"51 FRED HECHT DR","SPRING VALLEY","NY",10977,41.117312235,-74.0381181289999,324,"51 FRED HECHT DR, SPRING VALLEY, NY, 10977","Match","Exact","51 FRED HECHT DR, SPRING VALLEY, NY, 10977",124593702,"R"
232825,"51 FREDERICK A NITTEL DR","NORTH ATTLEBORO","MA",2760,NA,NA,325,"51 FREDERICK A NITTEL DR, NORTH ATTLEBORO, MA, 2760","No_Match",NA,NA,NA,NA
232826,"51 GIBSON CEMETERY RD","HUMBOLDT","TN",38343,NA,NA,326,"51 GIBSON CEMETERY RD, HUMBOLDT, TN, 38343","No_Match",NA,NA,NA,NA
232827,"51 GODWIN LN","SAINT LOUIS","MO",63124,38.6339022660001,-90.368560714,327,"51 GODWIN LN, SAINT LOUIS, MO, 63124","Match","Exact","51 GODWIN LN, SAINT LOUIS, MO, 63124",100174623,"R"
232828,"51 GOODS RD","CONESTOGA","PA",17516,39.9449357290001,-76.328801443,328,"51 GOODS RD, CONESTOGA, PA, 17516","Match","Exact","51 GOODS RD, CONESTOGA, PA, 17516",179665143,"R"
232829,"51 GREENTREE DR","EASTMAN","GA",31023,32.2185040100001,-83.226816247,329,"51 GREENTREE DR, EASTMAN, GA, 31023","Match","Non_Exact","51 GREEN TREE DR, EASTMAN, GA, 31023",627707502,"L"
232830,"51 GREENWICH DRIVE","JACKSON","NJ",8527,40.1483141630001,-74.386677557,330,"51 GREENWICH DRIVE, JACKSON, NJ, 8527","Match","Exact","51 GREENWICH DR, JACKSON, NJ, 08527",640451127,"L"
232831,"51 HARTWELL AVE","SALT LAKE","UT",84115,40.7278895220001,-111.892520342,331,"51 HARTWELL AVE, SALT LAKE, UT, 84115","Match","Non_Exact","51 HARTWELL AVE, S SALT LAKE, UT, 84115",637531129,"L"
232832,"51 HAVERSHAM LANE","NORTH BARRINGTON","IL",60010,42.214368602,-88.123887665,332,"51 HAVERSHAM LANE, NORTH BARRINGTON, IL, 60010","Match","Exact","51 HAVERSHAM LN, N BARRINGTON, IL, 60010",119695239,"L"
232833,"51 HEMLOCK POINT ROAD  P O BOX 1933","BOLTON LANDING","NY",12814,NA,NA,333,"51 HEMLOCK POINT ROAD  P O BOX 1933, BOLTON LANDING, NY, 12814","No_Match",NA,NA,NA,NA
232834,"51 HERON POINTE COURT","MARLTON","NJ",8053,39.9112947260001,-74.924428077,334,"51 HERON POINTE COURT, MARLTON, NJ, 8053","Match","Exact","51 HERON POINTE CT, MARLTON, NJ, 08053",617128057,"L"
232835,"51 HILLCREST ROAD","MOUNT VERNON","NY",10552,40.923340323,-73.81059486,335,"51 HILLCREST ROAD, MOUNT VERNON, NY, 10552","Match","Exact","51 HILLCREST RD, MOUNT VERNON, NY, 10552",139748980,"R"
232836,"51 HILLDALE RD","CHELTENHAM","PA",19012,40.0545546370001,-75.1108019979999,336,"51 HILLDALE RD, CHELTENHAM, PA, 19012","Match","Exact","51 HILLDALE RD, CHELTENHAM, PA, 19012",135094887,"R"
232837,"51 HILLMOND ST","BETHLEHEM","PA",18018,40.6334940740001,-75.375793903,337,"51 HILLMOND ST, BETHLEHEM, PA, 18018","Match","Exact","51 HILLMOND ST, BETHLEHEM, PA, 18018",136876322,"L"
232838,"51 HOAGLAND ROAD","BLAIRSTOWN","NJ",7825,40.9477466340001,-74.9974715389999,338,"51 HOAGLAND ROAD, BLAIRSTOWN, NJ, 7825","Match","Exact","51 HOAGLAND RD, BLAIRSTOWN, NJ, 07825",98093443,"R"
232839,"51 HONEYSUCKLE WOODS","LAKE WYLIE","SC",29710,35.1138888140001,-81.0547585259999,339,"51 HONEYSUCKLE WOODS, LAKE WYLIE, SC, 29710","Match","Exact","51 HONEYSUCKLE WOODS, LAKE WYLIE, SC, 29710",625162050,"L"
232840,"51 HOPE LANE","BAYBORO","NC",28515,35.1522476490001,-76.7702327979999,340,"51 HOPE LANE, BAYBORO, NC, 28515","Match","Exact","51 HOPE LN, BAYBORO, NC, 28515",625306104,"R"
232841,"51 HOPE STREET","LINCOLN","RI",2865,41.9054882820001,-71.4089900979999,341,"51 HOPE STREET, LINCOLN, RI, 2865","Match","Exact","51 HOPE ST, LINCOLN, RI, 02865",47454704,"R"
232842,"51 HURDEN STREET","HILLSIDE","NJ",7205,40.6886345020001,-74.216877664,342,"51 HURDEN STREET, HILLSIDE, NJ, 7205","Match","Exact","51 HURDEN ST, HILLSIDE, NJ, 07205",642744296,"R"
232843,"51 JACKSON BLVD","BEDFORD","OH",44146,41.406253787,-81.553791272,343,"51 JACKSON BLVD, BEDFORD, OH, 44146","Match","Exact","51 JACKSON BLVD, BEDFORD, OH, 44146",61129906,"L"
232844,"51 JADEN COURT","GREER","SC",29651,35.0097375490001,-82.246794025,344,"51 JADEN COURT, GREER, SC, 29651","Match","Exact","51 JADEN CT, GREER, SC, 29651",625037999,"L"
232845,"51 JANE DRIVE","SAINT PETERS","MO",63376,38.778642786,-90.617781913,345,"51 JANE DRIVE, SAINT PETERS, MO, 63376","Match","Exact","51 JANE DR, SAINT PETERS, MO, 63376",100016907,"L"
232846,"51 JEFFERSON BLVD","WARWICK","RI",2888,41.748426323,-71.4358698309999,346,"51 JEFFERSON BLVD, WARWICK, RI, 2888","Match","Exact","51 JEFFERSON BLVD, WARWICK, RI, 02888",639859878,"R"
232847,"51 JOYCETON TERRACE","UPPER MARLBORO","MD",20774,38.894008419,-76.819528579,347,"51 JOYCETON TERRACE, UPPER MARLBORO, MD, 20774","Match","Exact","51 JOYCETON TER, UPPER MARLBORO, MD, 20774",624265859,"L"
232848,"51 KILMAYNE DR SUITE 303","CARY","NC",27511,35.7691752380001,-78.77989407,348,"51 KILMAYNE DR SUITE 303, CARY, NC, 27511","Match","Exact","51 KILMAYNE DR, CARY, NC, 27511",208346872,"L"
232849,"51 KINGSTON DRIVE","PIKE ROAD","AL",36064,32.352653585,-86.045696473,349,"51 KINGSTON DRIVE, PIKE ROAD, AL, 36064","Match","Exact","51 KINGSTON DR, PIKE ROAD, AL, 36064",1546742,"R"
232850,"51 KNIGHT ROAD EXT","FRAMINGHAM","MA",1701,42.3123882840001,-71.45488446,350,"51 KNIGHT ROAD EXT, FRAMINGHAM, MA, 1701","Match","Non_Exact","51 KNIGHT RD EXD, FRAMINGHAM, MA, 01701",87172945,"R"
232851,"51 LAFAYETTE ST","JERSEY CITY","NJ",7304,40.7111904070001,-74.060089091,351,"51 LAFAYETTE ST, JERSEY CITY, NJ, 7304","Match","Exact","51 LAFAYETTE ST, JERSEY CITY, NJ, 07304",59606010,"L"
232852,"51 LAIE IKI PL","MAKAWAO","HI",96768,20.844580448,-156.322865662,352,"51 LAIE IKI PL, MAKAWAO, HI, 96768","Match","Non_Exact","51 LAIE-IKI PL, MAKAWAO, HI, 96768",85069596,"L"
232853,"51 LANG STREET","CONCORD","MA",1742,42.4646922050001,-71.3494143779999,353,"51 LANG STREET, CONCORD, MA, 1742","Match","Exact","51 LANG ST, CONCORD, MA, 01742",86844807,"L"
232854,"51 LAUREL RUN RD","TALLMANSVILLE","WV",26237,38.901187297,-80.1725122679999,354,"51 LAUREL RUN RD, TALLMANSVILLE, WV, 26237","Match","Exact","51 LAUREL RUN RD, TALLMANSVILLE, WV, 26237",653348235,"R"
232855,"51 LINCOLN ST","MEDFORD","MA",2155,42.418014375,-71.1384241919999,355,"51 LINCOLN ST, MEDFORD, MA, 2155","Match","Exact","51 LINCOLN ST, MEDFORD, MA, 02155",86889389,"R"
232856,"51 LINEAR STREET","FAIRMONT","WV",26554,39.506768295,-80.149548656,356,"51 LINEAR STREET, FAIRMONT, WV, 26554","Match","Exact","51 LINEAR ST, FAIRMONT, WV, 26554",51434591,"L"
232857,"51 LOGUE HILL RD","CANDOR","NY",13743,42.21031229,-76.3197494889999,357,"51 LOGUE HILL RD, CANDOR, NY, 13743","Match","Exact","51 LOGUE HILL RD, CANDOR, NY, 13743",46715457,"L"
232858,"51 LOUISIANA AVE NW","WASHINGTON","DC",20001,38.8938605700001,-77.010787395,358,"51 LOUISIANA AVE NW, WASHINGTON, DC, 20001","Match","Exact","51 LOUISIANA AVE NW, WASHINGTON, DC, 20001",76226778,"R"
232859,"51 LYNN ROAD","IVORYTON","CT",6442,41.339693831,-72.465266367,359,"51 LYNN ROAD, IVORYTON, CT, 6442","Match","Exact","51 LYNN RD, IVORYTON, CT, 06442",113902311,"L"
232860,"51 MADISON AVENUE","CRESSKILL","NJ",7626,40.9417879920001,-73.964247203,360,"51 MADISON AVENUE, CRESSKILL, NJ, 7626","Match","Exact","51 MADISON AVE, CRESSKILL, NJ, 07626",625351329,"R"
232861,"51 MAIN STREET","ALBION","ME",4910,44.5329242230001,-69.4380511369999,361,"51 MAIN STREET, ALBION, ME, 4910","Match","Exact","51 MAIN ST, ALBION, ME, 04910",607811757,"R"
232862,"51 MARKETPLACE","IRVINE","CA",92602,33.7298228870001,-117.781482544,362,"51 MARKETPLACE, IRVINE, CA, 92602","Match","Exact","51 MARKETPLACE, IRVINE, CA, 92602",627014240,"R"
232863,"51 MARSHALL STREET","POUGHKEEPSIE","NY",12601,41.7092166960001,-73.926991707,363,"51 MARSHALL STREET, POUGHKEEPSIE, NY, 12601","Match","Exact","51 MARSHALL ST, POUGHKEEPSIE, NY, 12601",4167650,"L"
232864,"51 MAXFIELD STREET","WEST ROXBURY","MA",2132,42.28013185,-71.1549294609999,364,"51 MAXFIELD STREET, WEST ROXBURY, MA, 2132","Match","Exact","51 MAXFIELD ST, WEST ROXBURY, MA, 02132",85702797,"R"
232865,"51 METCALF DR","AUBURN","NY",13021,42.9165586120001,-76.558090479,365,"51 METCALF DR, AUBURN, NY, 13021","Match","Exact","51 METCALF DR, AUBURN, NY, 13021",33497255,"L"
232866,"51 MITTEER RD","HURLEYVILLE","NY",12747,41.745478812,-74.674732278,366,"51 MITTEER RD, HURLEYVILLE, NY, 12747","Match","Exact","51 MITTEER RD, HURLEYVILLE, NY, 12747",651293752,"L"
232867,"51 MONROE ST SUITE 1406","ROCKVILLE","MD",20850,39.0835405400001,-77.148042623,367,"51 MONROE ST SUITE 1406, ROCKVILLE, MD, 20850","Match","Non_Exact","51 MONROE PL, ROCKVILLE, MD, 20850",62054826,"R"
232868,"51 MOSS ST UNIT B","SAN FRANCISCO","CA",94103,37.7777934050001,-122.408044577,368,"51 MOSS ST UNIT B, SAN FRANCISCO, CA, 94103","Match","Exact","51 MOSS ST, SAN FRANCISCO, CA, 94103",192287409,"L"
232869,"51 MOSSY OAK DR","WINFIELD","WV",25213,38.5051705020001,-81.938029501,369,"51 MOSSY OAK DR, WINFIELD, WV, 25213","Match","Exact","51 MOSSY OAK DR, WINFIELD, WV, 25213",648019898,"L"
232870,"51 MT RUSHMORE PLACE","CLAYTON","CA",94517,37.932312445,-121.9356075,370,"51 MT RUSHMORE PLACE, CLAYTON, CA, 94517","Match","Exact","51 MOUNT RUSHMORE PL, CLAYTON, CA, 94517",192062342,"R"
232871,"51 MYRTLE STREET APT 1","PORTLAND","ME",4101,43.660523283,-70.258201636,371,"51 MYRTLE STREET APT 1, PORTLAND, ME, 4101","Match","Exact","51 MYRTLE ST, PORTLAND, ME, 04101",78073748,"R"
232872,"51 N 3RD ST UNIT 177","PHILADELPHIA","PA",19106,NA,NA,372,"51 N 3RD ST UNIT 177, PHILADELPHIA, PA, 19106","Tie",NA,NA,NA,NA
232873,"51 N BROAD STREET","MOBILE","AL",36602,30.6889931380001,-88.0550760789999,373,"51 N BROAD STREET, MOBILE, AL, 36602","Match","Exact","51 N BROAD ST, MOBILE, AL, 36602",61982434,"R"
232874,"51 N BUNCOMBE SCHOOL ROAD","WEAVERVILLE","NC",28787,35.7150808800001,-82.5604345849999,374,"51 N BUNCOMBE SCHOOL ROAD, WEAVERVILLE, NC, 28787","Match","Exact","51 N BUNCOMBE SCHOOL RD, WEAVERVILLE, NC, 28787",633712480,"R"
232875,"51 N PARK STREET        PO BOX 369","LEBANON","NH",3766,43.642920464,-72.251264122,375,"51 N PARK STREET        PO BOX 369, LEBANON, NH, 3766","Match","Non_Exact","51 N PARK ST, LEBANON, NH, 03766",636320137,"R"
232876,"51 N SPRING DR","JACKSON","TN",38305,35.7229147260001,-88.874182575,376,"51 N SPRING DR, JACKSON, TN, 38305","Match","Exact","51 N SPRING DR, JACKSON, TN, 38305",638755721,"L"
232877,"51 NASH STREET FL2","NEW HAVEN","CT",6511,41.317546061,-72.909367818,377,"51 NASH STREET FL2, NEW HAVEN, CT, 6511","Match","Exact","51 NASH ST, NEW HAVEN, CT, 06511",3702904,"R"
232878,"51 NATURE LN","SEWELL","NJ",8080,39.744309711,-75.118228947,378,"51 NATURE LN, SEWELL, NJ, 8080","Match","Exact","51 NATURE LN, SEWELL, NJ, 08080",614106117,"L"
232879,"51 NAUTILUS AVENUE","NORTHPORT","NY",11768,40.9107870120001,-73.3394931999999,379,"51 NAUTILUS AVENUE, NORTHPORT, NY, 11768","Match","Exact","51 NAUTILUS AVE, NORTHPORT, NY, 11768",113964124,"L"
232880,"51 NEW CLARK RD","CUMBERLAND","RI",2864,41.97016016,-71.456547649,380,"51 NEW CLARK RD, CUMBERLAND, RI, 2864","Match","Exact","51 NEW CLARK RD, CUMBERLAND, RI, 02864",47452733,"R"
232881,"51 NEWARK ST SUITE 205","HOBOKEN","NJ",7030,40.7366863030001,-74.0300634719999,381,"51 NEWARK ST SUITE 205, HOBOKEN, NJ, 7030","Match","Exact","51 NEWARK ST, HOBOKEN, NJ, 07030",59607030,"L"
232882,"51 NORMANDY DRIVE","BETHPAGE","NY",11714,40.7220598430001,-73.4777085859999,382,"51 NORMANDY DRIVE, BETHPAGE, NY, 11714","Match","Exact","51 NORMANDY DR, BETHPAGE, NY, 11714",147646503,"R"
232883,"51 NORTH STREET","GEORGETOWN","MA",1833,42.726635027,-70.989274509,383,"51 NORTH STREET, GEORGETOWN, MA, 1833","Match","Exact","51 NORTH ST, GEORGETOWN, MA, 01833",648005048,"L"
232884,"51 NORTHLITE CIRCLE","SACRAMENTO","CA",95831,38.5035308270001,-121.526403714,384,"51 NORTHLITE CIRCLE, SACRAMENTO, CA, 95831","Match","Exact","51 NORTHLITE CIR, SACRAMENTO, CA, 95831",636421362,"L"
232885,"51 NW 110 AVE","PLANTATION","FL",33324,26.121578787,-80.2953330829999,385,"51 NW 110 AVE, PLANTATION, FL, 33324","Match","Exact","51 NW 110TH AVE, PLANTATION, FL, 33324",114811947,"R"
232886,"51 NW CAROLINA ST","MELBOURNE","FL",32904,28.0797037300001,-80.639338631,386,"51 NW CAROLINA ST, MELBOURNE, FL, 32904","Match","Exact","51 NW CAROLINA ST, MELBOURNE, FL, 32904",601707564,"L"
232887,"51 OAK GROVE AVENUE","HASBROUCK HEIGHTS","NJ",7604,40.8613754420001,-74.0831843249999,387,"51 OAK GROVE AVENUE, HASBROUCK HEIGHTS, NJ, 7604","Match","Exact","51 OAK GROVE AVE, HASBROUCK HEIGHTS, NJ, 07604",64393158,"L"
232888,"51 ODD ROAD","POQUOSON","VA",23662,37.128960459,-76.3822908669999,388,"51 ODD ROAD, POQUOSON, VA, 23662","Match","Exact","51 ODD RD, POQUOSON, VA, 23662",103825949,"L"
232889,"51 OLD CANDLER TOWN RD","CANDLER","NC",28715,35.5359410090001,-82.69250353,389,"51 OLD CANDLER TOWN RD, CANDLER, NC, 28715","Match","Exact","51 OLD CANDLER TOWN RD, CANDLER, NC, 28715",36840168,"R"
232890,"51 OLD ORCHARD LANE","OCEAN","NJ",7712,40.257777284,-74.055071216,390,"51 OLD ORCHARD LANE, OCEAN, NJ, 7712","Match","Exact","51 OLD ORCHARD LN, OCEAN, NJ, 07712",90492411,"R"
232891,"51 ORATON ST","NEWARK","NJ",7104,40.7674720950001,-74.162886293,391,"51 ORATON ST, NEWARK, NJ, 7104","Match","Exact","51 ORATON ST, NEWARK, NJ, 07104",63455163,"R"
232892,"51 ORTONA STREET","FORT MYERS","FL",33936,26.6025767520001,-81.5982017169999,392,"51 ORTONA STREET, FORT MYERS, FL, 33936","Match","Non_Exact","51 ORTONA ST, LEHIGH ACRES, FL, 33936",117992344,"L"
232893,"51 OVERBROOK DR","SMYRNA","GA",30082,33.886421392,-84.552574975,393,"51 OVERBROOK DR, SMYRNA, GA, 30082","Match","Exact","51 OVERBROOK DR, SMYRNA, GA, 30082",17179586,"L"
232894,"51 PARK VISTA WAY","GREENVILLE","SC",29617,34.9517349990001,-82.455582282,394,"51 PARK VISTA WAY, GREENVILLE, SC, 29617","Match","Exact","51 PARK VISTA WAY, GREENVILLE, SC, 29617",633722280,"L"
232895,"51 PERRY ST","NEWNAN","GA",30263,33.376902753,-84.798093713,395,"51 PERRY ST, NEWNAN, GA, 30263","Match","Exact","51 PERRY ST, NEWNAN, GA, 30263",647445489,"R"
232896,"51 PINE MEADOW DRIVE","NORTH BERWICK","ME",3906,43.319286339,-70.7701545529999,396,"51 PINE MEADOW DRIVE, NORTH BERWICK, ME, 3906","Match","Exact","51 PINE MEADOW DR, NORTH BERWICK, ME, 03906",92758506,"L"
232897,"51 PLEASANT STREET  SUITE 109","MALDEN","MA",2148,42.426812575,-71.068696288,397,"51 PLEASANT STREET  SUITE 109, MALDEN, MA, 2148","Match","Exact","51 PLEASANT ST, MALDEN, MA, 02148",636268671,"R"
232898,"51 PRENTISS STREET SUITE  2540","BOSTON","MA",2120,42.3339455940001,-71.094168445,398,"51 PRENTISS STREET SUITE  2540, BOSTON, MA, 2120","Match","Exact","51 PRENTISS ST, BOSTON, MA, 02120",85698952,"R"
232899,"51 PRINCETON RD","MALDEN","MA",2148,42.4371510650001,-71.054432831,399,"51 PRINCETON RD, MALDEN, MA, 2148","Match","Exact","51 PRINCETON RD, MALDEN, MA, 02148",86872352,"R"
232900,"51 PROSPECT ST","GARFIELD","NJ",7026,40.883715438,-74.111311584,400,"51 PROSPECT ST, GARFIELD, NJ, 7026","Match","Exact","51 PROSPECT ST, GARFIELD, NJ, 07026",64381988,"L"
232901,"51 REESE CRK","MISSION VIEJO","CA",92694,33.540934916,-117.645641559,401,"51 REESE CRK, MISSION VIEJO, CA, 92694","Match","Exact","51 REESE CREEK, MISSION VIEJO, CA, 92694",609046041,"R"
232902,"51 RENI ROAD","MANHASSET","NY",11030,40.8123892340001,-73.682367498,402,"51 RENI ROAD, MANHASSET, NY, 11030","Match","Exact","51 RENI RD, MANHASSET, NY, 11030",147659503,"L"
232903,"51 REVOLUTIONARY ROAD","CONCORD","MA",1742,42.460643652,-71.3366010889999,403,"51 REVOLUTIONARY ROAD, CONCORD, MA, 1742","Match","Exact","51 REVOLUTIONARY RD, CONCORD, MA, 01742",86916682,"R"
232904,"51 RICHVIEW DRIVE","PASCO","WA",99301,46.3018201850001,-119.229203628,404,"51 RICHVIEW DRIVE, PASCO, WA, 99301","Match","Exact","51 RICHVIEW DR, PASCO, WA, 99301",175247534,"L"
232905,"51 RIDGEWAY ST","GREENCASTLE","IN",46135,39.634487107,-86.8475435779999,405,"51 RIDGEWAY ST, GREENCASTLE, IN, 46135","Match","Exact","51 RIDGEWAY ST, GREENCASTLE, IN, 46135",50111992,"R"
232906,"51 RINEER ROAD","QUARRYVILLE","PA",17566,39.9177233440001,-76.1432081259999,406,"51 RINEER ROAD, QUARRYVILLE, PA, 17566","Match","Non_Exact","51 RINEER DR, QUARRYVILLE, PA, 17566",179726107,"L"
232907,"51 RORRER CIR","ROCKINGHAM","VA",22801,38.454872419,-78.9052424819999,407,"51 RORRER CIR, ROCKINGHAM, VA, 22801","Match","Exact","51 RORRER CIR, ROCKINGHAM, VA, 22801",55754085,"R"
232908,"51 ROSS STREET APT 9C","BROOKLYN","NY",11249,40.703175258,-73.964355035,408,"51 ROSS STREET APT 9C, BROOKLYN, NY, 11249","Match","Exact","51 ROSS ST, BROOKLYN, NY, 11249",650081714,"L"
232909,"51 ROSSER MILL ROAD","PAMPLIN","VA",23958,37.217977913,-78.6492925329999,409,"51 ROSSER MILL ROAD, PAMPLIN, VA, 23958","Match","Exact","51 ROSSER MILL RD, PAMPLIN, VA, 23958",73987337,"R"
232910,"51 ROSWELL ROAD","CHEEKTOWAGA","NY",14215,42.9419705510001,-78.79855868,410,"51 ROSWELL ROAD, CHEEKTOWAGA, NY, 14215","Match","Exact","51 ROSWELL RD, CHEEKTOWAGA, NY, 14215",48297251,"R"
232911,"51 S 1ST E APT 206","REXBURG","ID",83440,NA,NA,411,"51 S 1ST E APT 206, REXBURG, ID, 83440","Tie",NA,NA,NA,NA
232912,"51 S DEFRAME WAY","GOLDEN","CO",80401,39.716442789,-105.15439627,412,"51 S DEFRAME WAY, GOLDEN, CO, 80401","Match","Exact","51 S DEFRAME WAY, GOLDEN, CO, 80401",177316558,"R"
232913,"51 S EAST STREET","BELLBROOK","OH",45305,39.634610567,-84.0694806829999,413,"51 S EAST STREET, BELLBROOK, OH, 45305","Match","Exact","51 S EAST ST, BELLBROOK, OH, 45305",143378481,"L"
232914,"51 S RIVER BEND WAY SUITE 230","NORTH SALT LAKE","UT",84054,40.840303856,-111.945127478,414,"51 S RIVER BEND WAY SUITE 230, NORTH SALT LAKE, UT, 84054","Match","Exact","51 RIVER BEND WAY, N SALT LAKE, UT, 84054",647704138,"L"
232915,"51 S SPRING ST","ELGIN","IL",60120,42.0362463650001,-88.2825277439999,415,"51 S SPRING ST, ELGIN, IL, 60120","Match","Exact","51 S SPRING ST, ELGIN, IL, 60120",119502708,"L"
232916,"51 S WHITE MOUNTAIN ROAD","SHOW LOW","AZ",85901,34.249221162,-110.028598541,416,"51 S WHITE MOUNTAIN ROAD, SHOW LOW, AZ, 85901","Match","Exact","51 S WHITE MOUNTAIN RD, SHOW LOW, AZ, 85901",647278432,"R"
232917,"51 S WHT MTN ROAD","SHOW LOW","AZ",85901,34.249221162,-110.028598541,417,"51 S WHT MTN ROAD, SHOW LOW, AZ, 85901","Match","Non_Exact","51 S WHITE MOUNTAIN RD, SHOW LOW, AZ, 85901",647278432,"R"
232918,"51 SAGAMORE LANE","BORDENTOWN","NJ",8505,40.122502959,-74.7316308059999,418,"51 SAGAMORE LANE, BORDENTOWN, NJ, 8505","Match","Exact","51 SAGAMORE LN, BORDENTOWN, NJ, 08505",617377672,"R"
232919,"51 SAN ISIDRO","SAN ANTONIO","TX",78261,29.674801963,-98.436948918,419,"51 SAN ISIDRO, SAN ANTONIO, TX, 78261","Match","Exact","51 SAN ISIDRO, SAN ANTONIO, TX, 78261",101578618,"L"
232920,"51 SARATOGA SPRINGS DR","SILEX","MO",63377,NA,NA,420,"51 SARATOGA SPRINGS DR, SILEX, MO, 63377","No_Match",NA,NA,NA,NA
232921,"51 SCARBOROUGH PARK DR APT 6","WILMINGTON","DE",19804,39.734906498,-75.585586156,421,"51 SCARBOROUGH PARK DR APT 6, WILMINGTON, DE, 19804","Match","Exact","51 SCARBOROUGH PARK DR, WILMINGTON, DE, 19804",187283094,"L"
232922,"51 SCHOOL RD","VOORHEESVILLE","NY",12186,42.6573162120001,-73.939536169,422,"51 SCHOOL RD, VOORHEESVILLE, NY, 12186","Match","Exact","51 SCHOOL RD, VOORHEESVILLE, NY, 12186",18346399,"L"
232923,"51 SE 208TH ST","HOLT","MO",64048,39.4701020840001,-94.422895078,423,"51 SE 208TH ST, HOLT, MO, 64048","Match","Exact","51 SE 208TH ST, HOLT, MO, 64048",29435601,"R"
232924,"51 SHERMAN HILL RD A-202","WOODBURY","CT",6798,41.5294766420001,-73.1988336649999,424,"51 SHERMAN HILL RD A-202, WOODBURY, CT, 6798","Match","Exact","51 SHERMAN HILL RD, WOODBURY, CT, 06798",613825705,"L"
232925,"51 SHERMAN STREET","GALETON","PA",16922,41.7340127140001,-77.638306922,425,"51 SHERMAN STREET, GALETON, PA, 16922","Match","Exact","51 SHERMAN ST, GALETON, PA, 16922",126359640,"L"
232926,"51 SHERWOOD DRIVE","BATESVILLE","MS",38606,34.2674767670001,-89.910178058,426,"51 SHERWOOD DRIVE, BATESVILLE, MS, 38606","Match","Exact","51 SHERWOOD DR, BATESVILLE, MS, 38606",607779525,"L"
232927,"51 SHORT TRAIL DRIVE","HUNLOCK CREEK","PA",18621,41.2103392160001,-76.087026889,427,"51 SHORT TRAIL DRIVE, HUNLOCK CREEK, PA, 18621","Match","Non_Exact","51 SHORT TRAIL RD, HUNLOCK CREEK, PA, 18621",604528761,"L"
232928,"51 SHREWSBURY AVE","HIGHLANDS","NJ",7732,40.4020012020001,-73.9835993889999,428,"51 SHREWSBURY AVE, HIGHLANDS, NJ, 7732","Match","Exact","51 SHREWSBURY AVE, HIGHLANDS, NJ, 07732",90468721,"L"
232929,"51 SILAS WOODS RD","MANORVILLE","NY",11949,40.84546662,-72.810269939,429,"51 SILAS WOODS RD, MANORVILLE, NY, 11949","Match","Exact","51 SILAS WOODS RD, MANORVILLE, NY, 11949",114075125,"L"
232930,"51 SLADEN STREET","DRACUT","MA",1826,42.6635237460001,-71.319706202,430,"51 SLADEN STREET, DRACUT, MA, 1826","Match","Exact","51 SLADEN ST, DRACUT, MA, 01826",86877063,"R"
232931,"51 SOUTH EAST STREET","BELLBROOK","OH",45305,39.63461411,-84.0694804189999,431,"51 SOUTH EAST STREET, BELLBROOK, OH, 45305","Match","Exact","51 S EAST ST, BELLBROOK, OH, 45305",143378481,"L"
232932,"51 SPENCER STREET","LYONS","NY",14489,43.0702299970001,-76.985961312,432,"51 SPENCER STREET, LYONS, NY, 14489","Match","Exact","51 SPENCER ST, LYONS, NY, 14489",14918901,"L"
232933,"51 SPRUCE STREET","YORK","ME",3909,43.1679117690001,-70.625827763,433,"51 SPRUCE STREET, YORK, ME, 3909","Match","Exact","51 SPRUCE ST, YORK, ME, 03909",92746608,"R"
232934,"51 STATE ROAD 46 E NUM 128","NASHVILLE","IN",47448,39.2026856460001,-86.2444335,434,"51 STATE ROAD 46 E NUM 128, NASHVILLE, IN, 47448","Match","Exact","51 STATE RD 46 E, NASHVILLE, IN, 47448",638341431,"L"
232935,"51 STONE CHURCH RD PO BOX 402","ADAMSVILLE","RI",2801,NA,NA,435,"51 STONE CHURCH RD PO BOX 402, ADAMSVILLE, RI, 2801","No_Match",NA,NA,NA,NA
232936,"51 STONE RUN DRIVE","MECHANICSBURG","PA",17050,40.2276464070001,-77.012130278,436,"51 STONE RUN DRIVE, MECHANICSBURG, PA, 17050","Match","Exact","51 STONE RUN DR, MECHANICSBURG, PA, 17050",627068170,"R"
232937,"51 TANYA COURT","PLANTSVILLE","CT",6479,41.57316195,-72.879459794,437,"51 TANYA COURT, PLANTSVILLE, CT, 6479","Match","Exact","51 TANYA CT, PLANTSVILLE, CT, 06479",3512318,"L"
232938,"51 TEAK DRIVE","LANGHORNE","PA",19047,NA,NA,438,"51 TEAK DRIVE, LANGHORNE, PA, 19047","No_Match",NA,NA,NA,NA
232939,"51 TOTTENHAM CIRCLE","MARTINSBURG","WV",25404,39.489685568,-77.9367330059999,439,"51 TOTTENHAM CIRCLE, MARTINSBURG, WV, 25404","Match","Exact","51 TOTTENHAM CIR, MARTINSBURG, WV, 25404",618010671,"L"
232940,"51 TREBOR ROAD","MASSAPEQUA","NY",11758,40.6668552720001,-73.4274700459999,440,"51 TREBOR ROAD, MASSAPEQUA, NY, 11758","Match","Exact","51 TREBOR RD, MASSAPEQUA, NY, 11758",147653366,"L"
232941,"51 TUPELO CIRCLE","HAMPTON","VA",23666,37.0804783410001,-76.428108392,441,"51 TUPELO CIRCLE, HAMPTON, VA, 23666","Match","Exact","51 TUPELO CIR, HAMPTON, VA, 23666",103799527,"L"
232942,"51 VESPER ST","AKRON","OH",44310,41.1010521740001,-81.517380808,442,"51 VESPER ST, AKRON, OH, 44310","Match","Exact","51 VESPER ST, AKRON, OH, 44310",61340842,"R"
232943,"51 W CENTER STREET","LA VERKIN","UT",84745,37.201354682,-113.270898306,443,"51 W CENTER STREET, LA VERKIN, UT, 84745","Match","Exact","51 W CENTER ST, LA VERKIN, UT, 84745",166164601,"R"
232944,"51 W GLENN","TUCSON","AZ",85705,32.2575928950001,-110.972777408,444,"51 W GLENN, TUCSON, AZ, 85705","Match","Non_Exact","51 W GLENN ST, TUCSON, AZ, 85705",121167110,"L"
232945,"51 W MARKET ST","CLOVERDALE","IN",46120,NA,NA,445,"51 W MARKET ST, CLOVERDALE, IN, 46120","Tie",NA,NA,NA,NA
232946,"51 WADE STREET","JERSEY CITY","NJ",7305,40.699955507,-74.087493545,446,"51 WADE STREET, JERSEY CITY, NJ, 7305","Match","Exact","51 WADE ST, JERSEY CITY, NJ, 07305",59603320,"L"
232947,"51 WALKER SPRINGS ROAD","BLAKELY","GA",39823,31.3987475710001,-84.928292375,447,"51 WALKER SPRINGS ROAD, BLAKELY, GA, 39823","Match","Exact","51 WALKER SPRINGS RD, BLAKELY, GA, 39823",149772211,"L"
232948,"51 WALTER DRIVE","WOODBRIDGE","NJ",7095,40.571591267,-74.285224592,448,"51 WALTER DRIVE, WOODBRIDGE, NJ, 7095","Match","Exact","51 WALTER DR, WOODBRIDGE, NJ, 07095",628745433,"L"
232949,"51 WARD BLVD","OROVILLE","CA",95966,39.5098131140001,-121.494801293,449,"51 WARD BLVD, OROVILLE, CA, 95966","Match","Exact","51 WARD BLVD, OROVILLE, CA, 95966",68466618,"R"
232950,"51 WARWICK STONE WAY","GREAT FALLS","VA",22066,39.039263905,-77.2893015349999,450,"51 WARWICK STONE WAY, GREAT FALLS, VA, 22066","Match","Exact","51 WARWICK STONE WAY, GREAT FALLS, VA, 22066",76022878,"R"
232951,"51 WEST 2700 SOUTH","SALT LAKE CITY","UT",84115,NA,NA,451,"51 WEST 2700 SOUTH, SALT LAKE CITY, UT, 84115","Tie",NA,NA,NA,NA
232952,"51 WEST CENTER SUITE 199","OREM","UT",84057,40.2971264330001,-111.696809494,452,"51 WEST CENTER SUITE 199, OREM, UT, 84057","Match","Non_Exact","51 W CENTER ST, OREM, UT, 84057",134221258,"L"
232953,"51 WESTPORT STREET","STATEN ISLAND","NY",10314,40.583373894,-74.1597491539999,453,"51 WESTPORT STREET, STATEN ISLAND, NY, 10314","Match","Exact","51 WESTPORT ST, STATEN ISLAND, NY, 10314",59890377,"L"
232954,"51 WILD DUNES WAY - UNIT 32","OLD ORCHARD BEACH","ME",4064,43.524599053,-70.398663523,454,"51 WILD DUNES WAY - UNIT 32, OLD ORCHARD BEACH, ME, 4064","Match","Exact","51 WILD DUNES WAY, OLD ORCHARD BEACH, ME, 04064",92793122,"L"
232955,"51 WOODCREST RD","STATEN ISLAND","NY",10303,40.6245233330001,-74.162084394,455,"51 WOODCREST RD, STATEN ISLAND, NY, 10303","Match","Exact","51 WOODCREST RD, STATEN ISLAND, NY, 10303",59871048,"L"
232956,"51 WOODFIN RD","NEWPORT NEWS","VA",23601,37.024949872,-76.457264104,456,"51 WOODFIN RD, NEWPORT NEWS, VA, 23601","Match","Exact","51 WOODFIN RD, NEWPORT NEWS, VA, 23601",103754871,"L"
232957,"51 WOODLAND RD","CLARK","NJ",7066,40.6065222070001,-74.3409788239999,457,"51 WOODLAND RD, CLARK, NJ, 7066","Match","Exact","51 WOODLAND RD, CLARK, NJ, 07066",60561438,"L"
232958,"51 WOODLAWN AVE","MIDDLETOWN","NY",10940,41.4465348630001,-74.4009221439999,458,"51 WOODLAWN AVE, MIDDLETOWN, NY, 10940","Match","Exact","51 WOODLAWN AVE, MIDDLETOWN, NY, 10940",124388578,"L"
232959,"51 WOODLEIGH LANE","STAFFORD","VA",22556,38.478747206,-77.478769622,459,"51 WOODLEIGH LANE, STAFFORD, VA, 22556","Match","Exact","51 WOODLEIGH LN, STAFFORD, VA, 22556",614124356,"L"
232960,"51 WOOSTER STREET 3RD FLOOR","NEW YORK","NY",10013,40.7227382890001,-74.0023457459999,460,"51 WOOSTER STREET 3RD FLOOR, NEW YORK, NY, 10013","Match","Exact","51 WOOSTER ST, NEW YORK, NY, 10013",59660289,"L"
232961,"51 ZAJAC LANE","NESCOPECK","PA",18635,41.0248374540001,-76.23728442,461,"51 ZAJAC LANE, NESCOPECK, PA, 18635","Match","Non_Exact","51 ZAJAC RD, NESCOPECK, PA, 18635",59244279,"L"
232962,"51-00 HOLLIS COURT BLVD","FRESH MEADOWS","NY",11365,40.748822267,-73.78422459,462,"51-00 HOLLIS COURT BLVD, FRESH MEADOWS, NY, 11365","Match","Exact","51-00 HOLLIS COURT BLVD, FRESH MEADOWS, NY, 11365",59711454,"R"
232963,"51-04 BOWNE STREET","BROOKLYN","NY",11355,40.748719115,-73.812719702,463,"51-04 BOWNE STREET, BROOKLYN, NY, 11355","Match","Non_Exact","51 BOWNE ST, FLUSHING, NY, 11355",59709983,"R"
232964,"51-04 SKILLMAN AVENUE SUITE C10","WOODSIDE","NY",11377,40.745999409,-73.91314166,464,"51-04 SKILLMAN AVENUE SUITE C10, WOODSIDE, NY, 11377","Match","Exact","51-4 SKILLMAN AVE, WOODSIDE, NY, 11377",59692707,"R"
232965,"51-35 REEDER STREET APT 517","ELMHURST","NY",11373,40.7379719080001,-73.878281503,465,"51-35 REEDER STREET APT 517, ELMHURST, NY, 11373","Match","Exact","51-35 REEDER ST, ELMHURST, NY, 11373",640916638,"L"
232966,"51-44 MANILLA STREET 3RD FLOOR","ELMHURST","NY",11373,40.7361191630001,-73.883870041,466,"51-44 MANILLA STREET 3RD FLOOR, ELMHURST, NY, 11373","Match","Exact","51-44 MANILLA ST, ELMHURST, NY, 11373",59694104,"R"
232967,"51","COLTON","WA",99113,NA,NA,467,"51, COLTON, WA, 99113","No_Match",NA,NA,NA,NA
232968,"510 - 47TH AVENUE","SAN FRANCISCO","CA",94121,NA,NA,468,"510 - 47TH AVENUE, SAN FRANCISCO, CA, 94121","No_Match",NA,NA,NA,NA
232969,"510 13TH ST NE","CULLMAN","AL",35055,34.166944202,-86.8311286809999,469,"510 13TH ST NE, CULLMAN, AL, 35055","Match","Non_Exact","510 13TH ST SE, CULLMAN, AL, 35055",130241374,"R"
232970,"510 1ST AVE EAST","MCLAUGHLIN","SD",57642,45.8113657760001,-100.809165955,470,"510 1ST AVE EAST, MCLAUGHLIN, SD, 57642","Match","Non_Exact","510 1ST AVE E, MC LAUGHLIN, SD, 57642",197306406,"R"
232971,"510 1ST AVENUE NORTH","FORT DODGE","IA",50501,42.5055848490001,-94.191372571,471,"510 1ST AVENUE NORTH, FORT DODGE, IA, 50501","Match","Exact","510 1ST AVE N, FORT DODGE, IA, 50501",66072313,"L"
232972,"510 20TH ST","STANTON","NE",68779,41.9456987140001,-97.237762305,472,"510 20TH ST, STANTON, NE, 68779","Match","Exact","510 20TH ST, STANTON, NE, 68779",161854021,"R"
232973,"510 20TH STREET SOUTH FOT 1020","BIRMINGHAM","AL",35294,NA,NA,473,"510 20TH STREET SOUTH FOT 1020, BIRMINGHAM, AL, 35294","Tie",NA,NA,NA,NA
232974,"510 21ST AVE NE","ABERDEEN","SD",57401,45.486046317,-98.480886534,474,"510 21ST AVE NE, ABERDEEN, SD, 57401","Match","Exact","510 21ST AVE NE, ABERDEEN, SD, 57401",200794925,"L"
232975,"510 21ST AVE","LEWISTON","ID",83501,46.3996531110001,-117.026334201,475,"510 21ST AVE, LEWISTON, ID, 83501","Match","Exact","510 21ST AVE, LEWISTON, ID, 83501",173150502,"R"
232976,"510 240TH AVE SE","SAMMAMISH","WA",98074,47.6047359830001,-122.019870347,476,"510 240TH AVE SE, SAMMAMISH, WA, 98074","Match","Exact","510 240TH AVE SE, SAMMAMISH, WA, 98074",239779015,"R"
232977,"510 25TH AVE N","SAINT CLOUD","MN",56303,45.5627500900001,-94.1878608,477,"510 25TH AVE N, SAINT CLOUD, MN, 56303","Match","Exact","510 25TH AVE N, SAINT CLOUD, MN, 56303",107414530,"R"
232978,"510 25TH AVENUE NORTH SUITE B-1","SAINT CLOUD","MN",56303,45.5627500900001,-94.1878608,478,"510 25TH AVENUE NORTH SUITE B-1, SAINT CLOUD, MN, 56303","Match","Exact","510 25TH AVE N, SAINT CLOUD, MN, 56303",107414530,"R"
232979,"510 2ND AVE","POWERS","OR",97466,42.881709803,-124.07166037,479,"510 2ND AVE, POWERS, OR, 97466","Match","Exact","510 2ND AVE, POWERS, OR, 97466",137001340,"L"
232980,"510 4TH STREET SOUTHEAST","NAPLES","FL",34117,26.222129572,-81.598483892,480,"510 4TH STREET SOUTHEAST, NAPLES, FL, 34117","Match","Exact","510 4TH ST SE, NAPLES, FL, 34117",115132201,"R"
232981,"510 5TH AVE FL 3 RM 312","NEW YORK","NY",10036,40.7539434780001,-73.9805579389999,481,"510 5TH AVE FL 3 RM 312, NEW YORK, NY, 10036","Match","Non_Exact","510 5TH AVE, NEW YORK, NY, 10110",59658642,"L"
232982,"510 5TH AVENUE","NEW YORK","NY",10036,40.7539434780001,-73.9805579389999,482,"510 5TH AVENUE, NEW YORK, NY, 10036","Match","Non_Exact","510 5TH AVE, NEW YORK, NY, 10110",59658642,"L"
232983,"510 5TH LANE","GREENACRES","FL",33463,26.6138634750001,-80.133851222,483,"510 5TH LANE, GREENACRES, FL, 33463","Match","Exact","510 5TH LN, GREENACRES, FL, 33463",115487385,"L"
232984,"510 7TH ST","TALLULAH","LA",71282,32.4186676670001,-91.200673068,484,"510 7TH ST, TALLULAH, LA, 71282","Match","Exact","510 7TH ST, TALLULAH, LA, 71282",71171799,"R"
232985,"510 9TH STREET SE","MASON CITY","IA",50401,43.1427578460001,-93.1930205,485,"510 9TH STREET SE, MASON CITY, IA, 50401","Match","Exact","510 9TH ST SE, MASON CITY, IA, 50401",7290939,"R"
232986,"510 9TH STREET SOUTH","LACROSSE","WI",54601,43.8065467910001,-91.2445549079999,486,"510 9TH STREET SOUTH, LACROSSE, WI, 54601","Match","Non_Exact","510 9TH ST S, LA CROSSE, WI, 54601",51012426,"R"
232987,"510 ACRE ST","GUTTENBERG","IA",52052,42.7942477620001,-91.1114512509999,487,"510 ACRE ST, GUTTENBERG, IA, 52052","Match","Exact","510 ACRE ST, GUTTENBERG, IA, 52052",624281307,"L"
232988,"510 ALEMANY BLVD","SAN FRANCISCO","CA",94110,37.7323252240001,-122.416510512,488,"510 ALEMANY BLVD, SAN FRANCISCO, CA, 94110","Match","Exact","510 ALEMANY BLVD, SAN FRANCISCO, CA, 94110",192292466,"R"
232989,"510 ALLEY COURT","SPRING","TX",77388,30.052249746,-95.4464845049999,489,"510 ALLEY COURT, SPRING, TX, 77388","Match","Exact","510 ALLEY CT, SPRING, TX, 77388",96009032,"L"
232990,"510 ALLEY CT","SPRING","TX",77388,30.052249746,-95.4464845049999,490,"510 ALLEY CT, SPRING, TX, 77388","Match","Exact","510 ALLEY CT, SPRING, TX, 77388",96009032,"L"
232991,"510 ANE AVE","LOWELL","AR",72745,36.2501818110001,-94.1263491829999,491,"510 ANE AVE, LOWELL, AR, 72745","Match","Exact","510 ANE AVE, LOWELL, AR, 72745",47855624,"R"
232992,"510 ARCHER AVENUE","MARSHALL","IL",62441,39.3902212940001,-87.696750362,492,"510 ARCHER AVENUE, MARSHALL, IL, 62441","Match","Exact","510 ARCHER AVE, MARSHALL, IL, 62441",5642720,"L"
232993,"510 ARROWHEAD TRL","WWARNER ROBINS","GA",31088,32.5994112550001,-83.642553434,493,"510 ARROWHEAD TRL, WWARNER ROBINS, GA, 31088","Match","Non_Exact","510 ARROWHEAD TRL, WARNER ROBINS, GA, 31088",91218935,"R"
232994,"510 AVENUE G SE","WINTER HAVEN","FL",33880,28.014971658,-81.720296553,494,"510 AVENUE G SE, WINTER HAVEN, FL, 33880","Match","Exact","510 AVE G SE, WINTER HAVEN, FL, 33880",104824279,"L"
232995,"510 BATES STREET SE","TUMWATER","WA",98501,47.015898049,-122.899947096,495,"510 BATES STREET SE, TUMWATER, WA, 98501","Match","Exact","510 BATES ST SE, TUMWATER, WA, 98501",180944907,"L"
232996,"510 BATES STREET SOUTHEAST","TUMWATER","WA",98501,47.015898049,-122.899947096,496,"510 BATES STREET SOUTHEAST, TUMWATER, WA, 98501","Match","Exact","510 BATES ST SE, TUMWATER, WA, 98501",180944907,"L"
232997,"510 BELLA CAPRI DRIVE","MERRITT ISLAND","FL",32952,28.322327461,-80.686319944,497,"510 BELLA CAPRI DRIVE, MERRITT ISLAND, FL, 32952","Match","Exact","510 BELLA CAPRI DR, MERRITT ISLAND, FL, 32952",93932423,"L"
232998,"510 BELLOT WINDS DR","DUNCAN","SC",29334,34.8891517210001,-82.084151886,498,"510 BELLOT WINDS DR, DUNCAN, SC, 29334","Match","Exact","510 BELLOT WINDS DR, DUNCAN, SC, 29334",648084940,"R"
232999,"510 BELMONT AVENUE","HALEDON","NJ",7508,40.9412841270001,-74.185196021,499,"510 BELMONT AVENUE, HALEDON, NJ, 7508","Match","Exact","510 BELMONT AVE, HALEDON, NJ, 07508",65281108,"R"
233000,"510 BENTON ROAD","BOSSIER CITY","LA",71111,32.5218077490001,-93.716144153,500,"510 BENTON ROAD, BOSSIER CITY, LA, 71111","Match","Exact","510 BENTON RD, BOSSIER CITY, LA, 71111",108508451,"R"
