"ID","Address","City","State","Zip","lat","long","id","input_address","match_indicator","match_type","matched_address","tiger_line_id","tiger_side"
257001,"608 RED OAK PLANTATION","KINGSPORT","TN",37663,36.472377609,-82.502658257,1,"608 RED OAK PLANTATION, KINGSPORT, TN, 37663","Match","Non_Exact","608 RED OAK PLANTATION DR, KINGSPORT, TN, 37663",127856380,"L"
257002,"608 RIVERVIEW ROAD","PENNSAUKEN","NJ",8110,NA,NA,2,"608 RIVERVIEW ROAD, PENNSAUKEN, NJ, 8110","No_Match",NA,NA,NA,NA
257003,"608 ROCKY MEADOW DRIVE","GREENWOOD","IN",46143,39.592853249,-86.117744503,3,"608 ROCKY MEADOW DRIVE, GREENWOOD, IN, 46143","Match","Exact","608 ROCKY MEADOW DR, GREENWOOD, IN, 46143",114655320,"L"
257004,"608 RUBY RD","PAPILLION","NE",68133,41.1626732870001,-96.001609214,4,"608 RUBY RD, PAPILLION, NE, 68133","Match","Exact","608 RUBY RD, PAPILLION, NE, 68133",623853725,"L"
257005,"608 S 63RD AVE W","DULUTH","MN",55807,46.725858542,-92.1774426109999,5,"608 S 63RD AVE W, DULUTH, MN, 55807","Match","Exact","608 S 63RD AVE W, DULUTH, MN, 55807",163210029,"L"
257006,"608 S DURANGO CIR","IRVING","TX",75062,NA,NA,6,"608 S DURANGO CIR, IRVING, TX, 75062","Tie",NA,NA,NA,NA
257007,"608 S GRANARD STREET","GAFFNEY","SC",29341,35.068454651,-81.655225031,7,"608 S GRANARD STREET, GAFFNEY, SC, 29341","Match","Exact","608 S GRANARD ST, GAFFNEY, SC, 29341",18988717,"L"
257008,"608 S LOGAN ST","WEST FRANKFORT","IL",62896,37.8935312510001,-88.931664962,8,"608 S LOGAN ST, WEST FRANKFORT, IL, 62896","Match","Exact","608 S LOGAN ST, W FRANKFORT, IL, 62896",635499724,"R"
257009,"608 S PIERCE","AMARILLO","TX",79101,35.2069724070001,-101.833299412,9,"608 S PIERCE, AMARILLO, TX, 79101","Match","Non_Exact","608 S PIERCE ST, AMARILLO, TX, 79101",182472255,"R"
257010,"608 SAINT MARYS","BOLCKOW","MO",64427,40.116031519,-94.8201898,10,"608 SAINT MARYS, BOLCKOW, MO, 64427","Match","Non_Exact","608 ST MARYS ST, BOLCKOW, MO, 64427",15924892,"L"
257011,"608 SANDY TRAIL","FORT WORTH","TX",76120,32.77136634,-97.194020665,11,"608 SANDY TRAIL, FORT WORTH, TX, 76120","Match","Exact","608 SANDY TRL, FORT WORTH, TX, 76120",101934516,"L"
257012,"608 SCHLABACH RD","GREENWOOD","DE",19950,NA,NA,12,"608 SCHLABACH RD, GREENWOOD, DE, 19950","No_Match",NA,NA,NA,NA
257013,"608 SE 61ST ST","OKLAHOMA CITY","OK",73149,35.403906497,-97.5053671919999,13,"608 SE 61ST ST, OKLAHOMA CITY, OK, 73149","Match","Exact","608 SE 61ST ST, OKLAHOMA CITY, OK, 73149",100407603,"R"
257014,"608 SHERRINGFIELD TERRACE","CHESAPEAKE","VA",23322,36.690232871,-76.211101819,14,"608 SHERRINGFIELD TERRACE, CHESAPEAKE, VA, 23322","Match","Exact","608 SHERRINGFIELD TER, CHESAPEAKE, VA, 23322",121774249,"L"
257015,"608 SOUTH PROSPECT ST","COLUMBIA","SC",29205,33.983108853,-80.990653223,15,"608 SOUTH PROSPECT ST, COLUMBIA, SC, 29205","Match","Exact","608 S PROSPECT ST, COLUMBIA, SC, 29205",71828882,"L"
257016,"608 SOUTH US HWY 1","FORT PIERCE","FL",34950,27.4418416120001,-80.3259144959999,16,"608 SOUTH US HWY 1, FORT PIERCE, FL, 34950","Match","Non_Exact","608 US HWY 1, FORT PIERCE, FL, 34950",120149891,"L"
257017,"608 STONEGATE CT","LAWRENCE","KS",66049,38.9906101400001,-95.279871123,17,"608 STONEGATE CT, LAWRENCE, KS, 66049","Match","Exact","608 STONEGATE CT, LAWRENCE, KS, 66049",17700708,"R"
257018,"608 SW ROBERTS AVE","FORT WHITE","FL",32038,29.942144071,-82.755524368,18,"608 SW ROBERTS AVE, FORT WHITE, FL, 32038","Match","Exact","608 SW ROBERTS AVE, FORT WHITE, FL, 32038",606857776,"L"
257019,"608 TALBOT AVE","JACKSONVILLE","FL",32205,30.315628168,-81.7232450659999,19,"608 TALBOT AVE, JACKSONVILLE, FL, 32205","Match","Exact","608 TALBOT AVE, JACKSONVILLE, FL, 32205",83889545,"R"
257020,"608 THORNWOOD DRIVE","BUFFALO GROVE","IL",60089,42.143011749,-87.972362382,20,"608 THORNWOOD DRIVE, BUFFALO GROVE, IL, 60089","Match","Exact","608 THORNWOOD DR, BUFFALO GROVE, IL, 60089",111837177,"R"
257021,"608 TIMBERLAND TRAIL","VIRGINIA BEACH","VA",23452,36.855403365,-76.077632571,21,"608 TIMBERLAND TRAIL, VIRGINIA BEACH, VA, 23452","Match","Exact","608 TIMBERLAND TRL, VA BCH, VA, 23452",122268805,"R"
257022,"608 TUSCALOOSA STREET","EUTAW","AL",35462,32.8405584820001,-87.879707501,22,"608 TUSCALOOSA STREET, EUTAW, AL, 35462","Match","Exact","608 TUSCALOOSA ST, EUTAW, AL, 35462",647441832,"L"
257023,"608 VATICAN DR","DONALDSONVILLE","LA",70346,30.091612594,-90.997695956,23,"608 VATICAN DR, DONALDSONVILLE, LA, 70346","Match","Exact","608 VATICAN DR, DONALDSONVILLE, LA, 70346",115029609,"L"
257024,"608 W 20TH ST","ALLIANCE","NE",69301,42.11370851,-102.878982336,24,"608 W 20TH ST, ALLIANCE, NE, 69301","Match","Exact","608 W 20TH ST, ALLIANCE, NE, 69301",162350193,"L"
257025,"608 W 5TH ST","MONTICELLO","IA",52310,42.242517589,-91.1975451549999,25,"608 W 5TH ST, MONTICELLO, IA, 52310","Match","Exact","608 W 5TH ST, MONTICELLO, IA, 52310",637584529,"R"
257026,"608 W HIGHPOINT DR","STILLWATER","OK",74075,36.14262804,-97.0670578149999,26,"608 W HIGHPOINT DR, STILLWATER, OK, 74075","Match","Exact","608 W HIGHPOINT DR, STILLWATER, OK, 74075",166386248,"L"
257027,"608 W JEFFERSON STREET","JENNINGS","LA",70546,30.218701292,-92.664505759,27,"608 W JEFFERSON STREET, JENNINGS, LA, 70546","Match","Exact","608 W JEFFERSON ST, JENNINGS, LA, 70546",88214784,"R"
257028,"608 W LANCASTER RD","RICHMOND","VA",23222,37.5664919710001,-77.440878583,28,"608 W LANCASTER RD, RICHMOND, VA, 23222","Match","Exact","608 W LANCASTER RD, RICHMOND, VA, 23222",610891591,"R"
257029,"608 W MAIN ST","WEISER","ID",83672,44.248664047,-116.977802804,29,"608 W MAIN ST, WEISER, ID, 83672","Match","Exact","608 W MAIN ST, WEISER, ID, 83672",138414254,"R"
257030,"608 W PIONEER","PUYALLUP","WA",98371,NA,NA,30,"608 W PIONEER, PUYALLUP, WA, 98371","No_Match",NA,NA,NA,NA
257031,"608 W SCHUYLKILL RD APT 332","POTTSTOWN","PA",19465,NA,NA,31,"608 W SCHUYLKILL RD APT 332, POTTSTOWN, PA, 19465","Tie",NA,NA,NA,NA
257032,"608 W TARO LN","PHOENIX","AZ",85027,33.6590342640001,-112.081491315,32,"608 W TARO LN, PHOENIX, AZ, 85027","Match","Exact","608 W TARO LN, PHOENIX, AZ, 85027",128180429,"L"
257033,"608 WABASH AVE NUM 70","CARTHAGE","IL",62321,40.412332206,-91.1342278069999,33,"608 WABASH AVE NUM 70, CARTHAGE, IL, 62321","Match","Exact","608 WABASH AVE, CARTHAGE, IL, 62321",5329133,"L"
257034,"608 WABASH AVENUE  BOX 70","CARTHAGE","IL",62321,40.412332206,-91.1342278069999,34,"608 WABASH AVENUE  BOX 70, CARTHAGE, IL, 62321","Match","Exact","608 WABASH AVE, CARTHAGE, IL, 62321",5329133,"L"
257035,"608 WABASH AVENUE BOX 70","CARTHAGE","IL",62321,40.412332206,-91.1342278069999,35,"608 WABASH AVENUE BOX 70, CARTHAGE, IL, 62321","Match","Exact","608 WABASH AVE, CARTHAGE, IL, 62321",5329133,"L"
257036,"608 WALSTON AVE","KINSTON","NC",28504,35.269097371,-77.6032089669999,36,"608 WALSTON AVE, KINSTON, NC, 28504","Match","Exact","608 WALSTON AVE, KINSTON, NC, 28504",13875801,"L"
257037,"608 WEST 15 TH","BIG SPRING","TX",79720,NA,NA,37,"608 WEST 15 TH, BIG SPRING, TX, 79720","No_Match",NA,NA,NA,NA
257038,"608 WEST 9320 SOUTH","SANDY","UT",84070,40.582047437,-111.907651409,38,"608 WEST 9320 SOUTH, SANDY, UT, 84070","Match","Exact","608 W 9320 S, SANDY, UT, 84070",176124162,"R"
257039,"608 WEST PARKWAY DRIVE PMB 144","RUSSELLVILLE","AR",72801,35.2818231890001,-93.137364616,39,"608 WEST PARKWAY DRIVE PMB 144, RUSSELLVILLE, AR, 72801","Match","Exact","608 W PARKWAY DR, RUSSELLVILLE, AR, 72801",81880858,"R"
257040,"608 WESTMOUNT AVENUE","COLUMBIA","MO",65203,38.9452803680001,-92.3422827059999,40,"608 WESTMOUNT AVENUE, COLUMBIA, MO, 65203","Match","Exact","608 WESTMOUNT AVE, COLUMBIA, MO, 65203",23480634,"L"
257041,"608 WESTWOOD OFFICE PARK","FREDERICKSBURG","VA",22407,NA,NA,41,"608 WESTWOOD OFFICE PARK, FREDERICKSBURG, VA, 22407","No_Match",NA,NA,NA,NA
257042,"608 WHITNEY AVE","NEW HAVEN","CT",6511,41.3271378420001,-72.915347003,42,"608 WHITNEY AVE, NEW HAVEN, CT, 6511","Match","Exact","608 WHITNEY AVE, NEW HAVEN, CT, 06511",3699977,"L"
257043,"608 WICKENDEN ST","PROVIDENCE","RI",2903,41.820358184,-71.390914466,43,"608 WICKENDEN ST, PROVIDENCE, RI, 2903","Match","Exact","608 WICKENDEN ST, PROVIDENCE, RI, 02903",47483502,"L"
257044,"608 WINDSONG DRIVE","BEAVER BAY","MN",55601,NA,NA,44,"608 WINDSONG DRIVE, BEAVER BAY, MN, 55601","No_Match",NA,NA,NA,NA
257045,"608 WINESAP COURT","JOPPA","MD",21085,39.4192124950001,-76.355768805,45,"608 WINESAP COURT, JOPPA, MD, 21085","Match","Exact","608 WINESAP CT, JOPPA, MD, 21085",191657703,"L"
257046,"608 WINNERS CIRCLE PLACE","THMOPSONS STATION","TN",37179,35.78053627,-86.902689332,46,"608 WINNERS CIRCLE PLACE, THMOPSONS STATION, TN, 37179","Match","Non_Exact","608 WINNERS CIRCLE PL, THOMPSONS STATION, TN, 37179",73122886,"L"
257047,"608 WOLLFORD WAY","FORT WORTH","TX",76131,32.915182686,-97.354378474,47,"608 WOLLFORD WAY, FORT WORTH, TX, 76131","Match","Exact","608 WOLLFORD WAY, FORT WORTH, TX, 76131",651969115,"L"
257048,"608 WOODWARD AVE","ATHENS","TN",37303,35.455266986,-84.596638798,48,"608 WOODWARD AVE, ATHENS, TN, 37303","Match","Exact","608 WOODWARD AVE, ATHENS, TN, 37303",88534198,"L"
257049,"608 WRANGLER RD","ROSWELL","NM",88201,33.4671151960001,-104.452747878,49,"608 WRANGLER RD, ROSWELL, NM, 88201","Match","Exact","608 WRANGLER RD, ROSWELL, NM, 88201",131809608,"L"
257050,"608 WRIGHT RD","MARYVILLE","TN",37804,35.7690454930001,-83.966555587,50,"608 WRIGHT RD, MARYVILLE, TN, 37804","Match","Exact","608 WRIGHT RD, MARYVILLE, TN, 37804",642081121,"R"
257051,"6080 113TH AVE","SPICER","MN",56288,45.2332863070001,-94.960455526,51,"6080 113TH AVE, SPICER, MN, 56288","Match","Non_Exact","6080 113TH AVE NE, SPICER, MN, 56288",608794268,"R"
257052,"6080 CAMELLIA DR APT/A","SUFFOLK","VA",23435,36.8743489440001,-76.426496082,52,"6080 CAMELLIA DR APT/A, SUFFOLK, VA, 23435","Match","Exact","6080 CAMELLIA DR, SUFFOLK, VA, 23435",122234422,"L"
257053,"6080 CENTER DR STE 600","LOS ANGELES","CA",90045,NA,NA,53,"6080 CENTER DR STE 600, LOS ANGELES, CA, 90045","No_Match",NA,NA,NA,NA
257054,"6080 CENTER DR UNIT 646","LOS ANGELES","CA",90045,NA,NA,54,"6080 CENTER DR UNIT 646, LOS ANGELES, CA, 90045","No_Match",NA,NA,NA,NA
257055,"6080 CENTER DRIVE - SUITE 600","LOS ANGELES","CA",90045,33.977242775,-118.39151397,55,"6080 CENTER DRIVE - SUITE 600, LOS ANGELES, CA, 90045","Match","Exact","6080 CENTER DR, LOS ANGELES, CA, 90045",642862003,"R"
257056,"6080 CENTER DRIVE FL 6","LOS ANGELES","CA",90045,33.977242775,-118.39151397,56,"6080 CENTER DRIVE FL 6, LOS ANGELES, CA, 90045","Match","Exact","6080 CENTER DR, LOS ANGELES, CA, 90045",642862003,"R"
257057,"6080 CENTER DRIVE SUITE 600","LOS ANGELES","CA",90045,33.977242775,-118.39151397,57,"6080 CENTER DRIVE SUITE 600, LOS ANGELES, CA, 90045","Match","Exact","6080 CENTER DR, LOS ANGELES, CA, 90045",642862003,"R"
257058,"6080 EDISON ST","COCOA","FL",32927,28.4656430530001,-80.8263490849999,58,"6080 EDISON ST, COCOA, FL, 32927","Match","Exact","6080 EDISON ST, COCOA, FL, 32927",93913787,"R"
257059,"6080 HULEN ST SUITE 360 - 213","FORT WORTH","TX",76132,32.6601001490001,-97.400780304,59,"6080 HULEN ST SUITE 360 - 213, FORT WORTH, TX, 76132","Match","Non_Exact","6080 S HULEN ST, FORT WORTH, TX, 76132",101882778,"R"
257060,"6080 JERICHO TURNPIKE SUITE 314","COMMACK","NY",11725,40.841601618,-73.305265952,60,"6080 JERICHO TURNPIKE SUITE 314, COMMACK, NY, 11725","Match","Exact","6080 JERICHO TPKE, COMMACK, NY, 11725",613482100,"R"
257061,"6080 MIRAMAR PARKWAY","MIRAMAR","FL",33023,NA,NA,61,"6080 MIRAMAR PARKWAY, MIRAMAR, FL, 33023","No_Match",NA,NA,NA,NA
257062,"6080 OLD BRANDON ROAD SUITE A","BRANDON","MS",39042,NA,NA,62,"6080 OLD BRANDON ROAD SUITE A, BRANDON, MS, 39042","No_Match",NA,NA,NA,NA
257063,"6080 RAVEN OAK COURT UNIT 278","MEMPHIS","TN",38115,35.042722095,-89.860152908,63,"6080 RAVEN OAK COURT UNIT 278, MEMPHIS, TN, 38115","Match","Non_Exact","6080 RAVENOAK CT, MEMPHIS, TN, 38115",72939349,"L"
257064,"6080 S HULEN ST 360 - 128","FORT WORTH","TX",76132,32.6601001490001,-97.400780304,64,"6080 S HULEN ST 360 - 128, FORT WORTH, TX, 76132","Match","Non_Exact","6080 S HULEN ST, FORT WORTH, TX, 76132",101882778,"R"
257065,"6080 SHAKER DRIVE","RIVERSIDE","CA",92506,33.941198011,-117.344649091,65,"6080 SHAKER DRIVE, RIVERSIDE, CA, 92506","Match","Exact","6080 SHAKER DR, RIVERSIDE, CA, 92506",194746839,"L"
257066,"6080 SW 40TH STREET STE 10","MIAMI","FL",33155,NA,NA,66,"6080 SW 40TH STREET STE 10, MIAMI, FL, 33155","No_Match",NA,NA,NA,NA
257067,"6080 WATER STREET","PLANO","TX",75024,33.080905149,-96.8264151499999,67,"6080 WATER STREET, PLANO, TX, 75024","Match","Exact","6080 WATER ST, PLANO, TX, 75024",650657234,"R"
257068,"60809 225TH AVE","MANTORVILLE","MN",55955,44.072532198,-92.788420818,68,"60809 225TH AVE, MANTORVILLE, MN, 55955","Match","Exact","60809 225TH AVE, MANTORVILLE, MN, 55955",31427962,"R"
257069,"6081 AMBERLY ROAD","REX","GA",30273,33.588329835,-84.268145338,69,"6081 AMBERLY ROAD, REX, GA, 30273","Match","Exact","6081 AMBERLY RD, REX, GA, 30273",23316019,"R"
257070,"6081 CLIFF LANE","TEMPLE","TX",76502,31.2016070700001,-97.493039831,70,"6081 CLIFF LANE, TEMPLE, TX, 76502","Match","Exact","6081 CLIFF LN, TEMPLE, TX, 76502",653207578,"R"
257071,"6081 GRAND MARAIS RD","JENNINGS","LA",70546,30.3055142590001,-92.707018562,71,"6081 GRAND MARAIS RD, JENNINGS, LA, 70546","Match","Exact","6081 GRAND MARAIS RD, JENNINGS, LA, 70546",88211785,"L"
257072,"6081 JOSEPH DR","OXFORD","OH",45056,39.5097639250001,-84.7544216429999,72,"6081 JOSEPH DR, OXFORD, OH, 45056","Match","Exact","6081 JOSEPH DR, OXFORD, OH, 45056",113786076,"L"
257073,"6081 RIVER CRES","NORFOLK","VA",23505,36.8985028480001,-76.287594783,73,"6081 RIVER CRES, NORFOLK, VA, 23505","Match","Exact","6081 RIVER CRES, NORFOLK, VA, 23505",122144228,"L"
257074,"6081 S LAND PARK DRIVE APT 3","SACRAMENTO","CA",95822,38.5167563630001,-121.513987369,74,"6081 S LAND PARK DRIVE APT 3, SACRAMENTO, CA, 95822","Match","Non_Exact","6081 S LAND PARK DR, SACRAMENTO, CA, 95822",133322898,"L"
257075,"6081 WATERTON DRIVE","LITHONIA","GA",30058,33.7390329890001,-84.140328623,75,"6081 WATERTON DRIVE, LITHONIA, GA, 30058","Match","Exact","6081 WATERTON DR, LITHONIA, GA, 30058",23393117,"R"
257076,"6082 ATLANTIC AVE","LONG BEACH","CA",90805,33.865111487,-118.184993268,76,"6082 ATLANTIC AVE, LONG BEACH, CA, 90805","Match","Exact","6082 ATLANTIC AVE, LONG BEACH, CA, 90805",141684202,"R"
257077,"6082 CLOPTON DRIVE","GREENSBORO","NC",27455,36.196321982,-79.7989854149999,77,"6082 CLOPTON DRIVE, GREENSBORO, NC, 27455","Match","Exact","6082 CLOPTON DR, GREENSBORO, NC, 27455",131115297,"R"
257078,"6082 MARELLA DRIVE","SARASOTA","FL",34243,27.386037023,-82.47968432,78,"6082 MARELLA DRIVE, SARASOTA, FL, 34243","Match","Exact","6082 MARELLA DR, SARASOTA, FL, 34243",16384578,"L"
257079,"6082 QUARTERLINE ROAD","GILLETT","WI",54124,44.880507763,-88.277457372,79,"6082 QUARTERLINE ROAD, GILLETT, WI, 54124","Match","Exact","6082 QUARTERLINE RD, GILLETT, WI, 54124",170322196,"R"
257080,"6082","BELLINGHAM","WA",98227,NA,NA,80,"6082, BELLINGHAM, WA, 98227","No_Match",NA,NA,NA,NA
257081,"6083 AUTUMN GREEN DR","FAIRBURN","GA",30213,33.5341262200001,-84.561777228,81,"6083 AUTUMN GREEN DR, FAIRBURN, GA, 30213","Match","Exact","6083 AUTUMN GREEN DR, FAIRBURN, GA, 30213",625653427,"L"
257082,"6083 CROMWELL CT","SOUTH SAINT PAUL","MN",55076,44.8607353350001,-93.024584055,82,"6083 CROMWELL CT, SOUTH SAINT PAUL, MN, 55076","Match","Exact","6083 CROMWELL CT, SOUTH SAINT PAUL, MN, 55076",212055686,"R"
257083,"6083 N FIGARDEN DRIVE NUMBER 173","FRESNO","CA",93722,36.8242035960001,-119.870478462,83,"6083 N FIGARDEN DRIVE NUMBER 173, FRESNO, CA, 93722","Match","Non_Exact","6083 W FIGARDEN DR, FRESNO, CA, 93722",636418760,"R"
257084,"60834 RUBY PLACE","BEND","OR",97702,44.0090410620001,-121.334405999,84,"60834 RUBY PLACE, BEND, OR, 97702","Match","Exact","60834 RUBY PL, BEND, OR, 97702",152555144,"R"
257085,"60835 TARALON PL","BEND","OR",97702,44.0089046860001,-121.349099504,85,"60835 TARALON PL, BEND, OR, 97702","Match","Exact","60835 TARALON PL, BEND, OR, 97702",611083690,"L"
257086,"60836 CASCADE RIVER ROAD","MARBLEMOUNT","WA",98267,48.5267888540001,-121.419609509,86,"60836 CASCADE RIVER ROAD, MARBLEMOUNT, WA, 98267","Match","Exact","60836 CASCADE RIVER RD, MARBLEMOUNT, WA, 98267",635491504,"R"
257087,"6084 OGDEN NASH WAY","SACRAMENTO","CA",95842,38.6825350990001,-121.352078225,87,"6084 OGDEN NASH WAY, SACRAMENTO, CA, 95842","Match","Exact","6084 OGDEN NASH WAY, SACRAMENTO, CA, 95842",133332261,"R"
257088,"6084 S NUCCI LANE","HEREFORD","AZ",85615,31.457955767,-110.164324377,88,"6084 S NUCCI LANE, HEREFORD, AZ, 85615","Match","Exact","6084 S NUCCI LN, HEREFORD, AZ, 85615",121027231,"L"
257089,"6084 SOUDER STREET","PHILADELPHIA","PA",19149,NA,NA,89,"6084 SOUDER STREET, PHILADELPHIA, PA, 19149","No_Match",NA,NA,NA,NA
257090,"6085 COUNTY ROAD 1435","VINEMONT","AL",35179,34.286322871,-86.808300348,90,"6085 COUNTY ROAD 1435, VINEMONT, AL, 35179","Match","Exact","6085 CO RD 1435, VINEMONT, AL, 35179",130237743,"L"
257091,"6085 FARM LANE","MILAN","TN",38358,35.889244352,-88.7651849279999,91,"6085 FARM LANE, MILAN, TN, 38358","Match","Exact","6085 FARM LN, MILAN, TN, 38358",649126479,"L"
257092,"6085 FLETCHER RD","GLOUCESTER","VA",23061,37.493475061,-76.549038552,92,"6085 FLETCHER RD, GLOUCESTER, VA, 23061","Match","Exact","6085 FLETCHER RD, GLOUCESTER, VA, 23061",649963095,"R"
257093,"6085 GRAND VIEW WAY","SUWANEE","GA",30024,34.0803025750001,-84.118235517,93,"6085 GRAND VIEW WAY, SUWANEE, GA, 30024","Match","Exact","6085 GRAND VIEW WAY, SUWANEE, GA, 30024",70183917,"L"
257094,"6085 IRENE DRIVE","HOFFMAN ESTATES","IL",60192,42.0558097950001,-88.24077356,94,"6085 IRENE DRIVE, HOFFMAN ESTATES, IL, 60192","Match","Exact","6085 IRENE DR, HOFFMAN EST, IL, 60192",112378226,"R"
257095,"6085 JOAQUIN STREET","CHINO","CA",91710,34.010701979,-117.672309254,95,"6085 JOAQUIN STREET, CHINO, CA, 91710","Match","Exact","6085 JOAQUIN ST, CHINO, CA, 91710",144673949,"R"
257096,"6085 LAKE FORREST DRIVE SUITE 200A","ATLANTA","GA",30328,33.9219260400001,-84.387022531,96,"6085 LAKE FORREST DRIVE SUITE 200A, ATLANTA, GA, 30328","Match","Non_Exact","6085 LAKE FORREST DR NW, ATLANTA, GA, 30328",17333214,"R"
257097,"6085 N FIRST STREET SUITE 101","FRESNO","CA",93710,36.824244004,-119.772252337,97,"6085 N FIRST STREET SUITE 101, FRESNO, CA, 93710","Match","Non_Exact","6085 N 1ST ST, FRESNO, CA, 93710",197573395,"L"
257098,"6085 NC 8 HWY S","GERMANTON","NC",27019,NA,NA,98,"6085 NC 8 HWY S, GERMANTON, NC, 27019","No_Match",NA,NA,NA,NA
257099,"6085 REDTOP LOOP","FAIRBURN","GA",30213,33.5898213450001,-84.578612205,99,"6085 REDTOP LOOP, FAIRBURN, GA, 30213","Match","Exact","6085 REDTOP LOOP, FAIRBURN, GA, 30213",629546059,"L"
257100,"6085 W KEN CARYL PLACE","LITTLETON","CO",80128,39.580088227,-105.064098055,100,"6085 W KEN CARYL PLACE, LITTLETON, CO, 80128","Match","Exact","6085 W KEN CARYL PL, LITTLETON, CO, 80128",177335061,"R"
257101,"6085 WEST 1350 NORTH","NAPPANEE","IN",46550,41.4268432160001,-85.965583328,101,"6085 WEST 1350 NORTH, NAPPANEE, IN, 46550","Match","Exact","6085 W 1350 N, NAPPANEE, IN, 46550",7925970,"R"
257102,"6085 WEST FLORISSANT  SUITE104","SAINT LOUIS","MO",63136,38.7106010150001,-90.252801897,102,"6085 WEST FLORISSANT  SUITE104, SAINT LOUIS, MO, 63136","Match","Non_Exact","6085 W FLORISSANT AVE, SAINT LOUIS, MO, 63136",107591851,"R"
257103,"6085 WEST FLORRISSANT","SAINT LOUIS","MO",63136,38.7106010150001,-90.252801897,103,"6085 WEST FLORRISSANT, SAINT LOUIS, MO, 63136","Match","Non_Exact","6085 W FLORISSANT AVE, SAINT LOUIS, MO, 63136",107591851,"R"
257104,"6086 76TH LN","LORETTO","MN",55357,45.0915239440001,-93.6804748759999,104,"6086 76TH LN, LORETTO, MN, 55357","Match","Exact","6086 76TH LN, LORETTO, MN, 55357",43851392,"L"
257105,"6086 CAMINITO DEL OESTE","SAN DIEGO","CA",92111,NA,NA,105,"6086 CAMINITO DEL OESTE, SAN DIEGO, CA, 92111","No_Match",NA,NA,NA,NA
257106,"6086 LIVE OAK COURT UNIT C","TAMARAC","FL",33319,26.1983377180001,-80.230566343,106,"6086 LIVE OAK COURT UNIT C, TAMARAC, FL, 33319","Match","Exact","6086 LIVE OAK CT, TAMARAC, FL, 33319",114751795,"R"
257107,"6086 NE WEE WUN WAY","SUQUAMISH","WA",98392,47.718532972,-122.565235454,107,"6086 NE WEE WUN WAY, SUQUAMISH, WA, 98392","Match","Exact","6086 NE WEE WUN WAY, SUQUAMISH, WA, 98392",617959707,"L"
257108,"6086 PHILIPS DRIVE","MORROW","GA",30260,33.588108189,-84.350904525,108,"6086 PHILIPS DRIVE, MORROW, GA, 30260","Match","Non_Exact","6086 PHILLIPS DR, MORROW, GA, 30260",23315315,"L"
257109,"6086 SPRING ST","STANSBURY PARK","UT",84074,40.639682115,-112.318139029,109,"6086 SPRING ST, STANSBURY PARK, UT, 84074","Match","Exact","6086 SPRING ST, STANSBURY PARK, UT, 84074",645043491,"R"
257110,"6086 WEST 18TH ST","LOS ANGELES","CA",90035,34.0442840220001,-118.375517157,110,"6086 WEST 18TH ST, LOS ANGELES, CA, 90035","Match","Exact","6086 W 18TH ST, LOS ANGELES, CA, 90035",141575021,"L"
257111,"6087 NICHOLAS DR","DETROIT","MI",48322,42.550411867,-83.3587353469999,111,"6087 NICHOLAS DR, DETROIT, MI, 48322","Match","Non_Exact","6087 NICHOLAS DR, W BLOOMFIELD, MI, 48322",69722250,"L"
257112,"6088 HUNTINGTON WOODS DR","NAPLES","FL",34112,26.1109103900001,-81.717394945,112,"6088 HUNTINGTON WOODS DR, NAPLES, FL, 34112","Match","Exact","6088 HUNTINGTON WOODS DR, NAPLES, FL, 34112",641066205,"L"
257113,"6088 STATE ROUTE 30","LAKE CLEAR","NY",12945,44.3600476760001,-74.25713078,113,"6088 STATE ROUTE 30, LAKE CLEAR, NY, 12945","Match","Exact","6088 STATE RTE 30, LAKE CLEAR, NY, 12945",625187416,"R"
257114,"6088 WEST BREEZEWAY DRIVE","NORTH RIDGEVILLE","OH",44039,41.40171221,-82.042993435,114,"6088 WEST BREEZEWAY DRIVE, NORTH RIDGEVILLE, OH, 44039","Match","Exact","6088 W BREEZEWAY DR, N RIDGEVILLE, OH, 44039",618138580,"R"
257115,"6088 WHITESTONE ROAD","JACKSON","MS",39206,32.391745148,-90.171739372,115,"6088 WHITESTONE ROAD, JACKSON, MS, 39206","Match","Exact","6088 WHITESTONE RD, JACKSON, MS, 39206",65377434,"R"
257116,"6089 46TH AVE DRIVE NE","HICKORY","NC",28601,NA,NA,116,"6089 46TH AVE DRIVE NE, HICKORY, NC, 28601","No_Match",NA,NA,NA,NA
257117,"6089 COFER RD","WEEKI WACHEE","FL",34607,28.5387925250001,-82.617678669,117,"6089 COFER RD, WEEKI WACHEE, FL, 34607","Match","Exact","6089 COFER RD, WEEKI WACHEE, FL, 34607",636360838,"R"
257118,"6089 HUNTERS POINT PIKE","LEBANON","TN",37087,36.293758978,-86.2649038489999,118,"6089 HUNTERS POINT PIKE, LEBANON, TN, 37087","Match","Exact","6089 HUNTERS POINT PIKE, LEBANON, TN, 37087",89706992,"R"
257119,"6089 PLAINS DRIVE","LAKE WORTH","FL",33463,26.60362689,-80.1417548909999,119,"6089 PLAINS DRIVE, LAKE WORTH, FL, 33463","Match","Exact","6089 PLAINS DR, LAKE WORTH, FL, 33463",115489634,"L"
257120,"6089 TAZETTE DR","OAKLEY","CA",94561,NA,NA,120,"6089 TAZETTE DR, OAKLEY, CA, 94561","No_Match",NA,NA,NA,NA
257121,"609 10TH AVENUE","LINDENWOLD","NJ",8021,39.8121972220001,-75.015936357,121,"609 10TH AVENUE, LINDENWOLD, NJ, 8021","Match","Exact","609 10TH AVE, LINDENWOLD, NJ, 08021",134360273,"R"
257122,"609 11TH STREET SUITE 4","SACRAMENTO","CA",95814,38.5842426830001,-121.490252542,122,"609 11TH STREET SUITE 4, SACRAMENTO, CA, 95814","Match","Exact","609 11TH ST, SACRAMENTO, CA, 95814",133421556,"L"
257123,"609 1ST AVE E","CLARK","SD",57225,44.877394919,-97.727892056,123,"609 1ST AVE E, CLARK, SD, 57225","Match","Exact","609 1ST AVE E, CLARK, SD, 57225",647389788,"L"
257124,"609 2ND AVE NORTH","HETTINGER","ND",58639,46.0021781020001,-102.635132175,124,"609 2ND AVE NORTH, HETTINGER, ND, 58639","Match","Exact","609 2ND AVE N, HETTINGER, ND, 58639",197041539,"L"
257125,"609 3RD AVE NW     BOX 427","DODGE CENTER","MN",55927,44.0344620290001,-92.8591655979999,125,"609 3RD AVE NW     BOX 427, DODGE CENTER, MN, 55927","Match","Exact","609 3RD AVE NW, DODGE CENTER, MN, 55927",31424144,"L"
257126,"609 7TH ST N","HUDSON","WI",54016,44.9979206720001,-92.754373528,126,"609 7TH ST N, HUDSON, WI, 54016","Match","Exact","609 7TH ST N, HUDSON, WI, 54016",110908033,"R"
257127,"609 ABINGDON LN","GOOSE CREEK","SC",29445,33.014392097,-80.011890686,127,"609 ABINGDON LN, GOOSE CREEK, SC, 29445","Match","Exact","609 ABINGDON LN, GOOSE CREEK, SC, 29445",624564616,"R"
257128,"609 ALBANY ST","BOSTON","MA",2118,42.3368636710001,-71.0687856279999,128,"609 ALBANY ST, BOSTON, MA, 2118","Match","Exact","609 ALBANY ST, BOSTON, MA, 02118",85700947,"R"
257129,"609 ANITA ST","CHULA VISTA","CA",91911,32.5984954530001,-117.078295022,129,"609 ANITA ST, CHULA VISTA, CA, 91911","Match","Exact","609 ANITA ST, CHULA VISTA, CA, 91911",195685691,"L"
257130,"609 ANNISTON AVE","PIEDMONT","AL",36272,33.914874147,-85.6158840699999,130,"609 ANNISTON AVE, PIEDMONT, AL, 36272","Match","Exact","609 ANNISTON AVE, PIEDMONT, AL, 36272",66531517,"L"
257131,"609 ARBOR GLEN CT","MANSFIELD","TX",76063,32.5728428460001,-97.067545147,131,"609 ARBOR GLEN CT, MANSFIELD, TX, 76063","Match","Exact","609 ARBOR GLEN CT, MANSFIELD, TX, 76063",618507223,"R"
257132,"609 BAY LANE","CENTERVILLE","MA",2632,41.6460574720001,-70.35530546,132,"609 BAY LANE, CENTERVILLE, MA, 2632","Match","Exact","609 BAY LN, CENTERVILLE, MA, 02632",121627577,"L"
257133,"609 BEAUFORT AVENUE","PITTSBURGH","PA",15226,40.399522968,-80.013966583,133,"609 BEAUFORT AVENUE, PITTSBURGH, PA, 15226","Match","Exact","609 BEAUFORT AVE, PITTSBURGH, PA, 15226",51634481,"R"
257134,"609 BOON ST","CADILLAC","MI",49601,44.2538086170001,-85.419204555,134,"609 BOON ST, CADILLAC, MI, 49601","Match","Exact","609 BOON ST, CADILLAC, MI, 49601",146095072,"L"
257135,"609 BOSTON AVE APT 2","MEDFORD","MA",2155,42.4023964300001,-71.113488204,135,"609 BOSTON AVE APT 2, MEDFORD, MA, 2155","Match","Exact","609 BOSTON AVE, MEDFORD, MA, 02155",647975135,"L"
257136,"609 BROOKS BLVD","MANVILLE","NJ",8835,40.5444308840001,-74.593092859,136,"609 BROOKS BLVD, MANVILLE, NJ, 8835","Match","Exact","609 BROOKS BLVD, MANVILLE, NJ, 08835",59939458,"L"
257137,"609 BRULE RD","MARQUETTE","MI",49855,46.525957185,-87.3994857499999,137,"609 BRULE RD, MARQUETTE, MI, 49855","Match","Exact","609 BRULE RD, MARQUETTE, MI, 49855",182035112,"R"
257138,"609 BRUNNER DRIVE","CINCINNATI","OH",45240,39.2700276240001,-84.497730987,138,"609 BRUNNER DRIVE, CINCINNATI, OH, 45240","Match","Exact","609 BRUNNER DR, CINCINNATI, OH, 45240",103944094,"L"
257139,"609 BUOY COURT","EDGEWOOD","MD",21040,39.4370335900001,-76.275059741,139,"609 BUOY COURT, EDGEWOOD, MD, 21040","Match","Exact","609 BUOY CT, EDGEWOOD, MD, 21040",624803606,"R"
257140,"609 CAMP AVE","LUMBERTON","MS",39455,31.0041929930001,-89.456195341,140,"609 CAMP AVE, LUMBERTON, MS, 39455","Match","Exact","609 CAMP AVE, LUMBERTON, MS, 39455",491631,"L"
257141,"609 CANTERIDGE DRIVE","PICKERINGTON","OH",43147,39.8769470400001,-82.771324287,141,"609 CANTERIDGE DRIVE, PICKERINGTON, OH, 43147","Match","Exact","609 CANTERIDGE DR, PICKERINGTON, OH, 43147",37238146,"R"
257142,"609 CARNEY BLVD","MARINETTE","WI",54143,45.0901479830001,-87.610543824,142,"609 CARNEY BLVD, MARINETTE, WI, 54143","Match","Exact","609 CARNEY BLVD, MARINETTE, WI, 54143",170016241,"L"
257143,"609 CAUTHEN STREET","ROCK HILL","SC",29730,34.9288996880001,-81.009692467,143,"609 CAUTHEN STREET, ROCK HILL, SC, 29730","Match","Exact","609 CAUTHEN ST, ROCK HILL, SC, 29730",19807382,"L"
257144,"609 CHERRYCREST RD APT D","BALTIMORE","MD",21225,39.2487407690001,-76.6213061509999,144,"609 CHERRYCREST RD APT D, BALTIMORE, MD, 21225","Match","Exact","609 CHERRYCREST RD, BALTIMORE, MD, 21225",206460543,"L"
257145,"609 CHEYENNE LN","CEDAR PARK","TX",78613,30.5147901340001,-97.756630425,145,"609 CHEYENNE LN, CEDAR PARK, TX, 78613","Match","Exact","609 CHEYENNE LN, CEDAR PARK, TX, 78613",648535779,"R"
257146,"609 CLIFFORD CT","FORT COLLINS","CO",80524,40.579353407,-105.016144114,146,"609 CLIFFORD CT, FORT COLLINS, CO, 80524","Match","Exact","609 CLIFFORD CT, FORT COLLINS, CO, 80524",188492723,"L"
257147,"609 COUNTY ROAD 3202","CAMPBELL","TX",75422,33.115766218,-95.899290867,147,"609 COUNTY ROAD 3202, CAMPBELL, TX, 75422","Match","Exact","609 CO RD 3202, CAMPBELL, TX, 75422",42866464,"R"
257148,"609 DEEP VALLEY DRIVE STE 200","ROLLING HILLS ESTATE","CA",90274,33.7708971530001,-118.372075723,148,"609 DEEP VALLEY DRIVE STE 200, ROLLING HILLS ESTATE, CA, 90274","Match","Non_Exact","609 DEEP VALLEY DR, ROLLING HILLS, CA, 90274",641477668,"R"
257149,"609 DRESDEN AVENUE","STEUBENVILLE","OH",43952,40.351762482,-80.6308407719999,149,"609 DRESDEN AVENUE, STEUBENVILLE, OH, 43952","Match","Exact","609 DRESDEN AVE, STEUBENVILLE, OH, 43952",37801337,"R"
257150,"609 E 17TH ST","KANSAS CITY","MO",64108,39.0932049480001,-94.576363896,150,"609 E 17TH ST, KANSAS CITY, MO, 64108","Match","Exact","609 E 17TH ST, KANSAS CITY, MO, 64108",91445654,"R"
257151,"609 E 5TH AVE","FLINT","MI",48503,43.0233038870001,-83.694557598,151,"609 E 5TH AVE, FLINT, MI, 48503","Match","Exact","609 E 5TH AVE, FLINT, MI, 48503",69567770,"L"
257152,"609 E 5TH AVENUE","LONGMONT","CO",80504,40.1669252550001,-105.08000531,152,"609 E 5TH AVENUE, LONGMONT, CO, 80504","Match","Exact","609 E 5TH AVE, LONGMONT, CO, 80504",188156965,"R"
257153,"609 E MAIN ST","WESTMINSTER","SC",29693,34.662509115,-83.0926017959999,153,"609 E MAIN ST, WESTMINSTER, SC, 29693","Match","Exact","609 E MAIN ST, WESTMINSTER, SC, 29693",25638343,"R"
257154,"609 E WINONA AVE","NORWOOD","PA",19074,39.882042325,-75.292623808,154,"609 E WINONA AVE, NORWOOD, PA, 19074","Match","Exact","609 E WINONA AVE, NORWOOD, PA, 19074",134899122,"L"
257155,"609 EAST CHELTEN AVE","PHILADELPHIA","PA",19144,40.0433172480001,-75.1670438319999,155,"609 EAST CHELTEN AVE, PHILADELPHIA, PA, 19144","Match","Exact","609 E CHELTEN AVE, PHILADELPHIA, PA, 19144",131395887,"L"
257156,"609 EAST MOUNT AIRY AVE","PHILADELPHIA","PA",19119,40.0679205270001,-75.182791424,156,"609 EAST MOUNT AIRY AVE, PHILADELPHIA, PA, 19119","Match","Exact","609 E MOUNT AIRY AVE, PHILADELPHIA, PA, 19119",131394772,"L"
257157,"609 EAST SACRAMENTO STREET","ALTADENA","CA",91001,34.181545386,-118.137961171,157,"609 EAST SACRAMENTO STREET, ALTADENA, CA, 91001","Match","Exact","609 E SACRAMENTO ST, ALTADENA, CA, 91001",141628259,"L"
257158,"609 EASTERN HEIGHTS BLVD","ELYRIA","OH",44035,41.363158115,-82.085787759,158,"609 EASTERN HEIGHTS BLVD, ELYRIA, OH, 44035","Match","Exact","609 EASTERN HEIGHTS BLVD, ELYRIA, OH, 44035",55413440,"R"
257159,"609 EDGEWOOD DR","MONTGOMERY","TX",77356,30.423152314,-95.615497997,159,"609 EDGEWOOD DR, MONTGOMERY, TX, 77356","Match","Exact","609 EDGEWOOD DR, MONTGOMERY, TX, 77356",79315607,"L"
257160,"609 ELK ST","BEATRICE","NE",68310,40.2679336900001,-96.7452175989999,160,"609 ELK ST, BEATRICE, NE, 68310","Match","Exact","609 ELK ST, BEATRICE, NE, 68310",11614386,"L"
257161,"609 FIRETHORN DRIVE","DOUGLASSVILLE","PA",19518,40.2732347210001,-75.7304968,161,"609 FIRETHORN DRIVE, DOUGLASSVILLE, PA, 19518","Match","Exact","609 FIRETHORN DR, DOUGLASSVILLE, PA, 19518",80410058,"R"
257162,"609 FRERET STREET","MORGAN CITY","LA",70380,29.697876308,-91.204678841,162,"609 FRERET STREET, MORGAN CITY, LA, 70380","Match","Exact","609 FRERET ST, MORGAN CITY, LA, 70380",85888968,"L"
257163,"609 GARDNERS WAY","ENFIELD","CT",6082,NA,NA,163,"609 GARDNERS WAY, ENFIELD, CT, 6082","No_Match",NA,NA,NA,NA
257164,"609 GILMER ST","SULPHUR SPRINGS","TX",75482,33.130264341,-95.600738131,164,"609 GILMER ST, SULPHUR SPRINGS, TX, 75482","Match","Exact","609 GILMER ST, SULPHUR SPRINGS, TX, 75482",636329895,"L"
257165,"609 GOULD ST","BEAVER DAM","WI",53916,43.4608055480001,-88.8184074389999,165,"609 GOULD ST, BEAVER DAM, WI, 53916","Match","Exact","609 GOULD ST, BEAVER DAM, WI, 53916",53562372,"L"
257166,"609 HAMILTON ST","PALMERTON","PA",18071,40.801808077,-75.662134366,166,"609 HAMILTON ST, PALMERTON, PA, 18071","Match","Exact","609 HAMILTON ST, PALMERTON, PA, 18071",80620360,"R"
257167,"609 HARLEQUIN CT","BLYTHEWOOD","SC",29016,34.183874514,-80.953870778,167,"609 HARLEQUIN CT, BLYTHEWOOD, SC, 29016","Match","Exact","609 HARLEQUIN CT, BLYTHEWOOD, SC, 29016",624983389,"L"
257168,"609 HERITAGE OAKS DR","ANGLETON","TX",77515,29.1696933150001,-95.451419717,168,"609 HERITAGE OAKS DR, ANGLETON, TX, 77515","Match","Exact","609 HERITAGE OAKS DR, ANGLETON, TX, 77515",116626764,"L"
257169,"609 HILLVIEW PLACE SW","LEESBURG","VA",20175,39.0897236280001,-77.601967772,169,"609 HILLVIEW PLACE SW, LEESBURG, VA, 20175","Match","Exact","609 HILLVIEW PL SW, LEESBURG, VA, 20175",62353952,"L"
257170,"609 HOLLY DRIVE","EDMOND","OK",73034,35.6714085260001,-97.4720756849999,170,"609 HOLLY DRIVE, EDMOND, OK, 73034","Match","Exact","609 HOLLY DR, EDMOND, OK, 73034",100408248,"L"
257171,"609 HWY 35","WOODLAND","NC",27897,36.2994538940001,-77.195381724,171,"609 HWY 35, WOODLAND, NC, 27897","Match","Non_Exact","609 STATE HWY 35, WOODLAND, NC, 27897",54074018,"L"
257172,"609 KAINS AVENUE","ALBANY","CA",94706,37.8950052000001,-122.299514957,172,"609 KAINS AVENUE, ALBANY, CA, 94706","Match","Exact","609 KAINS AVE, ALBANY, CA, 94706",124991941,"L"
257173,"609 KAPPOCK ST APT 6E","BRONX","NY",10463,40.8795424520001,-73.916821188,173,"609 KAPPOCK ST APT 6E, BRONX, NY, 10463","Match","Exact","609 KAPPOCK ST, BRONX, NY, 10463",80296088,"R"
257174,"609 KARI ANN LN","DESOTO","TX",75115,NA,NA,174,"609 KARI ANN LN, DESOTO, TX, 75115","No_Match",NA,NA,NA,NA
257175,"609 KIOWA DR","MCKINNEY","TX",75071,33.240164093,-96.615140514,175,"609 KIOWA DR, MCKINNEY, TX, 75071","Match","Exact","609 KIOWA DR, MCKINNEY, TX, 75071",619900873,"L"
257176,"609 LILLIAN STREET","WATERTOWN","NY",13601,43.9815115070001,-75.899296778,176,"609 LILLIAN STREET, WATERTOWN, NY, 13601","Match","Exact","609 LILLIAN ST, WATERTOWN, NY, 13601",154239775,"L"
257177,"609 MADISON STREET","GARY","IN",46403,41.59990507,-87.3420383879999,177,"609 MADISON STREET, GARY, IN, 46403","Match","Non_Exact","609 MADISON ST, GARY, IN, 46402",98426401,"L"
257178,"609 MATTAWOMAN WAY","ACCOKEEK","MD",20607,38.6520159730001,-77.018542764,178,"609 MATTAWOMAN WAY, ACCOKEEK, MD, 20607","Match","Exact","609 MATTAWOMAN WAY, ACCOKEEK, MD, 20607",76418183,"R"
257179,"609 MEEHAN AVE","FAR ROCKAWAY","NY",11691,NA,NA,179,"609 MEEHAN AVE, FAR ROCKAWAY, NY, 11691","No_Match",NA,NA,NA,NA
257180,"609 MERRIMAN AVENUE WEST","WYNNE","AR",72396,NA,NA,180,"609 MERRIMAN AVENUE WEST, WYNNE, AR, 72396","No_Match",NA,NA,NA,NA
257181,"609 MINNESOTA AVENUE","WALKER","MN",56484,NA,NA,181,"609 MINNESOTA AVENUE, WALKER, MN, 56484","No_Match",NA,NA,NA,NA
257182,"609 MONTGOMERY ST","BROOKLYN","NY",11225,40.6650560360001,-73.944477127,182,"609 MONTGOMERY ST, BROOKLYN, NY, 11225","Match","Exact","609 MONTGOMERY ST, BROOKLYN, NY, 11225",59079573,"L"
257183,"609 MURCHISON RD","FAYETTEVILLE","NC",28301,35.064888513,-78.8897168779999,183,"609 MURCHISON RD, FAYETTEVILLE, NC, 28301","Match","Exact","609 MURCHISON RD, FAYETTEVILLE, NC, 28301",64255515,"L"
257184,"609 N 18 ST","KANSAS CITY","KS",66101,NA,NA,184,"609 N 18 ST, KANSAS CITY, KS, 66101","No_Match",NA,NA,NA,NA
257185,"609 N 935 W","CEDAR CITY","UT",84721,37.687992541,-113.075685215,185,"609 N 935 W, CEDAR CITY, UT, 84721","Match","Exact","609 N 935 W, CEDAR CITY, UT, 84721",165425001,"L"
257186,"609 N CARROLL PKWY APT 204","GLENWOOD","IL",60425,41.5579323270001,-87.6274286569999,186,"609 N CARROLL PKWY APT 204, GLENWOOD, IL, 60425","Match","Exact","609 CARROLL PKWY, GLENWOOD, IL, 60425",111713337,"R"
257187,"609 N COLUMBIA ST","WARSAW","IN",46580,41.2429973770001,-85.8605460159999,187,"609 N COLUMBIA ST, WARSAW, IN, 46580","Match","Exact","609 N COLUMBIA ST, WARSAW, IN, 46580",7920086,"L"
257188,"609 N FIRST STREET","ALBANY","TX",76430,32.7279724690001,-99.2984407609999,188,"609 N FIRST STREET, ALBANY, TX, 76430","Match","Exact","609 N 1ST ST, ALBANY, TX, 76430",185616341,"L"
257189,"609 N GROVE STREET","CHIPPEWA FALLS","WI",54729,44.9416292980001,-91.391674718,189,"609 N GROVE STREET, CHIPPEWA FALLS, WI, 54729","Match","Exact","609 N GROVE ST, CHIPPEWA FALLS, WI, 54729",648353963,"R"
257190,"609 N JEFFERSON","SAN ANGELO","TX",76901,31.4621935500001,-100.459206281,190,"609 N JEFFERSON, SAN ANGELO, TX, 76901","Match","Non_Exact","609 N JEFFERSON ST, SAN ANGELO, TX, 76901",190677403,"L"
257191,"609 N JUNIATA STREET","BLUE GRASS","IA",52726,41.5141160920001,-90.766941285,191,"609 N JUNIATA STREET, BLUE GRASS, IA, 52726","Match","Exact","609 N JUNIATA ST, BLUE GRASS, IA, 52726",122724381,"R"
257192,"609 N LONG BEACH BLVD  STE B","COMPTON","CA",90221,NA,NA,192,"609 N LONG BEACH BLVD  STE B, COMPTON, CA, 90221","Tie",NA,NA,NA,NA
257193,"609 N MINNESOTA ST","MITCHELL","SD",57301,43.7145522490001,-98.0338656499999,193,"609 N MINNESOTA ST, MITCHELL, SD, 57301","Match","Exact","609 N MINNESOTA ST, MITCHELL, SD, 57301",200658083,"L"
257194,"609 NE 113TH STREET","KANSAS CITY","MO",64155,39.2979750870001,-94.572226576,194,"609 NE 113TH STREET, KANSAS CITY, MO, 64155","Match","Exact","609 NE 113TH ST, KANSAS CITY, MO, 64155",89753872,"R"
257195,"609 NE 23RD STREET","GRAND PRAIRIE","TX",75050,32.754448935,-96.972549757,195,"609 NE 23RD STREET, GRAND PRAIRIE, TX, 75050","Match","Exact","609 NE 23RD ST, GRAND PRAIRIE, TX, 75050",102938611,"L"
257196,"609 NEW HOPE CHURCH ROAD","BEATRICE","AL",35425,31.728384084,-87.262116561,196,"609 NEW HOPE CHURCH ROAD, BEATRICE, AL, 35425","Match","Non_Exact","609 NEW HOPE CHURCH RD, BEATRICE, AL, 36425",2001429,"L"
257197,"609 NEW MOON STREET","AVON","IN",46123,39.7544295320001,-86.3415559379999,197,"609 NEW MOON STREET, AVON, IN, 46123","Match","Exact","609 NEW MOON ST, AVON, IN, 46123",89235783,"L"
257198,"609 NORTH 33RD STREET","PHILADELPHIA","PA",19104,39.964466773,-75.1901971189999,198,"609 NORTH 33RD STREET, PHILADELPHIA, PA, 19104","Match","Exact","609 N 33RD ST, PHILADELPHIA, PA, 19104",131403716,"R"
257199,"609 NORTH LINDSAY ROAD","GILBERT","AZ",85234,33.359905643,-111.773108238,199,"609 NORTH LINDSAY ROAD, GILBERT, AZ, 85234","Match","Exact","609 N LINDSAY RD, GILBERT, AZ, 85234",128330249,"L"
257200,"609 NW 47TH ST","DEERFIELD BEACH","FL",33064,26.2880428300001,-80.132368263,200,"609 NW 47TH ST, DEERFIELD BEACH, FL, 33064","Match","Exact","609 NW 47TH ST, DEERFIELD BEACH, FL, 33064",640937937,"L"
257201,"609 NW 5TH COURT","HALLANDALE","FL",33009,25.9911905970001,-80.155201403,201,"609 NW 5TH COURT, HALLANDALE, FL, 33009","Match","Exact","609 NW 5TH CT, HALLANDALE, FL, 33009",114736035,"L"
257202,"609 OCEAN DRIVE APARTMENT 11 H","KEY BISCAYNE","FL",33149,25.6901729940001,-80.158679524,202,"609 OCEAN DRIVE APARTMENT 11 H, KEY BISCAYNE, FL, 33149","Match","Exact","609 OCEAN DR, KEY BISCAYNE, FL, 33149",647824536,"L"
257203,"609 OLD FORT RD","PORT ROYAL","SC",29935,32.385354324,-80.6836232919999,203,"609 OLD FORT RD, PORT ROYAL, SC, 29935","Match","Exact","609 OLD FORT RD, PORT ROYAL, SC, 29935",87608099,"R"
257204,"609 OLD MARS HILL HIGHWAY","WEAVERVILLE","NC",28787,35.766970041,-82.543486542,204,"609 OLD MARS HILL HIGHWAY, WEAVERVILLE, NC, 28787","Match","Exact","609 OLD MARS HILL HWY, WEAVERVILLE, NC, 28787",645532535,"R"
257205,"609 OVERVIEW DRIVE","LAS VEGAS","NV",89145,36.1647894130001,-115.278580212,205,"609 OVERVIEW DRIVE, LAS VEGAS, NV, 89145","Match","Exact","609 OVERVIEW DR, LAS VEGAS, NV, 89145",201901769,"R"
257206,"609 PALMER RD APT 7B","YONKERS","NY",10701,40.9449528160001,-73.8516620409999,206,"609 PALMER RD APT 7B, YONKERS, NY, 10701","Match","Exact","609 PALMER RD, YONKERS, NY, 10701",139745668,"L"
257207,"609 PANORAMA DRIVE","PRESCOTT","AZ",86301,34.579736316,-112.474193101,207,"609 PANORAMA DRIVE, PRESCOTT, AZ, 86301","Match","Exact","609 PANORAMA DR, PRESCOTT, AZ, 86301",649898438,"L"
257208,"609 PARK STREET APT 5","SAINT PAUL","MN",55103,44.9596984340001,-93.1037468279999,208,"609 PARK STREET APT 5, SAINT PAUL, MN, 55103","Match","Exact","609 PARK ST, SAINT PAUL, MN, 55103",97661323,"L"
257209,"609 PECAN STREET","BASTROP","TX",78602,30.106469535,-97.3174406369999,209,"609 PECAN STREET, BASTROP, TX, 78602","Match","Exact","609 PECAN ST, BASTROP, TX, 78602",45467012,"R"
257210,"609 PIKE STREET","MONONGAH","WV",26554,39.4635344860001,-80.219377562,210,"609 PIKE STREET, MONONGAH, WV, 26554","Match","Exact","609 PIKE ST, MONONGAH, WV, 26554",51429634,"L"
257211,"609 PINER ROAD SUITE A-503","WILMINGTON","NC",28409,34.1387966660001,-77.890958516,211,"609 PINER ROAD SUITE A-503, WILMINGTON, NC, 28409","Match","Exact","609 PINER RD, WILMINGTON, NC, 28409",152759386,"L"
257212,"609 PLISCH STREET","ATHENS","WI",54411,45.0252328920001,-90.079112841,212,"609 PLISCH STREET, ATHENS, WI, 54411","Match","Exact","609 PLISCH ST, ATHENS, WI, 54411",635617000,"L"
257213,"609 POINCIANA ROAD","NOKOMIS","FL",34275,27.1188675380001,-82.458609813,213,"609 POINCIANA ROAD, NOKOMIS, FL, 34275","Match","Exact","609 POINCIANA RD, NOKOMIS, FL, 34275",16359136,"L"
257214,"609 POINTE WILDWOOD DRIVE","SENECA","SC",29678,34.607405016,-82.953225026,214,"609 POINTE WILDWOOD DRIVE, SENECA, SC, 29678","Match","Exact","609 POINTE WILDWOOD DR, SENECA, SC, 29678",25667573,"L"
257215,"609 QUARTZ ST","IMPERIAL","CA",92251,32.8440824310001,-115.589222527,215,"609 QUARTZ ST, IMPERIAL, CA, 92251","Match","Exact","609 QUARTZ ST, IMPERIAL, CA, 92251",627598151,"R"
257216,"609 RAIN LILY DR","DESOTO","TX",75115,32.568885381,-96.845504122,216,"609 RAIN LILY DR, DESOTO, TX, 75115","Match","Exact","609 RAIN LILY DR, DESOTO, TX, 75115",642757896,"L"
257217,"609 RIDGECREST DRIVE","SALADO","TX",76571,30.949025901,-97.523629693,217,"609 RIDGECREST DRIVE, SALADO, TX, 76571","Match","Exact","609 RIDGECREST DR, SALADO, TX, 76571",146227296,"R"
257218,"609 RIDGEWELL WAY","SILVER SPRING","MD",20902,39.0549509100001,-77.0204158989999,218,"609 RIDGEWELL WAY, SILVER SPRING, MD, 20902","Match","Exact","609 RIDGEWELL WAY, SILVER SPRING, MD, 20902",62078054,"L"
257219,"609 S 119TH EAST AVE","TULSA","OK",74128,36.1538811190001,-95.843841595,219,"609 S 119TH EAST AVE, TULSA, OK, 74128","Match","Exact","609 S 119TH EAST AVE, TULSA, OK, 74128",166456345,"L"
257220,"609 S 5TH AVE","MT VERNON","NY",10550,40.896619619,-73.832364506,220,"609 S 5TH AVE, MT VERNON, NY, 10550","Match","Exact","609 S 5TH AVE, MOUNT VERNON, NY, 10550",139747591,"L"
257221,"609 S 5TH STREET","CROCKETT","TX",75835,31.312110241,-95.455236968,221,"609 S 5TH STREET, CROCKETT, TX, 75835","Match","Exact","609 S FIFTH ST, CROCKETT, TX, 75835",21990200,"L"
257222,"609 S CASCADE AVE SUITE 517","COLORADO SPRINGS","CO",80903,38.843003949,-104.824718158,222,"609 S CASCADE AVE SUITE 517, COLORADO SPRINGS, CO, 80903","Match","Non_Exact","609 N CASCADE AVE, COLORADO SPRINGS, CO, 80903",610725596,"R"
257223,"609 S ELOY RD","GOLDEN VALLEY","AZ",86413,35.211451352,-114.295729734,223,"609 S ELOY RD, GOLDEN VALLEY, AZ, 86413","Match","Exact","609 ELOY RD, GOLDEN VALLEY, AZ, 86413",190310683,"L"
257224,"609 S FIR SUITE A","OLATHE","KS",66061,NA,NA,224,"609 S FIR SUITE A, OLATHE, KS, 66061","No_Match",NA,NA,NA,NA
257225,"609 S GOLIAD UNIT 716","ROCKWALL","TX",75087,NA,NA,225,"609 S GOLIAD UNIT 716, ROCKWALL, TX, 75087","No_Match",NA,NA,NA,NA
257226,"609 S PROGRESS RD","SPOKANE VALLEY","WA",99037,47.6513420480001,-117.201996963,226,"609 S PROGRESS RD, SPOKANE VALLEY, WA, 99037","Match","Exact","609 S PROGRESS RD, SPOKANE VALLEY, WA, 99037",189889751,"L"
257227,"609 S RIVERBEND CT","NASHVILLE","CA",37221,NA,NA,227,"609 S RIVERBEND CT, NASHVILLE, CA, 37221","No_Match",NA,NA,NA,NA
257228,"609 S TAYLOR AVE STE A","LOUISVILLE","CO",80027,39.9635211670001,-105.119675354,228,"609 S TAYLOR AVE STE A, LOUISVILLE, CO, 80027","Match","Non_Exact","609 S TAYLOR AVE, LOUISVILLE, CO, 80027",188169380,"L"
257229,"609 SAGEBRUSH DRIVE","WORLAND","WY",82401,44.0222225160001,-107.929120782,229,"609 SAGEBRUSH DRIVE, WORLAND, WY, 82401","Match","Exact","609 SAGEBRUSH DR, WORLAND, WY, 82401",149726103,"L"
257230,"609 SCHOOL STREET","WALNUT COVE","NC",27052,36.2995078860001,-80.1457199239999,230,"609 SCHOOL STREET, WALNUT COVE, NC, 27052","Match","Exact","609 SCHOOL ST, WALNUT COVE, NC, 27052",56345236,"L"
257231,"609 SE 13TH STREET","FT LAUDERDALE","FL",33316,26.1058240130001,-80.136672768,231,"609 SE 13TH STREET, FT LAUDERDALE, FL, 33316","Match","Exact","609 SE 13TH ST, FORT LAUDERDALE, FL, 33316",114728213,"L"
257232,"609 SEVENTH STREET","MILFORD","PA",18337,41.3294074030001,-74.802956444,232,"609 SEVENTH STREET, MILFORD, PA, 18337","Match","Exact","609 SEVENTH ST, MILFORD, PA, 18337",635491981,"R"
257233,"609 SHERWOOD CT","ROMEOVILLE","IL",60446,41.665646187,-88.0810601699999,233,"609 SHERWOOD CT, ROMEOVILLE, IL, 60446","Match","Exact","609 SHERWOOD CT, ROMEOVILLE, IL, 60446",607934528,"R"
257234,"609 SLOAT PLACE","RIVER VALE","NJ",7675,40.9978097420001,-74.0095249239999,234,"609 SLOAT PLACE, RIVER VALE, NJ, 7675","Match","Exact","609 SLOAT PL, RIVER VALE, NJ, 07675",64409642,"R"
257235,"609 SMITH ROAD","NORTH PROVIDENCE","RI",2904,NA,NA,235,"609 SMITH ROAD, NORTH PROVIDENCE, RI, 2904","No_Match",NA,NA,NA,NA
257236,"609 SOUTH 10TH STREET SUITE 120","MINNEAPOLIS","MN",55404,NA,NA,236,"609 SOUTH 10TH STREET SUITE 120, MINNEAPOLIS, MN, 55404","No_Match",NA,NA,NA,NA
257237,"609 SOUTH CREEK DRIVE","ROYSE CITY","TX",75189,32.891488963,-96.350512786,237,"609 SOUTH CREEK DRIVE, ROYSE CITY, TX, 75189","Match","Exact","609 S CREEK DR, ROYSE CITY, TX, 75189",627949112,"L"
257238,"609 SOUTH DAVIS AVENUE","RICHMOND","VA",23220,37.546348558,-77.475039587,238,"609 SOUTH DAVIS AVENUE, RICHMOND, VA, 23220","Match","Exact","609 S DAVIS AVE, RICHMOND, VA, 23220",201536055,"L"
257239,"609 SOUTH STRINGTOWN ROAD","COVINGTON","IN",47932,40.105242988,-87.376302502,239,"609 SOUTH STRINGTOWN ROAD, COVINGTON, IN, 47932","Match","Exact","609 S STRINGTOWN RD, COVINGTON, IN, 47932",55222455,"R"
257240,"609 SOUTH SYLVAN DRIVE","BRANDON","FL",33510,27.9491285840001,-82.276560719,240,"609 SOUTH SYLVAN DRIVE, BRANDON, FL, 33510","Match","Exact","609 S SYLVAN DR, BRANDON, FL, 33510",104596298,"R"
257241,"609 SUNDERLAND DRIVE","CHESTER SPRINGS","PA",19425,40.086269875,-75.681922465,241,"609 SUNDERLAND DRIVE, CHESTER SPRINGS, PA, 19425","Match","Non_Exact","609 SUNDERLAND, CHESTER SPRINGS, PA, 19425",617729663,"L"
257242,"609 TAYLOR STREET","MARSHALL","TX",75670,32.549775304,-94.38984791,242,"609 TAYLOR STREET, MARSHALL, TX, 75670","Match","Exact","609 TAYLOR ST, MARSHALL, TX, 75670",141172937,"L"
257243,"609 THE PLAIN ROAD","WESTBURY","NY",11590,40.7403254070001,-73.567791346,243,"609 THE PLAIN ROAD, WESTBURY, NY, 11590","Match","Exact","609 THE PLAIN RD, WESTBURY, NY, 11590",147632023,"L"
257244,"609 TRAIL VIEW LANE","GARLAND","TX",75043,32.8428645400001,-96.6140583169999,244,"609 TRAIL VIEW LANE, GARLAND, TX, 75043","Match","Exact","609 TRAIL VIEW LN, GARLAND, TX, 75043",103202490,"R"
257245,"609 TYLER STREET","GARY","IN",46402,41.5998671620001,-87.348415215,245,"609 TYLER STREET, GARY, IN, 46402","Match","Exact","609 TYLER ST, GARY, IN, 46402",98425696,"L"
257246,"609 UNION","JEFFERSON CITY","MO",65109,NA,NA,246,"609 UNION, JEFFERSON CITY, MO, 65109","No_Match",NA,NA,NA,NA
257247,"609 UPPER SONDLEY DR","ASHEVILLE","NC",28805,35.6263953540001,-82.495376079,247,"609 UPPER SONDLEY DR, ASHEVILLE, NC, 28805","Match","Exact","609 UPPER SONDLEY DR, ASHEVILLE, NC, 28805",653492221,"L"
257248,"609 W FREDERICKSBURG ST","BROKEN ARROW","OK",74011,35.976944114,-95.797805602,248,"609 W FREDERICKSBURG ST, BROKEN ARROW, OK, 74011","Match","Exact","609 W FREDERICKSBURG ST, BROKEN ARROW, OK, 74011",166465115,"R"
257249,"609 W HOLME","NORTON","CO",67654,NA,NA,249,"609 W HOLME, NORTON, CO, 67654","No_Match",NA,NA,NA,NA
257250,"609 W HORATIO ST","TAMPA","FL",33606,27.93970001,-82.465980175,250,"609 W HORATIO ST, TAMPA, FL, 33606","Match","Exact","609 W HORATIO ST, TAMPA, FL, 33606",104530230,"R"
257251,"609 W MESA ST","TUCSON","AZ",85701,32.2164775190001,-110.978499167,251,"609 W MESA ST, TUCSON, AZ, 85701","Match","Exact","609 W MESA ST, TUCSON, AZ, 85701",121169756,"L"
257252,"609 W MESETO AVE","MESA","AZ",85210,33.369485979,-111.846936126,252,"609 W MESETO AVE, MESA, AZ, 85210","Match","Exact","609 W MESETO AVE, MESA, AZ, 85210",128380565,"R"
257253,"609 W PINE STREET","JACKSONVILLE","TX",75766,31.965154161,-95.2825295929999,253,"609 W PINE STREET, JACKSONVILLE, TX, 75766","Match","Exact","609 W PINE ST, JACKSONVILLE, TX, 75766",72303490,"L"
257254,"609 W WAYNE APT 2","SOUTH BEND","IN",46601,NA,NA,254,"609 W WAYNE APT 2, SOUTH BEND, IN, 46601","No_Match",NA,NA,NA,NA
257255,"609 WASHINGTON STREET","HERMANN","MO",65041,38.70281312,-91.442741972,255,"609 WASHINGTON STREET, HERMANN, MO, 65041","Match","Exact","609 WASHINGTON ST, HERMANN, MO, 65041",634209048,"R"
257256,"609 WATER LILLY ROAD","PORTSMOUTH","VA",23701,36.801363957,-76.3489237109999,256,"609 WATER LILLY ROAD, PORTSMOUTH, VA, 23701","Match","Exact","609 WATER LILLY RD, PORTSMOUTH, VA, 23701",632950065,"R"
257257,"609 WELLER ROAD","ELYRIA","OH",44035,41.3845190960001,-82.110248111,257,"609 WELLER ROAD, ELYRIA, OH, 44035","Match","Exact","609 WELLER RD, ELYRIA, OH, 44035",55409023,"R"
257258,"609 WEST 137TH STREET APT 64","NEW YORK","NY",10031,40.8215168940001,-73.9544233299999,258,"609 WEST 137TH STREET APT 64, NEW YORK, NY, 10031","Match","Exact","609 W 137TH ST, NEW YORK, NY, 10031",59655871,"R"
257259,"609 WEST BROADWAY","MAYFIELD","KY",42066,36.74169012,-88.643465024,259,"609 WEST BROADWAY, MAYFIELD, KY, 42066","Match","Exact","609 W BROADWAY, MAYFIELD, KY, 42066",27870291,"R"
257260,"609 WEST MARY","AUSTIN","TX",78704,NA,NA,260,"609 WEST MARY, AUSTIN, TX, 78704","No_Match",NA,NA,NA,NA
257261,"609 WEST WASHINGTON AVE","YAKIMA","WA",98903,46.5707602750001,-120.515217163,261,"609 WEST WASHINGTON AVE, YAKIMA, WA, 98903","Match","Exact","609 W WASHINGTON AVE, YAKIMA, WA, 98903",184970412,"R"
257262,"609 WHITE WATER DRIVE","WEST PALM BEACH","FL",33413,26.6873347160001,-80.1327528579999,262,"609 WHITE WATER DRIVE, WEST PALM BEACH, FL, 33413","Match","Exact","609 WHITE WATER DR, WEST PALM BEACH, FL, 33413",115269479,"L"
257263,"609 WHITETAIL DRIVE","LEWISBERRY","PA",17339,40.1778646990001,-76.851395538,263,"609 WHITETAIL DRIVE, LEWISBERRY, PA, 17339","Match","Non_Exact","609 WHITE TAIL DR, LEWISBERRY, PA, 17339",88743546,"R"
257264,"609 WHITNEY STREET","PENDER","NE",68047,42.112020832,-96.7113884729999,264,"609 WHITNEY STREET, PENDER, NE, 68047","Match","Exact","609 WHITNEY ST, PENDER, NE, 68047",193833706,"L"
257265,"609 WILLIAMS DRIVE","ALLEN","TX",75013,33.089320387,-96.722762677,265,"609 WILLIAMS DRIVE, ALLEN, TX, 75013","Match","Exact","609 WILLIAMS DR, ALLEN, TX, 75013",639631253,"L"
257266,"609 WINONA COURT","SILVER SPRING","MD",20902,39.040688672,-77.019199042,266,"609 WINONA COURT, SILVER SPRING, MD, 20902","Match","Exact","609 WINONA CT, SILVER SPRING, MD, 20902",62064618,"R"
257267,"609 WOOD PL APT2108","EVERETT","WA",98203,47.9561967500001,-122.234355735,267,"609 WOOD PL APT2108, EVERETT, WA, 98203","Match","Exact","609 WOOD PL, EVERETT, WA, 98203",187785014,"R"
257268,"609 WOODEN EAGLE TRAIL","KATHLEEN","GA",31047,32.524983176,-83.6959226179999,268,"609 WOODEN EAGLE TRAIL, KATHLEEN, GA, 31047","Match","Exact","609 WOODEN EAGLE TRL, KATHLEEN, GA, 31047",632222752,"L"
257269,"609 WOODLAND AVE","MENLO PARK","CA",94025,37.454092385,-122.161236834,269,"609 WOODLAND AVE, MENLO PARK, CA, 94025","Match","Exact","609 WOODLAND AVE, MENLO PARK, CA, 94025",192366230,"L"
257270,"6090 CARNEGIE ST","ROMULUS","MI",48174,42.263688776,-83.3747177769999,270,"6090 CARNEGIE ST, ROMULUS, MI, 48174","Match","Exact","6090 CARNEGIE ST, ROMULUS, MI, 48174",95417381,"R"
257271,"6090 DEL REY DRIVE","COLORADO SPRINGS","CO",80918,38.9195680930001,-104.766537724,271,"6090 DEL REY DRIVE, COLORADO SPRINGS, CO, 80918","Match","Exact","6090 DEL REY DR, COLORADO SPRINGS, CO, 80918",610701424,"L"
257272,"6090 PHERIN WOODS CT","MOBILE","AL",36608,30.6865064040001,-88.182718526,272,"6090 PHERIN WOODS CT, MOBILE, AL, 36608","Match","Exact","6090 PHERIN WOODS CT, MOBILE, AL, 36608",61955300,"L"
257273,"6090 ROYALTON RD NO 341","NORTH ROYALTON","OH",44133,41.31374393,-81.7268582139999,273,"6090 ROYALTON RD NO 341, NORTH ROYALTON, OH, 44133","Match","Non_Exact","6090 ROYALTON RD, N ROYALTON, OH, 44133",61141079,"R"
257274,"6090 SLOCUM ROAD","ONTARIO","NY",14519,43.2201972500001,-77.3236975519999,274,"6090 SLOCUM ROAD, ONTARIO, NY, 14519","Match","Exact","6090 SLOCUM RD, ONTARIO, NY, 14519",607797288,"R"
257275,"6090 W VASSAR WAY","LAKEWOOD","CO",80227,39.6692190690001,-105.062683443,275,"6090 W VASSAR WAY, LAKEWOOD, CO, 80227","Match","Exact","6090 W VASSAR WAY, LAKEWOOD, CO, 80227",177801207,"L"
257276,"6091 ALDERSBY LANE","LEAGUE CITY","TX",77573,29.4767138500001,-95.155051584,276,"6091 ALDERSBY LANE, LEAGUE CITY, TX, 77573","Match","Exact","6091 ALDERSBY LN, LEAGUE CITY, TX, 77573",627390265,"L"
257277,"6091 AYERS ROAD","ALBANY","OH",45710,39.2427419420001,-82.1858919209999,277,"6091 AYERS ROAD, ALBANY, OH, 45710","Match","Exact","6091 AYERS RD, ALBANY, OH, 45710",37100495,"R"
257278,"6091 HIGHWAY 14 WEST","AUBURN","AL",36832,NA,NA,278,"6091 HIGHWAY 14 WEST, AUBURN, AL, 36832","No_Match",NA,NA,NA,NA
257279,"6091 HOUGH RD","ALMONT","MI",48003,42.9031000030001,-83.099463535,279,"6091 HOUGH RD, ALMONT, MI, 48003","Match","Exact","6091 HOUGH RD, ALMONT, MI, 48003",110463871,"L"
257280,"6091 LAKE MELROSE DRIVE","ORLANDO","FL",32829,28.4746154850001,-81.2667711719999,280,"6091 LAKE MELROSE DRIVE, ORLANDO, FL, 32829","Match","Exact","6091 LAKE MELROSE DR, ORLANDO, FL, 32829",94408977,"R"
257281,"6091 LINNEAL BEACH DR","APOPKA","FL",32703,28.6457317000001,-81.4541127749999,281,"6091 LINNEAL BEACH DR, APOPKA, FL, 32703","Match","Exact","6091 LINNEAL BEACH DR, APOPKA, FL, 32703",93741442,"R"
257282,"6091 RACHEL DRIVE","FRISCO","TX",75034,33.130840414,-96.835796311,282,"6091 RACHEL DRIVE, FRISCO, TX, 75034","Match","Exact","6091 RACHEL DR, FRISCO, TX, 75034",619957653,"R"
257283,"6092 IDLEWOOD PASS","LITHONIA","GA",30038,33.642604804,-84.139913061,283,"6092 IDLEWOOD PASS, LITHONIA, GA, 30038","Match","Exact","6092 IDLEWOOD PASS, LITHONIA, GA, 30038",627673891,"R"
257284,"6092 OAK CANYON DR","SALT LAKE CITY","UT",84121,NA,NA,284,"6092 OAK CANYON DR, SALT LAKE CITY, UT, 84121","No_Match",NA,NA,NA,NA
257285,"6092 PIEDMONT ST","DETROIT","MI",48228,42.333344477,-83.227744269,285,"6092 PIEDMONT ST, DETROIT, MI, 48228","Match","Exact","6092 PIEDMONT ST, DETROIT, MI, 48228",95703588,"R"
257286,"60922 SW GARRISON DRIVE","BEND","OR",97702,44.0122094480001,-121.345400712,286,"60922 SW GARRISON DRIVE, BEND, OR, 97702","Match","Exact","60922 GARRISON DR, BEND, OR, 97702",639944045,"R"
257287,"6093 FLEMINGS LAKE ROAD","CLARKSTON","MI",48346,42.7405807690001,-83.393198382,287,"6093 FLEMINGS LAKE ROAD, CLARKSTON, MI, 48346","Match","Exact","6093 FLEMINGS LAKE RD, CLARKSTON, MI, 48346",69693552,"L"
257288,"6093 PLEASANT VALLEY RD","IRWIN","PA",15642,40.377621182,-79.673831138,288,"6093 PLEASANT VALLEY RD, IRWIN, PA, 15642","Match","Exact","6093 PLEASANT VALLEY RD, IRWIN, PA, 15642",53024060,"L"
257289,"60930 BRIDGE CREEK RD","HOMER","AK",99603,NA,NA,289,"60930 BRIDGE CREEK RD, HOMER, AK, 99603","No_Match",NA,NA,NA,NA
257290,"6094 14TH ST W STE 159","BRADENTON","FL",34207,27.4332410120001,-82.5754689189999,290,"6094 14TH ST W STE 159, BRADENTON, FL, 34207","Match","Exact","6094 14TH ST W, BRADENTON, FL, 34207",648931504,"R"
257291,"6094 APPLE TREE DRIVE SUITE 6","MEMPHIS","TN",38115,35.0690091210001,-89.861195509,291,"6094 APPLE TREE DRIVE SUITE 6, MEMPHIS, TN, 38115","Match","Exact","6094 APPLE TREE DR, MEMPHIS, TN, 38115",607454564,"L"
257292,"6094 DUNHAM ROAD","MAPLE HTS","OH",44137,41.3941311410001,-81.5750814089999,292,"6094 DUNHAM ROAD, MAPLE HTS, OH, 44137","Match","Exact","6094 DUNHAM RD, MAPLE HEIGHTS, OH, 44137",61128635,"R"
257293,"6094 HOPKINS NECK RD","EASTON","MD",21601,38.716581278,-76.161170936,293,"6094 HOPKINS NECK RD, EASTON, MD, 21601","Match","Exact","6094 HOPKINS NECK RD, EASTON, MD, 21601",68394288,"L"
257294,"6094 JACK RABBIT ROAD NE","RIO RANCHO","NM",87144,35.2738299330001,-106.610105145,294,"6094 JACK RABBIT ROAD NE, RIO RANCHO, NM, 87144","Match","Exact","6094 JACK RABBIT RD NE, RIO RANCHO, NM, 87144",194010110,"L"
257295,"6094 QUEEN ANNE COURT","NORCROSS","GA",30093,33.890825593,-84.1923915419999,295,"6094 QUEEN ANNE COURT, NORCROSS, GA, 30093","Match","Exact","6094 QUEEN ANNE CT, NORCROSS, GA, 30093",88893706,"R"
257296,"6094 TERRY LN","ARVADA","CO",80403,39.807122415,-105.190615483,296,"6094 TERRY LN, ARVADA, CO, 80403","Match","Exact","6094 TERRY LN, ARVADA, CO, 80403",177753943,"R"
257297,"6095 ANNE DR","WEST BLOOMFIELD","MI",48322,42.528686905,-83.4014287859999,297,"6095 ANNE DR, WEST BLOOMFIELD, MI, 48322","Match","Exact","6095 ANNE DR, W BLOOMFIELD, MI, 48322",69722323,"R"
257298,"6095 BELLA ROSA LN UNIT 102","VERO BEACH","FL",32966,27.6457496130001,-80.4522033649999,298,"6095 BELLA ROSA LN UNIT 102, VERO BEACH, FL, 32966","Match","Non_Exact","6095 BELLA ROSA DR, VERO BEACH, FL, 32966",626379794,"L"
257299,"6095 CATILINA DRIVE","NO. MYRTLE BEACH","SC",29582,33.800557907,-78.770132818,299,"6095 CATILINA DRIVE, NO. MYRTLE BEACH, SC, 29582","Match","Non_Exact","6095 CATALINA DR, N MYRTLE BCH, SC, 29582",631941060,"L"
257300,"6095 GOLDFINCH DR","PLEASANT HILL","IA",50327,41.593300415,-93.488894202,300,"6095 GOLDFINCH DR, PLEASANT HILL, IA, 50327","Match","Exact","6095 GOLDFINCH DR, PLEASANT HILL, IA, 50327",65813627,"R"
257301,"6095 NATCHEZ TRACE","BEAUMONT","TX",77706,30.102691281,-94.164183266,301,"6095 NATCHEZ TRACE, BEAUMONT, TX, 77706","Match","Exact","6095 NATCHEZ TRCE, BEAUMONT, TX, 77706",624349383,"L"
257302,"6095 PIERCE ROAD","FREELAND","MI",48623,43.509710054,-84.036658637,302,"6095 PIERCE ROAD, FREELAND, MI, 48623","Match","Exact","6095 PIERCE RD, FREELAND, MI, 48623",80233718,"R"
257303,"6095 S FASHION BLVD STE 100","MURRAY","UT",84107,40.6385584870001,-111.882978396,303,"6095 S FASHION BLVD STE 100, MURRAY, UT, 84107","Match","Exact","6095 FASHION BLVD, MURRAY, UT, 84107",176152779,"L"
257304,"6095 STONEGATE RUN","ZIONSVILLE","IN",46077,39.9518752770001,-86.322292617,304,"6095 STONEGATE RUN, ZIONSVILLE, IN, 46077","Match","Exact","6095 STONEGATE RUN, ZIONSVILLE, IN, 46077",635820889,"R"
257305,"6095 W COMMERCIAL BLVD","TAMARAC","FL",33619,26.1939064470001,-80.2336113389999,305,"6095 W COMMERCIAL BLVD, TAMARAC, FL, 33619","Match","Non_Exact","6095 W COMMERCIAL BLVD, TAMARAC, FL, 33319",637075567,"L"
257306,"6095 WELLESLEY DR","WEST BLOOMFIELD","MI",48322,42.5490059420001,-83.355870865,306,"6095 WELLESLEY DR, WEST BLOOMFIELD, MI, 48322","Match","Exact","6095 WELLESLEY DR, W BLOOMFIELD, MI, 48322",69775421,"L"
257307,"6096 BARTLETT VIEW LANE APT 4","BARTLETT","TN",38135,35.206046546,-89.8596334649999,307,"6096 BARTLETT VIEW LANE APT 4, BARTLETT, TN, 38135","Match","Non_Exact","6096 BARTLETT VIEW LN, BARTLETT, TN, 38134",72924282,"L"
257308,"6096 E SILVERSPUR TRAIL","ANAHEIM","CA",92807,33.841690525,-117.779783502,308,"6096 E SILVERSPUR TRAIL, ANAHEIM, CA, 92807","Match","Exact","6096 E SILVERSPUR TRL, ANAHEIM, CA, 92807",627186996,"R"
257309,"6096 LARIMER ROAD","MACCLENNY","FL",32063,30.25552515,-82.142978247,309,"6096 LARIMER ROAD, MACCLENNY, FL, 32063","Match","Exact","6096 LARIMER RD, MACCLENNY, FL, 32063",5109348,"L"
257310,"6096 RICHARDSON RD","WILLIAMSON","NY",14589,43.222208284,-77.128481901,310,"6096 RICHARDSON RD, WILLIAMSON, NY, 14589","Match","Exact","6096 RICHARDSON RD, WILLIAMSON, NY, 14589",14910677,"R"
257311,"6096 SUMMERVILLE DRIVE","GLOUCESTER","NV",23061,NA,NA,311,"6096 SUMMERVILLE DRIVE, GLOUCESTER, NV, 23061","No_Match",NA,NA,NA,NA
257312,"6096 W DRY CREEK ROAD","HIGHLAND","UT",84003,40.438987743,-111.80447714,312,"6096 W DRY CREEK ROAD, HIGHLAND, UT, 84003","Match","Non_Exact","6096 W DRY CREEK CIR, HIGHLAND, UT, 84003",635581544,"R"
257313,"6096 WOODS VALLEY RD","CUMBERLAND FURNACECU","TN",37051,36.327150746,-87.408498315,313,"6096 WOODS VALLEY RD, CUMBERLAND FURNACECU, TN, 37051","Match","Non_Exact","6096 WOODS VALLEY RD, CUMBERLAND FURNACE, TN, 37051",639665336,"R"
257314,"6097 COOPER COLONY DR","WESTERVILLE","OH",43081,40.095493128,-82.9340133159999,314,"6097 COOPER COLONY DR, WESTERVILLE, OH, 43081","Match","Exact","6097 COOPER COLONY DR, WESTERVILLE, OH, 43081",135765408,"L"
257315,"6097 FOUNTAIN DR","FREDERICK","MD",21702,39.464758901,-77.45520522,315,"6097 FOUNTAIN DR, FREDERICK, MD, 21702","Match","Exact","6097 FOUNTAIN DR, FREDERICK, MD, 21702",60671726,"R"
257316,"6097 QUEENS RIVER DR","MABLETON","GA",30126,33.795526814,-84.5285015859999,316,"6097 QUEENS RIVER DR, MABLETON, GA, 30126","Match","Exact","6097 QUEENS RIVER DR, MABLETON, GA, 30126",634051811,"L"
257317,"6097 SANDGATE ROAD","COLUMBUS","OH",43229,40.091771012,-82.96959613,317,"6097 SANDGATE ROAD, COLUMBUS, OH, 43229","Match","Exact","6097 SANDGATE RD, COLUMBUS, OH, 43229",218686940,"L"
257318,"6097 WESTGATE HWY","EATON RAPIDS","MI",48827,42.4506455320001,-84.717008334,318,"6097 WESTGATE HWY, EATON RAPIDS, MI, 48827","Match","Exact","6097 WESTGATE HWY, EATON RAPIDS, MI, 48827",12037975,"L"
257319,"6098 PINECROFT DRIVE","WEST BLOOMFIELD","MI",48322,42.5488492790001,-83.367606684,319,"6098 PINECROFT DRIVE, WEST BLOOMFIELD, MI, 48322","Match","Exact","6098 PINECROFT DR, W BLOOMFIELD, MI, 48322",69722162,"R"
257320,"6098 SOUTH KENTON STREET","ENGLEWOOD","CO",80111,39.6059429320001,-104.860461052,320,"6098 SOUTH KENTON STREET, ENGLEWOOD, CO, 80111","Match","Exact","6098 S KENTON ST, ENGLEWOOD, CO, 80111",177546350,"L"
257321,"6098 SQUIRE PLACE","AURORA","IN",47001,39.0628349140001,-84.9223950209999,321,"6098 SQUIRE PLACE, AURORA, IN, 47001","Match","Exact","6098 SQUIRE PL, AURORA, IN, 47001",76875296,"L"
257322,"6099 ALLPOINT WAY","FAIRBURN","GA",30213,33.5907903350001,-84.6384559369999,322,"6099 ALLPOINT WAY, FAIRBURN, GA, 30213","Match","Exact","6099 ALLPOINT WAY, FAIRBURN, GA, 30213",629550580,"R"
257323,"6099 CALKINS RD","FLINT","MI",48532,43.016358107,-83.796494337,323,"6099 CALKINS RD, FLINT, MI, 48532","Match","Exact","6099 CALKINS RD, FLINT, MI, 48532",69594403,"L"
257324,"6099 COUNTY ROAD B","BELGIUM","WI",53004,NA,NA,324,"6099 COUNTY ROAD B, BELGIUM, WI, 53004","No_Match",NA,NA,NA,NA
257325,"6099 STIRLING ROAD SUITE 215","DAVIE","FL",33314,26.0464703280001,-80.2178611319999,325,"6099 STIRLING ROAD SUITE 215, DAVIE, FL, 33314","Match","Exact","6099 STIRLING RD, DAVIE, FL, 33314",608972614,"R"
257326,"6099 W 5200 S","HOOPER","UT",84315,41.1693012860001,-112.127252964,326,"6099 W 5200 S, HOOPER, UT, 84315","Match","Exact","6099 W 5200 S, HOOPER, UT, 84315",605792458,"L"
257327,"6099 WALNUT HILL DRIVE","LAKE WORTH","FL",33467,26.5879646240001,-80.196356307,327,"6099 WALNUT HILL DRIVE, LAKE WORTH, FL, 33467","Match","Exact","6099 WALNUT HILL DR, LAKE WORTH, FL, 33467",627883004,"R"
257328,"60991 SNOWBRUSH DRIVE","BEND","OR",97702,44.0193951740001,-121.341990743,328,"60991 SNOWBRUSH DRIVE, BEND, OR, 97702","Match","Exact","60991 SNOWBRUSH DR, BEND, OR, 97702",627416885,"L"
257329,"609A PINER RD SMB108","WILMINGTON","NC",28409,34.1387966660001,-77.890958516,329,"609A PINER RD SMB108, WILMINGTON, NC, 28409","Match","Exact","609 PINER RD, WILMINGTON, NC, 28409",152759386,"L"
257330,"609A PINER ROAD SMB 108","WILMINGTON","NC",28409,34.1387966660001,-77.890958516,330,"609A PINER ROAD SMB 108, WILMINGTON, NC, 28409","Match","Exact","609 PINER RD, WILMINGTON, NC, 28409",152759386,"L"
257331,"60A EAST MCDERMOTT DRIVE","ALLEN","TX",75002,33.1010599300001,-96.669971695,331,"60A EAST MCDERMOTT DRIVE, ALLEN, TX, 75002","Match","Exact","60 E MCDERMOTT DR, ALLEN, TX, 75002",123524744,"L"
257332,"60C NORTH JEFFERSON RD","WHIPPANY","NJ",7981,40.8365826780001,-74.428219751,332,"60C NORTH JEFFERSON RD, WHIPPANY, NJ, 7981","Match","Exact","60 N JEFFERSON RD, WHIPPANY, NJ, 07981",60467023,"R"
257333,"60C NORTH JEFFERSON ROAD","WHIPPANY","NJ",7981,40.8365826780001,-74.428219751,333,"60C NORTH JEFFERSON ROAD, WHIPPANY, NJ, 7981","Match","Exact","60 N JEFFERSON RD, WHIPPANY, NJ, 07981",60467023,"R"
257334,"60F COMMERCE WAY","TOTOWA","NJ",7512,40.9087624580001,-74.239172383,334,"60F COMMERCE WAY, TOTOWA, NJ, 7512","Match","Exact","60 COMMERCE WAY, TOTOWA, NJ, 07512",65282401,"L"
257335,"61 11TH AVE WEST 1ST FLOOR","NEWARK","NJ",7107,40.7463196420001,-74.195546669,335,"61 11TH AVE WEST 1ST FLOOR, NEWARK, NJ, 7107","Match","Non_Exact","61 11TH AVE, NEWARK, NJ, 07107",63465649,"R"
257336,"61 5TH STREET","FORDS","NJ",8863,40.5318840950001,-74.315342302,336,"61 5TH STREET, FORDS, NJ, 8863","Match","Exact","61 5TH ST, FORDS, NJ, 08863",60279213,"L"
257337,"61 ABBOT AVE","NO MERRICK","NY",11566,40.680066385,-73.558320082,337,"61 ABBOT AVE, NO MERRICK, NY, 11566","Match","Exact","61 ABBOT AVE, N MERRICK, NY, 11566",147634889,"L"
257338,"61 ADDISON DRIVE","SHORT HILLS","NJ",7078,40.733469943,-74.348381216,338,"61 ADDISON DRIVE, SHORT HILLS, NJ, 7078","Match","Exact","61 ADDISON DR, SHORT HILLS, NJ, 07078",63494951,"L"
257339,"61 AMARA LANE","WESTAMPTON","NJ",8046,NA,NA,339,"61 AMARA LANE, WESTAMPTON, NJ, 8046","No_Match",NA,NA,NA,NA
257340,"61 APPLETON STREET","QUINCY","MA",2171,42.2821425980001,-71.021375814,340,"61 APPLETON STREET, QUINCY, MA, 2171","Match","Exact","61 APPLETON ST, QUINCY, MA, 02171",87248619,"R"
257341,"61 AVA DRIVE","EAST MEADOW","NY",11554,40.7271843190001,-73.563224372,341,"61 AVA DRIVE, EAST MEADOW, NY, 11554","Match","Exact","61 AVA DR, EAST MEADOW, NY, 11554",147632352,"L"
257342,"61 AVENUE W 7G","BROOKLYN","NY",11223,NA,NA,342,"61 AVENUE W 7G, BROOKLYN, NY, 11223","No_Match",NA,NA,NA,NA
257343,"61 BARGER LANE","MOUNT SOLON","VA",22843,38.323388713,-79.1202301659999,343,"61 BARGER LANE, MOUNT SOLON, VA, 22843","Match","Exact","61 BARGER LN, MOUNT SOLON, VA, 22843",213444374,"L"
257344,"61 BASHORE CT BOX 1836","SILVERTHORNE","CO",80498,39.618535025,-106.100612759,344,"61 BASHORE CT BOX 1836, SILVERTHORNE, CO, 80498","Match","Exact","61 BASHORE CT, SILVERTHORNE, CO, 80498",634667043,"R"
257345,"61 BASSETT ROAD","BROCKTON","MA",2301,42.077823435,-71.0393705389999,345,"61 BASSETT ROAD, BROCKTON, MA, 2301","Match","Exact","61 BASSETT RD, BROCKTON, MA, 02301",87482502,"R"
257346,"61 BISCAYNE DR","BUFFALO","NY",14225,42.9280632790001,-78.7268171389999,346,"61 BISCAYNE DR, BUFFALO, NY, 14225","Match","Exact","61 BISCAYNE DR, BUFFALO, NY, 14225",48305916,"R"
257347,"61 BLUE HILL ROAD","GREAT BARRINGTON","MA",1230,42.210630791,-73.328349609,347,"61 BLUE HILL ROAD, GREAT BARRINGTON, MA, 1230","Match","Exact","61 BLUE HILL RD, GREAT BARRINGTON, MA, 01230",649724580,"L"
257348,"61 BOWMAN DRIVE","FEASTERVILLE TREVOSE","PA",19053,40.141032097,-74.990501626,348,"61 BOWMAN DRIVE, FEASTERVILLE TREVOSE, PA, 19053","Match","Exact","61 BOWMAN DR, FEASTERVILLE TREVOSE, PA, 19053",647089545,"R"
257349,"61 BRETTONWOODS DR","CRANSTON","RI",2920,41.7714938780001,-71.4650024589999,349,"61 BRETTONWOODS DR, CRANSTON, RI, 2920","Match","Exact","61 BRETTONWOODS DR, CRANSTON, RI, 02920",47470407,"R"
257350,"61 BRIDGEPORT","IRVINE","CA",92620,33.706165109,-117.774693153,350,"61 BRIDGEPORT, IRVINE, CA, 92620","Match","Exact","61 BRIDGEPORT, IRVINE, CA, 92620",144091405,"R"
257351,"61 BRIDLE PATH CIRCLE SUITE 319","RANDOLPH","MA",2368,42.1630656630001,-71.050801357,351,"61 BRIDLE PATH CIRCLE SUITE 319, RANDOLPH, MA, 2368","Match","Exact","61 BRIDLE PATH CIR, RANDOLPH, MA, 02368",645297736,"R"
257352,"61 BRUCE ROAD","NEWCASTLE","WY",82701,43.702015714,-104.689508681,352,"61 BRUCE ROAD, NEWCASTLE, WY, 82701","Match","Exact","61 BRUCE RD, NEWCASTLE, WY, 82701",147494472,"L"
257353,"61 CALLAWAY COURT","HIRAM","GA",30141,33.8249601530001,-84.818777396,353,"61 CALLAWAY COURT, HIRAM, GA, 30141","Match","Exact","61 CALLAWAY CT, HIRAM, GA, 30141",207993302,"L"
257354,"61 CAREY AVENUE","WILKES BARRE","PA",18702,41.2412992970001,-75.898777401,354,"61 CAREY AVENUE, WILKES BARRE, PA, 18702","Match","Exact","61 CAREY AVE, WILKES BARRE, PA, 18702",80938525,"R"
257355,"61 CARIBOU COURT","READING","PA",19606,40.323093343,-75.852163886,355,"61 CARIBOU COURT, READING, PA, 19606","Match","Exact","61 CARIBOU CT, READING, PA, 19606",80407164,"R"
257356,"61 CAROLINA CT","CRAWFORDVILLE","FL",32327,30.1257388940001,-84.4000625579999,356,"61 CAROLINA CT, CRAWFORDVILLE, FL, 32327","Match","Exact","61 CAROLINA CT, CRAWFORDVILLE, FL, 32327",653180994,"R"
257357,"61 CHANDLER DRIVE","MARSHFIELD","MA",2050,42.100640684,-70.692196049,357,"61 CHANDLER DRIVE, MARSHFIELD, MA, 2050","Match","Exact","61 CHANDLER DR, MARSHFIELD, MA, 02050",87434908,"R"
257358,"61 CHURCH AVE","COLDSPRING","TX",77331,30.5930724300001,-95.129491828,358,"61 CHURCH AVE, COLDSPRING, TX, 77331","Match","Non_Exact","61 CHURCH ST, COLDSPRING, TX, 77331",24269656,"L"
257359,"61 CHURCH ST","AMSTERDAM","NY",12010,42.938394149,-74.189624997,359,"61 CHURCH ST, AMSTERDAM, NY, 12010","Match","Exact","61 CHURCH ST, AMSTERDAM, NY, 12010",18616509,"R"
257360,"61 CIVEY BLVD","BIXBY","MO",65439,37.660938695,-91.1115736959999,360,"61 CIVEY BLVD, BIXBY, MO, 65439","Match","Exact","61 CIVEY BLVD, BIXBY, MO, 65439",62595430,"R"
257361,"61 CLIFTON PARK","MELROSE","MA",2176,42.4707108440001,-71.070692154,361,"61 CLIFTON PARK, MELROSE, MA, 2176","Match","Exact","61 CLIFTON PARK, MELROSE, MA, 02176",87086069,"R"
257362,"61 COLDEVIN ROAD","CLARK","NJ",7066,40.6377992170001,-74.2957785369999,362,"61 COLDEVIN ROAD, CLARK, NJ, 7066","Match","Exact","61 COLDEVIN RD, CLARK, NJ, 07066",60582910,"R"
257363,"61 COLUMBIA DR","DAYTON","NV",89403,39.2979518720001,-119.517652856,363,"61 COLUMBIA DR, DAYTON, NV, 89403","Match","Exact","61 COLUMBIA DR, DAYTON, NV, 89403",614348690,"R"
257364,"61 COUNTY ROAD 5529","TROY","AL",36081,NA,NA,364,"61 COUNTY ROAD 5529, TROY, AL, 36081","No_Match",NA,NA,NA,NA
257365,"61 CRANE ROAD","ELLINGTON","CT",6029,41.9102824400001,-72.5102759649999,365,"61 CRANE ROAD, ELLINGTON, CT, 6029","Match","Exact","61 CRANE RD, ELLINGTON, CT, 06029",623916253,"R"
257366,"61 DALES AVE APT 1113","JERSEY CITY","NJ",7306,40.735967848,-74.0761925589999,366,"61 DALES AVE APT 1113, JERSEY CITY, NJ, 7306","Match","Exact","61 DALES AVE, JERSEY CITY, NJ, 07306",59612607,"L"
257367,"61 DEERING ST APT 4","PORTLAND","ME",4101,43.6542258040001,-70.268441975,367,"61 DEERING ST APT 4, PORTLAND, ME, 4101","Match","Exact","61 DEERING ST, PORTLAND, ME, 04101",78028101,"R"
257368,"61 DOGLEG LANE","ROSLYN HEIGHTS","NY",11577,40.775054504,-73.6278669449999,368,"61 DOGLEG LANE, ROSLYN HEIGHTS, NY, 11577","Match","Exact","61 DOGLEG LN, ROSLYN HEIGHTS, NY, 11577",147664484,"L"
257369,"61 DOGWOOD DRIVE","ANDOVER","OH",44003,41.604439466,-80.549332638,369,"61 DOGWOOD DRIVE, ANDOVER, OH, 44003","Match","Exact","61 DOGWOOD DR, ANDOVER, OH, 44003",117332492,"L"
257370,"61 EAST 119TH ST FLOOR 1","NEW YORK","NY",10035,40.8017180310001,-73.9429375079999,370,"61 EAST 119TH ST FLOOR 1, NEW YORK, NY, 10035","Match","Exact","61 E 119TH ST, NEW YORK, NY, 10035",59658002,"L"
257371,"61 EAST COLUMBUS AVE","PHOENIX","AZ",85012,33.489685858,-112.07269817,371,"61 EAST COLUMBUS AVE, PHOENIX, AZ, 85012","Match","Exact","61 E COLUMBUS AVE, PHOENIX, AZ, 85012",128208823,"R"
257372,"61 EAST COLUMBUS AVENUE","PHOENIX","AZ",85012,33.489685858,-112.07269817,372,"61 EAST COLUMBUS AVENUE, PHOENIX, AZ, 85012","Match","Exact","61 E COLUMBUS AVE, PHOENIX, AZ, 85012",128208823,"R"
257373,"61 EDGEWOOD ST","TENAFLY","NJ",7670,40.9156478420001,-73.955418443,373,"61 EDGEWOOD ST, TENAFLY, NJ, 7670","Match","Exact","61 EDGEWOOD ST, TENAFLY, NJ, 07670",64374941,"L"
257374,"61 ELMFORD RD","ROCHESTER","NY",14606,43.1703362580001,-77.741656775,374,"61 ELMFORD RD, ROCHESTER, NY, 14606","Match","Exact","61 ELMFORD RD, ROCHESTER, NY, 14606",14528509,"L"
257375,"61 ESTATE ROW","STAFFORD","VA",22554,38.4037523580001,-77.3771761529999,375,"61 ESTATE ROW, STAFFORD, VA, 22554","Match","Exact","61 ESTATE ROW, STAFFORD, VA, 22554",635807229,"L"
257376,"61 FAIRLANE CT","MADISON","WI",53713,43.032060646,-89.359349015,376,"61 FAIRLANE CT, MADISON, WI, 53713","Match","Exact","61 FAIRLANE CT, MADISON, WI, 53713",49474010,"L"
257377,"61 FARIES PARKWAY/PO BOX 3062","DECATUR","IL",62524,NA,NA,377,"61 FARIES PARKWAY/PO BOX 3062, DECATUR, IL, 62524","No_Match",NA,NA,NA,NA
257378,"61 FIELDSTONE DRIVE","coventry","RI",2816,41.717857682,-71.5961472769999,378,"61 FIELDSTONE DRIVE, coventry, RI, 2816","Match","Exact","61 FIELDSTONE DR, COVENTRY, RI, 02816",641066511,"L"
257379,"61 FITZGERALD DRIVE","EAST HARTFORD","CT",6118,41.7503111670001,-72.59109875,379,"61 FITZGERALD DRIVE, EAST HARTFORD, CT, 6118","Match","Exact","61 FITZGERALD DR, EAST HARTFORD, CT, 06118",647252122,"L"
257380,"61 FOUNTAIN ST","FRAMINGHAM","MA",1702,42.275699538,-71.427324023,380,"61 FOUNTAIN ST, FRAMINGHAM, MA, 1702","Match","Exact","61 FOUNTAIN ST, FRAMINGHAM, MA, 01702",86916354,"R"
257381,"61 FRANKLIN STREET","BRANDON","VT",5733,43.7942722880001,-73.079866653,381,"61 FRANKLIN STREET, BRANDON, VT, 5733","Match","Exact","61 FRANKLIN ST, BRANDON, VT, 05733",138943099,"L"
257382,"61 GEYSER ROAD","SARATOGA SPRINGS","NY",12866,43.059734303,-73.818169621,382,"61 GEYSER ROAD, SARATOGA SPRINGS, NY, 12866","Match","Exact","61 GEYSER RD, SARATOGA SPGS, NY, 12866",18815285,"L"
257383,"61 GLENWOOD DRIVE","HAUPPAUGE","NY",11788,40.827897223,-73.2549067909999,383,"61 GLENWOOD DRIVE, HAUPPAUGE, NY, 11788","Match","Exact","61 GLENWOOD DR, HAUPPAUGE, NY, 11788",114056697,"R"
257384,"61 GREEN MEADOW LANE","HUNTINGTON","NY",11743,40.836110057,-73.4479738589999,384,"61 GREEN MEADOW LANE, HUNTINGTON, NY, 11743","Match","Non_Exact","61 GREENMEADOW LN, HUNTINGTON, NY, 11743",113962875,"L"
257385,"61 GREENWOOD STREET","DORCHESTER","MA",2121,42.299775778,-71.079891897,385,"61 GREENWOOD STREET, DORCHESTER, MA, 2121","Match","Exact","61 GREENWOOD ST, DORCHESTER, MA, 02121",85701707,"R"
257386,"61 HAA HAA ST","MAKAWAO","HI",96768,20.837650726,-156.335767786,386,"61 HAA HAA ST, MAKAWAO, HI, 96768","Match","Non_Exact","61 HAAHAA ST, MAKAWAO, HI, 96768",85089081,"L"
257387,"61 HALLIDAY HEIGHTS","GALLIPOLIS","OH",45631,38.802484232,-82.217760013,387,"61 HALLIDAY HEIGHTS, GALLIPOLIS, OH, 45631","Match","Exact","61 HALLIDAY HTS, GALLIPOLIS, OH, 45631",635592516,"L"
257388,"61 HARVEY ST","SPFLD","MA",1119,42.1383137460001,-72.522919563,388,"61 HARVEY ST, SPFLD, MA, 1119","Match","Non_Exact","61 HARVEY ST, SPRINGFIELD, MA, 01119",4024546,"L"
257389,"61 HENRY ST","SAN FRANCISCO","CA",94114,37.766713441,-122.432428929,389,"61 HENRY ST, SAN FRANCISCO, CA, 94114","Match","Exact","61 HENRY ST, SAN FRANCISCO, CA, 94114",192284030,"L"
257390,"61 HI JINX DRIVE","LAWRENCEVILLE","GA",30043,33.981228952,-83.996747914,390,"61 HI JINX DRIVE, LAWRENCEVILLE, GA, 30043","Match","Exact","61 HI JINX DR, LAWRENCEVILLE, GA, 30043",88907135,"R"
257391,"61 HILLSIDE DRIVE","GREENWICH","CT",6830,41.04432473,-73.6235507,391,"61 HILLSIDE DRIVE, GREENWICH, CT, 6830","Match","Exact","61 HILLSIDE DR, GREENWICH, CT, 06830",3243399,"R"
257392,"61 HONEY CRISP LANE","PIKE ROAD","AL",36064,32.3341192990001,-86.028006437,392,"61 HONEY CRISP LANE, PIKE ROAD, AL, 36064","Match","Exact","61 HONEY CRISP LN, PIKE ROAD, AL, 36064",650690990,"L"
257393,"61 INKBERRY DRIVE","WAKEFIELD","RI",2879,41.451618453,-71.522394408,393,"61 INKBERRY DRIVE, WAKEFIELD, RI, 2879","Match","Exact","61 INKBERRY DR, WAKEFIELD, RI, 02879",58912871,"R"
257394,"61 ISLAND BLVD","FOX ISLAND","WA",98333,47.27503303,-122.665798477,394,"61 ISLAND BLVD, FOX ISLAND, WA, 98333","Match","Exact","61 ISLAND BLVD, FOX ISLAND, WA, 98333",184617127,"L"
257395,"61 JEFFERSON AVE APT 1","JERSEY CITY","NJ",7306,40.7372945610001,-74.051863854,395,"61 JEFFERSON AVE APT 1, JERSEY CITY, NJ, 7306","Match","Exact","61 JEFFERSON AVE, JERSEY CITY, NJ, 07306",59605151,"L"
257396,"61 JEFFERSON AVENUE-APARTMENT 1","JERSEY CITY","NJ",7306,40.7372945610001,-74.051863854,396,"61 JEFFERSON AVENUE-APARTMENT 1, JERSEY CITY, NJ, 7306","Match","Non_Exact","61 JEFFERSON AVE, JERSEY CITY, NJ, 07306",59605151,"L"
257397,"61 KENBROOK CIR","SAN JOSE","CA",95111,NA,NA,397,"61 KENBROOK CIR, SAN JOSE, CA, 95111","No_Match",NA,NA,NA,NA
257398,"61 KIMBERLY AVE","NEW HAVEN","CT",6519,41.2903349800001,-72.9337779809999,398,"61 KIMBERLY AVE, NEW HAVEN, CT, 6519","Match","Exact","61 KIMBERLY AVE, NEW HAVEN, CT, 06519",3701762,"R"
257399,"61 KING ROAD","COCHRANVILLE","PA",19330,39.893376565,-75.959811322,399,"61 KING ROAD, COCHRANVILLE, PA, 19330","Match","Exact","61 KING RD, COCHRANVILLE, PA, 19330",179551340,"L"
257400,"61 KIOWA ROAD","LYONS","CO",80540,40.2774080720001,-105.359623565,400,"61 KIOWA ROAD, LYONS, CO, 80540","Match","Exact","61 KIOWA RD, LYONS, CO, 80540",188621336,"L"
257401,"61 LACONWOOD DR","SPRINGFIELD","IL",62712,39.7620586420001,-89.5850384189999,401,"61 LACONWOOD DR, SPRINGFIELD, IL, 62712","Match","Exact","61 LACONWOOD DR, SPRINGFIELD, IL, 62712",97341364,"L"
257402,"61 LAFAYETTE AVE","LAKE GROVE","NY",11755,40.8393870400001,-73.1191953869999,402,"61 LAFAYETTE AVE, LAKE GROVE, NY, 11755","Match","Exact","61 LAFAYETTE AVE, LAKE GROVE, NY, 11755",113991831,"L"
257403,"61 LAKE SHORE DRIVE SOUTH","ROCK HILL","NY",12775,41.6019835860001,-74.582473207,403,"61 LAKE SHORE DRIVE SOUTH, ROCK HILL, NY, 12775","Match","Exact","61 LAKE SHORE DR S, ROCK HILL, NY, 12775",128988565,"L"
257404,"61 LAUMAKANI LOOP","KIHEI","HI",96753,20.7532939920001,-156.452930977,404,"61 LAUMAKANI LOOP, KIHEI, HI, 96753","Match","Exact","61 LAUMAKANI LOOP, KIHEI, HI, 96753",85093500,"R"
257405,"61 LAUREL ROAD","NYACK","NY",10960,41.091818441,-73.943732837,405,"61 LAUREL ROAD, NYACK, NY, 10960","Match","Exact","61 LAUREL RD, NYACK, NY, 10960",124598697,"R"
257406,"61 LAVENTHAL AVENUE","IRVINGTON","NJ",7111,40.7122140660001,-74.2397503729999,406,"61 LAVENTHAL AVENUE, IRVINGTON, NJ, 7111","Match","Exact","61 LAVENTHAL AVE, IRVINGTON, NJ, 07111",63463775,"L"
257407,"61 LEXINGTON AVENUE UNIT 1-A","NEW YORK","NY",10010,40.7408376820001,-73.983767937,407,"61 LEXINGTON AVENUE UNIT 1-A, NEW YORK, NY, 10010","Match","Exact","61 LEXINGTON AVE, NEW YORK, NY, 10010",59654537,"R"
257408,"61 LITTLE STREET SE","ATLANTA","GA",30315,33.73314119,-84.385769626,408,"61 LITTLE STREET SE, ATLANTA, GA, 30315","Match","Exact","61 LITTLE ST SE, ATLANTA, GA, 30315",635610486,"R"
257409,"61 LIVINGSTON AVE","EDISON","NJ",8820,40.578370707,-74.34736349,409,"61 LIVINGSTON AVE, EDISON, NJ, 8820","Match","Exact","61 LIVINGSTON AVE, EDISON, NJ, 08820",60319204,"R"
257410,"61 LOCUST STREET SUITE 322","DOVER","NH",3820,43.193683422,-70.875501272,410,"61 LOCUST STREET SUITE 322, DOVER, NH, 3820","Match","Exact","61 LOCUST ST, DOVER, NH, 03820",117819959,"R"
257411,"61 LOWER GUINEA RD","LEBANON","ME",4027,43.3663413960001,-70.8812255029999,411,"61 LOWER GUINEA RD, LEBANON, ME, 4027","Match","Exact","61 LOWER GUINEA RD, LEBANON, ME, 04027",92758637,"L"
257412,"61 LUDDINGTON ROAD","WEST ORANGE","NJ",7052,40.760774149,-74.262343272,412,"61 LUDDINGTON ROAD, WEST ORANGE, NJ, 7052","Match","Exact","61 LUDDINGTON RD, WEST ORANGE, NJ, 07052",63460930,"R"
257413,"61 LUTHER DRIVE","SOUTHBURY","CT",6488,41.475451078,-73.1729937659999,413,"61 LUTHER DRIVE, SOUTHBURY, CT, 6488","Match","Exact","61 LUTHER DR, SOUTHBURY, CT, 06488",635788373,"L"
257414,"61 MAIN STREET","ASHLAND","MS",38603,34.83649745,-89.176359473,414,"61 MAIN STREET, ASHLAND, MS, 38603","Match","Exact","61 MAIN ST, ASHLAND, MS, 38603",72805992,"L"
257415,"61 MAN O WAR LANE","FAIRVIEW","TX",75069,33.1260513820001,-96.596444294,415,"61 MAN O WAR LANE, FAIRVIEW, TX, 75069","Match","Exact","61 MAN O WAR LN, FAIRVIEW, TX, 75069",123495550,"L"
257416,"61 MARC DR","RIDGE","NY",11961,40.9060190220001,-72.889624273,416,"61 MARC DR, RIDGE, NY, 11961","Match","Exact","61 MARC DR, RIDGE, NY, 11961",114237031,"L"
257417,"61 MCKNIGHT RD","MCCLURE","PA",17841,40.7258423930001,-77.3496672319999,417,"61 MCKNIGHT RD, MCCLURE, PA, 17841","Match","Non_Exact","61 MCKNIGHT RD, MC CLURE, PA, 17841",47791785,"R"
257418,"61 MCMURRAY ROAD          SUITE 105","PITTSBURGH","PA",15241,40.327392011,-80.066073435,418,"61 MCMURRAY ROAD          SUITE 105, PITTSBURGH, PA, 15241","Match","Exact","61 MCMURRAY RD, PITTSBURGH, PA, 15241",51656719,"L"
257419,"61 MEADOWLARK ACRES DRIVE","KEYSER","WV",26726,NA,NA,419,"61 MEADOWLARK ACRES DRIVE, KEYSER, WV, 26726","No_Match",NA,NA,NA,NA
257420,"61 MEMORY LANE","FT THOMAS","KY",41075,39.10312643,-84.45236743,420,"61 MEMORY LANE, FT THOMAS, KY, 41075","Match","Exact","61 MEMORY LN, FORT THOMAS, KY, 41075",104448771,"L"
257421,"61 MOFFETT STREET","LANCASTER","MA",1523,42.4233735720001,-71.7125800969999,421,"61 MOFFETT STREET, LANCASTER, MA, 1523","Match","Exact","61 MOFFETT ST, LANCASTER, MA, 01523",40061129,"L"
257422,"61 MOORE HARBOR ROAD","ISLE AU HAUT","ME",4645,NA,NA,422,"61 MOORE HARBOR ROAD, ISLE AU HAUT, ME, 4645","No_Match",NA,NA,NA,NA
257423,"61 MORNINGSIDE DRIVE","MILFORD","CT",6460,41.2116465720001,-73.007902708,423,"61 MORNINGSIDE DRIVE, MILFORD, CT, 6460","Match","Exact","61 MORNINGSIDE DR, MILFORD, CT, 06460",3716170,"R"
257424,"61 MURPH AVENUE","HAGERSTOWN","MD",21740,39.6474084610001,-77.7188309159999,424,"61 MURPH AVENUE, HAGERSTOWN, MD, 21740","Match","Exact","61 MURPH AVE, HAGERSTOWN, MD, 21740",60787835,"L"
257425,"61 N HURON ST","YPSILANTI","MI",48197,42.241773746,-83.61309933,425,"61 N HURON ST, YPSILANTI, MI, 48197","Match","Exact","61 N HURON ST, YPSILANTI, MI, 48197",26020862,"L"
257426,"61 NE 1ST STREET STE C","POMPANO BEACH","FL",33060,NA,NA,426,"61 NE 1ST STREET STE C, POMPANO BEACH, FL, 33060","Tie",NA,NA,NA,NA
257427,"61 NORTH SHORE DRIVE APT 3","BELGRADE","MT",59714,45.7765801960001,-111.219823827,427,"61 NORTH SHORE DRIVE APT 3, BELGRADE, MT, 59714","Match","Exact","61 N SHORE DR, BELGRADE, MT, 59714",163568813,"L"
257428,"61 OAK HILL DRIVE","JOHNSTON","RI",2919,NA,NA,428,"61 OAK HILL DRIVE, JOHNSTON, RI, 2919","Tie",NA,NA,NA,NA
257429,"61 OLD FORGE ROAD","CALLAWAY","VA",24067,37.0107729210001,-80.033770983,429,"61 OLD FORGE ROAD, CALLAWAY, VA, 24067","Match","Exact","61 OLD FORGE RD, CALLAWAY, VA, 24067",56429742,"R"
257430,"61 OUR WAY","SPARTA","NC",28675,36.4759610410001,-81.121918207,430,"61 OUR WAY, SPARTA, NC, 28675","Match","Exact","61 OUR WAY, SPARTA, NC, 28675",154017601,"R"
257431,"61 OVERHIL TRAIL","DOUGLAS","WY",82633,42.7654068850001,-105.322297382,431,"61 OVERHIL TRAIL, DOUGLAS, WY, 82633","Match","Exact","61 OVERHIL TRL, DOUGLAS, WY, 82633",635660606,"L"
257432,"61 PARK BLVD","YAPHANK","NY",11980,40.845888712,-72.9405146129999,432,"61 PARK BLVD, YAPHANK, NY, 11980","Match","Exact","61 PARK BLVD, YAPHANK, NY, 11980",114013974,"R"
257433,"61 PEAR ST","TINTON FALLS","NJ",7724,40.3327140280001,-74.081169088,433,"61 PEAR ST, TINTON FALLS, NJ, 7724","Match","Exact","61 PEAR ST, TINTON FALLS, NJ, 07724",90487862,"L"
257434,"61 PEMBERTON STREET SUITE 3","CAMBRIDGE","MA",2140,42.391017472,-71.126245175,434,"61 PEMBERTON STREET SUITE 3, CAMBRIDGE, MA, 2140","Match","Exact","61 PEMBERTON ST, CAMBRIDGE, MA, 02140",86892417,"L"
257435,"61 PINEBROOK ROAD","MANALAPAN","NJ",7726,40.317087144,-74.344417117,435,"61 PINEBROOK ROAD, MANALAPAN, NJ, 7726","Match","Exact","61 PINEBROOK RD, MANALAPAN, NJ, 07726",90531777,"L"
257436,"61 PINEHILL TRAIL EAST","TEQUESTA","FL",33469,26.9662199480001,-80.0936692779999,436,"61 PINEHILL TRAIL EAST, TEQUESTA, FL, 33469","Match","Exact","61 PINEHILL TRL E, TEQUESTA, FL, 33469",115342064,"R"
257437,"61 PLEASANT ST","PORTLAND","ME",4101,43.6540436810001,-70.25864325,437,"61 PLEASANT ST, PORTLAND, ME, 4101","Match","Exact","61 PLEASANT ST, PORTLAND, ME, 04101",78028638,"R"
257438,"61 PO BOX","EAGLEVILLE","TN",37060,NA,NA,438,"61 PO BOX, EAGLEVILLE, TN, 37060","No_Match",NA,NA,NA,NA
257439,"61 PORTER RD","GRAYSON","KY",41143,38.186592761,-82.9676045959999,439,"61 PORTER RD, GRAYSON, KY, 41143","Match","Exact","61 PORTER RD, GRAYSON, KY, 41143",39593266,"R"
257440,"61 RAVEN LN","ALISO VIEJO","CA",92656,33.597270994,-117.73421404,440,"61 RAVEN LN, ALISO VIEJO, CA, 92656","Match","Exact","61 RAVEN LN, ALISO VIEJO, CA, 92656",144398918,"L"
257441,"61 REDINGTON ST","LITTLETON","NH",3561,44.306425668,-71.7506847559999,441,"61 REDINGTON ST, LITTLETON, NH, 3561","Match","Exact","61 REDINGTON ST, LITTLETON, NH, 03561",145679618,"R"
257442,"61 REMINGTON LANE","ALISO VIEJO","CA",92656,33.5653679500001,-117.741339253,442,"61 REMINGTON LANE, ALISO VIEJO, CA, 92656","Match","Exact","61 REMINGTON LN, ALISO VIEJO, CA, 92656",144423050,"R"
257443,"61 RICHARDS RD","SOUTHBOROUGH","MA",1772,42.2746669300001,-71.531111107,443,"61 RICHARDS RD, SOUTHBOROUGH, MA, 1772","Match","Exact","61 RICHARDS RD, SOUTHBOROUGH, MA, 01772",40110071,"R"
257444,"61 ROCK SPRING RD APT 37","STAMFORD","CT",6906,41.066750475,-73.530565505,444,"61 ROCK SPRING RD APT 37, STAMFORD, CT, 6906","Match","Exact","61 ROCK SPRING RD, STAMFORD, CT, 06906",3243321,"R"
257445,"61 ROCKSPRING ROAD NO 37","STAMFORD","CT",6906,41.066750475,-73.530565505,445,"61 ROCKSPRING ROAD NO 37, STAMFORD, CT, 6906","Match","Non_Exact","61 ROCK SPRING RD, STAMFORD, CT, 06906",3243321,"R"
257446,"61 ROYAL","SPRINGBORO","OH",45066,39.558003129,-84.241837069,446,"61 ROYAL, SPRINGBORO, OH, 45066","Match","Non_Exact","61 ROYAL DR, SPRINGBORO, OH, 45066",159019382,"L"
257447,"61 S BALDWIN AVE 1524","SIERRA MADRE","CA",91025,NA,NA,447,"61 S BALDWIN AVE 1524, SIERRA MADRE, CA, 91025","No_Match",NA,NA,NA,NA
257448,"61 S GLENWOOD AVENUE","ALDAN","PA",19018,39.921331632,-75.284132466,448,"61 S GLENWOOD AVENUE, ALDAN, PA, 19018","Match","Exact","61 S GLENWOOD AVE, ALDAN, PA, 19018",134884437,"L"
257449,"61 S PIER RD","NARRAGANSETT","RI",2882,41.423626589,-71.4601165189999,449,"61 S PIER RD, NARRAGANSETT, RI, 2882","Match","Exact","61 S PIER RD, NARRAGANSETT, RI, 02882",650891984,"L"
257450,"61 SANDERLING AVENUE","POWELL","OH",43065,40.175728744,-83.079822629,450,"61 SANDERLING AVENUE, POWELL, OH, 43065","Match","Exact","61 SANDERLING AVE, POWELL, OH, 43065",24600687,"R"
257451,"61 SCHOLAR LANE","COMMACK","NY",11725,40.859552234,-73.28139508,451,"61 SCHOLAR LANE, COMMACK, NY, 11725","Match","Exact","61 SCHOLAR LN, COMMACK, NY, 11725",113979839,"L"
257452,"61 SCHULER AVENUE","WALDWICK","NJ",7463,41.01602719,-74.1370512829999,452,"61 SCHULER AVENUE, WALDWICK, NJ, 7463","Match","Exact","61 SCHULER AVE, WALDWICK, NJ, 07463",64402675,"R"
257453,"61 SHORE DR","NORTH KINGSTOWN","RI",2852,41.553891021,-71.470373771,453,"61 SHORE DR, NORTH KINGSTOWN, RI, 2852","Match","Exact","61 SHORE DR, NORTH KINGSTOWN, RI, 02852",636488718,"R"
257454,"61 SHOREWOOD POINT","DANVILLE","IL",61832,40.1706875260001,-87.63597146,454,"61 SHOREWOOD POINT, DANVILLE, IL, 61832","Match","Exact","61 SHOREWOOD PT, DANVILLE, IL, 61832",65997602,"L"
257455,"61 SMITH CREEK DRIVE","DAYTON","WY",82836,44.900007277,-107.301433344,455,"61 SMITH CREEK DRIVE, DAYTON, WY, 82836","Match","Exact","61 SMITH CREEK DR, DAYTON, WY, 82836",605385880,"R"
257456,"61 SOUTH TULPEHOCKEN STREET","PINE GROVE","PA",17963,40.550734667,-76.3852637799999,456,"61 SOUTH TULPEHOCKEN STREET, PINE GROVE, PA, 17963","Match","Exact","61 S TULPEHOCKEN ST, PINE GROVE, PA, 17963",70952211,"R"
257457,"61 STANDISH ST","BRIDGEPORT","CT",6610,41.1970973860001,-73.175970892,457,"61 STANDISH ST, BRIDGEPORT, CT, 6610","Match","Exact","61 STANDISH ST, BRIDGEPORT, CT, 06610",3224930,"L"
257458,"61 STEEPLE ST","REVERE","MA",2151,42.4219476150001,-71.0135801279999,458,"61 STEEPLE ST, REVERE, MA, 2151","Match","Exact","61 STEEPLE ST, REVERE, MA, 02151",85707656,"R"
257459,"61 STEEPLE STREET","REVERE","MA",2151,42.4219476150001,-71.0135801279999,459,"61 STEEPLE STREET, REVERE, MA, 2151","Match","Exact","61 STEEPLE ST, REVERE, MA, 02151",85707656,"R"
257460,"61 STENGEL AVENUE","NEWARK","NJ",7112,40.7075055620001,-74.206692255,460,"61 STENGEL AVENUE, NEWARK, NJ, 7112","Match","Exact","61 STENGEL AVE, NEWARK, NJ, 07112",63466282,"R"
257461,"61 STONEHURST LANE","DIX HILLS","NY",11746,40.806496242,-73.29697909,461,"61 STONEHURST LANE, DIX HILLS, NY, 11746","Match","Exact","61 STONEHURST LN, DIX HILLS, NY, 11746",113982435,"L"
257462,"61 STONY HILL ROAD","BETHEL","CT",6804,41.435352795,-73.389664962,462,"61 STONY HILL ROAD, BETHEL, CT, 6804","Match","Non_Exact","61 STONY HILL RD, BROOKFIELD, CT, 06804",3233354,"R"
257463,"61 TARA TERRACE","BOURNE","MA",2532,41.711739826,-70.590557158,463,"61 TARA TERRACE, BOURNE, MA, 2532","Match","Exact","61 TARA TER, BOURNE, MA, 02532",121611086,"L"
257464,"61 TERRAPIN DRIVE","BRANDON","MS",39042,32.292493764,-90.0298483569999,464,"61 TERRAPIN DRIVE, BRANDON, MS, 39042","Match","Exact","61 TERRAPIN DR, BRANDON, MS, 39042",116907334,"L"
257465,"61 TWILL VALLEY DRIVE","SAINT PETERS","MO",63376,38.788700863,-90.573800316,465,"61 TWILL VALLEY DRIVE, SAINT PETERS, MO, 63376","Match","Exact","61 TWILL VALLEY DR, SAINT PETERS, MO, 63376",605554143,"L"
257466,"61 UNION BLVD","WALLINGTON","NJ",7057,40.8534091160001,-74.1143571429999,466,"61 UNION BLVD, WALLINGTON, NJ, 7057","Match","Exact","61 UNION BLVD, WALLINGTON, NJ, 07057",64394025,"L"
257467,"61 UPHILL AVENUE","WARWICK","RI",2886,41.7108909190001,-71.4213712439999,467,"61 UPHILL AVENUE, WARWICK, RI, 2886","Match","Exact","61 UPHILL AVE, WARWICK, RI, 02886",159149107,"R"
257468,"61 UPPER CHURCH STREET","WEST SPRINGFIELD","MA",1089,42.1029987590001,-72.638864333,468,"61 UPPER CHURCH STREET, WEST SPRINGFIELD, MA, 1089","Match","Exact","61 UPPER CHURCH ST, W SPRINGFIELD, MA, 01089",4032540,"L"
257469,"61 W 62ND ST","NEW YORK","NY",10023,40.7709194080001,-73.982940211,469,"61 W 62ND ST, NEW YORK, NY, 10023","Match","Exact","61 W 62ND ST, NEW YORK, NY, 10023",59657050,"R"
257470,"61 W ELM ST   PO BOX 226","SABINA","OH",45169,NA,NA,470,"61 W ELM ST   PO BOX 226, SABINA, OH, 45169","Tie",NA,NA,NA,NA
257471,"61 W OHIO AVE","RITTMAN","OH",44270,40.972762818,-81.7836509269999,471,"61 W OHIO AVE, RITTMAN, OH, 44270","Match","Exact","61 W OHIO AVE, RITTMAN, OH, 44270",624458129,"R"
257472,"61 W PALISADE AVE","ENGLEWOOD","NJ",7631,40.89556715,-73.9777048889999,472,"61 W PALISADE AVE, ENGLEWOOD, NJ, 7631","Match","Exact","61 W PALISADE AVE, ENGLEWOOD, NJ, 07631",64375221,"R"
257473,"61 W WAPATO RD","WAPATO","WA",98951,46.4478953980001,-120.431368365,473,"61 W WAPATO RD, WAPATO, WA, 98951","Match","Exact","61 W WAPATO RD, WAPATO, WA, 98951",651045546,"R"
257474,"61 W WOODSIDE DR","WILLIAMSBURG","KY",40769,36.7608787350001,-84.160352261,474,"61 W WOODSIDE DR, WILLIAMSBURG, KY, 40769","Match","Exact","61 W WOODSIDE DR, WILLIAMSBURG, KY, 40769",150161162,"L"
257475,"61 WASHINGTON STREET","NORWALK","CT",6854,41.099013305,-73.419002765,475,"61 WASHINGTON STREET, NORWALK, CT, 6854","Match","Exact","61 WASHINGTON ST, NORWALK, CT, 06854",3251247,"L"
257476,"61 WATERS EDGE","RYE","NY",10580,40.9591074100001,-73.681067892,476,"61 WATERS EDGE, RYE, NY, 10580","Match","Exact","61 WATERS EDGE, RYE, NY, 10580",139794010,"L"
257477,"61 WEST 127TH STREET","NEW YORK","NY",10027,40.808526145,-73.943226094,477,"61 WEST 127TH STREET, NEW YORK, NY, 10027","Match","Exact","61 W 127TH ST, NEW YORK, NY, 10027",59656437,"R"
257478,"61 WEST 680 NORTH","OREM","UT",84057,40.309319799,-111.697282759,478,"61 WEST 680 NORTH, OREM, UT, 84057","Match","Exact","61 W 680 N, OREM, UT, 84057",635352712,"L"
257479,"61 WEST 73RD STREET APT A","NEW YORK","NY",10023,40.777674523,-73.9772758359999,479,"61 WEST 73RD STREET APT A, NEW YORK, NY, 10023","Match","Exact","61 W 73RD ST, NEW YORK, NY, 10023",651706144,"R"
257480,"61 WEST AVE","LAWRENCE","NY",11559,40.637564952,-73.742770762,480,"61 WEST AVE, LAWRENCE, NY, 11559","Match","Exact","61 WEST AVE, LAWRENCE, NY, 11559",147656683,"L"
257481,"61 WILDER STREET","LOWELL","MA",1854,42.643535333,-71.333875166,481,"61 WILDER STREET, LOWELL, MA, 1854","Match","Exact","61 WILDER ST, LOWELL, MA, 01854",637113238,"R"
257482,"61 WOODS RD","HIGGANUM","CT",6441,41.4403380270001,-72.551891215,482,"61 WOODS RD, HIGGANUM, CT, 6441","Match","Exact","61 WOODS RD, HIGGANUM, CT, 06441",113883789,"L"
257483,"61 YELLOW MEETINGHOUSE ROAD","CREAM RIDGE","NJ",8514,40.1706318070001,-74.471729352,483,"61 YELLOW MEETINGHOUSE ROAD, CREAM RIDGE, NJ, 8514","Match","Exact","61 YELLOW MEETINGHOUSE RD, CREAM RIDGE, NJ, 08514",636499005,"R"
257484,"61-14 EAGLE LAKE LANE","SAN RAMON","CA",94582,37.785191459,-121.948491483,484,"61-14 EAGLE LAKE LANE, SAN RAMON, CA, 94582","Match","Exact","61 EAGLE LAKE LN, SAN RAMON, CA, 94582",635414537,"R"
257485,"61-163 IKUWAI PLACE","HALEIWA","HI",96712,21.6289131070001,-158.071003695,485,"61-163 IKUWAI PLACE, HALEIWA, HI, 96712","Match","Exact","61-163 IKUWAI PL, HALEIWA, HI, 96712",203257671,"L"
257486,"61-25 97TH STREET APT LE","REGO PARK","NY",11374,40.7337560820001,-73.86231629,486,"61-25 97TH STREET APT LE, REGO PARK, NY, 11374","Match","Exact","61-25 97TH ST, REGO PARK, NY, 11374",647384514,"L"
257487,"61-264 KAMEHAMEHA HIGHWAY APT A","HALEIWA","HI",96712,21.630974888,-158.071454372,487,"61-264 KAMEHAMEHA HIGHWAY APT A, HALEIWA, HI, 96712","Match","Exact","61-264 KAMEHAMEHA HWY, HALEIWA, HI, 96712",203251138,"R"
257488,"61-270 KAM HWY","HALEIWA","HI",96712,NA,NA,488,"61-270 KAM HWY, HALEIWA, HI, 96712","No_Match",NA,NA,NA,NA
257489,"61-33 163RD STREET","FRESH MEADOWS","NY",11365,40.737290552,-73.805720287,489,"61-33 163RD STREET, FRESH MEADOWS, NY, 11365","Match","Exact","61-33 163RD ST, FRESH MEADOWS, NY, 11365",59710172,"L"
257490,"61-34 162ND STREET","FRESH MEADOWS","NY",11365,40.737694027,-73.8066482199999,490,"61-34 162ND STREET, FRESH MEADOWS, NY, 11365","Match","Exact","61-34 162ND ST, FRESH MEADOWS, NY, 11365",59710168,"R"
257491,"61-43 186TH STREET","FRESH MEADOWS","NY",11365,40.739268129,-73.7879580969999,491,"61-43 186TH STREET, FRESH MEADOWS, NY, 11365","Match","Exact","61-43 186TH ST, FRESH MEADOWS, NY, 11365",59711597,"L"
257492,"61-55 98 STREET APT 1D","REGO PARK","NY",11374,40.7336813480001,-73.860224235,492,"61-55 98 STREET APT 1D, REGO PARK, NY, 11374","Match","Exact","61-55 98TH ST, REGO PARK, NY, 11374",650057422,"L"
257493,"61-55 JUNCTION BLVD","NEW YORK","NY",11374,NA,NA,493,"61-55 JUNCTION BLVD, NEW YORK, NY, 11374","No_Match",NA,NA,NA,NA
257494,"61-63 CREIGHTON STREET  UNIT 1","CAMBRIDGE","MA",2140,42.3896821020001,-71.1233424499999,494,"61-63 CREIGHTON STREET  UNIT 1, CAMBRIDGE, MA, 2140","Match","Exact","61 CREIGHTON ST, CAMBRIDGE, MA, 02140",86911607,"R"
257495,"61","ROWLEY","MA",1969,NA,NA,495,"61, ROWLEY, MA, 1969","No_Match",NA,NA,NA,NA
257496,"61","STORRS","CT",6268,NA,NA,496,"61, STORRS, CT, 6268","No_Match",NA,NA,NA,NA
257497,"610 13TH AVE","BELLE PLAINE","IA",52208,41.8970639300001,-92.279711484,497,"610 13TH AVE, BELLE PLAINE, IA, 52208","Match","Non_Exact","610 13TH ST, BELLE PLAINE, IA, 52208",94722442,"R"
257498,"610 14TH STREET","MODESTO","CA",95354,37.639682366,-120.992069363,498,"610 14TH STREET, MODESTO, CA, 95354","Match","Exact","610 14TH ST, MODESTO, CA, 95354",102604912,"R"
257499,"610 153RD ST SW","LYNNWOOD","WA",98087,47.8586114730001,-122.241919288,499,"610 153RD ST SW, LYNNWOOD, WA, 98087","Match","Exact","610 153RD ST SW, LYNNWOOD, WA, 98087",648623092,"L"
257500,"610 16TH ST STE 410","OAKLAND","CA",94612,37.8071966270001,-122.274270033,500,"610 16TH ST STE 410, OAKLAND, CA, 94612","Match","Exact","610 16TH ST, OAKLAND, CA, 94612",124996993,"L"
