"ID","Address","City","State","Zip","lat","long","id","input_address","match_indicator","match_type","matched_address","tiger_line_id","tiger_side"
278001,"710 S WHEELER STREET","GRIFFITH","IN",46319,NA,NA,1,"710 S WHEELER STREET, GRIFFITH, IN, 46319","No_Match",NA,NA,NA,NA
278002,"710 SE FRANCIS AVE","GRESHAM","OR",97080,45.492096202,-122.4108301,2,"710 SE FRANCIS AVE, GRESHAM, OR, 97080","Match","Exact","710 SE FRANCIS AVE, GRESHAM, OR, 97080",157530382,"L"
278003,"710 SETTLEMENT STREET","CEDAR PARK","TX",78613,30.5201825880001,-97.816299198,3,"710 SETTLEMENT STREET, CEDAR PARK, TX, 78613","Match","Exact","710 SETTLEMENT ST, CEDAR PARK, TX, 78613",126473579,"R"
278004,"710 SHARING TERRACE","GREENSBORO","NC",27405,36.072551692,-79.731197268,4,"710 SHARING TERRACE, GREENSBORO, NC, 27405","Match","Exact","710 SHARING TER, GREENSBORO, NC, 27405",635539945,"R"
278005,"710 SIBLEY DR","NORTHFIELD","MN",55057,44.444591851,-93.147457355,5,"710 SIBLEY DR, NORTHFIELD, MN, 55057","Match","Exact","710 SIBLEY DR, NORTHFIELD, MN, 55057",37323577,"L"
278006,"710 SO INDIAN HILLS DR  APT 73","ST GEORGE","UT",84770,NA,NA,6,"710 SO INDIAN HILLS DR  APT 73, ST GEORGE, UT, 84770","Tie",NA,NA,NA,NA
278007,"710 SOUTH 13TH STREET  900 108","NORFOLK","NE",68701,42.0254558300001,-97.4265237279999,7,"710 SOUTH 13TH STREET  900 108, NORFOLK, NE, 68701","Match","Exact","710 S 13TH ST, NORFOLK, NE, 68701",161578303,"L"
278008,"710 SOUTH BOUNDARY AVE","DELAND","FL",32720,29.016548587,-81.3197099499999,8,"710 SOUTH BOUNDARY AVE, DELAND, FL, 32720","Match","Exact","710 S BOUNDARY AVE, DELAND, FL, 32720",629440837,"L"
278009,"710 SOUTH COMMERCE STREET","LOCKHART","TX",78644,29.8771298890001,-97.669756461,9,"710 SOUTH COMMERCE STREET, LOCKHART, TX, 78644","Match","Exact","710 S COMMERCE ST, LOCKHART, TX, 78644",45531269,"R"
278010,"710 SOUTH DIAMOND ST","MANSFIELD","OH",44822,40.7437586390001,-82.5008075439999,10,"710 SOUTH DIAMOND ST, MANSFIELD, OH, 44822","Match","Non_Exact","710 S DIAMOND ST, MANSFIELD, OH, 44907",207218665,"R"
278011,"710 SOUTH MYRTLE AVENUE SUITE 608","MONROVIA","CA",91016,34.144672471,-118.000938003,11,"710 SOUTH MYRTLE AVENUE SUITE 608, MONROVIA, CA, 91016","Match","Exact","710 S MYRTLE AVE, MONROVIA, CA, 91016",142743645,"L"
278012,"710 SPRING BROOK DR","WINONA","MN",55987,43.9925362220001,-91.602790247,12,"710 SPRING BROOK DR, WINONA, MN, 55987","Match","Exact","710 SPRING BROOK DR, WINONA, MN, 55987",633783068,"R"
278013,"710 SPROUL ST","CHESTER","PA",19013,39.8502074880001,-75.362251639,13,"710 SPROUL ST, CHESTER, PA, 19013","Match","Exact","710 SPROUL ST, CHESTER, PA, 19013",134881622,"L"
278014,"710 SPRUCE PLACE","BEAUMONT","CA",92223,33.9517265280001,-116.970408576,14,"710 SPRUCE PLACE, BEAUMONT, CA, 92223","Match","Exact","710 SPRUCE PL, BEAUMONT, CA, 92223",195049822,"L"
278015,"710 STH 35 SOUTH","SAINT CROIX FALLS","WI",54024,NA,NA,15,"710 STH 35 SOUTH, SAINT CROIX FALLS, WI, 54024","No_Match",NA,NA,NA,NA
278016,"710 STONE CHURCH LANE","GENESEO","IL",61254,41.438960292,-90.164787479,16,"710 STONE CHURCH LANE, GENESEO, IL, 61254","Match","Exact","710 STONE CHURCH LN, GENESEO, IL, 61254",8924878,"L"
278017,"710 SUNSET DRIVE","LODI","WI",53555,43.3095923720001,-89.5476967869999,17,"710 SUNSET DRIVE, LODI, WI, 53555","Match","Exact","710 SUNSET DR, LODI, WI, 53555",633573281,"R"
278018,"710 SUSAN STREET","GARDEN CITY","KS",67846,37.9694646930001,-100.835400651,18,"710 SUSAN STREET, GARDEN CITY, KS, 67846","Match","Exact","710 SUSAN ST, GARDEN CITY, KS, 67846",145431750,"R"
278019,"710 SW 98 TERR","PEMBROKE PINES","FL",33025,26.002350914,-80.275754918,19,"710 SW 98 TERR, PEMBROKE PINES, FL, 33025","Match","Exact","710 SW 98TH TER, PEMBROKE PINES, FL, 33025",114731699,"R"
278020,"710 SW 98TH TERR","PEMBROKE PINES","FL",33025,26.002350914,-80.275754918,20,"710 SW 98TH TERR, PEMBROKE PINES, FL, 33025","Match","Exact","710 SW 98TH TER, PEMBROKE PINES, FL, 33025",114731699,"R"
278021,"710 TEETSHORN STREET","HOUSTON","TX",77009,29.783639696,-95.3795246179999,21,"710 TEETSHORN STREET, HOUSTON, TX, 77009","Match","Exact","710 TEETSHORN ST, HOUSTON, TX, 77009",96065690,"L"
278022,"710 TERRA VIEW CIRCLE","FORT COLLINS","CO",80525,40.4778884410001,-105.064242389,22,"710 TERRA VIEW CIRCLE, FORT COLLINS, CO, 80525","Match","Exact","710 TERRA VIEW CIR, FORT COLLINS, CO, 80525",188609007,"R"
278023,"710 THISTLEWOOD DR","HOUSTON","TX",77079,29.7752117900001,-95.621324626,23,"710 THISTLEWOOD DR, HOUSTON, TX, 77079","Match","Exact","710 THISTLEWOOD DR, HOUSTON, TX, 77079",96020251,"R"
278024,"710 TRUMPETERS COURT WEST","MONUMENT","CO",80132,39.102776109,-104.806917457,24,"710 TRUMPETERS COURT WEST, MONUMENT, CO, 80132","Match","Exact","710 TRUMPETERS CT W, MONUMENT, CO, 80132",647972341,"L"
278025,"710 TULIP LN","ROCKFORD","IL",61107,42.2740079600001,-88.974271204,25,"710 TULIP LN, ROCKFORD, IL, 61107","Match","Exact","710 TULIP LN, ROCKFORD, IL, 61107",49277202,"L"
278026,"710 VAN NESS AVE 263","FRESNO","CA",93721,NA,NA,26,"710 VAN NESS AVE 263, FRESNO, CA, 93721","No_Match",NA,NA,NA,NA
278027,"710 VAN NESS AVE NO 235","FRESNO","CA",93721,NA,NA,27,"710 VAN NESS AVE NO 235, FRESNO, CA, 93721","No_Match",NA,NA,NA,NA
278028,"710 VAN NESS AVE ROOM 141","FRESNO","CA",93721,NA,NA,28,"710 VAN NESS AVE ROOM 141, FRESNO, CA, 93721","No_Match",NA,NA,NA,NA
278029,"710 VAN NESS AVE STE 120-196","FRESNO","CA",93721,NA,NA,29,"710 VAN NESS AVE STE 120-196, FRESNO, CA, 93721","No_Match",NA,NA,NA,NA
278030,"710 VAN NESS AVE SUITE 188","FRESNO","CA",93721,NA,NA,30,"710 VAN NESS AVE SUITE 188, FRESNO, CA, 93721","No_Match",NA,NA,NA,NA
278031,"710 VAN NESS AVE SUITE 265","FRESNO","CA",93721,NA,NA,31,"710 VAN NESS AVE SUITE 265, FRESNO, CA, 93721","No_Match",NA,NA,NA,NA
278032,"710 VAN NESS AVENUE 170","FRESNO","CA",93721,NA,NA,32,"710 VAN NESS AVENUE 170, FRESNO, CA, 93721","No_Match",NA,NA,NA,NA
278033,"710 VAN NESS STE 192","FRESNO","CA",93721,NA,NA,33,"710 VAN NESS STE 192, FRESNO, CA, 93721","No_Match",NA,NA,NA,NA
278034,"710 VILLA PLACE CT","ST. LOUIS","MO",63132,38.668834266,-90.3705598349999,34,"710 VILLA PLACE CT, ST. LOUIS, MO, 63132","Match","Exact","710 VILLA PLACE CT, SAINT LOUIS, MO, 63132",100131196,"R"
278035,"710 VIRGINIA AVE","MARTINSBURG","WV",25401,39.4509987270001,-77.9722735029999,35,"710 VIRGINIA AVE, MARTINSBURG, WV, 25401","Match","Exact","710 VIRGINIA AVE, MARTINSBURG, WV, 25401",123380098,"R"
278036,"710 W 3RD STREET","WINNER","SD",57580,43.3754720000001,-99.8667635419999,36,"710 W 3RD STREET, WINNER, SD, 57580","Match","Exact","710 W 3RD ST, WINNER, SD, 57580",200357302,"R"
278037,"710 W 42 ST","INDIANAPOLIS","IN",46208,39.8320746100001,-86.171556274,37,"710 W 42 ST, INDIANAPOLIS, IN, 46208","Match","Exact","710 W 42ND ST, INDIANAPOLIS, IN, 46208",107986380,"R"
278038,"710 W BELDEN AVE","CHICAGO","IL",60614,41.9236708710001,-87.646641119,38,"710 W BELDEN AVE, CHICAGO, IL, 60614","Match","Exact","710 W BELDEN AVE, CHICAGO, IL, 60614",605242680,"R"
278039,"710 W CARISBROOK DRIVE","MAUMEE","OH",43537,41.578648872,-83.6167013199999,39,"710 W CARISBROOK DRIVE, MAUMEE, OH, 43537","Match","Exact","710 W CARISBROOK DR, MAUMEE, OH, 43537",33937031,"R"
278040,"710 W CREEKSIDE DR","HOUSTON","TX",77024,29.7752474120001,-95.490971304,40,"710 W CREEKSIDE DR, HOUSTON, TX, 77024","Match","Exact","710 W CREEKSIDE DR, HOUSTON, TX, 77024",96030471,"R"
278041,"710 W FRONT ST","NORTH PLATTE","NE",69101,41.1404407210001,-100.770199236,41,"710 W FRONT ST, NORTH PLATTE, NE, 69101","Match","Exact","710 W FRONT ST, NORTH PLATTE, NE, 69101",151234400,"L"
278042,"710 W HOLLY ST","PASADENA","CA",91105,34.14807017,-118.16449216,42,"710 W HOLLY ST, PASADENA, CA, 91105","Match","Exact","710 W HOLLY ST, PASADENA, CA, 91105",141629157,"L"
278043,"710 W MAIN ST 4TH FLOOR","LOUISVILLE","KY",40202,NA,NA,43,"710 W MAIN ST 4TH FLOOR, LOUISVILLE, KY, 40202","Tie",NA,NA,NA,NA
278044,"710 W SAN AUGUSTINE STREET","DEER PARK","TX",77536,29.689517509,-95.1256226629999,44,"710 W SAN AUGUSTINE STREET, DEER PARK, TX, 77536","Match","Exact","710 W SAN AUGUSTINE ST, DEER PARK, TX, 77536",96607127,"L"
278045,"710 W SAN AUGUSTINE","DEER PARK","TX",77536,29.689517509,-95.1256226629999,45,"710 W SAN AUGUSTINE, DEER PARK, TX, 77536","Match","Non_Exact","710 W SAN AUGUSTINE ST, DEER PARK, TX, 77536",96607127,"L"
278046,"710 W SANTA CRUZ DR","TEMPE","AZ",85282,33.3870153610001,-111.949293302,46,"710 W SANTA CRUZ DR, TEMPE, AZ, 85282","Match","Exact","710 W SANTA CRUZ DR, TEMPE, AZ, 85282",128227424,"R"
278047,"710 WALBRIDGE AVENUE","TOLEDO","OH",43609,41.6323769090001,-83.5564344759999,47,"710 WALBRIDGE AVENUE, TOLEDO, OH, 43609","Match","Exact","710 WALBRIDGE AVE, TOLEDO, OH, 43609",33944126,"R"
278048,"710 WATCH ISLAND REACH","CHESAPEAKE","VA",23320,36.7336160020001,-76.271275039,48,"710 WATCH ISLAND REACH, CHESAPEAKE, VA, 23320","Match","Exact","710 WATCH ISLAND REACH, CHESAPEAKE, VA, 23320",121781677,"L"
278049,"710 WATER OAK DR","GARLAND","TX",75044,32.9816094660001,-96.6373914709999,49,"710 WATER OAK DR, GARLAND, TX, 75044","Match","Exact","710 WATER OAK DR, GARLAND, TX, 75044",103172686,"R"
278050,"710 WAVERLY STREET","FRAMINGHAM","MA",1702,42.2725991940001,-71.4282278219999,50,"710 WAVERLY STREET, FRAMINGHAM, MA, 1702","Match","Exact","710 WAVERLY ST, FRAMINGHAM, MA, 01702",87102625,"L"
278051,"710 WAYSIDE DRIVE","AUSTIN","TX",78703,30.2824837150001,-97.7739377999999,51,"710 WAYSIDE DRIVE, AUSTIN, TX, 78703","Match","Exact","710 WAYSIDE DR, AUSTIN, TX, 78703",63941706,"L"
278052,"710 WEST MAIN","NEW HAMPTON","IA",50659,43.0595233340001,-92.32689055,52,"710 WEST MAIN, NEW HAMPTON, IA, 50659","Match","Non_Exact","710 W MAIN ST, NEW HAMPTON, IA, 50659",9738511,"L"
278053,"710 WEST ST GEORGES AVE","LINDEN","NJ",7036,40.629866357,-74.270744919,53,"710 WEST ST GEORGES AVE, LINDEN, NJ, 7036","Match","Exact","710 W SAINT GEORGES AVE, LINDEN, NJ, 07036",60575589,"R"
278054,"710 WHITEHALL WAY","ROSWELL","GA",30076,34.0520537310001,-84.346913634,54,"710 WHITEHALL WAY, ROSWELL, GA, 30076","Match","Exact","710 WHITEHALL WAY, ROSWELL, GA, 30076",17419808,"R"
278055,"710 WICKS LANE SUITE 50656","BILLINGS","MT",59105,45.827356851,-108.468093784,55,"710 WICKS LANE SUITE 50656, BILLINGS, MT, 59105","Match","Exact","710 WICKS LN, BILLINGS, MT, 59105",618442507,"R"
278056,"710 WILLOW WAY","PRINCE FREDRICK","MD",20678,38.550557875,-76.6135217139999,56,"710 WILLOW WAY, PRINCE FREDRICK, MD, 20678","Match","Non_Exact","710 WILLOW WAY, PRINCE FREDERICK, MD, 20678",78173419,"L"
278057,"710 WINDING BROOK ROAD","MONROE","NC",28112,34.945348638,-80.554467008,57,"710 WINDING BROOK ROAD, MONROE, NC, 28112","Match","Exact","710 WINDING BROOK RD, MONROE, NC, 28112",14201859,"L"
278058,"710 WISTERIA DR","JOSEPHINE","TX",75173,33.0576378320001,-96.314376712,58,"710 WISTERIA DR, JOSEPHINE, TX, 75173","Match","Exact","710 WISTERIA DR, JOSEPHINE, TX, 75173",649005651,"L"
278059,"710 WOOD DRIVE","ENCINITAS","CA",92007,33.075543097,-117.291697646,59,"710 WOOD DRIVE, ENCINITAS, CA, 92007","Match","Non_Exact","710 WOOD DR, ENCINITAS, CA, 92024",195292153,"L"
278060,"710 WOOD GATE DR","MADISON","MS",39110,32.4558644730001,-90.072958843,60,"710 WOOD GATE DR, MADISON, MS, 39110","Match","Non_Exact","710 WOODGATE DR, MADISON, MS, 39110",152487823,"R"
278061,"710 WOODLAND AVENUE","WESTFIELD","NJ",7090,40.668429444,-74.343368647,61,"710 WOODLAND AVENUE, WESTFIELD, NJ, 7090","Match","Exact","710 WOODLAND AVE, WESTFIELD, NJ, 07090",60566851,"R"
278062,"710 WYNBROOKE PARKWAY","STONE MOUNTAIN","GA",30087,33.792307382,-84.109293784,62,"710 WYNBROOKE PARKWAY, STONE MOUNTAIN, GA, 30087","Match","Exact","710 WYNBROOKE PKWY, STONE MOUNTAIN, GA, 30087",642648671,"R"
278063,"710-305 GATEWAY PARK DRIVE","RALEIGH","NC",27601,35.768735103,-78.646828851,63,"710-305 GATEWAY PARK DRIVE, RALEIGH, NC, 27601","Match","Exact","710 GATEWAY PARK DR, RALEIGH, NC, 27601",612825912,"L"
278064,"7100 16TH STREET","BERWYN","IL",60402,41.8577495930001,-87.801440957,64,"7100 16TH STREET, BERWYN, IL, 60402","Match","Exact","7100 16TH ST, BERWYN, IL, 60402",111793933,"L"
278065,"7100 ALMEDA    1203","HOUSTON","TX",77054,29.6967448300001,-95.387740799,65,"7100 ALMEDA    1203, HOUSTON, TX, 77054","Match","Non_Exact","7100 ALMEDA RD, HOUSTON, TX, 77054",96610220,"R"
278066,"7100 ALVERN STREET  APT 315","LOS ANGELES","CA",90045,33.9753044170001,-118.377086974,66,"7100 ALVERN STREET  APT 315, LOS ANGELES, CA, 90045","Match","Exact","7100 ALVERN ST, LOS ANGELES, CA, 90045",650066165,"L"
278067,"7100 BOULEVARD EAST","GUTTENBERG","NJ",7093,NA,NA,67,"7100 BOULEVARD EAST, GUTTENBERG, NJ, 7093","No_Match",NA,NA,NA,NA
278068,"7100 BOWLING DRIVE SUITE 100","SACRAMENTO","CA",95823,38.497238854,-121.455875407,68,"7100 BOWLING DRIVE SUITE 100, SACRAMENTO, CA, 95823","Match","Exact","7100 BOWLING DR, SACRAMENTO, CA, 95823",133351423,"R"
278069,"7100 BROADWAY  STE 3J","DENVER","CO",80221,39.824702238,-104.987384922,69,"7100 BROADWAY  STE 3J, DENVER, CO, 80221","Match","Non_Exact","7100 BROADWAY ST, DENVER, CO, 80221",177416176,"R"
278070,"7100 BUNKER HILL ROAD","THE PLAINS","VA",20198,38.8653804480001,-77.798188802,70,"7100 BUNKER HILL ROAD, THE PLAINS, VA, 20198","Match","Exact","7100 BUNKER HILL RD, THE PLAINS, VA, 20198",146293133,"R"
278071,"7100 CAMBRIDGE AVE","ST LOUIS","MO",63130,38.658682346,-90.317220317,71,"7100 CAMBRIDGE AVE, ST LOUIS, MO, 63130","Match","Exact","7100 CAMBRIDGE AVE, SAINT LOUIS, MO, 63130",100134405,"L"
278072,"7100 CHEASPEAKE ROAD 203","LANDOVER HLLLS","MD",20784,38.9493243060001,-76.885703935,72,"7100 CHEASPEAKE ROAD 203, LANDOVER HLLLS, MD, 20784","Match","Non_Exact","7100 CHESAPEAKE RD, LANDOVER HILLS, MD, 20784",643544656,"L"
278073,"7100 COLLEGE HEIGHTS DRIVE","HYATTSVILLE","MD",20782,38.9773681820001,-76.9407302129999,73,"7100 COLLEGE HEIGHTS DRIVE, HYATTSVILLE, MD, 20782","Match","Exact","7100 COLLEGE HEIGHTS DR, HYATTSVILLE, MD, 20782",76305089,"L"
278074,"7100 E MATANUSKA SPUR","PALMER","AK",99645,61.557257378,-149.251800677,74,"7100 E MATANUSKA SPUR, PALMER, AK, 99645","Match","Non_Exact","7100 E MATANUSKA SPUR RD, PALMER, AK, 99645",626220933,"L"
278075,"7100 GRAND MONTECITO PKWY STE 4037","LAS VEGAS","NV",89149,36.285184499,-115.280995664,75,"7100 GRAND MONTECITO PKWY STE 4037, LAS VEGAS, NV, 89149","Match","Exact","7100 GRAND MONTECITO PKWY, LAS VEGAS, NV, 89149",638339666,"L"
278076,"7100 HALEYS WAY","THEODORE","AL",36582,30.5434566800001,-88.2690853189999,76,"7100 HALEYS WAY, THEODORE, AL, 36582","Match","Exact","7100 HALEYS WAY, THEODORE, AL, 36582",624842961,"L"
278077,"7100 HENRY AVENUE","PHILADELPHIA","PA",19128,40.0492977750001,-75.220213123,77,"7100 HENRY AVENUE, PHILADELPHIA, PA, 19128","Match","Exact","7100 HENRY AVE, PHILADELPHIA, PA, 19128",647564756,"L"
278078,"7100 HIDDEN RIDGE DR SE","GRAND RAPIDS","MI",49546,42.9233653470001,-85.4921222249999,78,"7100 HIDDEN RIDGE DR SE, GRAND RAPIDS, MI, 49546","Match","Exact","7100 HIDDEN RIDGE DR SE, GRAND RAPIDS, MI, 49546",645774946,"L"
278079,"7100 HILBURN DR","RALEIGH","NC",27613,35.87551187,-78.715689164,79,"7100 HILBURN DR, RALEIGH, NC, 27613","Match","Exact","7100 HILBURN DR, RALEIGH, NC, 27613",208347060,"R"
278080,"7100 HILBURN DRIVE","RALEIGH","NC",27613,35.87551187,-78.715689164,80,"7100 HILBURN DRIVE, RALEIGH, NC, 27613","Match","Exact","7100 HILBURN DR, RALEIGH, NC, 27613",208347060,"R"
278081,"7100 IOWA STREET","DETROIT","MI",48212,42.4250292020001,-83.0300312749999,81,"7100 IOWA STREET, DETROIT, MI, 48212","Match","Exact","7100 IOWA ST, DETROIT, MI, 48212",95465933,"R"
278082,"7100 KINSMAN ROAD","CLEVELAND","OH",44104,41.480000019,-81.63895977,82,"7100 KINSMAN ROAD, CLEVELAND, OH, 44104","Match","Exact","7100 KINSMAN RD, CLEVELAND, OH, 44104",61113760,"R"
278083,"7100 LAKE ELLENOR DR","ORLANDO","FL",32809,28.4636629990001,-81.4013386189999,83,"7100 LAKE ELLENOR DR, ORLANDO, FL, 32809","Match","Exact","7100 LAKE ELLENOR DR, ORLANDO, FL, 32809",94290458,"R"
278084,"7100 N COVENTRY AVE","KANSAS CITY","MO",64151,39.222570014,-94.608390169,84,"7100 N COVENTRY AVE, KANSAS CITY, MO, 64151","Match","Exact","7100 N COVENTRY AVE, KANSAS CITY, MO, 64151",39711774,"L"
278085,"7100 NATURAL BRIDGE ROAD","SAINT LOUIS","MO",63121,38.700203113,-90.290771617,85,"7100 NATURAL BRIDGE ROAD, SAINT LOUIS, MO, 63121","Match","Exact","7100 NATURAL BRIDGE RD, SAINT LOUIS, MO, 63121",100151709,"L"
278086,"7100 NEW KISSM COURT","SMITH","VA",20187,NA,NA,86,"7100 NEW KISSM COURT, SMITH, VA, 20187","No_Match",NA,NA,NA,NA
278087,"7100 NORTH HIGH STREET - SUITE 204","WORTHINGTON","OH",43085,40.1057944460001,-83.017003178,87,"7100 NORTH HIGH STREET - SUITE 204, WORTHINGTON, OH, 43085","Match","Exact","7100 N HIGH ST, WORTHINGTON, OH, 43085",218662099,"R"
278088,"7100 NORTH HIGH STREET SUITE 204","WORTHINGTON","OH",43085,40.1057944460001,-83.017003178,88,"7100 NORTH HIGH STREET SUITE 204, WORTHINGTON, OH, 43085","Match","Exact","7100 N HIGH ST, WORTHINGTON, OH, 43085",218662099,"R"
278089,"7100 OLD KATY RD 6112","HOUSTON","TX",77024,29.783584407,-95.44636955,89,"7100 OLD KATY RD 6112, HOUSTON, TX, 77024","Match","Non_Exact","7100 OLD KATY RD, HOUSTON, TX, 77024",638121792,"R"
278090,"7100 READ BLVD  SUITE 201","NEW ORLEANS","LA",70127,30.039408748,-89.977979272,90,"7100 READ BLVD  SUITE 201, NEW ORLEANS, LA, 70127","Match","Exact","7100 READ BLVD, NEW ORLEANS, LA, 70127",191721386,"L"
278091,"7100 RIVER RUN DRIVE","CHATTANOOGA","TN",37416,35.1422335080001,-85.154169785,91,"7100 RIVER RUN DRIVE, CHATTANOOGA, TN, 37416","Match","Exact","7100 RIVER RUN DR, CHATTANOOGA, TN, 37416",59331242,"R"
278092,"7100 S WESTERN AVE","LOS ANGELES","CA",90047,33.975307989,-118.308955191,92,"7100 S WESTERN AVE, LOS ANGELES, CA, 90047","Match","Exact","7100 S WESTERN AVE, LOS ANGELES, CA, 90047",141658381,"L"
278093,"7100 SHIELD COURT","UPPER MARLBORO","MD",20772,38.7942811710001,-76.8490857259999,93,"7100 SHIELD COURT, UPPER MARLBORO, MD, 20772","Match","Exact","7100 SHIELD CT, UPPER MARLBORO, MD, 20772",76321288,"L"
278094,"7100 ST CHARLES AVENUE SUITE 209","NEW ORLEANS","LA",70118,NA,NA,94,"7100 ST CHARLES AVENUE SUITE 209, NEW ORLEANS, LA, 70118","No_Match",NA,NA,NA,NA
278095,"7100 SUNRISE DR","LANHAM","MD",20706,38.9598943190001,-76.890530768,95,"7100 SUNRISE DR, LANHAM, MD, 20706","Match","Exact","7100 SUNRISE DR, LANHAM, MD, 20706",76412064,"L"
278096,"7100 SW 99 AVENUE SUITE 201","MIAMI","FL",33173,25.7023863260001,-80.354203766,96,"7100 SW 99 AVENUE SUITE 201, MIAMI, FL, 33173","Match","Non_Exact","7100 SW 99TH AVE, MIAMI, FL, 33173",115973683,"R"
278097,"7100 THORPE AVE APT 3","HENRICO","VA",23228,37.616853765,-77.4866004309999,97,"7100 THORPE AVE APT 3, HENRICO, VA, 23228","Match","Exact","7100 THORPE AVE, HENRICO, VA, 23228",106647618,"L"
278098,"7100 VALLEY LAKE DRIVE","RALEIGH","NC",27612,35.8780853650001,-78.667765253,98,"7100 VALLEY LAKE DRIVE, RALEIGH, NC, 27612","Match","Exact","7100 VALLEY LAKE DR, RALEIGH, NC, 27612",72575593,"L"
278099,"7100 VIRGIL ST","CLOVERDALE","OR",97112,45.2139050490001,-123.953184791,99,"7100 VIRGIL ST, CLOVERDALE, OR, 97112","Match","Exact","7100 VIRGIL ST, CLOVERDALE, OR, 97112",156392307,"L"
278100,"7100 W FONDDULAC AVENUE","MILWAUKEE","WI",53218,43.108817124,-88.0001604779999,100,"7100 W FONDDULAC AVENUE, MILWAUKEE, WI, 53218","Match","Non_Exact","7100 W FOND DU LAC AVE, MILWAUKEE, WI, 53218",77730209,"R"
278101,"7100 W GRANDVIEW RD UNIT 2103","PEORIA","AZ",85382,33.6359732130001,-112.211587224,101,"7100 W GRANDVIEW RD UNIT 2103, PEORIA, AZ, 85382","Match","Non_Exact","7100 W GRANDVIEW RD, PEORIA, AZ, 85382",128837871,"R"
278102,"7100 W GRANDVIEW ROAD  SUITE 1045","PEORIA","AZ",85382,33.6359732130001,-112.211587224,102,"7100 W GRANDVIEW ROAD  SUITE 1045, PEORIA, AZ, 85382","Match","Non_Exact","7100 W GRANDVIEW RD, PEORIA, AZ, 85382",128837871,"R"
278103,"7100 WADSWORTH BLVD","ARVADA","CO",80003,39.8253500650001,-105.081434941,103,"7100 WADSWORTH BLVD, ARVADA, CO, 80003","Match","Exact","7100 WADSWORTH BLVD, ARVADA, CO, 80003",177288137,"R"
278104,"7100 WEST CAMINO REAL SUITE 200","BOCA RATON","FL",33433,NA,NA,104,"7100 WEST CAMINO REAL SUITE 200, BOCA RATON, FL, 33433","No_Match",NA,NA,NA,NA
278105,"7100 WOLFEMONT LANE","PLANO","TX",75025,33.0716595690001,-96.71013729,105,"7100 WOLFEMONT LANE, PLANO, TX, 75025","Match","Exact","7100 WOLFEMONT LN, PLANO, TX, 75025",123553627,"R"
278106,"7101 58TH STREET COURT W","UNIVERSITY PLACE","WA",98467,47.204035162,-122.531356112,106,"7101 58TH STREET COURT W, UNIVERSITY PLACE, WA, 98467","Match","Exact","7101 58TH STCT W, UNIVERSITY PLACE, WA, 98467",184743954,"R"
278107,"7101 BIRCH STREET","COMMERCE CITY","CO",80022,39.825477576,-104.936281714,107,"7101 BIRCH STREET, COMMERCE CITY, CO, 80022","Match","Exact","7101 BIRCH ST, COMMERCE CITY, CO, 80022",638503516,"R"
278108,"7101 BLACKWILLOW LANE","DALLAS","TX",75249,32.6288201470001,-96.943584689,108,"7101 BLACKWILLOW LANE, DALLAS, TX, 75249","Match","Exact","7101 BLACKWILLOW LN, DALLAS, TX, 75249",638654246,"L"
278109,"7101 BUCKLEIGH POINT CT","MCKINNEY","TX",75071,33.207506333,-96.711258414,109,"7101 BUCKLEIGH POINT CT, MCKINNEY, TX, 75071","Match","Exact","7101 BUCKLEIGH POINT CT, MCKINNEY, TX, 75071",614128814,"L"
278110,"7101 CEDAR VALLEY DRIVE","RANDLEMAN","NC",27317,35.9176842800001,-79.8170971709999,110,"7101 CEDAR VALLEY DRIVE, RANDLEMAN, NC, 27317","Match","Exact","7101 CEDAR VALLEY DR, RANDLEMAN, NC, 27317",131065782,"R"
278111,"7101 E 121ST ST S","BIXBY","OK",75008,35.988271679,-95.902083686,111,"7101 E 121ST ST S, BIXBY, OK, 75008","Match","Non_Exact","7101 E 121ST ST S, BIXBY, OK, 74008",650437169,"L"
278112,"7101 ENGLISH POINT LANE","BRANDYWINE","MD",20613,38.6657251330001,-76.885145257,112,"7101 ENGLISH POINT LANE, BRANDYWINE, MD, 20613","Match","Exact","7101 ENGLISH POINT LN, BRANDYWINE, MD, 20613",624704418,"L"
278113,"7101 LONGVIEW DRIVE","LONGMONT","CO",80503,40.1029076520001,-105.154593901,113,"7101 LONGVIEW DRIVE, LONGMONT, CO, 80503","Match","Exact","7101 LONGVIEW DR, LONGMONT, CO, 80503",188186994,"L"
278114,"7101 LYNN DR","ROWLETT","TX",75088,32.907832424,-96.534116072,114,"7101 LYNN DR, ROWLETT, TX, 75088","Match","Exact","7101 LYNN DR, ROWLETT, TX, 75088",102934571,"L"
278115,"7101 MACAPA DRIVE","LOS ANGELES","CA",90068,34.1184488260001,-118.345588023,115,"7101 MACAPA DRIVE, LOS ANGELES, CA, 90068","Match","Exact","7101 MACAPA DR, LOS ANGELES, CA, 90068",141594332,"R"
278116,"7101 MAMMOTH AVE","VAN NUYS","CA",91405,34.1994569300001,-118.43241081,116,"7101 MAMMOTH AVE, VAN NUYS, CA, 91405","Match","Exact","7101 MAMMOTH AVE, VAN NUYS, CA, 91405",141561249,"L"
278117,"7101 MARLBOROUGH DRIVE","BALTIMORE","MD",21234,39.3720503210001,-76.5585836609999,117,"7101 MARLBOROUGH DRIVE, BALTIMORE, MD, 21234","Match","Exact","7101 MARLBOROUGH DR, BALTIMORE, MD, 21234",206410598,"R"
278118,"7101 MELTON DR","ROWLETT","TX",75089,32.9223374170001,-96.525319059,118,"7101 MELTON DR, ROWLETT, TX, 75089","Match","Exact","7101 MELTON DR, ROWLETT, TX, 75089",103169503,"R"
278119,"7101 MYRTLEWOOD LANE","SPRING HILL","FL",34606,28.4715675200001,-82.6037496549999,119,"7101 MYRTLEWOOD LANE, SPRING HILL, FL, 34606","Match","Exact","7101 MYRTLEWOOD LN, SPRING HILL, FL, 34606",85448566,"L"
278120,"7101 N 183RD AVE","WADDELL","AZ",85355,33.53908742,-112.452757025,120,"7101 N 183RD AVE, WADDELL, AZ, 85355","Match","Exact","7101 N 183RD AVE, WADDELL, AZ, 85355",128165730,"L"
278121,"7101 N CICERO AVE SUITE 200","LINCOLNWOOD","IL",60712,42.0101584130001,-87.747982408,121,"7101 N CICERO AVE SUITE 200, LINCOLNWOOD, IL, 60712","Match","Non_Exact","7101 N CICERO AVE, LINCOLNWOOD, IL, 60712",111740843,"R"
278122,"7101 NORTH DAKOTA ST","SPOKANE","WA",99208,47.722481449,-117.40116651,122,"7101 NORTH DAKOTA ST, SPOKANE, WA, 99208","Match","Exact","7101 NORTH DAKOTA ST, SPOKANE, WA, 99208",189869506,"L"
278123,"7101 NW 18TH STREET","LINCOLN","NE",68521,40.881452214,-96.7471656229999,123,"7101 NW 18TH STREET, LINCOLN, NE, 68521","Match","Exact","7101 NW 18TH ST, LINCOLN, NE, 68521",650780210,"L"
278124,"7101 OLD BRANCH AVENUE","TEMPLE HILLS","MD",20748,NA,NA,124,"7101 OLD BRANCH AVENUE, TEMPLE HILLS, MD, 20748","Tie",NA,NA,NA,NA
278125,"7101 OLD DAIRY LANE","CHARLOTTE","NC",28211,35.1482606660001,-80.821816686,125,"7101 OLD DAIRY LANE, CHARLOTTE, NC, 28211","Match","Exact","7101 OLD DAIRY LN, CHARLOTTE, NC, 28211",70508913,"R"
278126,"7101 RONALD LANE","COLUMBIA","SC",29203,34.0710899700001,-80.987291548,126,"7101 RONALD LANE, COLUMBIA, SC, 29203","Match","Exact","7101 RONALD LN, COLUMBIA, SC, 29203",71822849,"R"
278127,"7101 S 82ND ST","LINCOLN","NE",68516,40.739826501,-96.6088489269999,127,"7101 S 82ND ST, LINCOLN, NE, 68516","Match","Exact","7101 S 82ND ST, LINCOLN, NE, 68516",28298977,"R"
278128,"7101 SE 127TH AVE","PORTLAND","OR",97236,45.471232636,-122.532536369,128,"7101 SE 127TH AVE, PORTLAND, OR, 97236","Match","Exact","7101 SE 127TH AVE, PORTLAND, OR, 97236",157521992,"R"
278129,"7101 SHORELINE DRIVE","OKLAHOMA CITY","OK",73132,35.543039885,-97.624367783,129,"7101 SHORELINE DRIVE, OKLAHOMA CITY, OK, 73132","Match","Exact","7101 SHORELINE DR, OKLAHOMA CITY, OK, 73132",100388619,"L"
278130,"7101 SMOKE RANCH RD","LAS VEGAS","NV",89128,36.203441991,-115.249963079,130,"7101 SMOKE RANCH RD, LAS VEGAS, NV, 89128","Match","Exact","7101 SMOKE RANCH RD, LAS VEGAS, NV, 89128",201905627,"L"
278131,"7101 SONNETT CT","DERWOOD","MD",20855,39.1523992200001,-77.139508661,131,"7101 SONNETT CT, DERWOOD, MD, 20855","Match","Exact","7101 SONNETT CT, DERWOOD, MD, 20855",62099674,"R"
278132,"7101 SOUTH UNION","CHICAGO","IL",60621,41.7651054730001,-87.6415314929999,132,"7101 SOUTH UNION, CHICAGO, IL, 60621","Match","Non_Exact","7101 S UNION AVE, CHICAGO, IL, 60621",111831272,"L"
278133,"7101 SPARR RD","GAYLORD","MI",49735,45.041736492,-84.5279196989999,133,"7101 SPARR RD, GAYLORD, MI, 49735","Match","Exact","7101 SPARR RD, GAYLORD, MI, 49735",171774236,"R"
278134,"7101 STEUBENVILLE PIKE","OAKDALE","PA",15071,40.4440775960001,-80.179015846,134,"7101 STEUBENVILLE PIKE, OAKDALE, PA, 15071","Match","Exact","7101 STEUBENVILLE PIKE, OAKDALE, PA, 15071",51934903,"R"
278135,"7101 SW 99 AVE SUITE 106","MIAMI","FL",33173,25.7023869000001,-80.3541916139999,135,"7101 SW 99 AVE SUITE 106, MIAMI, FL, 33173","Match","Non_Exact","7101 SW 99TH AVE, MIAMI, FL, 33173",115973683,"L"
278136,"7101 TRAPPERS LAKE DRIVE","CORPUS CHRISTI","TX",78413,27.6842044590001,-97.412691022,136,"7101 TRAPPERS LAKE DRIVE, CORPUS CHRISTI, TX, 78413","Match","Exact","7101 TRAPPERS LAKE DR, CORPUS CHRISTI, TX, 78413",178535507,"L"
278137,"7101 W 12TH STREET STE 200","LITTLE ROCK","AR",72204,NA,NA,137,"7101 W 12TH STREET STE 200, LITTLE ROCK, AR, 72204","No_Match",NA,NA,NA,NA
278138,"7101 W COMMERCIAL BLVD STE 4A","TAMARAC","FL",33319,26.193897275,-80.2454769,138,"7101 W COMMERCIAL BLVD STE 4A, TAMARAC, FL, 33319","Match","Non_Exact","7101 W COMMERCIAL BLVD, TAMARAC, FL, 33319",637075439,"L"
278139,"7101 W MCNAB ROAD SUITE 200A","TAMARAC","FL",33321,NA,NA,139,"7101 W MCNAB ROAD SUITE 200A, TAMARAC, FL, 33321","No_Match",NA,NA,NA,NA
278140,"7101 W YALE AVE UNIT 504","DENVER","CO",80227,NA,NA,140,"7101 W YALE AVE UNIT 504, DENVER, CO, 80227","No_Match",NA,NA,NA,NA
278141,"7101 WELCHIRE FALLS DRIVE","LOUISVILLE","KY",40228,38.145384205,-85.6366218219999,141,"7101 WELCHIRE FALLS DRIVE, LOUISVILLE, KY, 40228","Match","Exact","7101 WELCHIRE FALLS DR, LOUISVILLE, KY, 40228",618504050,"R"
278142,"7101 WEST 7TH STREET","TEXARKANA","TX",75501,33.410769417,-94.1477358129999,142,"7101 WEST 7TH STREET, TEXARKANA, TX, 75501","Match","Exact","7101 W 7TH ST, TEXARKANA, TX, 75501",57666947,"R"
278143,"7101 WEST STRICKLAND STREET  207","DOUGLASVILLE","GA",30134,33.7468102390001,-84.760567409,143,"7101 WEST STRICKLAND STREET  207, DOUGLASVILLE, GA, 30134","Match","Exact","7101 W STRICKLAND ST, DOUGLASVILLE, GA, 30134",16647342,"R"
278144,"7101 WILSON BLVD APT 8204","JACKSONVILLE","FL",32210,30.270020946,-81.760433791,144,"7101 WILSON BLVD APT 8204, JACKSONVILLE, FL, 32210","Match","Exact","7101 WILSON BLVD, JACKSONVILLE, FL, 32210",83954560,"R"
278145,"7102 CALAMO ST","SPRINGFIELD","VA",22150,38.773670973,-77.188303557,145,"7102 CALAMO ST, SPRINGFIELD, VA, 22150","Match","Exact","7102 CALAMO ST, SPRINGFIELD, VA, 22150",76056448,"L"
278146,"7102 EAST EASTLAND STREET","TUCSON","AZ",85710,32.2093764410001,-110.840779419,146,"7102 EAST EASTLAND STREET, TUCSON, AZ, 85710","Match","Exact","7102 E EASTLAND ST, TUCSON, AZ, 85710",121182669,"R"
278147,"7102 HEATHERMOORE LOOP","MONTGOMERY","AL",36117,32.3630672400001,-86.142244462,147,"7102 HEATHERMOORE LOOP, MONTGOMERY, AL, 36117","Match","Exact","7102 HEATHERMOORE LOOP, MONTGOMERY, AL, 36117",1551706,"L"
278148,"7102 HIGHWAY 26","JENNINGS","LA",70546,30.128970301,-92.6721155279999,148,"7102 HIGHWAY 26, JENNINGS, LA, 70546","Match","Exact","7102 HWY 26, JENNINGS, LA, 70546",640113391,"R"
278149,"7102 LAKE DR","SELLERSBERG","IN",47172,38.3661519120001,-85.748298021,149,"7102 LAKE DR, SELLERSBERG, IN, 47172","Match","Non_Exact","7102 LAKE DR, SELLERSBURG, IN, 47172",641236700,"R"
278150,"7102 LOUNSBURY CT","BALTIMORE","MD",21244,39.3168029400001,-76.75742437,150,"7102 LOUNSBURY CT, BALTIMORE, MD, 21244","Match","Exact","7102 LOUNSBURY CT, BALTIMORE, MD, 21244",191482919,"R"
278151,"7102 NW OVERLOOK DR","VANCOUVER","WA",98665,45.675189474,-122.683788834,151,"7102 NW OVERLOOK DR, VANCOUVER, WA, 98665","Match","Exact","7102 NW OVERLOOK DR, VANCOUVER, WA, 98665",645834676,"L"
278152,"7102 QUAKERTOWN AVENUE","WINNETKA","CA",91306,34.1993194820001,-118.569881275,152,"7102 QUAKERTOWN AVENUE, WINNETKA, CA, 91306","Match","Exact","7102 QUAKERTOWN AVE, WINNETKA, CA, 91306",141553484,"R"
278153,"7102 REDDING RD","HOUSTON","TX",77036,29.7024271830001,-95.536160205,153,"7102 REDDING RD, HOUSTON, TX, 77036","Match","Exact","7102 REDDING RD, HOUSTON, TX, 77036",96031071,"R"
278154,"7102 RUTHERFORD GREEN CIRCLE","BALTIMORE","MD",21244,39.3371521390001,-76.7515454529999,154,"7102 RUTHERFORD GREEN CIRCLE, BALTIMORE, MD, 21244","Match","Exact","7102 RUTHERFORD GREEN CIR, BALTIMORE, MD, 21244",191507752,"L"
278155,"7102 S 75TH EAST AVE","TULSA","OK",74133,36.0586714090001,-95.893827202,155,"7102 S 75TH EAST AVE, TULSA, OK, 74133","Match","Exact","7102 S 75TH EAST AVE, TULSA, OK, 74133",166454989,"R"
278156,"7102 VICTORIA PLACE","UPPER MARLBORO","MD",20772,38.7939784500001,-76.847646407,156,"7102 VICTORIA PLACE, UPPER MARLBORO, MD, 20772","Match","Exact","7102 VICTORIA PL, UPPER MARLBORO, MD, 20772",76321293,"L"
278157,"7102 W OKANOGAN PLACE","KENNEWICK","WA",99336,46.22231178,-119.216192426,157,"7102 W OKANOGAN PLACE, KENNEWICK, WA, 99336","Match","Exact","7102 W OKANOGAN PL, KENNEWICK, WA, 99336",637859557,"L"
278158,"7102 WILLGOOS AVENUE","PENNSAUKEN","NJ",8110,39.93704201,-75.08291389,158,"7102 WILLGOOS AVENUE, PENNSAUKEN, NJ, 8110","Match","Exact","7102 WILLGOOS AVE, PENNSAUKEN, NJ, 08110",134342989,"L"
278159,"7103 CLAYMORE AVENUE","HYATTSVILLE","MD",20782,38.977026666,-76.9549212649999,159,"7103 CLAYMORE AVENUE, HYATTSVILLE, MD, 20782","Match","Exact","7103 CLAYMORE AVE, HYATTSVILLE, MD, 20782",76303965,"R"
278160,"7103 CRABWALK COURT","WILMINGTON","NC",28405,34.2588745190001,-77.8228966579999,160,"7103 CRABWALK COURT, WILMINGTON, NC, 28405","Match","Exact","7103 CRABWALK CT, WILMINGTON, NC, 28405",152745858,"L"
278161,"7103 GLEN CHASE CT","HOUSTON","TX",77095,NA,NA,161,"7103 GLEN CHASE CT, HOUSTON, TX, 77095","No_Match",NA,NA,NA,NA
278162,"7103 HAMILTON MASON ROAD","WEST CHESTER","OH",45069,39.370219965,-84.385902038,162,"7103 HAMILTON MASON ROAD, WEST CHESTER, OH, 45069","Match","Exact","7103 HAMILTON MASON RD, WEST CHESTER, OH, 45069",113799303,"R"
278163,"7103 KELLA WAY","MECHANICSVILLE","VA",23111,37.5953110030001,-77.37145048,163,"7103 KELLA WAY, MECHANICSVILLE, VA, 23111","Match","Exact","7103 KELLA WAY, MECHANICSVILLE, VA, 23111",84970242,"L"
278164,"7103 LAUDER ST","AMARILLO","TX",79029,35.136294707,-101.946692397,164,"7103 LAUDER ST, AMARILLO, TX, 79029","Match","Non_Exact","7103 LAUDER ST, AMARILLO, TX, 79119",641816014,"L"
278165,"7103 MT VISTA ROAD","KINGSVILLE","MD",21087,39.4352344390001,-76.430905138,165,"7103 MT VISTA ROAD, KINGSVILLE, MD, 21087","Match","Exact","7103 MOUNT VISTA RD, KINGSVILLE, MD, 21087",191479194,"R"
278166,"7103 PANDORA WAY","SAN ANTONIO","TX",78252,NA,NA,166,"7103 PANDORA WAY, SAN ANTONIO, TX, 78252","No_Match",NA,NA,NA,NA
278167,"7103 PAR FOUR WAY","LITHONIA","GA",30038,33.694197407,-84.149135136,167,"7103 PAR FOUR WAY, LITHONIA, GA, 30038","Match","Non_Exact","7103 PAR FOUR CT, LITHONIA, GA, 30038",640580853,"L"
278168,"7103 ROSEMONT RD","DALLAS","TX",75217,32.727263845,-96.699696036,168,"7103 ROSEMONT RD, DALLAS, TX, 75217","Match","Exact","7103 ROSEMONT RD, DALLAS, TX, 75217",102957869,"L"
278169,"7103 SOUTH REDWOOD ROAD  SUITE 314","WEST JORDAN","UT",84084,40.6219462560001,-111.938732221,169,"7103 SOUTH REDWOOD ROAD  SUITE 314, WEST JORDAN, UT, 84084","Match","Exact","7103 S REDWOOD RD, WEST JORDAN, UT, 84084",651117525,"R"
278170,"7103 WESTMORELAND DRIVE","ST LOUIS","MO",63130,38.6511583980001,-90.3186879099999,170,"7103 WESTMORELAND DRIVE, ST LOUIS, MO, 63130","Match","Exact","7103 WESTMORELAND DR, SAINT LOUIS, MO, 63130",645708921,"R"
278171,"7103 WOOLSTON AVENUE","PHILADELPHIA","PA",19138,40.0605969120001,-75.15600641,171,"7103 WOOLSTON AVENUE, PHILADELPHIA, PA, 19138","Match","Exact","7103 WOOLSTON AVE, PHILADELPHIA, PA, 19138",131413140,"R"
278172,"7103D GLADE RD SE","ACWORTH","GA",30102,34.1292755360001,-84.684568024,172,"7103D GLADE RD SE, ACWORTH, GA, 30102","Match","Exact","7103 GLADE RD SE, ACWORTH, GA, 30102",30452856,"L"
278173,"7104 230TH ST SW","MOUNTLAKE TERRACE","WA",98043,47.7895460880001,-122.330328448,173,"7104 230TH ST SW, MOUNTLAKE TERRACE, WA, 98043","Match","Exact","7104 230TH ST SW, MOUNTLAKE TERRACE, WA, 98043",187755977,"L"
278174,"7104 67TH DR NE","MARRYSVILLE","WA",98270,48.0594736900001,-122.138331614,174,"7104 67TH DR NE, MARRYSVILLE, WA, 98270","Match","Non_Exact","7104 67TH DR NE, MARYSVILLE, WA, 98270",187797880,"R"
278175,"7104 AFRICA ROAD","GALENA","OH",43021,40.162304141,-82.951789914,175,"7104 AFRICA ROAD, GALENA, OH, 43021","Match","Exact","7104 AFRICA RD, GALENA, OH, 43021",652709552,"R"
278176,"7104 CAPROCK CIR","LAS VEGAS","NV",89129,36.226728103,-115.249375147,176,"7104 CAPROCK CIR, LAS VEGAS, NV, 89129","Match","Exact","7104 CAPROCK CIR, LAS VEGAS, NV, 89129",201889043,"R"
278177,"7104 CEDAR DONNE CIR","SIMPSONVILLE","SC",29680,34.7109625910001,-82.262341782,177,"7104 CEDAR DONNE CIR, SIMPSONVILLE, SC, 29680","Match","Exact","7104 CEDAR DONNE CIR, SIMPSONVILLE, SC, 29680",639819858,"L"
278178,"7104 CLARDEN RD","BETHESDA","MD",20814,38.9811463410001,-77.100872168,178,"7104 CLARDEN RD, BETHESDA, MD, 20814","Match","Exact","7104 CLARDEN RD, BETHESDA, MD, 20814",62065800,"L"
278179,"7104 INDIAN CREEK RD","WISE","VA",24293,37.0049940500001,-82.593612572,179,"7104 INDIAN CREEK RD, WISE, VA, 24293","Match","Exact","7104 INDIAN CREEK RD, WISE, VA, 24293",83469079,"R"
278180,"7104 MOYE DR","LITHINIA","GA",30038,33.6297138,-84.1149330809999,180,"7104 MOYE DR, LITHINIA, GA, 30038","Match","Non_Exact","7104 MOYE DR, LITHONIA, GA, 30038",627760049,"L"
278181,"7104 NC 89 W","WESTFIELD","NC",27053,36.510526274,-80.35288908,181,"7104 NC 89 W, WESTFIELD, NC, 27053","Match","Non_Exact","7104 STATE HWY 89 W, WESTFIELD, NC, 27053",651537332,"L"
278182,"7104 PEACH CT","BRENTWOOD","TN",37027,36.027183087,-86.7860611789999,182,"7104 PEACH CT, BRENTWOOD, TN, 37027","Match","Exact","7104 PEACH CT, BRENTWOOD, TN, 37027",73119140,"L"
278183,"7104 PILAA PLACE","HONOLULU","HI",96825,21.2772444070001,-157.707116937,183,"7104 PILAA PLACE, HONOLULU, HI, 96825","Match","Exact","7104 PILAA PL, HONOLULU, HI, 96825",203244136,"L"
278184,"7104 RACE ST","PITTSBURGH","PA",15208,40.4592941650001,-79.897714959,184,"7104 RACE ST, PITTSBURGH, PA, 15208","Match","Exact","7104 RACE ST, PITTSBURGH, PA, 15208",51647273,"R"
278185,"7104 RIO CAVADO WAY","ELK GROVE","CA",95757,38.3817123310001,-121.420116824,185,"7104 RIO CAVADO WAY, ELK GROVE, CA, 95757","Match","Exact","7104 RIO CAVADO WAY, ELK GROVE, CA, 95757",133435011,"L"
278186,"7104 RUMFORD DRIVE","GLEN BURNIE","MD",21061,39.1945605240001,-76.640433447,186,"7104 RUMFORD DRIVE, GLEN BURNIE, MD, 21061","Match","Exact","7104 RUMFORD DR, GLEN BURNIE, MD, 21061",68205528,"R"
278187,"7104 WEBSTER STREET","LANDOVER HILLS","MD",20784,38.9449330350001,-76.8929632049999,187,"7104 WEBSTER STREET, LANDOVER HILLS, MD, 20784","Match","Exact","7104 WEBSTER ST, LANDOVER HILLS, MD, 20784",76331892,"L"
278188,"7104 WOODLAWN AVE NE APT S404","SEATTLE","WA",98115,47.67987779,-122.324547983,188,"7104 WOODLAWN AVE NE APT S404, SEATTLE, WA, 98115","Match","Exact","7104 WOODLAWN AVE NE, SEATTLE, WA, 98115",186580453,"R"
278189,"7104 WOODLAWN AVENUE NE/S104","SEATTLE","WA",98115,47.67987779,-122.324547983,189,"7104 WOODLAWN AVENUE NE/S104, SEATTLE, WA, 98115","Match","Exact","7104 WOODLAWN AVE NE, SEATTLE, WA, 98115",186580453,"R"
278190,"7105 2ND AVE S","BIRMINGHAM","AL",35206,33.5528422900001,-86.731945523,190,"7105 2ND AVE S, BIRMINGHAM, AL, 35206","Match","Exact","7105 2ND AVE S, BIRMINGHAM, AL, 35206",81586300,"R"
278191,"7105 3RD AVENUE NUM 227","BROOKLYN","NY",11209,40.634119798,-74.02670223,191,"7105 3RD AVENUE NUM 227, BROOKLYN, NY, 11209","Match","Exact","7105 3RD AVE, BROOKLYN, NY, 11209",59094220,"L"
278192,"7105 BERWYN PL","CITRUS HEIGHTS","CA",95621,38.6955379870001,-121.327265879,192,"7105 BERWYN PL, CITRUS HEIGHTS, CA, 95621","Match","Exact","7105 BERWYN PL, CITRUS HEIGHTS, CA, 95621",133384970,"L"
278193,"7105 CORPORATE DRIVE TX2-981-02-04","PLANO","TX",75024,NA,NA,193,"7105 CORPORATE DRIVE TX2-981-02-04, PLANO, TX, 75024","No_Match",NA,NA,NA,NA
278194,"7105 CREEKSIDE","OLIVE BRANCH","MS",38654,34.963792885,-89.763442692,194,"7105 CREEKSIDE, OLIVE BRANCH, MS, 38654","Match","Non_Exact","7105 CREEKSIDE DR, OLIVE BRANCH, MS, 38654",91837960,"L"
278195,"7105 DEE COLE DR","THE COLONY","TX",75056,33.0989679150001,-96.861118639,195,"7105 DEE COLE DR, THE COLONY, TX, 75056","Match","Exact","7105 DEE COLE DR, THE COLONY, TX, 75056",103380128,"L"
278196,"7105 E MONTE AVE","MESA","AZ",85209,33.3701072380001,-111.678710475,196,"7105 E MONTE AVE, MESA, AZ, 85209","Match","Exact","7105 E MONTE AVE, MESA, AZ, 85209",128381833,"L"
278197,"7105 EAST RIDGE DRIVE","LANDOVER","MD",20785,38.9191211520001,-76.884597598,197,"7105 EAST RIDGE DRIVE, LANDOVER, MD, 20785","Match","Exact","7105 E RIDGE DR, LANDOVER, MD, 20785",76309375,"R"
278198,"7105 FLOYDSBURG ROAD","CRESTWOOD","KY",40014,38.3233516970001,-85.471107954,198,"7105 FLOYDSBURG ROAD, CRESTWOOD, KY, 40014","Match","Exact","7105 FLOYDSBURG RD, CRESTWOOD, KY, 40014",640058432,"R"
278199,"7105 GLENWOOD AVE","RALEIGH","NC",27612,35.864397893,-78.71464516,199,"7105 GLENWOOD AVE, RALEIGH, NC, 27612","Match","Exact","7105 GLENWOOD AVE, RALEIGH, NC, 27612",640612531,"L"
278200,"7105 HIGHWAY 9","FELTON","CA",95018,37.062274073,-122.080058903,200,"7105 HIGHWAY 9, FELTON, CA, 95018","Match","Exact","7105 HWY 9, FELTON, CA, 95018",648434991,"L"
278201,"7105 HOLCOMB AVENUE","URBANDALE","IA",50322,41.616401486,-93.715649519,201,"7105 HOLCOMB AVENUE, URBANDALE, IA, 50322","Match","Exact","7105 HOLCOMB AVE, URBANDALE, IA, 50322",65776887,"L"
278202,"7105 LANHAM LANE","FORT WASHINGTON","MD",20744,38.792072332,-76.934554556,202,"7105 LANHAM LANE, FORT WASHINGTON, MD, 20744","Match","Exact","7105 LANHAM LN, FT WASHINGTON, MD, 20744",76417704,"L"
278203,"7105 OLD KATY ROAD APT 3112","HOUSTON","TX",77024,29.7836430890001,-95.447824236,203,"7105 OLD KATY ROAD APT 3112, HOUSTON, TX, 77024","Match","Exact","7105 KATY RD, HOUSTON, TX, 77024",96631533,"L"
278204,"7105 PRAIRIE DR","MIDDLETON","WI",53562,43.106832851,-89.5040309359999,204,"7105 PRAIRIE DR, MIDDLETON, WI, 53562","Match","Exact","7105 PRAIRIE DR, MIDDLETON, WI, 53562",49464542,"L"
278205,"7105 S 101ST AVE","LA VISTA","NE",68128,NA,NA,205,"7105 S 101ST AVE, LA VISTA, NE, 68128","Tie",NA,NA,NA,NA
278206,"7105 TREYWICK COURT","FAIRVIEW","TN",37062,35.952078935,-87.133393779,206,"7105 TREYWICK COURT, FAIRVIEW, TN, 37062","Match","Exact","7105 TREYWICK CT, FAIRVIEW, TN, 37062",631956834,"R"
278207,"71055 MUSKEG ROAD","IRON RIVER","WI",54847,46.6091643170001,-91.469593781,207,"71055 MUSKEG ROAD, IRON RIVER, WI, 54847","Match","Exact","71055 MUSKEG RD, IRON RIVER, WI, 54847",194293093,"R"
278208,"7106 1/4 BAIRD AVE","RESEDA","CA",91335,34.1995308260001,-118.537325185,208,"7106 1/4 BAIRD AVE, RESEDA, CA, 91335","Match","Exact","7106 BAIRD AVE, RESEDA, CA, 91335",141554454,"R"
278209,"7106 4TH ARMORED DIVISION LOOP","FORT BENNING","GA",31905,NA,NA,209,"7106 4TH ARMORED DIVISION LOOP, FORT BENNING, GA, 31905","No_Match",NA,NA,NA,NA
278210,"7106 APPLE CREEK","MEMPHIS","TN",38125,35.026405848,-89.827394858,210,"7106 APPLE CREEK, MEMPHIS, TN, 38125","Match","Non_Exact","7106 APPLE CREEK COVE, MEMPHIS, TN, 38125",72980618,"L"
278211,"7106 BANBURY COURT","SUGAR LAND","TX",77479,29.596093114,-95.654309064,211,"7106 BANBURY COURT, SUGAR LAND, TX, 77479","Match","Exact","7106 BANBURY CT, SUGAR LAND, TX, 77479",617955179,"R"
278212,"7106 CASTOR AVE","PHILADELPHIA","PA",19149,40.0483380790001,-75.068861468,212,"7106 CASTOR AVE, PHILADELPHIA, PA, 19149","Match","Exact","7106 CASTOR AVE, PHILADELPHIA, PA, 19149",131416403,"L"
278213,"7106 CIDER MILL CIRCLE APT 1A","INDIANAPOLIS","IN",46226,39.84950337,-86.0435209839999,213,"7106 CIDER MILL CIRCLE APT 1A, INDIANAPOLIS, IN, 46226","Match","Exact","7106 CIDER MILL CIR, INDIANAPOLIS, IN, 46226",107997586,"L"
278214,"7106 COTTAGE AVE","NORTH BERGEN","NJ",7047,40.79981859,-74.018485798,214,"7106 COTTAGE AVE, NORTH BERGEN, NJ, 7047","Match","Exact","7106 COTTAGE AVE, NORTH BERGEN, NJ, 07047",624457413,"R"
278215,"7106 DUBLIN ROAD","DUBLIN","OH",43017,40.1128855600001,-83.115930089,215,"7106 DUBLIN ROAD, DUBLIN, OH, 43017","Match","Exact","7106 DUBLIN RD, DUBLIN, OH, 43017",653887532,"R"
278216,"7106 HUMBOLDT AVE NORTH","BROOKLYN","MN",55430,45.083734172,-93.300317129,216,"7106 HUMBOLDT AVE NORTH, BROOKLYN, MN, 55430","Match","Non_Exact","7106 HUMBOLDT AVE N, BROOKLYN CTR, MN, 55430",43616263,"R"
278217,"7106 JUNIPER DRIVE","EVERETT","WA",98203,47.9333375190001,-122.194659654,217,"7106 JUNIPER DRIVE, EVERETT, WA, 98203","Match","Exact","7106 JUNIPER DR, EVERETT, WA, 98203",187785084,"R"
278218,"7106 N 140 AVE","OMAHA","NE",68142,41.323587278,-96.1332811359999,218,"7106 N 140 AVE, OMAHA, NE, 68142","Match","Exact","7106 N 140TH AVE, OMAHA, NE, 68142",646678163,"L"
278219,"7106 N CLARK ST","CHICAGO","IL",60606,42.011574667,-87.6744670529999,219,"7106 N CLARK ST, CHICAGO, IL, 60606","Match","Non_Exact","7106 N CLARK ST, CHICAGO, IL, 60626",111745169,"L"
278220,"7106 NC HWY 42 S","RAMSEUR","NC",27316,35.6238533010001,-79.65592947,220,"7106 NC HWY 42 S, RAMSEUR, NC, 27316","Match","Non_Exact","7106 STATE HWY 42 S, RAMSEUR, NC, 27316",642638537,"R"
278221,"7106 PINEY BRANCH ROAD NW","WASHINGTON","DC",20012,38.975904008,-77.021002235,221,"7106 PINEY BRANCH ROAD NW, WASHINGTON, DC, 20012","Match","Exact","7106 PINEY BRANCH RD NW, WASHINGTON, DC, 20012",76221763,"L"
278222,"7106 QUISINBERRY WAY","BOWIE","MD",20720,38.988493141,-76.788654891,222,"7106 QUISINBERRY WAY, BOWIE, MD, 20720","Match","Exact","7106 QUISINBERRY WAY, BOWIE, MD, 20720",76354590,"R"
278223,"7106 SHARPSBURG DR","RICHMOND","TX",77469,29.544069972,-95.687625173,223,"7106 SHARPSBURG DR, RICHMOND, TX, 77469","Match","Exact","7106 SHARPSBURG DR, RICHMOND, TX, 77469",78289874,"R"
278224,"7106 SPRUCE COURT","RIVERDALE","GA",30296,33.5603175260001,-84.398488425,224,"7106 SPRUCE COURT, RIVERDALE, GA, 30296","Match","Non_Exact","7106 SPRUCE CT, RIVERDALE, GA, 30274",23325589,"R"
278225,"7106 W FORD LANE","RICHMOND","TX",77407,NA,NA,225,"7106 W FORD LANE, RICHMOND, TX, 77407","No_Match",NA,NA,NA,NA
278226,"7106 W HEARN RD","PEORIA","AZ",85381,33.6140866470001,-112.211681526,226,"7106 W HEARN RD, PEORIA, AZ, 85381","Match","Exact","7106 W HEARN RD, PEORIA, AZ, 85381",638916857,"R"
278227,"7106 WAYLAND DRIVE","INDIANAPOLIS","IN",46239,39.718653375,-86.042910159,227,"7106 WAYLAND DRIVE, INDIANAPOLIS, IN, 46239","Match","Exact","7106 WAYLAND DR, INDIANAPOLIS, IN, 46239",108010556,"L"
278228,"71065 CYPRESS DRIVE","RANCHO MIRAGE","CA",92270,33.75537976,-116.423433084,228,"71065 CYPRESS DRIVE, RANCHO MIRAGE, CA, 92270","Match","Exact","71065 CYPRESS DR, RANCHO MIRAGE, CA, 92270",636618049,"R"
278229,"7107 BROADWAY UNIT 2","LEMON GROVE","CA",91945,32.742533155,-117.043672249,229,"7107 BROADWAY UNIT 2, LEMON GROVE, CA, 91945","Match","Exact","7107 BROADWAY, LEMON GROVE, CA, 91945",637443271,"R"
278230,"7107 BUCCANEER TRAIL","AUSTIN","TX",78729,30.447802736,-97.751744015,230,"7107 BUCCANEER TRAIL, AUSTIN, TX, 78729","Match","Exact","7107 BUCCANEER TRL, AUSTIN, TX, 78729",126432249,"L"
278231,"7107 COSGROVE DR","DALLAS","TX",75231,32.87606326,-96.7402646209999,231,"7107 COSGROVE DR, DALLAS, TX, 75231","Match","Exact","7107 COSGROVE DR, DALLAS, TX, 75231",102915102,"L"
278232,"7107 GREENWOOD AVE NORTH STE C","SEATTLE","WA",98103,47.6803662780001,-122.355315872,232,"7107 GREENWOOD AVE NORTH STE C, SEATTLE, WA, 98103","Match","Exact","7107 GREENWOOD AVE N, SEATTLE, WA, 98103",186579327,"L"
278233,"7107 KIRKGLADE CT","HOUSTON","TX",77095,29.881584579,-95.65204697,233,"7107 KIRKGLADE CT, HOUSTON, TX, 77095","Match","Exact","7107 KIRKGLADE CT, HOUSTON, TX, 77095",96290118,"R"
278234,"7107 OLD EASTON RD","PIPERSVILLE","PA",18947,NA,NA,234,"7107 OLD EASTON RD, PIPERSVILLE, PA, 18947","Tie",NA,NA,NA,NA
278235,"7107 SOUTH YALE 225","TULSA","OK",74136,36.0606535270001,-95.9220657129999,235,"7107 SOUTH YALE 225, TULSA, OK, 74136","Match","Non_Exact","7107 S YALE AVE, TULSA, OK, 74136",166452406,"L"
278236,"7107 SOUTH YALE AVE","TULSA","OK",74136,36.0606535270001,-95.9220657129999,236,"7107 SOUTH YALE AVE, TULSA, OK, 74136","Match","Exact","7107 S YALE AVE, TULSA, OK, 74136",166452406,"L"
278237,"7107 WISTERIA WAY","CARLSBAD","CA",92011,33.102198206,-117.300985292,237,"7107 WISTERIA WAY, CARLSBAD, CA, 92011","Match","Exact","7107 WISTERIA WAY, CARLSBAD, CA, 92011",195693317,"R"
278238,"7108 COBI PL NW","BREMERTON","WA",98312,47.629081053,-122.731384697,238,"7108 COBI PL NW, BREMERTON, WA, 98312","Match","Exact","7108 COBI PL NW, BREMERTON, WA, 98312",629070143,"L"
278239,"7108 FLAG HARBOR DR","DISTRICT HEIGHTS","MD",20747,38.865090405,-76.886245792,239,"7108 FLAG HARBOR DR, DISTRICT HEIGHTS, MD, 20747","Match","Exact","7108 FLAG HARBOR DR, DISTRICT HEIGHTS, MD, 20747",628119689,"L"
278240,"7108 LITTLE MOHICAN DRIVE","FORT WORTH","TX",76179,32.865839157,-97.4197888259999,240,"7108 LITTLE MOHICAN DRIVE, FORT WORTH, TX, 76179","Match","Exact","7108 LITTLE MOHICAN DR, FORT WORTH, TX, 76179",619874036,"R"
278241,"7108 LONGO DRIVE","THE COLONY","TX",75056,33.0990569620001,-96.862110017,241,"7108 LONGO DRIVE, THE COLONY, TX, 75056","Match","Exact","7108 LONGO DR, THE COLONY, TX, 75056",103380151,"R"
278242,"7108 MERCURY TRAIL","AMARILLO","TX",79118,35.137057478,-101.856990262,242,"7108 MERCURY TRAIL, AMARILLO, TX, 79118","Match","Exact","7108 MERCURY TRL, AMARILLO, TX, 79118",651911100,"R"
278243,"7108 MONTIBILLO PKWY","DURHAM","NC",27713,35.8905668300001,-78.92584471,243,"7108 MONTIBILLO PKWY, DURHAM, NC, 27713","Match","Exact","7108 MONTIBILLO PKWY, DURHAM, NC, 27713",618108316,"R"
278244,"7108 NY 66","EAST NASSAU","NY",12062,42.55431092,-73.5116373829999,244,"7108 NY 66, EAST NASSAU, NY, 12062","Match","Non_Exact","7108 STATE RTE 66, EAST NASSAU, NY, 12062",35738015,"R"
278245,"7108 RED TOP ROAD","HUMMELSTOWN","PA",17036,40.3047079730001,-76.724778253,245,"7108 RED TOP ROAD, HUMMELSTOWN, PA, 17036","Match","Exact","7108 RED TOP RD, HUMMELSTOWN, PA, 17036",70824513,"L"
278246,"7108 S 129TH PL","SEATTLE","WA",98178,47.4871080880001,-122.244966463,246,"7108 S 129TH PL, SEATTLE, WA, 98178","Match","Exact","7108 S 129TH PL, SEATTLE, WA, 98178",186630108,"L"
278247,"7108 S ROCKWELL AVE","CHICAGO","IL",60629,41.7642782190001,-87.6881327139999,247,"7108 S ROCKWELL AVE, CHICAGO, IL, 60629","Match","Non_Exact","7108 S ROCKWELL ST, CHICAGO, IL, 60629",605310346,"R"
278248,"71080 GAS STATION-SHIPPEY RD","ST CLAIRSVILLE","OH",43950,40.120671514,-81.006426244,248,"71080 GAS STATION-SHIPPEY RD, ST CLAIRSVILLE, OH, 43950","Match","Non_Exact","71080 GAS STATION SHIPPEY RD, SAINT CLAIRSVILLE, OH, 43950",36212136,"L"
278249,"7109 BLAKE STREET","EL CERRITO","CA",94530,37.9242266150001,-122.309725998,249,"7109 BLAKE STREET, EL CERRITO, CA, 94530","Match","Exact","7109 BLAKE ST, EL CERRITO, CA, 94530",192043296,"L"
278250,"7109 BOA NOVA DRIVE","ELK GROVE","CA",95757,38.3832007020001,-121.420118356,250,"7109 BOA NOVA DRIVE, ELK GROVE, CA, 95757","Match","Non_Exact","7109 BOA NOVA DR, ELK GROVE, CA, 95758",133429719,"R"
278251,"7109 COUNTY HIGHWAY 19","HALEYVILLE","AL",35565,34.184930605,-87.6675596859999,251,"7109 COUNTY HIGHWAY 19, HALEYVILLE, AL, 35565","Match","Non_Exact","7109 CO RD 19, HALEYVILLE, AL, 35565",130637704,"L"
278252,"7109 FARLEY","ST. LOUIS","MO",63121,38.704862147,-90.2874228049999,252,"7109 FARLEY, ST. LOUIS, MO, 63121","Match","Non_Exact","7109 FARLEY AVE, SAINT LOUIS, MO, 63121",100152472,"R"
278253,"7109 FIELD AVE","ST LOUIS","MO",63116,38.5592873510001,-90.268844378,253,"7109 FIELD AVE, ST LOUIS, MO, 63116","Match","Exact","7109 FIELD AVE, SAINT LOUIS, MO, 63116",107600631,"R"
278254,"7109 FLEETWOOD DRIVE","EDINA","MN",55439,44.8742584290001,-93.370677245,254,"7109 FLEETWOOD DRIVE, EDINA, MN, 55439","Match","Exact","7109 FLEETWOOD DR, EDINA, MN, 55439",43810773,"L"
278255,"7109 GENTRY RD","MARRERO","LA",70072,29.8782401280001,-90.1282415589999,255,"7109 GENTRY RD, MARRERO, LA, 70072","Match","Exact","7109 GENTRY RD, MARRERO, LA, 70072",624720281,"R"
278256,"7109 GLENFIELD LN","CHATTANOOGA","TN",37421,35.054569241,-85.153510941,256,"7109 GLENFIELD LN, CHATTANOOGA, TN, 37421","Match","Exact","7109 GLENFIELD LN, CHATTANOOGA, TN, 37421",59317296,"L"
278257,"7109 NATALIE JANAE LN NE","ALBUQUERQUE","NM",87109,35.15880408,-106.564585791,257,"7109 NATALIE JANAE LN NE, ALBUQUERQUE, NM, 87109","Match","Exact","7109 NATALIE JANAE LN NE, ALBUQUERQUE, NM, 87109",645551874,"R"
278258,"7109 ORDWAY ROAD","CENTREVILLE","VA",20121,38.8079335100001,-77.451324845,258,"7109 ORDWAY ROAD, CENTREVILLE, VA, 20121","Match","Exact","7109 ORDWAY RD, CENTREVILLE, VA, 20121",76032819,"R"
278259,"7109 SALEM","ROWLETT","TX",75089,32.9220014800001,-96.530057584,259,"7109 SALEM, ROWLETT, TX, 75089","Match","Non_Exact","7109 SALEM CT, ROWLETT, TX, 75089",103249032,"L"
278260,"7109 WHISPER CREEK DRIVE","WENTZVILLE","MO",63385,38.777430544,-90.8389074249999,260,"7109 WHISPER CREEK DRIVE, WENTZVILLE, MO, 63385","Match","Exact","7109 WHISPER CREEK DR, WENTZVILLE, MO, 63385",630034241,"L"
278261,"710A JEFFERSON AVE","BROOKLYN","NY",11221,40.6857044240001,-73.928960962,261,"710A JEFFERSON AVE, BROOKLYN, NY, 11221","Match","Exact","710 JEFFERSON AVE, BROOKLYN, NY, 11221",59082762,"R"
278262,"710B CONSTITUTION DRIVE","DURHAM","NC",27705,36.0161818060001,-78.967299183,262,"710B CONSTITUTION DRIVE, DURHAM, NC, 27705","Match","Exact","710 CONSTITUTION DR, DURHAM, NC, 27705",71761273,"R"
278263,"711 1/2 MARYLAND AVENUE","ALAMOGORDO","NM",88310,32.8969589880001,-105.95693084,263,"711 1/2 MARYLAND AVENUE, ALAMOGORDO, NM, 88310","Match","Exact","711 MARYLAND AVE, ALAMOGORDO, NM, 88310",132290610,"L"
278264,"711 17TH STREET","NEWPORT NEWS","VA",23607,36.976889946,-76.414354891,264,"711 17TH STREET, NEWPORT NEWS, VA, 23607","Match","Exact","711 17TH ST, NEWPORT NEWS, VA, 23607",103746737,"L"
278265,"711 19TH STREET","LYNDEN","WA",98264,48.944803818,-122.480909439,265,"711 19TH STREET, LYNDEN, WA, 98264","Match","Exact","711 19TH ST, LYNDEN, WA, 98264",183778319,"L"
278266,"711 29TH AVE E","SEATTLE","WA",98112,47.625295146,-122.295102646,266,"711 29TH AVE E, SEATTLE, WA, 98112","Match","Exact","711 29TH AVE E, SEATTLE, WA, 98112",186588008,"L"
278267,"711 3RD ST S SUITE 6","JACKSONVILLE BEACH","FL",32250,30.2814732000001,-81.3904031169999,267,"711 3RD ST S SUITE 6, JACKSONVILLE BEACH, FL, 32250","Match","Exact","711 3RD ST S, JACKSONVILLE BEACH, FL, 32250",83923874,"L"
278268,"711 4TH STREET NW","WASHINGTON","DC",20001,38.8985734980001,-77.0161738629999,268,"711 4TH STREET NW, WASHINGTON, DC, 20001","Match","Exact","711 4TH ST NW, WASHINGTON, DC, 20001",76226535,"R"
278269,"711 AMSTERDAM AVENUE  APT 6B","NEW YORK","NY",10025,40.7931326290001,-73.971028874,269,"711 AMSTERDAM AVENUE  APT 6B, NEW YORK, NY, 10025","Match","Exact","711 AMSTERDAM AVE, NEW YORK, NY, 10025",59656732,"R"
278270,"711 ANITA DR","TEHACHAPI","CA",93561,35.1261132810001,-118.436620173,270,"711 ANITA DR, TEHACHAPI, CA, 93561","Match","Exact","711 ANITA DR, TEHACHAPI, CA, 93561",108983305,"R"
278271,"711 ARCH HALL LANE","ALEXANDRIA","VA",22314,38.825432457,-77.0454443,271,"711 ARCH HALL LANE, ALEXANDRIA, VA, 22314","Match","Exact","711 ARCH HALL LN, ALEXANDRIA, VA, 22314",76063460,"L"
278272,"711 ARMSTRONG LANE","MT WASHINGTON","KY",40047,NA,NA,272,"711 ARMSTRONG LANE, MT WASHINGTON, KY, 40047","No_Match",NA,NA,NA,NA
278273,"711 ASPEN STREET","SHELLEY","ID",83274,43.3703951570001,-112.120251035,273,"711 ASPEN STREET, SHELLEY, ID, 83274","Match","Non_Exact","711 ASPEN AVE, SHELLEY, ID, 83274",612082316,"L"
278274,"711 AVENUE CHAUMONT","DELRAY BEACH","FL",33445,26.4708730510001,-80.113731339,274,"711 AVENUE CHAUMONT, DELRAY BEACH, FL, 33445","Match","Exact","711 AVE CHAUMONT, DELRAY BEACH, FL, 33445",115336271,"L"
278275,"711 BANDHOLTZ CT","MARINA","CA",93933,36.6713502170001,-121.773065333,275,"711 BANDHOLTZ CT, MARINA, CA, 93933","Match","Exact","711 BANDHOLTZ CT, MARINA, CA, 93933",196851370,"L"
278276,"711 BROADWAY ST","JOURDANTON","TX",78026,28.920082848,-98.547636527,276,"711 BROADWAY ST, JOURDANTON, TX, 78026","Match","Exact","711 BROADWAY ST, JOURDANTON, TX, 78026",637914379,"L"
278277,"711 BRONZE COURT","ACWORTH","GA",30102,34.0886866980001,-84.6261480589999,277,"711 BRONZE COURT, ACWORTH, GA, 30102","Match","Exact","711 BRONZE CT, ACWORTH, GA, 30102",625413512,"L"
278278,"711 BURNET STREET","COPPELL","TX",75019,NA,NA,278,"711 BURNET STREET, COPPELL, TX, 75019","No_Match",NA,NA,NA,NA
278279,"711 CARDINAL AVENUE","ROCKLAND","WI",54653,43.910500604,-90.9127502589999,279,"711 CARDINAL AVENUE, ROCKLAND, WI, 54653","Match","Exact","711 CARDINAL AVE, ROCKLAND, WI, 54653",51007928,"R"
278280,"711 CENTRAL AVENUE","SCARSDALE","NY",10583,NA,NA,280,"711 CENTRAL AVENUE, SCARSDALE, NY, 10583","No_Match",NA,NA,NA,NA
278281,"711 CHAMPAGNOLLE ROAD","EL DORADO","AK",71730,NA,NA,281,"711 CHAMPAGNOLLE ROAD, EL DORADO, AK, 71730","No_Match",NA,NA,NA,NA
278282,"711 CHAMPAGNOLLE ROAD","EL DORADO","AR",71730,33.2175871490001,-92.656857927,282,"711 CHAMPAGNOLLE ROAD, EL DORADO, AR, 71730","Match","Exact","711 CHAMPAGNOLLE RD, EL DORADO, AR, 71730",28159919,"R"
278283,"711 CHICAGO","NEDERLAND","TX",77627,29.9817553230001,-93.987127867,283,"711 CHICAGO, NEDERLAND, TX, 77627","Match","Non_Exact","711 CHICAGO AVE, NEDERLAND, TX, 77627",73860081,"L"
278284,"711 COLLEGE","GOODLAND","KS",67735,39.3521110820001,-101.703580296,284,"711 COLLEGE, GOODLAND, KS, 67735","Match","Non_Exact","711 COLLEGE AVE, GOODLAND, KS, 67735",146652674,"R"
278285,"711 COMMERCIAL STREET","EMPORIA","KS",66801,38.40639423,-96.180145878,285,"711 COMMERCIAL STREET, EMPORIA, KS, 66801","Match","Exact","711 COMMERCIAL ST, EMPORIA, KS, 66801",10958139,"L"
278286,"711 CRAWFORD STREET","PORTSMOUTH","VA",23704,36.832359653,-76.297634522,286,"711 CRAWFORD STREET, PORTSMOUTH, VA, 23704","Match","Exact","711 CRAWFORD ST, PORTSMOUTH, VA, 23704",627124240,"L"
278287,"711 CYPRESS CHASE DR APT 231","ARLINGTON","TX",76011,32.7651228570001,-97.102783643,287,"711 CYPRESS CHASE DR APT 231, ARLINGTON, TX, 76011","Match","Exact","711 CYPRESS CHASE DR, ARLINGTON, TX, 76011",101908265,"L"
278288,"711 DAVIS ROAD","LAWRENCEVILLE","GA",30046,33.9296032550001,-83.9847743569999,288,"711 DAVIS ROAD, LAWRENCEVILLE, GA, 30046","Match","Exact","711 DAVIS RD, LAWRENCEVILLE, GA, 30046",647934519,"L"
278289,"711 DAVIS ST UNIT 3","SCRANTON","PA",18505,41.3767434050001,-75.6914556789999,289,"711 DAVIS ST UNIT 3, SCRANTON, PA, 18505","Match","Exact","711 DAVIS ST, SCRANTON, PA, 18505",139347068,"L"
278290,"711 DAVIS ST","SCRANTON","PA",18505,41.3767434050001,-75.6914556789999,290,"711 DAVIS ST, SCRANTON, PA, 18505","Match","Exact","711 DAVIS ST, SCRANTON, PA, 18505",139347068,"L"
278291,"711 DENNIS DR","DEL RIO","TX",78840,29.370747093,-100.822017093,291,"711 DENNIS DR, DEL RIO, TX, 78840","Match","Exact","711 DENNIS DR, DEL RIO, TX, 78840",173577236,"L"
278292,"711 DR CARVER ST","VILLE PLATTE","LA",70586,30.685669616,-92.2861220509999,292,"711 DR CARVER ST, VILLE PLATTE, LA, 70586","Match","Exact","711 DR CARVER ST, VILLE PLATTE, LA, 70586",13191459,"R"
278293,"711 DURANT STREET","HARLAN","IA",51537,41.6567652890001,-95.319713215,293,"711 DURANT STREET, HARLAN, IA, 51537","Match","Exact","711 DURANT ST, HARLAN, IA, 51537",61807072,"L"
278294,"711 E 26TH STREET","WILMINGTON","DE",19802,39.7519870900001,-75.531970079,294,"711 E 26TH STREET, WILMINGTON, DE, 19802","Match","Exact","711 E 26TH ST, WILMINGTON, DE, 19802",606251960,"L"
278295,"711 E 52ND ST","SAVANNAH","GA",31405,32.0418512310001,-81.089533946,295,"711 E 52ND ST, SAVANNAH, GA, 31405","Match","Exact","711 E 52ND ST, SAVANNAH, GA, 31405",6178241,"R"
278296,"711 E 9TH PL UNIT C","LOS ANGELES","CA",90021,34.0364602930001,-118.250821313,296,"711 E 9TH PL UNIT C, LOS ANGELES, CA, 90021","Match","Non_Exact","711 E 9TH PL, LOS ANGELES, CA, 90021",141619398,"L"
278297,"711 E ASCENSION ST SUITE 605","GONZALES","LA",70737,30.236944582,-90.915340886,297,"711 E ASCENSION ST SUITE 605, GONZALES, LA, 70737","Match","Non_Exact","711 E ASCENSION ST, GONZALES, LA, 70737",115026615,"L"
278298,"711 E BLACKLIDGE ST","TUCSON","AZ",85719,32.2612499850001,-110.960722457,298,"711 E BLACKLIDGE ST, TUCSON, AZ, 85719","Match","Non_Exact","711 E BLACKLIDGE DR, TUCSON, AZ, 85719",121167353,"L"
278299,"711 E COLFAX","SOUTH BEND","IN",46617,41.677832026,-86.240960457,299,"711 E COLFAX, SOUTH BEND, IN, 46617","Match","Non_Exact","711 E COLFAX AVE, SOUTH BEND, IN, 46617",8088274,"L"
278300,"711 E COREY STREET","SCRANTON","PA",18505,41.374209642,-75.695720323,300,"711 E COREY STREET, SCRANTON, PA, 18505","Match","Exact","711 E COREY ST, SCRANTON, PA, 18505",139322868,"L"
278301,"711 E COUNTRY CLUB RD","CHICKASHA","OK",73018,35.015018717,-97.9234677169999,301,"711 E COUNTRY CLUB RD, CHICKASHA, OK, 73018","Match","Exact","711 E COUNTRY CLUB RD, CHICKASHA, OK, 73018",651536041,"L"
278302,"711 E GROVE ST","DELMAR","DE",19940,38.4569152060001,-75.5695572,302,"711 E GROVE ST, DELMAR, DE, 19940","Match","Exact","711 E GROVE ST, DELMAR, DE, 19940",106074240,"R"
278303,"711 E HARVESTER AVE","PAMPA","TX",79065,35.5499787410001,-100.958908165,303,"711 E HARVESTER AVE, PAMPA, TX, 79065","Match","Exact","711 E HARVESTER AVE, PAMPA, TX, 79065",182343665,"L"
278304,"711 E HARVESTER","PAMPA","TX",76065,NA,NA,304,"711 E HARVESTER, PAMPA, TX, 76065","No_Match",NA,NA,NA,NA
278305,"711 E SOUTH 6TH STREET APT 1095","SENECA","SC",29678,34.6779148520001,-82.9420318799999,305,"711 E SOUTH 6TH STREET APT 1095, SENECA, SC, 29678","Match","Non_Exact","711 E SOUTH 6TH ST, SENECA, SC, 29678",627154485,"L"
278306,"711 E SOUTH AVE","EMPORIA","KS",66801,38.397691642,-96.170574701,306,"711 E SOUTH AVE, EMPORIA, KS, 66801","Match","Exact","711 E SOUTH AVE, EMPORIA, KS, 66801",10959960,"L"
278307,"711 E SOUTH ST","TIPTON","IA",52772,41.763644657,-91.1222062799999,307,"711 E SOUTH ST, TIPTON, IA, 52772","Match","Exact","711 E SOUTH ST, TIPTON, IA, 52772",635041602,"L"
278308,"711 E WARDLOW RD STE 203","LONG BEACH","CA",90803,NA,NA,308,"711 E WARDLOW RD STE 203, LONG BEACH, CA, 90803","No_Match",NA,NA,NA,NA
278309,"711 EAST 11TH STREET APT 9G","NEW YORK","NY",10009,40.7264283000001,-73.976979338,309,"711 EAST 11TH STREET APT 9G, NEW YORK, NY, 10009","Match","Exact","711 E 11TH ST, NEW YORK, NY, 10009",59654788,"L"
278310,"711 EAST 222 STREET","EUCLID","OH",44123,41.5955470660001,-81.526785069,310,"711 EAST 222 STREET, EUCLID, OH, 44123","Match","Exact","711 E 222ND ST, EUCLID, OH, 44123",61108565,"L"
278311,"711 EAST 222ND STREET","EUCLID","OH",44123,41.5955470660001,-81.526785069,311,"711 EAST 222ND STREET, EUCLID, OH, 44123","Match","Exact","711 E 222ND ST, EUCLID, OH, 44123",61108565,"L"
278312,"711 EAST MAIN ST","AUBURN","WA",98002,47.307736462,-122.220441439,312,"711 EAST MAIN ST, AUBURN, WA, 98002","Match","Exact","711 E MAIN ST, AUBURN, WA, 98002",186655887,"L"
278313,"711 EAST MAIN STREET SUITE A3","LEXINGTON","SC",29072,33.9848695000001,-81.249194663,313,"711 EAST MAIN STREET SUITE A3, LEXINGTON, SC, 29072","Match","Non_Exact","711 W MAIN ST, LEXINGTON, SC, 29072",70083287,"R"
278314,"711 EAST SOUTH 6TH STREET APT 1095","SENECA","SC",29678,34.6779148520001,-82.9420318799999,314,"711 EAST SOUTH 6TH STREET APT 1095, SENECA, SC, 29678","Match","Exact","711 E SOUTH 6TH ST, SENECA, SC, 29678",627154485,"L"
278315,"711 EAST SOUTH STREET","TIPTON","IA",52772,41.763647689,-91.12220816,315,"711 EAST SOUTH STREET, TIPTON, IA, 52772","Match","Exact","711 E SOUTH ST, TIPTON, IA, 52772",635041602,"L"
278316,"711 EBERLEIN DRIVE","MAUSTON","WI",53948,43.7903486070001,-90.087402605,316,"711 EBERLEIN DRIVE, MAUSTON, WI, 53948","Match","Exact","711 EBERLEIN DR, MAUSTON, WI, 53948",647190891,"L"
278317,"711 EL ENCINO WAY","SACRAMENTO","CA",95864,38.5777636280001,-121.381592027,317,"711 EL ENCINO WAY, SACRAMENTO, CA, 95864","Match","Exact","711 EL ENCINO WAY, SACRAMENTO, CA, 95864",133338625,"L"
278318,"711 ESSES RD","DAYTONA BEACH","FL",32114,NA,NA,318,"711 ESSES RD, DAYTONA BEACH, FL, 32114","No_Match",NA,NA,NA,NA
278319,"711 EVERGREEN CIRCLE","HUDSON","WI",54016,44.975569842,-92.73177143,319,"711 EVERGREEN CIRCLE, HUDSON, WI, 54016","Match","Exact","711 EVERGREEN CIR, HUDSON, WI, 54016",640720716,"R"
278320,"711 FM 1510","BROOKSTON","TX",75421,33.660964635,-95.633816853,320,"711 FM 1510, BROOKSTON, TX, 75421","Match","Exact","711 FM 1510, BROOKSTON, TX, 75421",63583952,"L"
278321,"711 FM 474","BOERNE","TX",78006,29.8972692720001,-98.669006769,321,"711 FM 474, BOERNE, TX, 78006","Match","Exact","711 FM 474, BOERNE, TX, 78006",102754623,"R"
278322,"711 FORD DR","CEDAR HILL","TX",75104,32.576526395,-96.928877001,322,"711 FORD DR, CEDAR HILL, TX, 75104","Match","Exact","711 FORD DR, CEDAR HILL, TX, 75104",102981869,"R"
278323,"711 FOREST AVE","SOUTH BEND","IN",46616,41.684544385,-86.2574212229999,323,"711 FOREST AVE, SOUTH BEND, IN, 46616","Match","Exact","711 FOREST AVE, SOUTH BEND, IN, 46616",8087832,"L"
278324,"711 FRANKLIN AVE","BROOKLYN","NY",11238,40.674242211,-73.9566677939999,324,"711 FRANKLIN AVE, BROOKLYN, NY, 11238","Match","Exact","711 FRANKLIN AVE, BROOKLYN, NY, 11238",59079345,"L"
278325,"711 GENE REED ROAD","BIRMINGHAM","AL",35235,33.5973424090001,-86.692268235,325,"711 GENE REED ROAD, BIRMINGHAM, AL, 35235","Match","Exact","711 GENE REED RD, BIRMINGHAM, AL, 35235",647554829,"R"
278326,"711 GIBBS STREET","NAVASOTA","TX",77868,30.3831609420001,-96.08063716,326,"711 GIBBS STREET, NAVASOTA, TX, 77868","Match","Exact","711 GIBBS ST, NAVASOTA, TX, 77868",21894244,"L"
278327,"711 HAWK VIEW COURT","CHAPIN","SC",29036,34.09796177,-81.382954035,327,"711 HAWK VIEW COURT, CHAPIN, SC, 29036","Match","Exact","711 HAWK VIEW CT, CHAPIN, SC, 29036",70046867,"L"
278328,"711 HAWLEY ST","JESUP","IA",50648,42.4763831290001,-92.061847044,328,"711 HAWLEY ST, JESUP, IA, 50648","Match","Exact","711 HAWLEY ST, JESUP, IA, 50648",101135635,"L"
278329,"711 HIGHLAND PAR DR","BILLINGS","MT",59102,NA,NA,329,"711 HIGHLAND PAR DR, BILLINGS, MT, 59102","No_Match",NA,NA,NA,NA
278330,"711 HIGHLAND PARK DR","BILLINGS","MT",59102,45.7968899970001,-108.534117415,330,"711 HIGHLAND PARK DR, BILLINGS, MT, 59102","Match","Exact","711 HIGHLAND PARK DR, BILLINGS, MT, 59102",181476497,"R"
278331,"711 HILDA STREET","NORTH BELLMORE","NY",11710,40.7058345240001,-73.5340181729999,331,"711 HILDA STREET, NORTH BELLMORE, NY, 11710","Match","Exact","711 HILDA ST, N BELLMORE, NY, 11710",147634160,"L"
278332,"711 HOLLOW ROAD","PHOENIXVILLE","PA",19460,40.1386542810001,-75.489471664,332,"711 HOLLOW ROAD, PHOENIXVILLE, PA, 19460","Match","Exact","711 HOLLOW RD, PHOENIXVILLE, PA, 19460",652822906,"L"
278333,"711 INDIAN ST","BELLE FOURCHE","SD",57717,44.6678724760001,-103.85192419,333,"711 INDIAN ST, BELLE FOURCHE, SD, 57717","Match","Exact","711 INDIAN ST, BELLE FOURCHE, SD, 57717",199762873,"R"
278334,"711 ISLINGTON","TOLEDO","OH",43610,41.6728839990001,-83.561099837,334,"711 ISLINGTON, TOLEDO, OH, 43610","Match","Non_Exact","711 ISLINGTON ST, TOLEDO, OH, 43610",33938466,"L"
278335,"711 JAMACHA ROAD NUMBER 427","EL CAJON","CA",92019,32.787294188,-116.927983547,335,"711 JAMACHA ROAD NUMBER 427, EL CAJON, CA, 92019","Match","Exact","711 JAMACHA RD, EL CAJON, CA, 92019",195333837,"L"
278336,"711 JAMES JONES RD","PLEASANT HILL","NC",27866,36.537368255,-77.5875334259999,336,"711 JAMES JONES RD, PLEASANT HILL, NC, 27866","Match","Exact","711 JAMES JONES RD, PLEASANT HILL, NC, 27866",54068175,"L"
278337,"711 KENNEDY AVE","DUNCANVILLE","TX",75116,32.6576985500001,-96.913459788,337,"711 KENNEDY AVE, DUNCANVILLE, TX, 75116","Match","Exact","711 KENNEDY AVE, DUNCANVILLE, TX, 75116",102942927,"L"
278338,"711 LAKE HARBOUR DR APT 1233","RIDGELAND","MS",39157,32.414022823,-90.1144924289999,338,"711 LAKE HARBOUR DR APT 1233, RIDGELAND, MS, 39157","Match","Exact","711 LAKE HARBOUR DR, RIDGELAND, MS, 39157",152501061,"R"
278339,"711 LAKEVIEW DR","OCOEE","FL",34761,28.581683044,-81.5243489389999,339,"711 LAKEVIEW DR, OCOEE, FL, 34761","Match","Exact","711 LAKEVIEW DR, OCOEE, FL, 34761",94332001,"L"
278340,"711 LANCASTER BLVD","MOSS BEACH","CA",94038,37.5281276310001,-122.508929293,340,"711 LANCASTER BLVD, MOSS BEACH, CA, 94038","Match","Non_Exact","711 LANCASTER AVE, MOSS BEACH, CA, 94038",192410844,"L"
278341,"711 LIVE OAK DRIVE","ANGELS CAMP","CA",95222,38.0732658540001,-120.563121238,341,"711 LIVE OAK DRIVE, ANGELS CAMP, CA, 95222","Match","Exact","711 LIVE OAK DR, ANGELS CAMP, CA, 95222",102294017,"R"
278342,"711 LIVINGSTON ST","STREATOR","IL",61364,41.1167298490001,-88.826288704,342,"711 LIVINGSTON ST, STREATOR, IL, 61364","Match","Exact","711 LIVINGSTON ST, STREATOR, IL, 61364",648441506,"L"
278343,"711 LOS PALOS DRIVE","LAFAYETTE","CA",94549,37.8761855380001,-122.096206036,343,"711 LOS PALOS DRIVE, LAFAYETTE, CA, 94549","Match","Exact","711 LOS PALOS DR, LAFAYETTE, CA, 94549",638568004,"L"
278344,"711 MACOMB ST","COLCHESTER","IL",62326,40.4276095000001,-90.786929736,344,"711 MACOMB ST, COLCHESTER, IL, 62326","Match","Exact","711 MACOMB ST, COLCHESTER, IL, 62326",5367724,"L"
278345,"711 MADISON ST","COPPELL","TX",75019,32.98656111,-96.999332129,345,"711 MADISON ST, COPPELL, TX, 75019","Match","Exact","711 MADISON ST, COPPELL, TX, 75019",102999052,"L"
278346,"711 MAIN ST","SUSANVILLE","CA",96130,40.4185795650001,-120.661657119,346,"711 MAIN ST, SUSANVILLE, CA, 96130","Match","Exact","711 MAIN ST, SUSANVILLE, CA, 96130",126931318,"R"
278347,"711 MARGARET STREET","SPARTA","WI",54656,43.9544521030001,-90.800146652,347,"711 MARGARET STREET, SPARTA, WI, 54656","Match","Exact","711 MARGARET ST, SPARTA, WI, 54656",51067381,"R"
278348,"711 MARINA PARK DRIVE","HUNTSVILLE","AL",35803,34.5841928840001,-86.545149927,348,"711 MARINA PARK DRIVE, HUNTSVILLE, AL, 35803","Match","Non_Exact","711 MARINA PARK DR SE, HUNTSVILLE, AL, 35803",635803910,"L"
278349,"711 MARY DRIVE","MOLALLA","OR",97038,45.1553992600001,-122.584328108,349,"711 MARY DRIVE, MOLALLA, OR, 97038","Match","Exact","711 MARY DR, MOLALLA, OR, 97038",157985885,"L"
278350,"711 MEADOWS DR RM 236","KEESLER AFB","MS",39534,NA,NA,350,"711 MEADOWS DR RM 236, KEESLER AFB, MS, 39534","No_Match",NA,NA,NA,NA
278351,"711 MEDFORD CENTER SUITE 240","MEDFORD","OR",97504,42.3322013000001,-122.865993588,351,"711 MEDFORD CENTER SUITE 240, MEDFORD, OR, 97504","Match","Exact","711 MEDFORD CENTER, MEDFORD, OR, 97504",155564300,"R"
278352,"711 N 11TH AVE","TUCSON","AZ",85705,32.230506055,-110.976359131,352,"711 N 11TH AVE, TUCSON, AZ, 85705","Match","Exact","711 N 11TH AVE, TUCSON, AZ, 85705",121170079,"L"
278353,"711 N 17TH STREET","HARRISBURG","PA",17103,40.2729555070001,-76.8674518399999,353,"711 N 17TH STREET, HARRISBURG, PA, 17103","Match","Exact","711 N 17TH ST, HARRISBURG, PA, 17103",70818051,"R"
278354,"711 N 2ND ST SUITE 2","HARRISBURG","PA",17102,40.2339998040001,-76.823090458,354,"711 N 2ND ST SUITE 2, HARRISBURG, PA, 17102","Match","Non_Exact","711 2ND ST, HARRISBURG, PA, 17113",70829316,"L"
278355,"711 N BRIDGE ST ROOM 13","CHIPPEWA FALLS","WI",54729,44.9399116610001,-91.396645967,355,"711 N BRIDGE ST ROOM 13, CHIPPEWA FALLS, WI, 54729","Match","Non_Exact","711 N BRIDGE ST, CHIPPEWA FALLS, WI, 54729",78924369,"R"
278356,"711 N GARRY DRIVE","LIBERTY LAKE","WA",99019,47.6628592800001,-117.097925518,356,"711 N GARRY DRIVE, LIBERTY LAKE, WA, 99019","Match","Exact","711 N GARRY DR, LIBERTY LAKE, WA, 99019",189912176,"L"
278357,"711 N GLENDALE AVENUE","TOMAH","WI",54660,43.9937774590001,-90.4952677319999,357,"711 N GLENDALE AVENUE, TOMAH, WI, 54660","Match","Exact","711 N GLENDALE AVE, TOMAH, WI, 54660",611626824,"R"
278358,"711 N GRAND AVE","TALEQUAH","OK",74464,35.9227224110001,-94.9667975149999,358,"711 N GRAND AVE, TALEQUAH, OK, 74464","Match","Non_Exact","711 N GRAND AVE, TAHLEQUAH, OK, 74464",53641872,"L"
278359,"711 N MADISON","RAYMORE","MO",64083,38.821171243,-94.456036927,359,"711 N MADISON, RAYMORE, MO, 64083","Match","Non_Exact","711 N MADISON ST, RAYMORE, MO, 64083",100932781,"L"
278360,"711 N WALNUT AVE","CASA GRANDE","AZ",85122,32.879621333,-111.752188049,360,"711 N WALNUT AVE, CASA GRANDE, AZ, 85122","Match","Exact","711 N WALNUT AVE, CASA GRANDE, AZ, 85122",637854910,"L"
278361,"711 N WATER ST","UHRICHSVILLE","OH",44683,40.395207268,-81.347278085,361,"711 N WATER ST, UHRICHSVILLE, OH, 44683","Match","Exact","711 N WATER ST, UHRICHSVILLE, OH, 44683",612281954,"R"
278362,"711 NASH AVE","MENLO PARK","CA",94025,37.459424271,-122.163480625,362,"711 NASH AVE, MENLO PARK, CA, 94025","Match","Exact","711 NASH AVE, MENLO PARK, CA, 94025",192365375,"L"
278363,"711 NE MAGELLAN AVE APT B","LEE'S SUMMIT","MO",64086,38.924824954,-94.361869338,363,"711 NE MAGELLAN AVE APT B, LEE'S SUMMIT, MO, 64086","Match","Non_Exact","711 NE MAGELLAN AVE, LEES SUMMIT, MO, 64086",91473235,"R"
278364,"711 NE RANDALL AVE APT 101","PORTLAND","OR",97232,45.528118943,-122.638075637,364,"711 NE RANDALL AVE APT 101, PORTLAND, OR, 97232","Match","Non_Exact","711 NE RANDALL AVE, PORTLAND, OR, 97232",157507066,"L"
278365,"711 NEW HOPE","TERRELL","TX",75160,32.7247350690001,-96.2877051949999,365,"711 NEW HOPE, TERRELL, TX, 75160","Match","Non_Exact","711 NEW HOPE ST, TERRELL, TX, 75160",123736244,"L"
278366,"711 NO PROSPECT AVE","REDONDO BEACH","CA",90277,33.8543583060001,-118.382357587,366,"711 NO PROSPECT AVE, REDONDO BEACH, CA, 90277","Match","Exact","711 N PROSPECT AVE, REDONDO BEACH, CA, 90277",640128999,"L"
278367,"711 NORTH 17TH STREET","ST LOUIS","MO",63103,38.6342206890001,-90.202898939,367,"711 NORTH 17TH STREET, ST LOUIS, MO, 63103","Match","Exact","711 N 17TH ST, SAINT LOUIS, MO, 63103",107604527,"L"
278368,"711 NORTH 2ND STREET","LUFKIN","TX",75901,31.3446219840001,-94.725368824,368,"711 NORTH 2ND STREET, LUFKIN, TX, 75901","Match","Exact","711 N 2ND ST, LUFKIN, TX, 75901",23840267,"L"
278369,"711 NORTH CARANCAHUA STE 408","CORPUS CHRISTI","TX",78408,NA,NA,369,"711 NORTH CARANCAHUA STE 408, CORPUS CHRISTI, TX, 78408","No_Match",NA,NA,NA,NA
278370,"711 NORTH GRAND BLVD","ST. LOUIS","MO",63103,38.6402863280001,-90.230627555,370,"711 NORTH GRAND BLVD, ST. LOUIS, MO, 63103","Match","Exact","711 N GRAND BLVD, SAINT LOUIS, MO, 63103",107597709,"L"
278371,"711 NORTH PARK RD STE D","PLANT CITY","FL",33563,28.020042442,-82.104997741,371,"711 NORTH PARK RD STE D, PLANT CITY, FL, 33563","Match","Non_Exact","711 PARK RD, PLANT CITY, FL, 33563",104503828,"R"
278372,"711 NW 104TH AVE BLDG 11 UNIT 104","PEMBROKE PINES","FL",33026,26.012891902,-80.285088722,372,"711 NW 104TH AVE BLDG 11 UNIT 104, PEMBROKE PINES, FL, 33026","Match","Non_Exact","711 NW 104TH AVE, PEMBROKE PINES, FL, 33026",114770144,"L"
278373,"711 OAK SPRINGS ROAD","BRYN MAWR","PA",19010,40.0438340270001,-75.311850502,373,"711 OAK SPRINGS ROAD, BRYN MAWR, PA, 19010","Match","Exact","711 OAK SPRINGS RD, BRYN MAWR, PA, 19010",135105707,"R"
278374,"711 OAK STREET","MERKEL","TX",79536,32.463294842,-100.013447944,374,"711 OAK STREET, MERKEL, TX, 79536","Match","Non_Exact","711 S OAK ST, MERKEL, TX, 79536",129953037,"R"
278375,"711 OAKWOOD DRIVE","GLENOLDEN","PA",19036,39.9067585000001,-75.300340978,375,"711 OAKWOOD DRIVE, GLENOLDEN, PA, 19036","Match","Exact","711 OAKWOOD DR, GLENOLDEN, PA, 19036",652559934,"R"
278376,"711 OLD POST ROAD SUITE 9","LINCOLN","NE",68506,NA,NA,376,"711 OLD POST ROAD SUITE 9, LINCOLN, NE, 68506","No_Match",NA,NA,NA,NA
278377,"711 ORCHARD ROAD","HUNTINGBURG","IN",47542,38.2858117430001,-86.9493683919999,377,"711 ORCHARD ROAD, HUNTINGBURG, IN, 47542","Match","Exact","711 ORCHARD RD, HUNTINGBURG, IN, 47542",7881380,"L"
278378,"711 OXFORD STREET","HOUSTON","TX",77007,29.7838347430001,-95.3918627529999,378,"711 OXFORD STREET, HOUSTON, TX, 77007","Match","Exact","711 OXFORD ST, HOUSTON, TX, 77007",96631906,"L"
278379,"711 PARK AVE NW","WILLMAR","MN",56201,45.1287858150001,-95.054471942,379,"711 PARK AVE NW, WILLMAR, MN, 56201","Match","Exact","711 PARK AVE NW, WILLMAR, MN, 56201",36710820,"R"
278380,"711 PEACH STREET","MINDEN","LA",71055,32.6076482710001,-93.276804313,380,"711 PEACH STREET, MINDEN, LA, 71055","Match","Exact","711 PEACH ST, MINDEN, LA, 71055",73394046,"R"
278381,"711 PEACOCK SHREET","VIDALIA","GA",30474,32.224873947,-82.40632978,381,"711 PEACOCK SHREET, VIDALIA, GA, 30474","Match","Non_Exact","711 PEACOCK ST, VIDALIA, GA, 30474",4769301,"R"
278382,"711 PEACOCK STREET","VIDALIA","GA",30474,32.224873947,-82.40632978,382,"711 PEACOCK STREET, VIDALIA, GA, 30474","Match","Exact","711 PEACOCK ST, VIDALIA, GA, 30474",4769301,"R"
278383,"711 PINE STREET","SPARTA","WI",54656,43.946886675,-90.800486275,383,"711 PINE STREET, SPARTA, WI, 54656","Match","Exact","711 PINE ST, SPARTA, WI, 54656",636718081,"L"
278384,"711 PLUNKETT STREET","LEXINGTON","VA",24450,37.7761318930001,-79.451288255,384,"711 PLUNKETT STREET, LEXINGTON, VA, 24450","Match","Exact","711 PLUNKETT ST, LEXINGTON, VA, 24450",63144175,"R"
278385,"711 PRESTON PLACE","GRAPEVINE","TX",76051,32.8909612150001,-97.089363341,385,"711 PRESTON PLACE, GRAPEVINE, TX, 76051","Match","Exact","711 PRESTON PL, GRAPEVINE, TX, 76051",102091900,"L"
278386,"711 QUINCY STREET","ONALASKA","WI",54650,43.8916735660001,-91.227980493,386,"711 QUINCY STREET, ONALASKA, WI, 54650","Match","Exact","711 QUINCY ST, ONALASKA, WI, 54650",51010663,"L"
278387,"711 REAGAN SPRINGS ROAD","SEYMOUR","TN",37865,35.8189356720001,-83.695850664,387,"711 REAGAN SPRINGS ROAD, SEYMOUR, TN, 37865","Match","Exact","711 REAGAN SPRINGS RD, SEYMOUR, TN, 37865",107557073,"L"
278388,"711 RED MILE ROAD","LEXINGTON","KY",40504,38.0470465500001,-84.523388186,388,"711 RED MILE ROAD, LEXINGTON, KY, 40504","Match","Exact","711 RED MILE RD, LEXINGTON, KY, 40504",636246568,"R"
278389,"711 REGENCY DR","SALISBURY","MD",21804,38.3513462440001,-75.58138214,389,"711 REGENCY DR, SALISBURY, MD, 21804","Match","Exact","711 REGENCY DR, SALISBURY, MD, 21804",114461181,"R"
278390,"711 S CARSON STREET STE 4","CARSON CITY","NV",89701,NA,NA,390,"711 S CARSON STREET STE 4, CARSON CITY, NV, 89701","Tie",NA,NA,NA,NA
278391,"711 S HOWARD AVENUE","TAMPA","FL",33606,27.9371457080001,-82.4830268159999,391,"711 S HOWARD AVENUE, TAMPA, FL, 33606","Match","Exact","711 S HOWARD AVE, TAMPA, FL, 33606",104526828,"R"
278392,"711 S L YOUNG BLVD   SUITE 520","OKLAHOMA CITY","OK",73104,NA,NA,392,"711 S L YOUNG BLVD   SUITE 520, OKLAHOMA CITY, OK, 73104","No_Match",NA,NA,NA,NA
278393,"711 S LACLEDE STATION  SUITE 2120","SAINT LOUIS","MO",63119,38.576988666,-90.3383663659999,393,"711 S LACLEDE STATION  SUITE 2120, SAINT LOUIS, MO, 63119","Match","Non_Exact","711 LACLEDE STATION RD, SAINT LOUIS, MO, 63119",100195021,"R"
278394,"711 S LACLEDE STATION RD SUITE 2120","SAINT LOUIS","MO",63119,38.576988666,-90.3383663659999,394,"711 S LACLEDE STATION RD SUITE 2120, SAINT LOUIS, MO, 63119","Match","Exact","711 LACLEDE STATION RD, SAINT LOUIS, MO, 63119",100195021,"R"
278395,"711 S M STREET","TACOMA","WA",98405,47.2556426520001,-122.455472464,395,"711 S M STREET, TACOMA, WA, 98405","Match","Exact","711 S M ST, TACOMA, WA, 98405",184646788,"L"
278396,"711 S MAIN ST","GRAIN VALLEY","MO",64029,NA,NA,396,"711 S MAIN ST, GRAIN VALLEY, MO, 64029","Tie",NA,NA,NA,NA
278397,"711 S MENTOR AVE","PASADENA","CA",91106,34.133439106,-118.130924322,397,"711 S MENTOR AVE, PASADENA, CA, 91106","Match","Exact","711 S MENTOR AVE, PASADENA, CA, 91106",141630978,"R"
278398,"711 S PARK AVENUE","SANFORD","FL",32771,28.8061076170001,-81.2679886499999,398,"711 S PARK AVENUE, SANFORD, FL, 32771","Match","Exact","711 S PARK AVE, SANFORD, FL, 32771",93749898,"L"
278399,"711 S REGESTER ST","BALTIMORE","MD",21231,39.283415609,-76.5923301779999,399,"711 S REGESTER ST, BALTIMORE, MD, 21231","Match","Exact","711 S REGESTER ST, BALTIMORE, MD, 21231",206424593,"L"
278400,"711 S TEJON ST SUITE 201","COLORADO SPRINGS","CO",80903,NA,NA,400,"711 S TEJON ST SUITE 201, COLORADO SPRINGS, CO, 80903","Tie",NA,NA,NA,NA
278401,"711 S ZUNIS AVE","TULSA","OK",74104,36.150623984,-95.9609242879999,401,"711 S ZUNIS AVE, TULSA, OK, 74104","Match","Exact","711 S ZUNIS AVE, TULSA, OK, 74104",166439600,"L"
278402,"711 SADDLEWOOD BOULEVARD","KERRVILLE","TX",78028,30.051036841,-99.1911646999999,402,"711 SADDLEWOOD BOULEVARD, KERRVILLE, TX, 78028","Match","Exact","711 SADDLEWOOD BLVD, KERRVILLE, TX, 78028",176921305,"R"
278403,"711 SAGAMORE","EXCELSIOR SPRINGS","MO",64024,39.327122166,-94.250624548,403,"711 SAGAMORE, EXCELSIOR SPRINGS, MO, 64024","Match","Non_Exact","711 SAGAMORE RD, EXCELSIOR SPRINGS, MO, 64024",89753012,"L"
278404,"711 SAINT  PAUL STREET GROUND FLOOR","BALTIMORE","MD",21202,39.2982329770001,-76.614120065,404,"711 SAINT  PAUL STREET GROUND FLOOR, BALTIMORE, MD, 21202","Match","Exact","711 SAINT PAUL ST, BALTIMORE, MD, 21202",206419417,"R"
278405,"711 SAINT PAUL STREET GROUND FLOOR","BALTIMORE","MD",21202,39.2982329770001,-76.614120065,405,"711 SAINT PAUL STREET GROUND FLOOR, BALTIMORE, MD, 21202","Match","Exact","711 SAINT PAUL ST, BALTIMORE, MD, 21202",206419417,"R"
278406,"711 SECOND AVENUE","WAYNESBURG","PA",15370,39.9012267320001,-80.194625306,406,"711 SECOND AVENUE, WAYNESBURG, PA, 15370","Match","Exact","711 2ND AVE, WAYNESBURG, PA, 15370",51363432,"R"
278407,"711 SIGNAL MOUNTAIN RD UNIT 229","CHATTANOOGA","TN",37405,35.099038525,-85.32845881,407,"711 SIGNAL MOUNTAIN RD UNIT 229, CHATTANOOGA, TN, 37405","Match","Non_Exact","711 SIGNAL MOUNTAIN BLVD, CHATTANOOGA, TN, 37405",605430698,"L"
278408,"711 SLIGO CREEK PARKWAY","TAKOMA  PARK","MD",20912,38.981148456,-76.9980262729999,408,"711 SLIGO CREEK PARKWAY, TAKOMA  PARK, MD, 20912","Match","Exact","711 SLIGO CREEK PKWY, TAKOMA PARK, MD, 20912",76302952,"R"
278409,"711 SO 5TH ST","SPRINGFIELD","IL",62703,39.7946965530001,-89.6494899859999,409,"711 SO 5TH ST, SPRINGFIELD, IL, 62703","Match","Exact","711 S 5TH ST, SPRINGFIELD, IL, 62703",97325304,"R"
278410,"711 SOPERTON HWY","EASTMAN","GA",31023,32.2027722810001,-83.155875532,410,"711 SOPERTON HWY, EASTMAN, GA, 31023","Match","Exact","711 SOPERTON HWY, EASTMAN, GA, 31023",9528200,"L"
278411,"711 SOUTH 2ND STREET","LAPORTE","TX",77571,29.657442143,-95.021193033,411,"711 SOUTH 2ND STREET, LAPORTE, TX, 77571","Match","Non_Exact","711 S 2ND ST, LA PORTE, TX, 77571",96112040,"R"
278412,"711 SOUTH 3RD STREET SUITE 6","JACKSONVILLE BEACH","FL",32250,NA,NA,412,"711 SOUTH 3RD STREET SUITE 6, JACKSONVILLE BEACH, FL, 32250","No_Match",NA,NA,NA,NA
278413,"711 SOUTH 6TH AVENUE","MOUNT VERNON","NY",10550,40.8947226930001,-73.832644634,413,"711 SOUTH 6TH AVENUE, MOUNT VERNON, NY, 10550","Match","Exact","711 S 6TH AVE, MOUNT VERNON, NY, 10550",139747620,"L"
278414,"711 SOUTH GRAMERCY PLACE","LOS ANGELES","CA",90005,34.0594371500001,-118.31320026,414,"711 SOUTH GRAMERCY PLACE, LOS ANGELES, CA, 90005","Match","Exact","711 S GRAMERCY PL, LOS ANGELES, CA, 90005",141603718,"R"
278415,"711 SOUTH MOUNTAIN ROAD","DILLSBURG","PA",17019,40.09652163,-77.0602344339999,415,"711 SOUTH MOUNTAIN ROAD, DILLSBURG, PA, 17019","Match","Exact","711 S MOUNTAIN RD, DILLSBURG, PA, 17019",88717925,"R"
278416,"711 SOUTH TEJON STREET SUITE 201","COLORADO SPRINGS","CO",80903,38.8242522670001,-104.824006427,416,"711 SOUTH TEJON STREET SUITE 201, COLORADO SPRINGS, CO, 80903","Match","Exact","711 S TEJON ST, COLORADO SPRINGS, CO, 80903",105514704,"L"
278417,"711 THOMPSON BLVD","BUFFALO GROVE","IL",60089,NA,NA,417,"711 THOMPSON BLVD, BUFFALO GROVE, IL, 60089","No_Match",NA,NA,NA,NA
278418,"711 TYLER CT","DUNCANVILLE","TX",75137,32.642987137,-96.8952158989999,418,"711 TYLER CT, DUNCANVILLE, TX, 75137","Match","Exact","711 TYLER CT, DUNCANVILLE, TX, 75137",102943745,"R"
278419,"711 TYLER ST FL 2","LYNDHURST","NJ",7071,40.8053553610001,-74.132135347,419,"711 TYLER ST FL 2, LYNDHURST, NJ, 7071","Match","Exact","711 TYLER ST, LYNDHURST, NJ, 07071",64399272,"R"
278420,"711 UNION AVE","JONESBORO","AR",72401,35.8367888540001,-90.705844901,420,"711 UNION AVE, JONESBORO, AR, 72401","Match","Non_Exact","711 UNION ST, JONESBORO, AR, 72401",46909393,"L"
278421,"711 VERSAILLES DRIVE","RIDGELAND","MS",39157,32.417227084,-90.1110700259999,421,"711 VERSAILLES DRIVE, RIDGELAND, MS, 39157","Match","Exact","711 VERSAILLES DR, RIDGELAND, MS, 39157",638511013,"L"
278422,"711 VOELKER ST","DE PERE","WI",54115,44.4498691530001,-88.042624704,422,"711 VOELKER ST, DE PERE, WI, 54115","Match","Exact","711 VOELKER ST, DE PERE, WI, 54115",148101566,"L"
278423,"711 W 86TH AVE","ANCHORAGE","AK",99515,61.1429361310001,-149.893365338,423,"711 W 86TH AVE, ANCHORAGE, AK, 99515","Match","Exact","711 W 86TH AVE, ANCHORAGE, AK, 99515",190798352,"R"
278424,"711 W CHURCH ST APT 12","CHAMPAIGN","IL",61820,40.118248855,-88.254737252,424,"711 W CHURCH ST APT 12, CHAMPAIGN, IL, 61820","Match","Non_Exact","711 W CHURCH ST, CHAMPAIGN, IL, 61820",8810069,"L"
278425,"711 W NEELY AVE","MUNCIE","IN",47303,40.203997703,-85.3940090309999,425,"711 W NEELY AVE, MUNCIE, IN, 47303","Match","Exact","711 W NEELY AVE, MUNCIE, IN, 47303",30836188,"L"
278426,"711 W ROLLINS RD","COLUMBIA","MO",65203,38.944359976,-92.34804418,426,"711 W ROLLINS RD, COLUMBIA, MO, 65203","Match","Exact","711 ROLLINS RD, COLUMBIA, MO, 65203",643949184,"R"
278427,"711 W WALNUT ST","PALMYRA","PA",17078,40.2995507700001,-76.601524023,427,"711 W WALNUT ST, PALMYRA, PA, 17078","Match","Exact","711 W WALNUT ST, PALMYRA, PA, 17078",80683507,"R"
278428,"711 W WASHINGTON","BLOOMINGTON","IL",61701,40.479469228,-88.9999332199999,428,"711 W WASHINGTON, BLOOMINGTON, IL, 61701","Match","Non_Exact","711 W WASHINGTON ST, BLOOMINGTON, IL, 61701",20545381,"R"
278429,"711 W WHITE AVE","MCKINNEY","TX",75069,33.2097326470001,-96.6392698929999,429,"711 W WHITE AVE, MCKINNEY, TX, 75069","Match","Non_Exact","711 W WHITE AVE, MCKINNEY, TX, 75070",210506828,"L"
278430,"711 WASHINGTON AVE","PORT LAVACA","TX",77979,NA,NA,430,"711 WASHINGTON AVE, PORT LAVACA, TX, 77979","No_Match",NA,NA,NA,NA
278431,"711 WASHINGTON ST","PLYMOUTH","NC",27962,35.8571884240001,-76.744647921,431,"711 WASHINGTON ST, PLYMOUTH, NC, 27962","Match","Exact","711 WASHINGTON ST, PLYMOUTH, NC, 27962",18681577,"L"
278432,"711 WEST END AVENUE 7CS","NEW YORK","NY",10025,40.7942700180001,-73.9739357449999,432,"711 WEST END AVENUE 7CS, NEW YORK, NY, 10025","Match","Exact","711 W END AVE, NEW YORK, NY, 10025",59656587,"L"
278433,"711 WEST HARPER STRREET","SNOW HILL","NC",28580,35.4486639680001,-77.686374528,433,"711 WEST HARPER STRREET, SNOW HILL, NC, 28580","Match","Non_Exact","711 W HARPER ST, SNOW HILL, NC, 28580",26504592,"L"
278434,"711 WEST LAKE STREET SUITE 214","MINNEAPOLIS","MN",55408,44.9483571910001,-93.288305061,434,"711 WEST LAKE STREET SUITE 214, MINNEAPOLIS, MN, 55408","Match","Exact","711 W LAKE ST, MINNEAPOLIS, MN, 55408",43628670,"L"
278435,"711 WEST MAIN STREET","MONONGAHELA","PA",15063,40.2052636400001,-79.9316410819999,435,"711 WEST MAIN STREET, MONONGAHELA, PA, 15063","Match","Exact","711 W MAIN ST, MONONGAHELA, PA, 15063",52808667,"L"
278436,"711 WEST SILLER","NEWMAN","IL",61942,39.799937631,-87.992208637,436,"711 WEST SILLER, NEWMAN, IL, 61942","Match","Non_Exact","711 W SILLER ST, NEWMAN, IL, 61942",5736766,"R"
278437,"711 WEST WASHINGTON STREET APT D","SOUTH BEND","IN",46601,41.6763088100001,-86.2597080899999,437,"711 WEST WASHINGTON STREET APT D, SOUTH BEND, IN, 46601","Match","Exact","711 W WASHINGTON ST, SOUTH BEND, IN, 46601",8087956,"R"
278438,"711 WICKHAM LAKES DRIVE","MELBOURNE","FL",32940,28.224160587,-80.721971287,438,"711 WICKHAM LAKES DRIVE, MELBOURNE, FL, 32940","Match","Exact","711 WICKHAM LAKES DR, MELBOURNE, FL, 32940",93945751,"R"
278439,"711 WIL TARA DR","PITTSBURGH","PA",15236,40.3232860110001,-79.951613462,439,"711 WIL TARA DR, PITTSBURGH, PA, 15236","Match","Exact","711 WIL TARA DR, PITTSBURGH, PA, 15236",51659262,"L"
278440,"711 WILFRED AVE","DAYTON","OH",45410,39.749723961,-84.150292624,440,"711 WILFRED AVE, DAYTON, OH, 45410","Match","Exact","711 WILFRED AVE, DAYTON, OH, 45410",143575263,"R"
278441,"711 WOODED HAMLET COURT","ST AUGUSTINE","FL",32084,29.923484391,-81.3494512669999,441,"711 WOODED HAMLET COURT, ST AUGUSTINE, FL, 32084","Match","Exact","711 WOODED HAMLET CT, SAINT AUGUSTINE, FL, 32084",637540871,"L"
278442,"7110 BELFORD RD","SUMMERFIELD","NC",27358,36.199363657,-79.9390152079999,442,"7110 BELFORD RD, SUMMERFIELD, NC, 27358","Match","Exact","7110 BELFORD RD, SUMMERFIELD, NC, 27358",131112611,"R"
278443,"7110 DONNELL PLACE B2","DISTRICT HEIGHTS","MD",20747,38.841234221,-76.885787939,443,"7110 DONNELL PLACE B2, DISTRICT HEIGHTS, MD, 20747","Match","Exact","7110 DONNELL PL, DISTRICT HEIGHTS, MD, 20747",76318851,"L"
278444,"7110 DUBLIN BOULEVARD","DUBLIN","CA",94568,37.7056960410001,-121.921675624,444,"7110 DUBLIN BOULEVARD, DUBLIN, CA, 94568","Match","Exact","7110 DUBLIN BLVD, DUBLIN, CA, 94568",606095127,"L"
278445,"7110 HIGHWAY 12","VIDOR","TX",77662,NA,NA,445,"7110 HIGHWAY 12, VIDOR, TX, 77662","No_Match",NA,NA,NA,NA
278446,"7110 HOLLY HILL DRIVE","DALLAS","TX",75231,32.8744066670001,-96.7603589189999,446,"7110 HOLLY HILL DRIVE, DALLAS, TX, 75231","Match","Exact","7110 HOLLY HILL DR, DALLAS, TX, 75231",611393073,"R"
278447,"7110 LAUDER PLACE","TAMPA","FL",33617,28.0556844290001,-82.372094935,447,"7110 LAUDER PLACE, TAMPA, FL, 33617","Match","Exact","7110 LAUDER PL, TAMPA, FL, 33617",650642948,"L"
278448,"7110 LEDO RD","MOSELEY","VA",23120,37.401956973,-77.7730048079999,448,"7110 LEDO RD, MOSELEY, VA, 23120","Match","Exact","7110 LEDO RD, MOSELEY, VA, 23120",201581195,"L"
278449,"7110 N MARKS AVENUE SUITE 104","FRESNO","CA",93711,36.8384856800001,-119.847457114,449,"7110 N MARKS AVENUE SUITE 104, FRESNO, CA, 93711","Match","Non_Exact","7110 N MARKS AVE, FRESNO, CA, 93711",197632009,"R"
278450,"7110 N YATES RD","FOX POINT","WI",53217,43.146768179,-87.904704623,450,"7110 N YATES RD, FOX POINT, WI, 53217","Match","Exact","7110 N YATES RD, FOX POINT, WI, 53217",77736973,"R"
278451,"7110 OAKLAND COURT","SHERWOOD","AR",72120,34.848875535,-92.188000282,451,"7110 OAKLAND COURT, SHERWOOD, AR, 72120","Match","Exact","7110 OAKLAND CT, SHERWOOD, AR, 72120",83546762,"R"
278452,"7110 PARK AVE APT 3N","FLUSHING","NY",11365,NA,NA,452,"7110 PARK AVE APT 3N, FLUSHING, NY, 11365","No_Match",NA,NA,NA,NA
278453,"7110 PINE LAKE LN","MINT HILL","NC",28227,35.172213179,-80.682101411,453,"7110 PINE LAKE LN, MINT HILL, NC, 28227","Match","Exact","7110 PINE LAKE LN, MINT HILL, NC, 28227",70576666,"L"
278454,"7110 S  WEST SHORE BLVD","TAMPA","FL",33616,27.863202524,-82.5269584709999,454,"7110 S  WEST SHORE BLVD, TAMPA, FL, 33616","Match","Exact","7110 S WEST SHORE BLVD, TAMPA, FL, 33616",104528376,"L"
278455,"7110 S CHAMPAGNE WAY","GILBERT","AZ",85298,33.220781075,-111.711259583,455,"7110 S CHAMPAGNE WAY, GILBERT, AZ, 85298","Match","Exact","7110 CHAMPAGNE WAY, GILBERT, AZ, 85298",243928732,"L"
278456,"7110 STEMEN RD","PICKINGTON","OH",43147,39.892286701,-82.7215557979999,456,"7110 STEMEN RD, PICKINGTON, OH, 43147","Match","Non_Exact","7110 STEMEN RD, PICKERINGTON, OH, 43147",37215572,"R"
278457,"7110 THELMA DR","JACKSONVILLE","AR",72076,34.936217647,-92.186709102,457,"7110 THELMA DR, JACKSONVILLE, AR, 72076","Match","Exact","7110 THELMA DR, JACKSONVILLE, AR, 72076",83532858,"L"
278458,"7110 W 127TH ST STE 230","PALOS HEIGHTS","IL",60463,41.660749223,-87.795209542,458,"7110 W 127TH ST STE 230, PALOS HEIGHTS, IL, 60463","Match","Non_Exact","7110 W 127TH ST, PALOS HEIGHTS, IL, 60463",111815009,"R"
278459,"7110 WELLINGTON POINT RD","MCKINNEY","TX",75072,33.193128406,-96.709565562,459,"7110 WELLINGTON POINT RD, MCKINNEY, TX, 75072","Match","Exact","7110 WELLINGTON POINT RD, MCKINNEY, TX, 75072",616646271,"R"
278460,"7111 ALABAMA  ST 10B","EL PASO","TX",79904,31.848206288,-106.453583004,460,"7111 ALABAMA  ST 10B, EL PASO, TX, 79904","Match","Exact","7111 ALABAMA ST, EL PASO, TX, 79904",636492736,"R"
278461,"7111 COLEMAN RD","EAST LANSING","MI",48823,42.77518602,-84.421035584,461,"7111 COLEMAN RD, EAST LANSING, MI, 48823","Match","Exact","7111 COLEMAN RD, EAST LANSING, MI, 48823",17300303,"L"
278462,"7111 DELLWOOD DRIVE","TAMPA","FL",33619,27.9351246360001,-82.374594159,462,"7111 DELLWOOD DRIVE, TAMPA, FL, 33619","Match","Exact","7111 DELLWOOD DR, TAMPA, FL, 33619",104579225,"R"
278463,"7111 DIXIE HWY 125","CLARKSTON","MI",48346,42.7254057970001,-83.429657947,463,"7111 DIXIE HWY 125, CLARKSTON, MI, 48346","Match","Exact","7111 DIXIE HWY, CLARKSTON, MI, 48346",618069389,"L"
278464,"7111 EAST WILDERNESS AVE","ORANGE","CA",92869,33.8129786120001,-117.777345344,464,"7111 EAST WILDERNESS AVE, ORANGE, CA, 92869","Match","Exact","7111 E WILDERNESS AVE, ORANGE, CA, 92869",144034590,"L"
278465,"7111 HARWIN DR SUITE 105","HOUSTON","TX",77036,29.7179667770001,-95.509114693,465,"7111 HARWIN DR SUITE 105, HOUSTON, TX, 77036","Match","Exact","7111 HARWIN DR, HOUSTON, TX, 77036",96031638,"L"
278466,"7111 HOLATEE TRAIL","SOUTH WEST RANCHES","FL",33330,26.030820853,-80.3290735589999,466,"7111 HOLATEE TRAIL, SOUTH WEST RANCHES, FL, 33330","Match","Non_Exact","7111 HOLATEE TRL, SOUTHWEST RANCHES, FL, 33330",114700179,"R"
278467,"7111 LAKE BARRINGTON DR","NEW ORLEANS","LA",70128,30.0440141710001,-89.969171467,467,"7111 LAKE BARRINGTON DR, NEW ORLEANS, LA, 70128","Match","Exact","7111 LAKE BARRINGTON DR, NEW ORLEANS, LA, 70128",191721491,"R"
278468,"7111 LUCEA RD","LITTLE ROCK","AR",72210,34.688061229,-92.455278321,468,"7111 LUCEA RD, LITTLE ROCK, AR, 72210","Match","Exact","7111 LUCEA RD, LITTLE ROCK, AR, 72210",616392302,"R"
278469,"7111 MARVIN D LOVE FWY STE 209","DALLAS","TX",75237,32.661761857,-96.870878934,469,"7111 MARVIN D LOVE FWY STE 209, DALLAS, TX, 75237","Match","Exact","7111 MARVIN D LOVE FWY, DALLAS, TX, 75237",638415267,"R"
278470,"7111 MASSAPONAX CHURCH RD","SPOTSYLVANIA","VA",22551,38.1937973780001,-77.580626587,470,"7111 MASSAPONAX CHURCH RD, SPOTSYLVANIA, VA, 22551","Match","Exact","7111 MASSAPONAX CHURCH RD, SPOTSYLVANIA, VA, 22551",641115205,"L"
278471,"7111 MOYE DR","LITHONIA","GA",30038,33.6296946900001,-84.114920441,471,"7111 MOYE DR, LITHONIA, GA, 30038","Match","Exact","7111 MOYE DR, LITHONIA, GA, 30038",627760049,"R"
278472,"7111 N FAIRCHILD CIRCLE","FOX POINT","WI",53211,43.145565119,-87.9079400589999,472,"7111 N FAIRCHILD CIRCLE, FOX POINT, WI, 53211","Match","Non_Exact","7111 N FAIRCHILD CIR, FOX POINT, WI, 53217",77736930,"L"
278473,"7111 NW 31ST STREET","BETHANY","OK",73008,35.502374563,-97.6367938449999,473,"7111 NW 31ST STREET, BETHANY, OK, 73008","Match","Exact","7111 NW 31ST ST, BETHANY, OK, 73008",100390373,"R"
278474,"7111 PARK HEIGHTS AVENUE SUITE 503","BALTIMORE","MD",21215,39.3674157990001,-76.705975936,474,"7111 PARK HEIGHTS AVENUE SUITE 503, BALTIMORE, MD, 21215","Match","Exact","7111 PARK HEIGHTS AVE, BALTIMORE, MD, 21215",647416720,"R"
278475,"7111 RAMSGATE AVENUE UNIT 102","LOS ANGELES","CA",90045,33.972924705,-118.373493337,475,"7111 RAMSGATE AVENUE UNIT 102, LOS ANGELES, CA, 90045","Match","Exact","7111 RAMSGATE AVE, LOS ANGELES, CA, 90045",640413575,"R"
278476,"7111 SANTA MONICA BLVD SUITE B 113","WEST HOLLYWOOD","CA",90046,NA,NA,476,"7111 SANTA MONICA BLVD SUITE B 113, WEST HOLLYWOOD, CA, 90046","No_Match",NA,NA,NA,NA
278477,"7111 TALL SPRUCE DR","ANCHORAGE","AK",99502,61.1562386730001,-149.96503298,477,"7111 TALL SPRUCE DR, ANCHORAGE, AK, 99502","Match","Exact","7111 TALL SPRUCE DR, ANCHORAGE, AK, 99502",190795107,"L"
278478,"7111 VERMONT AVE","SAINT LOUIS","MO",63111,38.5540649600001,-90.258497007,478,"7111 VERMONT AVE, SAINT LOUIS, MO, 63111","Match","Exact","7111 VERMONT AVE, SAINT LOUIS, MO, 63111",107601711,"R"
278479,"7111 W 151ST ST   STE 142","OVERLAND PARK","KS",66223,38.8546137110001,-94.6680691129999,479,"7111 W 151ST ST   STE 142, OVERLAND PARK, KS, 66223","Match","Non_Exact","7111 W 151ST ST, OVERLAND PARK, KS, 66223",91285700,"R"
278480,"7111 W MEADOWS LN","GREENFIELD","IN",46140,39.795066751,-85.9363357409999,480,"7111 W MEADOWS LN, GREENFIELD, IN, 46140","Match","Exact","7111 W MEADOWS LN, GREENFIELD, IN, 46140",31077873,"R"
278481,"7111 WESTOVER STREET","HOUSTON","TX",77087,29.672255799,-95.301341038,481,"7111 WESTOVER STREET, HOUSTON, TX, 77087","Match","Exact","7111 WESTOVER ST, HOUSTON, TX, 77087",96605852,"L"
278482,"7112 COLUMBIA PIKE","ANNANDALE","VA",22003,38.8328235220001,-77.190228019,482,"7112 COLUMBIA PIKE, ANNANDALE, VA, 22003","Match","Exact","7112 COLUMBIA PIKE, ANNANDALE, VA, 22003",75980599,"R"
278483,"7112 GRANTHAM WAY","CINCINNATI","OH",45230,39.0841410530001,-84.358840072,483,"7112 GRANTHAM WAY, CINCINNATI, OH, 45230","Match","Exact","7112 GRANTHAM WAY, CINCINNATI, OH, 45230",103965606,"L"
278484,"7112 LAKE CAROLINE DRIVE","CHESTERFIELD","VA",23832,37.422270086,-77.517721636,484,"7112 LAKE CAROLINE DRIVE, CHESTERFIELD, VA, 23832","Match","Exact","7112 LAKE CAROLINE DR, CHESTERFIELD, VA, 23832",616530221,"R"
278485,"7112 LAWNVIEW COURT","TAMPA","FL",33615,28.013264217,-82.5676354509999,485,"7112 LAWNVIEW COURT, TAMPA, FL, 33615","Match","Non_Exact","7112 LAWNVIEW CT N, TAMPA, FL, 33615",104507637,"L"
278486,"7112 NAPLES AVENUE","BIRMINGHAM","AL",35206,33.5481818110001,-86.719521803,486,"7112 NAPLES AVENUE, BIRMINGHAM, AL, 35206","Match","Exact","7112 NAPLES AVE, BIRMINGHAM, AL, 35206",81726717,"L"
278487,"7112 NE 132ND STREET","KIRKLAND","WA",98034,47.7189502680001,-122.246932255,487,"7112 NE 132ND STREET, KIRKLAND, WA, 98034","Match","Exact","7112 NE 132ND ST, KIRKLAND, WA, 98034",635621656,"L"
278488,"7112 PAM TREE CIRCLE","BAKERSFIELD","CA",93308,NA,NA,488,"7112 PAM TREE CIRCLE, BAKERSFIELD, CA, 93308","No_Match",NA,NA,NA,NA
278489,"7112 RIDGE RD","LAKE POINT","UT",84074,40.658443527,-112.279891249,489,"7112 RIDGE RD, LAKE POINT, UT, 84074","Match","Exact","7112 RIDGE RD, LAKE POINT, UT, 84074",617533701,"L"
278490,"7112 S FILLMORE CIR","CENTENNIAL","CO",80112,39.58661391,-104.952986136,490,"7112 S FILLMORE CIR, CENTENNIAL, CO, 80112","Match","Non_Exact","7112 S FILLMORE CIR, CENTENNIAL, CO, 80122",177344930,"L"
278491,"7112 SUNDAYS LANE","FREDERICK","MD",21702,39.4936093040001,-77.4193463839999,491,"7112 SUNDAYS LANE, FREDERICK, MD, 21702","Match","Exact","7112 SUNDAYS LN, FREDERICK, MD, 21702",60748745,"R"
278492,"7112 TANGER BLVD","RIVERDALE","GA",30296,33.562224701,-84.481572233,492,"7112 TANGER BLVD, RIVERDALE, GA, 30296","Match","Exact","7112 TANGER BLVD, RIVERDALE, GA, 30296",625040799,"L"
278493,"7112 TRIUMPH LANE UNIT 50","PERRYSBURG","OH",43551,41.572965158,-83.529847041,493,"7112 TRIUMPH LANE UNIT 50, PERRYSBURG, OH, 43551","Match","Exact","7112 TRIUMPH LN, PERRYSBURG, OH, 43551",624074254,"R"
278494,"7113 BATTLEFIELD LOOP","BRANDYWINE","MD",20613,38.6813930870001,-76.884315117,494,"7113 BATTLEFIELD LOOP, BRANDYWINE, MD, 20613","Match","Non_Exact","7113 BATTLE FIELD LOOP, BRANDYWINE, MD, 20613",641558414,"L"
278495,"7113 BRAMBLE CT","LAS VEGAS","NV",89145,36.1657676070001,-115.254010807,495,"7113 BRAMBLE CT, LAS VEGAS, NV, 89145","Match","Exact","7113 BRAMBLE CT, LAS VEGAS, NV, 89145",201858328,"L"
278496,"7113 COLLEGE AVE","RED WING","MN",55066,NA,NA,496,"7113 COLLEGE AVE, RED WING, MN, 55066","No_Match",NA,NA,NA,NA
278497,"7113 GRIFFIN LANE","JACKSONVILLE","OR",97530,42.240726683,-122.938519109,497,"7113 GRIFFIN LANE, JACKSONVILLE, OR, 97530","Match","Exact","7113 GRIFFIN LN, JACKSONVILLE, OR, 97530",627710056,"R"
278498,"7113 LARAMINE LANE","CORPUS CHRISTI","TX",78414,NA,NA,498,"7113 LARAMINE LANE, CORPUS CHRISTI, TX, 78414","No_Match",NA,NA,NA,NA
278499,"7113 PARKER ROAD","HOUSTON","TX",77016,29.857292779,-95.303211129,499,"7113 PARKER ROAD, HOUSTON, TX, 77016","Match","Exact","7113 PARKER RD, HOUSTON, TX, 77016",96075569,"L"
278500,"7113 RAWLINS COURT","LAS VEGAS","NV",89128,36.1827854490001,-115.248434849,500,"7113 RAWLINS COURT, LAS VEGAS, NV, 89128","Match","Exact","7113 RAWLINS CT, LAS VEGAS, NV, 89128",201859660,"L"
