"ID","Address","City","State","Zip","lat","long","id","input_address","match_indicator","match_type","matched_address","tiger_line_id","tiger_side"
47001,"1300 S EASTON AVE","PEORIA","IL",61605,40.6739311380001,-89.624355843,1,"1300 S EASTON AVE, PEORIA, IL, 61605","Match","Exact","1300 S EASTON AVE, PEORIA, IL, 61605",8717418,"L"
47002,"1300 S LINCOLN ST","BLOOMINGTON","IN",47401,39.1523865020001,-86.5313490199999,2,"1300 S LINCOLN ST, BLOOMINGTON, IN, 47401","Match","Exact","1300 S LINCOLN ST, BLOOMINGTON, IN, 47401",42322855,"R"
47003,"1300 S MIAMI AVE SUITE 2010","MIAMI","FL",33130,NA,NA,3,"1300 S MIAMI AVE SUITE 2010, MIAMI, FL, 33130","No_Match",NA,NA,NA,NA
47004,"1300 S MILL AVE","TEMPE","AZ",85281,33.414669067,-111.939893745,4,"1300 S MILL AVE, TEMPE, AZ, 85281","Match","Exact","1300 S MILL AVE, TEMPE, AZ, 85281",128227136,"R"
47005,"1300 S ROCKY COMFORT RD","MAKANDA","IL",62958,37.5520355680001,-89.116587911,5,"1300 S ROCKY COMFORT RD, MAKANDA, IL, 62958","Match","Exact","1300 S ROCKY COMFORT RD, MAKANDA, IL, 62958",5974766,"R"
47006,"1300 S WALNUT ST","LA HABRA","CA",90631,NA,NA,6,"1300 S WALNUT ST, LA HABRA, CA, 90631","Tie",NA,NA,NA,NA
47007,"1300 S WASHTENAW UNIT 202","CHICAGO","IL",60608,NA,NA,7,"1300 S WASHTENAW UNIT 202, CHICAGO, IL, 60608","No_Match",NA,NA,NA,NA
47008,"1300 S WATSON RD A114 321","BUCKEYE","AZ",85326,NA,NA,8,"1300 S WATSON RD A114 321, BUCKEYE, AZ, 85326","No_Match",NA,NA,NA,NA
47009,"1300 S WATSON RD BLDG A114-250","BUCKEYE","AZ",85326,NA,NA,9,"1300 S WATSON RD BLDG A114-250, BUCKEYE, AZ, 85326","No_Match",NA,NA,NA,NA
47010,"1300 S","BLOOMINGTON","IN",47401,NA,NA,10,"1300 S, BLOOMINGTON, IN, 47401","No_Match",NA,NA,NA,NA
47011,"1300 SARA COURT","MOON","PA",15108,40.5455156850001,-80.2323983269999,11,"1300 SARA COURT, MOON, PA, 15108","Match","Non_Exact","1300 SARA CT, MOON TOWNSHIP, PA, 15108",51927807,"L"
47012,"1300 SARATOGA AVENUE  1104","VENTURA","CA",93003,34.2631117710001,-119.219697406,12,"1300 SARATOGA AVENUE  1104, VENTURA, CA, 93003","Match","Exact","1300 SARATOGA AVE, VENTURA, CA, 93003",109953596,"L"
47013,"1300 SEALS","ALMA","AR",72921,35.4726052950001,-94.213770231,13,"1300 SEALS, ALMA, AR, 72921","Match","Non_Exact","1300 SEALS ST, ALMA, AR, 72921",53498076,"R"
47014,"1300 SEDONA CIRCLE","ONEIDA","WI",54155,44.539973505,-88.132802507,14,"1300 SEDONA CIRCLE, ONEIDA, WI, 54155","Match","Non_Exact","1300 S SEDONA CIR, ONEIDA, WI, 54155",148121880,"L"
47015,"1300 SEVENTEENTH ST NW","WASHINGTON","DC",20036,38.9072984750001,-77.038501595,15,"1300 SEVENTEENTH ST NW, WASHINGTON, DC, 20036","Match","Exact","1300 17TH ST NW, WASHINGTON, DC, 20036",76225616,"L"
47016,"1300 SHALLOWFORD ROAD","CHATTANOOGA","TN",37411,35.041517539,-85.2236952979999,16,"1300 SHALLOWFORD ROAD, CHATTANOOGA, TN, 37411","Match","Exact","1300 SHALLOWFORD RD, CHATTANOOGA, TN, 37411",59311431,"R"
47017,"1300 SHETTER AVE SUITE 2207","JACKSONVILLE BEACH","FL",32250,30.2864331160001,-81.402849023,17,"1300 SHETTER AVE SUITE 2207, JACKSONVILLE BEACH, FL, 32250","Match","Exact","1300 SHETTER AVE, JACKSONVILLE BEACH, FL, 32250",83923318,"L"
47018,"1300 SIERRA CIR","KISSIMMEE","FL",34744,28.311308529,-81.390614118,18,"1300 SIERRA CIR, KISSIMMEE, FL, 34744","Match","Exact","1300 SIERRA CIR, KISSIMMEE, FL, 34744",647498659,"R"
47019,"1300 SILVER EAGLE DR","TARPON SPRINGS","FL",34688,28.12914663,-82.6996027819999,19,"1300 SILVER EAGLE DR, TARPON SPRINGS, FL, 34688","Match","Exact","1300 SILVER EAGLE DR, TARPON SPNGS, FL, 34688",124781060,"R"
47020,"1300 SILVER EAGLE DRIVE","TARPON SPRINGS","FL",34688,28.12914663,-82.6996027819999,20,"1300 SILVER EAGLE DRIVE, TARPON SPRINGS, FL, 34688","Match","Exact","1300 SILVER EAGLE DR, TARPON SPNGS, FL, 34688",124781060,"R"
47021,"1300 SLEEPYTIME TRL","PFLUGERVILLE","TX",78660,30.418801278,-97.637688909,21,"1300 SLEEPYTIME TRL, PFLUGERVILLE, TX, 78660","Match","Exact","1300 SLEEPYTIME TRL, PFLUGERVILLE, TX, 78660",64006902,"L"
47022,"1300 SOUTH 11TH STREET","PHILADELPHIA","PA",19147,39.9334110770001,-75.162238605,22,"1300 SOUTH 11TH STREET, PHILADELPHIA, PA, 19147","Match","Exact","1300 S 11TH ST, PHILADELPHIA, PA, 19147",131411946,"R"
47023,"1300 SOUTH COLUMBUS BLVD","PHILADELPHIA","PA",19147,39.943384463,-75.1634170359999,23,"1300 SOUTH COLUMBUS BLVD, PHILADELPHIA, PA, 19147","Match","Non_Exact","1300 SOUTH ST, PHILADELPHIA, PA, 19147",131408174,"L"
47024,"1300 SOUTHERN BLVD","BRONX","NY",10459,40.8306677030001,-73.891697514,24,"1300 SOUTHERN BLVD, BRONX, NY, 10459","Match","Exact","1300 SOUTHERN BLVD, BRONX, NY, 10459",80301772,"R"
47025,"1300 SOVEREIGN ROW","OKLAHOMA CITY","OK",73108,35.45317707,-97.598699035,25,"1300 SOVEREIGN ROW, OKLAHOMA CITY, OK, 73108","Match","Exact","1300 SOVEREIGN ROW, OKLAHOMA CITY, OK, 73108",100392209,"L"
47026,"1300 SPRUCE STREET","PEA RIDGE","AR",72751,36.440163538,-94.13159164,26,"1300 SPRUCE STREET, PEA RIDGE, AR, 72751","Match","Exact","1300 SPRUCE ST, PEA RIDGE, AR, 72751",619904607,"L"
47027,"1300 SPYGLASS DRIVE NUM 111","AUSTIN","TX",78746,NA,NA,27,"1300 SPYGLASS DRIVE NUM 111, AUSTIN, TX, 78746","No_Match",NA,NA,NA,NA
47028,"1300 SR 314","MARENGO","OH",43334,NA,NA,28,"1300 SR 314, MARENGO, OH, 43334","No_Match",NA,NA,NA,NA
47029,"1300 ST","HOUSTON","TX",77019,NA,NA,29,"1300 ST, HOUSTON, TX, 77019","No_Match",NA,NA,NA,NA
47030,"1300 STONEWOOD DRIVE","CARROLLTON","TX",75006,32.979708105,-96.9067220909999,30,"1300 STONEWOOD DRIVE, CARROLLTON, TX, 75006","Match","Exact","1300 STONEWOOD DR, CARROLLTON, TX, 75006",651677530,"R"
47031,"1300 SUMMERDALE LN","WYLIE","TX",75098,33.0361111490001,-96.5624174169999,31,"1300 SUMMERDALE LN, WYLIE, TX, 75098","Match","Exact","1300 SUMMERDALE LN, WYLIE, TX, 75098",614186579,"L"
47032,"1300 SUMMIT AVENUE  SUITE 725","FORT WORTH","TX",76102,32.745487203,-97.341627022,32,"1300 SUMMIT AVENUE  SUITE 725, FORT WORTH, TX, 76102","Match","Exact","1300 SUMMIT AVE, FORT WORTH, TX, 76102",101884802,"R"
47033,"1300 SUPERIOR / SUITE 2206","CLEVELAND","OH",44114,NA,NA,33,"1300 SUPERIOR / SUITE 2206, CLEVELAND, OH, 44114","No_Match",NA,NA,NA,NA
47034,"1300 SW 124TH TERRACE P103","PEMBROKE PINES","FL",33027,NA,NA,34,"1300 SW 124TH TERRACE P103, PEMBROKE PINES, FL, 33027","No_Match",NA,NA,NA,NA
47035,"1300 SW 14TH ST","BENTONVILLE","AR",72712,36.357341477,-94.2283844089999,35,"1300 SW 14TH ST, BENTONVILLE, AR, 72712","Match","Exact","1300 SW 14TH ST, BENTONVILLE, AR, 72712",636956801,"L"
47036,"1300 SW 54TH AVENUE","PLANTATION","FL",33317,26.101136522,-80.221895139,36,"1300 SW 54TH AVENUE, PLANTATION, FL, 33317","Match","Exact","1300 SW 54TH AVE, PLANTATION, FL, 33317",613221624,"R"
47037,"1300 SW 87TH AVE","MIAMI","FL",33174,25.7576657450001,-80.3360200019999,37,"1300 SW 87TH AVE, MIAMI, FL, 33174","Match","Non_Exact","1300 SW 87TH AVE, MIAMI, FL, 33174",116260125,"R"
47038,"1300 SW FIFTH AVENUE SUITE 2400","PORTLAND","OR",97201,45.514749292,-122.679769663,38,"1300 SW FIFTH AVENUE SUITE 2400, PORTLAND, OR, 97201","Match","Non_Exact","1300 SW 5TH AVE, PORTLAND, OR, 97201",653423206,"L"
47039,"1300 SWEET RAIN DR W","COLLIERVILLE","TN",38017,35.075199916,-89.664074511,39,"1300 SWEET RAIN DR W, COLLIERVILLE, TN, 38017","Match","Non_Exact","1300 SWEET RAIN DR, COLLIERVILLE, TN, 38017",72961727,"R"
47040,"1300 SWISSVALE AVE","WILKINSBURG","PA",15221,40.4438055270001,-79.876323537,40,"1300 SWISSVALE AVE, WILKINSBURG, PA, 15221","Match","Exact","1300 SWISSVALE AVE, WILKINSBURG, PA, 15221",51653840,"R"
47041,"1300 SYDNEY DOVER RD","DOVER","FL",33527,NA,NA,41,"1300 SYDNEY DOVER RD, DOVER, FL, 33527","No_Match",NA,NA,NA,NA
47042,"1300 THICKET DR","MANSFIELD","TX",76063,32.542106652,-97.121367458,42,"1300 THICKET DR, MANSFIELD, TX, 76063","Match","Exact","1300 THICKET DR, MANSFIELD, TX, 76063",618503799,"R"
47043,"1300 TRACY AVE","EXCELSIOR SPRINGS","MO",64024,39.353070873,-94.240191478,43,"1300 TRACY AVE, EXCELSIOR SPRINGS, MO, 64024","Match","Exact","1300 TRACY AVE, EXCELSIOR SPRINGS, MO, 64024",89752930,"L"
47044,"1300 TROY PIKE","VERSAILLES","KY",40383,38.0354957760001,-84.724249463,44,"1300 TROY PIKE, VERSAILLES, KY, 40383","Match","Exact","1300 TROY PIKE, VERSAILLES, KY, 40383",634403848,"L"
47045,"1300 TRYGG ROAD","ELY","MN",55731,47.81628669,-92.126247989,45,"1300 TRYGG ROAD, ELY, MN, 55731","Match","Exact","1300 TRYGG RD, ELY, MN, 55731",163243478,"R"
47046,"1300 TUOLUMNE STREET","VALLEJO","CA",94590,38.11564786,-122.238026815,46,"1300 TUOLUMNE STREET, VALLEJO, CA, 94590","Match","Exact","1300 TUOLUMNE ST, VALLEJO, CA, 94590",192527916,"R"
47047,"1300 UNIVERSITY PARKWAY APT 5","JOHNSON CITY","TN",37604,NA,NA,47,"1300 UNIVERSITY PARKWAY APT 5, JOHNSON CITY, TN, 37604","No_Match",NA,NA,NA,NA
47048,"1300 VAN BUREN AVE SUITE 112","OXFORD","MS",38655,34.365801644,-89.517565944,48,"1300 VAN BUREN AVE SUITE 112, OXFORD, MS, 38655","Match","Exact","1300 VAN BUREN AVE, OXFORD, MS, 38655",607276066,"L"
47049,"1300 VINE SUITE 21","CINCINNATI","OH",45202,39.1095152610001,-84.515073034,49,"1300 VINE SUITE 21, CINCINNATI, OH, 45202","Match","Non_Exact","1300 VINE ST, CINCINNATI, OH, 45202",103935947,"R"
47050,"1300 W 180TH LANE","LOWELL","IN",46356,41.2896831200001,-87.350866702,50,"1300 W 180TH LANE, LOWELL, IN, 46356","Match","Non_Exact","1300 W 180TH ST, LOWELL, IN, 46356",606272934,"L"
47051,"1300 W BEVERLY BLVD","MONTEBELLO","CA",90604,34.0190564910001,-118.114504907,51,"1300 W BEVERLY BLVD, MONTEBELLO, CA, 90604","Match","Non_Exact","1300 W BEVERLY BLVD, MONTEBELLO, CA, 90640",637812598,"R"
47052,"1300 W CRESCENT AVE","PARK RIDGE","IL",60068,42.0072360620001,-87.841998399,52,"1300 W CRESCENT AVE, PARK RIDGE, IL, 60068","Match","Exact","1300 W CRESCENT AVE, PARK RIDGE, IL, 60068",605248749,"R"
47053,"1300 W HALL ST APT 11","OZARK","MO",65721,NA,NA,53,"1300 W HALL ST APT 11, OZARK, MO, 65721","No_Match",NA,NA,NA,NA
47054,"1300 W HIGGINS ROAD SUITE 209","PARK RIDGE","IL",60068,41.987201559,-87.84212196,54,"1300 W HIGGINS ROAD SUITE 209, PARK RIDGE, IL, 60068","Match","Exact","1300 HIGGINS RD, PARK RIDGE, IL, 60068",605007803,"R"
47055,"1300 W HUDSON RD STE 1","ROGERS","AR",72756,36.3554143870001,-94.131995933,55,"1300 W HUDSON RD STE 1, ROGERS, AR, 72756","Match","Non_Exact","1300 W HUDSON RD, ROGERS, AR, 72756",635480405,"L"
47056,"1300 W ROBIDOUX ST","WILMINGTON","CA",90744,33.7877268020001,-118.279402269,56,"1300 W ROBIDOUX ST, WILMINGTON, CA, 90744","Match","Exact","1300 W ROBIDOUX ST, WILMINGTON, CA, 90744",141689270,"L"
47057,"1300 W SAM HOUSTON PKWY S STE100","HOUSTON","TX",77042,29.7493305610001,-95.558352919,57,"1300 W SAM HOUSTON PKWY S STE100, HOUSTON, TX, 77042","Match","Non_Exact","1300 SAM HOUSTON PKWY, HOUSTON, TX, 77042",96619511,"L"
47058,"1300 W WARNER RD SUITE 1023","GILBERT","AZ",85233,33.3370584940001,-111.816725939,58,"1300 W WARNER RD SUITE 1023, GILBERT, AZ, 85233","Match","Non_Exact","1300 W WARNER RD, GILBERT, AZ, 85233",128966190,"R"
47059,"1300 W WARNER ROAD APT 1024","GILBERT","AZ",85233,33.3370584940001,-111.816725939,59,"1300 W WARNER ROAD APT 1024, GILBERT, AZ, 85233","Match","Non_Exact","1300 W WARNER RD, GILBERT, AZ, 85233",128966190,"R"
47060,"1300 W WILLOW STREET","HARRISBURG","SD",57032,NA,NA,60,"1300 W WILLOW STREET, HARRISBURG, SD, 57032","No_Match",NA,NA,NA,NA
47061,"1300 WALLA WALLA AVE","WENATCHEE","WA",98801,47.442582325,-120.320356801,61,"1300 WALLA WALLA AVE, WENATCHEE, WA, 98801","Match","Exact","1300 WALLA WALLA AVE, WENATCHEE, WA, 98801",646558082,"L"
47062,"1300 WERNER-ALLEN RD","NEW LONDON","WI",54961,44.3808726830001,-88.7519952059999,62,"1300 WERNER-ALLEN RD, NEW LONDON, WI, 54961","Match","Non_Exact","1300 WERNER ALLEN RD, NEW LONDON, WI, 54961",74950588,"R"
47063,"1300 WEST 78TH STREET SUITE 305","CLEVELAND","OH",44102,41.4845956450001,-81.7385197469999,63,"1300 WEST 78TH STREET SUITE 305, CLEVELAND, OH, 44102","Match","Exact","1300 W 78TH ST, CLEVELAND, OH, 44102",61101172,"R"
47064,"1300 WEST BROWARD BOULEVARD","FORT LAUDERDALE","FL",33312,26.121903951,-80.158519648,64,"1300 WEST BROWARD BOULEVARD, FORT LAUDERDALE, FL, 33312","Match","Exact","1300 W BROWARD BLVD, FORT LAUDERDALE, FL, 33312",114721362,"L"
47065,"1300 WEST CLAY ST","UKIAH","CA",95482,39.146285016,-123.217815577,65,"1300 WEST CLAY ST, UKIAH, CA, 95482","Match","Exact","1300 W CLAY ST, UKIAH, CA, 95482",67268895,"L"
47066,"1300 WEST COLONIAL TRAIL","BLACKSTONE","VA",23824,37.126864502,-77.9294391779999,66,"1300 WEST COLONIAL TRAIL, BLACKSTONE, VA, 23824","Match","Non_Exact","1300 W COLONIAL TRAIL HWY, BLACKSTONE, VA, 23824",54385957,"L"
47067,"1300 WEST HIGGINS ROAD SUITE 301","PARK RIDGE","IL",60068,41.987201559,-87.84212196,67,"1300 WEST HIGGINS ROAD SUITE 301, PARK RIDGE, IL, 60068","Match","Exact","1300 W HIGGINS RD, PARK RIDGE, IL, 60068",605007803,"R"
47068,"1300 WEST MAIN STREET","VISALIA","CA",93291,36.3300979030001,-119.305566931,68,"1300 WEST MAIN STREET, VISALIA, CA, 93291","Match","Exact","1300 W MAIN ST, VISALIA, CA, 93291",202780090,"R"
47069,"1300 WEST NORTH STREET","JACKSON","MI",49202,42.2589861750001,-84.429620805,69,"1300 WEST NORTH STREET, JACKSON, MI, 49202","Match","Exact","1300 W NORTH ST, JACKSON, MI, 49202",17615670,"R"
47070,"1300 WEST OLYMPIC BLVD  STE 407","LOS ANGELES","CA",90015,34.0473435970001,-118.270112432,70,"1300 WEST OLYMPIC BLVD  STE 407, LOS ANGELES, CA, 90015","Match","Exact","1300 W OLYMPIC BLVD, LOS ANGELES, CA, 90015",141616693,"L"
47071,"1300 WEST SAM HOUSTON PARKWAY S 300","HOUSTON","TX",77042,NA,NA,71,"1300 WEST SAM HOUSTON PARKWAY S 300, HOUSTON, TX, 77042","No_Match",NA,NA,NA,NA
47072,"1300 WEST SWALLOW ROAD","FORT COLLINS","CO",80526,40.5461905510001,-105.099731811,72,"1300 WEST SWALLOW ROAD, FORT COLLINS, CO, 80526","Match","Exact","1300 W SWALLOW RD, FORT COLLINS, CO, 80526",188537845,"R"
47073,"1300 WESTWOOD AVE","COLUMBUS","OH",43212,39.9831632350001,-83.052874899,73,"1300 WESTWOOD AVE, COLUMBUS, OH, 43212","Match","Exact","1300 WESTWOOD AVE, COLUMBUS, OH, 43212",218689271,"R"
47074,"1300 WILDFLOWER LANE","CHASKA","MN",55318,44.8198637350001,-93.5736584859999,74,"1300 WILDFLOWER LANE, CHASKA, MN, 55318","Match","Exact","1300 WILDFLOWER LN, CHASKA, MN, 55318",640256795,"L"
47075,"1300 YORKDALE DRIVE","CHARLOTTE","NC",28217,35.1560709070001,-80.920905261,75,"1300 YORKDALE DRIVE, CHARLOTTE, NC, 28217","Match","Exact","1300 YORKDALE DR, CHARLOTTE, NC, 28217",70516744,"L"
47076,"1300-G EL PASEO RD","LAS CRUCES","NM",88001,32.297281925,-106.771430334,76,"1300-G EL PASEO RD, LAS CRUCES, NM, 88001","Match","Exact","1300 EL PASEO RD, LAS CRUCES, NM, 88001",612726987,"R"
47077,"1300","CHICAGO","IL",60608,NA,NA,77,"1300, CHICAGO, IL, 60608","No_Match",NA,NA,NA,NA
47078,"1300","FRESNO","CA",93710,NA,NA,78,"1300, FRESNO, CA, 93710","No_Match",NA,NA,NA,NA
47079,"13000 ATHENS AVE SUITE 210","LAKEWOOD","OH",44107,41.4739057130001,-81.779307919,79,"13000 ATHENS AVE SUITE 210, LAKEWOOD, OH, 44107","Match","Exact","13000 ATHENS AVE, LAKEWOOD, OH, 44107",61100510,"R"
47080,"13000 BAILEY BRIDGE RD","MIDLOTHIAN","VA",23112,37.398748502,-77.6356870979999,80,"13000 BAILEY BRIDGE RD, MIDLOTHIAN, VA, 23112","Match","Exact","13000 BAILEY BRIDGE RD, MIDLOTHIAN, VA, 23112",201558678,"R"
47081,"13000 BREAKING DAWN DRIVE APT 304","ORLANDO","FL",32824,28.3655461490001,-81.368466182,81,"13000 BREAKING DAWN DRIVE APT 304, ORLANDO, FL, 32824","Match","Exact","13000 BREAKING DAWN DR, ORLANDO, FL, 32824",649052280,"R"
47082,"13000 CAROLINE COVE 2201 A","ORMOND BEACH","FL",32174,NA,NA,82,"13000 CAROLINE COVE 2201 A, ORMOND BEACH, FL, 32174","No_Match",NA,NA,NA,NA
47083,"13000 CHOPPEE ROAD","HEMINGWAY","SC",29554,33.607157822,-79.330595799,83,"13000 CHOPPEE ROAD, HEMINGWAY, SC, 29554","Match","Exact","13000 CHOPPEE RD, HEMINGWAY, SC, 29554",650284639,"R"
47084,"13000 DEERFIELD PARKWAY SUITE 107","MILTON","GA",30004,34.1007524500001,-84.265248861,84,"13000 DEERFIELD PARKWAY SUITE 107, MILTON, GA, 30004","Match","Exact","13000 DEERFIELD PKWY, MILTON, GA, 30004",642693162,"R"
47085,"13000 E 200 SOUTH","COLUMBUS","IN",47203,39.173842532,-85.781918076,85,"13000 E 200 SOUTH, COLUMBUS, IN, 47203","Match","Exact","13000 E 200 S, COLUMBUS, IN, 47203",30974001,"R"
47086,"13000 LAUREL BOWIE ROAD","LAUREL","MD",20708,39.070396342,-76.843668812,86,"13000 LAUREL BOWIE ROAD, LAUREL, MD, 20708","Match","Exact","13000 LAUREL BOWIE RD, LAUREL, MD, 20708",76326473,"L"
47087,"13000 LUTES DRIVE","SILVER SPRING","MD",20906,39.069632691,-77.051773623,87,"13000 LUTES DRIVE, SILVER SPRING, MD, 20906","Match","Exact","13000 LUTES DR, SILVER SPRING, MD, 20906",62063040,"L"
47088,"13000 NE 28TH PL","BELLEVUE","WA",98005,47.6354378070001,-122.167014,88,"13000 NE 28TH PL, BELLEVUE, WA, 98005","Match","Exact","13000 NE 28TH PL, BELLEVUE, WA, 98005",186605634,"L"
47089,"13000 NW CORNELL RD APT 30","PORTLAND","OR",97229,45.5249450630001,-122.810771556,89,"13000 NW CORNELL RD APT 30, PORTLAND, OR, 97229","Match","Non_Exact","13000 NW CORNELL RD, PORTLAND, OR, 97229",635628024,"L"
47090,"13000 OLD WEATHERFORD ROAD","ALEDO","TX",76008,32.7456182870001,-97.557247923,90,"13000 OLD WEATHERFORD ROAD, ALEDO, TX, 76008","Match","Exact","13000 OLD WEATHERFORD RD, ALEDO, TX, 76008",616812469,"L"
47091,"13000 PROMISE ROAD","FISHERS","IN",46038,39.977904789,-85.970698225,91,"13000 PROMISE ROAD, FISHERS, IN, 46038","Match","Exact","13000 PROMISE RD, FISHERS, IN, 46038",29334866,"L"
47092,"13000 S HOUSTON AVE","CHICAGO","IL",60633,41.6590206110001,-87.5483651769999,92,"13000 S HOUSTON AVE, CHICAGO, IL, 60633","Match","Exact","13000 S HOUSTON AVE, CHICAGO, IL, 60633",111782689,"R"
47093,"13000 S TRYON ST SUITE F-260","CHARLOTTE","NC",28278,35.102208789,-80.9899594619999,93,"13000 S TRYON ST SUITE F-260, CHARLOTTE, NC, 28278","Match","Non_Exact","13000 S TRYON ST, CHARLOTTE, NC, 28278",647236825,"L"
47094,"13000 S TRYON STREET STE F228","CHARLOTTE","NC",28278,35.102208789,-80.9899594619999,94,"13000 S TRYON STREET STE F228, CHARLOTTE, NC, 28278","Match","Non_Exact","13000 S TRYON ST, CHARLOTTE, NC, 28278",647236825,"L"
47095,"13000 SOUTH HOUSTON AVENUE","CHICAGO","IL",60633,41.6590206110001,-87.5483651769999,95,"13000 SOUTH HOUSTON AVENUE, CHICAGO, IL, 60633","Match","Exact","13000 S HOUSTON AVE, CHICAGO, IL, 60633",111782689,"R"
47096,"13000 SOUTH TRYON STREET SUITE F228","CHARLOTTE","NC",28278,35.1022105260001,-80.9899557259999,96,"13000 SOUTH TRYON STREET SUITE F228, CHARLOTTE, NC, 28278","Match","Exact","13000 S TRYON ST, CHARLOTTE, NC, 28278",647236825,"L"
47097,"13000 SW 267TH LANE","VASHON","WA",98070,47.3648582820001,-122.501183352,97,"13000 SW 267TH LANE, VASHON, WA, 98070","Match","Exact","13000 SW 267TH LN, VASHON, WA, 98070",186647025,"R"
47098,"13000 VISTA DEL NORTE APT 111","SAN ANTONIO","TX",78216,29.5625370230001,-98.509682802,98,"13000 VISTA DEL NORTE APT 111, SAN ANTONIO, TX, 78216","Match","Exact","13000 VIS DEL NORTE, SAN ANTONIO, TX, 78216",101710364,"R"
47099,"13000 W BLUEMOUND ROAD SUITE 310","ELM GROVE","WI",53221,NA,NA,99,"13000 W BLUEMOUND ROAD SUITE 310, ELM GROVE, WI, 53221","No_Match",NA,NA,NA,NA
47100,"13001 176TH PL NE","REDMOND","WA",98052,47.716929124,-122.104315076,100,"13001 176TH PL NE, REDMOND, WA, 98052","Match","Exact","13001 176TH PL NE, REDMOND, WA, 98052",186679091,"L"
47101,"13001 CHADDSFORD TERRACE","MANASSAS","VA",20112,38.671815382,-77.40670403,101,"13001 CHADDSFORD TERRACE, MANASSAS, VA, 20112","Match","Exact","13001 CHADDSFORD TER, MANASSAS, VA, 20112",619940245,"L"
47102,"13001 CROWNE RIDGE LOOP APT 102","MIDLOTHIAN","VA",23112,37.4146646390001,-77.634328868,102,"13001 CROWNE RIDGE LOOP APT 102, MIDLOTHIAN, VA, 23112","Match","Exact","13001 CROWNE RIDGE LOOP, MIDLOTHIAN, VA, 23112",616554885,"R"
47103,"13001 LAKE ANNA VILLAGE DRIVE","SPOTSYLVANIA","VA",22551,38.095737512,-77.784041481,103,"13001 LAKE ANNA VILLAGE DRIVE, SPOTSYLVANIA, VA, 22551","Match","Exact","13001 LAKE ANNA VILLAGE DR, SPOTSYLVANIA, VA, 22551",85024334,"R"
47104,"13001 SW 88TH TERR S 104B","MIAMI","FL",33186,25.684183096,-80.4042570949999,104,"13001 SW 88TH TERR S 104B, MIAMI, FL, 33186","Match","Non_Exact","13001 SW 88TH TER S, MIAMI, FL, 33186",116078703,"L"
47105,"13002 ARMAGA SPRINGS RD","AUSTIN","TX",78727,30.4271734010001,-97.697682194,105,"13002 ARMAGA SPRINGS RD, AUSTIN, TX, 78727","Match","Exact","13002 ARMAGA SPRINGS RD, AUSTIN, TX, 78727",652146901,"L"
47106,"13002 LAWSONS CREEK LN","HOUSTON","TX",77072,29.691972697,-95.611531874,106,"13002 LAWSONS CREEK LN, HOUSTON, TX, 77072","Match","Exact","13002 LAWSONS CREEK LN, HOUSTON, TX, 77072",636906937,"R"
47107,"13002 OAK BROOK DRIVE","URBANDALE","IA",50322,41.621225844,-93.797507379,107,"13002 OAK BROOK DRIVE, URBANDALE, IA, 50322","Match","Non_Exact","13002 OAK BROOK DR, URBANDALE, IA, 50323",65854837,"L"
47108,"13002 SKYLINE DRIVE","PLAINFIELD","IL",60585,41.645467474,-88.246598868,108,"13002 SKYLINE DRIVE, PLAINFIELD, IL, 60585","Match","Exact","13002 SKYLINE DR, PLAINFIELD, IL, 60585",111635950,"R"
47109,"13002 SUMMER CITY RD","SPRING CITY","TN",37381,35.69452628,-85.004122363,109,"13002 SUMMER CITY RD, SPRING CITY, TN, 37381","Match","Exact","13002 SUMMER CITY RD, SPRING CITY, TN, 37381",59210953,"R"
47110,"13002 SUMMER CITY ROAD","SPRING CITY","TN",37381,35.69452628,-85.004122363,110,"13002 SUMMER CITY ROAD, SPRING CITY, TN, 37381","Match","Exact","13002 SUMMER CITY RD, SPRING CITY, TN, 37381",59210953,"R"
47111,"13003 EL MORADO ST","LA MIRADA","CA",90638,33.913106929,-117.988894805,111,"13003 EL MORADO ST, LA MIRADA, CA, 90638","Match","Exact","13003 EL MORADO ST, LA MIRADA, CA, 90638",141775364,"R"
47112,"13003 MULDOON DRIVE","AUSTIN","TX",78729,30.4458357890001,-97.755124004,112,"13003 MULDOON DRIVE, AUSTIN, TX, 78729","Match","Exact","13003 MULDOON DR, AUSTIN, TX, 78729",126432201,"R"
47113,"13003 NE74 TH STREET","KIRKLAND","WA",98033,NA,NA,113,"13003 NE74 TH STREET, KIRKLAND, WA, 98033","No_Match",NA,NA,NA,NA
47114,"13003 STILLINGTON DRIVE","HOUSTON","TX",77015,29.797148497,-95.194982448,114,"13003 STILLINGTON DRIVE, HOUSTON, TX, 77015","Match","Exact","13003 STILLINGTON DR, HOUSTON, TX, 77015",96096719,"L"
47115,"13003 VAN NUYS BLVD STE E","LOS ANGELES","CA",91331,34.2697301010001,-118.417120092,115,"13003 VAN NUYS BLVD STE E, LOS ANGELES, CA, 91331","Match","Non_Exact","13003 VAN NUYS BLVD, HANSEN HILLS, CA, 91331",141551060,"R"
47116,"13004 CARRIAGE POND DRIVE","HENRICO","VA",23233,37.6473162020001,-77.627358669,116,"13004 CARRIAGE POND DRIVE, HENRICO, VA, 23233","Match","Exact","13004 CARRIAGE POND DR, HENRICO, VA, 23233",106663597,"R"
47117,"13004 HAAS AVENUE","GARDENA","CA",90249,33.914428838,-118.316661837,117,"13004 HAAS AVENUE, GARDENA, CA, 90249","Match","Exact","13004 HAAS AVE, GARDENA, CA, 90249",141661036,"L"
47118,"13004 LAKE MELTON STREET","BEAUFORT","SC",29906,32.383018565,-80.750211768,118,"13004 LAKE MELTON STREET, BEAUFORT, SC, 29906","Match","Exact","13004 LAKE MELTON ST, BEAUFORT, SC, 29906",87604835,"L"
47119,"13004 MURPHY RD STE 210 AND STE 212","STAFFORD","TX",77477,29.6340762780001,-95.565045572,119,"13004 MURPHY RD STE 210 AND STE 212, STAFFORD, TX, 77477","Match","Exact","13004 MURPHY RD, STAFFORD, TX, 77477",78341121,"L"
47120,"13004 SANDIA POINT RD NE","ALBUQUERQUE","NM",87111,35.154087513,-106.49128339,120,"13004 SANDIA POINT RD NE, ALBUQUERQUE, NM, 87111","Match","Exact","13004 SANDIA POINT RD NE, ALBUQUERQUE, NM, 87111",206756381,"L"
47121,"13004 SW GREEN DR","CULVER","OR",97734,44.451452599,-121.249432174,121,"13004 SW GREEN DR, CULVER, OR, 97734","Match","Exact","13004 SW GREEN DR, CULVER, OR, 97734",153249928,"R"
47122,"13004 TURKEY RUN","AUSTIN","TX",78727,30.422281626,-97.6909394,122,"13004 TURKEY RUN, AUSTIN, TX, 78727","Match","Exact","13004 TURKEY RUN, AUSTIN, TX, 78727",63927137,"L"
47123,"13004 WALKERS LANE","BOWIE","MD",20721,38.9430422040001,-76.7799761639999,123,"13004 WALKERS LANE, BOWIE, MD, 20721","Match","Exact","13004 WALKERS LN, BOWIE, MD, 20721",639513605,"L"
47124,"13005 KEVERTON DR","UPPER MARLBORO","MD",20774,38.890651217,-76.781429063,124,"13005 KEVERTON DR, UPPER MARLBORO, MD, 20774","Match","Exact","13005 KEVERTON DR, UPPER MARLBORO, MD, 20774",76322389,"R"
47125,"13005 KINSLEY HEIGHTS DR","BLACK JACK","MO",63033,38.803629916,-90.264628611,125,"13005 KINSLEY HEIGHTS DR, BLACK JACK, MO, 63033","Match","Exact","13005 KINSLEY HEIGHTS DR, BLACK JACK, MO, 63033",100189422,"R"
47126,"13005 LANTERN LANE","LA MIRADA","CA",90638,33.91227926,-117.99215071,126,"13005 LANTERN LANE, LA MIRADA, CA, 90638","Match","Exact","13005 LANTERN LN, LA MIRADA, CA, 90638",141752397,"R"
47127,"13005 LOWELL BLVD","BROOMFIELD","CO",80020,39.9334124700001,-105.034368068,127,"13005 LOWELL BLVD, BROOMFIELD, CO, 80020","Match","Exact","13005 LOWELL BLVD, BROOMFIELD, CO, 80020",645525120,"L"
47128,"13005 MINT LEAF WAY","CULPEPER","VA",22701,38.4901556660001,-77.977512683,128,"13005 MINT LEAF WAY, CULPEPER, VA, 22701","Match","Exact","13005 MINT LEAF WAY, CULPEPER, VA, 22701",642735623,"L"
47129,"13005 RAILHEAD COURT","FRISCO","TX",75033,33.1862632830001,-96.853508284,129,"13005 RAILHEAD COURT, FRISCO, TX, 75033","Match","Exact","13005 RAILHEAD CT, FRISCO, TX, 75033",641483299,"L"
47130,"13005 SOUTH CARONDOLET AVENUE","CHICAGO","IL",60633,41.6589621310001,-87.549535899,130,"13005 SOUTH CARONDOLET AVENUE, CHICAGO, IL, 60633","Match","Exact","13005 S CARONDOLET AVE, CHICAGO, IL, 60633",111782687,"L"
47131,"13005 SOUTHWEST 51ST STREET","MIAMI","FL",33175,25.718181611,-80.405190466,131,"13005 SOUTHWEST 51ST STREET, MIAMI, FL, 33175","Match","Exact","13005 SW 51ST ST, MIAMI, FL, 33175",115965070,"R"
47132,"13006 112TH AVE NE","KIRKLAND","WA",98034,47.717154442,-122.191085685,132,"13006 112TH AVE NE, KIRKLAND, WA, 98034","Match","Exact","13006 112TH AVE NE, KIRKLAND, WA, 98034",186690876,"L"
47133,"13006 BATTALION CT","CLARKSBURG","MD",20871,39.2365609280001,-77.269581659,133,"13006 BATTALION CT, CLARKSBURG, MD, 20871","Match","Exact","13006 BATTALION CT, CLARKSBURG, MD, 20871",618606015,"L"
47134,"13006 PHILADELPHIA STREET SUITE 307","WHITTIER","CA",90601,33.9790983510001,-118.037219127,134,"13006 PHILADELPHIA STREET SUITE 307, WHITTIER, CA, 90601","Match","Exact","13006 PHILADELPHIA ST, WHITTIER, CA, 90601",142797227,"R"
47135,"13006 WINGATE WAY","AUSTIN","TX",78727,30.42659173,-97.7005945659999,135,"13006 WINGATE WAY, AUSTIN, TX, 78727","Match","Exact","13006 WINGATE WAY, AUSTIN, TX, 78727",63927004,"L"
47136,"13007 CAMINITO DEL ROCIO","DEL MAR","CA",92014,NA,NA,136,"13007 CAMINITO DEL ROCIO, DEL MAR, CA, 92014","No_Match",NA,NA,NA,NA
47137,"13007 E 53RD TER","KANSAS CITY","MO",64133,39.0245976040001,-94.427159274,137,"13007 E 53RD TER, KANSAS CITY, MO, 64133","Match","Non_Exact","13007 E 53RD TER, KANSAS CITY, MO, 64133",91464406,"R"
47138,"13007 LINDSAY STREET","PHILADELPHIA","PA",19116,40.121765984,-75.0115130849999,138,"13007 LINDSAY STREET, PHILADELPHIA, PA, 19116","Match","Exact","13007 LINDSAY ST, PHILADELPHIA, PA, 19116",131443591,"R"
47139,"13007 WOODMORE NORTH BOULEVARD","BOWIE","MD",20720,38.9695138660001,-76.776466323,139,"13007 WOODMORE NORTH BOULEVARD, BOWIE, MD, 20720","Match","Exact","13007 WOODMORE NORTH BLVD, BOWIE, MD, 20720",639599352,"R"
47140,"13008 184TH AVE NE","REDMOND","WA",98052,47.7168645030001,-122.094310856,140,"13008 184TH AVE NE, REDMOND, WA, 98052","Match","Exact","13008 184TH AVE NE, REDMOND, WA, 98052",627329278,"R"
47141,"13008 BLAIRMORE STREET","BELTSVILLE","MD",20705,39.057565443,-76.936912821,141,"13008 BLAIRMORE STREET, BELTSVILLE, MD, 20705","Match","Exact","13008 BLAIRMORE ST, BELTSVILLE, MD, 20705",76323580,"L"
47142,"13008 CHAMBORD WAY","SAN DIEGO","CA",92130,32.9561222660001,-117.199271958,142,"13008 CHAMBORD WAY, SAN DIEGO, CA, 92130","Match","Exact","13008 CHAMBORD WAY, SAN DIEGO, CA, 92130",635494107,"L"
47143,"13008 FLACK STREET","SILVER SPRING","MD",20906,39.069128773,-77.063329863,143,"13008 FLACK STREET, SILVER SPRING, MD, 20906","Match","Exact","13008 FLACK ST, SILVER SPRING, MD, 20906",62060716,"L"
47144,"13008 LEXA MANOR","HOUSTON","TX",77082,29.715716403,-95.612957304,144,"13008 LEXA MANOR, HOUSTON, TX, 77082","Match","Exact","13008 LEXA MANOR, HOUSTON, TX, 77082",645148772,"L"
47145,"13008 NE 32ND PLACE","BELLEVUE","WA",98005,47.6395622270001,-122.167113589,145,"13008 NE 32ND PLACE, BELLEVUE, WA, 98005","Match","Exact","13008 NE 32ND PL, BELLEVUE, WA, 98005",186605618,"L"
47146,"13008 WALNUT STREET","SOUTHGATE","MI",48195,42.2089921140001,-83.183876862,146,"13008 WALNUT STREET, SOUTHGATE, MI, 48195","Match","Exact","13008 WALNUT ST, SOUTHGATE, MI, 48195",95451853,"R"
47147,"13009 ALPENHORN WAY","SILVER SPRING","MD",20904,39.0680534890001,-76.937598225,147,"13009 ALPENHORN WAY, SILVER SPRING, MD, 20904","Match","Non_Exact","13009 ALPENHORN, SILVER SPRING, MD, 20904",618606311,"R"
47148,"13009 CANTERBURY ROAD","SAVANNAH","GA",31419,31.962050812,-81.151883788,148,"13009 CANTERBURY ROAD, SAVANNAH, GA, 31419","Match","Exact","13009 CANTERBURY RD, SAVANNAH, GA, 31419",6172097,"R"
47149,"13009 CEDAR","LEAWOOD","KS",66209,38.891750868,-94.641699552,149,"13009 CEDAR, LEAWOOD, KS, 66209","Match","Non_Exact","13009 CEDAR ST, LEAWOOD, KS, 66209",91296198,"L"
47150,"13009 COLLECTING CANAL RD","LOXAHATCHEE","FL",33470,26.6880600980001,-80.250248476,150,"13009 COLLECTING CANAL RD, LOXAHATCHEE, FL, 33470","Match","Exact","13009 COLLECTING CANAL RD, LOXAHATCHEE, FL, 33470",115351578,"R"
47151,"13009 DELMAR ST","LEAWOOD","KS",66209,38.8925630570001,-94.634627838,151,"13009 DELMAR ST, LEAWOOD, KS, 66209","Match","Exact","13009 DELMAR ST, LEAWOOD, KS, 66209",91306133,"L"
47152,"13009 LITTLE HAYDEN CIRCLE","HAGERSTOWN","MD",21742,39.6678900540001,-77.69624995,152,"13009 LITTLE HAYDEN CIRCLE, HAGERSTOWN, MD, 21742","Match","Exact","13009 LITTLE HAYDEN CIR, HAGERSTOWN, MD, 21742",612157022,"R"
47153,"13009 LONDON RD","ORIENT","OH",43146,39.749476418,-83.184394524,153,"13009 LONDON RD, ORIENT, OH, 43146","Match","Exact","13009 LONDON RD, ORIENT, OH, 43146",37453770,"L"
47154,"13009 S BERENDO AVE","GARDENA","CA",90247,33.914094361,-118.294446131,154,"13009 S BERENDO AVE, GARDENA, CA, 90247","Match","Exact","13009 BERENDO AVE, GARDENA, CA, 90247",141662227,"R"
47155,"13009 W LINEBAUGH AVE UNIT 1","TAMPA","FL",33626,NA,NA,155,"13009 W LINEBAUGH AVE UNIT 1, TAMPA, FL, 33626","No_Match",NA,NA,NA,NA
47156,"1300A ALBINA AVE","BERKELEY","CA",94706,NA,NA,156,"1300A ALBINA AVE, BERKELEY, CA, 94706","Tie",NA,NA,NA,NA
47157,"1300A W FON DU LAC AVE","MILWAUKEE","WI",53205,43.0530388340001,-87.92880875,157,"1300A W FON DU LAC AVE, MILWAUKEE, WI, 53205","Match","Non_Exact","1300 W FOND DU LAC AVE, MILWAUKEE, WI, 53205",639919809,"R"
47158,"1301 10TH STREET","PAWNEE CITY","NE",68420,40.1125163670001,-96.146682313,158,"1301 10TH STREET, PAWNEE CITY, NE, 68420","Match","Exact","1301 10TH ST, PAWNEE CITY, NE, 68420",34451524,"R"
47159,"1301 11TH AVENUE","SACRAMENTO","CA",95818,38.5462382850001,-121.50275627,159,"1301 11TH AVENUE, SACRAMENTO, CA, 95818","Match","Exact","1301 11TH AVE, SACRAMENTO, CA, 95818",133389925,"L"
47160,"1301 15TH STREET NW APT 617","WASHINGTON","DC",20005,NA,NA,160,"1301 15TH STREET NW APT 617, WASHINGTON, DC, 20005","No_Match",NA,NA,NA,NA
47161,"1301 1ST AVE APT 2111","SEATTLE","WA",98101,47.6069073090001,-122.338274669,161,"1301 1ST AVE APT 2111, SEATTLE, WA, 98101","Match","Exact","1301 1ST AVE, SEATTLE, WA, 98101",186589396,"L"
47162,"1301 1ST AVE APT 807","SEATTLE","WA",98101,47.6069073090001,-122.338274669,162,"1301 1ST AVE APT 807, SEATTLE, WA, 98101","Match","Exact","1301 1ST AVE, SEATTLE, WA, 98101",186589396,"L"
47163,"1301 1ST AVE N","FORT DODGE","IA",50501,42.5072685380001,-94.180972915,163,"1301 1ST AVE N, FORT DODGE, IA, 50501","Match","Exact","1301 1ST AVE N, FORT DODGE, IA, 50501",66072277,"R"
47164,"1301 44TH PLACE SE","WASHINGTON","DC",20019,38.874775556,-76.935763706,164,"1301 44TH PLACE SE, WASHINGTON, DC, 20019","Match","Exact","1301 44TH PL SE, WASHINGTON, DC, 20019",76233853,"R"
47165,"1301 49TH ST","WEST DES MOINES","IA",50265,41.58989316,-93.7674435599999,165,"1301 49TH ST, WEST DES MOINES, IA, 50265","Match","Non_Exact","1301 49TH ST, WEST DES MOINES, IA, 50266",640782167,"R"
47166,"1301 49TH STREET SOUTH","GULFPORT","FL",33707,27.7577525400001,-82.699768077,166,"1301 49TH STREET SOUTH, GULFPORT, FL, 33707","Match","Exact","1301 49TH ST S, GULFPORT, FL, 33707",124700951,"R"
47167,"1301 5TH AVE STE 1500","SEATTLE","WA",98101,47.608764497,-122.333836714,167,"1301 5TH AVE STE 1500, SEATTLE, WA, 98101","Match","Exact","1301 5TH AVE, SEATTLE, WA, 98101",239762484,"L"
47168,"1301 5TH AVENUE SUITE 1500","SEATTLE","WA",98101,47.608764497,-122.333836714,168,"1301 5TH AVENUE SUITE 1500, SEATTLE, WA, 98101","Match","Exact","1301 5TH AVE, SEATTLE, WA, 98101",239762484,"L"
47169,"1301 7TH STREET NW SUITE 805","WASHINGTON","DC",20001,38.9073502370001,-77.021909135,169,"1301 7TH STREET NW SUITE 805, WASHINGTON, DC, 20001","Match","Exact","1301 7TH ST NW, WASHINGTON, DC, 20001",76226216,"R"
47170,"1301 8TH AVENUE SOUTH","NASHVILLE","TN",37203,36.1395504110001,-86.7784279099999,170,"1301 8TH AVENUE SOUTH, NASHVILLE, TN, 37203","Match","Non_Exact","1301 8TH AVE S, NASHVILLE, TN, 37204",97191612,"R"
47171,"1301 A ROUND POND ROAD","LAKE RONKONKOMA","NY",11779,40.8332820620001,-73.0948349499999,171,"1301 A ROUND POND ROAD, LAKE RONKONKOMA, NY, 11779","Match","Exact","1301 ROUND POND RD, LAKE RONKONKOMA, NY, 11779",114005046,"R"
47172,"1301 ALAMANCE CHURCH ROAD","GREENSBORO","NC",27406,36.036860866,-79.763256068,172,"1301 ALAMANCE CHURCH ROAD, GREENSBORO, NC, 27406","Match","Exact","1301 ALAMANCE CHURCH RD, GREENSBORO, NC, 27406",640600471,"L"
47173,"1301 ALAMOGORDO ST","DEMING","NM",88030,32.2559597420001,-107.773084412,173,"1301 ALAMOGORDO ST, DEMING, NM, 88030","Match","Exact","1301 ALAMOGORDO ST, DEMING, NM, 88030",201327946,"R"
47174,"1301 ASHERVILLE RD LOT E","BELOIT","KS",67420,39.451566153,-98.092563372,174,"1301 ASHERVILLE RD LOT E, BELOIT, KS, 67420","Match","Exact","1301 ASHERVILLE RD, BELOIT, KS, 67420",148310734,"L"
47175,"1301 AUTUMN HILL LANE","STONE MOUNTAIN","GA",30083,33.7557839620001,-84.209259867,175,"1301 AUTUMN HILL LANE, STONE MOUNTAIN, GA, 30083","Match","Exact","1301 AUTUMN HILL LN, STONE MOUNTAIN, GA, 30083",23383431,"L"
47176,"1301 AUTUMN RIDGE CT","LEHI","UT",84043,40.4264367380001,-111.828345755,176,"1301 AUTUMN RIDGE CT, LEHI, UT, 84043","Match","Exact","1301 AUTUMN RIDGE CT, LEHI, UT, 84043",627830099,"R"
47177,"1301 AVE OF THE AMER - ROOM 23052","NEW YORK","NY",10019,NA,NA,177,"1301 AVE OF THE AMER - ROOM 23052, NEW YORK, NY, 10019","No_Match",NA,NA,NA,NA
47178,"1301 BEAL STREET","ROCKY MOUNT","NC",27804,35.9482596280001,-77.813181333,178,"1301 BEAL STREET, ROCKY MOUNT, NC, 27804","Match","Exact","1301 BEAL ST, ROCKY MOUNT, NC, 27804",90382815,"L"
47179,"1301 BELLEFONTAINE AVE","LIMA","OH",45804,40.7318048000001,-84.0816802319999,179,"1301 BELLEFONTAINE AVE, LIMA, OH, 45804","Match","Non_Exact","1301 BELLFONTAINE AVE, LIMA, OH, 45804",209554107,"L"
47180,"1301 BLAINE AVENUE","RACINE","WI",53405,42.71679749,-87.8198119369999,180,"1301 BLAINE AVENUE, RACINE, WI, 53405","Match","Exact","1301 BLAINE AVE, RACINE, WI, 53405",77909470,"L"
47181,"1301 BRAY CENTRAL DR BLD R 18202","ALLEN","TX",75013,33.1201788230001,-96.686618933,181,"1301 BRAY CENTRAL DR BLD R 18202, ALLEN, TX, 75013","Match","Exact","1301 BRAY CENTRAL DR, ALLEN, TX, 75013",639245433,"R"
47182,"1301 BRIDGECREEK LANE","LAYTON","UT",84041,41.041373632,-111.990786509,182,"1301 BRIDGECREEK LANE, LAYTON, UT, 84041","Match","Non_Exact","1301 S BRIDGECREEK LN, LAYTON, UT, 84041",155331870,"L"
47183,"1301 BURNETTS CHAPEL RD","GREENSBORO","NC",27406,35.952511927,-79.842029779,183,"1301 BURNETTS CHAPEL RD, GREENSBORO, NC, 27406","Match","Exact","1301 BURNETTS CHAPEL RD, GREENSBORO, NC, 27406",131111802,"L"
47184,"1301 CARLISLE ROAD","CAMP HILL","PA",17011,40.2310914330001,-76.8973989799999,184,"1301 CARLISLE ROAD, CAMP HILL, PA, 17011","Match","Exact","1301 CARLISLE RD, CAMP HILL, PA, 17011",60945043,"L"
47185,"1301 CARRUTHERS LANE","WILMINGTON","DE",19803,39.772036847,-75.5387518649999,185,"1301 CARRUTHERS LANE, WILMINGTON, DE, 19803","Match","Exact","1301 CARRUTHERS LN, WILMINGTON, DE, 19803",640719704,"L"
47186,"1301 CASTLEGAR LN","JUSTIN","TX",76247,33.038039935,-97.330822618,186,"1301 CASTLEGAR LN, JUSTIN, TX, 76247","Match","Exact","1301 CASTLEGAR LN, JUSTIN, TX, 76247",619865568,"L"
47187,"1301 CENTAUR DR","DISTRICT HEIGHTS","MD",20747,38.872395028,-76.881612173,187,"1301 CENTAUR DR, DISTRICT HEIGHTS, MD, 20747","Match","Exact","1301 CENTAUR DR, DISTRICT HEIGHTS, MD, 20747",76318131,"R"
47188,"1301 CENTRE PKWY A45","LEXINGTON","KY",40517,NA,NA,188,"1301 CENTRE PKWY A45, LEXINGTON, KY, 40517","No_Match",NA,NA,NA,NA
47189,"1301 CIRRUS DR NW","ALBUQUERQUE","NM",87120,35.097689216,-106.751571119,189,"1301 CIRRUS DR NW, ALBUQUERQUE, NM, 87120","Match","Exact","1301 CIRRUS DR NW, ALBUQUERQUE, NM, 87120",625223033,"L"
47190,"1301 CLYDE","AMARILLO","TX",79106,35.201875521,-101.897832039,190,"1301 CLYDE, AMARILLO, TX, 79106","Match","Non_Exact","1301 CLYDE ST, AMARILLO, TX, 79106",182468670,"L"
47191,"1301 COATES BLUFF DR 1225 POB44524","SHREVEPORT","LA",71104,32.492781028,-93.7124942569999,191,"1301 COATES BLUFF DR 1225 POB44524, SHREVEPORT, LA, 71104","Match","Exact","1301 COATES BLUFF DR, SHREVEPORT, LA, 71104",108517253,"L"
47192,"1301 COLLEGE AVE  219 COMBS HALL","FREDERICKSBURG","VA",22401,38.298156417,-77.4735642319999,192,"1301 COLLEGE AVE  219 COMBS HALL, FREDERICKSBURG, VA, 22401","Match","Exact","1301 COLLEGE AVE, FREDERICKSBURG, VA, 22401",85005418,"R"
47193,"1301 COUNTRY CLUB RD","CONWAY","AR",72034,35.097326799,-92.480020547,193,"1301 COUNTRY CLUB RD, CONWAY, AR, 72034","Match","Exact","1301 COUNTRY CLUB RD, CONWAY, AR, 72034",141045721,"L"
47194,"1301 COUNTRY CLUB ROAD","CONWAY","AR",72034,35.097326799,-92.480020547,194,"1301 COUNTRY CLUB ROAD, CONWAY, AR, 72034","Match","Exact","1301 COUNTRY CLUB RD, CONWAY, AR, 72034",141045721,"L"
47195,"1301 CR 423","MAY","TX",76857,31.927809408,-98.95933725,195,"1301 CR 423, MAY, TX, 76857","Match","Exact","1301 CO RD 423, MAY, TX, 76857",129456561,"L"
47196,"1301 DELAWARE AVENUE SW","WASHINGTON","MD",20024,NA,NA,196,"1301 DELAWARE AVENUE SW, WASHINGTON, MD, 20024","No_Match",NA,NA,NA,NA
47197,"1301 DICKERSON PIKE","NASHVILLE","TN",37207,36.1945779700001,-86.772313044,197,"1301 DICKERSON PIKE, NASHVILLE, TN, 37207","Match","Exact","1301 DICKERSON PIKE, NASHVILLE, TN, 37207",97187459,"R"
47198,"1301 DOGWOOD DR","FREDERICK","MD",21701,39.4296483200001,-77.3920835179999,198,"1301 DOGWOOD DR, FREDERICK, MD, 21701","Match","Exact","1301 DOGWOOD DR, FREDERICK, MD, 21701",60697640,"R"
47199,"1301 DOVER AVE","SAN PABLO","CA",94806,37.960390966,-122.356444272,199,"1301 DOVER AVE, SAN PABLO, CA, 94806","Match","Exact","1301 DOVER AVE, SAN PABLO, CA, 94806",192038415,"L"
47200,"1301 DULCIMER LN","GROTTOES","VA",24441,38.2679031070001,-78.811106992,200,"1301 DULCIMER LN, GROTTOES, VA, 24441","Match","Exact","1301 DULCIMER LN, GROTTOES, VA, 24441",640984387,"R"
47201,"1301 DUNBAR OAKS DR","CAPITOL HEIGHTS","MD",20743,38.9074761680001,-76.918013343,201,"1301 DUNBAR OAKS DR, CAPITOL HEIGHTS, MD, 20743","Match","Exact","1301 DUNBAR OAKS DR, CAPITOL HEIGHTS, MD, 20743",76313047,"R"
47202,"1301 E 9TH STREET  STE 3500","CLEVELAND","OH",44114,NA,NA,202,"1301 E 9TH STREET  STE 3500, CLEVELAND, OH, 44114","No_Match",NA,NA,NA,NA
47203,"1301 E 9TH STREET STE 3500","CLEVELAND","OH",44114,NA,NA,203,"1301 E 9TH STREET STE 3500, CLEVELAND, OH, 44114","No_Match",NA,NA,NA,NA
47204,"1301 E BALBOA BLVD","NEWPORT BEACH","CA",92661,33.59952644,-117.893047419,204,"1301 E BALBOA BLVD, NEWPORT BEACH, CA, 92661","Match","Exact","1301 E BALBOA BLVD, NEWPORT BEACH, CA, 92661",144050099,"R"
47205,"1301 E BARDIN RD / 182611","GRAND PRAIRIE","TX",75076,NA,NA,205,"1301 E BARDIN RD / 182611, GRAND PRAIRIE, TX, 75076","No_Match",NA,NA,NA,NA
47206,"1301 E BARDIN ROAD 181538","ARLINGTON","TX",76018,NA,NA,206,"1301 E BARDIN ROAD 181538, ARLINGTON, TX, 76018","No_Match",NA,NA,NA,NA
47207,"1301 E BARDIN ROAD NUMBER 115","ARLINGTON","TX",76018,NA,NA,207,"1301 E BARDIN ROAD NUMBER 115, ARLINGTON, TX, 76018","No_Match",NA,NA,NA,NA
47208,"1301 E BOONVILLE NEW HARMONY RD","EVANSVILLE","IN",47725,38.095588735,-87.5370871229999,208,"1301 E BOONVILLE NEW HARMONY RD, EVANSVILLE, IN, 47725","Match","Exact","1301 E BOONVILLE NEW HARMONY RD, EVANSVILLE, IN, 47725",39794097,"L"
47209,"1301 E BROWARD BLVD SUITE 335","FORT LAUDERDALE","FL",33301,26.122614222,-80.130237592,209,"1301 E BROWARD BLVD SUITE 335, FORT LAUDERDALE, FL, 33301","Match","Non_Exact","1301 E BROWARD BLVD, FORT LAUDERDALE, FL, 33301",114723291,"L"
47210,"1301 E DEBBIE LANE 102168","MANSFIELD","TX",76063,32.605920762,-97.117103831,210,"1301 E DEBBIE LANE 102168, MANSFIELD, TX, 76063","Match","Exact","1301 DEBBIE LN, MANSFIELD, TX, 76063",102148043,"L"
47211,"1301 E DEBBIE LANE STE 102 BOX 19","MANSFIELD","TX",76063,32.605920762,-97.117103831,211,"1301 E DEBBIE LANE STE 102 BOX 19, MANSFIELD, TX, 76063","Match","Exact","1301 DEBBIE LN, MANSFIELD, TX, 76063",102148043,"L"
47212,"1301 E DEBBIE LN STE 102  323","MANSFIELD","TX",76063,32.605920762,-97.117103831,212,"1301 E DEBBIE LN STE 102  323, MANSFIELD, TX, 76063","Match","Exact","1301 DEBBIE LN, MANSFIELD, TX, 76063",102148043,"L"
47213,"1301 E DEBBIE LN STE 102 BOX1412","MANSFIELD","TX",76063,32.605920762,-97.117103831,213,"1301 E DEBBIE LN STE 102 BOX1412, MANSFIELD, TX, 76063","Match","Exact","1301 DEBBIE LN, MANSFIELD, TX, 76063",102148043,"L"
47214,"1301 E DURHAM FERRY ROAD","TRACY","CA",95304,37.6673442950001,-121.3196612,214,"1301 E DURHAM FERRY ROAD, TRACY, CA, 95304","Match","Exact","1301 DURHAM FERRY RD, TRACY, CA, 95304",133863440,"R"
47215,"1301 E HIVELY AVE","ELKHART","IN",46517,41.659466256,-85.949304964,215,"1301 E HIVELY AVE, ELKHART, IN, 46517","Match","Exact","1301 E HIVELY AVE, ELKHART, IN, 46517",617163783,"R"
47216,"1301 E HWY 72 SUITE E","ROLLA","MO",65401,37.9369769750001,-91.751391322,216,"1301 E HWY 72 SUITE E, ROLLA, MO, 65401","Match","Non_Exact","1301 STATE HWY 72, ROLLA, MO, 65401",636272498,"R"
47217,"1301 E MADISON PARK","CHICAGO","IL",60615,41.802935243,-87.594131864,217,"1301 E MADISON PARK, CHICAGO, IL, 60615","Match","Exact","1301 E MADISON PARK, CHICAGO, IL, 60615",111771712,"R"
47218,"1301 E PARKERVILLE RD STE A2","DESOTO","TX",75115,32.5752120490001,-96.8270400279999,218,"1301 E PARKERVILLE RD STE A2, DESOTO, TX, 75115","Match","Non_Exact","1301 E PARKERVILLE RD, DESOTO, TX, 75115",102954457,"L"
47219,"1301 E PASSYUNK AVE","PHILADELPHIA","PA",19147,39.933011494,-75.159615881,219,"1301 E PASSYUNK AVE, PHILADELPHIA, PA, 19147","Match","Exact","1301 E PASSYUNK AVE, PHILADELPHIA, PA, 19147",131436019,"L"
47220,"1301 EAST 223 STREET","BRONX","NY",10466,40.880363571,-73.84411447,220,"1301 EAST 223 STREET, BRONX, NY, 10466","Match","Exact","1301 E 223RD ST, BRONX, NY, 10466",80298021,"L"
47221,"1301 EAST 49TH STREET","BROOKLYN","NY",11234,40.6293450850001,-73.92899299,221,"1301 EAST 49TH STREET, BROOKLYN, NY, 11234","Match","Exact","1301 E 49TH ST, BROOKLYN, NY, 11234",59086018,"L"
47222,"1301 EAST 87TH STREET","CHICAGO","IL",60619,41.736812909,-87.5929525399999,222,"1301 EAST 87TH STREET, CHICAGO, IL, 60619","Match","Exact","1301 E 87TH ST, CHICAGO, IL, 60619",111775075,"R"
47223,"1301 EAST MAIN STREET","BOSCOBEL","WI",53826,43.089531955,-90.8702464,223,"1301 EAST MAIN STREET, BOSCOBEL, WI, 53826","Match","Non_Exact","1301 E MAIN ST, WAUZEKA, WI, 53826",47974975,"L"
47224,"1301 EDENBRIDGE DR","ALCOA","TN",37701,35.782993661,-83.991726945,224,"1301 EDENBRIDGE DR, ALCOA, TN, 37701","Match","Exact","1301 EDENBRIDGE DR, ALCOA, TN, 37701",624721924,"L"
47225,"1301 FERNGLADE LANE","CEDAR PARK","TX",78613,30.492521047,-97.821831606,225,"1301 FERNGLADE LANE, CEDAR PARK, TX, 78613","Match","Exact","1301 FERNGLADE LN, CEDAR PARK, TX, 78613",617957064,"R"
47226,"1301 FRAN LIN PARKWAY","MUNSTER","IN",46321,41.5421784860001,-87.496318235,226,"1301 FRAN LIN PARKWAY, MUNSTER, IN, 46321","Match","Exact","1301 FRAN LIN PKWY, MUNSTER, IN, 46321",606318322,"L"
47227,"1301 FRIES AVENUE","WILMINGTON","CA",90744,33.7888826400001,-118.265547973,227,"1301 FRIES AVENUE, WILMINGTON, CA, 90744","Match","Non_Exact","1301 N FRIES AVE, WILMINGTON, CA, 90744",141691235,"L"
47228,"1301 GARLAND","PLAINVIEW","TX",79072,34.193823776,-101.744400001,228,"1301 GARLAND, PLAINVIEW, TX, 79072","Match","Non_Exact","1301 GARLAND ST, PLAINVIEW, TX, 79072",185696258,"L"
47229,"1301 GEARY RD","DUMAS","TX",79029,35.868471723,-101.955956189,229,"1301 GEARY RD, DUMAS, TX, 79029","Match","Exact","1301 GEARY RD, DUMAS, TX, 79029",164659585,"R"
47230,"1301 GERANIUM STREET NW","WASHINGTON","DC",20012,38.9793985750001,-77.029826526,230,"1301 GERANIUM STREET NW, WASHINGTON, DC, 20012","Match","Exact","1301 GERANIUM ST NW, WASHINGTON, DC, 20012",76221561,"R"
47231,"1301 GREEN STREET","FORT COLLINS","CO",80524,40.5700950340001,-105.06217502,231,"1301 GREEN STREET, FORT COLLINS, CO, 80524","Match","Exact","1301 GREEN ST, FORT COLLINS, CO, 80524",188492177,"R"
47232,"1301 HARDY ST","LEVITTOWN","PA",19057,40.121337485,-74.843148318,232,"1301 HARDY ST, LEVITTOWN, PA, 19057","Match","Exact","1301 HARDY ST, LEVITTOWN, PA, 19057",134787361,"L"
47233,"1301 HENRY STREET","BERKELEY","CA",94709,37.8835029140001,-122.27094147,233,"1301 HENRY STREET, BERKELEY, CA, 94709","Match","Exact","1301 HENRY ST, BERKELEY, CA, 94709",633934350,"L"
47234,"1301 HERMITAGE DRIVE APT 5D","FLORENCE","AL",35630,34.820120704,-87.6678668599999,234,"1301 HERMITAGE DRIVE APT 5D, FLORENCE, AL, 35630","Match","Exact","1301 HERMITAGE DR, FLORENCE, AL, 35630",41339481,"L"
47235,"1301 HIGHWAY 7 SUITE 26","MINNETONKA","MN",55305,NA,NA,235,"1301 HIGHWAY 7 SUITE 26, MINNETONKA, MN, 55305","No_Match",NA,NA,NA,NA
47236,"1301 HOFFMAN LN NW","ATLANTA","GA",30318,33.792781357,-84.429110612,236,"1301 HOFFMAN LN NW, ATLANTA, GA, 30318","Match","Non_Exact","1301 HOFFMAN LN, ATLANTA, GA, 30318",618352625,"L"
47237,"1301 HOGAN LANE","WACO","TX",76705,31.594882285,-97.108182562,237,"1301 HOGAN LANE, WACO, TX, 76705","Match","Exact","1301 HOGAN LN, WACO, TX, 76705",146736862,"R"
47238,"1301 J ST","ARCATA","CA",95521,40.8727638010001,-124.087658287,238,"1301 J ST, ARCATA, CA, 95521","Match","Exact","1301 J ST, ARCATA, CA, 95521",113038023,"L"
47239,"1301 K ST NW SUITE 1000 EAST TOWER","WASHINGTON","DC",20005,38.902529939,-77.029809186,239,"1301 K ST NW SUITE 1000 EAST TOWER, WASHINGTON, DC, 20005","Match","Exact","1301 K ST NW, WASHINGTON, DC, 20005",76225770,"R"
47240,"1301 K STREET NW SUITE 1100E","WASHINGTON","DC",20005,38.902529939,-77.029809186,240,"1301 K STREET NW SUITE 1100E, WASHINGTON, DC, 20005","Match","Exact","1301 K ST NW, WASHINGTON, DC, 20005",76225770,"R"
47241,"1301 KENWOOD ROAD","WILMINGTON","DE",19805,39.745794995,-75.5950450879999,241,"1301 KENWOOD ROAD, WILMINGTON, DE, 19805","Match","Exact","1301 KENWOOD RD, WILMINGTON, DE, 19805",187254693,"R"
47242,"1301 KS HWY 264","LARNED","KS",67550,NA,NA,242,"1301 KS HWY 264, LARNED, KS, 67550","No_Match",NA,NA,NA,NA
47243,"1301 L STREET SUITE 1","MODESTO","CA",95354,37.6446550420001,-120.999648564,243,"1301 L STREET SUITE 1, MODESTO, CA, 95354","Match","Exact","1301 L ST, MODESTO, CA, 95354",102604422,"L"
47244,"1301 LAUREL MEADOWS DRIVE","DURHAM","NC",27704,36.049040274,-78.9182672219999,244,"1301 LAUREL MEADOWS DRIVE, DURHAM, NC, 27704","Match","Exact","1301 LAUREL MEADOWS DR, DURHAM, NC, 27704",618109170,"L"
47245,"1301 LINCOLN MALL","LINCOLN","NE",68508,40.808078235,-96.702459155,245,"1301 LINCOLN MALL, LINCOLN, NE, 68508","Match","Exact","1301 LINCOLN MALL, LINCOLN, NE, 68508",28292734,"R"
47246,"1301 LOCUST ST APT 204","50309","IA",50309,41.5849546060001,-93.633807582,246,"1301 LOCUST ST APT 204, 50309, IA, 50309","Match","Non_Exact","1301 LOCUST ST, DES MOINES, IA, 50309",647803490,"R"
47247,"1301 LONGFELLOW AVENUE","TEANECK","NY",7666,NA,NA,247,"1301 LONGFELLOW AVENUE, TEANECK, NY, 7666","No_Match",NA,NA,NA,NA
47248,"1301 LOREAUVILLE ROAD","NEW IBERIA","LA",70560,30.0120037140001,-91.783770933,248,"1301 LOREAUVILLE ROAD, NEW IBERIA, LA, 70560","Match","Non_Exact","1301 LOREAUVILLE RD, NEW IBERIA, LA, 70563",85363401,"R"
47249,"1301 LOREEN DRIVE","MADISON","WI",53711,43.0389562930001,-89.4873514079999,249,"1301 LOREEN DRIVE, MADISON, WI, 53711","Match","Exact","1301 LOREEN DR, MADISON, WI, 53711",49467602,"L"
47250,"1301 M STREET NW STE 509","WASHINGTON","DC",20005,38.9056551740001,-77.0297686119999,250,"1301 M STREET NW STE 509, WASHINGTON, DC, 20005","Match","Exact","1301 M ST NW, WASHINGTON, DC, 20005",76225736,"R"
47251,"1301 MAIN STREET","CINCINNATI","OH",45202,39.109916965,-84.5118427049999,251,"1301 MAIN STREET, CINCINNATI, OH, 45202","Match","Exact","1301 MAIN ST, CINCINNATI, OH, 45202",103936070,"L"
47252,"1301 MARIGNY ST","NEW ORLEANS","LA",70117,29.9707378100001,-90.055670412,252,"1301 MARIGNY ST, NEW ORLEANS, LA, 70117","Match","Exact","1301 MARIGNY ST, NEW ORLEANS, LA, 70117",191716440,"R"
47253,"1301 MARTIN LANE","BOSSIER CITY","LA",71111,32.519002599,-93.7255474139999,253,"1301 MARTIN LANE, BOSSIER CITY, LA, 71111","Match","Exact","1301 MARTIN LN, BOSSIER CITY, LA, 71111",108523078,"L"
47254,"1301 MASSACHUSETTS AVE","LYNN HAVEN","FM",32444,NA,NA,254,"1301 MASSACHUSETTS AVE, LYNN HAVEN, FM, 32444","No_Match",NA,NA,NA,NA
47255,"1301 MAY RIVER ROAD","BLUFFTON","SC",29910,32.2372560520001,-80.8617833439999,255,"1301 MAY RIVER ROAD, BLUFFTON, SC, 29910","Match","Exact","1301 MAY RIVER RD, BLUFFTON, SC, 29910",87614157,"R"
47256,"1301 MCCASLAND PKWY","DUNCAN","OK",73533,34.5179679240001,-97.957156171,256,"1301 MCCASLAND PKWY, DUNCAN, OK, 73533","Match","Exact","1301 MCCASLAND PKWY, DUNCAN, OK, 73533",13648043,"L"
47257,"1301 MIDDLESEX ST","LINDEN","NJ",7036,40.6469969730001,-74.245847095,257,"1301 MIDDLESEX ST, LINDEN, NJ, 7036","Match","Exact","1301 MIDDLESEX ST, LINDEN, NJ, 07036",60576934,"L"
47258,"1301 MONTALVO WAY SUITE 3","PALM SPRINGS","CA",92262,NA,NA,258,"1301 MONTALVO WAY SUITE 3, PALM SPRINGS, CA, 92262","No_Match",NA,NA,NA,NA
47259,"1301 MULE DEER DR","ARLINGTON","TX",76002,32.6140187680001,-97.0859732929999,259,"1301 MULE DEER DR, ARLINGTON, TX, 76002","Match","Exact","1301 MULE DEER DR, ARLINGTON, TX, 76002",102188375,"R"
47260,"1301 N 58TH ST","PHILADELPHIA","PA",19131,39.9719815280001,-75.2359929739999,260,"1301 N 58TH ST, PHILADELPHIA, PA, 19131","Match","Exact","1301 N 58TH ST, PHILADELPHIA, PA, 19131",131398200,"R"
47261,"1301 N AW GRIMES APT 933","ROUND ROCK","TX",78665,NA,NA,261,"1301 N AW GRIMES APT 933, ROUND ROCK, TX, 78665","No_Match",NA,NA,NA,NA
47262,"1301 N EPHRATA AVE","CONNELL","WA",99326,46.67557601,-118.851173226,262,"1301 N EPHRATA AVE, CONNELL, WA, 99326","Match","Exact","1301 EPHRATA AVE, CONNELL, WA, 99326",637862290,"R"
47263,"1301 N HWY 123","SAN MARCOS","TX",78666,NA,NA,263,"1301 N HWY 123, SAN MARCOS, TX, 78666","No_Match",NA,NA,NA,NA
47264,"1301 N RICHARDSON AVE","ROSWELL","NM",88201,33.4070754110001,-104.524420011,264,"1301 N RICHARDSON AVE, ROSWELL, NM, 88201","Match","Exact","1301 N RICHARDSON AVE, ROSWELL, NM, 88201",131766586,"R"
47265,"1301 N STATE HIGHWAY 123","SAN MARCOS","TX",78666,29.85919331,-97.939320091,265,"1301 N STATE HIGHWAY 123, SAN MARCOS, TX, 78666","Match","Non_Exact","1301 N STATE HWY 123, SAN MARCOS, TX, 78666",63813604,"R"
47266,"1301 N SUMMIT STREET","TOLEDO","OH",43604,41.6592707140001,-83.521184762,266,"1301 N SUMMIT STREET, TOLEDO, OH, 43604","Match","Exact","1301 N SUMMIT ST, TOLEDO, OH, 43604",33945000,"L"
47267,"1301 N TAYLOR","AMARILLO","TX",79107,NA,NA,267,"1301 N TAYLOR, AMARILLO, TX, 79107","No_Match",NA,NA,NA,NA
47268,"1301 N W A GRIMES BLVD 1323","ROUND ROCK","TX",78665,NA,NA,268,"1301 N W A GRIMES BLVD 1323, ROUND ROCK, TX, 78665","No_Match",NA,NA,NA,NA
47269,"1301 N WESTERN AVE APT 129","LAKE FOREST","IL",60045,42.262970814,-87.843975628,269,"1301 N WESTERN AVE APT 129, LAKE FOREST, IL, 60045","Match","Non_Exact","1301 N WESTERN AVE, LAKE FOREST, IL, 60045",119694890,"R"
47270,"1301 NAVAJO TRAIL","WAPAKONETA","OH",45895,40.585673818,-84.1966796249999,270,"1301 NAVAJO TRAIL, WAPAKONETA, OH, 45895","Match","Exact","1301 NAVAJO TRL, WAPAKONETA, OH, 45895",36431663,"L"
47271,"1301 NC HWY 49 SOUTH","ASHEBORO","NC",27205,35.6754111110001,-79.859790144,271,"1301 NC HWY 49 SOUTH, ASHEBORO, NC, 27205","Match","Non_Exact","1301 STATE HWY 49 S, ASHEBORO, NC, 27205",653494437,"R"
47272,"1301 NE 191 STREET  SUITE 410","MIAMI","FL",33179,25.951126501,-80.176521801,272,"1301 NE 191 STREET  SUITE 410, MIAMI, FL, 33179","Match","Non_Exact","1301 NE 191ST ST, MIAMI, FL, 33179",633326524,"L"
47273,"1301 NE 191ST STREET APT 102","MIAMI","FL",33179,25.951126501,-80.176521801,273,"1301 NE 191ST STREET APT 102, MIAMI, FL, 33179","Match","Non_Exact","1301 NE 191ST ST, MIAMI, FL, 33179",633326524,"L"
47274,"1301 NE 200 TERRACE","MIAMI","FL",33179,25.9604328300001,-80.1759366589999,274,"1301 NE 200 TERRACE, MIAMI, FL, 33179","Match","Exact","1301 NE 200TH TER, MIAMI, FL, 33179",116034878,"L"
47275,"1301 NE 209TH TERRACE","MIAMI","FL",33179,25.9684284630001,-80.176322716,275,"1301 NE 209TH TERRACE, MIAMI, FL, 33179","Match","Exact","1301 NE 209TH TER, MIAMI, FL, 33179",116034813,"L"
47276,"1301 NOLAN COURT","BELTON","TX",76513,31.0666767450001,-97.475803646,276,"1301 NOLAN COURT, BELTON, TX, 76513","Match","Exact","1301 NOLAN CT, BELTON, TX, 76513",650018295,"L"
47277,"1301 NORTH COURTHOUSE ROAD 1804","ARLINGTON","VA",22201,38.888341574,-77.0835191629999,277,"1301 NORTH COURTHOUSE ROAD 1804, ARLINGTON, VA, 22201","Match","Non_Exact","1301 N COURT HOUSE RD, ARLINGTON, VA, 22201",76469860,"R"
47278,"1301 NORTH FLORIDA STREET","COVINGTON","LA",70434,NA,NA,278,"1301 NORTH FLORIDA STREET, COVINGTON, LA, 70434","No_Match",NA,NA,NA,NA
47279,"1301 NORTH SHORE DRIVE","SAN BENITO","TX",78586,26.143552845,-97.627019259,279,"1301 NORTH SHORE DRIVE, SAN BENITO, TX, 78586","Match","Exact","1301 N SHORE DR, SAN BENITO, TX, 78586",89959169,"L"
47280,"1301 NORTH SMEDLEY STREET","PHILADELPHIA","PA",19121,39.9741543470001,-75.163060431,280,"1301 NORTH SMEDLEY STREET, PHILADELPHIA, PA, 19121","Match","Exact","1301 N SMEDLEY ST, PHILADELPHIA, PA, 19121",131406260,"R"
47281,"1301 NW 13TH CT","BOCA RATON","FL",33486,26.3620367820001,-80.113362717,281,"1301 NW 13TH CT, BOCA RATON, FL, 33486","Match","Exact","1301 NW 13TH CT, BOCA RATON, FL, 33486",115302300,"R"
47282,"1301 NW 172ND STREET","MIAMI","FL",33169,25.9316092460001,-80.2231600439999,282,"1301 NW 172ND STREET, MIAMI, FL, 33169","Match","Exact","1301 NW 172ND ST, MIAMI, FL, 33169",116029975,"R"
47283,"1301 NW 4TH STREET","FORT LAUDERDALE","FL",33311,26.1256564490001,-80.158542789,283,"1301 NW 4TH STREET, FORT LAUDERDALE, FL, 33311","Match","Non_Exact","1301 NW 4TH ST, FORT LAUDERDALE, FL, 33311",114721269,"R"
47284,"1301 NW 6TH COURT","FORT LAUDERDALE","FL",33311,26.130254198,-80.158276114,284,"1301 NW 6TH COURT, FORT LAUDERDALE, FL, 33311","Match","Non_Exact","1301 NW 6TH CT, FORT LAUDERDALE, FL, 33311",114721253,"R"
47285,"1301 OAK AVE","LINWOOD","NJ",8221,39.3471965730001,-74.575053129,285,"1301 OAK AVE, LINWOOD, NJ, 8221","Match","Exact","1301 OAK AVE, LINWOOD, NJ, 08221",202483323,"R"
47286,"1301 OAK AVENUE","LINWOOD","NJ",8221,39.3471965730001,-74.575053129,286,"1301 OAK AVENUE, LINWOOD, NJ, 8221","Match","Exact","1301 OAK AVE, LINWOOD, NJ, 08221",202483323,"R"
47287,"1301 OAK MANOR CT","BEL AIR","MD",21015,39.5223622950001,-76.299137104,287,"1301 OAK MANOR CT, BEL AIR, MD, 21015","Match","Exact","1301 OAK MANOR CT, BEL AIR, MD, 21015",606802838,"L"
47288,"1301 OAKVIEW ROAD APT A1","DECATUR","GA",30030,33.7561609640001,-84.305324824,288,"1301 OAKVIEW ROAD APT A1, DECATUR, GA, 30030","Match","Exact","1301 OAKVIEW RD, DECATUR, GA, 30030",23404573,"R"
47289,"1301 OHIO","AUGUSTA","KS",67010,37.687315121,-96.971438764,289,"1301 OHIO, AUGUSTA, KS, 67010","Match","Non_Exact","1301 OHIO ST, AUGUSTA, KS, 67010",32265520,"L"
47290,"1301 OLD CHEROKEE ROAD","LEXINGTON","SC",29072,34.0055868250001,-81.277246984,290,"1301 OLD CHEROKEE ROAD, LEXINGTON, SC, 29072","Match","Exact","1301 OLD CHEROKEE RD, LEXINGTON, SC, 29072",70060796,"R"
47291,"1301 OLD GOFORTH RD","BUDA","TX",78610,30.0586205220001,-97.8212855949999,291,"1301 OLD GOFORTH RD, BUDA, TX, 78610","Match","Exact","1301 OLD GOFORTH RD, BUDA, TX, 78610",652618021,"R"
47292,"1301 ORLEANS STREET APT1312E","DETROIT","MI",48207,42.340570997,-83.0319398029999,292,"1301 ORLEANS STREET APT1312E, DETROIT, MI, 48207","Match","Exact","1301 ORLEANS ST, DETROIT, MI, 48207",95714995,"L"
47293,"1301 OXFORD AVENUE","CENTRALIA","WA",98531,46.7293765850001,-122.944321162,293,"1301 OXFORD AVENUE, CENTRALIA, WA, 98531","Match","Exact","1301 OXFORD AVE, CENTRALIA, WA, 98531",180708663,"L"
47294,"1301 OXFORD STREET","BERKELEY","CA",94707,37.8837321610001,-122.267578734,294,"1301 OXFORD STREET, BERKELEY, CA, 94707","Match","Non_Exact","1301 OXFORD ST, BERKELEY, CA, 94709",124993864,"L"
47295,"1301 PENNSYLVANIA AVE NW SUITE 700","WASHINGTON","DC",20004,38.8954743480001,-77.029717061,295,"1301 PENNSYLVANIA AVE NW SUITE 700, WASHINGTON, DC, 20004","Match","Exact","1301 PENNSYLVANIA AVE NW, WASHINGTON, DC, 20004",76225908,"R"
47296,"1301 PENROD CT","LANSING","MI",48911,42.67736446,-84.5708437759999,296,"1301 PENROD CT, LANSING, MI, 48911","Match","Exact","1301 PENROD CT, LANSING, MI, 48911",17502292,"L"
47297,"1301 PINE STREET","SILVERTON","OR",97381,45.0110095740001,-122.793440903,297,"1301 PINE STREET, SILVERTON, OR, 97381","Match","Exact","1301 PINE ST, SILVERTON, OR, 97381",156243208,"L"
47298,"1301 PUNCHBOWL ST","HONOLULU","HI",96813,21.3076663190001,-157.85516277,298,"1301 PUNCHBOWL ST, HONOLULU, HI, 96813","Match","Exact","1301 PUNCHBOWL ST, HONOLULU, HI, 96813",203236231,"R"
47299,"1301 REDWOOD WAY SUITE 155","PETALUMA","CA",94954,38.2745869120001,-122.66684561,299,"1301 REDWOOD WAY SUITE 155, PETALUMA, CA, 94954","Match","Exact","1301 REDWOOD WAY, PETALUMA, CA, 94954",67531321,"L"
47300,"1301 REMOUNT ROAD","N CHARLESTON","SC",29406,32.9015266970001,-79.994133254,300,"1301 REMOUNT ROAD, N CHARLESTON, SC, 29406","Match","Exact","1301 REMOUNT RD, N CHARLESTON, SC, 29406",108799158,"L"
47301,"1301 RICHMOND AVE APT 233","HOUSTON","TX",77006,29.734450011,-95.394793804,301,"1301 RICHMOND AVE APT 233, HOUSTON, TX, 77006","Match","Exact","1301 RICHMOND AVE, HOUSTON, TX, 77006",96064712,"L"
47302,"1301 RICHMOND AVE UNIT 223","HOUSTON","TX",77006,29.734450011,-95.394793804,302,"1301 RICHMOND AVE UNIT 223, HOUSTON, TX, 77006","Match","Exact","1301 RICHMOND AVE, HOUSTON, TX, 77006",96064712,"L"
47303,"1301 RIVER REACH DR APT 305","FORT LAUDERDALE","FL",33315,26.108949577,-80.156560906,303,"1301 RIVER REACH DR APT 305, FORT LAUDERDALE, FL, 33315","Match","Exact","1301 RIVER REACH DR, FORT LAUDERDALE, FL, 33315",114815885,"R"
47304,"1301 RIVER ROAD","DECATUR","TN",37322,35.533742912,-84.7970981239999,304,"1301 RIVER ROAD, DECATUR, TN, 37322","Match","Exact","1301 RIVER RD, DECATUR, TN, 37322",79418528,"L"
47305,"1301 RIVERPLACE BLVD SUITE 1500","JACKSONVILLE","FL",32207,30.318546967,-81.657014582,305,"1301 RIVERPLACE BLVD SUITE 1500, JACKSONVILLE, FL, 32207","Match","Exact","1301 RIVERPLACE BLVD, JACKSONVILLE, FL, 32207",639971428,"L"
47306,"1301 ROBEDO RD","MOUNT GILEAD","NC",27306,35.3003619290001,-79.9027121999999,306,"1301 ROBEDO RD, MOUNT GILEAD, NC, 27306","Match","Exact","1301 ROBEDO RD, MOUNT GILEAD, NC, 27306",20029496,"L"
47307,"1301 S BEVERLY GLEN BLVD","LOS ANGELES","CA",90024,34.0639141010001,-118.427210452,307,"1301 S BEVERLY GLEN BLVD, LOS ANGELES, CA, 90024","Match","Exact","1301 S BEVERLY GLEN BLVD, LOS ANGELES, CA, 90024",141567841,"R"
47308,"1301 S CARPENTER RD","TITUSVILLE","FL",32796,28.5998803740001,-80.855528312,308,"1301 S CARPENTER RD, TITUSVILLE, FL, 32796","Match","Exact","1301 S CARPENTER RD, TITUSVILLE, FL, 32796",93950772,"L"
47309,"1301 S GOLDSBORO STREET","WILSON","NC",27893,35.713494117,-77.924643596,309,"1301 S GOLDSBORO STREET, WILSON, NC, 27893","Match","Non_Exact","1301 GOLDSBORO ST SW, WILSON, NC, 27893",26705899,"R"
47310,"1301 S HIGH ST","COLUMBUS","OH",43206,39.9355588710001,-82.996056134,310,"1301 S HIGH ST, COLUMBUS, OH, 43206","Match","Exact","1301 S HIGH ST, COLUMBUS, OH, 43206",218678537,"R"
47311,"1301 S PARK AVENUE","SANFORD","FL",32771,28.800724856,-81.267918712,311,"1301 S PARK AVENUE, SANFORD, FL, 32771","Match","Exact","1301 S PARK AVE, SANFORD, FL, 32771",93749922,"L"
47312,"1301 S PENNSYLVANIA AVE","LANSING","MI",48912,42.7192514450001,-84.5381048629999,312,"1301 S PENNSYLVANIA AVE, LANSING, MI, 48912","Match","Exact","1301 S PENNSYLVANIA AVE, LANSING, MI, 48912",17520079,"L"
47313,"1301 S VERDUGA RD","TURLOCK","CA",95380,37.481385905,-120.807684057,313,"1301 S VERDUGA RD, TURLOCK, CA, 95380","Match","Exact","1301 S VERDUGA RD, TURLOCK, CA, 95380",102597661,"R"
47314,"1301 S W AVENUE E","ANDREWS","TX",79714,32.3101475710001,-102.558454825,314,"1301 S W AVENUE E, ANDREWS, TX, 79714","Match","Exact","1301 SW AVE E, ANDREWS, TX, 79714",139077124,"L"
47315,"1301 S WILLOW ST","NORTH PLATTE","NE",69101,41.122525291,-100.767778951,315,"1301 S WILLOW ST, NORTH PLATTE, NE, 69101","Match","Exact","1301 S WILLOW ST, NORTH PLATTE, NE, 69101",151260604,"R"
47316,"1301 SECOND STREET","HENRY","IL",61537,41.107320767,-89.3647352149999,316,"1301 SECOND STREET, HENRY, IL, 61537","Match","Exact","1301 2ND ST, HENRY, IL, 61537",8450634,"R"
47317,"1301 SHARP RIDGE ROAD","GREENSBORO","NC",27406,36.054556647,-79.706761183,317,"1301 SHARP RIDGE ROAD, GREENSBORO, NC, 27406","Match","Exact","1301 SHARP RIDGE RD, GREENSBORO, NC, 27406",653458733,"R"
47318,"1301 SHILOH ROAD SUITE1651","KENNESAW","GA",30144,NA,NA,318,"1301 SHILOH ROAD SUITE1651, KENNESAW, GA, 30144","Tie",NA,NA,NA,NA
47319,"1301 SOLVAY AISLE","IRVINE","CA",92606,33.6871258130001,-117.811765668,319,"1301 SOLVAY AISLE, IRVINE, CA, 92606","Match","Exact","1301 SOLVAY AISLE, IRVINE, CA, 92606",144382227,"L"
47320,"1301 SOUTH 14TH STREET","RICHMOND","IN",47374,39.8125674880001,-84.8837024009999,320,"1301 SOUTH 14TH STREET, RICHMOND, IN, 47374","Match","Exact","1301 S 14TH ST, RICHMOND, IN, 47374",610834909,"R"
47321,"1301 SOUTH BOWEN","ARLINGTON","TX",76013,32.721721944,-97.1491238689999,321,"1301 SOUTH BOWEN, ARLINGTON, TX, 76013","Match","Non_Exact","1301 S BOWEN RD, ARLINGTON, TX, 76013",101905494,"L"
47322,"1301 SOUTH CHOCTAW ROAD","LUTHER","OK",73054,35.6390591160001,-97.2648906379999,322,"1301 SOUTH CHOCTAW ROAD, LUTHER, OK, 73054","Match","Non_Exact","1301 N CHOCTAW RD, LUTHER, OK, 73054",646787930,"R"
47323,"1301 SOUTH SCOTT STREET 735","ARLINGTON","VA",22204,38.86254732,-77.077282322,323,"1301 SOUTH SCOTT STREET 735, ARLINGTON, VA, 22204","Match","Exact","1301 S SCOTT ST, ARLINGTON, VA, 22204",611302425,"L"
47324,"1301 SPRINGLAKE DRIVE","DRIPPING SPRINGS","TX",78620,30.2199870900001,-98.09923202,324,"1301 SPRINGLAKE DRIVE, DRIPPING SPRINGS, TX, 78620","Match","Exact","1301 SPRINGLAKE DR, DRIPPING SPRINGS, TX, 78620",63823612,"L"
47325,"1301 STOCKYARD - PO BOX 550","PRESIDIO","TX",79845,NA,NA,325,"1301 STOCKYARD - PO BOX 550, PRESIDIO, TX, 79845","No_Match",NA,NA,NA,NA
47326,"1301 TAYLOR LANE","MCKINNEY","TX",75071,33.2139688190001,-96.7649191579999,326,"1301 TAYLOR LANE, MCKINNEY, TX, 75071","Match","Exact","1301 TAYLOR LN, MCKINNEY, TX, 75071",646744959,"R"
47327,"1301 TEAL HOLLOW DR","YUBA CITY","CA",95993,39.1454339640001,-121.67949856,327,"1301 TEAL HOLLOW DR, YUBA CITY, CA, 95993","Match","Exact","1301 TEAL HOLLOW DR, YUBA CITY, CA, 95993",619515385,"R"
47328,"1301 TEXAS AVE","HOUSTON","TX",77002,29.758373335,-95.3598670329999,328,"1301 TEXAS AVE, HOUSTON, TX, 77002","Match","Non_Exact","1301 TEXAS ST, HOUSTON, TX, 77002",96069540,"L"
47329,"1301 TEXAS AVENUE","HOUSTON","TX",77002,29.758373335,-95.3598670329999,329,"1301 TEXAS AVENUE, HOUSTON, TX, 77002","Match","Non_Exact","1301 TEXAS ST, HOUSTON, TX, 77002",96069540,"L"
47330,"1301 THIRD STREET","NESCOPECK","PA",18635,41.0537203920001,-76.206286598,330,"1301 THIRD STREET, NESCOPECK, PA, 18635","Match","Exact","1301 3RD ST, NESCOPECK, PA, 18635",80902340,"L"
47331,"1301 TOWER DR","WEST LAFAYETTE","IN",47906,40.433239374,-86.9264819049999,331,"1301 TOWER DR, WEST LAFAYETTE, IN, 47906","Match","Exact","1301 TOWER DR, W LAFAYETTE, IN, 47906",641432410,"L"
47332,"1301 W 100TH AVE","ANCHORAGE","AK",99515,61.1302899680001,-149.904659201,332,"1301 W 100TH AVE, ANCHORAGE, AK, 99515","Match","Exact","1301 W 100TH AVE, ANCHORAGE, AK, 99515",190800581,"L"
47333,"1301 W 30TH ST","INDIANAPOLIS","IN",46208,NA,NA,333,"1301 W 30TH ST, INDIANAPOLIS, IN, 46208","No_Match",NA,NA,NA,NA
47334,"1301 W 52ND STREET","CHICAGO","IL",60609,41.799590681,-87.6574894249999,334,"1301 W 52ND STREET, CHICAGO, IL, 60609","Match","Exact","1301 W 52ND ST, CHICAGO, IL, 60609",605448612,"L"
47335,"1301 W 5TH STREET","LONDON","KY",40741,37.116401824,-84.096907419,335,"1301 W 5TH STREET, LONDON, KY, 40741","Match","Exact","1301 W 5TH ST, LONDON, KY, 40741",98741197,"L"
47336,"1301 W 70TH ST","LOS ANGELES","CA",90044,33.976209607,-118.29824449,336,"1301 W 70TH ST, LOS ANGELES, CA, 90044","Match","Exact","1301 W 70TH ST, LOS ANGELES, CA, 90044",141659355,"R"
47337,"1301 W 87TH STREET","CHICAGO","IL",60620,41.735894778,-87.655866041,337,"1301 W 87TH STREET, CHICAGO, IL, 60620","Match","Exact","1301 W 87TH ST, CHICAGO, IL, 60620",111821571,"L"
47338,"1301 W BYRON STREET","CHICAGO","IL",60613,41.9525628850001,-87.661912517,338,"1301 W BYRON STREET, CHICAGO, IL, 60613","Match","Exact","1301 W BYRON ST, CHICAGO, IL, 60613",605195945,"L"
47339,"1301 W CAMPBELL AVE","PHOENIX","AZ",85013,33.502056226,-112.089707387,339,"1301 W CAMPBELL AVE, PHOENIX, AZ, 85013","Match","Exact","1301 W CAMPBELL AVE, PHOENIX, AZ, 85013",128205945,"L"
47340,"1301 W CENTRAL","WEBB CITY","MO",64870,37.1544409160001,-94.4773312199999,340,"1301 W CENTRAL, WEBB CITY, MO, 64870","Match","Non_Exact","1301 W CENTRAL ST, WEBB CITY, MO, 64870",66147696,"R"
47341,"1301 W COSSITT AVENUE","LA GRANGE","IL",60525,41.811757577,-87.88643891,341,"1301 W COSSITT AVENUE, LA GRANGE, IL, 60525","Match","Exact","1301 W COSSITT AVE, LA GRANGE, IL, 60525",111789314,"R"
47342,"1301 W GOVERNMENT STREET","PENSACOLA","FL",32502,30.4075079580001,-87.232056875,342,"1301 W GOVERNMENT STREET, PENSACOLA, FL, 32502","Match","Exact","1301 GOVERNMENT ST, PENSACOLA, FL, 32502",93224001,"L"
47343,"1301 W LONG LAKE ROAD SUITE 250","TROY","MI",48098,42.5908118740001,-83.174483364,343,"1301 W LONG LAKE ROAD SUITE 250, TROY, MI, 48098","Match","Non_Exact","1301 W LONG LAKE RD, TROY, MI, 48098",647552040,"L"
47344,"1301 W MAIN STREET","GREENFIELD","IN",46140,39.7842801050001,-85.789055375,344,"1301 W MAIN STREET, GREENFIELD, IN, 46140","Match","Exact","1301 W MAIN ST, GREENFIELD, IN, 46140",31079187,"R"
47345,"1301 W SPRINGFIELD AVE MC 247","URBANA","IL",61801,40.112744987,-88.2258795019999,345,"1301 W SPRINGFIELD AVE MC 247, URBANA, IL, 61801","Match","Exact","1301 SPRINGFIELD AVE, URBANA, IL, 61801",8834769,"L"
47346,"1301 W WILSHIRE BOULEVARD","NICHOLS HILLS","OK",73116,35.5511176960001,-97.5358382319999,346,"1301 W WILSHIRE BOULEVARD, NICHOLS HILLS, OK, 73116","Match","Exact","1301 W WILSHIRE BLVD, NICHOLS HILLS, OK, 73116",100394139,"R"
47347,"1301 WALL STREET","LECOMPTE","LA",71346,NA,NA,347,"1301 WALL STREET, LECOMPTE, LA, 71346","No_Match",NA,NA,NA,NA
47348,"1301 WAZEE ST SUITE 100","DENVER","CO",80204,39.748632378,-105.003151455,348,"1301 WAZEE ST SUITE 100, DENVER, CO, 80204","Match","Exact","1301 WAZEE ST, DENVER, CO, 80204",652265389,"L"
47349,"1301 WEST 21ST AVE","GARY","IN",46407,41.5805408430001,-87.352656493,349,"1301 WEST 21ST AVE, GARY, IN, 46407","Match","Exact","1301 W 21ST AVE, GARY, IN, 46407",606282877,"L"
47350,"1301 WEST 25TH STREET  SUITE 560","AUSTIN","TX",78705,30.2897058140001,-97.751455087,350,"1301 WEST 25TH STREET  SUITE 560, AUSTIN, TX, 78705","Match","Exact","1301 W 25TH ST, AUSTIN, TX, 78705",63942557,"L"
47351,"1301 WEST GROVE AVENUE","EFFINGHAM","IL",62401,39.11689986,-88.5582309389999,351,"1301 WEST GROVE AVENUE, EFFINGHAM, IL, 62401","Match","Exact","1301 W GROVE AVE, EFFINGHAM, IL, 62401",94771355,"L"
47352,"1301 WHITE OAK DR","POPLAR BLUFF","MO",63901,36.7922233420001,-90.4057088439999,352,"1301 WHITE OAK DR, POPLAR BLUFF, MO, 63901","Match","Exact","1301 WHITE OAK DR, POPLAR BLUFF, MO, 63901",635890918,"R"
47353,"1301 WHITTIER PLACE NW","WASHINGTON","DC",20012,38.971852896,-77.0298267319999,353,"1301 WHITTIER PLACE NW, WASHINGTON, DC, 20012","Match","Exact","1301 WHITTIER PL NW, WASHINGTON, DC, 20012",76221618,"R"
47354,"1301 WILLIAMSON RD","GRANBURY","TX",76048,32.383912954,-97.759627376,354,"1301 WILLIAMSON RD, GRANBURY, TX, 76048","Match","Exact","1301 WILLIAMSON RD, GRANBURY, TX, 76048",640451912,"L"
47355,"1301 YORK RD STE 800","LUTHERVILLE","MD",21093,39.4193483180001,-76.6159926669999,355,"1301 YORK RD STE 800, LUTHERVILLE, MD, 21093","Match","Exact","1301 YORK RD, LUTHERVILLE, MD, 21093",191473085,"R"
47356,"1301 YORK ROAD SUITE 505","LUTHERVILLE","MD",21093,39.4193483180001,-76.6159926669999,356,"1301 YORK ROAD SUITE 505, LUTHERVILLE, MD, 21093","Match","Exact","1301 YORK RD, LUTHERVILLE, MD, 21093",191473085,"R"
47357,"1301","DEL RIO","TX",78840,NA,NA,357,"1301, DEL RIO, TX, 78840","No_Match",NA,NA,NA,NA
47358,"13010 6TH STREET","CHINO","CA",91710,34.0170197080001,-117.691847759,358,"13010 6TH STREET, CHINO, CA, 91710","Match","Exact","13010 6TH ST, CHINO, CA, 91710",144998745,"R"
47359,"13010 BRIANS CREEK DR","JACKSONVILLE","FL",32224,30.2686517930001,-81.473796286,359,"13010 BRIANS CREEK DR, JACKSONVILLE, FL, 32224","Match","Exact","13010 BRIANS CREEK DR, JACKSONVILLE, FL, 32224",83942706,"L"
47360,"13010 DAVENPORT DR","BRANDYWINE","MD",20613,38.7112470500001,-76.892963981,360,"13010 DAVENPORT DR, BRANDYWINE, MD, 20613","Match","Exact","13010 DAVENPORT DR, BRANDYWINE, MD, 20613",639468307,"R"
47361,"13010 FM 1745 N","CHESTER","TX",75936,NA,NA,361,"13010 FM 1745 N, CHESTER, TX, 75936","No_Match",NA,NA,NA,NA
47362,"13010 MORRIS RD SUITE 648","ALPHARETTA","GA",30004,34.097625862,-84.2594976789999,362,"13010 MORRIS RD SUITE 648, ALPHARETTA, GA, 30004","Match","Exact","13010 MORRIS RD, ALPHARETTA, GA, 30004",624653879,"L"
47363,"13010 PARKTREE CT","NAPLES","FL",34110,26.2891936010001,-81.792486783,363,"13010 PARKTREE CT, NAPLES, FL, 34110","Match","Exact","13010 PARKTREE CT, NAPLES, FL, 34110",115152005,"L"
47364,"13010 S SHORT RD","CHENEY","WA",99004,47.535293144,-117.465054033,364,"13010 S SHORT RD, CHENEY, WA, 99004","Match","Exact","13010 S SHORT RD, CHENEY, WA, 99004",189858989,"L"
47365,"13010 STURBRIDGE COURT","HAGERSTOWN","MD",21742,39.6733872130001,-77.7006428609999,365,"13010 STURBRIDGE COURT, HAGERSTOWN, MD, 21742","Match","Exact","13010 STURBRIDGE CT, HAGERSTOWN, MD, 21742",60798654,"R"
47366,"13010 TOMKI RD","REDWOOD VALLEY","CA",95470,39.328162643,-123.224682759,366,"13010 TOMKI RD, REDWOOD VALLEY, CA, 95470","Match","Exact","13010 TOMKI RD, REDWOOD VALLEY, CA, 95470",67286573,"L"
47367,"13010 W ROAD","HOYT","KS",66440,NA,NA,367,"13010 W ROAD, HOYT, KS, 66440","No_Match",NA,NA,NA,NA
47368,"13011 137TH AVE N","DAYTON","MN",55327,NA,NA,368,"13011 137TH AVE N, DAYTON, MN, 55327","No_Match",NA,NA,NA,NA
47369,"13011 151ST ST E","PUAYLLUP","WA",98374,47.1191052710001,-122.256032498,369,"13011 151ST ST E, PUAYLLUP, WA, 98374","Match","Non_Exact","13011 151ST ST E, PUYALLUP, WA, 98374",184637041,"L"
47370,"13011 DUNHILL DRIVE","FAIRFAX","VA",22030,38.8467451930001,-77.3954577929999,370,"13011 DUNHILL DRIVE, FAIRFAX, VA, 22030","Match","Exact","13011 DUNHILL DR, FAIRFAX, VA, 22030",614145276,"L"
47371,"13011 GINOVANNI WAY","MINT HILL","NC",28227,35.154655227,-80.6841033549999,371,"13011 GINOVANNI WAY, MINT HILL, NC, 28227","Match","Exact","13011 GINOVANNI WAY, MINT HILL, NC, 28227",618146113,"L"
47372,"13011 GROVE POINT","SAN ANTONIO","TX",78253,29.4394113160001,-98.750862096,372,"13011 GROVE POINT, SAN ANTONIO, TX, 78253","Match","Exact","13011 GROVE PT, SAN ANTONIO, TX, 78253",619948504,"L"
47373,"13011 HIGHWAY 49 C","GULFPORT","MS",39503,30.4736968620001,-89.103156175,373,"13011 HIGHWAY 49 C, GULFPORT, MS, 39503","Match","Exact","13011 HWY 49, GULFPORT, MS, 39503",111375561,"R"
47374,"13011 OLD STAGE COACH RD  APT 1811","LAUREL","MD",20708,39.071781936,-76.8426115039999,374,"13011 OLD STAGE COACH RD  APT 1811, LAUREL, MD, 20708","Match","Non_Exact","13011 OLD STAGE COACH RD, LAUREL, MD, 20708",76364372,"R"
47375,"13011 VIRGIL JACKSON AVE","BATON ROUGE","LA",70818,30.566517726,-91.041878442,375,"13011 VIRGIL JACKSON AVE, BATON ROUGE, LA, 70818","Match","Exact","13011 VIRGIL JACKSON AVE, BATON ROUGE, LA, 70818",92187058,"L"
47376,"13012 232ND ST","LAURELTON","NY",11413,NA,NA,376,"13012 232ND ST, LAURELTON, NY, 11413","No_Match",NA,NA,NA,NA
47377,"13012 ARBOR ISLE DR UNIT105","TAMPA","FL",33637,28.065181549,-82.3620334779999,377,"13012 ARBOR ISLE DR UNIT105, TAMPA, FL, 33637","Match","Exact","13012 ARBOR ISLE DR, TAMPA, FL, 33637",104580798,"R"
47378,"13012 BAY HILL DRIVE","BELTSVILLE","MD",20705,39.069521954,-76.923943916,378,"13012 BAY HILL DRIVE, BELTSVILLE, MD, 20705","Match","Exact","13012 BAY HILL DR, BELTSVILLE, MD, 20705",76418455,"L"
47379,"13012 BLUEBERRY LN","HOLLAND","MI",49424,42.822451825,-86.103848844,379,"13012 BLUEBERRY LN, HOLLAND, MI, 49424","Match","Exact","13012 BLUEBERRY LN, HOLLAND, MI, 49424",71094525,"R"
47380,"13012 ROTHE HOUSE HOUSE RD","CHARLOTTE","NC",28273,35.0918160200001,-80.988672977,380,"13012 ROTHE HOUSE HOUSE RD, CHARLOTTE, NC, 28273","Match","Non_Exact","13012 ROTHE HOUSE RD, CHARLOTTE, NC, 28273",70564542,"L"
47381,"13012 VOSS AVE","KELLER","TX",76244,32.9216134970001,-97.271127625,381,"13012 VOSS AVE, KELLER, TX, 76244","Match","Exact","13012 VOSS AVE, KELLER, TX, 76244",638655891,"R"
47382,"13013 BELHAVEN AVE","LOS ANGELES","CA",90059,33.9142049980001,-118.255535777,382,"13013 BELHAVEN AVE, LOS ANGELES, CA, 90059","Match","Exact","13013 BELHAVEN AVE, LOS ANGELES, CA, 90059",141673798,"R"
47383,"13013 DALE EVANS CT","YUCAIPA","CA",92399,34.0175213410001,-117.070755399,383,"13013 DALE EVANS CT, YUCAIPA, CA, 92399","Match","Exact","13013 DALE EVANS CT, YUCAIPA, CA, 92399",614813501,"R"
47384,"13013 KINGSTON WAY","NORTH ROYALTON","OH",44133,41.284484595,-81.782385024,384,"13013 KINGSTON WAY, NORTH ROYALTON, OH, 44133","Match","Exact","13013 KINGSTON WAY, N ROYALTON, OH, 44133",61148489,"R"
47385,"13013 PEMBROKE LANE","LEAWOOD","KS",66209,38.891402182,-94.6120673409999,385,"13013 PEMBROKE LANE, LEAWOOD, KS, 66209","Match","Exact","13013 PEMBROKE LN, LEAWOOD, KS, 66209",91305612,"L"
47386,"13013 PHILADELPHIA ST","WHITTIER","CA",90601,33.979109721,-118.037157641,386,"13013 PHILADELPHIA ST, WHITTIER, CA, 90601","Match","Exact","13013 PHILADELPHIA ST, WHITTIER, CA, 90601",142797227,"L"
47387,"13013 SOUTH SHAWDEE RD SE","HUNTSVILLE","AL",35803,34.579990991,-86.499938177,387,"13013 SOUTH SHAWDEE RD SE, HUNTSVILLE, AL, 35803","Match","Exact","13013 S SHAWDEE RD SE, HUNTSVILLE, AL, 35803",58201817,"L"
47388,"13013 WILLOUGHBY LN","BAYONET POINT","FL",34667,28.346036521,-82.666810412,388,"13013 WILLOUGHBY LN, BAYONET POINT, FL, 34667","Match","Exact","13013 WILLOUGHBY LN, BAYONET POINT, FL, 34667",640195297,"L"
47389,"13014 BRENTLAWN COURT","HOUSTON","TX",77045,29.638054922,-95.4438252259999,389,"13014 BRENTLAWN COURT, HOUSTON, TX, 77045","Match","Exact","13014 BRENTLAWN CT, HOUSTON, TX, 77045",639454990,"R"
47390,"13014 N DALE MABRY HWY - 159","TAMPA","FL",33618,28.064680282,-82.504384649,390,"13014 N DALE MABRY HWY - 159, TAMPA, FL, 33618","Match","Non_Exact","13014 N DALE MABRY HWY, TAMPA, FL, 33618",104510740,"L"
47391,"13014 N DALE MABRY HWY NO 238","TAMPA","FL",33618,NA,NA,391,"13014 N DALE MABRY HWY NO 238, TAMPA, FL, 33618","No_Match",NA,NA,NA,NA
47392,"13014 N DALE MABRY HWY STE 264","TAMPA","FL",33618,28.064680282,-82.504384649,392,"13014 N DALE MABRY HWY STE 264, TAMPA, FL, 33618","Match","Non_Exact","13014 N DALE MABRY HWY, TAMPA, FL, 33618",104510740,"L"
47393,"13014 WINTER WILLOW DR","FAIRFAX","VA",22030,38.8466565320001,-77.398630521,393,"13014 WINTER WILLOW DR, FAIRFAX, VA, 22030","Match","Exact","13014 WINTER WILLOW DR, FAIRFAX, VA, 22030",76034137,"L"
47394,"13015 109TH ST CT E","PUYALLUP","WA",98374,47.1568146720001,-122.256115442,394,"13015 109TH ST CT E, PUYALLUP, WA, 98374","Match","Exact","13015 109TH STREET CT E, PUYALLUP, WA, 98374",184697427,"L"
47395,"13015 109TH STREET CT E","PUYALLUP","WA",98374,47.1568146720001,-122.256115442,395,"13015 109TH STREET CT E, PUYALLUP, WA, 98374","Match","Exact","13015 109TH STREET CT E, PUYALLUP, WA, 98374",184697427,"L"
47396,"13015 42ND RD NORTH","ROYAL PALM BEACH","FL",33411,26.7396535460001,-80.248903546,396,"13015 42ND RD NORTH, ROYAL PALM BEACH, FL, 33411","Match","Exact","13015 42ND RD N, ROYAL PALM BEACH, FL, 33411",115548038,"L"
47397,"13015 BAILEY STREET","WHITTIER","CA",90601,33.980893419,-118.037196185,397,"13015 BAILEY STREET, WHITTIER, CA, 90601","Match","Exact","13015 BAILEY ST, WHITTIER, CA, 90601",142797219,"L"
47398,"13015 CHERTON CT","HOUSTON","TX",77045,29.638065479,-95.4421274759999,398,"13015 CHERTON CT, HOUSTON, TX, 77045","Match","Exact","13015 CHERTON CT, HOUSTON, TX, 77045",638592120,"L"
47399,"13015 ELMINGTON DR","CYPRESS","TX",77429,29.997649424,-95.619996998,399,"13015 ELMINGTON DR, CYPRESS, TX, 77429","Match","Exact","13015 ELMINGTON DR, CYPRESS, TX, 77429",96003864,"L"
47400,"13015 MADISON CIR","VICTORVILLE","CA",92392,34.487169054,-117.375783169,400,"13015 MADISON CIR, VICTORVILLE, CA, 92392","Match","Exact","13015 MADISON CIR, VICTORVILLE, CA, 92392",144738932,"L"
47401,"13015 NE 10 AVENUE","NORTH MIAMI","FL",33161,25.895343923,-80.178563171,401,"13015 NE 10 AVENUE, NORTH MIAMI, FL, 33161","Match","Exact","13015 NE 10TH AVE, NORTH MIAMI, FL, 33161",116037141,"R"
47402,"13015 NW BERTANI ST","PORTLAND","OR",97229,45.556898727,-122.81152553,402,"13015 NW BERTANI ST, PORTLAND, OR, 97229","Match","Exact","13015 NW BERTANI ST, PORTLAND, OR, 97229",635889128,"R"
47403,"13015 SOUTH HIGH ST","SOUTH SOLON","OH",43153,39.7358877,-83.612884477,403,"13015 SOUTH HIGH ST, SOUTH SOLON, OH, 43153","Match","Non_Exact","13015 HIGH ST, SOUTH SOLON, OH, 43153",135261878,"R"
47404,"13015 VISTA HAVEN","SAN ANTONIO","TX",78216,29.562852537,-98.5124567939999,404,"13015 VISTA HAVEN, SAN ANTONIO, TX, 78216","Match","Exact","13015 VIS HAVEN, SAN ANTONIO, TX, 78216",101587806,"R"
47405,"13016 EASTFIELD RD UNIT 200-235","HUNTERSVILLE","NC",28078,35.3847182100001,-80.786403536,405,"13016 EASTFIELD RD UNIT 200-235, HUNTERSVILLE, NC, 28078","Match","Exact","13016 EASTFIELD RD, HUNTERSVILLE, NC, 28078",70468961,"R"
47406,"13016 EASTFIELD ROAD 200-322","HUNERSVILLE","NC",28078,35.3847182100001,-80.786403536,406,"13016 EASTFIELD ROAD 200-322, HUNERSVILLE, NC, 28078","Match","Non_Exact","13016 EASTFIELD RD, HUNTERSVILLE, NC, 28078",70468961,"R"
47407,"13016 EASTFIELD ROAD SUITE 200-328","HUNTERSVILLE","NC",28078,35.3847182100001,-80.786403536,407,"13016 EASTFIELD ROAD SUITE 200-328, HUNTERSVILLE, NC, 28078","Match","Exact","13016 EASTFIELD RD, HUNTERSVILLE, NC, 28078",70468961,"R"
47408,"13016 EASTFIELD ROAD SUITE 250","HUNTERSVILLE","NC",28078,35.3847182100001,-80.786403536,408,"13016 EASTFIELD ROAD SUITE 250, HUNTERSVILLE, NC, 28078","Match","Exact","13016 EASTFIELD RD, HUNTERSVILLE, NC, 28078",70468961,"R"
47409,"13016 NE 87TH ST","KIRKLAND","WA",98033,47.6807818890001,-122.166511154,409,"13016 NE 87TH ST, KIRKLAND, WA, 98033","Match","Exact","13016 NE 87TH ST, KIRKLAND, WA, 98033",186604343,"L"
47410,"13016 PALM BEACH BLVD","FORT MYERS","FL",33905,26.703875532,-81.750400111,410,"13016 PALM BEACH BLVD, FORT MYERS, FL, 33905","Match","Exact","13016 PALM BEACH BLVD, FORT MYERS, FL, 33905",635635120,"R"
47411,"13016 STATE HWY 64 E","TYLER","TX",75707,32.3117048010001,-95.192425858,411,"13016 STATE HWY 64 E, TYLER, TX, 75707","Match","Exact","13016 STATE HWY 64 E, TYLER, TX, 75707",141275764,"L"
47412,"13017 145TH ST E","PUYALLUP","WA",98374,47.124512913,-122.255898629,412,"13017 145TH ST E, PUYALLUP, WA, 98374","Match","Exact","13017 145TH ST E, PUYALLUP, WA, 98374",184637000,"L"
47413,"13017 AVILA COURT","CHARLOTTE","NC",28278,35.0756183170001,-81.042806151,413,"13017 AVILA COURT, CHARLOTTE, NC, 28278","Match","Exact","13017 AVILA CT, CHARLOTTE, NC, 28278",642170090,"R"
47414,"13017 MEADOW SPRINGS DR","PEARLAND","TX",77584,29.5627942400001,-95.423072212,414,"13017 MEADOW SPRINGS DR, PEARLAND, TX, 77584","Match","Exact","13017 MEADOW SPRINGS DR, PEARLAND, TX, 77584",629562853,"L"
47415,"13017 SE 308TH PL","AUBURN","WA",98092,47.3250569090001,-122.168152426,415,"13017 SE 308TH PL, AUBURN, WA, 98092","Match","Exact","13017 SE 308TH PL, AUBURN, WA, 98092",640948008,"R"
47416,"13017 WISTERIA DRIVE 172","GERMANTOWN","MD",20874,39.1777618360001,-77.2715459999999,416,"13017 WISTERIA DRIVE 172, GERMANTOWN, MD, 20874","Match","Exact","13017 WISTERIA DR, GERMANTOWN, MD, 20874",636957597,"L"
47417,"13018 W COLUMBINE DR","EL MIRAGE","AZ",85335,33.596543748,-112.339718485,417,"13018 W COLUMBINE DR, EL MIRAGE, AZ, 85335","Match","Exact","13018 W COLUMBINE DR, EL MIRAGE, AZ, 85335",128853168,"R"
47418,"13018 W WELDON AVENUE","AVONDALE","AZ",85392,33.488572316,-112.339306599,418,"13018 W WELDON AVENUE, AVONDALE, AZ, 85392","Match","Exact","13018 W WELDON AVE, AVONDALE, AZ, 85392",128847546,"L"
47419,"13018 WHITTON AVE","AVONDALE","AZ",85392,33.487826351,-112.338814819,419,"13018 WHITTON AVE, AVONDALE, AZ, 85392","Match","Non_Exact","13018 W WHITTON AVE, AVONDALE, AZ, 85392",128847537,"L"
47420,"13019 AZALEA WOODS WAY","HERNDON","VA",20171,38.9426679520001,-77.396151351,420,"13019 AZALEA WOODS WAY, HERNDON, VA, 20171","Match","Exact","13019 AZALEA WOODS WAY, HERNDON, VA, 20171",76046226,"R"
47421,"13019 COASTAL CIRCLE","WEST PALM BEACH","FL",33410,26.8688179330001,-80.070394704,421,"13019 COASTAL CIRCLE, WEST PALM BEACH, FL, 33410","Match","Exact","13019 COASTAL CIR, WEST PALM BEACH, FL, 33410",115565267,"L"
47422,"13019 CONDUCTOR WAY","SILVER SPRING","MD",20904,39.071073616,-76.947160792,422,"13019 CONDUCTOR WAY, SILVER SPRING, MD, 20904","Match","Exact","13019 CONDUCTOR WAY, SILVER SPRING, MD, 20904",62115166,"R"
47423,"13019 PAYTON DRIVE","UPPER MARLBORO","MD",20774,38.8893992490001,-76.780744424,423,"13019 PAYTON DRIVE, UPPER MARLBORO, MD, 20774","Match","Exact","13019 PAYTON DR, UPPER MARLBORO, MD, 20774",76339512,"R"
47424,"1301A    WILOAKS DR","SNELLVILLE","GA",30039,33.835916012,-84.06657996,424,"1301A    WILOAKS DR, SNELLVILLE, GA, 30039","Match","Exact","1301 WILOAKS DR, SNELLVILLE, GA, 30039",88928504,"R"
47425,"1301STATE STREET","BEARDSTOWN","IL",62618,NA,NA,425,"1301STATE STREET, BEARDSTOWN, IL, 62618","No_Match",NA,NA,NA,NA
47426,"1302 209TH AVE NE","SAMMAMISH","WA",98074,47.6217785160001,-122.061325726,426,"1302 209TH AVE NE, SAMMAMISH, WA, 98074","Match","Exact","1302 209TH AVE NE, SAMMAMISH, WA, 98074",647860844,"L"
47427,"1302 321ST STREET","STRATFORD","IA",50249,42.3240880970001,-93.912893227,427,"1302 321ST STREET, STRATFORD, IA, 50249","Match","Exact","1302 321ST ST, STRATFORD, IA, 50249",65746239,"R"
47428,"1302 7TH ST","ANACORTES","WA",98221,48.516711646,-122.617379554,428,"1302 7TH ST, ANACORTES, WA, 98221","Match","Exact","1302 7TH ST, ANACORTES, WA, 98221",183641626,"R"
47429,"1302 ALBERTON CIRCLE","LINCOLN","CA",95648,38.8661794220001,-121.306965558,429,"1302 ALBERTON CIRCLE, LINCOLN, CA, 95648","Match","Exact","1302 ALBERTON CIR, LINCOLN, CA, 95648",632200327,"L"
47430,"1302 ALEIKA CT","SEVERN","MD",21144,39.1236521210001,-76.673819829,430,"1302 ALEIKA CT, SEVERN, MD, 21144","Match","Exact","1302 ALEIKA CT, SEVERN, MD, 21144",606922185,"R"
47431,"1302 APOLLO AVE","ANAHEIM","CA",92802,33.8239138930001,-117.930029428,431,"1302 APOLLO AVE, ANAHEIM, CA, 92802","Match","Non_Exact","1302 W APOLLO AVE, ANAHEIM, CA, 92802",144414383,"L"
47432,"1302 BANKSTON LANE","MANSFIELD","TX",76063,32.5871470700001,-97.064109655,432,"1302 BANKSTON LANE, MANSFIELD, TX, 76063","Match","Exact","1302 BANKSTON LN, MANSFIELD, TX, 76063",640621108,"R"
47433,"1302 BARTON CREEK LN","ROSENBERG","TX",77471,29.526264154,-95.820977377,433,"1302 BARTON CREEK LN, ROSENBERG, TX, 77471","Match","Exact","1302 BARTON CREEK LN, ROSENBERG, TX, 77471",648706130,"R"
47434,"1302 BEDFORD DR","POMPTON PLAINS","NJ",7444,40.9721147230001,-74.311618057,434,"1302 BEDFORD DR, POMPTON PLAINS, NJ, 7444","Match","Exact","1302 BEDFORD DR, POMPTON PLAINS, NJ, 07444",60514985,"R"
47435,"1302 BROOKDALE DRIVE","CARPENTERSVILLE","IL",60110,42.119503378,-88.2687201859999,435,"1302 BROOKDALE DRIVE, CARPENTERSVILLE, IL, 60110","Match","Exact","1302 BROOKDALE DR, CARPENTERSVILLE, IL, 60110",119579175,"R"
47436,"1302 BULWER ST","MISSOULA","MT",59802,46.8840697630001,-114.012316806,436,"1302 BULWER ST, MISSOULA, MT, 59802","Match","Exact","1302 BULWER ST, MISSOULA, MT, 59802",205238139,"R"
47437,"1302 CARRIDALE ST SW","DECATUR","AL",35601,34.575004951,-87.006694309,437,"1302 CARRIDALE ST SW, DECATUR, AL, 35601","Match","Exact","1302 CARRIDALE ST SW, DECATUR, AL, 35601",97140097,"R"
47438,"1302 CARROLL AVE","CARROLLTON","TX",75006,32.9527362790001,-96.904393526,438,"1302 CARROLL AVE, CARROLLTON, TX, 75006","Match","Exact","1302 CARROLL AVE, CARROLLTON, TX, 75006",102888601,"R"
47439,"1302 CARSON DRIVE","TALLAHASSEE","FL",32305,30.3714991150001,-84.300774158,439,"1302 CARSON DRIVE, TALLAHASSEE, FL, 32305","Match","Exact","1302 CARSON DR, TALLAHASSEE, FL, 32305",82852060,"R"
47440,"1302 CO RD 4","FORT DEPOSIT","AL",36032,31.979524527,-86.471814995,440,"1302 CO RD 4, FORT DEPOSIT, AL, 36032","Match","Exact","1302 CO RD 4, FORT DEPOSIT, AL, 36032",1420615,"L"
47441,"1302 COTTAGE PLACE","BRANDON","FL",33510,27.960966462,-82.279006801,441,"1302 COTTAGE PLACE, BRANDON, FL, 33510","Match","Exact","1302 COTTAGE PL, BRANDON, FL, 33510",104595637,"R"
47442,"1302 DOMINION LAKES BOULEVARD","CHESAPEAKE","VA",23320,36.742496542,-76.284071297,442,"1302 DOMINION LAKES BOULEVARD, CHESAPEAKE, VA, 23320","Match","Exact","1302 DOMINION LAKES BLVD, CHESAPEAKE, VA, 23320",121798661,"R"
47443,"1302 E 13TH STREET","DEER PARK","TX",77536,29.700072956,-95.111873078,443,"1302 E 13TH STREET, DEER PARK, TX, 77536","Match","Exact","1302 E 13TH ST, DEER PARK, TX, 77536",96102003,"L"
47444,"1302 E CENTRAL BLVD","ORLANDO","FL",32801,28.5422778770001,-81.363072554,444,"1302 E CENTRAL BLVD, ORLANDO, FL, 32801","Match","Exact","1302 E CENTRAL BLVD, ORLANDO, FL, 32801",94282951,"R"
47445,"1302 E WAGONER ROAD","PHOENIX","AZ",85022,33.6534994960001,-112.054183629,445,"1302 E WAGONER ROAD, PHOENIX, AZ, 85022","Match","Exact","1302 E WAGONER RD, PHOENIX, AZ, 85022",128376191,"R"
47446,"1302 EAST 168TH PLACE","SOUTH HOLLAND","IL",60473,41.58904949,-87.5858140239999,446,"1302 EAST 168TH PLACE, SOUTH HOLLAND, IL, 60473","Match","Exact","1302 E 168TH PL, SOUTH HOLLAND, IL, 60473",111780817,"L"
47447,"1302 ELLIS RD","DURHAM","NC",27703,35.95530039,-78.872969532,447,"1302 ELLIS RD, DURHAM, NC, 27703","Match","Exact","1302 ELLIS RD, DURHAM, NC, 27703",627874410,"R"
47448,"1302 F STREET","LINCOLN","NE",68508,40.804751912,-96.7024591909999,448,"1302 F STREET, LINCOLN, NE, 68508","Match","Exact","1302 F ST, LINCOLN, NE, 68508",28292966,"L"
47449,"1302 GINGER COURT","MT JULIET","TN",37122,36.2124661120001,-86.542391069,449,"1302 GINGER COURT, MT JULIET, TN, 37122","Match","Exact","1302 GINGER CT, MOUNT JULIET, TN, 37122",89699504,"R"
47450,"1302 GRAHAM RD","CORPUS CHRISTI","TX",78418,27.667930654,-97.298023268,450,"1302 GRAHAM RD, CORPUS CHRISTI, TX, 78418","Match","Exact","1302 GRAHAM RD, CORPUS CHRISTI, TX, 78418",624503429,"R"
47451,"1302 HIGH STREET","SOUTH BEND","IN",46601,41.66078515,-86.239380304,451,"1302 HIGH STREET, SOUTH BEND, IN, 46601","Match","Exact","1302 HIGH ST, SOUTH BEND, IN, 46601",8084205,"L"
47452,"1302 HIGHLAND AVE","ASHLAND","KY",41101,38.4897176630001,-82.670385567,452,"1302 HIGHLAND AVE, ASHLAND, KY, 41101","Match","Exact","1302 HIGHLAND AVE, ASHLAND, KY, 41101",151045852,"L"
47453,"1302 HUBBARD AVENUE","ST. PAUL","MN",55104,44.9656497660001,-93.1550619349999,453,"1302 HUBBARD AVENUE, ST. PAUL, MN, 55104","Match","Non_Exact","1302 W HUBBARD AVE, SAINT PAUL, MN, 55104",97642083,"L"
47454,"1302 HUXLEY ST","MADISON","WI",53704,43.1143191510001,-89.359144913,454,"1302 HUXLEY ST, MADISON, WI, 53704","Match","Exact","1302 HUXLEY ST, MADISON, WI, 53704",49471279,"L"
47455,"1302 KENNEDY DR","MANCHESTER","TN",37355,35.448266867,-86.090541784,455,"1302 KENNEDY DR, MANCHESTER, TN, 37355","Match","Exact","1302 KENNEDY DR, MANCHESTER, TN, 37355",645575191,"L"
47456,"1302 LAFAYETTE STREET","LAFAYETTE","LA",70501,30.2195653430001,-92.0212486089999,456,"1302 LAFAYETTE STREET, LAFAYETTE, LA, 70501","Match","Exact","1302 LAFAYETTE ST, LAFAYETTE, LA, 70501",85615831,"R"
47457,"1302 MALLARD DRIVE EAST","CHAMBERSBURG","PA",17202,39.9028577770001,-77.7086973409999,457,"1302 MALLARD DRIVE EAST, CHAMBERSBURG, PA, 17202","Match","Exact","1302 MALLARD DR E, CHAMBERSBURG, PA, 17202",624555784,"R"
47458,"1302 MEADOWBRIGHT LANE","CINCINNATI","OH",45230,39.093228701,-84.396077965,458,"1302 MEADOWBRIGHT LANE, CINCINNATI, OH, 45230","Match","Exact","1302 MEADOWBRIGHT LN, CINCINNATI, OH, 45230",103937652,"R"
47459,"1302 MELISSA DR STE 100","BENTONVILLE","AR",72712,36.361654512,-94.2287719399999,459,"1302 MELISSA DR STE 100, BENTONVILLE, AR, 72712","Match","Exact","1302 MELISSA DR, BENTONVILLE, AR, 72712",633291801,"R"
47460,"1302 MESA DRIVE","FORT SMITH","AR",72908,35.3052728640001,-94.4211158479999,460,"1302 MESA DRIVE, FORT SMITH, AR, 72908","Match","Exact","1302 MESA DR, FORT SMITH, AR, 72908",636203157,"R"
47461,"1302 MINNIE DR","AUSTIN","TX",78732,30.3319408560001,-97.926152195,461,"1302 MINNIE DR, AUSTIN, TX, 78732","Match","Exact","1302 MINNIE DR, AUSTIN, TX, 78732",647942992,"R"
47462,"1302 MISHAWAKA AVE","SOUTH BEND","IN",46615,41.665847844,-86.230671563,462,"1302 MISHAWAKA AVE, SOUTH BEND, IN, 46615","Match","Non_Exact","1302 W MISHAWAKA AVE, SOUTH BEND, IN, 46615",637515521,"R"
47463,"1302 N 11TH ST","NEBRASKA CITY","NE",68410,40.6878655610001,-95.8587227739999,463,"1302 N 11TH ST, NEBRASKA CITY, NE, 68410","Match","Exact","1302 N 11TH ST, NEBRASKA CITY, NE, 68410",10394461,"R"
47464,"1302 N 19 STREET SUITE 200","TAMPA","FL",33605,27.9567505540001,-82.437992562,464,"1302 N 19 STREET SUITE 200, TAMPA, FL, 33605","Match","Non_Exact","1302 N 19TH ST, TAMPA, FL, 33605",104524376,"L"
47465,"1302 N 24TH ST W","BILLINGS","MT",59102,45.783747507,-108.576393872,465,"1302 N 24TH ST W, BILLINGS, MT, 59102","Match","Exact","1302 24TH ST W, BILLINGS, MT, 59102",181474528,"L"
47466,"1302 N DICK DOWLING ST","SAN BENITO","TX",78586,26.138841332,-97.6210422139999,466,"1302 N DICK DOWLING ST, SAN BENITO, TX, 78586","Match","Exact","1302 N DICK DOWLING ST, SAN BENITO, TX, 78586",89959287,"R"
47467,"1302 N ILLINOIS STREET","INDIANAPOLIS","IN",46202,39.7850164870001,-86.159437609,467,"1302 N ILLINOIS STREET, INDIANAPOLIS, IN, 46202","Match","Exact","1302 N ILLINOIS ST, INDIANAPOLIS, IN, 46202",108054567,"L"
47468,"1302 NATCHEZ RD","FRANKLIN","TN",37069,35.981030559,-86.939708023,468,"1302 NATCHEZ RD, FRANKLIN, TN, 37069","Match","Exact","1302 NATCHEZ RD, FRANKLIN, TN, 37069",73110320,"L"
47469,"1302 NEAL DRIVE","CAMBRIDGE","OH",43725,40.039327971,-81.578161795,469,"1302 NEAL DRIVE, CAMBRIDGE, OH, 43725","Match","Exact","1302 NEAL DR, CAMBRIDGE, OH, 43725",37649231,"R"
47470,"1302 NICHOLSON PLACE","SUWANEE","GA",30024,34.0434769300001,-84.0982130149999,470,"1302 NICHOLSON PLACE, SUWANEE, GA, 30024","Match","Exact","1302 NICHOLSON PL, SUWANEE, GA, 30024",88947355,"R"
47471,"1302 NORTH RIVER ROAD","LAVACA","AR",72941,35.3428770040001,-94.1953070879999,471,"1302 NORTH RIVER ROAD, LAVACA, AR, 72941","Match","Exact","1302 N RIVER RD, LAVACA, AR, 72941",640086580,"R"
47472,"1302 NW APPLEWOOD ST","ANKENY","KS",50023,NA,NA,472,"1302 NW APPLEWOOD ST, ANKENY, KS, 50023","No_Match",NA,NA,NA,NA
47473,"1302 ORLEANS ST","BELLINGHAM","WA",98229,48.7450361900001,-122.458513331,473,"1302 ORLEANS ST, BELLINGHAM, WA, 98229","Match","Exact","1302 ORLEANS ST, BELLINGHAM, WA, 98229",183805439,"R"
47474,"1302 PIN OAK DRIVE","CARTERVILLE","IL",62918,37.745441198,-89.104615479,474,"1302 PIN OAK DRIVE, CARTERVILLE, IL, 62918","Match","Exact","1302 PIN OAK DR, CARTERVILLE, IL, 62918",621435915,"L"
47475,"1302 PINECROFT DR","SUGAR LAND","TX",77498,29.639482446,-95.6265697269999,475,"1302 PINECROFT DR, SUGAR LAND, TX, 77498","Match","Exact","1302 PINECROFT DR, SUGAR LAND, TX, 77498",78348574,"R"
47476,"1302 PINNACLE CIR 1C","NEWPORT NEWS","VA",23601,37.0663222270001,-76.4522240379999,476,"1302 PINNACLE CIR 1C, NEWPORT NEWS, VA, 23601","Match","Exact","1302 PINNACLE CIR, NEWPORT NEWS, VA, 23601",618474174,"L"
47477,"1302 POPPY CT","FORT COLLINS","CO",80521,40.5723518180001,-105.141799146,477,"1302 POPPY CT, FORT COLLINS, CO, 80521","Match","Exact","1302 POPPY CT, FORT COLLINS, CO, 80521",188543148,"L"
47478,"1302 PRAIRIE POINT DR","RHOME","TX",76078,33.045790648,-97.479138807,478,"1302 PRAIRIE POINT DR, RHOME, TX, 76078","Match","Exact","1302 PRAIRIE PT DR, RHOME, TX, 76078",103687884,"L"
47479,"1302 PRINCETON AVE N","WENATCHEE","WA",98801,NA,NA,479,"1302 PRINCETON AVE N, WENATCHEE, WA, 98801","No_Match",NA,NA,NA,NA
47480,"1302 RIVERWOOD DRIVE","JACKSONVILLE","AR",72076,34.8530926970001,-92.124289882,480,"1302 RIVERWOOD DRIVE, JACKSONVILLE, AR, 72076","Match","Exact","1302 RIVERWOOD DR, JACKSONVILLE, AR, 72076",641985941,"L"
47481,"1302 S AVENIDA VEGA C/O A CONDES","TUCSON","AZ",85710,32.2054724340001,-110.843919336,481,"1302 S AVENIDA VEGA C/O A CONDES, TUCSON, AZ, 85710","Match","Non_Exact","1302 S AVE VEGA, TUCSON, AZ, 85710",121182633,"R"
47482,"1302 S J STREET","TACOMA","WA",98405,47.2499887020001,-122.449800531,482,"1302 S J STREET, TACOMA, WA, 98405","Match","Exact","1302 S J ST, TACOMA, WA, 98405",184673301,"R"
47483,"1302 S PALOS VERDES STREET","SAN PEDRO","CA",90731,33.7322979420001,-118.281374833,483,"1302 S PALOS VERDES STREET, SAN PEDRO, CA, 90731","Match","Exact","1302 S PALOS VERDES ST, SAN PEDRO, CA, 90731",141690942,"L"
47484,"1302 SE ANKENY ST","PORTLAND","OR",97214,45.5221836600001,-122.652496506,484,"1302 SE ANKENY ST, PORTLAND, OR, 97214","Match","Exact","1302 SE ANKENY ST, PORTLAND, OR, 97214",157505569,"R"
47485,"1302 SECOND ST SW","ROANOKE","VA",24016,37.260965006,-79.944062577,485,"1302 SECOND ST SW, ROANOKE, VA, 24016","Match","Exact","1302 2ND ST SW, ROANOKE, VA, 24016",62910320,"L"
47486,"1302 SECOND STREET SW","ROANOKE","VA",24016,37.260965006,-79.944062577,486,"1302 SECOND STREET SW, ROANOKE, VA, 24016","Match","Exact","1302 2ND ST SW, ROANOKE, VA, 24016",62910320,"L"
47487,"1302 SEVENTH STREET","WILSON","OK",73463,34.1621329870001,-97.4258703789999,487,"1302 SEVENTH STREET, WILSON, OK, 73463","Match","Exact","1302 7TH ST, WILSON, OK, 73463",14825618,"R"
47488,"1302 SOUTH MILES","EL RENO","OK",73036,35.5191311460001,-97.959081834,488,"1302 SOUTH MILES, EL RENO, OK, 73036","Match","Non_Exact","1302 S MILES AVE, EL RENO, OK, 73036",92521554,"L"
47489,"1302 SPRING STREET","ELLSWORTH","KS",67439,38.7382639480001,-98.231745657,489,"1302 SPRING STREET, ELLSWORTH, KS, 67439","Match","Exact","1302 SPRING ST, ELLSWORTH, KS, 67439",132868080,"L"
47490,"1302 STANTON STREET  33","EMPORIA","KS",66801,38.4136545700001,-96.2152190689999,490,"1302 STANTON STREET  33, EMPORIA, KS, 66801","Match","Exact","1302 STANTON ST, EMPORIA, KS, 66801",647576880,"R"
47491,"1302 SW EVERGREEN LANE","PALM CITY","FL",34990,27.189069998,-80.2921267089999,491,"1302 SW EVERGREEN LANE, PALM CITY, FL, 34990","Match","Exact","1302 SW EVERGREEN LN, PALM CITY, FL, 34990",636392952,"L"
47492,"1302 SW MCKINNEY ST","RICE","TX",75155,32.2554421580001,-96.5029853679999,492,"1302 SW MCKINNEY ST, RICE, TX, 75155","Match","Exact","1302 MCKINNEY ST, RICE, TX, 75155",183918042,"R"
47493,"1302 TACHELLA WAY","BRENTWOOD","CA",94513,37.944359331,-121.715073419,493,"1302 TACHELLA WAY, BRENTWOOD, CA, 94513","Match","Exact","1302 TACHELLA WAY, BRENTWOOD, CA, 94513",624320578,"R"
47494,"1302 TOWNLEY RD","RICHMOND","VA",23229,37.5982311750001,-77.5671274009999,494,"1302 TOWNLEY RD, RICHMOND, VA, 23229","Match","Exact","1302 TOWNLEY RD, RICHMOND, VA, 23229",106644508,"L"
47495,"1302 TROON DR","SALISBURY","NC",28144,35.6956955750001,-80.468402574,495,"1302 TROON DR, SALISBURY, NC, 28144","Match","Exact","1302 TROON DR, SALISBURY, NC, 28144",25293422,"R"
47496,"1302 WAUGH DR STE 788","HOUSTON","TX",77019,29.755267443,-95.398080568,496,"1302 WAUGH DR STE 788, HOUSTON, TX, 77019","Match","Exact","1302 WAUGH DR, HOUSTON, TX, 77019",96062412,"R"
47497,"1302 WAUGH DR SUITE 553","HOUSTON","TX",77019,29.755267443,-95.398080568,497,"1302 WAUGH DR SUITE 553, HOUSTON, TX, 77019","Match","Exact","1302 WAUGH DR, HOUSTON, TX, 77019",96062412,"R"
47498,"1302 WAUGH DR UNIT 768","HOUSTON","TX",77019,29.755267443,-95.398080568,498,"1302 WAUGH DR UNIT 768, HOUSTON, TX, 77019","Match","Exact","1302 WAUGH DR, HOUSTON, TX, 77019",96062412,"R"
47499,"1302 WAUGH DR","HOUSTON","TX",77007,29.755267443,-95.398080568,499,"1302 WAUGH DR, HOUSTON, TX, 77007","Match","Non_Exact","1302 WAUGH DR, HOUSTON, TX, 77019",96062412,"R"
47500,"1302 WAUGH DRIVE  SUITE 558","HOUSTON","TX",77019,29.755267443,-95.398080568,500,"1302 WAUGH DRIVE  SUITE 558, HOUSTON, TX, 77019","Match","Exact","1302 WAUGH DR, HOUSTON, TX, 77019",96062412,"R"
