"ID","Address","City","State","Zip","lat","long","id","input_address","match_indicator","match_type","matched_address","tiger_line_id","tiger_side"
72501,"15502 NE 103RD DR","VANCOUVER","WA",98682,45.6966373610001,-122.513240304,1,"15502 NE 103RD DR, VANCOUVER, WA, 98682","Match","Exact","15502 NE 103RD DR, VANCOUVER, WA, 98682",630019536,"R"
72502,"15502 SE 277TH PL","KENT","WA",98042,47.3531192140001,-122.134499344,2,"15502 SE 277TH PL, KENT, WA, 98042","Match","Exact","15502 SE 277TH PL, KENT, WA, 98042",648164640,"R"
72503,"15502 STONEYBROOK W PKWY   104-507","WINTER GARDEN","FL",34787,NA,NA,3,"15502 STONEYBROOK W PKWY   104-507, WINTER GARDEN, FL, 34787","No_Match",NA,NA,NA,NA
72504,"15502 STONEYBROOK WEST PKWY STE 104","WINTER GARDEN","FL",34787,NA,NA,4,"15502 STONEYBROOK WEST PKWY STE 104, WINTER GARDEN, FL, 34787","No_Match",NA,NA,NA,NA
72505,"15502 TUMBLING RAPIDS DR","HOUSTON","TX",77084,29.841424541,-95.633841761,5,"15502 TUMBLING RAPIDS DR, HOUSTON, TX, 77084","Match","Exact","15502 TUMBLING RAPIDS DR, HOUSTON, TX, 77084",96018711,"L"
72506,"15503 CHERRYLAWN ST","DETROIT","MI",48238,42.4054747370001,-83.154479354,6,"15503 CHERRYLAWN ST, DETROIT, MI, 48238","Match","Exact","15503 CHERRYLAWN ST, DETROIT, MI, 48238",95426192,"L"
72507,"15503 HARRISON WAY","NORTHPORT","AL",35475,33.3609957950001,-87.586077743,7,"15503 HARRISON WAY, NORTHPORT, AL, 35475","Match","Exact","15503 HARRISON WAY, NORTHPORT, AL, 35475",82179198,"R"
72508,"15503 LACEY HULL ROAD","MADILL","OK",73446,34.049394298,-96.952119591,8,"15503 LACEY HULL ROAD, MADILL, OK, 73446","Match","Non_Exact","15503 LACY HULL RD, MADILL, OK, 73446",651619286,"R"
72509,"15503 MARTHA CAROL LN","TYLER","TX",75707,32.295076013,-95.149644132,9,"15503 MARTHA CAROL LN, TYLER, TX, 75707","Match","Exact","15503 MARTHA CAROL LN, TYLER, TX, 75707",642872032,"R"
72510,"15503 PARKLANE","SOUTH HOLLAND","IL",60473,NA,NA,10,"15503 PARKLANE, SOUTH HOLLAND, IL, 60473","No_Match",NA,NA,NA,NA
72511,"15503 SPRING GARDEN STREET","DETROIT","MI",48205,42.428180791,-82.961627471,11,"15503 SPRING GARDEN STREET, DETROIT, MI, 48205","Match","Exact","15503 SPRING GARDEN ST, DETROIT, MI, 48205",95469011,"L"
72512,"15503 WYLIE ROAD","BRANDYWINE","MD",20613,38.677103323,-76.885065832,12,"15503 WYLIE ROAD, BRANDYWINE, MD, 20613","Match","Exact","15503 WYLIE RD, BRANDYWINE, MD, 20613",634559167,"L"
72513,"15504 BANJO COURT","WOODBRIDGE","VA",22193,38.618676318,-77.30984677,13,"15504 BANJO COURT, WOODBRIDGE, VA, 22193","Match","Exact","15504 BANJO CT, WOODBRIDGE, VA, 22193",207143783,"R"
72514,"15504 BRADSHAW ROAD","PEYTON","CO",80831,39.057790889,-104.497149343,14,"15504 BRADSHAW ROAD, PEYTON, CO, 80831","Match","Exact","15504 BRADSHAW RD, PEYTON, CO, 80831",105536714,"L"
72515,"15505 26TH AVE NE","SHORELINE","WA",98155,47.741212542,-122.30070024,15,"15505 26TH AVE NE, SHORELINE, WA, 98155","Match","Exact","15505 26TH AVE NE, SHORELINE, WA, 98155",186576352,"L"
72516,"15505 MIAMI LAKEWAY NORTH 204","MIAMI LAKES","FL",33014,25.9150854370001,-80.3025164379999,16,"15505 MIAMI LAKEWAY NORTH 204, MIAMI LAKES, FL, 33014","Match","Exact","15505 MIAMI LAKEWAY N, MIAMI LAKES, FL, 33014",116291143,"R"
72517,"15506 LEMOYNE BLVD  SUITE A","BILOXI","MS",39532,30.443028306,-88.8684314069999,17,"15506 LEMOYNE BLVD  SUITE A, BILOXI, MS, 39532","Match","Exact","15506 LEMOYNE BLVD, BILOXI, MS, 39532",89256943,"R"
72518,"15507 GLASTONBURY WAY","UPPER MARLBORO","MD",20774,38.856132281,-76.734684654,18,"15507 GLASTONBURY WAY, UPPER MARLBORO, MD, 20774","Match","Exact","15507 GLASTONBURY WAY, UPPER MARLBORO, MD, 20774",651702588,"L"
72519,"15507 S NORMANDIE AVE 223","GARDENA","CA",90247,33.889690348,-118.299314001,19,"15507 S NORMANDIE AVE 223, GARDENA, CA, 90247","Match","Non_Exact","15507 S NORMANDIE AVE, GARDENA, CA, 90247",241243355,"R"
72520,"15507 S NORMANDIE AVE 482","Gardena","CA",90241,NA,NA,20,"15507 S NORMANDIE AVE 482, Gardena, CA, 90241","No_Match",NA,NA,NA,NA
72521,"15507 S NORMANDIE AVE NUM 759","GARDENA","CA",90247,33.889690348,-118.299314001,21,"15507 S NORMANDIE AVE NUM 759, GARDENA, CA, 90247","Match","Non_Exact","15507 S NORMANDIE AVE, GARDENA, CA, 90247",241243355,"R"
72522,"15507 S NORMANDIE AVE STE 277","GARDENA","CA",90247,33.889690348,-118.299314001,22,"15507 S NORMANDIE AVE STE 277, GARDENA, CA, 90247","Match","Non_Exact","15507 S NORMANDIE AVE, GARDENA, CA, 90247",241243355,"R"
72523,"15507 S NORMANDIE AVE SUITE 509","GARDENA","CA",90247,33.889690348,-118.299314001,23,"15507 S NORMANDIE AVE SUITE 509, GARDENA, CA, 90247","Match","Non_Exact","15507 S NORMANDIE AVE, GARDENA, CA, 90247",241243355,"R"
72524,"15507 S NORMANDIE AVE SUITE 518","GARDENA","CA",90247,33.889690348,-118.299314001,24,"15507 S NORMANDIE AVE SUITE 518, GARDENA, CA, 90247","Match","Non_Exact","15507 S NORMANDIE AVE, GARDENA, CA, 90247",241243355,"R"
72525,"15507 SOUTH NORMANDIE AVE  487","GARDENA","CA",90247,33.88969064,-118.299313997,25,"15507 SOUTH NORMANDIE AVE  487, GARDENA, CA, 90247","Match","Exact","15507 S NORMANDIE AVE, GARDENA, CA, 90247",241243355,"R"
72526,"15507 SOUTH NORMANDIE AVE 116","GARDENA","CA",90247,33.88969064,-118.299313997,26,"15507 SOUTH NORMANDIE AVE 116, GARDENA, CA, 90247","Match","Exact","15507 S NORMANDIE AVE, GARDENA, CA, 90247",241243355,"R"
72527,"15507 YORK ROAD","SPARKS","MD",21152,39.55030513,-76.652619527,27,"15507 YORK ROAD, SPARKS, MD, 21152","Match","Exact","15507 YORK RD, SPARKS, MD, 21152",647293859,"R"
72528,"15508 FAIRFIELD","LIVONIA","MI",48154,42.3994198880001,-83.365139718,28,"15508 FAIRFIELD, LIVONIA, MI, 48154","Match","Non_Exact","15508 FAIRFIELD ST, LIVONIA, MI, 48154",95499989,"R"
72529,"15508 SE 18TH CIR","VANCOUVER","WA",98683,45.607517086,-122.513336721,29,"15508 SE 18TH CIR, VANCOUVER, WA, 98683","Match","Non_Exact","15508 SE 18TH CIR, VANCOUVER, WA, 98683",158330798,"R"
72530,"15508 STUDEBAKER RD","NORWALK","CA",90650,33.889892601,-118.09983438,30,"15508 STUDEBAKER RD, NORWALK, CA, 90650","Match","Exact","15508 STUDEBAKER RD, NORWALK, CA, 90650",141742858,"L"
72531,"15508 W BELL RD  101-176","SURPRISE","AZ",85374,33.6388035580001,-112.394701162,31,"15508 W BELL RD  101-176, SURPRISE, AZ, 85374","Match","Non_Exact","15508 W BELL RD, SURPRISE, AZ, 85374",631188124,"R"
72532,"15509 BAILEYS LANE","SILVER SPRING","MD",20906,39.110705368,-77.0631927589999,32,"15509 BAILEYS LANE, SILVER SPRING, MD, 20906","Match","Exact","15509 BAILEYS LN, SILVER SPRING, MD, 20906",62105410,"L"
72533,"15509 KELLEY FARM COURT","WOODBRIDGE","VA",22193,38.6145118840001,-77.3194075339999,33,"15509 KELLEY FARM COURT, WOODBRIDGE, VA, 22193","Match","Exact","15509 KELLEY FARM CT, WOODBRIDGE, VA, 22193",653498182,"L"
72534,"15509 N SCOTTSDALE RD UNIT 1019","SCOTTSDALE","AZ",85254,NA,NA,34,"15509 N SCOTTSDALE RD UNIT 1019, SCOTTSDALE, AZ, 85254","No_Match",NA,NA,NA,NA
72535,"15509 ROBSART COURT","CHARLOTTE","NC",28277,35.0360286390001,-80.844537708,35,"15509 ROBSART COURT, CHARLOTTE, NC, 28277","Match","Exact","15509 ROBSART CT, CHARLOTTE, NC, 28277",70543093,"L"
72536,"1551 118TH PLACE","LOS ANGELES","CA",90059,33.9251818000001,-118.246832238,36,"1551 118TH PLACE, LOS ANGELES, CA, 90059","Match","Non_Exact","1551 E 118TH PL, LOS ANGELES, CA, 90059",141674286,"L"
72537,"1551 15TH ST","SANTA MONICA","CA",90404,34.022826707,-118.482366418,37,"1551 15TH ST, SANTA MONICA, CA, 90404","Match","Exact","1551 15TH ST, SANTA MONICA, CA, 90404",141559402,"L"
72538,"1551 21ST AVE N SUITE 15","MYRTLE BEACH","SC",29577,33.7149840170001,-78.8887231209999,38,"1551 21ST AVE N SUITE 15, MYRTLE BEACH, SC, 29577","Match","Exact","1551 21ST AVE N, MYRTLE BEACH, SC, 29577",29105321,"L"
72539,"1551 BAINBRIDGE LANE","CHINO VALLEY","AZ",86323,34.7516657580001,-112.437454423,39,"1551 BAINBRIDGE LANE, CHINO VALLEY, AZ, 86323","Match","Exact","1551 BAINBRIDGE LN, CHINO VALLEY, AZ, 86323",617711881,"R"
72540,"1551 BANBURY DRIVE","SAN RAMON","CA",94582,37.7548456910001,-121.899863261,40,"1551 BANBURY DRIVE, SAN RAMON, CA, 94582","Match","Exact","1551 BANBURY DR, SAN RAMON, CA, 94582",192117974,"R"
72541,"1551 BAYLOR STREET","DALLAS","TX",75226,32.781764433,-96.7768000899999,41,"1551 BAYLOR STREET, DALLAS, TX, 75226","Match","Exact","1551 BAYLOR ST, DALLAS, TX, 75226",102912208,"R"
72542,"1551 BENICIA ROAD","VALLEJO","CA",94591,38.0838851190001,-122.197782124,42,"1551 BENICIA ROAD, VALLEJO, CA, 94591","Match","Exact","1551 BENICIA RD, VALLEJO, CA, 94591",650946249,"R"
72543,"1551 BILLINGS DR","LANCASTER","SC",29720,34.703229063,-80.7802770169999,43,"1551 BILLINGS DR, LANCASTER, SC, 29720","Match","Exact","1551 BILLINGS DR, LANCASTER, SC, 29720",40693697,"R"
72544,"1551 BLUE HILLS AVE","BLOOMFIELD","CT",6002,NA,NA,44,"1551 BLUE HILLS AVE, BLOOMFIELD, CT, 6002","No_Match",NA,NA,NA,NA
72545,"1551 BOSTON COURT APT 5","SANTA ROSA","CA",95405,38.437864431,-122.677653346,45,"1551 BOSTON COURT APT 5, SANTA ROSA, CA, 95405","Match","Exact","1551 BOSTON CT, SANTA ROSA, CA, 95405",67486727,"L"
72546,"1551 DUNWOODY VLG  PKWAY APT 88531","DUNWOODY","GA",30338,33.948851631,-84.3321366659999,46,"1551 DUNWOODY VLG  PKWAY APT 88531, DUNWOODY, GA, 30338","Match","Exact","1551 DUNWOODY VILLAGE PKWY, DUNWOODY, GA, 30338",23387146,"R"
72547,"1551 E 88TH AVE","THORNTON","CO",80229,39.8562479620001,-104.967896102,47,"1551 E 88TH AVE, THORNTON, CO, 80229","Match","Exact","1551 E 88TH AVE, THORNTON, CO, 80229",177297394,"L"
72548,"1551 E PORTLAND ST","SPRINGFIELD","MO",65804,37.185350482,-93.267923375,48,"1551 E PORTLAND ST, SPRINGFIELD, MO, 65804","Match","Exact","1551 E PORTLAND ST, SPRINGFIELD, MO, 65804",605883518,"L"
72549,"1551 E53RD STREET","BROOKLYN","NY",11234,NA,NA,49,"1551 E53RD STREET, BROOKLYN, NY, 11234","No_Match",NA,NA,NA,NA
72550,"1551 EAST 118TH PLACE","LOS ANGELES","CA",90059,33.9251818000001,-118.246832238,50,"1551 EAST 118TH PLACE, LOS ANGELES, CA, 90059","Match","Exact","1551 E 118TH PL, LOS ANGELES, CA, 90059",141674286,"L"
72551,"1551 EAST 4500 SOUTH","SALT LAKE CITY","UT",84117,40.6742751890001,-111.845912666,51,"1551 EAST 4500 SOUTH, SALT LAKE CITY, UT, 84117","Match","Exact","1551 E 4500 S, SALT LAKE CITY, UT, 84117",624225945,"L"
72552,"1551 FORTUNATA CT","KISSIMMEE","FL",34744,28.305303371,-81.341148349,52,"1551 FORTUNATA CT, KISSIMMEE, FL, 34744","Match","Exact","1551 FORTUNATA CT, KISSIMMEE, FL, 34744",639424963,"R"
72553,"1551 HALSTEAD AVE","PALM BAY","FL",32907,28.0377215410001,-80.7152199669999,53,"1551 HALSTEAD AVE, PALM BAY, FL, 32907","Match","Non_Exact","1551 HALSTEAD AVE NW, PALM BAY, FL, 32907",93896369,"L"
72554,"1551 HOLLYWOOD AVE","BRONX","NY",10461,40.8433245510001,-73.828380045,54,"1551 HOLLYWOOD AVE, BRONX, NY, 10461","Match","Exact","1551 HOLLYWOOD AVE, BRONX, NY, 10461",80306805,"L"
72555,"1551 INDIAN HILLS DR STE 101","SIOUX CITY","IA",51104,42.532563441,-96.39039304,55,"1551 INDIAN HILLS DR STE 101, SIOUX CITY, IA, 51104","Match","Exact","1551 INDIAN HILLS DR, SIOUX CITY, IA, 51104",93421693,"L"
72556,"1551 ISLAND WAY","WESTON","FL",33326,26.098299029,-80.386467742,56,"1551 ISLAND WAY, WESTON, FL, 33326","Match","Exact","1551 ISLAND WAY, WESTON, FL, 33326",637644871,"R"
72557,"1551 LARIMER STREET UNIT 1806","DENVER","CO",80202,39.7487607100001,-104.99802571,57,"1551 LARIMER STREET UNIT 1806, DENVER, CO, 80202","Match","Exact","1551 LARIMER ST, DENVER, CO, 80202",177304399,"L"
72558,"1551 LIVINGSTON AVENUE SUITE 106 A","WEST ST PAUL","MN",55118,44.8990449180001,-93.082501787,58,"1551 LIVINGSTON AVENUE SUITE 106 A, WEST ST PAUL, MN, 55118","Match","Exact","1551 LIVINGSTON AVE, W SAINT PAUL, MN, 55118",37916177,"R"
72559,"1551 MAJESTY STREET","UPLAND","CA",91784,34.12845357,-117.626546215,59,"1551 MAJESTY STREET, UPLAND, CA, 91784","Match","Exact","1551 MAJESTY ST, UPLAND, CA, 91784",614822636,"L"
72560,"1551 MARLOWE COURT","CINCINNATI","OH",45224,39.200017072,-84.5458974649999,60,"1551 MARLOWE COURT, CINCINNATI, OH, 45224","Match","Non_Exact","1551 MARLOWE AVE, CINCINNATI, OH, 45224",103921107,"L"
72561,"1551 N BURKHART ROAD","HOWELL","MI",48855,42.622340142,-83.993486923,61,"1551 N BURKHART ROAD, HOWELL, MI, 48855","Match","Exact","1551 N BURKHART RD, HOWELL, MI, 48855",619588078,"L"
72562,"1551 N SERRANO AVE","LOS ANGELES","CA",90027,34.0993619280001,-118.307084645,62,"1551 N SERRANO AVE, LOS ANGELES, CA, 90027","Match","Exact","1551 N SERRANO AVE, LOS ANGELES, CA, 90027",141597293,"L"
72563,"1551 N TUSTIN AVE STE 970","SANTA ANA","CA",92705,33.7594190630001,-117.83424259,63,"1551 N TUSTIN AVE STE 970, SANTA ANA, CA, 92705","Match","Non_Exact","1551 N TUSTIN AVE, SANTA ANA, CA, 92705",144053130,"R"
72564,"1551 NW 139TH AVE","PEMBROKE PINES","FL",33028,26.0206831460001,-80.335101588,64,"1551 NW 139TH AVE, PEMBROKE PINES, FL, 33028","Match","Exact","1551 NW 139TH AVE, PEMBROKE PINES, FL, 33028",114782109,"R"
72565,"1551 NW 157TH AVENUE","PEMBROKE PINES","FL",33028,26.0255349650001,-80.354756905,65,"1551 NW 157TH AVENUE, PEMBROKE PINES, FL, 33028","Match","Exact","1551 157TH AVE, PEMBROKE PINES, FL, 33028",114801187,"L"
72566,"1551 NW 54TH STREET SUITE 204","SEATTLE","CA",98107,NA,NA,66,"1551 NW 54TH STREET SUITE 204, SEATTLE, CA, 98107","No_Match",NA,NA,NA,NA
72567,"1551 OCEAN AVE SUITE 260","SANTA MONICA","CA",90401,34.012070696,-118.495661052,67,"1551 OCEAN AVE SUITE 260, SANTA MONICA, CA, 90401","Match","Exact","1551 OCEAN AVE, SANTA MONICA, CA, 90401",141559510,"L"
72568,"1551 PACIFIC AVE","SANTA ROSA","CA",95404,38.4529956900001,-122.703146352,68,"1551 PACIFIC AVE, SANTA ROSA, CA, 95404","Match","Exact","1551 PACIFIC AVE, SANTA ROSA, CA, 95404",67468896,"L"
72569,"1551 ROHDE AVE","BERKELEY","IL",60163,41.885759444,-87.899316755,69,"1551 ROHDE AVE, BERKELEY, IL, 60163","Match","Non_Exact","1551 N ROHDE AVE, BERKELEY, IL, 60163",111726519,"L"
72570,"1551 SAWGRASS CORPORATE PKWY ST 41","FT LAUDERDALE","FL",33323,26.143662761,-80.340525194,70,"1551 SAWGRASS CORPORATE PKWY ST 41, FT LAUDERDALE, FL, 33323","Match","Non_Exact","1551 SAWGRASS CORPORATE PKWY, FT LAUDERDALE, FL, 33325",114784269,"L"
72571,"1551 SE 51ST ST","GAINESVILLE","FL",32641,29.6354454200001,-82.263989051,71,"1551 SE 51ST ST, GAINESVILLE, FL, 32641","Match","Exact","1551 SE 51 ST, GAINESVILLE, FL, 32641",6830311,"L"
72572,"1551 SNYDER EAST LANSING","EAST LANSING","MI",48823,NA,NA,72,"1551 SNYDER EAST LANSING, EAST LANSING, MI, 48823","No_Match",NA,NA,NA,NA
72573,"1551 SOUTHGATE AVENUE UNIT 359","DALY CITY","CA",94015,37.6756730280001,-122.474431041,73,"1551 SOUTHGATE AVENUE UNIT 359, DALY CITY, CA, 94015","Match","Exact","1551 SOUTHGATE AVE, DALY CITY, CA, 94015",192397169,"L"
72574,"1551 THOMAS ROAD","DECATUR","GA",30032,33.747561132,-84.27731145,74,"1551 THOMAS ROAD, DECATUR, GA, 30032","Match","Exact","1551 THOMAS RD, DECATUR, GA, 30032",23367737,"R"
72575,"1551 VZ COUNTY ROAD 3601","EDGEWOOD","TX",75117,32.7023435130001,-95.85649373,75,"1551 VZ COUNTY ROAD 3601, EDGEWOOD, TX, 75117","Match","Exact","1551 VZ COUNTY ROAD 3601, EDGEWOOD, TX, 75117",42947895,"L"
72576,"1551 WALL ST NO 220","SAINT CHARLES","MO",63303,38.7800708950001,-90.5237287319999,76,"1551 WALL ST NO 220, SAINT CHARLES, MO, 63303","Match","Non_Exact","1551 WALL ST, SAINT CHARLES, MO, 63303",605566293,"L"
72577,"1551 WEBSTER STREET","NEW ORLEANS","LA",70118,29.930839484,-90.1198032779999,77,"1551 WEBSTER STREET, NEW ORLEANS, LA, 70118","Match","Exact","1551 WEBSTER ST, NEW ORLEANS, LA, 70118",191702180,"R"
72578,"1551 WEST 13TH STREET","RIVIERA BEACH","FL",33404,26.7742544500001,-80.080365225,78,"1551 WEST 13TH STREET, RIVIERA BEACH, FL, 33404","Match","Exact","1551 W 13TH ST, RIVIERA BEACH, FL, 33404",115268423,"L"
72579,"15510 20TH AVENUE CT E","TACOMA","WA",98445,47.1158877080001,-122.401995467,79,"15510 20TH AVENUE CT E, TACOMA, WA, 98445","Match","Exact","15510 20TH AVENUE CT E, TACOMA, WA, 98445",184658071,"R"
72580,"15510 INDIAN WOODS DR","MISSOURI CITY","TX",77489,29.601575397,-95.48481076,80,"15510 INDIAN WOODS DR, MISSOURI CITY, TX, 77489","Match","Exact","15510 INDIAN WOODS DR, MISSOURI CITY, TX, 77489",78291181,"R"
72581,"15510 KING CIR","BENNINGTON","NE",68007,41.3304659820001,-96.156473069,81,"15510 KING CIR, BENNINGTON, NE, 68007","Match","Exact","15510 KING CR, BENNINGTON, NE, 68007",624291019,"R"
72582,"15510 LOOKOUT ROAD","APPLE VALLEY","CA",92307,34.533081693,-117.277088527,82,"15510 LOOKOUT ROAD, APPLE VALLEY, CA, 92307","Match","Exact","15510 LOOKOUT RD, APPLE VALLEY, CA, 92307",636790290,"L"
72583,"15510 TEAL PARK DR","HUMBLE","TX",77396,29.946088966,-95.266150516,83,"15510 TEAL PARK DR, HUMBLE, TX, 77396","Match","Exact","15510 TEAL PARK DR, HUMBLE, TX, 77396",96047695,"R"
72584,"15511 CLOVER RIDGE","SAN ANTONIO","TX",78248,29.5880471720001,-98.5165593629999,84,"15511 CLOVER RIDGE, SAN ANTONIO, TX, 78248","Match","Non_Exact","15511 CLOVER RIDGE ST, SAN ANTONIO, TX, 78248",101562202,"R"
72585,"15511 HIGHWAY 71 W STE 110","AUSTIN","TX",78738,NA,NA,85,"15511 HIGHWAY 71 W STE 110, AUSTIN, TX, 78738","No_Match",NA,NA,NA,NA
72586,"15511 HWY 71 W STE 110-302","BEE CAVES","TX",78738,NA,NA,86,"15511 HWY 71 W STE 110-302, BEE CAVES, TX, 78738","No_Match",NA,NA,NA,NA
72587,"15511 SANDLANDS CIR","NOBLESVILLE","IN",46060,NA,NA,87,"15511 SANDLANDS CIR, NOBLESVILLE, IN, 46060","No_Match",NA,NA,NA,NA
72588,"15512 DORCHESTER AVE","DOLTON","IL",60419,41.6134451280001,-87.5826503219999,88,"15512 DORCHESTER AVE, DOLTON, IL, 60419","Match","Exact","15512 DORCHESTER AVE, DOLTON, IL, 60419",111780341,"R"
72589,"15512 SE 255TH ST","COVINGTON","WA",98042,47.3732851890001,-122.134497713,89,"15512 SE 255TH ST, COVINGTON, WA, 98042","Match","Exact","15512 SE 255TH ST, COVINGTON, WA, 98042",187090166,"L"
72590,"15513 PEACH WALKER DRIVE","BOWIE","MD",20716,38.92399053,-76.735928696,90,"15513 PEACH WALKER DRIVE, BOWIE, MD, 20716","Match","Exact","15513 PEACH WALKER DR, BOWIE, MD, 20716",653253049,"R"
72591,"15513 SYMONDSBURY WAY","UPPER MARLBORO","MD",20774,38.854466744,-76.736088535,91,"15513 SYMONDSBURY WAY, UPPER MARLBORO, MD, 20774","Match","Exact","15513 SYMONDSBURY WAY, UPPER MARLBORO, MD, 20774",76417229,"L"
72592,"15513 WEST 152ND STREET","OLATHE","KS",66062,38.85229508,-94.76483415,92,"15513 WEST 152ND STREET, OLATHE, KS, 66062","Match","Exact","15513 W 152ND ST, OLATHE, KS, 66062",640604767,"L"
72593,"15514 LAKE AVENUE","LAKEWOOD","OH",44107,41.4932243270001,-81.8050405239999,93,"15514 LAKE AVENUE, LAKEWOOD, OH, 44107","Match","Exact","15514 LAKE AVE, LAKEWOOD, OH, 44107",61100022,"R"
72594,"15514 LAKE RD","LAKEWOOD","OH",44107,41.4932243270001,-81.8050405239999,94,"15514 LAKE RD, LAKEWOOD, OH, 44107","Match","Non_Exact","15514 LAKE AVE, LAKEWOOD, OH, 44107",61100022,"R"
72595,"15515 COMPTON RD","CENTREVILLE","VA",20121,38.8164737220001,-77.4836298,95,"15515 COMPTON RD, CENTREVILLE, VA, 20121","Match","Exact","15515 COMPTON RD, CENTREVILLE, VA, 20121",649767720,"L"
72596,"15515 N MOUNT OLIVET RD","SMITHVILLE","MO",64089,39.37373404,-94.5384644979999,96,"15515 N MOUNT OLIVET RD, SMITHVILLE, MO, 64089","Match","Non_Exact","15515 NE MOUNT OLIVET RD, SMITHVILLE, MO, 64089",89783017,"R"
72597,"15515 ROLLING MEADOWS CIR","WELLINGTON","FL",33414,26.6653225430001,-80.2918999899999,97,"15515 ROLLING MEADOWS CIR, WELLINGTON, FL, 33414","Match","Exact","15515 ROLLING MEADOWS CIR, WELLINGTON, FL, 33414",115578991,"R"
72598,"15515 RYON AVE","BELLFLOWER","CA",90706,33.892939799,-118.128542033,98,"15515 RYON AVE, BELLFLOWER, CA, 90706","Match","Exact","15515 RYON AVE, BELLFLOWER, CA, 90706",142775045,"R"
72599,"15515 RYON AVENUE","BELLFLOWER","CA",90706,33.892939799,-118.128542033,99,"15515 RYON AVENUE, BELLFLOWER, CA, 90706","Match","Exact","15515 RYON AVE, BELLFLOWER, CA, 90706",142775045,"R"
72600,"15515 S VERMONT AVE APT23","GARDENA","CA",90247,33.8904162530001,-118.291945788,100,"15515 S VERMONT AVE APT23, GARDENA, CA, 90247","Match","Non_Exact","15515 S VERMONT AVE, GARDENA, CA, 90247",141667380,"R"
72601,"15515 SHAMROCK LN","BROOKFIELD","WI",53005,43.0951174960001,-88.104785606,101,"15515 SHAMROCK LN, BROOKFIELD, WI, 53005","Match","Exact","15515 SHAMROCK LN, BROOKFIELD, WI, 53005",53871442,"L"
72602,"15516 SHARON COURT","FONTANA","CA",92336,34.1253807620001,-117.465979011,102,"15516 SHARON COURT, FONTANA, CA, 92336","Match","Exact","15516 SHARON CT, FONTANA, CA, 92336",614817183,"L"
72603,"15517 MONTESINO DRIVE","ORLANDO","FL",32828,28.5442954150001,-81.145524665,103,"15517 MONTESINO DRIVE, ORLANDO, FL, 32828","Match","Exact","15517 MONTESINO DR, ORLANDO, FL, 32828",611172795,"L"
72604,"15517 N NEMO CT","BOWIE","MD",20716,38.927686484,-76.734549164,104,"15517 N NEMO CT, BOWIE, MD, 20716","Match","Exact","15517 N NEMO CT, BOWIE, MD, 20716",76407119,"R"
72605,"15517 SIR EDWARDS DR","UPPER MARLBORO","MD",20772,NA,NA,105,"15517 SIR EDWARDS DR, UPPER MARLBORO, MD, 20772","No_Match",NA,NA,NA,NA
72606,"15518 MARSHFIELD AVE","HARVEY","IL",60426,41.6075104120001,-87.657166973,106,"15518 MARSHFIELD AVE, HARVEY, IL, 60426","Match","Exact","15518 MARSHFIELD AVE, HARVEY, IL, 60426",605699889,"R"
72607,"15519 MARTINEAU STREET","HOUSTON","TX",77032,29.9449208090001,-95.359763378,107,"15519 MARTINEAU STREET, HOUSTON, TX, 77032","Match","Exact","15519 MARTINEAU ST, HOUSTON, TX, 77032",96044854,"L"
72608,"15519 SNOWDEN ST","DETROIT","MI",48227,42.404696625,-83.1770897009999,108,"15519 SNOWDEN ST, DETROIT, MI, 48227","Match","Exact","15519 SNOWDEN ST, DETROIT, MI, 48227",95425020,"L"
72609,"1552 ALAQUA DRIVE","SEWICKLEY","PA",15143,40.561379437,-80.091940538,109,"1552 ALAQUA DRIVE, SEWICKLEY, PA, 15143","Match","Exact","1552 ALAQUA DR, SEWICKLEY, PA, 15143",648694710,"R"
72610,"1552 CHICHESTER AVENUE","LINWOOD","PA",19061,39.8258528530001,-75.423492449,110,"1552 CHICHESTER AVENUE, LINWOOD, PA, 19061","Match","Exact","1552 CHICHESTER AVE, LINWOOD, PA, 19061",134890846,"L"
72611,"1552 DAGMAR AVENUE","PITTSBURGH","PA",15216,40.411029243,-80.022864394,111,"1552 DAGMAR AVENUE, PITTSBURGH, PA, 15216","Match","Exact","1552 DAGMAR AVE, PITTSBURGH, PA, 15216",51634149,"R"
72612,"1552 DEER POINT WAY","RESTON","VA",20194,38.979426903,-77.356296265,112,"1552 DEER POINT WAY, RESTON, VA, 20194","Match","Exact","1552 DEER POINT WAY, RESTON, VA, 20194",635444708,"L"
72613,"1552 E CYRENE DRIVE","CARSON","CA",90746,33.848013118,-118.244426531,113,"1552 E CYRENE DRIVE, CARSON, CA, 90746","Match","Exact","1552 CYRENE DR, CARSON, CA, 90746",141681166,"R"
72614,"1552 E GRAND AVE","DES MOINES","IA",50316,41.594228011,-93.593869683,114,"1552 E GRAND AVE, DES MOINES, IA, 50316","Match","Exact","1552 E GRAND AVE, DES MOINES, IA, 50316",65788837,"L"
72615,"1552 MARGARETE CRESCENT DRIVE","APOPKA","FL",32703,28.6470011590001,-81.481636462,115,"1552 MARGARETE CRESCENT DRIVE, APOPKA, FL, 32703","Match","Exact","1552 MARGARETE CRESCENT DR, APOPKA, FL, 32703",94342865,"R"
72616,"1552 NORTH 20TH STREET","OMAHA","NE",68110,41.2736631280001,-95.942358333,116,"1552 NORTH 20TH STREET, OMAHA, NE, 68110","Match","Exact","1552 N 20TH ST, OMAHA, NE, 68110",117010841,"L"
72617,"1552 NORTH GATEWAY AVENUE","CLOVIS","CA",93619,36.8584327950001,-119.728939211,117,"1552 NORTH GATEWAY AVENUE, CLOVIS, CA, 93619","Match","Non_Exact","1552 N GATEWAY, CLOVIS, CA, 93619",606262546,"R"
72618,"1552 S LINDA VISTA AVE","BOISE","ID",83709,43.590783173,-116.303401281,118,"1552 S LINDA VISTA AVE, BOISE, ID, 83709","Match","Exact","1552 S LINDA VISTA AVE, BOISE, ID, 83709",117894322,"L"
72619,"1552 SOUTH HIGH STREET","HARRISONBURG","VA",22801,38.433335678,-78.898756298,119,"1552 SOUTH HIGH STREET, HARRISONBURG, VA, 22801","Match","Exact","1552 S HIGH ST, HARRISONBURG, VA, 22801",55764408,"R"
72620,"1552 SPARROW RD","TALLAHASSEE","FL",32305,30.3946195790001,-84.305204041,120,"1552 SPARROW RD, TALLAHASSEE, FL, 32305","Match","Exact","1552 SPARROW RD, TALLAHASSEE, FL, 32305",624510724,"R"
72621,"1552 W BEANTREE LANE","TUCSON","AZ",85713,32.2035347780001,-110.997974893,121,"1552 W BEANTREE LANE, TUCSON, AZ, 85713","Match","Exact","1552 W BEANTREE LN, TUCSON, AZ, 85713",606834414,"R"
72622,"1552 WEST SUNSET AVENUE","DECATUR","IL",61821,39.8347729070001,-88.98328487,122,"1552 WEST SUNSET AVENUE, DECATUR, IL, 61821","Match","Non_Exact","1552 W SUNSET AVE, DECATUR, IL, 62522",20745741,"R"
72623,"15520 ARABELLA AVE","BAKERSFIELD","CA",93314,35.3602172660001,-119.174722322,123,"15520 ARABELLA AVE, BAKERSFIELD, CA, 93314","Match","Exact","15520 ARABELLA AVE, BAKERSFIELD, CA, 93314",109448018,"R"
72624,"15520 BELNAP WAY","SARATOGA","CA",95070,37.244100121,-122.044026641,124,"15520 BELNAP WAY, SARATOGA, CA, 95070","Match","Exact","15520 BELNAP WAY, SARATOGA, CA, 95070",122989206,"L"
72625,"15520 CHERRYWOOD DRIVE","RENO","NV",89511,39.3676782520001,-119.81190903,125,"15520 CHERRYWOOD DRIVE, RENO, NV, 89511","Match","Exact","15520 CHERRYWOOD DR, RENO, NV, 89511",107046320,"L"
72626,"15520 PEBBLE DR","BASEHOR","KS",66007,39.1495709760001,-94.938954999,126,"15520 PEBBLE DR, BASEHOR, KS, 66007","Match","Exact","15520 PEBBLE DR, BASEHOR, KS, 66007",91412707,"R"
72627,"15520 ROCKFIELD BLVD SUITE G","IRVINE","CA",92618,33.639285392,-117.721463761,127,"15520 ROCKFIELD BLVD SUITE G, IRVINE, CA, 92618","Match","Exact","15520 ROCKFIELD BLVD, IRVINE, CA, 92618",635365063,"R"
72628,"15521 LESLIE DRIVE","PIEDMONT","OK",73078,35.6282511090001,-97.7640632059999,128,"15521 LESLIE DRIVE, PIEDMONT, OK, 73078","Match","Exact","15521 LESLIE DR, PIEDMONT, OK, 73078",92527305,"R"
72629,"15521 NE 15 AVE","NORTH MIAMI BEACH","FL",33162,25.91922492,-80.1697186119999,129,"15521 NE 15 AVE, NORTH MIAMI BEACH, FL, 33162","Match","Non_Exact","15521 NE 15TH AVE, N MIAMI BEACH, FL, 33162",116036154,"R"
72630,"15521 SW 109 AVE","MIAMI","FL",33157,25.6249791660001,-80.371006698,130,"15521 SW 109 AVE, MIAMI, FL, 33157","Match","Non_Exact","15521 SW 109TH AVE, MIAMI, FL, 33157",115982468,"L"
72631,"15521 SYMONDSBURY WAY","UPPER MARLBORO","MD",20774,38.853723388,-76.735854683,131,"15521 SYMONDSBURY WAY, UPPER MARLBORO, MD, 20774","Match","Exact","15521 SYMONDSBURY WAY, UPPER MARLBORO, MD, 20774",76417229,"L"
72632,"15522 73RD STREET","KENOSHA","WI",53142,42.5704210700001,-87.995600872,132,"15522 73RD STREET, KENOSHA, WI, 53142","Match","Exact","15522 73RD ST, KENOSHA, WI, 53142",79819362,"L"
72633,"15522 HATFIELD HOLLOW DR","HOUSTON","TX",77377,30.001186525,-95.584896519,133,"15522 HATFIELD HOLLOW DR, HOUSTON, TX, 77377","Match","Non_Exact","15522 HATFIELD HOLLOW DR, TOMBALL, TX, 77377",96154420,"R"
72634,"15523 MINNESOTA AVENUE","PARAMOUNT","CA",90723,33.89259687,-118.166706201,134,"15523 MINNESOTA AVENUE, PARAMOUNT, CA, 90723","Match","Exact","15523 MINNESOTA AVE, PARAMOUNT, CA, 90723",141698264,"R"
72635,"15524 WYANDOTTE STREET","VAN NUYS","CA",91406,34.2029973100001,-118.471368531,135,"15524 WYANDOTTE STREET, VAN NUYS, CA, 91406","Match","Exact","15524 WYANDOTTE ST, VAN NUYS, CA, 91406",142713997,"L"
72636,"15525 9TH AVE NE","SHORELINE","WA",98155,47.741706058,-122.31959521,136,"15525 9TH AVE NE, SHORELINE, WA, 98155","Match","Exact","15525 9TH AVE NE, SHORELINE, WA, 98155",186574817,"L"
72637,"15525 BRODICK DR","AUSTIN","TX",78717,30.501759683,-97.7655890779999,137,"15525 BRODICK DR, AUSTIN, TX, 78717","Match","Exact","15525 BRODICK DR, AUSTIN, TX, 78717",126521686,"R"
72638,"15525 POMERADO RD STE B-3","POWAY","CA",92064,32.996118188,-117.057920566,138,"15525 POMERADO RD STE B-3, POWAY, CA, 92064","Match","Exact","15525 POMERADO RD, POWAY, CA, 92064",195316659,"R"
72639,"15526 84TH AVE E","PUYALLUP","WA",98375,47.1157028850001,-122.316512245,139,"15526 84TH AVE E, PUYALLUP, WA, 98375","Match","Exact","15526 84 AVE E, PUYALLUP, WA, 98375",627881455,"R"
72640,"15526 HORSESHOE LN","WOODBRIDGE","VA",22191,38.616150975,-77.2820642249999,140,"15526 HORSESHOE LN, WOODBRIDGE, VA, 22191","Match","Exact","15526 HORSESHOE LN, WOODBRIDGE, VA, 22191",207153863,"R"
72641,"15526 TRUMAN ST","LOWELL","IN",46356,41.3363968420001,-87.437157973,141,"15526 TRUMAN ST, LOWELL, IN, 46356","Match","Exact","15526 TRUMAN ST, LOWELL, IN, 46356",637351824,"R"
72642,"15528 60TH AVENUE NORTH","PLAYMOUTH","MN",55446,45.0624746390001,-93.4767305239999,142,"15528 60TH AVENUE NORTH, PLAYMOUTH, MN, 55446","Match","Non_Exact","15528 60TH AVE N, PLYMOUTH, MN, 55446",626304829,"R"
72643,"15528 GLASTONBURY WAY","UPPER MARLBORO","MD",20774,38.8563122030001,-76.73468823,143,"15528 GLASTONBURY WAY, UPPER MARLBORO, MD, 20774","Match","Exact","15528 GLASTONBURY WAY, UPPER MARLBORO, MD, 20774",651702588,"R"
72644,"15528 NARCISSUS LN","ORLAND PARK","IL",60462,41.60835238,-87.808465048,144,"15528 NARCISSUS LN, ORLAND PARK, IL, 60462","Match","Exact","15528 NARCISSUS LN, ORLAND PARK, IL, 60462",111873266,"R"
72645,"15529 7TH ST UNIT 316","LATHROP","CA",95330,37.8210824780001,-121.275485585,145,"15529 7TH ST UNIT 316, LATHROP, CA, 95330","Match","Exact","15529 SEVENTH ST, LATHROP, CA, 95330",133855410,"R"
72646,"15529 BELLE MEADE DR","WINTER GARDEN","FL",34787,28.508636907,-81.6186573429999,146,"15529 BELLE MEADE DR, WINTER GARDEN, FL, 34787","Match","Exact","15529 BELLE MEADE DR, WINTER GARDEN, FL, 34787",626958916,"R"
72647,"15529 GREATER GROVES BLVD","CLERMONT","FL",34714,28.3774544670001,-81.694840512,147,"15529 GREATER GROVES BLVD, CLERMONT, FL, 34714","Match","Exact","15529 GREATER GROVES BLVD, CLERMONT, FL, 34714",94160256,"R"
72648,"1553 14TH AVENUE NORTH","WAHPETON","ND",58075,46.2772382210001,-96.6232284609999,148,"1553 14TH AVENUE NORTH, WAHPETON, ND, 58075","Match","Exact","1553 14TH AVE N, WAHPETON, ND, 58075",181266216,"R"
72649,"1553 APPLE TREE LANE UNIT 10","WAUPACA","WI",54981,44.3388273130001,-89.065505007,149,"1553 APPLE TREE LANE UNIT 10, WAUPACA, WI, 54981","Match","Exact","1553 APPLE TREE LN, WAUPACA, WI, 54981",647225973,"R"
72650,"1553 ASHLEY RD","RAMONA","CA",92065,33.024704507,-116.857857024,150,"1553 ASHLEY RD, RAMONA, CA, 92065","Match","Exact","1553 ASHLEY RD, RAMONA, CA, 92065",651690034,"R"
72651,"1553 CAMBRIDGE BLVD","MARBLE CLIFF","OH",43212,39.988078107,-83.057765638,151,"1553 CAMBRIDGE BLVD, MARBLE CLIFF, OH, 43212","Match","Exact","1553 CAMBRIDGE BLVD, MARBLE CLIFF, OH, 43212",218681000,"L"
72652,"1553 CESERY BOULEVARD","JACKSONVILLE","FL",32211,30.336108053,-81.5970203539999,152,"1553 CESERY BOULEVARD, JACKSONVILLE, FL, 32211","Match","Exact","1553 CESERY BLVD, JACKSONVILLE, FL, 32211",83902986,"R"
72653,"1553 E193RD STREET","EUCLID","OH",44117,NA,NA,153,"1553 E193RD STREET, EUCLID, OH, 44117","No_Match",NA,NA,NA,NA
72654,"1553 FOREST VILLA LANE","MCLEAN","VA",22101,38.931570563,-77.159712321,154,"1553 FOREST VILLA LANE, MCLEAN, VA, 22101","Match","Exact","1553 FOREST VILLA LN, MCLEAN, VA, 22101",76022742,"L"
72655,"1553 HERMESPROTA DR","SHARON HILL","PA",19079,39.894028647,-75.2689926469999,155,"1553 HERMESPROTA DR, SHARON HILL, PA, 19079","Match","Exact","1553 HERMESPROTA DR, SHARON HILL, PA, 19079",134899098,"R"
72656,"1553 KINDRED CIR NW","NORTH CAROLINA","NC",28027,35.4371101090001,-80.6346908789999,156,"1553 KINDRED CIR NW, NORTH CAROLINA, NC, 28027","Match","Non_Exact","1553 KINDRED CIR NW, CONCORD, NC, 28027",24922476,"L"
72657,"1553 LAMOTTE DR","LINO LAKES","MN",55038,45.1585228220001,-93.0638351549999,157,"1553 LAMOTTE DR, LINO LAKES, MN, 55038","Match","Exact","1553 LAMOTTE DR, LINO LAKES, MN, 55038",97511253,"R"
72658,"1553 LIVINGSTON DR","HENDERSON","NV",89012,36.025807463,-115.053437448,158,"1553 LIVINGSTON DR, HENDERSON, NV, 89012","Match","Exact","1553 LIVINGSTON DR, HENDERSON, NV, 89012",201926753,"L"
72659,"1553 LIVINGSTON DRIVE","HENDERSON","NV",89012,36.025807463,-115.053437448,159,"1553 LIVINGSTON DRIVE, HENDERSON, NV, 89012","Match","Exact","1553 LIVINGSTON DR, HENDERSON, NV, 89012",201926753,"L"
72660,"1553 MEADOWBROOK BLVD","STOW","OH",44224,41.195349649,-81.4443396139999,160,"1553 MEADOWBROOK BLVD, STOW, OH, 44224","Match","Exact","1553 MEADOWBROOK BLVD, STOW, OH, 44224",61346773,"L"
72661,"1553 MITCHELL CIRCLE","SUMMERVILLE","GA",30747,34.5004609170001,-85.265163147,161,"1553 MITCHELL CIRCLE, SUMMERVILLE, GA, 30747","Match","Exact","1553 MITCHELL CIR, SUMMERVILLE, GA, 30747",651304681,"R"
72662,"1553 MORNING SUN DRIVE","BALLWIN","MO",63021,38.5547567410001,-90.512191722,162,"1553 MORNING SUN DRIVE, BALLWIN, MO, 63021","Match","Exact","1553 MORNING SUN DR, BALLWIN, MO, 63021",636520691,"L"
72663,"1553 N  HUDSON STREET","ORLANDO","FL",32808,28.5608359130001,-81.462071157,163,"1553 N  HUDSON STREET, ORLANDO, FL, 32808","Match","Exact","1553 N HUDSON ST, ORLANDO, FL, 32808",94271477,"R"
72664,"1553 N HEDGE APPLE DR","SEDALIA","MO",65301,38.701447224,-93.2882409709999,164,"1553 N HEDGE APPLE DR, SEDALIA, MO, 65301","Match","Exact","1553 N HEDGE APPLE DR, SEDALIA, MO, 65301",54723460,"L"
72665,"1553 OSHTEMO RIDGE TRAIL","KALAMAZOO","MI",49009,42.2747755840001,-85.662345477,165,"1553 OSHTEMO RIDGE TRAIL, KALAMAZOO, MI, 49009","Match","Exact","1553 OSHTEMO RIDGE TRL, KALAMAZOO, MI, 49009",617527064,"R"
72666,"1553 PEARL HEIGHTS RD","VISTA","CA",92081,33.149608146,-117.240312568,166,"1553 PEARL HEIGHTS RD, VISTA, CA, 92081","Match","Exact","1553 PEARL HEIGHTS RD, VISTA, CA, 92081",195431193,"L"
72667,"1553 RUTH RD STE1","N BRUNSWICK","NJ",8902,NA,NA,167,"1553 RUTH RD STE1, N BRUNSWICK, NJ, 8902","No_Match",NA,NA,NA,NA
72668,"1553 VIA LEON","PALOS VERDES ESTATES","CA",90274,33.7785379170001,-118.40543426,168,"1553 VIA LEON, PALOS VERDES ESTATES, CA, 90274","Match","Exact","1553 VIA LEON, PALOS VERDES ESTATES, CA, 90274",141584873,"L"
72669,"1553 VIRGINIA AVE 104B","COLLEGE PARK","GA",30337,33.6592804750001,-84.439871371,169,"1553 VIRGINIA AVE 104B, COLLEGE PARK, GA, 30337","Match","Exact","1553 VIRGINIA AVE, COLLEGE PARK, GA, 30337",17348647,"R"
72670,"1553 W JACKSON BLVD","CHICAGO","IL",60607,41.877640087,-87.6655425119999,170,"1553 W JACKSON BLVD, CHICAGO, IL, 60607","Match","Exact","1553 W JACKSON BLVD, CHICAGO, IL, 60607",605275232,"L"
72671,"1553 W TODD DRIVE SUITE 106","TEMPE","AZ",85283,NA,NA,171,"1553 W TODD DRIVE SUITE 106, TEMPE, AZ, 85283","Tie",NA,NA,NA,NA
72672,"1553 WALNUT DR","CHEYENNE","WY",82001,41.1403941670001,-104.783262388,172,"1553 WALNUT DR, CHEYENNE, WY, 82001","Match","Non_Exact","1553 WALNUT, CHEYENNE, WY, 82001",160150975,"R"
72673,"1553 WRIGHTS LANE","GALLATIN","TN",37066,36.4607970120001,-86.391317116,173,"1553 WRIGHTS LANE, GALLATIN, TN, 37066","Match","Non_Exact","1553 N WRIGHTS LN, GALLATIN, TN, 37066",29767484,"L"
72674,"15530 ELLA BLVD UNIT 1016","HOUSTON","TX",77090,29.9938401110001,-95.4329309349999,174,"15530 ELLA BLVD UNIT 1016, HOUSTON, TX, 77090","Match","Exact","15530 ELLA BLVD, HOUSTON, TX, 77090",96662764,"R"
72675,"15530 S KENWOOD ST","OLATHE","KS",66062,38.846221896,-94.783729869,175,"15530 S KENWOOD ST, OLATHE, KS, 66062","Match","Exact","15530 S KENWOOD ST, OLATHE, KS, 66062",91312652,"R"
72676,"15532 N EDGEMONT RD","DOLAN SPRINGS","AZ",86441,35.577761718,-114.309408601,176,"15532 N EDGEMONT RD, DOLAN SPRINGS, AZ, 86441","Match","Exact","15532 N EDGEMONT RD, DOLAN SPRINGS, AZ, 86441",634686156,"R"
72677,"15535 BURTON WINDSOR ROAD","MIDDLEFIELD","OH",44062,41.48913285,-81.089995863,177,"15535 BURTON WINDSOR ROAD, MIDDLEFIELD, OH, 44062","Match","Exact","15535 BURTON WINDSOR RD, MIDDLEFIELD, OH, 44062",638665482,"R"
72678,"15535 NORTH PLATTE DRIVE SUITE GG","BOWIE","MD",20716,38.9284096710001,-76.736392961,178,"15535 NORTH PLATTE DRIVE SUITE GG, BOWIE, MD, 20716","Match","Non_Exact","15535 PLATTE DR, BOWIE, MD, 20716",76399646,"L"
72679,"15535 WOODWAY DR","TAMPA","FL",33613,28.0933893970001,-82.4715630319999,179,"15535 WOODWAY DR, TAMPA, FL, 33613","Match","Exact","15535 WOODWAY DR, TAMPA, FL, 33613",104511211,"R"
72680,"15536 E MORNING VISTA LN","SCOTTSDALE","AZ",85262,33.752384254,-111.744921696,180,"15536 E MORNING VISTA LN, SCOTTSDALE, AZ, 85262","Match","Exact","15536 MORNING VISTA LN, SCOTTSDALE, AZ, 85262",651399285,"R"
72681,"15537 DEWBERRY LANE","CONROE","TX",77302,30.2472861690001,-95.335600411,181,"15537 DEWBERRY LANE, CONROE, TX, 77302","Match","Exact","15537 DEWBERRY LN, CONROE, TX, 77302",79285565,"L"
72682,"15537 SOUTH 70TH CT","ORLAND PARK","IL",60462,41.608800924,-87.791019046,182,"15537 SOUTH 70TH CT, ORLAND PARK, IL, 60462","Match","Exact","15537 S 70TH CT, ORLAND PARK, IL, 60462",111871748,"L"
72683,"15539 S MCKINLEY AVE","COMPTON","CA",90220,33.8913685250001,-118.26078002,183,"15539 S MCKINLEY AVE, COMPTON, CA, 90220","Match","Exact","15539 S MCKINLEY AVE, COMPTON, CA, 90220",141680020,"R"
72684,"1554 ARROWHEAD TRAIL","DELTONA","FL",32725,28.8484409610001,-81.23167212,184,"1554 ARROWHEAD TRAIL, DELTONA, FL, 32725","Match","Exact","1554 ARROWHEAD TRL, DELTONA, FL, 32725",94586924,"L"
72685,"1554 BLUE HERON WAY","OREGON","WI",53575,42.9381992630001,-89.481351747,185,"1554 BLUE HERON WAY, OREGON, WI, 53575","Match","Exact","1554 BLUE HERON WAY, OREGON, WI, 53575",49519951,"L"
72686,"1554 BRANDON GLEN WAY NE","CONYERS","GA",30012,33.673233232,-83.990564901,186,"1554 BRANDON GLEN WAY NE, CONYERS, GA, 30012","Match","Non_Exact","1554 BRANDON GLEN WAY, CONYERS, GA, 30012",23754854,"R"
72687,"1554 COLLEGE AVE","FORT WORTH","TX",76104,32.7274036480001,-97.3350369139999,187,"1554 COLLEGE AVE, FORT WORTH, TX, 76104","Match","Exact","1554 COLLEGE AVE, FORT WORTH, TX, 76104",645976729,"R"
72688,"1554 CRESTLINE DR","ATLANTA","GA",30345,33.8358140760001,-84.291694579,188,"1554 CRESTLINE DR, ATLANTA, GA, 30345","Match","Non_Exact","1554 CRESTLINE DR NE, ATLANTA, GA, 30345",632649923,"L"
72689,"1554 CRIMSON LANE","YORKVILLE","IL",60560,41.6725979830001,-88.416054011,189,"1554 CRIMSON LANE, YORKVILLE, IL, 60560","Match","Exact","1554 CRIMSON LN, YORKVILLE, IL, 60560",606003084,"L"
72690,"1554 DIXIE ST","CHARLESTON","WV",25311,38.3437609850001,-81.617878946,190,"1554 DIXIE ST, CHARLESTON, WV, 25311","Match","Exact","1554 DIXIE ST, CHARLESTON, WV, 25311",78647833,"L"
72691,"1554 G 96 LANE","DELTA","CO",81416,38.754778979,-108.072818896,191,"1554 G 96 LANE, DELTA, CO, 81416","Match","Non_Exact","1554 G96 LN, DELTA, CO, 81416",122375919,"R"
72692,"1554 GEARS RD","HOUSTON","TX",77067,NA,NA,192,"1554 GEARS RD, HOUSTON, TX, 77067","No_Match",NA,NA,NA,NA
72693,"1554 GOVERNMENT ST","PONCE DE LEON","FL",32455,30.730147156,-85.944294918,193,"1554 GOVERNMENT ST, PONCE DE LEON, FL, 32455","Match","Exact","1554 GOVERNMENT ST, PONCE DE LEON, FL, 32455",32657925,"R"
72694,"1554 HENRY DRIVE","LARAMIE","WY",82072,41.3257685310001,-105.568122373,194,"1554 HENRY DRIVE, LARAMIE, WY, 82072","Match","Non_Exact","1554 N HENRY DR, LARAMIE, WY, 82072",168754450,"L"
72695,"1554 MAGOFFIN AVE","OBETZ","OH",43207,39.885730913,-82.956518654,195,"1554 MAGOFFIN AVE, OBETZ, OH, 43207","Match","Exact","1554 MAGOFFIN AVE, OBETZ, OH, 43207",633997836,"R"
72696,"1554 MILEGROUND ROAD","MORGANTOWN","WV",26505,NA,NA,196,"1554 MILEGROUND ROAD, MORGANTOWN, WV, 26505","Tie",NA,NA,NA,NA
72697,"1554 N HOBART BLVD APT 2","LOS ANGELES","CA",90027,34.099243616,-118.305619341,197,"1554 N HOBART BLVD APT 2, LOS ANGELES, CA, 90027","Match","Non_Exact","1554 N HOBART BLVD, LOS ANGELES, CA, 90027",141597295,"R"
72698,"1554 PAM LANE","SAN JOSE","CA",95120,37.2311139330001,-121.89895042,198,"1554 PAM LANE, SAN JOSE, CA, 95120","Match","Exact","1554 PAM LN, SAN JOSE, CA, 95120",618192430,"R"
72699,"1554 PAOLI PIKE SUITE 285","WEST CHESTER","PA",19380,39.9905903370001,-75.549720441,199,"1554 PAOLI PIKE SUITE 285, WEST CHESTER, PA, 19380","Match","Exact","1554 PAOLI PIKE, WEST CHESTER, PA, 19380",179518781,"R"
72700,"1554 RASPBERRY ROAD","CLYMER","PA",15728,40.733937306,-78.9788371229999,200,"1554 RASPBERRY ROAD, CLYMER, PA, 15728","Match","Exact","1554 RASPBERRY RD, CLYMER, PA, 15728",66317514,"R"
72701,"1554 S PULASKI RD FLOOR 1ST","CHICAGO","IL",60623,41.859235208,-87.7249704229999,201,"1554 S PULASKI RD FLOOR 1ST, CHICAGO, IL, 60623","Match","Non_Exact","1554 S PULASKI RD, CHICAGO, IL, 60623",605052597,"R"
72702,"1554 SOUTH GRANT AVENUE","TACOMA","WA",98405,47.2457436230001,-122.459104793,202,"1554 SOUTH GRANT AVENUE, TACOMA, WA, 98405","Match","Exact","1554 S GRANT AVE, TACOMA, WA, 98405",184624337,"R"
72703,"1554 STONE CREEK CIR SW","NORTH BEND","WA",98045,47.487775066,-121.802741123,203,"1554 STONE CREEK CIR SW, NORTH BEND, WA, 98045","Match","Exact","1554 STONE CREEK CIR SW, NORTH BEND, WA, 98045",186937649,"R"
72704,"1554 SUTHERLAND ST","LANCASTER","CA",93534,34.716495056,-118.158962774,204,"1554 SUTHERLAND ST, LANCASTER, CA, 93534","Match","Exact","1554 SUTHERLAND ST, LANCASTER, CA, 93534",141830833,"R"
72705,"1554 UNION ROAD SUITE B","GASTONIA","NC",28054,35.24277857,-81.1707310419999,205,"1554 UNION ROAD SUITE B, GASTONIA, NC, 28054","Match","Exact","1554 UNION RD, GASTONIA, NC, 28054",637324287,"R"
72706,"1554","ORANGE","CA",92866,NA,NA,206,"1554, ORANGE, CA, 92866","No_Match",NA,NA,NA,NA
72707,"15540 GUNDRY AVE","PARAMOUNT","CA",90723,33.89158135,-118.174731762,207,"15540 GUNDRY AVE, PARAMOUNT, CA, 90723","Match","Exact","15540 GUNDRY AVE, PARAMOUNT, CA, 90723",142691092,"L"
72708,"15542 HOLMAN ROAD","WILLIAMSBURG","OH",45176,39.065861123,-84.0117378369999,208,"15542 HOLMAN ROAD, WILLIAMSBURG, OH, 45176","Match","Exact","15542 HOLMAN RD, WILLIAMSBURG, OH, 45176",606315986,"L"
72709,"15542 PEACH WALKER DRIVE","BOWIE","MD",20716,38.9204937010001,-76.735953109,209,"15542 PEACH WALKER DRIVE, BOWIE, MD, 20716","Match","Exact","15542 PEACH WALKER DR, BOWIE, MD, 20716",76328274,"L"
72710,"15543 BRIGGS STREET","CARLISLE","IA",50047,41.4880360710001,-93.510891987,210,"15543 BRIGGS STREET, CARLISLE, IA, 50047","Match","Exact","15543 BRIGGS ST, CARLISLE, IA, 50047",83760367,"R"
72711,"15545 DEVONSHIRE ST SUITE 210","MISSION HILLS","CA",91345,34.257324108,-118.471070372,211,"15545 DEVONSHIRE ST SUITE 210, MISSION HILLS, CA, 91345","Match","Exact","15545 DEVONSHIRE ST, MISSION HILLS, CA, 91345",641549054,"R"
72712,"15545 DEVONSHIRE STREET SUITE 210","MISSION HILLS","CA",91345,34.257324108,-118.471070372,212,"15545 DEVONSHIRE STREET SUITE 210, MISSION HILLS, CA, 91345","Match","Exact","15545 DEVONSHIRE ST, MISSION HILLS, CA, 91345",641549054,"R"
72713,"15545 SOUTH HALSTED STREET","HARVEY","IL",60426,41.6065566830001,-87.6364884019999,213,"15545 SOUTH HALSTED STREET, HARVEY, IL, 60426","Match","Non_Exact","15545 HALSTED ST, HARVEY, IL, 60426",111712078,"L"
72714,"15547 LAWNDALE AVE","MARKHAM","IL",60428,41.606526665,-87.7108780089999,214,"15547 LAWNDALE AVE, MARKHAM, IL, 60428","Match","Exact","15547 LAWNDALE AVE, MARKHAM, IL, 60428",111704093,"L"
72715,"15548 SYRACUSE LANE","FONTANA","CA",92336,34.156543727,-117.46553073,215,"15548 SYRACUSE LANE, FONTANA, CA, 92336","Match","Exact","15548 SYRACUSE LN, FONTANA, CA, 92336",617106050,"L"
72716,"15549 GOLF CLUB DRIVE","MONTCLAIR","VA",22025,38.614487583,-77.343371673,216,"15549 GOLF CLUB DRIVE, MONTCLAIR, VA, 22025","Match","Exact","15549 GOLF CLUB DR, MONTCLAIR, VA, 22025",76509009,"L"
72717,"15549 OH 170 SUITE 10","EAST LIVERPOOL","OH",43920,40.6736711730001,-80.5760388259999,217,"15549 OH 170 SUITE 10, EAST LIVERPOOL, OH, 43920","Match","Non_Exact","15549 STATE RTE 170, EAST LIVERPOOL, OH, 43920",640435659,"L"
72718,"1555 5TH ST","KEY WEST","FL",33040,24.556355755,-81.775914437,218,"1555 5TH ST, KEY WEST, FL, 33040","Match","Exact","1555 5TH ST, KEY WEST, FL, 33040",116475439,"L"
72719,"1555 APPLEBY ROAD","INVERNESS","IL",60067,42.1060675520001,-88.080539126,219,"1555 APPLEBY ROAD, INVERNESS, IL, 60067","Match","Exact","1555 APPLEBY RD, INVERNESS, IL, 60067",653213332,"L"
72720,"1555 ARDMORE AVE","GLENDALE HEIGHTS","IL",60139,41.9178813620001,-88.067913103,220,"1555 ARDMORE AVE, GLENDALE HEIGHTS, IL, 60139","Match","Exact","1555 ARDMORE AVE, GLENDALE HEIGHTS, IL, 60139",112520712,"R"
72721,"1555 BENTLEY CIRCLE","FORT WALTON BEACH","FL",32547,30.429780807,-86.6690723849999,221,"1555 BENTLEY CIRCLE, FORT WALTON BEACH, FL, 32547","Match","Exact","1555 BENTLEY CIR, FORT WALTON BEACH, FL, 32547",640881824,"L"
72722,"1555 BONAVENTURE BLVD STE 1028","WESTON","FL",33326,26.1000058970001,-80.377511479,222,"1555 BONAVENTURE BLVD STE 1028, WESTON, FL, 33326","Match","Exact","1555 BONAVENTURE BLVD, WESTON, FL, 33326",114775723,"L"
72723,"1555 BRUTON COURT","MCLEAN","VA",22101,NA,NA,223,"1555 BRUTON COURT, MCLEAN, VA, 22101","No_Match",NA,NA,NA,NA
72724,"1555 CATALINA","LAGUNA BEACH","CA",92651,33.531580653,-117.771274539,224,"1555 CATALINA, LAGUNA BEACH, CA, 92651","Match","Exact","1555 CATALINA, LAGUNA BEACH, CA, 92651",144068871,"R"
72725,"1555 CROOKED PINE DR","MYRTLE BEACH","SC",29575,33.6282755010001,-78.974469213,225,"1555 CROOKED PINE DR, MYRTLE BEACH, SC, 29575","Match","Exact","1555 CROOKED PINE DR, MYRTLE BEACH, SC, 29575",29058308,"R"
72726,"1555 DELANEY DRIVE APT 404","TALLAHASSEE","FL",32309,30.50791185,-84.2437488639999,226,"1555 DELANEY DRIVE APT 404, TALLAHASSEE, FL, 32309","Match","Exact","1555 DELANEY DR, TALLAHASSEE, FL, 32309",618806657,"R"
72727,"1555 E GRAND CANYON DR","CHANDLER","AZ",85249,33.2456561820001,-111.813922656,227,"1555 E GRAND CANYON DR, CHANDLER, AZ, 85249","Match","Exact","1555 E GRAND CANYON DR, CHANDLER, AZ, 85249",128872763,"R"
72728,"1555 E HOLT BLVD 4957","ONTARIO","CA",91764,NA,NA,228,"1555 E HOLT BLVD 4957, ONTARIO, CA, 91764","No_Match",NA,NA,NA,NA
72729,"1555 E STRATFORD AVE STE 400","SALT LAKE CITY","UT",84106,40.715475015,-111.84612832,229,"1555 E STRATFORD AVE STE 400, SALT LAKE CITY, UT, 84106","Match","Non_Exact","1555 E STRATFORD AVE, SALT LAKE CITY, UT, 84106",176081989,"L"
72730,"1555 EAST NEW CIRCLE ROAD SUITE 186","LEXINGTON","KY",40509,38.0217775520001,-84.45493872,230,"1555 EAST NEW CIRCLE ROAD SUITE 186, LEXINGTON, KY, 40509","Match","Exact","1555 E NEW CIRCLE RD, LEXINGTON, KY, 40509",31942824,"L"
72731,"1555 EAST WOODWARD HEIGHTS BLVD","HAZEL PARK","MI",48030,42.4689585040001,-83.08982659,231,"1555 EAST WOODWARD HEIGHTS BLVD, HAZEL PARK, MI, 48030","Match","Exact","1555 E WOODWARD HEIGHTS BLVD, HAZEL PARK, MI, 48030",69748465,"L"
72732,"1555 FREEDOM BOULEVARD 200 W","PROVO","UT",84604,40.2554795710001,-111.661897334,232,"1555 FREEDOM BOULEVARD 200 W, PROVO, UT, 84604","Match","Exact","1555 FREEDOM BLVD, PROVO, UT, 84604",134222013,"L"
72733,"1555 GLEN ELLYN RD","GLENDALE HEIGHTS","IL",60139,41.916413586,-88.061842772,233,"1555 GLEN ELLYN RD, GLENDALE HEIGHTS, IL, 60139","Match","Exact","1555 GLEN ELLYN RD, GLENDALE HEIGHTS, IL, 60139",649652449,"R"
72734,"1555 GOOD INTENT ROAD","DEPTFORD","NJ",8096,39.8149698230001,-75.108088854,234,"1555 GOOD INTENT ROAD, DEPTFORD, NJ, 8096","Match","Exact","1555 GOOD INTENT RD, DEPTFORD, NJ, 08096",614018517,"R"
72735,"1555 GRAVE CREEK ROAD","EUREKA","MT",59917,48.8016435010001,-114.911760773,235,"1555 GRAVE CREEK ROAD, EUREKA, MT, 59917","Match","Exact","1555 GRAVE CREEK RD, EUREKA, MT, 59917",636699487,"L"
72736,"1555 HARVARD AVENUE UNIT 1","COLLEGE PARK","GA",30344,33.6533601880001,-84.439744531,236,"1555 HARVARD AVENUE UNIT 1, COLLEGE PARK, GA, 30344","Match","Non_Exact","1555 HARVARD AVE, COLLEGE PARK, GA, 30337",17348680,"R"
72737,"1555 HICKORY POINT RD","CLARKSVILLE","TN",37043,36.453626996,-87.251903575,237,"1555 HICKORY POINT RD, CLARKSVILLE, TN, 37043","Match","Exact","1555 HICKORY POINT RD, CLARKSVILLE, TN, 37043",31817527,"R"
72738,"1555 INDEPENDENCE BLVD","MISSOURI CITY","TX",77489,29.5960354210001,-95.525897874,238,"1555 INDEPENDENCE BLVD, MISSOURI CITY, TX, 77489","Match","Exact","1555 INDEPENDENCE BLVD, MISSOURI CITY, TX, 77489",78341651,"R"
72739,"1555 KENDALL AVENUE","CAMARILLO","CA",93010,34.233380622,-119.030280548,239,"1555 KENDALL AVENUE, CAMARILLO, CA, 93010","Match","Exact","1555 KENDALL AVE, CAMARILLO, CA, 93010",110012547,"L"
72740,"1555 LILAC AVE","MERCED","CA",95340,37.3045776540001,-120.453276134,240,"1555 LILAC AVE, MERCED, CA, 95340","Match","Exact","1555 LILAC AVE, MERCED, CA, 95340",125283668,"R"
72741,"1555 MAIN STREET UA6","WINDSOR","CO",80550,40.4794297400001,-104.928819898,241,"1555 MAIN STREET UA6, WINDSOR, CO, 80550","Match","Exact","1555 MAIN ST, WINDSOR, CO, 80550",188724165,"R"
72742,"1555 MASSACHUSETTS AVE","CAMBRIDGE","MA",2138,42.3782992930001,-71.120039101,242,"1555 MASSACHUSETTS AVE, CAMBRIDGE, MA, 2138","Match","Exact","1555 MASSACHUSETTS AVE, CAMBRIDGE, MA, 02138",636919550,"R"
72743,"1555 MESA VERDE DRIVE EAST APT 36B","COSTA MESA","CA",92626,33.670406455,-117.922038319,243,"1555 MESA VERDE DRIVE EAST APT 36B, COSTA MESA, CA, 92626","Match","Exact","1555 MESA VERDE DR E, COSTA MESA, CA, 92626",609063067,"L"
72744,"1555 MOUNTAIN TOP ROAD","BRIDGEWATER","NJ",8807,40.6063403480001,-74.603920579,244,"1555 MOUNTAIN TOP ROAD, BRIDGEWATER, NJ, 8807","Match","Exact","1555 MOUNTAIN TOP RD, BRIDGEWATER, NJ, 08807",59937596,"L"
72745,"1555 NEW GARDEN RD   3-D","GREENSBORO","NC",27410,36.111698459,-79.881495435,245,"1555 NEW GARDEN RD   3-D, GREENSBORO, NC, 27410","Match","Non_Exact","1555 NEW GARDEN RD, GREENSBORO, NC, 27410",131098537,"L"
72746,"1555 NEWARK ROAD","ZANESVILLE","OH",43701,39.9604490350001,-82.03390608,246,"1555 NEWARK ROAD, ZANESVILLE, OH, 43701","Match","Exact","1555 NEWARK RD, ZANESVILLE, OH, 43701",649358044,"R"
72747,"1555 NORTH 17TH AVENUE","GREELEY","CO",80631,40.451296573,-104.706163367,247,"1555 NORTH 17TH AVENUE, GREELEY, CO, 80631","Match","Exact","1555 N 17TH AVE, GREELEY, CO, 80631",647460259,"L"
72748,"1555 NORTH BOULEVARD","COCOA","FL",32922,NA,NA,248,"1555 NORTH BOULEVARD, COCOA, FL, 32922","No_Match",NA,NA,NA,NA
72749,"1555 NOSTRAND AVE APT 2B","BROOKLYN","NY",11226,40.6480050930001,-73.949261537,249,"1555 NOSTRAND AVE APT 2B, BROOKLYN, NY, 11226","Match","Exact","1555 NOSTRAND AVE, BROOKLYN, NY, 11226",59081492,"L"
72750,"1555 OLD PEACHTREE ROAD","SUWANEE","GA",30024,34.0112363970001,-84.090893708,250,"1555 OLD PEACHTREE ROAD, SUWANEE, GA, 30024","Match","Non_Exact","1555 OLD PEACHTREE RD NW, SUWANEE, GA, 30024",651216831,"R"
72751,"1555 PALM BEACH LAKES BLVD STE 1510","WEST PALM BEACH","FL",33401,26.7250522420001,-80.078833152,251,"1555 PALM BEACH LAKES BLVD STE 1510, WEST PALM BEACH, FL, 33401","Match","Exact","1555 PALM BEACH LAKES BLVD, WEST PALM BEACH, FL, 33401",115579872,"R"
72752,"1555 PALM BEACH LAKES BLVD STE 1555","WEST PALM BEACH","FL",33401,26.7250522420001,-80.078833152,252,"1555 PALM BEACH LAKES BLVD STE 1555, WEST PALM BEACH, FL, 33401","Match","Exact","1555 PALM BEACH LAKES BLVD, WEST PALM BEACH, FL, 33401",115579872,"R"
72753,"1555 REVERE AVE","SAN FRANCISCO","CA",94124,37.731176163,-122.389309671,253,"1555 REVERE AVE, SAN FRANCISCO, CA, 94124","Match","Exact","1555 REVERE AVE, SAN FRANCISCO, CA, 94124",192290985,"L"
72754,"1555 ROCHESTER RD","LEONARD","MI",48367,NA,NA,254,"1555 ROCHESTER RD, LEONARD, MI, 48367","No_Match",NA,NA,NA,NA
72755,"1555 ROSETTA CORNERS RD","IRVINGTON","KY",40146,37.789970628,-86.2816140739999,255,"1555 ROSETTA CORNERS RD, IRVINGTON, KY, 40146","Match","Exact","1555 ROSETTA CORNERS RD, IRVINGTON, KY, 40146",8017512,"L"
72756,"1555 S GILBERT RD SUITE 109","MESA","AZ",85204,33.3877868500001,-111.788302418,256,"1555 S GILBERT RD SUITE 109, MESA, AZ, 85204","Match","Non_Exact","1555 S GILBERT RD, MESA, AZ, 85204",128246983,"L"
72757,"1555 S GILBERT RD SUITE 111","MESA","AZ",85204,33.3877868500001,-111.788302418,257,"1555 S GILBERT RD SUITE 111, MESA, AZ, 85204","Match","Non_Exact","1555 S GILBERT RD, MESA, AZ, 85204",128246983,"L"
72758,"1555 S ODELL ST","BROWNSBURG","IN",46112,NA,NA,258,"1555 S ODELL ST, BROWNSBURG, IN, 46112","Tie",NA,NA,NA,NA
72759,"1555 SAN MARINO AVE","SAN MARINO","CA",91108,34.1210605050001,-118.106157867,259,"1555 SAN MARINO AVE, SAN MARINO, CA, 91108","Match","Exact","1555 SAN MARINO AVE, SAN MARINO, CA, 91108",141633753,"R"
72760,"1555 SHERMAN AVE STE 249","EVANSTON","IL",60201,42.0457109650001,-87.681874871,260,"1555 SHERMAN AVE STE 249, EVANSTON, IL, 60201","Match","Exact","1555 SHERMAN AVE, EVANSTON, IL, 60201",111743656,"R"
72761,"1555 SHERMAN AVE","EVANSTON","IL",60201,42.0457109650001,-87.681874871,261,"1555 SHERMAN AVE, EVANSTON, IL, 60201","Match","Exact","1555 SHERMAN AVE, EVANSTON, IL, 60201",111743656,"R"
72762,"1555 SUNRISE HIGHWAY SUITE 8","BAY SHORE","NY",11706,40.734107587,-73.256924791,262,"1555 SUNRISE HIGHWAY SUITE 8, BAY SHORE, NY, 11706","Match","Exact","1555 SUNRISE HWY, BAY SHORE, NY, 11706",113995796,"R"
72763,"1555 SW 109TH AVE 101","PEMBROKE PINES","FL",33025,25.9941060840001,-80.293560038,263,"1555 SW 109TH AVE 101, PEMBROKE PINES, FL, 33025","Match","Non_Exact","1555 SW 109TH AVE, PEMBROKE PINES, FL, 33025",114782949,"L"
72764,"1555 TANNAHILL LN","BLOOMFIELD HILLS","MI",48304,42.619317998,-83.2372419,264,"1555 TANNAHILL LN, BLOOMFIELD HILLS, MI, 48304","Match","Exact","1555 TANNAHILL LN, BLOOMFIELD HILLS, MI, 48304",69806372,"L"
72765,"1555 VALLE VISTA AVE","VALLEJO","CA",94589,38.1270898860001,-122.230742775,265,"1555 VALLE VISTA AVE, VALLEJO, CA, 94589","Match","Exact","1555 VALLE VISTA AVE, VALLEJO, CA, 94589",192570897,"R"
72766,"1555 VINE ST APT 568V","SHERMAN OAKS","CA",90028,34.0989707190001,-118.326666172,266,"1555 VINE ST APT 568V, SHERMAN OAKS, CA, 90028","Match","Non_Exact","1555 VINE ST, LOS ANGELES, CA, 90028",141594939,"L"
72767,"1555 W 108TH ST","LOS ANGELES","CA",90047,33.9382223150001,-118.303512028,267,"1555 W 108TH ST, LOS ANGELES, CA, 90047","Match","Exact","1555 W 108TH ST, LOS ANGELES, CA, 90047",141660844,"R"
72768,"1555 W 58TH PL","LOS ANGELES","CA",90047,33.988364591,-118.303583309,268,"1555 W 58TH PL, LOS ANGELES, CA, 90047","Match","Exact","1555 W 58TH PL, LOS ANGELES, CA, 90047",141658270,"R"
72769,"1555 WAVERLY RD","PORTER","IN",46304,41.637595511,-87.067342374,269,"1555 WAVERLY RD, PORTER, IN, 46304","Match","Exact","1555 WAVERLY RD, PORTER, IN, 46304",119909483,"L"
72770,"1555 XAVIER STREET 442","DENVER","CO",80204,39.741348508,-105.049814097,270,"1555 XAVIER STREET 442, DENVER, CO, 80204","Match","Exact","1555 XAVIER ST, DENVER, CO, 80204",177300368,"L"
72771,"1555","GRAND LAKE","CO",80447,NA,NA,271,"1555, GRAND LAKE, CO, 80447","No_Match",NA,NA,NA,NA
72772,"15550 ABIERTO ROAD","ATASCADERO","CA",93422,35.4258610540001,-120.614400748,272,"15550 ABIERTO ROAD, ATASCADERO, CA, 93422","Match","Exact","15550 ABIERTO RD, ATASCADERO, CA, 93422",109726628,"R"
72773,"15550 HIGHLAND ROAD","BATON ROUGE","LA",70810,30.351193799,-91.054814784,273,"15550 HIGHLAND ROAD, BATON ROUGE, LA, 70810","Match","Exact","15550 HIGHLAND RD, BATON ROUGE, LA, 70810",92193971,"R"
72774,"15550 NEW BARNS RD NO202","MIAMI LAKES","FL",33014,NA,NA,274,"15550 NEW BARNS RD NO202, MIAMI LAKES, FL, 33014","No_Match",NA,NA,NA,NA
72775,"15550 WAYZATA BLVD","WAYZATA","MN",55391,44.9714012220001,-93.475277824,275,"15550 WAYZATA BLVD, WAYZATA, MN, 55391","Match","Exact","15550 WAYZATA BLVD, WAYZATA, MN, 55391",643453742,"R"
72776,"15551 OTSEGO STREET","ENCINO","CA",91436,34.163225686,-118.473573215,276,"15551 OTSEGO STREET, ENCINO, CA, 91436","Match","Exact","15551 OTSEGO ST, ENCINO, CA, 91436",141560396,"R"
72777,"15551 SUMMIT AVE","FONTANA","CA",92336,34.150393444,-117.465269328,277,"15551 SUMMIT AVE, FONTANA, CA, 92336","Match","Exact","15551 SUMMIT AVE, FONTANA, CA, 92336",614817294,"L"
72778,"15554 BABBLINGBROOK DR","BATON ROUGE","LA",70816,30.4339154200001,-91.0135674799999,278,"15554 BABBLINGBROOK DR, BATON ROUGE, LA, 70816","Match","Exact","15554 BABBLINGBROOK DR, BATON ROUGE, LA, 70816",628493863,"R"
72779,"15554 OWENS GLEN TERRACE","NORTH POTOMAC","MD",20878,39.111881645,-77.243329004,279,"15554 OWENS GLEN TERRACE, NORTH POTOMAC, MD, 20878","Match","Exact","15554 OWENS GLEN TER, N POTOMAC, MD, 20878",62048704,"R"
72780,"15555 BRAYTON ST","PARAMOUNT","CA",90723,33.8921580950001,-118.175850218,280,"15555 BRAYTON ST, PARAMOUNT, CA, 90723","Match","Exact","15555 BRAYTON ST, PARAMOUNT, CA, 90723",141683868,"R"
72781,"15555 COUNTY ROAD 1227","FLINT","TX",75762,32.289122487,-95.4272478029999,281,"15555 COUNTY ROAD 1227, FLINT, TX, 75762","Match","Exact","15555 CO RD 1227, FLINT, TX, 75762",141268319,"R"
72782,"15555 CR 4343","LARUE","TX",75770,32.1017038190001,-95.602494297,282,"15555 CR 4343, LARUE, TX, 75770","Match","Exact","15555 CO RD 4343, LARUE, TX, 75770",636378070,"R"
72783,"15555 NW NORWICH STREET","BEAVERTON","OR",97006,45.537299708,-122.837816133,283,"15555 NW NORWICH STREET, BEAVERTON, OR, 97006","Match","Exact","15555 NW NORWICH ST, BEAVERTON, OR, 97006",605224033,"R"
72784,"15555 W AIRPORT BLVD","SUGAR LAND","TX",77498,29.6500609780001,-95.657626584,284,"15555 W AIRPORT BLVD, SUGAR LAND, TX, 77498","Match","Exact","15555 W AIRPORT BLVD, SUGAR LAND, TX, 77498",78347553,"R"
72785,"15555 W OAKRIDGE CT","SURPRISE","AZ",85374,33.642789829,-112.39505274,285,"15555 W OAKRIDGE CT, SURPRISE, AZ, 85374","Match","Exact","15555 W OAKRIDGE CT, SURPRISE, AZ, 85374",642858953,"L"
72786,"15556 ANEIETAM AVE","BATON ROUGE","LA",70817,NA,NA,286,"15556 ANEIETAM AVE, BATON ROUGE, LA, 70817","No_Match",NA,NA,NA,NA
72787,"15558 DUPAGE BLVD","TAYLOR","MI",48180,42.1922635540001,-83.2613335249999,287,"15558 DUPAGE BLVD, TAYLOR, MI, 48180","Match","Exact","15558 DUPAGE BLVD, TAYLOR, MI, 48180",625146931,"R"
72788,"15558 MARTINMEADOW DR","LITHIA","FL",33547,27.839930101,-82.2303011779999,288,"15558 MARTINMEADOW DR, LITHIA, FL, 33547","Match","Exact","15558 MARTINMEADOW DR, LITHIA, FL, 33547",104668762,"L"
72789,"15559 EMERALD DRIVE","LA PINE","OR",97739,43.711909372,-121.547238113,289,"15559 EMERALD DRIVE, LA PINE, OR, 97739","Match","Exact","15559 EMERALD DR, LA PINE, OR, 97739",152535437,"R"
72790,"15559 PECAN OVAL","MIDDLEBURG HEIGHTS","OH",44130,41.38180737,-81.80144845,290,"15559 PECAN OVAL, MIDDLEBURG HEIGHTS, OH, 44130","Match","Exact","15559 PECAN OVAL, MIDDLEBURG HEIGHTS, OH, 44130",61103994,"R"
72791,"15559 UNION AVE PB 190","LOS GATOS","CA",95032,37.2422216630001,-121.931188634,291,"15559 UNION AVE PB 190, LOS GATOS, CA, 95032","Match","Exact","15559 UNION AVE, LOS GATOS, CA, 95032",651423017,"R"
72792,"1556 58TH STREET","BROOKLYN","NY",11219,40.6265800630001,-73.9917281739999,292,"1556 58TH STREET, BROOKLYN, NY, 11219","Match","Exact","1556 58TH ST, BROOKLYN, NY, 11219",59080392,"R"
72793,"1556 ARRIGOTTI LN","TRACY","CA",95377,37.7457300020001,-121.459306979,293,"1556 ARRIGOTTI LN, TRACY, CA, 95377","Match","Exact","1556 ARRIGOTTI LN, TRACY, CA, 95377",133886213,"L"
72794,"1556 AVONDALE AVE","TOLEDO","OH",43607,41.6492643290001,-83.581993676,294,"1556 AVONDALE AVE, TOLEDO, OH, 43607","Match","Exact","1556 AVONDALE AVE, TOLEDO, OH, 43607",618107022,"R"
72795,"1556 CARL STREET","FORT WORTH","TX",76103,32.756008625,-97.25525196,295,"1556 CARL STREET, FORT WORTH, TX, 76103","Match","Exact","1556 CARL ST, FORT WORTH, TX, 76103",101896556,"R"
72796,"1556 COUNTY ROAD K","NEW RICHMOND","WI",54017,NA,NA,296,"1556 COUNTY ROAD K, NEW RICHMOND, WI, 54017","No_Match",NA,NA,NA,NA
72797,"1556 FOREST SPRINGS DR","BALLWIN","MO",63021,38.5556119510001,-90.523995251,297,"1556 FOREST SPRINGS DR, BALLWIN, MO, 63021","Match","Exact","1556 FOREST SPRINGS DR, BALLWIN, MO, 63021",100197879,"R"
72798,"1556 HANNA ROAD","VALLEY PARK","MO",63088,38.550505629,-90.513704105,298,"1556 HANNA ROAD, VALLEY PARK, MO, 63088","Match","Exact","1556 HANNA RD, VALLEY PARK, MO, 63088",100179783,"L"
72799,"1556 LAKESIDE DRIVE","BIRMINGHAM","MI",48009,42.5596309850001,-83.226111024,299,"1556 LAKESIDE DRIVE, BIRMINGHAM, MI, 48009","Match","Exact","1556 LAKESIDE DR, BIRMINGHAM, MI, 48009",69733353,"R"
72800,"1556 LELAND AVE APT 1","BRONX","NY",10460,40.839555117,-73.864838033,300,"1556 LELAND AVE APT 1, BRONX, NY, 10460","Match","Exact","1556 LELAND AVE, BRONX, NY, 10460",80304651,"R"
72801,"1556 NORTH ARIZOLA ROAD","CASA GRANDE","AZ",85122,32.8930563650001,-111.713993177,301,"1556 NORTH ARIZOLA ROAD, CASA GRANDE, AZ, 85122","Match","Exact","1556 N ARIZOLA RD, CASA GRANDE, AZ, 85122",129232009,"R"
72802,"1556 NW 9TH AVENUE","HOMESTEAD","FL",33030,25.4849699150001,-80.4892029969999,302,"1556 NW 9TH AVENUE, HOMESTEAD, FL, 33030","Match","Exact","1556 NW 9TH AVE, HOMESTEAD, FL, 33030",115961270,"L"
72803,"1556 ORCHARD LANE","LAKE GENEVA","WI",53147,42.5901357400001,-88.447670897,303,"1556 ORCHARD LANE, LAKE GENEVA, WI, 53147","Match","Exact","1556 ORCHARD LN, LAKE GENEVA, WI, 53147",53671913,"R"
72804,"1556 S LANSING ST","AURORA","CO",80012,39.6885407190001,-104.859021454,304,"1556 S LANSING ST, AURORA, CO, 80012","Match","Exact","1556 S LANSING ST, AURORA, CO, 80012",177528050,"L"
72805,"1556 S TRENTON COURT","DENVER","CO",80231,39.6881441790001,-104.896446463,305,"1556 S TRENTON COURT, DENVER, CO, 80231","Match","Exact","1556 S TRENTON CT, DENVER, CO, 80231",177396040,"R"
72806,"1556 ST DENIS STREET","NEW ORLEANS","LA",70122,29.9949783370001,-90.074462908,306,"1556 ST DENIS STREET, NEW ORLEANS, LA, 70122","Match","Exact","1556 SAINT DENIS ST, NEW ORLEANS, LA, 70122",191708775,"R"
72807,"1556 STOKES ROAD","FRIENDSHIP","TN",38034,35.959806798,-89.222593622,307,"1556 STOKES ROAD, FRIENDSHIP, TN, 38034","Match","Exact","1556 STOKES RD, FRIENDSHIP, TN, 38034",40656912,"L"
72808,"1556 TEXAS STREET","NATCHITOCHES","LA",71457,31.773222515,-93.101032458,308,"1556 TEXAS STREET, NATCHITOCHES, LA, 71457","Match","Exact","1556 TEXAS ST, NATCHITOCHES, LA, 71457",13349328,"R"
72809,"1556 UNION GROVE CHURCH RD SE","ADAIRSVILLE","GA",30103,34.42992701,-84.879867347,309,"1556 UNION GROVE CHURCH RD SE, ADAIRSVILLE, GA, 30103","Match","Exact","1556 UNION GROVE CHURCH RD SE, ADAIRSVILLE, GA, 30103",57331304,"R"
72810,"1556 VIOLET AVENUE","COLUMBUS","GA",31906,32.4780972080001,-84.934251574,310,"1556 VIOLET AVENUE, COLUMBUS, GA, 31906","Match","Non_Exact","1556 VIOLET AVE, COLUMBUS, GA, 31907",98940622,"R"
72811,"1556 WEMBLEY DRIVE","DOUGLASVILLE","GA",30134,33.7658966810001,-84.766843541,311,"1556 WEMBLEY DRIVE, DOUGLASVILLE, GA, 30134","Match","Exact","1556 WEMBLEY DR, DOUGLASVILLE, GA, 30134",618478218,"L"
72812,"1556 WHETSTONE ROAD","SWANSEA","SC",29160,33.684701096,-81.15623017,312,"1556 WHETSTONE ROAD, SWANSEA, SC, 29160","Match","Exact","1556 WHETSTONE RD, SWANSEA, SC, 29160",70044622,"L"
72813,"15560 BOULDER POINTE ROAD","EDEN PRAIRIE","MN",55347,44.842164837,-93.472834037,313,"15560 BOULDER POINTE ROAD, EDEN PRAIRIE, MN, 55347","Match","Exact","15560 BOULDER POINTE RD, EDEN PRAIRIE, MN, 55347",43853679,"R"
72814,"15560 N FRANK L WRIGHT BLVD B4-5304","SCOTTSDALE","AZ",85260,NA,NA,314,"15560 N FRANK L WRIGHT BLVD B4-5304, SCOTTSDALE, AZ, 85260","No_Match",NA,NA,NA,NA
72815,"15560 PARRET LANE","WILLIS","TX",77378,30.46424196,-95.4473930409999,315,"15560 PARRET LANE, WILLIS, TX, 77378","Match","Exact","15560 PARRET LN, WILLIS, TX, 77378",79273853,"R"
72816,"15560 SONOMA DRIVE 7-305","FORT MYERS","FM",33908,NA,NA,316,"15560 SONOMA DRIVE 7-305, FORT MYERS, FM, 33908","No_Match",NA,NA,NA,NA
72817,"15560 SW 104 AVE APT 6111","MIAMI","FL",33196,NA,NA,317,"15560 SW 104 AVE APT 6111, MIAMI, FL, 33196","No_Match",NA,NA,NA,NA
72818,"15560 SW 307TH STREET","HOMESTEAD","FL",33033,25.482624263,-80.442457878,318,"15560 SW 307TH STREET, HOMESTEAD, FL, 33033","Match","Exact","15560 SW 307TH ST, HOMESTEAD, FL, 33033",640557585,"L"
72819,"15560 VILLA SIERRA LANE","VALLEY CENTER","CA",92082,33.259886012,-116.993011395,319,"15560 VILLA SIERRA LANE, VALLEY CENTER, CA, 92082","Match","Exact","15560 VILLA SIERRA LN, VALLEY CENTER, CA, 92082",195309721,"R"
72820,"15562 HALE DR","NEW FREEDOM","PA",17349,39.746241603,-76.701245156,320,"15562 HALE DR, NEW FREEDOM, PA, 17349","Match","Exact","15562 HALE DR, NEW FREEDOM, PA, 17349",88754101,"L"
72821,"15562 HERITAGE CT","LAKE OSWEGO","OR",97035,45.4143508110001,-122.723035194,321,"15562 HERITAGE CT, LAKE OSWEGO, OR, 97035","Match","Exact","15562 HERITAGE CT, LAKE OSWEGO, OR, 97035",642613272,"L"
72822,"15562 MARBERRY DRIVE","CYPRESS","TX",77429,30.0345714470001,-95.653071649,322,"15562 MARBERRY DRIVE, CYPRESS, TX, 77429","Match","Exact","15562 MARBERRY DR, CYPRESS, TX, 77429",646687981,"L"
72823,"15562 ROCKMONT CT","PARKER","CO",80134,39.533437485,-104.809330876,323,"15562 ROCKMONT CT, PARKER, CO, 80134","Match","Exact","15562 ROCKMONT CT, PARKER, CO, 80134",130805145,"L"
72824,"15563 278TH RD","ATCHISON","KS",66002,39.5498549260001,-95.205558797,324,"15563 278TH RD, ATCHISON, KS, 66002","Match","Exact","15563 278 RD, ATCHISON, KS, 66002",10064212,"L"
72825,"15564 E WYOMING DR UNIT B","AURORA","CO",80017,39.691741753,-104.807095753,325,"15564 E WYOMING DR UNIT B, AURORA, CO, 80017","Match","Non_Exact","15564 E WYOMING DR, AURORA, CO, 80017",177404964,"L"
72826,"15565 SW 138TH TERRACE","MIAMI","FL",33196,25.637874497,-80.446018281,326,"15565 SW 138TH TERRACE, MIAMI, FL, 33196","Match","Exact","15565 SW 138TH TER, MIAMI, FL, 33196",116081330,"L"
72827,"15566 60TH AVE N","PLYMOUTH","MN",55446,45.062436022,-93.477348222,327,"15566 60TH AVE N, PLYMOUTH, MN, 55446","Match","Exact","15566 60TH AVE N, PLYMOUTH, MN, 55446",626304825,"R"
72828,"15566 ASHGROVE DR","LA MIRADA","CA",90638,33.8965914080001,-117.999771051,328,"15566 ASHGROVE DR, LA MIRADA, CA, 90638","Match","Exact","15566 ASHGROVE DR, LA MIRADA, CA, 90638",141752450,"R"
72829,"15567 FREMONT AVE NW","PRIOR LAKE","MN",55372,44.7231530940001,-93.4483289999999,329,"15567 FREMONT AVE NW, PRIOR LAKE, MN, 55372","Match","Exact","15567 FREMONT AVE NW, PRIOR LAKE, MN, 55372",606965945,"R"
72830,"15569 COUNTY ROAD 434","LINDALE","TX",75771,32.4923975890001,-95.480052605,330,"15569 COUNTY ROAD 434, LINDALE, TX, 75771","Match","Exact","15569 CO RD 434, LINDALE, TX, 75771",141281796,"L"
72831,"15569 SEVENTH ST","VICTORVILLE","CA",92395,34.5349825230001,-117.294364527,331,"15569 SEVENTH ST, VICTORVILLE, CA, 92395","Match","Exact","15569 7TH ST, VICTORVILLE, CA, 92395",144571290,"R"
72832,"1557 ABERDEEN AVE","COLUMBUS","OH",43211,40.020910556,-82.9693892779999,332,"1557 ABERDEEN AVE, COLUMBUS, OH, 43211","Match","Exact","1557 ABERDEEN AVE, COLUMBUS, OH, 43211",135577482,"R"
72833,"1557 BUFORD DR UNIT 492603","LAWRENCEVILLE","GA",30043,34.00859867,-83.988325419,333,"1557 BUFORD DR UNIT 492603, LAWRENCEVILLE, GA, 30043","Match","Exact","1557 BUFORD DR, LAWRENCEVILLE, GA, 30043",647918466,"R"
72834,"1557 COOMBS DR APT 2","TALLAHASSEE","FL",32308,30.465459622,-84.248837807,334,"1557 COOMBS DR APT 2, TALLAHASSEE, FL, 32308","Match","Exact","1557 COOMBS DR, TALLAHASSEE, FL, 32308",82889884,"R"
72835,"1557 E 21","BROOKLYN","NY",11210,40.6146608780001,-73.953237816,335,"1557 E 21, BROOKLYN, NY, 11210","Match","Non_Exact","1557 E 21ST ST, BROOKLYN, NY, 11210",59089990,"L"
72836,"1557 E AMAR ROAD SUITE I","WEST COVINA","CA",91792,34.03042387,-117.912568576,336,"1557 E AMAR ROAD SUITE I, WEST COVINA, CA, 91792","Match","Non_Exact","1557 E AMAR RD, WEST COVINA, CA, 91792",241155148,"L"
72837,"1557 ETON WAY","CROFTON","MD",21114,39.005799987,-76.6867652559999,337,"1557 ETON WAY, CROFTON, MD, 21114","Match","Exact","1557 ETON WAY, CROFTON, MD, 21114",68162339,"L"
72838,"1557 LEE HIGHWAY","BRISTOL","VA",24202,36.61650803,-82.1715080709999,338,"1557 LEE HIGHWAY, BRISTOL, VA, 24202","Match","Non_Exact","1557 LEE HWY, BRISTOL, VA, 24201",154346984,"R"
72839,"1557 LEE ROAD 425","PHENIX CITY","AL",36870,32.487979323,-85.159291464,339,"1557 LEE ROAD 425, PHENIX CITY, AL, 36870","Match","Exact","1557 LEE ROAD 425, PHENIX CITY, AL, 36870",1601308,"R"
72840,"1557 LINDEN CT","FLORENCE","KY",41042,39.0152914280001,-84.6815315919999,340,"1557 LINDEN CT, FLORENCE, KY, 41042","Match","Exact","1557 LINDEN CT, FLORENCE, KY, 41042",81955053,"L"
72841,"1557 MARY ELLEN COURT","MCLEAN","VA",22101,38.9274921780001,-77.192806316,341,"1557 MARY ELLEN COURT, MCLEAN, VA, 22101","Match","Exact","1557 MARY ELLEN CT, MCLEAN, VA, 22101",75962883,"L"
72842,"1557 PRUITT RD","WEST POINT","MS",39773,33.654292798,-88.7925973609999,342,"1557 PRUITT RD, WEST POINT, MS, 39773","Match","Exact","1557 PRUITT RD, WEST POINT, MS, 39773",607678895,"L"
72843,"1557 SHELBY DRIVE","MEMPHIS","TN",38116,35.0209114210001,-90.012089314,343,"1557 SHELBY DRIVE, MEMPHIS, TN, 38116","Match","Non_Exact","1557 E SHELBY DR, MEMPHIS, TN, 38116",72910581,"R"
72844,"1557 SHIRLEY DR","NEW ORLEANS","LA",70114,29.937319184,-90.031922454,344,"1557 SHIRLEY DR, NEW ORLEANS, LA, 70114","Match","Exact","1557 SHIRLEY DR, NEW ORLEANS, LA, 70114",191719541,"R"
72845,"1557 SMEDE ROAD","BROUSSARD","LA",70518,30.085978089,-91.909811079,345,"1557 SMEDE ROAD, BROUSSARD, LA, 70518","Match","Non_Exact","1557 SMEDE HWY, BROUSSARD, LA, 70518",85823977,"L"
72846,"1557 SMILEY DRIVE","TAYLORSVILLE","UT",84123,40.659971951,-111.935211632,346,"1557 SMILEY DRIVE, TAYLORSVILLE, UT, 84123","Match","Exact","1557 SMILEY DR, TAYLORSVILLE, UT, 84123",176129489,"L"
72847,"1557 SPRINGFIELD AVE","MAPLEWOOD","NJ",7040,40.7227545850001,-74.254901161,347,"1557 SPRINGFIELD AVE, MAPLEWOOD, NJ, 7040","Match","Exact","1557 SPRINGFIELD AVE, MAPLEWOOD, NJ, 07040",63463196,"L"
72848,"1557 W 2ND ST","MESA","AZ",85201,33.418880093,-111.864469008,348,"1557 W 2ND ST, MESA, AZ, 85201","Match","Exact","1557 W 2ND ST, MESA, AZ, 85201",128923225,"L"
72849,"1557 W LINCOLN ST","WOODBURN","OR",97071,45.1478896250001,-122.865942868,349,"1557 W LINCOLN ST, WOODBURN, OR, 97071","Match","Exact","1557 W LINCOLN ST, WOODBURN, OR, 97071",156280718,"R"
72850,"15570 HESBY ST","ENCINO","CA",91436,34.162123912,-118.474016785,350,"15570 HESBY ST, ENCINO, CA, 91436","Match","Exact","15570 HESBY ST, ENCINO, CA, 91436",141560459,"L"
72851,"15570 MILL CREEK ROAD","FRENCHTOWN","MT",59834,47.018747637,-114.206490103,351,"15570 MILL CREEK ROAD, FRENCHTOWN, MT, 59834","Match","Exact","15570 MILL CREEK RD, FRENCHTOWN, MT, 59834",627261882,"L"
72852,"15571 SE OATFIELD RD","PORTLAND","OR",97267,45.410739624,-122.6207297,352,"15571 SE OATFIELD RD, PORTLAND, OR, 97267","Match","Exact","15571 SE OATFIELD RD, PORTLAND, OR, 97267",157975961,"R"
72853,"155718 REGAL TRACE LANE","HOUSTON","TX",77073,NA,NA,353,"155718 REGAL TRACE LANE, HOUSTON, TX, 77073","No_Match",NA,NA,NA,NA
72854,"15575 N 83RD WAY SUITE 1","SCOTTSDALE","AZ",85260,33.6269473140001,-111.902878782,354,"15575 N 83RD WAY SUITE 1, SCOTTSDALE, AZ, 85260","Match","Non_Exact","15575 N 83RD WAY, SCOTTSDALE, AZ, 85260",128594639,"R"
72855,"15576 E 7TH AVENUE","AURORA","CO",80011,39.7269085240001,-104.807026783,355,"15576 E 7TH AVENUE, AURORA, CO, 80011","Match","Exact","15576 E 7TH AVE, AURORA, CO, 80011",177532116,"R"
72856,"15576-B BROOKHURST ST","WESTMINSTER","CA",92683,33.736411618,-117.954664709,356,"15576-B BROOKHURST ST, WESTMINSTER, CA, 92683","Match","Exact","15576 BROOKHURST ST, WESTMINSTER, CA, 92683",653859133,"L"
72857,"15579 JESUS MARIA RD","MOKELUMNE HILL","CA",94245,38.2904838910001,-120.600704836,357,"15579 JESUS MARIA RD, MOKELUMNE HILL, CA, 94245","Match","Non_Exact","15579 JESUS MARIA RD, MOKELUMNE HL, CA, 95245",639043139,"L"
72858,"1558 12TH STREET WEST","DICKINSON","ND",58601,46.8941558160001,-102.808114926,358,"1558 12TH STREET WEST, DICKINSON, ND, 58601","Match","Exact","1558 12TH ST W, DICKINSON, ND, 58601",636303589,"L"
72859,"1558 41ST STREET SE","WASHINGTON","DC",20020,38.8672191630001,-76.943754844,359,"1558 41ST STREET SE, WASHINGTON, DC, 20020","Match","Exact","1558 41ST ST SE, WASHINGTON, DC, 20020",76233775,"L"
72860,"1558 BOLLINGER ROAD","WESTMINSTER","MD",21157,39.530446211,-76.940280618,360,"1558 BOLLINGER ROAD, WESTMINSTER, MD, 21157","Match","Exact","1558 BOLLINGER RD, WESTMINSTER, MD, 21157",61777852,"L"
72861,"1558 BOULEVARD","WEST HARTFORD","CT",6107,41.7566642040001,-72.73811446,361,"1558 BOULEVARD, WEST HARTFORD, CT, 6107","Match","Exact","1558 BOULEVARD, WEST HARTFORD, CT, 06107",3493770,"R"
72862,"1558 BUTLER STREET SE NUMBER 201","WASHINGTON","DC",20020,38.8613428520001,-76.9842062659999,362,"1558 BUTLER STREET SE NUMBER 201, WASHINGTON, DC, 20020","Match","Exact","1558 BUTLER ST SE, WASHINGTON, DC, 20020",76236732,"L"
72863,"1558 D STREET","ANDREWS AFB","MD",20762,NA,NA,363,"1558 D STREET, ANDREWS AFB, MD, 20762","No_Match",NA,NA,NA,NA
72864,"1558 EAST 35TH STREET","BROOKLYN","NY",11234,40.6164870320001,-73.94013561,364,"1558 EAST 35TH STREET, BROOKLYN, NY, 11234","Match","Exact","1558 E 35TH ST, BROOKLYN, NY, 11234",59090316,"R"
72865,"1558 MARIETTA HWY SUITE 220","CANTON","GA",30114,34.2267089380001,-84.500178578,365,"1558 MARIETTA HWY SUITE 220, CANTON, GA, 30114","Match","Exact","1558 MARIETTA HWY, CANTON, GA, 30114",68865529,"R"
72866,"1558 MORROW STREET","GREEN BAY","WI",54302,44.508431091,-87.985477359,366,"1558 MORROW STREET, GREEN BAY, WI, 54302","Match","Exact","1558 MORROW ST, GREEN BAY, WI, 54302",148103109,"R"
72867,"1558 NE 110TH STREET","MIAMI","FL",33161,25.8768327500001,-80.166440847,367,"1558 NE 110TH STREET, MIAMI, FL, 33161","Match","Exact","1558 NE 110TH ST, MIAMI, FL, 33161",116037968,"R"
72868,"1558 OCONNOR DR","CONROE","TX",77304,30.318256725,-95.5091134,368,"1558 OCONNOR DR, CONROE, TX, 77304","Match","Non_Exact","1558 O'CONNOR DR, CONROE, TX, 77304",79274852,"R"
72869,"1558 ROCKY ROAD","MOAB","UT",84532,38.5492151330001,-109.517665304,369,"1558 ROCKY ROAD, MOAB, UT, 84532","Match","Exact","1558 ROCKY RD, MOAB, UT, 84532",640881467,"L"
72870,"1558 STATION RIDGE DR","LAWRENCEVILLE","GA",30045,33.933362458,-83.905958012,370,"1558 STATION RIDGE DR, LAWRENCEVILLE, GA, 30045","Match","Exact","1558 STATION RIDGE DR, LAWRENCEVILLE, GA, 30045",650128909,"L"
72871,"1558 TWP RD 204","BELLEFONTAINE","OH",43311,40.3431725030001,-83.7953432,371,"1558 TWP RD 204, BELLEFONTAINE, OH, 43311","Match","Exact","1558 TWP RD 204, BELLEFONTAINE, OH, 43311",52164998,"L"
72872,"1558 W 700 N SUITE 8","LAYTON","UT",84041,41.070069887,-111.992275039,372,"1558 W 700 N SUITE 8, LAYTON, UT, 84041","Match","Non_Exact","1558 W 700 N, LAYTON, UT, 84041",229362608,"L"
72873,"1558 WESTMORELAND AVE","SYRACUSE","NY",13210,43.023605828,-76.113251157,373,"1558 WESTMORELAND AVE, SYRACUSE, NY, 13210","Match","Exact","1558 WESTMORELAND AVE, SYRACUSE, NY, 13210",46573977,"R"
72874,"1558 WESTSIDE ROAD BOX 1245","BLOCK ISLAND","RI",2807,NA,NA,374,"1558 WESTSIDE ROAD BOX 1245, BLOCK ISLAND, RI, 2807","No_Match",NA,NA,NA,NA
72875,"15580 WEST 77TH STREET","LENEXA","KS",66217,38.9891437210001,-94.7676038659999,375,"15580 WEST 77TH STREET, LENEXA, KS, 66217","Match","Exact","15580 W 77TH ST, LENEXA, KS, 66217",91269611,"R"
72876,"155805 WEST BRYON ROAD","PROSSER","WA",99350,NA,NA,376,"155805 WEST BRYON ROAD, PROSSER, WA, 99350","No_Match",NA,NA,NA,NA
72877,"15581 SW 112TH AVENUE","MIAMI","FL",33196,NA,NA,377,"15581 SW 112TH AVENUE, MIAMI, FL, 33196","No_Match",NA,NA,NA,NA
72878,"15582 SHERRI LANE","APPLE VALLEY","CA",92307,NA,NA,378,"15582 SHERRI LANE, APPLE VALLEY, CA, 92307","No_Match",NA,NA,NA,NA
72879,"15584 7TH STREET","VICTORVILLE","CA",92395,34.535223016,-117.294118698,379,"15584 7TH STREET, VICTORVILLE, CA, 92395","Match","Exact","15584 7TH ST, VICTORVILLE, CA, 92395",144571290,"L"
72880,"15585 BEECH DALY","REDFORD","MI",48239,42.40286,-83.2960275299999,380,"15585 BEECH DALY, REDFORD, MI, 48239","Match","Non_Exact","15585 BEECH DALY RD, REDFORD, MI, 48239",95420014,"L"
72881,"15585 DOBBS PEAK LANE","FONTANA","CA",92336,34.144297307,-117.460113154,381,"15585 DOBBS PEAK LANE, FONTANA, CA, 92336","Match","Exact","15585 DOBBS PEAK LN, FONTANA, CA, 92336",614817773,"R"
72882,"15585 NORTH  91ST AVENUE","PEORIA","AZ",85382,33.627639156,-112.252183153,382,"15585 NORTH  91ST AVENUE, PEORIA, AZ, 85382","Match","Exact","15585 N 91ST AVE, PEORIA, AZ, 85382",128392321,"R"
72883,"15585 TRAVERSER CT","WOODBRIDGE","VA",22193,38.6134374740001,-77.316925031,383,"15585 TRAVERSER CT, WOODBRIDGE, VA, 22193","Match","Exact","15585 TRAVERSER CT, WOODBRIDGE, VA, 22193",207154771,"R"
72884,"15588 SHADY LANE","LOS GATOS","CA",95032,37.2316832880001,-121.940379147,384,"15588 SHADY LANE, LOS GATOS, CA, 95032","Match","Exact","15588 SHADY LN, LOS GATOS, CA, 95032",648527479,"R"
72885,"15589 ANGELIQUE AVE","ALLEN PARK","MI",48101,42.250761594,-83.212530095,385,"15589 ANGELIQUE AVE, ALLEN PARK, MI, 48101","Match","Exact","15589 ANGELIQUE AVE, ALLEN PARK, MI, 48101",95446988,"L"
72886,"15589 ANGELIQUE","ALLEN PARK","MI",48101,42.250761594,-83.212530095,386,"15589 ANGELIQUE, ALLEN PARK, MI, 48101","Match","Non_Exact","15589 ANGELIQUE AVE, ALLEN PARK, MI, 48101",95446988,"L"
72887,"1559 BRIARFIELD RD APT F","HAMPTON","VA",23666,37.0175372590001,-76.4109127579999,387,"1559 BRIARFIELD RD APT F, HAMPTON, VA, 23666","Match","Exact","1559 BRIARFIELD RD, HAMPTON, VA, 23666",103804661,"L"
72888,"1559 CARROLL STREET","BROOKLYN","NY",11213,40.6663419440001,-73.935221757,388,"1559 CARROLL STREET, BROOKLYN, NY, 11213","Match","Exact","1559 CARROLL ST, BROOKLYN, NY, 11213",59079769,"L"
72889,"1559 COMPTON ST","DALLAS","TX",75203,32.7440421330001,-96.800788352,389,"1559 COMPTON ST, DALLAS, TX, 75203","Match","Exact","1559 COMPTON ST, DALLAS, TX, 75203",102949195,"L"
72890,"1559 COUNTY ROAD 231","GREENWOOD","MS",38930,33.4223427540001,-90.065964235,390,"1559 COUNTY ROAD 231, GREENWOOD, MS, 38930","Match","Exact","1559 CO RD 231, GREENWOOD, MS, 38930",648180718,"R"
72891,"1559 COUNTY ROAD 3111","BUNA","TX",77612,30.4613487510001,-93.861828396,391,"1559 COUNTY ROAD 3111, BUNA, TX, 77612","Match","Exact","1559 CO RD 3111, BUNA, TX, 77612",631750851,"L"
72892,"1559 CREEKSTONE CIRCLE","BIRMINGHAM","AL",35243,33.4201682360001,-86.7738725729999,392,"1559 CREEKSTONE CIRCLE, BIRMINGHAM, AL, 35243","Match","Exact","1559 CREEKSTONE CIR, BIRMINGHAM, AL, 35243",625331003,"L"
72893,"1559 DELMAR AVE","KISSIMMEE","FL",34744,28.2623106820001,-81.335203841,393,"1559 DELMAR AVE, KISSIMMEE, FL, 34744","Match","Exact","1559 DELMAR AVE, KISSIMMEE, FL, 34744",176658402,"L"
72894,"1559 DIBRELL LUCKY RD","MCMINNVILLE","TN",37110,35.7980352270001,-85.81731755,394,"1559 DIBRELL LUCKY RD, MCMINNVILLE, TN, 37110","Match","Exact","1559 DIBRELL LUCKY RD, MCMINNVILLE, TN, 37110",81354820,"R"
72895,"1559 DIVISION STREET","AMSTERDAM","NY",12010,42.973040966,-73.998253811,395,"1559 DIVISION STREET, AMSTERDAM, NY, 12010","Match","Exact","1559 DIVISION ST, AMSTERDAM, NY, 12010",18816011,"R"
72896,"1559 E AMAR ROAD SUITE M","WEST COVINA","CA",91792,34.0304097580001,-117.912535173,396,"1559 E AMAR ROAD SUITE M, WEST COVINA, CA, 91792","Match","Non_Exact","1559 E AMAR RD, WEST COVINA, CA, 91792",241155148,"L"
72897,"1559 GOLDRIDGE DRIVE","FAIRBANKS","AK",99709,64.9282174530001,-147.938161773,397,"1559 GOLDRIDGE DRIVE, FAIRBANKS, AK, 99709","Match","Exact","1559 GOLDRIDGE DR, FAIRBANKS, AK, 99709",190910761,"L"
72898,"1559 LILAC ROAD","YORK","PA",17408,39.9852037960001,-76.7872488739999,398,"1559 LILAC ROAD, YORK, PA, 17408","Match","Exact","1559 LILAC RD, YORK, PA, 17408",88769048,"L"
72899,"1559 MAIN ST N","KIMBERLY","ID",83341,NA,NA,399,"1559 MAIN ST N, KIMBERLY, ID, 83341","No_Match",NA,NA,NA,NA
72900,"1559 NORTH PROSPECT AVE APT 308","MILWAUKEE","WI",53202,43.050381503,-87.893089738,400,"1559 NORTH PROSPECT AVE APT 308, MILWAUKEE, WI, 53202","Match","Exact","1559 N PROSPECT AVE, MILWAUKEE, WI, 53202",77744865,"L"
72901,"1559 SANTA BARBARA STREET","VENTURA","CA",93001,34.27844758,-119.276933001,401,"1559 SANTA BARBARA STREET, VENTURA, CA, 93001","Match","Exact","1559 SANTA BARBARA ST, VENTURA, CA, 93001",109951188,"L"
72902,"1559 SKYVIEW DRIVE","CHASKA","MN",55318,44.8046198150001,-93.596709617,402,"1559 SKYVIEW DRIVE, CHASKA, MN, 55318","Match","Exact","1559 SKYVIEW DR, CHASKA, MN, 55318",43493377,"L"
72903,"1559 WHEATCREST RD","WALLA WALLA","WA",99362,46.03664694,-118.301993487,403,"1559 WHEATCREST RD, WALLA WALLA, WA, 99362","Match","Exact","1559 WHEATCREST RD, WALLA WALLA, WA, 99362",174685124,"R"
72904,"15590 615TH AVENUE","MAPLETON","MN",56065,44.00526108,-93.827183551,404,"15590 615TH AVENUE, MAPLETON, MN, 56065","Match","Exact","15590 615TH AVE, MAPLETON, MN, 56065",28126744,"L"
72905,"15590 SW HOLLY HILL RD","HILLSBORO","OR",97123,45.4099429130001,-123.014333997,405,"15590 SW HOLLY HILL RD, HILLSBORO, OR, 97123","Match","Exact","15590 SW HOLLY HILL RD, HILLSBORO, OR, 97123",158229020,"L"
72906,"15592 IRON SPRING LN","FONTANA","CA",92336,34.1461265470001,-117.460121471,406,"15592 IRON SPRING LN, FONTANA, CA, 92336","Match","Exact","15592 IRON SPRING LN, FONTANA, CA, 92336",614817922,"L"
72907,"15595 LONGSPUR","TERRELL","TX",75160,32.7888547700001,-96.3112330979999,407,"15595 LONGSPUR, TERRELL, TX, 75160","Match","Non_Exact","15595 LONGSPUR LN, TERRELL, TX, 75160",624106349,"R"
72908,"15595 NORTH RIDGE DRIVE","NOVELTY","OH",44072,41.441270156,-81.31887577,408,"15595 NORTH RIDGE DRIVE, NOVELTY, OH, 44072","Match","Exact","15595 N RIDGE DR, NOVELTY, OH, 44072",648370272,"L"
72909,"15595 NORTHGATE DRIVE","DUMFRIES","VA",22025,38.614758662,-77.3268079599999,409,"15595 NORTHGATE DRIVE, DUMFRIES, VA, 22025","Match","Exact","15595 NORTHGATE DR, DUMFRIES, VA, 22025",652321703,"R"
72910,"15596 INTERSTATE 45 S APT 1107","CONROE","TX",77384,NA,NA,410,"15596 INTERSTATE 45 S APT 1107, CONROE, TX, 77384","No_Match",NA,NA,NA,NA
72911,"15596 S GALLERY STREET","OLATHE","KS",66062,38.8461696780001,-94.747675666,411,"15596 S GALLERY STREET, OLATHE, KS, 66062","Match","Exact","15596 S GALLERY ST, OLATHE, KS, 66062",629665723,"R"
72912,"15598 PINE POINT DR","HAYWARD","WI",54843,46.011499568,-91.4722719329999,412,"15598 PINE POINT DR, HAYWARD, WI, 54843","Match","Exact","15598 PINE POINT DR, HAYWARD, WI, 54843",194429970,"R"
72913,"1559B SLOAT BLVD UNIT 519","SAN FRANCISCO","CA",94132,37.733758042,-122.491975414,413,"1559B SLOAT BLVD UNIT 519, SAN FRANCISCO, CA, 94132","Match","Exact","1559 SLOAT BLVD, SAN FRANCISCO, CA, 94132",623991496,"L"
72914,"156 16TH AVE","PATERSON","NJ",7501,40.915908024,-74.160417393,414,"156 16TH AVE, PATERSON, NJ, 7501","Match","Exact","156 16TH AVE, PATERSON, NJ, 07501",65264293,"R"
72915,"156 206TH STREET","STAR PRAIRIE","WI",54026,45.2306463510001,-92.585709417,415,"156 206TH STREET, STAR PRAIRIE, WI, 54026","Match","Exact","156 206TH ST, STAR PRAIRIE, WI, 54026",110856887,"R"
72916,"156 40TH AVENUE","EAST MOLINE","IL",61244,41.4928408390001,-90.458959363,416,"156 40TH AVENUE, EAST MOLINE, IL, 61244","Match","Exact","156 40TH AVE, EAST MOLINE, IL, 61244",9224439,"R"
72917,"156 ALLEN DR","LINCOLN","ND",58504,46.7662648900001,-100.696839863,417,"156 ALLEN DR, LINCOLN, ND, 58504","Match","Exact","156 ALLEN DR, LINCOLN, ND, 58504",198865695,"L"
72918,"156 ALSPACH RAOD","ONALASKA","WA",98570,46.544995337,-122.667485175,418,"156 ALSPACH RAOD, ONALASKA, WA, 98570","Match","Non_Exact","156 ALSPACH RD, ONALASKA, WA, 98570",180716940,"L"
72919,"156 BEEKMAN ST 4C","NEW YORK","NY",10038,40.707072725,-74.0026165909999,419,"156 BEEKMAN ST 4C, NEW YORK, NY, 10038","Match","Exact","156 BEEKMAN ST, NEW YORK, NY, 10038",59660641,"L"
72920,"156 BETHESDA CHURCH RD APT 610","LAWRENCEVILLE","GA",30044,NA,NA,420,"156 BETHESDA CHURCH RD APT 610, LAWRENCEVILLE, GA, 30044","No_Match",NA,NA,NA,NA
72921,"156 BETHESDA CHURCH ROAD APT 111","LAWRENCEVILLE","GA",30044,NA,NA,421,"156 BETHESDA CHURCH ROAD APT 111, LAWRENCEVILLE, GA, 30044","No_Match",NA,NA,NA,NA
72922,"156 BETHESDA CHURCH ROAD APT 826","LAWERENCEVILLE","GA",30044,NA,NA,422,"156 BETHESDA CHURCH ROAD APT 826, LAWERENCEVILLE, GA, 30044","No_Match",NA,NA,NA,NA
72923,"156 BETHESDA CHURCH ROAD NO 413","LAWRENCEVILLE","GA",30044,NA,NA,423,"156 BETHESDA CHURCH ROAD NO 413, LAWRENCEVILLE, GA, 30044","No_Match",NA,NA,NA,NA
72924,"156 BILTMORE LANE","DALLAS","GA",30157,33.923852342,-84.771153146,424,"156 BILTMORE LANE, DALLAS, GA, 30157","Match","Exact","156 BILTMORE LN, DALLAS, GA, 30157",17750523,"R"
72925,"156 BLUEBIRD LN","GRIDLEY","CA",95948,39.3597287710001,-121.682090997,425,"156 BLUEBIRD LN, GRIDLEY, CA, 95948","Match","Exact","156 BLUEBIRD LN, GRIDLEY, CA, 95948",68451173,"L"
72926,"156 BROADWAY","ELIZABETH","NJ",7206,40.650039705,-74.187170449,426,"156 BROADWAY, ELIZABETH, NJ, 7206","Match","Exact","156 BROADWAY, ELIZABETH, NJ, 07206",60580483,"L"
72927,"156 CARLETON AVE","GLEN ELLYN","IL",60137,41.864967451,-88.054005939,427,"156 CARLETON AVE, GLEN ELLYN, IL, 60137","Match","Exact","156 CARLETON AVE, GLEN ELLYN, IL, 60137",112567389,"L"
72928,"156 CENTRE STREET","NUTLEY","NJ",7110,40.811598987,-74.1530649589999,428,"156 CENTRE STREET, NUTLEY, NJ, 7110","Match","Exact","156 CENTRE ST, NUTLEY, NJ, 07110",63453643,"R"
72929,"156 CLARKE AVE","PALM BEACH","FL",33480,26.70956711,-80.035955071,429,"156 CLARKE AVE, PALM BEACH, FL, 33480","Match","Exact","156 CLARKE AVE, PALM BEACH, FL, 33480",115563043,"L"
72930,"156 COBBLESTONE ROW","DENTON","TX",76207,33.248648179,-97.133259556,430,"156 COBBLESTONE ROW, DENTON, TX, 76207","Match","Exact","156 COBBLESTONE ROW, DENTON, TX, 76207",103362563,"L"
72931,"156 COLONIAL AVE","ALBANY","NY",12211,NA,NA,431,"156 COLONIAL AVE, ALBANY, NY, 12211","Tie",NA,NA,NA,NA
72932,"156 COUNTY ROAD 113","SANTA FE","NM",87506,35.9225625770001,-105.983759854,432,"156 COUNTY ROAD 113, SANTA FE, NM, 87506","Match","Exact","156 CO RD 113, SANTA FE, NM, 87506",169399544,"R"
72933,"156 DAVIS ST","AMHERST","VA",24521,37.5885540940001,-79.04477343,433,"156 DAVIS ST, AMHERST, VA, 24521","Match","Exact","156 DAVIS ST, AMHERST, VA, 24521",159109768,"L"
72934,"156 DEWEY AVE","ALBERTSON","NY",11507,40.7637293070001,-73.653250256,434,"156 DEWEY AVE, ALBERTSON, NY, 11507","Match","Exact","156 DEWEY AVE, ALBERTSON, NY, 11507",147663386,"R"
72935,"156 E 59TH STREET","LONG BEACH","CA",90805,33.8623387230001,-118.192749867,435,"156 E 59TH STREET, LONG BEACH, CA, 90805","Match","Exact","156 E 59TH ST, LONG BEACH, CA, 90805",141684093,"R"
72936,"156 E FRUITDALE RD","MORGANTOWN","IN",46160,39.3228947690001,-86.255339604,436,"156 E FRUITDALE RD, MORGANTOWN, IN, 46160","Match","Exact","156 E FRUITDALE RD, MORGANTOWN, IN, 46160",43523023,"L"
72937,"156 E MAIN ST   STE 7","ROCK HILL","SC",29730,NA,NA,437,"156 E MAIN ST   STE 7, ROCK HILL, SC, 29730","Tie",NA,NA,NA,NA
72938,"156 EAST 79TH ST APT 7C","NEW YORK","NY",10075,40.7748334010001,-73.958598567,438,"156 EAST 79TH ST APT 7C, NEW YORK, NY, 10075","Match","Exact","156 E 79TH ST, NEW YORK, NY, 10075",59657360,"R"
72939,"156 EAST IDO AVE","AKRON","OH",44301,41.044885284,-81.5214956419999,439,"156 EAST IDO AVE, AKRON, OH, 44301","Match","Exact","156 E IDO AVE, AKRON, OH, 44301",61345141,"R"
72940,"156 EDEN CROSSING","ADKINS","TX",78101,29.2837478820001,-98.224359277,440,"156 EDEN CROSSING, ADKINS, TX, 78101","Match","Exact","156 EDEN CROSSING, ADKINS, TX, 78101",650166524,"R"
72941,"156 EVERGREEN TRAIL SUITE 700","ATLANTA","GA",30349,33.658431943,-84.633638944,441,"156 EVERGREEN TRAIL SUITE 700, ATLANTA, GA, 30349","Match","Exact","156 EVERGREEN TRL, ATLANTA, GA, 30349",628068037,"L"
72942,"156 FIFTH AVENUE SUITE 1208","NEW YORK","NY",10010,40.7398644730001,-73.990814814,442,"156 FIFTH AVENUE SUITE 1208, NEW YORK, NY, 10010","Match","Exact","156 5TH AVE, NEW YORK, NY, 10010",634256891,"L"
72943,"156 FINSBURY ROAD","COLUMBIA","SC",29212,34.0806276220001,-81.1837138989999,443,"156 FINSBURY ROAD, COLUMBIA, SC, 29212","Match","Exact","156 FINSBURY RD, COLUMBIA, SC, 29212",624967676,"L"
72944,"156 FOX MEADOW LANE","WINSTON-SALEM","NC",27107,36.0236127150001,-80.188967643,444,"156 FOX MEADOW LANE, WINSTON-SALEM, NC, 27107","Match","Exact","156 FOX MEADOW LN, WINSTON SALEM, NC, 27107",642604992,"R"
72945,"156 FROW AVENUE","CORAL GABLES","FL",33133,25.728761551,-80.2565911619999,445,"156 FROW AVENUE, CORAL GABLES, FL, 33133","Match","Exact","156 FROW AVE, CORAL GABLES, FL, 33133",116264056,"L"
72946,"156 GIGI LANE","LOUDON","TN",37774,35.7040743320001,-84.268408107,446,"156 GIGI LANE, LOUDON, TN, 37774","Match","Exact","156 GIGI LN, LOUDON, TN, 37774",99975652,"L"
72947,"156 GLENWOOD DRIVE","CHATTANOOGA","TN",37404,35.033165152,-85.263089752,447,"156 GLENWOOD DRIVE, CHATTANOOGA, TN, 37404","Match","Exact","156 GLENWOOD DR, CHATTANOOGA, TN, 37404",59309523,"R"
72948,"156 GRANT AVENUE","MEDFORD","MA",2155,42.4228205790001,-71.092794813,448,"156 GRANT AVENUE, MEDFORD, MA, 2155","Match","Exact","156 GRANT AVE, MEDFORD, MA, 02155",86858541,"L"
72949,"156 GREENWOOD AVE","EAST ORANGE","NJ",7017,40.7624484200001,-74.199548826,449,"156 GREENWOOD AVE, EAST ORANGE, NJ, 7017","Match","Exact","156 GREENWOOD AVE, EAST ORANGE, NJ, 07017",63452010,"R"
72950,"156 HAGOOD MILL RD","PICKENS","SC",29671,34.9255397970001,-82.723783633,450,"156 HAGOOD MILL RD, PICKENS, SC, 29671","Match","Exact","156 HAGOOD MILL RD, PICKENS, SC, 29671",26211918,"R"
72951,"156 HARPER AVE","IRVINGTON","NJ",7111,40.7154031330001,-74.247483244,451,"156 HARPER AVE, IRVINGTON, NJ, 7111","Match","Exact","156 HARPER AVE, IRVINGTON, NJ, 07111",63484943,"R"
72952,"156 HARPER AVENUE","IRVINGTON","NJ",7111,40.7154031330001,-74.247483244,452,"156 HARPER AVENUE, IRVINGTON, NJ, 7111","Match","Exact","156 HARPER AVE, IRVINGTON, NJ, 07111",63484943,"R"
72953,"156 HEATON PARK DRIVE","ATLANTA","GA",30307,33.7787019850001,-84.3171467879999,453,"156 HEATON PARK DRIVE, ATLANTA, GA, 30307","Match","Non_Exact","156 HEATON PARK DR NE, ATLANTA, GA, 30307",652436197,"L"
72954,"156 HIDDEN ACRES DRIVE","CROSSETT","AR",71635,33.1575513280001,-91.9707547419999,454,"156 HIDDEN ACRES DRIVE, CROSSETT, AR, 71635","Match","Exact","156 HIDDEN ACRES DR, CROSSETT, AR, 71635",31446399,"R"
72955,"156 HIGH COLONY LANE","THOMASVILLE","GA",31792,30.860247261,-83.972081557,455,"156 HIGH COLONY LANE, THOMASVILLE, GA, 31792","Match","Exact","156 HIGH COLONY LN, THOMASVILLE, GA, 31792",648894407,"R"
72956,"156 HONEYSUCKLE LANE","HARPERS FERRY","WV",25425,39.2048878730001,-77.8071970999999,456,"156 HONEYSUCKLE LANE, HARPERS FERRY, WV, 25425","Match","Exact","156 HONEYSUCKLE LN, HARPERS FERRY, WV, 25425",123425645,"R"
72957,"156 IRONWOOD LANE","CLAYTON","NC",27520,35.5430973640001,-78.505673862,457,"156 IRONWOOD LANE, CLAYTON, NC, 27520","Match","Exact","156 IRONWOOD LN, CLAYTON, NC, 27520",26546175,"R"
72958,"156 ISLAND CREEK ROAD","PIKEVILLE","KY",41501,37.462242937,-82.526400764,458,"156 ISLAND CREEK ROAD, PIKEVILLE, KY, 41501","Match","Exact","156 ISLAND CREEK RD, PIKEVILLE, KY, 41501",40395527,"L"
72959,"156 JOE BLACK ROAD","SAUTEE NACOOCHEE","GA",30571,34.648974708,-83.757191722,459,"156 JOE BLACK ROAD, SAUTEE NACOOCHEE, GA, 30571","Match","Exact","156 JOE BLACK RD, SAUTEE NACOOCHEE, GA, 30571",651796342,"R"
72960,"156 KEMPER STREET","VALLEJO","CA",94589,38.144156185,-122.232236572,460,"156 KEMPER STREET, VALLEJO, CA, 94589","Match","Exact","156 KEMPER ST, VALLEJO, CA, 94589",192532266,"R"
72961,"156 KINSMAN DRIVE","STEVENSVILLE","MT",59870,46.5245325910001,-114.116836342,461,"156 KINSMAN DRIVE, STEVENSVILLE, MT, 59870","Match","Exact","156 KINSMAN DR, STEVENSVILLE, MT, 59870",634762755,"L"
72962,"156 LICK RUN ROAD","CHILLICOTHE","OH",45601,NA,NA,462,"156 LICK RUN ROAD, CHILLICOTHE, OH, 45601","No_Match",NA,NA,NA,NA
72963,"156 LINESQUARE RD","MONCKS CORNER","SC",29461,33.165458325,-80.012687832,463,"156 LINESQUARE RD, MONCKS CORNER, SC, 29461","Match","Exact","156 LINESQUARE RD, MONCKS CORNER, SC, 29461",643290808,"L"
72964,"156 LOCUST AVE","CORTLANDT MANOR","NY",10567,41.3034145030001,-73.887122032,464,"156 LOCUST AVE, CORTLANDT MANOR, NY, 10567","Match","Exact","156 LOCUST AVE, CORTLANDT MANOR, NY, 10567",648984699,"L"
72965,"156 LOVEJOY ROAD","LEMPSTER","NH",3605,43.208388686,-72.204458846,465,"156 LOVEJOY ROAD, LEMPSTER, NH, 3605","Match","Exact","156 LOVEJOY RD, LEMPSTER, NH, 03605",647603564,"R"
72966,"156 MARY STREET","SULLIVAN","MO",63080,38.2189194050001,-91.152617875,466,"156 MARY STREET, SULLIVAN, MO, 63080","Match","Exact","156 MARY ST, SULLIVAN, MO, 63080",99714419,"R"
72967,"156 MOROSS","MOUNT CLEMEN","MI",48043,42.59152376,-82.8890059239999,467,"156 MOROSS, MOUNT CLEMEN, MI, 48043","Match","Non_Exact","156 MOROSS ST, MOUNT CLEMENS, MI, 48043",110682542,"R"
72968,"156 MOROSS","MOUNT CLEMENS","MI",48043,42.59152376,-82.8890059239999,468,"156 MOROSS, MOUNT CLEMENS, MI, 48043","Match","Non_Exact","156 MOROSS ST, MOUNT CLEMENS, MI, 48043",110682542,"R"
72969,"156 MOUNTAIN AVENUE","BIRMINGHAM","AL",35213,33.506495048,-86.757579466,469,"156 MOUNTAIN AVENUE, BIRMINGHAM, AL, 35213","Match","Exact","156 MOUNTAIN AVE, BIRMINGHAM, AL, 35213",647630844,"L"
72970,"156 MYRTLE STREET","NEW BEDFORD","MA",2746,41.654264819,-70.93542711,470,"156 MYRTLE STREET, NEW BEDFORD, MA, 2746","Match","Exact","156 MYRTLE ST, NEW BEDFORD, MA, 02746",46752485,"R"
72971,"156 NEW BRITAIN AVE","ORMOND BEACH","FL",32174,29.284471212,-81.061143408,471,"156 NEW BRITAIN AVE, ORMOND BEACH, FL, 32174","Match","Non_Exact","156 NEW BRITIAN AVE, ORMOND BEACH, FL, 32174",94521555,"L"
72972,"156 NEWTOWN ROAD STE A1","VIRGINIA BEACH","VA",23462,36.8427063890001,-76.1860827039999,472,"156 NEWTOWN ROAD STE A1, VIRGINIA BEACH, VA, 23462","Match","Exact","156 NEWTOWN RD, VA BCH, VA, 23462",638940544,"R"
72973,"156 NICHOLAS ROAD","RAYNHAM","MA",2767,41.927344584,-71.0324591739999,473,"156 NICHOLAS ROAD, RAYNHAM, MA, 2767","Match","Exact","156 NICHOLAS RD, RAYNHAM, MA, 02767",46760219,"R"
72974,"156 NORRIS RD","CHOUDRANT","LA",71227,32.5703839500001,-92.4669319,474,"156 NORRIS RD, CHOUDRANT, LA, 71227","Match","Exact","156 NORRIS RD, CHOUDRANT, LA, 71227",635300460,"L"
72975,"156 NORTH CLEVELAND AVENUE","WICHITA","KS",67214,37.687163329,-97.321875383,475,"156 NORTH CLEVELAND AVENUE, WICHITA, KS, 67214","Match","Exact","156 N CLEVELAND AVE, WICHITA, KS, 67214",115636781,"R"
72976,"156 OAK STREET","WEST HEMPSTEAD","NY",11552,40.7036349970001,-73.6447978469999,476,"156 OAK STREET, WEST HEMPSTEAD, NY, 11552","Match","Exact","156 OAK ST, W HEMPSTEAD, NY, 11552",147675805,"R"
72977,"156 OLD MAIN STREET","SOUTH YARMOUTH","MA",2664,41.6614003970001,-70.194844728,477,"156 OLD MAIN STREET, SOUTH YARMOUTH, MA, 2664","Match","Exact","156 OLD MAIN ST, SOUTH YARMOUTH, MA, 02664",121609202,"L"
72978,"156 PARKWAY DRIVE","FAIRBURN","GA",30213,33.5873750700001,-84.6011472279999,478,"156 PARKWAY DRIVE, FAIRBURN, GA, 30213","Match","Exact","156 PARKWAY DR, FAIRBURN, GA, 30213",627548726,"L"
72979,"156 PERRYTOWN ROAD","NEW BERN","NC",28562,35.064348324,-77.0702329169999,479,"156 PERRYTOWN ROAD, NEW BERN, NC, 28562","Match","Exact","156 PERRYTOWN RD, NEW BERN, NC, 28562",34113698,"L"
72980,"156 PINE CREEK TRAIL","MOUNT AIRY","NC",27030,36.5344226220001,-80.6244698899999,480,"156 PINE CREEK TRAIL, MOUNT AIRY, NC, 27030","Match","Exact","156 PINE CREEK TRL, MOUNT AIRY, NC, 27030",154198608,"L"
72981,"156 PORTER ST APT 221","BOSTON","MA",2128,42.3714167970001,-71.0331289929999,481,"156 PORTER ST APT 221, BOSTON, MA, 2128","Match","Exact","156 PORTER ST, BOSTON, MA, 02128",85711538,"L"
72982,"156 PRESTON LANE","CLAYTON","DE",19938,39.2836298670001,-75.6337403049999,482,"156 PRESTON LANE, CLAYTON, DE, 19938","Match","Exact","156 PRESTON LN, CLAYTON, DE, 19938",68108453,"R"
72983,"156 PRIMROSE LANE","BARTLETT","IL",60103,41.9968282990001,-88.252001756,483,"156 PRIMROSE LANE, BARTLETT, IL, 60103","Match","Exact","156 PRIMROSE LN, BARTLETT, IL, 60103",112390559,"L"
72984,"156 RADCLIFFE DRIVE","LAFAYETTE","LA",70501,30.228119781,-91.992713565,484,"156 RADCLIFFE DRIVE, LAFAYETTE, LA, 70501","Match","Exact","156 RADCLIFFE DR, LAFAYETTE, LA, 70501",653310816,"R"
72985,"156 RED OAK TRAIL","MARION","TX",78124,29.5449304590001,-98.155646855,485,"156 RED OAK TRAIL, MARION, TX, 78124","Match","Exact","156 RED OAK TRL, MARION, TX, 78124",54836256,"L"
72986,"156 RIDGEMONT DR","LEHIGH ACRES","FL",33972,26.679034324,-81.6060877789999,486,"156 RIDGEMONT DR, LEHIGH ACRES, FL, 33972","Match","Exact","156 RIDGEMONT DR, LEHIGH ACRES, FL, 33972",118126212,"L"
72987,"156 RIVER ROAD","WILLINGTON","CT",6279,41.8572339520001,-72.299522264,487,"156 RIVER ROAD, WILLINGTON, CT, 6279","Match","Exact","156 RIVER RD, WILLINGTON, CT, 06279",57011061,"R"
72988,"156 ROBINSON STREET","TEANECK","NJ",7666,40.8903510120001,-73.997622963,488,"156 ROBINSON STREET, TEANECK, NJ, 7666","Match","Exact","156 ROBINSON ST, TEANECK, NJ, 07666",64372672,"R"
72989,"156 ROYAL BRIAR CT","RAEFORD","NC",28376,34.9927103790001,-79.162440455,489,"156 ROYAL BRIAR CT, RAEFORD, NC, 28376","Match","Exact","156 ROYAL BRIAR CT, RAEFORD, NC, 28376",623828410,"L"
72990,"156 S JOLIET STREET","JOLIET","IL",60436,41.5206373250001,-88.0842066499999,490,"156 S JOLIET STREET, JOLIET, IL, 60436","Match","Exact","156 S JOLIET ST, JOLIET, IL, 60436",111542614,"L"
72991,"156 S MAIN ST","STAR","NC",27356,NA,NA,491,"156 S MAIN ST, STAR, NC, 27356","Tie",NA,NA,NA,NA
72992,"156 SALKUM RD BLDG 1","SALKUM","WA",98582,46.532175523,-122.626825207,492,"156 SALKUM RD BLDG 1, SALKUM, WA, 98582","Match","Exact","156 SALKUM RD, SALKUM, WA, 98582",640617459,"L"
72993,"156 SCHOOL RD","MILL SPRING","NC",28756,NA,NA,493,"156 SCHOOL RD, MILL SPRING, NC, 28756","No_Match",NA,NA,NA,NA
72994,"156 SEATON RIDGE DRIVE","BLYTHEWOOD","SC",29016,34.1973085110001,-80.9207556489999,494,"156 SEATON RIDGE DRIVE, BLYTHEWOOD, SC, 29016","Match","Exact","156 SEATON RIDGE DR, BLYTHEWOOD, SC, 29016",632156674,"R"
72995,"156 SLEEPY HOLLOW LANE","CONGERS","NY",10920,41.160364003,-73.948211854,495,"156 SLEEPY HOLLOW LANE, CONGERS, NY, 10920","Match","Exact","156 SLEEPY HOLLOW LN, CONGERS, NY, 10920",124597695,"R"
72996,"156 SOCO DRIVE","FULLERTON","CA",92832,33.8676168260001,-117.921819383,496,"156 SOCO DRIVE, FULLERTON, CA, 92832","Match","Exact","156 SOCO DR, FULLERTON, CA, 92832",625092532,"R"
72997,"156 SOMERSET PLACE","RUSTBURG","VA",24588,37.292575952,-79.06029079,497,"156 SOMERSET PLACE, RUSTBURG, VA, 24588","Match","Exact","156 SOMERSET PL, RUSTBURG, VA, 24588",647667080,"L"
72998,"156 SOUTH FOURTH AVENUE","MOUNT VERNON","NY",10550,40.9078260680001,-73.8356578519999,498,"156 SOUTH FOURTH AVENUE, MOUNT VERNON, NY, 10550","Match","Exact","156 S 4TH AVE, MOUNT VERNON, NY, 10550",139747175,"R"
72999,"156 SPRING ROAD","SCOTIA","NY",12302,42.8694857190001,-73.962542659,499,"156 SPRING ROAD, SCOTIA, NY, 12302","Match","Exact","156 SPRING RD, SCOTIA, NY, 12302",18034071,"R"
73000,"156 SPRUCE STREET","NEWARK","NJ",7103,40.728268815,-74.1873576949999,500,"156 SPRUCE STREET, NEWARK, NJ, 7103","Match","Exact","156 SPRUCE ST, NEWARK, NJ, 07103",618467475,"R"
