"ID","Address","City","State","Zip","lat","long","id","input_address","match_indicator","match_type","matched_address","tiger_line_id","tiger_side"
205501,"415 N LEA AVENUE","ROSWELL","NM",88201,33.396687215,-104.528927422,1,"415 N LEA AVENUE, ROSWELL, NM, 88201","Match","Exact","415 N LEA AVE, ROSWELL, NM, 88201",131767067,"R"
205502,"415 N MAGNOLIA","OCALA","FL",34475,NA,NA,2,"415 N MAGNOLIA, OCALA, FL, 34475","No_Match",NA,NA,NA,NA
205503,"415 N MAIN ST","MONROE CITY","MO",63456,39.655509013,-91.7346365559999,3,"415 N MAIN ST, MONROE CITY, MO, 63456","Match","Exact","415 N MAIN ST, MONROE CITY, MO, 63456",31750628,"L"
205504,"415 N MARKET ST","MARYVILLE","MO",64468,40.348976871,-94.871712579,4,"415 N MARKET ST, MARYVILLE, MO, 64468","Match","Exact","415 N MARKET ST, MARYVILLE, MO, 64468",38560782,"R"
205505,"415 N MARKET ST","MOUNT CARMEL","IL",62863,38.409914606,-87.761105624,5,"415 N MARKET ST, MOUNT CARMEL, IL, 62863","Match","Exact","415 N MARKET ST, MOUNT CARMEL, IL, 62863",637895274,"R"
205506,"415 N MCKINLEY STREET SUITE 1040","LITTLE ROCK","AR",72205,NA,NA,6,"415 N MCKINLEY STREET SUITE 1040, LITTLE ROCK, AR, 72205","Tie",NA,NA,NA,NA
205507,"415 N MCKINLEY SUITE 444","LITTLE ROCK","AR",72205,NA,NA,7,"415 N MCKINLEY SUITE 444, LITTLE ROCK, AR, 72205","No_Match",NA,NA,NA,NA
205508,"415 N SCHOOL LN","SMYRNA","DE",19977,39.302488635,-75.617647669,8,"415 N SCHOOL LN, SMYRNA, DE, 19977","Match","Exact","415 SCHOOL LN, SMYRNA, DE, 19977",68085173,"L"
205509,"415 N TEJON ST","COLORADO SPRINGS","CO",80903,NA,NA,9,"415 N TEJON ST, COLORADO SPRINGS, CO, 80903","Tie",NA,NA,NA,NA
205510,"415 N WEST STREET SUITE 6","ALEXANDRIA","VA",22314,NA,NA,10,"415 N WEST STREET SUITE 6, ALEXANDRIA, VA, 22314","Tie",NA,NA,NA,NA
205511,"415 NORTH LAKE STREET APT 204","GARY","IN",46403,41.6125589500001,-87.268477428,11,"415 NORTH LAKE STREET APT 204, GARY, IN, 46403","Match","Exact","415 N LAKE ST, GARY, IN, 46403",98427862,"R"
205512,"415 NORTH MAPLE STREET","MURFREESBORO","TN",37130,35.849441584,-86.3921544359999,12,"415 NORTH MAPLE STREET, MURFREESBORO, TN, 37130","Match","Exact","415 N MAPLE ST, MURFREESBORO, TN, 37130",59013895,"L"
205513,"415 NORTH WESTWOOD","MESA","AZ",85201,33.4291931130001,-111.852231071,13,"415 NORTH WESTWOOD, MESA, AZ, 85201","Match","Exact","415 N WESTWOOD, MESA, AZ, 85201",128296367,"R"
205514,"415 NORTH ZARFOSS DRIVE","YORK","PA",17404,NA,NA,14,"415 NORTH ZARFOSS DRIVE, YORK, PA, 17404","No_Match",NA,NA,NA,NA
205515,"415 NORTHVIEW DR","VERONA","PA",15147,40.49163435,-79.819890255,15,"415 NORTHVIEW DR, VERONA, PA, 15147","Match","Exact","415 NORTHVIEW DR, VERONA, PA, 15147",51668206,"L"
205516,"415 NORWOOD COURT","OVIEDO","FL",32765,28.678965695,-81.215263454,16,"415 NORWOOD COURT, OVIEDO, FL, 32765","Match","Exact","415 NORWOOD CT, OVIEDO, FL, 32765",93740651,"R"
205517,"415 OLD COUNTY HOME RD","ASHEVILLE","NC",28806,35.609434391,-82.6266888769999,17,"415 OLD COUNTY HOME RD, ASHEVILLE, NC, 28806","Match","Exact","415 OLD COUNTY HOME RD, ASHEVILLE, NC, 28806",36900496,"L"
205518,"415 OLD TOWN RD","PT JEFFERSON STATION","NY",11776,40.9142771160001,-73.070254147,18,"415 OLD TOWN RD, PT JEFFERSON STATION, NY, 11776","Match","Non_Exact","415 OLD TOWN RD, PORT JEFFERSON STATION, NY, 11776",114041566,"L"
205519,"415 PARKDALE DRIVE APT 18A","CHARLESTON","SC",29414,32.785412163,-80.043214999,19,"415 PARKDALE DRIVE APT 18A, CHARLESTON, SC, 29414","Match","Exact","415 PARKDALE DR, CHARLESTON, SC, 29414",605503102,"L"
205520,"415 PATTERSON ST","LAFAYETTE","LA",70501,30.249368175,-92.020478386,20,"415 PATTERSON ST, LAFAYETTE, LA, 70501","Match","Exact","415 PATTERSON ST, LAFAYETTE, LA, 70501",85614860,"L"
205521,"415 PEARL ST","KING CITY","CA",93930,36.2102976100001,-121.126541803,21,"415 PEARL ST, KING CITY, CA, 93930","Match","Exact","415 PEARL ST, KING CITY, CA, 93930",196843776,"R"
205522,"415 PISGAH CHURCH ROAD 193","GREENSBORO","NC",27455,36.131694714,-79.796368452,22,"415 PISGAH CHURCH ROAD 193, GREENSBORO, NC, 27455","Match","Exact","415 PISGAH CHURCH RD, GREENSBORO, NC, 27455",131030306,"L"
205523,"415 PISGAH CHURCH ROAD BOX 124","GREENSBORO","NC",27404,36.131694714,-79.796368452,23,"415 PISGAH CHURCH ROAD BOX 124, GREENSBORO, NC, 27404","Match","Non_Exact","415 PISGAH CHURCH RD, GREENSBORO, NC, 27455",131030306,"L"
205524,"415 PISGAH CHURCH ROAD UNIT 326","GREENSBORO","NC",27455,36.131694714,-79.796368452,24,"415 PISGAH CHURCH ROAD UNIT 326, GREENSBORO, NC, 27455","Match","Exact","415 PISGAH CHURCH RD, GREENSBORO, NC, 27455",131030306,"L"
205525,"415 PLUME LANE","BLYTHEWOOD","SC",29016,34.168995319,-80.991571984,25,"415 PLUME LANE, BLYTHEWOOD, SC, 29016","Match","Exact","415 PLUME LN, BLYTHEWOOD, SC, 29016",635780785,"L"
205526,"415 PRAIRIE HILL DR","ATKINS","IA",52206,41.9920922810001,-91.850407874,26,"415 PRAIRIE HILL DR, ATKINS, IA, 52206","Match","Exact","415 PRAIRIE HILL DR, ATKINS, IA, 52206",641854994,"R"
205527,"415 RAINTREE CT","WINTER PARK","FL",32789,28.6096745140001,-81.354630672,27,"415 RAINTREE CT, WINTER PARK, FL, 32789","Match","Exact","415 RAINTREE CT, WINTER PARK, FL, 32789",94422779,"R"
205528,"415 RANELAGH DRIVE","WAXHAW","NC",28173,34.9931197670001,-80.6885853059999,28,"415 RANELAGH DRIVE, WAXHAW, NC, 28173","Match","Exact","415 RANELAGH DR, WAXHAW, NC, 28173",649538930,"L"
205529,"415 READING AVE","PENNINGTON","NJ",8534,40.318846412,-74.795960293,29,"415 READING AVE, PENNINGTON, NJ, 8534","Match","Exact","415 READING AVE, PENNINGTON, NJ, 08534",60176098,"L"
205530,"415 RED COAT COURTW","W","WI",53185,NA,NA,30,"415 RED COAT COURTW, W, WI, 53185","No_Match",NA,NA,NA,NA
205531,"415 REIVER STREET","ADEL","IA",50003,41.6158545060001,-94.0127691929999,31,"415 REIVER STREET, ADEL, IA, 50003","Match","Non_Exact","415 RIVER ST, ADEL, IA, 50003",65644087,"R"
205532,"415 RICHMOND AVE","PEORIA","IL",61604,40.7080100840001,-89.5992649569999,32,"415 RICHMOND AVE, PEORIA, IL, 61604","Match","Non_Exact","415 W RICHMOND AVE, PEORIA, IL, 61604",8726974,"R"
205533,"415 RIVER ST","TROY","NY",12180,42.7356224530001,-73.687462076,33,"415 RIVER ST, TROY, NY, 12180","Match","Exact","415 RIVER ST, TROY, NY, 12180",35756981,"L"
205534,"415 ROADS END STREET","GLENDALE","CA",91205,34.1282611930001,-118.251208072,34,"415 ROADS END STREET, GLENDALE, CA, 91205","Match","Exact","415 ROADS END ST, GLENDALE, CA, 91205",241240490,"L"
205535,"415 ROBERT DR","NORMAL","IL",61761,40.501587069,-89.017446819,35,"415 ROBERT DR, NORMAL, IL, 61761","Match","Exact","415 ROBERT DR, NORMAL, IL, 61761",649557108,"R"
205536,"415 S 415","OSTEEN","FL",32764,NA,NA,36,"415 S 415, OSTEEN, FL, 32764","No_Match",NA,NA,NA,NA
205537,"415 S AIRPORT BLVD","AURORA","CO",80017,39.71042629,-104.791142387,37,"415 S AIRPORT BLVD, AURORA, CO, 80017","Match","Exact","415 AIRPORT BLVD, AURORA, CO, 80017",177356100,"L"
205538,"415 S BERENDO ST APT 309","LOS ANGELES","CA",90020,34.0669721370001,-118.294153186,38,"415 S BERENDO ST APT 309, LOS ANGELES, CA, 90020","Match","Non_Exact","415 S BERENDO ST, LOS ANGELES, CA, 90020",141604922,"R"
205539,"415 S DECATUR STREET","MONTGOMERY","AL",36104,32.3733372680001,-86.302275669,39,"415 S DECATUR STREET, MONTGOMERY, AL, 36104","Match","Exact","415 S DECATUR ST, MONTGOMERY, AL, 36104",1499763,"L"
205540,"415 S DECATUR STREET","MONTGOMERY","AL",36107,32.3733372680001,-86.302275669,40,"415 S DECATUR STREET, MONTGOMERY, AL, 36107","Match","Non_Exact","415 S DECATUR ST, MONTGOMERY, AL, 36104",1499763,"L"
205541,"415 S HIGH ST","DENVER","CO",80209,39.7089444100001,-104.965177662,41,"415 S HIGH ST, DENVER, CO, 80209","Match","Exact","415 S HIGH ST, DENVER, CO, 80209",177332014,"R"
205542,"415 S LAYMAN","LAPLATA","MO",63549,NA,NA,42,"415 S LAYMAN, LAPLATA, MO, 63549","No_Match",NA,NA,NA,NA
205543,"415 S MAIN STREET","CRYSTAL","MI",48818,43.26081745,-84.914870347,43,"415 S MAIN STREET, CRYSTAL, MI, 48818","Match","Exact","415 S MAIN ST, CRYSTAL, MI, 48818",110553604,"R"
205544,"415 S MITCHELLE","SAN MARCOS","TX",78666,29.8739441610001,-97.947735899,44,"415 S MITCHELLE, SAN MARCOS, TX, 78666","Match","Non_Exact","415 S MITCHELL ST, SAN MARCOS, TX, 78666",63813294,"R"
205545,"415 S OAK ST","OFALLON","IL",62269,38.5891636650001,-89.9141614549999,45,"415 S OAK ST, OFALLON, IL, 62269","Match","Non_Exact","415 S OAK ST, O FALLON, IL, 62269",107843627,"R"
205546,"415 S OXFORD AVE STE 301","LOS ANGELES","CA",90020,34.06679719,-118.307861002,46,"415 S OXFORD AVE STE 301, LOS ANGELES, CA, 90020","Match","Non_Exact","415 S OXFORD AVE, LOS ANGELES, CA, 90020",141603806,"R"
205547,"415 S PIERRE ST","PIERRE","SD",57501,44.3653702870001,-100.355311162,47,"415 S PIERRE ST, PIERRE, SD, 57501","Match","Exact","415 S PIERRE ST, PIERRE, SD, 57501",200329280,"L"
205548,"415 S PINE STREET","WALHALLA","SC",29691,34.759831048,-83.0735370259999,48,"415 S PINE STREET, WALHALLA, SC, 29691","Match","Exact","415 S PINE ST, WALHALLA, SC, 29691",25655109,"R"
205549,"415 S PINELLAS AVE","TARPON SPRINGS","FL",34689,28.1430049850001,-82.756605233,49,"415 S PINELLAS AVE, TARPON SPRINGS, FL, 34689","Match","Exact","415 S PINELLAS AVE, TARPON SPNGS, FL, 34689",124660823,"L"
205550,"415 S ROSS ST","SANTA ANA","CA",92701,33.742104876,-117.872113756,50,"415 S ROSS ST, SANTA ANA, CA, 92701","Match","Exact","415 S ROSS ST, SANTA ANA, CA, 92701",144042035,"L"
205551,"415 S SUMMIT AVE","CHARLOTTE","NC",28208,35.233118357,-80.8606352319999,51,"415 S SUMMIT AVE, CHARLOTTE, NC, 28208","Match","Exact","415 S SUMMIT AVE, CHARLOTTE, NC, 28208",70477667,"L"
205552,"415 SAGINAW","CALUMET CITY","IL",60409,41.6246438000001,-87.55789888,52,"415 SAGINAW, CALUMET CITY, IL, 60409","Match","Non_Exact","415 SAGINAW AVE, CALUMET CITY, IL, 60409",111779909,"L"
205553,"415 SAINT ANNES PLACE","COVINGTION","GA",30016,33.5672214150001,-83.956434311,53,"415 SAINT ANNES PLACE, COVINGTION, GA, 30016","Match","Non_Exact","415 ST ANNE'S PL, COVINGTON, GA, 30016",618464293,"L"
205554,"415 SANDERS STREET","FRANKLIN","LA",70538,29.802635105,-91.506374097,54,"415 SANDERS STREET, FRANKLIN, LA, 70538","Match","Exact","415 SANDERS ST, FRANKLIN, LA, 70538",85880962,"L"
205555,"415 SARATOGA DR","DE SOTO","MO",63020,38.0868035450001,-90.574058231,55,"415 SARATOGA DR, DE SOTO, MO, 63020","Match","Exact","415 SARATOGA DR, DE SOTO, MO, 63020",62775112,"R"
205556,"415 SEPTEMBER LANE","WILLOW SPRING","NC",27592,35.557313392,-78.62270075,56,"415 SEPTEMBER LANE, WILLOW SPRING, NC, 27592","Match","Exact","415 SEPTEMBER LN, WILLOW SPRING, NC, 27592",26543080,"R"
205557,"415 SEPTEMBER LANE","WILLOW SPRINGS","NC",27592,35.557313392,-78.62270075,57,"415 SEPTEMBER LANE, WILLOW SPRINGS, NC, 27592","Match","Exact","415 SEPTEMBER LN, WILLOW SPRING, NC, 27592",26543080,"R"
205558,"415 SHERMAN ROAD","GRAND LEDGE","MI",48917,42.729415015,-84.659080021,58,"415 SHERMAN ROAD, GRAND LEDGE, MI, 48917","Match","Non_Exact","415 SHERMAN RD, LANSING, MI, 48917",12034501,"L"
205559,"415 SILVERSPRING AVE 308","SILVERSPRING","MD",20910,38.9929048830001,-77.009956455,59,"415 SILVERSPRING AVE 308, SILVERSPRING, MD, 20910","Match","Non_Exact","415 SILVER SPRING AVE, SILVER SPRING, MD, 20910",62068505,"R"
205560,"415 SOUTH AIKEN AVE APT 5","PITTSBURGH","PA",15232,40.4592082660001,-79.9381126649999,60,"415 SOUTH AIKEN AVE APT 5, PITTSBURGH, PA, 15232","Match","Exact","415 S AIKEN AVE, PITTSBURGH, PA, 15232",652295602,"L"
205561,"415 SOUTH CENTRAL STREET","GILMAN","IL",60938,40.763851512,-87.992758965,61,"415 SOUTH CENTRAL STREET, GILMAN, IL, 60938","Match","Exact","415 S CENTRAL ST, GILMAN, IL, 60938",90753103,"R"
205562,"415 SOUTH OAK STREET","OFALLON","IL",62269,38.589165634,-89.914161344,62,"415 SOUTH OAK STREET, OFALLON, IL, 62269","Match","Non_Exact","415 S OAK ST, O FALLON, IL, 62269",107843627,"R"
205563,"415 SOUTH STATE STREET","HART","MI",49420,43.6988380170001,-86.363860919,63,"415 SOUTH STATE STREET, HART, MI, 49420","Match","Exact","415 S STATE ST, HART, MI, 49420",163690641,"L"
205564,"415 SOUTH STREET MB 0717","WALTHAM","MA",2453,42.3627924800001,-71.2590145519999,64,"415 SOUTH STREET MB 0717, WALTHAM, MA, 2453","Match","Non_Exact","415 OLD SOUTH ST, WALTHAM, MA, 02453",86861307,"L"
205565,"415 SOUTH STREET PO BOX 1404","WALTHAM","MA",1453,NA,NA,65,"415 SOUTH STREET PO BOX 1404, WALTHAM, MA, 1453","No_Match",NA,NA,NA,NA
205566,"415 SOUTH TAYLOR ST","EL DORADO","KS",67042,37.814471005,-96.8552960059999,66,"415 SOUTH TAYLOR ST, EL DORADO, KS, 67042","Match","Exact","415 S TAYLOR ST, EL DORADO, KS, 67042",32266459,"R"
205567,"415 SPEEDWELL AVE","MORRIS PLAINS","NJ",7950,40.8249329400001,-74.4803775399999,67,"415 SPEEDWELL AVE, MORRIS PLAINS, NJ, 7950","Match","Exact","415 SPEEDWELL AVE, MORRIS PLAINS, NJ, 07950",60442474,"R"
205568,"415 SPRING GULLY DR","DICKINSON","TX",77539,29.4475498780001,-95.083915992,68,"415 SPRING GULLY DR, DICKINSON, TX, 77539","Match","Exact","415 SPRING GULLY DR, DICKINSON, TX, 77539",637769756,"R"
205569,"415 ST ANN STREET","OWENSBORO","KY",42303,37.7724010690001,-87.112136398,69,"415 ST ANN STREET, OWENSBORO, KY, 42303","Match","Exact","415 SAINT ANN ST, OWENSBORO, KY, 42303",37559170,"L"
205570,"415 STEAKLEY ROAD","NEW MARKET","AL",35761,34.8209012840001,-86.4597386519999,70,"415 STEAKLEY ROAD, NEW MARKET, AL, 35761","Match","Exact","415 STEAKLEY RD, NEW MARKET, AL, 35761",650770255,"R"
205571,"415 STOCKHOLM ST","BROOKLYN","NY",11237,40.70527005,-73.917076091,71,"415 STOCKHOLM ST, BROOKLYN, NY, 11237","Match","Exact","415 STOCKHOLM ST, BROOKLYN, NY, 11237",59082477,"L"
205572,"415 STRATFORD ROAD APT 2B","BROOKLYN","NY",11218,40.638229515,-73.9676387759999,72,"415 STRATFORD ROAD APT 2B, BROOKLYN, NY, 11218","Match","Exact","415 STRATFORD RD, BROOKLYN, NY, 11218",59081051,"L"
205573,"415 SUMMER TRACE LANE","RICHMOND","TX",77406,29.600805021,-95.7497981129999,73,"415 SUMMER TRACE LANE, RICHMOND, TX, 77406","Match","Exact","415 SUMMER TRACE LN, RICHMOND, TX, 77406",628026633,"L"
205574,"415 SUMMERLAND CT","EVANSVILLE","IN",47712,37.974533384,-87.67213935,74,"415 SUMMERLAND CT, EVANSVILLE, IN, 47712","Match","Exact","415 SUMMERLAND CT, EVANSVILLE, IN, 47712",39795317,"L"
205575,"415 SUTTON AVENUE","NORTH CANTON","OH",44720,40.8800557170001,-81.390075742,75,"415 SUTTON AVENUE, NORTH CANTON, OH, 44720","Match","Non_Exact","415 SUTTON AVE NE, NORTH CANTON, OH, 44720",64693747,"L"
205576,"415 SW 10TH AVENUE","AMARILLO","TX",79101,35.204062574,-101.841798097,76,"415 SW 10TH AVENUE, AMARILLO, TX, 79101","Match","Exact","415 SW 10TH AVE, AMARILLO, TX, 79101",182471335,"L"
205577,"415 TELFAIR WAY","CANTON","GA",30115,34.2680347680001,-84.402425443,77,"415 TELFAIR WAY, CANTON, GA, 30115","Match","Exact","415 TELFAIR WAY, CANTON, GA, 30115",625410783,"L"
205578,"415 THIRD STREET","PLATTE CITY","MO",64079,39.3721574420001,-94.780923559,78,"415 THIRD STREET, PLATTE CITY, MO, 64079","Match","Exact","415 3RD ST, PLATTE CITY, MO, 64079",640211758,"L"
205579,"415 TODD ST","PARK FOREST","IL",60466,41.5027095730001,-87.675101124,79,"415 TODD ST, PARK FOREST, IL, 60466","Match","Exact","415 TODD ST, PARK FOREST, IL, 60466",111710972,"R"
205580,"415 UNION STREET","CYGNET","OH",43413,41.2389187950001,-83.641980406,80,"415 UNION STREET, CYGNET, OH, 43413","Match","Exact","415 UNION ST, CYGNET, OH, 43413",38734797,"R"
205581,"415 VIA EMILY AVE","OCEANSIDE","CA",92057,33.2378487280001,-117.321286526,81,"415 VIA EMILY AVE, OCEANSIDE, CA, 92057","Match","Exact","415 VIA EMILY AVE, OCEANSIDE, CA, 92057",195283964,"L"
205582,"415 VINNEDGE RIDE","TALLAHASSEE","FL",32303,30.4738724320001,-84.276377602,82,"415 VINNEDGE RIDE, TALLAHASSEE, FL, 32303","Match","Exact","415 VINNEDGE RIDE, TALLAHASSEE, FL, 32303",82852995,"R"
205583,"415 VOLKERT 7","CINCINNATI","OH",45219,39.127015219,-84.5257489699999,83,"415 VOLKERT 7, CINCINNATI, OH, 45219","Match","Non_Exact","415 VOLKERT PL, CINCINNATI, OH, 45219",103924659,"L"
205584,"415 W 17TH ST APT 1","VANCOUVER","WA",98660,45.6341057810001,-122.675045846,84,"415 W 17TH ST APT 1, VANCOUVER, WA, 98660","Match","Non_Exact","415 W 17TH ST, VANCOUVER, WA, 98660",158325412,"L"
205585,"415 W 22ND ST APT 4B","NEW YORK","NY",10011,40.7460750910001,-74.002382529,85,"415 W 22ND ST APT 4B, NEW YORK, NY, 10011","Match","Non_Exact","415 W 22ND ST, NEW YORK, NY, 10011",59659720,"R"
205586,"415 W 6TH ST","ANTIOCH","CA",94509,38.0140435010001,-121.811530258,86,"415 W 6TH ST, ANTIOCH, CA, 94509","Match","Exact","415 W 6TH ST, ANTIOCH, CA, 94509",192032344,"L"
205587,"415 W ALDINE AVE SUITE 10C","CHICAGO","IL",60657,41.9422733710001,-87.640743161,87,"415 W ALDINE AVE SUITE 10C, CHICAGO, IL, 60657","Match","Non_Exact","415 W ALDINE AVE, CHICAGO, IL, 60657",611460048,"L"
205588,"415 W DOUGLAS AVE","EL CAJON","CA",92020,32.7938119930001,-116.966751022,88,"415 W DOUGLAS AVE, EL CAJON, CA, 92020","Match","Exact","415 W DOUGLAS AVE, EL CAJON, CA, 92020",195328440,"L"
205589,"415 W ENGLEWOOD AVE","CHICAGO","IL",60621,41.780830576,-87.635558664,89,"415 W ENGLEWOOD AVE, CHICAGO, IL, 60621","Match","Exact","415 W ENGLEWOOD AVE, CHICAGO, IL, 60621",111830334,"L"
205590,"415 W GOLF RD STE 37","ARLINGTON HEIGHTS","IL",60005,42.0513698660001,-87.992186073,90,"415 W GOLF RD STE 37, ARLINGTON HEIGHTS, IL, 60005","Match","Exact","415 GOLF RD, ARLINGTON HEIGHTS, IL, 60005",605844700,"R"
205591,"415 W MILLER ST","RAWLINS","WY",82301,41.781481091,-107.235484805,91,"415 W MILLER ST, RAWLINS, WY, 82301","Match","Exact","415 W MILLER ST, RAWLINS, WY, 82301",148730235,"L"
205592,"415 W WALTER STREET","LAURINBURG","NC",28472,34.3234612740001,-78.709532794,92,"415 W WALTER STREET, LAURINBURG, NC, 28472","Match","Non_Exact","415 W WALTER ST, WHITEVILLE, NC, 28472",64127989,"R"
205593,"415 W WILLOW GROVE AVE","PHILADELPHIA","PA",19118,40.065255382,-75.206282948,93,"415 W WILLOW GROVE AVE, PHILADELPHIA, PA, 19118","Match","Exact","415 W WILLOW GROVE AVE, PHILADELPHIA, PA, 19118",630850374,"R"
205594,"415 WALNUT GROVE ROAD","PEACHTREE","GA",30269,33.4178571100001,-84.600366787,94,"415 WALNUT GROVE ROAD, PEACHTREE, GA, 30269","Match","Non_Exact","415 WALNUT GROVE RD, PEACHTREE CITY, GA, 30269",75941714,"L"
205595,"415 WALNUT STREET","JENKINTOWN","PA",19046,40.097158547,-75.131666278,95,"415 WALNUT STREET, JENKINTOWN, PA, 19046","Match","Exact","415 WALNUT ST, JENKINTOWN, PA, 19046",135093505,"L"
205596,"415 WARREN STREET","HUDSON","NY",12534,42.2508336810001,-73.78829967,96,"415 WARREN STREET, HUDSON, NY, 12534","Match","Exact","415 WARREN ST, HUDSON, NY, 12534",41501261,"L"
205597,"415 WASHINGTON ST SUITE 110","WAUKEGAN","IL",60085,42.3595634050001,-87.834210808,97,"415 WASHINGTON ST SUITE 110, WAUKEGAN, IL, 60085","Match","Exact","415 WASHINGTON ST, WAUKEGAN, IL, 60085",119645275,"L"
205598,"415 WELLINGTON POINT","HOUSTON","TX",77094,29.779428352,-95.7066475829999,98,"415 WELLINGTON POINT, HOUSTON, TX, 77094","Match","Exact","415 WELLINGTON PT, HOUSTON, TX, 77094",96293304,"L"
205599,"415 WELLS DRIVE","ORANGEBURG","SC",29115,33.5122865230001,-80.874585193,99,"415 WELLS DRIVE, ORANGEBURG, SC, 29115","Match","Exact","415 WELLS DR, ORANGEBURG, SC, 29115",19249394,"L"
205600,"415 WEST 44TH STREET - APARTMENT 16","NEW YORK","NY",10036,40.759976888,-73.992246124,100,"415 WEST 44TH STREET - APARTMENT 16, NEW YORK, NY, 10036","Match","Exact","415 W 44TH ST, NEW YORK, NY, 10036",59655193,"R"
205601,"415 WEST 70TH STREET","JACKSONVILLE","FL",32208,30.3906009780001,-81.659378417,101,"415 WEST 70TH STREET, JACKSONVILLE, FL, 32208","Match","Exact","415 W 70TH ST, JACKSONVILLE, FL, 32208",83897341,"R"
205602,"415 WEST BROAD ST","QUAKERTOWN","PA",18951,40.4416523690001,-75.3409685079999,102,"415 WEST BROAD ST, QUAKERTOWN, PA, 18951","Match","Exact","415 W BROAD ST, QUAKERTOWN, PA, 18951",134696699,"L"
205603,"415 WEST GRAND AVE","CARTERVILLE","IL",62918,37.7170102910001,-89.219678497,103,"415 WEST GRAND AVE, CARTERVILLE, IL, 62918","Match","Exact","415 W GRAND AVE, CARTERVILLE, IL, 62918",95122496,"R"
205604,"415 WEST MAGNOLIA AVENUE","AUBURN","AL",36849,32.6064821000001,-85.4873982939999,104,"415 WEST MAGNOLIA AVENUE, AUBURN, AL, 36849","Match","Exact","415 W MAGNOLIA AVE, AUBURN, AL, 36849",1569681,"L"
205605,"415 WEST MAIN ST","DENISON","TX",75020,33.755478134,-96.540283817,105,"415 WEST MAIN ST, DENISON, TX, 75020","Match","Exact","415 W MAIN ST, DENISON, TX, 75020",63357450,"R"
205606,"415 WEST MAIN STREET","IONIA","MI",48846,42.9823195600001,-85.068344167,106,"415 WEST MAIN STREET, IONIA, MI, 48846","Match","Exact","415 W MAIN ST, IONIA, MI, 48846",12145394,"R"
205607,"415 WEST MERCER STREET UNIT 703","SEATTLE","WA",98119,47.6245939780001,-122.362193833,107,"415 WEST MERCER STREET UNIT 703, SEATTLE, WA, 98119","Match","Exact","415 W MERCER ST, SEATTLE, WA, 98119",186582095,"L"
205608,"415 WEST PATRICK STREET","FREDERICK","MD",21701,39.412727723,-77.4217141029999,108,"415 WEST PATRICK STREET, FREDERICK, MD, 21701","Match","Exact","415 W PATRICK ST, FREDERICK, MD, 21701",60727451,"R"
205609,"415 WHITMAN BLVD","ELYRIA","OH",44035,41.3945871700001,-82.0818090719999,109,"415 WHITMAN BLVD, ELYRIA, OH, 44035","Match","Exact","415 WHITMAN BLVD, ELYRIA, OH, 44035",55409318,"R"
205610,"415 WILLIAMSON WAY STE 8","ASHLAND","OR",97520,NA,NA,110,"415 WILLIAMSON WAY STE 8, ASHLAND, OR, 97520","No_Match",NA,NA,NA,NA
205611,"415 WILLINGHAM RD","MORRISVILLE","NC",27560,35.8445558000001,-78.865266398,111,"415 WILLINGHAM RD, MORRISVILLE, NC, 27560","Match","Exact","415 WILLINGHAM RD, MORRISVILLE, NC, 27560",639843683,"L"
205612,"415 WILLOWBROOK DRIVE SE","SMYRNA","GA",30082,NA,NA,112,"415 WILLOWBROOK DRIVE SE, SMYRNA, GA, 30082","No_Match",NA,NA,NA,NA
205613,"415 WONDER PARKWAY","SAN ANTONIO","TX",78213,29.4931942100001,-98.530038255,113,"415 WONDER PARKWAY, SAN ANTONIO, TX, 78213","Match","Exact","415 WONDER PKWY, SAN ANTONIO, TX, 78213",641192340,"L"
205614,"415 WOODBYNE DR","FAYETTEVILLE","GA",30214,33.474939342,-84.4588848929999,114,"415 WOODBYNE DR, FAYETTEVILLE, GA, 30214","Match","Exact","415 WOODBYNE DR, FAYETTEVILLE, GA, 30214",75949813,"R"
205615,"415 WOODMONT AVE","TEMPLE TERRACE","FL",33617,28.035863013,-82.388641744,115,"415 WOODMONT AVE, TEMPLE TERRACE, FL, 33617","Match","Exact","415 WOODMONT AVE, TEMPLE TER, FL, 33617",104645754,"R"
205616,"415 WOODVIEW DRIVE","SUN PRAIRIE","WI",53590,43.18435056,-89.204000005,116,"415 WOODVIEW DRIVE, SUN PRAIRIE, WI, 53590","Match","Exact","415 WOODVIEW DR, SUN PRAIRIE, WI, 53590",49479347,"L"
205617,"415","PORT HADLOCK","WA",98339,NA,NA,117,"415, PORT HADLOCK, WA, 98339","No_Match",NA,NA,NA,NA
205618,"415","RUSSELLVILLE","AL",35653,NA,NA,118,"415, RUSSELLVILLE, AL, 35653","No_Match",NA,NA,NA,NA
205619,"4150 APPLEGATE CT","SUITLAND","MD",20746,38.8337886900001,-76.9363809559999,119,"4150 APPLEGATE CT, SUITLAND, MD, 20746","Match","Exact","4150 APPLEGATE CT, SUITLAND, MD, 20746",76352223,"L"
205620,"4150 APPLETON WAY","WILMINGTON","NC",28412,34.1579501950001,-77.9216210599999,120,"4150 APPLETON WAY, WILMINGTON, NC, 28412","Match","Exact","4150 APPLETON WAY, WILMINGTON, NC, 28412",152735521,"R"
205621,"4150 ARNOLD DRIVE","JACKSONVILLE","AR",72076,34.8962802120001,-92.1394979459999,121,"4150 ARNOLD DRIVE, JACKSONVILLE, AR, 72076","Match","Non_Exact","4150 ARNOLD DR, JACKSONVILLE, AR, 72099",83549012,"L"
205622,"4150 BELFORT ROAD 551337","JACKSONVILLE","FL",32216,30.253722001,-81.5840952,122,"4150 BELFORT ROAD 551337, JACKSONVILLE, FL, 32216","Match","Exact","4150 BELFORT RD, JACKSONVILLE, FL, 32216",83967478,"R"
205623,"4150 BELFORT ROAD SUITE 551322","JACKSONVILLE","FL",32255,30.253722001,-81.5840952,123,"4150 BELFORT ROAD SUITE 551322, JACKSONVILLE, FL, 32255","Match","Non_Exact","4150 BELFORT RD, JACKSONVILLE, FL, 32216",83967478,"R"
205624,"4150 BELT LINE RD  UNIT 13019","ADDISON","TX",75001,32.954296539,-96.8409498089999,124,"4150 BELT LINE RD  UNIT 13019, ADDISON, TX, 75001","Match","Exact","4150 BELT LINE RD, ADDISON, TX, 75001",103211125,"R"
205625,"4150 BONILLO DRIVE APT 114","SAN DIEGO","CA",92115,32.7537324050001,-117.059765527,125,"4150 BONILLO DRIVE APT 114, SAN DIEGO, CA, 92115","Match","Exact","4150 BONILLO DR, SAN DIEGO, CA, 92115",195351199,"L"
205626,"4150 CHICAGO AVE UNIT 5904","RIVERSIDE","CA",92507,33.9725472370001,-117.348487581,126,"4150 CHICAGO AVE UNIT 5904, RIVERSIDE, CA, 92507","Match","Exact","4150 CHICAGO AVE, RIVERSIDE, CA, 92507",194746012,"L"
205627,"4150 CHICAGO AVENUE UNIT 52722","RIVERSIDE","CA",92507,33.9725472370001,-117.348487581,127,"4150 CHICAGO AVENUE UNIT 52722, RIVERSIDE, CA, 92507","Match","Exact","4150 CHICAGO AVE, RIVERSIDE, CA, 92507",194746012,"L"
205628,"4150 COBBLESTONE ROAD","SUMTER","SC",29154,33.8823578500001,-80.448610217,128,"4150 COBBLESTONE ROAD, SUMTER, SC, 29154","Match","Exact","4150 COBBLESTONE RD, SUMTER, SC, 29154",627686452,"L"
205629,"4150 CROSSINGS LANE","BIRMINGHAM","AL",35242,33.4045497560001,-86.7344841299999,129,"4150 CROSSINGS LANE, BIRMINGHAM, AL, 35242","Match","Exact","4150 CROSSINGS LN, BIRMINGHAM, AL, 35242",637505880,"L"
205630,"4150 DUDLEYS GRANT DRIVE SUITE D","WINTERVILE","NC",28590,35.5530358350001,-77.3749528179999,130,"4150 DUDLEYS GRANT DRIVE SUITE D, WINTERVILE, NC, 28590","Match","Non_Exact","4150 DUDLEYS GRANT DR, WINTERVILLE, NC, 28590",636035757,"L"
205631,"4150 E FARM ROAD 186","ROGERSVILLE","MO",65742,37.1065206760001,-93.210097629,131,"4150 E FARM ROAD 186, ROGERSVILLE, MO, 65742","Match","Non_Exact","4150 E FARM RD 186, ROGERSVILLE, MO, 65742",605909979,"L"
205632,"4150 E GRAND FOREST DR","BOISE","ID",83716,43.546690024,-116.132833812,132,"4150 E GRAND FOREST DR, BOISE, ID, 83716","Match","Exact","4150 E GRAND FOREST DR, BOISE, ID, 83716",117910609,"L"
205633,"4150 E MAIN APT 4","BLYTHEVILLE","AR",72315,NA,NA,133,"4150 E MAIN APT 4, BLYTHEVILLE, AR, 72315","No_Match",NA,NA,NA,NA
205634,"4150 EASTGATE DRIVE APT 3409","ORLANDO","FL",32839,28.4834627230001,-81.4290891919999,134,"4150 EASTGATE DRIVE APT 3409, ORLANDO, FL, 32839","Match","Exact","4150 EASTGATE DR, ORLANDO, FL, 32839",646572325,"L"
205635,"4150 GOODLETTE ROAD N","NAPLES","FL",34103,NA,NA,135,"4150 GOODLETTE ROAD N, NAPLES, FL, 34103","No_Match",NA,NA,NA,NA
205636,"4150 GRANDY","DETROIT","MI",48207,42.3606984560001,-83.034943383,136,"4150 GRANDY, DETROIT, MI, 48207","Match","Non_Exact","4150 GRANDY ST, DETROIT, MI, 48207",95482263,"R"
205637,"4150 LOGAN DR 1584","LOGANVILLE","GA",30052,33.8433558620001,-83.907445722,137,"4150 LOGAN DR 1584, LOGANVILLE, GA, 30052","Match","Exact","4150 LOGAN DR, LOGANVILLE, GA, 30052",77617997,"L"
205638,"4150 N MAIN ST","VIDOR","TX",77662,30.181631576,-94.024175386,138,"4150 N MAIN ST, VIDOR, TX, 77662","Match","Non_Exact","4150 N MAIN ST, VIDOR, TX, 77662",74031965,"R"
205639,"4150 N MULBERRY STE 250","KANSAS CITY","MO",64116,NA,NA,139,"4150 N MULBERRY STE 250, KANSAS CITY, MO, 64116","No_Match",NA,NA,NA,NA
205640,"4150 N SAM HOUSTON PRKWAY E STE 190","HOUSTON","TX",77032,29.9388812490001,-95.327406675,140,"4150 N SAM HOUSTON PRKWAY E STE 190, HOUSTON, TX, 77032","Match","Non_Exact","4150 SAM HOUSTON PKWY, HOUSTON, TX, 77032",96657040,"L"
205641,"4150 NAVAJO LANE","TITUSVILLE","FL",32796,28.6119209410001,-80.8604972049999,141,"4150 NAVAJO LANE, TITUSVILLE, FL, 32796","Match","Exact","4150 NAVAJO LN, TITUSVILLE, FL, 32796",93919214,"R"
205642,"4150 NW 8 TER","POMPANO BEACH","FL",33064,26.2816452820001,-80.134549554,142,"4150 NW 8 TER, POMPANO BEACH, FL, 33064","Match","Non_Exact","4150 NW 8TH TER, POMPANO BEACH, FL, 33064",114741107,"R"
205643,"4150 NW 93RD AVE","GAINESVILLE","FL",32653,29.739309405,-82.3867061449999,143,"4150 NW 93RD AVE, GAINESVILLE, FL, 32653","Match","Exact","4150 NW 93RD AVE, GAINESVILLE, FL, 32653",637129885,"R"
205644,"4150 PARK VALLEY LANE","WHITE BEAR LAKE","MN",55110,45.0669841760001,-93.044371862,144,"4150 PARK VALLEY LANE, WHITE BEAR LAKE, MN, 55110","Match","Exact","4150 PARK VALLEY LN, WHITE BEAR LAKE, MN, 55110",97663805,"L"
205645,"4150 RANCHO BONITO DR NW","ALBUQUERQUE","NM",87120,35.1721169800001,-106.681443495,145,"4150 RANCHO BONITO DR NW, ALBUQUERQUE, NM, 87120","Match","Exact","4150 RANCHO BONITO DR NW, ALBUQUERQUE, NM, 87120",646856698,"L"
205646,"4150 RIBAULT RIVER LANE","JACKSONVILLE","FL",32208,30.3910891520001,-81.713522572,146,"4150 RIBAULT RIVER LANE, JACKSONVILLE, FL, 32208","Match","Exact","4150 RIBAULT RIVER LN, JACKSONVILLE, FL, 32208",83938742,"L"
205647,"4150 ROBBY CIRCLE","CORONA","CA",92881,33.8214990550001,-117.568662143,147,"4150 ROBBY CIRCLE, CORONA, CA, 92881","Match","Exact","4150 ROBBY CIR, CORONA, CA, 92881",608996516,"L"
205648,"4150 S HUALAPAI WAY UNIT 1039","LAS VEGAS","NV",89147,36.114185241,-115.314927394,148,"4150 S HUALAPAI WAY UNIT 1039, LAS VEGAS, NV, 89147","Match","Non_Exact","4150 S HUALAPAI WAY, LAS VEGAS, NV, 89147",646742746,"L"
205649,"4150 S HUALAPAI WAY UNIT 4027","LAS VEGAS","NV",89147,36.114185241,-115.314927394,149,"4150 S HUALAPAI WAY UNIT 4027, LAS VEGAS, NV, 89147","Match","Non_Exact","4150 S HUALAPAI WAY, LAS VEGAS, NV, 89147",646742746,"L"
205650,"4150 SWEET ROAD","BLAINE","WA",98230,48.9789242860001,-122.705973281,150,"4150 SWEET ROAD, BLAINE, WA, 98230","Match","Exact","4150 SWEET RD, BLAINE, WA, 98230",183758109,"R"
205651,"4150 WESTOWN PARK WAY SUITE 205","WEST DES MOINES","IA",50266,41.595505691,-93.760672703,151,"4150 WESTOWN PARK WAY SUITE 205, WEST DES MOINES, IA, 50266","Match","Non_Exact","4150 WESTOWN PKWY, WEST DES MOINES, IA, 50266",65853983,"L"
205652,"4151 BEAVER DAM ROAD","EAGAN","MN",55122,44.80610089,-93.201075324,152,"4151 BEAVER DAM ROAD, EAGAN, MN, 55122","Match","Exact","4151 BEAVER DAM RD, EAGAN, MN, 55122",37927011,"L"
205653,"4151 COVE DR","YUKON","OK",73099,35.512727925,-97.6854909319999,153,"4151 COVE DR, YUKON, OK, 73099","Match","Exact","4151 COVE DR, YUKON, OK, 73099",92575673,"R"
205654,"4151 COVEY DR","ODESSA","TX",79762,31.9467900830001,-102.367213501,154,"4151 COVEY DR, ODESSA, TX, 79762","Match","Non_Exact","4151 COVEY LN, ODESSA, TX, 79762",635053071,"L"
205655,"4151 E CAMPBELL AVE","GILBERT","AZ",85234,33.358591833,-111.701475901,155,"4151 E CAMPBELL AVE, GILBERT, AZ, 85234","Match","Exact","4151 E CAMPBELL AVE, GILBERT, AZ, 85234",128864157,"R"
205656,"4151 LAKE WORTH ROAD-6275","LAKE WORTH","FL",33466,NA,NA,156,"4151 LAKE WORTH ROAD-6275, LAKE WORTH, FL, 33466","No_Match",NA,NA,NA,NA
205657,"4151 MEADOW LANE","EAU CLAIRE","WI",54701,NA,NA,157,"4151 MEADOW LANE, EAU CLAIRE, WI, 54701","No_Match",NA,NA,NA,NA
205658,"4151 MEMORIAL DRIVE SUITE 110C","DECATUR","GA",30032,33.7693904180001,-84.2509297139999,158,"4151 MEMORIAL DRIVE SUITE 110C, DECATUR, GA, 30032","Match","Exact","4151 MEMORIAL DR, DECATUR, GA, 30032",23408894,"R"
205659,"4151 N TRAVERSE MTN BLVD 15-306","LEHI","UT",84043,40.438083325,-111.882949462,159,"4151 N TRAVERSE MTN BLVD 15-306, LEHI, UT, 84043","Match","Non_Exact","4151 N TRAVERSE MOUNTAIN BLVD, LEHI, UT, 84043",134265599,"L"
205660,"4151 PARK HEIGHTS AVE","BALTIMORE","MD",21215,39.3363514910001,-76.663876085,160,"4151 PARK HEIGHTS AVE, BALTIMORE, MD, 21215","Match","Exact","4151 PARK HEIGHTS AVE, BALTIMORE, MD, 21215",640670033,"R"
205661,"4151 PARK HEIGHTS AVENUE","BALTIMORE","MD",21215,39.3363514910001,-76.663876085,161,"4151 PARK HEIGHTS AVENUE, BALTIMORE, MD, 21215","Match","Exact","4151 PARK HEIGHTS AVE, BALTIMORE, MD, 21215",640670033,"R"
205662,"4151 PELICANS NEST DRIVE","BONITA SPRINGS","FL",34124,26.370868102,-81.823644067,162,"4151 PELICANS NEST DRIVE, BONITA SPRINGS, FL, 34124","Match","Non_Exact","4151 PELICANS NEST DR, BONITA SPGS, FL, 34134",634430131,"L"
205663,"4151 PELONA CANYON RD","ACTON","CA",93510,34.515499483,-118.208054627,163,"4151 PELONA CANYON RD, ACTON, CA, 93510","Match","Exact","4151 PELONA CANYON RD, ACTON, CA, 93510",142832343,"L"
205664,"4151 RED BUD RD NE","CALHOUN","GA",30701,34.5306575770001,-84.8391998389999,164,"4151 RED BUD RD NE, CALHOUN, GA, 30701","Match","Exact","4151 RED BUD RD NE, CALHOUN, GA, 30701",57325126,"R"
205665,"4151 ROUTE 130 SOUTH","EDGEWATER PARK","NJ",8010,NA,NA,165,"4151 ROUTE 130 SOUTH, EDGEWATER PARK, NJ, 8010","No_Match",NA,NA,NA,NA
205666,"4151 SILVERY WAY","SNELLVILLE","GA",30039,33.806094805,-83.998796527,166,"4151 SILVERY WAY, SNELLVILLE, GA, 30039","Match","Exact","4151 SILVERY WAY, SNELLVILLE, GA, 30039",636750248,"L"
205667,"4151 SOUTHWEST FREEWAY SUITE 125","HOUSTON","TX",77027,NA,NA,167,"4151 SOUTHWEST FREEWAY SUITE 125, HOUSTON, TX, 77027","No_Match",NA,NA,NA,NA
205668,"4151 SOUTHWEST FWY STE-650","HOUSTON","TX",77027,29.7286156100001,-95.44358526,168,"4151 SOUTHWEST FWY STE-650, HOUSTON, TX, 77027","Match","Exact","4151 SOUTHWEST FWY, HOUSTON, TX, 77027",96615433,"L"
205669,"4151 WILSHIRE DRIVE","YORK","PA",17402,39.9739592670001,-76.634385005,169,"4151 WILSHIRE DRIVE, YORK, PA, 17402","Match","Exact","4151 WILSHIRE DR, YORK, PA, 17402",88734184,"L"
205670,"4151 WINNROSE WAY","LOUISVILLE","KY",40211,38.239180463,-85.8230461159999,170,"4151 WINNROSE WAY, LOUISVILLE, KY, 40211","Match","Exact","4151 WINNROSE WAY, LOUISVILLE, KY, 40211",96836483,"R"
205671,"41510 VENTANA DRIVE","PALMDALE","CA",93551,34.636818421,-118.223674472,171,"41510 VENTANA DRIVE, PALMDALE, CA, 93551","Match","Exact","41510 VENTANA DR, PALMDALE, CA, 93551",141797076,"L"
205672,"41515 NORTH PARK DRIVE","BEALLSVILLE","OH",43716,39.8667975590001,-81.071039438,172,"41515 NORTH PARK DRIVE, BEALLSVILLE, OH, 43716","Match","Exact","41515 N PARK DR, BEALLSVILLE, OH, 43716",36231993,"L"
205673,"4152 75TH STREET BSMT","ELMHURST","NY",11373,NA,NA,173,"4152 75TH STREET BSMT, ELMHURST, NY, 11373","No_Match",NA,NA,NA,NA
205674,"4152 BANBURY CIR","PARRISH","FL",34219,27.551364994,-82.4300788469999,174,"4152 BANBURY CIR, PARRISH, FL, 34219","Match","Exact","4152 BANBURY CIR, PARRISH, FL, 34219",16272108,"L"
205675,"4152 COMMODORE DR","ERIE","PA",16505,NA,NA,175,"4152 COMMODORE DR, ERIE, PA, 16505","No_Match",NA,NA,NA,NA
205676,"4152 DRUMMOND RD","TOLEDO","OH",43613,41.694220552,-83.6153875639999,176,"4152 DRUMMOND RD, TOLEDO, OH, 43613","Match","Exact","4152 DRUMMOND RD, TOLEDO, OH, 43613",33932448,"R"
205677,"4152 INVERRARY DRIVE BLDG 1 STE 303","LAUDERHILL","FM",33319,NA,NA,177,"4152 INVERRARY DRIVE BLDG 1 STE 303, LAUDERHILL, FM, 33319","No_Match",NA,NA,NA,NA
205678,"4152 LAUREL GREEN CIRCLE","VIRGINIA BEACH","VA",23456,36.778870462,-76.123022587,178,"4152 LAUREL GREEN CIRCLE, VIRGINIA BEACH, VA, 23456","Match","Exact","4152 LAUREL GREEN CIR, VA BCH, VA, 23456",122283671,"L"
205679,"4152 MERIDIAN ST 105-251","BELLINGHAM","WA",98226,48.791935734,-122.486024134,179,"4152 MERIDIAN ST 105-251, BELLINGHAM, WA, 98226","Match","Exact","4152 MERIDIAN ST, BELLINGHAM, WA, 98226",183786321,"R"
205680,"4152 SW 140TH STREET RD","OCALA","FL",34473,29.018709712,-82.1913409919999,180,"4152 SW 140TH STREET RD, OCALA, FL, 34473","Match","Exact","4152 SW 140TH STREET RD, OCALA, FL, 34473",635625342,"R"
205681,"4152 WHISPERING FOREST CT SW","LILBURN","GA",30047,33.845526878,-84.079858111,181,"4152 WHISPERING FOREST CT SW, LILBURN, GA, 30047","Match","Exact","4152 WHISPERING FOREST CT SW, LILBURN, GA, 30047",88887799,"L"
205682,"41523 VALLEY OF THE FALLS DR","FOREST FALLS","CA",92339,34.082631947,-116.898850516,182,"41523 VALLEY OF THE FALLS DR, FOREST FALLS, CA, 92339","Match","Exact","41523 VALLEY OF THE FALLS DR, FOREST FALLS, CA, 92339",144627059,"L"
205683,"41525 TRACE CT","LEONARDTOWN","MD",20659,38.309380334,-76.639350846,183,"41525 TRACE CT, LEONARDTOWN, MD, 20659","Match","Non_Exact","41525 TRACE CT, LEONARDTOWN, MD, 20650",36657268,"R"
205684,"4153 E 1ST ST","TULSA","OK",74112,36.158500385,-95.930632187,184,"4153 E 1ST ST, TULSA, OK, 74112","Match","Exact","4153 E 1ST ST, TULSA, OK, 74112",166446142,"L"
205685,"4153 FLAT SHOALS PARKWAY SUITE 332","DECATUR","GA",30034,33.689058597,-84.255676853,185,"4153 FLAT SHOALS PARKWAY SUITE 332, DECATUR, GA, 30034","Match","Exact","4153 FLAT SHOALS PKWY, DECATUR, GA, 30034",23370834,"R"
205686,"4153 FLAT SHOALS PKWY BLDG C322","DECATUR","GA",30034,33.689058597,-84.255676853,186,"4153 FLAT SHOALS PKWY BLDG C322, DECATUR, GA, 30034","Match","Exact","4153 FLAT SHOALS PKWY, DECATUR, GA, 30034",23370834,"R"
205687,"4153 POND EDGE RD","SNELLVILLE","GA",30039,33.844037664,-84.072476168,187,"4153 POND EDGE RD, SNELLVILLE, GA, 30039","Match","Exact","4153 POND EDGE RD, SNELLVILLE, GA, 30039",637666022,"R"
205688,"4153 SHAFFETT LANE","ZACHARY","LA",70791,NA,NA,188,"4153 SHAFFETT LANE, ZACHARY, LA, 70791","No_Match",NA,NA,NA,NA
205689,"4153 SHORELINE CIRCLE APT 67","VIRGINIA BEACH","VA",23452,36.8231288900001,-76.1227419159999,189,"4153 SHORELINE CIRCLE APT 67, VIRGINIA BEACH, VA, 23452","Match","Exact","4153 SHORELINE CIR, VA BCH, VA, 23452",122306510,"R"
205690,"4153 SOUTH SYRACUSE","DENVER","CO",80237,39.6419725760001,-104.897411003,190,"4153 SOUTH SYRACUSE, DENVER, CO, 80237","Match","Non_Exact","4153 S SYRACUSE ST, DENVER, CO, 80237",177343913,"R"
205691,"4153 SW GLENEAGLE CIRCLE","PALM CITY","FL",34990,27.1540829200001,-80.272801451,191,"4153 SW GLENEAGLE CIRCLE, PALM CITY, FL, 34990","Match","Exact","4153 SW GLENEAGLE CIR, PALM CITY, FL, 34990",120427199,"R"
205692,"41539 CHADBOURNE DR","FREMONT","CA",94539,37.5411008470001,-121.943621145,192,"41539 CHADBOURNE DR, FREMONT, CA, 94539","Match","Exact","41539 CHADBOURNE DR, FREMONT, CA, 94539",125033540,"R"
205693,"4153C FLAT SHOALS PARKWAY SUITE 332","DECATUR","GA",30034,33.6890341490001,-84.2556370789999,193,"4153C FLAT SHOALS PARKWAY SUITE 332, DECATUR, GA, 30034","Match","Exact","4153 FLAT SHOALS PKWY, DECATUR, GA, 30034",23370834,"R"
205694,"4154 CENTRAL AVE","SAINT PETERSBURG","FL",33712,27.770940377,-82.689660008,194,"4154 CENTRAL AVE, SAINT PETERSBURG, FL, 33712","Match","Non_Exact","4154 CENTRAL AVE, SAINT PETERSBURG, FL, 33711",124700869,"L"
205695,"4154 HIGHWAY 36","SHELBINA","MO",63468,39.7096349720001,-92.107134448,195,"4154 HIGHWAY 36, SHELBINA, MO, 63468","Match","Non_Exact","4154 US HWY 36, SHELBINA, MO, 63468",637599322,"L"
205696,"4154 HOLLY SPRINGS DRIVE","MOBILE","AL",36693,30.6354318360001,-88.1522105449999,196,"4154 HOLLY SPRINGS DRIVE, MOBILE, AL, 36693","Match","Non_Exact","4154 HOLLYSPRINGS DR, MOBILE, AL, 36693",61858645,"R"
205697,"4154 HUNTERS RUN BLVD","READING","PA",19606,40.321238383,-75.855547148,197,"4154 HUNTERS RUN BLVD, READING, PA, 19606","Match","Exact","4154 HUNTERS RUN BLVD, READING, PA, 19606",80407223,"L"
205698,"4154 LOCKLAND PL   APT 5","LOS ANGELES","CA",90008,34.0091671220001,-118.340706829,198,"4154 LOCKLAND PL   APT 5, LOS ANGELES, CA, 90008","Match","Exact","4154 LOCKLAND PL, LOS ANGELES, CA, 90008",141602432,"L"
205699,"4154 NORTON ROAD","SYRACUSE","NY",13215,42.9666422780001,-76.225557505,199,"4154 NORTON ROAD, SYRACUSE, NY, 13215","Match","Exact","4154 NORTON RD, SYRACUSE, NY, 13215",46579486,"R"
205700,"4154 NW 2ND LANE","DELRAY BEACH","FL",33445,26.461076898,-80.108520546,200,"4154 NW 2ND LANE, DELRAY BEACH, FL, 33445","Match","Exact","4154 NW 2ND LN, DELRAY BEACH, FL, 33445",115533791,"L"
205701,"4154 RANDOLPH ST","WAYNE","MI",48184,42.2762254450001,-83.424353945,201,"4154 RANDOLPH ST, WAYNE, MI, 48184","Match","Exact","4154 RANDOLPH ST, WAYNE, MI, 48184",646374994,"R"
205702,"4155 222ND ST E","BRADENTON","FL",34211,27.462673287,-82.315515093,202,"4155 222ND ST E, BRADENTON, FL, 34211","Match","Exact","4155 222ND ST E, BRADENTON, FL, 34211",628032394,"R"
205703,"4155 AGATE COVE","MEMPHIS","TN",38127,35.2386616740001,-89.987690132,203,"4155 AGATE COVE, MEMPHIS, TN, 38127","Match","Exact","4155 AGATE COVE, MEMPHIS, TN, 38127",72897955,"L"
205704,"4155 AUGUSTA AVE","COOPER CITY","FL",33026,NA,NA,204,"4155 AUGUSTA AVE, COOPER CITY, FL, 33026","No_Match",NA,NA,NA,NA
205705,"4155 BUCKINGHAM DRIVE","DANVILLE","CA",94506,37.8031011950001,-121.908961912,205,"4155 BUCKINGHAM DRIVE, DANVILLE, CA, 94506","Match","Exact","4155 BUCKINGHAM DR, DANVILLE, CA, 94506",192096854,"L"
205706,"4155 BUTTERNUT PLACE","ATLANTA","GA",30349,33.643561151,-84.603662792,206,"4155 BUTTERNUT PLACE, ATLANTA, GA, 30349","Match","Exact","4155 BUTTERNUT PL, ATLANTA, GA, 30349",629826933,"R"
205707,"4155 DREW RD","CUMMING","GA",30040,34.2114527260001,-84.216053158,207,"4155 DREW RD, CUMMING, GA, 30040","Match","Exact","4155 DREW RD, CUMMING, GA, 30040",636522497,"R"
205708,"4155 DREW ROAD","CUMMING","GA",30040,34.2114527260001,-84.216053158,208,"4155 DREW ROAD, CUMMING, GA, 30040","Match","Exact","4155 DREW RD, CUMMING, GA, 30040",636522497,"R"
205709,"4155 E 150TH ST","CLEVELAND","OH",44128,41.4467241310001,-81.5764335489999,209,"4155 E 150TH ST, CLEVELAND, OH, 44128","Match","Exact","4155 E 150TH ST, CLEVELAND, OH, 44128",61127295,"L"
205710,"4155 E FLAMINGO CREST UNIT 5","LAS VEGAS","NV",89121,36.113380136,-115.114702828,210,"4155 E FLAMINGO CREST UNIT 5, LAS VEGAS, NV, 89121","Match","Non_Exact","4155 FLAMINGO CREST DR, LAS VEGAS, NV, 89121",639403110,"R"
205711,"4155 E IOWA AVE APT 103","DENVER","CO",80222,39.6875054010001,-104.938832174,211,"4155 E IOWA AVE APT 103, DENVER, CO, 80222","Match","Non_Exact","4155 E IOWA AVE, DENVER, CO, 80222",177339282,"L"
205712,"4155 E JEWELL AVE STE 225","DENVER","CO",80222,39.682723222,-104.938163236,212,"4155 E JEWELL AVE STE 225, DENVER, CO, 80222","Match","Non_Exact","4155 E JEWELL AVE, DENVER, CO, 80222",177339315,"R"
205713,"4155 E JEWELL AVENUE SUITE 405","DENVER","CO",80224,NA,NA,213,"4155 E JEWELL AVENUE SUITE 405, DENVER, CO, 80224","No_Match",NA,NA,NA,NA
205714,"4155 FARLIN","ST LOUIS","MO",63115,38.6702001040001,-90.228644999,214,"4155 FARLIN, ST LOUIS, MO, 63115","Match","Non_Exact","4155 FARLIN AVE, SAINT LOUIS, MO, 63115",624485596,"R"
205715,"4155 FERNCREEK DRIVE SUITE 102 A","FAYETTEVILLE","NC",28314,35.0462419850001,-78.941842358,215,"4155 FERNCREEK DRIVE SUITE 102 A, FAYETTEVILLE, NC, 28314","Match","Exact","4155 FERNCREEK DR, FAYETTEVILLE, NC, 28314",600305155,"R"
205716,"4155 GRANTLEY ROAD","TOLEDO","OH",43613,41.6942937950001,-83.6117766629999,216,"4155 GRANTLEY ROAD, TOLEDO, OH, 43613","Match","Exact","4155 GRANTLEY RD, TOLEDO, OH, 43613",33932476,"L"
205717,"4155 LAWRENCEVILLE HWY PMB 8188","LILBURN","GA",30047,NA,NA,217,"4155 LAWRENCEVILLE HWY PMB 8188, LILBURN, GA, 30047","No_Match",NA,NA,NA,NA
205718,"4155 LOCKLAND PLACE APARTMENT 2","LOS ANGELES","CA",90008,34.0091754580001,-118.340715422,218,"4155 LOCKLAND PLACE APARTMENT 2, LOS ANGELES, CA, 90008","Match","Exact","4155 LOCKLAND PL, LOS ANGELES, CA, 90008",141602432,"R"
205719,"4155 MCLEAN DRIVE","CINCINNATI","OH",45255,39.0773542360001,-84.3072769619999,219,"4155 MCLEAN DRIVE, CINCINNATI, OH, 45255","Match","Exact","4155 MCLEAN DR, CINCINNATI, OH, 45255",639280681,"L"
205720,"4155 SATELIITE BLVD APT 617","DULUTH","GA",30096,33.950316555,-84.1488276869999,220,"4155 SATELIITE BLVD APT 617, DULUTH, GA, 30096","Match","Non_Exact","4155 SATELLITE BLVD, DULUTH, GA, 30096",88964313,"R"
205721,"4155 SATELLITE BLVD APT 311","DULUTH","GA",30096,33.950316555,-84.1488276869999,221,"4155 SATELLITE BLVD APT 311, DULUTH, GA, 30096","Match","Exact","4155 SATELLITE BLVD, DULUTH, GA, 30096",88964313,"R"
205722,"4155 STATESVILLE BOULEVARD","SALISBURY","NC",28147,35.707725307,-80.557383671,222,"4155 STATESVILLE BOULEVARD, SALISBURY, NC, 28147","Match","Exact","4155 STATESVILLE BLVD, SALISBURY, NC, 28147",637920423,"L"
205723,"41550 ECLECTIC STREET D206","PALM DESERT","CA",92260,33.7458023610001,-116.358250441,223,"41550 ECLECTIC STREET D206, PALM DESERT, CA, 92260","Match","Exact","41550 ECLECTIC ST, PALM DESERT, CA, 92260",195043989,"R"
205724,"41550 ECLECTIC STREET","PALM DESERT","CA",92260,33.7458023610001,-116.358250441,224,"41550 ECLECTIC STREET, PALM DESERT, CA, 92260","Match","Exact","41550 ECLECTIC ST, PALM DESERT, CA, 92260",195043989,"R"
205725,"41551 BASSETT PL","ALDIE","VA",20105,38.925263489,-77.565840413,225,"41551 BASSETT PL, ALDIE, VA, 20105","Match","Exact","41551 BASSETT PL, ALDIE, VA, 20105",642694885,"R"
205726,"41558 EASTMAN DR STE G","MURRIETA","CA",92562,33.530496429,-117.1776639,226,"41558 EASTMAN DR STE G, MURRIETA, CA, 92562","Match","Exact","41558 EASTMAN DR, MURRIETA, CA, 92562",194842973,"L"
205727,"4156 BALDWIN AVENUE","CULVER CITY","CA",90232,34.016001811,-118.394945241,227,"4156 BALDWIN AVENUE, CULVER CITY, CA, 90232","Match","Exact","4156 BALDWIN AVE, CULVER CITY, CA, 90232",141575342,"L"
205728,"4156 CHEROKEE TRAIL","JAMESTOWN","OH",45335,39.6527370840001,-83.779537609,228,"4156 CHEROKEE TRAIL, JAMESTOWN, OH, 45335","Match","Exact","4156 CHEROKEE TRL, JAMESTOWN, OH, 45335",143381662,"L"
205729,"4156 KING ARTHUR COURT","PALO ALTO","CA",94306,37.404597494,-122.128169848,229,"4156 KING ARTHUR COURT, PALO ALTO, CA, 94306","Match","Exact","4156 KING ARTHUR CT, PALO ALTO, CA, 94306",122952493,"R"
205730,"4156 LONGVIEW RD","STARKVILLE","MS",39759,33.403053782,-88.8493725879999,230,"4156 LONGVIEW RD, STARKVILLE, MS, 39759","Match","Exact","4156 LONGVIEW RD, STARKVILLE, MS, 39759",617350452,"R"
205731,"4156 RIVERHILL COURT NE","ROSWELL","GA",30075,34.0533479170001,-84.425990223,231,"4156 RIVERHILL COURT NE, ROSWELL, GA, 30075","Match","Non_Exact","4156 RIVERHILL CT, ROSWELL, GA, 30075",17204092,"R"
205732,"4156 S BERKELEY AVE","CHICAGO","IL",60653,41.8186992620001,-87.601046959,232,"4156 S BERKELEY AVE, CHICAGO, IL, 60653","Match","Exact","4156 S BERKELEY AVE, CHICAGO, IL, 60653",111771455,"R"
205733,"4156 WATERTHRUSH DRIVE","INDIANAPOLIS","IN",46254,39.828905352,-86.29107342,233,"4156 WATERTHRUSH DRIVE, INDIANAPOLIS, IN, 46254","Match","Exact","4156 WATERTHRUSH DR, INDIANAPOLIS, IN, 46254",108067721,"L"
205734,"41561 284TH ST","TRIPP","SD",57376,43.2699151570001,-97.882998645,234,"41561 284TH ST, TRIPP, SD, 57376","Match","Exact","41561 284TH ST, TRIPP, SD, 57376",172983672,"L"
205735,"4157 4TH AVENUE","LOS ANGELES","CA",90008,34.0087455390001,-118.321393566,235,"4157 4TH AVENUE, LOS ANGELES, CA, 90008","Match","Exact","4157 4TH AVE, LOS ANGELES, CA, 90008",142729659,"R"
205736,"4157 ALSTON CHAPEL RD","PITTSBORO","NC",27312,35.7058776310001,-79.26187688,236,"4157 ALSTON CHAPEL RD, PITTSBORO, NC, 27312","Match","Exact","4157 ALSTON CHAPEL RD, PITTSBORO, NC, 27312",71380700,"R"
205737,"4157 COOPER AVE","ROYAL OAK","MI",48073,42.5255592890001,-83.19246495,237,"4157 COOPER AVE, ROYAL OAK, MI, 48073","Match","Exact","4157 COOPER AVE, ROYAL OAK, MI, 48073",69737335,"L"
205738,"4157 HARSH COVE","MEMPHIS","TN",38127,35.238984277,-89.990895204,238,"4157 HARSH COVE, MEMPHIS, TN, 38127","Match","Exact","4157 HARSH COVE, MEMPHIS, TN, 38127",72897931,"R"
205739,"4157 KEY THATCH DRIVE","TAMPA","FL",33610,27.9827956870001,-82.337725024,239,"4157 KEY THATCH DRIVE, TAMPA, FL, 33610","Match","Exact","4157 KEY THATCH DR, TAMPA, FL, 33610",623879259,"L"
205740,"4157 N 50TH STREET","MILWAUKEE","WI",53216,43.0927147040001,-87.975816788,240,"4157 N 50TH STREET, MILWAUKEE, WI, 53216","Match","Exact","4157 N 50TH ST, MILWAUKEE, WI, 53216",77731365,"L"
205741,"4157 ONEGA CIR","WESPT PALM BEACH","FL",33409,26.7424916150001,-80.103579032,241,"4157 ONEGA CIR, WESPT PALM BEACH, FL, 33409","Match","Non_Exact","4157 ONEGA CIR, HAVERHILL, FL, 33409",618771037,"L"
205742,"4157 SW 54 AVENUE","DAVIE","FL",33314,26.070729402,-80.219189848,242,"4157 SW 54 AVENUE, DAVIE, FL, 33314","Match","Exact","4157 SW 54TH AVE, DAVIE, FL, 33314",114714138,"R"
205743,"4157 US HWY 14-16 E","CLEARMONT","WY",82835,NA,NA,243,"4157 US HWY 14-16 E, CLEARMONT, WY, 82835","No_Match",NA,NA,NA,NA
205744,"41579 NORTH LOTUS AVE","ANTIOCH","IL",60002,42.4671339830001,-88.14699025,244,"41579 NORTH LOTUS AVE, ANTIOCH, IL, 60002","Match","Exact","41579 N LOTUS AVE, ANTIOCH, IL, 60002",119621029,"R"
205745,"4158 73RD STREET 4C","WOODSIDE","NY",11377,NA,NA,245,"4158 73RD STREET 4C, WOODSIDE, NY, 11377","No_Match",NA,NA,NA,NA
205746,"4158 BACK RIDGE WAY","MONCLOVA","OH",43542,41.564738559,-83.73201054,246,"4158 BACK RIDGE WAY, MONCLOVA, OH, 43542","Match","Exact","4158 BACK RIDGE WAY, MONCLOVA, OH, 43542",618106864,"R"
205747,"4158 LA MESA RD","BULLHEAD CITY","AZ",86429,35.1756525850001,-114.513001481,247,"4158 LA MESA RD, BULLHEAD CITY, AZ, 86429","Match","Exact","4158 LA MESA RD, BULLHEAD CITY, AZ, 86429",190308668,"R"
205748,"4158 TERRACE STREET","OAKLAND","CA",94611,37.8290043160001,-122.254720957,248,"4158 TERRACE STREET, OAKLAND, CA, 94611","Match","Exact","4158 TERRACE ST, OAKLAND, CA, 94611",125000247,"R"
205749,"4158 WASHTENAW AVE","ANN ARBOR","MI",48108,42.2534239840001,-83.677789145,249,"4158 WASHTENAW AVE, ANN ARBOR, MI, 48108","Match","Exact","4158 WASHTENAW AVE, ANN ARBOR, MI, 48108",642561210,"R"
205750,"41583 BOSTONIAN PL","ALDIE","VA",20105,NA,NA,250,"41583 BOSTONIAN PL, ALDIE, VA, 20105","No_Match",NA,NA,NA,NA
205751,"41588 HUNTINGTON DR","STERLING HEIGHTS","MI",48313,42.5997284420001,-83.026921992,251,"41588 HUNTINGTON DR, STERLING HEIGHTS, MI, 48313","Match","Exact","41588 HUNTINGTON DR, STERLING HEIGHTS, MI, 48313",618495220,"L"
205752,"4159 51ST ST","SAN DIEGO","CA",92105,32.752525339,-117.084707739,252,"4159 51ST ST, SAN DIEGO, CA, 92105","Match","Exact","4159 51ST ST, SAN DIEGO, CA, 92105",652041808,"R"
205753,"4159 BOWEN STREET","ST LOUIS","MO",63116,38.5718617530001,-90.270531617,253,"4159 BOWEN STREET, ST LOUIS, MO, 63116","Match","Exact","4159 BOWEN ST, SAINT LOUIS, MO, 63116",605138872,"R"
205754,"4159 COVENTRY COURT","SOUTHPORT","NC",28461,33.9425647400001,-78.103078634,254,"4159 COVENTRY COURT, SOUTHPORT, NC, 28461","Match","Exact","4159 COVENTRY CT, SOUTHPORT, NC, 28461",640487980,"L"
205755,"4159 GALBAR ST","OCEANSIDE","CA",92056,33.1978807580001,-117.28354465,255,"4159 GALBAR ST, OCEANSIDE, CA, 92056","Match","Exact","4159 GALBAR ST, OCEANSIDE, CA, 92056",195285831,"R"
205756,"4159 HOLLAND-SYLVANIA AVENUE","TOLEDO","OH",43623,41.693842751,-83.6874439859999,256,"4159 HOLLAND-SYLVANIA AVENUE, TOLEDO, OH, 43623","Match","Non_Exact","4159 N HOLLAND SYLVANIA AVE, TOLEDO, OH, 43623",624226766,"L"
205757,"4159 KIRBY MOUNTAIN ROAD","LENOIR","NC",28645,36.0362130550001,-81.635177421,257,"4159 KIRBY MOUNTAIN ROAD, LENOIR, NC, 28645","Match","Exact","4159 KIRBY MTN RD, LENOIR, NC, 28645",45850314,"R"
205758,"4159 MAU MAU LN","ORLANDO","FL",32822,28.4945938180001,-81.293093861,258,"4159 MAU MAU LN, ORLANDO, FL, 32822","Match","Exact","4159 MAU MAU LN, ORLANDO, FL, 32822",94295213,"L"
205759,"4159 RATHELL ROAD","LEXINGTON","MS",39095,NA,NA,259,"4159 RATHELL ROAD, LEXINGTON, MS, 39095","No_Match",NA,NA,NA,NA
205760,"4159 RINGGOLD RD SUITE 205","EAST RIDGE","TN",37412,34.9972698660001,-85.243438762,260,"4159 RINGGOLD RD SUITE 205, EAST RIDGE, TN, 37412","Match","Exact","4159 RINGGOLD RD, EAST RIDGE, TN, 37412",59314858,"L"
205761,"4159 RIVER ROAD","VALDOSTA","GA",31605,30.9526069620001,-83.259448489,261,"4159 RIVER ROAD, VALDOSTA, GA, 31605","Match","Exact","4159 RIVER RD, VALDOSTA, GA, 31605",87738984,"R"
205762,"4159 S RIVER BASIN AVE","BOISE","ID",83716,43.5641459830001,-116.106945399,262,"4159 S RIVER BASIN AVE, BOISE, ID, 83716","Match","Exact","4159 S RIVER BASIN AVE, BOISE, ID, 83716",641555066,"L"
205763,"41590 BALACLAVA DRIVE","BERMUDA DUNES","CA",92203,33.746886815,-116.289754466,263,"41590 BALACLAVA DRIVE, BERMUDA DUNES, CA, 92203","Match","Exact","41590 BALACLAVA DR, BERMUDA DUNES, CA, 92203",194772254,"L"
205764,"41590 PLEASANT RIDGE RD","GRAYSVILLE","OH",45734,39.6989574770001,-81.224863426,264,"41590 PLEASANT RIDGE RD, GRAYSVILLE, OH, 45734","Match","Exact","41590 PLEASANT RIDGE RD, GRAYSVILLE, OH, 45734",37866856,"R"
205765,"41591 FLORIDA AVE SUITE I","HEMET","CA",92544,NA,NA,265,"41591 FLORIDA AVE SUITE I, HEMET, CA, 92544","No_Match",NA,NA,NA,NA
205766,"41593 WINCHESTER RD  UNIT 217","TEMECULA","CA",92590,33.520142429,-117.166108127,266,"41593 WINCHESTER RD  UNIT 217, TEMECULA, CA, 92590","Match","Exact","41593 WINCHESTER RD, TEMECULA, CA, 92590",194824870,"L"
205767,"41593 WINCHESTER ROAD SUITE 200","TEMECULA","CA",92590,33.520142429,-117.166108127,267,"41593 WINCHESTER ROAD SUITE 200, TEMECULA, CA, 92590","Match","Exact","41593 WINCHESTER RD, TEMECULA, CA, 92590",194824870,"L"
205768,"416 10TH STREET","GOTHENBURG","NE",69138,40.9290356600001,-100.162303193,268,"416 10TH STREET, GOTHENBURG, NE, 69138","Match","Exact","416 10TH ST, GOTHENBURG, NE, 69138",137907421,"L"
205769,"416 22ND STREET","DENVER","CO",80205,39.7488922140001,-104.982545167,269,"416 22ND STREET, DENVER, CO, 80205","Match","Exact","416 22ND ST, DENVER, CO, 80205",177305548,"L"
205770,"416 30TH AV N","MINNEAPOLIS","MN",55411,45.0107602320001,-93.285112466,270,"416 30TH AV N, MINNEAPOLIS, MN, 55411","Match","Exact","416 30TH AVE N, MINNEAPOLIS, MN, 55411",43622559,"R"
205771,"416 6TH ST NE","DEVILS LAKE","ND",58301,NA,NA,271,"416 6TH ST NE, DEVILS LAKE, ND, 58301","Tie",NA,NA,NA,NA
205772,"416 APOLLO DRIVE","BETHLEHEM","PA",18017,40.6562527830001,-75.370404981,272,"416 APOLLO DRIVE, BETHLEHEM, PA, 18017","Match","Exact","416 APOLLO DR, BETHLEHEM, PA, 18017",136875857,"R"
205773,"416 ARABELLA LANE","CARLSBAD","NM",88220,32.445528139,-104.235789963,273,"416 ARABELLA LANE, CARLSBAD, NM, 88220","Match","Exact","416 ARABELLA LN, CARLSBAD, NM, 88220",650809581,"R"
205774,"416 ASHLEY OAKS DRIVE","MOORE","SC",29369,34.8791279210001,-82.03074849,274,"416 ASHLEY OAKS DRIVE, MOORE, SC, 29369","Match","Exact","416 ASHLEY OAKS DR, MOORE, SC, 29369",19529767,"R"
205775,"416 AVENIDA ABETOS","SAN JOSE","CA",95123,37.2544575220001,-121.837828652,275,"416 AVENIDA ABETOS, SAN JOSE, CA, 95123","Match","Exact","416 AVE ABETOS, SAN JOSE, CA, 95123",122923876,"L"
205776,"416 AVONDALE","HADDONFIELD","NJ",8033,39.8968423760001,-75.049832436,276,"416 AVONDALE, HADDONFIELD, NJ, 8033","Match","Non_Exact","416 AVONDALE AVE, HADDONFIELD, NJ, 08033",134353926,"L"
205777,"416 BARBER CREEK RD","PORT BYRON","IL",61275,41.5945078890001,-90.329434895,277,"416 BARBER CREEK RD, PORT BYRON, IL, 61275","Match","Exact","416 BARBER CREEK RD, PORT BYRON, IL, 61275",9221844,"L"
205778,"416 BEASLEY ROAD","PROCTOR","AR",72376,35.056915652,-90.2510360489999,278,"416 BEASLEY ROAD, PROCTOR, AR, 72376","Match","Exact","416 BEASLEY RD, PROCTOR, AR, 72376",69371355,"L"
205779,"416 BEECHGROVE DRIVE","ENGLEWOOD","OH",45322,39.8833369440001,-84.3195878019999,279,"416 BEECHGROVE DRIVE, ENGLEWOOD, OH, 45322","Match","Exact","416 BEECHGROVE DR, ENGLEWOOD, OH, 45322",645876652,"R"
205780,"416 BENJAMIN DR","CHAMBERSBURG","PA",17201,39.957206399,-77.632123409,280,"416 BENJAMIN DR, CHAMBERSBURG, PA, 17201","Match","Exact","416 BENJAMIN DR, CHAMBERSBURG, PA, 17201",60102057,"L"
205781,"416 BIRDSTONE DR","SMYRNA","TN",37167,35.928545543,-86.545222419,281,"416 BIRDSTONE DR, SMYRNA, TN, 37167","Match","Exact","416 BIRDSTONE DR, SMYRNA, TN, 37167",636785303,"R"
205782,"416 BRANCH DR","DOBSON","NC",27017,36.450172606,-80.7510677509999,282,"416 BRANCH DR, DOBSON, NC, 27017","Match","Exact","416 BRANCH DR, DOBSON, NC, 27017",154188607,"R"
205783,"416 BROAD STREET","LAKE CHARLES","LA",70601,30.2291299550001,-93.215345789,283,"416 BROAD STREET, LAKE CHARLES, LA, 70601","Match","Exact","416 BROAD ST, LAKE CHARLES, LA, 70601",88435246,"R"
205784,"416 BURNETT AVE S","RENTON","WA",98057,47.4777257160001,-122.207816962,284,"416 BURNETT AVE S, RENTON, WA, 98057","Match","Exact","416 BURNETT AVE S, RENTON, WA, 98057",239766348,"L"
205785,"416 CANTERBURY RISE","FRANKLIN","TN",37067,35.9364459020001,-86.7802850529999,285,"416 CANTERBURY RISE, FRANKLIN, TN, 37067","Match","Exact","416 CANTERBURY RISE, FRANKLIN, TN, 37067",639809455,"R"
205786,"416 CARRIAGE CREEK DR","SMITHFIELD","NC",27577,35.5468635390001,-78.470534917,286,"416 CARRIAGE CREEK DR, SMITHFIELD, NC, 27577","Match","Exact","416 CARRIAGE CREEK DR, SMITHFIELD, NC, 27577",653466630,"R"
205787,"416 CENTER STREET","YUBA CITY","CA",95991,39.137031962,-121.615214579,287,"416 CENTER STREET, YUBA CITY, CA, 95991","Match","Exact","416 CENTER ST, YUBA CITY, CA, 95991",68568776,"L"
205788,"416 CHESTER DRIVE","LEWISVILLE","TX",75056,33.054116488,-96.902482207,288,"416 CHESTER DRIVE, LEWISVILLE, TX, 75056","Match","Exact","416 CHESTER DR, LEWISVILLE, TX, 75056",624810118,"L"
205789,"416 CLARENDON CT APT B","ALBANY","GA",31707,NA,NA,289,"416 CLARENDON CT APT B, ALBANY, GA, 31707","No_Match",NA,NA,NA,NA
205790,"416 COUNTY ROAD 5231","POPLAR BLUFF","MO",63901,NA,NA,290,"416 COUNTY ROAD 5231, POPLAR BLUFF, MO, 63901","No_Match",NA,NA,NA,NA
205791,"416 CRAIG STREET","FOUNTAIN INN","SC",29644,34.6930378000001,-82.207162462,291,"416 CRAIG STREET, FOUNTAIN INN, SC, 29644","Match","Exact","416 CRAIG ST, FOUNTAIN INN, SC, 29644",38340713,"R"
205792,"416 CRETE DRIVE","WILMINGTON","NC",28403,34.2303606300001,-77.8824275809999,292,"416 CRETE DRIVE, WILMINGTON, NC, 28403","Match","Exact","416 CRETE DR, WILMINGTON, NC, 28403",635237681,"R"
205793,"416 DORCHESTER DRIVE","MAHOMET","IL",61853,40.201320794,-88.405405526,293,"416 DORCHESTER DRIVE, MAHOMET, IL, 61853","Match","Exact","416 DORCHESTER DR, MAHOMET, IL, 61853",8803844,"L"
205794,"416 DORSET ST","CAMBRIA","CA",93428,35.5633827830001,-121.104341932,294,"416 DORSET ST, CAMBRIA, CA, 93428","Match","Exact","416 DORSET ST, CAMBRIA, CA, 93428",109751976,"L"
205795,"416 E 18TH AVENUE","STILLWATER","OK",74074,NA,NA,295,"416 E 18TH AVENUE, STILLWATER, OK, 74074","No_Match",NA,NA,NA,NA
205796,"416 E 71ST STREET APT 6","NEW YORK","NY",10021,40.7667191260001,-73.95556369,296,"416 E 71ST STREET APT 6, NEW YORK, NY, 10021","Match","Non_Exact","416 E 71ST ST, NEW YORK, NY, 10021",650072077,"R"
205797,"416 E 86TH AVENUE","MERRILLVILLE","IN",46410,41.4621726130001,-87.329177847,297,"416 E 86TH AVENUE, MERRILLVILLE, IN, 46410","Match","Exact","416 E 86TH AVE, MERRILLVILLE, IN, 46410",98437140,"L"
205798,"416 E CARLTON AVE","MERIDIAN","ID",83642,43.613825551,-116.386890168,298,"416 E CARLTON AVE, MERIDIAN, ID, 83642","Match","Exact","416 E CARLTON AVE, MERIDIAN, ID, 83642",117855056,"R"
205799,"416 E CARSON DRIVE","TEMPE","AZ",85282,33.3838225370001,-111.93251978,299,"416 E CARSON DRIVE, TEMPE, AZ, 85282","Match","Exact","416 E CARSON DR, TEMPE, AZ, 85282",128319171,"L"
205800,"416 E HAVASU FALLS ST","MERIDIAN","ID",83646,43.6477448370001,-116.388877256,300,"416 E HAVASU FALLS ST, MERIDIAN, ID, 83646","Match","Exact","416 E HAVASU FALLS ST, MERIDIAN, ID, 83646",641543159,"L"
205801,"416 E RAVINE BAYE ROAD","BAYSIDE","WI",53217,43.1913164370001,-87.902476736,301,"416 E RAVINE BAYE ROAD, BAYSIDE, WI, 53217","Match","Exact","416 E RAVINE BAYE RD, BAYSIDE, WI, 53217",641597761,"L"
205802,"416 E REGENCE ST","INGLEWOOD","CA",90301,NA,NA,302,"416 E REGENCE ST, INGLEWOOD, CA, 90301","No_Match",NA,NA,NA,NA
205803,"416 E SPRING AVENUE","BONNER SPRINGS","KS",66012,39.0616757220001,-94.8805349519999,303,"416 E SPRING AVENUE, BONNER SPRINGS, KS, 66012","Match","Exact","416 E SPRING AVE, BONNER SPRINGS, KS, 66012",91131717,"R"
205804,"416 E YUCCA DR","SAFFORD","AZ",85546,32.854220146,-109.70420375,304,"416 E YUCCA DR, SAFFORD, AZ, 85546","Match","Exact","416 E YUCCA DR, SAFFORD, AZ, 85546",128053144,"L"
205805,"416 EISENHOWER DRIVE","ASHLAND","TN",37015,36.2307304870001,-87.002787772,305,"416 EISENHOWER DRIVE, ASHLAND, TN, 37015","Match","Non_Exact","416 EISENHOWER DR, ASHLAND CITY, TN, 37015",645463132,"R"
205806,"416 ELM ST PO BOX 116","NATOMA","KS",67651,NA,NA,306,"416 ELM ST PO BOX 116, NATOMA, KS, 67651","No_Match",NA,NA,NA,NA
205807,"416 ERICSON ST","SOUTHAVEN","MS",38762,34.9145136440001,-89.983351117,307,"416 ERICSON ST, SOUTHAVEN, MS, 38762","Match","Non_Exact","416 ERICSON ST, SOUTHAVEN, MS, 38672",624645186,"L"
205808,"416 FAIR AVE","FLORA","IL",62839,38.6619149000001,-88.4792334429999,308,"416 FAIR AVE, FLORA, IL, 62839","Match","Exact","416 FAIR AVE, FLORA, IL, 62839",39416498,"L"
205809,"416 FAIRVIEW ST","NORMAL","IL",61761,40.524772915,-88.993725946,309,"416 FAIRVIEW ST, NORMAL, IL, 61761","Match","Exact","416 FAIRVIEW ST, NORMAL, IL, 61761",20544010,"R"
205810,"416 FRANKLIN ST","LINDEN","MI",48451,42.817702248,-83.779917062,310,"416 FRANKLIN ST, LINDEN, MI, 48451","Match","Exact","416 FRANKLIN ST, LINDEN, MI, 48451",69557997,"R"
205811,"416 GEORGE ST SUITE B6","DEPERE","WI",54115,44.448939609,-88.06020648,311,"416 GEORGE ST SUITE B6, DEPERE, WI, 54115","Match","Non_Exact","416 GEORGE ST, DE PERE, WI, 54115",148101297,"R"
205812,"416 GRAVIER STREET","NEW ORLEANS","LA",70130,29.9503831100001,-90.067039358,312,"416 GRAVIER STREET, NEW ORLEANS, LA, 70130","Match","Exact","416 GRAVIER ST, NEW ORLEANS, LA, 70130",191714330,"L"
205813,"416 HABITAT RIDGE DRIVE","BROUSSARD","LA",70518,30.1346611110001,-91.95311564,313,"416 HABITAT RIDGE DRIVE, BROUSSARD, LA, 70518","Match","Exact","416 HABITAT RIDGE DR, BROUSSARD, LA, 70518",648161166,"R"
205814,"416 HANOVER RD","BAINBRIDGE","GA",39817,30.9583320560001,-84.6710262399999,314,"416 HANOVER RD, BAINBRIDGE, GA, 39817","Match","Exact","416 HANOVER RD, BAINBRIDGE, GA, 39817",84288127,"R"
205815,"416 HANSON WALK LANE","APEX","NC",27539,35.6911290480001,-78.7695018639999,315,"416 HANSON WALK LANE, APEX, NC, 27539","Match","Exact","416 HANSON WALK LN, APEX, NC, 27539",612826332,"R"
205816,"416 HARN STREET","MONROE","LA",71201,32.542205283,-92.107923114,316,"416 HARN STREET, MONROE, LA, 71201","Match","Exact","416 HARN ST, MONROE, LA, 71201",161083349,"R"
205817,"416 HAVENWOOD LANE N","FORT WORTH","TX",76112,NA,NA,317,"416 HAVENWOOD LANE N, FORT WORTH, TX, 76112","No_Match",NA,NA,NA,NA
205818,"416 HIBBARD ROAD","HORSEHEADS","NY",14845,42.170570017,-76.923217989,318,"416 HIBBARD ROAD, HORSEHEADS, NY, 14845","Match","Exact","416 HIBBARD RD, HORSEHEADS, NY, 14845",18562237,"R"
205819,"416 HIGHLAND DRIVE","SEATTLE","WA",98109,47.629744702,-122.348551984,319,"416 HIGHLAND DRIVE, SEATTLE, WA, 98109","Match","Exact","416 HIGHLAND DR, SEATTLE, WA, 98109",186582459,"L"
205820,"416 HOWARD ST PEACOCK HALLROOM 2018","BOONE","NC",28608,36.215828092,-81.679185687,320,"416 HOWARD ST PEACOCK HALLROOM 2018, BOONE, NC, 28608","Match","Non_Exact","416 HOWARD ST, BOONE, NC, 28607",638840483,"L"
205821,"416 HOWARD STREET 2018 PEACOCK HALL","BOONE","NC",28608,36.215828092,-81.679185687,321,"416 HOWARD STREET 2018 PEACOCK HALL, BOONE, NC, 28608","Match","Non_Exact","416 HOWARD ST, BOONE, NC, 28607",638840483,"L"
205822,"416 HUDSON ST","JERMYN","PA",18433,41.534129439,-75.537708375,322,"416 HUDSON ST, JERMYN, PA, 18433","Match","Exact","416 HUDSON ST, JERMYN, PA, 18433",139346495,"R"
205823,"416 HUFF ROAD","NORTH BRUNSWICK","NJ",8902,40.452913864,-74.460716163,323,"416 HUFF ROAD, NORTH BRUNSWICK, NJ, 8902","Match","Exact","416 HUFF RD, N BRUNSWICK, NJ, 08902",642134164,"L"
205824,"416 IVY CRES","CHESAPEAKE","VA",23325,36.804197351,-76.248866188,324,"416 IVY CRES, CHESAPEAKE, VA, 23325","Match","Exact","416 IVY CRES, CHESAPEAKE, VA, 23325",121772022,"R"
205825,"416 JAMAICA DRIVE","CHERRY HILL","NJ",8002,39.932421592,-75.018591992,325,"416 JAMAICA DRIVE, CHERRY HILL, NJ, 8002","Match","Exact","416 JAMAICA DR, CHERRY HILL, NJ, 08002",134419050,"L"
205826,"416 JOHNNY MERCER BLVD","SAVANNAH","GA",31410,32.0170826570001,-80.977935332,326,"416 JOHNNY MERCER BLVD, SAVANNAH, GA, 31410","Match","Exact","416 JOHNNY MERCER BLVD, SAVANNAH, GA, 31410",641720269,"R"
205827,"416 JOY SPRINGS CT","GROVETOWN","GA",30813,33.4714650940001,-82.227467866,327,"416 JOY SPRINGS CT, GROVETOWN, GA, 30813","Match","Exact","416 JOY SPRINGS CT, GROVETOWN, GA, 30813",640764542,"R"
205828,"416 KINSLAND ROAD","FRANKLIN","NC",28734,35.2271404090001,-83.333328223,328,"416 KINSLAND ROAD, FRANKLIN, NC, 28734","Match","Exact","416 KINSLAND RD, FRANKLIN, NC, 28734",35524908,"L"
205829,"416 KISSING OAK DR","AUSTIN","TX",78748,30.1579386400001,-97.803325168,329,"416 KISSING OAK DR, AUSTIN, TX, 78748","Match","Exact","416 KISSING OAK DR, AUSTIN, TX, 78748",624811266,"R"
205830,"416 LAKEVIEW DR","DELHI","LA",71232,32.4512174270001,-91.484933864,330,"416 LAKEVIEW DR, DELHI, LA, 71232","Match","Exact","416 LAKEVIEW DR, DELHI, LA, 71232",71206311,"L"
205831,"416 LANGFORD DRIVE","BOLINGBROOK","IL",60440,41.7223450640001,-88.0519912679999,331,"416 LANGFORD DRIVE, BOLINGBROOK, IL, 60440","Match","Exact","416 LANGFORD DR, BOLINGBROOK, IL, 60440",111544183,"L"
205832,"416 LAWTON DRIVE","HAW RIVER","NC",27252,36.0278599850001,-79.332415478,332,"416 LAWTON DRIVE, HAW RIVER, NC, 27252","Match","Non_Exact","416 LAWTON DR, HAW RIVER, NC, 27258",650607870,"L"
205833,"416 LEWIS DRIVE","RICHMOND","KY",40475,37.7379945920001,-84.387471686,333,"416 LEWIS DRIVE, RICHMOND, KY, 40475","Match","Exact","416 LEWIS DR, RICHMOND, KY, 40475",646629119,"R"
205834,"416 LINWAL DRIVE","LEXINGTON","KY",40505,38.0731359440001,-84.462062772,334,"416 LINWAL DRIVE, LEXINGTON, KY, 40505","Match","Non_Exact","416 LIN WAL RD, LEXINGTON, KY, 40505",31925618,"L"
205835,"416 LITHCOTE ROAD","VILLE PLATTE","LA",70586,30.6758215670001,-92.262024216,335,"416 LITHCOTE ROAD, VILLE PLATTE, LA, 70586","Match","Exact","416 LITHCOTE RD, VILLE PLATTE, LA, 70586",13200367,"L"
205836,"416 MADISON TAYLOR PLACE","LAS VEGAS","NV",89144,36.1776920660001,-115.324769289,336,"416 MADISON TAYLOR PLACE, LAS VEGAS, NV, 89144","Match","Exact","416 MADISON TAYLOR PL, LAS VEGAS, NV, 89144",201924640,"R"
205837,"416 MENGER SPRINGS","BOERNE","TX",78006,29.7605519590001,-98.730100858,337,"416 MENGER SPRINGS, BOERNE, TX, 78006","Match","Exact","416 MENGER SPRINGS, BOERNE, TX, 78006",643047658,"R"
205838,"416 N 9TH ST","MASCOUTAH","IL",62258,38.494780059,-89.810658549,338,"416 N 9TH ST, MASCOUTAH, IL, 62258","Match","Exact","416 N 9TH ST, MASCOUTAH, IL, 62258",107822583,"R"
205839,"416 N AVENUE B","CROSS PLAINS","TX",76443,32.1282801450001,-99.161784991,339,"416 N AVENUE B, CROSS PLAINS, TX, 76443","Match","Exact","416 N AVE B, CROSS PLAINS, TX, 76443",129541550,"R"
205840,"416 N BEDFORD DR STE 311","BEVERLY HILLS","CA",90210,34.0681407770001,-118.405258513,340,"416 N BEDFORD DR STE 311, BEVERLY HILLS, CA, 90210","Match","Non_Exact","416 N BEDFORD DR, BEVERLY HILLS, CA, 90210",141571556,"R"
205841,"416 N CLINTON ST","STOCKBRIDGE","MI",49285,42.455736298,-84.1801915569999,341,"416 N CLINTON ST, STOCKBRIDGE, MI, 49285","Match","Exact","416 N CLINTON ST, STOCKBRIDGE, MI, 49285",17526086,"L"
205842,"416 N COURT ST","FLORENCE","AL",35630,NA,NA,342,"416 N COURT ST, FLORENCE, AL, 35630","Tie",NA,NA,NA,NA
205843,"416 N FM 356","ONALASKA","TX",77360,30.815119786,-95.120485333,343,"416 N FM 356, ONALASKA, TX, 77360","Match","Exact","416 FM 356, ONALASKA, TX, 77360",607490189,"R"
205844,"416 N GLENDALE AVE SUITE 202","GLENDALE","CA",91206,34.1521773310001,-118.244498856,344,"416 N GLENDALE AVE SUITE 202, GLENDALE, CA, 91206","Match","Non_Exact","416 N GLENDALE AVE, GLENDALE, CA, 91206",141609518,"R"
205845,"416 N MONTFORD AVE","BALTIMORE","MD",21224,39.295740601,-76.583536253,345,"416 N MONTFORD AVE, BALTIMORE, MD, 21224","Match","Exact","416 N MONTFORD AVE, BALTIMORE, MD, 21224",651574293,"L"
205846,"416 NORTH 59TH STREET","PHILADELPHIA","PA",19151,39.968022494,-75.237472747,346,"416 NORTH 59TH STREET, PHILADELPHIA, PA, 19151","Match","Exact","416 N 59TH ST, PHILADELPHIA, PA, 19151",652295693,"L"
205847,"416 NORTH CORNWELL ST","LOS ANGELES","CA",90033,34.049887379,-118.208288926,347,"416 NORTH CORNWELL ST, LOS ANGELES, CA, 90033","Match","Non_Exact","416 CORNWELL ST, LOS ANGELES, CA, 90033",623851354,"R"
205848,"416 NORTH SECOND STREET","BAINBRIDGE","PA",17502,40.0956135210001,-76.6708534649999,348,"416 NORTH SECOND STREET, BAINBRIDGE, PA, 17502","Match","Exact","416 N 2ND ST, BAINBRIDGE, PA, 17502",647520151,"R"
205849,"416 NORTH STANTON SUITE 600 I","EL PASO","TX",79901,31.760916047,-106.487652373,349,"416 NORTH STANTON SUITE 600 I, EL PASO, TX, 79901","Match","Non_Exact","416 N STANTON ST, EL PASO, TX, 79901",189341728,"R"
205850,"416 NORTH SYLVAN ST","ASHLAND","IL",62612,39.891541611,-90.003891763,350,"416 NORTH SYLVAN ST, ASHLAND, IL, 62612","Match","Exact","416 N SYLVAN ST, ASHLAND, IL, 62612",53140721,"R"
205851,"416 OAKWOOD AVE","WEST HARTFORD","CT",6110,41.743719539,-72.720732203,351,"416 OAKWOOD AVE, WEST HARTFORD, CT, 6110","Match","Exact","416 OAKWOOD AVE, WEST HARTFORD, CT, 06110",604917961,"L"
205852,"416 PALM DRIVE","VISTA","CA",92084,33.2059303780001,-117.241491462,352,"416 PALM DRIVE, VISTA, CA, 92084","Match","Exact","416 PALM DR, VISTA, CA, 92084",195693142,"L"
205853,"416 PARK AVENUE","IRONTON","OH",45638,38.5353507500001,-82.6836164869999,353,"416 PARK AVENUE, IRONTON, OH, 45638","Match","Exact","416 PARK AVE, IRONTON, OH, 45638",55009649,"R"
205854,"416 PARROT HILL AVE","NORTH LAS VEGAS","NV",89032,36.2302067460001,-115.14537818,354,"416 PARROT HILL AVE, NORTH LAS VEGAS, NV, 89032","Match","Exact","416 PARROT HILL AVE, N LAS VEGAS, NV, 89032",202000874,"R"
205855,"416 PHILLIP LANE","SHELBURNE","VT",5482,44.3887555900001,-73.1873420169999,355,"416 PHILLIP LANE, SHELBURNE, VT, 5482","Match","Exact","416 PHILLIP LN, SHELBURNE, VT, 05482",135861727,"L"
205856,"416 PRESIDIO DRIVE","ROCK HILL","SC",29732,35.0050743950001,-81.0244851579999,356,"416 PRESIDIO DRIVE, ROCK HILL, SC, 29732","Match","Exact","416 PRESIDIO DR, ROCK HILL, SC, 29732",618821092,"R"
205857,"416 RAMBLEWOOD RD","PATRIOT","OH",45658,38.754021026,-82.388280612,357,"416 RAMBLEWOOD RD, PATRIOT, OH, 45658","Match","Exact","416 RAMBLEWOOD RD, PATRIOT, OH, 45658",635592566,"L"
205858,"416 RAYMOND PLACE","DUBUQUE","IA",52001,42.4969416070001,-90.6698456399999,358,"416 RAYMOND PLACE, DUBUQUE, IA, 52001","Match","Exact","416 RAYMOND PL, DUBUQUE, IA, 52001",16908835,"R"
205859,"416 REVADEE SPEARS RD","CRAWFORDVILLE","FL",32327,30.2089280180001,-84.3739658109999,359,"416 REVADEE SPEARS RD, CRAWFORDVILLE, FL, 32327","Match","Exact","416 REVADEE SPEARS RD, CRAWFORDVILLE, FL, 32327",631111401,"R"
205860,"416 ROFF AVE","PALISADES PARK","NJ",7650,40.8480858230001,-73.9931311559999,360,"416 ROFF AVE, PALISADES PARK, NJ, 7650","Match","Exact","416 ROFF AVE, PALISADES PARK, NJ, 07650",64411362,"R"
205861,"416 ROSE DRIVE","COLORADO SPRINGS","CO",80911,38.7610709730001,-104.739916985,361,"416 ROSE DRIVE, COLORADO SPRINGS, CO, 80911","Match","Exact","416 ROSE DR, COLORADO SPRINGS, CO, 80911",105524498,"L"
205862,"416 S 162ND ST","OMAHA","NE",68118,41.255104143,-96.169119635,362,"416 S 162ND ST, OMAHA, NE, 68118","Match","Exact","416 S 162ND ST, OMAHA, NE, 68118",117001594,"L"
205863,"416 S 17TH ST","MCALLEN","TX",78577,26.20074204,-98.238416993,363,"416 S 17TH ST, MCALLEN, TX, 78577","Match","Non_Exact","416 S 17TH ST, MCALLEN, TX, 78501",71501740,"R"
205864,"416 S ELM STREET   SUITE 101","DENTON","TX",76201,NA,NA,364,"416 S ELM STREET   SUITE 101, DENTON, TX, 76201","Tie",NA,NA,NA,NA
205865,"416 S FOURTH STREET","CAMDEN","NJ",8103,39.940901151,-75.123343345,365,"416 S FOURTH STREET, CAMDEN, NJ, 8103","Match","Exact","416 S 4TH ST, CAMDEN, NJ, 08103",134340865,"L"
205866,"416 S MAIN ST","JACKSONVILLE","IL",62650,39.7309985910001,-90.229128698,366,"416 S MAIN ST, JACKSONVILLE, IL, 62650","Match","Exact","416 S MAIN ST, JACKSONVILLE, IL, 62650",81432264,"R"
205867,"416 S SPRING ST APT 306","LOS ANGELES","CA",90013,34.0485027020001,-118.248577703,367,"416 S SPRING ST APT 306, LOS ANGELES, CA, 90013","Match","Non_Exact","416 S SPRING ST, LOS ANGELES, CA, 90013",141617312,"L"
205868,"416 S WOOD STREET","WARSAW","IN",46580,41.234659365,-85.844445738,368,"416 S WOOD STREET, WARSAW, IN, 46580","Match","Exact","416 S WOOD ST, WARSAW, IN, 46580",7921875,"R"
205869,"416 SAINT EMILION CT","MOUNTAIN VIEW","CA",94043,37.408743782,-122.090728332,369,"416 SAINT EMILION CT, MOUNTAIN VIEW, CA, 94043","Match","Exact","416 ST EMILION CT, MOUNTAIN VIEW, CA, 94043",629420352,"L"
205870,"416 SNOW BREEZE CT","ROSEVILLE","CA",95747,38.7918463610001,-121.329693602,370,"416 SNOW BREEZE CT, ROSEVILLE, CA, 95747","Match","Exact","416 SNOW BREEZE CT, ROSEVILLE, CA, 95747",106818453,"L"
205871,"416 SNYDER ROAD","READING","PA",19605,40.4362226960001,-75.9206403269999,371,"416 SNYDER ROAD, READING, PA, 19605","Match","Exact","416 SNYDER RD, READING, PA, 19605",80433220,"L"
205872,"416 TRIPLE CROWN BLVD","KNOXVILLE","TN",37934,35.8556968570001,-84.2155461959999,372,"416 TRIPLE CROWN BLVD, KNOXVILLE, TN, 37934","Match","Exact","416 TRIPLE CROWN BLVD, KNOXVILLE, TN, 37934",42602525,"L"
205873,"416 TROON CHASE","VIRGINIA BEACH","VA",23462,36.8291062500001,-76.144009979,373,"416 TROON CHASE, VIRGINIA BEACH, VA, 23462","Match","Exact","416 TROON CHASE, VA BCH, VA, 23462",122279895,"R"
205874,"416 URSULA ST","AURORA","CO",80011,39.722514991,-104.833226685,374,"416 URSULA ST, AURORA, CO, 80011","Match","Exact","416 URSULA ST, AURORA, CO, 80011",177353711,"R"
205875,"416 VALLEY VIEW DR STE 310","SCOTTSBLUFF","NE",69361,41.8790262470001,-103.656701875,375,"416 VALLEY VIEW DR STE 310, SCOTTSBLUFF, NE, 69361","Match","Exact","416 VALLEY VIEW DR, SCOTTSBLUFF, NE, 69361",652082978,"R"
205876,"416 VOYAGE AVE","CALDWELL","ID",83605,43.6669879780001,-116.652333937,376,"416 VOYAGE AVE, CALDWELL, ID, 83605","Match","Non_Exact","416 S VOYAGE AVE, CALDWELL, ID, 83605",650914270,"R"
205877,"416 W 11TH STREET","THE DALLES","OR",97058,45.598397107,-121.193391168,377,"416 W 11TH STREET, THE DALLES, OR, 97058","Match","Exact","416 W 11TH ST, THE DALLES, OR, 97058",175532779,"L"
205878,"416 W 650 S","VERNAL","UT",84078,NA,NA,378,"416 W 650 S, VERNAL, UT, 84078","No_Match",NA,NA,NA,NA
205879,"416 W BETHEL RD","COPPELL","TX",75019,32.9546876840001,-97.003544518,379,"416 W BETHEL RD, COPPELL, TX, 75019","Match","Exact","416 W BETHEL RD, COPPELL, TX, 75019",102997693,"R"
205880,"416 W CHESTER ST 1ST FLOOR","LONG BEACH","NY",11561,NA,NA,380,"416 W CHESTER ST 1ST FLOOR, LONG BEACH, NY, 11561","Tie",NA,NA,NA,NA
205881,"416 W STATE STREET SUITE 213","FREMONT","OH",43420,NA,NA,381,"416 W STATE STREET SUITE 213, FREMONT, OH, 43420","Tie",NA,NA,NA,NA
205882,"416 WALNUT","YANKTON","SD",57078,42.871265679,-97.393772885,382,"416 WALNUT, YANKTON, SD, 57078","Match","Non_Exact","416 WALNUT ST, YANKTON, SD, 57078",637758000,"R"
205883,"416 WATER BRIDGE DR","LEWISVILLE","TX",75056,33.0453412140001,-96.9165118019999,383,"416 WATER BRIDGE DR, LEWISVILLE, TX, 75056","Match","Exact","416 WATER BRIDGE DR, LEWISVILLE, TX, 75056",647551394,"L"
205884,"416 WEST ARROW HWY APT E","UPLAND","CA",91786,34.099730224,-117.656101641,384,"416 WEST ARROW HWY APT E, UPLAND, CA, 91786","Match","Exact","416 W ARROW HWY, UPLAND, CA, 91786",144674600,"L"
205885,"416 WEST FRENCH STREET","PERKINS","OK",74059,35.9761535320001,-97.037920239,385,"416 WEST FRENCH STREET, PERKINS, OK, 74059","Match","Non_Exact","416 W FRENCH AVE, PERKINS, OK, 74059",635531932,"L"
205886,"416 WEST HILL DRIVE","BERTHOUD","CO",80513,40.2946437680001,-105.156404984,386,"416 WEST HILL DRIVE, BERTHOUD, CO, 80513","Match","Exact","416 W HILL DR, BERTHOUD, CO, 80513",188621271,"R"
205887,"416 WEST STREET SUITE B","MADISON","IN",47250,38.7364038960001,-85.380163001,387,"416 WEST STREET SUITE B, MADISON, IN, 47250","Match","Exact","416 WEST ST, MADISON, IN, 47250",31389200,"R"
205888,"416 WEST VAN BUREN STREET","COLORADO SPRINGS","CO",80907,38.8689518200001,-104.828992671,388,"416 WEST VAN BUREN STREET, COLORADO SPRINGS, CO, 80907","Match","Exact","416 W VAN BUREN ST, COLORADO SPRINGS, CO, 80907",610715350,"R"
205889,"416 WILLOW RD","SAVANNAH","GA",31419,31.9703139490001,-81.143643732,389,"416 WILLOW RD, SAVANNAH, GA, 31419","Match","Exact","416 WILLOW RD, SAVANNAH, GA, 31419",6173948,"R"
205890,"416 WOODLAKE ROAD","VIRGINIA BEACH","VA",23452,36.8262756550001,-76.117376232,390,"416 WOODLAKE ROAD, VIRGINIA BEACH, VA, 23452","Match","Exact","416 WOODLAKE RD, VA BCH, VA, 23452",122266335,"R"
205891,"416-426 BROADWAY APT 316","NEWARK","NJ",7104,40.7645461640001,-74.1660326699999,391,"416-426 BROADWAY APT 316, NEWARK, NJ, 7104","Match","Exact","416 BROADWAY, NEWARK, NJ, 07104",63455153,"L"
205892,"416","BOSTON","MA",2130,NA,NA,392,"416, BOSTON, MA, 2130","No_Match",NA,NA,NA,NA
205893,"416","CAMPBELLSVILLE","KY",42719,NA,NA,393,"416, CAMPBELLSVILLE, KY, 42719","No_Match",NA,NA,NA,NA
205894,"4160 BAYSWATER RD","WINTERVILLE","NC",28590,35.552550733,-77.3703639519999,394,"4160 BAYSWATER RD, WINTERVILLE, NC, 28590","Match","Exact","4160 BAYSWATER RD, WINTERVILLE, NC, 28590",648849440,"R"
205895,"4160 CASS AVE SUITE B","DETROIT","MI",48201,42.350067476,-83.063269463,395,"4160 CASS AVE SUITE B, DETROIT, MI, 48201","Match","Exact","4160 CASS AVE, DETROIT, MI, 48201",95477608,"R"
205896,"4160 COUNTY ROAD 1","FRIENDSHIP","NY",14739,42.1801416550001,-78.146431188,396,"4160 COUNTY ROAD 1, FRIENDSHIP, NY, 14739","Match","Exact","4160 CO RD 1, FRIENDSHIP, NY, 14739",82598421,"R"
205897,"4160 DARROW ROAD","STOW","OH",44224,41.178323737,-81.440426639,397,"4160 DARROW ROAD, STOW, OH, 44224","Match","Exact","4160 DARROW RD, STOW, OH, 44224",61346953,"L"
205898,"4160 DOUGLASS DR","USAF ACADEMY","CO",80840,NA,NA,398,"4160 DOUGLASS DR, USAF ACADEMY, CO, 80840","Tie",NA,NA,NA,NA
205899,"4160 EAGLE ROCK BLVD","LOS ANGELES","CA",90065,34.1216426500001,-118.225470449,399,"4160 EAGLE ROCK BLVD, LOS ANGELES, CA, 90065","Match","Non_Exact","4160 N EAGLE ROCK BLVD, LOS ANGELES, CA, 90065",241152163,"R"
205900,"4160 HIGHLANDER PKWY 100","RICHFIELD","OH",44286,41.2188254550001,-81.6426997729999,400,"4160 HIGHLANDER PKWY 100, RICHFIELD, OH, 44286","Match","Exact","4160 HIGHLANDER PKWY, RICHFIELD, OH, 44286",640648841,"L"
205901,"4160 HIGHWAY 261 NORTH","REMBERT","SC",29128,NA,NA,401,"4160 HIGHWAY 261 NORTH, REMBERT, SC, 29128","No_Match",NA,NA,NA,NA
205902,"4160 HUTCHINSON RIVER PARKWAY - 16E","BRONX","NY",10475,40.865807127,-73.8233003729999,402,"4160 HUTCHINSON RIVER PARKWAY - 16E, BRONX, NY, 10475","Match","Non_Exact","4160 HUTCHINSON RIVER PKWY E, BRONX, NY, 10475",609550344,"R"
205903,"4160 LITTLE BOY ROAD NE","LONGVILLE","MN",56655,46.9558079440001,-94.2025706109999,403,"4160 LITTLE BOY ROAD NE, LONGVILLE, MN, 56655","Match","Exact","4160 LITTLE BOY RD NE, LONGVILLE, MN, 56655",162748839,"L"
205904,"4160 LOGAN DR UNIT 2688","LOGANVILLE","GA",30052,33.8433355330001,-83.907413333,404,"4160 LOGAN DR UNIT 2688, LOGANVILLE, GA, 30052","Match","Exact","4160 LOGAN DR, LOGANVILLE, GA, 30052",77617997,"L"
205905,"4160 LOGAN DR UNIT 3225","LOGANVILLE","GA",30052,33.8433355330001,-83.907413333,405,"4160 LOGAN DR UNIT 3225, LOGANVILLE, GA, 30052","Match","Exact","4160 LOGAN DR, LOGANVILLE, GA, 30052",77617997,"L"
205906,"4160 N VALENTINE  APT 127","FRESNO","CA",93722,NA,NA,406,"4160 N VALENTINE  APT 127, FRESNO, CA, 93722","No_Match",NA,NA,NA,NA
205907,"4160 OLD POST ROAD SUITE 202","CHARLESTOWN","RI",2813,41.3842660890001,-71.631293506,407,"4160 OLD POST ROAD SUITE 202, CHARLESTOWN, RI, 2813","Match","Non_Exact","4160 OLD POST RD, CHARLESTOWN, RI, 02813",58917308,"R"
205908,"4160 S BAKKE RD","BELOIT","WI",53511,42.5809612370001,-89.105264031,408,"4160 S BAKKE RD, BELOIT, WI, 53511","Match","Exact","4160 S BAKKE RD, BELOIT, WI, 53511",49900922,"L"
205909,"4160 SOUTH PECOS ROAD STE 21","LAS VEGAS","NV",89121,36.113707,-115.100848628,409,"4160 SOUTH PECOS ROAD STE 21, LAS VEGAS, NV, 89121","Match","Exact","4160 S PECOS RD, LAS VEGAS, NV, 89121",639392730,"L"
205910,"4160 SUISUN VALLEY RD NUM E240","FAIRFIELD","CA",94534,38.2412229290001,-122.123406544,410,"4160 SUISUN VALLEY RD NUM E240, FAIRFIELD, CA, 94534","Match","Exact","4160 SUISUN VALLEY RD, FAIRFIELD, CA, 94534",192576833,"R"
205911,"4160 SUISUN VALLEY RD STE E PMB 125","FAIRFIELD","CA",94534,38.2412229290001,-122.123406544,411,"4160 SUISUN VALLEY RD STE E PMB 125, FAIRFIELD, CA, 94534","Match","Exact","4160 SUISUN VALLEY RD, FAIRFIELD, CA, 94534",192576833,"R"
205912,"4160 SUISUN VALLEY ROAD PO BOX 321","FAIRFIELD","CA",94533,38.2412229290001,-122.123406544,412,"4160 SUISUN VALLEY ROAD PO BOX 321, FAIRFIELD, CA, 94533","Match","Non_Exact","4160 SUISUN VALLEY RD, FAIRFIELD, CA, 94534",192576833,"R"
205913,"4160 W 16TH AVE SUITE 206","HIALEAH","FL",33012,25.8593903730001,-80.314663009,413,"4160 W 16TH AVE SUITE 206, HIALEAH, FL, 33012","Match","Non_Exact","4160 W 16TH AVE, HIALEAH, FL, 33012",115956170,"R"
205914,"4160 W CHARTER OAK RD","PHOENIX","AZ",85029,33.598101586,-112.147962889,414,"4160 W CHARTER OAK RD, PHOENIX, AZ, 85029","Match","Exact","4160 W CHARTER OAK RD, PHOENIX, AZ, 85029",128392525,"R"
205915,"4160 W MAIN ST","LOWELL","IN",46356,41.3261360110001,-87.383879056,415,"4160 W MAIN ST, LOWELL, IN, 46356","Match","Exact","4160 W MAIN ST, LOWELL, IN, 46356",635510200,"R"
205916,"4160 WEST 16 AVE SUITE 205","HIALEAH","FL",33012,25.859384952,-80.3146629829999,416,"4160 WEST 16 AVE SUITE 205, HIALEAH, FL, 33012","Match","Exact","4160 W 16TH AVE, HIALEAH, FL, 33012",115956170,"R"
205917,"4160 WEST 16TH AVE SUITE 208","HIALEAH","FL",33012,25.859384952,-80.3146629829999,417,"4160 WEST 16TH AVE SUITE 208, HIALEAH, FL, 33012","Match","Exact","4160 W 16TH AVE, HIALEAH, FL, 33012",115956170,"R"
205918,"4160 WEST 38TH STREET","ERIE","PA",16506,42.067499985,-80.161286714,418,"4160 WEST 38TH STREET, ERIE, PA, 16506","Match","Exact","4160 W 38TH ST, ERIE, PA, 16506",617262078,"R"
205919,"41600 N FOXY WAY","ASH FORK","AZ",86320,35.143992704,-112.500805526,419,"41600 N FOXY WAY, ASH FORK, AZ, 86320","Match","Exact","41600 FOXY WAY, ASH FORK, AZ, 86320",608192188,"L"
205920,"41606 YANKEE RUN CT","TEMECULA","CA",92591,33.515902054,-117.123579105,420,"41606 YANKEE RUN CT, TEMECULA, CA, 92591","Match","Exact","41606 YANKEE RUN CT, TEMECULA, CA, 92591",194826136,"R"
205921,"4161 B BROOK CREEK LN","GREENVILLE","NC",27858,35.579966052,-77.32313934,421,"4161 B BROOK CREEK LN, GREENVILLE, NC, 27858","Match","Exact","4161 BROOK CREEK LN, GREENVILLE, NC, 27858",639706261,"L"
205922,"4161 DON TOMASO DRIVE SUITE 8","LOS ANGELES","CA",90008,34.004684323,-118.34537726,422,"4161 DON TOMASO DRIVE SUITE 8, LOS ANGELES, CA, 90008","Match","Exact","4161 DON TOMASO DR, LOS ANGELES, CA, 90008",642863688,"R"
205923,"4161 EMERALD LAKE DR","DECATUR","GA",30035,33.7191184590001,-84.219604177,423,"4161 EMERALD LAKE DR, DECATUR, GA, 30035","Match","Exact","4161 EMERALD LAKE DR, DECATUR, GA, 30035",23372652,"R"
205924,"4161 HIGHLAND CT","WEST BLOOMFIELD","MI",48323,42.5754181720001,-83.438042771,424,"4161 HIGHLAND CT, WEST BLOOMFIELD, MI, 48323","Match","Exact","4161 HIGHLAND CT, W BLOOMFIELD, MI, 48323",69720321,"L"
205925,"4161 LANCASHIRE DR","JACKSON","MI",49203,42.2040455420001,-84.446770348,425,"4161 LANCASHIRE DR, JACKSON, MI, 49203","Match","Exact","4161 LANCASHIRE DR, JACKSON, MI, 49203",17625676,"L"
205926,"4161 MINUET STREET UNIT 151","GRAND PRAIRIE","TX",75052,32.670272492,-97.0593903879999,426,"4161 MINUET STREET UNIT 151, GRAND PRAIRIE, TX, 75052","Match","Exact","4161 MINUET ST, GRAND PRAIRIE, TX, 75052",617671862,"R"
205927,"4161 MINUET STREET","GRAND PRAIRIE","TX",75052,32.670272492,-97.0593903879999,427,"4161 MINUET STREET, GRAND PRAIRIE, TX, 75052","Match","Exact","4161 MINUET ST, GRAND PRAIRIE, TX, 75052",617671862,"R"
205928,"4161 PARTRIDGE DR","DOUGLASVILLE","GA",30135,33.690597439,-84.764317594,428,"4161 PARTRIDGE DR, DOUGLASVILLE, GA, 30135","Match","Exact","4161 PARTRIDGE DR, DOUGLASVILLE, GA, 30135",16647861,"R"
205929,"4161 RAINBRANCH DRIVE APT 3","MEMPHIS","TN",38116,35.0342384310001,-90.0007675799999,429,"4161 RAINBRANCH DRIVE APT 3, MEMPHIS, TN, 38116","Match","Exact","4161 RAINBRANCH DR, MEMPHIS, TN, 38116",72919071,"R"
205930,"4161 RIVERLOOK PKWY SE UNIT 203","MARIETTA","GA",30067,33.9293175880001,-84.435918643,430,"4161 RIVERLOOK PKWY SE UNIT 203, MARIETTA, GA, 30067","Match","Exact","4161 RIVERLOOK PKWY SE, MARIETTA, GA, 30067",17221318,"R"
205931,"4161 SOUTH DREXEL APT 205","CHICAGO","IL",60653,41.8190309660001,-87.604290535,431,"4161 SOUTH DREXEL APT 205, CHICAGO, IL, 60653","Match","Non_Exact","4161 S DREXEL BLVD, CHICAGO, IL, 60653",111770822,"L"
205932,"4161 SOUTHPOINT CIRCLE NORTH","SOUTHSIDE","AL",35907,NA,NA,432,"4161 SOUTHPOINT CIRCLE NORTH, SOUTHSIDE, AL, 35907","No_Match",NA,NA,NA,NA
205933,"41619 FIRENZE STREET","LANCASTER","CA",93536,34.63887362,-118.207683485,433,"41619 FIRENZE STREET, LANCASTER, CA, 93536","Match","Exact","41619 FIRENZE ST, LANCASTER, CA, 93536",648754515,"R"
205934,"4161A HIGHWAY 188","CODEN","AL",36523,30.3683902110001,-88.139593586,434,"4161A HIGHWAY 188, CODEN, AL, 36523","Match","Non_Exact","4161 STATE RTE 188, CODEN, AL, 36523",61919320,"L"
205935,"4162 5TH AVE SOUTH","GREAT FALLS","MT",59405,47.500280617,-111.233282758,435,"4162 5TH AVE SOUTH, GREAT FALLS, MT, 59405","Match","Exact","4162 5TH AVE S, GREAT FALLS, MT, 59405",202227828,"R"
205936,"4162 COUNTY RD H","RIDGEWAY","WI",53582,NA,NA,436,"4162 COUNTY RD H, RIDGEWAY, WI, 53582","No_Match",NA,NA,NA,NA
205937,"4162 FOX LANE","CAZENOVIA","NY",13035,42.9257572490001,-75.88006899,437,"4162 FOX LANE, CAZENOVIA, NY, 13035","Match","Exact","4162 FOX LN, CAZENOVIA, NY, 13035",46508743,"L"
205938,"4162 LAUREL OAK CIR","TALLAHASSEE","FL",32311,30.4259936510001,-84.194165691,438,"4162 LAUREL OAK CIR, TALLAHASSEE, FL, 32311","Match","Exact","4162 LAUREL OAK CIR, TALLAHASSEE, FL, 32311",82861473,"R"
205939,"4162 N 2ND ST","KALAMAZOO","MI",49009,42.3255598150001,-85.7452491609999,439,"4162 N 2ND ST, KALAMAZOO, MI, 49009","Match","Exact","4162 N 2ND ST, KALAMAZOO, MI, 49009",12256435,"R"
205940,"4162 PARKSIDE AVENUE","PHILADELPHIA","PA",19104,39.9754460780001,-75.207166966,440,"4162 PARKSIDE AVENUE, PHILADELPHIA, PA, 19104","Match","Exact","4162 PARKSIDE AVE, PHILADELPHIA, PA, 19104",131402952,"L"
205941,"4163 2ND AVE N","ST PETERSBURG","FL",33713,27.7728082990001,-82.689755452,441,"4163 2ND AVE N, ST PETERSBURG, FL, 33713","Match","Exact","4163 2ND AVE N, SAINT PETERSBURG, FL, 33713",124700859,"R"
205942,"4163 CEDAR ST","RIVERSIDE","CA",92501,33.9817118330001,-117.38380316,442,"4163 CEDAR ST, RIVERSIDE, CA, 92501","Match","Exact","4163 CEDAR ST, RIVERSIDE, CA, 92501",194741306,"R"
205943,"4163 MAYFAIR WAY","LAKELAND","FL",33812,27.9597459870001,-81.8800128089999,443,"4163 MAYFAIR WAY, LAKELAND, FL, 33812","Match","Exact","4163 MAYFAIR WAY, LAKELAND, FL, 33812",614468362,"L"
205944,"4163 MOONBEAM WAY","SNELLVILLE","GA",30039,33.806399093,-84.054049549,444,"4163 MOONBEAM WAY, SNELLVILLE, GA, 30039","Match","Exact","4163 MOONBEAM WAY, SNELLVILLE, GA, 30039",624250753,"R"
205945,"4163 OLD HWY NORTHPORT RD","NORTHPORT","WA",99157,48.908158357,-117.786581441,445,"4163 OLD HWY NORTHPORT RD, NORTHPORT, WA, 99157","Match","Exact","4163 OLD HWY NORTHPORT RD, NORTHPORT, WA, 99157",645043824,"L"
205946,"4163 OLEATHA","ST. LOUIS","MO",63116,38.5943196700001,-90.2583825949999,446,"4163 OLEATHA, ST. LOUIS, MO, 63116","Match","Non_Exact","4163 OLEATHA AVE, SAINT LOUIS, MO, 63116",645623161,"R"
205947,"4163 S ZENOBIA STREET","DENVER","CO",80236,39.6415847440001,-105.051359652,447,"4163 S ZENOBIA STREET, DENVER, CO, 80236","Match","Exact","4163 S ZENOBIA ST, DENVER, CO, 80236",177329099,"R"
205948,"4163 WATOVA AVE","NORTH PORT","FL",34286,27.0709081370001,-82.1987128649999,448,"4163 WATOVA AVE, NORTH PORT, FL, 34286","Match","Exact","4163 WATOVA AVE, NORTH PORT, FL, 34286",16339654,"L"
205949,"41630 SUNSET HWY RD E","DAVENPORT","WA",99122,NA,NA,449,"41630 SUNSET HWY RD E, DAVENPORT, WA, 99122","No_Match",NA,NA,NA,NA
205950,"41633 GORE ST","INDIO","CA",92203,NA,NA,450,"41633 GORE ST, INDIO, CA, 92203","No_Match",NA,NA,NA,NA
205951,"41635 CHATTMAN","NOVI","MI",48375,42.4593612480001,-83.4577281369999,451,"41635 CHATTMAN, NOVI, MI, 48375","Match","Non_Exact","41635 CHATTMAN ST, NOVI, MI, 48375",69719897,"L"
205952,"41635 JOYCE AVENUE","FREMONT","CA",94539,37.5377148360001,-121.946529638,452,"41635 JOYCE AVENUE, FREMONT, CA, 94539","Match","Exact","41635 JOYCE AVE, FREMONT, CA, 94539",125033403,"R"
205953,"4164 124TH AVE SE APT 304","BELLEVUE","WA",98006,47.5709568250001,-122.174457346,453,"4164 124TH AVE SE APT 304, BELLEVUE, WA, 98006","Match","Exact","4164 124TH AVE SE, BELLEVUE, WA, 98006",615054190,"R"
205954,"4164 AUSTIN BLUFFS PKWY APT 168","COLORADO SPRINGS","CO",80918,38.892382968,-104.753371675,454,"4164 AUSTIN BLUFFS PKWY APT 168, COLORADO SPRINGS, CO, 80918","Match","Exact","4164 AUSTIN BLUFFS PKWY, COLORADO SPRINGS, CO, 80918",105571749,"L"
205955,"4164 AUSTIN BLUFFS PKWY STE 168","COLORADO SPRINGS","CO",80918,38.892382968,-104.753371675,455,"4164 AUSTIN BLUFFS PKWY STE 168, COLORADO SPRINGS, CO, 80918","Match","Exact","4164 AUSTIN BLUFFS PKWY, COLORADO SPRINGS, CO, 80918",105571749,"L"
205956,"4164 AUSTIN BLUFFS PKY STE 237","COLORADO SPRINGS","CO",80918,38.892382968,-104.753371675,456,"4164 AUSTIN BLUFFS PKY STE 237, COLORADO SPRINGS, CO, 80918","Match","Exact","4164 AUSTIN BLUFFS PKWY, COLORADO SPRINGS, CO, 80918",105571749,"L"
205957,"4164 E MELODY DR","GILBERT","AZ",85234,33.3757819470001,-111.70186266,457,"4164 E MELODY DR, GILBERT, AZ, 85234","Match","Exact","4164 E MELODY DR, GILBERT, AZ, 85234",640591521,"L"
205958,"4164 HORIZON COURT","TURLOCK","CA",95382,37.5310493750001,-120.860439099,458,"4164 HORIZON COURT, TURLOCK, CA, 95382","Match","Exact","4164 HORIZON CT, TURLOCK, CA, 95382",102613838,"R"
205959,"4164 KENTUCKY RIVER PARKWAY","LEXINGTON","KY",40515,37.8543148410001,-84.377841851,459,"4164 KENTUCKY RIVER PARKWAY, LEXINGTON, KY, 40515","Match","Exact","4164 KENTUCKY RIVER PKWY, LEXINGTON, KY, 40515",31941461,"L"
205960,"4164 LONG RUN RD","ATHENS","OH",45701,39.253547928,-82.027051015,460,"4164 LONG RUN RD, ATHENS, OH, 45701","Match","Exact","4164 LONG RUN RD, ATHENS, OH, 45701",37114454,"R"
205961,"4164 N CECELIA","FRESNO","CA",93722,36.796604798,-119.873638531,461,"4164 N CECELIA, FRESNO, CA, 93722","Match","Non_Exact","4164 N CECELIA AVE, FRESNO, CA, 93722",197565892,"R"
205962,"4164 VIA NORTE","CYPRESS","CA",90630,33.8236981000001,-118.059772855,462,"4164 VIA NORTE, CYPRESS, CA, 90630","Match","Exact","4164 VIA NORTE, CYPRESS, CA, 90630",143998867,"R"
205963,"4164 VIRGINIA BEACH BLVD NUM 100","VIRGINIA BEACH","VA",23452,36.8433225300001,-76.118305657,463,"4164 VIRGINIA BEACH BLVD NUM 100, VIRGINIA BEACH, VA, 23452","Match","Exact","4164 VIRGINIA BEACH BLVD, VA BCH, VA, 23452",647223231,"R"
205964,"41640 CORNING PLACE","MURRIETA","CA",92562,33.530786764,-117.181753488,464,"41640 CORNING PLACE, MURRIETA, CA, 92562","Match","Exact","41640 CORNING PL, MURRIETA, CA, 92562",194842984,"L"
205965,"41641 NORTH RIDGE ROAD SUITE E","CLEVELAND","OH",44035,NA,NA,465,"41641 NORTH RIDGE ROAD SUITE E, CLEVELAND, OH, 44035","No_Match",NA,NA,NA,NA
205966,"41646 ROAD 62","REEDLEY","CA",93654,36.547788203,-119.434986963,466,"41646 ROAD 62, REEDLEY, CA, 93654","Match","Exact","41646 RD 62, REEDLEY, CA, 93654",607536124,"R"
205967,"4165 CIMARRON WAY 1024","DENVER","CO",80014,39.6408556050001,-104.821522041,467,"4165 CIMARRON WAY 1024, DENVER, CO, 80014","Match","Non_Exact","4165 S CIMARRON WAY, DENVER, CO, 80014",640595968,"L"
205968,"4165 DROP TINE CT","RENO","NV",89511,39.426768365,-119.833333424,468,"4165 DROP TINE CT, RENO, NV, 89511","Match","Non_Exact","4165 DROP TIME CT, RENO, NV, 89511",619765483,"R"
205969,"4165 E BUCHANAN DRIVE","COLUMBIA","SC",29206,34.012068174,-80.981021895,469,"4165 E BUCHANAN DRIVE, COLUMBIA, SC, 29206","Match","Exact","4165 E BUCHANAN DR, COLUMBIA, SC, 29206",71824530,"L"
205970,"4165 E THOUSAND OAKS BLVD SUITE 150","WESTLAKE VILLAGE","CA",91362,NA,NA,470,"4165 E THOUSAND OAKS BLVD SUITE 150, WESTLAKE VILLAGE, CA, 91362","No_Match",NA,NA,NA,NA
205971,"4165 LUTHER WARD ROAD","POWDER SPRINGS","GA",30127,33.927217629,-84.6743065329999,471,"4165 LUTHER WARD ROAD, POWDER SPRINGS, GA, 30127","Match","Exact","4165 LUTHER WARD RD, POWDER SPGS, GA, 30127",17216743,"L"
205972,"4165 MONROE AVE APT 4","SAN DIEGO","CA",92116,32.75884876,-117.105634906,472,"4165 MONROE AVE APT 4, SAN DIEGO, CA, 92116","Match","Exact","4165 MONROE AVE, SAN DIEGO, CA, 92116",612872610,"R"
205973,"4165 NORVELL ROAD","GRASS LAKE","MI",49240,42.2024858790001,-84.1911553579999,473,"4165 NORVELL ROAD, GRASS LAKE, MI, 49240","Match","Exact","4165 NORVELL RD, GRASS LAKE, MI, 49240",17612602,"L"
205974,"4165 POST OFFICE BOX","FLORENCE","SC",29502,NA,NA,474,"4165 POST OFFICE BOX, FLORENCE, SC, 29502","No_Match",NA,NA,NA,NA
205975,"4165 STAATZ DRIVE","YOUNGSTOWN","OH",44511,41.0743206180001,-80.724388832,475,"4165 STAATZ DRIVE, YOUNGSTOWN, OH, 44511","Match","Exact","4165 STAATZ DR, YOUNGSTOWN, OH, 44511",64592211,"L"
205976,"41651 FAWN WALK COURT","ASHBURN","VA",20148,38.953750932,-77.5614932679999,476,"41651 FAWN WALK COURT, ASHBURN, VA, 20148","Match","Exact","41651 FAWN WALK CT, ASHBURN, VA, 20148",645696405,"L"
205977,"416518 EDGEWATER","CHECOTAH","OK",74426,35.4458812190001,-95.599704619,477,"416518 EDGEWATER, CHECOTAH, OK, 74426","Match","Non_Exact","416518 EDGEWATER DR, CHECOTAH, OK, 74426",106220170,"L"
205978,"41655 N KENWORTHY RD","SAN TAN VALLEY","AZ",85140,33.2574583260001,-111.545952725,478,"41655 N KENWORTHY RD, SAN TAN VALLEY, AZ, 85140","Match","Exact","41655 N KENWORTHY RD, SAN TAN VALLEY, AZ, 85140",129319667,"L"
205979,"4166 21ST STREET","DORR","MI",49323,42.722874629,-85.7517918519999,479,"4166 21ST STREET, DORR, MI, 49323","Match","Exact","4166 21ST ST, DORR, MI, 49323",637397212,"L"
205980,"4166 BLUEBIRD DRIVE","WALDORF","MD",20603,NA,NA,480,"4166 BLUEBIRD DRIVE, WALDORF, MD, 20603","No_Match",NA,NA,NA,NA
205981,"4166 FALLING CREEK DRIVE","VINTON","VA",24179,37.299179786,-79.8544055249999,481,"4166 FALLING CREEK DRIVE, VINTON, VA, 24179","Match","Exact","4166 FALLING CREEK DR, VINTON, VA, 24179",62912167,"L"
205982,"4166 MATTERHORN ST","MONTGOMERY","AL",36116,32.3001592740001,-86.249851058,482,"4166 MATTERHORN ST, MONTGOMERY, AL, 36116","Match","Exact","4166 MATTERHORN ST, MONTGOMERY, AL, 36116",1477383,"R"
205983,"4166 MT LAUREL RD","WILLIAMSBURG","VA",23188,37.403458476,-76.7720020359999,483,"4166 MT LAUREL RD, WILLIAMSBURG, VA, 23188","Match","Exact","4166 MOUNT LAUREL RD, WILLIAMSBURG, VA, 23188",103781129,"R"
205984,"41660 TIMBERWOOD AVE UNIT 1","MURRIETA","CA",92562,33.55054534,-117.20265659,484,"41660 TIMBERWOOD AVE UNIT 1, MURRIETA, CA, 92562","Match","Exact","41660 TIMBERWOOD AVE, MURRIETA, CA, 92562",636764424,"R"
205985,"41661 230TH ST","LANESBORO","MN",55969,43.6882707600001,-91.8174477749999,485,"41661 230TH ST, LANESBORO, MN, 55969","Match","Non_Exact","41661 230TH ST, LANESBORO, MN, 55949",608271676,"R"
205986,"41661 ENTERPRISE CIR N STE 125","TEMECULA","CA",92590,33.5200805760001,-117.168710048,486,"41661 ENTERPRISE CIR N STE 125, TEMECULA, CA, 92590","Match","Exact","41661 ENTERPRISE CIR N, TEMECULA, CA, 92590",195081248,"R"
205987,"4167 54TH STREET 3FL","WOODSIDE","NY",11377,NA,NA,487,"4167 54TH STREET 3FL, WOODSIDE, NY, 11377","No_Match",NA,NA,NA,NA
205988,"4167 LAC ST PIERRE","HARVEY","LA",70058,29.846578451,-90.043421044,488,"4167 LAC ST PIERRE, HARVEY, LA, 70058","Match","Non_Exact","4167 LAC ST PIERRE DR, HARVEY, LA, 70058",93544432,"R"
205989,"4167 QUAIL SPRINGS CT","MARTINEZ","GA",30907,33.503376304,-82.108723325,489,"4167 QUAIL SPRINGS CT, MARTINEZ, GA, 30907","Match","Non_Exact","4167 QUAIL SPRINGS CIR, MARTINEZ, GA, 30907",55383833,"R"
205990,"4167 WALNUT CIR","FLOWERY BRANCH","GA",30542,34.2003063770001,-83.860543443,490,"4167 WALNUT CIR, FLOWERY BRANCH, GA, 30542","Match","Exact","4167 WALNUT CIR, FLOWERY BR, GA, 30542",98282872,"L"
205991,"41675 BROAD OAK ST","MURRIETA","CA",92562,33.567079606,-117.221685747,491,"41675 BROAD OAK ST, MURRIETA, CA, 92562","Match","Exact","41675 BROAD OAK ST, MURRIETA, CA, 92562",608994371,"R"
205992,"4168 AVENIDA DE LA PLATA    STE 111","OCEANSIDE","CA",92056,NA,NA,492,"4168 AVENIDA DE LA PLATA    STE 111, OCEANSIDE, CA, 92056","No_Match",NA,NA,NA,NA
205993,"4168 BLAKE CIR","STOCKTON","CA",95206,37.9059261630001,-121.29213961,493,"4168 BLAKE CIR, STOCKTON, CA, 95206","Match","Exact","4168 BLAKE CIR, STOCKTON, CA, 95206",133928622,"L"
205994,"4168 CHARLENE DRICE","LOS ANGELES","CA",90008,NA,NA,494,"4168 CHARLENE DRICE, LOS ANGELES, CA, 90008","No_Match",NA,NA,NA,NA
205995,"4168 CORYDON AVENUE","NORTH PORT","FL",34286,27.080627613,-82.197514126,495,"4168 CORYDON AVENUE, NORTH PORT, FL, 34286","Match","Exact","4168 CORYDON AVE, NORTH PORT, FL, 34286",16339403,"R"
205996,"4168 S 199TH CIR","OMAHA","NE",68135,41.218514032,-96.226578514,496,"4168 S 199TH CIR, OMAHA, NE, 68135","Match","Exact","4168 S 199TH CIR, OMAHA, NE, 68135",624333685,"L"
205997,"4168 S DREXEL BLVD 2A","CHICAGO","IL",60653,41.818454719,-87.604715589,497,"4168 S DREXEL BLVD 2A, CHICAGO, IL, 60653","Match","Non_Exact","4168 S DREXEL BLVD, CHICAGO, IL, 60653",111770826,"R"
205998,"41680 FLATHEAD VIEW DRIVE","POLSON","MT",59860,47.732961577,-114.236146895,498,"41680 FLATHEAD VIEW DRIVE, POLSON, MT, 59860","Match","Exact","41680 FLATHEAD VIEW DR, POLSON, MT, 59860",206928708,"R"
205999,"41687 JOYCE AVE","FREMONT","CA",94539,37.537641319,-121.94615676,499,"41687 JOYCE AVE, FREMONT, CA, 94539","Match","Exact","41687 JOYCE AVE, FREMONT, CA, 94539",125033403,"R"
206000,"4169 2ND AVE","LOS ANGELES","CA",90008,34.0083083820001,-118.319281537,500,"4169 2ND AVE, LOS ANGELES, CA, 90008","Match","Exact","4169 2ND AVE, LOS ANGELES, CA, 90008",141606364,"R"
