"ID","Address","City","State","Zip","lat","long","id","input_address","match_indicator","match_type","matched_address","tiger_line_id","tiger_side"
212001,"4330 NORTHERN AVE","KANSAS","MO",64133,39.042368432,-94.452773257,1,"4330 NORTHERN AVE, KANSAS, MO, 64133","Match","Non_Exact","4330 NORTHERN AVE, KANSAS CITY, MO, 64133",91505657,"R"
212002,"4330 NW 173RD DRIVE 1A","MIAMI GARDENS","FL",33055,25.931707051,-80.272293088,2,"4330 NW 173RD DRIVE 1A, MIAMI GARDENS, FL, 33055","Match","Non_Exact","4330 NW 173RD DR, MIAMI GARDENS, FL, 33055",116027169,"L"
212003,"4330 NW 173RD DRIVE","MIAMI GARDENS","FL",33055,25.931707051,-80.272293088,3,"4330 NW 173RD DRIVE, MIAMI GARDENS, FL, 33055","Match","Exact","4330 NW 173RD DR, MIAMI GARDENS, FL, 33055",116027169,"L"
212004,"4330 PASADENA AVENUE","SACRAMENTO","CA",95821,38.638322358,-121.362726157,4,"4330 PASADENA AVENUE, SACRAMENTO, CA, 95821","Match","Exact","4330 PASADENA AVE, SACRAMENTO, CA, 95821",133333776,"R"
212005,"4330 PINE ISLAND RD","MATLACHA","FL",33993,26.635008342,-82.065595269,5,"4330 PINE ISLAND RD, MATLACHA, FL, 33993","Match","Non_Exact","4330 PINE ISLAND RD NW, MATLACHA, FL, 33993",649125703,"L"
212006,"4330 PLUMERIA AVE","BAYTOWN","TX",77521,29.8174068340001,-94.9950595339999,6,"4330 PLUMERIA AVE, BAYTOWN, TX, 77521","Match","Exact","4330 PLUMERIA AVE, BAYTOWN, TX, 77521",600573557,"R"
212007,"4330 POND RD","BURLINGTON","NC",27215,36.0289546120001,-79.530267155,7,"4330 POND RD, BURLINGTON, NC, 27215","Match","Exact","4330 POND RD, BURLINGTON, NC, 27215",71681380,"R"
212008,"4330 REDWOOD HIGHWAY - SUITE 350","SAN RAFAEL","CA",94903,38.0138672940001,-122.541342042,8,"4330 REDWOOD HIGHWAY - SUITE 350, SAN RAFAEL, CA, 94903","Match","Exact","4330 REDWOOD HWY, SAN RAFAEL, CA, 94903",648488925,"R"
212009,"4330 REEVES CT","DAYTON","OH",45415,39.843183319,-84.291303188,9,"4330 REEVES CT, DAYTON, OH, 45415","Match","Exact","4330 REEVES CT, DAYTON, OH, 45415",143561793,"L"
212010,"4330 ROBERTS AVE","ANNANDALE","VA",22003,38.829307036,-77.1785643219999,10,"4330 ROBERTS AVE, ANNANDALE, VA, 22003","Match","Exact","4330 ROBERTS AVE, ANNANDALE, VA, 22003",76059768,"R"
212011,"4330 ROCK COVE DR","HOFFMAN ESTATES","IL",60192,42.102059345,-88.111825011,11,"4330 ROCK COVE DR, HOFFMAN ESTATES, IL, 60192","Match","Exact","4330 ROCK COVE DR, HOFFMAN EST, IL, 60192",111690050,"L"
212012,"4330 SE STALLINGS DRIVE","NACOGDOCHES","TX",75961,31.5839119660001,-94.6222386329999,12,"4330 SE STALLINGS DRIVE, NACOGDOCHES, TX, 75961","Match","Exact","4330 SE STALLINGS DR, NACOGDOCHES, TX, 75961",72438022,"R"
212013,"4330 W DESERT INN RD STE N","LAS VEGAS","NV",89102,36.130051354,-115.197632078,13,"4330 W DESERT INN RD STE N, LAS VEGAS, NV, 89102","Match","Non_Exact","4330 W DESERT INN RD, LAS VEGAS, NV, 89102",201869337,"R"
212014,"4330 W TOMPKINS AVE","LAS VEGAS","NV",89103,36.1045491840001,-115.197985965,14,"4330 W TOMPKINS AVE, LAS VEGAS, NV, 89103","Match","Exact","4330 W TOMPKINS AVE, LAS VEGAS, NV, 89103",201965175,"R"
212015,"4330 WEST 28TH STREET","ST LOUIS PARK","MN",55416,44.952075139,-93.334350311,15,"4330 WEST 28TH STREET, ST LOUIS PARK, MN, 55416","Match","Exact","4330 W 28TH ST, SAINT LOUIS PARK, MN, 55416",43833744,"R"
212016,"43300 W WILD HORSE TRL","MARICOPA","AZ",85138,33.055815775,-112.032995459,16,"43300 W WILD HORSE TRL, MARICOPA, AZ, 85138","Match","Exact","43300 W WILD HORSE TRL, MARICOPA, AZ, 85138",606153716,"R"
212017,"43300-116 SOUTHERN WALK PLAZA","BROADLANDS","VA",20148,39.008409752,-77.5043397009999,17,"43300-116 SOUTHERN WALK PLAZA, BROADLANDS, VA, 20148","Match","Exact","43300 SOUTHERN WALK PLZ, BROADLANDS, VA, 20148",635459443,"R"
212018,"43301 HAGEN COURT","SOUTH RIDING","VA",20152,38.898185536,-77.505430976,18,"43301 HAGEN COURT, SOUTH RIDING, VA, 20152","Match","Exact","43301 HAGEN CT, SOUTH RIDING, VA, 20152",62341404,"R"
212019,"43308 OLD RYAN ROAD","ASHBURN","VA",20148,39.0004359260001,-77.50227143,19,"43308 OLD RYAN ROAD, ASHBURN, VA, 20148","Match","Exact","43308 OLD RYAN RD, ASHBURN, VA, 20148",651426093,"L"
212020,"4331 ALYSHEBA DRIVE","FAIRBURN","GA",30213,33.637089997,-84.6315675289999,20,"4331 ALYSHEBA DRIVE, FAIRBURN, GA, 30213","Match","Exact","4331 ALYSHEBA DR, FAIRBURN, GA, 30213",653490829,"R"
212021,"4331 BRIGHTON AVENUE","LOS ANGELES","CA",90062,34.0048002780001,-118.30126599,21,"4331 BRIGHTON AVENUE, LOS ANGELES, CA, 90062","Match","Exact","4331 BRIGHTON AVE, LOS ANGELES, CA, 90062",141606723,"R"
212022,"4331 COUNTY ROAD B","LAND O LAKES","WI",54540,NA,NA,22,"4331 COUNTY ROAD B, LAND O LAKES, WI, 54540","No_Match",NA,NA,NA,NA
212023,"4331 E PROSPER TRAIL","PROSPER","TX",75078,33.2476491470001,-96.733666749,23,"4331 E PROSPER TRAIL, PROSPER, TX, 75078","Match","Exact","4331 E PROSPER TRL, PROSPER, TX, 75078",618764306,"L"
212024,"4331 GALLATIN STREET SUITE 201","HYATTSVILLE","MD",20781,38.952611731,-76.94242059,24,"4331 GALLATIN STREET SUITE 201, HYATTSVILLE, MD, 20781","Match","Exact","4331 GALLATIN ST, HYATTSVILLE, MD, 20781",638958763,"R"
212025,"4331 GOLDEN GATE WAY","DUMFRIES","VA",22025,38.572346214,-77.3388079759999,25,"4331 GOLDEN GATE WAY, DUMFRIES, VA, 22025","Match","Exact","4331 GOLDEN GATE WAY, DUMFRIES, VA, 22025",614162110,"R"
212026,"4331 HAMILTON AVENUE","BALTIMORE","MD",21206,39.3406232670001,-76.543521197,26,"4331 HAMILTON AVENUE, BALTIMORE, MD, 21206","Match","Exact","4331 HAMILTON AVE, BALTIMORE, MD, 21206",206457203,"R"
212027,"4331 HIGHLAND PARK DRIVE","MERIDIAN","MS",39307,32.3738890980001,-88.719487264,27,"4331 HIGHLAND PARK DRIVE, MERIDIAN, MS, 39307","Match","Exact","4331 HIGHLAND PARK DR, MERIDIAN, MS, 39307",194641,"L"
212028,"4331 LAKE WASHINGTON BLVD NE - 7101","KIRKLAND","WA",98033,47.64768696,-122.203005581,28,"4331 LAKE WASHINGTON BLVD NE - 7101, KIRKLAND, WA, 98033","Match","Exact","4331 LAKE WASHINGTON BLVD NE, KIRKLAND, WA, 98033",634327299,"L"
212029,"4331 LAMBING RD","JACKSONVILLE","FL",32210,30.261103388,-81.7960432679999,29,"4331 LAMBING RD, JACKSONVILLE, FL, 32210","Match","Exact","4331 LAMBING RD, JACKSONVILLE, FL, 32210",83944875,"L"
212030,"4331 LYON DR","COLUMBUS","OH",43220,40.045779639,-83.063201512,30,"4331 LYON DR, COLUMBUS, OH, 43220","Match","Exact","4331 LYON DR, COLUMBUS, OH, 43220",218693154,"L"
212031,"4331 NW 10TH COURT APARTMENT Q110","PLANTATION","FL",33313,26.1369191480001,-80.2079723849999,31,"4331 NW 10TH COURT APARTMENT Q110, PLANTATION, FL, 33313","Match","Non_Exact","4331 NW 10TH CT, PLANTATION, FL, 33313",114708649,"R"
212032,"4331 OLD HICKORY BLVD STE D","OLD HICKORY","TN",37138,36.2174046110001,-86.6237289809999,32,"4331 OLD HICKORY BLVD STE D, OLD HICKORY, TN, 37138","Match","Non_Exact","4331 OLD HICKORY BLVD, OLD HICKORY, TN, 37138",97199067,"R"
212033,"4331 PARALLEL PKWY","KANSAS CITY","KS",66104,39.1285176850001,-94.680895004,33,"4331 PARALLEL PKWY, KANSAS CITY, KS, 66104","Match","Exact","4331 PARALLEL PKWY, KANSAS CITY, KS, 66104",91134424,"L"
212034,"4331 RIVER ROAD","ELLENWOOD","GA",30294,33.655200349,-84.225177141,34,"4331 RIVER ROAD, ELLENWOOD, GA, 30294","Match","Exact","4331 RIVER RD, ELLENWOOD, GA, 30294",23388619,"R"
212035,"4331 SETTLER CT","RENO","NV",89502,39.4808919860001,-119.757263609,35,"4331 SETTLER CT, RENO, NV, 89502","Match","Exact","4331 SETTLER CT, RENO, NV, 89502",107053370,"R"
212036,"4331 WOODMANS CHART","SARASOTA","FL",34235,27.354405469,-82.481478448,36,"4331 WOODMANS CHART, SARASOTA, FL, 34235","Match","Exact","4331 WOODMANS CHART, SARASOTA, FL, 34235",16350718,"L"
212037,"43311 JOY ROAD NO 277","CANTON","MI",48187,42.3515121080001,-83.4680795519999,37,"43311 JOY ROAD NO 277, CANTON, MI, 48187","Match","Non_Exact","43311 JOY RD, CANTON, MI, 48187",95408540,"L"
212038,"43315 BEAR LAKE BLVD","DELAND","FL",32720,28.9786321450001,-81.4337989369999,38,"43315 BEAR LAKE BLVD, DELAND, FL, 32720","Match","Exact","43315 BEAR LAKE BLVD, DELAND, FL, 32720",94146392,"L"
212039,"43319 MISSION BLVD","FREMONT","CA",94539,37.5330604640001,-121.920050428,39,"43319 MISSION BLVD, FREMONT, CA, 94539","Match","Exact","43319 MISSION BLVD, FREMONT, CA, 94539",606207163,"R"
212040,"4332 BROOKSIDE AVE","ST LOUIS PARK","MN",55436,44.922139825,-93.3543072149999,40,"4332 BROOKSIDE AVE, ST LOUIS PARK, MN, 55436","Match","Exact","4332 BROOKSIDE AVE, SAINT LOUIS PARK, MN, 55436",43734991,"R"
212041,"4332 CRESTVIEW RD","HARRISBURG","PA",17112,40.328117552,-76.8200823189999,41,"4332 CRESTVIEW RD, HARRISBURG, PA, 17112","Match","Exact","4332 CRESTVIEW RD, HARRISBURG, PA, 17112",70820241,"L"
212042,"4332 GRANDPOINTE PLACE","PENSACOLA","FL",32514,30.5055818750001,-87.167660294,42,"4332 GRANDPOINTE PLACE, PENSACOLA, FL, 32514","Match","Exact","4332 GRANDPOINTE PL, PENSACOLA, FL, 32514",93273404,"L"
212043,"4332 HILLINGDON BND- 102","CHESAPEAKE","VA",23321,NA,NA,43,"4332 HILLINGDON BND- 102, CHESAPEAKE, VA, 23321","No_Match",NA,NA,NA,NA
212044,"4332 KENILWOOD DRIVE","NASHVILLE","TN",37204,36.0942270050001,-86.762051193,44,"4332 KENILWOOD DRIVE, NASHVILLE, TN, 37204","Match","Exact","4332 KENILWOOD DR, NASHVILLE, TN, 37204",97193161,"R"
212045,"4332 N TALMADGE DR","SAN DIEGO","CA",92116,32.7639688850001,-117.100776383,45,"4332 N TALMADGE DR, SAN DIEGO, CA, 92116","Match","Exact","4332 N TALMADGE DR, SAN DIEGO, CA, 92116",195346915,"L"
212046,"4332 NORTH DAYTON STREET APT 3","CHICAGO","IL",60613,41.961139846,-87.6511679069999,46,"4332 NORTH DAYTON STREET APT 3, CHICAGO, IL, 60613","Match","Exact","4332 N DAYTON ST, CHICAGO, IL, 60613",111766483,"R"
212047,"4332 NORTH KEDZIE","CHICAGO","IL",60619,NA,NA,47,"4332 NORTH KEDZIE, CHICAGO, IL, 60619","No_Match",NA,NA,NA,NA
212048,"4332 NW 17 AVENEU","MIAMI","FL",33142,NA,NA,48,"4332 NW 17 AVENEU, MIAMI, FL, 33142","No_Match",NA,NA,NA,NA
212049,"4332 PACIFIC AVE 23","STOCKTON","CA",95207,37.9867714470001,-121.310881251,49,"4332 PACIFIC AVE 23, STOCKTON, CA, 95207","Match","Exact","4332 PACIFIC AVE, STOCKTON, CA, 95207",133847924,"R"
212050,"4332 PERLITA ST","NEW ORLEANS","LA",70122,30.0014641550001,-90.0759552219999,50,"4332 PERLITA ST, NEW ORLEANS, LA, 70122","Match","Exact","4332 PERLITA ST, NEW ORLEANS, LA, 70122",191708389,"L"
212051,"4332 RANCHO CENTRO NORTHWEST","ALBUQUERQUE","NM",87120,35.176453726,-106.684841499,51,"4332 RANCHO CENTRO NORTHWEST, ALBUQUERQUE, NM, 87120","Match","Exact","4332 RANCHO CENTRO NW, ALBUQUERQUE, NM, 87120",206744352,"R"
212052,"4332 RIVER BLUFF TERRACE","GREENSBORO","NC",27409,36.046821503,-79.9401587469999,52,"4332 RIVER BLUFF TERRACE, GREENSBORO, NC, 27409","Match","Exact","4332 RIVER BLUFF TER, GREENSBORO, NC, 27409",131115433,"R"
212053,"4332 W COTTON ST","FARMVILLE","NC",27828,35.5955097,-77.590411226,53,"4332 W COTTON ST, FARMVILLE, NC, 27828","Match","Exact","4332 W COTTON ST, FARMVILLE, NC, 27828",80008041,"R"
212054,"4332 W NORTHGATE DR APT 280","IRVING","TX",75062,32.8569661020001,-97.0108442979999,54,"4332 W NORTHGATE DR APT 280, IRVING, TX, 75062","Match","Non_Exact","4332 W NORTHGATE DR, IRVING, TX, 75062",102993955,"L"
212055,"43320 TEXAS AVE","PALM DESERT","CA",92211,33.7339232240001,-116.313444323,55,"43320 TEXAS AVE, PALM DESERT, CA, 92211","Match","Exact","43320 TEXAS AVE, PALM DESERT, CA, 92211",194772516,"L"
212056,"43323 HIGHWAY 17","JACHIN","AL",36910,32.2595953520001,-88.16657636,56,"43323 HIGHWAY 17, JACHIN, AL, 36910","Match","Non_Exact","43323 STATE RTE 17, JACHIN, AL, 36910",111485,"L"
212057,"43325 WEST ARIZONA AVENUE","MARICOPA","AZ",85138,33.0550300400001,-112.033246678,57,"43325 WEST ARIZONA AVENUE, MARICOPA, AZ, 85138","Match","Exact","43325 W ARIZONA AVE, MARICOPA, AZ, 85138",606166407,"R"
212058,"4333 APPIAN WAY WEST APT C","COLUMBUS","OH",43230,NA,NA,58,"4333 APPIAN WAY WEST APT C, COLUMBUS, OH, 43230","No_Match",NA,NA,NA,NA
212059,"4333 BELL RD UNIT 1401","NEWBURGH","IN",47630,37.9706494100001,-87.4048715229999,59,"4333 BELL RD UNIT 1401, NEWBURGH, IN, 47630","Match","Exact","4333 BELL RD, NEWBURGH, IN, 47630",32219819,"R"
212060,"4333 BENTON ELM DRIVE","PLANO","TX",75024,33.0989982460001,-96.7772420429999,60,"4333 BENTON ELM DRIVE, PLANO, TX, 75024","Match","Exact","4333 BENTON ELM DR, PLANO, TX, 75024",123547772,"L"
212061,"4333 BOWSER AVE UNIT 4","DALLAS","TX",75219,32.8179919410001,-96.810803693,61,"4333 BOWSER AVE UNIT 4, DALLAS, TX, 75219","Match","Exact","4333 BOWSER AVE, DALLAS, TX, 75219",102908459,"L"
212062,"4333 CATHERINE STREET","PANAMA CITY BEACH","FL",32408,30.1573416740001,-85.726859447,62,"4333 CATHERINE STREET, PANAMA CITY BEACH, FL, 32408","Match","Exact","4333 CATHERINE ST, PANAMA CITY BEACH, FL, 32408",7026399,"R"
212063,"4333 E DRY CREEK ROAD","PHOENIX","AZ",85044,33.3154843300001,-111.990375906,63,"4333 E DRY CREEK ROAD, PHOENIX, AZ, 85044","Match","Exact","4333 E DRY CREEK RD, PHOENIX, AZ, 85044",128269400,"R"
212064,"4333 FRY RD","OSTRANDER","OH",43061,40.257876502,-83.163694965,64,"4333 FRY RD, OSTRANDER, OH, 43061","Match","Exact","4333 FRY RD, OSTRANDER, OH, 43061",24584210,"L"
212065,"4333 GADWALL PL","VIRGINIA BEACH","VA",23462,36.8141982080001,-76.1234073209999,65,"4333 GADWALL PL, VIRGINIA BEACH, VA, 23462","Match","Exact","4333 GADWALL PL, VA BCH, VA, 23462",122266243,"L"
212066,"4333 GANNON LN STE 111","DALLAS","TX",75237,32.6564104720001,-96.8896427769999,66,"4333 GANNON LN STE 111, DALLAS, TX, 75237","Match","Exact","4333 GANNON LN, DALLAS, TX, 75237",103190364,"L"
212067,"4333 HATHAWAY ST APT E","CHARLOTTE","NC",28211,35.185482802,-80.789902097,67,"4333 HATHAWAY ST APT E, CHARLOTTE, NC, 28211","Match","Exact","4333 HATHAWAY ST, CHARLOTTE, NC, 28211",70491804,"L"
212068,"4333 LIME KILN ROAD","OREFIELD","PA",18069,40.629540542,-75.57495489,68,"4333 LIME KILN ROAD, OREFIELD, PA, 18069","Match","Exact","4333 LIME KILN RD, OREFIELD, PA, 18069",80756095,"L"
212069,"4333 RADCLIFFE CT","ADRIAN","MI",49221,41.953122663,-83.973036043,69,"4333 RADCLIFFE CT, ADRIAN, MI, 49221","Match","Exact","4333 RADCLIFFE CT, ADRIAN, MI, 49221",25948377,"L"
212070,"4333 ROSEBUD CIRCLE","LAS VEGAS","NV",89108,36.1948070440001,-115.199608696,70,"4333 ROSEBUD CIRCLE, LAS VEGAS, NV, 89108","Match","Exact","4333 ROSEBUD CIR, LAS VEGAS, NV, 89108",201864055,"L"
212071,"4333 S SUNNYSLOPE RD","NEW BERLIN","WI",53151,42.9653657100001,-88.0889971,71,"4333 S SUNNYSLOPE RD, NEW BERLIN, WI, 53151","Match","Exact","4333 S SUNNYSLOPE RD, NEW BERLIN, WI, 53151",651682833,"R"
212072,"4333 S SUNNYSLOPE ROAD","NEW BERLIN","WI",53151,42.9653657100001,-88.0889971,72,"4333 S SUNNYSLOPE ROAD, NEW BERLIN, WI, 53151","Match","Exact","4333 S SUNNYSLOPE RD, NEW BERLIN, WI, 53151",651682833,"R"
212073,"4333 SNOWDEN AVENUE","LAKEWOOD","CA",90713,33.836776172,-118.111426308,73,"4333 SNOWDEN AVENUE, LAKEWOOD, CA, 90713","Match","Exact","4333 SNOWDEN AVE, LAKEWOOD, CA, 90713",642863503,"L"
212074,"4333 WHITEWING RD","CARROLLTON","TX",75010,33.027862784,-96.890058262,74,"4333 WHITEWING RD, CARROLLTON, TX, 75010","Match","Exact","4333 WHITEWING RD, CARROLLTON, TX, 75010",646525889,"R"
212075,"43333 BARNSTEAD DR","ASHBURN","VA",20148,38.9829077420001,-77.50624069,75,"43333 BARNSTEAD DR, ASHBURN, VA, 20148","Match","Exact","43333 BARNSTEAD DR, ASHBURN, VA, 20148",639318457,"R"
212076,"43333 OSGOOD RD","FREMONT","CA",94539,37.5186681500001,-121.945556573,76,"43333 OSGOOD RD, FREMONT, CA, 94539","Match","Exact","43333 OSGOOD RD, FREMONT, CA, 94539",636427935,"R"
212077,"4334 18TH AVE S - STE 101","FARGO","ND",58103,46.8527639260001,-96.858297256,77,"4334 18TH AVE S - STE 101, FARGO, ND, 58103","Match","Exact","4334 18TH AVE S, FARGO, ND, 58103",151469063,"R"
212078,"4334 42ND ST 3R","SUNNYSIDE","NY",11104,NA,NA,78,"4334 42ND ST 3R, SUNNYSIDE, NY, 11104","No_Match",NA,NA,NA,NA
212079,"4334 AUGUSTINE AVENUE","SARASOTA","FL",34231,27.292443618,-82.5108508289999,79,"4334 AUGUSTINE AVENUE, SARASOTA, FL, 34231","Match","Exact","4334 AUGUSTINE AVE, SARASOTA, FL, 34231",16352507,"R"
212080,"4334 CAMDEN AVENUE","DALLAS","TX",75206,32.838971745,-96.76342403,80,"4334 CAMDEN AVENUE, DALLAS, TX, 75206","Match","Exact","4334 CAMDEN AVE, DALLAS, TX, 75206",102918347,"R"
212081,"4334 COLERIDGE STREET","PITTSBURGH","PA",15201,40.478515782,-79.942119094,81,"4334 COLERIDGE STREET, PITTSBURGH, PA, 15201","Match","Exact","4334 COLERIDGE ST, PITTSBURGH, PA, 15201",51643635,"R"
212082,"4334 DIANE DR","ASHTABULA","OH",44004,41.869644717,-80.7344294659999,82,"4334 DIANE DR, ASHTABULA, OH, 44004","Match","Exact","4334 DIANE DR, ASHTABULA, OH, 44004",117315299,"L"
212083,"4334 MANHATTAN BEACH BLVD SUITE 3-4","LAWNDALE","CA",90250,33.887323596,-118.351272725,83,"4334 MANHATTAN BEACH BLVD SUITE 3-4, LAWNDALE, CA, 90250","Match","Non_Exact","4334 MANHATTAN BEACH BLVD, LAWNDALE, CA, 90260",142755411,"L"
212084,"4334 N 159TH DRIVE","GOODYEAR","AZ",85395,33.499150849,-112.401468439,84,"4334 N 159TH DRIVE, GOODYEAR, AZ, 85395","Match","Exact","4334 N 159TH DR, GOODYEAR, AZ, 85395",243953911,"L"
212085,"4334 N BRIGHT ANGEL AVE","MERIDIAN","ID",83646,43.643980228,-116.375446198,85,"4334 N BRIGHT ANGEL AVE, MERIDIAN, ID, 83646","Match","Exact","4334 N BRIGHT ANGEL AVE, MERIDIAN, ID, 83646",647609063,"R"
212086,"4334 N HAZEL ST APT 1514","CHICAGO","IL",60613,41.961578623,-87.652325402,86,"4334 N HAZEL ST APT 1514, CHICAGO, IL, 60613","Match","Non_Exact","4334 N HAZEL ST, CHICAGO, IL, 60613",111766481,"L"
212087,"4334 PARK GATE WAY","EAST POINT","GA",30344,33.641055409,-84.491855513,87,"4334 PARK GATE WAY, EAST POINT, GA, 30344","Match","Exact","4334 PARK GATE WAY, EAST POINT, GA, 30344",609938469,"L"
212088,"4334 PRISCILLA AVENUE","INDIANAPOLIS","IN",46226,39.8351694830001,-86.0686062789999,88,"4334 PRISCILLA AVENUE, INDIANAPOLIS, IN, 46226","Match","Exact","4334 PRISCILLA AVE, INDIANAPOLIS, IN, 46226",107996289,"L"
212089,"4334 SAINT ANTOINE APT A","DETROIT","MI",48201,42.354757502,-83.053706339,89,"4334 SAINT ANTOINE APT A, DETROIT, MI, 48201","Match","Non_Exact","4334 SAINT ANTOINE ST, DETROIT, MI, 48201",95714854,"R"
212090,"4334 SHAWN TERRACE","TOLEDO","OH",43615,41.642080181,-83.64429065,90,"4334 SHAWN TERRACE, TOLEDO, OH, 43615","Match","Exact","4334 SHAWN TER, TOLEDO, OH, 43615",33934960,"L"
212091,"4334 WEST LISBON","MILWAUKEE","WY",53208,NA,NA,91,"4334 WEST LISBON, MILWAUKEE, WY, 53208","No_Match",NA,NA,NA,NA
212092,"4334 YORK BLVD","LOS ANGELES","CA",90041,34.1248243920001,-118.223244581,92,"4334 YORK BLVD, LOS ANGELES, CA, 90041","Match","Exact","4334 YORK BLVD, LOS ANGELES, CA, 90041",141611720,"R"
212093,"43341 JULIE MARTIN CT","ASHBURN","VA",20147,39.065560114,-77.501290841,93,"43341 JULIE MARTIN CT, ASHBURN, VA, 20147","Match","Exact","43341 JULIE MARTIN CT, ASHBURN, VA, 20147",62354903,"R"
212094,"43347 16TH STREET WEST SUITE 14","LANCASTER","CA",93534,34.6702951400001,-118.158637455,94,"43347 16TH STREET WEST SUITE 14, LANCASTER, CA, 93534","Match","Exact","43347 16TH ST W, LANCASTER, CA, 93534",142805853,"L"
212095,"4335 4TH ST SUITE 3","WASHINGTON","DC",20032,38.8283482310001,-77.000571843,95,"4335 4TH ST SUITE 3, WASHINGTON, DC, 20032","Match","Non_Exact","4335 4TH ST SE, WASHINGTON, DC, 20032",76242937,"R"
212096,"4335 ABBOTTS BRIDGE RD","DULUTH","GA",30097,34.021305553,-84.162080879,96,"4335 ABBOTTS BRIDGE RD, DULUTH, GA, 30097","Match","Exact","4335 ABBOTTS BRIDGE RD, DULUTH, GA, 30097",88953296,"L"
212097,"4335 AEGEAN DRIVE 148A","TAMPA","FL",33611,27.897342785,-82.5179740949999,97,"4335 AEGEAN DRIVE 148A, TAMPA, FL, 33611","Match","Exact","4335 AEGEAN DR, TAMPA, FL, 33611",635369729,"R"
212098,"4335 BONNIE VIEW RD","DALLAS","TX",75216,32.7063354270001,-96.7734906169999,98,"4335 BONNIE VIEW RD, DALLAS, TX, 75216","Match","Exact","4335 BONNIE VIEW RD, DALLAS, TX, 75216",102952218,"R"
212099,"4335 CATHAY STREET","DENVER","CO",80249,39.774695154,-104.76528332,99,"4335 CATHAY STREET, DENVER, CO, 80249","Match","Exact","4335 CATHAY ST, DENVER, CO, 80249",177628676,"R"
212100,"4335 HAWK CIRCLE DRIVE","HERMANTOWN","MN",55811,46.824865028,-92.243274356,100,"4335 HAWK CIRCLE DRIVE, HERMANTOWN, MN, 55811","Match","Exact","4335 HAWK CIRCLE DR, HERMANTOWN, MN, 55811",163250250,"R"
212101,"4335 LITTLE FALLS ROAD","HUNTINGTOWN","MD",20639,38.6263640940001,-76.6128051699999,101,"4335 LITTLE FALLS ROAD, HUNTINGTOWN, MD, 20639","Match","Exact","4335 LITTLE FALLS RD, HUNTINGTOWN, MD, 20639",78192249,"L"
212102,"4335 MARINA CITY DR UNIT 142E","MARINA DEL REY","CA",90292,33.9845124130001,-118.453141056,102,"4335 MARINA CITY DR UNIT 142E, MARINA DEL REY, CA, 90292","Match","Exact","4335 MARINA CITY DR, MARINA DEL REY, CA, 90292",141817288,"R"
212103,"4335 N 28TH STREET","MILWAUKEE","WI",53216,43.0959187610001,-87.9481262749999,103,"4335 N 28TH STREET, MILWAUKEE, WI, 53216","Match","Exact","4335 N 28TH ST, MILWAUKEE, WI, 53216",77759050,"L"
212104,"4335 N 31ST AVE","PHOENIX","AZ",85017,33.4992022820001,-112.125574096,104,"4335 N 31ST AVE, PHOENIX, AZ, 85017","Match","Exact","4335 N 31ST AVE, PHOENIX, AZ, 85017",128204829,"R"
212105,"4335 NORTHVIEW DR","BOWIE","MD",20716,38.9495390660001,-76.735372583,105,"4335 NORTHVIEW DR, BOWIE, MD, 20716","Match","Exact","4335 NORTHVIEW DR, BOWIE, MD, 20716",76399908,"R"
212106,"4335 PIONEER TRAIL SE","CEDAR RAPIDS","IA",52403,41.9680315750001,-91.6050170239999,106,"4335 PIONEER TRAIL SE, CEDAR RAPIDS, IA, 52403","Match","Exact","4335 PIONEER TRL SE, CEDAR RAPIDS, IA, 52403",17048797,"L"
212107,"4335 S 3960 W","WEST VALLEY","UT",84120,40.676611456,-111.985619192,107,"4335 S 3960 W, WEST VALLEY, UT, 84120","Match","Exact","4335 S 3960 W, WEST VALLEY, UT, 84120",176104073,"L"
212108,"4335 S KEELER AVE","CHICAGO","IL",60632,41.814442039,-87.7287077239999,108,"4335 S KEELER AVE, CHICAGO, IL, 60632","Match","Exact","4335 S KEELER AVE, CHICAGO, IL, 60632",111800514,"L"
212109,"4335 S VINCENNES AVE 3N","CHICAGO","IL",60653,41.8157633810001,-87.614046343,109,"4335 S VINCENNES AVE 3N, CHICAGO, IL, 60653","Match","Non_Exact","4335 S VINCENNES AVE, CHICAGO, IL, 60653",111770838,"L"
212110,"4335 SIENNA TERRACE","HIGH POINT","NC",27265,36.0586820020001,-79.959187514,110,"4335 SIENNA TERRACE, HIGH POINT, NC, 27265","Match","Exact","4335 SIENNA TER, HIGH POINT, NC, 27265",646488019,"R"
212111,"4335 STODTS FERRY BRIDGE ROAD","READING","PA",19605,40.3999958370001,-75.958426082,111,"4335 STODTS FERRY BRIDGE ROAD, READING, PA, 19605","Match","Non_Exact","4335 STOUDTS FERRY BRIDGE RD, READING, PA, 19605",80403257,"R"
212112,"43359 STADIUM TERRACE","ASHBURN","VA",20148,38.9999223790001,-77.499314941,112,"43359 STADIUM TERRACE, ASHBURN, VA, 20148","Match","Exact","43359 STADIUM TER, ASHBURN, VA, 20148",651524315,"R"
212113,"4336 26TH AVE","VERO BEACH","FL",32967,27.6723180610001,-80.4118009489999,113,"4336 26TH AVE, VERO BEACH, FL, 32967","Match","Exact","4336 26TH AVE, VERO BEACH, FL, 32967",120304024,"R"
212114,"4336 EAST MOUNTAIN VIEW ROAD","PHOENIX","AZ",85028,33.5757623690001,-111.986828733,114,"4336 EAST MOUNTAIN VIEW ROAD, PHOENIX, AZ, 85028","Match","Exact","4336 E MOUNTAIN VIEW RD, PHOENIX, AZ, 85028",128282014,"R"
212115,"4336 FOXBERRY RUN","LOGANVILLE","GA",30052,33.8155694060001,-83.948665567,115,"4336 FOXBERRY RUN, LOGANVILLE, GA, 30052","Match","Exact","4336 FOXBERRY RUN, LOGANVILLE, GA, 30052",88937225,"R"
212116,"4336 GANO AVENUE","ST. LOUIS","MO",63107,38.6700581010001,-90.2142174159999,116,"4336 GANO AVENUE, ST. LOUIS, MO, 63107","Match","Exact","4336 GANO AVE, SAINT LOUIS, MO, 63107",107603379,"R"
212117,"4336 GLENWOOD DR","CHARLOTTE","NC",28208,35.257027975,-80.891111032,117,"4336 GLENWOOD DR, CHARLOTTE, NC, 28208","Match","Exact","4336 GLENWOOD DR, CHARLOTTE, NC, 28208",70476306,"R"
212118,"4336 HAMPTON RIDGE BLVD","HOWELL","MI",48843,42.590133979,-83.867842583,118,"4336 HAMPTON RIDGE BLVD, HOWELL, MI, 48843","Match","Exact","4336 HAMPTON RIDGE BLVD, HOWELL, MI, 48843",614124346,"R"
212119,"4336 HARTLE AVE","CUDAHY","CA",90201,33.9675749780001,-118.191159612,119,"4336 HARTLE AVE, CUDAHY, CA, 90201","Match","Exact","4336 HARTLE AVE, CUDAHY, CA, 90201",142763817,"R"
212120,"4336 HENDERSON CIRCLE","JACKSON","MS",39206,32.3511810110001,-90.165932155,120,"4336 HENDERSON CIRCLE, JACKSON, MS, 39206","Match","Exact","4336 HENDERSON CIR, JACKSON, MS, 39206",65370673,"R"
212121,"4336 MANHATTAN AVENUE","BROOKLYN","NY",11224,40.579132433,-74.0086511919999,121,"4336 MANHATTAN AVENUE, BROOKLYN, NY, 11224","Match","Exact","4336 MANHATTAN AVE, BROOKLYN, NY, 11224",59088733,"L"
212122,"4336 MARGARET RIDGE DR","FLORISSANT","MO",63034,38.838768284,-90.3008013629999,122,"4336 MARGARET RIDGE DR, FLORISSANT, MO, 63034","Match","Exact","4336 MARGARET RIDGE DR, FLORISSANT, MO, 63034",100183650,"R"
212123,"4336 W HAPPY TRAIL","LAVEEN","AZ",85339,33.3575331650001,-112.153856068,123,"4336 W HAPPY TRAIL, LAVEEN, AZ, 85339","Match","Exact","4336 W HAPPY TRL, LAVEEN, AZ, 85339",244000960,"L"
212124,"43364 DEWEY SQUARE","ASHBURN","VA",20148,38.997209308,-77.5016715089999,124,"43364 DEWEY SQUARE, ASHBURN, VA, 20148","Match","Exact","43364 DEWEY SQ, ASHBURN, VA, 20148",651535380,"R"
212125,"4337 15TH AVE NE APT 503","SEATTLE","WA",98105,47.660122071,-122.311975284,125,"4337 15TH AVE NE APT 503, SEATTLE, WA, 98105","Match","Exact","4337 15TH AVE NE, SEATTLE, WA, 98105",186586913,"L"
212126,"4337 BUTLER HILL RD STE G","SAINT LOUIS","MO",63128,38.485719879,-90.359405054,126,"4337 BUTLER HILL RD STE G, SAINT LOUIS, MO, 63128","Match","Exact","4337 BUTLER HILL RD, SAINT LOUIS, MO, 63128",100156949,"R"
212127,"4337 COUNTY ROAD 117","GLENWOOD SPRINGS","CO",81601,39.4614484470001,-107.323842208,127,"4337 COUNTY ROAD 117, GLENWOOD SPRINGS, CO, 81601","Match","Exact","4337 CO RD 117, GLENWOOD SPGS, CO, 81601",105807054,"L"
212128,"4337 E 18TH AVE","DENVER","CO",80220,39.7449455720001,-104.936811012,128,"4337 E 18TH AVE, DENVER, CO, 80220","Match","Non_Exact","4337 E 18TH AVE, DENVER, CO, 80220",177311205,"L"
212129,"4337 E GRAND RIVER AVE NUM 185","HOWELL","MI",48843,42.6354303200001,-83.9997433569999,129,"4337 E GRAND RIVER AVE NUM 185, HOWELL, MI, 48843","Match","Non_Exact","4337 E GRAND RIVER AVE, HOWELL, MI, 48843",23540929,"L"
212130,"4337 E GRAND RIVER STE 160","HOWELL","MI",48843,NA,NA,130,"4337 E GRAND RIVER STE 160, HOWELL, MI, 48843","No_Match",NA,NA,NA,NA
212131,"4337 E SILVER SPRINGS BLVD","OCALA","FL",34470,29.2033629360001,-82.0779630759999,131,"4337 E SILVER SPRINGS BLVD, OCALA, FL, 34470","Match","Exact","4337 E SILVER SPRINGS BLVD, OCALA, FL, 34470",116841252,"L"
212132,"4337 LAUREL HILL ROAD","CLAREMONT","NC",28610,35.7817880740001,-81.120679584,132,"4337 LAUREL HILL ROAD, CLAREMONT, NC, 28610","Match","Exact","4337 LAUREL HILL RD, CLAREMONT, NC, 28610",45940510,"R"
212133,"4337 MARINA CITY DRIVE UNIT 537","MARINA DEL REY","CA",90292,33.9845124130001,-118.453110415,133,"4337 MARINA CITY DRIVE UNIT 537, MARINA DEL REY, CA, 90292","Match","Exact","4337 MARINA CITY DR, MARINA DEL REY, CA, 90292",141817288,"R"
212134,"4337 MIRACLE PLACE","RAPID CITY","SD",57702,44.0555367690001,-103.291418074,134,"4337 MIRACLE PLACE, RAPID CITY, SD, 57702","Match","Exact","4337 MIRACLE PL, RAPID CITY, SD, 57702",205528660,"L"
212135,"4337 NATIONAL ROAD WEST","RICHMOND","IN",47374,39.8208630230001,-84.959127802,135,"4337 NATIONAL ROAD WEST, RICHMOND, IN, 47374","Match","Exact","4337 NATIONAL RD W, RICHMOND, IN, 47374",31347612,"R"
212136,"4337 NORTH 61ST","MILWAUKEE","WI",53216,43.096164727,-87.988116858,136,"4337 NORTH 61ST, MILWAUKEE, WI, 53216","Match","Non_Exact","4337 N 61ST ST, MILWAUKEE, WI, 53216",77730626,"L"
212137,"4337 OLD RIVER RD","GREENVILLE","NC",27834,35.7002189140001,-77.473751842,137,"4337 OLD RIVER RD, GREENVILLE, NC, 27834","Match","Exact","4337 OLD RIVER RD, GREENVILLE, NC, 27834",80005647,"L"
212138,"4337 ONYX DRIVE","EAGAN","MN",55122,44.799482459,-93.209236414,138,"4337 ONYX DRIVE, EAGAN, MN, 55122","Match","Exact","4337 ONYX DR, EAGAN, MN, 55122",37905087,"R"
212139,"4337 SE 15TH STREET","DEL CITY","OK",73115,35.4497261700001,-97.440797633,139,"4337 SE 15TH STREET, DEL CITY, OK, 73115","Match","Exact","4337 SE 15TH ST, DEL CITY, OK, 73115",606182156,"L"
212140,"4337 SILVERWOOD TRAIL","FORT WORTH","TX",76244,32.9057015230001,-97.293467972,140,"4337 SILVERWOOD TRAIL, FORT WORTH, TX, 76244","Match","Exact","4337 SILVERWOOD TRL, FORT WORTH, TX, 76244",619871532,"L"
212141,"4338 16TH AVE SW","CEDAR RAPIDS","IA",52404,41.9637853470001,-91.728311936,141,"4338 16TH AVE SW, CEDAR RAPIDS, IA, 52404","Match","Exact","4338 16TH AVE SW, CEDAR RAPIDS, IA, 52404",17046368,"R"
212142,"4338 90TH STREET","GLENCOE","MN",55368,44.7463986280001,-94.076612697,142,"4338 90TH STREET, GLENCOE, MN, 55368","Match","Non_Exact","4338 90TH ST, GLENCOE, MN, 55336",36814816,"L"
212143,"4338 ALBANY POST ROAD","HYDE PARK","NY",12538,41.787654257,-73.934307942,143,"4338 ALBANY POST ROAD, HYDE PARK, NY, 12538","Match","Exact","4338 ALBANY POST RD, HYDE PARK, NY, 12538",4226394,"L"
212144,"4338 BELLVIEW DR","BRAINERD","MN",56401,46.2182635300001,-93.937080884,144,"4338 BELLVIEW DR, BRAINERD, MN, 56401","Match","Exact","4338 BELLVIEW DR, BRAINERD, MN, 56401",611823114,"R"
212145,"4338 FAIRVIEW RD","COLUMBIA","PA",17512,40.056789225,-76.47449511,145,"4338 FAIRVIEW RD, COLUMBIA, PA, 17512","Match","Exact","4338 FAIRVIEW RD, COLUMBIA, PA, 17512",179658102,"L"
212146,"4338 FAVORED WAY","UNION CITY","GA",30291,33.540590008,-84.534579744,146,"4338 FAVORED WAY, UNION CITY, GA, 30291","Match","Exact","4338 FAVORED WAY, UNION CITY, GA, 30291",643323619,"R"
212147,"4338 GORMAN TERRACE SE","WASHINGTON","DC",20019,38.8810294260001,-76.941728698,147,"4338 GORMAN TERRACE SE, WASHINGTON, DC, 20019","Match","Exact","4338 GORMAN TER SE, WASHINGTON, DC, 20019",76233691,"L"
212148,"4338 HARDING BLVD","BATON ROUGE","LA",70807,NA,NA,148,"4338 HARDING BLVD, BATON ROUGE, LA, 70807","No_Match",NA,NA,NA,NA
212149,"4338 HARTFORD STREET  SUITE 8","DALLAS","TX",75219,32.811724423,-96.8155837629999,149,"4338 HARTFORD STREET  SUITE 8, DALLAS, TX, 75219","Match","Exact","4338 HARTFORD ST, DALLAS, TX, 75219",102908415,"R"
212150,"4338 HIALEAH DRIVE","VIRGINIA BEACH","VA",23464,NA,NA,150,"4338 HIALEAH DRIVE, VIRGINIA BEACH, VA, 23464","No_Match",NA,NA,NA,NA
212151,"4338 HIGHCROFT DR","WESLEY CHAPEL","FL",33545,28.220515678,-82.257694387,151,"4338 HIGHCROFT DR, WESLEY CHAPEL, FL, 33545","Match","Exact","4338 HIGHCROFT DR, WESLEY CHAPEL, FL, 33545",618491237,"R"
212152,"4338 LITTLE BEANE STORE RD","RAMSEUR","NC",27316,35.614088231,-79.670564493,152,"4338 LITTLE BEANE STORE RD, RAMSEUR, NC, 27316","Match","Exact","4338 LITTLE BEANE STORE RD, RAMSEUR, NC, 27316",20450606,"L"
212153,"4338 MANCHESTER PL","CYPRESS","CA",90630,33.826324039,-118.057481735,153,"4338 MANCHESTER PL, CYPRESS, CA, 90630","Match","Exact","4338 MANCHESTER PL, CYPRESS, CA, 90630",143998850,"R"
212154,"4338 N 40TH ST","PHOENIX","AZ",85018,33.5003311610001,-111.995377202,154,"4338 N 40TH ST, PHOENIX, AZ, 85018","Match","Exact","4338 N 40TH ST, PHOENIX, AZ, 85018",128220175,"L"
212155,"4338 N CHESTNUT ST APARTMENT 3","COLORADO SPRINGS","CO",80907,38.891973346,-104.834081984,155,"4338 N CHESTNUT ST APARTMENT 3, COLORADO SPRINGS, CO, 80907","Match","Non_Exact","4338 N CHESTNUT ST, COLORADO SPRINGS, CO, 80907",610712182,"L"
212156,"4338 PERKINS ROAD","CHARLOTTE","NC",28269,35.3010415030001,-80.823915945,156,"4338 PERKINS ROAD, CHARLOTTE, NC, 28269","Match","Exact","4338 PERKINS RD, CHARLOTTE, NC, 28269",70560577,"L"
212157,"4338 PURDUE DRIVE","NORTH CHARLESTON","SC",29418,32.859737683,-80.050368647,157,"4338 PURDUE DRIVE, NORTH CHARLESTON, SC, 29418","Match","Exact","4338 PURDUE DR, N CHARLESTON, SC, 29418",108800346,"L"
212158,"4338 VISTA WALK LANE","POWELL","OH",43065,40.207883623,-83.1172308389999,158,"4338 VISTA WALK LANE, POWELL, OH, 43065","Match","Exact","4338 VISTA WALK LN, POWELL, OH, 43065",213001906,"R"
212159,"43389 CHARITABLE STREET","ASHBURN","VA",20148,38.9991884180001,-77.5010325659999,159,"43389 CHARITABLE STREET, ASHBURN, VA, 20148","Match","Exact","43389 CHARITABLE ST, ASHBURN, VA, 20148",651764559,"R"
212160,"4339 AUGUSTA HIGHWAY","GILBERT","SC",29054,33.9610590790001,-81.399188131,160,"4339 AUGUSTA HIGHWAY, GILBERT, SC, 29054","Match","Exact","4339 AUGUSTA HWY, GILBERT, SC, 29054",641133879,"R"
212161,"4339 DE REIMER AVE","BRONX","NY",10466,40.8979348560001,-73.8445667079999,161,"4339 DE REIMER AVE, BRONX, NY, 10466","Match","Exact","4339 DE REIMER AVE, BRONX, NY, 10466",80297551,"L"
212162,"4339 EVANS AVENUE","NEW PORT RICHEY","FL",34652,28.2229377,-82.726098688,162,"4339 EVANS AVENUE, NEW PORT RICHEY, FL, 34652","Match","Exact","4339 EVANS AVE, NEW PORT RICHEY, FL, 34652",86374279,"L"
212163,"4339 JACK ALAN ST SW","GRANDVILLE","MI",49418,42.8963897410001,-85.771302114,163,"4339 JACK ALAN ST SW, GRANDVILLE, MI, 49418","Match","Exact","4339 JACK ALAN ST SW, GRANDVILLE, MI, 49418",12454456,"R"
212164,"4339 PAR DRIVE","INDIANPOLIS","IN",46268,39.8870938960001,-86.233972425,164,"4339 PAR DRIVE, INDIANPOLIS, IN, 46268","Match","Non_Exact","4339 W PAR DR, INDIANAPOLIS, IN, 46268",108025296,"R"
212165,"4339 PARK AVE","MEMPHIS","TN",38117,35.107152672,-89.9174012349999,165,"4339 PARK AVE, MEMPHIS, TN, 38117","Match","Exact","4339 PARK AVE, MEMPHIS, TN, 38117",72920505,"R"
212166,"4339 S LAKE PARK AVE","CHICAGO","IL",60653,41.8158000120001,-87.5980634859999,166,"4339 S LAKE PARK AVE, CHICAGO, IL, 60653","Match","Exact","4339 S LAKE PARK AVE, CHICAGO, IL, 60653",605500223,"L"
212167,"4339 SW 142ND PLACE","OCALA","FL",34473,29.014703173,-82.194186668,167,"4339 SW 142ND PLACE, OCALA, FL, 34473","Match","Exact","4339 142ND PL, OCALA, FL, 34473",116718248,"R"
212168,"4339 SW 142ND PLACE","OCALA","FL",34474,29.014703173,-82.194186668,168,"4339 SW 142ND PLACE, OCALA, FL, 34474","Match","Non_Exact","4339 142ND PL, OCALA, FL, 34473",116718248,"R"
212169,"4339 W ALTGELD STREET","CHICAGO","IL",60639,41.926197841,-87.735652205,169,"4339 W ALTGELD STREET, CHICAGO, IL, 60639","Match","Exact","4339 W ALTGELD ST, CHICAGO, IL, 60639",605221386,"L"
212170,"4339 WALNUT AVENUE UNIT B","LYNWOOD","CA",90262,33.920520417,-118.188741575,170,"4339 WALNUT AVENUE UNIT B, LYNWOOD, CA, 90262","Match","Exact","4339 WALNUT AVE, LYNWOOD, CA, 90262",141679098,"L"
212171,"4339 WEST DEAN PANNILL APARTMENT F","SAN ANTONIO","TX",78229,29.522418008,-98.569038176,171,"4339 WEST DEAN PANNILL APARTMENT F, SAN ANTONIO, TX, 78229","Match","Non_Exact","4339 W DEAN PANNILL DR, SAN ANTONIO, TX, 78229",101547310,"L"
212172,"43391 ELLSWORTH STREET","FREMONT","CA",94539,37.5318620140001,-121.921109081,172,"43391 ELLSWORTH STREET, FREMONT, CA, 94539","Match","Exact","43391 ELLSWORTH ST, FREMONT, CA, 94539",125033839,"R"
212173,"43391 SWEETWOOD STREET","FREMONT","CA",94538,37.5145345330001,-121.958479633,173,"43391 SWEETWOOD STREET, FREMONT, CA, 94538","Match","Exact","43391 SWEETWOOD ST, FREMONT, CA, 94538",125031305,"R"
212174,"43393 FRENCHMANS CREEK TERRACE","ASHBURN","VA",20147,39.0614684880001,-77.499223364,174,"43393 FRENCHMANS CREEK TERRACE, ASHBURN, VA, 20147","Match","Exact","43393 FRENCHMANS CREEK TER, ASHBURN, VA, 20147",624610008,"L"
212175,"43393 SPRING CELLAR CT","LEESBURG","VA",20176,39.0860141920001,-77.498941181,175,"43393 SPRING CELLAR CT, LEESBURG, VA, 20176","Match","Exact","43393 SPRING CELLAR CT, LEESBURG, VA, 20176",62356479,"L"
212176,"434 2ND STREET NW","MAYVILLE","ND",58257,47.5007643530001,-97.335678506,176,"434 2ND STREET NW, MAYVILLE, ND, 58257","Match","Exact","434 2ND ST NW, MAYVILLE, ND, 58257",171864453,"L"
212177,"434 4TH AVE APT 2","SAN FRANCISCO","CA",94118,37.7803729190001,-122.46207725,177,"434 4TH AVE APT 2, SAN FRANCISCO, CA, 94118","Match","Exact","434 4TH AVE, SAN FRANCISCO, CA, 94118",640963900,"L"
212178,"434 6TH AVE SUITE 2","NEW YORK","NY",10011,NA,NA,178,"434 6TH AVE SUITE 2, NEW YORK, NY, 10011","No_Match",NA,NA,NA,NA
212179,"434 8TH STREET","BETTENDORF","IA",52722,41.5268334960001,-90.52132432,179,"434 8TH STREET, BETTENDORF, IA, 52722","Match","Exact","434 8TH ST, BETTENDORF, IA, 52722",122725549,"L"
212180,"434 ALPINE TRAIL ROAD","ALPINE","CA",91901,32.8162401270001,-116.806568259,180,"434 ALPINE TRAIL ROAD, ALPINE, CA, 91901","Match","Exact","434 ALPINE TRAIL RD, ALPINE, CA, 91901",195694862,"L"
212181,"434 AMES HILL DR","TEWKSBURY","MA",1876,42.6373818330001,-71.228207455,181,"434 AMES HILL DR, TEWKSBURY, MA, 1876","Match","Exact","434 AMES HILL DR, TEWKSBURY, MA, 01876",651241203,"R"
212182,"434 BACHELOR CHAPEL RD","HOKES BLUFF","AL",35903,34.0447495930001,-85.892906715,182,"434 BACHELOR CHAPEL RD, HOKES BLUFF, AL, 35903","Match","Exact","434 BACHELOR CHAPEL RD, HOKES BLUFF, AL, 35903",66773355,"L"
212183,"434 BEACH 57TH STREET","FAR ROCKAWAY","NY",11692,NA,NA,183,"434 BEACH 57TH STREET, FAR ROCKAWAY, NY, 11692","No_Match",NA,NA,NA,NA
212184,"434 BLACKBERRY RIDGE DR","MORGANTOWN","WV",26508,39.5639257170001,-79.972587284,184,"434 BLACKBERRY RIDGE DR, MORGANTOWN, WV, 26508","Match","Exact","434 BLACKBERRY RIDGE DR, MORGANTOWN, WV, 26508",641518607,"R"
212185,"434 BRANCH FOREST WAY","STOCKBRIDGE","GA",30281,33.598555692,-84.185104989,185,"434 BRANCH FOREST WAY, STOCKBRIDGE, GA, 30281","Match","Exact","434 BRANCH FOREST WAY, STOCKBRIDGE, GA, 30281",634028254,"R"
212186,"434 CASTLEWOOD ROAD","LIVINGSTON","TX",77351,30.752611421,-94.9091437719999,186,"434 CASTLEWOOD ROAD, LIVINGSTON, TX, 77351","Match","Exact","434 CASTLEWOOD RD, LIVINGSTON, TX, 77351",23234773,"L"
212187,"434 CATIVO DRIVE","ATLANTA","GA",30311,33.7439630220001,-84.470501965,187,"434 CATIVO DRIVE, ATLANTA, GA, 30311","Match","Non_Exact","434 CATIVO DR SW, ATLANTA, GA, 30311",17339805,"L"
212188,"434 CEDARVIEW CT","HILLSBORO","MO",63050,38.241369874,-90.559304705,188,"434 CEDARVIEW CT, HILLSBORO, MO, 63050","Match","Exact","434 CEDARVIEW CT, HILLSBORO, MO, 63050",62788959,"R"
212189,"434 COLUMBIA BLVD","CHERRY HILL","NJ",8002,39.9356280440001,-75.003051961,189,"434 COLUMBIA BLVD, CHERRY HILL, NJ, 8002","Match","Exact","434 COLUMBIA BLVD, CHERRY HILL, NJ, 08002",134372734,"R"
212190,"434 CONYERS RD","LOGANVILLE","GA",30052,33.8348573440001,-83.90745765,190,"434 CONYERS RD, LOGANVILLE, GA, 30052","Match","Exact","434 CONYERS RD, LOGANVILLE, GA, 30052",77637525,"R"
212191,"434 CORONADO DR","KERRVILLE","TX",78028,30.0749558640001,-99.1700271779999,191,"434 CORONADO DR, KERRVILLE, TX, 78028","Match","Non_Exact","434 CORONADO DR N, KERRVILLE, TX, 78028",176886925,"L"
212192,"434 CRABAPPLE LANE","CLAYSBURG","PA",16625,40.27621903,-78.45766228,192,"434 CRABAPPLE LANE, CLAYSBURG, PA, 16625","Match","Exact","434 CRABAPPLE LN, CLAYSBURG, PA, 16625",49718300,"R"
212193,"434 CUMBERLAND AVE","GULF BREEZE","FL",32561,30.3583182520001,-87.18815532,193,"434 CUMBERLAND AVE, GULF BREEZE, FL, 32561","Match","Exact","434 CUMBERLAND AVE, GULF BREEZE, FL, 32561",74566948,"L"
212194,"434 DESCANSO BAY COURT","TULARE","CA",93274,36.2067565360001,-119.312178126,194,"434 DESCANSO BAY COURT, TULARE, CA, 93274","Match","Exact","434 DESCANSO BAY CT, TULARE, CA, 93274",627492083,"L"
212195,"434 E 17TH STREET APT 208","OAKLAND","CA",94606,37.8063565840001,-122.268977218,195,"434 E 17TH STREET APT 208, OAKLAND, CA, 94606","Match","Non_Exact","434 17TH ST, OAKLAND, CA, 94612",606305563,"R"
212196,"434 E 72ND ST APT 4B","NEW YORK","NY",10021,40.7674108430001,-73.9550780229999,196,"434 E 72ND ST APT 4B, NEW YORK, NY, 10021","Match","Non_Exact","434 E 72ND ST, NEW YORK, NY, 10021",650084676,"R"
212197,"434 E 9TH STREET","TUCSON","AZ",85705,32.2238041260001,-110.964629787,197,"434 E 9TH STREET, TUCSON, AZ, 85705","Match","Exact","434 E 9TH ST, TUCSON, AZ, 85705",121171286,"R"
212198,"434 E SHELLIE CT","CASA GRANDE","AZ",85122,32.9272358480001,-111.746662225,198,"434 E SHELLIE CT, CASA GRANDE, AZ, 85122","Match","Exact","434 E SHELLIE CT, CASA GRANDE, AZ, 85122",624810253,"R"
212199,"434 EAST TENTH STREET","LUVERNE","AL",36049,31.7104610380001,-86.252901654,199,"434 EAST TENTH STREET, LUVERNE, AL, 36049","Match","Exact","434 E 10TH ST, LUVERNE, AL, 36049",10443778,"R"
212200,"434 GARDEN AVENUE","MOUNT VERNON","NY",10553,40.903727428,-73.818581023,200,"434 GARDEN AVENUE, MOUNT VERNON, NY, 10553","Match","Exact","434 GARDEN AVE, MOUNT VERNON, NY, 10553",139842836,"R"
212201,"434 GENESEE ST","TRENTON","NJ",8611,40.2069383670001,-74.747729466,201,"434 GENESEE ST, TRENTON, NJ, 8611","Match","Exact","434 GENESEE ST, TRENTON, NJ, 08611",60224754,"L"
212202,"434 GREENVIEW LANE","HAVERTOWN","PA",19083,39.9675314510001,-75.3061857289999,202,"434 GREENVIEW LANE, HAVERTOWN, PA, 19083","Match","Exact","434 GREENVIEW LN, HAVERTOWN, PA, 19083",134875483,"L"
212203,"434 HANCOCK ST UNIT 1","BROOKLYN","NY",11233,NA,NA,203,"434 HANCOCK ST UNIT 1, BROOKLYN, NY, 11233","No_Match",NA,NA,NA,NA
212204,"434 HASTINGS WAY","JONESBORO","GA",30238,33.4832335680001,-84.378006005,204,"434 HASTINGS WAY, JONESBORO, GA, 30238","Match","Exact","434 HASTINGS WAY, JONESBORO, GA, 30238",23321729,"L"
212205,"434 HIGHWAY 6S","HOUSTON","TX",77079,NA,NA,205,"434 HIGHWAY 6S, HOUSTON, TX, 77079","No_Match",NA,NA,NA,NA
212206,"434 HILLPINE DR","COLUMBUS","OH",43207,39.8674236850001,-82.993462269,206,"434 HILLPINE DR, COLUMBUS, OH, 43207","Match","Exact","434 HILLPINE DR, COLUMBUS, OH, 43207",627618856,"R"
212207,"434 HOUSTON ST","NASHVILLE","TN",37203,36.142864479,-86.76668232,207,"434 HOUSTON ST, NASHVILLE, TN, 37203","Match","Exact","434 HOUSTON ST, NASHVILLE, TN, 37203",97191858,"R"
212208,"434 JACKSON ST","PHILADELPHIA","PA",19148,39.92112071,-75.154299352,208,"434 JACKSON ST, PHILADELPHIA, PA, 19148","Match","Exact","434 JACKSON ST, PHILADELPHIA, PA, 19148",131436655,"L"
212209,"434 JOLINA WAY","ENCINITAS","CA",92024,33.0536649910001,-117.259196051,209,"434 JOLINA WAY, ENCINITAS, CA, 92024","Match","Exact","434 JOLINA WAY, ENCINITAS, CA, 92024",195293371,"L"
212210,"434 JONES AVE","AIKEN","SC",29801,33.575415133,-81.7203260859999,210,"434 JONES AVE, AIKEN, SC, 29801","Match","Exact","434 JONES AVE, AIKEN, SC, 29801",65042366,"L"
212211,"434 KENNEDY STREET","HAYTI","MO",63851,36.229817987,-89.7684459829999,211,"434 KENNEDY STREET, HAYTI, MO, 63851","Match","Exact","434 KENNEDY ST, HAYTI, MO, 63851",38897772,"L"
212212,"434 LACKAWANNA AVE","SCRANTON","PA",18503,41.407291312,-75.665876326,212,"434 LACKAWANNA AVE, SCRANTON, PA, 18503","Match","Exact","434 LACKAWANNA AVE, SCRANTON, PA, 18503",139327176,"R"
212213,"434 LACY WOODS","TALLAHASSEE","FL",32312,30.5109525300001,-84.27227226,213,"434 LACY WOODS, TALLAHASSEE, FL, 32312","Match","Non_Exact","434 LACY WOODS CT, TALLAHASSEE, FL, 32312",82868147,"L"
212214,"434 MADISON STREET","WAUKESHA","WI",53188,43.0134136020001,-88.2362987389999,214,"434 MADISON STREET, WAUKESHA, WI, 53188","Match","Exact","434 MADISON ST, WAUKESHA, WI, 53188",53811724,"R"
212215,"434 MAIN STREET","ROWLEY","MA",1969,42.730449713,-70.8660899619999,215,"434 MAIN STREET, ROWLEY, MA, 1969","Match","Exact","434 MAIN ST, ROWLEY, MA, 01969",86704708,"L"
212216,"434 MARTIN CREEK COURT","LAWRENCEVILLE","GA",30045,33.9583739280001,-83.9457801199999,216,"434 MARTIN CREEK COURT, LAWRENCEVILLE, GA, 30045","Match","Exact","434 MARTIN CREEK CT, LAWRENCEVILLE, GA, 30045",637665722,"R"
212217,"434 MARY STREET","DOWNINGTOWN","PA",19335,40.0042453670001,-75.7167742729999,217,"434 MARY STREET, DOWNINGTOWN, PA, 19335","Match","Exact","434 MARY ST, DOWNINGTOWN, PA, 19335",642565304,"R"
212218,"434 MILLBURN AVENUE","MILLBURN","NJ",7041,40.7221823620001,-74.313725005,218,"434 MILLBURN AVENUE, MILLBURN, NJ, 7041","Match","Exact","434 MILLBURN AVE, MILLBURN, NJ, 07041",63461796,"L"
212219,"434 N 17TH AVENUE","BEECH GROVE","IN",46107,39.7292708140001,-86.101740923,219,"434 N 17TH AVENUE, BEECH GROVE, IN, 46107","Match","Exact","434 N 17TH AVE, BEECH GROVE, IN, 46107",108008808,"L"
212220,"434 N 26TH ST","LINCOLN","NE",68503,40.817254103,-96.683774248,220,"434 N 26TH ST, LINCOLN, NE, 68503","Match","Exact","434 N 26TH ST, LINCOLN, NE, 68503",28253959,"R"
212221,"434 N 78TH AVE W","DULUTH","MN",55807,46.7225036660001,-92.195853622,221,"434 N 78TH AVE W, DULUTH, MN, 55807","Match","Exact","434 N 78TH AVE W, DULUTH, MN, 55807",163209490,"R"
212222,"434 N HUMBOLDT PL","ONTARIO","CA",91764,34.067446992,-117.623761044,222,"434 N HUMBOLDT PL, ONTARIO, CA, 91764","Match","Exact","434 N HUMBOLDT PL, ONTARIO, CA, 91764",144636718,"L"
212223,"434 N MAPLE AVENUE","DANVILLE","KY",40422,37.6521952740001,-84.78293597,223,"434 N MAPLE AVENUE, DANVILLE, KY, 40422","Match","Exact","434 N MAPLE AVE, DANVILLE, KY, 40422",32478994,"R"
212224,"434 N SUMMIT AVENUE","BALTIMORE","MD",21218,NA,NA,224,"434 N SUMMIT AVENUE, BALTIMORE, MD, 21218","No_Match",NA,NA,NA,NA
212225,"434 NE KNOTT ST SUITE 210","PORTLAND","OR",97212,45.542105711,-122.661109156,225,"434 NE KNOTT ST SUITE 210, PORTLAND, OR, 97212","Match","Non_Exact","434 NE KNOTT ST, PORTLAND, OR, 97212",157558142,"R"
212226,"434 NEW YORK AVENUE","HUNTINGTON","NY",11743,40.867423064,-73.4245398419999,226,"434 NEW YORK AVENUE, HUNTINGTON, NY, 11743","Match","Exact","434 NEW YORK AVE, HUNTINGTON, NY, 11743",113962782,"L"
212227,"434 NORFOLK ROAD","TORRINGTON","CT",6790,41.826353328,-73.148590462,227,"434 NORFOLK ROAD, TORRINGTON, CT, 6790","Match","Exact","434 NORFOLK RD, TORRINGTON, CT, 06790",3101929,"R"
212228,"434 NORTHSIDE DR","VALDOSTA","GA",31605,30.872088063,-83.280411316,228,"434 NORTHSIDE DR, VALDOSTA, GA, 31605","Match","Non_Exact","434 NORTHSIDE DR, VALDOSTA, GA, 31602",87757778,"L"
212229,"434 OAK ST","GRAHAM","TX",76450,33.1083314160001,-98.591225857,229,"434 OAK ST, GRAHAM, TX, 76450","Match","Exact","434 OAK ST, GRAHAM, TX, 76450",183306731,"L"
212230,"434 OAK STREET SUITE C","GRAHAM","TX",76450,NA,NA,230,"434 OAK STREET SUITE C, GRAHAM, TX, 76450","No_Match",NA,NA,NA,NA
212231,"434 OAK STREET","GRAHAM","TX",76450,33.1083314160001,-98.591225857,231,"434 OAK STREET, GRAHAM, TX, 76450","Match","Exact","434 OAK ST, GRAHAM, TX, 76450",183306731,"L"
212232,"434 PARADISE ALLEY ROAD","FELTON","DE",19943,38.9722452950001,-75.581200915,232,"434 PARADISE ALLEY ROAD, FELTON, DE, 19943","Match","Exact","434 PARADISE ALLEY RD, FELTON, DE, 19943",68082624,"L"
212233,"434 PLUMWOOD WAY","FAIRVIEW","TX",75069,33.141601961,-96.638207361,233,"434 PLUMWOOD WAY, FAIRVIEW, TX, 75069","Match","Exact","434 PLUMWOOD WAY, FAIRVIEW, TX, 75069",601176128,"R"
212234,"434 PRESTON DRIVE","BROWNSVILLE","TN",38012,35.6040959210001,-89.2866672219999,234,"434 PRESTON DRIVE, BROWNSVILLE, TN, 38012","Match","Exact","434 PRESTON DR, BROWNSVILLE, TN, 38012",63741900,"R"
212235,"434 RANDOM RD","BALTIMORE","MD",21229,39.280259379,-76.6995703489999,235,"434 RANDOM RD, BALTIMORE, MD, 21229","Match","Exact","434 RANDOM RD, BALTIMORE, MD, 21229",206453110,"R"
212236,"434 RED BARN ROAD","FREEPORT","FL",32439,30.4564533660001,-86.1883368649999,236,"434 RED BARN ROAD, FREEPORT, FL, 32439","Match","Exact","434 RED BARN RD, FREEPORT, FL, 32439",653177624,"L"
212237,"434 RIVER ST","DICKSON CITY","PA",18519,41.4529385480001,-75.6243915439999,237,"434 RIVER ST, DICKSON CITY, PA, 18519","Match","Exact","434 RIVER ST, DICKSON CITY, PA, 18519",139326228,"R"
212238,"434 ROUTE 206 SOUTH","HILLSBOROUGH","NJ",8844,NA,NA,238,"434 ROUTE 206 SOUTH, HILLSBOROUGH, NJ, 8844","No_Match",NA,NA,NA,NA
212239,"434 S ELM STREET","HIGH POINT","NC",27260,35.9512065110001,-80.0059970409999,239,"434 S ELM STREET, HIGH POINT, NC, 27260","Match","Exact","434 S ELM ST, HIGH POINT, NC, 27260",131039772,"R"
212240,"434 S GREVILLEA AVE","INGLEWOOD","CA",90301,33.9583488660001,-118.354894629,240,"434 S GREVILLEA AVE, INGLEWOOD, CA, 90301","Match","Exact","434 S GREVILLEA AVE, INGLEWOOD, CA, 90301",141654565,"L"
212241,"434 S MCCULLOCH BOX 7902","PUEBLO","CO",81007,NA,NA,241,"434 S MCCULLOCH BOX 7902, PUEBLO, CO, 81007","No_Match",NA,NA,NA,NA
212242,"434 SE LAMON LANE","PORT SAINT LUCIE","FL",34983,27.317025948,-80.331736269,242,"434 SE LAMON LANE, PORT SAINT LUCIE, FL, 34983","Match","Exact","434 SE LAMON LN, PORT ST LUCIE, FL, 34983",120153422,"R"
212243,"434 SHELLE ROAD","MANHATTAN","KS",66502,39.172703643,-96.594435399,243,"434 SHELLE ROAD, MANHATTAN, KS, 66502","Match","Exact","434 SHELLE RD, MANHATTAN, KS, 66502",27794858,"R"
212244,"434 SHETLAND DRIVE","SAINT JOHNS","FL",32259,30.0770871450001,-81.59528847,244,"434 SHETLAND DRIVE, SAINT JOHNS, FL, 32259","Match","Exact","434 SHETLAND DR, SAINT JOHNS, FL, 32259",639378023,"L"
212245,"434 SKINNER BLVD","DUNEDIN","FL",34698,28.015866998,-82.7868396059999,245,"434 SKINNER BLVD, DUNEDIN, FL, 34698","Match","Exact","434 SKINNER BLVD, DUNEDIN, FL, 34698",124665336,"L"
212246,"434 SNAVY BLVD","PENSACOLA","FL",32507,NA,NA,246,"434 SNAVY BLVD, PENSACOLA, FL, 32507","No_Match",NA,NA,NA,NA
212247,"434 SOUTH 2ND STREET","DARBY","PA",19023,39.911184362,-75.252516589,247,"434 SOUTH 2ND STREET, DARBY, PA, 19023","Match","Exact","434 S 2ND ST, DARBY, PA, 19023",134886704,"R"
212248,"434 STANBERY DR","BEXLEY","OH",43209,39.978775193,-82.9325278109999,248,"434 STANBERY DR, BEXLEY, OH, 43209","Match","Exact","434 STANBERY DR, BEXLEY, OH, 43209",135617426,"R"
212249,"434 STATE STREET","LANCASTER","PA",17603,40.0448867270001,-76.325500754,249,"434 STATE STREET, LANCASTER, PA, 17603","Match","Exact","434 STATE ST, LANCASTER, PA, 17603",179661999,"L"
212250,"434 TENAFLY RD","ENGLEWOOD","NJ",7631,40.910702966,-73.972979214,250,"434 TENAFLY RD, ENGLEWOOD, NJ, 7631","Match","Exact","434 TENAFLY RD, ENGLEWOOD, NJ, 07631",64374194,"L"
212251,"434 VADNAIS LAKE DRIVE","SAINT PAUL","MN",55127,45.0406586060001,-93.0856115669999,251,"434 VADNAIS LAKE DRIVE, SAINT PAUL, MN, 55127","Match","Exact","434 VADNAIS LAKE DR, SAINT PAUL, MN, 55127",97666887,"L"
212252,"434 VAN SICLEN AVE 1FL","BROOKLYN","NY",11207,40.669123729,-73.889408277,252,"434 VAN SICLEN AVE 1FL, BROOKLYN, NY, 11207","Match","Exact","434 VAN SICLEN AVE, BROOKLYN, NY, 11207",59085077,"R"
212253,"434 VILLA AVE","CLOVIS","CA",93612,36.825363409,-119.713485652,253,"434 VILLA AVE, CLOVIS, CA, 93612","Match","Exact","434 VILLA AVE, CLOVIS, CA, 93612",197643571,"L"
212254,"434 W 26TH AVE","SPOKANE","WA",99203,47.630921196,-117.417690214,254,"434 W 26TH AVE, SPOKANE, WA, 99203","Match","Exact","434 W 26TH AVE, SPOKANE, WA, 99203",189877419,"R"
212255,"434 WEBB RD","SHELBY","NC",28152,35.2702948950001,-81.625796845,255,"434 WEBB RD, SHELBY, NC, 28152","Match","Exact","434 WEBB RD, SHELBY, NC, 28152",647177999,"L"
212256,"434 WEISENBAKER RD","RINCON","GA",31326,32.2858342160001,-81.223302258,256,"434 WEISENBAKER RD, RINCON, GA, 31326","Match","Exact","434 WEISENBAKER RD, RINCON, GA, 31326",642625834,"L"
212257,"434 WHITE OAK FARM DRIVE","SCARBRO","WV",25917,NA,NA,257,"434 WHITE OAK FARM DRIVE, SCARBRO, WV, 25917","No_Match",NA,NA,NA,NA
212258,"434 WHITE PINE BLVD","LANSING","MI",48917,42.7298043870001,-84.6636140419999,258,"434 WHITE PINE BLVD, LANSING, MI, 48917","Match","Exact","434 WHITE PINE BLVD, LANSING, MI, 48917",617450698,"L"
212259,"434 WILDBRIAR DR","GARLAND","TX",75043,32.861717162,-96.631335615,259,"434 WILDBRIAR DR, GARLAND, TX, 75043","Match","Exact","434 WILDBRIAR DR, GARLAND, TX, 75043",102930622,"L"
212260,"4340 2ND ST NORTH EAST SUIT 5","WASHINGTON","DC",20011,NA,NA,260,"4340 2ND ST NORTH EAST SUIT 5, WASHINGTON, DC, 20011","Tie",NA,NA,NA,NA
212261,"4340 BIG BARN DR UNIT 108","LITTLE RIVER","SC",29566,33.8569692520001,-78.6595365109999,261,"4340 BIG BARN DR UNIT 108, LITTLE RIVER, SC, 29566","Match","Exact","4340 BIG BARN DR, LITTLE RIVER, SC, 29566",630436711,"L"
212262,"4340 BORGEN BLVD APT 1438","GIG HARBOR","WA",98332,47.3597713950001,-122.594927709,262,"4340 BORGEN BLVD APT 1438, GIG HARBOR, WA, 98332","Match","Exact","4340 BORGEN BLVD, GIG HARBOR, WA, 98332",645870441,"R"
212263,"4340 CLARKWOOD PARKWAY","WARRENSVILLE HEIGHTS","OH",44128,41.4425921270001,-81.524808992,263,"4340 CLARKWOOD PARKWAY, WARRENSVILLE HEIGHTS, OH, 44128","Match","Exact","4340 CLARKWOOD PKWY, WARRENSVILLE HEIGHTS, OH, 44128",651104131,"L"
212264,"4340 E NISBET RD","PHOENIX","AZ",85032,33.622643457,-111.987990223,264,"4340 E NISBET RD, PHOENIX, AZ, 85032","Match","Exact","4340 E NISBET RD, PHOENIX, AZ, 85032",128281037,"L"
212265,"4340 EAST 23RD STREET","JOPLIN","MO",64804,NA,NA,265,"4340 EAST 23RD STREET, JOPLIN, MO, 64804","No_Match",NA,NA,NA,NA
212266,"4340 GLENDALE-MILFORD RD SUITE 200","CINCINNATI","OH",45242,39.252425407,-84.3907768189999,266,"4340 GLENDALE-MILFORD RD SUITE 200, CINCINNATI, OH, 45242","Match","Non_Exact","4340 GLENDALE MILFORD RD, CINCINNATI, OH, 45242",103945239,"L"
212267,"4340 KINGMONT DR","SHELBY TOWNSHIP","MI",48317,42.6670330430001,-83.0702656939999,267,"4340 KINGMONT DR, SHELBY TOWNSHIP, MI, 48317","Match","Exact","4340 KINGMONT DR, SHELBY TOWNSHIP, MI, 48317",110696188,"R"
212268,"4340 N KNOLL DRIVE","FRESNO","CA",93722,36.799767708,-119.858462973,268,"4340 N KNOLL DRIVE, FRESNO, CA, 93722","Match","Non_Exact","4340 N KNOLL AVE, FRESNO, CA, 93722",642723063,"R"
212269,"4340 N LAWNDALE AVE","CHICAGO","IL",60618,41.959808546,-87.720449735,269,"4340 N LAWNDALE AVE, CHICAGO, IL, 60618","Match","Exact","4340 N LAWNDALE AVE, CHICAGO, IL, 60618",605170173,"L"
212270,"4340 NORMANDY AVENUE","CINCINNATI","OH",45227,39.152563437,-84.392857866,270,"4340 NORMANDY AVENUE, CINCINNATI, OH, 45227","Match","Exact","4340 NORMANDY AVE, CINCINNATI, OH, 45227",103933742,"R"
212271,"4340 NW 198TH STREET","MIAMI GARDENS","FL",33055,25.9532351280001,-80.27205437,271,"4340 NW 198TH STREET, MIAMI GARDENS, FL, 33055","Match","Exact","4340 NW 198TH ST, MIAMI GARDENS, FL, 33055",116026454,"L"
212272,"4340 NW 198TH STREET","MIAMI","FL",33055,25.9532351280001,-80.27205437,272,"4340 NW 198TH STREET, MIAMI, FL, 33055","Match","Non_Exact","4340 NW 198TH ST, MIAMI GARDENS, FL, 33055",116026454,"L"
212273,"4340 NW 7TH AVE","MIAMI","FL",33127,25.815535072,-80.207778135,273,"4340 NW 7TH AVE, MIAMI, FL, 33127","Match","Non_Exact","4340 NW 7TH AVE, MIAMI, FL, 33127",640556476,"L"
212274,"4340 OWENS RD","EVANS","GA",30809,33.518503536,-82.1284429999999,274,"4340 OWENS RD, EVANS, GA, 30809","Match","Exact","4340 OWENS RD, EVANS, GA, 30809",632646848,"R"
212275,"4340 PAHOA AVE - 16A","HONOLULU","HI",96816,21.27442846,-157.786654257,275,"4340 PAHOA AVE - 16A, HONOLULU, HI, 96816","Match","Exact","4340 PAHOA AVE, HONOLULU, HI, 96816",203243192,"L"
212276,"4340 REDWOOD HIGHWAY SUITE F 224","SAN RAFAEL","CA",94903,38.0140273710001,-122.541321683,276,"4340 REDWOOD HIGHWAY SUITE F 224, SAN RAFAEL, CA, 94903","Match","Exact","4340 REDWOOD HWY, SAN RAFAEL, CA, 94903",648488925,"R"
212277,"4340 STEVENS CREEK BLVD STE 172","SAN JOSE","CA",95129,37.3230459500001,-121.977576153,277,"4340 STEVENS CREEK BLVD STE 172, SAN JOSE, CA, 95129","Match","Exact","4340 STEVENS CREEK BLVD, SAN JOSE, CA, 95129",638614093,"L"
212278,"4340 TAGGART CREEK RD - STE D","CHARLOTTE","NC",28208,35.226820397,-80.9223897639999,278,"4340 TAGGART CREEK RD - STE D, CHARLOTTE, NC, 28208","Match","Exact","4340 TAGGART CREEK RD, CHARLOTTE, NC, 28208",640628606,"L"
212279,"4340 VON KARMAN AVE STE 340","NEWPORT BEACH","CA",92660,NA,NA,279,"4340 VON KARMAN AVE STE 340, NEWPORT BEACH, CA, 92660","No_Match",NA,NA,NA,NA
212280,"4340 VON KARMAN AVE SUITE 100","NEWPORT BEACH","CA",92660,NA,NA,280,"4340 VON KARMAN AVE SUITE 100, NEWPORT BEACH, CA, 92660","No_Match",NA,NA,NA,NA
212281,"4340 VON KARMAN AVENUE SUITE 350","NEWPORT BEACH","CA",92660,NA,NA,281,"4340 VON KARMAN AVENUE SUITE 350, NEWPORT BEACH, CA, 92660","No_Match",NA,NA,NA,NA
212282,"4340 W CO RD  1100 S","PARIS CROSSING","IN",47270,38.8239325260001,-85.689191792,282,"4340 W CO RD  1100 S, PARIS CROSSING, IN, 47270","Match","Exact","4340 W CO RD 1100 S, PARIS CROSSING, IN, 47270",30126051,"R"
212283,"43405 STANCLIFF AVE","LANCASTER","CA",93535,34.6714517130001,-118.096403976,283,"43405 STANCLIFF AVE, LANCASTER, CA, 93535","Match","Exact","43405 STANCLIFF AVE, LANCASTER, CA, 93535",640127214,"L"
212284,"4341 41ST AVE NORTH","BIRMINGHAM","AL",35217,33.562742493,-86.7709731159999,284,"4341 41ST AVE NORTH, BIRMINGHAM, AL, 35217","Match","Exact","4341 41ST AVE N, BIRMINGHAM, AL, 35217",81577495,"R"
212285,"4341 ACER GROVE SUITE B","SPRINGFIELD","IL",62711,NA,NA,285,"4341 ACER GROVE SUITE B, SPRINGFIELD, IL, 62711","No_Match",NA,NA,NA,NA
212286,"4341 CHELSEY WAY CT","SNELLVILLE","GA",30039,33.8122791910001,-84.062283311,286,"4341 CHELSEY WAY CT, SNELLVILLE, GA, 30039","Match","Exact","4341 CHELSEY WAY CT, SNELLVILLE, GA, 30039",624250772,"L"
212287,"4341 CRISTY AVE","SAN BERNARDINO","CA",92407,34.1676803020001,-117.353829322,287,"4341 CRISTY AVE, SAN BERNARDINO, CA, 92407","Match","Exact","4341 CRISTY AVE, SAN BERNARDINO, CA, 92407",145226372,"R"
212288,"4341 EAST JEWELL AVENUE","DENVER","CO",80222,39.6820825730001,-104.936526105,288,"4341 EAST JEWELL AVENUE, DENVER, CO, 80222","Match","Exact","4341 E JEWELL AVE, DENVER, CO, 80222",639310170,"L"
212289,"4341 LINDBERGH DR SUITE 200J","ADDISON","TX",75001,32.958073282,-96.836419377,289,"4341 LINDBERGH DR SUITE 200J, ADDISON, TX, 75001","Match","Exact","4341 LINDBERGH DR, ADDISON, TX, 75001",635140369,"R"
212290,"4341 SUTTON CIRCLE","READING","PA",19606,40.306560991,-75.869416563,290,"4341 SUTTON CIRCLE, READING, PA, 19606","Match","Exact","4341 SUTTON CIR, READING, PA, 19606",80411017,"R"
212291,"4341 TELFAIR BLVD  F405","CAMP SPRINGS","MD",20746,38.83081077,-76.912735551,291,"4341 TELFAIR BLVD  F405, CAMP SPRINGS, MD, 20746","Match","Exact","4341 TELFAIR BLVD, CAMP SPRINGS, MD, 20746",638664849,"L"
212292,"4341 W PATRICK ST","FAYETTEVILLE","AR",72704,36.084157384,-94.2226496759999,292,"4341 W PATRICK ST, FAYETTEVILLE, AR, 72704","Match","Exact","4341 W PATRICK ST, FAYETTEVILLE, AR, 72704",49069607,"R"
212293,"4342 ARCH CREEK DRIVE","JACKSONVILLE","FL",32257,30.210563258,-81.606778391,293,"4342 ARCH CREEK DRIVE, JACKSONVILLE, FL, 32257","Match","Exact","4342 ARCH CREEK DR, JACKSONVILLE, FL, 32257",83934950,"L"
212294,"4342 BITTERWOOD DRIVE","CONVERSE","TX",78109,29.4692520680001,-98.3208399919999,294,"4342 BITTERWOOD DRIVE, CONVERSE, TX, 78109","Match","Exact","4342 BITTERWOOD DR, CONVERSE, TX, 78109",619949152,"L"
212295,"4342 CETTI","HOUSTON","TX",77009,29.798868457,-95.359479068,295,"4342 CETTI, HOUSTON, TX, 77009","Match","Non_Exact","4342 CETTI ST, HOUSTON, TX, 77009",233413543,"L"
212296,"4342 CHOWEN AVE N","ROBBINSDALE","MN",55422,45.034727995,-93.325121675,296,"4342 CHOWEN AVE N, ROBBINSDALE, MN, 55422","Match","Exact","4342 CHOWEN AVE N, ROBBINSDALE, MN, 55422",43839783,"R"
212297,"4342 GLENHAVEN DR","TRACY","CA",95377,37.700150949,-121.424966211,297,"4342 GLENHAVEN DR, TRACY, CA, 95377","Match","Exact","4342 GLENHAVEN DR, TRACY, CA, 95377",133917010,"L"
212298,"4342 HAMPTON WOODS DRIVE NE","MARIETTA","GA",30068,33.9729205350001,-84.4250227809999,298,"4342 HAMPTON WOODS DRIVE NE, MARIETTA, GA, 30068","Match","Exact","4342 HAMPTON WOODS DR NE, MARIETTA, GA, 30068",17186681,"L"
212299,"4342 HARRISON AVE STE 2","CINCINATI","OH",45211,39.1626960520001,-84.6253680189999,299,"4342 HARRISON AVE STE 2, CINCINATI, OH, 45211","Match","Non_Exact","4342 HARRISON AVE, CINCINNATI, OH, 45211",103916742,"R"
212300,"4342 KOUSA RD","AUSTELL","GA",30106,33.8487115070001,-84.6107207049999,300,"4342 KOUSA RD, AUSTELL, GA, 30106","Match","Exact","4342 KOUSA RD, AUSTELL, GA, 30106",618315356,"R"
212301,"4342 LAFAYETTE LANE","COLLEGE PARK","GA",30337,33.636387106,-84.483049466,301,"4342 LAFAYETTE LANE, COLLEGE PARK, GA, 30337","Match","Exact","4342 LAFAYETTE LN, COLLEGE PARK, GA, 30337",17338784,"L"
212302,"4342 MURFREESBORO RD","FRANKLIN","TN",37067,35.8989888290001,-86.780244118,302,"4342 MURFREESBORO RD, FRANKLIN, TN, 37067","Match","Exact","4342 MURFREESBORO RD, FRANKLIN, TN, 37067",73104473,"R"
212303,"4342 NE ANTIOCH RD","KANSAS CITY","MO",64117,NA,NA,303,"4342 NE ANTIOCH RD, KANSAS CITY, MO, 64117","No_Match",NA,NA,NA,NA
212304,"4342 OLD WALKER TOWN ROAD STE B","WINSTON SALEM","NC",27105,NA,NA,304,"4342 OLD WALKER TOWN ROAD STE B, WINSTON SALEM, NC, 27105","Tie",NA,NA,NA,NA
212305,"4342 WILD GINGER CIRCLE","YORBA LINDA","CA",92866,33.8985869430001,-117.815239067,305,"4342 WILD GINGER CIRCLE, YORBA LINDA, CA, 92866","Match","Non_Exact","4342 WILD GINGER CIR, YORBA LINDA, CA, 92886",651733065,"R"
212306,"43422 W OAKS DR STE 235","NOVI","MI",48377,42.4911081660001,-83.476590548,306,"43422 W OAKS DR STE 235, NOVI, MI, 48377","Match","Non_Exact","43422 W OAKS DR, NOVI, MI, 48377",69781854,"R"
212307,"43422 W OAKS DRIVE 268","NOVI","MI",48377,42.4911081660001,-83.476590548,307,"43422 W OAKS DRIVE 268, NOVI, MI, 48377","Match","Non_Exact","43422 W OAKS DR, NOVI, MI, 48377",69781854,"R"
212308,"4343 BELLEFONTAINE AVENUE","KANSAS CITY","MO",64130,39.04721879,-94.548323107,308,"4343 BELLEFONTAINE AVENUE, KANSAS CITY, MO, 64130","Match","Exact","4343 BELLEFONTAINE AVE, KANSAS CITY, MO, 64130",91452227,"L"
212309,"4343 CARPENTER RD","STOCKTON","CA",95215,37.927082737,-121.220742256,309,"4343 CARPENTER RD, STOCKTON, CA, 95215","Match","Exact","4343 CARPENTER RD, STOCKTON, CA, 95215",133932669,"L"
212310,"4343 CONGRESS AVE 364","DALLAS","TX",75219,32.811074854,-96.816490152,310,"4343 CONGRESS AVE 364, DALLAS, TX, 75219","Match","Exact","4343 CONGRESS AVE, DALLAS, TX, 75219",102908412,"L"
212311,"4343 COOPER RD","BLUE ASH","OH",45242,39.2373144270001,-84.3895123999999,311,"4343 COOPER RD, BLUE ASH, OH, 45242","Match","Exact","4343 COOPER RD, BLUE ASH, OH, 45242",103927725,"R"
212312,"4343 CREEK VALLEY COURT SW","ATLANTA","GA",30331,33.690879248,-84.5311395099999,312,"4343 CREEK VALLEY COURT SW, ATLANTA, GA, 30331","Match","Exact","4343 CREEK VALLEY CT SW, ATLANTA, GA, 30331",17337236,"R"
212313,"4343 E 22ND ST","TUCSON","AZ",85711,32.206992708,-110.899758591,313,"4343 E 22ND ST, TUCSON, AZ, 85711","Match","Exact","4343 E 22ND ST, TUCSON, AZ, 85711",121180124,"L"
212314,"4343 FLOOD AVE","NORMAN","OK",73069,35.2755305910001,-97.481683773,314,"4343 FLOOD AVE, NORMAN, OK, 73069","Match","Non_Exact","4343 N FLOOD AVE, NORMAN, OK, 73069",641643092,"R"
212315,"4343 GALLOP CT","BARGERSVILLE","IN",46106,39.537812983,-86.1833658849999,315,"4343 GALLOP CT, BARGERSVILLE, IN, 46106","Match","Exact","4343 GALLOP CT, BARGERSVILLE, IN, 46106",651193814,"R"
212316,"4343 HWY 108 W","FOREMAN","AR",71836,NA,NA,316,"4343 HWY 108 W, FOREMAN, AR, 71836","No_Match",NA,NA,NA,NA
212317,"4343 PACIFIC AVE C2","STOCKTON","CA",95207,37.9873174850001,-121.31111004,317,"4343 PACIFIC AVE C2, STOCKTON, CA, 95207","Match","Exact","4343 PACIFIC AVE, STOCKTON, CA, 95207",133873229,"L"
212318,"4343 S 165 RD","BOLIVAR","MO",65613,37.6177675120001,-93.3309416709999,318,"4343 S 165 RD, BOLIVAR, MO, 65613","Match","Exact","4343 S 165TH RD, BOLIVAR, MO, 65613",23053070,"R"
212319,"4343 S RIDGEWOOD AVE STE A-1","PORT ORANGE","FL",32127,29.139729104,-80.9853449989999,319,"4343 S RIDGEWOOD AVE STE A-1, PORT ORANGE, FL, 32127","Match","Non_Exact","4343 S RIDGEWOOD AVE, PORT ORANGE, FL, 32127",639419109,"R"
212320,"4343 SHALLOWFORD RD SUITE 121","MARIETTA","GA",30062,34.0273438520001,-84.4244171719999,320,"4343 SHALLOWFORD RD SUITE 121, MARIETTA, GA, 30062","Match","Exact","4343 SHALLOWFORD RD, MARIETTA, GA, 30062",17256741,"L"
212321,"4343 W SUNRISE BLVD","PLANTATION","FL",33313,26.135949198,-80.208064053,321,"4343 W SUNRISE BLVD, PLANTATION, FL, 33313","Match","Exact","4343 W SUNRISE BLVD, PLANTATION, FL, 33313",637267455,"L"
212322,"4343 WEST COMMERCE STREET","SAN ANTONIO","TX",78237,29.430109095,-98.547297295,322,"4343 WEST COMMERCE STREET, SAN ANTONIO, TX, 78237","Match","Exact","4343 W COMMERCE ST, SAN ANTONIO, TX, 78237",638043975,"R"
212323,"43430 MONROE ST SUITE D","INDIO","CA",92201,33.736007699,-116.233741221,323,"43430 MONROE ST SUITE D, INDIO, CA, 92201","Match","Exact","43430 MONROE ST, INDIO, CA, 92201",194773567,"L"
212324,"43434 SAHUAYO STREET","LANCASTER","CA",93535,34.6719942020001,-118.127912874,324,"43434 SAHUAYO STREET, LANCASTER, CA, 93535","Match","Non_Exact","43434 E SAHUAYO ST, LANCASTER, CA, 93535",141854134,"L"
212325,"43434 VISTA CIRCLE DRIVE","LANCASTER","CA",93536,34.6719865740001,-118.200356824,325,"43434 VISTA CIRCLE DRIVE, LANCASTER, CA, 93536","Match","Exact","43434 VISTA CIRCLE DR, LANCASTER, CA, 93536",142670098,"R"
212326,"43435 CANYON CREEK RD","KING CITY","CA",93930,36.1472087660001,-121.200936498,326,"43435 CANYON CREEK RD, KING CITY, CA, 93930","Match","Exact","43435 CANYON CREEK RD, KING CITY, CA, 93930",196859078,"L"
212327,"4344  BLUE HERON DR","PONTE VEDRA BEACH","FL",32082,30.2124979980001,-81.3913844479999,327,"4344  BLUE HERON DR, PONTE VEDRA BEACH, FL, 32082","Match","Exact","4344 BLUE HERON DR, PONTE VEDRA BEACH, FL, 32082",92601522,"R"
212328,"4344 HUNTERS TRL DR","TOLEDO","OH",43607,NA,NA,328,"4344 HUNTERS TRL DR, TOLEDO, OH, 43607","No_Match",NA,NA,NA,NA
212329,"4344 LAUREL CANYON BLVD STE 4","STUDIO CITY","CA",91604,34.1493822140001,-118.396457582,329,"4344 LAUREL CANYON BLVD STE 4, STUDIO CITY, CA, 91604","Match","Exact","4344 LAUREL CANYON BLVD, STUDIO CITY, CA, 91604",141564708,"R"
212330,"4344 N 121ST TER","KANSAS CITY","KS",66109,39.166493313,-94.860141562,330,"4344 N 121ST TER, KANSAS CITY, KS, 66109","Match","Exact","4344 N 121ST TER, KANSAS CITY, KS, 66109",619585767,"L"
212331,"4344 NORTH WITCHDUCK ROAD","VIRGINIA BEACH","VA",23455,36.87020962,-76.1247421419999,331,"4344 NORTH WITCHDUCK ROAD, VIRGINIA BEACH, VA, 23455","Match","Exact","4344 N WITCHDUCK RD, VIRGINIA BCH, VA, 23455",122260187,"R"
212332,"4344 OLD MILL RD","ANDERSON","SC",29621,34.561651882,-82.692467243,332,"4344 OLD MILL RD, ANDERSON, SC, 29621","Match","Exact","4344 OLD MILL RD, ANDERSON, SC, 29621",25463557,"R"
212333,"4344 SAM KEEN ROAD","LAKE WALES","FL",33898,27.892520963,-81.3387118379999,333,"4344 SAM KEEN ROAD, LAKE WALES, FL, 33898","Match","Exact","4344 SAM KEEN RD, LAKE WALES, FL, 33898",104801428,"L"
212334,"4344 W CHEYENNE AVE","NORTH LAS VEGAS","NV",89032,36.2173627220001,-115.199923993,334,"4344 W CHEYENNE AVE, NORTH LAS VEGAS, NV, 89032","Match","Exact","4344 W CHEYENNE AVE, N LAS VEGAS, NV, 89032",632506316,"R"
212335,"4344 W HIGHLAND DR SUITE 59","MACON","GA",31210,32.8285576260001,-83.71686735,335,"4344 W HIGHLAND DR SUITE 59, MACON, GA, 31210","Match","Non_Exact","4344 W HIGHLAND DR, MACON, GA, 31210",81082350,"R"
212336,"4344 W PARADISE LN","GLENDALE","AZ",85306,33.6323381060001,-112.1521887,336,"4344 W PARADISE LN, GLENDALE, AZ, 85306","Match","Exact","4344 W PARADISE LN, GLENDALE, AZ, 85306",128176549,"R"
212337,"4344 W SPAATZ AVE","FRESNO","CA",93722,36.8390191340001,-119.870681079,337,"4344 W SPAATZ AVE, FRESNO, CA, 93722","Match","Exact","4344 W SPAATZ AVE, FRESNO, CA, 93722",197607248,"R"
212338,"4344 WEST MADISON ST","CHICAGO","IL",60624,41.8806324720001,-87.7341439909999,338,"4344 WEST MADISON ST, CHICAGO, IL, 60624","Match","Exact","4344 W MADISON ST, CHICAGO, IL, 60624",111765765,"R"
212339,"43443 W SANSOM DR","MARICOPA","AZ",85138,33.070351987,-112.034791364,339,"43443 W SANSOM DR, MARICOPA, AZ, 85138","Match","Exact","43443 SANSOM DR, MARICOPA, AZ, 85138",129255267,"R"
212340,"43445 COUNTY ROAD 374","PAW PAW","MI",49079,42.2255448380001,-85.970164105,340,"43445 COUNTY ROAD 374, PAW PAW, MI, 49079","Match","Exact","43445 CO RD 374, PAW PAW, MI, 49079",34766895,"L"
212341,"4344B KENNERLY AVE","ST LOUIS","MO",63113,38.6617802550001,-90.240490302,341,"4344B KENNERLY AVE, ST LOUIS, MO, 63113","Match","Exact","4344 KENNERLY AVE, SAINT LOUIS, MO, 63113",107595719,"L"
212342,"4345 ADAMS STATION ROAD","EDWARDS","MS",39066,32.1788690400001,-90.5660779139999,342,"4345 ADAMS STATION ROAD, EDWARDS, MS, 39066","Match","Exact","4345 ADAMS STATION RD, EDWARDS, MS, 39066",639744858,"L"
212343,"4345 ALLEN GENOA ROAD","PASADENA","TX",77504,29.644899734,-95.200457283,343,"4345 ALLEN GENOA ROAD, PASADENA, TX, 77504","Match","Non_Exact","4345 ALLEN-GENOA RD, PASADENA, TX, 77504",651488739,"L"
212344,"4345 CORPORATE CENTER DRIVE","LAS VEGAS","NV",89030,NA,NA,344,"4345 CORPORATE CENTER DRIVE, LAS VEGAS, NV, 89030","No_Match",NA,NA,NA,NA
212345,"4345 ESCONDIDO TL","MALIBU","CA",90265,34.0462142710001,-118.778089238,345,"4345 ESCONDIDO TL, MALIBU, CA, 90265","Match","Exact","4345 ESCONDIDO TRL, MALIBU, CA, 90265",627312697,"L"
212346,"4345 GEORGETOWN DR N","WILSON","NC",27896,35.77781593,-77.9426491149999,346,"4345 GEORGETOWN DR N, WILSON, NC, 27896","Match","Non_Exact","4345 GEORGETOWN DR, WILSON, NC, 27896",26715278,"L"
212347,"4345 HUNTINGTOWN ROAD","HUNTINGTOWN","MD",20639,38.6205440090001,-76.626022346,347,"4345 HUNTINGTOWN ROAD, HUNTINGTOWN, MD, 20639","Match","Exact","4345 HUNTINGTOWN RD, HUNTINGTOWN, MD, 20639",78183951,"R"
212348,"4345 INDIAN DEER ROAD","WINDERMERE","FL",34786,28.494918453,-81.598757913,348,"4345 INDIAN DEER ROAD, WINDERMERE, FL, 34786","Match","Exact","4345 INDIAN DEER RD, WINDERMERE, FL, 34786",634027074,"R"
212349,"4345 JACKSONVIEW DR","TALLAHASSEE","FL",32303,30.522566736,-84.3351363309999,349,"4345 JACKSONVIEW DR, TALLAHASSEE, FL, 32303","Match","Exact","4345 JACKSONVIEW DR, TALLAHASSEE, FL, 32303",82845137,"R"
212350,"4345 KIRKWOOD HWY SUITE 201","WILMINGTON","DE",19808,39.727592842,-75.651041003,350,"4345 KIRKWOOD HWY SUITE 201, WILMINGTON, DE, 19808","Match","Exact","4345 KIRKWOOD HWY, WILMINGTON, DE, 19808",187298660,"L"
212351,"4345 MENTONE ST APT D","SAN DIEGO","CA",92107,32.750325864,-117.231155319,351,"4345 MENTONE ST APT D, SAN DIEGO, CA, 92107","Match","Exact","4345 MENTONE ST, SAN DIEGO, CA, 92107",195339592,"L"
212352,"4345 PARLIAMENT WAY","AVON","IN",46123,39.753410468,-86.450378068,352,"4345 PARLIAMENT WAY, AVON, IN, 46123","Match","Exact","4345 PARLIAMENT WAY, AVON, IN, 46123",646764193,"R"
212353,"4345 POPLAR BROOK DRIVE","COLORADO SPRINGS","CO",80907,38.8929277170001,-104.692252424,353,"4345 POPLAR BROOK DRIVE, COLORADO SPRINGS, CO, 80907","Match","Non_Exact","4345 POPLAR BROOK DR, COLO SPGS, CO, 80922",105575580,"L"
212354,"4345 POPLAR ST UNIT 105","FRISCO","TX",75034,33.1449743760001,-96.8516236199999,354,"4345 POPLAR ST UNIT 105, FRISCO, TX, 75034","Match","Exact","4345 POPLAR ST, FRISCO, TX, 75034",648155755,"L"
212355,"4345 ROLLING RIDGE","GILLSVILLE","GA",30543,NA,NA,355,"4345 ROLLING RIDGE, GILLSVILLE, GA, 30543","Tie",NA,NA,NA,NA
212356,"4345 SHELDON AVENUE","BALTIMORE","MD",21206,39.326618324,-76.5619921799999,356,"4345 SHELDON AVENUE, BALTIMORE, MD, 21206","Match","Exact","4345 SHELDON AVE, BALTIMORE, MD, 21206",206411455,"R"
212357,"4345 STRICKLAND DR","SYRACUSE","NY",13215,42.9999550160001,-76.2082788659999,357,"4345 STRICKLAND DR, SYRACUSE, NY, 13215","Match","Exact","4345 STRICKLAND DR, SYRACUSE, NY, 13215",653866492,"R"
212358,"4345 SUMMER STAR LN","FORT WORTH","TX",76244,32.904220975,-97.293468062,358,"4345 SUMMER STAR LN, FORT WORTH, TX, 76244","Match","Exact","4345 SUMMER STAR LN, FORT WORTH, TX, 76244",638655911,"L"
212359,"43452 NYS RT 3","NATURAL BRIDGE","NY",13665,44.06915379,-75.504115026,359,"43452 NYS RT 3, NATURAL BRIDGE, NY, 13665","Match","Non_Exact","43452 STATE RTE 3, NATURAL BRG, NY, 13665",640626103,"R"
212360,"434533 E 250 RD","VINITA","OK",74301,36.6557211800001,-95.2610012169999,360,"434533 E 250 RD, VINITA, OK, 74301","Match","Exact","434533 E 250 RD, VINITA, OK, 74301",20644505,"R"
212361,"43454 COUNTY ROAD 10","ROGGEN","CO",80652,40.0586256030001,-104.240855273,361,"43454 COUNTY ROAD 10, ROGGEN, CO, 80652","Match","Exact","43454 CO RD 10, ROGGEN, CO, 80652",188672312,"L"
212362,"43455 SCHOENHERR ROAD SUITE 12","STERLING","MI",48313,42.613723539,-82.99256701,362,"43455 SCHOENHERR ROAD SUITE 12, STERLING, MI, 48313","Match","Non_Exact","43455 SCHOENHERR RD, STERLING HEIGHTS, MI, 48313",110740628,"R"
212363,"43456 ELLSWORTH ST 3608","FREMONT","CA",94539,37.530852049,-121.920808666,363,"43456 ELLSWORTH ST 3608, FREMONT, CA, 94539","Match","Exact","43456 ELLSWORTH ST, FREMONT, CA, 94539",125033848,"L"
212364,"43456 ELLSWORTH STREET  UNIT 3183","FREMONT","CA",94539,37.530852049,-121.920808666,364,"43456 ELLSWORTH STREET  UNIT 3183, FREMONT, CA, 94539","Match","Exact","43456 ELLSWORTH ST, FREMONT, CA, 94539",125033848,"L"
212365,"43458 MINK MEADOWS ST","SOUTH RIDING","VA",20152,38.8933266000001,-77.498912331,365,"43458 MINK MEADOWS ST, SOUTH RIDING, VA, 20152","Match","Exact","43458 MINK MEADOWS ST, SOUTH RIDING, VA, 20152",62359406,"L"
212366,"4346 BOCA WOODS DRIVE","ORLANDO","FL",32826,28.6029165900001,-81.184858062,366,"4346 BOCA WOODS DRIVE, ORLANDO, FL, 32826","Match","Exact","4346 BOCA WOODS DR, ORLANDO, FL, 32826",94346287,"L"
212367,"4346 DAFFODIL CIR S","PALM BEACH GARDENS","FL",33410,26.8193668870001,-80.103651069,367,"4346 DAFFODIL CIR S, PALM BEACH GARDENS, FL, 33410","Match","Exact","4346 DAFFODIL CIR S, PALM BEACH GARDENS, FL, 33410",651758771,"L"
212368,"4346 E SLAUSON AVE","MAYWOOD","CA",90270,33.9874492440001,-118.188577909,368,"4346 E SLAUSON AVE, MAYWOOD, CA, 90270","Match","Exact","4346 E SLAUSON AVE, MAYWOOD, CA, 90270",141676603,"R"
212369,"4346 GROVE PARK DRIVE","TALLAHASSEE","FL",32311,30.3878675880001,-84.223807194,369,"4346 GROVE PARK DRIVE, TALLAHASSEE, FL, 32311","Match","Exact","4346 GROVE PARK DR, TALLAHASSEE, FL, 32311",618806145,"R"
212370,"4346 KNOXVILLE RD","NAPA","CA",94558,38.533786934,-122.228221954,370,"4346 KNOXVILLE RD, NAPA, CA, 94558","Match","Exact","4346 KNOXVILLE RD, NAPA, CA, 94558",67418735,"R"
212371,"4346 LOWELL AVE","LOS ANGELES","CA",90032,34.0949512290001,-118.162458684,371,"4346 LOWELL AVE, LOS ANGELES, CA, 90032","Match","Non_Exact","4346 N LOWELL AVE, LOS ANGELES, CA, 90032",141635171,"R"
212372,"4346 PLANTATION TRACE DRIVE","DULUTH","GA",30096,34.008955009,-84.173135536,372,"4346 PLANTATION TRACE DRIVE, DULUTH, GA, 30096","Match","Exact","4346 PLANTATION TRACE DR, DULUTH, GA, 30096",88961604,"L"
212373,"4346 S 2150 W","ROY","UT",84067,41.1843662100001,-112.031238205,373,"4346 S 2150 W, ROY, UT, 84067","Match","Exact","4346 S 2150 W, ROY, UT, 84067",155692386,"L"
212374,"4346 S STRONG BOX RD","GOLD CANYON","AZ",85118,33.3754883190001,-111.438480976,374,"4346 S STRONG BOX RD, GOLD CANYON, AZ, 85118","Match","Exact","4346 S STRONG BOX RD, GOLD CANYON, AZ, 85118",129375429,"L"
212375,"4346 WATERLICK RD","FOREST","VA",24551,37.334777747,-79.26454202,375,"4346 WATERLICK RD, FOREST, VA, 24551","Match","Exact","4346 WATERLICK RD, FOREST, VA, 24551",224276474,"R"
212376,"43460 BLACK BAYOU","GONZALES","LA",70737,30.262357567,-90.871634785,376,"43460 BLACK BAYOU, GONZALES, LA, 70737","Match","Non_Exact","43460 BLACK BAYOU RD, GONZALES, LA, 70737",115033099,"R"
212377,"43460 LOUDOUN RESERVE DR","ASHBURN","VA",20148,38.9764018160001,-77.5038601539999,377,"43460 LOUDOUN RESERVE DR, ASHBURN, VA, 20148","Match","Exact","43460 LOUDOUN RESERVE DR, ASHBURN, VA, 20148",629572827,"L"
212378,"43460 LOUDOUN RESERVE DRIVE","ASHBURN","VA",20148,38.9764018160001,-77.5038601539999,378,"43460 LOUDOUN RESERVE DRIVE, ASHBURN, VA, 20148","Match","Exact","43460 LOUDOUN RESERVE DR, ASHBURN, VA, 20148",629572827,"L"
212379,"43460 RIDGE PARK DRIVE  STE 240","TEMECULA","CA",92590,33.497017553,-117.161288575,379,"43460 RIDGE PARK DRIVE  STE 240, TEMECULA, CA, 92590","Match","Exact","43460 RIDGE PARK DR, TEMECULA, CA, 92590",194855566,"L"
212380,"43466 BUSINESS PARK DRIVE","TEMECULA","CA",92590,33.500189752,-117.159207995,380,"43466 BUSINESS PARK DRIVE, TEMECULA, CA, 92590","Match","Non_Exact","43466 BUS PARK DR, TEMECULA, CA, 92590",195085094,"R"
212381,"43469 CALPHAMS MILL CT","LEESBURG","VA",20176,39.0940517450001,-77.495056607,381,"43469 CALPHAMS MILL CT, LEESBURG, VA, 20176","Match","Exact","43469 CALPHAMS MILL CT, LEESBURG, VA, 20176",636846444,"L"
212382,"43469 RIDGECREST DR","BIG BEAR LAKE","CA",92315,34.2310056960001,-116.853659473,382,"43469 RIDGECREST DR, BIG BEAR LAKE, CA, 92315","Match","Non_Exact","43469 RIDGE CREST DR, BIG BEAR LAKE, CA, 92315",144682850,"L"
212383,"4347 AURORA ST","NAPLES","FL",34119,26.3106075950001,-81.721292451,383,"4347 AURORA ST, NAPLES, FL, 34119","Match","Exact","4347 AURORA ST, NAPLES, FL, 34119",648603724,"R"
212384,"4347 FRANKLIN RD","ROANOKE","VA",24018,37.221803466,-79.9678481299999,384,"4347 FRANKLIN RD, ROANOKE, VA, 24018","Match","Non_Exact","4347 FRANKLIN RD SW, ROANOKE, VA, 24018",62938238,"R"
212385,"4347 FRANKLIN ROAD","ROANOKE","VA",24018,37.221803466,-79.9678481299999,385,"4347 FRANKLIN ROAD, ROANOKE, VA, 24018","Match","Non_Exact","4347 FRANKLIN RD SW, ROANOKE, VA, 24018",62938238,"R"
212386,"4347 LEACH AVENUE APT 3","OAKLAND","CA",94602,37.8088753820001,-122.2226087,386,"4347 LEACH AVENUE APT 3, OAKLAND, CA, 94602","Match","Exact","4347 LEACH AVE, OAKLAND, CA, 94602",125002771,"L"
212387,"4347 MAGGIE MARIE BLVD","MEDINA","OH",44256,41.1836475420001,-81.8448939419999,387,"4347 MAGGIE MARIE BLVD, MEDINA, OH, 44256","Match","Exact","4347 MAGGIE MARIE BLVD, MEDINA, OH, 44256",614146091,"L"
212388,"4347 SOUTH HAMPTON ROAD SUITE 133","DALLAS","TX",75232,NA,NA,388,"4347 SOUTH HAMPTON ROAD SUITE 133, DALLAS, TX, 75232","No_Match",NA,NA,NA,NA
212389,"4348 A TRIPLE CROWN DRIVE","CONCORD","NC",28027,35.3559171730001,-80.6192254439999,389,"4348 A TRIPLE CROWN DRIVE, CONCORD, NC, 28027","Match","Non_Exact","4348 TRIPLE CROWN DR SW, CONCORD, NC, 28027",24913213,"L"
212390,"4348 BRICKWOOD DR","HILLIARD","OH",43026,40.0412248960001,-83.148450926,390,"4348 BRICKWOOD DR, HILLIARD, OH, 43026","Match","Exact","4348 BRICKWOOD DR, HILLIARD, OH, 43026",218656101,"L"
212391,"4348 CENTER AVENUE","NORCO","CA",92860,33.9444933510001,-117.53898824,391,"4348 CENTER AVENUE, NORCO, CA, 92860","Match","Non_Exact","4348 CENTER ST, NORCO, CA, 92860",194734949,"L"
212392,"4348 CLOVER","HOUSTON","TX",77051,29.6604961900001,-95.363191397,392,"4348 CLOVER, HOUSTON, TX, 77051","Match","Non_Exact","4348 CLOVER ST, HOUSTON, TX, 77051",96088861,"R"
212393,"4348 HAMLINE AVE N","ARDEN HILLS","MN",55112,45.072842431,-93.15748518,393,"4348 HAMLINE AVE N, ARDEN HILLS, MN, 55112","Match","Exact","4348 HAMLINE AVE N, ARDEN HILLS, MN, 55112",97635126,"R"
212394,"4348 MCWHINNEY BLVD - 1023","LOVELAND","CO",80538,40.4099923700001,-105.015077133,394,"4348 MCWHINNEY BLVD - 1023, LOVELAND, CO, 80538","Match","Exact","4348 MCWHINNEY BLVD, LOVELAND, CO, 80538",646586900,"L"
212395,"4348 NE 83RD TERRACE","KANSAS CITY","MO",64119,39.2447131540001,-94.528903208,395,"4348 NE 83RD TERRACE, KANSAS CITY, MO, 64119","Match","Exact","4348 NE 83RD TER, KANSAS CITY, MO, 64119",627743839,"L"
212396,"4348 PINNACLE DRIVE","CEDAR HILLS","UT",84062,40.4128152440001,-111.762339816,396,"4348 PINNACLE DRIVE, CEDAR HILLS, UT, 84062","Match","Non_Exact","4348 W PINNACLE DR, CEDAR HILLS, UT, 84062",134238980,"R"
212397,"4348 SAINT ANDREWS DRIVE","BOYNTON BEACH","FL",33436,26.524759164,-80.1123646779999,397,"4348 SAINT ANDREWS DRIVE, BOYNTON BEACH, FL, 33436","Match","Exact","4348 SAINT ANDREWS DR, BOYNTON BEACH, FL, 33436",115286433,"R"
212398,"4348 SOUTH PRARIE","CHICAGO","IL",60653,41.8156980160001,-87.6197723449999,398,"4348 SOUTH PRARIE, CHICAGO, IL, 60653","Match","Non_Exact","4348 S PRAIRIE AVE, CHICAGO, IL, 60653",111770591,"R"
212399,"4348 WAIALAE AVE NO 921","HONOLULU","HI",96816,NA,NA,399,"4348 WAIALAE AVE NO 921, HONOLULU, HI, 96816","No_Match",NA,NA,NA,NA
212400,"4348 WAIALAE AVE NUMBER 158","HONOLULU","HI",96816,NA,NA,400,"4348 WAIALAE AVE NUMBER 158, HONOLULU, HI, 96816","No_Match",NA,NA,NA,NA
212401,"4348 WAIALAE AVE UNIT 632","HONOLULU","HI",96816,NA,NA,401,"4348 WAIALAE AVE UNIT 632, HONOLULU, HI, 96816","No_Match",NA,NA,NA,NA
212402,"4348 WAIALAE AVENUE BOX 126","HONOLULU","HI",96816,NA,NA,402,"4348 WAIALAE AVENUE BOX 126, HONOLULU, HI, 96816","No_Match",NA,NA,NA,NA
212403,"4348 YACHT HAVEN WAY","WEST CHESTER","OH",45069,39.3594528840001,-84.47499505,403,"4348 YACHT HAVEN WAY, WEST CHESTER, OH, 45069","Match","Exact","4348 YACHT HAVEN WAY, WEST CHESTER, OH, 45069",608962757,"L"
212404,"4349 21ST AVE SW","NAPLES","FL",34116,26.190288567,-81.6929444789999,404,"4349 21ST AVE SW, NAPLES, FL, 34116","Match","Exact","4349 21ST AVE SW, NAPLES, FL, 34116",115134898,"L"
212405,"4349 E BROADWAY BLVD","TUCSON","AZ",85711,32.221519372,-110.899812606,405,"4349 E BROADWAY BLVD, TUCSON, AZ, 85711","Match","Exact","4349 E BROADWAY BLVD, TUCSON, AZ, 85711",121179981,"L"
212406,"4349 E LINCOLNWAY","CHEYENNE","WY",82001,41.143122088,-104.757486921,406,"4349 E LINCOLNWAY, CHEYENNE, WY, 82001","Match","Exact","4349 E LINCOLNWAY, CHEYENNE, WY, 82001",641989540,"R"
212407,"4349 FULLERTON STREET","DETROIT","MI",48238,42.383023816,-83.133478074,407,"4349 FULLERTON STREET, DETROIT, MI, 48238","Match","Exact","4349 FULLERTON ST, DETROIT, MI, 48238",633516354,"L"
212408,"4349 GLENVILLE RD","GLEN ROCK","PA",17327,39.727729706,-76.862031594,408,"4349 GLENVILLE RD, GLEN ROCK, PA, 17327","Match","Exact","4349 GLENVILLE RD, GLEN ROCK, PA, 17327",88724309,"R"
212409,"4349 HIGHWAY 11 AND 80 EAST","TOOMSUBA","MS",39364,32.420815556,-88.4874552919999,409,"4349 HIGHWAY 11 AND 80 EAST, TOOMSUBA, MS, 39364","Match","Non_Exact","4349 US HWY 11, TOOMSUBA, MS, 39364",649590108,"L"
212410,"4349 HIGHWAY 11 AND 80","TOOMSUBA","MS",39364,32.420815556,-88.4874552919999,410,"4349 HIGHWAY 11 AND 80, TOOMSUBA, MS, 39364","Match","Non_Exact","4349 US HWY 11, TOOMSUBA, MS, 39364",649590108,"L"
212411,"4349 MARJORIE RD","SNELLVILLE","GA",30039,33.764466037,-84.031626748,411,"4349 MARJORIE RD, SNELLVILLE, GA, 30039","Match","Non_Exact","4349 MARJORIE RD SW, SNELLVILLE, GA, 30039",88891116,"R"
212412,"4349 SEABREEZE DRIVE","JAX BEACH","FL",32250,30.266208395,-81.431469337,412,"4349 SEABREEZE DRIVE, JAX BEACH, FL, 32250","Match","Exact","4349 SEABREEZE DR, JAX BCH, FL, 32250",83948770,"L"
212413,"4349 SEQUOIA AVENUE","MEMPHIS","TN",38117,35.141898417,-89.917763195,413,"4349 SEQUOIA AVENUE, MEMPHIS, TN, 38117","Match","Non_Exact","4349 SEQUOIA RD, MEMPHIS, TN, 38117",72916709,"R"
212414,"4349 SHADOW WOOD DRIVE","EUGENE","OR",97405,44.0059438370001,-123.070257172,414,"4349 SHADOW WOOD DRIVE, EUGENE, OR, 97405","Match","Exact","4349 SHADOW WOOD DR, EUGENE, OR, 97405",178175611,"L"
212415,"4349 SWINDON TERRACE","UPPER MARLBORO","MD",20772,38.8281892460001,-76.7782127839999,415,"4349 SWINDON TERRACE, UPPER MARLBORO, MD, 20772","Match","Exact","4349 SWINDON TER, UPPER MARLBORO, MD, 20772",76393662,"R"
212416,"4349 W MORROW DR","GLENDALE","AZ",85308,33.657108812,-112.154015361,416,"4349 W MORROW DR, GLENDALE, AZ, 85308","Match","Exact","4349 W MORROW DR, GLENDALE, AZ, 85308",128175220,"R"
212417,"4349 WOODSRIDGE DR","POLK CITY","FL",33868,28.1714905910001,-81.870823871,417,"4349 WOODSRIDGE DR, POLK CITY, FL, 33868","Match","Exact","4349 WOODSRIDGE DR, POLK CITY, FL, 33868",104917190,"R"
212418,"43490 POSTRAIL SQUARE","ASHBURN","VA",20147,NA,NA,418,"43490 POSTRAIL SQUARE, ASHBURN, VA, 20147","No_Match",NA,NA,NA,NA
212419,"435 1/2 SOUTH AUBURN STREET","GRASS VALLEY","CA",95945,39.211756069,-121.061701919,419,"435 1/2 SOUTH AUBURN STREET, GRASS VALLEY, CA, 95945","Match","Exact","435 S AUBURN ST, GRASS VALLEY, CA, 95945",635458274,"R"
212420,"435 2ND STREET","WOODLAND","CA",95695,38.6767872390001,-121.771890436,420,"435 2ND STREET, WOODLAND, CA, 95695","Match","Exact","435 2ND ST, WOODLAND, CA, 95695",67690297,"L"
212421,"435 35TH AVE","EAST MOLINE","IL",61244,41.496424846,-90.450439096,421,"435 35TH AVE, EAST MOLINE, IL, 61244","Match","Exact","435 35TH AVE, EAST MOLINE, IL, 61244",9228129,"L"
212422,"435 71ST ST","NORTH BERGEN","NJ",7047,40.7959635490001,-74.0087687339999,422,"435 71ST ST, NORTH BERGEN, NJ, 7047","Match","Exact","435 71ST ST, NORTH BERGEN, NJ, 07047",59598685,"L"
212423,"435 B1 FM1092 SUITE 168","STAFFORD","TX",77477,NA,NA,423,"435 B1 FM1092 SUITE 168, STAFFORD, TX, 77477","No_Match",NA,NA,NA,NA
212424,"435 BAY RIDGE PKWY","BROOKLYN","NY",11209,40.6304048160001,-74.024144231,424,"435 BAY RIDGE PKWY, BROOKLYN, NY, 11209","Match","Exact","435 BAY RIDGE PKWY, BROOKLYN, NY, 11209",59094288,"L"
212425,"435 BINNS LOOP","CROSSETT","AR",71635,33.1794629510001,-91.939289479,425,"435 BINNS LOOP, CROSSETT, AR, 71635","Match","Exact","435 BINNS LOOP, CROSSETT, AR, 71635",31446546,"L"
212426,"435 BROOK RIDGE CIRCLE","CORDOVA","TN",38018,35.1374317190001,-89.7873054679999,426,"435 BROOK RIDGE CIRCLE, CORDOVA, TN, 38018","Match","Exact","435 BROOK RIDGE CIR, CORDOVA, TN, 38018",72948043,"L"
212427,"435 BUCKINGHAM DR","JEFFERSON CITY","TN",37760,36.104960168,-83.485609446,427,"435 BUCKINGHAM DR, JEFFERSON CITY, TN, 37760","Match","Exact","435 BUCKINGHAM DR, JEFFERSON CITY, TN, 37760",42573530,"L"
212428,"435 BUCKINGHAM STREET","OAKVILLE","CT",6779,41.5998555080001,-73.086090062,428,"435 BUCKINGHAM STREET, OAKVILLE, CT, 6779","Match","Exact","435 BUCKINGHAM ST, OAKVILLE, CT, 06779",3116828,"L"
212429,"435 BUCKLAND RD 2ND FL","SOUTH WINDSOR","CT",6074,41.823514414,-72.552898689,429,"435 BUCKLAND RD 2ND FL, SOUTH WINDSOR, CT, 6074","Match","Exact","435 BUCKLAND RD, SOUTH WINDSOR, CT, 06074",3491155,"L"
212430,"435 CHINA BASIN STREET UNIT 116","SAN FRANCISCO","CA",94158,37.772026957,-122.389002149,430,"435 CHINA BASIN STREET UNIT 116, SAN FRANCISCO, CA, 94158","Match","Exact","435 CHINA BASIN ST, SAN FRANCISCO, CA, 94158",649754120,"L"
212431,"435 COLE CREEK DRIVE","FORT MILL","SC",29707,NA,NA,431,"435 COLE CREEK DRIVE, FORT MILL, SC, 29707","No_Match",NA,NA,NA,NA
212432,"435 COLLEGE AVE","MODESTO","CA",95350,37.6509292860001,-121.007449118,432,"435 COLLEGE AVE, MODESTO, CA, 95350","Match","Exact","435 COLLEGE AVE, MODESTO, CA, 95350",102604225,"L"
212433,"435 COLLEGE AVENUE","MODESTO","CA",95350,37.6509292860001,-121.007449118,433,"435 COLLEGE AVENUE, MODESTO, CA, 95350","Match","Exact","435 COLLEGE AVE, MODESTO, CA, 95350",102604225,"L"
212434,"435 CONVENT AVE APT 4","NEW YORK","NY",10031,40.827079632,-73.94444082,434,"435 CONVENT AVE APT 4, NEW YORK, NY, 10031","Match","Exact","435 CONVENT AVE, NEW YORK, NY, 10031",59656218,"R"
212435,"435 CORNELL AVENUE","PEMBERTON","NJ",8068,39.9547845590001,-74.678236286,435,"435 CORNELL AVENUE, PEMBERTON, NJ, 8068","Match","Exact","435 CORNELL AVE, PEMBERTON, NJ, 08068",134042161,"R"
212436,"435 COURT STREET","READING","PA",19601,40.3362625010001,-75.92848099,436,"435 COURT STREET, READING, PA, 19601","Match","Exact","435 COURT ST, READING, PA, 19601",80382924,"L"
212437,"435 CR 2940","PITTSBURG","TX",75686,33.0472994240001,-95.0987707959999,437,"435 CR 2940, PITTSBURG, TX, 75686","Match","Exact","435 CO RD 2940, PITTSBURG, TX, 75686",83225805,"L"
212438,"435 DARST ROAD","FERGUSON","MO",63135,38.7468979170001,-90.30038496,438,"435 DARST ROAD, FERGUSON, MO, 63135","Match","Exact","435 DARST RD, FERGUSON, MO, 63135",100146115,"L"
212439,"435 DE LA VINA ST","SANTA BARBARA","CA",93101,34.4143874330001,-119.697386499,439,"435 DE LA VINA ST, SANTA BARBARA, CA, 93101","Match","Exact","435 DE LA VINA ST, SANTA BARBARA, CA, 93101",108659693,"L"
212440,"435 DEER RUN DR","CENTRAL SQUARE","NY",13036,43.299717903,-76.141739065,440,"435 DEER RUN DR, CENTRAL SQUARE, NY, 13036","Match","Exact","435 DEER RUN DR, CENTRAL SQUARE, NY, 13036",653459802,"R"
212441,"435 DENSLOW AVE","LOS ANGELES","CA",90049,34.0675917610001,-118.457647222,441,"435 DENSLOW AVE, LOS ANGELES, CA, 90049","Match","Exact","435 DENSLOW AVE, LOS ANGELES, CA, 90049",652037374,"R"
212442,"435 DIAMOND AVE","GRAND RAPIDS","MI",49503,42.97131611,-85.644686588,442,"435 DIAMOND AVE, GRAND RAPIDS, MI, 49503","Match","Non_Exact","435 DIAMOND AVE NE, GRAND RAPIDS, MI, 49503",12460527,"L"
212443,"435 DORRENCE ROAD","GRANVILLE","OH",43023,40.0875660400001,-82.50156774,443,"435 DORRENCE ROAD, GRANVILLE, OH, 43023","Match","Exact","435 DORRENCE RD, GRANVILLE, OH, 43023",61504040,"L"
212444,"435 E BOB JONES ROAD","SOUTHLAKE","TX",76092,32.9996120270001,-97.144928576,444,"435 E BOB JONES ROAD, SOUTHLAKE, TX, 76092","Match","Exact","435 E BOB JONES RD, SOUTHLAKE, TX, 76092",642841080,"R"
212445,"435 E COUNTY LINE RD","LAKEWOOD","NJ",8701,40.105547179,-74.209668612,445,"435 E COUNTY LINE RD, LAKEWOOD, NJ, 8701","Match","Exact","435 E COUNTY LINE RD, LAKEWOOD, NJ, 08701",203793249,"L"
212446,"435 E FRONT STREET","BERWICK","PA",18603,41.057572195,-76.227781927,446,"435 E FRONT STREET, BERWICK, PA, 18603","Match","Exact","435 E FRONT ST, BERWICK, PA, 18603",651755289,"L"
212447,"435 E NAPA STREET","SONOMA","CA",95476,38.2910683810001,-122.449118397,447,"435 E NAPA STREET, SONOMA, CA, 95476","Match","Exact","435 E NAPA ST, SONOMA, CA, 95476",605088020,"R"
212448,"435 E WASHINGTON LANE","PHILADELPHIA","PA",19144,40.048844768,-75.175138779,448,"435 E WASHINGTON LANE, PHILADELPHIA, PA, 19144","Match","Exact","435 E WASHINGTON LN, PHILADELPHIA, PA, 19144",131395489,"L"
212449,"435 EAST COUNTY LINE ROAD","LAKEWOOD","NJ",8701,40.1055479930001,-74.2096826819999,449,"435 EAST COUNTY LINE ROAD, LAKEWOOD, NJ, 8701","Match","Exact","435 E COUNTY LINE RD, LAKEWOOD, NJ, 08701",203793249,"L"
212450,"435 EAST MAIN STREET SUITE 103","DENVILLE","NJ",7834,40.877989192,-74.48021399,450,"435 EAST MAIN STREET SUITE 103, DENVILLE, NJ, 7834","Match","Exact","435 E MAIN ST, DENVILLE, NJ, 07834",60458214,"R"
212451,"435 EASTERWOOD POINT RD","MAYFLOWER","AR",72016,34.966131031,-92.523808908,451,"435 EASTERWOOD POINT RD, MAYFLOWER, AR, 72016","Match","Non_Exact","435 EASTERWOOD POINT RD, MAYFLOWER, AR, 72106",141048924,"L"
212452,"435 FM 1510","BROOKSTON","TX",75421,33.660957539,-95.6310020179999,452,"435 FM 1510, BROOKSTON, TX, 75421","Match","Exact","435 FM 1510, BROOKSTON, TX, 75421",63583952,"L"
212453,"435 GALLIVAN BOULEVARD","BOSTON","MA",2124,42.28177752,-71.0596791249999,453,"435 GALLIVAN BOULEVARD, BOSTON, MA, 2124","Match","Exact","435 GALLIVAN BLVD, BOSTON, MA, 02124",85715349,"R"
212454,"435 GARDEN GRACE DR","INDIANAPOLIS","IN",46239,39.764043128,-85.9699326099999,454,"435 GARDEN GRACE DR, INDIANAPOLIS, IN, 46239","Match","Exact","435 GARDEN GRACE DR, INDIANAPOLIS, IN, 46239",108045570,"L"
212455,"435 GARNER ROAD","NEW BERN","NC",28560,35.058312598,-77.014520756,455,"435 GARNER ROAD, NEW BERN, NC, 28560","Match","Exact","435 GARNER RD, NEW BERN, NC, 28560",34126529,"R"
212456,"435 GLENDEVON DRIVE","RIVERDALE","GA",30274,33.5211962110001,-84.405080529,456,"435 GLENDEVON DRIVE, RIVERDALE, GA, 30274","Match","Exact","435 GLENDEVON DR, RIVERDALE, GA, 30274",23322076,"R"
212457,"435 GRASSY SPRINGS RD","VERSAILLES","KY",40383,38.1331492570001,-84.793059624,457,"435 GRASSY SPRINGS RD, VERSAILLES, KY, 40383","Match","Exact","435 GRASSY SPRINGS RD, VERSAILLES, KY, 40383",38499742,"R"
212458,"435 HALLECK CANYON ROAD","WHEATLAND","WY",82201,41.8546527410001,-105.27324576,458,"435 HALLECK CANYON ROAD, WHEATLAND, WY, 82201","Match","Exact","435 HALLECK CANYON RD, WHEATLAND, WY, 82201",168728071,"L"
212459,"435 HARRISON AVENUE","LOVELAND","CO",80537,40.3958715860001,-105.081169057,459,"435 HARRISON AVENUE, LOVELAND, CO, 80537","Match","Exact","435 HARRISON AVE, LOVELAND, CO, 80537",188485991,"L"
212460,"435 HIGHLAND AVE NE UNIT 1216","ATLANTA","GA",30312,33.7613676220001,-84.373089871,460,"435 HIGHLAND AVE NE UNIT 1216, ATLANTA, GA, 30312","Match","Exact","435 HIGHLAND AVE NE, ATLANTA, GA, 30312",17357169,"R"
212461,"435 HIGHWAY 481","PELAHATCHIE","MS",39145,32.440161442,-89.786951196,461,"435 HIGHWAY 481, PELAHATCHIE, MS, 39145","Match","Non_Exact","435 STATE HWY 481, PELAHATCHIE, MS, 39145",116897068,"R"
212462,"435 HOBART STREET","GARY","IN",46404,41.603172923,-87.416771572,462,"435 HOBART STREET, GARY, IN, 46404","Match","Non_Exact","435 HOBART ST, GARY, IN, 46406",98440637,"L"
212463,"435 HOME DRIVE","TRAFFORD","PA",15085,40.3941296790001,-79.7256700629999,463,"435 HOME DRIVE, TRAFFORD, PA, 15085","Match","Exact","435 HOME DR, TRAFFORD, PA, 15085",53002825,"L"
212464,"435 HUNTER AVE","SCOTCH PLAINS","NJ",7076,40.6461858340001,-74.40158887,464,"435 HUNTER AVE, SCOTCH PLAINS, NJ, 7076","Match","Exact","435 HUNTER AVE, SCOTCH PLAINS, NJ, 07076",60591325,"L"
212465,"435 J STEELE RD","DOTHAN","AL",36303,31.3063859870001,-85.4384557609999,465,"435 J STEELE RD, DOTHAN, AL, 36303","Match","Non_Exact","435 J STEEL RD, DOTHAN, AL, 36303",99605359,"L"
212466,"435 JIGGS HIGHWAY BOX 9","SPRING CREEK","NV",89815,NA,NA,466,"435 JIGGS HIGHWAY BOX 9, SPRING CREEK, NV, 89815","No_Match",NA,NA,NA,NA
212467,"435 JULIE STREET PO BOX 547","TOMAH","WI",54660,44.003351566,-90.508180379,467,"435 JULIE STREET PO BOX 547, TOMAH, WI, 54660","Match","Exact","435 JULIE ST, TOMAH, WI, 54660",632030109,"R"
212468,"435 KINGS HIGHWAY","CARNEGIE","PA",15106,NA,NA,468,"435 KINGS HIGHWAY, CARNEGIE, PA, 15106","No_Match",NA,NA,NA,NA
212469,"435 KISMET STREET","RIDGWAY","CO",81432,38.1607688710001,-107.758437944,469,"435 KISMET STREET, RIDGWAY, CO, 81432","Match","Exact","435 KISMET ST, RIDGWAY, CO, 81432",635908925,"R"
212470,"435 LARRY AVENUE NORTH","KEIZER","OR",97303,44.9851553010001,-123.030520255,470,"435 LARRY AVENUE NORTH, KEIZER, OR, 97303","Match","Exact","435 LARRY AVE N, KEIZER, OR, 97303",156246177,"R"
212471,"435 LAWTON DR","FAIRFAX","SC",29827,32.9263845500001,-81.294112796,471,"435 LAWTON DR, FAIRFAX, SC, 29827","Match","Exact","435 LAWTON DR, FAIRFAX, SC, 29827",19044422,"R"
212472,"435 LEICESTER AVE","DULUTH","MN",55803,46.8323894590001,-92.062690547,472,"435 LEICESTER AVE, DULUTH, MN, 55803","Match","Exact","435 LEICESTER AVE, DULUTH, MN, 55803",163212254,"L"
212473,"435 LINCOLN AVE","EUGENE","OR",97401,44.0552325940001,-123.097278848,473,"435 LINCOLN AVE, EUGENE, OR, 97401","Match","Non_Exact","435 LINCOLN ST, EUGENE, OR, 97401",605384235,"L"
212474,"435 MALLARD ROAD","HATBORO","PA",19040,40.1834334490001,-75.112963253,474,"435 MALLARD ROAD, HATBORO, PA, 19040","Match","Exact","435 MALLARD RD, HATBORO, PA, 19040",135079653,"L"
212475,"435 MARION OAKS GOLF ROAD","OCALA","FL",34473,28.98098135,-82.1869578979999,475,"435 MARION OAKS GOLF ROAD, OCALA, FL, 34473","Match","Exact","435 MARION OAKS GOLF RD, OCALA, FL, 34473",627298410,"L"
212476,"435 MARVEL ROAD","CORBIN","KY",40701,36.970052271,-84.0657928809999,476,"435 MARVEL ROAD, CORBIN, KY, 40701","Match","Exact","435 MARVEL RD, CORBIN, KY, 40701",649932354,"L"
212477,"435 MCDONALD LANE WEST","CEDAR CREEK","TX",78612,30.108522996,-97.479329112,477,"435 MCDONALD LANE WEST, CEDAR CREEK, TX, 78612","Match","Exact","435 MCDONALD LN W, CEDAR CREEK, TX, 78612",635393300,"L"
212478,"435 MELANIE CT","CHAPEL","NC",27514,35.942282575,-79.0246673999999,478,"435 MELANIE CT, CHAPEL, NC, 27514","Match","Non_Exact","435 MELANIE CT, CHAPEL HILL, NC, 27514",72400980,"L"
212479,"435 MERCHANT WALK SQ STE 300-523","CHARLOTTESVILLE","VA",22902,NA,NA,479,"435 MERCHANT WALK SQ STE 300-523, CHARLOTTESVILLE, VA, 22902","No_Match",NA,NA,NA,NA
212480,"435 MIDWAY POINTE","ELLENWOOD","GA",30294,33.639203078,-84.2224254769999,480,"435 MIDWAY POINTE, ELLENWOOD, GA, 30294","Match","Exact","435 MIDWAY POINTE, ELLENWOOD, GA, 30294",632080400,"L"
212481,"435 MURPHY ROAD  APT 277","STAFFORD","TX",77477,29.6154712040001,-95.5646210309999,481,"435 MURPHY ROAD  APT 277, STAFFORD, TX, 77477","Match","Exact","435 MURPHY RD, STAFFORD, TX, 77477",78347986,"R"
212482,"435 N 35TH AVE UNIT 104","GREELEY","CO",80631,NA,NA,482,"435 N 35TH AVE UNIT 104, GREELEY, CO, 80631","No_Match",NA,NA,NA,NA
212483,"435 N 5TH ST","PHOENIX","AZ",85004,33.452736127,-112.067469617,483,"435 N 5TH ST, PHOENIX, AZ, 85004","Match","Exact","435 N 5TH ST, PHOENIX, AZ, 85004",637414705,"R"
212484,"435 N 9TH ST","CENTRAL POINT","OR",97502,42.3815361540001,-122.913816175,484,"435 N 9TH ST, CENTRAL POINT, OR, 97502","Match","Exact","435 N 9TH ST, CENTRAL POINT, OR, 97502",155511428,"L"
212485,"435 N BANCROFT ST","INDIANAPOLIS","IN",46201,39.7739908610001,-86.0845599209999,485,"435 N BANCROFT ST, INDIANAPOLIS, IN, 46201","Match","Exact","435 N BANCROFT ST, INDIANAPOLIS, IN, 46201",108001211,"R"
212486,"435 N BEDFORD DRIVE PH","BEVERLY HILLS","CA",90210,34.0683499740001,-118.405486975,486,"435 N BEDFORD DRIVE PH, BEVERLY HILLS, CA, 90210","Match","Non_Exact","435 N BEDFORD DR, BEVERLY HILLS, CA, 90210",141571556,"L"
212487,"435 N CLINTON TRAIL","CHARLOTTE","MI",48813,42.613445422,-84.844156009,487,"435 N CLINTON TRAIL, CHARLOTTE, MI, 48813","Match","Exact","435 N CLINTON TRL, CHARLOTTE, MI, 48813",12029930,"L"
212488,"435 N IL ROUTE 59","BARTLETT","IL",60103,NA,NA,488,"435 N IL ROUTE 59, BARTLETT, IL, 60103","No_Match",NA,NA,NA,NA
212489,"435 N NORTHWEST ST","WINAMAC","IN",46996,41.0536600340001,-86.610357468,489,"435 N NORTHWEST ST, WINAMAC, IN, 46996","Match","Exact","435 N NORTHWEST ST, WINAMAC, IN, 46996",15481279,"L"
212490,"435 N OBSERVATORY DR","ORLANDO","FL",32835,28.5470876900001,-81.4684244439999,490,"435 N OBSERVATORY DR, ORLANDO, FL, 32835","Match","Exact","435 N OBSERVATORY DR, ORLANDO, FL, 32835",94420007,"R"
212491,"435 N WISCONSIN DRIVE","HOWARDS GROVE","WI",53083,43.8378019470001,-87.820650381,491,"435 N WISCONSIN DRIVE, HOWARDS GROVE, WI, 53083","Match","Exact","435 N WISCONSIN DR, HOWARDS GROVE, WI, 53083",79491989,"R"
212492,"435 NORTH CHERRY WOOD LANE","MUNCIE","IN",47304,40.1965903440001,-85.4647813449999,492,"435 NORTH CHERRY WOOD LANE, MUNCIE, IN, 47304","Match","Exact","435 N CHERRY WOOD LN, MUNCIE, IN, 47304",30858835,"R"
212493,"435 NORTH JOHN SCOTT HIGHWAY","STEUBENVILLE","OH",43952,NA,NA,493,"435 NORTH JOHN SCOTT HIGHWAY, STEUBENVILLE, OH, 43952","No_Match",NA,NA,NA,NA
212494,"435 NORTH TENTH STREET","FAIRVIEW","NJ",7022,40.82300049,-73.996686613,494,"435 NORTH TENTH STREET, FAIRVIEW, NJ, 7022","Match","Exact","435 N 10TH ST, FAIRVIEW, NJ, 07022",64423883,"L"
212495,"435 OAKLAWN AVENUE SUITE A","CHULA VISTA","CA",91910,32.632281434,-117.093324158,495,"435 OAKLAWN AVENUE SUITE A, CHULA VISTA, CA, 91910","Match","Exact","435 OAKLAWN AVE, CHULA VISTA, CA, 91910",651709268,"L"
212496,"435 PEMBROOK LANE","WOODLAND PARK","CO",80863,39.0200558290001,-105.065049974,496,"435 PEMBROOK LANE, WOODLAND PARK, CO, 80863","Match","Exact","435 PEMBROOK LN, WOODLAND PARK, CO, 80863",130946401,"R"
212497,"435 PHOENIX STREET","DELAVAN","WI",53115,42.625745017,-88.6431449419999,497,"435 PHOENIX STREET, DELAVAN, WI, 53115","Match","Exact","435 PHOENIX ST, DELAVAN, WI, 53115",53664824,"R"
212498,"435 PIEDMONT RD / PO BOX 274","THE ROCK","GA",30285,32.9762346480001,-84.2393118479999,498,"435 PIEDMONT RD / PO BOX 274, THE ROCK, GA, 30285","Match","Exact","435 PIEDMONT RD, THE ROCK, GA, 30285",83689694,"L"
212499,"435 PLAINSBORO RD","PLAINSBORO","NJ",8536,40.333940942,-74.59692705,499,"435 PLAINSBORO RD, PLAINSBORO, NJ, 8536","Match","Exact","435 PLAINSBORO RD, PLAINSBORO, NJ, 08536",626867961,"L"
212500,"435 QUAKER HILL RD","MAGNOLIA","DE",19962,39.080460799,-75.4780341969999,500,"435 QUAKER HILL RD, MAGNOLIA, DE, 19962","Match","Exact","435 QUAKER HILL RD, MAGNOLIA, DE, 19962",68106385,"L"
