"ID","Address","City","State","Zip","lat","long","id","input_address","match_indicator","match_type","matched_address","tiger_line_id","tiger_side"
124001,"2241 NOAH STREET","HONOLULU","HI",96816,21.298671992,-157.80159099,1,"2241 NOAH STREET, HONOLULU, HI, 96816","Match","Exact","2241 NOAH ST, HONOLULU, HI, 96816",203238301,"R"
124002,"2241 NORTH  7TH STREET","GRAND JUNCTION","CO",81501,39.0873594400001,-108.561020172,2,"2241 NORTH  7TH STREET, GRAND JUNCTION, CO, 81501","Match","Exact","2241 N 7TH ST, GRAND JCT, CO, 81501",122432245,"L"
124003,"2241 NW 3RD STREET","POMPANO BEACH","FL",33069,NA,NA,3,"2241 NW 3RD STREET, POMPANO BEACH, FL, 33069","Tie",NA,NA,NA,NA
124004,"2241 PARK PL SUITE E","MINDEN","NV",89423,38.9993485970001,-119.763746976,4,"2241 PARK PL SUITE E, MINDEN, NV, 89423","Match","Exact","2241 PARK PL, MINDEN, NV, 89423",173751099,"L"
124005,"2241 PIGS EAR ROAD","GRANTSVILLE","MD",21536,39.714338594,-79.3006813659999,5,"2241 PIGS EAR ROAD, GRANTSVILLE, MD, 21536","Match","Exact","2241 PIGS EAR RD, GRANTSVILLE, MD, 21536",74207696,"L"
124006,"2241 S PREAKNESS WAY","NAMPA","ID",83686,43.5476957820001,-116.519130661,6,"2241 S PREAKNESS WAY, NAMPA, ID, 83686","Match","Exact","2241 S PREAKNESS WAY, NAMPA, ID, 83686",122806848,"R"
124007,"2241 S SHERMAN CIRCLE","MIRAMAR","FL",33025,NA,NA,7,"2241 S SHERMAN CIRCLE, MIRAMAR, FL, 33025","Tie",NA,NA,NA,NA
124008,"2241 SPAULDING DRIVE","ELY","MN",55731,47.915925375,-91.8316355279999,8,"2241 SPAULDING DRIVE, ELY, MN, 55731","Match","Exact","2241 SPAULDING DR, ELY, MN, 55731",612826083,"R"
124009,"2241 WASHINGTON PIKE","KNOXVILLE","TN",37917,36.0005440190001,-83.9138584029999,9,"2241 WASHINGTON PIKE, KNOXVILLE, TN, 37917","Match","Exact","2241 WASHINGTON PIKE, KNOXVILLE, TN, 37917",42621103,"L"
124010,"2241 WEATHERSTONE CIRCLE","CONYERS","GA",30094,33.629521733,-84.023807076,10,"2241 WEATHERSTONE CIRCLE, CONYERS, GA, 30094","Match","Non_Exact","2241 WEATHERSTONE CIR SE, CONYERS, GA, 30094",23747105,"R"
124011,"2241 WOODEN ACRES DRIVE","MUSCATINE","IA",52761,41.4181047450001,-91.1339279439999,11,"2241 WOODEN ACRES DRIVE, MUSCATINE, IA, 52761","Match","Exact","2241 WOODEN ACRES DR, MUSCATINE, IA, 52761",99005355,"L"
124012,"22410 MOUNTAIN VIEW ROAD","MORENO VALLEY","CA",92557,33.9706145390001,-117.271943458,12,"22410 MOUNTAIN VIEW ROAD, MORENO VALLEY, CA, 92557","Match","Exact","22410 MOUNTAIN VIEW RD, MORENO VALLEY, CA, 92557",194798355,"R"
124013,"22410 S CLEVELAND AVE","PECULIAR","MO",64078,38.7191992680001,-94.553961334,13,"22410 S CLEVELAND AVE, PECULIAR, MO, 64078","Match","Exact","22410 S CLEVELAND AVE, PECULIAR, MO, 64078",100931936,"L"
124014,"22410 SE 111TH AVENUE","HAWTHORNE","FL",32640,29.552175462,-82.084014961,14,"22410 SE 111TH AVENUE, HAWTHORNE, FL, 32640","Match","Exact","22410 SE 111TH AVE, HAWTHORNE, FL, 32640",6816647,"L"
124015,"22411 PLUM CREEK DRIVE","SAUK VILLAGE","IL",60411,41.482672086,-87.553722921,15,"22411 PLUM CREEK DRIVE, SAUK VILLAGE, IL, 60411","Match","Exact","22411 PLUM CREEK DR, SAUK VILLAGE, IL, 60411",112223655,"L"
124016,"22411 RIPPLING BROOK","LAKE FOREST","CA",92630,33.6369765590001,-117.670142167,16,"22411 RIPPLING BROOK, LAKE FOREST, CA, 92630","Match","Exact","22411 RIPPLING BROOK, LAKE FOREST, CA, 92630",651720372,"R"
124017,"22413 THEISEN AVE","SAUKVILLAGE","IL",60411,41.482699817,-87.546422615,17,"22413 THEISEN AVE, SAUKVILLAGE, IL, 60411","Match","Non_Exact","22413 THEISEN AVE, LYNWOOD, IL, 60411",111787205,"L"
124018,"22414 SW 88TH PATH","CUTLER BAY","FL",33190,25.559043323,-80.3349625339999,18,"22414 SW 88TH PATH, CUTLER BAY, FL, 33190","Match","Exact","22414 SW 88 PATH, CUTLER BAY, FL, 33190",642152705,"L"
124019,"22415 BRIGGS COLEMAN RD","HARLINGEN","TX",78550,26.2327862220001,-97.689327034,19,"22415 BRIGGS COLEMAN RD, HARLINGEN, TX, 78550","Match","Exact","22415 BRIGGS COLEMAN RD, HARLINGEN, TX, 78550",89951230,"L"
124020,"22415 MARKET STREET 1216","CORNELIUS","NC",28301,35.4814281490001,-80.854518795,20,"22415 MARKET STREET 1216, CORNELIUS, NC, 28301","Match","Non_Exact","22415 MARKET ST, CORNELIUS, NC, 28031",641592739,"R"
124021,"22415 MIRAMAR CREST DRIVE","TOMBALL","TX",77375,30.083224,-95.551140784,21,"22415 MIRAMAR CREST DRIVE, TOMBALL, TX, 77375","Match","Exact","22415 MIRAMAR CREST DR, TOMBALL, TX, 77375",652126505,"L"
124022,"22415 SPRING CROSSING DRIVE","SPRING","TX",77373,30.0855585470001,-95.430534447,22,"22415 SPRING CROSSING DRIVE, SPRING, TX, 77373","Match","Exact","22415 SPRING CROSSING DR, SPRING, TX, 77373",624515740,"R"
124023,"22416 OCEAN AVENUE APARTMENT 119","TORRANCE","CA",90505,33.8248536200001,-118.35431931,23,"22416 OCEAN AVENUE APARTMENT 119, TORRANCE, CA, 90505","Match","Exact","22416 OCEAN AVE, TORRANCE, CA, 90505",241243185,"L"
124024,"22417 AUTUMN DRIVE","FRANKFORT","IL",60423,41.4810666280001,-87.8834984659999,24,"22417 AUTUMN DRIVE, FRANKFORT, IL, 60423","Match","Exact","22417 AUTUMN DR, FRANKFORT, IL, 60423",111620739,"L"
124025,"22417 SHAWNEE ROAD","INDIAN HILLS","CO",80454,39.621876635,-105.255741971,25,"22417 SHAWNEE ROAD, INDIAN HILLS, CO, 80454","Match","Exact","22417 SHAWNEE RD, INDIAN HILLS, CO, 80454",642117633,"R"
124026,"224175 ARROWHEAD TRAIL","RINGLE","WI",54471,44.9012304770001,-89.4897080329999,26,"224175 ARROWHEAD TRAIL, RINGLE, WI, 54471","Match","Exact","224175 ARROWHEAD TRL, RINGLE, WI, 54471",617255099,"L"
124027,"22419 JEAN COURT UNIT 1B","RICHTON PARK","IL",60471,41.481880668,-87.710015291,27,"22419 JEAN COURT UNIT 1B, RICHTON PARK, IL, 60471","Match","Exact","22419 JEAN CT, RICHTON PARK, IL, 60471",111708634,"L"
124028,"2242 1/2 248TH STREET","LOMITA","CA",90717,33.799693458,-118.321430241,28,"2242 1/2 248TH STREET, LOMITA, CA, 90717","Match","Non_Exact","2242 W 248TH ST, LOMITA, CA, 90717",142759381,"L"
124029,"2242 7TH STREET WEST 102","SAINT PAUL","MN",55116,NA,NA,29,"2242 7TH STREET WEST 102, SAINT PAUL, MN, 55116","No_Match",NA,NA,NA,NA
124030,"2242 BLUEBIRD DRIVE","WESTMINSTER","MD",21157,39.4897117950001,-77.0806090999999,30,"2242 BLUEBIRD DRIVE, WESTMINSTER, MD, 21157","Match","Exact","2242 BLUEBIRD DR, WESTMINSTER, MD, 21157",61791061,"L"
124031,"2242 CARSON AVE","CLOVIS","CA",93611,36.806698834,-119.658997783,31,"2242 CARSON AVE, CLOVIS, CA, 93611","Match","Exact","2242 CARSON AVE, CLOVIS, CA, 93611",624851638,"L"
124032,"2242 DAWN SHADOW WAY","FRESNO","TX",77545,29.5330614760001,-95.4876458849999,32,"2242 DAWN SHADOW WAY, FRESNO, TX, 77545","Match","Non_Exact","2242 DAWN SHADOW ST, FRESNO, TX, 77545",635219049,"R"
124033,"2242 EL MANTO DRIVE","RANCHO CORDOVA","CA",95670,38.614010428,-121.282820882,33,"2242 EL MANTO DRIVE, RANCHO CORDOVA, CA, 95670","Match","Exact","2242 EL MANTO DR, RANCHO CORDOVA, CA, 95670",133346333,"R"
124034,"2242 ELM GROVE ROAD","WYLIE","TX",75098,NA,NA,34,"2242 ELM GROVE ROAD, WYLIE, TX, 75098","No_Match",NA,NA,NA,NA
124035,"2242 FIELDS CREEK ROAD","WINIFREDE","WV",25214,38.1933250490001,-81.551545689,35,"2242 FIELDS CREEK ROAD, WINIFREDE, WV, 25214","Match","Exact","2242 FIELDS CREEK RD, WINIFREDE, WV, 25214",78661929,"L"
124036,"2242 GROTON ROAD","POCOMOKE CITY","MD",21851,38.074337042,-75.542998336,36,"2242 GROTON ROAD, POCOMOKE CITY, MD, 21851","Match","Exact","2242 GROTON RD, POCOMOKE CITY, MD, 21851",114541132,"R"
124037,"2242 LAWTON DRIVE","LEMON GROVE","CA",91945,32.7293262750001,-117.017980953,37,"2242 LAWTON DRIVE, LEMON GROVE, CA, 91945","Match","Exact","2242 LAWTON DR, LEMON GROVE, CA, 91945",649817855,"L"
124038,"2242 N EDGEWOOD RD","EAGLE","ID",83616,43.716403303,-116.333972365,38,"2242 N EDGEWOOD RD, EAGLE, ID, 83616","Match","Exact","2242 EDGEWOOD RD, EAGLE, ID, 83616",117973777,"L"
124039,"2242 NE DAVIS STREET","PORTLAND","OR",97232,45.524292416,-122.642925159,39,"2242 NE DAVIS STREET, PORTLAND, OR, 97232","Match","Exact","2242 NE DAVIS ST, PORTLAND, OR, 97232",157507043,"R"
124040,"2242 NW 59TH TERRACE","LAUDERHILL","FL",33313,26.1540718430001,-80.229764394,40,"2242 NW 59TH TERRACE, LAUDERHILL, FL, 33313","Match","Exact","2242 NW 59TH TER, LAUDERHILL, FL, 33313",114707611,"R"
124041,"2242 NW 78TH AVE","MARGAGE","FL",33063,26.256721435,-80.229895499,41,"2242 NW 78TH AVE, MARGAGE, FL, 33063","Match","Non_Exact","2242 NW 78TH AVE, MARGATE, FL, 33063",114771643,"R"
124042,"2242 RIVERSIDE DR","WEST COLUMBIA","TX",77486,29.165999755,-95.613347233,42,"2242 RIVERSIDE DR, WEST COLUMBIA, TX, 77486","Match","Exact","2242 RIVERSIDE DR, WEST COLUMBIA, TX, 77486",116571320,"L"
124043,"2242 ROSEMOORE WALK","MARIETTA","GA",30062,34.0208464140001,-84.48708006,43,"2242 ROSEMOORE WALK, MARIETTA, GA, 30062","Match","Non_Exact","2242 ROSEMOORE WALK NE, MARIETTA, GA, 30062",635854920,"L"
124044,"2242 S MILSTEAD","WICHITA","KS",67209,37.652268781,-97.476228448,44,"2242 S MILSTEAD, WICHITA, KS, 67209","Match","Non_Exact","2242 S MILSTEAD ST, WICHITA, KS, 67209",115708704,"L"
124045,"2242 S OLIVEWOOD","MESA","AZ",85209,33.3740405190001,-111.600292367,45,"2242 S OLIVEWOOD, MESA, AZ, 85209","Match","Exact","2242 S OLIVEWOOD, MESA, AZ, 85209",649139234,"R"
124046,"2242 US HIGHWAY 50","BATAVIA","OH",45103,39.1208681640001,-84.1498698839999,46,"2242 US HIGHWAY 50, BATAVIA, OH, 45103","Match","Exact","2242 US HWY 50, BATAVIA, OH, 45103",635570618,"L"
124047,"2242 US HWY 40","ST ELMO","IL",62458,39.027347837,-88.837454494,47,"2242 US HWY 40, ST ELMO, IL, 62458","Match","Exact","2242 US HWY 40, SAINT ELMO, IL, 62458",636019328,"R"
124048,"2242 WELLSPRING LN","CORDOVA","TN",38016,35.186983943,-89.7583618909999,48,"2242 WELLSPRING LN, CORDOVA, TN, 38016","Match","Exact","2242 WELLSPRING LN, CORDOVA, TN, 38016",618372365,"R"
124049,"22420 FENKELL","DETROIT","MI",48223,42.400261051,-83.262084038,49,"22420 FENKELL, DETROIT, MI, 48223","Match","Non_Exact","22420 FENKELL ST, DETROIT, MI, 48223",95421289,"R"
124050,"22420 FM 1017","EDINBURG","TX",78541,NA,NA,50,"22420 FM 1017, EDINBURG, TX, 78541","No_Match",NA,NA,NA,NA
124051,"22420 GREATER MACK AVE","SAINT CLAIR SHORES","MI",48080,42.459053764,-82.901018408,51,"22420 GREATER MACK AVE, SAINT CLAIR SHORES, MI, 48080","Match","Exact","22420 GREATER MACK AVE, SAINT CLAIR SHORES, MI, 48080",110686289,"R"
124052,"22420 NONA STREET","DEARBORN","MI",48124,42.3018694890001,-83.2493184799999,52,"22420 NONA STREET, DEARBORN, MI, 48124","Match","Exact","22420 NONA ST, DEARBORN, MI, 48124",95712523,"R"
124053,"22421 BARTON RD PMM 477","GRAND TERRACE","CA",92313,34.033901794,-117.316186105,53,"22421 BARTON RD PMM 477, GRAND TERRACE, CA, 92313","Match","Exact","22421 BARTON RD, GRAND TERRACE, CA, 92313",144658647,"R"
124054,"22421 BARTON RD STE 504","GRAND TERRACE","CA",92313,34.033901794,-117.316186105,54,"22421 BARTON RD STE 504, GRAND TERRACE, CA, 92313","Match","Exact","22421 BARTON RD, GRAND TERRACE, CA, 92313",144658647,"R"
124055,"22421 BARTON ROAD 298","GRAND TERRACE","CA",92313,34.033901794,-117.316186105,55,"22421 BARTON ROAD 298, GRAND TERRACE, CA, 92313","Match","Exact","22421 BARTON RD, GRAND TERRACE, CA, 92313",144658647,"R"
124056,"22421 BARTON ROAD UNIT 290","GRAND TERRACE","CA",92313,34.033901794,-117.316186105,56,"22421 BARTON ROAD UNIT 290, GRAND TERRACE, CA, 92313","Match","Exact","22421 BARTON RD, GRAND TERRACE, CA, 92313",144658647,"R"
124057,"22423 STRASSBURG AVE","SAUK VILLAGE","IL",60411,41.481776525,-87.566778653,57,"22423 STRASSBURG AVE, SAUK VILLAGE, IL, 60411","Match","Exact","22423 STRASSBURG AVE, SAUK VILLAGE, IL, 60411",111786132,"L"
124058,"22424 S ELLSWORTH LOOP RD STE 604","QUEEN CREEK","AZ",85142,33.24378826,-111.637765296,58,"22424 S ELLSWORTH LOOP RD STE 604, QUEEN CREEK, AZ, 85142","Match","Non_Exact","22424 S ELLSWORTH LOOP RD, QUEEN CREEK, AZ, 85142",650398789,"L"
124059,"22424 S ELLSWORTH LOOP RD","QUEEN CREEK","AZ",85142,33.24378826,-111.637765296,59,"22424 S ELLSWORTH LOOP RD, QUEEN CREEK, AZ, 85142","Match","Exact","22424 S ELLSWORTH LOOP RD, QUEEN CREEK, AZ, 85142",650398789,"L"
124060,"22425 AMHERST STREET","SAINT CLAIR SHORES","MI",48081,42.5098797470001,-82.887542044,60,"22425 AMHERST STREET, SAINT CLAIR SHORES, MI, 48081","Match","Exact","22425 AMHERST ST, SAINT CLAIR SHORES, MI, 48081",110684272,"L"
124061,"22425 BENSON ROAD SE- APT A102","KENT","WA",98031,47.400815616,-122.200654683,61,"22425 BENSON ROAD SE- APT A102, KENT, WA, 98031","Match","Exact","22425 BENSON RD SE, KENT, WA, 98031",187009090,"R"
124062,"22425 RIVERDALE DR","SOUTHFIELD","MI",48033,42.454923455,-83.300691377,62,"22425 RIVERDALE DR, SOUTHFIELD, MI, 48033","Match","Exact","22425 RIVERDALE DR, SOUTHFIELD, MI, 48033",69784559,"L"
124063,"22426 LAWNDALE AVENUE","RICHTON PARK","IL",60471,41.481929795,-87.7056497949999,63,"22426 LAWNDALE AVENUE, RICHTON PARK, IL, 60471","Match","Exact","22426 LAWNDALE AVE, RICHTON PARK, IL, 60471",111710630,"R"
124064,"22427 MANOR ROAD","QUEENS VILLAGE","NY",11427,NA,NA,64,"22427 MANOR ROAD, QUEENS VILLAGE, NY, 11427","No_Match",NA,NA,NA,NA
124065,"22428 STANAFORD ROAD","DANESE","WV",25831,37.978248739,-80.9402279559999,65,"22428 STANAFORD ROAD, DANESE, WV, 25831","Match","Exact","22428 STANAFORD RD, DANESE, WV, 25831",75100537,"R"
124066,"22429 WOOD BRANCH ROAD","GEORGETOWN","DE",19947,38.679368717,-75.355182875,66,"22429 WOOD BRANCH ROAD, GEORGETOWN, DE, 19947","Match","Exact","22429 WOOD BRANCH RD, GEORGETOWN, DE, 19947",106087424,"R"
124067,"2243 BACOM POINT RD","PAHOKEE","FL",33476,26.810927308,-80.687211608,67,"2243 BACOM POINT RD, PAHOKEE, FL, 33476","Match","Exact","2243 BACOM POINT RD, PAHOKEE, FL, 33476",649894042,"L"
124068,"2243 CAMINO BRAZOS","PLEASANTON","CA",94556,NA,NA,68,"2243 CAMINO BRAZOS, PLEASANTON, CA, 94556","No_Match",NA,NA,NA,NA
124069,"2243 CURTIS ST","DENVER","CO",80205,39.752965612,-104.987333542,69,"2243 CURTIS ST, DENVER, CO, 80205","Match","Exact","2243 CURTIS ST, DENVER, CO, 80205",177304496,"L"
124070,"2243 DAVENPORT AVENUE","BATON ROUGE","LA",70807,30.557613582,-91.169911581,70,"2243 DAVENPORT AVENUE, BATON ROUGE, LA, 70807","Match","Exact","2243 DAVENPORT AVE, BATON ROUGE, LA, 70807",92196961,"L"
124071,"2243 EAST DENNEYS RD","DOVER","DE",19901,39.2387478270001,-75.539846111,71,"2243 EAST DENNEYS RD, DOVER, DE, 19901","Match","Exact","2243 E DENNEYS RD, DOVER, DE, 19901",68087301,"L"
124072,"2243 EUTAW PLACE","BALTIMORE","MD",21217,39.3113896420001,-76.6349068549999,72,"2243 EUTAW PLACE, BALTIMORE, MD, 21217","Match","Exact","2243 EUTAW PL, BALTIMORE, MD, 21217",206439312,"R"
124073,"2243 EVENING STAR LN","LAFAYETTE","CO",80026,40.0006899590001,-105.120295152,73,"2243 EVENING STAR LN, LAFAYETTE, CO, 80026","Match","Exact","2243 EVENING STAR LN, LAFAYETTE, CO, 80026",188184171,"L"
124074,"2243 GORDON ST","NEW ORLEANS","LA",70117,29.971405191,-90.006894358,74,"2243 GORDON ST, NEW ORLEANS, LA, 70117","Match","Exact","2243 GORDON ST, NEW ORLEANS, LA, 70117",191722886,"R"
124075,"2243 JESSICA LANE","KISSIMMEE","FL",34744,28.2610369980001,-81.3523334669999,75,"2243 JESSICA LANE, KISSIMMEE, FL, 34744","Match","Exact","2243 JESSICA LN, KISSIMMEE, FL, 34744",176682641,"R"
124076,"2243 JOANN DRIVE","SPRING HILL","TN",37174,35.7789023940001,-86.906757663,76,"2243 JOANN DRIVE, SPRING HILL, TN, 37174","Match","Exact","2243 JOANN DR, SPRING HILL, TN, 37174",607917093,"R"
124077,"2243 N HWY 16","DENVER","NC",28037,35.5031131900001,-81.000084982,77,"2243 N HWY 16, DENVER, NC, 28037","Match","Non_Exact","2243 STATE RD 16, DENVER, NC, 28037",69540426,"L"
124078,"2243 OAK FALLS LANE","BUFORD","GA",30519,34.095924224,-83.875640937,78,"2243 OAK FALLS LANE, BUFORD, GA, 30519","Match","Exact","2243 OAK FALLS LN, BUFORD, GA, 30519",88937577,"L"
124079,"2243 PALM TER","SARASOTA","FL",34231,27.2914866450001,-82.5255514949999,79,"2243 PALM TER, SARASOTA, FL, 34231","Match","Exact","2243 PALM TER, SARASOTA, FL, 34231",16352116,"L"
124080,"2243 PINE TREE LANE","TWINSBURG","OH",44087,41.3292193560001,-81.460047473,80,"2243 PINE TREE LANE, TWINSBURG, OH, 44087","Match","Exact","2243 PINE TREE LN, TWINSBURG, OH, 44087",61373414,"R"
124081,"2243 W PORTER AVENUE","VISALIA","CA",93291,36.3609604960001,-119.315392102,81,"2243 W PORTER AVENUE, VISALIA, CA, 93291","Match","Exact","2243 W PORTER AVE, VISALIA, CA, 93291",617653656,"L"
124082,"22430 GRATIOT AVE PO BOX 122","EASTPOINTE","MI",48021,42.4625196800001,-82.9591784579999,82,"22430 GRATIOT AVE PO BOX 122, EASTPOINTE, MI, 48021","Match","Exact","22430 GRATIOT AVE, EASTPOINTE, MI, 48021",110679211,"R"
124083,"22430 GRATIOT AVENUE - NUMBER 8319","EASTPOINTE","MI",48021,42.4625196800001,-82.9591784579999,83,"22430 GRATIOT AVENUE - NUMBER 8319, EASTPOINTE, MI, 48021","Match","Exact","22430 GRATIOT AVE, EASTPOINTE, MI, 48021",110679211,"R"
124084,"22430 GRATIOT AVENUE UNIT 250","EASTPOINTE","MI",48021,42.4625196800001,-82.9591784579999,84,"22430 GRATIOT AVENUE UNIT 250, EASTPOINTE, MI, 48021","Match","Exact","22430 GRATIOT AVE, EASTPOINTE, MI, 48021",110679211,"R"
124085,"22430 STARWOOD DRIVE","YORBA LINDA","CA",92887,33.8873276160001,-117.741894992,85,"22430 STARWOOD DRIVE, YORBA LINDA, CA, 92887","Match","Exact","22430 STARWOOD DR, YORBA LINDA, CA, 92887",144009489,"L"
124086,"22431 ANTONIO PARKWAY B160-229","RACHO SANTA MARGARIT","CA",92688,NA,NA,86,"22431 ANTONIO PARKWAY B160-229, RACHO SANTA MARGARIT, CA, 92688","No_Match",NA,NA,NA,NA
124087,"22431 ANTONIO PARKWAY STE B160-663","RANCHO SANTA MARGARI","CA",92688,NA,NA,87,"22431 ANTONIO PARKWAY STE B160-663, RANCHO SANTA MARGARI, CA, 92688","No_Match",NA,NA,NA,NA
124088,"22431 FARM ROAD 1060","WASHBURN","MO",65772,NA,NA,88,"22431 FARM ROAD 1060, WASHBURN, MO, 65772","No_Match",NA,NA,NA,NA
124089,"22431 HERON NECK TERRACE","CLARKSBURG","MD",20871,39.224704022,-77.239481841,89,"22431 HERON NECK TERRACE, CLARKSBURG, MD, 20871","Match","Exact","22431 HERON NECK TER, CLARKSBURG, MD, 20871",642179753,"R"
124090,"22432 MARTELLA AVE","BOCA RATON","FL",33433,26.3422245310001,-80.185292542,90,"22432 MARTELLA AVE, BOCA RATON, FL, 33433","Match","Exact","22432 MARTELLA AVE, BOCA RATON, FL, 33433",115574514,"L"
124091,"22433 MAPLE LANE","CLINTON TOWNSHIP","MI",48035,42.5484857480001,-82.889582338,91,"22433 MAPLE LANE, CLINTON TOWNSHIP, MI, 48035","Match","Exact","22433 MAPLE LN, CLINTON TOWNSHIP, MI, 48035",617080838,"R"
124092,"224335 KOLBY LN","BIRNAMWOOD","WI",54414,44.9008928800001,-89.2693477299999,92,"224335 KOLBY LN, BIRNAMWOOD, WI, 54414","Match","Exact","224335 KOLBY LN, BIRNAMWOOD, WI, 54414",117149056,"R"
124093,"22434 DARK STAR WAY","LEXINGTON PARK","MD",20653,38.281780595,-76.4793320749999,93,"22434 DARK STAR WAY, LEXINGTON PARK, MD, 20653","Match","Exact","22434 DARK STAR WAY, LEXINGTON PARK, MD, 20653",627460459,"L"
124094,"22436 LOS ROGUES DR","SANTA CLARITA","CA",91350,34.4476464680001,-118.529779897,94,"22436 LOS ROGUES DR, SANTA CLARITA, CA, 91350","Match","Exact","22436 LOS ROGUES DR, SANTA CLARITA, CA, 91350",141519168,"R"
124095,"22439 DOREMUS ST","ST CLAIR SHORES","MI",48080,42.4639185570001,-82.89609329,95,"22439 DOREMUS ST, ST CLAIR SHORES, MI, 48080","Match","Exact","22439 DOREMUS ST, SAINT CLAIR SHORES, MI, 48080",110686327,"L"
124096,"22439 WALNUT CIRCLE N","CUPERTINO","CA",95014,37.3186058860001,-122.067758042,96,"22439 WALNUT CIRCLE N, CUPERTINO, CA, 95014","Match","Exact","22439 WALNUT CIR N, CUPERTINO, CA, 95014",123013965,"R"
124097,"2244 45TH ST","HIGHLAND","IN",46322,41.537574084,-87.474910779,97,"2244 45TH ST, HIGHLAND, IN, 46322","Match","Exact","2244 45TH ST, HIGHLAND, IN, 46322",98421734,"R"
124098,"2244 DERBYSHIRE DRIVE","MARIETTA","GA",30064,33.9006008470001,-84.622204493,98,"2244 DERBYSHIRE DRIVE, MARIETTA, GA, 30064","Match","Non_Exact","2244 DERBYSHIRE DR SW, MARIETTA, GA, 30064",651506880,"R"
124099,"2244 E FALCON WAY","SANDY","UT",84093,40.5848510920001,-111.826368548,99,"2244 E FALCON WAY, SANDY, UT, 84093","Match","Exact","2244 FALCON WAY, SANDY, UT, 84093",176090377,"R"
124100,"2244 ELM","RIVER GROVE","IL",60171,41.919840037,-87.85132879,100,"2244 ELM, RIVER GROVE, IL, 60171","Match","Non_Exact","2244 ELM ST, RIVER GROVE, IL, 60171",111747675,"L"
124101,"2244 FOX RIDGE TR","FRISCO","TX",75034,33.1244018530001,-96.8715292699999,101,"2244 FOX RIDGE TR, FRISCO, TX, 75034","Match","Non_Exact","2244 FOX RIDGE TRL, FRISCO, TX, 75036",614138876,"R"
124102,"2244 HIGHWAY 17","IBERIA","MO",65486,38.0990344370001,-92.3099481099999,102,"2244 HIGHWAY 17, IBERIA, MO, 65486","Match","Non_Exact","2244 STATE HWY 17, IBERIA, MO, 65486",605482476,"R"
124103,"2244 JACKSON AVENUE","LONG ISLAND CITY","NY",11101,NA,NA,103,"2244 JACKSON AVENUE, LONG ISLAND CITY, NY, 11101","No_Match",NA,NA,NA,NA
124104,"2244 MARSHALL AVE","WHEELING","WV",26003,40.0402316240001,-80.6558156629999,104,"2244 MARSHALL AVE, WHEELING, WV, 26003","Match","Exact","2244 MARSHALL AVE, WHEELING, WV, 26003",38091331,"R"
124105,"2244 MINNEKAHTA AVE","HOT SPRINGS","SD",57747,43.43708853,-103.48954987,105,"2244 MINNEKAHTA AVE, HOT SPRINGS, SD, 57747","Match","Exact","2244 MINNEKAHTA AVE, HOT SPRINGS, SD, 57747",174180548,"R"
124106,"2244 OAKWOOD DRIVE","HILLSDALE","MI",49242,41.8935125140001,-84.589391495,106,"2244 OAKWOOD DRIVE, HILLSDALE, MI, 49242","Match","Exact","2244 OAKWOOD DR, HILLSDALE, MI, 49242",8294675,"L"
124107,"2244 PANOLA ROAD","LITHONIA","GA",30058,33.724626076,-84.167419673,107,"2244 PANOLA ROAD, LITHONIA, GA, 30058","Match","Exact","2244 PANOLA RD, LITHONIA, GA, 30058",23378643,"L"
124108,"2244 PARKWOOD BLVD","EUREKA","CA",95503,40.7219110710001,-124.20407361,108,"2244 PARKWOOD BLVD, EUREKA, CA, 95503","Match","Exact","2244 PARKWOOD BLVD, EUREKA, CA, 95503",113051285,"L"
124109,"2244 PATRICK LN","WAUKESHA","WI",53188,43.034292135,-88.276864265,109,"2244 PATRICK LN, WAUKESHA, WI, 53188","Match","Exact","2244 PATRICK LN, WAUKESHA, WI, 53188",53848057,"R"
124110,"2244 POLDER WAY","AUSTELL","GA",30168,33.808084756,-84.619109743,110,"2244 POLDER WAY, AUSTELL, GA, 30168","Match","Exact","2244 POLDER WAY, AUSTELL, GA, 30168",624490285,"L"
124111,"2244 S QUICKSILVER ST","BOISE","ID",83705,NA,NA,111,"2244 S QUICKSILVER ST, BOISE, ID, 83705","Tie",NA,NA,NA,NA
124112,"2244 SEWARD AVENUE","BRONX","NY",10473,40.821306275,-73.8471172389999,112,"2244 SEWARD AVENUE, BRONX, NY, 10473","Match","Exact","2244 SEWARD AVE, BRONX, NY, 10473",80306175,"R"
124113,"2244 SKILLMAN AVE APT 203","SAINT PAUL","MN",55109,45.0028157340001,-93.005787592,113,"2244 SKILLMAN AVE APT 203, SAINT PAUL, MN, 55109","Match","Non_Exact","2244 SKILLMAN AVE E, SAINT PAUL, MN, 55109",97662468,"R"
124114,"2244 STRAWBERRY TREE LANE","ORLANDO","FL",32828,28.520748138,-81.147249473,114,"2244 STRAWBERRY TREE LANE, ORLANDO, FL, 32828","Match","Exact","2244 STRAWBERRY TREE LN, ORLANDO, FL, 32828",94407339,"R"
124115,"2244 SUNSTATES COURT SUITE 106","VIRGINIA BEACH","VA",23451,36.9115144020001,-76.069375301,115,"2244 SUNSTATES COURT SUITE 106, VIRGINIA BEACH, VA, 23451","Match","Exact","2244 SUNSTATES CT, VA BCH, VA, 23451",122300108,"L"
124116,"2244 US 68 NORTH","YELLOW SPRINGS","OH",45387,NA,NA,116,"2244 US 68 NORTH, YELLOW SPRINGS, OH, 45387","No_Match",NA,NA,NA,NA
124117,"22445 JONES ROAD","CALHAN","CO",80808,38.8961072540001,-104.407336946,117,"22445 JONES ROAD, CALHAN, CO, 80808","Match","Exact","22445 JONES RD, CALHAN, CO, 80808",652264945,"L"
124118,"22445 MEADOWBROOK ROAD","NOVI","MI",48375,42.453118139,-83.4545841999999,118,"22445 MEADOWBROOK ROAD, NOVI, MI, 48375","Match","Exact","22445 MEADOWBROOK RD, NOVI, MI, 48375",69723732,"L"
124119,"22445 SW 102 AVE","MIAMI","FL",33190,25.5590305050001,-80.355972774,119,"22445 SW 102 AVE, MIAMI, FL, 33190","Match","Exact","22445 SW 102ND AVE, MIAMI, FL, 33190",637814603,"R"
124120,"22446 DAVIS DRIVE SUITE 187","STERLING","VA",20164,38.995833911,-77.4233235249999,120,"22446 DAVIS DRIVE SUITE 187, STERLING, VA, 20164","Match","Exact","22446 DAVIS DR, STERLING, VA, 20164",653491293,"L"
124121,"22447 SW 111 AVENUE","MIAMI","FL",33170,25.5583305160001,-80.37127952,121,"22447 SW 111 AVENUE, MIAMI, FL, 33170","Match","Exact","22447 SW 111TH AVE, MIAMI, FL, 33170",632013753,"L"
124122,"2245 AL HWY 89","MINTER","AL",36761,32.1191456600001,-87.053135426,122,"2245 AL HWY 89, MINTER, AL, 36761","Match","Non_Exact","2245 STATE RTE 89, MINTER, AL, 36761",1289901,"R"
124123,"2245 ASTER AVE","MIDDLEBURG","FL",32068,NA,NA,123,"2245 ASTER AVE, MIDDLEBURG, FL, 32068","No_Match",NA,NA,NA,NA
124124,"2245 ATKINSON","DETROIT","MI",48206,42.3757276910001,-83.10417936,124,"2245 ATKINSON, DETROIT, MI, 48206","Match","Non_Exact","2245 ATKINSON ST, DETROIT, MI, 48206",95508608,"R"
124125,"2245 BAR HARBOR DRIVE","FORT COLLINS","CO",80524,40.6186007480001,-105.033920988,125,"2245 BAR HARBOR DRIVE, FORT COLLINS, CO, 80524","Match","Exact","2245 BAR HARBOR DR, FORT COLLINS, CO, 80524",617917183,"L"
124126,"2245 BARKER AVE 1C","BRONX","NY",10467,40.8587849210001,-73.869523698,126,"2245 BARKER AVE 1C, BRONX, NY, 10467","Match","Exact","2245 BARKER AVE, BRONX, NY, 10467",80303261,"L"
124127,"2245 CABRILLO ST APT 5","SAN FRANCISCO","CA",94121,37.7745085010001,-122.482671837,127,"2245 CABRILLO ST APT 5, SAN FRANCISCO, CA, 94121","Match","Exact","2245 CABRILLO ST, SAN FRANCISCO, CA, 94121",192277494,"L"
124128,"2245 CACTUS VALLEY DR","LEANDER","TX",78641,30.559337554,-97.804880107,128,"2245 CACTUS VALLEY DR, LEANDER, TX, 78641","Match","Exact","2245 CACTUS VALLEY DR, LEANDER, TX, 78641",641090447,"R"
124129,"2245 COLLINGWOOD","DETROIT","MI",48206,42.3822345020001,-83.108449636,129,"2245 COLLINGWOOD, DETROIT, MI, 48206","Match","Non_Exact","2245 COLLINGWOOD ST, DETROIT, MI, 48206",95471687,"L"
124130,"2245 CONOWINGO RD 200","BEL AIR","MD",21015,39.580200581,-76.338918619,130,"2245 CONOWINGO RD 200, BEL AIR, MD, 21015","Match","Exact","2245 CONOWINGO RD, BEL AIR, MD, 21015",637501126,"R"
124131,"2245 E CAMBRIA ST","PHILADELPHIA","PA",19134,39.986378331,-75.1147268239999,131,"2245 E CAMBRIA ST, PHILADELPHIA, PA, 19134","Match","Exact","2245 E CAMBRIA ST, PHILADELPHIA, PA, 19134",131426133,"L"
124132,"2245 E WASHINGTON BLVD","LOS ANGELES","CA",90021,34.018950857,-118.233495028,132,"2245 E WASHINGTON BLVD, LOS ANGELES, CA, 90021","Match","Exact","2245 E WASHINGTON BLVD, LOS ANGELES, CA, 90021",141621245,"L"
124133,"2245 EAST COLORADO BLVD NUM 104-65","PASADENA","CA",91107,34.146082328,-118.103876216,133,"2245 EAST COLORADO BLVD NUM 104-65, PASADENA, CA, 91107","Match","Exact","2245 E COLORADO BLVD, PASADENA, CA, 91107",141633168,"L"
124134,"2245 FLORIN RD STE 4","SACRAMENTO","CA",95822,38.4957473060001,-121.487469996,134,"2245 FLORIN RD STE 4, SACRAMENTO, CA, 95822","Match","Exact","2245 FLORIN RD, SACRAMENTO, CA, 95822",133350687,"L"
124135,"2245 GARNER RD","RALEIGH","NC",27610,35.7497724180001,-78.631391579,135,"2245 GARNER RD, RALEIGH, NC, 27610","Match","Exact","2245 GARNER RD, RALEIGH, NC, 27610",612818251,"L"
124136,"2245 GUIANA PLUM DR","ORLANDO","FL",32828,28.520490792,-81.140880721,136,"2245 GUIANA PLUM DR, ORLANDO, FL, 32828","Match","Exact","2245 GUIANA PLUM DR, ORLANDO, FL, 32828",94407395,"L"
124137,"2245 HIGHWAY 105 SOUTH","LINVILLE","NC",28646,NA,NA,137,"2245 HIGHWAY 105 SOUTH, LINVILLE, NC, 28646","No_Match",NA,NA,NA,NA
124138,"2245 INDIANA AVE","COLUMBUS","OH",43202,40.009210743,-83.0016167049999,138,"2245 INDIANA AVE, COLUMBUS, OH, 43202","Match","Exact","2245 INDIANA AVE, COLUMBUS, OH, 43202",218681924,"L"
124139,"2245 JARMAN ST","MUSKEGON HEIGHTS","MI",49444,43.2114103850001,-86.230757454,139,"2245 JARMAN ST, MUSKEGON HEIGHTS, MI, 49444","Match","Exact","2245 JARMAN ST, MUSKEGON HEIGHTS, MI, 49444",77653923,"R"
124140,"2245 MCGREGOR BLVD","FORT MYERS","FL",33901,26.6361173280001,-81.878040757,140,"2245 MCGREGOR BLVD, FORT MYERS, FL, 33901","Match","Exact","2245 MCGREGOR BLVD, FORT MYERS, FL, 33901",118102288,"L"
124141,"2245 N LAKE DRIVE","MILWAUKEE","WI",53202,43.05875444,-87.8817389,141,"2245 N LAKE DRIVE, MILWAUKEE, WI, 53202","Match","Exact","2245 N LAKE DR, MILWAUKEE, WI, 53202",77745188,"L"
124142,"2245 N MAIN STREET","PEARLAND","TX",77581,29.566590467,-95.2860768039999,142,"2245 N MAIN STREET, PEARLAND, TX, 77581","Match","Exact","2245 N MAIN ST, PEARLAND, TX, 77581",116568861,"R"
124143,"2245 N ORCHARD RD NE","BOLIVAR","OH",44612,40.6410742250001,-81.4048247539999,143,"2245 N ORCHARD RD NE, BOLIVAR, OH, 44612","Match","Exact","2245 N ORCHARD RD NE, BOLIVAR, OH, 44612",612303211,"R"
124144,"2245 NW 110 AVENUE","MIAMI","FL",33172,25.794427597,-80.3742726959999,144,"2245 NW 110 AVENUE, MIAMI, FL, 33172","Match","Exact","2245 NW 110TH AVE, MIAMI, FL, 33172",115969461,"R"
124145,"2245 PARLIAMENT DR","COLORADO SPRINGS","CO",80920,38.9565769610001,-104.785783243,145,"2245 PARLIAMENT DR, COLORADO SPRINGS, CO, 80920","Match","Exact","2245 PARLIAMENT DR, CO SPGS, CO, 80920",629299348,"R"
124146,"2245 S LINWOOD","VISALIA","CA",93277,36.3103685670001,-119.340606403,146,"2245 S LINWOOD, VISALIA, CA, 93277","Match","Non_Exact","2245 S LINWOOD ST, VISALIA, CA, 93277",202779382,"R"
124147,"2245 S MARSHALL BLVD APT 1","CHICAGO","IL",60623,41.8510088450001,-87.699055271,147,"2245 S MARSHALL BLVD APT 1, CHICAGO, IL, 60623","Match","Non_Exact","2245 S MARSHALL BLVD, CHICAGO, IL, 60623",112391225,"L"
124148,"2245 SAN DIEGO AVE SUITE 226","SAN DIEGO","CA",92110,NA,NA,148,"2245 SAN DIEGO AVE SUITE 226, SAN DIEGO, CA, 92110","No_Match",NA,NA,NA,NA
124149,"2245 SAN PASQUAL VALLEY ROAD","ESCONDIDO","CA",92027,33.1042229170001,-117.039953188,149,"2245 SAN PASQUAL VALLEY ROAD, ESCONDIDO, CA, 92027","Match","Exact","2245 SAN PASQUAL VALLEY RD, ESCONDIDO, CA, 92027",195317099,"R"
124150,"2245 SHARON WAY","RENO","NV",89509,39.5025971910001,-119.826510057,150,"2245 SHARON WAY, RENO, NV, 89509","Match","Exact","2245 SHARON WAY, RENO, NV, 89509",107044966,"R"
124151,"2245 SOUTH STREET","ELGIN","IL",60123,42.025252923,-88.332278708,151,"2245 SOUTH STREET, ELGIN, IL, 60123","Match","Exact","2245 SOUTH ST, ELGIN, IL, 60123",636318177,"L"
124152,"2245 STREAM VISTA PLACE UNIT 106","WALDORF","MD",20601,38.6507435890001,-76.8971979899999,152,"2245 STREAM VISTA PLACE UNIT 106, WALDORF, MD, 20601","Match","Exact","2245 STREAM VISTA PL, WALDORF, MD, 20601",650786551,"L"
124153,"2245 TEXAS DROVE SUITE 300","SUGAR LAND","TX",77479,29.596609911,-95.6204304519999,153,"2245 TEXAS DROVE SUITE 300, SUGAR LAND, TX, 77479","Match","Non_Exact","2245 TEXAS DR, SUGAR LAND, TX, 77479",617957824,"L"
124154,"2245 TURNINGLEAF DRIVE","BEAUMONT","TX",77706,30.104101089,-94.1655636899999,154,"2245 TURNINGLEAF DRIVE, BEAUMONT, TX, 77706","Match","Non_Exact","2245 TURNING LEAF, BEAUMONT, TX, 77706",624018828,"R"
124155,"2245 W BUNCHE PARK DR","MIAMI GARDENS","FL",33054,25.9225521160001,-80.237522655,155,"2245 W BUNCHE PARK DR, MIAMI GARDENS, FL, 33054","Match","Exact","2245 W BUNCHE PARK DR, MIAMI GARDENS, FL, 33054",116028548,"R"
124156,"2245 W WAYLAND","PHOENIX","AZ",85041,33.394801155,-112.105540507,156,"2245 W WAYLAND, PHOENIX, AZ, 85041","Match","Non_Exact","2245 W WAYLAND RD, PHOENIX, AZ, 85041",128212298,"L"
124157,"2245 WENDER DR","TUCKER","GA",30084,33.850716612,-84.240074996,157,"2245 WENDER DR, TUCKER, GA, 30084","Match","Exact","2245 WENDER DR, TUCKER, GA, 30084",23384469,"R"
124158,"22450 LANSING LANE","MIDDLETON","ID",83644,43.697686031,-116.572940937,158,"22450 LANSING LANE, MIDDLETON, ID, 83644","Match","Exact","22450 LANSING LN, MIDDLETON, ID, 83644",649900179,"R"
124159,"22450 WHITE OAK DR","PORTER","TX",77365,30.120672633,-95.253895235,159,"22450 WHITE OAK DR, PORTER, TX, 77365","Match","Exact","22450 WHITE OAK DR, PORTER, TX, 77365",79286488,"L"
124160,"22451 N 81ST AVE","PEORIA","AZ",85383,33.6876771250001,-112.233637939,160,"22451 N 81ST AVE, PEORIA, AZ, 85383","Match","Exact","22451 N 81ST AVE, PEORIA, AZ, 85383",128402085,"R"
124161,"22453 BALMORAL DRIVE","DENHAM SPRINGS","LA",70726,30.3964662130001,-90.86279144,161,"22453 BALMORAL DRIVE, DENHAM SPRINGS, LA, 70726","Match","Exact","22453 BALMORAL DR, DENHAM SPRINGS, LA, 70726",627292368,"R"
124162,"22453 LAKE ROAD 210","ROCKY RIVER","OH",44116,41.4815432440001,-81.869304582,162,"22453 LAKE ROAD 210, ROCKY RIVER, OH, 44116","Match","Exact","22453 LAKE RD, ROCKY RIVER, OH, 44116",61097291,"L"
124163,"22455 NE 18TH STREET","SAMMAMISH","WA",98074,47.624468473,-122.039883164,163,"22455 NE 18TH STREET, SAMMAMISH, WA, 98074","Match","Exact","22455 NE 18TH ST, SAMMAMISH, WA, 98074",239780144,"L"
124164,"2245N 1175W","LINTON","IN",47441,NA,NA,164,"2245N 1175W, LINTON, IN, 47441","No_Match",NA,NA,NA,NA
124165,"2246 BELCHERY COURT DRIVE","CLEARWATER","FL",33764,27.934308775,-82.7452405779999,165,"2246 BELCHERY COURT DRIVE, CLEARWATER, FL, 33764","Match","Exact","2246 BELCHERY COURT DR, CLEARWATER, FL, 33764",124751361,"L"
124166,"2246 BIRNAM PLACE","AUGUSTA","GA",30904,33.455509137,-82.025099618,166,"2246 BIRNAM PLACE, AUGUSTA, GA, 30904","Match","Exact","2246 BIRNAM PL, AUGUSTA, GA, 30904",648115218,"L"
124167,"2246 COLONY DR","LAKELAND","FL",33813,NA,NA,167,"2246 COLONY DR, LAKELAND, FL, 33813","No_Match",NA,NA,NA,NA
124168,"2246 MOHLER DR NW","NORTH CANTON","OH",44720,40.9008558530001,-81.387446037,168,"2246 MOHLER DR NW, NORTH CANTON, OH, 44720","Match","Exact","2246 MOHLER DR NW, NORTH CANTON, OH, 44720",64693561,"L"
124169,"2246 NAMEOKE AVENUE","FAR ROCKAWAY","NY",11691,NA,NA,169,"2246 NAMEOKE AVENUE, FAR ROCKAWAY, NY, 11691","No_Match",NA,NA,NA,NA
124170,"2246 SAMPLE AVE","CLOVIS","CA",93611,36.8278011420001,-119.671065655,170,"2246 SAMPLE AVE, CLOVIS, CA, 93611","Match","Exact","2246 SAMPLE AVE, CLOVIS, CA, 93611",197584795,"R"
124171,"2246 SOUTH 11TH STREET","SPRINGFIELD","IL",62703,39.7760735040001,-89.64084524,171,"2246 SOUTH 11TH STREET, SPRINGFIELD, IL, 62703","Match","Exact","2246 S 11TH ST, SPRINGFIELD, IL, 62703",97326963,"L"
124172,"2246 SOUTHERN WOODS DRIVE","CORDOVA","TN",38016,35.186753261,-89.756167582,172,"2246 SOUTHERN WOODS DRIVE, CORDOVA, TN, 38016","Match","Exact","2246 SOUTHERN WOODS DR, CORDOVA, TN, 38016",618372416,"R"
124173,"2246 W 80TH ST","HIALEAH","FL",33016,25.895148926,-80.329103603,173,"2246 W 80TH ST, HIALEAH, FL, 33016","Match","Exact","2246 W 80TH ST, HIALEAH, FL, 33016",645602291,"R"
124174,"2246 W GREENLEAF DRIVE","FREDERICK","MD",21702,NA,NA,174,"2246 W GREENLEAF DRIVE, FREDERICK, MD, 21702","No_Match",NA,NA,NA,NA
124175,"2246 W SURREY ROAD","TAYLORSVILLE","UT",84129,40.6428617120001,-111.949571429,175,"2246 W SURREY ROAD, TAYLORSVILLE, UT, 84129","Match","Exact","2246 SURREY RD, TAYLORSVILLE, UT, 84129",176075766,"R"
124176,"2246 WASHINGTON AVE APT 204","SILVER SPRING","MD",20910,38.9927809000001,-77.0476618979999,176,"2246 WASHINGTON AVE APT 204, SILVER SPRING, MD, 20910","Match","Exact","2246 WASHINGTON AVE, SILVER SPRING, MD, 20910",62105512,"L"
124177,"22460 CEDAR RIDGE RD","EDMOND","OK",73025,35.7000796500001,-97.622516766,177,"22460 CEDAR RIDGE RD, EDMOND, OK, 73025","Match","Exact","22460 CEDAR RIDGE RD, EDMOND, OK, 73025",100430555,"R"
124178,"22461 INTERSTATE 30 - SUITE 1100A","BRYANT","AR",72022,NA,NA,178,"22461 INTERSTATE 30 - SUITE 1100A, BRYANT, AR, 72022","No_Match",NA,NA,NA,NA
124179,"22462 224TH PLACE","QUEEN CREEK","AZ",85142,33.24438237,-111.599079358,179,"22462 224TH PLACE, QUEEN CREEK, AZ, 85142","Match","Non_Exact","22462 S 224TH PL, QUEEN CREEK, AZ, 85142",641877063,"L"
124180,"22462 S 224TH PLACE","QUEEN CREEK","AZ",85142,33.2443711450001,-111.599079298,180,"22462 S 224TH PLACE, QUEEN CREEK, AZ, 85142","Match","Exact","22462 S 224TH PL, QUEEN CREEK, AZ, 85142",641877063,"L"
124181,"22465 C R 104","ELKHART","IN",46514,41.7277464900001,-85.8970119049999,181,"22465 C R 104, ELKHART, IN, 46514","Match","Non_Exact","22465 CO RD 104, ELKHART, IN, 46514",604670566,"L"
124182,"22465 THREE BRIDGE RD","COUNCIL BLUFFS","IA",51503,41.275288039,-95.757143169,182,"22465 THREE BRIDGE RD, COUNCIL BLUFFS, IA, 51503","Match","Exact","22465 THREE BRIDGE RD, COUNCIL BLUFFS, IA, 51503",43926032,"R"
124183,"22466 STATE HWY 81","KEWANEE","IL",61443,NA,NA,183,"22466 STATE HWY 81, KEWANEE, IL, 61443","No_Match",NA,NA,NA,NA
124184,"2247 37TH STREET APARTMENT 2","ASTORIA","NY",11105,NA,NA,184,"2247 37TH STREET APARTMENT 2, ASTORIA, NY, 11105","No_Match",NA,NA,NA,NA
124185,"2247 ARCHER BOULEVARD","ORLANDO","FL",32833,28.514310589,-81.070994087,185,"2247 ARCHER BOULEVARD, ORLANDO, FL, 32833","Match","Exact","2247 ARCHER BLVD, ORLANDO, FL, 32833",94298505,"L"
124186,"2247 CORONADA WAY S","ST PETERSBURG","FL",33712,27.7285382250001,-82.664177481,186,"2247 CORONADA WAY S, ST PETERSBURG, FL, 33712","Match","Exact","2247 CORONADA WAY S, SAINT PETERSBURG, FL, 33712",124710206,"R"
124187,"2247 EAST 640TH PL","URSA","IL",62376,40.0862142770001,-91.3925332319999,187,"2247 EAST 640TH PL, URSA, IL, 62376","Match","Exact","2247 E 640TH PL, URSA, IL, 62376",35079187,"R"
124188,"2247 MEADOW DRIVE","BLAIR","NE",68008,41.5532575240001,-96.148264532,188,"2247 MEADOW DRIVE, BLAIR, NE, 68008","Match","Exact","2247 MEADOW DR, BLAIR, NE, 68008",176764919,"L"
124189,"2247 N 3RD STREET","HARRISBURG","PA",17110,40.281439758,-76.896834741,189,"2247 N 3RD STREET, HARRISBURG, PA, 17110","Match","Exact","2247 N 3RD ST, HARRISBURG, PA, 17110",70816496,"R"
124190,"2247 NW 100TH STREET","GAINESVILLE","FL",32606,29.6736713510001,-82.448163204,190,"2247 NW 100TH STREET, GAINESVILLE, FL, 32606","Match","Exact","2247 NW 100TH ST, GAINESVILLE, FL, 32606",627332485,"L"
124191,"2247 NW 15TH AVE","GAINESVILLE","FL",32605,29.665767596,-82.354319517,191,"2247 NW 15TH AVE, GAINESVILLE, FL, 32605","Match","Exact","2247 NW 15TH AVE, GAINESVILLE, FL, 32605",6805266,"L"
124192,"2247 NW 93RD STREET","MIAMI","FL",33147,25.8586625290001,-80.2349736469999,192,"2247 NW 93RD STREET, MIAMI, FL, 33147","Match","Exact","2247 NW 93RD ST, MIAMI, FL, 33147",642152813,"L"
124193,"2247 RED BIRCH WAY","CONCORD","NC",28027,NA,NA,193,"2247 RED BIRCH WAY, CONCORD, NC, 28027","No_Match",NA,NA,NA,NA
124194,"2247 ROSELAWN AVE W","ST PAUL","MN",55113,44.998922259,-93.195050644,194,"2247 ROSELAWN AVE W, ST PAUL, MN, 55113","Match","Exact","2247 ROSELAWN AVE W, SAINT PAUL, MN, 55113",97638485,"R"
124195,"2247 SAN DIEGO AVENUE SUITE 232","SAN DIEGO","CA",92110,NA,NA,195,"2247 SAN DIEGO AVENUE SUITE 232, SAN DIEGO, CA, 92110","No_Match",NA,NA,NA,NA
124196,"2247 SPINNINGWHEEL LANE","CINCINNATI","OH",45244,39.0948865290001,-84.358238853,196,"2247 SPINNINGWHEEL LANE, CINCINNATI, OH, 45244","Match","Exact","2247 SPINNINGWHEEL LN, CINCINNATI, OH, 45244",103940389,"L"
124197,"2247 SWITZER ROAD","STAMPING GROUND","KY",40379,NA,NA,197,"2247 SWITZER ROAD, STAMPING GROUND, KY, 40379","No_Match",NA,NA,NA,NA
124198,"2247 VIA OESTE DRIVE","FALLBROOK","CA",92028,33.349647449,-117.182372486,198,"2247 VIA OESTE DRIVE, FALLBROOK, CA, 92028","Match","Exact","2247 VIA OESTE DR, FALLBROOK, CA, 92028",195405357,"L"
124199,"2247 WEYMOUTH RD","HINCKLEY","OH",44233,41.2145658920001,-81.751956669,199,"2247 WEYMOUTH RD, HINCKLEY, OH, 44233","Match","Exact","2247 WEYMOUTH RD, HINCKLEY, OH, 44233",58694503,"R"
124200,"2247 WILDFLOWER COURT","ASHEBORO","NC",27205,35.7187979930001,-79.732565307,200,"2247 WILDFLOWER COURT, ASHEBORO, NC, 27205","Match","Exact","2247 WILDFLOWER CT, ASHEBORO, NC, 27205",20433293,"R"
124201,"22470 LEE WRIGHT","SOUTHFIELD","MI",48033,42.452730307,-83.2868836219999,201,"22470 LEE WRIGHT, SOUTHFIELD, MI, 48033","Match","Non_Exact","22470 LEEWRIGHT AVE, SOUTHFIELD, MI, 48033",638909599,"R"
124202,"22470 WALNUT CT","SOUTH BEND","IN",46628,41.7596098700001,-86.3025179909999,202,"22470 WALNUT CT, SOUTH BEND, IN, 46628","Match","Exact","22470 WALNUT CT, SOUTH BEND, IN, 46628",8070166,"L"
124203,"22476 PAUL REVERE DRIVE","CALABASAS","CA",91302,34.1447408540001,-118.615921263,203,"22476 PAUL REVERE DRIVE, CALABASAS, CA, 91302","Match","Exact","22476 PAUL REVERE DR, CALABASAS, CA, 91302",141535861,"R"
124204,"2248 ADDISON AVE","EAST PALO ALTO","CA",94303,37.468978039,-122.147696118,204,"2248 ADDISON AVE, EAST PALO ALTO, CA, 94303","Match","Exact","2248 ADDISON AVE, E PALO ALTO, CA, 94303",192366385,"R"
124205,"2248 ARLAN REASON ROAD","BELLS","TN",38006,35.7645666610001,-89.067932959,205,"2248 ARLAN REASON ROAD, BELLS, TN, 38006","Match","Exact","2248 ARLAN REASON RD, BELLS, TN, 38006",617744298,"L"
124206,"2248 CARDIFF CT NE","GRAND RAPIDS","MI",49505,42.991160951,-85.612620862,206,"2248 CARDIFF CT NE, GRAND RAPIDS, MI, 49505","Match","Exact","2248 CARDIFF CT NE, GRAND RAPIDS, MI, 49505",12482429,"L"
124207,"2248 E VERMONT AVE","ANAHEIM","CA",92806,33.8274009560001,-117.885473613,207,"2248 E VERMONT AVE, ANAHEIM, CA, 92806","Match","Exact","2248 E VERMONT AVE, ANAHEIM, CA, 92806",144028311,"R"
124208,"2248 EAST 48TH STREET","TULSA","OK",74105,36.094074984,-95.959248987,208,"2248 EAST 48TH STREET, TULSA, OK, 74105","Match","Exact","2248 E 48TH ST, TULSA, OK, 74105",166444329,"R"
124209,"2248 EIFERT RD","HOLT","MI",48842,42.64742375,-84.5430926129999,209,"2248 EIFERT RD, HOLT, MI, 48842","Match","Exact","2248 EIFERT RD, HOLT, MI, 48842",17511638,"R"
124210,"2248 EMERSON AVE","LOUISVILLE","KY",40205,38.2203434740001,-85.678882168,210,"2248 EMERSON AVE, LOUISVILLE, KY, 40205","Match","Exact","2248 EMERSON AVE, LOUISVILLE, KY, 40205",96875499,"R"
124211,"2248 FIRST STREET","FORT MYERS","FL",33901,26.6442732530001,-81.86998318,211,"2248 FIRST STREET, FORT MYERS, FL, 33901","Match","Exact","2248 FIRST ST, FORT MYERS, FL, 33901",647951708,"R"
124212,"2248 FM 3157","CUERO","TX",77954,28.964299743,-97.293833892,212,"2248 FM 3157, CUERO, TX, 77954","Match","Exact","2248 FM 3157, CUERO, TX, 77954",635376086,"L"
124213,"2248 FORT MELLON CT","ST AUGUSTINE","FL",32092,29.9578140310001,-81.5333852099999,213,"2248 FORT MELLON CT, ST AUGUSTINE, FL, 32092","Match","Exact","2248 FORT MELLON CT, SAINT AUGUSTINE, FL, 32092",650351358,"L"
124214,"2248 HEARTHSIDE DR SE","ADA","MI",49301,42.9236853720001,-85.474243725,214,"2248 HEARTHSIDE DR SE, ADA, MI, 49301","Match","Exact","2248 HEARTHSIDE DR SE, ADA, MI, 49301",627598612,"R"
124215,"2248 KIMBALL STREET","PHILADELPHIA","PA",19146,39.9403838960001,-75.1804715609999,215,"2248 KIMBALL STREET, PHILADELPHIA, PA, 19146","Match","Exact","2248 KIMBALL ST, PHILADELPHIA, PA, 19146",131406996,"L"
124216,"2248 LAMAR AVENUE  PO BOX 915","PARIS","TX",75460,33.6612048640001,-95.532741341,216,"2248 LAMAR AVENUE  PO BOX 915, PARIS, TX, 75460","Match","Exact","2248 LAMAR AVE, PARIS, TX, 75460",63574629,"L"
124217,"2248 LILLY STREET","LAKE WALES","FL",33898,27.874413084,-81.550920758,217,"2248 LILLY STREET, LAKE WALES, FL, 33898","Match","Exact","2248 LILLY ST, LAKE WALES, FL, 33898",104832889,"L"
124218,"2248 N CAMPBELL AVE","CHICAGO","IL",60647,41.9227129060001,-87.689336313,218,"2248 N CAMPBELL AVE, CHICAGO, IL, 60647","Match","Exact","2248 N CAMPBELL AVE, CHICAGO, IL, 60647",111763005,"L"
124219,"2248 N MONTICELLO AVENUE SUITE G","CHICAGO","IL",60647,41.922052711,-87.7181446229999,219,"2248 N MONTICELLO AVENUE SUITE G, CHICAGO, IL, 60647","Match","Non_Exact","2248 N MONTICELLO AVE, CHICAGO, IL, 60647",605206828,"L"
124220,"2248 NE 123RD ST","MIAMI","FL",33181,25.8895406680001,-80.152964791,220,"2248 NE 123RD ST, MIAMI, FL, 33181","Match","Exact","2248 NE 123RD ST, MIAMI, FL, 33181",116038047,"R"
124221,"2248 RIDING CROP WAY","WINDSOR MILL","MD",21244,39.312627337,-76.7772421509999,221,"2248 RIDING CROP WAY, WINDSOR MILL, MD, 21244","Match","Exact","2248 RIDING CROP WAY, WINDSOR MILL, MD, 21244",635885752,"L"
124222,"2248 S KEELER AVE","CHICAGO","IL",60623,41.8499686000001,-87.729555703,222,"2248 S KEELER AVE, CHICAGO, IL, 60623","Match","Exact","2248 S KEELER AVE, CHICAGO, IL, 60623",605093988,"R"
124223,"2248 W 1000 N","ROOSEVELT","UT",84066,40.3166904760001,-110.018990131,223,"2248 W 1000 N, ROOSEVELT, UT, 84066","Match","Exact","2248 W 1000 N, ROOSEVELT, UT, 84066",133593048,"L"
124224,"2248 W FARRAGUT AVE","CHICAGO","IL",60625,41.9768613960001,-87.685538172,224,"2248 W FARRAGUT AVE, CHICAGO, IL, 60625","Match","Exact","2248 W FARRAGUT AVE, CHICAGO, IL, 60625",111760328,"R"
124225,"2248 WANDERING RIDGE DR","CHINO HILLS","CA",91709,34.0130059860001,-117.755607762,225,"2248 WANDERING RIDGE DR, CHINO HILLS, CA, 91709","Match","Exact","2248 WANDERING RIDGE DR, CHINO HILLS, CA, 91709",144692397,"R"
124226,"2248","PORTSMOUTH","VA",23702,NA,NA,226,"2248, PORTSMOUTH, VA, 23702","No_Match",NA,NA,NA,NA
124227,"22481 STATE HIGHWAY 11","KIRKSVILLE","MO",63501,40.1441068410001,-92.6240953069999,227,"22481 STATE HIGHWAY 11, KIRKSVILLE, MO, 63501","Match","Exact","22481 STATE HWY 11, KIRKSVILLE, MO, 63501",24769919,"R"
124228,"2249 COUNTRY CLUB ROAD","SPARTANBURG","SC",29302,34.9339903310001,-81.886857246,228,"2249 COUNTRY CLUB ROAD, SPARTANBURG, SC, 29302","Match","Exact","2249 COUNTRY CLUB RD, SPARTANBURG, SC, 29302",19471912,"R"
124229,"2249 E 130TH STREET","COMPTON","CA",90222,33.9144044060001,-118.23159903,229,"2249 E 130TH STREET, COMPTON, CA, 90222","Match","Exact","2249 E 130TH ST, COMPTON, CA, 90222",142762720,"L"
124230,"2249 E 97TH ST","CLEVELAND","OH",44106,41.496927656,-81.619703137,230,"2249 E 97TH ST, CLEVELAND, OH, 44106","Match","Exact","2249 E 97TH ST, CLEVELAND, OH, 44106",653492156,"L"
124231,"2249 E BURNSIDE ST","PORTLAND","OR",97214,45.522876099,-122.642881238,231,"2249 E BURNSIDE ST, PORTLAND, OR, 97214","Match","Exact","2249 E BURNSIDE ST, PORTLAND, OR, 97214",157507085,"L"
124232,"2249 GARLAND DRIVE","BIRMINGHAM","AL",35216,33.4350905380001,-86.778754637,232,"2249 GARLAND DRIVE, BIRMINGHAM, AL, 35216","Match","Exact","2249 GARLAND DR, BIRMINGHAM, AL, 35216",81584586,"R"
124233,"2249 GLENCOE HILLS DRIVE","ANN ARBOR","MI",48108,42.2541849900001,-83.673618542,233,"2249 GLENCOE HILLS DRIVE, ANN ARBOR, MI, 48108","Match","Exact","2249 GLENCOE HILLS DR, ANN ARBOR, MI, 48108",636263931,"L"
124234,"2249 HARVARD AVE","FORT MYERS","FL",33907,26.5574617450001,-81.865472944,234,"2249 HARVARD AVE, FORT MYERS, FL, 33907","Match","Exact","2249 HARVARD AVE, FORT MYERS, FL, 33907",118026867,"L"
124235,"2249 MONTECLARO DRIVE","CHINO HILLS","CA",91709,34.0066617790001,-117.756855826,235,"2249 MONTECLARO DRIVE, CHINO HILLS, CA, 91709","Match","Exact","2249 MONTECLARO DR, CHINO HILLS, CA, 91709",144980979,"L"
124236,"2249 N 52ND ST","PHILADELPHIA","PA",19131,39.9915314040001,-75.229725249,236,"2249 N 52ND ST, PHILADELPHIA, PA, 19131","Match","Exact","2249 N 52ND ST, PHILADELPHIA, PA, 19131",131396719,"R"
124237,"2249 PARKHURST ROAD","ELMONT","NY",11003,40.698593036,-73.723608151,237,"2249 PARKHURST ROAD, ELMONT, NY, 11003","Match","Exact","2249 PARKHURST RD, ELMONT, NY, 11003",647178023,"L"
124238,"2249 PINE VALLEY RD","POWDER SPRINGS","GA",30127,33.8288991260001,-84.726522588,238,"2249 PINE VALLEY RD, POWDER SPRINGS, GA, 30127","Match","Exact","2249 PINE VALLEY RD, POWDER SPGS, GA, 30127",207992925,"L"
124239,"2249 ROBBINS NEST CV","COLLIERVILLE","TN",38017,35.0872437460001,-89.715686846,239,"2249 ROBBINS NEST CV, COLLIERVILLE, TN, 38017","Match","Exact","2249 ROBBINS NEST COVE, COLLIERVILLE, TN, 38017",72959811,"L"
124240,"2249 ROSS AVENUE","HOOVER","AL",35226,33.3953379120001,-86.8905109359999,240,"2249 ROSS AVENUE, HOOVER, AL, 35226","Match","Exact","2249 ROSS AVE, HOOVER, AL, 35226",601659944,"L"
124241,"2249 S ALDER LANE","SANTA MARIA","CA",93455,34.9186436420001,-120.426720988,241,"2249 S ALDER LANE, SANTA MARIA, CA, 93455","Match","Exact","2249 ALDER LN, SANTA MARIA, CA, 93455",616216180,"R"
124242,"2249 SUGAR RUN ROAD","DUNCANSVILLE","PA",16635,40.4690953320001,-78.469326629,242,"2249 SUGAR RUN ROAD, DUNCANSVILLE, PA, 16635","Match","Exact","2249 SUGAR RUN RD, DUNCANSVILLE, PA, 16635",49708914,"L"
124243,"2249 THORNTREE LN","PALATINE","IL",60067,42.0695725400001,-88.040100998,243,"2249 THORNTREE LN, PALATINE, IL, 60067","Match","Exact","2249 THORNTREE LN, PALATINE, IL, 60067",652385786,"L"
124244,"2249 W CATALINA VIEW DR","TUCSON","AZ",85742,32.370781403,-111.015904312,244,"2249 W CATALINA VIEW DR, TUCSON, AZ, 85742","Match","Exact","2249 W CATALINA VIEW DR, TUCSON, AZ, 85742",121393356,"R"
124245,"2249 WICK ST","WARREN","OH",44484,NA,NA,245,"2249 WICK ST, WARREN, OH, 44484","No_Match",NA,NA,NA,NA
124246,"22491 STATE HWY 18","CONNEAUTVILLE","PA",16406,NA,NA,246,"22491 STATE HWY 18, CONNEAUTVILLE, PA, 16406","No_Match",NA,NA,NA,NA
124247,"224A BULLSBORO DRIVE","NEWNAN","GA",30263,33.390719324,-84.771276691,247,"224A BULLSBORO DRIVE, NEWNAN, GA, 30263","Match","Exact","224 BULLSBORO DR, NEWNAN, GA, 30263",9319737,"L"
124248,"224A JEFFERSON AVE","PARAMUS","NJ",7652,40.950200803,-74.056165967,248,"224A JEFFERSON AVE, PARAMUS, NJ, 7652","Match","Exact","224 JEFFERSON AVE, PARAMUS, NJ, 07652",64383641,"L"
124249,"225  HOLLY ST","WINNSBORO","SC",29180,34.362398398,-81.0837519569999,249,"225  HOLLY ST, WINNSBORO, SC, 29180","Match","Exact","225 HOLLY ST, WINNSBORO, SC, 29180",635643448,"R"
124250,"225 - THOMAS AVENUE NORTH SUITE 700","MPLS","MN",55405,NA,NA,250,"225 - THOMAS AVENUE NORTH SUITE 700, MPLS, MN, 55405","No_Match",NA,NA,NA,NA
124251,"225 1/2 S WESTERN AVE","LOS ANGELES","CA",90004,34.0705105760001,-118.309125397,251,"225 1/2 S WESTERN AVE, LOS ANGELES, CA, 90004","Match","Exact","225 S WESTERN AVE, LOS ANGELES, CA, 90004",141603785,"R"
124252,"225 23RD AVE","VERO BEACH","FL",32962,27.6059509790001,-80.408912238,252,"225 23RD AVE, VERO BEACH, FL, 32962","Match","Exact","225 23RD AVE, VERO BEACH, FL, 32962",120310999,"L"
124253,"225 2ND STREET SUITE 108","DAVENPORT","IA",52801,NA,NA,253,"225 2ND STREET SUITE 108, DAVENPORT, IA, 52801","Tie",NA,NA,NA,NA
124254,"225 30TH STREET SUITE 306","SACRAMENTO","CA",95816,38.5811774690001,-121.463023358,254,"225 30TH STREET SUITE 306, SACRAMENTO, CA, 95816","Match","Exact","225 30TH ST, SACRAMENTO, CA, 95816",133324754,"L"
124255,"225 4TH STREET","LAKEWOOD","NJ",8701,40.094284642,-74.2132607029999,255,"225 4TH STREET, LAKEWOOD, NJ, 8701","Match","Exact","225 4TH ST, LAKEWOOD, NJ, 08701",203723718,"L"
124256,"225 9TH STREET SW","PINE CITY","MN",55063,45.8272679180001,-92.974726754,256,"225 9TH STREET SW, PINE CITY, MN, 55063","Match","Exact","225 9TH ST SW, PINE CITY, MN, 55063",163098697,"L"
124257,"225 ADELPHI ST","BROOKLYN","NY",11205,40.6908356480001,-73.9713893799999,257,"225 ADELPHI ST, BROOKLYN, NY, 11205","Match","Exact","225 ADELPHI ST, BROOKLYN, NY, 11205",59077531,"L"
124258,"225 ANNISTON COURT","CARY","NC",27519,35.816131258,-78.852663654,258,"225 ANNISTON COURT, CARY, NC, 27519","Match","Exact","225 ANNISTON CT, CARY, NC, 27519",208358522,"L"
124259,"225 APPLE DEW AVENUE","LAS VEGAS","NV",89131,NA,NA,259,"225 APPLE DEW AVENUE, LAS VEGAS, NV, 89131","No_Match",NA,NA,NA,NA
124260,"225 ARIZONA DRIVE","LOWER BURRELL","PA",15068,40.586939977,-79.7257180029999,260,"225 ARIZONA DRIVE, LOWER BURRELL, PA, 15068","Match","Exact","225 ARIZONA DR, LOWER BURRELL, PA, 15068",52960833,"L"
124261,"225 ARLINGTON DRIVE","UKIAH","CA",95482,39.1626930080001,-123.211927723,261,"225 ARLINGTON DRIVE, UKIAH, CA, 95482","Match","Exact","225 ARLINGTON DR, UKIAH, CA, 95482",67266908,"R"
124262,"225 ASHBY AVE","CHARLESTON","WV",25314,38.353303399,-81.651933392,262,"225 ASHBY AVE, CHARLESTON, WV, 25314","Match","Exact","225 ASHBY AVE, CHARLESTON, WV, 25314",78591759,"L"
124263,"225 AVENIDA LOBEIRO","SAN CLEMENTE","CA",92672,33.406819222,-117.604326937,263,"225 AVENIDA LOBEIRO, SAN CLEMENTE, CA, 92672","Match","Exact","225 AVE LOBEIRO, SAN CLEMENTE, CA, 92672",144407679,"L"
124264,"225 B ANAYA ROAD","STANLEY","NM",87056,35.113489185,-105.956164516,264,"225 B ANAYA ROAD, STANLEY, NM, 87056","Match","Exact","225 B ANAYA RD, STANLEY, NM, 87056",636577464,"R"
124265,"225 B STREET NW","MIAMI","OK",74354,36.8781264310001,-94.879761835,265,"225 B STREET NW, MIAMI, OK, 74354","Match","Exact","225 B ST NW, MIAMI, OK, 74354",56279528,"L"
124266,"225 BAINBRIDGE ST APT 2","BROOKLYN","NY",11233,40.681326551,-73.928013037,266,"225 BAINBRIDGE ST APT 2, BROOKLYN, NY, 11233","Match","Exact","225 BAINBRIDGE ST, BROOKLYN, NY, 11233",59082867,"L"
124267,"225 BAN ROAD","MUNCY","PA",17756,41.2132677210001,-76.750351727,267,"225 BAN ROAD, MUNCY, PA, 17756","Match","Exact","225 BAN RD, MUNCY, PA, 17756",213690502,"L"
124268,"225 BARKER RD","WYNCOTE","PA",19095,40.089799493,-75.149915845,268,"225 BARKER RD, WYNCOTE, PA, 19095","Match","Exact","225 BARKER RD, WYNCOTE, PA, 19095",135106296,"R"
124269,"225 BARTLETT AVE","SHARON HILL","PA",19079,39.9121627740001,-75.2647374209999,269,"225 BARTLETT AVE, SHARON HILL, PA, 19079","Match","Exact","225 BARTLETT AVE, SHARON HILL, PA, 19079",134884946,"L"
124270,"225 BAY 44TH STREET","BROOKLYN","NY",11214,40.589996424,-73.989477708,270,"225 BAY 44TH STREET, BROOKLYN, NY, 11214","Match","Exact","225 BAY 44TH ST, BROOKLYN, NY, 11214",59088973,"L"
124271,"225 BOREN AVENUE","LAKE PLACID","FL",33852,27.3099904630001,-81.3226044369999,271,"225 BOREN AVENUE, LAKE PLACID, FL, 33852","Match","Exact","225 BOREN AVE, LAKE PLACID, FL, 33852",4680596,"R"
124272,"225 BOWMAN RD","HANOVER","PA",17331,39.7850011250001,-76.959858104,272,"225 BOWMAN RD, HANOVER, PA, 17331","Match","Exact","225 BOWMAN RD, HANOVER, PA, 17331",88710472,"L"
124273,"225 BOWTIE LANE","LOWGAP","NC",27024,36.5424402130001,-80.770007431,273,"225 BOWTIE LANE, LOWGAP, NC, 27024","Match","Exact","225 BOWTIE LN, LOWGAP, NC, 27024",154195110,"R"
124274,"225 BRIARGATE DR","LEBANON","OH",45036,39.416804056,-84.2132104039999,274,"225 BRIARGATE DR, LEBANON, OH, 45036","Match","Exact","225 BRIARGATE DR, LEBANON, OH, 45036",159044234,"L"
124275,"225 BROADWAY          SUITE 2605","NEW YORK","NY",10007,40.7118877250001,-74.0081975259999,275,"225 BROADWAY          SUITE 2605, NEW YORK, NY, 10007","Match","Exact","225 BROADWAY, NEW YORK, NY, 10007",59660372,"L"
124276,"225 BROADWAY 19TH FLOOR","SAN DIEGO","CA",92101,32.7157027270001,-117.162639017,276,"225 BROADWAY 19TH FLOOR, SAN DIEGO, CA, 92101","Match","Exact","225 BROADWAY, SAN DIEGO, CA, 92101",195344429,"R"
124277,"225 BROADWAY STE 1420","NEW YORK","NY",10007,40.7118877250001,-74.0081975259999,277,"225 BROADWAY STE 1420, NEW YORK, NY, 10007","Match","Exact","225 BROADWAY, NEW YORK, NY, 10007",59660372,"L"
124278,"225 BROADWAY STE 1504","NEW YORK","NY",10007,40.7118877250001,-74.0081975259999,278,"225 BROADWAY STE 1504, NEW YORK, NY, 10007","Match","Exact","225 BROADWAY, NEW YORK, NY, 10007",59660372,"L"
124279,"225 BROADWAY STE 1700","NEW YORK","NY",10007,40.7118877250001,-74.0081975259999,279,"225 BROADWAY STE 1700, NEW YORK, NY, 10007","Match","Exact","225 BROADWAY, NEW YORK, NY, 10007",59660372,"L"
124280,"225 BROADWAY SUITE 1902","NEW YORK","NY",10007,40.7118877250001,-74.0081975259999,280,"225 BROADWAY SUITE 1902, NEW YORK, NY, 10007","Match","Exact","225 BROADWAY, NEW YORK, NY, 10007",59660372,"L"
124281,"225 BROWN ROAD LOT 53","FRANKLIN","KY",42134,NA,NA,281,"225 BROWN ROAD LOT 53, FRANKLIN, KY, 42134","No_Match",NA,NA,NA,NA
124282,"225 BUTLER ST","MILPITAS","CA",95035,37.432382112,-121.911566557,282,"225 BUTLER ST, MILPITAS, CA, 95035","Match","Exact","225 BUTLER ST, MILPITAS, CA, 95035",122958953,"L"
124283,"225 BUTTONWOOD AVENUE","CORTLANDT MANOR","NY",10567,41.28891737,-73.896506092,283,"225 BUTTONWOOD AVENUE, CORTLANDT MANOR, NY, 10567","Match","Exact","225 BUTTONWOOD AVE, CORTLANDT MANOR, NY, 10567",139724615,"L"
124284,"225 CAL YOUNG ROAD APT 217","EUGENE","OR",97401,NA,NA,284,"225 CAL YOUNG ROAD APT 217, EUGENE, OR, 97401","No_Match",NA,NA,NA,NA
124285,"225 CALLE PINTORESCO","SAN CLEMENTE","CA",92672,33.4493370050001,-117.590379326,285,"225 CALLE PINTORESCO, SAN CLEMENTE, CA, 92672","Match","Non_Exact","225 CLL PINTORESCO, SAN CLEMENTE, CA, 92672",144384351,"L"
124286,"225 CAMINO DE LA TIERRA","CORRALES","NM",87048,NA,NA,286,"225 CAMINO DE LA TIERRA, CORRALES, NM, 87048","No_Match",NA,NA,NA,NA
124287,"225 CARL STREET","COLUMBIA","IL",62236,38.437813158,-90.204310328,287,"225 CARL STREET, COLUMBIA, IL, 62236","Match","Exact","225 CARL ST, COLUMBIA, IL, 62236",116432525,"R"
124288,"225 CASTLE KEEP RD","SALISBURY","NC",28146,35.618195832,-80.387708722,288,"225 CASTLE KEEP RD, SALISBURY, NC, 28146","Match","Exact","225 CASTLE KEEP RD, SALISBURY, NC, 28146",25283792,"R"
124289,"225 CEDAR AVE","GAITHERSBURG","MD",20877,39.1364643300001,-77.200318286,289,"225 CEDAR AVE, GAITHERSBURG, MD, 20877","Match","Exact","225 CEDAR AVE, GAITHERSBURG, MD, 20877",62051045,"L"
124290,"225 CEDAR HILL ST","MARLBOROUGH","MA",1752,42.3190087180001,-71.591777264,290,"225 CEDAR HILL ST, MARLBOROUGH, MA, 1752","Match","Exact","225 CEDAR HILL ST, MARLBOROUGH, MA, 01752",87156002,"R"
124291,"225 CEDAR HILL STREET  SUITE 331","MARLBOROUGH","MA",1752,42.3190087180001,-71.591777264,291,"225 CEDAR HILL STREET  SUITE 331, MARLBOROUGH, MA, 1752","Match","Exact","225 CEDAR HILL ST, MARLBOROUGH, MA, 01752",87156002,"R"
124292,"225 CEDAR RD","COVINGTON","GA",30016,33.5451333620001,-83.9345205389999,292,"225 CEDAR RD, COVINGTON, GA, 30016","Match","Exact","225 CEDAR RD, COVINGTON, GA, 30016",23615546,"L"
124293,"225 CENTRAL AVE SW STE 101-1322","ATLANTA","GA",30303,33.7498701540001,-84.3904920369999,293,"225 CENTRAL AVE SW STE 101-1322, ATLANTA, GA, 30303","Match","Exact","225 CENTRAL AVE SW, ATLANTA, GA, 30303",17344728,"R"
124294,"225 CENTRAL PARK WEST APT 312","NEW YORK","NY",10024,40.784747177,-73.969739282,294,"225 CENTRAL PARK WEST APT 312, NEW YORK, NY, 10024","Match","Exact","225 CENTRAL PARK W, NEW YORK, NY, 10024",59656958,"L"
124295,"225 CHACE ROAD","E FREETOWN","MA",2717,41.76431167,-71.014380005,295,"225 CHACE ROAD, E FREETOWN, MA, 2717","Match","Exact","225 CHACE RD, EAST FREETOWN, MA, 02717",46813912,"R"
124296,"225 CHASE RD","READFIELD","ME",4355,44.415392646,-69.9777145849999,296,"225 CHASE RD, READFIELD, ME, 4355","Match","Exact","225 CHASE RD, READFIELD, ME, 04355",607806369,"R"
124297,"225 CHURCH ST APT 1F","PHILADELPHIA","PA",19106,39.9506477040001,-75.1446415779999,297,"225 CHURCH ST APT 1F, PHILADELPHIA, PA, 19106","Match","Exact","225 CHURCH ST, PHILADELPHIA, PA, 19106",131424534,"R"
124298,"225 CLEARVIEW RD","HANOVER","PA",17331,39.815012509,-76.985083375,298,"225 CLEARVIEW RD, HANOVER, PA, 17331","Match","Exact","225 CLEARVIEW RD, HANOVER, PA, 17331",88709692,"L"
124299,"225 CLEVELAND ST","ORANGE","NJ",7050,40.7784300860001,-74.2275956289999,299,"225 CLEVELAND ST, ORANGE, NJ, 7050","Match","Exact","225 CLEVELAND ST, ORANGE, NJ, 07050",63450050,"L"
124300,"225 COLLEGE AVE STE 65456","ORANGE PARK","FL",32065,30.125141704,-81.7756891349999,300,"225 COLLEGE AVE STE 65456, ORANGE PARK, FL, 32065","Match","Non_Exact","225 COLLEGE DR, ORANGE PARK, FL, 32065",606216404,"L"
124301,"225 COMMONWEALTH AVE","WEST MIFFLIN","PA",15122,40.382743254,-79.880353855,301,"225 COMMONWEALTH AVE, WEST MIFFLIN, PA, 15122","Match","Exact","225 COMMONWEALTH AVE, WEST MIFFLIN, PA, 15122",51656105,"L"
124302,"225 CONNARISTA ROAD","KELFORD","NC",27847,36.153456008,-77.150895711,302,"225 CONNARISTA ROAD, KELFORD, NC, 27847","Match","Exact","225 CONNARISTA RD, KELFORD, NC, 27847",56517690,"L"
124303,"225 CONWELL ST","AURORA","IN",47001,39.0544822630001,-84.908778492,303,"225 CONWELL ST, AURORA, IN, 47001","Match","Exact","225 CONWELL ST, AURORA, IN, 47001",650423029,"R"
124304,"225 CORDOVA STREET","ANCHORAGE","AK",99501,61.2198852390001,-149.879171576,304,"225 CORDOVA STREET, ANCHORAGE, AK, 99501","Match","Exact","225 CORDOVA ST, ANCHORAGE, AK, 99501",645480373,"L"
124305,"225 CORRY STREET","YELLOW SPRINGS","OH",45324,39.8053714210001,-83.887744701,305,"225 CORRY STREET, YELLOW SPRINGS, OH, 45324","Match","Non_Exact","225 CORRY ST, YELLOW SPGS, OH, 45387",143394913,"L"
124306,"225 COUNTRY HAVEN RD","HOPKINS","SC",29061,33.8918350760001,-80.812851021,306,"225 COUNTRY HAVEN RD, HOPKINS, SC, 29061","Match","Exact","225 COUNTRY HAVEN RD, HOPKINS, SC, 29061",604779527,"L"
124307,"225 COUNTY ROAD 2074","BURNET","TX",78611,NA,NA,307,"225 COUNTY ROAD 2074, BURNET, TX, 78611","No_Match",NA,NA,NA,NA
124308,"225 COUNTY ROAD 222","NACOGDOCHES","TX",75965,31.6595275190001,-94.607569697,308,"225 COUNTY ROAD 222, NACOGDOCHES, TX, 75965","Match","Exact","225 CO RD 222, NACOGDOCHES, TX, 75965",72448566,"L"
124309,"225 CREEKSTONE RIDGE SUITE 2","WOODSTOCK","GA",30188,34.0893006580001,-84.525627516,309,"225 CREEKSTONE RIDGE SUITE 2, WOODSTOCK, GA, 30188","Match","Exact","225 CREEKSTONE RIDGE, WOODSTOCK, GA, 30188",617674882,"L"
124310,"225 CRESCENT DRIVE","ORCHARD PARK","NY",14127,42.7523452720001,-78.7523470789999,310,"225 CRESCENT DRIVE, ORCHARD PARK, NY, 14127","Match","Exact","225 CRESCENT DR, ORCHARD PARK, NY, 14127",48310711,"L"
124311,"225 CROSLAND AVENUE","DANVILLE","VA",24540,36.6341302760001,-79.397551993,311,"225 CROSLAND AVENUE, DANVILLE, VA, 24540","Match","Exact","225 CROSLAND AVE, DANVILLE, VA, 24540",56588776,"L"
124312,"225 CRUSE AVE","HELENA","MT",59601,NA,NA,312,"225 CRUSE AVE, HELENA, MT, 59601","Tie",NA,NA,NA,NA
124313,"225 CULBRETH RD","CHAPEL HILL","NC",27516,35.891870226,-79.0664611079999,313,"225 CULBRETH RD, CHAPEL HILL, NC, 27516","Match","Exact","225 CULBRETH RD, CHAPEL HILL, NC, 27516",72424699,"L"
124314,"225 DAUGTHERTY ST","JACKSON","TN",38301,NA,NA,314,"225 DAUGTHERTY ST, JACKSON, TN, 38301","No_Match",NA,NA,NA,NA
124315,"225 DEER AVENUE","NICEVILLE","FL",32578,30.5265162630001,-86.478767519,315,"225 DEER AVENUE, NICEVILLE, FL, 32578","Match","Exact","225 DEER AVE, NICEVILLE, FL, 32578",74390025,"R"
124316,"225 DODGE ST","BUFFALO","IA",52728,41.4571788810001,-90.717396089,316,"225 DODGE ST, BUFFALO, IA, 52728","Match","Exact","225 DODGE ST, BUFFALO, IA, 52728",647613326,"R"
124317,"225 DOGWOOD LANE","PALATKA","FL",32177,29.621515344,-81.6561002719999,317,"225 DOGWOOD LANE, PALATKA, FL, 32177","Match","Exact","225 DOGWOOD LN, PALATKA, FL, 32177",639785936,"R"
124318,"225 DRIFTWOOD LANE","LARGO","FL",33770,27.913263353,-82.830388423,318,"225 DRIFTWOOD LANE, LARGO, FL, 33770","Match","Exact","225 DRIFTWOOD LN, LARGO, FL, 33770",124670256,"L"
124319,"225 DUNBAR RD","PALM BEACH","FL",33480,26.7244242040001,-80.038814846,319,"225 DUNBAR RD, PALM BEACH, FL, 33480","Match","Exact","225 DUNBAR RD, PALM BEACH, FL, 33480",115279660,"R"
124320,"225 E  DEL AMO BLVD  APT 323","LONG BEACH","CA",90805,NA,NA,320,"225 E  DEL AMO BLVD  APT 323, LONG BEACH, CA, 90805","No_Match",NA,NA,NA,NA
124321,"225 E 1ST AVE","ROSELLE","NJ",7203,NA,NA,321,"225 E 1ST AVE, ROSELLE, NJ, 7203","Tie",NA,NA,NA,NA
124322,"225 E 1ST ST","CARNEGIE","OK",73015,NA,NA,322,"225 E 1ST ST, CARNEGIE, OK, 73015","Tie",NA,NA,NA,NA
124323,"225 E 34TH ST SUITE 18H","NEW YORK","NY",10016,40.7453330320001,-73.97717111,323,"225 E 34TH ST SUITE 18H, NEW YORK, NY, 10016","Match","Non_Exact","225 E 34TH ST, NEW YORK, NY, 10016",59654451,"L"
124324,"225 E 36TH ST APT 15M","NEW YORK","NY",10016,40.746542639,-73.976064827,324,"225 E 36TH ST APT 15M, NEW YORK, NY, 10016","Match","Non_Exact","225 E 36TH ST, NEW YORK, NY, 10016",59654482,"L"
124325,"225 E 4TH STREET","SAN BERNARDINO","CA",92410,34.1064556950001,-117.281598623,325,"225 E 4TH STREET, SAN BERNARDINO, CA, 92410","Match","Exact","225 E 4TH ST, SAN BERNARDINO, CA, 92410",144691539,"R"
124326,"225 E 7TH ST","CARROLL","IA",51401,42.066222232,-94.864837678,326,"225 E 7TH ST, CARROLL, IA, 51401","Match","Exact","225 E 7TH ST, CARROLL, IA, 51401",68630218,"R"
124327,"225 E 7TH STREET APT2B","NEW YORK","NY",10009,40.724192487,-73.979100511,327,"225 E 7TH STREET APT2B, NEW YORK, NY, 10009","Match","Non_Exact","225 E 7TH ST, NEW YORK, NY, 10009",59654712,"L"
124328,"225 E 8TH ST","MUNCIE","IN",47302,40.1819434350001,-85.384931294,328,"225 E 8TH ST, MUNCIE, IN, 47302","Match","Exact","225 E 8TH ST, MUNCIE, IN, 47302",30837688,"R"
124329,"225 E BROAD ST","COLUMBUS","OH",43215,39.9628985680001,-82.994660613,329,"225 E BROAD ST, COLUMBUS, OH, 43215","Match","Exact","225 E BROAD ST, COLUMBUS, OH, 43215",135579117,"R"
124330,"225 E CARRILLO ST UNIT 305","SANTA BARBARA","CA",93101,NA,NA,330,"225 E CARRILLO ST UNIT 305, SANTA BARBARA, CA, 93101","Tie",NA,NA,NA,NA
124331,"225 E CENTRAL AVE","GREENSBURG","IN",47240,39.3398955380001,-85.482407978,331,"225 E CENTRAL AVE, GREENSBURG, IN, 47240","Match","Exact","225 E CENTRAL AVE, GREENSBURG, IN, 47240",31182778,"R"
124332,"225 E CLINTON STREET","JOLIET","IL",60432,41.5269755080001,-88.076531911,332,"225 E CLINTON STREET, JOLIET, IL, 60432","Match","Exact","225 E CLINTON ST, JOLIET, IL, 60432",111541855,"L"
124333,"225 E DOMINICK ST","ROME","NY",13440,43.208922117,-75.4536975939999,333,"225 E DOMINICK ST, ROME, NY, 13440","Match","Exact","225 E DOMINICK ST, ROME, NY, 13440",171562923,"L"
124334,"225 E DYKES STREET","COCHRAN","GA",31014,32.3930316440001,-83.3471526549999,334,"225 E DYKES STREET, COCHRAN, GA, 31014","Match","Exact","225 E DYKES ST, COCHRAN, GA, 31014",91203775,"L"
124335,"225 E IDAHO AVE STE 25","LAS CRUCES","NM",88005,32.2962934540001,-106.775927433,335,"225 E IDAHO AVE STE 25, LAS CRUCES, NM, 88005","Match","Non_Exact","225 E IDAHO AVE, LAS CRUCES, NM, 88005",612726830,"L"
124336,"225 E IDAHO AVE STE 27","LAS CRUCES","NM",88005,32.2962934540001,-106.775927433,336,"225 E IDAHO AVE STE 27, LAS CRUCES, NM, 88005","Match","Non_Exact","225 E IDAHO AVE, LAS CRUCES, NM, 88005",612726830,"L"
124337,"225 E MAIN ST","PORT WASHINGTON","OH",43837,40.3296056090001,-81.517624726,337,"225 E MAIN ST, PORT WASHINGTON, OH, 43837","Match","Exact","225 E MAIN ST, PORT WASHINGTON, OH, 43837",627086309,"R"
124338,"225 E MAIN STREET","RANGELY","CO",81648,40.0875254870001,-108.802611853,338,"225 E MAIN STREET, RANGELY, CO, 81648","Match","Exact","225 E MAIN ST, RANGELY, CO, 81648",639708762,"R"
124339,"225 E NORTH ST  APT 702","INDIANAPOLIS","IN",46204,39.775395507,-86.1529687349999,339,"225 E NORTH ST  APT 702, INDIANAPOLIS, IN, 46204","Match","Non_Exact","225 E NORTH ST, INDIANAPOLIS, IN, 46204",107991844,"R"
124340,"225 E REDWOOD AVENUE","FORT BRAGG","CA",95437,39.4442270380001,-123.804352749,340,"225 E REDWOOD AVENUE, FORT BRAGG, CA, 95437","Match","Exact","225 E REDWOOD AVE, FORT BRAGG, CA, 95437",67294647,"R"
124341,"225 EAST 115","NEW YORK","NY",10029,40.796992447,-73.939873942,341,"225 EAST 115, NEW YORK, NY, 10029","Match","Non_Exact","225 E 115TH ST, NEW YORK, NY, 10029",59658067,"L"
124342,"225 EAST 11TH STREET SUITE 101","SIOUX FALLS","SD",57104,43.544671104,-96.724859104,342,"225 EAST 11TH STREET SUITE 101, SIOUX FALLS, SD, 57104","Match","Exact","225 E 11TH ST, SIOUX FALLS, SD, 57104",34972857,"R"
124343,"225 EAST 34TH STREET APT 18H","NEW YORK","NY",10016,40.7453337380001,-73.977172787,343,"225 EAST 34TH STREET APT 18H, NEW YORK, NY, 10016","Match","Exact","225 E 34TH ST, NEW YORK, NY, 10016",59654451,"L"
124344,"225 EAST 39TH STREET SUITE 30C","NEW YORK","NY",10016,40.7484631200001,-73.9748530219999,344,"225 EAST 39TH STREET SUITE 30C, NEW YORK, NY, 10016","Match","Exact","225 E 39TH ST, NEW YORK, NY, 10016",59654484,"L"
124345,"225 EAST 4TH STREET","CANTON","SD",57013,43.3017536080001,-96.590744372,345,"225 EAST 4TH STREET, CANTON, SD, 57013","Match","Exact","225 E 4TH ST, CANTON, SD, 57013",176324563,"R"
124346,"225 EAST 5TH STREET SUITE 300","FLINT","MI",48502,43.0126515900001,-83.684859901,346,"225 EAST 5TH STREET SUITE 300, FLINT, MI, 48502","Match","Exact","225 E FIFTH ST, FLINT, MI, 48502",69568930,"L"
124347,"225 EAST 5TH STREET","PORT ANGELES","WA",98362,48.114587704,-123.434311997,347,"225 EAST 5TH STREET, PORT ANGELES, WA, 98362","Match","Exact","225 E 5TH ST, PORT ANGELES, WA, 98362",150848711,"R"
124348,"225 EAST 96TH STREET  APT 1RW","NEW YORK","NY",10128,40.7847996090001,-73.948383517,348,"225 EAST 96TH STREET  APT 1RW, NEW YORK, NY, 10128","Match","Exact","225 E 96TH ST, NEW YORK, NY, 10128",650071629,"L"
124349,"225 EAST CRANBERRY LANE","GREENVILLE","SC",29615,34.8376486180001,-82.266276894,349,"225 EAST CRANBERRY LANE, GREENVILLE, SC, 29615","Match","Exact","225 E CRANBERRY LN, GREENVILLE, SC, 29615",38327606,"L"
124350,"225 EAST DEAN AVENUE","MADISON","WI",53716,43.069938016,-89.322842736,350,"225 EAST DEAN AVENUE, MADISON, WI, 53716","Match","Exact","225 E DEAN AVE, MADISON, WI, 53716",49474793,"R"
124351,"225 EAST FOURTH STREET","HAZLETON","PA",18201,40.963456744,-75.967394923,351,"225 EAST FOURTH STREET, HAZLETON, PA, 18201","Match","Exact","225 E 4TH ST, HAZLETON, PA, 18201",80922923,"L"
124352,"225 EAST SEVENTH STREET","PLAINFIELD","NJ",7060,40.6175565820001,-74.4152025989999,352,"225 EAST SEVENTH STREET, PLAINFIELD, NJ, 7060","Match","Exact","225 E 7TH ST, PLAINFIELD, NJ, 07060",60560536,"L"
124353,"225 EASTVIEW DRIVE","CENTRAL ISLIP","NY",11722,40.762004711,-73.1887457139999,353,"225 EASTVIEW DRIVE, CENTRAL ISLIP, NY, 11722","Match","Exact","225 EASTVIEW DR, CENTRAL ISLIP, NY, 11722",625847720,"L"
124354,"225 EASTWYCK WAY","DECATUR","GA",30032,33.716921819,-84.2689061849999,354,"225 EASTWYCK WAY, DECATUR, GA, 30032","Match","Exact","225 EASTWYCK WAY, DECATUR, GA, 30032",23370529,"R"
124355,"225 ELMWOOD ST","OPELOUSAS","LA",70570,NA,NA,355,"225 ELMWOOD ST, OPELOUSAS, LA, 70570","No_Match",NA,NA,NA,NA
124356,"225 EMERSON AVENUE","PLAINFIELD","NY",7062,NA,NA,356,"225 EMERSON AVENUE, PLAINFIELD, NY, 7062","No_Match",NA,NA,NA,NA
124357,"225 FALLON RD APT 456","STONEHAM","MA",2180,42.4687274780001,-71.111078213,357,"225 FALLON RD APT 456, STONEHAM, MA, 2180","Match","Exact","225 FALLON RD, STONEHAM, MA, 02180",87173283,"L"
124358,"225 FERNDALE LN","BEAUMONT","TX",77707,30.072970764,-94.193886716,358,"225 FERNDALE LN, BEAUMONT, TX, 77707","Match","Exact","225 FERNDALE LN, BEAUMONT, TX, 77707",73851492,"L"
124359,"225 FIRST STREET NORTH","VIRGINIA","MN",55746,47.5241167070001,-92.533537052,359,"225 FIRST STREET NORTH, VIRGINIA, MN, 55746","Match","Non_Exact","225 1ST ST N, VIRGINIA, MN, 55792",163194242,"L"
124360,"225 FLANDER ROAD","ST JOHNSVILLE","NY",13452,NA,NA,360,"225 FLANDER ROAD, ST JOHNSVILLE, NY, 13452","No_Match",NA,NA,NA,NA
124361,"225 FOREST CREEK DRIVE","FAYETTEVILLE","NC",28303,35.0639982070001,-78.946661379,361,"225 FOREST CREEK DRIVE, FAYETTEVILLE, NC, 28303","Match","Exact","225 FOREST CREEK DR, FAYETTEVILLE, NC, 28303",64262059,"L"
124362,"225 FRANKLIN AVE","GRAND HAVEN","MI",49417,43.062992336,-86.231054079,362,"225 FRANKLIN AVE, GRAND HAVEN, MI, 49417","Match","Exact","225 FRANKLIN AVE, GRAND HAVEN, MI, 49417",71084401,"L"
124363,"225 FRONT STREET","BINGHAMTON","NY",13905,42.105215043,-75.915596504,363,"225 FRONT STREET, BINGHAMTON, NY, 13905","Match","Exact","225 FRONT ST, BINGHAMTON, NY, 13905",636402258,"L"
124364,"225 GARDEN VIEW DR","APPLE VALLEY","MN",55124,44.7363271620001,-93.238854089,364,"225 GARDEN VIEW DR, APPLE VALLEY, MN, 55124","Match","Exact","225 GARDEN VIEW DR, APPLE VALLEY, MN, 55124",37906549,"L"
124365,"225 GARLAND AVE","OPELOUSAS","LA",70570,30.5371943810001,-92.096657665,365,"225 GARLAND AVE, OPELOUSAS, LA, 70570","Match","Exact","225 GARLAND AVE, OPELOUSAS, LA, 70570",106436300,"R"
124366,"225 GIBSON ST","BEREA","OH",44017,41.3666997010001,-81.862759293,366,"225 GIBSON ST, BEREA, OH, 44017","Match","Exact","225 GIBSON ST, BEREA, OH, 44017",61130755,"L"
124367,"225 GORMAN LOOP","ARKADELPHIA","AR",71923,34.1386206760001,-93.0930408,367,"225 GORMAN LOOP, ARKADELPHIA, AR, 71923","Match","Exact","225 GORMAN LOOP, ARKADELPHIA, AR, 71923",10548151,"R"
124368,"225 GRAND BLVD","EMERSON","NJ",7630,40.9785064860001,-74.030100804,368,"225 GRAND BLVD, EMERSON, NJ, 7630","Match","Exact","225 GRAND BLVD, EMERSON, NJ, 07630",64379308,"R"
124369,"225 GRAND ST","NEW JERSEY","NJ",7302,40.7159273720001,-74.04352189,369,"225 GRAND ST, NEW JERSEY, NJ, 7302","Match","Non_Exact","225 GRAND ST, JERSEY CITY, NJ, 07302",645144489,"L"
124370,"225 GRAYFIELD CT SE","ADA","MI",49301,42.958841154,-85.507073001,370,"225 GRAYFIELD CT SE, ADA, MI, 49301","Match","Exact","225 GRAYFIELD CT SE, ADA, MI, 49301",12468572,"R"
124371,"225 GREEN BAY ROAD APT C","THIENSVILLE","WI",53092,43.2341919140001,-87.981583058,371,"225 GREEN BAY ROAD APT C, THIENSVILLE, WI, 53092","Match","Exact","225 GREEN BAY RD, THIENSVILLE, WI, 53092",95900945,"L"
124372,"225 GREEN ST STE 601 E","FAYETTEVILLE","NC",28303,35.0543411680001,-78.8776678039999,372,"225 GREEN ST STE 601 E, FAYETTEVILLE, NC, 28303","Match","Non_Exact","225 GREEN ST, FAYETTEVILLE, NC, 28301",64201849,"L"
124373,"225 GREEN ST SUITE 601 E","FAYETTEVILLE","NC",28303,35.0543411680001,-78.8776678039999,373,"225 GREEN ST SUITE 601 E, FAYETTEVILLE, NC, 28303","Match","Non_Exact","225 GREEN ST, FAYETTEVILLE, NC, 28301",64201849,"L"
124374,"225 GREEN STREET SUITE 902","FAYETTEVILLE","NC",28301,35.0543411680001,-78.8776678039999,374,"225 GREEN STREET SUITE 902, FAYETTEVILLE, NC, 28301","Match","Exact","225 GREEN ST, FAYETTEVILLE, NC, 28301",64201849,"L"
124375,"225 GUN HILL STREET","MILTON","MA",2186,42.2509193170001,-71.064642985,375,"225 GUN HILL STREET, MILTON, MA, 2186","Match","Exact","225 GUN HILL ST, MILTON, MA, 02186",87276654,"R"
124376,"225 HCR 3242","HUBBARD","TX",76648,NA,NA,376,"225 HCR 3242, HUBBARD, TX, 76648","No_Match",NA,NA,NA,NA
124377,"225 HIGHLAND CROSS","RUTHERFORD","NJ",7070,40.820269619,-74.099516358,377,"225 HIGHLAND CROSS, RUTHERFORD, NJ, 7070","Match","Exact","225 HIGHLAND CROSS, RUTHERFORD, NJ, 07070",641531471,"L"
124378,"225 HORNER STREET","HENDERSON","NC",27536,36.326790773,-78.40844047,378,"225 HORNER STREET, HENDERSON, NC, 27536","Match","Exact","225 HORNER ST, HENDERSON, NC, 27536",90271176,"L"
124379,"225 HORSE SHOE DR","CLINTON","PA",15026,40.483014833,-80.3135999149999,379,"225 HORSE SHOE DR, CLINTON, PA, 15026","Match","Exact","225 HORSE SHOE DR, CLINTON, PA, 15026",51920374,"R"
124380,"225 HULAN WAY","LAWRENCEVILLE","GA",30044,33.9145699170001,-84.0690426359999,380,"225 HULAN WAY, LAWRENCEVILLE, GA, 30044","Match","Non_Exact","225 HULAN WAY NW, LAWRENCEVILLE, GA, 30044",623836545,"L"
124381,"225 HWY 24 S","WAYNESBORO","GA",30830,33.0742900540001,-81.9961811439999,381,"225 HWY 24 S, WAYNESBORO, GA, 30830","Match","Non_Exact","225 STATE RTE 24 S, WAYNESBORO, GA, 30830",645615095,"R"
124382,"225 HWY 50","KENDALL","KS",67857,NA,NA,382,"225 HWY 50, KENDALL, KS, 67857","No_Match",NA,NA,NA,NA
124383,"225 IVY ROCK LANE","HAVERTOWN","PA",19083,39.972454999,-75.327583843,383,"225 IVY ROCK LANE, HAVERTOWN, PA, 19083","Match","Exact","225 IVY ROCK LN, HAVERTOWN, PA, 19083",134874109,"L"
124384,"225 JEFFERSON AVE","VALLEY PARK","MO",63088,38.5580455850001,-90.4980318899999,384,"225 JEFFERSON AVE, VALLEY PARK, MO, 63088","Match","Exact","225 JEFFERSON AVE, VALLEY PARK, MO, 63088",629472773,"R"
124385,"225 JOHNSON RD APT 44A","FOREST PARK","GA",30297,33.5960084540001,-84.383322793,385,"225 JOHNSON RD APT 44A, FOREST PARK, GA, 30297","Match","Exact","225 JOHNSON RD, FOREST PARK, GA, 30297",650115552,"R"
124386,"225 KILGALLEN RD","BUTLER","PA",16002,NA,NA,386,"225 KILGALLEN RD, BUTLER, PA, 16002","No_Match",NA,NA,NA,NA
124387,"225 KIMBARK ST","LONGMONT","CO",80501,40.162117016,-105.101863078,387,"225 KIMBARK ST, LONGMONT, CO, 80501","Match","Exact","225 KIMBARK ST, LONGMONT, CO, 80501",188205078,"R"
124388,"225 KIMBARK STREET","LONGMONT","CO",80501,40.162117016,-105.101863078,388,"225 KIMBARK STREET, LONGMONT, CO, 80501","Match","Exact","225 KIMBARK ST, LONGMONT, CO, 80501",188205078,"R"
124389,"225 LAKE DRIVE","TOPTON","NC",28781,35.1665947700001,-83.645524401,389,"225 LAKE DRIVE, TOPTON, NC, 28781","Match","Exact","225 LAKE DR, TOPTON, NC, 28781",35504873,"R"
124390,"225 LEATH COURT","SHEPHERDSVILLE","KY",40165,38.0591939450001,-85.6188420399999,390,"225 LEATH COURT, SHEPHERDSVILLE, KY, 40165","Match","Exact","225 LEATH CT, SHEPHERDSVILLE, KY, 40165",623802282,"R"
124391,"225 LINDEN STREET","SUNBURY","PA",17801,40.8572461840001,-76.7966529719999,391,"225 LINDEN STREET, SUNBURY, PA, 17801","Match","Exact","225 LINDEN ST, SUNBURY, PA, 17801",48070362,"L"
124392,"225 LOOKOUT POINT  A5","HOT SPRINGS","AR",71913,34.4287794630001,-93.079617581,392,"225 LOOKOUT POINT  A5, HOT SPRINGS, AR, 71913","Match","Exact","225 LOOKOUT PT, HOT SPRINGS, AR, 71913",22773161,"L"
124393,"225 MAIN STREET","BELPRE","OH",45714,39.273483469,-81.569522811,393,"225 MAIN STREET, BELPRE, OH, 45714","Match","Exact","225 MAIN ST, BELPRE, OH, 45714",634786065,"L"
124394,"225 MAIN STREET","FAIRVIEW","OR",97024,45.5393073660001,-122.43591282,394,"225 MAIN STREET, FAIRVIEW, OR, 97024","Match","Exact","225 MAIN ST, FAIRVIEW, OR, 97024",157527628,"R"
124395,"225 MAIN STREET","PAWTUCKET","RI",2840,NA,NA,395,"225 MAIN STREET, PAWTUCKET, RI, 2840","No_Match",NA,NA,NA,NA
124396,"225 MARTINGALE DRIVE","OLD HICKORY","TN",37138,36.26169048,-86.6567603669999,396,"225 MARTINGALE DRIVE, OLD HICKORY, TN, 37138","Match","Exact","225 MARTINGALE DR, OLD HICKORY, TN, 37138",97183662,"R"
124397,"225 MEADOW RIDGE TRL","DOYLESTOWN","OH",44230,40.956994482,-81.6969061619999,397,"225 MEADOW RIDGE TRL, DOYLESTOWN, OH, 44230","Match","Exact","225 MEADOW RIDGE TRL, DOYLESTOWN, OH, 44230",58742077,"L"
124398,"225 MEADOW WOODS DRIVE","LEWISTOWN","PA",17044,40.583422397,-77.638310684,398,"225 MEADOW WOODS DRIVE, LEWISTOWN, PA, 17044","Match","Exact","225 MEADOW WOODS DR, LEWISTOWN, PA, 17044",48032775,"R"
124399,"225 MEDFORD DRIVE","PATCHOGUE","NY",11772,40.77483647,-73.007749685,399,"225 MEDFORD DRIVE, PATCHOGUE, NY, 11772","Match","Non_Exact","225 MEDFORD AVE, PATCHOGUE, NY, 11772",114013040,"R"
124400,"225 MIDDLE SCHOOL ROAD","ROCKY MOUNT","VA",24151,37.017104256,-79.885384862,400,"225 MIDDLE SCHOOL ROAD, ROCKY MOUNT, VA, 24151","Match","Exact","225 MIDDLE SCHOOL RD, ROCKY MOUNT, VA, 24151",627004175,"R"
124401,"225 MONROE RD","BOLINGBROOK","IL",60440,41.716234442,-88.063052988,401,"225 MONROE RD, BOLINGBROOK, IL, 60440","Match","Exact","225 MONROE RD, BOLINGBROOK, IL, 60440",111543926,"R"
124402,"225 MORAY CT","CRETE","IL",60417,41.466652395,-87.6051958149999,402,"225 MORAY CT, CRETE, IL, 60417","Match","Exact","225 MORAY CT, CRETE, IL, 60417",111553534,"L"
124403,"225 MOUNTAIN VIEW ROAD","EL CAJON","CA",92021,32.815606304,-116.86063454,403,"225 MOUNTAIN VIEW ROAD, EL CAJON, CA, 92021","Match","Exact","225 MOUNTAIN VIEW RD, EL CAJON, CA, 92021",195724087,"R"
124404,"225 N  DOVER RD","DOVER","FL",33527,27.9403255230001,-82.219580316,404,"225 N  DOVER RD, DOVER, FL, 33527","Match","Exact","225 N DOVER RD, DOVER, FL, 33527",647482064,"L"
124405,"225 N 18TH STREET","KENILWORTH","NJ",7033,40.6806815100001,-74.294950865,405,"225 N 18TH STREET, KENILWORTH, NJ, 7033","Match","Exact","225 N 18TH ST, KENILWORTH, NJ, 07033",60570217,"R"
124406,"225 N 4TH AVE","IRON RIVER","MI",49935,46.0899021660001,-88.642889333,406,"225 N 4TH AVE, IRON RIVER, MI, 49935","Match","Exact","225 N 4TH AVE, IRON RIVER, MI, 49935",165180585,"L"
124407,"225 N 5TH STREET","WEST MEMPHIS","AR",72301,35.1478054790001,-90.177650574,407,"225 N 5TH STREET, WEST MEMPHIS, AR, 72301","Match","Exact","225 N 5TH ST, WEST MEMPHIS, AR, 72301",638666958,"L"
124408,"225 N ASH","BLACKFOOT","ID",83221,43.1915098950001,-112.345182286,408,"225 N ASH, BLACKFOOT, ID, 83221","Match","Non_Exact","225 N ASH ST, BLACKFOOT, ID, 83221",130045262,"L"
124409,"225 N BEAUMONT RD SUITE 240","PRAIRIE DU CHIEN","WI",53821,NA,NA,409,"225 N BEAUMONT RD SUITE 240, PRAIRIE DU CHIEN, WI, 53821","Tie",NA,NA,NA,NA
124410,"225 N CALVERT STREET APT 1811","Baltimore","MD",21202,39.234504439,-76.6099589419999,410,"225 N CALVERT STREET APT 1811, Baltimore, MD, 21202","Match","Non_Exact","225 CALVERT ST, BALTIMORE, MD, 21225",206423010,"R"
124411,"225 N CEDAR STREET 119","CHARLOTTE","NC",28202,NA,NA,411,"225 N CEDAR STREET 119, CHARLOTTE, NC, 28202","Tie",NA,NA,NA,NA
124412,"225 N CENTRAL BLVD","QUARTZSITE","AZ",85346,NA,NA,412,"225 N CENTRAL BLVD, QUARTZSITE, AZ, 85346","No_Match",NA,NA,NA,NA
124413,"225 N CLIFTON AVE STE 8","LOUISVILLE","KY",40206,NA,NA,413,"225 N CLIFTON AVE STE 8, LOUISVILLE, KY, 40206","Tie",NA,NA,NA,NA
124414,"225 N DIVISION ST SUITE 302","SALISBURY","MD",21801,NA,NA,414,"225 N DIVISION ST SUITE 302, SALISBURY, MD, 21801","Tie",NA,NA,NA,NA
124415,"225 N INTERSTATE DR","NORMAN","OK",73069,35.220038323,-97.484043008,415,"225 N INTERSTATE DR, NORMAN, OK, 73069","Match","Exact","225 N INTERSTATE DR, NORMAN, OK, 73069",99953995,"R"
124416,"225 N KENNEL ROAD","SANFORD","FL",32771,28.8140006020001,-81.310375768,416,"225 N KENNEL ROAD, SANFORD, FL, 32771","Match","Exact","225 KENNEL RD, SANFORD, FL, 32771",646965141,"R"
124417,"225 N MAIN ST","HAY SPRINGS","NE",69347,42.684765886,-102.689909497,417,"225 N MAIN ST, HAY SPRINGS, NE, 69347","Match","Exact","225 N MAIN ST, HAY SPRINGS, NE, 69347",164343517,"R"
124418,"225 N MCKINLEY AVE","FORT COLLINS","CO",80521,40.590026365,-105.100779297,418,"225 N MCKINLEY AVE, FORT COLLINS, CO, 80521","Match","Exact","225 N MCKINLEY AVE, FORT COLLINS, CO, 80521",188490227,"L"
124419,"225 N PEARL STREET PO BOX 201","ETNA GREEN","IN",46524,NA,NA,419,"225 N PEARL STREET PO BOX 201, ETNA GREEN, IN, 46524","Tie",NA,NA,NA,NA
124420,"225 N RICHMOND ROAD","WHARTON","TX",77488,29.312901395,-96.102580464,420,"225 N RICHMOND ROAD, WHARTON, TX, 77488","Match","Exact","225 N RICHMOND RD, WHARTON, TX, 77488",42498372,"L"
124421,"225 N SABLE BLVD 10215","AURORA","CO",80011,39.7201638390001,-104.819377084,421,"225 N SABLE BLVD 10215, AURORA, CO, 80011","Match","Exact","225 SABLE BLVD, AURORA, CO, 80011",177354498,"L"
124422,"225 N WASHINGTON STREET","ALEXANDRIA","VA",22314,38.8066276690001,-77.0466195179999,422,"225 N WASHINGTON STREET, ALEXANDRIA, VA, 22314","Match","Exact","225 N WASHINGTON ST, ALEXANDRIA, VA, 22314",75991542,"R"
124423,"225 N YALE","WICHITA","KS",67208,37.6888042190001,-97.2932144169999,423,"225 N YALE, WICHITA, KS, 67208","Match","Non_Exact","225 N YALE AVE, WICHITA, KS, 67208",636692638,"L"
124424,"225 NE 17TH CT","NEWPORT","OR",97365,44.6500322420001,-124.051922969,424,"225 NE 17TH CT, NEWPORT, OR, 97365","Match","Exact","225 NE 17TH CT, NEWPORT, OR, 97365",155931156,"L"
124425,"225 NE 39TH CT","POMPANO BEACH","FL",33064,26.279131959,-80.121992469,425,"225 NE 39TH CT, POMPANO BEACH, FL, 33064","Match","Exact","225 NE 39TH CT, POMPANO BEACH, FL, 33064",114742235,"L"
124426,"225 NEWMAN AVE","RUMFORD","RI",2916,41.8412672090001,-71.348802642,426,"225 NEWMAN AVE, RUMFORD, RI, 2916","Match","Exact","225 NEWMAN AVE, RUMFORD, RI, 02916",47474062,"L"
124427,"225 NOKETCHEE CREEK RD","ATHENS","GA",30601,34.0224015920001,-83.346875874,427,"225 NOKETCHEE CREEK RD, ATHENS, GA, 30601","Match","Exact","225 NOKETCHEE CREEK RD, ATHENS, GA, 30601",642558493,"L"
124428,"225 NORFOLK STREET","SPRINGFIELD","MA",1109,42.1072070870001,-72.54989267,428,"225 NORFOLK STREET, SPRINGFIELD, MA, 1109","Match","Exact","225 NORFOLK ST, SPRINGFIELD, MA, 01109",642588849,"L"
124429,"225 NORTH 59TH STREET","PHILADELPHIA","PA",19139,39.965403715,-75.238006745,429,"225 NORTH 59TH STREET, PHILADELPHIA, PA, 19139","Match","Exact","225 N 59TH ST, PHILADELPHIA, PA, 19139",131398276,"R"
124430,"225 NORTH 8TH STREET","KENILWORTH","NJ",7033,40.6794216700001,-74.3038148799999,430,"225 NORTH 8TH STREET, KENILWORTH, NJ, 7033","Match","Exact","225 N 8TH ST, KENILWORTH, NJ, 07033",60569917,"R"
124431,"225 NORTH MARTINE AVE","FANWOOD","NJ",7023,40.6463784380001,-74.392816232,431,"225 NORTH MARTINE AVE, FANWOOD, NJ, 7023","Match","Exact","225 N MARTINE AVE, FANWOOD, NJ, 07023",60567495,"L"
124432,"225 NORTH MCKAY AVE","ALEXANDRIA","MN",56308,NA,NA,432,"225 NORTH MCKAY AVE, ALEXANDRIA, MN, 56308","No_Match",NA,NA,NA,NA
124433,"225 NORTH MONTGOMERY STREET","STARKVILLE","MS",39759,33.4690212090001,-88.81027894,433,"225 NORTH MONTGOMERY STREET, STARKVILLE, MS, 39759","Match","Exact","225 N MONTGOMERY ST, STARKVILLE, MS, 39759",796703,"L"
124434,"225 NORTH NEW JERSEY ST   APT  62","EVANSVILLE","IN",46204,39.7705097790001,-86.1506974769999,434,"225 NORTH NEW JERSEY ST   APT  62, EVANSVILLE, IN, 46204","Match","Non_Exact","225 N NEW JERSEY ST, INDIANAPOLIS, IN, 46204",107991866,"R"
124435,"225 NORTH TRENT AVENUE","FAYETTEVILLE","AR",72701,36.064833048,-94.1547511539999,435,"225 NORTH TRENT AVENUE, FAYETTEVILLE, AR, 72701","Match","Exact","225 N TRENT AVE, FAYETTEVILLE, AR, 72701",49100438,"L"
124436,"225 NORTHWIND DR","EL PASO","TX",79912,31.836132912,-106.534973057,436,"225 NORTHWIND DR, EL PASO, TX, 79912","Match","Exact","225 NORTHWIND DR, EL PASO, TX, 79912",189336024,"L"
124437,"225 NORWICH DR","BARTLETT","IL",60103,41.990343726,-88.253636106,437,"225 NORWICH DR, BARTLETT, IL, 60103","Match","Exact","225 NORWICH DR, BARTLETT, IL, 60103",635485463,"L"
124438,"225 NW 47 TERRACE","DEERFIELD BEACH","FL",33442,26.320685806,-80.168417301,438,"225 NW 47 TERRACE, DEERFIELD BEACH, FL, 33442","Match","Exact","225 NW 47TH TER, DEERFIELD BEACH, FL, 33442",114739369,"R"
124439,"225 NW SCHOOL ST","ANKENY","IA",50023,41.7351064760001,-93.603696988,439,"225 NW SCHOOL ST, ANKENY, IA, 50023","Match","Exact","225 NW SCHOOL ST, ANKENY, IA, 50023",65835290,"R"
124440,"225 OAKGROVE RD","SELMER","TN",38375,35.163423816,-88.5731548209999,440,"225 OAKGROVE RD, SELMER, TN, 38375","Match","Exact","225 OAKGROVE RD, SELMER, TN, 38375",21267247,"R"
124441,"225 OCEAN AVE","JERSEY CITY","NJ",7305,40.6958045960001,-74.0903759349999,441,"225 OCEAN AVE, JERSEY CITY, NJ, 7305","Match","Exact","225 OCEAN AVE, JERSEY CITY, NJ, 07305",59603335,"L"
124442,"225 OCEAN AVENUE SUITE 2A","JERSEY CITY","NJ",7305,40.6958045960001,-74.0903759349999,442,"225 OCEAN AVENUE SUITE 2A, JERSEY CITY, NJ, 7305","Match","Exact","225 OCEAN AVE, JERSEY CITY, NJ, 07305",59603335,"L"
124443,"225 OCEAN STREET","SOUTH PORTLAND","ME",4106,43.635658,-70.252455438,443,"225 OCEAN STREET, SOUTH PORTLAND, ME, 4106","Match","Exact","225 OCEAN ST, SOUTH PORTLAND, ME, 04106",78028950,"R"
124444,"225 OCEAN VIEW AVE","NEWPORT BEACH","CA",92663,33.621912798,-117.922505503,444,"225 OCEAN VIEW AVE, NEWPORT BEACH, CA, 92663","Match","Exact","225 OCEAN VIEW AVE, NEWPORT BEACH, CA, 92663",629885359,"L"
124445,"225 OLD SEGUIN ROAD","LA VERNIA","TX",78121,NA,NA,445,"225 OLD SEGUIN ROAD, LA VERNIA, TX, 78121","No_Match",NA,NA,NA,NA
124446,"225 PARKER RD","DYERSBURG","TN",38024,36.0201212010001,-89.2828546919999,446,"225 PARKER RD, DYERSBURG, TN, 38024","Match","Exact","225 PARKER RD, DYERSBURG, TN, 38024",40654280,"L"
124447,"225 PARKERS MILL ROAD","SOMERSET","KY",42501,37.039989355,-84.620684818,447,"225 PARKERS MILL ROAD, SOMERSET, KY, 42501","Match","Exact","225 PARKERS MILL RD, SOMERSET, KY, 42501",39096314,"R"
124448,"225 PARKWOOD DRIVE NE","KENNESAW","GA",30114,NA,NA,448,"225 PARKWOOD DRIVE NE, KENNESAW, GA, 30114","No_Match",NA,NA,NA,NA
124449,"225 PARRISH PLACE","MOUNT JULIET","TN",37122,36.2279087110001,-86.484674722,449,"225 PARRISH PLACE, MOUNT JULIET, TN, 37122","Match","Exact","225 PARRISH PL, MOUNT JULIET, TN, 37122",89705098,"R"
124450,"225 PEACEABLE HILL ROAD","RIDGEFIELD","CT",6877,41.2825522110001,-73.53062901,450,"225 PEACEABLE HILL ROAD, RIDGEFIELD, CT, 6877","Match","Exact","225 PEACEABLE HILL RD, RIDGEFIELD, CT, 06877",3254245,"R"
124451,"225 PEMBROOK PLACE","ROSWELL","GA",30075,34.0885470690001,-84.4085774389999,451,"225 PEMBROOK PLACE, ROSWELL, GA, 30075","Match","Exact","225 PEMBROOK PL, ROSWELL, GA, 30075",627687138,"R"
124452,"225 PIERRE RD","WALNUT","CA",91789,34.0185879270001,-117.850506491,452,"225 PIERRE RD, WALNUT, CA, 91789","Match","Exact","225 PIERRE RD, WALNUT, CA, 91789",142252356,"L"
124453,"225 PINE AVENUE ROOM 212","ALBANY","GA",31701,31.5785008980001,-84.1526456939999,453,"225 PINE AVENUE ROOM 212, ALBANY, GA, 31701","Match","Exact","225 PINE AVE, ALBANY, GA, 31701",84329163,"R"
124454,"225 POOLE ROAD","TROY","NC",27371,35.362106775,-79.910543425,454,"225 POOLE ROAD, TROY, NC, 27371","Match","Exact","225 POOLE RD, TROY, NC, 27371",20034549,"R"
124455,"225 PORTLAND AVENUE  APT 340","MINNEAPOLIS","MN",55401,44.978649413,-93.2596387199999,455,"225 PORTLAND AVENUE  APT 340, MINNEAPOLIS, MN, 55401","Match","Non_Exact","225 PORTLAND AVE S, MINNEAPOLIS, MN, 55401",636266781,"L"
124456,"225 POTTER LANE","MOREHEAD","KY",40351,38.186840784,-83.482278444,456,"225 POTTER LANE, MOREHEAD, KY, 40351","Match","Exact","225 POTTER LN, MOREHEAD, KY, 40351",39627541,"R"
124457,"225 PRIVATE ROAD 3584","CLARKSVILLE","AR",72830,NA,NA,457,"225 PRIVATE ROAD 3584, CLARKSVILLE, AR, 72830","No_Match",NA,NA,NA,NA
124458,"225 PROSPECT STREET","SOUTH ORANGE","NJ",7079,40.740634458,-74.259053665,458,"225 PROSPECT STREET, SOUTH ORANGE, NJ, 7079","Match","Exact","225 PROSPECT ST, SOUTH ORANGE, NJ, 07079",63462888,"R"
124459,"225 PROVIDENCE DRIVE","COVINGTON","GA",30016,33.512000851,-84.0102347549999,459,"225 PROVIDENCE DRIVE, COVINGTON, GA, 30016","Match","Exact","225 PROVIDENCE DR, COVINGTON, GA, 30016",23638112,"L"
124460,"225 RECTOR PL APT 11S","NEW YORK","NY",10280,40.7090746910001,-74.015926903,460,"225 RECTOR PL APT 11S, NEW YORK, NY, 10280","Match","Exact","225 RECTOR PL, NEW YORK, NY, 10280",610200386,"R"
124461,"225 RED JACKET TRACE","MURFREESBORO","TN",37127,35.786636098,-86.3946505009999,461,"225 RED JACKET TRACE, MURFREESBORO, TN, 37127","Match","Exact","225 RED JACKET TRCE, MURFREESBORO, TN, 37127",606766651,"R"
124462,"225 RED SCHOOL LANE   APT X7","PHILLIPSBURG","NJ",8865,40.70319872,-75.1658066209999,462,"225 RED SCHOOL LANE   APT X7, PHILLIPSBURG, NJ, 8865","Match","Exact","225 RED SCHOOL LN, PHILLIPSBURG, NJ, 08865",98086544,"L"
124463,"225 RIVER OAKS","PLYMOUTH","MI",48170,42.369272326,-83.4585098009999,463,"225 RIVER OAKS, PLYMOUTH, MI, 48170","Match","Non_Exact","225 RIVER OAKS DR, PLYMOUTH, MI, 48170",95408281,"L"
124464,"225 RIVERFRONT TERR APT 315","EAU CLAIRE","WI",54701,44.8135548020001,-91.5041014179999,464,"225 RIVERFRONT TERR APT 315, EAU CLAIRE, WI, 54701","Match","Non_Exact","225 RIVERFRONT TER, EAU CLAIRE, WI, 54703",636688946,"R"
124465,"225 RIVOLI STREET","SAN FRANCISCO","CA",94117,37.7622889080001,-122.451122939,465,"225 RIVOLI STREET, SAN FRANCISCO, CA, 94117","Match","Exact","225 RIVOLI ST, SAN FRANCISCO, CA, 94117",192282395,"L"
124466,"225 ROBERTS LN","BADEN","PA",15005,40.6530782510001,-80.184650513,466,"225 ROBERTS LN, BADEN, PA, 15005","Match","Exact","225 ROBERTS LN, BADEN, PA, 15005",641681285,"R"
124467,"225 ROSECROFT DR","ROCHESTER","NY",14616,43.2144635220001,-77.6580117999999,467,"225 ROSECROFT DR, ROCHESTER, NY, 14616","Match","Exact","225 ROSECROFT DR, ROCHESTER, NY, 14616",14577625,"L"
124468,"225 S 13TH ST APT 11","WEST COLUMBIA","TX",77486,NA,NA,468,"225 S 13TH ST APT 11, WEST COLUMBIA, TX, 77486","Tie",NA,NA,NA,NA
124469,"225 S 18TH ST APT 1218","PHILADELPHIA","PA",19103,NA,NA,469,"225 S 18TH ST APT 1218, PHILADELPHIA, PA, 19103","Tie",NA,NA,NA,NA
124470,"225 S 5TH ST","WACO","TX",76701,31.555697535,-97.1306201899999,470,"225 S 5TH ST, WACO, TX, 76701","Match","Exact","225 S 5TH ST, WACO, TX, 76701",146736147,"R"
124471,"225 S 66TH E AVE","TULSA","OK",74112,36.1586418860001,-95.903413775,471,"225 S 66TH E AVE, TULSA, OK, 74112","Match","Exact","225 S 66TH EAST AVE, TULSA, OK, 74112",166447277,"L"
124472,"225 S 6TH STREET FLOOR 9","MINNEAPOLIS","MN",55402,44.97651252,-93.268304848,472,"225 S 6TH STREET FLOOR 9, MINNEAPOLIS, MN, 55402","Match","Non_Exact","225 6TH ST S, MINNEAPOLIS, MN, 55402",43632352,"R"
124473,"225 S CHEVY CHASE DR","GLENDALE","CA",91205,34.143675264,-118.239601577,473,"225 S CHEVY CHASE DR, GLENDALE, CA, 91205","Match","Exact","225 S CHEVY CHASE DR, GLENDALE, CA, 91205",141611088,"R"
124474,"225 S CLINTON","MAPLE SHADE","NJ",8052,39.95103971,-75.007021435,474,"225 S CLINTON, MAPLE SHADE, NJ, 8052","Match","Non_Exact","225 S CLINTON AVE, MAPLE SHADE, NJ, 08052",134027039,"L"
124475,"225 S EXECUTIVE DRIVE","BROOKFIELD","WI",53005,43.031119801,-88.114376023,475,"225 S EXECUTIVE DRIVE, BROOKFIELD, WI, 53005","Match","Exact","225 S EXECUTIVE DR, BROOKFIELD, WI, 53005",53817087,"R"
124476,"225 S HEIGHTS BLVD APT 4209","HOUSTON","TX",77007,29.774468997,-95.397381608,476,"225 S HEIGHTS BLVD APT 4209, HOUSTON, TX, 77007","Match","Exact","225 HEIGHTS BLVD, HOUSTON, TX, 77007",96631858,"L"
124477,"225 S HITE AVENUE","LOUISVILLE","KY",40206,38.252179875,-85.6933435399999,477,"225 S HITE AVENUE, LOUISVILLE, KY, 40206","Match","Exact","225 S HITE AVE, LOUISVILLE, KY, 40206",618507118,"L"
124478,"225 S IVY   913","MONROVIA","CA",91017,NA,NA,478,"225 S IVY   913, MONROVIA, CA, 91017","No_Match",NA,NA,NA,NA
124479,"225 S IVY AVE UNIT 821","MONROVIA","CA",91017,NA,NA,479,"225 S IVY AVE UNIT 821, MONROVIA, CA, 91017","No_Match",NA,NA,NA,NA
124480,"225 S KENNEDY DR","CARPENTERSVILLE","IL",60110,42.1163687900001,-88.257913711,480,"225 S KENNEDY DR, CARPENTERSVILLE, IL, 60110","Match","Exact","225 S KENNEDY DR, CARPENTERSVILLE, IL, 60110",119508772,"L"
124481,"225 S KNOTT AVE NO 41","ANHEIM","CA",92804,NA,NA,481,"225 S KNOTT AVE NO 41, ANHEIM, CA, 92804","No_Match",NA,NA,NA,NA
124482,"225 S LAKE AVE STE 1400","PASADENA","CA",91101,NA,NA,482,"225 S LAKE AVE STE 1400, PASADENA, CA, 91101","Tie",NA,NA,NA,NA
124483,"225 S LILY ROAD","PAXINOS","PA",17860,40.852877145,-76.615440625,483,"225 S LILY ROAD, PAXINOS, PA, 17860","Match","Exact","225 LILY RD, PAXINOS, PA, 17860",640433310,"R"
124484,"225 S LIMESTONE ST","GAFFNEY","SC",29340,35.0710620890001,-81.650847379,484,"225 S LIMESTONE ST, GAFFNEY, SC, 29340","Match","Exact","225 S LIMESTONE ST, GAFFNEY, SC, 29340",18988636,"R"
124485,"225 S MAIN AVE","WARRENTON","OR",97146,46.163398629,-123.925445959,485,"225 S MAIN AVE, WARRENTON, OR, 97146","Match","Exact","225 S MAIN AVE, WARRENTON, OR, 97146",159220121,"L"
124486,"225 S MAIN STREET SUITE 102","JONESBORO","AR",72401,NA,NA,486,"225 S MAIN STREET SUITE 102, JONESBORO, AR, 72401","Tie",NA,NA,NA,NA
124487,"225 S PIERCE ST","NEW ORLEANS","LA",70119,29.972630431,-90.10051101,487,"225 S PIERCE ST, NEW ORLEANS, LA, 70119","Match","Exact","225 S PIERCE ST, NEW ORLEANS, LA, 70119",191706846,"R"
124488,"225 S PLEASANTBURG DR STE E8","GREENVILLE","SC",29607,NA,NA,488,"225 S PLEASANTBURG DR STE E8, GREENVILLE, SC, 29607","Tie",NA,NA,NA,NA
124489,"225 S UNIVERSITY ST RM 119","WEST LAFAYETTE","IN",47907,40.42650824,-86.916684722,489,"225 S UNIVERSITY ST RM 119, WEST LAFAYETTE, IN, 47907","Match","Non_Exact","225 UNIVERSITY ST, W LAFAYETTE, IN, 47906",27305203,"L"
124490,"225 S WHITING STREET","ALEXANDRIA","VA",22304,38.811845282,-77.137066896,490,"225 S WHITING STREET, ALEXANDRIA, VA, 22304","Match","Exact","225 S WHITING ST, ALEXANDRIA, VA, 22304",638879615,"R"
124491,"225 SAWGRASS DR","PALOS HEIGHTS","IL",60463,41.6537496290001,-87.77839814,491,"225 SAWGRASS DR, PALOS HEIGHTS, IL, 60463","Match","Exact","225 SAWGRASS DR, PALOS HEIGHTS, IL, 60463",112383121,"L"
124492,"225 SCHILLING CIRCLE SUITE 400","HUNT VALLEY","MD",21031,39.4920169050001,-76.660103119,492,"225 SCHILLING CIRCLE SUITE 400, HUNT VALLEY, MD, 21031","Match","Exact","225 SCHILLING CIR, HUNT VALLEY, MD, 21031",191542915,"L"
124493,"225 SOUTH 42ND STREET SUITE 106B","LOUISVILLE","KY",40212,38.262728386,-85.81901415,493,"225 SOUTH 42ND STREET SUITE 106B, LOUISVILLE, KY, 40212","Match","Exact","225 S 42ND ST, LOUISVILLE, KY, 40212",96836034,"L"
124494,"225 SOUTH BLACK HORSE PIKE","BLACKWOOD","NJ",8012,39.7955834570001,-75.063205146,494,"225 SOUTH BLACK HORSE PIKE, BLACKWOOD, NJ, 8012","Match","Exact","225 S BLACK HORSE PIKE, BLACKWOOD, NJ, 08012",134418556,"L"
124495,"225 SOUTH BROADWAY","TURLOCK","CA",95380,37.491829147,-120.846148655,495,"225 SOUTH BROADWAY, TURLOCK, CA, 95380","Match","Exact","225 S BROADWAY, TURLOCK, CA, 95380",636409021,"L"
124496,"225 SOUTH FRANKLIN STREET","COCHRANTON","PA",16314,41.5104319320001,-80.0401796149999,496,"225 SOUTH FRANKLIN STREET, COCHRANTON, PA, 16314","Match","Exact","225 S FRANKLIN ST, COCHRANTON, PA, 16314",98582879,"R"
124497,"225 SOUTH GRAND AVE 1105","LOS ANGELES","CA",90012,34.0543128050001,-118.250045508,497,"225 SOUTH GRAND AVE 1105, LOS ANGELES, CA, 90012","Match","Exact","225 S GRAND AVE, LOS ANGELES, CA, 90012",141617259,"R"
124498,"225 SOUTH IVY AVE NUM 11","MONROVIA","CA",91016,34.150041813,-117.998816231,498,"225 SOUTH IVY AVE NUM 11, MONROVIA, CA, 91016","Match","Exact","225 S IVY AVE, MONROVIA, CA, 91016",241241639,"R"
124499,"225 SOUTH IVY AVENUE SUITE 2096","MONROVIA","CA",91017,34.150041813,-117.998816231,499,"225 SOUTH IVY AVENUE SUITE 2096, MONROVIA, CA, 91017","Match","Non_Exact","225 S IVY AVE, MONROVIA, CA, 91016",241241639,"R"
124500,"225 SOUTH MAIN ST","HIAWASSEE","GA",30546,NA,NA,500,"225 SOUTH MAIN ST, HIAWASSEE, GA, 30546","No_Match",NA,NA,NA,NA
