"ID","Address","City","State","Zip","lat","long","id","input_address","match_indicator","match_type","matched_address","tiger_line_id","tiger_side"
143501,"26135 MUREAU ROAD SUITE 203","CALABASAS","CA",91302,34.1523104340001,-118.693549554,1,"26135 MUREAU ROAD SUITE 203, CALABASAS, CA, 91302","Match","Exact","26135 MUREAU RD, CALABASAS, CA, 91302",647656572,"L"
143502,"26138 LANDS END DR","SOUTH RIDING","VA",20152,38.894210457,-77.4986626639999,2,"26138 LANDS END DR, SOUTH RIDING, VA, 20152","Match","Exact","26138 LANDS END DR, SOUTH RIDING, VA, 20152",62348193,"L"
143503,"2614 1/2 7TH AVENUE","LOS ANGELES","CA",90018,34.0321332140001,-118.323901982,3,"2614 1/2 7TH AVENUE, LOS ANGELES, CA, 90018","Match","Exact","2614 7TH AVE, LOS ANGELES, CA, 90018",141605686,"L"
143504,"2614 1/2 CAPITOL WAY SOUTH","OLYMPIA,","WA",98501,47.0257296500001,-122.900778787,4,"2614 1/2 CAPITOL WAY SOUTH, OLYMPIA,, WA, 98501","Match","Exact","2614 CAPITOL WAY S, OLYMPIA, WA, 98501",180944799,"L"
143505,"2614 93RD TRL","BROOKLYN PARK","MN",55444,45.1248870380001,-93.316577359,5,"2614 93RD TRL, BROOKLYN PARK, MN, 55444","Match","Exact","2614 93RD TRL, BROOKLYN PARK, MN, 55444",43645550,"R"
143506,"2614 AMBER ST","PHILADELPHIA","PA",19125,39.9851602260001,-75.123446754,6,"2614 AMBER ST, PHILADELPHIA, PA, 19125","Match","Exact","2614 AMBER ST, PHILADELPHIA, PA, 19125",131425879,"L"
143507,"2614 BELUCHE DR","GALVESTON","TX",77551,29.2678659640001,-94.843352484,7,"2614 BELUCHE DR, GALVESTON, TX, 77551","Match","Exact","2614 BELUCHE DR, GALVESTON, TX, 77551",96678491,"L"
143508,"2614 CUSTER PARKWAY UNIT C","RICHARDSON","TX",75080,32.989611418,-96.72656155,8,"2614 CUSTER PARKWAY UNIT C, RICHARDSON, TX, 75080","Match","Exact","2614 CUSTER PKWY, RICHARDSON, TX, 75080",642831644,"R"
143509,"2614 DURANT OAKS DRIVE","VALRICO","FL",33596,27.90691186,-82.224210429,9,"2614 DURANT OAKS DRIVE, VALRICO, FL, 33596","Match","Exact","2614 DURANT OAKS DR, VALRICO, FL, 33596",640440419,"R"
143510,"2614 E LK SAMM PKY SE","SAMMAMISH","WA",98075,NA,NA,10,"2614 E LK SAMM PKY SE, SAMMAMISH, WA, 98075","No_Match",NA,NA,NA,NA
143511,"2614 FALLCREEK STREET","ARLINGTON","TX",76014,32.7010413460001,-97.111566182,11,"2614 FALLCREEK STREET, ARLINGTON, TX, 76014","Match","Exact","2614 FALLCREEK ST, ARLINGTON, TX, 76014",101946175,"R"
143512,"2614 GLENWOOD CIRCLE","IDAHO FALLS","ID",83404,43.474224301,-111.9967819,12,"2614 GLENWOOD CIRCLE, IDAHO FALLS, ID, 83404","Match","Exact","2614 GLENWOOD CIR, IDAHO FALLS, ID, 83404",119138076,"L"
143513,"2614 KULSHAN ST","BELLINGHAM","WA",98225,48.764637056,-122.487224879,13,"2614 KULSHAN ST, BELLINGHAM, WA, 98225","Match","Exact","2614 KULSHAN ST, BELLINGHAM, WA, 98225",183771657,"R"
143514,"2614 LAKE PARK BEND","ACWORTH","GA",30101,34.064056855,-84.635833261,14,"2614 LAKE PARK BEND, ACWORTH, GA, 30101","Match","Exact","2614 LAKE PARK BEND, ACWORTH, GA, 30101",643023707,"R"
143515,"2614 MULTNOMAH ST","PORTLAND","OR",97232,45.5314378310001,-122.638961432,15,"2614 MULTNOMAH ST, PORTLAND, OR, 97232","Match","Non_Exact","2614 NE MULTNOMAH ST, PORTLAND, OR, 97232",157507210,"R"
143516,"2614 N CLARK ST","CHICAGO","IL",60614,41.930165663,-87.643583742,16,"2614 N CLARK ST, CHICAGO, IL, 60614","Match","Exact","2614 N CLARK ST, CHICAGO, IL, 60614",111767062,"L"
143517,"2614 OAKFORD STREET","PHILADELPHIA","PA",19146,39.937831384,-75.187398672,17,"2614 OAKFORD STREET, PHILADELPHIA, PA, 19146","Match","Exact","2614 OAKFORD ST, PHILADELPHIA, PA, 19146",131404715,"L"
143518,"2614 OCCIDENTAL DR","VIENNA","VA",22180,38.8836689550001,-77.2438962699999,18,"2614 OCCIDENTAL DR, VIENNA, VA, 22180","Match","Exact","2614 OCCIDENTAL DR, VIENNA, VA, 22180",75971274,"R"
143519,"2614 PACES PLACE APT D","ATLANTA","GA",30339,33.859150357,-84.4768675459999,19,"2614 PACES PLACE APT D, ATLANTA, GA, 30339","Match","Exact","2614 PACES PL, ATLANTA, GA, 30339",17259163,"L"
143520,"2614 PIONEER TRAIL APT 610","SANDUSKY","OH",44870,41.4308529260001,-82.670168674,20,"2614 PIONEER TRAIL APT 610, SANDUSKY, OH, 44870","Match","Exact","2614 PIONEER TRL, SANDUSKY, OH, 44870",55325258,"R"
143521,"2614 RIVER SLATE COURT","KINGWOOD","TX",77345,30.069459006,-95.168053315,21,"2614 RIVER SLATE COURT, KINGWOOD, TX, 77345","Match","Exact","2614 RIVER SLATE CT, KINGWOOD, TX, 77345",649223261,"L"
143522,"2614 RUTHERFORD PLACE","FREMONT","CA",94539,37.5123875040001,-121.906950488,22,"2614 RUTHERFORD PLACE, FREMONT, CA, 94539","Match","Exact","2614 RUTHERFORD PL, FREMONT, CA, 94539",125058104,"R"
143523,"2614 S GENESEE AVE","LOS ANGELES","CA",90016,34.0321791690001,-118.369942141,23,"2614 S GENESEE AVE, LOS ANGELES, CA, 90016","Match","Exact","2614 S GENESEE AVE, LOS ANGELES, CA, 90016",141600822,"L"
143524,"2614 SE 14TH AVE","HOMESTEAD","FL",33035,25.446211825,-80.4581987509999,24,"2614 SE 14TH AVE, HOMESTEAD, FL, 33035","Match","Exact","2614 SE 14TH AVE, HOMESTEAD, FL, 33035",632008173,"R"
143525,"2614 SUGDEN ST","TEXARKANA","TX",75501,NA,NA,25,"2614 SUGDEN ST, TEXARKANA, TX, 75501","No_Match",NA,NA,NA,NA
143526,"2614 TAMIAMI TRAIL NORTH STE 304","NAPLES","FL",34103,26.1784973800001,-81.7987251819999,26,"2614 TAMIAMI TRAIL NORTH STE 304, NAPLES, FL, 34103","Match","Exact","2614 TAMIAMI TRL N, NAPLES, FL, 34103",631782862,"L"
143527,"2614 W MENDENHALL APT 8","BOZEMAN","MT",59718,NA,NA,27,"2614 W MENDENHALL APT 8, BOZEMAN, MT, 59718","No_Match",NA,NA,NA,NA
143528,"2614 W MORSE AVE","CHICAGO","IL",60645,42.006747176,-87.695444887,28,"2614 W MORSE AVE, CHICAGO, IL, 60645","Match","Exact","2614 W MORSE AVE, CHICAGO, IL, 60645",111744563,"R"
143529,"2614 WEST 2ND LN","RUSSELLVILLE","AR",72801,35.2809028360001,-93.159712971,29,"2614 WEST 2ND LN, RUSSELLVILLE, AR, 72801","Match","Exact","2614 W 2ND LN, RUSSELLVILLE, AR, 72801",81880897,"R"
143530,"2614 WILDE STREET","SERGEANT BLUFF","IA",51054,42.404311589,-96.3443985759999,30,"2614 WILDE STREET, SERGEANT BLUFF, IA, 51054","Match","Exact","2614 WILDE ST, SERGEANT BLUFF, IA, 51054",93426400,"R"
143531,"2614 WOODGATE WAY","ROSEVILLE","CA",95747,38.7795723570001,-121.372555783,31,"2614 WOODGATE WAY, ROSEVILLE, CA, 95747","Match","Exact","2614 WOODGATE WAY, ROSEVILLE, CA, 95747",645564090,"L"
143532,"26141 QUARTZ MESA LANE","VALENCIA","CA",91381,34.4084550580001,-118.593695357,32,"26141 QUARTZ MESA LANE, VALENCIA, CA, 91381","Match","Exact","26141 QUARTZ MESA LN, VALENCIA, CA, 91381",624619804,"R"
143533,"26143 AMBER SKY","SAN ANTONIO","TX",78260,29.688860278,-98.456095407,33,"26143 AMBER SKY, SAN ANTONIO, TX, 78260","Match","Exact","26143 AMBER SKY, SAN ANTONIO, TX, 78260",101738879,"L"
143534,"26145 FRAMPTON AVE  STE B","HARBOR CITY","CA",90710,33.78555163,-118.29994745,34,"26145 FRAMPTON AVE  STE B, HARBOR CITY, CA, 90710","Match","Exact","26145 FRAMPTON AVE, HARBOR CITY, CA, 90710",641505975,"R"
143535,"26148 SPECTACULAR BID ROAD","MORENO VALLEY","CA",92555,33.870642848,-117.208519333,35,"26148 SPECTACULAR BID ROAD, MORENO VALLEY, CA, 92555","Match","Exact","26148 SPECTACULAR BID RD, MORENO VALLEY, CA, 92555",608992941,"L"
143536,"2615 1ST STREET N","NO. ST. PAUL","MN",55109,45.019748855,-92.9974045549999,36,"2615 1ST STREET N, NO. ST. PAUL, MN, 55109","Match","Non_Exact","2615 1ST ST, N SAINT PAUL, MN, 55109",97652669,"L"
143537,"2615 42ND ST W","LEHIGH ACRES","FL",33971,26.6528387610001,-81.667026719,37,"2615 42ND ST W, LEHIGH ACRES, FL, 33971","Match","Exact","2615 42ND ST W, LEHIGH ACRES, FL, 33971",118125360,"R"
143538,"2615 64TH BLVD","VALLEY","AL",36854,32.7671643030001,-85.206247783,38,"2615 64TH BLVD, VALLEY, AL, 36854","Match","Exact","2615 64TH BLVD, VALLEY, AL, 36854",3062023,"L"
143539,"2615 ALAN A DALE","IRVING","TX",75061,32.816789165,-96.979660539,39,"2615 ALAN A DALE, IRVING, TX, 75061","Match","Non_Exact","2615 ALAN-A-DALE, IRVING, TX, 75061",102887276,"R"
143540,"2615 ALFORD AVE","LOUISVILLE","KY",40212,38.2649474510001,-85.79379934,40,"2615 ALFORD AVE, LOUISVILLE, KY, 40212","Match","Exact","2615 ALFORD AVE, LOUISVILLE, KY, 40212",96841424,"R"
143541,"2615 C GRANT ST","HOUSTON","TX",77006,29.746184009,-95.390528145,41,"2615 C GRANT ST, HOUSTON, TX, 77006","Match","Exact","2615 GRANT ST, HOUSTON, TX, 77006",96064575,"L"
143542,"2615 CALDER AVENUE SUITE 1070","BEAUMONT","TX",77702,30.0856542240001,-94.127704449,42,"2615 CALDER AVENUE SUITE 1070, BEAUMONT, TX, 77702","Match","Exact","2615 CALDER AVE, BEAUMONT, TX, 77702",73853600,"L"
143543,"2615 CALUMET","HOUSTON","TX",77004,29.717354807,-95.3736637279999,43,"2615 CALUMET, HOUSTON, TX, 77004","Match","Non_Exact","2615 CALUMET ST, HOUSTON, TX, 77004",96072210,"L"
143544,"2615 CALVIN WAY","GREENVILLE","NC",27834,35.5914411320001,-77.3918519439999,44,"2615 CALVIN WAY, GREENVILLE, NC, 27834","Match","Exact","2615 CALVIN WAY, GREENVILLE, NC, 27834",80009538,"R"
143545,"2615 COLUMBIA PIKE STE210","ARLINGTON","VA",22204,38.863009494,-77.085271153,45,"2615 COLUMBIA PIKE STE210, ARLINGTON, VA, 22204","Match","Non_Exact","2615 S COLUMBIA PIKE, ARLINGTON, VA, 22204",76470648,"R"
143546,"2615 COLUMBIA PIKE SUITE 386","ARLINGTON","VA",22204,38.863009494,-77.085271153,46,"2615 COLUMBIA PIKE SUITE 386, ARLINGTON, VA, 22204","Match","Non_Exact","2615 S COLUMBIA PIKE, ARLINGTON, VA, 22204",76470648,"R"
143547,"2615 DEKALB PIKE - SUITE 1-518","EAST NORRITON","PA",19401,40.138731745,-75.315517685,47,"2615 DEKALB PIKE - SUITE 1-518, EAST NORRITON, PA, 19401","Match","Exact","2615 DEKALB PIKE, EAST NORRITON, PA, 19401",135075890,"L"
143548,"2615 E 16TH STREET 12","NEWPORT BEACH","CA",92663,NA,NA,48,"2615 E 16TH STREET 12, NEWPORT BEACH, CA, 92663","No_Match",NA,NA,NA,NA
143549,"2615 E 3RD STREET","PANAMA CITY","FL",32401,30.153136585,-85.626213663,49,"2615 E 3RD STREET, PANAMA CITY, FL, 32401","Match","Exact","2615 E 3RD ST, PANAMA CITY, FL, 32401",7031109,"L"
143550,"2615 E GENEVIEVE WAY","GREEN VALLEY","AZ",85614,31.8791249970001,-110.930585878,50,"2615 E GENEVIEVE WAY, GREEN VALLEY, AZ, 85614","Match","Exact","2615 E GENEVIEVE WAY, GREEN VALLEY, AZ, 85614",625228092,"L"
143551,"2615 E NEUTRA COURT","ELK GROVE","CA",95758,38.4237573360001,-121.4768119,51,"2615 E NEUTRA COURT, ELK GROVE, CA, 95758","Match","Exact","2615 E NEUTRA CT, ELK GROVE, CA, 95758",133396425,"L"
143552,"2615 E WEAVER STREET","DURHAM","NC",27707,35.9676804790001,-78.910042289,52,"2615 E WEAVER STREET, DURHAM, NC, 27707","Match","Exact","2615 E WEAVER ST, DURHAM, NC, 27707",71740762,"L"
143553,"2615 EAST 73RD STREET","CHICAGO","IL",60649,41.7635195610001,-87.561672764,53,"2615 EAST 73RD STREET, CHICAGO, IL, 60649","Match","Exact","2615 E 73RD ST, CHICAGO, IL, 60649",111775779,"R"
143554,"2615 EDGEFIELD LAKES DR","HOUSTON","TX",77054,29.668834519,-95.420548378,54,"2615 EDGEFIELD LAKES DR, HOUSTON, TX, 77054","Match","Exact","2615 EDGEFIELD LAKES DR, HOUSTON, TX, 77054",624743626,"R"
143555,"2615 EVARTS ST NE","WASHINGTON","DC",20018,38.924502847,-76.969303403,55,"2615 EVARTS ST NE, WASHINGTON, DC, 20018","Match","Exact","2615 EVARTS ST NE, WASHINGTON, DC, 20018",648348870,"R"
143556,"2615 FAIRMOUNT STREET","DALLAS","TX",75201,32.796182217,-96.8034675709999,56,"2615 FAIRMOUNT STREET, DALLAS, TX, 75201","Match","Exact","2615 FAIRMOUNT ST, DALLAS, TX, 75201",102909118,"L"
143557,"2615 FLAHERTY ROAD","EKRON","KY",40117,37.8493513110001,-86.075532691,57,"2615 FLAHERTY ROAD, EKRON, KY, 40117","Match","Exact","2615 FLAHERTY RD, EKRON, KY, 40117",642731636,"L"
143558,"2615 FONTAINEBLEAU DRIVE","ATLANTA","GA",30360,33.950860187,-84.280816005,58,"2615 FONTAINEBLEAU DRIVE, ATLANTA, GA, 30360","Match","Exact","2615 FONTAINEBLEAU DR, ATLANTA, GA, 30360",23356639,"R"
143559,"2615 GILLIONVILLE ROAD SUITE 2C","ALBANY","GA",31707,31.585763188,-84.217569665,59,"2615 GILLIONVILLE ROAD SUITE 2C, ALBANY, GA, 31707","Match","Exact","2615 GILLIONVILLE RD, ALBANY, GA, 31707",628705715,"R"
143560,"2615 GLENN LAKES LN","MISSOURI CITY","TX",77459,29.561633828,-95.5417984599999,60,"2615 GLENN LAKES LN, MISSOURI CITY, TX, 77459","Match","Exact","2615 GLENN LAKES LN, MISSOURI CITY, TX, 77459",78278943,"R"
143561,"2615 HEARTHSTONE CIR","MARIETTA","GA",30062,34.009585809,-84.4196471339999,61,"2615 HEARTHSTONE CIR, MARIETTA, GA, 30062","Match","Exact","2615 HEARTHSTONE CIR, MARIETTA, GA, 30062",17170692,"L"
143562,"2615 HIGHLAND HILL PKWY","DOUGLASVILLE","GA",30135,33.689271117,-84.6646006349999,62,"2615 HIGHLAND HILL PKWY, DOUGLASVILLE, GA, 30135","Match","Exact","2615 HIGHLAND HILL PKWY, DOUGLASVILLE, GA, 30135",618463159,"R"
143563,"2615 JAGUAR ST NE","CANTON","OH",44721,40.8893529800001,-81.3325169349999,63,"2615 JAGUAR ST NE, CANTON, OH, 44721","Match","Exact","2615 JAGUAR ST NE, CANTON, OH, 44721",64694329,"L"
143564,"2615 JEFFORDS ROAD NORTH","LAMAR","SC",29069,NA,NA,64,"2615 JEFFORDS ROAD NORTH, LAMAR, SC, 29069","No_Match",NA,NA,NA,NA
143565,"2615 KIRBY AVENUE","GROVETOWN","GA",30813,NA,NA,65,"2615 KIRBY AVENUE, GROVETOWN, GA, 30813","No_Match",NA,NA,NA,NA
143566,"2615 LADY GROVE ROAD","MITCHELLVILLE","MD",20721,38.9248583090001,-76.843352459,66,"2615 LADY GROVE ROAD, MITCHELLVILLE, MD, 20721","Match","Non_Exact","2615 LADYGROVE RD, MITCHELLVILLE, MD, 20721",650139877,"L"
143567,"2615 LAVARDA LANE NW","HACKENSACK","MN",56452,46.9453205470001,-94.417701401,67,"2615 LAVARDA LANE NW, HACKENSACK, MN, 56452","Match","Exact","2615 LAVARDA LN NW, HACKENSACK, MN, 56452",162749521,"R"
143568,"2615 MAPLE DRIVE S","CAMBRIDGE","MN",55008,45.548722797,-93.242875006,68,"2615 MAPLE DRIVE S, CAMBRIDGE, MN, 55008","Match","Exact","2615 MAPLE DR S, CAMBRIDGE, MN, 55008",97606876,"L"
143569,"2615 MIDWICKHILL DR","ALHAMBRA","ID",91803,NA,NA,69,"2615 MIDWICKHILL DR, ALHAMBRA, ID, 91803","No_Match",NA,NA,NA,NA
143570,"2615 MONTE CARLO DR","SANTA ANA","CA",92706,33.761197967,-117.904061641,70,"2615 MONTE CARLO DR, SANTA ANA, CA, 92706","Match","Exact","2615 MONTE CARLO DR, SANTA ANA, CA, 92706",144040298,"R"
143571,"2615 MORNINGSIDE DRIVE","CROWN POINT","IN",46307,41.474085401,-87.413100831,71,"2615 MORNINGSIDE DRIVE, CROWN POINT, IN, 46307","Match","Exact","2615 MORNINGSIDE DR, CROWN POINT, IN, 46307",98445057,"L"
143572,"2615 MOUNTAIN INDUSTRIAL BLVD","TUCKER","GA",30084,33.8573696,-84.19291622,72,"2615 MOUNTAIN INDUSTRIAL BLVD, TUCKER, GA, 30084","Match","Exact","2615 MOUNTAIN INDUSTRIAL BLVD, TUCKER, GA, 30084",23363755,"R"
143573,"2615 N PIEDRAS ST","EL PASO","TX",79930,31.799700156,-106.461394324,73,"2615 N PIEDRAS ST, EL PASO, TX, 79930","Match","Exact","2615 N PIEDRAS ST, EL PASO, TX, 79930",189340480,"L"
143574,"2615 N WILDERNESS CT","WICHITA","KS",67226,37.731061019,-97.2358548989999,74,"2615 N WILDERNESS CT, WICHITA, KS, 67226","Match","Exact","2615 N WILDERNESS CT, WICHITA, KS, 67226",115697318,"R"
143575,"2615 NW 22 TER","GAINESVILLE","FL",32605,29.6757578200001,-82.3530076769999,75,"2615 NW 22 TER, GAINESVILLE, FL, 32605","Match","Exact","2615 NW 22ND TER, GAINESVILLE, FL, 32605",6805629,"R"
143576,"2615 ORCHARD CREST LN","CORONA","CA",92881,33.8478259180001,-117.557604515,76,"2615 ORCHARD CREST LN, CORONA, CA, 92881","Match","Exact","2615 ORCHARD CREST LN, CORONA, CA, 92881",194860696,"L"
143577,"2615 POPO AGIE DR","ROCK SPRINGS","WY",82901,41.5914019580001,-109.260151547,77,"2615 POPO AGIE DR, ROCK SPRINGS, WY, 82901","Match","Exact","2615 POPO AGIE DR, ROCK SPRINGS, WY, 82901",612217291,"L"
143578,"2615 PRAIRIE ST","ANN ARBOR","MI",48105,42.3090225510001,-83.705164855,78,"2615 PRAIRIE ST, ANN ARBOR, MI, 48105","Match","Exact","2615 PRAIRIE ST, ANN ARBOR, MI, 48105",26039502,"L"
143579,"2615 RAINFLOWER MEADOW LN","KATY","TX",77494,NA,NA,79,"2615 RAINFLOWER MEADOW LN, KATY, TX, 77494","No_Match",NA,NA,NA,NA
143580,"2615 RISING ROCK COURT","ROCKINGHAM","VA",22802,38.4576247480001,-78.9148446199999,80,"2615 RISING ROCK COURT, ROCKINGHAM, VA, 22802","Match","Exact","2615 RISING ROCK CT, ROCKINGHAM, VA, 22802",634370753,"R"
143581,"2615 RIVERVIEW DRIVE","HOOD RIVER","OR",97031,45.705648448,-121.49951324,81,"2615 RIVERVIEW DRIVE, HOOD RIVER, OR, 97031","Match","Exact","2615 RIVERVIEW DR, HOOD RIVER, OR, 97031",158134215,"L"
143582,"2615 ROSEHILL DRIVE","HUNTSVILLE","AL",35810,34.7622946750001,-86.640801875,82,"2615 ROSEHILL DRIVE, HUNTSVILLE, AL, 35810","Match","Non_Exact","2615 ROSEHILL DR NW, HUNTSVILLE, AL, 35810",58113247,"R"
143583,"2615 ROSEWOOD ST","MEDFORD","OR",97504,42.3578858110001,-122.843109699,83,"2615 ROSEWOOD ST, MEDFORD, OR, 97504","Match","Exact","2615 ROSEWOOD ST, MEDFORD, OR, 97504",155514028,"L"
143584,"2615 RUHLAND AVE APT 11","REDONDO BEACH","CA",90278,33.875689751,-118.363873961,84,"2615 RUHLAND AVE APT 11, REDONDO BEACH, CA, 90278","Match","Exact","2615 RUHLAND AVE, REDONDO BEACH, CA, 90278",141663150,"L"
143585,"2615 S DORSEY LN","TEMPE","AZ",85282,33.4020259430001,-111.915862545,85,"2615 S DORSEY LN, TEMPE, AZ, 85282","Match","Exact","2615 S DORSEY LN, TEMPE, AZ, 85282",128232115,"L"
143586,"2615 W LAKE ISLE DR","MEQUON","WI",53092,43.244338155,-87.942283903,86,"2615 W LAKE ISLE DR, MEQUON, WI, 53092","Match","Exact","2615 LAKE ISLE DR, MEQUON, WI, 53092",95904592,"L"
143587,"2615 W PIONEER PKWY STE 128","GRAND PRAIRIE","TX",75051,32.7119338310001,-97.045905203,87,"2615 W PIONEER PKWY STE 128, GRAND PRAIRIE, TX, 75051","Match","Non_Exact","2615 W PIONEER PKWY, GRAND PRAIRIE, TX, 75051",102175314,"L"
143588,"2615 WALMAR DRIVE","LANSING","MI",48917,42.760677451,-84.634107957,88,"2615 WALMAR DRIVE, LANSING, MI, 48917","Match","Exact","2615 WALMAR DR, LANSING, MI, 48917",12041104,"L"
143589,"2615 WEST MEMORIAL DRIVE","Janesville","WI",53548,42.6967796100001,-89.054200894,89,"2615 WEST MEMORIAL DRIVE, Janesville, WI, 53548","Match","Exact","2615 W MEMORIAL DR, JANESVILLE, WI, 53548",638845993,"L"
143590,"2615 WILDFLOWER LN","SNELLVILLE","GA",30039,33.831569228,-84.051863135,90,"2615 WILDFLOWER LN, SNELLVILLE, GA, 30039","Match","Exact","2615 WILDFLOWER LN, SNELLVILLE, GA, 30039",640547181,"R"
143591,"2615 WOODWICK DR SUITE P","SUGAR LAND","TX",77479,29.5877135120001,-95.604989801,91,"2615 WOODWICK DR SUITE P, SUGAR LAND, TX, 77479","Match","Exact","2615 WOODWICK DR, SUGAR LAND, TX, 77479",78268779,"R"
143592,"2615 WYCLIFF DR","FARMINGTON","MO",63640,37.739552249,-90.442228776,92,"2615 WYCLIFF DR, FARMINGTON, MO, 63640","Match","Exact","2615 WYCLIFF DR, FARMINGTON, MO, 63640",642020927,"R"
143593,"26151 LAKESHORE BLVD APT 407","EUCLID","OH",44132,41.6211856530001,-81.5017842029999,93,"26151 LAKESHORE BLVD APT 407, EUCLID, OH, 44132","Match","Exact","26151 LAKESHORE BLVD, EUCLID, OH, 44132",649549203,"L"
143594,"26151 LILA LANE","DEARBORN HEIGHTS","MI",48127,42.3184894770001,-83.295938225,94,"26151 LILA LANE, DEARBORN HEIGHTS, MI, 48127","Match","Exact","26151 LILA LN, DEARBORN HEIGHTS, MI, 48127",95698579,"L"
143595,"26155 BULL RUN POST OFFICE RD","CENTREVILLE","VA",20120,38.8934897340001,-77.514450518,95,"26155 BULL RUN POST OFFICE RD, CENTREVILLE, VA, 20120","Match","Exact","26155 BULL RUN POST OFFICE RD, CENTREVILLE, VA, 20120",62328648,"R"
143596,"2616 67TH ST","KENOSHA","WI",53143,42.5731756390001,-87.84114195,96,"2616 67TH ST, KENOSHA, WI, 53143","Match","Exact","2616 67TH ST, KENOSHA, WI, 53143",79800067,"R"
143597,"2616 ABBEY GROVE DR","VALRICO","FL",33594,27.9222231970001,-82.238746932,97,"2616 ABBEY GROVE DR, VALRICO, FL, 33594","Match","Exact","2616 ABBEY GROVE DR, VALRICO, FL, 33594",629904382,"R"
143598,"2616 CENTRAL PARKWAY","CINCINNATI","OH",45214,39.128483096,-84.533069715,98,"2616 CENTRAL PARKWAY, CINCINNATI, OH, 45214","Match","Exact","2616 CENTRAL PKWY, CINCINNATI, OH, 45214",103970189,"R"
143599,"2616 CHAPEL HILL RD","DURHAM","NC",27707,35.9784039300001,-78.935522352,99,"2616 CHAPEL HILL RD, DURHAM, NC, 27707","Match","Exact","2616 CHAPEL HILL RD, DURHAM, NC, 27707",652163787,"R"
143600,"2616 COVE CAY DRIVE SUITE 905","CLEARWATER","FL",33760,27.9323419680001,-82.729795859,100,"2616 COVE CAY DRIVE SUITE 905, CLEARWATER, FL, 33760","Match","Exact","2616 COVE CAY DR, CLEARWATER, FL, 33760",650556153,"L"
143601,"2616 CREEKVIEW DR","ARLINGTON","TX",76016,32.7010720660001,-97.1730110399999,101,"2616 CREEKVIEW DR, ARLINGTON, TX, 76016","Match","Exact","2616 CREEKVIEW DR, ARLINGTON, TX, 76016",101905933,"R"
143602,"2616 CREEKWOOD LANE","FORT WORTH","TX",76123,32.628604313,-97.360608884,102,"2616 CREEKWOOD LANE, FORT WORTH, TX, 76123","Match","Exact","2616 CREEKWOOD LN, FORT WORTH, TX, 76123",101931325,"L"
143603,"2616 CROSSGATE TRL","MONTGOMERY","AL",36117,32.3433778030001,-86.197409237,103,"2616 CROSSGATE TRL, MONTGOMERY, AL, 36117","Match","Exact","2616 CROSSGATE TRL, MONTGOMERY, AL, 36117",1477707,"L"
143604,"2616 DAME BRISEN DR","LEWISVILLE","TX",75056,33.04069108,-96.896277819,104,"2616 DAME BRISEN DR, LEWISVILLE, TX, 75056","Match","Exact","2616 DAME BRISEN DR, LEWISVILLE, TX, 75056",103401224,"R"
143605,"2616 DIXIE HWY","STUART","FL",34995,NA,NA,105,"2616 DIXIE HWY, STUART, FL, 34995","No_Match",NA,NA,NA,NA
143606,"2616 E 28TH ST","BROOKLYN","NY",11235,40.588853564,-73.941664498,106,"2616 E 28TH ST, BROOKLYN, NY, 11235","Match","Exact","2616 E 28TH ST, BROOKLYN, NY, 11235",59092006,"R"
143607,"2616 E BLACKSTONE DR","EAGLE","ID",83616,43.6960393470001,-116.321294448,107,"2616 E BLACKSTONE DR, EAGLE, ID, 83616","Match","Exact","2616 E BLACKSTONE DR, EAGLE, ID, 83616",648980358,"L"
143608,"2616 EAST BROADWAY","TUCSON","AZ",85716,32.221496991,-110.933070066,108,"2616 EAST BROADWAY, TUCSON, AZ, 85716","Match","Non_Exact","2616 E BROADWAY BLVD, TUCSON, AZ, 85716",121174608,"R"
143609,"2616 ERWIN ROAD SUITE 2405","DURHAM","NC",27705,36.0086381470001,-78.9446174839999,109,"2616 ERWIN ROAD SUITE 2405, DURHAM, NC, 27705","Match","Exact","2616 ERWIN RD, DURHAM, NC, 27705",71774638,"R"
143610,"2616 FAIRHAUSER ROAD","NAPERVILLE","IL",60564,41.6822729130001,-88.198703374,110,"2616 FAIRHAUSER ROAD, NAPERVILLE, IL, 60564","Match","Exact","2616 FAIRHAUSER RD, NAPERVILLE, IL, 60564",111593270,"L"
143611,"2616 GEORGIA AVENUE NW","WASHINGTON","DC",20001,38.924698076,-77.022602676,111,"2616 GEORGIA AVENUE NW, WASHINGTON, DC, 20001","Match","Exact","2616 GEORGIA AVE NW, WASHINGTON, DC, 20001",76224364,"L"
143612,"2616 GOLDEN CREEK LANE","PEARLAND","TX",77584,29.5630226850001,-95.4238863099999,112,"2616 GOLDEN CREEK LANE, PEARLAND, TX, 77584","Match","Exact","2616 GOLDEN CREEK LN, PEARLAND, TX, 77584",629562852,"L"
143613,"2616 GRANT AVE","DAYTON","OH",45406,39.7951351020001,-84.252213898,113,"2616 GRANT AVE, DAYTON, OH, 45406","Match","Exact","2616 GRANT AVE, DAYTON, OH, 45406",143565056,"R"
143614,"2616 GREENACRE DR","FINDLAY","OH",45840,41.0705164080001,-83.658816647,114,"2616 GREENACRE DR, FINDLAY, OH, 45840","Match","Exact","2616 GREENACRE DR, FINDLAY, OH, 45840",36467254,"L"
143615,"2616 HALCYON DOWNS LOOP","MONTGOMERY","AL",36117,32.343161165,-86.171741165,115,"2616 HALCYON DOWNS LOOP, MONTGOMERY, AL, 36117","Match","Exact","2616 HALCYON DOWNS LOOP, MONTGOMERY, AL, 36117",642884499,"R"
143616,"2616 HELEN LANE","MESQUITE","TX",75181,32.7378307590001,-96.54328423,116,"2616 HELEN LANE, MESQUITE, TX, 75181","Match","Exact","2616 HELEN LN, MESQUITE, TX, 75181",103166946,"L"
143617,"2616 HIDDEN MEADOW DRIVE","FUQUAY-VARINA","NC",27526,35.622571163,-78.7467904539999,117,"2616 HIDDEN MEADOW DRIVE, FUQUAY-VARINA, NC, 27526","Match","Exact","2616 HIDDEN MEADOW DR, FUQUAY VARINA, NC, 27526",208371802,"R"
143618,"2616 JAMESTOWN LANE","DENTON","TX",76209,33.239298934,-97.110520953,118,"2616 JAMESTOWN LANE, DENTON, TX, 76209","Match","Exact","2616 JAMESTOWN LN, DENTON, TX, 76209",103339921,"L"
143619,"2616 JEB STUART HIGHWAY","MEADOWS OF DAN","VA",24120,NA,NA,119,"2616 JEB STUART HIGHWAY, MEADOWS OF DAN, VA, 24120","No_Match",NA,NA,NA,NA
143620,"2616 MARTIN LUTHER KING JR AVE SE","WASHINGTON","DC",20020,NA,NA,120,"2616 MARTIN LUTHER KING JR AVE SE, WASHINGTON, DC, 20020","No_Match",NA,NA,NA,NA
143621,"2616 MISSION RD STE 169","TALLAHASSEE","FL",32304,30.455555045,-84.334031962,121,"2616 MISSION RD STE 169, TALLAHASSEE, FL, 32304","Match","Exact","2616 MISSION RD, TALLAHASSEE, FL, 32304",618972990,"R"
143622,"2616 MONTEREY ROAD","SAN MARINO","CA",91108,34.113802562,-118.13549713,122,"2616 MONTEREY ROAD, SAN MARINO, CA, 91108","Match","Exact","2616 MONTEREY RD, SAN MARINO, CA, 91108",141631197,"R"
143623,"2616 N 8TH ST","KANSAS CITY","KS",66101,39.134511461,-94.629354862,123,"2616 N 8TH ST, KANSAS CITY, KS, 66101","Match","Exact","2616 N 8TH ST, KANSAS CITY, KS, 66101",91136251,"L"
143624,"2616 NW 112TH STREET","OKLAHOMA CITY","OK",73120,35.5843736420001,-97.561973854,124,"2616 NW 112TH STREET, OKLAHOMA CITY, OK, 73120","Match","Exact","2616 NW 112TH ST, OKLAHOMA CITY, OK, 73120",100392602,"L"
143625,"2616 OAKWOOD CIRCLE","OSHKOSH","WI",54904,44.0351636620001,-88.598392712,125,"2616 OAKWOOD CIRCLE, OSHKOSH, WI, 54904","Match","Exact","2616 OAKWOOD CIR, OSHKOSH, WI, 54904",74507110,"R"
143626,"2616 PINEY WOOD TERRACE","EAST POINT","GA",30088,33.683979046,-84.482602363,126,"2616 PINEY WOOD TERRACE, EAST POINT, GA, 30088","Match","Non_Exact","2616 PINEY WOOD TER, EAST POINT, GA, 30344",17338488,"L"
143627,"2616 REAGIN STREET","LITHONIA","GA",30058,33.709164695,-84.1129583009999,127,"2616 REAGIN STREET, LITHONIA, GA, 30058","Match","Exact","2616 REAGIN ST, LITHONIA, GA, 30058",644780517,"L"
143628,"2616 RIDGELY ST","BALTIMORE","MD",21230,39.261508517,-76.6459124099999,128,"2616 RIDGELY ST, BALTIMORE, MD, 21230","Match","Exact","2616 RIDGELY ST, BALTIMORE, MD, 21230",206460021,"R"
143629,"2616 S RIDGELEY DR","LOS ANGELES","CA",90016,34.0322360280001,-118.361630834,129,"2616 S RIDGELEY DR, LOS ANGELES, CA, 90016","Match","Exact","2616 S RIDGELEY DR, LOS ANGELES, CA, 90016",141601116,"L"
143630,"2616 SHEPARD BOULEVARD","COLUMBIA","MO",65201,38.9376273140001,-92.2976791199999,130,"2616 SHEPARD BOULEVARD, COLUMBIA, MO, 65201","Match","Exact","2616 SHEPARD BLVD, COLUMBIA, MO, 65201",23482458,"R"
143631,"2616 SOUTH LOOP WEST NUMBER 400","HOUSTON","TX",77054,NA,NA,131,"2616 SOUTH LOOP WEST NUMBER 400, HOUSTON, TX, 77054","No_Match",NA,NA,NA,NA
143632,"2616 SOUTH LOOP WEST SUITE 400","HOUSTON","TX",77054,NA,NA,132,"2616 SOUTH LOOP WEST SUITE 400, HOUSTON, TX, 77054","No_Match",NA,NA,NA,NA
143633,"2616 SOUTHWEST FREEWAY SUITE 100 B","HOUSTON","TX",77054,NA,NA,133,"2616 SOUTHWEST FREEWAY SUITE 100 B, HOUSTON, TX, 77054","No_Match",NA,NA,NA,NA
143634,"2616 TAYLORS RIDGE ROAD","TEMPLE","TX",76502,31.050004046,-97.389023112,134,"2616 TAYLORS RIDGE ROAD, TEMPLE, TX, 76502","Match","Non_Exact","2616 TAYLOR'S RIDGE RD, TEMPLE, TX, 76502",146163791,"R"
143635,"2616 TIMBERLY DR","INDIANAPOLIS","IN",46220,39.877137643,-86.119954036,135,"2616 TIMBERLY DR, INDIANAPOLIS, IN, 46220","Match","Exact","2616 TIMBERLY DR, INDIANAPOLIS, IN, 46220",107984865,"L"
143636,"2616 WAKECREST DR","FORT WORTH","TX",76108,32.7355954490001,-97.511617954,136,"2616 WAKECREST DR, FORT WORTH, TX, 76108","Match","Exact","2616 WAKECREST DR, FORT WORTH, TX, 76108",102190720,"R"
143637,"2616 WHITNEY DRIVE","ALHAMBRA","CA",91803,34.062094689,-118.145650991,137,"2616 WHITNEY DRIVE, ALHAMBRA, CA, 91803","Match","Exact","2616 WHITNEY DR, ALHAMBRA, CA, 91803",141636109,"L"
143638,"2616 WILLOW WREN DRIVE","N LAS VEGAS","NV",89084,36.304796169,-115.177337034,138,"2616 WILLOW WREN DRIVE, N LAS VEGAS, NV, 89084","Match","Exact","2616 WILLOW WREN DR, N LAS VEGAS, NV, 89084",612686226,"R"
143639,"2616 WINTERS RUN RD","JOPPA","MD",21085,39.458555624,-76.323947603,139,"2616 WINTERS RUN RD, JOPPA, MD, 21085","Match","Exact","2616 WINTERS RUN RD, JOPPA, MD, 21085",191672525,"R"
143640,"26160 457TH AVE","HUMBOLDT","SD",57035,43.590479568,-97.069457009,140,"26160 457TH AVE, HUMBOLDT, SD, 57035","Match","Exact","26160 457TH AVE, HUMBOLDT, SD, 57035",651731757,"R"
143641,"26165 E 93RD ST S","BROKEN ARROW","OK",74014,36.027751719,-95.684281283,141,"26165 E 93RD ST S, BROKEN ARROW, OK, 74014","Match","Exact","26165 E 93RD ST S, BROKEN ARROW, OK, 74014",650182228,"L"
143642,"2617 236TH PL NE","SAMMAMISH","WA",98074,47.63379826,-122.02454176,142,"2617 236TH PL NE, SAMMAMISH, WA, 98074","Match","Exact","2617 236TH PL NE, SAMMAMISH, WA, 98074",186921054,"R"
143643,"2617 ALFORD AVE","LOUISVILLE","KY",40212,38.264953129,-85.793850157,143,"2617 ALFORD AVE, LOUISVILLE, KY, 40212","Match","Exact","2617 ALFORD AVE, LOUISVILLE, KY, 40212",96841424,"R"
143644,"2617 ARDWICK DR","HEPHZIBAH","GA",30815,33.363983051,-82.081372363,144,"2617 ARDWICK DR, HEPHZIBAH, GA, 30815","Match","Exact","2617 ARDWICK DR, HEPHZIBAH, GA, 30815",629834761,"R"
143645,"2617 BEAR SPRINGS TRL","AUSTIN","TX",78748,30.1461957170001,-97.8549445199999,145,"2617 BEAR SPRINGS TRL, AUSTIN, TX, 78748","Match","Exact","2617 BEAR SPRINGS TRL, AUSTIN, TX, 78748",635102808,"R"
143646,"2617 BETHUNE AVENUE","MIMS","FL",32754,28.6691624040001,-80.838301024,146,"2617 BETHUNE AVENUE, MIMS, FL, 32754","Match","Exact","2617 BETHUNE AVE, MIMS, FL, 32754",93890043,"R"
143647,"2617 BYRDS MILL RD","NEWTOWN","VA",23126,37.9419605430001,-77.1313938439999,147,"2617 BYRDS MILL RD, NEWTOWN, VA, 23126","Match","Exact","2617 BYRDS MILL RD, NEWTOWN, VA, 23126",649999917,"L"
143648,"2617 CHINOOK DRIVE","WALNUT CREEK","CA",94598,37.907168518,-122.017743128,148,"2617 CHINOOK DRIVE, WALNUT CREEK, CA, 94598","Match","Exact","2617 CHINOOK DR, WALNUT CREEK, CA, 94598",192057508,"R"
143649,"2617 COUNTRYWOOD PARKWAY","CORDOVA","TN",38016,35.198090232,-89.7829216969999,149,"2617 COUNTRYWOOD PARKWAY, CORDOVA, TN, 38016","Match","Exact","2617 COUNTRYWOOD PKWY, CORDOVA, TN, 38016",610507401,"L"
143650,"2617 CUMBERLAND TRAIL","BALCH SPRINGS","TX",75181,32.7322716890001,-96.600930687,150,"2617 CUMBERLAND TRAIL, BALCH SPRINGS, TX, 75181","Match","Exact","2617 CUMBERLAND TRL, BALCH SPRINGS, TX, 75181",636908600,"L"
143651,"2617 CUYLER AVE","BERWYN","IL",60402,41.842796397,-87.78208963,151,"2617 CUYLER AVE, BERWYN, IL, 60402","Match","Exact","2617 CUYLER AVE, BERWYN, IL, 60402",605105180,"L"
143652,"2617 DALTON AVENUE","LOS ANGELES","CA",90018,34.0323182770001,-118.304085334,152,"2617 DALTON AVENUE, LOS ANGELES, CA, 90018","Match","Exact","2617 DALTON AVE, LOS ANGELES, CA, 90018",141606090,"R"
143653,"2617 DARTMOOR RD","CLEVELAND HTS","OH",44118,41.4878682,-81.5632603729999,153,"2617 DARTMOOR RD, CLEVELAND HTS, OH, 44118","Match","Exact","2617 DARTMOOR RD, CLEVELAND HEIGHTS, OH, 44118",640776920,"L"
143654,"2617 DEARBORN  LANE","FRISCO","TX",75036,33.1408098090001,-96.8674153329999,154,"2617 DEARBORN  LANE, FRISCO, TX, 75036","Match","Exact","2617 DEARBORN LN, FRISCO, TX, 75036",614142561,"R"
143655,"2617 DODD ROAD","WILLOUGHBY HILLS","OH",44094,41.59781579,-81.398160235,155,"2617 DODD ROAD, WILLOUGHBY HILLS, OH, 44094","Match","Exact","2617 DODD RD, WILLOUGHBY HILLS, OH, 44094",137472808,"L"
143656,"2617 E  MACHESTER ST","TUCSON","AZ",85716,32.220247414,-110.933373276,156,"2617 E  MACHESTER ST, TUCSON, AZ, 85716","Match","Non_Exact","2617 E MANCHESTER ST, TUCSON, AZ, 85716",121174613,"L"
143657,"2617 E  WASHINGTON AVE","MADISON","WI",53704,NA,NA,157,"2617 E  WASHINGTON AVE, MADISON, WI, 53704","No_Match",NA,NA,NA,NA
143658,"2617 E 21ST PLACE","GARY","IN",46407,41.5784625800001,-87.3035737719999,158,"2617 E 21ST PLACE, GARY, IN, 46407","Match","Exact","2617 E 21ST PL, GARY, IN, 46407",606334494,"R"
143659,"2617 E 21ST ST","TULSA","OK",74114,36.1332665260001,-95.953141982,159,"2617 E 21ST ST, TULSA, OK, 74114","Match","Exact","2617 E 21ST ST, TULSA, OK, 74114",166443141,"L"
143660,"2617 E BUFFALO DR","COLUMBIA","MO",65202,39.0252942820001,-92.2980396839999,160,"2617 E BUFFALO DR, COLUMBIA, MO, 65202","Match","Non_Exact","2617 BUFFALO DR E, COLUMBIA, MO, 65202",604841191,"L"
143661,"2617 E WASHINGTON AVE","MADISON","WI",53704,NA,NA,161,"2617 E WASHINGTON AVE, MADISON, WI, 53704","No_Match",NA,NA,NA,NA
143662,"2617 FAYETTE ST","KENNER","LA",70062,30.00231223,-90.2677356459999,162,"2617 FAYETTE ST, KENNER, LA, 70062","Match","Exact","2617 FAYETTE ST, KENNER, LA, 70062",93533688,"L"
143663,"2617 FRANK ROAD","LAUREL","MT",59044,45.6539317420001,-108.819946176,163,"2617 FRANK ROAD, LAUREL, MT, 59044","Match","Exact","2617 FRANK RD, LAUREL, MT, 59044",632791174,"R"
143664,"2617 GOETTENS WAY","SAINT CLOUD","MN",56301,45.543341309,-94.188139528,164,"2617 GOETTENS WAY, SAINT CLOUD, MN, 56301","Match","Exact","2617 GOETTENS WAY, SAINT CLOUD, MN, 56301",635834971,"R"
143665,"2617 HUNTLY LN","FLOWER MOUND","TX",75022,33.0224950190001,-97.096298093,165,"2617 HUNTLY LN, FLOWER MOUND, TX, 75022","Match","Exact","2617 HUNTLY LN, FLOWER MOUND, TX, 75022",103402921,"R"
143666,"2617 KNOPP SCHOOL RD","FREDERICKSBURG","TX",78624,30.2963565050001,-98.7919047089999,166,"2617 KNOPP SCHOOL RD, FREDERICKSBURG, TX, 78624","Match","Exact","2617 KNOPP SCHOOL RD, FREDERICKSBURG, TX, 78624",625670439,"R"
143667,"2617 N GUADALUPE STREET","SEGUIN","TX",78155,29.6032406160001,-97.970101399,167,"2617 N GUADALUPE STREET, SEGUIN, TX, 78155","Match","Exact","2617 N GUADALUPE ST, SEGUIN, TX, 78155",637942182,"L"
143668,"2617 NATCHEZ AVE","CLEVELAND","OH",44109,41.433271215,-81.7010814929999,168,"2617 NATCHEZ AVE, CLEVELAND, OH, 44109","Match","Exact","2617 NATCHEZ AVE, CLEVELAND, OH, 44109",61116383,"L"
143669,"2617 PATIO CT","LOUISVILLE","KY",40214,38.16600821,-85.806824556,169,"2617 PATIO CT, LOUISVILLE, KY, 40214","Match","Exact","2617 PATIO CT, LOUISVILLE, KY, 40214",96848260,"R"
143670,"2617 S 21ST CT","RIDGEFIELD","WA",98642,45.7962962730001,-122.727268514,170,"2617 S 21ST CT, RIDGEFIELD, WA, 98642","Match","Exact","2617 S 21ST CT, RIDGEFIELD, WA, 98642",648928105,"R"
143671,"2617 S BEVERLY DR","LOS ANGELES","CA",90034,34.0394843760001,-118.395612323,171,"2617 S BEVERLY DR, LOS ANGELES, CA, 90034","Match","Exact","2617 S BEVERLY DR, LOS ANGELES, CA, 90034",141574598,"R"
143672,"2617 SHADY AVE APT 3","PITTSBURGH","PA",15217,40.4287671160001,-79.9216275209999,172,"2617 SHADY AVE APT 3, PITTSBURGH, PA, 15217","Match","Exact","2617 SHADY AVE, PITTSBURGH, PA, 15217",51652231,"L"
143673,"2617 SHENANDOAH AVE","DURHAM","NC",27704,36.0238807160001,-78.8942736549999,173,"2617 SHENANDOAH AVE, DURHAM, NC, 27704","Match","Exact","2617 SHENANDOAH AVE, DURHAM, NC, 27704",71741182,"L"
143674,"2617 SORIN ST","AUSTIN","TX",78723,30.292970978,-97.697341695,174,"2617 SORIN ST, AUSTIN, TX, 78723","Match","Exact","2617 SORIN ST, AUSTIN, TX, 78723",649000446,"R"
143675,"2617 STREAM BANK DRIVE","CHARLOTTE","NC",28269,35.290750163,-80.8463812969999,175,"2617 STREAM BANK DRIVE, CHARLOTTE, NC, 28269","Match","Exact","2617 STREAM BANK DR, CHARLOTTE, NC, 28269",618155663,"L"
143676,"2617 TRIANGLE LEAF DR","FORT WORTH","TX",76244,32.939517704,-97.30542538,176,"2617 TRIANGLE LEAF DR, FORT WORTH, TX, 76244","Match","Exact","2617 TRIANGLE LEAF DR, FORT WORTH, TX, 76244",638655541,"L"
143677,"2617 W 5TH STREET","SANTA ANA","CA",92703,33.7487167850001,-117.900845034,177,"2617 W 5TH STREET, SANTA ANA, CA, 92703","Match","Exact","2617 W 5TH ST, SANTA ANA, CA, 92703",640212762,"R"
143678,"2617 WEST GRAND BOULEVARD","DETROIT","MI",48208,42.3643437640001,-83.089378698,178,"2617 WEST GRAND BOULEVARD, DETROIT, MI, 48208","Match","Non_Exact","2617 E GRAND BLVD, DETROIT, MI, 48208",95475722,"L"
143679,"2617 WILKERSON DRIVE","MARRERO","LA",70072,29.856738192,-90.107025957,179,"2617 WILKERSON DRIVE, MARRERO, LA, 70072","Match","Exact","2617 WILKERSON DR, MARRERO, LA, 70072",93508957,"L"
143680,"2617 WILLOW GRASS COURT","COLORADO SPRINGS","CO",80920,38.9721959010001,-104.779057627,180,"2617 WILLOW GRASS COURT, COLORADO SPRINGS, CO, 80920","Match","Exact","2617 WILLOW GRASS CT, CO SPGS, CO, 80920",611885820,"R"
143681,"26175 AUGUSTA WAY 103","TWIN PEAKS","CA",92391,NA,NA,181,"26175 AUGUSTA WAY 103, TWIN PEAKS, CA, 92391","No_Match",NA,NA,NA,NA
143682,"26175 AUGUSTA WAY","LAKE ARROWHEAD","CA",92352,NA,NA,182,"26175 AUGUSTA WAY, LAKE ARROWHEAD, CA, 92352","No_Match",NA,NA,NA,NA
143683,"26175 TICONDEROGA ROAD","SOUTH RIDING","VA",20152,38.8936364190001,-77.527929693,183,"26175 TICONDEROGA ROAD, SOUTH RIDING, VA, 20152","Match","Exact","26175 TICONDEROGA RD, SOUTH RIDING, VA, 20152",653495431,"R"
143684,"26177 W GRASS LAKE ROAD","ANTIOCH","IL",60002,NA,NA,184,"26177 W GRASS LAKE ROAD, ANTIOCH, IL, 60002","Tie",NA,NA,NA,NA
143685,"2617C WEST HOLCOMBE BLVD UNIT 172","HOUSTON","TX",77030,29.706158848,-95.418663601,185,"2617C WEST HOLCOMBE BLVD UNIT 172, HOUSTON, TX, 77030","Match","Non_Exact","2617 W HOLCOMBE BLVD, HOUSTON, TX, 77025",96609786,"L"
143686,"2618 184TH STREET COURT EAST","TACOMA","WA",98445,47.0889041940001,-122.394289549,186,"2618 184TH STREET COURT EAST, TACOMA, WA, 98445","Match","Exact","2618 184TH STREET CT E, TACOMA, WA, 98445",184752649,"R"
143687,"2618 AVE N","GALVESTON","TX",77550,29.294640771,-94.7942642579999,187,"2618 AVE N, GALVESTON, TX, 77550","Match","Exact","2618 AVENUE N, GALVESTON, TX, 77550",96680200,"R"
143688,"2618 BIENVILLE ST","NEW ORLEANS","LA",70119,29.9665262670001,-90.0847717459999,188,"2618 BIENVILLE ST, NEW ORLEANS, LA, 70119","Match","Exact","2618 BIENVILLE ST, NEW ORLEANS, LA, 70119",191709461,"L"
143689,"2618 BUCKSKIN DRIVE","MCKINNEY","LA",75071,NA,NA,189,"2618 BUCKSKIN DRIVE, MCKINNEY, LA, 75071","No_Match",NA,NA,NA,NA
143690,"2618 CLAYTON BLVD","CHAMPAIGN","IL",61822,40.122727959,-88.2889549769999,190,"2618 CLAYTON BLVD, CHAMPAIGN, IL, 61822","Match","Exact","2618 CLAYTON BLVD, CHAMPAIGN, IL, 61822",8815817,"L"
143691,"2618 COVE CAY DR STE 207","CLEARWATER","FL",33760,27.9323419090001,-82.729795387,191,"2618 COVE CAY DR STE 207, CLEARWATER, FL, 33760","Match","Exact","2618 COVE CAY DR, CLEARWATER, FL, 33760",650556153,"L"
143692,"2618 FOXFIRE DR","SALISBURY","NC",28147,35.65181513,-80.512575612,192,"2618 FOXFIRE DR, SALISBURY, NC, 28147","Match","Non_Exact","2618 FOX FIRE DR, SALISBURY, NC, 28147",25282307,"L"
143693,"2618 FULLER AVE","MINDEN","NV",89423,39.0283938050001,-119.72396158,193,"2618 FULLER AVE, MINDEN, NV, 89423","Match","Exact","2618 FULLER AVE, MINDEN, NV, 89423",173743041,"L"
143694,"2618 GLADSTONE TER","WOODSTOCK","GA",30189,34.1282291730001,-84.5545291399999,194,"2618 GLADSTONE TER, WOODSTOCK, GA, 30189","Match","Exact","2618 GLADSTONE TER, WOODSTOCK, GA, 30189",68842692,"R"
143695,"2618 GOVERNORS POINT","INDIANAPOLIS","IN",46217,39.6667332390001,-86.204246247,195,"2618 GOVERNORS POINT, INDIANAPOLIS, IN, 46217","Match","Non_Exact","2618 GOVERNORS POINT AVE, INDIANAPOLIS, IN, 46217",108046261,"R"
143696,"2618 HACKS CROSS ROAD","GERMANTOWN","TN",38138,35.0778254700001,-89.793240183,196,"2618 HACKS CROSS ROAD, GERMANTOWN, TN, 38138","Match","Exact","2618 HACKS CROSS RD, GERMANTOWN, TN, 38138",607451282,"L"
143697,"2618 J STREET SUITE 1","SACRAMENTO","CA",95616,38.574468924,-121.471568678,197,"2618 J STREET SUITE 1, SACRAMENTO, CA, 95616","Match","Non_Exact","2618 J ST, SACRAMENTO, CA, 95816",133324909,"R"
143698,"2618 KNADLER STREET","LARAMIE","WY",82072,41.3258712100001,-105.562492094,198,"2618 KNADLER STREET, LARAMIE, WY, 82072","Match","Exact","2618 KNADLER ST, LARAMIE, WY, 82072",646498641,"R"
143699,"2618 LADY ANNES WAY","HUNTINGTOWN","MD",20639,38.59445601,-76.5736678219999,199,"2618 LADY ANNES WAY, HUNTINGTOWN, MD, 20639","Match","Exact","2618 LADY ANNES WAY, HUNTINGTOWN, MD, 20639",78172321,"R"
143700,"2618 LONGFELLOW DRIVE","WILMINGTON","DE",19808,39.720161325,-75.6769921539999,200,"2618 LONGFELLOW DRIVE, WILMINGTON, DE, 19808","Match","Exact","2618 LONGFELLOW DR, WILMINGTON, DE, 19808",187264328,"L"
143701,"2618 MARTINVILLE DR","HOUSTON","TX",77017,29.6724862740001,-95.2329189659999,201,"2618 MARTINVILLE DR, HOUSTON, TX, 77017","Match","Exact","2618 MARTINVILLE DR, HOUSTON, TX, 77017",96600215,"R"
143702,"2618 MCMICKEN CIRCLE 100 U P","CINCINNATI","OH",45221,NA,NA,202,"2618 MCMICKEN CIRCLE 100 U P, CINCINNATI, OH, 45221","No_Match",NA,NA,NA,NA
143703,"2618 NORTH MAIN STREET","RACINE","WI",53402,42.7522444410001,-87.7841717589999,203,"2618 NORTH MAIN STREET, RACINE, WI, 53402","Match","Exact","2618 N MAIN ST, RACINE, WI, 53402",77906363,"L"
143704,"2618 OLD SOUTH DR","RICHMOND","TX",77406,29.632837663,-95.734937001,204,"2618 OLD SOUTH DR, RICHMOND, TX, 77406","Match","Exact","2618 OLD SOUTH DR, RICHMOND, TX, 77406",649372066,"R"
143705,"2618 RAYBURN RIDGE DRIVE","KATY","TX",77450,29.7453828980001,-95.737621969,205,"2618 RAYBURN RIDGE DRIVE, KATY, TX, 77450","Match","Exact","2618 RAYBURN RIDGE DR, KATY, TX, 77450",96298575,"R"
143706,"2618 ROUTE 302","MIDDLETOWN","NY",10941,41.492385202,-74.405519645,206,"2618 ROUTE 302, MIDDLETOWN, NY, 10941","Match","Non_Exact","2618 STATE RTE 302, MIDDLETOWN, NY, 10941",124389562,"L"
143707,"2618 S  200 W      APT 1","BOUNTIFUL","UT",84010,40.8612174620001,-111.885791727,207,"2618 S  200 W      APT 1, BOUNTIFUL, UT, 84010","Match","Non_Exact","2618 S 200 W, BOUNTIFUL, UT, 84010",155311987,"R"
143708,"2618 S RHYOLITE RD","SPOKANE","WA",99203,47.6307353400001,-117.396697277,208,"2618 S RHYOLITE RD, SPOKANE, WA, 99203","Match","Exact","2618 S RHYOLITE RD, SPOKANE, WA, 99203",189881328,"R"
143709,"2618 SAN MIGUEL DR NUM 240","NEWPORT BEACH","CA",92660,33.625782213,-117.850116784,209,"2618 SAN MIGUEL DR NUM 240, NEWPORT BEACH, CA, 92660","Match","Exact","2618 SAN MIGUEL DR, NEWPORT BEACH, CA, 92660",144059240,"R"
143710,"2618 SAN MIGUEL DR SUITE 496","NEWPORT BEACH","CA",92660,33.625782213,-117.850116784,210,"2618 SAN MIGUEL DR SUITE 496, NEWPORT BEACH, CA, 92660","Match","Exact","2618 SAN MIGUEL DR, NEWPORT BEACH, CA, 92660",144059240,"R"
143711,"2618 SAN MIGUEL DRIVE - 272","NEWPORT BEACH","CA",92660,33.625782213,-117.850116784,211,"2618 SAN MIGUEL DRIVE - 272, NEWPORT BEACH, CA, 92660","Match","Exact","2618 SAN MIGUEL DR, NEWPORT BEACH, CA, 92660",144059240,"R"
143712,"2618 SAN MIGUEL DRIVE -284","NEWPORT BEACH","CA",92660,33.625782213,-117.850116784,212,"2618 SAN MIGUEL DRIVE -284, NEWPORT BEACH, CA, 92660","Match","Exact","2618 SAN MIGUEL DR, NEWPORT BEACH, CA, 92660",144059240,"R"
143713,"2618 SAN MIGUEL DRIVE SUITE 269","NEWPORT BEACH","CA",92660,33.625782213,-117.850116784,213,"2618 SAN MIGUEL DRIVE SUITE 269, NEWPORT BEACH, CA, 92660","Match","Exact","2618 SAN MIGUEL DR, NEWPORT BEACH, CA, 92660",144059240,"R"
143714,"2618 SAN MIGUEL DRIVE SUITE 507","NEWPORT BEACH","CA",92660,33.625782213,-117.850116784,214,"2618 SAN MIGUEL DRIVE SUITE 507, NEWPORT BEACH, CA, 92660","Match","Exact","2618 SAN MIGUEL DR, NEWPORT BEACH, CA, 92660",144059240,"R"
143715,"2618 SAN MIGUEL DRIVE","NEWPORT BEACH","CA",92660,33.625782213,-117.850116784,215,"2618 SAN MIGUEL DRIVE, NEWPORT BEACH, CA, 92660","Match","Exact","2618 SAN MIGUEL DR, NEWPORT BEACH, CA, 92660",144059240,"R"
143716,"2618 SAN MIGUEL SUITE 1113","NEWPORT BEACH","CA",92660,33.625782213,-117.850116784,216,"2618 SAN MIGUEL SUITE 1113, NEWPORT BEACH, CA, 92660","Match","Non_Exact","2618 SAN MIGUEL DR, NEWPORT BEACH, CA, 92660",144059240,"R"
143717,"2618 SANDERLING WAY","PLEASANTON","CA",94566,37.682575709,-121.883614866,217,"2618 SANDERLING WAY, PLEASANTON, CA, 94566","Match","Exact","2618 SANDERLING WAY, PLEASANTON, CA, 94566",125032052,"L"
143718,"2618 SW 81ST TERRACE","MIRAMAR","FL",33023,25.986147487,-80.2494089529999,218,"2618 SW 81ST TERRACE, MIRAMAR, FL, 33023","Match","Non_Exact","2618 SW 81ST TER, MIRAMAR, FL, 33025",617658154,"R"
143719,"2618 VALENCIA DRIVE","SARASOTA","FL",34239,27.304541928,-82.518140497,219,"2618 VALENCIA DRIVE, SARASOTA, FL, 34239","Match","Exact","2618 VALENCIA DR, SARASOTA, FL, 34239",16352205,"R"
143720,"2618 W GLENLAKE AVE","CHICAGO","IL",60659,41.992227987,-87.6954332669999,220,"2618 W GLENLAKE AVE, CHICAGO, IL, 60659","Match","Exact","2618 W GLENLAKE AVE, CHICAGO, IL, 60659",605169548,"R"
143721,"2618 WEST MEYER DRIVE","MORROW","GA",30260,33.5796996810001,-84.304373954,221,"2618 WEST MEYER DRIVE, MORROW, GA, 30260","Match","Exact","2618 W MEYER DR, MORROW, GA, 30260",623938689,"R"
143722,"2618 WORKMAN STREET","LOS ANGELES","CA",90031,34.07693965,-118.214415283,222,"2618 WORKMAN STREET, LOS ANGELES, CA, 90031","Match","Exact","2618 WORKMAN ST, LOS ANGELES, CA, 90031",141621948,"R"
143723,"2618 WYNTERCREST LANE","DURHAM","NC",27713,35.943717846,-78.889922139,223,"2618 WYNTERCREST LANE, DURHAM, NC, 27713","Match","Exact","2618 WYNTERCREST LN, DURHAM, NC, 27713",618109109,"R"
143724,"2618-A BATTLEGROUND AVENUE 186","GREENSBORO","NC",27408,36.1078122060001,-79.8278396329999,224,"2618-A BATTLEGROUND AVENUE 186, GREENSBORO, NC, 27408","Match","Exact","2618 BATTLEGROUND AVE, GREENSBORO, NC, 27408",131107356,"R"
143725,"2618-A BATTLEGROUND AVENUE STE 208","GREENSBORO","NC",27408,36.1078122060001,-79.8278396329999,225,"2618-A BATTLEGROUND AVENUE STE 208, GREENSBORO, NC, 27408","Match","Exact","2618 BATTLEGROUND AVE, GREENSBORO, NC, 27408",131107356,"R"
143726,"26182 CIRCLE DR NW","POULSBO","WA",98370,47.800286242,-122.669387008,226,"26182 CIRCLE DR NW, POULSBO, WA, 98370","Match","Exact","26182 CIRCLE DR NW, POULSBO, WA, 98370",187632904,"R"
143727,"26183 HUMMINGBIRD DR","SOUTH BEND","IN",46619,41.6859370430001,-86.37484334,227,"26183 HUMMINGBIRD DR, SOUTH BEND, IN, 46619","Match","Exact","26183 HUMMINGBIRD DR, SOUTH BEND, IN, 46619",8071877,"R"
143728,"26183 HUMMINGBIRD RD","SOUTH BEND","IN",46619,41.6859370430001,-86.37484334,228,"26183 HUMMINGBIRD RD, SOUTH BEND, IN, 46619","Match","Non_Exact","26183 HUMMINGBIRD DR, SOUTH BEND, IN, 46619",8071877,"R"
143729,"2619 BELLVIEW STREET","LAMARQUE","TX",77568,29.375509988,-94.9830299929999,229,"2619 BELLVIEW STREET, LAMARQUE, TX, 77568","Match","Non_Exact","2619 BELLVIEW ST, LA MARQUE, TX, 77568",96687853,"L"
143730,"2619 BRET AVE","SALINA","KS",67401,38.7924622580001,-97.599936945,230,"2619 BRET AVE, SALINA, KS, 67401","Match","Exact","2619 BRET AVE, SALINA, KS, 67401",639157979,"R"
143731,"2619 CHRISTIE STREET","CHARLOTTE","NC",28208,35.2074316260001,-80.903010649,231,"2619 CHRISTIE STREET, CHARLOTTE, NC, 28208","Match","Exact","2619 CHRISTIE ST, CHARLOTTE, NC, 28208",70484005,"L"
143732,"2619 COLTON DRIVE","CHARLOTTE","NC",28211,35.178803552,-80.817664603,232,"2619 COLTON DRIVE, CHARLOTTE, NC, 28211","Match","Exact","2619 COLTON DR, CHARLOTTE, NC, 28211",648376920,"L"
143733,"2619 CORRECTIONVILLE ROAD","SIOUX CITY","IA",51106,42.4902207370001,-96.3751932929999,233,"2619 CORRECTIONVILLE ROAD, SIOUX CITY, IA, 51106","Match","Exact","2619 CORRECTIONVILLE RD, SIOUX CITY, IA, 51106",93443968,"L"
143734,"2619 COUNTY ROAD 202","LLANO","TX",78643,30.8084393390001,-98.566705134,234,"2619 COUNTY ROAD 202, LLANO, TX, 78643","Match","Exact","2619 CO RD 202, LLANO, TX, 78643",652153423,"L"
143735,"2619 DANFORTH LN","DECATUR","GA",30033,33.8260822,-84.281146185,235,"2619 DANFORTH LN, DECATUR, GA, 30033","Match","Exact","2619 DANFORTH LN, DECATUR, GA, 30033",23384429,"R"
143736,"2619 E 76TH STREET","CHICAGO","IL",60649,NA,NA,236,"2619 E 76TH STREET, CHICAGO, IL, 60649","No_Match",NA,NA,NA,NA
143737,"2619 E 76TH STREET","CHICAGO","IL",69649,NA,NA,237,"2619 E 76TH STREET, CHICAGO, IL, 69649","No_Match",NA,NA,NA,NA
143738,"2619 E WALNUT RD","GILBERT","AZ",85298,33.2610628360001,-111.733082061,238,"2619 E WALNUT RD, GILBERT, AZ, 85298","Match","Exact","2619 E WALNUT RD, GILBERT, AZ, 85298",636754719,"R"
143739,"2619 GALLIA STREET","PORTSMOUTH","OH",45638,38.7397261770001,-82.966546389,239,"2619 GALLIA STREET, PORTSMOUTH, OH, 45638","Match","Non_Exact","2619 GALLIA ST, PORTSMOUTH, OH, 45662",650845267,"L"
143740,"2619 GAYLORD AVE","BETHEL","OH",45106,38.953637981,-84.0769345849999,240,"2619 GAYLORD AVE, BETHEL, OH, 45106","Match","Exact","2619 GAYLORD AVE, BETHEL, OH, 45106",118451076,"L"
143741,"2619 HIGHVIEW DRIVE","NASHVILLE","TN",37206,36.19260717,-86.7056041229999,241,"2619 HIGHVIEW DRIVE, NASHVILLE, TN, 37206","Match","Exact","2619 HIGHVIEW DR, NASHVILLE, TN, 37206",97195096,"L"
143742,"2619 HWY 21 WEST","BRYAN","TX",77803,30.670914376,-96.401858249,242,"2619 HWY 21 WEST, BRYAN, TX, 77803","Match","Exact","2619 HWY 21 W, BRYAN, TX, 77803",21838493,"L"
143743,"2619 MCKINNEY AVENUE APT 1408","DALLAS","TX",75204,32.7971120760001,-96.8015295179999,243,"2619 MCKINNEY AVENUE APT 1408, DALLAS, TX, 75204","Match","Exact","2619 MCKINNEY AVE, DALLAS, TX, 75204",102909139,"L"
143744,"2619 MOUNTAIN LAUREL PL","RESTON","VA",20191,38.92208788,-77.359572606,244,"2619 MOUNTAIN LAUREL PL, RESTON, VA, 20191","Match","Exact","2619 MOUNTAIN LAUREL PL, RESTON, VA, 20191",75958978,"L"
143745,"2619 N BIGELOW ST","PEORIA","IL",61604,40.71914953,-89.5969622809999,245,"2619 N BIGELOW ST, PEORIA, IL, 61604","Match","Exact","2619 N BIGELOW ST, PEORIA, IL, 61604",635486898,"L"
143746,"2619 NEMO COURT","BOWIE","MD",20716,38.9273418400001,-76.7341605029999,246,"2619 NEMO COURT, BOWIE, MD, 20716","Match","Exact","2619 NEMO CT, BOWIE, MD, 20716",76399664,"L"
143747,"2619 POINCIANA PLACE","DALLAS","TX",75212,32.7922435780001,-96.863919352,247,"2619 POINCIANA PLACE, DALLAS, TX, 75212","Match","Exact","2619 POINCIANA PL, DALLAS, TX, 75212",647930081,"R"
143748,"2619 RIDGEWOOD CT","NEW CASTLE","PA",16101,40.9655496300001,-80.3237771779999,248,"2619 RIDGEWOOD CT, NEW CASTLE, PA, 16101","Match","Exact","2619 RIDGEWOOD CT, NEW CASTLE, PA, 16101",65187406,"L"
143749,"2619 S AUGUSTINE","MESA","AZ",85209,33.3679517480001,-111.677252234,249,"2619 S AUGUSTINE, MESA, AZ, 85209","Match","Exact","2619 S AUGUSTINE, MESA, AZ, 85209",128819440,"L"
143750,"2619 S LASSEN AVE","ONTARIO","CA",91761,34.026008803,-117.620685833,250,"2619 S LASSEN AVE, ONTARIO, CA, 91761","Match","Exact","2619 S LASSEN AVE, ONTARIO, CA, 91761",144636923,"L"
143751,"2619 SANTA BARBARA DRIVE","ATLANTA","GA",30311,NA,NA,251,"2619 SANTA BARBARA DRIVE, ATLANTA, GA, 30311","No_Match",NA,NA,NA,NA
143752,"2619 SILVER AVE SE","ALBUQUERQUE","NM",87106,35.079114835,-106.616738875,252,"2619 SILVER AVE SE, ALBUQUERQUE, NM, 87106","Match","Exact","2619 SILVER AVE SE, ALBUQUERQUE, NM, 87106",206710049,"L"
143753,"2619 TOWNHOUSE DR NE","CEDAR RAPIDS","IA",52402,NA,NA,253,"2619 TOWNHOUSE DR NE, CEDAR RAPIDS, IA, 52402","No_Match",NA,NA,NA,NA
143754,"2619 W BROADWAY","LOUISVILLE","KY",40211,38.249480283,-85.7952795639999,254,"2619 W BROADWAY, LOUISVILLE, KY, 40211","Match","Exact","2619 W BROADWAY, LOUISVILLE, KY, 40211",96841670,"R"
143755,"2619 W MEADOW RD","BAILEYS HARBOR","WI",54202,45.1201001250001,-87.1416290029999,255,"2619 W MEADOW RD, BAILEYS HARBOR, WI, 54202","Match","Exact","2619 W MEADOW RD, BAILEYS HARBOR, WI, 54202",167255202,"R"
143756,"2619 W VALLEY BLVD","ALHAMBRA","CA",91803,34.076891808,-118.152157657,256,"2619 W VALLEY BLVD, ALHAMBRA, CA, 91803","Match","Exact","2619 W VALLEY BLVD, ALHAMBRA, CA, 91803",141635609,"R"
143757,"2619 WILSHIRE BLVD APT 909","LOS ANGELES","CA",90057,34.0606097830001,-118.281620993,257,"2619 WILSHIRE BLVD APT 909, LOS ANGELES, CA, 90057","Match","Exact","2619 WILSHIRE BLVD, LOS ANGELES, CA, 90057",141605232,"R"
143758,"2619","LAWRENCEVILLE","GA",30044,NA,NA,258,"2619, LAWRENCEVILLE, GA, 30044","No_Match",NA,NA,NA,NA
143759,"26190 HIGHVIEW AVENUE","FARMINGTON","MN",55024,44.5697210390001,-93.238130638,259,"26190 HIGHVIEW AVENUE, FARMINGTON, MN, 55024","Match","Exact","26190 HIGHVIEW AVE, FARMINGTON, MN, 55024",647223330,"R"
143760,"26190 JONAH WAY","MURRIETA","CA",92563,33.5530142160001,-117.173737645,260,"26190 JONAH WAY, MURRIETA, CA, 92563","Match","Exact","26190 JONAH WAY, MURRIETA, CA, 92563",636593560,"R"
143761,"26190 SW 45TH DRIVE","WILSONVILLE","OR",97070,45.3308560350001,-122.722752663,261,"26190 SW 45TH DRIVE, WILSONVILLE, OR, 97070","Match","Exact","26190 SW 45TH DR, WILSONVILLE, OR, 97070",157911166,"L"
143762,"26194 KILTARTAN","FARMINGTON HILLS","MI",48334,42.487594911,-83.339788664,262,"26194 KILTARTAN, FARMINGTON HILLS, MI, 48334","Match","Non_Exact","26194 KILTARTON ST, FARMINGTON HILLS, MI, 48334",69784532,"R"
143763,"26196 CROWN VALLEY PKWY STE 821","MISSION VIEJO","CA",92692,NA,NA,263,"26196 CROWN VALLEY PKWY STE 821, MISSION VIEJO, CA, 92692","No_Match",NA,NA,NA,NA
143764,"26196 E PINE ST","CALUMET","MI",49913,NA,NA,264,"26196 E PINE ST, CALUMET, MI, 49913","No_Match",NA,NA,NA,NA
143765,"26198 N 85TH LN","PEORIA","AZ",85383,33.7211208350001,-112.243462523,265,"26198 N 85TH LN, PEORIA, AZ, 85383","Match","Exact","26198 85TH LN, PEORIA, AZ, 85383",128882461,"R"
143766,"262 11TH AVENUE FLOOR 2","NEWARK","NJ",7103,40.7489502010001,-74.204807014,266,"262 11TH AVENUE FLOOR 2, NEWARK, NJ, 7103","Match","Exact","262 11TH AVE, NEWARK, NJ, 07103",63496004,"L"
143767,"262 12TH ST","ARCATA","CA",95521,40.870187528,-124.080318097,267,"262 12TH ST, ARCATA, CA, 95521","Match","Exact","262 12TH ST, ARCATA, CA, 95521",113044421,"R"
143768,"262 3RD AVE","AVONDALE ESTATES","GA",30002,33.7822660470001,-84.260577734,268,"262 3RD AVE, AVONDALE ESTATES, GA, 30002","Match","Exact","262 3RD AVE, AVONDALE EST, GA, 30002",23369550,"L"
143769,"262 ADAMS STREET UNIT 2","ABINGTON","MA",2351,42.128965506,-70.944419723,269,"262 ADAMS STREET UNIT 2, ABINGTON, MA, 2351","Match","Exact","262 ADAMS ST, ABINGTON, MA, 02351",87431139,"L"
143770,"262 AMBERWOOD DR","WALNUT","CA",91789,34.018407805,-117.853874754,270,"262 AMBERWOOD DR, WALNUT, CA, 91789","Match","Exact","262 AMBERWOOD DR, WALNUT, CA, 91789",141728603,"R"
143771,"262 BAY PINE ROAD LOT 6","BEAUFORT","SC",29906,NA,NA,271,"262 BAY PINE ROAD LOT 6, BEAUFORT, SC, 29906","No_Match",NA,NA,NA,NA
143772,"262 BEACH AIRPORT RD","CONROE","TX",77301,NA,NA,272,"262 BEACH AIRPORT RD, CONROE, TX, 77301","No_Match",NA,NA,NA,NA
143773,"262 BOCANA STREET","SAN FRANCISCO","CA",94110,37.7397937640001,-122.418271416,273,"262 BOCANA STREET, SAN FRANCISCO, CA, 94110","Match","Exact","262 BOCANA ST, SAN FRANCISCO, CA, 94110",192288583,"R"
143774,"262 BROWNS ROAD","NESCONSET","NY",11767,40.8524995990001,-73.13883342,274,"262 BROWNS ROAD, NESCONSET, NY, 11767","Match","Exact","262 BROWNS RD, NESCONSET, NY, 11767",113990922,"R"
143775,"262 CELESTIAL HEIGHTS RD","PEMBROKE","VA",24136,37.3469386560001,-80.552887756,275,"262 CELESTIAL HEIGHTS RD, PEMBROKE, VA, 24136","Match","Exact","262 CELESTIAL HEIGHTS RD, PEMBROKE, VA, 24136",637511241,"L"
143776,"262 CHAD B BAKER DR","RESERVE","LA",70084,30.057919229,-90.533769066,276,"262 CHAD B BAKER DR, RESERVE, LA, 70084","Match","Non_Exact","262 CHAD B BAKER ST, RESERVE, LA, 70084",93702254,"R"
143777,"262 CORNELIUS DR","ROCK HILL","SC",29730,34.908014452,-81.051043593,277,"262 CORNELIUS DR, ROCK HILL, SC, 29730","Match","Non_Exact","262 CORNELIUS ST, ROCK HILL, SC, 29730",19792449,"R"
143778,"262 COTTAGE ST STE 107","LITTLETON","NH",3561,NA,NA,278,"262 COTTAGE ST STE 107, LITTLETON, NH, 3561","No_Match",NA,NA,NA,NA
143779,"262 COUNTY ROAD 701","TEAGUE","TX",75860,31.586792029,-96.200144595,279,"262 COUNTY ROAD 701, TEAGUE, TX, 75860","Match","Exact","262 CO RD 701, TEAGUE, TX, 75860",88985251,"R"
143780,"262 CR 4229","ATLANTA","TX",75551,33.035368421,-94.1912421279999,280,"262 CR 4229, ATLANTA, TX, 75551","Match","Exact","262 CO RD 4229, ATLANTA, TX, 75551",57071070,"R"
143781,"262 CROSBY","AMHERST","NY",14226,42.964595912,-78.806880725,281,"262 CROSBY, AMHERST, NY, 14226","Match","Non_Exact","262 CROSBY BLVD, AMHERST, NY, 14226",48295750,"L"
143782,"262 CYPRESS LAKES DRIVE","SLIDELL","LA",70458,30.242243397,-89.781909368,282,"262 CYPRESS LAKES DRIVE, SLIDELL, LA, 70458","Match","Exact","262 CYPRESS LAKES DR, SLIDELL, LA, 70458",617906531,"R"
143783,"262 DANIEL AVE","ATLANTA","GA",30317,33.745924071,-84.2992243739999,283,"262 DANIEL AVE, ATLANTA, GA, 30317","Match","Non_Exact","262 DANIEL AVE SE, ATLANTA, GA, 30317",23367520,"L"
143784,"262 DONNELL BLVD","DALEVILLE","AL",36322,NA,NA,284,"262 DONNELL BLVD, DALEVILLE, AL, 36322","No_Match",NA,NA,NA,NA
143785,"262 E MAIN ST","FORDLAND","MO",65652,37.157657032,-92.93906185,285,"262 E MAIN ST, FORDLAND, MO, 65652","Match","Exact","262 E MAIN ST, FORDLAND, MO, 65652",26624445,"R"
143786,"262 ELWELL SW","GRAND RAPIDS","MI",49548,42.8781874690001,-85.671130778,286,"262 ELWELL SW, GRAND RAPIDS, MI, 49548","Match","Non_Exact","262 ELWELL ST SW, GRAND RAPIDS, MI, 49548",12502408,"L"
143787,"262 ELWELL SW","WYOMING","MI",49548,42.8781874690001,-85.671130778,287,"262 ELWELL SW, WYOMING, MI, 49548","Match","Non_Exact","262 ELWELL ST SW, WYOMING, MI, 49548",12502408,"L"
143788,"262 FAIRFIELD DRIVE EAST","HOLBROOK","NY",11741,40.8074158920001,-73.060116122,288,"262 FAIRFIELD DRIVE EAST, HOLBROOK, NY, 11741","Match","Exact","262 FAIRFIELD DR E, HOLBROOK, NY, 11741",642834031,"R"
143789,"262 FINCH LANE","MARSHALLVILLE","GA",31057,32.4719369790001,-83.8727743599999,289,"262 FINCH LANE, MARSHALLVILLE, GA, 31057","Match","Exact","262 FINCH LN, MARSHALLVILLE, GA, 31057",30527170,"L"
143790,"262 FOUR MILE AVE","RICHMOND","KY",40475,37.7484964700001,-84.287947103,290,"262 FOUR MILE AVE, RICHMOND, KY, 40475","Match","Exact","262 FOUR MILE AVE, RICHMOND, KY, 40475",31985936,"R"
143791,"262 FRANK STREET","BETHLEHEM","PA",18020,40.695621508,-75.3148892359999,291,"262 FRANK STREET, BETHLEHEM, PA, 18020","Match","Exact","262 FRANK ST, BETHLEHEM, PA, 18020",136895237,"R"
143792,"262 GLENWOOD AVE","ROCHESTER","NY",14613,43.176939632,-77.636629762,292,"262 GLENWOOD AVE, ROCHESTER, NY, 14613","Match","Exact","262 GLENWOOD AVE, ROCHESTER, NY, 14613",14532109,"R"
143793,"262 H ROCKWELL RD","GRANVILLE SUMMIT","PA",16926,41.6925180540001,-76.6592422579999,293,"262 H ROCKWELL RD, GRANVILLE SUMMIT, PA, 16926","Match","Exact","262 H ROCKWELL RD, GRANVILLE SUMMIT, PA, 16926",648596792,"R"
143794,"262 HAMPSHIRE COURT","PISCATAWAY","NJ",8854,40.530801207,-74.459225465,294,"262 HAMPSHIRE COURT, PISCATAWAY, NJ, 8854","Match","Exact","262 HAMPSHIRE CT, PISCATAWAY, NJ, 08854",60290259,"R"
143795,"262 HAWTHORNE ST APT 6","MONTEREY","CA",93940,36.6097967320001,-121.899806691,295,"262 HAWTHORNE ST APT 6, MONTEREY, CA, 93940","Match","Exact","262 HAWTHORNE ST, MONTEREY, CA, 93940",196814539,"R"
143796,"262 HAWTHORNE STREET APARTMENT 6","MONTEREY","CA",93940,36.6097967320001,-121.899806691,296,"262 HAWTHORNE STREET APARTMENT 6, MONTEREY, CA, 93940","Match","Exact","262 HAWTHORNE ST, MONTEREY, CA, 93940",196814539,"R"
143797,"262 HEWES ST","BROOKLYN","NY",11211,40.7054721370001,-73.954771479,297,"262 HEWES ST, BROOKLYN, NY, 11211","Match","Exact","262 HEWES ST, BROOKLYN, NY, 11211",59076778,"R"
143798,"262 JAMES DR","MILLBROOK","AL",36054,32.5013805090001,-86.374456219,298,"262 JAMES DR, MILLBROOK, AL, 36054","Match","Exact","262 JAMES DR, MILLBROOK, AL, 36054",1382022,"R"
143799,"262 LANTANA DRIVE","LOCUST GROVE","GA",30248,33.338182073,-84.1780960249999,299,"262 LANTANA DRIVE, LOCUST GROVE, GA, 30248","Match","Exact","262 LANTANA DR, LOCUST GROVE, GA, 30248",619925019,"L"
143800,"262 MIDDLESEX ST STE UA-126","LOWELL","MA",1852,42.640532035,-71.3130186129999,300,"262 MIDDLESEX ST STE UA-126, LOWELL, MA, 1852","Match","Exact","262 MIDDLESEX ST, LOWELL, MA, 01852",86878381,"L"
143801,"262 MILLER RD","WASHOUGAL","WA",98671,45.590114312,-122.16554659,301,"262 MILLER RD, WASHOUGAL, WA, 98671","Match","Exact","262 MILLER RD, WASHOUGAL, WA, 98671",630396174,"R"
143802,"262 MORNINGSIDE AVENUE","CLIFFSIDE PARK","NJ",7010,40.818290866,-73.992253781,302,"262 MORNINGSIDE AVENUE, CLIFFSIDE PARK, NJ, 7010","Match","Exact","262 MORNINGSIDE AVE, CLIFFSIDE PARK, NJ, 07010",64391579,"L"
143803,"262 N KEDZIE","CHICAGO","IL",60612,41.8861503430001,-87.7062777629999,303,"262 N KEDZIE, CHICAGO, IL, 60612","Match","Non_Exact","262 N KEDZIE AVE, CHICAGO, IL, 60612",605043767,"L"
143804,"262 NE 54TH STREET APT 3","MIAMI","FM",33137,NA,NA,304,"262 NE 54TH STREET APT 3, MIAMI, FM, 33137","No_Match",NA,NA,NA,NA
143805,"262 NORTH PARK DRIVE","LEVITTOWN","PA",19054,40.1700805670001,-74.8194911159999,305,"262 NORTH PARK DRIVE, LEVITTOWN, PA, 19054","Match","Non_Exact","262 NORTHPARK DR, LEVITTOWN, PA, 19054",134722834,"R"
143806,"262 OLD MILL CIRCLE","KISSIMMEE","FL",34746,28.2905614380001,-81.454581209,306,"262 OLD MILL CIRCLE, KISSIMMEE, FL, 34746","Match","Exact","262 OLD MILL CIR, KISSIMMEE, FL, 34746",176691353,"R"
143807,"262 PARIS LN","THOMASVILLE","AL",36784,31.8232209620001,-87.7721735439999,307,"262 PARIS LN, THOMASVILLE, AL, 36784","Match","Exact","262 PARIS LN, THOMASVILLE, AL, 36784",34575651,"L"
143808,"262 PARK AVE","PASSAIC","NJ",7055,40.839747243,-74.130624841,308,"262 PARK AVE, PASSAIC, NJ, 7055","Match","Exact","262 PARK AVE, PASSAIC, NJ, 07055",65252556,"R"
143809,"262 RIVERSIDE RD","MARQUETTE","MI",49855,46.4933629670001,-87.338020468,309,"262 RIVERSIDE RD, MARQUETTE, MI, 49855","Match","Exact","262 RIVERSIDE RD, MARQUETTE, MI, 49855",649096146,"L"
143810,"262 ROCKY ROAD LN","SHELL KNOB","MO",65747,36.5575486050001,-93.5755573389999,310,"262 ROCKY ROAD LN, SHELL KNOB, MO, 65747","Match","Exact","262 ROCKY ROAD LN, SHELL KNOB, MO, 65747",629962434,"R"
143811,"262 S HAGANS AVENUE","ELMHURST","IL",60126,41.893448182,-87.949513957,311,"262 S HAGANS AVENUE, ELMHURST, IL, 60126","Match","Exact","262 HAGANS AVE, ELMHURST, IL, 60126",112544917,"R"
143812,"262 S SAN GABRIEL BLVD","SAN GABRIEL","CA",91776,34.1000957460001,-118.090942999,312,"262 S SAN GABRIEL BLVD, SAN GABRIEL, CA, 91776","Match","Exact","262 S SAN GABRIEL BLVD, SAN GABRIEL, CA, 91776",141634714,"L"
143813,"262 SATUCKET ROAD","BREWSTER","MA",2631,41.731076896,-70.133450324,313,"262 SATUCKET ROAD, BREWSTER, MA, 2631","Match","Exact","262 SATUCKET RD, BREWSTER, MA, 02631",121597876,"R"
143814,"262 SMITHFIELD AVENUE","PAWTUCKET","RI",2860,41.866996462,-71.4128386369999,314,"262 SMITHFIELD AVENUE, PAWTUCKET, RI, 2860","Match","Exact","262 SMITHFIELD AVE, PAWTUCKET, RI, 02860",47489415,"L"
143815,"262 SOUTH MAIN","HELPER","UT",84526,39.685400278,-110.854638239,315,"262 SOUTH MAIN, HELPER, UT, 84526","Match","Non_Exact","262 S MAIN ST, HELPER, UT, 84526",132827062,"L"
143816,"262 ST MARKS AVE NUMBER 3A","BROOKLYN","NY",11238,40.6782725350001,-73.967263132,316,"262 ST MARKS AVE NUMBER 3A, BROOKLYN, NY, 11238","Match","Exact","262 ST MARKS AVE, BROOKLYN, NY, 11238",59077983,"R"
143817,"262 STEVENS ROAD","UTICA","PA",16362,41.4471540160001,-79.957739994,317,"262 STEVENS ROAD, UTICA, PA, 16362","Match","Exact","262 STEVENS RD, UTICA, PA, 16362",70754433,"R"
143818,"262 SUYDAM AVE APT 2","JERSEY CITY","NJ",7304,40.709181942,-74.061117081,318,"262 SUYDAM AVE APT 2, JERSEY CITY, NJ, 7304","Match","Exact","262 SUYDAM AVE, JERSEY CITY, NJ, 07304",59606053,"R"
143819,"262 SWANSEA MALL DRIVE","SWANSEA","MA",2777,NA,NA,319,"262 SWANSEA MALL DRIVE, SWANSEA, MA, 2777","No_Match",NA,NA,NA,NA
143820,"262 THIMBLEBERRY RD","MALTA","NY",12020,42.9798106760001,-73.76603362,320,"262 THIMBLEBERRY RD, MALTA, NY, 12020","Match","Exact","262 THIMBLEBERRY RD, MALTA, NY, 12020",18778403,"R"
143821,"262 VERDE VISTA DR","THOUSAND OAKS","CA",91360,34.2314418610001,-118.871411075,321,"262 VERDE VISTA DR, THOUSAND OAKS, CA, 91360","Match","Exact","262 VERDE VISTA DR, THOUSAND OAKS, CA, 91360",110071249,"R"
143822,"262 W MAIN STREET","HUMMELSTOWN","PA",17036,40.2649219790001,-76.713770939,322,"262 W MAIN STREET, HUMMELSTOWN, PA, 17036","Match","Exact","262 W MAIN ST, HUMMELSTOWN, PA, 17036",70825196,"R"
143823,"262 WALNUT ST APT 6","WATERBURY","CT",6704,41.5595508110001,-73.0276298589999,323,"262 WALNUT ST APT 6, WATERBURY, CT, 6704","Match","Exact","262 WALNUT ST, WATERBURY, CT, 06704",3730082,"R"
143824,"262 WEST 154 STREET- APT 3 A","NEW YORK","NV",10039,NA,NA,324,"262 WEST 154 STREET- APT 3 A, NEW YORK, NV, 10039","No_Match",NA,NA,NA,NA
143825,"262 WIMBEE LANDING ROAD","SEABROOK","SC",29940,32.566533129,-80.702812738,325,"262 WIMBEE LANDING ROAD, SEABROOK, SC, 29940","Match","Exact","262 WIMBEE LANDING RD, SEABROOK, SC, 29940",87636034,"L"
143826,"262 WITTER DR","CHILLICOTHE","OH",45601,39.362041875,-83.043882077,326,"262 WITTER DR, CHILLICOTHE, OH, 45601","Match","Exact","262 WITTER DR, CHILLICOTHE, OH, 45601",624217947,"L"
143827,"262 WOOD DUCK CIRCLE","JEFFERSONVILLE","IN",47130,38.300447687,-85.703384893,327,"262 WOOD DUCK CIRCLE, JEFFERSONVILLE, IN, 47130","Match","Exact","262 WOOD DUCK CIR, JEFFERSONVILLE, IN, 47130",628102997,"R"
143828,"262 ZELMA STREET","MARIETTA","GA",30060,33.8977000780001,-84.561149751,328,"262 ZELMA STREET, MARIETTA, GA, 30060","Match","Exact","262 ZELMA ST, MARIETTA, GA, 30060",17176805,"R"
143829,"262-27 60TH AVE","LITTLE NECK","NY",11362,40.7605497850001,-73.719879595,329,"262-27 60TH AVE, LITTLE NECK, NY, 11362","Match","Exact","262-27 60TH AVE, LITTLE NECK, NY, 11362",59724044,"L"
143830,"262","LEXINGTON","KY",40503,NA,NA,330,"262, LEXINGTON, KY, 40503","No_Match",NA,NA,NA,NA
143831,"262","POSTVILLE","IA",52162,NA,NA,331,"262, POSTVILLE, IA, 52162","No_Match",NA,NA,NA,NA
143832,"262","SWANSEA","MA",2777,NA,NA,332,"262, SWANSEA, MA, 2777","No_Match",NA,NA,NA,NA
143833,"2620 107 CUTOFF","GREENEVILLE","TN",37743,36.125931081,-82.752323952,333,"2620 107 CUTOFF, GREENEVILLE, TN, 37743","Match","Exact","2620 107 CUTOFF, GREENEVILLE, TN, 37743",127767631,"R"
143834,"2620 15TH STREET","PANAMA CITY","FL",32405,30.1754112200001,-85.697779607,334,"2620 15TH STREET, PANAMA CITY, FL, 32405","Match","Non_Exact","2620 W 15TH ST, PANAMA CITY, FL, 32405",7028332,"R"
143835,"2620 5TH AVE E","NORTH ST PAUL","MN",55109,45.0111827260001,-92.990077623,335,"2620 5TH AVE E, NORTH ST PAUL, MN, 55109","Match","Non_Exact","2620 5TH AVE, N SAINT PAUL, MN, 55109",97652882,"R"
143836,"2620 5TH AVE","UPPERCHICHESTER","PA",19061,39.829785578,-75.443852941,336,"2620 5TH AVE, UPPERCHICHESTER, PA, 19061","Match","Non_Exact","2620 5TH AVE, UPPER CHICHESTER, PA, 19061",134890517,"L"
143837,"2620 9TH AVE N","SAINT PETERSBURG","FL",33713,27.7809910920001,-82.6695135429999,337,"2620 9TH AVE N, SAINT PETERSBURG, FL, 33713","Match","Exact","2620 9TH AVE N, SAINT PETERSBURG, FL, 33713",124705160,"L"
143838,"2620 A STREET","SAN DIEGO","CA",92102,32.718966707,-117.137661787,338,"2620 A STREET, SAN DIEGO, CA, 92102","Match","Exact","2620 A ST, SAN DIEGO, CA, 92102",195345989,"L"
143839,"2620 ADELINE STREET","OAKLAND","CA",94607,37.819032882,-122.282788346,339,"2620 ADELINE STREET, OAKLAND, CA, 94607","Match","Exact","2620 ADELINE ST, OAKLAND, CA, 94607",124995969,"R"
143840,"2620 ALBION STREET","NASHVILLE","TN",37208,36.165107957,-86.816636952,340,"2620 ALBION STREET, NASHVILLE, TN, 37208","Match","Exact","2620 ALBION ST, NASHVILLE, TN, 37208",97185064,"R"
143841,"2620 ARCH STREET SW","ALLENTOWN","PA",18103,40.556458535,-75.475319914,341,"2620 ARCH STREET SW, ALLENTOWN, PA, 18103","Match","Exact","2620 ARCH ST SW, ALLENTOWN, PA, 18103",80770962,"L"
143842,"2620 BALLS CREEK RD","NEWTON","NC",28658,NA,NA,342,"2620 BALLS CREEK RD, NEWTON, NC, 28658","No_Match",NA,NA,NA,NA
143843,"2620 BALLS CREEK ROAD","NEWTON","NC",28658,NA,NA,343,"2620 BALLS CREEK ROAD, NEWTON, NC, 28658","No_Match",NA,NA,NA,NA
143844,"2620 BANKS STREET","NEW ORLEANS","LA",70119,29.9623561170001,-90.088946218,344,"2620 BANKS STREET, NEW ORLEANS, LA, 70119","Match","Exact","2620 BANKS ST, NEW ORLEANS, LA, 70119",191708098,"L"
143845,"2620 CAMERON WAY","FREDERICK","MD",21701,39.455200679,-77.391062626,345,"2620 CAMERON WAY, FREDERICK, MD, 21701","Match","Exact","2620 CAMERON WAY, FREDERICK, MD, 21701",60697976,"R"
143846,"2620 CANYON DRE","MARRERO","LA",70072,29.8422334140001,-90.106322945,346,"2620 CANYON DRE, MARRERO, LA, 70072","Match","Non_Exact","2620 CANYON DR, MARRERO, LA, 70072",93510006,"L"
143847,"2620 CATES AVENUE","RALEIGH","NC",27695,NA,NA,347,"2620 CATES AVENUE, RALEIGH, NC, 27695","No_Match",NA,NA,NA,NA
143848,"2620 CENTENARY BLVD BLDG 3 STE312","SHREVEPORT","LA",71104,32.4865105800001,-93.733091467,348,"2620 CENTENARY BLVD BLDG 3 STE312, SHREVEPORT, LA, 71104","Match","Exact","2620 CENTENARY BLVD, SHREVEPORT, LA, 71104",57437905,"R"
143849,"2620 CENTER RD","EVERETT","WA",98204,47.8923722430001,-122.269525244,349,"2620 CENTER RD, EVERETT, WA, 98204","Match","Exact","2620 CENTER RD, EVERETT, WA, 98204",187753120,"R"
143850,"2620 CHARLESTOWNE LN","NAPERVILLE","IL",60564,41.7202810970001,-88.198658514,350,"2620 CHARLESTOWNE LN, NAPERVILLE, IL, 60564","Match","Exact","2620 CHARLESTOWNE LN, NAPERVILLE, IL, 60564",111609319,"R"
143851,"2620 COMMERCIAL CENTER BLVD","KATY","TX",77494,29.741463691,-95.776783,351,"2620 COMMERCIAL CENTER BLVD, KATY, TX, 77494","Match","Exact","2620 COMMERCIAL CENTER BLVD, KATY, TX, 77494",642102121,"R"
143852,"2620 COOPER AVE","PENNSAUKEN","NJ",8109,39.9635625060001,-75.0433833179999,352,"2620 COOPER AVE, PENNSAUKEN, NJ, 8109","Match","Exact","2620 COOPER AVE, PENNSAUKEN, NJ, 08109",134344060,"L"
143853,"2620 COOPER AVENUE","PENNSAUKEN","NJ",8109,39.9635625060001,-75.0433833179999,353,"2620 COOPER AVENUE, PENNSAUKEN, NJ, 8109","Match","Exact","2620 COOPER AVE, PENNSAUKEN, NJ, 08109",134344060,"L"
143854,"2620 CURLEY BEAR // BOX 160436","BIG SKY","MT",59716,45.2636494760001,-111.307955293,354,"2620 CURLEY BEAR // BOX 160436, BIG SKY, MT, 59716","Match","Non_Exact","2620 CURLEY BEAR RD, BIG SKY, MT, 59716",608673780,"L"
143855,"2620 DAVENPORT PARK DRIVE","DULUTH","GA",30096,33.971527274,-84.136671087,355,"2620 DAVENPORT PARK DRIVE, DULUTH, GA, 30096","Match","Exact","2620 DAVENPORT PARK DR, DULUTH, GA, 30096",88941441,"R"
143856,"2620 E 21ST STREET NORTH","WICHITA","KS",67214,37.722731277,-97.3062447409999,356,"2620 E 21ST STREET NORTH, WICHITA, KS, 67214","Match","Exact","2620 E 21ST ST N, WICHITA, KS, 67214",115637308,"L"
143857,"2620 E 92ND STREET","CHICAGO","IL",60616,41.728145032,-87.56004208,357,"2620 E 92ND STREET, CHICAGO, IL, 60616","Match","Non_Exact","2620 E 92ND ST, CHICAGO, IL, 60617",111776454,"L"
143858,"2620 E BATTLEFIELD ROAD","SPRINGFIELD","MO",65807,37.1585618400001,-93.2451759369999,358,"2620 E BATTLEFIELD ROAD, SPRINGFIELD, MO, 65807","Match","Non_Exact","2620 E BATTLEFIELD RD, SPRINGFIELD, MO, 65804",647717289,"L"
143859,"2620 EAST 129TH STREET","COMPTON","CA",90222,33.9152963400001,-118.224650458,359,"2620 EAST 129TH STREET, COMPTON, CA, 90222","Match","Exact","2620 E 129TH ST, COMPTON, CA, 90222",142762772,"R"
143860,"2620 IROQUOIS AVE","SANFORD","FL",32773,28.7815621510001,-81.274991745,360,"2620 IROQUOIS AVE, SANFORD, FL, 32773","Match","Exact","2620 IROQUOIS AVE, SANFORD, FL, 32773",93750445,"R"
143861,"2620 IVERSON STREET","TEMPLE HILLS","MD",20602,38.8370346820001,-76.95219207,361,"2620 IVERSON STREET, TEMPLE HILLS, MD, 20602","Match","Non_Exact","2620 IVERSON ST, TEMPLE HILLS, MD, 20748",76389471,"L"
143862,"2620 LOWER GREENS PLACE","VIRGINIA BEACH","VA",23456,36.7513774490001,-76.026806253,362,"2620 LOWER GREENS PLACE, VIRGINIA BEACH, VA, 23456","Match","Exact","2620 LOWER GREENS PL, VA BCH, VA, 23456",122289810,"R"
143863,"2620 MAPLETON AVENUE","BOULDER","CO",80304,40.024927989,-105.261472002,363,"2620 MAPLETON AVENUE, BOULDER, CO, 80304","Match","Exact","2620 MAPLETON AVE, BOULDER, CO, 80304",188215887,"R"
143864,"2620 N AUSTRALIAN AVE STE 100E","WEST PALM BEACH","FL",33407,26.7435745,-80.068897927,364,"2620 N AUSTRALIAN AVE STE 100E, WEST PALM BEACH, FL, 33407","Match","Non_Exact","2620 AUSTRALIAN CT, WEST PALM BEACH, FL, 33407",115581691,"R"
143865,"2620 N AUSTRALIAN AVE STE 100S","WEST PALM BEACH","FL",33407,26.7435745,-80.068897927,365,"2620 N AUSTRALIAN AVE STE 100S, WEST PALM BEACH, FL, 33407","Match","Non_Exact","2620 AUSTRALIAN CT, WEST PALM BEACH, FL, 33407",115581691,"R"
143866,"2620 N AUSTRALIAN AVE STE 109","WEST PALM BEACH","FL",33407,26.7435745,-80.068897927,366,"2620 N AUSTRALIAN AVE STE 109, WEST PALM BEACH, FL, 33407","Match","Non_Exact","2620 AUSTRALIAN CT, WEST PALM BEACH, FL, 33407",115581691,"R"
143867,"2620 N AUSTRALIAN AVE SUITE 103","WEST PALM BEACH","FL",33407,26.7435745,-80.068897927,367,"2620 N AUSTRALIAN AVE SUITE 103, WEST PALM BEACH, FL, 33407","Match","Non_Exact","2620 AUSTRALIAN CT, WEST PALM BEACH, FL, 33407",115581691,"R"
143868,"2620 N AUSTRALIAN AVENUE STE 100E","WEST PALM BEACH","FL",33407,26.7435745,-80.068897927,368,"2620 N AUSTRALIAN AVENUE STE 100E, WEST PALM BEACH, FL, 33407","Match","Non_Exact","2620 AUSTRALIAN CT, WEST PALM BEACH, FL, 33407",115581691,"R"
143869,"2620 N AUSTRALIAN AVENUE STE 109","WEST PALM BEACH","FL",33407,26.7435745,-80.068897927,369,"2620 N AUSTRALIAN AVENUE STE 109, WEST PALM BEACH, FL, 33407","Match","Non_Exact","2620 AUSTRALIAN CT, WEST PALM BEACH, FL, 33407",115581691,"R"
143870,"2620 N AUSTRALIAN AVENUE STE 109","WET PALM BEACH","FL",33407,NA,NA,370,"2620 N AUSTRALIAN AVENUE STE 109, WET PALM BEACH, FL, 33407","No_Match",NA,NA,NA,NA
143871,"2620 N AUSTRALIAN AVENUE STE 10OK","WEST PALM BEACH","FL",33407,26.7435745,-80.068897927,371,"2620 N AUSTRALIAN AVENUE STE 10OK, WEST PALM BEACH, FL, 33407","Match","Non_Exact","2620 AUSTRALIAN CT, WEST PALM BEACH, FL, 33407",115581691,"R"
143872,"2620 N BROADWAY AVE","ROCHESTER","MN",55906,NA,NA,372,"2620 N BROADWAY AVE, ROCHESTER, MN, 55906","No_Match",NA,NA,NA,NA
143873,"2620 N COOLIDGE AVE","WICHITA","KS",67204,37.7304658310001,-97.361325656,373,"2620 N COOLIDGE AVE, WICHITA, KS, 67204","Match","Exact","2620 COOLIDGE AVE, WICHITA, KS, 67204",115633317,"R"
143874,"2620 N HARBOR LOOP DR SUITE 8","BELLINGHAM","WA",98225,NA,NA,374,"2620 N HARBOR LOOP DR SUITE 8, BELLINGHAM, WA, 98225","Tie",NA,NA,NA,NA
143875,"2620 N MACARTHUR DR","NOGALES","AZ",85621,31.3798864120001,-110.961015471,375,"2620 N MACARTHUR DR, NOGALES, AZ, 85621","Match","Exact","2620 N MACARTHUR DR, NOGALES, AZ, 85621",120890793,"R"
143876,"2620 N WALNUT SREET  SUITE 940","BLOOMINGTON","IN",47404,NA,NA,376,"2620 N WALNUT SREET  SUITE 940, BLOOMINGTON, IN, 47404","No_Match",NA,NA,NA,NA
143877,"2620 N WESTMINSTER DR","FAYETTEVILLE","AR",72704,36.101062257,-94.209413776,377,"2620 N WESTMINSTER DR, FAYETTEVILLE, AR, 72704","Match","Exact","2620 N WESTMINSTER DR, FAYETTEVILLE, AR, 72704",49078855,"R"
143878,"2620 NAKOOKOO STREET","HONOLULU","HI",96826,21.2898739980001,-157.822603189,378,"2620 NAKOOKOO STREET, HONOLULU, HI, 96826","Match","Exact","2620 NAKOOKOO ST, HONOLULU, HI, 96826",203241806,"L"
143879,"2620 NE 18TH STREET","OKLAHOMA CITY","OK",73111,35.487713829,-97.464513553,379,"2620 NE 18TH STREET, OKLAHOMA CITY, OK, 73111","Match","Non_Exact","2620 NE 18TH ST, OKLAHOMA CITY, OK, 73111",100412148,"R"
143880,"2620 NORTH AUSTRALIAN AVE STE 100E","WEST PALM BEACH","FL",33407,26.736120693,-80.067537311,380,"2620 NORTH AUSTRALIAN AVE STE 100E, WEST PALM BEACH, FL, 33407","Match","Exact","2620 N AUSTRALIAN AVE, WEST PALM BEACH, FL, 33407",115277221,"R"
143881,"2620 NORTH AUSTRALIAN AVE STE 109","WEST PALM BEACH","FL",33407,26.736120693,-80.067537311,381,"2620 NORTH AUSTRALIAN AVE STE 109, WEST PALM BEACH, FL, 33407","Match","Exact","2620 N AUSTRALIAN AVE, WEST PALM BEACH, FL, 33407",115277221,"R"
143882,"2620 NORTH AUSTRALIAN AVE STE100S","WEST PALM BEACH","FL",33407,26.736120693,-80.067537311,382,"2620 NORTH AUSTRALIAN AVE STE100S, WEST PALM BEACH, FL, 33407","Match","Exact","2620 N AUSTRALIAN AVE, WEST PALM BEACH, FL, 33407",115277221,"R"
143883,"2620 NORTH AUSTRALIAN AVE SUITE 109","WEST PALM BEACH","FL",33407,26.736120693,-80.067537311,383,"2620 NORTH AUSTRALIAN AVE SUITE 109, WEST PALM BEACH, FL, 33407","Match","Exact","2620 N AUSTRALIAN AVE, WEST PALM BEACH, FL, 33407",115277221,"R"
143884,"2620 NORTH AUSTRALIAN AVENUE SUITE","WEST PALM BEACH","FL",33407,26.736120693,-80.067537311,384,"2620 NORTH AUSTRALIAN AVENUE SUITE, WEST PALM BEACH, FL, 33407","Match","Exact","2620 N AUSTRALIAN AVE, WEST PALM BEACH, FL, 33407",115277221,"R"
143885,"2620 OLDE IVY LN","CONYERS","GA",30094,33.652040485,-84.073224146,385,"2620 OLDE IVY LN, CONYERS, GA, 30094","Match","Exact","2620 OLDE IVY LN, CONYERS, GA, 30094",615270745,"R"
143886,"2620 PARK CENTRAL BLVD","DECATUR","GA",30035,33.710740603,-84.173390835,386,"2620 PARK CENTRAL BLVD, DECATUR, GA, 30035","Match","Exact","2620 PARK CENTRAL BLVD, DECATUR, GA, 30035",23375141,"L"
143887,"2620 POPLAR ST","DENVER","CO",80207,39.7552184370001,-104.904574252,387,"2620 POPLAR ST, DENVER, CO, 80207","Match","Exact","2620 POPLAR ST, DENVER, CO, 80207",177313191,"R"
143888,"2620 POTOSI ROAD","ABILENE","TX",79602,32.3412069020001,-99.6569318589999,388,"2620 POTOSI ROAD, ABILENE, TX, 79602","Match","Exact","2620 POTOSI RD, ABILENE, TX, 79602",129965347,"L"
143889,"2620 RED SKY COURT","BURLINGTON","KY",41005,39.0111785980001,-84.7183450799999,389,"2620 RED SKY COURT, BURLINGTON, KY, 41005","Match","Exact","2620 RED SKY CT, BURLINGTON, KY, 41005",81962695,"R"
143890,"2620 REGATTA DR STE 102","LAS VEGAS","NV",89128,36.2066303770001,-115.268675071,390,"2620 REGATTA DR STE 102, LAS VEGAS, NV, 89128","Match","Non_Exact","2620 REGATTA, LAS VEGAS, NV, 89128",201917830,"L"
143891,"2620 REGATTA DR SUITE 102","LAS VEGAS","NV",89128,36.2066303770001,-115.268675071,391,"2620 REGATTA DR SUITE 102, LAS VEGAS, NV, 89128","Match","Non_Exact","2620 REGATTA, LAS VEGAS, NV, 89128",201917830,"L"
143892,"2620 REGATTA DRIVE 102","LAS VEGAS","NV",89128,36.2066303770001,-115.268675071,392,"2620 REGATTA DRIVE 102, LAS VEGAS, NV, 89128","Match","Non_Exact","2620 REGATTA, LAS VEGAS, NV, 89128",201917830,"L"
143893,"2620 REGATTA DRIVE STE 102-228","LAS VEGAS","NV",89128,36.2066303770001,-115.268675071,393,"2620 REGATTA DRIVE STE 102-228, LAS VEGAS, NV, 89128","Match","Non_Exact","2620 REGATTA, LAS VEGAS, NV, 89128",201917830,"L"
143894,"2620 REGATTA DRIVE SUITE 407","LAS VEGAS","NV",89128,36.2066303770001,-115.268675071,394,"2620 REGATTA DRIVE SUITE 407, LAS VEGAS, NV, 89128","Match","Non_Exact","2620 REGATTA, LAS VEGAS, NV, 89128",201917830,"L"
143895,"2620 ROBERTSON TRAIL","LUTZ","FL",33559,28.156988219,-82.425911325,395,"2620 ROBERTSON TRAIL, LUTZ, FL, 33559","Match","Exact","2620 ROBERTSON TRL, LUTZ, FL, 33559",104501558,"R"
143896,"2620 S AVALON DRIVE","HORN LAKE","MS",38637,34.9412155090001,-90.03601789,396,"2620 S AVALON DRIVE, HORN LAKE, MS, 38637","Match","Non_Exact","2620 AVALON DR S, HORN LAKE, MS, 38637",91834587,"L"
143897,"2620 S UNIVERSITY DR APT 202","DAVIE","FL",33328,26.0879067430001,-80.250999782,397,"2620 S UNIVERSITY DR APT 202, DAVIE, FL, 33328","Match","Non_Exact","2620 S UNIVERSITY DR, DAVIE, FL, 33328",114762629,"L"
143898,"2620 SPARKLING WATER COURT","PALMDALE","CA",93550,34.576586552,-118.082635801,398,"2620 SPARKLING WATER COURT, PALMDALE, CA, 93550","Match","Exact","2620 SPARKLING WATER CT, PALMDALE, CA, 93550",636152909,"L"
143899,"2620 SUTTER ST","SAN FRANCISCO","CA",94115,37.7847828010001,-122.443597979,399,"2620 SUTTER ST, SAN FRANCISCO, CA, 94115","Match","Exact","2620 SUTTER ST, SAN FRANCISCO, CA, 94115",192283202,"R"
143900,"2620 SWISS LANE","BIRMINGHAM","AL",35226,33.4084124190001,-86.824873509,400,"2620 SWISS LANE, BIRMINGHAM, AL, 35226","Match","Exact","2620 SWISS LN, BIRMINGHAM, AL, 35226",81582447,"R"
143901,"2620 TAR HEEL DR","FORT WORTH","TX",76123,32.6193470540001,-97.3594115669999,401,"2620 TAR HEEL DR, FORT WORTH, TX, 76123","Match","Exact","2620 TAR HEEL DR, FORT WORTH, TX, 76123",102189846,"L"
143902,"2620 TENDERFOOT HILL ST SUITE 210","COLORADO SPRINGS","CO",80906,38.794463727,-104.81265867,402,"2620 TENDERFOOT HILL ST SUITE 210, COLORADO SPRINGS, CO, 80906","Match","Exact","2620 TENDERFOOT HILL ST, COLORADO SPRINGS, CO, 80906",611798949,"R"
143903,"2620 THE CANYONS","DOUGLASVILLE","GA",30135,33.6998142480001,-84.663331155,403,"2620 THE CANYONS, DOUGLASVILLE, GA, 30135","Match","Exact","2620 THE CANYONS, DOUGLASVILLE, GA, 30135",619508688,"R"
143904,"2620 THEODORE AVE","DAYTON","OH",45405,39.7897238200001,-84.2083574819999,404,"2620 THEODORE AVE, DAYTON, OH, 45405","Match","Exact","2620 THEODORE AVE, DAYTON, OH, 45405",143568634,"R"
143905,"2620 W FLETCHER NO2","CHICAGO","IL",60647,NA,NA,405,"2620 W FLETCHER NO2, CHICAGO, IL, 60647","No_Match",NA,NA,NA,NA
143906,"2620 W HOMER ST APT 2","CHICAGO","IL",60647,41.916627921,-87.692899715,406,"2620 W HOMER ST APT 2, CHICAGO, IL, 60647","Match","Non_Exact","2620 W HOMER ST, CHICAGO, IL, 60647",111762847,"R"
143907,"2620 W VEREDA AZUL","TUCSON","AZ",85746,NA,NA,407,"2620 W VEREDA AZUL, TUCSON, AZ, 85746","No_Match",NA,NA,NA,NA
143908,"2620 W WASHINGTON BLVD APT 613","CHICAGO","IL",60612,41.882951754,-87.6920433459999,408,"2620 W WASHINGTON BLVD APT 613, CHICAGO, IL, 60612","Match","Non_Exact","2620 W WASHINGTON BLVD, CHICAGO, IL, 60612",111763840,"R"
143909,"2620 WEAVER STREET","DURHAM","NC",27707,35.967624587,-78.910143654,409,"2620 WEAVER STREET, DURHAM, NC, 27707","Match","Non_Exact","2620 E WEAVER ST, DURHAM, NC, 27707",71740762,"R"
143910,"2620 WHITE DR","SAN PEDRO","CA",90732,33.7200848150001,-118.311304765,410,"2620 WHITE DR, SAN PEDRO, CA, 90732","Match","Exact","2620 WHITE DR, SAN PEDRO, CA, 90732",142453748,"L"
143911,"26200 CUMBERLAND RD","TEHACHAPI","CA",93561,35.1510888230001,-118.595507204,411,"26200 CUMBERLAND RD, TEHACHAPI, CA, 93561","Match","Exact","26200 CUMBERLAND RD, TEHACHAPI, CA, 93561",109429777,"R"
143912,"26200 FORD ROAD - NUMBER 753","DEARBORN HEIGHTS","MI",48127,42.3264810470001,-83.2972588489999,412,"26200 FORD ROAD - NUMBER 753, DEARBORN HEIGHTS, MI, 48127","Match","Exact","26200 FORD RD, DEARBORN HEIGHTS, MI, 48127",95432063,"R"
143913,"26200 MARTINDALE ROAD","NORTH LIBERTY","IN",46554,41.570967425,-86.371170342,413,"26200 MARTINDALE ROAD, NORTH LIBERTY, IN, 46554","Match","Exact","26200 MARTINDALE RD, NORTH LIBERTY, IN, 46554",8058632,"R"
143914,"26201 180TH AVENUE SE","COVINGTON","WA",98042,47.3666366210001,-122.101875162,414,"26201 180TH AVENUE SE, COVINGTON, WA, 98042","Match","Exact","26201 180TH AVE SE, COVINGTON, WA, 98042",650025268,"L"
143915,"26203 CHRISTEN CANYON LANE","RICHMOND","TX",77406,29.6910431210001,-95.831935937,415,"26203 CHRISTEN CANYON LANE, RICHMOND, TX, 77406","Match","Exact","26203 CHRISTEN CANYON LN, RICHMOND, TX, 77406",635082855,"R"
143916,"26206 WINDSPIRIT","SAN ANTONIO","TX",78260,29.690330256,-98.519463069,416,"26206 WINDSPIRIT, SAN ANTONIO, TX, 78260","Match","Exact","26206 WINDSPIRIT, SAN ANTONIO, TX, 78260",627496559,"R"
143917,"2621 40 AVE E","TACOMA","WA",98404,47.2208862320001,-122.39333929,417,"2621 40 AVE E, TACOMA, WA, 98404","Match","Non_Exact","2621 40TH ST E, TACOMA, WA, 98404",184627548,"L"
143918,"2621 4TH AVENUE","ROCK ISLAND","IL",61201,41.508790425,-90.564251008,418,"2621 4TH AVENUE, ROCK ISLAND, IL, 61201","Match","Exact","2621 4TH AVE, ROCK ISLAND, IL, 61201",640670750,"L"
143919,"2621 AUSTIN DRIVE","LINCOLN","NE",68506,40.7868898680001,-96.6608232359999,419,"2621 AUSTIN DRIVE, LINCOLN, NE, 68506","Match","Exact","2621 AUSTIN DR, LINCOLN, NE, 68506",28260152,"R"
143920,"2621 BAILEY ROAD","FOREST HILL","MD",21050,39.593032484,-76.414977167,420,"2621 BAILEY ROAD, FOREST HILL, MD, 21050","Match","Exact","2621 BAILEY RD, FOREST HILL, MD, 21050",191667315,"R"
143921,"2621 BRETTON WOOD DR","FORT WORTH","TX",76244,32.9485929900001,-97.303611411,421,"2621 BRETTON WOOD DR, FORT WORTH, TX, 76244","Match","Exact","2621 BRETTON WOOD DR, FORT WORTH, TX, 76244",638655515,"L"
143922,"2621 CLARA LANE","NORTH CHARLESTON","SC",29406,32.9248520580001,-80.042277116,422,"2621 CLARA LANE, NORTH CHARLESTON, SC, 29406","Match","Exact","2621 CLARA LN, N CHARLESTON, SC, 29406",108797764,"L"
143923,"2621 CLINTON AVE","BERWYN","IL",60402,41.8424159470001,-87.796949868,423,"2621 CLINTON AVE, BERWYN, IL, 60402","Match","Exact","2621 CLINTON AVE, BERWYN, IL, 60402",605125436,"L"
143924,"2621 CORNELL STREET","DES MOINES","IA",50313,41.6189017740001,-93.615064573,424,"2621 CORNELL STREET, DES MOINES, IA, 50313","Match","Exact","2621 CORNELL ST, DES MOINES, IA, 50313",65783194,"R"
143925,"2621 COUNTRY GLADE DR","CORDOVA","TN",38016,35.196739526,-89.75886258,425,"2621 COUNTRY GLADE DR, CORDOVA, TN, 38016","Match","Exact","2621 COUNTRY GLADE DR, CORDOVA, TN, 38016",72965123,"L"
143926,"2621 E SOUTH ST","ORLANDO","FM",32803,NA,NA,426,"2621 E SOUTH ST, ORLANDO, FM, 32803","No_Match",NA,NA,NA,NA
143927,"2621 EMERALD SPRINGS CT","PEARLAND","TX",77584,29.563576271,-95.4161907609999,427,"2621 EMERALD SPRINGS CT, PEARLAND, TX, 77584","Match","Exact","2621 EMERALD SPRINGS CT, PEARLAND, TX, 77584",614116150,"L"
143928,"2621 GARFIELD NW","WASHINGTON","DC",20008,38.9266022900001,-77.053794166,428,"2621 GARFIELD NW, WASHINGTON, DC, 20008","Match","Non_Exact","2621 GARFIELD ST NW, WASHINGTON, DC, 20008",76222537,"R"
143929,"2621 GATY AVE","EAST ST LOUIS","IL",62205,38.605584181,-90.132979658,429,"2621 GATY AVE, EAST ST LOUIS, IL, 62205","Match","Exact","2621 GATY AVE, E SAINT LOUIS, IL, 62205",107830942,"L"
143930,"2621 GREEN RIVER RD STE 105-229","CORONA","CA",92882,33.870463441,-117.622105204,430,"2621 GREEN RIVER RD STE 105-229, CORONA, CA, 92882","Match","Exact","2621 GREEN RIVER RD, CORONA, CA, 92882",194816577,"L"
143931,"2621 HAMILTON ST","PARKERSBURG","WV",26101,39.2308774540001,-81.552635766,431,"2621 HAMILTON ST, PARKERSBURG, WV, 26101","Match","Exact","2621 HAMILTON ST, PARKERSBURG, WV, 26101",90872130,"L"
143932,"2621 ISADOR ROAD","ERATH","LA",70533,NA,NA,432,"2621 ISADOR ROAD, ERATH, LA, 70533","No_Match",NA,NA,NA,NA
143933,"2621 JOANEL ST","HOUSTON","TX",77027,29.741241508,-95.434378539,433,"2621 JOANEL ST, HOUSTON, TX, 77027","Match","Exact","2621 JOANEL ST, HOUSTON, TX, 77027",96062694,"L"
143934,"2621 LOUISIANA","SAINT LOUIS","MO",63118,38.6072796940001,-90.236610349,434,"2621 LOUISIANA, SAINT LOUIS, MO, 63118","Match","Non_Exact","2621 LOUISIANA AVE, SAINT LOUIS, MO, 63118",605122687,"R"
143935,"2621 MABLE LANE","LEXINGTON","KY",40511,38.0900886900001,-84.539840748,435,"2621 MABLE LANE, LEXINGTON, KY, 40511","Match","Exact","2621 MABLE LN, LEXINGTON, KY, 40511",31950500,"R"
143936,"2621 N MORELAND BLVD 301","CLEVELAND","OH",44120,41.486654001,-81.589649454,436,"2621 N MORELAND BLVD 301, CLEVELAND, OH, 44120","Match","Non_Exact","2621 N MORELAND BLVD, CLEVELAND, OH, 44120",61122804,"L"
143937,"2621 N RICHMOND STREET","CHICAGO","IL",60647,41.9294149040001,-87.70122853,437,"2621 N RICHMOND STREET, CHICAGO, IL, 60647","Match","Exact","2621 N RICHMOND ST, CHICAGO, IL, 60647",605187576,"R"
143938,"2621 NORTH STARK STREET","DAVENPORT","IA",52804,41.546177233,-90.632842726,438,"2621 NORTH STARK STREET, DAVENPORT, IA, 52804","Match","Exact","2621 N STARK ST, DAVENPORT, IA, 52804",122720467,"L"
143939,"2621 OAKTON GLEN DRIVE","VIENNA","VA",22181,38.890767678,-77.292997887,439,"2621 OAKTON GLEN DRIVE, VIENNA, VA, 22181","Match","Exact","2621 OAKTON GLEN DR, VIENNA, VA, 22181",215920844,"R"
143940,"2621 PLANTATION PLACE","STOCKTON","CA",95209,38.0353406020001,-121.348769389,440,"2621 PLANTATION PLACE, STOCKTON, CA, 95209","Match","Exact","2621 PLANTATION PL, STOCKTON, CA, 95209",647344555,"L"
143941,"2621 RINGOLD RD","ELTOPIA","WA",99330,46.4906991670001,-119.18583653,441,"2621 RINGOLD RD, ELTOPIA, WA, 99330","Match","Exact","2621 RINGOLD RD, ELTOPIA, WA, 99330",175241068,"L"
143942,"2621 SENASAC AVE","LONG BEACH","CA",90815,33.8041696770001,-118.114014798,442,"2621 SENASAC AVE, LONG BEACH, CA, 90815","Match","Exact","2621 SENASAC AVE, LONG BEACH, CA, 90815",141745578,"L"
143943,"2621 SOUTH BLY CT","BLUE SPRINGS","MO",64015,39.0674171380001,-94.313776553,443,"2621 SOUTH BLY CT, BLUE SPRINGS, MO, 64015","Match","Exact","2621 S BLY CT, BLUE SPRINGS, MO, 64015",633576372,"R"
143944,"2621 SPICEBUSH LOOP","APOPKA","FL",32712,28.7122936970001,-81.554513686,444,"2621 SPICEBUSH LOOP, APOPKA, FL, 32712","Match","Exact","2621 SPICEBUSH LOOP, APOPKA, FL, 32712",640588024,"R"
143945,"2621 VISTA GRANDE","FAIRFIELD","CA",94534,38.2732351450001,-122.057641627,445,"2621 VISTA GRANDE, FAIRFIELD, CA, 94534","Match","Exact","2621 VIS GRANDE, FAIRFIELD, CA, 94534",192536176,"L"
143946,"2621 W 15TH PL","CHICAGO","IL",60608,41.860189441,-87.691411058,446,"2621 W 15TH PL, CHICAGO, IL, 60608","Match","Exact","2621 W 15TH PL, CHICAGO, IL, 60608",111801619,"L"
143947,"2621 W CASTLE CT","PEORIA","IL",61614,40.7553884760001,-89.633311797,447,"2621 W CASTLE CT, PEORIA, IL, 61614","Match","Exact","2621 W CASTLE CT, PEORIA, IL, 61614",8714310,"R"
143948,"2621 W VEREDA AMARILLO","TUCSON","AZ",85746,NA,NA,448,"2621 W VEREDA AMARILLO, TUCSON, AZ, 85746","No_Match",NA,NA,NA,NA
143949,"2621 WELLINGTON WALK PLACE","LITHONIA","GA",30058,33.7174635330001,-84.1322373199999,449,"2621 WELLINGTON WALK PLACE, LITHONIA, GA, 30058","Match","Exact","2621 WELLINGTON WALK PL, LITHONIA, GA, 30058",637254172,"R"
143950,"2621 WEST 141 STREET PLACE 6","GARDENA","CA",90249,NA,NA,450,"2621 WEST 141 STREET PLACE 6, GARDENA, CA, 90249","No_Match",NA,NA,NA,NA
143951,"2621 WEST JEFFERSON AVE","TRENTON","MI",48183,42.1431817640001,-83.177454529,451,"2621 WEST JEFFERSON AVE, TRENTON, MI, 48183","Match","Exact","2621 W JEFFERSON AVE, TRENTON, MI, 48183",95458673,"L"
143952,"2621 WOODLAWN AVE","GARDEN CITY","GA",31408,32.0865087870001,-81.178275566,452,"2621 WOODLAWN AVE, GARDEN CITY, GA, 31408","Match","Exact","2621 WOODLAWN AVE, GARDEN CITY, GA, 31408",6168802,"L"
143953,"2621 ZURICH AVE","MCALLEN","TX",78504,26.299653775,-98.232545927,453,"2621 ZURICH AVE, MCALLEN, TX, 78504","Match","Non_Exact","2621 W ZURICH AVE, MCALLEN, TX, 78504",635735511,"R"
143954,"26210 EMERY ROAD","WARRENSVILLE HEIGHTS","OH",44128,41.435076144,-81.4929407609999,454,"26210 EMERY ROAD, WARRENSVILLE HEIGHTS, OH, 44128","Match","Exact","26210 EMERY RD, WARRENSVILLE HEIGHTS, OH, 44128",61167994,"R"
143955,"26211 CENTRAL PARK BLVD STE 514","SOUTHFIELD","MI",48076,42.486679101,-83.244713337,455,"26211 CENTRAL PARK BLVD STE 514, SOUTHFIELD, MI, 48076","Match","Exact","26211 CENTRAL PARK BLVD, SOUTHFIELD, MI, 48076",630354576,"L"
143956,"26211 WHISPERING WOODS CIRCLE","PLAINFIELD","IL",60585,41.6408344870001,-88.258664723,456,"26211 WHISPERING WOODS CIRCLE, PLAINFIELD, IL, 60585","Match","Exact","26211 WHISPERING WOODS CIR, PLAINFIELD, IL, 60585",111625969,"R"
143957,"26214 243RD PL SE","MAPLE VALLEY","WA",98038,47.3659577500001,-122.016893458,457,"26214 243RD PL SE, MAPLE VALLEY, WA, 98038","Match","Exact","26214 243RD PL SE, MAPLE VALLEY, WA, 98038",630139845,"L"
143958,"26218 LILLIAN SPRINGS","SPRING","TX",77373,30.0739415080001,-95.4257476289999,458,"26218 LILLIAN SPRINGS, SPRING, TX, 77373","Match","Exact","26218 LILLIAN SPRINGS, SPRING, TX, 77373",624515652,"R"
143959,"2622 ALESSANDRO CT","SPARKS","NV",89434,39.5607747120001,-119.694019829,459,"2622 ALESSANDRO CT, SPARKS, NV, 89434","Match","Exact","2622 ALESSANDRO CT, SPARKS, NV, 89434",618263297,"L"
143960,"2622 ASHBY WOODS DRIVE","MATTHEWS","NC",28105,35.146080183,-80.7081099929999,460,"2622 ASHBY WOODS DRIVE, MATTHEWS, NC, 28105","Match","Exact","2622 ASHBY WOODS DR, MATTHEWS, NC, 28105",70536326,"L"
143961,"2622 BELLE MEADE DRIVE","HUNTSVILLE","AL",35811,34.7582687300001,-86.5685871269999,461,"2622 BELLE MEADE DRIVE, HUNTSVILLE, AL, 35811","Match","Non_Exact","2622 BELLE MEADE DR NE, HUNTSVILLE, AL, 35811",236745429,"R"
143962,"2622 BROOKLINE DRIVE","HUNTSVILLE","AL",35810,34.7631942630001,-86.6281954459999,462,"2622 BROOKLINE DRIVE, HUNTSVILLE, AL, 35810","Match","Non_Exact","2622 BROOKLINE DR NW, HUNTSVILLE, AL, 35810",58116118,"R"
143963,"2622 BUFFALO RUN ROAD","BELLEFONTE","PA",16823,NA,NA,463,"2622 BUFFALO RUN ROAD, BELLEFONTE, PA, 16823","No_Match",NA,NA,NA,NA
143964,"2622 CORNER ROAD","WARRIOR","AL",35180,33.8185938280001,-86.9232579769999,464,"2622 CORNER ROAD, WARRIOR, AL, 35180","Match","Exact","2622 CORNER RD, WARRIOR, AL, 35180",627939027,"R"
143965,"2622 E 33RD ST","TULSA","OK",74105,36.11560867,-95.953054956,465,"2622 E 33RD ST, TULSA, OK, 74105","Match","Exact","2622 E 33RD ST, TULSA, OK, 74105",166443576,"R"
143966,"2622 E RIDGE CREEK RD","PHOENIX","AZ",85024,33.708403618,-112.024149283,466,"2622 E RIDGE CREEK RD, PHOENIX, AZ, 85024","Match","Exact","2622 E RIDGE CREEK RD, PHOENIX, AZ, 85024",633352967,"R"
143967,"2622 EAST 10TH AVENUE","LONG BEACH","CA",90804,33.7789675330001,-118.160844505,467,"2622 EAST 10TH AVENUE, LONG BEACH, CA, 90804","Match","Non_Exact","2622 E 10TH ST, LONG BEACH, CA, 90804",141701407,"R"
143968,"2622 EMERSON DR","FREDERICK","MD",21702,39.4448147410001,-77.447268739,468,"2622 EMERSON DR, FREDERICK, MD, 21702","Match","Exact","2622 EMERSON DR, FREDERICK, MD, 21702",636113667,"R"
143969,"2622 GRANDY AVE","NORFOLK","VA",23509,36.868381357,-76.250848579,469,"2622 GRANDY AVE, NORFOLK, VA, 23509","Match","Exact","2622 GRANDY AVE, NORFOLK, VA, 23509",122124372,"R"
143970,"2622 GREEN FALLS CT","SAN ANTONIO","TX",78258,29.6133111410001,-98.5355432009999,470,"2622 GREEN FALLS CT, SAN ANTONIO, TX, 78258","Match","Exact","2622 GREEN FALLS CT, SAN ANTONIO, TX, 78258",101588505,"R"
143971,"2622 MERCHANT DR","TRACY","CA",95377,37.736379104,-121.464652177,471,"2622 MERCHANT DR, TRACY, CA, 95377","Match","Exact","2622 MERCHANT DR, TRACY, CA, 95377",133917357,"R"
143972,"2622 NORTH 500 EAST","NORTH OGDEN","UT",84414,41.3061722190001,-111.965077927,472,"2622 NORTH 500 EAST, NORTH OGDEN, UT, 84414","Match","Exact","2622 N 500 E, NORTH OGDEN, UT, 84414",155693992,"R"
143973,"2622 NORTH CALIFORNIA AVENUE","CHICAGO","IL",60647,41.9294936790001,-87.697551048,473,"2622 NORTH CALIFORNIA AVENUE, CHICAGO, IL, 60647","Match","Exact","2622 N CALIFORNIA AVE, CHICAGO, IL, 60647",605215032,"L"
143974,"2622 OLD IOWA PARK RD","WICHITA FALLS","TX",76306,33.9280307430001,-98.519694352,474,"2622 OLD IOWA PARK RD, WICHITA FALLS, TX, 76306","Match","Exact","2622 IOWA PARK RD, WICHITA FALLS, TX, 76306",636338419,"R"
143975,"2622 ORANGE WAY","ANTIOCH","CA",94531,37.9566213470001,-121.778402996,475,"2622 ORANGE WAY, ANTIOCH, CA, 94531","Match","Exact","2622 ORANGE WAY, ANTIOCH, CA, 94531",192100288,"R"
143976,"2622 PERRY AVE","BREMERTON","WA",98310,47.5868347700001,-122.61348022,476,"2622 PERRY AVE, BREMERTON, WA, 98310","Match","Exact","2622 PERRY AVE, BREMERTON, WA, 98310",187643228,"R"
143977,"2622 PHEASANT RUN","JONESBORO","GA",30238,33.47576244,-84.370189269,477,"2622 PHEASANT RUN, JONESBORO, GA, 30238","Match","Exact","2622 PHEASANT RUN, JONESBORO, GA, 30238",23328198,"R"
143978,"2622 PHILLIP STREET","NEW ORLEANS","LA",70113,29.941750202,-90.088366014,478,"2622 PHILLIP STREET, NEW ORLEANS, LA, 70113","Match","Non_Exact","2622 PHILIP ST, NEW ORLEANS, LA, 70113",191712326,"L"
143979,"2622 PUMA ST NE","CANTON","OH",44721,40.891319283,-81.331609844,479,"2622 PUMA ST NE, CANTON, OH, 44721","Match","Exact","2622 PUMA ST NE, CANTON, OH, 44721",64694320,"L"
143980,"2622 RIDGEWATER CIRCLE","HENDERSON","NV",89074,36.0490706000001,-115.102610603,480,"2622 RIDGEWATER CIRCLE, HENDERSON, NV, 89074","Match","Exact","2622 RIDGEWATER CIR, HENDERSON, NV, 89074",201910813,"R"
143981,"2622 S BAYSHORE DR","SISTER BAY","WI",54234,45.1815198830001,-87.146664324,481,"2622 S BAYSHORE DR, SISTER BAY, WI, 54234","Match","Non_Exact","2622 S BAY SHORE DR, SISTER BAY, WI, 54234",649741673,"R"
143982,"2622 SOUTHERN BLVD SUITE 100","VIRGINIA BEACH","VA",23452,36.8390417460001,-76.0634208239999,482,"2622 SOUTHERN BLVD SUITE 100, VIRGINIA BEACH, VA, 23452","Match","Exact","2622 SOUTHERN BLVD, VA BCH, VA, 23452",122300051,"R"
143983,"2622 SPRINGCREST ST","CALDWELL","ID",83607,43.628801428,-116.666342307,483,"2622 SPRINGCREST ST, CALDWELL, ID, 83607","Match","Exact","2622 SPRINGCREST ST, CALDWELL, ID, 83607",647509991,"R"
143984,"2622 SW GLACIER PLACE STE 180","REDMOND","OR",97756,44.2698363850001,-121.198028815,484,"2622 SW GLACIER PLACE STE 180, REDMOND, OR, 97756","Match","Non_Exact","2622 SW GLACIER PL, REDMOND, OR, 97756",152571645,"R"
143985,"2622 THOMAS ST","LOS ANGELES","CA",90031,34.07658509,-118.205744503,485,"2622 THOMAS ST, LOS ANGELES, CA, 90031","Match","Exact","2622 THOMAS ST, LOS ANGELES, CA, 90031",647553035,"R"
143986,"2622 TRINITY PASS","SAN ANTONIO","TX",78261,29.699828106,-98.446131936,486,"2622 TRINITY PASS, SAN ANTONIO, TX, 78261","Match","Exact","2622 TRINITY PASS, SAN ANTONIO, TX, 78261",619980404,"R"
143987,"2622 VALLEYVIEW DRIVE","CHARLOTTE","NC",28212,35.2212395990001,-80.7428213589999,487,"2622 VALLEYVIEW DRIVE, CHARLOTTE, NC, 28212","Match","Exact","2622 VALLEYVIEW DR, CHARLOTTE, NC, 28212",652702845,"L"
143988,"2622 W 4050 S","ROY","UT",84067,41.189836246,-112.042775713,488,"2622 W 4050 S, ROY, UT, 84067","Match","Exact","2622 W 4050 S, ROY, UT, 84067",155715789,"L"
143989,"2622 W JACKSON BLVD","RIVERDALE","IL",60827,NA,NA,489,"2622 W JACKSON BLVD, RIVERDALE, IL, 60827","No_Match",NA,NA,NA,NA
143990,"2622 WOODLEY PL NW","WASHINGTON","DC",20008,38.9239939130001,-77.050548271,490,"2622 WOODLEY PL NW, WASHINGTON, DC, 20008","Match","Exact","2622 WOODLEY PL NW, WASHINGTON, DC, 20008",76222548,"L"
143991,"2622 WOODY CREEK COURT","CAMERON PARK","CA",95682,38.689691017,-121.00675706,491,"2622 WOODY CREEK COURT, CAMERON PARK, CA, 95682","Match","Exact","2622 WOODY CREEK CT, CAMERON PARK, CA, 95682",133039476,"R"
143992,"26222 HIGHWAY 149","CREEDE","CO",81130,37.8056778230001,-106.977089172,492,"26222 HIGHWAY 149, CREEDE, CO, 81130","Match","Non_Exact","26222 STATE HWY 149, CREEDE, CO, 81130",176946951,"L"
143993,"26222 HWY 149","CREEDE","CO",81130,37.8056778230001,-106.977089172,493,"26222 HWY 149, CREEDE, CO, 81130","Match","Non_Exact","26222 STATE HWY 149, CREEDE, CO, 81130",176946951,"L"
143994,"26224 SW 126 COURT","HOMESTEAD","FL",33032,25.523358198,-80.395448253,494,"26224 SW 126 COURT, HOMESTEAD, FL, 33032","Match","Exact","26224 SW 126TH CT, HOMESTEAD, FL, 33032",115991050,"R"
143995,"26225 US HWY 70 E","RUIDOSO DOWNS","NM",88346,NA,NA,495,"26225 US HWY 70 E, RUIDOSO DOWNS, NM, 88346","No_Match",NA,NA,NA,NA
143996,"26226 CECILE ST","DEARBORN HEIGHTS","MI",48127,42.3236179350001,-83.297407348,496,"26226 CECILE ST, DEARBORN HEIGHTS, MI, 48127","Match","Exact","26226 CECILE ST, DEARBORN HEIGHTS, MI, 48127",95432067,"R"
143997,"2623 125TH ST NE","RICE","MN",56367,45.750276365,-94.107018142,497,"2623 125TH ST NE, RICE, MN, 56367","Match","Exact","2623 125TH ST NE, RICE, MN, 56367",638527025,"L"
143998,"2623 ANNAPOLIS CIR","SAN BERNARDINO","CA",92408,34.0531763290001,-117.284575463,498,"2623 ANNAPOLIS CIR, SAN BERNARDINO, CA, 92408","Match","Exact","2623 ANNAPOLIS CIR, SAN BERNARDINO, CA, 92408",144659570,"L"
143999,"2623 ASHFIELD CT","ST AUGUSTINE","FL",32092,30.0549515750001,-81.527888054,499,"2623 ASHFIELD CT, ST AUGUSTINE, FL, 32092","Match","Exact","2623 ASHFIELD CT, SAINT AUGUSTINE, FL, 32092",639372590,"L"
144000,"2623 B REGENCY ROAD","LEXINGTON","KY",40503,37.9999750490001,-84.525268806,500,"2623 B REGENCY ROAD, LEXINGTON, KY, 40503","Match","Exact","2623 REGENCY RD, LEXINGTON, KY, 40503",31946799,"R"
