"ID","Address","City","State","Zip","lat","long","id","input_address","match_indicator","match_type","matched_address","tiger_line_id","tiger_side"
263001,"631 ROYAL TOWER WAY","CARY","NC",27513,35.7691028030001,-78.837645019,1,"631 ROYAL TOWER WAY, CARY, NC, 27513","Match","Exact","631 ROYAL TOWER WAY, CARY, NC, 27513",639840125,"L"
263002,"631 S B STREET","SAN MATEO","CA",94401,37.5632615280001,-122.319941243,2,"631 S B STREET, SAN MATEO, CA, 94401","Match","Exact","631 S B ST, SAN MATEO, CA, 94401",192378010,"L"
263003,"631 S WALNUT STREET","LA HABRA","CA",90631,33.9253030450001,-117.950462474,3,"631 S WALNUT STREET, LA HABRA, CA, 90631","Match","Exact","631 S WALNUT ST, LA HABRA, CA, 90631",144005336,"R"
263004,"631 SCOTT AVENUE","NILES","OH",44446,41.1752813460001,-80.7463744469999,4,"631 SCOTT AVENUE, NILES, OH, 44446","Match","Non_Exact","631 SCOTT AVE SE, NILES, OH, 44446",117409496,"L"
263005,"631 SEDAN PARK CT","SAINT LOUIS","MO",63125,38.5124023660001,-90.298154009,5,"631 SEDAN PARK CT, SAINT LOUIS, MO, 63125","Match","Exact","631 SEDAN PARK CT, SAINT LOUIS, MO, 63125",100164491,"L"
263006,"631 SOUTH LIMITS ROAD","ENDEAVOR","WI",53930,NA,NA,6,"631 SOUTH LIMITS ROAD, ENDEAVOR, WI, 53930","No_Match",NA,NA,NA,NA
263007,"631 SOUTHERN HIGH SCHOOL ROAD","GRAHAM","NC",27253,36.001088108,-79.407276168,7,"631 SOUTHERN HIGH SCHOOL ROAD, GRAHAM, NC, 27253","Match","Exact","631 SOUTHERN HIGH SCHOOL RD, GRAHAM, NC, 27253",71666541,"L"
263008,"631 ST ANDREWS BLVD","CHARLESTON","SC",29407,32.7851186710001,-79.9787392709999,8,"631 ST ANDREWS BLVD, CHARLESTON, SC, 29407","Match","Exact","631 SAINT ANDREWS BLVD, CHARLESTON, SC, 29407",108817253,"L"
263009,"631 SW 111TH LN APT 202","PEMBROKE PINES","FL",33025,26.002690554,-80.295735258,9,"631 SW 111TH LN APT 202, PEMBROKE PINES, FL, 33025","Match","Non_Exact","631 SW 111TH LN, PEMBROKE PINES, FL, 33025",114813486,"R"
263010,"631 SYLVAN COURT","BATAVIA","IL",60510,41.8447188230001,-88.287930229,10,"631 SYLVAN COURT, BATAVIA, IL, 60510","Match","Exact","631 SYLVAN CT, BATAVIA, IL, 60510",119512233,"R"
263011,"631 TENNESSEE ST SUITE 104","VALLEJO","CA",94590,38.109959249,-122.252519708,11,"631 TENNESSEE ST SUITE 104, VALLEJO, CA, 94590","Match","Exact","631 TENNESSEE ST, VALLEJO, CA, 94590",192527451,"R"
263012,"631 US HWY 1 STE 411","NORTH PALM BEACH","FL",33408,NA,NA,12,"631 US HWY 1 STE 411, NORTH PALM BEACH, FL, 33408","No_Match",NA,NA,NA,NA
263013,"631 VALLEY VIEW DRIVE","MESQUITE","NV",89027,36.8129627390001,-114.055913427,13,"631 VALLEY VIEW DRIVE, MESQUITE, NV, 89027","Match","Exact","631 VALLEY VIEW DR, MESQUITE, NV, 89027",201965983,"L"
263014,"631 VANDALIA AVENUE SUITE 2","BROOKLYN","NY",11239,40.657248646,-73.869756947,14,"631 VANDALIA AVENUE SUITE 2, BROOKLYN, NY, 11239","Match","Exact","631 VANDALIA AVE, BROOKLYN, NY, 11239",648691458,"L"
263015,"631 VANDALIA AVENUE","BROOKLYN","NY",11239,40.657248646,-73.869756947,15,"631 VANDALIA AVENUE, BROOKLYN, NY, 11239","Match","Exact","631 VANDALIA AVE, BROOKLYN, NY, 11239",648691458,"L"
263016,"631 W BELLEVIEW ST","WINONA","MN",55987,44.047972063,-91.656466338,16,"631 W BELLEVIEW ST, WINONA, MN, 55987","Match","Exact","631 W BELLEVIEW ST, WINONA, MN, 55987",31662883,"L"
263017,"631 W HORAH ST","SALISBURY","NC",28146,35.669515883,-80.4787706509999,17,"631 W HORAH ST, SALISBURY, NC, 28146","Match","Non_Exact","631 W HORAH ST, SALISBURY, NC, 28144",25268761,"L"
263018,"631 W KIOWA AVENUE","FORT MORGAN","CO",80701,40.2498947010001,-103.810286363,18,"631 W KIOWA AVENUE, FORT MORGAN, CO, 80701","Match","Exact","631 W KIOWA AVE, FORT MORGAN, CO, 80701",190148451,"R"
263019,"631 W MAIN PO BOX 326","VAN WERT","OH",45891,NA,NA,19,"631 W MAIN PO BOX 326, VAN WERT, OH, 45891","No_Match",NA,NA,NA,NA
263020,"631 W SPRUCE ST APT B","COMPTON","CA",90220,33.9026449350001,-118.234914741,20,"631 W SPRUCE ST APT B, COMPTON, CA, 90220","Match","Non_Exact","631 W SPRUCE ST, COMPTON, CA, 90220",141674997,"R"
263021,"631 WASHINGTON AVE","BOWLING GREEN","KY",42103,36.9614266090001,-86.408593416,21,"631 WASHINGTON AVE, BOWLING GREEN, KY, 42103","Match","Exact","631 WASHINGTON AVE, BOWLING GREEN, KY, 42103",624628143,"L"
263022,"631 WESTWIND DR","NORTH PALM BEACH","FL",33408,26.8166307290001,-80.0725081369999,22,"631 WESTWIND DR, NORTH PALM BEACH, FL, 33408","Match","Exact","631 WESTWIND DR, NORTH PALM BEACH, FL, 33408",115275293,"L"
263023,"631 WILKS AVENUE","ORLANDO","FL",32809,28.4742788720001,-81.3691041439999,23,"631 WILKS AVENUE, ORLANDO, FL, 32809","Match","Non_Exact","631 WILKES AVE, ORLANDO, FL, 32809",636728667,"L"
263024,"631 WOODSIDE HEIGHTS","CINCINNATI","OH",45217,39.1610810720001,-84.490697166,24,"631 WOODSIDE HEIGHTS, CINCINNATI, OH, 45217","Match","Exact","631 WOODSIDE HTS, CINCINNATI, OH, 45217",103925540,"R"
263025,"6310 160TH ST E","PUYALLUP","WA",98375,47.111033799,-122.345357381,25,"6310 160TH ST E, PUYALLUP, WA, 98375","Match","Exact","6310 160TH ST E, PUYALLUP, WA, 98375",184714364,"R"
263026,"6310 ANNA MILLS LANE","RICHMOND","TX",77469,29.5573978100001,-95.698165064,26,"6310 ANNA MILLS LANE, RICHMOND, TX, 77469","Match","Non_Exact","6310 ANNA MILLS CT, RICHMOND, TX, 77469",640064114,"R"
263027,"6310 BALLINA MEADOWS CT","KATY","TX",77449,NA,NA,27,"6310 BALLINA MEADOWS CT, KATY, TX, 77449","No_Match",NA,NA,NA,NA
263028,"6310 CLARK STATE RD","COLUMBUS","OH",43230,40.039789076,-82.82489828,28,"6310 CLARK STATE RD, COLUMBUS, OH, 43230","Match","Exact","6310 CLARK STATE RD, COLUMBUS, OH, 43230",218694283,"L"
263029,"6310 E 31ST STREET SUITE I","TULSA","OK",74135,36.118885978,-95.906328631,29,"6310 E 31ST STREET SUITE I, TULSA, OK, 74135","Match","Non_Exact","6310 E 31ST ST, TULSA, OK, 74135",166450881,"R"
263030,"6310 E ARABIAN WAY","PARADISE VALLEY","AZ",85253,33.5690083100001,-111.945777323,30,"6310 E ARABIAN WAY, PARADISE VALLEY, AZ, 85253","Match","Exact","6310 E ARABIAN WAY, PARADISE VALLEY, AZ, 85253",128221193,"L"
263031,"6310 EAST 129TH STREET","CROWN POINT","IN",46307,41.383675596,-87.262574564,31,"6310 EAST 129TH STREET, CROWN POINT, IN, 46307","Match","Non_Exact","6310 E 129TH AVE, CROWN POINT, IN, 46307",98442816,"R"
263032,"6310 EVERETT COURT","WESTERVILLE","OH",43082,40.1682911010001,-82.921698653,32,"6310 EVERETT COURT, WESTERVILLE, OH, 43082","Match","Exact","6310 EVERETT CT, WESTERVILLE, OH, 43082",213000959,"R"
263033,"6310 HALL POND CT","KATY","TX",77449,29.8684002110001,-95.7223846109999,33,"6310 HALL POND CT, KATY, TX, 77449","Match","Exact","6310 HALL POND CT, KATY, TX, 77449",624657931,"L"
263034,"6310 HAVENSPORT DR","APOLLO BEACH","FL",33572,27.7705637400001,-82.3782289379999,34,"6310 HAVENSPORT DR, APOLLO BEACH, FL, 33572","Match","Exact","6310 HAVENSPORT DR, APOLLO BEACH, FL, 33572",647444270,"L"
263035,"6310 JACKSON AVE","HAMMOND","IN",46324,41.598868329,-87.5137695509999,35,"6310 JACKSON AVE, HAMMOND, IN, 46324","Match","Exact","6310 JACKSON AVE, HAMMOND, IN, 46324",98417511,"R"
263036,"6310 KENNEDY BLVD W APT 1","WEST NEW YORK","NJ",7093,40.7940621230001,-74.018697156,36,"6310 KENNEDY BLVD W APT 1, WEST NEW YORK, NJ, 7093","Match","Non_Exact","6310 KENNEDY BLVD, WEST NEW YORK, NJ, 07093",59598524,"R"
263037,"6310 LAKEAIRES DRIVE","CUMMING","GA",30040,34.267262154,-84.140661225,37,"6310 LAKEAIRES DRIVE, CUMMING, GA, 30040","Match","Exact","6310 LAKEAIRES DR, CUMMING, GA, 30040",627583698,"R"
263038,"6310 MAGNOLIA TRAILS LN","GIBSONTON","FL",33534,27.8258753380001,-82.379800959,38,"6310 MAGNOLIA TRAILS LN, GIBSONTON, FL, 33534","Match","Exact","6310 MAGNOLIA TRAILS LN, GIBSONTON, FL, 33534",631874103,"R"
263039,"6310 MARIETTA AVE","PORTAGE","IN",46368,41.555936982,-87.170858164,39,"6310 MARIETTA AVE, PORTAGE, IN, 46368","Match","Exact","6310 MARIETTA AVE, PORTAGE, IN, 46368",119923135,"R"
263040,"6310 RAVENA RD","PLEASANT VALLEY","MO",64068,39.2098679320001,-94.478763521,40,"6310 RAVENA RD, PLEASANT VALLEY, MO, 64068","Match","Exact","6310 RAVENA RD, PLEASANT VLY, MO, 64068",89761636,"L"
263041,"6310 ROCK CREEK RD","TULLAHOMA","TN",37388,35.3173978090001,-86.200900213,41,"6310 ROCK CREEK RD, TULLAHOMA, TN, 37388","Match","Exact","6310 ROCK CREEK RD, TULLAHOMA, TN, 37388",57982788,"R"
263042,"6310 ROYAL HUNT DRIVE APT104","TAMPA","FL",33625,28.059475379,-82.552951638,42,"6310 ROYAL HUNT DRIVE APT104, TAMPA, FL, 33625","Match","Non_Exact","6310 ROYAL HUNT DR, TAMPA, FL, 33635",104675145,"L"
263043,"6310 SE CONVENIENCE BLVD","ANKENY","IA",50021,NA,NA,43,"6310 SE CONVENIENCE BLVD, ANKENY, IA, 50021","No_Match",NA,NA,NA,NA
263044,"6310 SW 18TH TERRACE","MIAMI","FL",33155,25.7533455490001,-80.298666805,44,"6310 SW 18TH TERRACE, MIAMI, FL, 33155","Match","Exact","6310 SW 18TH TER, MIAMI, FL, 33155",115977441,"L"
263045,"6310 TIMBER VIEW DRIVE EAST","LANSING","MI",48823,42.7788547660001,-84.436323569,45,"6310 TIMBER VIEW DRIVE EAST, LANSING, MI, 48823","Match","Non_Exact","6310 TIMBER VIEW DR, EAST LANSING, MI, 48823",647606601,"L"
263046,"6311 ABBEY DRIVE","COLUMBUS","GA",31909,32.5386727590001,-84.8916437239999,46,"6311 ABBEY DRIVE, COLUMBUS, GA, 31909","Match","Exact","6311 ABBEY DR, COLUMBUS, GA, 31909",98951866,"R"
263047,"6311 ALONZO DRIVE","INDIANAPOLIS","IN",46217,39.6740998970001,-86.1849531939999,47,"6311 ALONZO DRIVE, INDIANAPOLIS, IN, 46217","Match","Non_Exact","6311 ALONZO PL, INDIANAPOLIS, IN, 46217",627094060,"R"
263048,"6311 BERYL ROAD","ALEXANDRIA","VA",22312,38.7995181210001,-77.153584968,48,"6311 BERYL ROAD, ALEXANDRIA, VA, 22312","Match","Exact","6311 BERYL RD, ALEXANDRIA, VA, 22312",76023519,"L"
263049,"6311 BEVERLYHILL ST UNIT 110","HOUSTON","TX",77057,29.730578962,-95.492554699,49,"6311 BEVERLYHILL ST UNIT 110, HOUSTON, TX, 77057","Match","Exact","6311 BEVERLYHILL ST, HOUSTON, TX, 77057",96620132,"L"
263050,"6311 BLACKWELLS HOLLOW ROAD","CROZET","VA",22932,38.2068918900001,-78.658066063,50,"6311 BLACKWELLS HOLLOW ROAD, CROZET, VA, 22932","Match","Exact","6311 BLACKWELLS HOLLOW RD, CROZET, VA, 22932",221718219,"R"
263051,"6311 CATHARPIN ROAD","GAINESVILLE","VA",20155,38.820615285,-77.602585574,51,"6311 CATHARPIN ROAD, GAINESVILLE, VA, 20155","Match","Exact","6311 CATHARPIN RD, GAINESVILLE, VA, 20155",635411698,"L"
263052,"6311 CHERRY RUN","HOUSTON","TX",77084,29.86614968,-95.629461098,52,"6311 CHERRY RUN, HOUSTON, TX, 77084","Match","Exact","6311 CHERRY RUN, HOUSTON, TX, 77084",96292878,"R"
263053,"6311 E 109TH TERRACE","KANSAS CITY","MO",64134,38.9263587300001,-94.516448189,53,"6311 E 109TH TERRACE, KANSAS CITY, MO, 64134","Match","Exact","6311 E 109TH TER, KANSAS CITY, MO, 64134",91466002,"R"
263054,"6311 E 9TH AVE","ANCHORAGE","AK",99504,61.213829306,-149.762649832,54,"6311 E 9TH AVE, ANCHORAGE, AK, 99504","Match","Exact","6311 E 9TH AVE, ANCHORAGE, AK, 99504",190802788,"L"
263055,"6311 FRANCIS ST APT A","PALM BEACH GARDENS","FL",33458,26.891976636,-80.131904433,55,"6311 FRANCIS ST APT A, PALM BEACH GARDENS, FL, 33458","Match","Non_Exact","6311 FRANCIS ST, JUPITER, FL, 33458",636396678,"L"
263056,"6311 GREENVILLE LOOP RD","WILMINGTON","NC",28409,34.1978486190001,-77.841734273,56,"6311 GREENVILLE LOOP RD, WILMINGTON, NC, 28409","Match","Exact","6311 GREENVILLE LOOP RD, WILMINGTON, NC, 28409",152761170,"L"
263057,"6311 GRIMSBY CT","BOWIE","MD",20721,38.9761880020001,-76.769329722,57,"6311 GRIMSBY CT, BOWIE, MD, 20721","Match","Non_Exact","6311 GRIMSBY CT, BOWIE, MD, 20720",76340300,"L"
263058,"6311 GULF FREEWAY APT 1202","HOUSTON","TX",77023,29.7114272170001,-95.309116353,58,"6311 GULF FREEWAY APT 1202, HOUSTON, TX, 77023","Match","Exact","6311 GULF FWY, HOUSTON, TX, 77023",96610642,"L"
263059,"6311 INDUCON CORPORATE DRIVE","SANBORN","NY",14132,43.1208062810001,-78.9209157299999,59,"6311 INDUCON CORPORATE DRIVE, SANBORN, NY, 14132","Match","Exact","6311 INDUCON CORPORATE DR, SANBORN, NY, 14132",48697557,"L"
263060,"6311 LANGWOOD BLVD","FORT WAYNE","IN",46835,41.146751415,-85.062123309,60,"6311 LANGWOOD BLVD, FORT WAYNE, IN, 46835","Match","Exact","6311 LANGWOOD BLVD, FORT WAYNE, IN, 46835",606541495,"R"
263061,"6311 MID-PINES COURT","GROVE CITY","OH",43123,39.8816098240001,-83.162226515,61,"6311 MID-PINES COURT, GROVE CITY, OH, 43123","Match","Non_Exact","6311 MID PINES CT, GROVE CITY, OH, 43123",218641078,"L"
263062,"6311 MONTEREY ROAD APT 114","LOS ANGELES","CA",90042,34.108062343,-118.182461769,62,"6311 MONTEREY ROAD APT 114, LOS ANGELES, CA, 90042","Match","Exact","6311 MONTEREY RD, LOS ANGELES, CA, 90042",623911072,"L"
263063,"6311 N 18TH STREET","PHILADELPHIA","PA",19141,40.0502331690001,-75.14881582,63,"6311 N 18TH STREET, PHILADELPHIA, PA, 19141","Match","Exact","6311 N 18TH ST, PHILADELPHIA, PA, 19141",131413567,"R"
263064,"6311 N 47TH PL","PARADISE VALLEY","AZ",85253,33.5267022990001,-111.979323299,64,"6311 N 47TH PL, PARADISE VALLEY, AZ, 85253","Match","Exact","6311 N 47TH PL, PARADISE VALLEY, AZ, 85253",128219997,"R"
263065,"6311 N BALES AVE","KANSAS CITY","MO",64119,39.2086355590001,-94.5390067549999,65,"6311 N BALES AVE, KANSAS CITY, MO, 64119","Match","Exact","6311 N BALES AVE, KANSAS CITY, MO, 64119",89758112,"R"
263066,"6311 NORTH FRESNO STREET SUITE 102","FRESNO","CA",93710,36.828550899,-119.781310044,66,"6311 NORTH FRESNO STREET SUITE 102, FRESNO, CA, 93710","Match","Exact","6311 N FRESNO ST, FRESNO, CA, 93710",197573284,"L"
263067,"6311 RAVINNIA DR","ORLANDO","FL",32809,28.4666952760001,-81.43542403,67,"6311 RAVINNIA DR, ORLANDO, FL, 32809","Match","Exact","6311 RAVINNIA DR, ORLANDO, FL, 32809",94424150,"L"
263068,"6311 SAMPRAS ACE COURT","SPRING","TX",77379,30.01702756,-95.50156409,68,"6311 SAMPRAS ACE COURT, SPRING, TX, 77379","Match","Exact","6311 SAMPRAS ACE CT, SPRING, TX, 77379",96166027,"R"
263069,"6311 SHANANDOAH LANE","OLIVE BRANCH","MS",38654,34.9507901440001,-89.870239404,69,"6311 SHANANDOAH LANE, OLIVE BRANCH, MS, 38654","Match","Non_Exact","6311 SHENANDOAH LN, OLIVE BRANCH, MS, 38654",91841089,"R"
263070,"6311 VAN NUYS BLV UNIT 474","VAN NUYS","CA",91401,34.1850043600001,-118.448719492,70,"6311 VAN NUYS BLV UNIT 474, VAN NUYS, CA, 91401","Match","Exact","6311 VAN NUYS BLVD, VAN NUYS, CA, 91401",141561058,"L"
263071,"6311 WESTBURY DR","SALISBURY","MD",21801,38.3667860360001,-75.665091509,71,"6311 WESTBURY DR, SALISBURY, MD, 21801","Match","Exact","6311 WESTBURY DR, SALISBURY, MD, 21801",114488800,"R"
263072,"6311 WHISPERING BROOK COURT","CHARLOTTE","NC",28216,35.3008184240001,-80.9050825739999,72,"6311 WHISPERING BROOK COURT, CHARLOTTE, NC, 28216","Match","Exact","6311 WHISPERING BROOK CT, CHARLOTTE, NC, 28216",70554157,"L"
263073,"6311 WOODLAND AVE  SUITE 416","KANSAS CITY","MO",64131,39.0119201460001,-94.564811745,73,"6311 WOODLAND AVE  SUITE 416, KANSAS CITY, MO, 64131","Match","Exact","6311 WOODLAND AVE, KANSAS CITY, MO, 64131",652558201,"L"
263074,"6311","LANHAM","MD",20706,NA,NA,74,"6311, LANHAM, MD, 20706","No_Match",NA,NA,NA,NA
263075,"6311A PANDA COURT","WALDORF","MD",20603,38.6248397140001,-76.9528899269999,75,"6311A PANDA COURT, WALDORF, MD, 20603","Match","Exact","6311 PANDA CT, WALDORF, MD, 20603",635831339,"R"
263076,"6312 BOBBY JONES LANE","WOODRIDGE","IL",60517,41.7662842300001,-88.0785690119999,76,"6312 BOBBY JONES LANE, WOODRIDGE, IL, 60517","Match","Exact","6312 BOBBY JONES LN, WOODRIDGE, IL, 60517",112679625,"L"
263077,"6312 BOLLINGER RD","SAN JOSE","CA",95129,37.3102702750001,-122.013993705,77,"6312 BOLLINGER RD, SAN JOSE, CA, 95129","Match","Exact","6312 BOLLINGER RD, SAN JOSE, CA, 95129",638321249,"L"
263078,"6312 BURNT MOUNTAIN PATH","COLUMBIA","MD",21045,39.1966508080001,-76.802821762,78,"6312 BURNT MOUNTAIN PATH, COLUMBIA, MD, 21045","Match","Exact","6312 BURNT MOUNTAIN PATH, COLUMBIA, MD, 21045",158934689,"R"
263079,"6312 CHICKERING WOODS DR","NASHVILLE","TN",37215,36.046538035,-86.867777711,79,"6312 CHICKERING WOODS DR, NASHVILLE, TN, 37215","Match","Exact","6312 CHICKERING WOODS DR, NASHVILLE, TN, 37215",642557569,"R"
263080,"6312 FLY ROAD","EAST SYRACUSE","NY",13057,43.076522233,-76.058166393,80,"6312 FLY ROAD, EAST SYRACUSE, NY, 13057","Match","Exact","6312 FLY RD, EAST SYRACUSE, NY, 13057",46606185,"R"
263081,"6312 GROSSE POINT DRIVE","COLUMBIA","SC",29206,34.0360629040001,-80.942165702,81,"6312 GROSSE POINT DRIVE, COLUMBIA, SC, 29206","Match","Exact","6312 GROSSE POINT DR, COLUMBIA, SC, 29206",71861682,"R"
263082,"6312 LAVANO DR","FORT WORTH","TX",76134,32.653766982,-97.344811185,82,"6312 LAVANO DR, FORT WORTH, TX, 76134","Match","Exact","6312 LAVANO DR, FORT WORTH, TX, 76134",101894245,"R"
263083,"6312 N COLLEGE ST","OKLAHOMA CITY","OK",73122,35.536082046,-97.629159605,83,"6312 N COLLEGE ST, OKLAHOMA CITY, OK, 73122","Match","Exact","6312 N COLLEGE ST, OKLAHOMA CITY, OK, 73122",100388494,"R"
263084,"6312 PROVINCES ST","FORT WORTH","TX",76179,32.8526693160001,-97.402911728,84,"6312 PROVINCES ST, FORT WORTH, TX, 76179","Match","Exact","6312 PROVINCES ST, FORT WORTH, TX, 76179",619869020,"R"
263085,"6312 SEVEN CORNERS CENTER STE 303","FALLS CHURCH","VA",22044,38.868323677,-77.151231101,85,"6312 SEVEN CORNERS CENTER STE 303, FALLS CHURCH, VA, 22044","Match","Exact","6312 SEVEN CORNERS CENTER, FALLS CHURCH, VA, 22044",76045951,"R"
263086,"6312 SILO ROAD","ARLINGTON","TX",76002,32.643651828,-97.1022523089999,86,"6312 SILO ROAD, ARLINGTON, TX, 76002","Match","Exact","6312 SILO RD, ARLINGTON, TX, 76002",101911864,"L"
263087,"6312 SUNHIGH PL","COLUMBIA","MD",21045,39.1986719830001,-76.8309833289999,87,"6312 SUNHIGH PL, COLUMBIA, MD, 21045","Match","Exact","6312 SUNHIGH PL, COLUMBIA, MD, 21045",158925934,"R"
263088,"6312 SW CAPITOL HWY      NUM 411","PORTLAND","OR",97239,45.4780370440001,-122.697221045,88,"6312 SW CAPITOL HWY      NUM 411, PORTLAND, OR, 97239","Match","Non_Exact","6312 SW CAPITOL HWY, PORTLAND, OR, 97239",157501347,"L"
263089,"6313 35TH AVENUE WEST","BRADENTON","FL",34209,27.4710983680001,-82.624231045,89,"6313 35TH AVENUE WEST, BRADENTON, FL, 34209","Match","Exact","6313 35TH AVE W, BRADENTON, FL, 34209",16232883,"R"
263090,"6313 BEAVER CREEK RD","OKLAHOMA CITY","OK",73162,35.5839878310001,-97.627319353,90,"6313 BEAVER CREEK RD, OKLAHOMA CITY, OK, 73162","Match","Exact","6313 BEAVER CREEK RD, OKLAHOMA CITY, OK, 73162",100387502,"L"
263091,"6313 BENDING RIVER ROAD","BARTLETT","TN",38135,35.2675797590001,-89.852790005,91,"6313 BENDING RIVER ROAD, BARTLETT, TN, 38135","Match","Exact","6313 BENDING RIVER RD, BARTLETT, TN, 38135",617980980,"L"
263092,"6313 CHATHAM RD","OKLAHOMA CITY","OK",73132,35.5618943800001,-97.626509976,92,"6313 CHATHAM RD, OKLAHOMA CITY, OK, 73132","Match","Exact","6313 CHATHAM RD, OKLAHOMA CITY, OK, 73132",100388131,"R"
263093,"6313 DOWNEAST DR","FORT WORTH","TX",76179,32.8530071600001,-97.3940064989999,93,"6313 DOWNEAST DR, FORT WORTH, TX, 76179","Match","Exact","6313 DOWNEAST DR, FORT WORTH, TX, 76179",624796250,"R"
263094,"6313 ESTATE WINTBERG","ST. THOMAS","VI",802,NA,NA,94,"6313 ESTATE WINTBERG, ST. THOMAS, VI, 802","No_Match",NA,NA,NA,NA
263095,"6313 GRAND VALLEY TRAIL","RIVERSIDE","CA",92509,33.9739936080001,-117.452332835,95,"6313 GRAND VALLEY TRAIL, RIVERSIDE, CA, 92509","Match","Exact","6313 GRAND VALLEY TRL, RIVERSIDE, CA, 92509",194738719,"L"
263096,"6313 GREEN VALLEY LANE","LOCKPORT","NY",14094,43.1196003910001,-78.675214706,96,"6313 GREEN VALLEY LANE, LOCKPORT, NY, 14094","Match","Exact","6313 GREEN VALLEY LN, LOCKPORT, NY, 14094",633570504,"R"
263097,"6313 HOLLY TRAIL","GLOUCESTER","VA",23061,37.555655394,-76.532700773,97,"6313 HOLLY TRAIL, GLOUCESTER, VA, 23061","Match","Exact","6313 HOLLY TRL, GLOUCESTER, VA, 23061",168217799,"R"
263098,"6313 JAMESTOWN CT APT B","EVANSVILLE","IN",47715,37.9763595690001,-87.475539842,98,"6313 JAMESTOWN CT APT B, EVANSVILLE, IN, 47715","Match","Exact","6313 JAMESTOWN CT, EVANSVILLE, IN, 47715",39796015,"L"
263099,"6313 LA TIJERA BLVD","LOS ANGELES","CA",90056,33.98209454,-118.366923192,99,"6313 LA TIJERA BLVD, LOS ANGELES, CA, 90056","Match","Non_Exact","6313 S LA TIJERA BLVD, LOS ANGELES, CA, 90056",141818384,"R"
263100,"6313 N LAMBERT STREET","PHILADELPHIA","PA",19138,40.050722271,-75.154595049,100,"6313 N LAMBERT STREET, PHILADELPHIA, PA, 19138","Match","Exact","6313 N LAMBERT ST, PHILADELPHIA, PA, 19138",131413324,"R"
263101,"6313 OCEAN AVE NORTH","ARVERNE","NY",11692,40.5890236010001,-73.792198078,101,"6313 OCEAN AVE NORTH, ARVERNE, NY, 11692","Match","Non_Exact","6313 OCEAN AVE S, ARVERNE, NY, 11692",648100782,"R"
263102,"6313 PRESTON RD SUITE 200","PLANO","TX",75024,NA,NA,102,"6313 PRESTON RD SUITE 200, PLANO, TX, 75024","No_Match",NA,NA,NA,NA
263103,"6313 RING DRIVE","SACRAMNENTO","CA",95824,38.5118564860001,-121.422371075,103,"6313 RING DRIVE, SACRAMNENTO, CA, 95824","Match","Non_Exact","6313 RING DR, SACRAMENTO, CA, 95824",133337218,"L"
263104,"6313 S BOWIE ST","AMARILLO","TX",79118,35.1440529390001,-101.858195587,104,"6313 S BOWIE ST, AMARILLO, TX, 79118","Match","Exact","6313 BOWIE ST, AMARILLO, TX, 79118",635387964,"L"
263105,"6313 SAUK TRAIL","SALINE","MI",48176,42.195063804,-83.70449303,105,"6313 SAUK TRAIL, SALINE, MI, 48176","Match","Exact","6313 SAUK TRL, SALINE, MI, 48176",26031593,"L"
263106,"6313 SEABISCUIT PL","MOORPARK","CA",93021,34.2924511190001,-118.915349502,106,"6313 SEABISCUIT PL, MOORPARK, CA, 93021","Match","Exact","6313 SEABISCUIT PL, MOORPARK, CA, 93021",651671981,"R"
263107,"6313 WILDGROVE DRIVE","ANTIOCH","TN",37013,36.030985344,-86.581355749,107,"6313 WILDGROVE DRIVE, ANTIOCH, TN, 37013","Match","Exact","6313 WILDGROVE DR, ANTIOCH, TN, 37013",97213463,"L"
263108,"6314 108TH AVE NE","KIRKLAND","WA",98033,47.6634603420001,-122.196214004,108,"6314 108TH AVE NE, KIRKLAND, WA, 98033","Match","Exact","6314 108TH AVE NE, KIRKLAND, WA, 98033",650847049,"R"
263109,"6314 BAYONNE DRIVE","SPRING","TX",77389,30.102179773,-95.516539926,109,"6314 BAYONNE DRIVE, SPRING, TX, 77389","Match","Exact","6314 BAYONNE DR, SPRING, TX, 77389",96006722,"L"
263110,"6314 FAIRDALE DRIVE","CAMBRIDGE","OH",43725,40.0141641540001,-81.623260306,110,"6314 FAIRDALE DRIVE, CAMBRIDGE, OH, 43725","Match","Exact","6314 FAIRDALE DR, CAMBRIDGE, OH, 43725",37650392,"R"
263111,"6314 HADDOCK COURT","HOUSTON","TX",77041,29.863777199,-95.612056138,111,"6314 HADDOCK COURT, HOUSTON, TX, 77041","Match","Exact","6314 HADDOCK CT, HOUSTON, TX, 77041",96557082,"R"
263112,"6314 HIRONDEL ST","HOUSTON","TX",77087,29.658996325,-95.313755135,112,"6314 HIRONDEL ST, HOUSTON, TX, 77087","Match","Exact","6314 HIRONDEL ST, HOUSTON, TX, 77087",96091568,"R"
263113,"6314 LANGDON LN","LANHAM","MD",20706,38.976143447,-76.832710467,113,"6314 LANGDON LN, LANHAM, MD, 20706","Match","Exact","6314 LANGDON LN, LANHAM, MD, 20706",76384786,"L"
263114,"6314 N PINEGROVE DRIVE","COEUR D ALENE","ID",83815,NA,NA,114,"6314 N PINEGROVE DRIVE, COEUR D ALENE, ID, 83815","Tie",NA,NA,NA,NA
263115,"6314 OAKLEAF RD","DALLAS","TX",75248,32.9651290150001,-96.796934802,115,"6314 OAKLEAF RD, DALLAS, TX, 75248","Match","Exact","6314 OAKLEAF RD, DALLAS, TX, 75248",102899932,"R"
263116,"6314 ODANA RD STE 14","MADISON","WI",53719,43.053685493,-89.4884611159999,116,"6314 ODANA RD STE 14, MADISON, WI, 53719","Match","Exact","6314 ODANA RD, MADISON, WI, 53719",635874241,"R"
263117,"6314 POTRERO DRIVE","NEWARK","CA",94560,NA,NA,117,"6314 POTRERO DRIVE, NEWARK, CA, 94560","No_Match",NA,NA,NA,NA
263118,"6314 SANTO PLACE","CAPITOL HEIGHTS","MD",20743,38.8794348120001,-76.898470937,118,"6314 SANTO PLACE, CAPITOL HEIGHTS, MD, 20743","Match","Exact","6314 SANTO PL, CAPITOL HEIGHTS, MD, 20743",640253704,"L"
263119,"6314 SMOOTH PLAIN AVE","LAS VEGAS","NV",89139,36.055947943,-115.229736817,119,"6314 SMOOTH PLAIN AVE, LAS VEGAS, NV, 89139","Match","Exact","6314 SMOOTH PLAIN AVE, LAS VEGAS, NV, 89139",618035885,"R"
263120,"6314 WAGNER WAY","SUGAR LAND","TX",77479,29.599131033,-95.665658196,120,"6314 WAGNER WAY, SUGAR LAND, TX, 77479","Match","Exact","6314 WAGNER WAY, SUGAR LAND, TX, 77479",78289223,"L"
263121,"6315 36TH AVE SW","SEATTLE","WA",98126,47.5462706480001,-122.377764485,121,"6315 36TH AVE SW, SEATTLE, WA, 98126","Match","Exact","6315 36TH AVE SW, SEATTLE, WA, 98126",186661724,"R"
263122,"6315 69TH DR NE","MARYSVILLE","WA",98270,48.0532582800001,-122.137444368,122,"6315 69TH DR NE, MARYSVILLE, WA, 98270","Match","Exact","6315 69TH DR NE, MARYSVILLE, WA, 98270",187799022,"R"
263123,"6315 BEECHFIELD DR","LANSING","MI",48911,42.6658544650001,-84.532390037,123,"6315 BEECHFIELD DR, LANSING, MI, 48911","Match","Exact","6315 BEECHFIELD DR, LANSING, MI, 48911",17513802,"L"
263124,"6315 BURDOCK DR","SANTA FE","TX",77510,29.3524901320001,-95.095971709,124,"6315 BURDOCK DR, SANTA FE, TX, 77510","Match","Exact","6315 BURDOCK DR, SANTA FE, TX, 77510",96684170,"L"
263125,"6315 CAMPBELL ROAD APT308","DALLAS","TX",75248,32.9791467740001,-96.798072962,125,"6315 CAMPBELL ROAD APT308, DALLAS, TX, 75248","Match","Exact","6315 CAMPBELL RD, DALLAS, TX, 75248",103274272,"L"
263126,"6315 CANAL BLVD","NEW ORLEANS","LA",70124,30.0052284000001,-90.107755466,126,"6315 CANAL BLVD, NEW ORLEANS, LA, 70124","Match","Exact","6315 CANAL BLVD, NEW ORLEANS, LA, 70124",191702954,"R"
263127,"6315 EAST THUNDERBIRD ROAD","SCOTTSDALE","AZ",85254,33.6113647610001,-111.944664607,127,"6315 EAST THUNDERBIRD ROAD, SCOTTSDALE, AZ, 85254","Match","Exact","6315 E THUNDERBIRD RD, SCOTTSDALE, AZ, 85254",128840192,"R"
263128,"6315 FORBES AVENUE 212","PITTSBURGH","PA",15217,40.4380465090001,-79.9180854849999,128,"6315 FORBES AVENUE 212, PITTSBURGH, PA, 15217","Match","Exact","6315 FORBES AVE, PITTSBURGH, PA, 15217",51652148,"L"
263129,"6315 FOUNTAIN SQUARE DRIVE","CITRUS HEIGHTS","CA",95621,38.6809382180001,-121.298034182,129,"6315 FOUNTAIN SQUARE DRIVE, CITRUS HEIGHTS, CA, 95621","Match","Exact","6315 FOUNTAIN SQUARE DR, CITRUS HEIGHTS, CA, 95621",133385363,"L"
263130,"6315 GROFF ST 1","FORT HOOD","TX",76544,31.1325030740001,-97.757269009,130,"6315 GROFF ST 1, FORT HOOD, TX, 76544","Match","Exact","6315 GROFF ST, FORT HOOD, TX, 76544",146136987,"R"
263131,"6315 HILLSIDE COURT SUITE D","COLUMBIA","MD",21046,39.195355577,-76.8539460919999,131,"6315 HILLSIDE COURT SUITE D, COLUMBIA, MD, 21046","Match","Exact","6315 HILLSIDE CT, COLUMBIA, MD, 21046",158932782,"L"
263132,"6315 LAUREL STREET","NEW ORLEANS","LA",70118,29.92106391,-90.1270222799999,132,"6315 LAUREL STREET, NEW ORLEANS, LA, 70118","Match","Exact","6315 LAUREL ST, NEW ORLEANS, LA, 70118",191702398,"R"
263133,"6315 LAVER LOVE DRIVE","SPRING","TX",77379,30.018126624,-95.505114546,133,"6315 LAVER LOVE DRIVE, SPRING, TX, 77379","Match","Exact","6315 LAVER LOVE DR, SPRING, TX, 77379",96162278,"R"
263134,"6315 MILL POINT CIRCLE","DALLAS","TX",75248,32.9827840180001,-96.79951269,134,"6315 MILL POINT CIRCLE, DALLAS, TX, 75248","Match","Exact","6315 MILL POINT CIR, DALLAS, TX, 75248",102895984,"L"
263135,"6315 OLD HARRISON LANE","FORT SMITH","AR",72916,NA,NA,135,"6315 OLD HARRISON LANE, FORT SMITH, AR, 72916","No_Match",NA,NA,NA,NA
263136,"6315 PENN AVE S","RICHFIELD","MN",55423,44.8885660620001,-93.3086456029999,136,"6315 PENN AVE S, RICHFIELD, MN, 55423","Match","Exact","6315 PENN AVE S, RICHFIELD, MN, 55423",43629878,"L"
263137,"6315 RIDGE FOREST DR","SAN ANTONIO","TX",78233,29.5757754310001,-98.3647372789999,137,"6315 RIDGE FOREST DR, SAN ANTONIO, TX, 78233","Match","Exact","6315 RIDGE FOREST DR, SAN ANTONIO, TX, 78233",101501463,"L"
263138,"6315 S ARROWHEAD LAKE DRIVE","COLUMBIA","MO",65203,38.8781601530001,-92.391326219,138,"6315 S ARROWHEAD LAKE DRIVE, COLUMBIA, MO, 65203","Match","Exact","6315 ARROWHEAD LAKE DR, COLUMBIA, MO, 65203",23500688,"R"
263139,"6315 SAINT ANDREWS DRIVE","STOCKTON","CA",95219,37.9772867090001,-121.364855911,139,"6315 SAINT ANDREWS DRIVE, STOCKTON, CA, 95219","Match","Exact","6315 SAINT ANDREWS DR, STOCKTON, CA, 95219",133878657,"L"
263140,"6315 SPRING HILL DR","OLIVE BRANCH","MS",38654,34.9204938870001,-89.8826561549999,140,"6315 SPRING HILL DR, OLIVE BRANCH, MS, 38654","Match","Exact","6315 SPRING HILL DR, OLIVE BRANCH, MS, 38654",91831406,"L"
263141,"6315 VALLEY VIEW LANE","LONG GROVE","IL",60047,42.2142876550001,-88.007592828,141,"6315 VALLEY VIEW LANE, LONG GROVE, IL, 60047","Match","Exact","6315 VALLEY VIEW LN, LONG GROVE, IL, 60047",119743562,"L"
263142,"6315 VINE ST REAR 3","CINCINNATI","OH",45216,NA,NA,142,"6315 VINE ST REAR 3, CINCINNATI, OH, 45216","No_Match",NA,NA,NA,NA
263143,"6315 WALDRON AVE","PITTSBURGH","PA",15217,40.4316749870001,-79.917512947,143,"6315 WALDRON AVE, PITTSBURGH, PA, 15217","Match","Non_Exact","6315 WALDRON ST, PITTSBURGH, PA, 15217",51652302,"L"
263144,"6315 WATERMAN AVENUE","SAINT LOUIS","MO",63130,38.651291015,-90.303334112,144,"6315 WATERMAN AVENUE, SAINT LOUIS, MO, 63130","Match","Exact","6315 WATERMAN AVE, SAINT LOUIS, MO, 63130",100153299,"R"
263145,"6316 BUSHNELL RD","CONNEAUT","OH",44030,41.8628938960001,-80.5567428909999,145,"6316 BUSHNELL RD, CONNEAUT, OH, 44030","Match","Exact","6316 BUSHNELL RD, CONNEAUT, OH, 44030",117327850,"R"
263146,"6316 CARRIZO DRIVE","GRANBURY","TX",76049,32.436507641,-97.690214483,146,"6316 CARRIZO DRIVE, GRANBURY, TX, 76049","Match","Exact","6316 CARRIZO DR, GRANBURY, TX, 76049",158791324,"L"
263147,"6316 CONSTITUTION AVE NE","ALBUQUERQUE","NM",87110,35.0946455650001,-106.573934511,147,"6316 CONSTITUTION AVE NE, ALBUQUERQUE, NM, 87110","Match","Exact","6316 CONSTITUTION AVE NE, ALBUQUERQUE, NM, 87110",206716689,"R"
263148,"6316 DEERFIELD AVE","SAN GABRIEL","CA",91775,34.11389575,-118.084139864,148,"6316 DEERFIELD AVE, SAN GABRIEL, CA, 91775","Match","Non_Exact","6316 N DEERFIELD AVE, SAN GABRIEL, CA, 91775",141634645,"R"
263149,"6316 FREMONT ROAD","EAST SYRACUSE","NY",13057,43.077478339,-76.0282271689999,149,"6316 FREMONT ROAD, EAST SYRACUSE, NY, 13057","Match","Exact","6316 FREMONT RD, EAST SYRACUSE, NY, 13057",640508606,"R"
263150,"6316 GARDEN VIEW LANE","MATTESON","IL",60443,41.5130829130001,-87.768816976,150,"6316 GARDEN VIEW LANE, MATTESON, IL, 60443","Match","Exact","6316 GARDEN VIEW LN, MATTESON, IL, 60443",606996091,"R"
263151,"6316 GERANIUM CT","WESTMINSTER","CA",92683,33.75418144,-118.018490676,151,"6316 GERANIUM CT, WESTMINSTER, CA, 92683","Match","Exact","6316 GERANIUM CT, WESTMINSTER, CA, 92683",651324879,"L"
263152,"6316 MAISON PRIVEE CV","MEMPHIS","TN",38120,35.1074871100001,-89.852410998,152,"6316 MAISON PRIVEE CV, MEMPHIS, TN, 38120","Match","Exact","6316 MAISON PRIVEE COVE, MEMPHIS, TN, 38120",619965064,"L"
263153,"6316 OLD MILL FARM DRIVE","WENDELL","NC",27591,35.8215558530001,-78.409325339,153,"6316 OLD MILL FARM DRIVE, WENDELL, NC, 27591","Match","Exact","6316 OLD MILL FARM DR, WENDELL, NC, 27591",612829592,"L"
263154,"6316 OXON HILL RD NUMBER 502","OXON HILL","MD",20745,NA,NA,154,"6316 OXON HILL RD NUMBER 502, OXON HILL, MD, 20745","No_Match",NA,NA,NA,NA
263155,"6316 OXON HILL ROAD UNIT 301","OXON HILL","MD",20745,NA,NA,155,"6316 OXON HILL ROAD UNIT 301, OXON HILL, MD, 20745","No_Match",NA,NA,NA,NA
263156,"6316 PARSLEY HILL","SAN ANTONIO","TX",78238,29.4838488710001,-98.611399082,156,"6316 PARSLEY HILL, SAN ANTONIO, TX, 78238","Match","Exact","6316 PARSLEY HILL, SAN ANTONIO, TX, 78238",619990347,"L"
263157,"6316 S COUNTRY CLUB DR","OKLAHOMA CITY","OK",73159,35.4020942810001,-97.552802232,157,"6316 S COUNTRY CLUB DR, OKLAHOMA CITY, OK, 73159","Match","Exact","6316 S COUNTRY CLUB DR, OKLAHOMA CITY, OK, 73159",100405827,"L"
263158,"6316 SOUTHWIND DRIVE","WHITTIER","CA",90601,33.983774968,-118.024051889,158,"6316 SOUTHWIND DRIVE, WHITTIER, CA, 90601","Match","Exact","6316 SOUTHWIND DR, WHITTIER, CA, 90601",141747976,"L"
263159,"6316 SW 19 ST","MIRAMAR","FL",33023,25.9939304430001,-80.2134147909999,159,"6316 SW 19 ST, MIRAMAR, FL, 33023","Match","Exact","6316 SW 19TH ST, MIRAMAR, FL, 33023",114734495,"L"
263160,"6316 VAN NUYS BLVD","VAN NUYS","CA",91401,34.185139415,-118.448706237,160,"6316 VAN NUYS BLVD, VAN NUYS, CA, 91401","Match","Exact","6316 VAN NUYS BLVD, VAN NUYS, CA, 91401",141561058,"R"
263161,"6316 W SWEETWATER AVE","GLENDALE","AZ",85304,33.603486134,-112.195081388,161,"6316 W SWEETWATER AVE, GLENDALE, AZ, 85304","Match","Exact","6316 W SWEETWATER AVE, GLENDALE, AZ, 85304",128174616,"R"
263162,"6316 WYLER COURT","DUBLIN","OH",43016,40.1181843210001,-83.162410682,162,"6316 WYLER COURT, DUBLIN, OH, 43016","Match","Exact","6316 WYLER CT, DUBLIN, OH, 43016",135626308,"L"
263163,"63160 733 RD","BROCK","NE",68320,40.4507293350001,-95.980995853,163,"63160 733 RD, BROCK, NE, 68320","Match","Exact","63160 733 RD, BROCK, NE, 68320",32466092,"R"
263164,"6317 150TH AVE SE","BELLEVUE","WA",98006,47.5464494380001,-122.141108114,164,"6317 150TH AVE SE, BELLEVUE, WA, 98006","Match","Exact","6317 150TH AVE SE, BELLEVUE, WA, 98006",186672109,"R"
263165,"6317 2ND ST NW","WASHINGTON","DC",20011,38.9663861160001,-77.0136365549999,165,"6317 2ND ST NW, WASHINGTON, DC, 20011","Match","Exact","6317 2ND ST NW, WASHINGTON, DC, 20011",76222082,"R"
263166,"6317 7TH STREET NW","WASHINGTON","DC",20011,38.966778923,-77.0224360889999,166,"6317 7TH STREET NW, WASHINGTON, DC, 20011","Match","Exact","6317 7TH ST NW, WASHINGTON, DC, 20011",76221962,"R"
263167,"6317 BELLAIRE DRIVE","NEW ORLEANS","LA",70124,30.006270429,-90.121456945,167,"6317 BELLAIRE DRIVE, NEW ORLEANS, LA, 70124","Match","Exact","6317 BELLAIRE DR, NEW ORLEANS, LA, 70124",191699705,"R"
263168,"6317 CAPRICORN AVE","AGOURA HILLS","CA",91301,34.1658486060001,-118.754187374,168,"6317 CAPRICORN AVE, AGOURA HILLS, CA, 91301","Match","Exact","6317 CAPRICORN AVE, AGOURA HILLS, CA, 91301",141721554,"R"
263169,"6317 CARLSON DRIVE","NEW ORLEANS","LA",70122,30.025110645,-90.073551515,169,"6317 CARLSON DRIVE, NEW ORLEANS, LA, 70122","Match","Exact","6317 CARLSON DR, NEW ORLEANS, LA, 70122",191703478,"R"
263170,"6317 DARLOW DR","ST LOUIS","MO",63123,38.556287066,-90.3231994449999,170,"6317 DARLOW DR, ST LOUIS, MO, 63123","Match","Exact","6317 DARLOW DR, SAINT LOUIS, MO, 63123",100142005,"R"
263171,"6317 DAY SPRING DR","THE COLONY","TX",75056,33.0852825060001,-96.8685327539999,171,"6317 DAY SPRING DR, THE COLONY, TX, 75056","Match","Exact","6317 DAY SPRING DR, THE COLONY, TX, 75056",103409360,"R"
263172,"6317 DERBY DR","BAKERSFIELD","CA",93306,35.40973254,-118.929828794,172,"6317 DERBY DR, BAKERSFIELD, CA, 93306","Match","Exact","6317 DERBY DR, BAKERSFIELD, CA, 93306",109097116,"R"
263173,"6317 ERNWOOD CIRCLE","SHREVEPORT","LA",71119,32.473317281,-93.873268152,173,"6317 ERNWOOD CIRCLE, SHREVEPORT, LA, 71119","Match","Exact","6317 ERNWOOD CIR, SHREVEPORT, LA, 71119",57478164,"L"
263174,"6317 FOSTER BROOK DR","CHARLOTTE","NC",28216,35.3032145390001,-80.903958179,174,"6317 FOSTER BROOK DR, CHARLOTTE, NC, 28216","Match","Exact","6317 FOSTER BROOK DR, CHARLOTTE, NC, 28216",70582342,"L"
263175,"6317 GLENLOCH STREET","PHILADELPHIA","PA",19135,40.022310674,-75.05467084,175,"6317 GLENLOCH STREET, PHILADELPHIA, PA, 19135","Match","Exact","6317 GLENLOCH ST, PHILADELPHIA, PA, 19135",131435109,"R"
263176,"6317 MOUNT RIDGE ROAD","BALTIMORE","MD",21228,39.2735976180001,-76.714897094,176,"6317 MOUNT RIDGE ROAD, BALTIMORE, MD, 21228","Match","Exact","6317 MOUNT RIDGE RD, BALTIMORE, MD, 21228",191484938,"L"
263177,"6317 MOUNTAIN GROVE LN","WAKE FOREST","NC",27587,35.9617603020001,-78.570923651,177,"6317 MOUNTAIN GROVE LN, WAKE FOREST, NC, 27587","Match","Exact","6317 MOUNTAIN GROVE LN, WAKE FOREST, NC, 27587",72600849,"R"
263178,"6317 SAN MARINO DRIVE","ROWLETT","TX",75089,32.920345076,-96.54942596,178,"6317 SAN MARINO DRIVE, ROWLETT, TX, 75089","Match","Exact","6317 SAN MARINO DR, ROWLETT, TX, 75089",627268900,"R"
263179,"6317 SATURN DR","MADISON","WI",53718,43.094333852,-89.273757519,179,"6317 SATURN DR, MADISON, WI, 53718","Match","Exact","6317 SATURN DR, MADISON, WI, 53718",648233436,"R"
263180,"6317 W BROADWAY AVE N","BROOKLYN PARK","MN",55428,45.0697533920001,-93.3756591059999,180,"6317 W BROADWAY AVE N, BROOKLYN PARK, MN, 55428","Match","Non_Exact","6317 W BROADWAY AVE, BROOKLYN PARK, MN, 55428",43614291,"L"
263181,"6317 WIND SONG DRIVE","MCKINNEY","TX",75071,33.214094737,-96.700712986,181,"6317 WIND SONG DRIVE, MCKINNEY, TX, 75071","Match","Exact","6317 WIND SONG DR, MCKINNEY, TX, 75071",619916681,"L"
263182,"6318 40TH ST N","OAKDALE","MN",55128,45.006641174,-92.977933008,182,"6318 40TH ST N, OAKDALE, MN, 55128","Match","Exact","6318 40TH ST N, OAKDALE, MN, 55128",97791877,"L"
263183,"6318 BLANCHARD CT","COLUMBUS","GA",31909,32.5361949800001,-84.9462274809999,183,"6318 BLANCHARD CT, COLUMBUS, GA, 31909","Match","Exact","6318 BLANCHARD CT, COLUMBUS, GA, 31909",98948503,"R"
263184,"6318 CHELWYNDE AVENUE","PHILADELPHIA","PA",19142,39.922041182,-75.2259452659999,184,"6318 CHELWYNDE AVENUE, PHILADELPHIA, PA, 19142","Match","Exact","6318 CHELWYNDE AVE, PHILADELPHIA, PA, 19142",131409398,"L"
263185,"6318 E 96TH ST","TULSA","OK",74137,36.024682618,-95.90441936,185,"6318 E 96TH ST, TULSA, OK, 74137","Match","Exact","6318 E 96TH ST, TULSA, OK, 74137",166461659,"R"
263186,"6318 E DWIGHT WAY","FRESNO","CA",93727,36.7226535660001,-119.67535259,186,"6318 E DWIGHT WAY, FRESNO, CA, 93727","Match","Exact","6318 E DWIGHT WAY, FRESNO, CA, 93727",627014482,"L"
263187,"6318 HANOVER CT","FISHERS","IN",46038,39.951853627,-86.058626126,187,"6318 HANOVER CT, FISHERS, IN, 46038","Match","Exact","6318 HANOVER CT, FISHERS, IN, 46038",29305855,"R"
263188,"6318 HEFFERNAN","HOUSTON","TX",77087,29.6732665170001,-95.312143293,188,"6318 HEFFERNAN, HOUSTON, TX, 77087","Match","Non_Exact","6318 HEFFERNAN ST, HOUSTON, TX, 77087",233479236,"R"
263189,"6318 LAMY ST NW","ALBUQUERQUE","NM",87120,35.156134357,-106.70495339,189,"6318 LAMY ST NW, ALBUQUERQUE, NM, 87120","Match","Exact","6318 LAMY ST NW, ALBUQUERQUE, NM, 87120",206756290,"R"
263190,"6318 MICHAEL LANE","MATTESON","IL",60443,41.5242160510001,-87.769335476,190,"6318 MICHAEL LANE, MATTESON, IL, 60443","Match","Exact","6318 MICHAEL LN, MATTESON, IL, 60443",112202504,"R"
263191,"6318 SHOOTING IRON WAY","COLORADO SPRINGS","CO",80923,38.921344483,-104.688594406,191,"6318 SHOOTING IRON WAY, COLORADO SPRINGS, CO, 80923","Match","Exact","6318 SHOOTING IRON WAY, COLORADO SPRINGS, CO, 80923",636079933,"L"
263192,"6318 W SILVERBROOK","WEST BLOOMFIELD","MI",48322,42.5441105190001,-83.433971893,192,"6318 W SILVERBROOK, WEST BLOOMFIELD, MI, 48322","Match","Non_Exact","6318 SILVERBROOK W, W BLOOMFIELD, MI, 48322",69761419,"L"
263193,"6318 WEST 60TH STREET","CHICAGO","IL",60638,41.7832161060001,-87.779875101,193,"6318 WEST 60TH STREET, CHICAGO, IL, 60638","Match","Exact","6318 W 60TH ST, CHICAGO, IL, 60638",605292438,"R"
263194,"6318 WILSHIRE RIDGE","HOUSTON","TX",77040,29.855311715,-95.501918239,194,"6318 WILSHIRE RIDGE, HOUSTON, TX, 77040","Match","Exact","6318 WILSHIRE RIDGE, HOUSTON, TX, 77040",624092087,"L"
263195,"6318COUNTY ROAD 178","SALIDA","CA",81201,NA,NA,195,"6318COUNTY ROAD 178, SALIDA, CA, 81201","No_Match",NA,NA,NA,NA
263196,"6319 COUNTRY CLUB DRIVE","HUNTINGTON","WV",25705,38.4138870470001,-82.336409123,196,"6319 COUNTRY CLUB DRIVE, HUNTINGTON, WV, 25705","Match","Exact","6319 COUNTRY CLUB DR, HUNTINGTON, WV, 25705",652004854,"L"
263197,"6319 MISTY CREEK","MISSOURI CITY","TX",77459,29.5612907030001,-95.570455318,197,"6319 MISTY CREEK, MISSOURI CITY, TX, 77459","Match","Non_Exact","6319 MISTY CREEK DR, MISSOURI CITY, TX, 77459",78335519,"L"
263198,"6319 MONTEO LN","INDIANAPOLIS","IN",46217,39.675718241,-86.1830047289999,198,"6319 MONTEO LN, INDIANAPOLIS, IN, 46217","Match","Exact","6319 MONTEO LN, INDIANAPOLIS, IN, 46217",627093971,"L"
263199,"6319 N RIDGEWAY","CHICAGO","IL",60659,41.995802564,-87.722716073,199,"6319 N RIDGEWAY, CHICAGO, IL, 60659","Match","Non_Exact","6319 N RIDGEWAY AVE, CHICAGO, IL, 60659",605173008,"R"
263200,"6319 RAEFORD ROAD APT 30","FAYETTEVILLE","NC",28304,35.0430435440001,-78.9875968599999,200,"6319 RAEFORD ROAD APT 30, FAYETTEVILLE, NC, 28304","Match","Exact","6319 RAEFORD RD, FAYETTEVILLE, NC, 28304",64195647,"L"
263201,"6319 STRAIGHT HOLW","PINSONFORK","KY",41555,37.5230442980001,-82.248541793,201,"6319 STRAIGHT HOLW, PINSONFORK, KY, 41555","Match","Exact","6319 STRAIGHT HOLLOW, PINSONFORK, KY, 41555",40426208,"R"
263202,"6319 WEST 13400 SOUTH","HERRIMAN","UT",84096,40.5078426640001,-112.041149133,202,"6319 WEST 13400 SOUTH, HERRIMAN, UT, 84096","Match","Exact","6319 W 13400 S, HERRIMAN, UT, 84096",639869002,"R"
263203,"6319 WILMINGTON DRIVE","BURKE","VA",22015,38.779863058,-77.281639019,203,"6319 WILMINGTON DRIVE, BURKE, VA, 22015","Match","Exact","6319 WILMINGTON DR, BURKE, VA, 22015",619488703,"R"
263204,"6319-21 S KIMBARK AVENUE","CHICAGO","IL",60637,41.779743249,-87.5946218779999,204,"6319-21 S KIMBARK AVENUE, CHICAGO, IL, 60637","Match","Exact","6319 S KIMBARK AVE, CHICAGO, IL, 60637",605502005,"L"
263205,"632 1/2 SAINT JOSEPH STREET","RAPID CITY","SD",57701,44.0801276080001,-103.227960099,205,"632 1/2 SAINT JOSEPH STREET, RAPID CITY, SD, 57701","Match","Exact","632 SAINT JOSEPH ST, RAPID CITY, SD, 57701",205508467,"R"
263206,"632 21ST STREET","SAN DIEGO","CA",92102,32.71193127,-117.144907159,206,"632 21ST STREET, SAN DIEGO, CA, 92102","Match","Exact","632 21ST ST, SAN DIEGO, CA, 92102",195347662,"L"
263207,"632 27TH AVENUE","ST PETERSBURG","FL",33705,27.743937622,-82.641431767,207,"632 27TH AVENUE, ST PETERSBURG, FL, 33705","Match","Non_Exact","632 27TH AVE S, SAINT PETERSBURG, FL, 33705",124710984,"L"
263208,"632 ADAMS STREET","BOWLING GREEN","KY",42101,36.9981771390001,-86.440383189,208,"632 ADAMS STREET, BOWLING GREEN, KY, 42101","Match","Exact","632 ADAMS ST, BOWLING GREEN, KY, 42101",28007759,"R"
263209,"632 AVENIDA CELAYA","SANTA FE","NM",87506,35.7071257150001,-105.945209887,209,"632 AVENIDA CELAYA, SANTA FE, NM, 87506","Match","Exact","632 AVE CELAYA, SANTA FE, NM, 87506",612416221,"L"
263210,"632 BATTERSEA DRIVE","ST AUGUSTINE","FL",32095,30.0254296460001,-81.394372338,210,"632 BATTERSEA DRIVE, ST AUGUSTINE, FL, 32095","Match","Exact","632 BATTERSEA DR, SAINT AUGUSTINE, FL, 32095",630310098,"R"
263211,"632 BELINDA WAY","CHULA VISTA","CA",91910,32.6345075,-117.061678084,211,"632 BELINDA WAY, CHULA VISTA, CA, 91910","Match","Exact","632 BELINDA WAY, CHULA VISTA, CA, 91910",195356962,"R"
263212,"632 BETH LANE","SULPHUR SPRINGS","TX",75482,33.099151066,-95.587684125,212,"632 BETH LANE, SULPHUR SPRINGS, TX, 75482","Match","Exact","632 BETH LN, SULPHUR SPRINGS, TX, 75482",42794163,"R"
263213,"632 BETH LN","SULPHUR SPRINGS","TX",75482,33.099151066,-95.587684125,213,"632 BETH LN, SULPHUR SPRINGS, TX, 75482","Match","Exact","632 BETH LN, SULPHUR SPRINGS, TX, 75482",42794163,"R"
263214,"632 BOGUE ST RM N270","EAST LANSING","MI",48824,NA,NA,214,"632 BOGUE ST RM N270, EAST LANSING, MI, 48824","No_Match",NA,NA,NA,NA
263215,"632 BONIVIEW LANE","ALTAMONTE SPRINGS","FL",32714,28.673881846,-81.400477291,215,"632 BONIVIEW LANE, ALTAMONTE SPRINGS, FL, 32714","Match","Exact","632 BONIVIEW LN, ALTAMONTE SPRINGS, FL, 32714",93736186,"R"
263216,"632 BRISBANE ROAD","BALTIMORE","MD",21229,39.2740384140001,-76.694476045,216,"632 BRISBANE ROAD, BALTIMORE, MD, 21229","Match","Exact","632 BRISBANE RD, BALTIMORE, MD, 21229",206436491,"R"
263217,"632 CHARETTE HILL RD","FORT KENT","ME",4743,47.2607053400001,-68.52527652,217,"632 CHARETTE HILL RD, FORT KENT, ME, 4743","Match","Exact","632 CHARETTE HILL RD, FORT KENT, ME, 04743",123837227,"L"
263218,"632 CHARLES STREET AVENUE","TOWSON","MD",21204,39.405617921,-76.61863546,218,"632 CHARLES STREET AVENUE, TOWSON, MD, 21204","Match","Exact","632 CHARLES STREET AVE, TOWSON, MD, 21204",191513520,"R"
263219,"632 CLINTON PLACE","RIVER FOREST","IL",60305,41.8912253390001,-87.808595403,219,"632 CLINTON PLACE, RIVER FOREST, IL, 60305","Match","Exact","632 CLINTON PL, RIVER FOREST, IL, 60305",111749594,"L"
263220,"632 COLE STREET","SAN FRANCISCO","CA",94117,37.769197702,-122.450633911,220,"632 COLE STREET, SAN FRANCISCO, CA, 94117","Match","Exact","632 COLE ST, SAN FRANCISCO, CA, 94117",192282341,"L"
263221,"632 COUNTRY CLUB DR","WINTER PARK","FL",32789,28.6047986470001,-81.370245865,221,"632 COUNTRY CLUB DR, WINTER PARK, FL, 32789","Match","Exact","632 COUNTRY CLUB DR, WINTER PARK, FL, 32789",637366051,"R"
263222,"632 CROSSROADS CHURCH ROAD","DOBSON","NC",27017,36.411752676,-80.799777884,222,"632 CROSSROADS CHURCH ROAD, DOBSON, NC, 27017","Match","Non_Exact","632 CROSSROAD CHURCH RD, DOBSON, NC, 27017",154187670,"R"
263223,"632 DITMAR ST","PENSACOLA","FL",32503,30.4650045670001,-87.220298263,223,"632 DITMAR ST, PENSACOLA, FL, 32503","Match","Exact","632 DITMAR ST, PENSACOLA, FL, 32503",93306830,"L"
263224,"632 DUFF DR","WINTER GARDEN","FL",34787,28.530761355,-81.58423179,224,"632 DUFF DR, WINTER GARDEN, FL, 34787","Match","Exact","632 DUFF DR, WINTER GARDEN, FL, 34787",634028584,"L"
263225,"632 DURANGO WAY","REDDING","CA",96003,40.6021493870001,-122.35440918,225,"632 DURANGO WAY, REDDING, CA, 96003","Match","Exact","632 DURANGO WAY, REDDING, CA, 96003",648177865,"R"
263226,"632 E ROBERTS ST","NORRISTOWN","PA",19401,40.1220860380001,-75.3226053129999,226,"632 E ROBERTS ST, NORRISTOWN, PA, 19401","Match","Exact","632 E ROBERTS ST, NORRISTOWN, PA, 19401",135083145,"R"
263227,"632 EAST 14TH STREET  SUITE 20","NEW YORK","NY",10009,40.7290882560001,-73.977184941,227,"632 EAST 14TH STREET  SUITE 20, NEW YORK, NY, 10009","Match","Exact","632 E 14TH ST, NEW YORK, NY, 10009",59654722,"R"
263228,"632 EASTLINE RD","BALLSTON SPA","NY",12020,42.989051041,-73.8302019239999,228,"632 EASTLINE RD, BALLSTON SPA, NY, 12020","Match","Exact","632 EASTLINE RD, BALLSTON SPA, NY, 12020",636853600,"L"
263229,"632 EL TORO WAY","DAVIS","CA",95618,38.5480335710001,-121.695093842,229,"632 EL TORO WAY, DAVIS, CA, 95618","Match","Exact","632 EL TORO WAY, DAVIS, CA, 95618",67699042,"L"
263230,"632 FORT HILL RD","SCARSDALE","NY",10583,41.001709314,-73.815708598,230,"632 FORT HILL RD, SCARSDALE, NY, 10583","Match","Exact","632 FORT HILL RD, SCARSDALE, NY, 10583",139739254,"L"
263231,"632 FOUR SEASONS BLVD","AURORA","IL",60504,41.7398791790001,-88.278218968,231,"632 FOUR SEASONS BLVD, AURORA, IL, 60504","Match","Exact","632 FOUR SEASONS BLVD, AURORA, IL, 60504",119589745,"R"
263232,"632 GIBBONS DRIVE","SCOTTDALE","GA",30079,33.794924667,-84.252568173,232,"632 GIBBONS DRIVE, SCOTTDALE, GA, 30079","Match","Exact","632 GIBBONS DR, SCOTTDALE, GA, 30079",23362697,"L"
263233,"632 HILLARY FARM ROAD","HUDSON","WI",54016,44.9549205590001,-92.6277001719999,233,"632 HILLARY FARM ROAD, HUDSON, WI, 54016","Match","Exact","632 HILLARY FARM RD, HUDSON, WI, 54016",110918994,"L"
263234,"632 KING STREET","BRISTOL","CT",6010,41.6833346020001,-72.9242704819999,234,"632 KING STREET, BRISTOL, CT, 6010","Match","Exact","632 KING ST, BRISTOL, CT, 06010",639784058,"R"
263235,"632 LAKELAND EAST DR","FLOWOOD","MS",39232,32.3343515,-90.0955364069999,235,"632 LAKELAND EAST DR, FLOWOOD, MS, 39232","Match","Exact","632 LAKELAND EAST DR, FLOWOOD, MS, 39232",116906313,"R"
263236,"632 LANGDON ST","FAYETTEVILLE","NC",28301,35.0778017850001,-78.893914325,236,"632 LANGDON ST, FAYETTEVILLE, NC, 28301","Match","Exact","632 LANGDON ST, FAYETTEVILLE, NC, 28301",64250171,"R"
263237,"632 MAIN STREET STE 1","MILFORD","OH",45150,39.1767484430001,-84.287918009,237,"632 MAIN STREET STE 1, MILFORD, OH, 45150","Match","Exact","632 MAIN ST, MILFORD, OH, 45150",613714238,"L"
263238,"632 MARSHA DR","ANDOVER","KS",67002,37.7177277170001,-97.140897485,238,"632 MARSHA DR, ANDOVER, KS, 67002","Match","Exact","632 MARSHA DR, ANDOVER, KS, 67002",32276030,"R"
263239,"632 MILL RACE RD","GRANVILLE","OH",43023,40.0495682000001,-82.507930059,239,"632 MILL RACE RD, GRANVILLE, OH, 43023","Match","Exact","632 MILL RACE RD, GRANVILLE, OH, 43023",61542555,"R"
263240,"632 MT RUSHMORE ROAD","CUSTER","SD",57730,43.7667362700001,-103.598432822,240,"632 MT RUSHMORE ROAD, CUSTER, SD, 57730","Match","Exact","632 MT RUSHMORE RD, CUSTER, SD, 57730",193015475,"R"
263241,"632 N 3000 EAST ROAD","STEWARDSON","IL",62463,NA,NA,241,"632 N 3000 EAST ROAD, STEWARDSON, IL, 62463","No_Match",NA,NA,NA,NA
263242,"632 N 5TH STREET","PHILADELPHIA","PA",19123,39.9626706870001,-75.146641889,242,"632 N 5TH STREET, PHILADELPHIA, PA, 19123","Match","Exact","632 N 5TH ST, PHILADELPHIA, PA, 19123",131422870,"L"
263243,"632 N 63RD STREET","PHILADELPHIA","PA",19151,39.9727606390001,-75.245063622,243,"632 N 63RD STREET, PHILADELPHIA, PA, 19151","Match","Exact","632 N 63RD ST, PHILADELPHIA, PA, 19151",131397330,"L"
263244,"632 N JACKSON AVE","QUITMAN","MS",39355,32.0548010320001,-88.724796252,244,"632 N JACKSON AVE, QUITMAN, MS, 39355","Match","Exact","632 N JACKSON AVE, QUITMAN, MS, 39355",2684087,"R"
263245,"632 NEW HAVEN AVENUE","MILFORD","CT",6460,41.2260176630001,-73.027610872,245,"632 NEW HAVEN AVENUE, MILFORD, CT, 6460","Match","Exact","632 NEW HAVEN AVE, MILFORD, CT, 06460",3715165,"L"
263246,"632 NORTH MAIN STREET PO BOX 584","ANSONIA","OH",45303,40.2188461380001,-84.6369110429999,246,"632 NORTH MAIN STREET PO BOX 584, ANSONIA, OH, 45303","Match","Exact","632 N MAIN ST, ANSONIA, OH, 45303",54567171,"L"
263247,"632 NORTH STREET","TEWKSBURY","MA",1876,42.6309025300001,-71.232599192,247,"632 NORTH STREET, TEWKSBURY, MA, 1876","Match","Exact","632 NORTH ST, TEWKSBURY, MA, 01876",651241837,"L"
263248,"632 NORTH WOOD RIVER AVENUE","WOOD RIVER","IL",62095,38.868618273,-90.098579495,248,"632 NORTH WOOD RIVER AVENUE, WOOD RIVER, IL, 62095","Match","Exact","632 N WOOD RIVER AVE, WOOD RIVER, IL, 62095",107707165,"L"
263249,"632 NW BROOKHILL LANE","HILLSBORO","OR",97124,45.53505799,-122.995688279,249,"632 NW BROOKHILL LANE, HILLSBORO, OR, 97124","Match","Exact","632 NW BROOKHILL LN, HILLSBORO, OR, 97124",618501825,"L"
263250,"632 OBRIANS PATH","MCDONOUGH","GA",30253,33.4557388360001,-84.135909195,250,"632 OBRIANS PATH, MCDONOUGH, GA, 30253","Match","Non_Exact","632 O'BRIANS PATH, MCDONOUGH, GA, 30253",619918258,"R"
263251,"632 PIFER ROAD","HOUSTON","TX",77024,29.7742508010001,-95.504059073,251,"632 PIFER ROAD, HOUSTON, TX, 77024","Match","Exact","632 PIFER RD, HOUSTON, TX, 77024",96552964,"R"
263252,"632 PRIMROSE CIRCLE","MATTESON","IL",60443,41.515089876,-87.7243713079999,252,"632 PRIMROSE CIRCLE, MATTESON, IL, 60443","Match","Exact","632 PRIMROSE CIR, MATTESON, IL, 60443",112202555,"R"
263253,"632 REED STREET","PHILADELPHIA","PA",19147,39.9312768390001,-75.155287755,253,"632 REED STREET, PHILADELPHIA, PA, 19147","Match","Exact","632 REED ST, PHILADELPHIA, PA, 19147",131436124,"L"
263254,"632 RUSSELL ST","COVINGTON","KY",41011,39.083643792,-84.513375954,254,"632 RUSSELL ST, COVINGTON, KY, 41011","Match","Exact","632 RUSSELL ST, COVINGTON, KY, 41011",103894087,"L"
263255,"632 SAUCE FACTORY DRIVE","TIPTON","PA",16684,NA,NA,255,"632 SAUCE FACTORY DRIVE, TIPTON, PA, 16684","No_Match",NA,NA,NA,NA
263256,"632 SIERRA LANE","EUREKA","MO",63025,38.5088787110001,-90.633392924,256,"632 SIERRA LANE, EUREKA, MO, 63025","Match","Exact","632 SIERRA LN, EUREKA, MO, 63025",100197955,"R"
263257,"632 SOLOMON DRIVE","MCDONOUGH","GA",30252,NA,NA,257,"632 SOLOMON DRIVE, MCDONOUGH, GA, 30252","No_Match",NA,NA,NA,NA
263258,"632 SOUTH BEDFORD ROAD","BEDFORD","NY",10506,NA,NA,258,"632 SOUTH BEDFORD ROAD, BEDFORD, NY, 10506","No_Match",NA,NA,NA,NA
263259,"632 SOUTH MERIDIAN AVE","ALHAMBRA","CA",91803,34.087113935,-118.154091451,259,"632 SOUTH MERIDIAN AVE, ALHAMBRA, CA, 91803","Match","Exact","632 S MERIDIAN AVE, ALHAMBRA, CA, 91803",141635486,"L"
263260,"632 STATE ROUTE 3306","GRAYSON","KY",41143,NA,NA,260,"632 STATE ROUTE 3306, GRAYSON, KY, 41143","No_Match",NA,NA,NA,NA
263261,"632 SWARTHMORE AVENUE","PACIFIC PALISADES","CA",90272,34.0410079430001,-118.527610717,261,"632 SWARTHMORE AVENUE, PACIFIC PALISADES, CA, 90272","Match","Exact","632 SWARTHMORE AVE, PACIFIC PALISADES, CA, 90272",141558511,"R"
263262,"632 TEMPLE AVENUE","KENT","OH",44240,41.1591890540001,-81.354561362,262,"632 TEMPLE AVENUE, KENT, OH, 44240","Match","Exact","632 TEMPLE AVE, KENT, OH, 44240",137516157,"R"
263263,"632 W 42ND PLACE","LOS ANGELES","CA",90037,34.006223822,-118.284745455,263,"632 W 42ND PLACE, LOS ANGELES, CA, 90037","Match","Exact","632 W 42ND PL, LOS ANGELES, CA, 90037",141607864,"L"
263264,"632 W 55TH ST","HINSDALE","IL",60521,41.7888900290001,-87.941616944,264,"632 W 55TH ST, HINSDALE, IL, 60521","Match","Exact","632 W 55TH ST, HINSDALE, IL, 60521",112549840,"L"
263265,"632 W LANCASHIRE BLVD","BELLA VISTA","AR",72715,36.4556559060001,-94.289303906,265,"632 W LANCASHIRE BLVD, BELLA VISTA, AR, 72715","Match","Exact","632 LANCASHIRE BLVD, BELLA VISTA, AR, 72715",635488764,"L"
263266,"632 W SOUTH ST","RALEIGH","NC",27603,35.772450216,-78.6487556179999,266,"632 W SOUTH ST, RALEIGH, NC, 27603","Match","Exact","632 W SOUTH ST, RALEIGH, NC, 27603",72503682,"R"
263267,"632 WEST FRONT STREET NORTH","THOMASVILLE","AL",36784,31.91974858,-87.735182472,267,"632 WEST FRONT STREET NORTH, THOMASVILLE, AL, 36784","Match","Non_Exact","632 W FRONT ST S, THOMASVILLE, AL, 36784",34560748,"R"
263268,"632 WEST FRONT STREET","GRAND LEDGE","MI",48837,42.7582520940001,-84.750270711,268,"632 WEST FRONT STREET, GRAND LEDGE, MI, 48837","Match","Exact","632 W FRONT ST, GRAND LEDGE, MI, 48837",12033343,"R"
263269,"632 WEST LANE","AUBURN","AL",36830,32.6173883640001,-85.4524935269999,269,"632 WEST LANE, AUBURN, AL, 36830","Match","Exact","632 WEST LN, AUBURN, AL, 36830",1579373,"L"
263270,"632 WEST MAPLE STREET","STAYTON","OR",97383,44.7951438490001,-122.800593106,270,"632 WEST MAPLE STREET, STAYTON, OR, 97383","Match","Exact","632 W MAPLE ST, STAYTON, OR, 97383",613672290,"L"
263271,"632 WINDEMERE ROAD","WILMINGTON","NC",28405,34.246329722,-77.838200909,271,"632 WINDEMERE ROAD, WILMINGTON, NC, 28405","Match","Exact","632 WINDEMERE RD, WILMINGTON, NC, 28405",152741386,"R"
263272,"6320 327TH STREET WAY","CANNON FALLS","MN",55009,44.474546092,-92.910552382,272,"6320 327TH STREET WAY, CANNON FALLS, MN, 55009","Match","Exact","6320 327TH STREET WAY, CANNON FALLS, MN, 55009",648040738,"R"
263273,"6320 76TH STREET EAST","PUYALLUP","WA",98371,47.187918703,-122.345886429,273,"6320 76TH STREET EAST, PUYALLUP, WA, 98371","Match","Exact","6320 76TH ST E, PUYALLUP, WA, 98371",649055722,"R"
263274,"6320 ABERDEEN DRIVE","ATLANTA","GA",30328,33.926677198,-84.363298599,274,"6320 ABERDEEN DRIVE, ATLANTA, GA, 30328","Match","Non_Exact","6320 ABERDEEN DR NE, ATLANTA, GA, 30328",17354720,"L"
263275,"6320 ARMINDALE AVENUE","RURAL HALL","NC",27045,36.203035249,-80.2595063969999,275,"6320 ARMINDALE AVENUE, RURAL HALL, NC, 27045","Match","Exact","6320 ARMINDALE AVE, RURAL HALL, NC, 27045",84606009,"L"
263276,"6320 BROOKSIDE PLAZA","KANSAS CITY","MO",64113,39.01353534,-94.59067055,276,"6320 BROOKSIDE PLAZA, KANSAS CITY, MO, 64113","Match","Exact","6320 BROOKSIDE PLZ, KANSAS CITY, MO, 64113",91454445,"R"
263277,"6320 BROOKSIDE PLZ STE 190","KANSAS CITY","MO",64113,39.01353534,-94.59067055,277,"6320 BROOKSIDE PLZ STE 190, KANSAS CITY, MO, 64113","Match","Exact","6320 BROOKSIDE PLZ, KANSAS CITY, MO, 64113",91454445,"R"
263278,"6320 BURBANK CROSSING LOOP","MONTGOMERY AL","AL",36117,32.385865665,-86.198818145,278,"6320 BURBANK CROSSING LOOP, MONTGOMERY AL, AL, 36117","Match","Non_Exact","6320 BURBANK CROSSING LP, MONTGOMERY, AL, 36117",639706824,"L"
263279,"6320 CROSSWOOD AVE","LAS VEGAS","NV",89108,36.216261783,-115.232870985,279,"6320 CROSSWOOD AVE, LAS VEGAS, NV, 89108","Match","Exact","6320 CROSSWOOD AVE, LAS VEGAS, NV, 89108",201899020,"R"
263280,"6320 DOGWOD RD","GWYNN OAK","MD",21207,39.3159274810001,-76.726797042,280,"6320 DOGWOD RD, GWYNN OAK, MD, 21207","Match","Non_Exact","6320 DOGWOOD RD, GWYNN OAK, MD, 21207",191483752,"R"
263281,"6320 E 112TH AVE","TEMPLE TERRACE","FL",33617,28.049887664,-82.3807434779999,281,"6320 E 112TH AVE, TEMPLE TERRACE, FL, 33617","Match","Exact","6320 E 112TH AVE, TEMPLE TER, FL, 33617",104535659,"L"
263282,"6320 E RED RANGE WAY","CAVE CREEK","AZ",85331,33.787474623,-111.944921811,282,"6320 E RED RANGE WAY, CAVE CREEK, AZ, 85331","Match","Exact","6320 E RED RANGE WAY, CAVE CREEK, AZ, 85331",243973252,"L"
263283,"6320 FENCE POST RD","LAS VEGAS","NV",89148,36.073131489,-115.303530536,283,"6320 FENCE POST RD, LAS VEGAS, NV, 89148","Match","Non_Exact","6320 FENCE POST ST, LAS VEGAS, NV, 89148",201993085,"L"
263284,"6320 GROVE STREET SUITE A","JACKSONVILLE","FL",32219,30.419736904,-81.746945037,284,"6320 GROVE STREET SUITE A, JACKSONVILLE, FL, 32219","Match","Exact","6320 GROVE ST, JACKSONVILLE, FL, 32219",650447265,"L"
263285,"6320 LAWNTON AVENUE","PHILADELPHIA","PA",19141,40.0483047970001,-75.136622103,285,"6320 LAWNTON AVENUE, PHILADELPHIA, PA, 19141","Match","Exact","6320 LAWNTON AVE, PHILADELPHIA, PA, 19141",131414007,"L"
263286,"6320 MAID MARION CLOSE","ALPHARETTA","GA",30005,34.065898378,-84.226989461,286,"6320 MAID MARION CLOSE, ALPHARETTA, GA, 30005","Match","Exact","6320 MAID MARION CLOSE, ALPHARETTA, GA, 30005",17377341,"L"
263287,"6320 MAIN STREET","COLUMBIA","SC",29203,34.0630282540001,-81.0083016689999,287,"6320 MAIN STREET, COLUMBIA, SC, 29203","Match","Non_Exact","6320 N MAIN ST, COLUMBIA, SC, 29203",652391123,"R"
263288,"6320 MOROSO COURT APT A","INDIANAPOLIS","IN",46224,39.7963728920001,-86.2716248529999,288,"6320 MOROSO COURT APT A, INDIANAPOLIS, IN, 46224","Match","Exact","6320 MOROSO CT, INDIANAPOLIS, IN, 46224",108067734,"L"
263289,"6320 NORTH EWING STREET","INDIANAPOLIS","IN",46220,39.8721055180001,-86.105247793,289,"6320 NORTH EWING STREET, INDIANAPOLIS, IN, 46220","Match","Exact","6320 N EWING ST, INDIANAPOLIS, IN, 46220",107995300,"L"
263290,"6320 PECAN COURSE","OCALA","FL",34472,29.138281604,-82.044895563,290,"6320 PECAN COURSE, OCALA, FL, 34472","Match","Exact","6320 PECAN CRSE, OCALA, FL, 34472",116737799,"L"
263291,"6320 RIVERSIDE DR UNIT 323 BLDG- E","METAIRIE","LA",70003,30.009110482,-90.213802948,291,"6320 RIVERSIDE DR UNIT 323 BLDG- E, METAIRIE, LA, 70003","Match","Exact","6320 RIVERSIDE DR, METAIRIE, LA, 70003",93494231,"L"
263292,"6320 RUIDOSO","SAGINAW","MI",48603,43.4523036750001,-84.040272677,292,"6320 RUIDOSO, SAGINAW, MI, 48603","Match","Non_Exact","6320 RUIDOSO DR, SAGINAW, MI, 48603",80242893,"L"
263293,"6320 SOUTH VERNON AVENUE","CHICAGO","IL",60637,41.7795074800001,-87.614399303,293,"6320 SOUTH VERNON AVENUE, CHICAGO, IL, 60637","Match","Exact","6320 S VERNON AVE, CHICAGO, IL, 60637",605542307,"R"
263294,"6320 ST AUGUSTINE RD SUITE 3AB 4A","JACKSONVILLE","FL",32217,30.2567246190001,-81.626195794,294,"6320 ST AUGUSTINE RD SUITE 3AB 4A, JACKSONVILLE, FL, 32217","Match","Exact","6320 ST AUGUSTINE RD, JACKSONVILLE, FL, 32217",653183275,"R"
263295,"6320 SW LOMBARD AVE APT 15","BEAVERTON","OR",97008,45.474219578,-122.800301441,295,"6320 SW LOMBARD AVE APT 15, BEAVERTON, OR, 97008","Match","Non_Exact","6320 SW LOMBARD AVE, BEAVERTON, OR, 97008",158186771,"L"
263296,"6320 SW MACADAM AVENUE","PORTLAND","OR",97239,45.4785548560001,-122.67251455,296,"6320 SW MACADAM AVENUE, PORTLAND, OR, 97239","Match","Exact","6320 SW MACADAM AVE, PORTLAND, OR, 97239",157508815,"L"
263297,"6320 VAN NUYS BLVD 310","VAN NUYS","CA",91401,34.1852399220001,-118.448706237,297,"6320 VAN NUYS BLVD 310, VAN NUYS, CA, 91401","Match","Exact","6320 VAN NUYS BLVD, VAN NUYS, CA, 91401",141561058,"R"
263298,"6320 VENTURE DRIVE SUITE 104","LAKEWOOD RANCH","FL",34202,27.3877285350001,-82.436127034,298,"6320 VENTURE DRIVE SUITE 104, LAKEWOOD RANCH, FL, 34202","Match","Exact","6320 VENTURE DR, LAKEWOOD RCH, FL, 34202",16275293,"L"
263299,"6320 WYDOWN BLVD","ST LOUIS","MO",63105,38.6446853360001,-90.304766724,299,"6320 WYDOWN BLVD, ST LOUIS, MO, 63105","Match","Exact","6320 WYDOWN BLVD, SAINT LOUIS, MO, 63105",100196503,"L"
263300,"6320-A MARLBORO PIKE","DISTRICT HEIGHTS","MD",20747,38.8543336290001,-76.8987604979999,300,"6320-A MARLBORO PIKE, DISTRICT HEIGHTS, MD, 20747","Match","Exact","6320 MARLBORO PIKE, DISTRICT HEIGHTS, MD, 20747",639595435,"L"
263301,"6321 87TH STREET","LUBBOCK","TX",79424,33.51492496,-101.954118724,301,"6321 87TH STREET, LUBBOCK, TX, 79424","Match","Exact","6321 87TH ST, LUBBOCK, TX, 79424",653222084,"L"
263302,"6321 JAMES ROUSE BLVD","CANAL WINCHESTER","OH",43110,39.8785562400001,-82.828217965,302,"6321 JAMES ROUSE BLVD, CANAL WINCHESTER, OH, 43110","Match","Exact","6321 JAMES ROUSE BLVD, CANAL WINCHESTER, OH, 43110",218674386,"L"
263303,"6321 OVER SEE CT","SPRINGFIELD","VA",22152,38.778743965,-77.238542017,303,"6321 OVER SEE CT, SPRINGFIELD, VA, 22152","Match","Exact","6321 OVER SEE CT, SPRINGFIELD, VA, 22152",75997071,"L"
263304,"6321 PELICAN CRESCENT S","SUFFOLK","VA",23435,36.8828692340001,-76.409070452,304,"6321 PELICAN CRESCENT S, SUFFOLK, VA, 23435","Match","Exact","6321 PELICAN CRES S, SUFFOLK, VA, 23435",122231679,"L"
263305,"6321 PORTER ROAD SUITE 8","SARASOTA","FL",34240,27.316173555,-82.4448770079999,305,"6321 PORTER ROAD SUITE 8, SARASOTA, FL, 34240","Match","Exact","6321 PORTER RD, SARASOTA, FL, 34240",16379598,"R"
263306,"6321 TAMIAMI CANAL RD","MIAMI","FL",33126,25.7755590140001,-80.298764607,306,"6321 TAMIAMI CANAL RD, MIAMI, FL, 33126","Match","Exact","6321 TAMIAMI CANAL RD, MIAMI, FL, 33126",115975347,"R"
263307,"6321 WHITE OAK LANE","GEORGETOWN","OH",45121,38.812442838,-83.948895598,307,"6321 WHITE OAK LANE, GEORGETOWN, OH, 45121","Match","Exact","6321 WHITE OAK LN, GEORGETOWN, OH, 45121",100981326,"L"
263308,"6322 219TH STREET COURT EAST","SPANWAY","WA",98387,47.0573295570001,-122.346132004,308,"6322 219TH STREET COURT EAST, SPANWAY, WA, 98387","Match","Non_Exact","6322 219TH ST CT E, SPANAWAY, WA, 98387",184702155,"L"
263309,"6322 25TH ST S   APT 147","ST PETERSBURG","FL",33712,27.7105107840001,-82.6667815069999,309,"6322 25TH ST S   APT 147, ST PETERSBURG, FL, 33712","Match","Exact","6322 25TH ST S, SAINT PETERSBURG, FL, 33712",647873526,"R"
263310,"6322 JESSIE ANNE LN","HOUSTON","TX",77041,29.864032142,-95.614820257,310,"6322 JESSIE ANNE LN, HOUSTON, TX, 77041","Match","Exact","6322 JESSIE ANNE LN, HOUSTON, TX, 77041",96557076,"L"
263311,"6322 KIMMY COURT","SAN DIEGO","CA",92114,32.70373385,-117.062756541,311,"6322 KIMMY COURT, SAN DIEGO, CA, 92114","Match","Exact","6322 KIMMY CT, SAN DIEGO, CA, 92114",195353142,"L"
263312,"6322 WINDERMERE PARK LN","SUGAR LAND","TX",77479,29.550502137,-95.61265709,312,"6322 WINDERMERE PARK LN, SUGAR LAND, TX, 77479","Match","Non_Exact","6322 WINDERMERE PARK CT, SUGAR LAND, TX, 77479",642934701,"R"
263313,"6323 CHARLESTON PL","DUNWOODY","GA",30338,33.9245328470001,-84.307466136,313,"6323 CHARLESTON PL, DUNWOODY, GA, 30338","Match","Exact","6323 CHARLESTON PL, DUNWOODY, GA, 30338",23394293,"R"
263314,"6323 ELLENWOOD DR","REX","GA",30273,33.579795958,-84.2734583439999,314,"6323 ELLENWOOD DR, REX, GA, 30273","Match","Exact","6323 ELLENWOOD DR, REX, GA, 30273",627392365,"L"
263315,"6323 FM 78 STE116","SAN ANTONIO","TX",78244,29.4788297260001,-98.364146072,315,"6323 FM 78 STE116, SAN ANTONIO, TX, 78244","Match","Non_Exact","6323 FM 78, SAN ANTONIO, TX, 78244",101536636,"L"
263316,"6323 GEORGIA AVENUE NW 55011","WASHINGTON","DC",20040,38.966444553,-77.027564948,316,"6323 GEORGIA AVENUE NW 55011, WASHINGTON, DC, 20040","Match","Non_Exact","6323 GEORGIA AVE NW, WASHINGTON, DC, 20011",76221845,"R"
263317,"6323 HIGBEE MILL","SAN ANTONIO","TX",78247,29.5954218970001,-98.364419668,317,"6323 HIGBEE MILL, SAN ANTONIO, TX, 78247","Match","Exact","6323 HIGBEE ML, SAN ANTONIO, TX, 78247",101704390,"L"
263318,"6323 OLD POST COURT","COLUMBUS","GA",31909,32.5390445570001,-84.9083724549999,318,"6323 OLD POST COURT, COLUMBUS, GA, 31909","Match","Exact","6323 OLD POST CT, COLUMBUS, GA, 31909",98940020,"R"
263319,"6323 WILDWOOD LANE","WEST BLOOMFIELD","MI",48324,42.5873390450001,-83.408102651,319,"6323 WILDWOOD LANE, WEST BLOOMFIELD, MI, 48324","Match","Exact","6323 WILDWOOD LN, W BLOOMFIELD, MI, 48324",69785750,"R"
263320,"6323 WOODINGTON WAY","MADISON","WI",53711,43.0414721750001,-89.4891686129999,320,"6323 WOODINGTON WAY, MADISON, WI, 53711","Match","Exact","6323 WOODINGTON WAY, MADISON, WI, 53711",49467567,"L"
263321,"6324 27TH STREET","SACRAMENTO","CA",95822,38.511762451,-121.477202503,321,"6324 27TH STREET, SACRAMENTO, CA, 95822","Match","Exact","6324 27TH ST, SACRAMENTO, CA, 95822",618066789,"R"
263322,"6324 BROADWAY","EVERETT","WA",98203,47.940125708,-122.19950044,322,"6324 BROADWAY, EVERETT, WA, 98203","Match","Exact","6324 BROADWAY, EVERETT, WA, 98203",187746900,"R"
263323,"6324 CARLSON DRIVE","NEW ORLEANS","LA",70122,30.025257493,-90.073635917,323,"6324 CARLSON DRIVE, NEW ORLEANS, LA, 70122","Match","Exact","6324 CARLSON DR, NEW ORLEANS, LA, 70122",191703478,"L"
263324,"6324 CHICKERING WOODS DRIVE","NASHVILLE","TN",37215,36.0463476420001,-86.867810906,324,"6324 CHICKERING WOODS DRIVE, NASHVILLE, TN, 37215","Match","Exact","6324 CHICKERING WOODS DR, NASHVILLE, TN, 37215",642557569,"R"
263325,"6324 E PACIFIC COAST HWY STE C","LONG BEACH","CA",90803,33.76230645,-118.114757863,325,"6324 E PACIFIC COAST HWY STE C, LONG BEACH, CA, 90803","Match","Non_Exact","6324 E PACIFIC COAST HWY, LONG BEACH, CA, 90803",142673177,"R"
263326,"6324 EMBERWOOD CT","WEST CHESTER","OH",45069,39.3510528900001,-84.413024155,326,"6324 EMBERWOOD CT, WEST CHESTER, OH, 45069","Match","Exact","6324 EMBERWOOD CT, WEST CHESTER, OH, 45069",113810325,"L"
263327,"6324 FAIRMOUNT AVENUE UNIT 2418","EL CERRITO","CA",94530,37.9006798450001,-122.302256996,327,"6324 FAIRMOUNT AVENUE UNIT 2418, EL CERRITO, CA, 94530","Match","Exact","6324 FAIRMOUNT AVE, EL CERRITO, CA, 94530",192043950,"R"
263328,"6324 FREEDOM AVENUE","SYKESVILLE","MD",21784,39.399025346,-76.96279745,328,"6324 FREEDOM AVENUE, SYKESVILLE, MD, 21784","Match","Exact","6324 FREEDOM AVE, SYKESVILLE, MD, 21784",61755776,"R"
263329,"6324 LAKE SMITH CIRCLE","WINDERMERE","FL",34786,28.476302167,-81.588243402,329,"6324 LAKE SMITH CIRCLE, WINDERMERE, FL, 34786","Match","Exact","6324 LAKE SMITH CIR, WINDERMERE, FL, 34786",653187087,"R"
263330,"6324 LAKECREST DRIVE","SHAWNEE","KS",66218,39.0135005270001,-94.831612095,330,"6324 LAKECREST DRIVE, SHAWNEE, KS, 66218","Match","Exact","6324 LAKECREST DR, SHAWNEE, KS, 66218",91322344,"R"
263331,"6324 LEY ROAD","MINERAL POINT","WI",53565,42.9003781170001,-90.0122167929999,331,"6324 LEY ROAD, MINERAL POINT, WI, 53565","Match","Exact","6324 LEY RD, MINERAL POINT, WI, 53565",49796567,"R"
263332,"6324 N 31ST AVENUE","OMAHA","NE",68111,41.316088629,-95.9593993509999,332,"6324 N 31ST AVENUE, OMAHA, NE, 68111","Match","Exact","6324 N 31ST AVE, OMAHA, NE, 68111",116979407,"L"
263333,"6324 N CHATHAM SUITE 162","KANSAS CITY","MO",64151,NA,NA,333,"6324 N CHATHAM SUITE 162, KANSAS CITY, MO, 64151","No_Match",NA,NA,NA,NA
263334,"6324 N","CHICAGO","IL",60659,NA,NA,334,"6324 N, CHICAGO, IL, 60659","No_Match",NA,NA,NA,NA
263335,"6324 SEAL CV","FORT WORTH","TX",76179,32.8524477170001,-97.3947800889999,335,"6324 SEAL CV, FORT WORTH, TX, 76179","Match","Exact","6324 SEAL CV, FORT WORTH, TX, 76179",652663917,"R"
263336,"6324 SILVER CREEK LANE","RALEIGH","NC",27603,35.609104475,-78.651143417,336,"6324 SILVER CREEK LANE, RALEIGH, NC, 27603","Match","Exact","6324 SILVER CREEK LN, RALEIGH, NC, 27603",648792988,"R"
263337,"6324 WILCOT COURT","JOHNSTON","IA",50131,41.675933802,-93.745498278,337,"6324 WILCOT COURT, JOHNSTON, IA, 50131","Match","Exact","6324 WILCOT CT, JOHNSTON, IA, 50131",617119956,"R"
263338,"6325 6TH AVENUE SOUTH","ST PETERSBURG","FL",33707,27.7641753080001,-82.7227177079999,338,"6325 6TH AVENUE SOUTH, ST PETERSBURG, FL, 33707","Match","Exact","6325 6TH AVE S, SAINT PETERSBURG, FL, 33707",124699019,"R"
263339,"6325 ARGENTINE ROAD","HOWELL","MI",48855,42.6992636950001,-83.8403065159999,339,"6325 ARGENTINE ROAD, HOWELL, MI, 48855","Match","Exact","6325 ARGENTINE RD, HOWELL, MI, 48855",652798376,"L"
263340,"6325 BURGUNDY LEAF LANE","ALEXANDRIA","VA",22312,38.805514633,-77.152068779,340,"6325 BURGUNDY LEAF LANE, ALEXANDRIA, VA, 22312","Match","Exact","6325 BURGUNDY LEAF LN, ALEXANDRIA, VA, 22312",76044140,"R"
263341,"6325 CHIEF WASHAKIE AVE","CHEYENNE","WY",82009,41.177175977,-104.780163442,341,"6325 CHIEF WASHAKIE AVE, CHEYENNE, WY, 82009","Match","Exact","6325 CHIEF WASHAKIE AVE, CHEYENNE, WY, 82009",644921693,"L"
263342,"6325 E GATEWAY CT","BOISE","ID",83716,43.5445901080001,-116.105325023,342,"6325 E GATEWAY CT, BOISE, ID, 83716","Match","Exact","6325 E GATEWAY CT, BOISE, ID, 83716",117894497,"R"
263343,"6325 FAIRHURST AVE","CINCINNATI","OH",45213,39.186629214,-84.4376538509999,343,"6325 FAIRHURST AVE, CINCINNATI, OH, 45213","Match","Exact","6325 FAIRHURST AVE, CINCINNATI, OH, 45213",103929324,"L"
263344,"6325 FALLS OF NEUSE RD  STE 35/400","RALEIGH","NC",27615,35.8697169160001,-78.6212451819999,344,"6325 FALLS OF NEUSE RD  STE 35/400, RALEIGH, NC, 27615","Match","Exact","6325 FALLS OF NEUSE RD, RALEIGH, NC, 27615",612570903,"L"
263345,"6325 FALLS OF NEUSE RD STE 35-241","RALEIGH","NC",27615,35.8697169160001,-78.6212451819999,345,"6325 FALLS OF NEUSE RD STE 35-241, RALEIGH, NC, 27615","Match","Exact","6325 FALLS OF NEUSE RD, RALEIGH, NC, 27615",612570903,"L"
263346,"6325 FALLS OF NEUSE RD SUITE 35-109","RALEIGH","NC",27615,35.8697169160001,-78.6212451819999,346,"6325 FALLS OF NEUSE RD SUITE 35-109, RALEIGH, NC, 27615","Match","Exact","6325 FALLS OF NEUSE RD, RALEIGH, NC, 27615",612570903,"L"
263347,"6325 FALLS OF NEUSE RD SUITE 35-216","RALEIGH","NC",27615,35.8697169160001,-78.6212451819999,347,"6325 FALLS OF NEUSE RD SUITE 35-216, RALEIGH, NC, 27615","Match","Exact","6325 FALLS OF NEUSE RD, RALEIGH, NC, 27615",612570903,"L"
263348,"6325 FALLS OF NEUSE RD SUITE 35-431","RALEIGH","NC",27615,35.8697169160001,-78.6212451819999,348,"6325 FALLS OF NEUSE RD SUITE 35-431, RALEIGH, NC, 27615","Match","Exact","6325 FALLS OF NEUSE RD, RALEIGH, NC, 27615",612570903,"L"
263349,"6325 FALSWORTH DRIVE","BEAUMONT","TX",77707,30.0731621680001,-94.1680489779999,349,"6325 FALSWORTH DRIVE, BEAUMONT, TX, 77707","Match","Exact","6325 FALSWORTH DR, BEAUMONT, TX, 77707",73852175,"L"
263350,"6325 GARDEN ROAD","MAUMEE","OH",43537,41.5954801190001,-83.692463846,350,"6325 GARDEN ROAD, MAUMEE, OH, 43537","Match","Exact","6325 GARDEN RD, MAUMEE, OH, 43537",33930331,"R"
263351,"6325 IAN CHAD DR W","JACKSONVILLE","FL",32244,30.2351971900001,-81.777838284,351,"6325 IAN CHAD DR W, JACKSONVILLE, FL, 32244","Match","Exact","6325 IAN CHAD DR W, JACKSONVILLE, FL, 32244",83939945,"L"
263352,"6325 KINSEY TER","LANHAM","MD",20706,38.9774402570001,-76.8330878739999,352,"6325 KINSEY TER, LANHAM, MD, 20706","Match","Exact","6325 KINSEY TER, LANHAM, MD, 20706",76418609,"L"
263353,"6325 LEAVENWORTH ROAD","KANSAS CITY","KS",66104,39.1431074550001,-94.725960365,353,"6325 LEAVENWORTH ROAD, KANSAS CITY, KS, 66104","Match","Exact","6325 LEAVENWORTH RD, KANSAS CITY, KS, 66104",91133357,"L"
263354,"6325 LYNDALE AVE S UNIT 2","RICHFIELD","MN",55423,44.888269703,-93.2883318,354,"6325 LYNDALE AVE S UNIT 2, RICHFIELD, MN, 55423","Match","Exact","6325 LYNDALE AVE S, RICHFIELD, MN, 55423",43835486,"L"
263355,"6325 MARAVIAN DRIVE","LOUISVILLE","KY",40258,38.162709009,-85.871840048,355,"6325 MARAVIAN DRIVE, LOUISVILLE, KY, 40258","Match","Exact","6325 MARAVIAN DR, LOUISVILLE, KY, 40258",96920796,"R"
263356,"6325 MINLO DRIVE","INDIANAPOLIS","IN",46227,39.67506723,-86.104682858,356,"6325 MINLO DRIVE, INDIANAPOLIS, IN, 46227","Match","Exact","6325 MINLO DR, INDIANAPOLIS, IN, 46227",108009908,"L"
263357,"6325 N 128TH ST","OMAHA","NE",68164,41.3159123140001,-96.113714311,357,"6325 N 128TH ST, OMAHA, NE, 68164","Match","Exact","6325 N 128TH ST, OMAHA, NE, 68164",117019214,"R"
263358,"6325 N 128TH STREET","OMAHA","NE",68164,41.3159123140001,-96.113714311,358,"6325 N 128TH STREET, OMAHA, NE, 68164","Match","Exact","6325 N 128TH ST, OMAHA, NE, 68164",117019214,"R"
263359,"6325 N 14TH PLACE","PHOENIX","AZ",85014,33.52956749,-112.050714523,359,"6325 N 14TH PLACE, PHOENIX, AZ, 85014","Match","Exact","6325 N 14TH PL, PHOENIX, AZ, 85014",128601775,"R"
263360,"6325 N SHERIDAN RD","CHICAGO","IL",60660,41.996690325,-87.655580516,360,"6325 N SHERIDAN RD, CHICAGO, IL, 60660","Match","Exact","6325 N SHERIDAN RD, CHICAGO, IL, 60660",638170195,"R"
263361,"6325 ORION AVENUE","VAN NUYS","CA",91411,34.1851233470001,-118.4698562,361,"6325 ORION AVENUE, VAN NUYS, CA, 91411","Match","Exact","6325 ORION AVE, VAN NUYS, CA, 91411",142716233,"L"
263362,"6325 QUEENSDALE DR","DOUGLASVILLE","GA",30135,33.6731608700001,-84.781710135,362,"6325 QUEENSDALE DR, DOUGLASVILLE, GA, 30135","Match","Exact","6325 QUEENSDALE DR, DOUGLASVILLE, GA, 30135",619841760,"R"
263363,"6325 RICKERT ROAD","SARANAC","MI",48881,42.9584773290001,-85.203074826,363,"6325 RICKERT ROAD, SARANAC, MI, 48881","Match","Exact","6325 RICKERT RD, SARANAC, MI, 48881",12144425,"R"
263364,"6325 RIDGEPATH CT","RANCHO PALOS VERDES","CA",90275,33.7787622010001,-118.38925625,364,"6325 RIDGEPATH CT, RANCHO PALOS VERDES, CA, 90275","Match","Exact","6325 RIDGEPATH CT, RANCHO PALOS VERDES, CA, 90275",640421684,"R"
263365,"6325 S WICKLOW AVE","SIOUX FALLS","SD",57108,43.4875671890001,-96.745079286,365,"6325 S WICKLOW AVE, SIOUX FALLS, SD, 57108","Match","Exact","6325 WICKLOW AVE, SIOUX FALLS, SD, 57108",633086360,"R"
263366,"6325 SHANNON PARKWAY SUITE A1","UNION CITY","GA",30291,33.578804674,-84.540303164,366,"6325 SHANNON PARKWAY SUITE A1, UNION CITY, GA, 30291","Match","Exact","6325 SHANNON PKWY, UNION CITY, GA, 30291",640546264,"L"
263367,"6325 STEEPLE CHASE CT","LAWRENCE","KS",66049,38.9646704530001,-95.3322363789999,367,"6325 STEEPLE CHASE CT, LAWRENCE, KS, 66049","Match","Exact","6325 STEEPLE CHASE CT, LAWRENCE, KS, 66049",645943756,"R"
263368,"6326 16TH ST NW","WASHINGTON","DC",20011,38.967035674,-77.036422553,368,"6326 16TH ST NW, WASHINGTON, DC, 20011","Match","Exact","6326 16TH ST NW, WASHINGTON, DC, 20011",76221623,"L"
263369,"6326 ARCTIC WARRIOR DR","ANCHORAGE","AK",99506,61.2373082330001,-149.830018908,369,"6326 ARCTIC WARRIOR DR, ANCHORAGE, AK, 99506","Match","Exact","6326 ARCTIC WARRIOR DR, ANCHORAGE, AK, 99506",190796192,"R"
263370,"6326 COPPER COURT","WEST RICHLAND","WA",99353,46.287317101,-119.370453891,370,"6326 COPPER COURT, WEST RICHLAND, WA, 99353","Match","Exact","6326 COPPER CT, WEST RICHLAND, WA, 99353",642953473,"R"
263371,"6326 LAKESIDE LANE","LAWRENCE","KS",66049,38.9450275,-95.3330377889999,371,"6326 LAKESIDE LANE, LAWRENCE, KS, 66049","Match","Exact","6326 LAKESIDE LN, LAWRENCE, KS, 66049",618063907,"R"
263372,"6326 MAYFLOWER AVENUE","BELL","CA",90201,33.9788211220001,-118.182293205,372,"6326 MAYFLOWER AVENUE, BELL, CA, 90201","Match","Exact","6326 MAYFLOWER AVE, BELL, CA, 90201",141676937,"L"
263373,"6326 PEMBROKE ROAD UNIT E","MIRAMAR","FL",33023,25.9953012620001,-80.213601066,373,"6326 PEMBROKE ROAD UNIT E, MIRAMAR, FL, 33023","Match","Exact","6326 PEMBROKE RD, MIRAMAR, FL, 33023",637769607,"R"
263374,"6326 S MORGAN","CHICAGO","IL",60621,41.778779985,-87.649625382,374,"6326 S MORGAN, CHICAGO, IL, 60621","Match","Non_Exact","6326 S MORGAN ST, CHICAGO, IL, 60621",111830703,"R"
263375,"6326 SADDLE LANE EAST","WESTERVILLE","OH",43081,40.097240239,-82.916517026,375,"6326 SADDLE LANE EAST, WESTERVILLE, OH, 43081","Match","Exact","6326 SADDLE LN E, WESTERVILLE, OH, 43081",135587983,"R"
263376,"6326 SAN JOSE BLVD WEST","JACKSONVILLE","FL",32217,30.256640675,-81.643727656,376,"6326 SAN JOSE BLVD WEST, JACKSONVILLE, FL, 32217","Match","Exact","6326 SAN JOSE BLVD W, JACKSONVILLE, FL, 32217",83989444,"R"
263377,"6326 W POTTER DR","GLENDALE","AZ",85308,33.673688064,-112.19521731,377,"6326 W POTTER DR, GLENDALE, AZ, 85308","Match","Exact","6326 W POTTER DR, GLENDALE, AZ, 85308",128385931,"L"
263378,"6326 WITSELL AVENUE","SAINT LOUIS","MO",63134,38.75062962,-90.3195907369999,378,"6326 WITSELL AVENUE, SAINT LOUIS, MO, 63134","Match","Exact","6326 WITSELL AVE, SAINT LOUIS, MO, 63134",100121536,"R"
263379,"63262 ORANGE ROAD","SOUTH BEND","IN",46614,41.5745356130001,-86.3407995329999,379,"63262 ORANGE ROAD, SOUTH BEND, IN, 46614","Match","Exact","63262 ORANGE RD, SOUTH BEND, IN, 46614",653408212,"L"
263380,"6327 95TH AVE NE","LAKE STEVENS","WA",98258,48.05277591,-122.104289716,380,"6327 95TH AVE NE, LAKE STEVENS, WA, 98258","Match","Exact","6327 95TH AVE NE, LAKE STEVENS, WA, 98258",187748467,"R"
263381,"6327 BAYNTON ST","PHILADELPHIA","PA",19144,40.045011957,-75.180426536,381,"6327 BAYNTON ST, PHILADELPHIA, PA, 19144","Match","Exact","6327 BAYNTON ST, PHILADELPHIA, PA, 19144",131395415,"R"
263382,"6327 S OLIVE STREET","CENTENNIAL","CO",80111,39.601781723,-104.908485221,382,"6327 S OLIVE STREET, CENTENNIAL, CO, 80111","Match","Exact","6327 S OLIVE ST, CENTENNIAL, CO, 80111",177346554,"R"
263383,"6327 SIERRA DR","OLIVE BRANCH","MS",38654,34.949870692,-89.874230681,383,"6327 SIERRA DR, OLIVE BRANCH, MS, 38654","Match","Exact","6327 SIERRA DR, OLIVE BRANCH, MS, 38654",627552328,"R"
263384,"6327 WATERS EDGE DRIVE","ROCKY MOUNT","NC",27803,35.888549229,-77.891917237,384,"6327 WATERS EDGE DRIVE, ROCKY MOUNT, NC, 27803","Match","Exact","6327 WATERS EDGE DR, ROCKY MOUNT, NC, 27803",90399822,"L"
263385,"6327 WEST COMMERICAL BLVD","TAMARAC","FL",33319,26.193908402,-80.235232395,385,"6327 WEST COMMERICAL BLVD, TAMARAC, FL, 33319","Match","Non_Exact","6327 W COMMERCIAL BLVD, TAMARAC, FL, 33319",637075567,"L"
263386,"6327 WINGATE STREET","ALEXANDRIA","VA",22312,38.8226649170001,-77.145492116,386,"6327 WINGATE STREET, ALEXANDRIA, VA, 22312","Match","Exact","6327 WINGATE ST, ALEXANDRIA, VA, 22312",75981990,"L"
263387,"6328 BELLBROOK DRIVE","DALLAS","TX",75217,32.7161522600001,-96.713174115,387,"6328 BELLBROOK DRIVE, DALLAS, TX, 75217","Match","Exact","6328 BELLBROOK DR, DALLAS, TX, 75217",102958683,"R"
263388,"6328 E FILLMORE AVE","FRESNO","CA",93727,36.7426374390001,-119.67557912,388,"6328 E FILLMORE AVE, FRESNO, CA, 93727","Match","Exact","6328 E FILLMORE AVE, FRESNO, CA, 93727",606271702,"R"
263389,"6328 EAST COUNTY LINE RD 102A","HIGHLANDS RANCH","CO",80126,39.566034071,-104.917949766,389,"6328 EAST COUNTY LINE RD 102A, HIGHLANDS RANCH, CO, 80126","Match","Exact","6328 E COUNTY LINE RD, HIGHLANDS RANCH, CO, 80126",606340466,"R"
263390,"6328 LAKESORE DR","SARANAC","MI",48881,NA,NA,390,"6328 LAKESORE DR, SARANAC, MI, 48881","No_Match",NA,NA,NA,NA
263391,"6328 MONARCH CREEK ST","LAS VEGAS","NV",89130,36.2733878270001,-115.211491269,391,"6328 MONARCH CREEK ST, LAS VEGAS, NV, 89130","Match","Exact","6328 MONARCH CREEK ST, LAS VEGAS, NV, 89130",201961851,"R"
263392,"6328 OUTLOOK AVE","OAKLAND","CA",94605,37.7765435840001,-122.177325343,392,"6328 OUTLOOK AVE, OAKLAND, CA, 94605","Match","Exact","6328 OUTLOOK AVE, OAKLAND, CA, 94605",125008602,"L"
263393,"6328 VALLEY VIEW RD","EDINA","MN",55436,44.88868611,-93.365221848,393,"6328 VALLEY VIEW RD, EDINA, MN, 55436","Match","Exact","6328 VALLEY VIEW RD, EDINA, MN, 55436",640267766,"R"
263394,"6328 W  BROWN ST","GLENDALE","AZ",85302,33.5781685920001,-112.195516651,394,"6328 W  BROWN ST, GLENDALE, AZ, 85302","Match","Exact","6328 W BROWN ST, GLENDALE, AZ, 85302",128261860,"R"
263395,"6328 YORKDALE DR","PLANO","TX",75093,33.056175205,-96.836366254,395,"6328 YORKDALE DR, PLANO, TX, 75093","Match","Exact","6328 YORKDALE DR, PLANO, TX, 75093",123531438,"R"
263396,"6328W HILLCREST DRIVE","MANISTIQUE","MI",49854,45.9679107960001,-86.194672086,396,"6328W HILLCREST DRIVE, MANISTIQUE, MI, 49854","Match","Exact","6328 HILLCREST DR, MANISTIQUE, MI, 49854",171902991,"R"
263397,"6329 75TH STREET","MIDDLE VILLAGE","NY",11379,40.7184222980001,-73.88054604,397,"6329 75TH STREET, MIDDLE VILLAGE, NY, 11379","Match","Non_Exact","6329 75TH PL, MIDDLE VILLAGE, NY, 11379",59695834,"L"
263398,"6329 ARLINGTON BLVD  SUITE B","FALLS CHURCH","VA",22044,38.872150661,-77.158846295,398,"6329 ARLINGTON BLVD  SUITE B, FALLS CHURCH, VA, 22044","Match","Exact","6329 ARLINGTON BLVD, FALLS CHURCH, VA, 22044",619933020,"R"
263399,"6329 ARLINGTON BLVD SUITE L","FALLS CHURCH","VA",22044,38.872150661,-77.158846295,399,"6329 ARLINGTON BLVD SUITE L, FALLS CHURCH, VA, 22044","Match","Exact","6329 ARLINGTON BLVD, FALLS CHURCH, VA, 22044",619933020,"R"
263400,"6329 MCRAY DR","BALL","LA",71405,31.413800382,-92.422695018,400,"6329 MCRAY DR, BALL, LA, 71405","Match","Exact","6329 MCRAY DR, BALL, LA, 71405",11805858,"R"
263401,"6329 S 251 STREET  V V 104","KENT","WA",98032,47.3768324930001,-122.254156245,401,"6329 S 251 STREET  V V 104, KENT, WA, 98032","Match","Non_Exact","6329 S 251ST ST, KENT, WA, 98032",648722479,"L"
263402,"6329 S 251ST STREET SUITE V V 104","KENT","WA",98032,47.3768324930001,-122.254156245,402,"6329 S 251ST STREET SUITE V V 104, KENT, WA, 98032","Match","Non_Exact","6329 S 251ST ST, KENT, WA, 98032",648722479,"L"
263403,"6329 STATE ROAD 54","NEW PORT RICHEY","FL",34653,NA,NA,403,"6329 STATE ROAD 54, NEW PORT RICHEY, FL, 34653","No_Match",NA,NA,NA,NA
263404,"6329 TEANECK PLACE","CHARLOTTE","NC",28215,35.2312878930001,-80.7217109699999,404,"6329 TEANECK PLACE, CHARLOTTE, NC, 28215","Match","Exact","6329 TEANECK PL, CHARLOTTE, NC, 28215",70518037,"L"
263405,"6329 TRIMBLE ROAD","WOODSIDE","NY",11377,NA,NA,405,"6329 TRIMBLE ROAD, WOODSIDE, NY, 11377","No_Match",NA,NA,NA,NA
263406,"6329 WILLIAMS RUN ROAD","PORT REPUBLIC","VA",24471,38.3290561920001,-78.8462009199999,406,"6329 WILLIAMS RUN ROAD, PORT REPUBLIC, VA, 24471","Match","Exact","6329 WILLIAMS RUN RD, PORT REPUBLIC, VA, 24471",55745219,"R"
263407,"63292 WINTERGREEN ROAD","LORE CITY","OH",43755,40.0151496280001,-81.458288055,407,"63292 WINTERGREEN ROAD, LORE CITY, OH, 43755","Match","Exact","63292 WINTERGREEN RD, LORE CITY, OH, 43755",37651692,"R"
263408,"63294 EASTVIEW DR","BEND","OR",97701,44.0979617950001,-121.281210255,408,"63294 EASTVIEW DR, BEND, OR, 97701","Match","Exact","63294 EASTVIEW DR, BEND, OR, 97701",152583816,"L"
263409,"633 41ST STREET","NEWPORT NEWS","VA",23607,36.992076184,-76.426427597,409,"633 41ST STREET, NEWPORT NEWS, VA, 23607","Match","Exact","633 41ST ST, NEWPORT NEWS, VA, 23607",103819465,"L"
263410,"633 AERICK STREET SUITE 125","INGLEWOOD","CA",90301,33.963580269,-118.34613766,410,"633 AERICK STREET SUITE 125, INGLEWOOD, CA, 90301","Match","Exact","633 AERICK ST, INGLEWOOD, CA, 90301",142750533,"L"
263411,"633 ARTIS LANE","CONWAY","AR",72034,NA,NA,411,"633 ARTIS LANE, CONWAY, AR, 72034","No_Match",NA,NA,NA,NA
263412,"633 ARTWOOD DRIVE","PHILADELPHIA","PA",19115,40.098152671,-75.0525517689999,412,"633 ARTWOOD DRIVE, PHILADELPHIA, PA, 19115","Match","Exact","633 ARTWOOD DR, PHILADELPHIA, PA, 19115",131441229,"L"
263413,"633 ASHFORD DRIVE NE","CEDAR RAPIDS","IA",52402,42.0553856060001,-91.643527908,413,"633 ASHFORD DRIVE NE, CEDAR RAPIDS, IA, 52402","Match","Exact","633 ASHFORD DR NE, CEDAR RAPIDS, IA, 52402",17041412,"L"
263414,"633 AZALEA ROAD","MOBILE","AL",36609,30.656424526,-88.1451754409999,414,"633 AZALEA ROAD, MOBILE, AL, 36609","Match","Exact","633 AZALEA RD, MOBILE, AL, 36609",649966931,"L"
263415,"633 BANKS ROAD","MARGATE","FL",33063,26.241567381,-80.1978247119999,415,"633 BANKS ROAD, MARGATE, FL, 33063","Match","Exact","633 BANKS RD, MARGATE, FL, 33063",114815602,"R"
263416,"633 BARNETT DRIVE APT 312","KINGSPORT","TN",37664,36.4799663110001,-82.5471368249999,416,"633 BARNETT DRIVE APT 312, KINGSPORT, TN, 37664","Match","Exact","633 BARNETT DR, KINGSPORT, TN, 37664",127869406,"L"
263417,"633 BEECHWOOD STREET","WOOSTER","OH",44691,40.8095647750001,-81.94856157,417,"633 BEECHWOOD STREET, WOOSTER, OH, 44691","Match","Non_Exact","633 BEECHWOOD AVE, WOOSTER, OH, 44691",58721660,"R"
263418,"633 BELLEFORTE AVENUE","OAK PARK","IL",60302,41.8968332270001,-87.80201472,418,"633 BELLEFORTE AVENUE, OAK PARK, IL, 60302","Match","Exact","633 BELLEFORTE AVE, OAK PARK, IL, 60302",605104746,"L"
263419,"633 BELLEVIEW BOULEVARD","STEUBENVILLE","OH",43952,40.3686959500001,-80.62062223,419,"633 BELLEVIEW BOULEVARD, STEUBENVILLE, OH, 43952","Match","Exact","633 BELLEVIEW BLVD, STEUBENVILLE, OH, 43952",37801489,"L"
263420,"633 BELVIDERE RD","PHILLIPSBURG","NJ",8865,40.7014823550001,-75.189229637,420,"633 BELVIDERE RD, PHILLIPSBURG, NJ, 8865","Match","Exact","633 BELVIDERE RD, PHILLIPSBURG, NJ, 08865",98086838,"L"
263421,"633 BIG HILL AVENUE APT J77","RICHMOND","KY",40475,NA,NA,421,"633 BIG HILL AVENUE APT J77, RICHMOND, KY, 40475","No_Match",NA,NA,NA,NA
263422,"633 BLUE RIDGE DRIVE","DRIPPING SPRINGS","TX",78620,30.1764986110001,-98.0779453659999,422,"633 BLUE RIDGE DRIVE, DRIPPING SPRINGS, TX, 78620","Match","Exact","633 BLUE RIDGE DR, DRIPPING SPRINGS, TX, 78620",647135389,"L"
263423,"633 BOYER ROAD","CHELTENHAM","PA",19012,40.059916071,-75.104141378,423,"633 BOYER ROAD, CHELTENHAM, PA, 19012","Match","Exact","633 BOYER RD, CHELTENHAM, PA, 19012",135096399,"R"
263424,"633 BRAESIDE SOUTH DR","INDIANAPOLIS","IN",46260,39.91491583,-86.170221262,424,"633 BRAESIDE SOUTH DR, INDIANAPOLIS, IN, 46260","Match","Exact","633 BRAESIDE SOUTH DR, INDIANAPOLIS, IN, 46260",107981424,"L"
263425,"633 BROKEN ARROW COVE","MCDONOUGH","GA",30252,33.515973349,-84.073603686,425,"633 BROKEN ARROW COVE, MCDONOUGH, GA, 30252","Match","Exact","633 BROKEN ARROW COVE, MCDONOUGH, GA, 30252",627695807,"R"
263426,"633 BURLINGAME","DETROIT","MI",48202,42.390549487,-83.091513337,426,"633 BURLINGAME, DETROIT, MI, 48202","Match","Non_Exact","633 BURLINGAME ST, DETROIT, MI, 48202",95475141,"L"
263427,"633 CARDINAL LANE","CONTINENTAL","OH",45831,NA,NA,427,"633 CARDINAL LANE, CONTINENTAL, OH, 45831","No_Match",NA,NA,NA,NA
263428,"633 CARLOTTA CIRCLE","PINOLE","CA",94564,38.0087672340001,-122.309033275,428,"633 CARLOTTA CIRCLE, PINOLE, CA, 94564","Match","Exact","633 CARLOTTA CIR, PINOLE, CA, 94564",607708152,"L"
263429,"633 CHESTNUT ST STE 1800","CHATTANOOGA","TN",37450,35.049165891,-85.311687472,429,"633 CHESTNUT ST STE 1800, CHATTANOOGA, TN, 37450","Match","Exact","633 CHESTNUT ST, CHATTANOOGA, TN, 37450",59303967,"R"
263430,"633 CHESTNUT ST","MISSOULA","MT",59801,46.865626069,-114.002011358,430,"633 CHESTNUT ST, MISSOULA, MT, 59801","Match","Exact","633 CHESTNUT ST, MISSOULA, MT, 59801",205238933,"R"
263431,"633 CHESTNUT STREET SUITE 900","CHATTANOOGA","TN",37450,35.049165891,-85.311687472,431,"633 CHESTNUT STREET SUITE 900, CHATTANOOGA, TN, 37450","Match","Exact","633 CHESTNUT ST, CHATTANOOGA, TN, 37450",59303967,"R"
263432,"633 DICKVALE ROAD","PERU","ME",4290,44.4786508270001,-70.484698454,432,"633 DICKVALE ROAD, PERU, ME, 4290","Match","Exact","633 DICKVALE RD, PERU, ME, 04290",92656786,"L"
263433,"633 DOVER HEIGHTS TRAIL","MANSFIELD","TX",76063,32.606261406,-97.130364798,433,"633 DOVER HEIGHTS TRAIL, MANSFIELD, TX, 76063","Match","Exact","633 DOVER HEIGHTS TRL, MANSFIELD, TX, 76063",102118356,"L"
263434,"633 E 200 S APT 3","SALT LAKE CITY","UT",84102,NA,NA,434,"633 E 200 S APT 3, SALT LAKE CITY, UT, 84102","No_Match",NA,NA,NA,NA
263435,"633 E 50TH STREET","INDIANAPOLIS","IN",46205,39.843896838,-86.1479534059999,435,"633 E 50TH STREET, INDIANAPOLIS, IN, 46205","Match","Exact","633 E 50TH ST, INDIANAPOLIS, IN, 46205",107984433,"R"
263436,"633 E BOWEN","CHICAGO","IL",60653,41.819422929,-87.610949136,436,"633 E BOWEN, CHICAGO, IL, 60653","Match","Non_Exact","633 E BOWEN AVE, CHICAGO, IL, 60653",111770795,"R"
263437,"633 E FRONTAGE RD","NOGALES","AZ",85621,31.4077530530001,-110.961340454,437,"633 E FRONTAGE RD, NOGALES, AZ, 85621","Match","Exact","633 E FRONTAGE RD, NOGALES, AZ, 85621",635823049,"R"
263438,"633 E NEW YORK  AVE APT 2LF","BROOKLYN","NY",11203,40.6588104580001,-73.94750447,438,"633 E NEW YORK  AVE APT 2LF, BROOKLYN, NY, 11203","Match","Exact","633 NEW YORK AVE, BROOKLYN, NY, 11203",59079619,"L"
263439,"633 E NEW YORK AVE APT 4RF","BROOKLYN","NY",11203,40.6588104580001,-73.94750447,439,"633 E NEW YORK AVE APT 4RF, BROOKLYN, NY, 11203","Match","Exact","633 NEW YORK AVE, BROOKLYN, NY, 11203",59079619,"L"
263440,"633 E RAY ROAD STE 132","GILBERT","AZ",85296,33.3210983440001,-111.7766095,440,"633 E RAY ROAD STE 132, GILBERT, AZ, 85296","Match","Non_Exact","633 E RAY RD, GILBERT, AZ, 85296",653692635,"R"
263441,"633 EDWIN DR","VIRGINIA BEACH","VA",23462,36.820966066,-76.1388402219999,441,"633 EDWIN DR, VIRGINIA BEACH, VA, 23462","Match","Exact","633 EDWIN DR, VA BCH, VA, 23462",640223423,"R"
263442,"633 ENGLEWOOD DRIVE","LAKE OSWEGO","OR",97034,45.433740105,-122.685723519,442,"633 ENGLEWOOD DRIVE, LAKE OSWEGO, OR, 97034","Match","Exact","633 ENGLEWOOD DR, LAKE OSWEGO, OR, 97034",157526071,"R"
263443,"633 FREMONT AVE","RUPERT","ID",83350,NA,NA,443,"633 FREMONT AVE, RUPERT, ID, 83350","No_Match",NA,NA,NA,NA
263444,"633 FREMONT STREET","ELMORE","OH",43416,41.4723313380001,-83.289726862,444,"633 FREMONT STREET, ELMORE, OH, 43416","Match","Exact","633 FREMONT ST, ELMORE, OH, 43416",44059318,"R"
263445,"633 GARFIELD STREET","CLARKSDALE","MS",38614,34.1985249040001,-90.5605778939999,445,"633 GARFIELD STREET, CLARKSDALE, MS, 38614","Match","Exact","633 GARFIELD ST, CLARKSDALE, MS, 38614",951356,"L"
263446,"633 GIBBONS AVE","ELKTON","VA",22827,38.409385113,-78.628809255,446,"633 GIBBONS AVE, ELKTON, VA, 22827","Match","Exact","633 GIBBONS AVE, ELKTON, VA, 22827",55715769,"R"
263447,"633 GOODYEAR DRIVE","SPRING LAKE","NC",28390,35.1763941930001,-78.992952648,447,"633 GOODYEAR DRIVE, SPRING LAKE, NC, 28390","Match","Exact","633 GOODYEAR DR, SPRING LAKE, NC, 28390",64235930,"L"
263448,"633 HUNTING FIELDS RD","BALTIMORE","MD",21220,39.329139813,-76.383165935,448,"633 HUNTING FIELDS RD, BALTIMORE, MD, 21220","Match","Exact","633 HUNTING FIELDS RD, BALTIMORE, MD, 21220",191515773,"L"
263449,"633 JACKSON STREET","PUEBLO","CO",81004,38.255122526,-104.631879928,449,"633 JACKSON STREET, PUEBLO, CO, 81004","Match","Exact","633 JACKSON ST, PUEBLO, CO, 81004",105066406,"R"
263450,"633 KENSINGTON CR","LOS BANOS","CA",93635,37.0792418250001,-120.828313886,450,"633 KENSINGTON CR, LOS BANOS, CA, 93635","Match","Exact","633 KENSINGTON CIR, LOS BANOS, CA, 93635",125349110,"L"
263451,"633 LAUNCELOT RD","JACKSON","MS",39206,32.361620659,-90.163371016,451,"633 LAUNCELOT RD, JACKSON, MS, 39206","Match","Exact","633 LAUNCELOT RD, JACKSON, MS, 39206",65360747,"R"
263452,"633 MARVIN RD","INDIAN LAND","SC",29707,34.990738423,-80.836311488,452,"633 MARVIN RD, INDIAN LAND, SC, 29707","Match","Exact","633 MARVIN RD, INDIAN LAND, SC, 29707",639884942,"L"
263453,"633 MARYLAND AVE NE","WASHINGTON","DC",20002,38.89432874,-76.9975602329999,453,"633 MARYLAND AVE NE, WASHINGTON, DC, 20002","Match","Exact","633 MARYLAND AVE NE, WASHINGTON, DC, 20002",638247520,"L"
263454,"633 MAXWELTON CT UNIT 1","LEXINGTON","KY",40508,38.036491944,-84.509159731,454,"633 MAXWELTON CT UNIT 1, LEXINGTON, KY, 40508","Match","Exact","633 MAXWELTON CT, LEXINGTON, KY, 40508",640449304,"R"
263455,"633 MILWAUKEE STREET","LOMIRA","WI",53048,43.5896708830001,-88.4501374439999,455,"633 MILWAUKEE STREET, LOMIRA, WI, 53048","Match","Exact","633 MILWAUKEE ST, LOMIRA, WI, 53048",53540790,"L"
263456,"633 N 3RD AVENUE","STAYTON","OR",97383,44.7995964510001,-122.792257111,456,"633 N 3RD AVENUE, STAYTON, OR, 97383","Match","Exact","633 N 3RD AVE, STAYTON, OR, 97383",156231822,"L"
263457,"633 N CENTRAL AVE UNITA320","GLENDALE","CA",91203,34.154975951,-118.257940778,457,"633 N CENTRAL AVE UNITA320, GLENDALE, CA, 91203","Match","Non_Exact","633 N CENTRAL AVE, GLENDALE, CA, 91203",141608805,"L"
263458,"633 N SAINT CLAIR STREET","CHICAGO","IL",60611,41.8939432550001,-87.62272101,458,"633 N SAINT CLAIR STREET, CHICAGO, IL, 60611","Match","Exact","633 N ST CLAIR ST, CHICAGO, IL, 60611",605072921,"R"
263459,"633 NE 167TH ST SUITE 826","NORTH MIAMI BEACH","FL",33162,25.9286114170001,-80.18783014,459,"633 NE 167TH ST SUITE 826, NORTH MIAMI BEACH, FL, 33162","Match","Non_Exact","633 NE 167TH ST, N MIAMI BEACH, FL, 33162",642153891,"L"
263460,"633 NE 167TH STREET SUITE 813","NORTH MIAMI BEACH","FL",33162,25.9286114170001,-80.18783014,460,"633 NE 167TH STREET SUITE 813, NORTH MIAMI BEACH, FL, 33162","Match","Non_Exact","633 NE 167TH ST, N MIAMI BEACH, FL, 33162",642153891,"L"
263461,"633 NE NEWPORT DRIVE","LEES SUMMIT","MO",64064,38.976953796,-94.36333669,461,"633 NE NEWPORT DRIVE, LEES SUMMIT, MO, 64064","Match","Exact","633 NE NEWPORT DR, LEES SUMMIT, MO, 64064",635641260,"R"
263462,"633 NEW SEABURY COURT","WALNUT CREEK","CA",94598,37.916397429,-122.002880942,462,"633 NEW SEABURY COURT, WALNUT CREEK, CA, 94598","Match","Exact","633 NEW SEABURY CT, WALNUT CREEK, CA, 94598",192059460,"L"
263463,"633 OAK STREET","NEPTUNE BEACH","FL",32266,30.317938596,-81.402288776,463,"633 OAK STREET, NEPTUNE BEACH, FL, 32266","Match","Exact","633 OAK ST, NEPTUNE BEACH, FL, 32266",83907754,"L"
263464,"633 OAKLAND RD","LIMESTONE","TN",37681,36.2706209790001,-82.61937447,464,"633 OAKLAND RD, LIMESTONE, TN, 37681","Match","Exact","633 OAKLAND RD, LIMESTONE, TN, 37681",127942926,"L"
263465,"633 OXFORD STREET","YOUNGSTOWN","OH",44510,41.11753695,-80.65925211,465,"633 OXFORD STREET, YOUNGSTOWN, OH, 44510","Match","Non_Exact","633 OXFORD AVE, YOUNGSTOWN, OH, 44510",64594024,"L"
263466,"633 PROCTOR TRAIL","BOWLING GREEN","KY",42101,37.022734814,-86.380383797,466,"633 PROCTOR TRAIL, BOWLING GREEN, KY, 42101","Match","Exact","633 PROCTOR TRL, BOWLING GREEN, KY, 42101",28012428,"L"
263467,"633 RED ROBIN ROAD","SEFFNER","FL",33584,27.975875279,-82.271612432,467,"633 RED ROBIN ROAD, SEFFNER, FL, 33584","Match","Exact","633 RED ROBIN RD, SEFFNER, FL, 33584",104542361,"R"
263468,"633 RETRIEVER LANE","MEBANE","NC",27302,36.106691649,-79.252155078,468,"633 RETRIEVER LANE, MEBANE, NC, 27302","Match","Exact","633 RETRIEVER LN, MEBANE, NC, 27302",651402545,"L"
263469,"633 RIVERVIEW DRIVE","BELMONT","WV",26134,39.3769167240001,-81.271824086,469,"633 RIVERVIEW DRIVE, BELMONT, WV, 26134","Match","Exact","633 RIVERVIEW DR, BELMONT, WV, 26134",90825166,"L"
263470,"633 S ANDREWS AVE","FT LAUDERDALE","FL",33301,26.1141325880001,-80.143195772,470,"633 S ANDREWS AVE, FT LAUDERDALE, FL, 33301","Match","Exact","633 S ANDREWS AVE, FORT LAUDERDALE, FL, 33301",114722904,"R"
263471,"633 S ATCHER STREET","RADCLIFF","KY",40160,NA,NA,471,"633 S ATCHER STREET, RADCLIFF, KY, 40160","Tie",NA,NA,NA,NA
263472,"633 S COUNTRY CLUB RD","CONWAY","AR",72034,NA,NA,472,"633 S COUNTRY CLUB RD, CONWAY, AR, 72034","Tie",NA,NA,NA,NA
263473,"633 S EVELYN PL NW","ATLANTA","GA",30318,33.7725402670001,-84.4458207819999,473,"633 S EVELYN PL NW, ATLANTA, GA, 30318","Match","Exact","633 S EVELYN PL NW, ATLANTA, GA, 30318",17340065,"R"
263474,"633 SEARLES RD","TOLEDO","OH",43607,41.6460963230001,-83.621113999,474,"633 SEARLES RD, TOLEDO, OH, 43607","Match","Exact","633 SEARLES RD, TOLEDO, OH, 43607",33960662,"L"
263475,"633 SO CONCORD ST SUITE 400","SOUTH ST PAUL","MN",55075,NA,NA,475,"633 SO CONCORD ST SUITE 400, SOUTH ST PAUL, MN, 55075","Tie",NA,NA,NA,NA
263476,"633 STATION ROAD","HEBRON","ME",4238,44.22634953,-70.370265815,476,"633 STATION ROAD, HEBRON, ME, 4238","Match","Exact","633 STATION RD, HEBRON, ME, 04238",92674226,"L"
263477,"633 STEVENS STREET","EUFAULA","AL",36027,31.884947121,-85.149203847,477,"633 STEVENS STREET, EUFAULA, AL, 36027","Match","Non_Exact","633 STEVENS AVE, EUFAULA, AL, 36027",69089587,"R"
263478,"633 SUNSET LANE SUITE E","CULPEPER","VA",22701,38.4561470940001,-78.0122270959999,478,"633 SUNSET LANE SUITE E, CULPEPER, VA, 22701","Match","Exact","633 SUNSET LN, CULPEPER, VA, 22701",29847185,"L"
263479,"633 VALLIANT STREET","GREENVILLE","MS",38701,33.404505526,-91.062495246,479,"633 VALLIANT STREET, GREENVILLE, MS, 38701","Match","Exact","633 VALLIANT ST, GREENVILLE, MS, 38701",1153912,"L"
263480,"633 W 172ND PL","BROOMFIELD","CO",80023,40.0069681790001,-104.996972896,480,"633 W 172ND PL, BROOMFIELD, CO, 80023","Match","Exact","633 W 172ND PL, BROOMFIELD, CO, 80023",649051191,"R"
263481,"633 W 5TH STREET FL 26","LOS ANGELES","CA",90071,34.050484295,-118.254392071,481,"633 W 5TH STREET FL 26, LOS ANGELES, CA, 90071","Match","Non_Exact","633 W 5TH ST, LOS ANGELES, CA, 90071",638700397,"R"
263482,"633 W 5TH STREET STE 2639","LOS ANGELES","CA",90071,34.050484295,-118.254392071,482,"633 W 5TH STREET STE 2639, LOS ANGELES, CA, 90071","Match","Non_Exact","633 W 5TH ST, LOS ANGELES, CA, 90071",638700397,"R"
263483,"633 W DAVIS STREET 233","DALLAS","TX",75208,32.7494629060001,-96.832449063,483,"633 W DAVIS STREET 233, DALLAS, TX, 75208","Match","Non_Exact","633 W DAVIS ST, DALLAS, TX, 75208",647956470,"R"
263484,"633 W DAVIS STREET","DALLAS","TX",75208,32.7494629060001,-96.832449063,484,"633 W DAVIS STREET, DALLAS, TX, 75208","Match","Exact","633 W DAVIS ST, DALLAS, TX, 75208",647956470,"R"
263485,"633 W FIFTH STREET SUITE 1150","LOS ANGELES","CA",90071,34.050484295,-118.254392071,485,"633 W FIFTH STREET SUITE 1150, LOS ANGELES, CA, 90071","Match","Non_Exact","633 W 5TH ST, LOS ANGELES, CA, 90071",638700397,"R"
263486,"633 WEATHERVANE WAY","ROCKY MOUNT","NC",27803,35.935257226,-77.8356728369999,486,"633 WEATHERVANE WAY, ROCKY MOUNT, NC, 27803","Match","Exact","633 WEATHERVANE WAY, ROCKY MOUNT, NC, 27803",90400589,"L"
263487,"633 WEST 5TH STREET SUITE 2639","LOS ANGELES","CA",90071,34.0504823730001,-118.254389093,487,"633 WEST 5TH STREET SUITE 2639, LOS ANGELES, CA, 90071","Match","Exact","633 W 5TH ST, LOS ANGELES, CA, 90071",638700397,"R"
263488,"633 WEST DAVIS STREET SUITE 342","DALLAS","TX",75208,32.7494628160001,-96.8324359009999,488,"633 WEST DAVIS STREET SUITE 342, DALLAS, TX, 75208","Match","Exact","633 W DAVIS ST, DALLAS, TX, 75208",647956470,"R"
263489,"633 WEST MAIN STREET","LOUISVILLE","KY",40202,38.257051548,-85.760417393,489,"633 WEST MAIN STREET, LOUISVILLE, KY, 40202","Match","Exact","633 W MAIN ST, LOUISVILLE, KY, 40202",96842543,"R"
263490,"633 WEST OAKDALE AVE SUITE 2E","CHICAGO","IL",60657,41.9355233750001,-87.6452563839999,490,"633 WEST OAKDALE AVE SUITE 2E, CHICAGO, IL, 60657","Match","Exact","633 W OAKDALE AVE, CHICAGO, IL, 60657",111766840,"L"
263491,"633 WESTSIDE BLVD NW","ROANOKE","VA",24017,37.283285274,-80.008345015,491,"633 WESTSIDE BLVD NW, ROANOKE, VA, 24017","Match","Exact","633 WESTSIDE BLVD NW, ROANOKE, VA, 24017",62902596,"R"
263492,"633 YAKIMA VALLEY HWY 272","SUNNYSIDE","WA",98944,46.3295632730001,-120.013677975,492,"633 YAKIMA VALLEY HWY 272, SUNNYSIDE, WA, 98944","Match","Exact","633 YAKIMA VALLEY HWY, SUNNYSIDE, WA, 98944",184966360,"L"
263493,"633 YATES AVE","CALUMET CITY","IL",60409,41.617206255,-87.5638989619999,493,"633 YATES AVE, CALUMET CITY, IL, 60409","Match","Exact","633 YATES AVE, CALUMET CITY, IL, 60409",616795793,"L"
263494,"6330 ALTHORNE ROAD","BARTLETT","TN",38134,35.195600977,-89.852598563,494,"6330 ALTHORNE ROAD, BARTLETT, TN, 38134","Match","Exact","6330 ALTHORNE RD, BARTLETT, TN, 38134",72941591,"L"
263495,"6330 CARIBOU DRIVE","CLINTON","OH",44216,40.9137812880001,-81.527515883,495,"6330 CARIBOU DRIVE, CLINTON, OH, 44216","Match","Exact","6330 CARIBOU DR, CLINTON, OH, 44216",61388773,"R"
263496,"6330 DE ZEVALA   SUITE114","SAN ANTONIO","TX",78249,NA,NA,496,"6330 DE ZEVALA   SUITE114, SAN ANTONIO, TX, 78249","No_Match",NA,NA,NA,NA
263497,"6330 GRAYS AVENUE","PHILADELPHIA","PA",19142,39.924874598,-75.2295750869999,497,"6330 GRAYS AVENUE, PHILADELPHIA, PA, 19142","Match","Exact","6330 GRAYS AVE, PHILADELPHIA, PA, 19142",131409171,"L"
263498,"6330 GROUSE CIR","COOPERSBURG","PA",18036,40.5119044190001,-75.4128128849999,498,"6330 GROUSE CIR, COOPERSBURG, PA, 18036","Match","Exact","6330 GROUSE CIR, COOPERSBURG, PA, 18036",80794701,"L"
263499,"6330 HOLBORNE LANE","DOUGLASVILLE","GA",30134,33.7753483280001,-84.737996478,499,"6330 HOLBORNE LANE, DOUGLASVILLE, GA, 30134","Match","Exact","6330 HOLBORNE LN, DOUGLASVILLE, GA, 30134",16660306,"R"
263500,"6330 HOLBURN LANE","DOUGLASVILLE","GA",30134,NA,NA,500,"6330 HOLBURN LANE, DOUGLASVILLE, GA, 30134","No_Match",NA,NA,NA,NA
