"ID","Address","City","State","Zip","lat","long","id","input_address","match_indicator","match_type","matched_address","tiger_line_id","tiger_side"
248001,"570 GUARD STREET","FRIDAY HARBOR","WA",98250,48.5362406350001,-123.022208431,1,"570 GUARD STREET, FRIDAY HARBOR, WA, 98250","Match","Exact","570 GUARD ST, FRIDAY HARBOR, WA, 98250",152175401,"R"
248002,"570 HAMILTON STREET","SOMERSET","NJ",8873,40.493638107,-74.467090075,2,"570 HAMILTON STREET, SOMERSET, NJ, 8873","Match","Exact","570 HAMILTON ST, SOMERSET, NJ, 08873",59942829,"L"
248003,"570 HAMLITON CHASE DRIVE","MOORE","SC",29369,34.895707438,-82.0037581779999,3,"570 HAMLITON CHASE DRIVE, MOORE, SC, 29369","Match","Non_Exact","570 HAMILTON CHASE DR, MOORE, SC, 29369",619838912,"R"
248004,"570 HOLMDEL ROAD","HAZLET","NJ",7730,40.419907595,-74.191793542,4,"570 HOLMDEL ROAD, HAZLET, NJ, 7730","Match","Exact","570 HOLMDEL RD, HAZLET, NJ, 07730",90474514,"R"
248005,"570 HOPE STREET","BRISTOL","RI",2809,41.671417884,-71.276909802,5,"570 HOPE STREET, BRISTOL, RI, 2809","Match","Exact","570 HOPE ST, BRISTOL, RI, 02809",46480927,"R"
248006,"570 JACKSON AVE","ELIZABETH","NJ",7201,40.673195897,-74.202733439,6,"570 JACKSON AVE, ELIZABETH, NJ, 7201","Match","Exact","570 JACKSON AVE, ELIZABETH, NJ, 07201",60578847,"L"
248007,"570 JAMISON ROAD","LIBERTY","SC",29667,34.760961622,-82.734860195,7,"570 JAMISON ROAD, LIBERTY, SC, 29667","Match","Non_Exact","570 JAMISON RD, LIBERTY, SC, 29657",26212106,"L"
248008,"570 JEPTHA KNOB ROAD","SHELBYVILLE","KY",40065,38.1824117,-85.1092809519999,8,"570 JEPTHA KNOB ROAD, SHELBYVILLE, KY, 40065","Match","Exact","570 JEPTHA KNOB RD, SHELBYVILLE, KY, 40065",651600805,"R"
248009,"570 JERSEY AVENUE","JERSEY CITY","NJ",7302,40.722956765,-74.0457857279999,9,"570 JERSEY AVENUE, JERSEY CITY, NJ, 7302","Match","Exact","570 JERSEY AVE, JERSEY CITY, NJ, 07302",59606142,"R"
248010,"570 LAKE COOK ROAD STE 400","DEERFIELD","IL",60015,42.152791042,-87.841845232,10,"570 LAKE COOK ROAD STE 400, DEERFIELD, IL, 60015","Match","Exact","570 LAKE COOK RD, DEERFIELD, IL, 60015",112380032,"L"
248011,"570 LEESBURG RD","JONESBOROUGH","TN",37659,NA,NA,11,"570 LEESBURG RD, JONESBOROUGH, TN, 37659","No_Match",NA,NA,NA,NA
248012,"570 LIBERTY ST SE    SUITE 200","SALEM","OR",97301,44.9353087440001,-123.041169325,12,"570 LIBERTY ST SE    SUITE 200, SALEM, OR, 97301","Match","Exact","570 LIBERTY ST SE, SALEM, OR, 97301",156277926,"L"
248013,"570 LOWE RD","MADISON","NC",27025,36.345730551,-79.904904082,13,"570 LOWE RD, MADISON, NC, 27025","Match","Exact","570 LOWE RD, MADISON, NC, 27025",56233041,"R"
248014,"570 MARTINEZ DR","LA HABRA","CA",90631,33.9266030850001,-117.972403501,14,"570 MARTINEZ DR, LA HABRA, CA, 90631","Match","Exact","570 MARTINEZ DR, LA HABRA, CA, 90631",143997835,"L"
248015,"570 MILLER AVENUE","COLUMBUS","OH",43205,39.9548088920001,-82.960925112,15,"570 MILLER AVENUE, COLUMBUS, OH, 43205","Match","Exact","570 MILLER AVE, COLUMBUS, OH, 43205",135581737,"L"
248016,"570 N ROSSMORE AVENUE APT 411","LOS ANGELES","CA",90004,34.0808311000001,-118.327160326,16,"570 N ROSSMORE AVENUE APT 411, LOS ANGELES, CA, 90004","Match","Non_Exact","570 N ROSSMORE AVE, LOS ANGELES, CA, 90004",141599979,"R"
248017,"570 NORTH CARPENTER ROAD","TITUSVILLE","FL",32796,28.6222753660001,-80.860313811,17,"570 NORTH CARPENTER ROAD, TITUSVILLE, FL, 32796","Match","Exact","570 N CARPENTER RD, TITUSVILLE, FL, 32796",93889692,"L"
248018,"570 NW 26TH STREET","MIAMI","FL",33127,25.800897143,-80.204520443,18,"570 NW 26TH STREET, MIAMI, FL, 33127","Match","Exact","570 NW 26TH ST, MIAMI, FL, 33127",116017244,"L"
248019,"570 OAK ST","ASHDOWN","AR",71822,33.678156486,-94.129172737,19,"570 OAK ST, ASHDOWN, AR, 71822","Match","Exact","570 OAK ST, ASHDOWN, AR, 71822",84776445,"R"
248020,"570 OCEAN AVE - APT 6G","BROOKLYN","NY",11226,40.649002077,-73.960810087,20,"570 OCEAN AVE - APT 6G, BROOKLYN, NY, 11226","Match","Exact","570 OCEAN AVE, BROOKLYN, NY, 11226",59080978,"R"
248021,"570 OXBO ROAD","ROSWELL","GA",30075,34.01814381,-84.349837,21,"570 OXBO ROAD, ROSWELL, GA, 30075","Match","Exact","570 OXBO RD, ROSWELL, GA, 30075",17368014,"L"
248022,"570 PIEDMONT AVE NE  STE 54915","ATLANTA","GA",30308,33.7567237430001,-84.382239012,22,"570 PIEDMONT AVE NE  STE 54915, ATLANTA, GA, 30308","Match","Non_Exact","570 PIEDMONT AVE NE, ATLANTA, GA, 30303",17344653,"L"
248023,"570 PIEDMONT AVE NE 54521","ATLANTA","GA",30308,33.7567237430001,-84.382239012,23,"570 PIEDMONT AVE NE 54521, ATLANTA, GA, 30308","Match","Non_Exact","570 PIEDMONT AVE NE, ATLANTA, GA, 30303",17344653,"L"
248024,"570 PIEDMONT AVE NE SUITE 54095","ATLANTA","GA",30308,33.7567237430001,-84.382239012,24,"570 PIEDMONT AVE NE SUITE 54095, ATLANTA, GA, 30308","Match","Non_Exact","570 PIEDMONT AVE NE, ATLANTA, GA, 30303",17344653,"L"
248025,"570 PIEDMONT AVE PO BOX 54874","ATLANTA","GA",30308,NA,NA,25,"570 PIEDMONT AVE PO BOX 54874, ATLANTA, GA, 30308","No_Match",NA,NA,NA,NA
248026,"570 PIEDMONT AVENUE NE UNIT 54990","ATLANTA","GA",30308,33.7567237430001,-84.382239012,26,"570 PIEDMONT AVENUE NE UNIT 54990, ATLANTA, GA, 30308","Match","Non_Exact","570 PIEDMONT AVE NE, ATLANTA, GA, 30303",17344653,"L"
248027,"570 PLANTATION DRIVE","NORTH AUGUSTA","SC",29841,33.5313370310001,-81.990795855,27,"570 PLANTATION DRIVE, NORTH AUGUSTA, SC, 29841","Match","Exact","570 PLANTATION DR, NORTH AUGUSTA, SC, 29841",653520751,"R"
248028,"570 READ SCHOOL HOUSE RD","COVENTRY","RI",2893,NA,NA,28,"570 READ SCHOOL HOUSE RD, COVENTRY, RI, 2893","No_Match",NA,NA,NA,NA
248029,"570 RICHLAND AVE","POCATELLO","ID",83201,42.8853341130001,-112.458795859,29,"570 RICHLAND AVE, POCATELLO, ID, 83201","Match","Exact","570 RICHLAND AVE, POCATELLO, ID, 83201",204350989,"R"
248030,"570 ROOSEVELT AVE","TOMS RIVER","NJ",8753,39.9556506050001,-74.135952486,30,"570 ROOSEVELT AVE, TOMS RIVER, NJ, 8753","Match","Exact","570 ROOSEVELT AVE, TOMS RIVER, NJ, 08753",203737344,"L"
248031,"570 SE WESTGATE DR","WAUKEE","IA",50263,41.6094541370001,-93.861970904,31,"570 SE WESTGATE DR, WAUKEE, IA, 50263","Match","Exact","570 WESTGATE DR, WAUKEE, IA, 50263",65643850,"R"
248032,"570 SEMINOLE ROAD","MUSKEGON","MI",49444,43.186997418,-86.258308288,32,"570 SEMINOLE ROAD, MUSKEGON, MI, 49444","Match","Exact","570 SEMINOLE RD, MUSKEGON, MI, 49444",77653568,"R"
248033,"570 TRUMAN ST SW","PALM BAY","FL",32908,27.984781567,-80.6844411879999,33,"570 TRUMAN ST SW, PALM BAY, FL, 32908","Match","Exact","570 TRUMAN ST SW, PALM BAY, FL, 32908",93907671,"R"
248034,"570 TUSCAN COVE","FAIRBURN","GA",30213,33.6050667540001,-84.647091517,34,"570 TUSCAN COVE, FAIRBURN, GA, 30213","Match","Exact","570 TUSCAN COVE, FAIRBURN, GA, 30213",636196890,"R"
248035,"570 VISTA RIDGE DR","RUSKIN","FL",33570,27.725507194,-82.459652982,35,"570 VISTA RIDGE DR, RUSKIN, FL, 33570","Match","Exact","570 VISTA RIDGE DR, RUSKIN, FL, 33570",628032339,"L"
248036,"570 W 2ND ST","RIVIERA BEACH","FL",33496,NA,NA,36,"570 W 2ND ST, RIVIERA BEACH, FL, 33496","Tie",NA,NA,NA,NA
248037,"570 W 4TH STREET SUITE 107","SAN BERNARDINO","CA",92401,34.1064538840001,-117.295727013,37,"570 W 4TH STREET SUITE 107, SAN BERNARDINO, CA, 92401","Match","Non_Exact","570 W 4TH ST, SAN BERNARDINO, CA, 92401",144655406,"R"
248038,"570 W 4TH STREET","SAN BERNARDINO","CA",92401,34.1064538840001,-117.295727013,38,"570 W 4TH STREET, SAN BERNARDINO, CA, 92401","Match","Exact","570 W 4TH ST, SAN BERNARDINO, CA, 92401",144655406,"R"
248039,"570 WEST LAKE SAMISH DRIVE","BELLINGHAM","WA",98229,48.6626947670001,-122.389809304,39,"570 WEST LAKE SAMISH DRIVE, BELLINGHAM, WA, 98229","Match","Exact","570 W LAKE SAMISH DR, BELLINGHAM, WA, 98229",636500466,"R"
248040,"570 WINDSOR PKWY","ATLANTA","GA",30342,33.8843615750001,-84.368771666,40,"570 WINDSOR PKWY, ATLANTA, GA, 30342","Match","Non_Exact","570 WINDSOR PKWY NE, ATLANTA, GA, 30342",17416857,"L"
248041,"570 YONKERS AVENUE GROUND FLR","YONKERS","NY",10704,40.9283998720001,-73.870628132,41,"570 YONKERS AVENUE GROUND FLR, YONKERS, NY, 10704","Match","Exact","570 YONKERS AVE, YONKERS, NY, 10704",139744949,"R"
248042,"570","BROOKLYN","NY",11249,NA,NA,42,"570, BROOKLYN, NY, 11249","No_Match",NA,NA,NA,NA
248043,"5700 102ND AVE N","BROOKLYN PARK","MN",55443,45.138190851,-93.355097388,43,"5700 102ND AVE N, BROOKLYN PARK, MN, 55443","Match","Non_Exact","5700 102ND AVE, BROOKLYN PARK, MN, 55443",626693098,"R"
248044,"5700 85TH AVE N","BROOKLYN PARK","MN",55443,45.1088822570001,-93.353219902,44,"5700 85TH AVE N, BROOKLYN PARK, MN, 55443","Match","Exact","5700 85TH AVE N, BROOKLYN PARK, MN, 55443",640740318,"R"
248045,"5700 ARLINGTON AVE APT 11J","BRONX","NY",10471,40.90647585,-73.906781666,45,"5700 ARLINGTON AVE APT 11J, BRONX, NY, 10471","Match","Exact","5700 ARLINGTON AVE, BRONX, NY, 10471",609059293,"R"
248046,"5700 BERWYN ROAD","BERWYN HEIGHTS","MD",20740,38.992160545,-76.91740311,46,"5700 BERWYN ROAD, BERWYN HEIGHTS, MD, 20740","Match","Exact","5700 BERWYN RD, BERWYN HEIGHTS, MD, 20740",76305440,"L"
248047,"5700 CAPISTRANO WAY","FREDERICK","CO",80504,40.131960679,-104.946049757,47,"5700 CAPISTRANO WAY, FREDERICK, CO, 80504","Match","Exact","5700 CAPISTRANO WAY, FREDERICK, CO, 80504",188737673,"R"
248048,"5700 CASTLEBRIDGE RD APT 201","FREDERICKSBURG","VA",22407,38.279384829,-77.530314586,48,"5700 CASTLEBRIDGE RD APT 201, FREDERICKSBURG, VA, 22407","Match","Exact","5700 CASTLEBRIDGE RD, FREDERICKSBURG, VA, 22407",641114659,"R"
248049,"5700 CHATHAM CIRCLE NW","NORCROSS","GA",30071,33.941179178,-84.199779845,49,"5700 CHATHAM CIRCLE NW, NORCROSS, GA, 30071","Match","Non_Exact","5700 CHATHAM CIR, NORCROSS, GA, 30071",636195364,"L"
248050,"5700 COLLEGE BLVD","FARMINGTON","NM",87402,36.7809291090001,-108.161355967,50,"5700 COLLEGE BLVD, FARMINGTON, NM, 87402","Match","Exact","5700 COLLEGE BLVD, FARMINGTON, NM, 87402",611553256,"R"
248051,"5700 CRESTHAVEN LN","TOLEDO","OH",43614,41.603368731,-83.672698708,51,"5700 CRESTHAVEN LN, TOLEDO, OH, 43614","Match","Exact","5700 CRESTHAVEN LN, TOLEDO, OH, 43614",33952547,"L"
248052,"5700 DARROW ROAD SUITE 106","HUDSON","OH",44236,41.2207928030001,-81.440397005,52,"5700 DARROW ROAD SUITE 106, HUDSON, OH, 44236","Match","Exact","5700 DARROW RD, HUDSON, OH, 44236",61346554,"L"
248053,"5700 DEERFIELD RD","ORLANDO","FL",32808,28.585708993,-81.457905873,53,"5700 DEERFIELD RD, ORLANDO, FL, 32808","Match","Exact","5700 DEERFIELD RD, ORLANDO, FL, 32808",94269977,"L"
248054,"5700 DOGWOOD BLVD","LOUISVILLE","KY",40299,38.1631753240001,-85.5589616299999,54,"5700 DOGWOOD BLVD, LOUISVILLE, KY, 40299","Match","Exact","5700 DOGWOOD BLVD, LOUISVILLE, KY, 40299",96867040,"R"
248055,"5700 E 18TH STREET","VANCOUVER","WA",98661,45.634938139,-122.616011808,55,"5700 E 18TH STREET, VANCOUVER, WA, 98661","Match","Exact","5700 E 18TH ST, VANCOUVER, WA, 98661",158327376,"L"
248056,"5700 E STATE ROUTE 106","UNION","WA",98592,47.3562448060001,-123.089190216,56,"5700 E STATE ROUTE 106, UNION, WA, 98592","Match","Exact","5700 STATE RTE 106, UNION, WA, 98592",635520109,"L"
248057,"5700 EAST 191ST STREET","BELTON","MO",64012,38.778348443,-94.533981147,57,"5700 EAST 191ST STREET, BELTON, MO, 64012","Match","Non_Exact","5700 191ST ST, BELTON, MO, 64012",639919481,"L"
248058,"5700 EAST FRANKLIN RD STE 200","NAMPA","ID",83687,43.6050461890001,-116.50808124,58,"5700 EAST FRANKLIN RD STE 200, NAMPA, ID, 83687","Match","Exact","5700 E FRANKLIN RD, NAMPA, ID, 83687",122835084,"R"
248059,"5700 EXECUTIVE CENTER DRIVE/STE 100","CHARLOTTE","NC",28212,35.200672502,-80.744044522,59,"5700 EXECUTIVE CENTER DRIVE/STE 100, CHARLOTTE, NC, 28212","Match","Non_Exact","5700 EXECUTIVE CENTER DR, CHARLOTTE, NC, 28212",70492297,"R"
248060,"5700 FLORIDA BLVD","BATON ROUGE","LA",70806,30.45105628,-91.1297596699999,60,"5700 FLORIDA BLVD, BATON ROUGE, LA, 70806","Match","Exact","5700 FLORIDA BLVD, BATON ROUGE, LA, 70806",636234621,"R"
248061,"5700 HEATHWOOD COURT","COVINGTON","KY",41015,38.985968331,-84.508882235,61,"5700 HEATHWOOD COURT, COVINGTON, KY, 41015","Match","Exact","5700 HEATHWOOD CT, COVINGTON, KY, 41015",103889296,"R"
248062,"5700 HOLLOMAN ROAD","POWDER SPRINGS","GA",30127,NA,NA,62,"5700 HOLLOMAN ROAD, POWDER SPRINGS, GA, 30127","No_Match",NA,NA,NA,NA
248063,"5700 JAYCOX ROAD","NORTH RIDGEVILLE","OH",44039,41.406164926,-82.006431347,63,"5700 JAYCOX ROAD, NORTH RIDGEVILLE, OH, 44039","Match","Exact","5700 JAYCOX RD, N RIDGEVILLE, OH, 44039",55449344,"R"
248064,"5700 KIRKWOOD HWY SUITE 204","WILMINGTON","DE",19808,39.714612306,-75.674468781,64,"5700 KIRKWOOD HWY SUITE 204, WILMINGTON, DE, 19808","Match","Exact","5700 KIRKWOOD HWY, WILMINGTON, DE, 19808",640701346,"L"
248065,"5700 KOWETA ROAD","COLLEGE PARK","GA",30349,33.611443352,-84.5737075279999,65,"5700 KOWETA ROAD, COLLEGE PARK, GA, 30349","Match","Exact","5700 KOWETA RD, COLLEGE PARK, GA, 30349",642626809,"L"
248066,"5700 KROGER DRIVE","KELLER","TX",76244,NA,NA,66,"5700 KROGER DRIVE, KELLER, TX, 76244","No_Match",NA,NA,NA,NA
248067,"5700 LEMON STREET","EAST PETERSBURG","PA",17520,40.0950044090001,-76.355666435,67,"5700 LEMON STREET, EAST PETERSBURG, PA, 17520","Match","Exact","5700 LEMON ST, E PETERSBURG, PA, 17520",179660423,"L"
248068,"5700 MARK LANE","ROWLETT","TX",75089,32.910913018,-96.53514696,68,"5700 MARK LANE, ROWLETT, TX, 75089","Match","Exact","5700 MARK LN, ROWLETT, TX, 75089",102934529,"L"
248069,"5700 MULDOON CT","DUBLIN","OH",43016,40.070313615,-83.114140805,69,"5700 MULDOON CT, DUBLIN, OH, 43016","Match","Exact","5700 MULDOON CT, DUBLIN, OH, 43016",218694452,"R"
248070,"5700 N NATOMA AVE","CHICAGO","IL",60631,41.9851415690001,-87.7935588299999,70,"5700 N NATOMA AVE, CHICAGO, IL, 60631","Match","Exact","5700 N NATOMA AVE, CHICAGO, IL, 60631",111736352,"L"
248071,"5700 NW CENTER DR STE 210","HOUSTON","TX",77092,NA,NA,71,"5700 NW CENTER DR STE 210, HOUSTON, TX, 77092","No_Match",NA,NA,NA,NA
248072,"5700 OLD SEWARD HIGHWAY STE 101","EAGLE RIVER","AK",99518,NA,NA,72,"5700 OLD SEWARD HIGHWAY STE 101, EAGLE RIVER, AK, 99518","No_Match",NA,NA,NA,NA
248073,"5700 OLDE MILL COURT UNIT 154","ALEXANDRIA","VA",22309,38.7230029400001,-77.1331122349999,73,"5700 OLDE MILL COURT UNIT 154, ALEXANDRIA, VA, 22309","Match","Exact","5700 OLDE MILL CT, ALEXANDRIA, VA, 22309",635444928,"L"
248074,"5700 PEARL ROAD","CLEVELAND","OH",44129,41.406803349,-81.741835652,74,"5700 PEARL ROAD, CLEVELAND, OH, 44129","Match","Exact","5700 PEARL RD, CLEVELAND, OH, 44129",61106708,"R"
248075,"5700 PEARL ROAD","PARMA","OH",44129,41.406803349,-81.741835652,75,"5700 PEARL ROAD, PARMA, OH, 44129","Match","Exact","5700 PEARL RD, PARMA, OH, 44129",61106708,"R"
248076,"5700 PRINCE LANE","NEW ORLEANS","LA",70126,30.027414069,-90.026236553,76,"5700 PRINCE LANE, NEW ORLEANS, LA, 70126","Match","Exact","5700 PRINCE LN, NEW ORLEANS, LA, 70126",191705135,"R"
248077,"5700 RALSTON STREET SUITE 102","VENTURA","CA",93003,NA,NA,77,"5700 RALSTON STREET SUITE 102, VENTURA, CA, 93003","No_Match",NA,NA,NA,NA
248078,"5700 S 24TH ST","QUINCY","IL",62305,39.8636525140001,-91.3783888629999,78,"5700 S 24TH ST, QUINCY, IL, 62305","Match","Exact","5700 S 24TH ST, QUINCY, IL, 62305",651661635,"L"
248079,"5700 SCOTLAND STREET","INDIANAPOLIS","IN",46234,39.8475483240001,-86.335723625,79,"5700 SCOTLAND STREET, INDIANAPOLIS, IN, 46234","Match","Exact","5700 SCOTLAND ST, INDIANAPOLIS, IN, 46234",625032718,"R"
248080,"5700 SE INDIGO AVE","STUART","FL",34997,27.1354227150001,-80.210755843,80,"5700 SE INDIGO AVE, STUART, FL, 34997","Match","Exact","5700 INDIGO AVE, STUART, FL, 34997",120402364,"L"
248081,"5700 SELLERS AVE","OAKLEY","CA",94561,37.979207176,-121.677560148,81,"5700 SELLERS AVE, OAKLEY, CA, 94561","Match","Exact","5700 SELLERS AVE, OAKLEY, CA, 94561",607772429,"R"
248082,"5700 SIEBERT ST","MIDLAND","MI",48640,43.6492998620001,-84.240054417,82,"5700 SIEBERT ST, MIDLAND, MI, 48640","Match","Exact","5700 SIEBERT ST, MIDLAND, MI, 48640",81192864,"R"
248083,"5700 STONERIDGE MALL RD STE 325","PLEASANTON","CA",94588,37.6921455410001,-121.929212389,83,"5700 STONERIDGE MALL RD STE 325, PLEASANTON, CA, 94588","Match","Exact","5700 STONERIDGE MALL RD, PLEASANTON, CA, 94588",606335703,"R"
248084,"5700 SUTHERLIN RD","TRAVIS","TX",78723,30.308441815,-97.685831164,84,"5700 SUTHERLIN RD, TRAVIS, TX, 78723","Match","Non_Exact","5700 SUTHERLIN RD, AUSTIN, TX, 78723",63951154,"L"
248085,"5700 TRAILSIDE DR","PARK CITY","UT",84098,40.718951186,-111.507671525,85,"5700 TRAILSIDE DR, PARK CITY, UT, 84098","Match","Exact","5700 TRAILSIDE DR, PARK CITY, UT, 84098",607531539,"R"
248086,"5700 TYLER STREET","CONWAY","AR",72034,35.100729518,-92.527294017,86,"5700 TYLER STREET, CONWAY, AR, 72034","Match","Non_Exact","5700 W TYLER ST, CONWAY, AR, 72034",639705518,"R"
248087,"5700 URSA LANE APT 12107","FORT WORTH","TX",76137,NA,NA,87,"5700 URSA LANE APT 12107, FORT WORTH, TX, 76137","No_Match",NA,NA,NA,NA
248088,"5700 VOLSER AVE UNIT A","JBER","AK",99506,NA,NA,88,"5700 VOLSER AVE UNIT A, JBER, AK, 99506","No_Match",NA,NA,NA,NA
248089,"5700 W 12TH AVENUE","HIALEAH","FL",33012,25.874447585,-80.307127798,89,"5700 W 12TH AVENUE, HIALEAH, FL, 33012","Match","Exact","5700 W 12TH AVE, HIALEAH, FL, 33012",115956098,"L"
248090,"5700 WEST 12TH AVENUE","HIALEAH","FL",33012,25.874447585,-80.307127798,90,"5700 WEST 12TH AVENUE, HIALEAH, FL, 33012","Match","Exact","5700 W 12TH AVE, HIALEAH, FL, 33012",115956098,"L"
248091,"5700 WEST STREET","SANBORN","NY",14132,43.143029524,-78.8914506409999,91,"5700 WEST STREET, SANBORN, NY, 14132","Match","Exact","5700 WEST ST, SANBORN, NY, 14132",48688119,"R"
248092,"5700 WILSHIRE BLVD SUITE 355","LOS ANGELES","CA",90036,34.062339319,-118.352700725,92,"5700 WILSHIRE BLVD SUITE 355, LOS ANGELES, CA, 90036","Match","Exact","5700 WILSHIRE BLVD, LOS ANGELES, CA, 90036",642865647,"L"
248093,"5700-5719 OSPREY WATCH COURT","CHARLOTTE","NC",28227,35.196385869,-80.7032781189999,93,"5700-5719 OSPREY WATCH COURT, CHARLOTTE, NC, 28227","Match","Exact","5700 OSPREY WATCH CT, CHARLOTTE, NC, 28227",70564196,"R"
248094,"5701 9TH AVENUE","PORT ARTHUR","TX",77642,NA,NA,94,"5701 9TH AVENUE, PORT ARTHUR, TX, 77642","No_Match",NA,NA,NA,NA
248095,"5701 ALDER RIDGE DRIVE","LA CANADA FLINTRIDGE","CA",91011,34.2194898810001,-118.193173828,95,"5701 ALDER RIDGE DRIVE, LA CANADA FLINTRIDGE, CA, 91011","Match","Exact","5701 ALDER RIDGE DR, LA CANADA, CA, 91011",141591014,"L"
248096,"5701 BARLOW ROAD","RIVERTON","IL",62561,39.8847743760001,-89.516348665,96,"5701 BARLOW ROAD, RIVERTON, IL, 62561","Match","Exact","5701 BARLOW RD, RIVERTON, IL, 62561",625129589,"L"
248097,"5701 BATTERY DRIVE UNIT F","GREENSBORO","NC",27409,36.0560773780001,-79.91399433,97,"5701 BATTERY DRIVE UNIT F, GREENSBORO, NC, 27409","Match","Exact","5701 BATTERY DR, GREENSBORO, NC, 27409",131115258,"L"
248098,"5701 DELROSE DRIVE 36609","MOBILE","AL",36609,30.6461929430001,-88.174349088,98,"5701 DELROSE DRIVE 36609, MOBILE, AL, 36609","Match","Exact","5701 DELROSE DR, MOBILE, AL, 36609",61854702,"L"
248099,"5701 E GLENN ST APT 33","TUCSON","AZ",85712,32.257933522,-110.870061371,99,"5701 E GLENN ST APT 33, TUCSON, AZ, 85712","Match","Non_Exact","5701 E GLENN ST, TUCSON, AZ, 85712",630905143,"L"
248100,"5701 E RED OAK DR","SIOUX FALLS","SD",57110,43.5295707390001,-96.6614826699999,100,"5701 E RED OAK DR, SIOUX FALLS, SD, 57110","Match","Exact","5701 E RED OAK DR, SIOUX FALLS, SD, 57110",650930473,"R"
248101,"5701 EUGENIA CT","ORANGEVALE","CA",95662,38.669232471,-121.203831638,101,"5701 EUGENIA CT, ORANGEVALE, CA, 95662","Match","Exact","5701 EUGENIA CT, ORANGEVALE, CA, 95662",133383819,"R"
248102,"5701 EXECUTIVE CENTER DR  101","CHARLOTTE","NC",28212,35.200887837,-80.744142341,102,"5701 EXECUTIVE CENTER DR  101, CHARLOTTE, NC, 28212","Match","Exact","5701 EXECUTIVE CENTER DR, CHARLOTTE, NC, 28212",70492297,"L"
248103,"5701 FAULCONBRIDGE RD","CHARLOTTE","NC",28227,35.214059181,-80.701589272,103,"5701 FAULCONBRIDGE RD, CHARLOTTE, NC, 28227","Match","Exact","5701 FAULCONBRIDGE RD, CHARLOTTE, NC, 28227",70494425,"L"
248104,"5701 GARFIELD AVE SOUTH","MINNEAPOLIS","MN",55419,44.899504328,-93.287011854,104,"5701 GARFIELD AVE SOUTH, MINNEAPOLIS, MN, 55419","Match","Exact","5701 GARFIELD AVE S, MINNEAPOLIS, MN, 55419",43630110,"L"
248105,"5701 HWY 531","DUBBERLY","LA",71024,NA,NA,105,"5701 HWY 531, DUBBERLY, LA, 71024","No_Match",NA,NA,NA,NA
248106,"5701 JOHNNY MORRIS RD 327","AUSTIN","TX",78724,30.293312644,-97.652659587,106,"5701 JOHNNY MORRIS RD 327, AUSTIN, TX, 78724","Match","Exact","5701 JOHNNY MORRIS RD, AUSTIN, TX, 78724",640830482,"R"
248107,"5701 LEIDEN ROAD","BALTIMORE","MD",21206,39.335326174,-76.5269096549999,107,"5701 LEIDEN ROAD, BALTIMORE, MD, 21206","Match","Exact","5701 LEIDEN RD, BALTIMORE, MD, 21206",191525147,"R"
248108,"5701 LEWOOD DRIVE","AUSTIN","TX",78745,30.2165309700001,-97.800537036,108,"5701 LEWOOD DRIVE, AUSTIN, TX, 78745","Match","Exact","5701 LEWOOD DR, AUSTIN, TX, 78745",63939142,"L"
248109,"5701 LONETREE BLVD","ROCKLIN","CA",95765,NA,NA,109,"5701 LONETREE BLVD, ROCKLIN, CA, 95765","Tie",NA,NA,NA,NA
248110,"5701 MARTIN STREET NO 46","FORT WORTH","TX",76119,32.6890711030001,-97.2356665469999,110,"5701 MARTIN STREET NO 46, FORT WORTH, TX, 76119","Match","Non_Exact","5701 MARTIN ST, FORT WORTH, TX, 76119",102133004,"L"
248111,"5701 MEMORIAL","ARLINGTON","TX",76017,32.650311404,-97.15794813,111,"5701 MEMORIAL, ARLINGTON, TX, 76017","Match","Exact","5701 MEMORIAL, ARLINGTON, TX, 76017",101945900,"R"
248112,"5701 N PINE ISLAND ROAD STE 370","TAMARAC","FL",33321,NA,NA,112,"5701 N PINE ISLAND ROAD STE 370, TAMARAC, FL, 33321","No_Match",NA,NA,NA,NA
248113,"5701 N SHERIDAN RD APT 20B","CHICAGO","IL",60660,41.985709533,-87.6552343,113,"5701 N SHERIDAN RD APT 20B, CHICAGO, IL, 60660","Match","Non_Exact","5701 N SHERIDAN RD, CHICAGO, IL, 60660",635485049,"R"
248114,"5701 NW 36 ST","MIAMI","FL",33166,25.807666338,-80.289794925,114,"5701 NW 36 ST, MIAMI, FL, 33166","Match","Exact","5701 NW 36TH ST, MIAMI, FL, 33166",115959320,"R"
248115,"5701 OAKTON STREET","SKOKIE","IL",60077,42.026429713,-87.772802316,115,"5701 OAKTON STREET, SKOKIE, IL, 60077","Match","Exact","5701 OAKTON ST, SKOKIE, IL, 60077",629481601,"L"
248116,"5701 OLD HWY 52","LEXINGTON","NC",27295,35.902034036,-80.257354806,116,"5701 OLD HWY 52, LEXINGTON, NC, 27295","Match","Non_Exact","5701 OLD US HWY 52, LEXINGTON, NC, 27295",20204501,"L"
248117,"5701 PARKWAY DR","LAUREL","MD",20707,39.1053965580001,-76.9087394869999,117,"5701 PARKWAY DR, LAUREL, MD, 20707","Match","Exact","5701 PARKWAY DR, LAUREL, MD, 20707",62102834,"L"
248118,"5701 PELTIER TRACE","NORCROSS","GA",30093,NA,NA,118,"5701 PELTIER TRACE, NORCROSS, GA, 30093","No_Match",NA,NA,NA,NA
248119,"5701 RIDGEVIEW DR","HARRISBURG","PA",17112,40.3235104840001,-76.792724388,119,"5701 RIDGEVIEW DR, HARRISBURG, PA, 17112","Match","Exact","5701 RIDGEVIEW DR, HARRISBURG, PA, 17112",70823362,"R"
248120,"5701 S PROCTOR RD","MUNCIE","IN",47302,40.1418849780001,-85.447278895,120,"5701 S PROCTOR RD, MUNCIE, IN, 47302","Match","Exact","5701 S PROCTOR RD, MUNCIE, IN, 47302",30847861,"R"
248121,"5701 S WINCHESTER AVE APT 2","CHICAGO","IL",60622,NA,NA,121,"5701 S WINCHESTER AVE APT 2, CHICAGO, IL, 60622","No_Match",NA,NA,NA,NA
248122,"5701 SANTA CATALINA AVE","GARDEN GROVE","CA",92845,33.7917336,-118.033676056,122,"5701 SANTA CATALINA AVE, GARDEN GROVE, CA, 92845","Match","Exact","5701 SANTA CATALINA AVE, GARDEN GROVE, CA, 92845",144003304,"L"
248123,"5701 SANTA FE RD","FORT BENNING","GA",31095,NA,NA,123,"5701 SANTA FE RD, FORT BENNING, GA, 31095","No_Match",NA,NA,NA,NA
248124,"5701 SE 66TH ST","OCALA","FL",34480,29.1206044,-82.056628433,124,"5701 SE 66TH ST, OCALA, FL, 34480","Match","Exact","5701 SE 66TH ST, OCALA, FL, 34480",647913001,"L"
248125,"5701 SHINGLE CREEK PARKWAY STE 500P","BROOKLYN CENTER","MN",55430,45.0647592010001,-93.310011897,125,"5701 SHINGLE CREEK PARKWAY STE 500P, BROOKLYN CENTER, MN, 55430","Match","Exact","5701 SHINGLE CREEK PKWY, BROOKLYN CENTER, MN, 55430",43830354,"L"
248126,"5701 SHINGLE CREEK PARKWAY STE 631","BROOKLYN CENTER","MN",55430,45.0647592010001,-93.310011897,126,"5701 SHINGLE CREEK PARKWAY STE 631, BROOKLYN CENTER, MN, 55430","Match","Exact","5701 SHINGLE CREEK PKWY, BROOKLYN CENTER, MN, 55430",43830354,"L"
248127,"5701 SHINGLE CREEK PKWY STE 500 M","BROOKLYN CENTER","MN",55430,45.0647592010001,-93.310011897,127,"5701 SHINGLE CREEK PKWY STE 500 M, BROOKLYN CENTER, MN, 55430","Match","Exact","5701 SHINGLE CREEK PKWY, BROOKLYN CENTER, MN, 55430",43830354,"L"
248128,"5701 SHINGLE CREEK PKWY STE 500F","BROOKLYN CTR","MN",55430,45.0647592010001,-93.310011897,128,"5701 SHINGLE CREEK PKWY STE 500F, BROOKLYN CTR, MN, 55430","Match","Exact","5701 SHINGLE CREEK PKWY, BROOKLYN CENTER, MN, 55430",43830354,"L"
248129,"5701 SHINGLE CREEK PKWY SUITE 350J","BROOKLYN CENTER","MN",55430,45.0647592010001,-93.310011897,129,"5701 SHINGLE CREEK PKWY SUITE 350J, BROOKLYN CENTER, MN, 55430","Match","Exact","5701 SHINGLE CREEK PKWY, BROOKLYN CENTER, MN, 55430",43830354,"L"
248130,"5701 SHINGLE CREEK PKWY SUITE 545","BROOKLYN CENTER","MN",55430,45.0647592010001,-93.310011897,130,"5701 SHINGLE CREEK PKWY SUITE 545, BROOKLYN CENTER, MN, 55430","Match","Exact","5701 SHINGLE CREEK PKWY, BROOKLYN CENTER, MN, 55430",43830354,"L"
248131,"5701 STEWARTSVILLE ROAD","POSEYVILLE","IN",47633,38.177316553,-87.806766672,131,"5701 STEWARTSVILLE ROAD, POSEYVILLE, IN, 47633","Match","Exact","5701 STEWARTSVILLE RD, POSEYVILLE, IN, 47633",39739903,"L"
248132,"5701 TELEGRAPH AVENUE","OAKLAND","CA",94609,37.8431507550001,-122.261587701,132,"5701 TELEGRAPH AVENUE, OAKLAND, CA, 94609","Match","Exact","5701 TELEGRAPH AVE, OAKLAND, CA, 94609",124998888,"L"
248133,"5701 THISTLETON LANE","RALEIGH","NC",27606,35.7270030380001,-78.725212442,133,"5701 THISTLETON LANE, RALEIGH, NC, 27606","Match","Exact","5701 THISTLETON LN, RALEIGH, NC, 27606",72619789,"L"
248134,"5701 TYNECASTLE LOOP","DUBLIN","OH",43016,40.080743365,-83.165695537,134,"5701 TYNECASTLE LOOP, DUBLIN, OH, 43016","Match","Exact","5701 TYNECASTLE LOOP, DUBLIN, OH, 43016",218571964,"L"
248135,"5701 W 34TH STREET","INDIANAPOLIS","IN",46224,39.816384015,-86.260240849,135,"5701 W 34TH STREET, INDIANAPOLIS, IN, 46224","Match","Exact","5701 W 34TH ST, INDIANAPOLIS, IN, 46224",107978070,"L"
248136,"5701 W BROWARD BLVD","PLANTATION","FL",33317,26.1209775020001,-80.224184497,136,"5701 W BROWARD BLVD, PLANTATION, FL, 33317","Match","Exact","5701 W BROWARD BLVD, PLANTATION, FL, 33317",637296336,"L"
248137,"5701 W HWY 326","OCALA","FL",34482,29.266996873,-82.207601536,137,"5701 W HWY 326, OCALA, FL, 34482","Match","Non_Exact","5701 CO RD 326, OCALA, FL, 34482",116807554,"R"
248138,"5701 W OAKTON STREET","SKOKIE","IL",60077,42.026429713,-87.772802316,138,"5701 W OAKTON STREET, SKOKIE, IL, 60077","Match","Exact","5701 OAKTON ST, SKOKIE, IL, 60077",629481601,"L"
248139,"5701 W SLAUGHTER LN  A130-247","AUSTIN","TX",78749,30.2009701860001,-97.8672090759999,139,"5701 W SLAUGHTER LN  A130-247, AUSTIN, TX, 78749","Match","Non_Exact","5701 W SLAUGHTER LN, AUSTIN, TX, 78749",640888393,"L"
248140,"5701 WEST 24TH AVENUE","HIALEAH","FL",33016,25.8744596180001,-80.331215076,140,"5701 WEST 24TH AVENUE, HIALEAH, FL, 33016","Match","Exact","5701 W 24TH AVE, HIALEAH, FL, 33016",116060448,"L"
248141,"5701 WEST COLLEGE AVENUE","GREENDALE","WI",53129,42.9303573700001,-87.9868710809999,141,"5701 WEST COLLEGE AVENUE, GREENDALE, WI, 53129","Match","Exact","5701 W COLLEGE AVE, GREENDALE, WI, 53129",77760420,"L"
248142,"5701 WHEELWRIGHT WAY","HAYMARKET","VA",20169,38.8333417260001,-77.64864309,142,"5701 WHEELWRIGHT WAY, HAYMARKET, VA, 20169","Match","Exact","5701 WHEELWRIGHT WAY, HAYMARKET, VA, 20169",207144824,"L"
248143,"5701 WHISKEY RIVER DR","COLORADO SPRINGS","CO",80923,38.914958433,-104.694782768,143,"5701 WHISKEY RIVER DR, COLORADO SPRINGS, CO, 80923","Match","Exact","5701 WHISKEY RIVER DR, COLORADO SPRINGS, CO, 80923",610702472,"L"
248144,"5701 WHITE ST","BUZZARDS BAY","MA",2542,41.658622832,-70.581030115,144,"5701 WHITE ST, BUZZARDS BAY, MA, 2542","Match","Exact","5701 WHITE ST, BUZZARDS BAY, MA, 02542",121549075,"L"
248145,"5702 16TH STREET NW","WASHINGTON","DC",20011,38.958704637,-77.036409163,145,"5702 16TH STREET NW, WASHINGTON, DC, 20011","Match","Exact","5702 16TH ST NW, WASHINGTON, DC, 20011",76222286,"L"
248146,"5702 ANGOLA ROAD LOT 253","TOLEDO","OH",43615,41.6238999060001,-83.678872336,146,"5702 ANGOLA ROAD LOT 253, TOLEDO, OH, 43615","Match","Exact","5702 ANGOLA RD, TOLEDO, OH, 43615",610052356,"R"
248147,"5702 ANNUNCIATION CIRCLE SUITE 326","AVE MARIA","FL",34142,NA,NA,147,"5702 ANNUNCIATION CIRCLE SUITE 326, AVE MARIA, FL, 34142","No_Match",NA,NA,NA,NA
248148,"5702 BASSWOOD COURT","FORT MYERS","FL",33919,26.563766835,-81.888826192,148,"5702 BASSWOOD COURT, FORT MYERS, FL, 33919","Match","Exact","5702 BASSWOOD CT, FORT MYERS, FL, 33919",118025995,"L"
248149,"5702 BITTERBUSH WAY","LOVELAND","CO",80537,40.3908641450001,-105.158401737,149,"5702 BITTERBUSH WAY, LOVELAND, CO, 80537","Match","Exact","5702 BITTERBUSH WAY, LOVELAND, CO, 80537",188619955,"R"
248150,"5702 BROOKSIDE RD","BETONVILLE","AR",72719,36.3402457020001,-94.276442769,150,"5702 BROOKSIDE RD, BETONVILLE, AR, 72719","Match","Non_Exact","5702 BROOKSIDE RD, BENTONVILLE, AR, 72713",47878273,"R"
248151,"5702 BURROUGH DR","AUSTIN","TX",78745,30.219648615,-97.808405275,151,"5702 BURROUGH DR, AUSTIN, TX, 78745","Match","Exact","5702 BURROUGH DR, AUSTIN, TX, 78745",63938936,"R"
248152,"5702 CAMBRIDGE LANE UNIT 5","RACINE","WI",53406,42.739776712,-87.8486857079999,152,"5702 CAMBRIDGE LANE UNIT 5, RACINE, WI, 53406","Match","Exact","5702 CAMBRIDGE LN, RACINE, WI, 53406",77924967,"R"
248153,"5702 DAINTY COURT","RIVERBANK","CA",95367,NA,NA,153,"5702 DAINTY COURT, RIVERBANK, CA, 95367","No_Match",NA,NA,NA,NA
248154,"5702 EAST RIO VERDE VISTA DRIVE","TUCSON","AZ",85750,32.278833299,-110.871527381,154,"5702 EAST RIO VERDE VISTA DRIVE, TUCSON, AZ, 85750","Match","Exact","5702 E RIO VERDE VISTA DR, TUCSON, AZ, 85750",121178117,"R"
248155,"5702 FARRAGUT RD","BROOKLYN","NY",11234,40.6361161340001,-73.921814362,155,"5702 FARRAGUT RD, BROOKLYN, NY, 11234","Match","Exact","5702 FARRAGUT RD, BROOKLYN, NY, 11234",651797258,"R"
248156,"5702 FEDERAL COURT","UPPER MARLBORO","MD",20772,38.810161685,-76.8099848419999,156,"5702 FEDERAL COURT, UPPER MARLBORO, MD, 20772","Match","Exact","5702 FEDERAL CT, UPPER MARLBORO, MD, 20772",639562906,"L"
248157,"5702 MANOR RIDGE TRAIL","GREENSBORO","NC",27407,36.023280313,-79.912184477,157,"5702 MANOR RIDGE TRAIL, GREENSBORO, NC, 27407","Match","Exact","5702 MANOR RIDGE TRL, GREENSBORO, NC, 27407",131082767,"R"
248158,"5702 NORMAN COURT","DISTRICT HEIGHTS","MD",20747,38.849576905,-76.9088198009999,158,"5702 NORMAN COURT, DISTRICT HEIGHTS, MD, 20747","Match","Exact","5702 NORMAN CT, DISTRICT HEIGHTS, MD, 20747",76314663,"L"
248159,"5702 ROSARIO WAY","ANACORTES","WA",98221,48.4973012200001,-122.683017697,159,"5702 ROSARIO WAY, ANACORTES, WA, 98221","Match","Exact","5702 ROSARIO WAY, ANACORTES, WA, 98221",183646533,"R"
248160,"5702 S CAMPBELL AVE","TUCSON","AZ",85706,32.1483705740001,-110.943452981,160,"5702 S CAMPBELL AVE, TUCSON, AZ, 85706","Match","Exact","5702 S CAMPBELL AVE, TUCSON, AZ, 85706",627387349,"R"
248161,"5702 S SILVER SPUR ST","BOISE","ID",83709,43.5512314900001,-116.279137041,161,"5702 S SILVER SPUR ST, BOISE, ID, 83709","Match","Exact","5702 S SILVER SPUR ST, BOISE, ID, 83709",117895894,"L"
248162,"5702 SKY COUNTRY ST","SAN ANTONIO","TX",78247,NA,NA,162,"5702 SKY COUNTRY ST, SAN ANTONIO, TX, 78247","No_Match",NA,NA,NA,NA
248163,"5702 TIMBERGATE DRIVE APT 420","CORPUS CHRISTI","TX",78414,27.678098436,-97.3856344609999,163,"5702 TIMBERGATE DRIVE APT 420, CORPUS CHRISTI, TX, 78414","Match","Exact","5702 TIMBERGATE DR, CORPUS CHRISTI, TX, 78414",635378861,"R"
248164,"5702 W 111TH ST","CHICAGO RIDGE","IL",60415,41.6905476200001,-87.7618886669999,164,"5702 W 111TH ST, CHICAGO RIDGE, IL, 60415","Match","Exact","5702 111TH ST, CHICAGO RIDGE, IL, 60415",111813579,"R"
248165,"57027 NAVAJO TRAIL","YUCCA VALLEY","CA",92284,34.109629447,-116.420403743,165,"57027 NAVAJO TRAIL, YUCCA VALLEY, CA, 92284","Match","Exact","57027 NAVAJO TRL, YUCCA VALLEY, CA, 92284",144629256,"L"
248166,"5703 COBALT LANE","KILLEEN","TX",76542,31.0548974210001,-97.69216149,166,"5703 COBALT LANE, KILLEEN, TX, 76542","Match","Exact","5703 COBALT LN, KILLEEN, TX, 76542",640634958,"L"
248167,"5703 EDSALL ROAD","ALEXANDRIA","VA",22304,38.80769539,-77.130309154,167,"5703 EDSALL ROAD, ALEXANDRIA, VA, 22304","Match","Exact","5703 EDSALL RD, ALEXANDRIA, VA, 22304",638905644,"R"
248168,"5703 EMERALD LAKE DRIVE","MEDINA","OH",44256,41.110717166,-81.816105503,168,"5703 EMERALD LAKE DRIVE, MEDINA, OH, 44256","Match","Non_Exact","5703 EMERALD LAKES DR, MEDINA, OH, 44256",58692584,"R"
248169,"5703 FALKIRK LANE","MATTHEWS","NC",28104,35.0550489030001,-80.6920716449999,169,"5703 FALKIRK LANE, MATTHEWS, NC, 28104","Match","Exact","5703 FALKIRK LN, MATTHEWS, NC, 28104",618497497,"L"
248170,"5703 JACKSON STREET 127","ALEXANDRIA","LA",71303,NA,NA,170,"5703 JACKSON STREET 127, ALEXANDRIA, LA, 71303","No_Match",NA,NA,NA,NA
248171,"5703 OBERLIN DRIVE STE 203","SAN DIEGO","CA",92121,32.892577526,-117.19516068,171,"5703 OBERLIN DRIVE STE 203, SAN DIEGO, CA, 92121","Match","Exact","5703 OBERLIN DR, SAN DIEGO, CA, 92121",195300732,"R"
248172,"5703 RED BUG LAKE ROAD BOX 306","WINTER SPRINGS","FL",32708,28.647619267,-81.268888713,172,"5703 RED BUG LAKE ROAD BOX 306, WINTER SPRINGS, FL, 32708","Match","Exact","5703 RED BUG LAKE RD, WINTER SPRINGS, FL, 32708",605413193,"L"
248173,"5703 RED BUG LAKE ROAD UNIT 190","WINTER SPRINGS","FL",32708,28.647619267,-81.268888713,173,"5703 RED BUG LAKE ROAD UNIT 190, WINTER SPRINGS, FL, 32708","Match","Exact","5703 RED BUG LAKE RD, WINTER SPRINGS, FL, 32708",605413193,"L"
248174,"5703 RED BUG LAKE ROAD","WINTER SPRINGS","FL",32708,28.647619267,-81.268888713,174,"5703 RED BUG LAKE ROAD, WINTER SPRINGS, FL, 32708","Match","Exact","5703 RED BUG LAKE RD, WINTER SPRINGS, FL, 32708",605413193,"L"
248175,"5703 S 159TH AVE","OMAHA","NE",68135,41.2011356560001,-96.162986814,175,"5703 S 159TH AVE, OMAHA, NE, 68135","Match","Exact","5703 S 159TH AVE, OMAHA, NE, 68135",640436594,"L"
248176,"5703 SAN DELL WAY","RACINE","WI",53402,42.7952825620001,-87.807005481,176,"5703 SAN DELL WAY, RACINE, WI, 53402","Match","Non_Exact","5703 SAN-DELL WAY, RACINE, WI, 53402",77919349,"R"
248177,"5703 SOUTH MAGAZINE CIR","HOUSTON","TX",77084,29.8583491480001,-95.6274519249999,177,"5703 SOUTH MAGAZINE CIR, HOUSTON, TX, 77084","Match","Exact","5703 S MAGAZINE CIR, HOUSTON, TX, 77084",96552721,"R"
248178,"5703 STEDMAN RD","IONIA","MI",48846,43.071553753,-85.0353761699999,178,"5703 STEDMAN RD, IONIA, MI, 48846","Match","Exact","5703 STEDMAN RD, IONIA, MI, 48846",624126486,"L"
248179,"5703 WOODGATE DR","MATTESON","IL",60443,41.525818863,-87.75446263,179,"5703 WOODGATE DR, MATTESON, IL, 60443","Match","Exact","5703 WOODGATE DR, MATTESON, IL, 60443",111707162,"L"
248180,"5704 77TH STREET","LUBBOCK","TX",79424,33.5240292020001,-101.936329089,180,"5704 77TH STREET, LUBBOCK, TX, 79424","Match","Exact","5704 77TH ST, LUBBOCK, TX, 79424",185252074,"R"
248181,"5704 AVENUE F","AUSTIN","TX",78752,30.3222190000001,-97.718451892,181,"5704 AVENUE F, AUSTIN, TX, 78752","Match","Exact","5704 AVE F, AUSTIN, TX, 78752",63931677,"L"
248182,"5704 AVERY ROAD","DUBLIN","OH",43016,40.082718512,-83.158400356,182,"5704 AVERY ROAD, DUBLIN, OH, 43016","Match","Exact","5704 AVERY RD, DUBLIN, OH, 43016",218695661,"R"
248183,"5704 BEAR STONE RUN","OVIEDO","FL",32765,28.633168939,-81.230097254,183,"5704 BEAR STONE RUN, OVIEDO, FL, 32765","Match","Exact","5704 BEAR STONE RUN, OVIEDO, FL, 32765",93783836,"L"
248184,"5704 BREWSTER LANE","ERIE","PA",16505,42.075568821,-80.2091760879999,184,"5704 BREWSTER LANE, ERIE, PA, 16505","Match","Exact","5704 BREWSTER LN, ERIE, PA, 16505",117491876,"R"
248185,"5704 CHAPEL DRIVE","PARADISE","CA",95969,39.753525761,-121.614985184,185,"5704 CHAPEL DRIVE, PARADISE, CA, 95969","Match","Exact","5704 CHAPEL DR, PARADISE, CA, 95969",68474329,"R"
248186,"5704 CHAPMAN MILL DRIVE SUITE 130","ROCKVILLE","MD",20852,39.0354704380001,-77.115554975,186,"5704 CHAPMAN MILL DRIVE SUITE 130, ROCKVILLE, MD, 20852","Match","Exact","5704 CHAPMAN MILL DR, ROCKVILLE, MD, 20852",641038583,"L"
248187,"5704 CROYDEN CIR","WICHITA","KS",67220,37.7274171490001,-97.268940205,187,"5704 CROYDEN CIR, WICHITA, KS, 67220","Match","Non_Exact","5704 E CROYDEN CIR, WICHITA, KS, 67220",115639279,"L"
248188,"5704 DARLENE DR","CLINTON","MD",20735,38.748915234,-76.906715318,188,"5704 DARLENE DR, CLINTON, MD, 20735","Match","Exact","5704 DARLENE DR, CLINTON, MD, 20735",76317509,"L"
248189,"5704 E AIRE LIBRE AVE UNIT 1108","SCOTTSDALE","AZ",85254,33.6368885520001,-111.957648171,189,"5704 E AIRE LIBRE AVE UNIT 1108, SCOTTSDALE, AZ, 85254","Match","Non_Exact","5704 E AIRE LIBRE AVE, SCOTTSDALE, AZ, 85254",640590265,"R"
248190,"5704 E GRANT ROAD","TUCSON","AZ",85712,32.2506615510001,-110.870288346,190,"5704 E GRANT ROAD, TUCSON, AZ, 85712","Match","Exact","5704 E GRANT RD, TUCSON, AZ, 85712",606805128,"R"
248191,"5704 GREEN PINE ROAD","CEDAR GROVE","NC",27231,36.1789095340001,-79.1304478169999,191,"5704 GREEN PINE ROAD, CEDAR GROVE, NC, 27231","Match","Exact","5704 GREEN PINE RD, CEDAR GROVE, NC, 27231",72423948,"L"
248192,"5704 HARRODS GLEN DRIVE","PROSPECT","KY",40059,38.3288548190001,-85.608159078,192,"5704 HARRODS GLEN DRIVE, PROSPECT, KY, 40059","Match","Exact","5704 HARRODS GLEN DR, PROSPECT, KY, 40059",647012255,"L"
248193,"5704 HIBERNIA DR STE C","COLUMBUS","OH",43232,39.9520689460001,-82.8485358359999,193,"5704 HIBERNIA DR STE C, COLUMBUS, OH, 43232","Match","Exact","5704 HIBERNIA DR, COLUMBUS, OH, 43232",218649956,"R"
248194,"5704 MILLER ROAD","ROME","OH",44085,41.594688999,-80.8003085249999,194,"5704 MILLER ROAD, ROME, OH, 44085","Match","Exact","5704 MILLER RD, ROME, OH, 44085",117321445,"R"
248195,"5704 MITCHELL RD","RIDGEWAY","VA",24148,36.5922309950001,-79.823176038,195,"5704 MITCHELL RD, RIDGEWAY, VA, 24148","Match","Exact","5704 MITCHELL RD, RIDGEWAY, VA, 24148",55527388,"L"
248196,"5704 ORANGE AVE","LONG BEACH","CA",90805,33.859340483,-118.177268308,196,"5704 ORANGE AVE, LONG BEACH, CA, 90805","Match","Exact","5704 ORANGE AVE, LONG BEACH, CA, 90805",141684579,"R"
248197,"5704 SILVER SPUR","MCKINNEY","TX",75070,33.156096952,-96.6899860839999,197,"5704 SILVER SPUR, MCKINNEY, TX, 75070","Match","Non_Exact","5704 SILVER SPR, MCKINNEY, TX, 75070",635800960,"L"
248198,"5704 TIERRA VIVA PLACE NW","ALBUQUERQUE","NM",87107,35.142789194,-106.658354843,198,"5704 TIERRA VIVA PLACE NW, ALBUQUERQUE, NM, 87107","Match","Exact","5704 TIERRA VIVA PL NW, ALBUQUERQUE, NM, 87107",645268461,"R"
248199,"5704 WEST MARKET STREET UNIT 19928","GREENSBORO","NC",27419,36.0765510680001,-79.89417007,199,"5704 WEST MARKET STREET UNIT 19928, GREENSBORO, NC, 27419","Match","Non_Exact","5704 W MARKET ST, GREENSBORO, NC, 27409",636625522,"R"
248200,"5705 31ST PLACE","HYATTSVILLE","MD",20782,38.959923315,-76.965009282,200,"5705 31ST PLACE, HYATTSVILLE, MD, 20782","Match","Exact","5705 31ST PL, HYATTSVILLE, MD, 20782",76304317,"R"
248201,"5705 47TH ST NE","MARYSVILLE","WA",98270,48.0385721380001,-122.15185744,201,"5705 47TH ST NE, MARYSVILLE, WA, 98270","Match","Exact","5705 47TH ST NE, MARYSVILLE, WA, 98270",617631964,"R"
248202,"5705 64TH PL","RIVERDALE","MD",20737,38.956445746,-76.909024388,202,"5705 64TH PL, RIVERDALE, MD, 20737","Match","Exact","5705 64TH PL, RIVERDALE, MD, 20737",76307247,"R"
248203,"5705 BROADWAY ST","WEST LINN","OR",97068,45.366459283,-122.61653237,203,"5705 BROADWAY ST, WEST LINN, OR, 97068","Match","Exact","5705 BROADWAY ST, WEST LINN, OR, 97068",157944119,"R"
248204,"5705 GARFIELD STREET","HOLLYWOOD","FL",33021,26.0205123440001,-80.202280361,204,"5705 GARFIELD STREET, HOLLYWOOD, FL, 33021","Match","Exact","5705 GARFIELD ST, HOLLYWOOD, FL, 33021",114717145,"R"
248205,"5705 GLEN AVENUE","MINNETONKA","MN",55345,44.9000547250001,-93.469524276,205,"5705 GLEN AVENUE, MINNETONKA, MN, 55345","Match","Exact","5705 GLEN AVE, MINNETONKA, MN, 55345",43826514,"L"
248206,"5705 GRANT CREEK RD","MISSOULA","MT",59808,46.917522277,-114.031862922,206,"5705 GRANT CREEK RD, MISSOULA, MT, 59808","Match","Exact","5705 GRANT CREEK RD, MISSOULA, MT, 59808",205262703,"L"
248207,"5705 JACKSON DRIVE","LA MESA","CA",91942,32.782414497,-117.01921995,207,"5705 JACKSON DRIVE, LA MESA, CA, 91942","Match","Exact","5705 JACKSON DR, LA MESA, CA, 91942",195325767,"R"
248208,"5705 LAKEMOORE DR","AUSTIN","TX",78731,30.3648067830001,-97.787460563,208,"5705 LAKEMOORE DR, AUSTIN, TX, 78731","Match","Exact","5705 LAKEMOORE DR, AUSTIN, TX, 78731",63927340,"L"
248209,"5705 LOWER WYANDOTTE ROAD","OROVILLE","CA",95966,39.4766236190001,-121.5305815,209,"5705 LOWER WYANDOTTE ROAD, OROVILLE, CA, 95966","Match","Exact","5705 LOWER WYANDOTTE RD, OROVILLE, CA, 95966",68431908,"R"
248210,"5705 LYNNHAVEN PKWY STE 104 MB1081","VIRGINIA BEACH","VA",23464,36.769323392,-76.191573089,210,"5705 LYNNHAVEN PKWY STE 104 MB1081, VIRGINIA BEACH, VA, 23464","Match","Exact","5705 LYNNHAVEN PKWY, VA BCH, VA, 23464",646585804,"R"
248211,"5705 MARCONI AVE SUITE C","CARMICHAEL","CA",95608,38.617202476,-121.3318016,211,"5705 MARCONI AVE SUITE C, CARMICHAEL, CA, 95608","Match","Exact","5705 MARCONI AVE, CARMICHAEL, CA, 95608",133343337,"L"
248212,"5705 MCKINLEY STREET","BETHESDA","MD",20817,38.996009687,-77.117075641,212,"5705 MCKINLEY STREET, BETHESDA, MD, 20817","Match","Exact","5705 MCKINLEY ST, BETHESDA, MD, 20817",62058384,"R"
248213,"5705 MEMORIAL DRIVE - PO BOX 870068","STONE MOUNTAIN","GA",30083,33.801013358,-84.2049433239999,213,"5705 MEMORIAL DRIVE - PO BOX 870068, STONE MOUNTAIN, GA, 30083","Match","Exact","5705 MEMORIAL DR, STONE MOUNTAIN, GA, 30083",23413344,"R"
248214,"5705 N E ST","SAN BERNARDINO","CA",92407,34.181019733,-117.294016778,214,"5705 N E ST, SAN BERNARDINO, CA, 92407","Match","Exact","5705 N E ST, SAN BERNARDINO, CA, 92407",144653550,"R"
248215,"5705 NE QUARTZ CIR","LEES SUMMIT","MO",64064,39.01392409,-94.361221179,215,"5705 NE QUARTZ CIR, LEES SUMMIT, MO, 64064","Match","Exact","5705 NE QUARTZ CIR, LEES SUMMIT, MO, 64064",91509093,"L"
248216,"5705 SIDNEY LANE","MCKINNEY","TX",75070,33.164938996,-96.690525357,216,"5705 SIDNEY LANE, MCKINNEY, TX, 75070","Match","Exact","5705 SIDNEY LN, MCKINNEY, TX, 75070",123562334,"L"
248217,"5705 STEEPLE CHASE ROAD","SYKESVILLE","MD",21784,39.417564655,-77.005264837,217,"5705 STEEPLE CHASE ROAD, SYKESVILLE, MD, 21784","Match","Exact","5705 STEEPLE CHASE RD, SYKESVILLE, MD, 21784",653251728,"R"
248218,"5705 TIVOLI CIR APT 102","RICHMOND","VA",23227,37.6085434670001,-77.4246699999999,218,"5705 TIVOLI CIR APT 102, RICHMOND, VA, 23227","Match","Exact","5705 TIVOLI CIR, RICHMOND, VA, 23227",106673280,"R"
248219,"5705 TURNER RD","BROAD RUN","VA",20137,38.834071351,-77.683901986,219,"5705 TURNER RD, BROAD RUN, VA, 20137","Match","Exact","5705 TURNER RD, BROAD RUN, VA, 20137",207161984,"L"
248220,"5705 WILDCAT ROAD","MISSOULA","MT",59802,46.91674327,-113.959973784,220,"5705 WILDCAT ROAD, MISSOULA, MT, 59802","Match","Exact","5705 WILDCAT RD, MISSOULA, MT, 59802",601302583,"R"
248221,"5705 YUKON STREET","ARVADA","CO",80002,39.8004042260001,-105.082597203,221,"5705 YUKON STREET, ARVADA, CO, 80002","Match","Exact","5705 YUKON ST, ARVADA, CO, 80002",177288782,"L"
248222,"57057 BEAVER DRIVE","BEND","OR",97707,NA,NA,222,"57057 BEAVER DRIVE, BEND, OR, 97707","No_Match",NA,NA,NA,NA
248223,"5706 17TH AVE NW POB 17482","SEATTLE","WA",98107,47.670267747,-122.378872207,223,"5706 17TH AVE NW POB 17482, SEATTLE, WA, 98107","Match","Exact","5706 17TH AVE NW, SEATTLE, WA, 98107",186658998,"R"
248224,"5706 1ST ST S","ARLINGTON","VA",22204,38.865340497,-77.125894592,224,"5706 1ST ST S, ARLINGTON, VA, 22204","Match","Exact","5706 1ST ST S, ARLINGTON, VA, 22204",76479243,"R"
248225,"5706 BARRINGTON RUN","UNION CITY","GA",30291,33.570350568,-84.516624446,225,"5706 BARRINGTON RUN, UNION CITY, GA, 30291","Match","Exact","5706 BARRINGTON RUN, UNION CITY, GA, 30291",17405622,"R"
248226,"5706 BELLONA AVE","BALTIMORE","MD",21212,39.3589591260001,-76.6104488029999,226,"5706 BELLONA AVE, BALTIMORE, MD, 21212","Match","Exact","5706 BELLONA AVE, BALTIMORE, MD, 21212",206408144,"L"
248227,"5706 CAHALAN AVENUE STE 23634","SAN JOSE","CA",95153,37.2486694250001,-121.847216627,227,"5706 CAHALAN AVENUE STE 23634, SAN JOSE, CA, 95153","Match","Non_Exact","5706 CAHALAN AVE, SAN JOSE, CA, 95123",122923671,"L"
248228,"5706 CALAIS COURT","CALABASAS","CA",91302,34.162062129,-118.711668836,228,"5706 CALAIS COURT, CALABASAS, CA, 91302","Match","Exact","5706 CALAIS CT, CALABASAS, CA, 91302",241190289,"L"
248229,"5706 E MOCKINGBIRD LANE 115-25","DALLAS","TX",75206,32.8365076690001,-96.7697991269999,229,"5706 E MOCKINGBIRD LANE 115-25, DALLAS, TX, 75206","Match","Exact","5706 MOCKINGBIRD LN, DALLAS, TX, 75206",103171484,"R"
248230,"5706 E MOCKINGBIRD LANE 115-39","DALLAS","TX",75206,32.8365076690001,-96.7697991269999,230,"5706 E MOCKINGBIRD LANE 115-39, DALLAS, TX, 75206","Match","Exact","5706 MOCKINGBIRD LN, DALLAS, TX, 75206",103171484,"R"
248231,"5706 E MOCKINGBIRD LN 115-51","DALLAS","TX",75206,32.8365076690001,-96.7697991269999,231,"5706 E MOCKINGBIRD LN 115-51, DALLAS, TX, 75206","Match","Exact","5706 MOCKINGBIRD LN, DALLAS, TX, 75206",103171484,"R"
248232,"5706 EAST MOCKINGBIRD LN 115-187","DALLAS","TX",75206,32.8365076800001,-96.769801491,232,"5706 EAST MOCKINGBIRD LN 115-187, DALLAS, TX, 75206","Match","Non_Exact","5706 MOCKINGBIRD LN, DALLAS, TX, 75206",103171484,"R"
248233,"5706 EAST MOCKINGBIRD LN SUITE 115","DALLAS","TX",75206,32.8365076800001,-96.769801491,233,"5706 EAST MOCKINGBIRD LN SUITE 115, DALLAS, TX, 75206","Match","Non_Exact","5706 MOCKINGBIRD LN, DALLAS, TX, 75206",103171484,"R"
248234,"5706 GOVERNORS POND CIR","ALEXANDRIA","VA",22310,38.7947284410001,-77.089351001,234,"5706 GOVERNORS POND CIR, ALEXANDRIA, VA, 22310","Match","Exact","5706 GOVERNORS POND CIR, ALEXANDRIA, VA, 22310",76046576,"L"
248235,"5706 HEBRON LN","LAKELAND","FL",33812,27.9615328620001,-81.9207482369999,235,"5706 HEBRON LN, LAKELAND, FL, 33812","Match","Exact","5706 HEBRON LN, LAKELAND, FL, 33812",649840285,"R"
248236,"5706 HWY 154","BUTLER","KY",41006,38.8293575590001,-84.305440335,236,"5706 HWY 154, BUTLER, KY, 41006","Match","Exact","5706 HWY 154, BUTLER, KY, 41006",104477474,"R"
248237,"5706 LONG CREEK LANE","HOUSTON","TX",77088,29.873130818,-95.471849202,237,"5706 LONG CREEK LANE, HOUSTON, TX, 77088","Match","Exact","5706 LONG CREEK LN, HOUSTON, TX, 77088",96225480,"R"
248238,"5706 MAGNUM DRIVE","ARLINGTON","TX",76018,32.652401668,-97.085150137,238,"5706 MAGNUM DRIVE, ARLINGTON, TX, 76018","Match","Exact","5706 MAGNUM DR, ARLINGTON, TX, 76018",102125736,"R"
248239,"5706 MAPLEBROOK LANE","FLINT","MI",48507,42.9577953130001,-83.6862882729999,239,"5706 MAPLEBROOK LANE, FLINT, MI, 48507","Match","Exact","5706 MAPLEBROOK LN, FLINT, MI, 48507",69575191,"L"
248240,"5706 N 18TH ST","TAMPA","FL",33610,27.9989194980001,-82.439754616,240,"5706 N 18TH ST, TAMPA, FL, 33610","Match","Exact","5706 N 18TH ST, TAMPA, FL, 33610",104522590,"L"
248241,"5706 RAINIER AVE S","SEATTLE","WA",98118,47.551075025,-122.277602757,241,"5706 RAINIER AVE S, SEATTLE, WA, 98118","Match","Exact","5706 RAINIER AVE S, SEATTLE, WA, 98118",186596472,"L"
248242,"5706 REEF LANDING WAY","WILMINGTON","NC",28409,34.1388466770001,-77.8706935439999,242,"5706 REEF LANDING WAY, WILMINGTON, NC, 28409","Match","Exact","5706 REEF LANDING WAY, WILMINGTON, NC, 28409",650671154,"R"
248243,"5706 ROAD 60","PASCO","WA",99301,46.2782516350001,-119.168730591,243,"5706 ROAD 60, PASCO, WA, 99301","Match","Exact","5706 RD 60, PASCO, WA, 99301",639686681,"L"
248244,"5706 SAN CORDOBA PLAZA","TAMPA","FL",33617,28.059478617,-82.391592079,244,"5706 SAN CORDOBA PLAZA, TAMPA, FL, 33617","Match","Exact","5706 SAN CORDOBA PLZ, TAMPA, FL, 33617",650648757,"L"
248245,"5706 SAN JOSE AVENUE","RICHMOND","CA",94804,37.9029337370001,-122.308677357,245,"5706 SAN JOSE AVENUE, RICHMOND, CA, 94804","Match","Exact","5706 SAN JOSE AVE, RICHMOND, CA, 94804",192043795,"R"
248246,"5706 SKYDALE LN","RICHMOND","TX",77469,29.548767533,-95.70666343,246,"5706 SKYDALE LN, RICHMOND, TX, 77469","Match","Non_Exact","5706 SKY DALE LN, RICHMOND, TX, 77469",635325603,"L"
248247,"5706 STARFISH COURT","DISCOVERY BAY","CA",94505,37.9096188120001,-121.58933096,247,"5706 STARFISH COURT, DISCOVERY BAY, CA, 94505","Match","Exact","5706 STARFISH CT, DISCOVERY BAY, CA, 94505",192033426,"R"
248248,"5706 STONINGTON AVE","GWYNN OAK","MD",21207,39.329377192,-76.711535065,248,"5706 STONINGTON AVE, GWYNN OAK, MD, 21207","Match","Exact","5706 STONINGTON AVE, GWYNN OAK, MD, 21207",191514704,"R"
248249,"5706 TRAFALGAR","HOUSTON","TX",77085,29.6183316250001,-95.4687255859999,249,"5706 TRAFALGAR, HOUSTON, TX, 77085","Match","Non_Exact","5706 TRAFALGAR DR, HOUSTON, TX, 77085",96040675,"R"
248250,"5706 W LAKE STREET 3W","CHICAGO","IL",60644,41.8878175770001,-87.767968658,250,"5706 W LAKE STREET 3W, CHICAGO, IL, 60644","Match","Non_Exact","5706 W LAKE ST, CHICAGO, IL, 60644",111753974,"R"
248251,"5707 5TH STREET NE","WASHINGTON","DC",20011,38.959350413,-77.001875583,251,"5707 5TH STREET NE, WASHINGTON, DC, 20011","Match","Exact","5707 5TH ST NE, WASHINGTON, DC, 20011",76228001,"R"
248252,"5707 ARABELLE LAKE STREET","HOUSTON","TX",77007,29.7826349740001,-95.424462846,252,"5707 ARABELLE LAKE STREET, HOUSTON, TX, 77007","Match","Exact","5707 ARABELLE LAKE ST, HOUSTON, TX, 77007",233404182,"L"
248253,"5707 BEACONSFIELD ROAD","CHARLOTTE","NC",28214,35.262982859,-80.9275137939999,253,"5707 BEACONSFIELD ROAD, CHARLOTTE, NC, 28214","Match","Exact","5707 BEACONSFIELD RD, CHARLOTTE, NC, 28214",70504121,"R"
248254,"5707 COQUYT DR","MOUNT DORA","FL",32757,28.7840616570001,-81.6026815129999,254,"5707 COQUYT DR, MOUNT DORA, FL, 32757","Match","Exact","5707 COQUYT DR, MOUNT DORA, FL, 32757",624336244,"R"
248255,"5707 CREEK DALE DR","ORLANDO","FL",32810,28.61522323,-81.464291874,255,"5707 CREEK DALE DR, ORLANDO, FL, 32810","Match","Exact","5707 CREEK DALE DR, ORLANDO, FL, 32810",94311316,"L"
248256,"5707 E BALCH AVE","FRESNO","CA",93727,36.7384545790001,-119.696535003,256,"5707 E BALCH AVE, FRESNO, CA, 93727","Match","Exact","5707 E BALCH AVE, FRESNO, CA, 93727",197586185,"L"
248257,"5707 HUXLEY AVE APT 2","BRONX","NY",10471,40.9058436550001,-73.898615058,257,"5707 HUXLEY AVE APT 2, BRONX, NY, 10471","Match","Exact","5707 HUXLEY AVE, BRONX, NY, 10471",80296275,"L"
248258,"5707 KINGWOOD DRIVE","KINGWOOD","TX",77345,NA,NA,258,"5707 KINGWOOD DRIVE, KINGWOOD, TX, 77345","No_Match",NA,NA,NA,NA
248259,"5707 LYCOMB DR","HOUSTON","TX",77053,29.5917381310001,-95.472578436,259,"5707 LYCOMB DR, HOUSTON, TX, 77053","Match","Exact","5707 LYCOMB DR, HOUSTON, TX, 77053",78271710,"R"
248260,"5707 MARCONI AVENUE UNIT A","CARMICHAEL","CA",95608,38.6172021350001,-121.331771482,260,"5707 MARCONI AVENUE UNIT A, CARMICHAEL, CA, 95608","Match","Exact","5707 MARCONI AVE, CARMICHAEL, CA, 95608",133343337,"L"
248261,"5707 MORRIS RD","FLOWER MOUND","TX",75028,33.0636038820001,-97.061769109,261,"5707 MORRIS RD, FLOWER MOUND, TX, 75028","Match","Non_Exact","5707 MORRISS RD, FLOWER MOUND, TX, 75028",103427682,"R"
248262,"5707 MORRISS RD","FLOWER MOUND","TX",75028,33.0636038820001,-97.061769109,262,"5707 MORRISS RD, FLOWER MOUND, TX, 75028","Match","Exact","5707 MORRISS RD, FLOWER MOUND, TX, 75028",103427682,"R"
248263,"5707 MORRISS RD","FLOWER MOUND","TX",75077,33.0636038820001,-97.061769109,263,"5707 MORRISS RD, FLOWER MOUND, TX, 75077","Match","Non_Exact","5707 MORRISS RD, FLOWER MOUND, TX, 75028",103427682,"R"
248264,"5707 MORRISS ROAD","FLOWER MOUND","TX",75028,33.0636038820001,-97.061769109,264,"5707 MORRISS ROAD, FLOWER MOUND, TX, 75028","Match","Exact","5707 MORRISS RD, FLOWER MOUND, TX, 75028",103427682,"R"
248265,"5707 PRINCESTON DR","PENSACOLA","FL",32526,NA,NA,265,"5707 PRINCESTON DR, PENSACOLA, FL, 32526","No_Match",NA,NA,NA,NA
248266,"5707 REDWOOD RD","OAKLAND","CA",94619,37.8010683800001,-122.170143578,266,"5707 REDWOOD RD, OAKLAND, CA, 94619","Match","Exact","5707 REDWOOD RD, OAKLAND, CA, 94619",640827625,"L"
248267,"5707 RICHARDS CIRCLE","SHAWNEE","KS",66216,39.024637182,-94.73623723,267,"5707 RICHARDS CIRCLE, SHAWNEE, KS, 66216","Match","Exact","5707 RICHARDS CIR, SHAWNEE, KS, 66216",91288937,"L"
248268,"5707 ROCK SHOALS WAY","COLLEGE PARK","GA",30349,33.600624114,-84.417400034,268,"5707 ROCK SHOALS WAY, COLLEGE PARK, GA, 30349","Match","Exact","5707 ROCK SHOALS WAY, COLLEGE PARK, GA, 30349",23330952,"R"
248269,"5707 ROCKAWAY DRIVE","UNION CITY","GA",30291,33.57283117,-84.5618641469999,269,"5707 ROCKAWAY DRIVE, UNION CITY, GA, 30291","Match","Exact","5707 ROCKAWAY DR, UNION CITY, GA, 30291",17405564,"R"
248270,"5707 S CASS AVE SUITE 704","WESTMONT","IL",60559,41.784080691,-87.974921426,270,"5707 S CASS AVE SUITE 704, WESTMONT, IL, 60559","Match","Non_Exact","5707 S CASS AVE, WESTMONT, IL, 60559",112548000,"L"
248271,"5707 S CASS AVE UNIT 628","WESTMONT","IL",60559,41.784080691,-87.974921426,271,"5707 S CASS AVE UNIT 628, WESTMONT, IL, 60559","Match","Non_Exact","5707 S CASS AVE, WESTMONT, IL, 60559",112548000,"L"
248272,"5707 S WOODLAWN AVENUE","CHICAGO","IL",60637,41.791244819,-87.596441284,272,"5707 S WOODLAWN AVENUE, CHICAGO, IL, 60637","Match","Exact","5707 S WOODLAWN AVE, CHICAGO, IL, 60637",638712243,"L"
248273,"5707 SHROPSHIRE COURT","ALEXANDRIA","VA",22315,38.746243599,-77.136743203,273,"5707 SHROPSHIRE COURT, ALEXANDRIA, VA, 22315","Match","Exact","5707 SHROPSHIRE CT, ALEXANDRIA, VA, 22315",75985985,"L"
248274,"5707 SOUTHWEST PARKWAY","AUSTIN","TX",78735,30.24577334,-97.845346666,274,"5707 SOUTHWEST PARKWAY, AUSTIN, TX, 78735","Match","Exact","5707 SOUTHWEST PKWY, AUSTIN, TX, 78735",641678738,"L"
248275,"5707 TPC PARKWAY APT 717","SAN ANTONIO","TX",78261,NA,NA,275,"5707 TPC PARKWAY APT 717, SAN ANTONIO, TX, 78261","No_Match",NA,NA,NA,NA
248276,"5707 W HIDDEN SPRINGS DR","BOISE","ID",83714,43.725393726,-116.260052379,276,"5707 W HIDDEN SPRINGS DR, BOISE, ID, 83714","Match","Exact","5707 W HIDDEN SPRINGS DR, BOISE, ID, 83714",117891341,"R"
248277,"5707 WILLIAMS ROAD","NEWPORT","MI",48166,41.961186621,-83.310384636,277,"5707 WILLIAMS ROAD, NEWPORT, MI, 48166","Match","Exact","5707 WILLIAMS RD, NEWPORT, MI, 48166",40480934,"L"
248278,"5707 YUCATAN DR","INDIANAPOLIS","IN",46237,39.6908871680001,-86.0694422889999,278,"5707 YUCATAN DR, INDIANAPOLIS, IN, 46237","Match","Exact","5707 YUCATAN DR, INDIANAPOLIS, IN, 46237",108009715,"R"
248279,"5708 151ST ST SE","EVERETT","WA",98208,47.860576914,-122.155304733,279,"5708 151ST ST SE, EVERETT, WA, 98208","Match","Exact","5708 151ST ST SE, EVERETT, WA, 98208",187800193,"L"
248280,"5708 BRANDON BOULEVARD","VIRGINIA BEACH","VA",23464,36.7905858190001,-76.193920925,280,"5708 BRANDON BOULEVARD, VIRGINIA BEACH, VA, 23464","Match","Exact","5708 BRANDON BLVD, VA BCH, VA, 23464",122258126,"R"
248281,"5708 DUNHAM RD","MAPLE HEIGHTS","OH",44137,41.4046568950001,-81.575256838,281,"5708 DUNHAM RD, MAPLE HEIGHTS, OH, 44137","Match","Exact","5708 DUNHAM RD, MAPLE HEIGHTS, OH, 44137",61128438,"R"
248282,"5708 EISENHOWER DRIVE","FORT WORTH","TX",76112,32.7278158840001,-97.231780248,282,"5708 EISENHOWER DRIVE, FORT WORTH, TX, 76112","Match","Exact","5708 EISENHOWER DR, FORT WORTH, TX, 76112",101898183,"R"
248283,"5708 FALLS RIDGE LANE","CHARLOTTE","NC",28269,35.3522385570001,-80.815697733,283,"5708 FALLS RIDGE LANE, CHARLOTTE, NC, 28269","Match","Exact","5708 FALLS RIDGE LN, CHARLOTTE, NC, 28269",70543922,"L"
248284,"5708 FOX TRAIL","FLORENCE","MT",59833,46.653901864,-114.058936917,284,"5708 FOX TRAIL, FLORENCE, MT, 59833","Match","Exact","5708 FOX TRL, FLORENCE, MT, 59833",153540642,"R"
248285,"5708 FREDRICK COURT","PLANO","TX",75093,33.0188817820001,-96.8168488589999,285,"5708 FREDRICK COURT, PLANO, TX, 75093","Match","Exact","5708 FREDRICK CT, PLANO, TX, 75093",123532751,"L"
248286,"5708 HEYWOOD ROAD","RICHMOND","VA",23224,37.483708005,-77.496352141,286,"5708 HEYWOOD ROAD, RICHMOND, VA, 23224","Match","Exact","5708 HEYWOOD RD, RICHMOND, VA, 23224",201537153,"R"
248287,"5708 HIGHBLUFF TERRACE","PLEASANTON","CA",94588,37.683918465,-121.935011794,287,"5708 HIGHBLUFF TERRACE, PLEASANTON, CA, 94588","Match","Exact","5708 HIGHBLUFF TER, PLEASANTON, CA, 94588",125064674,"L"
248288,"5708 HUCKBURN COURT","LAUREL","MD",20707,39.107125888,-76.909201966,288,"5708 HUCKBURN COURT, LAUREL, MD, 20707","Match","Exact","5708 HUCKBURN CT, LAUREL, MD, 20707",62102832,"L"
248289,"5708 LAKE WEST TERRACE","GLEN ALLEN","VA",23059,37.6952348310001,-77.6183730129999,289,"5708 LAKE WEST TERRACE, GLEN ALLEN, VA, 23059","Match","Exact","5708 LAKE WEST TER, GLEN ALLEN, VA, 23059",106683738,"L"
248290,"5708 LAWTON DRIVE","SARASOTA","FL",34233,27.2698994350001,-82.486596678,290,"5708 LAWTON DRIVE, SARASOTA, FL, 34233","Match","Exact","5708 LAWTON DR, SARASOTA, FL, 34233",648193381,"L"
248291,"5708 LINDENHURST AVE","LOS ANGELES","CA",90036,34.0656688380001,-118.351642588,291,"5708 LINDENHURST AVE, LOS ANGELES, CA, 90036","Match","Exact","5708 LINDENHURST AVE, LOS ANGELES, CA, 90036",141599170,"L"
248292,"5708 NFIELD ST","FARMINGTON","WV",26571,NA,NA,292,"5708 NFIELD ST, FARMINGTON, WV, 26571","No_Match",NA,NA,NA,NA
248293,"5708 PENNY CREEK DR","AUSTIN","TX",78759,30.413195047,-97.75438963,293,"5708 PENNY CREEK DR, AUSTIN, TX, 78759","Match","Exact","5708 PENNY CREEK DR, AUSTIN, TX, 78759",63926384,"R"
248294,"5708 RFD","LONG GROVE","IL",60047,42.203828005,-87.9825520269999,294,"5708 RFD, LONG GROVE, IL, 60047","Match","Exact","5708 RFD, LONG GROVE, IL, 60047",645722977,"R"
248295,"5708 S RIMPAU BLVD","LOS ANGELES","CA",90043,33.99060982,-118.339852326,295,"5708 S RIMPAU BLVD, LOS ANGELES, CA, 90043","Match","Exact","5708 S RIMPAU BLVD, LOS ANGELES, CA, 90043",142750313,"L"
248296,"5708 VERNON WAY","SUITLAND","MD",20746,38.8203415900001,-76.9088464609999,296,"5708 VERNON WAY, SUITLAND, MD, 20746","Match","Exact","5708 VERNON WAY, SUITLAND, MD, 20746",76314952,"L"
248297,"5708 WINDLESTRAW DRIVE APT 36","DURHAM","NC",27713,35.919369825,-78.9271337229999,297,"5708 WINDLESTRAW DRIVE APT 36, DURHAM, NC, 27713","Match","Exact","5708 WINDLESTRAW DR, DURHAM, NC, 27713",71748468,"R"
248298,"5709 E 102ND ST","KANSAS CITY","MO",64137,38.939948611,-94.5236821249999,298,"5709 E 102ND ST, KANSAS CITY, MO, 64137","Match","Exact","5709 E 102ND ST, KANSAS CITY, MO, 64137",652556667,"R"
248299,"5709 GEORGIA LN","LOUISVILLE","KY",40219,38.146246798,-85.6549314759999,299,"5709 GEORGIA LN, LOUISVILLE, KY, 40219","Match","Exact","5709 GEORGIA LN, LOUISVILLE, KY, 40219",96920536,"L"
248300,"5709 MARBLE ARCH WAY","ALEXANDRIA","VA",22315,38.74806283,-77.134851034,300,"5709 MARBLE ARCH WAY, ALEXANDRIA, VA, 22315","Match","Exact","5709 MARBLE ARCH WAY, ALEXANDRIA, VA, 22315",75986005,"L"
248301,"5709 N SAPULPA AVE","OKLAHOMA CITY","OK",73112,35.528137916,-97.5885310259999,301,"5709 N SAPULPA AVE, OKLAHOMA CITY, OK, 73112","Match","Exact","5709 N SAPULPA AVE, OKLAHOMA CITY, OK, 73112",620037636,"L"
248302,"5709 OLDE SOUTH ROAD","RALEIGH","NC",27606,35.7047016280001,-78.709870786,302,"5709 OLDE SOUTH ROAD, RALEIGH, NC, 27606","Match","Exact","5709 OLDE SOUTH RD, RALEIGH, NC, 27606",72619682,"R"
248303,"5709 PATE RD","HOUSTON","TX",77016,29.8551690240001,-95.3138249739999,303,"5709 PATE RD, HOUSTON, TX, 77016","Match","Exact","5709 PATE RD, HOUSTON, TX, 77016",96075130,"L"
248304,"5709 SAWYER RIIDGE","PUEBLO","CO",81008,38.33277581,-104.636547334,304,"5709 SAWYER RIIDGE, PUEBLO, CO, 81008","Match","Non_Exact","5709 SAWYER RIDGE DR, PUEBLO, CO, 81008",625687784,"L"
248305,"5709 SMITH ROAD/ SUITE C","CLEVELAND","OH",44142,41.4075865390001,-81.803907887,305,"5709 SMITH ROAD/ SUITE C, CLEVELAND, OH, 44142","Match","Non_Exact","5709 SMITH RD, CLEVELAND, OH, 44142",61103785,"L"
248306,"5709 STANDING OAK ROAD","MIDLOTHIAN","VA",23112,37.4240878890001,-77.679206941,306,"5709 STANDING OAK ROAD, MIDLOTHIAN, VA, 23112","Match","Exact","5709 STANDING OAK RD, MIDLOTHIAN, VA, 23112",201562916,"L"
248307,"5709 WALTMAR DR","VIRGINIA BEACH","VA",23464,36.8079123050001,-76.190076855,307,"5709 WALTMAR DR, VIRGINIA BEACH, VA, 23464","Match","Exact","5709 WALTMAR DR, VA BCH, VA, 23464",122258078,"L"
248308,"5709 WEDGEWOOD DR","FT WORTH","TX",76133,32.666621906,-97.390689993,308,"5709 WEDGEWOOD DR, FT WORTH, TX, 76133","Match","Non_Exact","5709 WEDGWOOD DR, FORT WORTH, TX, 76133",101951453,"R"
248309,"5709 WINDSOR GATE LANE","FAIRFAX","VA",22030,38.811927494,-77.3631342039999,309,"5709 WINDSOR GATE LANE, FAIRFAX, VA, 22030","Match","Exact","5709 WINDSOR GATE LN, FAIRFAX, VA, 22030",215932379,"R"
248310,"5709 WINDY DRIVE SUITE D","STEVENS POINT","WI",54482,44.5247270900001,-89.502481883,310,"5709 WINDY DRIVE SUITE D, STEVENS POINT, WI, 54482","Match","Exact","5709 WINDY DR, STEVENS POINT, WI, 54482",646830485,"R"
248311,"57093 US HWY 285","BAILEY","CO",80421,39.4208267600001,-105.536262238,311,"57093 US HWY 285, BAILEY, CO, 80421","Match","Exact","57093 US HWY 285, BAILEY, CO, 80421",651773648,"R"
248312,"570A MACON ST","BROOKLYN","NY",11233,40.6835763130001,-73.927909244,312,"570A MACON ST, BROOKLYN, NY, 11233","Match","Exact","570 MACON ST, BROOKLYN, NY, 11233",59082797,"R"
248313,"571 2ND AVE 3C","NEW YORK","LA",10016,NA,NA,313,"571 2ND AVE 3C, NEW YORK, LA, 10016","No_Match",NA,NA,NA,NA
248314,"571 BALD EAGLE DRIVE","MARCO ISLAND","FL",34145,25.95135731,-81.7234322959999,314,"571 BALD EAGLE DRIVE, MARCO ISLAND, FL, 34145","Match","Exact","571 BALD EAGLE DR, MARCO ISLAND, FL, 34145",115172723,"R"
248315,"571 BOSTON MILLS RD STE 500","HUDSON","OH",44236,41.251836186,-81.484045822,315,"571 BOSTON MILLS RD STE 500, HUDSON, OH, 44236","Match","Exact","571 BOSTON MILLS RD, HUDSON, OH, 44236",648153326,"L"
248316,"571 BOSTON MILLS ROAD STE 100","HUDSON","OH",44236,41.251836186,-81.484045822,316,"571 BOSTON MILLS ROAD STE 100, HUDSON, OH, 44236","Match","Exact","571 BOSTON MILLS RD, HUDSON, OH, 44236",648153326,"L"
248317,"571 BUENA PKWY","BRIDGEWATER","NJ",8807,40.5895263,-74.658435245,317,"571 BUENA PKWY, BRIDGEWATER, NJ, 8807","Match","Exact","571 BUENA PKWY, BRIDGEWATER, NJ, 08807",647400726,"L"
248318,"571 COLLINGSWORTH LANE","LAWRENCEVILLE","GA",30043,34.009701557,-83.938344292,318,"571 COLLINGSWORTH LANE, LAWRENCEVILLE, GA, 30043","Match","Exact","571 COLLINGSWORTH LN, LAWRENCEVILLE, GA, 30043",636106629,"L"
248319,"571 COUNTY ROAD A","GREEN LAKE","WI",54941,NA,NA,319,"571 COUNTY ROAD A, GREEN LAKE, WI, 54941","No_Match",NA,NA,NA,NA
248320,"571 CRYSTAL WAY","ORANGE PARK","FL",32065,NA,NA,320,"571 CRYSTAL WAY, ORANGE PARK, FL, 32065","No_Match",NA,NA,NA,NA
248321,"571 CYPRESS STREET","SAINT PAUL","MN",55106,44.959155857,-93.058372611,321,"571 CYPRESS STREET, SAINT PAUL, MN, 55106","Match","Non_Exact","571 N CYPRESS ST, SAINT PAUL, MN, 55106",97651034,"L"
248322,"571 DANBURY RD","NEW MILFORD","CT",6776,41.5063389760001,-73.419319168,322,"571 DANBURY RD, NEW MILFORD, CT, 6776","Match","Exact","571 DANBURY RD, NEW MILFORD, CT, 06776",636080903,"L"
248323,"571 DECATUR STREET","BROOKLYN","NY",11233,40.682943274,-73.920455212,323,"571 DECATUR STREET, BROOKLYN, NY, 11233","Match","Exact","571 DECATUR ST, BROOKLYN, NY, 11233",59082889,"L"
248324,"571 DUQUESNE BLVD","BRICK","NJ",8723,40.0549738220001,-74.145169989,324,"571 DUQUESNE BLVD, BRICK, NJ, 8723","Match","Exact","571 DUQUESNE BLVD, BRICK, NJ, 08723",203844375,"L"
248325,"571 E HOLMES RD","MEMPHIS","TN",38109,35.006357361,-90.044776155,325,"571 E HOLMES RD, MEMPHIS, TN, 38109","Match","Exact","571 E HOLMES RD, MEMPHIS, TN, 38109",72922502,"R"
248326,"571 FREEDOM TRAIL","BRUNSWICK","GA",31525,31.282750971,-81.485170178,326,"571 FREEDOM TRAIL, BRUNSWICK, GA, 31525","Match","Exact","571 FREEDOM TRL, BRUNSWICK, GA, 31525",637378350,"R"
248327,"571 GATES ROAD","ELIZABETHTOWN","KY",42701,37.693433687,-85.888718491,327,"571 GATES ROAD, ELIZABETHTOWN, KY, 42701","Match","Exact","571 GATES RD, ELIZABETHTOWN, KY, 42701",34620417,"R"
248328,"571 HOLLIS AVE","YPSLIANTI","MI",48198,42.2484151200001,-83.5922688539999,328,"571 HOLLIS AVE, YPSLIANTI, MI, 48198","Match","Non_Exact","571 HOLLIS AVE, YPSILANTI, MI, 48198",26021436,"L"
248329,"571 KEATON RD","LENOIR CITY","TN",37772,35.747143389,-84.179880483,329,"571 KEATON RD, LENOIR CITY, TN, 37772","Match","Exact","571 KEATON RD, LENOIR CITY, TN, 37772",99977890,"L"
248330,"571 LEONARD FARM RD","LOUISBURG","NC",27549,36.068437729,-78.240226131,330,"571 LEONARD FARM RD, LOUISBURG, NC, 27549","Match","Exact","571 LEONARD FARM RD, LOUISBURG, NC, 27549",90229239,"R"
248331,"571 LEONARD FARM ROAD","LOUISBURG","NC",27549,36.068437729,-78.240226131,331,"571 LEONARD FARM ROAD, LOUISBURG, NC, 27549","Match","Exact","571 LEONARD FARM RD, LOUISBURG, NC, 27549",90229239,"R"
248332,"571 MERIDIAN DRIVE","BOWLING GREEN","KY",42101,36.974916933,-86.4969875,332,"571 MERIDIAN DRIVE, BOWLING GREEN, KY, 42101","Match","Exact","571 MERIDIAN DR, BOWLING GREEN, KY, 42101",614172083,"R"
248333,"571 N SERENITY HILL CIRCLE","CHAPEL HILL","NC",27516,35.828958497,-79.1132858569999,333,"571 N SERENITY HILL CIRCLE, CHAPEL HILL, NC, 27516","Match","Exact","571 N SERENITY HILL CIR, CHAPEL HILL, NC, 27516",648086473,"R"
248334,"571 NORTH STREET","TEANECK","NJ",7666,40.888532685,-74.0290706709999,334,"571 NORTH STREET, TEANECK, NJ, 7666","Match","Exact","571 NORTH ST, TEANECK, NJ, 07666",64388614,"R"
248335,"571 OCEAN PARKWAY","BROOKLYN","NY",11218,40.6344974250001,-73.972133604,335,"571 OCEAN PARKWAY, BROOKLYN, NY, 11218","Match","Exact","571 OCEAN PKWY, BROOKLYN, NY, 11218",639410877,"R"
248336,"571 PAUL FRANK ROAD","OBERLIN","LA",70655,30.5825142840001,-92.685381897,336,"571 PAUL FRANK ROAD, OBERLIN, LA, 70655","Match","Exact","571 PAUL FRANK RD, OBERLIN, LA, 70655",13118754,"R"
248337,"571 S TRAFFIC WAY EXT","ARROYO GRANDE","CA",93420,NA,NA,337,"571 S TRAFFIC WAY EXT, ARROYO GRANDE, CA, 93420","Tie",NA,NA,NA,NA
248338,"571 S WASHINGTON ST","AFTON","WY",83110,42.721779229,-110.933602379,338,"571 S WASHINGTON ST, AFTON, WY, 83110","Match","Exact","571 S WASHINGTON ST, AFTON, WY, 83110",611005713,"R"
248339,"571 SECOR ROAD","HARTSDALE","NY",10530,41.028280613,-73.8175691229999,339,"571 SECOR ROAD, HARTSDALE, NY, 10530","Match","Exact","571 SECOR RD, HARTSDALE, NY, 10530",139738026,"R"
248340,"571 SOUTH 200 WEST","PROVIDENCE","UT",84332,41.697237419,-111.823199376,340,"571 SOUTH 200 WEST, PROVIDENCE, UT, 84332","Match","Non_Exact","571 200 W, PROVIDENCE, UT, 84332",155103845,"L"
248341,"571 TOWNESIDE LN NW","MARIETTA","GA",30064,33.9658997540001,-84.615885411,341,"571 TOWNESIDE LN NW, MARIETTA, GA, 30064","Match","Non_Exact","571 TOWNESIDE LN, MARIETTA, GA, 30064",614185467,"R"
248342,"571 TUDOR BRANCH","GROVETOWN","GA",30813,33.5177285140001,-82.188810458,342,"571 TUDOR BRANCH, GROVETOWN, GA, 30813","Match","Exact","571 TUDOR BRANCH, GROVETOWN, GA, 30813",629563018,"L"
248343,"571 VALLEY CLUB CIR","LITTLE ROCK","AR",72212,34.77337484,-92.408269274,343,"571 VALLEY CLUB CIR, LITTLE ROCK, AR, 72212","Match","Exact","571 VALLEY CLUB CIR, LITTLE ROCK, AR, 72212",83500023,"R"
248344,"571 VELOCE TRAIL","FORT MILL","SC",29715,34.9797475390001,-80.9234568259999,344,"571 VELOCE TRAIL, FORT MILL, SC, 29715","Match","Exact","571 VELOCE TRL, FORT MILL, SC, 29715",635308879,"L"
248345,"571 W 1800 N","CLINTON","UT",84015,41.13987222,-112.037249113,345,"571 W 1800 N, CLINTON, UT, 84015","Match","Exact","571 W 1800 N, CLINTON, UT, 84015",155304871,"R"
248346,"571 W CLIFFSIDE AVE","AMARILLO","TX",79108,35.263179166,-101.841756461,346,"571 W CLIFFSIDE AVE, AMARILLO, TX, 79108","Match","Non_Exact","571 W CLIFFSIDE DR, AMARILLO, TX, 79108",182465445,"L"
248347,"571 WINDERMERE WAY","LAKE IN THE HILLS","IL",60156,42.1813978610001,-88.390816052,347,"571 WINDERMERE WAY, LAKE IN THE HILLS, IL, 60156","Match","Exact","571 WINDERMERE WAY, LAKE IN THE HILLS, IL, 60156",119845288,"R"
248348,"571 WOODVIEW LANE","HARLEYSVILLE","PA",19438,40.246534755,-75.365831621,348,"571 WOODVIEW LANE, HARLEYSVILLE, PA, 19438","Match","Exact","571 WOODVIEW LN, HARLEYSVILLE, PA, 19438",605667831,"R"
248349,"571","AKRON","OH",44310,NA,NA,349,"571, AKRON, OH, 44310","No_Match",NA,NA,NA,NA
248350,"5710 138TH PL NE","MARYSVILLE","WA",98271,48.1213643410001,-122.153953746,350,"5710 138TH PL NE, MARYSVILLE, WA, 98271","Match","Exact","5710 138TH PL NE, MARYSVILLE, WA, 98271",187806901,"R"
248351,"5710 18 MILE RD","BARRYTON","MI",49305,43.7272371600001,-85.199315503,351,"5710 18 MILE RD, BARRYTON, MI, 49305","Match","Exact","5710 18 MILE RD, BARRYTON, MI, 49305",110516784,"R"
248352,"5710 ARRINGDON PARK DR 1033","MORRISVILLE","NC",27560,35.8821991670001,-78.829268386,352,"5710 ARRINGDON PARK DR 1033, MORRISVILLE, NC, 27560","Match","Exact","5710 ARRINGDON PARK DR, MORRISVILLE, NC, 27560",640627660,"R"
248353,"5710 BARTLETT STREET-  COACH HOUSE","PITTSBURGH","PA",15217,40.435909291,-79.924846417,353,"5710 BARTLETT STREET-  COACH HOUSE, PITTSBURGH, PA, 15217","Match","Non_Exact","5710 BARTLETT ST, PITTSBURGH, PA, 15217",51682241,"R"
248354,"5710 BELLONA AVE STE 202","BALTIMORE","MD",21212,39.359108222,-76.610558312,354,"5710 BELLONA AVE STE 202, BALTIMORE, MD, 21212","Match","Exact","5710 BELLONA AVE, BALTIMORE, MD, 21212",206408020,"L"
248355,"5710 BELMONT ROAD","RICHMOND","VA",23234,37.456341346,-77.504205753,355,"5710 BELMONT ROAD, RICHMOND, VA, 23234","Match","Exact","5710 BELMONT RD, RICHMOND, VA, 23234",201545175,"R"
248356,"5710 BROADWAY TERRACE","INDIANAPOLIS","IN",46220,39.857544939,-86.147072624,356,"5710 BROADWAY TERRACE, INDIANAPOLIS, IN, 46220","Match","Exact","5710 BROADWAY TER, INDIANAPOLIS, IN, 46220",107984032,"L"
248357,"5710 CRAINDALE DR","ORLANDO","FL",32819,28.481934074,-81.4953445909999,357,"5710 CRAINDALE DR, ORLANDO, FL, 32819","Match","Exact","5710 CRAINDALE DR, ORLANDO, FL, 32819",94316251,"R"
248358,"5710 CRESCENT PARK E 305","PLAYA VISTA","CA",90094,33.971831622,-118.428412243,358,"5710 CRESCENT PARK E 305, PLAYA VISTA, CA, 90094","Match","Non_Exact","5710 S CRESCENT PARK E, PLAYA VISTA, CA, 90094",241177119,"L"
248359,"5710 CRESCENT PARK E APT 348","PLAYA VISTA","CA",90094,33.971831622,-118.428412243,359,"5710 CRESCENT PARK E APT 348, PLAYA VISTA, CA, 90094","Match","Non_Exact","5710 S CRESCENT PARK E, PLAYA VISTA, CA, 90094",241177119,"L"
248360,"5710 CRESCENT PARK EAST NO 336","PLAYA VISTA","CA",90094,33.971831622,-118.428412243,360,"5710 CRESCENT PARK EAST NO 336, PLAYA VISTA, CA, 90094","Match","Non_Exact","5710 S CRESCENT PARK E, PLAYA VISTA, CA, 90094",241177119,"L"
248361,"5710 DELANO LANE","ORLANDO","FL",32821,28.391488259,-81.4495147169999,361,"5710 DELANO LANE, ORLANDO, FL, 32821","Match","Exact","5710 DELANO LN, ORLANDO, FL, 32821",94320066,"L"
248362,"5710 E 2ND AVE","HIALEAH","FL",33013,25.874430697,-80.278913756,362,"5710 E 2ND AVE, HIALEAH, FL, 33013","Match","Exact","5710 E 2ND AVE, HIALEAH, FL, 33013",115997669,"L"
248363,"5710 EAST R L THORNTON FREEWAY","DALLAS","TX",75233,32.7913455290001,-96.742868807,363,"5710 EAST R L THORNTON FREEWAY, DALLAS, TX, 75233","Match","Non_Exact","5710 E R L THORNTON FWY, DALLAS, TX, 75223",649825767,"R"
248364,"5710 EAST R L THORNTON FRWY","DALLAS","TX",75223,32.7913455290001,-96.742868807,364,"5710 EAST R L THORNTON FRWY, DALLAS, TX, 75223","Match","Exact","5710 E R L THORNTON FWY, DALLAS, TX, 75223",649825767,"R"
248365,"5710 FAIRMEADOW CT","CLARENCE CENTER","NY",14032,43.001963463,-78.6278044159999,365,"5710 FAIRMEADOW CT, CLARENCE CENTER, NY, 14032","Match","Exact","5710 FAIRMEADOW CT, CLARENCE CENTER, NY, 14032",633607133,"L"
248366,"5710 GREENBRIER DRIVE","DALLAS","TX",75209,32.8579465,-96.814824656,366,"5710 GREENBRIER DRIVE, DALLAS, TX, 75209","Match","Exact","5710 GREENBRIER DR, DALLAS, TX, 75209",102905936,"R"
248367,"5710 HIDDEN LAKE DRIVE BROWNS","SUMMIT","NC",27214,36.1576701980001,-79.7752802159999,367,"5710 HIDDEN LAKE DRIVE BROWNS, SUMMIT, NC, 27214","Match","Non_Exact","5710 HIDDEN LAKE DR, BROWNS SUMMIT, NC, 27214",635781385,"L"
248368,"5710 HOLLISTER AVE NUM 246","GOLETA","CA",93117,34.4357212640001,-119.823232701,368,"5710 HOLLISTER AVE NUM 246, GOLETA, CA, 93117","Match","Exact","5710 HOLLISTER AVE, GOLETA, CA, 93117",108601545,"R"
248369,"5710 HOLLISTER SUITE 128","GOLETA","CA",93117,34.4357212640001,-119.823232701,369,"5710 HOLLISTER SUITE 128, GOLETA, CA, 93117","Match","Non_Exact","5710 HOLLISTER AVE, GOLETA, CA, 93117",108601545,"R"
248370,"5710 JUNCTION BLVD APT 3L","ELMHURST","NY",11373,NA,NA,370,"5710 JUNCTION BLVD APT 3L, ELMHURST, NY, 11373","No_Match",NA,NA,NA,NA
248371,"5710 KELVIN PARK CIRCLE","CHARLOTTE","NC",28216,35.314511408,-80.878118972,371,"5710 KELVIN PARK CIRCLE, CHARLOTTE, NC, 28216","Match","Exact","5710 KELVIN PARK CIR, CHARLOTTE, NC, 28216",70542796,"L"
248372,"5710 KNOBBY KNOLL DRIVE","HOUSTON","TX",77092,29.848244568,-95.484512707,372,"5710 KNOBBY KNOLL DRIVE, HOUSTON, TX, 77092","Match","Exact","5710 KNOBBY KNOLL DR, HOUSTON, TX, 77092",96027789,"R"
248373,"5710 LAKE SIDE DR","BOSSIER CITY","LA",71111,32.5724131270001,-93.643705411,373,"5710 LAKE SIDE DR, BOSSIER CITY, LA, 71111","Match","Exact","5710 LAKE SIDE DR, BOSSIER CITY, LA, 71111",624694147,"R"
248374,"5710 LENOX AVE  APT 1313","JACKSONVILLE","FL",32205,30.3027794770001,-81.7460220899999,374,"5710 LENOX AVE  APT 1313, JACKSONVILLE, FL, 32205","Match","Exact","5710 LENOX AVE, JACKSONVILLE, FL, 32205",83910274,"L"
248375,"5710 LENOX AVE UNIT 302","JACKSONVILLE","FL",32205,30.3027794770001,-81.7460220899999,375,"5710 LENOX AVE UNIT 302, JACKSONVILLE, FL, 32205","Match","Exact","5710 LENOX AVE, JACKSONVILLE, FL, 32205",83910274,"L"
248376,"5710 LONGLEAF DR","MYRTLE BEAC","SC",29577,33.735423387,-78.841183052,376,"5710 LONGLEAF DR, MYRTLE BEAC, SC, 29577","Match","Non_Exact","5710 LONGLEAF DR, MYRTLE BEACH, SC, 29577",29059578,"R"
248377,"5710 N MIAMI AVE","MIAMI","FL",33127,25.8282277960001,-80.196216535,377,"5710 N MIAMI AVE, MIAMI, FL, 33127","Match","Exact","5710 N MIAMI AVE, MIAMI, FL, 33127",116007237,"L"
248378,"5710 N PROMISING LN","MILTON","WI",53563,42.7545242900001,-88.941471085,378,"5710 N PROMISING LN, MILTON, WI, 53563","Match","Non_Exact","5710 N PROMISING DR, MILTON, WI, 53563",49891720,"R"
248379,"5710 OGEECHEE ROAD SUITE 200 - 260","SAVANNAH","GA",31405,32.022700467,-81.226503795,379,"5710 OGEECHEE ROAD SUITE 200 - 260, SAVANNAH, GA, 31405","Match","Exact","5710 OGEECHEE RD, SAVANNAH, GA, 31405",650121692,"R"
248380,"5710 PASINETTI ST E","FIFE","WA",98424,47.232289587,-122.352826874,380,"5710 PASINETTI ST E, FIFE, WA, 98424","Match","Exact","5710 PASINETTI ST E, FIFE, WA, 98424",647961999,"L"
248381,"5710 SNAPFINGER WOODS DR","LITHONIA","GA",30058,33.7081878600001,-84.155418755,381,"5710 SNAPFINGER WOODS DR, LITHONIA, GA, 30058","Match","Exact","5710 SNAPFINGER WOODS DR, LITHONIA, GA, 30058",627397390,"L"
248382,"5710 SWIFT CREEK CT","SUWANEE","GA",30024,34.0819265270001,-84.1319861919999,382,"5710 SWIFT CREEK CT, SUWANEE, GA, 30024","Match","Exact","5710 SWIFT CREEK CT, SUWANEE, GA, 30024",624261452,"L"
248383,"5710 VANDIVER ROAD","ATLANTA","GA",30331,33.6824794230001,-84.57494501,383,"5710 VANDIVER ROAD, ATLANTA, GA, 30331","Match","Non_Exact","5710 VANDIVER RD SW, ATLANTA, GA, 30331",17337717,"L"
248384,"5710 W GATE CITY BLVD STE K","GREENSBORO","NC",27407,NA,NA,384,"5710 W GATE CITY BLVD STE K, GREENSBORO, NC, 27407","No_Match",NA,NA,NA,NA
248385,"5710 W NETTLE CREEK CT","DUNLAP","IL",61525,40.8301123090001,-89.683062709,385,"5710 W NETTLE CREEK CT, DUNLAP, IL, 61525","Match","Non_Exact","5710 N NETTLE CREEK CT, DUNLAP, IL, 61525",8728401,"R"
248386,"5711 110TH AVENUE EAST","PARRISH","FL",34219,27.5672077300001,-82.451108582,386,"5711 110TH AVENUE EAST, PARRISH, FL, 34219","Match","Exact","5711 110TH AVE E, PARRISH, FL, 34219",645917149,"R"
248387,"5711 BARON DRIVE","CHESTERFIELD","VA",23832,37.432529689,-77.527599573,387,"5711 BARON DRIVE, CHESTERFIELD, VA, 23832","Match","Exact","5711 BARON DR, CHESTERFIELD, VA, 23832",201544725,"L"
248388,"5711 BEXLEY CT","AUSTIN","TX",78739,30.182739428,-97.886911128,388,"5711 BEXLEY CT, AUSTIN, TX, 78739","Match","Exact","5711 BEXLEY CT, AUSTIN, TX, 78739",64001957,"R"
248389,"5711 CANDINGTON COURT","CHARLOTTE","NC",28216,NA,NA,389,"5711 CANDINGTON COURT, CHARLOTTE, NC, 28216","No_Match",NA,NA,NA,NA
248390,"5711 CANOE CT","BAKERSFIELD","CA",33312,35.412023377,-119.100411669,390,"5711 CANOE CT, BAKERSFIELD, CA, 33312","Match","Non_Exact","5711 CANOE CT, BAKERSFIELD, CA, 93312",109450627,"L"
248391,"5711 E FT LOWELL RD","TUCSON","AZ",85712,32.261599991,-110.871487362,391,"5711 E FT LOWELL RD, TUCSON, AZ, 85712","Match","Exact","5711 E FORT LOWELL RD, TUCSON, AZ, 85712",121406859,"L"
248392,"5711 EVENING SHADOWS LN","SPRING","TX",77373,30.047143863,-95.340645083,392,"5711 EVENING SHADOWS LN, SPRING, TX, 77373","Match","Exact","5711 EVENING SHADOWS LN, SPRING, TX, 77373",96043121,"L"
248393,"5711 GREENDALE RD","RICHMOND","VA",23228,37.605947997,-77.489865244,393,"5711 GREENDALE RD, RICHMOND, VA, 23228","Match","Exact","5711 GREENDALE RD, RICHMOND, VA, 23228",106647643,"R"
248394,"5711 KATHRYN LANE","MATTESON","IL",60443,41.520268806,-87.7552992,394,"5711 KATHRYN LANE, MATTESON, IL, 60443","Match","Exact","5711 KATHRYN LN, MATTESON, IL, 60443",112388057,"R"
248395,"5711 MEDINAH DR","NEWBURGH","IN",47630,37.998788555,-87.352474026,395,"5711 MEDINAH DR, NEWBURGH, IN, 47630","Match","Exact","5711 MEDINAH DR, NEWBURGH, IN, 47630",647809866,"R"
248396,"5711 MOBJACK ROAD","GLOUCESTER","VA",23061,37.3588827940001,-76.4397151109999,396,"5711 MOBJACK ROAD, GLOUCESTER, VA, 23061","Match","Exact","5711 MOBJACK RD, GLOUCESTER, VA, 23061",168213772,"R"
248397,"5711 MOBUD STREET","SAN ANTONIO","TX",78238,29.4838024420001,-98.5993855419999,397,"5711 MOBUD STREET, SAN ANTONIO, TX, 78238","Match","Exact","5711 MOBUD ST, SAN ANTONIO, TX, 78238",101508949,"R"
248398,"5711 MOUNT HOLLY ROAD","EAST NEW MARKET","MD",21631,38.5792955810001,-75.969744728,398,"5711 MOUNT HOLLY ROAD, EAST NEW MARKET, MD, 21631","Match","Exact","5711 MOUNT HOLLY RD, EAST NEW MARKET, MD, 21631",99665680,"R"
248399,"5711 N PASEO NIQUEL","TUCSON","AZ",85718,32.310333035,-110.952147441,399,"5711 N PASEO NIQUEL, TUCSON, AZ, 85718","Match","Non_Exact","5711 N PSO NIQUEL, TUCSON, AZ, 85718",121167615,"L"
248400,"5711 PINETREE SE","KENTWOOD","MI",49508,42.859847749,-85.618262567,400,"5711 PINETREE SE, KENTWOOD, MI, 49508","Match","Non_Exact","5711 PINETREE AVE SE, KENTWOOD, MI, 49508",12465726,"R"
248401,"5711 S 100 W","PONETO","IN",46781,40.659236336,-85.240551893,401,"5711 S 100 W, PONETO, IN, 46781","Match","Exact","5711 S 100 W, PONETO, IN, 46781",6617484,"R"
248402,"5711 S ST ANDREWS PL","LOS ANGELES","CA",90062,33.990658092,-118.311348539,402,"5711 S ST ANDREWS PL, LOS ANGELES, CA, 90062","Match","Exact","5711 S ST ANDREWS PL, LOS ANGELES, CA, 90062",141657927,"R"
248403,"5711 SACRAMENTO AVENUE","DUNSMUIR","CA",96025,41.2121051180001,-122.270485773,403,"5711 SACRAMENTO AVENUE, DUNSMUIR, CA, 96025","Match","Exact","5711 SACRAMENTO AVE, DUNSMUIR, CA, 96025",113243591,"L"
248404,"5711 SHARP MILLS RUN","CANAL WINCHESTER","OH",43110,39.8640485450001,-82.813976924,404,"5711 SHARP MILLS RUN, CANAL WINCHESTER, OH, 43110","Match","Exact","5711 SHARP MILLS RUN, CANAL WINCHESTER, OH, 43110",218554034,"L"
248405,"5711 SHULL ROAD","HUBER HEIGHTS","OH",45424,39.877254549,-84.1328621219999,405,"5711 SHULL ROAD, HUBER HEIGHTS, OH, 45424","Match","Exact","5711 SHULL RD, HUBER HEIGHTS, OH, 45424",143616069,"L"
248406,"5711 SW 20TH STREET","WEST PARK","FL",33023,25.992467393,-80.201108017,406,"5711 SW 20TH STREET, WEST PARK, FL, 33023","Match","Non_Exact","5711 SW 20TH ST, WEST PARK, FL, 33023",114735048,"R"
248407,"5711 W TROPICANA AVENUE APT 213","LAS VEGAS","NV",89103,36.10021576,-115.219168404,407,"5711 W TROPICANA AVENUE APT 213, LAS VEGAS, NV, 89103","Match","Non_Exact","5711 W TROPICANA AVE, LAS VEGAS, NV, 89103",632505900,"L"
248408,"5712 15TH AVE","BROOKLYN","NY",11219,40.6277862060001,-73.992488904,408,"5712 15TH AVE, BROOKLYN, NY, 11219","Match","Exact","5712 15TH AVE, BROOKLYN, NY, 11219",59080267,"R"
248409,"5712 BIRCH RUN CT","PERRY","MI",48872,42.814903627,-84.2721143479999,409,"5712 BIRCH RUN CT, PERRY, MI, 48872","Match","Exact","5712 BIRCH RUN CT, PERRY, MI, 48872",23651701,"L"
248410,"5712 BUNN SIMPSON ROAD","MARSHVILLE","NC",28103,35.0972595810001,-80.347145083,410,"5712 BUNN SIMPSON ROAD, MARSHVILLE, NC, 28103","Match","Exact","5712 BUNN SIMPSON RD, MARSHVILLE, NC, 28103",649737301,"R"
248411,"5712 CAMELLIA AVE APT 105","NORTH HOLLYWOOD","CA",91601,34.1743775470001,-118.382227013,411,"5712 CAMELLIA AVE APT 105, NORTH HOLLYWOOD, CA, 91601","Match","Exact","5712 CAMELLIA AVE, N HOLLYWOOD, CA, 91601",141564829,"R"
248412,"5712 CAPESWOOD DR","RANCHO PALOS VERDES","CA",90275,33.791177281,-118.379049475,412,"5712 CAPESWOOD DR, RANCHO PALOS VERDES, CA, 90275","Match","Exact","5712 CAPESWOOD DR, RANCHO PALOS VERDES, CA, 90275",141585405,"L"
248413,"5712 CRUTCHFIELD ROAD","RALEIGH","NC",27606,35.705879171,-78.7200360319999,413,"5712 CRUTCHFIELD ROAD, RALEIGH, NC, 27606","Match","Exact","5712 CRUTCHFIELD RD, RALEIGH, NC, 27606",208364015,"L"
248414,"5712 DARBY RUSSELL RD","MURPHYS","CA",95247,38.174982544,-120.373855487,414,"5712 DARBY RUSSELL RD, MURPHYS, CA, 95247","Match","Exact","5712 DARBY RUSSELL RD, MURPHYS, CA, 95247",635231229,"R"
248415,"5712 EAST CT","BARTLESVILLE","OK",74006,36.723159842,-95.913797135,415,"5712 EAST CT, BARTLESVILLE, OK, 74006","Match","Exact","5712 EAST CT, BARTLESVILLE, OK, 74006",18709227,"L"
248416,"5712 FLATLANDS AVENUE 1ST FL","BROOKLYN","NY",11234,40.6304267520001,-73.9211312959999,416,"5712 FLATLANDS AVENUE 1ST FL, BROOKLYN, NY, 11234","Match","Exact","5712 FLATLANDS AVE, BROOKLYN, NY, 11234",59086129,"R"
248417,"5712 HILL ROAD","BERLIN HEIGHTS","OH",44814,41.3157996800001,-82.516869604,417,"5712 HILL ROAD, BERLIN HEIGHTS, OH, 44814","Match","Exact","5712 HILL RD, BERLIN HEIGHTS, OH, 44814",55329149,"L"
248418,"5712 ICARUS COURT","FAYETTEVILLE","NC",28304,35.0227678890001,-78.976691715,418,"5712 ICARUS COURT, FAYETTEVILLE, NC, 28304","Match","Non_Exact","5712 ICARUS CIR, FAYETTEVILLE, NC, 28304",64225492,"R"
248419,"5712 JUNE AVE N","BROOKLYN CENTER","MN",55429,45.0584899990001,-93.3338920799999,419,"5712 JUNE AVE N, BROOKLYN CENTER, MN, 55429","Match","Exact","5712 JUNE AVE N, BROOKLYN CENTER, MN, 55429",43855728,"R"
248420,"5712 PIPER","LANSING","MI",48911,42.6755026770001,-84.5826267859999,420,"5712 PIPER, LANSING, MI, 48911","Match","Non_Exact","5712 PIPER AVE, LANSING, MI, 48911",17497083,"L"
248421,"5712 PLEASANT WOODS DR","FLOWERY BRANCH","GA",30542,34.139107101,-83.869569822,421,"5712 PLEASANT WOODS DR, FLOWERY BRANCH, GA, 30542","Match","Exact","5712 PLEASANT WOODS DR, FLOWERY BR, GA, 30542",619271238,"L"
248422,"5712 SOUTHERN HILLS DRIVE","NORTH RICHLAND HILLS","TX",76180,32.851049254,-97.2489872529999,422,"5712 SOUTHERN HILLS DRIVE, NORTH RICHLAND HILLS, TX, 76180","Match","Exact","5712 SOUTHERN HILLS DR, NORTH RICHLAND HILLS, TX, 76180",637607020,"R"
248423,"5712 WARREN AVE","EAST ST. LOUIS","IL",62204,38.628176963,-90.090310394,423,"5712 WARREN AVE, EAST ST. LOUIS, IL, 62204","Match","Exact","5712 WARREN AVE, E SAINT LOUIS, IL, 62204",107835068,"R"
248424,"57124 COUNTY ROAD","NORTHOME","MN",56661,NA,NA,424,"57124 COUNTY ROAD, NORTHOME, MN, 56661","No_Match",NA,NA,NA,NA
248425,"5713 10TH AVE S","BIRMINGHAM","AL",35222,33.529246304,-86.742067812,425,"5713 10TH AVE S, BIRMINGHAM, AL, 35222","Match","Exact","5713 10TH AVE S, BIRMINGHAM, AL, 35222",632494445,"R"
248426,"5713 AVERY PARK DR","ROCKVILLE","MD",20855,39.124391723,-77.116588344,426,"5713 AVERY PARK DR, ROCKVILLE, MD, 20855","Match","Exact","5713 AVERY PARK DR, ROCKVILLE, MD, 20855",62093356,"R"
248427,"5713 CALLOWHILL STREET APT 3","PITTSBURGH","PA",15206,40.477852652,-79.92061354,427,"5713 CALLOWHILL STREET APT 3, PITTSBURGH, PA, 15206","Match","Exact","5713 CALLOWHILL ST, PITTSBURGH, PA, 15206",51645990,"L"
248428,"5713 E HOMECOMING CIR UNIT D","EASTVALE","CA",91752,NA,NA,428,"5713 E HOMECOMING CIR UNIT D, EASTVALE, CA, 91752","Tie",NA,NA,NA,NA
248429,"5713 GULF DRIVE","NEW PORT RICHEY","FL",34652,28.2389081910001,-82.720326154,429,"5713 GULF DRIVE, NEW PORT RICHEY, FL, 34652","Match","Exact","5713 GULF DR, NEW PORT RICHEY, FL, 34652",86379275,"R"
248430,"5713 JOHNSON ST","BALTIMORE","MD",21225,39.2171516390001,-76.6128767829999,430,"5713 JOHNSON ST, BALTIMORE, MD, 21225","Match","Exact","5713 JOHNSON ST, BALTIMORE, MD, 21225",606918693,"L"
248431,"5713 LEGACY CRESCENT PL UNIT 304","RIVERVIEW","FL",33578,27.8941725990001,-82.3428415549999,431,"5713 LEGACY CRESCENT PL UNIT 304, RIVERVIEW, FL, 33578","Match","Exact","5713 LEGACY CRESCENT PL, RIVERVIEW, FL, 33578",104652929,"R"
248432,"5713 NW 113TH STREET","OKLAHOMA CITY","OK",73162,35.585292306,-97.6188360639999,432,"5713 NW 113TH STREET, OKLAHOMA CITY, OK, 73162","Match","Exact","5713 NW 113TH ST, OKLAHOMA CITY, OK, 73162",100387520,"R"
248433,"5713 SECREST CT","GOLDEN","CO",80403,39.7993207110001,-105.188312798,433,"5713 SECREST CT, GOLDEN, CO, 80403","Match","Exact","5713 SECREST CT, GOLDEN, CO, 80403",177750502,"R"
248434,"5713 W CREEDY RD","BELOIT","WI",53511,42.562439721,-89.1176512599999,434,"5713 W CREEDY RD, BELOIT, WI, 53511","Match","Exact","5713 W CREEDY RD, BELOIT, WI, 53511",49855807,"R"
248435,"5714  A MOORE ST","BROOKLYN","MD",21225,39.2175473250001,-76.608419215,435,"5714  A MOORE ST, BROOKLYN, MD, 21225","Match","Exact","5714 MOORE ST, BROOKLYN, MD, 21225",606909179,"R"
248436,"5714 134TH PL SE SUITE A18 PMB 9","EVERETT","WA",98208,NA,NA,436,"5714 134TH PL SE SUITE A18 PMB 9, EVERETT, WA, 98208","No_Match",NA,NA,NA,NA
248437,"5714 29TH STREET NE","TACOMA","WA",98422,47.2826832640001,-122.371029434,437,"5714 29TH STREET NE, TACOMA, WA, 98422","Match","Exact","5714 29TH ST NE, TACOMA, WA, 98422",184647551,"R"
248438,"5714 ASHLEY SPRING CT","KATY","TX",77494,29.7111117330001,-95.7642838639999,438,"5714 ASHLEY SPRING CT, KATY, TX, 77494","Match","Exact","5714 ASHLEY SPRING CT, KATY, TX, 77494",78326780,"L"
248439,"5714 BITTERSWEET PL","MADISON","WI",53705,43.0737429860001,-89.479860388,439,"5714 BITTERSWEET PL, MADISON, WI, 53705","Match","Exact","5714 BITTERSWEET PL, MADISON, WI, 53705",49466895,"R"
248440,"5714 BYRON COURT","ROCKLIN","CA",95765,38.809003977,-121.266313431,440,"5714 BYRON COURT, ROCKLIN, CA, 95765","Match","Exact","5714 BYRON CT, ROCKLIN, CA, 95765",106793853,"L"
248441,"5714 CEDAR SPRINGS DRIVE","SAN ANTONIO","TX",78244,29.4702002070001,-98.3762219289999,441,"5714 CEDAR SPRINGS DRIVE, SAN ANTONIO, TX, 78244","Match","Exact","5714 CEDAR SPRINGS, SAN ANTONIO, TX, 78244",101536605,"R"
248442,"5714 CHIMNEY ROCK RD","HOUSTON","TX",77081,29.719964206,-95.4764530479999,442,"5714 CHIMNEY ROCK RD, HOUSTON, TX, 77081","Match","Exact","5714 CHIMNEY ROCK RD, HOUSTON, TX, 77081",96614972,"R"
248443,"5714 CIMARRON","LOS ANGELES","CA",90062,33.9905750510001,-118.316022635,443,"5714 CIMARRON, LOS ANGELES, CA, 90062","Match","Non_Exact","5714 CIMARRON ST, LOS ANGELES, CA, 90062",141657902,"L"
248444,"5714 CUCULLU ST","NEW ORLEANS","LA",70115,29.940174255,-90.1123451029999,444,"5714 CUCULLU ST, NEW ORLEANS, LA, 70115","Match","Exact","5714 CUCULLU ST, NEW ORLEANS, LA, 70115",191702079,"L"
248445,"5714 EVERGREEN KNOLL CT","ALEXANDRIA","VA",22303,38.796718216,-77.1014440769999,445,"5714 EVERGREEN KNOLL CT, ALEXANDRIA, VA, 22303","Match","Exact","5714 EVERGREEN KNOLL CT, ALEXANDRIA, VA, 22303",76001947,"L"
248446,"5714 FEARNLEY RD","LAKE WORTH","FL",33467,26.5928294140001,-80.1586412899999,446,"5714 FEARNLEY RD, LAKE WORTH, FL, 33467","Match","Exact","5714 FEARNLEY RD, LAKE WORTH, FL, 33467",115510791,"L"
248447,"5714 GENTRY COURT","LONG GROVE","IL",60407,42.2015598510001,-87.981777849,447,"5714 GENTRY COURT, LONG GROVE, IL, 60407","Match","Non_Exact","5714 GENTRY CT, LONG GROVE, IL, 60047",119665767,"R"
248448,"5714 HYDE PARK AVE","KALAMAZOO","MI",49009,42.2141709970001,-85.661802689,448,"5714 HYDE PARK AVE, KALAMAZOO, MI, 49009","Match","Exact","5714 HYDE PARK AVE, KALAMAZOO, MI, 49009",648961660,"R"
248449,"5714 MEAD DRIVE","INDIANAPOLIS","IN",46220,39.857258621,-86.109378777,449,"5714 MEAD DRIVE, INDIANAPOLIS, IN, 46220","Match","Exact","5714 MEAD DR, INDIANAPOLIS, IN, 46220",108054753,"L"
248450,"5714 N RIVER FOREST DR","GLENDALE","WI",53209,43.121134355,-87.9195312969999,450,"5714 N RIVER FOREST DR, GLENDALE, WI, 53209","Match","Exact","5714 N RIVER FOREST DR, GLENDALE, WI, 53209",77736350,"R"
248451,"5714 NW 19TH STREET","LAUDERHILL","FL",33313,26.1502432450001,-80.2257281409999,451,"5714 NW 19TH STREET, LAUDERHILL, FL, 33313","Match","Exact","5714 NW 19TH ST, LAUDERHILL, FL, 33313",114707720,"L"
248452,"5714 OLD CARRIAGE DRIVE","COLLEGE PARK","GA",30349,33.599192293,-84.479684242,452,"5714 OLD CARRIAGE DRIVE, COLLEGE PARK, GA, 30349","Match","Exact","5714 OLD CARRIAGE DR, COLLEGE PARK, GA, 30349",628091293,"R"
248453,"5714 OUTHWAITE AVE 1","CLEVELAND","OH",44104,41.4898387480001,-81.6498289469999,453,"5714 OUTHWAITE AVE 1, CLEVELAND, OH, 44104","Match","Exact","5714 OUTHWAITE AVE, CLEVELAND, OH, 44104",61113529,"R"
248454,"5714 S GRANT ST","HINSDALE","IL",60521,41.7852412300001,-87.931374652,454,"5714 S GRANT ST, HINSDALE, IL, 60521","Match","Exact","5714 S GRANT ST, HINSDALE, IL, 60521",112588175,"R"
248455,"5714 SOUTH 161ST STREET","OMAHA","NE",68135,41.1999510300001,-96.165672205,455,"5714 SOUTH 161ST STREET, OMAHA, NE, 68135","Match","Exact","5714 S 161ST ST, OMAHA, NE, 68135",117018946,"R"
248456,"5714 SPICEWOOD","HARLINGEN","TX",78552,26.1915054420001,-97.752430126,456,"5714 SPICEWOOD, HARLINGEN, TX, 78552","Match","Exact","5714 SPICEWOOD, HARLINGEN, TX, 78552",624803994,"L"
248457,"5714 VAN LANEN ROAD","NEW FRANKEN","WI",54229,44.5671617250001,-87.797983599,457,"5714 VAN LANEN ROAD, NEW FRANKEN, WI, 54229","Match","Non_Exact","5714 VAN LAANEN RD, NEW FRANKEN, WI, 54229",148091188,"L"
248458,"5714 W BELLFORT","HOUSTON","TX",77035,29.6572633800001,-95.487531291,458,"5714 W BELLFORT, HOUSTON, TX, 77035","Match","Non_Exact","5714 W BELLFORT ST, HOUSTON, TX, 77035",96038334,"R"
248459,"571492","WINNETKA","CA",91357,NA,NA,459,"571492, WINNETKA, CA, 91357","No_Match",NA,NA,NA,NA
248460,"5715 BALTIMORE DR UNIT 28","LA MESA","CA",91942,32.783089728,-117.033299106,460,"5715 BALTIMORE DR UNIT 28, LA MESA, CA, 91942","Match","Exact","5715 BALTIMORE DR, LA MESA, CA, 91942",195717715,"R"
248461,"5715 BROADWAY SUITE 2","SAN ANTONIO","TX",78209,29.479797697,-98.4646582669999,461,"5715 BROADWAY SUITE 2, SAN ANTONIO, TX, 78209","Match","Exact","5715 BROADWAY, SAN ANTONIO, TX, 78209",101524537,"L"
248462,"5715 BUFORD HWY NE STE 105 UNIT 22","ATLANTA","GA",30340,33.9073912750001,-84.26866797,462,"5715 BUFORD HWY NE STE 105 UNIT 22, ATLANTA, GA, 30340","Match","Exact","5715 BUFORD HWY NE, ATLANTA, GA, 30340",23360760,"R"
248463,"5715 CASTLE AVE","DUNSMUIR","CA",96025,41.212171375,-122.273038653,463,"5715 CASTLE AVE, DUNSMUIR, CA, 96025","Match","Exact","5715 CASTLE AVE, DUNSMUIR, CA, 96025",113249459,"L"
248464,"5715 CORSA AVENUE SUITE 110","WESTLAKE VILLAGE","CA",91362,34.1570921090001,-118.799344416,464,"5715 CORSA AVENUE SUITE 110, WESTLAKE VILLAGE, CA, 91362","Match","Exact","5715 CORSA AVE, WESTLAKE VILLAGE, CA, 91362",141719127,"R"
248465,"5715 E BRAMBLEGATE RD","GREENSBORO","NC",27409,36.057897639,-79.91716396,465,"5715 E BRAMBLEGATE RD, GREENSBORO, NC, 27409","Match","Exact","5715 BRAMBLEGATE RD, GREENSBORO, NC, 27409",650119017,"R"
248466,"5715 E CO RD 325 N","SULLIVAN","IN",47882,39.1317599450001,-87.307162448,466,"5715 E CO RD 325 N, SULLIVAN, IN, 47882","Match","Exact","5715 E CO RD 325 N, SULLIVAN, IN, 47882",27072852,"L"
248467,"5715 JAMERSON DRIVE","ATLANTA","GA",30349,33.6380039090001,-84.570790296,467,"5715 JAMERSON DRIVE, ATLANTA, GA, 30349","Match","Exact","5715 JAMERSON DR, ATLANTA, GA, 30349",628098878,"L"
248468,"5715 LONG ARBOR LANE","KATY","TX",77449,29.8537443720001,-95.700351401,468,"5715 LONG ARBOR LANE, KATY, TX, 77449","Match","Exact","5715 LONG ARBOR LN, KATY, TX, 77449",642129795,"R"
248469,"5715 MARY DELL DR","AMARILLO","TX",79109,35.1528162500001,-101.916569703,469,"5715 MARY DELL DR, AMARILLO, TX, 79109","Match","Exact","5715 MARY DELL DR, AMARILLO, TX, 79109",600389511,"R"
248470,"5715 MATLOCK RD","GRANBURY","TX",76049,32.417851565,-97.665099712,470,"5715 MATLOCK RD, GRANBURY, TX, 76049","Match","Exact","5715 MATLOCK RD, GRANBURY, TX, 76049",158810175,"R"
248471,"5715 N AFTON PKWY","BATON ROUGE","LA",70806,30.459974737,-91.13130563,471,"5715 N AFTON PKWY, BATON ROUGE, LA, 70806","Match","Exact","5715 N AFTON PKWY, BATON ROUGE, LA, 70806",92189078,"L"
248472,"5715 N ORANGE AVE","CHICAGO","IL",60631,NA,NA,472,"5715 N ORANGE AVE, CHICAGO, IL, 60631","Tie",NA,NA,NA,NA
248473,"5715 NORTH COMMERCE COURT","ALPHARETTA","GA",30004,NA,NA,473,"5715 NORTH COMMERCE COURT, ALPHARETTA, GA, 30004","No_Match",NA,NA,NA,NA
248474,"5715 NORTHWEST  2ND AVE APT 606","MIAMI","FL",33127,NA,NA,474,"5715 NORTHWEST  2ND AVE APT 606, MIAMI, FL, 33127","No_Match",NA,NA,NA,NA
248475,"5715 SATEL DRIVE","ORLANDO","FL",32810,28.614604451,-81.408765112,475,"5715 SATEL DRIVE, ORLANDO, FL, 32810","Match","Exact","5715 SATEL DR, ORLANDO, FL, 32810",94270647,"R"
248476,"5715 SOUTH RIMPAU BLVD","LOS ANGELES","CA",90043,33.9905421120001,-118.339865751,476,"5715 SOUTH RIMPAU BLVD, LOS ANGELES, CA, 90043","Match","Exact","5715 S RIMPAU BLVD, LOS ANGELES, CA, 90043",142750313,"R"
248477,"5715 W ROBB LANE","GLENDALE","AZ",85310,33.7065211230001,-112.183323023,477,"5715 W ROBB LANE, GLENDALE, AZ, 85310","Match","Exact","5715 W ROBB LN, GLENDALE, AZ, 85310",244018183,"R"
248478,"5715 WALTON AVE","PHILADELPHIA","PA",19143,39.950757298,-75.237443951,478,"5715 WALTON AVE, PHILADELPHIA, PA, 19143","Match","Exact","5715 WALTON AVE, PHILADELPHIA, PA, 19143",131397835,"R"
248479,"5715 WATERS RD","LITTLE ROCK","AR",72206,34.6229611840001,-92.222381254,479,"5715 WATERS RD, LITTLE ROCK, AR, 72206","Match","Exact","5715 WATERS RD, LITTLE ROCK, AR, 72206",83525450,"L"
248480,"5715 WILLOWTON AVENUE","BALTIMORE","MD",21239,39.3570968860001,-76.578258969,480,"5715 WILLOWTON AVENUE, BALTIMORE, MD, 21239","Match","Exact","5715 WILLOWTON AVE, BALTIMORE, MD, 21239",206465483,"R"
248481,"5715 WOODLAND AVENUE","CLEVELAND","OH",44104,41.4880196730001,-81.650310523,481,"5715 WOODLAND AVENUE, CLEVELAND, OH, 44104","Match","Exact","5715 WOODLAND AVE, CLEVELAND, OH, 44104",61113535,"L"
248482,"5716  WILLOWTON AVE","BALTIMORE","MD",21239,39.3572361980001,-76.5781828629999,482,"5716  WILLOWTON AVE, BALTIMORE, MD, 21239","Match","Exact","5716 WILLOWTON AVE, BALTIMORE, MD, 21239",206465483,"L"
248483,"5716 154TH PL SW","EDMONDS","WA",98026,47.8585966110001,-122.310281587,483,"5716 154TH PL SW, EDMONDS, WA, 98026","Match","Exact","5716 154TH PL SW, EDMONDS, WA, 98026",187753394,"R"
248484,"5716 ALLENSTOWN DR","CHARLOTTE","NC",28215,35.2514439610001,-80.755931854,484,"5716 ALLENSTOWN DR, CHARLOTTE, NC, 28215","Match","Exact","5716 ALLENSTOWN DR, CHARLOTTE, NC, 28215",70481673,"R"
248485,"5716 ARLENE STREET","METAIRIE","LA",70003,30.0026017610001,-90.2026027699999,485,"5716 ARLENE STREET, METAIRIE, LA, 70003","Match","Exact","5716 ARLENE ST, METAIRIE, LA, 70003",93498970,"L"
248486,"5716 CORSA AVE  SUITE 110","WESTLAKE","CA",91362,34.1570678050001,-118.799333475,486,"5716 CORSA AVE  SUITE 110, WESTLAKE, CA, 91362","Match","Non_Exact","5716 CORSA AVE, WESTLAKE VILLAGE, CA, 91362",141719127,"L"
248487,"5716 CORSA AVE 202","WESTLAKE VILLAGE","CA",91362,34.1570678050001,-118.799333475,487,"5716 CORSA AVE 202, WESTLAKE VILLAGE, CA, 91362","Match","Exact","5716 CORSA AVE, WESTLAKE VILLAGE, CA, 91362",141719127,"L"
248488,"5716 CORSA AVE SUITE 110","WESTLAKE VILLAGE","CA",91362,34.1570678050001,-118.799333475,488,"5716 CORSA AVE SUITE 110, WESTLAKE VILLAGE, CA, 91362","Match","Exact","5716 CORSA AVE, WESTLAKE VILLAGE, CA, 91362",141719127,"L"
248489,"5716 COSA AVE STE 110","WESTLAKE VILLAGE","CA",91362,NA,NA,489,"5716 COSA AVE STE 110, WESTLAKE VILLAGE, CA, 91362","No_Match",NA,NA,NA,NA
248490,"5716 DEBBIE LANE","WEST BEND","WI",53095,43.399134513,-88.2768614299999,490,"5716 DEBBIE LANE, WEST BEND, WI, 53095","Match","Exact","5716 DEBBIE LN, WEST BEND, WI, 53095",79556770,"R"
248491,"5716 FARRAGUT RD  APT 1A","BROOKLYN","NY",11234,40.636168621,-73.921712037,491,"5716 FARRAGUT RD  APT 1A, BROOKLYN, NY, 11234","Match","Exact","5716 FARRAGUT RD, BROOKLYN, NY, 11234",651797258,"R"
248492,"5716 FOLSOM BLVD STE 219","SACRAMENTO","CA",95819,38.557997652,-121.437001581,492,"5716 FOLSOM BLVD STE 219, SACRAMENTO, CA, 95819","Match","Exact","5716 FOLSOM BLVD, SACRAMENTO, CA, 95819",133335073,"R"
248493,"5716 FOLSOM BLVD SUITE 301","SACRAMENTO","CA",95819,38.557997652,-121.437001581,493,"5716 FOLSOM BLVD SUITE 301, SACRAMENTO, CA, 95819","Match","Exact","5716 FOLSOM BLVD, SACRAMENTO, CA, 95819",133335073,"R"
248494,"5716 FOLSOM BLVD UNIT 279","SACRAMENTO","CA",95819,38.557997652,-121.437001581,494,"5716 FOLSOM BLVD UNIT 279, SACRAMENTO, CA, 95819","Match","Exact","5716 FOLSOM BLVD, SACRAMENTO, CA, 95819",133335073,"R"
248495,"5716 HIGHWAY 58","HARRISON","TN",37341,35.1104947260001,-85.139998958,495,"5716 HIGHWAY 58, HARRISON, TN, 37341","Match","Non_Exact","5716 STATE RTE 58, HARRISON, TN, 37341",59317566,"R"
248496,"5716 MEADOW BREEZE LN","ROSHARON","TX",77583,29.498955021,-95.4349382079999,496,"5716 MEADOW BREEZE LN, ROSHARON, TX, 77583","Match","Exact","5716 MEADOW BREEZE LN, ROSHARON, TX, 77583",627306210,"R"
248497,"5716 NE MISTY MEADOW WAY","LEES SUMMIT","MO",64064,39.015693953,-94.370831379,497,"5716 NE MISTY MEADOW WAY, LEES SUMMIT, MO, 64064","Match","Exact","5716 NE MISTY MEADOW WAY, LEES SUMMIT, MO, 64064",91519965,"R"
248498,"5716 NW 135TH ST","OKLAHOMA CITY","OK",73142,35.608004174,-97.615606785,498,"5716 NW 135TH ST, OKLAHOMA CITY, OK, 73142","Match","Exact","5716 NW 135TH ST, OKLAHOMA CITY, OK, 73142",625000377,"L"
248499,"5716 PEPPERTREE PL NE","ALBUQUERQUE","NM",87111,35.1460271620001,-106.50459257,499,"5716 PEPPERTREE PL NE, ALBUQUERQUE, NM, 87111","Match","Exact","5716 PEPPERTREE PL NE, ALBUQUERQUE, NM, 87111",648072976,"L"
248500,"5716 SOUTH BAYBERRY LANE","TAMARAC","FL",33319,26.1876919260001,-80.2270889069999,500,"5716 SOUTH BAYBERRY LANE, TAMARAC, FL, 33319","Match","Exact","5716 S BAYBERRY LN, TAMARAC, FL, 33319",114705825,"L"
