"ID","Address","City","State","Zip","lat","long","id","input_address","match_indicator","match_type","matched_address","tiger_line_id","tiger_side"
114501,"211 SANTA MONICA","HOUMA","LA",70363,29.5353737990001,-90.669232229,1,"211 SANTA MONICA, HOUMA, LA, 70363","Match","Non_Exact","211 SANTA MONICA DR, HOUMA, LA, 70363",92063271,"R"
114502,"211 SAWTOOTH COURT","CANTON","GA",30114,34.1654975660001,-84.520303617,2,"211 SAWTOOTH COURT, CANTON, GA, 30114","Match","Exact","211 SAWTOOTH CT, CANTON, GA, 30114",617658587,"L"
114503,"211 SCHOOL STREET PO BOX 107","EVERTON","MO",65646,37.346073672,-93.704884864,3,"211 SCHOOL STREET PO BOX 107, EVERTON, MO, 65646","Match","Non_Exact","211 W SCHOOL ST, EVERTON, MO, 65646",76637048,"R"
114504,"211 SE MADISON STREET - STE 6","PORTLAND","OR",97214,45.5129934930001,-122.663649467,4,"211 SE MADISON STREET - STE 6, PORTLAND, OR, 97214","Match","Non_Exact","211 SE MADISON ST, PORTLAND, OR, 97214",653423924,"L"
114505,"211 SERVICE STREET","MOUNTAIN VIEW","AR",72560,35.8665173430001,-92.114435559,5,"211 SERVICE STREET, MOUNTAIN VIEW, AR, 72560","Match","Exact","211 SERVICE ST, MOUNTAIN VIEW, AR, 72560",2236915,"L"
114506,"211 SHADOWRIDGE LANE","DUNCAN","AZ",85534,32.7875110210001,-109.160761433,6,"211 SHADOWRIDGE LANE, DUNCAN, AZ, 85534","Match","Exact","211 SHADOWRIDGE LN, DUNCAN, AZ, 85534",137400787,"R"
114507,"211 SHARROW VALE RD","DELRAN","NJ",8075,40.0024989620001,-74.9601375789999,7,"211 SHARROW VALE RD, DELRAN, NJ, 8075","Match","Exact","211 SHARROW VALE RD, DELRAN, NJ, 08075",134026642,"R"
114508,"211 SHAWNEE TRAIL","SHAKOPEE","MN",55379,44.7993414680001,-93.506361349,8,"211 SHAWNEE TRAIL, SHAKOPEE, MN, 55379","Match","Exact","211 SHAWNEE TRL, SHAKOPEE, MN, 55379",635633050,"R"
114509,"211 SHEFFIELD LANE","FILLMORE","CA",93015,34.395490341,-118.925190496,9,"211 SHEFFIELD LANE, FILLMORE, CA, 93015","Match","Exact","211 SHEFFIELD LN, FILLMORE, CA, 93015",631776955,"R"
114510,"211 SHERRY LYNN PLACE","HARVEST","AL",35749,34.792702924,-86.754494915,10,"211 SHERRY LYNN PLACE, HARVEST, AL, 35749","Match","Non_Exact","211 SHERRYLYNN PL, HARVEST, AL, 35749",58135970,"L"
114511,"211 SILVER SPRUCE CT","GREENBUSH","MN",56726,48.7008475590001,-96.190544616,11,"211 SILVER SPRUCE CT, GREENBUSH, MN, 56726","Match","Exact","211 SILVER SPRUCE CT, GREENBUSH, MN, 56726",611934446,"R"
114512,"211 SLATER AVE","GRISWOLD","CT",6351,41.5982228330001,-71.979299897,12,"211 SLATER AVE, GRISWOLD, CT, 6351","Match","Exact","211 SLATER AVE, GRISWOLD, CT, 06351",56834980,"L"
114513,"211 SNOWBERRY CIRCLE","VENETIA","PA",15367,40.2961930650001,-80.0850297389999,13,"211 SNOWBERRY CIRCLE, VENETIA, PA, 15367","Match","Exact","211 SNOWBERRY CIR, VENETIA, PA, 15367",645488431,"R"
114514,"211 SOUTH CHRISTY AVE","SUMNER","IL",62466,38.7146719730001,-87.8613949479999,14,"211 SOUTH CHRISTY AVE, SUMNER, IL, 62466","Match","Exact","211 S CHRISTY AVE, SUMNER, IL, 62466",29667548,"L"
114515,"211 SOUTH DILL STREET","MUNCIE","IN",47303,40.192870213,-85.404590116,15,"211 SOUTH DILL STREET, MUNCIE, IN, 47303","Match","Exact","211 S DILL ST, MUNCIE, IN, 47303",30848165,"R"
114516,"211 SOUTH GILBERT ST UNIT A","FULLERTON","CA",92833,33.868033322,-117.968127233,16,"211 SOUTH GILBERT ST UNIT A, FULLERTON, CA, 92833","Match","Exact","211 S GILBERT ST, FULLERTON, CA, 92833",144010655,"R"
114517,"211 SOUTH HIGH STREET","MT ORAB","OH",45154,39.029874029,-83.9192925789999,17,"211 SOUTH HIGH STREET, MT ORAB, OH, 45154","Match","Non_Exact","211 N HIGH ST, MOUNT ORAB, OH, 45154",100974774,"L"
114518,"211 SOUTH OWENS STREET","CALIFORNIA","MO",65018,NA,NA,18,"211 SOUTH OWENS STREET, CALIFORNIA, MO, 65018","No_Match",NA,NA,NA,NA
114519,"211 SOUTH RAIL STREET WEST","SHOSHONE","ID",83352,42.936033079,-114.408490524,19,"211 SOUTH RAIL STREET WEST, SHOSHONE, ID, 83352","Match","Exact","211 S RAIL ST W, SHOSHONE, ID, 83352",105693616,"L"
114520,"211 SOUTH RIVER RIDGE CIRCLE    106","BURNSVILLE","MN",55337,NA,NA,20,"211 SOUTH RIVER RIDGE CIRCLE    106, BURNSVILLE, MN, 55337","No_Match",NA,NA,NA,NA
114521,"211 SOUTH UNION SUITE H","SPRINGFIELD","MO",65802,37.2079414130001,-93.2333947989999,21,"211 SOUTH UNION SUITE H, SPRINGFIELD, MO, 65802","Match","Non_Exact","211 S UNION AVE, SPRINGFIELD, MO, 65802",76707221,"R"
114522,"211 SOUTH WILLIAMS STREET","ROYAL OAK","MI",48067,42.4878133620001,-83.143003146,22,"211 SOUTH WILLIAMS STREET, ROYAL OAK, MI, 48067","Match","Non_Exact","211 WILLIAMS ST, ROYAL OAK, MI, 48067",69745746,"L"
114523,"211 SOUTHAMPTON DRIVE","SILVER SPRING","MD",20903,39.003773595,-76.982333099,23,"211 SOUTHAMPTON DRIVE, SILVER SPRING, MD, 20903","Match","Exact","211 SOUTHAMPTON DR, SILVER SPRING, MD, 20903",629551368,"R"
114524,"211 SPRING LANE","ROCKPORT","TX",78382,27.97650673,-97.101891786,24,"211 SPRING LANE, ROCKPORT, TX, 78382","Match","Exact","211 SPRING LN, ROCKPORT, TX, 78382",650673383,"L"
114525,"211 SPRING LN","ROCKPORT","TX",78382,27.97650673,-97.101891786,25,"211 SPRING LN, ROCKPORT, TX, 78382","Match","Exact","211 SPRING LN, ROCKPORT, TX, 78382",650673383,"L"
114526,"211 SPRING ST","LAWRENCE","NY",11559,40.6205432,-73.737001054,26,"211 SPRING ST, LAWRENCE, NY, 11559","Match","Exact","211 SPRING ST, LAWRENCE, NY, 11559",147657319,"R"
114527,"211 SUMMER GATE CT","ROSENBERG","TX",77469,29.5400923870001,-95.736251252,27,"211 SUMMER GATE CT, ROSENBERG, TX, 77469","Match","Exact","211 SUMMER GATE CT, ROSENBERG, TX, 77469",637975584,"L"
114528,"211 SUMPTER PLACE","MAPLE GLEN","PA",19002,NA,NA,28,"211 SUMPTER PLACE, MAPLE GLEN, PA, 19002","No_Match",NA,NA,NA,NA
114529,"211 SUNSET DR","KILL DEVIL HILLS","NC",27948,36.0185732100001,-75.720422035,29,"211 SUNSET DR, KILL DEVIL HILLS, NC, 27948","Match","Exact","211 SUNSET DR, KILL DEVIL HILLS, NC, 27948",81315181,"R"
114530,"211 SWANSON AVENUE","LAKE HAVASU CITY","AZ",86403,NA,NA,30,"211 SWANSON AVENUE, LAKE HAVASU CITY, AZ, 86403","No_Match",NA,NA,NA,NA
114531,"211 SYOSSET-WOODBURY RD","SYOSSET","NY",11791,40.8255117200001,-73.485313462,31,"211 SYOSSET-WOODBURY RD, SYOSSET, NY, 11791","Match","Non_Exact","211 SYOSSET WOODBURY RD, SYOSSET, NY, 11791",147640394,"L"
114532,"211 TARA GLEN DR","DELAWARE","OH",43015,40.2448626790001,-83.027463134,32,"211 TARA GLEN DR, DELAWARE, OH, 43015","Match","Exact","211 TARA GLEN DR, DELAWARE, OH, 43015",212997737,"R"
114533,"211 TAYLOR STREET SUITE 9","PORT TOWNSEND","WA",98368,48.1145255380001,-122.756629442,33,"211 TAYLOR STREET SUITE 9, PORT TOWNSEND, WA, 98368","Match","Exact","211 TAYLOR ST, PORT TOWNSEND, WA, 98368",151991863,"L"
114534,"211 TAYLOR STREET-SUITE 5","PORT TOWNSEND","WA",98368,48.1145255380001,-122.756629442,34,"211 TAYLOR STREET-SUITE 5, PORT TOWNSEND, WA, 98368","Match","Non_Exact","211 TAYLOR ST, PORT TOWNSEND, WA, 98368",151991863,"L"
114535,"211 TEANECK ROAD","TEANECK","NJ",7666,NA,NA,35,"211 TEANECK ROAD, TEANECK, NJ, 7666","No_Match",NA,NA,NA,NA
114536,"211 THISTLE LANE","HERMITAGE","TN",37076,36.1752704530001,-86.6117606299999,36,"211 THISTLE LANE, HERMITAGE, TN, 37076","Match","Exact","211 THISTLE LN, HERMITAGE, TN, 37076",97207105,"L"
114537,"211 THOMPSON STREET APT 6H","NEW YORK","NY",10012,40.7288609170001,-73.9993152599999,37,"211 THOMPSON STREET APT 6H, NEW YORK, NY, 10012","Match","Exact","211 THOMPSON ST, NEW YORK, NY, 10012",59653738,"L"
114538,"211 TINA LANE","FLEMINGTON","WV",26347,39.2179596170001,-80.170081173,38,"211 TINA LANE, FLEMINGTON, WV, 26347","Match","Exact","211 TINA LN, FLEMINGTON, WV, 26347",649256818,"L"
114539,"211 TOMAHAWK TRAIL","SAN ANTONIO","TX",78232,29.5811390900001,-98.4884182279999,39,"211 TOMAHAWK TRAIL, SAN ANTONIO, TX, 78232","Match","Exact","211 TOMAHAWK TRL, SAN ANTONIO, TX, 78232",101495597,"R"
114540,"211 TRAILWOODS DR","DAYTON","OH",45415,39.8308768420001,-84.239776912,40,"211 TRAILWOODS DR, DAYTON, OH, 45415","Match","Exact","211 TRAILWOODS DR, DAYTON, OH, 45415",143565257,"L"
114541,"211 TRALEE CIRCLE","FAIRBURN","GA",30213,33.6085679720001,-84.595453639,41,"211 TRALEE CIRCLE, FAIRBURN, GA, 30213","Match","Exact","211 TRALEE CIR, FAIRBURN, GA, 30213",627596546,"R"
114542,"211 TURTLE CREEK DRIVE","JACKSON","TN",38305,35.707171642,-88.861234146,42,"211 TURTLE CREEK DRIVE, JACKSON, TN, 38305","Match","Exact","211 TURTLE CREEK DR, JACKSON, TN, 38305",617748024,"L"
114543,"211 TUTTLE AVENUE","HAMILTON","NJ",8629,40.2187017690001,-74.729036943,43,"211 TUTTLE AVENUE, HAMILTON, NJ, 8629","Match","Exact","211 TUTTLE AVE, HAMILTON, NJ, 08629",60181450,"R"
114544,"211 UNION STREET SUITE 205","NASHVILLE","TN",37201,36.1659447870001,-86.7779131739999,44,"211 UNION STREET SUITE 205, NASHVILLE, TN, 37201","Match","Exact","211 UNION ST, NASHVILLE, TN, 37201",97187941,"L"
114545,"211 UNIVERSITY AVENUE","SELINSGROVE","PA",17870,40.7989476660001,-76.865347605,45,"211 UNIVERSITY AVENUE, SELINSGROVE, PA, 17870","Match","Exact","211 UNIVERSITY AVE, SELINSGROVE, PA, 17870",47779642,"L"
114546,"211 UPPER MILL CT","CENTREVILLE","MD",21617,39.024754053,-76.0493287529999,46,"211 UPPER MILL CT, CENTREVILLE, MD, 21617","Match","Exact","211 UPPER MILL CT, CENTREVILLE, MD, 21617",607195903,"R"
114547,"211 VARDEN ROAD","FLORAHOME","FL",32140,29.780356688,-81.8392541979999,47,"211 VARDEN ROAD, FLORAHOME, FL, 32140","Match","Exact","211 VARDEN RD, FLORAHOME, FL, 32140",86065767,"L"
114548,"211 W 149ST APT4B","NEW YORK","NY",10039,NA,NA,48,"211 W 149ST APT4B, NEW YORK, NY, 10039","No_Match",NA,NA,NA,NA
114549,"211 W 5TH STREET","EMPORIUM","PA",15834,41.512334357,-78.24236812,49,"211 W 5TH STREET, EMPORIUM, PA, 15834","Match","Exact","211 W 5TH ST, EMPORIUM, PA, 15834",126262644,"R"
114550,"211 W 79TH PL APT 301","HIALEAH FL","FL",33014,25.8947258200001,-80.288861153,50,"211 W 79TH PL APT 301, HIALEAH FL, FL, 33014","Match","Non_Exact","211 W 79TH PL, HIALEAH, FL, 33014",116025378,"R"
114551,"211 W CHESTNUT ST","GLENDALE","CA",91205,34.1393171350001,-118.256569094,51,"211 W CHESTNUT ST, GLENDALE, CA, 91205","Match","Non_Exact","211 W CHESTNUT ST, GLENDALE, CA, 91204",141610103,"R"
114552,"211 W COLLEGE AVE","DEVINE","TX",78016,29.1398399330001,-98.907506934,52,"211 W COLLEGE AVE, DEVINE, TX, 78016","Match","Exact","211 W COLLEGE AVE, DEVINE, TX, 78016",102808151,"L"
114553,"211 W DEFEE","BAYTOWN","TX",77520,29.733455244,-94.969534386,53,"211 W DEFEE, BAYTOWN, TX, 77520","Match","Non_Exact","211 W DEFEE ST, BAYTOWN, TX, 77520",96110688,"R"
114554,"211 W DUBLIN GRANVILLE RD","WORTHINGTON","OH",43085,40.0889012430001,-83.024786025,54,"211 W DUBLIN GRANVILLE RD, WORTHINGTON, OH, 43085","Match","Exact","211 W DUBLIN GRANVILLE RD, WORTHINGTON, OH, 43085",645578150,"L"
114555,"211 W LINCOLN AVE","GOSHEN","IN",46526,41.586431303,-85.836968562,55,"211 W LINCOLN AVE, GOSHEN, IN, 46526","Match","Exact","211 W LINCOLN AVE, GOSHEN, IN, 46526",604679362,"R"
114556,"211 W MAIN ST","ARLINGTON","MN",55307,44.6072123760001,-94.079117146,56,"211 W MAIN ST, ARLINGTON, MN, 55307","Match","Exact","211 W MAIN ST, ARLINGTON, MN, 55307",37014786,"R"
114557,"211 W MAIN ST","CEYLON","MN",56121,43.533690494,-94.634625092,57,"211 W MAIN ST, CEYLON, MN, 56121","Match","Exact","211 W MAIN ST, CEYLON, MN, 56121",9978368,"L"
114558,"211 W MISSION","SANTA BARBARA","CA",93101,34.428309287,-119.717212334,58,"211 W MISSION, SANTA BARBARA, CA, 93101","Match","Non_Exact","211 W MISSION ST, SANTA BARBARA, CA, 93101",652033427,"L"
114559,"211 W READ ST STE 3","BALTIMORE","MD",21201,39.300452733,-76.618874052,59,"211 W READ ST STE 3, BALTIMORE, MD, 21201","Match","Non_Exact","211 W READ ST, BALTIMORE, MD, 21201",206419298,"L"
114560,"211 W SEALY SUITE 1","ALVIN","TX",77511,NA,NA,60,"211 W SEALY SUITE 1, ALVIN, TX, 77511","No_Match",NA,NA,NA,NA
114561,"211 W TEMPLE STREET SUITE 1000","LOS ANGELES","CA",90012,NA,NA,61,"211 W TEMPLE STREET SUITE 1000, LOS ANGELES, CA, 90012","Tie",NA,NA,NA,NA
114562,"211 W WACKER STE 500","CHICAGO","IL",60606,NA,NA,62,"211 W WACKER STE 500, CHICAGO, IL, 60606","No_Match",NA,NA,NA,NA
114563,"211 W WASHINGTON ST STE 2210","SOUTH BEND","IN",46601,41.6763643520001,-86.2522512369999,63,"211 W WASHINGTON ST STE 2210, SOUTH BEND, IN, 46601","Match","Non_Exact","211 W WASHINGTON ST, SOUTH BEND, IN, 46601",8056432,"R"
114564,"211 W WATER ST","KANKAKEE","IL",60901,41.112022203,-87.870815425,64,"211 W WATER ST, KANKAKEE, IL, 60901","Match","Exact","211 W WATER ST, KANKAKEE, IL, 60901",98356734,"R"
114565,"211 WAGON FORD ROAD","BEAULAVILLE","NC",28518,34.9231256140001,-77.7142169479999,65,"211 WAGON FORD ROAD, BEAULAVILLE, NC, 28518","Match","Non_Exact","211 WAGON FORD RD, BEULAVILLE, NC, 28518",617532334,"L"
114566,"211 WALNUT AVE","LAKEWOOD","NJ",8701,40.05250363,-74.22193149,66,"211 WALNUT AVE, LAKEWOOD, NJ, 8701","Match","Exact","211 WALNUT AVE, LAKEWOOD, NJ, 08701",641932149,"L"
114567,"211 WATKINS STREET","FACTORYVILLE","PA",18419,41.5622906070001,-75.7768472819999,67,"211 WATKINS STREET, FACTORYVILLE, PA, 18419","Match","Exact","211 WATKINS ST, FACTORYVILLE, PA, 18419",140198161,"L"
114568,"211 WEKIVA SPRINGS RD","LONGWOOD","FL",32779,28.689461953,-81.406086097,68,"211 WEKIVA SPRINGS RD, LONGWOOD, FL, 32779","Match","Exact","211 WEKIVA SPRINGS RD, LONGWOOD, FL, 32779",605415618,"R"
114569,"211 WELCH AVENUE","TALLADEGA","AL",35160,33.4660664,-86.07623194,69,"211 WELCH AVENUE, TALLADEGA, AL, 35160","Match","Exact","211 WELCH AVE, TALLADEGA, AL, 35160",66964015,"L"
114570,"211 WEST 105TH STREET","LOS ANGELES","CA",90003,33.941026864,-118.276511788,70,"211 WEST 105TH STREET, LOS ANGELES, CA, 90003","Match","Exact","211 W 105TH ST, LOS ANGELES, CA, 90003",141661904,"R"
114571,"211 WEST 141 STREET","NEW YORK","NY",10030,40.8193015140001,-73.9413949189999,71,"211 WEST 141 STREET, NEW YORK, NY, 10030","Match","Exact","211 W 141ST ST, NEW YORK, NY, 10030",59656293,"R"
114572,"211 WEST 3RD AV SUITE 200 BOX 12","PINE BLUFF","AR",71601,34.2272669380001,-92.0045863409999,72,"211 WEST 3RD AV SUITE 200 BOX 12, PINE BLUFF, AR, 71601","Match","Exact","211 W 3RD AVE, PINE BLUFF, AR, 71601",2551762,"R"
114573,"211 WEST 5TH","CANEY","KS",67333,37.010552026,-95.936421409,73,"211 WEST 5TH, CANEY, KS, 67333","Match","Non_Exact","211 W 5TH AVE, CANEY, KS, 67333",13786453,"L"
114574,"211 WEST BERKLEY STREET","PHILADELPHIA","PA",19144,40.0221778100001,-75.1621783149999,74,"211 WEST BERKLEY STREET, PHILADELPHIA, PA, 19144","Match","Exact","211 W BERKLEY ST, PHILADELPHIA, PA, 19144",131401619,"R"
114575,"211 WEST CHESTNUT STREET","GLENDALE","CA",91204,34.1393171350001,-118.256569094,75,"211 WEST CHESTNUT STREET, GLENDALE, CA, 91204","Match","Exact","211 W CHESTNUT ST, GLENDALE, CA, 91204",141610103,"R"
114576,"211 WEST COURT STREET","SEGUIN","TX",78155,29.568879904,-97.96644789,76,"211 WEST COURT STREET, SEGUIN, TX, 78155","Match","Exact","211 W COURT ST, SEGUIN, TX, 78155",54827718,"R"
114577,"211 WEST DENHAM ST","LIVINGSTON","TX",77351,30.7080452980001,-94.934534361,77,"211 WEST DENHAM ST, LIVINGSTON, TX, 77351","Match","Exact","211 W DENHAM ST, LIVINGSTON, TX, 77351",23243702,"R"
114578,"211 WEST JEFFERSON STREET SUITE 24","SYRACUSE","NY",13202,43.0469299310001,-76.154095992,78,"211 WEST JEFFERSON STREET SUITE 24, SYRACUSE, NY, 13202","Match","Exact","211 W JEFFERSON ST, SYRACUSE, NY, 13202",46604328,"L"
114579,"211 WEST MOULTRIE STREET","BLYTHEVILLE","AR",72315,35.93649492,-89.904545808,79,"211 WEST MOULTRIE STREET, BLYTHEVILLE, AR, 72315","Match","Non_Exact","211 W MOULTRIE DR, BLYTHEVILLE, AR, 72315",47217320,"L"
114580,"211 WEST REMINGTON ROAD","ITHACA","NY",14850,42.4727720970001,-76.497258201,80,"211 WEST REMINGTON ROAD, ITHACA, NY, 14850","Match","Exact","211 W REMINGTON RD, ITHACA, NY, 14850",18869427,"R"
114581,"211 WEST ST","MORRIS","CT",6763,41.6815225070001,-73.2174080519999,81,"211 WEST ST, MORRIS, CT, 6763","Match","Exact","211 WEST ST, MORRIS, CT, 06763",618799665,"L"
114582,"211 WEST WASHINGTON STREET","WASHINGTON","IA",52353,NA,NA,82,"211 WEST WASHINGTON STREET, WASHINGTON, IA, 52353","Tie",NA,NA,NA,NA
114583,"211 WINDCREST COURT","WOODSTOCK","GA",30188,34.0923737160001,-84.442202121,83,"211 WINDCREST COURT, WOODSTOCK, GA, 30188","Match","Exact","211 WINDCREST CT, WOODSTOCK, GA, 30188",68829425,"L"
114584,"211 WINDERMERE DRIVE","WAYNESBORO","VA",22980,38.116505918,-78.9004768349999,84,"211 WINDERMERE DRIVE, WAYNESBORO, VA, 22980","Match","Exact","211 WINDERMERE DR, WAYNESBORO, VA, 22980",98846233,"R"
114585,"211 ZWART RD","DES MOINES","IA",50312,41.5807227440001,-93.653345109,85,"211 ZWART RD, DES MOINES, IA, 50312","Match","Exact","211 ZWART RD, DES MOINES, IA, 50312",65781058,"R"
114586,"211-01 46TH ROAD","BAYSIDE","NY",11361,40.7570098410001,-73.770334276,86,"211-01 46TH ROAD, BAYSIDE, NY, 11361","Match","Exact","211-01 46TH RD, BAYSIDE, NY, 11361",59703404,"L"
114587,"211-17 HOLLIS AVENUE","QUEENS VILLAGE","NY",11429,40.7092125340001,-73.746599894,87,"211-17 HOLLIS AVENUE, QUEENS VILLAGE, NY, 11429","Match","Exact","211-17 HOLLIS AVE, QUEENS VILLAGE, NY, 11429",59718008,"L"
114588,"211-40 18TH AVENUE APT 1F","BAYSIDE","NY",11360,40.782579378,-73.7808984599999,88,"211-40 18TH AVENUE APT 1F, BAYSIDE, NY, 11360","Match","Exact","211-40 18TH AVE, BAYSIDE, NY, 11360",641263365,"R"
114589,"2110 ALICE AVE -4","OXON HILL","MD",20745,38.8109370980001,-76.9717352979999,89,"2110 ALICE AVE -4, OXON HILL, MD, 20745","Match","Exact","2110 ALICE AVE, OXON HILL, MD, 20745",76312535,"L"
114590,"2110 ARTESIA BLVD  922","REDONDO BEACH","CA",90278,33.8728285490001,-118.374482276,90,"2110 ARTESIA BLVD  922, REDONDO BEACH, CA, 90278","Match","Exact","2110 ARTESIA BLVD, REDONDO BEACH, CA, 90278",141662830,"R"
114591,"2110 ARTESIA BLVD STE 538","REDONDO BEACH","CA",90278,33.8728285490001,-118.374482276,91,"2110 ARTESIA BLVD STE 538, REDONDO BEACH, CA, 90278","Match","Exact","2110 ARTESIA BLVD, REDONDO BEACH, CA, 90278",141662830,"R"
114592,"2110 ARTESIA BLVD SUITE 834","REDONDO BEACH","CA",90278,33.8728285490001,-118.374482276,92,"2110 ARTESIA BLVD SUITE 834, REDONDO BEACH, CA, 90278","Match","Exact","2110 ARTESIA BLVD, REDONDO BEACH, CA, 90278",141662830,"R"
114593,"2110 AVENUE A","MAYESVILLE","SC",29104,33.9791335830001,-80.199398935,93,"2110 AVENUE A, MAYESVILLE, SC, 29104","Match","Exact","2110 AVE A, MAYESVILLE, SC, 29104",202680230,"L"
114594,"2110 BLUFF CREEK DRIVE","KINGWOOD","TX",77345,30.044250176,-95.168184464,94,"2110 BLUFF CREEK DRIVE, KINGWOOD, TX, 77345","Match","Exact","2110 BLUFF CREEK DR, KINGWOOD, TX, 77345",96049577,"L"
114595,"2110 BONNYWOOD LANE SUITE 201","SILVER SPRING","MD",20902,39.0187152180001,-77.046630299,95,"2110 BONNYWOOD LANE SUITE 201, SILVER SPRING, MD, 20902","Match","Exact","2110 BONNYWOOD LN, SILVER SPRING, MD, 20902",641008067,"R"
114596,"2110 BURNS STREET","NASHVILLE","TN",37216,36.1957849990001,-86.7296235159999,96,"2110 BURNS STREET, NASHVILLE, TN, 37216","Match","Exact","2110 BURNS ST, NASHVILLE, TN, 37216",97194282,"L"
114597,"2110 CHESTNUT LANE","FREDERICK","MD",21702,39.4483591740001,-77.4427370769999,97,"2110 CHESTNUT LANE, FREDERICK, MD, 21702","Match","Exact","2110 CHESTNUT LN, FREDERICK, MD, 21702",604960584,"R"
114598,"2110 CLEVELAND ST","MCKEESPORT","PA",15132,40.33890267,-79.8342245819999,98,"2110 CLEVELAND ST, MCKEESPORT, PA, 15132","Match","Exact","2110 CLEVELAND ST, MCKEESPORT, PA, 15132",51678524,"R"
114599,"2110 CREEKWOOD DRIVE","KILLEEN","TX",76543,31.1335930340001,-97.703905204,99,"2110 CREEKWOOD DRIVE, KILLEEN, TX, 76543","Match","Exact","2110 CREEKWOOD DR, KILLEEN, TX, 76543",146137428,"R"
114600,"2110 CYPRESS RUN DRIVE","SUGAR LAND","TX",77478,29.594479092,-95.5836822049999,100,"2110 CYPRESS RUN DRIVE, SUGAR LAND, TX, 77478","Match","Exact","2110 CYPRESS RUN DR, SUGAR LAND, TX, 77478",78290162,"R"
114601,"2110 DEBORAH KAY LANE","HACIENDA HEIGHTS","CA",91745,33.998067119,-117.981064787,101,"2110 DEBORAH KAY LANE, HACIENDA HEIGHTS, CA, 91745","Match","Exact","2110 DEBORAH KAY LN, HACIENDA HTS, CA, 91745",141736988,"L"
114602,"2110 DOWLING DRIVE  131","RICHMOND","TX",77469,29.5659683600001,-95.758872164,102,"2110 DOWLING DRIVE  131, RICHMOND, TX, 77469","Match","Exact","2110 DOWLING DR, RICHMOND, TX, 77469",78340109,"L"
114603,"2110 E LINCOLN DR","PHOENIX","AZ",85016,33.538367335,-112.036339068,103,"2110 E LINCOLN DR, PHOENIX, AZ, 85016","Match","Exact","2110 E LINCOLN DR, PHOENIX, AZ, 85016",653305056,"L"
114604,"2110 EAST FIRST STREET","SANTA ANA","CA",92705,33.745376703,-117.837065458,104,"2110 EAST FIRST STREET, SANTA ANA, CA, 92705","Match","Exact","2110 E 1ST ST, SANTA ANA, CA, 92705",144053332,"R"
114605,"2110 EMBERWOOD WAY","ESCONDIDO","CA",92029,33.0957916310001,-117.114824577,105,"2110 EMBERWOOD WAY, ESCONDIDO, CA, 92029","Match","Exact","2110 EMBERWOOD WAY, ESCONDIDO, CA, 92029",195395441,"R"
114606,"2110 ENON RD SW","ATLANTA","GA",30331,33.6971040600001,-84.557195402,106,"2110 ENON RD SW, ATLANTA, GA, 30331","Match","Exact","2110 ENON RD SW, ATLANTA, GA, 30331",17336231,"L"
114607,"2110 ESTRELLA AVE","LOS ANGELES","CA",90007,34.032980939,-118.275993141,107,"2110 ESTRELLA AVE, LOS ANGELES, CA, 90007","Match","Exact","2110 ESTRELLA AVE, LOS ANGELES, CA, 90007",141607516,"L"
114608,"2110 GARY AVE","SPIRIT LAKE","IA",51360,43.4197665310001,-95.100712197,108,"2110 GARY AVE, SPIRIT LAKE, IA, 51360","Match","Exact","2110 GARY AVE, SPIRIT LAKE, IA, 51360",9805274,"L"
114609,"2110 GLEN FOREST LANE","PLANO","TX",75023,33.047586638,-96.7339775309999,109,"2110 GLEN FOREST LANE, PLANO, TX, 75023","Match","Exact","2110 GLEN FOREST LN, PLANO, TX, 75023",642474561,"L"
114610,"2110 GREEN ST","RACINE","WI",53402,42.747964622,-87.7895555329999,110,"2110 GREEN ST, RACINE, WI, 53402","Match","Exact","2110 GREEN ST, RACINE, WI, 53402",77910088,"L"
114611,"2110 GREENWOOD HEIGHTS DRIVE","KNEELAND","CA",95549,40.7907697950001,-124.05568894,111,"2110 GREENWOOD HEIGHTS DRIVE, KNEELAND, CA, 95549","Match","Exact","2110 GREENWOOD HEIGHTS DR, KNEELAND, CA, 95549",113011082,"R"
114612,"2110 HACKBERRY ROAD","BLOOMINGTON","IL",61704,40.5079228720001,-88.913132992,112,"2110 HACKBERRY ROAD, BLOOMINGTON, IL, 61704","Match","Exact","2110 HACKBERRY RD, BLOOMINGTON, IL, 61704",20562789,"L"
114613,"2110 HAMPTON COURT","FALLSTON","MD",21047,39.524643546,-76.452906245,113,"2110 HAMPTON COURT, FALLSTON, MD, 21047","Match","Exact","2110 HAMPTON CT, FALLSTON, MD, 21047",191639800,"L"
114614,"2110 HARPER STREET","LAWRENCE","KS",66046,38.9467452440001,-95.2141635469999,114,"2110 HARPER STREET, LAWRENCE, KS, 66046","Match","Exact","2110 HARPER ST, LAWRENCE, KS, 66046",636640506,"L"
114615,"2110 HEMLOCK HILL DRIVE","DURHAM","NC",27703,35.947618198,-78.82519425,115,"2110 HEMLOCK HILL DRIVE, DURHAM, NC, 27703","Match","Exact","2110 HEMLOCK HILL DR, DURHAM, NC, 27703",618113962,"R"
114616,"2110 HOLLYWOOD AVENUE","SHREVEPORT","LA",71108,32.456491171,-93.7747036979999,116,"2110 HOLLYWOOD AVENUE, SHREVEPORT, LA, 71108","Match","Exact","2110 HOLLYWOOD AVE, SHREVEPORT, LA, 71108",57439256,"R"
114617,"2110 HOPE STREET","BOSSIER CITY","LA",71112,32.4262890090001,-93.639255302,117,"2110 HOPE STREET, BOSSIER CITY, LA, 71112","Match","Exact","2110 HOPE ST, BOSSIER CITY, LA, 71112",636264961,"R"
114618,"2110 I ST NE APT 101","WASHINGTON","DC",20002,NA,NA,118,"2110 I ST NE APT 101, WASHINGTON, DC, 20002","No_Match",NA,NA,NA,NA
114619,"2110 JEFFERSON SUITE 101B","HOUSTON","TX",77003,29.745194242,-95.360068794,119,"2110 JEFFERSON SUITE 101B, HOUSTON, TX, 77003","Match","Non_Exact","2110 JEFFERSON ST, HOUSTON, TX, 77003",96072673,"R"
114620,"2110 JUSTICE STREET","MONROE","LA",71201,32.5348892600001,-92.108229067,120,"2110 JUSTICE STREET, MONROE, LA, 71201","Match","Exact","2110 JUSTICE ST, MONROE, LA, 71201",161085764,"R"
114621,"2110 K STREET","SACRAMENTO","CA",95816,38.5751734770001,-121.478818366,121,"2110 K STREET, SACRAMENTO, CA, 95816","Match","Exact","2110 K ST, SACRAMENTO, CA, 95816",133324316,"R"
114622,"2110 L STREET 301","SACRAMENTO","CA",95816,38.574072029,-121.479293385,122,"2110 L STREET 301, SACRAMENTO, CA, 95816","Match","Exact","2110 L ST, SACRAMENTO, CA, 95816",133324240,"R"
114623,"2110 LADERA ROAD","LONGMONT","CO",80504,40.2651415670001,-105.112548258,123,"2110 LADERA ROAD, LONGMONT, CO, 80504","Match","Exact","2110 LADERA RD, LONGMONT, CO, 80504",636099471,"R"
114624,"2110 LEAHURST CT","LOUISVILLE","KY",40216,38.1956429420001,-85.816838146,124,"2110 LEAHURST CT, LOUISVILLE, KY, 40216","Match","Exact","2110 LEAHURST CT, LOUISVILLE, KY, 40216",96837127,"R"
114625,"2110 MAIN ST","BLOOMER","WI",54724,45.0954602740001,-91.486554359,125,"2110 MAIN ST, BLOOMER, WI, 54724","Match","Exact","2110 MAIN ST, BLOOMER, WI, 54724",78918529,"R"
114626,"2110 MANSFIELD RD","TOLEDO","OH",43613,41.685511476,-83.5947196939999,126,"2110 MANSFIELD RD, TOLEDO, OH, 43613","Match","Exact","2110 MANSFIELD RD, TOLEDO, OH, 43613",33933559,"R"
114627,"2110 MAYSLANDING RD LOT211","MILLVILLE","NJ",8332,39.412946193,-74.98843815,127,"2110 MAYSLANDING RD LOT211, MILLVILLE, NJ, 8332","Match","Non_Exact","2110 MAYS LANDING RD, MILLVILLE, NJ, 08332",174125095,"L"
114628,"2110 MYRTLE STREET","SCRANTON","PA",18510,41.404974124,-75.6352952569999,128,"2110 MYRTLE STREET, SCRANTON, PA, 18510","Match","Exact","2110 MYRTLE ST, SCRANTON, PA, 18510",613721886,"R"
114629,"2110 N FLAMINGO ROAD","PEMBROKE PINES","FL",33028,26.029196427,-80.312593157,129,"2110 N FLAMINGO ROAD, PEMBROKE PINES, FL, 33028","Match","Exact","2110 N FLAMINGO RD, PEMBROKE PINES, FL, 33028",637639831,"R"
114630,"2110 N MANHATTAN","AMARILLO","TX",79107,35.2347963450001,-101.804266538,130,"2110 N MANHATTAN, AMARILLO, TX, 79107","Match","Non_Exact","2110 N MANHATTAN ST, AMARILLO, TX, 79107",182466847,"R"
114631,"2110 N MARVINE STREET","PHILADELPHIA","PA",19122,39.984376991,-75.1519929529999,131,"2110 N MARVINE STREET, PHILADELPHIA, PA, 19122","Match","Exact","2110 N MARVINE ST, PHILADELPHIA, PA, 19122",131438936,"R"
114632,"2110 NEWGATE DRIVE","DECATUR","GA",30035,33.7282350620001,-84.226539777,132,"2110 NEWGATE DRIVE, DECATUR, GA, 30035","Match","Exact","2110 NEWGATE DR, DECATUR, GA, 30035",23413023,"R"
114633,"2110 NORTH DAMEN AVE","CHICAGO","IL",60647,41.919860504,-87.6777007969999,133,"2110 NORTH DAMEN AVE, CHICAGO, IL, 60647","Match","Exact","2110 N DAMEN AVE, CHICAGO, IL, 60647",111764025,"L"
114634,"2110 NW 50TH STREET","TOPEKA","KS",66618,39.136648178,-95.689980652,134,"2110 NW 50TH STREET, TOPEKA, KS, 66618","Match","Exact","2110 NW 50TH ST, TOPEKA, KS, 66618",17912823,"R"
114635,"2110 OAKHURST DRIVE","WINTER HAVEN","FL",33881,28.039046763,-81.693183856,135,"2110 OAKHURST DRIVE, WINTER HAVEN, FL, 33881","Match","Exact","2110 OAKHURST DR, WINTER HAVEN, FL, 33881",614539356,"L"
114636,"2110 OKLAHOMA AVE SW","PALM BAY","FL",32908,27.9443103580001,-80.680837737,136,"2110 OKLAHOMA AVE SW, PALM BAY, FL, 32908","Match","Exact","2110 OKLAHOMA AVE SW, PALM BAY, FL, 32908",93911022,"R"
114637,"2110 OLWIEN STREET","BROOKINGS","SD",57006,44.30464126,-96.7693291749999,137,"2110 OLWIEN STREET, BROOKINGS, SD, 57006","Match","Exact","2110 OLWIEN ST, BROOKINGS, SD, 57006",193623084,"L"
114638,"2110 OVERLAND AVE SUITE 120","BILLINGS","MT",59102,45.752377225,-108.567611829,138,"2110 OVERLAND AVE SUITE 120, BILLINGS, MT, 59102","Match","Exact","2110 OVERLAND AVE, BILLINGS, MT, 59102",608059275,"L"
114639,"2110 PARKSVILLE WAY","CEDAR PARK","TX",78613,30.5217739060001,-97.8628197479999,139,"2110 PARKSVILLE WAY, CEDAR PARK, TX, 78613","Match","Exact","2110 PARKSVILLE WAY, CEDAR PARK, TX, 78613",126459188,"R"
114640,"2110 PIONEER PASS","SEGUIN","TX",78155,29.611372681,-98.006866154,140,"2110 PIONEER PASS, SEGUIN, TX, 78155","Match","Exact","2110 PIONEER PASS, SEGUIN, TX, 78155",643190556,"R"
114641,"2110 PULLMAN AVE","BELMONT","CA",94002,37.515128415,-122.297354979,141,"2110 PULLMAN AVE, BELMONT, CA, 94002","Match","Exact","2110 PULLMAN AVE, BELMONT, CA, 94002",192381362,"R"
114642,"2110 REGIS DRIVE","DAVIS","CA",95618,38.556831183,-121.725026235,142,"2110 REGIS DRIVE, DAVIS, CA, 95618","Match","Exact","2110 REGIS DR, DAVIS, CA, 95618",67691338,"R"
114643,"2110 S MCCOLL RD","EDINBURG","TX",78539,26.2909820530001,-98.196795346,143,"2110 S MCCOLL RD, EDINBURG, TX, 78539","Match","Exact","2110 S MCCOLL RD, EDINBURG, TX, 78539",632511978,"L"
114644,"2110 S MCCOLL ROAD","EDINBURG","TX",78539,26.2909820530001,-98.196795346,144,"2110 S MCCOLL ROAD, EDINBURG, TX, 78539","Match","Exact","2110 S MCCOLL RD, EDINBURG, TX, 78539",632511978,"L"
114645,"2110 S MEMORIAL DR","APPETON","WI",54915,44.242704437,-88.4159226639999,145,"2110 S MEMORIAL DR, APPETON, WI, 54915","Match","Non_Exact","2110 S MEMORIAL DR, APPLETON, WI, 54915",74509052,"R"
114646,"2110 S RAINIER ST A260","KENNEWICK","WA",99337,46.1897314820001,-119.143220642,146,"2110 S RAINIER ST A260, KENNEWICK, WA, 99337","Match","Non_Exact","2110 S RAINIER ST, KENNEWICK, WA, 99337",175011453,"R"
114647,"2110 SAINT MICHAEL STREET","45204","OH",45204,39.1023425380001,-84.551807363,147,"2110 SAINT MICHAEL STREET, 45204, OH, 45204","Match","Non_Exact","2110 SAINT MICHAEL ST, CINCINNATI, OH, 45204",103969428,"R"
114648,"2110 SOUTH EAGLE RD UNIT 343","NEWTOWN","PA",18940,40.231569731,-74.940269754,148,"2110 SOUTH EAGLE RD UNIT 343, NEWTOWN, PA, 18940","Match","Exact","2110 S EAGLE RD, NEWTOWN, PA, 18940",134780369,"R"
114649,"2110 SPEEDWAY CBA 2400","AUSTIN","TX",78705,NA,NA,149,"2110 SPEEDWAY CBA 2400, AUSTIN, TX, 78705","No_Match",NA,NA,NA,NA
114650,"2110 STATE AVENUE SW","DECATUR","AL",35601,34.5731880600001,-87.0049709039999,150,"2110 STATE AVENUE SW, DECATUR, AL, 35601","Match","Exact","2110 STATE AVE SW, DECATUR, AL, 35601",97112720,"L"
114651,"2110 SW JEFFERSON STREET SUITE 300","PORTLAND","OR",97201,45.5187412710001,-122.695713541,151,"2110 SW JEFFERSON STREET SUITE 300, PORTLAND, OR, 97201","Match","Non_Exact","2110 SW JEFFERSON ST, PORTLAND, OR, 97201",157573348,"L"
114652,"2110 SYLVESTER RD","LAKELAND","FL",33803,28.0186728790001,-81.920928386,152,"2110 SYLVESTER RD, LAKELAND, FL, 33803","Match","Exact","2110 SYLVESTER RD, LAKELAND, FL, 33803",651845966,"L"
114653,"2110 TIBURON","CARROLLTON","TX",75006,32.971704227,-96.882176678,153,"2110 TIBURON, CARROLLTON, TX, 75006","Match","Exact","2110 TIBURON, CARROLLTON, TX, 75006",102889106,"L"
114654,"2110 UNION ST","LAKE STATION","IN",46405,41.5792710100001,-87.231670632,154,"2110 UNION ST, LAKE STATION, IN, 46405","Match","Non_Exact","2110 S UNION ST, LAKE STATION, IN, 46405",98438001,"R"
114655,"2110 VINEWOOD BLVD","ANN ARBOR","MI",48104,42.270135317,-83.719662389,155,"2110 VINEWOOD BLVD, ANN ARBOR, MI, 48104","Match","Exact","2110 VINEWOOD BLVD, ANN ARBOR, MI, 48104",26015424,"R"
114656,"2110 W BRICHTA DR","TUCSON","AZ",85745,32.241602728,-111.012056071,156,"2110 W BRICHTA DR, TUCSON, AZ, 85745","Match","Exact","2110 W BRICHTA DR, TUCSON, AZ, 85745",121404688,"R"
114657,"2110 W DYER LANE","LECANTO","FL",34461,28.8579384280001,-82.4690069339999,157,"2110 W DYER LANE, LECANTO, FL, 34461","Match","Exact","2110 W DYER LN, LECANTO, FL, 34461",86202104,"R"
114658,"2110 W LITTLE YORK RD","HOUSTON","TX",77091,29.8634919630001,-95.4430352379999,158,"2110 W LITTLE YORK RD, HOUSTON, TX, 77091","Match","Exact","2110 W LITTLE YORK RD, HOUSTON, TX, 77091",96027715,"R"
114659,"2110 WEATHERBEE STREET","FORT WORTH","TX",76110,32.7267857090001,-97.349311261,159,"2110 WEATHERBEE STREET, FORT WORTH, TX, 76110","Match","Exact","2110 WEATHERBEE ST, FORT WORTH, TX, 76110",101885368,"R"
114660,"2110 WELLINGTON CT","MIDLAND","TX",79705,32.043030344,-102.111610623,160,"2110 WELLINGTON CT, MIDLAND, TX, 79705","Match","Exact","2110 WELLINGTON CT, MIDLAND, TX, 79705",139593654,"L"
114661,"2110 WEST 38TH STREET","INDIANAPOLIS","IN",46228,39.824560175,-86.1981912969999,161,"2110 WEST 38TH STREET, INDIANAPOLIS, IN, 46228","Match","Exact","2110 W 38TH ST, INDIANAPOLIS, IN, 46228",107985671,"R"
114662,"2110 WEST PARK COURT SUITE C","CHAMPAIGN","IL",61821,40.1174887340001,-88.2821677589999,162,"2110 WEST PARK COURT SUITE C, CHAMPAIGN, IL, 61821","Match","Exact","2110 W PARK CT, CHAMPAIGN, IL, 61821",8855944,"R"
114663,"2110 WEST WARREN BLVD","CHICAGO","IL",60612,41.882195944,-87.679545612,163,"2110 WEST WARREN BLVD, CHICAGO, IL, 60612","Match","Exact","2110 W WARREN BLVD, CHICAGO, IL, 60612",605088253,"R"
114664,"2110 WOODLEA DR","COLUMBIA","MO",65201,38.942557052,-92.308436715,164,"2110 WOODLEA DR, COLUMBIA, MO, 65201","Match","Exact","2110 WOODLEA DR, COLUMBIA, MO, 65201",23482332,"R"
114665,"21100 DIAMONTE DRIVE","LAND O LAKES","FL",34637,28.278300965,-82.46788961,165,"21100 DIAMONTE DRIVE, LAND O LAKES, FL, 34637","Match","Exact","21100 DIAMONTE DR, LAND O LAKES, FL, 34637",634073554,"L"
114666,"21100 E 11 MILE RD","ST CLAIR SHORES","MI",48081,42.495458957,-82.9031115889999,166,"21100 E 11 MILE RD, ST CLAIR SHORES, MI, 48081","Match","Exact","21100 E 11 MILE RD, SAINT CLAIR SHORES, MI, 48081",110685908,"R"
114667,"21100 NE SANDY BLVD  SPACE 135","FAIRVIEW","OR",97024,45.543461591,-122.446822118,167,"21100 NE SANDY BLVD  SPACE 135, FAIRVIEW, OR, 97024","Match","Non_Exact","21100 NE SANDY BLVD, FAIRVIEW, OR, 97024",157578787,"R"
114668,"21101 HIDDEN SPRING LANE","TRABUCO CANYON","CA",92679,33.6558681290001,-117.572671141,168,"21101 HIDDEN SPRING LANE, TRABUCO CANYON, CA, 92679","Match","Exact","21101 HIDDEN SPRING LN, TRABUCO CANYON, CA, 92679",144067522,"L"
114669,"21102 HICKORY FOREST WAY","GERMANTOWN","MD",20876,39.2018264110001,-77.2357070739999,169,"21102 HICKORY FOREST WAY, GERMANTOWN, MD, 20876","Match","Exact","21102 HICKORY FOREST WAY, GERMANTOWN, MD, 20876",62102336,"R"
114670,"21103 BRIDGE FALLS CT","KATY","TX",77449,29.8261137580001,-95.740864817,170,"21103 BRIDGE FALLS CT, KATY, TX, 77449","Match","Exact","21103 BRIDGE FALLS CT, KATY, TX, 77449",624812602,"R"
114671,"21106 LINDEN HILLS LANE","HUMBLE","TX",77338,30.0199557340001,-95.305418593,171,"21106 LINDEN HILLS LANE, HUMBLE, TX, 77338","Match","Exact","21106 LINDEN HILLS LN, HUMBLE, TX, 77338",624811729,"L"
114672,"21106 MAGNOLIA HOLLOW LN","RICHMOND","TX",77407,29.6887626130001,-95.749070143,172,"21106 MAGNOLIA HOLLOW LN, RICHMOND, TX, 77407","Match","Exact","21106 MAGNOLIA HOLLOW LN, RICHMOND, TX, 77407",641064709,"L"
114673,"21106 PARTHENIA ST","CANOGA PARK","CA",91304,34.2281939640001,-118.593485229,173,"21106 PARTHENIA ST, CANOGA PARK, CA, 91304","Match","Exact","21106 PARTHENIA ST, CANOGA PARK, CA, 91304",142709202,"L"
114674,"21107 CENTRE POINTE PARKWAY","SANTA CLARITA","CA",91350,34.411596418,-118.505426121,174,"21107 CENTRE POINTE PARKWAY, SANTA CLARITA, CA, 91350","Match","Exact","21107 CENTRE POINTE PKWY, SANTA CLARITA, CA, 91350",647614460,"L"
114675,"21107 LIBBY RD","MAPLE HEIGHTS","OH",44137,41.4169654570001,-81.5323880619999,175,"21107 LIBBY RD, MAPLE HEIGHTS, OH, 44137","Match","Exact","21107 LIBBY RD, MAPLE HEIGHTS, OH, 44137",61130191,"L"
114676,"21107 TALL CEDAR WAY","GERMANTOWN","MD",20876,39.2034401000001,-77.240736091,176,"21107 TALL CEDAR WAY, GERMANTOWN, MD, 20876","Match","Non_Exact","21107 TALL CEDAR CT, GERMANTOWN, MD, 20876",62100064,"R"
114677,"21108 E INDEPENDENCE WAY","RED ROCK","AZ",85145,32.569510743,-111.342626205,177,"21108 E INDEPENDENCE WAY, RED ROCK, AZ, 85145","Match","Exact","21108 INDEPENDENCE WAY, RED ROCK, AZ, 85145",624704725,"L"
114678,"2110A MATHER WAY","ELKINS PARK","PA",19027,40.0745643380001,-75.1464614819999,178,"2110A MATHER WAY, ELKINS PARK, PA, 19027","Match","Exact","2110 MATHER WAY, ELKINS PARK, PA, 19027",135094028,"L"
114679,"2111 200TH ST","BRONSON","IA",51007,42.412214756,-96.192052258,179,"2111 200TH ST, BRONSON, IA, 51007","Match","Exact","2111 200TH ST, BRONSON, IA, 51007",93439701,"L"
114680,"2111 21ST AVE S APT S-3","MINNEAPOLIS","MN",55405,44.961765702,-93.242514587,180,"2111 21ST AVE S APT S-3, MINNEAPOLIS, MN, 55405","Match","Non_Exact","2111 21ST AVE S, MINNEAPOLIS, MN, 55404",43637128,"L"
114681,"2111 21ST AVE S S19","MINNEAPOLIS","MN",55404,44.961765702,-93.242514587,181,"2111 21ST AVE S S19, MINNEAPOLIS, MN, 55404","Match","Exact","2111 21ST AVE S, MINNEAPOLIS, MN, 55404",43637128,"L"
114682,"2111 26TH AVENUE WEST","SEATTLE","WA",98199,47.6378099840001,-122.390373969,182,"2111 26TH AVENUE WEST, SEATTLE, WA, 98199","Match","Exact","2111 26TH AVE W, SEATTLE, WA, 98199",186660076,"L"
114683,"2111 ALBEMARLE ROAD 3M","BROOKLYN","NY",11226,40.647397842,-73.9591499799999,183,"2111 ALBEMARLE ROAD 3M, BROOKLYN, NY, 11226","Match","Exact","2111 ALBEMARLE RD, BROOKLYN, NY, 11226",59080998,"L"
114684,"2111 APPLEGATE DR","CORONA","CA",92882,33.8656523600001,-117.606679919,184,"2111 APPLEGATE DR, CORONA, CA, 92882","Match","Exact","2111 APPLEGATE DR, CORONA, CA, 92882",194777338,"R"
114685,"2111 BUENA VISTA PIKE","NASHVILLE","TN",37218,36.194693972,-86.83032258,185,"2111 BUENA VISTA PIKE, NASHVILLE, TN, 37218","Match","Exact","2111 BUENA VISTA PIKE, NASHVILLE, TN, 37218",617928829,"L"
114686,"2111 CANEVIEW COURT","KANNAPOLIS","NC",28083,35.509477057,-80.595338946,186,"2111 CANEVIEW COURT, KANNAPOLIS, NC, 28083","Match","Exact","2111 CANEVIEW CT, KANNAPOLIS, NC, 28083",25293194,"R"
114687,"2111 CARRIAGE CREST DR","CARSON CITY","NV",89706,39.1796359410001,-119.751825858,187,"2111 CARRIAGE CREST DR, CARSON CITY, NV, 89706","Match","Exact","2111 CARRIAGE CREST DR, CARSON CITY, NV, 89706",199521968,"R"
114688,"2111 CHARLES COURT NE","CORYDON","IN",47112,38.2242665380001,-86.085311164,188,"2111 CHARLES COURT NE, CORYDON, IN, 47112","Match","Exact","2111 CHARLES CT NE, CORYDON, IN, 47112",34809520,"L"
114689,"2111 CLEMETSON ST NE","GRAND FORKS","ND",58203,47.9790170370001,-97.19925997,189,"2111 CLEMETSON ST NE, GRAND FORKS, ND, 58203","Match","Exact","2111 CLEMETSON ST NE, GRAND FORKS, ND, 58203",171304413,"L"
114690,"2111 CLOVER CT W","CHAMPAIGN","IL",61821,40.0862250420001,-88.2795961479999,190,"2111 CLOVER CT W, CHAMPAIGN, IL, 61821","Match","Exact","2111 CLOVER CT W, CHAMPAIGN, IL, 61821",8809627,"L"
114691,"2111 DERBY RIDGE LANE","SILVER SPRING","MD",20910,38.993085487,-77.045174437,191,"2111 DERBY RIDGE LANE, SILVER SPRING, MD, 20910","Match","Exact","2111 DERBY RIDGE LN, SILVER SPRING, MD, 20910",62099207,"L"
114692,"2111 DRIFTWOOD DR","COLUMBIA","SC",29210,34.046026935,-81.0802593509999,192,"2111 DRIFTWOOD DR, COLUMBIA, SC, 29210","Match","Exact","2111 DRIFTWOOD DR, COLUMBIA, SC, 29210",71817740,"R"
114693,"2111 DRUID OAKS NE","ATLANTA","GA",30329,33.8266768620001,-84.31581737,193,"2111 DRUID OAKS NE, ATLANTA, GA, 30329","Match","Exact","2111 DRUID OAKS NE, ATLANTA, GA, 30329",23390315,"R"
114694,"2111 DUMAINE ST  SUITE 204","NEW ORLEANS","LA",70116,29.9681349300001,-90.0756933119999,194,"2111 DUMAINE ST  SUITE 204, NEW ORLEANS, LA, 70116","Match","Exact","2111 DUMAINE ST, NEW ORLEANS, LA, 70116",191709640,"R"
114695,"2111 E BELTLINE RD 152B","DALLAS","TX",75081,NA,NA,195,"2111 E BELTLINE RD 152B, DALLAS, TX, 75081","No_Match",NA,NA,NA,NA
114696,"2111 E HIGHLAND STE 240","PHOENIX","AZ",85016,NA,NA,196,"2111 E HIGHLAND STE 240, PHOENIX, AZ, 85016","No_Match",NA,NA,NA,NA
114697,"2111 E LAMAR ROAD","PHOENIX","AZ",85016,33.536522088,-112.035701787,197,"2111 E LAMAR ROAD, PHOENIX, AZ, 85016","Match","Exact","2111 E LAMAR RD, PHOENIX, AZ, 85016",128208107,"R"
114698,"2111 EISENHOWER AVE SUITE 406","ALEXANDRIA","VA",22314,38.8007797710001,-77.065991158,198,"2111 EISENHOWER AVE SUITE 406, ALEXANDRIA, VA, 22314","Match","Exact","2111 EISENHOWER AVE, ALEXANDRIA, VA, 22314",76063047,"L"
114699,"2111 EISENHOWER AVENUE SUITE 300","ALEXANDRIA","VA",22314,38.8007797710001,-77.065991158,199,"2111 EISENHOWER AVENUE SUITE 300, ALEXANDRIA, VA, 22314","Match","Exact","2111 EISENHOWER AVE, ALEXANDRIA, VA, 22314",76063047,"L"
114700,"2111 FLUSHING RD","FLINT","MI",48504,43.0204466320001,-83.717395847,200,"2111 FLUSHING RD, FLINT, MI, 48504","Match","Exact","2111 FLUSHING RD, FLINT, MI, 48504",69565370,"L"
114701,"2111 FOLEY RD","HAVRE DE GRACE","MD",21078,39.572247191,-76.130905215,201,"2111 FOLEY RD, HAVRE DE GRACE, MD, 21078","Match","Exact","2111 FOLEY RD, HAVRE DE GRACE, MD, 21078",191646073,"R"
114702,"2111 FORT DAVIS STREET SE STE 102","WASHINGTON","DC",20020,38.8640791970001,-76.950397402,202,"2111 FORT DAVIS STREET SE STE 102, WASHINGTON, DC, 20020","Match","Exact","2111 FORT DAVIS ST SE, WASHINGTON, DC, 20020",76233743,"R"
114703,"2111 GOLFSIDE RD","YPSILANTI","MI",48197,42.2574464250001,-83.6611667939999,203,"2111 GOLFSIDE RD, YPSILANTI, MI, 48197","Match","Non_Exact","2111 GOLFSIDE DR, YPSILANTI, MI, 48197",624585797,"L"
114704,"2111 HANDEL AVE","HENDERSON","NV",89052,35.9781604140001,-115.079128958,204,"2111 HANDEL AVE, HENDERSON, NV, 89052","Match","Exact","2111 HANDEL AVE, HENDERSON, NV, 89052",202006347,"L"
114705,"2111 HERMOSA CT","LOMPOC","CA",93436,34.63285756,-120.481106962,205,"2111 HERMOSA CT, LOMPOC, CA, 93436","Match","Exact","2111 HERMOSA CT, LOMPOC, CA, 93436",108598541,"R"
114706,"2111 HYDE STREET SUITE 403","SAN FRANCISCO","CA",94109,37.8002876620001,-122.4192708,206,"2111 HYDE STREET SUITE 403, SAN FRANCISCO, CA, 94109","Match","Exact","2111 HYDE ST, SAN FRANCISCO, CA, 94109",192280253,"L"
114707,"2111 JEFFERSON DAVIS HWY","ARLINGTON","VA",22202,NA,NA,207,"2111 JEFFERSON DAVIS HWY, ARLINGTON, VA, 22202","No_Match",NA,NA,NA,NA
114708,"2111 JETTY ROCK DRIVE 204","LAS VEGAS","NV",89128,36.1984433270001,-115.262982176,208,"2111 JETTY ROCK DRIVE 204, LAS VEGAS, NV, 89128","Match","Exact","2111 JETTY ROCK DR, LAS VEGAS, NV, 89128",201917710,"R"
114709,"2111 KASOLD DRIVE APT E203","LAWRENCE","KS",66047,38.9462219580001,-95.279134399,209,"2111 KASOLD DRIVE APT E203, LAWRENCE, KS, 66047","Match","Exact","2111 KASOLD DR, LAWRENCE, KS, 66047",17684146,"R"
114710,"2111 LAMOTTE ST","WILMINGTON","DE",19802,39.750775311,-75.538797001,210,"2111 LAMOTTE ST, WILMINGTON, DE, 19802","Match","Exact","2111 LAMOTTE ST, WILMINGTON, DE, 19802",187259022,"L"
114711,"2111 MAIN ST APT 2","SHARPSBURG","PA",15215,40.493615672,-79.9156565059999,211,"2111 MAIN ST APT 2, SHARPSBURG, PA, 15215","Match","Exact","2111 MAIN ST, SHARPSBURG, PA, 15215",51645903,"R"
114712,"2111 MEADOWS LANE","ANACORTES","WA",98221,48.5000923910001,-122.654429502,212,"2111 MEADOWS LANE, ANACORTES, WA, 98221","Match","Exact","2111 MEADOWS LN, ANACORTES, WA, 98221",183671720,"L"
114713,"2111 MELVIN ST","PHILADELPHIA","PA",19131,39.9856814120001,-75.239605329,213,"2111 MELVIN ST, PHILADELPHIA, PA, 19131","Match","Exact","2111 MELVIN ST, PHILADELPHIA, PA, 19131",131397204,"R"
114714,"2111 MIRAMAR BLVD","SOUTH EUCLID","OH",44121,41.5021345430001,-81.5313344259999,214,"2111 MIRAMAR BLVD, SOUTH EUCLID, OH, 44121","Match","Exact","2111 MIRAMAR BLVD, SOUTH EUCLID, OH, 44121",61125663,"L"
114715,"2111 N KEY BLVD APT NUM 984","ARLINGTON","VA",22201,38.8936946970001,-77.084994939,215,"2111 N KEY BLVD APT NUM 984, ARLINGTON, VA, 22201","Match","Non_Exact","2111 N KEY BLVD, ARLINGTON, VA, 22201",640766505,"R"
114716,"2111 NE 149TH AVE","VANCOUVER","WA",98687,45.637858173,-122.518406697,216,"2111 NE 149TH AVE, VANCOUVER, WA, 98687","Match","Non_Exact","2111 NE 149TH AVE, VANCOUVER, WA, 98684",158348104,"R"
114717,"2111 NORTH COMMERCE PARKWAY","WESTON","FL",33326,26.0955166310001,-80.3654853899999,217,"2111 NORTH COMMERCE PARKWAY, WESTON, FL, 33326","Match","Exact","2111 N COMMERCE PKWY, WESTON, FL, 33326",114789626,"L"
114718,"2111 NORTH HALSTED / SUITE 107","CHICAGO","IL",60614,41.920298508,-87.648575855,218,"2111 NORTH HALSTED / SUITE 107, CHICAGO, IL, 60614","Match","Non_Exact","2111 N HALSTED ST, CHICAGO, IL, 60614",111767045,"R"
114719,"2111 NW 7TH STREET","CAPE CORAL","FL",33993,26.665318846,-82.016429209,219,"2111 NW 7TH STREET, CAPE CORAL, FL, 33993","Match","Exact","2111 NW 7TH ST, CAPE CORAL, FL, 33993",117995784,"R"
114720,"2111 OAKBROOK DRIVE","BELVIDERE","IL",61008,42.2373321110001,-88.853943365,220,"2111 OAKBROOK DRIVE, BELVIDERE, IL, 61008","Match","Exact","2111 OAKBROOK DR, BELVIDERE, IL, 61008",92162931,"R"
114721,"2111 OLD HOLZWRATH RD APT 1504","SPRING","TX",77388,NA,NA,221,"2111 OLD HOLZWRATH RD APT 1504, SPRING, TX, 77388","No_Match",NA,NA,NA,NA
114722,"2111 PALOMAR AIRPORT ROAD SUITE 330","CARLSBAD","CA",92011,33.1250804650001,-117.275919643,222,"2111 PALOMAR AIRPORT ROAD SUITE 330, CARLSBAD, CA, 92011","Match","Exact","2111 PALOMAR AIRPORT RD, CARLSBAD, CA, 92011",195461426,"R"
114723,"2111 REBECCA CIRCLE","MONTGOMERY","IL",60538,41.7201185270001,-88.395555459,223,"2111 REBECCA CIRCLE, MONTGOMERY, IL, 60538","Match","Exact","2111 REBECCA CIR, MONTGOMERY, IL, 60538",646509575,"R"
114724,"2111 ROOSEVELT DRIVE","ARLINGTON","TX",76013,32.7095569040001,-97.1551960579999,224,"2111 ROOSEVELT DRIVE, ARLINGTON, TX, 76013","Match","Exact","2111 ROOSEVELT DR, ARLINGTON, TX, 76013",101906113,"L"
114725,"2111 ROSINA DR","MIAMISBURG","OH",45342,39.622114717,-84.2528075119999,225,"2111 ROSINA DR, MIAMISBURG, OH, 45342","Match","Exact","2111 ROSINA DR, MIAMISBURG, OH, 45342",143599921,"R"
114726,"2111 S EASTGATE","SPRINGFIELD","MO",65809,37.174462971,-93.2229431389999,226,"2111 S EASTGATE, SPRINGFIELD, MO, 65809","Match","Non_Exact","2111 S EASTGATE AVE, SPRINGFIELD, MO, 65809",76704757,"R"
114727,"2111 S LIPSCOMB","AMARILLO","TX",79109,35.1907345180001,-101.853351604,227,"2111 S LIPSCOMB, AMARILLO, TX, 79109","Match","Non_Exact","2111 S LIPSCOMB ST, AMARILLO, TX, 79109",182471550,"L"
114728,"2111 S MESSICK RD","N BLOOMFIELD","OH",44450,NA,NA,228,"2111 S MESSICK RD, N BLOOMFIELD, OH, 44450","No_Match",NA,NA,NA,NA
114729,"2111 S SECOND AVE","DALLAS","TX",75210,32.77121485,-96.7563658939999,229,"2111 S SECOND AVE, DALLAS, TX, 75210","Match","Exact","2111 S 2ND AVE, DALLAS, TX, 75210",102920771,"R"
114730,"2111 SAN PABLO AVE  BOX 2812","BERKELEY","CA",94702,37.8677063530001,-122.291635634,230,"2111 SAN PABLO AVE  BOX 2812, BERKELEY, CA, 94702","Match","Exact","2111 SAN PABLO AVE, BERKELEY, CA, 94702",606071237,"L"
114731,"2111 SAWMILL CREEK RD","SITKA","AK",99835,57.045527984,-135.28490319,231,"2111 SAWMILL CREEK RD, SITKA, AK, 99835","Match","Exact","2111 SAWMILL CREEK RD, SITKA, AK, 99835",191276884,"L"
114732,"2111 SE 36TH TERRACE","GAINESVILLE","FL",32641,29.63213696,-82.279531462,232,"2111 SE 36TH TERRACE, GAINESVILLE, FL, 32641","Match","Non_Exact","2111 SE 36TH ST, GAINESVILLE, FL, 32641",6810528,"L"
114733,"2111 SHEEK ROAD","GREENWOOD","IN",46143,39.5875661360001,-86.0782282609999,233,"2111 SHEEK ROAD, GREENWOOD, IN, 46143","Match","Exact","2111 SHEEK RD, GREENWOOD, IN, 46143",606988017,"R"
114734,"2111 SMITHTOWN AVE UNIT 1","RONKONKOMA","NY",11779,40.7960051920001,-73.110714152,234,"2111 SMITHTOWN AVE UNIT 1, RONKONKOMA, NY, 11779","Match","Exact","2111 SMITHTOWN AVE, RONKONKOMA, NY, 11779",647300907,"R"
114735,"2111 SOUTH 19TH STREET","PHILADELPHIA","PA",19145,39.925189448,-75.1777041729999,235,"2111 SOUTH 19TH STREET, PHILADELPHIA, PA, 19145","Match","Exact","2111 S 19TH ST, PHILADELPHIA, PA, 19145",131411192,"L"
114736,"2111 SPRAY ST  UNIT 3","SAN DIEGO","CA",92107,32.752623155,-117.251387265,236,"2111 SPRAY ST  UNIT 3, SAN DIEGO, CA, 92107","Match","Exact","2111 SPRAY ST, SAN DIEGO, CA, 92107",195682765,"R"
114737,"2111 STATE ROUTE 203","CHATHAM","NY",12037,42.369736591,-73.6211950159999,237,"2111 STATE ROUTE 203, CHATHAM, NY, 12037","Match","Exact","2111 STATE RTE 203, CHATHAM, NY, 12037",41499597,"L"
114738,"2111 STONINGTON CT","NAPERVILLE","IL",60564,41.7252458200001,-88.1893754129999,238,"2111 STONINGTON CT, NAPERVILLE, IL, 60564","Match","Exact","2111 STONINGTON CT, NAPERVILLE, IL, 60564",111585330,"L"
114739,"2111 SUMMIT OVERLOOK WAY","CUMMING","GA",30041,NA,NA,239,"2111 SUMMIT OVERLOOK WAY, CUMMING, GA, 30041","No_Match",NA,NA,NA,NA
114740,"2111 W 18TH STREET N","WITCHITA","KS",67203,37.716480188,-97.365647387,240,"2111 W 18TH STREET N, WITCHITA, KS, 67203","Match","Non_Exact","2111 W 18TH ST N, WICHITA, KS, 67203",115633399,"L"
114741,"2111 W 96TH STREET","LOS ANGELES","CA",90047,33.94909611,-118.31550445,241,"2111 W 96TH STREET, LOS ANGELES, CA, 90047","Match","Exact","2111 W 96TH ST, LOS ANGELES, CA, 90047",141658771,"R"
114742,"2111 W BALMORAL AVE","CHICAGO","IL",60625,41.9796234890001,-87.682336528,242,"2111 W BALMORAL AVE, CHICAGO, IL, 60625","Match","Exact","2111 W BALMORAL AVE, CHICAGO, IL, 60625",111760320,"L"
114743,"2111 W MARCH LN STE B201","STOCKTON","CA",95207,37.9863934030001,-121.332362482,243,"2111 W MARCH LN STE B201, STOCKTON, CA, 95207","Match","Non_Exact","2111 W MARCH LN, STOCKTON, CA, 95207",133847208,"R"
114744,"2111 WEST MARCH LANE SUITE B100","STOCKTON","CA",95207,37.9863969310001,-121.33234893,244,"2111 WEST MARCH LANE SUITE B100, STOCKTON, CA, 95207","Match","Exact","2111 W MARCH LN, STOCKTON, CA, 95207",133847208,"R"
114745,"2111 WEST OAK STREET","LOUISVILLE","KY",40210,38.237335553,-85.7888784419999,245,"2111 WEST OAK STREET, LOUISVILLE, KY, 40210","Match","Exact","2111 W OAK ST, LOUISVILLE, KY, 40210",96843044,"R"
114746,"2111 WILSON BOULEVARD 8TH FLOOR","ARLINGTON","VA",22201,38.8915466660001,-77.085015056,246,"2111 WILSON BOULEVARD 8TH FLOOR, ARLINGTON, VA, 22201","Match","Exact","2111 WILSON BLVD, ARLINGTON, VA, 22201",641691665,"R"
114747,"2111 WOODVIEW RD","FINKSBURG","MD",21048,39.546951876,-76.921729596,247,"2111 WOODVIEW RD, FINKSBURG, MD, 21048","Match","Exact","2111 WOODVIEW RD, FINKSBURG, MD, 21048",61753716,"R"
114748,"2111 WOODWARD AVENUE SUITE 604","DETROIT","MI",48201,42.337768371,-83.0514174369999,248,"2111 WOODWARD AVENUE SUITE 604, DETROIT, MI, 48201","Match","Exact","2111 WOODWARD AVE, DETROIT, MI, 48201",95479870,"L"
114749,"21110 E LONGWOOD DR","QUEEN CREEK","AZ",85142,33.275138703,-111.628686582,249,"21110 E LONGWOOD DR, QUEEN CREEK, AZ, 85142","Match","Exact","21110 E LONGWOOD DR, QUEEN CREEK, AZ, 85142",652499367,"L"
114750,"21110 N BASILDON CT","HOUSTON","TX",77073,29.999505126,-95.4136563389999,250,"21110 N BASILDON CT, HOUSTON, TX, 77073","Match","Exact","21110 N BASILDON CT, HOUSTON, TX, 77073",624516094,"L"
114751,"21111  DOLORES ST SPC 78","CARSON","CA",90745,33.838204682,-118.272370651,251,"21111  DOLORES ST SPC 78, CARSON, CA, 90745","Match","Exact","21111 DOLORES ST, CARSON, CA, 90745",141681268,"R"
114752,"21111 17TH  AVE  CT  E","SPANAWAY","WA",98387,47.06528109,-122.405942444,252,"21111 17TH  AVE  CT  E, SPANAWAY, WA, 98387","Match","Exact","21111 17TH AVENUE CT E, SPANAWAY, WA, 98387",184660255,"R"
114753,"21111 CANYON OAK WAY","CUPERTINO","CA",95014,37.327668637,-122.077187423,253,"21111 CANYON OAK WAY, CUPERTINO, CA, 95014","Match","Exact","21111 CANYON OAK WAY, CUPERTINO, CA, 95014",123017322,"L"
114754,"21111 CARIBOU AVE","APPLE VALLEY","CA",92308,34.4546067040001,-117.202851009,254,"21111 CARIBOU AVE, APPLE VALLEY, CA, 92308","Match","Exact","21111 CARIBOU AVE, APPLE VALLEY, CA, 92308",144593295,"R"
114755,"21111 ROYAL CROSSING DRIVE","KINGWOOD","TX",77339,NA,NA,255,"21111 ROYAL CROSSING DRIVE, KINGWOOD, TX, 77339","No_Match",NA,NA,NA,NA
114756,"21113 ASPEN AVENUE","CASTRO VALLEY","CA",94546,37.693302954,-122.068737217,256,"21113 ASPEN AVENUE, CASTRO VALLEY, CA, 94546","Match","Exact","21113 ASPEN AVE, CASTRO VALLEY, CA, 94546",606047469,"R"
114757,"21113 GRAND LAKE CT","COLD SPRING","MN",56320,45.4293445850001,-94.3297681989999,257,"21113 GRAND LAKE CT, COLD SPRING, MN, 56320","Match","Exact","21113 GRAND LAKE CT, COLD SPRING, MN, 56320",649189471,"L"
114758,"21113 JOHNSON STREET STE 118","PEMBROKE PINES","FL",33029,26.015084528,-80.43097484,258,"21113 JOHNSON STREET STE 118, PEMBROKE PINES, FL, 33029","Match","Exact","21113 JOHNSON ST, PEMBROKE PINES, FL, 33029",114771509,"R"
114759,"21113 KENMARE DR","SHOREWOOD DR","IL",60404,41.4993730030001,-88.212634938,259,"21113 KENMARE DR, SHOREWOOD DR, IL, 60404","Match","Non_Exact","21113 KENMARE DR, SHOREWOOD, IL, 60404",111628967,"L"
114760,"21113 KENMARE DR","SHOREWOOD","IL",60404,41.4993730030001,-88.212634938,260,"21113 KENMARE DR, SHOREWOOD, IL, 60404","Match","Exact","21113 KENMARE DR, SHOREWOOD, IL, 60404",111628967,"L"
114761,"21113 RIVERROAD","GEYSERVILLE","CA",95441,NA,NA,261,"21113 RIVERROAD, GEYSERVILLE, CA, 95441","No_Match",NA,NA,NA,NA
114762,"21114 LILAC LANE","CLINTON TWP","MI",48036,42.5967315680001,-82.9072625049999,262,"21114 LILAC LANE, CLINTON TWP, MI, 48036","Match","Exact","21114 LILAC LN, CLINTON TOWNSHIP, MI, 48036",625192812,"L"
114763,"21114 MERRIDY STREET","CHATSWORTH","CA",91311,34.2522690690001,-118.593145606,263,"21114 MERRIDY STREET, CHATSWORTH, CA, 91311","Match","Exact","21114 MERRIDY ST, CHATSWORTH, CA, 91311",141532890,"L"
114764,"21115 ATLANTIC AVE","WARREN","MI",48091,42.450939283,-83.052456104,264,"21115 ATLANTIC AVE, WARREN, MI, 48091","Match","Exact","21115 ATLANTIC AVE, WARREN, MI, 48091",110670667,"L"
114765,"21115 CORNELIUS ST","CORNELIUS","NC",28031,35.492771696,-80.8618250769999,265,"21115 CORNELIUS ST, CORNELIUS, NC, 28031","Match","Exact","21115 CORNELIUS ST, CORNELIUS, NC, 28031",70468433,"R"
114766,"21115 S 221ST PLACE","QUEEN CREEK","AZ",85142,33.2566296890001,-111.606045208,266,"21115 S 221ST PLACE, QUEEN CREEK, AZ, 85142","Match","Exact","21115 S 221ST PL, QUEEN CREEK, AZ, 85142",627183772,"R"
114767,"21115 WHEATON LN","NOVI","MI",48375,42.442269094,-83.465953253,267,"21115 WHEATON LN, NOVI, MI, 48375","Match","Exact","21115 WHEATON LN, NOVI, MI, 48375",69782522,"R"
114768,"21115 WINDING PATH WAY","RICHMOND","TX",77406,29.654062115,-95.745875827,268,"21115 WINDING PATH WAY, RICHMOND, TX, 77406","Match","Exact","21115 WINDING PATH WAY, RICHMOND, TX, 77406",625667765,"L"
114769,"21116 LOCUST DRIVE","LOS GATOS","CA",95033,37.162557738,-121.972598855,269,"21116 LOCUST DRIVE, LOS GATOS, CA, 95033","Match","Exact","21116 LOCUST DR, LOS GATOS, CA, 95033",640601493,"L"
114770,"21117 S SANTA FE AVE","CARSON","CA",90810,33.837866471,-118.214698167,270,"21117 S SANTA FE AVE, CARSON, CA, 90810","Match","Exact","21117 S SANTA FE AVE, CARSON, CA, 90810",141684880,"R"
114771,"21117 WICK ROAD","TAYLOR","MI",48180,42.2418158200001,-83.2426528409999,271,"21117 WICK ROAD, TAYLOR, MI, 48180","Match","Exact","21117 WICK RD, TAYLOR, MI, 48180",95699115,"L"
114772,"21119 WORTHAM OAKS DRIVE","HUMBLE","TX",77338,30.0198180530001,-95.310529002,272,"21119 WORTHAM OAKS DRIVE, HUMBLE, TX, 77338","Match","Exact","21119 WORTHAM OAKS DR, HUMBLE, TX, 77338",640068180,"R"
114773,"2112 109TH ST S","TACOMA","WA",98444,47.1588505670001,-122.465011988,273,"2112 109TH ST S, TACOMA, WA, 98444","Match","Exact","2112 109TH ST S, TACOMA, WA, 98444",184739415,"R"
114774,"2112 141ST STREET","LUBBOCK","TX",79423,33.4658665470001,-101.863501174,274,"2112 141ST STREET, LUBBOCK, TX, 79423","Match","Exact","2112 141ST ST, LUBBOCK, TX, 79423",652501214,"L"
114775,"2112 19TH STREET NW APT 1","WASHINGTON","DC",20009,38.9179753180001,-77.0443282639999,275,"2112 19TH STREET NW APT 1, WASHINGTON, DC, 20009","Match","Exact","2112 19TH ST NW, WASHINGTON, DC, 20009",76222735,"L"
114776,"2112 49 AND ONE HALF LANE NW","ROCHESTER","MN",55901,NA,NA,276,"2112 49 AND ONE HALF LANE NW, ROCHESTER, MN, 55901","No_Match",NA,NA,NA,NA
114777,"2112 57TH AVE","OAKLAND","CA",94621,37.769889811,-122.196271706,277,"2112 57TH AVE, OAKLAND, CA, 94621","Match","Exact","2112 57TH AVE, OAKLAND, CA, 94621",125008008,"R"
114778,"2112 ADAIR STREET","SAN MARINO","CA",91108,34.117458974,-118.107370013,278,"2112 ADAIR STREET, SAN MARINO, CA, 91108","Match","Exact","2112 ADAIR ST, SAN MARINO, CA, 91108",141633781,"R"
114779,"2112 AMBER HILL ROAD","BATAVIA","OH",45103,39.161826666,-84.1673529669999,279,"2112 AMBER HILL ROAD, BATAVIA, OH, 45103","Match","Exact","2112 AMBER HILL RD, BATAVIA, OH, 45103",118463021,"R"
114780,"2112 ARBOR PARK DR","WINTER PARK","FL",32789,28.617430008,-81.328725139,280,"2112 ARBOR PARK DR, WINTER PARK, FL, 32789","Match","Exact","2112 ARBOR PARK DR, WINTER PARK, FL, 32789",94327107,"R"
114781,"2112 AUTUMN RUN","FORT WAYNE","IN",46845,41.1899273340001,-85.1145938289999,281,"2112 AUTUMN RUN, FORT WAYNE, IN, 46845","Match","Exact","2112 AUTUMN RUN, FORT WAYNE, IN, 46845",6393807,"L"
114782,"2112 BALBOA AVE SUITE 10","SAN DIEGO","CA",92109,32.8007545990001,-117.23101064,282,"2112 BALBOA AVE SUITE 10, SAN DIEGO, CA, 92109","Match","Exact","2112 BALBOA AVE, SAN DIEGO, CA, 92109",195303220,"L"
114783,"2112 BENJAMIN CREEK DR","LITTLE ELM","TX",75068,33.204535735,-96.926442206,283,"2112 BENJAMIN CREEK DR, LITTLE ELM, TX, 75068","Match","Exact","2112 BENJAMIN CREEK DR, LITTLE ELM, TX, 75068",641488223,"L"
114784,"2112 CHAPARRAL ROAD","AZLE","TX",76020,32.8535751490001,-97.554577117,284,"2112 CHAPARRAL ROAD, AZLE, TX, 76020","Match","Exact","2112 CHAPARRAL RD, AZLE, TX, 76020",103597281,"R"
114785,"2112 CRANBERRY WOODS CT","CHARLOTTE","NC",28208,35.254073357,-80.918780313,285,"2112 CRANBERRY WOODS CT, CHARLOTTE, NC, 28208","Match","Exact","2112 CRANBERRY WOODS CT, CHARLOTTE, NC, 28208",624283588,"L"
114786,"2112 CROCKETT STREET","HOUSTON","TX",77007,29.7736796620001,-95.3794547749999,286,"2112 CROCKETT STREET, HOUSTON, TX, 77007","Match","Exact","2112 CROCKETT ST, HOUSTON, TX, 77007",96065753,"R"
114787,"2112 CYPRESS STREET","PENSACOLA","FL",32502,30.402854072,-87.2429548269999,287,"2112 CYPRESS STREET, PENSACOLA, FL, 32502","Match","Exact","2112 CYPRESS ST, PENSACOLA, FL, 32502",93284181,"R"
114788,"2112 DEERFIELD DRIVE","LAKELAND","FL",33813,27.992161938,-81.926436306,288,"2112 DEERFIELD DRIVE, LAKELAND, FL, 33813","Match","Exact","2112 DEERFIELD DR, LAKELAND, FL, 33813",104813026,"L"
114789,"2112 DIPLOMAT","EDINBURG","TX",78542,26.2757629990001,-98.125166763,289,"2112 DIPLOMAT, EDINBURG, TX, 78542","Match","Non_Exact","2112 DIPLOMAT DR, EDINBURG, TX, 78542",643669181,"L"
114790,"2112 DOLPHIN DRIVE","MARATHON","FL",33050,24.7275114620001,-81.0571447,290,"2112 DOLPHIN DRIVE, MARATHON, FL, 33050","Match","Exact","2112 DOLPHIN DR, MARATHON, FL, 33050",116473398,"L"
114791,"2112 DORADO DR","MISSION","TX",78572,26.2458942750001,-98.285216095,291,"2112 DORADO DR, MISSION, TX, 78572","Match","Non_Exact","2112 DORADO DR, MISSION, TX, 78573",627557869,"L"
114792,"2112 E 4TH ST STE 220","SANTA ANA","CA",92705,NA,NA,292,"2112 E 4TH ST STE 220, SANTA ANA, CA, 92705","No_Match",NA,NA,NA,NA
114793,"2112 E FORTH ST SUITE 210","SANTA ANA","CA",92705,NA,NA,293,"2112 E FORTH ST SUITE 210, SANTA ANA, CA, 92705","No_Match",NA,NA,NA,NA
114794,"2112 E STOCKWELL STREET","COMPTON","CA",90222,33.9098517850001,-118.233239231,294,"2112 E STOCKWELL STREET, COMPTON, CA, 90222","Match","Exact","2112 E STOCKWELL ST, COMPTON, CA, 90222",141675128,"R"
114795,"2112 ENSENADA STREET","LEMON GROVE","CA",91945,32.727830323,-117.029807905,295,"2112 ENSENADA STREET, LEMON GROVE, CA, 91945","Match","Exact","2112 ENSENADA ST, LEMON GROVE, CA, 91945",195360014,"L"
114796,"2112 F STREET 504","WASHINGTON","DC",20037,NA,NA,296,"2112 F STREET 504, WASHINGTON, DC, 20037","No_Match",NA,NA,NA,NA
114797,"2112 FISHER TRL NE","ATLANTA","GA",30345,33.8456619460001,-84.3041471989999,297,"2112 FISHER TRL NE, ATLANTA, GA, 30345","Match","Exact","2112 FISHER TRL NE, ATLANTA, GA, 30345",650981629,"L"
114798,"2112 HARTFORD LANE","GENEVA","IL",60134,41.8879244940001,-88.3342243829999,298,"2112 HARTFORD LANE, GENEVA, IL, 60134","Match","Exact","2112 HARTFORD LN, GENEVA, IL, 60134",119506106,"L"
114799,"2112 HARVEST WAY","MANSFIELD","TX",76063,32.595089183,-97.140771173,299,"2112 HARVEST WAY, MANSFIELD, TX, 76063","Match","Exact","2112 HARVEST WAY, MANSFIELD, TX, 76063",101957143,"R"
114800,"2112 HAVENTREE COURT","LAWRENCEVILLE","GA",30043,33.9883613310001,-84.07840816,300,"2112 HAVENTREE COURT, LAWRENCEVILLE, GA, 30043","Match","Exact","2112 HAVENTREE CT, LAWRENCEVILLE, GA, 30043",646829764,"L"
114801,"2112 KEMPER LN APT 2","CINCINNATI","OH",45206,39.119806774,-84.487310894,301,"2112 KEMPER LN APT 2, CINCINNATI, OH, 45206","Match","Exact","2112 KEMPER LN, CINCINNATI, OH, 45206",103926405,"R"
114802,"2112 KENILWORTH PL","LOUISVILLE","KY",40205,38.2287284560001,-85.6977028109999,302,"2112 KENILWORTH PL, LOUISVILLE, KY, 40205","Match","Exact","2112 KENILWORTH PL, LOUISVILLE, KY, 40205",96892888,"R"
114803,"2112 KOLO PLACE","WAILUKU","HI",96793,20.8810793930001,-156.502866699,303,"2112 KOLO PLACE, WAILUKU, HI, 96793","Match","Exact","2112 KOLO PL, WAILUKU, HI, 96793",85059223,"R"
114804,"2112 LIBERTY STREET","ERIE","PA",16502,42.109644341,-80.093217395,304,"2112 LIBERTY STREET, ERIE, PA, 16502","Match","Exact","2112 LIBERTY ST, ERIE, PA, 16502",117494588,"R"
114805,"2112 LINDEN AVE","MISHAWAKA","IN",46544,41.664975758,-86.144799782,305,"2112 LINDEN AVE, MISHAWAKA, IN, 46544","Match","Exact","2112 LINDEN AVE, MISHAWAKA, IN, 46544",8063534,"L"
114806,"2112 LITTLE AFRICA ROAD","CHESNEE","SC",29323,35.1698589580001,-82.021835529,306,"2112 LITTLE AFRICA ROAD, CHESNEE, SC, 29323","Match","Exact","2112 LITTLE AFRICA RD, CHESNEE, SC, 29323",19499847,"L"
114807,"2112 MAPLE STREET","GREENSBORO","NC",27405,36.1003849300001,-79.776575813,307,"2112 MAPLE STREET, GREENSBORO, NC, 27405","Match","Exact","2112 MAPLE ST, GREENSBORO, NC, 27405",131031270,"R"
114808,"2112 MARYLAND AVENUE NE APT 202","WASHINGTON","DC",20002,38.904677319,-76.972250699,308,"2112 MARYLAND AVENUE NE APT 202, WASHINGTON, DC, 20002","Match","Exact","2112 MARYLAND AVE NE, WASHINGTON, DC, 20002",76231312,"L"
114809,"2112 MARYLAND AVENUE NE SUITE 202","WASHINGTON","DC",20002,38.904677319,-76.972250699,309,"2112 MARYLAND AVENUE NE SUITE 202, WASHINGTON, DC, 20002","Match","Exact","2112 MARYLAND AVE NE, WASHINGTON, DC, 20002",76231312,"L"
114810,"2112 MIDWOOD PLACE","CHARLOTTE","NC",28205,35.2264912380001,-80.8041996379999,310,"2112 MIDWOOD PLACE, CHARLOTTE, NC, 28205","Match","Exact","2112 MIDWOOD PL, CHARLOTTE, NC, 28205",70480351,"R"
114811,"2112 MYRTLEWOOD CIRCLE EAST","PALM BEACH GARDENS","FL",33418,26.872692866,-80.104960217,311,"2112 MYRTLEWOOD CIRCLE EAST, PALM BEACH GARDENS, FL, 33418","Match","Exact","2112 MYRTLEWOOD CIR E, PALM BEACH GARDENS, FL, 33418",115544518,"R"
114812,"2112 N 175 W","SUNSET","UT",84015,41.1443668260001,-112.029525333,312,"2112 N 175 W, SUNSET, UT, 84015","Match","Exact","2112 N 175 W, SUNSET, UT, 84015",155327798,"L"
114813,"2112 N PALMER STREET","MILWAUKEE","WI",53212,43.0580070680001,-87.909685783,313,"2112 N PALMER STREET, MILWAUKEE, WI, 53212","Match","Exact","2112 N PALMER ST, MILWAUKEE, WI, 53212",77744334,"R"
114814,"2112 N THOMAS AVE","NEWTON","NC",28658,35.684619087,-81.2137666099999,314,"2112 N THOMAS AVE, NEWTON, NC, 28658","Match","Exact","2112 N THOMAS AVE, NEWTON, NC, 28658",45909663,"L"
114815,"2112 NE 154 STREET","STARKE","FL",32091,29.940981084,-82.078399911,315,"2112 NE 154 STREET, STARKE, FL, 32091","Match","Exact","2112 NE 154TH ST, STARKE, FL, 32091",651751818,"L"
114816,"2112 NE 68TH ST","FORT LAUDERDALE","FL",33308,26.2102998770001,-80.1168047739999,316,"2112 NE 68TH ST, FORT LAUDERDALE, FL, 33308","Match","Exact","2112 NE 68TH ST, FORT LAUDERDALE, FL, 33308",114723795,"R"
114817,"2112 NEW HAMPSIHRE AVE NW APT 717","WASHINGTON","DC",20009,NA,NA,317,"2112 NEW HAMPSIHRE AVE NW APT 717, WASHINGTON, DC, 20009","No_Match",NA,NA,NA,NA
114818,"2112 NORTH DUKE STREET","DURHAM","NC",27704,36.024255404,-78.905529958,318,"2112 NORTH DUKE STREET, DURHAM, NC, 27704","Match","Exact","2112 N DUKE ST, DURHAM, NC, 27704",71738950,"R"
114819,"2112 NW 21 STREET","MIAMI","FL",33142,25.7954960650001,-80.22984127,319,"2112 NW 21 STREET, MIAMI, FL, 33142","Match","Exact","2112 NW 21ST ST, MIAMI, FL, 33142",116011345,"L"
114820,"2112 NW 214TH","BROOKER","AL",32622,NA,NA,320,"2112 NW 214TH, BROOKER, AL, 32622","No_Match",NA,NA,NA,NA
114821,"2112 NW KLICKITAT ST","CAMAS","WA",98607,45.5941783160001,-122.446071664,321,"2112 NW KLICKITAT ST, CAMAS, WA, 98607","Match","Exact","2112 NW KLICKITAT ST, CAMAS, WA, 98607",618477408,"R"
114822,"2112 PRESTON PLACE","DENTON","TX",76209,33.2345468180001,-97.124097896,322,"2112 PRESTON PLACE, DENTON, TX, 76209","Match","Exact","2112 PRESTON PL, DENTON, TX, 76209",103339702,"L"
114823,"2112 REDGATE DR","SUFFOLK","VA",23434,36.7511907840001,-76.55770389,323,"2112 REDGATE DR, SUFFOLK, VA, 23434","Match","Exact","2112 REDGATE DR, SUFFOLK, VA, 23434",635828734,"R"
114824,"2112 REEF DRIVE","ST AUGUSTINE","FL",32080,29.8566962350001,-81.2828839909999,324,"2112 REEF DRIVE, ST AUGUSTINE, FL, 32080","Match","Exact","2112 REEF DR, SAINT AUGUSTINE, FL, 32080",92586987,"R"
114825,"2112 RIO GRANDE ST","AUSTIN","TX",78705,30.284263362,-97.745044653,325,"2112 RIO GRANDE ST, AUSTIN, TX, 78705","Match","Exact","2112 RIO GRANDE ST, AUSTIN, TX, 78705",63942693,"L"
114826,"2112 RIVERWALK PKWY","COLORADO SPRINGS","CO",80951,38.864317978,-104.676982307,326,"2112 RIVERWALK PKWY, COLORADO SPRINGS, CO, 80951","Match","Exact","2112 RIVERWALK PKWY, COLORADO SPRINGS, CO, 80951",627902209,"L"
114827,"2112 ROY ST","HOUSTON","TX",77007,29.7785808240001,-95.412637229,327,"2112 ROY ST, HOUSTON, TX, 77007","Match","Exact","2112 ROY ST, HOUSTON, TX, 77007",96060278,"R"
114828,"2112 S 66TH ST","PHILADELPHIA","PA",19142,39.925635873,-75.236687376,328,"2112 S 66TH ST, PHILADELPHIA, PA, 19142","Match","Exact","2112 S 66TH ST, PHILADELPHIA, PA, 19142",131409006,"R"
114829,"2112 S IZARD","LITTLE ROCK","AR",72206,34.7286817020001,-92.283500352,329,"2112 S IZARD, LITTLE ROCK, AR, 72206","Match","Non_Exact","2112 S IZARD ST, LITTLE ROCK, AR, 72206",83511091,"R"
114830,"2112 S LAKE PLEASANT RD","ATTICA","MI",48412,43.000828051,-83.164402826,330,"2112 S LAKE PLEASANT RD, ATTICA, MI, 48412","Match","Exact","2112 S LAKE PLEASANT RD, ATTICA, MI, 48412",110459369,"L"
114831,"2112 S US HIGHWAY 1 STE 201","FORT PIERCE","FL",34950,NA,NA,331,"2112 S US HIGHWAY 1 STE 201, FORT PIERCE, FL, 34950","No_Match",NA,NA,NA,NA
114832,"2112 SANDPIPER COURT","PONTE VEDRA BEACH","FL",32082,30.2473167300001,-81.3966801399999,332,"2112 SANDPIPER COURT, PONTE VEDRA BEACH, FL, 32082","Match","Exact","2112 SANDPIPER CT, PONTE VEDRA BEACH, FL, 32082",92599978,"L"
114833,"2112 SGT ALFRED DR","SLIDELL","LA",70458,30.2749563100001,-89.780461594,333,"2112 SGT ALFRED DR, SLIDELL, LA, 70458","Match","Exact","2112 SGT ALFRED DR, SLIDELL, LA, 70458",637857185,"R"
114834,"2112 SINGER WAY","LITHONIA","GA",30058,33.731395182,-84.153785552,334,"2112 SINGER WAY, LITHONIA, GA, 30058","Match","Exact","2112 SINGER WAY, LITHONIA, GA, 30058",23375115,"L"
114835,"2112 SOMERS AVE","BURLINGTON","NC",27215,36.103762063,-79.475991736,335,"2112 SOMERS AVE, BURLINGTON, NC, 27215","Match","Exact","2112 SOMERS AVE, BURLINGTON, NC, 27215",71661355,"L"
114836,"2112 SUMMER RAY NW","ALBUQUERQUE","NM",87120,35.1077161150001,-106.708754529,336,"2112 SUMMER RAY NW, ALBUQUERQUE, NM, 87120","Match","Non_Exact","2112 SUMMER RAY DR NW, ALBUQUERQUE, NM, 87120",206766253,"L"
114837,"2112 SUNNYVALE DRIVE","PENNSBURG","PA",18073,40.401258795,-75.4839262959999,337,"2112 SUNNYVALE DRIVE, PENNSBURG, PA, 18073","Match","Exact","2112 SUNNYVALE DR, PENNSBURG, PA, 18073",648130041,"L"
114838,"2112 W BUSCH BLVD","TAMPA","FL",33612,28.0333662990001,-82.4807667429999,338,"2112 W BUSCH BLVD, TAMPA, FL, 33612","Match","Exact","2112 W BUSCH BLVD, TAMPA, FL, 33612",104514750,"L"
114839,"2112 W MERGANSER","NORTH LAS VEGAS","NV",89084,36.2794379110001,-115.171941284,339,"2112 W MERGANSER, NORTH LAS VEGAS, NV, 89084","Match","Non_Exact","2112 MERGANSER CT, N LAS VEGAS, NV, 89084",612992335,"R"
114840,"2112 W WESTWARD AVE","BANNING","CA",92220,33.9180114160001,-116.899984259,340,"2112 W WESTWARD AVE, BANNING, CA, 92220","Match","Exact","2112 W WESTWARD AVE, BANNING, CA, 92220",194720151,"L"
114841,"21120 HIGHLAND LAKES BOULEVARD","MIAMI","FL",33179,25.970148522,-80.161557864,341,"21120 HIGHLAND LAKES BOULEVARD, MIAMI, FL, 33179","Match","Exact","21120 HIGHLAND LAKES BLVD, MIAMI, FL, 33179",116034953,"L"
114842,"21120 NW 28TH COURT","MIAMI GARDENS","FL",33056,25.968297486,-80.249654032,342,"21120 NW 28TH COURT, MIAMI GARDENS, FL, 33056","Match","Exact","21120 NW 28TH CT, MIAMI GARDENS, FL, 33056",116026037,"R"
114843,"21121 SW 85 AVE STE 106","CUTLER BAY","FL",33189,25.572147774,-80.326511089,343,"21121 SW 85 AVE STE 106, CUTLER BAY, FL, 33189","Match","Non_Exact","21121 SW 85TH AVE, CUTLER BAY, FL, 33189",116324699,"L"
114844,"21122 320TH ST","SIOUX CITY","IA",51108,42.591046922,-96.410044237,344,"21122 320TH ST, SIOUX CITY, IA, 51108","Match","Exact","21122 320TH ST, SIOUX CITY, IA, 51108",651776087,"R"
114845,"21122 COUNTY ROAD 81 NW","BIG LAKE","MN",55309,45.35356546,-93.787643552,345,"21122 COUNTY ROAD 81 NW, BIG LAKE, MN, 55309","Match","Non_Exact","21122 CO RD 81, BIG LAKE, MN, 55309",97771707,"R"
114846,"21122 COVERDALE ROAD","BRIDGEVILLE","DE",19933,38.691822874,-75.54994154,346,"21122 COVERDALE ROAD, BRIDGEVILLE, DE, 19933","Match","Exact","21122 COVERDALE RD, BRIDGEVILLE, DE, 19933",106083842,"L"
114847,"21122 HILLSIDE DRIVE","TOPANGA","CA",90290,34.106666508,-118.594112502,347,"21122 HILLSIDE DRIVE, TOPANGA, CA, 90290","Match","Exact","21122 HILLSIDE DR, TOPANGA, CA, 90290",142835612,"L"
114848,"21122 LOCKHAVEN CIRCLE","HUNTINGTON BEACH","CA",92646,33.655666771,-117.955916864,348,"21122 LOCKHAVEN CIRCLE, HUNTINGTON BEACH, CA, 92646","Match","Exact","21122 LOCKHAVEN CIR, HUNTINGTON BEACH, CA, 92646",144045159,"L"
114849,"21122 VILLA VALENCIA","SAN ANTONIO","TX",78258,29.6376739350001,-98.488531602,349,"21122 VILLA VALENCIA, SAN ANTONIO, TX, 78258","Match","Exact","21122 VILLA VALENCIA, SAN ANTONIO, TX, 78258",619993371,"R"
114850,"21124 MAIN STREET","SHADE GAP","PA",17255,40.1810887560001,-77.8658753459999,350,"21124 MAIN STREET, SHADE GAP, PA, 17255","Match","Exact","21124 MAIN ST, SHADE GAP, PA, 17255",633896257,"L"
114851,"21125 547TH AVENUE","MANKATO","MN",56001,44.1533850600001,-94.089135428,351,"21125 547TH AVENUE, MANKATO, MN, 56001","Match","Exact","21125 547TH AVE, MANKATO, MN, 56001",28097558,"R"
114852,"21125 E FORT BOWIE DR","WALNUT","CA",91789,34.052315955,-117.841980757,352,"21125 E FORT BOWIE DR, WALNUT, CA, 91789","Match","Exact","21125 E FORT BOWIE DR, WALNUT, CA, 91789",651713604,"L"
114853,"21125 GOLF ESTATE DRIVE","LAYTONSVILLE","MD",20882,39.2044406270001,-77.13084157,353,"21125 GOLF ESTATE DRIVE, LAYTONSVILLE, MD, 20882","Match","Non_Exact","21125 GOLF ESTATES DR, LAYTONSVILLE, MD, 20882",62052012,"L"
114854,"21126 VIRGINIA PINE TER","GERMANTOWN","MD",20876,39.206369914,-77.24111156,354,"21126 VIRGINIA PINE TER, GERMANTOWN, MD, 20876","Match","Exact","21126 VIRGINIA PINE TER, GERMANTOWN, MD, 20876",62097044,"L"
114855,"21128 BELLINI DRIVE","TOPANGA","CA",90290,34.135202071,-118.593400563,355,"21128 BELLINI DRIVE, TOPANGA, CA, 90290","Match","Exact","21128 BELLINI DR, TOPANGA, CA, 90290",141536230,"R"
114856,"21129 NORTH STREET","EUCLID","OH",44117,41.571281266,-81.533001981,356,"21129 NORTH STREET, EUCLID, OH, 44117","Match","Exact","21129 NORTH ST, EUCLID, OH, 44117",61124395,"L"
114857,"2113 ARCHES PARK DRIVE","Allen","TX",75013,33.1275216180001,-96.686962404,357,"2113 ARCHES PARK DRIVE, Allen, TX, 75013","Match","Exact","2113 ARCHES PARK DR, ALLEN, TX, 75013",210520585,"L"
114858,"2113 BUTTERNUT LANE","MIDLAND","TX",79705,32.021371722,-102.065476432,358,"2113 BUTTERNUT LANE, MIDLAND, TX, 79705","Match","Exact","2113 BUTTERNUT LN, MIDLAND, TX, 79705",139596654,"L"
114859,"2113 CARROLL PLACE","TAMPA","FL",33612,28.047763839,-82.481221698,359,"2113 CARROLL PLACE, TAMPA, FL, 33612","Match","Exact","2113 CARROLL PL, TAMPA, FL, 33612",104618145,"R"
114860,"2113 CLUB VISTA PLACE","LOUISVILLE","KY",40245,38.267311401,-85.4821811689999,360,"2113 CLUB VISTA PLACE, LOUISVILLE, KY, 40245","Match","Exact","2113 CLUB VISTA PL, LOUISVILLE, KY, 40245",96883166,"R"
114861,"2113 COMICE COURT","INDEPENDENCE","KY",41051,38.9531270850001,-84.5344160769999,361,"2113 COMICE COURT, INDEPENDENCE, KY, 41051","Match","Exact","2113 COMICE CT, INDEPENDENCE, KY, 41051",210779304,"R"
114862,"2113 CREEKDALE COURT","SANDSTON","VA",23150,37.525736722,-77.297623765,362,"2113 CREEKDALE COURT, SANDSTON, VA, 23150","Match","Exact","2113 CREEKDALE CT, SANDSTON, VA, 23150",230998106,"R"
114863,"2113 CULLEOKA HWY","CULLEOKA","TN",38451,35.495842399,-86.98674912,363,"2113 CULLEOKA HWY, CULLEOKA, TN, 38451","Match","Exact","2113 CULLEOKA HWY, CULLEOKA, TN, 38451",625118873,"R"
114864,"2113 E RIO SALADO PKWY","TEMPE","AZ",85281,33.4293403630001,-111.896887777,364,"2113 E RIO SALADO PKWY, TEMPE, AZ, 85281","Match","Exact","2113 E RIO SALADO PKWY, TEMPE, AZ, 85281",128922954,"R"
114865,"2113 GLEN MANOR RD","CORINTH","TX",76208,33.147758153,-97.044967943,365,"2113 GLEN MANOR RD, CORINTH, TX, 76208","Match","Exact","2113 GLEN MANOR RD, CORINTH, TX, 76208",218068032,"R"
114866,"2113 GREENHEATH DR","FLORISSANT","MO",63033,38.8121093500001,-90.313423612,366,"2113 GREENHEATH DR, FLORISSANT, MO, 63033","Match","Exact","2113 GREENHEATH DR, FLORISSANT, MO, 63033",100143629,"L"
114867,"2113 GREENLEAF ST STE 6","EVANSTON","IL",60202,42.037444452,-87.702620473,367,"2113 GREENLEAF ST STE 6, EVANSTON, IL, 60202","Match","Exact","2113 GREENLEAF ST, EVANSTON, IL, 60202",636324675,"R"
114868,"2113 GULF BLVD","INDIAN ROCKS BEACH","FL",33785,27.9032143360001,-82.847569299,368,"2113 GULF BLVD, INDIAN ROCKS BEACH, FL, 33785","Match","Exact","2113 GULF BLVD, INDIAN ROCKS BEACH, FL, 33785",124663138,"R"
114869,"2113 HARWOOD RD  STE 309 PO BOX 730","BEDFORD","TX",76021,NA,NA,369,"2113 HARWOOD RD  STE 309 PO BOX 730, BEDFORD, TX, 76021","No_Match",NA,NA,NA,NA
114870,"2113 HARWOOD RD STE 309-1033","BEDFORD","TX",76021,NA,NA,370,"2113 HARWOOD RD STE 309-1033, BEDFORD, TX, 76021","No_Match",NA,NA,NA,NA
114871,"2113 HAZELWOOD DRIVE 203","URBANA","IL",61801,40.0901532930001,-88.2123834989999,371,"2113 HAZELWOOD DRIVE 203, URBANA, IL, 61801","Match","Exact","2113 HAZELWOOD DR, URBANA, IL, 61801",8813380,"R"
114872,"2113 HIAWATHA DRIVE E","WABASHA","MN",55981,44.3675193020001,-92.018072307,372,"2113 HIAWATHA DRIVE E, WABASHA, MN, 55981","Match","Exact","2113 HIAWATHA DR E, WABASHA, MN, 55981",637407682,"R"
114873,"2113 HUNTINGTON PL","PONCA CITY","OK",74604,36.741581007,-97.056080084,373,"2113 HUNTINGTON PL, PONCA CITY, OK, 74604","Match","Exact","2113 HUNTINGTON PL, PONCA CITY, OK, 74604",115903869,"L"
114874,"2113 JACKSON ST","WILMINGTON","NC",28401,34.2001783810001,-77.945958541,374,"2113 JACKSON ST, WILMINGTON, NC, 28401","Match","Exact","2113 JACKSON ST, WILMINGTON, NC, 28401",152760625,"L"
114875,"2113 JENNINGS ST","CHARLOTTE","NC",28216,35.2634522980001,-80.846948003,375,"2113 JENNINGS ST, CHARLOTTE, NC, 28216","Match","Exact","2113 JENNINGS ST, CHARLOTTE, NC, 28216",70477249,"L"
114876,"2113 KIMBERLY STREET","ALEXANDRIA","LA",71301,31.272888729,-92.472519956,376,"2113 KIMBERLY STREET, ALEXANDRIA, LA, 71301","Match","Exact","2113 KIMBERLY ST, ALEXANDRIA, LA, 71301",11780711,"L"
114877,"2113 LONGHUNTER CHASE DR","SPRING HILL","TN",37174,35.7201764640001,-86.886604986,377,"2113 LONGHUNTER CHASE DR, SPRING HILL, TN, 37174","Match","Exact","2113 LONGHUNTER CHASE DR, SPRING HILL, TN, 37174",645114646,"L"
114878,"2113 LORETTA LN","ROWLETT","TX",75088,32.882389647,-96.5213943749999,378,"2113 LORETTA LN, ROWLETT, TX, 75088","Match","Exact","2113 LORETTA LN, ROWLETT, TX, 75088",102981085,"R"
114879,"2113 MARLBORO STREET","HOOVER","AL",35226,33.4325752440001,-86.822349963,379,"2113 MARLBORO STREET, HOOVER, AL, 35226","Match","Exact","2113 MARLBORO ST, HOOVER, AL, 35226",81582285,"L"
114880,"2113 MARSHALLS LANE SE","ATLANTA","GA",30316,33.728466037,-84.324653423,380,"2113 MARSHALLS LANE SE, ATLANTA, GA, 30316","Match","Non_Exact","2113 MARSHALLS LN, ATLANTA, GA, 30316",619385950,"L"
114881,"2113 MYSTIC WAVE RD","NORTH LAS VEGAS","NV",89031,NA,NA,381,"2113 MYSTIC WAVE RD, NORTH LAS VEGAS, NV, 89031","No_Match",NA,NA,NA,NA
114882,"2113 N DAVIDSON STREET","CHARLOTTE","NC",28205,NA,NA,382,"2113 N DAVIDSON STREET, CHARLOTTE, NC, 28205","No_Match",NA,NA,NA,NA
114883,"2113 N MADISON AVE","WICHITA","KS",67214,NA,NA,383,"2113 N MADISON AVE, WICHITA, KS, 67214","No_Match",NA,NA,NA,NA
114884,"2113 N PARK LANE","ROAMING SHORES","OH",44084,41.6460414590001,-80.821070778,384,"2113 N PARK LANE, ROAMING SHORES, OH, 44084","Match","Exact","2113 N PARK LN, ROAMING SHORES, OH, 44084",117317775,"R"
114885,"2113 N TOBIN DR","FLORENCE","SC",29115,34.232716291,-79.787040632,385,"2113 N TOBIN DR, FLORENCE, SC, 29115","Match","Non_Exact","2113 N TOBIN DR, FLORENCE, SC, 29501",28912742,"L"
114886,"2113 PORTSMOUTH AVE","WESTCHESTER","IL",60154,41.8502928790001,-87.873218403,386,"2113 PORTSMOUTH AVE, WESTCHESTER, IL, 60154","Match","Exact","2113 PORTSMOUTH AVE, WESTCHESTER, IL, 60154",605137198,"L"
114887,"2113 RANGEVIEW DR","PUEBLO","CO",81008,38.314920129,-104.63577054,387,"2113 RANGEVIEW DR, PUEBLO, CO, 81008","Match","Exact","2113 RANGEVIEW DR, PUEBLO, CO, 81008",105064943,"L"
114888,"2113 SALINA STREET","AUSTIN","TX",78722,30.2818469440001,-97.722638342,388,"2113 SALINA STREET, AUSTIN, TX, 78722","Match","Exact","2113 SALINA ST, AUSTIN, TX, 78722",63946824,"R"
114889,"2113 SERPAS LN","SAINT BERNARD","LA",70085,29.869387842,-89.8768238709999,389,"2113 SERPAS LN, SAINT BERNARD, LA, 70085","Match","Non_Exact","2113 SERPAS DR, SAINT BERNARD, LA, 70085",111188809,"L"
114890,"2113 SHERIDAN DRIVE","NORFOLK","NE",68701,42.054285237,-97.436609485,390,"2113 SHERIDAN DRIVE, NORFOLK, NE, 68701","Match","Exact","2113 SHERIDAN DR, NORFOLK, NE, 68701",161573138,"L"
114891,"2113 SIDNEY ST","SAINT LOUIS","MO",63104,38.6040642240001,-90.2191464969999,391,"2113 SIDNEY ST, SAINT LOUIS, MO, 63104","Match","Exact","2113 SIDNEY ST, SAINT LOUIS, MO, 63104",107602599,"R"
114892,"2113 SLOAN STREET","MAPLEWOOD","MN",55117,45.0046426740001,-93.0876510589999,392,"2113 SLOAN STREET, MAPLEWOOD, MN, 55117","Match","Exact","2113 SLOAN ST, MAPLEWOOD, MN, 55117",97643348,"L"
114893,"2113 SPEEDWELL COURT","CHARLOTTE","NC",28213,35.3079569180001,-80.707192877,393,"2113 SPEEDWELL COURT, CHARLOTTE, NC, 28213","Match","Exact","2113 SPEEDWELL CT, CHARLOTTE, NC, 28213",70557984,"L"
114894,"2113 THORNBURY LN","ALLEN","TX",75013,33.131352614,-96.672877606,394,"2113 THORNBURY LN, ALLEN, TX, 75013","Match","Non_Exact","2113 N THORNBURY LN, ALLEN, TX, 75013",625672821,"L"
114895,"2113 TRADING FORD DRIVE","WAXHAW","NC",28173,34.96203173,-80.740433803,395,"2113 TRADING FORD DRIVE, WAXHAW, NC, 28173","Match","Exact","2113 TRADING FORD DR, WAXHAW, NC, 28173",618498969,"L"
114896,"2113 VESTAVIA LAKE DRIVE","VESTAVIA HILLS","AL",35216,33.4454364810001,-86.784784718,396,"2113 VESTAVIA LAKE DRIVE, VESTAVIA HILLS, AL, 35216","Match","Exact","2113 VESTAVIA LAKE DR, VESTAVIA HILLS, AL, 35216",81713659,"R"
114897,"2113 VIRGINIA ST","LAWRENCE","KS",66046,38.946307007,-95.244052107,397,"2113 VIRGINIA ST, LAWRENCE, KS, 66046","Match","Exact","2113 VIRGINIA ST, LAWRENCE, KS, 66046",17684914,"R"
114898,"2113 W GLADYS AVE UNIT 4S","CHICAGO","IL",60612,41.8769051890001,-87.680228169,398,"2113 W GLADYS AVE UNIT 4S, CHICAGO, IL, 60612","Match","Exact","2113 GLADYS AVE, CHICAGO, IL, 60612",605013908,"R"
114899,"2113 WELLS BRANCH PKWY SUITE 4000","AUSTIN","TX",78728,30.4364088500001,-97.683780761,399,"2113 WELLS BRANCH PKWY SUITE 4000, AUSTIN, TX, 78728","Match","Exact","2113 WELLS BRANCH PKWY, AUSTIN, TX, 78728",641658989,"L"
114900,"2113 WESTERN AVE SUITE 5","GUILDERLAND","NY",12084,42.698966494,-73.894198592,400,"2113 WESTERN AVE SUITE 5, GUILDERLAND, NY, 12084","Match","Exact","2113 WESTERN AVE, GUILDERLAND, NY, 12084",18303381,"R"
114901,"2113 WESTON AVENUE","SCHOFIELD","WI",54476,44.887362753,-89.597631248,401,"2113 WESTON AVENUE, SCHOFIELD, WI, 54476","Match","Exact","2113 WESTON AVE, SCHOFIELD, WI, 54476",117164506,"R"
114902,"2113 WOODBRIDGE WAY","LEXINGTON","KY",40515,37.9514100150001,-84.484981029,402,"2113 WOODBRIDGE WAY, LEXINGTON, KY, 40515","Match","Exact","2113 WOODBRIDGE WAY, LEXINGTON, KY, 40515",31934251,"L"
114903,"2113 WORCHESTER","MEMPHIS","TN",38134,35.183036617,-89.851837454,403,"2113 WORCHESTER, MEMPHIS, TN, 38134","Match","Non_Exact","2113 WORCHESTER LN, MEMPHIS, TN, 38134",72925849,"L"
114904,"21130 BUDLONG AVE","TORRANCE","CA",90502,33.838075627,-118.295612783,404,"21130 BUDLONG AVE, TORRANCE, CA, 90502","Match","Non_Exact","21130 S BUDLONG AVE, TORRANCE, CA, 90502",141669311,"L"
114905,"21130 FLORAL BAY DR N","FOREST LAKE","MN",55025,45.2559390270001,-92.995188066,405,"21130 FLORAL BAY DR N, FOREST LAKE, MN, 55025","Match","Exact","21130 FLORAL BAY DR N, FOREST LAKE, MN, 55025",97804702,"L"
114906,"21131 LIGHTHILL DR","TOPANGA","CA",90290,34.1361614790001,-118.592862381,406,"21131 LIGHTHILL DR, TOPANGA, CA, 90290","Match","Exact","21131 LIGHTHILL DR, TOPANGA, CA, 90290",638699888,"L"
114907,"21131 NW 14TH PL UNIT 656","MIAMI","FL",33169,25.9706241010001,-80.227312247,407,"21131 NW 14TH PL UNIT 656, MIAMI, FL, 33169","Match","Non_Exact","21131 NW 14TH PL, MIAMI, FL, 33169",651140092,"L"
114908,"21135 SHAWNEETOWN ROAD","THOMPSONVILLE","IL",62890,37.918439113,-88.765208018,408,"21135 SHAWNEETOWN ROAD, THOMPSONVILLE, IL, 62890","Match","Exact","21135 SHAWNEETOWN RD, THOMPSONVILLE, IL, 62890",92954741,"R"
114909,"21136 CHARITY LANE","BEND","OR",97702,44.024026344,-121.266941105,409,"21136 CHARITY LANE, BEND, OR, 97702","Match","Exact","21136 CHARITY LN, BEND, OR, 97702",152579887,"L"
114910,"21136 HEDGEROW TER","ASHBURN","VA",20147,39.0295914270001,-77.489264514,410,"21136 HEDGEROW TER, ASHBURN, VA, 20147","Match","Exact","21136 HEDGEROW TER, ASHBURN, VA, 20147",62332516,"R"
114911,"21137 PLACERITA CANYON ROAD","NEWHALL","CA",91321,34.3809800830001,-118.50701146,411,"21137 PLACERITA CANYON ROAD, NEWHALL, CA, 91321","Match","Exact","21137 PLACERITA CANYON RD, NEWHALL, CA, 91321",648682788,"L"
114912,"2114 ARLEN COURT","ROCHERSTER","MN",99902,NA,NA,412,"2114 ARLEN COURT, ROCHERSTER, MN, 99902","No_Match",NA,NA,NA,NA
114913,"2114 AYRSLEY TOWN BLVD UNIT B","CHARLOTTE","NC",28273,35.1384657730001,-80.933551006,413,"2114 AYRSLEY TOWN BLVD UNIT B, CHARLOTTE, NC, 28273","Match","Exact","2114 AYRSLEY TOWN BLVD, CHARLOTTE, NC, 28273",639502013,"R"
114914,"2114 BERNVILLE RD","READING","PA",19601,40.367227217,-75.95777147,414,"2114 BERNVILLE RD, READING, PA, 19601","Match","Exact","2114 BERNVILLE RD, READING, PA, 19601",80374832,"R"
114915,"2114 CARDINAL LANE","FORT WORTH","TX",76111,32.787238084,-97.317230861,415,"2114 CARDINAL LANE, FORT WORTH, TX, 76111","Match","Exact","2114 CARDINAL LN, FORT WORTH, TX, 76111",101858165,"R"
114916,"2114 E FLORAL","FRESNO","CA",93725,36.576363298,-119.752255311,416,"2114 E FLORAL, FRESNO, CA, 93725","Match","Non_Exact","2114 E FLORAL AVE, FRESNO, CA, 93725",197587357,"L"
114917,"2114 E SHEENA DR","PHOENIX","AZ",85022,33.6135922920001,-112.03797986,417,"2114 E SHEENA DR, PHOENIX, AZ, 85022","Match","Exact","2114 E SHEENA DR, PHOENIX, AZ, 85022",128184018,"L"
114918,"2114 FELLOWSHIP ROAD","TUCKER","GA",30084,33.846380491,-84.216747493,418,"2114 FELLOWSHIP ROAD, TUCKER, GA, 30084","Match","Exact","2114 FELLOWSHIP RD, TUCKER, GA, 30084",23406309,"L"
114919,"2114 FRERET STREET","NEW ORLEANS","LA",70113,29.9418655440001,-90.085988686,419,"2114 FRERET STREET, NEW ORLEANS, LA, 70113","Match","Exact","2114 FRERET ST, NEW ORLEANS, LA, 70113",191713581,"L"
114920,"2114 GUARANTY DR","NASHVILLE","TN",37214,36.169033171,-86.70421135,420,"2114 GUARANTY DR, NASHVILLE, TN, 37214","Match","Exact","2114 GUARANTY DR, NASHVILLE, TN, 37214",97223841,"L"
114921,"2114 HARDEE ROAD","KINSTON","NC",28504,35.2910922360001,-77.608304356,421,"2114 HARDEE ROAD, KINSTON, NC, 28504","Match","Exact","2114 HARDEE RD, KINSTON, NC, 28504",13875193,"L"
114922,"2114 JONES CIRCLE","NASHVILLE","TN",37207,36.2084544640001,-86.758710803,422,"2114 JONES CIRCLE, NASHVILLE, TN, 37207","Match","Exact","2114 JONES CIR, NASHVILLE, TN, 37207",97205099,"L"
114923,"2114 LIME AVENUE","LONG BEACH","CA",90806,33.795674853,-118.183913072,423,"2114 LIME AVENUE, LONG BEACH, CA, 90806","Match","Non_Exact","2114 N LIME AVE, LONG BEACH, CA, 90806",141686959,"R"
114924,"2114 MAIN ST 101","VANCOUVER","WA",98660,45.6374003390001,-122.671439496,424,"2114 MAIN ST 101, VANCOUVER, WA, 98660","Match","Exact","2114 MAIN ST, VANCOUVER, WA, 98660",158325445,"L"
114925,"2114 N 170 W APT 246","PROVO","UT",84604,40.2624065150001,-111.661124422,425,"2114 N 170 W APT 246, PROVO, UT, 84604","Match","Non_Exact","2114 N 170 W, PROVO, UT, 84604",134247987,"L"
114926,"2114 N FLAMINGO RD","PEMBROKE PINES","FL",33028,26.029198948,-80.312593218,426,"2114 N FLAMINGO RD, PEMBROKE PINES, FL, 33028","Match","Exact","2114 N FLAMINGO RD, PEMBROKE PINES, FL, 33028",637639831,"R"
114927,"2114 N FLAMINGO ROAD NUM 573","PEMBROKE PINES","FL",33028,26.029198948,-80.312593218,427,"2114 N FLAMINGO ROAD NUM 573, PEMBROKE PINES, FL, 33028","Match","Non_Exact","2114 N FLAMINGO RD, PEMBROKE PINES, FL, 33028",637639831,"R"
114928,"2114 N FLAMINGO ROAD SUITE 1181","PEMBROKE PINES","FL",33028,26.029198948,-80.312593218,428,"2114 N FLAMINGO ROAD SUITE 1181, PEMBROKE PINES, FL, 33028","Match","Non_Exact","2114 N FLAMINGO RD, PEMBROKE PINES, FL, 33028",637639831,"R"
114929,"2114 N FLAMINGO ROAD SUITE 2011","PEMBROKE PINES","FL",33028,26.029198948,-80.312593218,429,"2114 N FLAMINGO ROAD SUITE 2011, PEMBROKE PINES, FL, 33028","Match","Non_Exact","2114 N FLAMINGO RD, PEMBROKE PINES, FL, 33028",637639831,"R"
114930,"2114 NORTH FLAMINGO ROAD UNIT 644","PEMBROKE PINES","FL",33028,26.0291983490001,-80.3125932039999,430,"2114 NORTH FLAMINGO ROAD UNIT 644, PEMBROKE PINES, FL, 33028","Match","Exact","2114 N FLAMINGO RD, PEMBROKE PINES, FL, 33028",637639831,"R"
114931,"2114 NORTHWEST AVENUE B","SEMINOLE","TX",79360,32.71916241,-102.669188797,431,"2114 NORTHWEST AVENUE B, SEMINOLE, TX, 79360","Match","Exact","2114 NW AVE B, SEMINOLE, TX, 79360",139492997,"R"
114932,"2114 PEBBLE BEACH PL","PANAMA CITY BEACH","FL",32408,30.164103255,-85.753665933,432,"2114 PEBBLE BEACH PL, PANAMA CITY BEACH, FL, 32408","Match","Exact","2114 PEBBLE BEACH PL, PANAMA CITY BEACH, FL, 32408",7039883,"L"
114933,"2114 PORTERFIELD WAY","UPLAND","CA",91786,NA,NA,433,"2114 PORTERFIELD WAY, UPLAND, CA, 91786","No_Match",NA,NA,NA,NA
114934,"2114 RICE PLANTERS ROAD","CHARLOTTE","NC",28273,35.1444957680001,-80.960753505,434,"2114 RICE PLANTERS ROAD, CHARLOTTE, NC, 28273","Match","Exact","2114 RICE PLANTERS RD, CHARLOTTE, NC, 28273",70517311,"L"
114935,"2114 RIDGEMORE DRIVE","HOUSTON","TX",77055,29.8112675780001,-95.4943513279999,435,"2114 RIDGEMORE DRIVE, HOUSTON, TX, 77055","Match","Exact","2114 RIDGEMORE DR, HOUSTON, TX, 77055",96026429,"R"
114936,"2114 RIDING CROP WAY","WINDSOR MILL","MD",21244,39.311286984,-76.778623277,436,"2114 RIDING CROP WAY, WINDSOR MILL, MD, 21244","Match","Exact","2114 RIDING CROP WAY, WINDSOR MILL, MD, 21244",635885752,"L"
114937,"2114 RIVER RIDGE ROAD","ARLINGTON","TX",76017,32.6663499310001,-97.143485117,437,"2114 RIVER RIDGE ROAD, ARLINGTON, TX, 76017","Match","Exact","2114 RIVER RIDGE RD, ARLINGTON, TX, 76017",101942182,"L"
114938,"2114 ROSLYN AVE","DISTRICT HEIGHTS","MD",20747,38.8606393920001,-76.87297148,438,"2114 ROSLYN AVE, DISTRICT HEIGHTS, MD, 20747","Match","Exact","2114 ROSLYN AVE, DISTRICT HEIGHTS, MD, 20747",76318326,"L"
114939,"2114 S 71ST","PHILADELPHIA","PA",19142,39.920008442,-75.24362142,439,"2114 S 71ST, PHILADELPHIA, PA, 19142","Match","Non_Exact","2114 S 71ST ST, PHILADELPHIA, PA, 19142",131408517,"R"
114940,"2114 S LARKIN AVE","FRESNO","CA",93727,36.7215863530001,-119.696091139,440,"2114 S LARKIN AVE, FRESNO, CA, 93727","Match","Exact","2114 S LARKIN AVE, FRESNO, CA, 93727",627014800,"L"
114941,"2114 SCOVILLE AVENUE","BERWYN","IL",60402,41.851945933,-87.787261668,441,"2114 SCOVILLE AVENUE, BERWYN, IL, 60402","Match","Exact","2114 SCOVILLE AVE, BERWYN, IL, 60402",605123872,"R"
114942,"2114 SE CARUTHERS ST APT 6","PORTLAND","OR",97214,45.505523456,-122.644255409,442,"2114 SE CARUTHERS ST APT 6, PORTLAND, OR, 97214","Match","Non_Exact","2114 SE CARUTHERS ST, PORTLAND, OR, 97214",157509222,"R"
114943,"2114 SPICEWOOD DR","ALLEN","TX",75013,33.1307457880001,-96.6662895869999,443,"2114 SPICEWOOD DR, ALLEN, TX, 75013","Match","Exact","2114 SPICEWOOD DR, ALLEN, TX, 75013",625671344,"R"
114944,"2114 TREEWOOD LANE","SAN JOSE","CA",95132,37.4151494390001,-121.870077395,444,"2114 TREEWOOD LANE, SAN JOSE, CA, 95132","Match","Exact","2114 TREEWOOD LN, SAN JOSE, CA, 95132",122962082,"R"
114945,"2114 TUCKER AVENUE","PASCAGOULA","MS",39567,30.362360757,-88.5419831849999,445,"2114 TUCKER AVENUE, PASCAGOULA, MS, 39567","Match","Exact","2114 TUCKER AVE, PASCAGOULA, MS, 39567",89252982,"R"
114946,"2114 VILLAGE LANE","CALERA","AL",35040,33.162624034,-86.7199830489999,446,"2114 VILLAGE LANE, CALERA, AL, 35040","Match","Exact","2114 VILLAGE LN, CALERA, AL, 35040",618096793,"R"
114947,"2114 W APACHE TRAIL SUITE 1 BOX 145","APACHE JUNCTION","AZ",85120,NA,NA,447,"2114 W APACHE TRAIL SUITE 1 BOX 145, APACHE JUNCTION, AZ, 85120","No_Match",NA,NA,NA,NA
114948,"2114 W LEGENDS WAY","ANTHEM","AZ",85086,33.8707545680001,-112.104913695,448,"2114 W LEGENDS WAY, ANTHEM, AZ, 85086","Match","Exact","2114 W LEGENDS WAY, ANTHEM, AZ, 85086",128856766,"R"
114949,"2114 WALNUT RIDGE COURT","FREDERICK","MD",21702,39.4438373950001,-77.4452606,449,"2114 WALNUT RIDGE COURT, FREDERICK, MD, 21702","Match","Exact","2114 WALNUT RIDGE CT, FREDERICK, MD, 21702",60707567,"R"
114950,"2114 WEDGEWOOD COURT","AUBURN","AL",36830,32.652822429,-85.523045085,450,"2114 WEDGEWOOD COURT, AUBURN, AL, 36830","Match","Non_Exact","2114 WEDGEWOOD CT, AUBURN, AL, 36879",1609443,"R"
114951,"21140 DENKER AVENUE","TORRANCE","CA",90501,33.837031466,-118.303880297,451,"21140 DENKER AVENUE, TORRANCE, CA, 90501","Match","Exact","21140 DENKER AVE, TORRANCE, CA, 90501",142690663,"L"
114952,"21140 GUMINA RD","BROOKFIELD","WI",53072,43.085895502,-88.173021982,452,"21140 GUMINA RD, BROOKFIELD, WI, 53072","Match","Exact","21140 GUMINA RD, BROOKFIELD, WI, 53072",601203881,"R"
114953,"21141 GOVERNORS HWY SUITE 102","MATTESON","IL",60443,41.5052081210001,-87.7131091529999,453,"21141 GOVERNORS HWY SUITE 102, MATTESON, IL, 60443","Match","Exact","21141 GOVERNORS HWY, MATTESON, IL, 60443",636323826,"L"
114954,"21142 ASHFIELD AVE","CASTRO VALLEY","CA",94546,37.692020342,-122.078548502,454,"21142 ASHFIELD AVE, CASTRO VALLEY, CA, 94546","Match","Exact","21142 ASHFIELD AVE, CASTRO VALLEY, CA, 94546",125015380,"L"
114955,"21143 HAWTHORNE BL STE 344","TORRANCE","CA",90503,33.8369859540001,-118.35360617,455,"21143 HAWTHORNE BL STE 344, TORRANCE, CA, 90503","Match","Exact","21143 HAWTHORNE BLVD, TORRANCE, CA, 90503",241196916,"L"
114956,"21143 HAWTHORNE BLVD SUITE 493","TORRANCE","CA",90503,33.8369859540001,-118.35360617,456,"21143 HAWTHORNE BLVD SUITE 493, TORRANCE, CA, 90503","Match","Exact","21143 HAWTHORNE BLVD, TORRANCE, CA, 90503",241196916,"L"
114957,"21143 HAWTHORNE BLVD SUITE 901","TORRANCE","CA",90503,33.8369859540001,-118.35360617,457,"21143 HAWTHORNE BLVD SUITE 901, TORRANCE, CA, 90503","Match","Exact","21143 HAWTHORNE BLVD, TORRANCE, CA, 90503",241196916,"L"
114958,"21143 HAWTHORNE BLVD UNIT 227","TORRANCE","CA",90503,33.8369859540001,-118.35360617,458,"21143 HAWTHORNE BLVD UNIT 227, TORRANCE, CA, 90503","Match","Exact","21143 HAWTHORNE BLVD, TORRANCE, CA, 90503",241196916,"L"
114959,"21143 HAWTHORNE BLVD UNIT 276","TORRANCE","CA",90503,33.8369859540001,-118.35360617,459,"21143 HAWTHORNE BLVD UNIT 276, TORRANCE, CA, 90503","Match","Exact","21143 HAWTHORNE BLVD, TORRANCE, CA, 90503",241196916,"L"
114960,"21143 HAWTHORNE BOULEVARD - 304","TORRANCE","CA",90503,33.8369859540001,-118.35360617,460,"21143 HAWTHORNE BOULEVARD - 304, TORRANCE, CA, 90503","Match","Exact","21143 HAWTHORNE BLVD, TORRANCE, CA, 90503",241196916,"L"
114961,"21145 SPRING PLAZA DRIVE SUITE 2106","SPRING","TX",77388,30.0783779330001,-95.442957223,461,"21145 SPRING PLAZA DRIVE SUITE 2106, SPRING, TX, 77388","Match","Exact","21145 SPRING PLAZA DR, SPRING, TX, 77388",646681329,"L"
114962,"21147 HIDEAWAY LN","SAINT ROBERT","MO",65584,37.850992864,-92.1379542339999,462,"21147 HIDEAWAY LN, SAINT ROBERT, MO, 65584","Match","Non_Exact","21147 HIDEAWAY, SAINT ROBERT, MO, 65584",651344960,"L"
114963,"2115 1/2 LAVERNA AVE","EAGLE ROCK","CA",90041,34.133084685,-118.214196731,463,"2115 1/2 LAVERNA AVE, EAGLE ROCK, CA, 90041","Match","Exact","2115 LAVERNA AVE, EAGLE ROCK, CA, 90041",142731893,"R"
114964,"2115 A QUAIL RUN","MCKINNEY","TX",75071,33.2176395760001,-96.646412246,464,"2115 A QUAIL RUN, MCKINNEY, TX, 75071","Match","Exact","2115 QUAIL RUN, MCKINNEY, TX, 75071",123491198,"R"
114965,"2115 AIRBORNE ST","FORT CAMPBELL","KY",42223,NA,NA,465,"2115 AIRBORNE ST, FORT CAMPBELL, KY, 42223","No_Match",NA,NA,NA,NA
114966,"2115 ALEXANDER WAY","PLEASANTON","CA",94588,37.6851196800001,-121.87276539,466,"2115 ALEXANDER WAY, PLEASANTON, CA, 94588","Match","Exact","2115 ALEXANDER WAY, PLEASANTON, CA, 94588",125017780,"L"
114967,"2115 ANDOVER BLVD NW","ANDOVER","MN",55304,NA,NA,467,"2115 ANDOVER BLVD NW, ANDOVER, MN, 55304","No_Match",NA,NA,NA,NA
114968,"2115 ANDOVER BLVD","ANDOVER","MN",55304,NA,NA,468,"2115 ANDOVER BLVD, ANDOVER, MN, 55304","No_Match",NA,NA,NA,NA
114969,"2115 ARCHES PARK DR","ALLEN","TX",75013,33.127436163,-96.687179294,469,"2115 ARCHES PARK DR, ALLEN, TX, 75013","Match","Exact","2115 ARCHES PARK DR, ALLEN, TX, 75013",210520585,"L"
114970,"2115 AVIATION DR","UPLAND","CA",91786,NA,NA,470,"2115 AVIATION DR, UPLAND, CA, 91786","No_Match",NA,NA,NA,NA
114971,"2115 BEARDEN STREET","DAVIS","CA",95618,38.56459929,-121.717119202,471,"2115 BEARDEN STREET, DAVIS, CA, 95618","Match","Exact","2115 BEARDEN ST, DAVIS, CA, 95618",67705252,"R"
114972,"2115 BEEBEE ST","SAN LUIS OBISPO","CA",93401,35.2708967190001,-120.667926202,472,"2115 BEEBEE ST, SAN LUIS OBISPO, CA, 93401","Match","Exact","2115 BEEBEE ST, SAN LUIS OBISPO, CA, 93401",109732499,"L"
114973,"2115 BRINKMAN ROAD","QUAKERTOWN","PA",18951,40.433077079,-75.4329761399999,473,"2115 BRINKMAN ROAD, QUAKERTOWN, PA, 18951","Match","Exact","2115 BRINKMAN RD, QUAKERTOWN, PA, 18951",134749646,"R"
114974,"2115 BURLINGTON COLUMBUS RD","FLORENCE","NJ",8505,40.079786563,-74.772489379,474,"2115 BURLINGTON COLUMBUS RD, FLORENCE, NJ, 8505","Match","Non_Exact","2115 BURLINGTON COLUMBUS RD, FIELDSBORO, NJ, 08505",134097496,"L"
114975,"2115 CANONGATE DRIVE","HOUSTON","TX",77056,29.7459259280001,-95.467590227,475,"2115 CANONGATE DRIVE, HOUSTON, TX, 77056","Match","Exact","2115 CANONGATE DR, HOUSTON, TX, 77056",96033188,"L"
114976,"2115 CITRUS BLVD","LEESBURG","FL",34748,28.8401151580001,-81.8936354369999,476,"2115 CITRUS BLVD, LEESBURG, FL, 34748","Match","Exact","2115 CITRUS BLVD, LEESBURG, FL, 34748",619835924,"L"
114977,"2115 CLAREMONT AVE","NORFOLK","VA",23507,36.8721640700001,-76.302653875,477,"2115 CLAREMONT AVE, NORFOLK, VA, 23507","Match","Exact","2115 CLAREMONT AVE, NORFOLK, VA, 23507",122122618,"L"
114978,"2115 CLEVELAND AVE","WEST LAWN","PA",19609,40.3253542670001,-75.9878180599999,478,"2115 CLEVELAND AVE, WEST LAWN, PA, 19609","Match","Exact","2115 CLEVELAND AVE, WEST LAWN, PA, 19609",80372413,"L"
114979,"2115 COHN STREET","HOUSTON","TX",77007,29.7784864720001,-95.422003678,479,"2115 COHN STREET, HOUSTON, TX, 77007","Match","Exact","2115 COHN ST, HOUSTON, TX, 77007",96060145,"L"
114980,"2115 COLLEGE ST APT 6","LAS CRUCES","NM",88001,32.28886935,-106.757980395,480,"2115 COLLEGE ST APT 6, LAS CRUCES, NM, 88001","Match","Exact","2115 COLLEGE ST, LAS CRUCES, NM, 88001",612728649,"L"
114981,"2115 CRESTWOOD TRL","MANSFIELD","TX",76063,32.5956045840001,-97.142266174,481,"2115 CRESTWOOD TRL, MANSFIELD, TX, 76063","Match","Exact","2115 CRESTWOOD TRL, MANSFIELD, TX, 76063",101957141,"L"
114982,"2115 CROZER ST NW","SALEM","OR",97304,44.936870137,-123.080101746,482,"2115 CROZER ST NW, SALEM, OR, 97304","Match","Exact","2115 CROZER ST NW, SALEM, OR, 97304",155779036,"R"
114983,"2115 E VALENCIA RD 181-2","TUCSON","AZ",85706,32.1341234600001,-110.940342949,483,"2115 E VALENCIA RD 181-2, TUCSON, AZ, 85706","Match","Non_Exact","2115 E VALENCIA RD, TUCSON, AZ, 85706",121186229,"L"
114984,"2115 EAST 35TH STREET","BROOKLYN","NY",11234,40.6073099760001,-73.929894888,484,"2115 EAST 35TH STREET, BROOKLYN, NY, 11234","Match","Exact","2115 E 35TH ST, BROOKLYN, NY, 11234",59092498,"L"
114985,"2115 ELMGATE DR","HOUSTON","TX",77080,29.809315446,-95.535784567,485,"2115 ELMGATE DR, HOUSTON, TX, 77080","Match","Exact","2115 ELMGATE DR, HOUSTON, TX, 77080",96025723,"L"
114986,"2115 EXECUTIVE DRIVE","HAMPTON","VA",23666,37.0484893390001,-76.397166243,486,"2115 EXECUTIVE DRIVE, HAMPTON, VA, 23666","Match","Exact","2115 EXECUTIVE DR, HAMPTON, VA, 23666",103807865,"L"
114987,"2115 G STREET NW","WASHINGTON","DC",20052,38.898329157,-77.047090732,487,"2115 G STREET NW, WASHINGTON, DC, 20052","Match","Non_Exact","2115 G ST NW, WASHINGTON, DC, 20037",76237250,"R"
114988,"2115 GARDEN STREET","AUSTIN","TX",78704,30.2534005590001,-97.723009145,488,"2115 GARDEN STREET, AUSTIN, TX, 78704","Match","Non_Exact","2115 GARDEN ST, AUSTIN, TX, 78702",63948564,"R"
114989,"2115 GATEWAY PLACE","RANCHO MISSION VIEJO","CA",92694,33.517453366,-117.618711614,489,"2115 GATEWAY PLACE, RANCHO MISSION VIEJO, CA, 92694","Match","Exact","2115 GATEWAY PL, RANCHO MISSION VIEJO, CA, 92694",648217777,"L"
114990,"2115 GOLD HAVEN COURT","GOLD RIVER","CA",95670,38.6223347220001,-121.240130883,490,"2115 GOLD HAVEN COURT, GOLD RIVER, CA, 95670","Match","Exact","2115 GOLD HAVEN CT, GOLD RIVER, CA, 95670",133386199,"L"
114991,"2115 GRAND AVENUE","GRAND JUNCTION","CO",81501,39.0701249620001,-108.540471981,491,"2115 GRAND AVENUE, GRAND JUNCTION, CO, 81501","Match","Exact","2115 GRAND AVE, GRAND JCT, CO, 81501",122433922,"R"
114992,"2115 GRAND AVENUE","LOUISVILLE","KY",40210,38.2401577910001,-85.788440271,492,"2115 GRAND AVENUE, LOUISVILLE, KY, 40210","Match","Exact","2115 GRAND AVE, LOUISVILLE, KY, 40210",96843014,"R"
114993,"2115 GREAT PRAIRIE LN","KATY","TX",77494,29.7541990390001,-95.7839364719999,493,"2115 GREAT PRAIRIE LN, KATY, TX, 77494","Match","Exact","2115 GREAT PRAIRIE LN, KATY, TX, 77494",640535397,"R"
114994,"2115 HAWTHORNE DRIVE","MARTINSVILLE","IN",46151,39.4308728680001,-86.3868979979999,494,"2115 HAWTHORNE DRIVE, MARTINSVILLE, IN, 46151","Match","Exact","2115 HAWTHORNE DR, MARTINSVILLE, IN, 46151",43570441,"R"
114995,"2115 KNICKERBOCKER DR","CHARLOTTE","NC",28212,35.178311782,-80.763855935,495,"2115 KNICKERBOCKER DR, CHARLOTTE, NC, 28212","Match","Exact","2115 KNICKERBOCKER DR, CHARLOTTE, NC, 28212",70492437,"L"
114996,"2115 LAWRENCE STREET","HOUSTON","TX",77008,29.8050521980001,-95.40805869,496,"2115 LAWRENCE STREET, HOUSTON, TX, 77008","Match","Exact","2115 LAWRENCE ST, HOUSTON, TX, 77008",96055242,"L"
114997,"2115 LINCOLN AVE","RAPID CITY","SD",57701,44.065449087,-103.21683268,497,"2115 LINCOLN AVE, RAPID CITY, SD, 57701","Match","Exact","2115 LINCOLN AVE, RAPID CITY, SD, 57701",205509900,"R"
114998,"2115 MARTIN LUTHER KING BLVD","HOPKINS","SC",29061,33.8624350050001,-80.867609172,498,"2115 MARTIN LUTHER KING BLVD, HOPKINS, SC, 29061","Match","Exact","2115 MARTIN LUTHER KING BLVD, HOPKINS, SC, 29061",619296812,"R"
114999,"2115 MOUSER LN","DALLAS","TX",75203,32.7389835450001,-96.792024424,499,"2115 MOUSER LN, DALLAS, TX, 75203","Match","Exact","2115 MOUSER LN, DALLAS, TX, 75203",102950752,"L"
115000,"2115 N CIRCLE DR","COLORADO SPRINGS","CO",80909,38.8629927480001,-104.775669368,500,"2115 N CIRCLE DR, COLORADO SPRINGS, CO, 80909","Match","Exact","2115 N CIRCLE DR, COLORADO SPRINGS, CO, 80909",610716210,"R"
