"ID","Address","City","State","Zip","lat","long","id","input_address","match_indicator","match_type","matched_address","tiger_line_id","tiger_side"
88501,"177 DINGLEY ISLAND ROAD","HARPSWELL","ME",4079,43.815833162,-69.8823885419999,1,"177 DINGLEY ISLAND ROAD, HARPSWELL, ME, 4079","Match","Exact","177 DINGLEY ISLAND RD, HARPSWELL, ME, 04079",78052465,"R"
88502,"177 DREISER LOOP RM 17","BRONX","NY",10475,40.877918429,-73.82953517,2,"177 DREISER LOOP RM 17, BRONX, NY, 10475","Match","Exact","177 DREISER LOOP, BRONX, NY, 10475",609938667,"L"
88503,"177 DUBLIN ROAD","JAFFREY","NH",3452,42.8403872150001,-72.0708355519999,3,"177 DUBLIN ROAD, JAFFREY, NH, 3452","Match","Exact","177 DUBLIN RD, JAFFREY, NH, 03452",124069298,"L"
88504,"177 E COLORADO BLVD","PASADENA","CA",91105,34.1457629080001,-118.153699476,4,"177 E COLORADO BLVD, PASADENA, CA, 91105","Match","Non_Exact","177 W COLORADO BLVD, PASADENA, CA, 91105",141629425,"R"
88505,"177 E STREET NW","ARDMORE","OK",73401,34.1759752,-97.133602283,5,"177 E STREET NW, ARDMORE, OK, 73401","Match","Exact","177 E ST NW, ARDMORE, OK, 73401",14828674,"L"
88506,"177 EAST AVE","SARATOGA SPRINGS","NY",12866,43.083578458,-73.7717308809999,6,"177 EAST AVE, SARATOGA SPRINGS, NY, 12866","Match","Exact","177 EAST AVE, SARATOGA SPGS, NY, 12866",18766513,"L"
88507,"177 EAST MAIN STREET","NEW ROCHELLE","NY",10801,40.9160095870001,-73.770224836,7,"177 EAST MAIN STREET, NEW ROCHELLE, NY, 10801","Match","Exact","177 E MAIN ST, NEW ROCHELLE, NY, 10801",139843062,"R"
88508,"177 EVAN DR NE","COMSTOCK PARK","MI",49321,43.0679903290001,-85.665048739,8,"177 EVAN DR NE, COMSTOCK PARK, MI, 49321","Match","Exact","177 EVAN DR NE, COMSTOCK PARK, MI, 49321",625605795,"L"
88509,"177 FINLEY AVE","STATEN ISLAND","NY",10306,40.562523453,-74.105094938,9,"177 FINLEY AVE, STATEN ISLAND, NY, 10306","Match","Exact","177 FINLEY AVE, STATEN ISLAND, NY, 10306",59868976,"R"
88510,"177 FLAT ROCK RD","TOCCOA","GA",30577,34.5906780060001,-83.3376030169999,10,"177 FLAT ROCK RD, TOCCOA, GA, 30577","Match","Exact","177 FLAT ROCK RD, TOCCOA, GA, 30577",97854350,"L"
88511,"177 FOREST STREET","SAUGUS","MA",1906,42.4832346090001,-71.0275374289999,11,"177 FOREST STREET, SAUGUS, MA, 1906","Match","Exact","177 FOREST ST, SAUGUS, MA, 01906",86718116,"R"
88512,"177 FREMONT LOOP","MOORESVILLE","NC",28115,35.546772699,-80.84187797,12,"177 FREMONT LOOP, MOORESVILLE, NC, 28115","Match","Exact","177 FREMONT LOOP, MOORESVILLE, NC, 28115",46009095,"L"
88513,"177 GLENWOOD AVE NO 312","MINNEAPOLIS","MN",55405,44.9790635630001,-93.284136641,13,"177 GLENWOOD AVE NO 312, MINNEAPOLIS, MN, 55405","Match","Non_Exact","177 GLENWOOD AVE, MINNEAPOLIS, MN, 55405",43663169,"L"
88514,"177 GORGAS AVE","FORT CAMPBELL","KY",42223,NA,NA,14,"177 GORGAS AVE, FORT CAMPBELL, KY, 42223","No_Match",NA,NA,NA,NA
88515,"177 GRANDVIEW DRIVE","LAKE OZARK","MO",65049,38.2076889910001,-92.6733579849999,15,"177 GRANDVIEW DRIVE, LAKE OZARK, MO, 65049","Match","Exact","177 GRANDVIEW DR, LAKE OZARK, MO, 65049",610867913,"L"
88516,"177 GREEN COVE","BRUNSWICK","FL",31525,NA,NA,16,"177 GREEN COVE, BRUNSWICK, FL, 31525","No_Match",NA,NA,NA,NA
88517,"177 HADLEY AVE","CLIFTON","NJ",7011,40.871284517,-74.143317376,17,"177 HADLEY AVE, CLIFTON, NJ, 7011","Match","Exact","177 HADLEY AVE, CLIFTON, NJ, 07011",65250874,"L"
88518,"177 HARDENBURGH AVENUE","DEMAREST","NJ",7627,40.956808891,-73.95948384,18,"177 HARDENBURGH AVENUE, DEMAREST, NJ, 7627","Match","Exact","177 HARDENBURGH AVE, DEMAREST, NJ, 07627",64440583,"L"
88519,"177 HAUGER ROAD","THETFORD","VT",5075,43.7976049100001,-72.24654896,19,"177 HAUGER ROAD, THETFORD, VT, 5075","Match","Non_Exact","177 HAUGER RD, THETFORD CTR, VT, 05075",649804983,"L"
88520,"177 HAYES AVE","SOUTH BURLINGTON","VT",5403,44.451584338,-73.1617343629999,20,"177 HAYES AVE, SOUTH BURLINGTON, VT, 5403","Match","Exact","177 HAYES AVE, S BURLINGTON, VT, 05403",640654307,"R"
88521,"177 HIDDEN LAKES TRL","JEFFERSON","GA",30549,34.1650806370001,-83.571267877,21,"177 HIDDEN LAKES TRL, JEFFERSON, GA, 30549","Match","Exact","177 HIDDEN LAKES TRL, JEFFERSON, GA, 30549",642925003,"L"
88522,"177 HILLCREST DRIVE","MT. VERNON","NY",10552,40.9265382620001,-73.809008212,22,"177 HILLCREST DRIVE, MT. VERNON, NY, 10552","Match","Non_Exact","177 HILLCREST RD, MOUNT VERNON, NY, 10552",139748973,"R"
88523,"177 HOLDERNESS STREET","ATLANTA","GA",30314,33.749496993,-84.4264354059999,23,"177 HOLDERNESS STREET, ATLANTA, GA, 30314","Match","Non_Exact","177 HOLDERNESS ST SW, ATLANTA, GA, 30314",17342513,"R"
88524,"177 HOLIDAY BLVD","CENTER MORICHES","NY",11934,40.785716473,-72.8097205829999,24,"177 HOLIDAY BLVD, CENTER MORICHES, NY, 11934","Match","Exact","177 HOLIDAY BLVD, CENTER MORICHES, NY, 11934",647297987,"L"
88525,"177 HOLSTON DRIVE","LANCASTER","CA",93535,NA,NA,25,"177 HOLSTON DRIVE, LANCASTER, CA, 93535","No_Match",NA,NA,NA,NA
88526,"177 HOWARD BLVD","NEWPORT","NC",28570,34.787309001,-76.8626610599999,26,"177 HOWARD BLVD, NEWPORT, NC, 28570","Match","Exact","177 HOWARD BLVD, NEWPORT, NC, 28570",33856591,"L"
88527,"177 HULL STREET","BROOKLYN","NY",11233,40.6796690830001,-73.909792314,27,"177 HULL STREET, BROOKLYN, NY, 11233","Match","Exact","177 HULL ST, BROOKLYN, NY, 11233",59083287,"L"
88528,"177 HUNTINGTON AVENUE STE 1700-3018","BOSTON","MA",2115,42.3447910520001,-71.082596859,28,"177 HUNTINGTON AVENUE STE 1700-3018, BOSTON, MA, 2115","Match","Exact","177 HUNTINGTON AVE, BOSTON, MA, 02115",85697646,"R"
88529,"177 JERSEY AVE","PORT JERVIS","NY",12771,41.3670407870001,-74.686405205,29,"177 JERSEY AVE, PORT JERVIS, NY, 12771","Match","Exact","177 JERSEY AVE, PORT JERVIS, NY, 12771",124499258,"L"
88530,"177 KENNEDY BLVD","EASTON","TX",75603,NA,NA,30,"177 KENNEDY BLVD, EASTON, TX, 75603","No_Match",NA,NA,NA,NA
88531,"177 MAIN ROAD","LEHIGHTON","PA",18235,40.830690643,-75.697114775,31,"177 MAIN ROAD, LEHIGHTON, PA, 18235","Match","Exact","177 MAIN RD, LEHIGHTON, PA, 18235",647920773,"L"
88532,"177 MAIN STREET - 2ND FLOOR","BRADFORD","PA",16701,41.955997933,-78.6443762229999,32,"177 MAIN STREET - 2ND FLOOR, BRADFORD, PA, 16701","Match","Exact","177 MAIN ST, BRADFORD, PA, 16701",122645503,"L"
88533,"177 MAJORCA CIRCLE","SACRAMENTO","CA",95823,38.463423081,-121.44007198,33,"177 MAJORCA CIRCLE, SACRAMENTO, CA, 95823","Match","Exact","177 MAJORCA CIR, SACRAMENTO, CA, 95823",133403455,"L"
88534,"177 MILL STREET","RANDOLPH","MA",2368,42.162609591,-71.031660727,34,"177 MILL STREET, RANDOLPH, MA, 2368","Match","Exact","177 MILL ST, RANDOLPH, MA, 02368",87282784,"R"
88535,"177 MOHAWK CIRCLE","SUPERIOR","CO",80027,39.9540004500001,-105.176836351,35,"177 MOHAWK CIRCLE, SUPERIOR, CO, 80027","Match","Exact","177 MOHAWK CIR, SUPERIOR, CO, 80027",188192488,"L"
88536,"177 MOURY AVENUE APT 2109","ATLANTA","GA",30315,NA,NA,36,"177 MOURY AVENUE APT 2109, ATLANTA, GA, 30315","Tie",NA,NA,NA,NA
88537,"177 N HIGH ST","NEW ALBANY","OH",43054,40.0842803900001,-82.808661866,37,"177 N HIGH ST, NEW ALBANY, OH, 43054","Match","Exact","177 N HIGH ST, NEW ALBANY, OH, 43054",613733293,"L"
88538,"177 N MAIN ST","MONTICELLO","KY",42633,36.8266309910001,-84.852106812,38,"177 N MAIN ST, MONTICELLO, KY, 42633","Match","Non_Exact","177 S MAIN ST, MONTICELLO, KY, 42633",627397781,"R"
88539,"177 N US HWY 1 SUITE 260","TEQUESTA","FL",33469,26.961767153,-80.084490967,39,"177 N US HWY 1 SUITE 260, TEQUESTA, FL, 33469","Match","Exact","177 US HWY 1, TEQUESTA, FL, 33469",646853447,"L"
88540,"177 NORMAN ROAD","NEWARK","NJ",7106,40.734507697,-74.243613892,40,"177 NORMAN ROAD, NEWARK, NJ, 7106","Match","Exact","177 NORMAN RD, NEWARK, NJ, 07106",63463490,"R"
88541,"177 NORTH MAIN STE 276","TOOELE","UT",84074,40.5337273750001,-112.298472012,41,"177 NORTH MAIN STE 276, TOOELE, UT, 84074","Match","Non_Exact","177 N MAIN ST, TOOELE, UT, 84074",155390082,"L"
88542,"177 OLD SHACKLE ISLAND RD","HENDERSONVILLE","TN",37075,36.3114938900001,-86.619450096,42,"177 OLD SHACKLE ISLAND RD, HENDERSONVILLE, TN, 37075","Match","Exact","177 OLD SHACKLE ISLAND RD, HENDERSONVILLE, TN, 37075",615210046,"L"
88543,"177 ORR ROAD","JERICHO","VT",5465,NA,NA,43,"177 ORR ROAD, JERICHO, VT, 5465","No_Match",NA,NA,NA,NA
88544,"177 PARK AVE SUITE 200","SAN JOSE","CA",95113,NA,NA,44,"177 PARK AVE SUITE 200, SAN JOSE, CA, 95113","No_Match",NA,NA,NA,NA
88545,"177 PARK AVENUE SUITE 200","SAN JOSE","CA",95113,NA,NA,45,"177 PARK AVENUE SUITE 200, SAN JOSE, CA, 95113","No_Match",NA,NA,NA,NA
88546,"177 PATTON ROAD","JASPER","AL",35503,33.926264018,-87.2399585109999,46,"177 PATTON ROAD, JASPER, AL, 35503","Match","Exact","177 PATTON RD, JASPER, AL, 35503",120543197,"L"
88547,"177 PRUITT LANE","PEARL","MS",39208,32.2819496610001,-90.096600334,47,"177 PRUITT LANE, PEARL, MS, 39208","Match","Exact","177 PRUITT LN, PEARL, MS, 39208",116918258,"L"
88548,"177 RACHEL STR APT 1","MELBOURNE","FL",32901,28.0572571650001,-80.6219501959999,48,"177 RACHEL STR APT 1, MELBOURNE, FL, 32901","Match","Exact","177 RACHEL ST, MELBOURNE, FL, 32901",601706595,"L"
88549,"177 RALEIGH STREET","ROCHESTER","NY",14620,43.12084034,-77.623549987,49,"177 RALEIGH STREET, ROCHESTER, NY, 14620","Match","Exact","177 RALEIGH ST, ROCHESTER, NY, 14620",14534472,"L"
88550,"177 RESERVOIR RD","PLYMOUTH","NH",3264,43.758946,-71.719380074,50,"177 RESERVOIR RD, PLYMOUTH, NH, 3264","Match","Exact","177 RESERVOIR RD, PLYMOUTH, NH, 03264",647325806,"R"
88551,"177 RIDGEDALE LANE","FRONT ROYAL","VA",22630,38.8583710140001,-78.225128952,51,"177 RIDGEDALE LANE, FRONT ROYAL, VA, 22630","Match","Exact","177 RIDGEDALE LN, FRONT ROYAL, VA, 22630",159082009,"L"
88552,"177 RIVERDELL S MEWS","LANCASTER","TX",75146,32.587612676,-96.790991376,52,"177 RIVERDELL S MEWS, LANCASTER, TX, 75146","Match","Exact","177 RIVERDELL SOUTH MEWS, LANCASTER, TX, 75146",618776572,"R"
88553,"177 ROBINHOOD CIR","HENDERSONVILLE","TN",37075,36.2681285740001,-86.6234289879999,53,"177 ROBINHOOD CIR, HENDERSONVILLE, TN, 37075","Match","Exact","177 ROBINHOOD CIR, HENDERSONVILLE, TN, 37075",636669637,"R"
88554,"177 S SHADOWBAY BLVD","LONGWOOD","FL",32779,28.6933982100001,-81.414046282,54,"177 S SHADOWBAY BLVD, LONGWOOD, FL, 32779","Match","Exact","177 S SHADOWBAY BLVD, LONGWOOD, FL, 32779",93735235,"L"
88555,"177 SANDRA DRIVE","TOTOWA","NJ",7512,40.905156607,-74.237928212,55,"177 SANDRA DRIVE, TOTOWA, NJ, 7512","Match","Exact","177 SANDRA DR, TOTOWA, NJ, 07512",65280681,"L"
88556,"177 SANDS STREET","BROOKLYN","NY",11201,40.699800666,-73.9835824849999,56,"177 SANDS STREET, BROOKLYN, NY, 11201","Match","Exact","177 SANDS ST, BROOKLYN, NY, 11201",623911506,"L"
88557,"177 SEVEN PINES","COLLIERVILLE","TN",38017,35.040047987,-89.658855229,57,"177 SEVEN PINES, COLLIERVILLE, TN, 38017","Match","Non_Exact","177 SEVEN PINES DR, COLLIERVILLE, TN, 38017",607498828,"R"
88558,"177 SHADY GROVE LANE","WESTLAKE VILLAGE","CA",91361,34.1728957300001,-118.874526616,58,"177 SHADY GROVE LANE, WESTLAKE VILLAGE, CA, 91361","Match","Exact","177 SHADY GROVE LN, WESTLAKE VILLAGE, CA, 91361",109976722,"R"
88559,"177 SLAUGHTER AVENUE","CAMPHILL","AL",36850,NA,NA,59,"177 SLAUGHTER AVENUE, CAMPHILL, AL, 36850","No_Match",NA,NA,NA,NA
88560,"177 SMOKE RISE RD","BASKING RIDGE","NJ",7920,40.659339964,-74.6247239529999,60,"177 SMOKE RISE RD, BASKING RIDGE, NJ, 7920","Match","Exact","177 SMOKE RISE RD, BASKING RIDGE, NJ, 07920",59958047,"L"
88561,"177 SOUTH 2ND STREET","BYESVILLE","OH",43723,39.9691568040001,-81.537023774,61,"177 SOUTH 2ND STREET, BYESVILLE, OH, 43723","Match","Exact","177 S 2ND ST, BYESVILLE, OH, 43723",614280056,"L"
88562,"177 SOUTHAMPTON DR","KISSIMMEE","FL",34744,28.293055856,-81.336429492,62,"177 SOUTHAMPTON DR, KISSIMMEE, FL, 34744","Match","Exact","177 SOUTHAMPTON DR, KISSIMMEE, FL, 34744",176687848,"R"
88563,"177 STAGECOACH ROAD","ALBERRTVILLE","AL",35951,34.3479258670001,-86.208826511,63,"177 STAGECOACH ROAD, ALBERRTVILLE, AL, 35951","Match","Non_Exact","177 STAGE COACH RD, ALBERTVILLE, AL, 35951",99230027,"L"
88564,"177 SULLIVAN STREET","NEW YORK","NY",10012,40.7280856670001,-74.001022983,64,"177 SULLIVAN STREET, NEW YORK, NY, 10012","Match","Exact","177 SULLIVAN ST, NEW YORK, NY, 10012",59660266,"R"
88565,"177 SUNCREST DRIVE","VERONA","PA",15147,40.471530022,-79.865017456,65,"177 SUNCREST DRIVE, VERONA, PA, 15147","Match","Exact","177 SUNCREST DR, VERONA, PA, 15147",51702374,"R"
88566,"177 TALON PLACE","MCDONOUGH","GA",30253,33.521792212,-84.187509338,66,"177 TALON PLACE, MCDONOUGH, GA, 30253","Match","Exact","177 TALON PL, MCDONOUGH, GA, 30253",23207980,"L"
88567,"177 TAYLOR ST APT 8","BROOKLYN","NY",11211,40.7065663830001,-73.9620560929999,67,"177 TAYLOR ST APT 8, BROOKLYN, NY, 11211","Match","Exact","177 TAYLOR ST, BROOKLYN, NY, 11211",59076166,"L"
88568,"177 TELLES LANE","FREMONT","CA",94539,37.536493896,-121.920547434,68,"177 TELLES LANE, FREMONT, CA, 94539","Match","Exact","177 TELLES LN, FREMONT, CA, 94539",125033890,"R"
88569,"177 TOMOCHICHI ROAD","GRIFFIN","GA",30223,33.248014805,-84.171251992,69,"177 TOMOCHICHI ROAD, GRIFFIN, GA, 30223","Match","Exact","177 TOMOCHICHI RD, GRIFFIN, GA, 30223",23762632,"L"
88570,"177 TORTUNA","BALLWIN","MO",63021,38.573167488,-90.53653531,70,"177 TORTUNA, BALLWIN, MO, 63021","Match","Non_Exact","177 TORTUNA DR, BALLWIN, MO, 63021",100173611,"L"
88571,"177 TRAVIS RD","SHEPHERDSVILLE","KY",40165,38.048700954,-85.620486923,71,"177 TRAVIS RD, SHEPHERDSVILLE, KY, 40165","Match","Exact","177 TRAVIS RD, SHEPHERDSVILLE, KY, 40165",47744008,"L"
88572,"177 VILLAGE RD","LEWISBURG","WV",24901,37.8161974710001,-80.4304496829999,72,"177 VILLAGE RD, LEWISBURG, WV, 24901","Match","Non_Exact","177 VILLAGE DR, LEWISBURG, WV, 24901",648498454,"L"
88573,"177 VON HUENFELD STREET","MASSAPEQUA PARK","NY",11762,40.685643569,-73.451788849,73,"177 VON HUENFELD STREET, MASSAPEQUA PARK, NY, 11762","Match","Exact","177 VON HUENFELD ST, MASSAPEQUA PARK, NY, 11762",147651542,"L"
88574,"177 WEBSTER STREET NUM 221","MONTEREY","CA",93940,36.5962592980001,-121.893932818,74,"177 WEBSTER STREET NUM 221, MONTEREY, CA, 93940","Match","Exact","177 WEBSTER ST, MONTEREY, CA, 93940",196815103,"L"
88575,"177 WELDON PARKWAY","MARYLAND HEIGHTS","MO",63043,NA,NA,75,"177 WELDON PARKWAY, MARYLAND HEIGHTS, MO, 63043","No_Match",NA,NA,NA,NA
88576,"177 WELDON PKWY 1964","MARYLAND HEIGHTS","MO",63043,NA,NA,76,"177 WELDON PKWY 1964, MARYLAND HEIGHTS, MO, 63043","No_Match",NA,NA,NA,NA
88577,"177 WHITLEY CHURCH ROAD","PRINCETON","NC",27569,35.44506017,-78.114914793,77,"177 WHITLEY CHURCH ROAD, PRINCETON, NC, 27569","Match","Exact","177 WHITLEY CHURCH RD, PRINCETON, NC, 27569",636099862,"R"
88578,"177 WINDSONG CIR","EAST BRUNSWICK","NJ",8816,40.4240133260001,-74.363546421,78,"177 WINDSONG CIR, EAST BRUNSWICK, NJ, 8816","Match","Exact","177 WINDSONG CIR, E BRUNSWICK, NJ, 08816",60306419,"R"
88579,"177 WINDWOOD DRIVE","MORGANTOWN","WV",26505,39.6671162270001,-79.961102147,79,"177 WINDWOOD DRIVE, MORGANTOWN, WV, 26505","Match","Exact","177 WINDWOOD DR, MORGANTOWN, WV, 26505",624844504,"L"
88580,"177 WINTER ST UNIT 4","SAUGUS","MA",1906,42.4597938840001,-71.006218927,80,"177 WINTER ST UNIT 4, SAUGUS, MA, 1906","Match","Exact","177 WINTER ST, SAUGUS, MA, 01906",639003569,"L"
88581,"177 YALE LANE","SEAL BEACH","CA",90740,33.779173373,-118.093077473,81,"177 YALE LANE, SEAL BEACH, CA, 90740","Match","Exact","177 YALE LN, SEAL BEACH, CA, 90740",144002559,"L"
88582,"177-71 MEADOW ROAD","JAMAICA","NY",11434,40.666476769,-73.768896043,82,"177-71 MEADOW ROAD, JAMAICA, NY, 11434","Match","Exact","177-71 MEADOW RD, JAMAICA, NY, 11434",59737217,"R"
88583,"1770  E STREET NE","WASHINGTON","DC",20002,38.896121178,-76.978825881,83,"1770  E STREET NE, WASHINGTON, DC, 20002","Match","Exact","1770 E ST NE, WASHINGTON, DC, 20002",76231333,"L"
88584,"1770 ANDREWS DRIVE","PLEASANT HILL","IA",50327,41.608201523,-93.520706264,84,"1770 ANDREWS DRIVE, PLEASANT HILL, IA, 50327","Match","Exact","1770 ANDREWS DR, PLEASANT HILL, IA, 50327",65854572,"L"
88585,"1770 AVENIDA ALTA MIRA","OCEANSIDE","CA",92056,33.2171878980001,-117.285342532,85,"1770 AVENIDA ALTA MIRA, OCEANSIDE, CA, 92056","Match","Exact","1770 AVE ALTA MIRA, OCEANSIDE, CA, 92056",195429565,"R"
88586,"1770 BRYANT AVENUE SOUTH APT 303","MINNEAPOLIS","MN",55403,44.965718005,-93.290522392,86,"1770 BRYANT AVENUE SOUTH APT 303, MINNEAPOLIS, MN, 55403","Match","Exact","1770 BRYANT AVE S, MINNEAPOLIS, MN, 55403",43624526,"R"
88587,"1770 CALIFORNIA AVENUE","RENO","NV",89509,39.512199578,-119.841068441,87,"1770 CALIFORNIA AVENUE, RENO, NV, 89509","Match","Exact","1770 CALIFORNIA AVE, RENO, NV, 89509",107044344,"L"
88588,"1770 CONCORD PLACE","CUYAHOGA FALLS","OH",44221,41.136213825,-81.458557091,88,"1770 CONCORD PLACE, CUYAHOGA FALLS, OH, 44221","Match","Exact","1770 CONCORD PL, CUYAHOGA FALLS, OH, 44221",61366341,"L"
88589,"1770 D STREET","MERCED","CA",95340,37.2976503030001,-120.470814788,89,"1770 D STREET, MERCED, CA, 95340","Match","Exact","1770 D ST, MERCED, CA, 95340",125282534,"R"
88590,"1770 EAST 30TH STREET","JACKSONVILLE","FL",32206,30.362628584,-81.631401323,90,"1770 EAST 30TH STREET, JACKSONVILLE, FL, 32206","Match","Exact","1770 E 30TH ST, JACKSONVILLE, FL, 32206",83898474,"R"
88591,"1770 EAST FORT UNION BLVD STE 101","COTTONWOOD HEIGHTS","UT",84121,40.6249107890001,-111.841679863,91,"1770 EAST FORT UNION BLVD STE 101, COTTONWOOD HEIGHTS, UT, 84121","Match","Non_Exact","1770 FORT UNION BLVD, COTTONWOOD HEIGHTS, UT, 84121",176088359,"R"
88592,"1770 FRONT STREET BOX 113","LYNDEN","WA",98264,48.9393390540001,-122.472884626,92,"1770 FRONT STREET BOX 113, LYNDEN, WA, 98264","Match","Exact","1770 FRONT ST, LYNDEN, WA, 98264",648550293,"L"
88593,"1770 FRONT STREET","LYNDEN","WA",98264,48.9393390540001,-122.472884626,93,"1770 FRONT STREET, LYNDEN, WA, 98264","Match","Exact","1770 FRONT ST, LYNDEN, WA, 98264",648550293,"L"
88594,"1770 FRUITVALE ROAD","MONTAGUE","MI",49437,43.4571957220001,-86.2855716019999,94,"1770 FRUITVALE ROAD, MONTAGUE, MI, 49437","Match","Non_Exact","1770 W FRUITVALE RD, MONTAGUE, MI, 49437",77676594,"L"
88595,"1770 GRAND CONCOURSE  APT 12A","BONX","NY",10457,40.8460235040001,-73.90969159,95,"1770 GRAND CONCOURSE  APT 12A, BONX, NY, 10457","Match","Non_Exact","1770 GRAND CONCOURSE, BRONX, NY, 10457",640810612,"R"
88596,"1770 HAZELWOOD RD","CLARKSVILLE","TN",37042,36.614665195,-87.3494448,96,"1770 HAZELWOOD RD, CLARKSVILLE, TN, 37042","Match","Exact","1770 HAZELWOOD RD, CLARKSVILLE, TN, 37042",604728687,"L"
88597,"1770 KINCADE AVE","CHULA VISTA","CA",91913,32.6137727330001,-116.982709969,97,"1770 KINCADE AVE, CHULA VISTA, CA, 91913","Match","Non_Exact","1770 KINCAID AVE, CHULA VISTA, CA, 91913",612879610,"R"
88598,"1770 LONGHOUSE LN","CHESTERFIELD","VA",23838,NA,NA,98,"1770 LONGHOUSE LN, CHESTERFIELD, VA, 23838","No_Match",NA,NA,NA,NA
88599,"1770 MAGNOLIA TREE ROAD","GERMANTOWN","TN",38138,35.101353391,-89.813547002,99,"1770 MAGNOLIA TREE ROAD, GERMANTOWN, TN, 38138","Match","Exact","1770 MAGNOLIA TREE RD, GERMANTOWN, TN, 38138",72973068,"L"
88600,"1770 MASSACHUSETTS AVE UNIT 154","CAMBRIDGE","MA",2140,42.385467502,-71.1194087929999,100,"1770 MASSACHUSETTS AVE UNIT 154, CAMBRIDGE, MA, 2140","Match","Exact","1770 MASSACHUSETTS AVE, CAMBRIDGE, MA, 02140",86867969,"L"
88601,"1770 MCCONNELL DRIVE","WILLIAMSPORT","PA",17701,41.2727115700001,-76.969899433,101,"1770 MCCONNELL DRIVE, WILLIAMSPORT, PA, 17701","Match","Exact","1770 MCCONNELL DR, WILLIAMSPORT, PA, 17701",59454007,"L"
88602,"1770 MELBOURNE ROAD","DUNDALK","MD",21222,39.2646453350001,-76.4855346259999,102,"1770 MELBOURNE ROAD, DUNDALK, MD, 21222","Match","Exact","1770 MELBOURNE RD, DUNDALK, MD, 21222",191531650,"R"
88603,"1770 MICKENS CLAY ROAD","BROOKSVILLE","MS",39739,33.2312996370001,-88.486790506,103,"1770 MICKENS CLAY ROAD, BROOKSVILLE, MS, 39739","Match","Non_Exact","1770 MICKENS-CLAY RD, BROOKSVILLE, MS, 39739",607958956,"R"
88604,"1770 MORNINGTIDE CT","ANCHORAGE","AK",99501,61.2053573760001,-149.841485455,104,"1770 MORNINGTIDE CT, ANCHORAGE, AK, 99501","Match","Exact","1770 MORNINGTIDE CT, ANCHORAGE, AK, 99501",190799119,"L"
88605,"1770 NE 191 STREET APT 511","MIAMI","FL",33179,25.951389337,-80.166899874,105,"1770 NE 191 STREET APT 511, MIAMI, FL, 33179","Match","Non_Exact","1770 NE 191ST ST, MIAMI, FL, 33179",647892161,"R"
88606,"1770 NORTH RIDLEY CREEK RD","MEDIA","PA",19063,39.936619997,-75.409897266,106,"1770 NORTH RIDLEY CREEK RD, MEDIA, PA, 19063","Match","Exact","1770 N RIDLEY CREEK RD, MEDIA, PA, 19063",134893331,"L"
88607,"1770 NW 130TH AVE","PORTLAND","OR",97229,45.5323493720001,-122.810895454,107,"1770 NW 130TH AVE, PORTLAND, OR, 97229","Match","Exact","1770 NW 130TH AVE, PORTLAND, OR, 97229",158184572,"R"
88608,"1770 NW MAPLE ST","ISSAQUAH","WA",98027,47.543019529,-122.063672904,108,"1770 NW MAPLE ST, ISSAQUAH, WA, 98027","Match","Exact","1770 NW MAPLE ST, ISSAQUAH, WA, 98027",186616314,"R"
88609,"1770 PIONEER WAY","LANCASTER","TX",75146,32.559958212,-96.766033029,109,"1770 PIONEER WAY, LANCASTER, TX, 75146","Match","Exact","1770 PIONEER WAY, LANCASTER, TX, 75146",646808347,"R"
88610,"1770 POST ST - BOX 288","SAN FRANCISCO","CA",94115,37.7854490080001,-122.430800813,110,"1770 POST ST - BOX 288, SAN FRANCISCO, CA, 94115","Match","Exact","1770 POST ST, SAN FRANCISCO, CA, 94115",641009015,"R"
88611,"1770 POST STREET NO 197","SAN FRANCISCO","CA",94115,37.7854490080001,-122.430800813,111,"1770 POST STREET NO 197, SAN FRANCISCO, CA, 94115","Match","Non_Exact","1770 POST ST, SAN FRANCISCO, CA, 94115",641009015,"R"
88612,"1770 POST STREET UNIT 199","SAN FRANCISCO","CA",94115,37.7854490080001,-122.430800813,112,"1770 POST STREET UNIT 199, SAN FRANCISCO, CA, 94115","Match","Exact","1770 POST ST, SAN FRANCISCO, CA, 94115",641009015,"R"
88613,"1770 SCOTT STREET","SAN FRANCISCO","CA",94115,37.7860971060001,-122.438324735,113,"1770 SCOTT STREET, SAN FRANCISCO, CA, 94115","Match","Exact","1770 SCOTT ST, SAN FRANCISCO, CA, 94115",192279718,"R"
88614,"1770 SOUTHERN DRIVE SUITE 2020","STATESBORO","GA",30013,32.4263442750001,-81.782243735,114,"1770 SOUTHERN DRIVE SUITE 2020, STATESBORO, GA, 30013","Match","Non_Exact","1770 SOUTHERN DR, STATESBORO, GA, 30458",6115661,"R"
88615,"1770 ST JAMES PL STE 100","HOUSTON","TX",77056,NA,NA,115,"1770 ST JAMES PL STE 100, HOUSTON, TX, 77056","No_Match",NA,NA,NA,NA
88616,"1770 TCHOUPITOULAS STREET APT 315","NEW ORLEANS","LA",70139,29.9274984630001,-90.067146254,116,"1770 TCHOUPITOULAS STREET APT 315, NEW ORLEANS, LA, 70139","Match","Non_Exact","1770 TCHOUPITOULAS ST, NEW ORLEANS, LA, 70130",191714865,"L"
88617,"1770 THOMAS ROAD","BEAUMONT","TX",77706,30.0983276420001,-94.1496447169999,117,"1770 THOMAS ROAD, BEAUMONT, TX, 77706","Match","Exact","1770 THOMAS RD, BEAUMONT, TX, 77706",73852592,"R"
88618,"1770 THOMASVILLE ROAD","TALLAHASSEE","FL",32303,30.4632555210001,-84.271629731,118,"1770 THOMASVILLE ROAD, TALLAHASSEE, FL, 32303","Match","Exact","1770 THOMASVILLE RD, TALLAHASSEE, FL, 32303",82853023,"L"
88619,"1770 TUCKER ROAD","FORT WASHINGTON","MD",20744,38.781861373,-76.977381501,119,"1770 TUCKER ROAD, FORT WASHINGTON, MD, 20744","Match","Exact","1770 TUCKER RD, FT WASHINGTON, MD, 20744",76315707,"L"
88620,"1770 VILLAGE PLACE 30","SAN DIEGO","CA",92101,32.733085864,-117.146639986,120,"1770 VILLAGE PLACE 30, SAN DIEGO, CA, 92101","Match","Exact","1770 VILLAGE PL, SAN DIEGO, CA, 92101",195658188,"L"
88621,"1770 WENTZ ROAD","QUAKERTOWN","PA",18951,40.4459501220001,-75.424648856,121,"1770 WENTZ ROAD, QUAKERTOWN, PA, 18951","Match","Exact","1770 WENTZ RD, QUAKERTOWN, PA, 18951",653371753,"L"
88622,"1770 WINCHESTER DRIVE","WINTER PARK","FL",32789,28.5814100170001,-81.3422038639999,122,"1770 WINCHESTER DRIVE, WINTER PARK, FL, 32789","Match","Exact","1770 WINCHESTER DR, WINTER PARK, FL, 32789",94279197,"L"
88623,"17700 ALPENTAL ACESS ROAD 2008","SNOQUALMIE PASS","WA",98068,47.4522399150001,-121.436601271,123,"17700 ALPENTAL ACESS ROAD 2008, SNOQUALMIE PASS, WA, 98068","Match","Non_Exact","17700 ALPENTAL ACCESS RD, SNOQUALMIE PASS, WA, 98068",187025366,"R"
88624,"17700 BAYBERRY LN","TINLEY PARK","IL",60487,41.566817331,-87.845775969,124,"17700 BAYBERRY LN, TINLEY PARK, IL, 60487","Match","Exact","17700 BAYBERRY LN, TINLEY PARK, IL, 60487",111863303,"L"
88625,"17700 CORKSCREW ROAD","ESTERO","FL",33928,26.450389994,-81.661914866,125,"17700 CORKSCREW ROAD, ESTERO, FL, 33928","Match","Exact","17700 CORKSCREW RD, ESTERO, FL, 33928",117980515,"L"
88626,"17700 HUFSMITH KOHRVILLE RD","TOMBALL","TX",77375,30.0241296500001,-95.5857172999999,126,"17700 HUFSMITH KOHRVILLE RD, TOMBALL, TX, 77375","Match","Non_Exact","17700 HUFFSMITH KOHRVILLE RD, TOMBALL, TX, 77375",642134206,"R"
88627,"17700 JAMESTOWN WAY","LUTZ","FL",33558,28.1387324350001,-82.5415376029999,127,"17700 JAMESTOWN WAY, LUTZ, FL, 33558","Match","Exact","17700 JAMESTOWN WAY, LUTZ, FL, 33558",633396175,"L"
88628,"17700 MCCOURTNEY ROAD","GRASS VALLEY","CA",95949,39.1433679350001,-121.143541335,128,"17700 MCCOURTNEY ROAD, GRASS VALLEY, CA, 95949","Match","Exact","17700 MCCOURTNEY RD, GRASS VALLEY, CA, 95949",106561130,"L"
88629,"17700 NE 219TH ST","BATTLE GROUND","WA",98604,45.781329011,-122.491062898,129,"17700 NE 219TH ST, BATTLE GROUND, WA, 98604","Match","Exact","17700 NE 219TH ST, BATTLE GROUND, WA, 98604",158337025,"R"
88630,"17700 S AVALON BLVD 184","CARSON","CA",90746,33.867764166,-118.265985763,130,"17700 S AVALON BLVD 184, CARSON, CA, 90746","Match","Non_Exact","17700 S AVALON BLVD, CARSON, CA, 90746",142766189,"L"
88631,"17700 STATE ROUTE D","BELTON","MO",64012,NA,NA,131,"17700 STATE ROUTE D, BELTON, MO, 64012","No_Match",NA,NA,NA,NA
88632,"17701 108TH AVE SE SUITE 521","RENTON","WA",98055,47.4447218000001,-122.196933614,132,"17701 108TH AVE SE SUITE 521, RENTON, WA, 98055","Match","Exact","17701 108TH AVE SE, RENTON, WA, 98055",187061386,"R"
88633,"17701 108TH AVENUE SE  PMB 131","RENTON","WA",98055,47.4447218000001,-122.196933614,133,"17701 108TH AVENUE SE  PMB 131, RENTON, WA, 98055","Match","Exact","17701 108TH AVE SE, RENTON, WA, 98055",187061386,"R"
88634,"17701 NW 14 COURT","MIAMI","FL",33169,25.9365959630001,-80.225750591,134,"17701 NW 14 COURT, MIAMI, FL, 33169","Match","Exact","17701 NW 14TH CT, MIAMI, FL, 33169",116029381,"R"
88635,"17702 ALBURTIS AVE","ARTESIA","CA",90701,33.8699266250001,-118.084421907,135,"17702 ALBURTIS AVE, ARTESIA, CA, 90701","Match","Exact","17702 ALBURTIS AVE, ARTESIA, CA, 90701",141743857,"L"
88636,"17702 CIRCLE POND CT","BOCA RATON","FL",33496,26.4150858200001,-80.200777989,136,"17702 CIRCLE POND CT, BOCA RATON, FL, 33496","Match","Exact","17702 CIRCLE POND CT, BOCA RATON, FL, 33496",627550908,"R"
88637,"17702 COWAN","IRVINE","CA",92614,33.695042153,-117.858525469,137,"17702 COWAN, IRVINE, CA, 92614","Match","Exact","17702 COWAN, IRVINE, CA, 92614",144054336,"L"
88638,"17702 NETHERBY LANE","RICHMOND","TX",77407,29.656704188,-95.6942959249999,138,"17702 NETHERBY LANE, RICHMOND, TX, 77407","Match","Exact","17702 NETHERBY LN, RICHMOND, TX, 77407",642933946,"L"
88639,"17702 SEMINOLE WAY","YORBA LINDA","CA",92886,33.875987514,-117.825636746,139,"17702 SEMINOLE WAY, YORBA LINDA, CA, 92886","Match","Exact","17702 SEMINOLE WAY, YORBA LINDA, CA, 92886",143996197,"R"
88640,"17704 MONTAGE E","CLINTON TOWNSHIP","MI",48038,42.6224426530001,-82.9430421179999,140,"17704 MONTAGE E, CLINTON TOWNSHIP, MI, 48038","Match","Non_Exact","17704 MONTAGE, CLINTON TOWNSHIP, MI, 48038",648185651,"R"
88641,"17705 CENTRAL AVENUE","CARSON","CA",90746,33.8708848090001,-118.248676479,141,"17705 CENTRAL AVENUE, CARSON, CA, 90746","Match","Non_Exact","17705 S CENTRAL AVE, CARSON, CA, 90746",640423022,"R"
88642,"17705 JESSIE JAMES ROAD","RAMONA","CA",92065,33.021127489,-116.94360311,142,"17705 JESSIE JAMES ROAD, RAMONA, CA, 92065","Match","Non_Exact","17705 JESSIE JAMES LN, RAMONA, CA, 92065",195459427,"L"
88643,"17705 NW SPRINGVILLE RD BLD 2","PORTLAND","OR",97280,NA,NA,143,"17705 NW SPRINGVILLE RD BLD 2, PORTLAND, OR, 97280","No_Match",NA,NA,NA,NA
88644,"17705 ORANGE DRIVE","SPRING HILL","FL",34610,28.3376005490001,-82.52338846,144,"17705 ORANGE DRIVE, SPRING HILL, FL, 34610","Match","Exact","17705 ORANGE DR, SPRING HILL, FL, 34610",86342664,"L"
88645,"17705 QUEEN ANNE BRIDGE RD","BOWIE","MD",20716,38.912279229,-76.6976552419999,145,"17705 QUEEN ANNE BRIDGE RD, BOWIE, MD, 20716","Match","Exact","17705 QUEEN ANNE BRIDGE RD, BOWIE, MD, 20716",76360417,"R"
88646,"17705 S CENTRAL AVENUE","CARSON","CA",90746,33.870884163,-118.24867647,146,"17705 S CENTRAL AVENUE, CARSON, CA, 90746","Match","Exact","17705 S CENTRAL AVE, CARSON, CA, 90746",640423022,"R"
88647,"17705 S CENTRAL AVENUE","CARSON","CA",92223,33.870884163,-118.24867647,147,"17705 S CENTRAL AVENUE, CARSON, CA, 92223","Match","Non_Exact","17705 S CENTRAL AVE, CARSON, CA, 90746",640423022,"R"
88648,"17706 RAVENNO LN","SPRING","TX",77379,30.0221873780001,-95.500375388,148,"17706 RAVENNO LN, SPRING, TX, 77379","Match","Exact","17706 RAVENNO LN, SPRING, TX, 77379",625666584,"R"
88649,"17707 ERIC AVE","CERRITOS","CA",90703,33.8699333770001,-118.094928126,149,"17707 ERIC AVE, CERRITOS, CA, 90703","Match","Exact","17707 ERIC AVE, CERRITOS, CA, 90703",141743032,"R"
88650,"17707 W 83RD TER","LENEXA","KS",66219,38.9769189310001,-94.7919298749999,150,"17707 W 83RD TER, LENEXA, KS, 66219","Match","Exact","17707 83RD TER, LENEXA, KS, 66219",91322373,"R"
88651,"17708 FLAIR CIR","FARMINGTON","MN",55024,44.6927681070001,-93.190631981,151,"17708 FLAIR CIR, FARMINGTON, MN, 55024","Match","Exact","17708 FLAIR CIR, FARMINGTON, MN, 55024",37931561,"R"
88652,"17708 GLEN HEIGHTS DR","DALLAS","TX",75287,32.991511367,-96.85750029,152,"17708 GLEN HEIGHTS DR, DALLAS, TX, 75287","Match","Exact","17708 GLEN HEIGHTS DR, DALLAS, TX, 75287",103385197,"L"
88653,"1771 ABBOTT LANE","WESTLAND","MI",48186,42.296173299,-83.3692702559999,153,"1771 ABBOTT LANE, WESTLAND, MI, 48186","Match","Exact","1771 ABBOTT LN, WESTLAND, MI, 48186",617582378,"L"
88654,"1771 ALFORD RD","CONWAY","SC",29526,33.9125680390001,-79.078691468,154,"1771 ALFORD RD, CONWAY, SC, 29526","Match","Exact","1771 ALFORD RD, CONWAY, SC, 29526",29038642,"L"
88655,"1771 AUTUMN DRIVE","LANCASTER","OH",43130,39.7498082700001,-82.6314938209999,155,"1771 AUTUMN DRIVE, LANCASTER, OH, 43130","Match","Exact","1771 AUTUMN DR, LANCASTER, OH, 43130",37246199,"R"
88656,"1771 CO RT 8","OSWEGO","NY",13126,43.3508820810001,-76.4701412159999,156,"1771 CO RT 8, OSWEGO, NY, 13126","Match","Exact","1771 CO RTE 8, OSWEGO, NY, 13126",57808544,"L"
88657,"1771 DEER CROSSING CIRCLE","JONESBORO","GA",30236,NA,NA,157,"1771 DEER CROSSING CIRCLE, JONESBORO, GA, 30236","Tie",NA,NA,NA,NA
88658,"1771 E WARRENTON AVE","ANAHEIM","CA",92805,33.8504239550001,-117.892528532,158,"1771 E WARRENTON AVE, ANAHEIM, CA, 92805","Match","Exact","1771 E WARRENTON AVE, ANAHEIM, CA, 92805",144026183,"L"
88659,"1771 E31ST STREET","BROOKLYN","NY",11234,NA,NA,159,"1771 E31ST STREET, BROOKLYN, NY, 11234","No_Match",NA,NA,NA,NA
88660,"1771 EAST BOYSCOUT RD","HIXSON","TN",37343,35.1639845170001,-85.192673525,160,"1771 EAST BOYSCOUT RD, HIXSON, TN, 37343","Match","Non_Exact","1771 E BOY SCOUT RD, HIXSON, TN, 37343",59315854,"L"
88661,"1771 EAST PALOMAR STREET","CHULA VISTA","CA",91913,32.63169917,-116.983501827,161,"1771 EAST PALOMAR STREET, CHULA VISTA, CA, 91913","Match","Exact","1771 E PALOMAR ST, CHULA VISTA, CA, 91913",195680118,"L"
88662,"1771 ELLIOTT ST SUITE 2","ALEXANDRIA LA","LA",71301,31.304897189,-92.457700565,162,"1771 ELLIOTT ST SUITE 2, ALEXANDRIA LA, LA, 71301","Match","Non_Exact","1771 ELLIOTT ST, ALEXANDRIA, LA, 71301",11781900,"L"
88663,"1771 ELTON ROAD","SILVER SPRING","MD",20903,39.0193733150001,-76.971984901,163,"1771 ELTON ROAD, SILVER SPRING, MD, 20903","Match","Exact","1771 ELTON RD, SILVER SPRING, MD, 20903",62078948,"R"
88664,"1771 FRONT STREET","SCOTCH PLAINS","NJ",7076,40.6487706400001,-74.400450781,164,"1771 FRONT STREET, SCOTCH PLAINS, NJ, 7076","Match","Exact","1771 FRONT ST, SCOTCH PLAINS, NJ, 07076",60583590,"L"
88665,"1771 GLENVIEW DRIVE","PERRIS","CA",92571,33.8037493260001,-117.214737527,165,"1771 GLENVIEW DRIVE, PERRIS, CA, 92571","Match","Exact","1771 GLENVIEW DR, PERRIS, CA, 92571",194802237,"R"
88666,"1771 HIGHWAY 24 EAST","LOUISVILLE","GA",30434,NA,NA,166,"1771 HIGHWAY 24 EAST, LOUISVILLE, GA, 30434","No_Match",NA,NA,NA,NA
88667,"1771 HOY LONG RD","WINSTON SALEM","NC",27107,35.940527629,-80.1623844169999,167,"1771 HOY LONG RD, WINSTON SALEM, NC, 27107","Match","Exact","1771 HOY LONG RD, WINSTON SALEM, NC, 27107",20215745,"R"
88668,"1771 INDIAN RUN ROAD","MALVERN","PA",19355,40.071078012,-75.513484521,168,"1771 INDIAN RUN ROAD, MALVERN, PA, 19355","Match","Exact","1771 INDIAN RUN RD, MALVERN, PA, 19355",626991487,"L"
88669,"1771 LOCKWOOD OVAL","TWINSBURG","OH",44087,41.31528165,-81.4741364719999,169,"1771 LOCKWOOD OVAL, TWINSBURG, OH, 44087","Match","Exact","1771 LOCKWOOD OVAL, TWINSBURG, OH, 44087",625720721,"R"
88670,"1771 MISSION HILLS RD   117","NORTHBROOK","IL",60062,NA,NA,170,"1771 MISSION HILLS RD   117, NORTHBROOK, IL, 60062","No_Match",NA,NA,NA,NA
88671,"1771 NW 108TH","MIAMI","FL",33147,NA,NA,171,"1771 NW 108TH, MIAMI, FL, 33147","No_Match",NA,NA,NA,NA
88672,"1771 NW 131ST","MIAMI","FL",33167,25.8939740430001,-80.228726173,172,"1771 NW 131ST, MIAMI, FL, 33167","Match","Non_Exact","1771 NW 131ST ST, MIAMI, FL, 33167",116033013,"R"
88673,"1771 OLD PALMER ROAD","WASHINGTON COURTHOUS","OH",43160,39.545455023,-83.4840046739999,173,"1771 OLD PALMER ROAD, WASHINGTON COURTHOUS, OH, 43160","Match","Non_Exact","1771 OLD PALMER RD, WASHINGTON COURT HOUSE, OH, 43160",119060016,"L"
88674,"1771 ORANGE AVE","RIVERSIDE","IA",52327,41.3979010310001,-91.6768447489999,174,"1771 ORANGE AVE, RIVERSIDE, IA, 52327","Match","Exact","1771 ORANGE AVE, RIVERSIDE, IA, 52327",649837653,"L"
88675,"1771 POPHAM AVE","BRONX","NY",10453,40.851234726,-73.918790261,175,"1771 POPHAM AVE, BRONX, NY, 10453","Match","Exact","1771 POPHAM AVE, BRONX, NY, 10453",80299519,"L"
88676,"1771 POST RD E BOX 314","WESTPORT","CT",6880,41.138347793,-73.301854539,176,"1771 POST RD E BOX 314, WESTPORT, CT, 6880","Match","Exact","1771 POST RD E, WESTPORT, CT, 06880",613960189,"L"
88677,"1771 SOUTH 65TH STREET","PHILADELPHIA","PA",19142,39.9291492340001,-75.2415342529999,177,"1771 SOUTH 65TH STREET, PHILADELPHIA, PA, 19142","Match","Exact","1771 S 65TH ST, PHILADELPHIA, PA, 19142",131408378,"L"
88678,"1771 SOUTH BAYLESS ST","ANAHEIM","CA",92802,33.8039835500001,-117.934318556,178,"1771 SOUTH BAYLESS ST, ANAHEIM, CA, 92802","Match","Non_Exact","1771 BAYLESS ST, ANAHEIM, CA, 92802",645550153,"L"
88679,"1771 SW 14 TERRACE","MIAMI","FL",33145,25.759627236,-80.223724557,179,"1771 SW 14 TERRACE, MIAMI, FL, 33145","Match","Exact","1771 SW 14TH TER, MIAMI, FL, 33145",116016702,"R"
88680,"1771 SW 55TH STREET ROAD","OCALA","FL",34471,NA,NA,180,"1771 SW 55TH STREET ROAD, OCALA, FL, 34471","No_Match",NA,NA,NA,NA
88681,"1771 TATE ROAD","CANTONMENT","FL",32533,30.5768404390001,-87.299021693,181,"1771 TATE ROAD, CANTONMENT, FL, 32533","Match","Exact","1771 TATE RD, CANTONMENT, FL, 32533",93229061,"R"
88682,"1771 TATTENHAM RD","ENCINITAS","CA",92024,33.0784419730001,-117.31005233,182,"1771 TATTENHAM RD, ENCINITAS, CA, 92024","Match","Exact","1771 TATTENHAM RD, ENCINITAS, CA, 92024",195291696,"R"
88683,"1771 TOLLHOUSE LN","CLOVIS","CA",93611,36.8275624780001,-119.682434934,183,"1771 TOLLHOUSE LN, CLOVIS, CA, 93611","Match","Exact","1771 TOLLHOUSE LN, CLOVIS, CA, 93611",197584493,"L"
88684,"17710 16TH STREET SW","LAKEBAY","WA",98349,47.2425319000001,-122.772165352,184,"17710 16TH STREET SW, LAKEBAY, WA, 98349","Match","Exact","17710 16TH ST SW, LAKEBAY, WA, 98349",184651986,"R"
88685,"17710 RED OAK DR 271","HOUSTON","TX",77090,NA,NA,185,"17710 RED OAK DR 271, HOUSTON, TX, 77090","No_Match",NA,NA,NA,NA
88686,"17711 LOMOND BLVD","SHAKER HTS","OH",44122,41.4600357400001,-81.5553660099999,186,"17711 LOMOND BLVD, SHAKER HTS, OH, 44122","Match","Exact","17711 LOMOND BLVD, SHAKER HEIGHTS, OH, 44122",61128764,"L"
88687,"17711 QUEEN ANNE ROAD","UPPER MARLBORO","MD",20774,38.889974484,-76.69971892,187,"17711 QUEEN ANNE ROAD, UPPER MARLBORO, MD, 20774","Match","Exact","17711 QUEEN ANNE RD, UPPER MARLBORO, MD, 20774",635750137,"R"
88688,"17712 W 84TH TER","LENEXA","KS",66219,38.97511861,-94.7912275099999,188,"17712 W 84TH TER, LENEXA, KS, 66219","Match","Exact","17712 W 84TH TER, LENEXA, KS, 66219",91319422,"R"
88689,"17713 CADDY DRIVE","DERWOOD","MD",20855,39.1453890540001,-77.157596032,189,"17713 CADDY DRIVE, DERWOOD, MD, 20855","Match","Exact","17713 CADDY DR, DERWOOD, MD, 20855",62088882,"R"
88690,"17713 CHESTNUT AVENUE","COUNTRY CLUB HILLS","IL",60478,41.56756147,-87.716622527,190,"17713 CHESTNUT AVENUE, COUNTRY CLUB HILLS, IL, 60478","Match","Exact","17713 CHESTNUT AVE, COUNTRY CLUB HILLS, IL, 60478",112207413,"L"
88691,"17715 INDIAN MOUNTAIN LANE","HUMBLE","TX",77346,NA,NA,191,"17715 INDIAN MOUNTAIN LANE, HUMBLE, TX, 77346","No_Match",NA,NA,NA,NA
88692,"17716 PESANTE RD","PRUNEDALE","CA",93907,36.7764923510001,-121.665146867,192,"17716 PESANTE RD, PRUNEDALE, CA, 93907","Match","Exact","17716 PESANTE RD, PRUNEDALE, CA, 93907",648180917,"L"
88693,"17717 VAIL ST APT 123","DALLAS","TX",75287,32.9888830140001,-96.847612262,193,"17717 VAIL ST APT 123, DALLAS, TX, 75287","Match","Exact","17717 VAIL ST, DALLAS, TX, 75287",650110536,"L"
88694,"17717 W GRANITE VIEW DRIVE","GOODYEAR","AZ",85338,33.3183810300001,-112.43253535,194,"17717 W GRANITE VIEW DRIVE, GOODYEAR, AZ, 85338","Match","Exact","17717 W GRANITE VIEW DR, GOODYEAR, AZ, 85338",648945856,"R"
88695,"17719 COMMERCIAL AVE  APT 2S","LANSING","IL",60438,41.5733413020001,-87.550303478,195,"17719 COMMERCIAL AVE  APT 2S, LANSING, IL, 60438","Match","Exact","17719 COMMERCIAL AVE, LANSING, IL, 60438",111786213,"L"
88696,"1772 BARRINGTON WAY","JONESBORO","GA",30236,33.54093041,-84.332699039,196,"1772 BARRINGTON WAY, JONESBORO, GA, 30236","Match","Exact","1772 BARRINGTON WAY, JONESBORO, GA, 30236",632339973,"R"
88697,"1772 BRANDYWINE DRIVE","BLOOMFIELD HILLS","MI",48304,42.6165559390001,-83.2298541329999,197,"1772 BRANDYWINE DRIVE, BLOOMFIELD HILLS, MI, 48304","Match","Exact","1772 BRANDYWINE DR, BLOOMFIELD HILLS, MI, 48304",69780890,"R"
88698,"1772 CAYUGA AVE","SAN FRANCISCO","CA",94112,37.7145372630001,-122.449055287,198,"1772 CAYUGA AVE, SAN FRANCISCO, CA, 94112","Match","Exact","1772 CAYUGA AVE, SAN FRANCISCO, CA, 94112",192286128,"R"
88699,"1772 CENTENNIAL DRIVE","CANTON","MI",48187,42.3164275190001,-83.5226096599999,199,"1772 CENTENNIAL DRIVE, CANTON, MI, 48187","Match","Exact","1772 CENTENNIAL DR, CANTON, MI, 48187",617694091,"R"
88700,"1772 CENTER ST NE","SALEM","OR",97301,44.9394165150001,-123.017139631,200,"1772 CENTER ST NE, SALEM, OR, 97301","Match","Exact","1772 CENTER ST NE, SALEM, OR, 97301",156250344,"R"
88701,"1772 E FREDERICK AVE","FRESNO","CA",93720,36.850027487,-119.750451558,201,"1772 E FREDERICK AVE, FRESNO, CA, 93720","Match","Exact","1772 E FREDERICK AVE, FRESNO, CA, 93720",197617561,"L"
88702,"1772 EAST SHORE DRIVE","MAPLEWOOD","MN",55109,44.9946284000001,-93.054214467,202,"1772 EAST SHORE DRIVE, MAPLEWOOD, MN, 55109","Match","Exact","1772 E SHORE DR, MAPLEWOOD, MN, 55109",97651062,"R"
88703,"1772 FERN HILL RD","PIKEVILLE","TN",37367,35.5453153180001,-85.307405374,203,"1772 FERN HILL RD, PIKEVILLE, TN, 37367","Match","Exact","1772 FERN HILL RD, PIKEVILLE, TN, 37367",647856318,"R"
88704,"1772 KENWOOD ROAD","MANNING","SC",29102,33.529754875,-80.182757233,204,"1772 KENWOOD ROAD, MANNING, SC, 29102","Match","Exact","1772 KENWOOD RD, MANNING, SC, 29102",71436251,"R"
88705,"1772 MOON ROAD","ST GERMAIN","WI",54558,45.9343806360001,-89.469481681,205,"1772 MOON ROAD, ST GERMAIN, WI, 54558","Match","Exact","1772 MOON RD, SAINT GERMAIN, WI, 54558",644620461,"R"
88706,"1772 PINER RD    NUMBER 100","SANTA ROSA","CA",95403,38.4689336640001,-122.74400932,206,"1772 PINER RD    NUMBER 100, SANTA ROSA, CA, 95403","Match","Exact","1772 PINER RD, SANTA ROSA, CA, 95403",67502623,"L"
88707,"1772 WILLARD ST NW APT 1","WASHINGTON","DC",20009,38.916287089,-77.040689953,207,"1772 WILLARD ST NW APT 1, WASHINGTON, DC, 20009","Match","Exact","1772 WILLARD ST NW, WASHINGTON, DC, 20009",76223066,"L"
88708,"1772 WILLIS AVE","MERRICK","NY",11566,40.6709391480001,-73.564514483,208,"1772 WILLIS AVE, MERRICK, NY, 11566","Match","Exact","1772 WILLIS AVE, MERRICK, NY, 11566",147635191,"R"
88709,"1772 WOODSIDE ROAD","FORKED RIVER","NJ",8731,39.844714654,-74.2160102079999,209,"1772 WOODSIDE ROAD, FORKED RIVER, NJ, 8731","Match","Exact","1772 WOODSIDE RD, FORKED RIVER, NJ, 08731",624736949,"R"
88710,"17720 159TH AVENUE SE","RENTON","WA",98058,47.442960365,-122.129837444,210,"17720 159TH AVENUE SE, RENTON, WA, 98058","Match","Exact","17720 159TH AVE SE, RENTON, WA, 98058",186687818,"L"
88711,"17720 BESITO WAY","BOCA RATON","FL",33496,26.412743887,-80.1900841309999,211,"17720 BESITO WAY, BOCA RATON, FL, 33496","Match","Exact","17720 BESITO WAY, BOCA RATON, FL, 33496",633932843,"R"
88712,"17720 E MISSION AVE","SPOKANE VALLEY","WA",99016,47.6714819060001,-117.166429538,212,"17720 E MISSION AVE, SPOKANE VALLEY, WA, 99016","Match","Exact","17720 E MISSION AVE, SPOKANE VALLEY, WA, 99016",624793229,"R"
88713,"17720 NE 65TH ST","REDMOND","WA",98052,47.6639998030001,-122.104089092,213,"17720 NE 65TH ST, REDMOND, WA, 98052","Match","Exact","17720 NE 65TH ST, REDMOND, WA, 98052",239777925,"L"
88714,"17720 STARLING LANE","CALDWELL","ID",83607,43.629949852,-116.809067324,214,"17720 STARLING LANE, CALDWELL, ID, 83607","Match","Exact","17720 STARLING LN, CALDWELL, ID, 83607",122840828,"L"
88715,"17721 132ND AVE NE","WOODINVILLE","WA",98072,47.756394078,-122.163324228,215,"17721 132ND AVE NE, WOODINVILLE, WA, 98072","Match","Exact","17721 132ND AVE NE, WOODINVILLE, WA, 98072",645307241,"L"
88716,"17721 NORWALK BLVD 31","ARTESIA","CA",90701,33.869730363,-118.072507301,216,"17721 NORWALK BLVD 31, ARTESIA, CA, 90701","Match","Exact","17721 NORWALK BLVD, ARTESIA, CA, 90701",141791226,"R"
88717,"17721 NW 11 AVENUE","MIAMI","FL",33169,25.93680327,-80.2201181619999,217,"17721 NW 11 AVENUE, MIAMI, FL, 33169","Match","Exact","17721 NW 11TH AVE, MIAMI, FL, 33169",116029480,"R"
88718,"17722 CORTE SOLEDAD","MORNO VALLEY","CA",92551,33.8624305810001,-117.211722797,218,"17722 CORTE SOLEDAD, MORNO VALLEY, CA, 92551","Match","Non_Exact","17722 CORTE SOLEDAD, MORENO VALLEY, CA, 92551",624437801,"R"
88719,"17722 FOREST HAVEN TRL LANE","TOMBALL","TX",77375,30.023534413,-95.573086535,219,"17722 FOREST HAVEN TRL LANE, TOMBALL, TX, 77375","Match","Exact","17722 FOREST HAVEN TRL, TOMBALL, TX, 77375",635781030,"R"
88720,"17722 ROUGH RIVER COURT","HUMBLE","TX",77346,29.973319486,-95.180560407,220,"17722 ROUGH RIVER COURT, HUMBLE, TX, 77346","Match","Exact","17722 ROUGH RIVER CT, HUMBLE, TX, 77346",638164853,"L"
88721,"17723 SEQUOIA KINGS DR","HUMBLE","TX",77346,NA,NA,221,"17723 SEQUOIA KINGS DR, HUMBLE, TX, 77346","No_Match",NA,NA,NA,NA
88722,"17724 AUBURN VILLAGE DRIVE","SANDY SPRING","MD",20860,39.147680816,-77.0220953369999,222,"17724 AUBURN VILLAGE DRIVE, SANDY SPRING, MD, 20860","Match","Exact","17724 AUBURN VILLAGE, SANDY SPRING, MD, 20860",618598544,"L"
88723,"17724 I-30 SUITE 1","BENTON","AR",72019,NA,NA,223,"17724 I-30 SUITE 1, BENTON, AR, 72019","No_Match",NA,NA,NA,NA
88724,"17724 INTERSTATE 30N","BENTON","AR",72019,NA,NA,224,"17724 INTERSTATE 30N, BENTON, AR, 72019","No_Match",NA,NA,NA,NA
88725,"17725 69TH ST N","LOXAHATCHEE","FL",33470,26.778799593,-80.3229525849999,225,"17725 69TH ST N, LOXAHATCHEE, FL, 33470","Match","Exact","17725 69TH ST N, LOXAHATCHEE, FL, 33470",115508422,"L"
88726,"17727 ABERMORE LANE","RICHMOND","TX",77407,29.6557111180001,-95.695134501,226,"17727 ABERMORE LANE, RICHMOND, TX, 77407","Match","Exact","17727 ABERMORE LN, RICHMOND, TX, 77407",642933597,"L"
88727,"17727 PAXTON AVE","LANSING","IL",60438,41.5725317390001,-87.568509777,227,"17727 PAXTON AVE, LANSING, IL, 60438","Match","Exact","17727 PAXTON AVE, LANSING, IL, 60438",624466092,"L"
88728,"17727 RED OAK DRIVE","HAGERSTOWN","MD",21740,39.6158142350001,-77.753074437,228,"17727 RED OAK DRIVE, HAGERSTOWN, MD, 21740","Match","Exact","17727 RED OAK DR, HAGERSTOWN, MD, 21740",60786856,"R"
88729,"17728 22ND AVE NE","SHORELINE","WA",98155,47.7567428030001,-122.305046817,229,"17728 22ND AVE NE, SHORELINE, WA, 98155","Match","Exact","17728 22ND AVE NE, SHORELINE, WA, 98155",186575940,"R"
88730,"1773 AUBURN LN","COLUMBIA","TN",38401,35.612784516,-87.10872711,230,"1773 AUBURN LN, COLUMBIA, TN, 38401","Match","Exact","1773 AUBURN LN, COLUMBIA, TN, 38401",627295266,"L"
88731,"1773 CORDOVA AVENUE","PELLA","IA",50219,41.3959536240001,-92.813983236,231,"1773 CORDOVA AVENUE, PELLA, IA, 50219","Match","Exact","1773 CORDOVA AVE, PELLA, IA, 50219",89385475,"L"
88732,"1773 DORCHESTER AVE SUITE 2B","BOSTON","MA",2124,42.289783013,-71.063179701,232,"1773 DORCHESTER AVE SUITE 2B, BOSTON, MA, 2124","Match","Exact","1773 DORCHESTER AVE, BOSTON, MA, 02124",85715242,"R"
88733,"1773 FARMINGTON AVENUE","UNIONVILLE","CT",6085,41.7559239830001,-72.880896083,233,"1773 FARMINGTON AVENUE, UNIONVILLE, CT, 6085","Match","Exact","1773 FARMINGTON AVE, UNIONVILLE, CT, 06085",3524807,"L"
88734,"1773 FERRAN AVENUE","SACRAMENTO","CA",95832,38.4808654390001,-121.497215679,234,"1773 FERRAN AVENUE, SACRAMENTO, CA, 95832","Match","Exact","1773 FERRAN AVE, SACRAMENTO, CA, 95832",133350759,"L"
88735,"1773 MANOR DR APT C","UNION","NJ",7083,40.711607696,-74.2488847399999,235,"1773 MANOR DR APT C, UNION, NJ, 7083","Match","Exact","1773 MANOR DR, UNION, NJ, 07083",60605543,"R"
88736,"1773 N STATE ROAD 7 101H","LAUDERHILL","FL",33313,NA,NA,236,"1773 N STATE ROAD 7 101H, LAUDERHILL, FL, 33313","No_Match",NA,NA,NA,NA
88737,"1773 N STATE ROAD 7","LAUDERHILL","FL",33313,NA,NA,237,"1773 N STATE ROAD 7, LAUDERHILL, FL, 33313","No_Match",NA,NA,NA,NA
88738,"1773 NORTH STATE ROAD 7","LAUDERHILL","FL",33313,NA,NA,238,"1773 NORTH STATE ROAD 7, LAUDERHILL, FL, 33313","No_Match",NA,NA,NA,NA
88739,"1773 ORCHARD ROAD","BERLIN","CT",6037,41.5957658880001,-72.7575659999999,239,"1773 ORCHARD ROAD, BERLIN, CT, 6037","Match","Exact","1773 ORCHARD RD, BERLIN, CT, 06037",3501516,"L"
88740,"1773 PINE HOLLOW ROAD","MCKEES ROCKS","PA",15136,40.477021291,-80.1019392969999,240,"1773 PINE HOLLOW ROAD, MCKEES ROCKS, PA, 15136","Match","Non_Exact","1773 PINE HOLLOW RD, MC KEES ROCKS, PA, 15136",51614580,"R"
88741,"1773 SADDLEBACK RIDGE RD","APOPKA","FL",32703,28.6522256370001,-81.486017024,241,"1773 SADDLEBACK RIDGE RD, APOPKA, FL, 32703","Match","Exact","1773 SADDLEBACK RIDGE RD, APOPKA, FL, 32703",634027353,"L"
88742,"1773 TEANECK RD","TEANECK","NJ",7666,40.909573557,-73.998412015,242,"1773 TEANECK RD, TEANECK, NJ, 7666","Match","Exact","1773 TEANECK RD, TEANECK, NJ, 07666",64372233,"R"
88743,"1773 TURTLE HILL DRIVE","CORDOVA","TN",38016,35.173741529,-89.76045478,243,"1773 TURTLE HILL DRIVE, CORDOVA, TN, 38016","Match","Exact","1773 TURTLE HILL DR, CORDOVA, TN, 38016",637460431,"L"
88744,"1773 W BIG BEAVER ROAD","TROY","MI",48084,42.5614917020001,-83.173663435,244,"1773 W BIG BEAVER ROAD, TROY, MI, 48084","Match","Exact","1773 W BIG BEAVER RD, TROY, MI, 48084",69736932,"L"
88745,"1773 WAY RD","PICKENS","MS",39146,32.748842607,-89.98575675,245,"1773 WAY RD, PICKENS, MS, 39146","Match","Exact","1773 WAY RD, PICKENS, MS, 39146",152470719,"R"
88746,"17730 LAKE MALONE CT","HUMBLE","TX",77346,29.9743913720001,-95.1815132419999,246,"17730 LAKE MALONE CT, HUMBLE, TX, 77346","Match","Exact","17730 LAKE MALONE CT, HUMBLE, TX, 77346",638164840,"L"
88747,"17731 NE 105TH WAY","REDMOND","WA",98052,47.6941294630001,-122.103371024,247,"17731 NE 105TH WAY, REDMOND, WA, 98052","Match","Exact","17731 NE 105TH WAY, REDMOND, WA, 98052",239776790,"R"
88748,"17732 - 130TH AVE","BARRETT","MN",56311,NA,NA,248,"17732 - 130TH AVE, BARRETT, MN, 56311","No_Match",NA,NA,NA,NA
88749,"17732 HIGHLAND ROAD SUITE G 216","BATON ROUGE","LA",70810,30.344901866,-91.031742965,249,"17732 HIGHLAND ROAD SUITE G 216, BATON ROUGE, LA, 70810","Match","Exact","17732 HIGHLAND RD, BATON ROUGE, LA, 70810",92206929,"R"
88750,"17733 FIREBIRD PATH","FARMINGTON","MN",55024,44.692667671,-93.190776371,250,"17733 FIREBIRD PATH, FARMINGTON, MN, 55024","Match","Exact","17733 FIREBIRD PATH, FARMINGTON, MN, 55024",37931560,"L"
88751,"17733 SOAPSTONE COURT","DECATUR","GA",30034,NA,NA,251,"17733 SOAPSTONE COURT, DECATUR, GA, 30034","No_Match",NA,NA,NA,NA
88752,"17734 68TH PLACE NORTH","MAPLE GROVE","MN",55311,45.079390833,-93.504129957,252,"17734 68TH PLACE NORTH, MAPLE GROVE, MN, 55311","Match","Non_Exact","17734 68TH PL, MAPLE GROVE, MN, 55311",640519708,"R"
88753,"17734 68TH PLACE NORTH","OSSEO","MN",55311,45.079390833,-93.504129957,253,"17734 68TH PLACE NORTH, OSSEO, MN, 55311","Match","Non_Exact","17734 68TH PL, OSSEO, MN, 55311",640519708,"R"
88754,"17737 CHERRYWOOD LANE","HOMEWOOD","IL",60430,41.5670084430001,-87.684080254,254,"17737 CHERRYWOOD LANE, HOMEWOOD, IL, 60430","Match","Exact","17737 CHERRYWOOD LN, HOMEWOOD, IL, 60430",111708959,"L"
88755,"17737 HIGHWAY 40","COVINGTON","LA",70435,30.6086670810001,-90.111056392,255,"17737 HIGHWAY 40, COVINGTON, LA, 70435","Match","Non_Exact","17737 STATE RTE 40, COVINGTON, LA, 70435",111264825,"R"
88756,"17737 S LEWELING RD","SCRANTON","KS",66537,38.743713164,-95.723316876,256,"17737 S LEWELING RD, SCRANTON, KS, 66537","Match","Non_Exact","17737 S LEWELLING RD, SCRANTON, KS, 66537",11219204,"L"
88757,"17739 CAMINO DEL REY","MORENO VALLEY","CA",92551,NA,NA,257,"17739 CAMINO DEL REY, MORENO VALLEY, CA, 92551","No_Match",NA,NA,NA,NA
88758,"17739 FONTINA PATH","FARMINGTON","MN",55024,44.6926969840001,-93.198978355,258,"17739 FONTINA PATH, FARMINGTON, MN, 55024","Match","Exact","17739 FONTINA PATH, FARMINGTON, MN, 55024",37937072,"L"
88759,"17739 INDIANOLA AVE","LAKEWOOD","OH",44107,41.472903284,-81.820858557,259,"17739 INDIANOLA AVE, LAKEWOOD, OH, 44107","Match","Exact","17739 INDIANOLA AVE, LAKEWOOD, OH, 44107",61097894,"L"
88760,"1774 23RD AVENUE","SAN FRANCISCO","CA",94122,37.7545879300001,-122.480787332,260,"1774 23RD AVENUE, SAN FRANCISCO, CA, 94122","Match","Exact","1774 23RD AVE, SAN FRANCISCO, CA, 94122",192278094,"L"
88761,"1774 23RD STREET","CUYAHOGA FALLS","OH",44223,41.1307380170001,-81.509826787,261,"1774 23RD STREET, CUYAHOGA FALLS, OH, 44223","Match","Exact","1774 23RD ST, CUYAHOGA FALLS, OH, 44223",61347880,"L"
88762,"1774 ARMORY STREET","EAST GREENWICH","RI",2818,41.6611432130001,-71.450976004,262,"1774 ARMORY STREET, EAST GREENWICH, RI, 2818","Match","Exact","1774 ARMORY ST, EAST GREENWICH, RI, 02818",159151218,"R"
88763,"1774 CLAY HILL POINT","MARIETTA","GA",30064,NA,NA,263,"1774 CLAY HILL POINT, MARIETTA, GA, 30064","Tie",NA,NA,NA,NA
88764,"1774 CLEAR LAKE AVE","MILPITAS","CA",95035,37.418744249,-121.872381335,264,"1774 CLEAR LAKE AVE, MILPITAS, CA, 95035","Match","Exact","1774 CLEAR LAKE AVE, MILPITAS, CA, 95035",123175432,"L"
88765,"1774 CLIFTON AVE APT 1","COLUMBUS","OH",43203,39.971020738,-82.9542525429999,265,"1774 CLIFTON AVE APT 1, COLUMBUS, OH, 43203","Match","Exact","1774 CLIFTON AVE, COLUMBUS, OH, 43203",641120306,"L"
88766,"1774 DELTA DRIVE","TROY","MI",48085,42.6222995840001,-83.118739605,266,"1774 DELTA DRIVE, TROY, MI, 48085","Match","Exact","1774 DELTA DR, TROY, MI, 48085",69773358,"L"
88767,"1774 E PACIFIC LN","INVERNESS","FL",34453,28.8849314780001,-82.404673408,267,"1774 E PACIFIC LN, INVERNESS, FL, 34453","Match","Exact","1774 E PACIFIC LN, INVERNESS, FL, 34453",86215621,"R"
88768,"1774 EMERALD DRIVE","CLEARWATER","FL",33765,27.948572073,-82.7633507099999,268,"1774 EMERALD DRIVE, CLEARWATER, FL, 33765","Match","Non_Exact","1774 EMERALD DR, CLEARWATER, FL, 33756",124675911,"L"
88769,"1774 FALLBROOKE DR","HASTINGS","MN",55033,44.7248115450001,-92.892326844,269,"1774 FALLBROOKE DR, HASTINGS, MN, 55033","Match","Exact","1774 FALLBROOKE DR, HASTINGS, MN, 55033",617907071,"L"
88770,"1774 FOXWORTHY AVE","SAN JOSE","CA",95124,37.268335071,-121.91483642,270,"1774 FOXWORTHY AVE, SAN JOSE, CA, 95124","Match","Exact","1774 FOXWORTHY AVE, SAN JOSE, CA, 95124",122921110,"L"
88771,"1774 LINCOLN WAY EAST","CHAMBERSBURG","PA",17202,39.923545952,-77.6071534119999,271,"1774 LINCOLN WAY EAST, CHAMBERSBURG, PA, 17202","Match","Exact","1774 LINCOLN WAY E, CHAMBERSBURG, PA, 17202",635888458,"L"
88772,"1774 SAW LAKE DRIVE","MIDDLEBURG","FL",32068,30.1185580750001,-81.818372914,272,"1774 SAW LAKE DRIVE, MIDDLEBURG, FL, 32068","Match","Exact","1774 SAW LAKE DR, MIDDLEBURG, FL, 32068",83834784,"R"
88773,"1774 W ST SE","WASHINGTON","DC",20020,38.8623868170001,-76.979298316,273,"1774 W ST SE, WASHINGTON, DC, 20020","Match","Exact","1774 W ST SE, WASHINGTON, DC, 20020",648824018,"L"
88774,"1774 WAGGONER ROAD","CARTHAGE","MS",39051,32.811919419,-89.5687246269999,274,"1774 WAGGONER ROAD, CARTHAGE, MS, 39051","Match","Exact","1774 WAGGONER RD, CARTHAGE, MS, 39051",636629596,"R"
88775,"1774 WASHINGTON ST","HANOVER","MA",2339,42.1468961750001,-70.84535039,275,"1774 WASHINGTON ST, HANOVER, MA, 2339","Match","Exact","1774 WASHINGTON ST, HANOVER, MA, 02339",87479933,"L"
88776,"17740 HWY 133","DIXON","MO",65459,37.991366725,-92.164395165,276,"17740 HWY 133, DIXON, MO, 65459","Match","Non_Exact","17740 STATE HWY 133, DIXON, MO, 65459",26406324,"R"
88777,"17740 LOST TRAIL","CHAGRIN FALLS","OH",44023,41.381670957,-81.335854975,277,"17740 LOST TRAIL, CHAGRIN FALLS, OH, 44023","Match","Exact","17740 LOST TRL, CHAGRIN FALLS, OH, 44023",137443174,"R"
88778,"17740 ROOKS RD","ERIE","KS",67546,37.6252468280001,-95.215522697,278,"17740 ROOKS RD, ERIE, KS, 67546","Match","Non_Exact","17740 ROOKS RD, ERIE, KS, 66733",651765475,"R"
88779,"17740 SHADY ELM AVE","BATON ROUGE","LA",70816,30.4205782270001,-90.991659619,279,"17740 SHADY ELM AVE, BATON ROUGE, LA, 70816","Match","Exact","17740 SHADY ELM AVE, BATON ROUGE, LA, 70816",635141342,"L"
88780,"17740 WEST 67TH STREET","SHAWNEE","KS",66217,39.0082856540001,-94.7911291029999,280,"17740 WEST 67TH STREET, SHAWNEE, KS, 66217","Match","Exact","17740 W 67TH ST, SHAWNEE, KS, 66217",91337588,"L"
88781,"17741 EAGLE AVE","CLEAR LAKE","IA",50428,43.1512050100001,-93.41410481,281,"17741 EAGLE AVE, CLEAR LAKE, IA, 50428","Match","Exact","17741 EAGLE AVE, CLEAR LAKE, IA, 50428",7301189,"R"
88782,"17741 ROSCOE BOULEVARD","NORTHRIDGE","CA",91325,34.2209708990001,-118.520097578,282,"17741 ROSCOE BOULEVARD, NORTHRIDGE, CA, 91325","Match","Exact","17741 ROSCOE BLVD, NORTHRIDGE, CA, 91325",141543836,"R"
88783,"177410 N 2810 ROAD","DUNCAN","OK",73533,34.442888962,-97.982072966,283,"177410 N 2810 ROAD, DUNCAN, OK, 73533","Match","Non_Exact","177410 N2810 RD, DUNCAN, OK, 73533",13683829,"R"
88784,"17742 MONTAGE","CLINTON TWP","MI",48038,42.622521836,-82.942039075,284,"17742 MONTAGE, CLINTON TWP, MI, 48038","Match","Exact","17742 MONTAGE, CLINTON TOWNSHIP, MI, 48038",648185651,"R"
88785,"17743 NORTH 81ST WAY","SCOTTSDALE","AZ",85255,33.646975796,-111.90382159,285,"17743 NORTH 81ST WAY, SCOTTSDALE, AZ, 85255","Match","Exact","17743 N 81ST WAY, SCOTTSDALE, AZ, 85255",128583831,"R"
88786,"17744 E RISSO COURT","LINDEN","CA",95236,38.017856771,-121.098943047,286,"17744 E RISSO COURT, LINDEN, CA, 95236","Match","Exact","17744 E RISSO CT, LINDEN, CA, 95236",133857451,"L"
88787,"17744 W 159TH TERRACE","OLATHE","KS",66062,38.8395678570001,-94.795277262,287,"17744 W 159TH TERRACE, OLATHE, KS, 66062","Match","Exact","17744 W 159TH TER, OLATHE, KS, 66062",91312555,"R"
88788,"17745 ROSEWOOD DR UNIT 2B","LANSING","IL",60438,41.5729406020001,-87.5670746769999,288,"17745 ROSEWOOD DR UNIT 2B, LANSING, IL, 60438","Match","Exact","17745 ROSEWOOD DR, LANSING, IL, 60438",111785112,"L"
88789,"17746 OAK PARK AVENUE","TINLEY PARK","IL",60477,41.5687407820001,-87.784141339,289,"17746 OAK PARK AVENUE, TINLEY PARK, IL, 60477","Match","Exact","17746 OAK PARK AVE, TINLEY PARK, IL, 60477",631739194,"R"
88790,"17746 RIDGE PARK AVENUE","BATON ROUGE","LA",70817,30.3598974120001,-90.9921620659999,290,"17746 RIDGE PARK AVENUE, BATON ROUGE, LA, 70817","Match","Exact","17746 RIDGE PARK AVE, BATON ROUGE, LA, 70817",92206861,"R"
88791,"17746 S CANTER LANE","OREGON CITY","OR",97045,45.348337429,-122.500820297,291,"17746 S CANTER LANE, OREGON CITY, OR, 97045","Match","Exact","17746 S CANTER LN, OREGON CITY, OR, 97045",157922111,"R"
88792,"17746 WILLARD LANE","LOCKPORT","IL",60441,41.5641912470001,-88.012771616,292,"17746 WILLARD LANE, LOCKPORT, IL, 60441","Match","Exact","17746 WILLARD LN, LOCKPORT, IL, 60441",111635907,"L"
88793,"17748 CYPRESS AVE","COUNTRY CLUB HILLS","IL",60478,41.566962075,-87.715563872,293,"17748 CYPRESS AVE, COUNTRY CLUB HILLS, IL, 60478","Match","Exact","17748 CYPRESS AVE, COUNTRY CLUB HILLS, IL, 60478",112207421,"L"
88794,"17748 SILVERSTREAM DRIVE","CANYON COUNTRY","CA",91387,34.42047009,-118.443007294,294,"17748 SILVERSTREAM DRIVE, CANYON COUNTRY, CA, 91387","Match","Exact","17748 SILVERSTREAM DR, CANYON COUNTRY, CA, 91387",141520491,"R"
88795,"1775 48TH AVE","CAPITOLA","CA",95010,36.974435509,-121.957353784,295,"1775 48TH AVE, CAPITOLA, CA, 95010","Match","Exact","1775 48TH AVE, CAPITOLA, CA, 95010",125509434,"L"
88796,"1775 90TH STREET","WEST DES MOINES","IA",50266,41.5977187450001,-93.830325734,296,"1775 90TH STREET, WEST DES MOINES, IA, 50266","Match","Exact","1775 90TH ST, WEST DES MOINES, IA, 50266",635753487,"R"
88797,"1775 AUTUMNDALE DR","CORDOVA","TN",38016,35.173832319,-89.772542228,297,"1775 AUTUMNDALE DR, CORDOVA, TN, 38016","Match","Exact","1775 AUTUMNDALE DR, CORDOVA, TN, 38016",72954925,"R"
88798,"1775 CAVAN CT","TEHACHAPI","CA",93561,NA,NA,298,"1775 CAVAN CT, TEHACHAPI, CA, 93561","No_Match",NA,NA,NA,NA
88799,"1775 CIMARRON COURT SE","SMYRNA","GA",30080,33.870044466,-84.502232896,299,"1775 CIMARRON COURT SE, SMYRNA, GA, 30080","Match","Non_Exact","1775 CIMARRON CT, SMYRNA, GA, 30080",17181772,"L"
88800,"1775 CORCORAN ST  NW  APT 57","WASHINGTON","DC",20009,38.911873815,-77.040532603,300,"1775 CORCORAN ST  NW  APT 57, WASHINGTON, DC, 20009","Match","Exact","1775 CORCORAN ST NW, WASHINGTON, DC, 20009",76225604,"R"
88801,"1775 E MCKINLEY ST 159","PHOENIX","AZ",85006,33.456875412,-112.043667768,301,"1775 E MCKINLEY ST 159, PHOENIX, AZ, 85006","Match","Non_Exact","1775 E MCKINLEY ST, PHOENIX, AZ, 85006",128214739,"R"
88802,"1775 E PALM CANYON DR  STE 110-212","PALM SPRINGS","CA",92264,NA,NA,302,"1775 E PALM CANYON DR  STE 110-212, PALM SPRINGS, CA, 92264","Tie",NA,NA,NA,NA
88803,"1775 E PALM CANYON DR SUITE 110233","PALM SPRINGS","CA",92264,NA,NA,303,"1775 E PALM CANYON DR SUITE 110233, PALM SPRINGS, CA, 92264","Tie",NA,NA,NA,NA
88804,"1775 EAST 55TH STREET","CLEVELAND","OH",44103,41.5105141770001,-81.6518411709999,304,"1775 EAST 55TH STREET, CLEVELAND, OH, 44103","Match","Exact","1775 E 55TH ST, CLEVELAND, OH, 44103",61112672,"L"
88805,"1775 ELMWOOD AVE","COLUMBUS","OH",43212,39.993362082,-83.0512122759999,305,"1775 ELMWOOD AVE, COLUMBUS, OH, 43212","Match","Exact","1775 ELMWOOD AVE, COLUMBUS, OH, 43212",637555313,"L"
88806,"1775 EMERALD LN","MIDDLEBURG","FL",32068,30.1031714820001,-81.785785537,306,"1775 EMERALD LN, MIDDLEBURG, FL, 32068","Match","Exact","1775 EMERALD LN, MIDDLEBURG, FL, 32068",83820521,"R"
88807,"1775 EYE STREET NW 1150","WASHINGTON","DC",20006,NA,NA,307,"1775 EYE STREET NW 1150, WASHINGTON, DC, 20006","No_Match",NA,NA,NA,NA
88808,"1775 EYE STREET NW SUITE 1150","WASHINGTON","DC",20006,NA,NA,308,"1775 EYE STREET NW SUITE 1150, WASHINGTON, DC, 20006","No_Match",NA,NA,NA,NA
88809,"1775 FOREST POND LANE","ROSWELL","GA",30075,34.06582603,-84.4137921399999,309,"1775 FOREST POND LANE, ROSWELL, GA, 30075","Match","Exact","1775 FOREST POND LN, ROSWELL, GA, 30075",17382798,"R"
88810,"1775 GRAND CONCOURSE 8TH FLOOR","BRONX","NY",10453,40.8467173860001,-73.9092559869999,310,"1775 GRAND CONCOURSE 8TH FLOOR, BRONX, NY, 10453","Match","Exact","1775 GRAND CONCOURSE, BRONX, NY, 10453",640810581,"L"
88811,"1775 HARBOR ROAD","KISSIMMEE","FL",34746,28.235250229,-81.424562621,311,"1775 HARBOR ROAD, KISSIMMEE, FL, 34746","Match","Exact","1775 HARBOR RD, KISSIMMEE, FL, 34746",176690765,"R"
88812,"1775 HOLLIFORD COURT","CHARLOTTE","NC",28215,35.244152415,-80.7702222779999,312,"1775 HOLLIFORD COURT, CHARLOTTE, NC, 28215","Match","Exact","1775 HOLLIFORD CT, CHARLOTTE, NC, 28215",70562175,"R"
88813,"1775 HWY 178 E","BLUE SPRINGS","MS",38828,34.409307841,-88.914705928,313,"1775 HWY 178 E, BLUE SPRINGS, MS, 38828","Match","Exact","1775 HWY 178 E, BLUE SPRINGS, MS, 38828",76600322,"R"
88814,"1775 MARYLAND BLVD","BIRMINGHAM","MI",48009,42.5331907290001,-83.220369611,314,"1775 MARYLAND BLVD, BIRMINGHAM, MI, 48009","Match","Exact","1775 MARYLAND BLVD, BIRMINGHAM, MI, 48009",69735443,"L"
88815,"1775 MEMPHIS STREET SUITE B","HERNANDO","MS",38632,34.8387972350001,-89.9966433,315,"1775 MEMPHIS STREET SUITE B, HERNANDO, MS, 38632","Match","Exact","1775 MEMPHIS ST, HERNANDO, MS, 38632",91841467,"L"
88816,"1775 N KLEMMER AVE","KUNA","ID",83634,NA,NA,316,"1775 N KLEMMER AVE, KUNA, ID, 83634","Tie",NA,NA,NA,NA
88817,"1775 OHIO AVE 102","LONG BEACH","CA",90804,33.7893110270001,-118.160032399,317,"1775 OHIO AVE 102, LONG BEACH, CA, 90804","Match","Non_Exact","1775 N OHIO AVE, LONG BEACH, CA, 90804",142775965,"L"
88818,"1775 OHIO AVE UNIT 206","LONG BEACH","CA",90804,33.7893110270001,-118.160032399,318,"1775 OHIO AVE UNIT 206, LONG BEACH, CA, 90804","Match","Non_Exact","1775 N OHIO AVE, LONG BEACH, CA, 90804",142775965,"L"
88819,"1775 OHLTOWN MCDONALD RD","NILES","OH",44446,41.159163694,-80.755309368,319,"1775 OHLTOWN MCDONALD RD, NILES, OH, 44446","Match","Exact","1775 OHLTOWN MCDONALD RD, NILES, OH, 44446",633563517,"R"
88820,"1775 PANDA WAY APARTMENT 332","HAYWARD","CA",94541,37.6763393260001,-122.066099122,320,"1775 PANDA WAY APARTMENT 332, HAYWARD, CA, 94541","Match","Exact","1775 PANDA WAY, HAYWARD, CA, 94541",125021493,"R"
88821,"1775 PARK BLVD","CAMDEN","NJ",8103,39.932971131,-75.096651423,321,"1775 PARK BLVD, CAMDEN, NJ, 8103","Match","Exact","1775 PARK BLVD, CAMDEN, NJ, 08103",134405006,"R"
88822,"1775 PARK ROAD","CONYERS","GA",30094,NA,NA,322,"1775 PARK ROAD, CONYERS, GA, 30094","No_Match",NA,NA,NA,NA
88823,"1775 PARKER ROAD SUITE 213","CONYERS","GA",30094,NA,NA,323,"1775 PARKER ROAD SUITE 213, CONYERS, GA, 30094","No_Match",NA,NA,NA,NA
88824,"1775 PENNSYLVANIA AVENUE NW","WASHINGTON","DC",20006,38.899381657,-77.041057134,324,"1775 PENNSYLVANIA AVENUE NW, WASHINGTON, DC, 20006","Match","Exact","1775 PENNSYLVANIA AVE NW, WASHINGTON, DC, 20006",76225654,"R"
88825,"1775 PR 1460","DUBLIN","TX",76446,32.0305179000001,-98.1477061529999,325,"1775 PR 1460, DUBLIN, TX, 76446","Match","Non_Exact","1775 PR RD 1460, DUBLIN, TX, 76446",158519350,"R"
88826,"1775 RED ROBIN ROAD","COLUMBUS","OH",43229,40.0649594600001,-82.97121749,326,"1775 RED ROBIN ROAD, COLUMBUS, OH, 43229","Match","Exact","1775 RED ROBIN RD, COLUMBUS, OH, 43229",135607975,"R"
88827,"1775 RICHARDSVILLE RD","BOWLING GREEN","KY",42101,37.1011642880001,-86.471658538,327,"1775 RICHARDSVILLE RD, BOWLING GREEN, KY, 42101","Match","Exact","1775 RICHARDSVILLE RD, BOWLING GREEN, KY, 42101",28001221,"L"
88828,"1775 S EAST BAY BLVD","PROVO","UT",84606,40.2102707510001,-111.651968621,328,"1775 S EAST BAY BLVD, PROVO, UT, 84606","Match","Exact","1775 S EAST BAY BLVD, PROVO, UT, 84606",134223308,"L"
88829,"1775 SAND MINE RD","DAVENPORT","FL",33897,28.3102307140001,-81.666569571,329,"1775 SAND MINE RD, DAVENPORT, FL, 33897","Match","Exact","1775 SAND MINE RD, DAVENPORT, FL, 33897",651841868,"R"
88830,"1775 SENG CREEK ROAD BOX 721","WHITESVILLE","WV",25209,37.997241129,-81.530390443,330,"1775 SENG CREEK ROAD BOX 721, WHITESVILLE, WV, 25209","Match","Exact","1775 SENG CREEK RD, WHITESVILLE, WV, 25209",78578306,"R"
88831,"1775 SILVER AVE","GRAND RAPIDS","MI",49507,42.9314005360001,-85.640568806,331,"1775 SILVER AVE, GRAND RAPIDS, MI, 49507","Match","Non_Exact","1775 SILVER AVE SE, GRAND RAPIDS, MI, 49507",12461802,"R"
88832,"1775 SOLAMERE COURT","AUBURN","AL",36832,32.6053452940001,-85.5160256949999,332,"1775 SOLAMERE COURT, AUBURN, AL, 36832","Match","Exact","1775 SOLAMERE CT, AUBURN, AL, 36832",646767179,"R"
88833,"1775 SW HULEN STREET","BURLESON","TX",76028,32.520978418,-97.364547968,333,"1775 SW HULEN STREET, BURLESON, TX, 76028","Match","Exact","1775 SW HULEN ST, BURLESON, TX, 76028",601268059,"L"
88834,"1775 TRIBUTE ROAD SUITE D","SACRAMENTO","CA",95815,38.5984352250001,-121.446563802,334,"1775 TRIBUTE ROAD SUITE D, SACRAMENTO, CA, 95815","Match","Exact","1775 TRIBUTE RD, SACRAMENTO, CA, 95815",133334530,"L"
88835,"1775 TYSONS BLVD  5TH FLOOR","TYSONS","VA",22102,38.9212586780001,-77.221788643,335,"1775 TYSONS BLVD  5TH FLOOR, TYSONS, VA, 22102","Match","Exact","1775 TYSONS BLVD, TYSONS, VA, 22102",76014589,"R"
88836,"1775 TYSONS BLVD FL 5","TYSONS","VA",22102,38.9212586780001,-77.221788643,336,"1775 TYSONS BLVD FL 5, TYSONS, VA, 22102","Match","Exact","1775 TYSONS BLVD, TYSONS, VA, 22102",76014589,"R"
88837,"1775 TYSONS BLVD STE 500","TYSONS","VA",22102,38.9212586780001,-77.221788643,337,"1775 TYSONS BLVD STE 500, TYSONS, VA, 22102","Match","Exact","1775 TYSONS BLVD, TYSONS, VA, 22102",76014589,"R"
88838,"1775 VAN DYKE ST APT 4","DETROIT","MI",48214,42.3569975410001,-82.998925888,338,"1775 VAN DYKE ST APT 4, DETROIT, MI, 48214","Match","Exact","1775 VAN DYKE ST, DETROIT, MI, 48214",95484065,"L"
88839,"1775 W CHANDLER BLVD","CHANDLER","AZ",85224,33.3060025570001,-111.872944228,339,"1775 W CHANDLER BLVD, CHANDLER, AZ, 85224","Match","Exact","1775 W CHANDLER BLVD, CHANDLER, AZ, 85224",128804311,"L"
88840,"1775 W STATE ST NUM 210","BOISE","ID",83702,43.6244672450001,-116.212007186,340,"1775 W STATE ST NUM 210, BOISE, ID, 83702","Match","Non_Exact","1775 W STATE ST, BOISE, ID, 83702",117859658,"L"
88841,"1775 W STATE STREET 304","BOISE","ID",83702,43.6244672450001,-116.212007186,341,"1775 W STATE STREET 304, BOISE, ID, 83702","Match","Non_Exact","1775 W STATE ST, BOISE, ID, 83702",117859658,"L"
88842,"1775 WESTERN AVE","ALBANY","NY",12203,42.6898564260001,-73.865104883,342,"1775 WESTERN AVE, ALBANY, NY, 12203","Match","Exact","1775 WESTERN AVE, ALBANY, NY, 12203",18304053,"R"
88843,"1775 YORK AVENUE 37E","NEW YORK","NY",10128,40.779884983,-73.944309378,343,"1775 YORK AVENUE 37E, NEW YORK, NY, 10128","Match","Exact","1775 YORK AVE, NEW YORK, NY, 10128",59658501,"L"
88844,"1775 YORK AVENUE APT 20A","NEW YORK","NY",10128,40.779884983,-73.944309378,344,"1775 YORK AVENUE APT 20A, NEW YORK, NY, 10128","Match","Exact","1775 YORK AVE, NEW YORK, NY, 10128",59658501,"L"
88845,"17750 CAVAN CT","TEHACHAPI","CA",93561,35.07803161,-118.628883019,345,"17750 CAVAN CT, TEHACHAPI, CA, 93561","Match","Exact","17750 CAVAN CT, TEHACHAPI, CA, 93561",108989602,"L"
88846,"17750 N US HWY 287","TENNESSEE COLONY","TX",75861,31.9215002990001,-95.923903531,346,"17750 N US HWY 287, TENNESSEE COLONY, TX, 75861","Match","Exact","17750 US HWY 287, TENNESSEE COLONY, TX, 75861",74648365,"R"
88847,"17750 NW 67TH AVE","HIALEAH","FL",33015,25.935086762,-80.308340636,347,"17750 NW 67TH AVE, HIALEAH, FL, 33015","Match","Exact","17750 NW 67TH AVE, HIALEAH, FL, 33015",116250417,"R"
88848,"17750 NW 77TH CT","HIALEAH","FL",33015,25.9345228010001,-80.326307938,348,"17750 NW 77TH CT, HIALEAH, FL, 33015","Match","Exact","17750 NW 77TH CT, HIALEAH, FL, 33015",116044279,"L"
88849,"17750 ROARING CREEK RD","LEAVENWORTH","WA",98826,47.7600407530001,-120.805746294,349,"17750 ROARING CREEK RD, LEAVENWORTH, WA, 98826","Match","Exact","17750 ROARING CREEK RD, LEAVENWORTH, WA, 98826",629006459,"R"
88850,"17750 SIERRA WAY","MONUMENT","CO",80132,39.088936119,-104.816282109,350,"17750 SIERRA WAY, MONUMENT, CO, 80132","Match","Exact","17750 SIERRA WAY, MONUMENT, CO, 80132",105508275,"R"
88851,"17750 SW HOOK AND EYE LANE","MCMINNVILLE","OR",97128,45.135629163,-123.230007229,351,"17750 SW HOOK AND EYE LANE, MCMINNVILLE, OR, 97128","Match","Exact","17750 SW HOOK AND EYE LN, MCMINNVILLE, OR, 97128",156494336,"L"
88852,"17751 HAMILTON ROAD","DETROIT","MI",48203,42.4240193100001,-83.12239747,352,"17751 HAMILTON ROAD, DETROIT, MI, 48203","Match","Exact","17751 HAMILTON RD, DETROIT, MI, 48203",95705131,"L"
88853,"17753 POLARA WAY","NAMPA","ID",83639,43.6312109290001,-116.576539005,353,"17753 POLARA WAY, NAMPA, ID, 83639","Match","Non_Exact","17753 POLARA WAY, NAMPA, ID, 83687",122840920,"L"
88854,"17756 LAURENCE CREEK LANE","LOVELAND","CO",80538,NA,NA,354,"17756 LAURENCE CREEK LANE, LOVELAND, CO, 80538","No_Match",NA,NA,NA,NA
88855,"17756 MATTHEWS FL 1","RIVERVIEW","MI",48193,42.179135509,-83.181574526,355,"17756 MATTHEWS FL 1, RIVERVIEW, MI, 48193","Match","Non_Exact","17756 MATTHEWS ST, RIVERVIEW, MI, 48193",95458146,"R"
88856,"17756 PENNACOOK CT","SAN DIEGO","CA",92127,33.033960058,-117.091711724,356,"17756 PENNACOOK CT, SAN DIEGO, CA, 92127","Match","Exact","17756 PENNACOOK CT, SAN DIEGO, CA, 92127",195657190,"R"
88857,"17759 ORCHARDS LANE","FAIRHOPE","AL",36532,30.485016429,-87.8751443949999,357,"17759 ORCHARDS LANE, FAIRHOPE, AL, 36532","Match","Exact","17759 ORCHARDS LN, FAIRHOPE, AL, 36532",131636506,"R"
88858,"1776 1/2 AIRWAY AVE","KINGMAN","AZ",86409,35.2248325750001,-114.031643876,358,"1776 1/2 AIRWAY AVE, KINGMAN, AZ, 86409","Match","Exact","1776 AIRWAY AVE, KINGMAN, AZ, 86409",618625558,"L"
88859,"1776 ASTERIA COURT","DULUTH","GA",30097,34.00866547,-84.091384671,359,"1776 ASTERIA COURT, DULUTH, GA, 30097","Match","Non_Exact","1776 ASTERIA CT NW, DULUTH, GA, 30097",627552446,"L"
88860,"1776 BERNSTEIN DR","VIRGINIA BEACH","VA",23454,36.774592339,-75.988391045,360,"1776 BERNSTEIN DR, VIRGINIA BEACH, VA, 23454","Match","Exact","1776 BERNSTEIN DR, VIRGINIA BCH, VA, 23454",643973460,"R"
88861,"1776 BICENTENNIAL WAY APT D14","NORTH PROVIDENCE","RI",2911,NA,NA,361,"1776 BICENTENNIAL WAY APT D14, NORTH PROVIDENCE, RI, 2911","No_Match",NA,NA,NA,NA
88862,"1776 BOSTON ROAD 3C","BRONX","NY",10460,40.8381251230001,-73.8864843979999,362,"1776 BOSTON ROAD 3C, BRONX, NY, 10460","Match","Exact","1776 BOSTON RD, BRONX, NY, 10460",80301838,"R"
88863,"1776 BROADWAY- UNIT 1813","DENVER","CO",80202,NA,NA,363,"1776 BROADWAY- UNIT 1813, DENVER, CO, 80202","No_Match",NA,NA,NA,NA
88864,"1776 CARSWELL AVENUE","NAS FORT WORTH","TX",76127,NA,NA,364,"1776 CARSWELL AVENUE, NAS FORT WORTH, TX, 76127","No_Match",NA,NA,NA,NA
88865,"1776 E 775 S","HILLSDALE","IN",47854,39.7790013910001,-87.432752484,365,"1776 E 775 S, HILLSDALE, IN, 47854","Match","Non_Exact","1776 E CO RD 775 S, HILLSDALE, IN, 47854",66507603,"L"
88866,"1776 EMILIO LOPEZ RD","LOS LUNAS","NM",87031,34.821272735,-106.756468604,366,"1776 EMILIO LOPEZ RD, LOS LUNAS, NM, 87031","Match","Exact","1776 EMILIO LOPEZ RD, LOS LUNAS, NM, 87031",640408026,"R"
88867,"1776 FIRST GREEN DR","MEMPHIS","TN",38116,35.0148899380001,-90.004862573,367,"1776 FIRST GREEN DR, MEMPHIS, TN, 38116","Match","Exact","1776 FIRST GREEN DR, MEMPHIS, TN, 38116",72922852,"R"
88868,"1776 HERITAGE CENTER DR SUITE 204 I","WAKE FOREST","NC",27587,35.9532578220001,-78.5231236239999,368,"1776 HERITAGE CENTER DR SUITE 204 I, WAKE FOREST, NC, 27587","Match","Exact","1776 HERITAGE CENTER DR, WAKE FOREST, NC, 27587",641562030,"L"
88869,"1776 MEMORIAL DRIVE","CALUMET CITY","IL",60409,41.6191347600001,-87.5682829529999,369,"1776 MEMORIAL DRIVE, CALUMET CITY, IL, 60409","Match","Exact","1776 MEMORIAL DR, CALUMET CITY, IL, 60409",111781017,"R"
88870,"1776 MENTOR AVE  SUITE 271","CINCINNATI","OH",45212,39.1518716840001,-84.467009821,370,"1776 MENTOR AVE  SUITE 271, CINCINNATI, OH, 45212","Match","Exact","1776 MENTOR AVE, CINCINNATI, OH, 45212",103968009,"R"
88871,"1776 MENTOR AVE SUITE 200","CINCINNATI","OH",45212,39.1518716840001,-84.467009821,371,"1776 MENTOR AVE SUITE 200, CINCINNATI, OH, 45212","Match","Exact","1776 MENTOR AVE, CINCINNATI, OH, 45212",103968009,"R"
88872,"1776 MENTOR AVE SUITE 410","CINCINNATI","OH",45212,39.1518716840001,-84.467009821,372,"1776 MENTOR AVE SUITE 410, CINCINNATI, OH, 45212","Match","Exact","1776 MENTOR AVE, CINCINNATI, OH, 45212",103968009,"R"
88873,"1776 MILLSTREAM HOLLOW","CONYERS","GA",30012,33.690301166,-84.026815529,373,"1776 MILLSTREAM HOLLOW, CONYERS, GA, 30012","Match","Non_Exact","1776 MILLSTREAM HOLLOW NW, CONYERS, GA, 30012",645519193,"R"
88874,"1776 MINNESOTA AVENUE","WINTER PARK","FL",32789,28.589481898,-81.372889376,374,"1776 MINNESOTA AVENUE, WINTER PARK, FL, 32789","Match","Exact","1776 MINNESOTA AVE, WINTER PARK, FL, 32789",94277192,"L"
88875,"1776 N SCOTTSDALE RD 2532","SCOTTSDALE","AZ",85257,33.4680139760001,-111.926217196,375,"1776 N SCOTTSDALE RD 2532, SCOTTSDALE, AZ, 85257","Match","Non_Exact","1776 N SCOTTSDALE RD, SCOTTSDALE, AZ, 85257",128225879,"L"
88876,"1776 N SCOTTSDALE RD 8254","SCOTTSDALE","AZ",85257,33.4680139760001,-111.926217196,376,"1776 N SCOTTSDALE RD 8254, SCOTTSDALE, AZ, 85257","Match","Non_Exact","1776 N SCOTTSDALE RD, SCOTTSDALE, AZ, 85257",128225879,"L"
88877,"1776 N SCOTTSDALE RD STE 2523","SCOTTSDALE","AZ",85257,33.4680139760001,-111.926217196,377,"1776 N SCOTTSDALE RD STE 2523, SCOTTSDALE, AZ, 85257","Match","Non_Exact","1776 N SCOTTSDALE RD, SCOTTSDALE, AZ, 85257",128225879,"L"
88878,"1776 N SCOTTSDALE ROAD BOX 1962","SCOTTSDALE","AZ",85257,33.4680139760001,-111.926217196,378,"1776 N SCOTTSDALE ROAD BOX 1962, SCOTTSDALE, AZ, 85257","Match","Non_Exact","1776 N SCOTTSDALE RD, SCOTTSDALE, AZ, 85257",128225879,"L"
88879,"1776 NORTH AVENUE","BRIDGEPORT","CT",6604,41.182966928,-73.206969022,379,"1776 NORTH AVENUE, BRIDGEPORT, CT, 6604","Match","Exact","1776 NORTH AVE, BRIDGEPORT, CT, 06604",635938914,"R"
88880,"1776 NORTH MERIDIAN ST SUITE 500","INDIANAPOLIS","IN",46202,39.7904207890001,-86.157298268,380,"1776 NORTH MERIDIAN ST SUITE 500, INDIANAPOLIS, IN, 46202","Match","Exact","1776 N MERIDIAN ST, INDIANAPOLIS, IN, 46202",107989559,"L"
88881,"1776 NW 30TH STREET","MIAMI","FL",33142,25.8043295620001,-80.225176205,381,"1776 NW 30TH STREET, MIAMI, FL, 33142","Match","Exact","1776 NW 30TH ST, MIAMI, FL, 33142",116015362,"L"
88882,"1776 PARE AVE STE 4 PMB 121","PARK CITY","UT",84060,NA,NA,382,"1776 PARE AVE STE 4 PMB 121, PARK CITY, UT, 84060","No_Match",NA,NA,NA,NA
88883,"1776 PARK AVE STE 4 PMB 121","PARK CITY","UT",84060,40.6591748490001,-111.508286111,383,"1776 PARK AVE STE 4 PMB 121, PARK CITY, UT, 84060","Match","Exact","1776 PARK AVE, PARK CITY, UT, 84060",160640501,"R"
88884,"1776 PARK AVE STE 4-335","PARK CITY","UT",84060,40.6591748490001,-111.508286111,384,"1776 PARK AVE STE 4-335, PARK CITY, UT, 84060","Match","Exact","1776 PARK AVE, PARK CITY, UT, 84060",160640501,"R"
88885,"1776 RARITAN ROAD","SCOTCH PLAINS","NJ",7076,40.619469123,-74.3566183,385,"1776 RARITAN ROAD, SCOTCH PLAINS, NJ, 7076","Match","Exact","1776 RARITAN RD, SCOTCH PLAINS, NJ, 07076",60581728,"R"
88886,"1776 S COLUMBIA PLACE SUITE A7","DECATUR","GA",30032,NA,NA,386,"1776 S COLUMBIA PLACE SUITE A7, DECATUR, GA, 30032","Tie",NA,NA,NA,NA
88887,"1776 S NAPERVILLE RD A206","WHEATON","IL",60189,41.8381400230001,-88.101734784,387,"1776 S NAPERVILLE RD A206, WHEATON, IL, 60189","Match","Non_Exact","1776 S NAPERVILLE RD, WHEATON, IL, 60189",112689926,"R"
88888,"1776 SALT SPRINGS ROAD","WARREN","OH",44481,41.1658706960001,-80.860738404,388,"1776 SALT SPRINGS ROAD, WARREN, OH, 44481","Match","Exact","1776 SALT SPRINGS RD, WARREN, OH, 44481",117404550,"R"
88889,"1776 SPENCER STREET","CAMBRIA","CA",93428,35.547758564,-121.072798477,389,"1776 SPENCER STREET, CAMBRIA, CA, 93428","Match","Exact","1776 SPENCER ST, CAMBRIA, CA, 93428",109752658,"L"
88890,"1776 TEMPLE AVE 3","LONG BEACH","CA",90804,33.7893080640001,-118.158919549,390,"1776 TEMPLE AVE 3, LONG BEACH, CA, 90804","Match","Exact","1776 TEMPLE AVE, LONG BEACH, CA, 90804",625491459,"R"
88891,"1776 TEMPLE AVENUE UNIT 5","LONG BEACH","CA",90804,33.7893080640001,-118.158919549,391,"1776 TEMPLE AVENUE UNIT 5, LONG BEACH, CA, 90804","Match","Exact","1776 TEMPLE AVE, LONG BEACH, CA, 90804",625491459,"R"
88892,"1776 UNIVERSITY AVE CM 131","HONOLULU","HI",96822,21.298746404,-157.821110275,392,"1776 UNIVERSITY AVE CM 131, HONOLULU, HI, 96822","Match","Exact","1776 UNIVERSITY AVE, HONOLULU, HI, 96822",203238059,"L"
88893,"1776 W HORIZON RIDGE PKWY","HENDERSON","NV",89012,36.009566395,-115.064768571,393,"1776 W HORIZON RIDGE PKWY, HENDERSON, NV, 89012","Match","Exact","1776 W HORIZON RIDGE PKWY, HENDERSON, NV, 89012",201959912,"L"
88894,"17763 NORTHROP","DETROIT","MI",48219,42.4204607450001,-83.2613776869999,394,"17763 NORTHROP, DETROIT, MI, 48219","Match","Non_Exact","17763 NORTHROP ST, DETROIT, MI, 48219",95420814,"L"
88895,"17765 NE 117TH WAY","REDMOND","WA",98052,47.704287913,-122.102693186,395,"17765 NE 117TH WAY, REDMOND, WA, 98052","Match","Exact","17765 NE 117TH WAY, REDMOND, WA, 98052",651968180,"R"
88896,"17765 THREE NOTCH ROAD","DAMERON","MD",20628,38.1537084560001,-76.370187925,396,"17765 THREE NOTCH ROAD, DAMERON, MD, 20628","Match","Exact","17765 THREE NOTCH RD, DAMERON, MD, 20628",642617718,"L"
88897,"17766 LARCHMONT TERRACE","GAITHERSBURG","MD",20874,39.1474203930001,-77.17338496,397,"17766 LARCHMONT TERRACE, GAITHERSBURG, MD, 20874","Match","Non_Exact","17766 LARCHMONT TER, GAITHERSBURG, MD, 20877",62105155,"L"
88898,"17766 SIERRA HWY","CANYON COUNTRY","CA",91351,34.429258589,-118.444594204,398,"17766 SIERRA HWY, CANYON COUNTRY, CA, 91351","Match","Exact","17766 SIERRA HWY, CANYON COUNTRY, CA, 91351",142702513,"R"
88899,"17767 EMERALD ISLAND CIRCLE","PARK RAPIDS","MN",56470,46.918765826,-95.00619388,399,"17767 EMERALD ISLAND CIRCLE, PARK RAPIDS, MN, 56470","Match","Exact","17767 EMERALD ISLAND CIR, PARK RAPIDS, MN, 56470",168157543,"L"
88900,"17769 WEST KENWOOD AVENUE","SAN BERNARDINO","CA",92407,34.2374689230001,-117.417334465,400,"17769 WEST KENWOOD AVENUE, SAN BERNARDINO, CA, 92407","Match","Non_Exact","17769 KENWOOD AVE, SAN BERNARDINO, CA, 92407",144639691,"R"
88901,"1777 BOREL PLACE SUITE 205","SAN MATEO","CA",94402,37.5487877750001,-122.317836752,401,"1777 BOREL PLACE SUITE 205, SAN MATEO, CA, 94402","Match","Exact","1777 BOREL PL, SAN MATEO, CA, 94402",192378334,"L"
88902,"1777 CEDAR RIDGE DRIVE","SPRING VALLEY","OH",45370,39.638842949,-84.0406244,402,"1777 CEDAR RIDGE DRIVE, SPRING VALLEY, OH, 45370","Match","Exact","1777 CEDAR RIDGE DR, SPRING VALLEY, OH, 45370",143392263,"L"
88903,"1777 COUNTY ROAD 1750","LOMETA","TX",76853,NA,NA,403,"1777 COUNTY ROAD 1750, LOMETA, TX, 76853","No_Match",NA,NA,NA,NA
88904,"1777 DEL LAGO","YUBA CITY","CA",95991,39.101790416,-121.62440046,404,"1777 DEL LAGO, YUBA CITY, CA, 95991","Match","Exact","1777 DEL LAGO, YUBA CITY, CA, 95991",68579161,"L"
88905,"1777 E DANCELAND RD","DECATUR","IL",62521,NA,NA,405,"1777 E DANCELAND RD, DECATUR, IL, 62521","Tie",NA,NA,NA,NA
88906,"1777 EAST 39TH AVE APT 201","DENVER","CO",80205,39.771336132,-104.966259581,406,"1777 EAST 39TH AVE APT 201, DENVER, CO, 80205","Match","Exact","1777 E 39TH AVE, DENVER, CO, 80205",177305264,"L"
88907,"1777 EAST HAMMER LANE","STOCKTON","CA",95210,38.0209503790001,-121.291023045,407,"1777 EAST HAMMER LANE, STOCKTON, CA, 95210","Match","Exact","1777 E HAMMER LN, STOCKTON, CA, 95210",133846361,"L"
88908,"1777 HAMBURG TURNPIKE SUITE 301","WAYNE","NJ",7470,40.9716450760001,-74.262755722,408,"1777 HAMBURG TURNPIKE SUITE 301, WAYNE, NJ, 7470","Match","Exact","1777 HAMBURG TPKE, WAYNE, NJ, 07470",65275631,"R"
88909,"1777 HAMILTON AVE SUITE 2180","SAN JOSE","CA",95125,37.2944061640001,-121.918517375,409,"1777 HAMILTON AVE SUITE 2180, SAN JOSE, CA, 95125","Match","Exact","1777 HAMILTON AVE, SAN JOSE, CA, 95125",122906456,"R"
88910,"1777 HARVARD AVE APT 1414","ATLANTA","GA",30337,33.6533950570001,-84.447508085,410,"1777 HARVARD AVE APT 1414, ATLANTA, GA, 30337","Match","Exact","1777 HARVARD AVE, ATLANTA, GA, 30337",17348438,"R"
88911,"1777 KOWALSKI ROAD","KRONENWETTER","WI",54455,44.843840802,-89.6256815259999,411,"1777 KOWALSKI ROAD, KRONENWETTER, WI, 54455","Match","Exact","1777 KOWALSKI RD, KRONENWETTER, WI, 54455",117155406,"L"
88912,"1777 MAIN ST","GLASTONBURY","CT",6033,41.694899912,-72.60765974,412,"1777 MAIN ST, GLASTONBURY, CT, 6033","Match","Exact","1777 MAIN ST, GLASTONBURY, CT, 06033",604947556,"L"
88913,"1777 MAIN STREET SUITE 302","SARASOTA","FL",34236,27.3364698570001,-82.534824783,413,"1777 MAIN STREET SUITE 302, SARASOTA, FL, 34236","Match","Exact","1777 MAIN ST, SARASOTA, FL, 34236",16348007,"L"
88914,"1777 MCCLELLAND DRIVE APT 6","EAST POINT","GA",30344,33.7004301010001,-84.444727852,414,"1777 MCCLELLAND DRIVE APT 6, EAST POINT, GA, 30344","Match","Non_Exact","1777 MCCLELLAND AVE, EAST POINT, GA, 30344",642626218,"L"
88915,"1777 MITCHELL AVENUE UNIT 61","TUSTIN","CA",92780,33.7283890150001,-117.814740081,415,"1777 MITCHELL AVENUE UNIT 61, TUSTIN, CA, 92780","Match","Exact","1777 MITCHELL AVE, TUSTIN, CA, 92780",144054853,"L"
88916,"1777 MT TABOR RD","RED SPRINGS","NC",28377,34.798754973,-79.1485399599999,416,"1777 MT TABOR RD, RED SPRINGS, NC, 28377","Match","Exact","1777 MT TABOR RD, RED SPRINGS, NC, 28377",49166935,"R"
88917,"1777 N HOWARD AVE","KERMAN","CA",93630,36.7087212500001,-120.024543029,417,"1777 N HOWARD AVE, KERMAN, CA, 93630","Match","Non_Exact","1777 S HOWARD AVE, KERMAN, CA, 93630",197557430,"L"
88918,"1777 NE LOOP 410 SUITE 600","SAN ANTONIO","TX",78217,29.516351329,-98.435298659,418,"1777 NE LOOP 410 SUITE 600, SAN ANTONIO, TX, 78217","Match","Non_Exact","1777 NE LOOP 410, SAN ANTONIO, TX, 78217",101499491,"L"
88919,"1777 NORTH VERMONT AVENUE APT 101","LOS ANGELES","CA",90027,34.1032719400001,-118.291781636,419,"1777 NORTH VERMONT AVENUE APT 101, LOS ANGELES, CA, 90027","Match","Exact","1777 N VERMONT AVE, LOS ANGELES, CA, 90027",141597585,"L"
88920,"1777 PINE SREET APT 302","SAN FRANCISCO","CA",94109,37.7890462890001,-122.424979935,420,"1777 PINE SREET APT 302, SAN FRANCISCO, CA, 94109","Match","Non_Exact","1777 PINE ST, SAN FRANCISCO, CA, 94109",192280113,"L"
88921,"1777 REISTERSTOWN RD STE 22 APT 320","BALTIMORE","MD",21208,39.3836303310001,-76.732742093,421,"1777 REISTERSTOWN RD STE 22 APT 320, BALTIMORE, MD, 21208","Match","Exact","1777 REISTERSTOWN RD, BALTIMORE, MD, 21208",191570752,"R"
88922,"1777 REISTERSTOWN ROAD SUITE 40","BALTIMORE","MD",21208,39.3836303310001,-76.732742093,422,"1777 REISTERSTOWN ROAD SUITE 40, BALTIMORE, MD, 21208","Match","Exact","1777 REISTERSTOWN RD, BALTIMORE, MD, 21208",191570752,"R"
88923,"1777 REISTERTOWN ROAD STE W349","PIKESVILLE","MD",21208,39.3836303310001,-76.732742093,423,"1777 REISTERTOWN ROAD STE W349, PIKESVILLE, MD, 21208","Match","Non_Exact","1777 REISTERSTOWN RD, PIKESVILLE, MD, 21208",191570752,"R"
88924,"1777 RYE COVE CREEK ROAD","STUART","VA",24171,NA,NA,424,"1777 RYE COVE CREEK ROAD, STUART, VA, 24171","No_Match",NA,NA,NA,NA
88925,"1777 S HARRISON ST STE 1500","DENVER","CO",80210,39.6846747020001,-104.941826134,425,"1777 S HARRISON ST STE 1500, DENVER, CO, 80210","Match","Non_Exact","1777 S HARRISON ST, DENVER, CO, 80210",177625277,"R"
88926,"1777 S YUKON PARKWAY","YUKON","OK",73099,NA,NA,426,"1777 S YUKON PARKWAY, YUKON, OK, 73099","No_Match",NA,NA,NA,NA
88927,"1777 TIMBER CREEK ROAD 1214","FLOWER MOUND","TX",75028,33.0426918260001,-97.0535760389999,427,"1777 TIMBER CREEK ROAD 1214, FLOWER MOUND, TX, 75028","Match","Exact","1777 TIMBER CREEK RD, FLOWER MOUND, TX, 75028",103425911,"R"
88928,"1777 WEWATTA ST","DENVER","CO",80202,39.754326867,-105.001160311,428,"1777 WEWATTA ST, DENVER, CO, 80202","Match","Exact","1777 WEWATTA ST, DENVER, CO, 80202",646589374,"R"
88929,"17770 IMPERIAL VALLEY DR","HOUSTON","TX",77060,29.952913816,-95.399791906,429,"17770 IMPERIAL VALLEY DR, HOUSTON, TX, 77060","Match","Exact","17770 IMPERIAL VALLEY DR, HOUSTON, TX, 77060",96659292,"R"
88930,"17772 PRESTON RD STE 201","DALLAS","TX",75252,32.9953811880001,-96.799019012,430,"17772 PRESTON RD STE 201, DALLAS, TX, 75252","Match","Exact","17772 PRESTON RD, DALLAS, TX, 75252",210495021,"R"
88931,"17772 RIDGELAND AVENUE","TINLEY PARK","IL",60477,41.568282846,-87.7743804469999,431,"17772 RIDGELAND AVENUE, TINLEY PARK, IL, 60477","Match","Exact","17772 RIDGELAND AVE, TINLEY PARK, IL, 60477",639822212,"R"
88932,"17773 CAMINO SAN SIMEON","MORENO VALLEY","CA",92551,NA,NA,432,"17773 CAMINO SAN SIMEON, MORENO VALLEY, CA, 92551","No_Match",NA,NA,NA,NA
88933,"17775 SW 82ND AVE","PALMETTO BAY","FL",33157,25.605395027,-80.3241629359999,433,"17775 SW 82ND AVE, PALMETTO BAY, FL, 33157","Match","Exact","17775 SW 82ND AVE, PALMETTO BAY, FL, 33157",115987015,"L"
88934,"17777 CENTER CT DR N SUITE 600","CERRITOS","CA",90703,NA,NA,434,"17777 CENTER CT DR N SUITE 600, CERRITOS, CA, 90703","No_Match",NA,NA,NA,NA
88935,"17777 MERRILL AVE","FONTANA","CA",92335,34.0921730360001,-117.416556585,435,"17777 MERRILL AVE, FONTANA, CA, 92335","Match","Exact","17777 MERRILL AVE, FONTANA, CA, 92335",640048536,"R"
88936,"17778 FOOTHILL CT","HIDDEN VALLEY LAKE","CA",95467,38.804232803,-122.557585078,436,"17778 FOOTHILL CT, HIDDEN VALLEY LAKE, CA, 95467","Match","Exact","17778 FOOTHILL CT, HIDDEN VALLEY LAKE, CA, 95467",67081235,"L"
88937,"1778 CANYON OAKS DRIVE","MT PLEASANT","SC",29464,32.811251466,-79.8186884409999,437,"1778 CANYON OAKS DRIVE, MT PLEASANT, SC, 29464","Match","Exact","1778 CANYON OAKS DR, MOUNT PLEASANT, SC, 29464",108896753,"L"
88938,"1778 CONWAY ST","MILPITAS","CA",95035,37.458738705,-121.903401256,438,"1778 CONWAY ST, MILPITAS, CA, 95035","Match","Exact","1778 CONWAY ST, MILPITAS, CA, 95035",122959992,"R"
88939,"1778 DEER CROSSING WAY","JONESBORO","GA",30236,33.498528806,-84.333863163,439,"1778 DEER CROSSING WAY, JONESBORO, GA, 30236","Match","Exact","1778 DEER CROSSING WAY, JONESBORO, GA, 30236",640499787,"R"
88940,"1778 EAST 9TH STREET","BROOKLYN","NY",11223,40.605789627,-73.9635455489999,440,"1778 EAST 9TH STREET, BROOKLYN, NY, 11223","Match","Exact","1778 E 9TH ST, BROOKLYN, NY, 11223",59089888,"R"
88941,"1778 FAIRMOUNT AVENUE UNIT 1","CINCINNATI","OH",45214,39.130010354,-84.55332098,441,"1778 FAIRMOUNT AVENUE UNIT 1, CINCINNATI, OH, 45214","Match","Exact","1778 FAIRMOUNT AVE, CINCINNATI, OH, 45214",103922648,"R"
88942,"1778 MENTOR AVE","PAINESVILLE TWP","OH",44077,41.695405583,-81.2821239049999,442,"1778 MENTOR AVE, PAINESVILLE TWP, OH, 44077","Match","Non_Exact","1778 MENTOR AVE, PAINESVILLE, OH, 44077",617146131,"R"
88943,"1778 N PARK AVE - SUITE 102","MAITLAND","FL",32751,28.612262571,-81.3648117499999,443,"1778 N PARK AVE - SUITE 102, MAITLAND, FL, 32751","Match","Non_Exact","1778 N PARK AVE, MAITLAND, FL, 32751",94276795,"L"
88944,"1778 SAMURAI POINT  Q1","LUTZ","FL",33558,NA,NA,444,"1778 SAMURAI POINT  Q1, LUTZ, FL, 33558","No_Match",NA,NA,NA,NA
88945,"1778 SUNFLOWER BLUFF","NEW BRAUNFELS","TX",78130,29.6737329490001,-98.0611091279999,445,"1778 SUNFLOWER BLUFF, NEW BRAUNFELS, TX, 78130","Match","Exact","1778 SUNFLOWER BLUFF, NEW BRAUNFELS, TX, 78130",54842345,"L"
88946,"17782 PINE AVE","FONTANA","CA",92335,34.0868001540001,-117.41646726,446,"17782 PINE AVE, FONTANA, CA, 92335","Match","Exact","17782 PINE AVE, FONTANA, CA, 92335",144998133,"L"
88947,"17783 BOND","OVERLAND PARK","KS",66221,NA,NA,447,"17783 BOND, OVERLAND PARK, KS, 66221","No_Match",NA,NA,NA,NA
88948,"17785 HAINES STREET","PERRIS","CA",92570,33.8617486200001,-117.291965048,448,"17785 HAINES STREET, PERRIS, CA, 92570","Match","Exact","17785 HAINES ST, PERRIS, CA, 92570",194814535,"R"
88949,"17786 PARKSHORE DRIVE","NORTHVILLE","MI",48168,42.4116779220001,-83.52521451,449,"17786 PARKSHORE DRIVE, NORTHVILLE, MI, 48168","Match","Exact","17786 PARKSHORE DR, NORTHVILLE, MI, 48168",95735599,"L"
88950,"1779 CAYCE SPRINGS RD","THOMPSONS STATION","TN",37179,35.8060526510001,-86.962363491,450,"1779 CAYCE SPRINGS RD, THOMPSONS STATION, TN, 37179","Match","Exact","1779 CAYCE SPRINGS RD, THOMPSONS STATION, TN, 37179",636650199,"L"
88951,"1779 DUTCHER SPRINGS TRAIL","POWELL","WY",82435,44.6904669260001,-108.912433126,451,"1779 DUTCHER SPRINGS TRAIL, POWELL, WY, 82435","Match","Exact","1779 DUTCHER SPRINGS TRL, POWELL, WY, 82435",149194471,"L"
88952,"1779 KEMERY ROAD","AKRON","OH",44333,41.177068422,-81.6025844759999,452,"1779 KEMERY ROAD, AKRON, OH, 44333","Match","Exact","1779 KEMERY RD, AKRON, OH, 44333",61335828,"R"
88953,"1779 KIRBY PARKWAY  SUITE 1-91","MEMPHIS","TN",38138,35.1009697980001,-89.8393296579999,453,"1779 KIRBY PARKWAY  SUITE 1-91, MEMPHIS, TN, 38138","Match","Exact","1779 KIRBY PKWY, MEMPHIS, TN, 38138",72944336,"R"
88954,"1779 KIRBY PARKWAY 334","GERMATOWN","TN",38138,35.1009697980001,-89.8393296579999,454,"1779 KIRBY PARKWAY 334, GERMATOWN, TN, 38138","Match","Non_Exact","1779 KIRBY PKWY, GERMANTOWN, TN, 38138",72944336,"R"
88955,"1779 KIRBY PARKWAY STE 210","MEMPHIS","TN",38138,35.1009697980001,-89.8393296579999,455,"1779 KIRBY PARKWAY STE 210, MEMPHIS, TN, 38138","Match","Exact","1779 KIRBY PKWY, MEMPHIS, TN, 38138",72944336,"R"
88956,"1779 KIRBY PARKWAY SUITE 501","MEMPHIS","TN",38138,35.1009697980001,-89.8393296579999,456,"1779 KIRBY PARKWAY SUITE 501, MEMPHIS, TN, 38138","Match","Exact","1779 KIRBY PKWY, MEMPHIS, TN, 38138",72944336,"R"
88957,"1779 KIRBY PKWY  SUITE 1  322","MEMPHIS","TN",38138,35.1009697980001,-89.8393296579999,457,"1779 KIRBY PKWY  SUITE 1  322, MEMPHIS, TN, 38138","Match","Exact","1779 KIRBY PKWY, MEMPHIS, TN, 38138",72944336,"R"
88958,"1779 KIRBY PKWY STE 1 NUM 595","MEMPHIS","TN",38138,35.1009697980001,-89.8393296579999,458,"1779 KIRBY PKWY STE 1 NUM 595, MEMPHIS, TN, 38138","Match","Exact","1779 KIRBY PKWY, MEMPHIS, TN, 38138",72944336,"R"
88959,"1779 KIRBY PKWY SUITE 1-321","MEMPHIS","TN",38138,35.1009697980001,-89.8393296579999,459,"1779 KIRBY PKWY SUITE 1-321, MEMPHIS, TN, 38138","Match","Exact","1779 KIRBY PKWY, MEMPHIS, TN, 38138",72944336,"R"
88960,"1779 MARKHAM WAY","SACRAMENTO","CA",95818,38.5549569230001,-121.492307519,460,"1779 MARKHAM WAY, SACRAMENTO, CA, 95818","Match","Exact","1779 MARKHAM WAY, SACRAMENTO, CA, 95818",133324032,"L"
88961,"1779 MASSACHUSETTS AVE NW STE 710","WASHINGTON","DC",20036,38.9087945360001,-77.0409729089999,461,"1779 MASSACHUSETTS AVE NW STE 710, WASHINGTON, DC, 20036","Match","Exact","1779 MASSACHUSETTS AVE NW, WASHINGTON, DC, 20036",650097272,"R"
88962,"1779 MISSION OAKS STREET","KANNAPOLIS","NC",28083,35.480886497,-80.5976706549999,462,"1779 MISSION OAKS STREET, KANNAPOLIS, NC, 28083","Match","Exact","1779 MISSION OAKS ST, KANNAPOLIS, NC, 28083",632091834,"L"
88963,"1779 N CONGRESS AVE","BOYNTON BEACH","FL",33426,26.543846219,-80.09076093,463,"1779 N CONGRESS AVE, BOYNTON BEACH, FL, 33426","Match","Exact","1779 N CONGRESS AVE, BOYNTON BEACH, FL, 33426",640265011,"L"
88964,"1779 NW 142ND LANE","OPALACKA","FL",33054,25.9047221390001,-80.2295528929999,464,"1779 NW 142ND LANE, OPALACKA, FL, 33054","Match","Non_Exact","1779 NW 142ND LN, OPA LOCKA, FL, 33054",641976045,"R"
88965,"1779 PHILEMA ROAD SOUTH","ALBANY","GA",31701,31.630652518,-84.118319866,465,"1779 PHILEMA ROAD SOUTH, ALBANY, GA, 31701","Match","Non_Exact","1779 PHILEMA RD, ALBANY, GA, 31701",124574876,"L"
88966,"1779 S QUAIL ST","LAKEWOOD","CO",80232,39.6843410930001,-105.124528486,466,"1779 S QUAIL ST, LAKEWOOD, CO, 80232","Match","Exact","1779 S QUAIL ST, LAKEWOOD, CO, 80232",177317894,"R"
88967,"1779 STANTON RD SW","ATLANTA","GA",30311,33.707674678,-84.443800123,467,"1779 STANTON RD SW, ATLANTA, GA, 30311","Match","Non_Exact","1779 STANTON RD, ATLANTA, GA, 30311",17341478,"R"
88968,"1779 WOODHAVEN LANE","SPARKS","NV",89434,39.548320158,-119.723962754,468,"1779 WOODHAVEN LANE, SPARKS, NV, 89434","Match","Exact","1779 WOODHAVEN LN, SPARKS, NV, 89434",107080321,"L"
88969,"17790 AVENUE 232","LINDSAY","CA",93247,36.2108020200001,-119.177701406,469,"17790 AVENUE 232, LINDSAY, CA, 93247","Match","Exact","17790 AVE 232, LINDSAY, CA, 93247",639031992,"L"
88970,"17792 LERENE DRIVE","YORBA LINDA","CA",92886,33.8907484380001,-117.823331485,470,"17792 LERENE DRIVE, YORBA LINDA, CA, 92886","Match","Exact","17792 LERENE DR, YORBA LINDA, CA, 92886",143996046,"L"
88971,"17793 COUNTY ROAD 52","AVON","MN",56310,45.673018987,-94.474777955,471,"17793 COUNTY ROAD 52, AVON, MN, 56310","Match","Exact","17793 CO RD 52, AVON, MN, 56310",611975722,"L"
88972,"17795 TOBERMORY PL","LEESBURG","VA",17795,39.124412465,-77.593763547,472,"17795 TOBERMORY PL, LEESBURG, VA, 17795","Match","Non_Exact","17795 TOBERMORY PL, LEESBURG, VA, 20175",641142129,"R"
88973,"17797 CACHAGUA RD","CARMEL VALLEY","CA",93924,36.41243267,-121.672628902,473,"17797 CACHAGUA RD, CARMEL VALLEY, CA, 93924","Match","Exact","17797 CACHAGUA RD, CARMEL VALLEY, CA, 93924",196798284,"R"
88974,"177A E MAIN ST -140","NEW ROCHELLE","NY",10801,40.9159902380001,-73.7702492079999,474,"177A E MAIN ST -140, NEW ROCHELLE, NY, 10801","Match","Exact","177 E MAIN ST, NEW ROCHELLE, NY, 10801",139843062,"R"
88975,"177A E MAIN STREET - 341","NEW ROCHELLE","NY",10801,40.9159902380001,-73.7702492079999,475,"177A E MAIN STREET - 341, NEW ROCHELLE, NY, 10801","Match","Exact","177 E MAIN ST, NEW ROCHELLE, NY, 10801",139843062,"R"
88976,"177A EAST MAIN STREET  NO 403","NEW ROCHELLE","NY",10801,40.9159902380001,-73.7702492079999,476,"177A EAST MAIN STREET  NO 403, NEW ROCHELLE, NY, 10801","Match","Non_Exact","177 E MAIN ST, NEW ROCHELLE, NY, 10801",139843062,"R"
88977,"177A EAST MAIN STREET  SUITE 230","NEW ROCHELLE","NY",10801,40.9159902380001,-73.7702492079999,477,"177A EAST MAIN STREET  SUITE 230, NEW ROCHELLE, NY, 10801","Match","Exact","177 E MAIN ST, NEW ROCHELLE, NY, 10801",139843062,"R"
88978,"177A EAST MAIN STREET SUITE 183","NEW ROCHELLE","NY",10801,40.9159902380001,-73.7702492079999,478,"177A EAST MAIN STREET SUITE 183, NEW ROCHELLE, NY, 10801","Match","Exact","177 E MAIN ST, NEW ROCHELLE, NY, 10801",139843062,"R"
88979,"177A MAIN STREET SUITE 151","NEW ROCHELLE","NY",10801,40.9159902380001,-73.7702492079999,479,"177A MAIN STREET SUITE 151, NEW ROCHELLE, NY, 10801","Match","Non_Exact","177 E MAIN ST, NEW ROCHELLE, NY, 10801",139843062,"R"
88980,"178 12TH STREET","CAMPBELL","OH",44405,41.07511988,-80.5936086309999,480,"178 12TH STREET, CAMPBELL, OH, 44405","Match","Exact","178 12TH ST, CAMPBELL, OH, 44405",64598078,"L"
88981,"178 23RD AVENUE","SAN FRANCISCO","CA",94121,37.7844490200001,-122.482894234,481,"178 23RD AVENUE, SAN FRANCISCO, CA, 94121","Match","Exact","178 23RD AVE, SAN FRANCISCO, CA, 94121",192276546,"L"
88982,"178 7TH AVENUE","NEW EAGLE","PA",15067,40.2013871820001,-79.9474770959999,482,"178 7TH AVENUE, NEW EAGLE, PA, 15067","Match","Exact","178 7TH AVE, NEW EAGLE, PA, 15067",637473634,"R"
88983,"178 ANDERSON RD","TEMPLETON","PA",16259,40.9060674830001,-79.439491908,483,"178 ANDERSON RD, TEMPLETON, PA, 16259","Match","Exact","178 ANDERSON RD, TEMPLETON, PA, 16259",52476952,"R"
88984,"178 ARLINGTON ROAD","COMMERCE","GA",30529,34.2238353340001,-83.4732306989999,484,"178 ARLINGTON ROAD, COMMERCE, GA, 30529","Match","Non_Exact","178 ARLINGTON LN, COMMERCE, GA, 30529",619843022,"L"
88985,"178 AVENIDA MIRAFLORES","TIBURON","CA",94920,37.8944530730001,-122.475455514,485,"178 AVENIDA MIRAFLORES, TIBURON, CA, 94920","Match","Exact","178 AVE MIRAFLORES, TIBURON, CA, 94920",635482073,"R"
88986,"178 AVENUE D APT 13A","NEW YORK","NY",10009,40.7259490270001,-73.9743753829999,486,"178 AVENUE D APT 13A, NEW YORK, NY, 10009","Match","Exact","178 AVE D, NEW YORK, NY, 10009",650155741,"R"
88987,"178 BAKER RD","INDEPENDENCE","LA",70443,30.6711313530001,-90.575075619,487,"178 BAKER RD, INDEPENDENCE, LA, 70443","Match","Exact","178 BAKER RD, INDEPENDENCE, LA, 70443",75723138,"R"
88988,"178 BENNETT AVENUE 3RD FLOOR","NEW YORK","NY",10040,40.855986645,-73.9340765439999,488,"178 BENNETT AVENUE 3RD FLOOR, NEW YORK, NY, 10040","Match","Exact","178 BENNETT AVE, NEW YORK, NY, 10040",650071802,"L"
88989,"178 BOBWHITE RD","ROYAL PALM BEACH","FL",33411,26.7020274020001,-80.2098213199999,489,"178 BOBWHITE RD, ROYAL PALM BEACH, FL, 33411","Match","Exact","178 BOBWHITE RD, ROYAL PALM BEACH, FL, 33411",642538055,"R"
88990,"178 CAMINO DEL FLOR","DEL RIO","TX",78840,NA,NA,490,"178 CAMINO DEL FLOR, DEL RIO, TX, 78840","No_Match",NA,NA,NA,NA
88991,"178 CASTLEMAINE CT","CASTLE ROCK","CO",80104,39.3384306560001,-104.86086233,491,"178 CASTLEMAINE CT, CASTLE ROCK, CO, 80104","Match","Exact","178 CASTLEMAINE CT, CASTLE ROCK, CO, 80104",624587102,"R"
88992,"178 CHEVY CHASE STREET","GAITHERSBURG","MD",20878,39.121739511,-77.232019631,492,"178 CHEVY CHASE STREET, GAITHERSBURG, MD, 20878","Match","Exact","178 CHEVY CHASE ST, GAITHERSBURG, MD, 20878",62103318,"R"
88993,"178 COBBLESTONE PLACE DR","GOODLETTSVILLE","TN",37072,NA,NA,493,"178 COBBLESTONE PLACE DR, GOODLETTSVILLE, TN, 37072","No_Match",NA,NA,NA,NA
88994,"178 COLBURN DR","MANASSAS PARK","VA",20111,38.7871631670001,-77.459833536,494,"178 COLBURN DR, MANASSAS PARK, VA, 20111","Match","Exact","178 COLBURN DR, MANASSAS PARK, VA, 20111",76504620,"L"
88995,"178 COLD SPRING ROAD","NEW HAVEN","CT",6511,41.325892385,-72.914816355,495,"178 COLD SPRING ROAD, NEW HAVEN, CT, 6511","Match","Non_Exact","178 COLD SPRING ST, NEW HAVEN, CT, 06511",3699980,"L"
88996,"178 COLUMBUS AVE 237190 SMB 12962","NEW YORK","NY",10023,40.7748077970001,-73.980701387,496,"178 COLUMBUS AVE 237190 SMB 12962, NEW YORK, NY, 10023","Match","Exact","178 COLUMBUS AVE, NEW YORK, NY, 10023",59657014,"L"
88997,"178 COLUMBUS AVE 237190 SMB 2101","NEW YORK","NY",10023,40.7748077970001,-73.980701387,497,"178 COLUMBUS AVE 237190 SMB 2101, NEW YORK, NY, 10023","Match","Exact","178 COLUMBUS AVE, NEW YORK, NY, 10023",59657014,"L"
88998,"178 COLUMBUS AVE 237190 SMB 3201","NEW YORK","NY",10023,40.7748077970001,-73.980701387,498,"178 COLUMBUS AVE 237190 SMB 3201, NEW YORK, NY, 10023","Match","Exact","178 COLUMBUS AVE, NEW YORK, NY, 10023",59657014,"L"
88999,"178 COLUMBUS AVE 237190 SMB 5688","NEW YORK","NY",10023,40.7748077970001,-73.980701387,499,"178 COLUMBUS AVE 237190 SMB 5688, NEW YORK, NY, 10023","Match","Exact","178 COLUMBUS AVE, NEW YORK, NY, 10023",59657014,"L"
89000,"178 COLUMBUS AVE 237190","NEW YORK","NY",10023,40.7748077970001,-73.980701387,500,"178 COLUMBUS AVE 237190, NEW YORK, NY, 10023","Match","Exact","178 COLUMBUS AVE, NEW YORK, NY, 10023",59657014,"L"
