"ID","Address","City","State","Zip","lat","long","id","input_address","match_indicator","match_type","matched_address","tiger_line_id","tiger_side"
347501,"PO BOX 389","ASTORIA","OR",97103,NA,NA,1,"PO BOX 389, ASTORIA, OR, 97103","No_Match",NA,NA,NA,NA
347502,"PO BOX 389","CHEYENNE","WY",82003,NA,NA,2,"PO BOX 389, CHEYENNE, WY, 82003","No_Match",NA,NA,NA,NA
347503,"PO BOX 389","MONTCLAIR","NJ",7042,NA,NA,3,"PO BOX 389, MONTCLAIR, NJ, 7042","No_Match",NA,NA,NA,NA
347504,"PO BOX 389","PERRYTON","TX",79070,NA,NA,4,"PO BOX 389, PERRYTON, TX, 79070","No_Match",NA,NA,NA,NA
347505,"PO BOX 389022","CINCINNATI","OH",45238,NA,NA,5,"PO BOX 389022, CINCINNATI, OH, 45238","No_Match",NA,NA,NA,NA
347506,"PO BOX 3891","CHESTER","VA",23831,NA,NA,6,"PO BOX 3891, CHESTER, VA, 23831","No_Match",NA,NA,NA,NA
347507,"PO BOX 38949","HOUSTON","TX",77238,NA,NA,7,"PO BOX 38949, HOUSTON, TX, 77238","No_Match",NA,NA,NA,NA
347508,"PO BOX 3895","MINNEAPOLIS","MN",55403,NA,NA,8,"PO BOX 3895, MINNEAPOLIS, MN, 55403","No_Match",NA,NA,NA,NA
347509,"PO BOX 38955","CHARLOTTE","NC",28278,NA,NA,9,"PO BOX 38955, CHARLOTTE, NC, 28278","No_Match",NA,NA,NA,NA
347510,"PO BOX 3896","LAGUNA  HILLS","CA",92653,NA,NA,10,"PO BOX 3896, LAGUNA  HILLS, CA, 92653","No_Match",NA,NA,NA,NA
347511,"PO BOX 3898","COTTONWOOD","AZ",86326,NA,NA,11,"PO BOX 3898, COTTONWOOD, AZ, 86326","No_Match",NA,NA,NA,NA
347512,"PO BOX 3899","LOGAN","UT",84323,NA,NA,12,"PO BOX 3899, LOGAN, UT, 84323","No_Match",NA,NA,NA,NA
347513,"PO BOX 39","BROOTEN","MN",56316,NA,NA,13,"PO BOX 39, BROOTEN, MN, 56316","No_Match",NA,NA,NA,NA
347514,"PO BOX 39","DALLAS","NC",28034,NA,NA,14,"PO BOX 39, DALLAS, NC, 28034","No_Match",NA,NA,NA,NA
347515,"PO BOX 39","DICKSON","TN",37056,NA,NA,15,"PO BOX 39, DICKSON, TN, 37056","No_Match",NA,NA,NA,NA
347516,"PO BOX 39","FINKSBURG","MD",21048,NA,NA,16,"PO BOX 39, FINKSBURG, MD, 21048","No_Match",NA,NA,NA,NA
347517,"PO BOX 39","GRAHAM","AL",36263,NA,NA,17,"PO BOX 39, GRAHAM, AL, 36263","No_Match",NA,NA,NA,NA
347518,"PO BOX 39","LAWTON","MI",49065,NA,NA,18,"PO BOX 39, LAWTON, MI, 49065","No_Match",NA,NA,NA,NA
347519,"PO BOX 39","MOORE HAVEN","FL",33471,NA,NA,19,"PO BOX 39, MOORE HAVEN, FL, 33471","No_Match",NA,NA,NA,NA
347520,"PO BOX 39","ONSTED","MI",49265,NA,NA,20,"PO BOX 39, ONSTED, MI, 49265","No_Match",NA,NA,NA,NA
347521,"PO BOX 39","STONE LAKE","WI",54876,NA,NA,21,"PO BOX 39, STONE LAKE, WI, 54876","No_Match",NA,NA,NA,NA
347522,"PO BOX 39","WHEATON","IL",60187,NA,NA,22,"PO BOX 39, WHEATON, IL, 60187","No_Match",NA,NA,NA,NA
347523,"PO BOX 390","BONAIRE","GA",31005,NA,NA,23,"PO BOX 390, BONAIRE, GA, 31005","No_Match",NA,NA,NA,NA
347524,"PO BOX 390","CRANE","MO",65633,NA,NA,24,"PO BOX 390, CRANE, MO, 65633","No_Match",NA,NA,NA,NA
347525,"PO BOX 390","DELTA JUNCTION","AK",99737,NA,NA,25,"PO BOX 390, DELTA JUNCTION, AK, 99737","No_Match",NA,NA,NA,NA
347526,"PO BOX 390","HARLAN","KY",40831,NA,NA,26,"PO BOX 390, HARLAN, KY, 40831","No_Match",NA,NA,NA,NA
347527,"PO BOX 390","LAKEHILLS","TX",78063,NA,NA,27,"PO BOX 390, LAKEHILLS, TX, 78063","No_Match",NA,NA,NA,NA
347528,"PO BOX 390","PHOENIX","OR",97535,NA,NA,28,"PO BOX 390, PHOENIX, OR, 97535","No_Match",NA,NA,NA,NA
347529,"PO BOX 390","TECUMSEH","MI",49286,NA,NA,29,"PO BOX 390, TECUMSEH, MI, 49286","No_Match",NA,NA,NA,NA
347530,"PO BOX 390","WELCOME","NC",27374,NA,NA,30,"PO BOX 390, WELCOME, NC, 27374","No_Match",NA,NA,NA,NA
347531,"PO BOX 3900","PHILADELPHIA","PA",19146,NA,NA,31,"PO BOX 3900, PHILADELPHIA, PA, 19146","No_Match",NA,NA,NA,NA
347532,"PO BOX 39003","SOLON","OH",44139,NA,NA,32,"PO BOX 39003, SOLON, OH, 44139","No_Match",NA,NA,NA,NA
347533,"PO BOX 390061","DENVER","CO",80239,NA,NA,33,"PO BOX 390061, DENVER, CO, 80239","No_Match",NA,NA,NA,NA
347534,"PO BOX 39009","WASHINGTON","DC",20016,NA,NA,34,"PO BOX 39009, WASHINGTON, DC, 20016","No_Match",NA,NA,NA,NA
347535,"PO BOX 3901","RAPID CITY","SD",57709,NA,NA,35,"PO BOX 3901, RAPID CITY, SD, 57709","No_Match",NA,NA,NA,NA
347536,"PO BOX 390125","OMAHA","NE",68139,NA,NA,36,"PO BOX 390125, OMAHA, NE, 68139","No_Match",NA,NA,NA,NA
347537,"PO BOX 39028","BIRMINGHAM","AL",35208,NA,NA,37,"PO BOX 39028, BIRMINGHAM, AL, 35208","No_Match",NA,NA,NA,NA
347538,"PO BOX 3903","SONORA","CA",95370,NA,NA,38,"PO BOX 3903, SONORA, CA, 95370","No_Match",NA,NA,NA,NA
347539,"PO BOX 390312","SNELLVILLE","GA",30039,NA,NA,39,"PO BOX 390312, SNELLVILLE, GA, 30039","No_Match",NA,NA,NA,NA
347540,"PO BOX 390473","DENVER","CO",80239,NA,NA,40,"PO BOX 390473, DENVER, CO, 80239","No_Match",NA,NA,NA,NA
347541,"PO BOX 390479","MINNEAPOLIS","MN",55439,NA,NA,41,"PO BOX 390479, MINNEAPOLIS, MN, 55439","No_Match",NA,NA,NA,NA
347542,"PO BOX 39054","CHARLOTTE","NC",28278,NA,NA,42,"PO BOX 39054, CHARLOTTE, NC, 28278","No_Match",NA,NA,NA,NA
347543,"PO BOX 390593","DENVER","CO",80239,NA,NA,43,"PO BOX 390593, DENVER, CO, 80239","No_Match",NA,NA,NA,NA
347544,"PO BOX 390603","KEAUHOU","HI",96739,NA,NA,44,"PO BOX 390603, KEAUHOU, HI, 96739","No_Match",NA,NA,NA,NA
347545,"PO BOX 390651","EDINA","MN",55439,NA,NA,45,"PO BOX 390651, EDINA, MN, 55439","No_Match",NA,NA,NA,NA
347546,"PO BOX 39066","CHARLOTTE","NC",28278,NA,NA,46,"PO BOX 39066, CHARLOTTE, NC, 28278","No_Match",NA,NA,NA,NA
347547,"PO BOX 3907","OAKLAND","CA",94609,NA,NA,47,"PO BOX 3907, OAKLAND, CA, 94609","No_Match",NA,NA,NA,NA
347548,"PO BOX 3907","WOODBRIDGE","CT",6525,NA,NA,48,"PO BOX 3907, WOODBRIDGE, CT, 6525","No_Match",NA,NA,NA,NA
347549,"PO BOX 390834","SNELLVILLE","GA",30039,NA,NA,49,"PO BOX 390834, SNELLVILLE, GA, 30039","No_Match",NA,NA,NA,NA
347550,"PO BOX 391 101 W LAKESHORE DR","KELLEYS ISLAND","OH",43438,41.5941257580001,-82.711958871,50,"PO BOX 391 101 W LAKESHORE DR, KELLEYS ISLAND, OH, 43438","Match","Exact","101 W LAKESHORE DR, KELLEYS ISLAND, OH, 43438",55335359,"L"
347551,"PO BOX 391","ALICEVILLE","AL",35442,NA,NA,51,"PO BOX 391, ALICEVILLE, AL, 35442","No_Match",NA,NA,NA,NA
347552,"PO BOX 391","CANFIELD","OH",44406,NA,NA,52,"PO BOX 391, CANFIELD, OH, 44406","No_Match",NA,NA,NA,NA
347553,"PO BOX 391","CORVALLIS","OR",97339,NA,NA,53,"PO BOX 391, CORVALLIS, OR, 97339","No_Match",NA,NA,NA,NA
347554,"PO BOX 391","FLAGSTAFF","AZ",86002,NA,NA,54,"PO BOX 391, FLAGSTAFF, AZ, 86002","No_Match",NA,NA,NA,NA
347555,"PO BOX 391","GRAND VIEW","ID",83624,NA,NA,55,"PO BOX 391, GRAND VIEW, ID, 83624","No_Match",NA,NA,NA,NA
347556,"PO BOX 391","GREAT FALLS","VA",22066,NA,NA,56,"PO BOX 391, GREAT FALLS, VA, 22066","No_Match",NA,NA,NA,NA
347557,"PO BOX 391","JUNCTION CITY","CA",96048,NA,NA,57,"PO BOX 391, JUNCTION CITY, CA, 96048","No_Match",NA,NA,NA,NA
347558,"PO BOX 391","LEWES","DE",19958,NA,NA,58,"PO BOX 391, LEWES, DE, 19958","No_Match",NA,NA,NA,NA
347559,"PO BOX 391","MOGADORE","OH",44260,NA,NA,59,"PO BOX 391, MOGADORE, OH, 44260","No_Match",NA,NA,NA,NA
347560,"PO BOX 391","POWHATAN","VA",23139,NA,NA,60,"PO BOX 391, POWHATAN, VA, 23139","No_Match",NA,NA,NA,NA
347561,"PO BOX 391","ROSEAU","MN",56751,NA,NA,61,"PO BOX 391, ROSEAU, MN, 56751","No_Match",NA,NA,NA,NA
347562,"PO BOX 391","SHREWSBURY","MA",1545,NA,NA,62,"PO BOX 391, SHREWSBURY, MA, 1545","No_Match",NA,NA,NA,NA
347563,"PO BOX 391","SOLON SPRINGS","WI",54873,NA,NA,63,"PO BOX 391, SOLON SPRINGS, WI, 54873","No_Match",NA,NA,NA,NA
347564,"PO BOX 391","WOLFEBORO FALLS","NH",3896,NA,NA,64,"PO BOX 391, WOLFEBORO FALLS, NH, 3896","No_Match",NA,NA,NA,NA
347565,"PO BOX 391","YORKTOWN HEIGHTS","NY",10598,NA,NA,65,"PO BOX 391, YORKTOWN HEIGHTS, NY, 10598","No_Match",NA,NA,NA,NA
347566,"PO BOX 391000","ANZA","CA",92539,NA,NA,66,"PO BOX 391000, ANZA, CA, 92539","No_Match",NA,NA,NA,NA
347567,"PO BOX 391029","ANZA","CA",92539,NA,NA,67,"PO BOX 391029, ANZA, CA, 92539","No_Match",NA,NA,NA,NA
347568,"PO BOX 391031","MOUNTAIN VIEW","CA",94041,NA,NA,68,"PO BOX 391031, MOUNTAIN VIEW, CA, 94041","No_Match",NA,NA,NA,NA
347569,"PO BOX 391035","ANZA","CA",92539,NA,NA,69,"PO BOX 391035, ANZA, CA, 92539","No_Match",NA,NA,NA,NA
347570,"PO BOX 391046","DELTONA","FL",32739,NA,NA,70,"PO BOX 391046, DELTONA, FL, 32739","No_Match",NA,NA,NA,NA
347571,"PO BOX 391084","SNELLVILLE","GA",30039,NA,NA,71,"PO BOX 391084, SNELLVILLE, GA, 30039","No_Match",NA,NA,NA,NA
347572,"PO BOX 391177","MOUNTAIN VIEW","CA",94039,NA,NA,72,"PO BOX 391177, MOUNTAIN VIEW, CA, 94039","No_Match",NA,NA,NA,NA
347573,"PO BOX 3912","CUYAHOGA FALLS","OH",44223,NA,NA,73,"PO BOX 3912, CUYAHOGA FALLS, OH, 44223","No_Match",NA,NA,NA,NA
347574,"PO BOX 39121","CHARLOTTE","NC",28278,NA,NA,74,"PO BOX 39121, CHARLOTTE, NC, 28278","No_Match",NA,NA,NA,NA
347575,"PO BOX 391303","OMAHA","NE",68139,NA,NA,75,"PO BOX 391303, OMAHA, NE, 68139","No_Match",NA,NA,NA,NA
347576,"PO BOX 391327","ANZA","CA",92539,NA,NA,76,"PO BOX 391327, ANZA, CA, 92539","No_Match",NA,NA,NA,NA
347577,"PO BOX 391382","SOLON","OH",44139,NA,NA,77,"PO BOX 391382, SOLON, OH, 44139","No_Match",NA,NA,NA,NA
347578,"PO BOX 391402","DELTONA","FL",32739,NA,NA,78,"PO BOX 391402, DELTONA, FL, 32739","No_Match",NA,NA,NA,NA
347579,"PO BOX 391465","DELTONA","FL",32739,NA,NA,79,"PO BOX 391465, DELTONA, FL, 32739","No_Match",NA,NA,NA,NA
347580,"PO BOX 3915","TELLURIDE","CO",81435,NA,NA,80,"PO BOX 3915, TELLURIDE, CO, 81435","No_Match",NA,NA,NA,NA
347581,"PO BOX 391522","CAMBRIDGE","MA",2139,NA,NA,81,"PO BOX 391522, CAMBRIDGE, MA, 2139","No_Match",NA,NA,NA,NA
347582,"PO BOX 391675","SNELLVILLE","GA",30039,NA,NA,82,"PO BOX 391675, SNELLVILLE, GA, 30039","No_Match",NA,NA,NA,NA
347583,"PO BOX 391697","ANZA","CA",92539,NA,NA,83,"PO BOX 391697, ANZA, CA, 92539","No_Match",NA,NA,NA,NA
347584,"PO BOX 3917","WINCHESTER","VA",22604,NA,NA,84,"PO BOX 3917, WINCHESTER, VA, 22604","No_Match",NA,NA,NA,NA
347585,"PO BOX 391703","SNELLVILLE","GA",30039,NA,NA,85,"PO BOX 391703, SNELLVILLE, GA, 30039","No_Match",NA,NA,NA,NA
347586,"PO BOX 391751","MOUNTAIN VIEW","CA",94039,NA,NA,86,"PO BOX 391751, MOUNTAIN VIEW, CA, 94039","No_Match",NA,NA,NA,NA
347587,"PO BOX 3918","PHILADELPHIA","PA",19146,NA,NA,87,"PO BOX 3918, PHILADELPHIA, PA, 19146","No_Match",NA,NA,NA,NA
347588,"PO BOX 39188","CHARLOTTE","NC",28278,NA,NA,88,"PO BOX 39188, CHARLOTTE, NC, 28278","No_Match",NA,NA,NA,NA
347589,"PO BOX 392","BUDA","TX",78610,NA,NA,89,"PO BOX 392, BUDA, TX, 78610","No_Match",NA,NA,NA,NA
347590,"PO BOX 392","CENTERVILLE","IN",47330,NA,NA,90,"PO BOX 392, CENTERVILLE, IN, 47330","No_Match",NA,NA,NA,NA
347591,"PO BOX 392","COLUMBIANA","OH",44408,NA,NA,91,"PO BOX 392, COLUMBIANA, OH, 44408","No_Match",NA,NA,NA,NA
347592,"PO BOX 392","CUPERTINO","CA",95015,NA,NA,92,"PO BOX 392, CUPERTINO, CA, 95015","No_Match",NA,NA,NA,NA
347593,"PO BOX 392","DANUBE","MN",56230,NA,NA,93,"PO BOX 392, DANUBE, MN, 56230","No_Match",NA,NA,NA,NA
347594,"PO BOX 392","DOVER","MA",2030,NA,NA,94,"PO BOX 392, DOVER, MA, 2030","No_Match",NA,NA,NA,NA
347595,"PO BOX 392","FARMVILLE","VA",23901,NA,NA,95,"PO BOX 392, FARMVILLE, VA, 23901","No_Match",NA,NA,NA,NA
347596,"PO BOX 392","FULSHEAR","TX",77441,NA,NA,96,"PO BOX 392, FULSHEAR, TX, 77441","No_Match",NA,NA,NA,NA
347597,"PO BOX 392","LEDYARD","CT",6339,NA,NA,97,"PO BOX 392, LEDYARD, CT, 6339","No_Match",NA,NA,NA,NA
347598,"PO BOX 392","MILFORD","MA",1757,NA,NA,98,"PO BOX 392, MILFORD, MA, 1757","No_Match",NA,NA,NA,NA
347599,"PO BOX 392","NEW CASTLE","KY",40050,NA,NA,99,"PO BOX 392, NEW CASTLE, KY, 40050","No_Match",NA,NA,NA,NA
347600,"PO BOX 392","NORCROSS","GA",30091,NA,NA,100,"PO BOX 392, NORCROSS, GA, 30091","No_Match",NA,NA,NA,NA
347601,"PO BOX 392","OAKFIELD","ME",4763,NA,NA,101,"PO BOX 392, OAKFIELD, ME, 4763","No_Match",NA,NA,NA,NA
347602,"PO BOX 392","PINEDALE","WY",82941,NA,NA,102,"PO BOX 392, PINEDALE, WY, 82941","No_Match",NA,NA,NA,NA
347603,"PO BOX 392","ROCKWELL","NC",28138,NA,NA,103,"PO BOX 392, ROCKWELL, NC, 28138","No_Match",NA,NA,NA,NA
347604,"PO BOX 392","SHEFFIELD","IL",61361,NA,NA,104,"PO BOX 392, SHEFFIELD, IL, 61361","No_Match",NA,NA,NA,NA
347605,"PO BOX 392","TAYLORVILLE","IL",62568,NA,NA,105,"PO BOX 392, TAYLORVILLE, IL, 62568","No_Match",NA,NA,NA,NA
347606,"PO BOX 392","VAUXHALL","NJ",7088,NA,NA,106,"PO BOX 392, VAUXHALL, NJ, 7088","No_Match",NA,NA,NA,NA
347607,"PO BOX 392","WINTERS","CA",95694,NA,NA,107,"PO BOX 392, WINTERS, CA, 95694","No_Match",NA,NA,NA,NA
347608,"PO BOX 39207","WASHINGTON","DC",20016,NA,NA,108,"PO BOX 39207, WASHINGTON, DC, 20016","No_Match",NA,NA,NA,NA
347609,"PO BOX 39215","REDFORD","MI",48239,NA,NA,109,"PO BOX 39215, REDFORD, MI, 48239","No_Match",NA,NA,NA,NA
347610,"PO BOX 3923","NEWPORT","RI",2840,NA,NA,110,"PO BOX 3923, NEWPORT, RI, 2840","No_Match",NA,NA,NA,NA
347611,"PO BOX 3923","PETERSBURG","VA",23805,NA,NA,111,"PO BOX 3923, PETERSBURG, VA, 23805","No_Match",NA,NA,NA,NA
347612,"PO BOX 39243","CHICAGO","IL",60639,NA,NA,112,"PO BOX 39243, CHICAGO, IL, 60639","No_Match",NA,NA,NA,NA
347613,"PO BOX 3925","PASCO","WA",99302,NA,NA,113,"PO BOX 3925, PASCO, WA, 99302","No_Match",NA,NA,NA,NA
347614,"PO BOX 3928","CONCORD","NH",3302,NA,NA,114,"PO BOX 3928, CONCORD, NH, 3302","No_Match",NA,NA,NA,NA
347615,"PO BOX 39284","NORTH RIDGEVILLE","OH",44039,NA,NA,115,"PO BOX 39284, NORTH RIDGEVILLE, OH, 44039","No_Match",NA,NA,NA,NA
347616,"PO BOX 393","ALTAMONT","NY",12009,NA,NA,116,"PO BOX 393, ALTAMONT, NY, 12009","No_Match",NA,NA,NA,NA
347617,"PO BOX 393","AZLE","TX",76098,NA,NA,117,"PO BOX 393, AZLE, TX, 76098","No_Match",NA,NA,NA,NA
347618,"PO BOX 393","CARNATION","WA",98014,NA,NA,118,"PO BOX 393, CARNATION, WA, 98014","No_Match",NA,NA,NA,NA
347619,"PO BOX 393","EL RITO","NM",87530,NA,NA,119,"PO BOX 393, EL RITO, NM, 87530","No_Match",NA,NA,NA,NA
347620,"PO BOX 393","HOPE","NJ",7844,NA,NA,120,"PO BOX 393, HOPE, NJ, 7844","No_Match",NA,NA,NA,NA
347621,"PO BOX 393","KAMUELA","HI",96743,NA,NA,121,"PO BOX 393, KAMUELA, HI, 96743","No_Match",NA,NA,NA,NA
347622,"PO BOX 393","LINTON","ND",58552,NA,NA,122,"PO BOX 393, LINTON, ND, 58552","No_Match",NA,NA,NA,NA
347623,"PO BOX 393","MARTINS FERRY","OH",43935,NA,NA,123,"PO BOX 393, MARTINS FERRY, OH, 43935","No_Match",NA,NA,NA,NA
347624,"PO BOX 393","MOUNT JEWETT","PA",16740,NA,NA,124,"PO BOX 393, MOUNT JEWETT, PA, 16740","No_Match",NA,NA,NA,NA
347625,"PO BOX 393","REDFIELD","SD",57469,NA,NA,125,"PO BOX 393, REDFIELD, SD, 57469","No_Match",NA,NA,NA,NA
347626,"PO BOX 393","REEDSPORT","OR",97467,NA,NA,126,"PO BOX 393, REEDSPORT, OR, 97467","No_Match",NA,NA,NA,NA
347627,"PO BOX 393","SPENCER","WV",25276,NA,NA,127,"PO BOX 393, SPENCER, WV, 25276","No_Match",NA,NA,NA,NA
347628,"PO BOX 393","TREGO","MT",59934,NA,NA,128,"PO BOX 393, TREGO, MT, 59934","No_Match",NA,NA,NA,NA
347629,"PO BOX 393","TULAROSA","NM",88352,NA,NA,129,"PO BOX 393, TULAROSA, NM, 88352","No_Match",NA,NA,NA,NA
347630,"PO BOX 393","WATERPROOF","LA",71375,NA,NA,130,"PO BOX 393, WATERPROOF, LA, 71375","No_Match",NA,NA,NA,NA
347631,"PO BOX 393","WRAY","CO",80758,NA,NA,131,"PO BOX 393, WRAY, CO, 80758","No_Match",NA,NA,NA,NA
347632,"PO BOX 39323","SAN ANTONIO","TX",78218,NA,NA,132,"PO BOX 39323, SAN ANTONIO, TX, 78218","No_Match",NA,NA,NA,NA
347633,"PO BOX 3933","MERRIFIELD","VA",22116,NA,NA,133,"PO BOX 3933, MERRIFIELD, VA, 22116","No_Match",NA,NA,NA,NA
347634,"PO BOX 3933","MODESTO","CA",95352,NA,NA,134,"PO BOX 3933, MODESTO, CA, 95352","No_Match",NA,NA,NA,NA
347635,"PO BOX 39344","CHARLOTTE","NC",28278,NA,NA,135,"PO BOX 39344, CHARLOTTE, NC, 28278","No_Match",NA,NA,NA,NA
347636,"PO BOX 3935","LONGVIEW","TX",75606,NA,NA,136,"PO BOX 3935, LONGVIEW, TX, 75606","No_Match",NA,NA,NA,NA
347637,"PO BOX 3935","TELLURIDE","CO",81435,NA,NA,137,"PO BOX 3935, TELLURIDE, CO, 81435","No_Match",NA,NA,NA,NA
347638,"PO BOX 3936","OMAHA","NE",68103,NA,NA,138,"PO BOX 3936, OMAHA, NE, 68103","No_Match",NA,NA,NA,NA
347639,"PO BOX 39361","DENVER","CO",80239,NA,NA,139,"PO BOX 39361, DENVER, CO, 80239","No_Match",NA,NA,NA,NA
347640,"PO BOX 3938","FORT PIERCE","FL",34950,NA,NA,140,"PO BOX 3938, FORT PIERCE, FL, 34950","No_Match",NA,NA,NA,NA
347641,"PO BOX 394","BEAVERCREEK","OR",97004,NA,NA,141,"PO BOX 394, BEAVERCREEK, OR, 97004","No_Match",NA,NA,NA,NA
347642,"PO BOX 394","GENESEO","NY",14454,NA,NA,142,"PO BOX 394, GENESEO, NY, 14454","No_Match",NA,NA,NA,NA
347643,"PO BOX 394","KELSO","WA",98626,NA,NA,143,"PO BOX 394, KELSO, WA, 98626","No_Match",NA,NA,NA,NA
347644,"PO BOX 394","NEW SHARON","IA",50207,NA,NA,144,"PO BOX 394, NEW SHARON, IA, 50207","No_Match",NA,NA,NA,NA
347645,"PO BOX 394","NEWMARKET","NH",3857,NA,NA,145,"PO BOX 394, NEWMARKET, NH, 3857","No_Match",NA,NA,NA,NA
347646,"PO BOX 394","NEWPORT","PA",17074,NA,NA,146,"PO BOX 394, NEWPORT, PA, 17074","No_Match",NA,NA,NA,NA
347647,"PO BOX 394","RATHDRUM","ID",83858,NA,NA,147,"PO BOX 394, RATHDRUM, ID, 83858","No_Match",NA,NA,NA,NA
347648,"PO BOX 394","ROLESVILLE","NC",27571,NA,NA,148,"PO BOX 394, ROLESVILLE, NC, 27571","No_Match",NA,NA,NA,NA
347649,"PO BOX 394","VAN BUREN","IN",46991,NA,NA,149,"PO BOX 394, VAN BUREN, IN, 46991","No_Match",NA,NA,NA,NA
347650,"PO BOX 394","VANDALIA","OH",45377,NA,NA,150,"PO BOX 394, VANDALIA, OH, 45377","No_Match",NA,NA,NA,NA
347651,"PO BOX 394","WHIGHAM","GA",39897,NA,NA,151,"PO BOX 394, WHIGHAM, GA, 39897","No_Match",NA,NA,NA,NA
347652,"PO BOX 3940","KINGSHILL","VI",851,NA,NA,152,"PO BOX 3940, KINGSHILL, VI, 851","No_Match",NA,NA,NA,NA
347653,"PO BOX 3941","SALEM","OR",97302,NA,NA,153,"PO BOX 3941, SALEM, OR, 97302","No_Match",NA,NA,NA,NA
347654,"PO BOX 3942","LOGAN","UT",84323,NA,NA,154,"PO BOX 3942, LOGAN, UT, 84323","No_Match",NA,NA,NA,NA
347655,"PO BOX 39432","ST LOUIS","MO",63139,NA,NA,155,"PO BOX 39432, ST LOUIS, MO, 63139","No_Match",NA,NA,NA,NA
347656,"PO BOX 3944","SAVANNAH","GA",31404,NA,NA,156,"PO BOX 3944, SAVANNAH, GA, 31404","No_Match",NA,NA,NA,NA
347657,"PO BOX 3946","SPARKS","NV",89432,NA,NA,157,"PO BOX 3946, SPARKS, NV, 89432","No_Match",NA,NA,NA,NA
347658,"PO BOX 39463","PHILADEPHIA","PA",19136,NA,NA,158,"PO BOX 39463, PHILADEPHIA, PA, 19136","No_Match",NA,NA,NA,NA
347659,"PO BOX 39471","INDIANAPOLIS","IN",46239,NA,NA,159,"PO BOX 39471, INDIANAPOLIS, IN, 46239","No_Match",NA,NA,NA,NA
347660,"PO BOX 39490","NINILCHIK","AK",99639,NA,NA,160,"PO BOX 39490, NINILCHIK, AK, 99639","No_Match",NA,NA,NA,NA
347661,"PO BOX 395","ABERDEEN","MS",39730,NA,NA,161,"PO BOX 395, ABERDEEN, MS, 39730","No_Match",NA,NA,NA,NA
347662,"PO BOX 395","BIG SUR","CA",93920,NA,NA,162,"PO BOX 395, BIG SUR, CA, 93920","No_Match",NA,NA,NA,NA
347663,"PO BOX 395","BONSALL","CA",92003,NA,NA,163,"PO BOX 395, BONSALL, CA, 92003","No_Match",NA,NA,NA,NA
347664,"PO BOX 395","CANAAN","ME",4924,NA,NA,164,"PO BOX 395, CANAAN, ME, 4924","No_Match",NA,NA,NA,NA
347665,"PO BOX 395","CLAY","NY",13041,NA,NA,165,"PO BOX 395, CLAY, NY, 13041","No_Match",NA,NA,NA,NA
347666,"PO BOX 395","FERTILE","MN",56540,NA,NA,166,"PO BOX 395, FERTILE, MN, 56540","No_Match",NA,NA,NA,NA
347667,"PO BOX 395","HOOKER","OK",73945,NA,NA,167,"PO BOX 395, HOOKER, OK, 73945","No_Match",NA,NA,NA,NA
347668,"PO BOX 395","MORRIS","OK",74445,NA,NA,168,"PO BOX 395, MORRIS, OK, 74445","No_Match",NA,NA,NA,NA
347669,"PO BOX 395","NEWCASTLE","OK",73065,NA,NA,169,"PO BOX 395, NEWCASTLE, OK, 73065","No_Match",NA,NA,NA,NA
347670,"PO BOX 395","RATHDRUM","ID",83858,NA,NA,170,"PO BOX 395, RATHDRUM, ID, 83858","No_Match",NA,NA,NA,NA
347671,"PO BOX 395","SPRINGFIELD","VA",22150,NA,NA,171,"PO BOX 395, SPRINGFIELD, VA, 22150","No_Match",NA,NA,NA,NA
347672,"PO BOX 395","WHITE PLAINS","NY",10603,NA,NA,172,"PO BOX 395, WHITE PLAINS, NY, 10603","No_Match",NA,NA,NA,NA
347673,"PO BOX 3951","ROCK ISLAND","IL",61204,NA,NA,173,"PO BOX 3951, ROCK ISLAND, IL, 61204","No_Match",NA,NA,NA,NA
347674,"PO BOX 3954","TRUTH OR CONSEQUENCE","NM",87901,NA,NA,174,"PO BOX 3954, TRUTH OR CONSEQUENCE, NM, 87901","No_Match",NA,NA,NA,NA
347675,"PO BOX 39553","NORTH RIDGEVILLE","OH",44039,NA,NA,175,"PO BOX 39553, NORTH RIDGEVILLE, OH, 44039","No_Match",NA,NA,NA,NA
347676,"PO BOX 3956","GRAND JUNCTION","CO",81502,NA,NA,176,"PO BOX 3956, GRAND JUNCTION, CO, 81502","No_Match",NA,NA,NA,NA
347677,"PO BOX 39562","INDIANAPOLIS","IN",46239,NA,NA,177,"PO BOX 39562, INDIANAPOLIS, IN, 46239","No_Match",NA,NA,NA,NA
347678,"PO BOX 39578","LOS ANGELES","CA",90039,NA,NA,178,"PO BOX 39578, LOS ANGELES, CA, 90039","No_Match",NA,NA,NA,NA
347679,"PO BOX 3958","CHICO","CA",95927,NA,NA,179,"PO BOX 3958, CHICO, CA, 95927","No_Match",NA,NA,NA,NA
347680,"PO BOX 3959","GLEN ALLEN","VA",23058,NA,NA,180,"PO BOX 3959, GLEN ALLEN, VA, 23058","No_Match",NA,NA,NA,NA
347681,"PO BOX 39594","GREENSBORO","ND",27438,NA,NA,181,"PO BOX 39594, GREENSBORO, ND, 27438","No_Match",NA,NA,NA,NA
347682,"PO BOX 396","BARKSDALE AFB","LA",71110,NA,NA,182,"PO BOX 396, BARKSDALE AFB, LA, 71110","No_Match",NA,NA,NA,NA
347683,"PO BOX 396","CANON CITY","CO",81215,NA,NA,183,"PO BOX 396, CANON CITY, CO, 81215","No_Match",NA,NA,NA,NA
347684,"PO BOX 396","CHEHALIS","WA",98532,NA,NA,184,"PO BOX 396, CHEHALIS, WA, 98532","No_Match",NA,NA,NA,NA
347685,"PO BOX 396","CORVALLIS","OR",97339,NA,NA,185,"PO BOX 396, CORVALLIS, OR, 97339","No_Match",NA,NA,NA,NA
347686,"PO BOX 396","HENDERSON","TX",75653,NA,NA,186,"PO BOX 396, HENDERSON, TX, 75653","No_Match",NA,NA,NA,NA
347687,"PO BOX 396","LITHIA","FL",33547,NA,NA,187,"PO BOX 396, LITHIA, FL, 33547","No_Match",NA,NA,NA,NA
347688,"PO BOX 396","MASTIC BEACH","NY",11951,NA,NA,188,"PO BOX 396, MASTIC BEACH, NY, 11951","No_Match",NA,NA,NA,NA
347689,"PO BOX 396","MERCER ISLAND","WA",98040,NA,NA,189,"PO BOX 396, MERCER ISLAND, WA, 98040","No_Match",NA,NA,NA,NA
347690,"PO BOX 396","MINERAL WELLS","TX",76068,NA,NA,190,"PO BOX 396, MINERAL WELLS, TX, 76068","No_Match",NA,NA,NA,NA
347691,"PO BOX 396","MOUNT HOREB","WI",53572,NA,NA,191,"PO BOX 396, MOUNT HOREB, WI, 53572","No_Match",NA,NA,NA,NA
347692,"PO BOX 396","NAMPA","ID",83686,NA,NA,192,"PO BOX 396, NAMPA, ID, 83686","No_Match",NA,NA,NA,NA
347693,"PO BOX 396","NEDERLAND","CO",80466,NA,NA,193,"PO BOX 396, NEDERLAND, CO, 80466","No_Match",NA,NA,NA,NA
347694,"PO BOX 396","NEW DURHAM","NH",3855,NA,NA,194,"PO BOX 396, NEW DURHAM, NH, 3855","No_Match",NA,NA,NA,NA
347695,"PO BOX 396","OXFORD","WI",53952,NA,NA,195,"PO BOX 396, OXFORD, WI, 53952","No_Match",NA,NA,NA,NA
347696,"PO BOX 396","PERU","IN",46970,NA,NA,196,"PO BOX 396, PERU, IN, 46970","No_Match",NA,NA,NA,NA
347697,"PO BOX 396","TAMPA","FL",33556,NA,NA,197,"PO BOX 396, TAMPA, FL, 33556","No_Match",NA,NA,NA,NA
347698,"PO BOX 3960","SARASOTA","FL",34230,NA,NA,198,"PO BOX 3960, SARASOTA, FL, 34230","No_Match",NA,NA,NA,NA
347699,"PO BOX 3962","PINEHURST","NC",28374,NA,NA,199,"PO BOX 3962, PINEHURST, NC, 28374","No_Match",NA,NA,NA,NA
347700,"PO BOX 3963","URBANDALE","IA",50323,NA,NA,200,"PO BOX 3963, URBANDALE, IA, 50323","No_Match",NA,NA,NA,NA
347701,"PO BOX 3965","BAYAMON","PR",958,NA,NA,201,"PO BOX 3965, BAYAMON, PR, 958","No_Match",NA,NA,NA,NA
347702,"PO BOX 3969","BATESVILLE","AR",72501,NA,NA,202,"PO BOX 3969, BATESVILLE, AR, 72501","No_Match",NA,NA,NA,NA
347703,"PO BOX 3969","CANONCITO","NM",87026,NA,NA,203,"PO BOX 3969, CANONCITO, NM, 87026","No_Match",NA,NA,NA,NA
347704,"PO BOX 397","ASHLAND","KS",67831,NA,NA,204,"PO BOX 397, ASHLAND, KS, 67831","No_Match",NA,NA,NA,NA
347705,"PO BOX 397","BALDWIN","WI",54002,NA,NA,205,"PO BOX 397, BALDWIN, WI, 54002","No_Match",NA,NA,NA,NA
347706,"PO BOX 397","BROOKSHIRE","TX",77423,NA,NA,206,"PO BOX 397, BROOKSHIRE, TX, 77423","No_Match",NA,NA,NA,NA
347707,"PO BOX 397","COHOES","NY",12047,NA,NA,207,"PO BOX 397, COHOES, NY, 12047","No_Match",NA,NA,NA,NA
347708,"PO BOX 397","CROCKER","MO",65452,NA,NA,208,"PO BOX 397, CROCKER, MO, 65452","No_Match",NA,NA,NA,NA
347709,"PO BOX 397","DOVER","NH",3821,NA,NA,209,"PO BOX 397, DOVER, NH, 3821","No_Match",NA,NA,NA,NA
347710,"PO BOX 397","GRINNELL","IA",50112,NA,NA,210,"PO BOX 397, GRINNELL, IA, 50112","No_Match",NA,NA,NA,NA
347711,"PO BOX 397","HERMITAGE","MO",65668,NA,NA,211,"PO BOX 397, HERMITAGE, MO, 65668","No_Match",NA,NA,NA,NA
347712,"PO BOX 397","HOT SPRINGS","MT",59845,NA,NA,212,"PO BOX 397, HOT SPRINGS, MT, 59845","No_Match",NA,NA,NA,NA
347713,"PO BOX 397","LAWRENCE","KS",66044,NA,NA,213,"PO BOX 397, LAWRENCE, KS, 66044","No_Match",NA,NA,NA,NA
347714,"PO BOX 397","LOVINGSTON","VA",22949,NA,NA,214,"PO BOX 397, LOVINGSTON, VA, 22949","No_Match",NA,NA,NA,NA
347715,"PO BOX 397","MOORHEAD","MN",56561,NA,NA,215,"PO BOX 397, MOORHEAD, MN, 56561","No_Match",NA,NA,NA,NA
347716,"PO BOX 397","NEW LONDON","NC",28127,NA,NA,216,"PO BOX 397, NEW LONDON, NC, 28127","No_Match",NA,NA,NA,NA
347717,"PO BOX 397","PAWHUSKA","OK",74056,NA,NA,217,"PO BOX 397, PAWHUSKA, OK, 74056","No_Match",NA,NA,NA,NA
347718,"PO BOX 397","QUINTON","NJ",8072,NA,NA,218,"PO BOX 397, QUINTON, NJ, 8072","No_Match",NA,NA,NA,NA
347719,"PO BOX 397","ROSEMOUNT","MN",55068,NA,NA,219,"PO BOX 397, ROSEMOUNT, MN, 55068","No_Match",NA,NA,NA,NA
347720,"PO BOX 397","VENETA","OR",97487,NA,NA,220,"PO BOX 397, VENETA, OR, 97487","No_Match",NA,NA,NA,NA
347721,"PO BOX 397","WEATHERFORD","TX",76086,NA,NA,221,"PO BOX 397, WEATHERFORD, TX, 76086","No_Match",NA,NA,NA,NA
347722,"PO BOX 3973","ONTARIO","CA",91761,NA,NA,222,"PO BOX 3973, ONTARIO, CA, 91761","No_Match",NA,NA,NA,NA
347723,"PO BOX 397342","CAMBRIDGE","MA",2139,NA,NA,223,"PO BOX 397342, CAMBRIDGE, MA, 2139","No_Match",NA,NA,NA,NA
347724,"PO BOX 39790","REDFORD","MI",48239,NA,NA,224,"PO BOX 39790, REDFORD, MI, 48239","No_Match",NA,NA,NA,NA
347725,"PO BOX 39792","BALTIMORE","MD",21212,NA,NA,225,"PO BOX 39792, BALTIMORE, MD, 21212","No_Match",NA,NA,NA,NA
347726,"PO BOX 398","BALDWIN","MI",49304,NA,NA,226,"PO BOX 398, BALDWIN, MI, 49304","No_Match",NA,NA,NA,NA
347727,"PO BOX 398","BRIDGEPORT","CA",93517,NA,NA,227,"PO BOX 398, BRIDGEPORT, CA, 93517","No_Match",NA,NA,NA,NA
347728,"PO BOX 398","BRUCETON MILLS","WV",26525,NA,NA,228,"PO BOX 398, BRUCETON MILLS, WV, 26525","No_Match",NA,NA,NA,NA
347729,"PO BOX 398","CATHLAMET","WA",98612,NA,NA,229,"PO BOX 398, CATHLAMET, WA, 98612","No_Match",NA,NA,NA,NA
347730,"PO BOX 398","HOWE","TX",75459,NA,NA,230,"PO BOX 398, HOWE, TX, 75459","No_Match",NA,NA,NA,NA
347731,"PO BOX 398","KENANSVILLE","NC",28574,NA,NA,231,"PO BOX 398, KENANSVILLE, NC, 28574","No_Match",NA,NA,NA,NA
347732,"PO BOX 398","LEXINGTON","MS",39095,NA,NA,232,"PO BOX 398, LEXINGTON, MS, 39095","No_Match",NA,NA,NA,NA
347733,"PO BOX 398","POCAHONTAS","AR",72455,NA,NA,233,"PO BOX 398, POCAHONTAS, AR, 72455","No_Match",NA,NA,NA,NA
347734,"PO BOX 398","RED BANK","NJ",7701,NA,NA,234,"PO BOX 398, RED BANK, NJ, 7701","No_Match",NA,NA,NA,NA
347735,"PO BOX 398","ROACHDALE","IN",46172,NA,NA,235,"PO BOX 398, ROACHDALE, IN, 46172","No_Match",NA,NA,NA,NA
347736,"PO BOX 398","STATE CENTER","IA",50247,NA,NA,236,"PO BOX 398, STATE CENTER, IA, 50247","No_Match",NA,NA,NA,NA
347737,"PO BOX 398","WATERTOWN","CT",6795,NA,NA,237,"PO BOX 398, WATERTOWN, CT, 6795","No_Match",NA,NA,NA,NA
347738,"PO BOX 398","WEIR","TX",78674,NA,NA,238,"PO BOX 398, WEIR, TX, 78674","No_Match",NA,NA,NA,NA
347739,"PO BOX 398","WHITEVILLE","NC",28472,NA,NA,239,"PO BOX 398, WHITEVILLE, NC, 28472","No_Match",NA,NA,NA,NA
347740,"PO BOX 3982","FORT PIERCE","FL",34948,NA,NA,240,"PO BOX 3982, FORT PIERCE, FL, 34948","No_Match",NA,NA,NA,NA
347741,"PO BOX 3983","FLORENCE","SC",29502,NA,NA,241,"PO BOX 3983, FLORENCE, SC, 29502","No_Match",NA,NA,NA,NA
347742,"PO BOX 398303","DALLAS","TX",75339,NA,NA,242,"PO BOX 398303, DALLAS, TX, 75339","No_Match",NA,NA,NA,NA
347743,"PO BOX 398349","DALLAS","TX",75339,NA,NA,243,"PO BOX 398349, DALLAS, TX, 75339","No_Match",NA,NA,NA,NA
347744,"PO BOX 398526","MIAMI BEACH","FL",33239,NA,NA,244,"PO BOX 398526, MIAMI BEACH, FL, 33239","No_Match",NA,NA,NA,NA
347745,"PO BOX 398621","DALLAS","TX",75339,NA,NA,245,"PO BOX 398621, DALLAS, TX, 75339","No_Match",NA,NA,NA,NA
347746,"PO BOX 39867","REDFORD","MI",48239,NA,NA,246,"PO BOX 39867, REDFORD, MI, 48239","No_Match",NA,NA,NA,NA
347747,"PO BOX 398674","DALLAS","TX",75339,NA,NA,247,"PO BOX 398674, DALLAS, TX, 75339","No_Match",NA,NA,NA,NA
347748,"PO BOX 398706","DALLAS","TX",75339,NA,NA,248,"PO BOX 398706, DALLAS, TX, 75339","No_Match",NA,NA,NA,NA
347749,"PO BOX 3988","ALPINE","WY",83128,NA,NA,249,"PO BOX 3988, ALPINE, WY, 83128","No_Match",NA,NA,NA,NA
347750,"PO BOX 3988","ITHACA","NY",14852,NA,NA,250,"PO BOX 3988, ITHACA, NY, 14852","No_Match",NA,NA,NA,NA
347751,"PO BOX 3988","NAPERVILLE","IL",60567,NA,NA,251,"PO BOX 3988, NAPERVILLE, IL, 60567","No_Match",NA,NA,NA,NA
347752,"PO BOX 398868","MIAMI BEACH","FL",33239,NA,NA,252,"PO BOX 398868, MIAMI BEACH, FL, 33239","No_Match",NA,NA,NA,NA
347753,"PO BOX 398961","DALLAS","TX",75339,NA,NA,253,"PO BOX 398961, DALLAS, TX, 75339","No_Match",NA,NA,NA,NA
347754,"PO BOX 399 -  515 LIONS ROAD","SANDWICH","IL",60548,41.638578382,-88.616192132,254,"PO BOX 399 -  515 LIONS ROAD, SANDWICH, IL, 60548","Match","Exact","399 LIONS RD, SANDWICH, IL, 60548",642648136,"R"
347755,"PO BOX 399","BOCA GRANDE","FL",33921,NA,NA,255,"PO BOX 399, BOCA GRANDE, FL, 33921","No_Match",NA,NA,NA,NA
347756,"PO BOX 399","DILLSBORO","IN",47018,NA,NA,256,"PO BOX 399, DILLSBORO, IN, 47018","No_Match",NA,NA,NA,NA
347757,"PO BOX 399","FRANKLIN","WV",26807,NA,NA,257,"PO BOX 399, FRANKLIN, WV, 26807","No_Match",NA,NA,NA,NA
347758,"PO BOX 399","HEREFORD","AZ",85615,NA,NA,258,"PO BOX 399, HEREFORD, AZ, 85615","No_Match",NA,NA,NA,NA
347759,"PO BOX 399","NEW FREEDOM","PA",17349,NA,NA,259,"PO BOX 399, NEW FREEDOM, PA, 17349","No_Match",NA,NA,NA,NA
347760,"PO BOX 399","PORT EWEN","NY",12466,NA,NA,260,"PO BOX 399, PORT EWEN, NY, 12466","No_Match",NA,NA,NA,NA
347761,"PO BOX 399","SURFSIDE","CA",90743,NA,NA,261,"PO BOX 399, SURFSIDE, CA, 90743","No_Match",NA,NA,NA,NA
347762,"PO BOX 399","VAIL","CO",81658,NA,NA,262,"PO BOX 399, VAIL, CO, 81658","No_Match",NA,NA,NA,NA
347763,"PO BOX 399","VERNON","IN",47282,NA,NA,263,"PO BOX 399, VERNON, IN, 47282","No_Match",NA,NA,NA,NA
347764,"PO BOX 3990","AKRON","OH",44314,NA,NA,264,"PO BOX 3990, AKRON, OH, 44314","No_Match",NA,NA,NA,NA
347765,"PO BOX 3991","BARTLESVILLE","OK",74006,NA,NA,265,"PO BOX 3991, BARTLESVILLE, OK, 74006","No_Match",NA,NA,NA,NA
347766,"PO BOX 3991","BAYAMON","PR",958,NA,NA,266,"PO BOX 3991, BAYAMON, PR, 958","No_Match",NA,NA,NA,NA
347767,"PO BOX 3991","CHICO","CA",95927,NA,NA,267,"PO BOX 3991, CHICO, CA, 95927","No_Match",NA,NA,NA,NA
347768,"PO BOX 3991","JOHNSON CITY","TN",37602,NA,NA,268,"PO BOX 3991, JOHNSON CITY, TN, 37602","No_Match",NA,NA,NA,NA
347769,"PO BOX 3994","GILLETTE","WY",82717,NA,NA,269,"PO BOX 3994, GILLETTE, WY, 82717","No_Match",NA,NA,NA,NA
347770,"PO BOX 3994","YOUNGSTOWN","OH",44513,NA,NA,270,"PO BOX 3994, YOUNGSTOWN, OH, 44513","No_Match",NA,NA,NA,NA
347771,"PO BOX 3998","CRESTLINE","CA",92325,NA,NA,271,"PO BOX 3998, CRESTLINE, CA, 92325","No_Match",NA,NA,NA,NA
347772,"PO BOX 3998","PLANT CITY","FL",33563,NA,NA,272,"PO BOX 3998, PLANT CITY, FL, 33563","No_Match",NA,NA,NA,NA
347773,"PO BOX 4","ALLEN","TX",75013,NA,NA,273,"PO BOX 4, ALLEN, TX, 75013","No_Match",NA,NA,NA,NA
347774,"PO BOX 4","AUGUSTA","KY",41002,NA,NA,274,"PO BOX 4, AUGUSTA, KY, 41002","No_Match",NA,NA,NA,NA
347775,"PO BOX 4","BERTHOUD","CO",80513,NA,NA,275,"PO BOX 4, BERTHOUD, CO, 80513","No_Match",NA,NA,NA,NA
347776,"PO BOX 4","BORGER","TX",79008,NA,NA,276,"PO BOX 4, BORGER, TX, 79008","No_Match",NA,NA,NA,NA
347777,"PO BOX 4","BRIDGEHAMPTON","NY",11932,NA,NA,277,"PO BOX 4, BRIDGEHAMPTON, NY, 11932","No_Match",NA,NA,NA,NA
347778,"PO BOX 4","CALDWELL","OH",43724,NA,NA,278,"PO BOX 4, CALDWELL, OH, 43724","No_Match",NA,NA,NA,NA
347779,"PO BOX 4","CARROLLTON","IL",62016,NA,NA,279,"PO BOX 4, CARROLLTON, IL, 62016","No_Match",NA,NA,NA,NA
347780,"PO BOX 4","CEDAR RAPIDS","NE",68627,NA,NA,280,"PO BOX 4, CEDAR RAPIDS, NE, 68627","No_Match",NA,NA,NA,NA
347781,"PO BOX 4","COHOES","NY",12047,NA,NA,281,"PO BOX 4, COHOES, NY, 12047","No_Match",NA,NA,NA,NA
347782,"PO BOX 4","DEER PARK","WA",99006,NA,NA,282,"PO BOX 4, DEER PARK, WA, 99006","No_Match",NA,NA,NA,NA
347783,"PO BOX 4","DURHAM","NC",27702,NA,NA,283,"PO BOX 4, DURHAM, NC, 27702","No_Match",NA,NA,NA,NA
347784,"PO BOX 4","EMMETT","ID",83617,NA,NA,284,"PO BOX 4, EMMETT, ID, 83617","No_Match",NA,NA,NA,NA
347785,"PO BOX 4","EOLIA","MO",63344,NA,NA,285,"PO BOX 4, EOLIA, MO, 63344","No_Match",NA,NA,NA,NA
347786,"PO BOX 4","GRANVILLE","NY",12832,NA,NA,286,"PO BOX 4, GRANVILLE, NY, 12832","No_Match",NA,NA,NA,NA
347787,"PO BOX 4","GREAT FALLS","MT",59403,NA,NA,287,"PO BOX 4, GREAT FALLS, MT, 59403","No_Match",NA,NA,NA,NA
347788,"PO BOX 4","GREENHURST","NY",14742,NA,NA,288,"PO BOX 4, GREENHURST, NY, 14742","No_Match",NA,NA,NA,NA
347789,"PO BOX 4","GUSTINE","CA",95322,NA,NA,289,"PO BOX 4, GUSTINE, CA, 95322","No_Match",NA,NA,NA,NA
347790,"PO BOX 4","HOMER","GA",30547,NA,NA,290,"PO BOX 4, HOMER, GA, 30547","No_Match",NA,NA,NA,NA
347791,"PO BOX 4","LERAYSVILLE","PA",18829,NA,NA,291,"PO BOX 4, LERAYSVILLE, PA, 18829","No_Match",NA,NA,NA,NA
347792,"PO BOX 4","MANISTEE","MI",49660,NA,NA,292,"PO BOX 4, MANISTEE, MI, 49660","No_Match",NA,NA,NA,NA
347793,"PO BOX 4","MANORVILLE","NY",11949,NA,NA,293,"PO BOX 4, MANORVILLE, NY, 11949","No_Match",NA,NA,NA,NA
347794,"PO BOX 4","MASON CITY","IA",50401,NA,NA,294,"PO BOX 4, MASON CITY, IA, 50401","No_Match",NA,NA,NA,NA
347795,"PO BOX 4","MEDFORD","WI",54451,NA,NA,295,"PO BOX 4, MEDFORD, WI, 54451","No_Match",NA,NA,NA,NA
347796,"PO BOX 4","MONT BELVIEU","TX",77580,NA,NA,296,"PO BOX 4, MONT BELVIEU, TX, 77580","No_Match",NA,NA,NA,NA
347797,"PO BOX 4","MORRIS","CT",6763,NA,NA,297,"PO BOX 4, MORRIS, CT, 6763","No_Match",NA,NA,NA,NA
347798,"PO BOX 4","NEW MARTINSVILLE","WV",26155,NA,NA,298,"PO BOX 4, NEW MARTINSVILLE, WV, 26155","No_Match",NA,NA,NA,NA
347799,"PO BOX 4","OLD LYME","CT",6371,NA,NA,299,"PO BOX 4, OLD LYME, CT, 6371","No_Match",NA,NA,NA,NA
347800,"PO BOX 4","OTWELL","IN",47564,NA,NA,300,"PO BOX 4, OTWELL, IN, 47564","No_Match",NA,NA,NA,NA
347801,"PO BOX 4","PETERSTOWN","WV",24963,NA,NA,301,"PO BOX 4, PETERSTOWN, WV, 24963","No_Match",NA,NA,NA,NA
347802,"PO BOX 4","STRATHAM","NH",3885,NA,NA,302,"PO BOX 4, STRATHAM, NH, 3885","No_Match",NA,NA,NA,NA
347803,"PO BOX 4","SWISSHOME","OR",97480,NA,NA,303,"PO BOX 4, SWISSHOME, OR, 97480","No_Match",NA,NA,NA,NA
347804,"PO BOX 4","VIDA","OR",97488,NA,NA,304,"PO BOX 4, VIDA, OR, 97488","No_Match",NA,NA,NA,NA
347805,"PO BOX 4","WEST BEND","WI",53095,NA,NA,305,"PO BOX 4, WEST BEND, WI, 53095","No_Match",NA,NA,NA,NA
347806,"PO BOX 4","WEST FULTON","NY",12194,NA,NA,306,"PO BOX 4, WEST FULTON, NY, 12194","No_Match",NA,NA,NA,NA
347807,"PO BOX 4","WHEELING","WV",26003,NA,NA,307,"PO BOX 4, WHEELING, WV, 26003","No_Match",NA,NA,NA,NA
347808,"PO BOX 4","WONDER LAKE","IL",60097,NA,NA,308,"PO BOX 4, WONDER LAKE, IL, 60097","No_Match",NA,NA,NA,NA
347809,"PO BOX 4","ZIONSVILLE","IN",46077,NA,NA,309,"PO BOX 4, ZIONSVILLE, IN, 46077","No_Match",NA,NA,NA,NA
347810,"PO BOX 40","ALBANY","MN",56307,NA,NA,310,"PO BOX 40, ALBANY, MN, 56307","No_Match",NA,NA,NA,NA
347811,"PO BOX 40","ALPINE","CA",91903,NA,NA,311,"PO BOX 40, ALPINE, CA, 91903","No_Match",NA,NA,NA,NA
347812,"PO BOX 40","BERWICK","ME",3901,NA,NA,312,"PO BOX 40, BERWICK, ME, 3901","No_Match",NA,NA,NA,NA
347813,"PO BOX 40","DUMAS","TX",79029,NA,NA,313,"PO BOX 40, DUMAS, TX, 79029","No_Match",NA,NA,NA,NA
347814,"PO BOX 40","FORT ASHBY","WV",26719,NA,NA,314,"PO BOX 40, FORT ASHBY, WV, 26719","No_Match",NA,NA,NA,NA
347815,"PO BOX 40","GLENDORA","NJ",8029,NA,NA,315,"PO BOX 40, GLENDORA, NJ, 8029","No_Match",NA,NA,NA,NA
347816,"PO BOX 40","GRAND GORGE","NY",12434,NA,NA,316,"PO BOX 40, GRAND GORGE, NY, 12434","No_Match",NA,NA,NA,NA
347817,"PO BOX 40","GREENWOOD","MS",38935,NA,NA,317,"PO BOX 40, GREENWOOD, MS, 38935","No_Match",NA,NA,NA,NA
347818,"PO BOX 40","GUILFORD","IN",47022,NA,NA,318,"PO BOX 40, GUILFORD, IN, 47022","No_Match",NA,NA,NA,NA
347819,"PO BOX 40","LINCOLN","AL",35096,NA,NA,319,"PO BOX 40, LINCOLN, AL, 35096","No_Match",NA,NA,NA,NA
347820,"PO BOX 40","LOMETA","TX",76853,NA,NA,320,"PO BOX 40, LOMETA, TX, 76853","No_Match",NA,NA,NA,NA
347821,"PO BOX 40","LUQUILLO","PR",773,NA,NA,321,"PO BOX 40, LUQUILLO, PR, 773","No_Match",NA,NA,NA,NA
347822,"PO BOX 40","PAOLA","KS",66071,NA,NA,322,"PO BOX 40, PAOLA, KS, 66071","No_Match",NA,NA,NA,NA
347823,"PO BOX 40","PARKDALE","OR",97041,NA,NA,323,"PO BOX 40, PARKDALE, OR, 97041","No_Match",NA,NA,NA,NA
347824,"PO BOX 40","PROSPECT","OR",97536,NA,NA,324,"PO BOX 40, PROSPECT, OR, 97536","No_Match",NA,NA,NA,NA
347825,"PO BOX 40","QUEEN CITY","MO",63561,NA,NA,325,"PO BOX 40, QUEEN CITY, MO, 63561","No_Match",NA,NA,NA,NA
347826,"PO BOX 40","WHARTON","NJ",7885,NA,NA,326,"PO BOX 40, WHARTON, NJ, 7885","No_Match",NA,NA,NA,NA
347827,"PO BOX 400","BELFAIR","WA",98528,NA,NA,327,"PO BOX 400, BELFAIR, WA, 98528","No_Match",NA,NA,NA,NA
347828,"PO BOX 400","BISMARCK","ND",58502,NA,NA,328,"PO BOX 400, BISMARCK, ND, 58502","No_Match",NA,NA,NA,NA
347829,"PO BOX 400","CLARKSTON","WA",99403,NA,NA,329,"PO BOX 400, CLARKSTON, WA, 99403","No_Match",NA,NA,NA,NA
347830,"PO BOX 400","FALLBROOK","CA",92088,NA,NA,330,"PO BOX 400, FALLBROOK, CA, 92088","No_Match",NA,NA,NA,NA
347831,"PO BOX 400","ISLAND POND","VT",5846,NA,NA,331,"PO BOX 400, ISLAND POND, VT, 5846","No_Match",NA,NA,NA,NA
347832,"PO BOX 400","LIVINGSTON","MT",59047,NA,NA,332,"PO BOX 400, LIVINGSTON, MT, 59047","No_Match",NA,NA,NA,NA
347833,"PO BOX 400","PROSPER","TX",75078,NA,NA,333,"PO BOX 400, PROSPER, TX, 75078","No_Match",NA,NA,NA,NA
347834,"PO BOX 400","RHINELANDER","WI",54501,NA,NA,334,"PO BOX 400, RHINELANDER, WI, 54501","No_Match",NA,NA,NA,NA
347835,"PO BOX 400","SARASOTA","FL",34230,NA,NA,335,"PO BOX 400, SARASOTA, FL, 34230","No_Match",NA,NA,NA,NA
347836,"PO BOX 400","WEYAUWEGA","WI",54983,NA,NA,336,"PO BOX 400, WEYAUWEGA, WI, 54983","No_Match",NA,NA,NA,NA
347837,"PO BOX 4000","WALKER","MN",56484,NA,NA,337,"PO BOX 4000, WALKER, MN, 56484","No_Match",NA,NA,NA,NA
347838,"PO BOX 4001","BREMERTON","VA",98312,NA,NA,338,"PO BOX 4001, BREMERTON, VA, 98312","No_Match",NA,NA,NA,NA
347839,"PO BOX 40011","PORTLAND","OR",97240,NA,NA,339,"PO BOX 40011, PORTLAND, OR, 97240","No_Match",NA,NA,NA,NA
347840,"PO BOX 40012","STATEN ISLAND","NY",10304,NA,NA,340,"PO BOX 40012, STATEN ISLAND, NY, 10304","No_Match",NA,NA,NA,NA
347841,"PO BOX 4002","DOWNEY","CA",90241,NA,NA,341,"PO BOX 4002, DOWNEY, CA, 90241","No_Match",NA,NA,NA,NA
347842,"PO BOX 4002","HELENA","CO",59604,NA,NA,342,"PO BOX 4002, HELENA, CO, 59604","No_Match",NA,NA,NA,NA
347843,"PO BOX 4002","KAHULUI","HI",96733,NA,NA,343,"PO BOX 4002, KAHULUI, HI, 96733","No_Match",NA,NA,NA,NA
347844,"PO BOX 400244","NEWARK","NJ",7104,NA,NA,344,"PO BOX 400244, NEWARK, NJ, 7104","No_Match",NA,NA,NA,NA
347845,"PO BOX 40026","RALEIGH","NC",27629,NA,NA,345,"PO BOX 40026, RALEIGH, NC, 27629","No_Match",NA,NA,NA,NA
347846,"PO BOX 40042","MOBILE","AL",36640,NA,NA,346,"PO BOX 40042, MOBILE, AL, 36640","No_Match",NA,NA,NA,NA
347847,"PO BOX 400469","HESPERIA","CA",92340,NA,NA,347,"PO BOX 400469, HESPERIA, CA, 92340","No_Match",NA,NA,NA,NA
347848,"PO BOX 400478","HESPERIA","CA",92340,NA,NA,348,"PO BOX 400478, HESPERIA, CA, 92340","No_Match",NA,NA,NA,NA
347849,"PO BOX 40052","SPOKANE","WA",99220,NA,NA,349,"PO BOX 40052, SPOKANE, WA, 99220","No_Match",NA,NA,NA,NA
347850,"PO BOX 4006","SURF CITY","NC",28445,NA,NA,350,"PO BOX 4006, SURF CITY, NC, 28445","No_Match",NA,NA,NA,NA
347851,"PO BOX 40063","BERKELEY","CA",94704,NA,NA,351,"PO BOX 40063, BERKELEY, CA, 94704","No_Match",NA,NA,NA,NA
347852,"PO BOX 40065","INDIANAPOLIS","IN",46240,NA,NA,352,"PO BOX 40065, INDIANAPOLIS, IN, 46240","No_Match",NA,NA,NA,NA
347853,"PO BOX 400715 SAC BOX 534","CHARLOTTESVILLE","VA",22903,NA,NA,353,"PO BOX 400715 SAC BOX 534, CHARLOTTESVILLE, VA, 22903","No_Match",NA,NA,NA,NA
347854,"PO BOX 400717","CAMBRIDGE","MA",2140,NA,NA,354,"PO BOX 400717, CAMBRIDGE, MA, 2140","No_Match",NA,NA,NA,NA
347855,"PO BOX 40072","NASHVILLE","TN",37204,NA,NA,355,"PO BOX 40072, NASHVILLE, TN, 37204","No_Match",NA,NA,NA,NA
347856,"PO BOX 400764","LAS VEGAS","NV",89140,NA,NA,356,"PO BOX 400764, LAS VEGAS, NV, 89140","No_Match",NA,NA,NA,NA
347857,"PO BOX 40077","BERKELEY","CA",94704,NA,NA,357,"PO BOX 40077, BERKELEY, CA, 94704","No_Match",NA,NA,NA,NA
347858,"PO BOX 4008","CHATTANOOGA","TN",37405,NA,NA,358,"PO BOX 4008, CHATTANOOGA, TN, 37405","No_Match",NA,NA,NA,NA
347859,"PO BOX 40084","ST PAUL","MN",55104,NA,NA,359,"PO BOX 40084, ST PAUL, MN, 55104","No_Match",NA,NA,NA,NA
347860,"PO BOX 40089","BAY VILLAGE","OH",44140,NA,NA,360,"PO BOX 40089, BAY VILLAGE, OH, 44140","No_Match",NA,NA,NA,NA
347861,"PO BOX 40098","INDIANAPOLIS","IN",46240,NA,NA,361,"PO BOX 40098, INDIANAPOLIS, IN, 46240","No_Match",NA,NA,NA,NA
347862,"PO BOX 401 SEGUIN TEXAS 78156","SEGUIN","TX",78155,NA,NA,362,"PO BOX 401 SEGUIN TEXAS 78156, SEGUIN, TX, 78155","No_Match",NA,NA,NA,NA
347863,"PO BOX 401","BARRANQUITAS","PR",794,NA,NA,363,"PO BOX 401, BARRANQUITAS, PR, 794","No_Match",NA,NA,NA,NA
347864,"PO BOX 401","BELFAST","ME",4915,NA,NA,364,"PO BOX 401, BELFAST, ME, 4915","No_Match",NA,NA,NA,NA
347865,"PO BOX 401","CHANDLER","IN",47610,NA,NA,365,"PO BOX 401, CHANDLER, IN, 47610","No_Match",NA,NA,NA,NA
347866,"PO BOX 401","CHICAGO HEIGHTS","IL",60411,NA,NA,366,"PO BOX 401, CHICAGO HEIGHTS, IL, 60411","No_Match",NA,NA,NA,NA
347867,"PO BOX 401","COTULLA","TX",78014,NA,NA,367,"PO BOX 401, COTULLA, TX, 78014","No_Match",NA,NA,NA,NA
347868,"PO BOX 401","DOUGLAS","WY",82633,NA,NA,368,"PO BOX 401, DOUGLAS, WY, 82633","No_Match",NA,NA,NA,NA
347869,"PO BOX 401","DUNN","NC",28335,NA,NA,369,"PO BOX 401, DUNN, NC, 28335","No_Match",NA,NA,NA,NA
347870,"PO BOX 401","EAST JORDAN","MI",49727,NA,NA,370,"PO BOX 401, EAST JORDAN, MI, 49727","No_Match",NA,NA,NA,NA
347871,"PO BOX 401","GREEN VALLEY","AZ",85622,NA,NA,371,"PO BOX 401, GREEN VALLEY, AZ, 85622","No_Match",NA,NA,NA,NA
347872,"PO BOX 401","HADDONFIELD","NJ",8033,NA,NA,372,"PO BOX 401, HADDONFIELD, NJ, 8033","No_Match",NA,NA,NA,NA
347873,"PO BOX 401","MEADOWLANDS","PA",15347,NA,NA,373,"PO BOX 401, MEADOWLANDS, PA, 15347","No_Match",NA,NA,NA,NA
347874,"PO BOX 401","MONROE","OR",97456,NA,NA,374,"PO BOX 401, MONROE, OR, 97456","No_Match",NA,NA,NA,NA
347875,"PO BOX 401","MONTEREY","LA",71354,NA,NA,375,"PO BOX 401, MONTEREY, LA, 71354","No_Match",NA,NA,NA,NA
347876,"PO BOX 401","MORRISTOWN","MN",55052,NA,NA,376,"PO BOX 401, MORRISTOWN, MN, 55052","No_Match",NA,NA,NA,NA
347877,"PO BOX 401","NAPLES","FL",34106,NA,NA,377,"PO BOX 401, NAPLES, FL, 34106","No_Match",NA,NA,NA,NA
347878,"PO BOX 401","NORCO","LA",70079,NA,NA,378,"PO BOX 401, NORCO, LA, 70079","No_Match",NA,NA,NA,NA
347879,"PO BOX 401","NORTHERN CAMBRIA","PA",15714,NA,NA,379,"PO BOX 401, NORTHERN CAMBRIA, PA, 15714","No_Match",NA,NA,NA,NA
347880,"PO BOX 401","PARK RAPIDS","MN",56470,NA,NA,380,"PO BOX 401, PARK RAPIDS, MN, 56470","No_Match",NA,NA,NA,NA
347881,"PO BOX 401","PERU","VT",5152,NA,NA,381,"PO BOX 401, PERU, VT, 5152","No_Match",NA,NA,NA,NA
347882,"PO BOX 401","POWELL","TN",37849,NA,NA,382,"PO BOX 401, POWELL, TN, 37849","No_Match",NA,NA,NA,NA
347883,"PO BOX 401","RICHWOOD","WV",26261,NA,NA,383,"PO BOX 401, RICHWOOD, WV, 26261","No_Match",NA,NA,NA,NA
347884,"PO BOX 401","TOLEDO","OH",43697,NA,NA,384,"PO BOX 401, TOLEDO, OH, 43697","No_Match",NA,NA,NA,NA
347885,"PO BOX 401","TROUTDALE","OR",97060,NA,NA,385,"PO BOX 401, TROUTDALE, OR, 97060","No_Match",NA,NA,NA,NA
347886,"PO BOX 401","VASHON","WA",98070,NA,NA,386,"PO BOX 401, VASHON, WA, 98070","No_Match",NA,NA,NA,NA
347887,"PO BOX 401","WARSAW","MO",65355,NA,NA,387,"PO BOX 401, WARSAW, MO, 65355","No_Match",NA,NA,NA,NA
347888,"PO BOX 401","WATERVILLE VALLEY","NH",3215,NA,NA,388,"PO BOX 401, WATERVILLE VALLEY, NH, 3215","No_Match",NA,NA,NA,NA
347889,"PO BOX 401","WAVERLY","PA",18471,NA,NA,389,"PO BOX 401, WAVERLY, PA, 18471","No_Match",NA,NA,NA,NA
347890,"PO BOX 401","WINDSOR","CO",80550,NA,NA,390,"PO BOX 401, WINDSOR, CO, 80550","No_Match",NA,NA,NA,NA
347891,"PO BOX 401","WOLFEBORO","NH",3894,NA,NA,391,"PO BOX 401, WOLFEBORO, NH, 3894","No_Match",NA,NA,NA,NA
347892,"PO BOX 4010","KAILUA KONA","HI",96745,NA,NA,392,"PO BOX 4010, KAILUA KONA, HI, 96745","No_Match",NA,NA,NA,NA
347893,"PO BOX 401032","REDFORD","MI",48240,NA,NA,393,"PO BOX 401032, REDFORD, MI, 48240","No_Match",NA,NA,NA,NA
347894,"PO BOX 40105","WASHINGTON","DC",20016,NA,NA,394,"PO BOX 40105, WASHINGTON, DC, 20016","No_Match",NA,NA,NA,NA
347895,"PO BOX 4011","MARYVILLE","TN",37802,NA,NA,395,"PO BOX 4011, MARYVILLE, TN, 37802","No_Match",NA,NA,NA,NA
347896,"PO BOX 401111","LAS VEGAS","NV",89140,NA,NA,396,"PO BOX 401111, LAS VEGAS, NV, 89140","No_Match",NA,NA,NA,NA
347897,"PO BOX 4012","COTTONWOOD","AZ",86326,NA,NA,397,"PO BOX 4012, COTTONWOOD, AZ, 86326","No_Match",NA,NA,NA,NA
347898,"PO BOX 4012","TALLAHASSEE","FL",32315,NA,NA,398,"PO BOX 4012, TALLAHASSEE, FL, 32315","No_Match",NA,NA,NA,NA
347899,"PO BOX 40123","MOBILE","AL",36640,NA,NA,399,"PO BOX 40123, MOBILE, AL, 36640","No_Match",NA,NA,NA,NA
347900,"PO BOX 4013","CARLBAD","CA",92018,NA,NA,400,"PO BOX 4013, CARLBAD, CA, 92018","No_Match",NA,NA,NA,NA
347901,"PO BOX 401334","HESPERIA","CA",92345,NA,NA,401,"PO BOX 401334, HESPERIA, CA, 92345","No_Match",NA,NA,NA,NA
347902,"PO BOX 401354","REDFORD","MI",48240,NA,NA,402,"PO BOX 401354, REDFORD, MI, 48240","No_Match",NA,NA,NA,NA
347903,"PO BOX 4014","STOCKTON","CA",95204,NA,NA,403,"PO BOX 4014, STOCKTON, CA, 95204","No_Match",NA,NA,NA,NA
347904,"PO BOX 40162","JACKSONVILLE","FL",32203,NA,NA,404,"PO BOX 40162, JACKSONVILLE, FL, 32203","No_Match",NA,NA,NA,NA
347905,"PO BOX 40165","AUSTIN","TX",78704,NA,NA,405,"PO BOX 40165, AUSTIN, TX, 78704","No_Match",NA,NA,NA,NA
347906,"PO BOX 4017","JEFFERSONVILLE","IN",47131,NA,NA,406,"PO BOX 4017, JEFFERSONVILLE, IN, 47131","No_Match",NA,NA,NA,NA
347907,"PO BOX 40171","BAKERSFIELD","CA",93384,NA,NA,407,"PO BOX 40171, BAKERSFIELD, CA, 93384","No_Match",NA,NA,NA,NA
347908,"PO BOX 40171","PORTLAND","OR",97240,NA,NA,408,"PO BOX 40171, PORTLAND, OR, 97240","No_Match",NA,NA,NA,NA
347909,"PO BOX 40177","ALBUQUERQUE","NM",87196,NA,NA,409,"PO BOX 40177, ALBUQUERQUE, NM, 87196","No_Match",NA,NA,NA,NA
347910,"PO BOX 4018","ASHBURN","VA",20148,NA,NA,410,"PO BOX 4018, ASHBURN, VA, 20148","No_Match",NA,NA,NA,NA
347911,"PO BOX 4018","TUTTLE","OK",73089,NA,NA,411,"PO BOX 4018, TUTTLE, OK, 73089","No_Match",NA,NA,NA,NA
347912,"PO BOX 4018","WOODLAND PARK","CO",80866,NA,NA,412,"PO BOX 4018, WOODLAND PARK, CO, 80866","No_Match",NA,NA,NA,NA
347913,"PO BOX 40181","SOUTH PADRE ISLAND","NE",78597,NA,NA,413,"PO BOX 40181, SOUTH PADRE ISLAND, NE, 78597","No_Match",NA,NA,NA,NA
347914,"PO BOX 40183","NASHVILLE","TN",37204,NA,NA,414,"PO BOX 40183, NASHVILLE, TN, 37204","No_Match",NA,NA,NA,NA
347915,"PO BOX 40188","SAINT PAUL","MN",55104,NA,NA,415,"PO BOX 40188, SAINT PAUL, MN, 55104","No_Match",NA,NA,NA,NA
347916,"PO BOX 402","BUTTE FALLS","OR",97522,NA,NA,416,"PO BOX 402, BUTTE FALLS, OR, 97522","No_Match",NA,NA,NA,NA
347917,"PO BOX 402","CLUTE","TX",77531,NA,NA,417,"PO BOX 402, CLUTE, TX, 77531","No_Match",NA,NA,NA,NA
347918,"PO BOX 402","DANBURY","WI",54830,NA,NA,418,"PO BOX 402, DANBURY, WI, 54830","No_Match",NA,NA,NA,NA
347919,"PO BOX 402","FOLEY","AL",36536,NA,NA,419,"PO BOX 402, FOLEY, AL, 36536","No_Match",NA,NA,NA,NA
347920,"PO BOX 402","HICKSVILLE","NY",11802,NA,NA,420,"PO BOX 402, HICKSVILLE, NY, 11802","No_Match",NA,NA,NA,NA
347921,"PO BOX 402","KILLBUCK","OH",44637,NA,NA,421,"PO BOX 402, KILLBUCK, OH, 44637","No_Match",NA,NA,NA,NA
347922,"PO BOX 402","LAKE CITY","FL",32056,NA,NA,422,"PO BOX 402, LAKE CITY, FL, 32056","No_Match",NA,NA,NA,NA
347923,"PO BOX 402","LIBERTY HILL","TX",78642,NA,NA,423,"PO BOX 402, LIBERTY HILL, TX, 78642","No_Match",NA,NA,NA,NA
347924,"PO BOX 402","LIHUE","HI",96766,NA,NA,424,"PO BOX 402, LIHUE, HI, 96766","No_Match",NA,NA,NA,NA
347925,"PO BOX 402","MEDFORD","NY",11763,NA,NA,425,"PO BOX 402, MEDFORD, NY, 11763","No_Match",NA,NA,NA,NA
347926,"PO BOX 402","PINECLIFFE","CO",80471,NA,NA,426,"PO BOX 402, PINECLIFFE, CO, 80471","No_Match",NA,NA,NA,NA
347927,"PO BOX 402","POWELLSVILLE","NC",27967,NA,NA,427,"PO BOX 402, POWELLSVILLE, NC, 27967","No_Match",NA,NA,NA,NA
347928,"PO BOX 402","ROCKAWAY","NJ",7866,NA,NA,428,"PO BOX 402, ROCKAWAY, NJ, 7866","No_Match",NA,NA,NA,NA
347929,"PO BOX 402","ROCKDALE","TX",76567,NA,NA,429,"PO BOX 402, ROCKDALE, TX, 76567","No_Match",NA,NA,NA,NA
347930,"PO BOX 402","SHREWSBURY","PA",17361,NA,NA,430,"PO BOX 402, SHREWSBURY, PA, 17361","No_Match",NA,NA,NA,NA
347931,"PO BOX 402","ST HELENA","CA",94574,NA,NA,431,"PO BOX 402, ST HELENA, CA, 94574","No_Match",NA,NA,NA,NA
347932,"PO BOX 402","TULLY","NY",13159,NA,NA,432,"PO BOX 402, TULLY, NY, 13159","No_Match",NA,NA,NA,NA
347933,"PO BOX 402","WEST ISLIP","NY",11795,NA,NA,433,"PO BOX 402, WEST ISLIP, NY, 11795","No_Match",NA,NA,NA,NA
347934,"PO BOX 402","WRIGHTSVILLE BEACH","NC",28480,NA,NA,434,"PO BOX 402, WRIGHTSVILLE BEACH, NC, 28480","No_Match",NA,NA,NA,NA
347935,"PO BOX 402","YAMPA","CO",80483,NA,NA,435,"PO BOX 402, YAMPA, CO, 80483","No_Match",NA,NA,NA,NA
347936,"PO BOX 4020","CLINTON","MS",39058,NA,NA,436,"PO BOX 4020, CLINTON, MS, 39058","No_Match",NA,NA,NA,NA
347937,"PO BOX 4020","KILLEEN","TX",76540,NA,NA,437,"PO BOX 4020, KILLEEN, TX, 76540","No_Match",NA,NA,NA,NA
347938,"PO BOX 40202","PORTLAND","OR",97240,NA,NA,438,"PO BOX 40202, PORTLAND, OR, 97240","No_Match",NA,NA,NA,NA
347939,"PO BOX 40204","GLEN OAKS","NY",11004,NA,NA,439,"PO BOX 40204, GLEN OAKS, NY, 11004","No_Match",NA,NA,NA,NA
347940,"PO BOX 40213","MOBILE","AL",36640,NA,NA,440,"PO BOX 40213, MOBILE, AL, 36640","No_Match",NA,NA,NA,NA
347941,"PO BOX 40216","PASADENA","CA",91114,NA,NA,441,"PO BOX 40216, PASADENA, CA, 91114","No_Match",NA,NA,NA,NA
347942,"PO BOX 4022","CAROLINA","PR",984,NA,NA,442,"PO BOX 4022, CAROLINA, PR, 984","No_Match",NA,NA,NA,NA
347943,"PO BOX 4022","STOCKTON","CA",95204,NA,NA,443,"PO BOX 4022, STOCKTON, CA, 95204","No_Match",NA,NA,NA,NA
347944,"PO BOX 4023","PRAIRIE VIEW","TX",77446,NA,NA,444,"PO BOX 4023, PRAIRIE VIEW, TX, 77446","No_Match",NA,NA,NA,NA
347945,"PO BOX 4024","WATERBURY","CT",6704,NA,NA,445,"PO BOX 4024, WATERBURY, CT, 6704","No_Match",NA,NA,NA,NA
347946,"PO BOX 40242","DENVER","CO",80204,NA,NA,446,"PO BOX 40242, DENVER, CO, 80204","No_Match",NA,NA,NA,NA
347947,"PO BOX 402462","MIAMI","FL",33140,NA,NA,447,"PO BOX 402462, MIAMI, FL, 33140","No_Match",NA,NA,NA,NA
347948,"PO BOX 4026","FLINT","MI",48504,NA,NA,448,"PO BOX 4026, FLINT, MI, 48504","No_Match",NA,NA,NA,NA
347949,"PO BOX 4027","BOULDER","CO",80306,NA,NA,449,"PO BOX 4027, BOULDER, CO, 80306","No_Match",NA,NA,NA,NA
347950,"PO BOX 4027","JIM THORPE","PA",18229,NA,NA,450,"PO BOX 4027, JIM THORPE, PA, 18229","No_Match",NA,NA,NA,NA
347951,"PO BOX 40278","SAN ANTONIO","TX",78229,NA,NA,451,"PO BOX 40278, SAN ANTONIO, TX, 78229","No_Match",NA,NA,NA,NA
347952,"PO BOX 4029","FRANKFORT","KY",40604,NA,NA,452,"PO BOX 4029, FRANKFORT, KY, 40604","No_Match",NA,NA,NA,NA
347953,"PO BOX 40294","INDIANAPOLIS","IN",46240,NA,NA,453,"PO BOX 40294, INDIANAPOLIS, IN, 46240","No_Match",NA,NA,NA,NA
347954,"PO BOX 402965","HESPERIA","CA",92340,NA,NA,454,"PO BOX 402965, HESPERIA, CA, 92340","No_Match",NA,NA,NA,NA
347955,"PO BOX 403","ASHLAND","MO",65010,NA,NA,455,"PO BOX 403, ASHLAND, MO, 65010","No_Match",NA,NA,NA,NA
347956,"PO BOX 403","BEACHWOOD","NJ",8722,NA,NA,456,"PO BOX 403, BEACHWOOD, NJ, 8722","No_Match",NA,NA,NA,NA
347957,"PO BOX 403","BROADUS","MT",59317,NA,NA,457,"PO BOX 403, BROADUS, MT, 59317","No_Match",NA,NA,NA,NA
347958,"PO BOX 403","CEDAR HILL","TX",75106,NA,NA,458,"PO BOX 403, CEDAR HILL, TX, 75106","No_Match",NA,NA,NA,NA
347959,"PO BOX 403","CONTOOCOOK","NH",3229,NA,NA,459,"PO BOX 403, CONTOOCOOK, NH, 3229","No_Match",NA,NA,NA,NA
347960,"PO BOX 403","DANIELSON","CT",6239,NA,NA,460,"PO BOX 403, DANIELSON, CT, 6239","No_Match",NA,NA,NA,NA
347961,"PO BOX 403","DOVER","MA",2030,NA,NA,461,"PO BOX 403, DOVER, MA, 2030","No_Match",NA,NA,NA,NA
347962,"PO BOX 403","FITCHBURG","MA",1420,NA,NA,462,"PO BOX 403, FITCHBURG, MA, 1420","No_Match",NA,NA,NA,NA
347963,"PO BOX 403","FORNEY","TX",75126,NA,NA,463,"PO BOX 403, FORNEY, TX, 75126","No_Match",NA,NA,NA,NA
347964,"PO BOX 403","GALATIA","IL",62935,NA,NA,464,"PO BOX 403, GALATIA, IL, 62935","No_Match",NA,NA,NA,NA
347965,"PO BOX 403","HILLSDALE","MI",49242,NA,NA,465,"PO BOX 403, HILLSDALE, MI, 49242","No_Match",NA,NA,NA,NA
347966,"PO BOX 403","HOCKESSIN","DE",19707,NA,NA,466,"PO BOX 403, HOCKESSIN, DE, 19707","No_Match",NA,NA,NA,NA
347967,"PO BOX 403","IRONTON","OH",45638,NA,NA,467,"PO BOX 403, IRONTON, OH, 45638","No_Match",NA,NA,NA,NA
347968,"PO BOX 403","LIVE OAK","CA",95953,NA,NA,468,"PO BOX 403, LIVE OAK, CA, 95953","No_Match",NA,NA,NA,NA
347969,"PO BOX 403","MANILA","AR",72442,NA,NA,469,"PO BOX 403, MANILA, AR, 72442","No_Match",NA,NA,NA,NA
347970,"PO BOX 403","MARION","MA",2738,NA,NA,470,"PO BOX 403, MARION, MA, 2738","No_Match",NA,NA,NA,NA
347971,"PO BOX 403","MAZON","IL",60444,NA,NA,471,"PO BOX 403, MAZON, IL, 60444","No_Match",NA,NA,NA,NA
347972,"PO BOX 403","PANA","IL",62557,NA,NA,472,"PO BOX 403, PANA, IL, 62557","No_Match",NA,NA,NA,NA
347973,"PO BOX 403","PAONIA","CO",81428,NA,NA,473,"PO BOX 403, PAONIA, CO, 81428","No_Match",NA,NA,NA,NA
347974,"PO BOX 403","ROXOBEL","NC",27872,NA,NA,474,"PO BOX 403, ROXOBEL, NC, 27872","No_Match",NA,NA,NA,NA
347975,"PO BOX 403","ROXTON","TX",75477,NA,NA,475,"PO BOX 403, ROXTON, TX, 75477","No_Match",NA,NA,NA,NA
347976,"PO BOX 403","SIDNEY","MT",59270,NA,NA,476,"PO BOX 403, SIDNEY, MT, 59270","No_Match",NA,NA,NA,NA
347977,"PO BOX 403","STEELVILLE","MO",65565,NA,NA,477,"PO BOX 403, STEELVILLE, MO, 65565","No_Match",NA,NA,NA,NA
347978,"PO BOX 403","SULLIVAN","IL",61951,NA,NA,478,"PO BOX 403, SULLIVAN, IL, 61951","No_Match",NA,NA,NA,NA
347979,"PO BOX 403","TEMPLE","PA",19560,NA,NA,479,"PO BOX 403, TEMPLE, PA, 19560","No_Match",NA,NA,NA,NA
347980,"PO BOX 403","UPPER MARLBORO","MD",20773,NA,NA,480,"PO BOX 403, UPPER MARLBORO, MD, 20773","No_Match",NA,NA,NA,NA
347981,"PO BOX 403","VERMILLION","SD",57069,NA,NA,481,"PO BOX 403, VERMILLION, SD, 57069","No_Match",NA,NA,NA,NA
347982,"PO BOX 403","WINNETKA","IL",60093,NA,NA,482,"PO BOX 403, WINNETKA, IL, 60093","No_Match",NA,NA,NA,NA
347983,"PO BOX 4030","DOWLING PARK","FL",32064,NA,NA,483,"PO BOX 4030, DOWLING PARK, FL, 32064","No_Match",NA,NA,NA,NA
347984,"PO BOX 4031","DES PLAINES","IL",60016,NA,NA,484,"PO BOX 4031, DES PLAINES, IL, 60016","No_Match",NA,NA,NA,NA
347985,"PO BOX 40314","RALEIGH","NC",27604,NA,NA,485,"PO BOX 40314, RALEIGH, NC, 27604","No_Match",NA,NA,NA,NA
347986,"PO BOX 4032","VALDOSTA","GA",31604,NA,NA,486,"PO BOX 4032, VALDOSTA, GA, 31604","No_Match",NA,NA,NA,NA
347987,"PO BOX 40321","ALBUQUERQUE","NM",87196,NA,NA,487,"PO BOX 40321, ALBUQUERQUE, NM, 87196","No_Match",NA,NA,NA,NA
347988,"PO BOX 40327","MEMPHIS","TN",38174,NA,NA,488,"PO BOX 40327, MEMPHIS, TN, 38174","No_Match",NA,NA,NA,NA
347989,"PO BOX 40331","NORTH CHARLESTON","SC",29423,NA,NA,489,"PO BOX 40331, NORTH CHARLESTON, SC, 29423","No_Match",NA,NA,NA,NA
347990,"PO BOX 403344","MIAMI BEACH","FL",33140,NA,NA,490,"PO BOX 403344, MIAMI BEACH, FL, 33140","No_Match",NA,NA,NA,NA
347991,"PO BOX 4034","ANN ARBOR","MI",48106,NA,NA,491,"PO BOX 4034, ANN ARBOR, MI, 48106","No_Match",NA,NA,NA,NA
347992,"PO BOX 40343","AUSTIN","TX",78704,NA,NA,492,"PO BOX 40343, AUSTIN, TX, 78704","No_Match",NA,NA,NA,NA
347993,"PO BOX 4036","MIDDLETOWN","NJ",7748,NA,NA,493,"PO BOX 4036, MIDDLETOWN, NJ, 7748","No_Match",NA,NA,NA,NA
347994,"PO BOX 4036","PORTSMOUTH","VA",23701,NA,NA,494,"PO BOX 4036, PORTSMOUTH, VA, 23701","No_Match",NA,NA,NA,NA
347995,"PO BOX 40362","SPOKANE","WA",99220,NA,NA,495,"PO BOX 40362, SPOKANE, WA, 99220","No_Match",NA,NA,NA,NA
347996,"PO BOX 403631","MIAMI BEACH","FL",33140,NA,NA,496,"PO BOX 403631, MIAMI BEACH, FL, 33140","No_Match",NA,NA,NA,NA
347997,"PO BOX 40364","PROVIDENCE","RI",2940,NA,NA,497,"PO BOX 40364, PROVIDENCE, RI, 2940","No_Match",NA,NA,NA,NA
347998,"PO BOX 4038","SLIDELL","LA",70459,NA,NA,498,"PO BOX 4038, SLIDELL, LA, 70459","No_Match",NA,NA,NA,NA
347999,"PO BOX 4039","SONORA","CA",95370,NA,NA,499,"PO BOX 4039, SONORA, CA, 95370","No_Match",NA,NA,NA,NA
348000,"PO BOX 4039","SUNLAND","CA",91041,NA,NA,500,"PO BOX 4039, SUNLAND, CA, 91041","No_Match",NA,NA,NA,NA
