"ID","Address","City","State","Zip","lat","long","id","input_address","match_indicator","match_type","matched_address","tiger_line_id","tiger_side"
90001,"18 PIENZA DRIVE","AMERICAN CANYON","CA",94503,38.1613029600001,-122.236934597,1,"18 PIENZA DRIVE, AMERICAN CANYON, CA, 94503","Match","Exact","18 PIENZA DR, AMERICAN CANYON, CA, 94503",67429998,"R"
90002,"18 PIRATES COVE","HAMPTON","VA",23669,37.04031909,-76.32769459,2,"18 PIRATES COVE, HAMPTON, VA, 23669","Match","Exact","18 PIRATES COVE, HAMPTON, VA, 23669",103763586,"R"
90003,"18 PLANTATION DRIVE","HAUPPAUGE","NY",11788,40.8358867590001,-73.183627917,3,"18 PLANTATION DRIVE, HAUPPAUGE, NY, 11788","Match","Exact","18 PLANTATION DR, HAUPPAUGE, NY, 11788",114231253,"R"
90004,"18 PLEASANT VIEW DR","EXETER","NH",3833,42.9754456730001,-70.929225372,4,"18 PLEASANT VIEW DR, EXETER, NH, 3833","Match","Exact","18 PLEASANT VIEW DR, EXETER, NH, 03833",113708858,"R"
90005,"18 PLYMOUTH ROAD","EAST ROCKAWAY","NY",11518,40.6423541080001,-73.673072739,5,"18 PLYMOUTH ROAD, EAST ROCKAWAY, NY, 11518","Match","Exact","18 PLYMOUTH RD, EAST ROCKAWAY, NY, 11518",147679768,"L"
90006,"18 POPLAR PLACE","NORTH AURORA","IL",60542,41.8040389930001,-88.341344185,6,"18 POPLAR PLACE, NORTH AURORA, IL, 60542","Match","Exact","18 POPLAR PL, NORTH AURORA, IL, 60542",119510882,"L"
90007,"18 PORTLAND WAY","WHEATLEY HEIGHTS","NY",11798,40.761048945,-73.357866707,7,"18 PORTLAND WAY, WHEATLEY HEIGHTS, NY, 11798","Match","Exact","18 PORTLAND WAY, WHEATLEY HEIGHTS, NY, 11798",113969220,"L"
90008,"18 PURITAN PLACE","STAFFORD","VA",22554,38.4653329010001,-77.428202778,8,"18 PURITAN PLACE, STAFFORD, VA, 22554","Match","Exact","18 PURITAN PL, STAFFORD, VA, 22554",25577655,"R"
90009,"18 QUARTERDECK","NEW BERN","NC",28562,NA,NA,9,"18 QUARTERDECK, NEW BERN, NC, 28562","No_Match",NA,NA,NA,NA
90010,"18 QUEEN CIRCLE","KINGSTREE","SC",29556,33.6723114760001,-79.814519267,10,"18 QUEEN CIRCLE, KINGSTREE, SC, 29556","Match","Exact","18 QUEEN CIR, KINGSTREE, SC, 29556",29190488,"R"
90011,"18 RAILROAD AVENUE","YORK BEACH","ME",3910,NA,NA,11,"18 RAILROAD AVENUE, YORK BEACH, ME, 3910","No_Match",NA,NA,NA,NA
90012,"18 RAMBLER RD","HUTCHINSON","KS",67502,38.074099512,-97.911031307,12,"18 RAMBLER RD, HUTCHINSON, KS, 67502","Match","Exact","18 RAMBLER RD, HUTCHINSON, KS, 67502",142933717,"R"
90013,"18 RAYMOND STREET","BIDDEFORD","ME",4005,43.4803864030001,-70.458344089,13,"18 RAYMOND STREET, BIDDEFORD, ME, 4005","Match","Exact","18 RAYMOND ST, BIDDEFORD, ME, 04005",92742080,"L"
90014,"18 RED SHIRT CT","GREER","SC",29651,34.9674314480001,-82.2220768019999,14,"18 RED SHIRT CT, GREER, SC, 29651","Match","Exact","18 RED SHIRT CT, GREER, SC, 29651",646839287,"R"
90015,"18 RED TAIL DR","HAWTHORN WOODS","IL",60047,42.243248286,-88.071363348,15,"18 RED TAIL DR, HAWTHORN WOODS, IL, 60047","Match","Exact","18 RED TAIL DR, HAWTHORN WDS, IL, 60047",119757992,"L"
90016,"18 REDDY AVE","HYDE PARK","MA",2136,42.262585948,-71.1116864479999,16,"18 REDDY AVE, HYDE PARK, MA, 2136","Match","Exact","18 REDDY AVE, HYDE PARK, MA, 02136",85705354,"L"
90017,"18 RICHARD BANNA WAY","SEEKONK","MA",2771,41.826287049,-71.337955252,17,"18 RICHARD BANNA WAY, SEEKONK, MA, 2771","Match","Exact","18 RICHARD BANNA WAY, SEEKONK, MA, 02771",636773447,"L"
90018,"18 RICHARD COURT","AMITYVILLE","NY",11701,40.696237771,-73.42174119,18,"18 RICHARD COURT, AMITYVILLE, NY, 11701","Match","Exact","18 RICHARD CT, AMITYVILLE, NY, 11701",113970826,"L"
90019,"18 RICHMOND LANE","ADAMS","MA",1220,42.626663099,-73.110740904,19,"18 RICHMOND LANE, ADAMS, MA, 1220","Match","Exact","18 RICHMOND LN, ADAMS, MA, 01220",647262191,"L"
90020,"18 RIDGETOP DRIVE","SAINT LOUIS","MO",63117,38.6391358540001,-90.354958358,20,"18 RIDGETOP DRIVE, SAINT LOUIS, MO, 63117","Match","Exact","18 RIDGETOP DR, SAINT LOUIS, MO, 63117",100193921,"R"
90021,"18 RIVER ROAD UNIT F","NUTLEY","NJ",7110,40.8058357640001,-74.1408519239999,21,"18 RIVER ROAD UNIT F, NUTLEY, NJ, 7110","Match","Exact","18 RIVER RD, NUTLEY, NJ, 07110",63487787,"L"
90022,"18 RIVER ROAD","NORTH BROOKFIELD","MA",1535,42.242374419,-72.043228111,22,"18 RIVER ROAD, NORTH BROOKFIELD, MA, 1535","Match","Exact","18 RIVER RD, NORTH BROOKFIELD, MA, 01535",39998812,"R"
90023,"18 RIVIERA COURT","TROPHY CLUB","TX",76262,32.998781299,-97.2008120689999,23,"18 RIVIERA COURT, TROPHY CLUB, TX, 76262","Match","Exact","18 RIVIERA CT, TROPHY CLUB, TX, 76262",103407374,"L"
90024,"18 ROBANETTE CT","FORT THOMAS","KY",41075,39.1102884960001,-84.45937744,24,"18 ROBANETTE CT, FORT THOMAS, KY, 41075","Match","Exact","18 ROBANETTE CT, FORT THOMAS, KY, 41075",104448370,"R"
90025,"18 ROBERTS STREET","PRESQUE ISLE","ME",4769,46.6780602490001,-68.017036759,25,"18 ROBERTS STREET, PRESQUE ISLE, ME, 4769","Match","Exact","18 ROBERTS ST, PRESQUE ISLE, ME, 04769",123846194,"R"
90026,"18 ROBIN DR","EXETER","RI",2822,41.566893093,-71.539052672,26,"18 ROBIN DR, EXETER, RI, 2822","Match","Exact","18 ROBIN DR, EXETER, RI, 02822",58901242,"L"
90027,"18 ROLLING RIDGE DR","ROCKAWAY","NJ",7866,40.971539423,-74.494660688,27,"18 ROLLING RIDGE DR, ROCKAWAY, NJ, 7866","Match","Exact","18 ROLLING RIDGE DR, ROCKAWAY, NJ, 07866",60512448,"R"
90028,"18 ROMANOFF CT","PARKVILLE","MD",21234,39.4044777780001,-76.484335774,28,"18 ROMANOFF CT, PARKVILLE, MD, 21234","Match","Exact","18 ROMANOFF CT, PARKVILLE, MD, 21234",191479433,"L"
90029,"18 ROOSEVELT AVENUE","GLENS FALLS","NY",12801,43.316320418,-73.6649317759999,29,"18 ROOSEVELT AVENUE, GLENS FALLS, NY, 12801","Match","Exact","18 ROOSEVELT AVE, GLENS FALLS, NY, 12801",173922542,"L"
90030,"18 ROSEMONT AVENUE","SAN ANSELMO","CA",94960,37.9908723340001,-122.577475162,30,"18 ROSEMONT AVENUE, SAN ANSELMO, CA, 94960","Match","Exact","18 ROSEMONT AVE, SAN ANSELMO, CA, 94960",192759998,"R"
90031,"18 ROUND ROBIN","RENO","NV",89502,39.495370441,-119.786566575,31,"18 ROUND ROBIN, RENO, NV, 89502","Match","Non_Exact","18 ROUND ROBIN LN, RENO, NV, 89502",107052787,"L"
90032,"18 S BROADWAY ST SUITE 200","LAKE ORION","MI",48362,NA,NA,32,"18 S BROADWAY ST SUITE 200, LAKE ORION, MI, 48362","Tie",NA,NA,NA,NA
90033,"18 S BROADWAY STE 200","LAKE ORION","MI",48362,NA,NA,33,"18 S BROADWAY STE 200, LAKE ORION, MI, 48362","No_Match",NA,NA,NA,NA
90034,"18 S COURT ST","ALAMO","TN",38001,35.7848209420001,-89.117059411,34,"18 S COURT ST, ALAMO, TN, 38001","Match","Exact","18 S COURT ST, ALAMO, TN, 38001",63319820,"R"
90035,"18 S HUDSON STREET","ALEXANDRIA","VA",22304,38.810400509,-77.1053807659999,35,"18 S HUDSON STREET, ALEXANDRIA, VA, 22304","Match","Exact","18 S HUDSON ST, ALEXANDRIA, VA, 22304",75986919,"L"
90036,"18 S MICHIGAN AVE FL 12","CHICAGO","IL",60603,41.881227767,-87.624450436,36,"18 S MICHIGAN AVE FL 12, CHICAGO, IL, 60603","Match","Non_Exact","18 S MICHIGAN AVE, CHICAGO, IL, 60603",637911348,"R"
90037,"18 S NEW HAVEN AVE","VENTNOR","NJ",8406,39.3366966730001,-74.483969561,37,"18 S NEW HAVEN AVE, VENTNOR, NJ, 8406","Match","Non_Exact","18 S NEW HAVEN AVE, VENTNOR CITY, NJ, 08406",202527435,"R"
90038,"18 S ORANGE AVE 3","SOUTH ORANGE","NJ",7079,40.745913166,-74.258621214,38,"18 S ORANGE AVE 3, SOUTH ORANGE, NJ, 7079","Match","Non_Exact","18 S ORANGE AVE, SOUTH ORANGE, NJ, 07079",63462771,"R"
90039,"18 S WATER ST    STE 10","WILMINGTON","NC",28401,NA,NA,39,"18 S WATER ST    STE 10, WILMINGTON, NC, 28401","Tie",NA,NA,NA,NA
90040,"18 SACKSTON WOODS LANE","SAINT LOUIS","MO",63141,38.649180287,-90.4450380389999,40,"18 SACKSTON WOODS LANE, SAINT LOUIS, MO, 63141","Match","Exact","18 SACKSTON WOODS LN, SAINT LOUIS, MO, 63141",100174163,"R"
90041,"18 SANDERSDALE ROAD","SOUTHBRIDGE","MA",1550,42.0673654390001,-72.0081374229999,41,"18 SANDERSDALE ROAD, SOUTHBRIDGE, MA, 1550","Match","Exact","18 SANDERSDALE RD, SOUTHBRIDGE, MA, 01550",40002140,"L"
90042,"18 SANDRINGHAM RD","TAYLORS","SC",29687,34.8917422710001,-82.322605521,42,"18 SANDRINGHAM RD, TAYLORS, SC, 29687","Match","Exact","18 SANDRINGHAM RD, TAYLORS, SC, 29687",38309261,"R"
90043,"18 SARAH DRIVE","NEW HEMPSTEAD","NY",10977,41.1498167980001,-74.040617918,43,"18 SARAH DRIVE, NEW HEMPSTEAD, NY, 10977","Match","Non_Exact","18 SARAH DR, NEW SQUARE, NY, 10977",124593183,"L"
90044,"18 SAWYER AVENUE","LA GRANGE","IL",60525,41.8170312290001,-87.8623453169999,44,"18 SAWYER AVENUE, LA GRANGE, IL, 60525","Match","Exact","18 SAWYER AVE, LA GRANGE, IL, 60525",112221636,"R"
90045,"18 SCHANCK RD","HOLMDEL","NJ",7733,40.3649359890001,-74.195616726,45,"18 SCHANCK RD, HOLMDEL, NJ, 7733","Match","Exact","18 SCHANCK RD, HOLMDEL, NJ, 07733",90447523,"R"
90046,"18 SCHOOL LANE","BARRINGTON","RI",2806,41.7387424180001,-71.318250446,46,"18 SCHOOL LANE, BARRINGTON, RI, 2806","Match","Exact","18 SCHOOL LN, BARRINGTON, RI, 02806",46483873,"L"
90047,"18 SEA OAKS DRIVE","ST AUGUSTINE","FL",32080,29.8466127400001,-81.271866157,47,"18 SEA OAKS DRIVE, ST AUGUSTINE, FL, 32080","Match","Exact","18 SEA OAKS DR, SAINT AUGUSTINE, FL, 32080",92610633,"R"
90048,"18 SEABREEZE LANE","WINTERPORT","ME",4496,NA,NA,48,"18 SEABREEZE LANE, WINTERPORT, ME, 4496","No_Match",NA,NA,NA,NA
90049,"18 SECOND AVE","ILION","NY",13357,43.014732538,-75.042209124,49,"18 SECOND AVE, ILION, NY, 13357","Match","Exact","18 SECOND AVE, ILION, NY, 13357",153760833,"R"
90050,"18 SEELEY STREET","BROOKLYN","NY",11218,40.6528719180001,-73.9806796409999,50,"18 SEELEY STREET, BROOKLYN, NY, 11218","Match","Exact","18 SEELEY ST, BROOKLYN, NY, 11218",59078339,"R"
90051,"18 SELDEN STREET","WOODBRIDGE","CT",6525,41.3395784240001,-72.982207291,51,"18 SELDEN STREET, WOODBRIDGE, CT, 6525","Match","Exact","18 SELDEN ST, WOODBRIDGE, CT, 06525",3697062,"R"
90052,"18 SHATTUCK STREET","LOWELL","MA",1852,42.6452826770001,-71.312359063,52,"18 SHATTUCK STREET, LOWELL, MA, 1852","Match","Exact","18 SHATTUCK ST, LOWELL, MA, 01852",86878326,"L"
90053,"18 SHEFFIELD AVENUE","NORTH PROVIDENCE","RI",2911,41.8470724250001,-71.45827888,53,"18 SHEFFIELD AVENUE, NORTH PROVIDENCE, RI, 2911","Match","Exact","18 SHEFFIELD AVE, N PROVIDENCE, RI, 02911",640386244,"L"
90054,"18 SHEFFIELD RD","BOXFORD","MA",1921,42.6769885420001,-71.017435239,54,"18 SHEFFIELD RD, BOXFORD, MA, 1921","Match","Exact","18 SHEFFIELD RD, BOXFORD, MA, 01921",86698319,"R"
90055,"18 SHENANDOAH ST","KENNER","LA",70065,30.045649585,-90.276296622,55,"18 SHENANDOAH ST, KENNER, LA, 70065","Match","Exact","18 SHENANDOAH ST, KENNER, LA, 70065",93492083,"R"
90056,"18 SHETLAND DRIVE","SPRINGFIELD","IL",62702,39.8241950520001,-89.695282326,56,"18 SHETLAND DRIVE, SPRINGFIELD, IL, 62702","Match","Exact","18 SHETLAND DR, SPRINGFIELD, IL, 62702",97321548,"R"
90057,"18 SHIPYARD DRIVE SUITE 2A-50","HINGHAM","CO",2043,NA,NA,57,"18 SHIPYARD DRIVE SUITE 2A-50, HINGHAM, CO, 2043","No_Match",NA,NA,NA,NA
90058,"18 SHIPYARD DRIVE SUITE 2A","HINGHAM","MA",2043,42.2525417860001,-70.920643,58,"18 SHIPYARD DRIVE SUITE 2A, HINGHAM, MA, 2043","Match","Exact","18 SHIPYARD DR, HINGHAM, MA, 02043",624669511,"L"
90059,"18 SIDNEY PLACE 17","BROOKLYN","NY",11201,40.692553693,-73.994410622,59,"18 SIDNEY PLACE 17, BROOKLYN, NY, 11201","Match","Exact","18 SIDNEY PL, BROOKLYN, NY, 11201",639432392,"R"
90060,"18 SIGNAL HILL DRIVE","VOORHEES","NJ",8043,39.8284124940001,-74.921378052,60,"18 SIGNAL HILL DRIVE, VOORHEES, NJ, 8043","Match","Exact","18 SIGNAL HILL DR, VOORHEES, NJ, 08043",134364471,"R"
90061,"18 SINGAC COURT","PARSIPPANY","NJ",7054,40.8648665580001,-74.434041588,61,"18 SINGAC COURT, PARSIPPANY, NJ, 7054","Match","Exact","18 SINGAC CT, PARSIPPANY, NJ, 07054",60445002,"R"
90062,"18 SMITH HILL ROAD","BINGHAMTON","NY",13905,42.1483203000001,-75.921373285,62,"18 SMITH HILL ROAD, BINGHAMTON, NY, 13905","Match","Exact","18 SMITH HILL RD, BINGHAMTON, NY, 13905",46354424,"L"
90063,"18 SOUTH K ST SUITE 1","LAKE WORTH BEACH","FL",33460,26.6155827860001,-80.0553633069999,63,"18 SOUTH K ST SUITE 1, LAKE WORTH BEACH, FL, 33460","Match","Exact","18 S K ST, LAKE WORTH BEACH, FL, 33460",115294188,"L"
90064,"18 SOUTH MAIN ST","CEDAR SPRINGS","MI",49319,43.223339536,-85.5511693139999,64,"18 SOUTH MAIN ST, CEDAR SPRINGS, MI, 49319","Match","Non_Exact","18 S MAIN ST NE, CEDAR SPRINGS, MI, 49319",12446801,"R"
90065,"18 SOUTH MAIN STREET","GREEVILLE","SC",29601,34.8505019840001,-82.399080222,65,"18 SOUTH MAIN STREET, GREEVILLE, SC, 29601","Match","Non_Exact","18 S MAIN ST, GREENVILLE, SC, 29601",38301005,"R"
90066,"18 SOUTH MAIN STREET","JOHNSTOWN","OH",43031,40.1535582020001,-82.6845364599999,66,"18 SOUTH MAIN STREET, JOHNSTOWN, OH, 43031","Match","Exact","18 S MAIN ST, JOHNSTOWN, OH, 43031",61497842,"R"
90067,"18 SOUTH MAIN STREET","ROCHESTER","NH",3867,43.3041603990001,-70.975879584,67,"18 SOUTH MAIN STREET, ROCHESTER, NH, 3867","Match","Exact","18 S MAIN ST, ROCHESTER, NH, 03867",117820609,"L"
90068,"18 SOUTH OREGON AVE","MORRIS","MN",56267,45.582120215,-95.907861826,68,"18 SOUTH OREGON AVE, MORRIS, MN, 56267","Match","Exact","18 S OREGON AVE, MORRIS, MN, 56267",165152173,"L"
90069,"18 SOUTH STREET","NORWELL","MA",2061,42.15659006,-70.834955838,69,"18 SOUTH STREET, NORWELL, MA, 2061","Match","Exact","18 SOUTH ST, NORWELL, MA, 02061",87479929,"L"
90070,"18 SPARROW DR","WEST WINDSOR TOWNSHI","NJ",8550,40.2691403420001,-74.5970635049999,70,"18 SPARROW DR, WEST WINDSOR TOWNSHI, NJ, 8550","Match","Non_Exact","18 SPARROW DR, WEST WINDSOR, NJ, 08550",60196996,"R"
90071,"18 SPARROW DR","WEST WINDSOR","NJ",8550,40.2691403420001,-74.5970635049999,71,"18 SPARROW DR, WEST WINDSOR, NJ, 8550","Match","Exact","18 SPARROW DR, WEST WINDSOR, NJ, 08550",60196996,"R"
90072,"18 SPINNAKER POINT COURT","INDIAN HARBOUR BEACH","FL",32937,28.1555850080001,-80.6041135409999,72,"18 SPINNAKER POINT COURT, INDIAN HARBOUR BEACH, FL, 32937","Match","Exact","18 SPINNAKER POINT CT, INDIAN HARBOUR BEACH, FL, 32937",639068116,"R"
90073,"18 ST MARYS ROAD","MILTON","MA",2186,42.2619318710001,-71.089837131,73,"18 ST MARYS ROAD, MILTON, MA, 2186","Match","Exact","18 SAINT MARYS RD, MILTON, MA, 02186",87247261,"L"
90074,"18 STARVIEW DRIVE","MALAKOFF","TX",75148,32.1950756430001,-96.0613644859999,74,"18 STARVIEW DRIVE, MALAKOFF, TX, 75148","Match","Non_Exact","18 STARVIEW DR S, MALAKOFF, TX, 75148",125828362,"R"
90075,"18 STONELEIGH CLOSE","SCARSDALE","NY",10583,41.0006329330001,-73.817005787,75,"18 STONELEIGH CLOSE, SCARSDALE, NY, 10583","Match","Exact","18 STONELEIGH CLOSE, SCARSDALE, NY, 10583",139739149,"L"
90076,"18 STUYVESANT AVE","LYNDHURST","NJ",7071,40.820161393,-74.1211962799999,76,"18 STUYVESANT AVE, LYNDHURST, NJ, 7071","Match","Exact","18 STUYVESANT AVE, LYNDHURST, NJ, 07071",64394319,"L"
90077,"18 SUGARBUSH ACCESS ROAD","WARREN","VT",5674,44.137368253,-72.846448401,77,"18 SUGARBUSH ACCESS ROAD, WARREN, VT, 5674","Match","Exact","18 SUGARBUSH ACCESS RD, WARREN, VT, 05674",136667684,"R"
90078,"18 SUMMIT RD","PATTERSON","NY",12563,41.4658675700001,-73.5489991969999,78,"18 SUMMIT RD, PATTERSON, NY, 12563","Match","Exact","18 SUMMIT RD, PATTERSON, NY, 12563",139712875,"R"
90079,"18 SUMMIT STREET","EAST HAMPTON","CT",6424,41.577720916,-72.499182294,79,"18 SUMMIT STREET, EAST HAMPTON, CT, 6424","Match","Exact","18 SUMMIT ST, EAST HAMPTON, CT, 06424",113885639,"R"
90080,"18 SUNNIE WAY","GETTYSBURG","PA",17325,39.8671851880001,-77.234357931,80,"18 SUNNIE WAY, GETTYSBURG, PA, 17325","Match","Exact","18 SUNNIE WAY, GETTYSBURG, PA, 17325",648145456,"R"
90081,"18 SUNSET BLVD","HOPEWELL JUNCTION","NY",12533,41.5891704800001,-73.839009117,81,"18 SUNSET BLVD, HOPEWELL JUNCTION, NY, 12533","Match","Exact","18 SUNSET BLVD, HOPEWELL JCT, NY, 12533",4230253,"R"
90082,"18 SUNSET DR","KENSINGTON","CA",94707,37.9082676460001,-122.282936075,82,"18 SUNSET DR, KENSINGTON, CA, 94707","Match","Exact","18 SUNSET DR, KENSINGTON, CA, 94707",607831171,"R"
90083,"18 SUNSET DRIVE","NORTH CALDWELL","NJ",7006,40.876431858,-74.26455584,83,"18 SUNSET DRIVE, NORTH CALDWELL, NJ, 7006","Match","Exact","18 SUNSET DR, N CALDWELL, NJ, 07006",63496436,"R"
90084,"18 SUSSEX WAY","NISKAYUNA","NY",12309,42.772808593,-73.8729592459999,84,"18 SUSSEX WAY, NISKAYUNA, NY, 12309","Match","Exact","18 SUSSEX WAY, NISKAYUNA, NY, 12309",18031231,"L"
90085,"18 SWARTHMORE LANE","DIX HILLS","NY",11746,40.832847831,-73.3309523789999,85,"18 SWARTHMORE LANE, DIX HILLS, NY, 11746","Match","Exact","18 SWARTHMORE LN, DIX HILLS, NY, 11746",114047963,"L"
90086,"18 SYCAMORE COURT","REDWOOD CITY","CA",94061,37.4608340620001,-122.228357227,86,"18 SYCAMORE COURT, REDWOOD CITY, CA, 94061","Match","Exact","18 SYCAMORE CT, REDWOOD CITY, CA, 94061",192363111,"L"
90087,"18 TAMERON PLACE","ROSEDALE","MD",21237,39.338105651,-76.500833654,87,"18 TAMERON PLACE, ROSEDALE, MD, 21237","Match","Exact","18 TAMERON PL, ROSEDALE, MD, 21237",191510203,"L"
90088,"18 TECHNOLOGY SUITE 118","IRVINE","CA",92618,33.649913956,-117.73699935,88,"18 TECHNOLOGY SUITE 118, IRVINE, CA, 92618","Match","Non_Exact","18 TECHNOLOGY DR, IRVINE, CA, 92618",641385615,"L"
90089,"18 TELLER AVENUE","BEACON","NY",12508,41.4998329370001,-73.969977789,89,"18 TELLER AVENUE, BEACON, NY, 12508","Match","Exact","18 TELLER AVE, BEACON, NY, 12508",4173250,"L"
90090,"18 THOMAS NEWTON DRIVE","WESTBOROUGH","MA",1581,42.2961270220001,-71.588701709,90,"18 THOMAS NEWTON DRIVE, WESTBOROUGH, MA, 1581","Match","Exact","18 THOMAS NEWTON DR, WESTBOROUGH, MA, 01581",40109118,"L"
90091,"18 THORNHILL ROAD","LUTHERVILLE","MD",21093,39.4216278980001,-76.615774378,91,"18 THORNHILL ROAD, LUTHERVILLE, MD, 21093","Match","Exact","18 THORNHILL RD, LUTHERVILLE, MD, 21093",191515187,"L"
90092,"18 TIANA PL","DIX HILLS","NY",11746,40.8026433470001,-73.3464456089999,92,"18 TIANA PL, DIX HILLS, NY, 11746","Match","Exact","18 TIANA PL, DIX HILLS, NY, 11746",113969026,"L"
90093,"18 TIMBERLANE RD","MATTESON","IL",60443,41.525992054,-87.761693807,93,"18 TIMBERLANE RD, MATTESON, IL, 60443","Match","Exact","18 TIMBERLANE RD, MATTESON, IL, 60443",605677733,"R"
90094,"18 TIOGA COURT","BORDENTOWN","NJ",8505,40.134861233,-74.690045733,94,"18 TIOGA COURT, BORDENTOWN, NJ, 8505","Match","Exact","18 TIOGA CT, BORDENTOWN, NJ, 08505",640094922,"L"
90095,"18 TOVA DRIVE","LAKEWOOD","NJ",8701,40.0572062210001,-74.222791033,95,"18 TOVA DRIVE, LAKEWOOD, NJ, 8701","Match","Exact","18 TOVA DR, LAKEWOOD, NJ, 08701",617764240,"R"
90096,"18 TOWNE LN","CENTEREACH","NY",11720,40.8760418750001,-73.0753933999999,96,"18 TOWNE LN, CENTEREACH, NY, 11720","Match","Exact","18 TOWNE LN, CENTEREACH, NY, 11720",114002189,"L"
90097,"18 TRAIL WOOD CT","NORTH EAST","MD",21901,39.606300011,-75.964903047,97,"18 TRAIL WOOD CT, NORTH EAST, MD, 21901","Match","Exact","18 TRAIL WOOD CT, NORTH EAST, MD, 21901",187391861,"L"
90098,"18 TREMONT ST","WILTON","NH",3086,NA,NA,98,"18 TREMONT ST, WILTON, NH, 3086","No_Match",NA,NA,NA,NA
90099,"18 TROTTERS RUN","THOMASVILLE","NC",27360,35.873935675,-80.05867898,99,"18 TROTTERS RUN, THOMASVILLE, NC, 27360","Match","Exact","18 TROTTERS RUN, THOMASVILLE, NC, 27360",638676834,"R"
90100,"18 TRUMAN ST SUITE 208","IRVINE","CA",92620,NA,NA,100,"18 TRUMAN ST SUITE 208, IRVINE, CA, 92620","No_Match",NA,NA,NA,NA
90101,"18 TUCK ROAD","LEBANON","NH",3766,43.633304433,-72.2747930519999,101,"18 TUCK ROAD, LEBANON, NH, 3766","Match","Exact","18 TUCK RD, LEBANON, NH, 03766",145660532,"L"
90102,"18 TULIP LANE","WILLINGBORO","NJ",8046,40.0069416090001,-74.871476296,102,"18 TULIP LANE, WILLINGBORO, NJ, 8046","Match","Exact","18 TULIP LN, WILLINGBORO, NJ, 08046",134058457,"L"
90103,"18 VALE DR","MOUNTAIN LAKES","NJ",7046,40.883701611,-74.43259082,103,"18 VALE DR, MOUNTAIN LAKES, NJ, 7046","Match","Exact","18 VALE DR, MOUNTAIN LAKES, NJ, 07046",60444642,"R"
90104,"18 VALENCIA COURT","WINTER HAVEN","FL",33880,28.0120610600001,-81.81933793,104,"18 VALENCIA COURT, WINTER HAVEN, FL, 33880","Match","Non_Exact","18 VALENCIA CT SW, WINTER HAVEN, FL, 33880",104819745,"L"
90105,"18 VALLEY DRIVE","NEPTUNE","NJ",7753,40.214456678,-74.0722548849999,105,"18 VALLEY DRIVE, NEPTUNE, NJ, 7753","Match","Exact","18 VALLEY DR, NEPTUNE, NJ, 07753",90457112,"L"
90106,"18 VALLEY FORGE DR","SWEDESBORO","NJ",8085,39.7416533430001,-75.3323886379999,106,"18 VALLEY FORGE DR, SWEDESBORO, NJ, 8085","Match","Exact","18 VALLEY FORGE DR, SWEDESBORO, NJ, 08085",614103371,"L"
90107,"18 VALLEY STREAM DRIVE","CUMBERLAND","RI",2864,41.93566837,-71.423128848,107,"18 VALLEY STREAM DRIVE, CUMBERLAND, RI, 2864","Match","Exact","18 VALLEY STREAM DR, CUMBERLAND, RI, 02864",646771724,"L"
90108,"18 VALLEY VIEW RD","MORRISTOWN","NJ",7960,40.7902454900001,-74.517994656,108,"18 VALLEY VIEW RD, MORRISTOWN, NJ, 7960","Match","Exact","18 VALLEY VIEW RD, MORRISTOWN, NJ, 07960",60441816,"R"
90109,"18 VANBURGH COURT","STAFFORD","VA",22554,38.4560361440001,-77.462022927,109,"18 VANBURGH COURT, STAFFORD, VA, 22554","Match","Exact","18 VANBURGH CT, STAFFORD, VA, 22554",614124332,"R"
90110,"18 VANDIVER LANE","ST  LOUIS","MO",63131,38.626705079,-90.467001421,110,"18 VANDIVER LANE, ST  LOUIS, MO, 63131","Match","Exact","18 VANDIVER LN, SAINT LOUIS, MO, 63131",100125495,"R"
90111,"18 VAUXHALL PLACE","CHAPEL HILL","NC",27517,35.907748912,-78.991464836,111,"18 VAUXHALL PLACE, CHAPEL HILL, NC, 27517","Match","Exact","18 VAUXHALL PL, CHAPEL HILL, NC, 27517",71765393,"L"
90112,"18 VERPLANCK AVENUE","BEACON","NY",12508,41.511911839,-73.97541806,112,"18 VERPLANCK AVENUE, BEACON, NY, 12508","Match","Exact","18 VERPLANCK AVE, BEACON, NY, 12508",4161896,"L"
90113,"18 VIA DE LUNA DRIVE UNIT 1906","GULF BREEZE","FL",32561,NA,NA,113,"18 VIA DE LUNA DRIVE UNIT 1906, GULF BREEZE, FL, 32561","No_Match",NA,NA,NA,NA
90114,"18 VIA HERMOSA","GREENBRAE","CA",94904,37.948185752,-122.516612167,114,"18 VIA HERMOSA, GREENBRAE, CA, 94904","Match","Exact","18 VIA HERMOSA, GREENBRAE, CA, 94904",192767476,"R"
90115,"18 W 25TH STREET","BALTIMOER","MD",21218,39.317838485,-76.617656554,115,"18 W 25TH STREET, BALTIMOER, MD, 21218","Match","Non_Exact","18 W 25TH ST, BALTIMORE, MD, 21218",206418844,"R"
90116,"18 W AVE B UNIT 3","MELBOURNE FLORIDA","FL",32901,NA,NA,116,"18 W AVE B UNIT 3, MELBOURNE FLORIDA, FL, 32901","Tie",NA,NA,NA,NA
90117,"18 W BIG HORN DRIVE","HAINESVILLE","IL",60073,42.355215645,-88.068239013,117,"18 W BIG HORN DRIVE, HAINESVILLE, IL, 60073","Match","Exact","18 W BIG HORN DR, HAINESVILLE, IL, 60073",614156811,"R"
90118,"18 W MAIN ST","BOZEMAN","MT",59715,45.6792571290001,-111.037584481,118,"18 W MAIN ST, BOZEMAN, MT, 59715","Match","Exact","18 W MAIN ST, BOZEMAN, MT, 59715",163498050,"L"
90119,"18 W PICKETTS CROSSING","EDWARDSVILLE","IL",62025,38.7828003120001,-89.93045797,119,"18 W PICKETTS CROSSING, EDWARDSVILLE, IL, 62025","Match","Exact","18 W PICKETTS CROSSING, EDWARDSVILLE, IL, 62025",107740706,"L"
90120,"18 W STEWARD ST","PLANO","IL",60545,41.6659124290001,-88.538811411,120,"18 W STEWARD ST, PLANO, IL, 60545","Match","Exact","18 W STEWARD ST, PLANO, IL, 60545",54480594,"L"
90121,"18 WALDEN PL","BASKING RIDGE","NJ",7920,40.6796231220001,-74.529707343,121,"18 WALDEN PL, BASKING RIDGE, NJ, 7920","Match","Exact","18 WALDEN PL, BASKING RIDGE, NJ, 07920",649633608,"L"
90122,"18 WARD WAY","MILLSBORO","DE",19966,38.599003125,-75.338809117,122,"18 WARD WAY, MILLSBORO, DE, 19966","Match","Exact","18 WARD WAY, MILLSBORO, DE, 19966",106135604,"R"
90123,"18 WASHINGTON AVE","COLONIAL BEACH","VA",22443,38.249983349,-76.9632333549999,123,"18 WASHINGTON AVE, COLONIAL BEACH, VA, 22443","Match","Exact","18 WASHINGTON AVE, COLONIAL BCH, VA, 22443",22162981,"L"
90124,"18 WASHINGTON SQ","TUSCALOOSA","AL",35401,33.191521703,-87.589145548,124,"18 WASHINGTON SQ, TUSCALOOSA, AL, 35401","Match","Exact","18 WASHINGTON SQ, TUSCALOOSA, AL, 35401",82147094,"R"
90125,"18 WASHINGTON ST","ELLICOTTVILLE","NY",14731,42.2752883320001,-78.6722645789999,125,"18 WASHINGTON ST, ELLICOTTVILLE, NY, 14731","Match","Exact","18 WASHINGTON ST, ELLICOTTVILLE, NY, 14731",122052448,"L"
90126,"18 WATERTREE CT","SPRING","TX",77380,30.1302385440001,-95.481484256,126,"18 WATERTREE CT, SPRING, TX, 77380","Match","Exact","18 WATERTREE CT, SPRING, TX, 77380",79327854,"R"
90127,"18 WEBSTER ST","ALLENSTOWN","NH",3275,43.1288637170001,-71.455139945,127,"18 WEBSTER ST, ALLENSTOWN, NH, 3275","Match","Exact","18 WEBSTER ST, ALLENSTOWN, NH, 03275",117719522,"R"
90128,"18 WEGMAN PARKWAY","JERSEY CITY","NJ",7305,40.7019085420001,-74.0786050299999,128,"18 WEGMAN PARKWAY, JERSEY CITY, NJ, 7305","Match","Exact","18 WEGMAN PKWY, JERSEY CITY, NJ, 07305",59606470,"R"
90129,"18 WELLS AVE","HARVEY","IL",60426,41.627150382,-87.65500667,129,"18 WELLS AVE, HARVEY, IL, 60426","Match","Exact","18 WELLS AVE, HARVEY, IL, 60426",641693715,"R"
90130,"18 WEST 5TH STREET","DAYTON","OH",45402,39.75668283,-84.191448067,130,"18 WEST 5TH STREET, DAYTON, OH, 45402","Match","Exact","18 W 5TH ST, DAYTON, OH, 45402",143571952,"L"
90131,"18 WEST BEACH ROAD","DUNKIRK","NY",14048,42.4844462180001,-79.3567198819999,131,"18 WEST BEACH ROAD, DUNKIRK, NY, 14048","Match","Exact","18 W BEACH RD, DUNKIRK, NY, 14048",120757301,"R"
90132,"18 WEST CHURCH STREET","FREDERICK","MD",21701,39.415373629,-77.4111256209999,132,"18 WEST CHURCH STREET, FREDERICK, MD, 21701","Match","Exact","18 W CHURCH ST, FREDERICK, MD, 21701",60672651,"L"
90133,"18 WEST GANSEVOORT ST","LITTLE FALLS","NY",13365,43.0454928140001,-74.861444171,133,"18 WEST GANSEVOORT ST, LITTLE FALLS, NY, 13365","Match","Exact","18 W GANSEVOORT ST, LITTLE FALLS, NY, 13365",153721146,"L"
90134,"18 WEST POINT DRIVE","MAUMELLE","AR",72113,34.8771235410001,-92.4228989489999,134,"18 WEST POINT DRIVE, MAUMELLE, AR, 72113","Match","Exact","18 W POINT DR, MAUMELLE, AR, 72113",83537213,"L"
90135,"18 WEST SECOND STREET","WASHINGTON","MO",63090,38.5587602860001,-91.0113911779999,135,"18 WEST SECOND STREET, WASHINGTON, MO, 63090","Match","Exact","18 W 2ND ST, WASHINGTON, MO, 63090",99717462,"L"
90136,"18 WHITE STREET PLACE APARTMENT 2","SOMERVILLE","MA",2144,42.388980535,-71.117900837,136,"18 WHITE STREET PLACE APARTMENT 2, SOMERVILLE, MA, 2144","Match","Exact","18 WHITE STREET PL, SOMERVILLE, MA, 02144",87173431,"L"
90137,"18 WHITTIER DRIVE","JOHNSTON","RI",2919,41.821687958,-71.479101784,137,"18 WHITTIER DRIVE, JOHNSTON, RI, 2919","Match","Exact","18 WHITTIER DR, JOHNSTON, RI, 02919",47487598,"R"
90138,"18 WHITTIER STREET","ROXBURY","MA",2120,42.333295569,-71.0883847659999,138,"18 WHITTIER STREET, ROXBURY, MA, 2120","Match","Exact","18 WHITTIER ST, ROXBURY, MA, 02120",85728623,"L"
90139,"18 WILCUN DRIVE","GREENVILLE","SC",29617,34.888242787,-82.4578334999999,139,"18 WILCUN DRIVE, GREENVILLE, SC, 29617","Match","Exact","18 WILCUN DR, GREENVILLE, SC, 29617",38295574,"L"
90140,"18 WILSON ROAD","BELCHERTOWN","MA",1007,42.3322327770001,-72.457032188,140,"18 WILSON ROAD, BELCHERTOWN, MA, 1007","Match","Non_Exact","18 WILSON ST, BELCHERTOWN, MA, 01007",647312146,"L"
90141,"18 WINCHESTER LANE","PLYMOUTH","MA",2360,41.808475119,-70.545344842,141,"18 WINCHESTER LANE, PLYMOUTH, MA, 2360","Match","Exact","18 WINCHESTER LN, PLYMOUTH, MA, 02360",87417016,"L"
90142,"18 WINDSOR DR","ROCKWALL","TX",75032,32.8786127070001,-96.411064032,142,"18 WINDSOR DR, ROCKWALL, TX, 75032","Match","Exact","18 WINDSOR DR, ROCKWALL, TX, 75032",627402157,"L"
90143,"18 WINTONBURY AVE","BLOOMFIELD","CT",6002,41.8315647430001,-72.737149223,143,"18 WINTONBURY AVE, BLOOMFIELD, CT, 6002","Match","Exact","18 WINTONBURY AVE, BLOOMFIELD, CT, 06002",3485525,"L"
90144,"18 WOOD GLEN DRIVE","MAHOPAC","NY",10541,41.3537714760001,-73.798354117,144,"18 WOOD GLEN DRIVE, MAHOPAC, NY, 10541","Match","Exact","18 WOOD GLEN DR, MAHOPAC, NY, 10541",637611867,"R"
90145,"18 WOODLAWN AVE","BRADFORD","PA",16701,41.973558487,-78.6188604389999,145,"18 WOODLAWN AVE, BRADFORD, PA, 16701","Match","Exact","18 WOODLAWN AVE, BRADFORD, PA, 16701",122627099,"R"
90146,"18 WOODSIDE AVE","TRENTON","NJ",8618,40.2416542170001,-74.7896964829999,146,"18 WOODSIDE AVE, TRENTON, NJ, 8618","Match","Exact","18 WOODSIDE AVE, TRENTON, NJ, 08618",60177802,"R"
90147,"18 WOODWARD ROAD","FRAMINGHAM","MA",1701,42.3027332660001,-71.407310641,147,"18 WOODWARD ROAD, FRAMINGHAM, MA, 1701","Match","Exact","18 WOODWARD RD, FRAMINGHAM, MA, 01701",86848330,"L"
90148,"18 YARD STREET","CRANSTON","RI",2920,41.788878466,-71.477015538,148,"18 YARD STREET, CRANSTON, RI, 2920","Match","Exact","18 YARD ST, CRANSTON, RI, 02920",47452283,"R"
90149,"18 YARDLEY ROAD","ANDOVER","MA",1810,42.6234301280001,-71.1709864649999,149,"18 YARDLEY ROAD, ANDOVER, MA, 1810","Match","Exact","18 YARDLEY RD, ANDOVER, MA, 01810",86700421,"R"
90150,"18-4230 NORTH GLENWOOD ROAD","MOUNTAIN VIEW","HI",96771,19.495244551,-155.166959712,150,"18-4230 NORTH GLENWOOD ROAD, MOUNTAIN VIEW, HI, 96771","Match","Exact","18-4230 N GLENWOOD RD, MOUNTAIN VIEW, HI, 96771",616626618,"R"
90151,"18-5 E DUNDEE RD STE 300","BARRINGTON","IL",60010,NA,NA,151,"18-5 E DUNDEE RD STE 300, BARRINGTON, IL, 60010","Tie",NA,NA,NA,NA
90152,"18-5 E DUNDEE RD STE 310","BARRINGTON","IL",60010,NA,NA,152,"18-5 E DUNDEE RD STE 310, BARRINGTON, IL, 60010","Tie",NA,NA,NA,NA
90153,"18-5 E DUNDEE RD STE 330","BARRINGTON","IL",60010,NA,NA,153,"18-5 E DUNDEE RD STE 330, BARRINGTON, IL, 60010","Tie",NA,NA,NA,NA
90154,"18","IRVINE","CA",92612,NA,NA,154,"18, IRVINE, CA, 92612","No_Match",NA,NA,NA,NA
90155,"18","PAOLA","KS",66071,NA,NA,155,"18, PAOLA, KS, 66071","No_Match",NA,NA,NA,NA
90156,"180   108TH AVE","TREASURE ISLAND","FL",33706,27.7707056100001,-82.768162135,156,"180   108TH AVE, TREASURE ISLAND, FL, 33706","Match","Exact","180 108TH AVE, TREASURE ISLAND, FL, 33706",124693645,"L"
90157,"180 108TH AVE","TREASURE ISLAND","FL",33706,27.7707056100001,-82.768162135,157,"180 108TH AVE, TREASURE ISLAND, FL, 33706","Match","Exact","180 108TH AVE, TREASURE ISLAND, FL, 33706",124693645,"L"
90158,"180 12TH ST NE","NAPLES","FL",34120,26.2327939520001,-81.5823983509999,158,"180 12TH ST NE, NAPLES, FL, 34120","Match","Exact","180 12TH ST NE, NAPLES, FL, 34120",115229375,"R"
90159,"180 1ST STREET SW UNIT A","ATLANTA","GA",30314,33.7496889280001,-84.4253701009999,159,"180 1ST STREET SW UNIT A, ATLANTA, GA, 30314","Match","Exact","180 1ST ST SW, ATLANTA, GA, 30314",17342526,"L"
90160,"180 ABERDEEN DR","CULPEPER","VA",22701,38.4559970390001,-78.004414966,160,"180 ABERDEEN DR, CULPEPER, VA, 22701","Match","Exact","180 ABERDEEN DR, CULPEPER, VA, 22701",29845232,"L"
90161,"180 ADAIR LANE","SANTA ROSA BEACH","FL",32459,30.3971611870001,-86.2024015809999,161,"180 ADAIR LANE, SANTA ROSA BEACH, FL, 32459","Match","Exact","180 ADAIR LN, SANTA ROSA BEACH, FL, 32459",32984988,"R"
90162,"180 ALEXANDER POINTE DRIVE","HOPKINS","SC",29061,33.9526011940001,-80.877723449,162,"180 ALEXANDER POINTE DRIVE, HOPKINS, SC, 29061","Match","Exact","180 ALEXANDER POINTE DR, HOPKINS, SC, 29061",636784420,"L"
90163,"180 ARCHIBALD LANE","SALEMBURG","NC",28385,35.0203431240001,-78.526102303,163,"180 ARCHIBALD LANE, SALEMBURG, NC, 28385","Match","Exact","180 ARCHIBALD LN, SALEMBURG, NC, 28385",14263396,"L"
90164,"180 BALLANTYNE ST  APT 305","EL CAJON","CA",92020,32.796110863,-116.957268603,164,"180 BALLANTYNE ST  APT 305, EL CAJON, CA, 92020","Match","Exact","180 BALLANTYNE ST, EL CAJON, CA, 92020",195656395,"L"
90165,"180 BEDFORD ROAD","LINCOLN","MA",1773,42.447723006,-71.29109417,165,"180 BEDFORD ROAD, LINCOLN, MA, 1773","Match","Exact","180 BEDFORD RD, LINCOLN, MA, 01773",86845741,"R"
90166,"180 BEST DR","ATHENS","GA",30606,33.956274449,-83.405924386,166,"180 BEST DR, ATHENS, GA, 30606","Match","Exact","180 BEST DR, ATHENS, GA, 30606",4801363,"R"
90167,"180 BONNYWOOD WAY","SANTA CRUZ","CA",95060,37.0420929210001,-122.104631423,167,"180 BONNYWOOD WAY, SANTA CRUZ, CA, 95060","Match","Exact","180 BONNYWOOD WAY, SANTA CRUZ, CA, 95060",125503253,"R"
90168,"180 BRIDGESTONE COVE","FAYETTEVILLE","GA",30215,33.427537887,-84.482541541,168,"180 BRIDGESTONE COVE, FAYETTEVILLE, GA, 30215","Match","Exact","180 BRIDGESTONE COVE, FAYETTEVILLE, GA, 30215",627629409,"L"
90169,"180 BROAD STREET APT 314","STATEN ISLAND","NY",10304,40.6242578870001,-74.080646933,169,"180 BROAD STREET APT 314, STATEN ISLAND, NY, 10304","Match","Exact","180 BROAD ST, STATEN ISLAND, NY, 10304",611911457,"L"
90170,"180 BROADWAY SUITE 1770","SAN DIEGO","CA",92101,32.7157185230001,-117.163116213,170,"180 BROADWAY SUITE 1770, SAN DIEGO, CA, 92101","Match","Exact","180 BROADWAY, SAN DIEGO, CA, 92101",195344406,"L"
90171,"180 BROOKEIVEY LN","MILTON","GA",30004,34.0886404400001,-84.356589984,171,"180 BROOKEIVEY LN, MILTON, GA, 30004","Match","Exact","180 BROOKEIVEY LN, MILTON, GA, 30004",627220150,"L"
90172,"180 CAPP STREET LOBBY","SAN FRANCISCO","CA",94110,37.7638632110001,-122.418583195,172,"180 CAPP STREET LOBBY, SAN FRANCISCO, CA, 94110","Match","Exact","180 CAPP ST, SAN FRANCISCO, CA, 94110",192287516,"R"
90173,"180 CAPP STREET STE 4","SAN FRANCISCO","CA",94110,37.7638632110001,-122.418583195,173,"180 CAPP STREET STE 4, SAN FRANCISCO, CA, 94110","Match","Exact","180 CAPP ST, SAN FRANCISCO, CA, 94110",192287516,"R"
90174,"180 CD DRIVE","JACKSON","AL",36545,31.6189497300001,-87.8877169099999,174,"180 CD DRIVE, JACKSON, AL, 36545","Match","Non_Exact","180 C D DR, JACKSON, AL, 36545",34578602,"L"
90175,"180 CHAUNCEY ST","BROOKLYN","NY",11233,40.680530488,-73.9283284809999,175,"180 CHAUNCEY ST, BROOKLYN, NY, 11233","Match","Exact","180 CHAUNCEY ST, BROOKLYN, NY, 11233",59082869,"R"
90176,"180 CHESTER COURT","DOWNINGTOWN","PA",19335,40.0058961930001,-75.7333384419999,176,"180 CHESTER COURT, DOWNINGTOWN, PA, 19335","Match","Exact","180 CHESTER CT, DOWNINGTOWN, PA, 19335",179520583,"L"
90177,"180 CHINA CREEK COURT","CRESCENT CITY","CA",95531,41.8053354800001,-124.183157714,177,"180 CHINA CREEK COURT, CRESCENT CITY, CA, 95531","Match","Non_Exact","180 CHINA CREEK RD, CRESCENT CITY, CA, 95531",113170888,"L"
90178,"180 CHURCH ST","NAUGATUCK","CT",6770,41.4897598530001,-73.055561273,178,"180 CHURCH ST, NAUGATUCK, CT, 6770","Match","Exact","180 CHURCH ST, NAUGATUCK, CT, 06770",3717427,"L"
90179,"180 CLAREMONT AVENUE SUITE 44","NEW YORK CITY","NY",10027,40.8143348300001,-73.9605733459999,179,"180 CLAREMONT AVENUE SUITE 44, NEW YORK CITY, NY, 10027","Match","Exact","180 CLAREMONT AVE, NEW YORK, NY, 10027",59655366,"R"
90180,"180 CLAREMONT DR","BRANSON","MO",65616,36.6932641010001,-93.219480188,180,"180 CLAREMONT DR, BRANSON, MO, 65616","Match","Exact","180 CLAREMONT DR, BRANSON, MO, 65616",20166224,"R"
90181,"180 CONNECTICUT AVENUE","PITTSFIELD","MA",1201,42.4598004220001,-73.220742864,181,"180 CONNECTICUT AVENUE, PITTSFIELD, MA, 1201","Match","Exact","180 CONNECTICUT AVE, PITTSFIELD, MA, 01201",3934574,"R"
90182,"180 CRISTY CREEK BOX 26","MOREHEAD","KY",40351,NA,NA,182,"180 CRISTY CREEK BOX 26, MOREHEAD, KY, 40351","No_Match",NA,NA,NA,NA
90183,"180 CYPRESS MANOR LN","ATHENS","GA",30606,33.9351996610001,-83.431171283,183,"180 CYPRESS MANOR LN, ATHENS, GA, 30606","Match","Exact","180 CYPRESS MANOR LN, ATHENS, GA, 30606",4807652,"R"
90184,"180 DAVIS ROAD","MARTINSVILLE","VA",24112,36.6854982040001,-80.010097576,184,"180 DAVIS ROAD, MARTINSVILLE, VA, 24112","Match","Exact","180 DAVIS RD, MARTINSVILLE, VA, 24112",55536052,"L"
90185,"180 DEKALB AVENUE UNIT 5","BROOKLYN","NY",11205,40.6896085440001,-73.972837872,185,"180 DEKALB AVENUE UNIT 5, BROOKLYN, NY, 11205","Match","Exact","180 DEKALB AVE, BROOKLYN, NY, 11205",59077674,"R"
90186,"180 DERBY LANE","MORAGA","CA",94556,37.846012606,-122.117982003,186,"180 DERBY LANE, MORAGA, CA, 94556","Match","Exact","180 DERBY LN, MORAGA, CA, 94556",192051619,"R"
90187,"180 DRAGONFLY DRIVE","PROSPER","TX",75078,33.2400865010001,-96.8003410809999,187,"180 DRAGONFLY DRIVE, PROSPER, TX, 75078","Match","Exact","180 DRAGONFLY DR, PROSPER, TX, 75078",618764222,"R"
90188,"180 DRAGONFLY","PROSPER","TX",75078,33.2400865010001,-96.8003410809999,188,"180 DRAGONFLY, PROSPER, TX, 75078","Match","Non_Exact","180 DRAGONFLY DR, PROSPER, TX, 75078",618764222,"R"
90189,"180 DUBOIS DRIVE","MEMPHIS","TN",38109,35.0033761650001,-90.0709012739999,189,"180 DUBOIS DRIVE, MEMPHIS, TN, 38109","Match","Exact","180 DUBOIS DR, MEMPHIS, TN, 38109",607509063,"R"
90190,"180 E  OCEAN BLVD SUITE 200","LONG BEACH","CA",90802,NA,NA,190,"180 E  OCEAN BLVD SUITE 200, LONG BEACH, CA, 90802","Tie",NA,NA,NA,NA
90191,"180 E HIGHLAND AVE","CLERMONT","FL",34711,28.5515481910001,-81.75466603,191,"180 E HIGHLAND AVE, CLERMONT, FL, 34711","Match","Exact","180 E HIGHLAND AVE, CLERMONT, FL, 34711",94103873,"L"
90192,"180 E MERRITT AVE","MERRITT ISLAND","FL",32953,28.3614077770001,-80.6956046609999,192,"180 E MERRITT AVE, MERRITT ISLAND, FL, 32953","Match","Exact","180 E MERRITT AVE, MERRITT ISLAND, FL, 32953",93894918,"L"
90193,"180 E OCEAN BLVD","LONG BEACH","CA",90802,NA,NA,193,"180 E OCEAN BLVD, LONG BEACH, CA, 90802","Tie",NA,NA,NA,NA
90194,"180 E UZONA","HILDALE","UT",84784,37.000206688,-112.969461102,194,"180 E UZONA, HILDALE, UT, 84784","Match","Non_Exact","180 UZONA AVE, HILDALE, UT, 84784",635498819,"R"
90195,"180 EAST FIFTH STREET SUITE 940","SAINT PAUL","MN",55101,44.9483762500001,-93.088798891,195,"180 EAST FIFTH STREET SUITE 940, SAINT PAUL, MN, 55101","Match","Exact","180 E 5TH ST, SAINT PAUL, MN, 55101",97648737,"R"
90196,"180 EAST STREET","COLONIA","NJ",7067,40.5932673,-74.319733199,196,"180 EAST STREET, COLONIA, NJ, 7067","Match","Exact","180 EAST ST, COLONIA, NJ, 07067",651262345,"R"
90197,"180 EDGECOMBE AVE  APT 6C","NEW YORK","NY",10030,40.8221769900001,-73.944535257,197,"180 EDGECOMBE AVE  APT 6C, NEW YORK, NY, 10030","Match","Exact","180 EDGECOMBE AVE, NEW YORK, NY, 10030",652206137,"R"
90198,"180 EDWARDS DRIVE","BOWIE","TX",76230,33.5804552980001,-97.8580803359999,198,"180 EDWARDS DRIVE, BOWIE, TX, 76230","Match","Exact","180 EDWARDS DR, BOWIE, TX, 76230",152124091,"L"
90199,"180 ESTATES BOULEVARD APARTMENT 17","HAMILTON","NJ",8610,40.209262477,-74.704205209,199,"180 ESTATES BOULEVARD APARTMENT 17, HAMILTON, NJ, 8610","Match","Exact","180 ESTATES BLVD, HAMILTON, NJ, 08610",60199299,"L"
90200,"180 FAGE AVENUE","SYRACUSE","NY",13205,43.023411884,-76.149719408,200,"180 FAGE AVENUE, SYRACUSE, NY, 13205","Match","Exact","180 FAGE AVE, SYRACUSE, NY, 13205",46571664,"R"
90201,"180 FLAT CREEK VALLEY ROAD","LAKE TOXAWAY","NC",28747,35.126814536,-82.890891217,201,"180 FLAT CREEK VALLEY ROAD, LAKE TOXAWAY, NC, 28747","Match","Exact","180 FLAT CREEK VALLEY RD, LAKE TOXAWAY, NC, 28747",133734120,"L"
90202,"180 FM 1183","ENNIS","TX",75119,32.2800954480001,-96.560917869,202,"180 FM 1183, ENNIS, TX, 75119","Match","Exact","180 FM 1183, ENNIS, TX, 75119",103487742,"L"
90203,"180 FOREST DRIVE","PALMERTON","PA",18071,40.840742242,-75.527944656,203,"180 FOREST DRIVE, PALMERTON, PA, 18071","Match","Exact","180 FOREST DR, PALMERTON, PA, 18071",630503975,"R"
90204,"180 FOREVERGREEN ROAD","NORTH LIBERTY","IA",52317,41.7229596220001,-91.600880146,204,"180 FOREVERGREEN ROAD, NORTH LIBERTY, IA, 52317","Match","Non_Exact","180 W FOREVERGREEN RD, NORTH LIBERTY, IA, 52317",647782816,"L"
90205,"180 FOX SHORES DR","KAUKAUNA","WI",54130,44.2802994640001,-88.274696515,205,"180 FOX SHORES DR, KAUKAUNA, WI, 54130","Match","Exact","180 FOX SHORES DR, KAUKAUNA, WI, 54130",74889658,"R"
90206,"180 FRANKLIN CORNER RD APT L11","LAWRENCEVILLE","NJ",8648,40.275396433,-74.707901581,206,"180 FRANKLIN CORNER RD APT L11, LAWRENCEVILLE, NJ, 8648","Match","Exact","180 FRANKLIN CORNER RD, LAWRENCEVILLE, NJ, 08648",60210659,"L"
90207,"180 FRANKLIN STREET APT 20","BLOOMFIELD","NJ",7003,40.7876890100001,-74.189707555,207,"180 FRANKLIN STREET APT 20, BLOOMFIELD, NJ, 7003","Match","Exact","180 FRANKLIN ST, BLOOMFIELD, NJ, 07003",650754382,"L"
90208,"180 FREYER DRIVE","MARETTA","GA",30060,33.9636037180001,-84.546638898,208,"180 FREYER DRIVE, MARETTA, GA, 30060","Match","Non_Exact","180 FREYER DR, MARIETTA, GA, 30060",17175893,"R"
90209,"180 GARFIELD AVE","MINEOLA","NY",11501,40.744664813,-73.6410348909999,209,"180 GARFIELD AVE, MINEOLA, NY, 11501","Match","Exact","180 GARFIELD AVE, MINEOLA, NY, 11501",147672785,"R"
90210,"180 GATES POND ROAD","BERLIN","MA",1503,42.386734399,-71.590251649,210,"180 GATES POND ROAD, BERLIN, MA, 1503","Match","Exact","180 GATES POND RD, BERLIN, MA, 01503",40097690,"L"
90211,"180 GEORGE ST","EXCELSIOR","MN",55331,44.902787742,-93.572211484,211,"180 GEORGE ST, EXCELSIOR, MN, 55331","Match","Exact","180 GEORGE ST, EXCELSIOR, MN, 55331",43605247,"R"
90212,"180 GOLD MINE ROAD","FLANDERS","NJ",7836,40.8807455290001,-74.700645051,212,"180 GOLD MINE ROAD, FLANDERS, NJ, 7836","Match","Non_Exact","180 GOLDMINE RD, FLANDERS, NJ, 07836",60432556,"R"
90213,"180 GREENWOOD STREET","BRIDGEPORT","CT",6606,41.207298603,-73.200334364,213,"180 GREENWOOD STREET, BRIDGEPORT, CT, 6606","Match","Exact","180 GREENWOOD ST, BRIDGEPORT, CT, 06606",3223302,"R"
90214,"180 GULF STREAM WAY","DANIA BEACH","FL",33004,26.0557683120001,-80.1314478149999,214,"180 GULF STREAM WAY, DANIA BEACH, FL, 33004","Match","Non_Exact","180 GULFSTREAM RD, DANIA BEACH, FL, 33004",611715425,"R"
90215,"180 HAMM ROAD","CHATTANOOGA","TN",37405,35.053872836,-85.3283854319999,215,"180 HAMM ROAD, CHATTANOOGA, TN, 37405","Match","Exact","180 HAMM RD, CHATTANOOGA, TN, 37405",59303419,"L"
90216,"180 HARBOR DRIVE","LUDINGTON","MI",49431,43.9491880950001,-86.458881869,216,"180 HARBOR DRIVE, LUDINGTON, MI, 49431","Match","Exact","180 HARBOR DR, LUDINGTON, MI, 49431",148062659,"R"
90217,"180 HIGH SCHOOL RD","REIDSVILLE","NC",27320,36.3872332990001,-79.742580297,217,"180 HIGH SCHOOL RD, REIDSVILLE, NC, 27320","Match","Exact","180 HIGH SCHOOL RD, REIDSVILLE, NC, 27320",56237795,"L"
90218,"180 HIGH SCHOOL ROAD","REIDSVILLE","NC",27320,36.3872332990001,-79.742580297,218,"180 HIGH SCHOOL ROAD, REIDSVILLE, NC, 27320","Match","Exact","180 HIGH SCHOOL RD, REIDSVILLE, NC, 27320",56237795,"L"
90219,"180 HIGHLAND STREET APT 22","BROCKTON","MA",2301,42.083488694,-71.0311176239999,219,"180 HIGHLAND STREET APT 22, BROCKTON, MA, 2301","Match","Exact","180 HIGHLAND ST, BROCKTON, MA, 02301",87443617,"L"
90220,"180 HILLSIDE PL","HOT SPRINGS","AR",71901,34.48093148,-93.010209962,220,"180 HILLSIDE PL, HOT SPRINGS, AR, 71901","Match","Exact","180 HILLSIDE PL, HOT SPRINGS, AR, 71901",647713690,"L"
90221,"180 HOLMAN AVE","ELIZABETHTOWN","KY",42701,37.716344082,-85.816652792,221,"180 HOLMAN AVE, ELIZABETHTOWN, KY, 42701","Match","Exact","180 HOLMAN AVE, ELIZABETHTOWN, KY, 42701",34638767,"R"
90222,"180 HOME ST","BISHOP","CA",93514,37.362149226,-118.402337528,222,"180 HOME ST, BISHOP, CA, 93514","Match","Exact","180 HOME ST, BISHOP, CA, 93514",639044032,"R"
90223,"180 HOMESIDE AVEN","WEST HAVEN","CT",6516,41.2850771390001,-72.969121969,223,"180 HOMESIDE AVEN, WEST HAVEN, CT, 6516","Match","Exact","180 HOMESIDE AVE, W HAVEN, CT, 06516",651233037,"L"
90224,"180 HOMETOWN ROAD","VICKSBURG","MS",39180,32.221256263,-90.846205149,224,"180 HOMETOWN ROAD, VICKSBURG, MS, 39180","Match","Non_Exact","180 HOMETOWN DR, VICKSBURG, MS, 39180",611052247,"R"
90225,"180 HORIZON WAY","CAMANO ISLAND","WA",98282,48.216996764,-122.527642547,225,"180 HORIZON WAY, CAMANO ISLAND, WA, 98282","Match","Exact","180 HORIZON WAY, CAMANO ISLAND, WA, 98282",624546158,"L"
90226,"180 HUNTINGDON DRIVE","LEESBURG","GA",31763,31.6236995420001,-84.156462789,226,"180 HUNTINGDON DRIVE, LEESBURG, GA, 31763","Match","Exact","180 HUNTINGDON DR, LEESBURG, GA, 31763",618691750,"R"
90227,"180 HYDAWAY DRIVE","FOREST","VA",24551,NA,NA,227,"180 HYDAWAY DRIVE, FOREST, VA, 24551","No_Match",NA,NA,NA,NA
90228,"180 JACKSON STREET NE APT 3301","ATLANTA","GA",30312,33.758484862,-84.374328595,228,"180 JACKSON STREET NE APT 3301, ATLANTA, GA, 30312","Match","Exact","180 JACKSON ST NE, ATLANTA, GA, 30312",17357203,"L"
90229,"180 JAKE MAY DR","WENDELL","NC",27591,NA,NA,229,"180 JAKE MAY DR, WENDELL, NC, 27591","No_Match",NA,NA,NA,NA
90230,"180 JENNIFER LANE","CALUMET CITY","IL",60409,41.6317089340001,-87.576878548,230,"180 JENNIFER LANE, CALUMET CITY, IL, 60409","Match","Exact","180 JENNIFER LN, CALUMET CITY, IL, 60409",111779654,"L"
90231,"180 JOHN OLDS DRIVE STE 101","MANCHESTER","CT",6042,41.8030431340001,-72.5378194849999,231,"180 JOHN OLDS DRIVE STE 101, MANCHESTER, CT, 6042","Match","Exact","180 JOHN OLDS DR, MANCHESTER, CT, 06042",637450088,"L"
90232,"180 JUSTICE RD","OLIVER SPRINGS","TN",37840,36.0222363240001,-84.37351989,232,"180 JUSTICE RD, OLIVER SPRINGS, TN, 37840","Match","Exact","180 JUSTICE RD, OLIVER SPRINGS, TN, 37840",88612456,"R"
90233,"180 KENMORE DR","LONGMEADOW","MA",1106,42.0423382800001,-72.558499309,233,"180 KENMORE DR, LONGMEADOW, MA, 1106","Match","Exact","180 KENMORE DR, LONGMEADOW, MA, 01106",4038783,"L"
90234,"180 KESTREL CIRCLE","COVINGTON","GA",30014,33.563400272,-83.8353404269999,234,"180 KESTREL CIRCLE, COVINGTON, GA, 30014","Match","Exact","180 KESTREL CIR, COVINGTON, GA, 30014",647499040,"R"
90235,"180 KING AVENUE","EWING","NJ",8638,40.2639669490001,-74.773509254,235,"180 KING AVENUE, EWING, NJ, 8638","Match","Exact","180 KING AVE, EWING, NJ, 08638",60177117,"L"
90236,"180 KING STREET","SPRINGFIELD","MA",1109,42.105196472,-72.5647262649999,236,"180 KING STREET, SPRINGFIELD, MA, 1109","Match","Exact","180 KING ST, SPRINGFIELD, MA, 01109",4035901,"L"
90237,"180 KINGS WAY","FLORIDA","FL",33411,26.6977193020001,-80.245470513,237,"180 KINGS WAY, FLORIDA, FL, 33411","Match","Non_Exact","180 KINGS WAY, WELLINGTON, FL, 33411",115341179,"L"
90238,"180 KIRKALDY DR","HOUSTON","TX",77015,29.8001788980001,-95.172988656,238,"180 KIRKALDY DR, HOUSTON, TX, 77015","Match","Exact","180 KIRKALDY DR, HOUSTON, TX, 77015",96127498,"L"
90239,"180 LA COSTA COURT","WINCHESTER","VA",22602,39.17796937,-78.215559602,239,"180 LA COSTA COURT, WINCHESTER, VA, 22602","Match","Non_Exact","180 LACOSTA CT, WINCHESTER, VA, 22602",619147711,"R"
90240,"180 LAKE CAROLINE DRIVE","RUTHER GLEN","VA",22546,37.9829339460001,-77.5223291249999,240,"180 LAKE CAROLINE DRIVE, RUTHER GLEN, VA, 22546","Match","Exact","180 LAKE CAROLINE DR, RUTHER GLEN, VA, 22546",21947872,"L"
90241,"180 LAMPLIGHTER DRIVE APT 6","KAUKAUNA","WI",54130,44.296030984,-88.248330218,241,"180 LAMPLIGHTER DRIVE APT 6, KAUKAUNA, WI, 54130","Match","Exact","180 LAMPLIGHTER DR, KAUKAUNA, WI, 54130",645684731,"L"
90242,"180 LANDSCAPE LN","WINSTON SALEM","NC",27107,35.993532875,-80.211423225,242,"180 LANDSCAPE LN, WINSTON SALEM, NC, 27107","Match","Exact","180 LANDSCAPE LN, WINSTON SALEM, NC, 27107",604797579,"R"
90243,"180 LEBLEU ROAD","LEEVSVILLE","LA",71446,31.039421136,-93.27316767,243,"180 LEBLEU ROAD, LEEVSVILLE, LA, 71446","Match","Non_Exact","180 LEBLEU RD, LEESVILLE, LA, 71446",13575646,"R"
90244,"180 LEDFORD LN","GAINESBORO","TN",38562,36.3377060130001,-85.767571179,244,"180 LEDFORD LN, GAINESBORO, TN, 38562","Match","Exact","180 LEDFORD LN, GAINESBORO, TN, 38562",25108263,"R"
90245,"180 LITTLEFIELD WAY","HEBER","CA",92249,32.7357602070001,-115.519150569,245,"180 LITTLEFIELD WAY, HEBER, CA, 92249","Match","Exact","180 LITTLEFIELD WAY, HEBER, CA, 92249",625212254,"L"
90246,"180 LIVINGSTON AVENUE","BABYLON","NY",11702,40.705232897,-73.333388225,246,"180 LIVINGSTON AVENUE, BABYLON, NY, 11702","Match","Exact","180 LIVINGSTON AVE, BABYLON, NY, 11702",113976961,"L"
90247,"180 LOCKWOOD DRIVE","CHARLESTON","SC",29403,32.7881723840001,-79.959677756,247,"180 LOCKWOOD DRIVE, CHARLESTON, SC, 29403","Match","Exact","180 LOCKWOOD DR, CHARLESTON, SC, 29403",618707354,"L"
90248,"180 LONG MEADOW DRIVE","COOKEVILLE","TN",38501,36.179471027,-85.575387696,248,"180 LONG MEADOW DRIVE, COOKEVILLE, TN, 38501","Match","Exact","180 LONG MEADOW DR, COOKEVILLE, TN, 38501",25152996,"R"
90249,"180 LYNN DR","SANTA ROSA BEACH","FL",32459,30.3718910270001,-86.219511183,249,"180 LYNN DR, SANTA ROSA BEACH, FL, 32459","Match","Exact","180 LYNN DR, SANTA ROSA BEACH, FL, 32459",640827861,"R"
90250,"180 MAIN STREET","BRATTLEBORO","VT",5301,42.85351151,-72.5585958569999,250,"180 MAIN STREET, BRATTLEBORO, VT, 5301","Match","Exact","180 MAIN ST, BRATTLEBORO, VT, 05301",171108696,"L"
90251,"180 MARINA COURT SUITE 86","DETROIT","MI",48224,42.359036335,-82.9643680579999,251,"180 MARINA COURT SUITE 86, DETROIT, MI, 48224","Match","Non_Exact","180 MARINA CT, DETROIT, MI, 48214",645864274,"R"
90252,"180 MARTIN LANE","ORANGE","CT",6477,41.271337585,-73.0192680169999,252,"180 MARTIN LANE, ORANGE, CT, 6477","Match","Exact","180 MARTIN LN, ORANGE, CT, 06477",3733071,"L"
90253,"180 MERCER ST","MEADVILLE","PA",16335,NA,NA,253,"180 MERCER ST, MEADVILLE, PA, 16335","No_Match",NA,NA,NA,NA
90254,"180 MIDLAND AVE","STATEN ISLAND","NY",10306,40.579240638,-74.104774794,254,"180 MIDLAND AVE, STATEN ISLAND, NY, 10306","Match","Exact","180 MIDLAND AVE, STATEN ISLAND, NY, 10306",59868322,"R"
90255,"180 MIRROR LAKE DRIVE - A","SAINT PETERSBURG","FL",33701,27.773321701,-82.643304223,255,"180 MIRROR LAKE DRIVE - A, SAINT PETERSBURG, FL, 33701","Match","Non_Exact","180 MIRROR LAKE DR N, SAINT PETERSBURG, FL, 33701",124708058,"L"
90256,"180 MYRTLE AVENUE 2N","BROOKLYN","NY",11201,40.693522134,-73.980181817,256,"180 MYRTLE AVENUE 2N, BROOKLYN, NY, 11201","Match","Exact","180 MYRTLE AVE, BROOKLYN, NY, 11201",651796952,"L"
90257,"180 N BELVEDERE DR    STE 7","GALLATIN","TN",37066,36.376840029,-86.479013112,257,"180 N BELVEDERE DR    STE 7, GALLATIN, TN, 37066","Match","Non_Exact","180 BELVEDERE DR N, GALLATIN, TN, 37066",611943728,"R"
90258,"180 N FIRST STREET UNIT 10","DIXON","CA",95620,NA,NA,258,"180 N FIRST STREET UNIT 10, DIXON, CA, 95620","Tie",NA,NA,NA,NA
90259,"180 N HOMESTEAD BLVD","HOMESTEAD","FL",33030,NA,NA,259,"180 N HOMESTEAD BLVD, HOMESTEAD, FL, 33030","No_Match",NA,NA,NA,NA
90260,"180 N LASALLE ST 37TH FLOOR","CHICAGO","IL",60601,41.8853718340001,-87.632438054,260,"180 N LASALLE ST 37TH FLOOR, CHICAGO, IL, 60601","Match","Non_Exact","180 N LA SALLE ST, CHICAGO, IL, 60601",111768710,"L"
90261,"180 N LASALLE STREET STE 2440","CHICAGO","IL",60601,41.8853718340001,-87.632438054,261,"180 N LASALLE STREET STE 2440, CHICAGO, IL, 60601","Match","Non_Exact","180 N LA SALLE ST, CHICAGO, IL, 60601",111768710,"L"
90262,"180 N MAIN ST","AURORA","UT",84620,38.923339926,-111.933958853,262,"180 N MAIN ST, AURORA, UT, 84620","Match","Exact","180 N MAIN ST, AURORA, UT, 84620",175323982,"L"
90263,"180 N STETSON AVE TWO PLAZA 3500","CHICAGO","IL",60601,NA,NA,263,"180 N STETSON AVE TWO PLAZA 3500, CHICAGO, IL, 60601","No_Match",NA,NA,NA,NA
90264,"180 N TESSIER DRIVE","ST PETE BEACH","FL",33706,27.6994584720001,-82.730432482,264,"180 N TESSIER DRIVE, ST PETE BEACH, FL, 33706","Match","Exact","180 N TESSIER DR, SAINT PETE BEACH, FL, 33706",124708837,"R"
90265,"180 N UNIVERSITY AVENUE SUITE 270","PROVO","UT",84601,NA,NA,265,"180 N UNIVERSITY AVENUE SUITE 270, PROVO, UT, 84601","Tie",NA,NA,NA,NA
90266,"180 N WABASH SUITE 500","CHICAGO","IL",60601,NA,NA,266,"180 N WABASH SUITE 500, CHICAGO, IL, 60601","No_Match",NA,NA,NA,NA
90267,"180 N WINDMERE CIRCLE","MATTESON","IL",60443,41.49809536,-87.7760667489999,267,"180 N WINDMERE CIRCLE, MATTESON, IL, 60443","Match","Exact","180 N WINDMERE CIR, MATTESON, IL, 60443",639821129,"L"
90268,"180 NEVINS ST APT 1","BROOKLYN","NY",11217,40.6832636390001,-73.984568408,268,"180 NEVINS ST APT 1, BROOKLYN, NY, 11217","Match","Exact","180 NEVINS ST, BROOKLYN, NY, 11217",59075422,"R"
90269,"180 NW 5TH STREET","CORVALLIS","OR",97330,44.5657945900001,-123.262583374,269,"180 NW 5TH STREET, CORVALLIS, OR, 97330","Match","Exact","180 NW 5TH ST, CORVALLIS, OR, 97330",638292363,"L"
90270,"180 NW COVELAND ST / PO BOX 279","COUPEVILLE","WA",98239,48.2204720410001,-122.690257974,270,"180 NW COVELAND ST / PO BOX 279, COUPEVILLE, WA, 98239","Match","Non_Exact","180 NW COVELAND ST, COUPEVILLE, WA, 98239",187582349,"R"
90271,"180 OAK GROVE ROAD","CARROLLTON","GA",30117,33.5226675490001,-85.0849605069999,271,"180 OAK GROVE ROAD, CARROLLTON, GA, 30117","Match","Exact","180 OAK GROVE RD, CARROLLTON, GA, 30117",17123291,"L"
90272,"180 OAK RIDGE ROAD","VICKSBURG","MS",39183,32.4894884440001,-90.7026630679999,272,"180 OAK RIDGE ROAD, VICKSBURG, MS, 39183","Match","Non_Exact","180 OLD OAK RIDGE RD, VICKSBURG, MS, 39183",71305034,"R"
90273,"180 OAKLYN HILLS DRIVE","CHELSEA","AL",35043,33.3115230670001,-86.711605979,273,"180 OAKLYN HILLS DRIVE, CHELSEA, AL, 35043","Match","Exact","180 OAKLYN HILLS DR, CHELSEA, AL, 35043",221519274,"R"
90274,"180 OLD COLONY AVE SUITE 300","QUINCY","MA",2170,42.2608529300001,-71.013620999,274,"180 OLD COLONY AVE SUITE 300, QUINCY, MA, 2170","Match","Non_Exact","180 OLD COLONY AVE, QUINCY, MA, 02170",87249318,"L"
90275,"180 OLD PLANTATION WAY","FAYETTEVILLE","GA",30214,33.4427810080001,-84.553020671,275,"180 OLD PLANTATION WAY, FAYETTEVILLE, GA, 30214","Match","Exact","180 OLD PLANTATION WAY, FAYETTEVILLE, GA, 30214",75936507,"R"
90276,"180 PACKARD AVE OLIN 312","MEDFORD","MA",2155,42.407772939,-71.121214897,276,"180 PACKARD AVE OLIN 312, MEDFORD, MA, 2155","Match","Exact","180 PACKARD AVE, MEDFORD, MA, 02155",647977008,"L"
90277,"180 PARK HILL AVE SUITE LC","STATEN ISLAND","NY",10304,40.614932095,-74.081939102,277,"180 PARK HILL AVE SUITE LC, STATEN ISLAND, NY, 10304","Match","Exact","180 PARK HILL AVE, STATEN ISLAND, NY, 10304",612144454,"L"
90278,"180 PARKSTIONE WAY","MARIETTA","GA",30066,34.007009797,-84.551719885,278,"180 PARKSTIONE WAY, MARIETTA, GA, 30066","Match","Non_Exact","180 PARKSTONE WAY, MARIETTA, GA, 30066",17264557,"L"
90279,"180 PEARL STREET APT 402","PORTLAND","ME",4101,43.661717045,-70.258367399,279,"180 PEARL STREET APT 402, PORTLAND, ME, 4101","Match","Exact","180 PEARL ST, PORTLAND, ME, 04101",78028357,"L"
90280,"180 PEARL STREET","PORTLAND","ME",4101,43.661717045,-70.258367399,280,"180 PEARL STREET, PORTLAND, ME, 4101","Match","Exact","180 PEARL ST, PORTLAND, ME, 04101",78028357,"L"
90281,"180 PILCH RD","STATESVILLE","NC",28677,35.7089530760001,-80.836530911,281,"180 PILCH RD, STATESVILLE, NC, 28677","Match","Exact","180 PILCH RD, STATESVILLE, NC, 28677",46007457,"L"
90282,"180 PINE STREET","JERSEY CITY","NJ",7304,40.7100460070001,-74.0618059029999,282,"180 PINE STREET, JERSEY CITY, NJ, 7304","Match","Exact","180 PINE ST, JERSEY CITY, NJ, 07304",636523048,"R"
90283,"180 PLEASANT STREET","HARTFORD","CT",6120,41.772166344,-72.671886284,283,"180 PLEASANT STREET, HARTFORD, CT, 6120","Match","Exact","180 PLEASANT ST, HARTFORD, CT, 06120",3495094,"L"
90284,"180 POOL ST - SUITE 300","BIDDEFORD","ME",4005,43.4878068630001,-70.444737365,284,"180 POOL ST - SUITE 300, BIDDEFORD, ME, 4005","Match","Exact","180 POOL ST, BIDDEFORD, ME, 04005",92741868,"L"
90285,"180 POPE ROAD","ACTON","MA",1720,42.4911087460001,-71.400640626,285,"180 POPE ROAD, ACTON, MA, 1720","Match","Exact","180 POPE RD, ACTON, MA, 01720",87099704,"R"
90286,"180 PR 298","HAMILTON","TX",76531,NA,NA,286,"180 PR 298, HAMILTON, TX, 76531","No_Match",NA,NA,NA,NA
90287,"180 PRACH RD","HILLSDALE","NY",12529,42.2235293780001,-73.612938747,287,"180 PRACH RD, HILLSDALE, NY, 12529","Match","Exact","180 PRACH RD, HILLSDALE, NY, 12529",648421893,"L"
90288,"180 PROMENADE CIRCLE SUITE 300","SACRAMENTO","CA",95834,38.637434956,-121.499603288,288,"180 PROMENADE CIRCLE SUITE 300, SACRAMENTO, CA, 95834","Match","Exact","180 PROMENADE CIR, SACRAMENTO, CA, 95834",618062310,"L"
90289,"180 QUAKER VALLEY ROAD","BIGLERVILLE","PA",17307,39.958487156,-77.2554926239999,289,"180 QUAKER VALLEY ROAD, BIGLERVILLE, PA, 17307","Match","Exact","180 QUAKER VALLEY RD, BIGLERVILLE, PA, 17307",60857732,"L"
90290,"180 REMINGTON ST","BRENTWOOD","CA",94513,37.9219719720001,-121.694388559,290,"180 REMINGTON ST, BRENTWOOD, CA, 94513","Match","Exact","180 REMINGTON ST, BRENTWOOD, CA, 94513",192111441,"R"
90291,"180 RENSHAW AVE","EAST ORANGE","NJ",7017,40.7775816400001,-74.2038071269999,291,"180 RENSHAW AVE, EAST ORANGE, NJ, 7017","Match","Exact","180 RENSHAW AVE, EAST ORANGE, NJ, 07017",63451461,"R"
90292,"180 RICHMOND AVE APT 4","BUFFALO","NY",14222,42.907393196,-78.881972,292,"180 RICHMOND AVE APT 4, BUFFALO, NY, 14222","Match","Exact","180 RICHMOND AVE, BUFFALO, NY, 14222",642136018,"L"
90293,"180 RIVERSIDE BLVD  19J","NEW YORK","NY",10069,40.7785340510001,-73.988432223,293,"180 RIVERSIDE BLVD  19J, NEW YORK, NY, 10069","Match","Exact","180 RIVERSIDE BLVD, NEW YORK, NY, 10069",59665043,"R"
90294,"180 RIVERSIDE BLVD 8K","NEW YORK","NY",10069,40.7785340510001,-73.988432223,294,"180 RIVERSIDE BLVD 8K, NEW YORK, NY, 10069","Match","Exact","180 RIVERSIDE BLVD, NEW YORK, NY, 10069",59665043,"R"
90295,"180 RIVERSIDE BLVD SUITE 5H","NEW YORK","NY",10069,40.7785340510001,-73.988432223,295,"180 RIVERSIDE BLVD SUITE 5H, NEW YORK, NY, 10069","Match","Exact","180 RIVERSIDE BLVD, NEW YORK, NY, 10069",59665043,"R"
90296,"180 RIVERSIDE DRIVE 10D","NEW YORK","NY",10024,40.792442915,-73.977382883,296,"180 RIVERSIDE DRIVE 10D, NEW YORK, NY, 10024","Match","Exact","180 RIVERSIDE DR, NEW YORK, NY, 10024",59656685,"R"
90297,"180 S 100 W STE 914","PLEASANT GROVE","UT",84062,NA,NA,297,"180 S 100 W STE 914, PLEASANT GROVE, UT, 84062","No_Match",NA,NA,NA,NA
90298,"180 S SHERWOOD AVE","PLAINWELL","MI",49080,42.4418820770001,-85.63436704,298,"180 S SHERWOOD AVE, PLAINWELL, MI, 49080","Match","Exact","180 S SHERWOOD AVE, PLAINWELL, MI, 49080",11428747,"L"
90299,"180 SCHOLES NUM 2D","BROOKLYN","NY",11206,40.708908943,-73.9420799649999,299,"180 SCHOLES NUM 2D, BROOKLYN, NY, 11206","Match","Non_Exact","180 SCHOLES ST, BROOKLYN, NY, 11206",59077265,"R"
90300,"180 SHADOW COVE LANE","TRUSSVILLE","AL",35173,33.692678411,-86.513484773,300,"180 SHADOW COVE LANE, TRUSSVILLE, AL, 35173","Match","Exact","180 SHADOW COVE LN, TRUSSVILLE, AL, 35173",646715635,"R"
90301,"180 SHADY BROOKE WALK","FAYETTEVILLE","GA",30214,33.5250880610001,-84.460271139,301,"180 SHADY BROOKE WALK, FAYETTEVILLE, GA, 30214","Match","Non_Exact","180 SHADY BROOK WALK, FAYETTEVILLE, GA, 30214",75936739,"L"
90302,"180 SHADYSIDE DRIVE","BOARDMAN","OH",44512,41.0522831600001,-80.654228932,302,"180 SHADYSIDE DRIVE, BOARDMAN, OH, 44512","Match","Exact","180 SHADYSIDE DR, BOARDMAN, OH, 44512",64598773,"L"
90303,"180 SKILLMAN ST APT 3","BROOKLYN","NY",11205,40.6930120220001,-73.956804765,303,"180 SKILLMAN ST APT 3, BROOKLYN, NY, 11205","Match","Exact","180 SKILLMAN ST, BROOKLYN, NY, 11205",59078624,"R"
90304,"180 SMITH ST","CROTON","OH",43013,NA,NA,304,"180 SMITH ST, CROTON, OH, 43013","No_Match",NA,NA,NA,NA
90305,"180 SORCERER COURT","ANCHORAGE","AK",99518,61.1472369470001,-149.881447744,305,"180 SORCERER COURT, ANCHORAGE, AK, 99518","Match","Exact","180 SORCERER CT, ANCHORAGE, AK, 99518",190798626,"R"
90306,"180 SOUTH BROADWAY SUITE 100","WHITE PLAINS","NY",10605,41.0233215850001,-73.760184846,306,"180 SOUTH BROADWAY SUITE 100, WHITE PLAINS, NY, 10605","Match","Exact","180 S BROADWAY, WHITE PLAINS, NY, 10605",139741947,"L"
90307,"180 SPRING ROAD","HUNTINGTON","NY",11743,40.8683813270001,-73.4173449799999,307,"180 SPRING ROAD, HUNTINGTON, NY, 11743","Match","Exact","180 SPRING RD, HUNTINGTON, NY, 11743",113963571,"L"
90308,"180 STATE ROUTE 15","LAFAYETTE","NJ",7848,41.1086704320001,-74.7012010879999,308,"180 STATE ROUTE 15, LAFAYETTE, NJ, 7848","Match","Exact","180 STATE RTE 15, LAFAYETTE, NJ, 07848",98020464,"L"
90309,"180 STEUART ST 192921","SAN FRANCISCO","CA",94105,37.7923162450001,-122.392041249,309,"180 STEUART ST 192921, SAN FRANCISCO, CA, 94105","Match","Exact","180 STEUART ST, SAN FRANCISCO, CA, 94105",192281654,"R"
90310,"180 STEVEN BRIDGES LN","TRACY","CA",95377,37.7269955830001,-121.460489953,310,"180 STEVEN BRIDGES LN, TRACY, CA, 95377","Match","Exact","180 STEVEN BRIDGES LN, TRACY, CA, 95377",627194553,"R"
90311,"180 SW 69 TH TERRACE","MARGATE","FL",33068,26.2285764690001,-80.217735003,311,"180 SW 69 TH TERRACE, MARGATE, FL, 33068","Match","Non_Exact","180 SW 69TH TER, MARGATE, FL, 33068",614539486,"L"
90312,"180 TALBOTT","ROCKVILLE","MD",20852,39.0701026570001,-77.133690762,312,"180 TALBOTT, ROCKVILLE, MD, 20852","Match","Non_Exact","180 TALBOTT ST, ROCKVILLE, MD, 20852",62055379,"L"
90313,"180 TALMADGE AVENUE","EDISON","NJ",8817,40.5370222700001,-74.395953702,313,"180 TALMADGE AVENUE, EDISON, NJ, 8817","Match","Non_Exact","180 TALMADGE RD, EDISON, NJ, 08817",639715610,"L"
90314,"180 TALMADGE RD STE 646","EDISON","NJ",8817,40.5370222700001,-74.395953702,314,"180 TALMADGE RD STE 646, EDISON, NJ, 8817","Match","Exact","180 TALMADGE RD, EDISON, NJ, 08817",639715610,"L"
90315,"180 TALMADGE ROAD IGO BLDG","EDISON","NJ",8817,40.5370222700001,-74.395953702,315,"180 TALMADGE ROAD IGO BLDG, EDISON, NJ, 8817","Match","Exact","180 TALMADGE RD, EDISON, NJ, 08817",639715610,"L"
90316,"180 TALMAGE ROAD","EDISON","NJ",8820,NA,NA,316,"180 TALMAGE ROAD, EDISON, NJ, 8820","No_Match",NA,NA,NA,NA
90317,"180 TAYLOR RD","DICKSON","TN",37055,36.068923779,-87.491646606,317,"180 TAYLOR RD, DICKSON, TN, 37055","Match","Exact","180 TAYLOR RD, DICKSON, TN, 37055",72762318,"R"
90318,"180 TED TURNER DR SW","ATLANTA","GA",30303,NA,NA,318,"180 TED TURNER DR SW, ATLANTA, GA, 30303","No_Match",NA,NA,NA,NA
90319,"180 TOWD POINT RD","SOUTHAMPTON","NY",11968,40.9433147300001,-72.4117315989999,319,"180 TOWD POINT RD, SOUTHAMPTON, NY, 11968","Match","Exact","180 TOWD POINT RD, SOUTHAMPTON, NY, 11968",114028811,"R"
90320,"180 TREE CUTTERS","SANFORD","NC",27332,35.4142072670001,-79.1126559959999,320,"180 TREE CUTTERS, SANFORD, NC, 27332","Match","Exact","180 TREE CUTTERS, SANFORD, NC, 27332",72062380,"R"
90321,"180 TUCKER STREET","WOODVILLE","TX",75979,30.800424445,-94.197802689,321,"180 TUCKER STREET, WOODVILLE, TX, 75979","Match","Exact","180 TUCKER ST, WOODVILLE, TX, 75979",24408394,"R"
90322,"180 TURKEY FARM ROAD","BLYTHEWOOD","SC",29016,34.1623665870001,-80.985161717,322,"180 TURKEY FARM ROAD, BLYTHEWOOD, SC, 29016","Match","Exact","180 TURKEY FARM RD, BLYTHEWOOD, SC, 29016",645306474,"L"
90323,"180 US HWY 380","POST","TX",79356,33.1811043230001,-101.54226199,323,"180 US HWY 380, POST, TX, 79356","Match","Exact","180 US HWY 380, POST, TX, 79356",182834645,"R"
90324,"180 VALLEY STREET  PO BOX 912","BALL GROUND","GA",30107,34.336036296,-84.377554926,324,"180 VALLEY STREET  PO BOX 912, BALL GROUND, GA, 30107","Match","Exact","180 VALLEY ST, BALL GROUND, GA, 30107",68822856,"R"
90325,"180 VEGA STREET","PALM SPRINGS","CA",92264,33.7945781770001,-116.506182049,325,"180 VEGA STREET, PALM SPRINGS, CA, 92264","Match","Non_Exact","180 VEGA, PALM SPRINGS, CA, 92264",194764457,"R"
90326,"180 VISGER ROAD","RIVER ROUGE","MI",48218,42.2611624080001,-83.1463658979999,326,"180 VISGER ROAD, RIVER ROUGE, MI, 48218","Match","Exact","180 VISGER RD, RIVER ROUGE, MI, 48218",95480661,"R"
90327,"180 W CAMPUS DRIVE","FLAT ROCK","NC",28731,35.307722599,-82.425725534,327,"180 W CAMPUS DRIVE, FLAT ROCK, NC, 28731","Match","Exact","180 W CAMPUS DR, FLAT ROCK, NC, 28731",152318854,"L"
90328,"180 WAIAKOA ROAD","KULA","HI",96790,20.744924892,-156.316309926,328,"180 WAIAKOA ROAD, KULA, HI, 96790","Match","Exact","180 WAIAKOA RD, KULA, HI, 96790",625015319,"R"
90329,"180 WELLIVER ROAD","DANVILLE","PA",17821,41.020821272,-76.5847006879999,329,"180 WELLIVER ROAD, DANVILLE, PA, 17821","Match","Exact","180 WELLIVER RD, DANVILLE, PA, 17821",642903235,"R"
90330,"180 WEST 76TH STREET","NEW YORK","NY",10023,40.7809132610001,-73.979082908,330,"180 WEST 76TH STREET, NEW YORK, NY, 10023","Match","Exact","180 W 76TH ST, NEW YORK, NY, 10023",59656674,"L"
90331,"180 WEST BRIDGE STREET","NEW HOPE","PA",18938,40.3643898710001,-74.958035832,331,"180 WEST BRIDGE STREET, NEW HOPE, PA, 18938","Match","Exact","180 W BRIDGE ST, NEW HOPE, PA, 18938",134718341,"L"
90332,"180 WEST END LANE 2206","PONTE VEDRA BEACH","FL",32082,30.252285682,-81.394078545,332,"180 WEST END LANE 2206, PONTE VEDRA BEACH, FL, 32082","Match","Exact","180 W END LN, PONTE VEDRA BEACH, FL, 32082",92626056,"L"
90333,"180 WEST STATE STREET","TRENTON","NJ",8607,NA,NA,333,"180 WEST STATE STREET, TRENTON, NJ, 8607","No_Match",NA,NA,NA,NA
90334,"180 WEST WESTFIELD AVENUE","ROSELLE PARK","NJ",7204,NA,NA,334,"180 WEST WESTFIELD AVENUE, ROSELLE PARK, NJ, 7204","No_Match",NA,NA,NA,NA
90335,"180 WHITE OAK DR","COLBERT","GA",30628,33.9861756990001,-83.1717516689999,335,"180 WHITE OAK DR, COLBERT, GA, 30628","Match","Exact","180 WHITE OAK DR, COLBERT, GA, 30628",5066665,"R"
90336,"180 WINDY ACRES ROAD","BRENHAM","TX",77833,30.1754090420001,-96.454778059,336,"180 WINDY ACRES ROAD, BRENHAM, TX, 77833","Match","Exact","180 WINDY ACRES RD, BRENHAM, TX, 77833",39263463,"R"
90337,"180 WRIGHTS MILL DR","MADISON","MS",39110,32.435925775,-90.081249284,337,"180 WRIGHTS MILL DR, MADISON, MS, 39110","Match","Exact","180 WRIGHTS MILL DR, MADISON, MS, 39110",636497215,"R"
90338,"180 WYONA STREET","BROOKLYN","NY",11207,40.6745501360001,-73.893605569,338,"180 WYONA STREET, BROOKLYN, NY, 11207","Match","Exact","180 WYONA ST, BROOKLYN, NY, 11207",59084684,"R"
90339,"180 YORK STREET 3RD FLOOR OFFICE","NEW HAVEN","CT",6511,41.3086406800001,-72.931450807,339,"180 YORK STREET 3RD FLOOR OFFICE, NEW HAVEN, CT, 6511","Match","Exact","180 YORK ST, NEW HAVEN, CT, 06511",3701131,"L"
90340,"180-05 145TH ROAD","JAMAICA","NY",11434,40.665004826,-73.7649157549999,340,"180-05 145TH ROAD, JAMAICA, NY, 11434","Match","Exact","180-5 145TH RD, JAMAICA, NY, 11434",59720083,"L"
90341,"180-06 145TH ROAD","JAMAICA","NY",11434,40.6649907550001,-73.764905582,341,"180-06 145TH ROAD, JAMAICA, NY, 11434","Match","Exact","180-6 145TH RD, JAMAICA, NY, 11434",59720083,"R"
90342,"180-13 145 DRIVE","JAMAICA","NY",11434,40.6637568530001,-73.7653763709999,342,"180-13 145 DRIVE, JAMAICA, NY, 11434","Match","Exact","180-13 145TH DR, JAMAICA, NY, 11434",59720084,"L"
90343,"180","AUSTIN","TX",78733,NA,NA,343,"180, AUSTIN, TX, 78733","No_Match",NA,NA,NA,NA
90344,"180","LOOKOUT","WV",25868,NA,NA,344,"180, LOOKOUT, WV, 25868","No_Match",NA,NA,NA,NA
90345,"1800 18TH AVENUE","MENOMINEE","MI",49858,45.115269858,-87.625010518,345,"1800 18TH AVENUE, MENOMINEE, MI, 49858","Match","Exact","1800 18TH AVE, MENOMINEE, MI, 49858",170210933,"R"
90346,"1800 19TH STREET","BAKERSFIELD","CA",93301,35.376260958,-119.02244772,346,"1800 19TH STREET, BAKERSFIELD, CA, 93301","Match","Exact","1800 19TH ST, BAKERSFIELD, CA, 93301",109088779,"R"
90347,"1800 24TH STREET","ELDORA","IA",50627,42.3597863860001,-93.114139901,347,"1800 24TH STREET, ELDORA, IA, 50627","Match","Exact","1800 24TH ST, ELDORA, IA, 50627",77439778,"L"
90348,"1800 2ND ST STE 708","SARASOTA","FL",34236,27.33812091,-82.5343047279999,348,"1800 2ND ST STE 708, SARASOTA, FL, 34236","Match","Exact","1800 2ND ST, SARASOTA, FL, 34236",16350921,"R"
90349,"1800 2ND STREET","FREEPORT","TX",77541,NA,NA,349,"1800 2ND STREET, FREEPORT, TX, 77541","No_Match",NA,NA,NA,NA
90350,"1800 34TH AVE NE","MINNEAPOLIS","MN",55418,45.030400668,-93.233499452,350,"1800 34TH AVE NE, MINNEAPOLIS, MN, 55418","Match","Exact","1800 34TH AVE NE, MINNEAPOLIS, MN, 55418",43836177,"R"
90351,"1800 7TH AVE","LAKE CHARLES","LA",70601,30.2164212430001,-93.185996841,351,"1800 7TH AVE, LAKE CHARLES, LA, 70601","Match","Exact","1800 7TH AVE, LAKE CHARLES, LA, 70601",88436947,"R"
90352,"1800 ASCOT PARKWAY","VALLEJO","CA",94590,38.1197637490001,-122.207520254,352,"1800 ASCOT PARKWAY, VALLEJO, CA, 94590","Match","Non_Exact","1800 ASCOT PKWY, VALLEJO, CA, 94591",192588913,"L"
90353,"1800 AUGUSTA HIGHWAY","LEXINGTON","SC",29072,33.979882859,-81.275245618,353,"1800 AUGUSTA HIGHWAY, LEXINGTON, SC, 29072","Match","Exact","1800 AUGUSTA HWY, LEXINGTON, SC, 29072",640842595,"R"
90354,"1800 BADILLO STREET APT 812","WEST COVINA","CA",91790,34.087035886,-117.941938305,354,"1800 BADILLO STREET APT 812, WEST COVINA, CA, 91790","Match","Non_Exact","1800 W BADILLO ST, WEST COVINA, CA, 91790",142780535,"L"
90355,"1800 BALTIMORE SUITE 500","KANSAS CITY","MO",64108,39.091752177,-94.584726525,355,"1800 BALTIMORE SUITE 500, KANSAS CITY, MO, 64108","Match","Non_Exact","1800 BALTIMORE AVE, KANSAS CITY, MO, 64108",91445231,"R"
90356,"1800 BANNISTER STREET","YORK","PA",17404,39.960417524,-76.767776316,356,"1800 BANNISTER STREET, YORK, PA, 17404","Match","Exact","1800 BANNISTER ST, YORK, PA, 17404",88729263,"L"
90357,"1800 BECKER PLACE","PORT ARTHUR","TX",77642,NA,NA,357,"1800 BECKER PLACE, PORT ARTHUR, TX, 77642","No_Match",NA,NA,NA,NA
90358,"1800 BERRYHILL RD","CORDOVA","TN",38016,35.174767323,-89.756552223,358,"1800 BERRYHILL RD, CORDOVA, TN, 38016","Match","Exact","1800 BERRYHILL RD, CORDOVA, TN, 38016",607526771,"R"
90359,"1800 BOTHWELL STREET","GREENSBORO","NC",27401,36.0479726070001,-79.768194466,359,"1800 BOTHWELL STREET, GREENSBORO, NC, 27401","Match","Exact","1800 BOTHWELL ST, GREENSBORO, NC, 27401",131064289,"R"
90360,"1800 BOWIE DRIVE","CORSICANA","TX",75110,32.102571848,-96.4869689939999,360,"1800 BOWIE DRIVE, CORSICANA, TX, 75110","Match","Exact","1800 BOWIE DR, CORSICANA, TX, 75110",183882966,"L"
90361,"1800 BOYD CT","CARROLLTON","TX",75010,33.0185596090001,-96.940595926,361,"1800 BOYD CT, CARROLLTON, TX, 75010","Match","Exact","1800 BOYD CT, CARROLLTON, TX, 75010",103383746,"R"
90362,"1800 BRIARWOOD DR","MOUNT VERNON","IL",62864,38.336001002,-88.9124398179999,362,"1800 BRIARWOOD DR, MOUNT VERNON, IL, 62864","Match","Exact","1800 BRIARWOOD DR, MOUNT VERNON, IL, 62864",92868936,"R"
90363,"1800 BRICE RD","COLUMBUS","OH",43232,NA,NA,363,"1800 BRICE RD, COLUMBUS, OH, 43232","No_Match",NA,NA,NA,NA
90364,"1800 BRINKER RD SUITE 260","DENTON","TX",76208,33.1916964070001,-97.095853651,364,"1800 BRINKER RD SUITE 260, DENTON, TX, 76208","Match","Exact","1800 BRINKER RD, DENTON, TX, 76208",639253491,"R"
90365,"1800 BUHACH RD","ATWATER","CA",95301,37.313781018,-120.577578014,365,"1800 BUHACH RD, ATWATER, CA, 95301","Match","Non_Exact","1800 N BUHACH RD, ATWATER, CA, 95301",125279347,"R"
90366,"1800 BURLINGTON AVE","DELANCO","NJ",8075,40.054859875,-74.94395693,366,"1800 BURLINGTON AVE, DELANCO, NJ, 8075","Match","Exact","1800 BURLINGTON AVE, DELANCO, NJ, 08075",134028299,"L"
90367,"1800 CAMDEN ROAD   107","CHARLOTTE","NC",28203,35.2125023130001,-80.8588965389999,367,"1800 CAMDEN ROAD   107, CHARLOTTE, NC, 28203","Match","Exact","1800 CAMDEN RD, CHARLOTTE, NC, 28203",70485384,"R"
90368,"1800 CAMDEN ROAD SUITE 107-15","CHARLOTTE","ND",28203,NA,NA,368,"1800 CAMDEN ROAD SUITE 107-15, CHARLOTTE, ND, 28203","No_Match",NA,NA,NA,NA
90369,"1800 CAMDEN ROAD SUITE 107-154","CHARLOTTE","NC",28203,35.2125023130001,-80.8588965389999,369,"1800 CAMDEN ROAD SUITE 107-154, CHARLOTTE, NC, 28203","Match","Exact","1800 CAMDEN RD, CHARLOTTE, NC, 28203",70485384,"R"
90370,"1800 CAMDEN ROAD SUITE 107-263","CHARLOTTE","NC",28203,35.2125023130001,-80.8588965389999,370,"1800 CAMDEN ROAD SUITE 107-263, CHARLOTTE, NC, 28203","Match","Exact","1800 CAMDEN RD, CHARLOTTE, NC, 28203",70485384,"R"
90371,"1800 CAMDEN ROAD SUITE 108","CHARLOTTE","NC",28203,35.2125023130001,-80.8588965389999,371,"1800 CAMDEN ROAD SUITE 108, CHARLOTTE, NC, 28203","Match","Exact","1800 CAMDEN RD, CHARLOTTE, NC, 28203",70485384,"R"
90372,"1800 CENTER POINT ROAD","BIRMINGHAM","AL",35215,NA,NA,372,"1800 CENTER POINT ROAD, BIRMINGHAM, AL, 35215","Tie",NA,NA,NA,NA
90373,"1800 CENTURY PARK EAST SUITE 600","LOS ANGELES","CA",90067,NA,NA,373,"1800 CENTURY PARK EAST SUITE 600, LOS ANGELES, CA, 90067","No_Match",NA,NA,NA,NA
90374,"1800 CHAPEL AVENUE WEST SUITE 128","CHERRY HILL","NJ",8002,39.934716585,-75.030781584,374,"1800 CHAPEL AVENUE WEST SUITE 128, CHERRY HILL, NJ, 8002","Match","Exact","1800 CHAPEL AVE W, CHERRY HILL, NJ, 08002",134354382,"L"
90375,"1800 CHARLESTON PLACE LANE APT 1E","CHARLOTTE","NC",28212,35.155203364,-80.744736646,375,"1800 CHARLESTON PLACE LANE APT 1E, CHARLOTTE, NC, 28212","Match","Exact","1800 CHARLESTON PLACE LN, CHARLOTTE, NC, 28212",70500349,"R"
90376,"1800 CLAIRMONT LAKE-419","DECATUR","GA",30033,NA,NA,376,"1800 CLAIRMONT LAKE-419, DECATUR, GA, 30033","Tie",NA,NA,NA,NA
90377,"1800 COLLEGE AVENUE","FORNEY","TX",75126,NA,NA,377,"1800 COLLEGE AVENUE, FORNEY, TX, 75126","No_Match",NA,NA,NA,NA
90378,"1800 CREASON STREET","BOWLING GREEN","KY",42101,36.9801477930001,-86.463415407,378,"1800 CREASON STREET, BOWLING GREEN, KY, 42101","Match","Exact","1800 CREASON ST, BOWLING GREEN, KY, 42101",638644709,"R"
90379,"1800 CURD ROAD","MOUNT JULIET","TN",37122,36.2136471810001,-86.49599141,379,"1800 CURD ROAD, MOUNT JULIET, TN, 37122","Match","Exact","1800 CURD RD, MOUNT JULIET, TN, 37122",651156323,"R"
90380,"1800 DECATUR ST","WILLIS","TX",77318,NA,NA,380,"1800 DECATUR ST, WILLIS, TX, 77318","No_Match",NA,NA,NA,NA
90381,"1800 DOUBLE TROUBLE ROAD","BEACHWOOD","NJ",8722,NA,NA,381,"1800 DOUBLE TROUBLE ROAD, BEACHWOOD, NJ, 8722","No_Match",NA,NA,NA,NA
90382,"1800 E 42ND STREET","ODESSA","TX",79762,31.88808184,-102.358758702,382,"1800 E 42ND STREET, ODESSA, TX, 79762","Match","Exact","1800 E 42ND ST, ODESSA, TX, 79762",139429977,"R"
90383,"1800 E BROAD ST","MILLVILLE","NJ",8332,39.4050878900001,-75.0167945549999,383,"1800 E BROAD ST, MILLVILLE, NJ, 8332","Match","Exact","1800 E BROAD ST, MILLVILLE, NJ, 08332",174121239,"L"
90384,"1800 E CHANDLER BLVD","CHANDLER","AZ",85225,33.3063895820001,-111.809689635,384,"1800 E CHANDLER BLVD, CHANDLER, AZ, 85225","Match","Exact","1800 E CHANDLER BLVD, CHANDLER, AZ, 85225",128298632,"L"
90385,"1800 E CHEADLE RD / BOX 201","TISHOMINGO","OK",73460,34.274048819,-96.620085204,385,"1800 E CHEADLE RD / BOX 201, TISHOMINGO, OK, 73460","Match","Non_Exact","1800 E CHEADLE RD, TISHOMINGO, OK, 73460",63210728,"R"
90386,"1800 E DAVIDSON AVENUE APT 5B","BRONX","NY",10453,40.8490446530001,-73.9124790719999,386,"1800 E DAVIDSON AVENUE APT 5B, BRONX, NY, 10453","Match","Exact","1800 DAVIDSON AVE, BRONX, NY, 10453",80299690,"R"
90387,"1800 E GARRY AVE STE 108","SANTA ANA","CA",92705,33.704640436,-117.852521632,387,"1800 E GARRY AVE STE 108, SANTA ANA, CA, 92705","Match","Non_Exact","1800 E GARRY AVE, SANTA ANA, CA, 92705",144418486,"L"
90388,"1800 E NORTHERN PARKWAY NO 28084","BALTIMORE","MD",21239,NA,NA,388,"1800 E NORTHERN PARKWAY NO 28084, BALTIMORE, MD, 21239","No_Match",NA,NA,NA,NA
90389,"1800 E OCEAN VIEW AVE UNIT 4","NORFOLK","VA",23503,36.939331995,-76.2255572719999,389,"1800 E OCEAN VIEW AVE UNIT 4, NORFOLK, VA, 23503","Match","Non_Exact","1800 E OCEAN VIEW AVE, NORFOLK, VA, 23503",647859508,"L"
90390,"1800 E PERSHING AVE","ORLANDO","FL",32806,28.498538012,-81.355825387,390,"1800 E PERSHING AVE, ORLANDO, FL, 32806","Match","Exact","1800 E PERSHING AVE, ORLANDO, FL, 32806",94287394,"R"
90391,"1800 EAST 42ND STREET","ODESSA","TX",79762,31.88808184,-102.358758702,391,"1800 EAST 42ND STREET, ODESSA, TX, 79762","Match","Exact","1800 E 42ND ST, ODESSA, TX, 79762",139429977,"R"
90392,"1800 EAST 9TH AVE","TAMPA","FL",33605,27.961690333,-82.439124883,392,"1800 EAST 9TH AVE, TAMPA, FL, 33605","Match","Exact","1800 E 9TH AVE, TAMPA, FL, 33605",104524273,"L"
90393,"1800 EAST GENESEE STREET","SYRACUSE","NY",13210,NA,NA,393,"1800 EAST GENESEE STREET, SYRACUSE, NY, 13210","No_Match",NA,NA,NA,NA
90394,"1800 EL PASEO APT314","HOUSTON","TX",77054,NA,NA,394,"1800 EL PASEO APT314, HOUSTON, TX, 77054","No_Match",NA,NA,NA,NA
90395,"1800 ELLER DRIVE 3RD FL","FORT LAUDERDALE","FL",33316,NA,NA,395,"1800 ELLER DRIVE 3RD FL, FORT LAUDERDALE, FL, 33316","No_Match",NA,NA,NA,NA
90396,"1800 EMBASSY DRIVE UNIT 130","WEST PALM BEACH","FL",33401,26.7283355430001,-80.081208612,396,"1800 EMBASSY DRIVE UNIT 130, WEST PALM BEACH, FL, 33401","Match","Exact","1800 EMBASSY DR, WEST PALM BEACH, FL, 33401",115563468,"R"
90397,"1800 ESSEX STREET SUITE 200","LOS ANGELES","CA",90021,34.025695055,-118.250840771,397,"1800 ESSEX STREET SUITE 200, LOS ANGELES, CA, 90021","Match","Exact","1800 ESSEX ST, LOS ANGELES, CA, 90021",142689137,"L"
90398,"1800 FAGER HILL RD","PENRYN","CA",95663,38.8570346450001,-121.194550683,398,"1800 FAGER HILL RD, PENRYN, CA, 95663","Match","Exact","1800 FAGER HILL RD, PENRYN, CA, 95663",106800202,"L"
90399,"1800 FAGER HILL ROAD","PENRYN","CA",95663,38.8570346450001,-121.194550683,399,"1800 FAGER HILL ROAD, PENRYN, CA, 95663","Match","Exact","1800 FAGER HILL RD, PENRYN, CA, 95663",106800202,"L"
90400,"1800 FARMHOUSE WAY","FLORENCE","KY",41042,38.982957909,-84.6951965219999,400,"1800 FARMHOUSE WAY, FLORENCE, KY, 41042","Match","Exact","1800 FARMHOUSE WAY, FLORENCE, KY, 41042",81964845,"R"
90401,"1800 FOREST HILLS ROAD W","WILSON","NC",27893,35.7226841620001,-77.952130696,401,"1800 FOREST HILLS ROAD W, WILSON, NC, 27893","Match","Non_Exact","1800 FOREST HILLS DR W, WILSON, NC, 27893",26730226,"R"
90402,"1800 FORSYTHE AVE STE 2 PMB 128","MONROE","LA",71201,32.5291611320001,-92.1169375009999,402,"1800 FORSYTHE AVE STE 2 PMB 128, MONROE, LA, 71201","Match","Exact","1800 FORSYTHE AVE, MONROE, LA, 71201",616294035,"R"
90403,"1800 FRUITVILLE PIKE","LANCASTER","PA",17601,NA,NA,403,"1800 FRUITVILLE PIKE, LANCASTER, PA, 17601","No_Match",NA,NA,NA,NA
90404,"1800 GARRETT WAY STE 7","POCATELLO","ID",83201,42.8766228760001,-112.458569806,404,"1800 GARRETT WAY STE 7, POCATELLO, ID, 83201","Match","Exact","1800 GARRETT WAY, POCATELLO, ID, 83201",204371206,"R"
90405,"1800 GENESSEE STREET SUITE 406","KANSAS CITY","MO",64102,39.0938420160001,-94.604988125,405,"1800 GENESSEE STREET SUITE 406, KANSAS CITY, MO, 64102","Match","Exact","1800 GENESSEE ST, KANSAS CITY, MO, 64102",91444147,"R"
90406,"1800 GILDED CREST DR","LEANDER","TX",78641,30.536148338,-97.905122836,406,"1800 GILDED CREST DR, LEANDER, TX, 78641","Match","Exact","1800 GILDED CREST DR, LEANDER, TX, 78641",648999963,"L"
90407,"1800 GLENEDEN CT","GRAYSON","GA",30017,33.8683024950001,-83.990298482,407,"1800 GLENEDEN CT, GRAYSON, GA, 30017","Match","Non_Exact","1800 GLENEDEN CT SW, GRAYSON, GA, 30017",88948979,"L"
90408,"1800 GOGGIN LANE","DANVILLE","KY",40422,37.6536828970001,-84.72903029,408,"1800 GOGGIN LANE, DANVILLE, KY, 40422","Match","Exact","1800 GOGGIN LN, DANVILLE, KY, 40422",637729312,"R"
90409,"1800 GRISWOLD DR UNIT 1","ELKO","NV",89801,40.8498014050001,-115.761424667,409,"1800 GRISWOLD DR UNIT 1, ELKO, NV, 89801","Match","Exact","1800 GRISWOLD DR, ELKO, NV, 89801",154629755,"L"
90410,"1800 H STREET","UNION CITY","CA",94587,37.591632969,-122.026494409,410,"1800 H STREET, UNION CITY, CA, 94587","Match","Exact","1800 H ST, UNION CITY, CA, 94587",125025902,"L"
90411,"1800 HASKETT ROAD","KINSTON","NC",28501,35.270466056,-77.559816438,411,"1800 HASKETT ROAD, KINSTON, NC, 28501","Match","Exact","1800 HASKETT RD, KINSTON, NC, 28501",13877275,"R"
90412,"1800 HOBSON","HOT SPRINGS","AR",71913,34.498427383,-93.082862572,412,"1800 HOBSON, HOT SPRINGS, AR, 71913","Match","Non_Exact","1800 HOBSON AVE, HOT SPRINGS, AR, 71913",22732661,"R"
90413,"1800 HOLLEMAN DRIVE APT 1314","COLLEGE STATION","TX",77840,30.6123124110001,-96.317221659,413,"1800 HOLLEMAN DRIVE APT 1314, COLLEGE STATION, TX, 77840","Match","Exact","1800 HOLLEMAN DR, COLLEGE STATION, TX, 77840",21830245,"R"
90414,"1800 HOLLYWOOD DRIVE","YORK","PA",17403,39.947506692,-76.691562914,414,"1800 HOLLYWOOD DRIVE, YORK, PA, 17403","Match","Exact","1800 HOLLYWOOD DR, YORK, PA, 17403",88733546,"R"
90415,"1800 INDIAN TRACE","WESTON","FL",33326,26.111216518,-80.394036786,415,"1800 INDIAN TRACE, WESTON, FL, 33326","Match","Exact","1800 INDIAN TRCE, WESTON, FL, 33326",640904147,"L"
90416,"1800 INDUSTRIAL BLVD STE 2","COLLEYVILLE","TX",76034,32.902022254,-97.139851961,416,"1800 INDUSTRIAL BLVD STE 2, COLLEYVILLE, TX, 76034","Match","Exact","1800 INDUSTRIAL BLVD, COLLEYVILLE, TX, 76034",102121170,"L"
90417,"1800 INDUSTRIAL SUITE 130A","LAS VEGAS","NV",89102,36.1501926,-115.160749525,417,"1800 INDUSTRIAL SUITE 130A, LAS VEGAS, NV, 89102","Match","Non_Exact","1800 INDUSTRIAL RD, LAS VEGAS, NV, 89102",201865770,"R"
90418,"1800 JFK BLVD SUITE 300","PHILADELPHIA","PA",19103,NA,NA,418,"1800 JFK BLVD SUITE 300, PHILADELPHIA, PA, 19103","No_Match",NA,NA,NA,NA
90419,"1800 JFK BLVD SUITE 603","PHILADELPHIA","PA",19103,NA,NA,419,"1800 JFK BLVD SUITE 603, PHILADELPHIA, PA, 19103","No_Match",NA,NA,NA,NA
90420,"1800 JOHN F KENNEDY BLVD SUITE 810","PHILADELPHIA","PA",19103,39.9542046990001,-75.169913062,420,"1800 JOHN F KENNEDY BLVD SUITE 810, PHILADELPHIA, PA, 19103","Match","Exact","1800 JOHN F KENNEDY BLVD, PHILADELPHIA, PA, 19103",131407442,"L"
90421,"1800 JUDES FERRY ROAD","POWHATAN","VA",23139,37.5206153250001,-77.804979455,421,"1800 JUDES FERRY ROAD, POWHATAN, VA, 23139","Match","Exact","1800 JUDES FERRY RD, POWHATAN, VA, 23139",73834617,"R"
90422,"1800 KEYSTONE STREET","CROYDON","PA",19021,40.087888675,-74.894284107,422,"1800 KEYSTONE STREET, CROYDON, PA, 19021","Match","Exact","1800 KEYSTONE ST, CROYDON, PA, 19021",134717545,"R"
90423,"1800 LABROTT LN","ANNAPOLIS","MD",21401,38.985918558,-76.579320471,423,"1800 LABROTT LN, ANNAPOLIS, MD, 21401","Match","Exact","1800 LABROTT LN, ANNAPOLIS, MD, 21401",68193123,"L"
90424,"1800 LAKE EASY RD","BABSON PARK","FL",33827,27.8455041140001,-81.559927085,424,"1800 LAKE EASY RD, BABSON PARK, FL, 33827","Match","Exact","1800 LAKE EASY RD, BABSON PARK, FL, 33827",104835453,"L"
90425,"1800 LAKEWAY DR","LEWISVILLE","TX",75057,33.0200358880001,-96.977415401,425,"1800 LAKEWAY DR, LEWISVILLE, TX, 75057","Match","Exact","1800 LAKEWAY DR, LEWISVILLE, TX, 75057",103413252,"R"
90426,"1800 LAUREL  STREET","PINE BLUFF","AR",71601,34.2116321840001,-92.0082678969999,426,"1800 LAUREL  STREET, PINE BLUFF, AR, 71601","Match","Non_Exact","1800 S LAUREL ST, PINE BLUFF, AR, 71601",2551418,"R"
90427,"1800 LILBURN STONE MOUNTAIN ROAD","STONE MOUNTAIN","GA",30087,NA,NA,427,"1800 LILBURN STONE MOUNTAIN ROAD, STONE MOUNTAIN, GA, 30087","No_Match",NA,NA,NA,NA
90428,"1800 LINCOLNSHIRE DRIVE SUITE 103","DETROIT","MI",48203,42.4330930360001,-83.125995765,428,"1800 LINCOLNSHIRE DRIVE SUITE 103, DETROIT, MI, 48203","Match","Exact","1800 LINCOLNSHIRE DR, DETROIT, MI, 48203",95461110,"R"
90429,"1800 LITCHFIELD DR","BANNING","CA",92220,33.9082848,-116.945873394,429,"1800 LITCHFIELD DR, BANNING, CA, 92220","Match","Non_Exact","1800 LITCHFIELD CT, BANNING, CA, 92220",629680725,"R"
90430,"1800 LOCK AND DAM ROAD","DEMOPOLIS","AL",36732,NA,NA,430,"1800 LOCK AND DAM ROAD, DEMOPOLIS, AL, 36732","No_Match",NA,NA,NA,NA
90431,"1800 LONDOTOWNE CIR","HAGERSTOWN","MD",21740,39.6136289250001,-77.675895703,431,"1800 LONDOTOWNE CIR, HAGERSTOWN, MD, 21740","Match","Non_Exact","1800 LONDONTOWNE CIR, HAGERSTOWN, MD, 21740",60796442,"L"
90432,"1800 LUSK STREET","GUNTERSVILLE","AL",35976,34.3545922590001,-86.307082889,432,"1800 LUSK STREET, GUNTERSVILLE, AL, 35976","Match","Exact","1800 LUSK ST, GUNTERSVILLE, AL, 35976",99253249,"R"
90433,"1800 M ST NW UNIT 33943","WASHINGTON","DC",20033,38.9056507880001,-77.04182352,433,"1800 M ST NW UNIT 33943, WASHINGTON, DC, 20033","Match","Non_Exact","1800 M ST NW, WASHINGTON, DC, 20036",76225379,"L"
90434,"1800 MAIN ST SUITE 107","TUPELO","MS",38801,34.2562074640001,-88.733376934,434,"1800 MAIN ST SUITE 107, TUPELO, MS, 38801","Match","Non_Exact","1800 W MAIN ST, TUPELO, MS, 38801",90653849,"R"
90435,"1800 MAPLE","NORTH LITTLE ROCK","AR",72114,NA,NA,435,"1800 MAPLE, NORTH LITTLE ROCK, AR, 72114","No_Match",NA,NA,NA,NA
90436,"1800 MARKET","ATLON","IL",62002,NA,NA,436,"1800 MARKET, ATLON, IL, 62002","No_Match",NA,NA,NA,NA
90437,"1800 MARTIN LUTHER KING JR DR","BIRMINGHAM","AL",35211,33.4780028910001,-86.839499409,437,"1800 MARTIN LUTHER KING JR DR, BIRMINGHAM, AL, 35211","Match","Exact","1800 MARTIN LUTHER KING JR DR, BIRMINGHAM, AL, 35211",81642492,"R"
90438,"1800 MCCULLOUGH AVENUE","SAN ANTONIO","TX",78212,29.4460773330001,-98.491843807,438,"1800 MCCULLOUGH AVENUE, SAN ANTONIO, TX, 78212","Match","Exact","1800 MCCULLOUGH AVE, SAN ANTONIO, TX, 78212",101524059,"R"
90439,"1800 MEDICAL CENTER PKWY SUITE 420","MURFREESBORO","TN",37129,35.8584845010001,-86.424300756,439,"1800 MEDICAL CENTER PKWY SUITE 420, MURFREESBORO, TN, 37129","Match","Exact","1800 MEDICAL CENTER PKWY, MURFREESBORO, TN, 37129",606768021,"R"
90440,"1800 MICCOSUKEE COMMONS DR 1202","TALLAHASSEE","FL",32308,NA,NA,440,"1800 MICCOSUKEE COMMONS DR 1202, TALLAHASSEE, FL, 32308","No_Match",NA,NA,NA,NA
90441,"1800 MINERAL SPRING AVE SUITE 304","NORTH PROVIDENCE","RI",2904,41.8622393750001,-71.4578003569999,441,"1800 MINERAL SPRING AVE SUITE 304, NORTH PROVIDENCE, RI, 2904","Match","Exact","1800 MINERAL SPRING AVE, N PROVIDENCE, RI, 02904",640493794,"L"
90442,"1800 MISTY MORN PL","LONGWOOD","FL",32779,28.727705202,-81.3869230779999,442,"1800 MISTY MORN PL, LONGWOOD, FL, 32779","Match","Exact","1800 MISTY MORN PL, LONGWOOD, FL, 32779",93767501,"R"
90443,"1800 MURRAY AVE PO BOX 81111","PITTSBURGH","PA",15217,40.436899344,-79.9229284739999,443,"1800 MURRAY AVE PO BOX 81111, PITTSBURGH, PA, 15217","Match","Exact","1800 MURRAY AVE, PITTSBURGH, PA, 15217",51652136,"R"
90444,"1800 N ANDREWS AVE","POMPANO BEACH","FL",33069,26.21050137,-80.141740284,444,"1800 N ANDREWS AVE, POMPANO BEACH, FL, 33069","Match","Exact","1800 N ANDREWS AVE, POMPANO BEACH, FL, 33069",639359541,"L"
90445,"1800 N BRISTOL ST C458","SANTA ANA","CA",92706,NA,NA,445,"1800 N BRISTOL ST C458, SANTA ANA, CA, 92706","No_Match",NA,NA,NA,NA
90446,"1800 N DIXBORO RD","ANN ARBOR","MI",48105,42.299739883,-83.666133367,446,"1800 N DIXBORO RD, ANN ARBOR, MI, 48105","Match","Exact","1800 N DIXBORO RD, ANN ARBOR, MI, 48105",26014144,"R"
90447,"1800 N HALL ST APT 461","DALLAS","TX",75204,NA,NA,447,"1800 N HALL ST APT 461, DALLAS, TX, 75204","No_Match",NA,NA,NA,NA
90448,"1800 N HWY 426","OVIEDO","FM",32765,NA,NA,448,"1800 N HWY 426, OVIEDO, FM, 32765","No_Match",NA,NA,NA,NA
90449,"1800 N MISSOURI STREET SUITE 7","WEST MEMPHIS","AR",72301,35.1656648850001,-90.1846883549999,449,"1800 N MISSOURI STREET SUITE 7, WEST MEMPHIS, AR, 72301","Match","Non_Exact","1800 N MISSOURI ST, WEST MEMPHIS, AR, 72301",69372462,"R"
90450,"1800 N ROME AVE","TAMPA","FL",33607,27.9579001000001,-82.4766921579999,450,"1800 N ROME AVE, TAMPA, FL, 33607","Match","Exact","1800 N ROME AVE, TAMPA, FL, 33607",104521282,"L"
90451,"1800 NE 114TH STREET SUITE 1608","NORTH MIAMI","FL",33181,25.8808978820001,-80.165110512,451,"1800 NE 114TH STREET SUITE 1608, NORTH MIAMI, FL, 33181","Match","Non_Exact","1800 NE 114TH ST, NORTH MIAMI, FL, 33181",116037958,"R"
90452,"1800 NE 168TH STREET SUITE 208B","NORTH MIAMI BEACH","FL",33162,25.9304880190001,-80.1640492189999,452,"1800 NE 168TH STREET SUITE 208B, NORTH MIAMI BEACH, FL, 33162","Match","Non_Exact","1800 NE 168TH ST, N MIAMI BEACH, FL, 33162",116036266,"R"
90453,"1800 NE BROADWAY AVE","DES MOINES","IA",50313,41.644110841,-93.590987245,453,"1800 NE BROADWAY AVE, DES MOINES, IA, 50313","Match","Exact","1800 BROADWAY AVE, DES MOINES, IA, 50313",636229093,"L"
90454,"1800 NEW CENTRAL AVENUE","LAKEWOOD","NJ",8701,40.0923371430001,-74.2436759079999,454,"1800 NEW CENTRAL AVENUE, LAKEWOOD, NJ, 8701","Match","Exact","1800 NEW CENTRAL AVE, LAKEWOOD, NJ, 08701",617586210,"R"
90455,"1800 NORTH BAYSHORE DRIVE","MIAMI","FL",33132,25.7936944960001,-80.186417599,455,"1800 NORTH BAYSHORE DRIVE, MIAMI, FL, 33132","Match","Exact","1800 N BAYSHORE DR, MIAMI, FL, 33132",631147808,"L"
90456,"1800 NORTH DUPONT ST - UNIT 606","WILMINGTON","DE",19806,39.758766602,-75.561333131,456,"1800 NORTH DUPONT ST - UNIT 606, WILMINGTON, DE, 19806","Match","Exact","1800 N DUPONT ST, WILMINGTON, DE, 19806",187256761,"R"
90457,"1800 NORTH SHARTEL","OKLAHOMA CITY","OK",73103,35.4870654220001,-97.525571218,457,"1800 NORTH SHARTEL, OKLAHOMA CITY, OK, 73103","Match","Non_Exact","1800 N SHARTEL AVE, OKLAHOMA CITY, OK, 73103",100400526,"R"
90458,"1800 NORTHWOOD ROAD APARTMENT F-46","JUNEAU","AK",99801,NA,NA,458,"1800 NORTHWOOD ROAD APARTMENT F-46, JUNEAU, AK, 99801","No_Match",NA,NA,NA,NA
90459,"1800 NW 169TH PLACE SUITE A250","BEAVERTON","OR",97006,45.5323530100001,-122.851757508,459,"1800 NW 169TH PLACE SUITE A250, BEAVERTON, OR, 97006","Match","Non_Exact","1800 NW 169TH PL, BEAVERTON, OR, 97006",158182591,"L"
90460,"1800 OAK KNOLL ROAD","GLENDALE","CA",91208,34.174955563,-118.225914105,460,"1800 OAK KNOLL ROAD, GLENDALE, CA, 91208","Match","Exact","1800 OAK KNOLL RD, GLENDALE, CA, 91208",141609645,"R"
90461,"1800 OLD MEADOW RD APT 115","MCLEAN","VA",22102,38.9170102310001,-77.213756759,461,"1800 OLD MEADOW RD APT 115, MCLEAN, VA, 22102","Match","Non_Exact","1800 OLD MEADOW RD, MCLEAN, VA, 22102",611917623,"R"
90462,"1800 OLD MEADOW ROAD  NO 1218","MCLEAN","VA",22102,NA,NA,462,"1800 OLD MEADOW ROAD  NO 1218, MCLEAN, VA, 22102","No_Match",NA,NA,NA,NA
90463,"1800 OLD MEANSVILLE RD","ZEBULON","GA",30295,33.074633835,-84.329253151,463,"1800 OLD MEANSVILLE RD, ZEBULON, GA, 30295","Match","Exact","1800 MEANSVILLE RD, ZEBULON, GA, 30295",646177442,"L"
90464,"1800 PALMER ROAD APT 305","FT WASHINGTON","MD",20744,38.7719426210001,-76.978175167,464,"1800 PALMER ROAD APT 305, FT WASHINGTON, MD, 20744","Match","Exact","1800 PALMER RD, FT WASHINGTON, MD, 20744",76404708,"L"
90465,"1800 PATTEE STREET","PERRY","IA",50220,41.8415600110001,-94.097648219,465,"1800 PATTEE STREET, PERRY, IA, 50220","Match","Exact","1800 PATTEE ST, PERRY, IA, 50220",65626735,"L"
90466,"1800 PEACHTREE STREET NW","ATLANTA","GA",30309,33.8040261630001,-84.3933778049999,466,"1800 PEACHTREE STREET NW, ATLANTA, GA, 30309","Match","Exact","1800 PEACHTREE ST NW, ATLANTA, GA, 30309",618353879,"L"
90467,"1800 PECAN LAKE DR","RICHMOND","TX",77406,29.6235564310001,-95.785988565,467,"1800 PECAN LAKE DR, RICHMOND, TX, 77406","Match","Exact","1800 PECAN LAKE DR, RICHMOND, TX, 77406",78282120,"L"
90468,"1800 PEMBROOK DRIVE SUITE 300","ORLANDO","FL",32801,28.632821639,-81.401317509,468,"1800 PEMBROOK DRIVE SUITE 300, ORLANDO, FL, 32801","Match","Non_Exact","1800 PEMBROOK DR, ORLANDO, FL, 32810",651350577,"L"
90469,"1800 PEMBROOK DRIVE SUITE 300","ORLANDO","FL",32810,28.632821639,-81.401317509,469,"1800 PEMBROOK DRIVE SUITE 300, ORLANDO, FL, 32810","Match","Exact","1800 PEMBROOK DR, ORLANDO, FL, 32810",651350577,"L"
90470,"1800 PERSHING AVENUE","ORLANDO","FL",32806,28.4985379940001,-81.355827405,470,"1800 PERSHING AVENUE, ORLANDO, FL, 32806","Match","Non_Exact","1800 E PERSHING AVE, ORLANDO, FL, 32806",94287394,"R"
90471,"1800 PHILLIPS LANE","MOBILE","AL",36618,30.7258055950001,-88.144056209,471,"1800 PHILLIPS LANE, MOBILE, AL, 36618","Match","Exact","1800 PHILLIPS LN, MOBILE, AL, 36618",61925963,"R"
90472,"1800 PINE CREEK DRIVE","AUSTELL","GA",30168,33.8027224630001,-84.606443627,472,"1800 PINE CREEK DRIVE, AUSTELL, GA, 30168","Match","Exact","1800 PINE CREEK DR, AUSTELL, GA, 30168",17174868,"R"
90473,"1800 PINEVILLE MATTHEWS ROAD","CHARLOTTE","NC",28270,35.1100440820001,-80.761796482,473,"1800 PINEVILLE MATTHEWS ROAD, CHARLOTTE, NC, 28270","Match","Exact","1800 PINEVILLE MATTHEWS RD, CHARLOTTE, NC, 28270",609020900,"R"
90474,"1800 PLATEAU VISTA BLVD  APT 8104","ROUND ROCK","TX",78664,30.5211959440001,-97.658922429,474,"1800 PLATEAU VISTA BLVD  APT 8104, ROUND ROCK, TX, 78664","Match","Exact","1800 PLATEAU VISTA BLVD, ROUND ROCK, TX, 78664",639625334,"L"
90475,"1800 PLATEAU VISTA BLVD APT 16102","ROUND ROCK","TX",78664,30.5211959440001,-97.658922429,475,"1800 PLATEAU VISTA BLVD APT 16102, ROUND ROCK, TX, 78664","Match","Exact","1800 PLATEAU VISTA BLVD, ROUND ROCK, TX, 78664",639625334,"L"
90476,"1800 POST RD 1228","SAN MARCOS","TX",78666,29.905977583,-97.911577315,476,"1800 POST RD 1228, SAN MARCOS, TX, 78666","Match","Exact","1800 POST RD, SAN MARCOS, TX, 78666",641083831,"R"
90477,"1800 POST ROAD ROAD UNIT 5","WARWICK","RI",2886,41.7321322220001,-71.436635334,477,"1800 POST ROAD ROAD UNIT 5, WARWICK, RI, 2886","Match","Exact","1800 POST RD, WARWICK, RI, 02886",159146368,"L"
90478,"1800 PRAIRIE AVE","DOWNERS GROVE","IL",60515,41.799637665,-88.0287530639999,478,"1800 PRAIRIE AVE, DOWNERS GROVE, IL, 60515","Match","Exact","1800 PRAIRIE AVE, DOWNERS GROVE, IL, 60515",112533638,"R"
90479,"1800 PRIMROSE DRIVE APT 203H","WACO","TX",76706,31.528014915,-97.1225856089999,479,"1800 PRIMROSE DRIVE APT 203H, WACO, TX, 76706","Match","Exact","1800 PRIMROSE DR, WACO, TX, 76706",146745594,"L"
90480,"1800 PRINCETON PLACE","ST LOUIS","MO",63117,38.622590309,-90.3151721,480,"1800 PRINCETON PLACE, ST LOUIS, MO, 63117","Match","Exact","1800 PRINCETON PL, SAINT LOUIS, MO, 63117",100153509,"L"
90481,"1800 ROGERS ROAD  410","FORT WORTH","TX",76107,32.7253237990001,-97.364802353,481,"1800 ROGERS ROAD  410, FORT WORTH, TX, 76107","Match","Exact","1800 ROGERS RD, FORT WORTH, TX, 76107",101884366,"R"
90482,"1800 RUNYMEDE LANE","CHARLOTTE","NC",28211,35.1655381940001,-80.832627482,482,"1800 RUNYMEDE LANE, CHARLOTTE, NC, 28211","Match","Non_Exact","1800 RUNNYMEDE LN, CHARLOTTE, NC, 28211",70523564,"L"
90483,"1800 S 265TH PL","DES MOINES","WA",98198,47.3638491360001,-122.309223574,483,"1800 S 265TH PL, DES MOINES, WA, 98198","Match","Exact","1800 S 265TH PL, DES MOINES, WA, 98198",186649210,"L"
90484,"1800 S 42ND STREET","WEST DES MOINES","IA",50265,41.5437363680001,-93.760749478,484,"1800 S 42ND STREET, WEST DES MOINES, IA, 50265","Match","Exact","1800 S 42ND ST, W DES MOINES, IA, 50265",65800629,"R"
90485,"1800 S ADAMS ST","FORT WORTH","TX",76110,32.7246379590001,-97.3368264059999,485,"1800 S ADAMS ST, FORT WORTH, TX, 76110","Match","Exact","1800 S ADAMS ST, FORT WORTH, TX, 76110",101885909,"R"
90486,"1800 S BALTIMORE AVE SUITE 815","TULSA","OK",74119,36.135984337,-95.986492309,486,"1800 S BALTIMORE AVE SUITE 815, TULSA, OK, 74119","Match","Non_Exact","1800 S BALTIMORE AVE, TULSA, OK, 74119",166441961,"R"
90487,"1800 S GOVERNOR STREET","EVANSVILLE","IN",47713,37.9519026350001,-87.559830678,487,"1800 S GOVERNOR STREET, EVANSVILLE, IN, 47713","Match","Exact","1800 S GOVERNOR ST, EVANSVILLE, IN, 47713",39783325,"L"
90488,"1800 S INDIANA STREET","SUPERIOR","CO",80027,39.9374556940001,-105.157825241,488,"1800 S INDIANA STREET, SUPERIOR, CO, 80027","Match","Exact","1800 S INDIANA ST, SUPERIOR, CO, 80027",642890701,"L"
90489,"1800 S KASPER DR","APPLETON","WI",54914,44.246185622,-88.4451643949999,489,"1800 S KASPER DR, APPLETON, WI, 54914","Match","Exact","1800 S KASPER DR, APPLETON, WI, 54914",74884855,"L"
90490,"1800 S KOLB RD","TUCSON","AZ",85710,32.200077999,-110.840969976,490,"1800 S KOLB RD, TUCSON, AZ, 85710","Match","Exact","1800 S KOLB RD, TUCSON, AZ, 85710",121183843,"R"
90491,"1800 S NORTHERN BLVD","INDEPENDENCE","MO",64052,39.0876386250001,-94.450651868,491,"1800 S NORTHERN BLVD, INDEPENDENCE, MO, 64052","Match","Exact","1800 S NORTHERN BLVD, INDEPENDENCE, MO, 64052",91461807,"R"
90492,"1800 S PARK AVE","SANFORD","FL",32771,28.795787035,-81.267880565,492,"1800 S PARK AVE, SANFORD, FL, 32771","Match","Exact","1800 S PARK AVE, SANFORD, FL, 32771",93750330,"R"
90493,"1800 S VRAIN ST","DENVER","CO",80219,39.6840250660001,-105.046228561,493,"1800 S VRAIN ST, DENVER, CO, 80219","Match","Exact","1800 S VRAIN ST, DENVER, CO, 80219",177327146,"L"
90494,"1800 S W GLENCO STREET","PORT ST.LUCIE","FL",34953,27.287435214,-80.4086602089999,494,"1800 S W GLENCO STREET, PORT ST.LUCIE, FL, 34953","Match","Exact","1800 SW GLENCO ST, PORT ST LUCIE, FL, 34953",120137887,"L"
90495,"1800 SE VETERANS MEMORIAL PARKWAY","PORT SAINT LUCIE","FL",34952,27.2922794630001,-80.3055984969999,495,"1800 SE VETERANS MEMORIAL PARKWAY, PORT SAINT LUCIE, FL, 34952","Match","Exact","1800 SE VETERANS MEMORIAL PKWY, PORT ST LUCIE, FL, 34952",647740333,"R"
90496,"1800 SILAS DEANE HIGHWAY REAR BLDG","ROCKY HILL","CT",6067,41.677106381,-72.650772936,496,"1800 SILAS DEANE HIGHWAY REAR BLDG, ROCKY HILL, CT, 6067","Match","Exact","1800 SILAS DEANE HWY, ROCKY HILL, CT, 06067",612529676,"L"
90497,"1800 SMITHERS","BENTON","AR",72015,34.580589665,-92.569779306,497,"1800 SMITHERS, BENTON, AR, 72015","Match","Non_Exact","1800 SMITHERS DR, BENTON, AR, 72015",641538284,"L"
90498,"1800 SOUTH BRENTWOOD BLVD UNIT 1415","ST. LOUIS","MO",63144,38.627471993,-90.346431103,498,"1800 SOUTH BRENTWOOD BLVD UNIT 1415, ST. LOUIS, MO, 63144","Match","Exact","1800 S BRENTWOOD BLVD, SAINT LOUIS, MO, 63144",100135219,"L"
90499,"1800 SOUTH GRANT AVENUE UNIT B36","POCATELLO","ID",83204,42.847678226,-112.437551679,499,"1800 SOUTH GRANT AVENUE UNIT B36, POCATELLO, ID, 83204","Match","Exact","1800 S GRANT AVE, POCATELLO, ID, 83204",204372049,"L"
90500,"1800 SPARKMAN DRIVE NW","HUNTSVILLE","AL",35816,34.749178656,-86.645541765,500,"1800 SPARKMAN DRIVE NW, HUNTSVILLE, AL, 35816","Match","Exact","1800 SPARKMAN DR NW, HUNTSVILLE, AL, 35816",236723116,"R"
