"ID","Address","City","State","Zip","lat","long","id","input_address","match_indicator","match_type","matched_address","tiger_line_id","tiger_side"
274501,"7 WALLACE ST","PITTSGROVE","NJ",8318,39.497240275,-75.086452317,1,"7 WALLACE ST, PITTSGROVE, NJ, 8318","Match","Exact","7 WALLACE ST, PITTSGROVE, NJ, 08318",174411227,"R"
274502,"7 WALLACE STREET","LEXINGTON","VA",24450,37.77689293,-79.448973563,2,"7 WALLACE STREET, LEXINGTON, VA, 24450","Match","Exact","7 WALLACE ST, LEXINGTON, VA, 24450",63109486,"R"
274503,"7 WALLACE STREET","ROCKVILLE CENTRE","NY",11570,40.670669564,-73.641884459,3,"7 WALLACE STREET, ROCKVILLE CENTRE, NY, 11570","Match","Exact","7 WALLACE ST, ROCKVILLE CENTRE, NY, 11570",147676375,"R"
274504,"7 WARGO LANE","DILLSBURG","PA",17019,40.105232685,-77.025280553,4,"7 WARGO LANE, DILLSBURG, PA, 17019","Match","Exact","7 WARGO LN, DILLSBURG, PA, 17019",617505197,"L"
274505,"7 WATERHOUSE LANE","CHESTER","CT",6412,41.4115117420001,-72.446565186,5,"7 WATERHOUSE LANE, CHESTER, CT, 6412","Match","Exact","7 WATERHOUSE LN, CHESTER, CT, 06412",113894797,"R"
274506,"7 WEATHERBELL DRIVE","NORWALK","CT",6851,41.165285968,-73.392698074,6,"7 WEATHERBELL DRIVE, NORWALK, CT, 6851","Match","Exact","7 WEATHERBELL DR, NORWALK, CT, 06851",3285213,"R"
274507,"7 WEATHERVANE CT","BLOOMINGTON","IL",61704,40.468852401,-88.9315269429999,7,"7 WEATHERVANE CT, BLOOMINGTON, IL, 61704","Match","Exact","7 WEATHERVANE CT, BLOOMINGTON, IL, 61704",20575091,"R"
274508,"7 WEATHERWOOD LANE","WAYNE","PA",19087,40.0645395980001,-75.379014492,8,"7 WEATHERWOOD LANE, WAYNE, PA, 19087","Match","Exact","7 WEATHERWOOD LN, WAYNE, PA, 19087",179505554,"L"
274509,"7 WEBSTER ST","HYDE PARK","MA",2136,42.257707741,-71.120019008,9,"7 WEBSTER ST, HYDE PARK, MA, 2136","Match","Exact","7 WEBSTER ST, HYDE PARK, MA, 02136",85704489,"R"
274510,"7 WELLESLEY CT","ALBANY","NY",12211,42.7217913210001,-73.784282689,10,"7 WELLESLEY CT, ALBANY, NY, 12211","Match","Exact","7 WELLESLEY CT, ALBANY, NY, 12211",18361504,"R"
274511,"7 WEST 81ST","NEW YORK","NY",10124,NA,NA,11,"7 WEST 81ST, NEW YORK, NY, 10124","No_Match",NA,NA,NA,NA
274512,"7 WEST 92 STREET","NY","NY",10025,40.789248313,-73.966864501,12,"7 WEST 92 STREET, NY, NY, 10025","Match","Exact","7 W 92ND ST, NEW YORK, NY, 10025",650153774,"R"
274513,"7 WEST ASH STREET","CHILLICOTHE","IL",61523,40.9196641440001,-89.481468833,13,"7 WEST ASH STREET, CHILLICOTHE, IL, 61523","Match","Exact","7 W ASH ST, CHILLICOTHE, IL, 61523",8705440,"R"
274514,"7 WEST AYLESBURY RD","TIMONIUM","MD",21093,39.4398868100001,-76.6278497489999,14,"7 WEST AYLESBURY RD, TIMONIUM, MD, 21093","Match","Exact","7 W AYLESBURY RD, TIMONIUM, MD, 21093",191521938,"L"
274515,"7 WEST FIFTH ST","QUARRYVILLE","PA",17566,39.890824513,-76.16305893,15,"7 WEST FIFTH ST, QUARRYVILLE, PA, 17566","Match","Non_Exact","7 5TH ST, QUARRYVILLE, PA, 17566",179671579,"R"
274516,"7 WEST STREET","WARWICK","NY",10990,41.2565455160001,-74.360532803,16,"7 WEST STREET, WARWICK, NY, 10990","Match","Exact","7 WEST ST, WARWICK, NY, 10990",124399325,"L"
274517,"7 WEST VILLAGE LANE","RANDOLPH","VT",5060,43.9238377180001,-72.6696368359999,17,"7 WEST VILLAGE LANE, RANDOLPH, VT, 5060","Match","Exact","7 W VILLAGE LN, RANDOLPH, VT, 05060",640406495,"R"
274518,"7 WESTGATE RD","MOBILE","AL",36608,30.690313797,-88.155801406,18,"7 WESTGATE RD, MOBILE, AL, 36608","Match","Exact","7 WESTGATE RD, MOBILE, AL, 36608",61856825,"L"
274519,"7 WESTMINSTER STREET","ASHBURNHAM","MA",1451,NA,NA,19,"7 WESTMINSTER STREET, ASHBURNHAM, MA, 1451","No_Match",NA,NA,NA,NA
274520,"7 WESTON ST UNIT 1","VALPARAISO","IN",46385,41.4688242870001,-87.068324774,20,"7 WESTON ST UNIT 1, VALPARAISO, IN, 46385","Match","Exact","7 WESTON ST, VALPARAISO, IN, 46385",119914177,"R"
274521,"7 WESTWOOD ROAD","SOUTH EASTON","MA",2375,42.029704091,-71.072495137,21,"7 WESTWOOD ROAD, SOUTH EASTON, MA, 2375","Match","Exact","7 WESTWOOD RD, SOUTH EASTON, MA, 02375",46774213,"R"
274522,"7 WETHERSFIELD DRIVE","MEDFORD","NJ",8055,39.8423172220001,-74.815890447,22,"7 WETHERSFIELD DRIVE, MEDFORD, NJ, 8055","Match","Exact","7 WETHERSFIELD DR, MEDFORD, NJ, 08055",134056186,"L"
274523,"7 WHIPPOORWILL CLOSE","CHAPPAQUA","NY",10514,41.161208108,-73.736911284,23,"7 WHIPPOORWILL CLOSE, CHAPPAQUA, NY, 10514","Match","Exact","7 WHIPPOORWILL CLOSE, CHAPPAQUA, NY, 10514",139758982,"L"
274524,"7 WHISPERING PINES RD","TIJERAS","NM",87059,35.029536826,-106.310802823,24,"7 WHISPERING PINES RD, TIJERAS, NM, 87059","Match","Exact","7 WHISPERING PINES RD, TIJERAS, NM, 87059",206778325,"L"
274525,"7 WHITE PINE DR","HERSHEY","PA",17033,40.241235869,-76.609623228,25,"7 WHITE PINE DR, HERSHEY, PA, 17033","Match","Exact","7 WHITE PINE DR, HERSHEY, PA, 17033",70837340,"R"
274526,"7 WHITMAN CT","IRVINE","CA",92617,33.636855833,-117.839997507,26,"7 WHITMAN CT, IRVINE, CA, 92617","Match","Exact","7 WHITMAN CT, IRVINE, CA, 92617",623819869,"L"
274527,"7 WHITNEY AVENUE","SOUTHINGTON","CT",6489,41.6111435440001,-72.8725469839999,27,"7 WHITNEY AVENUE, SOUTHINGTON, CT, 6489","Match","Exact","7 WHITNEY AVE, SOUTHINGTON, CT, 06489",3500717,"L"
274528,"7 WILDWOOD LANE","PERALTA","NM",87042,NA,NA,28,"7 WILDWOOD LANE, PERALTA, NM, 87042","No_Match",NA,NA,NA,NA
274529,"7 WILLETT STREET","NEW YORK","NY",10002,40.7171370190001,-73.982216631,29,"7 WILLETT STREET, NEW YORK, NY, 10002","Match","Exact","7 WILLETT ST, NEW YORK, NY, 10002",641645395,"L"
274530,"7 WILLIAMSON CT","DEARBORN","MI",48126,42.3368862240001,-83.181414137,30,"7 WILLIAMSON CT, DEARBORN, MI, 48126","Match","Exact","7 WILLIAMSON CT, DEARBORN, MI, 48126",95508396,"L"
274531,"7 WILLOUGHBY STREET","BRENTWOOD","NY",11717,40.7856142890001,-73.233287979,31,"7 WILLOUGHBY STREET, BRENTWOOD, NY, 11717","Match","Exact","7 WILLOUGHBY ST, BRENTWOOD, NY, 11717",113985220,"R"
274532,"7 WINDEMERE WAY","SPARTA","NJ",7871,41.0380705320001,-74.6617032309999,32,"7 WINDEMERE WAY, SPARTA, NJ, 7871","Match","Non_Exact","7 WINDEMERE DR, SPARTA, NJ, 07871",624908477,"L"
274533,"7 WINDLEDGE PLACE","THE WOODLANDS","TX",77381,30.1829195780001,-95.527342743,33,"7 WINDLEDGE PLACE, THE WOODLANDS, TX, 77381","Match","Exact","7 WINDLEDGE PL, THE WOODLANDS, TX, 77381",79305641,"L"
274534,"7 WINDSOR CT","SLINGERLANDS","NY",12159,42.6738351610001,-73.877961015,34,"7 WINDSOR CT, SLINGERLANDS, NY, 12159","Match","Exact","7 WINDSOR CT, SLINGERLANDS, NY, 12159",18334715,"L"
274535,"7 WINDSOR ST","ISLIP","NY",11751,40.7478191870001,-73.223112811,35,"7 WINDSOR ST, ISLIP, NY, 11751","Match","Exact","7 WINDSOR ST, ISLIP, NY, 11751",113996979,"R"
274536,"7 WINDY PINES CT","PORTSMOUTH","VA",23703,36.889809423,-76.391617809,36,"7 WINDY PINES CT, PORTSMOUTH, VA, 23703","Match","Exact","7 WINDY PINES CT, PORTSMOUTH, VA, 23703",122196782,"L"
274537,"7 WINESETT COURT  STE A","IRMO","SC",29063,34.1022877010001,-81.164984733,37,"7 WINESETT COURT  STE A, IRMO, SC, 29063","Match","Exact","7 WINESETT CT, IRMO, SC, 29063",71860917,"L"
274538,"7 WINESETT CT","IRMO","SC",29063,34.1022877010001,-81.164984733,38,"7 WINESETT CT, IRMO, SC, 29063","Match","Exact","7 WINESETT CT, IRMO, SC, 29063",71860917,"L"
274539,"7 WINSLOW HOMER WAY","MARLTON","NJ",8053,39.8117465450001,-74.8764940189999,39,"7 WINSLOW HOMER WAY, MARLTON, NJ, 8053","Match","Exact","7 WINSLOW HOMER WAY, MARLTON, NJ, 08053",645316418,"R"
274540,"7 WINTERGREEN LANE","PLAINVILLE","MA",2762,42.0060722380001,-71.337073392,40,"7 WINTERGREEN LANE, PLAINVILLE, MA, 2762","Match","Exact","7 WINTERGREEN LN, PLAINVILLE, MA, 02762",87284181,"L"
274541,"7 WITHERS LANE","NEWTOWN SQUARE","PA",19073,40.005070431,-75.432168324,41,"7 WITHERS LANE, NEWTOWN SQUARE, PA, 19073","Match","Exact","7 WITHERS LN, NEWTOWN SQUARE, PA, 19073",617715052,"R"
274542,"7 WOODLAND ROAD","GLEN COVE","NY",11542,40.867682003,-73.6521829229999,42,"7 WOODLAND ROAD, GLEN COVE, NY, 11542","Match","Exact","7 WOODLAND RD, GLEN COVE, NY, 11542",147657812,"L"
274543,"7 WOODMANSEE CT","RICHMOND","RI",2892,41.487612878,-71.6338919629999,43,"7 WOODMANSEE CT, RICHMOND, RI, 2892","Match","Exact","7 WOODMANSEE CT, RICHMOND, RI, 02892",58909872,"R"
274544,"7 WOODSIDE DRIVE","NORTH HAVEN","CT",6473,41.3935689850001,-72.855547271,44,"7 WOODSIDE DRIVE, NORTH HAVEN, CT, 6473","Match","Exact","7 WOODSIDE DR, NORTH HAVEN, CT, 06473",3721283,"L"
274545,"7 WRIGHT STREET","GREENWOOD LAKE","NY",10925,41.221343544,-74.29634342,45,"7 WRIGHT STREET, GREENWOOD LAKE, NY, 10925","Match","Exact","7 WRIGHT ST, GREENWOOD LAKE, NY, 10925",124410117,"R"
274546,"7 YARMOUTH PLACE APT 2","BOSTON","MA",2116,42.34609527,-71.076088364,46,"7 YARMOUTH PLACE APT 2, BOSTON, MA, 2116","Match","Exact","7 YARMOUTH PL, BOSTON, MA, 02116",85722455,"L"
274547,"7 ZEPHYR COURT","TANEYTOWN","MD",21787,39.646273276,-77.171129601,47,"7 ZEPHYR COURT, TANEYTOWN, MD, 21787","Match","Exact","7 ZEPHYR CT, TANEYTOWN, MD, 21787",61749588,"L"
274548,"7-10 CALLE 7 SANTA ROSA","BAYAMON","PR",959,NA,NA,48,"7-10 CALLE 7 SANTA ROSA, BAYAMON, PR, 959","Tie",NA,NA,NA,NA
274549,"7-11 RIDGE ROAD","RIDGEWOOD","NJ",7450,40.9824497120001,-74.1200284939999,49,"7-11 RIDGE ROAD, RIDGEWOOD, NJ, 7450","Match","Exact","7 RIDGE RD, RIDGEWOOD, NJ, 07450",64429435,"R"
274550,"7","KAILUA","HI",96734,NA,NA,50,"7, KAILUA, HI, 96734","No_Match",NA,NA,NA,NA
274551,"7","MARRERO","LA",70072,NA,NA,51,"7, MARRERO, LA, 70072","No_Match",NA,NA,NA,NA
274552,"7","WINGATE","NC",28174,NA,NA,52,"7, WINGATE, NC, 28174","No_Match",NA,NA,NA,NA
274553,"70 1 2 MECHANIC STREET","BRADFORD","PA",16701,NA,NA,53,"70 1 2 MECHANIC STREET, BRADFORD, PA, 16701","No_Match",NA,NA,NA,NA
274554,"70 1ST ST","TURBOTVILLE","PA",17772,41.107047691,-76.798544963,54,"70 1ST ST, TURBOTVILLE, PA, 17772","Match","Exact","70 1ST ST, TURBOTVILLE, PA, 17772",48068615,"R"
274555,"70 AMSTERDAM AVENUE SUITE 12E","NEW YORK","NY",10023,40.772743238,-73.9859165839999,55,"70 AMSTERDAM AVENUE SUITE 12E, NEW YORK, NY, 10023","Match","Exact","70 AMSTERDAM AVE, NEW YORK, NY, 10023",610197843,"L"
274556,"70 ANN DRIVE SOUTH","FREEPORT","NY",11520,40.638847577,-73.569989283,56,"70 ANN DRIVE SOUTH, FREEPORT, NY, 11520","Match","Exact","70 ANN DR S, FREEPORT, NY, 11520",147639080,"R"
274557,"70 APPALACHIAN RISE","LEXINGTON","VA",24450,37.8138727730001,-79.407163016,57,"70 APPALACHIAN RISE, LEXINGTON, VA, 24450","Match","Exact","70 APPALACHIAN RISE, LEXINGTON, VA, 24450",63116506,"R"
274558,"70 ARCHDALE LN","CHARLESTON","WV",25320,NA,NA,58,"70 ARCHDALE LN, CHARLESTON, WV, 25320","No_Match",NA,NA,NA,NA
274559,"70 ARCHWOOD AVENUE","STATEN ISLAND","NY",10312,40.535706851,-74.1846195489999,59,"70 ARCHWOOD AVENUE, STATEN ISLAND, NY, 10312","Match","Exact","70 ARCHWOOD AVE, STATEN ISLAND, NY, 10312",59886141,"R"
274560,"70 ARTS CIRCLE DRIVE RM 4-137","EVANSTON","IL",60208,NA,NA,60,"70 ARTS CIRCLE DRIVE RM 4-137, EVANSTON, IL, 60208","No_Match",NA,NA,NA,NA
274561,"70 ATLANTIC AVE   BOX 84","RONALD","WA",98940,47.233984966,-121.023711393,61,"70 ATLANTIC AVE   BOX 84, RONALD, WA, 98940","Match","Exact","70 ATLANTIC AVE, RONALD, WA, 98940",157194622,"R"
274562,"70 ATTERBURY LANE","EADS","TN",38028,35.208876332,-89.592130023,62,"70 ATTERBURY LANE, EADS, TN, 38028","Match","Exact","70 ATTERBURY LN, EADS, TN, 38028",638185808,"R"
274563,"70 AUDUBON LN","POLAND","OH",44514,41.0199403170001,-80.617142738,63,"70 AUDUBON LN, POLAND, OH, 44514","Match","Exact","70 AUDUBON LN, POLAND, OH, 44514",635656685,"R"
274564,"70 AUSTRALIA RD","GLEN SPEY","NY",12737,41.4802461040001,-74.7763521489999,64,"70 AUSTRALIA RD, GLEN SPEY, NY, 12737","Match","Exact","70 AUSTRALIA RD, GLEN SPEY, NY, 12737",643660855,"R"
274565,"70 AUTUMN VALLEY","JACKSON","TN",38305,35.669530126,-88.821013244,65,"70 AUTUMN VALLEY, JACKSON, TN, 38305","Match","Non_Exact","70 AUTUMN VALLEY DR, JACKSON, TN, 38305",21327982,"R"
274566,"70 AVERELL DR","MORRIS PLAINS","NJ",7950,40.838531598,-74.498309526,66,"70 AVERELL DR, MORRIS PLAINS, NJ, 7950","Match","Exact","70 AVERELL DR, MORRIS PLAINS, NJ, 07950",60464159,"L"
274567,"70 BARUCH DRIVE SUITE 4A","NEW YORK","NY",10002,40.7169812720001,-73.9782560479999,67,"70 BARUCH DRIVE SUITE 4A, NEW YORK, NY, 10002","Match","Exact","70 BARUCH DR, NEW YORK, NY, 10002",609809339,"L"
274568,"70 BEACH STREET  FLOOR 4TH","BOSTON","MA",2111,42.35129361,-71.060127306,68,"70 BEACH STREET  FLOOR 4TH, BOSTON, MA, 2111","Match","Exact","70 BEACH ST, BOSTON, MA, 02111",85710488,"L"
274569,"70 BILLINGS ROAD","QUINCY","MA",2171,42.2741016700001,-71.024272891,69,"70 BILLINGS ROAD, QUINCY, MA, 2171","Match","Exact","70 BILLINGS RD, QUINCY, MA, 02171",87248669,"L"
274570,"70 BIRCH FOREST LANE","LEXINGTON","VA",24450,37.71969755,-79.419777046,70,"70 BIRCH FOREST LANE, LEXINGTON, VA, 24450","Match","Exact","70 BIRCH FOREST LN, LEXINGTON, VA, 24450",63116854,"R"
274571,"70 BIRCH HILL DR","CAIRO","NY",12413,42.292868931,-73.98267178,71,"70 BIRCH HILL DR, CAIRO, NY, 12413","Match","Exact","70 BIRCH HILL DR, CAIRO, NY, 12413",652090594,"R"
274572,"70 BLACK JACK CT - SUITE B","BLACK JACK","MO",63033,38.792419352,-90.265213785,72,"70 BLACK JACK CT - SUITE B, BLACK JACK, MO, 63033","Match","Exact","70 BLACK JACK CT, BLACK JACK, MO, 63033",100145447,"R"
274573,"70 BLODGETT ROAD","GREENWICH","NY",12834,43.1556948400001,-73.5733573099999,73,"70 BLODGETT ROAD, GREENWICH, NY, 12834","Match","Exact","70 BLODGETT RD, GREENWICH, NY, 12834",139173509,"R"
274574,"70 BONNEY ST","BROCKTON","MA",2302,42.111855657,-71.0166895209999,74,"70 BONNEY ST, BROCKTON, MA, 2302","Match","Exact","70 BONNEY ST, BROCKTON, MA, 02302",87441729,"L"
274575,"70 BORTREE RD","MOSCOW","PA",18444,41.342409699,-75.4136247009999,75,"70 BORTREE RD, MOSCOW, PA, 18444","Match","Exact","70 BORTREE RD, MOSCOW, PA, 18444",638555221,"R"
274576,"70 BUCKWALTER ROAD SUITE 900","ROYERSFORD","PA",19468,40.1976315150001,-75.5206616899999,76,"70 BUCKWALTER ROAD SUITE 900, ROYERSFORD, PA, 19468","Match","Exact","70 BUCKWALTER RD, ROYERSFORD, PA, 19468",135065565,"R"
274577,"70 BUFFINGTON RD","ASTON","PA",19014,39.849406479,-75.4280341799999,77,"70 BUFFINGTON RD, ASTON, PA, 19014","Match","Exact","70 BUFFINGTON RD, ASTON, PA, 19014",134899243,"R"
274578,"70 BUSH ST","ASHLAND","OR",97520,42.199697459,-122.718251674,78,"70 BUSH ST, ASHLAND, OR, 97520","Match","Exact","70 BUSH ST, ASHLAND, OR, 97520",155521642,"R"
274579,"70 BUSH ST","BROOKLYN","AE",11231,NA,NA,79,"70 BUSH ST, BROOKLYN, AE, 11231","No_Match",NA,NA,NA,NA
274580,"70 BUTTERFIELD TERRACE","AMHERST","MA",1003,42.3872032580001,-72.520631507,80,"70 BUTTERFIELD TERRACE, AMHERST, MA, 1003","Match","Exact","70 BUTTERFIELD TER, AMHERST, MA, 01003",637207890,"L"
274581,"70 CALHOUN STREET","BATTLE CREEK","MI",49017,42.3241063510001,-85.179300143,81,"70 CALHOUN STREET, BATTLE CREEK, MI, 49017","Match","Exact","70 CALHOUN ST, BATTLE CREEK, MI, 49017",11714026,"R"
274582,"70 CALIFORNIA","HIGHLAND PARK","MI",48203,42.3961838980001,-83.0878790959999,82,"70 CALIFORNIA, HIGHLAND PARK, MI, 48203","Match","Non_Exact","70 CALIFORNIA ST, HIGHLAND PARK, MI, 48203",95463744,"R"
274583,"70 CAMBRIDGE WAY","WEST WINDSOR","NJ",8550,40.2867409460001,-74.614592264,83,"70 CAMBRIDGE WAY, WEST WINDSOR, NJ, 8550","Match","Exact","70 CAMBRIDGE WAY, WEST WINDSOR, NJ, 08550",60187026,"R"
274584,"70 CARTERET ST","PROVIDENCE","RI",2908,41.847344213,-71.435685586,84,"70 CARTERET ST, PROVIDENCE, RI, 2908","Match","Exact","70 CARTERET ST, PROVIDENCE, RI, 02908",47458318,"L"
274585,"70 CEDAR HILL DRIVE","YAKIMA","WA",98908,46.6418881390001,-120.576685489,85,"70 CEDAR HILL DRIVE, YAKIMA, WA, 98908","Match","Exact","70 CEDAR HILL DR, YAKIMA, WA, 98908",184933473,"R"
274586,"70 CENTER STREET","HYANNIS","MA",2601,41.655853791,-70.281649413,86,"70 CENTER STREET, HYANNIS, MA, 2601","Match","Exact","70 CENTER ST, HYANNIS, MA, 02601",121627639,"R"
274587,"70 CHADWICK STREET","PATERSON","NJ",7503,40.9024032990001,-74.168796968,87,"70 CHADWICK STREET, PATERSON, NJ, 7503","Match","Exact","70 CHADWICK ST, PATERSON, NJ, 07503",65265200,"R"
274588,"70 CHAPEL PLACE","AMSTERDAM","NY",12010,42.9551524410001,-74.1985278509999,88,"70 CHAPEL PLACE, AMSTERDAM, NY, 12010","Match","Exact","70 CHAPEL PL, AMSTERDAM, NY, 12010",18615985,"L"
274589,"70 CHARLES STREET","BUCKHANNON","WV",26201,38.971660748,-80.233540101,89,"70 CHARLES STREET, BUCKHANNON, WV, 26201","Match","Exact","70 CHARLES ST, BUCKHANNON, WV, 26201",616116007,"R"
274590,"70 CHEROKEE TRAIL","HOSCHTON","GA",30548,34.0660432240001,-83.7201433339999,90,"70 CHEROKEE TRAIL, HOSCHTON, GA, 30548","Match","Exact","70 CHEROKEE TRL, HOSCHTON, GA, 30548",619862723,"R"
274591,"70 CLARK ST APT 6A","BROOKYLN","NY",11201,40.697715503,-73.9939805129999,91,"70 CLARK ST APT 6A, BROOKYLN, NY, 11201","Match","Non_Exact","70 CLARK ST, BROOKLYN, NY, 11201",59074922,"R"
274592,"70 CLINTON PLAZA","CLINTON","IL",61727,40.148365874,-88.975838052,92,"70 CLINTON PLAZA, CLINTON, IL, 61727","Match","Exact","70 CLINTON PLZ, CLINTON, IL, 61727",20509515,"R"
274593,"70 COBBLEHILL MEADOWS","BARRE","VT",5641,44.188315506,-72.47080661,93,"70 COBBLEHILL MEADOWS, BARRE, VT, 5641","Match","Non_Exact","70 COBBLE HILL MEADOWS, BARRE, VT, 05641",136675703,"L"
274594,"70 COBBLESTONE LANE","LE CLAIRE","IA",52753,41.59442009,-90.392230829,94,"70 COBBLESTONE LANE, LE CLAIRE, IA, 52753","Match","Exact","70 COBBLESTONE LN, LE CLAIRE, IA, 52753",652075374,"L"
274595,"70 COLUMBIA DR","AMHERST","MA",1002,42.3540755940001,-72.525502694,95,"70 COLUMBIA DR, AMHERST, MA, 1002","Match","Exact","70 COLUMBIA DR, AMHERST, MA, 01002",39868453,"R"
274596,"70 CONCORD RD","BILLERICA","MA",1821,42.5534105290001,-71.271620238,96,"70 CONCORD RD, BILLERICA, MA, 1821","Match","Exact","70 CONCORD RD, BILLERICA, MA, 01821",86897100,"L"
274597,"70 CONCORD ROAD","BILLERICA","MA",1821,42.5534105290001,-71.271620238,97,"70 CONCORD ROAD, BILLERICA, MA, 1821","Match","Exact","70 CONCORD RD, BILLERICA, MA, 01821",86897100,"L"
274598,"70 CONSTITUTION AVE UNIT 227","PORTSMOUTH","NH",3801,43.034649474,-70.785750348,98,"70 CONSTITUTION AVE UNIT 227, PORTSMOUTH, NH, 3801","Match","Exact","70 CONSTITUTION AVE, PORTSMOUTH, NH, 03801",113666928,"L"
274599,"70 CORIANDER DRIVE","PRINCETON","NJ",8540,40.389612303,-74.5879502939999,99,"70 CORIANDER DRIVE, PRINCETON, NJ, 8540","Match","Exact","70 CORIANDER DR, PRINCETON, NJ, 08540",60318793,"R"
274600,"70 COTTAGE ST","CHELSEA","MA",2150,42.3908262680001,-71.029963298,100,"70 COTTAGE ST, CHELSEA, MA, 2150","Match","Exact","70 COTTAGE ST, CHELSEA, MA, 02150",85711259,"L"
274601,"70 COUNTRY CLUB DR","BLOOMINGDALE","IL",60108,NA,NA,101,"70 COUNTRY CLUB DR, BLOOMINGDALE, IL, 60108","No_Match",NA,NA,NA,NA
274602,"70 COURT STREET BOX 165","AURORA","NY",13026,42.756560601,-76.7018715579999,102,"70 COURT STREET BOX 165, AURORA, NY, 13026","Match","Exact","70 COURT ST, AURORA, NY, 13026",33511872,"R"
274603,"70 COURTYARD CIRCLE","SANTA ROSA BEACH","FL",32459,30.3582218190001,-86.2452815679999,103,"70 COURTYARD CIRCLE, SANTA ROSA BEACH, FL, 32459","Match","Exact","70 COURTYARD CIR, SANTA ROSA BEACH, FL, 32459",634846874,"L"
274604,"70 COVENTRY LN","TRUMBULL","CT",6611,41.2942769520001,-73.251240853,104,"70 COVENTRY LN, TRUMBULL, CT, 6611","Match","Exact","70 COVENTRY LN, TRUMBULL, CT, 06611",3276626,"R"
274605,"70 CREEK DRIVE","MILLSBORO","DE",19966,38.6420238000001,-75.1623597509999,105,"70 CREEK DRIVE, MILLSBORO, DE, 19966","Match","Exact","70 CREEK DR, MILLSBORO, DE, 19966",106103460,"L"
274606,"70 CREEMER AVE","ISELIN","NJ",8830,40.5679188770001,-74.311669834,106,"70 CREEMER AVE, ISELIN, NJ, 8830","Match","Exact","70 CREEMER AVE, ISELIN, NJ, 08830",60362122,"L"
274607,"70 CROSS ROAD","WATERFORD","CT",6385,41.3620488880001,-72.164407683,107,"70 CROSS ROAD, WATERFORD, CT, 6385","Match","Exact","70 CROSS RD, WATERFORD, CT, 06385",56861974,"L"
274608,"70 CRYSTAL STREET","ELMONT","NY",11003,40.693485545,-73.715263211,108,"70 CRYSTAL STREET, ELMONT, NY, 11003","Match","Exact","70 CRYSTAL ST, ELMONT, NY, 11003",147667882,"R"
274609,"70 CYPRESS POINT LANE","JACKSON","NJ",8527,40.0982640820001,-74.2913229759999,109,"70 CYPRESS POINT LANE, JACKSON, NJ, 8527","Match","Exact","70 CYPRESS POINT LN, JACKSON, NJ, 08527",627785347,"R"
274610,"70 DAHILL RD APT 1R","BROOKLYN","NY",11218,40.645691082,-73.981048549,110,"70 DAHILL RD APT 1R, BROOKLYN, NY, 11218","Match","Exact","70 DAHILL RD, BROOKLYN, NY, 11218",59080465,"R"
274611,"70 DEERFIELD DRIVE","FRANKLIN","NJ",7416,41.133348375,-74.616339748,111,"70 DEERFIELD DRIVE, FRANKLIN, NJ, 7416","Match","Exact","70 DEERFIELD DR, FRANKLIN, NJ, 07416",97995912,"R"
274612,"70 DEVON ROAD","BLOOMFIELD HILLS","MI",48302,42.602341827,-83.267442172,112,"70 DEVON ROAD, BLOOMFIELD HILLS, MI, 48302","Match","Exact","70 DEVON RD, BLOOMFIELD HILLS, MI, 48302",69706903,"R"
274613,"70 DUSTY RD","HONESDALE","PA",18431,41.6033297650001,-75.277719588,113,"70 DUSTY RD, HONESDALE, PA, 18431","Match","Exact","70 DUSTY RD, HONESDALE, PA, 18431",140166397,"R"
274614,"70 E 10 ST APT 8C","NEW YORK","NY",10003,40.731322703,-73.9904758609999,114,"70 E 10 ST APT 8C, NEW YORK, NY, 10003","Match","Non_Exact","70 E 10TH ST, NEW YORK, NY, 10003",59653593,"R"
274615,"70 E LAKE ST STE 1220","CHICAGO","IL",60601,41.8857538120001,-87.629008934,115,"70 E LAKE ST STE 1220, CHICAGO, IL, 60601","Match","Non_Exact","70 W LAKE ST, CHICAGO, IL, 60601",111768756,"R"
274616,"70 E LAKE STREET SUITE 1220","CHICAGO","IL",60601,41.8857538120001,-87.629008934,116,"70 E LAKE STREET SUITE 1220, CHICAGO, IL, 60601","Match","Non_Exact","70 W LAKE ST, CHICAGO, IL, 60601",111768756,"R"
274617,"70 E MONTECITO AVE","SIERRA MADRE","CA",91024,34.163110219,-118.051076711,117,"70 E MONTECITO AVE, SIERRA MADRE, CA, 91024","Match","Exact","70 E MONTECITO AVE, SIERRA MADRE, CA, 91024",142741151,"R"
274618,"70 E SUNRISE HIGHWAY","VALLEY STREAM","NY",11581,40.658938339,-73.696779621,118,"70 E SUNRISE HIGHWAY, VALLEY STREAM, NY, 11581","Match","Exact","70 E SUNRISE HWY, VALLEY STREAM, NY, 11581",638238464,"L"
274619,"70 EAST 1ST STREET SUITE 202","CHRISTIANSBURG","VA",24073,NA,NA,119,"70 EAST 1ST STREET SUITE 202, CHRISTIANSBURG, VA, 24073","No_Match",NA,NA,NA,NA
274620,"70 EAST HWY33","CHOCOWINITY","NC",27817,NA,NA,120,"70 EAST HWY33, CHOCOWINITY, NC, 27817","No_Match",NA,NA,NA,NA
274621,"70 EAST RENFROE RD","TALLADEGA","AL",35160,33.4273907790001,-86.134488898,121,"70 EAST RENFROE RD, TALLADEGA, AL, 35160","Match","Exact","70 E RENFROE RD, TALLADEGA, AL, 35160",66966755,"L"
274622,"70 EAST SUNRISE HWY SUITE 500/569","VALLEY STREAM","NY",11581,40.6589432270001,-73.696797402,122,"70 EAST SUNRISE HWY SUITE 500/569, VALLEY STREAM, NY, 11581","Match","Exact","70 E SUNRISE HWY, VALLEY STREAM, NY, 11581",638238464,"L"
274623,"70 ELGIN ST","NEWTON","MA",2459,42.3288207080001,-71.1880347489999,123,"70 ELGIN ST, NEWTON, MA, 2459","Match","Exact","70 ELGIN ST, NEWTON, MA, 02459",86866750,"R"
274624,"70 ELLISVILLE GREEN","PLYMOUTH","MA",2360,41.8496981540001,-70.541116373,124,"70 ELLISVILLE GREEN, PLYMOUTH, MA, 2360","Match","Exact","70 ELLISVILLE GREEN, PLYMOUTH, MA, 02360",87456356,"L"
274625,"70 ERIE ROAD","COLUMBUS","OH",43214,40.038026186,-83.0195661389999,125,"70 ERIE ROAD, COLUMBUS, OH, 43214","Match","Exact","70 ERIE RD, COLUMBUS, OH, 43214",218693650,"R"
274626,"70 EYE STREET SE SUITE 117","WASHINGTON","DC",20003,NA,NA,126,"70 EYE STREET SE SUITE 117, WASHINGTON, DC, 20003","No_Match",NA,NA,NA,NA
274627,"70 FERRIS AVENUE","WHITE PLAINS","NY",10603,41.0377019200001,-73.775111399,127,"70 FERRIS AVENUE, WHITE PLAINS, NY, 10603","Match","Non_Exact","70 FERRIS AVE, WHITE PLAINS, NY, 10601",139741457,"L"
274628,"70 FIVE TREES","ASPEN","CO",81611,39.184685577,-106.844234499,128,"70 FIVE TREES, ASPEN, CO, 81611","Match","Non_Exact","70 FIVE TREES LN, ASPEN, CO, 81611",105965507,"L"
274629,"70 FLAXMAN COVE RD","SYLVA","NC",28779,35.370748758,-83.202093724,129,"70 FLAXMAN COVE RD, SYLVA, NC, 28779","Match","Exact","70 FLAXMAN COVE, SYLVA, NC, 28779",608012133,"L"
274630,"70 FOREST AVE","PRINCETON","NJ",8540,40.4388719350001,-74.584667805,130,"70 FOREST AVE, PRINCETON, NJ, 8540","Match","Exact","70 FOREST AVE, PRINCETON, NJ, 08540",59943344,"R"
274631,"70 FOREST HILLS WAY","CEDAR GROVE","NJ",7009,40.838830554,-74.22140573,131,"70 FOREST HILLS WAY, CEDAR GROVE, NJ, 7009","Match","Exact","70 FOREST HILLS WAY, CEDAR GROVE, NJ, 07009",63488916,"R"
274632,"70 FORREST AVENUE","PORTLAND","ME",4101,43.656335815,-70.2647775619999,132,"70 FORREST AVENUE, PORTLAND, ME, 4101","Match","Non_Exact","70 FOREST AVE, PORTLAND, ME, 04101",635831616,"L"
274633,"70 FRANCES SHIREY WAY","NEWNAN","GA",30263,33.382210163,-84.87415917,133,"70 FRANCES SHIREY WAY, NEWNAN, GA, 30263","Match","Exact","70 FRANCES SHIREY WAY, NEWNAN, GA, 30263",9331471,"L"
274634,"70 FRICKER STREET","PROVIDENCE","RI",2919,NA,NA,134,"70 FRICKER STREET, PROVIDENCE, RI, 2919","No_Match",NA,NA,NA,NA
274635,"70 FULLER ST","NEW LONDON","CT",6320,41.3551215800001,-72.115291245,135,"70 FULLER ST, NEW LONDON, CT, 6320","Match","Exact","70 FULLER ST, NEW LONDON, CT, 06320",56850429,"L"
274636,"70 FULTON STREET NUMBER 2","NEW YORK","NY",10038,40.7089309190001,-74.0052852319999,136,"70 FULTON STREET NUMBER 2, NEW YORK, NY, 10038","Match","Exact","70 FULTON ST, NEW YORK, NY, 10038",59660523,"L"
274637,"70 GALLOWAE","WATCHUNG","NJ",7069,40.638652687,-74.447739691,137,"70 GALLOWAE, WATCHUNG, NJ, 7069","Match","Exact","70 GALLOWAE, WATCHUNG, NJ, 07069",59953308,"R"
274638,"70 GARNER SPRINGS CT","COLUMBIA","SC",29209,33.9774490520001,-80.949501765,138,"70 GARNER SPRINGS CT, COLUMBIA, SC, 29209","Match","Non_Exact","70 GARNERS SPRING CT, COLUMBIA, SC, 29209",647386740,"R"
274639,"70 GLADYS STREET","SAN FRANCISCO","CA",94110,37.7391573800001,-122.423001873,139,"70 GLADYS STREET, SAN FRANCISCO, CA, 94110","Match","Exact","70 GLADYS ST, SAN FRANCISCO, CA, 94110",192285235,"R"
274640,"70 GLENDALE ROAD","LATHAM","NY",12110,42.7403485770001,-73.753796898,140,"70 GLENDALE ROAD, LATHAM, NY, 12110","Match","Exact","70 GLENDALE RD, LATHAM, NY, 12110",18361528,"L"
274641,"70 GRAND AVENUE PO BOX 4154","RIVER EDGE","NJ",7661,40.911118231,-74.036483597,141,"70 GRAND AVENUE PO BOX 4154, RIVER EDGE, NJ, 7661","Match","Exact","70 GRAND AVE, RIVER EDGE, NJ, 07661",64384708,"R"
274642,"70 GREENWOOD AVENUE","WAKEFIELD","MA",1880,42.4837956170001,-71.0637432079999,142,"70 GREENWOOD AVENUE, WAKEFIELD, MA, 1880","Match","Exact","70 GREENWOOD AVE, WAKEFIELD, MA, 01880",86871320,"L"
274643,"70 GREENWOOD STREET","WAKEFIELD","MA",1880,42.4783437620001,-71.0701891429999,143,"70 GREENWOOD STREET, WAKEFIELD, MA, 1880","Match","Exact","70 GREENWOOD ST, WAKEFIELD, MA, 01880",87105750,"L"
274644,"70 HANNAH DRIVE","SOMERSET","MA",2726,41.77534365,-71.143741167,144,"70 HANNAH DRIVE, SOMERSET, MA, 2726","Match","Exact","70 HANNAH DR, SOMERSET, MA, 02726",636779657,"L"
274645,"70 HARRISON ST","SUNBURY","OH",43074,40.245108686,-82.857202193,145,"70 HARRISON ST, SUNBURY, OH, 43074","Match","Exact","70 HARRISON ST, SUNBURY, OH, 43074",24587289,"L"
274646,"70 HARRY WELLS ROAD","SAUGERTIES","NY",12477,42.108208131,-74.013398138,146,"70 HARRY WELLS ROAD, SAUGERTIES, NY, 12477","Match","Exact","70 HARRY WELLS RD, SAUGERTIES, NY, 12477",41860870,"R"
274647,"70 HAYNES LANE","BROWNSVILLE","TX",78521,25.942500867,-97.472434748,147,"70 HAYNES LANE, BROWNSVILLE, TX, 78521","Match","Exact","70 HAYNES LN, BROWNSVILLE, TX, 78521",89966501,"R"
274648,"70 HAZELTON ST","MATTAPAN","MA",2126,42.2808128820001,-71.096400393,148,"70 HAZELTON ST, MATTAPAN, MA, 2126","Match","Exact","70 HAZELTON ST, MATTAPAN, MA, 02126",85705030,"L"
274649,"70 HERITAGE WAY","HANOVER","MA",2339,42.1089912670001,-70.854050581,149,"70 HERITAGE WAY, HANOVER, MA, 2339","Match","Exact","70 HERITAGE WAY, HANOVER, MA, 02339",87449262,"L"
274650,"70 HIDDEN VALLEY DRIVE","NEWARK","DE",19711,39.6988508580001,-75.7851434569999,150,"70 HIDDEN VALLEY DRIVE, NEWARK, DE, 19711","Match","Exact","70 HIDDEN VALLEY DR, NEWARK, DE, 19711",187273996,"L"
274651,"70 HIGHLANDER DRIVE","WEST MILFORD","NJ",7480,41.0811763670001,-74.3863028709999,151,"70 HIGHLANDER DRIVE, WEST MILFORD, NJ, 7480","Match","Exact","70 HIGHLANDER DR, WEST MILFORD, NJ, 07480",65253374,"L"
274652,"70 HIGHLANDS FOREST LANE","OXFORD","GA",30054,33.6837282380001,-83.9141665509999,152,"70 HIGHLANDS FOREST LANE, OXFORD, GA, 30054","Match","Exact","70 HIGHLANDS FOREST LN, OXFORD, GA, 30054",23640296,"R"
274653,"70 HODGES CROSS ROAD","NORTH ADAMS","MA",1247,42.665124301,-73.099609807,153,"70 HODGES CROSS ROAD, NORTH ADAMS, MA, 1247","Match","Exact","70 HODGES CROSS RD, NORTH ADAMS, MA, 01247",3916932,"L"
274654,"70 HOFFMAN ROAD","PORT MURRAY","NJ",7865,40.787403897,-74.921792818,154,"70 HOFFMAN ROAD, PORT MURRAY, NJ, 7865","Match","Exact","70 HOFFMAN RD, PORT MURRAY, NJ, 07865",98090770,"L"
274655,"70 HOLLYHOCK DR","MANCHESTER","PA",17345,40.075814413,-76.7158306009999,155,"70 HOLLYHOCK DR, MANCHESTER, PA, 17345","Match","Exact","70 HOLLYHOCK DR, MANCHESTER, PA, 17345",646975058,"L"
274656,"70 HOOK RD","WESTMINSTER","MD",21157,39.545679756,-76.995786945,156,"70 HOOK RD, WESTMINSTER, MD, 21157","Match","Exact","70 HOOK RD, WESTMINSTER, MD, 21157",61768359,"L"
274657,"70 HOUNDS CHASE DR","HENDERSONVILLE","NC",28791,35.362828662,-82.499005068,157,"70 HOUNDS CHASE DR, HENDERSONVILLE, NC, 28791","Match","Exact","70 HOUNDS CHASE DR, HENDERSONVILLE, NC, 28791",152277400,"R"
274658,"70 HOWARD ST","HAVERHILL","MA",1830,42.784879404,-71.074357418,158,"70 HOWARD ST, HAVERHILL, MA, 1830","Match","Exact","70 HOWARD ST, HAVERHILL, MA, 01830",86617629,"L"
274659,"70 INDIAN BLVD","POTTSBORO","TX",75076,33.8908558910001,-96.6514639389999,159,"70 INDIAN BLVD, POTTSBORO, TX, 75076","Match","Exact","70 INDIAN BLVD, POTTSBORO, TX, 75076",645589535,"R"
274660,"70 JAMES STREET SUITE 205","WORCESTER","MA",1603,42.2330195390001,-71.849631363,160,"70 JAMES STREET SUITE 205, WORCESTER, MA, 1603","Match","Exact","70 JAMES ST, WORCESTER, MA, 01603",40008113,"R"
274661,"70 JAMES STREET SUITE 220B","WORCESTER","MA",1603,42.2330195390001,-71.849631363,161,"70 JAMES STREET SUITE 220B, WORCESTER, MA, 1603","Match","Exact","70 JAMES ST, WORCESTER, MA, 01603",40008113,"R"
274662,"70 JANEBAR CIRCLE","PLYMOUTH","MA",2360,41.80471849,-70.551652566,162,"70 JANEBAR CIRCLE, PLYMOUTH, MA, 2360","Match","Exact","70 JANEBAR CIR, PLYMOUTH, MA, 02360",87474893,"L"
274663,"70 JULIUS ST","HARTFORD","CT",6114,41.7433922660001,-72.6858118329999,163,"70 JULIUS ST, HARTFORD, CT, 6114","Match","Exact","70 JULIUS ST, HARTFORD, CT, 06114",3515880,"L"
274664,"70 KAUTZ RD","STROUDSBURG","PA",18360,40.9767136610001,-75.21074613,164,"70 KAUTZ RD, STROUDSBURG, PA, 18360","Match","Exact","70 KAUTZ RD, STROUDSBURG, PA, 18360",136768802,"R"
274665,"70 KIMBALL AVE","SOUTH BURLINGTON","VT",5403,44.4595674620001,-73.153625387,165,"70 KIMBALL AVE, SOUTH BURLINGTON, VT, 5403","Match","Exact","70 KIMBALL AVE, S BURLINGTON, VT, 05403",135859096,"L"
274666,"70 KING GEORGE QUAY","CHESAPEAKE","VA",23325,36.7935619780001,-76.2449765539999,166,"70 KING GEORGE QUAY, CHESAPEAKE, VA, 23325","Match","Exact","70 KING GEORGE QUAY, CHESAPEAKE, VA, 23325",121776056,"L"
274667,"70 KIPP AVENUE","LODI","NJ",7644,40.8684637530001,-74.08591,167,"70 KIPP AVENUE, LODI, NJ, 7644","Match","Exact","70 KIPP AVE, LODI, NJ, 07644",64392970,"R"
274668,"70 LA SALLE ST 6C","NEW YORK","NY",10027,40.8127778240001,-73.957238992,168,"70 LA SALLE ST 6C, NEW YORK, NY, 10027","Match","Non_Exact","70 LA SALLE ST, NEW YORK, NY, 10027",610217344,"L"
274669,"70 LACEY OAK LANE","LOGANVILLE","GA",30052,33.8744703840001,-83.9288530759999,169,"70 LACEY OAK LANE, LOGANVILLE, GA, 30052","Match","Exact","70 LACEY OAK LN, LOGANVILLE, GA, 30052",88914713,"L"
274670,"70 LAKE DRIVE","LIVINGSTON","MT",59047,45.653892162,-110.759514297,170,"70 LAKE DRIVE, LIVINGSTON, MT, 59047","Match","Exact","70 LAKE DR, LIVINGSTON, MT, 59047",166788515,"R"
274671,"70 LAKE STREET","BRIDGETON","NJ",8302,39.4321101890001,-75.2409912699999,171,"70 LAKE STREET, BRIDGETON, NJ, 8302","Match","Exact","70 LAKE ST, BRIDGETON, NJ, 08302",174107703,"L"
274672,"70 LAMBRIG WAY","COLORADO SPRINGS","CO",80906,38.750639704,-104.831424176,172,"70 LAMBRIG WAY, COLORADO SPRINGS, CO, 80906","Match","Exact","70 LAMBRIG WAY, COLORADO SPRINGS, CO, 80906",105550860,"L"
274673,"70 LANCES LANE","COVINGTON","GA",30016,33.542458121,-83.9767973899999,173,"70 LANCES LANE, COVINGTON, GA, 30016","Match","Non_Exact","70 LANCE'S LN, COVINGTON, GA, 30016",618463542,"R"
274674,"70 LARCH STREET","ROCHESTER","NY",14612,43.2643587630001,-77.620311225,174,"70 LARCH STREET, ROCHESTER, NY, 14612","Match","Exact","70 LARCH ST, ROCHESTER, NY, 14612",14526563,"L"
274675,"70 LAUREL DRIVE","MAPLE SHADE","PA",8052,NA,NA,175,"70 LAUREL DRIVE, MAPLE SHADE, PA, 8052","No_Match",NA,NA,NA,NA
274676,"70 LELAND LANE","SOUTHAMPTON","NY",11968,40.890347687,-72.379028738,176,"70 LELAND LANE, SOUTHAMPTON, NY, 11968","Match","Exact","70 LELAND LN, SOUTHAMPTON, NY, 11968",643157582,"R"
274677,"70 LENOX AVENUE APT 8-A","NEW YORK","NY",10026,40.800303151,-73.9509309759999,177,"70 LENOX AVENUE APT 8-A, NEW YORK, NY, 10026","Match","Exact","70 LENOX AVE, NEW YORK, NY, 10026",59657732,"R"
274678,"70 LIBERTY DRIVE","LANGHORNE","PA",19047,40.1781745050001,-74.8687962399999,178,"70 LIBERTY DRIVE, LANGHORNE, PA, 19047","Match","Exact","70 LIBERTY DR, LANGHORNE, PA, 19047",134804160,"L"
274679,"70 LINTNER ROAD","BLAIRSVILLE","PA",15717,40.4472067880001,-79.23168277,179,"70 LINTNER ROAD, BLAIRSVILLE, PA, 15717","Match","Exact","70 LINTNER RD, BLAIRSVILLE, PA, 15717",66295778,"L"
274680,"70 LITTLE WEST STREET","NEW YORK","NY",10280,40.7069614820001,-74.0165515739999,180,"70 LITTLE WEST STREET, NEW YORK, NY, 10280","Match","Non_Exact","70 LITTLE WEST ST, NEW YORK, NY, 10004",633570083,"L"
274681,"70 LOCUST AVENUE B403","NEW ROCHELLE","NY",10801,40.9079430350001,-73.7778388469999,181,"70 LOCUST AVENUE B403, NEW ROCHELLE, NY, 10801","Match","Exact","70 LOCUST AVE, NEW ROCHELLE, NY, 10801",653443365,"L"
274682,"70 LONESOME PINE TRAIL","GREENVILLE","TN",37745,36.1732394700001,-82.850427903,182,"70 LONESOME PINE TRAIL, GREENVILLE, TN, 37745","Match","Non_Exact","70 LONESOME PINE TRL, GREENEVILLE, TN, 37745",632866288,"L"
274683,"70 LONSDALE STREET","WEST WARWICK","RI",2893,41.680064788,-71.518353652,183,"70 LONSDALE STREET, WEST WARWICK, RI, 2893","Match","Exact","70 LONSDALE ST, WEST WARWICK, RI, 02893",159174089,"L"
274684,"70 LOVELAND HILL ROAD","VERNON","CT",6066,41.8571287090001,-72.4824800709999,184,"70 LOVELAND HILL ROAD, VERNON, CT, 6066","Match","Exact","70 LOVELAND HILL RD, VERNON, CT, 06066",635785893,"R"
274685,"70 MACON ST SUITE 2","BROOKLYN","NY",11216,40.6812256210001,-73.948353888,185,"70 MACON ST SUITE 2, BROOKLYN, NY, 11216","Match","Exact","70 MACON ST, BROOKLYN, NY, 11216",59078926,"R"
274686,"70 MADISON AVENUE","WAKEFIELD","MA",1880,42.479805325,-71.0617841229999,186,"70 MADISON AVENUE, WAKEFIELD, MA, 1880","Match","Exact","70 MADISON AVE, WAKEFIELD, MA, 01880",86871385,"L"
274687,"70 MAIN STREET SUITE 23","Vint Hill Farms","VA",20186,38.712878318,-77.7936803649999,187,"70 MAIN STREET SUITE 23, Vint Hill Farms, VA, 20186","Match","Non_Exact","70 MAIN ST, WARRENTON, VA, 20186",146258466,"L"
274688,"70 MAIN STREET SUITE 23","WARRENTON","VA",20187,38.712878318,-77.7936803649999,188,"70 MAIN STREET SUITE 23, WARRENTON, VA, 20187","Match","Non_Exact","70 MAIN ST, WARRENTON, VA, 20186",146258466,"L"
274689,"70 MAIN STREET SUITE 52","WARRENTON","VA",20186,38.712878318,-77.7936803649999,189,"70 MAIN STREET SUITE 52, WARRENTON, VA, 20186","Match","Exact","70 MAIN ST, WARRENTON, VA, 20186",146258466,"L"
274690,"70 MAPLE ST","SUMMIT","NJ",7901,40.7154658900001,-74.359672836,190,"70 MAPLE ST, SUMMIT, NJ, 7901","Match","Exact","70 MAPLE ST, SUMMIT, NJ, 07901",60565347,"L"
274691,"70 MARTENSE ST","BROOKLYN","NY",11226,40.6513278850001,-73.956662056,191,"70 MARTENSE ST, BROOKLYN, NY, 11226","Match","Exact","70 MARTENSE ST, BROOKLYN, NY, 11226",59096145,"R"
274692,"70 MCCORMICK WAY","LINCOLN UNIVERSITY","PA",19352,39.7605949360001,-75.897787551,192,"70 MCCORMICK WAY, LINCOLN UNIVERSITY, PA, 19352","Match","Exact","70 MCCORMICK WAY, LINCOLN UNIV, PA, 19352",179557859,"R"
274693,"70 MEADOWVIEW CTR SUITE 200","KANKAKEE","IL",60901,41.135036776,-87.8757181989999,193,"70 MEADOWVIEW CTR SUITE 200, KANKAKEE, IL, 60901","Match","Exact","70 MEADOWVIEW CENTER, KANKAKEE, IL, 60901",635783893,"L"
274694,"70 MEREIDTH AVE","SAG HARBOR","NY",11963,40.9982613240001,-72.2778902479999,194,"70 MEREIDTH AVE, SAG HARBOR, NY, 11963","Match","Non_Exact","70 MEREDITH AVE, SAG HARBOR, NY, 11963",113960127,"L"
274695,"70 MILL ST","VINCENTOWN","NJ",8088,39.9369885350001,-74.754357113,195,"70 MILL ST, VINCENTOWN, NJ, 8088","Match","Exact","70 MILL ST, VINCENTOWN, NJ, 08088",134036119,"L"
274696,"70 MOHAWK DRIVE","NORTH BABYLON","NY",11703,40.736833587,-73.3169126299999,196,"70 MOHAWK DRIVE, NORTH BABYLON, NY, 11703","Match","Exact","70 MOHAWK DR, NORTH BABYLON, NY, 11703",113993040,"R"
274697,"70 MONTVALE ROAD","NEWTON","MA",2459,42.33519969,-71.184855796,197,"70 MONTVALE ROAD, NEWTON, MA, 2459","Match","Exact","70 MONTVALE RD, NEWTON, MA, 02459",86866696,"L"
274698,"70 MOORE DRIVE/PO BOX 153","RISON","AR",71665,NA,NA,198,"70 MOORE DRIVE/PO BOX 153, RISON, AR, 71665","Tie",NA,NA,NA,NA
274699,"70 MORNINGSIDE AVENUE UNIT 2A","YONKERS","NY",10702,40.9453967850001,-73.8875042,199,"70 MORNINGSIDE AVENUE UNIT 2A, YONKERS, NY, 10702","Match","Non_Exact","70 MORNINGSIDE AVE, YONKERS, NY, 10703",139743304,"R"
274700,"70 MORNINGSIDE DR NUMBER 3000","NEW YORK","NY",10027,40.8068344700001,-73.9588410169999,200,"70 MORNINGSIDE DR NUMBER 3000, NEW YORK, NY, 10027","Match","Exact","70 MORNINGSIDE DR, NEW YORK, NY, 10027",59655405,"L"
274701,"70 MUSIC SQUARE W APT 208","NASHVILLE","TN",37203,36.1478045800001,-86.7936012219999,201,"70 MUSIC SQUARE W APT 208, NASHVILLE, TN, 37203","Match","Exact","70 MUSIC SQ W, NASHVILLE, TN, 37203",97186347,"L"
274702,"70 N INDIANA AVE","ENGLEWOOD","FL",34223,26.9635771120001,-82.35302581,202,"70 N INDIANA AVE, ENGLEWOOD, FL, 34223","Match","Exact","70 N INDIANA AVE, ENGLEWOOD, FL, 34223",16365730,"L"
274703,"70 N JOACHIM STREET","MOBILE","AL",36602,30.6925955,-88.044508607,203,"70 N JOACHIM STREET, MOBILE, AL, 36602","Match","Exact","70 N JOACHIM ST, MOBILE, AL, 36602",61868081,"R"
274704,"70 NE 86TH ST","EL PORTAL","FL",33138,25.8535302970001,-80.195661462,204,"70 NE 86TH ST, EL PORTAL, FL, 33138","Match","Exact","70 NE 86TH ST, EL PORTAL, FL, 33138",116006144,"R"
274705,"70 NELSON STREET","BOSTON","MA",2124,42.2811135090001,-71.081901068,205,"70 NELSON STREET, BOSTON, MA, 2124","Match","Exact","70 NELSON ST, BOSTON, MA, 02124",85705736,"L"
274706,"70 NORWOOD AVE","MONTCLAIR","NJ",7043,40.8454217510001,-74.201650673,206,"70 NORWOOD AVE, MONTCLAIR, NJ, 7043","Match","Exact","70 NORWOOD AVE, MONTCLAIR, NJ, 07043",63494314,"L"
274707,"70 O STREET NW","WASHINGTON","DC",20001,38.908564885,-77.011339705,207,"70 O STREET NW, WASHINGTON, DC, 20001","Match","Exact","70 O ST NW, WASHINGTON, DC, 20001",652670777,"L"
274708,"70 OAKMONT CT","HAMPTON","GA",30228,33.398096507,-84.281728057,208,"70 OAKMONT CT, HAMPTON, GA, 30228","Match","Exact","70 OAKMONT CT, HAMPTON, GA, 30228",619927592,"R"
274709,"70 OAKSTONE WAY","AMERICAN CANYON","CA",94503,38.169064683,-122.242866487,209,"70 OAKSTONE WAY, AMERICAN CANYON, CA, 94503","Match","Exact","70 OAKSTONE WAY, AMERICAN CANYON, CA, 94503",67430256,"R"
274710,"70 OCEAN AVE","DEAL","NJ",7723,40.254417635,-73.992139041,210,"70 OCEAN AVE, DEAL, NJ, 7723","Match","Non_Exact","70 OCEAN LN, DEAL, NJ, 07723",90462304,"L"
274711,"70 OLD GRANGER ROAD","HIRAM","GA",30141,33.847900054,-84.7888417409999,211,"70 OLD GRANGER ROAD, HIRAM, GA, 30141","Match","Exact","70 OLD GRANGER RD, HIRAM, GA, 30141",17740906,"R"
274712,"70 OLD WESTBURY RD","OLD WESTBURY","NY",11568,40.776692047,-73.6029833759999,212,"70 OLD WESTBURY RD, OLD WESTBURY, NY, 11568","Match","Exact","70 OLD WESTBURY RD, OLD WESTBURY, NY, 11568",147825977,"L"
274713,"70 OLDE MAIN PLAZA","SAINT ALBANS","WV",25177,38.386042838,-81.837836137,213,"70 OLDE MAIN PLAZA, SAINT ALBANS, WV, 25177","Match","Exact","70 OLDE MAIN PLZ, SAINT ALBANS, WV, 25177",627968269,"R"
274714,"70 ONEIDA AVE","STATEN ISLAND","NY",10301,40.611696603,-74.0999177159999,214,"70 ONEIDA AVE, STATEN ISLAND, NY, 10301","Match","Exact","70 ONEIDA AVE, STATEN ISLAND, NY, 10301",59867100,"R"
274715,"70 ORANGE AVE","ELMWOOD PARK","NJ",7407,40.9208912510001,-74.126377502,215,"70 ORANGE AVE, ELMWOOD PARK, NJ, 7407","Match","Exact","70 ORANGE AVE, ELMWOOD PARK, NJ, 07407",64405990,"R"
274716,"70 ORCHARD DRIVE","MORGAN","PA",15064,40.3524486320001,-80.145893897,216,"70 ORCHARD DRIVE, MORGAN, PA, 15064","Match","Exact","70 ORCHARD DR, MORGAN, PA, 15064",51697992,"R"
274717,"70 PAMRAPO AVE APT 1","JERSEY CITY","NJ",7305,40.6923253900001,-74.099577568,217,"70 PAMRAPO AVE APT 1, JERSEY CITY, NJ, 7305","Match","Exact","70 PAMRAPO AVE, JERSEY CITY, NJ, 07305",59602940,"R"
274718,"70 PARKSIDE PL","CROSSVILLE","TN",38555,35.9712934610001,-85.024728029,218,"70 PARKSIDE PL, CROSSVILLE, TN, 38555","Match","Exact","70 PARKSIDE PL, CROSSVILLE, TN, 38555",620029151,"R"
274719,"70 PEARL STREET","WEYMOUTH","MA",2191,42.240117281,-70.948705232,219,"70 PEARL STREET, WEYMOUTH, MA, 2191","Match","Exact","70 PEARL ST, WEYMOUTH, MA, 02191",87252249,"L"
274720,"70 PENNSYLVANIA AVE","BROOKLYN","NY",11207,40.6764324920001,-73.897031623,220,"70 PENNSYLVANIA AVE, BROOKLYN, NY, 11207","Match","Exact","70 PENNSYLVANIA AVE, BROOKLYN, NY, 11207",59084644,"R"
274721,"70 PEPPERTREE LANE","NORTH CHARLESTON","SC",29420,32.92738974,-80.086423194,221,"70 PEPPERTREE LANE, NORTH CHARLESTON, SC, 29420","Match","Exact","70 PEPPERTREE LN, N CHARLESTON, SC, 29420",178464086,"R"
274722,"70 PERIMETER CTR E APT 1143","ATLANTA","GA",30346,NA,NA,222,"70 PERIMETER CTR E APT 1143, ATLANTA, GA, 30346","No_Match",NA,NA,NA,NA
274723,"70 PINEWOOD DRIVE","WILKES-BARRE","PA",18702,41.2900746060001,-75.7911982859999,223,"70 PINEWOOD DRIVE, WILKES-BARRE, PA, 18702","Match","Exact","70 PINEWOOD DR, WILKES BARRE, PA, 18702",80919076,"R"
274724,"70 PINEY WOODS RD","GRENADA","MS",38901,33.7925094010001,-89.721485178,224,"70 PINEY WOODS RD, GRENADA, MS, 38901","Match","Exact","70 PINEY WOODS RD, GRENADA, MS, 38901",7557389,"L"
274725,"70 PLANTATION DRIVE","CRANSTON","RI",2920,41.7615719930001,-71.452445728,225,"70 PLANTATION DRIVE, CRANSTON, RI, 2920","Match","Exact","70 PLANTATION DR, CRANSTON, RI, 02920",47470938,"L"
274726,"70 PLEASANT STREET","WATERVILLE","ME",4901,44.5536136810001,-69.634100027,226,"70 PLEASANT STREET, WATERVILLE, ME, 4901","Match","Exact","70 PLEASANT ST, WATERVILLE, ME, 04901",75464469,"L"
274727,"70 PONY EXPRESS TRAIL","LUBBOCK","TX",79404,33.532576299,-101.713170216,227,"70 PONY EXPRESS TRAIL, LUBBOCK, TX, 79404","Match","Exact","70 PONY EXPRESS TRL, LUBBOCK, TX, 79404",185258493,"R"
274728,"70 PONY EXPRESS TRL","LUBBOCK","TX",79404,33.532576299,-101.713170216,228,"70 PONY EXPRESS TRL, LUBBOCK, TX, 79404","Match","Exact","70 PONY EXPRESS TRL, LUBBOCK, TX, 79404",185258493,"R"
274729,"70 POPE ROAD","ACTON","MA",1720,42.481924308,-71.406841303,229,"70 POPE ROAD, ACTON, MA, 1720","Match","Exact","70 POPE RD, ACTON, MA, 01720",87118747,"L"
274730,"70 PUTNEY LANE","WALTHAM","MA",2452,42.40472415,-71.222907504,230,"70 PUTNEY LANE, WALTHAM, MA, 2452","Match","Exact","70 PUTNEY LN, WALTHAM, MA, 02452",87111025,"L"
274731,"70 QUAIL HOLLOW RD","GRIFFIN","GA",30224,33.197472804,-84.2212176199999,231,"70 QUAIL HOLLOW RD, GRIFFIN, GA, 30224","Match","Exact","70 QUAIL HOLLOW RD, GRIFFIN, GA, 30224",23763575,"R"
274732,"70 RACHEL VINCENT WAY","BUFFALO","NY",14216,42.9553335690001,-78.856329409,232,"70 RACHEL VINCENT WAY, BUFFALO, NY, 14216","Match","Exact","70 RACHEL VINCENT WAY, BUFFALO, NY, 14216",651552056,"L"
274733,"70 RAINTREE LANE","BOONES MILL","VA",24065,NA,NA,233,"70 RAINTREE LANE, BOONES MILL, VA, 24065","No_Match",NA,NA,NA,NA
274734,"70 REMSEN ST 9E","BROOKLYN","NY",11201,40.694388442,-73.995722175,234,"70 REMSEN ST 9E, BROOKLYN, NY, 11201","Match","Exact","70 REMSEN ST, BROOKLYN, NY, 11201",59074998,"R"
274735,"70 RIDGE SIDE CT","BURLINGTON","NC",27215,36.0717160660001,-79.546282431,235,"70 RIDGE SIDE CT, BURLINGTON, NC, 27215","Match","Exact","70 RIDGE SIDE CT, BURLINGTON, NC, 27215",612916832,"R"
274736,"70 RIVER NORTH COURT","COVINGTON","GA",30016,33.5824612590001,-83.913817023,236,"70 RIVER NORTH COURT, COVINGTON, GA, 30016","Match","Exact","70 RIVER NORTH CT, COVINGTON, GA, 30016",23620736,"R"
274737,"70 S 100 E","PLEASANT GROVE","UT",84062,40.362922423,-111.738835396,237,"70 S 100 E, PLEASANT GROVE, UT, 84062","Match","Exact","70 S 100 E, PLEASANT GROVE, UT, 84062",134203369,"R"
274738,"70 S 13TH STREET APT 2","NEWARK","NJ",7107,NA,NA,238,"70 S 13TH STREET APT 2, NEWARK, NJ, 7107","Tie",NA,NA,NA,NA
274739,"70 S 26TH STREET","WYANDANCH","NY",11798,40.7459234470001,-73.368332379,239,"70 S 26TH STREET, WYANDANCH, NY, 11798","Match","Exact","70 S 26TH ST, WYANDANCH, NY, 11798",113974740,"L"
274740,"70 S 4TH STREET APT 305","MEMPHIS","TN",38103,NA,NA,240,"70 S 4TH STREET APT 305, MEMPHIS, TN, 38103","Tie",NA,NA,NA,NA
274741,"70 S 8TH ST","NEWARK","NJ",7107,40.7479912490001,-74.194891623,241,"70 S 8TH ST, NEWARK, NJ, 7107","Match","Exact","70 S 8TH ST, NEWARK, NJ, 07107",63465647,"L"
274742,"70 S VAL VISTA A3-201","GILBERT","AZ",85296,NA,NA,242,"70 S VAL VISTA A3-201, GILBERT, AZ, 85296","No_Match",NA,NA,NA,NA
274743,"70 S WINOOSKI AVE STE 1W","BURLINGTON","VT",5401,NA,NA,243,"70 S WINOOSKI AVE STE 1W, BURLINGTON, VT, 5401","Tie",NA,NA,NA,NA
274744,"70 SAND HILL ROAD","ASHEVILLE","NC",28804,35.5776056920001,-82.597231751,244,"70 SAND HILL ROAD, ASHEVILLE, NC, 28804","Match","Non_Exact","70 SAND HILL RD, ASHEVILLE, NC, 28806",36843092,"L"
274745,"70 SANDHILL LANE","MILLRY","AL",36558,31.661035326,-88.459713028,245,"70 SANDHILL LANE, MILLRY, AL, 36558","Match","Exact","70 SANDHILL LN, MILLRY, AL, 36558",650810237,"R"
274746,"70 SANDY POINT","GOREVILLE","IL",62939,37.592687621,-88.9332806909999,246,"70 SANDY POINT, GOREVILLE, IL, 62939","Match","Exact","70 SANDY PT, GOREVILLE, IL, 62939",5682665,"R"
274747,"70 SCOTT DRIVE","BATESVILLE","AR",72501,35.6996335920001,-91.626314464,247,"70 SCOTT DRIVE, BATESVILLE, AR, 72501","Match","Exact","70 SCOTT DR, BATESVILLE, AR, 72501",606555168,"L"
274748,"70 SCRIVENS STREET","TOTOWA","NJ",7512,40.905937097,-74.2047846629999,248,"70 SCRIVENS STREET, TOTOWA, NJ, 7512","Match","Exact","70 SCRIVENS ST, TOTOWA, NJ, 07512",65273795,"L"
274749,"70 SHELDON ROAD","WRENTHAM","MA",2093,42.0433949750001,-71.382119299,249,"70 SHELDON ROAD, WRENTHAM, MA, 2093","Match","Exact","70 SHELDON RD, WRENTHAM, MA, 02093",87299805,"L"
274750,"70 SOUTH 26TH STREET","WYANDANCH","NY",11798,40.7458775470001,-73.368308113,250,"70 SOUTH 26TH STREET, WYANDANCH, NY, 11798","Match","Exact","70 S 26TH ST, WYANDANCH, NY, 11798",113974740,"L"
274751,"70 SOUTH BROADWAY","TARRYTOWN","NY",10591,41.0743893630001,-73.859009075,251,"70 SOUTH BROADWAY, TARRYTOWN, NY, 10591","Match","Exact","70 S BROADWAY, TARRYTOWN, NY, 10591",139731054,"L"
274752,"70 SOUTH MUNN AVE SUITE 605","EAST ORANGE","NJ",7018,40.7551410770001,-74.2125995179999,252,"70 SOUTH MUNN AVE SUITE 605, EAST ORANGE, NJ, 7018","Match","Exact","70 S MUNN AVE, EAST ORANGE, NJ, 07018",637796269,"L"
274753,"70 SOUTH MUNN AVE","EAST ORANGE","NJ",7018,40.7551410770001,-74.2125995179999,253,"70 SOUTH MUNN AVE, EAST ORANGE, NJ, 7018","Match","Exact","70 S MUNN AVE, EAST ORANGE, NJ, 07018",637796269,"L"
274754,"70 SOUTH SANDUSKY STREET","DELAWARE","OH",43015,40.2965873140001,-83.067962976,254,"70 SOUTH SANDUSKY STREET, DELAWARE, OH, 43015","Match","Exact","70 S SANDUSKY ST, DELAWARE, OH, 43015",647608361,"R"
274755,"70 SPRING RD","NORTH KINGSTOWN","RI",2852,41.6234841680001,-71.443876718,255,"70 SPRING RD, NORTH KINGSTOWN, RI, 2852","Match","Exact","70 SPRING RD, NORTH KINGSTOWN, RI, 02852",58924249,"L"
274756,"70 SPRINGHILL AVENUE","STATEN ISLAND","NY",10301,40.6372948530001,-74.1036802849999,256,"70 SPRINGHILL AVENUE, STATEN ISLAND, NY, 10301","Match","Exact","70 SPRINGHILL AVE, STATEN ISLAND, NY, 10301",642649155,"L"
274757,"70 SPRUCE ST","PATERSON","NJ",7501,40.911182459,-74.1777299,257,"70 SPRUCE ST, PATERSON, NJ, 7501","Match","Exact","70 SPRUCE ST, PATERSON, NJ, 07501",65262951,"R"
274758,"70 SPRUCE STREET BUILDING 8","PATERSON","NJ",7501,40.911182459,-74.1777299,258,"70 SPRUCE STREET BUILDING 8, PATERSON, NJ, 7501","Match","Exact","70 SPRUCE ST, PATERSON, NJ, 07501",65262951,"R"
274759,"70 SUMMERTREE DRIVE","NICHOLASVILLE","KY",40356,37.9761953760001,-84.584978559,259,"70 SUMMERTREE DRIVE, NICHOLASVILLE, KY, 40356","Match","Exact","70 SUMMERTREE DR, NICHOLASVILLE, KY, 40356",38463586,"R"
274760,"70 SW CENTURY DRIVE PMB 353","BEND","OR",97702,44.050607572,-121.331830731,260,"70 SW CENTURY DRIVE PMB 353, BEND, OR, 97702","Match","Non_Exact","70 SW CENTURY DR, BEND, OR, 97702",152554348,"R"
274761,"70 SWEET BRIAR DR APT 21","CLARK","NJ",7066,40.6159298910001,-74.3334528679999,261,"70 SWEET BRIAR DR APT 21, CLARK, NJ, 7066","Match","Exact","70 SWEET BRIAR DR, CLARK, NJ, 07066",641778107,"R"
274762,"70 TEXAS AVE","FORT CAMPBELL","KY",42223,36.6454070080001,-87.4468737559999,262,"70 TEXAS AVE, FORT CAMPBELL, KY, 42223","Match","Exact","70 TEXAS AVE, FORT CAMPBELL, KY, 42223",11296693,"R"
274763,"70 THERESA STREET","DARTMOUTH","MA",2748,41.6010353840001,-70.9564878639999,263,"70 THERESA STREET, DARTMOUTH, MA, 2748","Match","Exact","70 THERESA ST, DARTMOUTH, MA, 02748",46753896,"L"
274764,"70 THOMAS JOHNSON DRIVE SUITE 100","JEFFERSON","MD",21702,39.4474772030001,-77.4051241129999,264,"70 THOMAS JOHNSON DRIVE SUITE 100, JEFFERSON, MD, 21702","Match","Non_Exact","70 THOMAS JOHNSON DR, FREDERICK, MD, 21702",60723674,"R"
274765,"70 THOMPSON PLACE","ROSWELL","GA",30075,34.0306893630001,-84.363474545,265,"70 THOMPSON PLACE, ROSWELL, GA, 30075","Match","Exact","70 THOMPSON PL, ROSWELL, GA, 30075",17352100,"L"
274766,"70 TINSLEY CIRCLE","OXFORD","GA",30054,33.6258780310001,-83.88694448,266,"70 TINSLEY CIRCLE, OXFORD, GA, 30054","Match","Exact","70 TINSLEY CIR, OXFORD, GA, 30054",23640000,"R"
274767,"70 TODD ROAD","SHELTON","CT",6484,41.2918386210001,-73.1102821429999,267,"70 TODD ROAD, SHELTON, CT, 6484","Match","Exact","70 TODD RD, SHELTON, CT, 06484",637779985,"L"
274768,"70 TRELAWNEY BEND","COVINGTON","GA",30016,33.5744955490001,-83.92915225,268,"70 TRELAWNEY BEND, COVINGTON, GA, 30016","Match","Exact","70 TRELAWNEY BEND, COVINGTON, GA, 30016",23637979,"R"
274769,"70 TURNER STREET UNIT 5B","WARWICK","RI",2886,41.7054010520001,-71.422556379,269,"70 TURNER STREET UNIT 5B, WARWICK, RI, 2886","Match","Exact","70 TURNER ST, WARWICK, RI, 02886",159160572,"L"
274770,"70 UPPER HOOK ROAD","RHINEBECK","NY",12572,41.9704680360001,-73.918016128,270,"70 UPPER HOOK ROAD, RHINEBECK, NY, 12572","Match","Exact","70 UPPER HOOK RD, RHINEBECK, NY, 12572",649726604,"R"
274771,"70 UPPER ROCK CIRCLE  227","ROCKVILLE","MD",20850,39.112265048,-77.1842815489999,271,"70 UPPER ROCK CIRCLE  227, ROCKVILLE, MD, 20850","Match","Exact","70 UPPER ROCK CIR, ROCKVILLE, MD, 20850",649259266,"R"
274772,"70 VANDERBILT AVENUE","STATEN ISLAND","NY",10304,40.6214533080001,-74.074461293,272,"70 VANDERBILT AVENUE, STATEN ISLAND, NY, 10304","Match","Exact","70 VANDERBILT AVE, STATEN ISLAND, NY, 10304",59883225,"L"
274773,"70 W CUSHING STREET","TUCSON","AZ",85701,32.217085796,-110.971580145,273,"70 W CUSHING STREET, TUCSON, AZ, 85701","Match","Exact","70 W CUSHING ST, TUCSON, AZ, 85701",121170989,"L"
274774,"70 W LONG LAKE RD","TROY","MI",48098,NA,NA,274,"70 W LONG LAKE RD, TROY, MI, 48098","No_Match",NA,NA,NA,NA
274775,"70 W MADISON ST SUITE 1400","CHICAGO","IL",60602,NA,NA,275,"70 W MADISON ST SUITE 1400, CHICAGO, IL, 60602","Tie",NA,NA,NA,NA
274776,"70 W MADISON STE 2900","CHICAG","IL",60602,NA,NA,276,"70 W MADISON STE 2900, CHICAG, IL, 60602","No_Match",NA,NA,NA,NA
274777,"70 W MADISON STE 3500  COFPERKINS","CHICAGO","IL",60602,NA,NA,277,"70 W MADISON STE 3500  COFPERKINS, CHICAGO, IL, 60602","No_Match",NA,NA,NA,NA
274778,"70 W MADISON STE 3500 F PERKINS","CHICAGO","IL",60602,NA,NA,278,"70 W MADISON STE 3500 F PERKINS, CHICAGO, IL, 60602","No_Match",NA,NA,NA,NA
274779,"70 W MADISON STREET SUITE 4600","CHICAGO","IL",60602,NA,NA,279,"70 W MADISON STREET SUITE 4600, CHICAGO, IL, 60602","Tie",NA,NA,NA,NA
274780,"70 W PALM ST","ALTADENA","CA",91001,34.1970863070001,-118.147790646,280,"70 W PALM ST, ALTADENA, CA, 91001","Match","Exact","70 W PALM ST, ALTADENA, CA, 91001",141627284,"L"
274781,"70 WARREN ST STE 6","ROXBURY","MA",2119,42.328382693,-71.0832578009999,281,"70 WARREN ST STE 6, ROXBURY, MA, 2119","Match","Exact","70 WARREN ST, ROXBURY, MA, 02119",85700515,"L"
274782,"70 WASHINGTON AVENUE","WALTHAM","MA",2453,42.3624113020001,-71.235616787,282,"70 WASHINGTON AVENUE, WALTHAM, MA, 2453","Match","Exact","70 WASHINGTON AVE, WALTHAM, MA, 02453",86862074,"L"
274783,"70 WASHINGTON STREET SUITE 316","SALEM","MA",1970,42.5222089650001,-70.895802674,283,"70 WASHINGTON STREET SUITE 316, SALEM, MA, 1970","Match","Exact","70 WASHINGTON ST, SALEM, MA, 01970",86671475,"R"
274784,"70 WASHINGTON STREET","SHERBORN","MA",1770,NA,NA,284,"70 WASHINGTON STREET, SHERBORN, MA, 1770","No_Match",NA,NA,NA,NA
274785,"70 WASHINGTON STREET","SOUTH RIVER","NJ",8882,40.448860622,-74.3820947199999,285,"70 WASHINGTON STREET, SOUTH RIVER, NJ, 8882","Match","Exact","70 WASHINGTON ST, SOUTH RIVER, NJ, 08882",60268767,"L"
274786,"70 WEDGEWOODE LN","PONTIAC","MI",48340,42.675916779,-83.2583202329999,286,"70 WEDGEWOODE LN, PONTIAC, MI, 48340","Match","Exact","70 WEDGEWOODE LN, PONTIAC, MI, 48340",641241416,"R"
274787,"70 WEIL WAY","WILMINGTON","OH",45177,39.436752842,-83.779370862,287,"70 WEIL WAY, WILMINGTON, OH, 45177","Match","Non_Exact","70 WEILWAY DR, WILMINGTON, OH, 45177",636623464,"R"
274788,"70 WEISS AVENUE","EASTON","PA",18042,40.6479387570001,-75.2036828569999,288,"70 WEISS AVENUE, EASTON, PA, 18042","Match","Exact","70 WEISS AVE, EASTON, PA, 18042",136884480,"L"
274789,"70 WEST 109TH STREET APT 61","NEW YORK","NY",10025,40.80090463,-73.960832661,289,"70 WEST 109TH STREET APT 61, NEW YORK, NY, 10025","Match","Exact","70 W 109TH ST, NEW YORK, NY, 10025",639009933,"L"
274790,"70 WEST 120 STREET","NEW YORK","NY",10027,40.804218819,-73.9469473629999,290,"70 WEST 120 STREET, NEW YORK, NY, 10027","Match","Exact","70 W 120TH ST, NEW YORK, NY, 10027",59657742,"L"
274791,"70 WEST 93RD STREET SUITE 19F","NEW YORK","NY",10025,40.79056339,-73.9680722529999,291,"70 WEST 93RD STREET SUITE 19F, NEW YORK, NY, 10025","Match","Exact","70 W 93RD ST, NEW YORK, NY, 10025",650153773,"L"
274792,"70 WEST CHANCE RD","LUMBERTON","TX",77657,30.266103807,-94.2014092379999,292,"70 WEST CHANCE RD, LUMBERTON, TX, 77657","Match","Exact","70 W CHANCE RD, LUMBERTON, TX, 77657",23987878,"R"
274793,"70 WEST FOSTER STREET","MELROSE","MA",2176,42.454984387,-71.066661644,293,"70 WEST FOSTER STREET, MELROSE, MA, 2176","Match","Exact","70 W FOSTER ST, MELROSE, MA, 02176",87118356,"L"
274794,"70 WEST GREENBUSH ROAD","TUCKERTON","NJ",8087,39.6076232980001,-74.4410661749999,294,"70 WEST GREENBUSH ROAD, TUCKERTON, NJ, 8087","Match","Exact","70 W GREENBUSH RD, TUCKERTON, NJ, 08087",134023582,"R"
274795,"70 WEST HEDDING STREET - WEST WING","SAN JOSE","CA",95110,37.3526483950001,-121.904986577,295,"70 WEST HEDDING STREET - WEST WING, SAN JOSE, CA, 95110","Match","Exact","70 W HEDDING ST, SAN JOSE, CA, 95110",122906960,"L"
274796,"70 WEST JONES STREET","MOLENA","GA",30258,NA,NA,296,"70 WEST JONES STREET, MOLENA, GA, 30258","Tie",NA,NA,NA,NA
274797,"70 WEST MADISON STREET SUITE 2050","CHICAGO","IL",60602,41.881994481,-87.630117051,297,"70 WEST MADISON STREET SUITE 2050, CHICAGO, IL, 60602","Match","Exact","70 W MADISON ST, CHICAGO, IL, 60602",111768766,"R"
274798,"70 WEST OAKLAND AVE SUITE 200","DOYLESTOWN","PA",18901,40.308309534,-75.131368774,298,"70 WEST OAKLAND AVE SUITE 200, DOYLESTOWN, PA, 18901","Match","Exact","70 W OAKLAND AVE, DOYLESTOWN, PA, 18901",134703667,"L"
274799,"70 WEST RIVER STREET","MILFORD","CT",6460,41.226238123,-73.058741302,299,"70 WEST RIVER STREET, MILFORD, CT, 6460","Match","Exact","70 W RIVER ST, MILFORD, CT, 06460",618697756,"L"
274800,"70 WEST SHORE STREET","KEANSBURG","NJ",7734,40.4504949930001,-74.135502742,300,"70 WEST SHORE STREET, KEANSBURG, NJ, 7734","Match","Exact","70 W SHORE ST, KEANSBURG, NJ, 07734",90476521,"L"
274801,"70 WEST TREMONT TERRACE","IRVINGTON","NJ",7111,40.734415809,-74.220727218,301,"70 WEST TREMONT TERRACE, IRVINGTON, NJ, 7111","Match","Exact","70 W TREMONT TER, IRVINGTON, NJ, 07111",63464386,"R"
274802,"70 WHETHERSFIELD CIRCLE","TELFORD","PA",18969,40.32821626,-75.321257964,302,"70 WHETHERSFIELD CIRCLE, TELFORD, PA, 18969","Match","Exact","70 WHETHERSFIELD CIR, TELFORD, PA, 18969",134730136,"R"
274803,"70 WHIPPANY ROAD","MORRISTOWN","NJ",7960,NA,NA,303,"70 WHIPPANY ROAD, MORRISTOWN, NJ, 7960","No_Match",NA,NA,NA,NA
274804,"70 WILDCAT CIRCLE","WARSAW","KY",41095,NA,NA,304,"70 WILDCAT CIRCLE, WARSAW, KY, 41095","No_Match",NA,NA,NA,NA
274805,"70 WINSLOW AVE","LEICESTER","MA",1524,42.250731656,-71.9001704839999,305,"70 WINSLOW AVE, LEICESTER, MA, 1524","Match","Exact","70 WINSLOW AVE, LEICESTER, MA, 01524",40067055,"L"
274806,"70 WOODFIN PL STE110","ASHEVILLE","NC",28801,35.5985175530001,-82.548928631,306,"70 WOODFIN PL STE110, ASHEVILLE, NC, 28801","Match","Non_Exact","70 WOODFIN ST, ASHEVILLE, NC, 28801",36912515,"L"
274807,"70 WYCKOFF AVE APT 4A","BROOKLYN","NY",11237,40.7051146530001,-73.920526507,307,"70 WYCKOFF AVE APT 4A, BROOKLYN, NY, 11237","Match","Exact","70 WYCKOFF AVE, BROOKLYN, NY, 11237",59082455,"R"
274808,"70 YALE ST","HARTFORD","CT",6114,41.7308848170001,-72.695235004,308,"70 YALE ST, HARTFORD, CT, 6114","Match","Exact","70 YALE ST, HARTFORD, CT, 06114",633042737,"R"
274809,"70 YALE STREET","HARTFORD","CT",6114,41.7308848170001,-72.695235004,309,"70 YALE STREET, HARTFORD, CT, 6114","Match","Exact","70 YALE ST, HARTFORD, CT, 06114",633042737,"R"
274810,"70-03 171ST STREET","FRESH MEADOWS","NY",11365,40.7313465720001,-73.7986529139999,310,"70-03 171ST STREET, FRESH MEADOWS, NY, 11365","Match","Exact","70-3 171ST ST, FRESH MEADOWS, NY, 11365",59711172,"L"
274811,"70-06 52ND AVENUE","MASPETH","NY",11378,40.733596162,-73.893943958,311,"70-06 52ND AVENUE, MASPETH, NY, 11378","Match","Exact","70-6 52ND AVE, MASPETH, NY, 11378",642135389,"R"
274812,"70-20 108TH ST 10A","FOREST HILLS","NY",11375,40.7228059,-73.844393784,312,"70-20 108TH ST 10A, FOREST HILLS, NY, 11375","Match","Exact","70-20 108TH ST, FOREST HILLS, NY, 11375",59706165,"R"
274813,"70-31 108TH STREET","FOREST HILLS","NY",11375,40.722243635,-73.8441115589999,313,"70-31 108TH STREET, FOREST HILLS, NY, 11375","Match","Exact","70-31 108TH ST, FOREST HILLS, NY, 11375",59706171,"L"
274814,"70-71 NORTH PARISH RD","LAWRENCE","MA",1841,NA,NA,314,"70-71 NORTH PARISH RD, LAWRENCE, MA, 1841","No_Match",NA,NA,NA,NA
274815,"700  WOODFIELD CT","NORTH VERNON","IN",47265,38.994173215,-85.645661477,315,"700  WOODFIELD CT, NORTH VERNON, IN, 47265","Match","Non_Exact","700 WOODFIELD, NORTH VERNON, IN, 47265",30132213,"R"
274816,"700 1/2 SYLVAN AVENUE","GRAND RIDGE","IL",61325,41.232171872,-88.832801123,316,"700 1/2 SYLVAN AVENUE, GRAND RIDGE, IL, 61325","Match","Exact","700 SYLVAN AVE, GRAND RIDGE, IL, 61325",8590922,"L"
274817,"700 12TH ST NW / SUITE 700","WASHINGTON","DC",20005,NA,NA,317,"700 12TH ST NW / SUITE 700, WASHINGTON, DC, 20005","No_Match",NA,NA,NA,NA
274818,"700 12TH ST NW SUITE 700","WASHINGTON","DC",20005,NA,NA,318,"700 12TH ST NW SUITE 700, WASHINGTON, DC, 20005","No_Match",NA,NA,NA,NA
274819,"700 12TH STREET NW SUITE 700","WASHINGTON","DC",20005,38.8984352630001,-77.02808269,319,"700 12TH STREET NW SUITE 700, WASHINGTON, DC, 20005","Match","Exact","700 12TH ST NW, WASHINGTON, DC, 20005",76226159,"L"
274820,"700 15TH ST NE","CANTON","OH",44714,40.813407322,-81.365966239,320,"700 15TH ST NE, CANTON, OH, 44714","Match","Exact","700 15TH ST NE, CANTON, OH, 44714",64679530,"R"
274821,"700 16TH ST NE","WATERTOWN","SD",57201,44.9087318900001,-97.09044869,321,"700 16TH ST NE, WATERTOWN, SD, 57201","Match","Exact","700 16TH ST NE, WATERTOWN, SD, 57201",200738876,"R"
274822,"700 1ST ST STE 700","ALAMOGORDO","NM",88310,32.89017095,-105.954897573,322,"700 1ST ST STE 700, ALAMOGORDO, NM, 88310","Match","Non_Exact","700 E 1ST ST, ALAMOGORDO, NM, 88310",646589601,"R"
274823,"700 20TH ST","BOULDER","CO",80302,40.0020919360001,-105.267767637,323,"700 20TH ST, BOULDER, CO, 80302","Match","Exact","700 20TH ST, BOULDER, CO, 80302",637931848,"R"
274824,"700 23RD AVENUE NW","BIRMINGHAM","AL",35215,33.6440730460001,-86.704655749,324,"700 23RD AVENUE NW, BIRMINGHAM, AL, 35215","Match","Exact","700 23RD AVE NW, BIRMINGHAM, AL, 35215",81733411,"R"
274825,"700 38TH AVE NE","ST PETERSBURG","FL",33704,27.8067201750001,-82.625572542,325,"700 38TH AVE NE, ST PETERSBURG, FL, 33704","Match","Exact","700 38TH AVE NE, SAINT PETERSBURG, FL, 33704",124712512,"R"
274826,"700 38TH ST N","GREAT FALLS","MT",59405,47.5127997540001,-111.241471388,326,"700 38TH ST N, GREAT FALLS, MT, 59405","Match","Exact","700 38TH ST N, GREAT FALLS, MT, 59405",202223833,"L"
274827,"700 3RD STREET S","JACKSONVILLE BEACH","FL",32250,30.2815491330001,-81.390431808,327,"700 3RD STREET S, JACKSONVILLE BEACH, FL, 32250","Match","Exact","700 3RD ST S, JACKSONVILLE BEACH, FL, 32250",83923874,"R"
274828,"700 3RD STREET WEST","ROUNDUP","MT",59072,46.447920708,-108.546347563,328,"700 3RD STREET WEST, ROUNDUP, MT, 59072","Match","Exact","700 3RD ST W, ROUNDUP, MT, 59072",170777595,"L"
274829,"700 61ST STREET SUITE 5","TUSCALOOSA","AL",35405,33.1541241480001,-87.54623689,329,"700 61ST STREET SUITE 5, TUSCALOOSA, AL, 35405","Match","Exact","700 61ST ST, TUSCALOOSA, AL, 35405",622542059,"L"
274830,"700 6TH AVE NW","BUFFALO","MN",55313,45.17868194,-93.888184084,330,"700 6TH AVE NW, BUFFALO, MN, 55313","Match","Exact","700 6TH AVE NW, BUFFALO, MN, 55313",44019622,"L"
274831,"700 6TH STREET NW SUITE 700","WASHINGTON","DC",20001,38.898431569,-77.019909615,331,"700 6TH STREET NW SUITE 700, WASHINGTON, DC, 20001","Match","Exact","700 6TH ST NW, WASHINGTON, DC, 20001",647591674,"L"
274832,"700 71ST PLACE SOUTH","BIRMINGHAM","AL",35206,33.5498500620001,-86.7263978029999,332,"700 71ST PLACE SOUTH, BIRMINGHAM, AL, 35206","Match","Exact","700 71ST PL S, BIRMINGHAM, AL, 35206",81726653,"L"
274833,"700 7TH ST SW UNIT 716","WASHINGTON","DC",20024,38.880203523,-77.021893413,333,"700 7TH ST SW UNIT 716, WASHINGTON, DC, 20024","Match","Exact","700 7TH ST SW, WASHINGTON, DC, 20024",76238510,"L"
274834,"700 7TH STREET SW APT 404","WASHINGTON","DC",20024,38.880203523,-77.021893413,334,"700 7TH STREET SW APT 404, WASHINGTON, DC, 20024","Match","Exact","700 7TH ST SW, WASHINGTON, DC, 20024",76238510,"L"
274835,"700 7TH STREET SW APT 518","WASHINGTON","DC",20024,38.880203523,-77.021893413,335,"700 7TH STREET SW APT 518, WASHINGTON, DC, 20024","Match","Exact","700 7TH ST SW, WASHINGTON, DC, 20024",76238510,"L"
274836,"700 89TH ST OCEAN","MARATHON","FL",33050,NA,NA,336,"700 89TH ST OCEAN, MARATHON, FL, 33050","No_Match",NA,NA,NA,NA
274837,"700 9TH STREET","SECAUCUS","NJ",7094,40.79292344,-74.068666655,337,"700 9TH STREET, SECAUCUS, NJ, 7094","Match","Exact","700 9TH ST, SECAUCUS, NJ, 07094",59596677,"R"
274838,"700 A SOUTH 4TH STREET","CROCKETT","TX",75835,31.309937146,-95.458065061,338,"700 A SOUTH 4TH STREET, CROCKETT, TX, 75835","Match","Exact","700 S 4TH ST, CROCKETT, TX, 75835",21990246,"R"
274839,"700 AIRPORT RD","GREENVILLE","SC",29607,34.8437849900001,-82.345033569,339,"700 AIRPORT RD, GREENVILLE, SC, 29607","Match","Exact","700 AIRPORT RD, GREENVILLE, SC, 29607",640588061,"L"
274840,"700 ARCADIA CIRCLE  SUITE D","HUNTSVILLE","AL",35801,34.74513921,-86.598435691,340,"700 ARCADIA CIRCLE  SUITE D, HUNTSVILLE, AL, 35801","Match","Non_Exact","700 ARCADIA CIR NW, HUNTSVILLE, AL, 35801",58185747,"R"
274841,"700 ARCHER GROVE ROAD","ATHENS","GA",30607,34.0099127390001,-83.45359371,341,"700 ARCHER GROVE ROAD, ATHENS, GA, 30607","Match","Exact","700 ARCHER GROVE RD, ATHENS, GA, 30607",619830407,"L"
274842,"700 ARDENLEE PKWY","PEACHTREE CITY","GA",30269,NA,NA,342,"700 ARDENLEE PKWY, PEACHTREE CITY, GA, 30269","No_Match",NA,NA,NA,NA
274843,"700 ARGO ROAD","SENECA",NA,29678,34.628312646,-82.9818363209999,343,"700 ARGO ROAD, SENECA, , 29678","Match","Exact","700 ARGO RD, SENECA, SC, 29678",25662147,"L"
274844,"700 ATHENS STREET","COLUMBUS","OH",43204,39.9403153740001,-83.0873280289999,344,"700 ATHENS STREET, COLUMBUS, OH, 43204","Match","Exact","700 ATHENS ST, COLUMBUS, OH, 43204",135566430,"L"
274845,"700 ATTEBERRY LANE","LANCASTER","TX",75146,32.5989873300001,-96.800676815,345,"700 ATTEBERRY LANE, LANCASTER, TX, 75146","Match","Exact","700 ATTEBERRY LN, LANCASTER, TX, 75146",102972787,"L"
274846,"700 BAKER ROAD STE 114","VIRGINIA BEACH","VA",23462,36.863595924,-76.178171548,346,"700 BAKER ROAD STE 114, VIRGINIA BEACH, VA, 23462","Match","Exact","700 BAKER RD, VA BCH, VA, 23462",122295041,"R"
274847,"700 BEACH DRIVE NE SUITE 103","SAINT PETERSBURG","FL",33701,27.779524742,-82.630370586,347,"700 BEACH DRIVE NE SUITE 103, SAINT PETERSBURG, FL, 33701","Match","Exact","700 BEACH DR NE, SAINT PETERSBURG, FL, 33701",124713473,"L"
274848,"700 BIG HILL CIR","MCALESTER","OK",74501,NA,NA,348,"700 BIG HILL CIR, MCALESTER, OK, 74501","No_Match",NA,NA,NA,NA
274849,"700 BISHOP  STREET S2100","HONOLULU","HI",96813,NA,NA,349,"700 BISHOP  STREET S2100, HONOLULU, HI, 96813","No_Match",NA,NA,NA,NA
274850,"700 BISHOP STREET FLOOR 16","HONOLULU","HI",96813,NA,NA,350,"700 BISHOP STREET FLOOR 16, HONOLULU, HI, 96813","No_Match",NA,NA,NA,NA
274851,"700 BISHOP STREET S2100","HONOLULU","HI",96813,NA,NA,351,"700 BISHOP STREET S2100, HONOLULU, HI, 96813","No_Match",NA,NA,NA,NA
274852,"700 BISHOP STREET SUITE 2000","HONOLULU","HI",96813,NA,NA,352,"700 BISHOP STREET SUITE 2000, HONOLULU, HI, 96813","No_Match",NA,NA,NA,NA
274853,"700 BLACK MAPLE DR","DELTONA","FL",32725,28.876401297,-81.2604006609999,353,"700 BLACK MAPLE DR, DELTONA, FL, 32725","Match","Exact","700 BLACK MAPLE DR, DELTONA, FL, 32725",94596196,"L"
274854,"700 BLOOMFIELD AVE","BLOOMFIELD","CT",6002,41.825962243,-72.737382453,354,"700 BLOOMFIELD AVE, BLOOMFIELD, CT, 6002","Match","Exact","700 BLOOMFIELD AVE, BLOOMFIELD, CT, 06002",3485524,"R"
274855,"700 BOBCAT LANE","PONTE VEDRA","FL",32081,NA,NA,355,"700 BOBCAT LANE, PONTE VEDRA, FL, 32081","No_Match",NA,NA,NA,NA
274856,"700 BOLINWOOD DR 26C","CHAPEL HILL","NC",27514,NA,NA,356,"700 BOLINWOOD DR 26C, CHAPEL HILL, NC, 27514","No_Match",NA,NA,NA,NA
274857,"700 BOOKER DAIRY RD","SMITHFIELD","NC",27577,35.5307718540001,-78.324879718,357,"700 BOOKER DAIRY RD, SMITHFIELD, NC, 27577","Match","Non_Exact","700 E BOOKER DAIRY RD, SMITHFIELD, NC, 27577",634551721,"L"
274858,"700 BRANDYWINE","STATE COLLEGE","PA",16801,40.7865584,-77.804843895,358,"700 BRANDYWINE, STATE COLLEGE, PA, 16801","Match","Non_Exact","700 BRANDYWINE DR, STATE COLLEGE, PA, 16801",650603622,"R"
274859,"700 BRANTLEY STREET","OPP","AL",36467,31.2920215990001,-86.253412478,359,"700 BRANTLEY STREET, OPP, AL, 36467","Match","Exact","700 BRANTLEY ST, OPP, AL, 36467",1854450,"R"
274860,"700 BROADWAY DR","OCOEE","FL",34761,28.5644391800001,-81.5324347869999,360,"700 BROADWAY DR, OCOEE, FL, 34761","Match","Exact","700 BROADWAY DR, OCOEE, FL, 34761",94265761,"L"
274861,"700 BROADWAY","SEATTLE","WA",98122,47.6081883510001,-122.320748666,361,"700 BROADWAY, SEATTLE, WA, 98122","Match","Non_Exact","700 BROADWAY AVE, SEATTLE, WA, 98122",186590043,"R"
274862,"700 BRUSH CREEK RD","MANCHESTER","OH",45144,38.6891134640001,-83.450621967,362,"700 BRUSH CREEK RD, MANCHESTER, OH, 45144","Match","Exact","700 BRUSH CREEK RD, MANCHESTER, OH, 45144",100861269,"R"
274863,"700 CAMBRIAN RD","CABLE","OH",43009,40.115442031,-83.6136565309999,363,"700 CAMBRIAN RD, CABLE, OH, 43009","Match","Exact","700 CAMBRIAN RD, CABLE, OH, 43009",653478891,"R"
274864,"700 CANAL STREET","STAMFORD","CT",6902,41.0471426300001,-73.5339653899999,364,"700 CANAL STREET, STAMFORD, CT, 6902","Match","Exact","700 CANAL ST, STAMFORD, CT, 06902",3245902,"L"
274865,"700 CANDELIGHT DRIVE","WOODWAY","TX",76712,31.498252775,-97.2349191769999,365,"700 CANDELIGHT DRIVE, WOODWAY, TX, 76712","Match","Non_Exact","700 CANDLELIGHT DR, WOODWAY, TX, 76712",146741488,"L"
274866,"700 CANNOLI COURT","MCDONOUGH","GA",30253,33.444069003,-84.176950705,366,"700 CANNOLI COURT, MCDONOUGH, GA, 30253","Match","Exact","700 CANNOLI CT, MCDONOUGH, GA, 30253",210414177,"R"
274867,"700 CANTERBURY CIR","CORON","CA",92879,33.900833619,-117.507315599,367,"700 CANTERBURY CIR, CORON, CA, 92879","Match","Non_Exact","700 CANTERBURY CIR, CORONA, CA, 92879",194834315,"L"
274868,"700 CAROLINA BEACH AVE N","CAROLINA BEACH","NC",28428,34.042041699,-77.8888755409999,368,"700 CAROLINA BEACH AVE N, CAROLINA BEACH, NC, 28428","Match","Exact","700 CAROLINA BEACH AVE N, CAROLINA BCH, NC, 28428",152728884,"R"
274869,"700 CASTRO STREET NO 9","SAN FRANCISCO","CA",94114,37.7576242690001,-122.434697289,369,"700 CASTRO STREET NO 9, SAN FRANCISCO, CA, 94114","Match","Non_Exact","700 CASTRO ST, SAN FRANCISCO, CA, 94114",192284492,"R"
274870,"700 CENTRAL AVENUE","NAPA","CA",94558,38.31405863,-122.285244084,370,"700 CENTRAL AVENUE, NAPA, CA, 94558","Match","Exact","700 CENTRAL AVE, NAPA, CA, 94558",67415829,"R"
274871,"700 CENTRAL EXPY SOUTH STE 400","ALLEN","TX",75013,NA,NA,371,"700 CENTRAL EXPY SOUTH STE 400, ALLEN, TX, 75013","No_Match",NA,NA,NA,NA
274872,"700 CHARLESTON DR","CLAYTON","NC",27527,35.693715065,-78.4362244389999,372,"700 CHARLESTON DR, CLAYTON, NC, 27527","Match","Exact","700 CHARLESTON DR, CLAYTON, NC, 27527",26561042,"L"
274873,"700 CHESTER HARRIS DRIVE","DALLAS","GA",30132,33.960432192,-84.8013142519999,373,"700 CHESTER HARRIS DRIVE, DALLAS, GA, 30132","Match","Exact","700 CHESTER HARRIS DR, DALLAS, GA, 30132",207992604,"R"
274874,"700 CLOHESEY DRIVE","BUFFALO GROVE","IL",60089,42.1663128930001,-87.98051918,374,"700 CLOHESEY DRIVE, BUFFALO GROVE, IL, 60089","Match","Exact","700 CLOHESEY DR, BUFFALO GROVE, IL, 60089",119649228,"R"
274875,"700 COCOANUT AVENUE SUITE 354","SARASOTA","FL",34236,27.3419573950001,-82.544712996,375,"700 COCOANUT AVENUE SUITE 354, SARASOTA, FL, 34236","Match","Exact","700 COCOANUT AVE, SARASOTA, FL, 34236",647828888,"R"
274876,"700 COLCORD","OKLAHOMA CITY","OK",73102,35.46857866,-97.5243506369999,376,"700 COLCORD, OKLAHOMA CITY, OK, 73102","Match","Non_Exact","700 COLCORD DR, OKLAHOMA CITY, OK, 73102",100402167,"L"
274877,"700 COLLEGE BLVD    D102","PENSACOLAS","FL",32504,30.481688612,-87.2068374409999,377,"700 COLLEGE BLVD    D102, PENSACOLAS, FL, 32504","Match","Non_Exact","700 COLLEGE BLVD, PENSACOLA, FL, 32504",93225947,"R"
274878,"700 COLLEGE DRIVE","DECORAH","IA",52101,43.314644893,-91.801073904,378,"700 COLLEGE DRIVE, DECORAH, IA, 52101","Match","Exact","700 COLLEGE DR, DECORAH, IA, 52101",638631531,"R"
274879,"700 COLORADO BLVD SUITE 716","DENVER","CO",80206,39.727525143,-104.940594178,379,"700 COLORADO BLVD SUITE 716, DENVER, CO, 80206","Match","Exact","700 COLORADO BLVD, DENVER, CO, 80206",177338523,"R"
274880,"700 COLORADO BLVD UNIT 760","DENVER","CO",80206,39.727525143,-104.940594178,380,"700 COLORADO BLVD UNIT 760, DENVER, CO, 80206","Match","Exact","700 COLORADO BLVD, DENVER, CO, 80206",177338523,"R"
274881,"700 COLORADO BLVD","DENVER","CO",80206,39.727525143,-104.940594178,381,"700 COLORADO BLVD, DENVER, CO, 80206","Match","Exact","700 COLORADO BLVD, DENVER, CO, 80206",177338523,"R"
274882,"700 COLORADO BOULEVARD SUITE 743","DENVER","CO",80206,39.727525143,-104.940594178,382,"700 COLORADO BOULEVARD SUITE 743, DENVER, CO, 80206","Match","Exact","700 COLORADO BLVD, DENVER, CO, 80206",177338523,"R"
274883,"700 COMMERCE DR STE 500","OAK BROOK","IL",60523,41.850575329,-87.940441038,383,"700 COMMERCE DR STE 500, OAK BROOK, IL, 60523","Match","Exact","700 COMMERCE DR, OAK BROOK, IL, 60523",112573357,"L"
274884,"700 COMMERCE DR SUITE 500","OAK BROOK","IL",60523,41.850575329,-87.940441038,384,"700 COMMERCE DR SUITE 500, OAK BROOK, IL, 60523","Match","Exact","700 COMMERCE DR, OAK BROOK, IL, 60523",112573357,"L"
274885,"700 COMMERCE ST APT 221","NEW ORLEANS","LA",70130,29.946208294,-90.06656622,385,"700 COMMERCE ST APT 221, NEW ORLEANS, LA, 70130","Match","Exact","700 COMMERCE ST, NEW ORLEANS, LA, 70130",191714525,"L"
274886,"700 COUNTY RD 630A LOT 174","FROSTPROOF","FL",33843,27.7297519540001,-81.5396458989999,386,"700 COUNTY RD 630A LOT 174, FROSTPROOF, FL, 33843","Match","Exact","700 CO RD 630A, FROSTPROOF, FL, 33843",634628730,"L"
274887,"700 COUNTY SERVICES DR","COOKEVILLE","TN",38501,NA,NA,387,"700 COUNTY SERVICES DR, COOKEVILLE, TN, 38501","No_Match",NA,NA,NA,NA
274888,"700 CROSS QUAY","CHESAPEAKE","VA",23320,36.73903411,-76.27475487,388,"700 CROSS QUAY, CHESAPEAKE, VA, 23320","Match","Exact","700 CROSS QUAY, CHESAPEAKE, VA, 23320",121781689,"L"
274889,"700 DAN P HERRON DR","GALLATIN","TN",37066,NA,NA,389,"700 DAN P HERRON DR, GALLATIN, TN, 37066","No_Match",NA,NA,NA,NA
274890,"700 DR MARTIN LUTHER KING JR DRIVE","MONTGOMERY","TX",77356,30.403425011,-95.7030939059999,390,"700 DR MARTIN LUTHER KING JR DRIVE, MONTGOMERY, TX, 77356","Match","Exact","700 DR MARTIN LUTHER KING DR, MONTGOMERY, TX, 77356",642462493,"R"
274891,"700 DREYFUS RD","BEREA","KY",40403,37.6345325240001,-84.198781738,391,"700 DREYFUS RD, BEREA, KY, 40403","Match","Exact","700 DREYFUS RD, BEREA, KY, 40403",31987093,"R"
274892,"700 E 10TH STREET","LEADVILLE","CO",80461,39.2541413380001,-106.283176888,392,"700 E 10TH STREET, LEADVILLE, CO, 80461","Match","Exact","700 E 10TH ST, LEADVILLE, CO, 80461",105938909,"L"
274893,"700 E 18TH","ADA","OK",74820,34.7671898360001,-96.6697783399999,393,"700 E 18TH, ADA, OK, 74820","Match","Non_Exact","700 E 18TH ST, ADA, OK, 74820",58486762,"L"
274894,"700 E 19TH ST","YANKTON","SD",57078,42.887060336,-97.384605176,394,"700 E 19TH ST, YANKTON, SD, 57078","Match","Exact","700 E 19TH ST, YANKTON, SD, 57078",172836848,"R"
274895,"700 E 2 MILE RD","MISSION","TX",78574,NA,NA,395,"700 E 2 MILE RD, MISSION, TX, 78574","No_Match",NA,NA,NA,NA
274896,"700 E 22ND ST","TUCSON","AZ",85713,32.206856321,-110.959141058,396,"700 E 22ND ST, TUCSON, AZ, 85713","Match","Exact","700 E 22ND ST, TUCSON, AZ, 85713",121171533,"R"
274897,"700 E 2ND AVE SUITE D","ROME","GA",30161,34.2445027530001,-85.166318057,397,"700 E 2ND AVE SUITE D, ROME, GA, 30161","Match","Exact","700 2ND AVE, ROME, GA, 30161",30705670,"R"
274898,"700 E 32ND ST","AUSTIN","TX",78705,30.292915581,-97.73091901,398,"700 E 32ND ST, AUSTIN, TX, 78705","Match","Exact","700 E 32ND ST, AUSTIN, TX, 78705",63945776,"L"
274899,"700 E 5TH STREET  SUITE 3","LONG BEACH","CA",90802,NA,NA,399,"700 E 5TH STREET  SUITE 3, LONG BEACH, CA, 90802","Tie",NA,NA,NA,NA
274900,"700 E 70TH ST","LONG BEACH","CA",90805,33.881825034,-118.183851438,400,"700 E 70TH ST, LONG BEACH, CA, 90805","Match","Exact","700 E 70TH ST, LONG BEACH, CA, 90805",141683849,"R"
274901,"700 E ASH LANE APT 14107","EULESS","TX",76039,NA,NA,401,"700 E ASH LANE APT 14107, EULESS, TX, 76039","Tie",NA,NA,NA,NA
274902,"700 E ASH LN UNIT 9104","EULESS","TX",76039,NA,NA,402,"700 E ASH LN UNIT 9104, EULESS, TX, 76039","Tie",NA,NA,NA,NA
274903,"700 E BOULEVARD","MARION","IL",62959,37.7370882180001,-88.918542052,403,"700 E BOULEVARD, MARION, IL, 62959","Match","Non_Exact","700 E BOULEVARD ST, MARION, IL, 62959",6011655,"R"
274904,"700 E BUTLER AVE","DOYLESTOWN","PA",18901,NA,NA,404,"700 E BUTLER AVE, DOYLESTOWN, PA, 18901","No_Match",NA,NA,NA,NA
274905,"700 E CALHOUN STREET","THOMASVILLE","GA",31792,30.8478532350001,-83.977512621,405,"700 E CALHOUN STREET, THOMASVILLE, GA, 31792","Match","Exact","700 E CALHOUN ST, THOMASVILLE, GA, 31792",83102848,"R"
274906,"700 E COOMER STREET","MORENCI","MI",49256,41.7245703560001,-84.209522425,406,"700 E COOMER STREET, MORENCI, MI, 49256","Match","Exact","700 COOMER ST, MORENCI, MI, 49256",25946591,"R"
274907,"700 E DENNY WAY UNIT 211","SEATTLE","WA",98122,47.6185573130001,-122.323411795,407,"700 E DENNY WAY UNIT 211, SEATTLE, WA, 98122","Match","Non_Exact","700 E DENNY WAY, SEATTLE, WA, 98122",652989632,"L"
274908,"700 E GARDENA BOULEVARD","CARSON","CA",90746,33.882432576,-118.262270272,408,"700 E GARDENA BOULEVARD, CARSON, CA, 90746","Match","Exact","700 E GARDENA BLVD, CARSON, CA, 90746",241250831,"R"
274909,"700 E HIAWATHA BLVD","SHELTON","WA",98584,47.2409502340001,-123.094646054,409,"700 E HIAWATHA BLVD, SHELTON, WA, 98584","Match","Exact","700 E HIAWATHA BLVD, SHELTON, WA, 98584",180868357,"L"
274910,"700 E IMPERIAL HWY","LOS ANGELES","CA",90059,33.9310255610001,-118.261853609,410,"700 E IMPERIAL HWY, LOS ANGELES, CA, 90059","Match","Exact","700 IMPERIAL HWY, LOS ANGELES, CA, 90059",141673193,"R"
274911,"700 E MAIN ST 2487 SMB 4821","RICHMOND","VA",23219,37.5392532910001,-77.4380271749999,411,"700 E MAIN ST 2487 SMB 4821, RICHMOND, VA, 23219","Match","Non_Exact","700 E MAIN ST, RICHMOND, VA, 23219",201540557,"L"
274912,"700 E MAIN ST 2487","RICHMOND","VA",23219,37.5392532910001,-77.4380271749999,412,"700 E MAIN ST 2487, RICHMOND, VA, 23219","Match","Non_Exact","700 E MAIN ST, RICHMOND, VA, 23219",201540557,"L"
274913,"700 E MAIN ST NO-2487 SMB 13173","RICHMOND","VA",23219,NA,NA,413,"700 E MAIN ST NO-2487 SMB 13173, RICHMOND, VA, 23219","No_Match",NA,NA,NA,NA
274914,"700 E MINGUS AVE PO BOX 1376","COTTONWOOD","AZ",86326,NA,NA,414,"700 E MINGUS AVE PO BOX 1376, COTTONWOOD, AZ, 86326","Tie",NA,NA,NA,NA
274915,"700 E NEW YORK STREET","KNOX","IN",46534,41.293949959,-86.615984034,415,"700 E NEW YORK STREET, KNOX, IN, 46534","Match","Exact","700 E NEW YORK ST, KNOX, IN, 46534",8250666,"L"
274916,"700 E RAY CLEAR LAKE ROAD","FREMONT","IN",46737,NA,NA,416,"700 E RAY CLEAR LAKE ROAD, FREMONT, IN, 46737","No_Match",NA,NA,NA,NA
274917,"700 E REDLANDS BLVD STE U-244","REDLANDS","CA",92373,34.0500460270001,-117.171036229,417,"700 E REDLANDS BLVD STE U-244, REDLANDS, CA, 92373","Match","Exact","700 REDLANDS BLVD, REDLANDS, CA, 92373",144664769,"R"
274918,"700 E REDLANDS BLVD STE U709","REDLANDS","CA",92373,34.0500460270001,-117.171036229,418,"700 E REDLANDS BLVD STE U709, REDLANDS, CA, 92373","Match","Exact","700 REDLANDS BLVD, REDLANDS, CA, 92373",144664769,"R"
274919,"700 E REDLANDS BLVD STE738","REDLANDS","CA",92373,34.0500460270001,-117.171036229,419,"700 E REDLANDS BLVD STE738, REDLANDS, CA, 92373","Match","Exact","700 REDLANDS BLVD, REDLANDS, CA, 92373",144664769,"R"
274920,"700 E REDLANDS BLVD SUITE U-622","REDLANDS","CA",92373,34.0500460270001,-117.171036229,420,"700 E REDLANDS BLVD SUITE U-622, REDLANDS, CA, 92373","Match","Exact","700 REDLANDS BLVD, REDLANDS, CA, 92373",144664769,"R"
274921,"700 E REDLANDS BLVD SUITE U293","REDLANDS","CA",92373,34.0500460270001,-117.171036229,421,"700 E REDLANDS BLVD SUITE U293, REDLANDS, CA, 92373","Match","Exact","700 REDLANDS BLVD, REDLANDS, CA, 92373",144664769,"R"
274922,"700 E REDLANDS BLVD","REDLANDS","CA",92373,NA,NA,422,"700 E REDLANDS BLVD, REDLANDS, CA, 92373","Tie",NA,NA,NA,NA
274923,"700 E REDLANDS SUITE U131","Redlands","CA",92373,34.0500460270001,-117.171036229,423,"700 E REDLANDS SUITE U131, Redlands, CA, 92373","Match","Non_Exact","700 REDLANDS BLVD, REDLANDS, CA, 92373",144664769,"R"
274924,"700 E ROTH ROAD","LATHROP","CA",95330,NA,NA,424,"700 E ROTH ROAD, LATHROP, CA, 95330","No_Match",NA,NA,NA,NA
274925,"700 E SHELTON RD","BOONVILLE","IN",47601,38.091051862,-87.254380582,425,"700 E SHELTON RD, BOONVILLE, IN, 47601","Match","Non_Exact","700 W SHELTON RD, BOONVILLE, IN, 47601",32215080,"R"
274926,"700 E STANFORD AVE","SPRINGFIELD","IL",62703,39.766762596,-89.6470485629999,426,"700 E STANFORD AVE, SPRINGFIELD, IL, 62703","Match","Exact","700 E STANFORD AVE, SPRINGFIELD, IL, 62703",97327038,"R"
274927,"700 E TAFT AVE 25","ORANGE","CA",92865,NA,NA,427,"700 E TAFT AVE 25, ORANGE, CA, 92865","Tie",NA,NA,NA,NA
274928,"700 E TULARE AVENUE","SHAFTER","CA",93263,35.5070714010001,-119.269187245,428,"700 E TULARE AVENUE, SHAFTER, CA, 93263","Match","Exact","700 E TULARE AVE, SHAFTER, CA, 93263",109009017,"R"
274929,"700 E WASHINGTON ST","MEDINA","OH",44256,41.1381399850001,-81.851353825,429,"700 E WASHINGTON ST, MEDINA, OH, 44256","Match","Exact","700 E WASHINGTON ST, MEDINA, OH, 44256",58676483,"R"
274930,"700 EAST 19TH STREET","CHEYENNE","WY",82001,41.1383639860001,-104.809100555,430,"700 EAST 19TH STREET, CHEYENNE, WY, 82001","Match","Exact","700 E 19TH ST, CHEYENNE, WY, 82001",160149945,"L"
274931,"700 EAST BIRCH STREET 10072","BREA","CA",92822,33.917784822,-117.890412837,431,"700 EAST BIRCH STREET 10072, BREA, CA, 92822","Match","Non_Exact","700 E BIRCH ST, BREA, CA, 92821",609049326,"R"
274932,"700 EAST COMMON","NEW BRAUNFELS","TX",78130,29.7131725830001,-98.113354789,432,"700 EAST COMMON, NEW BRAUNFELS, TX, 78130","Match","Non_Exact","700 E COMMON ST, NEW BRAUNFELS, TX, 78130",72253421,"R"
274933,"700 EAST ELMWOOD","CLAWSON","MI",48017,42.540910007,-83.136097706,433,"700 EAST ELMWOOD, CLAWSON, MI, 48017","Match","Non_Exact","700 E ELMWOOD AVE, CLAWSON, MI, 48017",69743843,"R"
274934,"700 EAST FIRMIM STREET","KOKOMO","IN",46902,40.4679891220001,-86.123927252,434,"700 EAST FIRMIM STREET, KOKOMO, IN, 46902","Match","Non_Exact","700 E FIRMIN ST, KOKOMO, IN, 46902",27264399,"L"
274935,"700 EAST FOREST STREET","BELLE PLAINE","MN",56011,44.627122586,-93.7588225119999,435,"700 EAST FOREST STREET, BELLE PLAINE, MN, 56011","Match","Exact","700 E FOREST ST, BELLE PLAINE, MN, 56011",38148210,"L"
274936,"700 EAST JOPPA ROAD  4TH FLOOR","TOWSON","MD",21286,39.4000136660001,-76.5900709539999,436,"700 EAST JOPPA ROAD  4TH FLOOR, TOWSON, MD, 21286","Match","Exact","700 E JOPPA RD, TOWSON, MD, 21286",191540175,"L"
274937,"700 EAST PLEASANT LANE","LOMBARD","IL",60148,41.8970795720001,-88.002024784,437,"700 EAST PLEASANT LANE, LOMBARD, IL, 60148","Match","Exact","700 E PLEASANT LN, LOMBARD, IL, 60148",112524525,"L"
274938,"700 EAST REDLANDS BLVD SUITE U 351","REDLANDS","CA",92373,34.0545483010001,-117.174949476,438,"700 EAST REDLANDS BLVD SUITE U 351, REDLANDS, CA, 92373","Match","Exact","700 E REDLANDS BLVD, REDLANDS, CA, 92373",144664509,"R"
274939,"700 EAST REDLANDS BLVD SUITE U293","REDLANDS","CA",92373,34.0545483010001,-117.174949476,439,"700 EAST REDLANDS BLVD SUITE U293, REDLANDS, CA, 92373","Match","Exact","700 E REDLANDS BLVD, REDLANDS, CA, 92373",144664509,"R"
274940,"700 EAST UNIVERSITY AVE","LAFAYETTE","LA",70503,30.212896738,-92.01309508,440,"700 EAST UNIVERSITY AVE, LAFAYETTE, LA, 70503","Match","Exact","700 E UNIVERSITY AVE, LAFAYETTE, LA, 70503",85616322,"R"
274941,"700 EL CAMINO REAL SUITE 120 1001","MENLO PARK","CA",94025,NA,NA,441,"700 EL CAMINO REAL SUITE 120 1001, MENLO PARK, CA, 94025","No_Match",NA,NA,NA,NA
274942,"700 ELDON DR","LINCOLN","NE",68510,40.8074345100001,-96.639888129,442,"700 ELDON DR, LINCOLN, NE, 68510","Match","Exact","700 ELDON DR, LINCOLN, NE, 68510",28258782,"L"
274943,"700 ELMHURST RD","DAYTON","OH",45417,39.755645873,-84.259210393,443,"700 ELMHURST RD, DAYTON, OH, 45417","Match","Exact","700 ELMHURST RD, DAYTON, OH, 45417",143566564,"R"
274944,"700 EXCHANGE STREET","ROCHESTER","NY",14608,43.1410260110001,-77.617937274,444,"700 EXCHANGE STREET, ROCHESTER, NY, 14608","Match","Exact","700 EXCHANGE ST, ROCHESTER, NY, 14608",638057355,"L"
274945,"700 FAIRWAY DR","ABERDEEN","WA",98520,46.966522093,-123.728138151,445,"700 FAIRWAY DR, ABERDEEN, WA, 98520","Match","Exact","700 FAIRWAY DR, ABERDEEN, WA, 98520",180641768,"L"
274946,"700 FEATHER PL","MALABAR","FL",32950,27.9571927220001,-80.606584832,446,"700 FEATHER PL, MALABAR, FL, 32950","Match","Exact","700 FEATHER PL, MALABAR, FL, 32950",93958607,"R"
274947,"700 FIRST STREET APT 9M","HOBOKEN","NJ",7030,40.7393776050001,-74.0420598809999,447,"700 FIRST STREET APT 9M, HOBOKEN, NJ, 7030","Match","Exact","700 1ST ST, HOBOKEN, NJ, 07030",59605452,"R"
274948,"700 FOREST HILLS DRIVE","HENDERSON","NC",27537,36.3511738770001,-78.434996317,448,"700 FOREST HILLS DRIVE, HENDERSON, NC, 27537","Match","Exact","700 FOREST HILLS DR, HENDERSON, NC, 27537",90279021,"R"
274949,"700 FOURTH STREET APT R23","ATHENS","GA",30601,33.9720494220001,-83.358306773,449,"700 FOURTH STREET APT R23, ATHENS, GA, 30601","Match","Exact","700 4TH ST, ATHENS, GA, 30601",642887976,"R"
274950,"700 GARDNER LACY ROAD","MYRTLE BEACH","SC",29579,33.7806349780001,-78.971980564,450,"700 GARDNER LACY ROAD, MYRTLE BEACH, SC, 29579","Match","Exact","700 GARDNER LACY RD, MYRTLE BEACH, SC, 29579",607110419,"R"
274951,"700 GATES AVENUE 4B","BROOKLYN","NY",11221,40.687831999,-73.936512563,451,"700 GATES AVENUE 4B, BROOKLYN, NY, 11221","Match","Exact","700 GATES AVE, BROOKLYN, NY, 11221",59079249,"R"
274952,"700 GEMINI SUITE 115","HOUSTON","TX",77058,29.5504490050001,-95.121919066,452,"700 GEMINI SUITE 115, HOUSTON, TX, 77058","Match","Non_Exact","700 GEMINI ST, HOUSTON, TX, 77058",96590142,"R"
274953,"700 GEORGE HOPPER ROAD","MIDLOTHIAN","TX",76065,32.474955105,-96.9868039579999,453,"700 GEORGE HOPPER ROAD, MIDLOTHIAN, TX, 76065","Match","Exact","700 GEORGE HOPPER RD, MIDLOTHIAN, TX, 76065",646245462,"L"
274954,"700 GINGER MILL DRIVE","ST JOHNS","FL",32259,NA,NA,454,"700 GINGER MILL DRIVE, ST JOHNS, FL, 32259","No_Match",NA,NA,NA,NA
274955,"700 GLORY ROAD NW","CARROLLTON","OH",44615,40.5847786030001,-81.130392935,455,"700 GLORY ROAD NW, CARROLLTON, OH, 44615","Match","Exact","700 GLORY RD NW, CARROLLTON, OH, 44615",624043940,"R"
274956,"700 GREENLAWN DRIVE APT 2307","COLUMBIA","SC",29209,33.969228485,-80.9464771849999,456,"700 GREENLAWN DRIVE APT 2307, COLUMBIA, SC, 29209","Match","Exact","700 GREENLAWN DR, COLUMBIA, SC, 29209",71830363,"R"
274957,"700 GREGORY AVE","CLIFTON","NJ",7011,40.8679824170001,-74.145644143,457,"700 GREGORY AVE, CLIFTON, NJ, 7011","Match","Exact","700 GREGORY AVE, CLIFTON, NJ, 07011",65250920,"L"
274958,"700 HAILIE DR","KILLEEN","TX",76542,31.0340329250001,-97.747928674,458,"700 HAILIE DR, KILLEEN, TX, 76542","Match","Exact","700 HAILIE DR, KILLEEN, TX, 76542",636970638,"R"
274959,"700 HALL AVE","BIRCHWOOD","MN",55110,45.0559830890001,-92.9722569369999,459,"700 HALL AVE, BIRCHWOOD, MN, 55110","Match","Non_Exact","700 HALL AVE, DELLWOOD, MN, 55110",638888156,"R"
274960,"700 HAMMOND LANE","STROUDSBURG","PA",18360,40.9955488570001,-75.226867139,460,"700 HAMMOND LANE, STROUDSBURG, PA, 18360","Match","Exact","700 HAMMOND LN, STROUDSBURG, PA, 18360",136768901,"L"
274961,"700 HANOVER DR","SHELBY","NC",28150,35.29887087,-81.551928641,461,"700 HANOVER DR, SHELBY, NC, 28150","Match","Exact","700 HANOVER DR, SHELBY, NC, 28150",19317730,"R"
274962,"700 HENLEY DRIVE","NAPLES","FL",34102,26.1627120650001,-81.723660278,462,"700 HENLEY DRIVE, NAPLES, FL, 34102","Match","Non_Exact","700 HENLEY DR, NAPLES, FL, 34104",115145801,"R"
274963,"700 HENNING DRIVE SUITE 51","SULPHUR","LA",70663,30.218344347,-93.3703055409999,463,"700 HENNING DRIVE SUITE 51, SULPHUR, LA, 70663","Match","Exact","700 HENNING DR, SULPHUR, LA, 70663",650967017,"R"
274964,"700 HICKORY ST","GRAFTON","WI",53024,43.3306963640001,-87.959363668,464,"700 HICKORY ST, GRAFTON, WI, 53024","Match","Exact","700 HICKORY ST, GRAFTON, WI, 53024",95901476,"L"
274965,"700 HILLTOPPER PL","ONALASKA","WI",54650,NA,NA,465,"700 HILLTOPPER PL, ONALASKA, WI, 54650","No_Match",NA,NA,NA,NA
274966,"700 HOBBS HWY","SEMINOLE","TX",79360,32.719341839,-102.652560131,466,"700 HOBBS HWY, SEMINOLE, TX, 79360","Match","Exact","700 HOBBS HWY, SEMINOLE, TX, 79360",139492982,"R"
274967,"700 HOLLY AVENUE BOX J","JEROME","AZ",86331,NA,NA,467,"700 HOLLY AVENUE BOX J, JEROME, AZ, 86331","No_Match",NA,NA,NA,NA
274968,"700 HOLLYHOCK LANE","PLACENTIA","CA",92870,33.877498786,-117.860684881,468,"700 HOLLYHOCK LANE, PLACENTIA, CA, 92870","Match","Exact","700 HOLLYHOCK LN, PLACENTIA, CA, 92870",143995455,"L"
274969,"700 HONEY CREEK ROAD","CONYERS","GA",30094,33.596303005,-84.0230638049999,469,"700 HONEY CREEK ROAD, CONYERS, GA, 30094","Match","Non_Exact","700 HONEY CREEK RD SE, CONYERS, GA, 30094",636395351,"L"
274970,"700 HOOPER AVE","TOMS RIVER","NJ",8753,39.960943607,-74.189193285,470,"700 HOOPER AVE, TOMS RIVER, NJ, 8753","Match","Exact","700 HOOPER AVE, TOMS RIVER, NJ, 08753",203727034,"R"
274971,"700 HOOPER AVENUE","TOMS RIVER","NJ",8753,39.960943607,-74.189193285,471,"700 HOOPER AVENUE, TOMS RIVER, NJ, 8753","Match","Exact","700 HOOPER AVE, TOMS RIVER, NJ, 08753",203727034,"R"
274972,"700 HOPE MILLS ROAD","FAYETTEVILLE","NC",28304,35.0360225750001,-78.9609694379999,472,"700 HOPE MILLS ROAD, FAYETTEVILLE, NC, 28304","Match","Exact","700 HOPE MILLS RD, FAYETTEVILLE, NC, 28304",64196388,"R"
274973,"700 HUNTINGTON PLACE SE","MARIETTA","GA",30067,33.934217694,-84.462203501,473,"700 HUNTINGTON PLACE SE, MARIETTA, GA, 30067","Match","Non_Exact","700 HUNTINGTON PL, MARIETTA, GA, 30067",17183536,"R"
274974,"700 HURON AVENUE 11C","CAMBRIDGE","MA",2138,42.3807180260001,-71.15384002,474,"700 HURON AVENUE 11C, CAMBRIDGE, MA, 2138","Match","Exact","700 HURON AVE, CAMBRIDGE, MA, 02138",619801866,"L"
274975,"700 IAO VALLEY RD","WAILUKU","HI",96793,20.883133592,-156.528909784,475,"700 IAO VALLEY RD, WAILUKU, HI, 96793","Match","Exact","700 IAO VALLEY RD, WAILUKU, HI, 96793",85059628,"R"
274976,"700 IRONWOOD DRIVE UNIT 727","PONTE VEDRA BEACH","FL",32082,30.224834839,-81.3896299909999,476,"700 IRONWOOD DRIVE UNIT 727, PONTE VEDRA BEACH, FL, 32082","Match","Exact","700 IRONWOOD DR, PONTE VEDRA BEACH, FL, 32082",92612083,"R"
274977,"700 ISLAND LANDING DRIVE","SAINT AUGUSTINE","FL",32095,29.985599065,-81.3518633319999,477,"700 ISLAND LANDING DRIVE, SAINT AUGUSTINE, FL, 32095","Match","Exact","700 ISLAND LANDING DR, SAINT AUGUSTINE, FL, 32095",92605539,"L"
274978,"700 ISRAEL ROAD SW","TUMWATER","WA",98501,46.985421951,-122.913204196,478,"700 ISRAEL ROAD SW, TUMWATER, WA, 98501","Match","Exact","700 ISRAEL RD SW, TUMWATER, WA, 98501",180964433,"L"
274979,"700 JIM SHORT RD","WHITLEYVILLE","TN",38588,36.524613306,-85.697964692,479,"700 JIM SHORT RD, WHITLEYVILLE, TN, 38588","Match","Exact","700 JIM SHORT RD, WHITLEYVILLE, TN, 38588",635726997,"L"
274980,"700 KEGLE DRIVE","WEST SACRAMENTO","CA",95605,38.59420993,-121.52614788,480,"700 KEGLE DRIVE, WEST SACRAMENTO, CA, 95605","Match","Exact","700 KEGLE DR, WEST SACRAMENTO, CA, 95605",67692859,"R"
274981,"700 KENSINGTON DRIVE","CHAPEL HILL","NC",27514,35.938769344,-79.047334274,481,"700 KENSINGTON DRIVE, CHAPEL HILL, NC, 27514","Match","Exact","700 KENSINGTON DR, CHAPEL HILL, NC, 27514",72380093,"L"
274982,"700 LAFOURCHE ST","DONALDSONVILLE","LA",70346,30.1017489990001,-90.9928938049999,482,"700 LAFOURCHE ST, DONALDSONVILLE, LA, 70346","Match","Exact","700 LAFOURCHE ST, DONALDSONVILLE, LA, 70346",115028969,"L"
274983,"700 LAKE SHORE DRIVE","ESCANABA","MI",49829,45.739407779,-87.055841792,483,"700 LAKE SHORE DRIVE, ESCANABA, MI, 49829","Match","Exact","700 LAKE SHORE DR, ESCANABA, MI, 49829",181963188,"L"
274984,"700 LAKELAND AVENUE SUITE 2A/2","BOHEMIA","NY",11716,40.764553477,-73.1003926239999,484,"700 LAKELAND AVENUE SUITE 2A/2, BOHEMIA, NY, 11716","Match","Exact","700 LAKELAND AVE, BOHEMIA, NY, 11716",114271682,"R"
274985,"700 LAVACA ST STE 1401","AUSTIN","TX",78701,30.269730984,-97.74482292,485,"700 LAVACA ST STE 1401, AUSTIN, TX, 78701","Match","Exact","700 LAVACA ST, AUSTIN, TX, 78701",63943417,"L"
274986,"700 LAVACA ST SUITE 1401","AUSTIN","TX",78701,30.269730984,-97.74482292,486,"700 LAVACA ST SUITE 1401, AUSTIN, TX, 78701","Match","Exact","700 LAVACA ST, AUSTIN, TX, 78701",63943417,"L"
274987,"700 LAVACA STE 1400","AUSTIN","TX",78701,30.269730984,-97.74482292,487,"700 LAVACA STE 1400, AUSTIN, TX, 78701","Match","Non_Exact","700 LAVACA ST, AUSTIN, TX, 78701",63943417,"L"
274988,"700 LAVACA STE 1401","AUSTIN","TX",78701,30.269730984,-97.74482292,488,"700 LAVACA STE 1401, AUSTIN, TX, 78701","Match","Non_Exact","700 LAVACA ST, AUSTIN, TX, 78701",63943417,"L"
274989,"700 LAVACA STREET - SUITE 1401","AUSTIN","TX",78701,30.269730984,-97.74482292,489,"700 LAVACA STREET - SUITE 1401, AUSTIN, TX, 78701","Match","Exact","700 LAVACA ST, AUSTIN, TX, 78701",63943417,"L"
274990,"700 LAVACA STREET STE 1401","AUSTIN","TX",78701,30.269730984,-97.74482292,490,"700 LAVACA STREET STE 1401, AUSTIN, TX, 78701","Match","Exact","700 LAVACA ST, AUSTIN, TX, 78701",63943417,"L"
274991,"700 LAVACA STREET SUITE 1401","AUSTIN","TX",78701,30.269730984,-97.74482292,491,"700 LAVACA STREET SUITE 1401, AUSTIN, TX, 78701","Match","Exact","700 LAVACA ST, AUSTIN, TX, 78701",63943417,"L"
274992,"700 LEHMAN DRIVE","JACKSONVILLE","AR",72076,34.8608048940001,-92.090111986,492,"700 LEHMAN DRIVE, JACKSONVILLE, AR, 72076","Match","Exact","700 LEHMAN DR, JACKSONVILLE, AR, 72076",83533741,"L"
274993,"700 LEMOYNE ROAD","NORTHWOOD","OH",43619,NA,NA,493,"700 LEMOYNE ROAD, NORTHWOOD, OH, 43619","No_Match",NA,NA,NA,NA
274994,"700 LENOX AVENUE 12I","NEW YORK","NY",10039,40.819214602,-73.937121061,494,"700 LENOX AVENUE 12I, NEW YORK, NY, 10039","Match","Non_Exact","700 LENOX AVE, NEW YORK, NY, 10027",59656370,"R"
274995,"700 LENOX AVENUE SUITE 15E","NEW YORK","NY",10039,40.819214602,-73.937121061,495,"700 LENOX AVENUE SUITE 15E, NEW YORK, NY, 10039","Match","Non_Exact","700 LENOX AVE, NEW YORK, NY, 10027",59656370,"R"
274996,"700 LEROY PLACE","SOCORRO","NM",87801,34.063814032,-106.903408882,496,"700 LEROY PLACE, SOCORRO, NM, 87801","Match","Exact","700 LEROY PL, SOCORRO, NM, 87801",619262346,"R"
274997,"700 LESLIE ST","LANSING","MI",48912,42.726527205,-84.524951449,497,"700 LESLIE ST, LANSING, MI, 48912","Match","Exact","700 LESLIE ST, LANSING, MI, 48912",17500892,"R"
274998,"700 LIBERTY PLACE","SICKLERVILLE","NJ",8081,NA,NA,498,"700 LIBERTY PLACE, SICKLERVILLE, NJ, 8081","No_Match",NA,NA,NA,NA
274999,"700 LINCOLN AVE","TEMPLETON","CA",93465,35.5492953,-120.71130056,499,"700 LINCOLN AVE, TEMPLETON, CA, 93465","Match","Exact","700 LINCOLN AVE, TEMPLETON, CA, 93465",650964832,"R"
275000,"700 LINCOLN PARKWAY","NORTHFIELD","MN",55057,44.4683323420001,-93.1737472999999,500,"700 LINCOLN PARKWAY, NORTHFIELD, MN, 55057","Match","Exact","700 LINCOLN PKWY, NORTHFIELD, MN, 55057",37324140,"R"
