"ID","Address","City","State","Zip","lat","long","id","input_address","match_indicator","match_type","matched_address","tiger_line_id","tiger_side"
50501,"1324 FOREEST AVENUE STE 420","STATEN ISLAND","MA",10302,NA,NA,1,"1324 FOREEST AVENUE STE 420, STATEN ISLAND, MA, 10302","No_Match",NA,NA,NA,NA
50502,"1324 FOREEST AVENUE STE 420","STATEN ISLAND","NY",10302,40.626109673,-74.1339583339999,2,"1324 FOREEST AVENUE STE 420, STATEN ISLAND, NY, 10302","Match","Non_Exact","1324 FOREST AVE, STATEN ISLAND, NY, 10302",59878161,"L"
50503,"1324 FORESST AVENNUE STE 420","STATEN ISAND","NY",10302,NA,NA,3,"1324 FORESST AVENNUE STE 420, STATEN ISAND, NY, 10302","No_Match",NA,NA,NA,NA
50504,"1324 FORESST AVENNUE STE 420","STATEN ISLAND","CT",10302,NA,NA,4,"1324 FORESST AVENNUE STE 420, STATEN ISLAND, CT, 10302","No_Match",NA,NA,NA,NA
50505,"1324 FORESST AVENNUE STE 420","STATEN ISLAND","NY",10302,40.626109673,-74.1339583339999,5,"1324 FORESST AVENNUE STE 420, STATEN ISLAND, NY, 10302","Match","Non_Exact","1324 FOREST AVE, STATEN ISLAND, NY, 10302",59878161,"L"
50506,"1324 FORESST AVENNUE STE 420","STATEN ISLAND","NY",10502,NA,NA,6,"1324 FORESST AVENNUE STE 420, STATEN ISLAND, NY, 10502","No_Match",NA,NA,NA,NA
50507,"1324 FORESST AVENNUE STE 420","STATEN ISLAND","TX",10302,NA,NA,7,"1324 FORESST AVENNUE STE 420, STATEN ISLAND, TX, 10302","No_Match",NA,NA,NA,NA
50508,"1324 FORESST AVENNUE STE 420","STATEN ISLAND","WI",10302,NA,NA,8,"1324 FORESST AVENNUE STE 420, STATEN ISLAND, WI, 10302","No_Match",NA,NA,NA,NA
50509,"1324 FOREST AVE SUITE 205","STATEN ISLAND","NY",10301,40.626109673,-74.1339583339999,9,"1324 FOREST AVE SUITE 205, STATEN ISLAND, NY, 10301","Match","Non_Exact","1324 FOREST AVE, STATEN ISLAND, NY, 10302",59878161,"L"
50510,"1324 FOREST AVENUE   SUITE  420","STATEN ISLAND","NY",10302,40.626109673,-74.1339583339999,10,"1324 FOREST AVENUE   SUITE  420, STATEN ISLAND, NY, 10302","Match","Exact","1324 FOREST AVE, STATEN ISLAND, NY, 10302",59878161,"L"
50511,"1324 FOREST AVENUE   SUITE 420","STATEN ISLAND","NY",10302,40.626109673,-74.1339583339999,11,"1324 FOREST AVENUE   SUITE 420, STATEN ISLAND, NY, 10302","Match","Exact","1324 FOREST AVE, STATEN ISLAND, NY, 10302",59878161,"L"
50512,"1324 FOREST AVENUE  SUITE  420","STATEN ISLAND","NY",10302,40.626109673,-74.1339583339999,12,"1324 FOREST AVENUE  SUITE  420, STATEN ISLAND, NY, 10302","Match","Exact","1324 FOREST AVE, STATEN ISLAND, NY, 10302",59878161,"L"
50513,"1324 FOREST AVENUE  SUITE  420","STATEN ISLANDQ","NY",10302,40.626109673,-74.1339583339999,13,"1324 FOREST AVENUE  SUITE  420, STATEN ISLANDQ, NY, 10302","Match","Non_Exact","1324 FOREST AVE, STATEN ISLAND, NY, 10302",59878161,"L"
50514,"1324 FOREST AVENUE  SUITE 420","STATEN ISLAND","NY",10302,40.626109673,-74.1339583339999,14,"1324 FOREST AVENUE  SUITE 420, STATEN ISLAND, NY, 10302","Match","Exact","1324 FOREST AVE, STATEN ISLAND, NY, 10302",59878161,"L"
50515,"1324 FOREST AVENUE STE 420","STATEN ISLAND","NY",10302,40.626109673,-74.1339583339999,15,"1324 FOREST AVENUE STE 420, STATEN ISLAND, NY, 10302","Match","Exact","1324 FOREST AVE, STATEN ISLAND, NY, 10302",59878161,"L"
50516,"1324 FOREST AVENUE SUITE 420","STATEN ISLAND","NY",10302,40.626109673,-74.1339583339999,16,"1324 FOREST AVENUE SUITE 420, STATEN ISLAND, NY, 10302","Match","Exact","1324 FOREST AVE, STATEN ISLAND, NY, 10302",59878161,"L"
50517,"1324 GRANDIN ROAD SW","ROANOKE","VA",24015,37.265193552,-79.977152234,17,"1324 GRANDIN ROAD SW, ROANOKE, VA, 24015","Match","Exact","1324 GRANDIN RD SW, ROANOKE, VA, 24015",62939127,"L"
50518,"1324 HARVARD ST SUITE B","SANTA MONICA","CA",90404,34.035627189,-118.473599203,18,"1324 HARVARD ST SUITE B, SANTA MONICA, CA, 90404","Match","Exact","1324 HARVARD ST, SANTA MONICA, CA, 90404",142717333,"R"
50519,"1324 HATCHCOVER CIRCLE","JONESBORO","GA",30238,33.4781725390001,-84.3463688309999,19,"1324 HATCHCOVER CIRCLE, JONESBORO, GA, 30238","Match","Exact","1324 HATCHCOVER CIR, JONESBORO, GA, 30238",23323985,"L"
50520,"1324 HAUTE LOIRE DR","BALLWIN","MO",63011,38.6187219460001,-90.503134711,20,"1324 HAUTE LOIRE DR, BALLWIN, MO, 63011","Match","Exact","1324 HAUTE LOIRE DR, BALLWIN, MO, 63011",604536389,"R"
50521,"1324 JURY ROAD","CHESAPEAKE","VA",23322,36.62321195,-76.2656063279999,21,"1324 JURY ROAD, CHESAPEAKE, VA, 23322","Match","Exact","1324 JURY RD, CHESAPEAKE, VA, 23322",121790991,"R"
50522,"1324 LANEY WALKER BOULEVARD","AUGUSTA","GA",30901,33.466254152,-81.9809275229999,22,"1324 LANEY WALKER BOULEVARD, AUGUSTA, GA, 30901","Match","Exact","1324 LANEY WALKER BLVD, AUGUSTA, GA, 30901",55639970,"L"
50523,"1324 LOCUST ST APT 409","PHILADELPHIA","PA",19107,39.948072058,-75.163457186,23,"1324 LOCUST ST APT 409, PHILADELPHIA, PA, 19107","Match","Exact","1324 LOCUST ST, PHILADELPHIA, PA, 19107",131408101,"L"
50524,"1324 LOCUST ST STE 707","PHILADELPHIA","PA",19107,39.948072058,-75.163457186,24,"1324 LOCUST ST STE 707, PHILADELPHIA, PA, 19107","Match","Exact","1324 LOCUST ST, PHILADELPHIA, PA, 19107",131408101,"L"
50525,"1324 MANOR CIRCLE","PELHAM MANOR","NY",10803,40.8872644780001,-73.799642179,25,"1324 MANOR CIRCLE, PELHAM MANOR, NY, 10803","Match","Non_Exact","1324 MANOR CIR, PELHAM, NY, 10803",139751194,"R"
50526,"1324 MARTHA CUSTIS DRIVE","ALEXANDRIA","VA",22302,38.8415881130001,-77.082129545,26,"1324 MARTHA CUSTIS DRIVE, ALEXANDRIA, VA, 22302","Match","Exact","1324 MARTHA CUSTIS DR, ALEXANDRIA, VA, 22302",75987180,"L"
50527,"1324 MIDDLEFORD ROAD","OWINGS MILLS","MD",21117,NA,NA,27,"1324 MIDDLEFORD ROAD, OWINGS MILLS, MD, 21117","No_Match",NA,NA,NA,NA
50528,"1324 MONTE MARIA AVE","NOVATO","CA",94947,38.085640488,-122.563248837,28,"1324 MONTE MARIA AVE, NOVATO, CA, 94947","Match","Exact","1324 MONTE MARIA AVE, NOVATO, CA, 94947",192760941,"R"
50529,"1324 MORNINGSIDE DRIVE","FORT MYERS","FL",33901,26.60536855,-81.8888605019999,29,"1324 MORNINGSIDE DRIVE, FORT MYERS, FL, 33901","Match","Exact","1324 MORNINGSIDE DR, FORT MYERS, FL, 33901",118024558,"R"
50530,"1324 MOUNT WILLOW ROAD","MALVERN","AR",72104,34.3809773950001,-92.784726893,30,"1324 MOUNT WILLOW ROAD, MALVERN, AR, 72104","Match","Exact","1324 MOUNT WILLOW RD, MALVERN, AR, 72104",610640849,"R"
50531,"1324 N 6TH STREET 1","PHILADELPHIA","PA",19122,39.971934418,-75.1462557959999,31,"1324 N 6TH STREET 1, PHILADELPHIA, PA, 19122","Match","Non_Exact","1324 N 6TH ST, PHILADELPHIA, PA, 19122",131422756,"L"
50532,"1324 N LIBERTY LAKE RD  STE 119","LIBERTY LAKE","WA",99019,47.6690899920001,-117.105319613,32,"1324 N LIBERTY LAKE RD  STE 119, LIBERTY LAKE, WA, 99019","Match","Non_Exact","1324 N LIBERTY LAKE RD, LIBERTY LAKE, WA, 99019",636699613,"R"
50533,"1324 N POINSETTIA PLACE SUITE 104","LOS ANGELES","CA",90046,34.095025848,-118.34831745,33,"1324 N POINSETTIA PLACE SUITE 104, LOS ANGELES, CA, 90046","Match","Non_Exact","1324 N POINSETTIA PL, LOS ANGELES, CA, 90046",642864230,"R"
50534,"1324 N WICKER PARK AVE","CHICAGO","IL",60622,41.906049195,-87.67250768,34,"1324 N WICKER PARK AVE, CHICAGO, IL, 60622","Match","Exact","1324 N WICKER PARK AVE, CHICAGO, IL, 60622",111764794,"L"
50535,"1324 ODELL LANE","GREENWOOD","IN",46143,39.5980823150001,-86.110997493,35,"1324 ODELL LANE, GREENWOOD, IN, 46143","Match","Exact","1324 ODELL LN, GREENWOOD, IN, 46143",114653368,"R"
50536,"1324 PEARL ROAD M3","BRUNSWICK","OH",44212,41.239488883,-81.841331859,36,"1324 PEARL ROAD M3, BRUNSWICK, OH, 44212","Match","Exact","1324 PEARL RD, BRUNSWICK, OH, 44212",639704463,"L"
50537,"1324 PEBBLE CREEK","DURHAM","NC",27713,35.9134782940001,-78.909339227,37,"1324 PEBBLE CREEK, DURHAM, NC, 27713","Match","Non_Exact","1324 PEBBLE CREEK CROSSING, DURHAM, NC, 27713",71769360,"R"
50538,"1324 POINSETTIA   APT 4","LOS ANGELES","CA",90046,NA,NA,38,"1324 POINSETTIA   APT 4, LOS ANGELES, CA, 90046","No_Match",NA,NA,NA,NA
50539,"1324 POLLY POINT ROAD","WADMALAW ISLAND","SC",29487,32.6779628250001,-80.208397863,39,"1324 POLLY POINT ROAD, WADMALAW ISLAND, SC, 29487","Match","Exact","1324 POLLY POINT RD, WADMALAW ISLAND, SC, 29487",605780711,"L"
50540,"1324 PREAKNESS DRIVE","ALPHARETTA","GA",30022,34.004789697,-84.284619483,40,"1324 PREAKNESS DRIVE, ALPHARETTA, GA, 30022","Match","Exact","1324 PREAKNESS DR, ALPHARETTA, GA, 30022",17386901,"L"
50541,"1324 ROCKBRIDGE ROAD SW","STONE MOUNTAIN","GA",30087,33.838749466,-84.130200276,41,"1324 ROCKBRIDGE ROAD SW, STONE MOUNTAIN, GA, 30087","Match","Non_Exact","1324 ROCKBRIDGE RD, STONE MOUNTAIN, GA, 30087",88887096,"L"
50542,"1324 S NORFOLK ST","INDPLS","IN",46241,39.7483371860001,-86.2539860589999,42,"1324 S NORFOLK ST, INDPLS, IN, 46241","Match","Exact","1324 S NORFOLK ST, INDIANAPOLIS, IN, 46241",107979963,"R"
50543,"1324 SANDBRIDGE ROAD","VIRGINIA BEACH","VA",23456,36.731967588,-75.985057662,43,"1324 SANDBRIDGE ROAD, VIRGINIA BEACH, VA, 23456","Match","Exact","1324 SANDBRIDGE RD, VA BCH, VA, 23456",122272110,"R"
50544,"1324 SEVEN SPRINGS BLVD STE 192","TRINITY","FL",34655,28.1830746910001,-82.698950101,44,"1324 SEVEN SPRINGS BLVD STE 192, TRINITY, FL, 34655","Match","Exact","1324 SEVEN SPRINGS BLVD, TRINITY, FL, 34655",86396672,"R"
50545,"1324 SNOWBERRY LANE","CRYSTAL LAKE","IL",60014,42.2340423810001,-88.37029821,45,"1324 SNOWBERRY LANE, CRYSTAL LAKE, IL, 60014","Match","Exact","1324 SNOWBERRY LN, CRYSTAL LAKE, IL, 60014",651631387,"L"
50546,"1324 SOUTH 8TH STREET","GOSHEN","IN",46526,41.57065478,-85.827884183,46,"1324 SOUTH 8TH STREET, GOSHEN, IN, 46526","Match","Exact","1324 S 8TH ST, GOSHEN, IN, 46526",604687304,"L"
50547,"1324 STUART RD","PRINCETON","NJ",8540,40.3670772140001,-74.6908831269999,47,"1324 STUART RD, PRINCETON, NJ, 8540","Match","Exact","1324 STUART RD, PRINCETON, NJ, 08540",60170403,"L"
50548,"1324 SW 116TH TERRACE","OKLAHOMA CITY","OK",73170,35.352468018,-97.539799607,48,"1324 SW 116TH TERRACE, OKLAHOMA CITY, OK, 73170","Match","Exact","1324 SW 116TH TER, OKLAHOMA CITY, OK, 73170",99922356,"R"
50549,"1324 W 95TH STREET APT B","LOS ANGELES","CA",90044,33.949706113,-118.2987146,49,"1324 W 95TH STREET APT B, LOS ANGELES, CA, 90044","Match","Non_Exact","1324 W 95TH ST, LOS ANGELES, CA, 90044",142753360,"L"
50550,"1324 WATERS END COURT","WINNABOW","NC",28479,34.182662785,-78.00412139,50,"1324 WATERS END COURT, WINNABOW, NC, 28479","Match","Exact","1324 WATERS END CT, WINNABOW, NC, 28479",638009917,"R"
50551,"1324 WEST VILLARD STREET","DICKINSON","ND",58601,46.8771083570001,-102.764111302,51,"1324 WEST VILLARD STREET, DICKINSON, ND, 58601","Match","Non_Exact","1324 E VILLARD ST, DICKINSON, ND, 58601",199272596,"R"
50552,"13240 NE 20TH ST STE 13","BELLEVUE","WA",98005,47.628035165,-122.163458048,52,"13240 NE 20TH ST STE 13, BELLEVUE, WA, 98005","Match","Non_Exact","13240 NE 20TH ST, BELLEVUE, WA, 98005",186697983,"L"
50553,"13240 SEMORA PLACE","CERRITOS","CA",90703,33.870624364,-118.049666818,53,"13240 SEMORA PLACE, CERRITOS, CA, 90703","Match","Exact","13240 SEMORA PL, CERRITOS, CA, 90703",141753614,"R"
50554,"13241 CALLOWAY GLEN DR","CHARLOTTE","NC",28273,NA,NA,54,"13241 CALLOWAY GLEN DR, CHARLOTTE, NC, 28273","No_Match",NA,NA,NA,NA
50555,"13241 HARMON RD","FORT WORTH","TX",76177,NA,NA,55,"13241 HARMON RD, FORT WORTH, TX, 76177","No_Match",NA,NA,NA,NA
50556,"13241 LUCKETT COURT","SAN DIEGO","CA",92130,32.9602667890001,-117.206869956,56,"13241 LUCKETT COURT, SAN DIEGO, CA, 92130","Match","Exact","13241 LUCKETT CT, SAN DIEGO, CA, 92130",195672637,"R"
50557,"13241 SATIN LILY DR","RIVERVIEW","FL",33579,27.7958791200001,-82.263019484,57,"13241 SATIN LILY DR, RIVERVIEW, FL, 33579","Match","Exact","13241 SATIN LILY DR, RIVERVIEW, FL, 33579",650530214,"R"
50558,"13241 SW 256 TER","HOMESTEAD","FL",33032,25.528488882,-80.4053723069999,58,"13241 SW 256 TER, HOMESTEAD, FL, 33032","Match","Exact","13241 SW 256TH TER, HOMESTEAD, FL, 33032",116261285,"R"
50559,"13242 97TH RD","LIVE OAK","FL",32060,30.2089783860001,-82.94576998,59,"13242 97TH RD, LIVE OAK, FL, 32060","Match","Exact","13242 97TH RD, LIVE OAK, FL, 32060",610557199,"R"
50560,"13242 S ROUTE 59  UNIT 205","PLAINFIELD","IL",60585,NA,NA,60,"13242 S ROUTE 59  UNIT 205, PLAINFIELD, IL, 60585","No_Match",NA,NA,NA,NA
50561,"13242 SALMON RIVER ROAD UNIT 101","SAN DIEGO","CA",92129,32.9573021630001,-117.121365999,61,"13242 SALMON RIVER ROAD UNIT 101, SAN DIEGO, CA, 92129","Match","Exact","13242 SALMON RIVER RD, SAN DIEGO, CA, 92129",195671628,"L"
50562,"13243 BABIN ESTATES DR","GONZALES","LA",70737,30.2598899400001,-90.951776023,62,"13243 BABIN ESTATES DR, GONZALES, LA, 70737","Match","Exact","13243 BABIN ESTATES DR, GONZALES, LA, 70737",648956865,"R"
50563,"13243 N 55TH AVE","GLENDALE","AZ",85304,33.605437651,-112.177121679,63,"13243 N 55TH AVE, GLENDALE, AZ, 85304","Match","Exact","13243 N 55TH AVE, GLENDALE, AZ, 85304",128176659,"L"
50564,"13243 WOODCOCK AVENUE","SYLMAR","CA",91342,34.311227864,-118.462540804,64,"13243 WOODCOCK AVENUE, SYLMAR, CA, 91342","Match","Exact","13243 WOODCOCK AVE, SYLMAR, CA, 91342",141545592,"L"
50565,"13245 ATLANIC BLVD 4-156","JACKSONVILLE","FL",32225,NA,NA,65,"13245 ATLANIC BLVD 4-156, JACKSONVILLE, FL, 32225","No_Match",NA,NA,NA,NA
50566,"13245 ATLANTIC BLVD STE 4-352","JACKSONVILLE","FL",32225,30.320266114,-81.458922576,66,"13245 ATLANTIC BLVD STE 4-352, JACKSONVILLE, FL, 32225","Match","Exact","13245 ATLANTIC BLVD, JACKSONVILLE, FL, 32225",83961913,"L"
50567,"13245 ATLANTIC BLVD SUITE 4-341","JACKSONVILLE","FL",32225,30.320266114,-81.458922576,67,"13245 ATLANTIC BLVD SUITE 4-341, JACKSONVILLE, FL, 32225","Match","Exact","13245 ATLANTIC BLVD, JACKSONVILLE, FL, 32225",83961913,"L"
50568,"13245 ATLANTIC BLVD UNIT 4-342","JACKSONVILLE","FL",32225,30.320266114,-81.458922576,68,"13245 ATLANTIC BLVD UNIT 4-342, JACKSONVILLE, FL, 32225","Match","Exact","13245 ATLANTIC BLVD, JACKSONVILLE, FL, 32225",83961913,"L"
50569,"13245 ATLANTIC BOULEVARD STE 4-231","JACKSONVILLE","FL",32225,30.320266114,-81.458922576,69,"13245 ATLANTIC BOULEVARD STE 4-231, JACKSONVILLE, FL, 32225","Match","Exact","13245 ATLANTIC BLVD, JACKSONVILLE, FL, 32225",83961913,"L"
50570,"13245 PASKENTA ROAD","PASKENTA","CA",96074,39.8847800830001,-122.544735352,70,"13245 PASKENTA ROAD, PASKENTA, CA, 96074","Match","Exact","13245 PASKENTA RD, PASKENTA, CA, 96074",119399226,"L"
50571,"13245 RIVERSIDE DRIVE SUITE 360","SHERMAN OAKS","CA",91423,34.1576197260001,-118.421589109,71,"13245 RIVERSIDE DRIVE SUITE 360, SHERMAN OAKS, CA, 91423","Match","Exact","13245 RIVERSIDE DR, SHERMAN OAKS, CA, 91423",141563525,"R"
50572,"13246 N 23RD AVE","PHOENIX","AZ",85029,33.6068565240001,-112.107905406,72,"13246 N 23RD AVE, PHOENIX, AZ, 85029","Match","Exact","13246 N 23RD AVE, PHOENIX, AZ, 85029",128382652,"L"
50573,"13246 S LANGLEY","CHICAGO","IL",60827,41.654794495,-87.60510234,73,"13246 S LANGLEY, CHICAGO, IL, 60827","Match","Non_Exact","13246 S LANGLEY AVE, CHICAGO, IL, 60827",111777920,"R"
50574,"13246 STATE ROAD 121","LAUREL","IN",47024,39.4912398810001,-85.2006503919999,74,"13246 STATE ROAD 121, LAUREL, IN, 47024","Match","Exact","13246 STATE RD 121, LAUREL, IN, 47024",33189042,"L"
50575,"13247 LAKE GENEVA WAY","GERMANTOWN","MD",20874,39.167320171,-77.2721821769999,75,"13247 LAKE GENEVA WAY, GERMANTOWN, MD, 20874","Match","Exact","13247 LAKE GENEVA WAY, GERMANTOWN, MD, 20874",62108918,"R"
50576,"13247 LAKE GENEVA WAY","GERMANTOWN","MD",21703,39.167320171,-77.2721821769999,76,"13247 LAKE GENEVA WAY, GERMANTOWN, MD, 21703","Match","Non_Exact","13247 LAKE GENEVA WAY, GERMANTOWN, MD, 20874",62108918,"R"
50577,"13247 NE 21ST AVE RD","CITRA","FL",32113,NA,NA,77,"13247 NE 21ST AVE RD, CITRA, FL, 32113","No_Match",NA,NA,NA,NA
50578,"13247 SAYRE STREET","SYLMAR","CA",91342,34.320913637,-118.421681313,78,"13247 SAYRE STREET, SYLMAR, CA, 91342","Match","Exact","13247 SAYRE ST, SYLMAR, CA, 91342",141546282,"R"
50579,"13248 BLUE GUM DR","RANCHO CUCAMONGA","CA",91739,34.1412207400001,-117.515428704,79,"13248 BLUE GUM DR, RANCHO CUCAMONGA, CA, 91739","Match","Exact","13248 BLUE GUM DR, ETIWANDA, CA, 91739",614814359,"L"
50580,"13248 LEE BONNER RD","ELROD","AL",35402,33.2985516150001,-87.812686388,80,"13248 LEE BONNER RD, ELROD, AL, 35402","Match","Non_Exact","13248 LEE BONNER RD, ELROD, AL, 35458",82210822,"L"
50581,"13248 ROGERS RD","LAKE OSWEGO","OR",97035,45.42990395,-122.736007152,81,"13248 ROGERS RD, LAKE OSWEGO, OR, 97035","Match","Exact","13248 ROGERS RD, LAKE OSWEGO, OR, 97035",639110723,"R"
50582,"1325 13TH STREET NW APT 401","WASHINGTON","DC",20005,38.907625119,-77.029615614,82,"1325 13TH STREET NW APT 401, WASHINGTON, DC, 20005","Match","Exact","1325 13TH ST NW, WASHINGTON, DC, 20005",76226079,"R"
50583,"1325 29TH AVE APT B","SAN FRANCISCO","CA",94122,37.7625593340001,-122.487805546,83,"1325 29TH AVE APT B, SAN FRANCISCO, CA, 94122","Match","Exact","1325 29TH AVE, SAN FRANCISCO, CA, 94122",192277419,"R"
50584,"1325 3RD AVE NW","ALICEVILLE","AL",35442,33.129705921,-88.1647510609999,84,"1325 3RD AVE NW, ALICEVILLE, AL, 35442","Match","Exact","1325 3RD AVE NW, ALICEVILLE, AL, 35442",621692,"L"
50585,"1325 58TH STREET NORTH APT 203A","ST PETERSBURG","FL",33710,27.784751279,-82.712260728,85,"1325 58TH STREET NORTH APT 203A, ST PETERSBURG, FL, 33710","Match","Exact","1325 58TH ST N, SAINT PETERSBURG, FL, 33710",124699527,"R"
50586,"1325 AIRMOTIVE WAY STE 125","RENO","NV",89502,39.510389262,-119.778880936,86,"1325 AIRMOTIVE WAY STE 125, RENO, NV, 89502","Match","Exact","1325 AIRMOTIVE WAY, RENO, NV, 89502",107052972,"R"
50587,"1325 AIRMOTIVE WAY STE125","RENO","NV",89502,39.510389262,-119.778880936,87,"1325 AIRMOTIVE WAY STE125, RENO, NV, 89502","Match","Exact","1325 AIRMOTIVE WAY, RENO, NV, 89502",107052972,"R"
50588,"1325 ARROWHEAD DRIVE","SAINT LOUIS","MO",63132,38.6800277410001,-90.3627985099999,88,"1325 ARROWHEAD DRIVE, SAINT LOUIS, MO, 63132","Match","Exact","1325 ARROWHEAD DR, SAINT LOUIS, MO, 63132",100132754,"L"
50589,"1325 ASHLAND DRIVE","COLUMBIA","SC",29229,34.1896122410001,-80.896804254,89,"1325 ASHLAND DRIVE, COLUMBIA, SC, 29229","Match","Exact","1325 ASHLAND DR, COLUMBIA, SC, 29229",641029245,"R"
50590,"1325 AUTUMN AVE","MEMPHIS","TN",38104,35.151052384,-90.015583653,90,"1325 AUTUMN AVE, MEMPHIS, TN, 38104","Match","Exact","1325 AUTUMN AVE, MEMPHIS, TN, 38104",72904700,"R"
50591,"1325 AVENUE OF THE AMERICAS 8TH FL","NEW YORK","NY",10019,40.761957959,-73.9789293699999,91,"1325 AVENUE OF THE AMERICAS 8TH FL, NEW YORK, NY, 10019","Match","Exact","1325 AVE OF THE AMERICAS, NEW YORK, NY, 10019",59657129,"L"
50592,"1325 BANKHEAD HWY N","BIRMINGHAM","AL",35204,33.5254915290001,-86.834881025,92,"1325 BANKHEAD HWY N, BIRMINGHAM, AL, 35204","Match","Exact","1325 BANKHEAD HWY N, BIRMINGHAM, AL, 35204",81555138,"R"
50593,"1325 BENT CREEK DRIVE","SOUTHLAKE","TX",76092,32.9245037700001,-97.153262895,93,"1325 BENT CREEK DRIVE, SOUTHLAKE, TX, 76092","Match","Exact","1325 BENT CREEK DR, SOUTHLAKE, TX, 76092",102145742,"L"
50594,"1325 BUCKBOARD LANE","BROADVIEW HEIGHTS","OH",44147,41.2822750010001,-81.68839401,94,"1325 BUCKBOARD LANE, BROADVIEW HEIGHTS, OH, 44147","Match","Exact","1325 BUCKBOARD LN, BROADVIEW HEIGHTS, OH, 44147",61150745,"R"
50595,"1325 CALLE GOYA","OCEANSIDE","CA",92056,33.2240060840001,-117.293273704,95,"1325 CALLE GOYA, OCEANSIDE, CA, 92056","Match","Non_Exact","1325 CLL GOYA, OCEANSIDE, CA, 92056",195420191,"R"
50596,"1325 CAROL PLACE","NATIONAL CITY","CA",91950,32.6842469650001,-117.066021717,96,"1325 CAROL PLACE, NATIONAL CITY, CA, 91950","Match","Exact","1325 CAROL PL, NATIONAL CITY, CA, 91950",195353512,"L"
50597,"1325 CHIMNEY ROCK DR","ALLEN","TX",75002,33.1173823290001,-96.636638191,97,"1325 CHIMNEY ROCK DR, ALLEN, TX, 75002","Match","Exact","1325 CHIMNEY ROCK DR, ALLEN, TX, 75002",123568686,"L"
50598,"1325 CIRCLE CITY DRIVE APT 101","CORONA","CA",92879,33.871891095,-117.549135239,98,"1325 CIRCLE CITY DRIVE APT 101, CORONA, CA, 92879","Match","Exact","1325 CIRCLE CITY DR, CORONA, CA, 92879",194778190,"L"
50599,"1325 COLEMAN DR","RENO","NV",89503,39.541222691,-119.835745925,99,"1325 COLEMAN DR, RENO, NV, 89503","Match","Exact","1325 COLEMAN DR, RENO, NV, 89503",107101204,"L"
50600,"1325 COMLY RD","TURBOTVILLE","PA",17772,41.1146617300001,-76.754732312,100,"1325 COMLY RD, TURBOTVILLE, PA, 17772","Match","Exact","1325 COMLY RD, TURBOTVILLE, PA, 17772",48090381,"R"
50601,"1325 CR 124","GEORGETOWN","TX",78626,30.6708204180001,-97.5635161709999,101,"1325 CR 124, GEORGETOWN, TX, 78626","Match","Exact","1325 CO RD 124, GEORGETOWN, TX, 78626",126469105,"L"
50602,"1325 DIXIELAND ROAD","HARLINGEN","TX",78552,NA,NA,102,"1325 DIXIELAND ROAD, HARLINGEN, TX, 78552","No_Match",NA,NA,NA,NA
50603,"1325 E 54TH ST","BROOKLYN","NY",11234,40.625426793,-73.9236609829999,103,"1325 E 54TH ST, BROOKLYN, NY, 11234","Match","Exact","1325 E 54TH ST, BROOKLYN, NY, 11234",59097954,"L"
50604,"1325 E RITTER ST","REPUBLIC","MO",65738,NA,NA,104,"1325 E RITTER ST, REPUBLIC, MO, 65738","Tie",NA,NA,NA,NA
50605,"1325 EAST ALLENS BRIDGE ROAD","GREENEVILLE","TN",37743,36.09665033,-82.854304097,105,"1325 EAST ALLENS BRIDGE ROAD, GREENEVILLE, TN, 37743","Match","Exact","1325 E ALLENS BRIDGE RD, GREENEVILLE, TN, 37743",127760099,"L"
50606,"1325 FALCON WAY","OTTAWA","KS",66067,NA,NA,106,"1325 FALCON WAY, OTTAWA, KS, 66067","No_Match",NA,NA,NA,NA
50607,"1325 FIFTH AVENUE","NEW YORK","NY",10029,40.797684981,-73.9486296269999,107,"1325 FIFTH AVENUE, NEW YORK, NY, 10029","Match","Exact","1325 5TH AVE, NEW YORK, NY, 10029",59657758,"R"
50608,"1325 FRANKLIN AVE","TRACY","CA",95376,37.7429858020001,-121.416928806,108,"1325 FRANKLIN AVE, TRACY, CA, 95376","Match","Exact","1325 FRANKLIN AVE, TRACY, CA, 95376",133854297,"L"
50609,"1325 G STREET NW SUITE 500","WASHINGTON","DC",20005,38.8983195490001,-77.0302859989999,109,"1325 G STREET NW SUITE 500, WASHINGTON, DC, 20005","Match","Exact","1325 G ST NW, WASHINGTON, DC, 20005",76225885,"R"
50610,"1325 GLENMEADOW CT","NISKAYUNA","NY",12309,NA,NA,110,"1325 GLENMEADOW CT, NISKAYUNA, NY, 12309","No_Match",NA,NA,NA,NA
50611,"1325 GREENSTONE COURT","COLUMBUS","GA",31906,32.473449821,-84.937661422,111,"1325 GREENSTONE COURT, COLUMBUS, GA, 31906","Match","Exact","1325 GREENSTONE CT, COLUMBUS, GA, 31906",98946177,"L"
50612,"1325 HAMILTON STREET NW","WASHINGTON","DC",20011,38.952915207,-77.030758503,112,"1325 HAMILTON STREET NW, WASHINGTON, DC, 20011","Match","Exact","1325 HAMILTON ST NW, WASHINGTON, DC, 20011",76222334,"R"
50613,"1325 HARMON DR BLDG 10215","LACKLAND AFB","TX",78236,NA,NA,113,"1325 HARMON DR BLDG 10215, LACKLAND AFB, TX, 78236","No_Match",NA,NA,NA,NA
50614,"1325 HARRISON STREET","BATESVILLE","AR",72501,35.769650832,-91.6403299149999,114,"1325 HARRISON STREET, BATESVILLE, AR, 72501","Match","Exact","1325 HARRISON ST, BATESVILLE, AR, 72501",638745801,"R"
50615,"1325 HEWITT STREET","LAS VEGAS","NV",89106,36.185397854,-115.172669436,115,"1325 HEWITT STREET, LAS VEGAS, NV, 89106","Match","Exact","1325 HEWITT ST, LAS VEGAS, NV, 89106",201864992,"L"
50616,"1325 HIGH STREET","ALAMEDA","CA",94501,37.7568441010001,-122.233498183,116,"1325 HIGH STREET, ALAMEDA, CA, 94501","Match","Exact","1325 HIGH ST, ALAMEDA, CA, 94501",606279105,"L"
50617,"1325 INDEPENDENCE RD","COLDWATER","MS",38618,34.7070418500001,-89.819084398,117,"1325 INDEPENDENCE RD, COLDWATER, MS, 38618","Match","Exact","1325 INDEPENDENCE RD, COLDWATER, MS, 38618",80138085,"L"
50618,"1325 JAY STREET","LAKEWOOD","CO",80214,39.7347091460001,-105.064869711,118,"1325 JAY STREET, LAKEWOOD, CO, 80214","Match","Exact","1325 JAY ST, LAKEWOOD, CO, 80214",177291089,"L"
50619,"1325 KATHY STREET","VAN WERT","OH",45891,40.867081898,-84.602333931,119,"1325 KATHY STREET, VAN WERT, OH, 45891","Match","Exact","1325 KATHY ST, VAN WERT, OH, 45891",6774388,"R"
50620,"1325 KELLY DRIVE","GOLDEN VALLEY","MN",55427,44.9932127610001,-93.3728043579999,120,"1325 KELLY DRIVE, GOLDEN VALLEY, MN, 55427","Match","Exact","1325 KELLY DR, GOLDEN VALLEY, MN, 55427",43831407,"L"
50621,"1325 LAKELAND HILLS BLVD","LAKELAND","FL",33805,28.061259481,-81.9532402569999,121,"1325 LAKELAND HILLS BLVD, LAKELAND, FL, 33805","Match","Exact","1325 LAKELAND HILLS BLVD, LAKELAND, FL, 33805",104808421,"R"
50622,"1325 LAKESHORE DRIVE","CLEVELAND","WI",53015,43.920884652,-87.724545329,122,"1325 LAKESHORE DRIVE, CLEVELAND, WI, 53015","Match","Exact","1325 LAKESHORE DR, CLEVELAND, WI, 53015",640786821,"L"
50623,"1325 LONDON ROAD","DULUTH","MN",55805,46.7988482690001,-92.0799573689999,123,"1325 LONDON ROAD, DULUTH, MN, 55805","Match","Exact","1325 LONDON RD, DULUTH, MN, 55805",163233320,"L"
50624,"1325 MAIN ST APT 203","BUFFALO","NY",14209,42.909691271,-78.866464833,124,"1325 MAIN ST APT 203, BUFFALO, NY, 14209","Match","Exact","1325 MAIN ST, BUFFALO, NY, 14209",48289794,"R"
50625,"1325 MAIN STREET","VICKSBURG","MS",39183,32.3531922110001,-90.873961166,125,"1325 MAIN STREET, VICKSBURG, MS, 39183","Match","Exact","1325 MAIN ST, VICKSBURG, MS, 39183",71293641,"R"
50626,"1325 MAPLEGROVE CIRCLE","LAS VEGAS","NV",89108,36.185405137,-115.228245495,126,"1325 MAPLEGROVE CIRCLE, LAS VEGAS, NV, 89108","Match","Exact","1325 MAPLEGROVE CIR, LAS VEGAS, NV, 89108",201899254,"R"
50627,"1325 MILLERSPORT HIGHWAY SUITE 206","BUFFALO","NY",14221,42.987770266,-78.79130379,127,"1325 MILLERSPORT HIGHWAY SUITE 206, BUFFALO, NY, 14221","Match","Exact","1325 MILLERSPORT HWY, BUFFALO, NY, 14221",48319153,"R"
50628,"1325 MOCKINGBIRD DR","PINE BLUFF","AR",71602,34.262382297,-92.113247859,128,"1325 MOCKINGBIRD DR, PINE BLUFF, AR, 71602","Match","Exact","1325 MOCKINGBIRD DR, PINE BLUFF, AR, 71602",2547043,"R"
50629,"1325 MURPHY LANE","WINSTON-SALEM","NC",27104,NA,NA,129,"1325 MURPHY LANE, WINSTON-SALEM, NC, 27104","No_Match",NA,NA,NA,NA
50630,"1325 N CATALPA AVE","ANAHEIM","CA",92801,33.8526334470001,-117.958258204,130,"1325 N CATALPA AVE, ANAHEIM, CA, 92801","Match","Exact","1325 N CATALPA AVE, ANAHEIM, CA, 92801",609066926,"L"
50631,"1325 N COLLEGE AVE W-161","CLAREMONT","CA",91711,NA,NA,131,"1325 N COLLEGE AVE W-161, CLAREMONT, CA, 91711","No_Match",NA,NA,NA,NA
50632,"1325 N MAIN STREET","WHEATON","IL",60187,41.878140902,-88.1067523299999,132,"1325 N MAIN STREET, WHEATON, IL, 60187","Match","Exact","1325 N MAIN ST, WHEATON, IL, 60187",649657066,"R"
50633,"1325 NANCY HANKS ROAD SUITE 1","LEXINGTON","KY",40504,38.0471949440001,-84.522551417,133,"1325 NANCY HANKS ROAD SUITE 1, LEXINGTON, KY, 40504","Match","Exact","1325 NANCY HANKS RD, LEXINGTON, KY, 40504",31920777,"R"
50634,"1325 NEW STREET","FRANKLIN","PA",16323,41.395069257,-79.832787227,134,"1325 NEW STREET, FRANKLIN, PA, 16323","Match","Exact","1325 NEW ST, FRANKLIN, PA, 16323",70738576,"L"
50635,"1325 NORTH 127TH AVENUE","OMAHA","NE",68154,41.2718642400001,-96.110698,135,"1325 NORTH 127TH AVENUE, OMAHA, NE, 68154","Match","Exact","1325 N 127TH AVE, OMAHA, NE, 68154",117007035,"R"
50636,"1325 NORTH JEFFERSON ST 524","MILWAUKEE","WI",53202,43.047293693,-87.906012517,136,"1325 NORTH JEFFERSON ST 524, MILWAUKEE, WI, 53202","Match","Exact","1325 N JEFFERSON ST, MILWAUKEE, WI, 53202",77744455,"L"
50637,"1325 NORTHCREST DRIVE","CRESCENT CITY","CA",95531,41.7696477530001,-124.199340622,137,"1325 NORTHCREST DRIVE, CRESCENT CITY, CA, 95531","Match","Exact","1325 NORTHCREST DR, CRESCENT CITY, CA, 95531",113179264,"R"
50638,"1325 NORTHGATE CIRCLE APT 103","OVIEDO","FL",32765,28.614664287,-81.195422085,138,"1325 NORTHGATE CIRCLE APT 103, OVIEDO, FL, 32765","Match","Exact","1325 NORTHGATE CIR, OVIEDO, FL, 32765",635890204,"R"
50639,"1325 NORTHUP RD","GALLIPOLIS","OH",45631,38.7844568960001,-82.312285477,139,"1325 NORTHUP RD, GALLIPOLIS, OH, 45631","Match","Exact","1325 NORTHUP RD, GALLIPOLIS, OH, 45631",54973647,"R"
50640,"1325 OHIO ST","ZANESVILLE","OH",43701,39.9296594830001,-82.0233558799999,140,"1325 OHIO ST, ZANESVILLE, OH, 43701","Match","Exact","1325 OHIO ST, ZANESVILLE, OH, 43701",45594968,"R"
50641,"1325 PILOT DRIVE","COOKEVILLE","TN",38506,36.130665133,-85.5139126939999,141,"1325 PILOT DRIVE, COOKEVILLE, TN, 38506","Match","Exact","1325 PILOT DR, COOKEVILLE, TN, 38506",605298381,"L"
50642,"1325 PINEHURST DRIVE","LEWISVILLE","TX",75077,33.081885062,-97.028902826,142,"1325 PINEHURST DRIVE, LEWISVILLE, TX, 75077","Match","Exact","1325 PINEHURST DR, LEWISVILLE, TX, 75077",103388360,"L"
50643,"1325 PRIVATE ROAD 3263","GIDDINGS","TX",78942,30.2532070560001,-97.014850374,143,"1325 PRIVATE ROAD 3263, GIDDINGS, TX, 78942","Match","Non_Exact","1325 PVT RD 3263, GIDDINGS, TX, 78942",39137140,"L"
50644,"1325 Q ST 100","BAKERSFIELD","CA",93301,NA,NA,144,"1325 Q ST 100, BAKERSFIELD, CA, 93301","No_Match",NA,NA,NA,NA
50645,"1325 REBECCA BAILEY DR APT 301B","CHARLOTTE","NC",28262,35.312806283,-80.717492004,145,"1325 REBECCA BAILEY DR APT 301B, CHARLOTTE, NC, 28262","Match","Exact","1325 REBECCA BAILEY DR, CHARLOTTE, NC, 28262",70550608,"R"
50646,"1325 RIVER ROAD BLVD","INDEPENDENCE","IA",50644,42.531601924,-92.0186774049999,146,"1325 RIVER ROAD BLVD, INDEPENDENCE, IA, 50644","Match","Exact","1325 RIVER ROAD BLVD, INDEPENDENCE, IA, 50644",101149178,"R"
50647,"1325 ROOSEVELT","ALICE","TX",78332,27.76460976,-98.0599397129999,147,"1325 ROOSEVELT, ALICE, TX, 78332","Match","Non_Exact","1325 ROOSEVELT DR, ALICE, TX, 78332",21513571,"L"
50648,"1325 S BROADWAY AVE","HINTON","OK",73047,35.4498950010001,-98.359222626,148,"1325 S BROADWAY AVE, HINTON, OK, 73047","Match","Non_Exact","1325 S BROADWAY ST, HINTON, OK, 73047",651531675,"R"
50649,"1325 S MARYLAND PARKWAY","LAS VEGAS","NV",89104,NA,NA,149,"1325 S MARYLAND PARKWAY, LAS VEGAS, NV, 89104","No_Match",NA,NA,NA,NA
50650,"1325 S RAVENAL AVE","MARSHALL","MO",65340,39.1079976520001,-93.2021098339999,150,"1325 S RAVENAL AVE, MARSHALL, MO, 65340","Match","Exact","1325 S RAVENAL AVE, MARSHALL, MO, 65340",21027540,"R"
50651,"1325 SATELLITE BLVD SUITE 1001","SUWANEE","GA",30024,34.0088210480001,-84.073179797,151,"1325 SATELLITE BLVD SUITE 1001, SUWANEE, GA, 30024","Match","Exact","1325 SATELLITE BLVD, SUWANEE, GA, 30024",88953077,"L"
50652,"1325 SEAGRAPE CIR","WESTON","FL",33326,26.1045169550001,-80.375083321,152,"1325 SEAGRAPE CIR, WESTON, FL, 33326","Match","Exact","1325 SEAGRAPE CIR, WESTON, FL, 33326",635617486,"L"
50653,"1325 SHANNON COURT","OPELIKA","AL",36801,32.64488056,-85.394279835,153,"1325 SHANNON COURT, OPELIKA, AL, 36801","Match","Exact","1325 SHANNON CT, OPELIKA, AL, 36801",1599098,"L"
50654,"1325 SOUTH 19TH STREET","NEW CASTLE","IN",47362,39.919344741,-85.3618415999999,154,"1325 SOUTH 19TH STREET, NEW CASTLE, IN, 47362","Match","Exact","1325 S 19TH ST, NEW CASTLE, IN, 47362",29984376,"L"
50655,"1325 SOUTH CAROLINA RD SUITE 37","EASTOVER","SC",29044,33.933745555,-80.808539592,155,"1325 SOUTH CAROLINA RD SUITE 37, EASTOVER, SC, 29044","Match","Exact","1325 SOUTH CAROLINA RD, EASTOVER, SC, 29044",71847004,"L"
50656,"1325 SOUTH CAROLINA RD","EASTOVER","SC",29044,33.933745555,-80.808539592,156,"1325 SOUTH CAROLINA RD, EASTOVER, SC, 29044","Match","Exact","1325 SOUTH CAROLINA RD, EASTOVER, SC, 29044",71847004,"L"
50657,"1325 SOUTH DINWIDDIE","ARLINGTON","VA",22206,38.8471868440001,-77.1129222759999,157,"1325 SOUTH DINWIDDIE, ARLINGTON, VA, 22206","Match","Non_Exact","1325 S DINWIDDIE ST, ARLINGTON, VA, 22206",76469264,"L"
50658,"1325 SOUTH FOUNTAIN DRIVE","OLATHE","KS",66061,38.862398377,-94.820102589,158,"1325 SOUTH FOUNTAIN DRIVE, OLATHE, KS, 66061","Match","Exact","1325 S FOUNTAIN DR, OLATHE, KS, 66061",91301151,"R"
50659,"1325 SOUTH WABASH AVENUE SUITE 307","CHICAGO","IL",60605,41.865287876,-87.625775764,159,"1325 SOUTH WABASH AVENUE SUITE 307, CHICAGO, IL, 60605","Match","Exact","1325 S WABASH AVE, CHICAGO, IL, 60605",111828899,"L"
50660,"1325 STEWARTSTOWN RD APT A7","MORGANTOWN","WV",26505,39.654299774,-79.9346094429999,160,"1325 STEWARTSTOWN RD APT A7, MORGANTOWN, WV, 26505","Match","Exact","1325 STEWARTSTOWN RD, MORGANTOWN, WV, 26505",50764674,"L"
50661,"1325 STONE RD UNIT 604","TALLAHASSEE","FL",32303,30.4761614710001,-84.305504996,161,"1325 STONE RD UNIT 604, TALLAHASSEE, FL, 32303","Match","Exact","1325 STONE RD, TALLAHASSEE, FL, 32303",82885069,"L"
50662,"1325 STONE ROAD UNIT 604","TALLAHASSEE","FL",32303,30.4761614710001,-84.305504996,162,"1325 STONE ROAD UNIT 604, TALLAHASSEE, FL, 32303","Match","Exact","1325 STONE RD, TALLAHASSEE, FL, 32303",82885069,"L"
50663,"1325 TEAMON RD","GRIFFIN","GA",30223,33.333136396,-84.2503990879999,163,"1325 TEAMON RD, GRIFFIN, GA, 30223","Match","Exact","1325 TEAMON RD, GRIFFIN, GA, 30223",23759721,"R"
50664,"1325 TOLTEC DR","DALLAS","TX",75232,32.6838166260001,-96.842569156,164,"1325 TOLTEC DR, DALLAS, TX, 75232","Match","Exact","1325 TOLTEC DR, DALLAS, TX, 75232",102948191,"R"
50665,"1325 W HOWARD ST SUITE 304","EVANSTON","IL",60202,42.019512343,-87.691271238,165,"1325 W HOWARD ST SUITE 304, EVANSTON, IL, 60202","Match","Exact","1325 HOWARD ST, EVANSTON, IL, 60202",605265650,"R"
50666,"1325 W MAIN STREET STE B","FRANKLIN","TN",37064,35.9146816200001,-86.884112107,166,"1325 W MAIN STREET STE B, FRANKLIN, TN, 37064","Match","Non_Exact","1325 W MAIN ST, FRANKLIN, TN, 37064",73134077,"R"
50667,"1325 W THARPE ST APT 322","TALLAHASSEE","FL",32303,30.463523632,-84.3045173359999,167,"1325 W THARPE ST APT 322, TALLAHASSEE, FL, 32303","Match","Non_Exact","1325 W THARPE ST, TALLAHASSEE, FL, 32303",610226506,"L"
50668,"1325 W WILSON","CHICAGO","IL",60640,41.965312506,-87.6635177799999,168,"1325 W WILSON, CHICAGO, IL, 60640","Match","Non_Exact","1325 W WILSON AVE, CHICAGO, IL, 60640",605200059,"L"
50669,"1325 WASHINGTON ST","THE DALLES","OR",97058,45.594781321,-121.188211816,169,"1325 WASHINGTON ST, THE DALLES, OR, 97058","Match","Exact","1325 WASHINGTON ST, THE DALLES, OR, 97058",175533008,"L"
50670,"1325 WASHINGTON STREET","CANTON","MA",2021,42.172129612,-71.139859751,170,"1325 WASHINGTON STREET, CANTON, MA, 2021","Match","Exact","1325 WASHINGTON ST, CANTON, MA, 02021",87298010,"R"
50671,"1325 WEST 28TH STREET","RIVIERA BEACH","FL",33404,26.786018018,-80.0750929719999,171,"1325 WEST 28TH STREET, RIVIERA BEACH, FL, 33404","Match","Exact","1325 W 28TH ST, RIVIERA BEACH, FL, 33404",115354929,"L"
50672,"1325 WEST 84TH PLACE","LOS ANGELES","CA",90044,33.962468265,-118.298933884,172,"1325 WEST 84TH PLACE, LOS ANGELES, CA, 90044","Match","Non_Exact","1325 W 84TH ST, LOS ANGELES, CA, 90044",141659904,"R"
50673,"1325 WESTMORELAND AVENUE","NORFOLK","VA",23508,36.8935413460001,-76.3056212,173,"1325 WESTMORELAND AVENUE, NORFOLK, VA, 23508","Match","Exact","1325 WESTMORELAND AVE, NORFOLK, VA, 23508",122144153,"L"
50674,"1325 WOLF CREEK DR","DESOTO","TX",75115,32.5862045270001,-96.8932355809999,174,"1325 WOLF CREEK DR, DESOTO, TX, 75115","Match","Exact","1325 WOLF CREEK DR, DESOTO, TX, 75115",102994292,"L"
50675,"1325","MERIDIAN","ID",83646,NA,NA,175,"1325, MERIDIAN, ID, 83646","No_Match",NA,NA,NA,NA
50676,"13250 E MINETA RIDGE DR","VAIL","AZ",85641,32.0543835400001,-110.711533018,176,"13250 E MINETA RIDGE DR, VAIL, AZ, 85641","Match","Exact","13250 E MINETA RIDGE DR, VAIL, AZ, 85641",618216407,"R"
50677,"13250 N 74 LN","PEORIA","AZ",85381,33.6055399690001,-112.219395896,177,"13250 N 74 LN, PEORIA, AZ, 85381","Match","Exact","13250 N 74TH LN, PEORIA, AZ, 85381",128391365,"L"
50678,"13250 SW 107 ST","MIAMI","FL",33186,25.6682225930001,-80.4090714879999,178,"13250 SW 107 ST, MIAMI, FL, 33186","Match","Exact","13250 SW 107TH ST, MIAMI, FL, 33186",115967887,"L"
50679,"13250 SW 88TH TERR","MIAMI","FL",33186,25.6853619390001,-80.4069885339999,179,"13250 SW 88TH TERR, MIAMI, FL, 33186","Match","Exact","13250 SW 88TH TER, MIAMI, FL, 33186",642890864,"R"
50680,"13251 MIDDLETON FARM LANE","HERNDON","VA",20171,38.9279940380001,-77.4057196649999,180,"13251 MIDDLETON FARM LANE, HERNDON, VA, 20171","Match","Exact","13251 MIDDLETON FARM LN, HERNDON, VA, 20171",618557902,"R"
50681,"13251 NEWBERG RD","CAT SPRING","TX",78933,29.8516122130001,-96.363277205,181,"13251 NEWBERG RD, CAT SPRING, TX, 78933","Match","Exact","13251 NEWBERG RD, CAT SPRING, TX, 78933",41813058,"L"
50682,"13251 SW 113 TERRACE","MIAMI","FL",33186,25.662111496,-80.4079492659999,182,"13251 SW 113 TERRACE, MIAMI, FL, 33186","Match","Exact","13251 SW 113TH TER, MIAMI, FL, 33186",116046026,"R"
50683,"13252 GARDEN GROVE BLVD STE 126","GARDEN GROVE","CA",92843,33.774436973,-117.903916404,183,"13252 GARDEN GROVE BLVD STE 126, GARDEN GROVE, CA, 92843","Match","Exact","13252 GARDEN GROVE BLVD, GARDEN GROVE, CA, 92843",630480067,"R"
50684,"13252 POENER PL","HERNDON","VA",20170,38.9616205240001,-77.405466928,184,"13252 POENER PL, HERNDON, VA, 20170","Match","Exact","13252 POENER PL, HERNDON, VA, 20170",75957085,"R"
50685,"13253 GREEN BAY","CHICAGO","IL",60633,NA,NA,185,"13253 GREEN BAY, CHICAGO, IL, 60633","No_Match",NA,NA,NA,NA
50686,"13253 SW 252 LANE","HOMESTEAD","FL",33032,25.5322976680001,-80.4056369309999,186,"13253 SW 252 LANE, HOMESTEAD, FL, 33032","Match","Exact","13253 SW 252 LN, HOMESTEAD, FL, 33032",642079585,"R"
50687,"13254 GEORGE ROUYEA RD","GONZALES","LA",70737,30.2614123810001,-90.8872599009999,187,"13254 GEORGE ROUYEA RD, GONZALES, LA, 70737","Match","Exact","13254 GEORGE ROUYEA RD, GONZALES, LA, 70737",115048470,"R"
50688,"13254 WHITFORD RD","RODMAN","NY",13682,NA,NA,188,"13254 WHITFORD RD, RODMAN, NY, 13682","No_Match",NA,NA,NA,NA
50689,"13255 FIRST AVENUE","VICTORVILLE","CA",92395,34.491871249,-117.295843829,189,"13255 FIRST AVENUE, VICTORVILLE, CA, 92395","Match","Exact","13255 1ST AVE, VICTORVILLE, CA, 92395",144587713,"R"
50690,"13255 MONTANE MANOR LANE","HOUSTON","TX",77044,29.862089514,-95.198395379,190,"13255 MONTANE MANOR LANE, HOUSTON, TX, 77044","Match","Exact","13255 MONTANE MANOR LN, HOUSTON, TX, 77044",653237472,"L"
50691,"13255 SW 278TH TERRACE","HOMESTEAD","FL",33032,25.50850869,-80.4059789189999,191,"13255 SW 278TH TERRACE, HOMESTEAD, FL, 33032","Match","Exact","13255 SW 278TH TER, HOMESTEAD, FL, 33032",629020573,"R"
50692,"13257 COCHERO DRIVE","ST. LOUIS","MO",63141,38.6794813500001,-90.491120248,192,"13257 COCHERO DRIVE, ST. LOUIS, MO, 63141","Match","Exact","13257 COCHERO DR, SAINT LOUIS, MO, 63141",100162641,"R"
50693,"13257 CUMBERLAND DRIVE","LARGO","FL",33773,27.8931302770001,-82.748358449,193,"13257 CUMBERLAND DRIVE, LARGO, FL, 33773","Match","Exact","13257 CUMBERLAND DR, LARGO, FL, 33773",636737531,"R"
50694,"13258 BAVARIAN DRIVE","SAN DIEGO","CA",92129,32.9594423990001,-117.140568546,194,"13258 BAVARIAN DRIVE, SAN DIEGO, CA, 92129","Match","Exact","13258 BAVARIAN DR, SAN DIEGO, CA, 92129",195317956,"L"
50695,"13258 S PRARIE AVE","CHICAGO","IL",60827,41.654140468,-87.615880572,195,"13258 S PRARIE AVE, CHICAGO, IL, 60827","Match","Non_Exact","13258 S PRAIRIE AVE, CHICAGO, IL, 60827",111876338,"R"
50696,"13259 SOUTH STREET","CERRITOS","CA",90703,33.858675786,-118.049205912,196,"13259 SOUTH STREET, CERRITOS, CA, 90703","Match","Exact","13259 SOUTH ST, CERRITOS, CA, 90703",640423141,"L"
50697,"13259 STRAVINSKY TERRACE","SILVER SPRING","MD",20904,39.0727636130001,-76.950709565,197,"13259 STRAVINSKY TERRACE, SILVER SPRING, MD, 20904","Match","Exact","13259 STRAVINSKY TER, SILVER SPRING, MD, 20904",62089874,"R"
50698,"1325B EVANS AVE","SAN FRANCISCO","CA",94124,37.740021068,-122.383288921,198,"1325B EVANS AVE, SAN FRANCISCO, CA, 94124","Match","Exact","1325 EVANS AVE, SAN FRANCISCO, CA, 94124",192300860,"L"
50699,"1326 183RD AVE NE","BELLEVUE","WA",98008,47.6213665400001,-122.097198309,199,"1326 183RD AVE NE, BELLEVUE, WA, 98008","Match","Exact","1326 183RD AVE NE, BELLEVUE, WA, 98008",239764574,"R"
50700,"1326 24TH STREET NE","CANTON","OH",44714,40.823094827,-81.358957249,200,"1326 24TH STREET NE, CANTON, OH, 44714","Match","Exact","1326 24TH ST NE, CANTON, OH, 44714",64679446,"R"
50701,"1326 4TH STREET","CATASAUQUA","NY",18032,NA,NA,201,"1326 4TH STREET, CATASAUQUA, NY, 18032","No_Match",NA,NA,NA,NA
50702,"1326 5TH AVENUE SUITE 343","SEATTLE","WA",98101,47.6089915310001,-122.334025336,202,"1326 5TH AVENUE SUITE 343, SEATTLE, WA, 98101","Match","Exact","1326 5TH AVE, SEATTLE, WA, 98101",239762484,"R"
50703,"1326 ALASKA AVE","DALLAS","TX",75216,32.7325907170001,-96.815654802,203,"1326 ALASKA AVE, DALLAS, TX, 75216","Match","Exact","1326 ALASKA AVE, DALLAS, TX, 75216",102949359,"L"
50704,"1326 ATLANTIC STREET","WILSON","NC",27893,35.717295888,-77.897427884,204,"1326 ATLANTIC STREET, WILSON, NC, 27893","Match","Non_Exact","1326 ATLANTIC ST E, WILSON, NC, 27893",26705637,"L"
50705,"1326 BARNES AVE","ALVA","OK",73717,36.8038596860001,-98.6789450639999,205,"1326 BARNES AVE, ALVA, OK, 73717","Match","Non_Exact","1326 BARNES ST, ALVA, OK, 73717",161173336,"R"
50706,"1326 BURNETT AVENUE","AMES","IA",50010,42.034896861,-93.615501084,206,"1326 BURNETT AVENUE, AMES, IA, 50010","Match","Exact","1326 BURNETT AVE, AMES, IA, 50010",647650430,"R"
50707,"1326 CABRILLO","SAINT LOUIS","MO",63138,38.793859872,-90.2072170659999,207,"1326 CABRILLO, SAINT LOUIS, MO, 63138","Match","Non_Exact","1326 CABRILLO DR, SAINT LOUIS, MO, 63138",100150749,"L"
50708,"1326 CHALCEDONY ST","SAN DIEGO","CA",92109,32.8033572200001,-117.247236151,208,"1326 CHALCEDONY ST, SAN DIEGO, CA, 92109","Match","Exact","1326 CHALCEDONY ST, SAN DIEGO, CA, 92109",195302894,"L"
50709,"1326 COLD SPRING RD","NEENAH","WI",54956,44.2148994620001,-88.4853797009999,209,"1326 COLD SPRING RD, NEENAH, WI, 54956","Match","Exact","1326 COLD SPRING RD, NEENAH, WI, 54956",74486648,"L"
50710,"1326 COLUMBIA ROAD APT 3","SOUTH BOSTON","MA",2127,42.330124577,-71.0389965479999,210,"1326 COLUMBIA ROAD APT 3, SOUTH BOSTON, MA, 2127","Match","Exact","1326 COLUMBIA RD, SOUTH BOSTON, MA, 02127",85724481,"L"
50711,"1326 COLUMBIA ROAD APT 4","BOSTON","MA",2127,42.330124577,-71.0389965479999,211,"1326 COLUMBIA ROAD APT 4, BOSTON, MA, 2127","Match","Exact","1326 COLUMBIA RD, BOSTON, MA, 02127",85724481,"L"
50712,"1326 E INTERNATIONAL SPEEDWAY BLVD","DELAND","FL",32724,29.055961,-81.278969101,212,"1326 E INTERNATIONAL SPEEDWAY BLVD, DELAND, FL, 32724","Match","Non_Exact","1326 INTERNATIONAL SPEEDWAY BLVD, DELAND, FL, 32724",94593619,"R"
50713,"1326 E SKYLINE PKWY","DULUTH","MN",55805,46.8069471490001,-92.095555651,213,"1326 E SKYLINE PKWY, DULUTH, MN, 55805","Match","Exact","1326 E SKYLINE PKWY, DULUTH, MN, 55805",163220939,"R"
50714,"1326 EDGAR AVENUE","BEAUMONT","CA",92223,33.944303114,-116.980001681,214,"1326 EDGAR AVENUE, BEAUMONT, CA, 92223","Match","Exact","1326 EDGAR AVE, BEAUMONT, CA, 92223",651005610,"L"
50715,"1326 ENERGY PARK DRIVE","ST PAUL","MN",55108,44.970730218,-93.156432111,215,"1326 ENERGY PARK DRIVE, ST PAUL, MN, 55108","Match","Exact","1326 ENERGY PARK DR, SAINT PAUL, MN, 55108",97667373,"L"
50716,"1326 EWING CHAPEL RD","DACULA","GA",30019,33.950731181,-83.894947686,216,"1326 EWING CHAPEL RD, DACULA, GA, 30019","Match","Exact","1326 EWING CHAPEL RD, DACULA, GA, 30019",650748286,"L"
50717,"1326 FIFTH AVE SUITE 650","SEATTLE","WA",98101,47.6089915310001,-122.334025336,217,"1326 FIFTH AVE SUITE 650, SEATTLE, WA, 98101","Match","Exact","1326 5TH AVE, SEATTLE, WA, 98101",239762484,"R"
50718,"1326 FISKE RD","COULTERVILLE","CA",95311,NA,NA,218,"1326 FISKE RD, COULTERVILLE, CA, 95311","No_Match",NA,NA,NA,NA
50719,"1326 FLORIDA AVENUE NE","WASHINGTON","DC",20002,38.901531,-76.9873088699999,219,"1326 FLORIDA AVENUE NE, WASHINGTON, DC, 20002","Match","Exact","1326 FLORIDA AVE NE, WASHINGTON, DC, 20002",76230160,"L"
50720,"1326 FRANKLIN AVENUE","CHARITON","IA",50049,41.017831937,-93.313460992,220,"1326 FRANKLIN AVENUE, CHARITON, IA, 50049","Match","Exact","1326 FRANKLIN AVE, CHARITON, IA, 50049",83735916,"R"
50721,"1326 GOLD SMITH ST","PLYMOUTH","MI",48170,42.380365334,-83.478528082,221,"1326 GOLD SMITH ST, PLYMOUTH, MI, 48170","Match","Non_Exact","1326 GOLDSMITH, PLYMOUTH, MI, 48170",95692650,"R"
50722,"1326 GRANADA AVE","HOLLY HILL","FL",32117,29.2405169150001,-81.065282506,222,"1326 GRANADA AVE, HOLLY HILL, FL, 32117","Match","Exact","1326 GRANADA AVE, HOLLY HILL, FL, 32117",94522049,"L"
50723,"1326 GRAND CONCOURSE SUITE 3E","BRONX","NY",10456,40.837174593,-73.914856895,223,"1326 GRAND CONCOURSE SUITE 3E, BRONX, NY, 10456","Match","Exact","1326 GRAND CONCOURSE, BRONX, NY, 10456",640810158,"R"
50724,"1326 HEBARD HILL RD","RANDOLPH","VT",5060,43.958840169,-72.633534552,224,"1326 HEBARD HILL RD, RANDOLPH, VT, 5060","Match","Exact","1326 HEBARD HILL RD, RANDOLPH, VT, 05060",653258039,"R"
50725,"1326 INDIGO DR","BRIGHTON","CO",80601,39.9607179980001,-104.806012947,225,"1326 INDIGO DR, BRIGHTON, CO, 80601","Match","Exact","1326 INDIGO DR, BRIGHTON, CO, 80601",645489781,"R"
50726,"1326 LOCHNESS DRIVE","ALLEN","TX",75013,33.121502606,-96.700474279,226,"1326 LOCHNESS DRIVE, ALLEN, TX, 75013","Match","Exact","1326 LOCHNESS DR, ALLEN, TX, 75013",123561183,"L"
50727,"1326 MOUNTAIN ROAD","CHARLESTON","WV",25303,38.3583035090001,-81.6662801269999,227,"1326 MOUNTAIN ROAD, CHARLESTON, WV, 25303","Match","Exact","1326 MOUNTAIN RD, CHARLESTON, WV, 25303",78632602,"R"
50728,"1326 N 58TH ST","PHILEDLPHIA","PA",19131,39.972263968,-75.236059994,228,"1326 N 58TH ST, PHILEDLPHIA, PA, 19131","Match","Non_Exact","1326 N 58TH ST, PHILADELPHIA, PA, 19131",131398200,"L"
50729,"1326 NE 14TH STREET","GAINESVILLE","FL",32601,29.6661222590001,-82.307543456,229,"1326 NE 14TH STREET, GAINESVILLE, FL, 32601","Match","Exact","1326 NE 14TH ST, GAINESVILLE, FL, 32601",6855214,"L"
50730,"1326 OAK LANE","PHILADELPHIA","PA",19126,40.0546872570001,-75.139589929,230,"1326 OAK LANE, PHILADELPHIA, PA, 19126","Match","Exact","1326 OAK LN, PHILADELPHIA, PA, 19126",635229691,"L"
50731,"1326 OCEAN AVE APT 4M","BROOKLYN","NY",11230,40.6300903470001,-73.9572233499999,231,"1326 OCEAN AVE APT 4M, BROOKLYN, NY, 11230","Match","Exact","1326 OCEAN AVE, BROOKLYN, NY, 11230",59081641,"R"
50732,"1326 PIEDMONT HWY","PIEDMONT","SC",29673,34.7648129250001,-82.431662445,232,"1326 PIEDMONT HWY, PIEDMONT, SC, 29673","Match","Exact","1326 PIEDMONT HWY, PIEDMONT, SC, 29673",640769522,"L"
50733,"1326 PINTO WAY","PATTERSON","CA",95363,37.4656258410001,-121.151730405,233,"1326 PINTO WAY, PATTERSON, CA, 95363","Match","Exact","1326 PINTO WAY, PATTERSON, CA, 95363",102632382,"L"
50734,"1326 PRINCE HALL AVE","CHARLOTTE","NC",28206,35.2498014060001,-80.837752724,234,"1326 PRINCE HALL AVE, CHARLOTTE, NC, 28206","Match","Exact","1326 PRINCE HALL AVE, CHARLOTTE, NC, 28206",70479013,"R"
50735,"1326 S GARNET STREET","PHILADELPHIA","PA",19146,39.934873162,-75.1762083419999,235,"1326 S GARNET STREET, PHILADELPHIA, PA, 19146","Match","Exact","1326 S GARNET ST, PHILADELPHIA, PA, 19146",131411074,"R"
50736,"1326 S THOMPSON RD","SHELBYVILLE","IN",46176,39.510158351,-85.7329223849999,236,"1326 S THOMPSON RD, SHELBYVILLE, IN, 46176","Match","Exact","1326 S THOMPSON RD, SHELBYVILLE, IN, 46176",33219430,"R"
50737,"1326 SHEFFIELD STREET SUITE 2","PITTSBURGH","PA",15233,40.4533077400001,-80.024923671,237,"1326 SHEFFIELD STREET SUITE 2, PITTSBURGH, PA, 15233","Match","Exact","1326 SHEFFIELD ST, PITTSBURGH, PA, 15233",51625982,"R"
50738,"1326 SOUTH 17TH AVE","MAYWOOD","IL",60153,41.875587459,-87.8535108149999,238,"1326 SOUTH 17TH AVE, MAYWOOD, IL, 60153","Match","Exact","1326 S 17TH AVE, MAYWOOD, IL, 60153",111754329,"R"
50739,"1326 STALLINGS ROAD","ZEBULON","NC",27597,35.8536592300001,-78.255721522,239,"1326 STALLINGS ROAD, ZEBULON, NC, 27597","Match","Exact","1326 STALLINGS RD, ZEBULON, NC, 27597",623844236,"L"
50740,"1326 SURREY LANE","ROCKVILLE CENTRE","NY",11570,40.677643833,-73.620816094,240,"1326 SURREY LANE, ROCKVILLE CENTRE, NY, 11570","Match","Exact","1326 SURREY LN, ROCKVILLE CENTRE, NY, 11570",147629443,"R"
50741,"1326 TENBROOK ROAD","ODENTON","MD",21113,39.0697884090001,-76.7006640399999,241,"1326 TENBROOK ROAD, ODENTON, MD, 21113","Match","Exact","1326 TENBROOK RD, ODENTON, MD, 21113",647391595,"L"
50742,"1326 VERONA RIDGE DR","AURORA","IL",60506,41.783372969,-88.3869297969999,242,"1326 VERONA RIDGE DR, AURORA, IL, 60506","Match","Exact","1326 VERONA RIDGE DR, AURORA, IL, 60506",627866164,"L"
50743,"1326 W NORTH BLVD  ST 4","LEESBURG","FL",34748,NA,NA,243,"1326 W NORTH BLVD  ST 4, LEESBURG, FL, 34748","No_Match",NA,NA,NA,NA
50744,"1326 WOOLRIDGE DRIVE","CORALVILLE","IA",52241,41.692477769,-91.584544584,244,"1326 WOOLRIDGE DRIVE, CORALVILLE, IA, 52241","Match","Exact","1326 WOOLRIDGE DR, CORALVILLE, IA, 52241",84510068,"R"
50745,"13260 BUFFALO TRACE ROAD","PALMYRA","IN",47164,38.394610389,-86.119686401,245,"13260 BUFFALO TRACE ROAD, PALMYRA, IN, 47164","Match","Exact","13260 BUFFALO TRACE RD, PALMYRA, IN, 47164",34805571,"R"
50746,"13260 NW BISHOP ROAD","HILLSBORO","OR",97124,45.616294935,-122.919891491,246,"13260 NW BISHOP ROAD, HILLSBORO, OR, 97124","Match","Exact","13260 NW BISHOP RD, HILLSBORO, OR, 97124",158178466,"L"
50747,"13260 SW 97TH PLACE","DUNNELLON","FL",34432,29.0812652860001,-82.337530897,247,"13260 SW 97TH PLACE, DUNNELLON, FL, 34432","Match","Exact","13260 SW 97TH PL, DUNNELLON, FL, 34432",116820936,"R"
50748,"13260 SWITZER ROAD","OVERLAND PARK","KS",66213,38.8883015440001,-94.700491708,248,"13260 SWITZER ROAD, OVERLAND PARK, KS, 66213","Match","Exact","13260 SWITZER RD, OVERLAND PARK, KS, 66213",91304863,"R"
50749,"13261 HARDY ST","OVERLAND PARK","KS",66213,38.8889997910001,-94.679248158,249,"13261 HARDY ST, OVERLAND PARK, KS, 66213","Match","Exact","13261 HARDY ST, OVERLAND PARK, KS, 66213",645785688,"L"
50750,"13262 CHARDON WINDSOR RD","CHARDON","OH",44024,41.5761763130001,-81.1653981759999,250,"13262 CHARDON WINDSOR RD, CHARDON, OH, 44024","Match","Exact","13262 CHARDON WINDSOR RD, CHARDON, OH, 44024",640125462,"L"
50751,"13262 LIARS CORNER RD","MILLFIELD","OH",45761,39.3951906820001,-82.097651249,251,"13262 LIARS CORNER RD, MILLFIELD, OH, 45761","Match","Exact","13262 LIARS CORNER RD, MILLFIELD, OH, 45761",642176005,"R"
50752,"13262 OAKS AVENUE","CHINO","CA",91710,34.0127506110001,-117.676186882,252,"13262 OAKS AVENUE, CHINO, CA, 91710","Match","Exact","13262 OAKS AVE, CHINO, CA, 91710",144673933,"R"
50753,"13263 NW 7TH AVENUE","NORTH MIAMI","FL",33168,25.8960923240001,-80.2111664729999,253,"13263 NW 7TH AVENUE, NORTH MIAMI, FL, 33168","Match","Exact","13263 NW 7TH AVE, NORTH MIAMI, FL, 33168",116033297,"R"
50754,"13263 W HIAWATHA DRIVE","HOMER GLEN","IL",60491,41.6366199940001,-87.942822334,254,"13263 W HIAWATHA DRIVE, HOMER GLEN, IL, 60491","Match","Exact","13263 W HIAWATHA DR, HOMER GLEN, IL, 60491",111554488,"R"
50755,"13264 CAROLYN ST","CERRITOS","CA",90703,33.8727380560001,-118.049381861,255,"13264 CAROLYN ST, CERRITOS, CA, 90703","Match","Exact","13264 CAROLYN ST, CERRITOS, CA, 90703",141753598,"R"
50756,"13264 E HWY 88","LOCKEFORD","CA",95237,38.1607077360001,-121.152722849,256,"13264 E HWY 88, LOCKEFORD, CA, 95237","Match","Exact","13264 E HWY 88, LOCKEFORD, CA, 95237",133912856,"R"
50757,"13264 NW 13TH STREET","PEMBROKE PINES","FL",33028,26.0174284120001,-80.326586159,257,"13264 NW 13TH STREET, PEMBROKE PINES, FL, 33028","Match","Exact","13264 NW 13TH ST, PEMBROKE PINES, FL, 33028",114782141,"L"
50758,"13264 PADRE AV","KELLER","TX",76244,32.9698146380001,-97.2651744359999,258,"13264 PADRE AV, KELLER, TX, 76244","Match","Exact","13264 PADRE AVE, KELLER, TX, 76244",637607051,"R"
50759,"13264 SW 255TH TERRACE","MIAMI","FL",33032,25.5299203700001,-80.405831732,259,"13264 SW 255TH TERRACE, MIAMI, FL, 33032","Match","Non_Exact","13264 SW 255TH TER, NARANJA, FL, 33032",115990849,"L"
50760,"13265 CURRAN ROAD","NEW ORLEANS","LA",70128,30.0604493330001,-89.9576698509999,260,"13265 CURRAN ROAD, NEW ORLEANS, LA, 70128","Match","Exact","13265 CURRAN RD, NEW ORLEANS, LA, 70128",191721959,"L"
50761,"13265 LIONS PEAK WAY","COLORADO SPRINGS","CO",80921,39.0219117240001,-104.802124162,261,"13265 LIONS PEAK WAY, COLORADO SPRINGS, CO, 80921","Match","Exact","13265 LIONS PEAK WAY, COLORADO SPRINGS, CO, 80921",643483029,"L"
50762,"13266 BYRD DR  100  783","ODESSA","FL",33556,28.1745253890001,-82.596496104,262,"13266 BYRD DR  100  783, ODESSA, FL, 33556","Match","Exact","13266 BYRD DR, ODESSA, FL, 33556",624575419,"L"
50763,"13266 BYRD DR SUITE 100-233","ODESSA","FL",33556,28.1745253890001,-82.596496104,263,"13266 BYRD DR SUITE 100-233, ODESSA, FL, 33556","Match","Exact","13266 BYRD DR, ODESSA, FL, 33556",624575419,"L"
50764,"13266 BYRD DR SUITE 100-413","ODESSA","FL",33556,28.1745253890001,-82.596496104,264,"13266 BYRD DR SUITE 100-413, ODESSA, FL, 33556","Match","Exact","13266 BYRD DR, ODESSA, FL, 33556",624575419,"L"
50765,"13266 MENDENHALL PLACE","JACKSONVILLE","FL",32224,30.309994326,-81.456241887,265,"13266 MENDENHALL PLACE, JACKSONVILLE, FL, 32224","Match","Exact","13266 MENDENHALL PL, JACKSONVILLE, FL, 32224",83942613,"R"
50766,"13266 SHAKER SQUARE","CLEVELAND","OH",44120,41.4834157350001,-81.589911418,266,"13266 SHAKER SQUARE, CLEVELAND, OH, 44120","Match","Exact","13266 SHAKER SQ, CLEVELAND, OH, 44120",638295920,"R"
50767,"13268 JAMES MADISON HIGHWAY","ORANGE","VA",22960,38.223328145,-78.123085276,267,"13268 JAMES MADISON HIGHWAY, ORANGE, VA, 22960","Match","Exact","13268 JAMES MADISON HWY, ORANGE, VA, 22960",29885569,"L"
50768,"13269 SW 142ND TERRACE","MIAMI","FL",33186,25.635203403,-80.407984998,268,"13269 SW 142ND TERRACE, MIAMI, FL, 33186","Match","Exact","13269 SW 142ND TER, MIAMI, FL, 33186",116268132,"L"
50769,"13269 W GELDING CIRCLE","SUPRISE","AZ",85379,33.6149872010001,-112.34596352,269,"13269 W GELDING CIRCLE, SUPRISE, AZ, 85379","Match","Non_Exact","13269 W GELDING CIR, SURPRISE, AZ, 85379",128850985,"L"
50770,"1327 BASS LANE","MCDONOUGH","GA",30253,33.46098033,-84.1557751139999,270,"1327 BASS LANE, MCDONOUGH, GA, 30253","Match","Exact","1327 BASS LN, MCDONOUGH, GA, 30253",619935513,"R"
50771,"1327 BAYOU PATH CT","NAPERVILLE","IL",60563,41.7855172660001,-88.21789784,271,"1327 BAYOU PATH CT, NAPERVILLE, IL, 60563","Match","Exact","1327 BAYOU PATH CT, NAPERVILLE, IL, 60563",650050956,"R"
50772,"1327 BROOKSIDE COURT","UPLAND","CA",91784,34.1369981610001,-117.673509894,272,"1327 BROOKSIDE COURT, UPLAND, CA, 91784","Match","Exact","1327 BROOKSIDE CT, UPLAND, CA, 91784",144686627,"R"
50773,"1327 CANAL RD","PRINCETON","NJ",8540,40.4138789890001,-74.630254624,273,"1327 CANAL RD, PRINCETON, NJ, 8540","Match","Exact","1327 CANAL RD, PRINCETON, NJ, 08540",653287294,"L"
50774,"1327 CAROL LANE","NAPERVILLE","IL",60565,41.7467487070001,-88.145580448,274,"1327 CAROL LANE, NAPERVILLE, IL, 60565","Match","Exact","1327 CAROL LN, NAPERVILLE, IL, 60565",112536528,"R"
50775,"1327 CRESTVIEW ROAD","REDLANDS","CA",92374,34.045451917,-117.155156871,275,"1327 CRESTVIEW ROAD, REDLANDS, CA, 92374","Match","Exact","1327 CRESTVIEW RD, REDLANDS, CA, 92374",636687744,"L"
50776,"1327 CRIQUE WAY STE C","ROSWELL","GA",30076,34.029445299,-84.320706217,276,"1327 CRIQUE WAY STE C, ROSWELL, GA, 30076","Match","Exact","1327 CRIQUE WAY, ROSWELL, GA, 30076",17418721,"L"
50777,"1327 DIXIE LN S","ST  PETERSBURG","FL",33707,27.7565003560001,-82.727184633,277,"1327 DIXIE LN S, ST  PETERSBURG, FL, 33707","Match","Exact","1327 DIXIE LN S, SAINT PETERSBURG, FL, 33707",124698891,"R"
50778,"1327 E EL ELMONTE WAY","DINUBA","CA",93618,NA,NA,278,"1327 E EL ELMONTE WAY, DINUBA, CA, 93618","Tie",NA,NA,NA,NA
50779,"1327 E HARVEST ST","MESA","AZ",85203,33.4420746760001,-111.80243202,279,"1327 E HARVEST ST, MESA, AZ, 85203","Match","Exact","1327 E HARVEST ST, MESA, AZ, 85203",128244427,"R"
50780,"1327 E KEMPER RD SUITE 3100F","CINCINNATI","OH",45246,39.2861832070001,-84.449764895,280,"1327 E KEMPER RD SUITE 3100F, CINCINNATI, OH, 45246","Match","Non_Exact","1327 E KEMPER RD, CINCINNATI, OH, 45246",647373106,"R"
50781,"1327 E TREASURE COVE DR","GILBERT","AZ",85234,33.3736617120001,-111.759956357,281,"1327 E TREASURE COVE DR, GILBERT, AZ, 85234","Match","Exact","1327 E TREASURE COVE DR, GILBERT, AZ, 85234",128827135,"L"
50782,"1327 ELM SPRINGS ROAD","SPRINGDALE","AR",72762,36.2050119950001,-94.21345401,282,"1327 ELM SPRINGS ROAD, SPRINGDALE, AR, 72762","Match","Exact","1327 ELM SPRINGS RD, SPRINGDALE, AR, 72762",49102845,"R"
50783,"1327 ESPLANADE AVE APT 8","NEW ORLEANS","LA",70116,29.9677884270001,-90.066141306,283,"1327 ESPLANADE AVE APT 8, NEW ORLEANS, LA, 70116","Match","Exact","1327 ESPLANADE AVE, NEW ORLEANS, LA, 70116",191710544,"R"
50784,"1327 GARRARD STREET","COVINGTON","KY",41011,39.0762974570001,-84.503276886,284,"1327 GARRARD STREET, COVINGTON, KY, 41011","Match","Exact","1327 GARRARD ST, COVINGTON, KY, 41011",647592118,"R"
50785,"1327 GRANDIN RD SW","ROANOKE","VA",24015,37.265657833,-79.977034512,285,"1327 GRANDIN RD SW, ROANOKE, VA, 24015","Match","Exact","1327 GRANDIN RD SW, ROANOKE, VA, 24015",62939126,"R"
50786,"1327 H ST STE 300","LINCOLN","NE",68508,40.806939389,-96.702159942,286,"1327 H ST STE 300, LINCOLN, NE, 68508","Match","Exact","1327 H ST, LINCOLN, NE, 68508",28292738,"R"
50787,"1327 HAVENHURST DRIVE UNIT 8","WEST HOLLYWOOD","CA",90046,34.0948955320001,-118.367417263,287,"1327 HAVENHURST DRIVE UNIT 8, WEST HOLLYWOOD, CA, 90046","Match","Non_Exact","1327 N HAVENHURST DR, W HOLLYWOOD, CA, 90046",241240240,"L"
50788,"1327 HIGH POINT AVE","ATLANTA","GA",30315,NA,NA,288,"1327 HIGH POINT AVE, ATLANTA, GA, 30315","No_Match",NA,NA,NA,NA
50789,"1327 KENDALL DR","DURHAM","NC",27703,35.968869431,-78.8417969,289,"1327 KENDALL DR, DURHAM, NC, 27703","Match","Exact","1327 KENDALL DR, DURHAM, NC, 27703",618109524,"L"
50790,"1327 LINCOLN PL","BROOKLYN","NY",11213,40.669825616,-73.932492528,290,"1327 LINCOLN PL, BROOKLYN, NY, 11213","Match","Exact","1327 LINCOLN PL, BROOKLYN, NY, 11213",59079776,"L"
50791,"1327 MARK DRIVE APT A","WEST CHESTER","PA",19380,39.97436566,-75.556787113,291,"1327 MARK DRIVE APT A, WEST CHESTER, PA, 19380","Match","Exact","1327 MARK DR, WEST CHESTER, PA, 19380",636456985,"R"
50792,"1327 MIDDLEFORD ROAD","CATONSVILLE","MD",21228,39.296323321,-76.7481991829999,292,"1327 MIDDLEFORD ROAD, CATONSVILLE, MD, 21228","Match","Exact","1327 MIDDLEFORD RD, CATONSVILLE, MD, 21228",191483621,"R"
50793,"1327 MORETZ AVE","CHARLOTTE","NC",28206,35.2562509640001,-80.831698731,293,"1327 MORETZ AVE, CHARLOTTE, NC, 28206","Match","Exact","1327 MORETZ AVE, CHARLOTTE, NC, 28206",70515733,"L"
50794,"1327 NE 1ST TERR","CAPE CORAL","FL",33909,26.655235627,-81.9460759359999,294,"1327 NE 1ST TERR, CAPE CORAL, FL, 33909","Match","Exact","1327 NE 1ST TER, CAPE CORAL, FL, 33909",118008589,"L"
50795,"1327 NORTH LAMA LANE","MOUNT PROSPECT","IL",60056,42.0908498650001,-87.894594356,295,"1327 NORTH LAMA LANE, MOUNT PROSPECT, IL, 60056","Match","Exact","1327 N LAMA LN, MOUNT PROSPECT, IL, 60056",111718992,"L"
50796,"1327 OVERLOOK CIR","CEDAR HILL","TX",75104,32.5636843030001,-96.9968352499999,296,"1327 OVERLOOK CIR, CEDAR HILL, TX, 75104","Match","Exact","1327 OVERLOOK CIR, CEDAR HILL, TX, 75104",103277711,"L"
50797,"1327 RYAN ESTATES LN","BEDFORD","VA",24523,37.250827127,-79.458935474,297,"1327 RYAN ESTATES LN, BEDFORD, VA, 24523","Match","Exact","1327 RYAN ESTATES LN, BEDFORD, VA, 24523",62678297,"R"
50798,"1327 S CALIFORNIA AVE","WEST COVINA","CA",91790,34.056085995,-117.943256951,298,"1327 S CALIFORNIA AVE, WEST COVINA, CA, 91790","Match","Exact","1327 CALIFORNIA AVE, WEST COVINA, CA, 91790",640123616,"R"
50799,"1327 S SAN GABRIEL BLVD","SAN GABRIEL","CA",91776,34.084011925,-118.09076774,299,"1327 S SAN GABRIEL BLVD, SAN GABRIEL, CA, 91776","Match","Exact","1327 S SAN GABRIEL BLVD, SAN GABRIEL, CA, 91776",141640784,"R"
50800,"1327 SAINT VINCENT STREET","PHILADELPHIA","PA",19111,40.0510588550001,-75.070911305,300,"1327 SAINT VINCENT STREET, PHILADELPHIA, PA, 19111","Match","Exact","1327 SAINT VINCENT ST, PHILADELPHIA, PA, 19111",131416238,"L"
50801,"1327 SIMON DR","CHESAPEAKE","VA",23320,36.773342938,-76.206164762,301,"1327 SIMON DR, CHESAPEAKE, VA, 23320","Match","Exact","1327 SIMON DR, CHESAPEAKE, VA, 23320",624811322,"L"
50802,"1327 SOUTH CLOVERDALE AVE","LOS ANGELES","CA",90019,34.049861799,-118.350870699,302,"1327 SOUTH CLOVERDALE AVE, LOS ANGELES, CA, 90019","Match","Exact","1327 S CLOVERDALE AVE, LOS ANGELES, CA, 90019",642863871,"R"
50803,"1327 SOUTH MEYLER STREET","SAN PEDRO","CA",90731,33.7321648930001,-118.296772952,303,"1327 SOUTH MEYLER STREET, SAN PEDRO, CA, 90731","Match","Exact","1327 S MEYLER ST, SAN PEDRO, CA, 90731",141690577,"R"
50804,"1327 SOUTH RIVER OAKS DRIVE","BLACKSHEAR","GA",31516,31.263045676,-82.3533710569999,304,"1327 SOUTH RIVER OAKS DRIVE, BLACKSHEAR, GA, 31516","Match","Exact","1327 S RIVER OAKS DR, BLACKSHEAR, GA, 31516",642518030,"R"
50805,"1327 WEST MCFERRAN STREET","PHILADELPHIA","PA",19140,40.0129528590001,-75.148889448,305,"1327 WEST MCFERRAN STREET, PHILADELPHIA, PA, 19140","Match","Non_Exact","1327 MCFERRAN ST, PHILADELPHIA, PA, 19140",131417512,"R"
50806,"13270 STATE ROAD CC","DESOTO","MO",63050,NA,NA,306,"13270 STATE ROAD CC, DESOTO, MO, 63050","No_Match",NA,NA,NA,NA
50807,"13272 E ROSE AVE","SELMA","CA",93662,NA,NA,307,"13272 E ROSE AVE, SELMA, CA, 93662","No_Match",NA,NA,NA,NA
50808,"13272 NW 82ND AVE","GRIMES","IA",50111,NA,NA,308,"13272 NW 82ND AVE, GRIMES, IA, 50111","No_Match",NA,NA,NA,NA
50809,"13272 SE 227TH PL","KENT","WA",98042,47.398027208,-122.163185124,309,"13272 SE 227TH PL, KENT, WA, 98042","Match","Exact","13272 SE 227TH PL, KENT, WA, 98042",627282324,"L"
50810,"13275 BLUEJACKET ST","OVERLAND PARK","KS",66213,38.8859546680001,-94.713687098,310,"13275 BLUEJACKET ST, OVERLAND PARK, KS, 66213","Match","Exact","13275 BLUEJACKET ST, OVERLAND PARK, KS, 66213",91329831,"L"
50811,"13275 CAPACE RD","INDEPENDENCE","LA",70443,30.661379568,-90.49997895,311,"13275 CAPACE RD, INDEPENDENCE, LA, 70443","Match","Exact","13275 CAPACE RD, INDEPENDENCE, LA, 70443",635817204,"L"
50812,"13276 SE 122ND AVE NUM E03","CLACKAMAS","OR",97015,45.4264836610001,-122.537975659,312,"13276 SE 122ND AVE NUM E03, CLACKAMAS, OR, 97015","Match","Non_Exact","13276 SE 122ND AVE, CLACKAMAS, OR, 97015",653414070,"L"
50813,"13278 GROVER ROAD","JACKSONVILLE","FL",32226,30.4767853610001,-81.5514198929999,313,"13278 GROVER ROAD, JACKSONVILLE, FL, 32226","Match","Exact","13278 GROVER RD, JACKSONVILLE, FL, 32226",650449813,"L"
50814,"13279B VIA VESTA","DELRAY BEACH","FL",33484,NA,NA,314,"13279B VIA VESTA, DELRAY BEACH, FL, 33484","Tie",NA,NA,NA,NA
50815,"1328 12TH STREET","SANTA MONICA","CA",90401,34.0234628900001,-118.488644278,315,"1328 12TH STREET, SANTA MONICA, CA, 90401","Match","Exact","1328 12TH ST, SANTA MONICA, CA, 90401",141559330,"R"
50816,"1328 244TH AVE NE","SAMMAMISH","WA",98074,NA,NA,316,"1328 244TH AVE NE, SAMMAMISH, WA, 98074","No_Match",NA,NA,NA,NA
50817,"1328 3RD AVE","ASBURY PARK","NJ",7712,40.22566355,-74.020728752,317,"1328 3RD AVE, ASBURY PARK, NJ, 7712","Match","Exact","1328 3RD AVE, ASBURY PARK, NJ, 07712",90463288,"L"
50818,"1328 ABRAM DR","RANTOUL","IL",61866,40.2868877930001,-88.16189129,318,"1328 ABRAM DR, RANTOUL, IL, 61866","Match","Exact","1328 ABRAM DR, RANTOUL, IL, 61866",8821429,"L"
50819,"1328 ASH STREET","HAYWARD","CA",94541,37.6857642890001,-122.094394961,319,"1328 ASH STREET, HAYWARD, CA, 94541","Match","Exact","1328 ASH ST, HAYWARD, CA, 94541",125014925,"L"
50820,"1328 BUSH RIVER ROAD","CLINTON","SC",29325,34.380495511,-81.8372291479999,320,"1328 BUSH RIVER ROAD, CLINTON, SC, 29325","Match","Exact","1328 BUSH RIVER RD, CLINTON, SC, 29325",636583471,"L"
50821,"1328 CARNTON LN","FRANKLIN","TN",37064,35.90743037,-86.863775806,321,"1328 CARNTON LN, FRANKLIN, TN, 37064","Match","Exact","1328 CARNTON LN, FRANKLIN, TN, 37064",73104646,"L"
50822,"1328 CHERRY DRIVE","BOZEMAN","MT",59715,45.6587210220001,-111.017185379,322,"1328 CHERRY DRIVE, BOZEMAN, MT, 59715","Match","Exact","1328 CHERRY DR, BOZEMAN, MT, 59715",163498650,"R"
50823,"1328 COUNTY ROAD 85","MONTGOMERY","AL",36067,32.4992919100001,-86.499830291,323,"1328 COUNTY ROAD 85, MONTGOMERY, AL, 36067","Match","Non_Exact","1328 CO RD 85, PRATTVILLE, AL, 36067",2841119,"L"
50824,"1328 CRANDON DR","CHARLOTTE","NC",28216,35.2926911980001,-80.880181147,324,"1328 CRANDON DR, CHARLOTTE, NC, 28216","Match","Exact","1328 CRANDON DR, CHARLOTTE, NC, 28216",70627716,"L"
50825,"1328 EL CAMINO REAL APT 3","BURLINGAME","CA",94010,37.5862426520001,-122.36978789,325,"1328 EL CAMINO REAL APT 3, BURLINGAME, CA, 94010","Match","Exact","1328 EL CAMINO REAL, BURLINGAME, CA, 94010",192375348,"R"
50826,"1328 ERCKMANN DRIVE","MOUNT PLEASANT","SC",29464,32.7919598400001,-79.8627222169999,326,"1328 ERCKMANN DRIVE, MOUNT PLEASANT, SC, 29464","Match","Exact","1328 ERCKMANN DR, MOUNT PLEASANT, SC, 29464",108809549,"L"
50827,"1328 GALLO ROAD","HARRINGTON","DE",19952,38.869752642,-75.656028641,327,"1328 GALLO ROAD, HARRINGTON, DE, 19952","Match","Exact","1328 GALLO RD, HARRINGTON, DE, 19952",635420238,"R"
50828,"1328 GATES HEAD COURT","SYRACUSE","UT",84075,41.095059631,-112.086667557,328,"1328 GATES HEAD COURT, SYRACUSE, UT, 84075","Match","Exact","1328 GATES HEAD CT, SYRACUSE, UT, 84075",647692285,"R"
50829,"1328 GOODMORNING DRIVE","NASHVILLE","TN",37207,36.275171421,-86.769264345,329,"1328 GOODMORNING DRIVE, NASHVILLE, TN, 37207","Match","Exact","1328 GOODMORNING DR, NASHVILLE, TN, 37207",629963117,"R"
50830,"1328 HANS ST","WEST BEND","WI",53090,43.4357703040001,-88.160639515,330,"1328 HANS ST, WEST BEND, WI, 53090","Match","Exact","1328 HANS ST, WEST BEND, WI, 53090",79572891,"L"
50831,"1328 HARVARD ST UNIT1","SANTA MONICA","CA",90404,34.0356012560001,-118.473570388,331,"1328 HARVARD ST UNIT1, SANTA MONICA, CA, 90404","Match","Exact","1328 HARVARD ST, SANTA MONICA, CA, 90404",142717333,"R"
50832,"1328 INWOOD TERRACE","JACKSONVILLE","FL",32207,30.2915212680001,-81.650357937,332,"1328 INWOOD TERRACE, JACKSONVILLE, FL, 32207","Match","Exact","1328 INWOOD TER, JACKSONVILLE, FL, 32207",83915243,"R"
50833,"1328 KRIEBEL MILL ROAD","COLLEGEVILLE","PA",19426,40.184908068,-75.386713271,333,"1328 KRIEBEL MILL ROAD, COLLEGEVILLE, PA, 19426","Match","Exact","1328 KRIEBEL MILL RD, COLLEGEVILLE, PA, 19426",135109165,"R"
50834,"1328 LINCOLN AVENUE SOUTH","HIGHLAND PARK","IL",60035,42.1764720460001,-87.786159734,334,"1328 LINCOLN AVENUE SOUTH, HIGHLAND PARK, IL, 60035","Match","Exact","1328 LINCOLN AVE S, HIGHLAND PARK, IL, 60035",119651815,"L"
50835,"1328 MALLARD DRIVE","MARTINSVILLE","NJ",8836,40.609011229,-74.580029128,335,"1328 MALLARD DRIVE, MARTINSVILLE, NJ, 8836","Match","Exact","1328 MALLARD DR, MARTINSVILLE, NJ, 08836",59938375,"R"
50836,"1328 MARTIN ROAD","JACKSON SPRINGS","NC",27281,35.2469246420001,-79.668414484,336,"1328 MARTIN ROAD, JACKSON SPRINGS, NC, 27281","Match","Exact","1328 MARTIN RD, JACKSON SPGS, NC, 27281",20292782,"L"
50837,"1328 MONCURE MARBLE RD","TERRY","MS",39170,32.0946360520001,-90.279828126,337,"1328 MONCURE MARBLE RD, TERRY, MS, 39170","Match","Exact","1328 MONCURE MARBLE RD, TERRY, MS, 39170",65357664,"L"
50838,"1328 MONUMENT TRAIL DR","CHULA VISTA","CA",91915,32.6387398050001,-116.950543007,338,"1328 MONUMENT TRAIL DR, CHULA VISTA, CA, 91915","Match","Exact","1328 MONUMENT TRAIL DR, CHULA VISTA, CA, 91915",195696667,"L"
50839,"1328 MULBERRY CT","FREDERICK","MD",21703,39.4132940370001,-77.454295552,339,"1328 MULBERRY CT, FREDERICK, MD, 21703","Match","Exact","1328 MULBERRY CT, FREDERICK, MD, 21703",60748761,"L"
50840,"1328 N UMBERLAND RD","COATESVILLE","PA",19320,40.0085293280001,-75.7752518629999,340,"1328 N UMBERLAND RD, COATESVILLE, PA, 19320","Match","Non_Exact","1328 NORTHUMBERLAND RD, COATESVILLE, PA, 19320",627357150,"L"
50841,"1328 N UMBRELLA AVE","BROKEN ARROW","OK",74012,36.064618663,-95.839480596,341,"1328 N UMBRELLA AVE, BROKEN ARROW, OK, 74012","Match","Exact","1328 N UMBRELLA AVE, BROKEN ARROW, OK, 74012",166487270,"L"
50842,"1328 NEW YORK AVENUE","HUNTINGTON STATION","NY",11746,40.8498050060001,-73.411548863,342,"1328 NEW YORK AVENUE, HUNTINGTON STATION, NY, 11746","Match","Exact","1328 NEW YORK AVE, HUNTINGTON STATION, NY, 11746",113965693,"L"
50843,"1328 OLD HWY 6","CROSS","SC",29436,33.3527869050001,-80.164811281,343,"1328 OLD HWY 6, CROSS, SC, 29436","Match","Exact","1328 OLD HWY 6, CROSS, SC, 29436",652529488,"R"
50844,"1328 PONDEROSA AVENUE","ALBERTVILLE","AL",35950,34.283860615,-86.237498563,344,"1328 PONDEROSA AVENUE, ALBERTVILLE, AL, 35950","Match","Exact","1328 PONDEROSA AVE, ALBERTVILLE, AL, 35950",99244812,"R"
50845,"1328 S COLLEGIATE DR","WILKESBORO","NC",28697,36.137490191,-81.181554219,345,"1328 S COLLEGIATE DR, WILKESBORO, NC, 28697","Match","Exact","1328 S COLLEGIATE DR, WILKESBORO, NC, 28697",611367564,"L"
50846,"1328 S MARYLAND AVE","SPRINGFIELD","MO",65807,37.190608668,-93.280372079,346,"1328 S MARYLAND AVE, SPRINGFIELD, MO, 65807","Match","Exact","1328 S MARYLAND AVE, SPRINGFIELD, MO, 65807",76678748,"L"
50847,"1328 S VINE ST","DENVER","CO",80210,39.6923776350001,-104.962892979,347,"1328 S VINE ST, DENVER, CO, 80210","Match","Exact","1328 S VINE ST, DENVER, CO, 80210",177332527,"L"
50848,"1328 SEA SIDE DR SUITE 100","NORTH LAS VEGAS","NV",89031,NA,NA,348,"1328 SEA SIDE DR SUITE 100, NORTH LAS VEGAS, NV, 89031","No_Match",NA,NA,NA,NA
50849,"1328 SECLUDED WOODS DRIVE","CAMDENTON","MO",65020,38.045444586,-92.821821867,349,"1328 SECLUDED WOODS DRIVE, CAMDENTON, MO, 65020","Match","Exact","1328 SECLUDED WOODS DR, CAMDENTON, MO, 65020",650365480,"L"
50850,"1328 SHEEFISH LANE","NORTH POLE","AK",99705,NA,NA,350,"1328 SHEEFISH LANE, NORTH POLE, AK, 99705","No_Match",NA,NA,NA,NA
50851,"1328 SOFTWIND DRIVE","INDIANAPOLIS","IN",46260,39.8760287170001,-86.183078509,351,"1328 SOFTWIND DRIVE, INDIANAPOLIS, IN, 46260","Match","Exact","1328 SOFTWIND DR, INDIANAPOLIS, IN, 46260",636101611,"R"
50852,"1328 SOUTHMOOR DRIVE","FOUNTAIN","CO",80817,38.7328805830001,-104.731880184,352,"1328 SOUTHMOOR DRIVE, FOUNTAIN, CO, 80817","Match","Exact","1328 SOUTHMOOR DR, FOUNTAIN, CO, 80817",105524800,"R"
50853,"1328 SYLVIA AVENUE","METAIRIE","LA",70005,30.0144711820001,-90.1335960279999,353,"1328 SYLVIA AVENUE, METAIRIE, LA, 70005","Match","Exact","1328 SYLVIA AVE, METAIRIE, LA, 70005",93498576,"L"
50854,"1328 TALBERT CT SE","WASHINGTON","DC",20020,NA,NA,354,"1328 TALBERT CT SE, WASHINGTON, DC, 20020","Tie",NA,NA,NA,NA
50855,"1328 W 37TH PL","LOS ANGELES","CA",90007,34.019965106,-118.298513304,355,"1328 W 37TH PL, LOS ANGELES, CA, 90007","Match","Exact","1328 W 37TH PL, LOS ANGELES, CA, 90007",141606578,"L"
50856,"1328 W MELROSE ST APT 2","CHICAGO","IL",60657,41.940688439,-87.662620794,356,"1328 W MELROSE ST APT 2, CHICAGO, IL, 60657","Match","Non_Exact","1328 W MELROSE ST, CHICAGO, IL, 60657",605238828,"R"
50857,"1328 W NORTH SHORE AVE","CHICAGO","IL",60626,42.0034932560001,-87.664853147,357,"1328 W NORTH SHORE AVE, CHICAGO, IL, 60626","Match","Exact","1328 W NORTH SHORE AVE, CHICAGO, IL, 60626",616788565,"R"
50858,"1328 WEST 5TH STREET","DALLAS CITY","IL",62330,40.625674981,-91.1786958609999,358,"1328 WEST 5TH STREET, DALLAS CITY, IL, 62330","Match","Exact","1328 W 5TH ST, DALLAS CITY, IL, 62330",5332638,"R"
50859,"1328","WOODBRIDGE","VA",22193,NA,NA,359,"1328, WOODBRIDGE, VA, 22193","No_Match",NA,NA,NA,NA
50860,"13280 196TH AVE NW","ELK RIVER","MN",55330,45.3263625590001,-93.604728296,360,"13280 196TH AVE NW, ELK RIVER, MN, 55330","Match","Exact","13280 196TH AVE NW, ELK RIVER, MN, 55330",97770077,"L"
50861,"13280 MANNHEIM DR","FRISCO","TX",75033,33.1885463290001,-96.8749089839999,361,"13280 MANNHEIM DR, FRISCO, TX, 75033","Match","Exact","13280 MANNHEIM DR, FRISCO, TX, 75033",218074345,"R"
50862,"13280 NORTHWEST FREEWAY","HOUSTON","TX",77040,NA,NA,362,"13280 NORTHWEST FREEWAY, HOUSTON, TX, 77040","No_Match",NA,NA,NA,NA
50863,"13280 PALA MESA CIRCLE","REDDING","CA",96003,40.675795195,-122.334863834,363,"13280 PALA MESA CIRCLE, REDDING, CA, 96003","Match","Exact","13280 PALA MESA CIR, REDDING, CA, 96003",126647899,"R"
50864,"13280 PORT SAID ROAD   C 201","OPA LOCKA","FL",33054,25.895155991,-80.252688011,364,"13280 PORT SAID ROAD   C 201, OPA LOCKA, FL, 33054","Match","Exact","13280 PORT SAID RD, OPA LOCKA, FL, 33054",116056767,"L"
50865,"13280 PORT SAID ROAD C204","OPA LOCKA","FL",33054,25.895155991,-80.252688011,365,"13280 PORT SAID ROAD C204, OPA LOCKA, FL, 33054","Match","Exact","13280 PORT SAID RD, OPA LOCKA, FL, 33054",116056767,"L"
50866,"13284 OLD BISCAYNE DR UNIT 903","HOMESTEAD","FL",33033,25.4991099470001,-80.407213229,366,"13284 OLD BISCAYNE DR UNIT 903, HOMESTEAD, FL, 33033","Match","Non_Exact","13284 OLD BISCAYNE DR, HOMESTEAD, FL, 33033",642100555,"R"
50867,"13285 KIOWA ROAD","APPLE VALLEY","CA",92308,34.492848585,-117.207702854,367,"13285 KIOWA ROAD, APPLE VALLEY, CA, 92308","Match","Exact","13285 KIOWA RD, APPLE VALLEY, CA, 92308",144592281,"R"
50868,"13287 E HARVARD DRIVE","AURORA","CO",80014,NA,NA,368,"13287 E HARVARD DRIVE, AURORA, CO, 80014","No_Match",NA,NA,NA,NA
50869,"13287 GOLD HILL ROAD","BOULDER","CO",80302,40.0499411280001,-105.471117631,369,"13287 GOLD HILL ROAD, BOULDER, CO, 80302","Match","Exact","13287 GOLD HILL RD, BOULDER, CO, 80302",188188926,"L"
50870,"13288 CRANERIDGE DRIVE","FENTON","MI",48430,42.8333504140001,-83.7203225659999,370,"13288 CRANERIDGE DRIVE, FENTON, MI, 48430","Match","Non_Exact","13288 CRANE RIDGE DR, FENTON, MI, 48430",69579357,"R"
50871,"13288 LEAFCREST LANE","FAIRFAX","VA",22033,38.8814760180001,-77.403094271,371,"13288 LEAFCREST LANE, FAIRFAX, VA, 22033","Match","Exact","13288 LEAFCREST LN, FAIRFAX, VA, 22033",76003158,"L"
50872,"13289 3RD STREET","BATCHELOR","LA",70715,30.840826065,-91.663830689,372,"13289 3RD STREET, BATCHELOR, LA, 70715","Match","Exact","13289 3RD ST, BATCHELOR, LA, 70715",190089373,"L"
50873,"13289 S 1830 W","RIVERTON","UT",84065,40.509643026,-111.94115044,373,"13289 S 1830 W, RIVERTON, UT, 84065","Match","Exact","13289 S 1830 W, RIVERTON, UT, 84065",636688353,"L"
50874,"1329 1/2 CALUMET AVE","LOS ANGELES","CA",90026,34.0683789,-118.254273855,374,"1329 1/2 CALUMET AVE, LOS ANGELES, CA, 90026","Match","Exact","1329 CALUMET AVE, LOS ANGELES, CA, 90026",141616875,"R"
50875,"1329 3RD STREET","WASHINGTONVILLE","PA",17884,NA,NA,375,"1329 3RD STREET, WASHINGTONVILLE, PA, 17884","No_Match",NA,NA,NA,NA
50876,"1329 47TH STREET","BROOKLYN","NY",11219,40.6357248900001,-73.990244214,376,"1329 47TH STREET, BROOKLYN, NY, 11219","Match","Exact","1329 47TH ST, BROOKLYN, NY, 11219",59080220,"L"
50877,"1329 99TH AVE","DULUTH","MN",55808,46.670771503,-92.2253380289999,377,"1329 99TH AVE, DULUTH, MN, 55808","Match","Non_Exact","1329 99TH AVE W, DULUTH, MN, 55808",163216660,"L"
50878,"1329 BARLOW ROAD","HUDSON","OH",44236,41.2222146330001,-81.445344007,378,"1329 BARLOW ROAD, HUDSON, OH, 44236","Match","Exact","1329 BARLOW RD, HUDSON, OH, 44236",61346469,"L"
50879,"1329 BARNABY TERRACE SE","WASHINGTON","DC",20032,38.834452522,-76.9886002389999,379,"1329 BARNABY TERRACE SE, WASHINGTON, DC, 20032","Match","Exact","1329 BARNABY TER SE, WASHINGTON, DC, 20032",76236728,"R"
50880,"1329 BIRCH PARK RIDGE","HOULTON","WI",54082,45.0543368800001,-92.75264391,380,"1329 BIRCH PARK RIDGE, HOULTON, WI, 54082","Match","Exact","1329 BIRCH PARK RIDGE, HOULTON, WI, 54082",612043601,"R"
50881,"1329 BLANDING STREET","COLUMBIA","SC",29201,34.008555314,-81.034544566,381,"1329 BLANDING STREET, COLUMBIA, SC, 29201","Match","Exact","1329 BLANDING ST, COLUMBIA, SC, 29201",639496426,"L"
50882,"1329 BLANKENSHIP PLACE","SUMTER","SC",29150,NA,NA,382,"1329 BLANKENSHIP PLACE, SUMTER, SC, 29150","No_Match",NA,NA,NA,NA
50883,"1329 BOLTON STREET","BALTIMORE","MD",21217,39.305653363,-76.624339391,383,"1329 BOLTON STREET, BALTIMORE, MD, 21217","Match","Exact","1329 BOLTON ST, BALTIMORE, MD, 21217",206417228,"R"
50884,"1329 CASA VERDE DR","CORPUS CHRISTI","TX",78411,27.7475766060001,-97.395302763,384,"1329 CASA VERDE DR, CORPUS CHRISTI, TX, 78411","Match","Exact","1329 CASA VERDE DR, CORPUS CHRISTI, TX, 78411",178519319,"R"
50885,"1329 CEDAR PARK PLACE","STONE MOUNTAIN","GA",30083,33.8178141060001,-84.208125165,385,"1329 CEDAR PARK PLACE, STONE MOUNTAIN, GA, 30083","Match","Exact","1329 CEDAR PARK PL, STONE MOUNTAIN, GA, 30083",23386985,"R"
50886,"1329 CHERRY WAY DRIVE SUITE 600","GAHANNA","OH",43230,40.0546078150001,-82.886764284,386,"1329 CHERRY WAY DRIVE SUITE 600, GAHANNA, OH, 43230","Match","Non_Exact","1329 CHERRYWAY DR, GAHANNA, OH, 43230",218685797,"R"
50887,"1329 CHOTEAU ST","HELENA","MT",59601,46.6006261210001,-112.055366176,387,"1329 CHOTEAU ST, HELENA, MT, 59601","Match","Exact","1329 CHOTEAU ST, HELENA, MT, 59601",202349103,"L"
50888,"1329 CLIFFORD ROAD","WILMINGTON","DE",19805,39.744790838,-75.5971836479999,388,"1329 CLIFFORD ROAD, WILMINGTON, DE, 19805","Match","Exact","1329 CLIFFORD RD, WILMINGTON, DE, 19805",187254307,"R"
50889,"1329 CRESCENT LANE","NILES","MI",49120,41.804490797,-86.2441902309999,389,"1329 CRESCENT LANE, NILES, MI, 49120","Match","Exact","1329 CRESCENT LN, NILES, MI, 49120",119980118,"L"
50890,"1329 CROSSINGS COURT UNIT A","MANCHESTER","MO",63021,38.567455097,-90.509730294,390,"1329 CROSSINGS COURT UNIT A, MANCHESTER, MO, 63021","Match","Exact","1329 CROSSINGS CT, MANCHESTER, MO, 63021",100184405,"R"
50891,"1329 D ST","ANTIOCH","CA",94509,38.008373858,-121.810021566,391,"1329 D ST, ANTIOCH, CA, 94509","Match","Exact","1329 D ST, ANTIOCH, CA, 94509",192032482,"L"
50892,"1329 E REPUBLIC ROAD","SPRINGFIELD","MO",65804,37.1376037630001,-93.27410142,392,"1329 E REPUBLIC ROAD, SPRINGFIELD, MO, 65804","Match","Exact","1329 E REPUBLIC RD, SPRINGFIELD, MO, 65804",649910032,"L"
50893,"1329 E STONE ARCH DR","FUQUAY-VARINA","NC",27526,35.5863115070001,-78.7764424969999,393,"1329 E STONE ARCH DR, FUQUAY-VARINA, NC, 27526","Match","Exact","1329 STONE ARCH DR, FUQUAY VARINA, NC, 27526",208367243,"R"
50894,"1329 EAGLES NEST CIRCLE","CARROLLTON","GA",30116,33.582954887,-85.002233482,394,"1329 EAGLES NEST CIRCLE, CARROLLTON, GA, 30116","Match","Non_Exact","1329 EAGELS NEST CIR, CARROLLTON, GA, 30116",629675785,"R"
50895,"1329 EAST KEMPER ROAD SUITE 4100C","CINCINNATI","OH",45246,39.286182296,-84.449758271,395,"1329 EAST KEMPER ROAD SUITE 4100C, CINCINNATI, OH, 45246","Match","Exact","1329 E KEMPER RD, CINCINNATI, OH, 45246",647373106,"R"
50896,"1329 EGLIN ST BOX 271","RAPID CITY","SD",57701,44.101184806,-103.189887256,396,"1329 EGLIN ST BOX 271, RAPID CITY, SD, 57701","Match","Exact","1329 EGLIN ST, RAPID CITY, SD, 57701",645934318,"R"
50897,"1329 GARRICK WAY","MARIETTA","GA",30068,33.97895793,-84.407508702,397,"1329 GARRICK WAY, MARIETTA, GA, 30068","Match","Exact","1329 GARRICK WAY, MARIETTA, GA, 30068",17200890,"L"
50898,"1329 HAMILTON ST 1ST FLOOR","ALLENTOWN","PA",18102,40.5985822010001,-75.4849941589999,398,"1329 HAMILTON ST 1ST FLOOR, ALLENTOWN, PA, 18102","Match","Non_Exact","1329 W HAMILTON ST, ALLENTOWN, PA, 18102",80769772,"R"
50899,"1329 HAMILTON ST BOX 7","ALLENTOWN","PA",18102,40.5985822010001,-75.4849941589999,399,"1329 HAMILTON ST BOX 7, ALLENTOWN, PA, 18102","Match","Non_Exact","1329 W HAMILTON ST, ALLENTOWN, PA, 18102",80769772,"R"
50900,"1329 HAMILTON ST BOX 9","ALLENTOWN","PA",18102,40.5985822010001,-75.4849941589999,400,"1329 HAMILTON ST BOX 9, ALLENTOWN, PA, 18102","Match","Non_Exact","1329 W HAMILTON ST, ALLENTOWN, PA, 18102",80769772,"R"
50901,"1329 HWY 395 10-134","GARDNERVILLE","NV",89410,38.935667256,-119.738907659,401,"1329 HWY 395 10-134, GARDNERVILLE, NV, 89410","Match","Non_Exact","1329 US HWY 395, GARDNERVILLE, NV, 89410",608200633,"R"
50902,"1329 ISLAND TOWN DR","MEMPHIS","TN",38103,35.1766463120001,-90.049281046,402,"1329 ISLAND TOWN DR, MEMPHIS, TN, 38103","Match","Exact","1329 ISLAND TOWN DR, MEMPHIS, TN, 38103",610383957,"L"
50903,"1329 KENTUCKY AVENUE","LANCASTER","TX",75134,32.6330646600001,-96.7891946839999,403,"1329 KENTUCKY AVENUE, LANCASTER, TX, 75134","Match","Exact","1329 KENTUCKY AVE, LANCASTER, TX, 75134",618923086,"L"
50904,"1329 MAIN ST","CINCINNATI","OH",45202,39.110705152,-84.512041364,404,"1329 MAIN ST, CINCINNATI, OH, 45202","Match","Exact","1329 MAIN ST, CINCINNATI, OH, 45202",640627482,"L"
50905,"1329 NETTLETON DRIVE","DESOTO","TX",75115,32.6158709330001,-96.894481416,405,"1329 NETTLETON DRIVE, DESOTO, TX, 75115","Match","Exact","1329 NETTLETON DR, DESOTO, TX, 75115",102994534,"L"
50906,"1329 NORTH 10TH ST","READING","PA",19604,40.3552061500001,-75.9175811649999,406,"1329 NORTH 10TH ST, READING, PA, 19604","Match","Exact","1329 N 10TH ST, READING, PA, 19604",80377396,"R"
50907,"1329 RHEEM AVE","RICHMOND","CA",94801,37.949591577,-122.356847642,407,"1329 RHEEM AVE, RICHMOND, CA, 94801","Match","Exact","1329 RHEEM AVE, RICHMOND, CA, 94801",192038931,"L"
50908,"1329 RHEEM AVENUE","RICHMOND","CA",94801,37.949591577,-122.356847642,408,"1329 RHEEM AVENUE, RICHMOND, CA, 94801","Match","Exact","1329 RHEEM AVE, RICHMOND, CA, 94801",192038931,"L"
50909,"1329 RIVERSIDE DR","DAYTON","OH",45405,39.7775679110001,-84.199877427,409,"1329 RIVERSIDE DR, DAYTON, OH, 45405","Match","Exact","1329 RIVERSIDE DR, DAYTON, OH, 45405",143615075,"L"
50910,"1329 ROSEMARY DR","BOLINGBROOK","IL",60490,41.6497118570001,-88.1704008789999,410,"1329 ROSEMARY DR, BOLINGBROOK, IL, 60490","Match","Exact","1329 ROSEMARY DR, BOLINGBROOK, IL, 60490",111624075,"R"
50911,"1329 RUFFNER PLACE","LYNCHBURG","VA",24501,37.4298177960001,-79.154717545,411,"1329 RUFFNER PLACE, LYNCHBURG, VA, 24501","Match","Non_Exact","1329 RUFFNER PL, LYNCHBURG, VA, 24504",62623753,"L"
50912,"1329 S 27TH ST","OMAHA","NE",68105,41.24663573,-95.9517887119999,412,"1329 S 27TH ST, OMAHA, NE, 68105","Match","Exact","1329 S 27TH ST, OMAHA, NE, 68105",116984917,"L"
50913,"1329 S 54TH STREET","PHILADELPHIA","PA",19143,39.9413381040001,-75.2248644969999,413,"1329 S 54TH STREET, PHILADELPHIA, PA, 19143","Match","Exact","1329 S 54TH ST, PHILADELPHIA, PA, 19143",131399907,"L"
50914,"1329 S HANDLEY","WICHITA","KS",67213,37.669269666,-97.350280936,414,"1329 S HANDLEY, WICHITA, KS, 67213","Match","Non_Exact","1329 S HANDLEY ST, WICHITA, KS, 67213",115644897,"R"
50915,"1329 S KIRKMAN RD UNIT 1124","ORLANDO","FL",32801,NA,NA,415,"1329 S KIRKMAN RD UNIT 1124, ORLANDO, FL, 32801","No_Match",NA,NA,NA,NA
50916,"1329 S MAIN STREET SUITE A","SANTA ANA","CA",92707,33.73137516,-117.867753835,416,"1329 S MAIN STREET SUITE A, SANTA ANA, CA, 92707","Match","Non_Exact","1329 S MAIN ST, SANTA ANA, CA, 92707",144043764,"L"
50917,"1329 S PAXON STREET","PHILADELPHIA","PA",19143,39.940563882,-75.2178590939999,417,"1329 S PAXON STREET, PHILADELPHIA, PA, 19143","Match","Exact","1329 S PAXON ST, PHILADELPHIA, PA, 19143",131400060,"L"
50918,"1329 S SOUTHERSBY DR","MUSTANG","OK",73064,35.3792297480001,-97.766429086,418,"1329 S SOUTHERSBY DR, MUSTANG, OK, 73064","Match","Exact","1329 S SOUTHERSBY DR, MUSTANG, OK, 73064",92535428,"R"
50919,"1329 THOUSAND OAKS BLVD 126","THOUSAND OAKS","CA",91362,34.178205082,-118.856201178,419,"1329 THOUSAND OAKS BLVD 126, THOUSAND OAKS, CA, 91362","Match","Non_Exact","1329 E THOUSAND OAKS BLVD, THOUSAND OAKS, CA, 91362",634862683,"L"
50920,"1329 TRINITY PLACE","LIBERTYVILLE","IL",60048,42.2988474200001,-87.9767450749999,420,"1329 TRINITY PLACE, LIBERTYVILLE, IL, 60048","Match","Exact","1329 TRINITY PL, LIBERTYVILLE, IL, 60048",119636989,"R"
50921,"1329 W 44TH","MONAHANS","TX",79756,31.5493544600001,-102.901591673,421,"1329 W 44TH, MONAHANS, TX, 79756","Match","Non_Exact","1329 W 44TH ST, MONAHANS, TX, 79756",651919728,"R"
50922,"1329 W ISABELLA AVE","MESA","AZ",85202,33.383407537,-111.86057486,422,"1329 W ISABELLA AVE, MESA, AZ, 85202","Match","Exact","1329 W ISABELLA AVE, MESA, AZ, 85202",128965806,"R"
50923,"1329 W LOLLAR STREET","TYLER","TX",75702,32.3543514840001,-95.315643772,423,"1329 W LOLLAR STREET, TYLER, TX, 75702","Match","Exact","1329 W LOLLAR ST, TYLER, TX, 75702",141306190,"R"
50924,"1329 WILDFLOWER LN","WYLIE","TX",75098,33.004410154,-96.505528753,424,"1329 WILDFLOWER LN, WYLIE, TX, 75098","Match","Exact","1329 WILDFLOWER LN, WYLIE, TX, 75098",649019434,"L"
50925,"13292 LASSELLE STREET ROOM 1052","MORENO VALLEY","CA",92553,33.927486882,-117.208904136,425,"13292 LASSELLE STREET ROOM 1052, MORENO VALLEY, CA, 92553","Match","Exact","13292 LASSELLE ST, MORENO VALLEY, CA, 92553",633071876,"L"
50926,"13292 YOCKEY STREET APT 17","GARDEN GROVE","CA",92844,33.7699049390001,-117.976787574,426,"13292 YOCKEY STREET APT 17, GARDEN GROVE, CA, 92844","Match","Exact","13292 YOCKEY ST, GARDEN GROVE, CA, 92844",144016063,"L"
50927,"132923 VINELAND RD","DE SOTO","MO",63020,NA,NA,427,"132923 VINELAND RD, DE SOTO, MO, 63020","No_Match",NA,NA,NA,NA
50928,"13293 JOBES RD NE","NEWARK","OH",43055,40.1287466730001,-82.300526465,428,"13293 JOBES RD NE, NEWARK, OH, 43055","Match","Exact","13293 JOBES RD NE, NEWARK, OH, 43055",61547332,"R"
50929,"13293 W 112TH TERRACE","OVERLAND PARK","KS",66210,38.9250570140001,-94.738606793,429,"13293 W 112TH TERRACE, OVERLAND PARK, KS, 66210","Match","Exact","13293 W 112TH TER, OVERLAND PARK, KS, 66210",91271845,"R"
50930,"13294 116TH LN","LARGO","FL",33778,27.893807555,-82.800509419,430,"13294 116TH LN, LARGO, FL, 33778","Match","Exact","13294 116TH LN, LARGO, FL, 33778",124673460,"L"
50931,"13294 W 111TH TERRACE","OVERLAND PARK","KS",66210,38.9268714410001,-94.738616343,431,"13294 W 111TH TERRACE, OVERLAND PARK, KS, 66210","Match","Exact","13294 W 111TH TER, OVERLAND PARK, KS, 66210",91271841,"L"
50932,"13295 HIDDEN TRAIL CT","WILLIS","TX",77318,30.4404699410001,-95.554464206,432,"13295 HIDDEN TRAIL CT, WILLIS, TX, 77318","Match","Exact","13295 HIDDEN TRAIL CT, WILLIS, TX, 77318",79340908,"R"
50933,"13295 ILLINOIS ST SUITE 226","CARMEL","IN",46032,NA,NA,433,"13295 ILLINOIS ST SUITE 226, CARMEL, IN, 46032","No_Match",NA,NA,NA,NA
50934,"13295B BLUEBERRY LANE 103B","FAIRFAX","VA",22033,38.882209361,-77.4048806819999,434,"13295B BLUEBERRY LANE 103B, FAIRFAX, VA, 22033","Match","Exact","13295 BLUEBERRY LN, FAIRFAX, VA, 22033",75964633,"L"
50935,"13298 LONG CYPRESS TRAIL","JACKSONVILLE","FL",32223,30.147841967,-81.6634818489999,435,"13298 LONG CYPRESS TRAIL, JACKSONVILLE, FL, 32223","Match","Exact","13298 LONG CYPRESS TRL, JACKSONVILLE, FL, 32223",624788868,"L"
50936,"13298 MONTEREY AVE S","SAVAGE","MN",55378,44.762039407,-93.33708429,436,"13298 MONTEREY AVE S, SAVAGE, MN, 55378","Match","Exact","13298 MONTEREY AVE S, SAVAGE, MN, 55378",38155998,"L"
50937,"13299 BRONZE PARKWAY","ROSEMOUNT","MN",55068,44.7553865900001,-93.1222604719999,437,"13299 BRONZE PARKWAY, ROSEMOUNT, MN, 55068","Match","Exact","13299 BRONZE PKWY, ROSEMOUNT, MN, 55068",627457775,"R"
50938,"13299 ROCKINGHAM PIKE","ELKTON","VA",22827,38.3951281980001,-78.6767085119999,438,"13299 ROCKINGHAM PIKE, ELKTON, VA, 22827","Match","Exact","13299 ROCKINGHAM PIKE, ELKTON, VA, 22827",55732208,"L"
50939,"13299 SE 100TH AVE","BELLEVIEW","FL",34420,29.02868604,-81.9868575789999,439,"13299 SE 100TH AVE, BELLEVIEW, FL, 34420","Match","Exact","13299 SE 100TH AVE, BELLEVIEW, FL, 34420",116708889,"R"
50940,"132A AK LANDRUM DRIVE","TOOMSUBA","MS",39364,NA,NA,440,"132A AK LANDRUM DRIVE, TOOMSUBA, MS, 39364","No_Match",NA,NA,NA,NA
50941,"132A CALIFORNIA AVENUE","MILL VALLEY","CA",94941,37.887869891,-122.530944624,441,"132A CALIFORNIA AVENUE, MILL VALLEY, CA, 94941","Match","Exact","132 CALIFORNIA AVE, MILL VALLEY, CA, 94941",192769460,"R"
50942,"133  N COUNTY ROAD 315","INTERLACHEN","FL",32148,29.6258007010001,-81.8866141889999,442,"133  N COUNTY ROAD 315, INTERLACHEN, FL, 32148","Match","Exact","133 CO RD 315, INTERLACHEN, FL, 32148",86092762,"L"
50943,"133 24TH AVE NW SUITE 101","NORMAN","OK",73069,35.2179519520001,-97.476642968,443,"133 24TH AVE NW SUITE 101, NORMAN, OK, 73069","Match","Non_Exact","133 24TH AVE SW, NORMAN, OK, 73069",99941451,"L"
50944,"133 24TH AVENUE NORTH WEST SUITE10","NORMAN","OK",73069,35.2179519520001,-97.476642968,444,"133 24TH AVENUE NORTH WEST SUITE10, NORMAN, OK, 73069","Match","Non_Exact","133 24TH AVE SW, NORMAN, OK, 73069",99941451,"L"
50945,"133 3RD AVE","TWO HARBORS","MN",55616,47.0217750570001,-91.661718464,445,"133 3RD AVE, TWO HARBORS, MN, 55616","Match","Exact","133 3RD AVE, TWO HARBORS, MN, 55616",194219232,"L"
50946,"133 3RD AVENUE SOUTH","SOUTH SAINT PAUL","MN",55075,44.889549657,-93.0371764989999,446,"133 3RD AVENUE SOUTH, SOUTH SAINT PAUL, MN, 55075","Match","Exact","133 3RD AVE S, SOUTH SAINT PAUL, MN, 55075",37917261,"L"
50947,"133 6TH AVE W","KALISPELL","MT",59901,48.1959796150001,-114.322169378,447,"133 6TH AVE W, KALISPELL, MT, 59901","Match","Exact","133 6TH AVE W, KALISPELL, MT, 59901",204087303,"R"
50948,"133 ALDERMAN DR","LAKE PLACID","FL",33852,27.3072946090001,-81.355827515,448,"133 ALDERMAN DR, LAKE PLACID, FL, 33852","Match","Exact","133 ALDERMAN DR, LAKE PLACID, FL, 33852",650296148,"R"
50949,"133 ANSLEY ROAD","PAUPACK","PA",18451,NA,NA,449,"133 ANSLEY ROAD, PAUPACK, PA, 18451","No_Match",NA,NA,NA,NA
50950,"133 ARABIAN AVE","LIBERTY HILL","TX",78642,NA,NA,450,"133 ARABIAN AVE, LIBERTY HILL, TX, 78642","Tie",NA,NA,NA,NA
50951,"133 ARMORY RD","PRESTONSBURG","KY",41653,37.7051307400001,-82.767128606,451,"133 ARMORY RD, PRESTONSBURG, KY, 41653","Match","Exact","133 ARMORY RD, PRESTONSBURG, KY, 41653",33624156,"R"
50952,"133 ARROYO HONDO TRAIL","SANTA FE","NM",87508,35.61394799,-105.953658719,452,"133 ARROYO HONDO TRAIL, SANTA FE, NM, 87508","Match","Exact","133 ARROYO HONDO TRL, SANTA FE, NM, 87508",169412597,"R"
50953,"133 ASH BROOKE LANE","HARRODSBURG","KY",40330,37.805606665,-84.8429646449999,453,"133 ASH BROOKE LANE, HARRODSBURG, KY, 40330","Match","Non_Exact","133 ASH BROOK LN, HARRODSBURG, KY, 40330",631675144,"R"
50954,"133 AUTUMNWOOD LANE","DAVIS JUNCTION","IL",61020,42.094198571,-89.101273103,454,"133 AUTUMNWOOD LANE, DAVIS JUNCTION, IL, 61020","Match","Exact","133 AUTUMNWOOD LN, DAVIS JCT, IL, 61020",52332085,"L"
50955,"133 BACON ST","ATTLEBORO","MA",2703,41.8966811880001,-71.3721130659999,455,"133 BACON ST, ATTLEBORO, MA, 2703","Match","Exact","133 BACON ST, ATTLEBORO, MA, 02703",46779185,"L"
50956,"133 BAKER ROAD","PELZER","SC",29669,34.6756127940001,-82.369704182,456,"133 BAKER ROAD, PELZER, SC, 29669","Match","Exact","133 BAKER RD, PELZER, SC, 29669",38315155,"R"
50957,"133 BELLE RIVA DRIVE","HALLSVILLE","TX",75650,32.4940661160001,-94.574608175,457,"133 BELLE RIVA DRIVE, HALLSVILLE, TX, 75650","Match","Exact","133 BELLE RIVA DR, HALLSVILLE, TX, 75650",648213868,"L"
50958,"133 BIG LICK RD","CROSSVILLE","TN",38572,35.8069806170001,-85.0313465419999,458,"133 BIG LICK RD, CROSSVILLE, TN, 38572","Match","Exact","133 BIG LICK RD, CROSSVILLE, TN, 38572",645551534,"L"
50959,"133 BLACK BIRD PLACE","CASCADE","VA",24069,36.6349691670001,-79.626913627,459,"133 BLACK BIRD PLACE, CASCADE, VA, 24069","Match","Exact","133 BLACK BIRD PL, CASCADE, VA, 24069",649742043,"R"
50960,"133 BLUE GROUSE DR","CANON CITY","CO",81212,38.4031273360001,-105.258271265,460,"133 BLUE GROUSE DR, CANON CITY, CO, 81212","Match","Exact","133 BLUE GROUSE DR, CANON CITY, CO, 81212",612600800,"L"
50961,"133 BRIARCLIFF LANE","DANVILLE","VA",24541,36.566416179,-79.456971928,461,"133 BRIARCLIFF LANE, DANVILLE, VA, 24541","Match","Exact","133 BRIARCLIFF LN, DANVILLE, VA, 24541",56587897,"L"
50962,"133 BROADWAY STREET","CHARLOTTE","IA",52731,41.9650590970001,-90.468824734,462,"133 BROADWAY STREET, CHARLOTTE, IA, 52731","Match","Non_Exact","133 BROADWAY, CHARLOTTE, IA, 52731",16801765,"L"
50963,"133 BUTTERNUT LANE","MANDEVILLE","LA",70448,30.3750303470001,-90.035826733,463,"133 BUTTERNUT LANE, MANDEVILLE, LA, 70448","Match","Exact","133 BUTTERNUT LN, MANDEVILLE, LA, 70448",111342331,"L"
50964,"133 BUTTONWOOD CT","RIVERDALE","GA",30274,33.526494776,-84.394505249,464,"133 BUTTONWOOD CT, RIVERDALE, GA, 30274","Match","Exact","133 BUTTONWOOD CT, RIVERDALE, GA, 30274",23322108,"R"
50965,"133 CALKINS ROAD","WOODSTOCK","CT",6281,41.956211813,-72.005245824,465,"133 CALKINS ROAD, WOODSTOCK, CT, 6281","Match","Exact","133 CALKINS RD, WOODSTOCK, CT, 06281",56439332,"L"
50966,"133 CALLAWAY CT","MURFREESBORO","FL",37127,NA,NA,466,"133 CALLAWAY CT, MURFREESBORO, FL, 37127","No_Match",NA,NA,NA,NA
50967,"133 CAMBRIDGE DR","HICKSVILLE","NY",11801,40.7781074910001,-73.506811553,467,"133 CAMBRIDGE DR, HICKSVILLE, NY, 11801","Match","Exact","133 CAMBRIDGE DR, HICKSVILLE, NY, 11801",147641496,"L"
50968,"133 CARIBBEAN COVE","CLINTON","MS",39056,32.3542481640001,-90.299832112,468,"133 CARIBBEAN COVE, CLINTON, MS, 39056","Match","Exact","133 CARIBBEAN COVE, CLINTON, MS, 39056",65375426,"L"
50969,"133 CARRICK CIR","HAYWARD","CA",94542,37.656519152,-122.01419208,469,"133 CARRICK CIR, HAYWARD, CA, 94542","Match","Exact","133 CARRICK CIR, HAYWARD, CA, 94542",606844606,"R"
50970,"133 CARY ROAD","MECHANICVILLE","NY",12118,42.909684063,-73.746192321,470,"133 CARY ROAD, MECHANICVILLE, NY, 12118","Match","Exact","133 CARY RD, MECHANICVILLE, NY, 12118",18769827,"R"
50971,"133 CASIMIR DRIVE","NEW CASTLE","DE",19720,39.670516467,-75.566742647,471,"133 CASIMIR DRIVE, NEW CASTLE, DE, 19720","Match","Exact","133 CASIMIR DR, NEW CASTLE, DE, 19720",187270620,"L"
50972,"133 CHAMBERLAIN LANE","MENA","AR",71953,34.537825787,-94.0262966,472,"133 CHAMBERLAIN LANE, MENA, AR, 71953","Match","Exact","133 CHAMBERLAIN LN, MENA, AR, 71953",34518464,"L"
50973,"133 CHARLES STREET","CAMBRIDGE","MA",2141,42.3677992770001,-71.082029198,473,"133 CHARLES STREET, CAMBRIDGE, MA, 2141","Match","Exact","133 CHARLES ST, CAMBRIDGE, MA, 02141",86871160,"R"
50974,"133 CHESAPEAKE STREET SW","WASHINGTON","DC",20032,38.8286604890001,-77.010551283,474,"133 CHESAPEAKE STREET SW, WASHINGTON, DC, 20032","Match","Exact","133 CHESAPEAKE ST SW, WASHINGTON, DC, 20032",76227855,"R"
50975,"133 CHESTNUT STREET","MONTCLAIR","NJ",7042,40.8237269680001,-74.216005244,475,"133 CHESTNUT STREET, MONTCLAIR, NJ, 7042","Match","Exact","133 CHESTNUT ST, MONTCLAIR, NJ, 07042",63448166,"L"
50976,"133 CLARENDON ST 170360","BOSTON","MA",2117,NA,NA,476,"133 CLARENDON ST 170360, BOSTON, MA, 2117","No_Match",NA,NA,NA,NA
50977,"133 CLARENDON ST SUITE 171199","BOSTON","MA",2117,NA,NA,477,"133 CLARENDON ST SUITE 171199, BOSTON, MA, 2117","No_Match",NA,NA,NA,NA
50978,"133 CLARENDON STREET UNIT 170360","BOSTON","MA",2117,NA,NA,478,"133 CLARENDON STREET UNIT 170360, BOSTON, MA, 2117","No_Match",NA,NA,NA,NA
50979,"133 CLAUDE FIKE ROAD","ACCIDENT","MD",21520,39.6631909820001,-79.3327865909999,479,"133 CLAUDE FIKE ROAD, ACCIDENT, MD, 21520","Match","Exact","133 CLAUDE FIKE RD, ACCIDENT, MD, 21520",74187271,"L"
50980,"133 CLIFF SWALLOW CT","BRISBANE","CA",94005,37.6920158930001,-122.407832689,480,"133 CLIFF SWALLOW CT, BRISBANE, CA, 94005","Match","Exact","133 CLIFF SWALLOW CT, BRISBANE, CA, 94005",192401938,"L"
50981,"133 CORNELIA STREET","BROOKLYN","NY",11221,40.6907707290001,-73.914960857,481,"133 CORNELIA STREET, BROOKLYN, NY, 11221","Match","Exact","133 CORNELIA ST, BROOKLYN, NY, 11221",59083022,"L"
50982,"133 COUNTY ROAD 554","ATHENS","TN",37303,35.4136508990001,-84.570174593,482,"133 COUNTY ROAD 554, ATHENS, TN, 37303","Match","Exact","133 CO RD 554, ATHENS, TN, 37303",647289355,"R"
50983,"133 COURTLAND ST","SPINDALE","NC",28160,35.3541757830001,-81.931043801,483,"133 COURTLAND ST, SPINDALE, NC, 28160","Match","Exact","133 COURTLAND ST, SPINDALE, NC, 28160",19387211,"R"
50984,"133 DANFORD DRIVE","CLARKSVILLE","TN",37043,36.503889288,-87.2396497459999,484,"133 DANFORD DRIVE, CLARKSVILLE, TN, 37043","Match","Exact","133 DANFORD DR, CLARKSVILLE, TN, 37043",31819759,"R"
50985,"133 DEWEY AVE","MARTINEZ","GA",30907,33.5011860590001,-82.143781511,485,"133 DEWEY AVE, MARTINEZ, GA, 30907","Match","Exact","133 DEWEY AVE, MARTINEZ, GA, 30907",55371377,"R"
50986,"133 DEWEY STREET 1ST FLOOR","NEWARK","NJ",7112,40.7149651610001,-74.216905072,486,"133 DEWEY STREET 1ST FLOOR, NEWARK, NJ, 7112","Match","Exact","133 DEWEY ST, NEWARK, NJ, 07112",63465248,"R"
50987,"133 DOVER DRIVE","KING","NC",27021,36.264395543,-80.350943423,487,"133 DOVER DRIVE, KING, NC, 27021","Match","Exact","133 DOVER DR, KING, NC, 27021",56360789,"L"
50988,"133 DUNLIETH PKWY SW","MARIETTA","GA",30008,33.915657186,-84.557631382,488,"133 DUNLIETH PKWY SW, MARIETTA, GA, 30008","Match","Non_Exact","133 DUNLEITH PKWY SW, MARIETTA, GA, 30008",601659111,"R"
50989,"133 E BARNETT AVE STE 1","FORSYTH","IL",62535,39.917657107,-88.95500809,489,"133 E BARNETT AVE STE 1, FORSYTH, IL, 62535","Match","Exact","133 BARNETT AVE, FORSYTH, IL, 62535",20744716,"R"
50990,"133 E DE LA GUERRA ST STE 343","SANTA BARBARA","CA",93101,NA,NA,490,"133 E DE LA GUERRA ST STE 343, SANTA BARBARA, CA, 93101","No_Match",NA,NA,NA,NA
50991,"133 E DE LA GUERRA ST STE A","SANTA BARBARA","CA",93101,NA,NA,491,"133 E DE LA GUERRA ST STE A, SANTA BARBARA, CA, 93101","No_Match",NA,NA,NA,NA
50992,"133 E MAIN ST","BAINBRIDGE","OH",45612,39.227834278,-83.26911276,492,"133 E MAIN ST, BAINBRIDGE, OH, 45612","Match","Exact","133 E MAIN ST, BAINBRIDGE, OH, 45612",37498774,"R"
50993,"133 E MAIN ST","NORRISTOWN","PA",19401,40.113630378,-75.341992556,493,"133 E MAIN ST, NORRISTOWN, PA, 19401","Match","Exact","133 E MAIN ST, NORRISTOWN, PA, 19401",135082369,"L"
50994,"133 E OBSERVATION DR","MERIDIAN","ID",83642,43.5784400090001,-116.391525631,494,"133 E OBSERVATION DR, MERIDIAN, ID, 83642","Match","Exact","133 E OBSERVATION DR, MERIDIAN, ID, 83642",647588428,"R"
50995,"133 E PEORIA ST","PIPER CITY","IL",60959,NA,NA,495,"133 E PEORIA ST, PIPER CITY, IL, 60959","No_Match",NA,NA,NA,NA
50996,"133 E WATER ST","MIDDLETOWN","PA",17057,NA,NA,496,"133 E WATER ST, MIDDLETOWN, PA, 17057","Tie",NA,NA,NA,NA
50997,"133 EAST BAY STREET","JACKSONVILLE","FL",32202,30.3258725370001,-81.656280325,497,"133 EAST BAY STREET, JACKSONVILLE, FL, 32202","Match","Exact","133 E BAY ST, JACKSONVILLE, FL, 32202",83969341,"L"
50998,"133 EAST DE LA GUERRA","SANTA BARBARA","CA",93101,34.4213892130001,-119.697758347,498,"133 EAST DE LA GUERRA, SANTA BARBARA, CA, 93101","Match","Non_Exact","133 E DE LA GUERRA ST, SANTA BARBARA, CA, 93101",640555165,"R"
50999,"133 EAST MAIN STREET STE 1B","BABYLON","NY",11702,40.697019868,-73.320768223,499,"133 EAST MAIN STREET STE 1B, BABYLON, NY, 11702","Match","Exact","133 E MAIN ST, BABYLON, NY, 11702",113978577,"R"
51000,"133 EAST PIKE STREET","CYNTHIANA","KY",41031,38.3889695440001,-84.295863934,500,"133 EAST PIKE STREET, CYNTHIANA, KY, 41031","Match","Exact","133 E PIKE ST, CYNTHIANA, KY, 41031",57893915,"L"
