"ID","Address","City","State","Zip","lat","long","id","input_address","match_indicator","match_type","matched_address","tiger_line_id","tiger_side"
316501,"9421 E MAIN ST   142","MESA","AZ",85207,NA,NA,1,"9421 E MAIN ST   142, MESA, AZ, 85207","No_Match",NA,NA,NA,NA
316502,"9421 HAVEN AVE","RANCHO CUCAMONGA","CA",91730,34.0817905160001,-117.575714556,2,"9421 HAVEN AVE, RANCHO CUCAMONGA, CA, 91730","Match","Exact","9421 HAVEN AVE, RANCHO CUCAMONGA, CA, 91730",144637653,"L"
316503,"9421 NEWBRIDGE DRIVE","POTOMAC","MD",20854,39.0117059070001,-77.194599078,3,"9421 NEWBRIDGE DRIVE, POTOMAC, MD, 20854","Match","Exact","9421 NEWBRIDGE DR, POTOMAC, MD, 20854",62078754,"R"
316504,"9421 SW 123 AVE","MIAMI","FL",33186,25.680617694,-80.394472245,4,"9421 SW 123 AVE, MIAMI, FL, 33186","Match","Exact","9421 SW 123RD AVE, MIAMI, FL, 33186",116261599,"R"
316505,"9421 W SAM HOUSTON PKWY SOUTH","HOUSTON","TX",77099,29.680759901,-95.558763256,5,"9421 W SAM HOUSTON PKWY SOUTH, HOUSTON, TX, 77099","Match","Exact","9421 W SAM HOUSTON PKWY S, HOUSTON, TX, 77099",649106033,"L"
316506,"9421 WHITE OAK LANE","WESTERVILLE","OH",43082,40.135492852,-82.863876035,6,"9421 WHITE OAK LANE, WESTERVILLE, OH, 43082","Match","Exact","9421 WHITE OAK LN, WESTERVILLE, OH, 43082",24611800,"R"
316507,"9422 AGATE LAKE ROAD","LAKE SHORE","MN",56468,46.4602569680001,-94.374372614,7,"9422 AGATE LAKE ROAD, LAKE SHORE, MN, 56468","Match","Exact","9422 AGATE LAKE RD, LAKE SHORE, MN, 56468",651923207,"L"
316508,"9422 FAWCETT AVE","TACOMA","WA",98444,47.1715687070001,-122.43799212,8,"9422 FAWCETT AVE, TACOMA, WA, 98444","Match","Non_Exact","9422 S FAWCETT AVE, TACOMA, WA, 98444",184628972,"R"
316509,"9422 JORNADA LN","CORNELIUS","NC",28031,35.467173491,-80.8569260789999,9,"9422 JORNADA LN, CORNELIUS, NC, 28031","Match","Exact","9422 JORNADA LN, CORNELIUS, NC, 28031",70563508,"L"
316510,"9422 N 50TH PLACE","PARADISE VALLEY","AZ",85253,33.5729465590001,-111.972669063,10,"9422 N 50TH PLACE, PARADISE VALLEY, AZ, 85253","Match","Exact","9422 N 50TH PL, PARADISE VALLEY, AZ, 85253",128220742,"L"
316511,"9422 ULYSSES STREET NE","BLAINE","MN",55434,45.1415263810001,-93.2374491909999,11,"9422 ULYSSES STREET NE, BLAINE, MN, 55434","Match","Exact","9422 ULYSSES ST NE, BLAINE, MN, 55434",618244972,"L"
316512,"9422 VIA PATRICIA","BURBANK","CA",91504,34.2145328710001,-118.337332504,12,"9422 VIA PATRICIA, BURBANK, CA, 91504","Match","Exact","9422 VIA PATRICIA, BURBANK, CA, 91504",142805041,"L"
316513,"9423 QUILTING BEE LANE","CHARLOTTE","NC",28216,35.331862775,-80.866592888,13,"9423 QUILTING BEE LANE, CHARLOTTE, NC, 28216","Match","Exact","9423 QUILTING BEE LN, CHARLOTTE, NC, 28216",618148881,"R"
316514,"9423 S NORMAL AVE","CHICAGO","IL",60620,41.7228976600001,-87.6359600869999,14,"9423 S NORMAL AVE, CHICAGO, IL, 60620","Match","Exact","9423 S NORMAL AVE, CHICAGO, IL, 60620",111832840,"L"
316515,"9423 STERLING DRIVE","CUTLER BAY","FL",33157,25.5950686480001,-80.344804664,15,"9423 STERLING DRIVE, CUTLER BAY, FL, 33157","Match","Exact","9423 STERLING DR, CUTLER BAY, FL, 33157",116046407,"R"
316516,"9424 ALICE MCGINN DR","CHARLOTTE","NC",28277,35.0260853180001,-80.851910619,16,"9424 ALICE MCGINN DR, CHARLOTTE, NC, 28277","Match","Exact","9424 ALICE MCGINN DR, CHARLOTTE, NC, 28277",631737978,"R"
316517,"9424 CEDAR ST UNIT C","BELLFLOWER","CA",90706,33.8711797290001,-118.13291566,17,"9424 CEDAR ST UNIT C, BELLFLOWER, CA, 90706","Match","Exact","9424 CEDAR ST, BELLFLOWER, CA, 90706",241245152,"R"
316518,"9424 DRIFT WAY","ORANGEVALE","CA",95662,38.6641545860001,-121.201651094,18,"9424 DRIFT WAY, ORANGEVALE, CA, 95662","Match","Exact","9424 DRIFT WAY, ORANGEVALE, CA, 95662",133357203,"R"
316519,"9424 GENTLE CIR","MONTGOMERY VILLAGE","MD",20886,39.188846304,-77.194551958,19,"9424 GENTLE CIR, MONTGOMERY VILLAGE, MD, 20886","Match","Exact","9424 GENTLE CIR, MONTGOMERY VILLAGE, MD, 20886",62050149,"R"
316520,"9424 HIGHWAY 234","GOLD HILL","OR",97525,42.4765218970001,-122.982152392,20,"9424 HIGHWAY 234, GOLD HILL, OR, 97525","Match","Non_Exact","9424 STATE HWY 234, GOLD HILL, OR, 97525",155516947,"R"
316521,"9424 LODGEPOLE PLACE","CHARLOTTE","NC",28210,35.111648846,-80.875158034,21,"9424 LODGEPOLE PLACE, CHARLOTTE, NC, 28210","Match","Exact","9424 LODGEPOLE PL, CHARLOTTE, NC, 28210",70497490,"R"
316522,"9424 MILITARY PARKWAY","DALLAS","TX",75227,NA,NA,22,"9424 MILITARY PARKWAY, DALLAS, TX, 75227","No_Match",NA,NA,NA,NA
316523,"9425 BLIND PASS RD 1203","ST PETE BEACH","FL",33706,27.75616253,-82.758453305,23,"9425 BLIND PASS RD 1203, ST PETE BEACH, FL, 33706","Match","Exact","9425 BLIND PASS RD, SAINT PETE BEACH, FL, 33706",610492178,"R"
316524,"9425 CLUBLANDS DRIVE","JOHNS CREEK","GA",30022,34.0118597060001,-84.204329237,24,"9425 CLUBLANDS DRIVE, JOHNS CREEK, GA, 30022","Match","Exact","9425 CLUBLANDS DR, JOHNS CREEK, GA, 30022",17394972,"L"
316525,"9425 DOUBLE R BLVD SUITE A","RENO","NV",89521,39.4487606750001,-119.759375825,25,"9425 DOUBLE R BLVD SUITE A, RENO, NV, 89521","Match","Exact","9425 DOUBLE R BLVD, RENO, NV, 89521",107092636,"R"
316526,"9425 FLOYDSBURG ROAD","LOUISVILLE","KY",40245,38.2931842850001,-85.4195662,26,"9425 FLOYDSBURG ROAD, LOUISVILLE, KY, 40245","Match","Exact","9425 FLOYDSBURG RD, LOUISVILLE, KY, 40245",635468964,"L"
316527,"9425 NORTH MERIDIAN ST 201","INDIANAPOLIS","IN",46260,39.9249009280001,-86.15780454,27,"9425 NORTH MERIDIAN ST 201, INDIANAPOLIS, IN, 46260","Match","Exact","9425 N MERIDIAN ST, INDIANAPOLIS, IN, 46260",640845241,"R"
316528,"9425 S RIVERSIDE DR APT 611","SANDY","UT",84070,40.5829352860001,-111.91481681,28,"9425 S RIVERSIDE DR APT 611, SANDY, UT, 84070","Match","Exact","9425 RIVERSIDE DR, SANDY, UT, 84070",616074074,"L"
316529,"9425 TERMINAL AVE","SKOKIE","IL",60077,42.0524356810001,-87.756796977,29,"9425 TERMINAL AVE, SKOKIE, IL, 60077","Match","Exact","9425 TERMINAL AVE, SKOKIE, IL, 60077",111735441,"R"
316530,"9426 225TH STREET","QUEENSVILLAGE","NY",11428,NA,NA,30,"9426 225TH STREET, QUEENSVILLAGE, NY, 11428","No_Match",NA,NA,NA,NA
316531,"9426 COPPER COVE LANE","ROSHARON","TX",77583,29.444973416,-95.438714929,31,"9426 COPPER COVE LANE, ROSHARON, TX, 77583","Match","Exact","9426 COPPER COVE LN, ROSHARON, TX, 77583",625667628,"L"
316532,"9426 EVERTON","SAN ANTONIO","TX",78245,29.4156772860001,-98.671746378,32,"9426 EVERTON, SAN ANTONIO, TX, 78245","Match","Exact","9426 EVERTON, SAN ANTONIO, TX, 78245",619927751,"L"
316533,"9426 GOLD MOUINTAIN DR","IOWA COLONY","TX",77583,29.444547782,-95.454006815,33,"9426 GOLD MOUINTAIN DR, IOWA COLONY, TX, 77583","Match","Non_Exact","9426 GOLD MOUNTAIN DR, IOWA COLONY, TX, 77583",651973189,"R"
316534,"9426 GRAND ISLE CT","HOUSTON","TX",77044,29.8585548990001,-95.223135323,34,"9426 GRAND ISLE CT, HOUSTON, TX, 77044","Match","Exact","9426 GRAND ISLE CT, HOUSTON, TX, 77044",96424193,"L"
316535,"9426 SW 146 CT","MIAMI","FL",33186,25.6791361750001,-80.4312552649999,35,"9426 SW 146 CT, MIAMI, FL, 33186","Match","Exact","9426 SW 146TH CT, MIAMI, FL, 33186",116069035,"L"
316536,"9426 WOODSONG CT","LAUREL","MD",20723,39.1267469800001,-76.836253601,36,"9426 WOODSONG CT, LAUREL, MD, 20723","Match","Exact","9426 WOODSONG CT, LAUREL, MD, 20723",158932610,"R"
316537,"9427 CHERRY TREE DRIVE SUITE 208","STRONGSVILLE","OH",44136,41.341222411,-81.8204155129999,37,"9427 CHERRY TREE DRIVE SUITE 208, STRONGSVILLE, OH, 44136","Match","Exact","9427 CHERRY TREE DR, STRONGSVILLE, OH, 44136",61156584,"L"
316538,"9427 LEMBERT DOME CIR","STOCKTON","CA",95212,38.036564791,-121.262971983,38,"9427 LEMBERT DOME CIR, STOCKTON, CA, 95212","Match","Exact","9427 LEMBERT DOME CIR, STOCKTON, CA, 95212",133890154,"R"
316539,"9427 NOBLE AVENUE UNIT 106","NORTH HILLS","CA",91343,34.2416191460001,-118.460986979,39,"9427 NOBLE AVENUE UNIT 106, NORTH HILLS, CA, 91343","Match","Exact","9427 NOBLE AVE, NORTH HILLS, CA, 91343",637068643,"L"
316540,"9427 SOUTH HWY 259","MCDANIELS","KY",40152,NA,NA,40,"9427 SOUTH HWY 259, MCDANIELS, KY, 40152","No_Match",NA,NA,NA,NA
316541,"9428 BENT TREE DR","HILLSBORO","MO",63050,38.258215981,-90.5945202679999,41,"9428 BENT TREE DR, HILLSBORO, MO, 63050","Match","Exact","9428 BENT TREE DR, HILLSBORO, MO, 63050",62764057,"R"
316542,"9428 BONDENO ST","LAS VEGAS","NV",89123,36.0183811370001,-115.126987623,42,"9428 BONDENO ST, LAS VEGAS, NV, 89123","Match","Exact","9428 BONDENO ST, LAS VEGAS, NV, 89123",201926441,"L"
316543,"9428 EDDIE AND PARK RD","SAINT LOUIS","MO",63126,38.544141354,-90.373862273,43,"9428 EDDIE AND PARK RD, SAINT LOUIS, MO, 63126","Match","Exact","9428 EDDIE AND PARK RD, SAINT LOUIS, MO, 63126",100139539,"L"
316544,"9428 FENS HOLLOW SUITE B","LAUREL","MD",20723,39.132897169,-76.840394373,44,"9428 FENS HOLLOW SUITE B, LAUREL, MD, 20723","Match","Exact","9428 FENS HOLLOW, LAUREL, MD, 20723",158932605,"R"
316545,"9428 MARINERS RIDGE DRIVE","FORT WAYNE","IN",46819,40.997662684,-85.142036877,45,"9428 MARINERS RIDGE DRIVE, FORT WAYNE, IN, 46819","Match","Exact","9428 MARINERS RIDGE DR, FORT WAYNE, IN, 46819",6394937,"R"
316546,"9428 OLD BROWNSVILLE RD","ARLINGTON","TN",38002,35.2666988080001,-89.7461553539999,46,"9428 OLD BROWNSVILLE RD, ARLINGTON, TN, 38002","Match","Exact","9428 OLD BROWNSVILLE RD, ARLINGTON, TN, 38002",72945012,"L"
316547,"9429 133 ST N","SEMINOLE","FL",33776,27.8586640300001,-82.822442401,47,"9429 133 ST N, SEMINOLE, FL, 33776","Match","Non_Exact","9429 133RD ST, SEMINOLE, FL, 33776",124728873,"R"
316548,"9429 HARDING AVENUE SUITE 293","SURFSIDE","FL",33154,25.88400577,-80.123421267,48,"9429 HARDING AVENUE SUITE 293, SURFSIDE, FL, 33154","Match","Exact","9429 HARDING AVE, SURFSIDE, FL, 33154",116038358,"R"
316549,"9429 NORTH WAVERLY DRIVE","BAYSIDE","WI",53217,43.1872849640001,-87.910912206,49,"9429 NORTH WAVERLY DRIVE, BAYSIDE, WI, 53217","Match","Exact","9429 N WAVERLY DR, BAYSIDE, WI, 53217",77736483,"L"
316550,"9429 PARMELEE AVENUE","LOS ANGELES","CA",90002,33.9508964780001,-118.250090959,50,"9429 PARMELEE AVENUE, LOS ANGELES, CA, 90002","Match","Exact","9429 PARMELEE AVE, LOS ANGELES, CA, 90002",141671490,"R"
316551,"9429 SW 62ND DRIVE","PORTLAND","OR",97219,45.457519473,-122.741596363,51,"9429 SW 62ND DRIVE, PORTLAND, OR, 97219","Match","Exact","9429 SW 62ND DR, PORTLAND, OR, 97219",157559498,"R"
316552,"9429 W SALTER DR","PEORIA","AZ",85382,33.6796497980001,-112.262345241,52,"9429 W SALTER DR, PEORIA, AZ, 85382","Match","Exact","9429 W SALTER DR, PEORIA, AZ, 85382",128955124,"R"
316553,"943 1/2 WEST 7TH STREET UNIT 2","ST PAUL","MN",55102,NA,NA,53,"943 1/2 WEST 7TH STREET UNIT 2, ST PAUL, MN, 55102","No_Match",NA,NA,NA,NA
316554,"943 10TH AVE","SAN DIEGO","CA",92101,32.7151463550001,-117.155590606,54,"943 10TH AVE, SAN DIEGO, CA, 92101","Match","Exact","943 10TH AVE, SAN DIEGO, CA, 92101",195344619,"R"
316555,"943 A SHOAL CREEK TRAIL","CHESAPEAKE","VA",23320,36.7621137,-76.220307481,55,"943 A SHOAL CREEK TRAIL, CHESAPEAKE, VA, 23320","Match","Exact","943 SHOAL CREEK TRL, CHESAPEAKE, VA, 23320",121792794,"R"
316556,"943 AUGUSTA DR","MORAGA","CA",94556,37.8264597610001,-122.133887859,56,"943 AUGUSTA DR, MORAGA, CA, 94556","Match","Exact","943 AUGUSTA DR, MORAGA, CA, 94556",192051724,"L"
316557,"943 AVALON RD","LAWRENCE","KS",66044,38.9666455730001,-95.255600941,57,"943 AVALON RD, LAWRENCE, KS, 66044","Match","Exact","943 AVALON RD, LAWRENCE, KS, 66044",17683729,"R"
316558,"943 COPPER STONE CIR","CHESAPEAKE","VA",23320,36.7586453260001,-76.2159460619999,58,"943 COPPER STONE CIR, CHESAPEAKE, VA, 23320","Match","Exact","943 COPPER STONE CIR, CHESAPEAKE, VA, 23320",121782295,"R"
316559,"943 CRISSINGER HILL RD","SUNBURY","PA",17801,40.7896030160001,-76.811850028,59,"943 CRISSINGER HILL RD, SUNBURY, PA, 17801","Match","Exact","943 CRISSINGER HILL RD, SUNBURY, PA, 17801",652099109,"L"
316560,"943 DON CUBERO AVE","SANTA FE","NM",87505,35.675769603,-105.94731381,60,"943 DON CUBERO AVE, SANTA FE, NM, 87505","Match","Exact","943 DON CUBERO AVE, SANTA FE, NM, 87505",169378649,"L"
316561,"943 EAST ALTADENA DRIVE","ALTADENA","CA",91001,34.1903375900001,-118.130516191,61,"943 EAST ALTADENA DRIVE, ALTADENA, CA, 91001","Match","Exact","943 E ALTADENA DR, ALTADENA, CA, 91001",142735438,"L"
316562,"943 EAST LINCOLN HIGHWAY","FORD HEIGHTS","IL",60411,41.506279314,-87.593217377,62,"943 EAST LINCOLN HIGHWAY, FORD HEIGHTS, IL, 60411","Match","Exact","943 E LINCOLN HWY, FORD HEIGHTS, IL, 60411",111785563,"L"
316563,"943 EAST MAIN BLVD","CHURCH HILL","TN",37642,36.532161692,-82.6801915839999,63,"943 EAST MAIN BLVD, CHURCH HILL, TN, 37642","Match","Exact","943 E MAIN BLVD, CHURCH HILL, TN, 37642",605566594,"R"
316564,"943 FAIRVIEW AVE UNIT B","ARCADIA","CA",94007,34.1284764010001,-118.062068127,64,"943 FAIRVIEW AVE UNIT B, ARCADIA, CA, 94007","Match","Non_Exact","943 FAIRVIEW AVE, ARCADIA, CA, 91007",615508189,"R"
316565,"943 GLOSSON RD","SILER CITY","NY",27344,NA,NA,65,"943 GLOSSON RD, SILER CITY, NY, 27344","No_Match",NA,NA,NA,NA
316566,"943 HARRISON CIRCLE","ALEXANDRIA","VA",22304,38.799584119,-77.1329499519999,66,"943 HARRISON CIRCLE, ALEXANDRIA, VA, 22304","Match","Exact","943 HARRISON CIR, ALEXANDRIA, VA, 22304",76063486,"R"
316567,"943 INDIAN CREEK DRIVE","PIPE CREEK","TX",78063,29.671445179,-98.861692433,67,"943 INDIAN CREEK DRIVE, PIPE CREEK, TX, 78063","Match","Exact","943 INDIAN CREEK DR, PIPE CREEK, TX, 78063",102714771,"L"
316568,"943 JARIUS DRIVE","LEXINGTON","KY",40515,37.9598096180001,-84.494179692,68,"943 JARIUS DRIVE, LEXINGTON, KY, 40515","Match","Non_Exact","943 JAIRUS DR, LEXINGTON, KY, 40515",31939200,"R"
316569,"943 JORDAN WAY","COLLEGE PARK","GA",30349,33.63815197,-84.536217388,69,"943 JORDAN WAY, COLLEGE PARK, GA, 30349","Match","Exact","943 JORDAN WAY, COLLEGE PARK, GA, 30349",624025695,"R"
316570,"943 KIRTOMY LOOP","PFLUGERVILLE","TX",78660,30.465590213,-97.63770722,70,"943 KIRTOMY LOOP, PFLUGERVILLE, TX, 78660","Match","Exact","943 KIRTOMY LOOP, PFLUGERVILLE, TX, 78660",63991619,"L"
316571,"943 LITTLE BEAR LOOP","LEWIS CENTER","OH",43035,40.160744612,-82.997288383,71,"943 LITTLE BEAR LOOP, LEWIS CENTER, OH, 43035","Match","Exact","943 LITTLE BEAR LOOP, LEWIS CENTER, OH, 43035",631795048,"R"
316572,"943 LITTLE RIVER 52","FOREMAN","AR",71836,NA,NA,72,"943 LITTLE RIVER 52, FOREMAN, AR, 71836","No_Match",NA,NA,NA,NA
316573,"943 MALCOLM AVE","LOS ANGELES","CA",90024,34.062920666,-118.440138753,73,"943 MALCOLM AVE, LOS ANGELES, CA, 90024","Match","Exact","943 MALCOLM AVE, LOS ANGELES, CA, 90024",141567560,"R"
316574,"943 MARINA BLVD","BULLHEAD CITY","AZ",86442,NA,NA,74,"943 MARINA BLVD, BULLHEAD CITY, AZ, 86442","No_Match",NA,NA,NA,NA
316575,"943 PHELPS ROAD","TEANECK","NJ",7666,40.886388208,-73.999950413,75,"943 PHELPS ROAD, TEANECK, NJ, 7666","Match","Exact","943 PHELPS RD, TEANECK, NJ, 07666",64412778,"R"
316576,"943 ROSE HILL AVE","HAGERSTOWN","MD",21740,39.624053523,-77.723348025,76,"943 ROSE HILL AVE, HAGERSTOWN, MD, 21740","Match","Exact","943 ROSE HILL AVE, HAGERSTOWN, MD, 21740",60787104,"R"
316577,"943 SANBORN AVE UNIT 2","LOS ANGELES","CA",90029,34.089400708,-118.28281034,77,"943 SANBORN AVE UNIT 2, LOS ANGELES, CA, 90029","Match","Exact","943 SANBORN AVE, LOS ANGELES, CA, 90029",141604544,"L"
316578,"943 SOUTH 400 WEST","BOUNTIFUUL","UT",84010,40.8791550550001,-111.889596121,78,"943 SOUTH 400 WEST, BOUNTIFUUL, UT, 84010","Match","Non_Exact","943 S 400 W, BOUNTIFUL, UT, 84010",229353122,"L"
316579,"943 STONE CREEK CT","PERRYSBURG","OH",43551,41.5412530730001,-83.648569131,79,"943 STONE CREEK CT, PERRYSBURG, OH, 43551","Match","Exact","943 STONE CREEK CT, PERRYSBURG, OH, 43551",38749282,"L"
316580,"943 SWAN ST","HUNTINGTON","IN",46750,40.8889905890001,-85.474777891,80,"943 SWAN ST, HUNTINGTON, IN, 46750","Match","Exact","943 SWAN ST, HUNTINGTON, IN, 46750",6552207,"R"
316581,"943 SYMPHONY ISLES BLVD","APOLLO BEACH","FL",33572,27.7688285890001,-82.427598194,81,"943 SYMPHONY ISLES BLVD, APOLLO BEACH, FL, 33572","Match","Exact","943 SYMPHONY ISLES BLVD, APOLLO BEACH, FL, 33572",104495968,"R"
316582,"943 THOMAS AVE W APT 1","ST PAUL","MN",55104,NA,NA,82,"943 THOMAS AVE W APT 1, ST PAUL, MN, 55104","No_Match",NA,NA,NA,NA
316583,"943 VANCE STREET","TOLEDO","OH",43607,41.646970391,-83.566567688,83,"943 VANCE STREET, TOLEDO, OH, 43607","Match","Exact","943 VANCE ST, TOLEDO, OH, 43607",33949037,"L"
316584,"943 W LAKEWOOD RD","WEST PALM BEACH","FL",33405,26.669598486,-80.064479981,84,"943 W LAKEWOOD RD, WEST PALM BEACH, FL, 33405","Match","Exact","943 W LAKEWOOD RD, WEST PALM BEACH, FL, 33405",115562048,"R"
316585,"943 W SPRING CREEK TRAIL","LA PORTE","IN",46350,41.5457907860001,-86.7196371699999,85,"943 W SPRING CREEK TRAIL, LA PORTE, IN, 46350","Match","Exact","943 W SPRING CREEK TRL, LA PORTE, IN, 46350",15408947,"L"
316586,"9430 30TH AVE SW","SEATTLE","WA",98126,47.5179591340001,-122.371377043,86,"9430 30TH AVE SW, SEATTLE, WA, 98126","Match","Exact","9430 30TH AVE SW, SEATTLE, WA, 98126",186578274,"L"
316587,"9430 EMERALD GREEN DR","ROSHARON","TX",77583,29.44487481,-95.445985106,87,"9430 EMERALD GREEN DR, ROSHARON, TX, 77583","Match","Exact","9430 EMERALD GREEN DR, ROSHARON, TX, 77583",641856461,"L"
316588,"9430 LANHAM SEVERN ROAD","LANHAM","MD",20706,38.972530125,-76.8462866739999,88,"9430 LANHAM SEVERN ROAD, LANHAM, MD, 20706","Match","Exact","9430 LANHAM SEVERN RD, LANHAM, MD, 20706",76365399,"L"
316589,"9430 LARKBUNTING DRIVE","TAMPA","FL",33647,28.1453737900001,-82.342002075,89,"9430 LARKBUNTING DRIVE, TAMPA, FL, 33647","Match","Exact","9430 LARKBUNTING DR, TAMPA, FL, 33647",104574109,"L"
316590,"9430 NORTH FAIRWAY DRIVE","BAYSIDE","WI",53217,43.1884338770001,-87.905736238,90,"9430 NORTH FAIRWAY DRIVE, BAYSIDE, WI, 53217","Match","Exact","9430 N FAIRWAY DR, BAYSIDE, WI, 53217",77736452,"R"
316591,"9430 WILKERSON MILL RD","PALMETTO","GA",30268,33.561456578,-84.6937848699999,91,"9430 WILKERSON MILL RD, PALMETTO, GA, 30268","Match","Exact","9430 WILKERSON MILL RD, PALMETTO, GA, 30268",601270373,"R"
316592,"9431 240TH STREET","FLORAL PARK","NY",11001,40.722747478,-73.726927484,92,"9431 240TH STREET, FLORAL PARK, NY, 11001","Match","Exact","9431 240TH ST, FLORAL PARK, NY, 11001",638246075,"L"
316593,"9431 HAVEN AVE SUITE 218","RANCHO CUCAMONGA","CA",91730,34.0815770610001,-117.575713216,93,"9431 HAVEN AVE SUITE 218, RANCHO CUCAMONGA, CA, 91730","Match","Exact","9431 HAVEN AVE, RANCHO CUCAMONGA, CA, 91730",144637653,"L"
316594,"9431 N PURDUE","CLOVIS","CA",93619,36.8731178940001,-119.690084306,94,"9431 N PURDUE, CLOVIS, CA, 93619","Match","Non_Exact","9431 N PURDUE AVE, CLOVIS, CA, 93619",197564597,"L"
316595,"9431 NORWOOD LANE N","MAPLE GROVE","MN",55369,45.125088943,-93.439886965,95,"9431 NORWOOD LANE N, MAPLE GROVE, MN, 55369","Match","Exact","9431 NORWOOD LN N, MAPLE GROVE, MN, 55369",43847139,"R"
316596,"9431 NW 8TH STREET","PEMBROKE PINES","FL",33024,26.0149525640001,-80.271506635,96,"9431 NW 8TH STREET, PEMBROKE PINES, FL, 33024","Match","Exact","9431 NW 8TH ST, PEMBROKE PINES, FL, 33024",114712207,"R"
316597,"9431 PAULDING ST NW","MASSILLON","OH",44646,40.902280923,-81.520523425,97,"9431 PAULDING ST NW, MASSILLON, OH, 44646","Match","Exact","9431 PAULDING ST NW, MASSILLON, OH, 44646",64700322,"L"
316598,"9431 S RACINE AVE","CHICAGO","IL",60620,41.7227043390001,-87.6529728689999,98,"9431 S RACINE AVE, CHICAGO, IL, 60620","Match","Exact","9431 S RACINE AVE, CHICAGO, IL, 60620",605522197,"L"
316599,"9431 SENTRY DR","JACKSONVILLE","FL",32225,30.3455726120001,-81.5516143249999,99,"9431 SENTRY DR, JACKSONVILLE, FL, 32225","Match","Exact","9431 SENTRY DR, JACKSONVILLE, FL, 32225",629911335,"R"
316600,"9431 SPIRAL WOOD LN","HOUSTON","TX",77086,29.9168462740001,-95.497875845,100,"9431 SPIRAL WOOD LN, HOUSTON, TX, 77086","Match","Non_Exact","9431 SPIRALWOOD LN, HOUSTON, TX, 77086",96010897,"L"
316601,"9431 SW 79TH STREET","MIAMI","FL",33173,25.6956154120001,-80.3462390879999,101,"9431 SW 79TH STREET, MIAMI, FL, 33173","Match","Exact","9431 SW 79TH ST, MIAMI, FL, 33173",116073659,"R"
316602,"9431 W SAM HOUSTON PKWY S","HOUSTON","TX",77099,29.6807540390001,-95.558764429,102,"9431 W SAM HOUSTON PKWY S, HOUSTON, TX, 77099","Match","Exact","9431 W SAM HOUSTON PKWY S, HOUSTON, TX, 77099",649106033,"L"
316603,"9431 WASHINGTON CIRCLE","CHANHASSEN","MN",55317,44.8333396890001,-93.5698188379999,103,"9431 WASHINGTON CIRCLE, CHANHASSEN, MN, 55317","Match","Exact","9431 WASHINGTON CIR, CHANHASSEN, MN, 55317",617113265,"R"
316604,"9432 BAYMEADOWS RD SUITE 230","JACKSONVILLE","FL",32256,30.220919377,-81.56306746,104,"9432 BAYMEADOWS RD SUITE 230, JACKSONVILLE, FL, 32256","Match","Exact","9432 BAYMEADOWS RD, JACKSONVILLE, FL, 32256",83966653,"L"
316605,"9432 CRAFTSMAN CIR","BREWERTON","NY",13029,43.2264076340001,-76.132852379,105,"9432 CRAFTSMAN CIR, BREWERTON, NY, 13029","Match","Exact","9432 CRAFTSMAN CIR, BREWERTON, NY, 13029",623837227,"R"
316606,"9432 HOPELAND DRIVE","AUSTIN","TX",78749,30.205536125,-97.881744757,106,"9432 HOPELAND DRIVE, AUSTIN, TX, 78749","Match","Exact","9432 HOPELAND DR, AUSTIN, TX, 78749",64096632,"R"
316607,"9432 KATY FREEWAY SUITE 380","HOUSTON","TX",77055,29.7850756990001,-95.531351537,107,"9432 KATY FREEWAY SUITE 380, HOUSTON, TX, 77055","Match","Exact","9432 KATY FWY, HOUSTON, TX, 77055",96029392,"R"
316608,"9432 TAVISTOCK CT","MATTHEWS","NC",28105,35.1645166070001,-80.72802068,108,"9432 TAVISTOCK CT, MATTHEWS, NC, 28105","Match","Exact","9432 TAVISTOCK CT, MATTHEWS, NC, 28105",618153610,"R"
316609,"9432 VILLA ISLE CIRCLE","VILLA PARK","CA",92861,33.8251320470001,-117.796950543,109,"9432 VILLA ISLE CIRCLE, VILLA PARK, CA, 92861","Match","Exact","9432 VILLA ISLE CIR, VILLA PARK, CA, 92861",144033880,"L"
316610,"9432 WESTLAKE CIRCLE","SHERWOOD","AR",72120,NA,NA,110,"9432 WESTLAKE CIRCLE, SHERWOOD, AR, 72120","No_Match",NA,NA,NA,NA
316611,"9432 WOODLAWN DRIVE","DOUGLASVILLE","GA",30135,33.7263242560001,-84.716164966,111,"9432 WOODLAWN DRIVE, DOUGLASVILLE, GA, 30135","Match","Exact","9432 WOODLAWN DR, DOUGLASVILLE, GA, 30135",16654123,"L"
316612,"9433 FOREST HILLS CIR","SARASOTA","FL",34248,27.215508368,-82.471971912,112,"9433 FOREST HILLS CIR, SARASOTA, FL, 34248","Match","Non_Exact","9433 FOREST HILLS CIR, SARASOTA, FL, 34238",16383174,"L"
316613,"9433 FRIENDLY WOODS LANE","WHITTIER","CA",90605,33.953316665,-117.999369071,113,"9433 FRIENDLY WOODS LANE, WHITTIER, CA, 90605","Match","Exact","9433 FRIENDLY WOODS LN, WHITTIER, CA, 90605",142799017,"R"
316614,"9433 HARBOR GREENS WAY APT 203","SEMINOLE","FL",33776,27.858695422,-82.836594347,114,"9433 HARBOR GREENS WAY APT 203, SEMINOLE, FL, 33776","Match","Exact","9433 HARBOR GREENS WAY, SEMINOLE, FL, 33776",629030352,"R"
316615,"9433 POPLAR AVENUE","FONTANA","CA",92335,34.082773968,-117.462387103,115,"9433 POPLAR AVENUE, FONTANA, CA, 92335","Match","Exact","9433 POPLAR AVE, FONTANA, CA, 92335",638617228,"L"
316616,"9433 W BRADLEY ROAD","MILWAUKEE","WI",53224,43.1631022890001,-88.0292149919999,116,"9433 W BRADLEY ROAD, MILWAUKEE, WI, 53224","Match","Exact","9433 W BRADLEY RD, MILWAUKEE, WI, 53224",77724086,"L"
316617,"9434 CURRY LANDING DR","HOUSTON","TX",77095,29.9121720200001,-95.669887323,117,"9434 CURRY LANDING DR, HOUSTON, TX, 77095","Match","Exact","9434 CURRY LANDING DR, HOUSTON, TX, 77095",631452110,"L"
316618,"9434 FOREST HILLS CIRCLE","TAMPA","FL",33612,28.0353759820001,-82.47318828,118,"9434 FOREST HILLS CIRCLE, TAMPA, FL, 33612","Match","Exact","9434 FOREST HILLS CIR, TAMPA, FL, 33612",104550947,"R"
316619,"9434 MCCAMUS ROAD","BROOKSTON","MN",55711,46.869917967,-92.677848636,119,"9434 MCCAMUS ROAD, BROOKSTON, MN, 55711","Match","Exact","9434 MCCAMUS RD, BROOKSTON, MN, 55711",635563773,"L"
316620,"9434 S MAIN STREET SUITE 1900","JONESBORO","GA",30236,33.4925733420001,-84.338834251,120,"9434 S MAIN STREET SUITE 1900, JONESBORO, GA, 30236","Match","Non_Exact","9434 S MAIN ST, JONESBORO, GA, 30236",23317449,"R"
316621,"9434 S SID CIR","SOUTH JORDAN","UT",84095,40.5799356090001,-111.997356728,121,"9434 S SID CIR, SOUTH JORDAN, UT, 84095","Match","Non_Exact","9434 SID CIR, SOUTH JORDAN, UT, 84009",176144021,"R"
316622,"9435 AINSLIE DOWNS ST","CHARLOTTE","NC",28273,35.1318315890001,-80.8795208559999,122,"9435 AINSLIE DOWNS ST, CHARLOTTE, NC, 28273","Match","Exact","9435 AINSLIE DOWNS ST, CHARLOTTE, NC, 28273",641599640,"L"
316623,"9435 ANZAC AVE","LOS ANGELES","CA",90002,33.9512585520001,-118.237425565,123,"9435 ANZAC AVE, LOS ANGELES, CA, 90002","Match","Exact","9435 ANZAC AVE, LOS ANGELES, CA, 90002",653233397,"R"
316624,"9435 BETEL DR","EL PASO","TX",79907,31.694313917,-106.294939486,124,"9435 BETEL DR, EL PASO, TX, 79907","Match","Exact","9435 BETEL DR, EL PASO, TX, 79907",189351996,"L"
316625,"9435 LORTON MARKET ST  SUITE 718","LORTON","VA",22079,38.7005126060001,-77.22207288,125,"9435 LORTON MARKET ST  SUITE 718, LORTON, VA, 22079","Match","Exact","9435 LORTON MARKET ST, LORTON, VA, 22079",619526423,"L"
316626,"9435 LORTON MARKET ST STE 713","LORTON","VA",22079,38.7005126060001,-77.22207288,126,"9435 LORTON MARKET ST STE 713, LORTON, VA, 22079","Match","Exact","9435 LORTON MARKET ST, LORTON, VA, 22079",619526423,"L"
316627,"9435 NW 42ND STREET","SUNRISE","FL",33351,26.177690119,-80.282252037,127,"9435 NW 42ND STREET, SUNRISE, FL, 33351","Match","Exact","9435 NW 42ND ST, SUNRISE, FL, 33351",611118465,"L"
316628,"9435 OLD PRESERVE TRAIL","BALL GROUND","GA",30107,34.303885613,-84.252206098,128,"9435 OLD PRESERVE TRAIL, BALL GROUND, GA, 30107","Match","Exact","9435 OLD PRESERVE TRL, BALL GROUND, GA, 30107",618693422,"R"
316629,"9435 QUESTA POINTE","SAN DIEGO","CA",92126,32.932094449,-117.121656935,129,"9435 QUESTA POINTE, SAN DIEGO, CA, 92126","Match","Exact","9435 QUESTA POINTE, SAN DIEGO, CA, 92126",645310481,"R"
316630,"9435 RANCHVIEW LN","MAPLE GROVE","MN",55369,45.125541915,-93.47654625,130,"9435 RANCHVIEW LN, MAPLE GROVE, MN, 55369","Match","Non_Exact","9435 RANCHVIEW LN N, MAPLE GROVE, MN, 55369",43814858,"L"
316631,"9435 SECOR ROAD","TEMPERANCE","MI",48182,41.786062739,-83.6272557779999,131,"9435 SECOR ROAD, TEMPERANCE, MI, 48182","Match","Exact","9435 SECOR RD, TEMPERANCE, MI, 48182",630046201,"R"
316632,"9435 SW HALL BLVD","TIGARD","OR",97223,45.451901815,-122.770049692,132,"9435 SW HALL BLVD, TIGARD, OR, 97223","Match","Exact","9435 SW HALL BLVD, TIGARD, OR, 97223",158191513,"R"
316633,"9435 THORN GLEN RD","JACKSONVILLE","FL",32208,30.410303533,-81.698685946,133,"9435 THORN GLEN RD, JACKSONVILLE, FL, 32208","Match","Exact","9435 THORN GLEN RD, JACKSONVILLE, FL, 32208",629927530,"L"
316634,"9435 TRIPP AVE","SKOKIE","IL",60076,42.05230364,-87.733563427,134,"9435 TRIPP AVE, SKOKIE, IL, 60076","Match","Exact","9435 TRIPP AVE, SKOKIE, IL, 60076",111739225,"R"
316635,"9435 W WYNCROFT COURT","WICHITA","KS",67205,37.723858464,-97.453031525,135,"9435 W WYNCROFT COURT, WICHITA, KS, 67205","Match","Exact","9435 W WYNCROFT CT, WICHITA, KS, 67205",115669030,"R"
316636,"9435 WATERSTONE BLVD / SUITE 140","CINCINNATI","OH",45249,39.3017639710001,-84.3016599109999,136,"9435 WATERSTONE BLVD / SUITE 140, CINCINNATI, OH, 45249","Match","Exact","9435 WATERSTONE BLVD, CINCINNATI, OH, 45249",650126473,"L"
316637,"9435 WATERSTONE BOULEVARD SUITE 140","CINCINNATI","OH",45249,39.3017639710001,-84.3016599109999,137,"9435 WATERSTONE BOULEVARD SUITE 140, CINCINNATI, OH, 45249","Match","Exact","9435 WATERSTONE BLVD, CINCINNATI, OH, 45249",650126473,"L"
316638,"9435 WHEATLANDS CT","SANTEE","CA",92071,32.847085808,-116.9616541,138,"9435 WHEATLANDS CT, SANTEE, CA, 92071","Match","Exact","9435 WHEATLANDS CT, SANTEE, CA, 92071",195327675,"R"
316639,"9436 AMBER LANE","WEST CHESTER","OH",45069,39.3168565830001,-84.4037459849999,139,"9436 AMBER LANE, WEST CHESTER, OH, 45069","Match","Exact","9436 AMBER LN, WEST CHESTER, OH, 45069",617121960,"R"
316640,"9436 CEDAR GLEN CT","RANCHO CUCAMONGA","CA",91730,34.0818838050001,-117.594867271,140,"9436 CEDAR GLEN CT, RANCHO CUCAMONGA, CA, 91730","Match","Exact","9436 CEDAR GLEN CT, RANCHO CUCAMONGA, CA, 91730",144980063,"L"
316641,"9436 DEW DROP COURT","COLORADO SPRINGS","CO",80925,38.7735304890001,-104.649019113,141,"9436 DEW DROP COURT, COLORADO SPRINGS, CO, 80925","Match","Exact","9436 DEW DROP CT, COLORADO SPRINGS, CO, 80925",105546365,"R"
316642,"9436 MEDFORD FALLS AVE","LAS VEGAS","NV",89149,36.3033619620001,-115.302396638,142,"9436 MEDFORD FALLS AVE, LAS VEGAS, NV, 89149","Match","Exact","9436 MEDFORD FALLS AVE, LAS VEGAS, NV, 89149",632841504,"R"
316643,"9436 STANFIELD CT","STOCKTON","CA",95209,38.034917702,-121.353706176,143,"9436 STANFIELD CT, STOCKTON, CA, 95209","Match","Exact","9436 STANFIELD CT, STOCKTON, CA, 95209",133842317,"R"
316644,"9436 W LOOMIS RD UNIT 5","FRANKLIN","WI",53132,42.895084103,-88.032456845,144,"9436 W LOOMIS RD UNIT 5, FRANKLIN, WI, 53132","Match","Non_Exact","9436 W LOOMIS RD, FRANKLIN, WI, 53132",638370189,"R"
316645,"9437 69TH ST","KENOSHA","WI",53142,42.5722276970001,-87.923096292,145,"9437 69TH ST, KENOSHA, WI, 53142","Match","Exact","9437 69TH ST, KENOSHA, WI, 53142",79810848,"R"
316646,"9437 FEICKERT DRIVE","ELK GROVE","CA",95624,38.416611559,-121.38549034,146,"9437 FEICKERT DRIVE, ELK GROVE, CA, 95624","Match","Exact","9437 FEICKERT DR, ELK GROVE, CA, 95624",133354665,"L"
316647,"9437 US HIGHWAY 12","RANDLE","WA",98377,46.5380077630001,-121.995829541,147,"9437 US HIGHWAY 12, RANDLE, WA, 98377","Match","Exact","9437 US HWY 12, RANDLE, WA, 98377",650015741,"L"
316648,"9438 ALDER DRIVE","KING GEORGE","VA",22485,38.278772427,-77.142774534,148,"9438 ALDER DRIVE, KING GEORGE, VA, 22485","Match","Exact","9438 ALDER DR, KING GEORGE, VA, 22485",651957442,"R"
316649,"9438 CONCORD RD","EATON","OH",45320,39.714475163,-84.8048717839999,149,"9438 CONCORD RD, EATON, OH, 45320","Match","Exact","9438 CONCORD RD, EATON, OH, 45320",54602720,"R"
316650,"9438 E RIVIERA","SCOTTSDALE","AZ",85260,33.5943632710001,-111.878026405,150,"9438 E RIVIERA, SCOTTSDALE, AZ, 85260","Match","Non_Exact","9438 E RIVIERA DR, SCOTTSDALE, AZ, 85260",128189830,"R"
316651,"9438 GARNKIRK CT","SACRAMENTO","CA",95829,38.463480792,-121.345785416,151,"9438 GARNKIRK CT, SACRAMENTO, CA, 95829","Match","Exact","9438 GARNKIRK CT, SACRAMENTO, CA, 95829",133401615,"R"
316652,"9438 MANISTIQUE STREET","DETROIT","MI",48224,42.4089767040001,-82.9623810269999,152,"9438 MANISTIQUE STREET, DETROIT, MI, 48224","Match","Exact","9438 MANISTIQUE ST, DETROIT, MI, 48224",95469496,"R"
316653,"9439 APPLE CT","FENTON","MI",48430,42.7508170840001,-83.7100379029999,153,"9439 APPLE CT, FENTON, MI, 48430","Match","Exact","9439 APPLE CT, FENTON, MI, 48430",23562153,"R"
316654,"9439 COPPER MIST","CONVERSE","TX",78109,29.502356031,-98.2975031939999,154,"9439 COPPER MIST, CONVERSE, TX, 78109","Match","Exact","9439 COPPER MIST, CONVERSE, TX, 78109",619957381,"R"
316655,"9439 E 81ST APT 424","TULSA","OK",74133,NA,NA,155,"9439 E 81ST APT 424, TULSA, OK, 74133","No_Match",NA,NA,NA,NA
316656,"9439 HADWAY DR","INDIANAPOLIS","IN",46256,39.9250713600001,-86.016728385,156,"9439 HADWAY DR, INDIANAPOLIS, IN, 46256","Match","Exact","9439 HADWAY DR, INDIANAPOLIS, IN, 46256",108010903,"L"
316657,"9439 JACLYN AVE","SAUQUOIT","NY",13456,42.9875171470001,-75.261731896,157,"9439 JACLYN AVE, SAUQUOIT, NY, 13456","Match","Exact","9439 JACLYN AVE, SAUQUOIT, NY, 13456",171550343,"R"
316658,"9439 POOLE RD","VILLA RICA","GA",30180,33.7089040540001,-84.8840779019999,158,"9439 POOLE RD, VILLA RICA, GA, 30180","Match","Exact","9439 POOLE RD, VILLA RICA, GA, 30180",647295518,"L"
316659,"9439 TREVINO TERRACE","LAUREL","MD",20708,39.089496281,-76.8421723709999,159,"9439 TREVINO TERRACE, LAUREL, MD, 20708","Match","Exact","9439 TREVINO TER, LAUREL, MD, 20708",76331936,"R"
316660,"9439 WOODLEIGH MILL DR","JACKSONVILLE","FL",32244,30.1902213760001,-81.815391645,160,"9439 WOODLEIGH MILL DR, JACKSONVILLE, FL, 32244","Match","Exact","9439 WOODLEIGH MILL DR, JACKSONVILLE, FL, 32244",614101988,"L"
316661,"944 18TH ST S STE C","BIRMINGHAM","AL",15205,33.501472376,-86.800658587,161,"944 18TH ST S STE C, BIRMINGHAM, AL, 15205","Match","Non_Exact","944 18TH ST S, BIRMINGHAM, AL, 35205",81576483,"R"
316662,"944 18TH ST S","BIRMINGHAM","AL",35205,33.501472376,-86.800658587,162,"944 18TH ST S, BIRMINGHAM, AL, 35205","Match","Exact","944 18TH ST S, BIRMINGHAM, AL, 35205",81576483,"R"
316663,"944 4TH STREET SE","WASHINGTON","DC",20003,38.8788830400001,-77.00057193,163,"944 4TH STREET SE, WASHINGTON, DC, 20003","Match","Exact","944 4TH ST SE, WASHINGTON, DC, 20003",76230630,"L"
316664,"944 4TH STREET","JESUP","IA",50648,42.473685974,-92.0663844159999,164,"944 4TH STREET, JESUP, IA, 50648","Match","Exact","944 4TH ST, JESUP, IA, 50648",101135688,"L"
316665,"944 55TH AVENUE","GRUETLI-LAAGER","TN",37339,35.386270064,-85.606167327,165,"944 55TH AVENUE, GRUETLI-LAAGER, TN, 37339","Match","Exact","944 55TH AVE, GRUETLI LAAGER, TN, 37339",646326330,"R"
316666,"944 ANNA STREET","WEST SACRAMENTO","CA",95605,38.596415517,-121.524362561,166,"944 ANNA STREET, WEST SACRAMENTO, CA, 95605","Match","Exact","944 ANNA ST, WEST SACRAMENTO, CA, 95605",67692854,"R"
316667,"944 APRIL RAIN RD","LAWRENCE","KS",66049,38.967296409,-95.3216628489999,167,"944 APRIL RAIN RD, LAWRENCE, KS, 66049","Match","Exact","944 APRIL RAIN RD, LAWRENCE, KS, 66049",633237186,"R"
316668,"944 AURA CT","LOS ALTOS","CA",94024,37.3569092120001,-122.088902415,168,"944 AURA CT, LOS ALTOS, CA, 94024","Match","Exact","944 AURA CT, LOS ALTOS, CA, 94024",122934536,"R"
316669,"944 BIDWELL AVE","SUNNYVALE","CA",94086,37.3813742830001,-122.043573808,169,"944 BIDWELL AVE, SUNNYVALE, CA, 94086","Match","Exact","944 BIDWELL AVE, SUNNYVALE, CA, 94086",122956558,"L"
316670,"944 CITRUS WOOD CT","LONGWOOD","FM",32750,NA,NA,170,"944 CITRUS WOOD CT, LONGWOOD, FM, 32750","No_Match",NA,NA,NA,NA
316671,"944 COUNTRY CLUB BLVD SUITE 208","CAPE CORAL","FL",33990,26.633222894,-81.953080674,171,"944 COUNTRY CLUB BLVD SUITE 208, CAPE CORAL, FL, 33990","Match","Exact","944 COUNTRY CLUB BLVD, CAPE CORAL, FL, 33990",118100490,"R"
316672,"944 DALE ROAD","MEADOWBROOK","PA",19046,40.1062341790001,-75.093551283,172,"944 DALE ROAD, MEADOWBROOK, PA, 19046","Match","Exact","944 DALE RD, MEADOWBROOK, PA, 19046",135106500,"L"
316673,"944 DELTONA BLVD","DELTONA","FL",32725,28.889081461,-81.275311191,173,"944 DELTONA BLVD, DELTONA, FL, 32725","Match","Exact","944 DELTONA BLVD, DELTONA, FL, 32725",94519108,"L"
316674,"944 E GORHAM ST C/O CHRIST PRES CH","MAIDSON","WI",53703,43.085899129,-89.3759093259999,174,"944 E GORHAM ST C/O CHRIST PRES CH, MAIDSON, WI, 53703","Match","Non_Exact","944 E GORHAM ST, MADISON, WI, 53703",49472175,"L"
316675,"944 E JOHNSON STREET APT A206","PHILADELPHIA","PA",19138,40.054687641,-75.173281258,175,"944 E JOHNSON STREET APT A206, PHILADELPHIA, PA, 19138","Match","Non_Exact","944 E JOHNSON ST, PHILADELPHIA, PA, 19138",131440627,"R"
316676,"944 E PALMETTO ST","LAKELAND","FL",33801,28.03685483,-81.945714907,176,"944 E PALMETTO ST, LAKELAND, FL, 33801","Match","Exact","944 E PALMETTO ST, LAKELAND, FL, 33801",104811556,"L"
316677,"944 E RAINBOW BLVD PMB221","SALIDA","CO",81201,NA,NA,177,"944 E RAINBOW BLVD PMB221, SALIDA, CO, 81201","No_Match",NA,NA,NA,NA
316678,"944 E RITTENHOUSE STREET","PHILADELPHIA","PA",19138,40.048935253,-75.164392678,178,"944 E RITTENHOUSE STREET, PHILADELPHIA, PA, 19138","Match","Exact","944 E RITTENHOUSE ST, PHILADELPHIA, PA, 19138",131395854,"R"
316679,"944 E US 22 AND 3","MORROW","OH",45152,NA,NA,179,"944 E US 22 AND 3, MORROW, OH, 45152","No_Match",NA,NA,NA,NA
316680,"944 EAST GORHAM STREET","MADISON","WI",53703,43.085893916,-89.375916181,180,"944 EAST GORHAM STREET, MADISON, WI, 53703","Match","Exact","944 E GORHAM ST, MADISON, WI, 53703",49472175,"L"
316681,"944 EVERGREEN ST SE","GRAND RAPIDS","MI",49507,42.936330411,-85.645298139,181,"944 EVERGREEN ST SE, GRAND RAPIDS, MI, 49507","Match","Exact","944 EVERGREEN ST SE, GRAND RAPIDS, MI, 49507",12461769,"R"
316682,"944 FLORIDA STREET","MEMPHIS","TN",38106,35.121449603,-90.062047601,182,"944 FLORIDA STREET, MEMPHIS, TN, 38106","Match","Exact","944 FLORIDA ST, MEMPHIS, TN, 38106",72905797,"L"
316683,"944 FM 71","COMMERCE","TX",75428,33.2575155960001,-95.895427371,183,"944 FM 71, COMMERCE, TX, 75428","Match","Exact","944 FM 71, COMMERCE, TX, 75428",42827042,"L"
316684,"944 GARFIELD STREET","EMPORIA","KS",66801,38.4094987190001,-96.2001613309999,184,"944 GARFIELD STREET, EMPORIA, KS, 66801","Match","Exact","944 GARFIELD ST, EMPORIA, KS, 66801",10958021,"R"
316685,"944 GARROD DR","DAVIS","CA",95616,NA,NA,185,"944 GARROD DR, DAVIS, CA, 95616","No_Match",NA,NA,NA,NA
316686,"944 GREEN AVENUE","MANSON","WA",98831,47.887299882,-120.146543706,186,"944 GREEN AVENUE, MANSON, WA, 98831","Match","Exact","944 GREEN AVE, MANSON, WA, 98831",156961243,"R"
316687,"944 HERMANN RD","NORTH BRUNSWICK","NJ",8902,40.469628701,-74.467041502,187,"944 HERMANN RD, NORTH BRUNSWICK, NJ, 8902","Match","Exact","944 HERMANN RD, N BRUNSWICK, NJ, 08902",60360835,"L"
316688,"944 HILDEBRAND CIR","FOLSOM","CA",95630,38.6710223370001,-121.097064156,188,"944 HILDEBRAND CIR, FOLSOM, CA, 95630","Match","Exact","944 HILDEBRAND CIR, FOLSOM, CA, 95630",640845946,"R"
316689,"944 KEYS DRIVE","BOULDER CITY","NV",89005,36.004122749,-114.827027526,189,"944 KEYS DRIVE, BOULDER CITY, NV, 89005","Match","Exact","944 KEYS DR, BOULDER CITY, NV, 89005",201991104,"L"
316690,"944 LARPENTEUR AVE W","ST PAUL","MN",55113,44.9919176550001,-93.140050193,190,"944 LARPENTEUR AVE W, ST PAUL, MN, 55113","Match","Exact","944 LARPENTEUR AVE W, SAINT PAUL, MN, 55113",97641879,"L"
316691,"944 LOST GROVE CIRCLE","WINTER GARDEN","FL",34787,28.533356085,-81.582032511,191,"944 LOST GROVE CIRCLE, WINTER GARDEN, FL, 34787","Match","Exact","944 LOST GROVE CIR, WINTER GARDEN, FL, 34787",647487360,"L"
316692,"944 LYNN STREET","CHARLOTTE","NC",28208,35.2555171610001,-80.896609787,192,"944 LYNN STREET, CHARLOTTE, NC, 28208","Match","Exact","944 LYNN ST, CHARLOTTE, NC, 28208",647241579,"R"
316693,"944 MADISON AVENUE","RAHWAY","NJ",7065,40.6093875890001,-74.2933248049999,193,"944 MADISON AVENUE, RAHWAY, NJ, 7065","Match","Exact","944 MADISON AVE, RAHWAY, NJ, 07065",60602530,"L"
316694,"944 MORSE STREET","ALTAMONTE SPRINGS","FL",32701,28.6662490160001,-81.353726216,194,"944 MORSE STREET, ALTAMONTE SPRINGS, FL, 32701","Match","Exact","944 MORSE ST, ALTAMONTE SPRINGS, FL, 32701",93743273,"R"
316695,"944 N SIERRA BONITA AVE","WEST HOLLYWOOD","CA",90046,34.0878810620001,-118.354257842,195,"944 N SIERRA BONITA AVE, WEST HOLLYWOOD, CA, 90046","Match","Exact","944 N SIERRA BONITA AVE, W HOLLYWOOD, CA, 90046",142728506,"R"
316696,"944 NORTH HILL ROAD","BALTIMORE","MD",21218,39.3378346380001,-76.6009181209999,196,"944 NORTH HILL ROAD, BALTIMORE, MD, 21218","Match","Exact","944 N HILL RD, BALTIMORE, MD, 21218",206441866,"L"
316697,"944 OAKWOOD DR","WESTMONT","IL",60559,41.818432983,-87.964152067,197,"944 OAKWOOD DR, WESTMONT, IL, 60559","Match","Exact","944 OAKWOOD DR, WESTMONT, IL, 60559",651301471,"R"
316698,"944 OLD PUBLIC ROAD","HOCKESSIN","DE",19707,39.7947538340001,-75.6881608049999,198,"944 OLD PUBLIC ROAD, HOCKESSIN, DE, 19707","Match","Exact","944 OLD PUBLIC RD, HOCKESSIN, DE, 19707",606270595,"R"
316699,"944 PARK AVENUE","RACINE","WI",53403,42.7222913190001,-87.785981063,199,"944 PARK AVENUE, RACINE, WI, 53403","Match","Exact","944 PARK AVE, RACINE, WI, 53403",77910998,"R"
316700,"944 PHOENIX AVENUE","PEEKSKILL","NY",10566,41.297214432,-73.9207388259999,200,"944 PHOENIX AVENUE, PEEKSKILL, NY, 10566","Match","Exact","944 PHOENIX AVE, PEEKSKILL, NY, 10566",139723756,"L"
316701,"944 PORTABELLA LANE","CHARLESTON","SC",29412,32.726155471,-79.9298723429999,201,"944 PORTABELLA LANE, CHARLESTON, SC, 29412","Match","Exact","944 PORTABELLA LN, CHARLESTON, SC, 29412",108884123,"R"
316702,"944 PROVIDENCE RD","NEWTOWN SQUARE","PA",19073,39.987249331,-75.4653979839999,202,"944 PROVIDENCE RD, NEWTOWN SQUARE, PA, 19073","Match","Exact","944 PROVIDENCE RD, NEWTOWN SQUARE, PA, 19073",179500044,"L"
316703,"944 PROVIDENCE ROAD","NEWTOWN SQUARE","PA",19073,39.987249331,-75.4653979839999,203,"944 PROVIDENCE ROAD, NEWTOWN SQUARE, PA, 19073","Match","Exact","944 PROVIDENCE RD, NEWTOWN SQUARE, PA, 19073",179500044,"L"
316704,"944 RALPH DAVID ABERNATHY BLVD","ATLANTA","GA",30310,33.737965634,-84.418647929,204,"944 RALPH DAVID ABERNATHY BLVD, ATLANTA, GA, 30310","Match","Non_Exact","944 RALPH DAVID ABERNATHY BLVD SW, ATLANTA, GA, 30310",17345052,"L"
316705,"944 RANGE RD","YORK","PA",17406,40.02051522,-76.65406997,205,"944 RANGE RD, YORK, PA, 17406","Match","Exact","944 RANGE RD, YORK, PA, 17406",88769674,"R"
316706,"944 RINGGOLD CHURCH ROAD","RINGGOLD","VA",24586,36.648315111,-79.304928,206,"944 RINGGOLD CHURCH ROAD, RINGGOLD, VA, 24586","Match","Exact","944 RINGGOLD CHURCH RD, RINGGOLD, VA, 24586",56627116,"L"
316707,"944 ROBERTS BLVD","DELTONA","FL",32725,28.8982447700001,-81.250545679,207,"944 ROBERTS BLVD, DELTONA, FL, 32725","Match","Exact","944 ROBERTS BLVD, DELTONA, FL, 32725",94519489,"L"
316708,"944 S LAMAR STREET","DALLAS","TX",75202,32.7705318050001,-96.7994775289999,208,"944 S LAMAR STREET, DALLAS, TX, 75202","Match","Exact","944 S LAMAR ST, DALLAS, TX, 75202",103196830,"L"
316709,"944 SE CENTRAL PARKWAY","STUART","FL",34994,27.179775496,-80.240769987,209,"944 SE CENTRAL PARKWAY, STUART, FL, 34994","Match","Exact","944 SE CENTRAL PKWY, STUART, FL, 34994",646890565,"R"
316710,"944 SOUTH STADIUM ROAD","COLUMBIA","SC",29208,33.9725012210001,-81.022232539,210,"944 SOUTH STADIUM ROAD, COLUMBIA, SC, 29208","Match","Non_Exact","944 S STADIUM RD, COLUMBIA, SC, 29201",635780575,"R"
316711,"944 SUNSET CIRCLE","ROAMING SHORES","OH",44085,41.6114844430001,-80.822745437,211,"944 SUNSET CIRCLE, ROAMING SHORES, OH, 44085","Match","Exact","944 SUNSET CIR, ROAMING SHORES, OH, 44085",117321193,"L"
316712,"944 TIM CURRIN RD","LILLINGTON","NC",27546,35.3669577640001,-78.917262508,212,"944 TIM CURRIN RD, LILLINGTON, NC, 27546","Match","Exact","944 TIM CURRIN RD, LILLINGTON, NC, 27546",71959496,"R"
316713,"944 TIVERTON AVE SUITE 22","LOS ANGELES","CA",90024,34.0623443590001,-118.442758402,213,"944 TIVERTON AVE SUITE 22, LOS ANGELES, CA, 90024","Match","Exact","944 TIVERTON AVE, LOS ANGELES, CA, 90024",638094882,"L"
316714,"944 W 71ST","CHICAGO","IL",60621,41.7651508380001,-87.6483671559999,214,"944 W 71ST, CHICAGO, IL, 60621","Match","Non_Exact","944 W 71ST ST, CHICAGO, IL, 60621",111830929,"R"
316715,"944 W DOTY AVE","SUMMERVILLE","SC",29483,33.0285043740001,-80.190442036,215,"944 W DOTY AVE, SUMMERVILLE, SC, 29483","Match","Exact","944 W DOTY AVE, SUMMERVILLE, SC, 29483",178484399,"R"
316716,"944 W FARM ROAD 178","SPRINGIELD","MO",65810,37.123627303,-93.305710432,216,"944 W FARM ROAD 178, SPRINGIELD, MO, 65810","Match","Non_Exact","944 W FARM RD 178, SPRINGFIELD, MO, 65810",651306068,"L"
316717,"944 W PLEASANT RUN RD","LANCASTER","TX",75146,32.605063273,-96.775527561,217,"944 W PLEASANT RUN RD, LANCASTER, TX, 75146","Match","Exact","944 W PLEASANT RUN RD, LANCASTER, TX, 75146",103215465,"L"
316718,"944 WASHINGTON STREET","WENATCHEE","WA",98801,47.4225145510001,-120.323859138,218,"944 WASHINGTON STREET, WENATCHEE, WA, 98801","Match","Exact","944 WASHINGTON ST, WENATCHEE, WA, 98801",156974013,"L"
316719,"944 WASHINGTON","FORREST CITY","AR",72335,NA,NA,219,"944 WASHINGTON, FORREST CITY, AR, 72335","No_Match",NA,NA,NA,NA
316720,"944 WEST 35TH PLACE","CHICAGO","IL",60609,41.8296761600001,-87.6494486409999,220,"944 WEST 35TH PLACE, CHICAGO, IL, 60609","Match","Exact","944 W 35TH PL, CHICAGO, IL, 60609",605494883,"R"
316721,"9440 BENCHVIEW DRIVE","INDIANAPOLIS","IN",46240,39.924651155,-86.136640824,221,"9440 BENCHVIEW DRIVE, INDIANAPOLIS, IN, 46240","Match","Exact","9440 BENCHVIEW DR, INDIANAPOLIS, IN, 46240",650120344,"R"
316722,"9440 HWY 76 SOUTH","SOMERVILLE","TN",38068,NA,NA,222,"9440 HWY 76 SOUTH, SOMERVILLE, TN, 38068","No_Match",NA,NA,NA,NA
316723,"9440 LONDON BRIDGE STA","HOUSTON","TX",77045,29.6659862060001,-95.401765666,223,"9440 LONDON BRIDGE STA, HOUSTON, TX, 77045","Match","Exact","9440 LONDON BRIDGE STATION, HOUSTON, TX, 77045",645146770,"R"
316724,"9440 STRATTON DRIVE - APT 16321","FRISCO","TX",75035,33.206883765,-96.801164989,224,"9440 STRATTON DRIVE - APT 16321, FRISCO, TX, 75035","Match","Exact","9440 STRATTON DR, FRISCO, TX, 75035",649108550,"R"
316725,"9440 VALLE VISTA ST","WINDSOR","CA",95492,38.559307516,-122.793928922,225,"9440 VALLE VISTA ST, WINDSOR, CA, 95492","Match","Exact","9440 VALLE VISTA ST, WINDSOR, CA, 95492",67519521,"R"
316726,"9441 BURNETTE AVENUE","DETROIT","MI",48204,42.3656734690001,-83.142017005,226,"9441 BURNETTE AVENUE, DETROIT, MI, 48204","Match","Exact","9441 BURNETTE AVE, DETROIT, MI, 48204",95470803,"L"
316727,"9441 GEORGIAN WAY","OWINGS MILLS","MD",21117,39.394193699,-76.804777405,227,"9441 GEORGIAN WAY, OWINGS MILLS, MD, 21117","Match","Exact","9441 GEORGIAN WAY, OWINGS MILLS, MD, 21117",191501341,"L"
316728,"9441 SW 20TH STREET","MIRAMAR","FL",33025,NA,NA,228,"9441 SW 20TH STREET, MIRAMAR, FL, 33025","No_Match",NA,NA,NA,NA
316729,"9442 KEOKI CIRCLE","HUNTINGTON BEACH","CA",92646,33.6493406550001,-117.963011368,229,"9442 KEOKI CIRCLE, HUNTINGTON BEACH, CA, 92646","Match","Exact","9442 KEOKI CIR, HUNTINGTON BEACH, CA, 92646",144045252,"R"
316730,"9442 RIGGS ROAD","HYATTSVILLE","MD",20783,39.0080891150001,-76.966105679,230,"9442 RIGGS ROAD, HYATTSVILLE, MD, 20783","Match","Exact","9442 RIGGS RD, HYATTSVILLE, MD, 20783",76324586,"L"
316731,"9442 S EMERALD AVE","CHICAGO","IL",60620,41.722690007,-87.642037236,231,"9442 S EMERALD AVE, CHICAGO, IL, 60620","Match","Exact","9442 S EMERALD AVE, CHICAGO, IL, 60620",605522568,"R"
316732,"9442 SYLMAR AVENUE APT 18","PANORAMA","CA",91402,34.241901591,-118.448022431,232,"9442 SYLMAR AVENUE APT 18, PANORAMA, CA, 91402","Match","Non_Exact","9442 SYLMAR AVE, PANORAMA CITY, CA, 91402",648859683,"R"
316733,"9442 TIKI CIRCLE","HUNTINGTON BEACH","CA",92646,33.6414206540001,-117.963137928,233,"9442 TIKI CIRCLE, HUNTINGTON BEACH, CA, 92646","Match","Exact","9442 TIKI CIR, HUNTINGTON BEACH, CA, 92646",144045339,"R"
316734,"9443 44TH AVE SUITE 2","ELMHURST","NY",11373,NA,NA,234,"9443 44TH AVE SUITE 2, ELMHURST, NY, 11373","No_Match",NA,NA,NA,NA
316735,"9443 CR 735","WEBSTER","FL",33597,28.6191280780001,-82.067172489,235,"9443 CR 735, WEBSTER, FL, 33597","Match","Exact","9443 CO RD 735, WEBSTER, FL, 33597",86497396,"R"
316736,"9443 FLOWERDEN LANE","MANASSAS","VA",20110,38.737971653,-77.488123339,236,"9443 FLOWERDEN LANE, MANASSAS, VA, 20110","Match","Exact","9443 FLOWERDEN LN, MANASSAS, VA, 20110",76534630,"L"
316737,"9443 MONARDA CT","CHARLOTTE","NC",28216,35.3442786960001,-80.861917687,237,"9443 MONARDA CT, CHARLOTTE, NC, 28216","Match","Exact","9443 MONARDA CT, CHARLOTTE, NC, 28216",70534771,"L"
316738,"9443 SAPPHIRE CREEK LN","ROSHARON","TX",77583,29.4447012960001,-95.446846513,238,"9443 SAPPHIRE CREEK LN, ROSHARON, TX, 77583","Match","Exact","9443 SAPPHIRE CREEK LN, ROSHARON, TX, 77583",641856466,"R"
316739,"9443 WOODED GLEN AVE","BURKE","VA",22015,38.7737522510001,-77.2712806339999,239,"9443 WOODED GLEN AVE, BURKE, VA, 22015","Match","Exact","9443 WOODED GLEN AVE, BURKE, VA, 22015",76056251,"R"
316740,"9444 ENGLISH OAK DRIVE","INDIANAPOLIS","IN",46222,39.8386995160001,-86.001773994,240,"9444 ENGLISH OAK DRIVE, INDIANAPOLIS, IN, 46222","Match","Non_Exact","9444 ENGLISH OAK DR, INDIANAPOLIS, IN, 46235",646828199,"L"
316741,"9444 FM 314","BEN WHEELER","TX",75754,32.3767276410001,-95.605666829,241,"9444 FM 314, BEN WHEELER, TX, 75754","Match","Exact","9444 FM 314, BEN WHEELER, TX, 75754",42929018,"L"
316742,"9444 KOSTNER","SKOKIE","IL",60076,42.0524566880001,-87.737200682,242,"9444 KOSTNER, SKOKIE, IL, 60076","Match","Non_Exact","9444 KOSTNER AVE, SKOKIE, IL, 60076",111739206,"L"
316743,"9444 TAHOE DR","CENTERVILLE","OH",45458,39.6152988270001,-84.207697297,243,"9444 TAHOE DR, CENTERVILLE, OH, 45458","Match","Exact","9444 TAHOE DR, CENTERVILLE, OH, 45458",627648098,"L"
316744,"9444 W ALLERTON AVE","MILWAUKEE","WI",53228,42.962410467,-88.029569134,244,"9444 W ALLERTON AVE, MILWAUKEE, WI, 53228","Match","Exact","9444 W ALLERTON AVE, MILWAUKEE, WI, 53228",77761910,"L"
316745,"9445 INDIANAPOLIS BLVD - 1051","HIGHLAND","IN",46322,41.5420887710001,-87.4712498929999,245,"9445 INDIANAPOLIS BLVD - 1051, HIGHLAND, IN, 46322","Match","Exact","9445 INDIANAPOLIS BLVD, HIGHLAND, IN, 46322",639417789,"L"
316746,"9445 INDIANAPOLIS BLVD NUM 1059","HIGHLAND","IN",46322,41.5420887710001,-87.4712498929999,246,"9445 INDIANAPOLIS BLVD NUM 1059, HIGHLAND, IN, 46322","Match","Exact","9445 INDIANAPOLIS BLVD, HIGHLAND, IN, 46322",639417789,"L"
316747,"9445 INDIANAPOLIS BLVD STE 164","HIGHLAND","IN",46322,41.5420887710001,-87.4712498929999,247,"9445 INDIANAPOLIS BLVD STE 164, HIGHLAND, IN, 46322","Match","Exact","9445 INDIANAPOLIS BLVD, HIGHLAND, IN, 46322",639417789,"L"
316748,"9445 INDIANAPOLIS BLVD SUITE A-158","HIGHLAND","IN",46322,41.5420887710001,-87.4712498929999,248,"9445 INDIANAPOLIS BLVD SUITE A-158, HIGHLAND, IN, 46322","Match","Exact","9445 INDIANAPOLIS BLVD, HIGHLAND, IN, 46322",639417789,"L"
316749,"9445 INDIANAPOLIS BOULEVARD 1017","HIGHLAND","IN",46322,41.5420887710001,-87.4712498929999,249,"9445 INDIANAPOLIS BOULEVARD 1017, HIGHLAND, IN, 46322","Match","Exact","9445 INDIANAPOLIS BLVD, HIGHLAND, IN, 46322",639417789,"L"
316750,"9445 S 183RD AVE","GOODYEAR","AZ",85338,33.3602238460001,-112.443316685,250,"9445 S 183RD AVE, GOODYEAR, AZ, 85338","Match","Exact","9445 S 183RD AVE, GOODYEAR, AZ, 85338",243950270,"L"
316751,"9445 TILEYARD ROAD","WATERFORD","PA",16441,41.999295767,-80.082645036,251,"9445 TILEYARD ROAD, WATERFORD, PA, 16441","Match","Exact","9445 TILEYARD RD, WATERFORD, PA, 16441",117535511,"R"
316752,"94458 MARCOLA RD","MARCOLA","OR",97454,44.2364969770001,-122.809317699,252,"94458 MARCOLA RD, MARCOLA, OR, 97454","Match","Exact","94458 MARCOLA RD, MARCOLA, OR, 97454",649944535,"L"
316753,"9446 GREENSBORO ST","DETROIT","MI",48224,42.409253651,-82.957010602,253,"9446 GREENSBORO ST, DETROIT, MI, 48224","Match","Exact","9446 GREENSBORO ST, DETROIT, MI, 48224",95469521,"R"
316754,"9446 LEYTON DRIVE","HARRISBURG","NC",28075,35.286775291,-80.640343945,254,"9446 LEYTON DRIVE, HARRISBURG, NC, 28075","Match","Exact","9446 LEYTON DR, HARRISBURG, NC, 28075",624741470,"R"
316755,"9446 RALPH ST","ROSEMEAD","CA",91770,34.077950306,-118.062894783,255,"9446 RALPH ST, ROSEMEAD, CA, 91770","Match","Exact","9446 RALPH ST, ROSEMEAD, CA, 91770",142744721,"R"
316756,"9447 E LAS TUNAS DR","TEMPLE CITY","CA",91780,34.1061197540001,-118.064956288,256,"9447 E LAS TUNAS DR, TEMPLE CITY, CA, 91780","Match","Exact","9447 LAS TUNAS DR, TEMPLE CITY, CA, 91780",141644586,"L"
316757,"9447 PINE LILLY COURT","NAVARRE","FL",32566,30.4166573750001,-86.8266026219999,257,"9447 PINE LILLY COURT, NAVARRE, FL, 32566","Match","Exact","9447 PINE LILLY CT, NAVARRE, FL, 32566",74587972,"R"
316758,"9447 WASCO AVE","HESPERIA","CA",92345,34.42292588,-117.243305646,258,"9447 WASCO AVE, HESPERIA, CA, 92345","Match","Exact","9447 WASCO AVE, HESPERIA, CA, 92345",144594093,"R"
316759,"9448 CARTERSVILLE CT","RALEIGH","NC",27617,35.9129483030001,-78.739509426,259,"9448 CARTERSVILLE CT, RALEIGH, NC, 27617","Match","Exact","9448 CARTERSVILLE CT, RALEIGH, NC, 27617",72604064,"L"
316760,"9448 CASTLEWOOD DRIVE6","FORT WORTH","TX",76131,32.906127027,-97.366929276,260,"9448 CASTLEWOOD DRIVE6, FORT WORTH, TX, 76131","Match","Non_Exact","9448 CASTLEWOOD DR, FORT WORTH, TX, 76131",619869294,"R"
316761,"9448 LAWRENCE CT UNIT 2A","SCHILLER PARK","IL",60176,41.96534827,-87.864143352,261,"9448 LAWRENCE CT UNIT 2A, SCHILLER PARK, IL, 60176","Match","Exact","9448 LAWRENCE CT, SCHILLER PARK, IL, 60176",111725336,"R"
316762,"9448 S 1210 E","SANDY","UT",84094,40.579997307,-111.85606061,262,"9448 S 1210 E, SANDY, UT, 84094","Match","Exact","9448 S 1210 E, SANDY, UT, 84094",176112405,"R"
316763,"9449 BALBOA AVE SUITE 105","SAN DIEGO","CA",92123,32.8223225730001,-117.12618781,263,"9449 BALBOA AVE SUITE 105, SAN DIEGO, CA, 92123","Match","Exact","9449 BALBOA AVE, SAN DIEGO, CA, 92123",195320625,"R"
316764,"9449 BRIARFOREST NO 707","HOUST","TX",77063,NA,NA,264,"9449 BRIARFOREST NO 707, HOUST, TX, 77063","No_Match",NA,NA,NA,NA
316765,"9449 CENTRAL PARK AVENUE","EVANSTON","IL",60203,42.053101622,-87.717854473,265,"9449 CENTRAL PARK AVENUE, EVANSTON, IL, 60203","Match","Exact","9449 CENTRAL PARK AVE, EVANSTON, IL, 60203",111740298,"R"
316766,"9449 CHURCH RD","DALLAS","TX",75238,32.886233438,-96.726714358,266,"9449 CHURCH RD, DALLAS, TX, 75238","Match","Exact","9449 CHURCH RD, DALLAS, TX, 75238",102915171,"L"
316767,"9449 COMPTON STREET","INDIANAPOLIS","IN",46240,39.92516434,-86.13464535,267,"9449 COMPTON STREET, INDIANAPOLIS, IN, 46240","Match","Exact","9449 COMPTON ST, INDIANAPOLIS, IN, 46240",107983169,"R"
316768,"9449 DUNES LN","COTTAGE GROVE","MN",55016,44.810656855,-92.972126631,268,"9449 DUNES LN, COTTAGE GROVE, MN, 55016","Match","Exact","9449 DUNES LN, COTTAGE GROVE, MN, 55016",631790352,"R"
316769,"9449 LARK SPARROW DRIVE","HIGHLANDS RANCH","CO",80126,39.5456029590001,-104.934200513,269,"9449 LARK SPARROW DRIVE, HIGHLANDS RANCH, CO, 80126","Match","Non_Exact","9449 S LARK SPARROW DR, HIGHLANDS RANCH, CO, 80126",130851430,"L"
316770,"9449 PRIORITY WAY W DRIVE STE 110","INDIANAPOLIS","IN",46240,39.924256755,-86.106750673,270,"9449 PRIORITY WAY W DRIVE STE 110, INDIANAPOLIS, IN, 46240","Match","Exact","9449 PRIORITY WAY WEST DR, INDIANAPOLIS, IN, 46240",107994523,"L"
316771,"9449 S  KEDZIE  571","EVERGREEN PARK","IL",60805,NA,NA,271,"9449 S  KEDZIE  571, EVERGREEN PARK, IL, 60805","No_Match",NA,NA,NA,NA
316772,"9449 S KEDZIE  UNIT 407","EVERGREEN PARK","IL",60805,NA,NA,272,"9449 S KEDZIE  UNIT 407, EVERGREEN PARK, IL, 60805","No_Match",NA,NA,NA,NA
316773,"9449 S KEDZIE AVE  NUM 301","EVERGREEN PARK","IL",60805,41.7218825830001,-87.7018722449999,273,"9449 S KEDZIE AVE  NUM 301, EVERGREEN PARK, IL, 60805","Match","Non_Exact","9449 S KEDZIE AVE, EVERGREEN PARK, IL, 60805",605476558,"L"
316774,"9449 S KEDZIE AVE 125","EVERGREEN PARK","IL",60805,41.7218825830001,-87.7018722449999,274,"9449 S KEDZIE AVE 125, EVERGREEN PARK, IL, 60805","Match","Non_Exact","9449 S KEDZIE AVE, EVERGREEN PARK, IL, 60805",605476558,"L"
316775,"9449 S KEDZIE AVE 329","EVERGREEN PARK","IL",60805,41.7218825830001,-87.7018722449999,275,"9449 S KEDZIE AVE 329, EVERGREEN PARK, IL, 60805","Match","Non_Exact","9449 S KEDZIE AVE, EVERGREEN PARK, IL, 60805",605476558,"L"
316776,"9449 S KEDZIE AVE STE 511","EVERGREEN PARK","IL",60805,41.7218825830001,-87.7018722449999,276,"9449 S KEDZIE AVE STE 511, EVERGREEN PARK, IL, 60805","Match","Non_Exact","9449 S KEDZIE AVE, EVERGREEN PARK, IL, 60805",605476558,"L"
316777,"9449 S KEDZIE AVE SUITE 342","EVERGREEN PARK","IL",60805,41.7218825830001,-87.7018722449999,277,"9449 S KEDZIE AVE SUITE 342, EVERGREEN PARK, IL, 60805","Match","Non_Exact","9449 S KEDZIE AVE, EVERGREEN PARK, IL, 60805",605476558,"L"
316778,"9449 S KEDZIE PO BOX 178","EVERGREEN PARK","IL",60805,NA,NA,278,"9449 S KEDZIE PO BOX 178, EVERGREEN PARK, IL, 60805","No_Match",NA,NA,NA,NA
316779,"9449 S KEDZIE SUITE 109","EVERGREEN PARK","IL",60805,NA,NA,279,"9449 S KEDZIE SUITE 109, EVERGREEN PARK, IL, 60805","No_Match",NA,NA,NA,NA
316780,"9449 S KEDZIE SUITE-110","CHICAGO","IL",60805,NA,NA,280,"9449 S KEDZIE SUITE-110, CHICAGO, IL, 60805","No_Match",NA,NA,NA,NA
316781,"9449 S KEDZIE","EVERGREEN PARK","IL",60805,41.7218825830001,-87.7018722449999,281,"9449 S KEDZIE, EVERGREEN PARK, IL, 60805","Match","Non_Exact","9449 S KEDZIE AVE, EVERGREEN PARK, IL, 60805",605476558,"L"
316782,"9449 S KEDZIE","EVERGREEN PK","IL",60805,41.7218825830001,-87.7018722449999,282,"9449 S KEDZIE, EVERGREEN PK, IL, 60805","Match","Non_Exact","9449 S KEDZIE AVE, EVERGREEN PARK, IL, 60805",605476558,"L"
316783,"9449 SOUTH KEDZIE AVE SUITE 588","EVERGREEN PARK","IL",60805,41.7218941240001,-87.701872773,283,"9449 SOUTH KEDZIE AVE SUITE 588, EVERGREEN PARK, IL, 60805","Match","Exact","9449 S KEDZIE AVE, EVERGREEN PARK, IL, 60805",605476558,"L"
316784,"9449 SOUTH KEDZIE AVENUE STE 567","EVERGREEN PARK","IL",60805,41.7218941240001,-87.701872773,284,"9449 SOUTH KEDZIE AVENUE STE 567, EVERGREEN PARK, IL, 60805","Match","Exact","9449 S KEDZIE AVE, EVERGREEN PARK, IL, 60805",605476558,"L"
316785,"9449 SOUTH KEDZIE AVENUE-SUITE 433","EVERGREEN PARK","IL",60805,41.7218941240001,-87.701872773,285,"9449 SOUTH KEDZIE AVENUE-SUITE 433, EVERGREEN PARK, IL, 60805","Match","Non_Exact","9449 S KEDZIE AVE, EVERGREEN PARK, IL, 60805",605476558,"L"
316786,"9449 SW 51ST STREET","COOPER CITY","FL",33328,26.0565786720001,-80.27803478,286,"9449 SW 51ST STREET, COOPER CITY, FL, 33328","Match","Exact","9449 SW 51ST ST, COOPER CITY, FL, 33328",114711673,"R"
316787,"945 7TH AVE W","WEST FARGO","ND",58078,46.8692402620001,-96.916115409,287,"945 7TH AVE W, WEST FARGO, ND, 58078","Match","Exact","945 7TH AVE W, WEST FARGO, ND, 58078",151444976,"L"
316788,"945 APPLEGROVE CIR","CLARKSVILLE","TN",37040,36.5886339360001,-87.335870717,288,"945 APPLEGROVE CIR, CLARKSVILLE, TN, 37040","Match","Exact","945 APPLEGROVE CIR, CLARKSVILLE, TN, 37040",633600796,"R"
316789,"945 B NORTH TEMPLE AVE","STARKE","FL",32091,29.9539704430001,-82.108029877,289,"945 B NORTH TEMPLE AVE, STARKE, FL, 32091","Match","Exact","945 N TEMPLE AVE, STARKE, FL, 32091",606626492,"L"
316790,"945 BENSON STREET SE","ATLANTA","GA",30316,33.7411988530001,-84.356727194,290,"945 BENSON STREET SE, ATLANTA, GA, 30316","Match","Non_Exact","945 BENSON ST, ATLANTA, GA, 30316",618349954,"R"
316791,"945 CENTRAL AVE","GRANT","NE",69140,NA,NA,291,"945 CENTRAL AVE, GRANT, NE, 69140","No_Match",NA,NA,NA,NA
316792,"945 CHAMPIONS FAIRWAY DR","MILTON","GA",30004,34.147828566,-84.2685339349999,292,"945 CHAMPIONS FAIRWAY DR, MILTON, GA, 30004","Match","Exact","945 CHAMPIONS FAIRWAY DR, MILTON, GA, 30004",17384877,"R"
316793,"945 CHULA VISTA AVE","BURLINGAME","CA",94010,37.5845296890001,-122.358540027,293,"945 CHULA VISTA AVE, BURLINGAME, CA, 94010","Match","Exact","945 CHULA VISTA AVE, BURLINGAME, CA, 94010",192376332,"L"
316794,"945 CONCORD STREET","FRAMINGHAM","MA",1701,42.302012184,-71.405839402,294,"945 CONCORD STREET, FRAMINGHAM, MA, 1701","Match","Exact","945 CONCORD ST, FRAMINGHAM, MA, 01701",87102171,"R"
316795,"945 CRESTMARK BLVD SUITE 626","LITHIA SPRINGS","GA",30122,33.781951559,-84.613271152,295,"945 CRESTMARK BLVD SUITE 626, LITHIA SPRINGS, GA, 30122","Match","Exact","945 CRESTMARK BLVD, LITHIA SPGS, GA, 30122",16660867,"L"
316796,"945 DE-MOTT AVENUE","BALDWIN","NY",11510,NA,NA,296,"945 DE-MOTT AVENUE, BALDWIN, NY, 11510","No_Match",NA,NA,NA,NA
316797,"945 E 116TH STREET","LOS ANGELES","CA",90059,33.9291622690001,-118.258028681,297,"945 E 116TH STREET, LOS ANGELES, CA, 90059","Match","Exact","945 E 116TH ST, LOS ANGELES, CA, 90059",141673417,"L"
316798,"945 E 53RD ST","BROOKLYN","NY",11234,40.635866723,-73.925749717,298,"945 E 53RD ST, BROOKLYN, NY, 11234","Match","Exact","945 E 53RD ST, BROOKLYN, NY, 11234",59086053,"L"
316799,"945 E BUCKINGHAM WAY","FRESNO","CA",93704,36.7931039360001,-119.79892615,299,"945 E BUCKINGHAM WAY, FRESNO, CA, 93704","Match","Exact","945 E BUCKINGHAM WAY, FRESNO, CA, 93704",197612217,"L"
316800,"945 ESTES","LORENA","TX",76655,31.374286586,-97.256704783,300,"945 ESTES, LORENA, TX, 76655","Match","Non_Exact","945 ESTES RD, LORENA, TX, 76655",146764334,"R"
316801,"945 ETTA PLACE","GASTONIA","NC",28054,35.2784429370001,-81.170104569,301,"945 ETTA PLACE, GASTONIA, NC, 28054","Match","Exact","945 ETTA PL, GASTONIA, NC, 28054",617956754,"R"
316802,"945 FRANCIS AVENUE","BEXLEY","OH",43209,39.9495959320001,-82.935494352,302,"945 FRANCIS AVENUE, BEXLEY, OH, 43209","Match","Exact","945 FRANCIS AVE, BEXLEY, OH, 43209",135598411,"R"
316803,"945 FRANCIS AVENUE","SCHENECTADY","NY",12303,42.800286699,-73.946971977,303,"945 FRANCIS AVENUE, SCHENECTADY, NY, 12303","Match","Exact","945 FRANCIS AVE, SCHENECTADY, NY, 12303",18027700,"R"
316804,"945 FRANCIS ROAD","KNOXVILLE","TN",37909,35.9419469850001,-84.037196815,304,"945 FRANCIS ROAD, KNOXVILLE, TN, 37909","Match","Non_Exact","945 FRANCIS RD NW, KNOXVILLE, TN, 37909",640165435,"L"
316805,"945 FRANKLIN AVE","COLUMBUS","OH",43205,39.961939124,-82.9748070369999,305,"945 FRANKLIN AVE, COLUMBUS, OH, 43205","Match","Exact","945 FRANKLIN AVE, COLUMBUS, OH, 43205",135579681,"R"
316806,"945 GABLE STREET","CHINO VALLEY","AZ",86323,NA,NA,306,"945 GABLE STREET, CHINO VALLEY, AZ, 86323","No_Match",NA,NA,NA,NA
316807,"945 GAYLEY AVENUE 304","LOS ANGELES","CA",90024,34.0624524730001,-118.448178065,307,"945 GAYLEY AVENUE 304, LOS ANGELES, CA, 90024","Match","Exact","945 GAYLEY AVE, LOS ANGELES, CA, 90024",141567516,"R"
316808,"945 GRAND AVENUE","PITTSBURGH","PA",15212,40.4754039680001,-80.024340061,308,"945 GRAND AVENUE, PITTSBURGH, PA, 15212","Match","Exact","945 GRAND AVE, PITTSBURGH, PA, 15212",51625310,"L"
316809,"945 GRANITE CT","DESOTO","TX",75115,32.589397091,-96.878647788,309,"945 GRANITE CT, DESOTO, TX, 75115","Match","Exact","945 GRANITE CT, DESOTO, TX, 75115",103214625,"L"
316810,"945 HANOVER ST","SANTA CRUZ","CA",95062,36.979058132,-122.002617595,310,"945 HANOVER ST, SANTA CRUZ, CA, 95062","Match","Exact","945 HANOVER ST, SANTA CRUZ, CA, 95062",125533964,"L"
316811,"945 JOE W ROAD","CHURCH POINT","LA",70525,30.500677587,-92.2665221139999,311,"945 JOE W ROAD, CHURCH POINT, LA, 70525","Match","Exact","945 JOE W RD, CHURCH POINT, LA, 70525",106438652,"L"
316812,"945 LAKE VIEW DR","PADUCAH","KY",42003,37.0368070800001,-88.6421850739999,312,"945 LAKE VIEW DR, PADUCAH, KY, 42003","Match","Non_Exact","945 LAKEVIEW DR, PADUCAH, KY, 42003",8412272,"R"
316813,"945 LAKEWOOD DR","ROCKFORD","IL",61102,42.267274372,-89.1656544099999,313,"945 LAKEWOOD DR, ROCKFORD, IL, 61102","Match","Exact","945 LAKEWOOD DR, ROCKFORD, IL, 61102",49251206,"R"
316814,"945 LOGAN COURT","LOVELAND","CO",80538,40.416835248,-105.089710927,314,"945 LOGAN COURT, LOVELAND, CO, 80538","Match","Exact","945 LOGAN CT, LOVELAND, CO, 80538",188518783,"R"
316815,"945 MAD RIVER ROAD","ARCATA","CA",95521,40.918587652,-124.120196607,315,"945 MAD RIVER ROAD, ARCATA, CA, 95521","Match","Exact","945 MAD RIVER RD, ARCATA, CA, 95521",113015835,"R"
316816,"945 MAGNOLIA WOOD AVENUE","BATON ROUGE","LA",70808,30.3835801760001,-91.119563308,316,"945 MAGNOLIA WOOD AVENUE, BATON ROUGE, LA, 70808","Match","Exact","945 MAGNOLIA WOOD AVE, BATON ROUGE, LA, 70808",92192451,"L"
316817,"945 MCKINNEY ST STE 13196","HOUSTON","TX",77002,29.7572470370001,-95.365390686,317,"945 MCKINNEY ST STE 13196, HOUSTON, TX, 77002","Match","Exact","945 MCKINNEY ST, HOUSTON, TX, 77002",96067691,"L"
316818,"945 MCKINNEY STREET  SUITE 240","HOUSTON","TX",77002,29.7572470370001,-95.365390686,318,"945 MCKINNEY STREET  SUITE 240, HOUSTON, TX, 77002","Match","Exact","945 MCKINNEY ST, HOUSTON, TX, 77002",96067691,"L"
316819,"945 MT HOPE RD","NEW CASTLE","PA",16101,40.8971281730001,-80.258292792,319,"945 MT HOPE RD, NEW CASTLE, PA, 16101","Match","Exact","945 MOUNT HOPE RD, NEW CASTLE, PA, 16101",634307582,"L"
316820,"945 N 12TH STREET","MILWAUKEE","WI",53233,43.042333136,-87.92716961,320,"945 N 12TH STREET, MILWAUKEE, WI, 53233","Match","Exact","945 N 12TH ST, MILWAUKEE, WI, 53233",77741304,"L"
316821,"945 N 40TH STREET APT 31","PHOENIX","AZ",85008,33.4580835580001,-111.995217352,321,"945 N 40TH STREET APT 31, PHOENIX, AZ, 85008","Match","Non_Exact","945 N 40TH ST, PHOENIX, AZ, 85008",638560619,"R"
316822,"945 N CAMAS LN","KALISPELL","MT",59901,NA,NA,322,"945 N CAMAS LN, KALISPELL, MT, 59901","No_Match",NA,NA,NA,NA
316823,"945 N CENTRAL AVE","CHICAGO","IL",60651,41.897815565,-87.76549017,323,"945 N CENTRAL AVE, CHICAGO, IL, 60651","Match","Exact","945 N CENTRAL AVE, CHICAGO, IL, 60651",111754057,"R"
316824,"945 N EL DORADO STREET APT 404","STOCKTON","CA",95202,37.9620786830001,-121.29233849,324,"945 N EL DORADO STREET APT 404, STOCKTON, CA, 95202","Match","Non_Exact","945 N EL DORADO ST, STOCKTON, CA, 95202",133850317,"L"
316825,"945 N UPLAND AVE","DAYTON","OH",45402,39.764543233,-84.247098383,325,"945 N UPLAND AVE, DAYTON, OH, 45402","Match","Exact","945 N UPLAND AVE, DAYTON, OH, 45402",143566855,"L"
316826,"945 NEW YORK DR","ALTADENA","CA",91001,34.178917832,-118.133260838,326,"945 NEW YORK DR, ALTADENA, CA, 91001","Match","Exact","945 NEW YORK DR, ALTADENA, CA, 91001",141628271,"L"
316827,"945 NORTH AVENUE","HIGHLAND PARK","IL",60035,42.2034637670001,-87.824312203,327,"945 NORTH AVENUE, HIGHLAND PARK, IL, 60035","Match","Exact","945 NORTH AVE, HIGHLAND PARK, IL, 60035",119648044,"R"
316828,"945 NORTH SERRANO AVE 217","LOS ANGELES","CA",90029,34.0872738780001,-118.306398703,328,"945 NORTH SERRANO AVE 217, LOS ANGELES, CA, 90029","Match","Exact","945 N SERRANO AVE, LOS ANGELES, CA, 90029",141603208,"L"
316829,"945 NW NAITO PARKWAY APT 336","PORTLAND","OR",97209,NA,NA,329,"945 NW NAITO PARKWAY APT 336, PORTLAND, OR, 97209","No_Match",NA,NA,NA,NA
316830,"945 NW NAITO PKY 238","PORTLAND","OR",97209,NA,NA,330,"945 NW NAITO PKY 238, PORTLAND, OR, 97209","No_Match",NA,NA,NA,NA
316831,"945 OLD OAK CIRCLE","ALGONQUIN","IL",60102,42.164988313,-88.279632695,331,"945 OLD OAK CIRCLE, ALGONQUIN, IL, 60102","Match","Exact","945 OLD OAK CIR, ALGONQUIN, IL, 60102",119866226,"L"
316832,"945 OREGON BLVD","WATERFORD","MI",48327,42.627727097,-83.386194755,332,"945 OREGON BLVD, WATERFORD, MI, 48327","Match","Exact","945 OREGON BLVD, WATERFORD, MI, 48327",69697079,"L"
316833,"945 PARK STREET","BOWLING GREEN","KY",42101,36.989850016,-86.438666605,333,"945 PARK STREET, BOWLING GREEN, KY, 42101","Match","Exact","945 PARK ST, BOWLING GREEN, KY, 42101",28005509,"L"
316834,"945 POST AVENUE","STATEN ISLAND","NY",10302,40.631872367,-74.132369016,334,"945 POST AVENUE, STATEN ISLAND, NY, 10302","Match","Exact","945 POST AVE, STATEN ISLAND, NY, 10302",59877825,"R"
316835,"945 PRESTON AVE","CHARLOTTESVILLE","VA",22903,38.038425546,-78.4903420059999,335,"945 PRESTON AVE, CHARLOTTESVILLE, VA, 22903","Match","Exact","945 PRESTON AVE, CHARLOTTESVILLE, VA, 22903",638120482,"R"
316836,"945 PROTANO LN","MAMARONECK","NY",10543,40.939761763,-73.738140814,336,"945 PROTANO LN, MAMARONECK, NY, 10543","Match","Exact","945 PROTANO LN, MAMARONECK, NY, 10543",139755372,"R"
316837,"945 QUINN ROAD","COLLIERVILLE","TN",38017,35.019299346,-89.661735133,337,"945 QUINN ROAD, COLLIERVILLE, TN, 38017","Match","Exact","945 QUINN RD, COLLIERVILLE, TN, 38017",648712043,"R"
316838,"945 RUSTIC RIDGE RD","AUBURN","AL",36830,32.623303048,-85.457001826,338,"945 RUSTIC RIDGE RD, AUBURN, AL, 36830","Match","Exact","945 RUSTIC RIDGE RD, AUBURN, AL, 36830",1569499,"L"
316839,"945 S BIRCH ST UNIT 461123","DENVER","CO",80246,39.699396693,-104.936378625,339,"945 S BIRCH ST UNIT 461123, DENVER, CO, 80246","Match","Non_Exact","945 S BIRCH ST, DENVER, CO, 80246",177339167,"R"
316840,"945 S LASSETTER CIR","VILLA RICA","GA",30180,33.7342553080001,-84.949280333,340,"945 S LASSETTER CIR, VILLA RICA, GA, 30180","Match","Exact","945 S LASSETTER CIR, VILLA RICA, GA, 30180",17126071,"R"
316841,"945 SCHILLINGER RD S APT 1303","MOBILE","AL",36695,NA,NA,341,"945 SCHILLINGER RD S APT 1303, MOBILE, AL, 36695","No_Match",NA,NA,NA,NA
316842,"945 SGT ED HOLCOMB BLVD S","CONROE","TX",77304,30.288261748,-95.481698482,342,"945 SGT ED HOLCOMB BLVD S, CONROE, TX, 77304","Match","Non_Exact","945 SGT ED HOLCOMB BLVD, CONROE, TX, 77304",79331321,"L"
316843,"945 SILVER RIDGE PLACE","DIXON","CA",95620,38.4439514220001,-121.834875503,343,"945 SILVER RIDGE PLACE, DIXON, CA, 95620","Match","Exact","945 SILVER RIDGE PL, DIXON, CA, 95620",192540077,"L"
316844,"945 SMILEY AVE","CINCINNATI","OH",45240,39.2971135820001,-84.512208178,344,"945 SMILEY AVE, CINCINNATI, OH, 45240","Match","Exact","945 SMILEY AVE, CINCINNATI, OH, 45240",103943281,"L"
316845,"945 SOUTH OSAGE AVE PH-A","INGLEWOOD","CA",90301,33.9516046000001,-118.345666196,345,"945 SOUTH OSAGE AVE PH-A, INGLEWOOD, CA, 90301","Match","Exact","945 S OSAGE AVE, INGLEWOOD, CA, 90301",142750639,"R"
316846,"945 SW 1 STREET APT 209","FORT LAUDERDALE","FL",33312,26.12129409,-80.15378249,346,"945 SW 1 STREET APT 209, FORT LAUDERDALE, FL, 33312","Match","Non_Exact","945 SW 1ST ST, FORT LAUDERDALE, FL, 33312",114721464,"R"
316847,"945 TARAVAL ST STE 167","SAN FRANCISCO","CA",94116,37.743024744,-122.476199004,347,"945 TARAVAL ST STE 167, SAN FRANCISCO, CA, 94116","Match","Exact","945 TARAVAL ST, SAN FRANCISCO, CA, 94116",640995512,"L"
316848,"945 TARAVAL STREET SUITE 328","SAN FRANCISCO","CA",94116,37.743024744,-122.476199004,348,"945 TARAVAL STREET SUITE 328, SAN FRANCISCO, CA, 94116","Match","Exact","945 TARAVAL ST, SAN FRANCISCO, CA, 94116",640995512,"L"
316849,"945 TECUMSEH STREET","INDIANAPOLIS","IN",46201,39.7803216820001,-86.125783773,349,"945 TECUMSEH STREET, INDIANAPOLIS, IN, 46201","Match","Non_Exact","945 N TECUMSEH ST, INDIANAPOLIS, IN, 46201",107993507,"R"
316850,"945 TROOST AVENUE","FOREST PARK","IL",60130,41.869090655,-87.817326834,350,"945 TROOST AVENUE, FOREST PARK, IL, 60130","Match","Exact","945 TROOST AVE, FOREST PARK, IL, 60130",111791841,"R"
316851,"945 VENEZIA AVE","VENICE","CA",90291,33.9945501340001,-118.456232454,351,"945 VENEZIA AVE, VENICE, CA, 90291","Match","Exact","945 VENEZIA AVE, VENICE, CA, 90291",141576639,"L"
316852,"945 W 80TH ST","LOS ANGELES","CA",90044,33.966704916,-118.290125588,352,"945 W 80TH ST, LOS ANGELES, CA, 90044","Match","Exact","945 W 80TH ST, LOS ANGELES, CA, 90044",142753505,"R"
316853,"945 W MICHIGAN AVE SUITE 6C","PENSACOLA","FL",32505,30.462472475,-87.265701441,353,"945 W MICHIGAN AVE SUITE 6C, PENSACOLA, FL, 32505","Match","Non_Exact","945 W MICHIGAN AVE, PENSACOLA, FL, 32505",93214214,"L"
316854,"945 W MICHIGAN AVENUE SUITE 9C","PENSACOLA","FL",32505,30.462472475,-87.265701441,354,"945 W MICHIGAN AVENUE SUITE 9C, PENSACOLA, FL, 32505","Match","Non_Exact","945 W MICHIGAN AVE, PENSACOLA, FL, 32505",93214214,"L"
316855,"945 W ROUNDBUNCH RD","BRIDGE CITY","TX",77611,30.0344596050001,-93.8494622489999,355,"945 W ROUNDBUNCH RD, BRIDGE CITY, TX, 77611","Match","Non_Exact","945 W ROUND BUNCH RD, BRIDGE CITY, TX, 77611",74020004,"R"
316856,"945 WAVERLY ST","HOUSTON","TX",77008,29.7877404770001,-95.404425974,356,"945 WAVERLY ST, HOUSTON, TX, 77008","Match","Exact","945 WAVERLY ST, HOUSTON, TX, 77008",96061031,"L"
316857,"945 WEST CARSON SUITE 218","TORRANCE","CA",90502,33.831592646,-118.292191284,357,"945 WEST CARSON SUITE 218, TORRANCE, CA, 90502","Match","Non_Exact","945 W CARSON ST, TORRANCE, CA, 90502",142759628,"R"
316858,"945 WEST RIDGE DRIVE","JACKSON","MS",39209,32.3040970010001,-90.2406183109999,358,"945 WEST RIDGE DRIVE, JACKSON, MS, 39209","Match","Exact","945 W RIDGE DR, JACKSON, MS, 39209",65366579,"R"
316859,"945 WHITEHAWK TRAIL","LAWRENCEVILLE","GA",30043,33.9888745170001,-84.049451184,359,"945 WHITEHAWK TRAIL, LAWRENCEVILLE, GA, 30043","Match","Non_Exact","945 WHITEHAWK TRL NW, LAWRENCEVILLE, GA, 30043",88920146,"R"
316860,"9450 BUECHE ROAD","ERWINVILLE","LA",70729,30.600668522,-91.3451058319999,360,"9450 BUECHE ROAD, ERWINVILLE, LA, 70729","Match","Exact","9450 BUECHE RD, ERWINVILLE, LA, 70729",92290379,"R"
316861,"9450 COPPER MIST","CONVERSE","TX",78109,29.502362713,-98.2972960279999,361,"9450 COPPER MIST, CONVERSE, TX, 78109","Match","Exact","9450 COPPER MIST, CONVERSE, TX, 78109",619957381,"L"
316862,"9450 DUNHAM ROAD","MOUNT VERNON","OH",43050,40.3795872960001,-82.6173650059999,362,"9450 DUNHAM ROAD, MOUNT VERNON, OH, 43050","Match","Exact","9450 DUNHAM RD, MOUNT VERNON, OH, 43050",649958473,"R"
316863,"9450 E COLUMBUS DRIVE ROOM 206","TAMPA","FL",33619,NA,NA,363,"9450 E COLUMBUS DRIVE ROOM 206, TAMPA, FL, 33619","No_Match",NA,NA,NA,NA
316864,"9450 E PALMETTO CLUB LN","MIAMI","FL",33157,25.623958983,-80.3469392759999,364,"9450 E PALMETTO CLUB LN, MIAMI, FL, 33157","Match","Exact","9450 E PALMETTO CLUB LN, MIAMI, FL, 33157",115983523,"L"
316865,"9450 EAST 275TH STREET","ELKO","MN",55020,NA,NA,365,"9450 EAST 275TH STREET, ELKO, MN, 55020","No_Match",NA,NA,NA,NA
316866,"9450 EAST 59TH STREET","LAWRENCE","IN",46216,39.8628355180001,-86.002222326,366,"9450 EAST 59TH STREET, LAWRENCE, IN, 46216","Match","Non_Exact","9450 E 59TH ST, INDIANAPOLIS, IN, 46216",108011330,"L"
316867,"9450 HOLLIDAY CIR","INDIANAPOLIS","IN",46260,39.9255868810001,-86.1633083579999,367,"9450 HOLLIDAY CIR, INDIANAPOLIS, IN, 46260","Match","Exact","9450 HOLLIDAY CIR, INDIANAPOLIS, IN, 46260",107982742,"R"
316868,"9450 MELBOURNE DRIVE","COLORADO SPRINGS","CO",80920,38.9599593900001,-104.767847904,368,"9450 MELBOURNE DRIVE, COLORADO SPRINGS, CO, 80920","Match","Exact","9450 MELBOURNE DR, CO SPGS, CO, 80920",105547472,"L"
316869,"9450 MIRA MESA BLVD 201","SAN DIEGO","CA",92126,32.9171910270001,-117.122652541,369,"9450 MIRA MESA BLVD 201, SAN DIEGO, CA, 92126","Match","Exact","9450 MIRA MESA BLVD, SAN DIEGO, CA, 92126",645487272,"L"
316870,"9450 MIRA MESA","SAN DIEGO","CA",92126,32.9171910270001,-117.122652541,370,"9450 MIRA MESA, SAN DIEGO, CA, 92126","Match","Non_Exact","9450 MIRA MESA BLVD, SAN DIEGO, CA, 92126",645487272,"L"
316871,"9450 N 94TH PLACE SUITE 117","SCOTTSDALE","AZ",85258,33.5729915910001,-111.878181267,371,"9450 N 94TH PLACE SUITE 117, SCOTTSDALE, AZ, 85258","Match","Non_Exact","9450 N 94TH PL, SCOTTSDALE, AZ, 85258",128290206,"L"
316872,"9450 OLD MARLBORO PIKE","UPPER MARLBORO","MD",20772,NA,NA,372,"9450 OLD MARLBORO PIKE, UPPER MARLBORO, MD, 20772","Tie",NA,NA,NA,NA
316873,"9450 PINECROFT DR 7703","THE WOODLANDS","TX",77387,30.1767049580001,-95.45639892,373,"9450 PINECROFT DR 7703, THE WOODLANDS, TX, 77387","Match","Non_Exact","9450 PINECROFT DR, THE WOODLANDS, TX, 77380",79302902,"L"
316874,"9450 PINECROFT DRIVE UNIT 8453","SPRING","TX",77387,30.1767049580001,-95.45639892,374,"9450 PINECROFT DRIVE UNIT 8453, SPRING, TX, 77387","Match","Non_Exact","9450 PINECROFT DR, SPRING, TX, 77380",79302902,"L"
316875,"9450 PURSUIT COURT","COLUMBIA","MD",21045,39.207004043,-76.837713913,375,"9450 PURSUIT COURT, COLUMBIA, MD, 21045","Match","Exact","9450 PURSUIT CT, COLUMBIA, MD, 21045",158925642,"R"
316876,"9450 S EBERHART AVENUE","CHICAGO","IL",60619,41.7223784920001,-87.611740592,376,"9450 S EBERHART AVENUE, CHICAGO, IL, 60619","Match","Exact","9450 S EBERHART AVE, CHICAGO, IL, 60619",605547031,"L"
316877,"9450 SKILLMAN STREET  SUITE 124","DALLAS","TX",75243,32.9053771120001,-96.711623099,377,"9450 SKILLMAN STREET  SUITE 124, DALLAS, TX, 75243","Match","Exact","9450 SKILLMAN ST, DALLAS, TX, 75243",102917170,"R"
316878,"9450 SKILLMAN STREET  SUITE 124","DALLAS","TX",75342,32.9053771120001,-96.711623099,378,"9450 SKILLMAN STREET  SUITE 124, DALLAS, TX, 75342","Match","Non_Exact","9450 SKILLMAN ST, DALLAS, TX, 75243",102917170,"R"
316879,"9450 SW GEMINI DR PMB 26648","BEAVERTON","OR",97008,45.452125279,-122.792571519,379,"9450 SW GEMINI DR PMB 26648, BEAVERTON, OR, 97008","Match","Non_Exact","9450 SW GEMINI DR, BEAVERTON, OR, 97008",158189482,"R"
316880,"9450 SW GEMINI DR PMB 28093","BEAVERTON","OR",97008,45.452125279,-122.792571519,380,"9450 SW GEMINI DR PMB 28093, BEAVERTON, OR, 97008","Match","Non_Exact","9450 SW GEMINI DR, BEAVERTON, OR, 97008",158189482,"R"
316881,"9450 SW GEMINI DRIVE 54039","BEAVERTON","OR",97008,45.452125279,-122.792571519,381,"9450 SW GEMINI DRIVE 54039, BEAVERTON, OR, 97008","Match","Non_Exact","9450 SW GEMINI DR, BEAVERTON, OR, 97008",158189482,"R"
316882,"9450 SW GEMINI DRIVE PMB 37871","BEAVERTON","OR",97008,45.452125279,-122.792571519,382,"9450 SW GEMINI DRIVE PMB 37871, BEAVERTON, OR, 97008","Match","Non_Exact","9450 SW GEMINI DR, BEAVERTON, OR, 97008",158189482,"R"
316883,"9450 WHIPPOORWILL LN","MASON","OH",45040,39.2982865020001,-84.336551216,383,"9450 WHIPPOORWILL LN, MASON, OH, 45040","Match","Non_Exact","9450 WHIPPOORWILL DR, MASON, OH, 45040",159025207,"R"
316884,"9451 COPPER MIST","CONVERSE","TX",78109,29.502378317,-98.2972423429999,384,"9451 COPPER MIST, CONVERSE, TX, 78109","Match","Exact","9451 COPPER MIST, CONVERSE, TX, 78109",619957381,"R"
316885,"9451 GREYSTONE PKWY","BRECKSVILLE","OH",44141,41.300698255,-81.638438503,385,"9451 GREYSTONE PKWY, BRECKSVILLE, OH, 44141","Match","Exact","9451 GREYSTONE PKWY, BRECKSVILLE, OH, 44141",61181261,"R"
316886,"9451 GROVE TRAIL LANE","GERMANTOWN","TN",38139,35.099825981,-89.7479342,386,"9451 GROVE TRAIL LANE, GERMANTOWN, TN, 38139","Match","Exact","9451 GROVE TRAIL LN, GERMANTOWN, TN, 38139",72979949,"R"
316887,"9451 HEMINGWAY HWY","KINGSTREE","SC",29556,33.6931018430001,-79.742257971,387,"9451 HEMINGWAY HWY, KINGSTREE, SC, 29556","Match","Exact","9451 HEMINGWAY HWY, KINGSTREE, SC, 29556",29190998,"R"
316888,"9451 LBJ FREEWAY SUITE 118","DALLAS","TX",75243,NA,NA,388,"9451 LBJ FREEWAY SUITE 118, DALLAS, TX, 75243","No_Match",NA,NA,NA,NA
316889,"9451 W MARY ANN DRIVE","PEORIA","AZ",85382,33.670515053,-112.262334175,389,"9451 W MARY ANN DRIVE, PEORIA, AZ, 85382","Match","Exact","9451 W MARY ANN DR, PEORIA, AZ, 85382",128416506,"L"
316890,"9452 CANONBURY SQ","FAIRFAX","VA",22031,38.8727814490001,-77.270527849,390,"9452 CANONBURY SQ, FAIRFAX, VA, 22031","Match","Exact","9452 CANONBURY SQ, FAIRFAX, VA, 22031",641086333,"L"
316891,"9452 DESCHUTES RD","PALO CEDRO","CA",96073,40.5629316120001,-122.238759477,391,"9452 DESCHUTES RD, PALO CEDRO, CA, 96073","Match","Exact","9452 DESCHUTES RD, PALO CEDRO, CA, 96073",126683883,"L"
316892,"9452 ENGLAND AVENUE","WESTMINSTER","CA",92683,33.740131585,-117.964531415,392,"9452 ENGLAND AVENUE, WESTMINSTER, CA, 92683","Match","Exact","9452 ENGLAND AVE, WESTMINSTER, CA, 92683",635461623,"R"
316893,"9452 RAMBLER DR","HUNTINGTON BEACH","CA",92646,33.6454600380001,-117.962817181,393,"9452 RAMBLER DR, HUNTINGTON BEACH, CA, 92646","Match","Exact","9452 RAMBLER DR, HUNTINGTON BEACH, CA, 92646",635460684,"R"
316894,"9452 TELEPHONE ROAD  SUITE 115","VENTURA","CA",93004,34.271789563,-119.171176769,394,"9452 TELEPHONE ROAD  SUITE 115, VENTURA, CA, 93004","Match","Non_Exact","9452 W TELEPHONE RD, VENTURA, CA, 93004",651677068,"R"
316895,"9452 TELEPHONE ROAD UNIT 277","VENTURA","CA",93004,34.271789563,-119.171176769,395,"9452 TELEPHONE ROAD UNIT 277, VENTURA, CA, 93004","Match","Non_Exact","9452 W TELEPHONE RD, VENTURA, CA, 93004",651677068,"R"
316896,"9452 W 193RD TERRACE","BUCYRUS","KS",66013,38.776972513,-94.694133875,396,"9452 W 193RD TERRACE, BUCYRUS, KS, 66013","Match","Exact","9452 W 193RD TER, BUCYRUS, KS, 66013",91303390,"R"
316897,"9452 WHISPER BEND DR","INDIANAPOLIS","IN",46278,39.921871475,-86.3152174369999,397,"9452 WHISPER BEND DR, INDIANAPOLIS, IN, 46278","Match","Exact","9452 WHISPER BEND DR, INDIANAPOLIS, IN, 46278",625343198,"L"
316898,"9453 PROSPECT HILL PL","FREDERICK","MD",21704,39.3375578810001,-77.338361243,398,"9453 PROSPECT HILL PL, FREDERICK, MD, 21704","Match","Exact","9453 PROSPECT HILL PL, FREDERICK, MD, 21704",604676005,"R"
316899,"9453 S ASHLAND 2ND FL SUITE 7","CHICAGO","IL",60620,NA,NA,399,"9453 S ASHLAND 2ND FL SUITE 7, CHICAGO, IL, 60620","No_Match",NA,NA,NA,NA
316900,"9454 GENNA TRACE TRAIL","JACKSONVILLE","FL",32257,30.2069356150001,-81.605212212,400,"9454 GENNA TRACE TRAIL, JACKSONVILLE, FL, 32257","Match","Exact","9454 GENNA TRACE TRL, JACKSONVILLE, FL, 32257",83934968,"L"
316901,"9454 S 400 W","UNION MILLS","IN",46382,41.4703107770001,-86.776436163,401,"9454 S 400 W, UNION MILLS, IN, 46382","Match","Exact","9454 S 400 W, UNION MILLS, IN, 46382",15401149,"L"
316902,"9454 TOKAY RD","SAN ANGELO","TX",76901,31.577770005,-100.548774814,402,"9454 TOKAY RD, SAN ANGELO, TX, 76901","Match","Exact","9454 TOKAY RD, SAN ANGELO, TX, 76901",190675540,"R"
316903,"9454 WILSHIRE BLVD STE 201","BEVERLY HILLS","CA",90212,34.06705276,-118.398739168,403,"9454 WILSHIRE BLVD STE 201, BEVERLY HILLS, CA, 90212","Match","Exact","9454 WILSHIRE BLVD, BEVERLY HILLS, CA, 90212",142718994,"L"
316904,"9454 WILSHIRE BLVD- PENTHOUSE SUIT","BEVERLY HILLS","CA",90212,34.06705276,-118.398739168,404,"9454 WILSHIRE BLVD- PENTHOUSE SUIT, BEVERLY HILLS, CA, 90212","Match","Non_Exact","9454 WILSHIRE BLVD, BEVERLY HILLS, CA, 90212",142718994,"L"
316905,"9454 WILSHIRE BLVD","BEVERLY HILLS","CA",90212,34.06705276,-118.398739168,405,"9454 WILSHIRE BLVD, BEVERLY HILLS, CA, 90212","Match","Exact","9454 WILSHIRE BLVD, BEVERLY HILLS, CA, 90212",142718994,"L"
316906,"9455 103RD ST","JACKSONVILLE","FL",32210,30.247788852,-81.8117024589999,406,"9455 103RD ST, JACKSONVILLE, FL, 32210","Match","Exact","9455 103RD ST, JACKSONVILLE, FL, 32210",83966763,"L"
316907,"9455 BRENNER CT","VIENNA","VA",22180,38.9155513060001,-77.271033545,407,"9455 BRENNER CT, VIENNA, VA, 22180","Match","Exact","9455 BRENNER CT, VIENNA, VA, 22180",76048155,"L"
316908,"9455 BRITTON HWY    PO BOX 23","TECUMSEH","MI",49286,42.0302403850001,-83.8309716589999,408,"9455 BRITTON HWY    PO BOX 23, TECUMSEH, MI, 49286","Match","Exact","9455 BRITTON HWY, TECUMSEH, MI, 49286",25953449,"L"
316909,"9455 COLLINS AVE APT 709","SURFSIDE","FL",33154,25.8844417870001,-80.122484951,409,"9455 COLLINS AVE APT 709, SURFSIDE, FL, 33154","Match","Exact","9455 COLLINS AVE, SURFSIDE, FL, 33154",116038365,"R"
316910,"9455 JARROD AVE S","COTTAGE GROVE","MN",55016,44.812312406,-92.922540197,410,"9455 JARROD AVE S, COTTAGE GROVE, MN, 55016","Match","Exact","9455 JARROD AVE S, COTTAGE GROVE, MN, 55016",97805964,"R"
316911,"9455 WEST 151ST STREET","OVERLAND PARK","KS",66221,38.854616091,-94.6945254189999,411,"9455 WEST 151ST STREET, OVERLAND PARK, KS, 66221","Match","Exact","9455 W 151ST ST, OVERLAND PARK, KS, 66221",624822519,"R"
316912,"9455 WIND DANCER TRAIL","LAS CRUCES","NM",88011,32.2972882190001,-106.654750661,412,"9455 WIND DANCER TRAIL, LAS CRUCES, NM, 88011","Match","Exact","9455 WIND DANCER TRL, LAS CRUCES, NM, 88011",648165173,"L"
316913,"9456 GREENBACK LN","ORANGEVALE","CA",95662,38.678097876,-121.200399478,413,"9456 GREENBACK LN, ORANGEVALE, CA, 95662","Match","Exact","9456 GREENBACK LN, ORANGEVALE, CA, 95662",133369520,"R"
316914,"9456 LAKE CONROE DR","CONROE","TX",77304,30.38575116,-95.539732423,414,"9456 LAKE CONROE DR, CONROE, TX, 77304","Match","Exact","9456 LAKE CONROE DR, CONROE, TX, 77304",79296871,"L"
316915,"9456 MAX FLY DR","LAKELAND","FL",33810,28.173664296,-82.009929929,415,"9456 MAX FLY DR, LAKELAND, FL, 33810","Match","Exact","9456 MAX FLY DR, LAKELAND, FL, 33810",104879609,"R"
316916,"9456 SOUTH MAIN STREET","JONESBORO","GA",30236,33.4924544940001,-84.338772626,416,"9456 SOUTH MAIN STREET, JONESBORO, GA, 30236","Match","Exact","9456 S MAIN ST, JONESBORO, GA, 30236",23317449,"R"
316917,"9457 N MOTH COURT","TUCSON","AZ",85742,32.3785239740001,-111.083662594,417,"9457 N MOTH COURT, TUCSON, AZ, 85742","Match","Exact","9457 N MOTH CT, TUCSON, AZ, 85742",606808030,"L"
316918,"9457 S UNIVERSITY BLVD NUMBER 737","HIGHLANDS RANCH","CO",80126,39.5443740600001,-104.94380377,418,"9457 S UNIVERSITY BLVD NUMBER 737, HIGHLANDS RANCH, CO, 80126","Match","Non_Exact","9457 S UNIVERSITY BLVD, HIGHLANDS RANCH, CO, 80126",130842451,"R"
316919,"9457 S UNIVERSITY BLVD STE 140","HIGHLANDS RANCH","CO",80126,39.5443740600001,-104.94380377,419,"9457 S UNIVERSITY BLVD STE 140, HIGHLANDS RANCH, CO, 80126","Match","Non_Exact","9457 S UNIVERSITY BLVD, HIGHLANDS RANCH, CO, 80126",130842451,"R"
316920,"9457 S UNIVERSITY BLVD SUITE 258","HIGHLANDS RANCH","CO",80126,39.5443740600001,-104.94380377,420,"9457 S UNIVERSITY BLVD SUITE 258, HIGHLANDS RANCH, CO, 80126","Match","Non_Exact","9457 S UNIVERSITY BLVD, HIGHLANDS RANCH, CO, 80126",130842451,"R"
316921,"9457 SOUTH UNIVERSITY BLVD   733","HIGHLANDS RANCH","CO",80126,39.5443849230001,-104.943819453,421,"9457 SOUTH UNIVERSITY BLVD   733, HIGHLANDS RANCH, CO, 80126","Match","Exact","9457 S UNIVERSITY BLVD, HIGHLANDS RANCH, CO, 80126",130842451,"R"
316922,"9457 SOUTH UNIVERSITY BLVD","HIGHLANDS RANCH","CO",80126,39.5443849230001,-104.943819453,422,"9457 SOUTH UNIVERSITY BLVD, HIGHLANDS RANCH, CO, 80126","Match","Exact","9457 S UNIVERSITY BLVD, HIGHLANDS RANCH, CO, 80126",130842451,"R"
316923,"9457 STONEWALL ROAD","MANASSAS","VA",20110,38.750104123,-77.485296487,423,"9457 STONEWALL ROAD, MANASSAS, VA, 20110","Match","Exact","9457 STONEWALL RD, MANASSAS, VA, 20110",649848097,"L"
316924,"9458 S STREET RD","LE ROY","NY",14482,42.957356222,-77.9791551559999,424,"9458 S STREET RD, LE ROY, NY, 14482","Match","Exact","9458 S STREET RD, LE ROY, NY, 14482",48147674,"R"
316925,"9458 WOODLAND HILLS DRIVE  APT 58","HAMILTON","OH",45011,39.319267768,-84.453234059,425,"9458 WOODLAND HILLS DRIVE  APT 58, HAMILTON, OH, 45011","Match","Exact","9458 WOODLAND HILLS DR, HAMILTON, OH, 45011",652491340,"L"
316926,"945B NORTH TEMPLE AVENUE","STARKE","FL",32091,29.9539704430001,-82.108029877,426,"945B NORTH TEMPLE AVENUE, STARKE, FL, 32091","Match","Exact","945 N TEMPLE AVE, STARKE, FL, 32091",606626492,"L"
316927,"945C ROSENCRANS LANE","MYRTLE BEACH","SC",29577,33.666969941,-78.9383078549999,427,"945C ROSENCRANS LANE, MYRTLE BEACH, SC, 29577","Match","Exact","945 ROSENCRANS LN, MYRTLE BEACH, SC, 29577",631848162,"R"
316928,"946 7TH PLACE","CALIMESA","CA",92320,34.001911007,-117.066026965,428,"946 7TH PLACE, CALIMESA, CA, 92320","Match","Exact","946 7TH PL, CALIMESA, CA, 92320",194751429,"R"
316929,"946 BARBARALEE DRIVE","DUBUQUE","IA",52003,42.473859254,-90.7016449659999,429,"946 BARBARALEE DRIVE, DUBUQUE, IA, 52003","Match","Exact","946 BARBARALEE DR, DUBUQUE, IA, 52003",16917097,"L"
316930,"946 BOROS DR","HOUSTON","TX",77024,29.782631909,-95.490872145,430,"946 BOROS DR, HOUSTON, TX, 77024","Match","Exact","946 BOROS DR, HOUSTON, TX, 77024",96030448,"R"
316931,"946 BRIARCLIFF DRIVE","SANTA MARIA","CA",93455,34.8754561260001,-120.447750692,431,"946 BRIARCLIFF DRIVE, SANTA MARIA, CA, 93455","Match","Exact","946 BRIARCLIFF DR, SANTA MARIA, CA, 93455",108596755,"R"
316932,"946 BUENA VISTA WAY","CHULA VISTA","CA",91910,32.6382264750001,-117.00268607,432,"946 BUENA VISTA WAY, CHULA VISTA, CA, 91910","Match","Exact","946 BUENA VISTA WAY, CHULA VISTA, CA, 91910",195364137,"R"
316933,"946 CLAY AVENUE","SCRANTON","PA",18510,41.4124441020001,-75.646985564,433,"946 CLAY AVENUE, SCRANTON, PA, 18510","Match","Exact","946 CLAY AVE, SCRANTON, PA, 18510",139328867,"R"
316934,"946 CLIFTON DRIVE","ESTILL","SC",29918,32.801123567,-81.142668761,434,"946 CLIFTON DRIVE, ESTILL, SC, 29918","Match","Exact","946 CLIFTON DR, ESTILL, SC, 29918",639191623,"R"
316935,"946 COOKSON AVE","NEW PHILADELPHIA","OH",44663,40.4752721450001,-81.442042235,435,"946 COOKSON AVE, NEW PHILADELPHIA, OH, 44663","Match","Non_Exact","946 COOKSON AVE SE, NEW PHILADELPHIA, OH, 44663",44254810,"R"
316936,"946 CRESCENT BLVD","GLEN ELLYN","IL",60137,41.884205003,-88.045921318,436,"946 CRESCENT BLVD, GLEN ELLYN, IL, 60137","Match","Exact","946 CRESCENT BLVD, GLEN ELLYN, IL, 60137",112681126,"R"
316937,"946 E 152ND ST","SOUTH HOLLAND","IL",60473,41.6199605780001,-87.593518699,437,"946 E 152ND ST, SOUTH HOLLAND, IL, 60473","Match","Exact","946 E 152ND ST, SOUTH HOLLAND, IL, 60473",111780023,"L"
316938,"946 EAST CRAIGHEAD FOREST RD  109","JONESBORO","AR",72404,35.785055572,-90.690340455,438,"946 EAST CRAIGHEAD FOREST RD  109, JONESBORO, AR, 72404","Match","Exact","946 E CRAIGHEAD FOREST RD, JONESBORO, AR, 72404",623719126,"R"
316939,"946 EAST KIRKWOOD DRIVE","PUEBLO WEST","CO",81007,NA,NA,439,"946 EAST KIRKWOOD DRIVE, PUEBLO WEST, CO, 81007","No_Match",NA,NA,NA,NA
316940,"946 EAST PALM VALLEY DRIVE","OVIEDO","FL",32765,28.618068884,-81.194789806,440,"946 EAST PALM VALLEY DRIVE, OVIEDO, FL, 32765","Match","Exact","946 E PALM VALLEY DR, OVIEDO, FL, 32765",93768854,"L"
316941,"946 EL LAGO TER","WINTER SPGS","FL",32708,28.653839787,-81.261233768,441,"946 EL LAGO TER, WINTER SPGS, FL, 32708","Match","Exact","946 EL LAGO TER, WINTER SPRINGS, FL, 32708",93766101,"L"
316942,"946 EVANS STREET","BETHLEHEM","PA",18015,40.611995242,-75.3648609269999,442,"946 EVANS STREET, BETHLEHEM, PA, 18015","Match","Exact","946 EVANS ST, BETHLEHEM, PA, 18015",136885843,"R"
316943,"946 FIFTH AVE","HUNTINGTON","WV",25701,38.4195265540001,-82.442721208,443,"946 FIFTH AVE, HUNTINGTON, WV, 25701","Match","Exact","946 5TH AVE, HUNTINGTON, WV, 25701",101317605,"L"
316944,"946 FOREST LANE","MALVERN","PA",19355,NA,NA,444,"946 FOREST LANE, MALVERN, PA, 19355","No_Match",NA,NA,NA,NA
316945,"946 GREAT PLAIN AVE NO 282","NEEDHAM","MA",2492,42.280275923,-71.235492832,445,"946 GREAT PLAIN AVE NO 282, NEEDHAM, MA, 2492","Match","Non_Exact","946 GREAT PLAIN AVE, NEEDHAM, MA, 02492",87241394,"L"
316946,"946 GREAT PLAIN AVE SUITE 148","NEEDHAM","MA",2492,42.280275923,-71.235492832,446,"946 GREAT PLAIN AVE SUITE 148, NEEDHAM, MA, 2492","Match","Exact","946 GREAT PLAIN AVE, NEEDHAM, MA, 02492",87241394,"L"
316947,"946 INDUSTRIAL PARK RAOD","LITTLETON","NH",3561,NA,NA,447,"946 INDUSTRIAL PARK RAOD, LITTLETON, NH, 3561","No_Match",NA,NA,NA,NA
316948,"946 IRONWOOD WAY","YORK","PA",17404,40.018517768,-76.76525666,448,"946 IRONWOOD WAY, YORK, PA, 17404","Match","Exact","946 IRONWOOD WAY, YORK, PA, 17404",616282325,"L"
316949,"946 JEROME STREET","BALDWIN","NY",11510,40.630320854,-73.602057745,449,"946 JEROME STREET, BALDWIN, NY, 11510","Match","Exact","946 JEROME ST, BALDWIN, NY, 11510",147638061,"R"
316950,"946 MARCUS DR APT 2","NEWPORT NEWS","VA",23602,37.0975519690001,-76.4632516469999,450,"946 MARCUS DR APT 2, NEWPORT NEWS, VA, 23602","Match","Exact","946 MARCUS DR, NEWPORT NEWS, VA, 23602",103820286,"R"
316951,"946 N DRAKE AVE","CHICAGO","IL",60615,41.8981767870001,-87.715186993,451,"946 N DRAKE AVE, CHICAGO, IL, 60615","Match","Non_Exact","946 N DRAKE AVE, CHICAGO, IL, 60651",111759599,"L"
316952,"946 REAGAN COURT","DESOTO","TX",75115,32.6067916690001,-96.873970949,452,"946 REAGAN COURT, DESOTO, TX, 75115","Match","Exact","946 REAGAN CT, DESOTO, TX, 75115",627908406,"L"
316953,"946 S ARCHERS WAY","NEKOOSA","WI",54457,44.2085218180001,-89.775280384,453,"946 S ARCHERS WAY, NEKOOSA, WI, 54457","Match","Exact","946 S ARCHERS WAY, NEKOOSA, WI, 54457",73302919,"R"
316954,"946 SIMPSON TERRACE SUITE 126","BEFORD","TX",76021,32.861712658,-97.153148814,454,"946 SIMPSON TERRACE SUITE 126, BEFORD, TX, 76021","Match","Non_Exact","946 SIMPSON TER, BEDFORD, TX, 76021",101869605,"R"
316955,"946 SPENCE ST","LOS ANGELES","CA",90023,34.025341972,-118.199361464,455,"946 SPENCE ST, LOS ANGELES, CA, 90023","Match","Exact","946 SPENCE ST, LOS ANGELES, CA, 90023",141624955,"L"
316956,"946 W 40TH ST","SAN BERNARDINO","CA",92407,34.164604609,-117.303491327,456,"946 W 40TH ST, SAN BERNARDINO, CA, 92407","Match","Exact","946 W 40TH ST, SAN BERNARDINO, CA, 92407",144651502,"R"
316957,"946 W 630 S NUMBER 50","PLEASANT GROVE","UT",84062,NA,NA,457,"946 W 630 S NUMBER 50, PLEASANT GROVE, UT, 84062","No_Match",NA,NA,NA,NA
316958,"946 WAILUPE PLACE","HONOLULU","HI",96821,21.277240335,-157.754634847,458,"946 WAILUPE PLACE, HONOLULU, HI, 96821","Match","Exact","946 WAILUPE PL, HONOLULU, HI, 96821",203243798,"L"
316959,"946 WATKINS PLACE","JACKSON","MS",39206,32.365511472,-90.190366605,459,"946 WATKINS PLACE, JACKSON, MS, 39206","Match","Exact","946 WATKINS PL, JACKSON, MS, 39206",65379175,"L"
316960,"946 WEST BROAD AVE","ALBANY","GA",31701,31.576792696,-84.172530646,460,"946 WEST BROAD AVE, ALBANY, GA, 31701","Match","Exact","946 W BROAD AVE, ALBANY, GA, 31701",647402795,"L"
316961,"9460 43RD AVENUE","PLEASANT PRAIRIE","WI",53158,42.535235201,-87.863251764,461,"9460 43RD AVENUE, PLEASANT PRAIRIE, WI, 53158","Match","Exact","9460 43RD AVE, PLEASANT PRAIRIE, WI, 53158",79817932,"R"
316962,"9460 BIRCHLEY CT","ELK GROVE","CA",95624,38.4136513290001,-121.343785444,462,"9460 BIRCHLEY CT, ELK GROVE, CA, 95624","Match","Exact","9460 BIRCHLEY CT, ELK GROVE, CA, 95624",133405139,"L"
316963,"9460 CEDAR GLADE CV","CORDOVA","TN",38016,35.2012451740001,-89.746789703,463,"9460 CEDAR GLADE CV, CORDOVA, TN, 38016","Match","Exact","9460 CEDAR GLADE COVE, CORDOVA, TN, 38016",72954739,"R"
316964,"9460 GRACE DR","TWINSBURG","OH",44087,41.327070065,-81.422605237,464,"9460 GRACE DR, TWINSBURG, OH, 44087","Match","Exact","9460 GRACE DR, TWINSBURG, OH, 44087",648159421,"R"
316965,"9460 KIWI CIRCLE","FOUNTAIN VALLEY","CA",92708,33.6949678570001,-117.963939443,465,"9460 KIWI CIRCLE, FOUNTAIN VALLEY, CA, 92708","Match","Exact","9460 KIWI CIR, FOUNTAIN VALLEY, CA, 92708",144038105,"R"
316966,"9460 MIMOSA","FRISCO","TX",75034,NA,NA,466,"9460 MIMOSA, FRISCO, TX, 75034","No_Match",NA,NA,NA,NA
316967,"9460 SOUTH HOBART BOULEVARD","LOS ANGELES","CA",90047,33.950301666,-118.307845383,467,"9460 SOUTH HOBART BOULEVARD, LOS ANGELES, CA, 90047","Match","Exact","9460 S HOBART BLVD, LOS ANGELES, CA, 90047",141659048,"L"
316968,"9460 TOBIN CIR","POTOMAC","MD",20854,39.011780969,-77.171819162,468,"9460 TOBIN CIR, POTOMAC, MD, 20854","Match","Exact","9460 TOBIN CIR, POTOMAC, MD, 20854",62056973,"L"
316969,"9460 WILSHIRE BOULEVARD  SUITE 850","BEVERLY HILLS","CA",90212,34.0670537250001,-118.399147118,469,"9460 WILSHIRE BOULEVARD  SUITE 850, BEVERLY HILLS, CA, 90212","Match","Exact","9460 WILSHIRE BLVD, BEVERLY HILLS, CA, 90212",142718989,"L"
316970,"9461 CHARLEVILLE BLVD STE 248","BEVERLY HILLS","CA",90212,34.064989784,-118.399009264,470,"9461 CHARLEVILLE BLVD STE 248, BEVERLY HILLS, CA, 90212","Match","Exact","9461 CHARLEVILLE BLVD, BEVERLY HILLS, CA, 90212",142718996,"R"
316971,"9461 FENS HOLLOW","LAUREL","MD",20723,39.1326330100001,-76.8406168229999,471,"9461 FENS HOLLOW, LAUREL, MD, 20723","Match","Exact","9461 FENS HOLLOW, LAUREL, MD, 20723",158932605,"L"
316972,"9461 SHAVER DRIVE","BROOKSVILLE","FL",34601,28.5680286300001,-82.317822647,472,"9461 SHAVER DRIVE, BROOKSVILLE, FL, 34601","Match","Exact","9461 SHAVER DR, BROOKSVILLE, FL, 34601",85454225,"L"
316973,"9462 BROWNSBORO ROAD UNIT 135","LOUISVILLE","KY",40241,38.307355955,-85.574883845,473,"9462 BROWNSBORO ROAD UNIT 135, LOUISVILLE, KY, 40241","Match","Exact","9462 BROWNSBORO RD, LOUISVILLE, KY, 40241",96914208,"R"
316974,"9462 FAIRGREEN  LANE","PHILADELPHIA","PA",19114,40.0673082320001,-75.0165645,474,"9462 FAIRGREEN  LANE, PHILADELPHIA, PA, 19114","Match","Exact","9462 FAIRGREEN LN, PHILADELPHIA, PA, 19114",131432521,"L"
316975,"9463 COUNTY ROAD 31",NA,"AL",35953,33.7853355870001,-86.3271025349999,475,"9463 COUNTY ROAD 31, , AL, 35953","Match","Non_Exact","9463 CO HWY 31, ASHVILLE, AL, 35953",66853173,"R"
316976,"9463 DUNRAVEN ST","FREDERICK","MD",21704,39.3394486830001,-77.3378080109999,476,"9463 DUNRAVEN ST, FREDERICK, MD, 21704","Match","Exact","9463 DUNRAVEN ST, FREDERICK, MD, 21704",604675980,"R"
316977,"9463 OSBORN RD","ARLINGTON","TN",38002,35.320256199,-89.750851279,477,"9463 OSBORN RD, ARLINGTON, TN, 38002","Match","Exact","9463 OSBORN RD, ARLINGTON, TN, 38002",72966496,"R"
316978,"9463 W TUFTS AVE","LITTLETON","CO",80123,39.6329555300001,-105.10402581,478,"9463 W TUFTS AVE, LITTLETON, CO, 80123","Match","Exact","9463 W TUFTS AVE, LITTLETON, CO, 80123",646604754,"R"
316979,"9463 WEST TUFTS AVENUE","LITTLETON","CO",80123,39.6329555300001,-105.10402581,479,"9463 WEST TUFTS AVENUE, LITTLETON, CO, 80123","Match","Exact","9463 W TUFTS AVE, LITTLETON, CO, 80123",646604754,"R"
316980,"9464 BILTMORE STREET","WALDORF","MD",20603,38.629944186,-76.9724842649999,480,"9464 BILTMORE STREET, WALDORF, MD, 20603","Match","Exact","9464 BILTMORE ST, WALDORF, MD, 20603",614118562,"R"
316981,"9464 HEMLOCK LN","MAPLE GROVE","MN",55369,45.1274946070001,-93.432305474,481,"9464 HEMLOCK LN, MAPLE GROVE, MN, 55369","Match","Exact","9464 HEMLOCK LN, MAPLE GROVE, MN, 55369",619829102,"L"
316982,"9464 HICKORY RIDGE RD","HARRISBURG","NC",28075,35.2851788880001,-80.624755142,482,"9464 HICKORY RIDGE RD, HARRISBURG, NC, 28075","Match","Exact","9464 HICKORY RIDGE RD, HARRISBURG, NC, 28075",650531990,"R"
316983,"9464 NC HIGHWAY 41 SOUTH","FAIRMONT","NC",28340,34.463088037,-79.1092726159999,483,"9464 NC HIGHWAY 41 SOUTH, FAIRMONT, NC, 28340","Match","Non_Exact","9464 STATE HWY 41, FAIRMONT, NC, 28340",49126752,"L"
316984,"9464 NW 4TH STREET","CORAL SPRINGS","FL",33071,26.235858761,-80.252826641,484,"9464 NW 4TH STREET, CORAL SPRINGS, FL, 33071","Match","Exact","9464 NW 4TH ST, CORAL SPRINGS, FL, 33071",114691480,"R"
316985,"9464 SOHAP LANE","COLUMBIA","MD",21045,39.217565387,-76.838304296,485,"9464 SOHAP LANE, COLUMBIA, MD, 21045","Match","Exact","9464 SOHAP LN, COLUMBIA, MD, 21045",619667722,"R"
316986,"9465 FOREST HILLS PLACE","TAMPA","FL",33612,NA,NA,486,"9465 FOREST HILLS PLACE, TAMPA, FL, 33612","Tie",NA,NA,NA,NA
316987,"9465 GARDEN GROVE BLVD STE 200","GARDEN GROVE","CA",92844,NA,NA,487,"9465 GARDEN GROVE BLVD STE 200, GARDEN GROVE, CA, 92844","No_Match",NA,NA,NA,NA
316988,"9465 HOMEWOOD CIRCLE","OOLTEWAH","TN",37363,35.0654805940001,-85.0425142939999,488,"9465 HOMEWOOD CIRCLE, OOLTEWAH, TN, 37363","Match","Exact","9465 HOMEWOOD CIR, OOLTEWAH, TN, 37363",605434546,"R"
316989,"9465 WILSHIRE BLVD PENTHOUSE","BEVERLY HILLS","CA",90212,34.067067643,-118.399366529,489,"9465 WILSHIRE BLVD PENTHOUSE, BEVERLY HILLS, CA, 90212","Match","Exact","9465 WILSHIRE BLVD, BEVERLY HILLS, CA, 90212",142718989,"R"
316990,"9465 WILSHIRE BLVD SUITE 3014","BEVERLY HILLS","CA",90212,34.067067643,-118.399366529,490,"9465 WILSHIRE BLVD SUITE 3014, BEVERLY HILLS, CA, 90212","Match","Exact","9465 WILSHIRE BLVD, BEVERLY HILLS, CA, 90212",142718989,"R"
316991,"9466 GEORGIA AVE NUM 527","SILVER SPRING","MD",20910,39.0104022190001,-77.0408914349999,491,"9466 GEORGIA AVE NUM 527, SILVER SPRING, MD, 20910","Match","Exact","9466 GEORGIA AVE, SILVER SPRING, MD, 20910",614265473,"L"
316992,"9466 STATE ROUTE 143","MARINE","IL",62061,38.787262571,-89.824063667,492,"9466 STATE ROUTE 143, MARINE, IL, 62061","Match","Exact","9466 STATE RTE 143, MARINE, IL, 62061",107673269,"L"
316993,"9466 VISTA POINT DRIVE","THORNVILLE","OH",43076,39.9202019740001,-82.415548496,493,"9466 VISTA POINT DRIVE, THORNVILLE, OH, 43076","Match","Exact","9466 VISTA POINT DR, THORNVILLE, OH, 43076",634042308,"R"
316994,"9467 BULLION WAY","ORANGEVALE","CA",95662,38.6659395230001,-121.199495018,494,"9467 BULLION WAY, ORANGEVALE, CA, 95662","Match","Exact","9467 BULLION WAY, ORANGEVALE, CA, 95662",133357230,"R"
316995,"9467 JOLIET ST","SAINT JOHN","IN",46373,41.441139671,-87.4505303889999,495,"9467 JOLIET ST, SAINT JOHN, IN, 46373","Match","Exact","9467 JOLIET ST, SAINT JOHN, IN, 46373",649659256,"L"
316996,"9467 PARK ST","ELLSWORTH","MI",49729,45.168609003,-85.247324808,496,"9467 PARK ST, ELLSWORTH, MI, 49729","Match","Exact","9467 PARK ST, ELLSWORTH, MI, 49729",145807868,"L"
316997,"9468 GONZALES DRIVE","DALLAS","TX",75227,32.7668303840001,-96.659022463,497,"9468 GONZALES DRIVE, DALLAS, TX, 75227","Match","Exact","9468 GONZALES DR, DALLAS, TX, 75227",102961321,"R"
316998,"9468 WEST BUCKTOOTH RUN ROAD","LITTLE VALLEY","NY",14755,42.2100239110001,-78.854854447,498,"9468 WEST BUCKTOOTH RUN ROAD, LITTLE VALLEY, NY, 14755","Match","Exact","9468 W BUCKTOOTH RUN RD, LITTLE VALLEY, NY, 14755",122047402,"R"
316999,"9469 BRADMORE LN STE 101","OOLTEWAH","TN",37363,35.0827508880001,-85.054910606,499,"9469 BRADMORE LN STE 101, OOLTEWAH, TN, 37363","Match","Exact","9469 BRADMORE LN, OOLTEWAH, TN, 37363",650185771,"L"
317000,"9469 GLADIOLUS PRESERVE CIR","FORT MYERS","FL",33908,26.5185343840001,-81.9122188059999,500,"9469 GLADIOLUS PRESERVE CIR, FORT MYERS, FL, 33908","Match","Exact","9469 GLADIOLUS PRESERVE CIR, FORT MYERS, FL, 33908",640702469,"R"
