"ID","Address","City","State","Zip","lat","long","id","input_address","match_indicator","match_type","matched_address","tiger_line_id","tiger_side"
150001,"2780 SCHOOL LN","SUAMICO","WI",54313,44.6436570490001,-88.088043983,1,"2780 SCHOOL LN, SUAMICO, WI, 54313","Match","Exact","2780 SCHOOL LN, SUAMICO, WI, 54313",148092574,"R"
150002,"2780 STATE STREET","CARLSBAD","CA",92008,33.1616250430001,-117.350365079,2,"2780 STATE STREET, CARLSBAD, CA, 92008","Match","Exact","2780 STATE ST, CARLSBAD, CA, 92008",195419200,"L"
150003,"2780 VIKING LAKE ROAD","STANTON","IA",51573,40.9717465520001,-95.043200714,3,"2780 VIKING LAKE ROAD, STANTON, IA, 51573","Match","Exact","2780 VIKING LAKE RD, STANTON, IA, 51573",43873263,"R"
150004,"2780 VIRGINIA PARKWAY SUITE 401","MCKINNEY","TX",75071,33.198992924,-96.654036789,4,"2780 VIRGINIA PARKWAY SUITE 401, MCKINNEY, TX, 75071","Match","Exact","2780 VIRGINIA PKWY, MCKINNEY, TX, 75071",634280484,"R"
150005,"2780 W 7 MILE RD","DETROIT","MI",48221,42.431784414,-83.1303331619999,5,"2780 W 7 MILE RD, DETROIT, MI, 48221","Match","Exact","2780 W 7 MILE RD, DETROIT, MI, 48221",633516822,"R"
150006,"2780 W FOX HUNTERS LOOP","LEHI","UT",84043,40.452095248,-111.894603324,6,"2780 W FOX HUNTERS LOOP, LEHI, UT, 84043","Match","Non_Exact","2780 FOX HUNTER LOOP, LEHI, UT, 84043",629755942,"L"
150007,"2780 WADE TRAIL","TALLAHASSEE","FL",32305,30.3302955950001,-84.324577558,7,"2780 WADE TRAIL, TALLAHASSEE, FL, 32305","Match","Exact","2780 WADE TRL, TALLAHASSEE, FL, 32305",82871023,"R"
150008,"2780 WELSFORD RD","COLUMBUS","OH",43221,40.0134640380001,-83.058912315,8,"2780 WELSFORD RD, COLUMBUS, OH, 43221","Match","Exact","2780 WELSFORD RD, COLUMBUS, OH, 43221",218654406,"R"
150009,"2780 WEST MOUNTAIN STREET","KERNERSVILLE","NC",27284,36.112802614,-80.163685608,9,"2780 WEST MOUNTAIN STREET, KERNERSVILLE, NC, 27284","Match","Exact","2780 W MOUNTAIN ST, KERNERSVILLE, NC, 27284",622767869,"L"
150010,"27801 EUCLID AVENUE SUITE 440","EUCLID","OH",44132,41.5943871900001,-81.491155314,10,"27801 EUCLID AVENUE SUITE 440, EUCLID, OH, 44132","Match","Exact","27801 EUCLID AVE, EUCLID, OH, 44132",61133348,"L"
150011,"27801 EUCLID AVENUE SUITE 456","EUCLID","OH",44092,41.5943871900001,-81.491155314,11,"27801 EUCLID AVENUE SUITE 456, EUCLID, OH, 44092","Match","Non_Exact","27801 EUCLID AVE, EUCLID, OH, 44132",61133348,"L"
150012,"27801 EUCLID SUITE 454","EUCLID","OH",44132,41.5943871900001,-81.491155314,12,"27801 EUCLID SUITE 454, EUCLID, OH, 44132","Match","Non_Exact","27801 EUCLID AVE, EUCLID, OH, 44132",61133348,"L"
150013,"27802 CLOUD DANCE CT","MENIFEE","CA",92585,33.7164722480001,-117.174967515,13,"27802 CLOUD DANCE CT, MENIFEE, CA, 92585","Match","Exact","27802 CLOUD DANCE CT, MENIFEE, CA, 92585",195080174,"R"
150014,"27803 COUNTY 135","OSAGE","MN",56570,NA,NA,14,"27803 COUNTY 135, OSAGE, MN, 56570","No_Match",NA,NA,NA,NA
150015,"27805 481ST AVENUE","CANTON","SD",57013,43.358465428,-96.589093243,15,"27805 481ST AVENUE, CANTON, SD, 57013","Match","Exact","27805 481ST AVE, CANTON, SD, 57013",176313081,"L"
150016,"27808 FUNKE RD","FARLEY","IA",52046,42.4189125020001,-91.0260036779999,16,"27808 FUNKE RD, FARLEY, IA, 52046","Match","Exact","27808 FUNKE RD, FARLEY, IA, 52046",16920743,"R"
150017,"2781  SW 4TH COURT","FORT LAUDERDALE","FL",33312,26.116504391,-80.179980428,17,"2781  SW 4TH COURT, FORT LAUDERDALE, FL, 33312","Match","Exact","2781 SW 4TH CT, FORT LAUDERDALE, FL, 33312",114710289,"R"
150018,"2781 ALTA VISTA DRIVE","FALLBROOK","CA",92028,33.3413700610001,-117.215229053,18,"2781 ALTA VISTA DRIVE, FALLBROOK, CA, 92028","Match","Exact","2781 ALTA VISTA DR, FALLBROOK, CA, 92028",651727171,"R"
150019,"2781 BAYWOOD DRIVE","MEMPHIS","TN",38134,35.2015187060001,-89.886375011,19,"2781 BAYWOOD DRIVE, MEMPHIS, TN, 38134","Match","Exact","2781 BAYWOOD DR, MEMPHIS, TN, 38134",72923811,"L"
150020,"2781 BRITT DR","DOUGLASVILLE","GA",30135,33.7269631020001,-84.6678787439999,20,"2781 BRITT DR, DOUGLASVILLE, GA, 30135","Match","Non_Exact","2781 BRITT CT, DOUGLASVILLE, GA, 30135",16649599,"L"
150021,"2781 CRINKLE ROOT DRIVE","FITCHBURG","WI",53711,43.0065248760001,-89.399809093,21,"2781 CRINKLE ROOT DRIVE, FITCHBURG, WI, 53711","Match","Exact","2781 CRINKLE ROOT DR, FITCHBURG, WI, 53711",49520915,"L"
150022,"2781 DEMING BLVD","CHEYENNE","WY",82001,41.1450279910001,-104.779438436,22,"2781 DEMING BLVD, CHEYENNE, WY, 82001","Match","Exact","2781 DEMING BLVD, CHEYENNE, WY, 82001",160151615,"R"
150023,"2781 EAST 66TH STREET","BROOKLYN","NY",11234,40.6048423030001,-73.912802325,23,"2781 EAST 66TH STREET, BROOKLYN, NY, 11234","Match","Exact","2781 E 66TH ST, BROOKLYN, NY, 11234",59092826,"L"
150024,"2781 FM 616 PO BOX 158","BLOOMINGTON","TX",77951,NA,NA,24,"2781 FM 616 PO BOX 158, BLOOMINGTON, TX, 77951","No_Match",NA,NA,NA,NA
150025,"2781 HIGHWAY 41 A NORTH","SHELBYVILLE","TN",37160,NA,NA,25,"2781 HIGHWAY 41 A NORTH, SHELBYVILLE, TN, 37160","No_Match",NA,NA,NA,NA
150026,"2781 HIGHWAY 41 A SOUTH","SHELBYVILLE","TN",37160,NA,NA,26,"2781 HIGHWAY 41 A SOUTH, SHELBYVILLE, TN, 37160","No_Match",NA,NA,NA,NA
150027,"2781 HWY 43 N","LAWRENCEBURG","TN",38464,35.288779161,-87.3115054359999,27,"2781 HWY 43 N, LAWRENCEBURG, TN, 38464","Match","Exact","2781 HWY 43 N, LAWRENCEBURG, TN, 38464",26822469,"L"
150028,"2781 J ST","HUBBARD","OR",97032,NA,NA,28,"2781 J ST, HUBBARD, OR, 97032","No_Match",NA,NA,NA,NA
150029,"2781 KAPIOLANI BLVD APT 502","HONOLULU","HI",96826,21.288142513,-157.817738983,29,"2781 KAPIOLANI BLVD APT 502, HONOLULU, HI, 96826","Match","Exact","2781 KAPIOLANI BLVD, HONOLULU, HI, 96826",636725298,"R"
150030,"2781 MIRA VISTA DR","GLENDALE","CA",91208,34.1874038930001,-118.224637653,30,"2781 MIRA VISTA DR, GLENDALE, CA, 91208","Match","Exact","2781 MIRA VISTA DR, GLENDALE, CA, 91208",638619818,"L"
150031,"2781 NORTHGATE WAY NW","ACWORTH","GA",30101,34.063139822,-84.629755979,31,"2781 NORTHGATE WAY NW, ACWORTH, GA, 30101","Match","Exact","2781 NORTHGATE WAY NW, ACWORTH, GA, 30101",17222001,"L"
150032,"2781 NORTHWOOD COURT","MARIETTA","GA",30060,33.885012246,-84.558443183,32,"2781 NORTHWOOD COURT, MARIETTA, GA, 30060","Match","Exact","2781 NORTHWOOD CT, MARIETTA, GA, 30060",17206636,"L"
150033,"2781 RIALTO CT","KISSIMMEE","FL",34746,28.192949255,-81.432055371,33,"2781 RIALTO CT, KISSIMMEE, FL, 34746","Match","Exact","2781 RIALTO CT, KISSIMMEE, FL, 34746",650164460,"R"
150034,"2781 SOUTH 2700 EAST","SALT LAKE CITY","UT",84109,40.7106406360001,-111.814954871,34,"2781 SOUTH 2700 EAST, SALT LAKE CITY, UT, 84109","Match","Exact","2781 S 2700 E, SALT LAKE CITY, UT, 84109",176093912,"L"
150035,"2781 WELSH RD","PHILADELPHIA","PA",19152,40.065427399,-75.0284204559999,35,"2781 WELSH RD, PHILADELPHIA, PA, 19152","Match","Exact","2781 WELSH RD, PHILADELPHIA, PA, 19152",131432481,"L"
150036,"27810 S STONEY ISLAND AVE","CRETE","IL",60417,41.3864479630001,-87.573857651,36,"27810 S STONEY ISLAND AVE, CRETE, IL, 60417","Match","Exact","27810 S STONEY ISLAND AVE, CRETE, IL, 60417",111554015,"L"
150037,"27811 N 37TH AVE","PHOENIX","AZ",85083,33.736468637,-112.138763561,37,"27811 N 37TH AVE, PHOENIX, AZ, 85083","Match","Exact","27811 N 37TH AVE, PHOENIX, AZ, 85083",243916931,"R"
150038,"27814 ACACIA GLEN LN","KATY","TX",77494,29.717260896,-95.825892618,38,"27814 ACACIA GLEN LN, KATY, TX, 77494","Match","Exact","27814 ACACIA GLEN LN, KATY, TX, 77494",638049350,"L"
150039,"27815 ASTORIA BROOK LANE","KATY","TX",77494,29.742128011,-95.851804331,39,"27815 ASTORIA BROOK LANE, KATY, TX, 77494","Match","Exact","27815 ASTORIA BROOK LN, KATY, TX, 77494",643690616,"R"
150040,"27815 NW N RD","JETMORE","KS",67854,38.1027838910001,-99.899019375,40,"27815 NW N RD, JETMORE, KS, 67854","Match","Exact","27815 NW N RD, JETMORE, KS, 67854",138279153,"L"
150041,"27818 BURCHFIELD GROVE LN","KATY","TX",77494,29.7459662150001,-95.849490567,41,"27818 BURCHFIELD GROVE LN, KATY, TX, 77494","Match","Exact","27818 BURCHFIELD GROVE LN, KATY, TX, 77494",642953521,"R"
150042,"2782 S FM 1138","ROYSE CITY","TX",75189,32.9881792910001,-96.3718852599999,42,"2782 S FM 1138, ROYSE CITY, TX, 75189","Match","Exact","2782 S FM 1138, ROYSE CITY, TX, 75189",210511661,"L"
150043,"2782 SOUTH PARK ROAD","BETHEL PARK","PA",15102,40.3278475810001,-80.034881479,43,"2782 SOUTH PARK ROAD, BETHEL PARK, PA, 15102","Match","Exact","2782 S PARK RD, BETHEL PARK, PA, 15102",51657345,"R"
150044,"2782 VALLEY ROAD","NEW PARIS","PA",15554,40.1195325840001,-78.587891288,44,"2782 VALLEY ROAD, NEW PARIS, PA, 15554","Match","Exact","2782 VALLEY RD, NEW PARIS, PA, 15554",652290898,"R"
150045,"27820 MATHESON AVENUE","BONITA SPRINGS","FL",34135,26.333798508,-81.77079286,45,"27820 MATHESON AVENUE, BONITA SPRINGS, FL, 34135","Match","Exact","27820 MATHESON AVE, BONITA SPGS, FL, 34135",118004146,"L"
150046,"27823 SUNRISE LANE","CANYON COUNTRY","CA",91351,34.4277629210001,-118.481576209,46,"27823 SUNRISE LANE, CANYON COUNTRY, CA, 91351","Match","Exact","27823 SUNRISE LN, CANYON COUNTRY, CA, 91351",141834378,"L"
150047,"27823 WELLBARN AVE","CLOVIS","CA",93619,37.0375124620001,-119.56527722,47,"27823 WELLBARN AVE, CLOVIS, CA, 93619","Match","Non_Exact","27823 WELLBARN RD, CLOVIS, CA, 93619",197631044,"L"
150048,"27828 NEPTUNE RD","CASHTON","WI",54619,43.7729832730001,-90.77497895,48,"27828 NEPTUNE RD, CASHTON, WI, 54619","Match","Exact","27828 NEPTUNE RD, CASHTON, WI, 54619",635618239,"R"
150049,"2783 BECHELLI LANE","REDDING","TN",96002,NA,NA,49,"2783 BECHELLI LANE, REDDING, TN, 96002","No_Match",NA,NA,NA,NA
150050,"2783 BOLZANO DR","APOPKA","FL",32712,NA,NA,50,"2783 BOLZANO DR, APOPKA, FL, 32712","No_Match",NA,NA,NA,NA
150051,"2783 DON JUAN DRIVE","RANCHO CORDOVA","CA",95670,38.598572276,-121.285362946,51,"2783 DON JUAN DRIVE, RANCHO CORDOVA, CA, 95670","Match","Exact","2783 DON JUAN DR, RANCHO CORDOVA, CA, 95670",133348991,"L"
150052,"2783 E MARYLAND AVE","SHERWOOD","AR",72120,34.840853758,-92.19679208,52,"2783 E MARYLAND AVE, SHERWOOD, AR, 72120","Match","Exact","2783 E MARYLAND AVE, SHERWOOD, AR, 72120",650093142,"L"
150053,"2783 KY ROUTE 40 E","PAINTSVILLE","KY",41240,37.8033710020001,-82.764452639,53,"2783 KY ROUTE 40 E, PAINTSVILLE, KY, 41240","Match","Non_Exact","2783 STATE HWY 40, PAINTSVILLE, KY, 41240",33664631,"L"
150054,"2783 N SHILOH DRIVE","FAYETTEVILLE","AR",72704,36.099447377,-94.185811363,54,"2783 N SHILOH DRIVE, FAYETTEVILLE, AR, 72704","Match","Exact","2783 N SHILOH DR, FAYETTEVILLE, AR, 72704",617847170,"L"
150055,"2783 NE NOLL VALLEY LOOP","POULSBO","WA",98370,47.745672181,-122.613271389,55,"2783 NE NOLL VALLEY LOOP, POULSBO, WA, 98370","Match","Exact","2783 NE NOLL VALLEY LOOP, POULSBO, WA, 98370",640184315,"L"
150056,"2783 SCOTT AVE","CLOVIS","CA",93611,36.8112736160001,-119.660082032,56,"2783 SCOTT AVE, CLOVIS, CA, 93611","Match","Non_Exact","2783 SCOTT, CLOVIS, CA, 93611",606268044,"L"
150057,"2783 WAYNESBURG DR SE","CANTON","OH",44707,40.766128499,-81.333560402,57,"2783 WAYNESBURG DR SE, CANTON, OH, 44707","Match","Exact","2783 WAYNESBURG DR SE, CANTON, OH, 44707",64686168,"R"
150058,"27830 ALEUTIA WAY","YORBA LINDA","CA",92887,33.8841246810001,-117.711159983,58,"27830 ALEUTIA WAY, YORBA LINDA, CA, 92887","Match","Exact","27830 ALEUTIA WAY, YORBA LINDA, CA, 92887",144126541,"R"
150059,"27830 CARNEGIE AVENUE","SAUGUS","CA",91350,34.454900051,-118.526785676,59,"27830 CARNEGIE AVENUE, SAUGUS, CA, 91350","Match","Exact","27830 CARNEGIE AVE, SAUGUS, CA, 91350",653251348,"L"
150060,"27830 LAKESHORE BLVD","EUCLID","OH",44123,41.6257985730001,-81.491276602,60,"27830 LAKESHORE BLVD, EUCLID, OH, 44123","Match","Non_Exact","27830 LAKESHORE BLVD, EUCLID, OH, 44132",61132826,"R"
150061,"27831 LOST SPRINGS ROAD","CANYON COUNTRY","CA",91387,34.4178113400001,-118.444585154,61,"27831 LOST SPRINGS ROAD, CANYON COUNTRY, CA, 91387","Match","Exact","27831 LOST SPRINGS RD, CANYON COUNTRY, CA, 91387",141520518,"L"
150062,"27831 SILVERTON CT","VALENCIA","CA",91354,34.4491735610001,-118.5500489,62,"27831 SILVERTON CT, VALENCIA, CA, 91354","Match","Exact","27831 SILVERTON CT, VALENCIA, CA, 91354",141855398,"L"
150063,"27831 SMYTH DR","VALENCIA","CA",91355,34.441615056,-118.568683675,63,"27831 SMYTH DR, VALENCIA, CA, 91355","Match","Exact","27831 SMYTH DR, VALENCIA, CA, 91355",653192318,"R"
150064,"27836 VIA SARASATE","MISSION VIEJO","CA",92692,33.612045908,-117.644413379,64,"27836 VIA SARASATE, MISSION VIEJO, CA, 92692","Match","Exact","27836 VIA SARASATE, MISSION VIEJO, CA, 92692",144067150,"R"
150065,"27837 SUNSET BLVD W","LATHRUP VILLAGE","MI",48227,42.4943871850001,-83.2240694499999,65,"27837 SUNSET BLVD W, LATHRUP VILLAGE, MI, 48227","Match","Non_Exact","27837 SUNSET BLVD W, LATHRUP VILLAGE, MI, 48076",69739674,"L"
150066,"2784 ARENIA C MALLORY RD","LEXINGTON","MS",39095,NA,NA,66,"2784 ARENIA C MALLORY RD, LEXINGTON, MS, 39095","No_Match",NA,NA,NA,NA
150067,"2784 BRADY STREET","BATON ROUGE","LA",70805,30.474618612,-91.160877942,67,"2784 BRADY STREET, BATON ROUGE, LA, 70805","Match","Exact","2784 BRADY ST, BATON ROUGE, LA, 70805",92181375,"R"
150068,"2784 EAST 12TH STREET APT 2A","BROOKLYN","NY",11235,40.5834445720001,-73.9572844149999,68,"2784 EAST 12TH STREET APT 2A, BROOKLYN, NY, 11235","Match","Exact","2784 E 12TH ST, BROOKLYN, NY, 11235",59091691,"R"
150069,"2784 FM 54","ANTON","TX",79313,NA,NA,69,"2784 FM 54, ANTON, TX, 79313","No_Match",NA,NA,NA,NA
150070,"2784 HOMESTEAD ROAD - 301","SANTA CLARA","CA",95051,37.338617153,-121.976112949,70,"2784 HOMESTEAD ROAD - 301, SANTA CLARA, CA, 95051","Match","Exact","2784 HOMESTEAD RD, SANTA CLARA, CA, 95051",638614532,"L"
150071,"2784 HOMESTEAD ROAD SUITE244","SANTA CLARA","CA",95051,37.338617153,-121.976112949,71,"2784 HOMESTEAD ROAD SUITE244, SANTA CLARA, CA, 95051","Match","Exact","2784 HOMESTEAD RD, SANTA CLARA, CA, 95051",638614532,"L"
150072,"2784 NORTHRIDGE DRIVE EAST","CLEARWATER","FL",33761,28.0404014810001,-82.722045408,72,"2784 NORTHRIDGE DRIVE EAST, CLEARWATER, FL, 33761","Match","Exact","2784 NORTHRIDGE DR E, CLEARWATER, FL, 33761",124681176,"L"
150073,"2784 POND PL","BRONX","NY",10458,40.867276927,-73.888353872,73,"2784 POND PL, BRONX, NY, 10458","Match","Exact","2784 POND PL, BRONX, NY, 10458",80298902,"R"
150074,"2784 SHAUGHNESSY DRIVE","WELLINGTON","FL",33414,26.6376735970001,-80.1989531849999,74,"2784 SHAUGHNESSY DRIVE, WELLINGTON, FL, 33414","Match","Exact","2784 SHAUGHNESSY DR, WELLINGTON, FL, 33414",115584004,"L"
150075,"2784 SW 34TH AVENUE","MIAMI","FL",33133,25.739454697,-80.249687949,75,"2784 SW 34TH AVENUE, MIAMI, FL, 33133","Match","Exact","2784 SW 34TH AVE, MIAMI, FL, 33133",116263991,"R"
150076,"2784 TANAGER DR","COLUMBUS","OH",43230,NA,NA,76,"2784 TANAGER DR, COLUMBUS, OH, 43230","No_Match",NA,NA,NA,NA
150077,"2784 WEST 1200 NORTH","ROOSEVELT","UT",84066,40.3191244750001,-110.044456146,77,"2784 WEST 1200 NORTH, ROOSEVELT, UT, 84066","Match","Exact","2784 W 1200 N, ROOSEVELT, UT, 84066",645540166,"L"
150078,"27841 COUNTY M","HOLCOMBE","WI",54745,NA,NA,78,"27841 COUNTY M, HOLCOMBE, WI, 54745","No_Match",NA,NA,NA,NA
150079,"27845 BAY SHORE DR NW","ISANTI","MN",55040,45.473853186,-93.350457416,79,"27845 BAY SHORE DR NW, ISANTI, MN, 55040","Match","Exact","27845 BAY SHORE DR NW, ISANTI, MN, 55040",636245933,"R"
150080,"27845 SOUTH KUERSTEN ROAD","MONEE","IL",60449,41.385609835,-87.7183863819999,80,"27845 SOUTH KUERSTEN ROAD, MONEE, IL, 60449","Match","Exact","27845 S KUERSTEN RD, MONEE, IL, 60449",111552157,"L"
150081,"27846 MADLYN DRIVE","ROCK FALLS","IL",61071,41.731585803,-89.729046898,81,"27846 MADLYN DRIVE, ROCK FALLS, IL, 61071","Match","Exact","27846 MADLYN DR, ROCK FALLS, IL, 61071",48972112,"R"
150082,"2785 3RD ST","SPRINGFIELD","OR",97477,44.0732896150001,-123.022091715,82,"2785 3RD ST, SPRINGFIELD, OR, 97477","Match","Exact","2785 3RD ST, SPRINGFIELD, OR, 97477",178172322,"R"
150083,"2785 E DESERT INN RD SUITE 210","LAS VEGAS","NV",89121,36.129781279,-115.112074184,83,"2785 E DESERT INN RD SUITE 210, LAS VEGAS, NV, 89121","Match","Non_Exact","2785 E DESERT INN RD, LAS VEGAS, NV, 89121",201871776,"R"
150084,"2785 E GRAND BLVD","DETROIT","MI",48211,42.373985126,-83.0629457049999,84,"2785 E GRAND BLVD, DETROIT, MI, 48211","Match","Non_Exact","2785 E GRAND BLVD, DETROIT, MI, 48202",647879037,"L"
150085,"2785 E GRAND BOULEVARD","DETROIT","MI",48211,42.373985126,-83.0629457049999,85,"2785 E GRAND BOULEVARD, DETROIT, MI, 48211","Match","Non_Exact","2785 E GRAND BLVD, DETROIT, MI, 48202",647879037,"L"
150086,"2785 E NEAL AVE","KINGMAN","AZ",86409,35.2556278370001,-114.015700623,86,"2785 E NEAL AVE, KINGMAN, AZ, 86409","Match","Exact","2785 NEAL AVE, KINGMAN, AZ, 86409",190307869,"L"
150087,"2785 E TYGER BRIDGE RD","GREER","SC",29651,35.028507436,-82.338385371,87,"2785 E TYGER BRIDGE RD, GREER, SC, 29651","Match","Exact","2785 E TYGER BRIDGE RD, GREER, SC, 29651",652910485,"L"
150088,"2785 NEWCASTLE RD","MARION","IA",52302,42.049710755,-91.6222284899999,88,"2785 NEWCASTLE RD, MARION, IA, 52302","Match","Exact","2785 NEWCASTLE RD, MARION, IA, 52302",17035870,"L"
150089,"2785 NOBLE FIR COURT","WOODBRIDGE","VA",22912,38.6682304080001,-77.295746663,89,"2785 NOBLE FIR COURT, WOODBRIDGE, VA, 22912","Match","Non_Exact","2785 NOBLE FIR CT, WOODBRIDGE, VA, 22192",207155136,"R"
150090,"2785 PACIFIC COAST HIGHWAY 171","TORRANCE","CA",90505,33.794061099,-118.335831202,90,"2785 PACIFIC COAST HIGHWAY 171, TORRANCE, CA, 90505","Match","Exact","2785 PACIFIC COAST HWY, TORRANCE, CA, 90505",241243240,"R"
150091,"2785 PACIFIC COAST HIGHWAY SUITE G","TORRANCE","CA",90505,33.794061099,-118.335831202,91,"2785 PACIFIC COAST HIGHWAY SUITE G, TORRANCE, CA, 90505","Match","Exact","2785 PACIFIC COAST HWY, TORRANCE, CA, 90505",241243240,"R"
150092,"2785 PACIFIC COAST HIGHWAY","TORRANCE","CA",90505,33.794061099,-118.335831202,92,"2785 PACIFIC COAST HIGHWAY, TORRANCE, CA, 90505","Match","Exact","2785 PACIFIC COAST HWY, TORRANCE, CA, 90505",241243240,"R"
150093,"2785 PACIFIC COAST HWY PMB E164","TORRANCE","CA",90505,33.794061099,-118.335831202,93,"2785 PACIFIC COAST HWY PMB E164, TORRANCE, CA, 90505","Match","Exact","2785 PACIFIC COAST HWY, TORRANCE, CA, 90505",241243240,"R"
150094,"2785 PACIFIC COAST HWY STE E -916","TORRANCE","CA",90505,33.794061099,-118.335831202,94,"2785 PACIFIC COAST HWY STE E -916, TORRANCE, CA, 90505","Match","Exact","2785 PACIFIC COAST HWY, TORRANCE, CA, 90505",241243240,"R"
150095,"2785 S 800 E","SALT LAKE CITY","UT",84106,40.7106694070001,-111.868306816,95,"2785 S 800 E, SALT LAKE CITY, UT, 84106","Match","Exact","2785 S 800 E, SALT LAKE CITY, UT, 84106",176080993,"L"
150096,"2785 SUNLIGHT DR","LITTLE ELM","TX",75068,33.1813932200001,-96.888704977,96,"2785 SUNLIGHT DR, LITTLE ELM, TX, 75068","Match","Exact","2785 SUNLIGHT DR, LITTLE ELM, TX, 75068",618926639,"R"
150097,"2785 TALLOWOOD DR","LEAGUE CITY","TX",77573,29.5236490390001,-95.058193289,97,"2785 TALLOWOOD DR, LEAGUE CITY, TX, 77573","Match","Exact","2785 TALLOWOOD DR, LEAGUE CITY, TX, 77573",96682887,"L"
150098,"2785 WALSTON RD","PUNXSUTAWNEY","PA",15767,40.9696397160001,-79.009794078,98,"2785 WALSTON RD, PUNXSUTAWNEY, PA, 15767","Match","Exact","2785 WALSTON RD, PUNXSUTAWNEY, PA, 15767",66428773,"L"
150099,"2785 WRIGHTS ROAD SUITE 1125","OVIEDO","FL",32765,28.6204580350001,-81.2533815419999,99,"2785 WRIGHTS ROAD SUITE 1125, OVIEDO, FL, 32765","Match","Exact","2785 WRIGHTS RD, OVIEDO, FL, 32765",627623306,"R"
150100,"27851 FM 362","WALLER","TX",77484,30.185315862,-95.927004465,100,"27851 FM 362, WALLER, TX, 77484","Match","Non_Exact","27851 FM 362 RD, WALLER, TX, 77484",648099930,"L"
150101,"27854 MEADOWBROOK","LIVONIA","MI",48154,42.39342328,-83.3199918669999,101,"27854 MEADOWBROOK, LIVONIA, MI, 48154","Match","Non_Exact","27854 MEADOWBROOK ST, LIVONIA, MI, 48154",95683792,"R"
150102,"27855 ALDER GLEN CIRCLE","VALENCIA","CA",91354,34.4554350130001,-118.539493133,102,"27855 ALDER GLEN CIRCLE, VALENCIA, CA, 91354","Match","Exact","27855 ALDER GLEN CIR, VALENCIA, CA, 91354",141518616,"L"
150103,"27856 HWY 385","HOT SPRINGS","SD",57747,NA,NA,103,"27856 HWY 385, HOT SPRINGS, SD, 57747","No_Match",NA,NA,NA,NA
150104,"27858 GLASSER AVE","CANYON COUNTRY","CA",91351,34.429059818,-118.48019271,104,"27858 GLASSER AVE, CANYON COUNTRY, CA, 91351","Match","Exact","27858 GLASSER AVE, CANYON COUNTRY, CA, 91351",142822003,"R"
150105,"2786 ARROWWOOD CT","STERLING HTS","MI",48314,42.6142672570001,-83.082452772,105,"2786 ARROWWOOD CT, STERLING HTS, MI, 48314","Match","Exact","2786 ARROWWOOD CT, STERLING HEIGHTS, MI, 48314",110708273,"L"
150106,"2786 GRACE LANE","SEBRING","FL",33875,27.388577475,-81.453414674,106,"2786 GRACE LANE, SEBRING, FL, 33875","Match","Exact","2786 GRACE LN, SEBRING, FL, 33875",4668003,"R"
150107,"2786 HERA HEIGHTS CT","HENDERSON","NV",89052,35.985637173,-115.109273207,107,"2786 HERA HEIGHTS CT, HENDERSON, NV, 89052","Match","Exact","2786 HERA HEIGHTS CT, HENDERSON, NV, 89052",650790057,"R"
150108,"2786 KNOLLVIEW DRIVE","DECATUR","GA",30034,33.705069887,-84.2472991559999,108,"2786 KNOLLVIEW DRIVE, DECATUR, GA, 30034","Match","Exact","2786 KNOLLVIEW DR, DECATUR, GA, 30034",23371182,"L"
150109,"2786 MARQUOIS DR","ORANGE PARK","FL",32073,30.149192025,-81.735736221,109,"2786 MARQUOIS DR, ORANGE PARK, FL, 32073","Match","Exact","2786 MARQUOIS DR, ORANGE PARK, FL, 32073",83814925,"R"
150110,"2786 MT LAUREL DR","GRETNA","LA",70056,29.874450402,-90.03093795,110,"2786 MT LAUREL DR, GRETNA, LA, 70056","Match","Exact","2786 MOUNT LAUREL DR, GRETNA, LA, 70056",93535515,"L"
150111,"2786 SHANER DR","ALAMEDA","CA",94502,37.7353883010001,-122.250221042,111,"2786 SHANER DR, ALAMEDA, CA, 94502","Match","Exact","2786 SHANER DR, ALAMEDA, CA, 94502",125052120,"L"
150112,"2786 WYNN STREET","MARIANNA","FL",32448,30.7676735530001,-85.2335017939999,112,"2786 WYNN STREET, MARIANNA, FL, 32448","Match","Exact","2786 WYNN ST, MARIANNA, FL, 32448",7181832,"R"
150113,"2786","BANGOR","ME",4402,NA,NA,113,"2786, BANGOR, ME, 4402","No_Match",NA,NA,NA,NA
150114,"27865 INDEPENDENCE STREET APT 203L","FARMINGTON HILLS","MI",48336,42.44913791,-83.323218418,114,"27865 INDEPENDENCE STREET APT 203L, FARMINGTON HILLS, MI, 48336","Match","Exact","27865 INDEPENDENCE ST, FARMINGTON HILLS, MI, 48336",69777489,"L"
150115,"27869 HIGHWAY 5","LEBANON","MO",65536,37.7442357080001,-92.673747823,115,"27869 HIGHWAY 5, LEBANON, MO, 65536","Match","Non_Exact","27869 STATE HWY 5, LEBANON, MO, 65536",638629678,"L"
150116,"2787 AURORA ROAD","MELBOURNE","FL",32935,28.1358542360001,-80.6685992499999,116,"2787 AURORA ROAD, MELBOURNE, FL, 32935","Match","Exact","2787 AURORA RD, MELBOURNE, FL, 32935",647535927,"L"
150117,"2787 BEAVERTAIL LANE","STEVENSVILLE","MT",59870,46.4427393600001,-114.108109652,117,"2787 BEAVERTAIL LANE, STEVENSVILLE, MT, 59870","Match","Exact","2787 BEAVERTAIL LN, STEVENSVILLE, MT, 59870",153525295,"R"
150118,"2787 E ONEILL STREET","YUMA","AZ",85369,NA,NA,118,"2787 E ONEILL STREET, YUMA, AZ, 85369","No_Match",NA,NA,NA,NA
150119,"2787 FAIRWAY PARK ST","GRAND PRAIRIE","TX",75050,32.770792826,-97.04813274,119,"2787 FAIRWAY PARK ST, GRAND PRAIRIE, TX, 75050","Match","Exact","2787 FAIRWAY PARK ST, GRAND PRAIRIE, TX, 75050",617670462,"L"
150120,"2787 GEORGE BLAUER PLACE","SAN JOSE","CA",95135,37.296221072,-121.769428185,120,"2787 GEORGE BLAUER PLACE, SAN JOSE, CA, 95135","Match","Exact","2787 GEORGE BLAUER PL, SAN JOSE, CA, 95135",618195498,"L"
150121,"2787 HILLCREST AVE","HAYWARD","CA",94542,37.6594654880001,-122.047034512,121,"2787 HILLCREST AVE, HAYWARD, CA, 94542","Match","Exact","2787 HILLCREST AVE, HAYWARD, CA, 94542",125050537,"R"
150122,"2787 MORLEY PL","LOGAN","IA",51546,41.6050423500001,-95.8381784859999,122,"2787 MORLEY PL, LOGAN, IA, 51546","Match","Exact","2787 MORLEY PL, LOGAN, IA, 51546",130981759,"R"
150123,"2787 N HOUSTON ST STE 3080","DALLAS","TX",75219,32.7935701530001,-96.812071725,123,"2787 N HOUSTON ST STE 3080, DALLAS, TX, 75219","Match","Non_Exact","2787 N HOUSTON ST, DALLAS, TX, 75219",103230680,"L"
150124,"2787 N HOUSTON STREET","DALLAS","TX",75219,32.7935701530001,-96.812071725,124,"2787 N HOUSTON STREET, DALLAS, TX, 75219","Match","Exact","2787 N HOUSTON ST, DALLAS, TX, 75219",103230680,"L"
150125,"2787 NORTH HOUSTON STREET","DALLAS","TX",75219,32.7935380370001,-96.812042918,125,"2787 NORTH HOUSTON STREET, DALLAS, TX, 75219","Match","Exact","2787 N HOUSTON ST, DALLAS, TX, 75219",103230680,"L"
150126,"2787 NORTH SECOND STREET","MEMPHIS","TN",38127,35.1992200810001,-90.052545806,126,"2787 NORTH SECOND STREET, MEMPHIS, TN, 38127","Match","Exact","2787 N 2ND ST, MEMPHIS, TN, 38127",72901723,"R"
150127,"2787 STEVENS CREEK RD","BIRMINGHAM","AL",35244,33.388185551,-86.7417400309999,127,"2787 STEVENS CREEK RD, BIRMINGHAM, AL, 35244","Match","Exact","2787 STEVENS CREEK RD, BIRMINGHAM, AL, 35244",82111919,"L"
150128,"2787 TUSCALOOSA ST","SAN DIEGO","CA",92110,32.745073201,-117.206340103,128,"2787 TUSCALOOSA ST, SAN DIEGO, CA, 92110","Match","Exact","2787 TUSCALOOSA ST, SAN DIEGO, CA, 92110",195701058,"L"
150129,"2787 VIA ALTA PL","SAN DIEGO","CA",92108,32.783031092,-117.145917874,129,"2787 VIA ALTA PL, SAN DIEGO, CA, 92108","Match","Exact","2787 VIA ALTA PL, SAN DIEGO, CA, 92108",652086623,"R"
150130,"2787 W BULLARD AVE SUITE 101","FRESNO","CA",93711,36.8226788790001,-119.843744844,130,"2787 W BULLARD AVE SUITE 101, FRESNO, CA, 93711","Match","Non_Exact","2787 W BULLARD AVE, FRESNO, CA, 93711",625211964,"L"
150131,"2787 W SPARKFORD DRIVE","SALT LAKE CITY","UT",84129,NA,NA,131,"2787 W SPARKFORD DRIVE, SALT LAKE CITY, UT, 84129","No_Match",NA,NA,NA,NA
150132,"2787 WESTMINSTER DR","FLORISSANT","MO",63303,38.818265803,-90.299254651,132,"2787 WESTMINSTER DR, FLORISSANT, MO, 63303","Match","Non_Exact","2787 WESTMINSTER DR, FLORISSANT, MO, 63033",100143757,"R"
150133,"27871 E 199TH ST S","COWETA","OK",74429,NA,NA,133,"27871 E 199TH ST S, COWETA, OK, 74429","No_Match",NA,NA,NA,NA
150134,"27871 ROBIN ROOST LANE","ZEPHYRHILLS","FL",33544,28.2649874570001,-82.35499208,134,"27871 ROBIN ROOST LANE, ZEPHYRHILLS, FL, 33544","Match","Exact","27871 ROBIN ROOST LN, ZEPHYRHILLS, FL, 33544",86344302,"L"
150135,"27872 MANOR HILL ROAD","LAGUNA NIGUEL","CA",92677,33.557945514,-117.696134461,135,"27872 MANOR HILL ROAD, LAGUNA NIGUEL, CA, 92677","Match","Exact","27872 MANOR HILL RD, LAGUNA NIGUEL, CA, 92677",637382491,"L"
150136,"27879 ARROWHEAD CIR","PUNTA GORDA","FL",33982,26.953631349,-81.992494595,136,"27879 ARROWHEAD CIR, PUNTA GORDA, FL, 33982","Match","Exact","27879 ARROWHEAD CIR, PUNTA GORDA, FL, 33982",640815072,"R"
150137,"2788 BELLMORE AVE","BELLMORE","NY",11710,40.6543982800001,-73.52310898,137,"2788 BELLMORE AVE, BELLMORE, NY, 11710","Match","Exact","2788 BELLMORE AVE, BELLMORE, NY, 11710",147637396,"R"
150138,"2788 KING EDWARD DRIVE","EL DORADO HILLS","CA",95762,38.6928669810001,-121.084019468,138,"2788 KING EDWARD DRIVE, EL DORADO HILLS, CA, 95762","Match","Exact","2788 KING EDWARD DR, EL DORADO HILLS, CA, 95762",651363157,"R"
150139,"2788 PROVIDENCE ROAD","LIVINGSTON","TX",77351,30.6475631640001,-94.879041792,139,"2788 PROVIDENCE ROAD, LIVINGSTON, TX, 77351","Match","Exact","2788 PROVIDENCE RD, LIVINGSTON, TX, 77351",629024825,"L"
150140,"2788 THOMPSONS STATION ROAD EAST","THOMPSON STATION","TN",37179,35.7912070040001,-86.8781060869999,140,"2788 THOMPSONS STATION ROAD EAST, THOMPSON STATION, TN, 37179","Match","Non_Exact","2788 THOMPSON STATION RD E, THOMPSONS STATION, TN, 37179",73117666,"R"
150141,"2788 VIA BAYA LANE","JACKSONVILLE","FL",32223,30.1698875330001,-81.6382204019999,141,"2788 VIA BAYA LANE, JACKSONVILLE, FL, 32223","Match","Exact","2788 VIA BAYA LN, JACKSONVILLE, FL, 32223",83943989,"R"
150142,"2788 W 8580 S  APT 1005","WEST JORDAN","UT",84088,NA,NA,142,"2788 W 8580 S  APT 1005, WEST JORDAN, UT, 84088","No_Match",NA,NA,NA,NA
150143,"2788 W MEDALLION DR","TUCSON","AZ",85741,32.349553153,-111.027934971,143,"2788 W MEDALLION DR, TUCSON, AZ, 85741","Match","Exact","2788 W MEDALLION DR, TUCSON, AZ, 85741",121407176,"R"
150144,"27881 SW 139 COURT","HOMESTEAD","FL",33032,25.5082934060001,-80.4168774679999,144,"27881 SW 139 COURT, HOMESTEAD, FL, 33032","Match","Exact","27881 SW 139TH CT, HOMESTEAD, FL, 33032",641567408,"L"
150145,"27884 CO RD 2","ST JOSEPH","MN",56374,45.5287354440001,-94.358011582,145,"27884 CO RD 2, ST JOSEPH, MN, 56374","Match","Exact","27884 CO RD 2, SAINT JOSEPH, MN, 56374",611989545,"R"
150146,"2789 CONEJO","SAN BERNARDINO","CA",92404,34.142574601,-117.259314031,146,"2789 CONEJO, SAN BERNARDINO, CA, 92404","Match","Non_Exact","2789 CONEJO DR, SAN BERNARDINO, CA, 92404",144993151,"R"
150147,"2789 COUNTY ROAD 410","PADUCAH","TX",79248,34.0250244600001,-100.185187483,147,"2789 COUNTY ROAD 410, PADUCAH, TX, 79248","Match","Exact","2789 CO RD 410, PADUCAH, TX, 79248",164705270,"R"
150148,"2789 DORSON WAY","DELRAY BEACH","FL",33445,26.4698836090001,-80.10305392,148,"2789 DORSON WAY, DELRAY BEACH, FL, 33445","Match","Non_Exact","2789 SE DORSON WAY, DELRAY BEACH, FL, 33445",115290662,"L"
150149,"2789 NE 5TH ST","POMPANO BEACH","FL",33062,26.236819113,-80.0937782839999,149,"2789 NE 5TH ST, POMPANO BEACH, FL, 33062","Match","Exact","2789 NE 5TH ST, POMPANO BEACH, FL, 33062",114696076,"R"
150150,"2789 RAY LAWYER DR 60","Placerville","CA",95682,NA,NA,150,"2789 RAY LAWYER DR 60, Placerville, CA, 95682","No_Match",NA,NA,NA,NA
150151,"2789 SOYAL OVI","FLAGSTAFF","AZ",86005,NA,NA,151,"2789 SOYAL OVI, FLAGSTAFF, AZ, 86005","No_Match",NA,NA,NA,NA
150152,"2789 US HIGHWAY 221 N","JEFFERSON","NC",28640,36.4349309570001,-81.439862725,152,"2789 US HIGHWAY 221 N, JEFFERSON, NC, 28640","Match","Exact","2789 US HWY 221 N, JEFFERSON, NC, 28640",632826649,"L"
150153,"2789 W VICENT ST","SPRINGFIELD","MO",65810,NA,NA,153,"2789 W VICENT ST, SPRINGFIELD, MO, 65810","No_Match",NA,NA,NA,NA
150154,"2789 WEEPING WILLOW DRIVE APT B","LISLE","IL",60532,41.7759513410001,-88.105505798,154,"2789 WEEPING WILLOW DRIVE APT B, LISLE, IL, 60532","Match","Exact","2789 WEEPING WILLOW DR, LISLE, IL, 60532",112556689,"R"
150155,"2789 WILLIE MAYS PKWY","ORLANDO","FL",32811,28.512754912,-81.437722228,155,"2789 WILLIE MAYS PKWY, ORLANDO, FL, 32811","Match","Exact","2789 WILLIE MAYS PKWY, ORLANDO, FL, 32811",606116278,"L"
150156,"27890 CLINTON KEITH RD SUITE D 482","MURRIETA","CA",92562,33.598829392,-117.175822358,156,"27890 CLINTON KEITH RD SUITE D 482, MURRIETA, CA, 92562","Match","Exact","27890 CLINTON KEITH RD, MURRIETA, CA, 92562",639973352,"L"
150157,"27890 CLINTON KEITH RD SUITE D455","MURRIETA","CA",92562,33.598829392,-117.175822358,157,"27890 CLINTON KEITH RD SUITE D455, MURRIETA, CA, 92562","Match","Exact","27890 CLINTON KEITH RD, MURRIETA, CA, 92562",639973352,"L"
150158,"27892 DOANE RD","HARLINGEN","TX",78552,26.1539301500001,-97.7617641849999,158,"27892 DOANE RD, HARLINGEN, TX, 78552","Match","Exact","27892 DOANE RD, HARLINGEN, TX, 78552",90009382,"R"
150159,"278C WINDSOR CT","SOUTH ELGIN","IL",60177,41.9891006460001,-88.298368526,159,"278C WINDSOR CT, SOUTH ELGIN, IL, 60177","Match","Exact","278 WINDSOR CT, SOUTH ELGIN, IL, 60177",119551097,"L"
150160,"278O OSBURN AVE","OSKALOOSA","IA",52577,NA,NA,160,"278O OSBURN AVE, OSKALOOSA, IA, 52577","No_Match",NA,NA,NA,NA
150161,"279 3RD ST NE","CARROLLTON","OH",44615,40.57297463,-81.081199789,161,"279 3RD ST NE, CARROLLTON, OH, 44615","Match","Exact","279 3RD ST NE, CARROLLTON, OH, 44615",44181555,"R"
150162,"279 ADELAIDE ST","NEW BEDFORD","MA",2745,41.690037514,-70.9306861329999,162,"279 ADELAIDE ST, NEW BEDFORD, MA, 2745","Match","Exact","279 ADELAIDE ST, NEW BEDFORD, MA, 02745",46750223,"L"
150163,"279 BEAVER","MASTIC BEACH","NY",11951,40.7723054670001,-72.8437727629999,163,"279 BEAVER, MASTIC BEACH, NY, 11951","Match","Non_Exact","279 BEAVER DR, MASTIC BEACH, NY, 11951",114020996,"L"
150164,"279 BILL JONES RD","JONESBOROUGH","TN",37659,36.236902898,-82.448097003,164,"279 BILL JONES RD, JONESBOROUGH, TN, 37659","Match","Exact","279 BILL JONES RD, JONESBOROUGH, TN, 37659",127942258,"L"
150165,"279 BOYD JACKSON ROAD","SEBREE","KY",42455,37.558769575,-87.460344119,165,"279 BOYD JACKSON ROAD, SEBREE, KY, 42455","Match","Exact","279 BOYD JACKSON RD, SEBREE, KY, 42455",651223121,"L"
150166,"279 BRIARWOOD CIRCLE","HINESVILLE","GA",31313,31.795751425,-81.639517429,166,"279 BRIARWOOD CIRCLE, HINESVILLE, GA, 31313","Match","Exact","279 BRIARWOOD CIR, HINESVILLE, GA, 31313",649879212,"L"
150167,"279 CARL CLOUD ROAD","CLIMAX","GA",39834,30.827131573,-84.431451938,167,"279 CARL CLOUD ROAD, CLIMAX, GA, 39834","Match","Exact","279 CARL CLOUD RD, CLIMAX, GA, 39834",607025491,"R"
150168,"279 CARRAIGE LN","POWDER SPRINGS","GA",30127,33.8415284280001,-84.752619551,168,"279 CARRAIGE LN, POWDER SPRINGS, GA, 30127","Match","Non_Exact","279 CARRIAGE LN, POWDER SPGS, GA, 30127",642893617,"L"
150169,"279 CECILIA WAY","TIBURON","CA",94920,37.8998590960001,-122.499147334,169,"279 CECILIA WAY, TIBURON, CA, 94920","Match","Exact","279 CECILIA WAY, TIBURON, CA, 94920",192768821,"L"
150170,"279 CERRO DRIVE","DALY CITY","CA",94015,37.6731889110001,-122.475749488,170,"279 CERRO DRIVE, DALY CITY, CA, 94015","Match","Exact","279 CERRO DR, DALY CITY, CA, 94015",192401446,"L"
150171,"279 CHALKLEY RD","TEMPLE","GA",30179,NA,NA,171,"279 CHALKLEY RD, TEMPLE, GA, 30179","No_Match",NA,NA,NA,NA
150172,"279 CHAPEL HILL ROAD","SHELBYVILLE","KY",40065,NA,NA,172,"279 CHAPEL HILL ROAD, SHELBYVILLE, KY, 40065","No_Match",NA,NA,NA,NA
150173,"279 COLUMBIA AVENUE","CLIFFSIDE PARK","NJ",7010,40.826489387,-73.986296188,173,"279 COLUMBIA AVENUE, CLIFFSIDE PARK, NJ, 7010","Match","Exact","279 COLUMBIA AVE, CLIFFSIDE PARK, NJ, 07010",64391440,"R"
150174,"279 CREEKSIDE LANE","PELHAM","AL",35124,33.266815309,-86.8151291469999,174,"279 CREEKSIDE LANE, PELHAM, AL, 35124","Match","Exact","279 CREEKSIDE LN, PELHAM, AL, 35124",641201139,"R"
150175,"279 CURTIS CREEK ROAD","CANDLER","NC",28715,35.5073146130001,-82.755372902,175,"279 CURTIS CREEK ROAD, CANDLER, NC, 28715","Match","Exact","279 CURTIS CREEK RD, CANDLER, NC, 28715",637653399,"L"
150176,"279 DEXTER ST","PROVIDENCE","RI",2907,41.8093189640001,-71.428133937,176,"279 DEXTER ST, PROVIDENCE, RI, 2907","Match","Exact","279 DEXTER ST, PROVIDENCE, RI, 02907",47461366,"R"
150177,"279 E DAISY CIRCLE","ROMEOVILLE","IL",60446,NA,NA,177,"279 E DAISY CIRCLE, ROMEOVILLE, IL, 60446","Tie",NA,NA,NA,NA
150178,"279 EAST 7TH AVENUE","CHICO","CA",95926,39.745339475,-121.847418916,178,"279 EAST 7TH AVENUE, CHICO, CA, 95926","Match","Exact","279 E 7TH AVE, CHICO, CA, 95926",635746490,"R"
150179,"279 EAST CENTRAL STREET  SUITE 208","FRANKLIN","MA",2038,42.080533431,-71.386885992,179,"279 EAST CENTRAL STREET  SUITE 208, FRANKLIN, MA, 2038","Match","Exact","279 E CENTRAL ST, FRANKLIN, MA, 02038",647357266,"L"
150180,"279 EDINBORO ROAD","STATEN ISLAND","NY",10306,40.5774460310001,-74.13702104,180,"279 EDINBORO ROAD, STATEN ISLAND, NY, 10306","Match","Exact","279 EDINBORO RD, STATEN ISLAND, NY, 10306",647702758,"R"
150181,"279 FULL CIRCLE DRIVE","EVANS","GA",30809,33.5458203420001,-82.0903045059999,181,"279 FULL CIRCLE DRIVE, EVANS, GA, 30809","Match","Exact","279 FULL CIRCLE DR, EVANS, GA, 30809",640751668,"L"
150182,"279 GILLESPIE RD","FAIRMONT","WV",26554,39.503088307,-80.0031670229999,182,"279 GILLESPIE RD, FAIRMONT, WV, 26554","Match","Exact","279 GILLESPIE RD, FAIRMONT, WV, 26554",627984027,"R"
150183,"279 GLADES ROAD","BEREA","KY",40403,37.5865303960001,-84.290926648,183,"279 GLADES ROAD, BEREA, KY, 40403","Match","Exact","279 GLADES RD, BEREA, KY, 40403",31989170,"R"
150184,"279 GOLF CLUB DRIVE","KEY WEST","FL",33040,24.5752610860001,-81.7459205659999,184,"279 GOLF CLUB DRIVE, KEY WEST, FL, 33040","Match","Exact","279 GOLF CLUB DR, KEY WEST, FL, 33040",645540309,"L"
150185,"279 GRAYHILL SCHOOL RD","WEST POINT","GA",31833,32.9299010670001,-85.0871062099999,185,"279 GRAYHILL SCHOOL RD, WEST POINT, GA, 31833","Match","Non_Exact","279 GRAY HILL SCHOOL RD, WEST POINT, GA, 31833",642556308,"L"
150186,"279 HACKETT HILL ROAD","HOOKSETT","NH",3106,43.057511806,-71.493537056,186,"279 HACKETT HILL ROAD, HOOKSETT, NH, 3106","Match","Exact","279 HACKETT HILL RD, HOOKSETT, NH, 03106",644426091,"L"
150187,"279 HENRY DR","MONTOURSVILLE","PA",17754,41.332026424,-76.920644572,187,"279 HENRY DR, MONTOURSVILLE, PA, 17754","Match","Exact","279 HENRY DR, MONTOURSVILLE, PA, 17754",59456468,"L"
150188,"279 LAZY CREEK LOOP","INGRAM","TX",78025,30.0731436770001,-99.287773223,188,"279 LAZY CREEK LOOP, INGRAM, TX, 78025","Match","Exact","279 LAZY CREEK LOOP, INGRAM, TX, 78025",176913324,"L"
150189,"279 MARILYN DRIVE APT 44","BATON ROUGE","LA",70815,30.4530322260001,-91.07693947,189,"279 MARILYN DRIVE APT 44, BATON ROUGE, LA, 70815","Match","Exact","279 MARILYN DR, BATON ROUGE, LA, 70815",92197080,"R"
150190,"279 MASS AVE SUITE 3","ARLINGTON","MA",2474,42.408342352,-71.1455493939999,190,"279 MASS AVE SUITE 3, ARLINGTON, MA, 2474","Match","Exact","279 MASSACHUSETTS AVE, ARLINGTON, MA, 02474",86888735,"R"
150191,"279 MIDDLE ROAD","N. CLARENDON","VT",5759,43.5190953640001,-72.971519631,191,"279 MIDDLE ROAD, N. CLARENDON, VT, 5759","Match","Exact","279 MIDDLE RD, N CLARENDON, VT, 05759",138951118,"L"
150192,"279 MILLSTONE ROAD","MILLSTONE","NJ",8535,40.2109869980001,-74.4268155939999,192,"279 MILLSTONE ROAD, MILLSTONE, NJ, 8535","Match","Non_Exact","279 MILLSTONE RD, MILLSTONE TOWNSHIP, NJ, 08535",90523311,"L"
150193,"279 MONETTE PLACE","WEST GLOVER","VT",5975,NA,NA,193,"279 MONETTE PLACE, WEST GLOVER, VT, 5975","No_Match",NA,NA,NA,NA
150194,"279 N BROADWAY STE 65","YONKERS","NY",10701,NA,NA,194,"279 N BROADWAY STE 65, YONKERS, NY, 10701","No_Match",NA,NA,NA,NA
150195,"279 NE OPAL DRIVE","JENSEN BEACH","FL",34957,27.22775231,-80.229089325,195,"279 NE OPAL DRIVE, JENSEN BEACH, FL, 34957","Match","Exact","279 NE OPAL DR, JENSEN BEACH, FL, 34957",120425641,"L"
150196,"279 NEWPORT","DETROIT","MI",48215,42.3615752950001,-82.9400372269999,196,"279 NEWPORT, DETROIT, MI, 48215","Match","Non_Exact","279 NEWPORT ST, DETROIT, MI, 48215",95489307,"L"
150197,"279 NORTH PARDEE STREET","WADSWORTH","OH",44281,41.0305220480001,-81.731615558,197,"279 NORTH PARDEE STREET, WADSWORTH, OH, 44281","Match","Exact","279 N PARDEE ST, WADSWORTH, OH, 44281",58691379,"L"
150198,"279 OAK LANE","WENTZVILLE","MO",63385,38.7311636270001,-90.869280718,198,"279 OAK LANE, WENTZVILLE, MO, 63385","Match","Exact","279 OAK LN, WENTZVILLE, MO, 63385",605593542,"R"
150199,"279 OUTBACK LOOP","HOBOKEN","GA",31542,31.101104693,-82.088616434,199,"279 OUTBACK LOOP, HOBOKEN, GA, 31542","Match","Exact","279 OUTBACK LOOP, HOBOKEN, GA, 31542",9107184,"L"
150200,"279 PARKER PLACE","ORANGE","VA",22960,38.2553671590001,-78.121030557,200,"279 PARKER PLACE, ORANGE, VA, 22960","Match","Exact","279 PARKER PL, ORANGE, VA, 22960",613398156,"R"
150201,"279 RIVER CHASE DRIVE","JONESBORO","GA",30238,33.502247203,-84.401095766,201,"279 RIVER CHASE DRIVE, JONESBORO, GA, 30238","Match","Exact","279 RIVER CHASE DR, JONESBORO, GA, 30238",23327494,"R"
150202,"279 ROLLING SPRINGS DR","LAS VEGAS","NV",89148,36.047366272,-115.295541017,202,"279 ROLLING SPRINGS DR, LAS VEGAS, NV, 89148","Match","Exact","279 ROLLING SPRINGS DR, LAS VEGAS, NV, 89148",624060533,"L"
150203,"279 RUSTIC LN","DOVER","DE",19901,39.1967551830001,-75.544091812,203,"279 RUSTIC LN, DOVER, DE, 19901","Match","Exact","279 RUSTIC LN, DOVER, DE, 19901",68087538,"L"
150204,"279 SARATOGA CIRCLE","RICHMOND","KY",40475,37.7822571390001,-84.325444977,204,"279 SARATOGA CIRCLE, RICHMOND, KY, 40475","Match","Exact","279 SARATOGA CIR, RICHMOND, KY, 40475",32002119,"L"
150205,"279 SERVICE CREEK RD","ALIQUIPPA","PA",15001,40.5922225690001,-80.319293402,205,"279 SERVICE CREEK RD, ALIQUIPPA, PA, 15001","Match","Exact","279 SERVICE CREEK RD, ALIQUIPPA, PA, 15001",636541598,"R"
150206,"279 SHELTON TER STE 3","HILLSIDE","NJ",7205,40.699948191,-74.23041234,206,"279 SHELTON TER STE 3, HILLSIDE, NJ, 7205","Match","Exact","279 SHELTON TER, HILLSIDE, NJ, 07205",60577386,"R"
150207,"279 STONEHENGE DR","PHILLIPSBURG","NJ",8865,40.7153442440001,-75.1612029949999,207,"279 STONEHENGE DR, PHILLIPSBURG, NJ, 8865","Match","Exact","279 STONEHENGE DR, PHILLIPSBURG, NJ, 08865",98106422,"L"
150208,"279 SUMMIT LAKES DRIVE","ATHENS","AL",35613,34.7859079240001,-86.936723206,208,"279 SUMMIT LAKES DRIVE, ATHENS, AL, 35613","Match","Exact","279 SUMMIT LAKES DR, ATHENS, AL, 35613",95261969,"R"
150209,"279 SURREY DR","BONITA","CA",91902,32.6543747370001,-117.035200009,209,"279 SURREY DR, BONITA, CA, 91902","Match","Exact","279 SURREY DR, BONITA, CA, 91902",633041085,"L"
150210,"279 SURREY DRIVE","BONITA","CA",91902,32.6543747370001,-117.035200009,210,"279 SURREY DRIVE, BONITA, CA, 91902","Match","Exact","279 SURREY DR, BONITA, CA, 91902",633041085,"L"
150211,"279 SYCAMORE RD","ELKTON","MD",21921,39.652608322,-75.800811417,211,"279 SYCAMORE RD, ELKTON, MD, 21921","Match","Exact","279 SYCAMORE RD, ELKTON, MD, 21921",187390762,"L"
150212,"279 TEDDY AVE","SAN FRANCISCO","CA",94134,37.7150065380001,-122.408067991,212,"279 TEDDY AVE, SAN FRANCISCO, CA, 94134","Match","Exact","279 TEDDY AVE, SAN FRANCISCO, CA, 94134",192290390,"L"
150213,"279 TRADEWINDS DRIVE APT 7","SAN JOSE","CA",95123,37.2546144620001,-121.827837848,213,"279 TRADEWINDS DRIVE APT 7, SAN JOSE, CA, 95123","Match","Exact","279 TRADEWINDS DR, SAN JOSE, CA, 95123",618192377,"R"
150214,"279 VAUGHN S FRONTAGE ROAD","GREAT FALLS","MT",59404,47.5463840740001,-111.483447393,214,"279 VAUGHN S FRONTAGE ROAD, GREAT FALLS, MT, 59404","Match","Exact","279 VAUGHN SOUTH FRONTAGE RD, GREAT FALLS, MT, 59404",637123927,"L"
150215,"279 W 10TH ST","SAN PEDRO","CA",90731,33.7351079580001,-118.282839421,215,"279 W 10TH ST, SAN PEDRO, CA, 90731","Match","Exact","279 W 10TH ST, SAN PEDRO, CA, 90731",141690889,"L"
150216,"279 W 117TH ST 6B","NEW YORK","NY",10026,40.804870356,-73.9543174419999,216,"279 W 117TH ST 6B, NEW YORK, NY, 10026","Match","Non_Exact","279 W 117TH ST, NEW YORK, NY, 10026",59657657,"R"
150217,"279 W BADILLO STREET","COVINA","CA",91723,34.0862960210001,-117.893948969,217,"279 W BADILLO STREET, COVINA, CA, 91723","Match","Exact","279 W BADILLO ST, COVINA, CA, 91723",141715236,"R"
150218,"279 W CROGAN ST","LAWRENCEVILLE","GA",30046,33.9561678520001,-83.990931356,218,"279 W CROGAN ST, LAWRENCEVILLE, GA, 30046","Match","Exact","279 W CROGAN ST, LAWRENCEVILLE, GA, 30046",88889135,"R"
150219,"279 W DESERT AVE","GILBERT","AZ",85233,33.372927718,-111.795933861,219,"279 W DESERT AVE, GILBERT, AZ, 85233","Match","Exact","279 W DESERT AVE, GILBERT, AZ, 85233",128808573,"R"
150220,"279 WEST 117TH STREET - 2A","NEW YORK","NY",10026,40.8048567020001,-73.954284978,220,"279 WEST 117TH STREET - 2A, NEW YORK, NY, 10026","Match","Exact","279 W 117TH ST, NEW YORK, NY, 10026",59657657,"R"
150221,"279-B JARAMILLO LOOP","VEGUITA","NM",87062,34.5193173710001,-106.768636744,221,"279-B JARAMILLO LOOP, VEGUITA, NM, 87062","Match","Exact","279 JARAMILLO LOOP, VEGUITA, NM, 87062",608062425,"L"
150222,"279","SAN CLEMENTE","CA",92674,NA,NA,222,"279, SAN CLEMENTE, CA, 92674","No_Match",NA,NA,NA,NA
150223,"2790 129TH AVE SW","BELFIELD","ND",58622,47.010101703,-103.223188975,223,"2790 129TH AVE SW, BELFIELD, ND, 58622","Match","Exact","2790 129TH AVE S W, BELFIELD, ND, 58622",198716901,"R"
150224,"2790 COUNTY ROUTE 16","WATKINS GLEN","NY",14891,42.346967211,-76.9300458559999,224,"2790 COUNTY ROUTE 16, WATKINS GLEN, NY, 14891","Match","Non_Exact","2790 CO RD 16, WATKINS GLEN, NY, 14891",642446436,"R"
150225,"2790 DRY GROVE RD","CRYSTAL SPRINGS","MS",39059,32.0734704010001,-90.425877436,225,"2790 DRY GROVE RD, CRYSTAL SPRINGS, MS, 39059","Match","Exact","2790 DRY GROVE RD, CRYSTAL SPGS, MS, 39059",611228459,"R"
150226,"2790 EAST CAMELLIA STREET","PAHRUMP","NV",89048,NA,NA,226,"2790 EAST CAMELLIA STREET, PAHRUMP, NV, 89048","No_Match",NA,NA,NA,NA
150227,"2790 MACKINTOSH LANE","BLOOMFIELD HILLS","MS",48302,NA,NA,227,"2790 MACKINTOSH LANE, BLOOMFIELD HILLS, MS, 48302","No_Match",NA,NA,NA,NA
150228,"2790 MAIN STREET","BAKER CITY","OR",97814,44.7842143990001,-117.829661543,228,"2790 MAIN STREET, BAKER CITY, OR, 97814","Match","Exact","2790 MAIN ST, BAKER CITY, OR, 97814",137638741,"R"
150229,"2790 N COBB PARKWAY  STE C","KENNESAW","GA",30152,34.023594578,-84.628893691,229,"2790 N COBB PARKWAY  STE C, KENNESAW, GA, 30152","Match","Non_Exact","2790 COBB PKWY NW, KENNESAW, GA, 30152",17256390,"R"
150230,"2790 ROXBURGH DR","ROSWELL","GA",30076,34.0339929100001,-84.2788521099999,230,"2790 ROXBURGH DR, ROSWELL, GA, 30076","Match","Exact","2790 ROXBURGH DR, ROSWELL, GA, 30076",642630956,"R"
150231,"2790 SIRHAL DRIVE APT 111","EAST LANSING","MI",48823,42.7292350000001,-84.454336874,231,"2790 SIRHAL DRIVE APT 111, EAST LANSING, MI, 48823","Match","Exact","2790 SIRHAL DR, EAST LANSING, MI, 48823",650182176,"L"
150232,"2790 SW WICKIUP AVE","REDMOND","OR",97756,44.2474880670001,-121.200386415,232,"2790 SW WICKIUP AVE, REDMOND, OR, 97756","Match","Exact","2790 SW WICKIUP AVE, REDMOND, OR, 97756",152551503,"L"
150233,"2790 TRUXTUN ROAD SUITE 150","SAN DIEGO","CA",92106,32.7401972860001,-117.213291405,233,"2790 TRUXTUN ROAD SUITE 150, SAN DIEGO, CA, 92106","Match","Exact","2790 TRUXTUN RD, SAN DIEGO, CA, 92106",195651197,"L"
150234,"2790 YORK ST","WEST LINN","OR",97068,45.360706597,-122.630966024,234,"2790 YORK ST, WEST LINN, OR, 97068","Match","Exact","2790 YORK ST, WEST LINN, OR, 97068",157917975,"L"
150235,"27900 JOAN","SAINT CLAIR SHORES","MI",48081,42.497353952,-82.912137305,235,"27900 JOAN, SAINT CLAIR SHORES, MI, 48081","Match","Non_Exact","27900 JOAN ST, SAINT CLAIR SHORES, MI, 48081",110682239,"R"
150236,"27901 86TH AVE E","GRAHAM","WA",98338,47.003724043,-122.317224483,236,"27901 86TH AVE E, GRAHAM, WA, 98338","Match","Exact","27901 86TH AVE E, GRAHAM, WA, 98338",184638779,"R"
150237,"27902 SARABETH LANE","LAGUNA NIGUEL","CA",92677,33.5576450630001,-117.703241069,237,"27902 SARABETH LANE, LAGUNA NIGUEL, CA, 92677","Match","Exact","27902 SARABETH LN, LAGUNA NIGUEL, CA, 92677",144105627,"L"
150238,"27903 VISTA VIEW DRIVE","SANTA CLARITA","CA",91351,34.431063269,-118.485724451,238,"27903 VISTA VIEW DRIVE, SANTA CLARITA, CA, 91351","Match","Exact","27903 VISTA VIEW DR, SANTA CLARITA, CA, 91351",141834318,"R"
150239,"27906 GLASS RD","HOCKLEY","TX",77447,30.139204208,-95.8608020899999,239,"27906 GLASS RD, HOCKLEY, TX, 77447","Match","Exact","27906 GLASS RD, HOCKLEY, TX, 77447",78353537,"L"
150240,"27908 BEECHNUT CIR","VALENCIA","CA",91354,34.457469507,-118.540304352,240,"27908 BEECHNUT CIR, VALENCIA, CA, 91354","Match","Exact","27908 BEECHNUT CIR, VALENCIA, CA, 91354",141518497,"R"
150241,"2790A SACRAMENTO STREET","SAN FRANCISCO","CA",94115,37.7892425530001,-122.438741337,241,"2790A SACRAMENTO STREET, SAN FRANCISCO, CA, 94115","Match","Exact","2790 SACRAMENTO ST, SAN FRANCISCO, CA, 94115",642879902,"R"
150242,"2791 GATEWAY AVE UNIT 18","HARTFORD","WI",53027,43.3228996610001,-88.317945768,242,"2791 GATEWAY AVE UNIT 18, HARTFORD, WI, 53027","Match","Exact","2791 GATEWAY AVE, HARTFORD, WI, 53027",641226402,"R"
150243,"2791 GREATWOOD WAY","HIGHLANDS RANCH","CO",80126,39.5262787660001,-104.956920205,243,"2791 GREATWOOD WAY, HIGHLANDS RANCH, CO, 80126","Match","Exact","2791 GREATWOOD WAY, HIGHLANDS RANCH, CO, 80126",130832620,"L"
150244,"2791 HWY Y","ELLINGTON","MO",63638,NA,NA,244,"2791 HWY Y, ELLINGTON, MO, 63638","No_Match",NA,NA,NA,NA
150245,"2791 N 148TH LN","GOODYEAR","AZ",85395,33.4784514350001,-112.379443467,245,"2791 N 148TH LN, GOODYEAR, AZ, 85395","Match","Exact","2791 N 148TH LN, GOODYEAR, AZ, 85395",244010609,"R"
150246,"2791 PENNINGTON BEND RD","NASHVILLE","TN",37214,36.2171357170001,-86.688921106,246,"2791 PENNINGTON BEND RD, NASHVILLE, TN, 37214","Match","Exact","2791 PENNINGTON BEND RD, NASHVILLE, TN, 37214",653274355,"L"
150247,"2791 SCOTT STREET","OSCEOLA","IA",50213,41.1473659060001,-93.6727214049999,247,"2791 SCOTT STREET, OSCEOLA, IA, 50213","Match","Exact","2791 SCOTT ST, OSCEOLA, IA, 50213",635891619,"L"
150248,"27912 BAKER CANYON ROAD","SILVERADO","CA",92676,33.7619820250001,-117.65586318,248,"27912 BAKER CANYON ROAD, SILVERADO, CA, 92676","Match","Exact","27912 BAKER CANYON RD, SILVERADO, CA, 92676",633524651,"R"
150249,"27915 NE 26TH ST","REDMOND","WA",98053,47.6316641560001,-121.965813141,249,"27915 NE 26TH ST, REDMOND, WA, 98053","Match","Exact","27915 NE 26TH ST, REDMOND, WA, 98053",187051682,"R"
150250,"27915 STATE HWY N","EWING","MO",63440,39.991110512,-91.718696236,250,"27915 STATE HWY N, EWING, MO, 63440","Match","Exact","27915 STATE HWY N, EWING, MO, 63440",607755481,"L"
150251,"27916 KIM DR","HARVEST","AL",35749,34.771951831,-86.829955679,251,"27916 KIM DR, HARVEST, AL, 35749","Match","Exact","27916 KIM DR, HARVEST, AL, 35749",615639367,"R"
150252,"27916 KIM DRIVE","HARVEST","AL",35749,34.771951831,-86.829955679,252,"27916 KIM DRIVE, HARVEST, AL, 35749","Match","Exact","27916 KIM DR, HARVEST, AL, 35749",615639367,"R"
150253,"2792 DUQUESNE DR","STOW","OH",44224,41.1961095230001,-81.4013748419999,253,"2792 DUQUESNE DR, STOW, OH, 44224","Match","Exact","2792 DUQUESNE DR, STOW, OH, 44224",61376603,"L"
150254,"2792 E CITADEL CT","GILBERT","AZ",85298,33.2320004650001,-111.729333055,254,"2792 E CITADEL CT, GILBERT, AZ, 85298","Match","Exact","2792 E CITADEL CT, GILBERT, AZ, 85298",636182562,"R"
150255,"2792 LAKES NORTH DR","INTERLOCHEN","MI",49643,44.6476550090001,-85.789809237,255,"2792 LAKES NORTH DR, INTERLOCHEN, MI, 49643","Match","Exact","2792 LAKES NORTH DR, INTERLOCHEN, MI, 49643",614096391,"R"
150256,"2792 MCCLAVE DRIVE","DORAVILLE","GA",30340,33.8901107080001,-84.2739671269999,256,"2792 MCCLAVE DRIVE, DORAVILLE, GA, 30340","Match","Exact","2792 MCCLAVE DR, DORAVILLE, GA, 30340",23359336,"L"
150257,"2792 SW ALAMIRA AVE","PORT ST LUCIE","FL",34987,NA,NA,257,"2792 SW ALAMIRA AVE, PORT ST LUCIE, FL, 34987","No_Match",NA,NA,NA,NA
150258,"27923 HENDRIX PARK DR","SPRING","TX",77386,30.096633314,-95.3687874509999,258,"27923 HENDRIX PARK DR, SPRING, TX, 77386","Match","Exact","27923 HENDRIX PARK DR, SPRING, TX, 77386",651324001,"L"
150259,"27925 SUMMIT DRIVE","NOVI","MI",48377,42.4979492430001,-83.4504234089999,259,"27925 SUMMIT DRIVE, NOVI, MI, 48377","Match","Exact","27925 SUMMIT DR, NOVI, MI, 48377",630329824,"L"
150260,"27926 219TH PL SE","MAPLE VALLEY","WA",98038,NA,NA,260,"27926 219TH PL SE, MAPLE VALLEY, WA, 98038","No_Match",NA,NA,NA,NA
150261,"27926 AVALON DRIVE","CANYON COUNTRY","CA",91351,34.422118783,-118.453428911,261,"27926 AVALON DRIVE, CANYON COUNTRY, CA, 91351","Match","Exact","27926 AVALON DR, CANYON COUNTRY, CA, 91351",642193137,"R"
150262,"27926 VIA CRESPI","LAGUNA NIGUEL","CA",92677,33.557472488,-117.690639479,262,"27926 VIA CRESPI, LAGUNA NIGUEL, CA, 92677","Match","Exact","27926 VIA CRESPI, LAGUNA NIGUEL, CA, 92677",144113370,"R"
150263,"27927 SMYTH DRIVE","VALENCIA","CA",91355,34.4434842410001,-118.572045499,263,"27927 SMYTH DRIVE, VALENCIA, CA, 91355","Match","Exact","27927 SMYTH DR, VALENCIA, CA, 91355",651548944,"L"
150264,"27928 NE 5TH ST","REDMOND","WA",98053,47.6127712730001,-121.967187467,264,"27928 NE 5TH ST, REDMOND, WA, 98053","Match","Exact","27928 NE 5TH ST, REDMOND, WA, 98053",186676167,"R"
150265,"27928","REDMOND","WA",98053,NA,NA,265,"27928, REDMOND, WA, 98053","No_Match",NA,NA,NA,NA
150266,"27929 TYLER LANE UNIT 752","CANYON COUNTRY","CA",91387,34.421303504,-118.450478783,266,"27929 TYLER LANE UNIT 752, CANYON COUNTRY, CA, 91387","Match","Exact","27929 TYLER LN, CANYON COUNTRY, CA, 91387",141834145,"R"
150267,"2793 152ND AVE NE","REDMOND","WA",98052,47.6350895480001,-122.137692375,267,"2793 152ND AVE NE, REDMOND, WA, 98052","Match","Exact","2793 152ND AVE NE, REDMOND, WA, 98052",187053316,"L"
150268,"2793 ACR 319","FRANKSTON","TX",75763,NA,NA,268,"2793 ACR 319, FRANKSTON, TX, 75763","No_Match",NA,NA,NA,NA
150269,"2793 COLT CT","ORANGE PARK","FL",32065,30.1220880700001,-81.7889396579999,269,"2793 COLT CT, ORANGE PARK, FL, 32065","Match","Exact","2793 COLT CT, ORANGE PARK, FL, 32065",83813522,"L"
150270,"2793 ELIM CHURCH RD NE","LUDOWICI","GA",31316,31.746123455,-81.719446197,270,"2793 ELIM CHURCH RD NE, LUDOWICI, GA, 31316","Match","Exact","2793 ELIM CHURCH RD NE, LUDOWICI, GA, 31316",637387543,"L"
150271,"2793 MT ZION RD ST 100","JONESBORO","GA",30236,33.5566267840001,-84.299720926,271,"2793 MT ZION RD ST 100, JONESBORO, GA, 30236","Match","Exact","2793 MOUNT ZION RD, JONESBORO, GA, 30236",632771214,"R"
150272,"2793 MT ZION RD","JONESBORO","GA",30238,33.5566267840001,-84.299720926,272,"2793 MT ZION RD, JONESBORO, GA, 30238","Match","Non_Exact","2793 MOUNT ZION RD, JONESBORO, GA, 30236",632771214,"R"
150273,"2793 MT ZION ROAD STE 100B","JONESBORO","GA",30236,33.5566267840001,-84.299720926,273,"2793 MT ZION ROAD STE 100B, JONESBORO, GA, 30236","Match","Exact","2793 MOUNT ZION RD, JONESBORO, GA, 30236",632771214,"R"
150274,"2793 PARCHCORN HOLLOW ROAD","WOODBURY","TN",37190,35.805303892,-85.9914646999999,274,"2793 PARCHCORN HOLLOW ROAD, WOODBURY, TN, 37190","Match","Exact","2793 PARCHCORN HOLLOW RD, WOODBURY, TN, 37190",87942567,"R"
150275,"2793 VISTA BLUFF BLVD","LEWISVILLE","TX",75067,32.9935399410001,-96.981951943,275,"2793 VISTA BLUFF BLVD, LEWISVILLE, TX, 75067","Match","Exact","2793 VISTA BLUFF BLVD, LEWISVILLE, TX, 75067",103373053,"L"
150276,"2793 WHITETAIL CIR","LAFAYETTE","CO",80026,39.9698718920001,-105.092400454,276,"2793 WHITETAIL CIR, LAFAYETTE, CO, 80026","Match","Exact","2793 WHITETAIL CIR, LAFAYETTE, CO, 80026",220748545,"L"
150277,"27930 ROYAL AVE","EUGENE","OR",97402,44.0704568210001,-123.242966148,277,"27930 ROYAL AVE, EUGENE, OR, 97402","Match","Exact","27930 ROYAL AVE, EUGENE, OR, 97402",645551436,"R"
150278,"2794 CROY RD SW","SWISHER","IA",52238,NA,NA,278,"2794 CROY RD SW, SWISHER, IA, 52238","No_Match",NA,NA,NA,NA
150279,"2794 GATEWAY ROAD SUITE 101B","CARLSBAD","CA",92009,33.128614407,-117.248154542,279,"2794 GATEWAY ROAD SUITE 101B, CARLSBAD, CA, 92009","Match","Exact","2794 GATEWAY RD, CARLSBAD, CA, 92009",195766954,"R"
150280,"2794 MIDDLETON FARM CT","OAK HILL","VA",20171,38.9289726910001,-77.404013686,280,"2794 MIDDLETON FARM CT, OAK HILL, VA, 20171","Match","Exact","2794 MIDDLETON FARM CT, OAK HILL, VA, 20171",618558019,"L"
150281,"2794 PLEASANT ROAD 11409","FORT MILL","SC",29708,35.0611715580001,-80.964111582,281,"2794 PLEASANT ROAD 11409, FORT MILL, SC, 29708","Match","Exact","2794 PLEASANT RD, FORT MILL, SC, 29708",645273227,"R"
150282,"2794 WARHORSE PL","DOUGLASVILLE","GA",30135,33.687827552,-84.669255157,282,"2794 WARHORSE PL, DOUGLASVILLE, GA, 30135","Match","Exact","2794 WARHORSE PL, DOUGLASVILLE, GA, 30135",618478525,"R"
150283,"2794","SOUTH BEND","IN",46680,NA,NA,283,"2794, SOUTH BEND, IN, 46680","No_Match",NA,NA,NA,NA
150284,"27943 SECO CANYON RD 522","SANTA CLARITA","CA",91350,34.4586726920001,-118.534375627,284,"27943 SECO CANYON RD 522, SANTA CLARITA, CA, 91350","Match","Exact","27943 SECO CANYON RD, SANTA CLARITA, CA, 91350",141518485,"L"
150285,"27943 SECO CANYON RD STE 521","SANTA CLARITA","CA",91350,34.4586726920001,-118.534375627,285,"27943 SECO CANYON RD STE 521, SANTA CLARITA, CA, 91350","Match","Exact","27943 SECO CANYON RD, SANTA CLARITA, CA, 91350",141518485,"L"
150286,"27943 SECO CANYON ROAD NUMBER 425","SANTA CLARITA","CA",91350,34.4586726920001,-118.534375627,286,"27943 SECO CANYON ROAD NUMBER 425, SANTA CLARITA, CA, 91350","Match","Exact","27943 SECO CANYON RD, SANTA CLARITA, CA, 91350",141518485,"L"
150287,"27944 N EDWARDS RD","SAN TAN VALLEY","AZ",85143,33.133343471,-111.56932613,287,"27944 N EDWARDS RD, SAN TAN VALLEY, AZ, 85143","Match","Exact","27944 EDWARDS RD, SAN TAN VALLEY, AZ, 85143",629113729,"L"
150288,"27945 FIREBRAND DR","CASTAIC","CA",91384,34.4610426890001,-118.62238915,288,"27945 FIREBRAND DR, CASTAIC, CA, 91384","Match","Exact","27945 FIREBRAND DR, CASTAIC, CA, 91384",142679304,"R"
150289,"27946 HENRY MAYO DR","CASTAIC","CA",91384,34.4299200950001,-118.624742827,289,"27946 HENRY MAYO DR, CASTAIC, CA, 91384","Match","Exact","27946 HENRY MAYO DR, CASTAIC, CA, 91384",142832377,"R"
150290,"27946 HENRY MAYO DRIVE D19","CASTAIC","CA",91384,34.4299200950001,-118.624742827,290,"27946 HENRY MAYO DRIVE D19, CASTAIC, CA, 91384","Match","Exact","27946 HENRY MAYO DR, CASTAIC, CA, 91384",142832377,"R"
150291,"27949 S MERIDIAN RD","AURORA","OR",97002,45.2020857100001,-122.743773304,291,"27949 S MERIDIAN RD, AURORA, OR, 97002","Match","Exact","27949 S MERIDIAN RD, AURORA, OR, 97002",157901311,"L"
150292,"2795  EVANSMILL RD   2705","LITHONIA","GA",30058,33.7032282120001,-84.115581488,292,"2795  EVANSMILL RD   2705, LITHONIA, GA, 30058","Match","Non_Exact","2795 EVANS MILL RD, LITHONIA, GA, 30058",23375749,"R"
150293,"2795 CABOT STE 6-115","CORONA","CA",92883,NA,NA,293,"2795 CABOT STE 6-115, CORONA, CA, 92883","No_Match",NA,NA,NA,NA
150294,"2795 CHOPIN DRIVE","CINCINNATI","OH",45231,39.2369419140001,-84.5752688699999,294,"2795 CHOPIN DRIVE, CINCINNATI, OH, 45231","Match","Exact","2795 CHOPIN DR, CINCINNATI, OH, 45231",624010456,"L"
150295,"2795 E POINT HAYDEN DRIVE","HAYDEN LAKE","ID",83835,47.7703352660001,-116.744860612,295,"2795 E POINT HAYDEN DRIVE, HAYDEN LAKE, ID, 83835","Match","Exact","2795 E POINT HAYDEN DR, HAYDEN LAKE, ID, 83835",643355730,"L"
150296,"2795 EAST BIDWELL STREET - 100-198","FOLSOM","CA",95630,38.654202556,-121.12268375,296,"2795 EAST BIDWELL STREET - 100-198, FOLSOM, CA, 95630","Match","Exact","2795 E BIDWELL ST, FOLSOM, CA, 95630",133388031,"L"
150297,"2795 EVANS MILL RD SUITE 2004","LITHONIA","GA",30058,33.7032282120001,-84.115581488,297,"2795 EVANS MILL RD SUITE 2004, LITHONIA, GA, 30058","Match","Exact","2795 EVANS MILL RD, LITHONIA, GA, 30058",23375749,"R"
150298,"2795 JEROME ROAD","COLLEGE PARK","GA",30349,33.605525351,-84.481172866,298,"2795 JEROME ROAD, COLLEGE PARK, GA, 30349","Match","Exact","2795 JEROME RD, COLLEGE PARK, GA, 30349",17339280,"R"
150299,"2795 MAIN STREET W 26B","SNELLVILLE","GA",30078,33.854773021,-84.029828132,299,"2795 MAIN STREET W 26B, SNELLVILLE, GA, 30078","Match","Exact","2795 MAIN ST W, SNELLVILLE, GA, 30078",638651730,"L"
150300,"2795 MEADOWVIEW DR","ATLANTA","GA",30316,33.7049722670001,-84.3054220179999,300,"2795 MEADOWVIEW DR, ATLANTA, GA, 30316","Match","Non_Exact","2795 MEADOWVIEW DR SE, ATLANTA, GA, 30316",23368121,"R"
150301,"2795 RENAISSANCE BLVD","FRASNKLIN","OH",45005,39.483845896,-84.302688465,301,"2795 RENAISSANCE BLVD, FRASNKLIN, OH, 45005","Match","Non_Exact","2795 RENAISSANCE BLVD, FRANKLIN, OH, 45005",649835725,"R"
150302,"2795 TROUT RUN ROAD","WARDENSVILLE","WV",26851,39.04844847,-78.635610417,302,"2795 TROUT RUN ROAD, WARDENSVILLE, WV, 26851","Match","Exact","2795 TROUT RUN RD, WARDENSVILLE, WV, 26851",55501965,"R"
150303,"27952 GATLIN ROAD APT C","ARDMORE","AL",35739,34.9620820850001,-86.819412448,303,"27952 GATLIN ROAD APT C, ARDMORE, AL, 35739","Match","Exact","27952 GATLIN RD, ARDMORE, AL, 35739",95237757,"L"
150304,"27953 WALKER AVE","WARREN","MI",48092,42.4981649910001,-83.065938852,304,"27953 WALKER AVE, WARREN, MI, 48092","Match","Exact","27953 WALKER AVE, WARREN, MI, 48092",110669329,"L"
150305,"2796 ARBOR TRAIL WAY","ORLANDO","FL",32829,28.5085138360001,-81.2668637419999,305,"2796 ARBOR TRAIL WAY, ORLANDO, FL, 32829","Match","Exact","2796 ARBOR TRAIL WAY, ORLANDO, FL, 32829",649051851,"R"
150306,"2796 LOKER AVE WEST SUITE 111","CARLSBAD","CA",92010,33.130012949,-117.248458419,306,"2796 LOKER AVE WEST SUITE 111, CARLSBAD, CA, 92010","Match","Exact","2796 LOKER AVE W, CARLSBAD, CA, 92010",195394953,"L"
150307,"2796 SAMUEL DR","DARDENNE PRAIRIE","MO",63368,38.7470974660001,-90.71582251,307,"2796 SAMUEL DR, DARDENNE PRAIRIE, MO, 63368","Match","Exact","2796 SAMUEL DR, DARDENNE PRAIRIE, MO, 63368",100085751,"L"
150308,"27961 STALLION SPRINGS DR","TEHACHAPI","CA",93561,35.082527375,-118.627761154,308,"27961 STALLION SPRINGS DR, TEHACHAPI, CA, 93561","Match","Exact","27961 STALLION SPRINGS DR, TEHACHAPI, CA, 93561",640200936,"L"
150309,"27966 OXFORD ROAD","OXFORD","MD",21654,38.687440918,-76.118760472,309,"27966 OXFORD ROAD, OXFORD, MD, 21654","Match","Exact","27966 OXFORD RD, OXFORD, MD, 21654",209753853,"L"
150310,"27968 FEATHERSTAR AVE","SANTA CLARITA","CA",91350,34.45019797,-118.510744667,310,"27968 FEATHERSTAR AVE, SANTA CLARITA, CA, 91350","Match","Exact","27968 FEATHERSTAR AVE, SANTA CLARITA, CA, 91350",141793910,"R"
150311,"2797 CREEK RIDGE DRIVE","PALO","IA",52324,NA,NA,311,"2797 CREEK RIDGE DRIVE, PALO, IA, 52324","No_Match",NA,NA,NA,NA
150312,"2797 DOVER RD NW","ATLANTA","GA",30327,33.8322799810001,-84.4121669419999,312,"2797 DOVER RD NW, ATLANTA, GA, 30327","Match","Exact","2797 DOVER RD NW, ATLANTA, GA, 30327",17360311,"R"
150313,"2797 FIRST STREET SUITE 1806","FT MYERS","FL",33916,26.651273561,-81.8574352539999,313,"2797 FIRST STREET SUITE 1806, FT MYERS, FL, 33916","Match","Exact","2797 1ST ST, FORT MYERS, FL, 33916",118102505,"L"
150314,"2797 FLATLICK RD","MT WASHINGTON","KY",40047,38.063819306,-85.572656187,314,"2797 FLATLICK RD, MT WASHINGTON, KY, 40047","Match","Exact","2797 FLATLICK RD, MOUNT WASHINGTON, KY, 40047",47748694,"R"
150315,"2797 JEFFREY DR","PALM HARBOR","FL",34684,28.0633891960001,-82.733379315,315,"2797 JEFFREY DR, PALM HARBOR, FL, 34684","Match","Exact","2797 JEFFREY DR, PALM HARBOR, FL, 34684",124679989,"R"
150316,"2797 MARION AVE","BRONX","NY",10458,40.8671132470001,-73.887103767,316,"2797 MARION AVE, BRONX, NY, 10458","Match","Exact","2797 MARION AVE, BRONX, NY, 10458",80298997,"L"
150317,"2797 PARK SQUARE PLACE","FERNANDINA BEACH","FL",32034,30.62837246,-81.446074069,317,"2797 PARK SQUARE PLACE, FERNANDINA BEACH, FL, 32034","Match","Exact","2797 PARK SQUARE PL, FERNANDINA BCH, FL, 32034",84114468,"L"
150318,"2797 S FISHER RD","ROCKVILLE","IN",47872,39.7258875810001,-87.2657020089999,318,"2797 S FISHER RD, ROCKVILLE, IN, 47872","Match","Exact","2797 FISHER RD, ROCKVILLE, IN, 47872",66397009,"R"
150319,"27971 BEECHGATE DR","RCH PALOS VRD","CA",90275,33.771062478,-118.364218795,319,"27971 BEECHGATE DR, RCH PALOS VRD, CA, 90275","Match","Exact","27971 BEECHGATE DR, RCH PALOS VRD, CA, 90275",141687468,"R"
150320,"27971 SLOAN CANYON ROAD","CASTAIC","CA",91384,34.491711212,-118.627748099,320,"27971 SLOAN CANYON ROAD, CASTAIC, CA, 91384","Match","Exact","27971 SLOAN CANYON RD, CASTAIC, CA, 91384",640112171,"R"
150321,"2798 12TH AVE","MARION","IA",52302,42.0383974280001,-91.582727074,321,"2798 12TH AVE, MARION, IA, 52302","Match","Exact","2798 12TH AVE, MARION, IA, 52302",17023176,"L"
150322,"2798 166TH CT","CLIVE","IA",50325,41.62044114,-93.8476638989999,322,"2798 166TH CT, CLIVE, IA, 50325","Match","Non_Exact","2798 NW 166TH CT, CLIVE, IA, 50325",641157854,"R"
150323,"2798 E 44TH PLACE","TULSA","OK",74105,36.099768834,-95.947231347,323,"2798 E 44TH PLACE, TULSA, OK, 74105","Match","Exact","2798 E 44TH PL, TULSA, OK, 74105",166478798,"R"
150324,"2798 E BALSAM DRIVE","CHANDLER","AZ",85286,33.2577113200001,-111.792878764,324,"2798 E BALSAM DRIVE, CHANDLER, AZ, 85286","Match","Exact","2798 E BALSAM DR, CHANDLER, AZ, 85286",128872021,"L"
150325,"2798 MISTY OAKS CIRCLE","ROYAL PALM BEACH","FL",33411,26.722539811,-80.240932301,325,"2798 MISTY OAKS CIRCLE, ROYAL PALM BEACH, FL, 33411","Match","Exact","2798 MISTY OAKS CIR, ROYAL PALM BEACH, FL, 33411",115572448,"R"
150326,"2798 PEEK RD UNIT 617","ATLANTA","GA",30318,33.7754813380001,-84.48254023,326,"2798 PEEK RD UNIT 617, ATLANTA, GA, 30318","Match","Non_Exact","2798 PEEK RD NW, ATLANTA, GA, 30318",17339433,"L"
150327,"2798 PEEK ROAD NW SUITE 412","ATLANTA","GA",30318,33.7754813380001,-84.48254023,327,"2798 PEEK ROAD NW SUITE 412, ATLANTA, GA, 30318","Match","Exact","2798 PEEK RD NW, ATLANTA, GA, 30318",17339433,"L"
150328,"2798 RECKER HWY","WINTER HAVEN","FL",33880,28.0167551920001,-81.759557509,328,"2798 RECKER HWY, WINTER HAVEN, FL, 33880","Match","Exact","2798 RECKER HWY, WINTER HAVEN, FL, 33880",646894193,"R"
150329,"27980 N TRILOGY BLVD","PEORIA","AZ",85383,33.741281864,-112.329343667,329,"27980 N TRILOGY BLVD, PEORIA, AZ, 85383","Match","Exact","27980 N TRILOGY BLVD, PEORIA, AZ, 85383",619123842,"L"
150330,"27984 GOLDNER ROAD","LAPWAI","ID",83540,46.387141156,-116.790297401,330,"27984 GOLDNER ROAD, LAPWAI, ID, 83540","Match","Exact","27984 GOLDNER RD, LAPWAI, ID, 83540",173142177,"L"
150331,"2799 CLAFLIN AVENUE FL-1","BRONX","NY",10468,40.871515936,-73.90022829,331,"2799 CLAFLIN AVENUE FL-1, BRONX, NY, 10468","Match","Exact","2799 CLAFLIN AVE, BRONX, NY, 10468",80298572,"L"
150332,"2799 E TROPICANA AVENUE STE G","LAS VEGAS","NV",89121,NA,NA,332,"2799 E TROPICANA AVENUE STE G, LAS VEGAS, NV, 89121","No_Match",NA,NA,NA,NA
150333,"2799 E TROPICANA AVENUE STE H","LAS VEGAS","NV",89121,NA,NA,333,"2799 E TROPICANA AVENUE STE H, LAS VEGAS, NV, 89121","No_Match",NA,NA,NA,NA
150334,"2799 E TROPICANA AVENUE","LAS VEGAS","NV",89121,36.099968474,-115.112393772,334,"2799 E TROPICANA AVENUE, LAS VEGAS, NV, 89121","Match","Exact","2799 E TROPICANA AVE, LAS VEGAS, NV, 89121",201872180,"R"
150335,"2799 LEMONTREE CR","SPRINGDALE","AR",72762,36.210351282,-94.178818834,335,"2799 LEMONTREE CR, SPRINGDALE, AR, 72762","Match","Non_Exact","2799 LEMON TREE CIR, SPRINGDALE, AR, 72762",49090465,"L"
150336,"2799 NW BOCA RATON BLVD STE 203","BOCA RATON","FL",33431,NA,NA,336,"2799 NW BOCA RATON BLVD STE 203, BOCA RATON, FL, 33431","No_Match",NA,NA,NA,NA
150337,"2799 NW BOCA RATON BLVD SUITE 203","BOCA RATON","FL",33431,NA,NA,337,"2799 NW BOCA RATON BLVD SUITE 203, BOCA RATON, FL, 33431","No_Match",NA,NA,NA,NA
150338,"2799 NW BRYGGER PL","SEATTLE","WA",98107,47.6720318650001,-122.392649267,338,"2799 NW BRYGGER PL, SEATTLE, WA, 98107","Match","Exact","2799 NW BRYGGER PL, SEATTLE, WA, 98107",650010395,"L"
150339,"27990 SMITHTOWN RD","EXCELSIOR","MN",55331,44.8914249320001,-93.6348804369999,339,"27990 SMITHTOWN RD, EXCELSIOR, MN, 55331","Match","Exact","27990 SMITHTOWN RD, EXCELSIOR, MN, 55331",640332499,"R"
150340,"27996 SPEARS STREET","BELL CITY","MO",63735,37.023101824,-89.814310432,340,"27996 SPEARS STREET, BELL CITY, MO, 63735","Match","Exact","27996 SPEARS ST, BELL CITY, MO, 63735",35382081,"R"
150341,"279A COLEBROOK RIVER RD","COLEBROOK","CT",6021,41.9773182600001,-73.0457469469999,341,"279A COLEBROOK RIVER RD, COLEBROOK, CT, 6021","Match","Exact","279 COLEBROOK RIVER RD, COLEBROOK, CT, 06021",651686637,"L"
150342,"27A KIEFNER STREET","PERRYVILLE","MO",63775,37.7246927520001,-89.869271274,342,"27A KIEFNER STREET, PERRYVILLE, MO, 63775","Match","Exact","27 KIEFNER ST, PERRYVILLE, MO, 63775",637592683,"R"
150343,"27A MARION ROAD","SALEM","MA",1970,42.4989907080001,-70.901840098,343,"27A MARION ROAD, SALEM, MA, 1970","Match","Exact","27 MARION RD, SALEM, MA, 01970",86671252,"L"
150344,"27A WILLIAMS STREET","CHELSEA","MA",2150,42.388386778,-71.040121225,344,"27A WILLIAMS STREET, CHELSEA, MA, 2150","Match","Exact","27 WILLIAMS ST, CHELSEA, MA, 02150",85709591,"R"
150345,"27N 28TH STREET 21A4","LAS VEGAS","NV",89101,36.1604411480001,-115.111484144,345,"27N 28TH STREET 21A4, LAS VEGAS, NV, 89101","Match","Non_Exact","27 N 28TH ST, LAS VEGAS, NV, 89101",201974345,"R"
150346,"27W279 FLEMING DR","WINFIELD","IL",60190,41.875850556,-88.153069525,346,"27W279 FLEMING DR, WINFIELD, IL, 60190","Match","Exact","27W279 FLEMING DR, WINFIELD, IL, 60190",639889573,"L"
150347,"27W327 WILLIAMS STREET","WINFIELD","IL",60190,41.859460889,-88.154245041,347,"27W327 WILLIAMS STREET, WINFIELD, IL, 60190","Match","Exact","27W327 WILLIAMS ST, WINFIELD, IL, 60190",112527103,"L"
150348,"27W734 GARYS MILL RD","WINFIELD","IL",60190,41.8606495670001,-88.164096429,348,"27W734 GARYS MILL RD, WINFIELD, IL, 60190","Match","Exact","27W734 GARYS MILL RD, WINFIELD, IL, 60190",112527054,"R"
150349,"27W740 GREENVIEW AVE","WARRENVILLE","IL",60555,41.82143174,-88.16517421,349,"27W740 GREENVIEW AVE, WARRENVILLE, IL, 60555","Match","Exact","27W740 GREENVIEW AVE, WARRENVILLE, IL, 60555",112528149,"L"
150350,"28  SAINT  PETER  STREET","SALEM","MA",1970,42.5230650930001,-70.893238223,350,"28  SAINT  PETER  STREET, SALEM, MA, 1970","Match","Exact","28 ST PETER ST, SALEM, MA, 01970",86643279,"R"
150351,"28 1/2 EAST MAIN STREET","FREEHOLD","NJ",7728,40.2633202700001,-74.2688780459999,351,"28 1/2 EAST MAIN STREET, FREEHOLD, NJ, 7728","Match","Exact","28 E MAIN ST, FREEHOLD, NJ, 07728",90445888,"L"
150352,"28 1/2 LAIDLAW AVE","JERSEY CITY","NJ",7306,40.735968916,-74.0510140869999,352,"28 1/2 LAIDLAW AVE, JERSEY CITY, NJ, 7306","Match","Exact","28 LAIDLAW AVE, JERSEY CITY, NJ, 07306",59605164,"R"
150353,"28 1/2 POND STREET","GREENFIELD","MA",1301,42.5947096560001,-72.598672611,353,"28 1/2 POND STREET, GREENFIELD, MA, 1301","Match","Exact","28 POND ST, GREENFIELD, MA, 01301",39916625,"L"
150354,"28 2ND ST FL3","SAN FRANCISCO","CA",94015,37.7889894030001,-122.401034489,354,"28 2ND ST FL3, SAN FRANCISCO, CA, 94015","Match","Non_Exact","28 2ND ST, SAN FRANCISCO, CA, 94105",640937265,"R"
150355,"28 2ND ST FL3","SAN FRANCISCO","CA",94105,37.7889894030001,-122.401034489,355,"28 2ND ST FL3, SAN FRANCISCO, CA, 94105","Match","Exact","28 2ND ST, SAN FRANCISCO, CA, 94105",640937265,"R"
150356,"28 67TH ST","WEST NEW YORK","NJ",7093,40.789810489,-74.0028789149999,356,"28 67TH ST, WEST NEW YORK, NJ, 7093","Match","Exact","28 67TH ST, WEST NEW YORK, NJ, 07093",59599890,"R"
150357,"28 AGAVE CT","LADERA RANCH","CA",92694,33.5501585010001,-117.634742099,357,"28 AGAVE CT, LADERA RANCH, CA, 92694","Match","Exact","28 AGAVE CT, LADERA RANCH, CA, 92694",633526856,"R"
150358,"28 ALBACORE LANE","BROKEN BOW","OK",74728,NA,NA,358,"28 ALBACORE LANE, BROKEN BOW, OK, 74728","No_Match",NA,NA,NA,NA
150359,"28 ALDER CT","KINGSTON","NY",12401,41.9957322980001,-73.967550939,359,"28 ALDER CT, KINGSTON, NY, 12401","Match","Exact","28 ALDER CT, KINGSTON, NY, 12401",41888565,"R"
150360,"28 ALLAN RD","WESTWOOD","MA",2090,42.2267638370001,-71.183148138,360,"28 ALLAN RD, WESTWOOD, MA, 2090","Match","Exact","28 ALLAN RD, WESTWOOD, MA, 02090",87243841,"R"
150361,"28 ALLEGHENY AVENUE APT 1601","TOWSON","MD",21204,39.4017482570001,-76.6039204149999,361,"28 ALLEGHENY AVENUE APT 1601, TOWSON, MD, 21204","Match","Exact","28 ALLEGHENY AVE, TOWSON, MD, 21204",191539926,"R"
150362,"28 ALLISON AVENUE","COVENTRY","RI",2816,41.7106039500001,-71.644640291,362,"28 ALLISON AVENUE, COVENTRY, RI, 2816","Match","Exact","28 ALLISON AVE, COVENTRY, RI, 02816",646784932,"R"
150363,"28 ANTONY AVE","BRISTOL","RI",2809,41.666547918,-71.2627888869999,363,"28 ANTONY AVE, BRISTOL, RI, 2809","Match","Exact","28 ANTONY AVE, BRISTOL, RI, 02809",46481931,"R"
150364,"28 ARBELLA STREET","SALEM","ME",1970,NA,NA,364,"28 ARBELLA STREET, SALEM, ME, 1970","No_Match",NA,NA,NA,NA
150365,"28 ASH STREET","BOSTON","MA",2111,42.348765643,-71.063459677,365,"28 ASH STREET, BOSTON, MA, 2111","Match","Exact","28 ASH ST, BOSTON, MA, 02111",85710418,"L"
150366,"28 ASHTON STREET","CHARLESTON","SC",29414,32.7886201540001,-79.9525788559999,366,"28 ASHTON STREET, CHARLESTON, SC, 29414","Match","Non_Exact","28 ASHTON ST, CHARLESTON, SC, 29403",108806489,"R"
150367,"28 ATLANTIC DR","PALM COAST","FL",32137,29.629322239,-81.201134488,367,"28 ATLANTIC DR, PALM COAST, FL, 32137","Match","Exact","28 ATLANTIC DR, PALM COAST, FL, 32137",649907574,"R"
150368,"28 BALMORAL DRIVE","PITTSTOWN","NJ",8867,40.582093296,-74.9921026609999,368,"28 BALMORAL DRIVE, PITTSTOWN, NJ, 8867","Match","Exact","28 BALMORAL DR, PITTSTOWN, NJ, 08867",628725888,"L"
150369,"28 BARTON COURT","INWOOD","WV",25428,39.350303324,-78.031973277,369,"28 BARTON COURT, INWOOD, WV, 25428","Match","Exact","28 BARTON CT, INWOOD, WV, 25428",618012410,"R"
150370,"28 BELLWETHER WAY","BELLINGHAM","WA",98225,48.754283899,-122.495995912,370,"28 BELLWETHER WAY, BELLINGHAM, WA, 98225","Match","Exact","28 BELLWETHER WAY, BELLINGHAM, WA, 98225",628972993,"L"
150371,"28 BENNETT RD","GARDNER","MA",1440,42.5528532650001,-71.9780998369999,371,"28 BENNETT RD, GARDNER, MA, 1440","Match","Exact","28 BENNETT RD, GARDNER, MA, 01440",40026201,"L"
150372,"28 BERING WAY","SOMERSET","NJ",8873,40.485470444,-74.5656983339999,372,"28 BERING WAY, SOMERSET, NJ, 8873","Match","Exact","28 BERING WAY, SOMERSET, NJ, 08873",59960607,"L"
150373,"28 BLAKE STREET","NEWTON","MA",2460,42.347368298,-71.19855813,373,"28 BLAKE STREET, NEWTON, MA, 2460","Match","Exact","28 BLAKE ST, NEWTON, MA, 02460",639008157,"L"
150374,"28 BRAINERD ROAD","NIANTIC","CT",6357,41.3122285590001,-72.2210277139999,374,"28 BRAINERD ROAD, NIANTIC, CT, 6357","Match","Non_Exact","28 BRAINARD RD, NIANTIC, CT, 06357",56843873,"R"
150375,"28 BRENTWOOD CT","BASKING RIDGE","NJ",7920,40.721676459,-74.539926565,375,"28 BRENTWOOD CT, BASKING RIDGE, NJ, 7920","Match","Exact","28 BRENTWOOD CT, BASKING RIDGE, NJ, 07920",59961118,"L"
150376,"28 BRISTOL COURT","BERKELEY HEIGHTS","NJ",7922,40.685642821,-74.4216615509999,376,"28 BRISTOL COURT, BERKELEY HEIGHTS, NJ, 7922","Match","Exact","28 BRISTOL CT, BERKELEY HEIGHTS, NJ, 07922",60602793,"L"
150377,"28 BROADWAY ST STE 3","DRY RIDGE","KY",41035,38.682032307,-84.593162078,377,"28 BROADWAY ST STE 3, DRY RIDGE, KY, 41035","Match","Exact","28 BROADWAY ST, DRY RIDGE, KY, 41035",103852184,"L"
150378,"28 BROOKCLIFF DR","ASHEVILLE","NC",28804,35.644916214,-82.529542824,378,"28 BROOKCLIFF DR, ASHEVILLE, NC, 28804","Match","Exact","28 BROOKCLIFF DR, ASHEVILLE, NC, 28804",36839413,"L"
150379,"28 BRUCE PARK AVENUE","GREENWICH","CT",6830,41.0220796510001,-73.622855648,379,"28 BRUCE PARK AVENUE, GREENWICH, CT, 6830","Match","Exact","28 BRUCE PARK AVE, GREENWICH, CT, 06830",3243674,"R"
150380,"28 BUMPUS RD","HYANNIS","MA",2601,41.6577498790001,-70.2925234909999,380,"28 BUMPUS RD, HYANNIS, MA, 2601","Match","Exact","28 BUMPUS RD, HYANNIS, MA, 02601",121556492,"L"
150381,"28 BUTTERFIELD TRAIL BLVD","EL PASO","TX",79906,31.813315039,-106.394531664,381,"28 BUTTERFIELD TRAIL BLVD, EL PASO, TX, 79906","Match","Exact","28 BUTTERFIELD TRAIL BLVD, EL PASO, TX, 79906",189411915,"R"
150382,"28 CANDLEWOOD CIRCLE","PITTSFORD","NY",14534,43.0791688470001,-77.561561312,382,"28 CANDLEWOOD CIRCLE, PITTSFORD, NY, 14534","Match","Exact","28 CANDLEWOOD CIR, PITTSFORD, NY, 14534",14544827,"L"
150383,"28 CARL BRANDT DR","SHALIMAR","FL",32579,30.4493792580001,-86.582513132,383,"28 CARL BRANDT DR, SHALIMAR, FL, 32579","Match","Exact","28 CARL BRANDT DR, SHALIMAR, FL, 32579",74451913,"R"
150384,"28 CARLISLE ROAD","ACTON","MA",1720,42.522945312,-71.400475268,384,"28 CARLISLE ROAD, ACTON, MA, 1720","Match","Exact","28 CARLISLE RD, ACTON, MA, 01720",626993119,"L"
150385,"28 CATBRIER RD","WESTON","CT",6883,41.2458173810001,-73.3618905609999,385,"28 CATBRIER RD, WESTON, CT, 6883","Match","Exact","28 CATBRIER RD, WESTON, CT, 06883",3276388,"L"
150386,"28 CATBRIER ROAD","WESTON","CT",6883,41.2458173810001,-73.3618905609999,386,"28 CATBRIER ROAD, WESTON, CT, 6883","Match","Exact","28 CATBRIER RD, WESTON, CT, 06883",3276388,"L"
150387,"28 CEDAR DR","ALLENDALE","NJ",7401,41.0401992440001,-74.144237248,387,"28 CEDAR DR, ALLENDALE, NJ, 7401","Match","Exact","28 CEDAR DR, ALLENDALE, NJ, 07401",64402319,"L"
150388,"28 CEDAR ST","HAVERHILL","MA",1830,42.7809677220001,-71.080415369,388,"28 CEDAR ST, HAVERHILL, MA, 1830","Match","Exact","28 CEDAR ST, HAVERHILL, MA, 01830",86617533,"L"
150389,"28 CENTER DRIVE","ROSLYN","NY",11576,40.8025100030001,-73.662016481,389,"28 CENTER DRIVE, ROSLYN, NY, 11576","Match","Exact","28 CENTER DR, ROSLYN, NY, 11576",147662638,"R"
150390,"28 CENTER STREET","CHULA VISTA","CA",91910,32.643000112,-117.068560538,390,"28 CENTER STREET, CHULA VISTA, CA, 91910","Match","Exact","28 CENTER ST, CHULA VISTA, CA, 91910",195356610,"L"
150391,"28 CHALLEDON DR","WILTON","NY",12831,43.145373679,-73.729777026,391,"28 CHALLEDON DR, WILTON, NY, 12831","Match","Exact","28 CHALLEDON DR, WILTON, NY, 12831",637612814,"L"
150392,"28 CHAPMAN ST","GREENFIELD","MA",1301,42.5887171910001,-72.602751553,392,"28 CHAPMAN ST, GREENFIELD, MA, 1301","Match","Exact","28 CHAPMAN ST, GREENFIELD, MA, 01301",39917768,"L"
150393,"28 COLISTON ROAD","REISTERSTOWN","MD",21136,39.4465693830001,-76.8029276779999,393,"28 COLISTON ROAD, REISTERSTOWN, MD, 21136","Match","Exact","28 COLISTON RD, REISTERSTOWN, MD, 21136",191462728,"L"
150394,"28 COLLEGE STREET","JEFFERSON","GA",30549,34.118808351,-83.573644168,394,"28 COLLEGE STREET, JEFFERSON, GA, 30549","Match","Exact","28 COLLEGE ST, JEFFERSON, GA, 30549",4983287,"R"
150395,"28 CONLEY LN","ELMA","WA",98541,47.0054586910001,-123.46027679,395,"28 CONLEY LN, ELMA, WA, 98541","Match","Exact","28 CONLEY LN, ELMA, WA, 98541",627288429,"R"
150396,"28 CORNICHE DRIVE UNIT B","DANA POINT","CA",92629,33.4877607810001,-117.714384124,396,"28 CORNICHE DRIVE UNIT B, DANA POINT, CA, 92629","Match","Exact","28 CORNICHE DR, DANA POINT, CA, 92629",612188665,"R"
150397,"28 CREEKS EDGE CT","DURHAM","NC",27713,35.9129619190001,-78.9287470849999,397,"28 CREEKS EDGE CT, DURHAM, NC, 27713","Match","Exact","28 CREEKS EDGE CT, DURHAM, NC, 27713",71763549,"R"
150398,"28 CRESTMOOR DR","DENVER","CO",80220,39.7246305410001,-104.91826824,398,"28 CRESTMOOR DR, DENVER, CO, 80220","Match","Exact","28 CRESTMOOR DR, DENVER, CO, 80220",177339757,"L"
150399,"28 DALTON PLACE","SPRINGFIELD","MA",1109,42.1299645980001,-72.537479592,399,"28 DALTON PLACE, SPRINGFIELD, MA, 1109","Match","Exact","28 DALTON PL, SPRINGFIELD, MA, 01109",4025032,"L"
150400,"28 DAMRELL ST","BOSTON","MA",2127,42.332979482,-71.0557421359999,400,"28 DAMRELL ST, BOSTON, MA, 2127","Match","Exact","28 DAMRELL ST, BOSTON, MA, 02127",85712285,"L"
150401,"28 DAUGHERTY HILL RD","CONWAY","AR",72032,35.0564710300001,-92.366856193,401,"28 DAUGHERTY HILL RD, CONWAY, AR, 72032","Match","Exact","28 DAUGHERTY HILL RD, CONWAY, AR, 72032",141073065,"R"
150402,"28 DAVE ELLIOTT RD","SAUGERTIES","NY",12477,42.128295285,-73.960484615,402,"28 DAVE ELLIOTT RD, SAUGERTIES, NY, 12477","Match","Non_Exact","28 DAVE ELLIOT RD, SAUGERTIES, NY, 12477",41877592,"R"
150403,"28 DAVIS HILL RD","WESTON","CT",6883,41.2275135030001,-73.3476057029999,403,"28 DAVIS HILL RD, WESTON, CT, 6883","Match","Exact","28 DAVIS HILL RD, WESTON, CT, 06883",649724757,"L"
150404,"28 DEANNA DRIVE APT 52","HILLSBOROUGH","NJ",8844,40.510899986,-74.639483249,404,"28 DEANNA DRIVE APT 52, HILLSBOROUGH, NJ, 8844","Match","Exact","28 DEANNA DR, HILLSBOROUGH, NJ, 08844",59977029,"L"
150405,"28 DECKER AVE","BUTLER","NJ",7405,41.011054131,-74.3553703489999,405,"28 DECKER AVE, BUTLER, NJ, 7405","Match","Exact","28 DECKER AVE, BUTLER, NJ, 07405",60478688,"L"
150406,"28 DEER PATH DRIVE","ALBANY","NY",12205,42.745953677,-73.843554881,406,"28 DEER PATH DRIVE, ALBANY, NY, 12205","Match","Exact","28 DEER PATH DR, ALBANY, NY, 12205",18361928,"R"
150407,"28 DEWOLFE STREET","CAMBRIDGE","MA",2138,42.369901617,-71.116787454,407,"28 DEWOLFE STREET, CAMBRIDGE, MA, 2138","Match","Exact","28 DEWOLFE ST, CAMBRIDGE, MA, 02138",86868184,"L"
150408,"28 DIANE PLACE","PORT JERVIS","NY",12771,41.383195379,-74.679252251,408,"28 DIANE PLACE, PORT JERVIS, NY, 12771","Match","Exact","28 DIANE PL, PORT JERVIS, NY, 12771",124385023,"R"
150409,"28 DILLINGHAM STREET","BANGOR","ME",4401,44.7836129300001,-68.7817829589999,409,"28 DILLINGHAM STREET, BANGOR, ME, 4401","Match","Exact","28 DILLINGHAM ST, BANGOR, ME, 04401",123629029,"L"
150410,"28 DOOLEY STREET - 303","BROOKLYN","NY",11235,40.5843063230001,-73.945060709,410,"28 DOOLEY STREET - 303, BROOKLYN, NY, 11235","Match","Exact","28 DOOLEY ST, BROOKLYN, NY, 11235",59091895,"R"
150411,"28 DUARTE","LOS LUNAS","NM",87031,NA,NA,411,"28 DUARTE, LOS LUNAS, NM, 87031","No_Match",NA,NA,NA,NA
150412,"28 DUNROVIN COURT","MANCHESTER TOWNSHIP","NJ",8759,40.040470912,-74.269389852,412,"28 DUNROVIN COURT, MANCHESTER TOWNSHIP, NJ, 8759","Match","Exact","28 DUNROVIN CT, MANCHESTER TOWNSHIP, NJ, 08759",629958109,"L"
150413,"28 DUNTHORTE LANE","SAN ANTONIO","TX",78250,29.5181875550001,-98.648049065,413,"28 DUNTHORTE LANE, SAN ANTONIO, TX, 78250","Match","Exact","28 DUNTHORTE LN, SAN ANTONIO, TX, 78250",101727813,"R"
150414,"28 E JACKSON BLVD UNIT 1901","CHICAGO","IL",60604,41.8781843190001,-87.628011449,414,"28 E JACKSON BLVD UNIT 1901, CHICAGO, IL, 60604","Match","Non_Exact","28 W JACKSON BLVD, CHICAGO, IL, 60604",111769633,"R"
150415,"28 E MOUNTAINVIEW AVE","GREENVIEW","SC",29609,34.868480106,-82.390235617,415,"28 E MOUNTAINVIEW AVE, GREENVIEW, SC, 29609","Match","Non_Exact","28 E MOUNTAINVIEW AVE, GREENVILLE, SC, 29609",38299125,"R"
150416,"28 E OAKLAND AVENUE  B-4","DOYLESTOWN","PA",18901,NA,NA,416,"28 E OAKLAND AVENUE  B-4, DOYLESTOWN, PA, 18901","Tie",NA,NA,NA,NA
150417,"28 E STEWART APT 310","COLUMBIA","MO",65203,NA,NA,417,"28 E STEWART APT 310, COLUMBIA, MO, 65203","No_Match",NA,NA,NA,NA
150418,"28 E SUSQUEHANNA AVE SUITE 102","TOWSON","MD",21286,39.3982143280001,-76.601185083,418,"28 E SUSQUEHANNA AVE SUITE 102, TOWSON, MD, 21286","Match","Non_Exact","28 E SUSQUEHANNA AVE, TOWSON, MD, 21286",191539886,"R"
150419,"28 E SUSQUEHANNA AVE","TOWSON","MD",21286,39.3982143280001,-76.601185083,419,"28 E SUSQUEHANNA AVE, TOWSON, MD, 21286","Match","Exact","28 E SUSQUEHANNA AVE, TOWSON, MD, 21286",191539886,"R"
150420,"28 E TIOGA STREET","CANTON","PA",17724,41.6576361830001,-76.851523027,420,"28 E TIOGA STREET, CANTON, PA, 17724","Match","Exact","28 E TIOGA ST, CANTON, PA, 17724",176964192,"R"
150421,"28 EAST BLVD RD","NEWTON","MA",2459,NA,NA,421,"28 EAST BLVD RD, NEWTON, MA, 2459","No_Match",NA,NA,NA,NA
150422,"28 EAST MAIN STREET","FESTUS","MO",63028,38.219532917,-90.389500899,422,"28 EAST MAIN STREET, FESTUS, MO, 63028","Match","Exact","28 E MAIN ST, FESTUS, MO, 63028",62786455,"L"
150423,"28 EAST MAIN STREET","STATESBORO","GA",30458,32.448896274,-81.782492008,423,"28 EAST MAIN STREET, STATESBORO, GA, 30458","Match","Exact","28 E MAIN ST, STATESBORO, GA, 30458",642619339,"L"
150424,"28 EAST OSTEND STREET SUITE 303","BALTIMORE","MD",21230,39.2748525100001,-76.613167183,424,"28 EAST OSTEND STREET SUITE 303, BALTIMORE, MD, 21230","Match","Exact","28 E OSTEND ST, BALTIMORE, MD, 21230",206421181,"L"
150425,"28 EAST STATE STREET","DELMAR","MD",21875,38.4560693620001,-75.577652379,425,"28 EAST STATE STREET, DELMAR, MD, 21875","Match","Exact","28 E STATE ST, DELMAR, MD, 21875",106074253,"L"
150426,"28 EAST STREET","NORTHFIELD","MA",1360,42.689530286,-72.454070534,426,"28 EAST STREET, NORTHFIELD, MA, 1360","Match","Exact","28 EAST ST, NORTHFIELD, MA, 01360",39934370,"L"
150427,"28 EAST SUSQUEHANNA AVE","TOWSON","MD",21286,39.398214717,-76.601191601,427,"28 EAST SUSQUEHANNA AVE, TOWSON, MD, 21286","Match","Exact","28 E SUSQUEHANNA AVE, TOWSON, MD, 21286",191539886,"R"
150428,"28 EASTHAM LANE","LONGMEADOW","MA",1106,42.0504031560001,-72.5763830339999,428,"28 EASTHAM LANE, LONGMEADOW, MA, 1106","Match","Exact","28 EASTHAM LN, LONGMEADOW, MA, 01106",645895853,"R"
150429,"28 EDISON AVE","BUFFALO","NY",14215,42.9236754630001,-78.802173339,429,"28 EDISON AVE, BUFFALO, NY, 14215","Match","Exact","28 EDISON AVE, BUFFALO, NY, 14215",48297637,"L"
150430,"28 ELDERT STREET APT 2","BROOKLYN","NY",11207,40.6859381730001,-73.913832327,430,"28 ELDERT STREET APT 2, BROOKLYN, NY, 11207","Match","Exact","28 ELDERT ST, BROOKLYN, NY, 11207",59083151,"R"
150431,"28 ENGLISH MUFFIN COURT","BERKELEY SPRINGS","WV",25411,39.487495859,-78.301613081,431,"28 ENGLISH MUFFIN COURT, BERKELEY SPRINGS, WV, 25411","Match","Exact","28 ENGLISH MUFFIN CT, BERKELEY SPRINGS, WV, 25411",653349029,"R"
150432,"28 ESTATE SUSANNABERG","ST JOHN","VI",830,NA,NA,432,"28 ESTATE SUSANNABERG, ST JOHN, VI, 830","No_Match",NA,NA,NA,NA
150433,"28 EVERGREEN TRAIL","MEDFORD","NJ",8055,39.880845622,-74.840911381,433,"28 EVERGREEN TRAIL, MEDFORD, NJ, 8055","Match","Exact","28 EVERGREEN TRL, MEDFORD, NJ, 08055",645513288,"L"
150434,"28 EXPEDITION CT","MARTINSBURG","WV",25403,39.4955982020001,-77.969760723,434,"28 EXPEDITION CT, MARTINSBURG, WV, 25403","Match","Exact","28 EXPEDITION CT, MARTINSBURG, WV, 25403",618012323,"R"
150435,"28 F ST SW","AUBURN","WA",98001,47.3073407430001,-122.236684514,435,"28 F ST SW, AUBURN, WA, 98001","Match","Exact","28 F ST SW, AUBURN, WA, 98001",186655643,"L"
150436,"28 FANEUIL RD","WALTHAM","MA",2452,42.3791779680001,-71.229656647,436,"28 FANEUIL RD, WALTHAM, MA, 2452","Match","Exact","28 FANEUIL RD, WALTHAM, MA, 02452",86890499,"L"
150437,"28 FARNHAM LANE","LAKE FOREST","IL",60045,42.2073137670001,-87.847730579,437,"28 FARNHAM LANE, LAKE FOREST, IL, 60045","Match","Exact","28 FARNHAM LN, LAKE FOREST, IL, 60045",119647634,"R"
150438,"28 FARNHAM ST","PORTLAND","ME",4103,43.6974738500001,-70.310413538,438,"28 FARNHAM ST, PORTLAND, ME, 4103","Match","Exact","28 FARNHAM ST, PORTLAND, ME, 04103",78025180,"L"
150439,"28 FARRELLY ST","KINGSTON","NY",12401,41.9358227340001,-73.993143163,439,"28 FARRELLY ST, KINGSTON, NY, 12401","Match","Exact","28 FARRELLY ST, KINGSTON, NY, 12401",41909695,"L"
150440,"28 FAWN RIDGE DR","HAMDEN","CT",6511,NA,NA,440,"28 FAWN RIDGE DR, HAMDEN, CT, 6511","No_Match",NA,NA,NA,NA
150441,"28 FAY ROAD","BROCKTON","MA",2302,42.099130787,-70.994782529,441,"28 FAY ROAD, BROCKTON, MA, 2302","Match","Exact","28 FAY RD, BROCKTON, MA, 02302",87442817,"L"
150442,"28 FIRST STREET SUITE B","MOUNT CLEMENS","MI",48043,42.5962707530001,-82.874625231,442,"28 FIRST STREET SUITE B, MOUNT CLEMENS, MI, 48043","Match","Exact","28 1ST ST, MOUNT CLEMENS, MI, 48043",110682772,"R"
150443,"28 FOREST COVE DRIVE","AKRON","OH",44319,40.977961458,-81.523392622,443,"28 FOREST COVE DRIVE, AKRON, OH, 44319","Match","Exact","28 FOREST COVE DR, AKRON, OH, 44319",61375641,"L"
150444,"28 FOSTER ST APT 1","BROCKTON","MA",2301,42.0733942950001,-71.022800987,444,"28 FOSTER ST APT 1, BROCKTON, MA, 2301","Match","Exact","28 FOSTER ST, BROCKTON, MA, 02301",87444156,"L"
150445,"28 FOX RUN LANE","GREENWICH","CT",6831,41.0494087320001,-73.64903542,445,"28 FOX RUN LANE, GREENWICH, CT, 6831","Match","Exact","28 FOX RUN LN, GREENWICH, CT, 06831",3256275,"L"
150446,"28 FRONT STREET","WEYMOUTH","MA",2188,42.218460845,-70.968471065,446,"28 FRONT STREET, WEYMOUTH, MA, 2188","Match","Exact","28 FRONT ST, WEYMOUTH, MA, 02188",87251540,"L"
150447,"28 FULTON RD","WINCHESTER","KY",40391,37.99536605,-84.196100386,447,"28 FULTON RD, WINCHESTER, KY, 40391","Match","Exact","28 FULTON RD, WINCHESTER, KY, 40391",31785691,"L"
150448,"28 GASLIGHT LN","NORTH EASTON","MA",2356,42.0239864850001,-71.1244558819999,448,"28 GASLIGHT LN, NORTH EASTON, MA, 2356","Match","Exact","28 GASLIGHT LN, NORTH EASTON, MA, 02356",46811728,"L"
150449,"28 GLEN ECHO BLVD","STOUGHTON","MA",2072,42.1426956760001,-71.080277041,449,"28 GLEN ECHO BLVD, STOUGHTON, MA, 2072","Match","Exact","28 GLEN ECHO BLVD, STOUGHTON, MA, 02072",87267038,"L"
150450,"28 GOLDEN COVE RD","CHELMSFORD","MA",1824,42.601770233,-71.3415220539999,450,"28 GOLDEN COVE RD, CHELMSFORD, MA, 1824","Match","Exact","28 GOLDEN COVE RD, CHELMSFORD, MA, 01824",87172065,"L"
150451,"28 GOLF ROAD","DARBY","PA",19023,39.9266976100001,-75.2671899589999,451,"28 GOLF ROAD, DARBY, PA, 19023","Match","Exact","28 GOLF RD, DARBY, PA, 19023",134884743,"R"
150452,"28 GRAND RIVER STE 1115","DETROIT","MI",48226,42.3340045940001,-83.0489279939999,452,"28 GRAND RIVER STE 1115, DETROIT, MI, 48226","Match","Non_Exact","28 GRAND RIVER AVE, DETROIT, MI, 48226",95479976,"R"
150453,"28 GRANT LANE","BERLIN","NJ",8009,39.7728105800001,-74.972118071,453,"28 GRANT LANE, BERLIN, NJ, 8009","Match","Exact","28 GRANT LN, BERLIN, NJ, 08009",134377218,"R"
150454,"28 GREEN CLOVER DR","HENRIETTA","NY",14467,43.0605989090001,-77.623621709,454,"28 GREEN CLOVER DR, HENRIETTA, NY, 14467","Match","Exact","28 GREEN CLOVER DR, HENRIETTA, NY, 14467",14535221,"R"
150455,"28 GREENHAVEN RD","RYE","NY",10580,40.9530618700001,-73.713282481,455,"28 GREENHAVEN RD, RYE, NY, 10580","Match","Exact","28 GREENHAVEN RD, RYE, NY, 10580",139757543,"R"
150456,"28 GREENWOOD RD","HOPKINTON","MA",1748,42.251988952,-71.5423715649999,456,"28 GREENWOOD RD, HOPKINTON, MA, 1748","Match","Exact","28 GREENWOOD RD, HOPKINTON, MA, 01748",87123145,"L"
150457,"28 H FOOTE ROAD","CHARLTON","MA",1507,42.1180560920001,-72.0206815559999,457,"28 H FOOTE ROAD, CHARLTON, MA, 1507","Match","Exact","28 H FOOTE RD, CHARLTON, MA, 01507",626222932,"L"
150458,"28 HAIG AVE","EAST PATCHOGUE","NY",11772,40.788008452,-72.967964529,458,"28 HAIG AVE, EAST PATCHOGUE, NY, 11772","Match","Exact","28 HAIG AVE, E PATCHOGUE, NY, 11772",647275630,"R"
150459,"28 HAMILTON STREET","SAYVILLE","NY",11782,40.7320674170001,-73.0768888549999,459,"28 HAMILTON STREET, SAYVILLE, NY, 11782","Match","Exact","28 HAMILTON ST, SAYVILLE, NY, 11782",114015544,"R"
150460,"28 HARWOOD CIRCLE","ROCHESTER","NY",14625,43.1521606850001,-77.49166616,460,"28 HARWOOD CIRCLE, ROCHESTER, NY, 14625","Match","Exact","28 HARWOOD CIR, ROCHESTER, NY, 14625",14545461,"L"
150461,"28 HAYFIELD LANE","HOLDEN","MA",1520,42.3495876330001,-71.821995833,461,"28 HAYFIELD LANE, HOLDEN, MA, 1520","Match","Exact","28 HAYFIELD LN, HOLDEN, MA, 01520",624530078,"L"
150462,"28 HEBRON STREET","HARTFORD","CT",6112,41.790533974,-72.6996478999999,462,"28 HEBRON STREET, HARTFORD, CT, 6112","Match","Exact","28 HEBRON ST, HARTFORD, CT, 06112",3488897,"R"
150463,"28 HICKORY STREET","ROCHESTER","NY",14620,43.142817403,-77.6102653359999,463,"28 HICKORY STREET, ROCHESTER, NY, 14620","Match","Exact","28 HICKORY ST, ROCHESTER, NY, 14620",14557486,"L"
150464,"28 HIGH STREET","RICHMOND","ME",4357,44.0872026370001,-69.806240089,464,"28 HIGH STREET, RICHMOND, ME, 4357","Match","Exact","28 HIGH ST, RICHMOND, ME, 04357",75599064,"R"
150465,"28 HILLTOP DRIVE","HILLSBORO","IL",62049,39.147374429,-89.489980703,465,"28 HILLTOP DRIVE, HILLSBORO, IL, 62049","Match","Exact","28 HILLTOP DR, HILLSBORO, IL, 62049",99441332,"L"
150466,"28 HOLLAND LANE","COLTS NECK","NJ",7722,40.299673227,-74.2205929839999,466,"28 HOLLAND LANE, COLTS NECK, NJ, 7722","Match","Exact","28 HOLLAND LN, COLTS NECK, NJ, 07722",90588997,"L"
150467,"28 HOLLY LANE","MATTAPOISETT","MA",2739,41.6573445500001,-70.7969300469999,467,"28 HOLLY LANE, MATTAPOISETT, MA, 2739","Match","Exact","28 HOLLY LN, MATTAPOISETT, MA, 02739",87456759,"R"
150468,"28 HOLLYBERRY CT","ROCKVILLE","MD",20852,39.0563769980001,-77.141896701,468,"28 HOLLYBERRY CT, ROCKVILLE, MD, 20852","Match","Exact","28 HOLLYBERRY CT, ROCKVILLE, MD, 20852",62055829,"L"
150469,"28 HUTTON DR","MAHWAH","NJ",7430,41.033084253,-74.1694007,469,"28 HUTTON DR, MAHWAH, NJ, 7430","Match","Exact","28 HUTTON DR, MAHWAH, NJ, 07430",64418973,"L"
150470,"28 JARVIS CREEK LANE","HILTON HEAD ISLAND","SC",29926,32.2083283310001,-80.7455193339999,470,"28 JARVIS CREEK LANE, HILTON HEAD ISLAND, SC, 29926","Match","Exact","28 JARVIS CREEK LN, HILTON HEAD ISLAND, SC, 29926",646069977,"R"
150471,"28 JENNA DR","MONROE","NY",10950,41.287179956,-74.216758618,471,"28 JENNA DR, MONROE, NY, 10950","Match","Exact","28 JENNA DR, MONROE, NY, 10950",124452389,"R"
150472,"28 JENSEN STREET","EAST BRUNSWICK","NJ",8816,40.43387396,-74.416168176,472,"28 JENSEN STREET, EAST BRUNSWICK, NJ, 8816","Match","Exact","28 JENSEN ST, E BRUNSWICK, NJ, 08816",60361313,"L"
150473,"28 JEPPSON AVE","WORCESTER","MA",1606,42.306537737,-71.7919455909999,473,"28 JEPPSON AVE, WORCESTER, MA, 1606","Match","Exact","28 JEPPSON AVE, WORCESTER, MA, 01606",40006716,"R"
150474,"28 JOHN F KENNEDY AVENUE","CLINTON","MA",1510,42.4104624500001,-71.693714836,474,"28 JOHN F KENNEDY AVENUE, CLINTON, MA, 1510","Match","Non_Exact","28 JOHN ST, CLINTON, MA, 01510",40035482,"L"
150475,"28 JOHNSON AVENUE","BLOOMFIELD","NJ",7003,40.826808913,-74.1863673889999,475,"28 JOHNSON AVENUE, BLOOMFIELD, NJ, 7003","Match","Exact","28 JOHNSON AVE, BLOOMFIELD, NJ, 07003",63452519,"L"
150476,"28 JONES ST  SUITE 102","EAST SETAUKET","NY",11733,40.9429052790001,-73.104982804,476,"28 JONES ST  SUITE 102, EAST SETAUKET, NY, 11733","Match","Exact","28 JONES ST, EAST SETAUKET, NY, 11733",114000408,"R"
150477,"28 JOYCE AVENUE","MASSAPEQUA","NY",11758,40.6930078440001,-73.430621355,477,"28 JOYCE AVENUE, MASSAPEQUA, NY, 11758","Match","Exact","28 JOYCE AVE, MASSAPEQUA, NY, 11758",147652821,"R"
150478,"28 JUBREY STREET","WINDSOR","CT",6095,41.846374575,-72.685120895,478,"28 JUBREY STREET, WINDSOR, CT, 6095","Match","Non_Exact","28 JUBREY DR, WINDSOR, CT, 06095",617829269,"L"
150479,"28 KENDALL PLACE","ST. PETERS","MO",63376,38.76421085,-90.680950658,479,"28 KENDALL PLACE, ST. PETERS, MO, 63376","Match","Exact","28 KENDALL PL, SAINT PETERS, MO, 63376",100081321,"R"
150480,"28 KEVIN DRIVE","BRIGHTON","IL",62012,39.033594346,-90.12813162,480,"28 KEVIN DRIVE, BRIGHTON, IL, 62012","Match","Exact","28 KEVIN DR, BRIGHTON, IL, 62012",97910667,"R"
150481,"28 KILEY WAY","COVENTRY","RI",2816,41.6869403360001,-71.590183988,481,"28 KILEY WAY, COVENTRY, RI, 2816","Match","Exact","28 KILEY WAY, COVENTRY, RI, 02816",645567347,"R"
150482,"28 KIMMER COURT","FREDERICKSBURG","VA",22406,38.370179251,-77.537907006,482,"28 KIMMER COURT, FREDERICKSBURG, VA, 22406","Match","Exact","28 KIMMER CT, FREDERICKSBURG, VA, 22406",636654055,"R"
150483,"28 KINDERHOOK STREET APT 1","CHATHAM","NY",12037,42.36334006,-73.597421877,483,"28 KINDERHOOK STREET APT 1, CHATHAM, NY, 12037","Match","Exact","28 KINDERHOOK ST, CHATHAM, NY, 12037",41514247,"R"
150484,"28 KINGS CT","LAKEWOOD","NJ",8701,40.0949323470001,-74.251655117,484,"28 KINGS CT, LAKEWOOD, NJ, 8701","Match","Exact","28 KINGS CT, LAKEWOOD, NJ, 08701",203843072,"L"
150485,"28 KRISTEN LANE","MANTUA","NJ",8051,39.7878333840001,-75.1958677329999,485,"28 KRISTEN LANE, MANTUA, NJ, 8051","Match","Exact","28 KRISTEN LN, MANTUA, NJ, 08051",641597357,"L"
150486,"28 LAGOON DRIVE WEST","BRICK","NJ",8723,40.046371671,-74.083874247,486,"28 LAGOON DRIVE WEST, BRICK, NJ, 8723","Match","Exact","28 LAGOON DR W, BRICK, NJ, 08723",203735450,"R"
150487,"28 LAIGHT STREET APT 5B","NEW YORK","NY",10013,40.721860319,-74.007117952,487,"28 LAIGHT STREET APT 5B, NEW YORK, NY, 10013","Match","Exact","28 LAIGHT ST, NEW YORK, NY, 10013",640901391,"R"
150488,"28 LAKE OF THE HILLS","ORION","IL",61273,41.316716399,-90.432654547,488,"28 LAKE OF THE HILLS, ORION, IL, 61273","Match","Non_Exact","28 LAKE OF THE HILL, ORION, IL, 61273",8921397,"R"
150489,"28 LAKE WALTON RD","WAPPINGERS FALLS","NY",12590,41.60386106,-73.8336154839999,489,"28 LAKE WALTON RD, WAPPINGERS FALLS, NY, 12590","Match","Exact","28 LAKE WALTON RD, WAPPINGERS FALLS, NY, 12590",4227781,"R"
150490,"28 LATHAM WOOD","PLYMOUTH","MA",2360,41.89454512,-70.6070135909999,490,"28 LATHAM WOOD, PLYMOUTH, MA, 2360","Match","Exact","28 LATHAM WOOD, PLYMOUTH, MA, 02360",638264002,"L"
150491,"28 LEUCE PLACE","GLEN COVE","NY",11542,40.876999481,-73.6261334599999,491,"28 LEUCE PLACE, GLEN COVE, NY, 11542","Match","Exact","28 LEUCE PL, GLEN COVE, NY, 11542",147654148,"R"
150492,"28 LEXINGTON AVENUE","JERSEY CITY","NJ",7304,40.717527497,-74.078389191,492,"28 LEXINGTON AVENUE, JERSEY CITY, NJ, 7304","Match","Exact","28 LEXINGTON AVE, JERSEY CITY, NJ, 07304",59604230,"R"
150493,"28 LIBERTY STREET FLOOR 6","NEW YORK","NY",10005,40.707930323,-74.0085328169999,493,"28 LIBERTY STREET FLOOR 6, NEW YORK, NY, 10005","Match","Exact","28 LIBERTY ST, NEW YORK, NY, 10005",59659650,"L"
150494,"28 LINDEN PL UNIT F","STAMFORD","CT",6902,41.0601063010001,-73.5447698,494,"28 LINDEN PL UNIT F, STAMFORD, CT, 6902","Match","Exact","28 LINDEN PL, STAMFORD, CT, 06902",635979247,"L"
150495,"28 LISA LANE","GREENACRES","FL",33463,26.6138480440001,-80.133291648,495,"28 LISA LANE, GREENACRES, FL, 33463","Match","Exact","28 LISA LN, GREENACRES, FL, 33463",115578469,"L"
150496,"28 LITTLEJOHN LINE","ROCKLEDGE","FL",32955,28.3469199040001,-80.7231015089999,496,"28 LITTLEJOHN LINE, ROCKLEDGE, FL, 32955","Match","Non_Exact","28 LITTLEJOHN LN, ROCKLEDGE, FL, 32955",93894447,"R"
150497,"28 LOCUST STREET APT 304","BROOKLYN","NY",11206,40.6990060630001,-73.937797497,497,"28 LOCUST STREET APT 304, BROOKLYN, NY, 11206","Match","Exact","28 LOCUST ST, BROOKLYN, NY, 11206",59079053,"R"
150498,"28 MAIDA AVENUE","DEER PARK","NY",11729,40.746349298,-73.3121965029999,498,"28 MAIDA AVENUE, DEER PARK, NY, 11729","Match","Exact","28 MAIDA AVE, DEER PARK, NY, 11729",113993010,"L"
150499,"28 MAIN STREET","BELGRADE","ME",4917,44.5264391950001,-69.886908583,499,"28 MAIN STREET, BELGRADE, ME, 4917","Match","Exact","28 MAIN ST, BELGRADE, ME, 04917",607808796,"L"
150500,"28 MAIN STREET","BRADFORD","PA",16701,41.955877285,-78.650026343,500,"28 MAIN STREET, BRADFORD, PA, 16701","Match","Exact","28 MAIN ST, BRADFORD, PA, 16701",122625851,"R"
