"ID","Address","City","State","Zip","lat","long","id","input_address","match_indicator","match_type","matched_address","tiger_line_id","tiger_side"
130501,"2353 PARK AVE APT 3","CINCINNATI","OH",45206,39.1244203960001,-84.486361403,1,"2353 PARK AVE APT 3, CINCINNATI, OH, 45206","Match","Exact","2353 PARK AVE, CINCINNATI, OH, 45206",103926443,"L"
130502,"2353 RAINY LAKE ST","WAKE FOREST","NC",27587,35.9087187000001,-78.509420169,2,"2353 RAINY LAKE ST, WAKE FOREST, NC, 27587","Match","Exact","2353 RAINY LAKE ST, WAKE FOREST, NC, 27587",612816674,"L"
130503,"2353 RICE BLVD","HOUSTON","TX",77005,29.7174689930001,-95.41378381,3,"2353 RICE BLVD, HOUSTON, TX, 77005","Match","Exact","2353 RICE BLVD, HOUSTON, TX, 77005",96063842,"L"
130504,"2353 RICE ST SUITE 103","ROSEVILLE","MN",55113,45.012069416,-93.10599383,4,"2353 RICE ST SUITE 103, ROSEVILLE, MN, 55113","Match","Exact","2353 RICE ST, ROSEVILLE, MN, 55113",97643205,"L"
130505,"2353 RICE STREET SUT 107","ROSEVILLE","MN",55113,45.012069416,-93.10599383,5,"2353 RICE STREET SUT 107, ROSEVILLE, MN, 55113","Match","Exact","2353 RICE ST, ROSEVILLE, MN, 55113",97643205,"L"
130506,"2353 SOUTH 39TH STREET","ST. LOUIS","MO",63110,38.6085685030001,-90.246343611,6,"2353 SOUTH 39TH STREET, ST. LOUIS, MO, 63110","Match","Exact","2353 S 39TH ST, SAINT LOUIS, MO, 63110",605123663,"R"
130507,"2353 SOUTH WOLFSNARE CT","VIRGINIA BEACH","VA",23454,NA,NA,7,"2353 SOUTH WOLFSNARE CT, VIRGINIA BEACH, VA, 23454","Tie",NA,NA,NA,NA
130508,"2353 W JACKSON BLVD","CHICAGO","IL",60612,41.8775544710001,-87.685635469,8,"2353 W JACKSON BLVD, CHICAGO, IL, 60612","Match","Exact","2353 W JACKSON BLVD, CHICAGO, IL, 60612",605089802,"L"
130509,"23531 MEADOWLARK ST","OAK PARK","MI",48237,42.46430408,-83.15996846,9,"23531 MEADOWLARK ST, OAK PARK, MI, 48237","Match","Exact","23531 MEADOWLARK ST, OAK PARK, MI, 48237",69742270,"L"
130510,"23531 SUNSET VW","SORRENTO","FL",32776,28.7996308080001,-81.562920885,10,"23531 SUNSET VW, SORRENTO, FL, 32776","Match","Exact","23531 SUNSET VW, SORRENTO, FL, 32776",94151084,"R"
130511,"23531 V ROAD","HOLTON","KS",66436,39.4702256910001,-95.644953974,11,"23531 V ROAD, HOLTON, KS, 66436","Match","Exact","23531 V RD, HOLTON, KS, 66436",10121323,"L"
130512,"23535 PALOMINO DR 197","DIAMOND BAR","CA",91765,34.0230994780001,-117.809055195,12,"23535 PALOMINO DR 197, DIAMOND BAR, CA, 91765","Match","Exact","23535 PALOMINO DR, DIAMOND BAR, CA, 91765",141730437,"L"
130513,"23535 PALOMINO DRIVE - 290","DIAMOND BAR","CA",91765,34.0230994780001,-117.809055195,13,"23535 PALOMINO DRIVE - 290, DIAMOND BAR, CA, 91765","Match","Exact","23535 PALOMINO DR, DIAMOND BAR, CA, 91765",141730437,"L"
130514,"23535","MARIONVILLE","MO",65705,NA,NA,14,"23535, MARIONVILLE, MO, 65705","No_Match",NA,NA,NA,NA
130515,"23539 BAYLFEAD DR","SPRING","TX",77373,NA,NA,15,"23539 BAYLFEAD DR, SPRING, TX, 77373","No_Match",NA,NA,NA,NA
130516,"23539 CR 150","TINA","MO",64682,39.542939291,-93.503395744,16,"23539 CR 150, TINA, MO, 64682","Match","Exact","23539 CR 150, TINA, MO, 64682",20820090,"R"
130517,"23539 FISHMARKET RD","TECUMSEH","OK",74873,35.2237860990001,-97.124084726,17,"23539 FISHMARKET RD, TECUMSEH, OK, 74873","Match","Exact","23539 FISHMARKET RD, TECUMSEH, OK, 74873",650750008,"L"
130518,"23539 KING","CLINTON TOWNSHIP","MI",48035,42.563111431,-82.877351178,18,"23539 KING, CLINTON TOWNSHIP, MI, 48035","Match","Non_Exact","23539 KING DR, CLINTON TOWNSHIP, MI, 48035",110700504,"L"
130519,"23539 W MANOR DR","GENOA","OH",43430,NA,NA,19,"23539 W MANOR DR, GENOA, OH, 43430","No_Match",NA,NA,NA,NA
130520,"2354 248TH ST","LOMITA","CA",90717,33.799691475,-118.324115438,20,"2354 248TH ST, LOMITA, CA, 90717","Match","Non_Exact","2354 W 248TH ST, LOMITA, CA, 90717",141666285,"L"
130521,"2354 FAIRWAY","HIGH RIDGE","MO",63049,38.467966389,-90.514508905,21,"2354 FAIRWAY, HIGH RIDGE, MO, 63049","Match","Exact","2354 FAIRWAY, HIGH RIDGE, MO, 63049",62808394,"L"
130522,"2354 GREEN FORREST DRIVE","DECATUR","GA",30032,33.721686119,-84.26134143,22,"2354 GREEN FORREST DRIVE, DECATUR, GA, 30032","Match","Exact","2354 GREEN FORREST DR, DECATUR, GA, 30032",23370644,"L"
130523,"2354 NE HOTSPUR LANE","LINCOLN CITY","OR",97367,NA,NA,23,"2354 NE HOTSPUR LANE, LINCOLN CITY, OR, 97367","No_Match",NA,NA,NA,NA
130524,"2354 NORTH WILMINGTON AVENUE","COMPTON","CA",90222,33.9137374760001,-118.239061093,24,"2354 NORTH WILMINGTON AVENUE, COMPTON, CA, 90222","Match","Exact","2354 N WILMINGTON AVE, COMPTON, CA, 90222",141674757,"R"
130525,"2354 OKALINA AVNUE","WINSTON-SALEM","NC",27105,36.11900547,-80.2429435179999,25,"2354 OKALINA AVNUE, WINSTON-SALEM, NC, 27105","Match","Exact","2354 OKALINA AVE, WINSTON SALEM, NC, 27105",84609258,"L"
130526,"2354 PIONEER RD","CHIPLEY","FL",32428,30.631332324,-85.602134695,26,"2354 PIONEER RD, CHIPLEY, FL, 32428","Match","Exact","2354 PIONEER RD, CHIPLEY, FL, 32428",647508395,"L"
130527,"2354 S STATE STREET","SALT LAKE CITY","UT",84115,40.7195591440001,-111.888235803,27,"2354 S STATE STREET, SALT LAKE CITY, UT, 84115","Match","Exact","2354 S STATE ST, SALT LAKE CITY, UT, 84115",176078551,"R"
130528,"2354 SEAMIST CIRCLE","SEABROOK","TX",77586,29.584837066,-95.030948963,28,"2354 SEAMIST CIRCLE, SEABROOK, TX, 77586","Match","Exact","2354 SEAMIST CIR, SEABROOK, TX, 77586",96550971,"L"
130529,"2354 SEQUOIA GROVE ST","WALDORF","MD",20601,38.647565349,-76.91546676,29,"2354 SEQUOIA GROVE ST, WALDORF, MD, 20601","Match","Exact","2354 SEQUOIA GROVE ST, WALDORF, MD, 20601",635832934,"L"
130530,"2354 WEST CREEK DRIVE","FRISCO","TX",75033,33.1645327310001,-96.870326839,30,"2354 WEST CREEK DRIVE, FRISCO, TX, 75033","Match","Exact","2354 W CREEK DR, FRISCO, TX, 75033",103418539,"R"
130531,"2354","ANAHUAC","TX",77514,NA,NA,31,"2354, ANAHUAC, TX, 77514","No_Match",NA,NA,NA,NA
130532,"23540 DAVID DR C114","NORTH OLMSTED","OH",44070,41.4299689860001,-81.882322094,32,"23540 DAVID DR C114, NORTH OLMSTED, OH, 44070","Match","Exact","23540 DAVID DR, NORTH OLMSTED, OH, 44070",61139510,"R"
130533,"23541 OLD WAGON ROAD","ESCONDIDO","CA",92027,33.1428456510001,-116.98038584,33,"23541 OLD WAGON ROAD, ESCONDIDO, CA, 92027","Match","Exact","23541 OLD WAGON RD, ESCONDIDO, CA, 92027",645489807,"L"
130534,"23545 CRENSHAW BLVD STE 102A","TORRANCE","CA",90505,33.812397155,-118.328034895,34,"23545 CRENSHAW BLVD STE 102A, TORRANCE, CA, 90505","Match","Exact","23545 CRENSHAW BLVD, TORRANCE, CA, 90505",141666204,"R"
130535,"23546 FOREST HAVEN WAY","CLARKSBURG","MD",20871,39.241990592,-77.268551373,35,"23546 FOREST HAVEN WAY, CLARKSBURG, MD, 20871","Match","Exact","23546 FOREST HAVEN WAY, CLARKSBURG, MD, 20871",640168197,"L"
130536,"23548 CALABASAS ROAD 206 E","CALABASAS","CA",91302,34.155681632,-118.643450426,36,"23548 CALABASAS ROAD 206 E, CALABASAS, CA, 91302","Match","Exact","23548 CALABASAS RD, CALABASAS, CA, 91302",142046241,"R"
130537,"2355 14TH AVE N","ST PETERSBURG","FL",33713,27.785609692,-82.6646381369999,37,"2355 14TH AVE N, ST PETERSBURG, FL, 33713","Match","Exact","2355 14TH AVE N, SAINT PETERSBURG, FL, 33713",124705223,"R"
130538,"2355 16TH AVENUE","VERO BEACH","FL",32960,27.6429911750001,-80.401318827,38,"2355 16TH AVENUE, VERO BEACH, FL, 32960","Match","Exact","2355 16TH AVE, VERO BEACH, FL, 32960",610946770,"L"
130539,"2355 BOULDER CLIFF WAY","ATLANTA","GA",30316,33.7192823010001,-84.32010179,39,"2355 BOULDER CLIFF WAY, ATLANTA, GA, 30316","Match","Non_Exact","2355 BOULDERCLIFF WAY, ATLANTA, GA, 30316",637248975,"R"
130540,"2355 CENTERVILLE RD 12371","TALLAHASSEE","FL",32308,30.4808320610001,-84.232516314,40,"2355 CENTERVILLE RD 12371, TALLAHASSEE, FL, 32308","Match","Exact","2355 CENTERVILLE RD, TALLAHASSEE, FL, 32308",82863452,"R"
130541,"2355 COMPTON PL","SUWANEE","GA",30024,34.0094231910001,-84.048101549,41,"2355 COMPTON PL, SUWANEE, GA, 30024","Match","Non_Exact","2355 COMPTON PL NW, SUWANEE, GA, 30024",88920420,"L"
130542,"2355 COUNTY ROAD 55","CENTRE","AL",35960,34.1037804170001,-85.698992221,42,"2355 COUNTY ROAD 55, CENTRE, AL, 35960","Match","Exact","2355 CO RD 55, CENTRE, AL, 35960",30236205,"L"
130543,"2355 DIVISION AVE S","GRAND RAPIDS","MI",49507,42.921273037,-85.666386642,43,"2355 DIVISION AVE S, GRAND RAPIDS, MI, 49507","Match","Exact","2355 DIVISION AVE S, GRAND RAPIDS, MI, 49507",12459475,"R"
130544,"2355 E CAMELBACK RD STE 610","PHOENIX","AZ",85016,33.5093054490001,-112.031541812,44,"2355 E CAMELBACK RD STE 610, PHOENIX, AZ, 85016","Match","Non_Exact","2355 E CAMELBACK RD, PHOENIX, AZ, 85016",128209857,"R"
130545,"2355 E CAMELBACK ROAD SUITE 250","PHOENIX","AZ",85016,33.5093054490001,-112.031541812,45,"2355 E CAMELBACK ROAD SUITE 250, PHOENIX, AZ, 85016","Match","Non_Exact","2355 E CAMELBACK RD, PHOENIX, AZ, 85016",128209857,"R"
130546,"2355 EAST CEDAR RIDGE ROAD","TISHOMINGO","OK",73460,34.2595860540001,-96.611084418,46,"2355 EAST CEDAR RIDGE ROAD, TISHOMINGO, OK, 73460","Match","Exact","2355 E CEDAR RIDGE RD, TISHOMINGO, OK, 73460",635494807,"R"
130547,"2355 FAIRVIEW AVE 192","ROSEVILLE","MN",55113,NA,NA,47,"2355 FAIRVIEW AVE 192, ROSEVILLE, MN, 55113","No_Match",NA,NA,NA,NA
130548,"2355 FAIRVIEW AVENUE SUITE 281","ROSEVILLE","MN",55113,NA,NA,48,"2355 FAIRVIEW AVENUE SUITE 281, ROSEVILLE, MN, 55113","No_Match",NA,NA,NA,NA
130549,"2355 HALKIRK STREET SOUTH","COLUMBUS","OH",43229,40.06467037,-82.955659257,49,"2355 HALKIRK STREET SOUTH, COLUMBUS, OH, 43229","Match","Exact","2355 HALKIRK ST S, COLUMBUS, OH, 43229",218659251,"L"
130550,"2355 HEATHERGLEN DR","MAUMEE","OH",43537,41.598236587,-83.7034805449999,50,"2355 HEATHERGLEN DR, MAUMEE, OH, 43537","Match","Non_Exact","2355 HEATHERNGLEN DR, MAUMEE, OH, 43537",33930241,"L"
130551,"2355 HILLVIEW STREET","PITTSBURGH","PA",15234,40.3789034770001,-79.996437262,51,"2355 HILLVIEW STREET, PITTSBURGH, PA, 15234","Match","Exact","2355 HILLVIEW ST, PITTSBURGH, PA, 15234",607616776,"L"
130552,"2355 JACKSONBURG RD","HAMILTON","OH",45011,39.450805109,-84.5302163279999,52,"2355 JACKSONBURG RD, HAMILTON, OH, 45011","Match","Exact","2355 JACKSONBURG RD, HAMILTON, OH, 45011",640818506,"L"
130553,"2355 LEBANON RD NO 16107","FRISCO","TX",75034,33.120875794,-96.8673481339999,53,"2355 LEBANON RD NO 16107, FRISCO, TX, 75034","Match","Non_Exact","2355 LEBANON RD, FRISCO, TX, 75034",638655141,"R"
130554,"2355 LONG BEACH BLVD STE 406","LONG BEACH","CA",90806,33.8000151320001,-118.189367663,54,"2355 LONG BEACH BLVD STE 406, LONG BEACH, CA, 90806","Match","Exact","2355 LONG BEACH BLVD, LONG BEACH, CA, 90806",141686882,"L"
130555,"2355 MATTHEW COURT","MONROE","GA",30655,33.777702977,-83.770934584,55,"2355 MATTHEW COURT, MONROE, GA, 30655","Match","Non_Exact","2355 MATTHEW CIR, MONROE, GA, 30655",77624459,"L"
130556,"2355 MEADOW ST","FLUSHING","MI",48433,43.041293227,-83.7811076099999,56,"2355 MEADOW ST, FLUSHING, MI, 48433","Match","Exact","2355 MEADOW ST, FLUSHING, MI, 48433",69561895,"L"
130557,"2355 NEBRASKA AVENUE","PALM HARBOR","FL",34683,28.0789291680001,-82.741957062,57,"2355 NEBRASKA AVENUE, PALM HARBOR, FL, 34683","Match","Exact","2355 NEBRASKA AVE, PALM HARBOR, FL, 34683",652700061,"L"
130558,"2355 NORTH HIGHWAY 360 APT 1124","GRAND PRAIRIE","TX",75050,32.790261324,-97.058315851,58,"2355 NORTH HIGHWAY 360 APT 1124, GRAND PRAIRIE, TX, 75050","Match","Non_Exact","2355 N STATE HWY 360, GRAND PRAIRIE, TX, 75050",650123791,"L"
130559,"2355 NORTH SAINT PAUL CHURCH ROAD","SUMTER","SC",29154,33.9640215270001,-80.445040101,59,"2355 NORTH SAINT PAUL CHURCH ROAD, SUMTER, SC, 29154","Match","Non_Exact","2355 N SAINT PAULS CHURCH RD, SUMTER, SC, 29154",630032122,"R"
130560,"2355 PLAYERS POND LANE","RESTON","VA",20191,38.9453886040001,-77.387928541,60,"2355 PLAYERS POND LANE, RESTON, VA, 20191","Match","Exact","2355 PLAYERS POND LN, RESTON, VA, 20191",76024212,"L"
130561,"2355 RED ROCK ST 103","LAS VEGAS","NV",89146,NA,NA,61,"2355 RED ROCK ST 103, LAS VEGAS, NV, 89146","No_Match",NA,NA,NA,NA
130562,"2355 REDMAN RD","SAINT LOUIS","MO",63136,38.7826273000001,-90.244377782,62,"2355 REDMAN RD, SAINT LOUIS, MO, 63136","Match","Exact","2355 REDMAN RD, SAINT LOUIS, MO, 63136",100148295,"R"
130563,"2355 ROSSMERE ST","COLORADO SPGS","CO",80919,38.9224531680001,-104.869567725,63,"2355 ROSSMERE ST, COLORADO SPGS, CO, 80919","Match","Exact","2355 ROSSMERE ST, COLORADO SPRINGS, CO, 80919",105529945,"L"
130564,"2355 ROUTE 100","OREFIELD","PA",18069,40.607308468,-75.6436466769999,64,"2355 ROUTE 100, OREFIELD, PA, 18069","Match","Exact","2355 RTE 100, OREFIELD, PA, 18069",80753848,"R"
130565,"2355 S LUMPKIN ST","ATHENS","GA",30606,33.920691957,-83.388822593,65,"2355 S LUMPKIN ST, ATHENS, GA, 30606","Match","Exact","2355 S LUMPKIN ST, ATHENS, GA, 30606",647434291,"L"
130566,"2355 S RIPPLE PATH","CRYSTAL RIVER","FL",34429,28.8269821640001,-82.666782596,66,"2355 S RIPPLE PATH, CRYSTAL RIVER, FL, 34429","Match","Exact","2355 S RIPPLE PATH, CRYSTAL RIVER, FL, 34429",610739720,"R"
130567,"2355 TWELVESTONES DRIVE","ROSWELL","GA",30076,33.999912222,-84.291117355,67,"2355 TWELVESTONES DRIVE, ROSWELL, GA, 30076","Match","Exact","2355 TWELVESTONES DR, ROSWELL, GA, 30076",17373718,"R"
130568,"2355 VIA MARIPOSA WEST UNIT 2E","LAGUNA WOODS","CA",92637,33.614148868,-117.721000612,68,"2355 VIA MARIPOSA WEST UNIT 2E, LAGUNA WOODS, CA, 92637","Match","Exact","2355 VIA MARIPOSA W, LAGUNA WOODS, CA, 92637",144062434,"L"
130569,"2355 W  MICHIGAN AVE E29","PENSACOLA","FL",32526,NA,NA,69,"2355 W  MICHIGAN AVE E29, PENSACOLA, FL, 32526","Tie",NA,NA,NA,NA
130570,"2355 WATERWHEEL RD","EMMETT","ID",83617,43.886330887,-116.464805264,70,"2355 WATERWHEEL RD, EMMETT, ID, 83617","Match","Exact","2355 WATERWHEEL RD, EMMETT, ID, 83617",647467933,"L"
130571,"2355 WESTWOOD BLVD     838","LOS ANGELES","CA",90064,34.0411557240001,-118.429388791,71,"2355 WESTWOOD BLVD     838, LOS ANGELES, CA, 90064","Match","Exact","2355 WESTWOOD BLVD, LOS ANGELES, CA, 90064",141569960,"R"
130572,"2355 WESTWOOD BLVD 332","LOS ANGELES","CA",90064,34.0411557240001,-118.429388791,72,"2355 WESTWOOD BLVD 332, LOS ANGELES, CA, 90064","Match","Exact","2355 WESTWOOD BLVD, LOS ANGELES, CA, 90064",141569960,"R"
130573,"2355 WESTWOOD BLVD 578","LOS ANGELES","CA",90064,34.0411557240001,-118.429388791,73,"2355 WESTWOOD BLVD 578, LOS ANGELES, CA, 90064","Match","Exact","2355 WESTWOOD BLVD, LOS ANGELES, CA, 90064",141569960,"R"
130574,"2355 WESTWOOD BLVD NUM 832","LOS ANGELES","CA",90064,34.0411557240001,-118.429388791,74,"2355 WESTWOOD BLVD NUM 832, LOS ANGELES, CA, 90064","Match","Exact","2355 WESTWOOD BLVD, LOS ANGELES, CA, 90064",141569960,"R"
130575,"2355 WESTWOOD BLVD SUITE 371","LOS ANGELES","CA",90064,34.0411557240001,-118.429388791,75,"2355 WESTWOOD BLVD SUITE 371, LOS ANGELES, CA, 90064","Match","Exact","2355 WESTWOOD BLVD, LOS ANGELES, CA, 90064",141569960,"R"
130576,"2355 WESTWOOD BLVD SUITE 604","LOS ANGELES","CA",90064,34.0411557240001,-118.429388791,76,"2355 WESTWOOD BLVD SUITE 604, LOS ANGELES, CA, 90064","Match","Exact","2355 WESTWOOD BLVD, LOS ANGELES, CA, 90064",141569960,"R"
130577,"2355 WESTWOOD BOULEVARD    NUM 582","LOS ANGELES","CA",90064,34.0411557240001,-118.429388791,77,"2355 WESTWOOD BOULEVARD    NUM 582, LOS ANGELES, CA, 90064","Match","Exact","2355 WESTWOOD BLVD, LOS ANGELES, CA, 90064",141569960,"R"
130578,"2355 WESTWOOD BOULEVARD   SUITE 582","LOS ANGELES","CA",90064,34.0411557240001,-118.429388791,78,"2355 WESTWOOD BOULEVARD   SUITE 582, LOS ANGELES, CA, 90064","Match","Exact","2355 WESTWOOD BLVD, LOS ANGELES, CA, 90064",141569960,"R"
130579,"2355 WESTWOOD BOULEVARD - UNIT 512","LOS ANGELES","CA",90064,34.0411557240001,-118.429388791,79,"2355 WESTWOOD BOULEVARD - UNIT 512, LOS ANGELES, CA, 90064","Match","Exact","2355 WESTWOOD BLVD, LOS ANGELES, CA, 90064",141569960,"R"
130580,"2355 WILSON CREEK CIR","AURORA","IL",60503,41.710112183,-88.2626169219999,80,"2355 WILSON CREEK CIR, AURORA, IL, 60503","Match","Exact","2355 WILSON CREEK CIR, AURORA, IL, 60503",611656153,"R"
130581,"2355 YOLANDA AVE","SPRINGFIELD","OR",97477,44.0723913730001,-122.99091252,81,"2355 YOLANDA AVE, SPRINGFIELD, OR, 97477","Match","Exact","2355 YOLANDA AVE, SPRINGFIELD, OR, 97477",178230760,"R"
130582,"23550 DENTON APT 151","CLINTON TWP","MI",48036,42.5715228620001,-82.878619156,82,"23550 DENTON APT 151, CLINTON TWP, MI, 48036","Match","Non_Exact","23550 DENTON ST, CLINTON TOWNSHIP, MI, 48036",110683191,"R"
130583,"23550 LOOP 494","PORTER","TX",77365,30.10443229,-95.2290237939999,83,"23550 LOOP 494, PORTER, TX, 77365","Match","Exact","23550 LOOP 494, PORTER, TX, 77365",79335215,"L"
130584,"23553","OVERLAND PARK","KS",66283,NA,NA,84,"23553, OVERLAND PARK, KS, 66283","No_Match",NA,NA,NA,NA
130585,"23555 GODDARD RD","TAYLOR","MI",48180,42.226583238,-83.262995836,85,"23555 GODDARD RD, TAYLOR, MI, 48180","Match","Exact","23555 GODDARD RD, TAYLOR, MI, 48180",638746156,"L"
130586,"23555 N 67TH AVE","GLENDALE","AZ",85310,33.6988988690001,-112.2029671,86,"23555 N 67TH AVE, GLENDALE, AZ, 85310","Match","Exact","23555 N 67TH AVE, GLENDALE, AZ, 85310",244036194,"R"
130587,"23558 ULYSSES ST N E","EAST BETHEL","MN",55005,45.3968454050001,-93.2372401709999,87,"23558 ULYSSES ST N E, EAST BETHEL, MN, 55005","Match","Exact","23558 ULYSSES ST NE, EAST BETHEL, MN, 55005",97531214,"L"
130588,"23559 COUNTY ROAD 23","GREENBUSH","MN",56726,48.738224819,-96.2949092599999,88,"23559 COUNTY ROAD 23, GREENBUSH, MN, 56726","Match","Exact","23559 CO RD 23, GREENBUSH, MN, 56726",176600187,"L"
130589,"2356 AIRPORT DRIVE","DIAMONDHEAD","MS",39525,30.3612415270001,-89.381553523,89,"2356 AIRPORT DRIVE, DIAMONDHEAD, MS, 39525","Match","Exact","2356 AIRPORT DR, DIAMONDHEAD, MS, 39525",111129068,"L"
130590,"2356 CHANTILLY TER","OVIEDO","FL",32765,28.6321327690001,-81.2168677669999,90,"2356 CHANTILLY TER, OVIEDO, FL, 32765","Match","Exact","2356 CHANTILLY TER, OVIEDO, FL, 32765",93760325,"L"
130591,"2356 COUNTY ROAD 220","DURANGO","CO",81303,37.214961438,-107.803390868,91,"2356 COUNTY ROAD 220, DURANGO, CO, 81303","Match","Exact","2356 CO RD 220, DURANGO, CO, 81303",645922017,"L"
130592,"2356 ELVIS PRESLEY BLVD","MEMPHIS","TN",38106,35.080803589,-90.018883827,92,"2356 ELVIS PRESLEY BLVD, MEMPHIS, TN, 38106","Match","Exact","2356 ELVIS PRESLEY BLVD, MEMPHIS, TN, 38106",72909225,"L"
130593,"2356 GREEN ST SE","WASHINGTON","DC",20020,38.8616450530001,-76.98139523,93,"2356 GREEN ST SE, WASHINGTON, DC, 20020","Match","Exact","2356 GREEN ST SE, WASHINGTON, DC, 20020",76231223,"L"
130594,"2356 HARRODSBURG RD","LEXINGTON","KY",40503,38.020833269,-84.543745294,94,"2356 HARRODSBURG RD, LEXINGTON, KY, 40503","Match","Exact","2356 HARRODSBURG RD, LEXINGTON, KY, 40503",640449195,"L"
130595,"2356 HOBART AVE SW","SEATTLE","WA",98116,47.5834331720001,-122.398998754,95,"2356 HOBART AVE SW, SEATTLE, WA, 98116","Match","Exact","2356 HOBART AVE SW, SEATTLE, WA, 98116",186660412,"L"
130596,"2356 MORNINGSTAR LANE","BRIGHTON","IL",62012,39.0338122370001,-90.117617915,96,"2356 MORNINGSTAR LANE, BRIGHTON, IL, 62012","Match","Exact","2356 MORNINGSTAR LN, BRIGHTON, IL, 62012",648157312,"R"
130597,"2356 PLUMB PLACE","ERIE","CO",80516,40.0423279340001,-105.080727445,97,"2356 PLUMB PLACE, ERIE, CO, 80516","Match","Exact","2356 PLUMB PL, ERIE, CO, 80516",188245466,"L"
130598,"2356 PORTAL WAY","SAN JOSE","CA",95148,37.3395244270001,-121.793275568,98,"2356 PORTAL WAY, SAN JOSE, CA, 95148","Match","Exact","2356 PORTAL WAY, SAN JOSE, CA, 95148",122916863,"L"
130599,"2356 SHARPE-ELVA ROAD","BENTON","KY",42025,36.9582302540001,-88.466945634,99,"2356 SHARPE-ELVA ROAD, BENTON, KY, 42025","Match","Non_Exact","2356 SHARPE ELVA RD, BENTON, KY, 42025",99501919,"R"
130600,"23560 CANTARA ROAD","CORONA","CA",92883,33.77741429,-117.503285379,100,"23560 CANTARA ROAD, CORONA, CA, 92883","Match","Exact","23560 CANTARA RD, CORONA, CA, 92883",194779023,"L"
130601,"23560 N 1800 RD","BUSHNELL","IL",61422,NA,NA,101,"23560 N 1800 RD, BUSHNELL, IL, 61422","No_Match",NA,NA,NA,NA
130602,"23560 STATE ROUTE 4","MARYSVILLE","OH",43040,40.3493188520001,-83.303099107,102,"23560 STATE ROUTE 4, MARYSVILLE, OH, 43040","Match","Exact","23560 STATE RTE 4, MARYSVILLE, OH, 43040",135333611,"R"
130603,"23563 COUNTY ROAD 2183 E","TATUM","TX",75691,NA,NA,103,"23563 COUNTY ROAD 2183 E, TATUM, TX, 75691","No_Match",NA,NA,NA,NA
130604,"23569 ENCINA CORTE","RAMONA","CA",92065,33.01854322,-116.816264938,104,"23569 ENCINA CORTE, RAMONA, CA, 92065","Match","Exact","23569 ENCINA CORTE, RAMONA, CA, 92065",195457014,"L"
130605,"2357 BIRDIE DRIVE","MILLIKEN","CO",80543,40.352318671,-104.870243748,105,"2357 BIRDIE DRIVE, MILLIKEN, CO, 80543","Match","Exact","2357 BIRDIE DR, MILLIKEN, CO, 80543",188728193,"R"
130606,"2357 BOULEVARD DEL CAMPO","SAN LUIS OBISPO","CA",93401,NA,NA,106,"2357 BOULEVARD DEL CAMPO, SAN LUIS OBISPO, CA, 93401","No_Match",NA,NA,NA,NA
130607,"2357 BRIAR KNOLL RD","LITHONIA","GA",30058,33.725366557,-84.160068294,107,"2357 BRIAR KNOLL RD, LITHONIA, GA, 30058","Match","Exact","2357 BRIAR KNOLL RD, LITHONIA, GA, 30058",23393052,"R"
130608,"2357 BROOKMOOR LANE","WOODBRIDGE","VA",22191,38.6304705430001,-77.2825050339999,108,"2357 BROOKMOOR LANE, WOODBRIDGE, VA, 22191","Match","Exact","2357 BROOKMOOR LN, WOODBRIDGE, VA, 22191",619945797,"L"
130609,"2357 BUCKINGHAM RUN CT","ORLANDO","FL",32828,28.5213015950001,-81.169971715,109,"2357 BUCKINGHAM RUN CT, ORLANDO, FL, 32828","Match","Exact","2357 BUCKINGHAM RUN CT, ORLANDO, FL, 32828",94407180,"L"
130610,"2357 CR 467","STEPHENVILLE","TX",76401,32.3729635510001,-98.305311322,110,"2357 CR 467, STEPHENVILLE, TX, 76401","Match","Exact","2357 CO RD 467, STEPHENVILLE, TX, 76401",636328938,"L"
130611,"2357 CRESTONE DRIVE","RENO","NV",89523,39.5375988500001,-119.888107503,111,"2357 CRESTONE DRIVE, RENO, NV, 89523","Match","Exact","2357 CRESTONE DR, RENO, NV, 89523",107120224,"R"
130612,"2357 CROSBY DRIVE","MOUNT VERNON","WA",98274,48.4025908300001,-122.311966616,112,"2357 CROSBY DRIVE, MOUNT VERNON, WA, 98274","Match","Exact","2357 CROSBY DR, MOUNT VERNON, WA, 98274",183651143,"L"
130613,"2357 E MINARETS AVE","FRESNO","CA",93720,36.844256253,-119.741381782,113,"2357 E MINARETS AVE, FRESNO, CA, 93720","Match","Exact","2357 E MINARETS AVE, FRESNO, CA, 93720",197636049,"R"
130614,"2357 EDGEWOOD AVENUE NORTH","JACKSONVILLE","FL",32254,30.3525492220001,-81.731136492,114,"2357 EDGEWOOD AVENUE NORTH, JACKSONVILLE, FL, 32254","Match","Exact","2357 EDGEWOOD AVE N, JACKSONVILLE, FL, 32254",83945750,"R"
130615,"2357 FLAMINGO RD","PALM BEACH GARDENS","FL",33410,26.867327774,-80.0690756609999,115,"2357 FLAMINGO RD, PALM BEACH GARDENS, FL, 33410","Match","Exact","2357 FLAMINGO RD, PALM BEACH GARDENS, FL, 33410",115321682,"R"
130616,"2357 GILLIS ROAD","MOUNT AIRY","MD",21771,39.4219065730001,-77.0813052729999,116,"2357 GILLIS ROAD, MOUNT AIRY, MD, 21771","Match","Exact","2357 GILLIS RD, MOUNT AIRY, MD, 21771",61791633,"R"
130617,"2357 HERMITS GLEN","LOS ANGELES","CA",90046,34.112318843,-118.383461671,117,"2357 HERMITS GLEN, LOS ANGELES, CA, 90046","Match","Exact","2357 HERMITS GLEN, LOS ANGELES, CA, 90046",141566375,"L"
130618,"2357 KEHOE AVENUE","SAN MATEO","CA",94403,37.5660145940001,-122.290376096,118,"2357 KEHOE AVENUE, SAN MATEO, CA, 94403","Match","Exact","2357 KEHOE AVE, SAN MATEO, CA, 94403",192380208,"L"
130619,"2357 OLD CIFAX ROAD","GOODE","VA",24556,NA,NA,119,"2357 OLD CIFAX ROAD, GOODE, VA, 24556","Tie",NA,NA,NA,NA
130620,"2357 QUAIL RUN ROAD","ARLINGTON","TX",76014,32.685062632,-97.0681271459999,120,"2357 QUAIL RUN ROAD, ARLINGTON, TX, 76014","Match","Exact","2357 QUAIL RUN RD, ARLINGTON, TX, 76014",101914006,"L"
130621,"2357 STONEBRIDGE DRIVE BUILDING I","FLINT","MI",48532,NA,NA,121,"2357 STONEBRIDGE DRIVE BUILDING I, FLINT, MI, 48532","No_Match",NA,NA,NA,NA
130622,"2357 WINDY COVE COURT","LEAGUE CITY","TX",77573,29.5361580150001,-95.068399637,122,"2357 WINDY COVE COURT, LEAGUE CITY, TX, 77573","Match","Exact","2357 WINDY COVE CT, LEAGUE CITY, TX, 77573",96722482,"L"
130623,"23570 SAMOSET TRL","SOUTHFIELD","MI",48033,42.4614007920001,-83.3065622349999,123,"23570 SAMOSET TRL, SOUTHFIELD, MI, 48033","Match","Exact","23570 SAMOSET TRL, SOUTHFIELD, MI, 48033",69784549,"R"
130624,"23573 EMMONS ROAD","COLUMBIA STATION","OH",44028,41.289466437,-81.88888959,124,"23573 EMMONS ROAD, COLUMBIA STATION, OH, 44028","Match","Exact","23573 EMMONS RD, COLUMBIA STATION, OH, 44028",55415880,"R"
130625,"23578 MN HWY 22","LITCHFIELD","MN",55355,45.0825556070001,-94.512535107,125,"23578 MN HWY 22, LITCHFIELD, MN, 55355","Match","Non_Exact","23578 STATE HWY 22, LITCHFIELD, MN, 55355",36986379,"R"
130626,"2358 1150TH ST","KENNEY","IL",61749,40.0852300010001,-89.149182363,126,"2358 1150TH ST, KENNEY, IL, 61749","Match","Exact","2358 1150TH ST, KENNEY, IL, 61749",22455246,"L"
130627,"2358 84TH STREET APT2R","BROOKLYN","NY",11214,40.6009723770001,-73.989119944,127,"2358 84TH STREET APT2R, BROOKLYN, NY, 11214","Match","Exact","2358 84TH ST, BROOKLYN, NY, 11214",59088515,"R"
130628,"2358 BANNING RD","AKRON","OH",44333,41.179164891,-81.595864358,128,"2358 BANNING RD, AKRON, OH, 44333","Match","Exact","2358 BANNING RD, AKRON, OH, 44333",625276961,"L"
130629,"2358 CALDERO LANE","MONTROSE","CA",91020,34.2172117970001,-118.230424626,129,"2358 CALDERO LANE, MONTROSE, CA, 91020","Match","Exact","2358 CALDERO LN, MONTROSE, CA, 91020",141590182,"L"
130630,"2358 E 124TH CT","THORNTON","CO",80241,39.922826817,-104.957852499,130,"2358 E 124TH CT, THORNTON, CO, 80241","Match","Exact","2358 E 124TH CT, THORNTON, CO, 80241",177430221,"L"
130631,"2358 EAST SPRINGS DR","MADISON","WI",53704,43.1290177540001,-89.293977263,131,"2358 EAST SPRINGS DR, MADISON, WI, 53704","Match","Exact","2358 E SPRINGS DR, MADISON, WI, 53704",49537283,"R"
130632,"2358 FLUSHING DR","SAN DIEGO","CA",92111,32.7862050520001,-117.165748877,132,"2358 FLUSHING DR, SAN DIEGO, CA, 92111","Match","Exact","2358 FLUSHING DR, SAN DIEGO, CA, 92111",195306522,"L"
130633,"2358 GROVER ROAD","CANTON","PA",17724,41.618925989,-76.830483912,133,"2358 GROVER ROAD, CANTON, PA, 17724","Match","Exact","2358 GROVER RD, CANTON, PA, 17724",648848835,"R"
130634,"2358 HUNTERS SQUARE CT","RESTON","VA",20191,38.936454901,-77.365311838,134,"2358 HUNTERS SQUARE CT, RESTON, VA, 20191","Match","Exact","2358 HUNTERS SQUARE CT, RESTON, VA, 20191",76023730,"L"
130635,"2358 MONTE VILLA CTS","MARIETTA","GA",30062,33.97922235,-84.485472983,135,"2358 MONTE VILLA CTS, MARIETTA, GA, 30062","Match","Non_Exact","2358 MONTE VILLA CT, MARIETTA, GA, 30062",618320131,"L"
130636,"2358 ROUTH DRIVE","ROWLAND HEIGHTS","CA",91748,33.9739928860001,-117.887357184,136,"2358 ROUTH DRIVE, ROWLAND HEIGHTS, CA, 91748","Match","Exact","2358 ROUTH DR, ROWLAND HEIGHTS, CA, 91748",142245308,"L"
130637,"2358 SNAPDRAGON POINT","EAST STROUDSBURG","PA",18301,NA,NA,137,"2358 SNAPDRAGON POINT, EAST STROUDSBURG, PA, 18301","No_Match",NA,NA,NA,NA
130638,"2358 SOUTH CEDARBROOK AVE","SPRINGFIELD","MO",65804,37.1701970780001,-93.240697224,138,"2358 SOUTH CEDARBROOK AVE, SPRINGFIELD, MO, 65804","Match","Exact","2358 S CEDARBROOK AVE, SPRINGFIELD, MO, 65804",76681445,"L"
130639,"2358 UNIVERSITY AVE 954","SUCKOW","CA",92104,32.748452236,-117.13937204,139,"2358 UNIVERSITY AVE 954, SUCKOW, CA, 92104","Match","Non_Exact","2358 UNIVERSITY AVE, SAN DIEGO, CA, 92104",612889822,"L"
130640,"2358 UNIVERSITY AVE STE 2137","SAN DIEGO","CA",92104,32.748452236,-117.13937204,140,"2358 UNIVERSITY AVE STE 2137, SAN DIEGO, CA, 92104","Match","Exact","2358 UNIVERSITY AVE, SAN DIEGO, CA, 92104",612889822,"L"
130641,"2358 UNIVERSITY AVENUE PMB 137","SAN DIEGO","CA",92104,32.748452236,-117.13937204,141,"2358 UNIVERSITY AVENUE PMB 137, SAN DIEGO, CA, 92104","Match","Exact","2358 UNIVERSITY AVE, SAN DIEGO, CA, 92104",612889822,"L"
130642,"2358 UNIVERSITY AVENUE STE 2019","SAN DIEGO","CA",92104,32.748452236,-117.13937204,142,"2358 UNIVERSITY AVENUE STE 2019, SAN DIEGO, CA, 92104","Match","Exact","2358 UNIVERSITY AVE, SAN DIEGO, CA, 92104",612889822,"L"
130643,"2358 URQUHART ST","NEW ORLEANS","LA",70117,29.970801011,-90.0532569119999,143,"2358 URQUHART ST, NEW ORLEANS, LA, 70117","Match","Exact","2358 URQUHART ST, NEW ORLEANS, LA, 70117",191716634,"R"
130644,"23580 ALESSANDRO BLVD NUMBER 9425","MORENO VALLEY","CA",92553,33.9172748820001,-117.25055995,144,"23580 ALESSANDRO BLVD NUMBER 9425, MORENO VALLEY, CA, 92553","Match","Exact","23580 ALESSANDRO BLVD, MORENO VALLEY, CA, 92553",194749650,"L"
130645,"23580 ALESSANDRO BLVD UNIT 8836","MORENO VALLEY","CA",92552,33.9172748820001,-117.25055995,145,"23580 ALESSANDRO BLVD UNIT 8836, MORENO VALLEY, CA, 92552","Match","Non_Exact","23580 ALESSANDRO BLVD, MORENO VALLEY, CA, 92553",194749650,"L"
130646,"2359 CARSON ROAD","BIRMINGHAM","AL",35215,33.646396564,-86.708925704,146,"2359 CARSON ROAD, BIRMINGHAM, AL, 35215","Match","Exact","2359 CARSON RD, BIRMINGHAM, AL, 35215",81662085,"R"
130647,"2359 GENESEE ST","CHEEKTOWAGA","NY",14225,42.919238095,-78.796048411,147,"2359 GENESEE ST, CHEEKTOWAGA, NY, 14225","Match","Exact","2359 GENESEE ST, CHEEKTOWAGA, NY, 14225",48299156,"R"
130648,"2359 GRANTS FERRY DR","BILOXI","MS",39531,30.4045132960001,-88.9743933409999,148,"2359 GRANTS FERRY DR, BILOXI, MS, 39531","Match","Exact","2359 GRANTS FERRY DR, BILOXI, MS, 39531",111401160,"R"
130649,"2359 HIGHLAND RD APT 110","DALLAS","TX",75228,32.80055744,-96.712477038,149,"2359 HIGHLAND RD APT 110, DALLAS, TX, 75228","Match","Exact","2359 HIGHLAND RD, DALLAS, TX, 75228",647942564,"L"
130650,"2359 OAK STREET UNIT 3","JACKSONVILLE","FL",32204,30.3107885920001,-81.686749778,150,"2359 OAK STREET UNIT 3, JACKSONVILLE, FL, 32204","Match","Exact","2359 OAK ST, JACKSONVILLE, FL, 32204",83896681,"R"
130651,"2359 PLUM NELLY RD","RISING FAWN","GA",30738,34.7918378790001,-85.47267737,151,"2359 PLUM NELLY RD, RISING FAWN, GA, 30738","Match","Exact","2359 PLUM NELLY RD, RISING FAWN, GA, 30738",635656820,"R"
130652,"2359 RAILROAD STREET APT 3401","PITTSBURGH","PA",15222,40.4543101790001,-79.982916275,152,"2359 RAILROAD STREET APT 3401, PITTSBURGH, PA, 15222","Match","Exact","2359 RAILROAD ST, PITTSBURGH, PA, 15222",51628424,"L"
130653,"2359 RUTA CORTA","SANTA FE","NM",87507,35.6434902010001,-105.986820235,153,"2359 RUTA CORTA, SANTA FE, NM, 87507","Match","Exact","2359 RUTA CORTA, SANTA FE, NM, 87507",169376975,"L"
130654,"2359 TREY COURT","NORTH CHARLESTON","SC",29406,32.960544946,-80.050274411,154,"2359 TREY COURT, NORTH CHARLESTON, SC, 29406","Match","Exact","2359 TREY CT, N CHARLESTON, SC, 29406",633659045,"L"
130655,"2359 US HWY 70 SE 351","HICKORY","NC",28602,NA,NA,155,"2359 US HWY 70 SE 351, HICKORY, NC, 28602","No_Match",NA,NA,NA,NA
130656,"23590 FM 1314 RD","PORTER","TX",77365,30.106207146,-95.256415542,156,"23590 FM 1314 RD, PORTER, TX, 77365","Match","Exact","23590 FM 1314 RD, PORTER, TX, 77365",641136837,"R"
130657,"23590 MCDANIELS RD","CALHAN","CO",80808,NA,NA,157,"23590 MCDANIELS RD, CALHAN, CO, 80808","No_Match",NA,NA,NA,NA
130658,"23591 EL TORO ROAD SUITE 235","LAKE FOREST","CA",92630,33.6206450770001,-117.700539083,158,"23591 EL TORO ROAD SUITE 235, LAKE FOREST, CA, 92630","Match","Exact","23591 EL TORO RD, LAKE FOREST, CA, 92630",609043222,"L"
130659,"23593 130TH AVE","LAKE PARK","MN",56554,46.9153685790001,-96.132633396,159,"23593 130TH AVE, LAKE PARK, MN, 56554","Match","Exact","23593 130TH AVE, LAKE PARK, MN, 56554",167944646,"R"
130660,"23595 NORRIS CIRCLE","MORENO VALLEY","CA",92557,33.9440419520001,-117.250832919,160,"23595 NORRIS CIRCLE, MORENO VALLEY, CA, 92557","Match","Exact","23595 NORRIS CIR, MORENO VALLEY, CA, 92557",194747553,"L"
130661,"23595 PHOENIX AVE","CARROLL","IA",51401,42.0085074730001,-94.802622616,161,"23595 PHOENIX AVE, CARROLL, IA, 51401","Match","Exact","23595 PHOENIX AVE, CARROLL, IA, 51401",68630556,"L"
130662,"23597 COUNTY ROAD 7","WINONA","MN",55987,43.9948428010001,-91.4741255119999,162,"23597 COUNTY ROAD 7, WINONA, MN, 55987","Match","Non_Exact","23597 CO HWY 7, WINONA, MN, 55987",31669927,"L"
130663,"23599 AQUACATE RD","CORONA","CA",92883,33.7766477420001,-117.50678683,163,"23599 AQUACATE RD, CORONA, CA, 92883","Match","Exact","23599 AQUACATE RD, CORONA, CA, 92883",618480218,"R"
130664,"235A LEXINGTON AVE","BROOKLYN","NY",11216,40.6874106610001,-73.953302344,164,"235A LEXINGTON AVE, BROOKLYN, NY, 11216","Match","Exact","235 LEXINGTON AVE, BROOKLYN, NY, 11216",59078872,"L"
130665,"235A WINDSOR PLACE","BROOKLYN","NY",11215,40.657875318,-73.976884088,165,"235A WINDSOR PLACE, BROOKLYN, NY, 11215","Match","Exact","235 WINDSOR PL, BROOKLYN, NY, 11215",59078330,"L"
130666,"236 147TH ST NE","BRADENTON","FL",34212,27.50104207,-82.397620424,166,"236 147TH ST NE, BRADENTON, FL, 34212","Match","Exact","236 147TH ST NE, BRADENTON, FL, 34212",16288594,"L"
130667,"236 5TH AVE","HUNTINGTON","WV",25701,38.4174273510001,-82.45486156,167,"236 5TH AVE, HUNTINGTON, WV, 25701","Match","Exact","236 5TH AVE, HUNTINGTON, WV, 25701",101317345,"L"
130668,"236 ALGONQUIN CT UNIT B","BOLINGBROOK","IL",60440,41.7051261660001,-88.088312994,168,"236 ALGONQUIN CT UNIT B, BOLINGBROOK, IL, 60440","Match","Exact","236 ALGONQUIN CT, BOLINGBROOK, IL, 60440",111620998,"R"
130669,"236 AUBURN AVENUE SUITE 201","ATLANTA","GA",30303,33.7555451580001,-84.380099543,169,"236 AUBURN AVENUE SUITE 201, ATLANTA, GA, 30303","Match","Non_Exact","236 AUBURN AVE NE, ATLANTA, GA, 30303",17344700,"L"
130670,"236 AUTUMN BREEZE WAY","WINTER PARK","FL",32792,28.601531903,-81.304624441,170,"236 AUTUMN BREEZE WAY, WINTER PARK, FL, 32792","Match","Exact","236 AUTUMN BREEZE WAY, WINTER PARK, FL, 32792",94292493,"R"
130671,"236 BARREL LANE","WASHINGTON","UT",84780,37.1354336370001,-113.524467174,171,"236 BARREL LANE, WASHINGTON, UT, 84780","Match","Exact","236 BARREL LN, WASHINGTON, UT, 84780",166163858,"R"
130672,"236 BEACHSIDE COVE","LOCUST GROVE","VA",22508,38.341029356,-77.75372326,172,"236 BEACHSIDE COVE, LOCUST GROVE, VA, 22508","Match","Exact","236 BEACHSIDE COVE, LOCUST GROVE, VA, 22508",29880847,"L"
130673,"236 BEAULIEU ROAD","ST DAVID","ME",4773,47.3122191900001,-68.24016505,173,"236 BEAULIEU ROAD, ST DAVID, ME, 4773","Match","Exact","236 BEAULIEU RD, SAINT DAVID, ME, 04773",123829389,"R"
130674,"236 BELLWETHER PASS","RIDGELAND","MS",39157,32.420219864,-90.1601989599999,174,"236 BELLWETHER PASS, RIDGELAND, MS, 39157","Match","Exact","236 BELLWETHER PASS, RIDGELAND, MS, 39157",152489889,"L"
130675,"236 BLEW COURT","EAST BRUNSWICK","NJ",8816,40.458044494,-74.405148304,175,"236 BLEW COURT, EAST BRUNSWICK, NJ, 8816","Match","Exact","236 BLEW CT, E BRUNSWICK, NJ, 08816",60359761,"R"
130676,"236 BROOKHILL RD","LIBERTYVILLE","IL",60048,42.3111362560001,-87.97007519,176,"236 BROOKHILL RD, LIBERTYVILLE, IL, 60048","Match","Exact","236 BROOKHILL RD, LIBERTYVILLE, IL, 60048",119749203,"L"
130677,"236 CAMDEN HILLS DRIVE","MONTGOMERY","TX",77356,30.4319585000001,-95.637958913,177,"236 CAMDEN HILLS DRIVE, MONTGOMERY, TX, 77356","Match","Exact","236 CAMDEN HILLS DR, MONTGOMERY, TX, 77356",79315490,"R"
130678,"236 CAMDEN RD","LINCOLNVILLE","ME",4849,44.2720161500001,-69.100161562,178,"236 CAMDEN RD, LINCOLNVILLE, ME, 4849","Match","Exact","236 CAMDEN RD, LINCOLNVILLE, ME, 04849",75645172,"L"
130679,"236 CASTILIAN WAY","San Mateo","CA",94402,37.555978872,-122.324215855,179,"236 CASTILIAN WAY, San Mateo, CA, 94402","Match","Exact","236 CASTILIAN WAY, SAN MATEO, CA, 94402",192377934,"R"
130680,"236 CENTRAL","CRESCENT CITY","FL",32112,29.430180217,-81.5085335319999,180,"236 CENTRAL, CRESCENT CITY, FL, 32112","Match","Non_Exact","236 CENTRAL AVE, CRESCENT CITY, FL, 32112",86063036,"R"
130681,"236 CHARACTER DR","ROLESVILLE","NC",27571,NA,NA,181,"236 CHARACTER DR, ROLESVILLE, NC, 27571","No_Match",NA,NA,NA,NA
130682,"236 CHIPMAN PARK","MIDDLEBURY","WA",5753,NA,NA,182,"236 CHIPMAN PARK, MIDDLEBURY, WA, 5753","No_Match",NA,NA,NA,NA
130683,"236 CLAIBORNE WAY","SEWELL","NJ",8080,39.7652203870001,-75.094975301,183,"236 CLAIBORNE WAY, SEWELL, NJ, 8080","Match","Exact","236 CLAIBORNE WAY, SEWELL, NJ, 08080",134598597,"R"
130684,"236 CLARIDGE CIRCLE","BOLINGBROOK","IL",60440,41.6930085660001,-88.110543805,184,"236 CLARIDGE CIRCLE, BOLINGBROOK, IL, 60440","Match","Exact","236 CLARIDGE CIR, BOLINGBROOK, IL, 60440",111631471,"L"
130685,"236 CONCORD AVE UNIT 2","CAMBRIDGE","MA",2138,42.382937306,-71.1321394399999,185,"236 CONCORD AVE UNIT 2, CAMBRIDGE, MA, 2138","Match","Exact","236 CONCORD AVE, CAMBRIDGE, MA, 02138",86892251,"L"
130686,"236 COUNTY ROAD 1900 EAST","GREENUP","IL",62428,NA,NA,186,"236 COUNTY ROAD 1900 EAST, GREENUP, IL, 62428","No_Match",NA,NA,NA,NA
130687,"236 CUMMINS FERRY ROAD","SALVISA","KY",40372,37.8644421910001,-84.847218168,187,"236 CUMMINS FERRY ROAD, SALVISA, KY, 40372","Match","Exact","236 CUMMINS FERRY RD, SALVISA, KY, 40372",32614272,"L"
130688,"236 DEARBORN RD","GREENLAND","NH",3840,43.0544716840001,-70.879597361,188,"236 DEARBORN RD, GREENLAND, NH, 3840","Match","Exact","236 DEARBORN RD, GREENLAND, NH, 03840",113664455,"R"
130689,"236 DELLWOOD DRIVE","SPARTANBURG","SC",29301,34.94071159,-82.024352145,189,"236 DELLWOOD DRIVE, SPARTANBURG, SC, 29301","Match","Exact","236 DELLWOOD DR, SPARTANBURG, SC, 29301",619832617,"R"
130690,"236 DREAMLAND CIRCLE","WINDER","GA",30680,33.9905730150001,-83.700286496,190,"236 DREAMLAND CIRCLE, WINDER, GA, 30680","Match","Exact","236 DREAMLAND CIR, WINDER, GA, 30680",618490147,"R"
130691,"236 E 23RD STREET APT 3A","BROOKLYN","NY",11226,40.660897925,-73.99570615,191,"236 E 23RD STREET APT 3A, BROOKLYN, NY, 11226","Match","Non_Exact","236 23RD ST, BROOKLYN, NY, 11232",59075527,"R"
130692,"236 E 31ST ST","EDMOND","OK",73013,35.625515212,-97.477766749,192,"236 E 31ST ST, EDMOND, OK, 73013","Match","Exact","236 E 31ST ST, EDMOND, OK, 73013",100410279,"R"
130693,"236 E 80TH ST 26","NY","NY",10075,40.7745354640001,-73.955789249,193,"236 E 80TH ST 26, NY, NY, 10075","Match","Non_Exact","236 E 80TH ST, NEW YORK, NY, 10075",652208206,"R"
130694,"236 E GARVEY AVE","MONTEREY PARK","CA",91755,34.062539014,-118.120036731,194,"236 E GARVEY AVE, MONTEREY PARK, CA, 91755","Match","Exact","236 E GARVEY AVE, MONTEREY PARK, CA, 91755",640420312,"R"
130695,"236 E HERITAGE CT","FRUITA","CO",81521,39.1509966080001,-108.731687872,195,"236 E HERITAGE CT, FRUITA, CO, 81521","Match","Exact","236 HERITAGE CT, FRUITA, CO, 81521",122462870,"R"
130696,"236 E MAIN ST 177","SEVIERVILLE","TN",37862,NA,NA,196,"236 E MAIN ST 177, SEVIERVILLE, TN, 37862","Tie",NA,NA,NA,NA
130697,"236 E PLUM STREET","ANDERSON","IN",46012,40.128907101,-85.67419218,197,"236 E PLUM STREET, ANDERSON, IN, 46012","Match","Exact","236 E PLUM ST, ANDERSON, IN, 46012",31120012,"L"
130698,"236 EAST GUN HILL ROAD  APT 3D","NEW YORK","NJ",10467,NA,NA,198,"236 EAST GUN HILL ROAD  APT 3D, NEW YORK, NJ, 10467","No_Match",NA,NA,NA,NA
130699,"236 EAST MAIN STREET","MAPLE SHADE","NJ",8052,39.9557041470001,-74.9983497659999,199,"236 EAST MAIN STREET, MAPLE SHADE, NJ, 8052","Match","Exact","236 E MAIN ST, MAPLE SHADE, NJ, 08052",134027101,"R"
130700,"236 EAST SHARON CIRCLE","RINGGOLD","GA",30736,34.8927335610001,-85.159049148,200,"236 EAST SHARON CIRCLE, RINGGOLD, GA, 30736","Match","Non_Exact","236 E SHARON, RINGGOLD, GA, 30736",66697192,"R"
130701,"236 ELDER ROAD","MEMPHIS","TN",38109,35.0546278830001,-90.071870669,201,"236 ELDER ROAD, MEMPHIS, TN, 38109","Match","Exact","236 ELDER RD, MEMPHIS, TN, 38109",72906926,"R"
130702,"236 ERMINES WAY","MCDONOUGH,","GA",30253,33.390605689,-84.2065495689999,202,"236 ERMINES WAY, MCDONOUGH,, GA, 30253","Match","Exact","236 ERMINES WAY, MCDONOUGH, GA, 30253",619924599,"R"
130703,"236 GABRIEL DR","MARS","PA",16046,40.7003367560001,-79.9862576319999,203,"236 GABRIEL DR, MARS, PA, 16046","Match","Exact","236 GABRIEL DR, MARS, PA, 16046",646947691,"R"
130704,"236 GARLAND MTN RD","CANTON","NC",28716,NA,NA,204,"236 GARLAND MTN RD, CANTON, NC, 28716","No_Match",NA,NA,NA,NA
130705,"236 GRAHAM DAVIS RD","DENTON","NC",27239,35.5272773390001,-80.0670784929999,205,"236 GRAHAM DAVIS RD, DENTON, NC, 27239","Match","Exact","236 GRAHAM DAVIS RD, DENTON, NC, 27239",20213757,"L"
130706,"236 HARRIS DR","SEWELL","NJ",8080,39.7642416530001,-75.070133708,206,"236 HARRIS DR, SEWELL, NJ, 8080","Match","Exact","236 HARRIS DR, SEWELL, NJ, 08080",134598863,"R"
130707,"236 HARRISON LANE","BOONE","NC",28607,36.1880046860001,-81.612776928,207,"236 HARRISON LANE, BOONE, NC, 28607","Match","Exact","236 HARRISON LN, BOONE, NC, 28607",234438857,"R"
130708,"236 HIGH STREET","FAIRBORN","OH",45324,39.804805544,-84.030535997,208,"236 HIGH STREET, FAIRBORN, OH, 45324","Match","Exact","236 HIGH ST, FAIRBORN, OH, 45324",143384256,"L"
130709,"236 HIGH STREET","MONROE","NY",10950,41.3290003160001,-74.194964935,209,"236 HIGH STREET, MONROE, NY, 10950","Match","Exact","236 HIGH ST, MONROE, NY, 10950",124493465,"L"
130710,"236 HOMEWARD LANE","ROCK HILL","SC",29732,34.9676755610001,-81.0139900779999,210,"236 HOMEWARD LANE, ROCK HILL, SC, 29732","Match","Exact","236 HOMEWARD LN, ROCK HILL, SC, 29732",637758391,"L"
130711,"236 HUNTINGTON ROAD","WILMINGTON","NC",28403,34.214594559,-77.8598631789999,211,"236 HUNTINGTON ROAD, WILMINGTON, NC, 28403","Match","Exact","236 HUNTINGTON RD, WILMINGTON, NC, 28403",152734673,"R"
130712,"236 JOHNSON AVE","PISCATAWAY","NJ",8854,40.573491346,-74.478361131,212,"236 JOHNSON AVE, PISCATAWAY, NJ, 8854","Match","Exact","236 JOHNSON AVE, PISCATAWAY, NJ, 08854",60259279,"R"
130713,"236 KEVIN ROAD","HINESVILLE","GA",31313,31.785362031,-81.62667248,213,"236 KEVIN ROAD, HINESVILLE, GA, 31313","Match","Exact","236 KEVIN RD, HINESVILLE, GA, 31313",634086248,"L"
130714,"236 LA GRANDE PRINCESSE SUITE 23","CHRISTIANSTED","VI",820,NA,NA,214,"236 LA GRANDE PRINCESSE SUITE 23, CHRISTIANSTED, VI, 820","No_Match",NA,NA,NA,NA
130715,"236 LANCASTER DRIVE","DAVENPORT","FL",33897,28.319655767,-81.679791381,215,"236 LANCASTER DRIVE, DAVENPORT, FL, 33897","Match","Exact","236 LANCASTER DR, DAVENPORT, FL, 33897",616664082,"L"
130716,"236 LONGCHAMP DR","SOUDERTON","PA",18964,40.288110116,-75.333152362,216,"236 LONGCHAMP DR, SOUDERTON, PA, 18964","Match","Exact","236 LONGCHAMP DR, SOUDERTON, PA, 18964",135118711,"L"
130717,"236 MAIN STREET PO BOX 328","AURELIA","IA",51005,42.712901006,-95.436533761,217,"236 MAIN STREET PO BOX 328, AURELIA, IA, 51005","Match","Exact","236 MAIN ST, AURELIA, IA, 51005",82754710,"R"
130718,"236 MAIN STREET SUITE 222","SEVIERVILLE","TN",37862,NA,NA,218,"236 MAIN STREET SUITE 222, SEVIERVILLE, TN, 37862","Tie",NA,NA,NA,NA
130719,"236 MAIN STREET","MILAN","GA",31060,32.0247037870001,-83.061787033,219,"236 MAIN STREET, MILAN, GA, 31060","Match","Exact","236 MAIN ST, MILAN, GA, 31060",9529199,"R"
130720,"236 MAPLE ST","NEW BRITAIN","CT",6051,41.658316025,-72.7759833389999,220,"236 MAPLE ST, NEW BRITAIN, CT, 6051","Match","Exact","236 MAPLE ST, NEW BRITAIN, CT, 06051",3511294,"L"
130721,"236 MARIA AVE","SAINT PAUL","MN",55106,44.9529602710001,-93.068223437,221,"236 MARIA AVE, SAINT PAUL, MN, 55106","Match","Non_Exact","236 N MARIA AVE, SAINT PAUL, MN, 55106",97654371,"R"
130722,"236 MERICAL MOUNTAIN ROAD","KILA","MT",59920,48.11354763,-114.631110648,222,"236 MERICAL MOUNTAIN ROAD, KILA, MT, 59920","Match","Exact","236 MERICAL MOUNTAIN RD, KILA, MT, 59920",636314531,"L"
130723,"236 MIDDLETON PLACE","GRAYSON","GA",30017,33.8877591770001,-83.9413604169999,223,"236 MIDDLETON PLACE, GRAYSON, GA, 30017","Match","Exact","236 MIDDLETON PL, GRAYSON, GA, 30017",639806044,"L"
130724,"236 MILLEDGEVILLE ST STE F26","ROBINS AFB","GA",31098,NA,NA,224,"236 MILLEDGEVILLE ST STE F26, ROBINS AFB, GA, 31098","No_Match",NA,NA,NA,NA
130725,"236 MILO PL","SAN RAMON","CA",94583,37.7456797150001,-121.950935486,225,"236 MILO PL, SAN RAMON, CA, 94583","Match","Exact","236 MILO PL, SAN RAMON, CA, 94583",192066753,"L"
130726,"236 MORELAND ST","WORCESTER","MA",1609,42.2910594210001,-71.839692296,226,"236 MORELAND ST, WORCESTER, MA, 1609","Match","Exact","236 MORELAND ST, WORCESTER, MA, 01609",40005244,"R"
130727,"236 MOUNTAIN LION TRAIL","BOZEMAN","MT",59718,45.7324743830001,-111.132088207,227,"236 MOUNTAIN LION TRAIL, BOZEMAN, MT, 59718","Match","Exact","236 MOUNTAIN LION TRL, BOZEMAN, MT, 59718",163521356,"R"
130728,"236 MOUNTAIRE PKWY","CLAYTON","CA",94517,37.926923435,-121.928683074,228,"236 MOUNTAIRE PKWY, CLAYTON, CA, 94517","Match","Exact","236 MOUNTAIRE PKWY, CLAYTON, CA, 94517",192062422,"R"
130729,"236 MUD CREEK ROAD","LAMOIINE","ME",4605,44.5238196240001,-68.324105832,229,"236 MUD CREEK ROAD, LAMOIINE, ME, 4605","Match","Non_Exact","236 MUD CREEK RD, LAMOINE, ME, 04605",110271203,"R"
130730,"236 N 11TH ST 3B","BROOKLYN","NY",11211,40.6693023990001,-73.990052787,230,"236 N 11TH ST 3B, BROOKLYN, NY, 11211","Match","Non_Exact","236 11TH ST, BROOKLYN, NY, 11215",59075628,"R"
130731,"236 N 1200 AVE","ORION","IL",61273,NA,NA,231,"236 N 1200 AVE, ORION, IL, 61273","No_Match",NA,NA,NA,NA
130732,"236 N E TAYLOR","BURLESON","TX",76028,32.5500583030001,-97.3273845149999,232,"236 N E TAYLOR, BURLESON, TX, 76028","Match","Non_Exact","236 NE TAYLOR ST, BURLESON, TX, 76028",103517214,"R"
130733,"236 NEW BRIDGE STREET","JACKSONVILLE","NC",28540,34.751019958,-77.4301780979999,233,"236 NEW BRIDGE STREET, JACKSONVILLE, NC, 28540","Match","Exact","236 NEW BRIDGE ST, JACKSONVILLE, NC, 28540",14011835,"R"
130734,"236 NORTH MOUNTAIN AVENUE","ASHLAND","OR",97520,42.19815148,-122.699183096,234,"236 NORTH MOUNTAIN AVENUE, ASHLAND, OR, 97520","Match","Exact","236 N MOUNTAIN AVE, ASHLAND, OR, 97520",155572471,"R"
130735,"236 NW 16TH STREET","MIAMI","FL",33136,25.7902462980001,-80.199246454,235,"236 NW 16TH STREET, MIAMI, FL, 33136","Match","Exact","236 NW 16TH ST, MIAMI, FL, 33136",116017508,"L"
130736,"236 OHANA NUI CIRCLE","HICKAM AFB","HI",96818,NA,NA,236,"236 OHANA NUI CIRCLE, HICKAM AFB, HI, 96818","No_Match",NA,NA,NA,NA
130737,"236 OLD LOVERS LANE","BOWLING GREEN","KY",42103,NA,NA,237,"236 OLD LOVERS LANE, BOWLING GREEN, KY, 42103","Tie",NA,NA,NA,NA
130738,"236 OLD STONE HIGHWAY","EAST HAMPTON","NY",11937,41.0132135360001,-72.1420071759999,238,"236 OLD STONE HIGHWAY, EAST HAMPTON, NY, 11937","Match","Exact","236 OLD STONE HWY, EAST HAMPTON, NY, 11937",114067459,"R"
130739,"236 ORLEANS TRAIL","STATESBORO","GA",30461,NA,NA,239,"236 ORLEANS TRAIL, STATESBORO, GA, 30461","No_Match",NA,NA,NA,NA
130740,"236 OVERLOOK DR","DALLAS","GA",30157,33.911943014,-84.8845816749999,240,"236 OVERLOOK DR, DALLAS, GA, 30157","Match","Exact","236 OVERLOOK DR, DALLAS, GA, 30157",618970129,"R"
130741,"236 PARKER ROAD","DANVILLE","VA",24540,36.6048299650001,-79.414141276,241,"236 PARKER ROAD, DANVILLE, VA, 24540","Match","Exact","236 PARKER RD, DANVILLE, VA, 24540",56613223,"R"
130742,"236 PATTERNOTE RD","MOORESVILLE","NC",28117,35.580824179,-80.9084744799999,242,"236 PATTERNOTE RD, MOORESVILLE, NC, 28117","Match","Exact","236 PATTERNOTE RD, MOORESVILLE, NC, 28117",46018191,"L"
130743,"236 PEACHTREE DRIVE","EAST","NY",11732,40.8548290100001,-73.5301989709999,243,"236 PEACHTREE DRIVE, EAST, NY, 11732","Match","Non_Exact","236 PEACHTREE DR, EAST NORWICH, NY, 11732",147624507,"L"
130744,"236 PENN BLVD","EAST LANSDOWNE","PA",19050,39.946381977,-75.2610946089999,244,"236 PENN BLVD, EAST LANSDOWNE, PA, 19050","Match","Exact","236 PENN BLVD, E LANSDOWNE, PA, 19050",134878474,"L"
130745,"236 PINE VALLEY RD A","ST CLOUD","FL",34769,28.2583286460001,-81.310141894,245,"236 PINE VALLEY RD A, ST CLOUD, FL, 34769","Match","Exact","236 PINE VALLEY RD, SAINT CLOUD, FL, 34769",638652410,"R"
130746,"236 PLEASANT STREET STE 6","METHUEN","MA",1844,42.738235204,-71.1718367619999,246,"236 PLEASANT STREET STE 6, METHUEN, MA, 1844","Match","Exact","236 PLEASANT ST, METHUEN, MA, 01844",86666528,"L"
130747,"236 PONY CLUB CIRCLE","CARY","NC",27519,35.8180855840001,-78.8992999549999,247,"236 PONY CLUB CIRCLE, CARY, NC, 27519","Match","Exact","236 PONY CLUB CIR, CARY, NC, 27519",639850724,"R"
130748,"236 PROSPECT AVENUE","WHITE PLAINS","NY",10607,41.0394855810001,-73.796721417,248,"236 PROSPECT AVENUE, WHITE PLAINS, NY, 10607","Match","Exact","236 PROSPECT AVE, WHITE PLAINS, NY, 10607",139738386,"L"
130749,"236 RIVER VISTA PLACE","TWIN FALLS","ID",83301,42.5975571000001,-114.477680702,249,"236 RIVER VISTA PLACE, TWIN FALLS, ID, 83301","Match","Exact","236 RIVER VISTA PL, TWIN FALLS, ID, 83301",118772652,"R"
130750,"236 ROUTE 739","HAWLEY","PA",18428,41.4022051000001,-75.067783999,250,"236 ROUTE 739, HAWLEY, PA, 18428","Match","Non_Exact","236 STATE RTE 739, HAWLEY, PA, 18428",634147374,"R"
130751,"236 S 3RD ST BOX 342","MONTROSE","CO",81401,38.4760271210001,-107.875782825,251,"236 S 3RD ST BOX 342, MONTROSE, CO, 81401","Match","Non_Exact","236 S 3RD ST, MONTROSE, CO, 81401",122539789,"R"
130752,"236 S NEGLEY AVENUE APT 6","PITTSBURGH","PA",15206,NA,NA,252,"236 S NEGLEY AVENUE APT 6, PITTSBURGH, PA, 15206","Tie",NA,NA,NA,NA
130753,"236 S SALEM DR","SCHAUMBURG","IL",60193,42.0216648690001,-88.100252219,253,"236 S SALEM DR, SCHAUMBURG, IL, 60193","Match","Exact","236 S SALEM DR, SCHAUMBURG, IL, 60193",111694502,"R"
130754,"236 S SEMORAN BLVD","ORLANDO","FL",32807,28.541575148,-81.310669247,254,"236 S SEMORAN BLVD, ORLANDO, FL, 32807","Match","Exact","236 S SEMORAN BLVD, ORLANDO, FL, 32807",637898663,"R"
130755,"236 S SIRRINE","MESA","AZ",85210,33.4099103390001,-111.828898324,255,"236 S SIRRINE, MESA, AZ, 85210","Match","Exact","236 S SIRRINE, MESA, AZ, 85210",128235160,"R"
130756,"236 S TISDALE AVE","BUFFALO","WY",82834,44.3445555380001,-106.692898411,256,"236 S TISDALE AVE, BUFFALO, WY, 82834","Match","Exact","236 S TISDALE AVE, BUFFALO, WY, 82834",147299529,"L"
130757,"236 SHANNONBROOK LN","FREDERICK",NA,21702,39.4304703390001,-77.4648171379999,257,"236 SHANNONBROOK LN, FREDERICK, , 21702","Match","Exact","236 SHANNONBROOK LN, FREDERICK, MD, 21702",60705752,"R"
130758,"236 SOUTH SMITH ROAD","WAYMART","PA",18472,41.611688879,-75.422943053,258,"236 SOUTH SMITH ROAD, WAYMART, PA, 18472","Match","Exact","236 S SMITH RD, WAYMART, PA, 18472",140160806,"L"
130759,"236 SOUTH WEBSTER STREET","WHITE CLOUD","MI",49349,43.5500192380001,-85.761797422,259,"236 SOUTH WEBSTER STREET, WHITE CLOUD, MI, 49349","Match","Exact","236 S WEBSTER ST, WHITE CLOUD, MI, 49349",150216524,"R"
130760,"236 SOUTHFIELD DRIVE","VERNON HILLS","IL",60061,42.233072819,-87.991704652,260,"236 SOUTHFIELD DRIVE, VERNON HILLS, IL, 60061","Match","Exact","236 SOUTHFIELD DR, VERNON HILLS, IL, 60061",119688097,"R"
130761,"236 SPRING VALLEY AVENUE","HACKENSACK","NJ",7601,40.908371334,-74.050871166,261,"236 SPRING VALLEY AVENUE, HACKENSACK, NJ, 7601","Match","Exact","236 SPRING VALLEY AVE, HACKENSACK, NJ, 07601",64385681,"R"
130762,"236 SYLVAN WALK","PITTSBURGH","PA",15202,NA,NA,262,"236 SYLVAN WALK, PITTSBURGH, PA, 15202","No_Match",NA,NA,NA,NA
130763,"236 TOPZ CIRCLE","HEWITT","TX",76643,31.470761586,-97.192027809,263,"236 TOPZ CIRCLE, HEWITT, TX, 76643","Match","Non_Exact","236 TOPAZ CIR, HEWITT, TX, 76643",650211044,"L"
130764,"236 TRILLUM LOOP","ANDREWS","SC",29450,33.534777295,-79.602911746,264,"236 TRILLUM LOOP, ANDREWS, SC, 29450","Match","Non_Exact","236 TRILLIUM LOOP, ANDREWS, SC, 29510",29224450,"L"
130765,"236 VERNON ST","BETHEL","ME",4217,44.397671583,-70.771832616,265,"236 VERNON ST, BETHEL, ME, 4217","Match","Exact","236 VERNON ST, BETHEL, ME, 04217",651141375,"R"
130766,"236 W BEVERLY PLACE","TRACY","CA",95376,37.7449743700001,-121.428813912,266,"236 W BEVERLY PLACE, TRACY, CA, 95376","Match","Exact","236 BEVERLY PL, TRACY, CA, 95376",133853981,"L"
130767,"236 W BIRCH ST","SHELTON","WA",98584,47.216851836,-123.10103483,267,"236 W BIRCH ST, SHELTON, WA, 98584","Match","Exact","236 W BIRCH ST, SHELTON, WA, 98584",180853307,"R"
130768,"236 W MOUNTAIN  SUITE 108-A","COVINA","CA",91103,NA,NA,268,"236 W MOUNTAIN  SUITE 108-A, COVINA, CA, 91103","No_Match",NA,NA,NA,NA
130769,"236 W TAYLOR ST","SHELBYVILLE","IN",46176,39.5208593620001,-85.7804316799999,269,"236 W TAYLOR ST, SHELBYVILLE, IN, 46176","Match","Exact","236 W TAYLOR ST, SHELBYVILLE, IN, 46176",33221267,"R"
130770,"236 WEST 137TH STREET","NEW YORK","NY",10030,40.8170665690001,-73.9438630509999,270,"236 WEST 137TH STREET, NEW YORK, NY, 10030","Match","Exact","236 W 137TH ST, NEW YORK, NY, 10030",59656148,"L"
130771,"236 WEST LAMB ST","BELLEFONTE","PA",16823,40.914584808,-77.781423472,271,"236 WEST LAMB ST, BELLEFONTE, PA, 16823","Match","Exact","236 W LAMB ST, BELLEFONTE, PA, 16823",50359449,"R"
130772,"236 WEST PORTAL 810","SAN FRANCISCO","CA",94127,37.7391533380001,-122.467746279,272,"236 WEST PORTAL 810, SAN FRANCISCO, CA, 94127","Match","Non_Exact","236 W PORTAL AVE, SAN FRANCISCO, CA, 94127",192282696,"R"
130773,"236 WESTERN HIGHWAY","TAPPAN","NY",10983,41.0310036160001,-73.952467176,273,"236 WESTERN HIGHWAY, TAPPAN, NY, 10983","Match","Exact","236 WESTERN HWY, TAPPAN, NY, 10983",124599862,"L"
130774,"236 ZACHARY WALK","MURPHY","TX",75094,33.01561307,-96.6271152589999,274,"236 ZACHARY WALK, MURPHY, TX, 75094","Match","Exact","236 ZACHARY WALK, MURPHY, TX, 75094",210514565,"R"
130775,"236","KILLEEN","TX",76541,NA,NA,275,"236, KILLEEN, TX, 76541","No_Match",NA,NA,NA,NA
130776,"236","NESBIT","MS",38651,NA,NA,276,"236, NESBIT, MS, 38651","No_Match",NA,NA,NA,NA
130777,"2360 400TH STREET SW","OXFORD","IA",52322,41.6435535890001,-91.700376066,277,"2360 400TH STREET SW, OXFORD, IA, 52322","Match","Exact","2360 400TH ST SW, OXFORD, IA, 52322",84493449,"L"
130778,"2360 8TH AVE APT 2D","NEW YORK","NY",10027,40.811226978,-73.9503899329999,278,"2360 8TH AVE APT 2D, NEW YORK, NY, 10027","Match","Exact","2360 8TH AVE, NEW YORK, NY, 10027",59656167,"R"
130779,"2360 95TH STREET","NAPERVILLE","IL",60564,41.7099085350001,-88.1924608319999,279,"2360 95TH STREET, NAPERVILLE, IL, 60564","Match","Exact","2360 95TH ST, NAPERVILLE, IL, 60564",111616362,"R"
130780,"2360 AMSTERDAM AVE STE 6C","NEW YORK","NY",10033,40.8455965800001,-73.932740429,280,"2360 AMSTERDAM AVE STE 6C, NEW YORK, NY, 10033","Match","Exact","2360 AMSTERDAM AVE, NEW YORK, NY, 10033",59664739,"L"
130781,"2360 BRINER AVE","AKRON","OH",44305,41.0781986370001,-81.436424213,281,"2360 BRINER AVE, AKRON, OH, 44305","Match","Exact","2360 BRINER AVE, AKRON, OH, 44305",61352474,"R"
130782,"2360 CALHOUN ST","GARY","IN",46406,41.576079291,-87.4082890879999,282,"2360 CALHOUN ST, GARY, IN, 46406","Match","Exact","2360 CALHOUN ST, GARY, IN, 46406",98424727,"R"
130783,"2360 CORPORATE CIRCLE  SUITE 400","HENDERSON","NV",89074,36.025994638,-115.087375206,283,"2360 CORPORATE CIRCLE  SUITE 400, HENDERSON, NV, 89074","Match","Exact","2360 CORPORATE CIR, HENDERSON, NV, 89074",201991159,"L"
130784,"2360 CORPORATE CIRCLE SUITE 400","HENDERSON","CA",89074,NA,NA,284,"2360 CORPORATE CIRCLE SUITE 400, HENDERSON, CA, 89074","No_Match",NA,NA,NA,NA
130785,"2360 CRANBERRY HWY SUITE 422","WAREHAM","MA",2576,41.7887690590001,-70.750939769,285,"2360 CRANBERRY HWY SUITE 422, WAREHAM, MA, 2576","Match","Non_Exact","2360 CRANBERRY HWY, WEST WAREHAM, MA, 02576",87421620,"L"
130786,"2360 CTY HWY B","BRULE","WI",54820,NA,NA,286,"2360 CTY HWY B, BRULE, WI, 54820","No_Match",NA,NA,NA,NA
130787,"2360 DAIRY ROAD","LANCASTER","PA",17601,40.0826388360001,-76.362284362,287,"2360 DAIRY ROAD, LANCASTER, PA, 17601","Match","Exact","2360 DAIRY RD, LANCASTER, PA, 17601",179715273,"L"
130788,"2360 E BARSTOW AVE M/S VR 89","FERSNO","CA",93740,NA,NA,288,"2360 E BARSTOW AVE M/S VR 89, FERSNO, CA, 93740","No_Match",NA,NA,NA,NA
130789,"2360 E BARSTOW AVE MS VR 89","FRESNO","CA",93740,NA,NA,289,"2360 E BARSTOW AVE MS VR 89, FRESNO, CA, 93740","No_Match",NA,NA,NA,NA
130790,"2360 E CAMPUS DRIVE","COTTONWOOD HEIGHTS","UT",84121,40.6198316320001,-111.823336506,290,"2360 E CAMPUS DRIVE, COTTONWOOD HEIGHTS, UT, 84121","Match","Exact","2360 CAMPUS DR, COTTONWOOD HEIGHTS, UT, 84121",176095465,"R"
130791,"2360 E MOUNTAIN STREET","PASADENA","CA",91104,34.1615221330001,-118.101944986,291,"2360 E MOUNTAIN STREET, PASADENA, CA, 91104","Match","Exact","2360 E MOUNTAIN ST, PASADENA, CA, 91104",141632380,"R"
130792,"2360 EL CAMINO AVENUE","SACRAMENTO","CA",95821,38.6107157690001,-121.408141324,292,"2360 EL CAMINO AVENUE, SACRAMENTO, CA, 95821","Match","Exact","2360 EL CAMINO AVE, SACRAMENTO, CA, 95821",133331132,"R"
130793,"2360 FAIRMONT AVE","MIRAMAR","FL",33025,25.988477942,-80.27193564,293,"2360 FAIRMONT AVE, MIRAMAR, FL, 33025","Match","Exact","2360 FAIRMONT AVE, MIRAMAR, FL, 33025",114763118,"L"
130794,"2360 GEORGE TOWN CIRCLE","AURORA","IL",60503,41.710366311,-88.2502353899999,294,"2360 GEORGE TOWN CIRCLE, AURORA, IL, 60503","Match","Non_Exact","2360 GEORGETOWN CIR, AURORA, IL, 60503",111635986,"R"
130795,"2360 HAYES AVE","LONG BEACH","CA",90810,33.7996769970001,-118.218688313,295,"2360 HAYES AVE, LONG BEACH, CA, 90810","Match","Exact","2360 HAYES AVE, LONG BEACH, CA, 90810",141685512,"R"
130796,"2360 HILLSDALE WAY","BOULDER","CO",80305,39.9814210270001,-105.26513464,296,"2360 HILLSDALE WAY, BOULDER, CO, 80305","Match","Exact","2360 HILLSDALE WAY, BOULDER, CO, 80305",188163628,"R"
130797,"2360 HWY 336","PONTOTOC","MS",38863,34.2705102740001,-89.0474118939999,297,"2360 HWY 336, PONTOTOC, MS, 38863","Match","Exact","2360 HWY 336, PONTOTOC, MS, 38863",610240562,"R"
130798,"2360 JOSE CIRCLE SOUTH","JACKSONVILLE","FL",32217,30.231879195,-81.619165112,298,"2360 JOSE CIRCLE SOUTH, JACKSONVILLE, FL, 32217","Match","Exact","2360 JOSE CIR S, JACKSONVILLE, FL, 32217",83917133,"R"
130799,"2360 LAKE ANGELUS LANE","LAKE ANGELUS","MI",48326,42.69272219,-83.337419519,299,"2360 LAKE ANGELUS LANE, LAKE ANGELUS, MI, 48326","Match","Exact","2360 LAKE ANGELUS LN, LAKE ANGELUS, MI, 48326",618360904,"L"
130800,"2360 MARION AVE","FREMONT","CA",94539,37.533520738,-121.943679392,300,"2360 MARION AVE, FREMONT, CA, 94539","Match","Exact","2360 MARION AVE, FREMONT, CA, 94539",125033591,"L"
130801,"2360 MCCULLOCH BLVD N","LAKE HAVASU CITY","AZ",86403,34.478806972,-114.318405794,301,"2360 MCCULLOCH BLVD N, LAKE HAVASU CITY, AZ, 86403","Match","Exact","2360 MCCULLOCH BLVD N, LAKE HAVASU CITY, AZ, 86403",190281915,"R"
130802,"2360 MCCULLOCH BLVD N","LK HAVASU CITY","AZ",86403,34.478806972,-114.318405794,302,"2360 MCCULLOCH BLVD N, LK HAVASU CITY, AZ, 86403","Match","Exact","2360 MCCULLOCH BLVD N, LAKE HAVASU CITY, AZ, 86403",190281915,"R"
130803,"2360 MLK JR DR APT 1","GRAMBLING","LA",71245,32.529196088,-92.7239401749999,303,"2360 MLK JR DR APT 1, GRAMBLING, LA, 71245","Match","Non_Exact","2360 MARTIN LUTHER KING JR AVE, GRAMBLING, LA, 71245",164100555,"R"
130804,"2360 MONROE ST","DENVER","CO",80210,39.6737422570001,-104.945345369,304,"2360 MONROE ST, DENVER, CO, 80210","Match","Non_Exact","2360 S MONROE ST, DENVER, CO, 80210",177340822,"L"
130805,"2360 NORTH CARTERVILLE ROAD","PROVO","UT",84604,40.2648487970001,-111.671572895,305,"2360 NORTH CARTERVILLE ROAD, PROVO, UT, 84604","Match","Non_Exact","2360 CARTERVILLE RD, PROVO, UT, 84604",134330882,"L"
130806,"2360 NW QUIMBY STREET","PORTLAND","OR",97210,45.5333233900001,-122.69994497,306,"2360 NW QUIMBY STREET, PORTLAND, OR, 97210","Match","Exact","2360 NW QUIMBY ST, PORTLAND, OR, 97210",157498097,"L"
130807,"2360 OAK CREEK CIRCLE","MELBOURNE","FL",32935,28.188753729,-80.659730834,307,"2360 OAK CREEK CIRCLE, MELBOURNE, FL, 32935","Match","Exact","2360 OAK CREEK CIR, MELBOURNE, FL, 32935",93933204,"L"
130808,"2360 ORCHARD LAKE RD    SUITE 109","SYLVAN LAKE","MI",48320,42.6097742870001,-83.3331219889999,308,"2360 ORCHARD LAKE RD    SUITE 109, SYLVAN LAKE, MI, 48320","Match","Exact","2360 ORCHARD LAKE RD, SYLVAN LAKE, MI, 48320",69784206,"R"
130809,"2360 RAINWATER ROAD","TIFTON","GA",31793,NA,NA,309,"2360 RAINWATER ROAD, TIFTON, GA, 31793","No_Match",NA,NA,NA,NA
130810,"2360 S 900 W","SYRACUSE","UT",84075,41.0790947310001,-112.043026386,310,"2360 S 900 W, SYRACUSE, UT, 84075","Match","Exact","2360 S 900 W, SYRACUSE, UT, 84075",229364015,"L"
130811,"2360 S CANNON DR APT 313","MOUNT PROSPECT","IL",60056,42.0232680280001,-87.941993574,311,"2360 S CANNON DR APT 313, MOUNT PROSPECT, IL, 60056","Match","Exact","2360 CANNON DR, MOUNT PROSPECT, IL, 60056",111721468,"R"
130812,"2360 TURNER LAKES CT","JACKSONVILLE","FL",32221,30.2705892710001,-81.865368824,312,"2360 TURNER LAKES CT, JACKSONVILLE, FL, 32221","Match","Exact","2360 TURNER LAKES CT, JACKSONVILLE, FL, 32221",629265754,"R"
130813,"2360 VALLEY RD","RENO","NV",89512,39.549770068,-119.807881626,313,"2360 VALLEY RD, RENO, NV, 89512","Match","Exact","2360 VALLEY RD, RENO, NV, 89512",636457145,"R"
130814,"2360 VANDENBERG DR UNIT 1178","USAF ACADEMY","CO",80841,39.006988827,-104.882640332,314,"2360 VANDENBERG DR UNIT 1178, USAF ACADEMY, CO, 80841","Match","Non_Exact","2360 VANDENBERG DR, USAF ACADEMY, CO, 80840",105547944,"L"
130815,"2360 VERMONT AVE","CONNERSVILLE","IN",47331,39.663624224,-85.1360557249999,315,"2360 VERMONT AVE, CONNERSVILLE, IN, 47331","Match","Exact","2360 VERMONT AVE, CONNERSVILLE, IN, 47331",31019437,"R"
130816,"2360 W SPRING MOUNTAIN DR","BOISE","ID",83702,NA,NA,316,"2360 W SPRING MOUNTAIN DR, BOISE, ID, 83702","Tie",NA,NA,NA,NA
130817,"2360 YEMANS","HAMTRAMCK","MI",48212,42.3960385930001,-83.063194252,317,"2360 YEMANS, HAMTRAMCK, MI, 48212","Match","Non_Exact","2360 YEMANS AVE, HAMTRAMCK, MI, 48212",95465037,"R"
130818,"23600 COVENTRY WOODS LN","SOUTHFIELD","MI",48034,42.492280389,-83.276591239,318,"23600 COVENTRY WOODS LN, SOUTHFIELD, MI, 48034","Match","Exact","23600 COVENTRY WOODS LN, SOUTHFIELD, MI, 48034",69732299,"R"
130819,"23600 CR 1630","STONEWALL","OK",74871,34.65096971,-96.538097963,319,"23600 CR 1630, STONEWALL, OK, 74871","Match","Exact","23600 CO RD 1630, STONEWALL, OK, 74871",58495228,"R"
130820,"23600 FM 1093 / APT 620","RICHMOND","TX",77406,29.699641652,-95.7857781439999,320,"23600 FM 1093 / APT 620, RICHMOND, TX, 77406","Match","Non_Exact","23600 FM 1093, RICHMOND, TX, 77406",631024567,"L"
130821,"23600 FM 3009","SAN ANTONIO","TX",78266,29.6601750570001,-98.308262371,321,"23600 FM 3009, SAN ANTONIO, TX, 78266","Match","Exact","23600 FM 3009, SAN ANTONIO, TX, 78266",72266899,"L"
130822,"23600 MERCANTILE RD","BEACHWOOD","OH",44122,41.458619019,-81.5086428509999,322,"23600 MERCANTILE RD, BEACHWOOD, OH, 44122","Match","Exact","23600 MERCANTILE RD, BEACHWOOD, OH, 44122",61180033,"R"
130823,"23601 COLBOURNE RD","EUCLUD","OH",44123,41.6010747290001,-81.516821416,323,"23601 COLBOURNE RD, EUCLUD, OH, 44123","Match","Non_Exact","23601 COLBOURNE RD, EUCLID, OH, 44123",61108440,"L"
130824,"23602 N 45 AVE","GLENDALE","AZ",85310,33.7002501960001,-112.156216405,324,"23602 N 45 AVE, GLENDALE, AZ, 85310","Match","Exact","23602 N 45TH AVE, GLENDALE, AZ, 85310",128291364,"L"
130825,"23602 SE 468TH WAY","ENUMCLAW","WA",98022,47.184332313,-122.026346553,325,"23602 SE 468TH WAY, ENUMCLAW, WA, 98022","Match","Exact","23602 SE 468TH WAY, ENUMCLAW, WA, 98022",186657590,"L"
130826,"23603 CATSKILL AVE","CARSON","CA",90745,33.810836631,-118.271901997,326,"23603 CATSKILL AVE, CARSON, CA, 90745","Match","Exact","23603 CATSKILL AVE, CARSON, CA, 90745",141681689,"R"
130827,"23603 FOREST TRAIL DRIVE","HOCKLEY","TX",77447,30.1123040160001,-95.78580379,327,"23603 FOREST TRAIL DRIVE, HOCKLEY, TX, 77447","Match","Exact","23603 FOREST TRL, HOCKLEY, TX, 77447",79277397,"L"
130828,"23603 PARK SORRENTO","CALABASAS","CA",91302,34.1553368080001,-118.641338592,328,"23603 PARK SORRENTO, CALABASAS, CA, 91302","Match","Exact","23603 PARK SORRENTO, CALABASAS, CA, 91302",241249724,"L"
130829,"23603 SAN RICCI COURT","RICHMOND","TX",77406,29.697482005,-95.784697305,329,"23603 SAN RICCI COURT, RICHMOND, TX, 77406","Match","Exact","23603 SAN RICCI CT, RICHMOND, TX, 77406",648707490,"L"
130830,"23605 SW BOONES FERRY ROAD","TUALATIN","OR",97062,45.3489628200001,-122.775075977,330,"23605 SW BOONES FERRY ROAD, TUALATIN, OR, 97062","Match","Exact","23605 SW BOONES FERRY RD, TUALATIN, OR, 97062",643535643,"R"
130831,"23608 155TH AVE SE","SNOHOMISH","WA",98296,47.7828301150001,-122.023501814,331,"23608 155TH AVE SE, SNOHOMISH, WA, 98296","Match","Exact","23608 155TH AVE SE, SNOHOMISH, WA, 98296",627051485,"L"
130832,"23608 MONETA AVE","CARSON","CA",90745,33.8106205060001,-118.281161474,332,"23608 MONETA AVE, CARSON, CA, 90745","Match","Exact","23608 MONETA AVE, CARSON, CA, 90745",141670100,"L"
130833,"23608 NW 202 STREET","HIGH SPRINGS","FL",32643,29.870338528,-82.5623029559999,333,"23608 NW 202 STREET, HIGH SPRINGS, FL, 32643","Match","Exact","23608 NW 202 ST, HIGH SPRINGS, FL, 32643",6833251,"L"
130834,"23609 CRANBROOKE DRIVE","NOVI","MI",48375,42.463493838,-83.440497657,334,"23609 CRANBROOKE DRIVE, NOVI, MI, 48375","Match","Exact","23609 CRANBROOKE DR, NOVI, MI, 48375",69723849,"L"
130835,"23609 VALLEY OAK LANE","MURRIETA","CA",92592,33.5869091170001,-117.221692834,335,"23609 VALLEY OAK LANE, MURRIETA, CA, 92592","Match","Non_Exact","23609 VALLEY OAK LN, MURRIETA, CA, 92562",195088229,"L"
130836,"2361 E 29TH STREET","OAKLAND","CA",94606,37.795277049,-122.225168277,336,"2361 E 29TH STREET, OAKLAND, CA, 94606","Match","Exact","2361 E 29TH ST, OAKLAND, CA, 94606",606230540,"R"
130837,"2361 E PALMDALE BLVD SUITE A","PALMDALE","CA",93550,34.580137232,-118.087177817,337,"2361 E PALMDALE BLVD SUITE A, PALMDALE, CA, 93550","Match","Non_Exact","2361 E PALMDALE BLVD, PALMDALE, CA, 93550",141836381,"R"
130838,"2361 FAVOR RD SW","MARIETTA","GA",30060,33.8955536730001,-84.56589539,338,"2361 FAVOR RD SW, MARIETTA, GA, 30060","Match","Exact","2361 FAVOR RD SW, MARIETTA, GA, 30060",17176784,"L"
130839,"2361 FAVOR ROAD SW","MARIETTA","GA",30060,33.8955536730001,-84.56589539,339,"2361 FAVOR ROAD SW, MARIETTA, GA, 30060","Match","Exact","2361 FAVOR RD SW, MARIETTA, GA, 30060",17176784,"L"
130840,"2361 HENDERSON MILL RD UNIT 4","ATLANTA","GA",30345,NA,NA,340,"2361 HENDERSON MILL RD UNIT 4, ATLANTA, GA, 30345","Tie",NA,NA,NA,NA
130841,"2361 HURT ST","MILLEDGEVILLE","GA",31061,33.1085673910001,-83.2493875759999,341,"2361 HURT ST, MILLEDGEVILLE, GA, 31061","Match","Exact","2361 HURT ST, MILLEDGEVILLE, GA, 31061",16582446,"L"
130842,"2361 LAKE DEBRA DR APT 815","ORLANDO","FL",32835,28.5100516800001,-81.476110419,342,"2361 LAKE DEBRA DR APT 815, ORLANDO, FL, 32835","Match","Exact","2361 LAKE DEBRA DR, ORLANDO, FL, 32835",606121910,"R"
130843,"2361 LAKESHORE DRIVE","SAGLE","ID",83860,48.235466166,-116.575897898,343,"2361 LAKESHORE DRIVE, SAGLE, ID, 83860","Match","Exact","2361 LAKESHORE DR, SAGLE, ID, 83860",649804510,"R"
130844,"2361 NOSTRAND AVENUE SUITE 802","BROOKLYN","NY",11210,40.6269668670001,-73.946900737,344,"2361 NOSTRAND AVENUE SUITE 802, BROOKLYN, NY, 11210","Match","Exact","2361 NOSTRAND AVE, BROOKLYN, NY, 11210",59081796,"L"
130845,"2361 PERCH COURT SW","MARIETTA","GA",30008,33.874924401,-84.6224614939999,345,"2361 PERCH COURT SW, MARIETTA, GA, 30008","Match","Exact","2361 PERCH CT SW, MARIETTA, GA, 30008",17216408,"R"
130846,"2361 RUTH LANE","KISSIMMEE","FL",34744,28.314103731,-81.333347655,346,"2361 RUTH LANE, KISSIMMEE, FL, 34744","Match","Exact","2361 RUTH LN, KISSIMMEE, FL, 34744",176669681,"L"
130847,"2361 SAINT THOMAS STREET","NEW ORLEANS","LA",70130,29.924192374,-90.075475489,347,"2361 SAINT THOMAS STREET, NEW ORLEANS, LA, 70130","Match","Exact","2361 SAINT THOMAS ST, NEW ORLEANS, LA, 70130",191715051,"R"
130848,"2361 SE 13TH STREET","POMPANO BEACH","FL",33062,26.213988698,-80.1025261619999,348,"2361 SE 13TH STREET, POMPANO BEACH, FL, 33062","Match","Exact","2361 SE 13TH ST, POMPANO BEACH, FL, 33062",114724861,"L"
130849,"2361 VERMONT STREET","MELBOURNE","FL",32904,28.0704591370001,-80.693261137,349,"2361 VERMONT STREET, MELBOURNE, FL, 32904","Match","Exact","2361 VERMONT ST, MELBOURNE, FL, 32904",93895937,"L"
130850,"2361 W WASHINGTON STREET","WEST BEND","WI",53095,43.427215129,-88.211997803,350,"2361 W WASHINGTON STREET, WEST BEND, WI, 53095","Match","Exact","2361 W WASHINGTON ST, WEST BEND, WI, 53095",79554606,"R"
130851,"23611 ANZA AVENUE APT A","TORRANCE","CA",90505,33.8111138370001,-118.357912308,351,"23611 ANZA AVENUE APT A, TORRANCE, CA, 90505","Match","Exact","23611 ANZA AVE, TORRANCE, CA, 90505",241195620,"R"
130852,"23611 MERIDIAN PL W","BOTHELL","WA",98021,47.7835641730001,-122.233748615,352,"23611 MERIDIAN PL W, BOTHELL, WA, 98021","Match","Exact","23611 MERIDIAN PL W, BOTHELL, WA, 98021",187774099,"R"
130853,"23611 MESQUITE TRAIL LN","SPRING","TX",77373,30.055407947,-95.357065614,353,"23611 MESQUITE TRAIL LN, SPRING, TX, 77373","Match","Exact","23611 MESQUITE TRAIL LN, SPRING, TX, 77373",627728435,"L"
130854,"23614 ESPERIA STREET","RICHMOND","TX",77406,29.6901130900001,-95.785103423,354,"23614 ESPERIA STREET, RICHMOND, TX, 77406","Match","Exact","23614 ESPERIA ST, RICHMOND, TX, 77406",641098025,"L"
130855,"23617 LINCOLN AVE","MURRIETA","CA",92562,NA,NA,355,"23617 LINCOLN AVE, MURRIETA, CA, 92562","No_Match",NA,NA,NA,NA
130856,"23617 RIDGE ROAD E28","ANAMOSA","IA",52205,NA,NA,356,"23617 RIDGE ROAD E28, ANAMOSA, IA, 52205","No_Match",NA,NA,NA,NA
130857,"23619 RIVER ROAD","N DIWIDDIE","VA",23803,37.2167054130001,-77.496900189,357,"23619 RIVER ROAD, N DIWIDDIE, VA, 23803","Match","Non_Exact","23619 RIVER RD, NORTH DINWIDDIE, VA, 23803",641680641,"R"
130858,"2362 ANDREWS VALLEY DRIVE","KISSIMMEE","FL",34758,28.231761437,-81.494010271,358,"2362 ANDREWS VALLEY DRIVE, KISSIMMEE, FL, 34758","Match","Exact","2362 ANDREWS VALLEY DR, KISSIMMEE, FL, 34758",633968365,"R"
130859,"2362 CARNATION DR","CREST HILL","IL",60403,41.5625794800001,-88.144315596,359,"2362 CARNATION DR, CREST HILL, IL, 60403","Match","Exact","2362 CARNATION DR, CREST HILL, IL, 60403",635514957,"R"
130860,"2362 COUNTY HWY 14","ALTOONA","AL",35952,34.1140715130001,-86.437181757,360,"2362 COUNTY HWY 14, ALTOONA, AL, 35952","Match","Exact","2362 CO HWY 14, ALTOONA, AL, 35952",99082251,"L"
130861,"2362 KERRIA COURT","BRYANS ROAD","MD",20616,38.6491088760001,-77.073843364,361,"2362 KERRIA COURT, BRYANS ROAD, MD, 20616","Match","Exact","2362 KERRIA CT, BRYANS ROAD, MD, 20616",627056653,"L"
130862,"2362 M BERING DRIVE","HOUSTON","TX",77057,29.742457313,-95.4794475579999,362,"2362 M BERING DRIVE, HOUSTON, TX, 77057","Match","Exact","2362 BERING DR, HOUSTON, TX, 77057",96620492,"R"
130863,"2362 MCFARLAND ROAD","ROCKFORD","IL",61108,42.240462898,-88.983329854,363,"2362 MCFARLAND ROAD, ROCKFORD, IL, 61108","Match","Exact","2362 MCFARLAND RD, ROCKFORD, IL, 61108",605024509,"L"
130864,"2362 NORTH 18TH STREET","PHILADELPHIA","PA",19132,39.9896114570001,-75.162078836,364,"2362 NORTH 18TH STREET, PHILADELPHIA, PA, 19132","Match","Exact","2362 N 18TH ST, PHILADELPHIA, PA, 19132",131402902,"L"
130865,"2362 SE 14TH STREET","POMPANO BEACH","FL",33062,26.212605382,-80.1036945069999,365,"2362 SE 14TH STREET, POMPANO BEACH, FL, 33062","Match","Exact","2362 SE 14TH ST, POMPANO BEACH, FL, 33062",114749406,"R"
130866,"2362 SOWER BLVD","OKEMOS","MI",48864,42.7030046090001,-84.439442973,366,"2362 SOWER BLVD, OKEMOS, MI, 48864","Match","Exact","2362 SOWER BLVD, OKEMOS, MI, 48864",17505637,"R"
130867,"2362 SPOTSWOOD PLACE","BOULDER","CO",80304,40.0520280920001,-105.26616803,367,"2362 SPOTSWOOD PLACE, BOULDER, CO, 80304","Match","Exact","2362 SPOTSWOOD PL, BOULDER, CO, 80304",188194140,"R"
130868,"2362 STATE HWY 94","OQUAWKA","IL",61469,40.979167338,-90.863844311,368,"2362 STATE HWY 94, OQUAWKA, IL, 61469","Match","Exact","2362 STATE HWY 94, OQUAWKA, IL, 61469",648306920,"R"
130869,"23620 THREE NOTCH ROAD UNIT 104","HOLLYWOOD","MD",20636,38.3161044290001,-76.5385897749999,369,"23620 THREE NOTCH ROAD UNIT 104, HOLLYWOOD, MD, 20636","Match","Exact","23620 THREE NOTCH RD, HOLLYWOOD, MD, 20636",36651519,"L"
130870,"23620- 108TH PLACE SE APT 1 M206","KENT","WA",98031,NA,NA,370,"23620- 108TH PLACE SE APT 1 M206, KENT, WA, 98031","No_Match",NA,NA,NA,NA
130871,"23621 N DESERT DR","FLORENCE","AZ",85132,NA,NA,371,"23621 N DESERT DR, FLORENCE, AZ, 85132","Tie",NA,NA,NA,NA
130872,"23623 NOTTINGHAM LN","SOUTHFIELD","MI",48033,42.46254615,-83.265955832,372,"23623 NOTTINGHAM LN, SOUTHFIELD, MI, 48033","Match","Non_Exact","23623 NOTTINGHAM CT, SOUTHFIELD, MI, 48033",69777728,"R"
130873,"23626 SORESINA","LAGUNA HILLS","CA",92653,33.6194361,-117.740857917,373,"23626 SORESINA, LAGUNA HILLS, CA, 92653","Match","Exact","23626 SORESINA, LAGUNA HILLS, CA, 92653",144061887,"L"
130874,"23628 ANDREW BLVD","BROWNSTOWN TWP","MI",48134,42.1332210080001,-83.2624387719999,374,"23628 ANDREW BLVD, BROWNSTOWN TWP, MI, 48134","Match","Exact","23628 ANDREW BLVD, BROWNSTOWN TOWNSHIP, MI, 48134",95691319,"L"
130875,"23629 LIBERTY STREET SUITE 104","FARMINGTON","MI",48335,42.464568764,-83.378324424,375,"23629 LIBERTY STREET SUITE 104, FARMINGTON, MI, 48335","Match","Exact","23629 LIBERTY ST, FARMINGTON, MI, 48335",69725305,"L"
130876,"23629 PARKVIEW DR","BULLARD","TX",75757,32.1367749200001,-95.4324606919999,376,"23629 PARKVIEW DR, BULLARD, TX, 75757","Match","Exact","23629 PARKVIEW DR, BULLARD, TX, 75757",141275282,"L"
130877,"2363 CRESTLINE DRIVE","ST LOUIS","MO",63129,NA,NA,377,"2363 CRESTLINE DRIVE, ST LOUIS, MO, 63129","No_Match",NA,NA,NA,NA
130878,"2363 EHRING ROAD","COLUMBUS","OH",43211,40.025876257,-82.9490001249999,378,"2363 EHRING ROAD, COLUMBUS, OH, 43211","Match","Exact","2363 EHRING RD, COLUMBUS, OH, 43211",218655349,"R"
130879,"2363 GARDENSDALE DR","COLUMBUS","OH",43219,NA,NA,379,"2363 GARDENSDALE DR, COLUMBUS, OH, 43219","No_Match",NA,NA,NA,NA
130880,"2363 GARDNER DRIVE","FAIRBORN","OH",45324,39.775137569,-83.9869533199999,380,"2363 GARDNER DRIVE, FAIRBORN, OH, 45324","Match","Exact","2363 GARDNER DR, FAIRBORN, OH, 45324",143420655,"R"
130881,"2363 HILLFIELD ROAD SUITE 111","LAYTON","UT",84041,41.0945086580001,-111.973473536,381,"2363 HILLFIELD ROAD SUITE 111, LAYTON, UT, 84041","Match","Non_Exact","2363 HILL FIELD RD, LAYTON, UT, 84041",647675315,"L"
130882,"2363 ISRAELI DRIVE - 47","CLEARWATER","FL",33763,28.004532011,-82.741110696,382,"2363 ISRAELI DRIVE - 47, CLEARWATER, FL, 33763","Match","Exact","2363 ISRAELI DR, CLEARWATER, FL, 33763",124791520,"R"
130883,"2363 JAMES STREET STE 1015","SYRACUSE","NY",13206,NA,NA,383,"2363 JAMES STREET STE 1015, SYRACUSE, NY, 13206","No_Match",NA,NA,NA,NA
130884,"2363 JUNE SPRINGS DR SW","MARIETTA","GA",30008,33.8978795460001,-84.603215451,384,"2363 JUNE SPRINGS DR SW, MARIETTA, GA, 30008","Match","Exact","2363 JUNE SPRINGS DR SW, MARIETTA, GA, 30008",17216485,"L"
130885,"2363 KINGSGATE COURT","DUNWOODY","GA",30338,33.928670163,-84.291725422,385,"2363 KINGSGATE COURT, DUNWOODY, GA, 30338","Match","Exact","2363 KINGSGATE CT, DUNWOODY, GA, 30338",23357235,"R"
130886,"2363 KIRKTON DRIVE","TROY","MI",48083,42.5569461420001,-83.139215309,386,"2363 KIRKTON DRIVE, TROY, MI, 48083","Match","Exact","2363 KIRKTON DR, TROY, MI, 48083",69742858,"L"
130887,"2363 LEMAY SHORES DRIVE","MENDOTA HEIGHTS","MN",55120,44.8703908100001,-93.1528299459999,387,"2363 LEMAY SHORES DRIVE, MENDOTA HEIGHTS, MN, 55120","Match","Exact","2363 LEMAY SHORES DR, MENDOTA HEIGHTS, MN, 55120",650046531,"L"
130888,"2363 NORTH AVE","BRIDGEPORT","CT",6604,41.1785533610001,-73.2156359269999,388,"2363 NORTH AVE, BRIDGEPORT, CT, 6604","Match","Exact","2363 NORTH AVE, BRIDGEPORT, CT, 06604",635938999,"R"
130889,"2363 PUU ROAD STE 4C","KALAHEO","HI",96741,21.9221466280001,-159.529541435,389,"2363 PUU ROAD STE 4C, KALAHEO, HI, 96741","Match","Exact","2363 PUU RD, KALAHEO, HI, 96741",635495172,"R"
130890,"2363 RANCHITO DRIVE       APT B","CONCORD","CA",94520,38.0025957560001,-122.029326292,390,"2363 RANCHITO DRIVE       APT B, CONCORD, CA, 94520","Match","Exact","2363 RANCHITO DR, CONCORD, CA, 94520",618780305,"R"
130891,"2363 TELLER RD STE 110","NEWBURY PARK","CA",91320,34.191112769,-118.926495206,391,"2363 TELLER RD STE 110, NEWBURY PARK, CA, 91320","Match","Exact","2363 TELLER RD, NEWBURY PARK, CA, 91320",110001602,"R"
130892,"2363 TOLLIVER HILLS LANE","ELLENWOOD","GA",30294,33.668139787,-84.288060958,392,"2363 TOLLIVER HILLS LANE, ELLENWOOD, GA, 30294","Match","Exact","2363 TOLLIVER HILLS LN, ELLENWOOD, GA, 30294",619381971,"L"
130893,"23630 SE 440TH ST","ENUMCLAW","WA",98022,47.2065400110001,-122.025808167,393,"23630 SE 440TH ST, ENUMCLAW, WA, 98022","Match","Exact","23630 SE 440TH ST, ENUMCLAW, WA, 98022",186657453,"R"
130894,"23631 SUNNYMEAD BLVD","MORENO VALLEY","CA",92553,33.9389673000001,-117.250883736,394,"23631 SUNNYMEAD BLVD, MORENO VALLEY, CA, 92553","Match","Exact","23631 SUNNYMEAD BLVD, MORENO VALLEY, CA, 92553",194747593,"R"
130895,"23631 SW 108 AVE","HOMESTEAD","FL",33032,25.547690244,-80.3659572879999,395,"23631 SW 108 AVE, HOMESTEAD, FL, 33032","Match","Exact","23631 SW 108TH AVE, HOMESTEAD, FL, 33032",624582518,"L"
130896,"23632 CALABASAS ROAD SUITE 202","CALABASAS","CA",91302,34.155287215,-118.644338419,396,"23632 CALABASAS ROAD SUITE 202, CALABASAS, CA, 91302","Match","Exact","23632 CALABASAS RD, CALABASAS, CA, 91302",142046241,"R"
130897,"23634 42ND AVE","ST CLOUD","MN",56301,45.465850576,-94.196970856,397,"23634 42ND AVE, ST CLOUD, MN, 56301","Match","Exact","23634 42ND AVE, SAINT CLOUD, MN, 56301",107428144,"R"
130898,"23634 LONGACRE ST","FARMINGTON","MI",48335,42.464069076,-83.390224609,398,"23634 LONGACRE ST, FARMINGTON, MI, 48335","Match","Exact","23634 LONGACRE ST, FARMINGTON, MI, 48335",69724916,"R"
130899,"23635 NEWHALL AVENUE SUITE 104","NEWHALL","CA",91321,NA,NA,399,"23635 NEWHALL AVENUE SUITE 104, NEWHALL, CA, 91321","No_Match",NA,NA,NA,NA
130900,"23635 VERDE RIVER","SAN ANTONIO","TX",78255,29.661677006,-98.650454789,400,"23635 VERDE RIVER, SAN ANTONIO, TX, 78255","Match","Exact","23635 VERDE RIVER, SAN ANTONIO, TX, 78255",625671480,"R"
130901,"23636 MICHIGAN AVENUE SUITE 475","DEARBORN","MI",48124,42.3008613540001,-83.2677518839999,401,"23636 MICHIGAN AVENUE SUITE 475, DEARBORN, MI, 48124","Match","Exact","23636 MICHIGAN AVE, DEARBORN, MI, 48124",647836747,"R"
130902,"23637 OAKREST LANE","HARBOR CITY","CA",90710,33.810574108,-118.297744387,402,"23637 OAKREST LANE, HARBOR CITY, CA, 90710","Match","Exact","23637 OAKREST LN, HARBOR CITY, CA, 90710",141669797,"R"
130903,"23638 LYONS AVE UNIT 214","NEWHALL","CA",91321,34.3792874540001,-118.547826417,403,"23638 LYONS AVE UNIT 214, NEWHALL, CA, 91321","Match","Exact","23638 LYONS AVE, NEWHALL, CA, 91321",637372023,"R"
130904,"23638 LYONS AVENUE SUITE 277","NEWHALL","CA",91321,34.3792874540001,-118.547826417,404,"23638 LYONS AVENUE SUITE 277, NEWHALL, CA, 91321","Match","Exact","23638 LYONS AVE, NEWHALL, CA, 91321",637372023,"R"
130905,"23638 LYONS AVENUE UNIT 215","NEWHALL","CA",91321,34.3792874540001,-118.547826417,405,"23638 LYONS AVENUE UNIT 215, NEWHALL, CA, 91321","Match","Exact","23638 LYONS AVE, NEWHALL, CA, 91321",637372023,"R"
130906,"23638 W MAGIC MOUNTAIN PKWY APT 320","VALENCIA","CA",91355,34.415581167,-118.548445635,406,"23638 W MAGIC MOUNTAIN PKWY APT 320, VALENCIA, CA, 91355","Match","Exact","23638 MAGIC MOUNTAIN PKWY, VALENCIA, CA, 91355",142830639,"R"
130907,"2364 14TH ST NW","MINOT","ND",58703,48.2600873740001,-101.317023299,407,"2364 14TH ST NW, MINOT, ND, 58703","Match","Exact","2364 14TH ST NW, MINOT, ND, 58703",636142232,"L"
130908,"2364 ALDERBROOK DR","HIGH POINT","NC",27265,36.055728178,-79.998365157,408,"2364 ALDERBROOK DR, HIGH POINT, NC, 27265","Match","Exact","2364 ALDERBROOK DR, HIGH POINT, NC, 27265",619937734,"R"
130909,"2364 BATTERY HILL CIRCLE","WOODBRIDGE","VA",22191,38.612490302,-77.284339002,409,"2364 BATTERY HILL CIRCLE, WOODBRIDGE, VA, 22191","Match","Exact","2364 BATTERY HILL CIR, WOODBRIDGE, VA, 22191",634499940,"R"
130910,"2364 DAWN CT","DECATUR","GA",30032,33.7159075010001,-84.2934440669999,410,"2364 DAWN CT, DECATUR, GA, 30032","Match","Exact","2364 DAWN CT, DECATUR, GA, 30032",23401894,"L"
130911,"2364 E MIRAVAL SEGUNDO","TUCSON","AZ",85718,32.3219506,-110.936981327,411,"2364 E MIRAVAL SEGUNDO, TUCSON, AZ, 85718","Match","Exact","2364 E MIRAVAL SEGUNDO, TUCSON, AZ, 85718",121167582,"R"
130912,"2364 ESSINGTON RD UNIT 105","JOLIET","IL",60435,41.564748175,-88.161664047,412,"2364 ESSINGTON RD UNIT 105, JOLIET, IL, 60435","Match","Exact","2364 ESSINGTON RD, JOLIET, IL, 60435",640612750,"R"
130913,"2364 ESSINGTON ROAD UNIT 105","JOLIET","IL",60435,41.564748175,-88.161664047,413,"2364 ESSINGTON ROAD UNIT 105, JOLIET, IL, 60435","Match","Exact","2364 ESSINGTON RD, JOLIET, IL, 60435",640612750,"R"
130914,"2364 F ROAD","OAKLAND","NE",68045,41.8146060810001,-96.584216167,414,"2364 F ROAD, OAKLAND, NE, 68045","Match","Exact","2364 F RD, OAKLAND, NE, 68045",639753718,"R"
130915,"2364 JACKSON ST  186","STOUGHTON","WI",53589,42.9215063020001,-89.249694505,415,"2364 JACKSON ST  186, STOUGHTON, WI, 53589","Match","Exact","2364 JACKSON ST, STOUGHTON, WI, 53589",644771310,"L"
130916,"2364 JACKSON ST - 181","STOUGHTON","WI",53589,42.9215063020001,-89.249694505,416,"2364 JACKSON ST - 181, STOUGHTON, WI, 53589","Match","Exact","2364 JACKSON ST, STOUGHTON, WI, 53589",644771310,"L"
130917,"2364 JACKSON ST NUM 113","STOUGHTON","WI",53589,42.9215063020001,-89.249694505,417,"2364 JACKSON ST NUM 113, STOUGHTON, WI, 53589","Match","Exact","2364 JACKSON ST, STOUGHTON, WI, 53589",644771310,"L"
130918,"2364 JACKSON ST NUMBER 118","STOUGHTON","WI",53589,42.9215063020001,-89.249694505,418,"2364 JACKSON ST NUMBER 118, STOUGHTON, WI, 53589","Match","Exact","2364 JACKSON ST, STOUGHTON, WI, 53589",644771310,"L"
130919,"2364 JACKSON ST PMB 140","STOUGHTON","WI",53589,42.9215063020001,-89.249694505,419,"2364 JACKSON ST PMB 140, STOUGHTON, WI, 53589","Match","Exact","2364 JACKSON ST, STOUGHTON, WI, 53589",644771310,"L"
130920,"2364 JACKSON ST PMB 215","STOUGHTON","WI",53589,42.9215063020001,-89.249694505,420,"2364 JACKSON ST PMB 215, STOUGHTON, WI, 53589","Match","Exact","2364 JACKSON ST, STOUGHTON, WI, 53589",644771310,"L"
130921,"2364 JACKSON STREET  BOX 161","STOUGHTON","WI",53589,42.9215063020001,-89.249694505,421,"2364 JACKSON STREET  BOX 161, STOUGHTON, WI, 53589","Match","Exact","2364 JACKSON ST, STOUGHTON, WI, 53589",644771310,"L"
130922,"2364 JACKSON STREET NUMBER 193","STOUGHTON","WI",53589,42.9215063020001,-89.249694505,422,"2364 JACKSON STREET NUMBER 193, STOUGHTON, WI, 53589","Match","Exact","2364 JACKSON ST, STOUGHTON, WI, 53589",644771310,"L"
130923,"2364 JACKSON STREET NUMBER 236","STOUGHTON","WI",53589,42.9215063020001,-89.249694505,423,"2364 JACKSON STREET NUMBER 236, STOUGHTON, WI, 53589","Match","Exact","2364 JACKSON ST, STOUGHTON, WI, 53589",644771310,"L"
130924,"2364 JACKSON STREET PMB 117","STOUGHTON","WI",53589,42.9215063020001,-89.249694505,424,"2364 JACKSON STREET PMB 117, STOUGHTON, WI, 53589","Match","Exact","2364 JACKSON ST, STOUGHTON, WI, 53589",644771310,"L"
130925,"2364 LILIUOKALANI","KILAUEA","HI",96722,NA,NA,425,"2364 LILIUOKALANI, KILAUEA, HI, 96722","No_Match",NA,NA,NA,NA
130926,"2364 N 1200TH AVE","ORION","IL",61273,41.326353598,-90.3897883389999,426,"2364 N 1200TH AVE, ORION, IL, 61273","Match","Exact","2364 N 1200TH AVE, ORION, IL, 61273",648984681,"R"
130927,"2364 NOTTINGHILL DR NW","KENNESAW","GA",30152,34.0119421410001,-84.636247558,427,"2364 NOTTINGHILL DR NW, KENNESAW, GA, 30152","Match","Non_Exact","2364 NOTTINGHILL DR, KENNESAW, GA, 30152",17235827,"L"
130928,"2364 NW 138 DR","SUNRISE","FL",33323,26.154143646,-80.3326734899999,428,"2364 NW 138 DR, SUNRISE, FL, 33323","Match","Exact","2364 NW 138TH DR, SUNRISE, FL, 33323",114784320,"R"
130929,"2364 OAKRIDGE COURT","DECATUR","GA",30032,33.714119456,-84.293253068,429,"2364 OAKRIDGE COURT, DECATUR, GA, 30032","Match","Exact","2364 OAKRIDGE CT, DECATUR, GA, 30032",23368369,"L"
130930,"2364 PINEWOOD DRIVE","DECATUR","GA",30032,33.724154959,-84.295762553,430,"2364 PINEWOOD DRIVE, DECATUR, GA, 30032","Match","Exact","2364 PINEWOOD DR, DECATUR, GA, 30032",23368348,"L"
130931,"2364 RIDGE RD","FINLEYVILLE","PA",15332,40.2805806260001,-79.926322785,431,"2364 RIDGE RD, FINLEYVILLE, PA, 15332","Match","Exact","2364 RIDGE RD, FINLEYVILLE, PA, 15332",617240866,"R"
130932,"2364 STATE ROUTE 17A","GOSHEN","NY",10924,41.378752245,-74.3464702429999,432,"2364 STATE ROUTE 17A, GOSHEN, NY, 10924","Match","Exact","2364 STATE RTE 17A, GOSHEN, NY, 10924",124499157,"R"
130933,"2364 WEST MCMICKEN AVENUE","CINCINNATI","OH",45214,39.124918017,-84.532225381,433,"2364 WEST MCMICKEN AVENUE, CINCINNATI, OH, 45214","Match","Exact","2364 W MCMICKEN AVE, CINCINNATI, OH, 45214",103970168,"R"
130934,"23641 FINDLEY ROAD","STURGIS","MI",49091,41.9132521010001,-85.4875619699999,434,"23641 FINDLEY ROAD, STURGIS, MI, 49091","Match","Exact","23641 FINDLEY RD, STURGIS, MI, 49091",15323430,"L"
130935,"23642 CLEAR CT","CLEARLAKE","WA",98235,48.4594759720001,-122.233351339,435,"23642 CLEAR CT, CLEARLAKE, WA, 98235","Match","Exact","23642 CLEAR CT, CLEARLAKE, WA, 98235",183673341,"R"
130936,"23643 104TH AVE","KENT","WA",98031,47.3901581700001,-122.202238195,436,"23643 104TH AVE, KENT, WA, 98031","Match","Non_Exact","23643 104TH AVE SE, KENT, WA, 98031",187009136,"R"
130937,"23646 EAST COUNTY ROAD 1595","ELMORE CITY","OK",73433,NA,NA,437,"23646 EAST COUNTY ROAD 1595, ELMORE CITY, OK, 73433","No_Match",NA,NA,NA,NA
130938,"23646 ROCKFORD STREET","DEARBORN","MI",48124,42.3082956710001,-83.267453527,438,"23646 ROCKFORD STREET, DEARBORN, MI, 48124","Match","Exact","23646 ROCKFORD ST, DEARBORN, MI, 48124",95433605,"R"
130939,"2365 COUNTY ROAD 187","LANETT","AL",36863,32.8120353300001,-85.260723797,439,"2365 COUNTY ROAD 187, LANETT, AL, 36863","Match","Exact","2365 CO RD 187, LANETT, AL, 36863",651344904,"L"
130940,"2365 DANIEL ISLAND DRIVE","CHARLESTON","SC",29492,32.848308816,-79.908383272,440,"2365 DANIEL ISLAND DRIVE, CHARLESTON, SC, 29492","Match","Exact","2365 DANIEL ISLAND DR, CHARLESTON, SC, 29492",605138725,"R"
130941,"2365 DESERT FALLS LN","ROCKWALL","TX",75087,32.9591984690001,-96.476853154,441,"2365 DESERT FALLS LN, ROCKWALL, TX, 75087","Match","Exact","2365 DESERT FALLS LN, ROCKWALL, TX, 75087",213565751,"R"
130942,"2365 E LONG SHADOW PLACE","TUCSON","AZ",85718,32.340113633,-110.93806332,442,"2365 E LONG SHADOW PLACE, TUCSON, AZ, 85718","Match","Exact","2365 E LONG SHADOW PL, TUCSON, AZ, 85718",121393387,"L"
130943,"2365 HARRODSBURG ROAD STE A110","LEXINGTON","KY",40504,NA,NA,443,"2365 HARRODSBURG ROAD STE A110, LEXINGTON, KY, 40504","No_Match",NA,NA,NA,NA
130944,"2365 HOLLOW OAK DRIVE","ANN ARBOR","MI",48103,42.250589877,-83.854552855,444,"2365 HOLLOW OAK DRIVE, ANN ARBOR, MI, 48103","Match","Exact","2365 HOLLOW OAK DR, ANN ARBOR, MI, 48103",635875683,"L"
130945,"2365 NE 173RD ST APT C218","NORTH MIAMI BEACH","FL",33160,25.93568681,-80.152518296,445,"2365 NE 173RD ST APT C218, NORTH MIAMI BEACH, FL, 33160","Match","Non_Exact","2365 NE 173RD ST, N MIAMI BEACH, FL, 33160",116036671,"L"
130946,"2365 NORTH MCKNIGHT ROAD","NORTH ST. PAUL","MN",55109,NA,NA,446,"2365 NORTH MCKNIGHT ROAD, NORTH ST. PAUL, MN, 55109","No_Match",NA,NA,NA,NA
130947,"2365 PACIFIC STREET APT 4A","BROOKLYN","NY",11233,40.6753337370001,-73.907222095,447,"2365 PACIFIC STREET APT 4A, BROOKLYN, NY, 11233","Match","Exact","2365 PACIFIC ST, BROOKLYN, NY, 11233",59083873,"L"
130948,"2365 PLAZA DEL AMO","TORRANCE","CA",90501,33.827702899,-118.320807084,448,"2365 PLAZA DEL AMO, TORRANCE, CA, 90501","Match","Non_Exact","2365 PLZ DEL AMO, TORRANCE, CA, 90501",641500194,"R"
130949,"2365 RIDGELAKE DRIVE","VILLA RICA","GA",30180,33.744064253,-84.897637984,449,"2365 RIDGELAKE DRIVE, VILLA RICA, GA, 30180","Match","Exact","2365 RIDGELAKE DR, VILLA RICA, GA, 30180",644670218,"L"
130950,"2365 ROCK N HORSE FARMS DR","FESTUS","MO",63028,38.1496334450001,-90.420217071,450,"2365 ROCK N HORSE FARMS DR, FESTUS, MO, 63028","Match","Exact","2365 ROCK N HORSE FARMS DR, FESTUS, MO, 63028",607883401,"R"
130951,"2365 S CONGRESS AVE","WEST PALM BEACH","FL",33406,26.6417069020001,-80.088207225,451,"2365 S CONGRESS AVE, WEST PALM BEACH, FL, 33406","Match","Exact","2365 S CONGRESS AVE, WEST PALM BEACH, FL, 33406",115274023,"R"
130952,"2365 SALISBURY COURT","LEWISVILLE","TX",75056,33.042918017,-96.915273798,452,"2365 SALISBURY COURT, LEWISVILLE, TX, 75056","Match","Exact","2365 SALISBURY CT, LEWISVILLE, TX, 75056",639622137,"L"
130953,"2365 STRASBURG ROAD","COATESVILLE","PA",19320,39.9507847240001,-75.822080157,453,"2365 STRASBURG ROAD, COATESVILLE, PA, 19320","Match","Non_Exact","2365 W STRASBURG RD, COATESVILLE, PA, 19320",179481418,"L"
130954,"2365 SWEETWATER DR APT 216","GRAND PRAIRIE","TX",75050,32.754020875,-97.036473938,454,"2365 SWEETWATER DR APT 216, GRAND PRAIRIE, TX, 75050","Match","Exact","2365 SWEETWATER DR, GRAND PRAIRIE, TX, 75050",101919352,"L"
130955,"2365 TOPAZ DRIVE","TROY","MI",48085,42.6048279990001,-83.104145952,455,"2365 TOPAZ DRIVE, TROY, MI, 48085","Match","Exact","2365 TOPAZ DR, TROY, MI, 48085",69806460,"R"
130956,"2365 VIA ALTA SUITE 330","SAN DIEGO","CA",92108,NA,NA,456,"2365 VIA ALTA SUITE 330, SAN DIEGO, CA, 92108","No_Match",NA,NA,NA,NA
130957,"2365 VISTA PARKWAY SUITE 6","WEST PALM BEACH","FL",33411,26.719553137,-80.14893891,457,"2365 VISTA PARKWAY SUITE 6, WEST PALM BEACH, FL, 33411","Match","Exact","2365 VISTA PKWY, WEST PALM BEACH, FL, 33411",640707964,"L"
130958,"2365 WALL STREET STE 210","CONYERS","GA",30013,33.625853426,-83.978710736,458,"2365 WALL STREET STE 210, CONYERS, GA, 30013","Match","Non_Exact","2365 WALL ST SE, CONYERS, GA, 30013",23746646,"R"
130959,"2365 WATERFRONT PARK DRIVE","CANYON LAKE","TX",78133,29.865053889,-98.2663953369999,459,"2365 WATERFRONT PARK DRIVE, CANYON LAKE, TX, 78133","Match","Exact","2365 WATERFRONT PARK DR, CANYON LAKE, TX, 78133",72260241,"L"
130960,"2365-F","SAN JOSE","CA",95131,NA,NA,460,"2365-F, SAN JOSE, CA, 95131","No_Match",NA,NA,NA,NA
130961,"23650 ROUND MOUNTAIN CIRCLE","LEANDER","TX",78641,30.6019435750001,-97.9436433229999,461,"23650 ROUND MOUNTAIN CIRCLE, LEANDER, TX, 78641","Match","Exact","23650 ROUND MOUNTAIN CIR, LEANDER, TX, 78641",649840021,"L"
130962,"23651 SUMMIT DR","CALABASAS","CA",91302,34.1293398190001,-118.644550047,462,"23651 SUMMIT DR, CALABASAS, CA, 91302","Match","Exact","23651 SUMMIT DR, CALABASAS, CA, 91302",142668556,"L"
130963,"23654 KLUPENGER RD NE","AURORA","OR",97002,45.2626703180001,-122.805340962,463,"23654 KLUPENGER RD NE, AURORA, OR, 97002","Match","Exact","23654 KLUPENGER RD NE, AURORA, OR, 97002",613698051,"L"
130964,"23654 PLUM AVENUE","CASTANA","IA",51010,42.0131541160001,-95.841886272,464,"23654 PLUM AVENUE, CASTANA, IA, 51010","Match","Exact","23654 PLUM AVE, CASTANA, IA, 51010",95128333,"L"
130965,"23655 ARMADA CENTER RD","ARMADA","MI",48005,42.8504727860001,-82.876190309,465,"23655 ARMADA CENTER RD, ARMADA, MI, 48005","Match","Exact","23655 ARMADA CENTER RD, ARMADA, MI, 48005",110661838,"L"
130966,"23655 N 91ST AVE","PEORIA","AZ",85383,33.699448282,-112.255070321,466,"23655 N 91ST AVE, PEORIA, AZ, 85383","Match","Exact","23655 N 91ST AVE, PEORIA, AZ, 85383",637438123,"R"
130967,"23655 NEWHALL AVE STE C","NEWHALL","CA",91321,34.3701152790001,-118.513694044,467,"23655 NEWHALL AVE STE C, NEWHALL, CA, 91321","Match","Exact","23655 NEWHALL AVE, NEWHALL, CA, 91321",635897382,"R"
130968,"23657 E ELLSWORTH AVE","AURORA","CO",80018,39.7159465780001,-104.712138757,468,"23657 E ELLSWORTH AVE, AURORA, CO, 80018","Match","Exact","23657 E ELLSWORTH AVE, AURORA, CO, 80018",177378686,"L"
130969,"2366 48TH AVENUE","SAN FRANCISCO","CA",94116,37.7428778010001,-122.506849336,469,"2366 48TH AVENUE, SAN FRANCISCO, CA, 94116","Match","Exact","2366 48TH AVE, SAN FRANCISCO, CA, 94116",192277060,"L"
130970,"2366 BEVERLY BLVD","BERKLEY","MI",48072,42.5014911810001,-83.182288807,470,"2366 BEVERLY BLVD, BERKLEY, MI, 48072","Match","Exact","2366 BEVERLY BLVD, BERKLEY, MI, 48072",630356707,"R"
130971,"2366 BLACKBERRY CIRCLE","RAVENNA","OH",44266,NA,NA,471,"2366 BLACKBERRY CIRCLE, RAVENNA, OH, 44266","No_Match",NA,NA,NA,NA
130972,"2366 E 1ST STREET","LOVELAND","CO",80537,40.392748871,-105.044421828,472,"2366 E 1ST STREET, LOVELAND, CO, 80537","Match","Exact","2366 E 1ST ST, LOVELAND, CO, 80537",641534560,"R"
130973,"2366 EAST 39TH STREET","CLEVELAND","OH",44115,41.4952352330001,-81.658153254,473,"2366 EAST 39TH STREET, CLEVELAND, OH, 44115","Match","Exact","2366 E 39TH ST, CLEVELAND, OH, 44115",61113170,"R"
130974,"2366 FLATBUSH AVENUE","BROOKLYN","NY",11234,40.6125322,-73.925573534,474,"2366 FLATBUSH AVENUE, BROOKLYN, NY, 11234","Match","Exact","2366 FLATBUSH AVE, BROOKLYN, NY, 11234",59092481,"R"
130975,"2366 FRONT STREET","SAN DIEGO","CA",92101,32.7299559300001,-117.164837642,475,"2366 FRONT STREET, SAN DIEGO, CA, 92101","Match","Exact","2366 FRONT ST, SAN DIEGO, CA, 92101",195343172,"L"
130976,"2366 GODDARD RD","TOLEDO","OH",43606,41.666058736,-83.613224513,476,"2366 GODDARD RD, TOLEDO, OH, 43606","Match","Exact","2366 GODDARD RD, TOLEDO, OH, 43606",33935400,"R"
130977,"2366 PLAYA WAY","GOLD RIVER","CA",95670,38.6176052100001,-121.251592999,477,"2366 PLAYA WAY, GOLD RIVER, CA, 95670","Match","Exact","2366 PLAYA WAY, GOLD RIVER, CA, 95670",133409677,"R"
130978,"2366 PROSPERITY WAY","SAN LEANDRO","CA",94578,37.7039703200001,-122.105972492,478,"2366 PROSPERITY WAY, SAN LEANDRO, CA, 94578","Match","Exact","2366 PROSPERITY WAY, SAN LEANDRO, CA, 94578",125014420,"R"
130979,"2366 SYLVAN ROAD","ATLANTA","GA",30344,33.6901308550001,-84.418440947,479,"2366 SYLVAN ROAD, ATLANTA, GA, 30344","Match","Exact","2366 SYLVAN RD, ATLANTA, GA, 30344",17345739,"L"
130980,"2366 TACOMA AVE SO","TACOMA","WA",98402,47.2399795000001,-122.441538916,480,"2366 TACOMA AVE SO, TACOMA, WA, 98402","Match","Exact","2366 TACOMA AVE S, TACOMA, WA, 98402",184625451,"R"
130981,"2366 TANASI DR","CORDOVA","TN",38016,35.190376057,-89.726526264,481,"2366 TANASI DR, CORDOVA, TN, 38016","Match","Exact","2366 TANASI DR, CORDOVA, TN, 38016",624550941,"R"
130982,"2366 VERMONT AVE STE 101","HYATTSVILLE","MD",20785,38.922647689,-76.8914750719999,482,"2366 VERMONT AVE STE 101, HYATTSVILLE, MD, 20785","Match","Exact","2366 VERMONT AVE, HYATTSVILLE, MD, 20785",76417900,"L"
130983,"23660 WILLOW ISLAND TRL","OAK CREEK","CO",80467,40.2664594940001,-106.861752266,483,"23660 WILLOW ISLAND TRL, OAK CREEK, CO, 80467","Match","Exact","23660 WILLOW ISLAND TRL, OAK CREEK, CO, 80467",106001425,"R"
130984,"23661 PACIFIC COAST HIGHWAY","MALIBU","CA",90265,NA,NA,484,"23661 PACIFIC COAST HIGHWAY, MALIBU, CA, 90265","No_Match",NA,NA,NA,NA
130985,"23665 W MOHAVE ST","BUCKEYE","AZ",85326,33.431582253,-112.55932257,485,"23665 W MOHAVE ST, BUCKEYE, AZ, 85326","Match","Exact","23665 W MOHAVE ST, BUCKEYE, AZ, 85326",627702932,"R"
130986,"23667 E ALABAMA PL","AURORA","CO",80018,39.691860386,-104.711469664,486,"23667 E ALABAMA PL, AURORA, CO, 80018","Match","Exact","23667 E ALABAMA PL, AURORA, CO, 80018",177540378,"L"
130987,"2367 CAROUSEL PARK DR","MORROW","GA",30260,33.5742464460001,-84.313451602,487,"2367 CAROUSEL PARK DR, MORROW, GA, 30260","Match","Exact","2367 CAROUSEL PARK DR, MORROW, GA, 30260",629750368,"L"
130988,"2367 HIGHWAY 6 NW","TIFFIN","IA",52340,NA,NA,488,"2367 HIGHWAY 6 NW, TIFFIN, IA, 52340","No_Match",NA,NA,NA,NA
130989,"2367 INCA DRIVE","DALLAS","TX",75216,32.6926031080001,-96.786263436,489,"2367 INCA DRIVE, DALLAS, TX, 75216","Match","Exact","2367 INCA DR, DALLAS, TX, 75216",102952118,"L"
130990,"2367 LONE OAK AVENUE","NAPA","CA",94558,38.306800788,-122.316203654,490,"2367 LONE OAK AVENUE, NAPA, CA, 94558","Match","Exact","2367 LONE OAK AVE, NAPA, CA, 94558",67415205,"L"
130991,"2367 MARTIN LUTHER KING JR HWY","KINGSTREE","SC",29556,33.638650764,-79.8111993529999,491,"2367 MARTIN LUTHER KING JR HWY, KINGSTREE, SC, 29556","Match","Non_Exact","2367 MARTIN LUTHER KING JR AVE, KINGSTREE, SC, 29556",640442873,"R"
130992,"2367 SUNSET HEIGHTS DRIVE","LOS ANGELES","CA",90046,34.1125448760001,-118.389689666,492,"2367 SUNSET HEIGHTS DRIVE, LOS ANGELES, CA, 90046","Match","Exact","2367 SUNSET HEIGHTS DR, LOS ANGELES, CA, 90046",141817201,"L"
130993,"2367 W 228TH STREET","TORRANCE","CA",90501,33.8193019870001,-118.324368804,493,"2367 W 228TH STREET, TORRANCE, CA, 90501","Match","Exact","2367 W 228TH ST, TORRANCE, CA, 90501",141666017,"R"
130994,"23674 415TH AVENUE","BELLEVUE","IA",52031,42.2385267650001,-90.4093308339999,494,"23674 415TH AVENUE, BELLEVUE, IA, 52031","Match","Exact","23674 415TH AVE, BELLEVUE, IA, 52031",16971915,"L"
130995,"23674 SANDALWOOD ST","WEST HILLS","CA",91307,34.205160619,-118.642554827,495,"23674 SANDALWOOD ST, WEST HILLS, CA, 91307","Match","Exact","23674 SANDALWOOD ST, WEST HILLS, CA, 91307",141815106,"L"
130996,"23677 PLANK ROAD","ZACHARY","LA",70791,30.6966709210001,-91.086525766,496,"23677 PLANK ROAD, ZACHARY, LA, 70791","Match","Exact","23677 PLANK RD, ZACHARY, LA, 70791",92185767,"R"
130997,"23679 BOLAM AVE","WARREN","MI",48089,42.4693968,-82.974259877,497,"23679 BOLAM AVE, WARREN, MI, 48089","Match","Exact","23679 BOLAM AVE, WARREN, MI, 48089",110678081,"L"
130998,"23679 CALABASAS RD NUM 625","CALABASAS","CA",91302,34.1554723690001,-118.644310422,498,"23679 CALABASAS RD NUM 625, CALABASAS, CA, 91302","Match","Exact","23679 CALABASAS RD, CALABASAS, CA, 91302",241220680,"L"
130999,"23679 CALABASAS RD STE 1024","CALABASAS","CA",91302,34.1554723690001,-118.644310422,499,"23679 CALABASAS RD STE 1024, CALABASAS, CA, 91302","Match","Exact","23679 CALABASAS RD, CALABASAS, CA, 91302",241220680,"L"
131000,"23679 CALABASAS ROAD NUM 377","CALABASAS","CA",91302,34.1554723690001,-118.644310422,500,"23679 CALABASAS ROAD NUM 377, CALABASAS, CA, 91302","Match","Exact","23679 CALABASAS RD, CALABASAS, CA, 91302",241220680,"L"
