"ID","Address","City","State","Zip","lat","long","id","input_address","match_indicator","match_type","matched_address","tiger_line_id","tiger_side"
124501,"225 SOUTH MARBLE ST","ROCKMART","GA",30153,33.998772187,-85.049689992,1,"225 SOUTH MARBLE ST, ROCKMART, GA, 30153","Match","Non_Exact","225 N MARBLE ST, ROCKMART, GA, 30153",29618506,"L"
124502,"225 SOUTH MARVIN STREET","MONTICELLO","FL",32344,30.544930998,-83.86266912,2,"225 SOUTH MARVIN STREET, MONTICELLO, FL, 32344","Match","Exact","225 S MARVIN ST, MONTICELLO, FL, 32344",610850049,"L"
124503,"225 SOUTH PLANK ROAD","NEWBURGH","NY",12550,41.5285172260001,-74.072487065,3,"225 SOUTH PLANK ROAD, NEWBURGH, NY, 12550","Match","Exact","225 S PLANK RD, NEWBURGH, NY, 12550",124474472,"L"
124504,"225 SOUTH SIXTH STREET SUITE 3500","MINNEAPOLIS","MN",55402,NA,NA,4,"225 SOUTH SIXTH STREET SUITE 3500, MINNEAPOLIS, MN, 55402","No_Match",NA,NA,NA,NA
124505,"225 SOUTH STEPHANIE STREET - 1922","HENDERSON","NV",89012,36.0193260670001,-115.04734422,5,"225 SOUTH STEPHANIE STREET - 1922, HENDERSON, NV, 89012","Match","Exact","225 S STEPHANIE ST, HENDERSON, NV, 89012",201956142,"L"
124506,"225 SPARKLEBERRY BLVD","QUINCY","FL",32351,30.559414868,-84.532437209,6,"225 SPARKLEBERRY BLVD, QUINCY, FL, 32351","Match","Non_Exact","225 SPARKLEBERRY BLVD S, QUINCY, FL, 32351",600568150,"R"
124507,"225 SPYGLASS ROAD","DOTHAN","AL",36305,31.2195936590001,-85.469380949,7,"225 SPYGLASS ROAD, DOTHAN, AL, 36305","Match","Exact","225 SPYGLASS RD, DOTHAN, AL, 36305",101227593,"L"
124508,"225 ST LOUIS AVE - 35162","FERGUSON","MO",63135,NA,NA,8,"225 ST LOUIS AVE - 35162, FERGUSON, MO, 63135","No_Match",NA,NA,NA,NA
124509,"225 STARTHAVEN WAY","STOCKTON","CA",95210,38.0227457080001,-121.311845365,9,"225 STARTHAVEN WAY, STOCKTON, CA, 95210","Match","Non_Exact","225 STRATHAVEN WAY, STOCKTON, CA, 95210",133845075,"L"
124510,"225 STEWART STREET","OCEANSIDE","CA",92058,33.216034085,-117.386107128,10,"225 STEWART STREET, OCEANSIDE, CA, 92058","Match","Exact","225 STEWART ST, OCEANSIDE, CA, 92058",195756914,"R"
124511,"225 STRATHMORE CIRCLE","KISSIMMEE","FL",34744,28.288207782,-81.324780099,11,"225 STRATHMORE CIRCLE, KISSIMMEE, FL, 34744","Match","Exact","225 STRATHMORE CIR, KISSIMMEE, FL, 34744",638652930,"R"
124512,"225 SUMMIT DRIVE","DENVILLE","NJ",7834,40.9196631500001,-74.45725399,12,"225 SUMMIT DRIVE, DENVILLE, NJ, 7834","Match","Exact","225 SUMMIT DR, DENVILLE, NJ, 07834",635267809,"R"
124513,"225 SUNNYBANK AVE","STRATFORD","CT",6614,41.2152552540001,-73.137704355,13,"225 SUNNYBANK AVE, STRATFORD, CT, 6614","Match","Exact","225 SUNNYBANK AVE, STRATFORD, CT, 06614",3227642,"L"
124514,"225 SW 6TH AVE","SOUTH BAY","FL",33430,NA,NA,14,"225 SW 6TH AVE, SOUTH BAY, FL, 33430","No_Match",NA,NA,NA,NA
124515,"225 SWISS","SAN ANTONIO","TX",78202,NA,NA,15,"225 SWISS, SAN ANTONIO, TX, 78202","No_Match",NA,NA,NA,NA
124516,"225 SYKES LANE","WALLINGFORD","PA",19086,39.900617777,-75.369168657,16,"225 SYKES LANE, WALLINGFORD, PA, 19086","Match","Non_Exact","225 SYKES RD, WALLINGFORD, PA, 19086",134895955,"L"
124517,"225 SYLVESTER ST","CENTER","CO",81125,37.754145452,-106.114938759,17,"225 SYLVESTER ST, CENTER, CO, 81125","Match","Non_Exact","225 SYLVESTER AVE, CENTER, CO, 81125",104387164,"L"
124518,"225 TEXAS AVE","WHITEFISH","MT",59937,48.4179044700001,-114.332930843,18,"225 TEXAS AVE, WHITEFISH, MT, 59937","Match","Exact","225 TEXAS AVE, WHITEFISH, MT, 59937",204127315,"R"
124519,"225 THIRD STREET PO BOX 458","YANCEYVILLE","NE",27379,NA,NA,19,"225 THIRD STREET PO BOX 458, YANCEYVILLE, NE, 27379","No_Match",NA,NA,NA,NA
124520,"225 TIMBERLAKE DR","AZLE","TX",76020,32.870266578,-97.519101381,20,"225 TIMBERLAKE DR, AZLE, TX, 76020","Match","Exact","225 TIMBERLAKE DR, AZLE, TX, 76020",101849972,"R"
124521,"225 TUDOR CIR","BRANDON","MS",39042,32.2991907210001,-89.954636313,21,"225 TUDOR CIR, BRANDON, MS, 39042","Match","Exact","225 TUDOR CIR, BRANDON, MS, 39042",627499571,"L"
124522,"225 VIA PALACIO","ENCINITAS","CA",92024,33.0492879170001,-117.264886837,22,"225 VIA PALACIO, ENCINITAS, CA, 92024","Match","Exact","225 VIA PALACIO, ENCINITAS, CA, 92024",195293516,"R"
124523,"225 VICTORY ROAD","QUINCY","MA",2171,42.295603827,-71.0288271759999,23,"225 VICTORY ROAD, QUINCY, MA, 2171","Match","Exact","225 VICTORY RD, QUINCY, MA, 02171",87308281,"R"
124524,"225 W 12TH ST APT 5B","NEW YORK","NY",10011,40.737622372,-74.001616193,24,"225 W 12TH ST APT 5B, NEW YORK, NY, 10011","Match","Non_Exact","225 W 12TH ST, NEW YORK, NY, 10011",639418489,"R"
124525,"225 W 138TH STREET","NEW YORK","NY",10030,40.817581149,-73.943117588,25,"225 W 138TH STREET, NEW YORK, NY, 10030","Match","Exact","225 W 138TH ST, NEW YORK, NY, 10030",59656150,"R"
124526,"225 W 2ND ST - UNIT 105","FLORENCE","NJ",8518,NA,NA,26,"225 W 2ND ST - UNIT 105, FLORENCE, NJ, 8518","Tie",NA,NA,NA,NA
124527,"225 W 6TH STREET","SAN PEDRO","CA",90731,33.7387336460001,-118.281971932,27,"225 W 6TH STREET, SAN PEDRO, CA, 90731","Match","Exact","225 W 6TH ST, SAN PEDRO, CA, 90731",141690894,"L"
124528,"225 W BAKER DR","EDINBURG","TX",78539,26.2890827000001,-98.166102456,28,"225 W BAKER DR, EDINBURG, TX, 78539","Match","Exact","225 W BAKER DR, EDINBURG, TX, 78539",71496699,"R"
124529,"225 W COLDEN AVE STE 203","LOS ANGELES","CA",90003,NA,NA,29,"225 W COLDEN AVE STE 203, LOS ANGELES, CA, 90003","Tie",NA,NA,NA,NA
124530,"225 W COURT ST","FLINT","MI",48502,43.011552114,-83.689963711,30,"225 W COURT ST, FLINT, MI, 48502","Match","Exact","225 W COURT ST, FLINT, MI, 48502",69568102,"L"
124531,"225 W KEMMERLING STREET","GIBSONBURG","OH",43431,41.3824759180001,-83.321994818,31,"225 W KEMMERLING STREET, GIBSONBURG, OH, 43431","Match","Exact","225 W KEMMERLING ST, GIBSONBURG, OH, 43431",38664340,"L"
124532,"225 W KINGS HIGHWAY","MOUNT EPHRAIM","NJ",8059,39.8809418430001,-75.089669213,32,"225 W KINGS HIGHWAY, MOUNT EPHRAIM, NJ, 8059","Match","Exact","225 W KINGS HWY, MOUNT EPHRAIM, NJ, 08059",134417088,"R"
124533,"225 W OAK ST","FORT COLLINS","CO",80521,40.585598566,-105.080075396,33,"225 W OAK ST, FORT COLLINS, CO, 80521","Match","Exact","225 W OAK ST, FORT COLLINS, CO, 80521",188612979,"L"
124534,"225 W PENNSYLVANIA AVE","SOUTHERN PINES","NC",28387,35.17533295,-79.3933387279999,34,"225 W PENNSYLVANIA AVE, SOUTHERN PINES, NC, 28387","Match","Exact","225 W PENNSYLVANIA AVE, SOUTHERN PINES, NC, 28387",20296266,"R"
124535,"225 W ST JAMES PL","LONGVIEW","WA",98632,NA,NA,35,"225 W ST JAMES PL, LONGVIEW, WA, 98632","Tie",NA,NA,NA,NA
124536,"225 W WALNUT ST","KALAMAZ00","MI",49007,42.2861837390001,-85.5857833219999,36,"225 W WALNUT ST, KALAMAZ00, MI, 49007","Match","Non_Exact","225 W WALNUT ST, KALAMAZOO, MI, 49007",12229014,"L"
124537,"225 W WASHINGTON STREET STE 2600","CHICAGO","IL",60606,41.8832045460001,-87.63428648,37,"225 W WASHINGTON STREET STE 2600, CHICAGO, IL, 60606","Match","Non_Exact","225 W WASHINGTON ST, CHICAGO, IL, 60606",111768720,"L"
124538,"225 W WINTON AVE STE 202D","HAYWARD","CA",94544,37.6615160040001,-122.08814005,38,"225 W WINTON AVE STE 202D, HAYWARD, CA, 94544","Match","Exact","225 WINTON AVE, HAYWARD, CA, 94544",633933530,"R"
124539,"225 WALDEN STREET 4D","CAMBRIDGE","MA",2140,42.3865402170001,-71.129972413,39,"225 WALDEN STREET 4D, CAMBRIDGE, MA, 2140","Match","Exact","225 WALDEN ST, CAMBRIDGE, MA, 02140",86892269,"R"
124540,"225 WALDEN STREET APT 6E","CAMBRIDGE","MA",2140,42.3865402170001,-71.129972413,40,"225 WALDEN STREET APT 6E, CAMBRIDGE, MA, 2140","Match","Exact","225 WALDEN ST, CAMBRIDGE, MA, 02140",86892269,"R"
124541,"225 WALKER LANE","LAWRENCEBURG","KY",40342,38.0521273420001,-84.894452781,41,"225 WALKER LANE, LAWRENCEBURG, KY, 40342","Match","Exact","225 WALKER LN, LAWRENCEBURG, KY, 40342",43458106,"L"
124542,"225 WALNUT STREET","LYNN","MA",1905,NA,NA,42,"225 WALNUT STREET, LYNN, MA, 1905","No_Match",NA,NA,NA,NA
124543,"225 WATER ST STE 1800","JACKSONVILLE","FL",32202,30.3254117280001,-81.661506167,43,"225 WATER ST STE 1800, JACKSONVILLE, FL, 32202","Match","Exact","225 WATER ST, JACKSONVILLE, FL, 32202",83990024,"R"
124544,"225 WATER STREET STE 1800","JACKSONVILLE","FL",32202,30.3254117280001,-81.661506167,44,"225 WATER STREET STE 1800, JACKSONVILLE, FL, 32202","Match","Exact","225 WATER ST, JACKSONVILLE, FL, 32202",83990024,"R"
124545,"225 WEST 12TH STREET APT 4C","NEW YORK","NY",10011,40.737599861,-74.0015587889999,45,"225 WEST 12TH STREET APT 4C, NEW YORK, NY, 10011","Match","Exact","225 W 12TH ST, NEW YORK, NY, 10011",639418489,"R"
124546,"225 WEST 24TH STREET","NEW YORK","NY",10011,40.7453031840001,-73.9964329429999,46,"225 WEST 24TH STREET, NEW YORK, NY, 10011","Match","Exact","225 W 24TH ST, NEW YORK, NY, 10011",650154145,"R"
124547,"225 WEST 34TH STREET SUITE 1607","NEW YORK","NY",10122,40.751093902,-73.9908438269999,47,"225 WEST 34TH STREET SUITE 1607, NEW YORK, NY, 10122","Match","Exact","225 W 34TH ST, NEW YORK, NY, 10122",59658574,"R"
124548,"225 WEST 34TH STREET SUITE 947","NEW YORK","NY",10122,40.751093902,-73.9908438269999,48,"225 WEST 34TH STREET SUITE 947, NEW YORK, NY, 10122","Match","Exact","225 W 34TH ST, NEW YORK, NY, 10122",59658574,"R"
124549,"225 WEST 35TH STREET 16TH FLOOR","NEW YORK","NY",10001,40.7520064890001,-73.9909420819999,49,"225 WEST 35TH STREET 16TH FLOOR, NEW YORK, NY, 10001","Match","Exact","225 W 35TH ST, NEW YORK, NY, 10001",59658582,"R"
124550,"225 WEST 83 ST APT 22C","ny","NY",10024,40.7862588740001,-73.977655559,50,"225 WEST 83 ST APT 22C, ny, NY, 10024","Match","Exact","225 W 83RD ST, NEW YORK, NY, 10024",59656666,"R"
124551,"225 WEST 9TH STREET","ERIE","PA",16501,42.124860389,-80.0876930109999,51,"225 WEST 9TH STREET, ERIE, PA, 16501","Match","Exact","225 W 9TH ST, ERIE, PA, 16501",117494237,"L"
124552,"225 WEST AVE","HILTON","NY",14468,43.2878904660001,-77.802294708,52,"225 WEST AVE, HILTON, NY, 14468","Match","Exact","225 WEST AVE, HILTON, NY, 14468",14568703,"L"
124553,"225 WEST ELNORTE PARK WAY UNIT 237","ESCONDIDO","CA",92026,33.1393049260001,-117.09220898,53,"225 WEST ELNORTE PARK WAY UNIT 237, ESCONDIDO, CA, 92026","Match","Non_Exact","225 W EL NORTE PKWY, ESCONDIDO, CA, 92026",195731100,"R"
124554,"225 WEST HAWTHORNE STREET","ZIONSVILLE","IN",46077,39.9488023430001,-86.262697286,54,"225 WEST HAWTHORNE STREET, ZIONSVILLE, IN, 46077","Match","Exact","225 W HAWTHORNE ST, ZIONSVILLE, IN, 46077",29254835,"R"
124555,"225 WEST HOSPITALITY LANE STE 304","SAN BERNADINO","CA",92408,NA,NA,55,"225 WEST HOSPITALITY LANE STE 304, SAN BERNADINO, CA, 92408","Tie",NA,NA,NA,NA
124556,"225 WEST MAIN STREET","NEW BLOOMFIELD","PA",17068,40.417506588,-77.19304916,56,"225 WEST MAIN STREET, NEW BLOOMFIELD, PA, 17068","Match","Exact","225 W MAIN ST, NEW BLOOMFIELD, PA, 17068",629417862,"R"
124557,"225 WEST MAUMEE","ANGOLA","IN",46703,41.634830665,-85.0007461279999,57,"225 WEST MAUMEE, ANGOLA, IN, 46703","Match","Non_Exact","225 W MAUMEE ST, ANGOLA, IN, 46703",7712381,"L"
124558,"225 WEST TRYON STREET","HILLSBOROUGH","NC",27278,36.0770211280001,-79.1037914569999,58,"225 WEST TRYON STREET, HILLSBOROUGH, NC, 27278","Match","Exact","225 W TRYON ST, HILLSBOROUGH, NC, 27278",72411358,"R"
124559,"225 WEST WINTON AVENUE  210 G","HAYWARD","CA",94544,37.658559311,-122.096051956,59,"225 WEST WINTON AVENUE  210 G, HAYWARD, CA, 94544","Match","Exact","225 W WINTON AVE, HAYWARD, CA, 94544",125020486,"R"
124560,"225 WEST WINTON AVENUE  210 H","HAYWARD","CA",94544,37.658559311,-122.096051956,60,"225 WEST WINTON AVENUE  210 H, HAYWARD, CA, 94544","Match","Exact","225 W WINTON AVE, HAYWARD, CA, 94544",125020486,"R"
124561,"225 WESTGATE DRIVE","SAN FRANCISCO","CA",94127,37.7302487690001,-122.464576234,61,"225 WESTGATE DRIVE, SAN FRANCISCO, CA, 94127","Match","Exact","225 WESTGATE DR, SAN FRANCISCO, CA, 94127",192285366,"L"
124562,"225 WEYMOUTH ROAD","DARBY","PA",19023,39.924162708,-75.2620149799999,62,"225 WEYMOUTH ROAD, DARBY, PA, 19023","Match","Exact","225 WEYMOUTH RD, DARBY, PA, 19023",134886314,"L"
124563,"225 WILLIAMSBURG DRIVE APT 4","THIENSVILLE","WI",53092,43.2342471860001,-87.988044372,63,"225 WILLIAMSBURG DRIVE APT 4, THIENSVILLE, WI, 53092","Match","Exact","225 WILLIAMSBURG DR, THIENSVILLE, WI, 53092",95900799,"L"
124564,"225 WILLIS AVE","BX","NY",10454,40.8090573850001,-73.9229301509999,64,"225 WILLIS AVE, BX, NY, 10454","Match","Non_Exact","225 WILLIS AVE, BRONX, NY, 10454",80300417,"L"
124565,"225 WILLOW ROAD","SULLIGENT","AL",35586,33.8789940250001,-88.112733417,65,"225 WILLOW ROAD, SULLIGENT, AL, 35586","Match","Exact","225 WILLOW RD, SULLIGENT, AL, 35586",158975760,"L"
124566,"225 WINDOVER GROVE DRIVE","MEMPHIS","TN",38111,35.1255248200001,-89.946122835,66,"225 WINDOVER GROVE DRIVE, MEMPHIS, TN, 38111","Match","Exact","225 WINDOVER GROVE DR, MEMPHIS, TN, 38111",607432371,"R"
124567,"225 WINTER STREET","LACONIA","NH",3246,43.529283408,-71.457252312,67,"225 WINTER STREET, LACONIA, NH, 3246","Match","Exact","225 WINTER ST, LACONIA, NH, 03246",145501662,"L"
124568,"225 WOODLAKE ROAD","KOHLER","WI",53044,43.7450890220001,-87.786956972,68,"225 WOODLAKE ROAD, KOHLER, WI, 53044","Match","Exact","225 WOODLAKE RD, KOHLER, WI, 53044",79522383,"L"
124569,"225-11 112TH ROAD","QUEENS VILLAGE","NY",11429,40.704623381,-73.731910969,69,"225-11 112TH ROAD, QUEENS VILLAGE, NY, 11429","Match","Exact","225-11 112TH RD, QUEENS VILLAGE, NY, 11429",59718546,"L"
124570,"2250 2ND STREET","PORT NECHES","TX",77651,29.987296827,-93.974741004,70,"2250 2ND STREET, PORT NECHES, TX, 77651","Match","Exact","2250 2ND ST, PORT NECHES, TX, 77651",73894829,"R"
124571,"2250 7TH STREET","MANDEVILLE","LA",70471,30.3988902620001,-90.088320663,71,"2250 7TH STREET, MANDEVILLE, LA, 70471","Match","Exact","2250 7TH ST, MANDEVILLE, LA, 70471",111308505,"L"
124572,"2250 ADAM CLAYTON POWELL JR BLVD 4D","NEW YORK","NY",10027,40.813643857,-73.944922216,72,"2250 ADAM CLAYTON POWELL JR BLVD 4D, NEW YORK, NY, 10027","Match","Exact","2250 ADAM CLAYTON POWELL JR BLVD, NEW YORK, NY, 10027",652209805,"L"
124573,"2250 ASHLEY OAKS CIRCLE STE 101","WESLEY CHAPEL","FL",33544,28.189150404,-82.361906427,73,"2250 ASHLEY OAKS CIRCLE STE 101, WESLEY CHAPEL, FL, 33544","Match","Exact","2250 ASHLEY OAKS CIR, WESLEY CHAPEL, FL, 33544",641399421,"R"
124574,"2250 BEULAH ROAD","PITTSBURGH","PA",15235,NA,NA,74,"2250 BEULAH ROAD, PITTSBURGH, PA, 15235","No_Match",NA,NA,NA,NA
124575,"2250 BROADWAY","FORT MYERS","FL",33901,26.633255091,-81.868485208,75,"2250 BROADWAY, FORT MYERS, FL, 33901","Match","Exact","2250 BROADWAY, FORT MYERS, FL, 33901",118021512,"R"
124576,"2250 BUSH DR","MCKINNEY","TX",75070,33.169535436,-96.646357483,76,"2250 BUSH DR, MCKINNEY, TX, 75070","Match","Exact","2250 BUSH DR, MCKINNEY, TX, 75070",616491134,"R"
124577,"2250 BUTTERFIELD DR SUITE 220","TROY","MI",48084,42.5591652570001,-83.1758003469999,77,"2250 BUTTERFIELD DR SUITE 220, TROY, MI, 48084","Match","Exact","2250 BUTTERFIELD DR, TROY, MI, 48084",69800648,"R"
124578,"2250 CHAPPARAL DRIVE","PLUM","PA",15239,40.479045501,-79.714448305,78,"2250 CHAPPARAL DRIVE, PLUM, PA, 15239","Match","Exact","2250 CHAPPARAL DR, PLUM, PA, 15239",51676626,"R"
124579,"2250 COMMERCE AVE STE D","CONCORD","CA",94520,37.978319852,-122.045337405,79,"2250 COMMERCE AVE STE D, CONCORD, CA, 94520","Match","Exact","2250 COMMERCE AVE, CONCORD, CA, 94520",638569034,"R"
124580,"2250 D COMMERCE AVE","CONCORD","CA",94520,37.9783369150001,-122.04532804,80,"2250 D COMMERCE AVE, CONCORD, CA, 94520","Match","Exact","2250 COMMERCE AVE, CONCORD, CA, 94520",638569034,"R"
124581,"2250 E DEER VALLEY RD UNIT 68","PHOENIX","AZ",85024,33.687661572,-112.033765316,81,"2250 E DEER VALLEY RD UNIT 68, PHOENIX, AZ, 85024","Match","Non_Exact","2250 E DEER VALLEY RD, PHOENIX, AZ, 85024",128890759,"R"
124582,"2250 E DEER VALLEY ROAD UNIT 92","PHOENIX","AZ",85024,33.687661572,-112.033765316,82,"2250 E DEER VALLEY ROAD UNIT 92, PHOENIX, AZ, 85024","Match","Non_Exact","2250 E DEER VALLEY RD, PHOENIX, AZ, 85024",128890759,"R"
124583,"2250 E DEVON AVE -STE 235","DES PLAINES","IL",60018,41.9956357730001,-87.8678897139999,83,"2250 E DEVON AVE -STE 235, DES PLAINES, IL, 60018","Match","Exact","2250 DEVON AVE, DES PLAINES, IL, 60018",111724341,"R"
124584,"2250 E DEVON AVE SUITE 225","DES PLAINES","IL",60018,41.9956357730001,-87.8678897139999,84,"2250 E DEVON AVE SUITE 225, DES PLAINES, IL, 60018","Match","Exact","2250 DEVON AVE, DES PLAINES, IL, 60018",111724341,"R"
124585,"2250 FIREWHEEL PKWY","GARLAND","TX",75040,NA,NA,85,"2250 FIREWHEEL PKWY, GARLAND, TX, 75040","No_Match",NA,NA,NA,NA
124586,"2250 FLORAL HILL DRIVE","EUGENE","OR",97403,44.034821939,-123.055103829,86,"2250 FLORAL HILL DRIVE, EUGENE, OR, 97403","Match","Exact","2250 FLORAL HILL DR, EUGENE, OR, 97403",178234429,"R"
124587,"2250 FM 664","FERRIS","TX",75125,32.5381935360001,-96.690985656,87,"2250 FM 664, FERRIS, TX, 75125","Match","Exact","2250 FM 664, FERRIS, TX, 75125",103451649,"L"
124588,"2250 FOX DEN LANE","BELLAIRE","MI",49615,44.997562374,-85.1569814329999,88,"2250 FOX DEN LANE, BELLAIRE, MI, 49615","Match","Exact","2250 FOX DEN LN, BELLAIRE, MI, 49615",627078187,"R"
124589,"2250 GENOA BUSINESS PARK DR STE 110","BRIGHTON","MI",48114,42.568881805,-83.805634212,89,"2250 GENOA BUSINESS PARK DR STE 110, BRIGHTON, MI, 48114","Match","Exact","2250 GENOA BUSINESS PARK DR, BRIGHTON, MI, 48114",619586634,"R"
124590,"2250 HAWAII AVE SW","HURON","SD",57350,44.339334261,-98.218806032,90,"2250 HAWAII AVE SW, HURON, SD, 57350","Match","Exact","2250 HAWAII AVE SW, HURON, SD, 57350",635548558,"L"
124591,"2250 HERITAGE DRIVE","LAKELAND","FL",33801,28.017923411,-81.91536679,91,"2250 HERITAGE DRIVE, LAKELAND, FL, 33801","Match","Exact","2250 HERITAGE DR, LAKELAND, FL, 33801",104818583,"R"
124592,"2250 KIGHTON DRIVE","ATLANTA","GA",30349,NA,NA,92,"2250 KIGHTON DRIVE, ATLANTA, GA, 30349","No_Match",NA,NA,NA,NA
124593,"2250 LAKE JACKSONVILLE ROAD","JACKSONVILLE","IL",62650,39.661416333,-90.1767937129999,93,"2250 LAKE JACKSONVILLE ROAD, JACKSONVILLE, IL, 62650","Match","Exact","2250 LAKE JACKSONVILLE RD, JACKSONVILLE, IL, 62650",81442747,"L"
124594,"2250 LAMINGTON ROAD","BEDMINSTER","NJ",7921,40.678004032,-74.65336569,94,"2250 LAMINGTON ROAD, BEDMINSTER, NJ, 7921","Match","Exact","2250 LAMINGTON RD, BEDMINSTER, NJ, 07921",59944014,"R"
124595,"2250 MAIN ST","BATON ROUGE","LA",70802,30.4520990560001,-91.165225565,95,"2250 MAIN ST, BATON ROUGE, LA, 70802","Match","Exact","2250 MAIN ST, BATON ROUGE, LA, 70802",92182544,"R"
124596,"2250 MEADOWBROOK DRIVE","SCHNECKSVILLE","PA",18078,40.702118059,-75.5638656409999,96,"2250 MEADOWBROOK DRIVE, SCHNECKSVILLE, PA, 18078","Match","Non_Exact","2250 MEADOW BROOK DR, SCHNECKSVILLE, PA, 18078",80789029,"R"
124597,"2250 METROPOLITAN ST","SUSHI","IA",51109,42.5170223760001,-96.482409371,97,"2250 METROPOLITAN ST, SUSHI, IA, 51109","Match","Non_Exact","2250 METROPOLITAN ST, SIOUX CITY, IA, 51109",93419617,"R"
124598,"2250 MONROE ST APT 289","SANTA CLARA","CA",95050,37.3622181490001,-121.963667918,98,"2250 MONROE ST APT 289, SANTA CLARA, CA, 95050","Match","Exact","2250 MONROE ST, SANTA CLARA, CA, 95050",122898988,"L"
124599,"2250 N MORK RD","SUTTONS BAY","MI",49682,45.0133402930001,-85.654448021,99,"2250 N MORK RD, SUTTONS BAY, MI, 49682","Match","Exact","2250 N MORK RD, SUTTONS BAY, MI, 49682",648822871,"R"
124600,"2250 N ROCK RD STE 118","WICHITA","KS",67226,NA,NA,100,"2250 N ROCK RD STE 118, WICHITA, KS, 67226","No_Match",NA,NA,NA,NA
124601,"2250 N ROCK ROAD 118 147","WICHITA","KS",67226,NA,NA,101,"2250 N ROCK ROAD 118 147, WICHITA, KS, 67226","No_Match",NA,NA,NA,NA
124602,"2250 N ROCK ROAD SUITE 118-267","WICHITA","KS",67226,NA,NA,102,"2250 N ROCK ROAD SUITE 118-267, WICHITA, KS, 67226","No_Match",NA,NA,NA,NA
124603,"2250 N TRIPHAMMER RD APT K-1F","ITHACA","NY",14850,42.4790330230001,-76.482511355,103,"2250 N TRIPHAMMER RD APT K-1F, ITHACA, NY, 14850","Match","Non_Exact","2250 N TRIPHAMMER RD, ITHACA, NY, 14850",636423335,"L"
124604,"2250 N UNIVERSITY PARKWAY STE 4839","PROVO","UT",84604,40.2609098630001,-111.664661835,104,"2250 N UNIVERSITY PARKWAY STE 4839, PROVO, UT, 84604","Match","Non_Exact","2250 N UNIVERSITY PKWY, PROVO, UT, 84604",614619677,"R"
124605,"2250 NE 163 STREET SUITE 3C","NORTH MIAMI BEACH","FL",33160,NA,NA,105,"2250 NE 163 STREET SUITE 3C, NORTH MIAMI BEACH, FL, 33160","No_Match",NA,NA,NA,NA
124606,"2250 NE 201ST STREET","MIAMI","FL",33180,25.9615674670001,-80.156416603,106,"2250 NE 201ST STREET, MIAMI, FL, 33180","Match","Exact","2250 NE 201ST ST, MIAMI, FL, 33180",116035080,"R"
124607,"2250 NORTH OLD BETHLEHEM PIKE","QUAKERTOWN","PA",18951,NA,NA,107,"2250 NORTH OLD BETHLEHEM PIKE, QUAKERTOWN, PA, 18951","No_Match",NA,NA,NA,NA
124608,"2250 NW 136 AVENUE","PEMBROKE PINES","FL",33028,26.0258298960001,-80.329215265,108,"2250 NW 136 AVENUE, PEMBROKE PINES, FL, 33028","Match","Exact","2250 NW 136TH AVE, PEMBROKE PINES, FL, 33028",114782189,"L"
124609,"2250 NW 136TH AVE","PEMBROKE PINES","FL",33028,26.0258298960001,-80.329215265,109,"2250 NW 136TH AVE, PEMBROKE PINES, FL, 33028","Match","Exact","2250 NW 136TH AVE, PEMBROKE PINES, FL, 33028",114782189,"L"
124610,"2250 NW 51ST STREET","MIAMI","FL",33142,25.821167803,-80.2335766859999,110,"2250 NW 51ST STREET, MIAMI, FL, 33142","Match","Exact","2250 NW 51ST ST, MIAMI, FL, 33142",116002342,"L"
124611,"2250 OAK RD  275","SNELLVILLE","GA",30078,33.8610330710001,-84.0196487439999,111,"2250 OAK RD  275, SNELLVILLE, GA, 30078","Match","Exact","2250 OAK RD, SNELLVILLE, GA, 30078",88890048,"L"
124612,"2250 OAK RD BOX 431","SNELLVILLE","GA",30078,33.8610330710001,-84.0196487439999,112,"2250 OAK RD BOX 431, SNELLVILLE, GA, 30078","Match","Exact","2250 OAK RD, SNELLVILLE, GA, 30078",88890048,"L"
124613,"2250 OAK RD UNIT 1755","SNELLVILLE","GA",30078,33.8610330710001,-84.0196487439999,113,"2250 OAK RD UNIT 1755, SNELLVILLE, GA, 30078","Match","Exact","2250 OAK RD, SNELLVILLE, GA, 30078",88890048,"L"
124614,"2250 OAK ROAD SUITE 815","LAWRENCEVILLE","GA",30043,NA,NA,114,"2250 OAK ROAD SUITE 815, LAWRENCEVILLE, GA, 30043","No_Match",NA,NA,NA,NA
124615,"2250 OAK ROAD UNIT 662","SNELLVILLE","GA",30078,33.8610330710001,-84.0196487439999,115,"2250 OAK ROAD UNIT 662, SNELLVILLE, GA, 30078","Match","Exact","2250 OAK RD, SNELLVILLE, GA, 30078",88890048,"L"
124616,"2250 OAK ROAD","SNELLVILLE","GA",30078,33.8610330710001,-84.0196487439999,116,"2250 OAK ROAD, SNELLVILLE, GA, 30078","Match","Exact","2250 OAK RD, SNELLVILLE, GA, 30078",88890048,"L"
124617,"2250 OAK STREET","WYANDOTTE","MI",48192,42.203743665,-83.1782987999999,117,"2250 OAK STREET, WYANDOTTE, MI, 48192","Match","Exact","2250 OAK ST, WYANDOTTE, MI, 48192",95451968,"R"
124618,"2250 PALM BEACH LAKES BLVD STE 102","WEST PALM BEACH","FL",33409,26.7102631590001,-80.09727649,118,"2250 PALM BEACH LAKES BLVD STE 102, WEST PALM BEACH, FL, 33409","Match","Exact","2250 PALM BEACH LAKES BLVD, WEST PALM BEACH, FL, 33409",115354888,"L"
124619,"2250 PANAMA AVE","CLEWISTON","FL",33440,26.707475158,-81.2397508889999,119,"2250 PANAMA AVE, CLEWISTON, FL, 33440","Match","Exact","2250 PANAMA AVE, CLEWISTON, FL, 33440",638956279,"R"
124620,"2250 PAR LANE SUITE 501","WILLOUGHBY HILLS","OH",44094,NA,NA,120,"2250 PAR LANE SUITE 501, WILLOUGHBY HILLS, OH, 44094","No_Match",NA,NA,NA,NA
124621,"2250 PERRYSBURG HOLLAND RD APT D3","MAUMEE","OH",43537,41.59991419,-83.690701041,121,"2250 PERRYSBURG HOLLAND RD APT D3, MAUMEE, OH, 43537","Match","Exact","2250 PERRYSBURG HOLLAND RD, MAUMEE, OH, 43537",636549696,"R"
124622,"2250 REGIS COURT","CINCINNATI","OH",45244,39.0956222400001,-84.342066578,122,"2250 REGIS COURT, CINCINNATI, OH, 45244","Match","Exact","2250 REGIS CT, CINCINNATI, OH, 45244",103958119,"L"
124623,"2250 RUDDY DUCK PLACE","BRYANS ROAD","MD",20616,38.649211908,-77.101144389,123,"2250 RUDDY DUCK PLACE, BRYANS ROAD, MD, 20616","Match","Exact","2250 RUDDY DUCK PL, BRYANS ROAD, MD, 20616",25391733,"R"
124624,"2250 SKYLINE DRIVE","REDDING","CA",96001,40.57432608,-122.399371343,124,"2250 SKYLINE DRIVE, REDDING, CA, 96001","Match","Exact","2250 SKYLINE DR, REDDING, CA, 96001",126656851,"R"
124625,"2250 SOUTH COLLEGE AVENUE","TEMPE","AZ",85282,33.404638371,-111.934897989,125,"2250 SOUTH COLLEGE AVENUE, TEMPE, AZ, 85282","Match","Exact","2250 S COLLEGE AVE, TEMPE, AZ, 85282",128227508,"R"
124626,"2250 SOUTH FM 51 SUITE 800","DECATUR","TX",76234,33.2143012830001,-97.5979433479999,126,"2250 SOUTH FM 51 SUITE 800, DECATUR, TX, 76234","Match","Exact","2250 S FM 51, DECATUR, TX, 76234",630204858,"L"
124627,"2250 SW 3RD AVE STE 150","MIAMI","FL",33129,25.7574503330001,-80.2052198549999,127,"2250 SW 3RD AVE STE 150, MIAMI, FL, 33129","Match","Non_Exact","2250 SW 3RD AVE, MIAMI, FL, 33129",116017217,"R"
124628,"2250 SW 3RD AVE","MIAMI","FL",33129,25.7574503330001,-80.2052198549999,128,"2250 SW 3RD AVE, MIAMI, FL, 33129","Match","Non_Exact","2250 SW 3RD AVE, MIAMI, FL, 33129",116017217,"R"
124629,"2250 SW ANCASTER ROAD","TOPEKA","KS",66614,39.024854524,-95.790795353,129,"2250 SW ANCASTER ROAD, TOPEKA, KS, 66614","Match","Exact","2250 SW ANCASTER RD, TOPEKA, KS, 66614",17908994,"R"
124630,"2250 W 24TH ST","CHICAGO","IL",60608,41.848455109,-87.6823512,130,"2250 W 24TH ST, CHICAGO, IL, 60608","Match","Non_Exact","2250 W 24TH ST, CHICAGO, IL, 60608",111802308,"R"
124631,"22500 EAGLE DR","NEW CANEY","TX",77357,30.133816202,-95.2195692339999,131,"22500 EAGLE DR, NEW CANEY, TX, 77357","Match","Exact","22500 EAGLE DR, NEW CANEY, TX, 77357",648969644,"R"
124632,"22500 ORCHARD LAKE ROAD SUITE A","FARMINGTON","MI",48336,42.4567517730001,-83.3562241669999,132,"22500 ORCHARD LAKE ROAD SUITE A, FARMINGTON, MI, 48336","Match","Exact","22500 ORCHARD LAKE RD, FARMINGTON, MI, 48336",69725605,"R"
124633,"22500 SE  248TH ST","MAPLE VALLEY","WA",98038,47.3796144930001,-122.047682995,133,"22500 SE  248TH ST, MAPLE VALLEY, WA, 98038","Match","Exact","22500 SE 248TH ST, MAPLE VALLEY, WA, 98038",186640727,"L"
124634,"22500 US HIGHWAY 20","SOUTH BEND","IN",46628,NA,NA,134,"22500 US HIGHWAY 20, SOUTH BEND, IN, 46628","No_Match",NA,NA,NA,NA
124635,"22501 COUNTRY ROAD 190","PERRY","OK",73077,36.2821652590001,-97.139268793,135,"22501 COUNTRY ROAD 190, PERRY, OK, 73077","Match","Non_Exact","22501 CO RD 190, PERRY, OK, 73077",155000284,"L"
124636,"22501 SERVANTS LOOP","SPICEWOOD","TX",78669,NA,NA,136,"22501 SERVANTS LOOP, SPICEWOOD, TX, 78669","No_Match",NA,NA,NA,NA
124637,"22503 GRAND RIVER","DETROIT","MI",48219,42.4191150980001,-83.264198725,137,"22503 GRAND RIVER, DETROIT, MI, 48219","Match","Non_Exact","22503 GRAND RIVER AVE, DETROIT, MI, 48219",640625090,"L"
124638,"22503 KATY FREEWAY SUITE 1120","KATY","TX",77450,29.7849592900001,-95.764086184,138,"22503 KATY FREEWAY SUITE 1120, KATY, TX, 77450","Match","Exact","22503 KATY FWY, KATY, TX, 77450",649874171,"R"
124639,"22505 26 MILE ROAD","RAY","MI",48096,42.717488874,-82.888634585,139,"22505 26 MILE ROAD, RAY, MI, 48096","Match","Exact","22505 26 MILE RD, RAY, MI, 48096",642576438,"L"
124640,"22505 GATEWAY CENTER DRIVE - 1815","CLARKSBURG","MD",20871,NA,NA,140,"22505 GATEWAY CENTER DRIVE - 1815, CLARKSBURG, MD, 20871","No_Match",NA,NA,NA,NA
124641,"22506 92ND AVE W","EDMONDS","WA",98020,47.794849207,-122.356169774,141,"22506 92ND AVE W, EDMONDS, WA, 98020","Match","Exact","22506 92ND AVE W, EDMONDS, WA, 98020",187755012,"R"
124642,"22507 180 TH AVE NW","VIKING","MN",56760,48.2046656840001,-96.434169409,142,"22507 180 TH AVE NW, VIKING, MN, 56760","Match","Non_Exact","22507 180TH AVE NW, VIKING, MN, 56760",171354967,"L"
124643,"22509 445TH AVENUE","RAMONA","SD",57054,44.12200756,-97.3100787339999,143,"22509 445TH AVENUE, RAMONA, SD, 57054","Match","Exact","22509 445TH AVE, RAMONA, SD, 57054",203672220,"L"
124644,"22509 KENT AVE","TORRANCE","CA",90505,33.8239957710001,-118.356435867,144,"22509 KENT AVE, TORRANCE, CA, 90505","Match","Exact","22509 KENT AVE, TORRANCE, CA, 90505",142756382,"R"
124645,"2251 BOWMONT DR","BEVERLY HILLS","CA",90210,34.112000263,-118.398732892,145,"2251 BOWMONT DR, BEVERLY HILLS, CA, 90210","Match","Exact","2251 BOWMONT DR, BEVERLY HILLS, CA, 90210",141821720,"L"
124646,"2251 E 21 ST STREET","WICHITA","KS",67214,37.7227033200001,-97.3094749319999,146,"2251 E 21 ST STREET, WICHITA, KS, 67214","Match","Non_Exact","2251 E 21ST ST N, WICHITA, KS, 67214",115636220,"R"
124647,"2251 E MOWRY DRIVE","HOMESTEAD","FL",33033,NA,NA,147,"2251 E MOWRY DRIVE, HOMESTEAD, FL, 33033","No_Match",NA,NA,NA,NA
124648,"2251 E PARKSIDE DR","BOISE","ID",83712,43.6100638630001,-116.163614031,148,"2251 E PARKSIDE DR, BOISE, ID, 83712","Match","Exact","2251 E PARKSIDE DR, BOISE, ID, 83712",117898381,"R"
124649,"2251 E SKELLY DR STE 104","TULSA","OK",74105,36.090967639,-95.960215399,149,"2251 E SKELLY DR STE 104, TULSA, OK, 74105","Match","Non_Exact","2251 E SKELLY DR, TULSA, OK, 74105",166510943,"L"
124650,"2251 ERIE ST","SAN DIEGO","CA",92110,32.785004739,-117.203094025,150,"2251 ERIE ST, SAN DIEGO, CA, 92110","Match","Exact","2251 ERIE ST, SAN DIEGO, CA, 92110",195304188,"R"
124651,"2251 FLORIN RD - SUITE 147","SACRAMENTO","CA",95822,38.4957478170001,-121.487330323,151,"2251 FLORIN RD - SUITE 147, SACRAMENTO, CA, 95822","Match","Exact","2251 FLORIN RD, SACRAMENTO, CA, 95822",133350687,"L"
124652,"2251 FLORIN ROAD STE 128","SACRAMENTO","CA",95822,38.4957478170001,-121.487330323,152,"2251 FLORIN ROAD STE 128, SACRAMENTO, CA, 95822","Match","Exact","2251 FLORIN RD, SACRAMENTO, CA, 95822",133350687,"L"
124653,"2251 FLORIN ROAD STE 135","SACRAMENTO","CA",95822,38.4957478170001,-121.487330323,153,"2251 FLORIN ROAD STE 135, SACRAMENTO, CA, 95822","Match","Exact","2251 FLORIN RD, SACRAMENTO, CA, 95822",133350687,"L"
124654,"2251 FLORIN ROAD STE 205","SACRAMENTO","CA",95822,38.4957478170001,-121.487330323,154,"2251 FLORIN ROAD STE 205, SACRAMENTO, CA, 95822","Match","Exact","2251 FLORIN RD, SACRAMENTO, CA, 95822",133350687,"L"
124655,"2251 FLORIN ROAD SUITE 113","SACRAMENTO","CA",95822,38.4957478170001,-121.487330323,155,"2251 FLORIN ROAD SUITE 113, SACRAMENTO, CA, 95822","Match","Exact","2251 FLORIN RD, SACRAMENTO, CA, 95822",133350687,"L"
124656,"2251 FLORIN ROAD SUITE 129","SACRAMENTO","CA",95822,38.4957478170001,-121.487330323,156,"2251 FLORIN ROAD SUITE 129, SACRAMENTO, CA, 95822","Match","Exact","2251 FLORIN RD, SACRAMENTO, CA, 95822",133350687,"L"
124657,"2251 FLORIN ROAD SUITE 135","SACRAMENTO","CA",95822,38.4957478170001,-121.487330323,157,"2251 FLORIN ROAD SUITE 135, SACRAMENTO, CA, 95822","Match","Exact","2251 FLORIN RD, SACRAMENTO, CA, 95822",133350687,"L"
124658,"2251 FLORIN ROAD SUITE 35","SACRAMENTO","CA",95822,38.4957478170001,-121.487330323,158,"2251 FLORIN ROAD SUITE 35, SACRAMENTO, CA, 95822","Match","Exact","2251 FLORIN RD, SACRAMENTO, CA, 95822",133350687,"L"
124659,"2251 FLORIN ROAD SUITE114","SACRAMENTO","CA",95822,38.4957478170001,-121.487330323,159,"2251 FLORIN ROAD SUITE114, SACRAMENTO, CA, 95822","Match","Exact","2251 FLORIN RD, SACRAMENTO, CA, 95822",133350687,"L"
124660,"2251 FLORIN ROAD UNIT 131","SACRAMENTO","CA",95822,38.4957478170001,-121.487330323,160,"2251 FLORIN ROAD UNIT 131, SACRAMENTO, CA, 95822","Match","Exact","2251 FLORIN RD, SACRAMENTO, CA, 95822",133350687,"L"
124661,"2251 GASOLINE ALLEY PL","ARROYO GRANDE","CA",93420,35.042333872,-120.577966495,161,"2251 GASOLINE ALLEY PL, ARROYO GRANDE, CA, 93420","Match","Exact","2251 GASOLINE ALLEY PL, ARROYO GRANDE, CA, 93420",109784091,"L"
124662,"2251 GRAND AVE","FORT MYERS","FL",33901,26.635535329,-81.870535207,162,"2251 GRAND AVE, FORT MYERS, FL, 33901","Match","Exact","2251 GRAND AVE, FORT MYERS, FL, 33901",118020312,"L"
124663,"2251 HIGH ST","PALO ALTO","CA",94301,37.430252169,-122.141446567,163,"2251 HIGH ST, PALO ALTO, CA, 94301","Match","Exact","2251 HIGH ST, PALO ALTO, CA, 94301",122950972,"L"
124664,"2251 IBIS ISLE ROAD","PALM BEACH","FL",33480,26.6405177670001,-80.041661599,164,"2251 IBIS ISLE ROAD, PALM BEACH, FL, 33480","Match","Exact","2251 IBIS ISLE RD, PALM BEACH, FL, 33480",115281664,"L"
124665,"2251 KNAPP STREET  APT2K","BROOKLYN","NY",11229,40.598248348,-73.933682382,165,"2251 KNAPP STREET  APT2K, BROOKLYN, NY, 11229","Match","Exact","2251 KNAPP ST, BROOKLYN, NY, 11229",59092058,"L"
124666,"2251 N RAMPART BLVD 415","LAS VEGAS","NV",89128,36.2011214830001,-115.281104848,166,"2251 N RAMPART BLVD 415, LAS VEGAS, NV, 89128","Match","Non_Exact","2251 N RAMPART BLVD, LAS VEGAS, NV, 89128",653226944,"R"
124667,"2251 N RAMPART BLVD PMB 2518","LAS VEGAS","NV",89128,36.2011214830001,-115.281104848,167,"2251 N RAMPART BLVD PMB 2518, LAS VEGAS, NV, 89128","Match","Non_Exact","2251 N RAMPART BLVD, LAS VEGAS, NV, 89128",653226944,"R"
124668,"2251 N RAMPART BLVD UNIT 196","LAS VEGAS","NV",89128,36.2011214830001,-115.281104848,168,"2251 N RAMPART BLVD UNIT 196, LAS VEGAS, NV, 89128","Match","Non_Exact","2251 N RAMPART BLVD, LAS VEGAS, NV, 89128",653226944,"R"
124669,"2251 NORDIC CT NW","ROCHESTER","MN",55901,44.0472082700001,-92.4657463519999,169,"2251 NORDIC CT NW, ROCHESTER, MN, 55901","Match","Exact","2251 NORDIC CT NW, ROCHESTER, MN, 55901",30551088,"R"
124670,"2251 RUFF ACRES DRIVE","HERMANN","MO",65041,38.566867345,-91.507628746,170,"2251 RUFF ACRES DRIVE, HERMANN, MO, 65041","Match","Exact","2251 RUFF ACRES DR, HERMANN, MO, 65041",45259438,"R"
124671,"2251 S MICHIGAN SUITE 205H","CHICAGO","IL",60616,NA,NA,171,"2251 S MICHIGAN SUITE 205H, CHICAGO, IL, 60616","No_Match",NA,NA,NA,NA
124672,"2251 S MUDDY CREEK NORTH RD","OAK HARBOR","OH",43449,41.4828113080001,-83.0871813809999,172,"2251 S MUDDY CREEK NORTH RD, OAK HARBOR, OH, 43449","Match","Exact","2251 S MUDDY CREEK NORTH RD, OAK HARBOR, OH, 43449",44060358,"R"
124673,"2251 S PARKER RD","DENVER","CO",80231,39.675695365,-104.872036797,173,"2251 S PARKER RD, DENVER, CO, 80231","Match","Exact","2251 S PARKER RD, DENVER, CO, 80231",177344227,"R"
124674,"2251 SALT SPRINGS PLACE","AUSTELL","GA",30168,33.8104647870001,-84.6212951219999,174,"2251 SALT SPRINGS PLACE, AUSTELL, GA, 30168","Match","Exact","2251 SALT SPRINGS PL, AUSTELL, GA, 30168",17250001,"L"
124675,"2251 SAN DIEGO AVE STE A218","SAN DIEGO","CA",92110,NA,NA,175,"2251 SAN DIEGO AVE STE A218, SAN DIEGO, CA, 92110","No_Match",NA,NA,NA,NA
124676,"2251 SEDGWICK AVE","BRONX","NY",10468,40.8610010420001,-73.910378981,176,"2251 SEDGWICK AVE, BRONX, NY, 10468","Match","Exact","2251 SEDGWICK AVE, BRONX, NY, 10468",642559281,"L"
124677,"2251 SHADY OAKS CT NE","CEDAR RAPIDS","IA",52402,42.0172618020001,-91.6748149319999,177,"2251 SHADY OAKS CT NE, CEDAR RAPIDS, IA, 52402","Match","Exact","2251 SHADY OAKS CT NE, CEDAR RAPIDS, IA, 52402",17019705,"R"
124678,"2251 SW JEFFERSON","CORVALLIS","OR",97331,NA,NA,178,"2251 SW JEFFERSON, CORVALLIS, OR, 97331","No_Match",NA,NA,NA,NA
124679,"2251 TOUGH GIRL RD","PAHRUMP","NV",89060,36.2515802730001,-116.054716058,179,"2251 TOUGH GIRL RD, PAHRUMP, NV, 89060","Match","Exact","2251 TOUGH GIRL RD, PAHRUMP, NV, 89060",140721857,"L"
124680,"2251 VERNA DRIVE","DECATUR","GA",30034,33.7012413590001,-84.297564327,180,"2251 VERNA DRIVE, DECATUR, GA, 30034","Match","Exact","2251 VERNA DR, DECATUR, GA, 30034",23368684,"R"
124681,"2251 W MORRIS AVE","FRESNO","CA",93711,36.8216595710001,-119.831979605,181,"2251 W MORRIS AVE, FRESNO, CA, 93711","Match","Exact","2251 W MORRIS AVE, FRESNO, CA, 93711",197567282,"L"
124682,"2251 WEST END COURT","LEHIGH ACRES","FL",33973,26.602322675,-81.7351727339999,182,"2251 WEST END COURT, LEHIGH ACRES, FL, 33973","Match","Exact","2251 W END CT, LEHIGH ACRES, FL, 33973",118070051,"L"
124683,"2251 WILLOW LAKES EAST BLVD","GREENWOOD","IN",46143,39.5818907400001,-86.1689713599999,183,"2251 WILLOW LAKES EAST BLVD, GREENWOOD, IN, 46143","Match","Exact","2251 WILLOW LAKES EAST BLVD, GREENWOOD, IN, 46143",114654964,"L"
124684,"2251 WOODCREEK OAKS BOULEVARD","ROSEVILLE","CA",95747,38.7612918300001,-121.332082184,184,"2251 WOODCREEK OAKS BOULEVARD, ROSEVILLE, CA, 95747","Match","Exact","2251 WOODCREEK OAKS BLVD, ROSEVILLE, CA, 95747",106799499,"R"
124685,"22511 GALICIA DRIVE","SUN CITY WEST","AZ",85375,33.688754438,-112.337019929,185,"22511 GALICIA DRIVE, SUN CITY WEST, AZ, 85375","Match","Non_Exact","22511 N GALICIA DR, SUN CITY WEST, AZ, 85375",243967448,"R"
124686,"22511 N GALICIA DR","SUN CITY WEST","AZ",85375,33.688755992,-112.337019565,186,"22511 N GALICIA DR, SUN CITY WEST, AZ, 85375","Match","Exact","22511 N GALICIA DR, SUN CITY WEST, AZ, 85375",243967448,"R"
124687,"22511 SW 66TH AVE APT 208","BOCA RATON","FL",33428,26.341752828,-80.199903585,187,"22511 SW 66TH AVE APT 208, BOCA RATON, FL, 33428","Match","Non_Exact","22511 SW 66TH AVE, BOCA RATON, FL, 33428",611449744,"L"
124688,"22512 CANTERBURY","WOODHAVEN","MI",48183,42.1415265380001,-83.2534933429999,188,"22512 CANTERBURY, WOODHAVEN, MI, 48183","Match","Non_Exact","22512 CANTERBURY ST, WOODHAVEN, MI, 48183",95455630,"R"
124689,"22516 NEW YORK AVENUE","PORT CHARLOTTE","FL",33952,26.986898426,-82.0748094579999,189,"22516 NEW YORK AVENUE, PORT CHARLOTTE, FL, 33952","Match","Exact","22516 NEW YORK AVE, PORT CHARLOTTE, FL, 33952",4304952,"R"
124690,"22517 7TH AVE S","DES MOINES","WA",98198,47.3996992410001,-122.32583507,190,"22517 7TH AVE S, DES MOINES, WA, 98198","Match","Exact","22517 7TH AVE S, DES MOINES, WA, 98198",186628386,"R"
124691,"22517 NE 14TH DR","SAMMAMISH","WA",98074,47.6216145920001,-122.039301986,191,"22517 NE 14TH DR, SAMMAMISH, WA, 98074","Match","Exact","22517 NE 14TH DR, SAMMAMISH, WA, 98074",186617654,"L"
124692,"22518 BARD AVE","FAIRVIEW PARK","OH",44126,41.4287951970001,-81.869828043,192,"22518 BARD AVE, FAIRVIEW PARK, OH, 44126","Match","Exact","22518 BARD AVE, FAIRVIEW PARK, OH, 44126",61152781,"R"
124693,"22519 ALCALDE RD","COUPERTINO","CA",95014,37.315828143,-122.068985614,193,"22519 ALCALDE RD, COUPERTINO, CA, 95014","Match","Non_Exact","22519 ALCALDE RD, CUPERTINO, CA, 95014",123005280,"R"
124694,"2252 260TH ST","ST CROIX FALLS","WI",54024,45.53553033,-92.692651247,194,"2252 260TH ST, ST CROIX FALLS, WI, 54024","Match","Exact","2252 260TH ST, SAINT CROIX FALLS, WI, 54024",110871882,"R"
124695,"2252 ANDALUSIAN DRIVE","HOPE MILLS","NC",28348,34.9688451260001,-78.998287021,195,"2252 ANDALUSIAN DRIVE, HOPE MILLS, NC, 28348","Match","Exact","2252 ANDALUSIAN DR, HOPE MILLS, NC, 28348",651441698,"R"
124696,"2252 CHATEAU DRIVE","LAWRENCEVILLE","GA",30043,34.0293136380001,-83.937422482,196,"2252 CHATEAU DRIVE, LAWRENCEVILLE, GA, 30043","Match","Exact","2252 CHATEAU DR, LAWRENCEVILLE, GA, 30043",88941580,"R"
124697,"2252 GOLDEN AVE","LONG BEACH","CA",90806,33.798080127,-118.202389576,197,"2252 GOLDEN AVE, LONG BEACH, CA, 90806","Match","Non_Exact","2252 N GOLDEN AVE, LONG BEACH, CA, 90806",141685856,"R"
124698,"2252 JULIAN AVE","SAN DIEGO","CA",92113,32.6990447740001,-117.136850975,198,"2252 JULIAN AVE, SAN DIEGO, CA, 92113","Match","Exact","2252 JULIAN AVE, SAN DIEGO, CA, 92113",195348027,"L"
124699,"2252 MAIN ST","GLASTONBURY","CT",6033,41.710675209,-72.6081541199999,199,"2252 MAIN ST, GLASTONBURY, CT, 6033","Match","Exact","2252 MAIN ST, GLASTONBURY, CT, 06033",3496604,"R"
124700,"2252 N NOTTINGHAM STREET","ARLINGTON","VA",22205,38.892174461,-77.145398286,200,"2252 N NOTTINGHAM STREET, ARLINGTON, VA, 22205","Match","Exact","2252 N NOTTINGHAM ST, ARLINGTON, VA, 22205",76466826,"L"
124701,"2252 NEW ORLEANS ST","NEW ORLEANS","LA",70119,29.9797388160001,-90.0659670329999,201,"2252 NEW ORLEANS ST, NEW ORLEANS, LA, 70119","Match","Exact","2252 NEW ORLEANS ST, NEW ORLEANS, LA, 70119",191709292,"L"
124702,"2252 RALPH AVENUE APT 2","BROOKLYN","NY",11234,40.6229427160001,-73.917630142,202,"2252 RALPH AVENUE APT 2, BROOKLYN, NY, 11234","Match","Exact","2252 RALPH AVE, BROOKLYN, NY, 11234",59092575,"R"
124703,"2252 S OLD DITCH ROAD","WARSAW","IN",46580,41.20199755,-85.830362861,203,"2252 S OLD DITCH ROAD, WARSAW, IN, 46580","Match","Exact","2252 S OLD DITCH RD, WARSAW, IN, 46580",7920943,"R"
124704,"2252 TIERRA DE PAZ","EL PASO","TX",79938,31.777181424,-106.256543603,204,"2252 TIERRA DE PAZ, EL PASO, TX, 79938","Match","Non_Exact","2252 TIERRA DE PAZ WAY, EL PASO, TX, 79938",189398487,"R"
124705,"22520 CAPTITAL AVE NE","BATTLE CREEK","MI",49017,NA,NA,205,"22520 CAPTITAL AVE NE, BATTLE CREEK, MI, 49017","No_Match",NA,NA,NA,NA
124706,"22520 DARDENNE ST","CALABASAS","CA",91302,34.138576841,-118.617741228,206,"22520 DARDENNE ST, CALABASAS, CA, 91302","Match","Exact","22520 DARDENNE ST, CALABASAS, CA, 91302",142710078,"R"
124707,"22520 SW 113TH COURT","MIAMI","FL",33170,25.5579160410001,-80.374580522,207,"22520 SW 113TH COURT, MIAMI, FL, 33170","Match","Exact","22520 SW 113TH CT, MIAMI, FL, 33170",115994980,"R"
124708,"22521 HWY 365 N","NORTH LITTLE ROCK","AR",72113,NA,NA,208,"22521 HWY 365 N, NORTH LITTLE ROCK, AR, 72113","No_Match",NA,NA,NA,NA
124709,"22522 BIRDS EYE DR","DIAMOND BAR","CA",91765,33.999159132,-117.823481072,209,"22522 BIRDS EYE DR, DIAMOND BAR, CA, 91765","Match","Exact","22522 BIRDS EYE DR, DIAMOND BAR, CA, 91765",142791798,"L"
124710,"22523 CONRAIL RD","SEAFORD","DE",19973,38.6695640890001,-75.6213068449999,210,"22523 CONRAIL RD, SEAFORD, DE, 19973","Match","Exact","22523 CONRAIL RD, SEAFORD, DE, 19973",639036642,"R"
124711,"22526 FORBES FIELD TRAIL","SPRING","TX",77389,30.090552399,-95.4832589329999,211,"22526 FORBES FIELD TRAIL, SPRING, TX, 77389","Match","Exact","22526 FORBES FIELD TRL, SPRING, TX, 77389",641893728,"R"
124712,"22526 GROUPER COURT","BOCA RATON","FL",33428,26.3414930010001,-80.2396479349999,212,"22526 GROUPER COURT, BOCA RATON, FL, 33428","Match","Exact","22526 GROUPER CT, BOCA RATON, FL, 33428",115316356,"L"
124713,"22527 ADOBE RD","COTTONWOOD","CA",96022,40.3938920150001,-122.215997965,213,"22527 ADOBE RD, COTTONWOOD, CA, 96022","Match","Exact","22527 ADOBE RD, COTTONWOOD, CA, 96022",126677136,"L"
124714,"22528 W PIMA STREET","BUCKEYE","AZ",85326,33.433569676,-112.535609251,214,"22528 W PIMA STREET, BUCKEYE, AZ, 85326","Match","Exact","22528 W PIMA ST, BUCKEYE, AZ, 85326",243950303,"L"
124715,"2253 3RD AVE  APT 1109","NEW YORK","NY",10035,40.8020833910001,-73.936992366,215,"2253 3RD AVE  APT 1109, NEW YORK, NY, 10035","Match","Exact","2253 3RD AVE, NEW YORK, NY, 10035",59658108,"R"
124716,"2253 BRIMSTONE PLACE","HANOVER","MD",21076,39.1475577510001,-76.74465184,216,"2253 BRIMSTONE PLACE, HANOVER, MD, 21076","Match","Exact","2253 BRIMSTONE PL, HANOVER, MD, 21076",635789311,"R"
124717,"2253 BUCKLER RD","EAST JORDAN","MI",49727,45.0685908880001,-85.1820544239999,217,"2253 BUCKLER RD, EAST JORDAN, MI, 49727","Match","Exact","2253 BUCKLER RD, EAST JORDAN, MI, 49727",145810006,"R"
124718,"2253 CORONADO AVENUE","Youngstown","OH",44504,41.1298510660001,-80.6543812039999,218,"2253 CORONADO AVENUE, Youngstown, OH, 44504","Match","Exact","2253 CORONADO AVE, YOUNGSTOWN, OH, 44504",64593936,"R"
124719,"2253 LOST TREE WAY","BLOOMFIELD HILLS","MI",48304,42.6081659870001,-83.2255948229999,219,"2253 LOST TREE WAY, BLOOMFIELD HILLS, MI, 48304","Match","Exact","2253 LOST TREE WAY, BLOOMFIELD HILLS, MI, 48304",69772375,"L"
124720,"2253 MAIN STREET ROAD","MARSHALLTOWN","IA",50158,42.0488729840001,-92.9897831219999,220,"2253 MAIN STREET ROAD, MARSHALLTOWN, IA, 50158","Match","Exact","2253 MAIN STREET RD, MARSHALLTOWN, IA, 50158",90922140,"R"
124721,"2253 MEADOW GLADE LN","MEMPHIS","TN",38134,NA,NA,221,"2253 MEADOW GLADE LN, MEMPHIS, TN, 38134","No_Match",NA,NA,NA,NA
124722,"2253 MEMORIAL FOREST RD","RHINELANDER","WI",54501,45.5774668940001,-89.594594408,222,"2253 MEMORIAL FOREST RD, RHINELANDER, WI, 54501","Match","Exact","2253 MEMORIAL FOREST RD, RHINELANDER, WI, 54501",196602274,"L"
124723,"2253 MILLDALE ROAD","FRONT ROYAL","VA",22630,39.0008980590001,-78.099280377,223,"2253 MILLDALE ROAD, FRONT ROYAL, VA, 22630","Match","Exact","2253 MILLDALE RD, FRONT ROYAL, VA, 22630",159089791,"L"
124724,"2253 N 16TH AVE","PHOENIX","AZ",85007,33.472431392,-112.093759662,224,"2253 N 16TH AVE, PHOENIX, AZ, 85007","Match","Exact","2253 N 16TH AVE, PHOENIX, AZ, 85007",128211074,"R"
124725,"2253 N DOWNING ST","DENVER","CO",80205,39.7503567730001,-104.973362157,225,"2253 N DOWNING ST, DENVER, CO, 80205","Match","Exact","2253 DOWNING ST, DENVER, CO, 80205",639309028,"L"
124726,"2253 NORTH VILLAGE DRIVE","BONHAM","TX",75418,33.6006414130001,-96.186958523,226,"2253 NORTH VILLAGE DRIVE, BONHAM, TX, 75418","Match","Exact","2253 N VILLAGE DR, BONHAM, TX, 75418",627181803,"R"
124727,"2253 PARKER DRIVE","WAYLAND","MI",49348,42.6201710490001,-85.5275498839999,227,"2253 PARKER DRIVE, WAYLAND, MI, 49348","Match","Exact","2253 PARKER DR, WAYLAND, MI, 49348",647574807,"R"
124728,"2253 RAVENNA COURT","WALDORF","MD",20603,38.6371902770001,-76.995701337,228,"2253 RAVENNA COURT, WALDORF, MD, 20603","Match","Exact","2253 RAVENNA CT, WALDORF, MD, 20603",25393116,"L"
124729,"2253 STORY AVENUE","NISKAYUNA","NY",12309,42.809423085,-73.8966359249999,229,"2253 STORY AVENUE, NISKAYUNA, NY, 12309","Match","Exact","2253 STORY AVE, NISKAYUNA, NY, 12309",18029681,"L"
124730,"22530 MIRAMAR CREST DR","TOMBALL","TX",77375,30.08408453,-95.5522154449999,230,"22530 MIRAMAR CREST DR, TOMBALL, TX, 77375","Match","Exact","22530 MIRAMAR CREST DR, TOMBALL, TX, 77375",652126506,"R"
124731,"22531 NE 93RD PL","REDMOND","WA",98053,47.6834110710001,-122.039614643,231,"22531 NE 93RD PL, REDMOND, WA, 98053","Match","Exact","22531 NE 93RD PL, REDMOND, WA, 98053",627632341,"L"
124732,"22532 LEYTE DRIVE","TORRANCE","CA",90505,33.823969076,-118.362541464,232,"22532 LEYTE DRIVE, TORRANCE, CA, 90505","Match","Exact","22532 LEYTE DR, TORRANCE, CA, 90505",141664875,"L"
124733,"22532 WINCHESTER DRIVE","ELKHART","IN",46514,41.702942412,-85.898689802,233,"22532 WINCHESTER DRIVE, ELKHART, IN, 46514","Match","Exact","22532 WINCHESTER DR, ELKHART, IN, 46514",7753711,"L"
124734,"22534 BEECHDROP DR","ASHBURN","VA",20148,38.99436007,-77.550775049,234,"22534 BEECHDROP DR, ASHBURN, VA, 20148","Match","Exact","22534 BEECHDROP DR, ASHBURN, VA, 20148",633014226,"R"
124735,"22535 OLD FOSSIL RD","SAN ANTONIO","TX",78261,29.649641134,-98.423651999,235,"22535 OLD FOSSIL RD, SAN ANTONIO, TX, 78261","Match","Exact","22535 OLD FOSSIL RD, SAN ANTONIO, TX, 78261",101729309,"R"
124736,"22535 SPRING LINK COURT","SPRING","TX",77373,30.0886941250001,-95.433400883,236,"22535 SPRING LINK COURT, SPRING, TX, 77373","Match","Non_Exact","22535 SPRING LINK, SPRING, TX, 77373",624515702,"R"
124737,"22537  RYAN DR","WILDER","ID",83676,43.6067077280001,-116.843435924,237,"22537  RYAN DR, WILDER, ID, 83676","Match","Exact","22537 RYAN DR, WILDER, ID, 83676",638573328,"R"
124738,"22537 E UNION CIR","AURORA","CO",80015,39.6308374920001,-104.725456818,238,"22537 E UNION CIR, AURORA, CO, 80015","Match","Exact","22537 E UNION CIR, AURORA, CO, 80015",632522303,"L"
124739,"22538 E TIERRA GRANDE","QUEEN CREEK","AZ",85142,33.245466288,-111.597422506,239,"22538 E TIERRA GRANDE, QUEEN CREEK, AZ, 85142","Match","Exact","22538 E TIERRA GRANDE, QUEEN CREEK, AZ, 85142",641877057,"L"
124740,"22538 SOUTHSHORE DRIVE","WATERLOO","NE",68069,NA,NA,240,"22538 SOUTHSHORE DRIVE, WATERLOO, NE, 68069","No_Match",NA,NA,NA,NA
124741,"2254 BEDFORD DRIVE","FULLERTON","CA",92831,33.894180007,-117.878051441,241,"2254 BEDFORD DRIVE, FULLERTON, CA, 92831","Match","Exact","2254 BEDFORD DR, FULLERTON, CA, 92831",144008225,"R"
124742,"2254 E TALL OAKS DRIVE","FAYETTEVILLE","AR",72703,36.0930371700001,-94.128357841,242,"2254 E TALL OAKS DRIVE, FAYETTEVILLE, AR, 72703","Match","Exact","2254 E TALL OAKS DR, FAYETTEVILLE, AR, 72703",49046979,"L"
124743,"2254 ENCHANTMENT LN","ALLEN","TX",75013,33.136988644,-96.6662351909999,243,"2254 ENCHANTMENT LN, ALLEN, TX, 75013","Match","Exact","2254 ENCHANTMENT LN, ALLEN, TX, 75013",638831884,"R"
124744,"2254 FORMOSA CIRCLE","BRUNSWICK","GA",31520,31.192537917,-81.491686875,244,"2254 FORMOSA CIRCLE, BRUNSWICK, GA, 31520","Match","Exact","2254 FORMOSA CIR, BRUNSWICK, GA, 31520",9133593,"L"
124745,"2254 HILL STREET","VINE GROVE","KY",40175,37.8443554310001,-85.968325474,245,"2254 HILL STREET, VINE GROVE, KY, 40175","Match","Exact","2254 HILL ST, VINE GROVE, KY, 40175",632851586,"L"
124746,"2254 HOLLY SPRINGS RD","MARIETTA","GA",30062,34.005824277,-84.4736624989999,246,"2254 HOLLY SPRINGS RD, MARIETTA, GA, 30062","Match","Exact","2254 HOLLY SPRINGS RD, MARIETTA, GA, 30062",17169879,"R"
124747,"2254 LEXINGTON AVE","PENNSAUKEN","NJ",8110,39.957895809,-75.061619894,247,"2254 LEXINGTON AVE, PENNSAUKEN, NJ, 8110","Match","Exact","2254 LEXINGTON AVE, PENNSAUKEN, NJ, 08110",134343333,"L"
124748,"2254 N ANDOVER DR","ORANGE","CA",92867,33.82678968,-117.774273615,248,"2254 N ANDOVER DR, ORANGE, CA, 92867","Match","Exact","2254 ANDOVER DR, ORANGE, CA, 92867",618719608,"R"
124749,"2254 NW 16TH TERRACE","JENNINGS","FL",32053,30.566853295,-83.2370363919999,249,"2254 NW 16TH TERRACE, JENNINGS, FL, 32053","Match","Exact","2254 NW 16TH TER, JENNINGS, FL, 32053",41008427,"R"
124750,"2254 NW 81ST TERRACE","SUNRISE","FL",33322,26.1527469390001,-80.2541433869999,250,"2254 NW 81ST TERRACE, SUNRISE, FL, 33322","Match","Exact","2254 NW 81ST TER, SUNRISE, FL, 33322",114704169,"R"
124751,"2254 RUTGERS STREET NW","NORTH CANTON","OH",44720,40.904025969,-81.386703188,251,"2254 RUTGERS STREET NW, NORTH CANTON, OH, 44720","Match","Exact","2254 RUTGERS ST NW, NORTH CANTON, OH, 44720",64699968,"L"
124752,"2254 SOUTH DYE RD","FLINT","MI",48532,42.994903708,-83.782545095,252,"2254 SOUTH DYE RD, FLINT, MI, 48532","Match","Exact","2254 S DYE RD, FLINT, MI, 48532",69572673,"R"
124753,"2254 SW 131ST AVENUE","MIRAMAR","FL",33027,25.98722467,-80.320180444,253,"2254 SW 131ST AVENUE, MIRAMAR, FL, 33027","Match","Exact","2254 SW 131ST AVE, MIRAMAR, FL, 33027",114798050,"R"
124754,"2254 WHITE RD","GROVE CITY","OH",43123,39.872705818,-83.0634025479999,254,"2254 WHITE RD, GROVE CITY, OH, 43123","Match","Exact","2254 WHITE RD, GROVE CITY, OH, 43123",642088967,"L"
124755,"22540 LAHSER RD","SOUTHFIELD","MI",48033,42.4549157000001,-83.259950795,255,"22540 LAHSER RD, SOUTHFIELD, MI, 48033","Match","Exact","22540 LAHSER RD, SOUTHFIELD, MI, 48033",69732736,"R"
124756,"22540 MUSCADINE DRIVE","CLARKSBURG","MD",20871,39.2252945070001,-77.2400393039999,256,"22540 MUSCADINE DRIVE, CLARKSBURG, MD, 20871","Match","Exact","22540 MUSCADINE DR, CLARKSBURG, MD, 20871",642179922,"R"
124757,"22540 PARROTTS FERRY ROAD","COLUMBIA","CA",95310,38.037407574,-120.403004409,257,"22540 PARROTTS FERRY ROAD, COLUMBIA, CA, 95310","Match","Exact","22540 PARROTTS FERRY RD, COLUMBIA, CA, 95310",101383744,"L"
124758,"22541 CONIL","MISSION VIEJO","CA",92691,33.635842559,-117.650859478,258,"22541 CONIL, MISSION VIEJO, CA, 92691","Match","Exact","22541 CONIL, MISSION VIEJO, CA, 92691",144066396,"R"
124759,"22542 MEADOWWOOD","LAKE FOREST","CA",92630,33.636030045,-117.694109628,259,"22542 MEADOWWOOD, LAKE FOREST, CA, 92630","Match","Exact","22542 MEADOWWOOD, LAKE FOREST, CA, 92630",144419645,"L"
124760,"22543 VENTURA BLVD STE 227","WOODLAND HILLS","CA",91364,34.167823771,-118.617640699,260,"22543 VENTURA BLVD STE 227, WOODLAND HILLS, CA, 91364","Match","Exact","22543 VENTURA BLVD, WOODLAND HILLS, CA, 91364",141534893,"R"
124761,"22544 QUARTER HORSE DR","WRIGHT CITY","MO",63390,38.731799396,-91.026160208,261,"22544 QUARTER HORSE DR, WRIGHT CITY, MO, 63390","Match","Exact","22544 QUARTER HORSE DR, WRIGHT CITY, MO, 63390",90111238,"R"
124762,"22545 POPPY DR","CUPERTINO","CA",95014,37.3259984580001,-122.069369658,262,"22545 POPPY DR, CUPERTINO, CA, 95014","Match","Exact","22545 POPPY DR, CUPERTINO, CA, 95014",123001171,"R"
124763,"22545 SW PARK ST","SHERWOOD","OR",97140,45.355402198,-122.843173714,263,"22545 SW PARK ST, SHERWOOD, OR, 97140","Match","Exact","22545 SW PARK ST, SHERWOOD, OR, 97140",605220738,"R"
124764,"22548 BOLANOS COURT","PORT CHARLOTTE","FL",33952,26.9948220960001,-82.073378541,264,"22548 BOLANOS COURT, PORT CHARLOTTE, FL, 33952","Match","Exact","22548 BOLANOS CT, PORT CHARLOTTE, FL, 33952",4304494,"R"
124765,"22548 TX-105","MONTGOMERY","TX",77356,30.388339568,-95.711861775,265,"22548 TX-105, MONTGOMERY, TX, 77356","Match","Non_Exact","22548 STATE HWY 105 W, MONTGOMERY, TX, 77356",642840607,"R"
124766,"2255 84TH APT 3","OAKLAND","CA",94605,37.758921231,-122.168279157,266,"2255 84TH APT 3, OAKLAND, CA, 94605","Match","Non_Exact","2255 84TH AVE, OAKLAND, CA, 94605",606263165,"L"
124767,"2255 ARKANSAS LANE 4209","GRAND PRAIRIE","TX",75052,32.706090461,-97.0354693,267,"2255 ARKANSAS LANE 4209, GRAND PRAIRIE, TX, 75052","Match","Exact","2255 ARKANSAS LN, GRAND PRAIRIE, TX, 75052",639257177,"L"
124768,"2255 ARKANSAS STREET STE 4130","GRAND PRAIRIE","TX",75052,32.706090461,-97.0354693,268,"2255 ARKANSAS STREET STE 4130, GRAND PRAIRIE, TX, 75052","Match","Non_Exact","2255 ARKANSAS LN, GRAND PRAIRIE, TX, 75052",639257177,"L"
124769,"2255 BEAVER DAM ROAD","CASSATT",NA,29032,34.399102246,-80.48385424,269,"2255 BEAVER DAM ROAD, CASSATT, , 29032","Match","Exact","2255 BEAVER DAM RD, CASSATT, SC, 29032",78482188,"L"
124770,"2255 BEDFORD AVENUE APT 6I","BROOKLYN","NY",11226,40.6489012160001,-73.955760455,270,"2255 BEDFORD AVENUE APT 6I, BROOKLYN, NY, 11226","Match","Exact","2255 BEDFORD AVE, BROOKLYN, NY, 11226",59081361,"L"
124771,"2255 BENSON RIDGE","LITHONIA","GA",30058,33.7269005590001,-84.067870541,271,"2255 BENSON RIDGE, LITHONIA, GA, 30058","Match","Exact","2255 BENSON RIDGE, LITHONIA, GA, 30058",619382183,"R"
124772,"2255 CAHUILLA ST UNIT 107","COLTON","CA",92324,34.046048951,-117.289136145,272,"2255 CAHUILLA ST UNIT 107, COLTON, CA, 92324","Match","Exact","2255 CAHUILLA ST, COLTON, CA, 92324",145227454,"R"
124773,"2255 CARVILLE DR UNIT 9B","RENO","NV",89512,39.542543698,-119.786017416,273,"2255 CARVILLE DR UNIT 9B, RENO, NV, 89512","Match","Exact","2255 CARVILLE DR, RENO, NV, 89512",107048029,"R"
124774,"2255 E SUNNYSIDE AVE UNIT 58506","SALT LAKE CITY","UT",84158,40.750741486,-111.825902109,274,"2255 E SUNNYSIDE AVE UNIT 58506, SALT LAKE CITY, UT, 84158","Match","Non_Exact","2255 SUNNYSIDE AVE, SLC, UT, 84108",176081720,"L"
124775,"2255 EAST FOREST AVENUE","DETROIT","MI",48207,42.3630152150001,-83.041032324,275,"2255 EAST FOREST AVENUE, DETROIT, MI, 48207","Match","Exact","2255 E FOREST AVE, DETROIT, MI, 48207",95482199,"L"
124776,"2255 EAST SUNNYSIDE AVENUE","SALT LAKE CITY","UT",84108,40.750741486,-111.825915057,276,"2255 EAST SUNNYSIDE AVENUE, SALT LAKE CITY, UT, 84108","Match","Exact","2255 E SUNNYSIDE AVE, SALT LAKE CITY, UT, 84108",176081720,"L"
124777,"2255 EQUESTRIAN LOOP S","SALEM","OR",97302,44.910936448,-123.074214632,277,"2255 EQUESTRIAN LOOP S, SALEM, OR, 97302","Match","Exact","2255 EQUESTRIAN LOOP S, SALEM, OR, 97302",648361459,"L"
124778,"2255 FOUR SEASONS DR","GAMBRILLS","MD",21054,39.057367388,-76.690550106,278,"2255 FOUR SEASONS DR, GAMBRILLS, MD, 21054","Match","Exact","2255 FOUR SEASONS DR, GAMBRILLS, MD, 21054",68161110,"L"
124779,"2255 GLADES ROAD STE 324A","BOCA RATON","FL",33431,26.368207915,-80.1266674,279,"2255 GLADES ROAD STE 324A, BOCA RATON, FL, 33431","Match","Exact","2255 GLADES RD, BOCA RATON, FL, 33431",640587632,"R"
124780,"2255 HUTCHINSON RD","YUBA CITY","CA",95993,39.0398542680001,-121.657889999,280,"2255 HUTCHINSON RD, YUBA CITY, CA, 95993","Match","Exact","2255 HUTCHINSON RD, YUBA CITY, CA, 95993",68573625,"R"
124781,"2255 KIMBERTON RD PO BOX 147","KIMBERTON","PA",19442,NA,NA,281,"2255 KIMBERTON RD PO BOX 147, KIMBERTON, PA, 19442","No_Match",NA,NA,NA,NA
124782,"2255 LINCOLN ST","EUGENE","OR",97405,44.0348824380001,-123.097013538,282,"2255 LINCOLN ST, EUGENE, OR, 97405","Match","Exact","2255 LINCOLN ST, EUGENE, OR, 97405",178167237,"L"
124783,"2255 MCCOLLUM PARKWAY","KENNESAW","GA",30144,34.0176568370001,-84.600270187,283,"2255 MCCOLLUM PARKWAY, KENNESAW, GA, 30144","Match","Non_Exact","2255 MCCOLLUM PKWY NW, KENNESAW, GA, 30144",17189554,"L"
124784,"2255 MEMORIAL BLVD UNIT 12303","MURFREESBORO","TN",37129,35.878404167,-86.384522435,284,"2255 MEMORIAL BLVD UNIT 12303, MURFREESBORO, TN, 37129","Match","Exact","2255 MEMORIAL BLVD, MURFREESBORO, TN, 37129",639068941,"L"
124785,"2255 MIDLOTHIAN DR","ALTADENA","CA",91001,34.1840168860001,-118.107590751,285,"2255 MIDLOTHIAN DR, ALTADENA, CA, 91001","Match","Exact","2255 MIDLOTHIAN DR, ALTADENA, CA, 91001",141631682,"L"
124786,"2255 N BONNIE BRAE STREET","DENTON","TX",76207,33.2371161830001,-97.1607965439999,286,"2255 N BONNIE BRAE STREET, DENTON, TX, 76207","Match","Exact","2255 N BONNIE BRAE ST, DENTON, TX, 76207",103384850,"R"
124787,"2255 N LAWNDALE AVE","CHICAGO","CA",60647,NA,NA,287,"2255 N LAWNDALE AVE, CHICAGO, CA, 60647","No_Match",NA,NA,NA,NA
124788,"2255 NEW HOPE ROAD","LAWRENCEVILLE","GA",30045,33.917371501,-83.90406348,288,"2255 NEW HOPE ROAD, LAWRENCEVILLE, GA, 30045","Match","Exact","2255 NEW HOPE RD, LAWRENCEVILLE, GA, 30045",625650767,"L"
124789,"2255 NORTH SCHOOL STREET","HONOLULU","HI",96819,21.340816526,-157.874374815,289,"2255 NORTH SCHOOL STREET, HONOLULU, HI, 96819","Match","Exact","2255 N SCHOOL ST, HONOLULU, HI, 96819",203234664,"L"
124790,"2255 OLD MARLTON PIKE","MARLTON","NJ",8053,39.8902015680001,-74.87233967,290,"2255 OLD MARLTON PIKE, MARLTON, NJ, 8053","Match","Non_Exact","2255 OLD MARLTON PIKE E, MARLTON, NJ, 08053",134064105,"L"
124791,"2255 OXON RUN DRIVE","TEMPLE HILLS","MD",20748,38.8431613180001,-76.967727458,291,"2255 OXON RUN DRIVE, TEMPLE HILLS, MD, 20748","Match","Exact","2255 OXON RUN DR, TEMPLE HILLS, MD, 20748",76369747,"R"
124792,"2255 RENAISSANCE DR    SUITE A","LAS VEGAS","NV",89119,36.1021868070001,-115.122896499,292,"2255 RENAISSANCE DR    SUITE A, LAS VEGAS, NV, 89119","Match","Exact","2255 RENAISSANCE DR, LAS VEGAS, NV, 89119",201922635,"L"
124793,"2255 SAN GORGINIO ROAD","LA CANADA FLINTRIDGE","CA",91011,34.2286247420001,-118.225097608,293,"2255 SAN GORGINIO ROAD, LA CANADA FLINTRIDGE, CA, 91011","Match","Non_Exact","2255 SAN GORGONIO RD, LA CANADA, CA, 91011",141589806,"R"
124794,"2255 SAN JOSE AVENUE APT E","ALAMEDA","CA",94501,37.761871656,-122.247867988,294,"2255 SAN JOSE AVENUE APT E, ALAMEDA, CA, 94501","Match","Exact","2255 SAN JOSE AVE, ALAMEDA, CA, 94501",125005368,"L"
124795,"2255 SAN MARCO RD","MARCO ISLAND","FL",34145,25.933937255,-81.677362923,295,"2255 SAN MARCO RD, MARCO ISLAND, FL, 34145","Match","Exact","2255 SAN MARCO RD, MARCO ISLAND, FL, 34145",115158361,"L"
124796,"2255 SE 25TH AVE","HOMESTEAD","FL",33035,25.452227152,-80.4397732369999,296,"2255 SE 25TH AVE, HOMESTEAD, FL, 33035","Match","Exact","2255 SE 25TH AVE, HOMESTEAD, FL, 33035",632268126,"L"
124797,"2255 SE VETERANS MEMORIAL PARKWAY","PORT ST LUCIE","FL",34952,NA,NA,297,"2255 SE VETERANS MEMORIAL PARKWAY, PORT ST LUCIE, FL, 34952","No_Match",NA,NA,NA,NA
124798,"2255 SE VETERANS MEMORIAL PKWY 9225","PORT ST LIUCIE","FL",34985,NA,NA,298,"2255 SE VETERANS MEMORIAL PKWY 9225, PORT ST LIUCIE, FL, 34985","No_Match",NA,NA,NA,NA
124799,"2255 SE VETERANS MEMORIAL PKWY","PORT ST LUCIE","FL",34985,NA,NA,299,"2255 SE VETERANS MEMORIAL PKWY, PORT ST LUCIE, FL, 34985","No_Match",NA,NA,NA,NA
124800,"2255 SHERIDAN BLVD - C 124","DENVER","CO",80214,39.750012568,-105.053222705,300,"2255 SHERIDAN BLVD - C 124, DENVER, CO, 80214","Match","Exact","2255 SHERIDAN BLVD, DENVER, CO, 80214",177629513,"L"
124801,"2255 SW 32 AVE SUITE 203","MIAMI","FL",33145,25.7490452430001,-80.246364603,301,"2255 SW 32 AVE SUITE 203, MIAMI, FL, 33145","Match","Non_Exact","2255 SW 32ND AVE, MIAMI, FL, 33145",116014304,"L"
124802,"2255 SWITZER RD  APT E201","GULFPORT","MS",39507,30.406080767,-89.003811935,302,"2255 SWITZER RD  APT E201, GULFPORT, MS, 39507","Match","Exact","2255 SWITZER RD, GULFPORT, MS, 39507",111397475,"R"
124803,"2255 SWITZER RD","GULFPORT","MS",39507,30.406080767,-89.003811935,303,"2255 SWITZER RD, GULFPORT, MS, 39507","Match","Exact","2255 SWITZER RD, GULFPORT, MS, 39507",111397475,"R"
124804,"2255 W ARGYLE","CHICAGO","IL",60625,NA,NA,304,"2255 W ARGYLE, CHICAGO, IL, 60625","No_Match",NA,NA,NA,NA
124805,"2255 W MEYER RD","WENTZVILLE","MO",63385,NA,NA,305,"2255 W MEYER RD, WENTZVILLE, MO, 63385","Tie",NA,NA,NA,NA
124806,"2255 WATERS FERRY DRIVE","LAWRENCEVILLE","GA",30043,34.0098276910001,-84.0004008559999,306,"2255 WATERS FERRY DRIVE, LAWRENCEVILLE, GA, 30043","Match","Exact","2255 WATERS FERRY DR, LAWRENCEVILLE, GA, 30043",88936769,"R"
124807,"2255 WATT AVE STE 395","SACRAMENTO","CA",95825,38.6046197630001,-121.38295399,307,"2255 WATT AVE STE 395, SACRAMENTO, CA, 95825","Match","Exact","2255 WATT AVE, SACRAMENTO, CA, 95825",133333529,"L"
124808,"2255 WEST BALL ROAD","ANAHEIM","CA",92812,33.8176803640001,-117.967747103,308,"2255 WEST BALL ROAD, ANAHEIM, CA, 92812","Match","Non_Exact","2255 W BALL RD, ANAHEIM, CA, 92804",144012395,"R"
124809,"2255 WEST MEYER ROAD","WENTZVILLE","MO",63385,38.8250247330001,-90.899767998,309,"2255 WEST MEYER ROAD, WENTZVILLE, MO, 63385","Match","Exact","2255 W MEYER RD, WENTZVILLE, MO, 63385",638430295,"R"
124810,"2255 WILSON ST LOT 11","MENOMONIE","WI",54751,44.9091211360001,-91.924944223,310,"2255 WILSON ST LOT 11, MENOMONIE, WI, 54751","Match","Exact","2255 WILSON ST, MENOMONIE, WI, 54751",648650538,"L"
124811,"2255 WORDEN ST 12","SAN DIEGO","CA",92107,32.7420625140001,-117.229325399,311,"2255 WORDEN ST 12, SAN DIEGO, CA, 92107","Match","Exact","2255 WORDEN ST, SAN DIEGO, CA, 92107",195339703,"R"
124812,"22550 AVE 18 3/4","MADERA","CA",93637,37.0230604540001,-120.137895226,312,"22550 AVE 18 3/4, MADERA, CA, 93637","Match","Exact","22550 AVE 18 3/4, MADERA, CA, 93637",102345652,"R"
124813,"22550 FOXCROFT","WOODHAVEN","MI",48183,42.140917137,-83.2555550549999,313,"22550 FOXCROFT, WOODHAVEN, MI, 48183","Match","Non_Exact","22550 FOXCROFT ST, WOODHAVEN, MI, 48183",95505358,"R"
124814,"22550 IRONWOOD ROAD","LAKEVILLE","MN",55044,44.6234756700001,-93.328378,314,"22550 IRONWOOD ROAD, LAKEVILLE, MN, 55044","Match","Exact","22550 IRONWOOD RD, LAKEVILLE, MN, 55044",38146250,"R"
124815,"22550 LA ROCHELLE DR","SANTA CLARITA","CA",91350,34.4504096000001,-118.531427886,315,"22550 LA ROCHELLE DR, SANTA CLARITA, CA, 91350","Match","Exact","22550 LA ROCHELLE DR, SANTA CLARITA, CA, 91350",141518708,"R"
124816,"22552 MARYLHURST CT","LAKE FOREST","CA",92630,33.6349567350001,-117.680398671,316,"22552 MARYLHURST CT, LAKE FOREST, CA, 92630","Match","Exact","22552 MARYLHURST CT, LAKE FOREST, CA, 92630",144064719,"L"
124817,"22554 TERRACE COURT APT 201","NOVI","MI",48375,42.4548980710001,-83.438554997,317,"22554 TERRACE COURT APT 201, NOVI, MI, 48375","Match","Exact","22554 TERRACE CT, NOVI, MI, 48375",69812605,"R"
124818,"22555 OXNARD ST","WOODLAND HILLS","CA",91367,34.1791934030001,-118.619137714,318,"22555 OXNARD ST, WOODLAND HILLS, CA, 91367","Match","Exact","22555 OXNARD ST, WOODLAND HILLS, CA, 91367",142709888,"R"
124819,"2256 12TH PLACE NW","WASHINGTON","DC",20009,38.920013049,-77.028833767,319,"2256 12TH PLACE NW, WASHINGTON, DC, 20009","Match","Exact","2256 12TH PL NW, WASHINGTON, DC, 20009",76224251,"L"
124820,"2256 81ST","CHICAGO","IL",60620,NA,NA,320,"2256 81ST, CHICAGO, IL, 60620","No_Match",NA,NA,NA,NA
124821,"2256 CENTER ST","HONOLULU","HI",96818,NA,NA,321,"2256 CENTER ST, HONOLULU, HI, 96818","No_Match",NA,NA,NA,NA
124822,"2256 COURTLAND DR","FRISCO","TX",75034,33.1115875310001,-96.871850009,322,"2256 COURTLAND DR, FRISCO, TX, 75034","Match","Exact","2256 COURTLAND DR, FRISCO, TX, 75034",641485905,"L"
124823,"2256 REXWOOD RD","CLEVELAND HEIGHTS","OH",44118,41.498558116,-81.568911413,323,"2256 REXWOOD RD, CLEVELAND HEIGHTS, OH, 44118","Match","Exact","2256 REXWOOD RD, CLEVELAND HEIGHTS, OH, 44118",61123263,"R"
124824,"2256 S ALBANY AVE","CHICAGO","IL",60623,41.8506363560001,-87.7027756749999,324,"2256 S ALBANY AVE, CHICAGO, IL, 60623","Match","Exact","2256 S ALBANY AVE, CHICAGO, IL, 60623",605092983,"R"
124825,"2256 W 31ST STREET","LOS ANGELES","CA",90018,34.0264697050001,-118.31656408,325,"2256 W 31ST STREET, LOS ANGELES, CA, 90018","Match","Exact","2256 W 31ST ST, LOS ANGELES, CA, 90018",141605770,"L"
124826,"2256 W COUNTY ROAD 64","FORT COLLINS","CO",80524,40.7115162360001,-105.117733801,326,"2256 W COUNTY ROAD 64, FORT COLLINS, CO, 80524","Match","Exact","2256 W CO RD 64, FORT COLLINS, CO, 80524",188479294,"R"
124827,"22561 CRESCENT WAY","RICHTON PARK","IL",60471,41.4771710750001,-87.723297804,327,"22561 CRESCENT WAY, RICHTON PARK, IL, 60471","Match","Exact","22561 CRESCENT WAY, RICHTON PARK, IL, 60471",629478972,"R"
124828,"22561 PLEASANT DRIVE UNIT 19","RICHTON PARK","IL",60471,41.4791110470001,-87.733084299,328,"22561 PLEASANT DRIVE UNIT 19, RICHTON PARK, IL, 60471","Match","Exact","22561 PLEASANT DR, RICHTON PARK, IL, 60471",111708099,"L"
124829,"22561 SW 88TH PL","CUTLER BAY","FL",33190,25.5581882560001,-80.333195949,329,"22561 SW 88TH PL, CUTLER BAY, FL, 33190","Match","Exact","22561 SW 88TH PL, CUTLER BAY, FL, 33190",648440227,"R"
124830,"22565 ENADIA WAY","WEST HILLS","CA",91307,34.20051291,-118.617710202,330,"22565 ENADIA WAY, WEST HILLS, CA, 91307","Match","Exact","22565 ENADIA WAY, WEST HILLS, CA, 91307",141534451,"R"
124831,"22565 NE HALSEY STREET","FAIRVIEW","OR",97024,45.5354357940001,-122.430980889,331,"22565 NE HALSEY STREET, FAIRVIEW, OR, 97024","Match","Exact","22565 NE HALSEY ST, FAIRVIEW, OR, 97024",157527795,"L"
124832,"22568 MISSION BLVD 113","HAYWARD","CA",94541,37.672474537,-122.084258537,332,"22568 MISSION BLVD 113, HAYWARD, CA, 94541","Match","Exact","22568 MISSION BLVD, HAYWARD, CA, 94541",606221698,"L"
124833,"22568 MISSION BLVD 212","HAYWARD","CA",94541,37.672474537,-122.084258537,333,"22568 MISSION BLVD 212, HAYWARD, CA, 94541","Match","Exact","22568 MISSION BLVD, HAYWARD, CA, 94541",606221698,"L"
124834,"22568 MISSION BLVD STE 410","HAYWARD","CA",94541,37.672474537,-122.084258537,334,"22568 MISSION BLVD STE 410, HAYWARD, CA, 94541","Match","Exact","22568 MISSION BLVD, HAYWARD, CA, 94541",606221698,"L"
124835,"22568 MISSION BLVD SUITE 527","HAYWARD","CA",94541,37.672474537,-122.084258537,335,"22568 MISSION BLVD SUITE 527, HAYWARD, CA, 94541","Match","Exact","22568 MISSION BLVD, HAYWARD, CA, 94541",606221698,"L"
124836,"2257 13TH STREET","CORALVILLE","IA",52241,41.6895216180001,-91.5952855579999,336,"2257 13TH STREET, CORALVILLE, IA, 52241","Match","Exact","2257 13TH ST, CORALVILLE, IA, 52241",84505182,"R"
124837,"2257 BLACKWOOD ROAD","CANTON","MI",48188,42.288578031,-83.538896354,337,"2257 BLACKWOOD ROAD, CANTON, MI, 48188","Match","Exact","2257 BLACKWOOD RD, CANTON, MI, 48188",650152234,"L"
124838,"2257 BUENA VISTA AVENUE","ALAMEDA","CA",94501,37.769414399,-122.242425079,338,"2257 BUENA VISTA AVENUE, ALAMEDA, CA, 94501","Match","Exact","2257 BUENA VISTA AVE, ALAMEDA, CA, 94501",618773522,"L"
124839,"2257 BYRON CT SW","MARIETTA","GA",30064,33.908041,-84.620829063,339,"2257 BYRON CT SW, MARIETTA, GA, 30064","Match","Exact","2257 BYRON CT SW, MARIETTA, GA, 30064",17196302,"L"
124840,"2257 COBBS FORD ROAD","PRATTVILLE","AL",36066,32.4597467310001,-86.411037677,340,"2257 COBBS FORD ROAD, PRATTVILLE, AL, 36066","Match","Exact","2257 COBBS FORD RD, PRATTVILLE, AL, 36066",639822141,"L"
124841,"2257 GUYAN RIVER ROAD","RANGER","WV",25557,38.1209407870001,-82.179238781,341,"2257 GUYAN RIVER ROAD, RANGER, WV, 25557","Match","Exact","2257 GUYAN RIVER RD, RANGER, WV, 25557",78726478,"L"
124842,"2257 HALLER ST","SAN DIEGO","CA",92104,32.7305508200001,-117.112632333,342,"2257 HALLER ST, SAN DIEGO, CA, 92104","Match","Exact","2257 HALLER ST, SAN DIEGO, CA, 92104",649832058,"L"
124843,"2257 HILLSIDE DR","CHENEY","WA",99004,47.50092105,-117.585654131,343,"2257 HILLSIDE DR, CHENEY, WA, 99004","Match","Exact","2257 HILLSIDE DR, CHENEY, WA, 99004",623831954,"R"
124844,"2257 LESLIE BROOK DRIVE","DECATUR","GA",30035,33.726055709,-84.2199301429999,344,"2257 LESLIE BROOK DRIVE, DECATUR, GA, 30035","Match","Exact","2257 LESLIE BROOK DR, DECATUR, GA, 30035",23404091,"R"
124845,"2257 NW IRVING ST","PORTLAND","OR",97210,45.5276699390001,-122.69763446,345,"2257 NW IRVING ST, PORTLAND, OR, 97210","Match","Exact","2257 NW IRVING ST, PORTLAND, OR, 97210",157498309,"R"
124846,"2257 NW RALEIGH ST","PORTLAND","OR",97210,45.5340858180001,-122.697873891,346,"2257 NW RALEIGH ST, PORTLAND, OR, 97210","Match","Exact","2257 NW RALEIGH ST, PORTLAND, OR, 97210",637556404,"R"
124847,"2257 RIVERSIDE DRIVE","VASSALBORO","ME",4989,44.4568893050001,-69.6785790989999,347,"2257 RIVERSIDE DRIVE, VASSALBORO, ME, 4989","Match","Exact","2257 RIVERSIDE DR, VASSALBORO, ME, 04989",75453148,"R"
124848,"2257 ROANOKE ST","CHRISTIANSBURG","VA",24073,37.1357692170001,-80.36531517,348,"2257 ROANOKE ST, CHRISTIANSBURG, VA, 24073","Match","Exact","2257 ROANOKE ST, CHRISTIANSBURG, VA, 24073",73649203,"R"
124849,"2257 S KENTON WAY","AURORA","CO",80014,39.675218026,-104.85935296,349,"2257 S KENTON WAY, AURORA, CO, 80014","Match","Exact","2257 S KENTON WAY, AURORA, CO, 80014",177539307,"L"
124850,"2257 STEINER STREET","MOBILE","AL",36605,30.6418423040001,-88.092902034,350,"2257 STEINER STREET, MOBILE, AL, 36605","Match","Exact","2257 STEINER ST, MOBILE, AL, 36605",61862463,"L"
124851,"2257 STONE GARDEN LANE","LEXINGTON","KY",40513,38.0055959810001,-84.57626837,351,"2257 STONE GARDEN LANE, LEXINGTON, KY, 40513","Match","Exact","2257 STONE GARDEN LN, LEXINGTON, KY, 40513",31939037,"L"
124852,"2257 WALSH AVENUE","PETERSBURG","VA",23803,37.218000837,-77.3497509869999,352,"2257 WALSH AVENUE, PETERSBURG, VA, 23803","Match","Exact","2257 WALSH AVE, PETERSBURG, VA, 23803",54153478,"L"
124853,"22570 BELTON DR","DETROIT","MI",48239,42.3522549140001,-83.2616874839999,353,"22570 BELTON DR, DETROIT, MI, 48239","Match","Non_Exact","22570 BELTON AVE, DETROIT, MI, 48239",95431812,"R"
124854,"22571 ARMSTRONG TERRACE APT404","ASHBURN","VA",20148,38.9918846310001,-77.483801821,354,"22571 ARMSTRONG TERRACE APT404, ASHBURN, VA, 20148","Match","Exact","22571 ARMSTRONG TER, ASHBURN, VA, 20148",62353336,"L"
124855,"22571 SE 313TH PL","BLACK DIAMOND","WA",98010,47.320278783,-122.040509363,355,"22571 SE 313TH PL, BLACK DIAMOND, WA, 98010","Match","Exact","22571 SE 313TH PL, BLACK DIAMOND, WA, 98010",636810621,"R"
124856,"22575 LACEY FARM LANE","LEONARDTOWN","MD",20650,38.2856089810001,-76.5722519729999,356,"22575 LACEY FARM LANE, LEONARDTOWN, MD, 20650","Match","Exact","22575 LACEY FARM LN, LEONARDTOWN, MD, 20650",624397920,"L"
124857,"22577 432ND STREET","ZUMBROTA","MN",55992,NA,NA,357,"22577 432ND STREET, ZUMBROTA, MN, 55992","No_Match",NA,NA,NA,NA
124858,"2258 20TH AVENUE","SAN FRANCISCO","CA",94116,37.745658281,-122.476940714,358,"2258 20TH AVENUE, SAN FRANCISCO, CA, 94116","Match","Exact","2258 20TH AVE, SAN FRANCISCO, CA, 94116",192278316,"L"
124859,"2258 AVENTURINE PLACE","CARLSBAD","CA",92009,33.1050678600001,-117.257065086,359,"2258 AVENTURINE PLACE, CARLSBAD, CA, 92009","Match","Exact","2258 AVENTURINE PL, CARLSBAD, CA, 92009",195767527,"R"
124860,"2258 DAYBREAK DR","AURORA","IL",60503,41.7141638000001,-88.256504186,360,"2258 DAYBREAK DR, AURORA, IL, 60503","Match","Exact","2258 DAYBREAK DR, AURORA, IL, 60503",111635826,"L"
124861,"2258 EAST FT UNION BLVD B7/8","COTTONWOOD HEIGHTS","UT",84121,40.623975434,-111.826105353,361,"2258 EAST FT UNION BLVD B7/8, COTTONWOOD HEIGHTS, UT, 84121","Match","Non_Exact","2258 FORT UNION BLVD, COTTONWOOD HEIGHTS, UT, 84121",176116180,"R"
124862,"2258 GOLDEN FALCON DR","RUSKIN","FL",33570,27.7343341870001,-82.404761645,362,"2258 GOLDEN FALCON DR, RUSKIN, FL, 33570","Match","Exact","2258 GOLDEN FALCON DR, RUSKIN, FL, 33570",646593488,"R"
124863,"2258 HYLAND RIDGE DRIVE","CHARLOTTESVILLE","VA",22911,38.041181184,-78.43246442,363,"2258 HYLAND RIDGE DRIVE, CHARLOTTESVILLE, VA, 22911","Match","Exact","2258 HYLAND RIDGE DR, CHARLOTTESVILLE, VA, 22911",651264735,"R"
124864,"2258 PIEPER LN","TUSTIN","CA",92782,33.7463068120001,-117.785501881,364,"2258 PIEPER LN, TUSTIN, CA, 92782","Match","Exact","2258 PIEPER LN, TUSTIN, CA, 92782",144138670,"R"
124865,"2258 ROCKWOOD DRIVE","SHILOH","IL",62221,38.54375852,-89.945349299,365,"2258 ROCKWOOD DRIVE, SHILOH, IL, 62221","Match","Exact","2258 ROCKWOOD DR, SHILOH, IL, 62221",107870355,"R"
124866,"2258 S OTSEGO AVENUE APARTMENT C","GAYLORD","MI",49735,NA,NA,366,"2258 S OTSEGO AVENUE APARTMENT C, GAYLORD, MI, 49735","No_Match",NA,NA,NA,NA
124867,"2258 TOPISAW DRIVE","BOGUE CHITTO","MS",39629,31.443608446,-90.3378067529999,367,"2258 TOPISAW DRIVE, BOGUE CHITTO, MS, 39629","Match","Non_Exact","2258 TOPISAW DR SE, BOGUE CHITTO, MS, 39629",612488776,"L"
124868,"22583 NORWALK SQUARE","ASHBURN","VA",20148,38.9918666230001,-77.5060342099999,368,"22583 NORWALK SQUARE, ASHBURN, VA, 20148","Match","Exact","22583 NORWALK SQ, ASHBURN, VA, 20148",641112457,"R"
124869,"22584 HIGHWAY 30","KIMBERLY","ID",83341,42.533494445,-114.335520954,369,"22584 HIGHWAY 30, KIMBERLY, ID, 83341","Match","Non_Exact","22584 US HWY 30, KIMBERLY, ID, 83341",118792267,"R"
124870,"22587 FOREST RUN DR","ASHBURN","VA",20148,38.9897868410001,-77.521217592,370,"22587 FOREST RUN DR, ASHBURN, VA, 20148","Match","Exact","22587 FOREST RUN DR, ASHBURN, VA, 20148",62361867,"L"
124871,"22588 STEPHANIE CT","FLAT ROCK","MI",48134,42.1407538350001,-83.2799500689999,371,"22588 STEPHANIE CT, FLAT ROCK, MI, 48134","Match","Exact","22588 STEPHANIE CT, FLAT ROCK, MI, 48134",95686690,"R"
124872,"22589 WINDING WOODS WAY","CLARKSBURG","MD",20871,39.2295405470001,-77.244976841,372,"22589 WINDING WOODS WAY, CLARKSBURG, MD, 20871","Match","Exact","22589 WINDING WOODS WAY, CLARKSBURG, MD, 20871",651076656,"R"
124873,"2259 39TH STREET","WASHOUGAL","WA",98671,45.592339005,-122.326932163,373,"2259 39TH STREET, WASHOUGAL, WA, 98671","Match","Exact","2259 39TH ST, WASHOUGAL, WA, 98671",158332698,"L"
124874,"2259 ALSTON AVE","FORT WORTH","TX",76110,32.719202852,-97.3341914659999,374,"2259 ALSTON AVE, FORT WORTH, TX, 76110","Match","Exact","2259 ALSTON AVE, FORT WORTH, TX, 76110",101886020,"L"
124875,"2259 ANTLER LAKE LANE","MILLTOWN","WI",54858,45.5351821570001,-92.421770658,375,"2259 ANTLER LAKE LANE, MILLTOWN, WI, 54858","Match","Exact","2259 ANTLER LAKE LN, MILLTOWN, WI, 54858",110835990,"L"
124876,"2259 AURIE DRIVE","DECATUR","GA",30034,33.7006595840001,-84.297281095,376,"2259 AURIE DRIVE, DECATUR, GA, 30034","Match","Exact","2259 AURIE DR, DECATUR, GA, 30034",23368698,"R"
124877,"2259 BROOKSIDE ROAD","MOUNT OLIVE","AL",35117,33.66931836,-86.9073365679999,377,"2259 BROOKSIDE ROAD, MOUNT OLIVE, AL, 35117","Match","Exact","2259 BROOKSIDE RD, MOUNT OLIVE, AL, 35117",81542243,"L"
124878,"2259 EAST WASHINGTON AVENUE UNIT B","MADISON","WI",53704,NA,NA,378,"2259 EAST WASHINGTON AVENUE UNIT B, MADISON, WI, 53704","No_Match",NA,NA,NA,NA
124879,"2259 GNARLED PINE DR","DUBLIN","OH",43016,40.1308905710001,-83.076141806,379,"2259 GNARLED PINE DR, DUBLIN, OH, 43016","Match","Exact","2259 GNARLED PINE DR, DUBLIN, OH, 43016",218664528,"L"
124880,"2259 GRANT 56","SHERIDAN","AR",72150,34.442435119,-92.3344029259999,380,"2259 GRANT 56, SHERIDAN, AR, 72150","Match","Exact","2259 GRANT 56, SHERIDAN, AR, 72150",2483884,"L"
124881,"2259 HIGHGATE ROAD","WESTLAKE VILLAGE","CA",91361,34.140543547,-118.836099488,381,"2259 HIGHGATE ROAD, WESTLAKE VILLAGE, CA, 91361","Match","Exact","2259 HIGHGATE RD, WESTLAKE VILLAGE, CA, 91361",109977451,"R"
124882,"2259 LAUREL GROVE LANE","ORANGE PARK","FL",32073,30.1614747250001,-81.707322615,382,"2259 LAUREL GROVE LANE, ORANGE PARK, FL, 32073","Match","Exact","2259 LAUREL GROVE LN, ORANGE PARK, FL, 32073",83837828,"L"
124883,"2259 LEWIS STREET","CRESTVIEW","FL",32536,30.773079592,-86.604371358,383,"2259 LEWIS STREET, CRESTVIEW, FL, 32536","Match","Exact","2259 LEWIS ST, CRESTVIEW, FL, 32536",625203816,"R"
124884,"2259 MILL STREET","REDDING","CA",96003,NA,NA,384,"2259 MILL STREET, REDDING, CA, 96003","No_Match",NA,NA,NA,NA
124885,"2259 MITHRA STREET","NEW ORLEANS","LA",70122,30.013687164,-90.058751376,385,"2259 MITHRA STREET, NEW ORLEANS, LA, 70122","Match","Exact","2259 MITHRA ST, NEW ORLEANS, LA, 70122",191704315,"L"
124886,"2259 N 53RD STREET","PHILADELPHIA","PA",19131,39.991576475,-75.231065644,386,"2259 N 53RD STREET, PHILADELPHIA, PA, 19131","Match","Exact","2259 N 53RD ST, PHILADELPHIA, PA, 19131",131396716,"R"
124887,"2259 OXLEY DR","WATERFORD","MI",48328,42.670180192,-83.3329091969999,387,"2259 OXLEY DR, WATERFORD, MI, 48328","Match","Exact","2259 OXLEY DR, WATERFORD, MI, 48328",69771076,"L"
124888,"2259 SEQUOIA WAY","DAVENPORT","FL",33896,28.2258935990001,-81.542324516,388,"2259 SEQUOIA WAY, DAVENPORT, FL, 33896","Match","Exact","2259 SEQUOIA WAY, DAVENPORT, FL, 33896",648236389,"R"
124889,"2259 SNOWMASS CREEK ROAD","SNOWMASS","CO",81654,39.3046761140001,-106.973423115,389,"2259 SNOWMASS CREEK ROAD, SNOWMASS, CO, 81654","Match","Exact","2259 SNOWMASS CREEK RD, SNOWMASS, CO, 81654",640121925,"L"
124890,"2259 STATE 84 SW","PINE RIVER","MN",56474,NA,NA,390,"2259 STATE 84 SW, PINE RIVER, MN, 56474","No_Match",NA,NA,NA,NA
124891,"2259 SUMMER RIDGE DR","HOOVER","AL",35226,33.4126807980001,-86.849309475,391,"2259 SUMMER RIDGE DR, HOOVER, AL, 35226","Match","Exact","2259 SUMMER RIDGE DR, HOOVER, AL, 35226",645916567,"R"
124892,"2259 TREVOR CT","LINCOLN","NE",68512,40.7317278940001,-96.690952318,392,"2259 TREVOR CT, LINCOLN, NE, 68512","Match","Exact","2259 TREVOR CT, LINCOLN, NE, 68512",28299319,"R"
124893,"2259 VALLEY BROOK WAY","BROOKHAVEN","GA",30319,33.8515810960001,-84.3420938639999,393,"2259 VALLEY BROOK WAY, BROOKHAVEN, GA, 30319","Match","Exact","2259 VALLEY BROOK WAY, BROOKHAVEN, GA, 30319",23394433,"R"
124894,"22595 N SCOTTSDALE ROAD SUITE 100","SCOTTSDALE","AZ",85255,NA,NA,394,"22595 N SCOTTSDALE ROAD SUITE 100, SCOTTSDALE, AZ, 85255","No_Match",NA,NA,NA,NA
124895,"22595 VOSS HIATT AVE","CICERO","IN",46034,NA,NA,395,"22595 VOSS HIATT AVE, CICERO, IN, 46034","No_Match",NA,NA,NA,NA
124896,"22598 DUSTY LN","GROVELAND","FL",34736,28.676438401,-81.909541508,396,"22598 DUSTY LN, GROVELAND, FL, 34736","Match","Exact","22598 DUSTY LN, GROVELAND, FL, 34736",94201615,"R"
124897,"22599 E KINGS CANYON RD","REEDLEY","CA",93654,36.719599601,-119.384463164,397,"22599 E KINGS CANYON RD, REEDLEY, CA, 93654","Match","Exact","22599 E KINGS CANYON RD, REEDLEY, CA, 93654",629638784,"R"
124898,"225ASTUYVESANT AVE","LYNDHURST","NJ",7071,NA,NA,398,"225ASTUYVESANT AVE, LYNDHURST, NJ, 7071","No_Match",NA,NA,NA,NA
124899,"226 2ND ST SW","ROCHESTER","MN",55905,44.0215443540001,-92.4663809799999,399,"226 2ND ST SW, ROCHESTER, MN, 55905","Match","Non_Exact","226 2ND ST SW, ROCHESTER, MN, 55902",30552860,"L"
124900,"226 3RD AVENUE","OURAY","CO",81427,38.01950471,-107.671984646,400,"226 3RD AVENUE, OURAY, CO, 81427","Match","Exact","226 3RD AVE, OURAY, CO, 81427",91868784,"R"
124901,"226 66 ST APT 16","WEST NEW YORK","NJ",7093,40.7915935290001,-74.008421885,401,"226 66 ST APT 16, WEST NEW YORK, NJ, 7093","Match","Exact","226 66TH ST, WEST NEW YORK, NJ, 07093",59599832,"R"
124902,"226 8TH STREET","KERSEY","CO",80644,40.388557844,-104.55616794,402,"226 8TH STREET, KERSEY, CO, 80644","Match","Exact","226 8TH ST, KERSEY, CO, 80644",188715398,"R"
124903,"226 ABSHIRE ST","SAN ANTONIO","TX",78237,29.424044495,-98.575740174,403,"226 ABSHIRE ST, SAN ANTONIO, TX, 78237","Match","Exact","226 ABSHIRE ST, SAN ANTONIO, TX, 78237",101511124,"L"
124904,"226 ABSHIRE","SAN ANTONIO","TX",78237,29.424044495,-98.575740174,404,"226 ABSHIRE, SAN ANTONIO, TX, 78237","Match","Non_Exact","226 ABSHIRE ST, SAN ANTONIO, TX, 78237",101511124,"L"
124905,"226 ADAMS ROAD APT A","ELIZABETHTOWN","KY",42701,37.685139581,-85.8541827509999,405,"226 ADAMS ROAD APT A, ELIZABETHTOWN, KY, 42701","Match","Exact","226 ADAMS RD, ELIZABETHTOWN, KY, 42701",34642159,"L"
124906,"226 ALEXANDER ST","MARIETTA","GA",30008,33.949255442,-84.5448365239999,406,"226 ALEXANDER ST, MARIETTA, GA, 30008","Match","Non_Exact","226 ALEXANDER ST, MARIETTA, GA, 30060",17254267,"R"
124907,"226 AMBLING CIRCLE","COLUMBIA","SC",29210,34.0622731290001,-81.14464473,407,"226 AMBLING CIRCLE, COLUMBIA, SC, 29210","Match","Exact","226 AMBLING CIR, COLUMBIA, SC, 29210",70071565,"R"
124908,"226 AMBURY STREET","FORT MYERS","FL",33913,26.5515308670001,-81.6526898979999,408,"226 AMBURY STREET, FORT MYERS, FL, 33913","Match","Exact","226 AMBURY ST, FORT MYERS, FL, 33913",118082533,"R"
124909,"226 ANNALISA PLACE","MERRITT ISLAND","FL",32953,28.4412258450001,-80.712866989,409,"226 ANNALISA PLACE, MERRITT ISLAND, FL, 32953","Match","Exact","226 ANNALISA PL, MERRITT ISLAND, FL, 32953",93887249,"L"
124910,"226 B JEFFERS CIRCLE","ELGIN","SC",29045,34.1590627750001,-80.785146514,410,"226 B JEFFERS CIRCLE, ELGIN, SC, 29045","Match","Exact","226 JEFFERS CIR, ELGIN, SC, 29045",635589499,"R"
124911,"226 BARKER ROAD","WYNCOTE","PA",19095,40.089790921,-75.150014734,411,"226 BARKER ROAD, WYNCOTE, PA, 19095","Match","Exact","226 BARKER RD, WYNCOTE, PA, 19095",135106296,"L"
124912,"226 BARTLETT AVENUE","LIVERPOOL","NY",13088,43.0853978470001,-76.1813897549999,412,"226 BARTLETT AVENUE, LIVERPOOL, NY, 13088","Match","Exact","226 BARTLETT AVE, LIVERPOOL, NY, 13088",46568169,"R"
124913,"226 BEACH RD","WOLCOTT","CT",6716,41.6076366500001,-72.998617721,413,"226 BEACH RD, WOLCOTT, CT, 6716","Match","Exact","226 BEACH RD, WOLCOTT, CT, 06716",3735685,"L"
124914,"226 BELVEDERE STREET","LYNCHBURG","VA",24503,37.4368449180001,-79.17517307,414,"226 BELVEDERE STREET, LYNCHBURG, VA, 24503","Match","Exact","226 BELVEDERE ST, LYNCHBURG, VA, 24503",62740543,"L"
124915,"226 BIRCHSIDE CIRCLE","LOCUST GROVE","VA",22508,38.3360164870001,-77.758166611,415,"226 BIRCHSIDE CIRCLE, LOCUST GROVE, VA, 22508","Match","Exact","226 BIRCHSIDE CIR, LOCUST GROVE, VA, 22508",29891766,"L"
124916,"226 BREES BLVD","SAN ANTONIO","TX",78209,29.4924479160001,-98.449896684,416,"226 BREES BLVD, SAN ANTONIO, TX, 78209","Match","Exact","226 BREES BLVD, SAN ANTONIO, TX, 78209",101499406,"R"
124917,"226 BROAD STREET","NEVADA CITY","CA",95959,39.2625280230001,-121.018288707,417,"226 BROAD STREET, NEVADA CITY, CA, 95959","Match","Exact","226 BROAD ST, NEVADA CITY, CA, 95959",106529882,"R"
124918,"226 BROKAW AVE","DONORA","PA",15033,40.169165112,-79.86439649,418,"226 BROKAW AVE, DONORA, PA, 15033","Match","Exact","226 BROKAW AVE, DONORA, PA, 15033",52810742,"L"
124919,"226 BROWNWOOD CT","IRVING","TX",75060,32.8127781210001,-96.9862692899999,419,"226 BROWNWOOD CT, IRVING, TX, 75060","Match","Exact","226 BROWNWOOD CT, IRVING, TX, 75060",102887179,"L"
124920,"226 BUCKEYE STREET","WOODLAND","CA",95695,38.6834229630001,-121.793767473,420,"226 BUCKEYE STREET, WOODLAND, CA, 95695","Match","Exact","226 BUCKEYE ST, WOODLAND, CA, 95695",67689325,"R"
124921,"226 CAPE CONROE DRIVE","MONTGOMERY","TX",77356,30.3826197610001,-95.6486381079999,421,"226 CAPE CONROE DRIVE, MONTGOMERY, TX, 77356","Match","Exact","226 CAPE CONROE DR, MONTGOMERY, TX, 77356",79267245,"R"
124922,"226 CHAPEL AVENUE","NASHVILLE","TN",37206,36.1849266500001,-86.736622075,422,"226 CHAPEL AVENUE, NASHVILLE, TN, 37206","Match","Exact","226 CHAPEL AVE, NASHVILLE, TN, 37206",97189058,"R"
124923,"226 CHARLESTON ST","CADIZ","OH",43907,40.2710039020001,-80.990670414,423,"226 CHARLESTON ST, CADIZ, OH, 43907","Match","Exact","226 CHARLESTON ST, CADIZ, OH, 43907",37708142,"R"
124924,"226 CHERRY AVENUE","COOKEVILLE","TN",38501,36.166354153,-85.503481501,424,"226 CHERRY AVENUE, COOKEVILLE, TN, 38501","Match","Exact","226 CHERRY AVE, COOKEVILLE, TN, 38501",25141174,"L"
124925,"226 CHLOE  DRIVE","FAYETTEVILLE","NC",28301,35.1032324610001,-78.880544097,425,"226 CHLOE  DRIVE, FAYETTEVILLE, NC, 28301","Match","Exact","226 CHLOE DR, FAYETTEVILLE, NC, 28301",64200776,"R"
124926,"226 CLEMENS DR","PIKEVILLE","NC",27863,35.4836315790001,-78.033427289,426,"226 CLEMENS DR, PIKEVILLE, NC, 27863","Match","Exact","226 CLEMENS DR, PIKEVILLE, NC, 27863",605718891,"R"
124927,"226 COLUMBIA DRIVE UNIT 1","TALLAHASSEE","FL",32304,30.4443461400001,-84.323533719,427,"226 COLUMBIA DRIVE UNIT 1, TALLAHASSEE, FL, 32304","Match","Exact","226 COLUMBIA DR, TALLAHASSEE, FL, 32304",618824076,"L"
124928,"226 CONTINENTAL","SAN ANTONIO","TX",78228,29.452710188,-98.573526624,428,"226 CONTINENTAL, SAN ANTONIO, TX, 78228","Match","Non_Exact","226 CONTINENTAL AVE, SAN ANTONIO, TX, 78228",101510299,"L"
124929,"226 COZY LN","CEDAR HILL","TX",75104,32.574924937,-96.945645176,429,"226 COZY LN, CEDAR HILL, TX, 75104","Match","Exact","226 COZY LN, CEDAR HILL, TX, 75104",616806535,"R"
124930,"226 CUBA AVENUE","STATEN ISLAND","NY",10306,40.562836228,-74.109199367,430,"226 CUBA AVENUE, STATEN ISLAND, NY, 10306","Match","Exact","226 CUBA AVE, STATEN ISLAND, NY, 10306",59868916,"L"
124931,"226 DEL PRADO DR","DALY CITY","CA",94015,37.6789768580001,-122.479882925,431,"226 DEL PRADO DR, DALY CITY, CA, 94015","Match","Exact","226 DEL PRADO DR, DALY CITY, CA, 94015",192368813,"R"
124932,"226 DIAMOND COURT","JACKSONVILLE","NC",28546,34.778894973,-77.311899501,432,"226 DIAMOND COURT, JACKSONVILLE, NC, 28546","Match","Exact","226 DIAMOND CT, JACKSONVILLE, NC, 28546",620019427,"R"
124933,"226 E 72ND TER","KANSAS CITY","MO",64114,38.9965403080001,-94.586574148,433,"226 E 72ND TER, KANSAS CITY, MO, 64114","Match","Exact","226 E 72ND TER, KANSAS CITY, MO, 64114",91454656,"L"
124934,"226 E 87TH ST APT 3D","NEW YORK","NY",10128,40.7791112510001,-73.952590084,434,"226 E 87TH ST APT 3D, NEW YORK, NY, 10128","Match","Non_Exact","226 E 87TH ST, NEW YORK, NY, 10128",610381041,"R"
124935,"226 E AUSTIN STREET","ELGIN","TX",78621,30.346943374,-97.3682281069999,435,"226 E AUSTIN STREET, ELGIN, TX, 78621","Match","Exact","226 E AUSTIN ST, ELGIN, TX, 78621",45490681,"L"
124936,"226 E CHICAGO ST","COLDWATER","MI",49036,41.9391388760001,-84.991594458,436,"226 E CHICAGO ST, COLDWATER, MI, 49036","Match","Exact","226 E CHICAGO ST, COLDWATER, MI, 49036",8214431,"L"
124937,"226 E MAIN ST","ELKTON","MD",21921,39.6099356770001,-75.823817966,437,"226 E MAIN ST, ELKTON, MD, 21921","Match","Exact","226 E MAIN ST, ELKTON, MD, 21921",636216946,"R"
124938,"226 E PALO VERDE ST","GILBERT","AZ",85296,33.3476368660001,-111.784610602,438,"226 E PALO VERDE ST, GILBERT, AZ, 85296","Match","Exact","226 E PALO VERDE ST, GILBERT, AZ, 85296",128969392,"L"
124939,"226 E PN AMERIN CIR","MURRAY","UT",84107,NA,NA,439,"226 E PN AMERIN CIR, MURRAY, UT, 84107","No_Match",NA,NA,NA,NA
124940,"226 E SEMINOLE PL","TULSA","OK",74106,36.181042237,-95.992998055,440,"226 E SEMINOLE PL, TULSA, OK, 74106","Match","Exact","226 E SEMINOLE PL, TULSA, OK, 74106",166436802,"R"
124941,"226 EAGLE RIDGE DRIVE - SUITE 506","LAKE WALES","FL",33859,NA,NA,441,"226 EAGLE RIDGE DRIVE - SUITE 506, LAKE WALES, FL, 33859","No_Match",NA,NA,NA,NA
124942,"226 EAST 12TH STREET SUITE 5J","NEW YORK","NY",10003,40.731449259,-73.9869378769999,442,"226 EAST 12TH STREET SUITE 5J, NEW YORK, NY, 10003","Match","Exact","226 E 12TH ST, NEW YORK, NY, 10003",59653708,"R"
124943,"226 EAST 54TH ST 7TH FL","NEW YORK","NY",10022,40.7580414920001,-73.968260546,443,"226 EAST 54TH ST 7TH FL, NEW YORK, NY, 10022","Match","Exact","226 E 54TH ST, NEW YORK, NY, 10022",59657506,"R"
124944,"226 EAST AVE","PARK RIDGE","IL",60068,42.0139483360001,-87.820667215,444,"226 EAST AVE, PARK RIDGE, IL, 60068","Match","Exact","226 EAST AVE, PARK RIDGE, IL, 60068",111733053,"L"
124945,"226 EASTVIEW DRIVE","PENDLETON","SC",29670,34.5855396860001,-82.719375183,445,"226 EASTVIEW DRIVE, PENDLETON, SC, 29670","Match","Exact","226 EASTVIEW DR, PENDLETON, SC, 29670",25449319,"R"
124946,"226 EATONTON HWY","GRAY","GA",31032,33.018876456,-83.531694573,446,"226 EATONTON HWY, GRAY, GA, 31032","Match","Exact","226 EATONTON HWY, GRAY, GA, 31032",65478611,"R"
124947,"226 ELMWOOD AVE SUITE 256","BUFFALO","NY",14222,42.9031989430001,-78.8771422299999,447,"226 ELMWOOD AVE SUITE 256, BUFFALO, NY, 14222","Match","Exact","226 ELMWOOD AVE, BUFFALO, NY, 14222",652649044,"L"
124948,"226 ELVIN CT","LANSING","MI",48912,42.735092346,-84.52502824,448,"226 ELVIN CT, LANSING, MI, 48912","Match","Exact","226 ELVIN CT, LANSING, MI, 48912",17500832,"R"
124949,"226 FELDSPAR DRIVE","SYRACUSE","NY",13219,43.0327400840001,-76.254094402,449,"226 FELDSPAR DRIVE, SYRACUSE, NY, 13219","Match","Exact","226 FELDSPAR DR, SYRACUSE, NY, 13219",46590605,"R"
124950,"226 FISCHER DR","WESTLAND","MI",48186,42.307861357,-83.4025267069999,450,"226 FISCHER DR, WESTLAND, MI, 48186","Match","Exact","226 FISCHER DR, WESTLAND, MI, 48186",95712296,"R"
124951,"226 FRANCIS ST","NEW WILMINGTON","PA",16142,41.1223619880001,-80.340000694,451,"226 FRANCIS ST, NEW WILMINGTON, PA, 16142","Match","Exact","226 FRANCIS ST, NEW WILMINGTON, PA, 16142",65178507,"R"
124952,"226 GAINESVILLE HWY","BLAIRSVILLE","GA",30512,34.8674093290001,-83.950819455,452,"226 GAINESVILLE HWY, BLAIRSVILLE, GA, 30512","Match","Exact","226 GAINESVILLE HWY, BLAIRSVILLE, GA, 30512",85276417,"L"
124953,"226 GLASGOW DR","SAINT JOHNS","FL",32259,NA,NA,453,"226 GLASGOW DR, SAINT JOHNS, FL, 32259","No_Match",NA,NA,NA,NA
124954,"226 GLOUCESTER DRIVE","MIDWAY","GA",31320,31.798294583,-81.43777332,454,"226 GLOUCESTER DRIVE, MIDWAY, GA, 31320","Match","Exact","226 GLOUCESTER DR, MIDWAY, GA, 31320",628077087,"L"
124955,"226 GOSHEN ROAD","RINCON","GA",31326,32.249280883,-81.2144334819999,455,"226 GOSHEN ROAD, RINCON, GA, 31326","Match","Exact","226 GOSHEN RD, RINCON, GA, 31326",618597995,"L"
124956,"226 GRANDVIEW AVE","MORGANTOWN","WV",26501,39.618103402,-79.9523584949999,456,"226 GRANDVIEW AVE, MORGANTOWN, WV, 26501","Match","Exact","226 GRANDVIEW AVE, MORGANTOWN, WV, 26501",50746603,"R"
124957,"226 GUILDS HOLLOW ROAD","BETHLEHEM","CT",6751,41.62587842,-73.226185973,457,"226 GUILDS HOLLOW ROAD, BETHLEHEM, CT, 6751","Match","Exact","226 GUILDS HOLLOW RD, BETHLEHEM, CT, 06751",3107161,"R"
124958,"226 GUSTY LANE","HOPKINS","SC",29061,33.973129912,-80.8740339399999,458,"226 GUSTY LANE, HOPKINS, SC, 29061","Match","Exact","226 GUSTY LN, HOPKINS, SC, 29061",71831389,"R"
124959,"226 HENDERSON LANE","TROUTVILLE","VA",24175,37.438605281,-79.963594926,459,"226 HENDERSON LANE, TROUTVILLE, VA, 24175","Match","Exact","226 HENDERSON LN, TROUTVILLE, VA, 24175",62469718,"R"
124960,"226 HEWINS STREET","SHEFFIELD","MA",1257,42.102291544,-73.3300023319999,460,"226 HEWINS STREET, SHEFFIELD, MA, 1257","Match","Exact","226 HEWINS ST, SHEFFIELD, MA, 01257",3947095,"L"
124961,"226 HIALEAH AVE","SAN ANTONIO","TX",78218,29.497427181,-98.4110165819999,461,"226 HIALEAH AVE, SAN ANTONIO, TX, 78218","Match","Exact","226 HIALEAH AVE, SAN ANTONIO, TX, 78218",101715754,"R"
124962,"226 HIGHWAY 39","INGRAM","TX",78025,30.073410333,-99.240132635,462,"226 HIGHWAY 39, INGRAM, TX, 78025","Match","Exact","226 HWY 39, INGRAM, TX, 78025",176900671,"L"
124963,"226 HUNTER LANE","ZEBULON","NC",27597,35.6881768220001,-78.327948087,463,"226 HUNTER LANE, ZEBULON, NC, 27597","Match","Exact","226 HUNTER LN, ZEBULON, NC, 27597",646737149,"R"
124964,"226 JET STREAM","TUSTIN","CA",92782,33.704397854,-117.803117812,464,"226 JET STREAM, TUSTIN, CA, 92782","Match","Exact","226 JET STREAM, TUSTIN, CA, 92782",624618571,"R"
124965,"226 KEARNEY STREET","PATERSON","NJ",7522,40.924629092,-74.1851379569999,465,"226 KEARNEY STREET, PATERSON, NJ, 7522","Match","Exact","226 KEARNEY ST, PATERSON, NJ, 07522",640087412,"R"
124966,"226 KENT STUDENT CENTER","KENT","OH",44242,NA,NA,466,"226 KENT STUDENT CENTER, KENT, OH, 44242","No_Match",NA,NA,NA,NA
124967,"226 KIMBERLY PLACE APT 3D","BRONX","NY",10463,40.87783239,-73.905975621,467,"226 KIMBERLY PLACE APT 3D, BRONX, NY, 10463","Match","Exact","226 KIMBERLY PL, BRONX, NY, 10463",80296150,"L"
124968,"226 KING ST","COCOA","FL",32922,28.355881497,-80.726717107,468,"226 KING ST, COCOA, FL, 32922","Match","Exact","226 KING ST, COCOA, FL, 32922",93894346,"R"
124969,"226 KNOB HILLS CIRCLE","DECATUR","GA",30030,33.7856400520001,-84.289880285,469,"226 KNOB HILLS CIRCLE, DECATUR, GA, 30030","Match","Exact","226 KNOB HILLS CIR, DECATUR, GA, 30030",642061687,"L"
124970,"226 KRAUSS AVE","HILO","HI",96720,19.72551444,-155.036989745,470,"226 KRAUSS AVE, HILO, HI, 96720","Match","Exact","226 KRAUSS AVE, HILO, HI, 96720",203001187,"R"
124971,"226 KREBS ROAD","PULASKI","NY",13142,43.525762833,-76.178040654,471,"226 KREBS ROAD, PULASKI, NY, 13142","Match","Exact","226 KREBS RD, PULASKI, NY, 13142",57801047,"L"
124972,"226 LACAMP LOOP","HINESTON","LA",71438,31.1589220810001,-92.9110281759999,472,"226 LACAMP LOOP, HINESTON, LA, 71438","Match","Exact","226 LACAMP LOOP, HINESTON, LA, 71438",13569374,"R"
124973,"226 LANSDOWNE DRIVE","SLIDELL","LA",70461,30.282668443,-89.715370432,473,"226 LANSDOWNE DRIVE, SLIDELL, LA, 70461","Match","Exact","226 LANSDOWNE DR, SLIDELL, LA, 70461",635840052,"R"
124974,"226 LAVEER STREET","PHILADELPHIA","PA",19120,40.045620994,-75.124112969,474,"226 LAVEER STREET, PHILADELPHIA, PA, 19120","Match","Exact","226 LAVEER ST, PHILADELPHIA, PA, 19120",131414326,"L"
124975,"226 LEXINGTON AVE","MOBILE","AL",36603,30.6955819790001,-88.069163786,475,"226 LEXINGTON AVE, MOBILE, AL, 36603","Match","Exact","226 LEXINGTON AVE, MOBILE, AL, 36603",61861050,"R"
124976,"226 LINCOLN ROAD","COCOA","FL",32926,28.3591261820001,-80.7896891409999,476,"226 LINCOLN ROAD, COCOA, FL, 32926","Match","Exact","226 LINCOLN RD, COCOA, FL, 32926",637815171,"L"
124977,"226 LINTON STREET","PHILADELPHIA","PA",19120,40.0414552830001,-75.124759576,477,"226 LINTON STREET, PHILADELPHIA, PA, 19120","Match","Exact","226 LINTON ST, PHILADELPHIA, PA, 19120",131414379,"L"
124978,"226 LONGFORD DR","ROCHESTER HILLS","MI",48309,42.67597822,-83.178186227,478,"226 LONGFORD DR, ROCHESTER HILLS, MI, 48309","Match","Exact","226 LONGFORD DR, ROCHESTER HILLS, MI, 48309",69710529,"R"
124979,"226 MADISON ST","RED BUD","IL",62278,38.2133954760001,-89.996537367,479,"226 MADISON ST, RED BUD, IL, 62278","Match","Exact","226 MADISON ST, RED BUD, IL, 62278",95171001,"R"
124980,"226 MAGIC OAKS DRIVE","SPRING","TX",77388,30.0459807190001,-95.436147911,480,"226 MAGIC OAKS DRIVE, SPRING, TX, 77388","Match","Exact","226 MAGIC OAKS DR, SPRING, TX, 77388",96147302,"L"
124981,"226 MAIN STREET","BARNESVILLE","GA",30204,33.0873976730001,-84.1767291359999,481,"226 MAIN STREET, BARNESVILLE, GA, 30204","Match","Exact","226 MAIN ST, BARNESVILLE, GA, 30204",66647978,"L"
124982,"226 MARILYN DRIVE","LAFAYETTE","LA",70503,30.196225736,-92.052519388,482,"226 MARILYN DRIVE, LAFAYETTE, LA, 70503","Match","Exact","226 MARILYN DR, LAFAYETTE, LA, 70503",85617874,"R"
124983,"226 MATTIX RUN","GALLOWAY","NJ",8205,39.474797236,-74.502337622,483,"226 MATTIX RUN, GALLOWAY, NJ, 8205","Match","Exact","226 MATTIX RUN, GALLOWAY, NJ, 08205",202509800,"L"
124984,"226 MCDANIEL STREET  SUITE 50","DAYTON","OH",45405,39.7684251750001,-84.196065768,484,"226 MCDANIEL STREET  SUITE 50, DAYTON, OH, 45405","Match","Exact","226 MCDANIEL ST, DAYTON, OH, 45405",143591502,"R"
124985,"226 MILFORD DRIVE","MIDDLETOWN","DE",19709,39.5069996980001,-75.660004779,485,"226 MILFORD DRIVE, MIDDLETOWN, DE, 19709","Match","Exact","226 MILFORD DR, MIDDLETOWN, DE, 19709",639860866,"R"
124986,"226 MILL CREEK COURT","SMYRNA","TN",37167,35.9490200870001,-86.477922986,486,"226 MILL CREEK COURT, SMYRNA, TN, 37167","Match","Exact","226 MILL CREEK CT, SMYRNA, TN, 37167",624897937,"L"
124987,"226 MORGAN AVENUE","COLLINGSWOOD","NJ",8108,39.921282488,-75.060582718,487,"226 MORGAN AVENUE, COLLINGSWOOD, NJ, 8108","Match","Exact","226 MORGAN AVE, COLLINGSWOOD, NJ, 08108",134349916,"R"
124988,"226 MT HWY 200 WEST","CIRCLE","MT",59215,NA,NA,488,"226 MT HWY 200 WEST, CIRCLE, MT, 59215","Tie",NA,NA,NA,NA
124989,"226 N 2ND ST","PORT HUENEME","CA",93041,34.1494493000001,-119.198503668,489,"226 N 2ND ST, PORT HUENEME, CA, 93041","Match","Exact","226 N 2ND ST, PORT HUENEME, CA, 93041",109956260,"R"
124990,"226 N 3RD ST","LEHIGHTON","PA",18235,40.8358300410001,-75.712384403,490,"226 N 3RD ST, LEHIGHTON, PA, 18235","Match","Exact","226 N 3RD ST, LEHIGHTON, PA, 18235",80620135,"L"
124991,"226 N MONTANA AVENUE","ABSAROKEE","MT",59001,45.524255892,-109.438506241,491,"226 N MONTANA AVENUE, ABSAROKEE, MT, 59001","Match","Exact","226 MONTANA AVE, ABSAROKEE, MT, 59001",181754432,"L"
124992,"226 N WALNUT STREET","CARMI","IL",62821,38.091337466,-88.1612141049999,492,"226 N WALNUT STREET, CARMI, IL, 62821","Match","Exact","226 N WALNUT ST, CARMI, IL, 62821",38221405,"R"
124993,"226 NANDINA COURT","FAYETTEVILLE","NY",28311,NA,NA,493,"226 NANDINA COURT, FAYETTEVILLE, NY, 28311","No_Match",NA,NA,NA,NA
124994,"226 NICHOLAS AVE","STATEN ISLAND","NY",10302,40.6344232820001,-74.140935849,494,"226 NICHOLAS AVE, STATEN ISLAND, NY, 10302","Match","Exact","226 NICHOLAS AVE, STATEN ISLAND, NY, 10302",59877540,"R"
124995,"226 NORTH CLINTON","CHICAGO","IL",60661,41.886040037,-87.641319386,495,"226 NORTH CLINTON, CHICAGO, IL, 60661","Match","Non_Exact","226 N CLINTON ST, CHICAGO, IL, 60661",111768549,"L"
124996,"226 NORTH HARVEY STREET","WASHINGTON","NC",27889,35.5420505600001,-77.0506811879999,496,"226 NORTH HARVEY STREET, WASHINGTON, NC, 27889","Match","Exact","226 N HARVEY ST, WASHINGTON, NC, 27889",67953530,"L"
124997,"226 NORTH JEWELL STREET","LIBERTY","MO",64068,39.248613967,-94.414366714,497,"226 NORTH JEWELL STREET, LIBERTY, MO, 64068","Match","Exact","226 N JEWELL ST, LIBERTY, MO, 64068",89760740,"L"
124998,"226 NORTH LINE STREET","CHURUBUSCO","IN",46723,41.2320665830001,-85.319233622,498,"226 NORTH LINE STREET, CHURUBUSCO, IN, 46723","Match","Exact","226 N LINE ST, CHURUBUSCO, IN, 46723",6645709,"R"
124999,"226 NORTH UNION AVENUE","HAVRE DE GRACE","MD",21078,39.549066248,-76.0916544949999,499,"226 NORTH UNION AVENUE, HAVRE DE GRACE, MD, 21078","Match","Exact","226 N UNION AVE, HAVRE DE GRACE, MD, 21078",647525797,"L"
125000,"226 OAK HEIGHTS ROAD","FRONT ROYAL","VA",22630,38.871919403,-78.147941795,500,"226 OAK HEIGHTS ROAD, FRONT ROYAL, VA, 22630","Match","Exact","226 OAK HEIGHTS RD, FRONT ROYAL, VA, 22630",225808723,"L"
