"ID","Address","City","State","Zip","lat","long","id","input_address","match_indicator","match_type","matched_address","tiger_line_id","tiger_side"
300501,"8343 TRIMMER WAY","SAC","CA",95828,38.4604964210001,-121.396809549,1,"8343 TRIMMER WAY, SAC, CA, 95828","Match","Non_Exact","8343 TRIMMER WAY, SACRAMENTO, CA, 95828",133373912,"R"
300502,"8344 AUBURN DRIVE","FT WORTH","TX",76123,32.62141833,-97.366696127,2,"8344 AUBURN DRIVE, FT WORTH, TX, 76123","Match","Exact","8344 AUBURN DR, FORT WORTH, TX, 76123",640622685,"R"
300503,"8344 BELMONT VALLEY ST","LAS VEGAS","NV",89123,36.0380772070001,-115.131000597,3,"8344 BELMONT VALLEY ST, LAS VEGAS, NV, 89123","Match","Exact","8344 BELMONT VALLEY ST, LAS VEGAS, NV, 89123",647576254,"L"
300504,"8344 CARIBOU TRAIL","CLARKSTON","MI",48348,42.7603355680001,-83.417624954,4,"8344 CARIBOU TRAIL, CLARKSTON, MI, 48348","Match","Non_Exact","8344 CARIBOU, CLARKSTON, MI, 48348",69692248,"R"
300505,"8344 CHAMPIONSHIP DR 302","MEMPHIS","TN",38125,35.052848769,-89.7851620879999,5,"8344 CHAMPIONSHIP DR 302, MEMPHIS, TN, 38125","Match","Exact","8344 CHAMPIONSHIP DR, MEMPHIS, TN, 38125",607465092,"R"
300506,"8344 YERMO WAY","SACRAMENTO","CA",95828,38.461147059,-121.396472572,6,"8344 YERMO WAY, SACRAMENTO, CA, 95828","Match","Exact","8344 YERMO WAY, SACRAMENTO, CA, 95828",133403348,"L"
300507,"8345 BLAKE STREET","GREENWOOD","LA",71033,32.4220503490001,-93.9443278959999,7,"8345 BLAKE STREET, GREENWOOD, LA, 71033","Match","Exact","8345 BLAKE ST, GREENWOOD, LA, 71033",57456291,"R"
300508,"8345 MERRILL ROAD","WHITMORE LAKE","MI",48189,42.404266459,-83.8182438219999,8,"8345 MERRILL ROAD, WHITMORE LAKE, MI, 48189","Match","Exact","8345 MERRILL RD, WHITMORE LAKE, MI, 48189",26010120,"L"
300509,"8345 NW 66TH STREET UNIT 9581","MIAMI","FL",33166,25.8334816300001,-80.332782918,9,"8345 NW 66TH STREET UNIT 9581, MIAMI, FL, 33166","Match","Non_Exact","8345 NW 66TH ST, MIAMI, FL, 33166",116264203,"L"
300510,"8345 PEPPERWOOD COURT","JACKSONVILLE","FL",32244,30.1954470110001,-81.756200292,10,"8345 PEPPERWOOD COURT, JACKSONVILLE, FL, 32244","Match","Exact","8345 PEPPERWOOD CT, JACKSONVILLE, FL, 32244",83940783,"R"
300511,"8345 RESEDA BLVD STE 202","NORTHRIDGE","CA",91324,34.2217649460001,-118.536083706,11,"8345 RESEDA BLVD STE 202, NORTHRIDGE, CA, 91324","Match","Exact","8345 RESEDA BLVD, NORTHRIDGE, CA, 91324",141541564,"L"
300512,"8345 RESEDA BLVD SUITE 101","NORTHRIDGE","CA",91324,34.2217649460001,-118.536083706,12,"8345 RESEDA BLVD SUITE 101, NORTHRIDGE, CA, 91324","Match","Exact","8345 RESEDA BLVD, NORTHRIDGE, CA, 91324",141541564,"L"
300513,"8345 RESEDA BLVD SUITE 209","NORTHRIDGE","CA",91324,34.2217649460001,-118.536083706,13,"8345 RESEDA BLVD SUITE 209, NORTHRIDGE, CA, 91324","Match","Exact","8345 RESEDA BLVD, NORTHRIDGE, CA, 91324",141541564,"L"
300514,"8345 RESEDA BLVD","NORTHRIDGE","CA",91324,34.2217649460001,-118.536083706,14,"8345 RESEDA BLVD, NORTHRIDGE, CA, 91324","Match","Exact","8345 RESEDA BLVD, NORTHRIDGE, CA, 91324",141541564,"L"
300515,"8345 S ASHLAND AVE STE 208124","CHICAGO","IL",60620,41.7422287520001,-87.6632237329999,15,"8345 S ASHLAND AVE STE 208124, CHICAGO, IL, 60620","Match","Non_Exact","8345 S ASHLAND AVE, CHICAGO, IL, 60620",111821358,"L"
300516,"8345 S DANTE AVE","CHICAGO","IL",60619,41.743064997,-87.589200885,16,"8345 S DANTE AVE, CHICAGO, IL, 60619","Match","Exact","8345 S DANTE AVE, CHICAGO, IL, 60619",616793460,"L"
300517,"8345 US HIGHWAY 127","SHERWOOD","OH",43556,NA,NA,17,"8345 US HIGHWAY 127, SHERWOOD, OH, 43556","No_Match",NA,NA,NA,NA
300518,"83458 PUERTO ESCONDIDO","COACHELLA","CA",92236,33.693773585,-116.209891959,18,"83458 PUERTO ESCONDIDO, COACHELLA, CA, 92236","Match","Non_Exact","83458 PUERTO ESCONDIDO AVE, COACHELLA, CA, 92236",608980132,"L"
300519,"8346 E RAMSEY RD","HEREFORD","AZ",85615,31.467255735,-110.173649464,19,"8346 E RAMSEY RD, HEREFORD, AZ, 85615","Match","Exact","8346 RAMSEY RD, HEREFORD, AZ, 85615",121027241,"L"
300520,"8346 ST RT 45","N BLOOMFIELD","OH",44450,41.448052729,-80.86859192,20,"8346 ST RT 45, N BLOOMFIELD, OH, 44450","Match","Non_Exact","8346 STATE RTE 45, N BLOOMFIELD, OH, 44450",117400742,"L"
300521,"8346 VALLEY LARK DR","SACRAMENTO","CA",95823,38.454438478,-121.438400901,21,"8346 VALLEY LARK DR, SACRAMENTO, CA, 95823","Match","Exact","8346 VALLEY LARK DR, SACRAMENTO, CA, 95823",133353166,"R"
300522,"8347 CHURCH ST","GILROY","CA",95020,37.018035841,-121.576534713,22,"8347 CHURCH ST, GILROY, CA, 95020","Match","Exact","8347 CHURCH ST, GILROY, CA, 95020",618187542,"L"
300523,"8347 S OGLESBY AVE","CHICAGO","IL",60617,41.7433717980001,-87.567313508,23,"8347 S OGLESBY AVE, CHICAGO, IL, 60617","Match","Exact","8347 S OGLESBY AVE, CHICAGO, IL, 60617",605558701,"L"
300524,"8347 WILLOWDALE WAY","FAIR OAKS","CA",95628,38.656248926,-121.253590091,24,"8347 WILLOWDALE WAY, FAIR OAKS, CA, 95628","Match","Exact","8347 WILLOWDALE WAY, FAIR OAKS, CA, 95628",133345762,"L"
300525,"8348 CALIFORNIA ST","OMAHA","NE",68114,41.2642308200001,-96.041152376,25,"8348 CALIFORNIA ST, OMAHA, NE, 68114","Match","Exact","8348 CALIFORNIA ST, OMAHA, NE, 68114",116980661,"R"
300526,"8348 FIELDS ERTEL ROAD","CINCINNATI","OH",45249,NA,NA,26,"8348 FIELDS ERTEL ROAD, CINCINNATI, OH, 45249","No_Match",NA,NA,NA,NA
300527,"8348 HIGH BRUSH DRIVE","DALLAS","TX",75249,32.649504672,-96.968601894,27,"8348 HIGH BRUSH DRIVE, DALLAS, TX, 75249","Match","Exact","8348 HIGH BRUSH DR, DALLAS, TX, 75249",103180198,"L"
300528,"8349 PLAINFIELD RD","CINCINNATI","OH",45246,NA,NA,28,"8349 PLAINFIELD RD, CINCINNATI, OH, 45246","No_Match",NA,NA,NA,NA
300529,"8349 SW 26TH STREET","MIRAMAR","FL",33025,25.9856319370001,-80.2535850099999,29,"8349 SW 26TH STREET, MIRAMAR, FL, 33025","Match","Exact","8349 SW 26TH ST, MIRAMAR, FL, 33025",617658938,"R"
300530,"834F S PERRY ST STE 551","CASTLE ROCK","CO",80104,39.364371212,-104.861440966,30,"834F S PERRY ST STE 551, CASTLE ROCK, CO, 80104","Match","Exact","834 S PERRY ST, CASTLE ROCK, CO, 80104",130814600,"R"
300531,"834F SOUTH PERRY ST STE 114","CASTLE ROCK","CO",80104,39.364371212,-104.861440966,31,"834F SOUTH PERRY ST STE 114, CASTLE ROCK, CO, 80104","Match","Exact","834 S PERRY ST, CASTLE ROCK, CO, 80104",130814600,"R"
300532,"835 137TH AVE","WAYLAND","MI",49348,42.6885061310001,-85.627451804,32,"835 137TH AVE, WAYLAND, MI, 49348","Match","Exact","835 137TH AVE, WAYLAND, MI, 49348",11417854,"R"
300533,"835 197TH PLACE","PELLA","IA",50219,41.401118389,-92.970305685,33,"835 197TH PLACE, PELLA, IA, 50219","Match","Exact","835 197TH PL, PELLA, IA, 50219",653234244,"R"
300534,"835 7TH AVE SW","FOREST LAKE","MN",55025,45.272113388,-92.994212383,34,"835 7TH AVE SW, FOREST LAKE, MN, 55025","Match","Exact","835 7TH AVE SW, FOREST LAKE, MN, 55025",97787758,"L"
300535,"835 ADDISON ST","WASHINGTON","PA",15301,40.1705365380001,-80.264409197,35,"835 ADDISON ST, WASHINGTON, PA, 15301","Match","Exact","835 ADDISON ST, WASHINGTON, PA, 15301",52802237,"L"
300536,"835 AHUWALE STREET","HONOLULU","HI",96821,21.2940774100001,-157.756556071,36,"835 AHUWALE STREET, HONOLULU, HI, 96821","Match","Exact","835 AHUWALE ST, HONOLULU, HI, 96821",203258360,"R"
300537,"835 AUTUMN BLUFFS","FAIRBURN","GA",30213,33.5484827700001,-84.498105806,37,"835 AUTUMN BLUFFS, FAIRBURN, GA, 30213","Match","Exact","835 AUTUMN BLUFFS, FAIRBURN, GA, 30213",636286112,"R"
300538,"835 BEDFORD RD","STOCKTON","CA",95204,37.9684974940001,-121.306265642,38,"835 BEDFORD RD, STOCKTON, CA, 95204","Match","Exact","835 BEDFORD RD, STOCKTON, CA, 95204",133883750,"R"
300539,"835 BIA ROAD 20","HALLIDAY","ND",58636,NA,NA,39,"835 BIA ROAD 20, HALLIDAY, ND, 58636","No_Match",NA,NA,NA,NA
300540,"835 BOONSHILL PETERSBURG RD/PO BOX","PETERSBURG","TN",37144,35.2957181580001,-86.6457397409999,40,"835 BOONSHILL PETERSBURG RD/PO BOX, PETERSBURG, TN, 37144","Match","Non_Exact","835 BOONSHILL PETERSBURG RD, PETERSBURG, TN, 37144",58317760,"R"
300541,"835 BURKE AVE NE","GRAND RAPIDS","MI",49503,42.977451278,-85.641448972,41,"835 BURKE AVE NE, GRAND RAPIDS, MI, 49503","Match","Exact","835 BURKE AVE NE, GRAND RAPIDS, MI, 49503",12460506,"L"
300542,"835 CAMP NORTH RD","SALEM","VA",24153,37.3099254960001,-80.0465533189999,42,"835 CAMP NORTH RD, SALEM, VA, 24153","Match","Exact","835 CAMP NORTH RD, SALEM, VA, 24153",62957995,"L"
300543,"835 CAROLINA PL","JACKSON","MO",63755,37.358407809,-89.700721803,43,"835 CAROLINA PL, JACKSON, MO, 63755","Match","Exact","835 CAROLINA PL, JACKSON, MO, 63755",646466024,"L"
300544,"835 CARROLL RD","MOSIER","OR",97040,45.6750969720001,-121.379726775,44,"835 CARROLL RD, MOSIER, OR, 97040","Match","Exact","835 CARROLL RD, MOSIER, OR, 97040",175550495,"L"
300545,"835 CENTRAL AVE SUITE 511","HOT SPRINGS","AR",71901,34.508293538,-93.054449284,45,"835 CENTRAL AVE SUITE 511, HOT SPRINGS, AR, 71901","Match","Exact","835 CENTRAL AVE, HOT SPRINGS, AR, 71901",22744510,"R"
300546,"835 CENTRAL PKWY","SCHENECTADY","NY",12309,42.8050653820001,-73.91226189,46,"835 CENTRAL PKWY, SCHENECTADY, NY, 12309","Match","Exact","835 CENTRAL PKWY, SCHENECTADY, NY, 12309",18029378,"L"
300547,"835 CLAY ST STE 112","SAN FRANCISCO","CA",94108,37.7941851200001,-122.406902288,47,"835 CLAY ST STE 112, SAN FRANCISCO, CA, 94108","Match","Exact","835 CLAY ST, SAN FRANCISCO, CA, 94108",192281211,"L"
300548,"835 CLUBVIEW BLVD N","COLUMBUS","OH",43235,40.1260453450001,-83.042014759,48,"835 CLUBVIEW BLVD N, COLUMBUS, OH, 43235","Match","Exact","835 CLUBVIEW BLVD N, COLUMBUS, OH, 43235",135567626,"L"
300549,"835 COLLINS STREET","EATON","CO",80615,40.5246691080001,-104.721450975,49,"835 COLLINS STREET, EATON, CO, 80615","Match","Exact","835 COLLINS ST, EATON, CO, 80615",188674586,"R"
300550,"835 DORCHESTER AVENUE","DORCHESTER","MA",2122,NA,NA,50,"835 DORCHESTER AVENUE, DORCHESTER, MA, 2122","No_Match",NA,NA,NA,NA
300551,"835 E 7TH ST APT 6","TUCSON","AZ",85719,32.2264618240001,-110.958867939,51,"835 E 7TH ST APT 6, TUCSON, AZ, 85719","Match","Non_Exact","835 E 7TH ST, TUCSON, AZ, 85719",121171279,"L"
300552,"835 E LAMAR BLVD 221","ARLINGTON","TX",76011,32.7657275080001,-97.097956585,52,"835 E LAMAR BLVD 221, ARLINGTON, TX, 76011","Match","Non_Exact","835 E LAMAR BLVD, ARLINGTON, TX, 76011",102138703,"L"
300553,"835 E LAMAR BLVD 294","ARLINGTON","TX",76011,32.7657275080001,-97.097956585,53,"835 E LAMAR BLVD 294, ARLINGTON, TX, 76011","Match","Non_Exact","835 E LAMAR BLVD, ARLINGTON, TX, 76011",102138703,"L"
300554,"835 E LAMAR BLVD 409","ARLINGTON","TX",76011,32.7657275080001,-97.097956585,54,"835 E LAMAR BLVD 409, ARLINGTON, TX, 76011","Match","Non_Exact","835 E LAMAR BLVD, ARLINGTON, TX, 76011",102138703,"L"
300555,"835 E NORWICH ST 5","MILWAUKEE","WI",53207,42.9718629990001,-87.898062268,55,"835 E NORWICH ST 5, MILWAUKEE, WI, 53207","Match","Non_Exact","835 E NORWICH ST, MILWAUKEE, WI, 53207",77754033,"R"
300556,"835 EAST 2ND AVENUE","ESCONDIDO","CA",92025,33.124564176,-117.070447737,56,"835 EAST 2ND AVENUE, ESCONDIDO, CA, 92025","Match","Exact","835 E 2ND AVE, ESCONDIDO, CA, 92025",195313664,"R"
300557,"835 EAST ELIZABETH AVENUE","LINDEN","NJ",7036,40.638175645,-74.244468979,57,"835 EAST ELIZABETH AVENUE, LINDEN, NJ, 7036","Match","Exact","835 E ELIZABETH AVE, LINDEN, NJ, 07036",60577116,"L"
300558,"835 EAST LAMAR BLVD SUITE 156","ARLINGTON","TX",76011,32.7657275080001,-97.097956585,58,"835 EAST LAMAR BLVD SUITE 156, ARLINGTON, TX, 76011","Match","Exact","835 E LAMAR BLVD, ARLINGTON, TX, 76011",102138703,"L"
300559,"835 EASTWAY DRIVE","CHARLOTTE","NC",28205,35.2456793270001,-80.7809691959999,59,"835 EASTWAY DRIVE, CHARLOTTE, NC, 28205","Match","Exact","835 EASTWAY DR, CHARLOTTE, NC, 28205",70481261,"L"
300560,"835 ELDORADO DRIVE","ESCONDIDO","CA",92025,33.1035891600001,-117.05254874,60,"835 ELDORADO DRIVE, ESCONDIDO, CA, 92025","Match","Exact","835 ELDORADO DR, ESCONDIDO, CA, 92025",195456190,"R"
300561,"835 ELM WAY","RIO VISTA","CA",94571,38.1628365350001,-121.696115079,61,"835 ELM WAY, RIO VISTA, CA, 94571","Match","Exact","835 ELM WAY, RIO VISTA, CA, 94571",192525878,"R"
300562,"835 FUGATE STREET","HOUSTON","TX",77009,29.7950741550001,-95.382613303,62,"835 FUGATE STREET, HOUSTON, TX, 77009","Match","Non_Exact","835 W FUGATE ST, HOUSTON, TX, 77009",96065338,"R"
300563,"835 GEORGIA AVE STE 800","CHATTANOOGA","TN",37402,35.04610267,-85.3080959229999,63,"835 GEORGIA AVE STE 800, CHATTANOOGA, TN, 37402","Match","Exact","835 GEORGIA AVE, CHATTANOOGA, TN, 37402",59304408,"R"
300564,"835 GLENWOOD AVE UNIT 1","CINCINNATI","OH",45229,39.147529524,-84.4875599699999,64,"835 GLENWOOD AVE UNIT 1, CINCINNATI, OH, 45229","Match","Exact","835 GLENWOOD AVE, CINCINNATI, OH, 45229",103925626,"R"
300565,"835 GLENWOOD AVE","CINCINNATI","OH",45229,39.147529524,-84.4875599699999,65,"835 GLENWOOD AVE, CINCINNATI, OH, 45229","Match","Exact","835 GLENWOOD AVE, CINCINNATI, OH, 45229",103925626,"R"
300566,"835 GREEN VALLEY ROAD","WATSONVILLE","CA",95076,NA,NA,66,"835 GREEN VALLEY ROAD, WATSONVILLE, CA, 95076","No_Match",NA,NA,NA,NA
300567,"835 GRIMES BRIDGE RD","ROSWELL","GA",30075,34.0207945450001,-84.346355605,67,"835 GRIMES BRIDGE RD, ROSWELL, GA, 30075","Match","Exact","835 GRIMES BRIDGE RD, ROSWELL, GA, 30075",17378459,"R"
300568,"835 HANOVER STREET SUITE 301","MANCHESTER","NH",3104,42.9878542170001,-71.429252516,68,"835 HANOVER STREET SUITE 301, MANCHESTER, NH, 3104","Match","Exact","835 HANOVER ST, MANCHESTER, NH, 03104",113552627,"R"
300569,"835 HERITAGE OAKS DR","STONE MOUNTAIN","GA",30088,33.7707818480001,-84.18871752,69,"835 HERITAGE OAKS DR, STONE MOUNTAIN, GA, 30088","Match","Exact","835 HERITAGE OAKS DR, STONE MOUNTAIN, GA, 30088",23386700,"R"
300570,"835 HESPERUS COURT","CHARLOTTE","NC",28216,35.2918889630001,-80.8723953799999,70,"835 HESPERUS COURT, CHARLOTTE, NC, 28216","Match","Non_Exact","835 HESPERUS PL, CHARLOTTE, NC, 28216",70475890,"L"
300571,"835 HOPE ST","WINNSBORO","TX",75494,NA,NA,71,"835 HOPE ST, WINNSBORO, TX, 75494","No_Match",NA,NA,NA,NA
300572,"835 JEFFERSON AVE","BROOKLYN","NY",11221,40.6861830930001,-73.924868582,72,"835 JEFFERSON AVE, BROOKLYN, NY, 11221","Match","Exact","835 JEFFERSON AVE, BROOKLYN, NY, 11221",59082832,"L"
300573,"835 KENNERLY ROAD","IRMO","SC",29063,34.0998051980001,-81.1602626439999,73,"835 KENNERLY ROAD, IRMO, SC, 29063","Match","Exact","835 KENNERLY RD, IRMO, SC, 29063",618422301,"L"
300574,"835 LAKESIDE CIRCLE","COVINGTON","GA",30016,33.6088843700001,-83.9631460809999,74,"835 LAKESIDE CIRCLE, COVINGTON, GA, 30016","Match","Exact","835 LAKESIDE CIR, COVINGTON, GA, 30016",23627736,"R"
300575,"835 LEE STREET NORTHEAST","OWATONNA","MN",55060,44.1120613200001,-93.2088894839999,75,"835 LEE STREET NORTHEAST, OWATONNA, MN, 55060","Match","Exact","835 LEE ST NE, OWATONNA, MN, 55060",38181888,"R"
300576,"835 LENOXPLACE CIRCLE","RALEIGH","NC",27603,35.7237350770001,-78.6585935689999,76,"835 LENOXPLACE CIRCLE, RALEIGH, NC, 27603","Match","Exact","835 LENOXPLACE CIR, RALEIGH, NC, 27603",648795545,"L"
300577,"835 LINCOLN WAY","AUBURN","CA",95603,38.900391988,-121.068233948,77,"835 LINCOLN WAY, AUBURN, CA, 95603","Match","Exact","835 LINCOLN WAY, AUBURN, CA, 95603",106772282,"L"
300578,"835 MASON ST STE A220","DEARBORN","MI",48124,42.3075299830001,-83.246796675,78,"835 MASON ST STE A220, DEARBORN, MI, 48124","Match","Exact","835 MASON ST, DEARBORN, MI, 48124",95440732,"L"
300579,"835 MASON ST","DEARBORN","MI",48124,42.3075299830001,-83.246796675,79,"835 MASON ST, DEARBORN, MI, 48124","Match","Exact","835 MASON ST, DEARBORN, MI, 48124",95440732,"L"
300580,"835 MASON ST","DEARBORN","MI",48126,42.3075299830001,-83.246796675,80,"835 MASON ST, DEARBORN, MI, 48126","Match","Non_Exact","835 MASON ST, DEARBORN, MI, 48124",95440732,"L"
300581,"835 MONMOUTH DRIVE","STONE MOUNTAIN","GA",30083,33.8017815220001,-84.222772613,81,"835 MONMOUTH DRIVE, STONE MOUNTAIN, GA, 30083","Match","Exact","835 MONMOUTH DR, STONE MOUNTAIN, GA, 30083",23364159,"R"
300582,"835 MONTECRUZ DRIVE","LAWRENCEVILLE","GA",30045,33.911818161,-83.986517148,82,"835 MONTECRUZ DRIVE, LAWRENCEVILLE, GA, 30045","Match","Non_Exact","835 MONTECRUZ DR SW, LAWRENCEVILLE, GA, 30045",88938011,"R"
300583,"835 N 210TH ST","ARCADIA","KS",66711,37.6209379200001,-94.72212744,83,"835 N 210TH ST, ARCADIA, KS, 66711","Match","Exact","835 N 210TH ST, ARCADIA, KS, 66711",33436926,"L"
300584,"835 N HWY 27","ROOPVILLE","GA",30170,33.46454878,-85.122549593,84,"835 N HWY 27, ROOPVILLE, GA, 30170","Match","Non_Exact","835 US HWY 27, ROOPVILLE, GA, 30170",17132516,"L"
300585,"835 N KATHLEEN LANE APT A","ORANGE","CA",92867,NA,NA,85,"835 N KATHLEEN LANE APT A, ORANGE, CA, 92867","No_Match",NA,NA,NA,NA
300586,"835 N PLEASANT DR","ADDISON","IL",60101,41.9430953730001,-88.000857073,86,"835 N PLEASANT DR, ADDISON, IL, 60101","Match","Exact","835 PLEASANT DR, ADDISON, IL, 60101",112524166,"R"
300587,"835 N PLEASANT VALLEY RD","AUSTIN","TX",78702,30.2643382380001,-97.7081846569999,87,"835 N PLEASANT VALLEY RD, AUSTIN, TX, 78702","Match","Exact","835 N PLEASANT VALLEY RD, AUSTIN, TX, 78702",649002865,"R"
300588,"835 NE 78TH ST","SEATTLE","WA",98115,47.6852947890001,-122.319624486,88,"835 NE 78TH ST, SEATTLE, WA, 98115","Match","Exact","835 NE 78TH ST, SEATTLE, WA, 98115",186580544,"R"
300589,"835 NE 82ND ST","MIAMI","FL",33138,25.8502832830001,-80.179416185,89,"835 NE 82ND ST, MIAMI, FL, 33138","Match","Exact","835 NE 82ND ST, MIAMI, FL, 33138",116008404,"L"
300590,"835 NE HOLMAN ST","PORTLAND","OR",97211,45.5683196100001,-122.656879764,90,"835 NE HOLMAN ST, PORTLAND, OR, 97211","Match","Exact","835 NE HOLMAN ST, PORTLAND, OR, 97211",157502427,"L"
300591,"835 NW 119TH STREET","GAINESVILLE","FL",32606,29.6608522430001,-82.4687048229999,91,"835 NW 119TH STREET, GAINESVILLE, FL, 32606","Match","Exact","835 NW 119 ST, GAINESVILLE, FL, 32606",6854987,"L"
300592,"835 NW 167 STREET","MIAMI GARDENS","FL",33169,25.927570401,-80.221016657,92,"835 NW 167 STREET, MIAMI GARDENS, FL, 33169","Match","Exact","835 NW 167TH ST, MIAMI GARDENS, FL, 33169",116269360,"R"
300593,"835 NW 56TH ST","SEATTLE","WA",98107,47.6694244510001,-122.367077865,93,"835 NW 56TH ST, SEATTLE, WA, 98107","Match","Exact","835 NW 56TH ST, SEATTLE, WA, 98107",186579120,"L"
300594,"835 OGLETHORPE AVENUE SW NO  505","ATLANTA","GA",30310,33.7358403420001,-84.4158554529999,94,"835 OGLETHORPE AVENUE SW NO  505, ATLANTA, GA, 30310","Match","Exact","835 OGLETHORPE AVE SW, ATLANTA, GA, 30310",647334345,"R"
300595,"835 OLD COUNTRY ROAD","WESTBURY","NY",11590,40.7525472500001,-73.566411436,95,"835 OLD COUNTRY ROAD, WESTBURY, NY, 11590","Match","Exact","835 OLD COUNTRY RD, WESTBURY, NY, 11590",147824752,"L"
300596,"835 PURDUE LN","MATTESON","IL",60443,41.5100413260001,-87.7488982089999,96,"835 PURDUE LN, MATTESON, IL, 60443","Match","Exact","835 PURDUE LN, MATTESON, IL, 60443",111707875,"L"
300597,"835 RAVINE TERRACE DR","ROCHESTER HILLS","MI",48307,42.669821411,-83.1510508389999,97,"835 RAVINE TERRACE DR, ROCHESTER HILLS, MI, 48307","Match","Exact","835 RAVINE TERRACE DR, ROCHESTER HILLS, MI, 48307",69711354,"R"
300598,"835 RICHARDS RD","WAYNE","PA",19087,40.093161584,-75.4200224309999,98,"835 RICHARDS RD, WAYNE, PA, 19087","Match","Exact","835 RICHARDS RD, WAYNE, PA, 19087",647584029,"R"
300599,"835 RICHMOND ST NW","GRAND RAPIDS","MI",49504,42.992527012,-85.6898059809999,99,"835 RICHMOND ST NW, GRAND RAPIDS, MI, 49504","Match","Exact","835 RICHMOND ST NW, GRAND RAPIDS, MI, 49504",12455611,"R"
300600,"835 S ABILENE","VALLEY CENTER","KS",67147,NA,NA,100,"835 S ABILENE, VALLEY CENTER, KS, 67147","No_Match",NA,NA,NA,NA
300601,"835 S FASHION BLVD","HAHNVILLE","LA",70057,NA,NA,101,"835 S FASHION BLVD, HAHNVILLE, LA, 70057","No_Match",NA,NA,NA,NA
300602,"835 S LUCERNE BLVD ATP 112","HARBOR CITY","CA",90005,NA,NA,102,"835 S LUCERNE BLVD ATP 112, HARBOR CITY, CA, 90005","No_Match",NA,NA,NA,NA
300603,"835 SE 30TH ST","OKLAHOMA CITY","OK",73129,35.4343900100001,-97.4964677629999,103,"835 SE 30TH ST, OKLAHOMA CITY, OK, 73129","Match","Exact","835 SE 30TH ST, OKLAHOMA CITY, OK, 73129",100404007,"L"
300604,"835 SHARON DRIVE SUITE 400","WESTLAKE","OH",44145,41.472124471,-81.891086889,104,"835 SHARON DRIVE SUITE 400, WESTLAKE, OH, 44145","Match","Exact","835 SHARON DR, WESTLAKE, OH, 44145",638719363,"L"
300605,"835 SHEMBRI LANE","EAST PALO ALTO","CA",94303,37.467014836,-122.136247266,105,"835 SHEMBRI LANE, EAST PALO ALTO, CA, 94303","Match","Non_Exact","835 SCHEMBRI LN, E PALO ALTO, CA, 94303",627025003,"L"
300606,"835 SKI MOUNTAIN ROAD","GATLINBURG","TN",37738,35.709250034,-83.538368277,106,"835 SKI MOUNTAIN ROAD, GATLINBURG, TN, 37738","Match","Exact","835 SKI MOUNTAIN RD, GATLINBURG, TN, 37738",608149335,"L"
300607,"835 STONE ST","CAMP LEJEUNE","NC",28547,NA,NA,107,"835 STONE ST, CAMP LEJEUNE, NC, 28547","No_Match",NA,NA,NA,NA
300608,"835 STONE ST","CAMP","NC",28547,NA,NA,108,"835 STONE ST, CAMP, NC, 28547","No_Match",NA,NA,NA,NA
300609,"835 SYCAMORE STREET - H8","TITUSVILLE","FL",32780,28.596158512,-80.812524557,109,"835 SYCAMORE STREET - H8, TITUSVILLE, FL, 32780","Match","Exact","835 SYCAMORE ST, TITUSVILLE, FL, 32780",93891414,"L"
300610,"835 SYCAMORE STREET H8","TITUSVILLE","FL",32780,28.596158512,-80.812524557,110,"835 SYCAMORE STREET H8, TITUSVILLE, FL, 32780","Match","Exact","835 SYCAMORE ST, TITUSVILLE, FL, 32780",93891414,"L"
300611,"835 SYCAMORE STREET","TITUSVILLE","FL",32780,28.596158512,-80.812524557,111,"835 SYCAMORE STREET, TITUSVILLE, FL, 32780","Match","Exact","835 SYCAMORE ST, TITUSVILLE, FL, 32780",93891414,"L"
300612,"835 VALENTIN","FALL RIVER","MA",2720,NA,NA,112,"835 VALENTIN, FALL RIVER, MA, 2720","No_Match",NA,NA,NA,NA
300613,"835 VARDON COURT","FARIBAULT","MN",55021,44.3001616990001,-93.25510411,113,"835 VARDON COURT, FARIBAULT, MN, 55021","Match","Exact","835 VARDON CT, FARIBAULT, MN, 55021",37324497,"L"
300614,"835 W HOPI DR","COOLIDGE","AZ",85128,32.988922992,-111.531054705,114,"835 W HOPI DR, COOLIDGE, AZ, 85128","Match","Exact","835 W HOPI DR, COOLIDGE, AZ, 85128",129179586,"L"
300615,"835 W WARNER RD 101-476","GILBERT","AZ",85233,33.3353586650001,-111.807976575,115,"835 W WARNER RD 101-476, GILBERT, AZ, 85233","Match","Non_Exact","835 W WARNER RD, GILBERT, AZ, 85233",128271821,"R"
300616,"835 W WARNER RD 101-476","GILBERT","IL",85233,NA,NA,116,"835 W WARNER RD 101-476, GILBERT, IL, 85233","No_Match",NA,NA,NA,NA
300617,"835 W WARNER RD 186","GILBERT","AZ",85233,33.3353586650001,-111.807976575,117,"835 W WARNER RD 186, GILBERT, AZ, 85233","Match","Non_Exact","835 W WARNER RD, GILBERT, AZ, 85233",128271821,"R"
300618,"835 W WARNER RD","GILBERT","AZ",85233,33.3353586650001,-111.807976575,118,"835 W WARNER RD, GILBERT, AZ, 85233","Match","Exact","835 W WARNER RD, GILBERT, AZ, 85233",128271821,"R"
300619,"835 WAYSIDE DRIVE","LAWRENCEVILLE","GA",30046,33.947890097,-83.97229533,119,"835 WAYSIDE DRIVE, LAWRENCEVILLE, GA, 30046","Match","Exact","835 WAYSIDE DR, LAWRENCEVILLE, GA, 30046",88903018,"R"
300620,"835 WEST 176 STREET STE 1D","NEW YORK","NY",10033,40.8474985230001,-73.9412411709999,120,"835 WEST 176 STREET STE 1D, NEW YORK, NY, 10033","Match","Exact","835 W 176TH ST, NEW YORK, NY, 10033",59655484,"R"
300621,"835 WHITNEY AVE","MEMPHIS","TN",38103,35.2082821920001,-90.036012928,121,"835 WHITNEY AVE, MEMPHIS, TN, 38103","Match","Non_Exact","835 WHITNEY AVE, MEMPHIS, TN, 38127",72902054,"R"
300622,"835 WILD HORSE CREEK ROAD","WILDWOOD","MO",63005,38.629222482,-90.707748173,122,"835 WILD HORSE CREEK ROAD, WILDWOOD, MO, 63005","Match","Exact","835 WILD HORSE CREEK RD, WILDWOOD, MO, 63005",100167983,"R"
300623,"835 WILSON HOLLOW RD","LIBERTY","TN",37095,36.033001605,-85.984882619,123,"835 WILSON HOLLOW RD, LIBERTY, TN, 37095","Match","Exact","835 WILSON HOLLOW RD, LIBERTY, TN, 37095",34199107,"R"
300624,"8350 164TH AVE NE","REDMOND","WA",98052,47.6772052100001,-122.121597067,124,"8350 164TH AVE NE, REDMOND, WA, 98052","Match","Exact","8350 164TH AVE NE, REDMOND, WA, 98052",186610588,"R"
300625,"8350 BEE RIDGE RD    197","SARASOTA","FL",34241,NA,NA,125,"8350 BEE RIDGE RD    197, SARASOTA, FL, 34241","No_Match",NA,NA,NA,NA
300626,"8350 COMMERCE WAY STE 328","MIAMI LAKES","FL",33016,25.902106738,-80.333405215,126,"8350 COMMERCE WAY STE 328, MIAMI LAKES, FL, 33016","Match","Exact","8350 COMMERCE WAY, MIAMI LAKES, FL, 33016",116249843,"R"
300627,"8350 EAST JULIA STREET","TUCSON","AZ",85710,32.216887172,-110.81315816,127,"8350 EAST JULIA STREET, TUCSON, AZ, 85710","Match","Exact","8350 E JULIA ST, TUCSON, AZ, 85710",121183479,"R"
300628,"8350 FLAMEVINE AVE","SEMINOLE","FL",33777,27.845175951,-82.755301257,128,"8350 FLAMEVINE AVE, SEMINOLE, FL, 33777","Match","Exact","8350 FLAMEVINE AVE, SEMINOLE, FL, 33777",124692423,"L"
300629,"8350 FOREST LANE","DALLAS","TX",75243,32.9091379720001,-96.7604410119999,129,"8350 FOREST LANE, DALLAS, TX, 75243","Match","Exact","8350 FOREST LN, DALLAS, TX, 75243",103244311,"R"
300630,"8350 FRANKSTOWN AVE","PITTSBURGH","PA",15221,40.45634105,-79.8785612089999,130,"8350 FRANKSTOWN AVE, PITTSBURGH, PA, 15221","Match","Exact","8350 FRANKSTOWN AVE, PITTSBURGH, PA, 15221",607611805,"R"
300631,"8350 MOUNT VERNON STREET","LEMON GROVE","CA",91945,32.731852168,-117.020444831,131,"8350 MOUNT VERNON STREET, LEMON GROVE, CA, 91945","Match","Exact","8350 MOUNT VERNON ST, LEMON GROVE, CA, 91945",195360006,"L"
300632,"8350 N CENTRAL EXPRESSWAY STE 1500","DALLAS","TX",75206,32.71336969,-96.753597273,132,"8350 N CENTRAL EXPRESSWAY STE 1500, DALLAS, TX, 75206","Match","Non_Exact","8350 CENTRAL EXPY, DALLAS, TX, 75241",103193823,"L"
300633,"8350 N CENTRAL EXPY STE 1900","DALLAS","TX",75206,32.71336969,-96.753597273,133,"8350 N CENTRAL EXPY STE 1900, DALLAS, TX, 75206","Match","Non_Exact","8350 CENTRAL EXPY, DALLAS, TX, 75241",103193823,"L"
300634,"8350 N CENTRAL EXPY SUITE 925","DALLAS","TX",75206,32.71336969,-96.753597273,134,"8350 N CENTRAL EXPY SUITE 925, DALLAS, TX, 75206","Match","Non_Exact","8350 CENTRAL EXPY, DALLAS, TX, 75241",103193823,"L"
300635,"8350 NW 52 TERRACE SUITE 301","DORAL","FL",33166,25.820333471,-80.3327172749999,135,"8350 NW 52 TERRACE SUITE 301, DORAL, FL, 33166","Match","Non_Exact","8350 NW 52ND TER, DORAL, FL, 33166",637645500,"L"
300636,"8350 NW 52ND TERRACE SUITE 301 1003","MIAMI","FL",33166,25.820333471,-80.3327172749999,136,"8350 NW 52ND TERRACE SUITE 301 1003, MIAMI, FL, 33166","Match","Non_Exact","8350 NW 52ND TER, MIAMI, FL, 33166",637645500,"L"
300637,"8350 SE 74TH CT","TRENTON","FL",32693,29.617317789,-82.682996906,137,"8350 SE 74TH CT, TRENTON, FL, 32693","Match","Exact","8350 SE 74TH CT, TRENTON, FL, 32693",40986556,"R"
300638,"8350 W DESERT INN ROAD","LAS VEGAS","NV",89117,36.1294712800001,-115.274563383,138,"8350 W DESERT INN ROAD, LAS VEGAS, NV, 89117","Match","Exact","8350 W DESERT INN RD, LAS VEGAS, NV, 89117",201949167,"R"
300639,"8350 W ROLSTON RD","LINDEN","MI",48451,42.824851476,-83.838209841,139,"8350 W ROLSTON RD, LINDEN, MI, 48451","Match","Exact","8350 ROLSTON RD, LINDEN, MI, 48451",69557977,"R"
300640,"8350 WEST DESERT INN ROAD","LAS VEGAS","NV",89117,36.1294710610001,-115.274552498,140,"8350 WEST DESERT INN ROAD, LAS VEGAS, NV, 89117","Match","Exact","8350 W DESERT INN RD, LAS VEGAS, NV, 89117",201949167,"R"
300641,"8351 B GREENSBORO DRIVE","MCLEAN","VA",22102,38.9282220160001,-77.235976079,141,"8351 B GREENSBORO DRIVE, MCLEAN, VA, 22102","Match","Exact","8351 GREENSBORO DR, MCLEAN, VA, 22102",647381117,"L"
300642,"8351 CAMINITTI LANE","PENSACOLA","FL",32514,30.5140463980001,-87.204305962,142,"8351 CAMINITTI LANE, PENSACOLA, FL, 32514","Match","Exact","8351 CAMINITTI LN, PENSACOLA, FL, 32514",617456407,"L"
300643,"8351 CANARY DRIVE","KALAMAZOO","MI",49009,42.1960022150001,-85.6654577419999,143,"8351 CANARY DRIVE, KALAMAZOO, MI, 49009","Match","Exact","8351 CANARY DR, KALAMAZOO, MI, 49009",12241767,"L"
300644,"8351 DAKOTA DR","WEST DES MOINES","IA",50266,41.577474824,-93.822312143,144,"8351 DAKOTA DR, WEST DES MOINES, IA, 50266","Match","Exact","8351 DAKOTA DR, WEST DES MOINES, IA, 50266",640608930,"L"
300645,"8351 N BANK STREET","PORTLAND","OR",97203,45.59983852,-122.747109584,145,"8351 N BANK STREET, PORTLAND, OR, 97203","Match","Exact","8351 N BANK ST, PORTLAND, OR, 97203",157597542,"R"
300646,"8351 S COUNTY RD 650 E","MOORESVILLE","IN",46158,39.633374755,-86.407232901,146,"8351 S COUNTY RD 650 E, MOORESVILLE, IN, 46158","Match","Exact","8351 S CO RD 650 E, MOORESVILLE, IN, 46158",642891372,"R"
300647,"8351 STATE ROUTE 417","LITTLE GENESEE","NY",14754,42.024221934,-78.2099463009999,147,"8351 STATE ROUTE 417, LITTLE GENESEE, NY, 14754","Match","Exact","8351 STATE RTE 417, LITTLE GENESEE, NY, 14754",82600332,"R"
300648,"8351 W CINNABAR AVE","PEORIA","AZ",85345,33.575405721,-112.238990509,148,"8351 W CINNABAR AVE, PEORIA, AZ, 85345","Match","Exact","8351 W CINNABAR AVE, PEORIA, AZ, 85345",128420754,"R"
300649,"8351 WEXFORD WAY","MONTGOMERY","AL",36117,32.378357814,-86.15867946,149,"8351 WEXFORD WAY, MONTGOMERY, AL, 36117","Match","Exact","8351 WEXFORD WAY, MONTGOMERY, AL, 36117",1546602,"L"
300650,"8352 INNSBROOK DRIVE","TALLAHASSEE","FL",32312,30.586069191,-84.232446782,150,"8352 INNSBROOK DRIVE, TALLAHASSEE, FL, 32312","Match","Exact","8352 INNSBROOK DR, TALLAHASSEE, FL, 32312",82900168,"L"
300651,"8352 KIMBALL AVE BLDG F350 HANGAR 3","CHINO","CA",91708,33.9687665880001,-117.622585433,151,"8352 KIMBALL AVE BLDG F350 HANGAR 3, CHINO, CA, 91708","Match","Exact","8352 KIMBALL AVE, CHINO, CA, 91708",614810982,"L"
300652,"8352 KINGSTON PIKE","KNOXVILLE","TN",37919,35.9234423730001,-84.057837766,152,"8352 KINGSTON PIKE, KNOXVILLE, TN, 37919","Match","Exact","8352 KINGSTON PIKE, KNOXVILLE, TN, 37919",604624665,"L"
300653,"8352 NORWALK BLVD","WHITTIER","CA",90606,33.966799344,-118.070872779,153,"8352 NORWALK BLVD, WHITTIER, CA, 90606","Match","Exact","8352 NORWALK BLVD, WHITTIER, CA, 90606",142793382,"L"
300654,"8352 SW 25TH COURT","MIRAMAR","FL",33025,25.9866207850001,-80.25390685,154,"8352 SW 25TH COURT, MIRAMAR, FL, 33025","Match","Exact","8352 SW 25TH CT, MIRAMAR, FL, 33025",617658677,"R"
300655,"8353 90TH AVENUE 235","PLEASANT PRAIRIE","WI",53158,42.552220576,-87.916121533,155,"8353 90TH AVENUE 235, PLEASANT PRAIRIE, WI, 53158","Match","Exact","8353 90TH AVE, PLEASANT PRAIRIE, WI, 53158",649660153,"R"
300656,"8353 INGRAM LANE","HIXSON","TN",37343,35.217120363,-85.173457292,156,"8353 INGRAM LANE, HIXSON, TN, 37343","Match","Exact","8353 INGRAM LN, HIXSON, TN, 37343",618920788,"R"
300657,"8353 SANDPOINT BLVD","ORLANDO","FL",32819,28.4529720420001,-81.496698861,157,"8353 SANDPOINT BLVD, ORLANDO, FL, 32819","Match","Exact","8353 SANDPOINT BLVD, ORLANDO, FL, 32819",94326689,"R"
300658,"8353 UNIVERSITY BLVD","MOON TOWNSHIP","PA",15108,40.5086126360001,-80.223113402,158,"8353 UNIVERSITY BLVD, MOON TOWNSHIP, PA, 15108","Match","Exact","8353 UNIVERSITY BLVD, MOON TOWNSHIP, PA, 15108",607681809,"L"
300659,"8353 UNIVERSITY BOULEVARD","MOON TOWNSHIP","PA",15108,40.5086126360001,-80.223113402,159,"8353 UNIVERSITY BOULEVARD, MOON TOWNSHIP, PA, 15108","Match","Exact","8353 UNIVERSITY BLVD, MOON TOWNSHIP, PA, 15108",607681809,"L"
300660,"8353 WINDERSVILLE DR","BARTLETT","TN",38133,35.223303441,-89.784258263,160,"8353 WINDERSVILLE DR, BARTLETT, TN, 38133","Match","Exact","8353 WINDERSVILLE DR, BARTLETT, TN, 38133",639514236,"R"
300661,"8354 CHICKADEE LN","CLOVIS","CA",93619,36.8578150820001,-119.542347007,161,"8354 CHICKADEE LN, CLOVIS, CA, 93619","Match","Exact","8354 CHICKADEE LN, CLOVIS, CA, 93619",197590397,"R"
300662,"8354 E NORTHFIELD BLVD UNIT 2710","DENVER","CO",80238,39.785242506,-104.891375496,162,"8354 E NORTHFIELD BLVD UNIT 2710, DENVER, CO, 80238","Match","Exact","8354 NORTHFIELD BLVD, DENVER, CO, 80238",650196031,"R"
300663,"8354 MAPLE VALLEY DR","FISH CREEK","WI",54212,45.07820997,-87.2504095469999,163,"8354 MAPLE VALLEY DR, FISH CREEK, WI, 54212","Match","Exact","8354 MAPLE VALLEY DR, FISH CREEK, WI, 54212",629008735,"L"
300664,"8354 S KARLOV AVE","CHICAGO","IL",60652,41.7410069520001,-87.724076628,164,"8354 S KARLOV AVE, CHICAGO, IL, 60652","Match","Exact","8354 S KARLOV AVE, CHICAGO, IL, 60652",605314411,"R"
300665,"8354 SIX FORKS RD 204","RALEIGH","NC",27615,35.8928657280001,-78.648756943,165,"8354 SIX FORKS RD 204, RALEIGH, NC, 27615","Match","Exact","8354 SIX FORKS RD, RALEIGH, NC, 27615",208362297,"R"
300666,"83541 JENSEN LANE","FLORENCE","OR",97439,43.9052161160001,-124.094891547,166,"83541 JENSEN LANE, FLORENCE, OR, 97439","Match","Exact","83541 JENSEN LN, FLORENCE, OR, 97439",651044175,"L"
300667,"8355 ARROYO VISTA DRIVE","SACRAMENTO","CA",94823,38.4598900780001,-121.426333577,167,"8355 ARROYO VISTA DRIVE, SACRAMENTO, CA, 94823","Match","Non_Exact","8355 ARROYO VISTA DR, SACRAMENTO, CA, 95823",133353296,"R"
300668,"8355 COURT AVENUE","ELLIICOTT CITY","MD",21043,39.2680734360001,-76.798917057,168,"8355 COURT AVENUE, ELLIICOTT CITY, MD, 21043","Match","Non_Exact","8355 COURT AVE, ELLICOTT CITY, MD, 21043",158934992,"L"
300669,"8355 DOUBLETREE DR NORTH","CROWN POINT","IN",46307,41.433284095,-87.235269499,169,"8355 DOUBLETREE DR NORTH, CROWN POINT, IN, 46307","Match","Exact","8355 DOUBLETREE DR N, CROWN POINT, IN, 46307",635880638,"R"
300670,"8355 ROUTE 819","GREENSBURG","PA",15601,NA,NA,170,"8355 ROUTE 819, GREENSBURG, PA, 15601","No_Match",NA,NA,NA,NA
300671,"8355 SEQUOIA WAY","FORT WORTH","TX",76137,32.890734755,-97.27670944,171,"8355 SEQUOIA WAY, FORT WORTH, TX, 76137","Match","Exact","8355 SEQUOIA WAY, FORT WORTH, TX, 76137",102086448,"L"
300672,"8355 WILLOW VALLEY PLACE","GRANITE BAY","CA",95746,38.7918713280001,-121.14422966,172,"8355 WILLOW VALLEY PLACE, GRANITE BAY, CA, 95746","Match","Exact","8355 WILLOW VALLEY PL, GRANITE BAY, CA, 95746",106778636,"R"
300673,"8356 ROSWELL RD APT T","ATLANTA","GA",30350,33.984209363,-84.350461066,173,"8356 ROSWELL RD APT T, ATLANTA, GA, 30350","Match","Exact","8356 ROSWELL RD, ATLANTA, GA, 30350",648700632,"L"
300674,"8356 SO GREEN","CHICAGO","IL",60620,NA,NA,174,"8356 SO GREEN, CHICAGO, IL, 60620","No_Match",NA,NA,NA,NA
300675,"8356 TOM DRIVE","BATON ROUGE","LA",70816,30.468087256,-91.1001011719999,175,"8356 TOM DRIVE, BATON ROUGE, LA, 70816","Match","Non_Exact","8356 TOM DR, BATON ROUGE, LA, 70815",92188990,"R"
300676,"8356 WADES WAY","JESSUP","MD",20797,39.167408729,-76.796874335,176,"8356 WADES WAY, JESSUP, MD, 20797","Match","Non_Exact","8356 WADES WAY, JESSUP, MD, 20794",158932891,"L"
300677,"8357 BERKSHIRE PLACE","LIBERTY TOWNSHIP","OH",45044,39.393070773,-84.3471332839999,177,"8357 BERKSHIRE PLACE, LIBERTY TOWNSHIP, OH, 45044","Match","Exact","8357 BERKSHIRE PL, LIBERTY TOWNSHIP, OH, 45044",604776736,"L"
300678,"8357 EXTON RD","INDIANAPOLIS","IN",46239,39.740768088,-86.01989243,178,"8357 EXTON RD, INDIANAPOLIS, IN, 46239","Match","Exact","8357 EXTON RD, INDIANAPOLIS, IN, 46239",624119869,"R"
300679,"8357 HILLTOP RD","JONESBORO","GA",30236,33.5260476120001,-84.33840288,179,"8357 HILLTOP RD, JONESBORO, GA, 30236","Match","Exact","8357 HILLTOP RD, JONESBORO, GA, 30236",23317240,"R"
300680,"8357 N 56TH DRIVE","GLENDALE","AZ",85302,33.5571676210001,-112.180167451,180,"8357 N 56TH DRIVE, GLENDALE, AZ, 85302","Match","Exact","8357 N 56TH DR, GLENDALE, AZ, 85302",128837960,"L"
300681,"8357 W AGUA FRIA DR","GOLDEN VALLEY","AZ",86413,NA,NA,181,"8357 W AGUA FRIA DR, GOLDEN VALLEY, AZ, 86413","No_Match",NA,NA,NA,NA
300682,"8358 BUD HAWKINS RD","CORRYTON","TN",37721,36.1069851130001,-83.785481152,182,"8358 BUD HAWKINS RD, CORRYTON, TN, 37721","Match","Exact","8358 BUD HAWKINS RD, CORRYTON, TN, 37721",653290658,"L"
300683,"8358 N MT TABOR RD","ELLETTSVILLE","IN",47429,39.2892817210001,-86.6254187499999,183,"8358 N MT TABOR RD, ELLETTSVILLE, IN, 47429","Match","Exact","8358 N MT TABOR RD, ELLETTSVILLE, IN, 47429",647308130,"L"
300684,"8358 SANCTUARY LANE","FERNANDINA BEACH","FL",32034,30.522278994,-81.444453079,184,"8358 SANCTUARY LANE, FERNANDINA BEACH, FL, 32034","Match","Exact","8358 SANCTUARY LN, FERNANDINA BCH, FL, 32034",84119385,"L"
300685,"8358 W OAKLAND PARK BLVD SUITE 205","SUNRISE","FL",33351,26.167328953,-80.2616343619999,185,"8358 W OAKLAND PARK BLVD SUITE 205, SUNRISE, FL, 33351","Match","Non_Exact","8358 W OAKLAND PARK BLVD, SUNRISE, FL, 33351",637116691,"R"
300686,"8359 ANGORA MOUNTAIN RD","LESLIE","AR",72645,35.7964830060001,-92.39583979,186,"8359 ANGORA MOUNTAIN RD, LESLIE, AR, 72645","Match","Exact","8359 ANGORA MOUNTAIN RD, LESLIE, AR, 72645",2242564,"L"
300687,"8359 BEACON BLVD STE 200","FT MYERS","FL",33907,26.5719256,-81.866977323,187,"8359 BEACON BLVD STE 200, FT MYERS, FL, 33907","Match","Exact","8359 BEACON BLVD, FORT MYERS, FL, 33907",118026737,"R"
300688,"8359 BEACON BLVD SUITE 324","FORT MYERS","FL",33907,26.5719256,-81.866977323,188,"8359 BEACON BLVD SUITE 324, FORT MYERS, FL, 33907","Match","Exact","8359 BEACON BLVD, FORT MYERS, FL, 33907",118026737,"R"
300689,"8359 BEACON BLVD","FORT MYERS","FL",33907,26.5719256,-81.866977323,189,"8359 BEACON BLVD, FORT MYERS, FL, 33907","Match","Exact","8359 BEACON BLVD, FORT MYERS, FL, 33907",118026737,"R"
300690,"8359 ELK GROVE FLORIN RD  103 -128","SACRAMENTO","CA",95829,NA,NA,190,"8359 ELK GROVE FLORIN RD  103 -128, SACRAMENTO, CA, 95829","No_Match",NA,NA,NA,NA
300691,"8359 ELK GROVE FLORIN RD SUITE 103","SACRAMENTO","CA",95829,NA,NA,191,"8359 ELK GROVE FLORIN RD SUITE 103, SACRAMENTO, CA, 95829","No_Match",NA,NA,NA,NA
300692,"8359 ELK GROVE FLORIN ROAD","SACRAMENTO","CA",95829,38.454267842,-121.371634294,192,"8359 ELK GROVE FLORIN ROAD, SACRAMENTO, CA, 95829","Match","Exact","8359 ELK GROVE FLORIN RD, SACRAMENTO, CA, 95829",133446472,"L"
300693,"8359 SPRINGTREE RD","JACKSONVILLE","FL",32210,30.264968971,-81.788114788,193,"8359 SPRINGTREE RD, JACKSONVILLE, FL, 32210","Match","Exact","8359 SPRINGTREE RD, JACKSONVILLE, FL, 32210",83926306,"R"
300694,"8359 SYCAMORE RD","MILLERSVILLE","MD",21108,39.1120251900001,-76.595512523,194,"8359 SYCAMORE RD, MILLERSVILLE, MD, 21108","Match","Exact","8359 SYCAMORE RD, MILLERSVILLE, MD, 21108",68161805,"L"
300695,"8359 SYCAMORE ROAD","MILLERSVILLE","MD",21108,39.1120251900001,-76.595512523,195,"8359 SYCAMORE ROAD, MILLERSVILLE, MD, 21108","Match","Exact","8359 SYCAMORE RD, MILLERSVILLE, MD, 21108",68161805,"L"
300696,"835B WEST GLORIA SWITCH RD","LAFAYETTE","LA",70507,30.297133509,-92.0317249989999,196,"835B WEST GLORIA SWITCH RD, LAFAYETTE, LA, 70507","Match","Exact","835 W GLORIA SWITCH RD, LAFAYETTE, LA, 70507",649861968,"L"
300697,"835C FAIRDALE RD","SALINA","KS",67401,38.823722956,-97.5715690169999,197,"835C FAIRDALE RD, SALINA, KS, 67401","Match","Exact","835 FAIRDALE RD, SALINA, KS, 67401",196696989,"R"
300698,"836 57TH ST STE 423","SACRAMENTO","CA",95819,38.566480588,-121.433092054,198,"836 57TH ST STE 423, SACRAMENTO, CA, 95819","Match","Exact","836 57TH ST, SACRAMENTO, CA, 95819",133335148,"R"
300699,"836 57TH STREET SUITE 201","SACRAMENTO","CA",95819,38.566480588,-121.433092054,199,"836 57TH STREET SUITE 201, SACRAMENTO, CA, 95819","Match","Exact","836 57TH ST, SACRAMENTO, CA, 95819",133335148,"R"
300700,"836 57TH STREET SUITE 491","SACRAMENTO","CA",95819,38.566480588,-121.433092054,200,"836 57TH STREET SUITE 491, SACRAMENTO, CA, 95819","Match","Exact","836 57TH ST, SACRAMENTO, CA, 95819",133335148,"R"
300701,"836 ANACAPA STREET 275","SANTA BARBARA","CA",93102,34.4211787240001,-119.698851134,201,"836 ANACAPA STREET 275, SANTA BARBARA, CA, 93102","Match","Exact","836 ANACAPA ST, SANTA BARBARA, CA, 93102",108621253,"R"
300702,"836 BEECHWOOD DR","TIPP CITY","OH",45371,39.9479195800001,-84.180849955,202,"836 BEECHWOOD DR, TIPP CITY, OH, 45371","Match","Exact","836 BEECHWOOD DR, TIPP CITY, OH, 45371",135306717,"R"
300703,"836 BERGEN ST PH1","BROOKLYN","NY",11238,40.67769765,-73.960005571,203,"836 BERGEN ST PH1, BROOKLYN, NY, 11238","Match","Exact","836 BERGEN ST, BROOKLYN, NY, 11238",59078437,"R"
300704,"836 BURNHAM RD","EAST THETFORD","VT",5043,43.792980039,-72.239566881,204,"836 BURNHAM RD, EAST THETFORD, VT, 5043","Match","Exact","836 BURNHAM RD, EAST THETFORD, VT, 05043",649803992,"L"
300705,"836 CENTENNIAL AVE","SEWICKLEY","PA",15143,40.5380783900001,-80.17640326,205,"836 CENTENNIAL AVE, SEWICKLEY, PA, 15143","Match","Exact","836 CENTENNIAL AVE, SEWICKLEY, PA, 15143",51612214,"R"
300706,"836 CHARDONEY DR","WADSWORTH","OH",44281,40.996201252,-81.7175531519999,206,"836 CHARDONEY DR, WADSWORTH, OH, 44281","Match","Exact","836 CHARDONEY DR, WADSWORTH, OH, 44281",58693632,"L"
300707,"836 CR 2131","NACOGDOCHES","TX",75965,NA,NA,207,"836 CR 2131, NACOGDOCHES, TX, 75965","No_Match",NA,NA,NA,NA
300708,"836 CRAIG FOREST LN","KIRKWOOD","MO",63122,38.5694405200001,-90.4281639559999,208,"836 CRAIG FOREST LN, KIRKWOOD, MO, 63122","Match","Exact","836 CRAIG FOREST LN, KIRKWOOD, MO, 63122",100177754,"L"
300709,"836 DUCK HAWK RETREAT","CHARLESTON","SC",29412,32.737973057,-79.915737177,209,"836 DUCK HAWK RETREAT, CHARLESTON, SC, 29412","Match","Exact","836 DUCK HAWK RETREAT, CHARLESTON, SC, 29412",640623445,"L"
300710,"836 E RENFRO ST BOX 82","BURLESON","TX",76028,NA,NA,210,"836 E RENFRO ST BOX 82, BURLESON, TX, 76028","Tie",NA,NA,NA,NA
300711,"836 E RENFRO STREET / 95","BURLESON","TX",76028,NA,NA,211,"836 E RENFRO STREET / 95, BURLESON, TX, 76028","Tie",NA,NA,NA,NA
300712,"836 EASTERN PARKWAY APT 1A","BROOKLYN","NY",11213,40.6691103970001,-73.940644509,212,"836 EASTERN PARKWAY APT 1A, BROOKLYN, NY, 11213","Match","Exact","836 EASTERN PKWY, BROOKLYN, NY, 11213",640852663,"L"
300713,"836 GENOA WAY","SAN MARCOS","CA",92078,33.0998836540001,-117.189344727,213,"836 GENOA WAY, SAN MARCOS, CA, 92078","Match","Exact","836 GENOA WAY, SAN MARCOS, CA, 92078",195763033,"R"
300714,"836 GERTRUDE BROWN PL","MINNEAPOLIS","MN",55411,NA,NA,214,"836 GERTRUDE BROWN PL, MINNEAPOLIS, MN, 55411","No_Match",NA,NA,NA,NA
300715,"836 GRANT STREET","GARY","IN",91614,41.5957526970001,-87.356977864,215,"836 GRANT STREET, GARY, IN, 91614","Match","Non_Exact","836 GRANT ST, GARY, IN, 46404",98426031,"R"
300716,"836 HAGUE AVE","ST PAUL","MN",55104,44.945776102,-93.135489034,216,"836 HAGUE AVE, ST PAUL, MN, 55104","Match","Exact","836 HAGUE AVE, SAINT PAUL, MN, 55104",97646716,"L"
300717,"836 KNOX STREET","BIRMINGHAM","MI",48009,42.5478799460001,-83.208555377,217,"836 KNOX STREET, BIRMINGHAM, MI, 48009","Match","Exact","836 KNOX ST, BIRMINGHAM, MI, 48009",69734320,"R"
300718,"836 MARYKNOLL DR","LOCKPORT","IL",60441,41.607498293,-88.0416529829999,218,"836 MARYKNOLL DR, LOCKPORT, IL, 60441","Match","Exact","836 MARYKNOLL DR, LOCKPORT, IL, 60441",111632959,"L"
300719,"836 MILLER DRIVE","DOVER","DE",19901,39.1790921240001,-75.518437566,219,"836 MILLER DRIVE, DOVER, DE, 19901","Match","Exact","836 MILLER DR, DOVER, DE, 19901",68087721,"R"
300720,"836 MONTGOMERY ST  APTA12","BROOKLYN","NY",11213,40.664652527,-73.9372934689999,220,"836 MONTGOMERY ST  APTA12, BROOKLYN, NY, 11213","Match","Exact","836 MONTGOMERY ST, BROOKLYN, NY, 11213",59079810,"R"
300721,"836 N MAIN","LUMBERTON","TX",77657,NA,NA,221,"836 N MAIN, LUMBERTON, TX, 77657","No_Match",NA,NA,NA,NA
300722,"836 NORD AVE","BAKERSFIELD","CA",93314,35.365623333,-119.198785869,222,"836 NORD AVE, BAKERSFIELD, CA, 93314","Match","Exact","836 NORD AVE, BAKERSFIELD, CA, 93314",109080576,"L"
300723,"836 NW 12TH ST","MIAMI","FL",33136,25.7855588570001,-80.2095083409999,223,"836 NW 12TH ST, MIAMI, FL, 33136","Match","Non_Exact","836 NW 12TH ST, MIAMI, FL, 33136",116016224,"L"
300724,"836 OCEAN VIEW DRIVE","HONOLULU","HI",96816,21.2754281260001,-157.799092685,224,"836 OCEAN VIEW DRIVE, HONOLULU, HI, 96816","Match","Exact","836 OCEAN VIEW DR, HONOLULU, HI, 96816",203242745,"L"
300725,"836 OLDE ORCHARD DRIVE","TALLMADGE","OH",44278,41.0885604900001,-81.413276659,225,"836 OLDE ORCHARD DRIVE, TALLMADGE, OH, 44278","Match","Exact","836 OLDE ORCHARD DR, TALLMADGE, OH, 44278",61393161,"R"
300726,"836 PENNSYLVANIA AVE","MEDFORD","OR",97501,42.326715994,-122.888440866,226,"836 PENNSYLVANIA AVE, MEDFORD, OR, 97501","Match","Exact","836 PENNSYLVANIA AVE, MEDFORD, OR, 97501",155512434,"R"
300727,"836 PRIOR AVENUE","ST PAUL","MN",55104,44.9661591990001,-93.182277206,227,"836 PRIOR AVENUE, ST PAUL, MN, 55104","Match","Non_Exact","836 N PRIOR AVE, SAINT PAUL, MN, 55104",97641160,"R"
300728,"836 PRIOR AVENUE","ST. PAUL","MN",55104,44.9661591990001,-93.182277206,228,"836 PRIOR AVENUE, ST. PAUL, MN, 55104","Match","Non_Exact","836 N PRIOR AVE, SAINT PAUL, MN, 55104",97641160,"R"
300729,"836 QUASH STREET","HAMPTON","VA",23669,37.0346661190001,-76.3478711609999,229,"836 QUASH STREET, HAMPTON, VA, 23669","Match","Exact","836 QUASH ST, HAMPTON, VA, 23669",647929658,"R"
300730,"836 RACHELLE DR","RED OAK","TX",75154,32.521815007,-96.746648416,230,"836 RACHELLE DR, RED OAK, TX, 75154","Match","Exact","836 RACHELLE DR, RED OAK, TX, 75154",644492053,"L"
300731,"836 S 1770 W","OREM","UT",84058,40.2822211770001,-111.73767648,231,"836 S 1770 W, OREM, UT, 84058","Match","Non_Exact","836 S 1770 W, OREM, UT, 84059",616580629,"L"
300732,"836 S 395TH AVENUE","TONOPAH","AZ",85354,33.4400851390001,-112.902398785,232,"836 S 395TH AVENUE, TONOPAH, AZ, 85354","Match","Exact","836 S 395TH AVE, TONOPAH, AZ, 85354",645996343,"R"
300733,"836 SHERIDAN AVE","CODY","WY",82414,44.5260498490001,-109.070445428,233,"836 SHERIDAN AVE, CODY, WY, 82414","Match","Exact","836 SHERIDAN AVE, CODY, WY, 82414",618039289,"R"
300734,"836 SOUTHAMPTON ROAD B200","BENICIA","CA",94510,38.0669197080001,-122.165802883,234,"836 SOUTHAMPTON ROAD B200, BENICIA, CA, 94510","Match","Exact","836 SOUTHAMPTON RD, BENICIA, CA, 94510",192550955,"R"
300735,"836 STONEWALL AVE","TRINIDAD","CO",81082,37.1682925960001,-104.519069176,235,"836 STONEWALL AVE, TRINIDAD, CO, 81082","Match","Exact","836 STONEWALL AVE, TRINIDAD, CO, 81082",112752420,"L"
300736,"836 TILDEN STREET SUITE B","BRONX","NY",10469,40.876856049,-73.8609061669999,236,"836 TILDEN STREET SUITE B, BRONX, NY, 10469","Match","Non_Exact","836 TILDEN ST, BRONX, NY, 10467",80297349,"R"
300737,"836 W MONTROSE STREER","CLERMONT","FL",34711,NA,NA,237,"836 W MONTROSE STREER, CLERMONT, FL, 34711","No_Match",NA,NA,NA,NA
300738,"836 W VUELTA GRANADINA","SAHUARITA","AZ",85629,31.9934862700001,-110.985109978,238,"836 W VUELTA GRANADINA, SAHUARITA, AZ, 85629","Match","Exact","836 W VUELTA GRANADINA, SAHUARITA, AZ, 85629",638559387,"R"
300739,"836 WATERWORKS ROAD","FREEHOLD","NJ",7728,40.280834042,-74.286467624,239,"836 WATERWORKS ROAD, FREEHOLD, NJ, 7728","Match","Exact","836 WATERWORKS RD, FREEHOLD, NJ, 07728",90445506,"L"
300740,"836 WEST COMPTON","COMPTON","CA",90220,33.895886852,-118.238412635,240,"836 WEST COMPTON, COMPTON, CA, 90220","Match","Non_Exact","836 W COMPTON BLVD, COMPTON, CA, 90220",141675038,"L"
300741,"836 WEST ROXBURY PARKWAY","CHESTNUT HILL","MA",2467,NA,NA,241,"836 WEST ROXBURY PARKWAY, CHESTNUT HILL, MA, 2467","No_Match",NA,NA,NA,NA
300742,"836 WEST SPRING MEADOW CT","EDGEWOOD","MD",21040,39.427283693,-76.324067938,242,"836 WEST SPRING MEADOW CT, EDGEWOOD, MD, 21040","Match","Exact","836 W SPRING MEADOW CT, EDGEWOOD, MD, 21040",191648471,"R"
300743,"836 WEST STATE STREET","EL CENTRO","CA",92243,32.791793075,-115.562680116,243,"836 WEST STATE STREET, EL CENTRO, CA, 92243","Match","Exact","836 W STATE ST, EL CENTRO, CA, 92243",194494109,"L"
300744,"836 WHITNEY DRIVE","PADUCAH","KY",42001,37.0709313880001,-88.6709366589999,244,"836 WHITNEY DRIVE, PADUCAH, KY, 42001","Match","Exact","836 WHITNEY DR, PADUCAH, KY, 42001",651603884,"R"
300745,"836 WISCONSIN AVE","BOSCOBEL","WI",53805,43.135888499,-90.705757263,245,"836 WISCONSIN AVE, BOSCOBEL, WI, 53805","Match","Exact","836 WISCONSIN AVE, BOSCOBEL, WI, 53805",32766522,"L"
300746,"836-B SOUTHAMPTON ROAD PMB 142","BENICIA","CA",94510,38.0669197080001,-122.165802883,246,"836-B SOUTHAMPTON ROAD PMB 142, BENICIA, CA, 94510","Match","Exact","836 SOUTHAMPTON RD, BENICIA, CA, 94510",192550955,"R"
300747,"836","NEW ALBANY","MS",38652,NA,NA,247,"836, NEW ALBANY, MS, 38652","No_Match",NA,NA,NA,NA
300748,"8360 E RAINTREE DRIVE SUITE 115","SCOTTSDALE","AZ",85260,NA,NA,248,"8360 E RAINTREE DRIVE SUITE 115, SCOTTSDALE, AZ, 85260","No_Match",NA,NA,NA,NA
300749,"8360 PHILADELPHIA AVE","SPRING HILL","FL",34608,28.458910942,-82.580300166,249,"8360 PHILADELPHIA AVE, SPRING HILL, FL, 34608","Match","Exact","8360 PHILADELPHIA AVE, SPRING HILL, FL, 34608",85438684,"L"
300750,"8360 W FLAGLER ST STE 201","MIAMI","FL",33144,25.7697077300001,-80.3313445699999,250,"8360 W FLAGLER ST STE 201, MIAMI, FL, 33144","Match","Non_Exact","8360 W FLAGLER ST, MIAMI, FL, 33144",115974345,"L"
300751,"8361  NORTHGATE  ST   21","CANOGA PARK","CA",91304,34.2215956050001,-118.604034251,251,"8361  NORTHGATE  ST   21, CANOGA PARK, CA, 91304","Match","Non_Exact","8361 NORTHGATE AVE, CANOGA PARK, CA, 91304",141533108,"L"
300752,"8361 CHARLOTTE HWY","INDIAN LAND","SC",29707,34.9545023700001,-80.851941536,252,"8361 CHARLOTTE HWY, INDIAN LAND, SC, 29707","Match","Exact","8361 CHARLOTTE HWY, INDIAN LAND, SC, 29707",606678448,"L"
300753,"8361 CUPPLES TRAIL","SNOWFLAKE","AZ",85937,34.604316747,-109.997258334,253,"8361 CUPPLES TRAIL, SNOWFLAKE, AZ, 85937","Match","Exact","8361 CUPPLES TRL, SNOWFLAKE, AZ, 85937",172623252,"R"
300754,"8361 EARL CIRCLE W","JACKSONVILLE","FL",32219,30.402380232,-81.7397227989999,254,"8361 EARL CIRCLE W, JACKSONVILLE, FL, 32219","Match","Exact","8361 EARL CIR W, JACKSONVILLE, FL, 32219",83887506,"R"
300755,"8361 ETIWANDA AVE","NORTHRIDGE","CA",91325,34.222607897,-118.531718109,255,"8361 ETIWANDA AVE, NORTHRIDGE, CA, 91325","Match","Exact","8361 ETIWANDA AVE, NORTHRIDGE, CA, 91325",141541614,"L"
300756,"8361 GAITHER STREET","MANASSAS","VA",20110,38.7750813010001,-77.4819670429999,256,"8361 GAITHER STREET, MANASSAS, VA, 20110","Match","Exact","8361 GAITHER ST, MANASSAS, VA, 20110",76538340,"L"
300757,"8361 ISLA VISTA VALLEY CT","LAS VEGAS","NV",89178,NA,NA,257,"8361 ISLA VISTA VALLEY CT, LAS VEGAS, NV, 89178","No_Match",NA,NA,NA,NA
300758,"8361 MERCADO STREET","NAVARRE","FL",32566,30.415880572,-86.872545459,258,"8361 MERCADO STREET, NAVARRE, FL, 32566","Match","Exact","8361 MERCADO ST, NAVARRE, FL, 32566",74569493,"R"
300759,"8362 BRANCH HWY","BRANCH","LA",70516,30.349188392,-92.2699886349999,259,"8362 BRANCH HWY, BRANCH, LA, 70516","Match","Exact","8362 BRANCH HWY, BRANCH, LA, 70516",88314230,"L"
300760,"8362 COLLINSTON ROAD","BASTROPO","LA",71220,32.728659441,-91.8834179839999,260,"8362 COLLINSTON ROAD, BASTROPO, LA, 71220","Match","Non_Exact","8362 COLLINSTON RD, BASTROP, LA, 71220",75380467,"R"
300761,"8362 PINES BLVD   SUITE 467","PEMBROKE PINES","FL",33024,NA,NA,261,"8362 PINES BLVD   SUITE 467, PEMBROKE PINES, FL, 33024","No_Match",NA,NA,NA,NA
300762,"8362 PINES BLVD STE 333","PEMBROKE PINES","FL",33024,NA,NA,262,"8362 PINES BLVD STE 333, PEMBROKE PINES, FL, 33024","No_Match",NA,NA,NA,NA
300763,"8362 PINES BLVD UNIT 171","PEMBROKE PINES","FL",33024,NA,NA,263,"8362 PINES BLVD UNIT 171, PEMBROKE PINES, FL, 33024","No_Match",NA,NA,NA,NA
300764,"8362 STOCKTON AVENUE","PENNSAUKEN","NJ",8109,39.9602781450001,-75.024091474,264,"8362 STOCKTON AVENUE, PENNSAUKEN, NJ, 8109","Match","Exact","8362 STOCKTON AVE, PENNSAUKEN, NJ, 08109",134345318,"R"
300765,"8362 TAMARACK VILLAGE STE 119","WOODBURY","MN",55125,44.938040641,-92.9380026859999,265,"8362 TAMARACK VILLAGE STE 119, WOODBURY, MN, 55125","Match","Exact","8362 TAMARACK VILLAGE, WOODBURY, MN, 55125",234988563,"R"
300766,"8362 TRIAD CIRCLE","SACRAMENTO","CA",95828,38.4592410760001,-121.39749972,266,"8362 TRIAD CIRCLE, SACRAMENTO, CA, 95828","Match","Exact","8362 TRIAD CIR, SACRAMENTO, CA, 95828",133404693,"R"
300767,"8363 WEST SUNSET ROAD SUITE 200","LAS VEGAS","NV",89113,36.070335481,-115.273860328,267,"8363 WEST SUNSET ROAD SUITE 200, LAS VEGAS, NV, 89113","Match","Exact","8363 W SUNSET RD, LAS VEGAS, NV, 89113",651187821,"L"
300768,"8364 HICKMAN ROAD","CLIVE","IA",50325,41.6148005330001,-93.7327126019999,268,"8364 HICKMAN ROAD, CLIVE, IA, 50325","Match","Exact","8364 HICKMAN RD, CLIVE, IA, 50325",65839488,"R"
300769,"8364 INDIAN HEAD HWY B1","FORT WASHINGTON","MD",20744,38.7727530330001,-76.9956729199999,269,"8364 INDIAN HEAD HWY B1, FORT WASHINGTON, MD, 20744","Match","Exact","8364 INDIAN HEAD HWY, FT WASHINGTON, MD, 20744",639368112,"L"
300770,"8364 KUTER AVE","JBER","AK",99506,61.2414689450001,-149.826139929,270,"8364 KUTER AVE, JBER, AK, 99506","Match","Exact","8364 KUTER AVE, JBER, AK, 99506",190796206,"L"
300771,"8364 UXBRIDGE COURT","SPRINGFIELD","VA",22151,38.8016833450001,-77.232450077,271,"8364 UXBRIDGE COURT, SPRINGFIELD, VA, 22151","Match","Exact","8364 UXBRIDGE CT, SPRINGFIELD, VA, 22151",75976046,"L"
300772,"8364 VIA SONOMA UNIT F","LA JOLLA","CA",92037,32.857141859,-117.231290426,272,"8364 VIA SONOMA UNIT F, LA JOLLA, CA, 92037","Match","Exact","8364 VIA SONOMA, LA JOLLA, CA, 92037",645510000,"L"
300773,"8365 CAPEL DRIVE","PASADENA","MD",21122,39.1162142430001,-76.458634812,273,"8365 CAPEL DRIVE, PASADENA, MD, 21122","Match","Exact","8365 CAPEL DR, PASADENA, MD, 21122",68209536,"R"
300774,"8365 KING WILLIAM ST","CORDOVA","TN",38016,35.179153097,-89.7842275739999,274,"8365 KING WILLIAM ST, CORDOVA, TN, 38016","Match","Exact","8365 KING WILLIAM ST, CORDOVA, TN, 38016",72951908,"L"
300775,"8365 MINERAL SPRING DRIVE","MANASSAS","VA",20112,38.7269417420001,-77.451323023,275,"8365 MINERAL SPRING DRIVE, MANASSAS, VA, 20112","Match","Exact","8365 MINERAL SPRINGS DR, MANASSAS, VA, 20112",635834676,"L"
300776,"8365 QUAY DRIVE","ARVADA","CO",80003,39.847823713,-105.069979402,276,"8365 QUAY DRIVE, ARVADA, CO, 80003","Match","Exact","8365 QUAY DR, ARVADA, CO, 80003",640551266,"L"
300777,"8365 SW 112TH ST","MIAMI","FL",33156,25.6662053950001,-80.330053777,277,"8365 SW 112TH ST, MIAMI, FL, 33156","Match","Exact","8365 SW 112TH ST, MIAMI, FL, 33156",115984784,"R"
300778,"8365 WEST 1ST STREET","LOS ANGELES","CA",90048,34.074482518,-118.372290106,278,"8365 WEST 1ST STREET, LOS ANGELES, CA, 90048","Match","Exact","8365 W 1ST ST, LOS ANGELES, CA, 90048",141598228,"R"
300779,"8366 GOLF GREEN CIR UNIT 2","HOUSTON","TX",77036,29.710065722,-95.52756293,279,"8366 GOLF GREEN CIR UNIT 2, HOUSTON, TX, 77036","Match","Exact","8366 GOLF GREEN CIR, HOUSTON, TX, 77036",96295842,"R"
300780,"8366 GOLF LANE DR","COMMERCE TWP","MI",48382,42.599915771,-83.450841426,280,"8366 GOLF LANE DR, COMMERCE TWP, MI, 48382","Match","Exact","8366 GOLF LANE DR, COMMERCE TOWNSHIP, MI, 48382",69695147,"R"
300781,"8366 NORTH RAISINA AVE","FRESNO","CA",93720,36.8574371380001,-119.778207876,281,"8366 NORTH RAISINA AVE, FRESNO, CA, 93720","Match","Exact","8366 N RAISINA AVE, FRESNO, CA, 93720",197572825,"R"
300782,"8366 W STATE RD 65","HAZLETON","IN",47670,NA,NA,282,"8366 W STATE RD 65, HAZLETON, IN, 47670","No_Match",NA,NA,NA,NA
300783,"8367 STAVENGER COVE","CORDOVA","TN",38018,35.128941013,-89.784151934,283,"8367 STAVENGER COVE, CORDOVA, TN, 38018","Match","Exact","8367 STAVENGER COVE, CORDOVA, TN, 38018",72945864,"L"
300784,"8367 WOODSTOCK DRIVE","GREENWOOD","LA",71033,32.4236208900001,-93.945484482,284,"8367 WOODSTOCK DRIVE, GREENWOOD, LA, 71033","Match","Exact","8367 WOODSTOCK DR, GREENWOOD, LA, 71033",57458380,"R"
300785,"8368 BLUE PERIWINKLE LANE","FORT WORTH","TX",76123,32.620274824,-97.4180991379999,285,"8368 BLUE PERIWINKLE LANE, FORT WORTH, TX, 76123","Match","Exact","8368 BLUE PERIWINKLE LN, FORT WORTH, TX, 76123",619867168,"R"
300786,"8368 GRAYSON GREEN ST NW","MASSILLON","OH",44646,40.868300086,-81.505677401,286,"8368 GRAYSON GREEN ST NW, MASSILLON, OH, 44646","Match","Exact","8368 GRAYSON GREEN ST NW, MASSILLON, OH, 44646",637592369,"L"
300787,"8368 KINES RD","WARRENTON","VA",20187,38.689598523,-77.724070635,287,"8368 KINES RD, WARRENTON, VA, 20187","Match","Exact","8368 KINES RD, WARRENTON, VA, 20187",146293703,"L"
300788,"8369 HILL HAVEN LANE","SANDY","UT",84093,40.599294285,-111.846435916,288,"8369 HILL HAVEN LANE, SANDY, UT, 84093","Match","Exact","8369 HILL HAVEN LN, SANDY, UT, 84093",619120410,"L"
300789,"8369 MACY LANE","CLEVES","OH",45002,39.1718697050001,-84.727092345,289,"8369 MACY LANE, CLEVES, OH, 45002","Match","Exact","8369 MACY LN, CLEVES, OH, 45002",628859416,"R"
300790,"8369 NW 66TH ST NUM 6085","MIAMI","FL",33166,25.833479175,-80.333193853,290,"8369 NW 66TH ST NUM 6085, MIAMI, FL, 33166","Match","Non_Exact","8369 NW 66TH ST, MIAMI, FL, 33166",116264203,"L"
300791,"8369 NW 66TH STREET   UNIT A3249","MIAMI","FL",33195,NA,NA,291,"8369 NW 66TH STREET   UNIT A3249, MIAMI, FL, 33195","No_Match",NA,NA,NA,NA
300792,"8369 TRENT COURT UNIT B","BOCA RATON","FL",33433,26.3367788570001,-80.176529844,292,"8369 TRENT COURT UNIT B, BOCA RATON, FL, 33433","Match","Exact","8369 TRENT CT, BOCA RATON, FL, 33433",115485294,"R"
300793,"83695 539 AVE","MEADOW GROVE","NE",68752,41.958386852,-97.736802998,293,"83695 539 AVE, MEADOW GROVE, NE, 68752","Match","Exact","83695 539TH AVE, MEADOW GROVE, NE, 68752",161576952,"L"
300794,"837 16TH STREET APT 401","SAN DIEGO","CA",92101,32.714228081,-117.149467226,294,"837 16TH STREET APT 401, SAN DIEGO, CA, 92101","Match","Exact","837 16TH ST, SAN DIEGO, CA, 92101",612865425,"R"
300795,"837 4TH AVE SOUTH","WAITE PARK","MN",56387,45.538378219,-94.222009789,295,"837 4TH AVE SOUTH, WAITE PARK, MN, 56387","Match","Exact","837 4TH AVE S, WAITE PARK, MN, 56387",107413673,"L"
300796,"837 AVENUE Z","BROOKLYN","NY",11235,40.587015761,-73.963039587,296,"837 AVENUE Z, BROOKLYN, NY, 11235","Match","Exact","837 AVE Z, BROOKLYN, NY, 11235",59091225,"L"
300797,"837 BALTIMORE DRIVE","ORLANDO","FL",32810,28.6103412730001,-81.392162204,297,"837 BALTIMORE DRIVE, ORLANDO, FL, 32810","Match","Exact","837 BALTIMORE DR, ORLANDO, FL, 32810",94425432,"R"
300798,"837 C EPLEY ROAD","RUSSELLVILLE","KY",42276,36.9361742560001,-86.9293165719999,298,"837 C EPLEY ROAD, RUSSELLVILLE, KY, 42276","Match","Exact","837 C EPLEY RD, RUSSELLVILLE, KY, 42276",15829581,"R"
300799,"837 CAMELIA DRIVE","MELBOURNE","FL",32901,28.0959013510001,-80.614433192,299,"837 CAMELIA DRIVE, MELBOURNE, FL, 32901","Match","Non_Exact","837 CAMELLIA DR, MELBOURNE, FL, 32901",93904637,"L"
300800,"837 COVE POINT DRIVE","COLUMBUS","OH",43228,39.968194441,-83.160555686,300,"837 COVE POINT DRIVE, COLUMBUS, OH, 43228","Match","Exact","837 COVE POINT DR, COLUMBUS, OH, 43228",218648151,"L"
300801,"837 DAYTON STREET","CINCINNATI","OH",45214,39.1182028800001,-84.527796536,301,"837 DAYTON STREET, CINCINNATI, OH, 45214","Match","Exact","837 DAYTON ST, CINCINNATI, OH, 45214",103924712,"L"
300802,"837 E 3800 N","BUHL","ID",83316,42.5497100750001,-114.877515356,302,"837 E 3800 N, BUHL, ID, 83316","Match","Exact","837 E 3800 N, BUHL, ID, 83316",118758772,"L"
300803,"837 E CHEVY CHASE DR","GLENDALE","CA",91205,34.133801894,-118.244238722,303,"837 E CHEVY CHASE DR, GLENDALE, CA, 91205","Match","Exact","837 E CHEVY CHASE DR, GLENDALE, CA, 91205",142731196,"L"
300804,"837 EMMETT ST","SCHENECTADY","NY",12307,42.8044483410001,-73.935141588,304,"837 EMMETT ST, SCHENECTADY, NY, 12307","Match","Exact","837 EMMETT ST, SCHENECTADY, NY, 12307",18025931,"L"
300805,"837 FORWARDPASS RD SW","PATASKALA","OH",43062,40.025948127,-82.656020686,305,"837 FORWARDPASS RD SW, PATASKALA, OH, 43062","Match","Non_Exact","837 FORWARD PASS RD SW, PATASKALA, OH, 43062",61502378,"R"
300806,"837 GEARY ST APT 201","SAN FRANCISCO","CA",94109,37.7862891440001,-122.416576569,306,"837 GEARY ST APT 201, SAN FRANCISCO, CA, 94109","Match","Exact","837 GEARY ST, SAN FRANCISCO, CA, 94109",639023006,"L"
300807,"837 JEWETT AVE","STATEN ISLAND","NY",10314,40.6163484150001,-74.131099004,307,"837 JEWETT AVE, STATEN ISLAND, NY, 10314","Match","Exact","837 JEWETT AVE, STATEN ISLAND, NY, 10314",59876124,"L"
300808,"837 KENDRA ANN DR","SWANSEA","IL",62226,38.5610606160001,-89.9952471569999,308,"837 KENDRA ANN DR, SWANSEA, IL, 62226","Match","Exact","837 KENDRA ANN DR, SWANSEA, IL, 62226",107865835,"L"
300809,"837 KITNER AVENUE","AVON","IN",46123,39.7757350260001,-86.372271734,309,"837 KITNER AVENUE, AVON, IN, 46123","Match","Exact","837 KITNER AVE, AVON, IN, 46123",89229703,"R"
300810,"837 LEE ROAD","ORLANDO","FL",32808,28.6079008030001,-81.392622154,310,"837 LEE ROAD, ORLANDO, FL, 32808","Match","Non_Exact","837 LEE RD, ORLANDO, FL, 32810",637646401,"R"
300811,"837 LONGMEADOW STREET","LONGMEADOW","MA",1106,42.0479786430001,-72.582728838,311,"837 LONGMEADOW STREET, LONGMEADOW, MA, 1106","Match","Exact","837 LONGMEADOW ST, LONGMEADOW, MA, 01106",4038058,"L"
300812,"837 LYNDHURST ST","BALTIMORE","MD",21229,39.2973366040001,-76.681384066,312,"837 LYNDHURST ST, BALTIMORE, MD, 21229","Match","Exact","837 LYNDHURST ST, BALTIMORE, MD, 21229",206413300,"R"
300813,"837 MCCALLIE AVENUE","CHATTANOOGA","TN",37403,35.043257731,-85.29445079,313,"837 MCCALLIE AVENUE, CHATTANOOGA, TN, 37403","Match","Exact","837 MCCALLIE AVE, CHATTANOOGA, TN, 37403",59307723,"L"
300814,"837 MICHIGAN STREET APT 6C","LAWRENCE","KS",66044,38.968670747,-95.250562604,314,"837 MICHIGAN STREET APT 6C, LAWRENCE, KS, 66044","Match","Exact","837 MICHIGAN ST, LAWRENCE, KS, 66044",17683787,"R"
300815,"837 MILLCREEK RD","LANCASTER","TX",75146,32.5906140330001,-96.802606349,315,"837 MILLCREEK RD, LANCASTER, TX, 75146","Match","Non_Exact","837 MILL CREEK RD, LANCASTER, TX, 75146",102971733,"R"
300816,"837 N 2200 W","PROVO","UT",84601,40.2447717100001,-111.69808563,316,"837 N 2200 W, PROVO, UT, 84601","Match","Exact","837 N 2200 W, PROVO, UT, 84601",134206341,"L"
300817,"837 N JUNIPERPOINT COURT","SALT LAKE CITY","UT",84103,40.7860869300001,-111.877290663,317,"837 N JUNIPERPOINT COURT, SALT LAKE CITY, UT, 84103","Match","Exact","837 JUNIPERPOINT CT, SALT LAKE CITY, UT, 84103",176120138,"L"
300818,"837 N LAKE PARK DRIVE","LAKELAND","FL",33805,NA,NA,318,"837 N LAKE PARK DRIVE, LAKELAND, FL, 33805","No_Match",NA,NA,NA,NA
300819,"837 NIAGRA PRESERVATION CIR","KALAMAZOO","MI",49006,NA,NA,319,"837 NIAGRA PRESERVATION CIR, KALAMAZOO, MI, 49006","No_Match",NA,NA,NA,NA
300820,"837 NORTH OLEANDER AVE","DAYTONA BEACH","FL",32118,29.238719458,-81.0178456369999,320,"837 NORTH OLEANDER AVE, DAYTONA BEACH, FL, 32118","Match","Exact","837 N OLEANDER AVE, DAYTONA BEACH, FL, 32118",94540176,"L"
300821,"837 PROVIDENCE ROAD","GRUBVILLE","MO",63041,38.226249855,-90.795588724,321,"837 PROVIDENCE ROAD, GRUBVILLE, MO, 63041","Match","Exact","837 PROVIDENCE RD, GRUBVILLE, MO, 63041",99722677,"L"
300822,"837 S WESTERN AVE","CHICAGO","IL",60612,41.870177912,-87.686130033,322,"837 S WESTERN AVE, CHICAGO, IL, 60612","Match","Exact","837 S WESTERN AVE, CHICAGO, IL, 60612",111801709,"L"
300823,"837 SHERYN DR","BURLESON","TX",76028,32.535542553,-97.3612133669999,323,"837 SHERYN DR, BURLESON, TX, 76028","Match","Exact","837 SHERYN DR, BURLESON, TX, 76028",601267249,"R"
300824,"837 SPRUCE ST","MORRISTOWN","TN",37813,36.210774153,-83.2671554789999,324,"837 SPRUCE ST, MORRISTOWN, TN, 37813","Match","Exact","837 SPRUCE ST, MORRISTOWN, TN, 37813",42217465,"L"
300825,"837 TAMARACK COURT","VIRGINIA BEACH","VA",23462,36.812844082,-76.1171156029999,325,"837 TAMARACK COURT, VIRGINIA BEACH, VA, 23462","Match","Exact","837 TAMARACK CT, VA BCH, VA, 23462",122296671,"R"
300826,"837 TODD AVENUE","ELLWOOD CITY","PA",16117,40.865144555,-80.29448051,326,"837 TODD AVENUE, ELLWOOD CITY, PA, 16117","Match","Exact","837 TODD AVE, ELLWOOD CITY, PA, 16117",65198490,"R"
300827,"837 VISTA DEL SOL LANE","PANAMA CITY","FL",32404,30.1288668450001,-85.529370254,327,"837 VISTA DEL SOL LANE, PANAMA CITY, FL, 32404","Match","Exact","837 VISTA DEL SOL LN, PANAMA CITY, FL, 32404",614890909,"L"
300828,"837 W CUMBERLAND CT","ST JOHNS","FL",32259,30.109562474,-81.586120237,328,"837 W CUMBERLAND CT, ST JOHNS, FL, 32259","Match","Exact","837 W CUMBERLAND CT, SAINT JOHNS, FL, 32259",92609887,"L"
300829,"837 W KIOWA RD","PRAIRIE VIEW","KS",67664,39.857395367,-99.484733849,329,"837 W KIOWA RD, PRAIRIE VIEW, KS, 67664","Match","Exact","837 W KIOWA RD, PRAIRIE VIEW, KS, 67664",193908518,"R"
300830,"837 WASHINGTON BLVD SUITE B","BALTIMORE","MD",21230,39.2829741400001,-76.630053996,330,"837 WASHINGTON BLVD SUITE B, BALTIMORE, MD, 21230","Match","Exact","837 WASHINGTON BLVD, BALTIMORE, MD, 21230",206418540,"L"
300831,"837 WEST 109TH PLACE","LOS ANGELES","CA",90044,33.936456918,-118.290237738,331,"837 WEST 109TH PLACE, LOS ANGELES, CA, 90044","Match","Exact","837 W 109TH PL, LOS ANGELES, CA, 90044",141661534,"R"
300832,"837-A N KEENE RD","CLEARWATER","FL",33755,27.9736420690001,-82.763151814,332,"837-A N KEENE RD, CLEARWATER, FL, 33755","Match","Exact","837 N KEENE RD, CLEARWATER, FL, 33755",124780881,"R"
300833,"837","NEW PHILADELPHIA","OH",44663,NA,NA,333,"837, NEW PHILADELPHIA, OH, 44663","No_Match",NA,NA,NA,NA
300834,"8370 SOLANO ST","VENTURA","CA",93004,34.2828384050001,-119.18421553,334,"8370 SOLANO ST, VENTURA, CA, 93004","Match","Exact","8370 SOLANO ST, VENTURA, CA, 93004",110026402,"R"
300835,"8370 US HWY 82","SHERMAN","TX",75090,33.6528780840001,-96.521701158,335,"8370 US HWY 82, SHERMAN, TX, 75090","Match","Exact","8370 US HWY 82, SHERMAN, TX, 75090",634112747,"R"
300836,"8370 W ABBEY LN","WILHOIT","AZ",86332,34.423692739,-112.6087764,336,"8370 W ABBEY LN, WILHOIT, AZ, 86332","Match","Non_Exact","8370 W ABBY LN, KIRKLAND, AZ, 86332",608180997,"L"
300837,"8370 WEST CHATFIELD AVE","LITTLETON","CO",80128,39.566206951,-105.091865604,337,"8370 WEST CHATFIELD AVE, LITTLETON, CO, 80128","Match","Exact","8370 W CHATFIELD AVE, LITTLETON, CO, 80128",177324935,"L"
300838,"8371 E DIXIE HWY","MIAMI","FL",33138,25.8526748580001,-80.180599145,338,"8371 E DIXIE HWY, MIAMI, FL, 33138","Match","Non_Exact","8371 E DIXIE HWY, MIAMI, FL, 33138",116006821,"R"
300839,"8371 MIDLAND BLVD","SAINT LOUIS","MO",63114,38.6953458200001,-90.33819594,339,"8371 MIDLAND BLVD, SAINT LOUIS, MO, 63114","Match","Exact","8371 MIDLAND BLVD, SAINT LOUIS, MO, 63114",629167222,"R"
300840,"8371 SCHRADE RD","ROWLETT","TX",75088,32.900153758,-96.523458128,340,"8371 SCHRADE RD, ROWLETT, TX, 75088","Match","Exact","8371 SCHRADE RD, ROWLETT, TX, 75088",103168272,"R"
300841,"8371 SE 57TH ST","MERCER ISLAND","WA",98040,47.551698281,-122.227577359,341,"8371 SE 57TH ST, MERCER ISLAND, WA, 98040","Match","Exact","8371 SE 57TH ST, MERCER ISLAND, WA, 98040",642836470,"R"
300842,"8371 SUMMERSET DRIVE","ANCHORAGE","AK",99518,61.145268204,-149.897666803,342,"8371 SUMMERSET DRIVE, ANCHORAGE, AK, 99518","Match","Exact","8371 SUMMERSET DR, ANCHORAGE, AK, 99518",605170738,"L"
300843,"8372 N CORAL CIRCLE","NORTH LAUDERDALE","FL",33068,NA,NA,343,"8372 N CORAL CIRCLE, NORTH LAUDERDALE, FL, 33068","Tie",NA,NA,NA,NA
300844,"8373 GREENBRIER RD","TALBOTT","TN",37877,36.1642921910001,-83.462323937,344,"8373 GREENBRIER RD, TALBOTT, TN, 37877","Match","Non_Exact","8373 GREENBRIAR RD, TALBOTT, TN, 37877",42222512,"L"
300845,"8373 SOUTH 100TH STREET","FRANKLIN","WI",53132,42.893041129,-88.039420638,345,"8373 SOUTH 100TH STREET, FRANKLIN, WI, 53132","Match","Exact","8373 S 100TH ST, FRANKLIN, WI, 53132",612191122,"R"
300846,"8373 TOPSAIL PLACE","WINTER GARDEN","FL",34787,28.4238692870001,-81.632667871,346,"8373 TOPSAIL PLACE, WINTER GARDEN, FL, 34787","Match","Exact","8373 TOPSAIL PL, WINTER GARDEN, FL, 34787",649051985,"L"
300847,"8374 INDEPENDENCE DRIVE","STERLING HEIGHTS","MI",48313,42.5881714340001,-83.0254620589999,347,"8374 INDEPENDENCE DRIVE, STERLING HEIGHTS, MI, 48313","Match","Exact","8374 INDEPENDENCE DR, STERLING HEIGHTS, MI, 48313",649924333,"R"
300848,"8374 JACK PINE DR","YPSILANTI","MI",48197,NA,NA,348,"8374 JACK PINE DR, YPSILANTI, MI, 48197","Tie",NA,NA,NA,NA
300849,"8374 MARKET STREET NUBER 432","LAKEWOOD RANCH","FL",34202,27.3903973970001,-82.442317837,349,"8374 MARKET STREET NUBER 432, LAKEWOOD RANCH, FL, 34202","Match","Exact","8374 MARKET ST, LAKEWOOD RCH, FL, 34202",645955190,"R"
300850,"8374 MARKET STREET SUITE 128","LAKEWOOD RANCH","FL",34202,27.3903973970001,-82.442317837,350,"8374 MARKET STREET SUITE 128, LAKEWOOD RANCH, FL, 34202","Match","Exact","8374 MARKET ST, LAKEWOOD RCH, FL, 34202",645955190,"R"
300851,"8375 CURRAN BLVD","NEW ORLEANS","LA",70126,30.0389015740001,-89.9984377069999,351,"8375 CURRAN BLVD, NEW ORLEANS, LA, 70126","Match","Non_Exact","8375 CURRAN RD, NEW ORLEANS, LA, 70126",191720453,"L"
300852,"8375 JUMPERS HOLE RD SUITE 203","MILLERSVILLE","MD",21108,39.1106181930001,-76.585478969,352,"8375 JUMPERS HOLE RD SUITE 203, MILLERSVILLE, MD, 21108","Match","Exact","8375 JUMPERS HOLE RD, MILLERSVILLE, MD, 21108",68211458,"L"
300853,"8375 LOWERTRAILHEAD","LAS VEGAS","NV",89113,36.0214616910001,-115.275323645,353,"8375 LOWERTRAILHEAD, LAS VEGAS, NV, 89113","Match","Non_Exact","8375 LOWER TRAILHEAD AVE, LAS VEGAS, NV, 89113",627246864,"L"
300854,"8375 SHELDON ROAD","CANTON","MI",48187,42.3470999400001,-83.479228555,354,"8375 SHELDON ROAD, CANTON, MI, 48187","Match","Non_Exact","8375 N SHELDON RD, CANTON, MI, 48187",95492650,"L"
300855,"8376 FIG STREET","ARVADA","CO",80005,39.8485024030001,-105.159882719,355,"8376 FIG STREET, ARVADA, CO, 80005","Match","Exact","8376 FIG ST, ARVADA, CO, 80005",177764684,"L"
300856,"8376 NORMANDY BLVD","JACKSONVILLE","FL",32221,30.2898495520001,-81.790072449,356,"8376 NORMANDY BLVD, JACKSONVILLE, FL, 32221","Match","Exact","8376 NORMANDY BLVD, JACKSONVILLE, FL, 32221",83967788,"L"
300857,"8376 NORTHLAND DR","STANWOOD","MI",49346,43.586259575,-85.46606869,357,"8376 NORTHLAND DR, STANWOOD, MI, 49346","Match","Exact","8376 NORTHLAND DR, STANWOOD, MI, 49346",643887202,"R"
300858,"8377 E STATE ROUTE 571","NEW CARLISLE","OH",45344,39.9356620130001,-84.057328255,358,"8377 E STATE ROUTE 571, NEW CARLISLE, OH, 45344","Match","Exact","8377 STATE RTE 571, NEW CARLISLE, OH, 45344",207645727,"L"
300859,"8377 INDEPENDENCE AVENUE","CANOGA PARK","CA",91304,34.221921416,-118.590701916,359,"8377 INDEPENDENCE AVENUE, CANOGA PARK, CA, 91304","Match","Exact","8377 INDEPENDENCE AVE, CANOGA PARK, CA, 91304",141533319,"L"
300860,"8377 TAMPICO COURT","FAIR OAKS","CA",95628,38.6560398500001,-121.251239557,360,"8377 TAMPICO COURT, FAIR OAKS, CA, 95628","Match","Exact","8377 TAMPICO CT, FAIR OAKS, CA, 95628",133345775,"L"
300861,"8378 ATLEE RD","MECHANICSVILLE","VA",23116,37.6352542720001,-77.387286671,361,"8378 ATLEE RD, MECHANICSVILLE, VA, 23116","Match","Exact","8378 ATLEE RD, MECHANICSVILLE, VA, 23116",84980902,"L"
300862,"8378 ATLEE ROAD","MECHANICSVILLE","VA",23116,37.6352542720001,-77.387286671,362,"8378 ATLEE ROAD, MECHANICSVILLE, VA, 23116","Match","Exact","8378 ATLEE RD, MECHANICSVILLE, VA, 23116",84980902,"L"
300863,"8378 GOLDENBROOK WAY","BLAINE","WA",98230,48.945548725,-122.739902844,363,"8378 GOLDENBROOK WAY, BLAINE, WA, 98230","Match","Exact","8378 GOLDENBROOK WAY, BLAINE, WA, 98230",624911220,"L"
300864,"8378 HOLMAN MILL RD","SNOW CAMP","NC",27349,35.8559880560001,-79.390397578,364,"8378 HOLMAN MILL RD, SNOW CAMP, NC, 27349","Match","Exact","8378 HOLMAN MILL RD, SNOW CAMP, NC, 27349",71691311,"R"
300865,"8378 SONORA DEL SOL ST","LAS VEGAS","NV",89113,36.036259527,-115.260261133,365,"8378 SONORA DEL SOL ST, LAS VEGAS, NV, 89113","Match","Exact","8378 SONORA DEL SOL ST, LAS VEGAS, NV, 89113",650680078,"L"
300866,"8379 TIMBERCREEK","CORDOVA","TN",38018,35.148570067,-89.7839649169999,366,"8379 TIMBERCREEK, CORDOVA, TN, 38018","Match","Non_Exact","8379 TIMBER CREEK DR, CORDOVA, TN, 38018",72945800,"R"
300867,"838 4TH STREET","NEW ORLEANS","LA",70130,29.924497192,-90.0800112429999,367,"838 4TH STREET, NEW ORLEANS, LA, 70130","Match","Exact","838 4TH ST, NEW ORLEANS, LA, 70130",635846256,"L"
300868,"838 5TH AVENUE","HAMMOND","OR",97121,46.2000537500001,-123.948201208,368,"838 5TH AVENUE, HAMMOND, OR, 97121","Match","Exact","838 5TH AVE, HAMMOND, OR, 97121",159219887,"L"
300869,"838 AVALON DR","PICKERINGTON","OH",43147,39.8867890860001,-82.779160213,369,"838 AVALON DR, PICKERINGTON, OH, 43147","Match","Exact","838 AVALON DR, PICKERINGTON, OH, 43147",37239066,"L"
300870,"838 BALLS BLUFF RD","LEESBURG","VA",20176,39.122731623,-77.539489056,370,"838 BALLS BLUFF RD, LEESBURG, VA, 20176","Match","Non_Exact","838 BALLS BLUFF RD NE, LEESBURG, VA, 20176",62331774,"L"
300871,"838 BARRISTER DR","AUBURNDALE","FL",33823,28.1281478940001,-81.815985384,371,"838 BARRISTER DR, AUBURNDALE, FL, 33823","Match","Exact","838 BARRISTER DR, AUBURNDALE, FL, 33823",619992143,"L"
300872,"838 BECKLEY RD","BERLIN","CT",6037,41.6182484780001,-72.72672626,372,"838 BECKLEY RD, BERLIN, CT, 6037","Match","Exact","838 BECKLEY RD, BERLIN, CT, 06037",640577779,"R"
300873,"838 BROADWAY SUITE 3R","BAYONNE","NJ",7002,40.675971981,-74.108071646,373,"838 BROADWAY SUITE 3R, BAYONNE, NJ, 7002","Match","Exact","838 BROADWAY, BAYONNE, NJ, 07002",59603495,"R"
300874,"838 CENTRAL AVENUE","HIGHLAND PARK","IL",60035,42.1835962920001,-87.805156005,374,"838 CENTRAL AVENUE, HIGHLAND PARK, IL, 60035","Match","Exact","838 CENTRAL AVE, HIGHLAND PARK, IL, 60035",119651606,"L"
300875,"838 COLLINGSWOOD DRIVE","POMONA","CA",91767,34.0844279180001,-117.734824076,375,"838 COLLINGSWOOD DRIVE, POMONA, CA, 91767","Match","Exact","838 COLLINGSWOOD DR, POMONA, CA, 91767",642868082,"R"
300876,"838 CROWDEN DRIVE","CINCINNATI","OH",45224,39.2149462610001,-84.515360947,376,"838 CROWDEN DRIVE, CINCINNATI, OH, 45224","Match","Exact","838 CROWDEN DR, CINCINNATI, OH, 45224",103923365,"L"
300877,"838 DEACON","COLUMBUS","OH",43214,40.0589614830001,-83.04202487,377,"838 DEACON, COLUMBUS, OH, 43214","Match","Non_Exact","838 DEACON CIR, COLUMBUS, OH, 43214",642841648,"L"
300878,"838 E 84TH STREET","LOS ANGELES","CA",90001,33.962870294,-118.259854543,378,"838 E 84TH STREET, LOS ANGELES, CA, 90001","Match","Exact","838 E 84TH ST, LOS ANGELES, CA, 90001",141671182,"R"
300879,"838 E HIGH STREET 298","LEXINGTON","KY",40502,38.03071541,-84.48984841,379,"838 E HIGH STREET 298, LEXINGTON, KY, 40502","Match","Non_Exact","838 E HIGH ST, LEXINGTON, KY, 40502",31948634,"R"
300880,"838 E RANDY RD","OAK CREEK","WI",53154,42.8472650240001,-87.902784488,380,"838 E RANDY RD, OAK CREEK, WI, 53154","Match","Exact","838 E RANDY RD, OAK CREEK, WI, 53154",77769305,"R"
300881,"838 EAST HIGH ST STE 263","LEXINGTON","KY",40502,38.0307316770001,-84.489856453,381,"838 EAST HIGH ST STE 263, LEXINGTON, KY, 40502","Match","Exact","838 E HIGH ST, LEXINGTON, KY, 40502",31948634,"R"
300882,"838 EAST HIGH STREET SUITE 148","LEXINGTON","KY",40502,38.0307316770001,-84.489856453,382,"838 EAST HIGH STREET SUITE 148, LEXINGTON, KY, 40502","Match","Exact","838 E HIGH ST, LEXINGTON, KY, 40502",31948634,"R"
300883,"838 EDISON AVENUE","LANSING","MI",48910,42.7076277630001,-84.541111206,383,"838 EDISON AVENUE, LANSING, MI, 48910","Match","Exact","838 EDISON AVE, LANSING, MI, 48910",17500285,"R"
300884,"838 EUCALYPTUS DRIVE","NEWMAN","CA",95360,37.3223008350001,-121.016334362,384,"838 EUCALYPTUS DRIVE, NEWMAN, CA, 95360","Match","Non_Exact","838 EUCALYPTUS AVE, NEWMAN, CA, 95360",645601245,"R"
300885,"838 FIRST AVENUE","GALLIPOLIS","OH",45631,38.8130287980001,-82.1953639879999,385,"838 FIRST AVENUE, GALLIPOLIS, OH, 45631","Match","Exact","838 1ST AVE, GALLIPOLIS, OH, 45631",54944157,"L"
300886,"838 HIGHLAND OAKS","DALLAS","TX",75232,32.689853032,-96.836064864,386,"838 HIGHLAND OAKS, DALLAS, TX, 75232","Match","Non_Exact","838 HIGHLAND OAKS DR, DALLAS, TX, 75232",102948227,"L"
300887,"838 HONEYSUCKLE ROAD","BALD KNOB","AR",72010,35.3761156570001,-91.553760143,387,"838 HONEYSUCKLE ROAD, BALD KNOB, AR, 72010","Match","Exact","838 HONEYSUCKLE RD, BALD KNOB, AR, 72010",651297327,"L"
300888,"838 KEARNY ST","SAN FRANCISCO","CA",94108,37.795574829,-122.404998688,388,"838 KEARNY ST, SAN FRANCISCO, CA, 94108","Match","Exact","838 KEARNY ST, SAN FRANCISCO, CA, 94108",192281207,"R"
300889,"838 MOUNTAIN BLVD","OAKLAND","CA",94611,37.842780824,-122.220905252,389,"838 MOUNTAIN BLVD, OAKLAND, CA, 94611","Match","Exact","838 MOUNTAIN BLVD, OAKLAND, CA, 94611",125000032,"L"
300890,"838 NW NEWPORT AVE","BEND","OR",97703,44.0623890030001,-121.323950495,390,"838 NW NEWPORT AVE, BEND, OR, 97703","Match","Exact","838 NW NEWPORT AVE, BEND, OR, 97703",152553682,"L"
300891,"838 ROBINSON ROAD","SEBASTOPOL","CA",95472,38.3928619750001,-122.831629789,391,"838 ROBINSON ROAD, SEBASTOPOL, CA, 95472","Match","Exact","838 ROBINSON RD, SEBASTOPOL, CA, 95472",67525318,"R"
300892,"838 ROSILEE LANE","RAPID CITY","SD",57701,44.164165752,-103.235426195,392,"838 ROSILEE LANE, RAPID CITY, SD, 57701","Match","Exact","838 ROSILEE LN, RAPID CITY, SD, 57701",200930581,"L"
300893,"838 S 3RD ST","COTTONWOOD","AZ",86236,34.7238378710001,-112.025943368,393,"838 S 3RD ST, COTTONWOOD, AZ, 86236","Match","Non_Exact","838 S 3RD ST, COTTONWOOD, AZ, 86326",159524595,"L"
300894,"838 SE 4TH CT","DEERFIELD BEACH","FL",33441,26.3118856740001,-80.0928395769999,394,"838 SE 4TH CT, DEERFIELD BEACH, FL, 33441","Match","Exact","838 SE 4TH CT, DEERFIELD BEACH, FL, 33441",114765290,"R"
300895,"838 SHERIDAN ROAD","EVANSTON","IL",60202,42.0335562920001,-87.670568277,395,"838 SHERIDAN ROAD, EVANSTON, IL, 60202","Match","Exact","838 SHERIDAN RD, EVANSTON, IL, 60202",111745067,"L"
300896,"838 SOUTH MAIN STREET","INDEPENDENCE","OR",97351,44.846279677,-123.184645356,396,"838 SOUTH MAIN STREET, INDEPENDENCE, OR, 97351","Match","Exact","838 S MAIN ST, INDEPENDENCE, OR, 97351",155776070,"L"
300897,"838 SUSSEX CIRCLE","THOUSAND OAKS","CA",91360,34.1939753350001,-118.862548799,397,"838 SUSSEX CIRCLE, THOUSAND OAKS, CA, 91360","Match","Exact","838 SUSSEX CIR, THOUSAND OAKS, CA, 91360",109976596,"R"
300898,"838 SW 1ST AVENUE SUITE 500","PORTLAND","OR",97204,45.516795497,-122.67410129,398,"838 SW 1ST AVENUE SUITE 500, PORTLAND, OR, 97204","Match","Non_Exact","838 SW 1ST AVE, PORTLAND, OR, 97204",157504683,"L"
300899,"838 VALLEY DRIVE","DUNBAR","WV",25064,38.3696704700001,-81.741931015,399,"838 VALLEY DRIVE, DUNBAR, WV, 25064","Match","Exact","838 VALLEY DR, DUNBAR, WV, 25064",78632466,"R"
300900,"838 WEST LONG LAKE STE 100","BLOOMFIELD HILLS","MI",48302,42.58139393,-83.278083662,400,"838 WEST LONG LAKE STE 100, BLOOMFIELD HILLS, MI, 48302","Match","Non_Exact","838 W LONG LAKE RD, BLOOMFIELD HILLS, MI, 48302",69728409,"R"
300901,"838 WEST MAIN STREET","PRICHARD","AL",36610,30.7360835900001,-88.091274465,401,"838 WEST MAIN STREET, PRICHARD, AL, 36610","Match","Exact","838 W MAIN ST, PRICHARD, AL, 36610",61927019,"R"
300902,"838 WEST MAIN","DOVER-FOXCROFT","ME",4426,45.1851630080001,-69.2336594179999,402,"838 WEST MAIN, DOVER-FOXCROFT, ME, 4426","Match","Non_Exact","838 W MAIN ST, DOVER FOXCROFT, ME, 04426",123970200,"L"
300903,"8380 N FLEMING DR","FLAGSTAFF","AZ",86004,35.259545874,-111.548886202,403,"8380 N FLEMING DR, FLAGSTAFF, AZ, 86004","Match","Exact","8380 N FLEMING DR, FLAGSTAFF, AZ, 86004",189151199,"L"
300904,"8380 WARREN PKWY BLDG 7 - 703","FRISCO","TX",75034,33.1085141190001,-96.812790615,404,"8380 WARREN PKWY BLDG 7 - 703, FRISCO, TX, 75034","Match","Exact","8380 WARREN PKWY, FRISCO, TX, 75034",210507612,"L"
300905,"8380 WARREN PKWY BLDG 7-703","FRISCO","TX",75034,33.1085141190001,-96.812790615,405,"8380 WARREN PKWY BLDG 7-703, FRISCO, TX, 75034","Match","Exact","8380 WARREN PKWY, FRISCO, TX, 75034",210507612,"L"
300906,"8380 WEST STATE RD 84","DAVIE","FL",33324,NA,NA,406,"8380 WEST STATE RD 84, DAVIE, FL, 33324","No_Match",NA,NA,NA,NA
300907,"8380 WOODDY RD","PORT TOBACCO","MD",20677,38.4870596600001,-77.0410202049999,407,"8380 WOODDY RD, PORT TOBACCO, MD, 20677","Match","Exact","8380 WOODDY RD, PORT TOBACCO, MD, 20677",25420618,"R"
300908,"8380 WOODDY ROAD","PORT TOBACCO","MD",20677,38.4870596600001,-77.0410202049999,408,"8380 WOODDY ROAD, PORT TOBACCO, MD, 20677","Match","Exact","8380 WOODDY RD, PORT TOBACCO, MD, 20677",25420618,"R"
300909,"8381 BUCK MOUNTAIN ROAD","DOVER","AR",72837,35.4135049830001,-93.065639576,409,"8381 BUCK MOUNTAIN ROAD, DOVER, AR, 72837","Match","Exact","8381 BUCK MOUNTAIN RD, DOVER, AR, 72837",606005557,"L"
300910,"8381 NORTH VIA ROSA","SCOTTSDALE","AZ",85258,33.557901154,-111.910276232,410,"8381 NORTH VIA ROSA, SCOTTSDALE, AZ, 85258","Match","Exact","8381 N VIA ROSA, SCOTTSDALE, AZ, 85258",128228255,"R"
300911,"8381 TOBAGO LANE","WELLINGTON","FL",33414,26.6336582210001,-80.179783131,411,"8381 TOBAGO LANE, WELLINGTON, FL, 33414","Match","Exact","8381 TOBAGO LN, WELLINGTON, FL, 33414",115583819,"R"
300912,"8382 E HIGHCROFT DR","LELAND","NC",28451,NA,NA,412,"8382 E HIGHCROFT DR, LELAND, NC, 28451","Tie",NA,NA,NA,NA
300913,"8382 NEW HAVEN ROAD","HARRISON","OH",45030,39.275535286,-84.716296283,413,"8382 NEW HAVEN ROAD, HARRISON, OH, 45030","Match","Exact","8382 NEW HAVEN RD, HARRISON, OH, 45030",103941826,"L"
300914,"8382 SIX FORKS ROAD SUITE 102","RALEIGH","NC",27615,35.8930883790001,-78.648829146,414,"8382 SIX FORKS ROAD SUITE 102, RALEIGH, NC, 27615","Match","Exact","8382 SIX FORKS RD, RALEIGH, NC, 27615",208362297,"R"
300915,"8383 AIRLINE HIGHWAY APARTMENT 29","BATON ROUGE","LA",70815,30.4588184830001,-91.099984127,415,"8383 AIRLINE HIGHWAY APARTMENT 29, BATON ROUGE, LA, 70815","Match","Exact","8383 AIRLINE HWY, BATON ROUGE, LA, 70815",623723262,"L"
300916,"8383 EL MUNDO ST 720","HOUSTON","TX",77054,NA,NA,416,"8383 EL MUNDO ST 720, HOUSTON, TX, 77054","No_Match",NA,NA,NA,NA
300917,"8383 GREENWAY BLVD SUITE 600","MIDDLETON","WI",53562,43.0876803040001,-89.533218983,417,"8383 GREENWAY BLVD SUITE 600, MIDDLETON, WI, 53562","Match","Exact","8383 GREENWAY BLVD, MIDDLETON, WI, 53562",640867506,"R"
300918,"8383 GREENWAY BOULEVARD SUITE 600","MIDDLETON","WI",53562,43.0876803040001,-89.533218983,418,"8383 GREENWAY BOULEVARD SUITE 600, MIDDLETON, WI, 53562","Match","Exact","8383 GREENWAY BLVD, MIDDLETON, WI, 53562",640867506,"R"
300919,"8383 NORTH DAVIS HWY","PENSACOLA","FL",32514,30.515544909,-87.2166860899999,419,"8383 NORTH DAVIS HWY, PENSACOLA, FL, 32514","Match","Exact","8383 N DAVIS HWY, PENSACOLA, FL, 32514",93217477,"L"
300920,"8383 W CANAL RD","BROCKPORT","NY",14420,43.2142274400001,-77.984884925,420,"8383 W CANAL RD, BROCKPORT, NY, 14420","Match","Exact","8383 W CANAL RD, BROCKPORT, NY, 14420",14523334,"L"
300921,"8383 WILSHIRE BLVD - SUITE 800","BEVERLY HILLS","CA",90211,34.064620899,-118.373844922,421,"8383 WILSHIRE BLVD - SUITE 800, BEVERLY HILLS, CA, 90211","Match","Exact","8383 WILSHIRE BLVD, BEVERLY HILLS, CA, 90211",141598706,"R"
300922,"8383 WILSHIRE BLVD STE 1034","BEVERLY HILLS","CA",90211,34.064620899,-118.373844922,422,"8383 WILSHIRE BLVD STE 1034, BEVERLY HILLS, CA, 90211","Match","Exact","8383 WILSHIRE BLVD, BEVERLY HILLS, CA, 90211",141598706,"R"
300923,"8383 WILSHIRE BLVD STE 240","BEVERLY HILLS","CA",90211,34.064620899,-118.373844922,423,"8383 WILSHIRE BLVD STE 240, BEVERLY HILLS, CA, 90211","Match","Exact","8383 WILSHIRE BLVD, BEVERLY HILLS, CA, 90211",141598706,"R"
300924,"8383 WILSHIRE BLVD STE 510","BEVERLY HILLS","CA",90211,34.064620899,-118.373844922,424,"8383 WILSHIRE BLVD STE 510, BEVERLY HILLS, CA, 90211","Match","Exact","8383 WILSHIRE BLVD, BEVERLY HILLS, CA, 90211",141598706,"R"
300925,"8383 WILSHIRE BLVD STE 740","BEVERLY HILLS","CA",90211,34.064620899,-118.373844922,425,"8383 WILSHIRE BLVD STE 740, BEVERLY HILLS, CA, 90211","Match","Exact","8383 WILSHIRE BLVD, BEVERLY HILLS, CA, 90211",141598706,"R"
300926,"8383 WILSHIRE BOULEVARD SUITE 660","BEVERLY HILLS","CA",90211,34.064620899,-118.373844922,426,"8383 WILSHIRE BOULEVARD SUITE 660, BEVERLY HILLS, CA, 90211","Match","Exact","8383 WILSHIRE BLVD, BEVERLY HILLS, CA, 90211",141598706,"R"
300927,"83836 YOSEMITE DR","INDIO","CA",92203,33.731724656,-116.201949081,427,"83836 YOSEMITE DR, INDIO, CA, 92203","Match","Exact","83836 YOSEMITE DR, INDIO, CA, 92203",637199902,"R"
300928,"8384 COMPASS POINTE EAST WYND NE","LELAND","NC",28451,34.2738851440001,-78.083483555,428,"8384 COMPASS POINTE EAST WYND NE, LELAND, NC, 28451","Match","Exact","8384 COMPASS POINTE EAST WYND NE, LELAND, NC, 28451",637987742,"R"
300929,"8384 RIVERWALK DRIVE","FENTON","MI",48430,42.7031103530001,-83.782357754,429,"8384 RIVERWALK DRIVE, FENTON, MI, 48430","Match","Non_Exact","8384 RIVERWALK WAY, FENTON, MI, 48430",23569431,"L"
300930,"8384 SILVER BIRCH WAY","LEHIGH ACRES","FL",33971,26.615784293,-81.763212197,430,"8384 SILVER BIRCH WAY, LEHIGH ACRES, FL, 33971","Match","Exact","8384 SILVER BIRCH WAY, LEHIGH ACRES, FL, 33971",618798864,"R"
300931,"83844 573 AVE","PILGER","NE",68768,41.9796099390001,-97.078043683,431,"83844 573 AVE, PILGER, NE, 68768","Match","Exact","83844 573RD AVE, PILGER, NE, 68768",161860071,"R"
300932,"8385 BARSTOW DRIVE","FISHERS","IN",46038,39.9895828350001,-86.019139789,432,"8385 BARSTOW DRIVE, FISHERS, IN, 46038","Match","Exact","8385 BARSTOW DR, FISHERS, IN, 46038",29307744,"L"
300933,"8385 KELZER POND DR","VICTORIA","MN",55386,NA,NA,433,"8385 KELZER POND DR, VICTORIA, MN, 55386","No_Match",NA,NA,NA,NA
300934,"8386 AIRLINE HWY","BATON ROUGE","LA",70815,30.4594461520001,-91.100644818,434,"8386 AIRLINE HWY, BATON ROUGE, LA, 70815","Match","Exact","8386 AIRLINE HWY, BATON ROUGE, LA, 70815",606165404,"R"
300935,"8386 CANNONWOOD LN","JACKSONVILLE","FL",32216,NA,NA,435,"8386 CANNONWOOD LN, JACKSONVILLE, FL, 32216","No_Match",NA,NA,NA,NA
300936,"8386 GOLDEN PRAIRIE DR","TAMPA","FL",33647,28.1547502710001,-82.369083178,436,"8386 GOLDEN PRAIRIE DR, TAMPA, FL, 33647","Match","Exact","8386 GOLDEN PRAIRIE DR, TAMPA, FL, 33647",104642136,"L"
300937,"8386 SHADOWWOOD BLVD","CORAL SPRINGS","FL",33071,26.243866143,-80.2373971979999,437,"8386 SHADOWWOOD BLVD, CORAL SPRINGS, FL, 33071","Match","Non_Exact","8386 SHADOW WOOD BLVD, CORAL SPRINGS, FL, 33071",648164581,"L"
300938,"8387 N SUNBURST TRAIL","PARKER","CO",80134,NA,NA,438,"8387 N SUNBURST TRAIL, PARKER, CO, 80134","Tie",NA,NA,NA,NA
300939,"8387 SW HAYDEN DRIVE","BEAVERTON","OR",97007,45.4593064760001,-122.870151878,439,"8387 SW HAYDEN DRIVE, BEAVERTON, OR, 97007","Match","Exact","8387 SW HAYDEN DR, BEAVERTON, OR, 97007",645536386,"R"
300940,"8388 E HARTFORD DRIVE","SCOTTSDALE","AZ",85255,33.641198291,-111.897228378,440,"8388 E HARTFORD DRIVE, SCOTTSDALE, AZ, 85255","Match","Exact","8388 E HARTFORD DR, SCOTTSDALE, AZ, 85255",128861149,"L"
300941,"8388 GROUSE CRESCENT","BLAINE","WA",98230,NA,NA,441,"8388 GROUSE CRESCENT, BLAINE, WA, 98230","No_Match",NA,NA,NA,NA
300942,"8388 HELEN","CENTER LINE","MI",48015,42.4844267350001,-83.021830221,442,"8388 HELEN, CENTER LINE, MI, 48015","Match","Non_Exact","8388 HELEN ST, CENTER LINE, MI, 48015",110677081,"R"
300943,"8388 LAWRENCE 2059","MILLER","MO",65707,NA,NA,443,"8388 LAWRENCE 2059, MILLER, MO, 65707","No_Match",NA,NA,NA,NA
300944,"8388 S TAMIAMI TRL NUM 295","SARASOTA","FL",34238,27.229999505,-82.495036743,444,"8388 S TAMIAMI TRL NUM 295, SARASOTA, FL, 34238","Match","Non_Exact","8388 S TAMIAMI TRL, SARASOTA, FL, 34238",16431586,"R"
300945,"8388 STEVENSON AVE","SACRAMENTO","CA",95828,38.4652829830001,-121.395918184,445,"8388 STEVENSON AVE, SACRAMENTO, CA, 95828","Match","Exact","8388 STEVENSON AVE, SACRAMENTO, CA, 95828",133373487,"R"
300946,"8389 UNTREINER AVENUE","PENSACOLA","FL",32534,30.516637362,-87.279944938,446,"8389 UNTREINER AVENUE, PENSACOLA, FL, 32534","Match","Exact","8389 UNTREINER AVE, PENSACOLA, FL, 32534",617456696,"L"
300947,"839 14TH AVENUE","MENLO PARK","CA",94025,37.4773121910001,-122.19068928,447,"839 14TH AVENUE, MENLO PARK, CA, 94025","Match","Exact","839 14TH AVE, MENLO PARK, CA, 94025",192364311,"L"
300948,"839 5TH AVE SE","ROCHESTER","NY",55904,NA,NA,448,"839 5TH AVE SE, ROCHESTER, NY, 55904","No_Match",NA,NA,NA,NA
300949,"839 ALMORA DRIVE","CHARLOTTE","NC",28216,35.292488324,-80.901758045,449,"839 ALMORA DRIVE, CHARLOTTE, NC, 28216","Match","Exact","839 ALMORA DR, CHARLOTTE, NC, 28216",70616968,"L"
300950,"839 APPLECROSS CT","COPPELL","TX",75019,32.992364782,-96.994918404,450,"839 APPLECROSS CT, COPPELL, TX, 75019","Match","Exact","839 APPLECROSS CT, COPPELL, TX, 75019",103396764,"L"
300951,"839 BELL SWAMP RD NE","WINNABOW","NC",28479,34.106351782,-78.138798201,451,"839 BELL SWAMP RD NE, WINNABOW, NC, 28479","Match","Exact","839 BELL SWAMP RD NE, WINNABOW, NC, 28479",153131716,"R"
300952,"839 BRANDON PRESCOTT LN APT 410","WEST PALM BEACH","FL",33401,26.7210536590001,-80.078671454,452,"839 BRANDON PRESCOTT LN APT 410, WEST PALM BEACH, FL, 33401","Match","Exact","839 BRANDON PRESCOTT LN, WEST PALM BEACH, FL, 33401",648333097,"R"
300953,"839 BRANDON PRESCOTT LN STE 310","WEST PALM BEACH","FL",33401,26.7210536590001,-80.078671454,453,"839 BRANDON PRESCOTT LN STE 310, WEST PALM BEACH, FL, 33401","Match","Exact","839 BRANDON PRESCOTT LN, WEST PALM BEACH, FL, 33401",648333097,"R"
300954,"839 BRIDLE LANE","WEBSTER","NY",14580,43.225059163,-77.47269999,454,"839 BRIDLE LANE, WEBSTER, NY, 14580","Match","Exact","839 BRIDLE LN, WEBSTER, NY, 14580",14536959,"R"
300955,"839 BURTON AVE","HIGHLAND PARK","IL",60035,42.168032194,-87.78645242,455,"839 BURTON AVE, HIGHLAND PARK, IL, 60035","Match","Exact","839 BURTON AVE, HIGHLAND PARK, IL, 60035",119651884,"R"
300956,"839 BYRON PLACE","EAST MEADOW","NY",11554,40.704539836,-73.552625889,456,"839 BYRON PLACE, EAST MEADOW, NY, 11554","Match","Exact","839 BYRON PL, EAST MEADOW, NY, 11554",147632947,"L"
300957,"839 CENTENNIAL WAY SUITE 200","LANSING","MI",48917,42.724826299,-84.6451880939999,457,"839 CENTENNIAL WAY SUITE 200, LANSING, MI, 48917","Match","Exact","839 CENTENNIAL WAY, LANSING, MI, 48917",12040942,"L"
300958,"839 CHERRY STREET","CLARKSDALE","MS",38614,34.1985107790001,-90.594258134,458,"839 CHERRY STREET, CLARKSDALE, MS, 38614","Match","Exact","839 CHERRY ST, CLARKSDALE, MS, 38614",963042,"L"
300959,"839 CUSTER ST","CHEYENNE","WY",82009,41.1759608720001,-104.843780778,459,"839 CUSTER ST, CHEYENNE, WY, 82009","Match","Exact","839 CUSTER ST, CHEYENNE, WY, 82009",160147141,"L"
300960,"839 E 98TH ST","LOS ANGELES","CA",90002,33.9475172080001,-118.259900827,460,"839 E 98TH ST, LOS ANGELES, CA, 90002","Match","Exact","839 E 98TH ST, LOS ANGELES, CA, 90002",141671379,"L"
300961,"839 E CHERRYWOOD PL","CHANDLER","AZ",85249,33.232446279,-111.826686672,461,"839 E CHERRYWOOD PL, CHANDLER, AZ, 85249","Match","Exact","839 E CHERRYWOOD PL, CHANDLER, AZ, 85249",128854626,"R"
300962,"839 E SOUTH TEMPLE","SALT LAKE CITY","UT",84102,NA,NA,462,"839 E SOUTH TEMPLE, SALT LAKE CITY, UT, 84102","No_Match",NA,NA,NA,NA
300963,"839 EAST PHILADELPHIA STREET","YORK","PA",17403,39.9705026950001,-76.7115896179999,463,"839 EAST PHILADELPHIA STREET, YORK, PA, 17403","Match","Exact","839 E PHILADELPHIA ST, YORK, PA, 17403",617302582,"L"
300964,"839 ELGIN AVENUE","SALT LAKE CITY","UT",84106,40.705811205,-111.867142259,464,"839 ELGIN AVENUE, SALT LAKE CITY, UT, 84106","Match","Exact","839 ELGIN AVE, SALT LAKE CITY, UT, 84106",176081077,"L"
300965,"839 ENGLISH WALNUT WY","MORGAN HILL","CA",95037,37.1373275610001,-121.640673212,465,"839 ENGLISH WALNUT WY, MORGAN HILL, CA, 95037","Match","Exact","839 ENGLISH WALNUT WAY, MORGAN HILL, CA, 95037",123157631,"R"
300966,"839 ENGRAM BOULEVARD","DAYTONA BEACH","FL",32174,NA,NA,466,"839 ENGRAM BOULEVARD, DAYTONA BEACH, FL, 32174","No_Match",NA,NA,NA,NA
300967,"839 FREEMAN ST APT 1A","BRONX","NY",10459,40.8304864070001,-73.896049922,467,"839 FREEMAN ST APT 1A, BRONX, NY, 10459","Match","Exact","839 FREEMAN ST, BRONX, NY, 10459",80302075,"L"
300968,"839 GARRISONVILLE ROAD","STAFFORD","VA",22554,38.4705241090001,-77.454045831,468,"839 GARRISONVILLE ROAD, STAFFORD, VA, 22554","Match","Exact","839 GARRISONVILLE RD, STAFFORD, VA, 22554",25581647,"R"
300969,"839 GEORGIAN POINT DR","LAWRENCEVILLE","GA",30045,33.952537455,-83.941054929,469,"839 GEORGIAN POINT DR, LAWRENCEVILLE, GA, 30045","Match","Exact","839 GEORGIAN POINT DR, LAWRENCEVILLE, GA, 30045",88964201,"L"
300970,"839 HENDRIX STREET","PHILADELPHIA","PA",19116,40.1174320430001,-75.014245165,470,"839 HENDRIX STREET, PHILADELPHIA, PA, 19116","Match","Exact","839 HENDRIX ST, PHILADELPHIA, PA, 19116",131430869,"L"
300971,"839 ILLINOIS AVE","COLTON","CA",92324,34.072377461,-117.309011818,471,"839 ILLINOIS AVE, COLTON, CA, 92324","Match","Exact","839 ILLINOIS AVE, COLTON, CA, 92324",144970697,"L"
300972,"839 JEFFERSON AVE","CHARLES TOWN","WV",25414,39.2889303310001,-77.848367334,472,"839 JEFFERSON AVE, CHARLES TOWN, WV, 25414","Match","Exact","839 JEFFERSON AVE, CHARLES TOWN, WV, 25414",647538763,"L"
300973,"839 KAMEL DR","AUGUSTA","GA",30909,33.476091081,-82.0673635749999,473,"839 KAMEL DR, AUGUSTA, GA, 30909","Match","Exact","839 KAMEL DR, AUGUSTA, GA, 30909",55635264,"R"
300974,"839 KNICKERBOCKER AVE","BROOKLYN","NY",11207,40.6918970940001,-73.906187405,474,"839 KNICKERBOCKER AVE, BROOKLYN, NY, 11207","Match","Exact","839 KNICKERBOCKER AVE, BROOKLYN, NY, 11207",59084186,"L"
300975,"839 LITTLE DOGA RD","BURBANK","OK",74633,36.6518403260001,-96.813711788,475,"839 LITTLE DOGA RD, BURBANK, OK, 74633","Match","Exact","839 LITTLE DOGA RD, BURBANK, OK, 74633",82364721,"L"
300976,"839 LORETTA DRIVE","GOODLETTSVILLE","TN",37072,36.344550692,-86.710651596,476,"839 LORETTA DRIVE, GOODLETTSVILLE, TN, 37072","Match","Exact","839 LORETTA DR, GOODLETTSVILLE, TN, 37072",29792531,"R"
300977,"839 MAYFIELD RD","SHARPSVILLE","PA",16150,41.254447643,-80.483309289,477,"839 MAYFIELD RD, SHARPSVILLE, PA, 16150","Match","Exact","839 MAYFIELD RD, SHARPSVILLE, PA, 16150",70654037,"L"
300978,"839 MAYO COURT","BENICIA","CA",94510,38.0929671230001,-122.176052935,478,"839 MAYO COURT, BENICIA, CA, 94510","Match","Exact","839 MAYO CT, BENICIA, CA, 94510",192545721,"L"
300979,"839 MOUNTAIN VIEW TER NW","MARIETTA","GA",30064,33.953795891,-84.5750988409999,479,"839 MOUNTAIN VIEW TER NW, MARIETTA, GA, 30064","Match","Exact","839 MOUNTAIN VIEW TER NW, MARIETTA, GA, 30064",643437480,"L"
300980,"839 N JEFFERSON ST STE 310","MILWAUKEE","WI",53202,43.041790002,-87.90558586,480,"839 N JEFFERSON ST STE 310, MILWAUKEE, WI, 53202","Match","Non_Exact","839 N JEFFERSON ST, MILWAUKEE, WI, 53202",77744601,"L"
300981,"839 N JEFFERSON STREET","MILWAUKEE","WI",53202,43.041790002,-87.90558586,481,"839 N JEFFERSON STREET, MILWAUKEE, WI, 53202","Match","Exact","839 N JEFFERSON ST, MILWAUKEE, WI, 53202",77744601,"L"
300982,"839 NO 6TH STREET","NEWARK","NJ",7107,40.7782582620001,-74.176855329,482,"839 NO 6TH STREET, NEWARK, NJ, 7107","Match","Exact","839 N 6TH ST, NEWARK, NJ, 07107",63472670,"R"
300983,"839 NW OHIO","CHEHALIS","WA",98532,46.6694406560001,-122.977652948,483,"839 NW OHIO, CHEHALIS, WA, 98532","Match","Non_Exact","839 NW OHIO AVE, CHEHALIS, WA, 98532",180709446,"L"
300984,"839 OAK ROAD","KRONENWETTER","WI",54455,44.7954575570001,-89.634318262,484,"839 OAK ROAD, KRONENWETTER, WI, 54455","Match","Exact","839 OAK RD, KRONENWETTER, WI, 54455",117159494,"L"
300985,"839 RAMSEY ST","BALTIMORE","MD",21230,39.283722127,-76.630750077,485,"839 RAMSEY ST, BALTIMORE, MD, 21230","Match","Non_Exact","839 RAMSAY ST, BALTIMORE, MD, 21230",625290288,"L"
300986,"839 SAN JACINTO DRIVE","GRAND PRAIRIE","TX",75052,32.665198779,-96.993316583,486,"839 SAN JACINTO DRIVE, GRAND PRAIRIE, TX, 75052","Match","Exact","839 SAN JACINTO DR, GRAND PRAIRIE, TX, 75052",103177808,"R"
300987,"839 SENECA RD","GREAT FALLS","VA",22066,39.0133563150001,-77.344090718,487,"839 SENECA RD, GREAT FALLS, VA, 22066","Match","Exact","839 SENECA RD, GREAT FALLS, VA, 22066",215925201,"L"
300988,"839 SESAME STREET","BETHLEHEM","PA",18015,NA,NA,488,"839 SESAME STREET, BETHLEHEM, PA, 18015","No_Match",NA,NA,NA,NA
300989,"839 SPRING CREEK DR","RIPON","CA",95366,37.7418750300001,-121.114322485,489,"839 SPRING CREEK DR, RIPON, CA, 95366","Match","Exact","839 SPRING CREEK DR, RIPON, CA, 95366",133904661,"L"
300990,"839 TIMBER ISLE DRIVE","ORLANDO","FL",32838,28.5316832930001,-81.140913299,490,"839 TIMBER ISLE DRIVE, ORLANDO, FL, 32838","Match","Non_Exact","839 TIMBER ISLE DR, ORLANDO, FL, 32828",653184939,"L"
300991,"839 UNIVERSITY AVE","PALO ALTO","CA",94301,37.4524264140001,-122.15510739,491,"839 UNIVERSITY AVE, PALO ALTO, CA, 94301","Match","Exact","839 UNIVERSITY AVE, PALO ALTO, CA, 94301",122950200,"L"
300992,"839 VALLEY ST STE E","VAUXHALL","NJ",7088,40.720387493,-74.2869174479999,492,"839 VALLEY ST STE E, VAUXHALL, NJ, 7088","Match","Exact","839 VALLEY ST, VAUXHALL, NJ, 07088",60593092,"R"
300993,"839 YORK STREET","NEWPORT","KY",41071,39.0878194590001,-84.492153499,493,"839 YORK STREET, NEWPORT, KY, 41071","Match","Exact","839 YORK ST, NEWPORT, KY, 41071",104462249,"L"
300994,"8390 E CRESCENT PKWY","GREENWOOD VILLAGE","CO",80111,39.62284601,-104.890763181,494,"8390 E CRESCENT PKWY, GREENWOOD VILLAGE, CO, 80111","Match","Exact","8390 E CRESCENT PKWY, GREENWOOD VILLAGE, CO, 80111",611238204,"R"
300995,"8390 E KEMPER ROAD SUITE A","CINCINNATI","OH",45249,39.275256353,-84.3338423599999,495,"8390 E KEMPER ROAD SUITE A, CINCINNATI, OH, 45249","Match","Non_Exact","8390 E KEMPER RD, CINCINNATI, OH, 45249",103957930,"L"
300996,"8390 MAIN STREET","INTERLAKEN","NY",14847,42.6178102580001,-76.7248366159999,496,"8390 MAIN STREET, INTERLAKEN, NY, 14847","Match","Exact","8390 MAIN ST, INTERLAKEN, NY, 14847",14669831,"L"
300997,"8390 NORTH LEE TREVINO DRIVE","TUCSON","AZ",85742,32.3588824180001,-111.021024767,497,"8390 NORTH LEE TREVINO DRIVE, TUCSON, AZ, 85742","Match","Exact","8390 N LEE TREVINO DR, TUCSON, AZ, 85742",121157316,"R"
300998,"8390 W STARK ST","PORTLAND","OR",97229,45.5195572160001,-122.764677868,498,"8390 W STARK ST, PORTLAND, OR, 97229","Match","Exact","8390 W STARK ST, PORTLAND, OR, 97229",642888805,"R"
300999,"8391 EAST ALBA STREET","BAYOU LA BATRE","AL",36509,30.397209165,-88.242927381,499,"8391 EAST ALBA STREET, BAYOU LA BATRE, AL, 36509","Match","Exact","8391 E ALBA ST, BAYOU LA BATRE, AL, 36509",61838611,"L"
301000,"8391 OLD COURTHOUSE RD SUITE 300","VIENNA","VA",22182,38.9151763140001,-77.234967048,500,"8391 OLD COURTHOUSE RD SUITE 300, VIENNA, VA, 22182","Match","Non_Exact","8391 OLD COURTHOUSE RD, VIENNA, VA, 22182",75961895,"L"
