"ID","Address","City","State","Zip","lat","long","id","input_address","match_indicator","match_type","matched_address","tiger_line_id","tiger_side"
96001,"18904 OXFORD ROAD","SHAKER HTS.","OH",44122,41.477189024,-81.547746419,1,"18904 OXFORD ROAD, SHAKER HTS., OH, 44122","Match","Exact","18904 OXFORD RD, SHAKER HEIGHTS, OH, 44122",61125509,"R"
96002,"18904 RIDGELEIGH LN","LOUISVILLE","KY",40245,38.2414395220001,-85.4201860859999,2,"18904 RIDGELEIGH LN, LOUISVILLE, KY, 40245","Match","Exact","18904 RIDGELEIGH LN, LOUISVILLE, KY, 40245",619881062,"L"
96003,"18905 ENGLAND DRIVE","MACOMB","MI",48042,42.7131934080001,-82.936594788,3,"18905 ENGLAND DRIVE, MACOMB, MI, 48042","Match","Exact","18905 ENGLAND DR, MACOMB, MI, 48042",628796039,"L"
96004,"18905 N 44TH ST","PHOENIX","AZ",85050,33.658063413,-111.984976652,4,"18905 N 44TH ST, PHOENIX, AZ, 85050","Match","Exact","18905 N 44TH ST, PHOENIX, AZ, 85050",624024058,"L"
96005,"18906 DANIEL ST","LINDEN","CA",95236,38.023666145,-121.085037318,5,"18906 DANIEL ST, LINDEN, CA, 95236","Match","Exact","18906 DANIEL ST, LINDEN, CA, 95236",133857529,"R"
96006,"18907 E 50TH ST","TULSA","OK",74134,36.091298099,-95.768070659,6,"18907 E 50TH ST, TULSA, OK, 74134","Match","Exact","18907 E 50TH ST, TULSA, OK, 74134",624926111,"L"
96007,"18909 IMPULSE LN","GAITHERSBURG","MD",20879,39.167000671,-77.179358067,7,"18909 IMPULSE LN, GAITHERSBURG, MD, 20879","Match","Exact","18909 IMPULSE LN, GAITHERSBURG, MD, 20879",62092079,"R"
96008,"18909 LOCKWOOD ROAD","MANOR","TX",78653,30.3064998150001,-97.51979646,8,"18909 LOCKWOOD ROAD, MANOR, TX, 78653","Match","Exact","18909 LOCKWOOD RD, MANOR, TX, 78653",64123651,"R"
96009,"18909 W 99TH TERR","LENEXA","KS",66220,38.9477074500001,-94.804178454,9,"18909 W 99TH TERR, LENEXA, KS, 66220","Match","Exact","18909 W 99TH TER, LENEXA, KS, 66220",626294861,"L"
96010,"1891 BINNING ROAD","MANSFIELD","LA",71052,32.02546492,-93.687403678,10,"1891 BINNING ROAD, MANSFIELD, LA, 71052","Match","Exact","1891 BINNING RD, MANSFIELD, LA, 71052",67644185,"R"
96011,"1891 BRUNSWICK AVE","LAWRENCEVILLE","NJ",8648,40.2491886240001,-74.737502851,11,"1891 BRUNSWICK AVE, LAWRENCEVILLE, NJ, 8648","Match","Exact","1891 BRUNSWICK AVE, LAWRENCEVILLE, NJ, 08648",60179997,"L"
96012,"1891 BRYAN AVENUE","WINTER PARK","FL",32789,28.60265801,-81.328373251,12,"1891 BRYAN AVENUE, WINTER PARK, FL, 32789","Match","Exact","1891 BRYAN AVE, WINTER PARK, FL, 32789",94279410,"L"
96013,"1891 CR 406","HOUSTON","MS",38851,33.8847624370001,-88.841277871,13,"1891 CR 406, HOUSTON, MS, 38851","Match","Exact","1891 CO RD 406, HOUSTON, MS, 38851",649285985,"L"
96014,"1891 DONEGAL SPRINGS ROAD","MOUNT JOY","PA",17552,40.100402596,-76.5657856179999,14,"1891 DONEGAL SPRINGS ROAD, MOUNT JOY, PA, 17552","Match","Exact","1891 DONEGAL SPRINGS RD, MOUNT JOY, PA, 17552",179651555,"R"
96015,"1891 E GOSHEN AVENUE","FRESNO","CA",93720,36.850561332,-119.748673803,15,"1891 E GOSHEN AVENUE, FRESNO, CA, 93720","Match","Exact","1891 E GOSHEN AVE, FRESNO, CA, 93720",197617552,"R"
96016,"1891 GINA DRIVE","TALLAHASSEE","FL",32303,30.4682635030001,-84.3293743039999,16,"1891 GINA DRIVE, TALLAHASSEE, FL, 32303","Match","Exact","1891 GINA DR, TALLAHASSEE, FL, 32303",82866195,"R"
96017,"1891 HIGHWAY 449","PINE GOVE","LA",70453,NA,NA,17,"1891 HIGHWAY 449, PINE GOVE, LA, 70453","No_Match",NA,NA,NA,NA
96018,"1891 MAIN STREET","SANTA CLARA","CA",95050,37.357472381,-121.950255392,18,"1891 MAIN STREET, SANTA CLARA, CA, 95050","Match","Exact","1891 MAIN ST, SANTA CLARA, CA, 95050",122902145,"R"
96019,"1891 S SADDLE STREET","GILBERT","AZ",85233,33.3154523200001,-111.806234262,19,"1891 S SADDLE STREET, GILBERT, AZ, 85233","Match","Exact","1891 S SADDLE ST, GILBERT, AZ, 85233",128796286,"R"
96020,"1891 SAINT ANDREWS DR","MORAGA","CA",94556,37.83010283,-122.137044393,20,"1891 SAINT ANDREWS DR, MORAGA, CA, 94556","Match","Exact","1891 ST ANDREWS DR, MORAGA, CA, 94556",192072468,"L"
96021,"1891 W 13TH STREET","RIVIERA BEACH","FL",33404,26.774437219,-80.086829361,21,"1891 W 13TH STREET, RIVIERA BEACH, FL, 33404","Match","Exact","1891 W 13TH ST, RIVIERA BEACH, FL, 33404",115334371,"L"
96022,"1891 W STATE ROAD 67","PORTLAND","IN",47371,NA,NA,22,"1891 W STATE ROAD 67, PORTLAND, IN, 47371","Tie",NA,NA,NA,NA
96023,"18910 ELLIS LANE","HILLMAN","MI",49746,45.1078972120001,-83.967532256,23,"18910 ELLIS LANE, HILLMAN, MI, 49746","Match","Exact","18910 ELLIS LN, HILLMAN, MI, 49746",135980556,"L"
96024,"18910 W 116TH ST","OLATHE","KS",66061,38.9176487350001,-94.8045842499999,24,"18910 W 116TH ST, OLATHE, KS, 66061","Match","Exact","18910 W 116TH ST, OLATHE, KS, 66061",91328696,"L"
96025,"18911 COLLINS AVE /1201","SUNNY ISLES BEACH","FL",33160,25.9507109080001,-80.120623632,25,"18911 COLLINS AVE /1201, SUNNY ISLES BEACH, FL, 33160","Match","Exact","18911 COLLINS AVE, SUNNY ISLES BEACH, FL, 33160",609039752,"R"
96026,"18911 HARDY OAK SUITE 116","SAN ANTONIO","TX",78258,29.617826624,-98.476423418,26,"18911 HARDY OAK SUITE 116, SAN ANTONIO, TX, 78258","Match","Non_Exact","18911 HARDY OAK BLVD, SAN ANTONIO, TX, 78258",651467778,"L"
96027,"18911 RIDGELEIGH LN","LOUISVILLE","KY",40245,38.2413509510001,-85.420176536,27,"18911 RIDGELEIGH LN, LOUISVILLE, KY, 40245","Match","Exact","18911 RIDGELEIGH LN, LOUISVILLE, KY, 40245",619881062,"R"
96028,"18911 ROBIN LANE","TOMBALL","TX",77377,30.0964738750001,-95.714318387,28,"18911 ROBIN LANE, TOMBALL, TX, 77377","Match","Exact","18911 ROBIN LN, TOMBALL, TX, 77377",96000234,"L"
96029,"18911 SHIAWASSEE","DETROIT","MI",48219,42.4267909690001,-83.272623755,29,"18911 SHIAWASSEE, DETROIT, MI, 48219","Match","Non_Exact","18911 SHIAWASSEE DR, DETROIT, MI, 48219",95420529,"L"
96030,"18911 W FARMINGTON ROAD","TRIVOLI","IL",61569,40.697699357,-89.893869793,30,"18911 W FARMINGTON ROAD, TRIVOLI, IL, 61569","Match","Exact","18911 W FARMINGTON RD, TRIVOLI, IL, 61569",8708169,"R"
96031,"18912 MENDOTA ROAD","APPLE VALLEY","CA",92307,34.5287072670001,-117.25124111,31,"18912 MENDOTA ROAD, APPLE VALLEY, CA, 92307","Match","Exact","18912 MENDOTA RD, APPLE VALLEY, CA, 92307",144736189,"L"
96032,"18913 NOTTINGHAM ROAD","CLEVELAND","OH",44110,41.5732448210001,-81.5469711549999,32,"18913 NOTTINGHAM ROAD, CLEVELAND, OH, 44110","Match","Exact","18913 NOTTINGHAM RD, CLEVELAND, OH, 44110",638777095,"L"
96033,"18914 110TH AVE CT E","PUYALLUP","WA",98374,47.084666833,-122.276746055,33,"18914 110TH AVE CT E, PUYALLUP, WA, 98374","Match","Exact","18914 110TH AVENUE CT E, PUYALLUP, WA, 98374",652012823,"L"
96034,"18914 36TH AVE WEST","LYNNWOOD","WA",98036,47.8270045250001,-122.281850266,34,"18914 36TH AVE WEST, LYNNWOOD, WA, 98036","Match","Exact","18914 36TH AVE W, LYNNWOOD, WA, 98036",187791117,"R"
96035,"18914 GIFFORD RD","WELLINGTON","OH",44090,41.212008928,-82.2901863929999,35,"18914 GIFFORD RD, WELLINGTON, OH, 44090","Match","Exact","18914 GIFFORD RD, WELLINGTON, OH, 44090",55432677,"R"
96036,"18914 HARNETT ST","NORTHRIDGE","CA",91326,34.2614320910001,-118.54545388,36,"18914 HARNETT ST, NORTHRIDGE, CA, 91326","Match","Exact","18914 HARNETT ST, NORTHRIDGE, CA, 91326",141539546,"L"
96037,"18914 MORANT BAY DR","RICHMOND","TX",77407,29.6781685760001,-95.712057481,37,"18914 MORANT BAY DR, RICHMOND, TX, 77407","Match","Exact","18914 MORANT BAY DR, RICHMOND, TX, 77407",648706946,"R"
96038,"18915 DEER HOLLOW RD","HIDDEN VALLEY LAKE","CA",95467,38.8010571450001,-122.559557781,38,"18915 DEER HOLLOW RD, HIDDEN VALLEY LAKE, CA, 95467","Match","Exact","18915 DEER HOLLOW RD, HIDDEN VALLEY LAKE, CA, 95467",67040012,"L"
96039,"18915 FAIRFIELD BLVD","NOBLESVILLE","IN",46060,40.06314101,-86.000017353,39,"18915 FAIRFIELD BLVD, NOBLESVILLE, IN, 46060","Match","Exact","18915 FAIRFIELD BLVD, NOBLESVILLE, IN, 46060",29314239,"L"
96040,"18915 HIKERS TRAIL DR","HUMBLE","TX",77346,29.9927147510001,-95.144731178,40,"18915 HIKERS TRAIL DR, HUMBLE, TX, 77346","Match","Exact","18915 HIKERS TRAIL DR, HUMBLE, TX, 77346",96134315,"L"
96041,"18916 197TH AVE NE","WOODINVILLE","WA",98077,47.7653246020001,-122.074125423,41,"18916 197TH AVE NE, WOODINVILLE, WA, 98077","Match","Exact","18916 197TH AVE NE, WOODINVILLE, WA, 98077",186926324,"R"
96042,"18916 BREEZY LANE","HUNTINGTON BEACH","CA",92648,33.6877761100001,-117.999023066,42,"18916 BREEZY LANE, HUNTINGTON BEACH, CA, 92648","Match","Exact","18916 BREEZY LN, HUNTINGTON BEACH, CA, 92648",609061763,"L"
96043,"18916 PORT HAVEN PL","GERMANTOWN","MD",20874,39.1657464990001,-77.257885944,43,"18916 PORT HAVEN PL, GERMANTOWN, MD, 20874","Match","Exact","18916 PORT HAVEN PL, GERMANTOWN, MD, 20874",637423901,"L"
96044,"18918 BLUESTONE HOLLOW LANE","TOMBALL","TX",77377,30.031225766,-95.6327862959999,44,"18918 BLUESTONE HOLLOW LANE, TOMBALL, TX, 77377","Match","Exact","18918 BLUESTONE HOLLOW LN, TOMBALL, TX, 77377",627681522,"L"
96045,"18918 LIVE OAK TRAIL","TOMBALL","TX",77377,30.089080107,-95.717007494,45,"18918 LIVE OAK TRAIL, TOMBALL, TX, 77377","Match","Exact","18918 LIVE OAK TRL, TOMBALL, TX, 77377",96000256,"L"
96046,"18918 SAN JUAN DR","DETROIT","MI",48221,42.4299923400001,-83.1468846,46,"18918 SAN JUAN DR, DETROIT, MI, 48221","Match","Exact","18918 SAN JUAN DR, DETROIT, MI, 48221",95460900,"R"
96047,"18919 81ST AVE W","EDMONDS","WA",98026,47.8276439680001,-122.343104844,47,"18919 81ST AVE W, EDMONDS, WA, 98026","Match","Exact","18919 81ST AVE W, EDMONDS, WA, 98026",187752208,"L"
96048,"18919 EAST SILVERHILL AVENUE","ROBERTSDALE","AL",36567,30.545677363,-87.700964137,48,"18919 EAST SILVERHILL AVENUE, ROBERTSDALE, AL, 36567","Match","Exact","18919 E SILVERHILL AVE, ROBERTSDALE, AL, 36567",131733295,"R"
96049,"18919 HERITAGE POINT BLVD","MAGNOLIA","TX",77355,30.171616784,-95.75139891,49,"18919 HERITAGE POINT BLVD, MAGNOLIA, TX, 77355","Match","Exact","18919 HERITAGE POINT BLVD, MAGNOLIA, TX, 77355",79324931,"L"
96050,"1892 1250TH AV","LINCOLN","IL",62656,40.1915138320001,-89.359415468,50,"1892 1250TH AV, LINCOLN, IL, 62656","Match","Exact","1892 1250TH AVE, LINCOLN, IL, 62656",22457611,"R"
96051,"1892 CEDAR STREET UNIT B","ALHAMBRA","CA",91801,34.0941634280001,-118.143911562,51,"1892 CEDAR STREET UNIT B, ALHAMBRA, CA, 91801","Match","Exact","1892 CEDAR ST, ALHAMBRA, CA, 91801",142674821,"L"
96052,"1892 CHAMPLAIN DRIVE","SEVERN","MD",21144,39.1384324590001,-76.728365644,52,"1892 CHAMPLAIN DRIVE, SEVERN, MD, 21144","Match","Exact","1892 CHAMPLAIN DR, SEVERN, MD, 21144",68213748,"R"
96053,"1892 DAWN MEADOW STREET","WESTLAKE VILLAGE","CA",91362,34.1959496970001,-118.80613199,53,"1892 DAWN MEADOW STREET, WESTLAKE VILLAGE, CA, 91362","Match","Exact","1892 DAWN MEADOW ST, WESTLAKE VILLAGE, CA, 91362",110022904,"R"
96054,"1892 E 600 RD","LECOMPTON","KS",66050,39.013626285,-95.391397075,54,"1892 E 600 RD, LECOMPTON, KS, 66050","Match","Exact","1892 E 600 RD, LECOMPTON, KS, 66050",17694942,"R"
96055,"1892 LAKENOLL DRIVE","CINCINNATI","OH",45231,39.2277367840001,-84.555091658,55,"1892 LAKENOLL DRIVE, CINCINNATI, OH, 45231","Match","Exact","1892 LAKENOLL DR, CINCINNATI, OH, 45231",103979624,"L"
96056,"1892 MARKONE ST NW","ATLANTA","GA",30318,33.769810229,-84.4489775119999,56,"1892 MARKONE ST NW, ATLANTA, GA, 30318","Match","Exact","1892 MARKONE ST NW, ATLANTA, GA, 30318",17340087,"L"
96057,"1892 POLENTA RD","CLAYTON","NC",27520,35.5514799750001,-78.4994756849999,57,"1892 POLENTA RD, CLAYTON, NC, 27520","Match","Exact","1892 POLENTA RD, CLAYTON, NC, 27520",604796575,"R"
96058,"1892 POLENTA ROAD","CLAYTON","NC",27520,35.5514799750001,-78.4994756849999,58,"1892 POLENTA ROAD, CLAYTON, NC, 27520","Match","Exact","1892 POLENTA RD, CLAYTON, NC, 27520",604796575,"R"
96059,"1892 RIVER ROCK ARCH","VIRGINIA BEACH","VA",23456,36.782274842,-76.109413204,59,"1892 RIVER ROCK ARCH, VIRGINIA BEACH, VA, 23456","Match","Exact","1892 RIVER ROCK ARCH, VA BCH, VA, 23456",122301619,"R"
96060,"1892 SOMERSET RIDGE DRIVE","DRAPER","UT",84020,40.520421481,-111.837654837,60,"1892 SOMERSET RIDGE DRIVE, DRAPER, UT, 84020","Match","Exact","1892 SOMERSET RIDGE DR, DRAPER, UT, 84020",604585368,"R"
96061,"18920 PACIFIC AVE S","SPANAWAY","WA",98387,47.0942120610001,-122.43497839,61,"18920 PACIFIC AVE S, SPANAWAY, WA, 98387","Match","Non_Exact","18920 PACIFIC AVE, SPANAWAY, WA, 98387",184637375,"R"
96062,"18921 NW 28TH PLACE","MIAMI GARDENS","FL",33056,25.9464961310001,-80.248634078,62,"18921 NW 28TH PLACE, MIAMI GARDENS, FL, 33056","Match","Exact","18921 NW 28TH PL, MIAMI GARDENS, FL, 33056",116027685,"R"
96063,"18922 MAPLE VALLEY CIRCLE","HAGERSTOWN","MD",21742,39.68815678,-77.70549533,63,"18922 MAPLE VALLEY CIRCLE, HAGERSTOWN, MD, 21742","Match","Exact","18922 MAPLE VALLEY CR, HAGERSTOWN, MD, 21742",625018363,"L"
96064,"18922 ONATRIO STREET","OMAHA","NE",68130,41.225482959,-96.211919095,64,"18922 ONATRIO STREET, OMAHA, NE, 68130","Match","Non_Exact","18922 ONTARIO ST, OMAHA, NE, 68130",633150062,"L"
96065,"18922 VICTORY BLVD","RESEDA","CA",91335,34.1865821000001,-118.54559414,65,"18922 VICTORY BLVD, RESEDA, CA, 91335","Match","Exact","18922 VICTORY BLVD, RESEDA, CA, 91335",141554382,"L"
96066,"18923 REMINGTON SPRINGS DRIVE","HOUSTON","TX",77073,29.9727729740001,-95.404248918,66,"18923 REMINGTON SPRINGS DRIVE, HOUSTON, TX, 77073","Match","Exact","18923 REMINGTON SPRINGS DR, HOUSTON, TX, 77073",633576335,"L"
96067,"18924 MARTIN COURT","COUNTRY CLUB HILLS","IL",60478,41.544600942,-87.730147863,67,"18924 MARTIN COURT, COUNTRY CLUB HILLS, IL, 60478","Match","Exact","18924 MARTIN CT, COUNTRY CLUB HILLS, IL, 60478",111707594,"L"
96068,"18924 MONTGOMERY VILLAGE AVENUE","MONTGOMERY","MD",20886,39.1668725710001,-77.205176007,68,"18924 MONTGOMERY VILLAGE AVENUE, MONTGOMERY, MD, 20886","Match","Non_Exact","18924 MONTGOMERY VILLAGE AVE, MONTGOMERY VILLAGE, MD, 20886",62050612,"L"
96069,"18924 W MEADOW GRASS DRIVE","LAKE VILLA","IL",60046,42.401152348,-88.0028852889999,69,"18924 W MEADOW GRASS DRIVE, LAKE VILLA, IL, 60046","Match","Exact","18924 MEADOW GRASS DR, LAKE VILLA, IL, 60046",119755687,"L"
96070,"18925 NW 23RD AVE","MIAMI GARDENS","FL",33056,25.9470212190001,-80.2399470839999,70,"18925 NW 23RD AVE, MIAMI GARDENS, FL, 33056","Match","Exact","18925 NW 23RD AVE, MIAMI GARDENS, FL, 33056",116027868,"R"
96071,"18927 E UTAH CIRCLE","AURORA","CO",80017,39.6824455,-104.768343049,71,"18927 E UTAH CIRCLE, AURORA, CO, 80017","Match","Exact","18927 E UTAH CIR, AURORA, CO, 80017",177356960,"R"
96072,"18928 CANYON SAGE LANE","PFLUGERVILLE","TX",78660,30.4623199550001,-97.5825111999999,72,"18928 CANYON SAGE LANE, PFLUGERVILLE, TX, 78660","Match","Exact","18928 CANYON SAGE LN, PFLUGERVILLE, TX, 78660",639632995,"R"
96073,"18928 EAST CHOKEBERRY STREET","OWASSO","OK",74055,36.2429706770001,-95.764119168,73,"18928 EAST CHOKEBERRY STREET, OWASSO, OK, 74055","Match","Exact","18928 E CHOKEBERRY ST, OWASSO, OK, 74055",651182108,"R"
96074,"1892A LAWRENCE LANE","PORCUPINE","SD",57772,NA,NA,74,"1892A LAWRENCE LANE, PORCUPINE, SD, 57772","No_Match",NA,NA,NA,NA
96075,"1893 APPALOOSA RUN TRAIL NORTHEAST","BUFORD","GA",30519,34.0631292670001,-83.9744979,75,"1893 APPALOOSA RUN TRAIL NORTHEAST, BUFORD, GA, 30519","Match","Non_Exact","1893 APPALOOSA RUN TRL, BUFORD, GA, 30519",627009205,"R"
96076,"1893 DREW ST","CLEARWATER","FL",33765,27.967980405,-82.7590992089999,76,"1893 DREW ST, CLEARWATER, FL, 33765","Match","Exact","1893 DREW ST, CLEARWATER, FL, 33765",124669463,"R"
96077,"1893 E SKYLINE DR SUITE 203","SOUTH OGDEN","UT",84405,NA,NA,77,"1893 E SKYLINE DR SUITE 203, SOUTH OGDEN, UT, 84405","No_Match",NA,NA,NA,NA
96078,"1893 LAGUNA VISTA DRIVE","OREM","UT",84058,40.2628404980001,-111.701338689,78,"1893 LAGUNA VISTA DRIVE, OREM, UT, 84058","Match","Exact","1893 LAGUNA VISTA DR, OREM, UT, 84058",134206233,"L"
96079,"1893 LEATHERS RD","LAWRENCEBURG","KY",40342,37.925108994,-85.077745385,79,"1893 LEATHERS RD, LAWRENCEBURG, KY, 40342","Match","Exact","1893 LEATHERS RD, LAWRENCEBURG, KY, 40342",43452243,"R"
96080,"1893 MAPLE PLACE","KEYPORT","NJ",7735,NA,NA,80,"1893 MAPLE PLACE, KEYPORT, NJ, 7735","No_Match",NA,NA,NA,NA
96081,"1893 PALM PLACE","VALDOSTA","GA",31602,30.862790429,-83.257733935,81,"1893 PALM PLACE, VALDOSTA, GA, 31602","Match","Exact","1893 PALM PL, VALDOSTA, GA, 31602",624022173,"L"
96082,"1893 S NEWCOMB ST","PORTERVILLE","CA",93257,36.032940121,-119.05333482,82,"1893 S NEWCOMB ST, PORTERVILLE, CA, 93257","Match","Exact","1893 S NEWCOMB ST, PORTERVILLE, CA, 93257",202795982,"L"
96083,"1893 STATION PKWY NW","ANDOVER","MN",55304,NA,NA,83,"1893 STATION PKWY NW, ANDOVER, MN, 55304","No_Match",NA,NA,NA,NA
96084,"18930 BOTHELL EVERETT HWY F302","BOTHELL","WA",98012,47.827028576,-122.208694235,84,"18930 BOTHELL EVERETT HWY F302, BOTHELL, WA, 98012","Match","Exact","18930 BOTHELL EVERETT HWY, BOTHELL, WA, 98012",608926548,"L"
96085,"18930 EAST WARREN CIRCLE-UNIT 205","AURORA","CO",80013,NA,NA,85,"18930 EAST WARREN CIRCLE-UNIT 205, AURORA, CO, 80013","Tie",NA,NA,NA,NA
96086,"18930 GREENFIELD ROAD","DETROIT","MI",48235,42.428959289,-83.199807584,86,"18930 GREENFIELD ROAD, DETROIT, MI, 48235","Match","Exact","18930 GREENFIELD RD, DETROIT, MI, 48235",95424089,"R"
96087,"18930 NW 44 CT","MIAMI GARDENS","FL",33055,25.945732767,-80.274321116,87,"18930 NW 44 CT, MIAMI GARDENS, FL, 33055","Match","Exact","18930 NW 44TH CT, MIAMI GARDENS, FL, 33055",640561684,"L"
96088,"18930 NW 8TH AVENUE","MIAMI","FL",33169,25.9483508440001,-80.215116754,88,"18930 NW 8TH AVENUE, MIAMI, FL, 33169","Match","Exact","18930 NW 8TH AVE, MIAMI, FL, 33169",116029576,"L"
96089,"18931 COLIMA RD STE A","ROWLAND HEIGHTS","CA",91748,33.9876259820001,-117.891510741,89,"18931 COLIMA RD STE A, ROWLAND HEIGHTS, CA, 91748","Match","Exact","18931 COLIMA RD, ROWLAND HEIGHTS, CA, 91748",142801477,"L"
96090,"18931 EMBERS AVE","FARMINGTON","MN",55024,44.67490923,-93.1675022059999,90,"18931 EMBERS AVE, FARMINGTON, MN, 55024","Match","Exact","18931 EMBERS AVE, FARMINGTON, MN, 55024",638713841,"R"
96091,"18931 HYACINTH RD","CARTHAGE","MO",64836,37.1666052050001,-94.398465265,91,"18931 HYACINTH RD, CARTHAGE, MO, 64836","Match","Exact","18931 HYACINTH RD, CARTHAGE, MO, 64836",66155133,"L"
96092,"18931 SANTA MARIA DR","BATON ROUGE","LA",70809,30.3418693570001,-91.000938724,92,"18931 SANTA MARIA DR, BATON ROUGE, LA, 70809","Match","Exact","18931 SANTA MARIA DR, BATON ROUGE, LA, 70809",635123269,"L"
96093,"18932 GEETING RD","KEEDYSVILLE","MD",21756,39.4686968880001,-77.708903903,93,"18932 GEETING RD, KEEDYSVILLE, MD, 21756","Match","Exact","18932 GEETING RD, KEEDYSVILLE, MD, 21756",617514395,"L"
96094,"18932 NW 27TH AVENUE SUITE 213","MIAMI GARDENS","FL",33056,25.947321715,-80.245624601,94,"18932 NW 27TH AVENUE SUITE 213, MIAMI GARDENS, FL, 33056","Match","Non_Exact","18932 NW 27TH AVE, MIAMI GARDENS, FL, 33056",650080674,"L"
96095,"18932 SOUTH 209TH WAY","QUEEN CREEK","AZ",85142,33.2765803350001,-111.631308984,95,"18932 SOUTH 209TH WAY, QUEEN CREEK, AZ, 85142","Match","Exact","18932 S 209TH WAY, QUEEN CREEK, AZ, 85142",652499369,"L"
96096,"18933 JEFFERSON RD","MORLEY","MI",49336,43.4899713710001,-85.4612207819999,96,"18933 JEFFERSON RD, MORLEY, MI, 49336","Match","Exact","18933 JEFFERSON RD, MORLEY, MI, 49336",110520259,"L"
96097,"18933 LINDENHOUSE RD","GAITHERSBURG","MD",20879,39.1671672260001,-77.19049341,97,"18933 LINDENHOUSE RD, GAITHERSBURG, MD, 20879","Match","Exact","18933 LINDENHOUSE RD, GAITHERSBURG, MD, 20879",62050309,"R"
96098,"18933 W WINDSOR BLVD","LITCHFIELD PARK","AZ",85340,33.5109536030001,-112.466606169,98,"18933 W WINDSOR BLVD, LITCHFIELD PARK, AZ, 85340","Match","Exact","18933 W WINDSOR BLVD, LITCHFIELD PARK, AZ, 85340",646902931,"R"
96099,"18934 62ND AVENUE","CHIPPEWA FALLS","WI",54729,44.9325056800001,-91.287953317,99,"18934 62ND AVENUE, CHIPPEWA FALLS, WI, 54729","Match","Exact","18934 62ND AVE, CHIPPEWA FALLS, WI, 54729",624837018,"R"
96100,"18934 LASSEN STREET","NORTHRIDGE","CA",91324,34.2500018530001,-118.545625231,100,"18934 LASSEN STREET, NORTHRIDGE, CA, 91324","Match","Exact","18934 LASSEN ST, NORTHRIDGE, CA, 91324",640414166,"L"
96101,"18935 15 1/2 MILE RD","MARSHALL","MI",49068,42.3464733710001,-84.99513938,101,"18935 15 1/2 MILE RD, MARSHALL, MI, 49068","Match","Exact","18935 15 1/2 MILE RD, MARSHALL, MI, 49068",11706169,"L"
96102,"18935 GREENFIELD ROAD","DETROIT","MI",48235,42.4289902830001,-83.199823661,102,"18935 GREENFIELD ROAD, DETROIT, MI, 48235","Match","Exact","18935 GREENFIELD RD, DETROIT, MI, 48235",95424089,"L"
96103,"18937 E COLIMA RD","ROWLAND HEIGHTS","CA",91748,33.9876191210001,-117.891399003,103,"18937 E COLIMA RD, ROWLAND HEIGHTS, CA, 91748","Match","Exact","18937 COLIMA RD, ROWLAND HEIGHTS, CA, 91748",142801477,"L"
96104,"18938 TUBA STREET","NORTHRIDGE","CA",91324,34.25671571,-118.546195831,104,"18938 TUBA STREET, NORTHRIDGE, CA, 91324","Match","Exact","18938 TUBA ST, NORTHRIDGE, CA, 91324",141539559,"L"
96105,"1894 COMMONWEALTH AVENUE","MERRICK","NY",11566,40.6645229960001,-73.557496826,105,"1894 COMMONWEALTH AVENUE, MERRICK, NY, 11566","Match","Exact","1894 COMMONWEALTH AVE, MERRICK, NY, 11566",147635657,"R"
96106,"1894 E WILLIAM ST STE4-637","CARSON CITY","NV",89701,39.172846667,-119.74784351,106,"1894 E WILLIAM ST STE4-637, CARSON CITY, NV, 89701","Match","Non_Exact","1894 E WILLIAM ST, CARSON CITY, NV, 89701",199518649,"R"
96107,"1894 E WILLIAM STREET SUITE 4 - 231","CARSON CITY","NV",89701,39.172846667,-119.74784351,107,"1894 E WILLIAM STREET SUITE 4 - 231, CARSON CITY, NV, 89701","Match","Non_Exact","1894 E WILLIAM ST, CARSON CITY, NV, 89701",199518649,"R"
96108,"1894 E WILLIAMS STREET STE 4 349","CARSON CITY","NV",89701,NA,NA,108,"1894 E WILLIAMS STREET STE 4 349, CARSON CITY, NV, 89701","No_Match",NA,NA,NA,NA
96109,"1894 EAST 14TH STREET","BROOKLYN","NY",11229,40.603639732,-73.958265312,109,"1894 EAST 14TH STREET, BROOKLYN, NY, 11229","Match","Exact","1894 E 14TH ST, BROOKLYN, NY, 11229",59089923,"R"
96110,"1894 FLATBUSH AVENUE","BROOKLYN","NY",11210,40.6233497960001,-73.937644789,110,"1894 FLATBUSH AVENUE, BROOKLYN, NY, 11210","Match","Exact","1894 FLATBUSH AVE, BROOKLYN, NY, 11210",59090329,"R"
96111,"1894 LONGVIEW LN","DANDRIDGE","TN",37725,36.0483906110001,-83.364925515,111,"1894 LONGVIEW LN, DANDRIDGE, TN, 37725","Match","Exact","1894 LONGVIEW LN, DANDRIDGE, TN, 37725",42572495,"R"
96112,"1894 PRESTON WHITE DR","RESTON","VA",20191,38.941871716,-77.3268767759999,112,"1894 PRESTON WHITE DR, RESTON, VA, 20191","Match","Exact","1894 PRESTON WHITE DR, RESTON, VA, 20191",76021634,"R"
96113,"1894 S 14 ST STE2","FERNANDINA BEACH","FL",32034,NA,NA,113,"1894 S 14 ST STE2, FERNANDINA BEACH, FL, 32034","No_Match",NA,NA,NA,NA
96114,"1894 S VANDYKE","MARLETTE","MI",48453,43.360409836,-83.0851388359999,114,"1894 S VANDYKE, MARLETTE, MI, 48453","Match","Non_Exact","1894 S VAN DYKE RD, MARLETTE, MI, 48453",111063998,"L"
96115,"1894 W CAMELOT DRIVE","FLAGSTAFF","AZ",86001,35.180539449,-111.679316946,115,"1894 W CAMELOT DRIVE, FLAGSTAFF, AZ, 86001","Match","Exact","1894 W CAMELOT DR, FLAGSTAFF, AZ, 86001",188981876,"R"
96116,"1894 WHARF ROAD","SARASOTA","FL",34231,27.2219389630001,-82.494056507,116,"1894 WHARF ROAD, SARASOTA, FL, 34231","Match","Exact","1894 WHARF RD, SARASOTA, FL, 34231",16357754,"R"
96117,"18943 100TH AVENUE N","MAPLE GROVE","MN",55311,45.1358940630001,-93.52064129,117,"18943 100TH AVENUE N, MAPLE GROVE, MN, 55311","Match","Exact","18943 100TH AVE N, MAPLE GROVE, MN, 55311",43676451,"R"
96118,"18943 RED ROBIN TERRACE","GERMANTOWN","MD",20874,39.1655453660001,-77.268229597,118,"18943 RED ROBIN TERRACE, GERMANTOWN, MD, 20874","Match","Exact","18943 RED ROBIN TER, GERMANTOWN, MD, 20874",636221573,"L"
96119,"18943 VICKIE AVENUE  APT 14","CERRITOS","CA",90703,33.8592357150001,-118.05271922,119,"18943 VICKIE AVENUE  APT 14, CERRITOS, CA, 90703","Match","Exact","18943 VICKIE AVE, CERRITOS, CA, 90703",141753957,"R"
96120,"18944 117TH LN SE","RENTON","WA",98058,NA,NA,120,"18944 117TH LN SE, RENTON, WA, 98058","No_Match",NA,NA,NA,NA
96121,"18945 CHAPEL HILL DRIVE","BROOKFIELD","WI",53045,43.0945338450001,-88.147666221,121,"18945 CHAPEL HILL DRIVE, BROOKFIELD, WI, 53045","Match","Exact","18945 CHAPEL HILL DR, BROOKFIELD, WI, 53045",221921998,"L"
96122,"18945 FIELDING STREET","DETROIT","MI",48219,42.427666888,-83.2442182939999,122,"18945 FIELDING STREET, DETROIT, MI, 48219","Match","Exact","18945 FIELDING ST, DETROIT, MI, 48219",95421629,"L"
96123,"18945 MALLINA ST","DETROIT","MI",48236,42.4206380320001,-82.922649231,123,"18945 MALLINA ST, DETROIT, MI, 48236","Match","Exact","18945 MALLINA ST, DETROIT, MI, 48236",95720323,"L"
96124,"18946 ROCKY CREEK DRIVE","LEESBURG","VA",20176,39.091266897,-77.50796337,124,"18946 ROCKY CREEK DRIVE, LEESBURG, VA, 20176","Match","Exact","18946 ROCKY CREEK DR, LEESBURG, VA, 20176",62369584,"L"
96125,"18949 HYLA AVENUE","LAKEVILLE","MN",55044,44.674897953,-93.247025502,125,"18949 HYLA AVENUE, LAKEVILLE, MN, 55044","Match","Exact","18949 HYLA AVE, LAKEVILLE, MN, 55044",642360600,"R"
96126,"18949 MARSH LANE 1021","DALLAS","TX",75287,NA,NA,126,"18949 MARSH LANE 1021, DALLAS, TX, 75287","No_Match",NA,NA,NA,NA
96127,"18949 MARSHA LANE APT 1013","DALLAS","TX",75287,NA,NA,127,"18949 MARSHA LANE APT 1013, DALLAS, TX, 75287","No_Match",NA,NA,NA,NA
96128,"18949 ROBERTS ROAD","RIVERSIDE","CA",92508,33.9000165360001,-117.332679145,128,"18949 ROBERTS ROAD, RIVERSIDE, CA, 92508","Match","Exact","18949 ROBERTS RD, RIVERSIDE, CA, 92508",194746994,"R"
96129,"1895 21ST AVENUE","GALVA","KS",67443,38.4470804590001,-97.537476242,129,"1895 21ST AVENUE, GALVA, KS, 67443","Match","Exact","1895 21ST AVE, GALVA, KS, 67443",646612876,"L"
96130,"1895 9TH ST","ATLANTA","GA",30341,33.8754991180001,-84.3113400349999,130,"1895 9TH ST, ATLANTA, GA, 30341","Match","Exact","1895 9TH ST, ATLANTA, GA, 30341",23358836,"R"
96131,"1895 BARNUM AVENUE","STRATFORD","CT",6614,41.193171513,-73.146289509,131,"1895 BARNUM AVENUE, STRATFORD, CT, 6614","Match","Exact","1895 BARNUM AVE, STRATFORD, CT, 06614",3227084,"L"
96132,"1895 BLOSSOM COURT SE","MOULTRIE","GA",31765,31.152146772,-83.777280988,132,"1895 BLOSSOM COURT SE, MOULTRIE, GA, 31765","Match","Non_Exact","1895 BLOSSOM CT SE, MOULTRIE, GA, 31768",628618034,"R"
96133,"1895 BROUGHTON STREET","ORANGEBURG","SC",29115,33.4972866690001,-80.872947827,133,"1895 BROUGHTON STREET, ORANGEBURG, SC, 29115","Match","Exact","1895 BROUGHTON ST, ORANGEBURG, SC, 29115",19217255,"L"
96134,"1895 COOLCREST AVE","UPLAND","CA",91784,NA,NA,134,"1895 COOLCREST AVE, UPLAND, CA, 91784","Tie",NA,NA,NA,NA
96135,"1895 COOLCREST AVENUE","UPLAND","CA",91784,NA,NA,135,"1895 COOLCREST AVENUE, UPLAND, CA, 91784","Tie",NA,NA,NA,NA
96136,"1895 GRAFTON RD","MORGANTOWN","WV",26508,39.5473128130001,-79.935732957,136,"1895 GRAFTON RD, MORGANTOWN, WV, 26508","Match","Exact","1895 GRAFTON RD, MORGANTOWN, WV, 26508",50773029,"R"
96137,"1895 KINGSLEY AVENUE SUITE 903","ORANGE PARK","FL",32073,30.1649805210001,-81.734188971,137,"1895 KINGSLEY AVENUE SUITE 903, ORANGE PARK, FL, 32073","Match","Exact","1895 KINGSLEY AVE, ORANGE PARK, FL, 32073",606225872,"L"
96138,"1895 LAKESHORE DR","WESTON","FL",33326,26.09631153,-80.371073274,138,"1895 LAKESHORE DR, WESTON, FL, 33326","Match","Exact","1895 LAKESHORE DR, WESTON, FL, 33326",614703731,"L"
96139,"1895 LEE ROAD 177","OPELIKA","AL",36804,32.689127732,-85.2944629259999,139,"1895 LEE ROAD 177, OPELIKA, AL, 36804","Match","Exact","1895 LEE ROAD 177, OPELIKA, AL, 36804",1600978,"L"
96140,"1895 LINCOLN ROAD","HATTIESBURG","MS",39401,31.304080072,-89.3196734749999,140,"1895 LINCOLN ROAD, HATTIESBURG, MS, 39401","Match","Non_Exact","1895 LINCOLN RD, HATTIESBURG, MS, 39402",324649,"R"
96141,"1895 MINNEHAHA AVENE WEST  APT 3","SAINT PAUL","MN",55104,NA,NA,141,"1895 MINNEHAHA AVENE WEST  APT 3, SAINT PAUL, MN, 55104","No_Match",NA,NA,NA,NA
96142,"1895 MONTEREY ST","SAN LUIS OBISPO","CA",93401,35.289162919,-120.651020066,142,"1895 MONTEREY ST, SAN LUIS OBISPO, CA, 93401","Match","Exact","1895 MONTEREY ST, SAN LUIS OBISPO, CA, 93401",109845393,"R"
96143,"1895 N TREKELL RD SUITE 8","CASA GRANDE","AZ",85122,32.9048892100001,-111.739973199,143,"1895 N TREKELL RD SUITE 8, CASA GRANDE, AZ, 85122","Match","Non_Exact","1895 N TREKELL RD, CASA GRANDE, AZ, 85122",129282564,"L"
96144,"1895 N TREKELL ROAD SUITE 3","CASA GRANDE","AZ",85122,32.9048892100001,-111.739973199,144,"1895 N TREKELL ROAD SUITE 3, CASA GRANDE, AZ, 85122","Match","Non_Exact","1895 N TREKELL RD, CASA GRANDE, AZ, 85122",129282564,"L"
96145,"1895 NW 75TH STREET","MIAMI","FL",33147,25.843193027,-80.2291569619999,145,"1895 NW 75TH STREET, MIAMI, FL, 33147","Match","Exact","1895 NW 75TH ST, MIAMI, FL, 33147",116056284,"R"
96146,"1895 SPRINGCREST ROAD","COLORADO SPRINGS","CO",80920,38.9704486430001,-104.79297965,146,"1895 SPRINGCREST ROAD, COLORADO SPRINGS, CO, 80920","Match","Exact","1895 SPRINGCREST RD, CO SPGS, CO, 80920",105547415,"R"
96147,"1895 TOWER ROAD","SUBLETTE","IL",61367,41.658649537,-89.269266924,147,"1895 TOWER ROAD, SUBLETTE, IL, 61367","Match","Exact","1895 TOWER RD, SUBLETTE, IL, 61367",48755664,"L"
96148,"1895 TRAVIS ROAD","BELLVILLE","TX",77418,30.031735155,-96.3335385519999,148,"1895 TRAVIS ROAD, BELLVILLE, TX, 77418","Match","Exact","1895 TRAVIS RD, BELLVILLE, TX, 77418",41819600,"L"
96149,"1895 VICTORIAN COURT","SNELLVILLE","GA",30078,33.8657225160001,-84.0301558749999,149,"1895 VICTORIAN COURT, SNELLVILLE, GA, 30078","Match","Exact","1895 VICTORIAN CT, SNELLVILLE, GA, 30078",88894701,"L"
96150,"1895 W WILLOW ST","STOCKTON","CA",95203,37.9617999210001,-121.322424279,150,"1895 W WILLOW ST, STOCKTON, CA, 95203","Match","Exact","1895 W WILLOW ST, STOCKTON, CA, 95203",133847802,"R"
96151,"1895 WELLBOURNE DR NE","ATLANTA","GA",30324,33.8064576580001,-84.360093815,151,"1895 WELLBOURNE DR NE, ATLANTA, GA, 30324","Match","Exact","1895 WELLBOURNE DR NE, ATLANTA, GA, 30324",17365065,"R"
96152,"1895 WILSON ROAD","MEMPHIS","TN",38116,35.01376035,-90.0006102469999,152,"1895 WILSON ROAD, MEMPHIS, TN, 38116","Match","Exact","1895 WILSON RD, MEMPHIS, TN, 38116",72934367,"R"
96153,"18950 BASE CAMP ROAD","MONUMENT","CO",80132,39.1062243170001,-104.86273121,153,"18950 BASE CAMP ROAD, MONUMENT, CO, 80132","Match","Exact","18950 BASE CAMP RD, MONUMENT, CO, 80132",105504813,"L"
96154,"18950 COUNTY RD 1140","ST JAMES","MO",65559,38.0463601230001,-91.5817352239999,154,"18950 COUNTY RD 1140, ST JAMES, MO, 65559","Match","Exact","18950 CO RD 1140, SAINT JAMES, MO, 65559",45106040,"L"
96155,"18951 IRVONA AVE","LAKEVILLE","MN",55044,44.6755941980001,-93.262392413,155,"18951 IRVONA AVE, LAKEVILLE, MN, 55044","Match","Exact","18951 IRVONA AVE, LAKEVILLE, MN, 55044",630163888,"R"
96156,"18951 LEADWELL STREET","RESEDA","CA",91335,34.2038179680001,-118.546668696,156,"18951 LEADWELL STREET, RESEDA, CA, 91335","Match","Exact","18951 LEADWELL ST, RESEDA, CA, 91335",141541464,"R"
96157,"18951 NE 95TH ST","REDMOND","WA",98052,47.6855909450001,-122.086074497,157,"18951 NE 95TH ST, REDMOND, WA, 98052","Match","Non_Exact","18951 NE 95TH ST, REDMOND, WA, 98053",648558540,"R"
96158,"18952 EAST LOYOLA CIRCLE","AURORA","CT",80013,NA,NA,158,"18952 EAST LOYOLA CIRCLE, AURORA, CT, 80013","No_Match",NA,NA,NA,NA
96159,"18952 MALLINA ST","GROSSE POINTE","MI",48236,42.420670369,-82.9226083039999,159,"18952 MALLINA ST, GROSSE POINTE, MI, 48236","Match","Exact","18952 MALLINA ST, GROSSE POINTE, MI, 48236",95720323,"R"
96160,"18955 FERRY LANDING CIRCLE","GERMANTOWN","MD",20785,39.1660610270001,-77.251262635,160,"18955 FERRY LANDING CIRCLE, GERMANTOWN, MD, 20785","Match","Non_Exact","18955 FERRY LANDING CIR, GERMANTOWN, MD, 20874",62084341,"R"
96161,"18955 RAILROAD STREET","CITY OF INDUSTRY","CA",91748,33.9977617860001,-117.889692772,161,"18955 RAILROAD STREET, CITY OF INDUSTRY, CA, 91748","Match","Exact","18955 RAILROAD ST, CITY OF INDUSTRY, CA, 91748",241247330,"L"
96162,"18955 ROBINS DRIVE","DENVER","CO",80249,39.7969838340001,-104.766841432,162,"18955 ROBINS DRIVE, DENVER, CO, 80249","Match","Non_Exact","18955 E ROBINS DR, DENVER, CO, 80249",650195557,"L"
96163,"18956 COVINA STREET","HESPERIA","CA",92345,34.4463859790001,-117.249955467,163,"18956 COVINA STREET, HESPERIA, CA, 92345","Match","Exact","18956 COVINA ST, HESPERIA, CA, 92345",144588866,"L"
96164,"18958 DAISETTA ST STE 201","ROWLAND HEIGHTS","CA",91748,NA,NA,164,"18958 DAISETTA ST STE 201, ROWLAND HEIGHTS, CA, 91748","No_Match",NA,NA,NA,NA
96165,"18958 DAISETTA STREET SUITE 301","ROWLAND HEIGHTS","CA",91748,NA,NA,165,"18958 DAISETTA STREET SUITE 301, ROWLAND HEIGHTS, CA, 91748","No_Match",NA,NA,NA,NA
96166,"18958 STONERIDGE RD","WARRENTON","MO",63383,NA,NA,166,"18958 STONERIDGE RD, WARRENTON, MO, 63383","No_Match",NA,NA,NA,NA
96167,"18959 DALLAS PKWY","DALLAS","TX",75287,NA,NA,167,"18959 DALLAS PKWY, DALLAS, TX, 75287","No_Match",NA,NA,NA,NA
96168,"18959 LINA ST  APT 1509","DALLAS","TX",75287,33.0079806620001,-96.847812174,168,"18959 LINA ST  APT 1509, DALLAS, TX, 75287","Match","Exact","18959 LINA ST, DALLAS, TX, 75287",650105765,"L"
96169,"18959 NORDHOFF STREET","NORTHRIDGE","CA",91324,34.2354929840001,-118.546056808,169,"18959 NORDHOFF STREET, NORTHRIDGE, CA, 91324","Match","Exact","18959 NORDHOFF ST, NORTHRIDGE, CA, 91324",142712167,"R"
96170,"1896 LUTHER LANE","HOOPER","NE",68031,41.583467888,-96.5594216439999,170,"1896 LUTHER LANE, HOOPER, NE, 68031","Match","Exact","1896 LUTHER LN, HOOPER, NE, 68031",624432248,"L"
96171,"1896 ORION ROAD","MCGREGOR","TX",76657,31.538228216,-97.333143176,171,"1896 ORION ROAD, MCGREGOR, TX, 76657","Match","Non_Exact","1896 ORION RD, MC GREGOR, TX, 76657",640566573,"L"
96172,"1896 PINECREST COURT","TOBYHANNA","PA",18466,41.2193058870001,-75.347361021,172,"1896 PINECREST COURT, TOBYHANNA, PA, 18466","Match","Exact","1896 PINECREST CT, TOBYHANNA, PA, 18466",136789289,"L"
96173,"1896 POPLAR ST SE","CONYERS","GA",30013,33.639562901,-84.00161038,173,"1896 POPLAR ST SE, CONYERS, GA, 30013","Match","Exact","1896 POPLAR ST SE, CONYERS, GA, 30013",23741181,"L"
96174,"1896 WAYCROSS RD","TURKEY","NC",28393,34.8981423060001,-78.200002245,174,"1896 WAYCROSS RD, TURKEY, NC, 28393","Match","Exact","1896 WAYCROSS RD, TURKEY, NC, 28393",14242052,"L"
96175,"18960 BAKER ROAD","BEND","OR",97702,43.9963289360001,-121.375874697,175,"18960 BAKER ROAD, BEND, OR, 97702","Match","Exact","18960 BAKER RD, BEND, OR, 97702",152586534,"R"
96176,"18960 DILLIE ROAD","EDGERTON","KS",66021,38.7850139010001,-94.992026413,176,"18960 DILLIE ROAD, EDGERTON, KS, 66021","Match","Exact","18960 DILLIE RD, EDGERTON, KS, 66021",632816101,"R"
96177,"18960 MAPLE AVENUE","COUNTRY CLUB HILLS","IL",60478,41.5445690920001,-87.7225082369999,177,"18960 MAPLE AVENUE, COUNTRY CLUB HILLS, IL, 60478","Match","Exact","18960 MAPLE AVE, COUNTRY CLUB HILLS, IL, 60478",111707612,"R"
96178,"18960 STANSBURY STREET","DETROIT","MI",48235,42.429750185,-83.1839704129999,178,"18960 STANSBURY STREET, DETROIT, MI, 48235","Match","Exact","18960 STANSBURY ST, DETROIT, MI, 48235",95424383,"R"
96179,"18960 WALDEN STREET APT 101","CLINTON TOWNSHIP","MI",48038,42.611406802,-82.93019689,179,"18960 WALDEN STREET APT 101, CLINTON TOWNSHIP, MI, 48038","Match","Exact","18960 WALDEN ST, CLINTON TOWNSHIP, MI, 48038",110693422,"L"
96180,"18961 NANDINA AVENUE","RIVERSIDE","CA",92508,33.8654996240001,-117.332174103,180,"18961 NANDINA AVENUE, RIVERSIDE, CA, 92508","Match","Exact","18961 NANDINA AVE, RIVERSIDE, CA, 92508",194852880,"R"
96181,"18962 AFTON AVENUE","SARATOGA","CA",95070,37.27523239,-122.002598359,181,"18962 AFTON AVENUE, SARATOGA, CA, 95070","Match","Exact","18962 AFTON AVE, SARATOGA, CA, 95070",624046242,"L"
96182,"18965 NW ILLAHE ST","PORTLAND","OR",97229,45.55501882,-122.871789198,182,"18965 NW ILLAHE ST, PORTLAND, OR, 97229","Match","Exact","18965 NW ILLAHE ST, PORTLAND, OR, 97229",158182006,"R"
96183,"18965 WILDEMERE","DETROIT","MI",48221,42.4303566840001,-83.133475614,183,"18965 WILDEMERE, DETROIT, MI, 48221","Match","Non_Exact","18965 WILDEMERE AVE, DETROIT, MI, 48221",95461136,"L"
96184,"18967 WEST NORTH WOODALE TRL","LAKE VILLA","IL",60046,42.4032862760001,-88.002613708,184,"18967 WEST NORTH WOODALE TRL, LAKE VILLA, IL, 60046","Match","Exact","18967 W NORTH WOODALE TRL, LAKE VILLA, IL, 60046",119755682,"R"
96185,"1897 140TH ST","LAKE PARK","IA",51347,43.444949525,-95.2204142429999,185,"1897 140TH ST, LAKE PARK, IA, 51347","Match","Exact","1897 140TH ST, LAKE PARK, IA, 51347",9804551,"R"
96186,"1897 APPIA COURT","WALNUT CREEK","CA",94598,37.921278409,-122.040520468,186,"1897 APPIA COURT, WALNUT CREEK, CA, 94598","Match","Exact","1897 APPIA CT, WALNUT CREEK, CA, 94598",192113433,"L"
96187,"1897 BENDER LANE","ARNOLD","MO",63010,38.443362801,-90.385086508,187,"1897 BENDER LANE, ARNOLD, MO, 63010","Match","Exact","1897 BENDER LN, ARNOLD, MO, 63010",62782383,"R"
96188,"1897 CAMDEN PARK RD","LYND","MN",56157,NA,NA,188,"1897 CAMDEN PARK RD, LYND, MN, 56157","No_Match",NA,NA,NA,NA
96189,"1897 DELAWARE AVE","WEST SAINT PAUL","MN",55118,44.8884287590001,-93.105904875,189,"1897 DELAWARE AVE, WEST SAINT PAUL, MN, 55118","Match","Exact","1897 DELAWARE AVE, W SAINT PAUL, MN, 55118",37930892,"R"
96190,"1897 DELWARE AVENUE","MENDOTA HEIGHTS","MN",55118,44.8884287590001,-93.105904875,190,"1897 DELWARE AVENUE, MENDOTA HEIGHTS, MN, 55118","Match","Non_Exact","1897 DELAWARE AVE, MENDOTA HEIGHTS, MN, 55118",37930892,"R"
96191,"1897 DRY HILL RD","BUTLER","TN",37640,36.3254670250001,-81.956499749,191,"1897 DRY HILL RD, BUTLER, TN, 37640","Match","Exact","1897 DRY HILL RD, BUTLER, TN, 37640",52077105,"R"
96192,"1897 E MAGDALENA DR","TEMPE","AZ",85283,33.369731254,-111.906159469,192,"1897 E MAGDALENA DR, TEMPE, AZ, 85283","Match","Exact","1897 E MAGDALENA DR, TEMPE, AZ, 85283",128838673,"R"
96193,"1897 EAST  STROOP RD","DAYTON","OH",45429,39.688823998,-84.130918019,193,"1897 EAST  STROOP RD, DAYTON, OH, 45429","Match","Exact","1897 E STROOP RD, DAYTON, OH, 45429",143583356,"L"
96194,"1897 EAST MAGDALENA DRIVE","TEMPE","AZ",85283,33.369758818,-111.906252231,194,"1897 EAST MAGDALENA DRIVE, TEMPE, AZ, 85283","Match","Exact","1897 E MAGDALENA DR, TEMPE, AZ, 85283",128838673,"R"
96195,"1897 FENN LANE","CLARKSVILLE","TN",37043,NA,NA,195,"1897 FENN LANE, CLARKSVILLE, TN, 37043","No_Match",NA,NA,NA,NA
96196,"1897 FREEMAN LANE","LOS OSOS","CA",93402,35.3141566560001,-120.816181448,196,"1897 FREEMAN LANE, LOS OSOS, CA, 93402","Match","Exact","1897 FREEMAN LN, LOS OSOS, CA, 93402",109897137,"L"
96197,"1897 GOSHEN TPKE","MIDDLETOWN","NY",10941,41.472448367,-74.3520460939999,197,"1897 GOSHEN TPKE, MIDDLETOWN, NY, 10941","Match","Exact","1897 GOSHEN TPKE, MIDDLETOWN, NY, 10941",124492136,"L"
96198,"1897 HUDSON CROSSING APT 4","TUCKER","GA",30084,NA,NA,198,"1897 HUDSON CROSSING APT 4, TUCKER, GA, 30084","No_Match",NA,NA,NA,NA
96199,"1897 JAYHAWK ROAD","FORT SCOTT","KS",66701,37.8051656760001,-94.760815451,199,"1897 JAYHAWK ROAD, FORT SCOTT, KS, 66701","Match","Exact","1897 JAYHAWK RD, FORT SCOTT, KS, 66701",27490439,"L"
96200,"1897 PALM BEACH LAKES BLVD STE 208","WEST PALM BEACH","FL",33409,26.7174763040001,-80.0908926279999,200,"1897 PALM BEACH LAKES BLVD STE 208, WEST PALM BEACH, FL, 33409","Match","Exact","1897 PALM BEACH LAKES BLVD, WEST PALM BEACH, FL, 33409",115271594,"R"
96201,"1897 ROCHELLE CURVE","SHAKOPEE","MN",55379,44.773115766,-93.498902589,201,"1897 ROCHELLE CURVE, SHAKOPEE, MN, 55379","Match","Exact","1897 ROCHELLE CURVE, SHAKOPEE, MN, 55379",38152813,"L"
96202,"1897 STANLEY BLVD","BIRMINGHAM","MI",48009,42.5323751660001,-83.219105472,202,"1897 STANLEY BLVD, BIRMINGHAM, MI, 48009","Match","Exact","1897 STANLEY BLVD, BIRMINGHAM, MI, 48009",69735474,"L"
96203,"1897 SW EFFLAND AVE","PORT ST. LUCIE","FL",34953,27.236197787,-80.406835655,203,"1897 SW EFFLAND AVE, PORT ST. LUCIE, FL, 34953","Match","Exact","1897 SW EFFLAND AVE, PORT ST LUCIE, FL, 34953",120143243,"L"
96204,"1897 VT ROUTE 125","HANCOCK","VT",5748,43.9266467680001,-72.875663737,204,"1897 VT ROUTE 125, HANCOCK, VT, 5748","Match","Non_Exact","1897 STATE RTE 125, HANCOCK, VT, 05748",641173529,"R"
96205,"18970 NW 27TH AVENUE SUITE 202","MIAMI GARDENS","FL",33056,25.947483952,-80.245631975,205,"18970 NW 27TH AVENUE SUITE 202, MIAMI GARDENS, FL, 33056","Match","Non_Exact","18970 NW 27TH AVE, MIAMI GARDENS, FL, 33056",650080674,"L"
96206,"18972 NE 21ST STREET","GAINESVILLE","FL",32609,29.8280959200001,-82.3052465119999,206,"18972 NE 21ST STREET, GAINESVILLE, FL, 32609","Match","Exact","18972 NE 21ST ST, GAINESVILLE, FL, 32609",6826722,"L"
96207,"18973 WORMER ST","DETROIT","MI",48219,42.4271758580001,-83.280492636,207,"18973 WORMER ST, DETROIT, MI, 48219","Match","Exact","18973 WORMER ST, DETROIT, MI, 48219",95419814,"L"
96208,"18974 HUNT ROAD","STRONGSVILLE","OH",44136,41.2827329730001,-81.793901534,208,"18974 HUNT ROAD, STRONGSVILLE, OH, 44136","Match","Exact","18974 HUNT RD, STRONGSVILLE, OH, 44136",61132477,"R"
96209,"18975 LIVERNOIS AVE","DETROIT","MI",48221,42.4305242080001,-83.141460719,209,"18975 LIVERNOIS AVE, DETROIT, MI, 48221","Match","Exact","18975 LIVERNOIS AVE, DETROIT, MI, 48221",95460970,"L"
96210,"18976 NW 240TH ST","HIGH SPRINGS","FL",32643,NA,NA,210,"18976 NW 240TH ST, HIGH SPRINGS, FL, 32643","No_Match",NA,NA,NA,NA
96211,"18977 W 10 MILE RD SUITE 100","SOUTHFIELD","MI",48075,42.4731558120001,-83.2305593259999,211,"18977 W 10 MILE RD SUITE 100, SOUTHFIELD, MI, 48075","Match","Non_Exact","18977 W 10 MILE RD, SOUTHFIELD, MI, 48075",69739345,"L"
96212,"1898 CENTER GROTON ROAD","LEDYARD","CT",6339,41.4309228710001,-72.014097533,212,"1898 CENTER GROTON ROAD, LEDYARD, CT, 6339","Match","Exact","1898 CENTER GROTON RD, LEDYARD, CT, 06339",611660032,"R"
96213,"1898 HARRISON AVENUE APT 2A","BRONX","NY",10453,40.852324009,-73.911871677,213,"1898 HARRISON AVENUE APT 2A, BRONX, NY, 10453","Match","Exact","1898 HARRISON AVE, BRONX, NY, 10453",80310482,"R"
96214,"1898 KENNESAW DUE WEST RD NW","KENNESAW","GA",30152,33.998428792,-84.627045835,214,"1898 KENNESAW DUE WEST RD NW, KENNESAW, GA, 30152","Match","Exact","1898 KENNESAW DUE WEST RD NW, KENNESAW, GA, 30152",649209755,"L"
96215,"1898 KENNESAW DUE WEST ROAD NW","KENNESAW","GA",30152,33.998428792,-84.627045835,215,"1898 KENNESAW DUE WEST ROAD NW, KENNESAW, GA, 30152","Match","Exact","1898 KENNESAW DUE WEST RD NW, KENNESAW, GA, 30152",649209755,"L"
96216,"1898 KENNESAW DUE WEST ROAD","KENNESAW","GA",30152,33.998428792,-84.627045835,216,"1898 KENNESAW DUE WEST ROAD, KENNESAW, GA, 30152","Match","Exact","1898 KENNESAW DUE WEST RD, KENNESAW, GA, 30152",649209755,"L"
96217,"1898 KENTLAND PL","SNELLVILLE","GA",30078,33.90091463,-84.021474836,217,"1898 KENTLAND PL, SNELLVILLE, GA, 30078","Match","Exact","1898 KENTLAND PL, SNELLVILLE, GA, 30078",88917469,"R"
96218,"1898 NORTH PAMPLICO HWY","PAMPLICO","SC",29583,34.0222727140001,-79.6260120969999,218,"1898 NORTH PAMPLICO HWY, PAMPLICO, SC, 29583","Match","Exact","1898 N PAMPLICO HWY, PAMPLICO, SC, 29583",632533844,"L"
96219,"1898 OLD CUTHBERT RD","CHERRY HILL","NJ",8003,NA,NA,219,"1898 OLD CUTHBERT RD, CHERRY HILL, NJ, 8003","No_Match",NA,NA,NA,NA
96220,"1898 S FENNER LAKE RD","MARTIN","MI",49070,NA,NA,220,"1898 S FENNER LAKE RD, MARTIN, MI, 49070","Tie",NA,NA,NA,NA
96221,"1898 SPRING RD SE APT 6H","SMYRNA","GA",30080,33.8836503860001,-84.4986135669999,221,"1898 SPRING RD SE APT 6H, SMYRNA, GA, 30080","Match","Exact","1898 SPRING RD SE, SMYRNA, GA, 30080",17225429,"R"
96222,"1898 SPRING RD SE UNIT 8I","SMYRNA","GA",30080,33.8836503860001,-84.4986135669999,222,"1898 SPRING RD SE UNIT 8I, SMYRNA, GA, 30080","Match","Exact","1898 SPRING RD SE, SMYRNA, GA, 30080",17225429,"R"
96223,"18980 OLIF KAHL RD","JAMESTOWN","CA",95327,37.966773576,-120.477696889,223,"18980 OLIF KAHL RD, JAMESTOWN, CA, 95327","Match","Exact","18980 OLIF KAHL RD, JAMESTOWN, CA, 95327",101395413,"L"
96224,"18980 SE COUNTY LINE ROAD","JUPITER","FL",33469,26.973282252,-80.1090866919999,224,"18980 SE COUNTY LINE ROAD, JUPITER, FL, 33469","Match","Exact","18980 SE COUNTY LINE RD, JUPITER, FL, 33469",120426932,"R"
96225,"18981 US HIGHWAY 441","MOUNT DORA","FL",32757,28.8241483150001,-81.642261939,225,"18981 US HIGHWAY 441, MOUNT DORA, FL, 32757","Match","Exact","18981 US HWY 441, MOUNT DORA, FL, 32757",639256327,"L"
96226,"18983 HARRIS AVE NE","SUQUAMISH","WA",98392,47.735060982,-122.55147408,226,"18983 HARRIS AVE NE, SUQUAMISH, WA, 98392","Match","Exact","18983 HARRIS AVE NE, SUQUAMISH, WA, 98392",187636523,"L"
96227,"18984 NW 57TH NO 106","HIALEAH","FL",33015,NA,NA,227,"18984 NW 57TH NO 106, HIALEAH, FL, 33015","No_Match",NA,NA,NA,NA
96228,"18987 FM 1484 SPC 5","CONROE","TX",77303,30.3384048570001,-95.331013459,228,"18987 FM 1484 SPC 5, CONROE, TX, 77303","Match","Non_Exact","18987 FM 1484, CONROE, TX, 77303",79269426,"R"
96229,"18988 COX AVE SUITE C","SUN PRAIRIE","CA",95070,37.2817007250001,-122.004169271,229,"18988 COX AVE SUITE C, SUN PRAIRIE, CA, 95070","Match","Non_Exact","18988 COX AVE, SARATOGA, CA, 95070",614043169,"L"
96230,"18989 354TH STREET","MONTGOMERY","MN",56069,NA,NA,230,"18989 354TH STREET, MONTGOMERY, MN, 56069","No_Match",NA,NA,NA,NA
96231,"1899 CASTLE HILL ROAD","WALNUT CREEK","CA",94595,37.8807958520001,-122.061815533,231,"1899 CASTLE HILL ROAD, WALNUT CREEK, CA, 94595","Match","Exact","1899 CASTLE HILL RD, WALNUT CREEK, CA, 94595",627123393,"R"
96232,"1899 CRYSTAL AIR DRIVE","SOUTH LAKE TAHOE","CA",96150,38.864254444,-120.004787893,232,"1899 CRYSTAL AIR DRIVE, SOUTH LAKE TAHOE, CA, 96150","Match","Exact","1899 CRYSTAL AIR DR, SOUTH LAKE TAHOE, CA, 96150",133052911,"L"
96233,"1899 E 550 S","HUNTINGBURG","IN",47542,38.299793675,-86.867702288,233,"1899 E 550 S, HUNTINGBURG, IN, 47542","Match","Exact","1899 E 550 S, HUNTINGBURG, IN, 47542",7886663,"R"
96234,"1899 HARDAWAY HIGHWAY","CHATTAHOOCHEE","FL",32324,30.6409250310001,-84.7809570159999,234,"1899 HARDAWAY HIGHWAY, CHATTAHOOCHEE, FL, 32324","Match","Exact","1899 HARDAWAY HWY, CHATTAHOOCHEE, FL, 32324",648467101,"R"
96235,"1899 MCKEE ST","SAN DIEGO","CA",92110,32.7436451890001,-117.182561348,235,"1899 MCKEE ST, SAN DIEGO, CA, 92110","Match","Exact","1899 MCKEE ST, SAN DIEGO, CA, 92110",195341865,"L"
96236,"1899 MOORINGS CIRCLE","MIDDLEBURG","FL",32068,30.104038245,-81.753149731,236,"1899 MOORINGS CIRCLE, MIDDLEBURG, FL, 32068","Match","Exact","1899 MOORINGS CIR, MIDDLEBURG, FL, 32068",641063954,"R"
96237,"1899 PARK AVE","RAYMOND","WA",98577,46.6937533780001,-123.739549881,237,"1899 PARK AVE, RAYMOND, WA, 98577","Match","Exact","1899 PARK AVE, RAYMOND, WA, 98577",175997563,"R"
96238,"1899 S 1750 EAST","DRIGGS","ID",83422,NA,NA,238,"1899 S 1750 EAST, DRIGGS, ID, 83422","No_Match",NA,NA,NA,NA
96239,"18993 GREYTOWN HILLS ROAD","CAMBRIDGE SPRINGS","PA",16403,41.7382472360001,-79.994235217,239,"18993 GREYTOWN HILLS ROAD, CAMBRIDGE SPRINGS, PA, 16403","Match","Exact","18993 GREYTOWN HILLS RD, CAMBRIDGE SPRINGS, PA, 16403",98561357,"L"
96240,"18995 GAVER ROAD","BELLE FOURCHE","SD",57717,44.6409572700001,-103.814736909,240,"18995 GAVER ROAD, BELLE FOURCHE, SD, 57717","Match","Exact","18995 GAVER RD, BELLE FOURCHE, SD, 57717",199778809,"L"
96241,"18997 SNOWBERRY CT","LEESBURG","VA",20176,39.0899812390001,-77.5138740789999,241,"18997 SNOWBERRY CT, LEESBURG, VA, 20176","Match","Exact","18997 SNOWBERRY CT, LEESBURG, VA, 20176",62346393,"R"
96242,"189A EAST 2ND ST","NEW YORK","NY",10009,40.7223039530001,-73.984114335,242,"189A EAST 2ND ST, NEW YORK, NY, 10009","Match","Exact","189 E 2ND ST, NEW YORK, NY, 10009",59654133,"R"
96243,"18A CALLE ESTRELLA","SAN GERMAN","PR",683,NA,NA,243,"18A CALLE ESTRELLA, SAN GERMAN, PR, 683","No_Match",NA,NA,NA,NA
96244,"18A JOURNEY SUITE 110","ALISO VIEJO","CA",92656,33.5670784810001,-117.723710855,244,"18A JOURNEY SUITE 110, ALISO VIEJO, CA, 92656","Match","Exact","18 JOURNEY, ALISO VIEJO, CA, 92656",144381663,"L"
96245,"18A REDFIELD VILLAGE APT 3","EDISON","NJ",8837,40.5368770110001,-74.3471931829999,245,"18A REDFIELD VILLAGE APT 3, EDISON, NJ, 8837","Match","Non_Exact","18 REDFIELD DR, EDISON, NJ, 08837",60342308,"R"
96246,"18B YORK STREET","YORK","ME",3909,43.1509164510001,-70.663303292,246,"18B YORK STREET, YORK, ME, 3909","Match","Exact","18 YORK ST, YORK, ME, 03909",92788398,"R"
96247,"18F HILLTOP RD","PHILADELPHIA","PA",19118,40.076652086,-75.209212067,247,"18F HILLTOP RD, PHILADELPHIA, PA, 19118","Match","Exact","18 HILLTOP RD, PHILADELPHIA, PA, 19118",131440573,"L"
96248,"18SOUTHWEST FRONT STREET","MILFORD","DE",19963,NA,NA,248,"18SOUTHWEST FRONT STREET, MILFORD, DE, 19963","No_Match",NA,NA,NA,NA
96249,"18W140 BUTTERFIELD RD 15TH FLOOR","OAKBROOK TERRACE","IL",60187,41.848165921,-87.97942777,249,"18W140 BUTTERFIELD RD 15TH FLOOR, OAKBROOK TERRACE, IL, 60187","Match","Non_Exact","18 BUTTERFIELD RD, OAKBROOK TER, IL, 60181",616531156,"L"
96250,"19  EAST MAIN ST","FAYETTEVILLE","PA",17222,39.9109447530001,-77.5491259139999,250,"19  EAST MAIN ST, FAYETTEVILLE, PA, 17222","Match","Exact","19 E MAIN ST, FAYETTEVILLE, PA, 17222",60085406,"R"
96251,"19 13TH AVENUE NORTH","WAITE PARK","MN",56387,45.5539881130001,-94.2332561549999,251,"19 13TH AVENUE NORTH, WAITE PARK, MN, 56387","Match","Exact","19 13TH AVE N, WAITE PARK, MN, 56387",635834483,"L"
96252,"19 8TH STREET SOUTH PMB 305","FARGO","ND",58103,46.873965448,-96.791123832,252,"19 8TH STREET SOUTH PMB 305, FARGO, ND, 58103","Match","Exact","19 8TH ST S, FARGO, ND, 58103",151472252,"R"
96253,"19 ALDEN AVENUE","NEW HAVEN","CT",6515,41.3162301410001,-72.966987901,253,"19 ALDEN AVENUE, NEW HAVEN, CT, 6515","Match","Exact","19 ALDEN AVE, NEW HAVEN, CT, 06515",3697682,"R"
96254,"19 ALDEN STREET","TYNGSBORO","MA",1879,42.6943303510001,-71.376156999,254,"19 ALDEN STREET, TYNGSBORO, MA, 1879","Match","Exact","19 ALDEN ST, TYNGSBORO, MA, 01879",87172573,"R"
96255,"19 ALLEN STREET BASEMENT","NEW YORK","NY",10002,40.7153421130001,-73.992487109,255,"19 ALLEN STREET BASEMENT, NEW YORK, NY, 10002","Match","Exact","19 ALLEN ST, NEW YORK, NY, 10002",59654202,"L"
96256,"19 ALLINGTON DRIVE","BELLA VISTA","AR",72715,36.4642989120001,-94.271176839,256,"19 ALLINGTON DRIVE, BELLA VISTA, AR, 72715","Match","Exact","19 ALLINGTON DR, BELLA VISTA, AR, 72715",640549281,"L"
96257,"19 ALLISON ROAD","ALPINE","NJ",7620,40.9522785240001,-73.928857718,257,"19 ALLISON ROAD, ALPINE, NJ, 7620","Match","Exact","19 ALLISON RD, ALPINE, NJ, 07620",64376020,"L"
96258,"19 AMEY RD","MILFORD","MA",1757,NA,NA,258,"19 AMEY RD, MILFORD, MA, 1757","No_Match",NA,NA,NA,NA
96259,"19 AMHERST DRIVE","DERRY","NH",3038,42.901788084,-71.3050966129999,259,"19 AMHERST DRIVE, DERRY, NH, 3038","Match","Exact","19 AMHERST DR, DERRY, NH, 03038",113695492,"R"
96260,"19 AMSTAR COURT","SIMPSONVILLE","SC",29680,34.697191402,-82.288544287,260,"19 AMSTAR COURT, SIMPSONVILLE, SC, 29680","Match","Exact","19 AMSTAR CT, SIMPSONVILLE, SC, 29680",624946702,"L"
96261,"19 ANNAS HOPE","ST CROIX","VI",820,NA,NA,261,"19 ANNAS HOPE, ST CROIX, VI, 820","No_Match",NA,NA,NA,NA
96262,"19 ARLINGTON ROAD","WALTHAM","MA",2453,42.3636086330001,-71.2277202779999,262,"19 ARLINGTON ROAD, WALTHAM, MA, 2453","Match","Exact","19 ARLINGTON RD, WALTHAM, MA, 02453",86862394,"R"
96263,"19 ARNEYTOWN HORNERSTOWN ROAD","CREAM RIDGE","NJ",8514,40.105782172,-74.515842204,263,"19 ARNEYTOWN HORNERSTOWN ROAD, CREAM RIDGE, NJ, 8514","Match","Exact","19 ARNEYTOWN HORNERSTOWN RD, CREAM RIDGE, NJ, 08514",90477471,"L"
96264,"19 ASHLAND COURT","PERU","IL",61354,41.3316760110001,-89.145726625,264,"19 ASHLAND COURT, PERU, IL, 61354","Match","Exact","19 ASHLAND CT, PERU, IL, 61354",8625023,"L"
96265,"19 ASHLYN RISE","FAIRPORT","NY",14450,43.126330555,-77.42314234,265,"19 ASHLYN RISE, FAIRPORT, NY, 14450","Match","Exact","19 ASHLYN RISE, FAIRPORT, NY, 14450",649874267,"L"
96266,"19 ATAMANNSIT RD","EAST FALMOUTH","MA",2536,41.6135226740001,-70.5707608659999,266,"19 ATAMANNSIT RD, EAST FALMOUTH, MA, 2536","Match","Exact","19 ATAMANNSIT RD, EAST FALMOUTH, MA, 02536",121572442,"R"
96267,"19 AUBE WOODS WAY","FALMOUTH","ME",4105,43.7474956410001,-70.240638165,267,"19 AUBE WOODS WAY, FALMOUTH, ME, 4105","Match","Exact","19 AUBE WOODS WAY, FALMOUTH, ME, 04105",616704216,"R"
96268,"19 AUTUMN LANE APT 216","SKILLMAN","NJ",8558,40.4146377000001,-74.655507563,268,"19 AUTUMN LANE APT 216, SKILLMAN, NJ, 8558","Match","Exact","19 AUTUMN LN, SKILLMAN, NJ, 08558",650183362,"L"
96269,"19 AVOCET LOOP","COLORADO SPRINGS","CO",80921,39.038086557,-104.834576274,269,"19 AVOCET LOOP, COLORADO SPRINGS, CO, 80921","Match","Exact","19 AVOCET LOOP, COLORADO SPRINGS, CO, 80921",610680794,"L"
96270,"19 BALDWIN RD","MIDDLETOWN","RI",2842,41.5146216850001,-71.249678816,270,"19 BALDWIN RD, MIDDLETOWN, RI, 2842","Match","Exact","19 BALDWIN RD, MIDDLETOWN, RI, 02842",47347468,"R"
96271,"19 BARKENTINE RD","RANCHO PALOS VERDES","CA",90275,33.743365634,-118.386559307,271,"19 BARKENTINE RD, RANCHO PALOS VERDES, CA, 90275","Match","Exact","19 BARKENTINE RD, RANCHO PALOS VERDES, CA, 90275",141585723,"R"
96272,"19 BARNEY HILL RD","WAYLAND","MA",1778,42.3332380260001,-71.353536391,272,"19 BARNEY HILL RD, WAYLAND, MA, 1778","Match","Exact","19 BARNEY HILL RD, WAYLAND, MA, 01778",86851844,"R"
96273,"19 BARNYARD CT","PLAINSBORO","NJ",8536,40.3201362890001,-74.579213298,273,"19 BARNYARD CT, PLAINSBORO, NJ, 8536","Match","Exact","19 BARNYARD CT, PLAINSBORO, NJ, 08536",60304895,"R"
96274,"19 BAYBERRY LANE","HERMON","ME",4401,44.7843775170001,-68.912586377,274,"19 BAYBERRY LANE, HERMON, ME, 4401","Match","Exact","19 BAYBERRY LN, HERMON, ME, 04401",617562871,"R"
96275,"19 BAYFRONT COURT SOUTH","ST. PETERSBURG","FL",33711,27.71586612,-82.694992091,275,"19 BAYFRONT COURT SOUTH, ST. PETERSBURG, FL, 33711","Match","Exact","19 BAYFRONT CT S, SAINT PETERSBURG, FL, 33711",124755503,"L"
96276,"19 BEECHAM COURT","OWINGS MILLS","MD",21117,39.456417098,-76.771924529,276,"19 BEECHAM COURT, OWINGS MILLS, MD, 21117","Match","Exact","19 BEECHAM CT, OWINGS MILLS, MD, 21117",191562103,"L"
96277,"19 BENJAMIN AVE","EAST MORICHES","NY",11940,40.8032777870001,-72.741570498,277,"19 BENJAMIN AVE, EAST MORICHES, NY, 11940","Match","Exact","19 BENJAMIN AVE, EAST MORICHES, NY, 11940",114023321,"L"
96278,"19 BERNARD STREET","MILL VALEY","CA",94941,37.906750247,-122.548871697,278,"19 BERNARD STREET, MILL VALEY, CA, 94941","Match","Non_Exact","19 BERNARD ST, MILL VALLEY, CA, 94941",192765744,"L"
96279,"19 BESSEMER STREET","GREENVILLE","PA",16125,41.4076283470001,-80.371857651,279,"19 BESSEMER STREET, GREENVILLE, PA, 16125","Match","Exact","19 BESSEMER ST, GREENVILLE, PA, 16125",70639330,"R"
96280,"19 BEVERLY CIR","RANDOLPH","MA",2368,42.1775028490001,-71.0450692869999,280,"19 BEVERLY CIR, RANDOLPH, MA, 2368","Match","Exact","19 BEVERLY CIR, RANDOLPH, MA, 02368",87304246,"R"
96281,"19 BIRCH AVE","SHALIMAR","FL",32579,30.456542246,-86.583686442,281,"19 BIRCH AVE, SHALIMAR, FL, 32579","Match","Exact","19 BIRCH AVE, SHALIMAR, FL, 32579",74449092,"L"
96282,"19 BIRCHWOOD LANE","MANTUA","NJ",8051,39.769682693,-75.1740915239999,282,"19 BIRCHWOOD LANE, MANTUA, NJ, 8051","Match","Exact","19 BIRCHWOOD LN, MANTUA, NJ, 08051",134597257,"L"
96283,"19 BLACKBOURN RD","ATTLEBORO","MA",2703,41.953809263,-71.292650634,283,"19 BLACKBOURN RD, ATTLEBORO, MA, 2703","Match","Exact","19 BLACKBOURN RD, ATTLEBORO, MA, 02703",46747559,"L"
96284,"19 BOBWHITE LANE","HOLIDAY ISLAND","AR",72631,36.483280719,-93.751902908,284,"19 BOBWHITE LANE, HOLIDAY ISLAND, AR, 72631","Match","Exact","19 BOBWHITE LN, HOLIDAY ISLAND, AR, 72631",604701897,"L"
96285,"19 BORONDA ROAD","CARMEL VALLEY","CA",93924,36.4935206050001,-121.748384544,285,"19 BORONDA ROAD, CARMEL VALLEY, CA, 93924","Match","Exact","19 BORONDA RD, CARMEL VALLEY, CA, 93924",196798022,"L"
96286,"19 BOSTICK CIRCLE","BEAUFORT","SC",29902,32.4237557760001,-80.713244382,286,"19 BOSTICK CIRCLE, BEAUFORT, SC, 29902","Match","Exact","19 BOSTICK CIR, BEAUFORT, SC, 29902",87653551,"R"
96287,"19 BRADFORD PLACE","PASSAIC","NJ",7055,40.851052656,-74.1362675519999,287,"19 BRADFORD PLACE, PASSAIC, NJ, 7055","Match","Exact","19 BRADFORD PL, PASSAIC, NJ, 07055",65252351,"L"
96288,"19 BRIAROOT DRIVE","SMITHTOWN","NY",11787,40.837882547,-73.1987151819999,288,"19 BRIAROOT DRIVE, SMITHTOWN, NY, 11787","Match","Exact","19 BRIAROOT DR, SMITHTOWN, NY, 11787",113988608,"L"
96289,"19 BRIDGE CT","KEENE","NH",3431,42.9325048850001,-72.2901750889999,289,"19 BRIDGE CT, KEENE, NH, 3431","Match","Exact","19 BRIDGE CT, KEENE, NH, 03431",124064611,"R"
96290,"19 BROOKGREEN DR","HURRICANE","WV",25526,38.4509283520001,-81.974729511,290,"19 BROOKGREEN DR, HURRICANE, WV, 25526","Match","Exact","19 BROOKGREEN DR, HURRICANE, WV, 25526",130520325,"R"
96291,"19 BROOKHAVEN LN","GLENMONT","NY",12077,42.5852559750001,-73.8086592,291,"19 BROOKHAVEN LN, GLENMONT, NY, 12077","Match","Exact","19 BROOKHAVEN LN, GLENMONT, NY, 12077",633655033,"R"
96292,"19 BRYANT ROAD","TURNERSVILLE","NJ",8012,39.7678039200001,-75.058830792,292,"19 BRYANT ROAD, TURNERSVILLE, NJ, 8012","Match","Exact","19 BRYANT RD, TURNERSVILLE, NJ, 08012",134586865,"L"
96293,"19 BRYANT ST NE","WASHINGTON","DC",20002,38.921303908,-77.0086334489999,293,"19 BRYANT ST NE, WASHINGTON, DC, 20002","Match","Exact","19 BRYANT ST NE, WASHINGTON, DC, 20002",76224672,"R"
96294,"19 BRYN MAWR RD","WELLESLEY","MA",2482,42.310330376,-71.31722532,294,"19 BRYN MAWR RD, WELLESLEY, MA, 2482","Match","Exact","19 BRYN MAWR RD, WELLESLEY, MA, 02482",87236404,"R"
96295,"19 BULLSBORO DRIVE SUITE A","NEWNAN","GA",30263,33.3828520760001,-84.7914682219999,295,"19 BULLSBORO DRIVE SUITE A, NEWNAN, GA, 30263","Match","Exact","19 BULLSBORO DR, NEWNAN, GA, 30263",9319265,"L"
96296,"19 CADBURY LANE","SOUTH WINDSOR","CT",6074,41.845775926,-72.5140102729999,296,"19 CADBURY LANE, SOUTH WINDSOR, CT, 6074","Match","Exact","19 CADBURY LN, SOUTH WINDSOR, CT, 06074",3528844,"L"
96297,"19 CALLE ARCOS","RANCHO SANTA MARGARI","CA",92688,33.624792159,-117.612074673,297,"19 CALLE ARCOS, RANCHO SANTA MARGARI, CA, 92688","Match","Non_Exact","19 CLL ARCOS, RANCHO SANTA MARGARITA, CA, 92688",144393578,"L"
96298,"19 CALUMET ROAD","RANDOLPH","NJ",7869,40.8686750350001,-74.591701799,298,"19 CALUMET ROAD, RANDOLPH, NJ, 7869","Match","Exact","19 CALUMET RD, RANDOLPH, NJ, 07869",60435776,"L"
96299,"19 CAMERON CIRCLE","PISGAH FOREST","NC",28768,35.2305405700001,-82.6958377129999,299,"19 CAMERON CIRCLE, PISGAH FOREST, NC, 28768","Match","Exact","19 CAMERON CIR, PISGAH FOREST, NC, 28768",133743631,"L"
96300,"19 CAMP BETHEL ROAD","HADDAM","CT",6438,41.4574507620001,-72.478500346,300,"19 CAMP BETHEL ROAD, HADDAM, CT, 6438","Match","Exact","19 CAMP BETHEL RD, HADDAM, CT, 06438",610695696,"R"
96301,"19 CANTERBURY LANE","HACKETTSTOWN","NJ",7840,40.8233410290001,-74.8435111269999,301,"19 CANTERBURY LANE, HACKETTSTOWN, NJ, 7840","Match","Exact","19 CANTERBURY LN, HACKETTSTOWN, NJ, 07840",98097543,"L"
96302,"19 CARLETON ROAD","WEST HARTFORD","CT",6107,41.744059688,-72.737484936,302,"19 CARLETON ROAD, WEST HARTFORD, CT, 6107","Match","Exact","19 CARLETON RD, WEST HARTFORD, CT, 06107",3513685,"L"
96303,"19 CARLOW WAY","HAZLET","NJ",7730,40.4152192350001,-74.208729674,303,"19 CARLOW WAY, HAZLET, NJ, 7730","Match","Exact","19 CARLOW WAY, HAZLET, NJ, 07730",90474310,"L"
96304,"19 CAROLYN CT","NORTH HAVEN","CT",6473,41.3449798230001,-72.847449121,304,"19 CAROLYN CT, NORTH HAVEN, CT, 6473","Match","Exact","19 CAROLYN CT, NORTH HAVEN, CT, 06473",3749303,"L"
96305,"19 CASA GRANDE","BROWNSVILLE","TX",78521,25.940496597,-97.4763188049999,305,"19 CASA GRANDE, BROWNSVILLE, TX, 78521","Match","Exact","19 CASA GRANDE, BROWNSVILLE, TX, 78521",639767837,"L"
96306,"19 CATALPA ROAD","MORRISTOWN","NJ",7960,40.7846988470001,-74.455458161,306,"19 CATALPA ROAD, MORRISTOWN, NJ, 7960","Match","Exact","19 CATALPA RD, MORRISTOWN, NJ, 07960",60491926,"R"
96307,"19 CENTER STREET","CHATHAM","NJ",7928,40.741240453,-74.382736676,307,"19 CENTER STREET, CHATHAM, NJ, 7928","Match","Exact","19 CENTER ST, CHATHAM, NJ, 07928",60450690,"L"
96308,"19 CENTRAL ST","MILFORD","MA",1757,42.1400324190001,-71.51894365,308,"19 CENTRAL ST, MILFORD, MA, 1757","Match","Exact","19 CENTRAL ST, MILFORD, MA, 01757",642601157,"L"
96309,"19 CHAPEL STREET","NEWPORT","RI",2840,41.4841370830001,-71.3065997429999,309,"19 CHAPEL STREET, NEWPORT, RI, 2840","Match","Exact","19 CHAPEL ST, NEWPORT, RI, 02840",647239096,"L"
96310,"19 CHERRY RUN RD","MONROEVILLE","NJ",8343,39.6845647800001,-75.185245289,310,"19 CHERRY RUN RD, MONROEVILLE, NJ, 8343","Match","Exact","19 CHERRY RUN RD, MONROEVILLE, NJ, 08343",134587822,"R"
96311,"19 CHERRYWOOD DRIVE","MORGANTOWN","WV",26508,39.652757567,-79.8858482649999,311,"19 CHERRYWOOD DRIVE, MORGANTOWN, WV, 26508","Match","Exact","19 CHERRYWOOD DR, MORGANTOWN, WV, 26508",624459428,"R"
96312,"19 CHESHIRE WAY","ALBANY","NY",12211,42.7177142520001,-73.7298712579999,312,"19 CHESHIRE WAY, ALBANY, NY, 12211","Match","Exact","19 CHESHIRE WAY, ALBANY, NY, 12211",18331419,"R"
96313,"19 CHESTNUT LANE","EAST QUOGUE","NY",11942,40.8574571030001,-72.5585805279999,313,"19 CHESTNUT LANE, EAST QUOGUE, NY, 11942","Match","Exact","19 CHESTNUT LN, EAST QUOGUE, NY, 11942",114028023,"L"
96314,"19 CHILDS ST","NEW BRITAIN","CT",6051,41.672574158,-72.755993914,314,"19 CHILDS ST, NEW BRITAIN, CT, 6051","Match","Exact","19 CHILDS ST, NEW BRITAIN, CT, 06051",3511493,"R"
96315,"19 CIRCLE DR","CARMEL","IN",46032,39.991055196,-86.131499941,315,"19 CIRCLE DR, CARMEL, IN, 46032","Match","Exact","19 CIRCLE DR, CARMEL, IN, 46032",636514442,"L"
96316,"19 CIRCLEWOOD","TUSCALOOSA","AL",35405,33.1893272020001,-87.508457356,316,"19 CIRCLEWOOD, TUSCALOOSA, AL, 35405","Match","Exact","19 CIRCLEWOOD, TUSCALOOSA, AL, 35405",82150958,"L"
96317,"19 CLARK ROAD","PORT JERVIS","NY",12771,41.318684181,-74.6070127469999,317,"19 CLARK ROAD, PORT JERVIS, NY, 12771","Match","Exact","19 CLARK RD, PORT JERVIS, NY, 12771",124497469,"L"
96318,"19 CLEMENTINA STREET- APT 207","SAN FRANCISCO","CA",94105,37.787668925,-122.395063815,318,"19 CLEMENTINA STREET- APT 207, SAN FRANCISCO, CA, 94105","Match","Non_Exact","19 CLEMENTINA ST, SAN FRANCISCO, CA, 94105",640405853,"R"
96319,"19 CLEMENTINA SUITE 304","SAN FRANCISCO","CA",94105,37.787668925,-122.395063815,319,"19 CLEMENTINA SUITE 304, SAN FRANCISCO, CA, 94105","Match","Non_Exact","19 CLEMENTINA ST, SAN FRANCISCO, CA, 94105",640405853,"R"
96320,"19 CLIO ST","ROCHESTER","NY",14612,43.2620999310001,-77.615719844,320,"19 CLIO ST, ROCHESTER, NY, 14612","Match","Exact","19 CLIO ST, ROCHESTER, NY, 14612",14535496,"R"
96321,"19 CLYDEHURST DR","WEBSTER GROVES","MO",63119,38.598950179,-90.3296011149999,321,"19 CLYDEHURST DR, WEBSTER GROVES, MO, 63119","Match","Exact","19 CLYDEHURST DR, WEBSTER GROVES, MO, 63119",100189180,"L"
96322,"19 COBBLERS CIRCLE","FRANKLIN PARK","NJ",8823,40.4317687130001,-74.565738095,322,"19 COBBLERS CIRCLE, FRANKLIN PARK, NJ, 8823","Match","Exact","19 COBBLERS CIR, FRANKLIN PARK, NJ, 08823",627784931,"R"
96323,"19 COLDEN HILL ROAD","NEWBURGH","NY",12550,41.5268804610001,-74.1208920609999,323,"19 COLDEN HILL ROAD, NEWBURGH, NY, 12550","Match","Exact","19 COLDEN HILL RD, NEWBURGH, NY, 12550",636409530,"L"
96324,"19 COLONNADE WAY STE 117 NO 127","STATE COLLEGE","PA",16803,40.810873316,-77.905473856,324,"19 COLONNADE WAY STE 117 NO 127, STATE COLLEGE, PA, 16803","Match","Non_Exact","19 COLONADE WAY, STATE COLLEGE, PA, 16803",50402587,"R"
96325,"19 COLONNADE WAY SUITE 117 BOX 271","STATE COLLEGE","PA",16803,40.810873316,-77.905473856,325,"19 COLONNADE WAY SUITE 117 BOX 271, STATE COLLEGE, PA, 16803","Match","Non_Exact","19 COLONADE WAY, STATE COLLEGE, PA, 16803",50402587,"R"
96326,"19 COLONNADE WAY SUITE 117 PNB 174","STATE COLLEGE","PA",16803,40.810873316,-77.905473856,326,"19 COLONNADE WAY SUITE 117 PNB 174, STATE COLLEGE, PA, 16803","Match","Non_Exact","19 COLONADE WAY, STATE COLLEGE, PA, 16803",50402587,"R"
96327,"19 COLUMBUS DRIVE","TENAFLY","NJ",7670,40.9315917050001,-73.9667427799999,327,"19 COLUMBUS DRIVE, TENAFLY, NJ, 7670","Match","Exact","19 COLUMBUS DR, TENAFLY, NJ, 07670",625189992,"R"
96328,"19 CONCORD STREET","FRAMINGHAM","MA",1702,42.2772333520001,-71.416793399,328,"19 CONCORD STREET, FRAMINGHAM, MA, 1702","Match","Exact","19 CONCORD ST, FRAMINGHAM, MA, 01702",86850348,"R"
96329,"19 CONYNGHAM STREET","ASHLEY","PA",18706,41.216628358,-75.8954377699999,329,"19 CONYNGHAM STREET, ASHLEY, PA, 18706","Match","Exact","19 CONYNGHAM ST, ASHLEY, PA, 18706",639935552,"R"
96330,"19 CORAL DR","HOWELL","NJ",7731,NA,NA,330,"19 CORAL DR, HOWELL, NJ, 7731","No_Match",NA,NA,NA,NA
96331,"19 CORALWOOD DRIVE","LAS VEGAS","NV",89135,36.11028716,-115.334900136,331,"19 CORALWOOD DRIVE, LAS VEGAS, NV, 89135","Match","Exact","19 CORALWOOD DR, LAS VEGAS, NV, 89135",641283438,"L"
96332,"19 CORONADO CIRCLE","HOT SPRINGS VILLAGE","AR",71909,34.6595597720001,-92.96127004,332,"19 CORONADO CIRCLE, HOT SPRINGS VILLAGE, AR, 71909","Match","Exact","19 CORONADO CIR, HOT SPRINGS VILLAGE, AR, 71909",24199550,"L"
96333,"19 CORTELYOU STREET EAST","E. HUNTINGTON STA.","NY",11746,40.8345434410001,-73.3900705729999,333,"19 CORTELYOU STREET EAST, E. HUNTINGTON STA., NY, 11746","Match","Non_Exact","19 CORTELYOU ST E, HUNTINGTON STATION, NY, 11746",113966783,"L"
96334,"19 COUNTRY CLUB ROAD","BELLPORT","NY",11713,40.755948835,-72.9479382439999,334,"19 COUNTRY CLUB ROAD, BELLPORT, NY, 11713","Match","Exact","19 COUNTRY CLUB RD, BELLPORT, NY, 11713",114014533,"L"
96335,"19 COVE ROAD","MELBOURNE BEACH","FL",32951,28.0049896890001,-80.52827902,335,"19 COVE ROAD, MELBOURNE BEACH, FL, 32951","Match","Exact","19 COVE RD, MELBOURNE BCH, FL, 32951",93912372,"L"
96336,"19 COVENTRY TERRACE","COLUMBUS","NJ",8022,40.0838363730001,-74.668273595,336,"19 COVENTRY TERRACE, COLUMBUS, NJ, 8022","Match","Exact","19 COVENTRY TER, COLUMBUS, NJ, 08022",617129852,"L"
96337,"19 CREEK RD","SMITHTOWN","NY",11787,40.8358175930001,-73.232540569,337,"19 CREEK RD, SMITHTOWN, NY, 11787","Match","Exact","19 CREEK RD, SMITHTOWN, NY, 11787",113983804,"R"
96338,"19 CRESTWOOD ROAD","CARTERSVILLE","GA",30121,34.1812190000001,-84.7810495479999,338,"19 CRESTWOOD ROAD, CARTERSVILLE, GA, 30121","Match","Exact","19 CRESTWOOD RD, CARTERSVILLE, GA, 30121",30445147,"R"
96339,"19 CROOKS AVENUE","PATERSON","NJ",7503,40.8888682190001,-74.1587024249999,339,"19 CROOKS AVENUE, PATERSON, NJ, 7503","Match","Exact","19 CROOKS AVE, PATERSON, NJ, 07503",65266017,"L"
96340,"19 CURLE ROAD","HAMPTON","VA",23669,37.0440212290001,-76.336844577,340,"19 CURLE ROAD, HAMPTON, VA, 23669","Match","Exact","19 CURLE RD, HAMPTON, VA, 23669",103759524,"L"
96341,"19 DAVRY WAY","WOODSTOCK","VT",5091,NA,NA,341,"19 DAVRY WAY, WOODSTOCK, VT, 5091","No_Match",NA,NA,NA,NA
96342,"19 DEEPDALE DRIVE","BRENTWOOD","NY",11717,40.798753848,-73.264369516,342,"19 DEEPDALE DRIVE, BRENTWOOD, NY, 11717","Match","Exact","19 DEEPDALE DR, BRENTWOOD, NY, 11717",113984139,"R"
96343,"19 DOGWOOD TRAIL","RANDOLPH","NJ",7869,40.872434497,-74.591704932,343,"19 DOGWOOD TRAIL, RANDOLPH, NJ, 7869","Match","Exact","19 DOGWOOD TRL, RANDOLPH, NJ, 07869",60435748,"L"
96344,"19 DOMINIC DRIVE","MONROE TOWNSHIP","NJ",8831,40.3525011570001,-74.427398484,344,"19 DOMINIC DRIVE, MONROE TOWNSHIP, NJ, 8831","Match","Exact","19 DOMINIC DR, MONROE TOWNSHIP, NJ, 08831",627049098,"L"
96345,"19 DORAL COURT","THORNDALE","PA",19372,39.9997334330001,-75.770529787,345,"19 DORAL COURT, THORNDALE, PA, 19372","Match","Exact","19 DORAL CT, THORNDALE, PA, 19372",179531180,"R"
96346,"19 DOVEWOOD PLACE","THE WOODLANDS","TX",77381,30.183283019,-95.5101181369999,346,"19 DOVEWOOD PLACE, THE WOODLANDS, TX, 77381","Match","Exact","19 DOVEWOOD PL, THE WOODLANDS, TX, 77381",79282006,"L"
96347,"19 DUNNAGANS ALLEY SUITE I","HILTON HEAD","SC",29928,32.1569168680001,-80.762741585,347,"19 DUNNAGANS ALLEY SUITE I, HILTON HEAD, SC, 29928","Match","Exact","19 DUNNAGANS ALY, HILTON HEAD, SC, 29928",636607133,"L"
96348,"19 DUNWOOD ROAD","PORT WASHINGTON","NY",11050,40.842851953,-73.7119616419999,348,"19 DUNWOOD ROAD, PORT WASHINGTON, NY, 11050","Match","Exact","19 DUNWOOD RD, PORT WASHINGTON, NY, 11050",147658434,"L"
96349,"19 E 5TH STREET","SHERIDAN","WY",82801,44.8068492290001,-106.955458187,349,"19 E 5TH STREET, SHERIDAN, WY, 82801","Match","Exact","19 E 5TH ST, SHERIDAN, WY, 82801",605384408,"R"
96350,"19 E BELLEFONTE AVE APT 102","ALEXANDRIA","VA",22301,NA,NA,350,"19 E BELLEFONTE AVE APT 102, ALEXANDRIA, VA, 22301","Tie",NA,NA,NA,NA
96351,"19 E CENTRE ST NO 7","BALTIMORE","MD",21202,NA,NA,351,"19 E CENTRE ST NO 7, BALTIMORE, MD, 21202","No_Match",NA,NA,NA,NA
96352,"19 E MAIN ST","NEWTON FALLS","OH",44444,41.1953761390001,-80.970429961,352,"19 E MAIN ST, NEWTON FALLS, OH, 44444","Match","Exact","19 E MAIN ST, NEWTON FALLS, OH, 44444",117402142,"L"
96353,"19 E QUEEN AVE","SPOKANE","WA",99207,47.7042943860001,-117.410496034,353,"19 E QUEEN AVE, SPOKANE, WA, 99207","Match","Exact","19 E QUEEN AVE, SPOKANE, WA, 99207",636107688,"L"
96354,"19 E RUSSET WAY","PALATINE","IL",60067,42.1288546760001,-88.042876042,354,"19 E RUSSET WAY, PALATINE, IL, 60067","Match","Exact","19 RUSSET WAY, PALATINE, IL, 60067",111836559,"R"
96355,"19 EAST DEPOT STREET","HELLERTOWN","PA",18055,40.581954555,-75.3405402829999,355,"19 EAST DEPOT STREET, HELLERTOWN, PA, 18055","Match","Exact","19 E DEPOT ST, HELLERTOWN, PA, 18055",136886896,"L"
96356,"19 EAST HIGH STREET","MONTICELLO","KY",42633,36.8301716130001,-84.844071238,356,"19 EAST HIGH STREET, MONTICELLO, KY, 42633","Match","Exact","19 E HIGH ST, MONTICELLO, KY, 42633",29485267,"R"
96357,"19 EAST MAIN STREET","SHELBY","OH",44875,40.8813918450001,-82.657218771,357,"19 EAST MAIN STREET, SHELBY, OH, 44875","Match","Exact","19 E MAIN ST, SHELBY, OH, 44875",12888763,"L"
96358,"19 EAST MOUNTAINVIEW AVENUE","GREENVILLE","SC",29609,34.8685601990001,-82.390467556,358,"19 EAST MOUNTAINVIEW AVENUE, GREENVILLE, SC, 29609","Match","Exact","19 E MOUNTAINVIEW AVE, GREENVILLE, SC, 29609",38299125,"L"
96359,"19 EAST RALEIGH AVENUE","STATEN ISLAND","NY",10310,40.6280098560001,-74.111838709,359,"19 EAST RALEIGH AVENUE, STATEN ISLAND, NY, 10310","Match","Exact","19 E RALEIGH AVE, STATEN ISLAND, NY, 10310",59878335,"R"
96360,"19 EAST RIVERS END DR","CLAYMONT","DE",19703,39.7936426790001,-75.465105477,360,"19 EAST RIVERS END DR, CLAYMONT, DE, 19703","Match","Exact","19 E RIVERS END DR, CLAYMONT, DE, 19703",187272278,"R"
96361,"19 EDITH ROAD","WEYMOUTH","MA",2189,42.2302675890001,-70.933216027,361,"19 EDITH ROAD, WEYMOUTH, MA, 2189","Match","Exact","19 EDITH RD, WEYMOUTH, MA, 02189",87253311,"R"
96362,"19 ELBERTA ROAD","MAPLEWOOD","NJ",7040,40.7297077110001,-74.2522676299999,362,"19 ELBERTA ROAD, MAPLEWOOD, NJ, 7040","Match","Exact","19 ELBERTA RD, MAPLEWOOD, NJ, 07040",63463006,"R"
96363,"19 ELM ST","LOWELL","MA",1852,42.6376067190001,-71.306172781,363,"19 ELM ST, LOWELL, MA, 1852","Match","Exact","19 ELM ST, LOWELL, MA, 01852",636265424,"L"
96364,"19 ELMIRA STREET SE APT 6","WASHINGTON","DC",20032,38.8260520630001,-77.0062966369999,364,"19 ELMIRA STREET SE APT 6, WASHINGTON, DC, 20032","Match","Exact","19 ELMIRA ST SE, WASHINGTON, DC, 20032",76227886,"R"
96365,"19 ERIC DR","PALM COAST","FL",32164,29.491685316,-81.2339503279999,365,"19 ERIC DR, PALM COAST, FL, 32164","Match","Exact","19 ERIC DR, PALM COAST, FL, 32164",94943422,"L"
96366,"19 ERIN COURT","PLEASANT HILL","CA",94523,37.951552281,-122.088221008,366,"19 ERIN COURT, PLEASANT HILL, CA, 94523","Match","Exact","19 ERIN CT, PLEASANT HILL, CA, 94523",639041610,"L"
96367,"19 ESSEX AVENUE","SWAMPSCOTT","MA",1907,42.474840296,-70.923625153,367,"19 ESSEX AVENUE, SWAMPSCOTT, MA, 1907","Match","Exact","19 ESSEX AVE, SWAMPSCOTT, MA, 01907",86646431,"R"
96368,"19 ETERINTY DRIVE","LITCHFIELD","ME",4350,44.2278598450001,-69.927294214,368,"19 ETERINTY DRIVE, LITCHFIELD, ME, 4350","Match","Non_Exact","19 ETERNITY DR, LITCHFIELD, ME, 04350",625646072,"R"
96369,"19 ETON STREET","MELVILLE","NY",11747,40.7813828980001,-73.4017154109999,369,"19 ETON STREET, MELVILLE, NY, 11747","Match","Exact","19 ETON ST, MELVILLE, NY, 11747",113967584,"R"
96370,"19 EVANS COURT","LAWRENCEVILLE","NJ",8648,40.2926926660001,-74.753841512,370,"19 EVANS COURT, LAWRENCEVILLE, NJ, 8648","Match","Non_Exact","19 EVANS LN, LAWRENCEVILLE, NJ, 08648",627067074,"L"
96371,"19 FAIR OAKS PARK","NEEDHAM","MA",2492,42.283996012,-71.231451565,371,"19 FAIR OAKS PARK, NEEDHAM, MA, 2492","Match","Exact","19 FAIR OAKS PARK, NEEDHAM, MA, 02492",641038781,"L"
96372,"19 FAIRVIEW AVENUE","MALDEN","MA",2148,42.4335006520001,-71.0526674019999,372,"19 FAIRVIEW AVENUE, MALDEN, MA, 2148","Match","Exact","19 FAIRVIEW AVE, MALDEN, MA, 02148",86872384,"R"
96373,"19 FAIRVIEW DRIVE","SOUTHBOROUGH","MA",1772,42.2809623590001,-71.5429677499999,373,"19 FAIRVIEW DRIVE, SOUTHBOROUGH, MA, 1772","Match","Exact","19 FAIRVIEW DR, SOUTHBOROUGH, MA, 01772",40037506,"R"
96374,"19 FARMINGTON RD","GREENVILLE","SC",29605,34.817219252,-82.423540314,374,"19 FARMINGTON RD, GREENVILLE, SC, 29605","Match","Exact","19 FARMINGTON RD, GREENVILLE, SC, 29605",38300310,"L"
96375,"19 FAVARA CR","ROCHESTER","NY",14609,43.1953766830001,-77.541064236,375,"19 FAVARA CR, ROCHESTER, NY, 14609","Match","Exact","19 FAVARA CIR, ROCHESTER, NY, 14609",14542436,"R"
96376,"19 FOREST CT","PASSAIC","NJ",7055,40.8490042920001,-74.1437942649999,376,"19 FOREST CT, PASSAIC, NJ, 7055","Match","Exact","19 FOREST CT, PASSAIC, NJ, 07055",65251671,"R"
96377,"19 FOREST EDGE CV","JACKSON","TN",38305,35.710313275,-88.864649758,377,"19 FOREST EDGE CV, JACKSON, TN, 38305","Match","Exact","19 FOREST EDGE COVE, JACKSON, TN, 38305",21329739,"L"
96378,"19 FORESTWOOD DRIVE","FERGUSON","MO",63135,38.748684129,-90.2875881209999,378,"19 FORESTWOOD DRIVE, FERGUSON, MO, 63135","Match","Exact","19 FORESTWOOD DR, FERGUSON, MO, 63135",100146855,"R"
96379,"19 FOURTH STREET","STATEN ISLAND","NY",10306,40.5742475700001,-74.1179347149999,379,"19 FOURTH STREET, STATEN ISLAND, NY, 10306","Match","Exact","19 4TH ST, STATEN ISLAND, NY, 10306",59867801,"R"
96380,"19 FRANKLIN RD","SALISBURY","NH",3268,43.3794459910001,-71.715902924,380,"19 FRANKLIN RD, SALISBURY, NH, 3268","Match","Exact","19 FRANKLIN RD, SALISBURY, NH, 03268",117707968,"L"
96381,"19 FRANKLIN ST APT 2","HAVERHILL","MA",1830,42.7782798690001,-71.0827353559999,381,"19 FRANKLIN ST APT 2, HAVERHILL, MA, 1830","Match","Exact","19 FRANKLIN ST, HAVERHILL, MA, 01830",86617510,"R"
96382,"19 GARDEN ST","AMSTERDAM","NY",12010,42.942486429,-74.194287209,382,"19 GARDEN ST, AMSTERDAM, NY, 12010","Match","Exact","19 GARDEN ST, AMSTERDAM, NY, 12010",18616403,"R"
96383,"19 GARDEN STREET","MILFORD","NH",3055,42.833584697,-71.65210718,383,"19 GARDEN STREET, MILFORD, NH, 3055","Match","Exact","19 GARDEN ST, MILFORD, NH, 03055",113542248,"R"
96384,"19 GATESHEAD DRIVE","BRIDGEWATER","NJ",8807,40.617693214,-74.6048531499999,384,"19 GATESHEAD DRIVE, BRIDGEWATER, NJ, 8807","Match","Exact","19 GATESHEAD DR, BRIDGEWATER, NJ, 08807",59955612,"L"
96385,"19 GEORGE STREET","HAMDEN","CT",6514,41.3403967410001,-72.935866609,385,"19 GEORGE STREET, HAMDEN, CT, 6514","Match","Exact","19 GEORGE ST, HAMDEN, CT, 06514",3698978,"R"
96386,"19 GERMANIA STREET","GALETON","PA",16922,41.7327915230001,-77.6433381479999,386,"19 GERMANIA STREET, GALETON, PA, 16922","Match","Exact","19 GERMANIA ST, GALETON, PA, 16922",126359651,"R"
96387,"19 GLOUCESTER COURT","EAST BRUNSWICK","NJ",8816,40.414943927,-74.425337375,387,"19 GLOUCESTER COURT, EAST BRUNSWICK, NJ, 8816","Match","Exact","19 GLOUCESTER CT, E BRUNSWICK, NJ, 08816",60361291,"L"
96388,"19 GOLF DR PO BOX 716","NEWPORT","NH",3773,43.3551381520001,-72.175540097,388,"19 GOLF DR PO BOX 716, NEWPORT, NH, 3773","Match","Exact","19 GOLF DR, NEWPORT, NH, 03773",124331353,"L"
96389,"19 GOLF DR","NEWPORT","NH",3773,43.3551381520001,-72.175540097,389,"19 GOLF DR, NEWPORT, NH, 3773","Match","Exact","19 GOLF DR, NEWPORT, NH, 03773",124331353,"L"
96390,"19 GREENHAVEN RD","PAWCATUCK","CT",6379,41.36039708,-71.876013139,390,"19 GREENHAVEN RD, PAWCATUCK, CT, 6379","Match","Exact","19 GREENHAVEN RD, PAWCATUCK, CT, 06379",56860047,"L"
96391,"19 GREENHAVEN ROAD","PAWCATUCK","CT",6379,41.36039708,-71.876013139,391,"19 GREENHAVEN ROAD, PAWCATUCK, CT, 6379","Match","Exact","19 GREENHAVEN RD, PAWCATUCK, CT, 06379",56860047,"L"
96392,"19 GREENPOINT VIEW ST","LAS VEGAS","NV",89148,36.0549871210001,-115.284444626,392,"19 GREENPOINT VIEW ST, LAS VEGAS, NV, 89148","Match","Exact","19 GREENPOINT VIEW ST, LAS VEGAS, NV, 89148",648302117,"L"
96393,"19 GREENWOOD ROAD","FISHERS ISLAND","NY",6390,NA,NA,393,"19 GREENWOOD ROAD, FISHERS ISLAND, NY, 6390","No_Match",NA,NA,NA,NA
96394,"19 GREGG DRIVE","GOLDENDALE","WA",98620,45.8071797430001,-120.876928676,394,"19 GREGG DRIVE, GOLDENDALE, WA, 98620","Match","Exact","19 GREGG DR, GOLDENDALE, WA, 98620",624348586,"L"
96395,"19 GROVE TERRACE","SPARTA","NJ",7871,41.0121070340001,-74.6780173239999,395,"19 GROVE TERRACE, SPARTA, NJ, 7871","Match","Exact","19 GROVE TER, SPARTA, NJ, 07871",98020626,"L"
96396,"19 HARBOURSIDE RD","QUINCY","MA",2171,42.298957403,-71.025505202,396,"19 HARBOURSIDE RD, QUINCY, MA, 2171","Match","Exact","19 HARBOURSIDE RD, QUINCY, MA, 02171",87247542,"R"
96397,"19 HARDWOOD ROAD","PALMYRA","VA",22963,37.9085736370001,-78.309197308,397,"19 HARDWOOD ROAD, PALMYRA, VA, 22963","Match","Exact","19 HARDWOOD RD, PALMYRA, VA, 22963",73778339,"R"
96398,"19 HARLOW DRIVE","AMHERST","MA",1002,42.405507405,-72.5157530819999,398,"19 HARLOW DRIVE, AMHERST, MA, 1002","Match","Exact","19 HARLOW DR, AMHERST, MA, 01002",39844729,"L"
96399,"19 HARMONY ROAD","BRIDGETON","NJ",8302,39.4855614640001,-75.2731472,399,"19 HARMONY ROAD, BRIDGETON, NJ, 8302","Match","Exact","19 HARMONY RD, BRIDGETON, NJ, 08302",174131729,"L"
96400,"19 HARP PL","MYERSVILLE","MD",21773,39.5123190210001,-77.566725644,400,"19 HARP PL, MYERSVILLE, MD, 21773","Match","Exact","19 HARP PL, MYERSVILLE, MD, 21773",60718624,"R"
96401,"19 HARRISON STREET","FRAMINGHAM","MA",1702,42.2905144590001,-71.408453779,401,"19 HARRISON STREET, FRAMINGHAM, MA, 1702","Match","Exact","19 HARRISON ST, FRAMINGHAM, MA, 01702",86850420,"R"
96402,"19 HARVARD ST","ARLINGTON","MA",2476,42.422645517,-71.1781296199999,402,"19 HARVARD ST, ARLINGTON, MA, 2476","Match","Exact","19 HARVARD ST, ARLINGTON, MA, 02476",86885114,"R"
96403,"19 HARVARD STREET","ARLINGTON","MA",2476,42.422645517,-71.1781296199999,403,"19 HARVARD STREET, ARLINGTON, MA, 2476","Match","Exact","19 HARVARD ST, ARLINGTON, MA, 02476",86885114,"R"
96404,"19 HEATHER COURT","DOVER","NJ",7801,40.8994567760001,-74.534850062,404,"19 HEATHER COURT, DOVER, NJ, 7801","Match","Exact","19 HEATHER CT, DOVER, NJ, 07801",60460441,"L"
96405,"19 HECLA ST","BUFFALO","NY",14216,42.95652175,-78.8406578729999,405,"19 HECLA ST, BUFFALO, NY, 14216","Match","Exact","19 HECLA ST, BUFFALO, NY, 14216",48294923,"R"
96406,"19 HEMENWAY ROAD","WILLIAMSBURG","MA",1096,42.4124255360001,-72.743274943,406,"19 HEMENWAY ROAD, WILLIAMSBURG, MA, 1096","Match","Exact","19 HEMENWAY RD, WILLIAMSBURG, MA, 01096",39843814,"L"
96407,"19 HERKIMER CT","BARNEGAT","NJ",8005,39.7750945070001,-74.248206448,407,"19 HERKIMER CT, BARNEGAT, NJ, 8005","Match","Exact","19 HERKIMER CT, BARNEGAT, NJ, 08005",203761334,"L"
96408,"19 HEWITT ROAD","LAMBERTVILLE","NJ",8530,40.352589059,-74.9175522039999,408,"19 HEWITT ROAD, LAMBERTVILLE, NJ, 8530","Match","Exact","19 HEWITT RD, LAMBERTVILLE, NJ, 08530",60017536,"L"
96409,"19 HIDDEN GLEN ROAD","SCARSDALE","NY",10583,40.9970831640001,-73.8425284469999,409,"19 HIDDEN GLEN ROAD, SCARSDALE, NY, 10583","Match","Exact","19 HIDDEN GLEN RD, SCARSDALE, NY, 10583",139734013,"R"
96410,"19 HIDDEN SPRINGS LN","STAFFORD","VA",22553,38.4277871360001,-77.378283251,410,"19 HIDDEN SPRINGS LN, STAFFORD, VA, 22553","Match","Non_Exact","19 HIDDEN SPRINGS LN, STAFFORD, VA, 22554",636652460,"L"
96411,"19 HIGGINSVILLE ROAD","NESHANIC STATION","NJ",8853,40.509084505,-74.785451301,411,"19 HIGGINSVILLE ROAD, NESHANIC STATION, NJ, 8853","Match","Exact","19 HIGGINSVILLE RD, NESHANIC STA, NJ, 08853",60011570,"L"
96412,"19 HIGH STREET","NEWTON","NJ",7860,41.0585786290001,-74.753705339,412,"19 HIGH STREET, NEWTON, NJ, 7860","Match","Exact","19 HIGH ST, NEWTON, NJ, 07860",637763523,"L"
96413,"19 HILL RUN ROAD","NEWBURGH","NY",12550,41.5190968520001,-74.043082166,413,"19 HILL RUN ROAD, NEWBURGH, NY, 12550","Match","Exact","19 HILL RUN RD, NEWBURGH, NY, 12550",124411864,"L"
96414,"19 HILL SHORE LANE","CLAYTON","NC",27527,35.6549776950001,-78.404078946,414,"19 HILL SHORE LANE, CLAYTON, NC, 27527","Match","Exact","19 HILL SHORE LN, CLAYTON, NC, 27527",632426972,"L"
96415,"19 HILLCREST STREET","SPRINGFIELD","MA",1109,42.1188529230001,-72.529535121,415,"19 HILLCREST STREET, SPRINGFIELD, MA, 1109","Match","Exact","19 HILLCREST ST, SPRINGFIELD, MA, 01109",4054152,"L"
96416,"19 HIRST AVE","LANSDOWNE","PA",19050,39.9405468030001,-75.2630733839999,416,"19 HIRST AVE, LANSDOWNE, PA, 19050","Match","Exact","19 HIRST AVE, LANSDOWNE, PA, 19050",134878058,"R"
96417,"19 HUEMMER TER","CLIFTON","NJ",7013,40.858142694,-74.1773806959999,417,"19 HUEMMER TER, CLIFTON, NJ, 7013","Match","Exact","19 HUEMMER TER, CLIFTON, NJ, 07013",65267799,"R"
96418,"19 INVERNESS PARK WAY","HOUSTON","TX",75055,29.79256114,-95.5084875379999,418,"19 INVERNESS PARK WAY, HOUSTON, TX, 75055","Match","Non_Exact","19 INVERNESS PARK WAY, HOUSTON, TX, 77055",96552930,"L"
96419,"19 JACKSON RD","GETTYSBURG","PA",17325,39.8056905030001,-77.194751998,419,"19 JACKSON RD, GETTYSBURG, PA, 17325","Match","Exact","19 JACKSON RD, GETTYSBURG, PA, 17325",60864159,"L"
96420,"19 JACKSON ST","MANCHESTER","CT",6040,41.775187443,-72.519301534,420,"19 JACKSON ST, MANCHESTER, CT, 6040","Match","Exact","19 JACKSON ST, MANCHESTER, CT, 06040",3520495,"L"
96421,"19 JACKSON STREET","BELCHERTOWN","MA",1007,42.2797485620001,-72.4053792679999,421,"19 JACKSON STREET, BELCHERTOWN, MA, 1007","Match","Exact","19 JACKSON ST, BELCHERTOWN, MA, 01007",39854128,"L"
96422,"19 JAMES STREET","NEWARK","NJ",7102,40.7439870850001,-74.1715430629999,422,"19 JAMES STREET, NEWARK, NJ, 7102","Match","Exact","19 JAMES ST, NEWARK, NJ, 07102",63467326,"R"
96423,"19 JEFFERSON AVE","SHARON","PA",16146,41.23336684,-80.4953156409999,423,"19 JEFFERSON AVE, SHARON, PA, 16146","Match","Exact","19 JEFFERSON AVE, SHARON, PA, 16146",70653015,"L"
96424,"19 JEFFERSON AVENUE","PITMAN","NJ",8071,39.7245987470001,-75.1222685239999,424,"19 JEFFERSON AVENUE, PITMAN, NJ, 8071","Match","Exact","19 JEFFERSON AVE, PITMAN, NJ, 08071",642723768,"R"
96425,"19 JENKINS STREET","BELLEVILLE","PA",17004,40.6029997050001,-77.7266292309999,425,"19 JENKINS STREET, BELLEVILLE, PA, 17004","Match","Exact","19 JENKINS ST, BELLEVILLE, PA, 17004",48015099,"R"
96426,"19 JODPHUR LN","NEWBURGH","NY",12550,41.522971635,-74.0822064669999,426,"19 JODPHUR LN, NEWBURGH, NY, 12550","Match","Exact","19 JODPHUR LN, NEWBURGH, NY, 12550",124494114,"L"
96427,"19 JONES VIEW DRIVE","HUNTSVILLE","TX",77320,30.784178739,-95.536672579,427,"19 JONES VIEW DRIVE, HUNTSVILLE, TX, 77320","Match","Exact","19 JONES VIEW DR, HUNTSVILLE, TX, 77320",22205319,"R"
96428,"19 JULIE RD","NORTH EASTON","MA",2356,42.0445143360001,-71.109226227,428,"19 JULIE RD, NORTH EASTON, MA, 2356","Match","Exact","19 JULIE RD, NORTH EASTON, MA, 02356",46773881,"R"
96429,"19 KAMPFER DR","GLASGOW","MT",59230,48.2096915020001,-106.639977893,429,"19 KAMPFER DR, GLASGOW, MT, 59230","Match","Exact","19 KAMPFER DR, GLASGOW, MT, 59230",166992854,"L"
96430,"19 KASSON ROAD","MOATSVILLE","WV",26405,NA,NA,430,"19 KASSON ROAD, MOATSVILLE, WV, 26405","No_Match",NA,NA,NA,NA
96431,"19 KENDRICK ST","WRENTHAM","MA",2093,42.066160536,-71.329429047,431,"19 KENDRICK ST, WRENTHAM, MA, 2093","Match","Exact","19 KENDRICK ST, WRENTHAM, MA, 02093",87261100,"L"
96432,"19 KETCH ROAD","MORRISTOWN","NJ",7960,40.8221610860001,-74.517127407,432,"19 KETCH ROAD, MORRISTOWN, NJ, 7960","Match","Exact","19 KETCH RD, MORRISTOWN, NJ, 07960",649371690,"L"
96433,"19 KYLE DRIVE","PHILLIPSBURG","NJ",8865,40.714682268,-75.1694765079999,433,"19 KYLE DRIVE, PHILLIPSBURG, NJ, 8865","Match","Exact","19 KYLE DR, PHILLIPSBURG, NJ, 08865",98099552,"L"
96434,"19 LAFAYETTE NE","GRAND RAPIDS","MI",49503,42.9635718280001,-85.6617729929999,434,"19 LAFAYETTE NE, GRAND RAPIDS, MI, 49503","Match","Non_Exact","19 LAFAYETTE AVE NE, GRAND RAPIDS, MI, 49503",12457783,"L"
96435,"19 LAMBSON LANE - SUITE 002","NEW CASTLE","DE",19720,39.7046332400001,-75.549723493,435,"19 LAMBSON LANE - SUITE 002, NEW CASTLE, DE, 19720","Match","Exact","19 LAMBSON LN, NEW CASTLE, DE, 19720",187280147,"R"
96436,"19 LAMBSON LN","NEW CASTLE","DE",19720,39.7046332400001,-75.549723493,436,"19 LAMBSON LN, NEW CASTLE, DE, 19720","Match","Exact","19 LAMBSON LN, NEW CASTLE, DE, 19720",187280147,"R"
96437,"19 LATIMER LANE NE","KENNESAW","GA",30144,34.0659600500001,-84.549643621,437,"19 LATIMER LANE NE, KENNESAW, GA, 30144","Match","Exact","19 LATIMER LN NE, KENNESAW, GA, 30144",17215232,"L"
96438,"19 LIBERTY DRIVE","DOVER","DE",19904,39.166289411,-75.5542440679999,438,"19 LIBERTY DRIVE, DOVER, DE, 19904","Match","Exact","19 LIBERTY DR, DOVER, DE, 19904",68088114,"R"
96439,"19 LIBERTY ST","WORCESTER","MA",1605,42.271471574,-71.793581058,439,"19 LIBERTY ST, WORCESTER, MA, 1605","Match","Exact","19 LIBERTY ST, WORCESTER, MA, 01605",40010751,"L"
96440,"19 LINCOLN PLACE 22","OSSINING","NY",10562,41.157211777,-73.860724874,440,"19 LINCOLN PLACE 22, OSSINING, NY, 10562","Match","Exact","19 LINCOLN PL, OSSINING, NY, 10562",139788312,"R"
96441,"19 LINCOLN ROAD","FRANKLIN SQUARE","NY",11010,40.707465832,-73.670669297,441,"19 LINCOLN ROAD, FRANKLIN SQUARE, NY, 11010","Match","Exact","19 LINCOLN RD, FRANKLIN SQUARE, NY, 11010",147672069,"L"
96442,"19 LINCOLN ROAD","SHARON","MA",2067,42.123064062,-71.147694423,442,"19 LINCOLN ROAD, SHARON, MA, 2067","Match","Exact","19 LINCOLN RD, SHARON, MA, 02067",87263097,"L"
96443,"19 LISE CIRCLE","SUFFIELD","CT",6078,42.0010063500001,-72.631183041,443,"19 LISE CIRCLE, SUFFIELD, CT, 6078","Match","Exact","19 LISE CIR, SUFFIELD, CT, 06078",624156593,"R"
96444,"19 LITTLETON WAY","MUNFORD","TN",38058,35.463813508,-89.829160847,444,"19 LITTLETON WAY, MUNFORD, TN, 38058","Match","Exact","19 LITTLETON WAY, MUNFORD, TN, 38058",612998154,"L"
96445,"19 LONG VIEW ROAD","COTO DE CAZA","CA",92679,33.5629116490001,-117.583275348,445,"19 LONG VIEW ROAD, COTO DE CAZA, CA, 92679","Match","Exact","19 LONG VIEW RD, COTO DE CAZA, CA, 92679",624533117,"L"
96446,"19 LOOKOUT PLACE","ARDSLEY","NY",10502,41.019952199,-73.836814692,446,"19 LOOKOUT PLACE, ARDSLEY, NY, 10502","Match","Exact","19 LOOKOUT PL, ARDSLEY, NY, 10502",139732769,"R"
96447,"19 LOUISE DRIVE","CHEEKTOWAGA","NY",14227,42.8673531380001,-78.733688318,447,"19 LOUISE DRIVE, CHEEKTOWAGA, NY, 14227","Match","Exact","19 LOUISE DR, CHEEKTOWAGA, NY, 14227",48307329,"L"
96448,"19 LYMINGTON COURT","BRENTWOOD","TN",37027,36.046166606,-86.7647422749999,448,"19 LYMINGTON COURT, BRENTWOOD, TN, 37027","Match","Exact","19 LYMINGTON CT, BRENTWOOD, TN, 37027",97205918,"L"
96449,"19 LYONS AVENUE APT 110","NEWARK","NJ",7112,40.706106537,-74.2066113079999,449,"19 LYONS AVENUE APT 110, NEWARK, NJ, 7112","Match","Exact","19 LYONS AVE, NEWARK, NJ, 07112",63485712,"R"
96450,"19 MACY PL","MOBILE","AL",36604,30.685172783,-88.075841743,450,"19 MACY PL, MOBILE, AL, 36604","Match","Exact","19 MACY PL, MOBILE, AL, 36604",61937545,"L"
96451,"19 MAHSHIE LANE","HENDERSONVILLE","NC",28739,35.3337934050001,-82.5280062699999,451,"19 MAHSHIE LANE, HENDERSONVILLE, NC, 28739","Match","Exact","19 MAHSHIE LN, HENDERSONVILLE, NC, 28739",152268690,"L"
96452,"19 MAIN ROAD","WESTPORT","MA",2790,41.6202930920001,-71.079598171,452,"19 MAIN ROAD, WESTPORT, MA, 2790","Match","Exact","19 MAIN RD, WESTPORT, MA, 02790",46762841,"L"
96453,"19 MAIN STREET","TOWNSEND","MA",1469,42.650673957,-71.663598953,453,"19 MAIN STREET, TOWNSEND, MA, 1469","Match","Exact","19 MAIN ST, TOWNSEND, MA, 01469",647973312,"L"
96454,"19 MANCHESTER CT","STREAMWOOD","IL",60107,42.0357397720001,-88.192169661,454,"19 MANCHESTER CT, STREAMWOOD, IL, 60107","Match","Exact","19 MANCHESTER CT, STREAMWOOD, IL, 60107",111888249,"L"
96455,"19 MANTUA ROAD","MOUNT ROYAL","NJ",8061,39.8083013570001,-75.2100693149999,455,"19 MANTUA ROAD, MOUNT ROYAL, NJ, 8061","Match","Exact","19 MANTUA RD, MOUNT ROYAL, NJ, 08061",134582004,"R"
96456,"19 MAPLE AVE","NORTHAMPTON","MA",1060,42.3159215750001,-72.630812248,456,"19 MAPLE AVE, NORTHAMPTON, MA, 1060","Match","Exact","19 MAPLE AVE, NORTHAMPTON, MA, 01060",39849897,"R"
96457,"19 MAPLE STREET","ARLINGTON","MA",2476,42.41449734,-71.1562528009999,457,"19 MAPLE STREET, ARLINGTON, MA, 2476","Match","Exact","19 MAPLE ST, ARLINGTON, MA, 02476",87111843,"R"
96458,"19 MARINA VIEW CT","BETHANY BEACH","DE",19930,38.604789257,-75.075875386,458,"19 MARINA VIEW CT, BETHANY BEACH, DE, 19930","Match","Exact","19 MARINA VIEW CT, BETHANY BEACH, DE, 19930",641491656,"R"
96459,"19 MARISA CT","WEST MILFORD","NJ",7480,41.0869129010001,-74.3579742969999,459,"19 MARISA CT, WEST MILFORD, NJ, 7480","Match","Exact","19 MARISA CT, WEST MILFORD, NJ, 07480",65271526,"R"
96460,"19 MARKET ST","GARDEN VALLEY","ID",83622,NA,NA,460,"19 MARKET ST, GARDEN VALLEY, ID, 83622","No_Match",NA,NA,NA,NA
96461,"19 MARYCREST RD","WEST NYACK","NY",10994,NA,NA,461,"19 MARYCREST RD, WEST NYACK, NY, 10994","No_Match",NA,NA,NA,NA
96462,"19 MATECUMBE DRIVE","CHEROKEE VILLAGE","AR",72529,36.263556829,-91.550579827,462,"19 MATECUMBE DRIVE, CHEROKEE VILLAGE, AR, 72529","Match","Exact","19 MATECUMBE DR, CHEROKEE VLG, AR, 72529",33268008,"R"
96463,"19 MAYBECK STREET","NOVATO","CA",94949,38.053603389,-122.50946849,463,"19 MAYBECK STREET, NOVATO, CA, 94949","Match","Exact","19 MAYBECK ST, NOVATO, CA, 94949",636982040,"R"
96464,"19 MCELMURRY LANE","EAST WENATCHEE","WA",98802,47.454352596,-120.296946446,464,"19 MCELMURRY LANE, EAST WENATCHEE, WA, 98802","Match","Exact","19 MCELMURRY LN, EAST WENATCHEE, WA, 98802",156884001,"L"
96465,"19 MCELWAIN DRIVE","LITCHFIELD","NH",3052,42.838197135,-71.4721786389999,465,"19 MCELWAIN DRIVE, LITCHFIELD, NH, 3052","Match","Exact","19 MCELWAIN DR, LITCHFIELD, NH, 03052",113557133,"R"
96466,"19 MCKINLEY AVE","LAWRENCE","MA",1843,42.6862004860001,-71.156109734,466,"19 MCKINLEY AVE, LAWRENCE, MA, 1843","Match","Exact","19 MCKINLEY AVE, LAWRENCE, MA, 01843",86628846,"R"
96467,"19 MEMORIAL AVENUE","PAWLING","NY",12564,41.5627556250001,-73.600904083,467,"19 MEMORIAL AVENUE, PAWLING, NY, 12564","Match","Exact","19 MEMORIAL AVE, PAWLING, NY, 12564",4173736,"R"
96468,"19 MEMORIAL PARKWAY","ATLANTIC HIGHLANDS","NJ",7716,40.4085481210001,-74.038402861,468,"19 MEMORIAL PARKWAY, ATLANTIC HIGHLANDS, NJ, 7716","Match","Exact","19 MEMORIAL PKWY, ATLANTIC HIGHLANDS, NJ, 07716",90571764,"L"
96469,"19 MERIDIAN ROAD","MAPLETON","ND",58059,46.8854607800001,-97.052750847,469,"19 MERIDIAN ROAD, MAPLETON, ND, 58059","Match","Exact","19 MERIDIAN RD, MAPLETON, ND, 58059",151470566,"R"
96470,"19 MERIDIAN ST SUITE 3","EAST BOSTON","MA",2128,42.3705624350001,-71.0389744989999,470,"19 MERIDIAN ST SUITE 3, EAST BOSTON, MA, 2128","Match","Exact","19 MERIDIAN ST, EAST BOSTON, MA, 02128",85711473,"R"
96471,"19 MERIDIAN STREET","BOSTON","MA",2128,42.3705624350001,-71.0389744989999,471,"19 MERIDIAN STREET, BOSTON, MA, 2128","Match","Exact","19 MERIDIAN ST, BOSTON, MA, 02128",85711473,"R"
96472,"19 MESSINGER ST","BOSTON","MA",2126,42.272725429,-71.098237345,472,"19 MESSINGER ST, BOSTON, MA, 2126","Match","Exact","19 MESSINGER ST, BOSTON, MA, 02126",85705186,"R"
96473,"19 MIDDLETOWN LINCROFT ROAD","LINCROFT","NJ",7738,40.334018042,-74.124643269,473,"19 MIDDLETOWN LINCROFT ROAD, LINCROFT, NJ, 7738","Match","Exact","19 MIDDLETOWN LINCROFT RD, LINCROFT, NJ, 07738",90453328,"L"
96474,"19 MILLRIDGE DRIVE","ASTON","PA",19014,39.8921956820001,-75.4533644049999,474,"19 MILLRIDGE DRIVE, ASTON, PA, 19014","Match","Exact","19 MILLRIDGE DR, ASTON, PA, 19014",624934948,"R"
96475,"19 MILLRIDGE ROAD","SECAUCUS","NJ",7094,40.801658629,-74.0500185459999,475,"19 MILLRIDGE ROAD, SECAUCUS, NJ, 7094","Match","Exact","19 MILLRIDGE RD, SECAUCUS, NJ, 07094",641120496,"L"
96476,"19 MIRAMICHI TRAIL","MORGANTOWN","WV",26508,39.6508709980001,-79.853589609,476,"19 MIRAMICHI TRAIL, MORGANTOWN, WV, 26508","Match","Exact","19 MIRAMICHI TRL, MORGANTOWN, WV, 26508",50786566,"L"
96477,"19 MONTROSE ROAD","SOMERSET","NJ",8873,40.504277738,-74.4843847189999,477,"19 MONTROSE ROAD, SOMERSET, NJ, 8873","Match","Exact","19 MONTROSE RD, SOMERSET, NJ, 08873",59951972,"L"
96478,"19 MORSE HILL ROAD","MILLERTON","NY",12546,41.901197779,-73.5779581479999,478,"19 MORSE HILL ROAD, MILLERTON, NY, 12546","Match","Exact","19 MORSE HILL RD, MILLERTON, NY, 12546",4171895,"L"
96479,"19 MOURNING DOVE CIRCLE","NEW HAVEN","CT",6513,NA,NA,479,"19 MOURNING DOVE CIRCLE, NEW HAVEN, CT, 6513","No_Match",NA,NA,NA,NA
96480,"19 MOURY AVENUE SE","ATLANTA","GA",30315,33.7130093390001,-84.384082871,480,"19 MOURY AVENUE SE, ATLANTA, GA, 30315","Match","Exact","19 MOURY AVE SE, ATLANTA, GA, 30315",17346920,"R"
96481,"19 MURPHY ROAD","BOOTHBAY","ME",4537,43.894203442,-69.6008630709999,481,"19 MURPHY ROAD, BOOTHBAY, ME, 4537","Match","Exact","19 MURPHY RD, BOOTHBAY, ME, 04537",637111601,"R"
96482,"19 MYRTLEDALE RD","SCARSDALE","NY",10583,40.9873411230001,-73.762656092,482,"19 MYRTLEDALE RD, SCARSDALE, NY, 10583","Match","Exact","19 MYRTLEDALE RD, SCARSDALE, NY, 10583",139742429,"L"
96483,"19 N 10TH ST","HAINES CITY","FL",33844,28.1070466200001,-81.623318968,483,"19 N 10TH ST, HAINES CITY, FL, 33844","Match","Exact","19 N 10TH ST, HAINES CITY, FL, 33844",104858139,"L"
96484,"19 N BISHOP ST UNIT 2","CHICAGO","IL",60607,41.881860379,-87.663693856,484,"19 N BISHOP ST UNIT 2, CHICAGO, IL, 60607","Match","Non_Exact","19 N BISHOP ST, CHICAGO, IL, 60607",111765505,"R"
96485,"19 N MAIN STREET","JASPER","GA",30143,34.4686540590001,-84.4302002379999,485,"19 N MAIN STREET, JASPER, GA, 30143","Match","Exact","19 N MAIN ST, JASPER, GA, 30143",70209219,"L"
96486,"19 N MARKET STREET","DUNCANNON","PA",17020,40.390552744,-77.030107372,486,"19 N MARKET STREET, DUNCANNON, PA, 17020","Match","Exact","19 N MARKET ST, DUNCANNON, PA, 17020",61052625,"L"
96487,"19 NANCY LANE","BREWSTER","NY",10509,41.430282585,-73.5984928459999,487,"19 NANCY LANE, BREWSTER, NY, 10509","Match","Exact","19 NANCY LN, BREWSTER, NY, 10509",139711210,"L"
96488,"19 NANTUCKET LANE","SAINT LOUIS","MO",63132,38.662249273,-90.392022541,488,"19 NANTUCKET LANE, SAINT LOUIS, MO, 63132","Match","Exact","19 NANTUCKET LN, SAINT LOUIS, MO, 63132",100194632,"R"
96489,"19 NED CT","SEWAREN","NJ",7077,40.562574478,-74.2557840489999,489,"19 NED CT, SEWAREN, NJ, 7077","Match","Exact","19 NED CT, SEWAREN, NJ, 07077",645393716,"L"
96490,"19 NELSON AVENUE","WOODBURY","NJ",8096,39.8316318220001,-75.156541263,490,"19 NELSON AVENUE, WOODBURY, NJ, 8096","Match","Exact","19 NELSON AVE, WOODBURY, NJ, 08096",134584242,"R"
96491,"19 NEPTUNE LANE","WILLINGBORO","NJ",8046,40.035585101,-74.862650254,491,"19 NEPTUNE LANE, WILLINGBORO, NJ, 8046","Match","Exact","19 NEPTUNE LN, WILLINGBORO, NJ, 08046",134058430,"R"
96492,"19 NEWMAN ST","PORTLAND","ME",4103,43.678503548,-70.300553306,492,"19 NEWMAN ST, PORTLAND, ME, 4103","Match","Exact","19 NEWMAN ST, PORTLAND, ME, 04103",78025323,"R"
96493,"19 NINOS","IRVINE","CA",92620,33.717961136,-117.757076884,493,"19 NINOS, IRVINE, CA, 92620","Match","Exact","19 NINOS, IRVINE, CA, 92620",144060984,"L"
96494,"19 NORTH CANAL STREET","NEWTON FALLS","OH",44444,41.188870093,-80.97743479,494,"19 NORTH CANAL STREET, NEWTON FALLS, OH, 44444","Match","Exact","19 N CANAL ST, NEWTON FALLS, OH, 44444",638557229,"L"
96495,"19 NORTH FORT THOMAS AVENUE","FORT THOMAS","KY",41075,39.079360622,-84.4484889,495,"19 NORTH FORT THOMAS AVENUE, FORT THOMAS, KY, 41075","Match","Exact","19 N FORT THOMAS AVE, FORT THOMAS, KY, 41075",104448910,"L"
96496,"19 NORTH MAIN STREET","PETERSHAM","MA",1366,42.4903711260001,-72.185704387,496,"19 NORTH MAIN STREET, PETERSHAM, MA, 1366","Match","Exact","19 N MAIN ST, PETERSHAM, MA, 01366",39992817,"L"
96497,"19 NORTH MAPLE ST","CORTEZ","CO",81321,37.3488450360001,-108.590442617,497,"19 NORTH MAPLE ST, CORTEZ, CO, 81321","Match","Exact","19 N MAPLE ST, CORTEZ, CO, 81321",91765921,"L"
96498,"19 NORTH PARK DRIVE","GLOVERSVILLE","NY",12078,43.0574032440001,-74.332984379,498,"19 NORTH PARK DRIVE, GLOVERSVILLE, NY, 12078","Match","Exact","19 N PARK DR, GLOVERSVILLE, NY, 12078",153642316,"R"
96499,"19 NORTH RIDGE","PINE RIDGE","SD",57770,NA,NA,499,"19 NORTH RIDGE, PINE RIDGE, SD, 57770","No_Match",NA,NA,NA,NA
96500,"19 NORTH RIVER ROAD","SCITUATE","MD",2066,NA,NA,500,"19 NORTH RIVER ROAD, SCITUATE, MD, 2066","No_Match",NA,NA,NA,NA
