"ID","Address","City","State","Zip","lat","long","id","input_address","match_indicator","match_type","matched_address","tiger_line_id","tiger_side"
137001,"2490 VALLEYDALE ROAD","BIRMINGHAM","AL",35244,33.3763545780001,-86.753161399,1,"2490 VALLEYDALE ROAD, BIRMINGHAM, AL, 35244","Match","Exact","2490 VALLEYDALE RD, BIRMINGHAM, AL, 35244",82112125,"R"
137002,"24900 E PARK CRESCENT CIRCLE","AURORA","CO",80016,39.5851887490001,-104.698942737,2,"24900 E PARK CRESCENT CIRCLE, AURORA, CO, 80016","Match","Non_Exact","24900 E PARK CRESCENT DR, AURORA, CO, 80016",177532970,"R"
137003,"24900 FRANKLIN FARMS DRIVE","FRANKLIN","MI",48025,42.5214283930001,-83.289142657,3,"24900 FRANKLIN FARMS DRIVE, FRANKLIN, MI, 48025","Match","Exact","24900 FRANKLIN FARMS DR, FRANKLIN, MI, 48025",627696555,"R"
137004,"24900 MEADOWS AVE","FLAT ROCK","MI",48134,42.087905097,-83.274526479,4,"24900 MEADOWS AVE, FLAT ROCK, MI, 48134","Match","Exact","24900 MEADOWS AVE, FLAT ROCK, MI, 48134",95505439,"R"
137005,"24900 SAVANNAH TRAIL","ATHENS","AL",35613,34.808831728,-86.880048441,5,"24900 SAVANNAH TRAIL, ATHENS, AL, 35613","Match","Exact","24900 SAVANNAH TRL, ATHENS, AL, 35613",95248176,"R"
137006,"24901 NORTHWESTERN HWY STE 603","SOUTHFIELD","MI",48075,42.475143646,-83.246010783,6,"24901 NORTHWESTERN HWY STE 603, SOUTHFIELD, MI, 48075","Match","Exact","24901 NORTHWESTERN HWY, SOUTHFIELD, MI, 48075",69828307,"L"
137007,"24903 PUCCINI PL","KATY","TX",77493,29.8269760800001,-95.804727158,7,"24903 PUCCINI PL, KATY, TX, 77493","Match","Exact","24903 PUCCINI PL, KATY, TX, 77493",652673728,"L"
137008,"24905 PINEBROOK RD","CHANTILLY","VA",20152,38.928630657,-77.529995177,8,"24905 PINEBROOK RD, CHANTILLY, VA, 20152","Match","Exact","24905 PINEBROOK RD, CHANTILLY, VA, 20152",634627475,"R"
137009,"24907 MEMPHIS AVE","ROSEDALE","NY",11422,NA,NA,9,"24907 MEMPHIS AVE, ROSEDALE, NY, 11422","No_Match",NA,NA,NA,NA
137010,"24908 DUFFIELD ROAD","BEACHWOOD","OH",44122,41.476731004,-81.503070513,10,"24908 DUFFIELD ROAD, BEACHWOOD, OH, 44122","Match","Exact","24908 DUFFIELD RD, BEACHWOOD, OH, 44122",61134243,"R"
137011,"24908 KENNEDY RIDGE","NORTH OLMSTED","OH",44070,41.412463717,-81.8977677299999,11,"24908 KENNEDY RIDGE, NORTH OLMSTED, OH, 44070","Match","Non_Exact","24908 KENNEDY RIDGE RD, NORTH OLMSTED, OH, 44070",61139693,"R"
137012,"24909 19TH PL S","DES MOINES","WA",98198,47.378326637,-122.308870113,12,"24909 19TH PL S, DES MOINES, WA, 98198","Match","Exact","24909 19TH PL S, DES MOINES, WA, 98198",187006240,"L"
137013,"24909 MADISON AVE 2223","MURRIETA","CA",92562,NA,NA,13,"24909 MADISON AVE 2223, MURRIETA, CA, 92562","No_Match",NA,NA,NA,NA
137014,"2491 ALLUVIAL AVE STE 300","CLOVIS","CA",93611,36.844696346,-119.668858481,14,"2491 ALLUVIAL AVE STE 300, CLOVIS, CA, 93611","Match","Exact","2491 ALLUVIAL AVE, CLOVIS, CA, 93611",617776999,"L"
137015,"2491 ALLUVIAL AVE SUITE 130","CLOVIS","CA",93611,36.844696346,-119.668858481,15,"2491 ALLUVIAL AVE SUITE 130, CLOVIS, CA, 93611","Match","Exact","2491 ALLUVIAL AVE, CLOVIS, CA, 93611",617776999,"L"
137016,"2491 BENTLEY DR","PALM HARBOR","FL",34684,28.0907463500001,-82.73023311,16,"2491 BENTLEY DR, PALM HARBOR, FL, 34684","Match","Exact","2491 BENTLEY DR, PALM HARBOR, FL, 34684",124749922,"L"
137017,"2491 BYRD AVENUE","SANFORD","FL",32771,28.788287693,-81.237410153,17,"2491 BYRD AVENUE, SANFORD, FL, 32771","Match","Exact","2491 BYRD AVE, SANFORD, FL, 32771",93751081,"R"
137018,"2491 CATAWBA CIR","SANTA CLARA","UT",84765,37.1185640520001,-113.637417302,18,"2491 CATAWBA CIR, SANTA CLARA, UT, 84765","Match","Exact","2491 CATAWBA CIR, SANTA CLARA, UT, 84765",607581828,"L"
137019,"2491 CHERRY HILL RD  BUILDING 2","PALMERTON","PA",18071,40.819367148,-75.6561274759999,19,"2491 CHERRY HILL RD  BUILDING 2, PALMERTON, PA, 18071","Match","Exact","2491 CHERRY HILL RD, PALMERTON, PA, 18071",630307484,"L"
137020,"2491 CONCORD CIRCLE","LAFAYETTE","CO",80026,40.006153673,-105.127481044,20,"2491 CONCORD CIRCLE, LAFAYETTE, CO, 80026","Match","Exact","2491 CONCORD CIR, LAFAYETTE, CO, 80026",188193011,"L"
137021,"2491 DRIFTWOOD LOOP E","SEMMES","AL",36575,30.7413132450001,-88.239526269,21,"2491 DRIFTWOOD LOOP E, SEMMES, AL, 36575","Match","Non_Exact","2491 DRIFTWOOD LOOP W, SEMMES, AL, 36575",652455072,"L"
137022,"2491 GREER ROAD","PALO ALTO","CA",94303,37.442715277,-122.124583573,22,"2491 GREER ROAD, PALO ALTO, CA, 94303","Match","Exact","2491 GREER RD, PALO ALTO, CA, 94303",122951432,"L"
137023,"2491 HIGHWAY 184 WEST","DUE WEST","SC",29639,NA,NA,23,"2491 HIGHWAY 184 WEST, DUE WEST, SC, 29639","No_Match",NA,NA,NA,NA
137024,"2491 HILLENDALE DRIVE","NORRISTOWN","PA",19403,40.1519120510001,-75.377295745,24,"2491 HILLENDALE DRIVE, NORRISTOWN, PA, 19403","Match","Exact","2491 HILLENDALE DR, NORRISTOWN, PA, 19403",135115005,"L"
137025,"2491 HUNTINGTON DR","SAN MARINO","CA",91108,NA,NA,25,"2491 HUNTINGTON DR, SAN MARINO, CA, 91108","No_Match",NA,NA,NA,NA
137026,"2491 N MOUNT JULIET RD 824","MOUNT JULIET","TN",37122,NA,NA,26,"2491 N MOUNT JULIET RD 824, MOUNT JULIET, TN, 37122","Tie",NA,NA,NA,NA
137027,"2491 N MOUNT JULIET RD BOX 1486","MOUNT JULIET","TN",37122,NA,NA,27,"2491 N MOUNT JULIET RD BOX 1486, MOUNT JULIET, TN, 37122","Tie",NA,NA,NA,NA
137028,"2491 N MOUNT JULIET RD UNIT 27","MT JULIET","TN",37122,NA,NA,28,"2491 N MOUNT JULIET RD UNIT 27, MT JULIET, TN, 37122","Tie",NA,NA,NA,NA
137029,"2491 P AVE","CLUTIER","IA",52217,42.0769108220001,-92.473874414,29,"2491 P AVE, CLUTIER, IA, 52217","Match","Exact","2491 P AVE, CLUTIER, IA, 52217",90972595,"R"
137030,"2491 ROYSTON DRIVE","DULUTH","GA",30097,34.012455436,-84.1250641079999,30,"2491 ROYSTON DRIVE, DULUTH, GA, 30097","Match","Non_Exact","2491 ROYSTON DR NW, DULUTH, GA, 30097",625650353,"L"
137031,"2491 S DIXIE BLVD","RADCLIFF","KY",40160,NA,NA,31,"2491 S DIXIE BLVD, RADCLIFF, KY, 40160","No_Match",NA,NA,NA,NA
137032,"2491 SAWMILL ROAD - 2003","SANTA FE","NM",87505,35.6421731610001,-105.956040595,32,"2491 SAWMILL ROAD - 2003, SANTA FE, NM, 87505","Match","Exact","2491 SAWMILL RD, SANTA FE, NM, 87505",609090988,"R"
137033,"2491 SE GILLETTE AVE","PORT SAINT LUCIE","FL",24952,27.2668540170001,-80.277410101,33,"2491 SE GILLETTE AVE, PORT SAINT LUCIE, FL, 24952","Match","Non_Exact","2491 SE GILLETTE AVE, PORT SAINT LUCIE, FL, 34952",120155617,"L"
137034,"2491 VISTA WOOD CIRCLE","WESTLAKE VILLAGE","CA",91362,34.211773242,-118.82578819,34,"2491 VISTA WOOD CIRCLE, WESTLAKE VILLAGE, CA, 91362","Match","Exact","2491 VISTA WOOD CIR, WESTLAKE VILLAGE, CA, 91362",110089937,"L"
137035,"2491 WOOD LANE","LAKE HAVASU CITY","AZ",86406,34.4655665830001,-114.309648362,35,"2491 WOOD LANE, LAKE HAVASU CITY, AZ, 86406","Match","Exact","2491 WOOD LN, LAKE HAVASU CITY, AZ, 86406",190282755,"L"
137036,"24912 POT BUNKER WAY","MILLSBORO","DE",19966,38.64657845,-75.18904961,36,"24912 POT BUNKER WAY, MILLSBORO, DE, 19966","Match","Exact","24912 POT BUNKER WAY, MILLSBORO, DE, 19966",635280710,"L"
137037,"24914 109TH PL SE A","KENT","WA",98030,47.3785507010001,-122.196074211,37,"24914 109TH PL SE A, KENT, WA, 98030","Match","Exact","24914 109TH PL SE, KENT, WA, 98030",640606684,"L"
137038,"24914 109TH PL SE UNIT A","KENT","WA",98030,47.3785507010001,-122.196074211,38,"24914 109TH PL SE UNIT A, KENT, WA, 98030","Match","Exact","24914 109TH PL SE, KENT, WA, 98030",640606684,"L"
137039,"24915 BLUE IRIS CT N","PLAINFIELD","IL",60585,41.65648951,-88.226519087,39,"24915 BLUE IRIS CT N, PLAINFIELD, IL, 60585","Match","Exact","24915 BLUE IRIS CT N, PLAINFIELD, IL, 60585",111637161,"R"
137040,"24917 WEST CHRISTINE DRIVE  TRL 1","SPLENDORA","TX",77372,30.257053887,-95.177586321,40,"24917 WEST CHRISTINE DRIVE  TRL 1, SPLENDORA, TX, 77372","Match","Exact","24917 W CHRISTINE DR, SPLENDORA, TX, 77372",641271394,"R"
137041,"2492 BENTRIDGE DR W","MOBILE","AL",36695,30.6387238620001,-88.279316194,41,"2492 BENTRIDGE DR W, MOBILE, AL, 36695","Match","Exact","2492 BENTRIDGE DR W, MOBILE, AL, 36695",640526882,"L"
137042,"2492 EAGLE VALLEY DR","WOODBURY","MN",55129,44.912892877,-92.896398429,42,"2492 EAGLE VALLEY DR, WOODBURY, MN, 55129","Match","Exact","2492 EAGLE VALLEY DR, WOODBURY, MN, 55129",97808644,"R"
137043,"2492 FAIRWAY DRIVE","ORANGEBURG","SC",29118,33.5123497430001,-80.900344117,43,"2492 FAIRWAY DRIVE, ORANGEBURG, SC, 29118","Match","Non_Exact","2492 FAIRWAY DR NW, ORANGEBURG, SC, 29118",649754450,"R"
137044,"2492 HAMMOCK LAKE DR","LITTLE ELM","TX",75068,33.19155218,-96.8933792129999,44,"2492 HAMMOCK LAKE DR, LITTLE ELM, TX, 75068","Match","Exact","2492 HAMMOCK LAKE DR, LITTLE ELM, TX, 75068",639409383,"R"
137045,"2492 HAVERHILL RD","FAIRLAWN","OH",44333,41.1327345060001,-81.599698334,45,"2492 HAVERHILL RD, FAIRLAWN, OH, 44333","Match","Exact","2492 HAVERHILL RD, FAIRLAWN, OH, 44333",61337011,"L"
137046,"2492 MERRICK ROAD","BELLMORE","NY",11710,40.6620775270001,-73.533667199,46,"2492 MERRICK ROAD, BELLMORE, NY, 11710","Match","Exact","2492 MERRICK RD, BELLMORE, NY, 11710",147637214,"R"
137047,"2492 TROJAN WAY","UPLAND","CA",91786,NA,NA,47,"2492 TROJAN WAY, UPLAND, CA, 91786","No_Match",NA,NA,NA,NA
137048,"2492 WALL AVENUE","OGDEN","UT",84401,41.220930362,-111.978855943,48,"2492 WALL AVENUE, OGDEN, UT, 84401","Match","Exact","2492 WALL AVE, OGDEN, UT, 84401",605794291,"L"
137049,"2492 WALLACE DRIVE SW","BOGUE CHITTO","MS",39629,31.416414049,-90.5099354019999,49,"2492 WALLACE DRIVE SW, BOGUE CHITTO, MS, 39629","Match","Exact","2492 WALLACE DR SW, BOGUE CHITTO, MS, 39629",612490995,"L"
137050,"24920 DERBY DR","SORRENTO","FL",32776,28.8538907060001,-81.5368480929999,50,"24920 DERBY DR, SORRENTO, FL, 32776","Match","Exact","24920 DERBY DR, SORRENTO, FL, 32776",94151989,"R"
137051,"24920 ZUBE ROAD","HOCKLEY","TX",77447,30.022953934,-95.8138520809999,51,"24920 ZUBE ROAD, HOCKLEY, TX, 77447","Match","Exact","24920 ZUBE RD, HOCKLEY, TX, 77447",96170602,"L"
137052,"24922 MUIRLANDS BLVD APT 104","LAKE FOREST","CA",92630,33.619124012,-117.69443877,52,"24922 MUIRLANDS BLVD APT 104, LAKE FOREST, CA, 92630","Match","Exact","24922 MUIRLANDS BLVD, LAKE FOREST, CA, 92630",651735695,"R"
137053,"24923 W DOVE MESA DR","BUCKEYE","AZ",85326,33.3988429130001,-112.587284433,53,"24923 W DOVE MESA DR, BUCKEYE, AZ, 85326","Match","Exact","24923 W DOVE MESA DR, BUCKEYE, AZ, 85326",243946747,"R"
137054,"24926 FLORINA RANCH DR","KATY","TX",77494,29.742202123,-95.794605944,54,"24926 FLORINA RANCH DR, KATY, TX, 77494","Match","Exact","24926 FLORINA RANCH DR, KATY, TX, 77494",629580424,"L"
137055,"24926 LAKECREST GLEN DR","KATY","TX",77493,29.8074493290001,-95.802942052,55,"24926 LAKECREST GLEN DR, KATY, TX, 77493","Match","Exact","24926 LAKECREST GLEN DR, KATY, TX, 77493",646715380,"R"
137056,"24928 CRESCENT VIEW RD","PAYNESVILLE","MN",56362,45.3582132990001,-94.630166275,56,"24928 CRESCENT VIEW RD, PAYNESVILLE, MN, 56362","Match","Exact","24928 CRESCENT VIEW RD, PAYNESVILLE, MN, 56362",107437725,"R"
137057,"24928 QUIMBY OAKS PLACE","ALDIE","VA",20105,38.9282776570001,-77.579655444,57,"24928 QUIMBY OAKS PLACE, ALDIE, VA, 20105","Match","Exact","24928 QUIMBY OAKS PL, ALDIE, VA, 20105",641128581,"R"
137058,"24929 E HWY 4/PO BOX 36","FARMINGTON","CA",95230,NA,NA,58,"24929 E HWY 4/PO BOX 36, FARMINGTON, CA, 95230","No_Match",NA,NA,NA,NA
137059,"24929 KATY RANCH","KATY","TX",77494,NA,NA,59,"24929 KATY RANCH, KATY, TX, 77494","Tie",NA,NA,NA,NA
137060,"2493 4TH AVE WEST  SUITE G","DICKINSON","ND",58601,46.9085459230001,-102.791238754,60,"2493 4TH AVE WEST  SUITE G, DICKINSON, ND, 58601","Match","Exact","2493 4TH AVE W, DICKINSON, ND, 58601",199303211,"R"
137061,"2493 COOSA COUNTY RD 119","ALEXANDER CITY","AL",35010,NA,NA,61,"2493 COOSA COUNTY RD 119, ALEXANDER CITY, AL, 35010","No_Match",NA,NA,NA,NA
137062,"2493 FAIRWAY DR","DYERSBURG","TN",38024,36.061969043,-89.4088461549999,62,"2493 FAIRWAY DR, DYERSBURG, TN, 38024","Match","Exact","2493 FAIRWAY DR, DYERSBURG, TN, 38024",618485816,"L"
137063,"2493 FERGUSON AVE","BOZEMAN","MT",59718,45.70467288,-111.093067052,63,"2493 FERGUSON AVE, BOZEMAN, MT, 59718","Match","Exact","2493 FERGUSON AVE, BOZEMAN, MT, 59718",615576279,"L"
137064,"2493 FOX TROT TERRACE","RESTON","VA",20191,38.933806544,-77.377679552,64,"2493 FOX TROT TERRACE, RESTON, VA, 20191","Match","Exact","2493 FOX TROT TER, RESTON, VA, 20191",76038028,"L"
137065,"2493 HULL AVENUE","NORTH BELLMORE","NY",11710,40.6845266920001,-73.537440956,65,"2493 HULL AVENUE, NORTH BELLMORE, NY, 11710","Match","Exact","2493 HULL AVE, N BELLMORE, NY, 11710",147684400,"L"
137066,"2493 SEDONA  CEDAR AVE","HENDERSON","NV",89052,35.9845738010001,-115.09486518,66,"2493 SEDONA  CEDAR AVE, HENDERSON, NV, 89052","Match","Exact","2493 SEDONA CEDAR AVE, HENDERSON, NV, 89052",201940629,"R"
137067,"2493 W SHAW AVE","FRESNO","CA",93711,36.8082943410001,-119.837245965,67,"2493 W SHAW AVE, FRESNO, CA, 93711","Match","Exact","2493 W SHAW AVE, FRESNO, CA, 93711",197613009,"L"
137068,"24930 AVENUE STANFORD","SANTA CLARITA","CA",91355,34.438477371,-118.573047716,68,"24930 AVENUE STANFORD, SANTA CLARITA, CA, 91355","Match","Non_Exact","24930 W AVE STANFORD, SANTA CLARITA, CA, 91355",651548885,"R"
137069,"24931 UNION ST","DEARBORN","MI",48124,42.284288603,-83.279643011,69,"24931 UNION ST, DEARBORN, MI, 48124","Match","Exact","24931 UNION ST, DEARBORN, MI, 48124",95435917,"L"
137070,"24934 OCONEE CR","TOMBALLS","TX",77375,NA,NA,70,"24934 OCONEE CR, TOMBALLS, TX, 77375","Tie",NA,NA,NA,NA
137071,"24937 11TH AVE SOUTH","DES MOINES","WA",98198,47.3778653570001,-122.319954871,71,"24937 11TH AVE SOUTH, DES MOINES, WA, 98198","Match","Exact","24937 11TH AVE S, DES MOINES, WA, 98198",186720049,"L"
137072,"24937 S SOSSAMAN RD","QUEEN CREEK","AZ",85142,33.2208890360001,-111.668973341,72,"24937 S SOSSAMAN RD, QUEEN CREEK, AZ, 85142","Match","Exact","24937 S SOSSAMAN RD, QUEEN CREEK, AZ, 85142",647429055,"R"
137073,"24938 CORBINGATE DR","SPRING","TX",77389,30.1284458260001,-95.516032464,73,"24938 CORBINGATE DR, SPRING, TX, 77389","Match","Non_Exact","24938 CORBIN GATE DR, SPRING, TX, 77389",624607057,"R"
137074,"2494 BENGAL BLVD","SALT LAKE CITY","UT",84121,40.612210298,-111.820447206,74,"2494 BENGAL BLVD, SALT LAKE CITY, UT, 84121","Match","Non_Exact","2494 E BENGAL BLVD, SALT LAKE CITY, UT, 84121",634195978,"R"
137075,"2494 LAFOREST","ALPENA","MI",49707,NA,NA,75,"2494 LAFOREST, ALPENA, MI, 49707","No_Match",NA,NA,NA,NA
137076,"2494 NW 56TH ST","MIAMI","FL",33142,25.8261624100001,-80.2386375299999,76,"2494 NW 56TH ST, MIAMI, FL, 33142","Match","Exact","2494 NW 56TH ST, MIAMI, FL, 33142",116002164,"L"
137077,"2494 OTTER SLIDE AVE","ST CROIX FALLS","WI",54024,45.4985493830001,-92.671509368,77,"2494 OTTER SLIDE AVE, ST CROIX FALLS, WI, 54024","Match","Exact","2494 OTTER SLIDE AVE, SAINT CROIX FALLS, WI, 54024",110837380,"L"
137078,"2494 S  SEDALIA CIRCLE","AURORA","CO",80013,39.669390503,-104.779821448,78,"2494 S  SEDALIA CIRCLE, AURORA, CO, 80013","Match","Exact","2494 S SEDALIA CIR, AURORA, CO, 80013",177358338,"L"
137079,"2494 S MAIN STREET","MONTGOMERY CENTER","VT",5471,44.841514218,-72.609478769,79,"2494 S MAIN STREET, MONTGOMERY CENTER, VT, 5471","Match","Exact","2494 S MAIN ST, MONTGOMERY CENTER, VT, 05471",136535116,"L"
137080,"2494 SAUNDERSVILLE FERRY RD","MOUNT JULIET","TN",37122,36.2882802350001,-86.544239862,80,"2494 SAUNDERSVILLE FERRY RD, MOUNT JULIET, TN, 37122","Match","Exact","2494 SAUNDERSVILLE FERRY RD, MOUNT JULIET, TN, 37122",89694317,"R"
137081,"24940 FAIRMOUNT","DEARBORN","MI",48124,42.3050739970001,-83.2800720719999,81,"24940 FAIRMOUNT, DEARBORN, MI, 48124","Match","Non_Exact","24940 FAIRMOUNT DR, DEARBORN, MI, 48124",95432746,"R"
137082,"24945 N MELISSA DRIVE","DETROIT LAKES","MN",56501,46.7553315540001,-95.882353189,82,"24945 N MELISSA DRIVE, DETROIT LAKES, MN, 56501","Match","Exact","24945 N MELISSA DR, DETROIT LAKES, MN, 56501",635590063,"L"
137083,"24946 E GEDDES CIR","AURORA","CO",80016,39.5828316660001,-104.698186452,83,"24946 E GEDDES CIR, AURORA, CO, 80016","Match","Exact","24946 E GEDDES CIR, AURORA, CO, 80016",177540735,"R"
137084,"24949 CONSTITUTION AVENUE 634","STEVENSON RANCH","CA",91381,34.3835933930001,-118.574539306,84,"24949 CONSTITUTION AVENUE 634, STEVENSON RANCH, CA, 91381","Match","Exact","24949 CONSTITUTION AVE, STEVENSON RANCH, CA, 91381",641539182,"L"
137085,"24949 KATY RANCH RD UNIT 1805","KATY","TX",77494,29.782094038,-95.793954974,85,"24949 KATY RANCH RD UNIT 1805, KATY, TX, 77494","Match","Exact","24949 KATY RANCH RD, KATY, TX, 77494",649182600,"R"
137086,"24949 KATY RANCH ROAD APT 201","KATY","TX",77494,29.782094038,-95.793954974,86,"24949 KATY RANCH ROAD APT 201, KATY, TX, 77494","Match","Exact","24949 KATY RANCH RD, KATY, TX, 77494",649182600,"R"
137087,"24949 NATIONAL TRAILS HIGHWAY","HELENDALE","CA",92342,34.7056032140001,-117.336018122,87,"24949 NATIONAL TRAILS HIGHWAY, HELENDALE, CA, 92342","Match","Exact","24949 NATIONAL TRAILS HWY, HELENDALE, CA, 92342",144564849,"R"
137088,"2495 178TH LANE","CARLISLE","IA",50047,41.4682691620001,-93.467077202,88,"2495 178TH LANE, CARLISLE, IA, 50047","Match","Non_Exact","2495 178TH AVE, CARLISLE, IA, 50047",83762045,"R"
137089,"2495 190TH STREET","GRANADA","MN",56039,43.760227226,-94.369450283,89,"2495 190TH STREET, GRANADA, MN, 56039","Match","Exact","2495 190TH ST, GRANADA, MN, 56039",9973854,"R"
137090,"2495 CHESTNUT LANE","EASTON","PA",18040,40.7248729610001,-75.237807699,90,"2495 CHESTNUT LANE, EASTON, PA, 18040","Match","Exact","2495 CHESTNUT LN, EASTON, PA, 18040",136907715,"R"
137091,"2495 DURHAM DAYTON HWY","DURHAM","CA",95938,39.645785802,-121.806844334,91,"2495 DURHAM DAYTON HWY, DURHAM, CA, 95938","Match","Exact","2495 DURHAM DAYTON HWY, DURHAM, CA, 95938",68415771,"L"
137092,"2495 E ORANGETHORPE AVE","FULLERTON","CA",92831,NA,NA,92,"2495 E ORANGETHORPE AVE, FULLERTON, CA, 92831","No_Match",NA,NA,NA,NA
137093,"2495 HILYARD STREET STE A","EUGENE","OR",97405,44.032205108,-123.081598734,93,"2495 HILYARD STREET STE A, EUGENE, OR, 97405","Match","Exact","2495 HILYARD ST, EUGENE, OR, 97405",605393307,"L"
137094,"2495 LEE ROAD","CLEVELAND HEIGHTS","OH",44118,41.491141085,-81.565096389,94,"2495 LEE ROAD, CLEVELAND HEIGHTS, OH, 44118","Match","Exact","2495 LEE RD, CLEVELAND HEIGHTS, OH, 44118",61123581,"L"
137095,"2495 MAIN ST","LAKE PLACID","NY",12946,44.288181546,-73.9852630189999,95,"2495 MAIN ST, LAKE PLACID, NY, 12946","Match","Exact","2495 MAIN ST, LAKE PLACID, NY, 12946",624257304,"R"
137096,"2495 MAIN STREET SUITE 210","BUFFALO","NY",14214,42.936339021,-78.842208566,96,"2495 MAIN STREET SUITE 210, BUFFALO, NY, 14214","Match","Exact","2495 MAIN ST, BUFFALO, NY, 14214",48295996,"R"
137097,"2495 MAIN STREET SUITE 348","BUFFALO","NY",14214,42.936339021,-78.842208566,97,"2495 MAIN STREET SUITE 348, BUFFALO, NY, 14214","Match","Exact","2495 MAIN ST, BUFFALO, NY, 14214",48295996,"R"
137098,"2495 MAIN STREET SUITE 437","BUFFALO","NY",14214,42.936339021,-78.842208566,98,"2495 MAIN STREET SUITE 437, BUFFALO, NY, 14214","Match","Exact","2495 MAIN ST, BUFFALO, NY, 14214",48295996,"R"
137099,"2495 N DUPONT PKWY","MIDDLETOWN","DE",19709,39.4918079240001,-75.6501318919999,99,"2495 N DUPONT PKWY, MIDDLETOWN, DE, 19709","Match","Non_Exact","2495 S DUPONT PKWY, MIDDLETOWN, DE, 19709",187297059,"R"
137100,"2495 OCTAVIA LN","MARIETTA","GA",30062,33.9801851130001,-84.4791619599999,100,"2495 OCTAVIA LN, MARIETTA, GA, 30062","Match","Exact","2495 OCTAVIA LN, MARIETTA, GA, 30062",17208317,"R"
137101,"2495 RAY ROAD","SPRING LAKE","NC",28390,35.2432112970001,-78.968123707,101,"2495 RAY ROAD, SPRING LAKE, NC, 28390","Match","Exact","2495 RAY RD, SPRING LAKE, NC, 28390",71995130,"L"
137102,"2495 RICKY ROAD","MELBOURNE","FL",32935,28.1254075000001,-80.6619226289999,102,"2495 RICKY ROAD, MELBOURNE, FL, 32935","Match","Exact","2495 RICKY RD, MELBOURNE, FL, 32935",93902233,"L"
137103,"2495 ROSENDALE ROAD","NISKAYUNA","NY",12309,42.7965606390001,-73.8643093169999,103,"2495 ROSENDALE ROAD, NISKAYUNA, NY, 12309","Match","Exact","2495 ROSENDALE RD, NISKAYUNA, NY, 12309",623976261,"L"
137104,"2495 S GRAHAM ST","MILWAUKEE","WI",53207,42.998895105,-87.903631488,104,"2495 S GRAHAM ST, MILWAUKEE, WI, 53207","Match","Exact","2495 S GRAHAM ST, MILWAUKEE, WI, 53207",77753405,"R"
137105,"2495 SERENITY HOLLOW DRIVE","HENDERSON","NV",89052,35.9876096520001,-115.096635355,105,"2495 SERENITY HOLLOW DRIVE, HENDERSON, NV, 89052","Match","Exact","2495 SERENITY HOLLOW DR, HENDERSON, NV, 89052",201927295,"L"
137106,"2495 SIEBOLDT QUARRY ROAD","BEDFORD","IN",47421,38.969300268,-86.558661117,106,"2495 SIEBOLDT QUARRY ROAD, BEDFORD, IN, 47421","Match","Exact","2495 SIEBOLDT QUARRY RD, BEDFORD, IN, 47421",641441806,"L"
137107,"2495 SOUTH CLAYTON STREET","DENVER","CO",80210,39.6714105340001,-104.955117598,107,"2495 SOUTH CLAYTON STREET, DENVER, CO, 80210","Match","Exact","2495 S CLAYTON ST, DENVER, CO, 80210",177340574,"R"
137108,"2495 SOUTH MASON RD APT 436","KATY","TX",77450,29.745143243,-95.7512742769999,108,"2495 SOUTH MASON RD APT 436, KATY, TX, 77450","Match","Exact","2495 S MASON RD, KATY, TX, 77450",227756228,"L"
137109,"2495 TWIGWOOD LANE","CINCINNATI","OH",45237,39.205146993,-84.440363023,109,"2495 TWIGWOOD LANE, CINCINNATI, OH, 45237","Match","Exact","2495 TWIGWOOD LN, CINCINNATI, OH, 45237",103949139,"R"
137110,"2495 VERN DRIVE","FALLBROOK","CA",92028,33.3529878730001,-117.16971652,110,"2495 VERN DRIVE, FALLBROOK, CA, 92028","Match","Exact","2495 VERN DR, FALLBROOK, CA, 92028",195440212,"R"
137111,"2495 WEBER HEIGHTS WAY","BUFORD","GA",30519,34.0972153170001,-83.884317846,111,"2495 WEBER HEIGHTS WAY, BUFORD, GA, 30519","Match","Exact","2495 WEBER HEIGHTS WAY, BUFORD, GA, 30519",627611300,"R"
137112,"2495 WILLOW BEND TRAIL","SAINT CHARLES","IA",50240,41.2950948480001,-93.818481048,112,"2495 WILLOW BEND TRAIL, SAINT CHARLES, IA, 50240","Match","Exact","2495 WILLOW BEND TRL, SAINT CHARLES, IA, 50240",75206504,"R"
137113,"24950 ROCKSIDE RD APT 143","BEDFORD HEIGHTS","OH",44146,41.409485008,-81.502993084,113,"24950 ROCKSIDE RD APT 143, BEDFORD HEIGHTS, OH, 44146","Match","Exact","24950 ROCKSIDE RD, BEDFORD HEIGHTS, OH, 44146",649550622,"R"
137114,"24950 S 195TH ST","QUEEN CREEK","AZ",85142,33.221790422,-111.662629288,114,"24950 S 195TH ST, QUEEN CREEK, AZ, 85142","Match","Exact","24950 S 195TH ST, QUEEN CREEK, AZ, 85142",617921607,"L"
137115,"24951 N LAKELAND BLVD","EUCLID","OH",44132,41.597876865,-81.509641785,115,"24951 N LAKELAND BLVD, EUCLID, OH, 44132","Match","Exact","24951 N LAKELAND BLVD, EUCLID, OH, 44132",638262819,"L"
137116,"24952 MUIR STREET","HAYWARD","CA",94544,37.656472911,-122.080024699,116,"24952 MUIR STREET, HAYWARD, CA, 94544","Match","Exact","24952 MUIR ST, HAYWARD, CA, 94544",617287772,"L"
137117,"24953 SOUTHERN HERITAGE LN","ATHENS","AL",35613,34.735484795,-86.8785202619999,117,"24953 SOUTHERN HERITAGE LN, ATHENS, AL, 35613","Match","Exact","24953 SOUTHERN HERITAGE LN, ATHENS, AL, 35613",95265350,"R"
137118,"24954 HUNT DRIVE","MACOMB","MI",48042,42.652800681,-82.86314767,118,"24954 HUNT DRIVE, MACOMB, MI, 48042","Match","Exact","24954 HUNT DR, MACOMB, MI, 48042",110663809,"L"
137119,"2496 FOX DRIVE","AURORA","IL",60506,41.7721818420001,-88.3798269759999,119,"2496 FOX DRIVE, AURORA, IL, 60506","Match","Exact","2496 FOX DR, AURORA, IL, 60506",119540110,"L"
137120,"2496 MAIN ST","MILLBROOK","AL",36054,32.466356547,-86.3604431319999,120,"2496 MAIN ST, MILLBROOK, AL, 36054","Match","Exact","2496 MAIN ST, MILLBROOK, AL, 36054",1364545,"L"
137121,"2496 MAMMOTH WAY","ANTIOCH","CA",94531,37.9547097710001,-121.782454592,121,"2496 MAMMOTH WAY, ANTIOCH, CA, 94531","Match","Exact","2496 MAMMOTH WAY, ANTIOCH, CA, 94531",192114366,"L"
137122,"2496 W 2ND AVE UNIT 3","DENVER","CO",80223,39.720252499,-105.017528926,122,"2496 W 2ND AVE UNIT 3, DENVER, CO, 80223","Match","Non_Exact","2496 W 2ND AVE, DENVER, CO, 80223",652265400,"L"
137123,"24962 CTY HWY 22","DETROIT LAKES","MN",56501,46.761046477,-95.8799559139999,123,"24962 CTY HWY 22, DETROIT LAKES, MN, 56501","Match","Non_Exact","24962 CO RD 22, DETROIT LAKES, MN, 56501",167962409,"L"
137124,"24962 NELLIE GAIL ROAD","LAGUNA HILLS","CA",92653,33.570331287,-117.693918081,124,"24962 NELLIE GAIL ROAD, LAGUNA HILLS, CA, 92653","Match","Exact","24962 NELLIE GAIL RD, LAGUNA HILLS, CA, 92653",144417631,"L"
137125,"24965 NW PEDERSON RD","HILLSBORO","OR",97124,45.645437072,-122.935475599,125,"24965 NW PEDERSON RD, HILLSBORO, OR, 97124","Match","Exact","24965 NW PEDERSON RD, HILLSBORO, OR, 97124",158193686,"R"
137126,"24967 DEHOFF DR","TONGANOXIE","KS",66086,39.0694463610001,-95.1598995579999,126,"24967 DEHOFF DR, TONGANOXIE, KS, 66086","Match","Exact","24967 DEHOFF DR, TONGANOXIE, KS, 66086",619281731,"L"
137127,"2497 COPPER LANE","GREEN BAY","WI",54311,44.4372458760001,-87.956269501,127,"2497 COPPER LANE, GREEN BAY, WI, 54311","Match","Exact","2497 COPPER LN, GREEN BAY, WI, 54311",148117473,"L"
137128,"2497 COTTONWOOD TRAIL","CHINO HILLS","CA",91709,34.018185166,-117.750838548,128,"2497 COTTONWOOD TRAIL, CHINO HILLS, CA, 91709","Match","Exact","2497 COTTONWOOD TRL, CHINO HILLS, CA, 91709",144670312,"L"
137129,"2497 CREVE COEUR MILL ROAD","MARYLAND HEIGHTS","MO",63043,38.7398026560001,-90.4549993589999,129,"2497 CREVE COEUR MILL ROAD, MARYLAND HEIGHTS, MO, 63043","Match","Exact","2497 CREVE COEUR MILL RD, MARYLAND HEIGHTS, MO, 63043",100185892,"L"
137130,"2497 PRAIRIE VIEW DRIVE","WINTER GARDEN","FL",34787,28.5062903300001,-81.590155055,130,"2497 PRAIRIE VIEW DRIVE, WINTER GARDEN, FL, 34787","Match","Exact","2497 PRAIRIE VIEW DR, WINTER GARDEN, FL, 34787",94417835,"L"
137131,"2497 WOODBRIDGE ST","ROSEVILLE","MN",55113,45.015843594,-93.107993021,131,"2497 WOODBRIDGE ST, ROSEVILLE, MN, 55113","Match","Exact","2497 WOODBRIDGE ST, ROSEVILLE, MN, 55113",97643199,"L"
137132,"24972 WILKES PLACE","LAGUNA HILLS","CA",92653,33.5986689870001,-117.697110902,132,"24972 WILKES PLACE, LAGUNA HILLS, CA, 92653","Match","Exact","24972 WILKES PL, LAGUNA HILLS, CA, 92653",629881037,"L"
137133,"24975 COUNTY ROAD 6","ELKHART","IN",46514,41.724325412,-85.946359966,133,"24975 COUNTY ROAD 6, ELKHART, IN, 46514","Match","Exact","24975 CO RD 6, ELKHART, IN, 46514",7750878,"L"
137134,"24977 GLENDA STREET","NOVI","MI",48375,42.4723228570001,-83.4923145829999,134,"24977 GLENDA STREET, NOVI, MI, 48375","Match","Exact","24977 GLENDA ST, NOVI, MI, 48375",630175617,"L"
137135,"24979 CONSTITUTION AVE 1226","STEVENSON RANCH","CA",91381,34.383737293,-118.574157448,135,"24979 CONSTITUTION AVE 1226, STEVENSON RANCH, CA, 91381","Match","Exact","24979 CONSTITUTION AVE, STEVENSON RANCH, CA, 91381",641539182,"L"
137136,"2498 65TH STREET","BROOKLYN","NY",11204,40.6096489510001,-73.974497301,136,"2498 65TH STREET, BROOKLYN, NY, 11204","Match","Exact","2498 65TH ST, BROOKLYN, NY, 11204",59089509,"R"
137137,"2498 GREENWELL CT","WILMINGTON","NC",28409,34.1957667550001,-77.87559953,137,"2498 GREENWELL CT, WILMINGTON, NC, 28409","Match","Exact","2498 GREENWELL CT, WILMINGTON, NC, 28409",152751608,"L"
137138,"2498 HARVEL DRIVE NW","ATLANTA","GA",30318,33.759431014,-84.468847005,138,"2498 HARVEL DRIVE NW, ATLANTA, GA, 30318","Match","Exact","2498 HARVEL DR NW, ATLANTA, GA, 30318",17339748,"L"
137139,"2498 MARION AVE","GREENFIELD","IA",50849,41.2898687540001,-94.470505195,139,"2498 MARION AVE, GREENFIELD, IA, 50849","Match","Exact","2498 MARION AVE, GREENFIELD, IA, 50849",61673841,"R"
137140,"2498 MEADOW PARK CIRCLE APT 324","BEDFORD","TX",76021,32.8480255650001,-97.1303551669999,140,"2498 MEADOW PARK CIRCLE APT 324, BEDFORD, TX, 76021","Match","Exact","2498 MEADOW PARK CIR, BEDFORD, TX, 76021",650124394,"L"
137141,"2498 S CANAL","EATON RAPIDS","MI",48827,42.5317698760001,-84.6555258339999,141,"2498 S CANAL, EATON RAPIDS, MI, 48827","Match","Non_Exact","2498 S CANAL RD, EATON RAPIDS, MI, 48827",12036355,"R"
137142,"2498 S HWY 97 SUITE F37","REDMOND","OR",97756,44.2988152510001,-121.173839098,142,"2498 S HWY 97 SUITE F37, REDMOND, OR, 97756","Match","Non_Exact","2498 N HWY 97, REDMOND, OR, 97756",639946699,"R"
137143,"2498 TANGLEWOOD RD","DECATUR","GA",30033,33.816311354,-84.29064084,143,"2498 TANGLEWOOD RD, DECATUR, GA, 30033","Match","Exact","2498 TANGLEWOOD RD, DECATUR, GA, 30033",23360403,"L"
137144,"2498 WHITTEN ROAD","BARTLETT","TN",38133,35.1928518880001,-89.836296002,144,"2498 WHITTEN ROAD, BARTLETT, TN, 38133","Match","Exact","2498 WHITTEN RD, BARTLETT, TN, 38133",72925912,"R"
137145,"24980 ARIELLA DRIVE","CALABASAS","CA",91302,34.140146347,-118.667483337,145,"24980 ARIELLA DRIVE, CALABASAS, CA, 91302","Match","Exact","24980 ARIELLA DR, CALABASAS, CA, 91302",141798301,"R"
137146,"24981 DORIS CT","REDFORD","MI",48239,42.366917089,-83.284941686,146,"24981 DORIS CT, REDFORD, MI, 48239","Match","Exact","24981 DORIS CT, REDFORD, MI, 48239",95502999,"L"
137147,"24984 BECK AVE","EASTPOINTE","MI",48021,42.479240071,-82.919111172,147,"24984 BECK AVE, EASTPOINTE, MI, 48021","Match","Exact","24984 BECK AVE, EASTPOINTE, MI, 48021",110699830,"R"
137148,"24987 LEGHORN DR","SIREN","WI",54872,45.823164578,-92.334266902,148,"24987 LEGHORN DR, SIREN, WI, 54872","Match","Exact","24987 LEGHORN DR, SIREN, WI, 54872",632013584,"L"
137149,"2499 BUCK HILL RD","GERRARDSTOWN","WV",25420,39.418130574,-78.108759546,149,"2499 BUCK HILL RD, GERRARDSTOWN, WV, 25420","Match","Exact","2499 BUCK HILL RD, GERRARDSTOWN, WV, 25420",607688174,"L"
137150,"2499 CARTER HILL RD","MONTGOMERY","AL",36106,NA,NA,150,"2499 CARTER HILL RD, MONTGOMERY, AL, 36106","No_Match",NA,NA,NA,NA
137151,"2499 CORNER SHOALS DR","DECATUR","GA",30034,33.7063660380001,-84.28751134,151,"2499 CORNER SHOALS DR, DECATUR, GA, 30034","Match","Exact","2499 CORNER SHOALS DR, DECATUR, GA, 30034",23382014,"L"
137152,"2499 GLADES ROAD STE 304","BOCA RATON","FL",33431,NA,NA,152,"2499 GLADES ROAD STE 304, BOCA RATON, FL, 33431","No_Match",NA,NA,NA,NA
137153,"2499 GLADES ROAD SUITE 114","BOCA RATON","FL",33431,NA,NA,153,"2499 GLADES ROAD SUITE 114, BOCA RATON, FL, 33431","No_Match",NA,NA,NA,NA
137154,"2499 HAPPY VALLEY DRIVE","MEDFORD","OR",97501,42.294676489,-122.886102323,154,"2499 HAPPY VALLEY DRIVE, MEDFORD, OR, 97501","Match","Exact","2499 HAPPY VALLEY DR, MEDFORD, OR, 97501",652254453,"L"
137155,"2499 HILTON DRIVE STE 3","GAINESVILLE","GA",30507,34.2763338350001,-83.843307711,155,"2499 HILTON DRIVE STE 3, GAINESVILLE, GA, 30507","Match","Non_Exact","2499 HILTON DR, GAINESVILLE, GA, 30501",98279352,"L"
137156,"2499 HWY 6  AND 50","GRAND JUNCTION","CO",81505,NA,NA,156,"2499 HWY 6  AND 50, GRAND JUNCTION, CO, 81505","No_Match",NA,NA,NA,NA
137157,"2499 HYACINTH CT","WESTBURY","NY",11590,40.7547350180001,-73.5568031559999,157,"2499 HYACINTH CT, WESTBURY, NY, 11590","Match","Exact","2499 HYACINTH CT, WESTBURY, NY, 11590",147632083,"R"
137158,"2499 KAPIOLANI BOULEVARD 2309","HONOLULU","HI",96826,21.287541451,-157.823874118,158,"2499 KAPIOLANI BOULEVARD 2309, HONOLULU, HI, 96826","Match","Exact","2499 KAPIOLANI BLVD, HONOLULU, HI, 96826",203241829,"R"
137159,"2499 OLD LAKE MARY RD SUITE 104","SANFORD","FL",32771,NA,NA,159,"2499 OLD LAKE MARY RD SUITE 104, SANFORD, FL, 32771","No_Match",NA,NA,NA,NA
137160,"2499 PINE LAKE PL","TUCKER","GA",30084,33.8588840900001,-84.209717654,160,"2499 PINE LAKE PL, TUCKER, GA, 30084","Match","Exact","2499 PINE LAKE PL, TUCKER, GA, 30084",23363632,"R"
137161,"2499 QUAIL RUN BLVD N","KISSIMMEE","FL",34744,28.319381418,-81.374663448,161,"2499 QUAIL RUN BLVD N, KISSIMMEE, FL, 34744","Match","Exact","2499 QUAIL RUN BLVD N, KISSIMMEE, FL, 34744",176679102,"L"
137162,"2499 SE AMHERST STREET","STUART","FL",34997,27.167932523,-80.219370378,162,"2499 SE AMHERST STREET, STUART, FL, 34997","Match","Exact","2499 SE AMHERST ST, STUART, FL, 34997",120449792,"L"
137163,"24990 SAMOSET TRAIL","SOUTHFIELD","MI",48033,42.4711303670001,-83.303394149,163,"24990 SAMOSET TRAIL, SOUTHFIELD, MI, 48033","Match","Exact","24990 SAMOSET TRL, SOUTHFIELD, MI, 48033",69784547,"R"
137164,"24992 LAS MARIAS LN","MISSION VIEJO","CA",92691,33.600347937,-117.664372535,164,"24992 LAS MARIAS LN, MISSION VIEJO, CA, 92691","Match","Exact","24992 LAS MARIAS LN, MISSION VIEJO, CA, 92691",144065559,"L"
137165,"24997 WOLCOTT RD","LEAVENWORTH","KS",66048,39.227112376,-94.863010477,165,"24997 WOLCOTT RD, LEAVENWORTH, KS, 66048","Match","Exact","24997 WOLCOTT RD, LEAVENWORTH, KS, 66048",91410375,"R"
137166,"24998 389TH AVE","MOUNT VERNON","SD",57363,NA,NA,166,"24998 389TH AVE, MOUNT VERNON, SD, 57363","No_Match",NA,NA,NA,NA
137167,"2499HIGHWAY 61S  NO137","PORT GIBSON","MS",39150,NA,NA,167,"2499HIGHWAY 61S  NO137, PORT GIBSON, MS, 39150","No_Match",NA,NA,NA,NA
137168,"249J THIRD ST","AYDEN","NC",28513,35.4733052620001,-77.428107118,168,"249J THIRD ST, AYDEN, NC, 28513","Match","Exact","249 3RD ST, AYDEN, NC, 28513",80001508,"R"
137169,"24A ISBESTOR ST","ALBANY","NY",12205,42.6962545870001,-73.802000075,169,"24A ISBESTOR ST, ALBANY, NY, 12205","Match","Exact","24 ISBESTOR ST, ALBANY, NY, 12205",18307973,"R"
137170,"24TH STREET AND 10TH AVENUE","BEAVER FALLS","PA",15010,NA,NA,170,"24TH STREET AND 10TH AVENUE, BEAVER FALLS, PA, 15010","No_Match",NA,NA,NA,NA
137171,"24W538 OHIO ST","NAPERVILLE","IL",60540,41.789842424,-88.103977261,171,"24W538 OHIO ST, NAPERVILLE, IL, 60540","Match","Exact","24W538 OHIO ST, NAPERVILLE, IL, 60540",112675034,"R"
137172,"25  NADWORTHY LANE","STONY BROOK","NY",11790,NA,NA,172,"25  NADWORTHY LANE, STONY BROOK, NY, 11790","No_Match",NA,NA,NA,NA
137173,"25 - 53RD STREET NE","WASHINGTON","DC",20019,NA,NA,173,"25 - 53RD STREET NE, WASHINGTON, DC, 20019","No_Match",NA,NA,NA,NA
137174,"25 169TH STREET","HAMMOND","IN",46324,41.588346459,-87.524855701,174,"25 169TH STREET, HAMMOND, IN, 46324","Match","Exact","25 169TH ST, HAMMOND, IN, 46324",98417297,"L"
137175,"25 19TH AVE SE","MINOT","ND",58701,48.212867562,-101.292890922,175,"25 19TH AVE SE, MINOT, ND, 58701","Match","Exact","25 19TH AVE SE, MINOT, ND, 58701",200490278,"L"
137176,"25 1ST AVENUE NE       SUITE 105","HICKORY","NC",28601,NA,NA,176,"25 1ST AVENUE NE       SUITE 105, HICKORY, NC, 28601","No_Match",NA,NA,NA,NA
137177,"25 3RD AVE SW","WATERTOWN","SD",57201,44.8971310430001,-97.116349887,177,"25 3RD AVE SW, WATERTOWN, SD, 57201","Match","Exact","25 3RD AVE SW, WATERTOWN, SD, 57201",200730048,"R"
137178,"25 3RD AVE","CHERRY CREEK","SD",57622,NA,NA,178,"25 3RD AVE, CHERRY CREEK, SD, 57622","No_Match",NA,NA,NA,NA
137179,"25 A 7TH AVENUE","KEY WEST","FL",33040,24.568061964,-81.7436793589999,179,"25 A 7TH AVENUE, KEY WEST, FL, 33040","Match","Exact","25 7TH AVE, KEY WEST, FL, 33040",116476569,"L"
137180,"25 ABBEY LANE","CARTERSVILLE","GA",30120,34.225982206,-84.864029522,180,"25 ABBEY LANE, CARTERSVILLE, GA, 30120","Match","Exact","25 ABBEY LN, CARTERSVILLE, GA, 30120",30469894,"L"
137181,"25 ADIN STREET","HOPEDALE","MA",1747,42.1297879890001,-71.536476294,181,"25 ADIN STREET, HOPEDALE, MA, 1747","Match","Exact","25 ADIN ST, HOPEDALE, MA, 01747",649725366,"R"
137182,"25 AL HANNAH CIRCLE","PIKESVILLE","MD",21208,39.367105387,-76.758020486,182,"25 AL HANNAH CIRCLE, PIKESVILLE, MD, 21208","Match","Exact","25 AL HANNAH CIR, PIKESVILLE, MD, 21208",632499913,"R"
137183,"25 ALUMNI DRIVE","DOVER","NH",3820,43.1765728190001,-70.888212908,183,"25 ALUMNI DRIVE, DOVER, NH, 3820","Match","Exact","25 ALUMNI DR, DOVER, NH, 03820",117823605,"R"
137184,"25 AMBROSE STREET 2ND FLOOR","ROXBURY","MA",2118,NA,NA,184,"25 AMBROSE STREET 2ND FLOOR, ROXBURY, MA, 2118","No_Match",NA,NA,NA,NA
137185,"25 ANDREWS DRIVE","WOODLAND PARK","NJ",7424,40.8870747240001,-74.21062936,185,"25 ANDREWS DRIVE, WOODLAND PARK, NJ, 7424","Match","Exact","25 ANDREWS DR, WOODLAND PARK, NJ, 07424",639001429,"R"
137186,"25 ANGWEN AVE","MANCHESTER","TN",37355,35.4878909180001,-86.116142899,186,"25 ANGWEN AVE, MANCHESTER, TN, 37355","Match","Exact","25 ANGWEN AVE, MANCHESTER, TN, 37355",58227134,"L"
137187,"25 ANITA STREET","GREENUP","KY",41144,38.632460285,-82.8681560369999,187,"25 ANITA STREET, GREENUP, KY, 41144","Match","Exact","25 ANITA ST, GREENUP, KY, 41144",151394323,"L"
137188,"25 ANTILLES COVE","MIRAMAR BEACH","FL",32550,30.383687223,-86.351967096,188,"25 ANTILLES COVE, MIRAMAR BEACH, FL, 32550","Match","Exact","25 ANTILLES COVE, MIRAMAR BEACH, FL, 32550",32992736,"L"
137189,"25 APPLEDALE LANE","CHESTNUT RIDGE","NY",10977,41.0691767610001,-74.041491841,189,"25 APPLEDALE LANE, CHESTNUT RIDGE, NY, 10977","Match","Exact","25 APPLEDALE LN, CHESTNUT RIDGE, NY, 10977",124604841,"R"
137190,"25 APPLEMINT LN","BEAUFORT","SC",29906,32.4310302280001,-80.744697018,190,"25 APPLEMINT LN, BEAUFORT, SC, 29906","Match","Exact","25 APPLEMINT LN, BEAUFORT, SC, 29906",624713624,"L"
137191,"25 APPLERIDGE DRIVE","BIDDEFORD","ME",4005,43.503700746,-70.542169692,191,"25 APPLERIDGE DRIVE, BIDDEFORD, ME, 4005","Match","Exact","25 APPLERIDGE DR, BIDDEFORD, ME, 04005",642090528,"R"
137192,"25 APRICOT STREET","STAFFORD","VA",22554,NA,NA,192,"25 APRICOT STREET, STAFFORD, VA, 22554","No_Match",NA,NA,NA,NA
137193,"25 AREQUA RIDGE DRIVE","COLORADO SPRINGS","CO",80919,38.9266099490001,-104.826592143,193,"25 AREQUA RIDGE DRIVE, COLORADO SPRINGS, CO, 80919","Match","Exact","25 AREQUA RIDGE DR, COLORADO SPRINGS, CO, 80919",610699139,"R"
137194,"25 ARLINGTON STREET","SOMERVILLE","MA",2145,42.3860957730001,-71.0824793959999,194,"25 ARLINGTON STREET, SOMERVILLE, MA, 2145","Match","Exact","25 ARLINGTON ST, SOMERVILLE, MA, 02145",86870522,"R"
137195,"25 ARROWHEAD LN","CLARKSVILLE","AR",72830,35.475106198,-93.4982687729999,195,"25 ARROWHEAD LN, CLARKSVILLE, AR, 72830","Match","Exact","25 ARROWHEAD LN, CLARKSVILLE, AR, 72830",73547999,"R"
137196,"25 ASH LANE","STAFFORD","VA",22556,38.49705419,-77.540873139,196,"25 ASH LANE, STAFFORD, VA, 22556","Match","Exact","25 ASH LN, STAFFORD, VA, 22556",25560991,"L"
137197,"25 AT THE FALLS","BUSHKILL","PA",18324,41.1209533250001,-74.997988546,197,"25 AT THE FALLS, BUSHKILL, PA, 18324","Match","Non_Exact","25 FALLS RD, BUSHKILL, PA, 18324",191419277,"R"
137198,"25 BARTER RD","ROCKLAND","ME",4841,44.1325322770001,-69.107179308,198,"25 BARTER RD, ROCKLAND, ME, 4841","Match","Exact","25 BARTER RD, ROCKLAND, ME, 04841",75562763,"L"
137199,"25 BATES ROAD","SWAMPSCOTT","MA",1907,42.4677796460001,-70.898454219,199,"25 BATES ROAD, SWAMPSCOTT, MA, 1907","Match","Exact","25 BATES RD, SWAMPSCOTT, MA, 01907",86647797,"R"
137200,"25 BEACON AVE","PITTSFIELD","MA",1201,42.4855520570001,-73.2541106589999,200,"25 BEACON AVE, PITTSFIELD, MA, 1201","Match","Exact","25 BEACON AVE, PITTSFIELD, MA, 01201",3920377,"L"
137201,"25 BEDFORD AVE","MASSAPEQUA","NY",11758,40.6889678140001,-73.479621096,201,"25 BEDFORD AVE, MASSAPEQUA, NY, 11758","Match","Exact","25 BEDFORD AVE, MASSAPEQUA, NY, 11758",147648550,"L"
137202,"25 BEECHWOOD LN","ELIZABETHTOWN","PA",17022,40.158802736,-76.59092082,202,"25 BEECHWOOD LN, ELIZABETHTOWN, PA, 17022","Match","Exact","25 BEECHWOOD LN, ELIZABETHTOWN, PA, 17022",179653325,"L"
137203,"25 BEEKMAN ROAD","EAST BRUNSWICK","NJ",8816,40.4103099450001,-74.453543724,203,"25 BEEKMAN ROAD, EAST BRUNSWICK, NJ, 8816","Match","Exact","25 BEEKMAN RD, E BRUNSWICK, NJ, 08816",60363460,"R"
137204,"25 BELMOHR STREET","BELLEVILLE","NJ",7109,40.7996324170001,-74.158915248,204,"25 BELMOHR STREET, BELLEVILLE, NJ, 7109","Match","Exact","25 BELMOHR ST, BELLEVILLE, NJ, 07109",63455248,"L"
137205,"25 BILLINGS PLACE","BROOKLYN","NY",11223,40.60340452,-73.971904979,205,"25 BILLINGS PLACE, BROOKLYN, NY, 11223","Match","Exact","25 BILLINGS PL, BROOKLYN, NY, 11223",59089810,"L"
137206,"25 BILLMAN RD","CATAWISSA","PA",17820,40.891951684,-76.539395563,206,"25 BILLMAN RD, CATAWISSA, PA, 17820","Match","Exact","25 BILLMAN RD, CATAWISSA, PA, 17820",59200138,"L"
137207,"25 BLACK GUM DRIVE","MONMOUTH JUNCTION","NJ",8852,40.365320366,-74.575301555,207,"25 BLACK GUM DRIVE, MONMOUTH JUNCTION, NJ, 8852","Match","Exact","25 BLACK GUM DR, MONMOUTH JCT, NJ, 08852",642883995,"R"
137208,"25 BLACKS BLUFF RD SW","ROME","GA",30161,34.2364049120001,-85.187424064,208,"25 BLACKS BLUFF RD SW, ROME, GA, 30161","Match","Exact","25 BLACKS BLUFF RD SW, ROME, GA, 30161",30693661,"L"
137209,"25 BLANCHARD STREET","PALMER","MA",1069,42.146167013,-72.3043412649999,209,"25 BLANCHARD STREET, PALMER, MA, 1069","Match","Exact","25 BLANCHARD ST, PALMER, MA, 01069",4060570,"R"
137210,"25 BLUE HERON WAY","SKILLMAN","NJ",8558,40.397833388,-74.7261774,210,"25 BLUE HERON WAY, SKILLMAN, NJ, 8558","Match","Exact","25 BLUE HERON WAY, SKILLMAN, NJ, 08558",59964589,"R"
137211,"25 BLUEGRASS CIRCLE","TAUNTON","MA",2780,41.910198662,-71.184724049,211,"25 BLUEGRASS CIRCLE, TAUNTON, MA, 2780","Match","Exact","25 BLUEGRASS CIR, TAUNTON, MA, 02780",648459503,"R"
137212,"25 BOGUS HILL","NORTH AUGUSTA","SC",29860,33.6218558190001,-81.919708368,212,"25 BOGUS HILL, NORTH AUGUSTA, SC, 29860","Match","Exact","25 BOGUS HILL, NORTH AUGUSTA, SC, 29860",55844676,"L"
137213,"25 BOND STREET","BROOKLYN","NY",11201,40.688930677,-73.983378548,213,"25 BOND STREET, BROOKLYN, NY, 11201","Match","Exact","25 BOND ST, BROOKLYN, NY, 11201",59077536,"L"
137214,"25 BRENNER STREET","NEWARK","NJ",7108,40.7308549910001,-74.2031498869999,214,"25 BRENNER STREET, NEWARK, NJ, 7108","Match","Exact","25 BRENNER ST, NEWARK, NJ, 07108",63465606,"L"
137215,"25 BREVOORT PLACE FLOOR 1","BROOKLYN","NY",11216,40.680074544,-73.9544511889999,215,"25 BREVOORT PLACE FLOOR 1, BROOKLYN, NY, 11216","Match","Exact","25 BREVOORT PL, BROOKLYN, NY, 11216",59078849,"L"
137216,"25 BRIAN DRIVE","EAST ISLIP","NY",11730,40.727924639,-73.196562294,216,"25 BRIAN DRIVE, EAST ISLIP, NY, 11730","Match","Exact","25 BRIAN DR, EAST ISLIP, NY, 11730",113998495,"L"
137217,"25 BRIAR HILL DRIVE","PUTNAM VALLEY","NY",10579,41.3597446730001,-73.853703772,217,"25 BRIAR HILL DRIVE, PUTNAM VALLEY, NY, 10579","Match","Exact","25 BRIAR HILL DR, PUTNAM VALLEY, NY, 10579",139696754,"L"
137218,"25 BRIDGE ST UNIT 3","BILLERICA","MA",1821,42.5736103580001,-71.285695345,218,"25 BRIDGE ST UNIT 3, BILLERICA, MA, 1821","Match","Exact","25 BRIDGE ST, BILLERICA, MA, 01821",86896628,"R"
137219,"25 BRIGHTON AVENUE APT 1A","BELLEVILLE","NJ",7109,40.786727709,-74.18056477,219,"25 BRIGHTON AVENUE APT 1A, BELLEVILLE, NJ, 7109","Match","Exact","25 BRIGHTON AVE, BELLEVILLE, NJ, 07109",63454205,"L"
137220,"25 BROOKSIDE PLACE 1ST FLOOR","NEW ROCHELLE","NY",10801,40.9240569290001,-73.786506463,220,"25 BROOKSIDE PLACE 1ST FLOOR, NEW ROCHELLE, NY, 10801","Match","Exact","25 BROOKSIDE PL, NEW ROCHELLE, NY, 10801",139750103,"R"
137221,"25 BROOKSIDE ROAD","ORINDA","CA",94563,37.8667069790001,-122.17295923,221,"25 BROOKSIDE ROAD, ORINDA, CA, 94563","Match","Exact","25 BROOKSIDE RD, ORINDA, CA, 94563",192050752,"R"
137222,"25 BROWNS LANE","CHRISTIANA","DE",19702,39.6691325840001,-75.661291131,222,"25 BROWNS LANE, CHRISTIANA, DE, 19702","Match","Exact","25 BROWNS LN, CHRISTIANA, DE, 19702",647604756,"L"
137223,"25 BULL HILL ROAD","NEWFIELD","NY",14867,42.3301768870001,-76.601792152,223,"25 BULL HILL ROAD, NEWFIELD, NY, 14867","Match","Exact","25 BULL HILL RD, NEWFIELD, NY, 14867",18860972,"R"
137224,"25 BURR ST","EASTON","CT",6612,41.218811003,-73.306820438,224,"25 BURR ST, EASTON, CT, 6612","Match","Exact","25 BURR ST, EASTON, CT, 06612",653168358,"L"
137225,"25 C STREET","BELMONT","MA",2478,42.3888668320001,-71.185034034,225,"25 C STREET, BELMONT, MA, 2478","Match","Exact","25 C ST, BELMONT, MA, 02478",86891112,"R"
137226,"25 CALVARY CIRCLE","LONOKE","AR",72086,34.8077029240001,-92.0317203829999,226,"25 CALVARY CIRCLE, LONOKE, AR, 72086","Match","Exact","25 CALVARY CIR, LONOKE, AR, 72086",651898108,"R"
137227,"25 CAMBRIDGE PLACE APT 2","BROOKLYN","NY",11238,40.686206446,-73.9633456829999,227,"25 CAMBRIDGE PLACE APT 2, BROOKLYN, NY, 11238","Match","Exact","25 CAMBRIDGE PL, BROOKLYN, NY, 11238",59078015,"L"
137228,"25 CAMELLIA LANE","PELL CITY","AL",35128,33.578286201,-86.258744158,228,"25 CAMELLIA LANE, PELL CITY, AL, 35128","Match","Exact","25 CAMELLIA LN, PELL CITY, AL, 35128",66910127,"L"
137229,"25 CAPRICE CT","SACRAMENTO","CA",95832,38.4759921240001,-121.498162461,229,"25 CAPRICE CT, SACRAMENTO, CA, 95832","Match","Exact","25 CAPRICE CT, SACRAMENTO, CA, 95832",133379743,"L"
137230,"25 CARDIFF ST","JOHNSTOWN","PA",15906,40.386732013,-78.9227845409999,230,"25 CARDIFF ST, JOHNSTOWN, PA, 15906","Match","Exact","25 CARDIFF ST, JOHNSTOWN, PA, 15906",50227393,"L"
137231,"25 CAT FISH DR","BYHALIA","MS",38611,34.7372674690001,-89.677540187,231,"25 CAT FISH DR, BYHALIA, MS, 38611","Match","Non_Exact","25 CATFISH DR, BYHALIA, MS, 38611",72837305,"L"
137232,"25 CATHERINE STREET 6C","BRISTOL","RI",2809,41.6685201380001,-71.2688134059999,232,"25 CATHERINE STREET 6C, BRISTOL, RI, 2809","Match","Exact","25 CATHERINE ST, BRISTOL, RI, 02809",46486235,"L"
137233,"25 CATOCTIN CIR SE 2253","LEESBURG","VA",20177,39.106862979,-77.565479496,233,"25 CATOCTIN CIR SE 2253, LEESBURG, VA, 20177","Match","Non_Exact","25 CATOCTIN CIR SE, LEESBURG, VA, 20175",62369194,"L"
137234,"25 CATOCTIN CIRCLE SE UNIT 2976","LEESBURG","VA",20177,39.106862979,-77.565479496,234,"25 CATOCTIN CIRCLE SE UNIT 2976, LEESBURG, VA, 20177","Match","Non_Exact","25 CATOCTIN CIR SE, LEESBURG, VA, 20175",62369194,"L"
137235,"25 CATOCTIN CIRCLE SUITE 4225","LEESBURG","VA",20177,NA,NA,235,"25 CATOCTIN CIRCLE SUITE 4225, LEESBURG, VA, 20177","No_Match",NA,NA,NA,NA
137236,"25 CAVALIER WAY","LATHAM","NY",12110,42.7643026270001,-73.773637284,236,"25 CAVALIER WAY, LATHAM, NY, 12110","Match","Exact","25 CAVALIER WAY, LATHAM, NY, 12110",640452522,"L"
137237,"25 CENTER ST","VERMILLION","SD",57069,42.7795472760001,-96.932048172,237,"25 CENTER ST, VERMILLION, SD, 57069","Match","Exact","25 CENTER ST, VERMILLION, SD, 57069",172955687,"R"
137238,"25 CHANDLER SQUARE","PORT JEFFERSON","NY",11777,40.9455708150001,-73.069364172,238,"25 CHANDLER SQUARE, PORT JEFFERSON, NY, 11777","Match","Exact","25 CHANDLER SQ, PORT JEFFERSON, NY, 11777",114073942,"L"
137239,"25 CHAPMAN PLACE","IRVINGTON","NJ",7111,40.7256233350001,-74.240593998,239,"25 CHAPMAN PLACE, IRVINGTON, NJ, 7111","Match","Exact","25 CHAPMAN PL, IRVINGTON, NJ, 07111",63463649,"L"
137240,"25 CHASE FARM RD","SOUTH WINDSOR","CT",6074,41.8627021720001,-72.52091116,240,"25 CHASE FARM RD, SOUTH WINDSOR, CT, 6074","Match","Exact","25 CHASE FARM RD, SOUTH WINDSOR, CT, 06074",3533887,"R"
137241,"25 CHERRY BARK TRL","ELLISVILLE","MS",39437,31.573421454,-89.256412487,241,"25 CHERRY BARK TRL, ELLISVILLE, MS, 39437","Match","Exact","25 CHERRY BARK TRL, ELLISVILLE, MS, 39437",611074790,"L"
137242,"25 CHURCH STREET","WELD","ME",4285,44.699598881,-70.422347776,242,"25 CHURCH STREET, WELD, ME, 4285","Match","Exact","25 CHURCH ST, WELD, ME, 04285",165309230,"R"
137243,"25 CLAREMONT AVE NUM 4B","NEW YORK","NY",10027,40.809106854,-73.964479516,243,"25 CLAREMONT AVE NUM 4B, NEW YORK, NY, 10027","Match","Exact","25 CLAREMONT AVE, NEW YORK, NY, 10027",639467133,"L"
137244,"25 CLAREMONT UNIT 6","LONG BEACH","CA",90803,NA,NA,244,"25 CLAREMONT UNIT 6, LONG BEACH, CA, 90803","Tie",NA,NA,NA,NA
137245,"25 CLIFF STREET","QUINCY","MA",2169,42.254552566,-71.031243543,245,"25 CLIFF STREET, QUINCY, MA, 2169","Match","Exact","25 CLIFF ST, QUINCY, MA, 02169",87249113,"R"
137246,"25 CLOUTMANS LANE","MARBLEHEAD","MA",1945,42.5182748450001,-70.859805224,246,"25 CLOUTMANS LANE, MARBLEHEAD, MA, 1945","Match","Exact","25 CLOUTMANS LN, MARBLEHEAD, MA, 01945",86701209,"R"
137247,"25 COLLINS CREEK RD","GREENVILLE","SC",29607,34.8149025160001,-82.352316542,247,"25 COLLINS CREEK RD, GREENVILLE, SC, 29607","Match","Exact","25 COLLINS CREEK RD, GREENVILLE, SC, 29607",38304019,"R"
137248,"25 CONCORD RD","BILLERICA","MA",1821,42.55750063,-71.2693968409999,248,"25 CONCORD RD, BILLERICA, MA, 1821","Match","Exact","25 CONCORD RD, BILLERICA, MA, 01821",86913330,"R"
137249,"25 CONCORD STREET","EAST HARTFORD","CT",6108,41.778217404,-72.58710982,249,"25 CONCORD STREET, EAST HARTFORD, CT, 6108","Match","Exact","25 CONCORD ST, EAST HARTFORD, CT, 06108",3496929,"L"
137250,"25 CONGRESSIONAL PL","SPRINGBORO","OH",45066,39.569821034,-84.20644434,250,"25 CONGRESSIONAL PL, SPRINGBORO, OH, 45066","Match","Exact","25 CONGRESSIONAL PL, SPRINGBORO, OH, 45066",159031754,"L"
137251,"25 CONSTITUTION BLVD SOUTH","SHELTON","CT",6484,41.296177721,-73.090628072,251,"25 CONSTITUTION BLVD SOUTH, SHELTON, CT, 6484","Match","Exact","25 CONSTITUTION BLVD S, SHELTON, CT, 06484",3287702,"L"
137252,"25 COOPER RUN STREET","LOVETTSVILLE","VA",20180,39.280971751,-77.640516411,252,"25 COOPER RUN STREET, LOVETTSVILLE, VA, 20180","Match","Exact","25 COOPER RUN ST, LOVETTSVILLE, VA, 20180",632160870,"R"
137253,"25 COPPER BEECH RD","GREENWICH","CT",6830,41.0693225320001,-73.62000819,253,"25 COPPER BEECH RD, GREENWICH, CT, 6830","Match","Exact","25 COPPER BEECH RD, GREENWICH, CT, 06830",3241608,"L"
137254,"25 COPPERHEAD RD","CLYDE","NC",28721,35.665650757,-82.940496627,254,"25 COPPERHEAD RD, CLYDE, NC, 28721","Match","Exact","25 COPPERHEAD RD, CLYDE, NC, 28721",151812696,"L"
137255,"25 CORNISH ROAD","CARMEL","NY",10512,41.4199427940001,-73.699124314,255,"25 CORNISH ROAD, CARMEL, NY, 10512","Match","Exact","25 CORNISH RD, CARMEL, NY, 10512",139700483,"R"
137256,"25 CORNISH STREET","STATEN ISLAND","NY",10308,40.5432848620001,-74.1430352419999,256,"25 CORNISH STREET, STATEN ISLAND, NY, 10308","Match","Exact","25 CORNISH ST, STATEN ISLAND, NY, 10308",59875940,"L"
137257,"25 COUNTY ROAD 1772","JOPPA","AL",35087,34.2940119350001,-86.573654209,257,"25 COUNTY ROAD 1772, JOPPA, AL, 35087","Match","Exact","25 CO RD 1772, JOPPA, AL, 35087",130251828,"L"
137258,"25 COUNTY ROAD 1905","LINDEN","TX",75563,NA,NA,258,"25 COUNTY ROAD 1905, LINDEN, TX, 75563","No_Match",NA,NA,NA,NA
137259,"25 COUNTY ROAD 2127","PITTSBURG","TX",75686,NA,NA,259,"25 COUNTY ROAD 2127, PITTSBURG, TX, 75686","No_Match",NA,NA,NA,NA
137260,"25 COUNTY ROAD 3523","HALEYVILLE","AL",35565,NA,NA,260,"25 COUNTY ROAD 3523, HALEYVILLE, AL, 35565","No_Match",NA,NA,NA,NA
137261,"25 CRABAPPLE LANE","FRANKLIN PARK","NJ",8823,40.4407086690001,-74.54615273,261,"25 CRABAPPLE LANE, FRANKLIN PARK, NJ, 8823","Match","Exact","25 CRABAPPLE LN, FRANKLIN PARK, NJ, 08823",642916538,"L"
137262,"25 CRAFTS ROAD","CARMEL","NY",10512,41.3932101720001,-73.699355635,262,"25 CRAFTS ROAD, CARMEL, NY, 10512","Match","Exact","25 CRAFTS RD, CARMEL, NY, 10512",139690121,"L"
137263,"25 CRAWFORD STREET","HAVERHILL","MA",1832,42.8012214020001,-71.110765096,263,"25 CRAWFORD STREET, HAVERHILL, MA, 1832","Match","Exact","25 CRAWFORD ST, HAVERHILL, MA, 01832",86616508,"R"
137264,"25 CREIGHTON STREET","JAMAICA PLAIN","MA",2130,42.323320046,-71.108203048,264,"25 CREIGHTON STREET, JAMAICA PLAIN, MA, 2130","Match","Exact","25 CREIGHTON ST, JAMAICA PLAIN, MA, 02130",85698645,"R"
137265,"25 CRESCENT DRIVE STE A234","PLEASANT HILL","CA",94523,NA,NA,265,"25 CRESCENT DRIVE STE A234, PLEASANT HILL, CA, 94523","No_Match",NA,NA,NA,NA
137266,"25 CRESTWOOD RD","WINDHAM","NH",3087,42.820796197,-71.340355737,266,"25 CRESTWOOD RD, WINDHAM, NH, 3087","Match","Exact","25 CRESTWOOD RD, WINDHAM, NH, 03087",113704019,"L"
137267,"25 CURRAN AVE","NORWOOD","MA",2062,42.1965239630001,-71.204418048,267,"25 CURRAN AVE, NORWOOD, MA, 2062","Match","Exact","25 CURRAN AVE, NORWOOD, MA, 02062",87243599,"L"
137268,"25 CYPRESS LANE","WILBRAHAM","MA",1095,42.136905094,-72.4616388599999,268,"25 CYPRESS LANE, WILBRAHAM, MA, 1095","Match","Exact","25 CYPRESS LN, WILBRAHAM, MA, 01095",645896052,"L"
137269,"25 DALE DR","CHATHAM","NJ",7928,40.7337066210001,-74.4089260009999,269,"25 DALE DR, CHATHAM, NJ, 7928","Match","Exact","25 DALE DR, CHATHAM, NJ, 07928",60450127,"R"
137270,"25 DANIELS ROAD","LAKEVILLE","PA",18438,41.441586575,-75.270310651,270,"25 DANIELS ROAD, LAKEVILLE, PA, 18438","Match","Exact","25 DANIELS RD, LAKEVILLE, PA, 18438",140144857,"L"
137271,"25 DARDENNE CROSSING COURT","DARDENNE PRAIRIE","MO",63368,38.776218886,-90.7631504249999,271,"25 DARDENNE CROSSING COURT, DARDENNE PRAIRIE, MO, 63368","Match","Exact","25 DARDENNE CROSSING CT, DARDENNE PRAIRIE, MO, 63368",605573203,"R"
137272,"25 DAYTON AVENUE","TOMS RIVER","NJ",8753,39.959514423,-74.197886271,272,"25 DAYTON AVENUE, TOMS RIVER, NJ, 8753","Match","Exact","25 DAYTON AVE, TOMS RIVER, NJ, 08753",203726935,"R"
137273,"25 DEAN HUNDLEY RD","EASTBERNSTADT","KY",40729,37.1932664190001,-84.145363656,273,"25 DEAN HUNDLEY RD, EASTBERNSTADT, KY, 40729","Match","Non_Exact","25 DEAN HUNDLEY RD, E BERNSTADT, KY, 40729",98737838,"R"
137274,"25 DEGARMO RD","POUGHKEEPSIE","NY",12603,41.7021565420001,-73.8682540469999,274,"25 DEGARMO RD, POUGHKEEPSIE, NY, 12603","Match","Exact","25 DEGARMO RD, POUGHKEEPSIE, NY, 12603",4204254,"L"
137275,"25 DEN HOLLOW RD","GUILFORD","CT",6437,41.302272246,-72.639464719,275,"25 DEN HOLLOW RD, GUILFORD, CT, 6437","Match","Exact","25 DEN HOLLOW RD, GUILFORD, CT, 06437",3743128,"R"
137276,"25 DEPOT ROAD","OXFORD","MA",1540,42.150443663,-71.871504439,276,"25 DEPOT ROAD, OXFORD, MA, 1540","Match","Exact","25 DEPOT RD, OXFORD, MA, 01540",40089735,"L"
137277,"25 DINONSIE WAY","WAKEFIELD","RI",2879,41.4515895380001,-71.506876163,277,"25 DINONSIE WAY, WAKEFIELD, RI, 2879","Match","Exact","25 DINONSIE WAY, WAKEFIELD, RI, 02879",58912828,"R"
137278,"25 DONNA STREET UNIT 1204","PALM HARBOR","FL",34684,28.0641242470001,-82.713539036,278,"25 DONNA STREET UNIT 1204, PALM HARBOR, FL, 34684","Match","Exact","25 DONNA ST, PALM HARBOR, FL, 34684",124751464,"R"
137279,"25 DORCHESTER AVE 51538","BOSTON","MA",2205,NA,NA,279,"25 DORCHESTER AVE 51538, BOSTON, MA, 2205","Tie",NA,NA,NA,NA
137280,"25 DORCHESTER AVENUE    UNIT 51954","BOSTON","MA",2205,NA,NA,280,"25 DORCHESTER AVENUE    UNIT 51954, BOSTON, MA, 2205","Tie",NA,NA,NA,NA
137281,"25 DOWNING STREET UNIT 2-302","DENVER","CO",80218,39.716861153,-104.973394877,281,"25 DOWNING STREET UNIT 2-302, DENVER, CO, 80218","Match","Exact","25 DOWNING ST, DENVER, CO, 80218",177331711,"L"
137282,"25 DRAPER STREET C/O ATLAS LOCAL","GREENVILLE","SC",29611,34.8454833160001,-82.431955817,282,"25 DRAPER STREET C/O ATLAS LOCAL, GREENVILLE, SC, 29611","Match","Exact","25 DRAPER ST, GREENVILLE, SC, 29611",640586832,"R"
137283,"25 DRIFTWOOD DRIVE","SOMERSET","NJ",8873,40.509044723,-74.5047711939999,283,"25 DRIFTWOOD DRIVE, SOMERSET, NJ, 8873","Match","Exact","25 DRIFTWOOD DR, SOMERSET, NJ, 08873",653285653,"R"
137284,"25 DUBLIN DRIVE","NISKAYUNA","NY",12309,42.7852176750001,-73.852703768,284,"25 DUBLIN DRIVE, NISKAYUNA, NY, 12309","Match","Exact","25 DUBLIN DR, NISKAYUNA, NY, 12309",635609769,"L"
137285,"25 DUDLEY AVENUE","GRANITE FALLS","NC",28630,35.7998810720001,-81.4317951789999,285,"25 DUDLEY AVENUE, GRANITE FALLS, NC, 28630","Match","Exact","25 DUDLEY AVE, GRANITE FALLS, NC, 28630",45848229,"R"
137286,"25 DUNBAR CREEK POINT","SAINT SIMONS ISLAND","GA",31522,31.1958591010001,-81.385391872,286,"25 DUNBAR CREEK POINT, SAINT SIMONS ISLAND, GA, 31522","Match","Exact","25 DUNBAR CREEK PT, ST SIMONS ISLAND, GA, 31522",9133572,"R"
137287,"25 DUSENBERRY ROAD","BRONXVILLE","NY",10708,40.9401330150001,-73.8164138129999,287,"25 DUSENBERRY ROAD, BRONXVILLE, NY, 10708","Match","Exact","25 DUSENBERRY RD, BRONXVILLE, NY, 10708",139846835,"L"
137288,"25 E 10TH ST APT 7E","NEW YORK","NY",10003,40.7326486470001,-73.993592463,288,"25 E 10TH ST APT 7E, NEW YORK, NY, 10003","Match","Non_Exact","25 E 10TH ST, NEW YORK, NY, 10003",650154505,"L"
137289,"25 E 1ST ST","JACKSONVILLE","FL",32206,30.336437889,-81.654506466,289,"25 E 1ST ST, JACKSONVILLE, FL, 32206","Match","Exact","25 E 1ST ST, JACKSONVILLE, FL, 32206",83899005,"L"
137290,"25 E 39TH STREET","SAVANNAH","GA",31401,32.0554515950001,-81.10049577,290,"25 E 39TH STREET, SAVANNAH, GA, 31401","Match","Exact","25 E 39TH ST, SAVANNAH, GA, 31401",6171587,"R"
137291,"25 E 40TH STREET UNIT 4B","INDIANAPOLIS","IN",46205,39.8284886100001,-86.155344111,291,"25 E 40TH STREET UNIT 4B, INDIANAPOLIS, IN, 46205","Match","Non_Exact","25 E 40TH ST, INDIANAPOLIS, IN, 46205",652687858,"R"
137292,"25 E FOOTHILL BLVD","ARCADIA","CA",91006,34.1509883780001,-118.030616443,292,"25 E FOOTHILL BLVD, ARCADIA, CA, 91006","Match","Exact","25 E FOOTHILL BLVD, ARCADIA, CA, 91006",141643975,"L"
137293,"25 E GRANDVIEW DR","SOUTH HOLLAND","IL",60473,41.614698312,-87.616094688,293,"25 E GRANDVIEW DR, SOUTH HOLLAND, IL, 60473","Match","Non_Exact","25 GRANDVIEW, SOUTH HOLLAND, IL, 60473",624596794,"R"
137294,"25 E HIGHT STREET","GLASSBORO","NJ",8028,NA,NA,294,"25 E HIGHT STREET, GLASSBORO, NJ, 8028","No_Match",NA,NA,NA,NA
137295,"25 E LINDEN AVE","MIAMISBURG","OH",45342,39.640051398,-84.2892133559999,295,"25 E LINDEN AVE, MIAMISBURG, OH, 45342","Match","Exact","25 E LINDEN AVE, MIAMISBURG, OH, 45342",143577184,"L"
137296,"25 E MAIN ST","RATHDRUM","ID",83440,43.8260638460001,-111.782971036,296,"25 E MAIN ST, RATHDRUM, ID, 83440","Match","Non_Exact","25 E MAIN ST, REXBURG, ID, 83440",119090947,"R"
137297,"25 E MELLEN STREET","HAMPTON","VA",23663,37.018018581,-76.3215865079999,297,"25 E MELLEN STREET, HAMPTON, VA, 23663","Match","Exact","25 E MELLEN ST, HAMPTON, VA, 23663",103806223,"L"
137298,"25 E METCALF ST","ERIE","PA",16504,42.1029697920001,-80.067042247,298,"25 E METCALF ST, ERIE, PA, 16504","Match","Exact","25 E METCALF ST, ERIE, PA, 16504",117497870,"R"
137299,"25 E MORAN VIEW RD","IDAHO FALLS","ID",83440,43.8476657300001,-111.782425214,299,"25 E MORAN VIEW RD, IDAHO FALLS, ID, 83440","Match","Non_Exact","25 E MORAN VIEW RD, REXBURG, ID, 83440",627258128,"L"
137300,"25 E WASHINGTON ST STE 700","CHICAGO","IL",60602,NA,NA,300,"25 E WASHINGTON ST STE 700, CHICAGO, IL, 60602","Tie",NA,NA,NA,NA
137301,"25 E WASHINGTON ST STE 750","CHICAGO","IL",60602,NA,NA,301,"25 E WASHINGTON ST STE 750, CHICAGO, IL, 60602","Tie",NA,NA,NA,NA
137302,"25 E WASHINGTON ST SUITE 1811","CHICAGO","IL",60602,NA,NA,302,"25 E WASHINGTON ST SUITE 1811, CHICAGO, IL, 60602","Tie",NA,NA,NA,NA
137303,"25 EARLE ROAD","WELLESLEY","MA",2481,42.307299125,-71.309145346,303,"25 EARLE ROAD, WELLESLEY, MA, 2481","Match","Exact","25 EARLE RD, WELLESLEY, MA, 02481",87236473,"R"
137304,"25 EAST 31ST STREET 2ND FLOOR","BROOKLYN","NY",11226,40.6501839250001,-73.948512818,304,"25 EAST 31ST STREET 2ND FLOOR, BROOKLYN, NY, 11226","Match","Exact","25 E 31ST ST, BROOKLYN, NY, 11226",59081500,"L"
137305,"25 EAST 7TH STREET APT 4","NEW YORK","NY",10003,40.728498754,-73.9893160199999,305,"25 EAST 7TH STREET APT 4, NEW YORK, NY, 10003","Match","Exact","25 E 7TH ST, NEW YORK, NY, 10003",639490783,"L"
137306,"25 EAST 8TH STREET","PANAMA CITY","FL",32401,30.1624569800001,-85.6599118139999,306,"25 EAST 8TH STREET, PANAMA CITY, FL, 32401","Match","Exact","25 E 8TH ST, PANAMA CITY, FL, 32401",7029339,"L"
137307,"25 EAST BLUE HERON BOULEVARD","RIVIERA BEACH","FL",33404,26.783378,-80.0540758339999,307,"25 EAST BLUE HERON BOULEVARD, RIVIERA BEACH, FL, 33404","Match","Exact","25 E BLUE HERON BLVD, RIVIERA BEACH, FL, 33404",115276296,"R"
137308,"25 EAST CEDAR STREET","MASSAPEQUA","NY",11758,40.6820446400001,-73.426661043,308,"25 EAST CEDAR STREET, MASSAPEQUA, NY, 11758","Match","Exact","25 E CEDAR ST, MASSAPEQUA, NY, 11758",147652897,"R"
137309,"25 EAST COFFEE STREET","HAZLEHURST","GA",31539,31.8685050290001,-82.596031979,309,"25 EAST COFFEE STREET, HAZLEHURST, GA, 31539","Match","Exact","25 E COFFEE ST, HAZLEHURST, GA, 31539",4594364,"L"
137310,"25 EAST FRONT STREET","MILAN","OH",44846,41.299947762,-82.6023119069999,310,"25 EAST FRONT STREET, MILAN, OH, 44846","Match","Exact","25 E FRONT ST, MILAN, OH, 44846",55334448,"R"
137311,"25 EAST MARKET STREET","HYDE PARK","NY",12538,41.79151233,-73.9333640739999,311,"25 EAST MARKET STREET, HYDE PARK, NY, 12538","Match","Exact","25 E MARKET ST, HYDE PARK, NY, 12538",4164068,"L"
137312,"25 EAST PEARSON","CHICAGO","IL",60611,41.897530208,-87.627261341,312,"25 EAST PEARSON, CHICAGO, IL, 60611","Match","Non_Exact","25 E PEARSON ST, CHICAGO, IL, 60611",111768910,"R"
137313,"25 EAST PINE STREET","ORLANDO","FL",32801,28.5413210500001,-81.378456461,313,"25 EAST PINE STREET, ORLANDO, FL, 32801","Match","Exact","25 E PINE ST, ORLANDO, FL, 32801",94282462,"L"
137314,"25 EAST STATE STREET","NORTH AURORA","IL",60542,41.8067525450001,-88.322509504,314,"25 EAST STATE STREET, NORTH AURORA, IL, 60542","Match","Exact","25 E STATE ST, NORTH AURORA, IL, 60542",119572732,"L"
137315,"25 EAST VARGO ROAD","HORSEHEADS","NY",14845,42.1852382870001,-76.7597011989999,315,"25 EAST VARGO ROAD, HORSEHEADS, NY, 14845","Match","Exact","25 E VARGO RD, HORSEHEADS, NY, 14845",18555090,"L"
137316,"25 EAST WASHINGTON ST","MARIONVILLE","MO",65705,37.0048559740001,-93.636907922,316,"25 EAST WASHINGTON ST, MARIONVILLE, MO, 65705","Match","Exact","25 E WASHINGTON ST, MARIONVILLE, MO, 65705",99858879,"R"
137317,"25 EAST WINDSOR PKWY","OCEANSIDE","NY",11572,NA,NA,317,"25 EAST WINDSOR PKWY, OCEANSIDE, NY, 11572","Tie",NA,NA,NA,NA
137318,"25 ELIZABETH STREET","GUILFORD","CT",6437,41.336508092,-72.6674742549999,318,"25 ELIZABETH STREET, GUILFORD, CT, 6437","Match","Exact","25 ELIZABETH ST, GUILFORD, CT, 06437",627590389,"L"
137319,"25 ELLINGTON WAY","SPRING VALLEY","NY",10977,41.1544927260001,-74.0491735589999,319,"25 ELLINGTON WAY, SPRING VALLEY, NY, 10977","Match","Exact","25 ELLINGTON WAY, SPRING VALLEY, NY, 10977",124593068,"L"
137320,"25 ELM STREET","FRAMINGHAM","MA",1701,42.3264604620001,-71.400466556,320,"25 ELM STREET, FRAMINGHAM, MA, 1701","Match","Exact","25 ELM ST, FRAMINGHAM, MA, 01701",86848025,"R"
137321,"25 EMBRY FARM ROAD","MARLBORO","NJ",7746,40.34848443,-74.210739804,321,"25 EMBRY FARM ROAD, MARLBORO, NJ, 7746","Match","Exact","25 EMBRY FARM RD, MARLBORO, NJ, 07746",628855532,"R"
137322,"25 EMERSON GARDENS","LEXINGTON","MA",2420,NA,NA,322,"25 EMERSON GARDENS, LEXINGTON, MA, 2420","Tie",NA,NA,NA,NA
137323,"25 EOLA AVENUE","ASEHVILLE","NC",28806,35.5829617050001,-82.6080885,323,"25 EOLA AVENUE, ASEHVILLE, NC, 28806","Match","Non_Exact","25 EOLA AVE, ASHEVILLE, NC, 28806",36842786,"R"
137324,"25 ESSEX STREET","ANDOVER","MA",1810,42.656639243,-71.142644917,324,"25 ESSEX STREET, ANDOVER, MA, 1810","Match","Exact","25 ESSEX ST, ANDOVER, MA, 01810",86629460,"R"
137325,"25 ESTEN AVE","PAWTUCKET","RI",2860,41.8652510800001,-71.402284172,325,"25 ESTEN AVE, PAWTUCKET, RI, 2860","Match","Exact","25 ESTEN AVE, PAWTUCKET, RI, 02860",47462991,"R"
137326,"25 EUGENE AVE","BRISTOL","CT",6010,41.657734587,-72.9386695439999,326,"25 EUGENE AVE, BRISTOL, CT, 6010","Match","Exact","25 EUGENE AVE, BRISTOL, CT, 06010",635727698,"L"
137327,"25 EUGENIA WAY","HILLSBOROUGH","CA",94010,37.5683017280001,-122.379357034,327,"25 EUGENIA WAY, HILLSBOROUGH, CA, 94010","Match","Exact","25 EUGENIA WAY, HILLSBOROUGH, CA, 94010",192376026,"L"
137328,"25 EVERETT RD","DUNBARTON","NH",3046,43.1023843830001,-71.618027524,328,"25 EVERETT RD, DUNBARTON, NH, 3046","Match","Exact","25 EVERETT RD, DUNBARTON, NH, 03046",117732759,"R"
137329,"25 EVERGREEN AVENUE","NEWARK","NJ",7114,40.692798758,-74.203497036,329,"25 EVERGREEN AVENUE, NEWARK, NJ, 7114","Match","Exact","25 EVERGREEN AVE, NEWARK, NJ, 07114",63466712,"R"
137330,"25 EXCHANGE ST","LYNN","MA",1901,42.4636572810001,-70.943311782,330,"25 EXCHANGE ST, LYNN, MA, 1901","Match","Exact","25 EXCHANGE ST, LYNN, MA, 01901",86645813,"R"
137331,"25 EXCHANGE STREET","LYNN","MA",1901,42.4636572810001,-70.943311782,331,"25 EXCHANGE STREET, LYNN, MA, 1901","Match","Exact","25 EXCHANGE ST, LYNN, MA, 01901",86645813,"R"
137332,"25 EXPRESS LANE","WILLINGSBORO","NJ",8046,40.0250956150001,-74.868239971,332,"25 EXPRESS LANE, WILLINGSBORO, NJ, 8046","Match","Non_Exact","25 EXPRESS LN, WILLINGBORO, NJ, 08046",134058412,"L"
137333,"25 FAIRHOPE AVE","EXCELSIOR","MN",55331,44.924050525,-93.5846633309999,333,"25 FAIRHOPE AVE, EXCELSIOR, MN, 55331","Match","Exact","25 FAIRHOPE AVE, EXCELSIOR, MN, 55331",43819998,"R"
137334,"25 FALLS DRIVE","TIGER","GA",30576,NA,NA,334,"25 FALLS DRIVE, TIGER, GA, 30576","No_Match",NA,NA,NA,NA
137335,"25 FAMILY CIRCLE","LEE CENTER","NY",13363,43.2961387600001,-75.4814881039999,335,"25 FAMILY CIRCLE, LEE CENTER, NY, 13363","Match","Exact","25 FAMILY CIR, LEE CENTER, NY, 13363",171584777,"R"
137336,"25 FELWAY DRIVE","CORAM","NY",11727,40.9002510340001,-73.014247973,336,"25 FELWAY DRIVE, CORAM, NY, 11727","Match","Exact","25 FELWAY DR, CORAM, NY, 11727",114039104,"R"
137337,"25 FIFTH AVENUE","NARRAGANSETT","RI",2882,41.4302196800001,-71.464446521,337,"25 FIFTH AVENUE, NARRAGANSETT, RI, 2882","Match","Exact","25 5TH AVE, NARRAGANSETT, RI, 02882",58906635,"R"
137338,"25 FIORE DRIVE","SAVANNAH","GA",31419,31.9914623130001,-81.267720729,338,"25 FIORE DRIVE, SAVANNAH, GA, 31419","Match","Exact","25 FIORE DR, SAVANNAH, GA, 31419",650183529,"R"
137339,"25 FIREWORKS CIR","BRIDGEWATER","MA",2324,41.963969197,-70.9722727499999,339,"25 FIREWORKS CIR, BRIDGEWATER, MA, 2324","Match","Exact","25 FIREWORKS CIR, BRIDGEWATER, MA, 02324",87474541,"R"
137340,"25 FIRST ST","ELIZABEETH","NJ",7206,40.647291997,-74.1892109839999,340,"25 FIRST ST, ELIZABEETH, NJ, 7206","Match","Non_Exact","25 1ST ST, ELIZABETH, NJ, 07206",60580438,"R"
137341,"25 FISCHER AVENUE","BOGOTA","NJ",7603,40.869675219,-74.026882273,341,"25 FISCHER AVENUE, BOGOTA, NJ, 7603","Match","Exact","25 FISCHER AVE, BOGOTA, NJ, 07603",64397587,"R"
137342,"25 FISCHER LN","TIJERAS","NM",87059,34.9642926160001,-106.298722447,342,"25 FISCHER LN, TIJERAS, NM, 87059","Match","Exact","25 FISCHER LN, TIJERAS, NM, 87059",648262638,"L"
137343,"25 FISHER AVENUE","BROOKLINE","MA",2445,42.3282231000001,-71.1413121959999,343,"25 FISHER AVENUE, BROOKLINE, MA, 2445","Match","Exact","25 FISHER AVE, BROOKLINE, MA, 02445",87245082,"R"
137344,"25 FLAGSTICK LN STE 202","MAGNOLIA","DE",19962,39.084021836,-75.4853105349999,344,"25 FLAGSTICK LN STE 202, MAGNOLIA, DE, 19962","Match","Exact","25 FLAGSTICK LN, MAGNOLIA, DE, 19962",617130212,"L"
137345,"25 FLEMING LANE","FAIRFIELD","CT",6824,41.1695267010001,-73.319340857,345,"25 FLEMING LANE, FAIRFIELD, CT, 6824","Match","Exact","25 FLEMING LN, FAIRFIELD, CT, 06824",627421612,"R"
137346,"25 FLORAMAR","RANCHO SANTA MARGARI","CA",92688,33.653329338,-117.586263587,346,"25 FLORAMAR, RANCHO SANTA MARGARI, CA, 92688","Match","Non_Exact","25 FLORAMAR, RANCHO SANTA MARGARITA, CA, 92688",144097336,"L"
137347,"25 FLOWER ROAD","SOMERSET","NJ",8873,40.4910210050001,-74.505784648,347,"25 FLOWER ROAD, SOMERSET, NJ, 8873","Match","Exact","25 FLOWER RD, SOMERSET, NJ, 08873",59943570,"L"
137348,"25 FLOYD AVENUE","TAUNTON","MA",2780,41.896211506,-71.120170507,348,"25 FLOYD AVENUE, TAUNTON, MA, 2780","Match","Exact","25 FLOYD AVE, TAUNTON, MA, 02780",46759583,"R"
137349,"25 FRANCES HUNTER DRIVE","NEW HAVEN","CT",6511,41.316670473,-72.92949156,349,"25 FRANCES HUNTER DRIVE, NEW HAVEN, CT, 6511","Match","Exact","25 FRANCES HUNTER DR, NEW HAVEN, CT, 06511",635591724,"R"
137350,"25 FRANKLIN ST","WOBURN","MA",1801,42.4831191430001,-71.153528508,350,"25 FRANKLIN ST, WOBURN, MA, 1801","Match","Exact","25 FRANKLIN ST, WOBURN, MA, 01801",86886177,"R"
137351,"25 FREEDOM AVE","PISCATAWAY","NJ",8854,40.53930288,-74.41695356,351,"25 FREEDOM AVE, PISCATAWAY, NJ, 8854","Match","Exact","25 FREEDOM AVE, PISCATAWAY, NJ, 08854",60265635,"L"
137352,"25 GABLE PLACE","BARRE","VT",5641,44.1998234100001,-72.50650551,352,"25 GABLE PLACE, BARRE, VT, 5641","Match","Exact","25 GABLE PL, BARRE, VT, 05641",136692266,"L"
137353,"25 GARAND HILL RD","MIDDLESEX","VT",5602,44.28345496,-72.597525446,353,"25 GARAND HILL RD, MIDDLESEX, VT, 5602","Match","Exact","25 GARAND HILL, MIDDLESEX, VT, 05602",136681523,"R"
137354,"25 GILMER RD","TAYLORSVILLE","MS",39168,31.7405477130001,-89.456377356,354,"25 GILMER RD, TAYLORSVILLE, MS, 39168","Match","Exact","25 GILMER RD, TAYLORSVILLE, MS, 39168",2922473,"L"
137355,"25 GLENBROOK ROAD APT 318","STAMFORD","CT",6902,41.056382323,-73.529291308,355,"25 GLENBROOK ROAD APT 318, STAMFORD, CT, 6902","Match","Exact","25 GLENBROOK RD, STAMFORD, CT, 06902",648206091,"R"
137356,"25 GLENDALE CT","DALLAS","GA",30157,33.918537085,-84.74686313,356,"25 GLENDALE CT, DALLAS, GA, 30157","Match","Exact","25 GLENDALE CT, DALLAS, GA, 30157",623855801,"L"
137357,"25 GLENNWOOD DRIVE","NEWARK","DE",19702,39.6443682890001,-75.689307877,357,"25 GLENNWOOD DRIVE, NEWARK, DE, 19702","Match","Exact","25 GLENNWOOD DR, NEWARK, DE, 19702",606253643,"L"
137358,"25 GOLF CLUB LANE","ASHLAND CITY","TN",37015,36.3308606680001,-87.037619176,358,"25 GOLF CLUB LANE, ASHLAND CITY, TN, 37015","Match","Exact","25 GOLF CLUB LN, ASHLAND CITY, TN, 37015",72881581,"L"
137359,"25 GOLFVIEW LANE","READING","PA",19606,40.3099963110001,-75.85743421,359,"25 GOLFVIEW LANE, READING, PA, 19606","Match","Exact","25 GOLFVIEW LN, READING, PA, 19606",80413621,"L"
137360,"25 GRACEWOOD DRIVE","MANHASSET","NY",11030,40.7821883730001,-73.670053378,360,"25 GRACEWOOD DRIVE, MANHASSET, NY, 11030","Match","Exact","25 GRACEWOOD DR, MANHASSET, NY, 11030",625422812,"L"
137361,"25 GRAND MASTERS DR","LAS VEGAS","NV",89141,35.968490918,-115.194973958,361,"25 GRAND MASTERS DR, LAS VEGAS, NV, 89141","Match","Exact","25 GRAND MASTERS DR, LAS VEGAS, NV, 89141",641508262,"L"
137362,"25 GREENE STREET","NORTH SMITHFIELD","RI",2896,42.002057634,-71.5768858069999,362,"25 GREENE STREET, NORTH SMITHFIELD, RI, 2896","Match","Exact","25 GREENE ST, NORTH SMITHFIELD, RI, 02896",47477012,"R"
137363,"25 GREENWOOD AVE","BETHEL","CT",6801,41.3721531890001,-73.4017553049999,363,"25 GREENWOOD AVE, BETHEL, CT, 6801","Match","Exact","25 GREENWOOD AVE, BETHEL, CT, 06801",3263045,"R"
137364,"25 GRISWOLD ST","CAMBRIDGE","MA",2138,42.3917157660001,-71.15664542,364,"25 GRISWOLD ST, CAMBRIDGE, MA, 2138","Match","Exact","25 GRISWOLD ST, CAMBRIDGE, MA, 02138",86891800,"L"
137365,"25 GUNDERSON ROAD","WILMINGTON","MA",1887,42.5759311310001,-71.142475248,365,"25 GUNDERSON ROAD, WILMINGTON, MA, 1887","Match","Exact","25 GUNDERSON RD, WILMINGTON, MA, 01887",86906018,"R"
137366,"25 HAELE PLACE","MAKAWAO","HI",96768,20.8410583680001,-156.325235862,366,"25 HAELE PLACE, MAKAWAO, HI, 96768","Match","Exact","25 HAELE PL, MAKAWAO, HI, 96768",85069558,"R"
137367,"25 HAMILTON PLACE","GARDEN CITY","NY",11530,40.7180021610001,-73.634645528,367,"25 HAMILTON PLACE, GARDEN CITY, NY, 11530","Match","Exact","25 HAMILTON PL, GARDEN CITY, NY, 11530",147673701,"L"
137368,"25 HANNA LANE","LITTLE ROCK","AR",72223,34.792980223,-92.449008502,368,"25 HANNA LANE, LITTLE ROCK, AR, 72223","Match","Exact","25 HANNA LN, LITTLE ROCK, AR, 72223",618991984,"L"
137369,"25 HANSOM PL","ROOSEVELT","NY",11575,40.678213016,-73.582435486,369,"25 HANSOM PL, ROOSEVELT, NY, 11575","Match","Exact","25 HANSOM PL, ROOSEVELT, NY, 11575",147631374,"L"
137370,"25 HARRINGTON CIR","SALINAS","CA",93906,36.703380585,-121.613751567,370,"25 HARRINGTON CIR, SALINAS, CA, 93906","Match","Exact","25 HARRINGTON CIR, SALINAS, CA, 93906",196840855,"L"
137371,"25 HARTFORD STREET","NATICK","MA",1760,42.297194382,-71.378448792,371,"25 HARTFORD STREET, NATICK, MA, 1760","Match","Exact","25 HARTFORD ST, NATICK, MA, 01760",87102438,"R"
137372,"25 HASTINGS AVENUE","OAKDALE","PA",15071,40.398476542,-80.183202208,372,"25 HASTINGS AVENUE, OAKDALE, PA, 15071","Match","Exact","25 HASTINGS AVE, OAKDALE, PA, 15071",647483887,"R"
137373,"25 HAWKSMOOR","ALISO VIEJO","CA",92656,33.5890218420001,-117.716719772,373,"25 HAWKSMOOR, ALISO VIEJO, CA, 92656","Match","Exact","25 HAWKSMOOR, ALISO VIEJO, CA, 92656",144386433,"L"
137374,"25 HAWTHORNE AVE","GLEN RIDGE","NJ",7028,40.7878416300001,-74.214932212,374,"25 HAWTHORNE AVE, GLEN RIDGE, NJ, 7028","Match","Exact","25 HAWTHORNE AVE, GLEN RIDGE, NJ, 07028",646929932,"R"
137375,"25 HEALTH SCIENCES DRIVE  BOX 216","STONY BROOK","NY",11790,40.908761198,-73.112130834,375,"25 HEALTH SCIENCES DRIVE  BOX 216, STONY BROOK, NY, 11790","Match","Exact","25 HEALTH SCIENCES DR, STONY BROOK, NY, 11790",639312861,"L"
137376,"25 HEALTH SCIENCES DRIVE","STONY BROOK","NY",11790,40.908761198,-73.112130834,376,"25 HEALTH SCIENCES DRIVE, STONY BROOK, NY, 11790","Match","Exact","25 HEALTH SCIENCES DR, STONY BROOK, NY, 11790",639312861,"L"
137377,"25 HEALY CT","LANGHORNE","PA",19047,40.196524105,-74.933384109,377,"25 HEALY CT, LANGHORNE, PA, 19047","Match","Exact","25 HEALY CT, LANGHORNE, PA, 19047",134804165,"L"
137378,"25 HICKORY RIDGE DRIVE","GARDINER","NY",12525,41.668889478,-74.17046752,378,"25 HICKORY RIDGE DRIVE, GARDINER, NY, 12525","Match","Exact","25 HICKORY RIDGE DR, GARDINER, NY, 12525",41927307,"L"
137379,"25 HIGGINS DRIVE","MILFORD","CT",6460,41.2364144790001,-73.016842551,379,"25 HIGGINS DRIVE, MILFORD, CT, 6460","Match","Exact","25 HIGGINS DR, MILFORD, CT, 06460",3747455,"R"
137380,"25 HIGH ST","HUNTINGTON","NY",11743,40.8675792700001,-73.427368788,380,"25 HIGH ST, HUNTINGTON, NY, 11743","Match","Exact","25 HIGH ST, HUNTINGTON, NY, 11743",113962779,"L"
137381,"25 HIGHFIELD LANE","NORWELL","MA",2061,42.139628852,-70.818077575,381,"25 HIGHFIELD LANE, NORWELL, MA, 2061","Match","Exact","25 HIGHFIELD LN, NORWELL, MA, 02061",645621675,"L"
137382,"25 HIGHLAND PARK VILLAGE 100-805","DALLAS","TX",75205,32.836165039,-96.806350621,382,"25 HIGHLAND PARK VILLAGE 100-805, DALLAS, TX, 75205","Match","Exact","25 HIGHLAND PARK VILLAGE, DALLAS, TX, 75205",103235124,"L"
137383,"25 HIGHLAND PARK VLG - SUITE 472","DALLAS","TX",75205,32.836165039,-96.806350621,383,"25 HIGHLAND PARK VLG - SUITE 472, DALLAS, TX, 75205","Match","Exact","25 HIGHLAND PARK VILLAGE, DALLAS, TX, 75205",103235124,"L"
137384,"25 HIGHLAND PARK VLG","DALLAS","TX",75205,32.836165039,-96.806350621,384,"25 HIGHLAND PARK VLG, DALLAS, TX, 75205","Match","Exact","25 HIGHLAND PARK VILLAGE, DALLAS, TX, 75205",103235124,"L"
137385,"25 HIGHSPIRE ROAD","RICHBORO","PA",18954,40.231245718,-75.00268196,385,"25 HIGHSPIRE ROAD, RICHBORO, PA, 18954","Match","Exact","25 HIGHSPIRE RD, RICHBORO, PA, 18954",134708682,"L"
137386,"25 HIGHVIEW AVENUE","RYE BROOK","NY",10573,41.0013738270001,-73.681671246,386,"25 HIGHVIEW AVENUE, RYE BROOK, NY, 10573","Match","Exact","25 HIGHVIEW AVE, RYE BROOK, NY, 10573",139761910,"R"
137387,"25 HILL DRIVE","CRYSTAL LAKE","IL",60014,42.2355176020001,-88.319796767,387,"25 HILL DRIVE, CRYSTAL LAKE, IL, 60014","Match","Exact","25 HILL DR, CRYSTAL LAKE, IL, 60014",606268541,"R"
137388,"25 HILLSIDE AVENUE","NEW YORK","NY",10040,40.8589085830001,-73.930544087,388,"25 HILLSIDE AVENUE, NEW YORK, NY, 10040","Match","Exact","25 HILLSIDE AVE, NEW YORK, NY, 10040",59658806,"R"
137389,"25 HILLSIDE DRIVE","LANDER","WY",82520,42.8196522580001,-108.763693534,389,"25 HILLSIDE DRIVE, LANDER, WY, 82520","Match","Exact","25 HILLSIDE DR, LANDER, WY, 82520",653271154,"R"
137390,"25 HILLTOP ROAD","EDISON","NJ",8820,40.576951932,-74.34127599,390,"25 HILLTOP ROAD, EDISON, NJ, 8820","Match","Exact","25 HILLTOP RD, EDISON, NJ, 08820",60272714,"R"
137391,"25 HOLLOW CIRCLE","WEST WARWICK","RI",2893,41.6842426650001,-71.514119443,391,"25 HOLLOW CIRCLE, WEST WARWICK, RI, 2893","Match","Exact","25 HOLLOW CIR, WEST WARWICK, RI, 02893",159156298,"R"
137392,"25 HOOKS LANE SUITE 312","BALTIMORE","MD",21208,39.387856884,-76.734694094,392,"25 HOOKS LANE SUITE 312, BALTIMORE, MD, 21208","Match","Exact","25 HOOKS LN, BALTIMORE, MD, 21208",191506846,"R"
137393,"25 HOWARD STREET","ROCKVILLE CENTRE","NY",11570,40.669233084,-73.658069516,393,"25 HOWARD STREET, ROCKVILLE CENTRE, NY, 11570","Match","Exact","25 HOWARD ST, ROCKVILLE CENTRE, NY, 11570",147675411,"L"
137394,"25 HUDSON STREET SUITE 308","JERSEY CITY","NJ",7302,40.7126485370001,-74.03478647,394,"25 HUDSON STREET SUITE 308, JERSEY CITY, NJ, 7302","Match","Exact","25 HUDSON ST, JERSEY CITY, NJ, 07302",59616651,"L"
137395,"25 INDUSTRIAL PARK ROAD","MIDDLETOWN","CT",6457,41.5901442950001,-72.713623728,395,"25 INDUSTRIAL PARK ROAD, MIDDLETOWN, CT, 6457","Match","Non_Exact","25 INDUSTRIAL PARK PL, MIDDLETOWN, CT, 06457",610703767,"L"
137396,"25 INNIS AVE","POUGHKEEPSIE","NY",12601,41.6994651270001,-73.907696228,396,"25 INNIS AVE, POUGHKEEPSIE, NY, 12601","Match","Exact","25 INNIS AVE, POUGHKEEPSIE, NY, 12601",4168315,"R"
137397,"25 JACKSON INDUSTRIAL SUITE 500","ANN ARBOR","MI",48103,42.2888900950001,-83.844227065,397,"25 JACKSON INDUSTRIAL SUITE 500, ANN ARBOR, MI, 48103","Match","Non_Exact","25 JACKSON INDUSTRIAL DR, ANN ARBOR, MI, 48103",640611183,"L"
137398,"25 JACOBS GULCH","KELLOGG","ID",83837,47.5466013440001,-116.132042181,398,"25 JACOBS GULCH, KELLOGG, ID, 83837","Match","Non_Exact","25 JACOBS GULCH RD, KELLOGG, ID, 83837",203520169,"L"
137399,"25 JEFFERSON VALLEY","COATESVILLE","IN",46121,NA,NA,399,"25 JEFFERSON VALLEY, COATESVILLE, IN, 46121","Tie",NA,NA,NA,NA
137400,"25 JERICHO TPKE","JERICHO","NY",11753,40.785480267,-73.546968469,400,"25 JERICHO TPKE, JERICHO, NY, 11753","Match","Non_Exact","25 JERICHO PLZ, JERICHO, NY, 11753",147826725,"L"
137401,"25 JUDSON STREET","BEVERLY","MA",1915,42.5515194990001,-70.880751995,401,"25 JUDSON STREET, BEVERLY, MA, 1915","Match","Exact","25 JUDSON ST, BEVERLY, MA, 01915",86642486,"L"
137402,"25 JULIA MARIE CT","ELKTON","MD",21921,39.5629642170001,-75.797985908,402,"25 JULIA MARIE CT, ELKTON, MD, 21921","Match","Exact","25 JULIA MARIE CT, ELKTON, MD, 21921",633926793,"R"
137403,"25 KAREN RD","DANBURY","CT",6811,41.4340741660001,-73.4286068019999,403,"25 KAREN RD, DANBURY, CT, 6811","Match","Exact","25 KAREN RD, DANBURY, CT, 06811",618517033,"R"
137404,"25 KEITH DR","BATTLE CREEK","MI",49037,42.3472331240001,-85.181749441,404,"25 KEITH DR, BATTLE CREEK, MI, 49037","Match","Exact","25 KEITH DR, BATTLE CREEK, MI, 49037",633508553,"L"
137405,"25 KINGBIRD CT","COLUMBIA","SC",29229,34.1330050440001,-80.9408807029999,405,"25 KINGBIRD CT, COLUMBIA, SC, 29229","Match","Exact","25 KINGBIRD CT, COLUMBIA, SC, 29229",647343073,"R"
137406,"25 KINGDOM RD","WEST HAMLIN","WV",25571,NA,NA,406,"25 KINGDOM RD, WEST HAMLIN, WV, 25571","No_Match",NA,NA,NA,NA
137407,"25 KINGSBURY STREET","WEST PARIS","ME",4289,44.326052561,-70.570284558,407,"25 KINGSBURY STREET, WEST PARIS, ME, 4289","Match","Exact","25 KINGSBURY ST, WEST PARIS, ME, 04289",92658244,"R"
137408,"25 KINGSTON ST 6TH FLOOR","BOSTON","MA",2111,42.3536495210001,-71.059044576,408,"25 KINGSTON ST 6TH FLOOR, BOSTON, MA, 2111","Match","Exact","25 KINGSTON ST, BOSTON, MA, 02111",85732604,"R"
137409,"25 KNISKERN AVENUE","MECHANICVILLE","NY",12118,42.9010790070001,-73.698838729,409,"25 KNISKERN AVENUE, MECHANICVILLE, NY, 12118","Match","Exact","25 KNISKERN AVE, MECHANICVILLE, NY, 12118",18813733,"R"
137410,"25 KNOWLTON AVENUE","SHREWSBURY","MA",1545,42.2931492210001,-71.715154105,410,"25 KNOWLTON AVENUE, SHREWSBURY, MA, 1545","Match","Exact","25 KNOWLTON AVE, SHREWSBURY, MA, 01545",40013703,"L"
137411,"25 KRAEMER ST","HICKSVILLE","NY",11801,40.7655373270001,-73.517032511,411,"25 KRAEMER ST, HICKSVILLE, NY, 11801","Match","Exact","25 KRAEMER ST, HICKSVILLE, NY, 11801",147641334,"R"
137412,"25 LAKE INEZ DR","BELLEVILLE","IL",62221,38.537346643,-89.964479238,412,"25 LAKE INEZ DR, BELLEVILLE, IL, 62221","Match","Exact","25 LAKE INEZ DR, BELLEVILLE, IL, 62221",646294021,"L"
137413,"25 LANTERN WAY","PORTSMOUTH","VA",23703,36.864257821,-76.3587810659999,413,"25 LANTERN WAY, PORTSMOUTH, VA, 23703","Match","Exact","25 LANTERN WAY, PORTSMOUTH, VA, 23703",122198419,"R"
137414,"25 LAUGHLIN MILL ROAD","NEWVILLE","PA",17241,40.1719775070001,-77.392873003,414,"25 LAUGHLIN MILL ROAD, NEWVILLE, PA, 17241","Match","Exact","25 LAUGHLIN MILL RD, NEWVILLE, PA, 17241",221285593,"L"
137415,"25 LAWN AVENUE","MOUNT VERNON","OH",43050,40.3922915690001,-82.46814567,415,"25 LAWN AVENUE, MOUNT VERNON, OH, 43050","Match","Exact","25 LAWN AVE, MOUNT VERNON, OH, 43050",24617730,"R"
137416,"25 LESHIN LANE","HIGHTSTOWN","NJ",8520,40.2598216700001,-74.5297072079999,416,"25 LESHIN LANE, HIGHTSTOWN, NJ, 8520","Match","Exact","25 LESHIN LN, HIGHTSTOWN, NJ, 08520",651736297,"R"
137417,"25 LEWIS STREET","GREENWICH","CT",6830,41.028825397,-73.6256960279999,417,"25 LEWIS STREET, GREENWICH, CT, 6830","Match","Exact","25 LEWIS ST, GREENWICH, CT, 06830",3256716,"L"
137418,"25 LEWIS WAY","LYNCHBURG","VA",24502,37.328231144,-79.218746202,418,"25 LEWIS WAY, LYNCHBURG, VA, 24502","Match","Exact","25 LEWIS WAY, LYNCHBURG, VA, 24502",224271570,"R"
137419,"25 LIBERTY DRIVE UNIT 4205","CARTERSVILLE","GA",30120,NA,NA,419,"25 LIBERTY DRIVE UNIT 4205, CARTERSVILLE, GA, 30120","No_Match",NA,NA,NA,NA
137420,"25 LINCOLN CIRCLE","SWAMPSCOTT","MA",1907,42.4774096140001,-70.8845150769999,420,"25 LINCOLN CIRCLE, SWAMPSCOTT, MA, 1907","Match","Exact","25 LINCOLN CIR, SWAMPSCOTT, MA, 01907",86648080,"R"
137421,"25 LINDEN","WATERTOWN","CT",6779,41.5967237250001,-73.093944482,421,"25 LINDEN, WATERTOWN, CT, 6779","Match","Non_Exact","25 LINDEN ST, WATERTOWN, CT, 06779",3116538,"L"
137422,"25 LINDSLEY AVE","NASHVILLE","TN",37210,36.153332295,-86.766757903,422,"25 LINDSLEY AVE, NASHVILLE, TN, 37210","Match","Exact","25 LINDSLEY AVE, NASHVILLE, TN, 37210",647607209,"R"
137423,"25 LINWOOD PLACE","NORTH BRUNSWICK","NJ",8902,NA,NA,423,"25 LINWOOD PLACE, NORTH BRUNSWICK, NJ, 8902","No_Match",NA,NA,NA,NA
137424,"25 LOCUST AVENUE","DANBURY","CT",6810,41.4014641480001,-73.440744292,424,"25 LOCUST AVENUE, DANBURY, CT, 6810","Match","Exact","25 LOCUST AVE, DANBURY, CT, 06810",3232138,"R"
137425,"25 LOMBARD DRIVE","WEST CALDWELL","NJ",7006,40.8394908560001,-74.3079067319999,425,"25 LOMBARD DRIVE, WEST CALDWELL, NJ, 7006","Match","Exact","25 LOMBARD DR, W CALDWELL, NJ, 07006",63495087,"R"
137426,"25 LONGWOOD LN","COLUMBUS","NJ",8022,40.0797901510001,-74.7033971509999,426,"25 LONGWOOD LN, COLUMBUS, NJ, 8022","Match","Exact","25 LONGWOOD LN, COLUMBUS, NJ, 08022",633915240,"R"
137427,"25 LYNN DRIVE","TOMS RIVER","NJ",8753,39.9762400500001,-74.204982948,427,"25 LYNN DRIVE, TOMS RIVER, NJ, 8753","Match","Exact","25 LYNN DR, TOMS RIVER, NJ, 08753",203726498,"L"
137428,"25 MACRAE DRIVE","GROVE CITY","PA",16127,41.158072652,-80.113427013,428,"25 MACRAE DRIVE, GROVE CITY, PA, 16127","Match","Exact","25 MACRAE DR, GROVE CITY, PA, 16127",605387801,"R"
137429,"25 MAIN STREET - SUITE B","HASTINGS-ON-HUDSON","NY",10706,40.994230794,-73.881238299,429,"25 MAIN STREET - SUITE B, HASTINGS-ON-HUDSON, NY, 10706","Match","Exact","25 MAIN ST, HASTINGS ON HUDSON, NY, 10706",640547340,"L"
137430,"25 MAIN STREET SUITE 220","NORTHAMPTON","MA",1060,42.3197664520001,-72.629289776,430,"25 MAIN STREET SUITE 220, NORTHAMPTON, MA, 1060","Match","Exact","25 MAIN ST, NORTHAMPTON, MA, 01060",39849731,"R"
137431,"25 MAIN STREET SUITE 601","HACKENSACK","NJ",7601,40.8788948220001,-74.044435656,431,"25 MAIN STREET SUITE 601, HACKENSACK, NJ, 7601","Match","Exact","25 MAIN ST, HACKENSACK, NJ, 07601",64386408,"L"
137432,"25 MAIN STREET","GRAFTON","MA",1560,42.1771263200001,-71.684543549,432,"25 MAIN STREET, GRAFTON, MA, 1560","Match","Non_Exact","25 MAIN ST, SOUTH GRAFTON, MA, 01560",40021667,"L"
137433,"25 MAIN STREET","LANCASTER","NH",3584,44.4888109340001,-71.569499115,433,"25 MAIN STREET, LANCASTER, NH, 3584","Match","Exact","25 MAIN ST, LANCASTER, NH, 03584",635526487,"R"
137434,"25 MANAS DR","BELLEVILLE","IL",62226,38.530348668,-90.002570281,434,"25 MANAS DR, BELLEVILLE, IL, 62226","Match","Exact","25 MANAS DR, BELLEVILLE, IL, 62226",107841098,"R"
137435,"25 MAPLE ST","PLAINVILLE","CT",6062,41.670436984,-72.86266879,435,"25 MAPLE ST, PLAINVILLE, CT, 6062","Match","Exact","25 MAPLE ST, PLAINVILLE, CT, 06062",3508144,"R"
137436,"25 MARATHON AVE","DAYTON","OH",45405,39.7818998130001,-84.209055425,436,"25 MARATHON AVE, DAYTON, OH, 45405","Match","Exact","25 MARATHON AVE, DAYTON, OH, 45405",143569902,"R"
137437,"25 MARGARET CT","FAIRLAWN","NJ",7410,40.9287497,-74.0964039359999,437,"25 MARGARET CT, FAIRLAWN, NJ, 7410","Match","Non_Exact","25 MARGARET CT, FAIR LAWN, NJ, 07410",64381298,"R"
137438,"25 MARGETTS ROAD","MONSEY","NY",10977,41.092523425,-74.0708026999999,438,"25 MARGETTS ROAD, MONSEY, NY, 10977","Match","Non_Exact","25 MARGETTS RD, MONSEY, NY, 10952",124627478,"R"
137439,"25 MARKET STREET","EDISON","NJ",8817,40.501688662,-74.3953763,439,"25 MARKET STREET, EDISON, NJ, 8817","Match","Exact","25 MARKET ST, EDISON, NJ, 08817",647264489,"R"
137440,"25 MARTIN ROAD","COATESVILLE","PA",19320,39.929599986,-75.907016267,440,"25 MARTIN ROAD, COATESVILLE, PA, 19320","Match","Exact","25 MARTIN RD, COATESVILLE, PA, 19320",179525816,"L"
137441,"25 MASON DR","JACKSON","NJ",8527,40.1393254270001,-74.307093365,441,"25 MASON DR, JACKSON, NJ, 8527","Match","Exact","25 MASON DR, JACKSON, NJ, 08527",649719844,"R"
137442,"25 MASSIE COURT","SACRAMENTO","CA",95823,38.4758062350001,-121.422087573,442,"25 MASSIE COURT, SACRAMENTO, CA, 95823","Match","Exact","25 MASSIE CT, SACRAMENTO, CA, 95823",645238056,"R"
137443,"25 MATHEWSON DRIVE","WEYMOUTH","MA",2189,42.192646939,-70.932059221,443,"25 MATHEWSON DRIVE, WEYMOUTH, MA, 2189","Match","Exact","25 MATHEWSON DR, WEYMOUTH, MA, 02189",87307027,"R"
137444,"25 MAUCHLY SUITE 307","IRVINE","CA",92618,33.654691945,-117.734976063,444,"25 MAUCHLY SUITE 307, IRVINE, CA, 92618","Match","Exact","25 MAUCHLY, IRVINE, CA, 92618",629884068,"R"
137445,"25 MAYBURY RD","SUDBURY","NH",1776,NA,NA,445,"25 MAYBURY RD, SUDBURY, NH, 1776","No_Match",NA,NA,NA,NA
137446,"25 MCLEOD RD","PINEHURST","NC",28374,35.2019835040001,-79.45853672,446,"25 MCLEOD RD, PINEHURST, NC, 28374","Match","Exact","25 MCLEOD RD, PINEHURST, NC, 28374",20299112,"R"
137447,"25 MEADE DRIVE","NEWPORT NEWS","VA",23602,37.094476134,-76.540062577,447,"25 MEADE DRIVE, NEWPORT NEWS, VA, 23602","Match","Exact","25 MEADE DR, NEWPORT NEWS, VA, 23602",103751354,"L"
137448,"25 MEADOW STREET","WILLIMANTIC","CT",6226,41.71315213,-72.2134338349999,448,"25 MEADOW STREET, WILLIMANTIC, CT, 6226","Match","Exact","25 MEADOW ST, WILLIMANTIC, CT, 06226",650721347,"R"
137449,"25 MELANIE LANE","SYOSSET","NY",11791,40.8024790270001,-73.496257391,449,"25 MELANIE LANE, SYOSSET, NY, 11791","Match","Exact","25 MELANIE LN, SYOSSET, NY, 11791",147641806,"L"
137450,"25 MITCHELL AVE","E BRUNSWICK","NJ",8816,40.4756932860001,-74.3989343819999,450,"25 MITCHELL AVE, E BRUNSWICK, NJ, 8816","Match","Exact","25 MITCHELL AVE, E BRUNSWICK, NJ, 08816",60328770,"R"
137451,"25 MITCHELL PLACE","PELHAM MANOR","NY",10803,40.8982938290001,-73.805686341,451,"25 MITCHELL PLACE, PELHAM MANOR, NY, 10803","Match","Non_Exact","25 MITCHELL PL, PELHAM, NY, 10803",139750862,"L"
137452,"25 MIZZEN LN","PLYMOUTH","MA",2360,41.8297675470001,-70.602390273,452,"25 MIZZEN LN, PLYMOUTH, MA, 2360","Match","Exact","25 MIZZEN LN, PLYMOUTH, MA, 02360",87418197,"R"
137453,"25 MOHAWK DR","NORTH BABYLON","NY",11703,40.7367287170001,-73.318876119,453,"25 MOHAWK DR, NORTH BABYLON, NY, 11703","Match","Exact","25 MOHAWK DR, NORTH BABYLON, NY, 11703",113993040,"L"
137454,"25 MORAY PLACE","COVINGTON","GA",30014,33.5670702640001,-83.78593023,454,"25 MORAY PLACE, COVINGTON, GA, 30014","Match","Exact","25 MORAY PL, COVINGTON, GA, 30014",618470961,"R"
137455,"25 MORTON ST","GARNERVILLE","NY",10923,41.2045952140001,-73.9967072589999,455,"25 MORTON ST, GARNERVILLE, NY, 10923","Match","Exact","25 MORTON ST, GARNERVILLE, NY, 10923",124591034,"L"
137456,"25 MOUNTAINVIEW BLVD SUITE 202A","BASKING RIDGE","NJ",7920,NA,NA,456,"25 MOUNTAINVIEW BLVD SUITE 202A, BASKING RIDGE, NJ, 7920","No_Match",NA,NA,NA,NA
137457,"25 MSU FARM DR","MOREHEAD","KY",40351,NA,NA,457,"25 MSU FARM DR, MOREHEAD, KY, 40351","No_Match",NA,NA,NA,NA
137458,"25 MULBERRY ST","SICKLERVILLE","NJ",8081,39.740770162,-75.012118572,458,"25 MULBERRY ST, SICKLERVILLE, NJ, 8081","Match","Exact","25 MULBERRY ST, SICKLERVILLE, NJ, 08081",134419831,"L"
137459,"25 MUNCH ROAD","RED BANK","NJ",7701,40.3589421230001,-74.1015075939999,459,"25 MUNCH ROAD, RED BANK, NJ, 7701","Match","Exact","25 MUNCH RD, RED BANK, NJ, 07701",90451579,"L"
137460,"25 MYRTLE LANE","CORAM","NY",11727,40.88344692,-72.983980506,460,"25 MYRTLE LANE, CORAM, NY, 11727","Match","Exact","25 MYRTLE LN, CORAM, NY, 11727",114011002,"R"
137461,"25 N 11 STREET","ALLENTOWN","PA",18101,40.600796904,-75.480210168,461,"25 N 11 STREET, ALLENTOWN, PA, 18101","Match","Exact","25 N 11TH ST, ALLENTOWN, PA, 18101",80770028,"R"
137462,"25 N 3RD ST  SUITE 100","ZANESVILLE","OH",43701,NA,NA,462,"25 N 3RD ST  SUITE 100, ZANESVILLE, OH, 43701","Tie",NA,NA,NA,NA
137463,"25 N 3RD ST SUITE 100","ZANESVILLE","OH",43701,NA,NA,463,"25 N 3RD ST SUITE 100, ZANESVILLE, OH, 43701","Tie",NA,NA,NA,NA
137464,"25 N ADAMS ST","POTTSTOWN","PA",19464,40.2448683010001,-75.638580857,464,"25 N ADAMS ST, POTTSTOWN, PA, 19464","Match","Exact","25 N ADAMS ST, POTTSTOWN, PA, 19464",135062152,"L"
137465,"25 N APPLE ST","LAKEWOOD","NJ",8701,40.10632242,-74.202599777,465,"25 N APPLE ST, LAKEWOOD, NJ, 8701","Match","Exact","25 N APPLE ST, LAKEWOOD, NJ, 08701",203761285,"L"
137466,"25 N CHURCH ST","MADISONVILLE","KY",42431,37.3294729200001,-87.505896391,466,"25 N CHURCH ST, MADISONVILLE, KY, 42431","Match","Exact","25 N CHURCH ST, MADISONVILLE, KY, 42431",11502333,"L"
137467,"25 N FORTY RD","WOODBURY","CT",6798,41.5528292590001,-73.231364229,467,"25 N FORTY RD, WOODBURY, CT, 6798","Match","Exact","25 N FORTY RD, WOODBURY, CT, 06798",611474282,"L"
137468,"25 N FRANKLIN ST","BLOOMFIELD","IN",47424,39.027047404,-86.9384960579999,468,"25 N FRANKLIN ST, BLOOMFIELD, IN, 47424","Match","Exact","25 N FRANKLIN ST, BLOOMFIELD, IN, 47424",39298176,"R"
137469,"25 N MAIN STREET","HEBER","UT",84032,40.508023231,-111.413488773,469,"25 N MAIN STREET, HEBER, UT, 84032","Match","Non_Exact","25 N MAIN ST, HEBER CITY, UT, 84032",177184092,"L"
137470,"25 N MARKET STREET SUITE 250","JACKSONVILLE","FL",32202,30.3256632910001,-81.6542878719999,470,"25 N MARKET STREET SUITE 250, JACKSONVILLE, FL, 32202","Match","Exact","25 MARKET ST, JACKSONVILLE, FL, 32202",83899862,"R"
137471,"25 N PARKSIDE AVENUE","CHICAGO","IL",60644,41.880919207,-87.766517328,471,"25 N PARKSIDE AVENUE, CHICAGO, IL, 60644","Match","Exact","25 N PARKSIDE AVE, CHICAGO, IL, 60644",605051280,"R"
137472,"25 N RAILROAD","SHELBURN","IN",47879,39.1781195460001,-87.393165041,472,"25 N RAILROAD, SHELBURN, IN, 47879","Match","Non_Exact","25 N RAILROAD ST, SHELBURN, IN, 47879",27072469,"R"
137473,"25 N WASHINGTON ST","ROCHESTER","NY",14614,43.155163874,-77.6173418549999,473,"25 N WASHINGTON ST, ROCHESTER, NY, 14614","Match","Exact","25 N WASHINGTON ST, ROCHESTER, NY, 14614",639158683,"L"
137474,"25 N33RD STREET","PHILADELPHIA","PA",19104,NA,NA,474,"25 N33RD STREET, PHILADELPHIA, PA, 19104","No_Match",NA,NA,NA,NA
137475,"25 NAPLES AVE REAR","SAUGUS","MA",1906,42.4463809710001,-70.9949018579999,475,"25 NAPLES AVE REAR, SAUGUS, MA, 1906","Match","Exact","25 NAPLES AVE, SAUGUS, MA, 01906",86637423,"R"
137476,"25 NE 2ND STREET","MIAMI","FL",33132,25.7760925760001,-80.193227743,476,"25 NE 2ND STREET, MIAMI, FL, 33132","Match","Exact","25 NE 2ND ST, MIAMI, FL, 33132",116018412,"L"
137477,"25 NEW YORK AVENUE","ROCHESTER","PA",15074,40.699017128,-80.2804989379999,477,"25 NEW YORK AVENUE, ROCHESTER, PA, 15074","Match","Exact","25 NEW YORK AVE, ROCHESTER, PA, 15074",52564937,"R"
137478,"25 NEWARK AVE","GOOSE CREEK","SC",29445,32.975854763,-80.008039421,478,"25 NEWARK AVE, GOOSE CREEK, SC, 29445","Match","Exact","25 NEWARK AVE, GOOSE CREEK, SC, 29445",100746730,"R"
137479,"25 NEWPORT COURT","STERLING","VA",20164,39.0434295900001,-77.375102985,479,"25 NEWPORT COURT, STERLING, VA, 20164","Match","Exact","25 NEWPORT CT, STERLING, VA, 20164",62327686,"L"
137480,"25 NIMROD ROAD","WEST SIMSBURY","CT",6092,41.861543096,-72.8643756929999,480,"25 NIMROD ROAD, WEST SIMSBURY, CT, 6092","Match","Exact","25 NIMROD RD, WEST SIMSBURY, CT, 06092",3483149,"R"
137481,"25 NORMAN DR","RYE","NY",10580,40.949040784,-73.7106754929999,481,"25 NORMAN DR, RYE, NY, 10580","Match","Exact","25 NORMAN DR, RYE, NY, 10580",139843708,"L"
137482,"25 NORMANS FORD  DRIVE","SICKLERVILLE","NJ",8081,39.7551779840001,-74.97089048,482,"25 NORMANS FORD  DRIVE, SICKLERVILLE, NJ, 8081","Match","Exact","25 NORMANS FORD DR, SICKLERVILLE, NJ, 08081",134379155,"L"
137483,"25 NORTH 14TH STREET - SUITE 505","SAN JOSE","CA",95112,37.3429457080001,-121.877503376,483,"25 NORTH 14TH STREET - SUITE 505, SAN JOSE, CA, 95112","Match","Exact","25 N 14TH ST, SAN JOSE, CA, 95112",122908604,"L"
137484,"25 NORTH 98TH STREET","BELLEVILLE","IL",62223,38.5799955630001,-90.05461796,484,"25 NORTH 98TH STREET, BELLEVILLE, IL, 62223","Match","Exact","25 N 98TH ST, BELLEVILLE, IL, 62223",107932237,"L"
137485,"25 NORTH BRIDGE STREET","SOMERVILLE","NJ",8876,40.5687535600001,-74.61156174,485,"25 NORTH BRIDGE STREET, SOMERVILLE, NJ, 8876","Match","Exact","25 N BRIDGE ST, SOMERVILLE, NJ, 08876",59938092,"L"
137486,"25 NORTH BROWING AVENUE","TENAFLY","NJ",7670,NA,NA,486,"25 NORTH BROWING AVENUE, TENAFLY, NJ, 7670","No_Match",NA,NA,NA,NA
137487,"25 NORTH CENTRAL AVE","STAUNTON","VA",24401,38.149709118,-79.073720962,487,"25 NORTH CENTRAL AVE, STAUNTON, VA, 24401","Match","Exact","25 N CENTRAL AVE, STAUNTON, VA, 24401",98814215,"R"
137488,"25 NORTH COURT STREET","HARRISBURG","PA",17101,40.2608316700001,-76.8821954379999,488,"25 NORTH COURT STREET, HARRISBURG, PA, 17101","Match","Exact","25 N COURT ST, HARRISBURG, PA, 17101",70817726,"R"
137489,"25 NORTH FRANKLIN ST","PALMYRA","PA",17078,40.3108906670001,-76.5901923389999,489,"25 NORTH FRANKLIN ST, PALMYRA, PA, 17078","Match","Exact","25 N FRANKLIN ST, PALMYRA, PA, 17078",80691406,"L"
137490,"25 NORTH MAIN STREET","WESTFORD","MA",1886,42.594518093,-71.467559576,490,"25 NORTH MAIN STREET, WESTFORD, MA, 1886","Match","Exact","25 N MAIN ST, WESTFORD, MA, 01886",86895026,"L"
137491,"25 NORTH MARKET STREET","JACKSONVILLE","FL",32202,NA,NA,491,"25 NORTH MARKET STREET, JACKSONVILLE, FL, 32202","Tie",NA,NA,NA,NA
137492,"25 NORTH SUMNER AVENUE","NEWCASTLE","WY",82701,43.8555583360001,-104.20334811,492,"25 NORTH SUMNER AVENUE, NEWCASTLE, WY, 82701","Match","Exact","25 N SUMNER AVE, NEWCASTLE, WY, 82701",147492364,"R"
137493,"25 NORTONTOWN ROAD","MADISON","CT",6443,41.289066001,-72.626822585,493,"25 NORTONTOWN ROAD, MADISON, CT, 6443","Match","Exact","25 NORTONTOWN RD, MADISON, CT, 06443",3709566,"L"
137494,"25 NUNNERY LN","CATONSVILLE","MD",21228,39.2774362600001,-76.714684236,494,"25 NUNNERY LN, CATONSVILLE, MD, 21228","Match","Exact","25 NUNNERY LN, CATONSVILLE, MD, 21228",191556740,"R"
137495,"25 NW 23RD PLACE SUITE 6 287","PORTLAND","OR",97210,45.5237971830001,-122.699979651,495,"25 NW 23RD PLACE SUITE 6 287, PORTLAND, OR, 97210","Match","Non_Exact","25 NW 23RD PL, PORTLAND, OR, 97210",157573296,"L"
137496,"25 OAKHAM RD","N BROOKFIELD","MA",1535,42.280813757,-72.076513748,496,"25 OAKHAM RD, N BROOKFIELD, MA, 1535","Match","Exact","25 OAKHAM RD, NORTH BROOKFIELD, MA, 01535",39996936,"L"
137497,"25 OAKLAND AVENUE","WHEELING","WV",26003,40.05088471,-80.6620911529999,497,"25 OAKLAND AVENUE, WHEELING, WV, 26003","Match","Exact","25 OAKLAND AVE, WHEELING, WV, 26003",38104398,"L"
137498,"25 OCELET PLACE","RENO","NV",89511,39.414248075,-119.782525499,498,"25 OCELET PLACE, RENO, NV, 89511","Match","Exact","25 OCELET PL, RENO, NV, 89511",107074892,"L"
137499,"25 OLD KINGS RD N STE A5","PALM COAST","FL",32137,NA,NA,499,"25 OLD KINGS RD N STE A5, PALM COAST, FL, 32137","No_Match",NA,NA,NA,NA
137500,"25 OLDE PRESTWICK WAY","PENFIELD","NY",14526,43.118904442,-77.4555881169999,500,"25 OLDE PRESTWICK WAY, PENFIELD, NY, 14526","Match","Exact","25 OLDE PRESTWICK WAY, PENFIELD, NY, 14526",14562506,"L"
