"ID","Address","City","State","Zip","lat","long","id","input_address","match_indicator","match_type","matched_address","tiger_line_id","tiger_side"
213501,"44 KONTIKI CIRCLE","ST AUGUSTINE","FL",32080,29.7902087030001,-81.264208475,1,"44 KONTIKI CIRCLE, ST AUGUSTINE, FL, 32080","Match","Non_Exact","44 KON TIKI CIR, SAINT AUGUSTINE, FL, 32080",92594129,"R"
213502,"44 LAKE CROSSING COURT","FAYETTEVILLE","GA",30215,33.4375654450001,-84.3911650639999,2,"44 LAKE CROSSING COURT, FAYETTEVILLE, GA, 30215","Match","Exact","44 LAKE CROSSING CT, FAYETTEVILLE, GA, 30215",637368654,"L"
213503,"44 LAKE STREET","LE ROY","NY",14482,42.980759892,-77.992270479,3,"44 LAKE STREET, LE ROY, NY, 14482","Match","Exact","44 LAKE ST, LE ROY, NY, 14482",48155910,"L"
213504,"44 LAKES AT CHESHIRE DR","DELAWARE","OH",43015,40.2433837390001,-83.049820892,4,"44 LAKES AT CHESHIRE DR, DELAWARE, OH, 43015","Match","Exact","44 LAKES AT CHESHIRE DR, DELAWARE, OH, 43015",619928746,"R"
213505,"44 LANDAU ROAD","PLAINVILLE","MA",2762,42.0162387290001,-71.2918717219999,5,"44 LANDAU ROAD, PLAINVILLE, MA, 2762","Match","Exact","44 LANDAU RD, PLAINVILLE, MA, 02762",87282019,"L"
213506,"44 LAUREL WAY","WHITE","GA",30184,34.234974419,-84.7542440289999,6,"44 LAUREL WAY, WHITE, GA, 30184","Match","Exact","44 LAUREL WAY, WHITE, GA, 30184",30470195,"L"
213507,"44 LEE ST","PAW PAW","WV",25434,39.5329491040001,-78.457729063,7,"44 LEE ST, PAW PAW, WV, 25434","Match","Exact","44 LEE ST, PAW PAW, WV, 25434",627489020,"L"
213508,"44 LEROY AVE","VALHALLA","NY",10595,41.0848902110001,-73.7820331039999,8,"44 LEROY AVE, VALHALLA, NY, 10595","Match","Exact","44 LEROY AVE, VALHALLA, NY, 10595",139736165,"R"
213509,"44 LEWIS AVE APT 2J","BROOKLYN","NY",11206,40.696455056,-73.9377463019999,9,"44 LEWIS AVE APT 2J, BROOKLYN, NY, 11206","Match","Exact","44 LEWIS AVE, BROOKLYN, NY, 11206",652212676,"R"
213510,"44 LOCUST STREET","MERRIMAC","MA",1860,42.824668977,-71.0011407499999,10,"44 LOCUST STREET, MERRIMAC, MA, 1860","Match","Exact","44 LOCUST ST, MERRIMAC, MA, 01860",86618774,"L"
213511,"44 LOGANSPORT COURT","MONTGOMERY","TX",77356,30.4316403060001,-95.619246656,11,"44 LOGANSPORT COURT, MONTGOMERY, TX, 77356","Match","Exact","44 LOGANSPORT CT, MONTGOMERY, TX, 77356",79315060,"R"
213512,"44 LONDON COURT","MERRIMACK","NH",3054,42.875765518,-71.486138102,12,"44 LONDON COURT, MERRIMACK, NH, 3054","Match","Exact","44 LONDON CT, MERRIMACK, NH, 03054",113555228,"R"
213513,"44 LONG BEACH 3","ROCKPORT","MA",1966,42.629333301,-70.619318661,13,"44 LONG BEACH 3, ROCKPORT, MA, 1966","Match","Exact","44 LONG BEACH, ROCKPORT, MA, 01966",86634174,"R"
213514,"44 LUMBERJACK LANE","PINE GROVE","WV",26419,39.564612305,-80.678212835,14,"44 LUMBERJACK LANE, PINE GROVE, WV, 26419","Match","Exact","44 LUMBERJACK LN, PINE GROVE, WV, 26419",51585177,"R"
213515,"44 LYNAM ROAD","STAMFORD","CT",6903,41.1164953680001,-73.567564782,15,"44 LYNAM ROAD, STAMFORD, CT, 6903","Match","Exact","44 LYNAM RD, STAMFORD, CT, 06903",3274869,"L"
213516,"44 LYNN CT","BOGOTA","NJ",7603,40.883543972,-74.032830024,16,"44 LYNN CT, BOGOTA, NJ, 7603","Match","Exact","44 LYNN CT, BOGOTA, NJ, 07603",64388606,"L"
213517,"44 MAIN STREET","SAXTONS RIVER","VT",5154,43.1383796700001,-72.508817589,17,"44 MAIN STREET, SAXTONS RIVER, VT, 5154","Match","Exact","44 MAIN ST, SAXTONS RIVER, VT, 05154",171105975,"R"
213518,"44 MAIN STREET","SPERRYVILLE","VA",22740,38.6579105330001,-78.227590619,18,"44 MAIN STREET, SPERRYVILLE, VA, 22740","Match","Exact","44 MAIN ST, SPERRYVILLE, VA, 22740",29938689,"R"
213519,"44 MAPLE STREET SUITE 1","DANVERS","MA",1923,42.566664695,-70.9366157109999,19,"44 MAPLE STREET SUITE 1, DANVERS, MA, 1923","Match","Exact","44 MAPLE ST, DANVERS, MA, 01923",86639423,"L"
213520,"44 MARBLE AVENUE NUMBER 2","BURLINGTON","VT",5401,44.4690512600001,-73.213099826,20,"44 MARBLE AVENUE NUMBER 2, BURLINGTON, VT, 5401","Match","Exact","44 MARBLE AVE, BURLINGTON, VT, 05401",135828019,"L"
213521,"44 MARGARET DRIVE","SOMERSET","NJ",8873,40.4906498190001,-74.5264036419999,21,"44 MARGARET DRIVE, SOMERSET, NJ, 8873","Match","Exact","44 MARGARET DR, SOMERSET, NJ, 08873",59968159,"L"
213522,"44 MARION ST","QUINCY","MA",2170,42.2628563380001,-71.021033342,22,"44 MARION ST, QUINCY, MA, 2170","Match","Exact","44 MARION ST, QUINCY, MA, 02170",87249243,"L"
213523,"44 MARION STREET","QUINCY","MA",2170,42.2628563380001,-71.021033342,23,"44 MARION STREET, QUINCY, MA, 2170","Match","Exact","44 MARION ST, QUINCY, MA, 02170",87249243,"L"
213524,"44 MARKET STREET","PASSAIC","NJ",7055,40.8626578600001,-74.116308838,24,"44 MARKET STREET, PASSAIC, NJ, 7055","Match","Exact","44 MARKET ST, PASSAIC, NJ, 07055",65249632,"R"
213525,"44 MARSHALL STREET","MEDFORD","MA",2155,42.4149294950001,-71.122305464,25,"44 MARSHALL STREET, MEDFORD, MA, 2155","Match","Exact","44 MARSHALL ST, MEDFORD, MA, 02155",86855825,"L"
213526,"44 MARYLAND AVE APT 1001","ROCKVILLE","MD",20850,39.0849917210001,-77.150941425,26,"44 MARYLAND AVE APT 1001, ROCKVILLE, MD, 20850","Match","Exact","44 MARYLAND AVE, ROCKVILLE, MD, 20850",62106332,"R"
213527,"44 MCKAY DRIVE","EXETER","NH",3833,NA,NA,27,"44 MCKAY DRIVE, EXETER, NH, 3833","No_Match",NA,NA,NA,NA
213528,"44 MELWAY CIRCLE","MONTEREY","CA",93940,36.596805498,-121.850860627,28,"44 MELWAY CIRCLE, MONTEREY, CA, 93940","Match","Exact","44 MELWAY CIR, MONTEREY, CA, 93940",196821026,"R"
213529,"44 MELWOOD COURT","SICKLERVILLE","NJ",8081,39.703684679,-74.95216858,29,"44 MELWOOD COURT, SICKLERVILLE, NJ, 8081","Match","Exact","44 MELWOOD CT, SICKLERVILLE, NJ, 08081",134421994,"R"
213530,"44 MILTON AVE","ALPHARETTA","GA",30004,34.0756271820001,-84.295946336,30,"44 MILTON AVE, ALPHARETTA, GA, 30004","Match","Non_Exact","44 MILTON AVE, ALPHARETTA, GA, 30009",17388590,"L"
213531,"44 MINE RD STE 2 PMB 189","STAFFORD","VA",22554,38.4689377560001,-77.4172529319999,31,"44 MINE RD STE 2 PMB 189, STAFFORD, VA, 22554","Match","Exact","44 MINE RD, STAFFORD, VA, 22554",636655490,"L"
213532,"44 MINE ROAD - SUITE 2 BOX 213","STAFFORD","VA",22554,38.4689377560001,-77.4172529319999,32,"44 MINE ROAD - SUITE 2 BOX 213, STAFFORD, VA, 22554","Match","Exact","44 MINE RD, STAFFORD, VA, 22554",636655490,"L"
213533,"44 MINE ROAD SUITE 2-169","STAFFORD","VA",22554,38.4689377560001,-77.4172529319999,33,"44 MINE ROAD SUITE 2-169, STAFFORD, VA, 22554","Match","Exact","44 MINE RD, STAFFORD, VA, 22554",636655490,"L"
213534,"44 MOBILE LANE","ONTARIO","OR",97914,44.0225690940001,-116.991706935,34,"44 MOBILE LANE, ONTARIO, OR, 97914","Match","Exact","44 MOBILE LN, ONTARIO, OR, 97914",138642626,"L"
213535,"44 MOCKINGBIRD WAY","MEDFORD","NJ",8055,39.857218577,-74.764122045,35,"44 MOCKINGBIRD WAY, MEDFORD, NJ, 8055","Match","Exact","44 MOCKINGBIRD WAY, MEDFORD, NJ, 08055",134073505,"L"
213536,"44 MOLASSES HILL ROAD","BROOKFIELD","MA",1506,42.180180643,-72.114032483,36,"44 MOLASSES HILL ROAD, BROOKFIELD, MA, 1506","Match","Exact","44 MOLASSES HILL RD, BROOKFIELD, MA, 01506",636370703,"R"
213537,"44 MONROE ST        4","OSWEGO","IL",60543,41.6834266120001,-88.349647778,37,"44 MONROE ST        4, OSWEGO, IL, 60543","Match","Exact","44 MONROE ST, OSWEGO, IL, 60543",54484233,"R"
213538,"44 MONTGOMERY STREET SUITE 4250","SAN FRANCISCO","CA",94104,37.7896147050001,-122.402092862,38,"44 MONTGOMERY STREET SUITE 4250, SAN FRANCISCO, CA, 94104","Match","Exact","44 MONTGOMERY ST, SAN FRANCISCO, CA, 94104",192281403,"R"
213539,"44 MYSTIC VIEW LANE","DOYLESTOWN","PA",18901,40.3114340990001,-75.1867558339999,39,"44 MYSTIC VIEW LANE, DOYLESTOWN, PA, 18901","Match","Exact","44 MYSTIC VIEW LN, DOYLESTOWN, PA, 18901",134743732,"R"
213540,"44 N 2ND STREET SUITE 800","MEMPHIS","TN",38103,NA,NA,40,"44 N 2ND STREET SUITE 800, MEMPHIS, TN, 38103","Tie",NA,NA,NA,NA
213541,"44 N BROAD UNIT 534","CANFIELD","OH",44406,NA,NA,41,"44 N BROAD UNIT 534, CANFIELD, OH, 44406","No_Match",NA,NA,NA,NA
213542,"44 N CHAMPLAIN ST APT 2","BURLINGTON","VT",5401,44.481785061,-73.2175255939999,42,"44 N CHAMPLAIN ST APT 2, BURLINGTON, VT, 5401","Match","Non_Exact","44 N CHAMPLAIN ST, BURLINGTON, VT, 05401",135827231,"R"
213543,"44 N EDGEWATER AVE","YARDLEY","PA",19067,40.24537787,-74.8408751969999,43,"44 N EDGEWATER AVE, YARDLEY, PA, 19067","Match","Exact","44 N EDGEWATER AVE, YARDLEY, PA, 19067",134804702,"R"
213544,"44 NASSAU STREET UNIT E","PRINCETON","NJ",8542,40.3491558590001,-74.661641486,44,"44 NASSAU STREET UNIT E, PRINCETON, NJ, 8542","Match","Exact","44 NASSAU ST, PRINCETON, NJ, 08542",60170804,"L"
213545,"44 NE MEIKLE PLACE","PORTLAND","OR",97213,45.523445661,-122.619014709,45,"44 NE MEIKLE PLACE, PORTLAND, OR, 97213","Match","Exact","44 NE MEIKLE PL, PORTLAND, OR, 97213",157511839,"R"
213546,"44 NEAL COVE","BRYANT","AR",72022,34.612651333,-92.488182712,46,"44 NEAL COVE, BRYANT, AR, 72022","Match","Exact","44 NEAL COVE, BRYANT, AR, 72022",24202005,"R"
213547,"44 NEETA TRL","MEDFORD LAKES","NJ",8055,39.865981359,-74.805231447,47,"44 NEETA TRL, MEDFORD LAKES, NJ, 8055","Match","Exact","44 NEETA TRL, MEDFORD LAKES, NJ, 08055",635444646,"R"
213548,"44 NEW SHAKER ROAD","ALBANY","NY",12205,42.7522007410001,-73.860422117,48,"44 NEW SHAKER ROAD, ALBANY, NY, 12205","Match","Exact","44 NEW SHAKER RD, ALBANY, NY, 12205",18363890,"L"
213549,"44 NOBSCUSSET ROAD","DENNIS","MA",2638,41.7380668870001,-70.196480768,49,"44 NOBSCUSSET ROAD, DENNIS, MA, 2638","Match","Non_Exact","44 NOBSCUSSETT RD, DENNIS, MA, 02638",646674027,"R"
213550,"44 NORTH 9TH ST","EASTON","PA",18042,40.6917502140001,-75.22111825,50,"44 NORTH 9TH ST, EASTON, PA, 18042","Match","Exact","44 N 9TH ST, EASTON, PA, 18042",136882816,"L"
213551,"44 NORTH FOREST AVENUE","GENEVA","OH",44041,41.8065902390001,-80.945963315,51,"44 NORTH FOREST AVENUE, GENEVA, OH, 44041","Match","Non_Exact","44 N FOREST ST, GENEVA, OH, 44041",638792608,"L"
213552,"44 NORTH SPRING STREET","BLOOMFIELD","NJ",7003,40.807293026,-74.1882256379999,52,"44 NORTH SPRING STREET, BLOOMFIELD, NJ, 7003","Match","Exact","44 N SPRING ST, BLOOMFIELD, NJ, 07003",63452750,"R"
213553,"44 NORTHWOODS ROAD","OCEAN TWP","NJ",7712,40.2542673930001,-74.0679149109999,53,"44 NORTHWOODS ROAD, OCEAN TWP, NJ, 7712","Match","Non_Exact","44 NORTHWOODS RD, OCEAN, NJ, 07712",601459192,"L"
213554,"44 OGLE ROAD","OLD TAPPAN","NJ",7675,41.0268283950001,-73.9806134299999,54,"44 OGLE ROAD, OLD TAPPAN, NJ, 7675","Match","Exact","44 OGLE RD, OLD TAPPAN, NJ, 07675",64369787,"L"
213555,"44 ORANGE STREET APT 714","NEW HAVEN","CT",6510,NA,NA,55,"44 ORANGE STREET APT 714, NEW HAVEN, CT, 6510","No_Match",NA,NA,NA,NA
213556,"44 PAKANI STREET","MAKAWAO","HI",96768,20.848382859,-156.317321166,56,"44 PAKANI STREET, MAKAWAO, HI, 96768","Match","Non_Exact","44 PAKANI PL, MAKAWAO, HI, 96768",85089111,"R"
213557,"44 PALMER ST","SOMERSET","MA",2726,41.773652844,-71.126468858,57,"44 PALMER ST, SOMERSET, MA, 2726","Match","Exact","44 PALMER ST, SOMERSET, MA, 02726",46807661,"R"
213558,"44 PARK STREET","HOLLAND","NY",14080,42.643866991,-78.5432756929999,58,"44 PARK STREET, HOLLAND, NY, 14080","Match","Exact","44 PARK ST, HOLLAND, NY, 14080",48278482,"L"
213559,"44 PARKENSON ROAD","NEW BLOOMFIELD","PA",17068,40.366350201,-77.199841394,59,"44 PARKENSON ROAD, NEW BLOOMFIELD, PA, 17068","Match","Exact","44 PARKENSON RD, NEW BLOOMFIELD, PA, 17068",61083691,"L"
213560,"44 PARKER STREET","BROCKTON","MA",2302,42.0885404580001,-71.008383507,60,"44 PARKER STREET, BROCKTON, MA, 2302","Match","Exact","44 PARKER ST, BROCKTON, MA, 02302",87442700,"L"
213561,"44 PARKWAY COMMONS WAY","GREER","SC",29650,34.8698632110001,-82.251642948,61,"44 PARKWAY COMMONS WAY, GREER, SC, 29650","Match","Exact","44 PARKWAY COMMONS WAY, GREER, SC, 29650",640764894,"R"
213562,"44 PIERREPONT AVE THE CRANE SCHOOL","POTTSDAM","NY",13676,44.6630525350001,-74.978068696,62,"44 PIERREPONT AVE THE CRANE SCHOOL, POTTSDAM, NY, 13676","Match","Non_Exact","44 PIERREPONT AVE, POTSDAM, NY, 13676",155160292,"R"
213563,"44 PINE GROVE ROAD","BERKELEY HEIGHTS","NJ",7922,40.674953757,-74.4277582889999,63,"44 PINE GROVE ROAD, BERKELEY HEIGHTS, NJ, 7922","Match","Exact","44 PINE GROVE RD, BERKELEY HEIGHTS, NJ, 07922",60564128,"L"
213564,"44 PONDEROSA LN","MIDWAY","FL",32343,30.5097653670001,-84.47491688,64,"44 PONDEROSA LN, MIDWAY, FL, 32343","Match","Exact","44 PONDEROSA LN, MIDWAY, FL, 32343",601468525,"R"
213565,"44 PORTUGUESE BEND ROAD","ROLLING HILLS","CA",90274,33.7569066020001,-118.35025663,65,"44 PORTUGUESE BEND ROAD, ROLLING HILLS, CA, 90274","Match","Exact","44 PORTUGUESE BEND RD, ROLLING HILLS, CA, 90274",142769120,"L"
213566,"44 PROSPECT LAKE ROAD","NORTH EGREMONT","MA",1230,42.1938446930001,-73.448389161,66,"44 PROSPECT LAKE ROAD, NORTH EGREMONT, MA, 1230","Match","Exact","44 PROSPECT LAKE RD, N EGREMONT, MA, 01230",636379299,"L"
213567,"44 PUTTERS WAY","MIDDLETOWN","NY",10940,41.4318235000001,-74.3784072569999,67,"44 PUTTERS WAY, MIDDLETOWN, NY, 10940","Match","Exact","44 PUTTERS WAY, MIDDLETOWN, NY, 10940",619673831,"R"
213568,"44 QUAIL FOREST DRIVE","SAVANNAH","GA",31419,31.994267703,-81.157444044,68,"44 QUAIL FOREST DRIVE, SAVANNAH, GA, 31419","Match","Exact","44 QUAIL FOREST DR, SAVANNAH, GA, 31419",6210108,"R"
213569,"44 RED LEAF RD","MOORESTOWN","NJ",8057,39.9676002470001,-74.980555366,69,"44 RED LEAF RD, MOORESTOWN, NJ, 8057","Match","Exact","44 RED LEAF RD, MOORESTOWN, NJ, 08057",134058076,"R"
213570,"44 RICHARDSON STREET","BRIDGEPORT","CT",6610,41.2060046330001,-73.185470239,70,"44 RICHARDSON STREET, BRIDGEPORT, CT, 6610","Match","Exact","44 RICHARDSON ST, BRIDGEPORT, CT, 06610",3224565,"R"
213571,"44 RIVER ROAD","WESTON","MA",2493,42.346465145,-71.263292921,71,"44 RIVER ROAD, WESTON, MA, 2493","Match","Exact","44 RIVER RD, WESTON, MA, 02493",86934398,"L"
213572,"44 RIVERVIEW WAY","TIFTON","GA",31793,31.388052014,-83.5277521149999,72,"44 RIVERVIEW WAY, TIFTON, GA, 31793","Match","Exact","44 RIVERVIEW WAY, TIFTON, GA, 31793",87785225,"R"
213573,"44 ROBINSON STREET","NEW LONDON","CT",6320,41.3432822780001,-72.102141881,73,"44 ROBINSON STREET, NEW LONDON, CT, 6320","Match","Exact","44 ROBINSON ST, NEW LONDON, CT, 06320",56851263,"L"
213574,"44 ROSS AVE","COLUMBUS","GA",31903,32.4094007350001,-84.944542456,74,"44 ROSS AVE, COLUMBUS, GA, 31903","Match","Exact","44 ROSS AVE, COLUMBUS, GA, 31903",98942492,"L"
213575,"44 RYERSON AVENUE","NEWTON","NJ",7860,41.0509505960001,-74.758406241,75,"44 RYERSON AVENUE, NEWTON, NJ, 7860","Match","Exact","44 RYERSON AVE, NEWTON, NJ, 07860",98028147,"L"
213576,"44 S FRANKLIN STREET","BLOOMFIELD","IN",47424,39.026357718,-86.938484691,76,"44 S FRANKLIN STREET, BLOOMFIELD, IN, 47424","Match","Exact","44 S FRANKLIN ST, BLOOMFIELD, IN, 47424",39298191,"L"
213577,"44 S WALNUT ST","SLATINGTON","PA",18080,40.751301175,-75.605954756,77,"44 S WALNUT ST, SLATINGTON, PA, 18080","Match","Exact","44 S WALNUT ST, SLATINGTON, PA, 18080",80750889,"L"
213578,"44 S WARNER AVE","BRYN MAWR","PA",19010,40.0230699540001,-75.323213798,78,"44 S WARNER AVE, BRYN MAWR, PA, 19010","Match","Exact","44 S WARNER AVE, BRYN MAWR, PA, 19010",135086618,"R"
213579,"44 SANTALINA  DRIVE","SICKLERVILLE","NJ",8081,39.7273787980001,-75.017355002,79,"44 SANTALINA  DRIVE, SICKLERVILLE, NJ, 8081","Match","Exact","44 SANTALINA DR, SICKLERVILLE, NJ, 08081",134627112,"R"
213580,"44 SAPP ST","INGLIS","FL",34449,29.0314287640001,-82.656273292,80,"44 SAPP ST, INGLIS, FL, 34449","Match","Exact","44 SAPP ST, INGLIS, FL, 34449",619168175,"L"
213581,"44 SAWGRASS DRIVE","WESTAMPTON","NJ",8060,40.022513587,-74.7952615789999,81,"44 SAWGRASS DRIVE, WESTAMPTON, NJ, 8060","Match","Exact","44 SAWGRASS DR, WESTAMPTON, NJ, 08060",617130946,"R"
213582,"44 SHELTER ROCK ROAD","TRUMBULL","CT",6611,41.267499157,-73.182547767,82,"44 SHELTER ROCK ROAD, TRUMBULL, CT, 6611","Match","Exact","44 SHELTER ROCK RD, TRUMBULL, CT, 06611",3219496,"R"
213583,"44 SHERMAN AVENUE 5C","JERSEY CITY","NJ",7307,40.7423162320001,-74.0484102889999,83,"44 SHERMAN AVENUE 5C, JERSEY CITY, NJ, 7307","Match","Exact","44 SHERMAN AVE, JERSEY CITY, NJ, 07307",59605002,"R"
213584,"44 SHERRY ROAD","SOUTH BURLINGTON","VT",5403,44.4596465130001,-73.181087302,84,"44 SHERRY ROAD, SOUTH BURLINGTON, VT, 5403","Match","Exact","44 SHERRY RD, S BURLINGTON, VT, 05403",135842123,"L"
213585,"44 SMYTHE DR","WILLIAMS BAY","WI",53191,42.576136682,-88.5522524519999,85,"44 SMYTHE DR, WILLIAMS BAY, WI, 53191","Match","Exact","44 SMYTHE DR, WILLIAMS BAY, WI, 53191",53669533,"L"
213586,"44 SODDARD ROAD","POMFRET CENTER","CT",6259,41.868140456,-71.988775926,86,"44 SODDARD ROAD, POMFRET CENTER, CT, 6259","Match","Non_Exact","44 STODDARD RD, POMFRET CENTER, CT, 06259",56446528,"L"
213587,"44 SOUTH MUNN AVE 4T","EAST ORANGE","NJ",7018,40.7569939630001,-74.211892169,87,"44 SOUTH MUNN AVE 4T, EAST ORANGE, NJ, 7018","Match","Exact","44 S MUNN AVE, EAST ORANGE, NJ, 07018",609035614,"L"
213588,"44 SOUTH MUNN AVE APT1T","EAST ORANGE","NJ",7018,40.7569939630001,-74.211892169,88,"44 SOUTH MUNN AVE APT1T, EAST ORANGE, NJ, 7018","Match","Exact","44 S MUNN AVE, EAST ORANGE, NJ, 07018",609035614,"L"
213589,"44 SOUTH MUNN STREET SUITE 9E","EAST ORANGE","NJ",7018,40.7569939630001,-74.211892169,89,"44 SOUTH MUNN STREET SUITE 9E, EAST ORANGE, NJ, 7018","Match","Non_Exact","44 S MUNN AVE, EAST ORANGE, NJ, 07018",609035614,"L"
213590,"44 SOUTHPORT DR","HOWELL","NJ",7731,40.1553926120001,-74.219989867,90,"44 SOUTHPORT DR, HOWELL, NJ, 7731","Match","Exact","44 SOUTHPORT DR, HOWELL, NJ, 07731",90450493,"R"
213591,"44 SPRING ROAD","LAKE OZARK","MO",65049,38.1984619090001,-92.6618782529999,91,"44 SPRING ROAD, LAKE OZARK, MO, 65049","Match","Exact","44 SPRING RD, LAKE OZARK, MO, 65049",22841490,"R"
213592,"44 SPRING ST","DANBURY","CT",6810,41.3946066080001,-73.459162523,92,"44 SPRING ST, DANBURY, CT, 6810","Match","Exact","44 SPRING ST, DANBURY, CT, 06810",3231627,"L"
213593,"44 STAFFORD STREET UNIT 3","WORCESTER","MA",1603,42.2427962620001,-71.83894643,93,"44 STAFFORD STREET UNIT 3, WORCESTER, MA, 1603","Match","Exact","44 STAFFORD ST, WORCESTER, MA, 01603",40007931,"R"
213594,"44 STAMFORD AVE","PROVIDENCE","RI",2907,41.779685193,-71.4187722519999,94,"44 STAMFORD AVE, PROVIDENCE, RI, 2907","Match","Exact","44 STAMFORD AVE, PROVIDENCE, RI, 02907",47467206,"L"
213595,"44 STANNARD AVE","BRANFORD","CT",6405,41.2657228250001,-72.82445054,95,"44 STANNARD AVE, BRANFORD, CT, 6405","Match","Exact","44 STANNARD AVE, BRANFORD, CT, 06405",3706553,"L"
213596,"44 STANWYCK RD","MOUNT LAUREL","NJ",8054,39.9267008040001,-74.889266005,96,"44 STANWYCK RD, MOUNT LAUREL, NJ, 8054","Match","Exact","44 STANWYCK RD, MOUNT LAUREL, NJ, 08054",134062010,"R"
213597,"44 STARRS RIDGE RD","REDDING","CT",6896,41.325329251,-73.458911383,97,"44 STARRS RIDGE RD, REDDING, CT, 6896","Match","Exact","44 STARRS RIDGE RD, REDDING, CT, 06896",652783866,"R"
213598,"44 STEDMAN STREET UNIT 6","LOWELL","MA",1851,NA,NA,98,"44 STEDMAN STREET UNIT 6, LOWELL, MA, 1851","No_Match",NA,NA,NA,NA
213599,"44 STEPHEN WOODS LA","DURHAM","CT",6422,41.455474145,-72.6696334979999,99,"44 STEPHEN WOODS LA, DURHAM, CT, 6422","Match","Exact","44 STEPHEN WOODS LN, DURHAM, CT, 06422",113905138,"R"
213600,"44 STRAWBERRY HILL AVENUE 9J","STAMFORD","CT",6902,41.0613475910001,-73.533186983,100,"44 STRAWBERRY HILL AVENUE 9J, STAMFORD, CT, 6902","Match","Exact","44 STRAWBERRY HILL AVE, STAMFORD, CT, 06902",618528527,"L"
213601,"44 STUTZ BEARCAT DR","SEDONA","AZ",86336,34.862248648,-111.804082647,101,"44 STUTZ BEARCAT DR, SEDONA, AZ, 86336","Match","Exact","44 STUTZ BEARCAT DR, SEDONA, AZ, 86336",159473994,"R"
213602,"44 SUMNER ROAD 1","NEW HAVEN","VT",5472,44.091234367,-73.1100229689999,102,"44 SUMNER ROAD 1, NEW HAVEN, VT, 5472","Match","Exact","44 SUMNER RD, NEW HAVEN, VT, 05472",210116801,"R"
213603,"44 SUSAN DR","NEWBURGH","NY",12550,41.5313781410001,-74.005654909,103,"44 SUSAN DR, NEWBURGH, NY, 12550","Match","Exact","44 SUSAN DR, NEWBURGH, NY, 12550",124466459,"R"
213604,"44 SYCAMORE LN","PALMAYRA","PA",17078,40.308922755,-76.576444948,104,"44 SYCAMORE LN, PALMAYRA, PA, 17078","Match","Non_Exact","44 SYCAMORE LN, PALMYRA, PA, 17078",80671160,"R"
213605,"44 SYLVAN AVE STE 2F","ENGLEWOOD CLIFFS","NJ",7632,40.8678188270001,-73.9585903409999,105,"44 SYLVAN AVE STE 2F, ENGLEWOOD CLIFFS, NJ, 7632","Match","Exact","44 SYLVAN AVE, ENGLEWOOD CLIFFS, NJ, 07632",64390430,"L"
213606,"44 SYLVAN AVENUE - SUITE 2C","ENGLEWOOD CLIFFS","NJ",7632,40.8678188270001,-73.9585903409999,106,"44 SYLVAN AVENUE - SUITE 2C, ENGLEWOOD CLIFFS, NJ, 7632","Match","Exact","44 SYLVAN AVE, ENGLEWOOD CLIFFS, NJ, 07632",64390430,"L"
213607,"44 TAYLOR STREET","SAUGUS","MA",1906,42.465522433,-71.010480735,107,"44 TAYLOR STREET, SAUGUS, MA, 1906","Match","Exact","44 TAYLOR ST, SAUGUS, MA, 01906",86636712,"L"
213608,"44 TEHAMA ST","SAN FRANCISCO","CA",94105,37.787427501,-122.396331397,108,"44 TEHAMA ST, SAN FRANCISCO, CA, 94105","Match","Exact","44 TEHAMA ST, SAN FRANCISCO, CA, 94105",642621491,"R"
213609,"44 THOMPSON STREET","BRUNSWICK","ME",4011,43.90284088,-69.9711951849999,109,"44 THOMPSON STREET, BRUNSWICK, ME, 4011","Match","Exact","44 THOMPSON ST, BRUNSWICK, ME, 04011",639890058,"R"
213610,"44 THORNTON STREET","NEWTON","MA",2458,42.3567666960001,-71.1884421039999,110,"44 THORNTON STREET, NEWTON, MA, 2458","Match","Exact","44 THORNTON ST, NEWTON, MA, 02458",86864947,"L"
213611,"44 TIFFANY PLACE","IRVINGTON","NJ",7111,40.727222473,-74.244381099,111,"44 TIFFANY PLACE, IRVINGTON, NJ, 7111","Match","Exact","44 TIFFANY PL, IRVINGTON, NJ, 07111",63463602,"R"
213612,"44 TINDER ROAD","LEVITTOWN","PA",19056,40.1728992290001,-74.878126816,112,"44 TINDER ROAD, LEVITTOWN, PA, 19056","Match","Exact","44 TINDER RD, LEVITTOWN, PA, 19056",134736789,"R"
213613,"44 TREASURE CREEK","GREENBRIER","AR",72058,35.286758967,-92.40698336,113,"44 TREASURE CREEK, GREENBRIER, AR, 72058","Match","Exact","44 TREASURE CREEK, GREENBRIER, AR, 72058",141068220,"R"
213614,"44 TUPELO DRIVE","OLD BRIDGE","NJ",8857,40.3815945590001,-74.330359801,114,"44 TUPELO DRIVE, OLD BRIDGE, NJ, 8857","Match","Exact","44 TUPELO DR, OLD BRIDGE, NJ, 08857",60359979,"L"
213615,"44 UPLAND","COLORADO SPRINGS","CO",80906,38.7814986290001,-104.860283434,115,"44 UPLAND, COLORADO SPRINGS, CO, 80906","Match","Non_Exact","44 UPLAND RD, COLORADO SPRINGS, CO, 80906",105507598,"R"
213616,"44 VALLEY CIRCLE","MILL VALLEY","CA",94941,37.897776299,-122.531450133,116,"44 VALLEY CIRCLE, MILL VALLEY, CA, 94941","Match","Exact","44 VALLEY CIR, MILL VALLEY, CA, 94941",192766771,"R"
213617,"44 VARNEY RD  P O BOX 71","SUMNER","ME",4292,44.407843508,-70.440656147,117,"44 VARNEY RD  P O BOX 71, SUMNER, ME, 4292","Match","Exact","44 VARNEY RD, SUMNER, ME, 04292",92677727,"L"
213618,"44 VISTA CIRCLE","HOLDEN","MA",1520,42.318727419,-71.828577524,118,"44 VISTA CIRCLE, HOLDEN, MA, 1520","Match","Exact","44 VISTA CIR, HOLDEN, MA, 01520",648258617,"L"
213619,"44 VISTA MONTANA LOOP","PLACITAS","NM",87043,35.31343378,-106.514128152,119,"44 VISTA MONTANA LOOP, PLACITAS, NM, 87043","Match","Exact","44 VIS MONTANA LP, PLACITAS, NM, 87043",194019944,"R"
213620,"44 W 5TH STREET","ANDERSON","IN",46016,40.1108704260001,-85.679865852,120,"44 W 5TH STREET, ANDERSON, IN, 46016","Match","Exact","44 W 5TH ST, ANDERSON, IN, 46016",31114193,"R"
213621,"44 W BROADWAY APT 1405","SALT LAKE CTY","UT",84101,40.762829288,-111.892392096,121,"44 W BROADWAY APT 1405, SALT LAKE CTY, UT, 84101","Match","Non_Exact","44 W BROADWAY, SALT LAKE CITY, UT, 84101",176067347,"R"
213622,"44 W BROADWAY SUITE 143","SALT LAKE CITY","UT",84101,40.762829288,-111.892392096,122,"44 W BROADWAY SUITE 143, SALT LAKE CITY, UT, 84101","Match","Non_Exact","44 W BROADWAY, SALT LAKE CITY, UT, 84101",176067347,"R"
213623,"44 W GARFIELD BLVD","CHICAGO","IL",60609,41.7946325930001,-87.6270777509999,123,"44 W GARFIELD BLVD, CHICAGO, IL, 60609","Match","Exact","44 W GARFIELD BLVD, CHICAGO, IL, 60609",111830610,"R"
213624,"44 W WASHINGTON ST","SHELBYVILLE","IN",46176,39.524448541,-85.7786246809999,124,"44 W WASHINGTON ST, SHELBYVILLE, IN, 46176","Match","Exact","44 W WASHINGTON ST, SHELBYVILLE, IN, 46176",33218785,"R"
213625,"44 WALNUT SPRINGS RD","DOVER","PA",17406,40.01514165,-76.583956369,125,"44 WALNUT SPRINGS RD, DOVER, PA, 17406","Match","Non_Exact","44 WALNUT SPRINGS RD, YORK, PA, 17406",636714979,"R"
213626,"44 WASHINGTON AVE","EVANSVILLE","IN",47713,37.9629496090001,-87.565116436,126,"44 WASHINGTON AVE, EVANSVILLE, IN, 47713","Match","Exact","44 WASHINGTON AVE, EVANSVILLE, IN, 47713",39783239,"L"
213627,"44 WAYNE STREET","CROTON-ON-HUDSON","NY",10520,41.194714999,-73.8826826389999,127,"44 WAYNE STREET, CROTON-ON-HUDSON, NY, 10520","Match","Exact","44 WAYNE ST, CROTON ON HUDSON, NY, 10520",139796662,"R"
213628,"44 WELLS HILL ROAD","WESTON","CT",6883,41.2348104390001,-73.332969415,128,"44 WELLS HILL ROAD, WESTON, CT, 6883","Match","Exact","44 WELLS HILL RD, WESTON, CT, 06883",3273033,"L"
213629,"44 WEST 130TH STREET","NEW YORK","NY",10037,40.810188193,-73.941391518,129,"44 WEST 130TH STREET, NEW YORK, NY, 10037","Match","Exact","44 W 130TH ST, NEW YORK, NY, 10037",642471494,"L"
213630,"44 WEST ALFORD ROAD","WEST STOCKBRIDGE","MA",1266,42.3010645590001,-73.414773915,130,"44 WEST ALFORD ROAD, WEST STOCKBRIDGE, MA, 1266","Match","Exact","44 W ALFORD RD, W STOCKBRIDGE, MA, 01266",3955132,"L"
213631,"44 WEST CHESAPEAKE AVE","TOWSON","MD",21204,39.3995574670001,-76.604233936,131,"44 WEST CHESAPEAKE AVE, TOWSON, MD, 21204","Match","Exact","44 W CHESAPEAKE AVE, TOWSON, MD, 21204",650327402,"R"
213632,"44 WEST CHESAPEAKE AVENUE SUITE 205","TOWSON","MD",21204,39.3995574670001,-76.604233936,132,"44 WEST CHESAPEAKE AVENUE SUITE 205, TOWSON, MD, 21204","Match","Exact","44 W CHESAPEAKE AVE, TOWSON, MD, 21204",650327402,"R"
213633,"44 WEST CHESTNUT STREET","MERCHANTVILLE","NJ",8109,39.951986629,-75.051082203,133,"44 WEST CHESTNUT STREET, MERCHANTVILLE, NJ, 8109","Match","Non_Exact","44 W CHESTNUT AVE, MERCHANTVILLE, NJ, 08109",647269213,"L"
213634,"44 WEST KING ST","LANCASTER","PA",17603,40.037807087,-76.307011973,134,"44 WEST KING ST, LANCASTER, PA, 17603","Match","Exact","44 W KING ST, LANCASTER, PA, 17603",179664522,"L"
213635,"44 WEST KING STREET","LANCASTER","PA",17603,40.037807087,-76.307011973,135,"44 WEST KING STREET, LANCASTER, PA, 17603","Match","Exact","44 W KING ST, LANCASTER, PA, 17603",179664522,"L"
213636,"44 WEST RAILROAD STREET","WINNEMUCCA","NV",89445,40.970793455,-117.731221622,136,"44 WEST RAILROAD STREET, WINNEMUCCA, NV, 89445","Match","Exact","44 W RAILROAD ST, WINNEMUCCA, NV, 89445",170941904,"L"
213637,"44 WEST STERLING STREET","WHARTON","NJ",7885,40.893397948,-74.58320909,137,"44 WEST STERLING STREET, WHARTON, NJ, 7885","Match","Exact","44 W STERLING ST, WHARTON, NJ, 07885",60435528,"L"
213638,"44 WHITEWOOD DR","MORRIS PLAINS","NJ",7950,40.8708755420001,-74.470971579,138,"44 WHITEWOOD DR, MORRIS PLAINS, NJ, 7950","Match","Exact","44 WHITEWOOD DR, MORRIS PLAINS, NJ, 07950",60440895,"R"
213639,"44 WILDERNESS WAY","WILLINGTON","CT",6279,41.9188528610001,-72.272419062,139,"44 WILDERNESS WAY, WILLINGTON, CT, 6279","Match","Exact","44 WILDERNESS WAY, WILLINGTON, CT, 06279",627438659,"L"
213640,"44 WILLETS WAY","NEWBURGH","NY",12550,41.550167377,-74.028914992,140,"44 WILLETS WAY, NEWBURGH, NY, 12550","Match","Exact","44 WILLETS WAY, NEWBURGH, NY, 12550",124448779,"R"
213641,"44 WILLIAM F PALMER RD","MOODUS","CT",6469,41.5023264110001,-72.445797946,141,"44 WILLIAM F PALMER RD, MOODUS, CT, 6469","Match","Exact","44 WILLIAM F PALMER RD, MOODUS, CT, 06469",649721656,"R"
213642,"44 WILSON AVENUE","LANCASTER","PA",17603,40.0402665560001,-76.336386397,142,"44 WILSON AVENUE, LANCASTER, PA, 17603","Match","Non_Exact","44 WILSON DR, LANCASTER, PA, 17603",179661794,"L"
213643,"44 WIMBLEDON CIRCLE","PORTSMOUTH","RI",2871,41.624067853,-71.259878019,143,"44 WIMBLEDON CIRCLE, PORTSMOUTH, RI, 2871","Match","Exact","44 WIMBLEDON CIR, PORTSMOUTH, RI, 02871",651604763,"L"
213644,"44 WINDSOR PLACE NO 1","BROOKLYN","NY",11215,40.6613141650001,-73.9840227459999,144,"44 WINDSOR PLACE NO 1, BROOKLYN, NY, 11215","Match","Non_Exact","44 WINDSOR PL, BROOKLYN, NY, 11215",59075825,"R"
213645,"44 WINTER STREET","HINGHAM","MA",2043,42.2361419790001,-70.8789443219999,145,"44 WINTER STREET, HINGHAM, MA, 2043","Match","Exact","44 WINTER ST, HINGHAM, MA, 02043",87430452,"L"
213646,"44 WOODCREST DR","SHARPSBURG","GA",30277,33.376309357,-84.644685776,146,"44 WOODCREST DR, SHARPSBURG, GA, 30277","Match","Exact","44 WOODCREST DR, SHARPSBURG, GA, 30277",9321391,"L"
213647,"44 WOODLAWN DRIVE","CLEVELAND","GA",30528,34.579682275,-83.755926006,147,"44 WOODLAWN DRIVE, CLEVELAND, GA, 30528","Match","Exact","44 WOODLAWN DR, CLEVELAND, GA, 30528",649216982,"R"
213648,"44 WOODY CREST DRIVE","PITTSBURGH","PA",15234,40.3732540180001,-79.996589832,148,"44 WOODY CREST DRIVE, PITTSBURGH, PA, 15234","Match","Exact","44 WOODY CREST DR, PITTSBURGH, PA, 15234",51639151,"L"
213649,"44 WYNDMOOR PLACE APT F","GWYNN OAK","MD",21207,39.331430186,-76.730062414,149,"44 WYNDMOOR PLACE APT F, GWYNN OAK, MD, 21207","Match","Exact","44 WYNDMOOR PL, GWYNN OAK, MD, 21207",191468924,"L"
213650,"44 WYNDY BROOK LANE","MADISON","CT",6443,41.273123336,-72.603374297,150,"44 WYNDY BROOK LANE, MADISON, CT, 6443","Match","Exact","44 WYNDY BROOK LN, MADISON, CT, 06443",3709887,"R"
213651,"44-01 11TH ST","LONG ISLAND CITY","NY",11101,40.749931926,-73.949186915,151,"44-01 11TH ST, LONG ISLAND CITY, NY, 11101","Match","Exact","44-01 11TH ST, LONG ISLAND CITY, NY, 11101",59691893,"L"
213652,"44-01 BROADWAY","ASTORIA","NY",11103,40.7574480930001,-73.915738061,152,"44-01 BROADWAY, ASTORIA, NY, 11103","Match","Exact","44-01 BROADWAY, ASTORIA, NY, 11103",59697192,"L"
213653,"44-02 23RD STREET STUDIO 216","LONG ISLAND CITY","NY",11101,40.748954086,-73.9443443659999,153,"44-02 23RD STREET STUDIO 216, LONG ISLAND CITY, NY, 11101","Match","Exact","44-2 23RD ST, LONG ISLAND CITY, NY, 11101",59692072,"R"
213654,"44-116 KEAALAU PLACE","KANEOHE","HI",96744,21.413485442,-157.766542438,154,"44-116 KEAALAU PLACE, KANEOHE, HI, 96744","Match","Exact","44-116 KEAALAU PL, KANEOHE, HI, 96744",203238967,"L"
213655,"44-44TH ST","KENTWOOD","MI",49548,NA,NA,155,"44-44TH ST, KENTWOOD, MI, 49548","No_Match",NA,NA,NA,NA
213656,"44-70 21ST STREET 3109","LONG ISLAND CITY","NY",11101,40.7477607800001,-73.9474775159999,156,"44-70 21ST STREET 3109, LONG ISLAND CITY, NY, 11101","Match","Exact","44-70 21ST ST, LONG ISLAND CITY, NY, 11101",59691934,"R"
213657,"44-D MRAVLAG MANOR","ELIZABETH","NJ",7202,NA,NA,157,"44-D MRAVLAG MANOR, ELIZABETH, NJ, 7202","No_Match",NA,NA,NA,NA
213658,"44","ESSEX","MD",21221,NA,NA,158,"44, ESSEX, MD, 21221","No_Match",NA,NA,NA,NA
213659,"44","FELTON","CA",95018,NA,NA,159,"44, FELTON, CA, 95018","No_Match",NA,NA,NA,NA
213660,"440 28TH ST","MANHATTAN BEACH","CA",90266,33.895916277,-118.413497915,160,"440 28TH ST, MANHATTAN BEACH, CA, 90266","Match","Exact","440 28TH ST, MANHATTAN BEACH, CA, 90266",141580622,"R"
213661,"440 ALLENS LANDING COURT","LAWRENCEVILLE","GA",30045,33.946873194,-83.9513664099999,161,"440 ALLENS LANDING COURT, LAWRENCEVILLE, GA, 30045","Match","Exact","440 ALLENS LANDING CT, LAWRENCEVILLE, GA, 30045",88918024,"L"
213662,"440 ANITA DRIVE","GOOSE CREEK","SC",29445,33.027576207,-80.032519974,162,"440 ANITA DRIVE, GOOSE CREEK, SC, 29445","Match","Exact","440 ANITA DR, GOOSE CREEK, SC, 29445",100745833,"L"
213663,"440 ARCHAIC DR","WINTER HAVEN","FL",33880,27.9954221040001,-81.780776717,163,"440 ARCHAIC DR, WINTER HAVEN, FL, 33880","Match","Exact","440 ARCHAIC DR, WINTER HAVEN, FL, 33880",104912229,"R"
213664,"440 ASTER ST","WHITE ROCK","NM",87547,NA,NA,164,"440 ASTER ST, WHITE ROCK, NM, 87547","No_Match",NA,NA,NA,NA
213665,"440 AUBURN HILLS DRIVE","CORALVILLE","IA",52241,41.710846428,-91.57112008,165,"440 AUBURN HILLS DRIVE, CORALVILLE, IA, 52241","Match","Exact","440 AUBURN HILLS DR, CORALVILLE, IA, 52241",84519628,"L"
213666,"440 BATTLES STREET EXT","BROCKTON","MA",2301,NA,NA,166,"440 BATTLES STREET EXT, BROCKTON, MA, 2301","No_Match",NA,NA,NA,NA
213667,"440 BENMAR DR STE 1085","HOUSTON","TX",77060,29.9438850280001,-95.4031824479999,167,"440 BENMAR DR STE 1085, HOUSTON, TX, 77060","Match","Exact","440 BENMAR DR, HOUSTON, TX, 77060",96656416,"R"
213668,"440 BENMAR DR STE 2295","HOUSTON","TX",77060,29.9438850280001,-95.4031824479999,168,"440 BENMAR DR STE 2295, HOUSTON, TX, 77060","Match","Exact","440 BENMAR DR, HOUSTON, TX, 77060",96656416,"R"
213669,"440 BENMAR DR SUITE 2425","HOUSTON","TX",77060,29.9438850280001,-95.4031824479999,169,"440 BENMAR DR SUITE 2425, HOUSTON, TX, 77060","Match","Exact","440 BENMAR DR, HOUSTON, TX, 77060",96656416,"R"
213670,"440 BENMAR DRIVE -SUITE 2255","HOUSTON","TX",77060,29.9438850280001,-95.4031824479999,170,"440 BENMAR DRIVE -SUITE 2255, HOUSTON, TX, 77060","Match","Exact","440 BENMAR DR, HOUSTON, TX, 77060",96656416,"R"
213671,"440 BENMAR DRIVE 1088","HOUSTON","TX",77060,29.9438850280001,-95.4031824479999,171,"440 BENMAR DRIVE 1088, HOUSTON, TX, 77060","Match","Exact","440 BENMAR DR, HOUSTON, TX, 77060",96656416,"R"
213672,"440 BENMAR DRIVE SUITE 3350","HOUSTON","TX",77060,29.9438850280001,-95.4031824479999,172,"440 BENMAR DRIVE SUITE 3350, HOUSTON, TX, 77060","Match","Exact","440 BENMAR DR, HOUSTON, TX, 77060",96656416,"R"
213673,"440 BERNICE SNOW RD","GREER","SC",29651,34.8510061590001,-82.112247854,173,"440 BERNICE SNOW RD, GREER, SC, 29651","Match","Exact","440 BERNICE SNOW RD, GREER, SC, 29651",633406604,"R"
213674,"440 BUCKINGHAM AVENUE","FLINT","MI",48507,42.988159002,-83.667150868,174,"440 BUCKINGHAM AVENUE, FLINT, MI, 48507","Match","Exact","440 BUCKINGHAM AVE, FLINT, MI, 48507",69575724,"R"
213675,"440 BURROUGHS BOX NUMBER 612","DETROIT","MI",48202,42.364952954,-83.0723749319999,175,"440 BURROUGHS BOX NUMBER 612, DETROIT, MI, 48202","Match","Non_Exact","440 BURROUGHS ST, DETROIT, MI, 48202",95476191,"R"
213676,"440 BURROUGHS ST STE 527","DETROIT","MI",48202,42.364952954,-83.0723749319999,176,"440 BURROUGHS ST STE 527, DETROIT, MI, 48202","Match","Exact","440 BURROUGHS ST, DETROIT, MI, 48202",95476191,"R"
213677,"440 BURROUGHS ST SUITE 196","DETROIT","MI",48202,42.364952954,-83.0723749319999,177,"440 BURROUGHS ST SUITE 196, DETROIT, MI, 48202","Match","Exact","440 BURROUGHS ST, DETROIT, MI, 48202",95476191,"R"
213678,"440 BURROUGHS ST","DETROIT","MI",48202,42.364952954,-83.0723749319999,178,"440 BURROUGHS ST, DETROIT, MI, 48202","Match","Exact","440 BURROUGHS ST, DETROIT, MI, 48202",95476191,"R"
213679,"440 BURROUGHS STREET SUITE 301","DETROIT","MI",48202,42.364952954,-83.0723749319999,179,"440 BURROUGHS STREET SUITE 301, DETROIT, MI, 48202","Match","Exact","440 BURROUGHS ST, DETROIT, MI, 48202",95476191,"R"
213680,"440 BURROUGHS","DETROIT","MI",48201,NA,NA,180,"440 BURROUGHS, DETROIT, MI, 48201","No_Match",NA,NA,NA,NA
213681,"440 BURROUGHS","DETROIT","MI",48202,42.364952954,-83.0723749319999,181,"440 BURROUGHS, DETROIT, MI, 48202","Match","Non_Exact","440 BURROUGHS ST, DETROIT, MI, 48202",95476191,"R"
213682,"440 BUTTERNUT CREEK ROAD","BLAIRSVILLE","GA",30512,34.9041556330001,-83.9249684609999,182,"440 BUTTERNUT CREEK ROAD, BLAIRSVILLE, GA, 30512","Match","Exact","440 BUTTERNUT CREEK RD, BLAIRSVILLE, GA, 30512",85279190,"R"
213683,"440 CANYON DRIVE APT 15","OCEANSIDE","AZ",92054,NA,NA,183,"440 CANYON DRIVE APT 15, OCEANSIDE, AZ, 92054","No_Match",NA,NA,NA,NA
213684,"440 CHEROKEE LANE","KALISPELL","MT",59901,48.2690253110001,-114.320187976,184,"440 CHEROKEE LANE, KALISPELL, MT, 59901","Match","Exact","440 CHEROKEE LN, KALISPELL, MT, 59901",204129901,"R"
213685,"440 CLEVELAND DRIVE","CHEEKTOWAGA","NY",14225,42.9449019800001,-78.7824445539999,185,"440 CLEVELAND DRIVE, CHEEKTOWAGA, NY, 14225","Match","Exact","440 CLEVELAND DR, CHEEKTOWAGA, NY, 14225",48298919,"L"
213686,"440 COBIA DRIVE  SUITE 704","KATY","TX",77494,29.7740563450001,-95.782514319,186,"440 COBIA DRIVE  SUITE 704, KATY, TX, 77494","Match","Exact","440 COBIA DR, KATY, TX, 77494",233401249,"R"
213687,"440 CONOVER TERRACE","ORANGE","NJ",7050,40.7663125180001,-74.2411482099999,187,"440 CONOVER TERRACE, ORANGE, NJ, 7050","Match","Exact","440 CONOVER TER, ORANGE, NJ, 07050",63447348,"L"
213688,"440 COOLIDGE STREET","OCONOMOWOC","WI",53066,43.118346478,-88.492814174,188,"440 COOLIDGE STREET, OCONOMOWOC, WI, 53066","Match","Non_Exact","440 E COOLIDGE ST, OCONOMOWOC, WI, 53066",636690731,"L"
213689,"440 COUNTRY CLUB RD","FAIRVIEW","TX",75069,33.1353619490001,-96.609411172,189,"440 COUNTRY CLUB RD, FAIRVIEW, TX, 75069","Match","Exact","440 COUNTRY CLUB RD, FAIRVIEW, TX, 75069",642470987,"L"
213690,"440 CREEKVIEW LANE","ATLANTA","GA",30349,33.639402352,-84.554341531,190,"440 CREEKVIEW LANE, ATLANTA, GA, 30349","Match","Exact","440 CREEKVIEW LN, ATLANTA, GA, 30349",627635394,"R"
213691,"440 DAVIS COURT SUITE 1909","SAN FRANCISCO","CA",94111,37.796640262,-122.398235845,191,"440 DAVIS COURT SUITE 1909, SAN FRANCISCO, CA, 94111","Match","Exact","440 DAVIS CT, SAN FRANCISCO, CA, 94111",647251752,"L"
213692,"440 DIXON LANDING RD NUMBER H201","MILPITAS","CA",95035,37.4550540500001,-121.91872385,192,"440 DIXON LANDING RD NUMBER H201, MILPITAS, CA, 95035","Match","Exact","440 DIXON LANDING RD, MILPITAS, CA, 95035",647583955,"R"
213693,"440 E 2ND STREET","PERRYSBURG","OH",43551,NA,NA,193,"440 E 2ND STREET, PERRYSBURG, OH, 43551","Tie",NA,NA,NA,NA
213694,"440 E 400 S","WASHINGTON","IN",47501,38.598069084,-87.1584650299999,194,"440 E 400 S, WASHINGTON, IN, 47501","Match","Exact","440 E 400 S, WASHINGTON, IN, 47501",32077393,"L"
213695,"440 E 48TH PLACE UNIT 2","CHICAGO","IL",60615,41.806678773,-87.615235059,195,"440 E 48TH PLACE UNIT 2, CHICAGO, IL, 60615","Match","Non_Exact","440 E 48TH PL, CHICAGO, IL, 60615",605537612,"L"
213696,"440 E 62ND ST","CHICAGO","IL",60637,41.7820918250001,-87.614237776,196,"440 E 62ND ST, CHICAGO, IL, 60637","Match","Exact","440 E 62ND ST, CHICAGO, IL, 60637",605542633,"L"
213697,"440 E 85TH ST","NEW YORK","NY",10028,40.7756999480001,-73.9487048729999,197,"440 E 85TH ST, NEW YORK, NY, 10028","Match","Exact","440 E 85TH ST, NEW YORK, NY, 10028",650084371,"R"
213698,"440 E BAY STREET","JACKSONVILLE","FL",32202,30.3249951170001,-81.6522401719999,198,"440 E BAY STREET, JACKSONVILLE, FL, 32202","Match","Exact","440 E BAY ST, JACKSONVILLE, FL, 32202",639969204,"R"
213699,"440 E HIDALGO AVE","PHOENIX","AZ",85040,33.3936200360001,-112.068057108,199,"440 E HIDALGO AVE, PHOENIX, AZ, 85040","Match","Exact","440 E HIDALGO AVE, PHOENIX, AZ, 85040",128282387,"R"
213700,"440 E MARION ST","DES MOINES","IA",50315,41.5472480880001,-93.608978403,200,"440 E MARION ST, DES MOINES, IA, 50315","Match","Exact","440 E MARION ST, DES MOINES, IA, 50315",65786934,"L"
213701,"440 E MARKET STREET","CADIZ","OH",43907,40.2697818130001,-80.9925815139999,201,"440 E MARKET STREET, CADIZ, OH, 43907","Match","Exact","440 E MARKET ST, CADIZ, OH, 43907",37709399,"L"
213702,"440 E RHEA STREET","LONG BEACH","CA",90806,33.7925828910001,-118.187883117,202,"440 E RHEA STREET, LONG BEACH, CA, 90806","Match","Exact","440 E RHEA ST, LONG BEACH, CA, 90806",142663136,"R"
213703,"440 E STATE STREET","ALLIANCE","OH",44601,40.9016819710001,-81.099238692,203,"440 E STATE STREET, ALLIANCE, OH, 44601","Match","Exact","440 E STATE ST, ALLIANCE, OH, 44601",64697012,"L"
213704,"440 E TAMARACK CT","HERMISTON","OR",97838,45.837577589,-119.276273198,204,"440 E TAMARACK CT, HERMISTON, OR, 97838","Match","Exact","440 E TAMARACK CT, HERMISTON, OR, 97838",170392281,"L"
213705,"440 E WARNER RD STE 1","CHANDLER","AZ",85225,NA,NA,205,"440 E WARNER RD STE 1, CHANDLER, AZ, 85225","Tie",NA,NA,NA,NA
213706,"440 EAST 117TH STREET  APT 5B","NEW YORK","NY",10035,40.7962773620001,-73.9339622909999,206,"440 EAST 117TH STREET  APT 5B, NEW YORK, NY, 10035","Match","Exact","440 E 117TH ST, NEW YORK, NY, 10035",59658156,"R"
213707,"440 EAST 13TH STREET SUITE C1","NEW YORK","NY",10009,40.7302615300001,-73.9821398509999,207,"440 EAST 13TH STREET SUITE C1, NEW YORK, NY, 10009","Match","Exact","440 E 13TH ST, NEW YORK, NY, 10009",59654598,"R"
213708,"440 EAST 62ND STREET APT 15D","NEW YORK","NY",10065,40.761040316,-73.9595490889999,208,"440 EAST 62ND STREET APT 15D, NEW YORK, NY, 10065","Match","Exact","440 E 62ND ST, NEW YORK, NY, 10065",611132886,"R"
213709,"440 EAST 78TH STREET APARTMENT 1A","NEW YORK","NY",10075,40.7712535630001,-73.9522366959999,209,"440 EAST 78TH STREET APARTMENT 1A, NEW YORK, NY, 10075","Match","Exact","440 E 78TH ST, NEW YORK, NY, 10075",59658333,"R"
213710,"440 EAST 79TH STREET","NEW YORK","NY",10075,40.771918269,-73.951694103,210,"440 EAST 79TH STREET, NEW YORK, NY, 10075","Match","Exact","440 E 79TH ST, NEW YORK, NY, 10075",650152662,"R"
213711,"440 EAST MARKET STREET","CADIZ","OH",43907,40.2697896350001,-80.992592859,211,"440 EAST MARKET STREET, CADIZ, OH, 43907","Match","Exact","440 E MARKET ST, CADIZ, OH, 43907",37709399,"L"
213712,"440 EASTSIDE DRIVE","WHITE BLUFF","TN",37187,36.1022397620001,-87.2121458569999,212,"440 EASTSIDE DRIVE, WHITE BLUFF, TN, 37187","Match","Exact","440 EASTSIDE DR, WHITE BLUFF, TN, 37187",72759688,"L"
213713,"440 EPPING WAY","ANNAPOLIS","MD",21401,39.013641739,-76.532967093,213,"440 EPPING WAY, ANNAPOLIS, MD, 21401","Match","Exact","440 EPPING WAY, ANNAPOLIS, MD, 21401",68171759,"R"
213714,"440 FLOWER CITY PARK","ROCHESTER","NY",14615,43.192724216,-77.636767316,214,"440 FLOWER CITY PARK, ROCHESTER, NY, 14615","Match","Exact","440 FLOWER CITY PARK, ROCHESTER, NY, 14615",14531832,"R"
213715,"440 FREESTONE DR","NEWNAN","GA",30265,33.392549833,-84.689227769,215,"440 FREESTONE DR, NEWNAN, GA, 30265","Match","Exact","440 FREESTONE DR, NEWNAN, GA, 30265",9351421,"L"
213716,"440 FURROWS RD","HOLBROOK","NY",11741,NA,NA,216,"440 FURROWS RD, HOLBROOK, NY, 11741","No_Match",NA,NA,NA,NA
213717,"440 GEORGE WALLACE DRIVE","GADSDEN","AL",35903,33.9949358920001,-85.98976895,217,"440 GEORGE WALLACE DRIVE, GADSDEN, AL, 35903","Match","Exact","440 GEORGE WALLACE DR, GADSDEN, AL, 35903",66774143,"L"
213718,"440 GRACE ST","NORTHERN CAMBRIA","PA",15714,40.682379908,-78.75030216,218,"440 GRACE ST, NORTHERN CAMBRIA, PA, 15714","Match","Exact","440 GRACE ST, NORTHERN CAMBRIA, PA, 15714",635548337,"L"
213719,"440 GRIER AVE","ELIZABETH","NJ",7202,40.65387603,-74.217446039,219,"440 GRIER AVE, ELIZABETH, NJ, 7202","Match","Exact","440 GRIER AVE, ELIZABETH, NJ, 07202",60605133,"L"
213720,"440 HANOVER STREET","MANCHESTER","NH",3104,42.99091134,-71.447229818,220,"440 HANOVER STREET, MANCHESTER, NH, 3104","Match","Exact","440 HANOVER ST, MANCHESTER, NH, 03104",113532391,"L"
213721,"440 HEDGE ROSE BLVD","SOMERVILLE","TN",38068,35.2397428720001,-89.419209694,221,"440 HEDGE ROSE BLVD, SOMERVILLE, TN, 38068","Match","Exact","440 HEDGE ROSE BLVD, SOMERVILLE, TN, 38068",632045723,"R"
213722,"440 HWY 531","MINDEN","LA",71055,32.617365814,-93.249709809,222,"440 HWY 531, MINDEN, LA, 71055","Match","Non_Exact","440 STATE RTE 531, MINDEN, LA, 71055",73412217,"L"
213723,"440 INDIANA STREET","GOLDEN","CO",80401,39.72249193,-105.165439703,223,"440 INDIANA STREET, GOLDEN, CO, 80401","Match","Exact","440 INDIANA ST, GOLDEN, CO, 80401",649026778,"R"
213724,"440 JACKSON STATION RD","WATERFORD","PA",16441,42.027935943,-80.011300496,224,"440 JACKSON STATION RD, WATERFORD, PA, 16441","Match","Exact","440 JACKSON STATION RD, WATERFORD, PA, 16441",117512725,"R"
213725,"440 JUG STONE ROAD","BIGLERVILLE","PA",17307,NA,NA,225,"440 JUG STONE ROAD, BIGLERVILLE, PA, 17307","No_Match",NA,NA,NA,NA
213726,"440 KENT AVE APT 15B","BROOKLYN","NY",11249,40.708902864,-73.9684796399999,226,"440 KENT AVE APT 15B, BROOKLYN, NY, 11249","Match","Exact","440 KENT AVE, BROOKLYN, NY, 11249",59101738,"L"
213727,"440 LAKEWOOD DR","FAIRVIEW","TX",75069,33.1341085980001,-96.616098902,227,"440 LAKEWOOD DR, FAIRVIEW, TX, 75069","Match","Exact","440 LAKEWOOD DR, FAIRVIEW, TX, 75069",642473870,"R"
213728,"440 LARAMIE BLVD","BOULDER","CO",80304,40.0664937170001,-105.28890773,228,"440 LARAMIE BLVD, BOULDER, CO, 80304","Match","Exact","440 LARAMIE BLVD, BOULDER, CO, 80304",647461881,"R"
213729,"440 LOUISIANA STREET SUITE 970","HOUSTON","TX",77002,29.7627413540001,-95.364171558,229,"440 LOUISIANA STREET SUITE 970, HOUSTON, TX, 77002","Match","Exact","440 LOUISIANA ST, HOUSTON, TX, 77002",96067453,"R"
213730,"440 MAIN STREET PO BOX 761","CARROLLTON","KY",41008,38.68231839,-85.181366995,230,"440 MAIN STREET PO BOX 761, CARROLLTON, KY, 41008","Match","Exact","440 MAIN ST, CARROLLTON, KY, 41008",65119981,"R"
213731,"440 MAIN STREET","HARWICH","MA",2645,41.6888349110001,-70.0977310229999,231,"440 MAIN STREET, HARWICH, MA, 2645","Match","Exact","440 MAIN ST, HARWICH, MA, 02645",121597942,"L"
213732,"440 MAIN STREET","MIDDLETOWN","CT",6457,41.559992241,-72.649418106,232,"440 MAIN STREET, MIDDLETOWN, CT, 6457","Match","Exact","440 MAIN ST, MIDDLETOWN, CT, 06457",113889575,"R"
213733,"440 MAIN STREET","OLEY","PA",19547,40.387224566,-75.789191231,233,"440 MAIN STREET, OLEY, PA, 19547","Match","Exact","440 MAIN ST, OLEY, PA, 19547",638530955,"R"
213734,"440 MARKET STREET","SUFFOLK","VA",23434,36.731132695,-76.587879202,234,"440 MARKET STREET, SUFFOLK, VA, 23434","Match","Exact","440 MARKET ST, SUFFOLK, VA, 23434",122226818,"R"
213735,"440 MATTS WAY","DEFIANCE","MO",63341,38.6512325100001,-90.7727730079999,235,"440 MATTS WAY, DEFIANCE, MO, 63341","Match","Exact","440 MATTS WAY, DEFIANCE, MO, 63341",605606877,"L"
213736,"440 MCBRIDE AVENUE","DUPO","IL",62239,38.5426861940001,-90.189689161,236,"440 MCBRIDE AVENUE, DUPO, IL, 62239","Match","Exact","440 MCBRIDE AVE, DUPO, IL, 62239",107929761,"L"
213737,"440 MICHAEL DRIVE","FALLON","NV",89406,39.481089169,-118.785247371,237,"440 MICHAEL DRIVE, FALLON, NV, 89406","Match","Exact","440 MICHAEL DR, FALLON, NV, 89406",636425147,"R"
213738,"440 MISSION ST","CAROL STREAM","IL",60188,41.9255385800001,-88.109487014,238,"440 MISSION ST, CAROL STREAM, IL, 60188","Match","Exact","440 MISSION ST, CAROL STREAM, IL, 60188",112575876,"L"
213739,"440 MONTICELLO AVE STE 1800","NORFOLK","VA",23510,36.851494014,-76.288621424,239,"440 MONTICELLO AVE STE 1800, NORFOLK, VA, 23510","Match","Exact","440 MONTICELLO AVE, NORFOLK, VA, 23510",122127354,"R"
213740,"440 MONTICELLO AVENUE SUITE 1800","NORFOLK","VA",23510,36.851494014,-76.288621424,240,"440 MONTICELLO AVENUE SUITE 1800, NORFOLK, VA, 23510","Match","Exact","440 MONTICELLO AVE, NORFOLK, VA, 23510",122127354,"R"
213741,"440 MONTICELLO AVENUE SUITE 1802","NORFOLK","VA",23510,36.851494014,-76.288621424,241,"440 MONTICELLO AVENUE SUITE 1802, NORFOLK, VA, 23510","Match","Exact","440 MONTICELLO AVE, NORFOLK, VA, 23510",122127354,"R"
213742,"440 N 10TH ST","BLAIR","NE",68008,NA,NA,242,"440 N 10TH ST, BLAIR, NE, 68008","Tie",NA,NA,NA,NA
213743,"440 N 10TH ST","NOBLESVILLE","IN",46060,40.0497576820001,-86.012219607,243,"440 N 10TH ST, NOBLESVILLE, IN, 46060","Match","Exact","440 N 10TH ST, NOBLESVILLE, IN, 46060",29291181,"R"
213744,"440 N CAVENDER STREET","HOBART","IN",46342,41.5444932240001,-87.2759521629999,244,"440 N CAVENDER STREET, HOBART, IN, 46342","Match","Exact","440 N CAVENDER ST, HOBART, IN, 46342",98435952,"L"
213745,"440 N MONROE STREET","TALLAHASSEE","FL",32301,30.4462789350001,-84.28068172,245,"440 N MONROE STREET, TALLAHASSEE, FL, 32301","Match","Exact","440 N MONROE ST, TALLAHASSEE, FL, 32301",82881190,"L"
213746,"440 NEW ZEALAND REACH","CHESAPEAKE","VA",23322,36.6758487340001,-76.2432205389999,246,"440 NEW ZEALAND REACH, CHESAPEAKE, VA, 23322","Match","Exact","440 NEW ZEALAND REACH, CHESAPEAKE, VA, 23322",121792952,"L"
213747,"440 NEWPORT AVENUE","KATHLEEN","GA",31047,32.503038867,-83.6486782439999,247,"440 NEWPORT AVENUE, KATHLEEN, GA, 31047","Match","Exact","440 NEWPORT AVE, KATHLEEN, GA, 31047",650971760,"L"
213748,"440 NEWTOWN RD","VIRGINIA","VA",23462,36.853506559,-76.1778235209999,248,"440 NEWTOWN RD, VIRGINIA, VA, 23462","Match","Non_Exact","440 NEWTOWN RD, VAB, VA, 23462",640222581,"R"
213749,"440 NEWTOWN RD","VIRGNIA BEACH","VA",23462,36.853506559,-76.1778235209999,249,"440 NEWTOWN RD, VIRGNIA BEACH, VA, 23462","Match","Non_Exact","440 NEWTOWN RD, VIRGINIA BCH, VA, 23462",640222581,"R"
213750,"440 NO MAIN STREET","SALEM","NH",3079,NA,NA,250,"440 NO MAIN STREET, SALEM, NH, 3079","Tie",NA,NA,NA,NA
213751,"440 NORTH EMERSON STREET SUITE 1","CAMBRIDGE","MN",55008,NA,NA,251,"440 NORTH EMERSON STREET SUITE 1, CAMBRIDGE, MN, 55008","No_Match",NA,NA,NA,NA
213752,"440 NORTH MILL STREET","CURRIE","MN",56123,44.067805908,-95.666023115,252,"440 NORTH MILL STREET, CURRIE, MN, 56123","Match","Non_Exact","440 MILL ST, CURRIE, MN, 56123",608308297,"R"
213753,"440 NORTH RENGSTORFF AVENUE APT430A","MOUNTAIN VIEW","CA",94043,37.409706984,-122.093550279,253,"440 NORTH RENGSTORFF AVENUE APT430A, MOUNTAIN VIEW, CA, 94043","Match","Exact","440 N RENGSTORFF AVE, MOUNTAIN VIEW, CA, 94043",123010636,"L"
213754,"440 NORTH STATE STREET","CARO","MI",48723,43.4912224010001,-83.393389726,254,"440 NORTH STATE STREET, CARO, MI, 48723","Match","Exact","440 N STATE ST, CARO, MI, 48723",81244923,"R"
213755,"440 NOTTINGHAM RD","MONTGOMERY","AL",36109,32.3746492170001,-86.2510809139999,255,"440 NOTTINGHAM RD, MONTGOMERY, AL, 36109","Match","Exact","440 NOTTINGHAM RD, MONTGOMERY, AL, 36109",1544016,"R"
213756,"440 NTH 41ST STREET","MILWAUKEE","WI",53208,43.0354517920001,-87.965287065,256,"440 NTH 41ST STREET, MILWAUKEE, WI, 53208","Match","Non_Exact","440 N 41ST ST, MILWAUKEE, WI, 53208",77734297,"R"
213757,"440 NW 15TH AVE NW","JASPER","FL",32052,NA,NA,257,"440 NW 15TH AVE NW, JASPER, FL, 32052","No_Match",NA,NA,NA,NA
213758,"440 NW 15TH STREET","FLORIDA CITY","FL",33034,25.4610855710001,-80.4826815169999,258,"440 NW 15TH STREET, FLORIDA CITY, FL, 33034","Match","Exact","440 NW 15TH ST, FLORIDA CITY, FL, 33034",115992083,"R"
213759,"440 OAKWOOD CIRCLE","MURRAY","KY",42071,36.5890157800001,-88.367492781,259,"440 OAKWOOD CIRCLE, MURRAY, KY, 42071","Match","Exact","440 OAKWOOD CIR, MURRAY, KY, 42071",31714163,"L"
213760,"440 OCEANVIEW DRIVE","ANCHORAGE","AK",99515,61.102767349,-149.874066092,260,"440 OCEANVIEW DRIVE, ANCHORAGE, AK, 99515","Match","Exact","440 OCEANVIEW DR, ANCHORAGE, AK, 99515",190800780,"L"
213761,"440 OLD GEORGES RD","NORTH BRUNSWCIK","NJ",8902,NA,NA,261,"440 OLD GEORGES RD, NORTH BRUNSWCIK, NJ, 8902","Tie",NA,NA,NA,NA
213762,"440 OLIVE ST","VACAVILLE","CA",95688,38.352318702,-121.988056968,262,"440 OLIVE ST, VACAVILLE, CA, 95688","Match","Exact","440 OLIVE ST, VACAVILLE, CA, 95688",192534531,"R"
213763,"440 ORCHARDVIEW ROAD","SEVEN HILLS","OH",44131,41.355320417,-81.680196334,263,"440 ORCHARDVIEW ROAD, SEVEN HILLS, OH, 44131","Match","Exact","440 ORCHARDVIEW RD, SEVEN HILLS, OH, 44131",61141406,"L"
213764,"440 ORIOLE LN","INDIALANTIC","FL",32903,28.12338469,-80.583257923,264,"440 ORIOLE LN, INDIALANTIC, FL, 32903","Match","Exact","440 ORIOLE LN, INDIALANTIC, FL, 32903",93930151,"L"
213765,"440 PARK AVENUE","PATERSON","NJ",7504,40.9138626050001,-74.14665467,265,"440 PARK AVENUE, PATERSON, NJ, 7504","Match","Exact","440 PARK AVE, PATERSON, NJ, 07504",65264749,"R"
213766,"440 PINEBURR LANE","STONE MOOUNTAIN","GA",30087,33.78856455,-84.114523343,266,"440 PINEBURR LANE, STONE MOOUNTAIN, GA, 30087","Match","Non_Exact","440 PINEBURR LN, STONE MOUNTAIN, GA, 30087",642648969,"L"
213767,"440 POLARIS PARKWAY SUITE 275","WESTERVILLE","OH",43082,40.145767934,-82.943853264,267,"440 POLARIS PARKWAY SUITE 275, WESTERVILLE, OH, 43082","Match","Exact","440 POLARIS PKWY, WESTERVILLE, OH, 43082",652534240,"L"
213768,"440 POSEY ROAD","NEWNAN","GA",30265,33.418728055,-84.69785938,268,"440 POSEY ROAD, NEWNAN, GA, 30265","Match","Exact","440 POSEY RD, NEWNAN, GA, 30265",9347889,"L"
213769,"440 PRESQUE ISLE DRIVE","PITTSBURGH","PA",15239,40.4727335590001,-79.7128134129999,269,"440 PRESQUE ISLE DRIVE, PITTSBURGH, PA, 15239","Match","Exact","440 PRESQUE ISLE DR, PITTSBURGH, PA, 15239",647485325,"R"
213770,"440 QUADANGLE DRIVE STE C","BOLINGBROOK","IL",60440,NA,NA,270,"440 QUADANGLE DRIVE STE C, BOLINGBROOK, IL, 60440","No_Match",NA,NA,NA,NA
213771,"440 RADCLIFFE DR","SANTA CLARA","CA",95051,37.331215424,-121.985216227,271,"440 RADCLIFFE DR, SANTA CLARA, CA, 95051","Match","Exact","440 RADCLIFFE DR, SANTA CLARA, CA, 95051",122898431,"L"
213772,"440 RAVEN SPRINGS TRAIL","STONE MOUNTAIN","GA",30087,33.784037692,-84.1231203729999,272,"440 RAVEN SPRINGS TRAIL, STONE MOUNTAIN, GA, 30087","Match","Exact","440 RAVEN SPRINGS TRL, STONE MOUNTAIN, GA, 30087",23374868,"L"
213773,"440 RIVERGLEN DRIVE NW","CONCORD","NC",28027,35.3794868700001,-80.688489456,273,"440 RIVERGLEN DRIVE NW, CONCORD, NC, 28027","Match","Exact","440 RIVERGLEN DR NW, CONCORD, NC, 28027",24922556,"R"
213774,"440 RIVERSIDE DRIVE APT 1","NEW YORK","NY",10027,40.8091329330001,-73.965642917,274,"440 RIVERSIDE DRIVE APT 1, NEW YORK, NY, 10027","Match","Exact","440 RIVERSIDE DR, NEW YORK, NY, 10027",59655332,"R"
213775,"440 ROUSSEAU ST","HAYWARD","CA",94544,37.6200564120001,-122.037673838,275,"440 ROUSSEAU ST, HAYWARD, CA, 94544","Match","Exact","440 ROUSSEAU ST, HAYWARD, CA, 94544",606824607,"L"
213776,"440 S 13TH ST","HARRISBURG","PA",17104,40.259504986,-76.8671354429999,276,"440 S 13TH ST, HARRISBURG, PA, 17104","Match","Exact","440 S 13TH ST, HARRISBURG, PA, 17104",70818860,"R"
213777,"440 S BROAD STREET UNIT 1606","PHILADEPHIA","PA",19146,39.9451761500001,-75.1652399879999,277,"440 S BROAD STREET UNIT 1606, PHILADEPHIA, PA, 19146","Match","Non_Exact","440 S BROAD ST, PHILADELPHIA, PA, 19146",636466233,"R"
213778,"440 S BROADWAY STE G8","LOS ANGELES","CA",90013,34.0488996020001,-118.249928972,278,"440 S BROADWAY STE G8, LOS ANGELES, CA, 90013","Match","Non_Exact","440 S BROADWAY, LOS ANGELES, CA, 90013",141617305,"L"
213779,"440 S CLEAR CREEK CT","CLEARWATER","KS",67026,37.4980045140001,-97.492327828,279,"440 S CLEAR CREEK CT, CLEARWATER, KS, 67026","Match","Exact","440 S CLEAR CREEK CT, CLEARWATER, KS, 67026",115712200,"R"
213780,"440 S CRAZY WOMAN RD","BENSON","AZ",85602,31.9570974580001,-110.417611111,280,"440 S CRAZY WOMAN RD, BENSON, AZ, 85602","Match","Exact","440 S CRAZY WOMAN RD, BENSON, AZ, 85602",120954540,"L"
213781,"440 S MAIN STREET","HENDERSON","KY",42420,37.8340167360001,-87.597629888,281,"440 S MAIN STREET, HENDERSON, KY, 42420","Match","Exact","440 S MAIN ST, HENDERSON, KY, 42420",57917460,"R"
213782,"440 S REYNOLDS RD SUITE E","TOLEDO","OH",43615,41.6299996430001,-83.6645086899999,282,"440 S REYNOLDS RD SUITE E, TOLEDO, OH, 43615","Match","Non_Exact","440 S REYNOLDS RD, TOLEDO, OH, 43615",33930011,"R"
213783,"440 SE GRAPE AVENUE","WINSTON","OR",97496,43.116134323,-123.407135424,283,"440 SE GRAPE AVENUE, WINSTON, OR, 97496","Match","Exact","440 GRAPE AVE, WINSTON, OR, 97496",137190206,"R"
213784,"440 SHICKSHINNY VALLEY RD","SHICKSHINNY","PA",18655,41.1289326150001,-76.231610129,284,"440 SHICKSHINNY VALLEY RD, SHICKSHINNY, PA, 18655","Match","Exact","440 SHICKSHINNY VALLEY RD, SHICKSHINNY, PA, 18655",59247488,"R"
213785,"440 SIGEL TRAIL","CENTERTON","AR",72719,36.3609780890001,-94.279124909,285,"440 SIGEL TRAIL, CENTERTON, AR, 72719","Match","Exact","440 SIGEL TRL, CENTERTON, AR, 72719",47885578,"R"
213786,"440 SMITH ST","HARRISBURG","OR",97446,44.272318397,-123.169043995,286,"440 SMITH ST, HARRISBURG, OR, 97446","Match","Exact","440 SMITH ST, HARRISBURG, OR, 97446",647644871,"L"
213787,"440 SONDRIO CT","RENO","NV",89521,39.409322252,-119.73714183,287,"440 SONDRIO CT, RENO, NV, 89521","Match","Exact","440 SONDRIO CT, RENO, NV, 89521",618258523,"R"
213788,"440 SOUTH BABCOCK STREET","MELBOURNE","FL",32901,28.1005627530001,-80.621785113,288,"440 SOUTH BABCOCK STREET, MELBOURNE, FL, 32901","Match","Exact","440 S BABCOCK ST, MELBOURNE, FL, 32901",93904509,"R"
213789,"440 SOUTH LASALLE STREET SUITE 2325","CHICAGO","IL",60605,41.8763703050001,-87.631760331,289,"440 SOUTH LASALLE STREET SUITE 2325, CHICAGO, IL, 60605","Match","Non_Exact","440 S LA SALLE ST, CHICAGO, IL, 60605",111769601,"R"
213790,"440 SPRUCE AVENUE","GARWOOD","NJ",7027,40.6491172280001,-74.325527516,290,"440 SPRUCE AVENUE, GARWOOD, NJ, 7027","Match","Exact","440 SPRUCE AVE, GARWOOD, NJ, 07027",60604495,"R"
213791,"440 SPYGLASS COURT","VACAVILLE","CA",95687,38.3249631210001,-121.97028541,291,"440 SPYGLASS COURT, VACAVILLE, CA, 95687","Match","Exact","440 SPYGLASS CT, VACAVILLE, CA, 95687",192602437,"R"
213792,"440 STONE BRIAR DR","RUSKIN","FL",33570,27.724676109,-82.4550411549999,292,"440 STONE BRIAR DR, RUSKIN, FL, 33570","Match","Exact","440 STONE BRIAR DR, RUSKIN, FL, 33570",628032119,"R"
213793,"440 SUMMIT DRIVE","ORANGE PARK","FL",32073,30.1859838880001,-81.79095827,293,"440 SUMMIT DRIVE, ORANGE PARK, FL, 32073","Match","Exact","440 SUMMIT DR, ORANGE PARK, FL, 32073",83831321,"L"
213794,"440 SWEETWATER CREEK DR","CANTON","GA",30114,34.197672622,-84.587545185,294,"440 SWEETWATER CREEK DR, CANTON, GA, 30114","Match","Exact","440 SWEETWATER CREEK DR, CANTON, GA, 30114",637343474,"L"
213795,"440 SYLVAN AVENUE SUITE 250","ENGLEWOOD CLIFFS","NJ",7632,40.8761735840001,-73.95212552,295,"440 SYLVAN AVENUE SUITE 250, ENGLEWOOD CLIFFS, NJ, 7632","Match","Exact","440 SYLVAN AVE, ENGLEWOOD CLIFFS, NJ, 07632",64412857,"L"
213796,"440 VALLEY VIEW ROAD","SOUTH FORK","CO",81154,37.703839524,-106.56551108,296,"440 VALLEY VIEW ROAD, SOUTH FORK, CO, 81154","Match","Exact","440 VALLEY VIEW RD, SOUTH FORK, CO, 81154",649152659,"R"
213797,"440 VICTORIAN LN","JOHNS CREEK","GA",30097,34.047958055,-84.186582259,297,"440 VICTORIAN LN, JOHNS CREEK, GA, 30097","Match","Exact","440 VICTORIAN LN, JOHNS CREEK, GA, 30097",17403434,"L"
213798,"440 W CHIMNEY PIER LANE","VINCENNES","IN",47591,NA,NA,298,"440 W CHIMNEY PIER LANE, VINCENNES, IN, 47591","No_Match",NA,NA,NA,NA
213799,"440 W COLORADO ST  STE 107","GLENDALE","CA",91204,34.142522666,-118.262398791,299,"440 W COLORADO ST  STE 107, GLENDALE, CA, 91204","Match","Non_Exact","440 W COLORADO ST, GLENDALE, CA, 91204",141609909,"L"
213800,"440 W LAS CRUCES AVE","LAS CRUCES","NM",88005,32.310279382,-106.782990281,300,"440 W LAS CRUCES AVE, LAS CRUCES, NM, 88005","Match","Exact","440 W LAS CRUCES AVE, LAS CRUCES, NM, 88005",189543851,"R"
213801,"440 WAHACKME ROAD","NEW CANAAN","CT",6840,41.1472456770001,-73.5256079599999,301,"440 WAHACKME ROAD, NEW CANAAN, CT, 6840","Match","Exact","440 WAHACKME RD, NEW CANAAN, CT, 06840",618523885,"L"
213802,"440 WALNUT HILL ROAD","NORTH YARMOUTH","ME",4097,43.827872418,-70.248408045,302,"440 WALNUT HILL ROAD, NORTH YARMOUTH, ME, 4097","Match","Exact","440 WALNUT HILL RD, NORTH YARMOUTH, ME, 04097",78021437,"L"
213803,"440 WAVERLY AVE SUITE 11","PATCHOGUE","NY",11772,NA,NA,303,"440 WAVERLY AVE SUITE 11, PATCHOGUE, NY, 11772","No_Match",NA,NA,NA,NA
213804,"440 WEBSTER","ELMHURST","IL",60126,41.8889660840001,-87.924132565,304,"440 WEBSTER, ELMHURST, IL, 60126","Match","Non_Exact","440 WEBSTER AVE, ELMHURST, IL, 60126",112545695,"R"
213805,"440 WELLETTKA DR","EL PASO","TX",79927,31.6206871460001,-106.246282034,305,"440 WELLETTKA DR, EL PASO, TX, 79927","Match","Exact","440 WELLETTKA DR, EL PASO, TX, 79927",189371788,"R"
213806,"440 WELSHWOOD DR","NASHVILLE","TN",37211,36.082900796,-86.730683078,306,"440 WELSHWOOD DR, NASHVILLE, TN, 37211","Match","Exact","440 WELSHWOOD DR, NASHVILLE, TN, 37211",639347657,"L"
213807,"440 WEST BURT DRIVE","LINCOLN","NE",68521,40.8692051630001,-96.7285067559999,307,"440 WEST BURT DRIVE, LINCOLN, NE, 68521","Match","Exact","440 W BURT DR, LINCOLN, NE, 68521",28250817,"R"
213808,"440 WEST MAIN STREET","ABINGDON","VA",24210,36.707079363,-81.9853510789999,308,"440 WEST MAIN STREET, ABINGDON, VA, 24210","Match","Exact","440 W MAIN ST, ABINGDON, VA, 24210",154351904,"R"
213809,"440 WHITLEY STREET","CEDAR HILL","TX",75104,32.58888095,-96.9359026659999,309,"440 WHITLEY STREET, CEDAR HILL, TX, 75104","Match","Exact","440 WHITLEY ST, CEDAR HILL, TX, 75104",103185702,"L"
213810,"440 WILLOW GLEN WAY APT 312","SAN JOSE","CA",95125,37.3039758800001,-121.879680401,310,"440 WILLOW GLEN WAY APT 312, SAN JOSE, CA, 95125","Match","Exact","440 WILLOW GLEN WAY, SAN JOSE, CA, 95125",122910799,"L"
213811,"440 WOODSIDE AVE","HINSDALE","IL",60521,41.7979243080001,-87.918983387,311,"440 WOODSIDE AVE, HINSDALE, IL, 60521","Match","Exact","440 WOODSIDE AVE, HINSDALE, IL, 60521",639893184,"R"
213812,"440-A CAUSEWAY DR","WRIGHTSVILLE BEACH","NC",28480,34.2124231350001,-77.803264274,312,"440-A CAUSEWAY DR, WRIGHTSVILLE BEACH, NC, 28480","Match","Exact","440 CAUSEWAY DR, WRIGHTSVILLE BEACH, NC, 28480",152736985,"R"
213813,"4400  UNIVERSITY DRIVE MSN5B6","FAIRFAX","VA",22030,38.8355009310001,-77.307073219,313,"4400  UNIVERSITY DRIVE MSN5B6, FAIRFAX, VA, 22030","Match","Exact","4400 UNIVERSITY DR, FAIRFAX, VA, 22030",641118527,"L"
213814,"4400 23RD AVE SW","NAPLES","FL",34116,26.1862073180001,-81.6961889519999,314,"4400 23RD AVE SW, NAPLES, FL, 34116","Match","Exact","4400 23RD AVE SW, NAPLES, FL, 34116",115147349,"R"
213815,"4400 A AMBASSADOR CAFFERY 194","LAFAYETTE","LA",70503,NA,NA,315,"4400 A AMBASSADOR CAFFERY 194, LAFAYETTE, LA, 70503","No_Match",NA,NA,NA,NA
213816,"4400 ALTURA AVENUE NE","ALBUQUERQUE","NM",87110,35.0957077740001,-106.596873925,316,"4400 ALTURA AVENUE NE, ALBUQUERQUE, NM, 87110","Match","Exact","4400 ALTURA AVE NE, ALBUQUERQUE, NM, 87110",206716133,"R"
213817,"4400 BASS ST","TAMPA","FL",33617,28.0121571440001,-82.4088641069999,317,"4400 BASS ST, TAMPA, FL, 33617","Match","Exact","4400 BASS ST, TAMPA, FL, 33617",104532848,"L"
213818,"4400 BERKMAN DR UNIT E","AUSTIN","TX",78723,30.296669627,-97.700344973,318,"4400 BERKMAN DR UNIT E, AUSTIN, TX, 78723","Match","Exact","4400 BERKMAN DR, AUSTIN, TX, 78723",640827448,"L"
213819,"4400 BLANCO AVE","EL PASO","TX",79905,31.766110736,-106.437518192,319,"4400 BLANCO AVE, EL PASO, TX, 79905","Match","Exact","4400 BLANCO AVE, EL PASO, TX, 79905",189345050,"R"
213820,"4400 BRASELON HWY 124","MILL CREEK HS GOLF","GA",30548,NA,NA,320,"4400 BRASELON HWY 124, MILL CREEK HS GOLF, GA, 30548","No_Match",NA,NA,NA,NA
213821,"4400 BRASELTON HIGHWAY","HOSCHTON","GA",30548,34.0766610640001,-83.8781291619999,321,"4400 BRASELTON HIGHWAY, HOSCHTON, GA, 30548","Match","Exact","4400 BRASELTON HWY, HOSCHTON, GA, 30548",615651222,"L"
213822,"4400 BRASELTON HWY 124","HOSCHTON","GA",30548,34.0766610640001,-83.8781291619999,322,"4400 BRASELTON HWY 124, HOSCHTON, GA, 30548","Match","Exact","4400 BRASELTON HWY, HOSCHTON, GA, 30548",615651222,"L"
213823,"4400 BRECKENRIDGE LANE 400","LOUISVILLE","KY",40218,38.1836818990001,-85.6263716449999,323,"4400 BRECKENRIDGE LANE 400, LOUISVILLE, KY, 40218","Match","Exact","4400 BRECKENRIDGE LN, LOUISVILLE, KY, 40218",653256704,"R"
213824,"4400 BRECKENRIDGE LANE STE 100","LOUISVILLE","KY",40218,38.1836818990001,-85.6263716449999,324,"4400 BRECKENRIDGE LANE STE 100, LOUISVILLE, KY, 40218","Match","Exact","4400 BRECKENRIDGE LN, LOUISVILLE, KY, 40218",653256704,"R"
213825,"4400 BRIERCREST AVE","LAKEWOOD","CA",90712,33.8378348250001,-118.123239891,325,"4400 BRIERCREST AVE, LAKEWOOD, CA, 90712","Match","Non_Exact","4400 BRIERCREST AVE, LAKEWOOD, CA, 90713",642866931,"R"
213826,"4400 BRIERCREST AVENUE","LAKEWOOD","CA",90713,33.8378348250001,-118.123239891,326,"4400 BRIERCREST AVENUE, LAKEWOOD, CA, 90713","Match","Exact","4400 BRIERCREST AVE, LAKEWOOD, CA, 90713",642866931,"R"
213827,"4400 BRIERCREST","LAKEWOOD","CA",90713,33.8378348250001,-118.123239891,327,"4400 BRIERCREST, LAKEWOOD, CA, 90713","Match","Non_Exact","4400 BRIERCREST AVE, LAKEWOOD, CA, 90713",642866931,"R"
213828,"4400 BROADWAY SUITE 202","KANSAS CITY","MO",64111,39.0485944910001,-94.592093441,328,"4400 BROADWAY SUITE 202, KANSAS CITY, MO, 64111","Match","Non_Exact","4400 BROADWAY ST, KANSAS CITY, MO, 64111",91494179,"L"
213829,"4400 BROWNSVILLE ROAD STE 205-107","POWDER SPRINGS","GA",30127,33.846567371,-84.696819063,329,"4400 BROWNSVILLE ROAD STE 205-107, POWDER SPRINGS, GA, 30127","Match","Exact","4400 BROWNSVILLE RD, POWDER SPGS, GA, 30127",640540833,"R"
213830,"4400 BUSINESS PARK BLVD SUITE B-22","ANCHORAGE","AK",99503,61.1805175750001,-149.889237962,330,"4400 BUSINESS PARK BLVD SUITE B-22, ANCHORAGE, AK, 99503","Match","Non_Exact","4400 BUS PARK BLVD, ANCHORAGE, AK, 99503",190798381,"R"
213831,"4400 BYRD MILL ROAD","LOUISA","VA",23093,38.0204365710001,-78.094054479,331,"4400 BYRD MILL ROAD, LOUISA, VA, 23093","Match","Exact","4400 BYRD MILL RD, LOUISA, VA, 23093",84919587,"R"
213832,"4400 CALICO DR APT 402","FARGO","ND",34482,NA,NA,332,"4400 CALICO DR APT 402, FARGO, ND, 34482","No_Match",NA,NA,NA,NA
213833,"4400 CANDY MOUNTAIN AVE","WEST RICHLAND","WA",99353,46.261174909,-119.353046712,333,"4400 CANDY MOUNTAIN AVE, WEST RICHLAND, WA, 99353","Match","Exact","4400 CANDY MTN AVE, WEST RICHLAND, WA, 99353",175008641,"R"
213834,"4400 CHESTNUT STREET 1","PHILADELPHIA","PA",19104,39.956573383,-75.209865959,334,"4400 CHESTNUT STREET 1, PHILADELPHIA, PA, 19104","Match","Exact","4400 CHESTNUT ST, PHILADELPHIA, PA, 19104",131403771,"L"
213835,"4400 CHESTNUT STREET","PHILADELPHIA","PA",19104,39.956573383,-75.209865959,335,"4400 CHESTNUT STREET, PHILADELPHIA, PA, 19104","Match","Exact","4400 CHESTNUT ST, PHILADELPHIA, PA, 19104",131403771,"L"
213836,"4400 CHESTNUT STREETS FL 1B","PHILADELPHIA","PA",19107,NA,NA,336,"4400 CHESTNUT STREETS FL 1B, PHILADELPHIA, PA, 19107","No_Match",NA,NA,NA,NA
213837,"4400 COLISEUM BLVD","ALEXANDRIA","LA",71303,31.296923346,-92.491304895,337,"4400 COLISEUM BLVD, ALEXANDRIA, LA, 71303","Match","Exact","4400 COLISEUM BLVD, ALEXANDRIA, LA, 71303",639753604,"L"
213838,"4400 COUNTRY CLUB DRIVE UNIT 16","BAKERSFIELD","CA",93306,35.388160231,-118.931964897,338,"4400 COUNTRY CLUB DRIVE UNIT 16, BAKERSFIELD, CA, 93306","Match","Exact","4400 COUNTRY CLUB DR, BAKERSFIELD, CA, 93306",632612413,"L"
213839,"4400 COVE NECK CT","MOSELEY","VA",23120,37.4412569510001,-77.7192399479999,339,"4400 COVE NECK CT, MOSELEY, VA, 23120","Match","Exact","4400 COVE NECK CT, MOSELEY, VA, 23120",636823895,"L"
213840,"4400 DUTCH HOLLOW ROAD","BEMUS POINT","NY",14712,42.1786623890001,-79.343004849,340,"4400 DUTCH HOLLOW ROAD, BEMUS POINT, NY, 14712","Match","Exact","4400 DUTCH HOLLOW RD, BEMUS POINT, NY, 14712",120781538,"R"
213841,"4400 E 12TH TER","KANSAS CITY","MO",64137,NA,NA,341,"4400 E 12TH TER, KANSAS CITY, MO, 64137","No_Match",NA,NA,NA,NA
213842,"4400 E CALLAHAN RD","ETNA","CA",96027,41.4028790520001,-122.826047136,342,"4400 E CALLAHAN RD, ETNA, CA, 96027","Match","Exact","4400 E CALLAHAN RD, ETNA, CA, 96027",113304632,"R"
213843,"4400 E WOODLAND DR","POST FALLS","ID",83854,47.701690306,-116.889171478,343,"4400 E WOODLAND DR, POST FALLS, ID, 83854","Match","Exact","4400 E WOODLAND DR, POST FALLS, ID, 83854",192900158,"R"
213844,"4400 FM 2093","FREDERICKSBURG","TX",78624,30.241758674,-98.961307545,344,"4400 FM 2093, FREDERICKSBURG, TX, 78624","Match","Exact","4400 FM 2093, FREDERICKSBURG, TX, 78624",176838388,"R"
213845,"4400 GIN PLANTATION DR","SNELLVILLE","GA",30039,33.7826327220001,-84.018556867,345,"4400 GIN PLANTATION DR, SNELLVILLE, GA, 30039","Match","Exact","4400 GIN PLANTATION DR, SNELLVILLE, GA, 30039",88964116,"R"
213846,"4400 GLEN CANYON CIR","PITTSBURG","CA",94565,37.9916545510001,-121.868286169,346,"4400 GLEN CANYON CIR, PITTSBURG, CA, 94565","Match","Exact","4400 GLEN CANYON CIR, PITTSBURG, CA, 94565",624025074,"R"
213847,"4400 GREENSBURG PIKE","PITTSBURGH","PA",15221,NA,NA,347,"4400 GREENSBURG PIKE, PITTSBURGH, PA, 15221","No_Match",NA,NA,NA,NA
213848,"4400 HOME AVE","STICKNEY","IL",60402,41.812077591,-87.7971892749999,348,"4400 HOME AVE, STICKNEY, IL, 60402","Match","Exact","4400 HOME AVE, STICKNEY, IL, 60402",111795944,"R"
213849,"4400 HORIZON HILL APT2006","SAN ANTONIO","TX",78229,29.5150211170001,-98.556699311,349,"4400 HORIZON HILL APT2006, SAN ANTONIO, TX, 78229","Match","Non_Exact","4400 HORIZON HILL BLVD, SAN ANTONIO, TX, 78229",101547314,"R"
213850,"4400 KAPALUA DRIVE","SANTA MARIA","CA",93455,34.877717224,-120.46392339,350,"4400 KAPALUA DRIVE, SANTA MARIA, CA, 93455","Match","Exact","4400 KAPALUA DR, SANTA MARIA, CA, 93455",108622017,"L"
213851,"4400 KEETER DRIVE","NORTH RICHLAND HILLS","TX",76180,32.828251553,-97.208399834,351,"4400 KEETER DRIVE, NORTH RICHLAND HILLS, TX, 76180","Match","Exact","4400 KEETER DR, NORTH RICHLAND HILLS, TX, 76180",101865296,"R"
213852,"4400 KELLER AVE STE140 NUM 322","OAKLAND","CA",94605,37.7704215260001,-122.150576603,352,"4400 KELLER AVE STE140 NUM 322, OAKLAND, CA, 94605","Match","Exact","4400 KELLER AVE, OAKLAND, CA, 94605",125011025,"R"
213853,"4400 KELLER AVENUE SUITE 138","OAKLAND","CA",94605,37.7704215260001,-122.150576603,353,"4400 KELLER AVENUE SUITE 138, OAKLAND, CA, 94605","Match","Exact","4400 KELLER AVE, OAKLAND, CA, 94605",125011025,"R"
213854,"4400 KELLER AVENUE SUITE 150","OAKLAND","CA",94605,37.7704215260001,-122.150576603,354,"4400 KELLER AVENUE SUITE 150, OAKLAND, CA, 94605","Match","Exact","4400 KELLER AVE, OAKLAND, CA, 94605",125011025,"R"
213855,"4400 KELLER RD 10-402","OAKLAND","CA",94619,NA,NA,355,"4400 KELLER RD 10-402, OAKLAND, CA, 94619","No_Match",NA,NA,NA,NA
213856,"4400 KELMARBI ROAD","S CHESTERFIELD","VA",23834,37.286067304,-77.436920748,356,"4400 KELMARBI ROAD, S CHESTERFIELD, VA, 23834","Match","Exact","4400 KELMARBI RD, SOUTH CHESTERFIELD, VA, 23834",648453418,"R"
213857,"4400 KEN MICHAEL CT","NORTH RICHLAND HILL","TX",76180,32.833758507,-97.2228120939999,357,"4400 KEN MICHAEL CT, NORTH RICHLAND HILL, TX, 76180","Match","Non_Exact","4400 KEN MICHAEL CT, NORTH RICHLAND HILLS, TX, 76180",102127849,"R"
213858,"4400 KIRCHNER COURT","ALEXANDRIA","VA",22304,38.8280292430001,-77.106093871,358,"4400 KIRCHNER COURT, ALEXANDRIA, VA, 22304","Match","Exact","4400 KIRCHNER CT, ALEXANDRIA, VA, 22304",75986804,"R"
213859,"4400 LANDSBERG COURT SOUTH","GREENSBORO","NC",27407,36.017775398,-79.875606923,359,"4400 LANDSBERG COURT SOUTH, GREENSBORO, NC, 27407","Match","Exact","4400 LANDSBERG CT S, GREENSBORO, NC, 27407",629651233,"L"
213860,"4400 LISA LANE","OAK FOREST","IL",60452,41.5903271380001,-87.727106586,360,"4400 LISA LANE, OAK FOREST, IL, 60452","Match","Exact","4400 LISA LN, OAK FOREST, IL, 60452",111704185,"R"
213861,"4400 LLOYD NOLAND PARKWAY","FAIFIELD","AL",35064,NA,NA,361,"4400 LLOYD NOLAND PARKWAY, FAIFIELD, AL, 35064","No_Match",NA,NA,NA,NA
213862,"4400 MACARTHUR BLVD NW  SUITE 100","WASHINGTON","DC",20007,NA,NA,362,"4400 MACARTHUR BLVD NW  SUITE 100, WASHINGTON, DC, 20007","No_Match",NA,NA,NA,NA
213863,"4400 MACARTHUR BLVD STE 900","NEWPORT BEACH","CA",92660,NA,NA,363,"4400 MACARTHUR BLVD STE 900, NEWPORT BEACH, CA, 92660","No_Match",NA,NA,NA,NA
213864,"4400 MACARTHUR BLVD SUITE 900","NEWPORT BEACH","CA",92660,NA,NA,364,"4400 MACARTHUR BLVD SUITE 900, NEWPORT BEACH, CA, 92660","No_Match",NA,NA,NA,NA
213865,"4400 MAGEE AVENUE","PHILADELPHIA","PA",19135,40.026364367,-75.051072373,365,"4400 MAGEE AVENUE, PHILADELPHIA, PA, 19135","Match","Exact","4400 MAGEE AVE, PHILADELPHIA, PA, 19135",131435023,"R"
213866,"4400 MASSACHUSETTS AVE NW-INCUBATOR","WASHINGTON","DC",20016,38.938825771,-77.0871543499999,366,"4400 MASSACHUSETTS AVE NW-INCUBATOR, WASHINGTON, DC, 20016","Match","Exact","4400 MASSACHUSETTS AVE NW, WASHINGTON, DC, 20016",636882334,"L"
213867,"4400 MASSACHUSETTS AVE NW","WASHINGTON","DC",20016,38.938825771,-77.0871543499999,367,"4400 MASSACHUSETTS AVE NW, WASHINGTON, DC, 20016","Match","Exact","4400 MASSACHUSETTS AVE NW, WASHINGTON, DC, 20016",636882334,"L"
213868,"4400 MASSACHUSETTS AVENUE NW","WASHINGTON","DC",20016,38.938825771,-77.0871543499999,368,"4400 MASSACHUSETTS AVENUE NW, WASHINGTON, DC, 20016","Match","Exact","4400 MASSACHUSETTS AVE NW, WASHINGTON, DC, 20016",636882334,"L"
213869,"4400 MCKINNEY ST","HOUSTON","TX",77023,29.741352652,-95.334463108,369,"4400 MCKINNEY ST, HOUSTON, TX, 77023","Match","Exact","4400 MCKINNEY ST, HOUSTON, TX, 77023",96081510,"R"
213870,"4400 N 107TH ST","KANSAS CITY","KS",66109,39.1669232940001,-94.8267421739999,370,"4400 N 107TH ST, KANSAS CITY, KS, 66109","Match","Exact","4400 N 107TH ST, KANSAS CITY, KS, 66109",619587466,"L"
213871,"4400 N 170TH STREET","KANSAS CITY","KS",66109,NA,NA,371,"4400 N 170TH STREET, KANSAS CITY, KS, 66109","No_Match",NA,NA,NA,NA
213872,"4400 N 39TH STREET","MILWAUKEE","WI",53209,43.097291925,-87.961635271,372,"4400 N 39TH STREET, MILWAUKEE, WI, 53209","Match","Exact","4400 N 39TH ST, MILWAUKEE, WI, 53209",77737338,"R"
213873,"4400 N FEDERAL HIGHWAY STE 210","BOCA RATON","FL",33431,26.3884719440001,-80.07653132,373,"4400 N FEDERAL HIGHWAY STE 210, BOCA RATON, FL, 33431","Match","Non_Exact","4400 N FEDERAL HWY, BOCA RATON, FL, 33431",115293534,"R"
213874,"4400 N FEDERAL HWY SUITE 210","BOCA RATON","FL",33486,NA,NA,374,"4400 N FEDERAL HWY SUITE 210, BOCA RATON, FL, 33486","No_Match",NA,NA,NA,NA
213875,"4400 N SCOTTSDALE RD STE 999","SCOTTSDALE","AZ",85251,33.5009516220001,-111.926151073,375,"4400 N SCOTTSDALE RD STE 999, SCOTTSDALE, AZ, 85251","Match","Non_Exact","4400 N SCOTTSDALE RD, SCOTTSDALE, AZ, 85251",244030788,"L"
213876,"4400 N SCOTTSDALE ROAD - 9-210","SCOTTSDALE","AZ",85251,33.5009516220001,-111.926151073,376,"4400 N SCOTTSDALE ROAD - 9-210, SCOTTSDALE, AZ, 85251","Match","Non_Exact","4400 N SCOTTSDALE RD, SCOTTSDALE, AZ, 85251",244030788,"L"
213877,"4400 N SCOTTSDALE ROAD 9360","SCOTTSDALE","AZ",85251,33.5009516220001,-111.926151073,377,"4400 N SCOTTSDALE ROAD 9360, SCOTTSDALE, AZ, 85251","Match","Non_Exact","4400 N SCOTTSDALE RD, SCOTTSDALE, AZ, 85251",244030788,"L"
213878,"4400 NEW JERSEY AVENUE","WILDWOOD","NJ",8260,38.986489109,-74.82140399,378,"4400 NEW JERSEY AVENUE, WILDWOOD, NJ, 8260","Match","Non_Exact","4400 NEW JERSEY AVE, WILDWOOD, NJ, 08260",174333405,"L"
213879,"4400 NORTH 107TH STREET","KANSAS CITY","KS",66109,39.1668982890001,-94.826742312,379,"4400 NORTH 107TH STREET, KANSAS CITY, KS, 66109","Match","Exact","4400 N 107TH ST, KANSAS CITY, KS, 66109",619587466,"L"
213880,"4400 NORTH SCOTTSDALE ROAD 9-333","SCOTTSDALE","AZ",85251,33.5009516220001,-111.926151073,380,"4400 NORTH SCOTTSDALE ROAD 9-333, SCOTTSDALE, AZ, 85251","Match","Exact","4400 N SCOTTSDALE RD, SCOTTSDALE, AZ, 85251",244030788,"L"
213881,"4400 NW 107TH AVENUE UNIT 104","DORAL","FL",33178,25.813683881,-80.369466889,381,"4400 NW 107TH AVENUE UNIT 104, DORAL, FL, 33178","Match","Non_Exact","4400 NW 107TH AVE, DORAL, FL, 33178",625168323,"R"
213882,"4400 NW 13TH CT","LAUDERHILL","FL",33313,26.1429868330001,-80.2090012579999,382,"4400 NW 13TH CT, LAUDERHILL, FL, 33313","Match","Exact","4400 NW 13TH CT, LAUDERHILL, FL, 33313",114708226,"L"
213883,"4400 NW 5 PLACE","PLATATION","FL",33317,26.129286721,-80.207917488,383,"4400 NW 5 PLACE, PLATATION, FL, 33317","Match","Non_Exact","4400 NW 5TH PL, PLANTATION, FL, 33317",114708682,"L"
213884,"4400 PARK ROAD SUITE 308","CHARLOTTE","NC",28209,35.1719486470001,-80.8511448089999,384,"4400 PARK ROAD SUITE 308, CHARLOTTE, NC, 28209","Match","Exact","4400 PARK RD, CHARLOTTE, NC, 28209",70486981,"R"
213885,"4400 POST OAK PARKWAY","HOUSTON","TX",77027,29.747499416,-95.451291252,385,"4400 POST OAK PARKWAY, HOUSTON, TX, 77027","Match","Exact","4400 POST OAK PKWY, HOUSTON, TX, 77027",96295047,"L"
213886,"4400 READING RD STE 1","CINCINNATI","OH",45229,39.163670643,-84.4723210289999,386,"4400 READING RD STE 1, CINCINNATI, OH, 45229","Match","Exact","4400 READING RD, CINCINNATI, OH, 45229",103929558,"R"
213887,"4400 RIVERVIEW LN","LITHONIA","GA",30038,33.667880434,-84.206937505,387,"4400 RIVERVIEW LN, LITHONIA, GA, 30038","Match","Exact","4400 RIVERVIEW LN, LITHONIA, GA, 30038",629755726,"L"
213888,"4400 ROLLING HILL DRIVE","CHARLOTTE","NC",28213,35.262312933,-80.7932881629999,388,"4400 ROLLING HILL DRIVE, CHARLOTTE, NC, 28213","Match","Exact","4400 ROLLING HILL DR, CHARLOTTE, NC, 28213",640628847,"R"
213889,"4400 S CROCKETT","AMARILLO","TX",79110,35.1654644000001,-101.858430026,389,"4400 S CROCKETT, AMARILLO, TX, 79110","Match","Non_Exact","4400 CROCKETT ST, AMARILLO, TX, 79110",182655312,"R"
213890,"4400 S JONES BLVD UNIT 1020","LAS VEGAS","NV",89103,36.1098844050001,-115.224917219,390,"4400 S JONES BLVD UNIT 1020, LAS VEGAS, NV, 89103","Match","Non_Exact","4400 S JONES BLVD, LAS VEGAS, NV, 89103",640226413,"L"
213891,"4400 S LIBERTY UNIT 4","INDEPENDENCE","MO",64505,NA,NA,391,"4400 S LIBERTY UNIT 4, INDEPENDENCE, MO, 64505","No_Match",NA,NA,NA,NA
213892,"4400 S VISTA LANE","SIOUX FALLS","SD",57105,43.5030245950001,-96.7290693739999,392,"4400 S VISTA LANE, SIOUX FALLS, SD, 57105","Match","Exact","4400 S VISTA LN, SIOUX FALLS, SD, 57105",653266047,"L"
213893,"4400 S WILSON ST","AMARILLO","TX",79118,35.1679135370001,-101.819863981,393,"4400 S WILSON ST, AMARILLO, TX, 79118","Match","Exact","4400 WILSON ST, AMARILLO, TX, 79118",600385089,"R"
213894,"4400 SAINT ANDREWS RD","COLUMBIA","SC",29210,NA,NA,394,"4400 SAINT ANDREWS RD, COLUMBIA, SC, 29210","No_Match",NA,NA,NA,NA
213895,"4400 SE 35TH STREET","DES MOINES","IA",50320,41.5441492580001,-93.5471591089999,395,"4400 SE 35TH STREET, DES MOINES, IA, 50320","Match","Exact","4400 SE 35TH ST, DES MOINES, IA, 50320",65852132,"R"
213896,"4400 SECLUDED LAKE DRIVE NE","ROCKFORD","MI",49341,43.07730974,-85.560124178,396,"4400 SECLUDED LAKE DRIVE NE, ROCKFORD, MI, 49341","Match","Exact","4400 SECLUDED LAKE DR NE, ROCKFORD, MI, 49341",12510099,"L"
213897,"4400 SMITH RD","NORWOOD","OH",45212,39.1564944470001,-84.4484729499999,397,"4400 SMITH RD, NORWOOD, OH, 45212","Match","Exact","4400 SMITH RD, NORWOOD, OH, 45212",648680084,"R"
213898,"4400 STATE HIGHWAY 121 STE 300","LEWISVILLE","TX",75056,NA,NA,398,"4400 STATE HIGHWAY 121 STE 300, LEWISVILLE, TX, 75056","No_Match",NA,NA,NA,NA
213899,"4400 STATE HWY 121 STE 300","LEWISVILLE","TX",75056,NA,NA,399,"4400 STATE HWY 121 STE 300, LEWISVILLE, TX, 75056","No_Match",NA,NA,NA,NA
213900,"4400 SW 72ND WAY","DAVIE","FL",33314,26.0671683910001,-80.242747586,400,"4400 SW 72ND WAY, DAVIE, FL, 33314","Match","Exact","4400 SW 72ND WAY, DAVIE, FL, 33314",645579323,"L"
213901,"4400 TANTILLA CIRCLE UNIT B","CHARLOTTE","NC",28215,35.2316660770001,-80.732361924,401,"4400 TANTILLA CIRCLE UNIT B, CHARLOTTE, NC, 28215","Match","Exact","4400 TANTILLA CIR, CHARLOTTE, NC, 28215",70482595,"R"
213902,"4400 TELFAIR BLVD APT 2057","CAMP SPRINGS","MD",20746,38.8298658150001,-76.910740598,402,"4400 TELFAIR BLVD APT 2057, CAMP SPRINGS, MD, 20746","Match","Exact","4400 TELFAIR BLVD, CAMP SPRINGS, MD, 20746",647285630,"L"
213903,"4400 UNIVERSITY DRIVE/MSN 6E1","FAIRFAX","VA",22030,38.8355009310001,-77.307073219,403,"4400 UNIVERSITY DRIVE/MSN 6E1, FAIRFAX, VA, 22030","Match","Non_Exact","4400 UNIVERSITY DR, FAIRFAX, VA, 22030",641118527,"L"
213904,"4400 US HWY 92 W","PLANT CITY","FL",33563,28.020178017,-82.170637755,404,"4400 US HWY 92 W, PLANT CITY, FL, 33563","Match","Non_Exact","4400 US HWY 92, PLANT CITY, FL, 33563",635545076,"R"
213905,"4400 VERDE GLEN COURT","MIDLAND","TX",79707,32.059199963,-102.15624603,405,"4400 VERDE GLEN COURT, MIDLAND, TX, 79707","Match","Exact","4400 VERDE GLEN CT, MIDLAND, TX, 79707",139592399,"R"
213906,"4400 VIRGINIA BEACH BOULEVARD","VIRGINIA BEACH","VA",23462,36.84353415,-76.126767081,406,"4400 VIRGINIA BEACH BOULEVARD, VIRGINIA BEACH, VA, 23462","Match","Exact","4400 VIRGINIA BEACH BLVD, VA BCH, VA, 23462",122275803,"R"
213907,"4400 W EARHART WAY","CHANDLER","AZ",85226,NA,NA,407,"4400 W EARHART WAY, CHANDLER, AZ, 85226","No_Match",NA,NA,NA,NA
213908,"4400 WARM SPRINGS RD  APT 33","COLUMBUS","GA",31909,32.5183675910001,-84.9198026729999,408,"4400 WARM SPRINGS RD  APT 33, COLUMBUS, GA, 31909","Match","Exact","4400 WARM SPRINGS RD, COLUMBUS, GA, 31909",98939962,"R"
213909,"4400 WATER OAK ROAD","CHARLOTTE","NC",28211,35.184951615,-80.7927920289999,409,"4400 WATER OAK ROAD, CHARLOTTE, NC, 28211","Match","Exact","4400 WATER OAK RD, CHARLOTTE, NC, 28211",70491800,"R"
213910,"4400 WEST SAMPLE ROAD SUITE 200","COCONUT CREEK","FL",33073,26.2737413730001,-80.184328917,410,"4400 WEST SAMPLE ROAD SUITE 200, COCONUT CREEK, FL, 33073","Match","Exact","4400 W SAMPLE RD, COCONUT CREEK, FL, 33073",640918717,"R"
213911,"4400 WEST SPRUCE STREET APT 477","TAMPA","FL",33607,NA,NA,411,"4400 WEST SPRUCE STREET APT 477, TAMPA, FL, 33607","No_Match",NA,NA,NA,NA
213912,"4400 WILL ROGERS PARKWAY","OKLAHOMA CITY","OK",73108,35.452243239,-97.598901656,412,"4400 WILL ROGERS PARKWAY, OKLAHOMA CITY, OK, 73108","Match","Exact","4400 WILL ROGERS PKWY, OKLAHOMA CITY, OK, 73108",100392148,"L"
213913,"4400 YALE ROAD","MEMPHIS","TN",38128,35.2218378430001,-89.9169877639999,413,"4400 YALE ROAD, MEMPHIS, TN, 38128","Match","Exact","4400 YALE RD, MEMPHIS, TN, 38128",72914652,"L"
213914,"44001 GARFEILD","CLINTON TWP","MI",48038,NA,NA,414,"44001 GARFEILD, CLINTON TWP, MI, 48038","No_Match",NA,NA,NA,NA
213915,"44001 TERRAZA CT","TEMECULA","CA",92592,33.4878140390001,-117.089969374,415,"44001 TERRAZA CT, TEMECULA, CA, 92592","Match","Exact","44001 TERRAZA CT, TEMECULA, CA, 92592",194877912,"L"
213916,"4401 62ND AVENUE SW","GREAT FALLS","MT",59404,47.4504270080001,-111.375315319,416,"4401 62ND AVENUE SW, GREAT FALLS, MT, 59404","Match","Exact","4401 62ND AVE SW, GREAT FALLS, MT, 59404",202230995,"L"
213917,"4401 BLUEFIELD DR","CORPUS CHRISTI","TX",78413,27.698680869,-97.403113557,417,"4401 BLUEFIELD DR, CORPUS CHRISTI, TX, 78413","Match","Exact","4401 BLUEFIELD DR, CORPUS CHRISTI, TX, 78413",178520379,"R"
213918,"4401 BONDALE DRIVE","COLUMBUS","GA",31907,32.5086481920001,-84.906566047,418,"4401 BONDALE DRIVE, COLUMBUS, GA, 31907","Match","Exact","4401 BONDALE DR, COLUMBUS, GA, 31907",98956696,"L"
213919,"4401 BRYANT DR","LILBURN","GA",30047,33.880078961,-84.1144837589999,419,"4401 BRYANT DR, LILBURN, GA, 30047","Match","Non_Exact","4401 BRYANT DR SW, LILBURN, GA, 30047",88887237,"R"
213920,"4401 BRYANT STREET","DENVER","CO",80211,39.7766968830001,-105.019369771,420,"4401 BRYANT STREET, DENVER, CO, 80211","Match","Exact","4401 BRYANT ST, DENVER, CO, 80211",177301008,"L"
213921,"4401 CAROLINE AVENUE","TOLEDO","OH",43612,41.6987348440001,-83.5580177909999,421,"4401 CAROLINE AVENUE, TOLEDO, OH, 43612","Match","Exact","4401 CAROLINE AVE, TOLEDO, OH, 43612",646701746,"L"
213922,"4401 CHANDLER ROAD","HERMITAGE","TN",37076,36.188029655,-86.6072607199999,422,"4401 CHANDLER ROAD, HERMITAGE, TN, 37076","Match","Exact","4401 CHANDLER RD, HERMITAGE, TN, 37076",645520138,"R"
213923,"4401 CHARNETA CT","LAS VEGAS","NV",89130,36.2393591860001,-115.217793884,423,"4401 CHARNETA CT, LAS VEGAS, NV, 89130","Match","Exact","4401 CHARNETA CT, LAS VEGAS, NV, 89130",201907917,"L"
213924,"4401 COIT ROAD   -  SUITE 303","FRISCO","TX",75035,NA,NA,424,"4401 COIT ROAD   -  SUITE 303, FRISCO, TX, 75035","No_Match",NA,NA,NA,NA
213925,"4401 COIT ROAD/SUITE 303","FRISCO","TX",75035,NA,NA,425,"4401 COIT ROAD/SUITE 303, FRISCO, TX, 75035","No_Match",NA,NA,NA,NA
213926,"4401 COUNTRY CLUB VIEW","BAYTOWN","TX",77521,29.764495192,-94.988280692,426,"4401 COUNTRY CLUB VIEW, BAYTOWN, TX, 77521","Match","Exact","4401 COUNTRY CLUB VW, BAYTOWN, TX, 77521",96424026,"L"
213927,"4401 CR 309","LEXINGTON","TX",78650,NA,NA,427,"4401 CR 309, LEXINGTON, TX, 78650","No_Match",NA,NA,NA,NA
213928,"4401 DREXEL WAY","ATLANTA","GA",30346,NA,NA,428,"4401 DREXEL WAY, ATLANTA, GA, 30346","No_Match",NA,NA,NA,NA
213929,"4401 E 147TH AVE","ANCHORAGE","AK",99516,61.088147528,-149.799377694,429,"4401 E 147TH AVE, ANCHORAGE, AK, 99516","Match","Exact","4401 E 147TH AVE, ANCHORAGE, AK, 99516",190822739,"R"
213930,"4401 EAST 46 ST","NORTH LITTLE ROCK","AR",72117,34.796390386,-92.216082023,430,"4401 EAST 46 ST, NORTH LITTLE ROCK, AR, 72117","Match","Exact","4401 E 46TH ST, N LITTLE ROCK, AR, 72117",642520865,"L"
213931,"4401 FELIX WAY SE","SMYRNA","GA",30082,33.841207302,-84.529989141,431,"4401 FELIX WAY SE, SMYRNA, GA, 30082","Match","Non_Exact","4401 FELIX WAY, SMYRNA, GA, 30082",614173016,"L"
213932,"4401 FIR TREE ROAD SE","OLYMPIA","WA",98501,46.965160326,-122.825778865,432,"4401 FIR TREE ROAD SE, OLYMPIA, WA, 98501","Match","Exact","4401 FIR TREE RD SE, OLYMPIA, WA, 98501",624394842,"R"
213933,"4401 FRISCO BRIDGE BLVD","EDMOND","OK",73034,35.6991583930001,-97.462869277,433,"4401 FRISCO BRIDGE BLVD, EDMOND, OK, 73034","Match","Exact","4401 FRISCO BRIDGE BLVD, EDMOND, OK, 73034",617260718,"L"
213934,"4401 GEORGETOWN VERONA ROAD","LEWISBURG","OH",45338,39.9024639200001,-84.5498568359999,434,"4401 GEORGETOWN VERONA ROAD, LEWISBURG, OH, 45338","Match","Exact","4401 GEORGETOWN VERONA RD, LEWISBURG, OH, 45338",649874177,"R"
213935,"4401 HATTON POINT ROAD","PORTSMOUTH","VA",23703,36.8528757940001,-76.360781779,435,"4401 HATTON POINT ROAD, PORTSMOUTH, VA, 23703","Match","Exact","4401 HATTON POINT RD, PORTSMOUTH, VA, 23703",122191601,"L"
213936,"4401 INWOOD RD","FORT WORTH","TX",76109,32.6825330730001,-97.379534368,436,"4401 INWOOD RD, FORT WORTH, TX, 76109","Match","Exact","4401 INWOOD RD, FORT WORTH, TX, 76109",101886482,"L"
213937,"4401 KATHLAND AVE","BALTIMORE","MD",21207,39.326661378,-76.693353671,437,"4401 KATHLAND AVE, BALTIMORE, MD, 21207","Match","Exact","4401 KATHLAND AVE, BALTIMORE, MD, 21207",206405235,"L"
213938,"4401 KATIE RIDGE DRIVE","MOORE","OK",73160,35.297619615,-97.482000699,438,"4401 KATIE RIDGE DRIVE, MOORE, OK, 73160","Match","Exact","4401 KATIE RIDGE DR, MOORE, OK, 73160",636149942,"R"
213939,"4401 KILLIAM COURT","GLEN ALLEN","VA",23060,37.652244727,-77.5702439409999,439,"4401 KILLIAM COURT, GLEN ALLEN, VA, 23060","Match","Exact","4401 KILLIAM CT, GLEN ALLEN, VA, 23060",106664672,"R"
213940,"4401 LANCEFIELD LANE","BOWIE","MD",20720,38.9531556000001,-76.792221479,440,"4401 LANCEFIELD LANE, BOWIE, MD, 20720","Match","Exact","4401 LANCEFIELD LN, BOWIE, MD, 20720",76416155,"L"
213941,"4401 LITTLE RD STE 550 - 240","ARLINGTON","TX",76016,32.676613478,-97.1973088139999,441,"4401 LITTLE RD STE 550 - 240, ARLINGTON, TX, 76016","Match","Exact","4401 LITTLE RD, ARLINGTON, TX, 76016",102133107,"L"
213942,"4401 LITTLE RD STE 550 - 272","ARLINGTON","TX",76016,32.676613478,-97.1973088139999,442,"4401 LITTLE RD STE 550 - 272, ARLINGTON, TX, 76016","Match","Exact","4401 LITTLE RD, ARLINGTON, TX, 76016",102133107,"L"
213943,"4401 LITTLE ROAD STE 550 281","ARLINGTON","TX",76016,32.676613478,-97.1973088139999,443,"4401 LITTLE ROAD STE 550 281, ARLINGTON, TX, 76016","Match","Exact","4401 LITTLE RD, ARLINGTON, TX, 76016",102133107,"L"
213944,"4401 LITTLE ROAD STE 550-226","ARLINGTON","TX",76016,32.676613478,-97.1973088139999,444,"4401 LITTLE ROAD STE 550-226, ARLINGTON, TX, 76016","Match","Exact","4401 LITTLE RD, ARLINGTON, TX, 76016",102133107,"L"
213945,"4401 LOOKOUT TRAIL","BISMARCK","ND",58504,46.709664751,-100.725899077,445,"4401 LOOKOUT TRAIL, BISMARCK, ND, 58504","Match","Exact","4401 LOOKOUT TRL, BISMARCK, ND, 58504",647546461,"L"
213946,"4401 MANCHESTER AVE APT 3","STOCKTON","CA",95207,37.9862622900001,-121.317225724,446,"4401 MANCHESTER AVE APT 3, STOCKTON, CA, 95207","Match","Exact","4401 MANCHESTER AVE, STOCKTON, CA, 95207",641223956,"L"
213947,"4401 N ARKANSAS AVE","WICHITA","KS",67204,37.7633157770001,-97.344926322,447,"4401 N ARKANSAS AVE, WICHITA, KS, 67204","Match","Exact","4401 ARKANSAS AVE, WICHITA, KS, 67204",115632552,"L"
213948,"4401 N EAGLE ROAD SUITE 102","BOISE","ID",83713,43.6445178230001,-116.354305095,448,"4401 N EAGLE ROAD SUITE 102, BOISE, ID, 83713","Match","Non_Exact","4401 N EAGLE RD, BOISE, ID, 83713",117882223,"R"
213949,"4401 NW 4TH ST SUITE 134","OKLAHOMA CITY","OK",73107,35.4715751410001,-97.5995177029999,449,"4401 NW 4TH ST SUITE 134, OKLAHOMA CITY, OK, 73107","Match","Non_Exact","4401 NW 4TH ST, OKLAHOMA CITY, OK, 73107",100431834,"R"
213950,"4401 NW 87TH AVE UNIT 236","DORAL","FL",33178,25.813329149,-80.337386274,450,"4401 NW 87TH AVE UNIT 236, DORAL, FL, 33178","Match","Non_Exact","4401 NW 87TH AVE, DORAL, FL, 33178",115955763,"R"
213951,"4401 PORPOISE DR","TAMPA","FL",33617,28.0173874450001,-82.4081704829999,451,"4401 PORPOISE DR, TAMPA, FL, 33617","Match","Exact","4401 PORPOISE DR, TAMPA, FL, 33617",640439357,"R"
213952,"4401 PROVIDENCE LANE STE 121","WINSTON SALEM","NC",27106,36.150447183,-80.2711504009999,452,"4401 PROVIDENCE LANE STE 121, WINSTON SALEM, NC, 27106","Match","Exact","4401 PROVIDENCE LN, WINSTON SALEM, NC, 27106",84674544,"R"
213953,"4401 PRUDENCE STREET","BALRTIMORE","MD",21226,39.226358524,-76.591569072,453,"4401 PRUDENCE STREET, BALRTIMORE, MD, 21226","Match","Non_Exact","4401 PRUDENCE ST, BALTIMORE, MD, 21226",206432497,"L"
213954,"4401 PRUDENCE STREET","BALTIMORE","MD",21226,39.226358524,-76.591569072,454,"4401 PRUDENCE STREET, BALTIMORE, MD, 21226","Match","Exact","4401 PRUDENCE ST, BALTIMORE, MD, 21226",206432497,"L"
213955,"4401 REBECCA BLVD","METAIRIE","LA",70003,30.0191796390001,-90.2231751429999,455,"4401 REBECCA BLVD, METAIRIE, LA, 70003","Match","Exact","4401 REBECCA BLVD, METAIRIE, LA, 70003",93493984,"R"
213956,"4401 REDING RD","AMARILLO","TX",79108,35.3166195950001,-101.888210601,456,"4401 REDING RD, AMARILLO, TX, 79108","Match","Exact","4401 REDING RD, AMARILLO, TX, 79108",635391753,"L"
213957,"4401 S ALBANY AVE","CHICAGO","IL",60632,41.813472792,-87.701695877,457,"4401 S ALBANY AVE, CHICAGO, IL, 60632","Match","Non_Exact","4401 S ALBANY AVE, CHICAGO, IL, 60632",111803929,"L"
213958,"4401 S ELLIS","CHICAGO","IL",60653,NA,NA,458,"4401 S ELLIS, CHICAGO, IL, 60653","No_Match",NA,NA,NA,NA
213959,"4401 S LEWIS AVE","SIOUX FALLS","SD",57103,43.505136904,-96.701185816,459,"4401 S LEWIS AVE, SIOUX FALLS, SD, 57103","Match","Exact","4401 S LEWIS AVE, SIOUX FALLS, SD, 57103",34975759,"R"
213960,"4401 SAMARA DR","HENRICO","VA",23231,37.5272175110001,-77.381380128,460,"4401 SAMARA DR, HENRICO, VA, 23231","Match","Exact","4401 SAMARA DR, HENRICO, VA, 23231",106650703,"L"
213961,"4401 SAN FRANCISCO AVE","LAREDO","TX",78041,27.5361282870001,-99.499875056,461,"4401 SAN FRANCISCO AVE, LAREDO, TX, 78041","Match","Non_Exact","4401 E SAN FRANCISCO AVE, LAREDO, TX, 78041",618609418,"R"
213962,"4401 SAN LEANDRO ST APT 35","OAKLAND","CA",94601,37.769940998,-122.216340601,462,"4401 SAN LEANDRO ST APT 35, OAKLAND, CA, 94601","Match","Exact","4401 SAN LEANDRO ST, OAKLAND, CA, 94601",125006738,"R"
213963,"4401 SCHROEDER LANE","CINCINNATI","OH",45217,39.164488927,-84.498025118,463,"4401 SCHROEDER LANE, CINCINNATI, OH, 45217","Match","Exact","4401 SCHROEDER LN, CINCINNATI, OH, 45217",103959917,"L"
213964,"4401 SHAW BLVD","ST LOUIS","MO",63110,38.616861262,-90.258464821,464,"4401 SHAW BLVD, ST LOUIS, MO, 63110","Match","Exact","4401 SHAW BLVD, SAINT LOUIS, MO, 63110",107597170,"R"
213965,"4401 SHERIFF RD NE","WASHINGTON","DC",20019,38.9027753490001,-76.9391063429999,465,"4401 SHERIFF RD NE, WASHINGTON, DC, 20019","Match","Exact","4401 SHERIFF RD NE, WASHINGTON, DC, 20019",76239807,"R"
213966,"4401 SLAUSON AVE SUITE 162","LOS ANGELES","CA",90043,33.988880613,-118.351845842,466,"4401 SLAUSON AVE SUITE 162, LOS ANGELES, CA, 90043","Match","Non_Exact","4401 W SLAUSON AVE, LOS ANGELES, CA, 90043",142749581,"R"
213967,"4401 SW 4TH STREET","MIAMI","FL",33134,25.7679546680001,-80.2676976979999,467,"4401 SW 4TH STREET, MIAMI, FL, 33134","Match","Non_Exact","4401 SW 4TH ST, MIAMI, FL, 33134",116010400,"R"
213968,"4401 TAHOE DR","FORT WORTH","TX",76119,32.700123644,-97.257362318,468,"4401 TAHOE DR, FORT WORTH, TX, 76119","Match","Exact","4401 TAHOE DR, FORT WORTH, TX, 76119",101898862,"L"
213969,"4401 TRINITY WOODS STREET","LEANDER","TX",78651,30.57063358,-97.772812586,469,"4401 TRINITY WOODS STREET, LEANDER, TX, 78651","Match","Non_Exact","4401 TRINITY WOODS ST, LEANDER, TX, 78641",648697340,"L"
213970,"4401 W SLAUSON AVE SUITE 206","LOS ANGELES","CA",90043,33.988880613,-118.351845842,470,"4401 W SLAUSON AVE SUITE 206, LOS ANGELES, CA, 90043","Match","Non_Exact","4401 W SLAUSON AVE, LOS ANGELES, CA, 90043",142749581,"R"
213971,"4401 W SLAUSON AVE UNIT 134","LOS ANGELES","CA",90043,33.988880613,-118.351845842,471,"4401 W SLAUSON AVE UNIT 134, LOS ANGELES, CA, 90043","Match","Non_Exact","4401 W SLAUSON AVE, LOS ANGELES, CA, 90043",142749581,"R"
213972,"4401 W US HWY 36","URBANA","OH",43078,NA,NA,472,"4401 W US HWY 36, URBANA, OH, 43078","No_Match",NA,NA,NA,NA
213973,"4401 WAVETREE DRIVE","FAYETTEVILLE","NC",28306,35.013425318,-78.94855767,473,"4401 WAVETREE DRIVE, FAYETTEVILLE, NC, 28306","Match","Exact","4401 WAVETREE DR, FAYETTEVILLE, NC, 28306",653481446,"L"
213974,"4401 WEST ATLANTIC BLVD  APT1101","COCONUT CREEK","FL",33066,26.231947265,-80.184301035,474,"4401 WEST ATLANTIC BLVD  APT1101, COCONUT CREEK, FL, 33066","Match","Exact","4401 W ATLANTIC BLVD, COCONUT CREEK, FL, 33066",647863038,"L"
213975,"4401 WILLET LANE","GARLAND","TX",75043,32.8659113040001,-96.5963348239999,475,"4401 WILLET LANE, GARLAND, TX, 75043","Match","Exact","4401 WILLET LN, GARLAND, TX, 75043",627516793,"L"
213976,"4401 WILLIFORD ROAD","SACHSE","TX",75048,32.981617118,-96.581805549,476,"4401 WILLIFORD ROAD, SACHSE, TX, 75048","Match","Exact","4401 WILLIFORD RD, SACHSE, TX, 75048",102925377,"L"
213977,"4401 ZOO PARKWAY","ASHEBORO","NC",27205,35.6345042630001,-79.782389934,477,"4401 ZOO PARKWAY, ASHEBORO, NC, 27205","Match","Exact","4401 ZOO PKWY, ASHEBORO, NC, 27205",653671976,"R"
213978,"4401A CONNECTICUT AVE NW APT 133","WASHINGTON","DC",20008,NA,NA,478,"4401A CONNECTICUT AVE NW APT 133, WASHINGTON, DC, 20008","No_Match",NA,NA,NA,NA
213979,"4401A CONNECTICUT AVE NW STE 302","WASHINGTON","DC",20008,NA,NA,479,"4401A CONNECTICUT AVE NW STE 302, WASHINGTON, DC, 20008","No_Match",NA,NA,NA,NA
213980,"4402 40TH AVE","SWEA CITY","IA",50590,43.400865004,-94.38385075,480,"4402 40TH AVE, SWEA CITY, IA, 50590","Match","Exact","4402 40TH AVE, SWEA CITY, IA, 50590",635879068,"R"
213981,"4402 44TH WAY","WEST PALM BEACH","FL",33407,26.756901231,-80.1029490019999,481,"4402 44TH WAY, WEST PALM BEACH, FL, 33407","Match","Exact","4402 44TH WAY, WEST PALM BEACH, FL, 33407",115311531,"R"
213982,"4402 88TH STREET","LUBBOCK","TX",79424,33.513381549,-101.905435139,482,"4402 88TH STREET, LUBBOCK, TX, 79424","Match","Exact","4402 88TH ST, LUBBOCK, TX, 79424",185265292,"L"
213983,"4402 BOWLES DRIVE","KILLEEN","TX",76549,31.0876338370001,-97.779830682,483,"4402 BOWLES DRIVE, KILLEEN, TX, 76549","Match","Exact","4402 BOWLES DR, KILLEEN, TX, 76549",146181639,"R"
213984,"4402 BRIDGEMAN COURT","LOUISVILLE","KY",40218,38.1847632230001,-85.6747927329999,484,"4402 BRIDGEMAN COURT, LOUISVILLE, KY, 40218","Match","Exact","4402 BRIDGEMAN CT, LOUISVILLE, KY, 40218",96858096,"L"
213985,"4402 DOVEWOOD DRIVE","SYLVANIA","OH",43560,41.694682206,-83.727204676,485,"4402 DOVEWOOD DRIVE, SYLVANIA, OH, 43560","Match","Non_Exact","4402 DOVEWOOD LN, SYLVANIA, OH, 43560",33961754,"R"
213986,"4402 HALLSVILLE PIKE","KINGSTON","OH",45644,39.452306637,-82.8352369249999,486,"4402 HALLSVILLE PIKE, KINGSTON, OH, 45644","Match","Exact","4402 HALLSVILLE PIKE, KINGSTON, OH, 45644",37494910,"L"
213987,"4402 MAIN STREET","WAITSFIELD","VT",5673,44.1900214830001,-72.824536565,487,"4402 MAIN STREET, WAITSFIELD, VT, 5673","Match","Exact","4402 MAIN ST, WAITSFIELD, VT, 05673",136672397,"L"
213988,"4402 OLD COURT ROAD APT H","PIKEVILLE","MD",21208,39.3699873680001,-76.744157811,488,"4402 OLD COURT ROAD APT H, PIKEVILLE, MD, 21208","Match","Non_Exact","4402 OLD COURT RD, PIKESVILLE, MD, 21208",191560790,"R"
213989,"4402 ORLAN LANE","BOWIE","MD",20715,38.993612608,-76.733595268,489,"4402 ORLAN LANE, BOWIE, MD, 20715","Match","Exact","4402 ORLAN LN, BOWIE, MD, 20715",76327377,"L"
213990,"4402 PENNINGTON AVE APT A","KILLEEN","TX",76549,31.092226822,-97.7970746829999,490,"4402 PENNINGTON AVE APT A, KILLEEN, TX, 76549","Match","Exact","4402 PENNINGTON AVE, KILLEEN, TX, 76549",647830588,"R"
213991,"4402 PINKNEY STREET","OMAHA","NE",68111,41.29050784,-95.9787897159999,491,"4402 PINKNEY STREET, OMAHA, NE, 68111","Match","Exact","4402 PINKNEY ST, OMAHA, NE, 68111",116978742,"R"
213992,"4402 QUINCY DR","MIDLAND","MI",48642,43.613019776,-84.173819137,492,"4402 QUINCY DR, MIDLAND, MI, 48642","Match","Exact","4402 QUINCY DR, MIDLAND, MI, 48642",81196527,"R"
213993,"4402 SADDLE CREEK WAY","BURTONSVILLE","MD",20866,39.102668706,-76.91952615,493,"4402 SADDLE CREEK WAY, BURTONSVILLE, MD, 20866","Match","Exact","4402 SADDLE CREEK WAY, BURTONSVILLE, MD, 20866",62078077,"L"
213994,"4402 SUNSET CIRCLE","LOUISVILLE","KY",40216,38.190467106,-85.8409512759999,494,"4402 SUNSET CIRCLE, LOUISVILLE, KY, 40216","Match","Exact","4402 SUNSET CIR, LOUISVILLE, KY, 40216",641686705,"L"
213995,"4402 TIMBER CREEK CT","MISSOURI CITY","TX",77459,29.556303057,-95.525843301,495,"4402 TIMBER CREEK CT, MISSOURI CITY, TX, 77459","Match","Exact","4402 TIMBER CREEK CT, MISSOURI CITY, TX, 77459",78293197,"R"
213996,"44020 PRECISE STREET","LANCASTER","CA",93536,34.682811271,-118.181514968,496,"44020 PRECISE STREET, LANCASTER, CA, 93536","Match","Exact","44020 PRECISE ST, LANCASTER, CA, 93536",141522699,"L"
213997,"44024","ASHBURN","VA",20147,NA,NA,497,"44024, ASHBURN, VA, 20147","No_Match",NA,NA,NA,NA
213998,"44028 MOUND ROAD SUITE 4","STERLING HEIGHTS","MI",48314,42.617356418,-83.0515569679999,498,"44028 MOUND ROAD SUITE 4, STERLING HEIGHTS, MI, 48314","Match","Exact","44028 MOUND RD, STERLING HEIGHTS, MI, 48314",110723565,"R"
213999,"4403 - 15 AVENUE SUITE 549","BROOKLYN","NY",11219,NA,NA,499,"4403 - 15 AVENUE SUITE 549, BROOKLYN, NY, 11219","No_Match",NA,NA,NA,NA
214000,"4403 15TH AVE SUITE 194","BROOKLYN","NY",11219,40.6351105800001,-73.984846123,500,"4403 15TH AVE SUITE 194, BROOKLYN, NY, 11219","Match","Exact","4403 15TH AVE, BROOKLYN, NY, 11219",59080315,"L"
