"ID","Address","City","State","Zip","lat","long","id","input_address","match_indicator","match_type","matched_address","tiger_line_id","tiger_side"
169001,"316 FERN AVE","HADDON TOWNSHIP","NJ",8108,39.9206185900001,-75.054578656,1,"316 FERN AVE, HADDON TOWNSHIP, NJ, 8108","Match","Exact","316 FERN AVE, HADDON TOWNSHIP, NJ, 08108",134418523,"R"
169002,"316 FOXGLOVE AVENUE","SUMMERVILLE","SC",29483,33.009984226,-80.225157854,2,"316 FOXGLOVE AVENUE, SUMMERVILLE, SC, 29483","Match","Exact","316 FOXGLOVE AVE, SUMMERVILLE, SC, 29483",647842368,"R"
169003,"316 GERMAN SCHOOL ROAD","RICHMOND","VA",23225,37.508832925,-77.505315712,3,"316 GERMAN SCHOOL ROAD, RICHMOND, VA, 23225","Match","Exact","316 GERMAN SCHOOL RD, RICHMOND, VA, 23225",201597876,"L"
169004,"316 GLENNSTOVALL DRIVE","THOMSON","GA",30824,33.452354019,-82.502430324,4,"316 GLENNSTOVALL DRIVE, THOMSON, GA, 30824","Match","Non_Exact","316 GLENN STOVALL DR, THOMSON, GA, 30824",43141818,"R"
169005,"316 GREENE ROAD 604","PARAGOULD","AR",72450,36.0768152090001,-90.645177718,5,"316 GREENE ROAD 604, PARAGOULD, AR, 72450","Match","Exact","316 GREENE RD 604, PARAGOULD, AR, 72450",47065507,"L"
169006,"316 HARLEY DRIVE","KNOXVILLE","TN",37919,35.927332677,-83.9965973549999,6,"316 HARLEY DRIVE, KNOXVILLE, TN, 37919","Match","Exact","316 HARLEY DR, KNOXVILLE, TN, 37919",42615879,"R"
169007,"316 HARMONY WAY","SPRINGFIELD","KY",40033,37.7232243980001,-85.2216824819999,7,"316 HARMONY WAY, SPRINGFIELD, KY, 40033","Match","Non_Exact","316 HARMONY WAY, SPRINGFIELD, KY, 40069",636014277,"L"
169008,"316 HAWKEN TRAIL","MCDONOUGH","GA",30253,33.383016915,-84.186059664,8,"316 HAWKEN TRAIL, MCDONOUGH, GA, 30253","Match","Exact","316 HAWKEN TRL, MCDONOUGH, GA, 30253",634028073,"R"
169009,"316 HAWKINS AVENUE","PITTSBURGH","PA",15104,40.41029002,-79.867953729,9,"316 HAWKINS AVENUE, PITTSBURGH, PA, 15104","Match","Non_Exact","316 HAWKINS AVE, BRADDOCK, PA, 15104",51669495,"R"
169010,"316 HAWTHORNE ST  UNIT B","HOUSTON","TX",77006,29.7424422330001,-95.383315833,10,"316 HAWTHORNE ST  UNIT B, HOUSTON, TX, 77006","Match","Exact","316 HAWTHORNE ST, HOUSTON, TX, 77006",96127808,"R"
169011,"316 HIGHLAND AVE","DOWNINGTOWN","PA",19335,40.002035904,-75.7150261579999,11,"316 HIGHLAND AVE, DOWNINGTOWN, PA, 19335","Match","Exact","316 HIGHLAND AVE, DOWNINGTOWN, PA, 19335",179485809,"L"
169012,"316 HIXSON AVE 2","SYRACUSE","NY",13206,43.0634223850001,-76.120127333,12,"316 HIXSON AVE 2, SYRACUSE, NY, 13206","Match","Exact","316 HIXSON AVE, SYRACUSE, NY, 13206",46572628,"R"
169013,"316 HOME AVE","LOCKLAND","OH",45215,39.2339729830001,-84.4536961439999,13,"316 HOME AVE, LOCKLAND, OH, 45215","Match","Exact","316 HOME AVE, LOCKLAND, OH, 45215",103926848,"R"
169014,"316 HOWE STREET","LANSING","MI",48915,42.736362532,-84.570931292,14,"316 HOWE STREET, LANSING, MI, 48915","Match","Exact","316 HOWE ST, LANSING, MI, 48915",17498079,"R"
169015,"316 HUNTERS CROSSING LANE","KINGSPORT","TN",37664,36.471029763,-82.55486379,15,"316 HUNTERS CROSSING LANE, KINGSPORT, TN, 37664","Match","Exact","316 HUNTERS CROSSING LN, KINGSPORT, TN, 37664",635739492,"R"
169016,"316 INDEPENDENCE LANE","WAUSAU","WI",54403,44.958763506,-89.600189418,16,"316 INDEPENDENCE LANE, WAUSAU, WI, 54403","Match","Exact","316 INDEPENDENCE LN, WAUSAU, WI, 54403",649364620,"R"
169017,"316 JACKSON AVE","SYOSSET","NY",11791,40.8116693270001,-73.5016583889999,17,"316 JACKSON AVE, SYOSSET, NY, 11791","Match","Exact","316 JACKSON AVE, SYOSSET, NY, 11791",147640184,"R"
169018,"316 JACKSON AVENUE","SYOSSET","NY",11791,40.8116693270001,-73.5016583889999,18,"316 JACKSON AVENUE, SYOSSET, NY, 11791","Match","Exact","316 JACKSON AVE, SYOSSET, NY, 11791",147640184,"R"
169019,"316 KRAUS ST","LAKE CRYSTAL","MN",56055,44.103939444,-94.204215506,19,"316 KRAUS ST, LAKE CRYSTAL, MN, 56055","Match","Exact","316 KRAUS ST, LAKE CRYSTAL, MN, 56055",28114695,"L"
169020,"316 LAKE BRITTANY CT","LAKE MARY","FL",32746,28.762831648,-81.367975362,20,"316 LAKE BRITTANY CT, LAKE MARY, FL, 32746","Match","Exact","316 LAKE BRITTANY CT, LAKE MARY, FL, 32746",93778684,"R"
169021,"316 LAKELAND DRIVE","HAMPTON","VA",23669,37.0445114880001,-76.3279582009999,21,"316 LAKELAND DRIVE, HAMPTON, VA, 23669","Match","Exact","316 LAKELAND DR, HAMPTON, VA, 23669",103759554,"L"
169022,"316 LAMAR STREET","ASHBURN","GA",31714,NA,NA,22,"316 LAMAR STREET, ASHBURN, GA, 31714","No_Match",NA,NA,NA,NA
169023,"316 LAMPLIGHTER CIRCLE","PITTSBURGH","PA",15212,40.4862615750001,-80.026721907,23,"316 LAMPLIGHTER CIRCLE, PITTSBURGH, PA, 15212","Match","Exact","316 LAMPLIGHTER CIR, PITTSBURGH, PA, 15212",635644403,"L"
169024,"316 LANAFIELD CIR","BOONSBORO","MD",21713,39.5211880250001,-77.648267074,24,"316 LANAFIELD CIR, BOONSBORO, MD, 21713","Match","Exact","316 LANAFIELD CIR, BOONSBORO, MD, 21713",60791202,"R"
169025,"316 LANDON ST","BUFFALO","NY",14211,42.9100046820001,-78.8407015619999,25,"316 LANDON ST, BUFFALO, NY, 14211","Match","Exact","316 LANDON ST, BUFFALO, NY, 14211",637997350,"L"
169026,"316 LAUREL ST  APT 1C","ST LOUIS","MO",63112,38.6494161860001,-90.289993126,26,"316 LAUREL ST  APT 1C, ST LOUIS, MO, 63112","Match","Exact","316 LAUREL ST, SAINT LOUIS, MO, 63112",605143553,"R"
169027,"316 LAURELHURST DR SE","TUMWATER","WA",98501,46.9949244360001,-122.903754473,27,"316 LAURELHURST DR SE, TUMWATER, WA, 98501","Match","Exact","316 LAURELHURST DR SE, TUMWATER, WA, 98501",180945674,"L"
169028,"316 LINDEN LN","TIFFIN","IA",52340,41.7175908740001,-91.6609539679999,28,"316 LINDEN LN, TIFFIN, IA, 52340","Match","Exact","316 LINDEN LN, TIFFIN, IA, 52340",651742023,"L"
169029,"316 LOBDELL POINT RD","WASHINGTON ISLAND","WI",54246,45.3408878980001,-86.940265702,29,"316 LOBDELL POINT RD, WASHINGTON ISLAND, WI, 54246","Match","Exact","316 LOBDELL POINT RD, WASHINGTON ISLAND, WI, 54246",635636016,"L"
169030,"316 MACREADY AVE","MONROE","OH",45050,39.4439403750001,-84.370624243,30,"316 MACREADY AVE, MONROE, OH, 45050","Match","Exact","316 MACREADY AVE, MONROE, OH, 45050",113821091,"R"
169031,"316 MAIN ST BOX 1013","STURBRIDGE","MA",1566,NA,NA,31,"316 MAIN ST BOX 1013, STURBRIDGE, MA, 1566","No_Match",NA,NA,NA,NA
169032,"316 MAIN STREET","VINCENNES","IN",47591,38.678981241,-87.5314277699999,32,"316 MAIN STREET, VINCENNES, IN, 47591","Match","Exact","316 MAIN ST, VINCENNES, IN, 47591",30059140,"R"
169033,"316 MAIN STREET","WASHTA","IA",51061,42.57553719,-95.7175077639999,33,"316 MAIN STREET, WASHTA, IA, 51061","Match","Exact","316 MAIN ST, WASHTA, IA, 51061",82755438,"R"
169034,"316 MARYLAND AVENUE","METAIRIE","LA",70003,29.981673406,-90.234368693,34,"316 MARYLAND AVENUE, METAIRIE, LA, 70003","Match","Exact","316 MARYLAND AVE, METAIRIE, LA, 70003",93495537,"L"
169035,"316 MAXWELL RD SUITE 300","ALPHARETTA","GA",30009,34.067033936,-84.3018390239999,35,"316 MAXWELL RD SUITE 300, ALPHARETTA, GA, 30009","Match","Exact","316 MAXWELL RD, ALPHARETTA, GA, 30009",17352774,"L"
169036,"316 MAYNARD AVE SOUTH 107","SEATTLE","WA",98104,47.599867944,-122.32504278,36,"316 MAYNARD AVE SOUTH 107, SEATTLE, WA, 98104","Match","Exact","316 MAYNARD AVE S, SEATTLE, WA, 98104",186992538,"L"
169037,"316 MCCUTCHEON DRIVE","LAFAYETTE","IN",47909,40.354702467,-86.901897574,37,"316 MCCUTCHEON DRIVE, LAFAYETTE, IN, 47909","Match","Non_Exact","316 MC CUTCHEN DR, LAFAYETTE, IN, 47909",27314415,"L"
169038,"316 MITCHELLS COURT","HARDEEVILLE","SC",29927,32.2003317530001,-81.038480968,38,"316 MITCHELLS COURT, HARDEEVILLE, SC, 29927","Match","Exact","316 MITCHELLS CT, HARDEEVILLE, SC, 29927",33157740,"R"
169039,"316 MONROVIA AVENUE","LONG BEACH","CA",90803,33.7659364830001,-118.131199674,39,"316 MONROVIA AVENUE, LONG BEACH, CA, 90803","Match","Exact","316 MONROVIA AVE, LONG BEACH, CA, 90803",141702484,"R"
169040,"316 MONTEREY DRIVE","CARSON","CA",90745,33.7992950620001,-118.270800305,40,"316 MONTEREY DRIVE, CARSON, CA, 90745","Match","Exact","316 MONTEREY DR, CARSON, CA, 90745",142656551,"L"
169041,"316 MOUNTAIN AVENUE SW","ROANOKE","VA",24016,37.2657404660001,-79.945358357,41,"316 MOUNTAIN AVENUE SW, ROANOKE, VA, 24016","Match","Exact","316 MOUNTAIN AVE SW, ROANOKE, VA, 24016",62910282,"L"
169042,"316 MOZART WAY","MCKINNEY","TX",75072,33.200151772,-96.714108214,42,"316 MOZART WAY, MCKINNEY, TX, 75072","Match","Exact","316 MOZART WAY, MCKINNEY, TX, 75072",619923006,"R"
169043,"316 MT PALOMAR PLACE","CLAYTON","CA",94517,NA,NA,43,"316 MT PALOMAR PLACE, CLAYTON, CA, 94517","Tie",NA,NA,NA,NA
169044,"316 MURPHY BRANCH","BURNSVILLE","NC",28714,35.8716769960001,-82.1734856699999,44,"316 MURPHY BRANCH, BURNSVILLE, NC, 28714","Match","Non_Exact","316 MURPHY BRANCH RD, BURNSVILLE, NC, 28714",636901712,"R"
169045,"316 N 48TH STREET","HARRISBURG","PA",17111,40.2625789940001,-76.8046726699999,45,"316 N 48TH STREET, HARRISBURG, PA, 17111","Match","Exact","316 N 48TH ST, HARRISBURG, PA, 17111",70822667,"L"
169046,"316 N 4TH AVENUE","MAYWOOD","IL",60153,41.89013563,-87.83810297,46,"316 N 4TH AVENUE, MAYWOOD, IL, 60153","Match","Exact","316 N 4TH AVE, MAYWOOD, IL, 60153",111748683,"L"
169047,"316 N BONNIE BRAE STREET APT 3","LOS ANGELES","CA",90026,34.068705762,-118.265972772,47,"316 N BONNIE BRAE STREET APT 3, LOS ANGELES, CA, 90026","Match","Non_Exact","316 N BONNIE BRAE ST, LOS ANGELES, CA, 90026",637367667,"R"
169048,"316 N CHARLES STREET","DAYTONA BEACH","FL",32114,29.214904007,-81.028067586,48,"316 N CHARLES STREET, DAYTONA BEACH, FL, 32114","Match","Exact","316 N CHARLES ST, DAYTONA BEACH, FL, 32114",94524495,"L"
169049,"316 N LAKE AVENUE","LEESBURG","FL",34748,28.8176246,-81.851732571,49,"316 N LAKE AVENUE, LEESBURG, FL, 34748","Match","Exact","316 N LAKE AVE, LEESBURG, FL, 34748",94158159,"R"
169050,"316 N MAIN STR","MARION","SC",29571,34.1808326010001,-79.400199909,50,"316 N MAIN STR, MARION, SC, 29571","Match","Exact","316 N MAIN ST, MARION, SC, 29571",28773166,"R"
169051,"316 N MICHIGAN ST SUITE 435","TOLEDO","OH",43604,41.653968085,-83.539482149,51,"316 N MICHIGAN ST SUITE 435, TOLEDO, OH, 43604","Match","Non_Exact","316 N MICHIGAN ST, TOLEDO, OH, 43604",33943814,"R"
169052,"316 NE LAKES EDGE CIR","LEES SUMMIT","MS",64064,NA,NA,52,"316 NE LAKES EDGE CIR, LEES SUMMIT, MS, 64064","No_Match",NA,NA,NA,NA
169053,"316 NEVAMAR DR","COLUMBIA","SC",29223,34.060143291,-80.9827874219999,53,"316 NEVAMAR DR, COLUMBIA, SC, 29223","Match","Exact","316 NEVAMAR DR, COLUMBIA, SC, 29223",71834529,"R"
169054,"316 NOKOMIS ST","ALEXANDRIA","MN",56308,45.8891250200001,-95.366656443,54,"316 NOKOMIS ST, ALEXANDRIA, MN, 56308","Match","Exact","316 NOKOMIS ST, ALEXANDRIA, MN, 56308",204652029,"L"
169055,"316 NORTH CONGRESS STREET","YORK","SC",29745,35.0012641280001,-81.237550079,55,"316 NORTH CONGRESS STREET, YORK, SC, 29745","Match","Exact","316 N CONGRESS ST, YORK, SC, 29745",640932827,"R"
169056,"316 NORTH MICHIGAN STREET","TOLEDO","OH",43604,41.6539645020001,-83.539485285,56,"316 NORTH MICHIGAN STREET, TOLEDO, OH, 43604","Match","Exact","316 N MICHIGAN ST, TOLEDO, OH, 43604",33943814,"R"
169057,"316 NORTH PARK AVENUE","HELENA","MT",59623,46.589950673,-112.040181698,57,"316 NORTH PARK AVENUE, HELENA, MT, 59623","Match","Non_Exact","316 N PARK AVE, HELENA, MT, 59601",202349691,"L"
169058,"316 NORTH WARWICK AVENUE APT GB","WESTMONT","IL",60559,41.8035595280001,-87.973202473,58,"316 NORTH WARWICK AVENUE APT GB, WESTMONT, IL, 60559","Match","Exact","316 N WARWICK AVE, WESTMONT, IL, 60559",112547734,"L"
169059,"316 NW 27TH STREET","OKLAHOMA CITY","OK",73103,35.4973746430001,-97.5176465489999,59,"316 NW 27TH STREET, OKLAHOMA CITY, OK, 73103","Match","Exact","316 NW 27TH ST, OKLAHOMA CITY, OK, 73103",100400647,"L"
169060,"316 OAK ST","ROGUE RIVER","OR",97537,42.436235072,-123.168789697,60,"316 OAK ST, ROGUE RIVER, OR, 97537","Match","Exact","316 OAK ST, ROGUE RIVER, OR, 97537",155495698,"R"
169061,"316 OLD MILL RD","ARLINGTON","VT",5250,NA,NA,61,"316 OLD MILL RD, ARLINGTON, VT, 5250","No_Match",NA,NA,NA,NA
169062,"316 OLIVE AVE 288","HUNTINGTON BEACH","CA",92648,33.658479911,-117.999609925,62,"316 OLIVE AVE 288, HUNTINGTON BEACH, CA, 92648","Match","Exact","316 OLIVE AVE, HUNTINGTON BEACH, CA, 92648",144020024,"R"
169063,"316 ORCHARD RIDGE ROAD","KALISPELL","MT",59901,48.146564083,-114.333187929,63,"316 ORCHARD RIDGE ROAD, KALISPELL, MT, 59901","Match","Exact","316 ORCHARD RIDGE RD, KALISPELL, MT, 59901",204089033,"L"
169064,"316 OSCEOLA STREET","PALATKA","FL",32177,29.643670082,-81.639390012,64,"316 OSCEOLA STREET, PALATKA, FL, 32177","Match","Exact","316 OSCEOLA ST, PALATKA, FL, 32177",86074228,"R"
169065,"316 OSUNA NE SUITE 501","ALBUQUERQUE","NM",87107,35.1515927720001,-106.624822515,65,"316 OSUNA NE SUITE 501, ALBUQUERQUE, NM, 87107","Match","Non_Exact","316 OSUNA RD NE, ALBUQUERQUE, NM, 87107",645550401,"R"
169066,"316 OXFORD ST NORTH","AUBURN","MA",1501,42.206180837,-71.847240186,66,"316 OXFORD ST NORTH, AUBURN, MA, 1501","Match","Exact","316 OXFORD ST N, AUBURN, MA, 01501",40008485,"R"
169067,"316 PARK SPRINGS ROAD","COLUMBIA","SC",29223,34.1365610890001,-80.883734262,67,"316 PARK SPRINGS ROAD, COLUMBIA, SC, 29223","Match","Exact","316 PARK SPRINGS RD, COLUMBIA, SC, 29223",635635413,"L"
169068,"316 PENNSYLVANIA AVE SE SUITE 501","WASHINGTON","DC",20003,38.8868366670001,-77.001149637,68,"316 PENNSYLVANIA AVE SE SUITE 501, WASHINGTON, DC, 20003","Match","Exact","316 PENNSYLVANIA AVE SE, WASHINGTON, DC, 20003",76229904,"L"
169069,"316 PINE BLOOM RD","SPARTA","GA",31087,33.216372619,-82.88649751,69,"316 PINE BLOOM RD, SPARTA, GA, 31087","Match","Exact","316 PINE BLOOM RD, SPARTA, GA, 31087",16560555,"R"
169070,"316 POTOMAC AVE","BUFFALO","NY",14213,42.9240707480001,-78.8875762929999,70,"316 POTOMAC AVE, BUFFALO, NY, 14213","Match","Exact","316 POTOMAC AVE, BUFFALO, NY, 14213",48288836,"L"
169071,"316 PRADO WAY","GREENVILLE","SC",29615,34.819507351,-82.2836081029999,71,"316 PRADO WAY, GREENVILLE, SC, 29615","Match","Non_Exact","316 PRADO WAY, GREENVILLE, SC, 29607",640779500,"L"
169072,"316 PRATT STREET","PRATTVILLE","AL",36067,32.4589158250001,-86.464716181,72,"316 PRATT STREET, PRATTVILLE, AL, 36067","Match","Exact","316 PRATT ST, PRATTVILLE, AL, 36067",2827422,"R"
169073,"316 PUTTER ST","TOWNSEND","DE",19734,39.417512312,-75.644642007,73,"316 PUTTER ST, TOWNSEND, DE, 19734","Match","Exact","316 PUTTER ST, TOWNSEND, DE, 19734",648673465,"R"
169074,"316 QUAIL MEADOW","IRVINE","CA",92603,33.6513928150001,-117.772206622,74,"316 QUAIL MEADOW, IRVINE, CA, 92603","Match","Exact","316 QUAIL MEADOW, IRVINE, CA, 92603",627444326,"R"
169075,"316 QUARRY LANE","LIBERTY HILL","TX",78642,30.6645024150001,-97.890090683,75,"316 QUARRY LANE, LIBERTY HILL, TX, 78642","Match","Exact","316 QUARRY LN, LIBERTY HILL, TX, 78642",620001384,"L"
169076,"316 RAILROAD AVENUE","ELKINS","WV",26241,38.9253981730001,-79.85073305,76,"316 RAILROAD AVENUE, ELKINS, WV, 26241","Match","Exact","316 RAILROAD AVE, ELKINS, WV, 26241",604498534,"R"
169077,"316 RIVIERA DRIVE","SAINT CLAIR SHORES","MI",48080,NA,NA,77,"316 RIVIERA DRIVE, SAINT CLAIR SHORES, MI, 48080","No_Match",NA,NA,NA,NA
169078,"316 ROLLING MEADOWS DR","NEW MARKET","TN",37820,36.018753663,-83.564147278,78,"316 ROLLING MEADOWS DR, NEW MARKET, TN, 37820","Match","Exact","316 ROLLING MEADOWS DR, NEW MARKET, TN, 37820",624897637,"L"
169079,"316 ROOSEVELT ST","BRISTOL","PA",19007,40.111521478,-74.84261725,79,"316 ROOSEVELT ST, BRISTOL, PA, 19007","Match","Exact","316 ROOSEVELT ST, BRISTOL, PA, 19007",134717909,"L"
169080,"316 RUBY CT","LONDON","KY",40744,NA,NA,80,"316 RUBY CT, LONDON, KY, 40744","No_Match",NA,NA,NA,NA
169081,"316 RUSSELL DRIVE","TARBORO","NC",27886,35.883976381,-77.5025699289999,81,"316 RUSSELL DRIVE, TARBORO, NC, 27886","Match","Exact","316 RUSSELL DR, TARBORO, NC, 27886",90179121,"R"
169082,"316 S 2ND STREET","LEBANON","PA",17042,40.335359026,-76.4139250869999,82,"316 S 2ND STREET, LEBANON, PA, 17042","Match","Exact","316 S 2ND ST, LEBANON, PA, 17042",635775546,"R"
169083,"316 S CLOVERDALE AVE 9","LOS ANGELES","CA",90036,34.0685278760001,-118.346158858,83,"316 S CLOVERDALE AVE 9, LOS ANGELES, CA, 90036","Match","Non_Exact","316 S CLOVERDALE AVE, LOS ANGELES, CA, 90036",141600036,"L"
169084,"316 S HAYES AVE SUITE D","WAGONER","OK",74467,35.9581658000001,-95.393819163,84,"316 S HAYES AVE SUITE D, WAGONER, OK, 74467","Match","Non_Exact","316 S HAYES AVE, WAGONER, OK, 74467",83168973,"R"
169085,"316 S LAFONTAINE ST","HUNTINGTON","IN",46750,40.8773793940001,-85.498480138,85,"316 S LAFONTAINE ST, HUNTINGTON, IN, 46750","Match","Exact","316 S LAFONTAINE ST, HUNTINGTON, IN, 46750",6552219,"L"
169086,"316 S MAIN ST","IRONTON","MO",63650,37.5967593560001,-90.62749186,86,"316 S MAIN ST, IRONTON, MO, 63650","Match","Exact","316 S MAIN ST, IRONTON, MO, 63650",62600227,"L"
169087,"316 S MAIN ST","WANATAH","IN",46390,41.426273919,-86.8987006469999,87,"316 S MAIN ST, WANATAH, IN, 46390","Match","Exact","316 S MAIN ST, WANATAH, IN, 46390",604785547,"L"
169088,"316 S ROSEDALE COURT","ROUND LAKE","IL",60073,42.3623160590001,-88.090282014,88,"316 S ROSEDALE COURT, ROUND LAKE, IL, 60073","Match","Exact","316 S ROSEDALE CT, ROUND LAKE, IL, 60073",119631764,"L"
169089,"316 SAWTIMBER LANE","COLUMBIA","SC",29209,33.974410151,-80.881751242,89,"316 SAWTIMBER LANE, COLUMBIA, SC, 29209","Match","Exact","316 SAWTIMBER LN, COLUMBIA, SC, 29209",71831339,"R"
169090,"316 SCHUBERT ROAD","BETHEL","PA",19507,40.4970253710001,-76.206985558,90,"316 SCHUBERT ROAD, BETHEL, PA, 19507","Match","Exact","316 SCHUBERT RD, BETHEL, PA, 19507",642115048,"L"
169091,"316 SCOTT ST","BALTIMORE","MD",21230,39.2842660690001,-76.628918375,91,"316 SCOTT ST, BALTIMORE, MD, 21230","Match","Exact","316 SCOTT ST, BALTIMORE, MD, 21230",206418250,"R"
169092,"316 SCOTT STREET","BALTIMORE","MD",21230,39.2842660690001,-76.628918375,92,"316 SCOTT STREET, BALTIMORE, MD, 21230","Match","Exact","316 SCOTT ST, BALTIMORE, MD, 21230",206418250,"R"
169093,"316 SE DOUGLAS","LEES SUMMIT","MO",64063,38.911823209,-94.375688295,93,"316 SE DOUGLAS, LEES SUMMIT, MO, 64063","Match","Non_Exact","316 SE DOUGLAS ST, LEES SUMMIT, MO, 64063",91525020,"R"
169094,"316 SE PIONEER WAY","OAK HARBOR","WA",98277,48.2878321100001,-122.654048741,94,"316 SE PIONEER WAY, OAK HARBOR, WA, 98277","Match","Exact","316 SE PIONEER WAY, OAK HARBOR, WA, 98277",187613207,"L"
169095,"316 SHEFFIELD ROAD","CHERRY HILL","NJ",8034,39.922170785,-74.990984864,95,"316 SHEFFIELD ROAD, CHERRY HILL, NJ, 8034","Match","Exact","316 SHEFFIELD RD, CHERRY HILL, NJ, 08034",134419213,"R"
169096,"316 SOUTH MAPLE AVENUE","GREENSBURG","PA",15601,40.300173903,-79.5424335169999,96,"316 SOUTH MAPLE AVENUE, GREENSBURG, PA, 15601","Match","Exact","316 S MAPLE AVE, GREENSBURG, PA, 15601",52975644,"R"
169097,"316 SOUTH WARD STREET","ITALY","TX",76651,32.1794442130001,-96.881202055,97,"316 SOUTH WARD STREET, ITALY, TX, 76651","Match","Exact","316 S WARD ST, ITALY, TX, 76651",103444682,"R"
169098,"316 SOUTH WEST THOMAS","BURLESON","TX",76028,NA,NA,98,"316 SOUTH WEST THOMAS, BURLESON, TX, 76028","No_Match",NA,NA,NA,NA
169099,"316 STATIONS AVE","WOODSTOCK","GA",30189,34.083868941,-84.571402789,99,"316 STATIONS AVE, WOODSTOCK, GA, 30189","Match","Exact","316 STATIONS AVE, WOODSTOCK, GA, 30189",68828712,"R"
169100,"316 STONEGATE ROAD","BOLINGBROOK","IL",60440,41.7074825450001,-88.0344086269999,100,"316 STONEGATE ROAD, BOLINGBROOK, IL, 60440","Match","Exact","316 STONEGATE RD, BOLINGBROOK, IL, 60440",601622523,"R"
169101,"316 SULLIVANT 1813 N HIGH ST","COLUMBUS","OH",43210,NA,NA,101,"316 SULLIVANT 1813 N HIGH ST, COLUMBUS, OH, 43210","No_Match",NA,NA,NA,NA
169102,"316 TOWNSHIP ROAD 1214","IRONTON","OH",45638,NA,NA,102,"316 TOWNSHIP ROAD 1214, IRONTON, OH, 45638","No_Match",NA,NA,NA,NA
169103,"316 TUMBLEWEED TERRACE","TAYLORS","SC",29687,34.937045567,-82.288648727,103,"316 TUMBLEWEED TERRACE, TAYLORS, SC, 29687","Match","Exact","316 TUMBLEWEED TER, TAYLORS, SC, 29687",38307662,"L"
169104,"316 VALLEJO ST","PETALUMA","CA",94952,38.2394850490001,-122.630704284,104,"316 VALLEJO ST, PETALUMA, CA, 94952","Match","Exact","316 VALLEJO ST, PETALUMA, CA, 94952",67477956,"R"
169105,"316 VETERANS HIGHWAY","TAOS PUEBLO","NM",87571,36.436006466,-105.55172961,105,"316 VETERANS HIGHWAY, TAOS PUEBLO, NM, 87571","Match","Non_Exact","316 VETERANS HWY, TAOS, NM, 87571",159934411,"L"
169106,"316 VIRGINIA TERRACE","MADISON","WI",53726,43.0652761050001,-89.42819546,106,"316 VIRGINIA TERRACE, MADISON, WI, 53726","Match","Exact","316 VIRGINIA TER, MADISON, WI, 53726",49468946,"R"
169107,"316 W  1ST  STREET   UNIT 2","PORT ANGELES","WA",98362,NA,NA,107,"316 W  1ST  STREET   UNIT 2, PORT ANGELES, WA, 98362","Tie",NA,NA,NA,NA
169108,"316 W 116TH STREET SUITE 2B","NEW YORK","NY",10026,40.804644212,-73.95591067,108,"316 W 116TH STREET SUITE 2B, NEW YORK, NY, 10026","Match","Non_Exact","316 W 116TH ST, NEW YORK, NY, 10026",59657647,"L"
169109,"316 W 2ND STREET SUITE 1202","LOS ANGELES","CA",90012,NA,NA,109,"316 W 2ND STREET SUITE 1202, LOS ANGELES, CA, 90012","Tie",NA,NA,NA,NA
169110,"316 W 4TH STREET","QUARRYVILLE","PA",17566,39.89398211,-76.16953757,110,"316 W 4TH STREET, QUARRYVILLE, PA, 17566","Match","Exact","316 W 4TH ST, QUARRYVILLE, PA, 17566",647555065,"L"
169111,"316 W 58 HWY","STRASBURG","MO",64090,NA,NA,111,"316 W 58 HWY, STRASBURG, MO, 64090","No_Match",NA,NA,NA,NA
169112,"316 W BELT LINE RD STE 202","CEDAR HILLS","TX",75104,NA,NA,112,"316 W BELT LINE RD STE 202, CEDAR HILLS, TX, 75104","Tie",NA,NA,NA,NA
169113,"316 W HIGH AVENUE","NEW PHILA","OH",44663,40.4904429690001,-81.450729815,113,"316 W HIGH AVENUE, NEW PHILA, OH, 44663","Match","Exact","316 W HIGH AVE, NEW PHILA, OH, 44663",44225561,"L"
169114,"316 W LOOKOUT DR","RICHARDSON","TX",75080,32.9872476570001,-96.719438231,114,"316 W LOOKOUT DR, RICHARDSON, TX, 75080","Match","Exact","316 W LOOKOUT DR, RICHARDSON, TX, 75080",210495699,"R"
169115,"316 W WASHINGTON AVE SUITE 675","MADISON","WI",53703,NA,NA,115,"316 W WASHINGTON AVE SUITE 675, MADISON, WI, 53703","No_Match",NA,NA,NA,NA
169116,"316 WASHINGTON AVENUE","WHEELING","WV",26003,40.067680441,-80.690616092,116,"316 WASHINGTON AVENUE, WHEELING, WV, 26003","Match","Exact","316 WASHINGTON AVE, WHEELING, WV, 26003",38090641,"R"
169117,"316 WEST 112TH STREET APT 5E","NEW YORK","NY",10026,40.8019888200001,-73.95755345,117,"316 WEST 112TH STREET APT 5E, NEW YORK, NY, 10026","Match","Exact","316 W 112TH ST, NEW YORK, NY, 10026",59656890,"L"
169118,"316 WEST 4TH STREET","MARION","IN",46953,40.557887271,-85.662416333,118,"316 WEST 4TH STREET, MARION, IN, 46953","Match","Non_Exact","316 W 4TH ST, MARION, IN, 46952",95008164,"R"
169119,"316 WEST 5TH STREET","APOPKA","FL",32703,28.671896756,-81.518185192,119,"316 WEST 5TH STREET, APOPKA, FL, 32703","Match","Non_Exact","316 5TH ST, APOPKA, FL, 32703",94263351,"L"
169120,"316 WEST 5TH STREET","WATERLOO","IA",50701,42.493452453,-92.339800957,120,"316 WEST 5TH STREET, WATERLOO, IA, 50701","Match","Exact","316 W 5TH ST, WATERLOO, IA, 50701",77253925,"R"
169121,"316 WEST 88TH STREET","LOS ANGELES","CA",90003,33.9573692600001,-118.278637387,121,"316 WEST 88TH STREET, LOS ANGELES, CA, 90003","Match","Exact","316 W 88TH ST, LOS ANGELES, CA, 90003",141660339,"L"
169122,"316 WEST 93RD STREET/6F","NEW YORK","NY",10025,40.793631824,-73.9753537729999,122,"316 WEST 93RD STREET/6F, NEW YORK, NY, 10025","Match","Non_Exact","316 W 93RD ST, NEW YORK, NY, 10025",650152705,"L"
169123,"316 WEST MAIN STREET PO BOX 604","FRIES","VA",24330,NA,NA,123,"316 WEST MAIN STREET PO BOX 604, FRIES, VA, 24330","No_Match",NA,NA,NA,NA
169124,"316 WEST MAIN STREET","LAFAYETTE","LA",70501,30.2229137890001,-92.02101451,124,"316 WEST MAIN STREET, LAFAYETTE, LA, 70501","Match","Exact","316 W MAIN ST, LAFAYETTE, LA, 70501",85615668,"R"
169125,"316 WILLETT STREET","BUFFALO","NY",14206,42.8707168080001,-78.8030513149999,125,"316 WILLETT STREET, BUFFALO, NY, 14206","Match","Exact","316 WILLETT ST, BUFFALO, NY, 14206",638105136,"L"
169126,"316 WINCHESTER DRIVE","SHARPSBURG","GA",30277,33.348369839,-84.6833303509999,126,"316 WINCHESTER DRIVE, SHARPSBURG, GA, 30277","Match","Exact","316 WINCHESTER DR, SHARPSBURG, GA, 30277",628078761,"R"
169127,"316 WOODSEDGE RD","KNOXVILLE","TN",37924,36.0214449210001,-83.728236334,127,"316 WOODSEDGE RD, KNOXVILLE, TN, 37924","Match","Exact","316 WOODSEDGE RD, KNOXVILLE, TN, 37924",42669691,"L"
169128,"316 YORKSHIRE DRIVE","WILLIAMSBURG","VA",23185,37.2518490800001,-76.7216041729999,128,"316 YORKSHIRE DRIVE, WILLIAMSBURG, VA, 23185","Match","Exact","316 YORKSHIRE DR, WILLIAMSBURG, VA, 23185",103839326,"R"
169129,"3160  WINFRED","WAYNE","MI",48184,42.2861519090001,-83.355567709,129,"3160  WINFRED, WAYNE, MI, 48184","Match","Non_Exact","3160 WINIFRED ST, WAYNE, MI, 48184",95501705,"R"
169130,"3160 16TH STREET NW","WASHINGTON","DC",20010,38.930118581,-77.03646929,130,"3160 16TH STREET NW, WASHINGTON, DC, 20010","Match","Exact","3160 16TH ST NW, WASHINGTON, DC, 20010",76222906,"L"
169131,"3160 CANYON OAKS TERRACE","CHICO","CA",95928,39.761543295,-121.781822979,131,"3160 CANYON OAKS TERRACE, CHICO, CA, 95928","Match","Exact","3160 CANYON OAKS TER, CHICO, CA, 95928",640586573,"L"
169132,"3160 CROW CANYON ROAD/100","SAN RAMON","CA",94583,NA,NA,132,"3160 CROW CANYON ROAD/100, SAN RAMON, CA, 94583","Tie",NA,NA,NA,NA
169133,"3160 EAST SPRING CREEK PARKWAY","PLANO","TX",75074,NA,NA,133,"3160 EAST SPRING CREEK PARKWAY, PLANO, TX, 75074","No_Match",NA,NA,NA,NA
169134,"3160 ELMWOOD COURT","ATLANTA","GA",30349,33.589850438,-84.489465163,134,"3160 ELMWOOD COURT, ATLANTA, GA, 30349","Match","Exact","3160 ELMWOOD CT, ATLANTA, GA, 30349",623855918,"R"
169135,"3160 EMERALD VALLEY RD","ELLICOTT CITY","MD",21042,39.2828669140001,-76.923149479,135,"3160 EMERALD VALLEY RD, ELLICOTT CITY, MD, 21042","Match","Exact","3160 EMERALD VALLEY RD, ELLICOTT CITY, MD, 21042",158921581,"R"
169136,"3160 GAGE AVENUE","EL MONTE","CA",91731,34.0658643790001,-118.039972108,136,"3160 GAGE AVENUE, EL MONTE, CA, 91731","Match","Exact","3160 GAGE AVE, EL MONTE, CA, 91731",141649307,"R"
169137,"3160 HEATHER STREET","MOBILE","AL",36607,30.6936224990001,-88.117874139,137,"3160 HEATHER STREET, MOBILE, AL, 36607","Match","Exact","3160 HEATHER ST, MOBILE, AL, 36607",61857806,"R"
169138,"3160 HIGHWAY 21 SUITE 103 PMB 6","FORT MILL","SC",29715,NA,NA,138,"3160 HIGHWAY 21 SUITE 103 PMB 6, FORT MILL, SC, 29715","No_Match",NA,NA,NA,NA
169139,"3160 LEGACY TRACE","CINCINNATI","OH",45237,39.205062909,-84.424662631,139,"3160 LEGACY TRACE, CINCINNATI, OH, 45237","Match","Exact","3160 LEGACY TRCE, CINCINNATI, OH, 45237",103976881,"R"
169140,"3160 MAIN STREET WEST","SNEELVILLE","GA",30078,33.851828348,-84.042913803,140,"3160 MAIN STREET WEST, SNEELVILLE, GA, 30078","Match","Non_Exact","3160 MAIN ST W, SNELLVILLE, GA, 30078",615661848,"L"
169141,"3160 MARY ANN LANE","SAN BERNARDINO","CA",92404,34.14827939,-117.253422065,141,"3160 MARY ANN LANE, SAN BERNARDINO, CA, 92404","Match","Non_Exact","3160 N MARY ANN LN, SAN BERNARDINO, CA, 92404",144656030,"L"
169142,"3160 N 39TH STREET","MILWAUKEE","WI",53216,43.076291606,-87.962053754,142,"3160 N 39TH STREET, MILWAUKEE, WI, 53216","Match","Exact","3160 N 39TH ST, MILWAUKEE, WI, 53216",77732266,"R"
169143,"3160 NORTHSIDE PKWY NW","ATLANTA","GA",30327,33.8413066260001,-84.420685758,143,"3160 NORTHSIDE PKWY NW, ATLANTA, GA, 30327","Match","Exact","3160 NORTHSIDE PKWY NW, ATLANTA, GA, 30327",17334788,"L"
169144,"3160 S 2750 E","SALT LAKE CITY","UT",84109,40.702460112,-111.813743369,144,"3160 S 2750 E, SALT LAKE CITY, UT, 84109","Match","Exact","3160 S 2750 E, SALT LAKE CITY, UT, 84109",176094151,"R"
169145,"3160 S BRAND LEE WAY","YUMA","AZ",85365,32.6718969610001,-114.474900208,145,"3160 S BRAND LEE WAY, YUMA, AZ, 85365","Match","Exact","3160 S BRAND LEE WAY, YUMA, AZ, 85365",647538466,"R"
169146,"3160 S DENDLE DR","NEW PALESTINE","IN",46163,39.7394271430001,-85.88650689,146,"3160 S DENDLE DR, NEW PALESTINE, IN, 46163","Match","Exact","3160 S DENDLE DR, NEW PALESTINE, IN, 46163",627530593,"L"
169147,"3160 SOUTHGATE COMMERCE BLVD STE 38","ORLANDO","FL",32806,28.507566287,-81.3771468909999,147,"3160 SOUTHGATE COMMERCE BLVD STE 38, ORLANDO, FL, 32806","Match","Exact","3160 SOUTHGATE COMMERCE BLVD, ORLANDO, FL, 32806",641064641,"L"
169148,"3160 W SAHARA AVE SUITE A11","LAS VEGAS","NV",89102,36.1444499890001,-115.184092192,148,"3160 W SAHARA AVE SUITE A11, LAS VEGAS, NV, 89102","Match","Non_Exact","3160 W SAHARA AVE, LAS VEGAS, NV, 89102",201869424,"R"
169149,"3160 WELCOME AVE N","CRYSTAL","MN",55422,45.013764011,-93.351423502,149,"3160 WELCOME AVE N, CRYSTAL, MN, 55422","Match","Exact","3160 WELCOME AVE N, CRYSTAL, MN, 55422",43866065,"L"
169150,"3160 WELLINGTON RD","LUMBERTON","NC",28360,34.6540942990001,-79.0147048649999,150,"3160 WELLINGTON RD, LUMBERTON, NC, 28360","Match","Exact","3160 WELLINGTON RD, LUMBERTON, NC, 28360",49136613,"L"
169151,"3160 WINDWARD WAY","MIRAMAR","FL",33025,25.9821106650001,-80.276304582,151,"3160 WINDWARD WAY, MIRAMAR, FL, 33025","Match","Exact","3160 WINDWARD WAY, MIRAMAR, FL, 33025",114759772,"L"
169152,"31601 SW 197TH AVE","HOMESTEAD","FL",33030,25.4730372820001,-80.5097659479999,152,"31601 SW 197TH AVE, HOMESTEAD, FL, 33030","Match","Exact","31601 SW 197TH AVE, HOMESTEAD, FL, 33030",653204842,"L"
169153,"31602 COUNTY HIGHWAY 15","SANBORN","MN",56083,44.2097610070001,-95.142636577,153,"31602 COUNTY HIGHWAY 15, SANBORN, MN, 56083","Match","Non_Exact","31602 CO RD 15, SANBORN, MN, 56083",648133647,"R"
169154,"31602 VIA DULCINEA","SAN JUAN CAPISTRANO","CA",92675,33.5040157020001,-117.640786394,154,"31602 VIA DULCINEA, SAN JUAN CAPISTRANO, CA, 92675","Match","Exact","31602 VIA DULCINEA, SAN JUAN CAPISTRANO, CA, 92675",144074691,"L"
169155,"31606 NE 40TH AVE","LA CENTER","WA",98629,45.8499792160001,-122.630718082,155,"31606 NE 40TH AVE, LA CENTER, WA, 98629","Match","Exact","31606 NE 40TH AVE, LA CENTER, WA, 98629",158314021,"L"
169156,"3161 ALATA VISTA D","LAGUNA WOODS","CA",92637,33.611324084,-117.736087442,156,"3161 ALATA VISTA D, LAGUNA WOODS, CA, 92637","Match","Non_Exact","3161 ALTA VIS, LAGUNA WOODS, CA, 92637",649792076,"R"
169157,"3161 ALTA VISTA D","LAGUNA WOODS","CA",92637,33.611324084,-117.736087442,157,"3161 ALTA VISTA D, LAGUNA WOODS, CA, 92637","Match","Exact","3161 ALTA VIS, LAGUNA WOODS, CA, 92637",649792076,"R"
169158,"3161 CAHABA HEIGHTS ROAD SUITE 203","VESTAVIA","AL",35243,33.4544687850001,-86.733773722,158,"3161 CAHABA HEIGHTS ROAD SUITE 203, VESTAVIA, AL, 35243","Match","Exact","3161 CAHABA HEIGHTS RD, VESTAVIA, AL, 35243",81673970,"R"
169159,"3161 CAMERON PARK DR SUITE 201","CAMERON PARK","CA",95682,38.684533506,-120.985781652,159,"3161 CAMERON PARK DR SUITE 201, CAMERON PARK, CA, 95682","Match","Exact","3161 CAMERON PARK DR, CAMERON PARK, CA, 95682",133024895,"R"
169160,"3161 CONYERS ST SE","COVINGTON","GA",30014,33.593646574,-83.851633122,160,"3161 CONYERS ST SE, COVINGTON, GA, 30014","Match","Exact","3161 CONYERS ST SE, COVINGTON, GA, 30014",23616245,"R"
169161,"3161 E CR 1200 N","BATESVILLE","IN",47006,NA,NA,161,"3161 E CR 1200 N, BATESVILLE, IN, 47006","No_Match",NA,NA,NA,NA
169162,"3161 E WARM SPRINGS RD SUITE 200","LAS VEGAS","NV",89120,36.056964507,-115.107554622,162,"3161 E WARM SPRINGS RD SUITE 200, LAS VEGAS, NV, 89120","Match","Non_Exact","3161 E WARM SPRINGS RD, LAS VEGAS, NV, 89120",640227151,"R"
169163,"3161 ELLIOTT AVE STE 390","SEATTLE","WA",98121,47.618068603,-122.357745652,163,"3161 ELLIOTT AVE STE 390, SEATTLE, WA, 98121","Match","Exact","3161 ELLIOTT AVE, SEATTLE, WA, 98121",642835757,"L"
169164,"3161 ELLIOTT AVENUE SUITE 390","SEATTLE","WA",98121,47.618068603,-122.357745652,164,"3161 ELLIOTT AVENUE SUITE 390, SEATTLE, WA, 98121","Match","Exact","3161 ELLIOTT AVE, SEATTLE, WA, 98121",642835757,"L"
169165,"3161 HULL AVENUE","BRONX","NY",10467,40.8733874010001,-73.87710828,165,"3161 HULL AVENUE, BRONX, NY, 10467","Match","Exact","3161 HULL AVE, BRONX, NY, 10467",80299106,"L"
169166,"3161 LANDING FALLS LANE","RALEIGH","NC",27616,35.8726417760001,-78.526561574,166,"3161 LANDING FALLS LANE, RALEIGH, NC, 27616","Match","Exact","3161 LANDING FALLS LN, RALEIGH, NC, 27616",619080182,"L"
169167,"3161 MCEWAN VIEW CIRCLE","ORLANDO","FL",32812,28.504661556,-81.321420616,167,"3161 MCEWAN VIEW CIRCLE, ORLANDO, FL, 32812","Match","Exact","3161 MCEWAN VIEW CIR, ORLANDO, FL, 32812",94307967,"L"
169168,"3161 PARK AVE","MEMPHIS","TN",38111,35.1076919160001,-89.957158695,168,"3161 PARK AVE, MEMPHIS, TN, 38111","Match","Exact","3161 PARK AVE, MEMPHIS, TN, 38111",72919609,"R"
169169,"3161 STINSON CT","NEW BRIGHTON","MN",55112,45.060616565,-93.225575294,169,"3161 STINSON CT, NEW BRIGHTON, MN, 55112","Match","Exact","3161 STINSON CT, NEW BRIGHTON, MN, 55112",97633879,"L"
169170,"3161 SW 116 AVE","DAVIE","FL",33330,26.0802859140001,-80.303063155,170,"3161 SW 116 AVE, DAVIE, FL, 33330","Match","Exact","3161 SW 116TH AVE, DAVIE, FL, 33330",653208090,"R"
169171,"3161 SW 16TH CT","FORT LAUDERDALE","FL",33312,26.1001609360001,-80.186701082,171,"3161 SW 16TH CT, FORT LAUDERDALE, FL, 33312","Match","Non_Exact","3161 SW 16TH CT, FORT LAUDERDALE, FL, 33312",114714694,"R"
169172,"3161 THORNDYKE STREET","COLUMBUS","OH",43232,39.9146201990001,-82.8461114,172,"3161 THORNDYKE STREET, COLUMBUS, OH, 43232","Match","Exact","3161 THORNDYKE ST, COLUMBUS, OH, 43232",218666419,"L"
169173,"3161 WEST HILL ROAD","HAMILTON","NY",13346,42.874641598,-75.531322264,173,"3161 WEST HILL ROAD, HAMILTON, NY, 13346","Match","Exact","3161 W HILL RD, HAMILTON, NY, 13346",640550704,"L"
169174,"31610 CONCORD DR","MADISON HEIGHTS","MI",48071,42.5248972790001,-83.11496749,174,"31610 CONCORD DR, MADISON HEIGHTS, MI, 48071","Match","Exact","31610 CONCORD DR, MADISON HEIGHTS, MI, 48071",69744548,"L"
169175,"31611 HIGHWAY 83 NORTH","CONCAN","TX",78838,NA,NA,175,"31611 HIGHWAY 83 NORTH, CONCAN, TX, 78838","No_Match",NA,NA,NA,NA
169176,"31613 345TH AVE SE","FOSSTON","MN",56542,NA,NA,176,"31613 345TH AVE SE, FOSSTON, MN, 56542","No_Match",NA,NA,NA,NA
169177,"31616 N 19TH AVE","PHOENIX","AZ",85085,33.7723102410001,-112.099896166,177,"31616 N 19TH AVE, PHOENIX, AZ, 85085","Match","Non_Exact","31616 N 19TH AVE, PHOENIX, AZ, 85085",243981821,"L"
169178,"31617 WIXSON DRIVE","WARREN","MI",48092,42.525437438,-83.063200116,178,"31617 WIXSON DRIVE, WARREN, MI, 48092","Match","Exact","31617 WIXSON DR, WARREN, MI, 48092",110668965,"L"
169179,"31618 DUNHAM LAKE DRIVE","HOCKLEY","TX",77447,30.0002442790001,-95.7917960619999,179,"31618 DUNHAM LAKE DRIVE, HOCKLEY, TX, 77447","Match","Exact","31618 DUNHAM LAKE, HOCKLEY, TX, 77447",646694840,"L"
169180,"3162 ALTA VERDE DRIVE","FALLBROOK","CA",92028,33.3349768420001,-117.222695766,180,"3162 ALTA VERDE DRIVE, FALLBROOK, CA, 92028","Match","Exact","3162 ALTA VERDE DR, FALLBROOK, CA, 92028",636684259,"L"
169181,"3162 ARIANA DRIVE","OAKTON","VA",22124,38.878047925,-77.3222658129999,181,"3162 ARIANA DRIVE, OAKTON, VA, 22124","Match","Exact","3162 ARIANA DR, OAKTON, VA, 22124",215980157,"R"
169182,"3162 BANNEKER DRIVE NE","WASHINGTON","DC",20018,38.9258221790001,-76.962048598,182,"3162 BANNEKER DRIVE NE, WASHINGTON, DC, 20018","Match","Exact","3162 BANNEKER DR NE, WASHINGTON, DC, 20018",76244012,"L"
169183,"3162 BAYONET CT","MARIETTA","GA",30068,33.9661261590001,-84.45833246,183,"3162 BAYONET CT, MARIETTA, GA, 30068","Match","Exact","3162 BAYONET CT, MARIETTA, GA, 30068",618319265,"R"
169184,"3162 CHAMPA ST","DENVER","CO",80205,39.761115981,-104.97507717,184,"3162 CHAMPA ST, DENVER, CO, 80205","Match","Exact","3162 CHAMPA ST, DENVER, CO, 80205",177305104,"R"
169185,"3162 HUNTINGTON ROAD","SHAKER HEIGHTS","OH",44120,41.4742788980001,-81.573808521,185,"3162 HUNTINGTON ROAD, SHAKER HEIGHTS, OH, 44120","Match","Exact","3162 HUNTINGTON RD, SHAKER HEIGHTS, OH, 44120",61123524,"R"
169186,"3162 JOHNSON FERRY ROAD 260-202","MARIETTA","GA",30062,34.0271840660001,-84.423889467,186,"3162 JOHNSON FERRY ROAD 260-202, MARIETTA, GA, 30062","Match","Exact","3162 JOHNSON FERRY RD, MARIETTA, GA, 30062",17170558,"R"
169187,"3162 JUNIPER STREET","SAN DIEGO","CA",92104,32.7296416880001,-117.126123411,187,"3162 JUNIPER STREET, SAN DIEGO, CA, 92104","Match","Exact","3162 JUNIPER ST, SAN DIEGO, CA, 92104",195346189,"L"
169188,"3162 NORTH BROADWAY 200","CHICAGO","IL",60657,41.9394911380001,-87.64438654,188,"3162 NORTH BROADWAY 200, CHICAGO, IL, 60657","Match","Non_Exact","3162 N BROADWAY ST, CHICAGO, IL, 60657",605197507,"L"
169189,"3162 SR 135 NORTH","NASHVILLE","IN",47448,39.2419573340001,-86.250703331,189,"3162 SR 135 NORTH, NASHVILLE, IN, 47448","Match","Non_Exact","3162 STATE RD 135 N, NASHVILLE, IN, 47448",43527237,"R"
169190,"31620 AUTO CENTER DR C-1","LAKE ELSINORE","CA",92530,33.6621053270001,-117.301466198,190,"31620 AUTO CENTER DR C-1, LAKE ELSINORE, CA, 92530","Match","Exact","31620 AUTO CENTER DR, LAKE ELSINORE, CA, 92530",194707904,"R"
169191,"31620 AUTO CENTER DR STE B-1","LAKE ELSINORE","CA",92530,33.6621053270001,-117.301466198,191,"31620 AUTO CENTER DR STE B-1, LAKE ELSINORE, CA, 92530","Match","Exact","31620 AUTO CENTER DR, LAKE ELSINORE, CA, 92530",194707904,"R"
169192,"3163 BANTON CIRCLE","CORONA","CA",92882,33.84661766,-117.601207671,192,"3163 BANTON CIRCLE, CORONA, CA, 92882","Match","Exact","3163 BANTON CIR, CORONA, CA, 92882",608988081,"R"
169193,"3163 BLUE RIDGE RD","COLUMBUS","OH",43219,40.0107691260001,-82.925435812,193,"3163 BLUE RIDGE RD, COLUMBUS, OH, 43219","Match","Exact","3163 BLUE RIDGE RD, COLUMBUS, OH, 43219",218692118,"R"
169194,"3163 DUDLEY DRIVE","DELTONA","FL",32738,28.952657528,-81.18508337,194,"3163 DUDLEY DRIVE, DELTONA, FL, 32738","Match","Exact","3163 DUDLEY DR, DELTONA, FL, 32738",94504561,"R"
169195,"3163 FLOYD DR","AUGUSTA","GA",30906,33.4116510690001,-82.034499989,195,"3163 FLOYD DR, AUGUSTA, GA, 30906","Match","Exact","3163 FLOYD DR, AUGUSTA, GA, 30906",55637157,"R"
169196,"3163 FLUSHING RD STE 200 F","FLINT","MI",48504,43.0255358810001,-83.735509759,196,"3163 FLUSHING RD STE 200 F, FLINT, MI, 48504","Match","Exact","3163 FLUSHING RD, FLINT, MI, 48504",69564952,"L"
169197,"3163 FLUSHING RD STE C-1","FLINT","MI",48504,43.0255358810001,-83.735509759,197,"3163 FLUSHING RD STE C-1, FLINT, MI, 48504","Match","Exact","3163 FLUSHING RD, FLINT, MI, 48504",69564952,"L"
169198,"3163 FLUSHING RD SUITE 210","FLINT","MI",48504,43.0255358810001,-83.735509759,198,"3163 FLUSHING RD SUITE 210, FLINT, MI, 48504","Match","Exact","3163 FLUSHING RD, FLINT, MI, 48504",69564952,"L"
169199,"3163 GEDNEY CIR","BLYTHEWOOD","SC",29016,34.1604944750001,-80.971238289,199,"3163 GEDNEY CIR, BLYTHEWOOD, SC, 29016","Match","Non_Exact","3163 GEDNEY RD, BLYTHEWOOD, SC, 29016",645306852,"R"
169200,"3163 MORRISON CANYON ROAD","FREMONT","CA",94538,37.5798293990001,-121.925920033,200,"3163 MORRISON CANYON ROAD, FREMONT, CA, 94538","Match","Non_Exact","3163 MORRISON CANYON RD, FREMONT, CA, 94539",650194021,"R"
169201,"3163 RIDERS TRAIL","DECATUR","GA",30034,33.694028173,-84.2031911289999,201,"3163 RIDERS TRAIL, DECATUR, GA, 30034","Match","Exact","3163 RIDERS TRL, DECATUR, GA, 30034",23372904,"R"
169202,"3163 SCOTCH CREEK ROAD","COPPELL","TX",75019,32.932701244,-96.986390482,202,"3163 SCOTCH CREEK ROAD, COPPELL, TX, 75019","Match","Exact","3163 SCOTCH CREEK RD, COPPELL, TX, 75019",646664906,"R"
169203,"3163 SHERIDAN AVENUE","ST LOUIS","MO",63106,38.64467309,-90.223307306,203,"3163 SHERIDAN AVENUE, ST LOUIS, MO, 63106","Match","Exact","3163 SHERIDAN AVE, SAINT LOUIS, MO, 63106",107597839,"R"
169204,"31630 110TH PLACE SE","AUBURN","WA",98092,NA,NA,204,"31630 110TH PLACE SE, AUBURN, WA, 98092","Tie",NA,NA,NA,NA
169205,"31630 COWAN RD APT 202","WESTLAND","MI",48185,42.339677925,-83.355617689,205,"31630 COWAN RD APT 202, WESTLAND, MI, 48185","Match","Exact","31630 COWAN RD, WESTLAND, MI, 48185",647876420,"L"
169206,"31633 CALLE DE TALAR","BONSALL","CA",92003,33.283502851,-117.163737416,206,"31633 CALLE DE TALAR, BONSALL, CA, 92003","Match","Non_Exact","31633 CLL DE TALAR, BONSALL, CA, 92003",612884028,"L"
169207,"31636 169TH STREET","HUNTLEY","MN",56047,NA,NA,207,"31636 169TH STREET, HUNTLEY, MN, 56047","No_Match",NA,NA,NA,NA
169208,"31638 DEERFIELD TERRACE","BULVERDE","TX",78163,29.7644688600001,-98.4446340599999,208,"31638 DEERFIELD TERRACE, BULVERDE, TX, 78163","Match","Exact","31638 DEERFIELD TER, BULVERDE, TX, 78163",72240005,"R"
169209,"31638 IRIS COURT","BROWNSTOWN","MI",48173,42.077199147,-83.219241096,209,"31638 IRIS COURT, BROWNSTOWN, MI, 48173","Match","Exact","31638 IRIS CT, BROWNSTOWN, MI, 48173",95743176,"R"
169210,"31639 US HWY 77","ARKANSAS CITY","KS",67005,37.030178393,-97.0423903609999,210,"31639 US HWY 77, ARKANSAS CITY, KS, 67005","Match","Exact","31639 US HWY 77, ARKANSAS CITY, KS, 67005",637791863,"L"
169211,"3164 72ND AVE NORTH","SAINT PETERSBURG","FL",33702,27.8374429840001,-82.676606565,211,"3164 72ND AVE NORTH, SAINT PETERSBURG, FL, 33702","Match","Exact","3164 72ND AVE N, SAINT PETERSBURG, FL, 33702",646120548,"L"
169212,"3164 ARROW LN","CLARKSVILLE","TN",37043,36.539861601,-87.217618858,212,"3164 ARROW LN, CLARKSVILLE, TN, 37043","Match","Exact","3164 ARROW LN, CLARKSVILLE, TN, 37043",635634044,"R"
169213,"3164 PETRE RD APT 101","CHESAPEAKE","VA",23325,36.824907194,-76.252131037,213,"3164 PETRE RD APT 101, CHESAPEAKE, VA, 23325","Match","Exact","3164 PETRE RD, CHESAPEAKE, VA, 23325",121770628,"L"
169214,"3164 RENDEZVOUS LANE","MEMPHIS","TN",38118,35.0029552780001,-89.958381258,214,"3164 RENDEZVOUS LANE, MEMPHIS, TN, 38118","Match","Exact","3164 RENDEZVOUS LN, MEMPHIS, TN, 38118",72975433,"L"
169215,"3164 S 124TH RD","FLEMINGTON","MO",65650,37.7968409970001,-93.401772986,215,"3164 S 124TH RD, FLEMINGTON, MO, 65650","Match","Exact","3164 S 124TH RD, FLEMINGTON, MO, 65650",23053128,"R"
169216,"3164 S MARTADALE DR","AKRON","OH",44333,NA,NA,216,"3164 S MARTADALE DR, AKRON, OH, 44333","Tie",NA,NA,NA,NA
169217,"3164 SHADY GROVE RD","SILAS","AL",36919,31.7815190370001,-88.284280484,217,"3164 SHADY GROVE RD, SILAS, AL, 36919","Match","Exact","3164 SHADY GROVE RD, SILAS, AL, 36919",647690458,"L"
169218,"3164 STERLING AVE","SANGER","CA",93657,36.715305592,-119.582064933,218,"3164 STERLING AVE, SANGER, CA, 93657","Match","Exact","3164 STERLING AVE, SANGER, CA, 93657",197647776,"L"
169219,"3164 W 12TH AVENUE CT","BROOMFIELD","CO",80020,39.933488615,-105.105146381,219,"3164 W 12TH AVENUE CT, BROOMFIELD, CO, 80020","Match","Exact","3164 W 12TH AVENUE CT, BROOMFIELD, CO, 80020",210039849,"L"
169220,"31646 LAKE ROAD","AVON LAKE","OH",44012,41.504699212,-81.969951048,220,"31646 LAKE ROAD, AVON LAKE, OH, 44012","Match","Exact","31646 LAKE RD, AVON LAKE, OH, 44012",55434940,"R"
169221,"3165 46TH ST - NUMBER 101","LONG ISLAND CITY","NY",11103,NA,NA,221,"3165 46TH ST - NUMBER 101, LONG ISLAND CITY, NY, 11103","No_Match",NA,NA,NA,NA
169222,"3165 BEECHMONT ST","MEMPHIS","TN",38127,35.212609082,-90.0017416269999,222,"3165 BEECHMONT ST, MEMPHIS, TN, 38127","Match","Exact","3165 BEECHMONT ST, MEMPHIS, TN, 38127",72910668,"L"
169223,"3165 CHICKERING WOODS DRIVE","LOUISVILLE","KY",40241,38.295251975,-85.621983854,223,"3165 CHICKERING WOODS DRIVE, LOUISVILLE, KY, 40241","Match","Exact","3165 CHICKERING WOODS DR, LOUISVILLE, KY, 40241",96882436,"L"
169224,"3165 E MILLROCK DRIVE SUITE 500","SALT LAKE CITY","UT",84121,40.633749854,-111.801965835,224,"3165 E MILLROCK DRIVE SUITE 500, SALT LAKE CITY, UT, 84121","Match","Exact","3165 MILLROCK DR, SALT LAKE CITY, UT, 84121",641068465,"L"
169225,"3165 EAST MILLROCK DRIVE SUITE 500","SALT LAKE CITY","UT",84121,40.6337944310001,-111.801966778,225,"3165 EAST MILLROCK DRIVE SUITE 500, SALT LAKE CITY, UT, 84121","Match","Non_Exact","3165 MILLROCK DR, SALT LAKE CITY, UT, 84121",641068465,"L"
169226,"3165 GAYLA DRIVE","BLANCHARD","OK",73010,35.1669773680001,-97.648533992,226,"3165 GAYLA DRIVE, BLANCHARD, OK, 73010","Match","Exact","3165 GAYLA DR, BLANCHARD, OK, 73010",58366944,"L"
169227,"3165 HOSKINS ROAD","MEMPHIS","TN",38111,35.1038806660001,-89.957031033,227,"3165 HOSKINS ROAD, MEMPHIS, TN, 38111","Match","Exact","3165 HOSKINS RD, MEMPHIS, TN, 38111",72918316,"R"
169228,"3165 KINGFISHER CT","FORT COLLINS","CO",80528,40.502925754,-105.018349035,228,"3165 KINGFISHER CT, FORT COLLINS, CO, 80528","Match","Exact","3165 KINGFISHER CT, FORT COLLINS, CO, 80528",188552193,"R"
169229,"3165 MARTINSBURG PIKE","CLEAR BROOK","VA",22624,39.2492269360001,-78.102102363,229,"3165 MARTINSBURG PIKE, CLEAR BROOK, VA, 22624","Match","Exact","3165 MARTINSBURG PIKE, CLEAR BROOK, VA, 22624",55602056,"L"
169230,"3165 N KINGS HWY EAST","PRESCOTT VALLEY","AZ",86314,34.5884209170001,-112.357975429,230,"3165 N KINGS HWY EAST, PRESCOTT VALLEY, AZ, 86314","Match","Exact","3165 KINGS HWY E, PRESCOTT VALLEY, AZ, 86314",159462195,"R"
169231,"3165 PACIFIC HIGHWAY","SAN DIEGO","CA",92101,32.7347408260001,-117.177154184,231,"3165 PACIFIC HIGHWAY, SAN DIEGO, CA, 92101","Match","Exact","3165 PACIFIC HWY, SAN DIEGO, CA, 92101",649821500,"R"
169232,"3165 PRAIRIE LANE","COLUMBUS","NE",68601,41.4472074870001,-97.3717590269999,232,"3165 PRAIRIE LANE, COLUMBUS, NE, 68601","Match","Exact","3165 PRAIRIE LN, COLUMBUS, NE, 68601",136387215,"R"
169233,"3165 S SCHENLEY AVE","YOUNGSTOWN","OH",44511,41.0664890470001,-80.699622162,233,"3165 S SCHENLEY AVE, YOUNGSTOWN, OH, 44511","Match","Exact","3165 S SCHENLEY AVE, YOUNGSTOWN, OH, 44511",64617240,"L"
169234,"3165 WENDEL RD SE","PALM BAY","FL",32909,27.913996776,-80.629499445,234,"3165 WENDEL RD SE, PALM BAY, FL, 32909","Match","Exact","3165 WENDEL RD SE, PALM BAY, FL, 32909",93880211,"R"
169235,"31651 VIA CERVANTES","SAN JUAN CAPISTRANO","CA",92675,33.5031601160001,-117.636907601,235,"31651 VIA CERVANTES, SAN JUAN CAPISTRANO, CA, 92675","Match","Exact","31651 VIA CERVANTES, SAN JUAN CAPISTRANO, CA, 92675",144074745,"R"
169236,"31654 LATHAM RIDGE RD","SHADY POINT","OK",74956,35.114683912,-94.816238313,236,"31654 LATHAM RIDGE RD, SHADY POINT, OK, 74956","Match","Exact","31654 LATHAM RIDGE RD, SHADY POINT, OK, 74956",79908553,"L"
169237,"31658 CATALINA WAY","BULVERDE","TX",78163,29.7624191640001,-98.372135208,237,"31658 CATALINA WAY, BULVERDE, TX, 78163","Match","Exact","31658 CATALINA WAY, BULVERDE, TX, 78163",647417102,"R"
169238,"3166 6TH PL SW","LOVELAND","CO",80537,40.3863259890001,-105.122760238,238,"3166 6TH PL SW, LOVELAND, CO, 80537","Match","Exact","3166 6TH PL SW, LOVELAND, CO, 80537",188524288,"L"
169239,"3166 ALIKA AVENUE","HONOLULU","HI",96817,21.338579689,-157.833799023,239,"3166 ALIKA AVENUE, HONOLULU, HI, 96817","Match","Exact","3166 ALIKA AVE, HONOLULU, HI, 96817",203237116,"L"
169240,"3166 CLARITA CT","THOUSAND OAKS","CA",91362,34.215325856,-118.817979191,240,"3166 CLARITA CT, THOUSAND OAKS, CA, 91362","Match","Exact","3166 CLARITA CT, THOUSAND OAKS, CA, 91362",110120560,"R"
169241,"3166 E PALMDALE BLVD STE 218","PALMDALE","CA",93550,34.5802054850001,-118.072832466,241,"3166 E PALMDALE BLVD STE 218, PALMDALE, CA, 93550","Match","Non_Exact","3166 E PALMDALE BLVD, PALMDALE, CA, 93550",142707850,"L"
169242,"3166 E PALMDALE BLVD","PALMDALE","CA",93550,34.5802054850001,-118.072832466,242,"3166 E PALMDALE BLVD, PALMDALE, CA, 93550","Match","Exact","3166 E PALMDALE BLVD, PALMDALE, CA, 93550",142707850,"L"
169243,"3166 FRUITVALE AVE","OAKLAND","CA",94602,37.796935724,-122.217479122,243,"3166 FRUITVALE AVE, OAKLAND, CA, 94602","Match","Exact","3166 FRUITVALE AVE, OAKLAND, CA, 94602",125003099,"R"
169244,"3166 HWY 315 APT 911","HOUMA","LA",70360,NA,NA,244,"3166 HWY 315 APT 911, HOUMA, LA, 70360","No_Match",NA,NA,NA,NA
169245,"3166 JAYNE LN","DOVER","PA",17315,39.9771892100001,-76.832947804,245,"3166 JAYNE LN, DOVER, PA, 17315","Match","Exact","3166 JAYNE LN, DOVER, PA, 17315",616679472,"R"
169246,"3166 LITTLE MOUNTAIN DRIVE APT A","SAN BERNARDINO","CA",92405,34.1486165590001,-117.319229568,246,"3166 LITTLE MOUNTAIN DRIVE APT A, SAN BERNARDINO, CA, 92405","Match","Exact","3166 LITTLE MOUNTAIN DR, SAN BERNARDINO, CA, 92405",144652212,"L"
169247,"3166 N 41ST STREET","MILWAUKEE","WI",53216,43.076531163,-87.9643933789999,247,"3166 N 41ST STREET, MILWAUKEE, WI, 53216","Match","Exact","3166 N 41ST ST, MILWAUKEE, WI, 53216",653016539,"R"
169248,"3166 N 54TH STREET","MILWAUKEE","WI",53206,43.0764894120001,-87.980832301,248,"3166 N 54TH STREET, MILWAUKEE, WI, 53206","Match","Non_Exact","3166 N 54TH ST, MILWAUKEE, WI, 53216",77731846,"R"
169249,"3166 OSTROM AVENUE","LONG BEACH","CA",90815,33.8142546990001,-118.101034762,249,"3166 OSTROM AVENUE, LONG BEACH, CA, 90815","Match","Non_Exact","3166 OSTROM AVE, LONG BEACH, CA, 90808",141745862,"R"
169250,"3166 PADDINGTON WAY","SAN RAMON","CA",94582,37.7754504500001,-121.900868666,250,"3166 PADDINGTON WAY, SAN RAMON, CA, 94582","Match","Exact","3166 PADDINGTON WAY, SAN RAMON, CA, 94582",624637860,"R"
169251,"3166 SANTA CLAIR CIRCLE","JACKSON","MS",39212,NA,NA,251,"3166 SANTA CLAIR CIRCLE, JACKSON, MS, 39212","No_Match",NA,NA,NA,NA
169252,"3166 SANTIAGO DRIVE","FLORRISANT","MO",63033,38.803642912,-90.296062508,252,"3166 SANTIAGO DRIVE, FLORRISANT, MO, 63033","Match","Non_Exact","3166 SANTIAGO DR, FLORISSANT, MO, 63033",100188302,"R"
169253,"3166 SW CURCUMA STREET","PORT SAINT LUCIE","FL",34953,27.2509486390001,-80.411893704,253,"3166 SW CURCUMA STREET, PORT SAINT LUCIE, FL, 34953","Match","Exact","3166 SW CURCUMA ST, PORT ST LUCIE, FL, 34953",120138641,"L"
169254,"3166 WHOOPING CRANE RUN","KISSIMMEE","FL",34741,28.3449003750001,-81.4379192059999,254,"3166 WHOOPING CRANE RUN, KISSIMMEE, FL, 34741","Match","Exact","3166 WHOOPING CRANE RUN, KISSIMMEE, FL, 34741",176691429,"L"
169255,"31662 MAR VISTA AVE","LAGUNA BEACH","CA",92651,33.5027250840001,-117.740398145,255,"31662 MAR VISTA AVE, LAGUNA BEACH, CA, 92651","Match","Exact","31662 MAR VISTA AVE, LAGUNA BEACH, CA, 92651",144069800,"L"
169256,"31665 WINNERS CIRCLE","AVON LAKE","OH",44012,41.482380741,-81.974774107,256,"31665 WINNERS CIRCLE, AVON LAKE, OH, 44012","Match","Exact","31665 WINNERS CIR, AVON LAKE, OH, 44012",633866646,"L"
169257,"31668 ECKSTEIN ST","WARREN","MI",48092,42.5253006470001,-83.04201834,257,"31668 ECKSTEIN ST, WARREN, MI, 48092","Match","Exact","31668 ECKSTEIN ST, WARREN, MI, 48092",110672095,"R"
169258,"3167 CHIPPEWA BEACH ROAD","INDIAN RIVER","MI",49749,45.417885362,-84.6245891519999,258,"3167 CHIPPEWA BEACH ROAD, INDIAN RIVER, MI, 49749","Match","Exact","3167 CHIPPEWA BEACH RD, INDIAN RIVER, MI, 49749",644599952,"R"
169259,"3167 FLEDGLING CIR","WOODBRIDGE","VA",22193,38.6123936130001,-77.305917731,259,"3167 FLEDGLING CIR, WOODBRIDGE, VA, 22193","Match","Exact","3167 FLEDGLING CIR, WOODBRIDGE, VA, 22193",646644169,"L"
169260,"3167 FREEMONT TERRACE SOUTH","ST PETERSBURG","FL",33712,27.764264844,-82.676180858,260,"3167 FREEMONT TERRACE SOUTH, ST PETERSBURG, FL, 33712","Match","Exact","3167 FREEMONT TER S, SAINT PETERSBURG, FL, 33712",124705546,"R"
169261,"3167 OHIO STREET","MIAMI","FL",33133,25.7322258570001,-80.247527535,261,"3167 OHIO STREET, MIAMI, FL, 33133","Match","Exact","3167 OHIO ST, MIAMI, FL, 33133",116014554,"L"
169262,"3167 PHILIP AVENUE","BRONX","NY",10465,40.830419883,-73.818384221,262,"3167 PHILIP AVENUE, BRONX, NY, 10465","Match","Exact","3167 PHILIP AVE, BRONX, NY, 10465",80307206,"L"
169263,"3167 SALLY ANN DR","LOVELAND","CO",80537,40.3752514930001,-105.121065964,263,"3167 SALLY ANN DR, LOVELAND, CO, 80537","Match","Exact","3167 SALLY ANN DR, LOVELAND, CO, 80537",188550126,"R"
169264,"3167 WAIALAE AVE","HONOLULU","HI",96816,21.2876453390001,-157.808580117,264,"3167 WAIALAE AVE, HONOLULU, HI, 96816","Match","Exact","3167 WAIALAE AVE, HONOLULU, HI, 96816",203260826,"R"
169265,"31670 GIBONEY ROAD","WALLER","TX",77484,30.165823216,-95.932750977,265,"31670 GIBONEY ROAD, WALLER, TX, 77484","Match","Exact","31670 GIBONEY RD, WALLER, TX, 77484",634546920,"L"
169266,"31672 162ND AVE","AVON","MN",56310,45.582813065,-94.442688445,266,"31672 162ND AVE, AVON, MN, 56310","Match","Exact","31672 162ND AVE, AVON, MN, 56310",107430905,"R"
169267,"31678 COAST HWY UNIT A","LAGUNA BEACH","CA",92651,33.502054921,-117.744014786,267,"31678 COAST HWY UNIT A, LAGUNA BEACH, CA, 92651","Match","Non_Exact","31678 S COAST HWY, LAGUNA BEACH, CA, 92651",629827246,"L"
169268,"3168 52ND AVE","GREELEY","CO",80634,40.387329494,-104.764959323,268,"3168 52ND AVE, GREELEY, CO, 80634","Match","Exact","3168 52ND AVE, GREELEY, CO, 80634",188740835,"L"
169269,"3168 ABILENE ST","AURORA","CO",80011,39.7602136950001,-104.825436675,269,"3168 ABILENE ST, AURORA, CO, 80011","Match","Exact","3168 ABILENE ST, AURORA, CO, 80011",177351060,"R"
169270,"3168 ADAMSWOOD DR","SAN JOSE","CA",95148,37.3280469050001,-121.786731738,270,"3168 ADAMSWOOD DR, SAN JOSE, CA, 95148","Match","Exact","3168 ADAMSWOOD DR, SAN JOSE, CA, 95148",122998705,"R"
169271,"3168 BUCKBOARD DRIVE","EVERGREEN","CO",80439,39.656992388,-105.334117916,271,"3168 BUCKBOARD DRIVE, EVERGREEN, CO, 80439","Match","Exact","3168 BUCKBOARD DR, EVERGREEN, CO, 80439",648969452,"R"
169272,"3168 MANOR CT","INDIANAPOLIS","IN",46218,39.814054066,-86.091469758,272,"3168 MANOR CT, INDIANAPOLIS, IN, 46218","Match","Exact","3168 MANOR CT, INDIANAPOLIS, IN, 46218",107999385,"L"
169273,"3168 NW 63RD ST","BOCA RATON","FL",33496,26.405601033,-80.1515928599999,273,"3168 NW 63RD ST, BOCA RATON, FL, 33496","Match","Exact","3168 NW 63RD ST, BOCA RATON, FL, 33496",115491459,"R"
169274,"3168 OAKLAND AVE","CATLETTSBURG","KY",41129,38.41101639,-82.598181564,274,"3168 OAKLAND AVE, CATLETTSBURG, KY, 41129","Match","Exact","3168 OAKLAND AVE, CATLETTSBURG, KY, 41129",151049160,"R"
169275,"3168 OGALALA AVENUE","SAN DIEGO","CA",92117,32.833300803,-117.214231562,275,"3168 OGALALA AVENUE, SAN DIEGO, CA, 92117","Match","Exact","3168 OGALALA AVE, SAN DIEGO, CA, 92117",195302391,"L"
169276,"3168 POTTER AVE","THOUSAND OAKS","CA",91360,34.2218177500001,-118.85940123,276,"3168 POTTER AVE, THOUSAND OAKS, CA, 91360","Match","Exact","3168 POTTER AVE, THOUSAND OAKS, CA, 91360",109975460,"L"
169277,"3168 RICHMOND STREET","PHILADELPHIA","PA",19134,39.9826897340001,-75.1019889729999,277,"3168 RICHMOND STREET, PHILADELPHIA, PA, 19134","Match","Exact","3168 RICHMOND ST, PHILADELPHIA, PA, 19134",131429940,"L"
169278,"3168 ROCHFORT BR DR E","COLUMBUS","OH",43221,NA,NA,278,"3168 ROCHFORT BR DR E, COLUMBUS, OH, 43221","No_Match",NA,NA,NA,NA
169279,"3168 ROUTE 9N","GREENFIELD CENTER","NY",12833,43.1500597790001,-73.8551150719999,279,"3168 ROUTE 9N, GREENFIELD CENTER, NY, 12833","Match","Non_Exact","3168 OLD RTE 9N, GREENFIELD CENTER, NY, 12833",635578351,"L"
169280,"3168 SAND MARSH LANE","MOUNT PLEASANT","SC",29466,32.85207488,-79.770002397,280,"3168 SAND MARSH LANE, MOUNT PLEASANT, SC, 29466","Match","Exact","3168 SAND MARSH LN, MOUNT PLEASANT, SC, 29466",108907832,"R"
169281,"31681 RIVERSIDE DRIVE- STE D","LAKE ELSINORE","CA",92530,33.6805612680001,-117.370237046,281,"31681 RIVERSIDE DRIVE- STE D, LAKE ELSINORE, CA, 92530","Match","Non_Exact","31681 RIVERSIDE DR, LAKE ELSINORE, CA, 92530",194707316,"L"
169282,"31681 RIVERSIDE DRIVE- STE D","RIVERSIDE","CA",92530,NA,NA,282,"31681 RIVERSIDE DRIVE- STE D, RIVERSIDE, CA, 92530","No_Match",NA,NA,NA,NA
169283,"3169 49TH STREET  SUITE 2D","WOODSIDE","NY",11377,NA,NA,283,"3169 49TH STREET  SUITE 2D, WOODSIDE, NY, 11377","No_Match",NA,NA,NA,NA
169284,"3169 BEECHWOOD DRIVE","ALLISON PARK","PA",15101,40.5900562580001,-79.9297940439999,284,"3169 BEECHWOOD DRIVE, ALLISON PARK, PA, 15101","Match","Exact","3169 BEECHWOOD DR, ALLISON PARK, PA, 15101",607630693,"R"
169285,"3169 FOX DR","CHALFONT","PA",18914,40.2442376120001,-75.179315785,285,"3169 FOX DR, CHALFONT, PA, 18914","Match","Exact","3169 FOX DR, CHALFONT, PA, 18914",134749907,"L"
169286,"3169 KINGS BAY DR","DECATUR","GA",30034,33.6919915930001,-84.282081319,286,"3169 KINGS BAY DR, DECATUR, GA, 30034","Match","Exact","3169 KINGS BAY DR, DECATUR, GA, 30034",619384499,"L"
169287,"3169 PROFESSIONAL PLAZA SUITE 1","GERMANTOWN","TN",38138,35.063131814,-89.7547751979999,287,"3169 PROFESSIONAL PLAZA SUITE 1, GERMANTOWN, TN, 38138","Match","Non_Exact","3169 PROFESSIONAL PLAZA DR, GERMANTOWN, TN, 38138",607457255,"R"
169288,"3169 SPICY CEDAR LANE","LITHONIA","GA",30038,33.6896049850001,-84.082750217,288,"3169 SPICY CEDAR LANE, LITHONIA, GA, 30038","Match","Exact","3169 SPICY CEDAR LN, LITHONIA, GA, 30038",619380901,"R"
169289,"3169 TERRACE CT C","PEACHTREE CORNERS","GA",30092,33.9430507530001,-84.243222641,289,"3169 TERRACE CT C, PEACHTREE CORNERS, GA, 30092","Match","Non_Exact","3169 TERRACE CT NW, PEACHTREE CORNERS, GA, 30092",88883523,"L"
169290,"3169 YATES","BARLETT","TN",38134,35.2122134430001,-89.8770901409999,290,"3169 YATES, BARLETT, TN, 38134","Match","Non_Exact","3169 YATES ST, BARTLETT, TN, 38134",72924053,"L"
169291,"31698 COMANCHE ROAD","COARSEGOLD","CA",93614,37.2101111360001,-119.682255586,291,"31698 COMANCHE ROAD, COARSEGOLD, CA, 93614","Match","Exact","31698 COMANCHE RD, COARSEGOLD, CA, 93614",102355985,"L"
169292,"31698 MOUND RD","WARREN","MI",48092,42.52649519,-83.047387068,292,"31698 MOUND RD, WARREN, MI, 48092","Match","Exact","31698 MOUND RD, WARREN, MI, 48092",110669156,"R"
169293,"316A HOG HOUSE HILL ROAD","EXETER","RI",2822,41.5422039110001,-71.602819648,293,"316A HOG HOUSE HILL ROAD, EXETER, RI, 2822","Match","Exact","316 HOG HOUSE HILL RD, EXETER, RI, 02822",58900554,"R"
169294,"316B CANADA","JACKSONVILLE","TX",75766,31.956330833,-95.268857037,294,"316B CANADA, JACKSONVILLE, TX, 75766","Match","Non_Exact","316 CANADA ST, JACKSONVILLE, TX, 75766",636366593,"L"
169295,"317 10TH STREET NE 9","WASHINGTON","DC",20002,38.893838927,-76.992636671,295,"317 10TH STREET NE 9, WASHINGTON, DC, 20002","Match","Exact","317 10TH ST NE, WASHINGTON, DC, 20002",76229997,"R"
169296,"317 112TH AVE NE APT 453","BELLEVUE","WA",98004,47.613083816,-122.190899227,296,"317 112TH AVE NE APT 453, BELLEVUE, WA, 98004","Match","Exact","317 112TH AVE NE, BELLEVUE, WA, 98004",186607463,"L"
169297,"317 2ND AVE NW","OSSEO","MN",55369,45.1195312070001,-93.405215362,297,"317 2ND AVE NW, OSSEO, MN, 55369","Match","Non_Exact","317 2ND AVE W, OSSEO, MN, 55369",43816151,"L"
169298,"317 5 STREET NE","WATFORD CITY","ND",58854,47.803618412,-103.276300756,298,"317 5 STREET NE, WATFORD CITY, ND, 58854","Match","Exact","317 5TH ST NE, WATFORD CITY, ND, 58854",639877666,"R"
169299,"317 ALICE LANE","DEER PARK","TX",77536,29.6986774490001,-95.120567158,299,"317 ALICE LANE, DEER PARK, TX, 77536","Match","Exact","317 ALICE LN, DEER PARK, TX, 77536",96101897,"L"
169300,"317 ANDERSON BLVD","GENEVA","IL",60134,41.891939232,-88.315118372,300,"317 ANDERSON BLVD, GENEVA, IL, 60134","Match","Exact","317 ANDERSON BLVD, GENEVA, IL, 60134",119507742,"R"
169301,"317 ASBURY CHURCH RD","WAYNESBORO","GA",30830,33.0192027580001,-81.947276629,301,"317 ASBURY CHURCH RD, WAYNESBORO, GA, 30830","Match","Exact","317 ASBURY CHURCH RD, WAYNESBORO, GA, 30830",99385157,"R"
169302,"317 ASHFORD COURT","WINSTON SALEM","NC",27103,36.049513749,-80.332502684,302,"317 ASHFORD COURT, WINSTON SALEM, NC, 27103","Match","Exact","317 ASHFORD CT, WINSTON SALEM, NC, 27103",84679824,"L"
169303,"317 ASTOR ST","SAN ANTONIO","TX",78210,29.3875455470001,-98.469197949,303,"317 ASTOR ST, SAN ANTONIO, TX, 78210","Match","Exact","317 ASTOR ST, SAN ANTONIO, TX, 78210",101533828,"L"
169304,"317 AUTUMN COURT","BARTLESVILLE","OK",74006,36.749579382,-95.903218432,304,"317 AUTUMN COURT, BARTLESVILLE, OK, 74006","Match","Exact","317 AUTUMN CT, BARTLESVILLE, OK, 74006",18709014,"R"
169305,"317 BECKEY HILL RD","BARRE","VT",5641,44.2212409800001,-72.509885406,305,"317 BECKEY HILL RD, BARRE, VT, 5641","Match","Non_Exact","317 BECKLEY HILL RD, BARRE, VT, 05641",136675672,"R"
169306,"317 BELLEVILLE AVENUE","BLOOMFIELD","NJ",7003,NA,NA,306,"317 BELLEVILLE AVENUE, BLOOMFIELD, NJ, 7003","No_Match",NA,NA,NA,NA
169307,"317 BENTON DRIVE","ROANOKE","TX",76262,33.018509968,-97.212148293,307,"317 BENTON DRIVE, ROANOKE, TX, 76262","Match","Exact","317 BENTON DR, ROANOKE, TX, 76262",103397358,"R"
169308,"317 BIRCHWOOD PARK DRIVE","VIRGINIA BEACH","VA",23452,36.8404283900001,-76.10630071,308,"317 BIRCHWOOD PARK DRIVE, VIRGINIA BEACH, VA, 23452","Match","Exact","317 BIRCHWOOD PARK DR, VA BCH, VA, 23452",122278752,"L"
169309,"317 BLOSSOM CT","LATTA","SC",29565,34.3259637830001,-79.4315444699999,309,"317 BLOSSOM CT, LATTA, SC, 29565","Match","Exact","317 BLOSSOM CT, LATTA, SC, 29565",28835777,"R"
169310,"317 BRACKEN LANE","BRANDON","FL",33511,27.9046296870001,-82.280182912,310,"317 BRACKEN LANE, BRANDON, FL, 33511","Match","Exact","317 BRACKEN LN, BRANDON, FL, 33511",104544767,"R"
169311,"317 BRIMMING LAKE RD","MINNEOLA","FL",34715,28.574762408,-81.728498235,311,"317 BRIMMING LAKE RD, MINNEOLA, FL, 34715","Match","Exact","317 BRIMMING LAKE RD, MINNEOLA, FL, 34715",641404583,"R"
169312,"317 BROAD STREET","BROCKWAY","PA",15824,41.2479263820001,-78.800836249,312,"317 BROAD STREET, BROCKWAY, PA, 15824","Match","Exact","317 BROAD ST, BROCKWAY, PA, 15824",66444721,"R"
169313,"317 BUIE PHILADELPHUS ROAD","RED SPRINGS","NC",28377,34.7412792700001,-79.117547386,313,"317 BUIE PHILADELPHUS ROAD, RED SPRINGS, NC, 28377","Match","Exact","317 BUIE PHILADELPHUS RD, RED SPRINGS, NC, 28377",608086820,"R"
169314,"317 BURTON ROAD","ORELAND","PA",19075,40.116491179,-75.194178055,314,"317 BURTON ROAD, ORELAND, PA, 19075","Match","Exact","317 BURTON RD, ORELAND, PA, 19075",135089047,"R"
169315,"317 CAROL AVENUE","LEANDER","TX",78641,30.57218585,-97.86437582,315,"317 CAROL AVENUE, LEANDER, TX, 78641","Match","Exact","317 CAROL AVE, LEANDER, TX, 78641",627568960,"R"
169316,"317 CAWTHORN DR","SLIDELL","LA",70458,30.3006383110001,-89.765871413,316,"317 CAWTHORN DR, SLIDELL, LA, 70458","Match","Exact","317 CAWTHORN DR, SLIDELL, LA, 70458",111250684,"R"
169317,"317 CHESWOLD ROAD","DREXEL HILL","DE",19026,NA,NA,317,"317 CHESWOLD ROAD, DREXEL HILL, DE, 19026","No_Match",NA,NA,NA,NA
169318,"317 CLAYTON OAKS DR","ELLISVILLE","MO",63011,38.6020228790001,-90.5965610009999,318,"317 CLAYTON OAKS DR, ELLISVILLE, MO, 63011","Match","Exact","317 CLAYTON OAKS DR, ELLISVILLE, MO, 63011",100112002,"L"
169319,"317 CLEARVIEW DRIVE","CLARKSVILLE","TN",37043,36.5240839350001,-87.300092266,319,"317 CLEARVIEW DRIVE, CLARKSVILLE, TN, 37043","Match","Exact","317 CLEARVIEW DR, CLARKSVILLE, TN, 37043",604727600,"R"
169320,"317 COLLINWOOD DRIVE","BURLINGTON","NC",27215,36.0773278130001,-79.504185218,320,"317 COLLINWOOD DRIVE, BURLINGTON, NC, 27215","Match","Exact","317 COLLINWOOD DR, BURLINGTON, NC, 27215",71667212,"R"
169321,"317 COLTON WAY","ADA","OK",74820,34.8450773120001,-96.671472527,321,"317 COLTON WAY, ADA, OK, 74820","Match","Exact","317 COLTON WAY, ADA, OK, 74820",632267932,"R"
169322,"317 COMMERCIAL ST NE","ALBUQUERQUE","NM",87102,35.0859707540001,-106.645750924,322,"317 COMMERCIAL ST NE, ALBUQUERQUE, NM, 87102","Match","Exact","317 COMMERCIAL ST NE, ALBUQUERQUE, NM, 87102",206776678,"L"
169323,"317 COMMERICAL STREET STE APMB-123","ALBUQUERQUE","NM",87102,NA,NA,323,"317 COMMERICAL STREET STE APMB-123, ALBUQUERQUE, NM, 87102","No_Match",NA,NA,NA,NA
169324,"317 CONIFER COURT","WALNUT CREEK","CA",94598,37.9307448340001,-122.012664901,324,"317 CONIFER COURT, WALNUT CREEK, CA, 94598","Match","Exact","317 CONIFER CT, WALNUT CREEK, CA, 94598",192057100,"L"
169325,"317 CR 3107","CROCKETT","TX",75835,31.2975708880001,-95.4992400959999,325,"317 CR 3107, CROCKETT, TX, 75835","Match","Exact","317 CO RD 3107, CROCKETT, TX, 75835",624449967,"L"
169326,"317 CRENSHAW STREET","BEDFORD","VA",24523,37.334678179,-79.526984246,326,"317 CRENSHAW STREET, BEDFORD, VA, 24523","Match","Exact","317 CRENSHAW ST, BEDFORD, VA, 24523",62709494,"R"
169327,"317 CROWN ST","BROOKLYN","NY",11225,40.6661942220001,-73.948943699,327,"317 CROWN ST, BROOKLYN, NY, 11225","Match","Exact","317 CROWN ST, BROOKLYN, NY, 11225",59079455,"L"
169328,"317 CROWN STREET","BROOKLYN","NY",11225,40.6661942220001,-73.948943699,328,"317 CROWN STREET, BROOKLYN, NY, 11225","Match","Exact","317 CROWN ST, BROOKLYN, NY, 11225",59079455,"L"
169329,"317 DANIELL DRIVE","GUILDERLAND","NY",12303,NA,NA,329,"317 DANIELL DRIVE, GUILDERLAND, NY, 12303","No_Match",NA,NA,NA,NA
169330,"317 DECADE RD","EROS","LA",71238,NA,NA,330,"317 DECADE RD, EROS, LA, 71238","No_Match",NA,NA,NA,NA
169331,"317 DEERPATH","TOLONO","IL",61880,39.991771242,-88.2634439129999,331,"317 DEERPATH, TOLONO, IL, 61880","Match","Non_Exact","317 DEERPATH DR, TOLONO, IL, 61880",8851022,"L"
169332,"317 DEVONHALL LN","CARY","NC",27518,35.7096852450001,-78.80027676,332,"317 DEVONHALL LN, CARY, NC, 27518","Match","Exact","317 DEVONHALL LN, CARY, NC, 27518",72641957,"R"
169333,"317 E 3RD ST","FAIRMONT","MN",56031,43.654852824,-94.458644057,333,"317 E 3RD ST, FAIRMONT, MN, 56031","Match","Exact","317 E 3RD ST, FAIRMONT, MN, 56031",608305593,"L"
169334,"317 E 65TH STREET","LONG BEACH","CA",90805,33.872736983,-118.196566935,334,"317 E 65TH STREET, LONG BEACH, CA, 90805","Match","Exact","317 E 65TH ST, LONG BEACH, CA, 90805",141683723,"L"
169335,"317 E 9TH ST","SALIDA","CO",81201,38.5279520770001,-105.995663978,335,"317 E 9TH ST, SALIDA, CO, 81201","Match","Exact","317 E 9TH ST, SALIDA, CO, 81201",108259030,"R"
169336,"317 E 9TH STREET STE 13","NEW YORK","NY",10003,40.728509429,-73.98559862,336,"317 E 9TH STREET STE 13, NEW YORK, NY, 10003","Match","Non_Exact","317 E 9TH ST, NEW YORK, NY, 10003",59654046,"L"
169337,"317 E ALPINE ST","AVENAL","CA",93204,36.012781659,-120.134257248,337,"317 E ALPINE ST, AVENAL, CA, 93204","Match","Exact","317 E ALPINE ST, AVENAL, CA, 93204",647662960,"R"
169338,"317 E CAPITOL ST STE 706","JACKSON","MS",39201,32.29975663,-90.183893992,338,"317 E CAPITOL ST STE 706, JACKSON, MS, 39201","Match","Non_Exact","317 E CAPITOL ST, JACKSON, MS, 39201",65372570,"R"
169339,"317 E OAK STREET","OAKLAND","MD",21550,NA,NA,339,"317 E OAK STREET, OAKLAND, MD, 21550","Tie",NA,NA,NA,NA
169340,"317 E RAILROAD AVE","PORT ISABEL","TX",78578,26.0758771330001,-97.2075851819999,340,"317 E RAILROAD AVE, PORT ISABEL, TX, 78578","Match","Exact","317 RAILROAD AVE, PORT ISABEL, TX, 78578",89947995,"L"
169341,"317 E WARWICK STE B","ALMA","MI",48801,NA,NA,341,"317 E WARWICK STE B, ALMA, MI, 48801","No_Match",NA,NA,NA,NA
169342,"317 E WILLIAMS ST","FORT WAYNE","IN",46803,41.067407942,-85.134547987,342,"317 E WILLIAMS ST, FORT WAYNE, IN, 46803","Match","Exact","317 E WILLIAMS ST, FORT WAYNE, IN, 46803",6379574,"L"
169343,"317 EAST 4TH STREET","ROME","GA",30161,34.251015271,-85.1680296009999,343,"317 EAST 4TH STREET, ROME, GA, 30161","Match","Exact","317 E 4TH ST, ROME, GA, 30161",30677022,"L"
169344,"317 EAST 67TH STREET RM 228","NEW YORK","NY",10021,40.7657514410001,-73.960989631,344,"317 EAST 67TH STREET RM 228, NEW YORK, NY, 10021","Match","Non_Exact","317 E 67TH ST, NEW YORK, NY, 10065",610239024,"L"
169345,"317 EAST OAK STREET","OAKLAND","MD",21550,39.4069356460001,-79.407229409,345,"317 EAST OAK STREET, OAKLAND, MD, 21550","Match","Exact","317 E OAK ST, OAKLAND, MD, 21550",74180639,"L"
169346,"317 EAST SOUTH AVE","GLENOLDEN","PA",19036,NA,NA,346,"317 EAST SOUTH AVE, GLENOLDEN, PA, 19036","Tie",NA,NA,NA,NA
169347,"317 EDGEWATER DRIVE SUITE 2183","ORLANDO","FL",32804,NA,NA,347,"317 EDGEWATER DRIVE SUITE 2183, ORLANDO, FL, 32804","No_Match",NA,NA,NA,NA
169348,"317 ELWOOD AVENUE APT B","HAWTHORNE","NY",10532,41.1062476720001,-73.795243969,348,"317 ELWOOD AVENUE APT B, HAWTHORNE, NY, 10532","Match","Exact","317 ELWOOD AVE, HAWTHORNE, NY, 10532",139735718,"L"
169349,"317 EMORY HEIGHTS RD","HARRIMAN","TN",37748,35.9277507140001,-84.533806752,349,"317 EMORY HEIGHTS RD, HARRIMAN, TN, 37748","Match","Exact","317 EMORY HEIGHTS RD, HARRIMAN, TN, 37748",88590586,"L"
169350,"317 ENID COURT","GEORGETOWN","KY",40324,38.183241996,-84.618680336,350,"317 ENID COURT, GEORGETOWN, KY, 40324","Match","Exact","317 ENID CT, GEORGETOWN, KY, 40324",41234016,"R"
169351,"317 FARMINGTON DRIVE","PLANTATION","FL",33317,26.1253498300001,-80.22510811,351,"317 FARMINGTON DRIVE, PLANTATION, FL, 33317","Match","Exact","317 FARMINGTON DR, PLANTATION, FL, 33317",114708323,"L"
169352,"317 FEDERAL ROAD SUITE D3","BROOKFIELD","CT",6804,41.4499028920001,-73.402241696,352,"317 FEDERAL ROAD SUITE D3, BROOKFIELD, CT, 6804","Match","Exact","317 FEDERAL RD, BROOKFIELD, CT, 06804",3233009,"R"
169353,"317 FLANNERY LANE","SILVER SPRING","MD",20904,39.079002819,-77.003653049,353,"317 FLANNERY LANE, SILVER SPRING, MD, 20904","Match","Exact","317 FLANNERY LN, SILVER SPRING, MD, 20904",62094193,"L"
169354,"317 FORREST PARK CT NW","HUNTSVILLE","AL",35806,34.7195240620001,-86.669428028,354,"317 FORREST PARK CT NW, HUNTSVILLE, AL, 35806","Match","Exact","317 FORREST PARK CT NW, HUNTSVILLE, AL, 35806",58153138,"R"
169355,"317 FOX CHASE COURT","MARVIN","NC",28173,35.015536126,-80.81836505,355,"317 FOX CHASE COURT, MARVIN, NC, 28173","Match","Exact","317 FOX CHASE CT, MARVIN, NC, 28173",618500269,"L"
169356,"317 GOLDEN EYE COURT","HAVRE DE GRACE","MD",21078,39.5611510890001,-76.118100312,356,"317 GOLDEN EYE COURT, HAVRE DE GRACE, MD, 21078","Match","Non_Exact","317 GOLDENEYE CT, HAVRE DE GRACE, MD, 21078",191653616,"L"
169357,"317 HANOVER AVE APT 101","OAKLAND","CA",94606,37.802786745,-122.251259067,357,"317 HANOVER AVE APT 101, OAKLAND, CA, 94606","Match","Exact","317 HANOVER AVE, OAKLAND, CA, 94606",125001255,"L"
169358,"317 HARDWICK DRIVE","DURHAM","NC",27713,35.9051070690001,-78.92712629,358,"317 HARDWICK DRIVE, DURHAM, NC, 27713","Match","Exact","317 HARDWICK DR, DURHAM, NC, 27713",71769235,"L"
169359,"317 HARMON COVE TOWERS","SECAUCUS","NJ",7094,NA,NA,359,"317 HARMON COVE TOWERS, SECAUCUS, NJ, 7094","No_Match",NA,NA,NA,NA
169360,"317 HIGHLAND PLACE","CIBOLO","TX",78108,29.5982994770001,-98.2165946599999,360,"317 HIGHLAND PLACE, CIBOLO, TX, 78108","Match","Exact","317 HIGHLAND PL, CIBOLO, TX, 78108",641467502,"R"
169361,"317 HOLLERING HILL ROAD","WYOMING","DE",19934,39.0488739940001,-75.6694691069999,361,"317 HOLLERING HILL ROAD, WYOMING, DE, 19934","Match","Exact","317 HOLLERING HILL RD, WYOMING, DE, 19934",68090996,"L"
169362,"317 HOOMALU STREET","PEARL CITY","HI",96782,21.39929341,-157.958084699,362,"317 HOOMALU STREET, PEARL CITY, HI, 96782","Match","Exact","317 HOOMALU ST, PEARL CITY, HI, 96782",203228726,"R"
169363,"317 HUFFMAN BLUFF","KELLER","TX",76248,32.9381540270001,-97.224466279,363,"317 HUFFMAN BLUFF, KELLER, TX, 76248","Match","Exact","317 HUFFMAN BLUFF, KELLER, TX, 76248",102116814,"R"
169364,"317 IMOGENE","DAYTON","OH",45405,39.8074810430001,-84.229328857,364,"317 IMOGENE, DAYTON, OH, 45405","Match","Non_Exact","317 IMOGENE RD, DAYTON, OH, 45405",143565758,"R"
169365,"317 JEFFERSON STREET","KERNERSVILLE","NC",27284,36.120421347,-80.066402925,365,"317 JEFFERSON STREET, KERNERSVILLE, NC, 27284","Match","Exact","317 JEFFERSON ST, KERNERSVILLE, NC, 27284",84619161,"R"
169366,"317 JOHNSON LANE","WINTERVILLE","NC",28590,35.530190002,-77.396656706,366,"317 JOHNSON LANE, WINTERVILLE, NC, 28590","Match","Exact","317 JOHNSON LN, WINTERVILLE, NC, 28590",80043332,"L"
169367,"317 KENDRICK","MARLIN","TX",76661,31.3112121080001,-96.8939641269999,367,"317 KENDRICK, MARLIN, TX, 76661","Match","Non_Exact","317 KENDRICK ST, MARLIN, TX, 76661",24839802,"R"
169368,"317 KENTUCKY AVENUE","SAINT ALBANS","WV",25177,38.403132285,-81.854965727,368,"317 KENTUCKY AVENUE, SAINT ALBANS, WV, 25177","Match","Exact","317 KENTUCKY AVE, SAINT ALBANS, WV, 25177",78582401,"R"
169369,"317 LAKE DR","LAKELAND","FL",33813,27.955569783,-81.961390796,369,"317 LAKE DR, LAKELAND, FL, 33813","Match","Exact","317 LAKE DR, LAKELAND, FL, 33813",104888022,"R"
169370,"317 LAKESHORE CIRCLE","GEORGETOWN","KY",40324,38.307572818,-84.5700950679999,370,"317 LAKESHORE CIRCLE, GEORGETOWN, KY, 40324","Match","Exact","317 LAKESHORE CIR, GEORGETOWN, KY, 40324",627143668,"R"
169371,"317 LAKEVIEW DRIVE","WADESBORO","NC",28170,34.952899524,-80.090733055,371,"317 LAKEVIEW DRIVE, WADESBORO, NC, 28170","Match","Exact","317 LAKEVIEW DR, WADESBORO, NC, 28170",12781775,"L"
169372,"317 LANCELOT COURT","LINDEN","NC",28356,35.2165382580001,-78.836715036,372,"317 LANCELOT COURT, LINDEN, NC, 28356","Match","Exact","317 LANCELOT CT, LINDEN, NC, 28356",637556332,"L"
169373,"317 LANE PARK TRAIL","MAYLENE","AL",35114,33.2006355070001,-86.853981044,373,"317 LANE PARK TRAIL, MAYLENE, AL, 35114","Match","Exact","317 LANE PARK TRL, MAYLENE, AL, 35114",82098916,"R"
169374,"317 LEGION CT","BRYAN","TX",77803,30.6889920940001,-96.36313616,374,"317 LEGION CT, BRYAN, TX, 77803","Match","Exact","317 LEGION CT, BRYAN, TX, 77803",21813055,"R"
169375,"317 LETA STREET","AUBURNDALE","FL",33823,28.061307974,-81.7810437809999,375,"317 LETA STREET, AUBURNDALE, FL, 33823","Match","Exact","317 LETA ST, AUBURNDALE, FL, 33823",104817186,"L"
169376,"317 LUELLA PLACE NE","STEWARTVILLE","MN",55976,43.8723281220001,-92.4830444259999,376,"317 LUELLA PLACE NE, STEWARTVILLE, MN, 55976","Match","Exact","317 LUELLA PL NE, STEWARTVILLE, MN, 55976",649050377,"L"
169377,"317 MADISON AVE","LAS VEGAS","NV",89084,36.1839732020001,-115.146063747,377,"317 MADISON AVE, LAS VEGAS, NV, 89084","Match","Non_Exact","317 MADISON AVE, LAS VEGAS, NV, 89106",201866962,"L"
169378,"317 MAIN AVE","DE PERE","WI",54115,44.447381174,-88.0688249459999,378,"317 MAIN AVE, DE PERE, WI, 54115","Match","Exact","317 MAIN AVE, DE PERE, WI, 54115",148098064,"L"
169379,"317 MAIN STREET","WALTHILL","NE",68067,42.1483707400001,-96.487864942,379,"317 MAIN STREET, WALTHILL, NE, 68067","Match","Exact","317 MAIN ST, WALTHILL, NE, 68067",193826665,"L"
169380,"317 MAPLE ST","BELPRE","OH",45714,39.275639235,-81.5732911869999,380,"317 MAPLE ST, BELPRE, OH, 45714","Match","Exact","317 MAPLE ST, BELPRE, OH, 45714",45684029,"L"
169381,"317 MATILDA PLACE","CARY","NC",27513,35.8086825500001,-78.7899844629999,381,"317 MATILDA PLACE, CARY, NC, 27513","Match","Exact","317 MATILDA PL, CARY, NC, 27513",646735697,"L"
169382,"317 MEADOW RIDGE COURT","HUDSON","WI",54016,44.9079956210001,-92.709244091,382,"317 MEADOW RIDGE COURT, HUDSON, WI, 54016","Match","Exact","317 MEADOW RIDGE CT, HUDSON, WI, 54016",635620839,"L"
169383,"317 MIAMI STREET","PARK FOREST","IL",60466,41.4782043550001,-87.698219582,383,"317 MIAMI STREET, PARK FOREST, IL, 60466","Match","Exact","317 MIAMI ST, PARK FOREST, IL, 60466",111710679,"L"
169384,"317 MONTCLAIR AVE","DALLAS","TX",75075,NA,NA,384,"317 MONTCLAIR AVE, DALLAS, TX, 75075","No_Match",NA,NA,NA,NA
169385,"317 MONTELENA PLACE","CARY","NC",27513,35.825277154,-78.809213481,385,"317 MONTELENA PLACE, CARY, NC, 27513","Match","Exact","317 MONTELENA PL, CARY, NC, 27513",612816350,"L"
169386,"317 MOUNTAIN VIEW DRIVE","KEYSER","WV",26726,39.4032807720001,-78.934258388,386,"317 MOUNTAIN VIEW DRIVE, KEYSER, WV, 26726","Match","Non_Exact","317 MOUNTAIN VIEW AVE, KEYSER, WV, 26726",636889233,"R"
169387,"317 MULBERRY DR","FATE","TX",75087,32.948320014,-96.385248876,387,"317 MULBERRY DR, FATE, TX, 75087","Match","Exact","317 MULBERRY DR, FATE, TX, 75087",627407980,"R"
169388,"317 MURPHY STREET","MANSFIELD","LA",71052,32.0209143390001,-93.719877842,388,"317 MURPHY STREET, MANSFIELD, LA, 71052","Match","Exact","317 MURPHY ST, MANSFIELD, LA, 71052",67652429,"L"
169389,"317 N 18TH ST","MONTEBELLO","CA",90640,34.016622349,-118.119080834,389,"317 N 18TH ST, MONTEBELLO, CA, 90640","Match","Exact","317 N 18TH ST, MONTEBELLO, CA, 90640",141642042,"L"
169390,"317 N 30TH AVENUE","COVINGTON","LA",70433,30.4851477010001,-90.0931872419999,390,"317 N 30TH AVENUE, COVINGTON, LA, 70433","Match","Exact","317 30TH AVE, COVINGTON, LA, 70433",111234061,"L"
169391,"317 N CALIFORNIA ST","STOCKTON","CA",95202,37.956809601,-121.285450455,391,"317 N CALIFORNIA ST, STOCKTON, CA, 95202","Match","Exact","317 CALIFORNIA ST, STOCKTON, CA, 95202",133850482,"L"
169392,"317 N EL CAMINO REAL SUITE 501","ENCINITAS","CA",92024,33.04231574,-117.259528208,392,"317 N EL CAMINO REAL SUITE 501, ENCINITAS, CA, 92024","Match","Non_Exact","317 S EL CAMINO REAL, ENCINITAS, CA, 92024",195293658,"L"
169393,"317 N FARNSWORTH AVE","AURORA","IL",60505,41.7611219670001,-88.281530172,393,"317 N FARNSWORTH AVE, AURORA, IL, 60505","Match","Exact","317 N FARNSWORTH AVE, AURORA, IL, 60505",119517044,"R"
169394,"317 N INDIANA AVE","BLOOMINGTON","IN",47408,39.168721858,-86.5269594439999,394,"317 N INDIANA AVE, BLOOMINGTON, IN, 47408","Match","Exact","317 N INDIANA AVE, BLOOMINGTON, IN, 47408",42323459,"L"
169395,"317 N MILL STREET","ST LOUIS","MI",48880,43.410811268,-84.608761511,395,"317 N MILL STREET, ST LOUIS, MI, 48880","Match","Exact","317 N MILL ST, SAINT LOUIS, MI, 48880",80161330,"L"
169396,"317 N SALEM ST","APEX","NC",27502,35.7330805120001,-78.8500189009999,396,"317 N SALEM ST, APEX, NC, 27502","Match","Exact","317 N SALEM ST, APEX, NC, 27502",72493803,"L"
169397,"317 N WEST ST","YERINGTON","NV",89447,38.991716179,-119.165574101,397,"317 N WEST ST, YERINGTON, NV, 89447","Match","Exact","317 N WEST ST, YERINGTON, NV, 89447",140357758,"L"
169398,"317 NC HWY 55","DUNN","NC",28334,35.2633428830001,-78.487092694,398,"317 NC HWY 55, DUNN, NC, 28334","Match","Non_Exact","317 STATE HWY 55, DUNN, NC, 28334",26560749,"L"
169399,"317 NEW HOPE TRAIL NE","BROOKHAVEN","MS",39601,31.637047173,-90.4537755549999,399,"317 NEW HOPE TRAIL NE, BROOKHAVEN, MS, 39601","Match","Exact","317 NEW HOPE TRL NE, BROOKHAVEN, MS, 39601",612482416,"L"
169400,"317 NORTH 4TH STREET","DEKALB","IL",60115,41.9317445240001,-88.748792017,400,"317 NORTH 4TH STREET, DEKALB, IL, 60115","Match","Exact","317 N 4TH ST, DEKALB, IL, 60115",52259295,"L"
169401,"317 NORTH MAIN STREET","FRANKLIN","KY",42134,36.7257467110001,-86.5774033279999,401,"317 NORTH MAIN STREET, FRANKLIN, KY, 42134","Match","Exact","317 N MAIN ST, FRANKLIN, KY, 42134",29604169,"L"
169402,"317 NORTHVIEW DR","LONDON","OH",43140,39.9030798920001,-83.4484318459999,402,"317 NORTHVIEW DR, LONDON, OH, 43140","Match","Exact","317 NORTHVIEW DR, LONDON, OH, 43140",135259808,"R"
169403,"317 OAKLAWN AVE","OAKLYN","NJ",8107,39.9084080440001,-75.074004809,403,"317 OAKLAWN AVE, OAKLYN, NJ, 8107","Match","Exact","317 OAKLAWN AVE, OAKLYN, NJ, 08107",134368849,"L"
169404,"317 OGDEN STREET","ORANGE","NJ",7050,40.764097404,-74.231571475,404,"317 OGDEN STREET, ORANGE, NJ, 7050","Match","Exact","317 OGDEN ST, ORANGE, NJ, 07050",63450212,"R"
169405,"317 OLD HIGHWAY 99","EAGLEVILLE","TN",37060,35.7409240860001,-86.646034098,405,"317 OLD HIGHWAY 99, EAGLEVILLE, TN, 37060","Match","Exact","317 OLD HWY 99, EAGLEVILLE, TN, 37060",59017462,"R"
169406,"317 OLENTANGY XING W","DELAWARE","OH",43015,40.204192209,-83.036687404,406,"317 OLENTANGY XING W, DELAWARE, OH, 43015","Match","Exact","317 OLENTANGY CROSSING W, DELAWARE, OH, 43015",646005452,"L"
169407,"317 PACIFIC AVE  PO BOX 33","JERSEY CITY","NJ",7304,40.711823748,-74.06212012,407,"317 PACIFIC AVE  PO BOX 33, JERSEY CITY, NJ, 7304","Match","Exact","317 PACIFIC AVE, JERSEY CITY, NJ, 07304",59604842,"L"
169408,"317 PACIFIC AVE","JERSEY CITY","NJ",7304,40.711823748,-74.06212012,408,"317 PACIFIC AVE, JERSEY CITY, NJ, 7304","Match","Exact","317 PACIFIC AVE, JERSEY CITY, NJ, 07304",59604842,"L"
169409,"317 PACIFIC AVENUE PO BOX 33","JERSEY CITY","NJ",7304,40.711823748,-74.06212012,409,"317 PACIFIC AVENUE PO BOX 33, JERSEY CITY, NJ, 7304","Match","Exact","317 PACIFIC AVE, JERSEY CITY, NJ, 07304",59604842,"L"
169410,"317 PARMENTER CREEK ROAD","LIBBY","MT",59923,48.374910185,-115.568452191,410,"317 PARMENTER CREEK ROAD, LIBBY, MT, 59923","Match","Exact","317 PARMENTER CREEK RD, LIBBY, MT, 59923",635443528,"L"
169411,"317 PATRIOT WAY","CHARLOTTESVILLE","VA",22903,38.053379777,-78.683463395,411,"317 PATRIOT WAY, CHARLOTTESVILLE, VA, 22903","Match","Exact","317 PATRIOT WAY, CHARLOTTESVILLE, VA, 22903",640871076,"L"
169412,"317 PENNFIELD STREET","LEHIGH ACRES","FL",33974,26.580151109,-81.6473949269999,412,"317 PENNFIELD STREET, LEHIGH ACRES, FL, 33974","Match","Exact","317 PENNFIELD ST, LEHIGH ACRES, FL, 33974",118128396,"L"
169413,"317 PIAVE ST","LAFAYETTE","LA",70501,30.2320676310001,-91.99823883,413,"317 PIAVE ST, LAFAYETTE, LA, 70501","Match","Exact","317 PIAVE ST, LAFAYETTE, LA, 70501",85617348,"L"
169414,"317 PINE AVE","NEWPORT NEWS","VA",23607,36.993375224,-76.39598784,414,"317 PINE AVE, NEWPORT NEWS, VA, 23607","Match","Exact","317 PINE AVE, NEWPORT NEWS, VA, 23607",103746486,"L"
169415,"317 POLLOCK ST UNIT D SUITE 3","NEW BERN","NC",28560,35.106762347,-77.038990573,415,"317 POLLOCK ST UNIT D SUITE 3, NEW BERN, NC, 28560","Match","Exact","317 POLLOCK ST, NEW BERN, NC, 28560",34112587,"L"
169416,"317 PRINCESS ARCH LANE","LEXINGTON","KY",40511,38.089489369,-84.541044631,416,"317 PRINCESS ARCH LANE, LEXINGTON, KY, 40511","Match","Exact","317 PRINCESS ARCH LN, LEXINGTON, KY, 40511",636245843,"R"
169417,"317 REDWOOD RD","VENICE","FL",34293,27.07741615,-82.4179825749999,417,"317 REDWOOD RD, VENICE, FL, 34293","Match","Exact","317 REDWOOD RD, VENICE, FL, 34293",16362528,"L"
169418,"317 RIDGELAND DR","VALDOSTA","GA",31602,30.8601329540001,-83.381923478,418,"317 RIDGELAND DR, VALDOSTA, GA, 31602","Match","Exact","317 RIDGELAND DR, VALDOSTA, GA, 31602",83066435,"R"
169419,"317 RIVEREDGE BLVD STE 208","COCOA","FL",32922,28.355157902,-80.72386943,419,"317 RIVEREDGE BLVD STE 208, COCOA, FL, 32922","Match","Exact","317 RIVEREDGE BLVD, COCOA, FL, 32922",93894394,"R"
169420,"317 ROCK BRIDGE DR","WINDSOR","CO",80550,40.45993244,-104.891124364,420,"317 ROCK BRIDGE DR, WINDSOR, CO, 80550","Match","Exact","317 ROCK BRIDGE DR, WINDSOR, CO, 80550",188718755,"R"
169421,"317 RUTH VISTA ROAD","LEXINGTON","SC",29073,33.907075444,-81.306194389,421,"317 RUTH VISTA ROAD, LEXINGTON, SC, 29073","Match","Exact","317 RUTH VISTA RD, LEXINGTON, SC, 29073",70038271,"R"
169422,"317 S 31ST STREET","HARRISBURG","PA",17109,40.2790181760001,-76.84172911,422,"317 S 31ST STREET, HARRISBURG, PA, 17109","Match","Exact","317 S 31ST ST, HARRISBURG, PA, 17109",70821053,"R"
169423,"317 S COLLINGTON AVE","BALTIMORE","MD",21231,39.2877242330001,-76.585963127,423,"317 S COLLINGTON AVE, BALTIMORE, MD, 21231","Match","Exact","317 S COLLINGTON AVE, BALTIMORE, MD, 21231",639169021,"L"
169424,"317 S ELM LOFT 508","OWOSSO","MI",48867,NA,NA,424,"317 S ELM LOFT 508, OWOSSO, MI, 48867","No_Match",NA,NA,NA,NA
169425,"317 S MAIN ST","NEW CARLISLE","OH",45344,39.9343747200001,-84.0252660639999,425,"317 S MAIN ST, NEW CARLISLE, OH, 45344","Match","Exact","317 S MAIN ST, NEW CARLISLE, OH, 45344",135013270,"R"
169426,"317 S MAPLE ST","MONTROSE","IL",62445,39.162072945,-88.381333959,426,"317 S MAPLE ST, MONTROSE, IL, 62445","Match","Exact","317 S MAPLE ST, MONTROSE, IL, 62445",653190976,"L"
169427,"317 S PIERCE ST","LAFAYETTE","LA",70501,30.231785513,-92.018925358,427,"317 S PIERCE ST, LAFAYETTE, LA, 70501","Match","Exact","317 S PIERCE ST, LAFAYETTE, LA, 70501",85615912,"L"
169428,"317 S RIVERVIEW DRIVE","PARCHMENT","MI",49004,42.325748629,-85.5703701739999,428,"317 S RIVERVIEW DRIVE, PARCHMENT, MI, 49004","Match","Exact","317 S RIVERVIEW DR, PARCHMENT, MI, 49004",12227094,"L"
169429,"317 S WAYNE ST             SUITE 1A","ANGOLA","IN",46703,NA,NA,429,"317 S WAYNE ST             SUITE 1A, ANGOLA, IN, 46703","Tie",NA,NA,NA,NA
169430,"317 SCENIC LAKE CT","PIEDMONT","SC",29673,34.720813762,-82.3440413389999,430,"317 SCENIC LAKE CT, PIEDMONT, SC, 29673","Match","Exact","317 SCENIC LAKE CT, PIEDMONT, SC, 29673",624804607,"L"
169431,"317 SECOND AVENUE NW","OSSEO","MN",55369,45.1195312070001,-93.405215362,431,"317 SECOND AVENUE NW, OSSEO, MN, 55369","Match","Non_Exact","317 2ND AVE W, OSSEO, MN, 55369",43816151,"L"
169432,"317 SIDNEY BAKER S SUITE 400-111","KERRVILLE","TX",78028,NA,NA,432,"317 SIDNEY BAKER S SUITE 400-111, KERRVILLE, TX, 78028","No_Match",NA,NA,NA,NA
169433,"317 SIDNEY BAKER SOUTH STE 400-383","KERRVILLE","TX",78028,30.0410584950001,-99.145158257,433,"317 SIDNEY BAKER SOUTH STE 400-383, KERRVILLE, TX, 78028","Match","Non_Exact","317 SIDNEY BAKER ST S, KERRVILLE, TX, 78028",176896220,"R"
169434,"317 SILVER HILL ROAD 5A","DERBY","CT",6418,41.3483849040001,-73.10191195,434,"317 SILVER HILL ROAD 5A, DERBY, CT, 6418","Match","Exact","317 SILVER HILL RD, DERBY, CT, 06418",3733708,"R"
169435,"317 SOUTH 8TH ST","MONMOUTH","IL",61462,40.9087551640001,-90.6375646819999,435,"317 SOUTH 8TH ST, MONMOUTH, IL, 61462","Match","Exact","317 S 8TH ST, MONMOUTH, IL, 61462",5510165,"R"
169436,"317 SOUTH ALBANY","CHICAGO","IL",60612,41.8768045750001,-87.7035382879999,436,"317 SOUTH ALBANY, CHICAGO, IL, 60612","Match","Non_Exact","317 S ALBANY AVE, CHICAGO, IL, 60612",605087160,"L"
169437,"317 SOUTH TEACHEY ROAD","WALLACE","NC",28466,34.7341793260001,-77.989319837,437,"317 SOUTH TEACHEY ROAD, WALLACE, NC, 28466","Match","Exact","317 S TEACHEY RD, WALLACE, NC, 28466",13416010,"R"
169438,"317 ST AUGUSTINE LN","HENDERSON","NV",89014,36.0492716270001,-115.051429408,438,"317 ST AUGUSTINE LN, HENDERSON, NV, 89014","Match","Exact","317 ST AUGUSTINE LN, HENDERSON, NV, 89014",201974676,"R"
169439,"317 STERLING AVENUE","NEW CASTLE","DE",19720,39.6450279850001,-75.6152636469999,439,"317 STERLING AVENUE, NEW CASTLE, DE, 19720","Match","Exact","317 STERLING AVE, NEW CASTLE, DE, 19720",187283630,"R"
169440,"317 STURGES RIDGE ROAD","WILTON","CT",6897,41.217016195,-73.4088954699999,440,"317 STURGES RIDGE ROAD, WILTON, CT, 6897","Match","Exact","317 STURGES RIDGE RD, WILTON, CT, 06897",3259892,"L"
169441,"317 SW ASCOT DR","LEE'S SUMMIT","MO",64082,38.8460963840001,-94.381933128,441,"317 SW ASCOT DR, LEE'S SUMMIT, MO, 64082","Match","Non_Exact","317 SW ASCOT DR, LEES SUMMIT, MO, 64082",617931197,"R"
169442,"317 TACOMA AVENUE","BUFFALO","NY",14216,42.9514830540001,-78.860966286,442,"317 TACOMA AVENUE, BUFFALO, NY, 14216","Match","Exact","317 TACOMA AVE, BUFFALO, NY, 14216",48289488,"R"
169443,"317 THOMPSON STREET","PORT JEFFERSON","NY",11777,40.947940525,-73.0581807149999,443,"317 THOMPSON STREET, PORT JEFFERSON, NY, 11777","Match","Exact","317 THOMPSON ST, PORT JEFFERSON, NY, 11777",114064675,"L"
169444,"317 TREASURE ST","BARTONVILLE","IL",61607,40.6562821730001,-89.650838951,444,"317 TREASURE ST, BARTONVILLE, IL, 61607","Match","Exact","317 TREASURE ST, BARTONVILLE, IL, 61607",8725832,"R"
169445,"317 TROY AVENUE","BROOKLYN","NY",11213,40.66772494,-73.93677643,445,"317 TROY AVENUE, BROOKLYN, NY, 11213","Match","Exact","317 TROY AVE, BROOKLYN, NY, 11213",59079765,"L"
169446,"317 UNIVERSITY HALL NUMBER 1150","BERKELEY","CA",94720,NA,NA,446,"317 UNIVERSITY HALL NUMBER 1150, BERKELEY, CA, 94720","No_Match",NA,NA,NA,NA
169447,"317 VALLEY RIDGE DRIVE","RED OAK","TX",75154,32.51983749,-96.7926150549999,447,"317 VALLEY RIDGE DRIVE, RED OAK, TX, 75154","Match","Exact","317 VALLEY RIDGE DR, RED OAK, TX, 75154",616616414,"R"
169448,"317 VAN BRUNT ST APT 3","BROOKLYN","NY",11231,NA,NA,448,"317 VAN BRUNT ST APT 3, BROOKLYN, NY, 11231","No_Match",NA,NA,NA,NA
169449,"317 VANNTOWN ROAD","FLINTVILLE","TN",37335,35.008734696,-86.4538259939999,449,"317 VANNTOWN ROAD, FLINTVILLE, TN, 37335","Match","Exact","317 VANNTOWN RD, FLINTVILLE, TN, 37335",607081005,"L"
169450,"317 VILLAGE DRIVE","LANSING","MI",48911,42.677535434,-84.556259337,450,"317 VILLAGE DRIVE, LANSING, MI, 48911","Match","Exact","317 VILLAGE DR, LANSING, MI, 48911",17502852,"L"
169451,"317 VINE STREET","BECKLEY","WV",25801,37.7830172130001,-81.175003143,451,"317 VINE STREET, BECKLEY, WV, 25801","Match","Exact","317 VINE ST, BECKLEY, WV, 25801",78818108,"R"
169452,"317 W 23RD STREET","TUCSON","AZ",85713,32.205547579,-110.973425655,452,"317 W 23RD STREET, TUCSON, AZ, 85713","Match","Exact","317 W 23RD ST, TUCSON, AZ, 85713",121171034,"L"
169453,"317 W 2ND SOUTH ST","CARLINVILLE","IL",62626,39.277658882,-89.884494063,453,"317 W 2ND SOUTH ST, CARLINVILLE, IL, 62626","Match","Exact","317 W 2ND SOUTH ST, CARLINVILLE, IL, 62626",97915118,"L"
169454,"317 W 7TH ST","WAITSBURG","WA",99361,46.265625207,-118.1583706,454,"317 W 7TH ST, WAITSBURG, WA, 99361","Match","Exact","317 W 7TH ST, WAITSBURG, WA, 99361",174666991,"L"
169455,"317 W HANLON ST","TAMPA","FL",33604,28.019207524,-82.462702872,455,"317 W HANLON ST, TAMPA, FL, 33604","Match","Exact","317 W HANLON ST, TAMPA, FL, 33604",104518271,"R"
169456,"317 W LAKE STREET","BARRINGTON","IL",60010,42.152408962,-88.1412406109999,456,"317 W LAKE STREET, BARRINGTON, IL, 60010","Match","Exact","317 W LAKE ST, BARRINGTON, IL, 60010",111835291,"L"
169457,"317 W LEE AVE","KINGSVILLE","TX",78363,27.5197050460001,-97.871005297,457,"317 W LEE AVE, KINGSVILLE, TX, 78363","Match","Exact","317 W LEE AVE, KINGSVILLE, TX, 78363",72101563,"R"
169458,"317 W MEMPHIS STREET","BROKEN ARROW","OK",74012,36.042237361,-95.794432802,458,"317 W MEMPHIS STREET, BROKEN ARROW, OK, 74012","Match","Exact","317 W MEMPHIS ST, BROKEN ARROW, OK, 74012",166465186,"R"
169459,"317 W POPLAR","ROGERS","AR",72756,36.3311864670001,-94.119228839,459,"317 W POPLAR, ROGERS, AR, 72756","Match","Non_Exact","317 W POPLAR ST, ROGERS, AR, 72756",47834813,"R"
169460,"317 W WALNUT STREET","GREEN BAY","WI",54303,44.5161109650001,-88.021004209,460,"317 W WALNUT STREET, GREEN BAY, WI, 54303","Match","Exact","317 W WALNUT ST, GREEN BAY, WI, 54303",148100668,"L"
169461,"317 WALBRUN ROAD","SULTAN","WA",98294,47.8639685800001,-121.802082521,461,"317 WALBRUN ROAD, SULTAN, WA, 98294","Match","Exact","317 WALBRUN RD, SULTAN, WA, 98294",638597833,"L"
169462,"317 WALNUT CREEK RD","BASTROP","TX",78602,30.019044265,-97.4530079629999,462,"317 WALNUT CREEK RD, BASTROP, TX, 78602","Match","Exact","317 WALNUT CREEK RD, BASTROP, TX, 78602",45482691,"R"
169463,"317 WASHINGTON AVE","KINGSTON","NY",12401,41.93258115,-74.023725906,463,"317 WASHINGTON AVE, KINGSTON, NY, 12401","Match","Exact","317 WASHINGTON AVE, KINGSTON, NY, 12401",41865053,"L"
169464,"317 WELCOME DRIVE","MYRTLE BEACH","SC",29579,33.7543505130001,-78.9071008929999,464,"317 WELCOME DRIVE, MYRTLE BEACH, SC, 29579","Match","Exact","317 WELCOME DR, MYRTLE BEACH, SC, 29579",630403062,"L"
169465,"317 WELLS ST","SCRANTON","PA",18508,41.44535833,-75.649465337,465,"317 WELLS ST, SCRANTON, PA, 18508","Match","Exact","317 WELLS ST, SCRANTON, PA, 18508",139325660,"L"
169466,"317 WELLSIAN WAY","RICHLAND","WA",99352,46.2681216080001,-119.284898636,466,"317 WELLSIAN WAY, RICHLAND, WA, 99352","Match","Exact","317 WELLSIAN WAY, RICHLAND, WA, 99352",174988347,"L"
169467,"317 WEST 114TH STREET","NEW YORK","NY",10026,40.803341344,-73.956841533,467,"317 WEST 114TH STREET, NEW YORK, NY, 10026","Match","Exact","317 W 114TH ST, NEW YORK, NY, 10026",59657651,"R"
169468,"317 WEST 37TH STREET","RIVIERA BEACH","FL",33404,26.7919441450001,-80.05919216,468,"317 WEST 37TH STREET, RIVIERA BEACH, FL, 33404","Match","Exact","317 W 37TH ST, RIVIERA BEACH, FL, 33404",115276057,"L"
169469,"317 WEST AVE  113197  SMB 2604","STAMFORD","CT",6911,NA,NA,469,"317 WEST AVE  113197  SMB 2604, STAMFORD, CT, 6911","No_Match",NA,NA,NA,NA
169470,"317 WEST AVE A","BELLE GLADE","FL",33430,26.6857649250001,-80.671054025,470,"317 WEST AVE A, BELLE GLADE, FL, 33430","Match","Exact","317 W AVE A, BELLE GLADE, FL, 33430",115246604,"R"
169471,"317 WEST LOGAN STREET","PHILADELPHIA","PA",19144,40.022828227,-75.167895334,471,"317 WEST LOGAN STREET, PHILADELPHIA, PA, 19144","Match","Exact","317 W LOGAN ST, PHILADELPHIA, PA, 19144",131401568,"R"
169472,"317 WEST MULLAN AVE","KELLOGG","ID",83837,47.5426948240001,-116.122495084,472,"317 WEST MULLAN AVE, KELLOGG, ID, 83837","Match","Exact","317 W MULLAN AVE, KELLOGG, ID, 83837",203521239,"L"
169473,"317 WEST PORTAL AVE UNIT 27637","SAN FRANCISCO","CA",94127,37.7376523120001,-122.469354352,473,"317 WEST PORTAL AVE UNIT 27637, SAN FRANCISCO, CA, 94127","Match","Exact","317 W PORTAL AVE, SAN FRANCISCO, CA, 94127",192299880,"L"
169474,"317 WEST WOODALL STREET","BENSON","NC",27504,35.381042081,-78.553702238,474,"317 WEST WOODALL STREET, BENSON, NC, 27504","Match","Exact","317 W WOODALL ST, BENSON, NC, 27504",26527851,"L"
169475,"317 WHITEHALL WAY","CARY","NC",27511,35.7707874660001,-78.747327904,475,"317 WHITEHALL WAY, CARY, NC, 27511","Match","Exact","317 WHITEHALL WAY, CARY, NC, 27511",72622184,"L"
169476,"317 WHITNEY BREEZE","LV","NV",89031,NA,NA,476,"317 WHITNEY BREEZE, LV, NV, 89031","No_Match",NA,NA,NA,NA
169477,"317 WILKINSON ROAD","RICHMOND","VA",23227,37.629634826,-77.446077279,477,"317 WILKINSON ROAD, RICHMOND, VA, 23227","Match","Exact","317 WILKINSON RD, RICHMOND, VA, 23227",106648682,"L"
169478,"317 WILLOW STREET SUITE 2L","NEW HAVEN","CT",6511,41.3232508360001,-72.9147600489999,478,"317 WILLOW STREET SUITE 2L, NEW HAVEN, CT, 6511","Match","Exact","317 WILLOW ST, NEW HAVEN, CT, 06511",3699998,"R"
169479,"317","ANN ARBOR","MI",48108,NA,NA,479,"317, ANN ARBOR, MI, 48108","No_Match",NA,NA,NA,NA
169480,"317","PARKSLEY","VA",23421,NA,NA,480,"317, PARKSLEY, VA, 23421","No_Match",NA,NA,NA,NA
169481,"3170 AIRMANS DRIVE","FORT PIERCE","FL",34946,27.4916450420001,-80.372931813,481,"3170 AIRMANS DRIVE, FORT PIERCE, FL, 34946","Match","Non_Exact","3170 AIRMAN'S DR, FORT PIERCE, FL, 34946",610744843,"L"
169482,"3170 CARROLL EASTERN RD NE","PLEASANTVILLE","OH",43148,39.795866791,-82.535104337,482,"3170 CARROLL EASTERN RD NE, PLEASANTVILLE, OH, 43148","Match","Exact","3170 CARROLL EASTERN RD NE, PLEASANTVILLE, OH, 43148",37218321,"R"
169483,"3170 FOURTH AVE SUITE 250","SAN DIEGO","CA",92103,32.738377558,-117.161253186,483,"3170 FOURTH AVE SUITE 250, SAN DIEGO, CA, 92103","Match","Exact","3170 4TH AVE, SAN DIEGO, CA, 92103",195343141,"L"
169484,"3170 HERRENHUT ROAD","LITHONIA","GA",30038,33.684294498,-84.185956507,484,"3170 HERRENHUT ROAD, LITHONIA, GA, 30038","Match","Exact","3170 HERRENHUT RD, LITHONIA, GA, 30038",23389882,"R"
169485,"3170 HIDDEN POND ROAD","SUAMICO","WI",54313,44.635432242,-88.1071356859999,485,"3170 HIDDEN POND ROAD, SUAMICO, WI, 54313","Match","Exact","3170 HIDDEN POND RD, SUAMICO, WI, 54313",630351681,"L"
169486,"3170 HIGHGREEN TRL","ATLANTA","GA",30349,33.669534141,-84.6319405679999,486,"3170 HIGHGREEN TRL, ATLANTA, GA, 30349","Match","Exact","3170 HIGHGREEN TRL, ATLANTA, GA, 30349",628074989,"L"
169487,"3170 JUNCTION HWY STE W3","INGRAM","TX",78025,30.07326313,-99.226624736,487,"3170 JUNCTION HWY STE W3, INGRAM, TX, 78025","Match","Exact","3170 JUNCTION HWY, INGRAM, TX, 78025",176893536,"R"
169488,"3170 LAUREL AVE","HENDERSON","NV",89014,36.0587255670001,-115.091656907,488,"3170 LAUREL AVE, HENDERSON, NV, 89014","Match","Exact","3170 LAUREL AVE, HENDERSON, NV, 89014",201992107,"R"
169489,"3170 MACY ST","SAN BERNARDINO","CA",92407,34.15320884,-117.339849643,489,"3170 MACY ST, SAN BERNARDINO, CA, 92407","Match","Exact","3170 MACY ST, SAN BERNARDINO, CA, 92407",144651114,"L"
169490,"3170 MAPLELEAF DR - APT 909","LEXINGTON","KY",40509,38.0034248590001,-84.423982555,490,"3170 MAPLELEAF DR - APT 909, LEXINGTON, KY, 40509","Match","Exact","3170 MAPLELEAF DR, LEXINGTON, KY, 40509",31955584,"R"
169491,"3170 N SHERIDAN ROAD SUITE 720","CHICAGO","IL",60657,41.9397461080001,-87.6395505469999,491,"3170 N SHERIDAN ROAD SUITE 720, CHICAGO, IL, 60657","Match","Non_Exact","3170 N SHERIDAN RD, CHICAGO, IL, 60657",611259408,"L"
169492,"3170 NATIONAL AVE","PAHRUMP","NV",89048,36.172701757,-115.943587147,492,"3170 NATIONAL AVE, PAHRUMP, NV, 89048","Match","Exact","3170 NATIONAL AVE, PAHRUMP, NV, 89048",140579942,"L"
169493,"3170 PANOLA ROAD","LITHONIA","GA",30038,33.693668089,-84.174172175,493,"3170 PANOLA ROAD, LITHONIA, GA, 30038","Match","Exact","3170 PANOLA RD, LITHONIA, GA, 30038",23373109,"L"
169494,"3170 PEACHTREE IND BLVD STE 175","DULUTH","GA",30097,NA,NA,494,"3170 PEACHTREE IND BLVD STE 175, DULUTH, GA, 30097","No_Match",NA,NA,NA,NA
169495,"3170 SE SLATER ST","STUART","FL",34997,27.1497104650001,-80.213731735,495,"3170 SE SLATER ST, STUART, FL, 34997","Match","Exact","3170 SE SLATER ST, STUART, FL, 34997",646860783,"L"
169496,"3170 SO FEDERAL HWY","MIAMI","FL",33312,25.7494416010001,-80.21099774,496,"3170 SO FEDERAL HWY, MIAMI, FL, 33312","Match","Non_Exact","3170 FEDERAL HWY, MIAMI, FL, 33129",116255806,"L"
169497,"3170 W  SAHARA AVE","LAS VEGAS","NV",89012,36.144454996,-115.184398893,497,"3170 W  SAHARA AVE, LAS VEGAS, NV, 89012","Match","Non_Exact","3170 W SAHARA AVE, LAS VEGAS, NV, 89102",201869424,"R"
169498,"3170 WILLIAM DRIVE","GRAND JUNCTION","CO",81503,39.024767479,-108.465379119,498,"3170 WILLIAM DRIVE, GRAND JUNCTION, CO, 81503","Match","Exact","3170 WILLIAM DR, GRAND JCT, CO, 81503",122436584,"L"
169499,"31700 CANYON RIDGE DR","LAKE ELSINORE","CA",92532,33.6666712260001,-117.290249786,499,"31700 CANYON RIDGE DR, LAKE ELSINORE, CA, 92532","Match","Exact","31700 CANYON RIDGE DR, LAKE ELSINORE, CA, 92532",194839445,"R"
169500,"31700 W 13 MILE RD SUITE 100","FARMINGTON HILLS","MI",48334,42.51367487,-83.363251407,500,"31700 W 13 MILE RD SUITE 100, FARMINGTON HILLS, MI, 48334","Match","Non_Exact","31700 W 13 MILE RD, FARMINGTON HILLS, MI, 48334",69723344,"R"
