"ID","Address","City","State","Zip","lat","long","id","input_address","match_indicator","match_type","matched_address","tiger_line_id","tiger_side"
110501,"2060 MOLITOR STREET","MANDEVILLE","LA",70448,30.3700888010001,-90.0330708819999,1,"2060 MOLITOR STREET, MANDEVILLE, LA, 70448","Match","Exact","2060 MOLITOR ST, MANDEVILLE, LA, 70448",111277700,"L"
110502,"2060 MOUNT PARAN ROAD - SUITE 111","ATLANTA","GA",30327,33.8619589090001,-84.439575369,2,"2060 MOUNT PARAN ROAD - SUITE 111, ATLANTA, GA, 30327","Match","Non_Exact","2060 MOUNT PARAN RD NW, ATLANTA, GA, 30327",642888988,"L"
110503,"2060 N TANQUE VERDE LOOP ROAD","TUCSON","AZ",85749,32.247105966,-110.755601222,3,"2060 N TANQUE VERDE LOOP ROAD, TUCSON, AZ, 85749","Match","Exact","2060 N TANQUE VERDE LOOP RD, TUCSON, AZ, 85749",636481208,"R"
110504,"2060 NORTH LOOP W SUITE 230","HOUSTON","TX",77018,29.81136359,-95.436258019,4,"2060 NORTH LOOP W SUITE 230, HOUSTON, TX, 77018","Match","Exact","2060 NORTH LOOP W, HOUSTON, TX, 77018",96054321,"R"
110505,"2060 PRINCETON PIKE","LAWRENCEVILLE","NJ",8648,40.251772095,-74.740516967,5,"2060 PRINCETON PIKE, LAWRENCEVILLE, NJ, 8648","Match","Exact","2060 PRINCETON PIKE, LAWRENCEVILLE, NJ, 08648",60199168,"R"
110506,"2060 PUU KAA ST","KAPAA","HI",96746,22.100776571,-159.337860033,6,"2060 PUU KAA ST, KAPAA, HI, 96746","Match","Non_Exact","2060 PUUKAA ST, KAPAA, HI, 96746",203399354,"L"
110507,"2060 RIDGE AVENUE APT 1S","EVANSTON","IL",60201,42.0553643270001,-87.6870271559999,7,"2060 RIDGE AVENUE APT 1S, EVANSTON, IL, 60201","Match","Exact","2060 RIDGE AVE, EVANSTON, IL, 60201",637908747,"L"
110508,"2060 RIDGE RD","BROOKFIELD","VT",5036,44.0126929090001,-72.6093772469999,8,"2060 RIDGE RD, BROOKFIELD, VT, 5036","Match","Exact","2060 RIDGE RD, BROOKFIELD, VT, 05036",653256319,"L"
110509,"2060 ST ANDREWS DR","BERWYN","PA",19312,40.0203266520001,-75.460870465,9,"2060 ST ANDREWS DR, BERWYN, PA, 19312","Match","Exact","2060 SAINT ANDREWS DR, BERWYN, PA, 19312",640454867,"R"
110510,"2060 SW 154 AVENUE","MIAMI","FL",33185,25.7470992500001,-80.4444165199999,10,"2060 SW 154 AVENUE, MIAMI, FL, 33185","Match","Exact","2060 SW 154TH AVE, MIAMI, FL, 33185",630021863,"R"
110511,"2060 TURTLE CREEK WAY","LAWRENCE","GA",30043,34.029144182,-83.9469702169999,11,"2060 TURTLE CREEK WAY, LAWRENCE, GA, 30043","Match","Non_Exact","2060 TURTLE CREEK WAY, LAWRENCEVILLE, GA, 30043",627584813,"L"
110512,"2060 W 65TH ST","CLEVELAND","OH",44102,41.4753570290001,-81.7301797,12,"2060 W 65TH ST, CLEVELAND, OH, 44102","Match","Exact","2060 W 65TH ST, CLEVELAND, OH, 44102",61101406,"R"
110513,"2060 W ILES AVE SUITE B","SPRINGFIELD","IL",62704,39.769876836,-89.690591693,13,"2060 W ILES AVE SUITE B, SPRINGFIELD, IL, 62704","Match","Non_Exact","2060 W ILES AVE, SPRINGFIELD, IL, 62704",642125557,"R"
110514,"2060 W SUNNY SLOPE DRIVE","MERIDIAN","ID",83642,43.6167105320001,-116.419731454,14,"2060 W SUNNY SLOPE DRIVE, MERIDIAN, ID, 83642","Match","Exact","2060 W SUNNY SLOPE DR, MERIDIAN, ID, 83642",117889896,"L"
110515,"2060 WEST 35TH STREET","SAN PEDRO","CA",90732,33.722102186,-118.322297714,15,"2060 WEST 35TH STREET, SAN PEDRO, CA, 90732","Match","Exact","2060 W 35TH ST, SAN PEDRO, CA, 90732",141690038,"R"
110516,"20600 CHAGRIN BLVD SUITE 701","CLEVELAND","OH",44122,41.464549925,-81.5341201419999,16,"20600 CHAGRIN BLVD SUITE 701, CLEVELAND, OH, 44122","Match","Exact","20600 CHAGRIN BLVD, CLEVELAND, OH, 44122",61129488,"R"
110517,"20600 CHAGRIN BOULEVARD SUITE 1200","SHAKER HEIGHTS","OH",44122,41.464549925,-81.5341201419999,17,"20600 CHAGRIN BOULEVARD SUITE 1200, SHAKER HEIGHTS, OH, 44122","Match","Exact","20600 CHAGRIN BLVD, SHAKER HEIGHTS, OH, 44122",61129488,"R"
110518,"20600 COOPER HAWK COURT","WILDOMAR","CA",92595,33.6089021340001,-117.29749664,18,"20600 COOPER HAWK COURT, WILDOMAR, CA, 92595","Match","Non_Exact","20600 COOPERS HAWK CT, WILDOMAR, CA, 92595",624505591,"R"
110519,"20600 JOHN DRIVE","CASTRO VALLEY","CA",94546,37.6913501490001,-122.093277789,19,"20600 JOHN DRIVE, CASTRO VALLEY, CA, 94546","Match","Exact","20600 JOHN DR, CASTRO VALLEY, CA, 94546",125014887,"L"
110520,"20600 MACK AVENUE","GROSSE POINTE WOODS","MI",48236,42.4420161940001,-82.907114118,20,"20600 MACK AVENUE, GROSSE POINTE WOODS, MI, 48236","Match","Exact","20600 MACK AVE, GROSSE POINTE WOODS, MI, 48236",95737381,"R"
110521,"20600 MARIANI AVE","CUEPRTINO","CA",95014,37.330236515,-122.026659749,21,"20600 MARIANI AVE, CUEPRTINO, CA, 95014","Match","Non_Exact","20600 MARIANI AVE, CUPERTINO, CA, 95014",122939136,"R"
110522,"20600 S 4090 RD","CLAREMORE","OK",74019,36.313693636,-95.722796138,22,"20600 S 4090 RD, CLAREMORE, OK, 74019","Match","Exact","20600 S 4090 RD, CLAREMORE, OK, 74019",612094011,"L"
110523,"20600 VENTURA BLVD SUITE 2116","WOODLAND HILLS","CA",91364,34.167568993,-118.581262866,23,"20600 VENTURA BLVD SUITE 2116, WOODLAND HILLS, CA, 91364","Match","Exact","20600 VENTURA BLVD, WOODLAND HILLS, CA, 91364",609817338,"L"
110524,"20600 VENTURA BLVD UNIT 1405","WOODLAND HILLS","CA",91364,34.167568993,-118.581262866,24,"20600 VENTURA BLVD UNIT 1405, WOODLAND HILLS, CA, 91364","Match","Exact","20600 VENTURA BLVD, WOODLAND HILLS, CA, 91364",609817338,"L"
110525,"20600 VENTURA BLVD UNIT 1420","WOODLAND HILLS","CA",91364,34.167568993,-118.581262866,25,"20600 VENTURA BLVD UNIT 1420, WOODLAND HILLS, CA, 91364","Match","Exact","20600 VENTURA BLVD, WOODLAND HILLS, CA, 91364",609817338,"L"
110526,"20601 BEECH DALY ROAD","REDFORD","MI",48240,42.440886522,-83.2974755509999,26,"20601 BEECH DALY ROAD, REDFORD, MI, 48240","Match","Exact","20601 BEECH DALY RD, REDFORD, MI, 48240",95720605,"L"
110527,"20601 ROTUNDA","DEARBORN","MI",48124,42.2912800290001,-83.235410987,27,"20601 ROTUNDA, DEARBORN, MI, 48124","Match","Non_Exact","20601 ROTUNDA DR, DEARBORN, MI, 48124",95440993,"L"
110528,"20601 US HWY 18  NUM 171","APPLE VALLEY","CA",92307,NA,NA,28,"20601 US HWY 18  NUM 171, APPLE VALLEY, CA, 92307","No_Match",NA,NA,NA,NA
110529,"20601 VAN ANTWERP","HARPER WOODS","MI",48225,42.445636463,-82.91997567,29,"20601 VAN ANTWERP, HARPER WOODS, MI, 48225","Match","Non_Exact","20601 VAN ANTWERP ST, HARPER WOODS, MI, 48225",95486334,"L"
110530,"20601 W PAOLI LANE","WEIMAR","CA",95736,NA,NA,30,"20601 W PAOLI LANE, WEIMAR, CA, 95736","No_Match",NA,NA,NA,NA
110531,"20601 WEST PAOLI LANE","WEIMAR","CA",95736,NA,NA,31,"20601 WEST PAOLI LANE, WEIMAR, CA, 95736","No_Match",NA,NA,NA,NA
110532,"20602 N 74TH LN","GLENDALE","AZ",85308,33.67163522,-112.219698989,32,"20602 N 74TH LN, GLENDALE, AZ, 85308","Match","Exact","20602 N 74TH LN, GLENDALE, AZ, 85308",128388773,"R"
110533,"20602 NE 7TH COURT","MIAMI","FL",33179,25.964214724,-80.188036358,33,"20602 NE 7TH COURT, MIAMI, FL, 33179","Match","Non_Exact","20602 NE 7TH CT, MIAMI, FL, 33179",116029081,"R"
110534,"20603 DEERFIELD ROAD","DEERFIELD","MI",49238,41.8946760900001,-83.7624168249999,34,"20603 DEERFIELD ROAD, DEERFIELD, MI, 49238","Match","Exact","20603 DEERFIELD RD, DEERFIELD, MI, 49238",40495112,"R"
110535,"20605 SPANISH OAKS","LEANDER","TX",78641,30.53647912,-97.932009695,35,"20605 SPANISH OAKS, LEANDER, TX, 78641","Match","Non_Exact","20605 SPANISH OAK, LEANDER, TX, 78641",63917851,"R"
110536,"20607 CHAMPAIGN ST","TAYLOR","MI",48180,42.249084613,-83.238180278,36,"20607 CHAMPAIGN ST, TAYLOR, MI, 48180","Match","Exact","20607 CHAMPAIGN ST, TAYLOR, MI, 48180",95445984,"L"
110537,"20609 FARM-TO-MARKET 2755","ROYSE CITY","TX",75189,NA,NA,37,"20609 FARM-TO-MARKET 2755, ROYSE CITY, TX, 75189","No_Match",NA,NA,NA,NA
110538,"2060B JET WING DR","COLORADO SPRINGS","CO",80916,38.8016021130001,-104.750415264,38,"2060B JET WING DR, COLORADO SPRINGS, CO, 80916","Match","Exact","2060 JET WING DR, COLORADO SPRINGS, CO, 80916",610742235,"R"
110539,"2061 3RD STREET","LA VERNE","CA",91750,NA,NA,39,"2061 3RD STREET, LA VERNE, CA, 91750","No_Match",NA,NA,NA,NA
110540,"2061 BEAUMONT AVE NW","MASSILLON","OH",44647,40.8139533310001,-81.55268376,40,"2061 BEAUMONT AVE NW, MASSILLON, OH, 44647","Match","Exact","2061 BEAUMONT AVE NW, MASSILLON, OH, 44647",640689935,"L"
110541,"2061 BEECHMONT AVE 3B","CINCINNATI","OH",45230,39.0922941700001,-84.386969968,41,"2061 BEECHMONT AVE 3B, CINCINNATI, OH, 45230","Match","Exact","2061 BEECHMONT AVE, CINCINNATI, OH, 45230",103937752,"L"
110542,"2061 CUMBRE CT","CARLSBAD","CA",92009,33.0807884880001,-117.262836287,42,"2061 CUMBRE CT, CARLSBAD, CA, 92009","Match","Exact","2061 CUMBRE CT, CARLSBAD, CA, 92009",195292368,"R"
110543,"2061 EARLY STREET","MONTGOMERY","AL",36108,32.358740606,-86.326251774,43,"2061 EARLY STREET, MONTGOMERY, AL, 36108","Match","Exact","2061 EARLY ST, MONTGOMERY, AL, 36108",1499330,"L"
110544,"2061 EL RANCHO DR","CAMARILLO","CA",93010,34.238781116,-119.03941589,44,"2061 EL RANCHO DR, CAMARILLO, CA, 93010","Match","Exact","2061 EL RANCHO DR, CAMARILLO, CA, 93010",109960534,"R"
110545,"2061 GARY LEE DRIVE","KRONENWETTER","WI",54455,44.843040908,-89.597849196,45,"2061 GARY LEE DRIVE, KRONENWETTER, WI, 54455","Match","Exact","2061 GARY LEE DR, KRONENWETTER, WI, 54455",117163584,"L"
110546,"2061 HAYES STREET","SAN FRANCISCO","CA",94117,37.7733973960001,-122.45030323,46,"2061 HAYES STREET, SAN FRANCISCO, CA, 94117","Match","Exact","2061 HAYES ST, SAN FRANCISCO, CA, 94117",192282252,"L"
110547,"2061 ROSEWOOD DR NW","CEDAR RAPIDS","IA",52405,41.997345083,-91.702385004,47,"2061 ROSEWOOD DR NW, CEDAR RAPIDS, IA, 52405","Match","Exact","2061 ROSEWOOD DR NW, CEDAR RAPIDS, IA, 52405",641826948,"L"
110548,"2061 SOUTH OLD MILL DRIVE","DELTONA","FL",32725,28.9213697010001,-81.2362219889999,48,"2061 SOUTH OLD MILL DRIVE, DELTONA, FL, 32725","Match","Exact","2061 S OLD MILL DR, DELTONA, FL, 32725",94501859,"R"
110549,"2061 THIRD STREET","LA VERNE","CA",91750,NA,NA,49,"2061 THIRD STREET, LA VERNE, CA, 91750","No_Match",NA,NA,NA,NA
110550,"2061 TRAFALGAR AVENUE","HAYWARD","CA",94545,37.637153819,-122.104755495,50,"2061 TRAFALGAR AVENUE, HAYWARD, CA, 94545","Match","Exact","2061 TRAFALGAR AVE, HAYWARD, CA, 94545",125020742,"R"
110551,"2061 WEBSTER ST","PALO ALTO","CA",94301,37.4374205660001,-122.138754494,51,"2061 WEBSTER ST, PALO ALTO, CA, 94301","Match","Exact","2061 WEBSTER ST, PALO ALTO, CA, 94301",122950902,"L"
110552,"2061 WEST ST","FAIRGROVE","MI",48733,43.5249078420001,-83.547757689,52,"2061 WEST ST, FAIRGROVE, MI, 48733","Match","Exact","2061 WEST ST, FAIRGROVE, MI, 48733",81240925,"L"
110553,"2061 WRIGHT AVE SUITE A4","LA VERNE","CA",91750,34.095385977,-117.774360198,53,"2061 WRIGHT AVE SUITE A4, LA VERNE, CA, 91750","Match","Exact","2061 WRIGHT AVE, LA VERNE, CA, 91750",142239699,"L"
110554,"20610 BILL COLLINS RD","EUSTIS","FL",32726,28.8951738580001,-81.616657771,54,"20610 BILL COLLINS RD, EUSTIS, FL, 32726","Match","Non_Exact","20610 BILL COLLINS RD, EUSTIS, FL, 32736",94094037,"R"
110555,"20610 GREAT PINES DR","CYPRESS","TX",77433,29.906453438,-95.729846406,55,"20610 GREAT PINES DR, CYPRESS, TX, 77433","Match","Exact","20610 GREAT PINES DR, CYPRESS, TX, 77433",635320090,"L"
110556,"20610 LAKE VIEW RD","DAMON","TX",77430,29.3648944670001,-95.597604363,56,"20610 LAKE VIEW RD, DAMON, TX, 77430","Match","Exact","20610 LAKE VIEW RD, DAMON, TX, 77430",78280808,"L"
110557,"20611 BOTHELL EVERETT HWY E298","BOTHELL","WA",98012,47.809487426,-122.207524487,57,"20611 BOTHELL EVERETT HWY E298, BOTHELL, WA, 98012","Match","Exact","20611 BOTHELL EVERETT HWY, BOTHELL, WA, 98012",650012137,"R"
110558,"20611 BOTHELL EVERETT HWY STE E333","BOTHELL","WA",98012,47.809487426,-122.207524487,58,"20611 BOTHELL EVERETT HWY STE E333, BOTHELL, WA, 98012","Match","Exact","20611 BOTHELL EVERETT HWY, BOTHELL, WA, 98012",650012137,"R"
110559,"20611 NE 15TH COURT","MIAMI","FL",33179,25.9657035440001,-80.1706293129999,59,"20611 NE 15TH COURT, MIAMI, FL, 33179","Match","Exact","20611 NE 15TH CT, MIAMI, FL, 33179",116312106,"R"
110560,"20611 S CLEVELAND AVE","BELTON","MO",64012,38.751065542,-94.552632655,60,"20611 S CLEVELAND AVE, BELTON, MO, 64012","Match","Exact","20611 S CLEVELAND AVE, BELTON, MO, 64012",100915875,"R"
110561,"20612 E CR 175","ELMER","OK",73539,NA,NA,61,"20612 E CR 175, ELMER, OK, 73539","No_Match",NA,NA,NA,NA
110562,"20612 E US HIGHWAY 14","HARVARD","IL",60033,42.3878400340001,-88.595098319,62,"20612 E US HIGHWAY 14, HARVARD, IL, 60033","Match","Exact","20612 US HWY 14, HARVARD, IL, 60033",635509702,"R"
110563,"20612 MANDELL STREET","WINNETKA","CA",91306,34.221774204,-118.582299916,63,"20612 MANDELL STREET, WINNETKA, CA, 91306","Match","Exact","20612 MANDELL ST, WINNETKA, CA, 91306",141533414,"L"
110564,"20612 NW 10 AVENUE","MIAMI","FL",33169,25.9638237140001,-80.2196136059999,64,"20612 NW 10 AVENUE, MIAMI, FL, 33169","Match","Exact","20612 NW 10TH AVE, MIAMI, FL, 33169",116313800,"L"
110565,"20615 HOLYOKE DR","ASHBURN","VA",20147,39.0448982450001,-77.4562013139999,65,"20615 HOLYOKE DR, ASHBURN, VA, 20147","Match","Exact","20615 HOLYOKE DR, ASHBURN, VA, 20147",645683041,"L"
110566,"20615 KEEGANS LEDGE LANE","CYPRESS","TX",77433,29.8982359030001,-95.7228573469999,66,"20615 KEEGANS LEDGE LANE, CYPRESS, TX, 77433","Match","Exact","20615 KEEGANS LEDGE LN, CYPRESS, TX, 77433",641974814,"L"
110567,"20615 VALLEY BLVD STE D","WALNUT","CA",91789,34.011202457,-117.856615254,67,"20615 VALLEY BLVD STE D, WALNUT, CA, 91789","Match","Exact","20615 VALLEY BLVD, WALNUT, CA, 91789",142667756,"L"
110568,"20615 VINING","NEW BOSTON","MI",48164,42.1538885900001,-83.363692274,68,"20615 VINING, NEW BOSTON, MI, 48164","Match","Non_Exact","20615 VINING RD, NEW BOSTON, MI, 48164",95708158,"L"
110569,"20618 HIRZ MNT RD","LAKEHEAD","CA",96051,40.8837788210001,-122.285942292,69,"20618 HIRZ MNT RD, LAKEHEAD, CA, 96051","Match","Exact","20618 HIRZ MOUNTAIN RD, LAKEHEAD, CA, 96051",126646810,"L"
110570,"20619 BETHEL CHURCH RD","CORNELIUS","NC",28031,35.485436973,-80.900476342,70,"20619 BETHEL CHURCH RD, CORNELIUS, NC, 28031","Match","Exact","20619 BETHEL CHURCH RD, CORNELIUS, NC, 28031",624705518,"L"
110571,"20619 CAMEO ROSE DR","CYPRESS","TX",77433,30.019293098,-95.744938221,71,"20619 CAMEO ROSE DR, CYPRESS, TX, 77433","Match","Exact","20619 CAMEO ROSE DR, CYPRESS, TX, 77433",642009453,"L"
110572,"2062 JUNIPER DRIVE","EAGLE MOUNTAIN","UT",84005,40.307744703,-112.004464696,72,"2062 JUNIPER DRIVE, EAGLE MOUNTAIN, UT, 84005","Match","Exact","2062 JUNIPER DR, EAGLE MOUNTAIN, UT, 84005",639888506,"L"
110573,"2062 KENDON W DRIVE","PITTSBURGH","PA",15221,NA,NA,73,"2062 KENDON W DRIVE, PITTSBURGH, PA, 15221","No_Match",NA,NA,NA,NA
110574,"2062 LEXINGTON DR","PERRYSBURG","OH",43551,41.5391326230001,-83.65866376,74,"2062 LEXINGTON DR, PERRYSBURG, OH, 43551","Match","Exact","2062 LEXINGTON DR, PERRYSBURG, OH, 43551",38742342,"R"
110575,"2062 LYDGATE DR","MEMPHIS","TN",38116,35.038790013,-89.995603511,75,"2062 LYDGATE DR, MEMPHIS, TN, 38116","Match","Exact","2062 LYDGATE DR, MEMPHIS, TN, 38116",72955063,"L"
110576,"2062 PAMELA DRIVE","MEMPHIS","TN",38127,35.2232843030001,-89.995540776,76,"2062 PAMELA DRIVE, MEMPHIS, TN, 38127","Match","Exact","2062 PAMELA DR, MEMPHIS, TN, 38127",72910818,"L"
110577,"2062 RAINBOW RD","LEXINGTON","KY",40503,38.009974447,-84.520956338,77,"2062 RAINBOW RD, LEXINGTON, KY, 40503","Match","Exact","2062 RAINBOW RD, LEXINGTON, KY, 40503",31922953,"L"
110578,"2062 STATE ROUTE 131","BATAVIA","OH",45103,39.172499767,-84.155545245,78,"2062 STATE ROUTE 131, BATAVIA, OH, 45103","Match","Exact","2062 STATE RTE 131, BATAVIA, OH, 45103",118448938,"L"
110579,"2062 VAN TUYL PLACE","FALLS CHURCH","VA",22043,38.909957852,-77.179308589,79,"2062 VAN TUYL PLACE, FALLS CHURCH, VA, 22043","Match","Exact","2062 VAN TUYL PL, FALLS CHURCH, VA, 22043",619921465,"R"
110580,"2062 WYTHE DR","EVANS","GA",30809,33.5774693270001,-82.17245818,80,"2062 WYTHE DR, EVANS, GA, 30809","Match","Exact","2062 WYTHE DR, EVANS, GA, 30809",634799224,"L"
110581,"20620 107TH STREET","BRISTOL","WI",53104,42.5210681200001,-88.057243461,81,"20620 107TH STREET, BRISTOL, WI, 53104","Match","Exact","20620 107TH ST, BRISTOL, WI, 53104",651688399,"L"
110582,"20620 LEAPWOOD AVENUE    SUITE A","CARSON","CA",90746,33.8437315780001,-118.258903845,82,"20620 LEAPWOOD AVENUE    SUITE A, CARSON, CA, 90746","Match","Exact","20620 LEAPWOOD AVE, CARSON, CA, 90746",241244233,"L"
110583,"20622 CANNABERRY WAY","SPRING","TX",77388,30.056839923,-95.4575765279999,83,"20622 CANNABERRY WAY, SPRING, TX, 77388","Match","Exact","20622 CANNABERRY WAY, SPRING, TX, 77388",627708699,"L"
110584,"20622 DOUBLE MEADOWS DRIVE","CYPRESS","TX",77433,29.886702873,-95.726255005,84,"20622 DOUBLE MEADOWS DRIVE, CYPRESS, TX, 77433","Match","Exact","20622 DOUBLE MEADOWS DR, CYPRESS, TX, 77433",637767847,"L"
110585,"20622 DUXBURY TERRACE","ASHBURN","VA",2147,NA,NA,85,"20622 DUXBURY TERRACE, ASHBURN, VA, 2147","No_Match",NA,NA,NA,NA
110586,"20622 NALL","STILWELL","KS",66085,NA,NA,86,"20622 NALL, STILWELL, KS, 66085","No_Match",NA,NA,NA,NA
110587,"20622 PLAZA 290 BLVD","TOMBALL","TX",77377,30.0569120850001,-95.742899987,87,"20622 PLAZA 290 BLVD, TOMBALL, TX, 77377","Match","Exact","20622 PLAZA 290 BLVD, TOMBALL, TX, 77377",642190987,"R"
110588,"20622 RENO MONUMENT ROAD","BOONSBORO","MD",21713,39.472520122,-77.6488570349999,88,"20622 RENO MONUMENT ROAD, BOONSBORO, MD, 21713","Match","Exact","20622 RENO MONUMENT RD, BOONSBORO, MD, 21713",647264548,"L"
110589,"20622 WILDERNESS RUN ROAD","BOONSBORO","MD",21713,39.563110486,-77.651053808,89,"20622 WILDERNESS RUN ROAD, BOONSBORO, MD, 21713","Match","Exact","20622 WILDERNESS RUN RD, BOONSBORO, MD, 21713",612168950,"L"
110590,"20623 N 91ST DR","PEORIA","AZ",85382,33.671584712,-112.255659517,90,"20623 N 91ST DR, PEORIA, AZ, 85382","Match","Exact","20623 N 91ST DR, PEORIA, AZ, 85382",128428555,"R"
110591,"20625 DEVONSHIRE AVE","FARMINGTON","MN",55024,44.648119294,-93.154034445,91,"20625 DEVONSHIRE AVE, FARMINGTON, MN, 55024","Match","Exact","20625 DEVONSHIRE AVE, FARMINGTON, MN, 55024",37933897,"L"
110592,"20625 OCONNOR RD SE","CENTRALIA","WA",98531,46.7961796120001,-122.915241825,92,"20625 OCONNOR RD SE, CENTRALIA, WA, 98531","Match","Exact","20625 OCONNOR RD SE, CENTRALIA, WA, 98531",180975091,"L"
110593,"20626 VIANA MEADOW CT","CYPRESS","TX",77433,29.9177242430001,-95.7256599419999,93,"20626 VIANA MEADOW CT, CYPRESS, TX, 77433","Match","Exact","20626 VIANA MEADOW CT, CYPRESS, TX, 77433",652136851,"L"
110594,"206260","NEW HAVEN","CT",6520,NA,NA,94,"206260, NEW HAVEN, CT, 6520","No_Match",NA,NA,NA,NA
110595,"20627 GOLDEN SPRINGS DR STE 2G","DIAMOND BAR","CA",91789,33.999217603,-117.847047319,95,"20627 GOLDEN SPRINGS DR STE 2G, DIAMOND BAR, CA, 91789","Match","Exact","20627 GOLDEN SPRINGS DR, DIAMOND BAR, CA, 91789",241104008,"L"
110596,"20628 13TH AVE S","SEATAC","WA",98198,47.4178919490001,-122.316695685,96,"20628 13TH AVE S, SEATAC, WA, 98198","Match","Exact","20628 13TH AVE S, SEATAC, WA, 98198",186627444,"L"
110597,"2063 BUCK CT","CADDO MILLS","TX",75135,33.0060996330001,-96.22099952,97,"2063 BUCK CT, CADDO MILLS, TX, 75135","Match","Exact","2063 BUCK CT, CADDO MILLS, TX, 75135",653213658,"L"
110598,"2063 EAST 36TH STREET","CLEVELAND","OH",44115,41.500951715,-81.662338092,98,"2063 EAST 36TH STREET, CLEVELAND, OH, 44115","Match","Exact","2063 E 36TH ST, CLEVELAND, OH, 44115",61112730,"L"
110599,"2063 HWY 72 W","CLINTON","SC",29325,NA,NA,99,"2063 HWY 72 W, CLINTON, SC, 29325","No_Match",NA,NA,NA,NA
110600,"2063 LOVI ROAD","FREEDOM","PA",15042,40.696391621,-80.174165398,100,"2063 LOVI ROAD, FREEDOM, PA, 15042","Match","Exact","2063 LOVI RD, FREEDOM, PA, 15042",642113357,"R"
110601,"2063 MADISON AVENUE SUITE 3B","NEW YORK","NY",10037,40.809278072,-73.938053746,101,"2063 MADISON AVENUE SUITE 3B, NEW YORK, NY, 10037","Match","Exact","2063 MADISON AVE, NEW YORK, NY, 10037",59656514,"R"
110602,"2063 MAIN ST   SUITE 153","OAKLEY","CA",94561,38.002804413,-121.732364804,102,"2063 MAIN ST   SUITE 153, OAKLEY, CA, 94561","Match","Exact","2063 MAIN ST, OAKLEY, CA, 94561",607733792,"R"
110603,"2063 MAIN STREET NO 113","OAKLEY","CA",94561,38.002804413,-121.732364804,103,"2063 MAIN STREET NO 113, OAKLEY, CA, 94561","Match","Non_Exact","2063 MAIN ST, OAKLEY, CA, 94561",607733792,"R"
110604,"2063 N BENTALOU STREET","BALTIMORE","MD",21216,39.311883951,-76.654229152,104,"2063 N BENTALOU STREET, BALTIMORE, MD, 21216","Match","Exact","2063 N BENTALOU ST, BALTIMORE, MD, 21216",206464509,"R"
110605,"2063 RANCHO VLY DR STE 320 PMB 269","POMONA","CA",91766,NA,NA,105,"2063 RANCHO VLY DR STE 320 PMB 269, POMONA, CA, 91766","No_Match",NA,NA,NA,NA
110606,"2063 RIVER PEACE DRIVE   APT 395","NAPLES","FL",34102,NA,NA,106,"2063 RIVER PEACE DRIVE   APT 395, NAPLES, FL, 34102","No_Match",NA,NA,NA,NA
110607,"2063 RIVERSIDE DRIVE","KNOXVILLE","TN",37915,35.967051785,-83.889724891,107,"2063 RIVERSIDE DRIVE, KNOXVILLE, TN, 37915","Match","Exact","2063 RIVERSIDE DR, KNOXVILLE, TN, 37915",42623730,"L"
110608,"2063 S ATLANTIC BLVD STE B","MONTEREY PARK","CA",91754,34.0395017930001,-118.143294032,108,"2063 S ATLANTIC BLVD STE B, MONTEREY PARK, CA, 91754","Match","Non_Exact","2063 S ATLANTIC BLVD, MONTEREY PARK, CA, 91754",650195368,"R"
110609,"2063 SANDCASTLE DRIVE","TALLAHASSEE","FL",32308,30.4696855490001,-84.236576648,109,"2063 SANDCASTLE DRIVE, TALLAHASSEE, FL, 32308","Match","Exact","2063 SANDCASTLE DR, TALLAHASSEE, FL, 32308",82885463,"R"
110610,"2063 VILLAGE DRIVE","MILLIKEN","CO",80543,NA,NA,110,"2063 VILLAGE DRIVE, MILLIKEN, CO, 80543","No_Match",NA,NA,NA,NA
110611,"20630 CR 20","GOSHEN","IN",46528,41.6379731800001,-85.863120523,111,"20630 CR 20, GOSHEN, IN, 46528","Match","Exact","20630 CO RD 20, GOSHEN, IN, 46528",604676029,"R"
110612,"20630 MORNING CREEK DR","KATY","TX",77450,29.75041972,-95.7311906629999,112,"20630 MORNING CREEK DR, KATY, TX, 77450","Match","Exact","20630 MORNING CREEK DR, KATY, TX, 77450",233479967,"L"
110613,"20630 PLUMMER STREET","CHATSWORTH","CA",91311,34.242721837,-118.582693599,113,"20630 PLUMMER STREET, CHATSWORTH, CA, 91311","Match","Exact","20630 PLUMMER ST, CHATSWORTH, CA, 91311",141533029,"L"
110614,"20631 VENTURA BOULEVARD SUITE 203","WOODLAND HILLS","CA",91364,34.1670868410001,-118.583227693,114,"20631 VENTURA BOULEVARD SUITE 203, WOODLAND HILLS, CA, 91364","Match","Exact","20631 VENTURA BLVD, WOODLAND HILLS, CA, 91364",609817338,"R"
110615,"20633 GAS POINT RD STE B2 NUMBER 7","COTTONWOOD","CA",96022,40.3892823510001,-122.292051787,115,"20633 GAS POINT RD STE B2 NUMBER 7, COTTONWOOD, CA, 96022","Match","Exact","20633 GAS POINT RD, COTTONWOOD, CA, 96022",650772646,"R"
110616,"20635 COUNTY 84","AKELEY","MN",56433,46.9589363900001,-94.700916926,116,"20635 COUNTY 84, AKELEY, MN, 56433","Match","Exact","20635 COUNTY 84, AKELEY, MN, 56433",608301670,"R"
110617,"20636 LOCKWOOD STREET","TAYLOR","MI",48180,42.2450124740001,-83.2386130959999,117,"20636 LOCKWOOD STREET, TAYLOR, MI, 48180","Match","Exact","20636 LOCKWOOD ST, TAYLOR, MI, 48180",95445995,"R"
110618,"20639 FM 2854","MONTGOMERY","TX",77316,30.3522266050001,-95.657252576,118,"20639 FM 2854, MONTGOMERY, TX, 77316","Match","Exact","20639 FM 2854, MONTGOMERY, TX, 77316",79330596,"L"
110619,"20639 SHEPHERD HILLS DR","DIAMOND BAR","CA",91789,33.9881336760001,-117.856308896,119,"20639 SHEPHERD HILLS DR, DIAMOND BAR, CA, 91789","Match","Exact","20639 SHEPHERD HILLS DR, DIAMOND BAR, CA, 91789",141736077,"R"
110620,"2064 340TH ST","PLYMOUTH","IA",50464,43.255135968,-93.113605376,120,"2064 340TH ST, PLYMOUTH, IA, 50464","Match","Exact","2064 340TH ST, PLYMOUTH, IA, 50464",7301983,"L"
110621,"2064 5TH STREET","SAN FERNANDO","CA",91340,34.296202904,-118.441499319,121,"2064 5TH STREET, SAN FERNANDO, CA, 91340","Match","Exact","2064 5TH ST, SAN FERNANDO, CA, 91340",142713378,"L"
110622,"2064 COUNTRY CLUB ROAD","MCCOMB","MS",39648,31.17979454,-90.4548885629999,122,"2064 COUNTRY CLUB ROAD, MCCOMB, MS, 39648","Match","Exact","2064 COUNTRY CLUB RD, MCCOMB, MS, 39648",612516183,"L"
110623,"2064 DUBAY DR","MOSINEE","WI",54455,NA,NA,123,"2064 DUBAY DR, MOSINEE, WI, 54455","No_Match",NA,NA,NA,NA
110624,"2064 HIGHWAY 116","CARYVILLE","TN",37714,36.255298344,-84.181797783,124,"2064 HIGHWAY 116, CARYVILLE, TN, 37714","Match","Exact","2064 HWY 116, CARYVILLE, TN, 37714",607371794,"L"
110625,"2064 LAKESHORE RD","MANISTEE","MI",49660,44.2906509200001,-86.309808011,125,"2064 LAKESHORE RD, MANISTEE, MI, 49660","Match","Exact","2064 LAKESHORE RD, MANISTEE, MI, 49660",146020246,"L"
110626,"2064 N 3569TH RD","SERENA","IL",60549,41.4524922260001,-88.772581997,126,"2064 N 3569TH RD, SERENA, IL, 60549","Match","Exact","2064 N 3569TH RD, SERENA, IL, 60549",617268679,"R"
110627,"2064 N WESTERN AVE 3F","CHICAGO","IL",60647,41.9196798880001,-87.687484553,127,"2064 N WESTERN AVE 3F, CHICAGO, IL, 60647","Match","Non_Exact","2064 N WESTERN AVE, CHICAGO, IL, 60647",605232341,"L"
110628,"2064 RIDFEDALE RD NE","ATLANTA","GA",30317,NA,NA,128,"2064 RIDFEDALE RD NE, ATLANTA, GA, 30317","No_Match",NA,NA,NA,NA
110629,"2064 STAFFORD PARK LANE","GERMANTOWN","TN",38139,35.0925015820001,-89.771572368,129,"2064 STAFFORD PARK LANE, GERMANTOWN, TN, 38139","Match","Exact","2064 STAFFORD PARK LN, GERMANTOWN, TN, 38139",72932422,"L"
110630,"2064 SW 117TH AVE","MIRAMAR","FL",33025,25.989866927,-80.302131187,130,"2064 SW 117TH AVE, MIRAMAR, FL, 33025","Match","Exact","2064 SW 117TH AVE, MIRAMAR, FL, 33025",114806505,"R"
110631,"2064 W POSADA AVE","MESA","AZ",85202,33.3583102640001,-111.878736682,131,"2064 W POSADA AVE, MESA, AZ, 85202","Match","Exact","2064 W POSADA AVE, MESA, AZ, 85202",128239902,"R"
110632,"2064 WEST AVE J STREET STE 230","QUARTZ HILL","CA",93536,NA,NA,132,"2064 WEST AVE J STREET STE 230, QUARTZ HILL, CA, 93536","No_Match",NA,NA,NA,NA
110633,"2064 WEST AVENUE J SUITE 167","LANCASTER","CA",93536,34.689327301,-118.166596755,133,"2064 WEST AVENUE J SUITE 167, LANCASTER, CA, 93536","Match","Exact","2064 W AVE J, LANCASTER, CA, 93536",241248150,"R"
110634,"20640 HELLENIC DR","OLYMPIA FIELDS","IL",60461,41.5144545040001,-87.6962150689999,134,"20640 HELLENIC DR, OLYMPIA FIELDS, IL, 60461","Match","Exact","20640 HELLENIC DR, OLYMPIA FIELDS, IL, 60461",111710217,"R"
110635,"20640 SW ROSA DR","BEAVERTON","OR",97078,45.479674689,-122.891205571,135,"20640 SW ROSA DR, BEAVERTON, OR, 97078","Match","Exact","20640 SW ROSA DR, BEAVERTON, OR, 97078",158181070,"R"
110636,"20641 409TH AVE","CAVOUR","SD",57324,44.391882256,-98.033423901,136,"20641 409TH AVE, CAVOUR, SD, 57324","Match","Exact","20641 409TH AVE, CAVOUR, SD, 57324",201052937,"L"
110637,"20644 45TH ROAD","BAYSIDE","NY",11361,NA,NA,137,"20644 45TH ROAD, BAYSIDE, NY, 11361","No_Match",NA,NA,NA,NA
110638,"20644 E ARROW HIGHWAY APT 213","COVINA","CA",91724,34.1066124710001,-117.852049362,138,"20644 E ARROW HIGHWAY APT 213, COVINA, CA, 91724","Match","Non_Exact","20644 E ARROW HWY, COVINA, CA, 91724",142844577,"R"
110639,"20645 MONTALVO HEIGHTS DR","SARATOGA","CA",95070,37.2487618860001,-122.031317568,139,"20645 MONTALVO HEIGHTS DR, SARATOGA, CA, 95070","Match","Exact","20645 MONTALVO HEIGHTS DR, SARATOGA, CA, 95070",122942826,"R"
110640,"20645 VIA VERONICA","YORBA LINDA","CA",92887,33.88022628,-117.774402126,140,"20645 VIA VERONICA, YORBA LINDA, CA, 92887","Match","Exact","20645 VIA VERONICA, YORBA LINDA, CA, 92887",144112460,"R"
110641,"20647 MARTINEZ STREET","WOODLAND HILLS","CA",91364,34.1629512580001,-118.583713112,141,"20647 MARTINEZ STREET, WOODLAND HILLS, CA, 91364","Match","Exact","20647 MARTINEZ ST, WOODLAND HILLS, CA, 91364",141535721,"R"
110642,"20648 CHATSBORO DR","WOODLAND HILLS","CA",91364,34.1503166860001,-118.583237457,142,"20648 CHATSBORO DR, WOODLAND HILLS, CA, 91364","Match","Exact","20648 CHATSBORO DR, WOODLAND HILLS, CA, 91364",141553966,"L"
110643,"20648 MACON PARKWAY","ORLANDO","FL",32833,28.517523323,-81.069708511,143,"20648 MACON PARKWAY, ORLANDO, FL, 32833","Match","Exact","20648 MACON PKWY, ORLANDO, FL, 32833",639249177,"L"
110644,"2065 71TH STREET APT 2 R","BROOKLYN","NY",11204,NA,NA,144,"2065 71TH STREET APT 2 R, BROOKLYN, NY, 11204","No_Match",NA,NA,NA,NA
110645,"2065 BILTMORE POINT","LONGWOOD","FL",32779,28.7075416710001,-81.3925042399999,145,"2065 BILTMORE POINT, LONGWOOD, FL, 32779","Match","Exact","2065 BILTMORE PT, LONGWOOD, FL, 32779",93735901,"L"
110646,"2065 CANNON BRIDGE RD","BAMBERG","SC",29003,33.2893744040001,-80.984703786,146,"2065 CANNON BRIDGE RD, BAMBERG, SC, 29003","Match","Exact","2065 CANNON BRIDGE RD, BAMBERG, SC, 29003",18959032,"R"
110647,"2065 CASS LAKE RD","KEEGO HARBOR","MI",48320,42.6084348900001,-83.343969156,147,"2065 CASS LAKE RD, KEEGO HARBOR, MI, 48320","Match","Exact","2065 CASS LAKE RD, KEEGO HARBOR, MI, 48320",69703172,"L"
110648,"2065 COACH HOUSE LOOP","CASTLE ROCK","CO",80109,39.3859128300001,-104.906820977,148,"2065 COACH HOUSE LOOP, CASTLE ROCK, CO, 80109","Match","Exact","2065 COACH HOUSE LOOP, CASTLE ROCK, CO, 80109",649062843,"R"
110649,"2065 COLFAX AVENUE","BENTON HARBOR","MI",49022,42.0808406830001,-86.45586954,149,"2065 COLFAX AVENUE, BENTON HARBOR, MI, 49022","Match","Exact","2065 COLFAX AVE, BENTON HARBOR, MI, 49022",119974855,"L"
110650,"2065 E HEMMI RD","EVERSON","WA",98247,48.862070648,-122.378438426,150,"2065 E HEMMI RD, EVERSON, WA, 98247","Match","Exact","2065 E HEMMI RD, EVERSON, WA, 98247",624507285,"L"
110651,"2065 HIGHLAND AVENUE","ROCHESTER","NY",14610,43.136845147,-77.55857904,151,"2065 HIGHLAND AVENUE, ROCHESTER, NY, 14610","Match","Exact","2065 HIGHLAND AVE, ROCHESTER, NY, 14610",14542784,"R"
110652,"2065 HOLLY HILL ROAD","SHELBY","NC",28152,35.224586109,-81.674488004,152,"2065 HOLLY HILL ROAD, SHELBY, NC, 28152","Match","Exact","2065 HOLLY HILL RD, SHELBY, NC, 28152",19322629,"R"
110653,"2065 LAKE FORD CIRCLE","DULUTH","GA",30096,33.944890306,-84.1635311109999,153,"2065 LAKE FORD CIRCLE, DULUTH, GA, 30096","Match","Exact","2065 LAKE FORD CIR, DULUTH, GA, 30096",88915863,"R"
110654,"2065 LINCOLN AVENUE","TORRANCE","CA",90501,33.823294079,-118.319005089,154,"2065 LINCOLN AVENUE, TORRANCE, CA, 90501","Match","Exact","2065 LINCOLN AVE, TORRANCE, CA, 90501",142759002,"R"
110655,"2065 LUCADO RD","ATOKA","TN",38004,35.4048036730001,-89.743211294,155,"2065 LUCADO RD, ATOKA, TN, 38004","Match","Exact","2065 LUCADO RD, ATOKA, TN, 38004",608029096,"L"
110656,"2065 MARSH FLOWER LANE","CHARLESTON","SC",29414,32.830459697,-80.05748625,156,"2065 MARSH FLOWER LANE, CHARLESTON, SC, 29414","Match","Exact","2065 MARSH FLOWER LN, CHARLESTON, SC, 29414",108865559,"R"
110657,"2065 MONA COURT","MERRITT ISLAND","FL",32952,28.321591486,-80.662113902,157,"2065 MONA COURT, MERRITT ISLAND, FL, 32952","Match","Exact","2065 MONA CT, MERRITT ISLAND, FL, 32952",93932349,"R"
110658,"2065 MONKS HOLLOW DRIVE","FLORISSANT","MO",63031,38.828279353,-90.3383171629999,158,"2065 MONKS HOLLOW DRIVE, FLORISSANT, MO, 63031","Match","Exact","2065 MONKS HOLLOW DR, FLORISSANT, MO, 63031",624446458,"R"
110659,"2065 N STAGECOACH DR","POST FALLS","ID",83854,47.728030195,-116.956745027,159,"2065 N STAGECOACH DR, POST FALLS, ID, 83854","Match","Exact","2065 N STAGECOACH DR, POST FALLS, ID, 83854",192956523,"L"
110660,"2065 ORANGE PICKER ROAD","JACKSONVILLE","FL",32223,30.147324301,-81.653795195,160,"2065 ORANGE PICKER ROAD, JACKSONVILLE, FL, 32223","Match","Exact","2065 ORANGE PICKER RD, JACKSONVILLE, FL, 32223",83918247,"L"
110661,"2065 PAINE DR","MARRERO","LA",70072,29.874393556,-90.119704618,161,"2065 PAINE DR, MARRERO, LA, 70072","Match","Exact","2065 PAINE DR, MARRERO, LA, 70072",93505882,"L"
110662,"2065 PRAIRIE ROAD BLDG J","WEST PALM BEACH","FL",33406,26.6461270790001,-80.083978109,162,"2065 PRAIRIE ROAD BLDG J, WEST PALM BEACH, FL, 33406","Match","Exact","2065 PRAIRIE RD, WEST PALM BEACH, FL, 33406",115509300,"R"
110663,"2065 RHODES LN","ROSEVILLE","CA",95747,38.7668165580001,-121.373487485,163,"2065 RHODES LN, ROSEVILLE, CA, 95747","Match","Exact","2065 RHODES LN, ROSEVILLE, CA, 95747",617447709,"L"
110664,"2065 TACKETTTS VILLAGE SQUARE 209","WOOBRIDGE","VA",22192,NA,NA,164,"2065 TACKETTTS VILLAGE SQUARE 209, WOOBRIDGE, VA, 22192","No_Match",NA,NA,NA,NA
110665,"2065 TEMESCAL AVENUE","NORCO","CA",92860,33.912066388,-117.548285666,165,"2065 TEMESCAL AVENUE, NORCO, CA, 92860","Match","Exact","2065 TEMESCAL AVE, NORCO, CA, 92860",194735455,"R"
110666,"2065 TIMBERWYCK LANE","BURLINGTON","KY",41005,39.014654632,-84.692053459,166,"2065 TIMBERWYCK LANE, BURLINGTON, KY, 41005","Match","Exact","2065 TIMBERWYCK LN, BURLINGTON, KY, 41005",625001723,"R"
110667,"2065 W BLACKBERRY TRL","WARSAW","IN",46580,41.2127260450001,-85.882658087,167,"2065 W BLACKBERRY TRL, WARSAW, IN, 46580","Match","Exact","2065 W BLACKBERRY TRL, WARSAW, IN, 46580",7958530,"L"
110668,"2065 W COLLEGE AVE","SAN BERNARDINO","CA",92407,34.1710022230001,-117.335801189,168,"2065 W COLLEGE AVE, SAN BERNARDINO, CA, 92407","Match","Exact","2065 W COLLEGE AVE, SAN BERNARDINO, CA, 92407",144651136,"L"
110669,"2065 WALTON ROAD","SAINT LOUIS","MO",63114,38.6922963050001,-90.3469963429999,169,"2065 WALTON ROAD, SAINT LOUIS, MO, 63114","Match","Exact","2065 WALTON RD, SAINT LOUIS, MO, 63114",604465599,"L"
110670,"2065 WHISPERING WOODS DR","CHARLOTTESVILLE","VA",22911,38.12683085,-78.428430137,170,"2065 WHISPERING WOODS DR, CHARLOTTESVILLE, VA, 22911","Match","Exact","2065 WHISPERING WOODS DR, CHARLOTTESVILLE, VA, 22911",83374931,"R"
110671,"2065","ROME","GA",30164,NA,NA,171,"2065, ROME, GA, 30164","No_Match",NA,NA,NA,NA
110672,"20650 CICERO","MATTESON","IL",60443,NA,NA,172,"20650 CICERO, MATTESON, IL, 60443","No_Match",NA,NA,NA,NA
110673,"20650 CRYSTAL AVE","EUCLID","OH",44123,41.599469926,-81.536179057,173,"20650 CRYSTAL AVE, EUCLID, OH, 44123","Match","Exact","20650 CRYSTAL AVE, EUCLID, OH, 44123",61108490,"R"
110674,"20655 MANTER COURT","RED BLUFF","CA",96080,40.203056372,-122.268992653,174,"20655 MANTER COURT, RED BLUFF, CA, 96080","Match","Exact","20655 MANTER CT, RED BLUFF, CA, 96080",623908948,"L"
110675,"20655 RAWSONVILLE","BELLEVILLE","MI",48111,NA,NA,175,"20655 RAWSONVILLE, BELLEVILLE, MI, 48111","No_Match",NA,NA,NA,NA
110676,"20655 WEST LEGEND TRAIL","BUCKEYE","AZ",85396,33.4739315730001,-112.503021486,176,"20655 WEST LEGEND TRAIL, BUCKEYE, AZ, 85396","Match","Exact","20655 W LEGEND TRL, BUCKEYE, AZ, 85396",645616123,"L"
110677,"20656 CRESTVIEW DRIVE","REED CITY","MI",49677,43.879142567,-85.4963763499999,177,"20656 CRESTVIEW DRIVE, REED CITY, MI, 49677","Match","Exact","20656 CRESTVIEW DR, REED CITY, MI, 49677",110615996,"L"
110678,"20658 BENSLEY AVENUE","LYNWOOD","IL",60411,41.5200833750001,-87.561738858,178,"20658 BENSLEY AVENUE, LYNWOOD, IL, 60411","Match","Exact","20658 BENSLEY AVE, LYNWOOD, IL, 60411",638709315,"R"
110679,"2066 180TH STREET","GALESBURG","IL",61401,40.927329387,-90.441178271,179,"2066 180TH STREET, GALESBURG, IL, 61401","Match","Exact","2066 180TH ST, GALESBURG, IL, 61401",642885447,"L"
110680,"2066 AQUETONG RD","NEW HOPE","PA",18938,40.3433901760001,-74.967336955,180,"2066 AQUETONG RD, NEW HOPE, PA, 18938","Match","Exact","2066 AQUETONG RD, NEW HOPE, PA, 18938",134782143,"R"
110681,"2066 ARBOR FOREST DRIVE SW","MARIETTA","GA",30064,33.933216563,-84.6215553819999,181,"2066 ARBOR FOREST DRIVE SW, MARIETTA, GA, 30064","Match","Exact","2066 ARBOR FOREST DR SW, MARIETTA, GA, 30064",17203318,"L"
110682,"2066 BELLINGHAM","CANTON","MI",48188,42.2910796530001,-83.4746968429999,182,"2066 BELLINGHAM, CANTON, MI, 48188","Match","Non_Exact","2066 BELLINGHAM ST, CANTON, MI, 48188",95409453,"R"
110683,"2066 NORTH SHORE DR SE  APT 201","KENTWOOD","MI",49508,42.8761809280001,-85.614045113,183,"2066 NORTH SHORE DR SE  APT 201, KENTWOOD, MI, 49508","Match","Exact","2066 N SHORE DR SE, KENTWOOD, MI, 49508",12498492,"L"
110684,"2066 UNIVERSITY AVE","BERKELEY","CA",94704,37.8719945450001,-122.269314673,184,"2066 UNIVERSITY AVE, BERKELEY, CA, 94704","Match","Exact","2066 UNIVERSITY AVE, BERKELEY, CA, 94704",124994022,"R"
110685,"2066 WESTOVER PLANTATION","DUNWOODY","GA",30338,33.9476879260001,-84.303066964,185,"2066 WESTOVER PLANTATION, DUNWOODY, GA, 30338","Match","Exact","2066 WESTOVER PLANTATION, DUNWOODY, GA, 30338",23391816,"R"
110686,"2066","ORLANDO","FL",32802,NA,NA,186,"2066, ORLANDO, FL, 32802","No_Match",NA,NA,NA,NA
110687,"20660 BRADFORD COURT","SOUTHFIELD","MI",48076,42.4905529120001,-83.247866415,187,"20660 BRADFORD COURT, SOUTHFIELD, MI, 48076","Match","Exact","20660 BRADFORD CT, SOUTHFIELD, MI, 48076",69738956,"R"
110688,"20660 STEVENS CREEK BLVD 147","CUPERTINO","CA",95014,37.3228039530001,-122.034451166,188,"20660 STEVENS CREEK BLVD 147, CUPERTINO, CA, 95014","Match","Exact","20660 STEVENS CREEK BLVD, CUPERTINO, CA, 95014",123176782,"L"
110689,"20660 STEVENS CREEK BLVD ST 210","CUPERTINO","CA",95014,37.3228039530001,-122.034451166,189,"20660 STEVENS CREEK BLVD ST 210, CUPERTINO, CA, 95014","Match","Exact","20660 STEVENS CREEK BLVD, CUPERTINO, CA, 95014",123176782,"L"
110690,"20660 STEVENS CREEK BOULEVARD - 172","CUPERTINO","CA",95014,37.3228039530001,-122.034451166,190,"20660 STEVENS CREEK BOULEVARD - 172, CUPERTINO, CA, 95014","Match","Exact","20660 STEVENS CREEK BLVD, CUPERTINO, CA, 95014",123176782,"L"
110691,"206602","NEW HAVEN","CT",6520,NA,NA,191,"206602, NEW HAVEN, CT, 6520","No_Match",NA,NA,NA,NA
110692,"20661 GROVELINE CT","ESTERO","FL",33928,26.438584341,-81.804312432,192,"20661 GROVELINE CT, ESTERO, FL, 33928","Match","Exact","20661 GROVELINE CT, ESTERO, FL, 33928",118052333,"L"
110693,"20661 WHITE TAIL CT","GOSHEN","NY",46528,NA,NA,193,"20661 WHITE TAIL CT, GOSHEN, NY, 46528","No_Match",NA,NA,NA,NA
110694,"2067 5TH ST","SANTA FE","NM",87505,35.655576539,-105.967275859,194,"2067 5TH ST, SANTA FE, NM, 87505","Match","Exact","2067 5TH ST, SANTA FE, NM, 87505",645241236,"L"
110695,"2067 ALAMEDA DIABLO","DIABLO","CA",94528,NA,NA,195,"2067 ALAMEDA DIABLO, DIABLO, CA, 94528","No_Match",NA,NA,NA,NA
110696,"2067 E SHAW AVE APT J","FRESNO","CA",93710,36.808586833,-119.752691005,196,"2067 E SHAW AVE APT J, FRESNO, CA, 93710","Match","Non_Exact","2067 E SHAW AVE, FRESNO, CA, 93710",197576970,"R"
110697,"2067 EAST 1400 SOUTH","SPANISH FORK","UT",84660,40.0918588010001,-111.619707041,197,"2067 EAST 1400 SOUTH, SPANISH FORK, UT, 84660","Match","Exact","2067 E 1400 S, SPANISH FORK, UT, 84660",134321219,"L"
110698,"2067 KETTERING ROAD","HOFFMAN ESTATES","IL",60169,42.06128126,-88.130510739,198,"2067 KETTERING ROAD, HOFFMAN ESTATES, IL, 60169","Match","Exact","2067 KETTERING RD, HOFFMAN EST, IL, 60169",111691091,"L"
110699,"2067 LAKE FOREST DRIVE","GROVETOWN","GA",30813,33.4540235600001,-82.214776902,199,"2067 LAKE FOREST DRIVE, GROVETOWN, GA, 30813","Match","Exact","2067 LAKE FOREST DR, GROVETOWN, GA, 30813",55389626,"L"
110700,"2067 LUMBERJACK","CEDAR CITY","UT",84721,37.715041125,-113.037160711,200,"2067 LUMBERJACK, CEDAR CITY, UT, 84721","Match","Non_Exact","2067 LUMBERJACK WAY, CEDAR CITY, UT, 84721",640968639,"L"
110701,"2067 NORFOLK RD","NORTHFIELD","IL",60093,NA,NA,201,"2067 NORFOLK RD, NORTHFIELD, IL, 60093","No_Match",NA,NA,NA,NA
110702,"2067 NORFORK ROAD","NORTHFIELD","IL",60093,NA,NA,202,"2067 NORFORK ROAD, NORTHFIELD, IL, 60093","No_Match",NA,NA,NA,NA
110703,"2067 NORTH ANDREWS CIRCLE -A","COLUMBUS","GA",31903,32.449053474,-84.9626031019999,203,"2067 NORTH ANDREWS CIRCLE -A, COLUMBUS, GA, 31903","Match","Exact","2067 N ANDREWS CIR, COLUMBUS, GA, 31903",98941856,"L"
110704,"2067 SUNDANCE AVE","MANTECA","CA",95337,37.771458448,-121.20968588,204,"2067 SUNDANCE AVE, MANTECA, CA, 95337","Match","Exact","2067 SUNDANCE AVE, MANTECA, CA, 95337",133931437,"R"
110705,"2067 TERRACE GLEN GOURT","BEAVERCREEK","OH",45431,39.748799137,-84.033967602,205,"2067 TERRACE GLEN GOURT, BEAVERCREEK, OH, 45431","Match","Non_Exact","2067 TERRACE GLEN CT, BEAVERCREEK, OH, 45431",143391486,"L"
110706,"2067 WOODLAND RD","KAMIAH","ID",83536,46.31087245,-116.067484404,206,"2067 WOODLAND RD, KAMIAH, ID, 83536","Match","Exact","2067 WOODLAND RD, KAMIAH, ID, 83536",195905279,"R"
110707,"20670 HWY 17","WAYNESVILLE","MO",65583,NA,NA,207,"20670 HWY 17, WAYNESVILLE, MO, 65583","No_Match",NA,NA,NA,NA
110708,"2068 CAREFREE LN","FLORISSANT","MO",63033,38.804831655,-90.2956803869999,208,"2068 CAREFREE LN, FLORISSANT, MO, 63033","Match","Exact","2068 CAREFREE LN, FLORISSANT, MO, 63033",100173088,"R"
110709,"2068 COUNTY ROAD 2175","JEROMESVILLE","OH",44840,40.758685255,-82.230486727,209,"2068 COUNTY ROAD 2175, JEROMESVILLE, OH, 44840","Match","Exact","2068 CO RD 2175, JEROMESVILLE, OH, 44840",30163273,"L"
110710,"2068 GARDNER CIRCLE EAST","AURORA","IL",60503,41.717761728,-88.250303354,210,"2068 GARDNER CIRCLE EAST, AURORA, IL, 60503","Match","Exact","2068 GARDNER CIR E, AURORA, IL, 60503",111626363,"R"
110711,"2068 GREENFIELD RD","AFTON","VA",22920,37.942251104,-78.805544191,211,"2068 GREENFIELD RD, AFTON, VA, 22920","Match","Exact","2068 GREENFIELD RD, AFTON, VA, 22920",98906339,"R"
110712,"2068 LANDSTOWN CENTRE WAY","VIRGINIA BEACH","VA",23456,36.7708868120001,-76.089167189,212,"2068 LANDSTOWN CENTRE WAY, VIRGINIA BEACH, VA, 23456","Match","Exact","2068 LANDSTOWN CENTER WAY, VA BCH, VA, 23456",643360868,"R"
110713,"2068 MAHONING AVE NW","WARREN","OH",44483,41.254305318,-80.8309279279999,213,"2068 MAHONING AVE NW, WARREN, OH, 44483","Match","Exact","2068 MAHONING AVE NW, WARREN, OH, 44483",117404728,"L"
110714,"2068 MICHIGAN AVE","DETROIT","MI",48216,42.331379982,-83.07448915,214,"2068 MICHIGAN AVE, DETROIT, MI, 48216","Match","Exact","2068 MICHIGAN AVE, DETROIT, MI, 48216",95478632,"R"
110715,"2068 MURRY TRAIL","MORROW","GA",30260,33.5880967730001,-84.323090166,215,"2068 MURRY TRAIL, MORROW, GA, 30260","Match","Exact","2068 MURRY TRL, MORROW, GA, 30260",624816424,"L"
110716,"2068 PARKLAWN DRIVE","LEWIS CENTER","OH",43035,40.1945181290001,-82.994285115,216,"2068 PARKLAWN DRIVE, LEWIS CENTER, OH, 43035","Match","Exact","2068 PARKLAWN DR, LEWIS CENTER, OH, 43035",652486678,"L"
110717,"2068 SHILOH CHURCH RD","BEDFORD","VA",24523,37.3255373800001,-79.46970608,217,"2068 SHILOH CHURCH RD, BEDFORD, VA, 24523","Match","Exact","2068 SHILOH CHURCH RD, BEDFORD, VA, 24523",62679005,"L"
110718,"20681 BEACHWOOD DRIVE","ROCKY RIVER","OH",44116,41.4790764850001,-81.8494424089999,218,"20681 BEACHWOOD DRIVE, ROCKY RIVER, OH, 44116","Match","Exact","20681 BEACHWOOD DR, ROCKY RIVER, OH, 44116",61097450,"L"
110719,"20682 SCOFIELD DR","CUPERTINO","CA",95014,37.321051094,-122.035025507,219,"20682 SCOFIELD DR, CUPERTINO, CA, 95014","Match","Exact","20682 SCOFIELD DR, CUPERTINO, CA, 95014",122939880,"L"
110720,"20685 LYNN DRIVE","PRIOR LAKE","MN",55372,44.650918774,-93.335888975,220,"20685 LYNN DRIVE, PRIOR LAKE, MN, 55372","Match","Exact","20685 LYNN DR, PRIOR LAKE, MN, 55372",38148525,"R"
110721,"20687 AMAR RD STE 2-334","WALNUT","CA",91789,NA,NA,221,"20687 AMAR RD STE 2-334, WALNUT, CA, 91789","No_Match",NA,NA,NA,NA
110722,"20687 CRAIG CT","CUPERTINO","CA",95014,37.317822377,-122.035488554,222,"20687 CRAIG CT, CUPERTINO, CA, 95014","Match","Exact","20687 CRAIG CT, CUPERTINO, CA, 95014",122940278,"R"
110723,"2069 COOPER LAKES DRIVE","GRAYSON","GA",30017,33.897250559,-83.972853808,223,"2069 COOPER LAKES DRIVE, GRAYSON, GA, 30017","Match","Exact","2069 COOPER LAKES DR, GRAYSON, GA, 30017",634064683,"R"
110724,"2069 COUNTY ROAD 4290","SALEM","MO",65560,37.6521017630001,-91.3354113239999,224,"2069 COUNTY ROAD 4290, SALEM, MO, 65560","Match","Exact","2069 CO RD 4290, SALEM, MO, 65560",45191851,"L"
110725,"2069 INYO STREET","MOJAVE","CA",93501,35.053286714,-118.169346619,225,"2069 INYO STREET, MOJAVE, CA, 93501","Match","Exact","2069 INYO ST, MOJAVE, CA, 93501",109119502,"L"
110726,"2069 JOHNSON LANE","BENTON","AR",72019,34.565263547,-92.639774861,226,"2069 JOHNSON LANE, BENTON, AR, 72019","Match","Exact","2069 JOHNSON LN, BENTON, AR, 72019",24204053,"L"
110727,"2069 NE COLLINS CIR APT 7-1","JENSEN BEACH","FL",34957,27.228790272,-80.236923326,227,"2069 NE COLLINS CIR APT 7-1, JENSEN BEACH, FL, 34957","Match","Non_Exact","2069 NE COLLINS CIR, JENSEN BEACH, FL, 34957",120435837,"L"
110728,"2069 RIO GRANDE CANYON LOOP","KISSIMMEE","FL",34759,28.0378734490001,-81.517522863,228,"2069 RIO GRANDE CANYON LOOP, KISSIMMEE, FL, 34759","Match","Exact","2069 RIO GRANDE CANYON LOOP, KISSIMMEE, FL, 34759",104870840,"L"
110729,"2069 RT 211","OTISVILLE","NY",10963,41.476473341,-74.54423425,229,"2069 RT 211, OTISVILLE, NY, 10963","Match","Non_Exact","2069 STATE RTE 211, OTISVILLE, NY, 10963",124491480,"L"
110730,"2069 SAILMAKER DR","LEWISVILLE","TX",75067,33.0109379140001,-97.005474758,230,"2069 SAILMAKER DR, LEWISVILLE, TX, 75067","Match","Exact","2069 SAILMAKER DR, LEWISVILLE, TX, 75067",103372418,"L"
110731,"2069 SAN BERNARDINO AVE NO 1162","COLTON","CA",92324,NA,NA,231,"2069 SAN BERNARDINO AVE NO 1162, COLTON, CA, 92324","No_Match",NA,NA,NA,NA
110732,"2069 UNION STREET 2H","BROOKLYN","NY",11212,40.665744912,-73.921422688,232,"2069 UNION STREET 2H, BROOKLYN, NY, 11212","Match","Exact","2069 UNION ST, BROOKLYN, NY, 11212",59083463,"L"
110733,"2069 WEST FLORENCE AVE","LOS ANGELES","CA",90047,33.9745870990001,-118.315618478,233,"2069 WEST FLORENCE AVE, LOS ANGELES, CA, 90047","Match","Exact","2069 W FLORENCE AVE, LOS ANGELES, CA, 90047",141658139,"R"
110734,"20690 CENTURYWAY RD","MAPLE HEIGHTS","OH",44137,41.412753094,-81.5336633699999,234,"20690 CENTURYWAY RD, MAPLE HEIGHTS, OH, 44137","Match","Exact","20690 CENTURYWAY RD, MAPLE HEIGHTS, OH, 44137",61130192,"R"
110735,"20690 S W 36TH STREET","DUNNELLON","FL",34431,29.153189475,-82.4634251849999,235,"20690 S W 36TH STREET, DUNNELLON, FL, 34431","Match","Exact","20690 SW 36TH ST, DUNNELLON, FL, 34431",116820866,"L"
110736,"20691 JUSTICE LANE","BEND","OR",97701,44.099696313,-121.288327495,236,"20691 JUSTICE LANE, BEND, OR, 97701","Match","Exact","20691 JUSTICE LN, BEND, OR, 97701",611082141,"L"
110737,"20698 SE COUGAR PEAK","BEND","OR",97702,44.0184799850001,-121.293018752,237,"20698 SE COUGAR PEAK, BEND, OR, 97702","Match","Non_Exact","20698 SE COUGAR PEAK DR, BEND, OR, 97702",643326962,"L"
110738,"20699 TALLY HO COURT","ASHBURN","VA",20147,39.0435836550001,-77.482107915,238,"20699 TALLY HO COURT, ASHBURN, VA, 20147","Match","Exact","20699 TALLY HO CT, ASHBURN, VA, 20147",62336235,"L"
110739,"206B GRANT AVENUE","CLIFFSIDE PARK","NJ",7010,40.8260242010001,-73.982459594,239,"206B GRANT AVENUE, CLIFFSIDE PARK, NJ, 7010","Match","Exact","206 GRANT AVE, CLIFFSIDE PARK, NJ, 07010",64391472,"L"
110740,"207 116TH PL","LOS ANGELES","CA",90061,NA,NA,240,"207 116TH PL, LOS ANGELES, CA, 90061","Tie",NA,NA,NA,NA
110741,"207 4TH AVENUE","BALTIMORE","MD",21225,39.230323169,-76.616248889,241,"207 4TH AVENUE, BALTIMORE, MD, 21225","Match","Exact","207 4TH AVE, BALTIMORE, MD, 21225",68154613,"L"
110742,"207 5TH AVENUE","SALT LAKE CITY","UT",84103,40.7751261230001,-111.883264733,242,"207 5TH AVENUE, SALT LAKE CITY, UT, 84103","Match","Non_Exact","207 E 5TH AVE, SALT LAKE CITY, UT, 84103",176067473,"L"
110743,"207 5TH JPV STREET","WINTER HAVEN","FL",33880,28.017818785,-81.776585185,243,"207 5TH JPV STREET, WINTER HAVEN, FL, 33880","Match","Exact","207 5TH JPV ST, WINTER HAVEN, FL, 33880",104822286,"L"
110744,"207 6TH ST","SHERRARD","IL",61281,41.3163527410001,-90.504165405,244,"207 6TH ST, SHERRARD, IL, 61281","Match","Exact","207 6TH ST, SHERRARD, IL, 61281",612278731,"R"
110745,"207 7TH STREET NE","DEVILS LAKE","ND",58301,48.114849501,-98.863388834,245,"207 7TH STREET NE, DEVILS LAKE, ND, 58301","Match","Exact","207 7TH ST NE, DEVILS LAKE, ND, 58301",181172774,"R"
110746,"207 ANVIL DRAW PLACE","ROCK HILL","SC",29730,34.892733552,-81.052574659,246,"207 ANVIL DRAW PLACE, ROCK HILL, SC, 29730","Match","Exact","207 ANVIL DRAW PL, ROCK HILL, SC, 29730",645371339,"R"
110747,"207 ARDEA WAY","TALLAHASSEE","FL",32312,30.547388964,-84.2738135439999,247,"207 ARDEA WAY, TALLAHASSEE, FL, 32312","Match","Exact","207 ARDEA WAY, TALLAHASSEE, FL, 32312",82890789,"L"
110748,"207 ARROWHEAD LANE","GEORGETOWN","TX",78628,30.6735498520001,-97.690063921,248,"207 ARROWHEAD LANE, GEORGETOWN, TX, 78628","Match","Exact","207 ARROWHEAD LN, GEORGETOWN, TX, 78628",126478179,"L"
110749,"207 B ST","TIMBERLAKE","SD",57656,NA,NA,249,"207 B ST, TIMBERLAKE, SD, 57656","No_Match",NA,NA,NA,NA
110750,"207 BALDWIN AVENUE","BELEN","NM",87002,34.6446330310001,-106.72493619,250,"207 BALDWIN AVENUE, BELEN, NM, 87002","Match","Exact","207 BALDWIN AVE, BELEN, NM, 87002",179199464,"R"
110751,"207 BANKS STA BLDG 665","FAYETTEVILLE","GA",30214,NA,NA,251,"207 BANKS STA BLDG 665, FAYETTEVILLE, GA, 30214","Tie",NA,NA,NA,NA
110752,"207 BANKS STATION SUITE 695","FAYETTEVILLE","GA",30214,NA,NA,252,"207 BANKS STATION SUITE 695, FAYETTEVILLE, GA, 30214","Tie",NA,NA,NA,NA
110753,"207 BANYAN DR","LAKE JACKSON","TX",77566,29.045035598,-95.438602986,253,"207 BANYAN DR, LAKE JACKSON, TX, 77566","Match","Exact","207 BANYAN DR, LAKE JACKSON, TX, 77566",116574456,"R"
110754,"207 BARNWELL LANE","PALMYRA","PA",17078,40.2753265650001,-76.573376135,254,"207 BARNWELL LANE, PALMYRA, PA, 17078","Match","Exact","207 BARNWELL LN, PALMYRA, PA, 17078",611344441,"L"
110755,"207 BAYVIEW DRIVE","PARDEEVILLE","WI",53954,43.545388245,-89.3013010879999,255,"207 BAYVIEW DRIVE, PARDEEVILLE, WI, 53954","Match","Exact","207 BAYVIEW DR, PARDEEVILLE, WI, 53954",73336602,"R"
110756,"207 BEATTIE ST","SIMPSONVILLE","SC",29681,34.736338571,-82.260940771,256,"207 BEATTIE ST, SIMPSONVILLE, SC, 29681","Match","Exact","207 BEATTIE ST, SIMPSONVILLE, SC, 29681",38312948,"R"
110757,"207 BELGIAN DRIVE","SPRING CITY","PA",19475,40.173061159,-75.585700022,257,"207 BELGIAN DRIVE, SPRING CITY, PA, 19475","Match","Exact","207 BELGIAN DR, SPRING CITY, PA, 19475",179535754,"L"
110758,"207 BERRY LANE","PELHAM","AL",35124,33.300910296,-86.7869465859999,258,"207 BERRY LANE, PELHAM, AL, 35124","Match","Exact","207 BERRY LN, PELHAM, AL, 35124",82099204,"L"
110759,"207 BETTYRAE WAY","DALLAS","TX",75232,32.652774897,-96.824567883,259,"207 BETTYRAE WAY, DALLAS, TX, 75232","Match","Exact","207 BETTYRAE WAY, DALLAS, TX, 75232",102953111,"R"
110760,"207 BIG ROAD NUM 91","ZIEGLERVILLE","PA",19492,40.2794608080001,-75.496184633,260,"207 BIG ROAD NUM 91, ZIEGLERVILLE, PA, 19492","Match","Exact","207 BIG RD, ZIEGLERVILLE, PA, 19492",135065041,"L"
110761,"207 BLACKMON STREET","MEDINA","TN",38355,35.804685158,-88.7918428249999,261,"207 BLACKMON STREET, MEDINA, TN, 38355","Match","Exact","207 BLACKMON ST, MEDINA, TN, 38355",616273255,"L"
110762,"207 BOEING CT","LIVERMORE","CA",94551,37.69088566,-121.799639754,262,"207 BOEING CT, LIVERMORE, CA, 94551","Match","Exact","207 BOEING CT, LIVERMORE, CA, 94551",125064505,"R"
110763,"207 BROAD STREET","ROLFE","IA",50581,42.812750742,-94.5246168579999,263,"207 BROAD STREET, ROLFE, IA, 50581","Match","Exact","207 BROAD ST, ROLFE, IA, 50581",77482062,"R"
110764,"207 BROOK STREET","Framingham","MA",1701,42.321300529,-71.4211902819999,264,"207 BROOK STREET, Framingham, MA, 1701","Match","Exact","207 BROOK ST, FRAMINGHAM, MA, 01701",86847849,"R"
110765,"207 BROOK WIND DRIVE","HAZEL GREEN","AL",35750,34.9552456760001,-86.584344646,265,"207 BROOK WIND DRIVE, HAZEL GREEN, AL, 35750","Match","Exact","207 BROOK WIND DR, HAZEL GREEN, AL, 35750",58142219,"L"
110766,"207 BROOKSIDE ST","SWEETWATER","TN",37874,35.5954268830001,-84.458678675,266,"207 BROOKSIDE ST, SWEETWATER, TN, 37874","Match","Exact","207 BROOKSIDE ST, SWEETWATER, TN, 37874",85298256,"R"
110767,"207 BUTLER STREET","MCCOMB","MS",39648,31.245689676,-90.470148428,267,"207 BUTLER STREET, MCCOMB, MS, 39648","Match","Exact","207 BUTLER ST, MCCOMB, MS, 39648",75858229,"R"
110768,"207 CAMBRIDGE ROAD","GAP","PA",17527,40.0496804040001,-75.99117689,268,"207 CAMBRIDGE ROAD, GAP, PA, 17527","Match","Exact","207 CAMBRIDGE RD, GAP, PA, 17527",623933311,"R"
110769,"207 CAMINO ARROYO NORTH","PALM DESERT","CA",92206,NA,NA,269,"207 CAMINO ARROYO NORTH, PALM DESERT, CA, 92206","No_Match",NA,NA,NA,NA
110770,"207 CARRWOOD RD","GREAT FALLS","VA",22066,39.028741181,-77.275081292,270,"207 CARRWOOD RD, GREAT FALLS, VA, 22066","Match","Exact","207 CARRWOOD RD, GREAT FALLS, VA, 22066",653497635,"L"
110771,"207 CASSADY STREET","VALLEJO","CA",94590,38.107428317,-122.240443492,271,"207 CASSADY STREET, VALLEJO, CA, 94590","Match","Exact","207 CASSADY ST, VALLEJO, CA, 94590",192527978,"R"
110772,"207 CENTER PARK DR SUITE 2130","KNOXVILLE","TN",37922,35.9074440000001,-84.121285703,272,"207 CENTER PARK DR SUITE 2130, KNOXVILLE, TN, 37922","Match","Exact","207 CENTER PARK DR, KNOXVILLE, TN, 37922",640164634,"R"
110773,"207 CHURCH STREET SE LIND HALL 109","MINNEAPOLIS","MN",55455,44.9748518110001,-93.233856358,273,"207 CHURCH STREET SE LIND HALL 109, MINNEAPOLIS, MN, 55455","Match","Exact","207 CHURCH ST SE, MINNEAPOLIS, MN, 55455",647741779,"L"
110774,"207 CHURCH STREET","LYNCHBURG","SC",29080,34.0627888590001,-80.074134514,274,"207 CHURCH STREET, LYNCHBURG, SC, 29080","Match","Exact","207 CHURCH ST, LYNCHBURG, SC, 29080",633642915,"R"
110775,"207 COMMUNITY DR","BEDFORD","IN",47421,NA,NA,275,"207 COMMUNITY DR, BEDFORD, IN, 47421","No_Match",NA,NA,NA,NA
110776,"207 COUNTRY CLUB LANE","BROCKTON","MA",2301,42.0541880930001,-71.0249764389999,276,"207 COUNTRY CLUB LANE, BROCKTON, MA, 2301","Match","Exact","207 COUNTRY CLUB LN, BROCKTON, MA, 02301",87444437,"R"
110777,"207 COUNTRY CLUB PARKWAY","MAUMELLE","AR",72113,34.841463418,-92.400458672,277,"207 COUNTRY CLUB PARKWAY, MAUMELLE, AR, 72113","Match","Exact","207 COUNTRY CLUB PKWY, MAUMELLE, AR, 72113",83537810,"L"
110778,"207 COXE AVE","ASHEVILLE","NC",28801,35.588720107,-82.554714642,278,"207 COXE AVE, ASHEVILLE, NC, 28801","Match","Exact","207 COXE AVE, ASHEVILLE, NC, 28801",36845596,"R"
110779,"207 CRESCENT AVENUE","SUMTER","SC",29150,33.9309906830001,-80.3442188129999,279,"207 CRESCENT AVENUE, SUMTER, SC, 29150","Match","Exact","207 CRESCENT AVE, SUMTER, SC, 29150",202669265,"R"
110780,"207 CYPRESS AVE","WRIGHTSVILLE BEACH","NC",28480,34.208468189,-77.803096368,280,"207 CYPRESS AVE, WRIGHTSVILLE BEACH, NC, 28480","Match","Exact","207 CYPRESS AVE, WRIGHTSVILLE BEACH, NC, 28480",152737014,"L"
110781,"207 CYPRUS DR","BUTTE","MT",59701,45.914603023,-112.478735594,281,"207 CYPRUS DR, BUTTE, MT, 59701","Match","Exact","207 CYPRUS DR, BUTTE, MT, 59701",153582379,"R"
110782,"207 DANIELLE DR","BENTON","LA",71006,32.655181466,-93.678441375,282,"207 DANIELLE DR, BENTON, LA, 71006","Match","Exact","207 DANIELLE DR, BENTON, LA, 71006",651480967,"L"
110783,"207 DANTON DR","CARY","NC",27518,35.738529622,-78.750428895,283,"207 DANTON DR, CARY, NC, 27518","Match","Exact","207 DANTON DR, CARY, NC, 27518",72590964,"R"
110784,"207 DEER RUN ST","PLEASANTON","TX",78064,28.9822800900001,-98.527556058,284,"207 DEER RUN ST, PLEASANTON, TX, 78064","Match","Exact","207 DEER RUN ST, PLEASANTON, TX, 78064",641383210,"R"
110785,"207 DENNIS LN","ST CLAIRSVILLE","OH",43950,40.0741933940001,-80.895822257,285,"207 DENNIS LN, ST CLAIRSVILLE, OH, 43950","Match","Exact","207 DENNIS LN, SAINT CLAIRSVILLE, OH, 43950",36229861,"R"
110786,"207 DESERT VIEW","HOLBROOK","AZ",86025,34.9257841100001,-110.139112645,286,"207 DESERT VIEW, HOLBROOK, AZ, 86025","Match","Non_Exact","207 DESERT VIEW DR, HOLBROOK, AZ, 86025",172584199,"R"
110787,"207 DOLLEY MADISON RD","GREENSBORO","NC",27410,36.080339721,-79.8895733479999,287,"207 DOLLEY MADISON RD, GREENSBORO, NC, 27410","Match","Exact","207 DOLLEY MADISON RD, GREENSBORO, NC, 27410",131026436,"L"
110788,"207 DOVER AVENUE","EGG HARBOR TOWNSHIP","NJ",8234,39.358928905,-74.6258727759999,288,"207 DOVER AVENUE, EGG HARBOR TOWNSHIP, NJ, 8234","Match","Exact","207 DOVER AVE, EGG HARBOR TOWNSHIP, NJ, 08234",202481849,"R"
110789,"207 DRAKE AVENUE","NEW ROCHELLE","NY",10805,40.8968906850001,-73.784733218,289,"207 DRAKE AVENUE, NEW ROCHELLE, NY, 10805","Match","Exact","207 DRAKE AVE, NEW ROCHELLE, NY, 10805",139751346,"R"
110790,"207 DURWARD RD","AKRON","OH",44313,41.119681825,-81.602826358,290,"207 DURWARD RD, AKRON, OH, 44313","Match","Exact","207 DURWARD RD, AKRON, OH, 44313",61337065,"L"
110791,"207 DYKE CIRCLE","PAGOSA SPRINGS","CO",81147,37.2276017900001,-107.180708056,291,"207 DYKE CIRCLE, PAGOSA SPRINGS, CO, 81147","Match","Exact","207 DYKE CIR, PAGOSA SPRINGS, CO, 81147",127323923,"R"
110792,"207 E 1ST N ST","SUMMERVILLE","SC",29483,33.0206819220001,-80.172267177,292,"207 E 1ST N ST, SUMMERVILLE, SC, 29483","Match","Exact","207 E 1ST NORTH ST, SUMMERVILLE, SC, 29483",178459941,"L"
110793,"207 E 2ND AVE APT D-2","EASLEY","SC",29460,NA,NA,293,"207 E 2ND AVE APT D-2, EASLEY, SC, 29460","No_Match",NA,NA,NA,NA
110794,"207 E 31ST ST STE 2B","CHICAGO","IL",60616,NA,NA,294,"207 E 31ST ST STE 2B, CHICAGO, IL, 60616","Tie",NA,NA,NA,NA
110795,"207 E 550N RD","GIBSON CITY","IL",60936,40.478865016,-88.420455222,295,"207 E 550N RD, GIBSON CITY, IL, 60936","Match","Exact","207 E 550N RD, GIBSON CITY, IL, 60936",22342917,"L"
110796,"207 E 5TH AVE SUITE 263","EUGENE","OR",97401,NA,NA,296,"207 E 5TH AVE SUITE 263, EUGENE, OR, 97401","Tie",NA,NA,NA,NA
110797,"207 E ALLISON RD","CHEYENNE","WY",82007,41.109552437,-104.799110503,297,"207 E ALLISON RD, CHEYENNE, WY, 82007","Match","Exact","207 E ALLISON RD, CHEYENNE, WY, 82007",160152352,"R"
110798,"207 E CARDINAL ROAD","WILDWOOD CREST","NJ",8260,NA,NA,298,"207 E CARDINAL ROAD, WILDWOOD CREST, NJ, 8260","Tie",NA,NA,NA,NA
110799,"207 E CEDAR","WARREN","AR",71671,33.6144084380001,-92.062920226,299,"207 E CEDAR, WARREN, AR, 71671","Match","Non_Exact","207 E CEDAR ST, WARREN, AR, 71671",2312727,"R"
110800,"207 E FIRST AVE","FLANDREAU","SD",57028,44.0505113310001,-96.593184016,300,"207 E FIRST AVE, FLANDREAU, SD, 57028","Match","Exact","207 E 1ST AVE, FLANDREAU, SD, 57028",193666659,"L"
110801,"207 E HIGHWAY ST","VICKSBURG","MI",49097,42.114392029,-85.530750321,301,"207 E HIGHWAY ST, VICKSBURG, MI, 49097","Match","Exact","207 E HIGHWAY ST, VICKSBURG, MI, 49097",12222070,"L"
110802,"207 E KENSINGTON AVENUE APT 1","SALT LAKE CITY","UT",84115,40.736788457,-111.885069742,302,"207 E KENSINGTON AVENUE APT 1, SALT LAKE CITY, UT, 84115","Match","Non_Exact","207 E KENSINGTON AVE, SALT LAKE CITY, UT, 84115",176078275,"L"
110803,"207 E LAKE ST SUITE 300","MINNEAPOLIS","MN",55408,NA,NA,303,"207 E LAKE ST SUITE 300, MINNEAPOLIS, MN, 55408","Tie",NA,NA,NA,NA
110804,"207 E LINCOLN ST","GREENUP","IL",62428,39.2446189300001,-88.1614770049999,304,"207 E LINCOLN ST, GREENUP, IL, 62428","Match","Non_Exact","207 E LINCOLN DR, GREENUP, IL, 62428",5714305,"R"
110805,"207 E MAIN ST","FRANCISCO","IN",47649,38.332146655,-87.44424427,305,"207 E MAIN ST, FRANCISCO, IN, 47649","Match","Exact","207 E MAIN ST, FRANCISCO, IN, 47649",36373916,"L"
110806,"207 E MAIN ST","HORSE CAVE","KY",42749,37.1793242900001,-85.904870891,306,"207 E MAIN ST, HORSE CAVE, KY, 42749","Match","Exact","207 E MAIN ST, HORSE CAVE, KY, 42749",96809523,"L"
110807,"207 E OHIO ST 434","CHICAGO","IL",60611,41.892559297,-87.622453524,307,"207 E OHIO ST 434, CHICAGO, IL, 60611","Match","Non_Exact","207 E OHIO ST, CHICAGO, IL, 60611",605072984,"R"
110808,"207 E OHIO ST BOX 437","CHICAGO","IL",60611,41.892559297,-87.622453524,308,"207 E OHIO ST BOX 437, CHICAGO, IL, 60611","Match","Non_Exact","207 E OHIO ST, CHICAGO, IL, 60611",605072984,"R"
110809,"207 E OHIO STREET","CHICAGO","IL",60611,41.892559297,-87.622453524,309,"207 E OHIO STREET, CHICAGO, IL, 60611","Match","Exact","207 E OHIO ST, CHICAGO, IL, 60611",605072984,"R"
110810,"207 EAST 1300 SOUTH","SALT LAKE","UT",84115,40.7416284020001,-111.885055186,310,"207 EAST 1300 SOUTH, SALT LAKE, UT, 84115","Match","Non_Exact","207 E 1300 S, S SALT LAKE, UT, 84115",176078265,"L"
110811,"207 EAST 32ND STREET","NEW YORK","NY",10016,40.7443218110001,-73.978749034,311,"207 EAST 32ND STREET, NEW YORK, NY, 10016","Match","Exact","207 E 32ND ST, NEW YORK, NY, 10016",59654442,"L"
110812,"207 EAST 5TH AVENUE SUITE 258","EUGENE","OR",97401,44.054325109,-123.089506853,312,"207 EAST 5TH AVENUE SUITE 258, EUGENE, OR, 97401","Match","Exact","207 E 5TH AVE, EUGENE, OR, 97401",178167098,"L"
110813,"207 EAST CHESTNUT ST APT 1","JOHNSON CITY","TN",37601,36.3114005100001,-82.344771458,313,"207 EAST CHESTNUT ST APT 1, JOHNSON CITY, TN, 37601","Match","Exact","207 E CHESTNUT ST, JOHNSON CITY, TN, 37601",607253816,"L"
110814,"207 EAST INTERSTATE 30","ROCKWALL","TX",75087,NA,NA,314,"207 EAST INTERSTATE 30, ROCKWALL, TX, 75087","No_Match",NA,NA,NA,NA
110815,"207 EAST LINCOLN STREET","CHARLEVOIX","MI",49720,45.312321566,-85.2551220459999,315,"207 EAST LINCOLN STREET, CHARLEVOIX, MI, 49720","Match","Non_Exact","207 E LINCOLN AVE, CHARLEVOIX, MI, 49720",134483548,"R"
110816,"207 EAST MICHIGAN AVENUE","THREE RIVERS","MI",49093,41.944672923,-85.6271164899999,316,"207 EAST MICHIGAN AVENUE, THREE RIVERS, MI, 49093","Match","Exact","207 E MICHIGAN AVE, THREE RIVERS, MI, 49093",15312373,"R"
110817,"207 EAST NORTH 1ST STREET SUITE D","SENECA","SC",29678,34.68574792,-82.952981853,317,"207 EAST NORTH 1ST STREET SUITE D, SENECA, SC, 29678","Match","Exact","207 E NORTH 1ST ST, SENECA, SC, 29678",25644713,"L"
110818,"207 EAST PARK AVENUE","MILBANK","SD",57252,45.2163630410001,-96.637198812,318,"207 EAST PARK AVENUE, MILBANK, SD, 57252","Match","Exact","207 E PARK AVE, MILBANK, SD, 57252",173689623,"L"
110819,"207 EAST WILSON BOX 53","EVERLY","IA",51338,43.1571792390001,-95.325617055,319,"207 EAST WILSON BOX 53, EVERLY, IA, 51338","Match","Non_Exact","207 E WILSON ST, EVERLY, IA, 51338",82785042,"R"
110820,"207 EATON COURT","GREAT FALLS","VA",22066,39.0189145080001,-77.26094347,320,"207 EATON COURT, GREAT FALLS, VA, 22066","Match","Exact","207 EATON CT, GREAT FALLS, VA, 22066",215925401,"L"
110821,"207 ELKIN STREET","BERE","KY",40403,37.5909373370001,-84.2786933359999,321,"207 ELKIN STREET, BERE, KY, 40403","Match","Non_Exact","207 ELKIN ST, BEREA, KY, 40403",31988909,"R"
110822,"207 ELM AVENUE","EATON","CO",80615,40.52757925,-104.712838486,322,"207 ELM AVENUE, EATON, CO, 80615","Match","Exact","207 ELM AVE, EATON, CO, 80615",188674527,"R"
110823,"207 EVANSTON ST","HOUSTON","TX",77015,29.8010921060001,-95.178101703,323,"207 EVANSTON ST, HOUSTON, TX, 77015","Match","Exact","207 EVANSTON ST, HOUSTON, TX, 77015",96095926,"L"
110824,"207 FAIRMONT AVE","FAIRMONT","WV",26554,39.48177687,-80.147001212,324,"207 FAIRMONT AVE, FAIRMONT, WV, 26554","Match","Exact","207 FAIRMONT AVE, FAIRMONT, WV, 26554",51450811,"L"
110825,"207 FAIRVIEW ST","ESTILL SPRINGS","TN",37330,35.268625033,-86.1287884549999,325,"207 FAIRVIEW ST, ESTILL SPRINGS, TN, 37330","Match","Exact","207 FAIRVIEW ST, ESTILL SPRINGS, TN, 37330",57977846,"R"
110826,"207 FIRST ST / BOX 1227","KALKASKA","MI",49646,44.7274989860001,-85.183239839,326,"207 FIRST ST / BOX 1227, KALKASKA, MI, 49646","Match","Exact","207 1ST ST, KALKASKA, MI, 49646",145930733,"L"
110827,"207 FISH DRIVE","LILLINGTON","NC",27546,NA,NA,327,"207 FISH DRIVE, LILLINGTON, NC, 27546","No_Match",NA,NA,NA,NA
110828,"207 FLORMANN STREET","RAPID CITY","WA",57701,NA,NA,328,"207 FLORMANN STREET, RAPID CITY, WA, 57701","No_Match",NA,NA,NA,NA
110829,"207 FM 1203","BEEVILLE","TX",78102,28.430492631,-98.02673126,329,"207 FM 1203, BEEVILLE, TX, 78102","Match","Exact","207 FM 1203, BEEVILLE, TX, 78102",21573029,"L"
110830,"207 FRANKLIN ST","WRENTHAM","MA",2093,42.0739103110001,-71.330808224,330,"207 FRANKLIN ST, WRENTHAM, MA, 2093","Match","Exact","207 FRANKLIN ST, WRENTHAM, MA, 02093",87300221,"R"
110831,"207 GAYLAND COURT","NASHVILLE","TN",37210,36.157314236,-86.706993026,331,"207 GAYLAND COURT, NASHVILLE, TN, 37210","Match","Exact","207 GAYLAND CT, NASHVILLE, TN, 37210",97195265,"L"
110832,"207 GEORGIAN DRIVE","CINNAMINSON","NJ",8077,39.9919022930001,-74.980597162,332,"207 GEORGIAN DRIVE, CINNAMINSON, NJ, 8077","Match","Exact","207 GEORGIAN DR, CINNAMINSON, NJ, 08077",134026482,"L"
110833,"207 GLEN AVE S","LAKEWOOD","NJ",8701,40.08672132,-74.2380696439999,333,"207 GLEN AVE S, LAKEWOOD, NJ, 8701","Match","Exact","207 GLEN AVE S, LAKEWOOD, NJ, 08701",203768300,"L"
110834,"207 GRANBY STREET SUITE 200","NORFOLK","VA",23321,36.8481583180001,-76.2913947819999,334,"207 GRANBY STREET SUITE 200, NORFOLK, VA, 23321","Match","Non_Exact","207 GRANBY ST, NORFOLK, VA, 23510",122127403,"L"
110835,"207 GRAYWICK WAY","CARY","NC",27513,35.779344624,-78.845015716,335,"207 GRAYWICK WAY, CARY, NC, 27513","Match","Exact","207 GRAYWICK WAY, CARY, NC, 27513",72575186,"L"
110836,"207 HARRIS BOULEVARD","CONROE","TX",77301,30.3321298120001,-95.463163231,336,"207 HARRIS BOULEVARD, CONROE, TX, 77301","Match","Exact","207 HARRIS BLVD, CONROE, TX, 77301",79330834,"R"
110837,"207 HARRISON ST","BLACK RIVER FALLS","WI",54615,44.2962030950001,-90.850553759,337,"207 HARRISON ST, BLACK RIVER FALLS, WI, 54615","Match","Exact","207 HARRISON ST, BLACK RIVER FALLS, WI, 54615",50679367,"R"
110838,"207 HART STREET","TAUNTON","MA",2780,41.883822631,-71.0565870739999,338,"207 HART STREET, TAUNTON, MA, 2780","Match","Exact","207 HART ST, TAUNTON, MA, 02780",46813593,"R"
110839,"207 HARVARD AVE","PT PLEASANT BEACH","NJ",8742,40.09893421,-74.042661972,339,"207 HARVARD AVE, PT PLEASANT BEACH, NJ, 8742","Match","Exact","207 HARVARD AVE, PT PLEASANT BEACH, NJ, 08742",203734543,"R"
110840,"207 HARVEST ROAD","ROANOKE RAPIDS","NC",27870,36.4449088110001,-77.6365396309999,340,"207 HARVEST ROAD, ROANOKE RAPIDS, NC, 27870","Match","Exact","207 HARVEST RD, ROANOKE RAPIDS, NC, 27870",56724673,"R"
110841,"207 HAYMAN LAKE RD","MENDENHALL","MS",39114,32.0088896090001,-89.750983827,341,"207 HAYMAN LAKE RD, MENDENHALL, MS, 39114","Match","Exact","207 HAYMAN LAKE RD, MENDENHALL, MS, 39114",649623642,"L"
110842,"207 HICKMAN DRIVE","BOWLING GREEN","MO",63334,39.3401763590001,-91.1844692719999,342,"207 HICKMAN DRIVE, BOWLING GREEN, MO, 63334","Match","Exact","207 HICKMAN DR, BOWLING GREEN, MO, 63334",44669037,"R"
110843,"207 HICKORY COURT","GREENBRIER","TN",37073,36.411359809,-86.781336423,343,"207 HICKORY COURT, GREENBRIER, TN, 37073","Match","Exact","207 HICKORY CT, GREENBRIER, TN, 37073",97445163,"R"
110844,"207 HIGH POINTE DRIVE","BLYTHEWOOD","SC",29016,34.2194648190001,-80.9925535579999,344,"207 HIGH POINTE DRIVE, BLYTHEWOOD, SC, 29016","Match","Exact","207 HIGH POINTE DR, BLYTHEWOOD, SC, 29016",71868381,"L"
110845,"207 HIGH ST","MODESTO","CA",95354,37.647543254,-120.987875178,345,"207 HIGH ST, MODESTO, CA, 95354","Match","Exact","207 HIGH ST, MODESTO, CA, 95354",102604832,"L"
110846,"207 HIGUERA STREET","SAN LUIS OBISPO","CA",93401,35.26991235,-120.670213771,346,"207 HIGUERA STREET, SAN LUIS OBISPO, CA, 93401","Match","Exact","207 HIGUERA ST, SAN LUIS OBISPO, CA, 93401",109766507,"R"
110847,"207 HOLLY AVE","MOUNT AIRY","NC",27030,36.4647883050001,-80.551563524,347,"207 HOLLY AVE, MOUNT AIRY, NC, 27030","Match","Exact","207 HOLLY AVE, MOUNT AIRY, NC, 27030",154172332,"L"
110848,"207 HOPKINS COURT","NORTH WALES","PA",19454,40.246943575,-75.236566621,348,"207 HOPKINS COURT, NORTH WALES, PA, 19454","Match","Exact","207 HOPKINS CT, NORTH WALES, PA, 19454",645483233,"L"
110849,"207 HUDSON TRACE","AUGUSTA","GA",30907,33.5161637050001,-82.04663802,349,"207 HUDSON TRACE, AUGUSTA, GA, 30907","Match","Exact","207 HUDSON TRCE, AUGUSTA, GA, 30907",55654203,"R"
110850,"207 HUDSON TRCE STE 205","AUGUSTA","GA",30907,33.5161637050001,-82.04663802,350,"207 HUDSON TRCE STE 205, AUGUSTA, GA, 30907","Match","Exact","207 HUDSON TRCE, AUGUSTA, GA, 30907",55654203,"R"
110851,"207 HUNTINGTON DR","ENTERPRISE","AL",36330,31.350097614,-85.860111461,351,"207 HUNTINGTON DR, ENTERPRISE, AL, 36330","Match","Exact","207 HUNTINGTON DR, ENTERPRISE, AL, 36330",99557234,"L"
110852,"207 HWY HH","TUSCUMBIA","MO",65082,38.216283021,-92.4801926389999,352,"207 HWY HH, TUSCUMBIA, MO, 65082","Match","Exact","207 HWY HH, TUSCUMBIA, MO, 65082",143113704,"L"
110853,"207 INDIANA AVENUE","ST. CLOUD","FL",34769,28.2573454980001,-81.2789509149999,353,"207 INDIANA AVENUE, ST. CLOUD, FL, 34769","Match","Exact","207 INDIANA AVE, SAINT CLOUD, FL, 34769",176660525,"L"
110854,"207 INDUSTRY TECHNOLOGY CTR","MURRAY","KY",42071,NA,NA,354,"207 INDUSTRY TECHNOLOGY CTR, MURRAY, KY, 42071","No_Match",NA,NA,NA,NA
110855,"207 JEFFERSON ST","SIMPSON","PA",18407,41.601423579,-75.474322359,355,"207 JEFFERSON ST, SIMPSON, PA, 18407","Match","Exact","207 JEFFERSON ST, SIMPSON, PA, 18407",139348971,"L"
110856,"207 JEFFERSON ST","WASHINGTN","MO",63090,38.5585674060001,-91.011268351,356,"207 JEFFERSON ST, WASHINGTN, MO, 63090","Match","Non_Exact","207 JEFFERSON ST, WASHINGTON, MO, 63090",99717477,"L"
110857,"207 KENSEY ROAD","PLYMOUTH MEETING","PA",19462,40.1094508850001,-75.267223584,357,"207 KENSEY ROAD, PLYMOUTH MEETING, PA, 19462","Match","Exact","207 KENSEY RD, PLYMOUTH MEETING, PA, 19462",605623693,"L"
110858,"207 KENWAY LOOP","MOORESVILLE","NC",28117,35.632854879,-80.903879594,358,"207 KENWAY LOOP, MOORESVILLE, NC, 28117","Match","Exact","207 KENWAY LOOP, MOORESVILLE, NC, 28117",46011329,"R"
110859,"207 KING RD STE 102","FRISCO","TX",75034,33.154632167,-96.914358794,359,"207 KING RD STE 102, FRISCO, TX, 75034","Match","Non_Exact","207 KING RD, FRISCO, TX, 75036",103363368,"L"
110860,"207 KING STREET","ORIENTAL","NC",28571,35.024502909,-76.693927408,360,"207 KING STREET, ORIENTAL, NC, 28571","Match","Exact","207 KING ST, ORIENTAL, NC, 28571",67920155,"L"
110861,"207 LAFEYTTE","WINONA","MN",55987,NA,NA,361,"207 LAFEYTTE, WINONA, MN, 55987","No_Match",NA,NA,NA,NA
110862,"207 LAKESIDE  BLVD","SUGAR LAND","TX",77478,29.615917661,-95.602766278,362,"207 LAKESIDE  BLVD, SUGAR LAND, TX, 77478","Match","Exact","207 LAKESIDE BLVD, SUGAR LAND, TX, 77478",227754497,"R"
110863,"207 LAKEVIEW AVE","CLIFTON","NJ",7011,40.88212738,-74.137461786,363,"207 LAKEVIEW AVE, CLIFTON, NJ, 7011","Match","Exact","207 LAKEVIEW AVE, CLIFTON, NJ, 07011",65266767,"R"
110864,"207 LEBBY ST","PELZER","SC",29669,34.6424301690001,-82.461343922,364,"207 LEBBY ST, PELZER, SC, 29669","Match","Exact","207 LEBBY ST, PELZER, SC, 29669",25457014,"L"
110865,"207 LINDA LANE","HEATH","TX",75032,32.819852515,-96.49349333,365,"207 LINDA LANE, HEATH, TX, 75032","Match","Exact","207 LINDA LN, HEATH, TX, 75032",123779654,"R"
110866,"207 LOCKWOOD RD","RED ROCK","TX",78662,29.940950188,-97.3956295689999,366,"207 LOCKWOOD RD, RED ROCK, TX, 78662","Match","Exact","207 LOCKWOOD RD, RED ROCK, TX, 78662",45501203,"R"
110867,"207 LONGHORN TRAIL","GRAND PRAIRIE","TX",75052,32.65269034,-97.007521916,367,"207 LONGHORN TRAIL, GRAND PRAIRIE, TX, 75052","Match","Exact","207 LONGHORN TRL, GRAND PRAIRIE, TX, 75052",635290157,"R"
110868,"207 LONGVIEW DR","NORCROSS","GA",30071,33.949492268,-84.219946063,368,"207 LONGVIEW DR, NORCROSS, GA, 30071","Match","Non_Exact","207 LONGVIEW DR NW, NORCROSS, GA, 30071",88883950,"L"
110869,"207 LOWELL STREET","MANCHESTER","NH",3104,42.99358647,-71.4544780369999,369,"207 LOWELL STREET, MANCHESTER, NH, 3104","Match","Exact","207 LOWELL ST, MANCHESTER, NH, 03104",113531507,"R"
110870,"207 LUCERNE WAY","LAFAYETTE","CO",80026,40.008152282,-105.091428095,370,"207 LUCERNE WAY, LAFAYETTE, CO, 80026","Match","Exact","207 LUCERNE WAY, LAFAYETTE, CO, 80026",188166899,"L"
110871,"207 LUCIA LANE","NORTH LITTLE ROCK","AR",72113,34.848416828,-92.372749627,371,"207 LUCIA LANE, NORTH LITTLE ROCK, AR, 72113","Match","Exact","207 LUCIA LN, N LITTLE ROCK, AR, 72113",641816894,"L"
110872,"207 MAIN ST","GREENVILLE","CA",95947,40.138550642,-120.952341133,372,"207 MAIN ST, GREENVILLE, CA, 95947","Match","Exact","207 MAIN ST, GREENVILLE, CA, 95947",127215805,"R"
110873,"207 MAJESTIC DR","COLUMBIA","SC",29223,34.1232657530001,-80.936319732,373,"207 MAJESTIC DR, COLUMBIA, SC, 29223","Match","Exact","207 MAJESTIC DR, COLUMBIA, SC, 29223",71865736,"L"
110874,"207 MANNING AVE","MANNING","ND",58642,47.2308289960001,-102.770639666,374,"207 MANNING AVE, MANNING, ND, 58642","Match","Exact","207 MANNING AVE, MANNING, ND, 58642",200441324,"R"
110875,"207 MCMAKIN DRIVE","GREENVILLE","SC",29617,34.892135577,-82.41241808,375,"207 MCMAKIN DRIVE, GREENVILLE, SC, 29617","Match","Exact","207 MCMAKIN DR, GREENVILLE, SC, 29617",38349740,"R"
110876,"207 MICHAWANIC ROAD 8B","WAKEFIELD","NH",3872,43.6410212530001,-71.045568298,376,"207 MICHAWANIC ROAD 8B, WAKEFIELD, NH, 3872","Match","Non_Exact","207 MICHAWANIC RD, BROOKFIELD, NH, 03872",145618743,"L"
110877,"207 MIDWAY RD","OCALA","FL",34472,29.1153154450001,-82.0308611039999,377,"207 MIDWAY RD, OCALA, FL, 34472","Match","Exact","207 MIDWAY RD, OCALA, FL, 34472",116732609,"L"
110878,"207 MITCHELL ROAD","GREENVILLE","SC",29615,34.8719059690001,-82.317840104,378,"207 MITCHELL ROAD, GREENVILLE, SC, 29615","Match","Exact","207 MITCHELL RD, GREENVILLE, SC, 29615",612536267,"L"
110879,"207 MORT VINING RD","SOUTHWICK","MA",1077,42.0270048030001,-72.805070911,379,"207 MORT VINING RD, SOUTHWICK, MA, 1077","Match","Exact","207 MORT VINING RD, SOUTHWICK, MA, 01077",4061411,"R"
110880,"207 MOUNTAIN VALLEY LN","PORT ANGELES","WA",98363,48.060669004,-123.588648926,380,"207 MOUNTAIN VALLEY LN, PORT ANGELES, WA, 98363","Match","Exact","207 MOUNTAIN VALLEY LN, PORT ANGELES, WA, 98363",624394372,"L"
110881,"207 N 1ST STREET","BETHPAGE","NY",11714,40.7506818030001,-73.483290374,381,"207 N 1ST STREET, BETHPAGE, NY, 11714","Match","Exact","207 N 1ST ST, BETHPAGE, NY, 11714",147645641,"L"
110882,"207 N 2ND ST","MUSKOGEE","OK",74401,35.749100223,-95.369555565,382,"207 N 2ND ST, MUSKOGEE, OK, 74401","Match","Exact","207 N 2ND ST, MUSKOGEE, OK, 74401",91936910,"L"
110883,"207 N 4TH STREET","CARRIZO SPRINGS","TX",78834,28.5223500330001,-99.8593870399999,383,"207 N 4TH STREET, CARRIZO SPRINGS, TX, 78834","Match","Exact","207 N 4TH ST, CARRIZO SPRINGS, TX, 78834",182996273,"R"
110884,"207 N 5TH ST","GUTHRIE CENTER","IA",50115,41.6782420440001,-94.5024005289999,384,"207 N 5TH ST, GUTHRIE CENTER, IA, 50115","Match","Exact","207 N 5TH ST, GUTHRIE CENTER, IA, 50115",68681374,"L"
110885,"207 N 5TH ST","SAN JOSE","CA",95112,37.3413062050001,-121.888661644,385,"207 N 5TH ST, SAN JOSE, CA, 95112","Match","Exact","207 N 5TH ST, SAN JOSE, CA, 95112",122907736,"L"
110886,"207 N ASH STREET","BRYANT","IL",61519,NA,NA,386,"207 N ASH STREET, BRYANT, IL, 61519","Tie",NA,NA,NA,NA
110887,"207 N COLOGNE AVE","EGG HARBOR CITY","NJ",8215,39.54090023,-74.5656733599999,387,"207 N COLOGNE AVE, EGG HARBOR CITY, NJ, 8215","Match","Exact","207 N COLOGNE AVE, EGG HARBOR CITY, NJ, 08215",617096392,"L"
110888,"207 N FIRST ST","EDINA","MO",63537,40.168598441,-92.175122761,388,"207 N FIRST ST, EDINA, MO, 63537","Match","Exact","207 N 1ST ST, EDINA, MO, 63537",13018051,"L"
110889,"207 N GARFIELD AVENUE","PASADENA","CA",91101,34.14941844,-118.144292651,389,"207 N GARFIELD AVENUE, PASADENA, CA, 91101","Match","Exact","207 N GARFIELD AVE, PASADENA, CA, 91101",141630560,"L"
110890,"207 N GILBERT ROAD  SUITE 209","GILBERT","AZ",85234,33.353760676,-111.789625939,390,"207 N GILBERT ROAD  SUITE 209, GILBERT, AZ, 85234","Match","Non_Exact","207 N GILBERT RD, GILBERT, AZ, 85234",128254988,"R"
110891,"207 N HOWELL AVENUE","CHATTANOOGA","TN",37411,35.013963254,-85.223558017,391,"207 N HOWELL AVENUE, CHATTANOOGA, TN, 37411","Match","Exact","207 N HOWELL AVE, CHATTANOOGA, TN, 37411",59315049,"L"
110892,"207 N MACON ST","MEADVILLE","MO",64659,39.7901985560001,-93.3020370999999,392,"207 N MACON ST, MEADVILLE, MO, 64659","Match","Exact","207 MACON ST, MEADVILLE, MO, 64659",25593114,"R"
110893,"207 N MAIN STREET","MULBERRY","AR",72947,35.497209868,-94.051973747,393,"207 N MAIN STREET, MULBERRY, AR, 72947","Match","Exact","207 N MAIN ST, MULBERRY, AR, 72947",53475162,"L"
110894,"207 N MARIPOSA AVE APT 102","LOS ANGELES","CA",90004,NA,NA,394,"207 N MARIPOSA AVE APT 102, LOS ANGELES, CA, 90004","Tie",NA,NA,NA,NA
110895,"207 N MOUNT SHASTA BLVD","MOUNT SHASTA","CA",96067,41.3124460270001,-122.311177791,395,"207 N MOUNT SHASTA BLVD, MOUNT SHASTA, CA, 96067","Match","Exact","207 N MOUNT SHASTA BLVD, MOUNT SHASTA, CA, 96067",113240317,"L"
110896,"207 N PIEDMONT","RICO","CO",81332,37.6961877850001,-108.033851632,396,"207 N PIEDMONT, RICO, CO, 81332","Match","Exact","207 N PIEDMONT, RICO, CO, 81332",91663346,"R"
110897,"207 N PIERCE ST","RANDOLPH","NE",68771,42.3798857410001,-97.359718501,397,"207 N PIERCE ST, RANDOLPH, NE, 68771","Match","Exact","207 N PIERCE ST, RANDOLPH, NE, 68771",172887580,"R"
110898,"207 N SMITH STREET","CROSSVILLE","TN",38555,NA,NA,398,"207 N SMITH STREET, CROSSVILLE, TN, 38555","No_Match",NA,NA,NA,NA
110899,"207 N THIRD ST","SMITHFIELD","NC",27577,35.512571184,-78.345159601,399,"207 N THIRD ST, SMITHFIELD, NC, 27577","Match","Exact","207 N 3RD ST, SMITHFIELD, NC, 27577",26524369,"L"
110900,"207 N US HIGHWAY 27 SUITE A","MINNEOLA","FL",34715,NA,NA,400,"207 N US HIGHWAY 27 SUITE A, MINNEOLA, FL, 34715","No_Match",NA,NA,NA,NA
110901,"207 N WELLS ST","EDNA","TX",77957,28.9979749400001,-96.652795968,401,"207 N WELLS ST, EDNA, TX, 77957","Match","Exact","207 N WELLS ST, EDNA, TX, 77957",42117206,"R"
110902,"207 NE JOHNSON ST","MCMINNVILLE","OR",97128,45.2094071760001,-123.188654238,402,"207 NE JOHNSON ST, MCMINNVILLE, OR, 97128","Match","Exact","207 NE JOHNSON ST, MCMINNVILLE, OR, 97128",156493907,"L"
110903,"207 NEW MARKET CENTER 165","BOONE","NC",28607,36.2195716190001,-81.6625648739999,403,"207 NEW MARKET CENTER 165, BOONE, NC, 28607","Match","Non_Exact","207 NEW MARKET CENTRE, BOONE, NC, 28607",234427696,"R"
110904,"207 NORTH 28TH STREET A","RICHMOND","VT",23223,NA,NA,404,"207 NORTH 28TH STREET A, RICHMOND, VT, 23223","No_Match",NA,NA,NA,NA
110905,"207 NORTH JEFFERSON AVENUE","PLYMOUTH","NE",68424,40.304193782,-96.9876422409999,405,"207 NORTH JEFFERSON AVENUE, PLYMOUTH, NE, 68424","Match","Exact","207 N JEFFERSON AVE, PLYMOUTH, NE, 68424",11138086,"L"
110906,"207 NORTH MAIN STREET","AMHERST","WI",54406,44.452131797,-89.284614373,406,"207 NORTH MAIN STREET, AMHERST, WI, 54406","Match","Exact","207 N MAIN ST, AMHERST, WI, 54406",126800593,"L"
110907,"207 NORTH MAIN STREET","MULBERRY","AR",72947,35.49720899,-94.05197379,407,"207 NORTH MAIN STREET, MULBERRY, AR, 72947","Match","Exact","207 N MAIN ST, MULBERRY, AR, 72947",53475162,"L"
110908,"207 NORTH MAIN","LEON","IA",50144,40.740408879,-93.7469409019999,408,"207 NORTH MAIN, LEON, IA, 50144","Match","Non_Exact","207 N MAIN ST, LEON, IA, 50144",75265823,"L"
110909,"207 NORTH MAPLE","INMAN","KS",67546,38.2330790990001,-97.773218213,409,"207 NORTH MAPLE, INMAN, KS, 67546","Match","Non_Exact","207 N MAPLE ST, INMAN, KS, 67546",142864604,"L"
110910,"207 NW 16TH STREET","POMPANO BEACH","FL",33060,NA,NA,410,"207 NW 16TH STREET, POMPANO BEACH, FL, 33060","Tie",NA,NA,NA,NA
110911,"207 OAK PARK DRIVE","CHAPEL HILL","NC",27517,35.8891675580001,-79.058913441,411,"207 OAK PARK DRIVE, CHAPEL HILL, NC, 27517","Match","Exact","207 OAK PARK DR, CHAPEL HILL, NC, 27517",72390284,"L"
110912,"207 OAK ST","NEW BRITAIN","CT",6051,41.680278431,-72.775830323,412,"207 OAK ST, NEW BRITAIN, CT, 6051","Match","Exact","207 OAK ST, NEW BRITAIN, CT, 06051",3510129,"R"
110913,"207 OAK ST","SWEETWATER","TX",79556,32.470214755,-100.408470214,413,"207 OAK ST, SWEETWATER, TX, 79556","Match","Exact","207 OAK ST, SWEETWATER, TX, 79556",186308200,"L"
110914,"207 OAK STREET","CAMBRIDGE","MD",21613,38.590383122,-76.092296119,414,"207 OAK STREET, CAMBRIDGE, MD, 21613","Match","Exact","207 OAK ST, CAMBRIDGE, MD, 21613",99661908,"L"
110915,"207 OAK STREET","SWEETWATER","TX",79556,32.470214755,-100.408470214,415,"207 OAK STREET, SWEETWATER, TX, 79556","Match","Exact","207 OAK ST, SWEETWATER, TX, 79556",186308200,"L"
110916,"207 OAKLEY DRIVE","LAFAYETTE","LA",70508,30.1768589820001,-92.029519399,416,"207 OAKLEY DRIVE, LAFAYETTE, LA, 70508","Match","Exact","207 OAKLEY DR, LAFAYETTE, LA, 70508",85618887,"L"
110917,"207 OCEANSIDE AVE","ROCKAWAY POINT","NY",11697,40.5565751980001,-73.912468378,417,"207 OCEANSIDE AVE, ROCKAWAY POINT, NY, 11697","Match","Exact","207 OCEANSIDE AVE, ROCKAWAY POINT, NY, 11697",59737896,"R"
110918,"207 OHIO AVE","EGG HARBOR TWP","NJ",8234,39.36289078,-74.6349860609999,418,"207 OHIO AVE, EGG HARBOR TWP, NJ, 8234","Match","Exact","207 OHIO AVE, EGG HARBOR TOWNSHIP, NJ, 08234",202481764,"R"
110919,"207 OMEGA LANE","PICKENS","SC",29671,34.8585330430001,-82.8036357729999,419,"207 OMEGA LANE, PICKENS, SC, 29671","Match","Exact","207 OMEGA LN, PICKENS, SC, 29671",26216876,"R"
110920,"207 ORIOLE DRIVE","MCMINNVILLE","TN",37110,35.702146213,-85.794372188,420,"207 ORIOLE DRIVE, MCMINNVILLE, TN, 37110","Match","Exact","207 ORIOLE DR, MCMINNVILLE, TN, 37110",81344418,"L"
110921,"207 OUTLAW STREET","CHESAPEAKE","VA",23320,36.763025537,-76.286459055,421,"207 OUTLAW STREET, CHESAPEAKE, VA, 23320","Match","Exact","207 OUTLAW ST, CHESAPEAKE, VA, 23320",121771545,"R"
110922,"207 PALM AVE","ROCKFORD","IL",61107,42.268119375,-89.0476241699999,422,"207 PALM AVE, ROCKFORD, IL, 61107","Match","Exact","207 PALM AVE, ROCKFORD, IL, 61107",49260219,"R"
110923,"207 PARK AVE STE B","TALLAHASSEE","FL",32301,NA,NA,423,"207 PARK AVE STE B, TALLAHASSEE, FL, 32301","Tie",NA,NA,NA,NA
110924,"207 PASQUA NUCLEAR ENGINEERING BLDG","KNOXVILLE","TN",37996,NA,NA,424,"207 PASQUA NUCLEAR ENGINEERING BLDG, KNOXVILLE, TN, 37996","No_Match",NA,NA,NA,NA
110925,"207 PATANN RD","TIMONIUM","MD",21093,39.4373575050001,-76.612953299,425,"207 PATANN RD, TIMONIUM, MD, 21093","Match","Exact","207 PATANN RD, TIMONIUM, MD, 21093",191471482,"R"
110926,"207 PEMBROKE POINTE","CENTERVILLE","GA",31028,32.630047049,-83.704100583,426,"207 PEMBROKE POINTE, CENTERVILLE, GA, 31028","Match","Exact","207 PEMBROKE POINTE, CENTERVILLE, GA, 31028",629543787,"L"
110927,"207 PERSIMMON CIRCLE","REISTERSTOWN","MD",21136,39.4439585540001,-76.816848196,427,"207 PERSIMMON CIRCLE, REISTERSTOWN, MD, 21136","Match","Exact","207 PERSIMMON CIR, REISTERSTOWN, MD, 21136",191512946,"R"
110928,"207 PETERSON DRIVE","ELIZABETHTOWN","KY",42701,37.6800113130001,-85.891494154,428,"207 PETERSON DRIVE, ELIZABETHTOWN, KY, 42701","Match","Exact","207 PETERSON DR, ELIZABETHTOWN, KY, 42701",34620949,"R"
110929,"207 PINE GROVE STREET","MORA","MN",55051,45.863974983,-93.294325155,429,"207 PINE GROVE STREET, MORA, MN, 55051","Match","Exact","207 PINE GROVE ST, MORA, MN, 55051",163038006,"R"
110930,"207 POOSPATUCK LANE","MASTIC","NY",11950,40.790243908,-72.830807513,430,"207 POOSPATUCK LANE, MASTIC, NY, 11950","Match","Exact","207 POOSPATUCK LN, MASTIC, NY, 11950",114244905,"R"
110931,"207 POPLAR ST","MOUNT JOY","PA",17552,40.105895403,-76.504632997,431,"207 POPLAR ST, MOUNT JOY, PA, 17552","Match","Exact","207 POPLAR ST, MOUNT JOY, PA, 17552",179695986,"L"
110932,"207 PRIORITY POINT ST","HENDERSON","NV",89012,36.0220139680001,-115.016023305,432,"207 PRIORITY POINT ST, HENDERSON, NV, 89012","Match","Exact","207 PRIORITY POINT ST, HENDERSON, NV, 89012",201956221,"L"
110933,"207 QUAIL DRIVE","PINOPOLIS","SC",29469,33.236326192,-80.03424954,433,"207 QUAIL DRIVE, PINOPOLIS, SC, 29469","Match","Non_Exact","207 QUAIL ST, PINOPOLIS, SC, 29469",100736467,"L"
110934,"207 QUAIL RIDGE ROAD","ELMORE","AL",36025,32.530427628,-86.353230503,434,"207 QUAIL RIDGE ROAD, ELMORE, AL, 36025","Match","Exact","207 QUAIL RIDGE RD, ELMORE, AL, 36025",1376054,"L"
110935,"207 QUILLIN COURT","COLLEYVILLE","TX",76034,32.9087101600001,-97.1668128809999,435,"207 QUILLIN COURT, COLLEYVILLE, TX, 76034","Match","Exact","207 QUILLIN CT, COLLEYVILLE, TX, 76034",648433726,"L"
110936,"207 REMINGTON DRIVE","RUTHER GLEN","VA",22546,38.0077774810001,-77.556350419,436,"207 REMINGTON DRIVE, RUTHER GLEN, VA, 22546","Match","Exact","207 REMINGTON DR, RUTHER GLEN, VA, 22546",21944740,"L"
110937,"207 RIVER BEND DR","LONDON","KY",40744,37.060475798,-84.083172411,437,"207 RIVER BEND DR, LONDON, KY, 40744","Match","Exact","207 RIVER BEND DR, LONDON, KY, 40744",98744433,"L"
110938,"207 RIVINGTON WAY","GREENSBORO","NC",27455,36.167470753,-79.7923028879999,438,"207 RIVINGTON WAY, GREENSBORO, NC, 27455","Match","Exact","207 RIVINGTON WAY, GREENSBORO, NC, 27455",623953630,"L"
110939,"207 ROBIN HOOD DR","CLARKSVILLE","TN",37042,36.6082141640001,-87.424764624,439,"207 ROBIN HOOD DR, CLARKSVILLE, TN, 37042","Match","Exact","207 ROBIN HOOD DR, CLARKSVILLE, TN, 37042",31812980,"L"
110940,"207 ROSALER COURT","CARY","NC",27519,35.811463067,-78.8560538369999,440,"207 ROSALER COURT, CARY, NC, 27519","Match","Exact","207 ROSALER CT, CARY, NC, 27519",72593463,"L"
110941,"207 RUGGLES AVE","NEWPORT","RI",2840,41.4682139490001,-71.304948376,441,"207 RUGGLES AVE, NEWPORT, RI, 2840","Match","Exact","207 RUGGLES AVE, NEWPORT, RI, 02840",47350267,"R"
110942,"207 S 5TH ST","MURRAY","KY",42071,36.609705352,-88.302973596,442,"207 S 5TH ST, MURRAY, KY, 42071","Match","Exact","207 S 5TH ST, MURRAY, KY, 42071",31709058,"R"
110943,"207 S CLARK ST","COLFAX","IL",46035,NA,NA,443,"207 S CLARK ST, COLFAX, IL, 46035","No_Match",NA,NA,NA,NA
110944,"207 S DIBBLE AVE","LANSING","MI",48917,NA,NA,444,"207 S DIBBLE AVE, LANSING, MI, 48917","Tie",NA,NA,NA,NA
110945,"207 S GILBERT RD STE 004","GILBERT","AZ",85234,33.353760676,-111.789625939,445,"207 S GILBERT RD STE 004, GILBERT, AZ, 85234","Match","Non_Exact","207 N GILBERT RD, GILBERT, AZ, 85234",128254988,"R"
110946,"207 S JAMES","SPEARMAN","TX",79081,36.196150323,-101.186155247,446,"207 S JAMES, SPEARMAN, TX, 79081","Match","Non_Exact","207 S JAMES ST, SPEARMAN, TX, 79081",186537578,"R"
110947,"207 S KNOX ST","DERMOTT","AR",71638,33.5240985080001,-91.44049044,447,"207 S KNOX ST, DERMOTT, AR, 71638","Match","Exact","207 S KNOX ST, DERMOTT, AR, 71638",69037616,"R"
110948,"207 S LIBERTY ST","WEST UNITY","OH",43570,41.5827013040001,-84.4315859769999,448,"207 S LIBERTY ST, WEST UNITY, OH, 43570","Match","Exact","207 S LIBERTY ST, WEST UNITY, OH, 43570",636629327,"R"
110949,"207 S MIDLAND AVENUE","JOLIET","IL",60436,41.51929318,-88.115000935,449,"207 S MIDLAND AVENUE, JOLIET, IL, 60436","Match","Exact","207 S MIDLAND AVE, JOLIET, IL, 60436",111542011,"R"
110950,"207 S MYRTLE STREET","MCCOMB","MS",39648,31.2443679940001,-90.443723061,450,"207 S MYRTLE STREET, MCCOMB, MS, 39648","Match","Exact","207 S MYRTLE ST, MCCOMB, MS, 39648",75858306,"R"
110951,"207 S SLUSSER ST","GRAYSLAKE","IL",60030,42.3399962170001,-88.0421971339999,451,"207 S SLUSSER ST, GRAYSLAKE, IL, 60030","Match","Exact","207 S SLUSSER ST, GRAYSLAKE, IL, 60030",119636211,"L"
110952,"207 S SUPERIOR ST","ANGOLA","IN",46703,41.6338236710001,-85.002790714,452,"207 S SUPERIOR ST, ANGOLA, IN, 46703","Match","Exact","207 S SUPERIOR ST, ANGOLA, IN, 46703",7712439,"R"
110953,"207 S WASHINGTON ST","GEFF","IL",62842,NA,NA,453,"207 S WASHINGTON ST, GEFF, IL, 62842","No_Match",NA,NA,NA,NA
110954,"207 S WESTBERRY STREET","SYLVESTER","GA",31791,31.524492948,-83.8340296809999,454,"207 S WESTBERRY STREET, SYLVESTER, GA, 31791","Match","Exact","207 S WESTBERRY ST, SYLVESTER, GA, 31791",84459032,"R"
110955,"207 SAMMY CIRCLE","GRIFFIN","GA",30223,NA,NA,455,"207 SAMMY CIRCLE, GRIFFIN, GA, 30223","No_Match",NA,NA,NA,NA
110956,"207 SAN PEDRO CIRCLE","SAN JOSE","CA",95110,37.344586662,-121.901162783,456,"207 SAN PEDRO CIRCLE, SAN JOSE, CA, 95110","Match","Exact","207 SAN PEDRO CIR, SAN JOSE, CA, 95110",618194466,"R"
110957,"207 SAN TROPEZ COURT","LAGUNA BEACH","CA",92651,33.593327672,-117.751257699,457,"207 SAN TROPEZ COURT, LAGUNA BEACH, CA, 92651","Match","Exact","207 SAN TROPEZ CT, LAGUNA BEACH, CA, 92651",609074343,"L"
110958,"207 SCOTLAND HEIGTS","SHELBYVILLE","TN",37160,35.500164313,-86.455281667,458,"207 SCOTLAND HEIGTS, SHELBYVILLE, TN, 37160","Match","Non_Exact","207 SCOTLAND HTS, SHELBYVILLE, TN, 37160",635455125,"R"
110959,"207 SCOTT DR","LINN","MO",65051,38.4712973810001,-91.8302216009999,459,"207 SCOTT DR, LINN, MO, 65051","Match","Exact","207 SCOTT DR, LINN, MO, 65051",40337963,"R"
110960,"207 SCOTT STREET","WILKES BARRE","PA",18702,41.2461696060001,-75.866157566,460,"207 SCOTT STREET, WILKES BARRE, PA, 18702","Match","Exact","207 SCOTT ST, WILKES BARRE, PA, 18702",80919549,"R"
110961,"207 SEQUOIA WAY","SANTA ANA","CA",92703,33.7428743200001,-117.909532708,461,"207 SEQUOIA WAY, SANTA ANA, CA, 92703","Match","Exact","207 SEQUOIA WAY, SANTA ANA, CA, 92703",144040386,"L"
110962,"207 SHADOW TRAIL","HUNTSVILLE","AL",35824,34.6384842320001,-86.7193566289999,462,"207 SHADOW TRAIL, HUNTSVILLE, AL, 35824","Match","Exact","207 SHADOW TRL, HUNTSVILLE, AL, 35824",609507350,"L"
110963,"207 SHADYWOOD LANE","SEAGOVILLE","TX",75159,32.644079106,-96.541673894,463,"207 SHADYWOOD LANE, SEAGOVILLE, TX, 75159","Match","Exact","207 SHADYWOOD LN, SEAGOVILLE, TX, 75159",102965706,"L"
110964,"207 SHURTLEFF STREET","CHELSEA","MA",2150,42.3927777530001,-71.0330934249999,464,"207 SHURTLEFF STREET, CHELSEA, MA, 2150","Match","Exact","207 SHURTLEFF ST, CHELSEA, MA, 02150",85711251,"R"
110965,"207 SILVERLEAF DRIVE","STERLING","VA",20164,38.991879671,-77.4037235879999,465,"207 SILVERLEAF DRIVE, STERLING, VA, 20164","Match","Exact","207 SILVERLEAF DR, STERLING, VA, 20164",62328095,"R"
110966,"207 SILVERTON PLACE","PISCATAWAY","NJ",8854,40.572368377,-74.4389905639999,466,"207 SILVERTON PLACE, PISCATAWAY, NJ, 8854","Match","Exact","207 SILVERTON PL, PISCATAWAY, NJ, 08854",625128101,"R"
110967,"207 SMITH STREET","SITKA","AK",99835,57.050678659,-135.307570334,467,"207 SMITH STREET, SITKA, AK, 99835","Match","Exact","207 SMITH ST, SITKA, AK, 99835",608504551,"R"
110968,"207 SNOW GOOSE CT UNIT 101","FAIRDALE","KY",40118,38.1132051610001,-85.7609809699999,468,"207 SNOW GOOSE CT UNIT 101, FAIRDALE, KY, 40118","Match","Exact","207 SNOW GOOSE CT, FAIRDALE, KY, 40118",641781254,"R"
110969,"207 SOUTH 5TH AVE","LANETT","AL",36863,32.867561139,-85.191960384,469,"207 SOUTH 5TH AVE, LANETT, AL, 36863","Match","Exact","207 S 5TH AVE, LANETT, AL, 36863",3052385,"R"
110970,"207 SOUTH 7TH STREET","AUBURN","IL",62615,39.5901792180001,-89.748624917,470,"207 SOUTH 7TH STREET, AUBURN, IL, 62615","Match","Exact","207 S 7TH ST, AUBURN, IL, 62615",97318407,"R"
110971,"207 SOUTH CENTRAL AVENUE","BALTIMORE","MD",21202,39.2887669400001,-76.599432968,471,"207 SOUTH CENTRAL AVENUE, BALTIMORE, MD, 21202","Match","Exact","207 S CENTRAL AVE, BALTIMORE, MD, 21202",206421720,"L"
110972,"207 SOUTH HANCOCK STREET","LOUISVILLE","KY",40202,38.2533945270001,-85.742092967,472,"207 SOUTH HANCOCK STREET, LOUISVILLE, KY, 40202","Match","Exact","207 S HANCOCK ST, LOUISVILLE, KY, 40202",96912949,"L"
110973,"207 SOUTH LANE","PRINCETON JUNCTION","NJ",8550,40.2616766570001,-74.585093758,473,"207 SOUTH LANE, PRINCETON JUNCTION, NJ, 8550","Match","Non_Exact","207 SOUTH LN, PRINCETON JCT, NJ, 08550",60209917,"R"
110974,"207 SOUTH WAYNE ST SUITE B","ANGOLA","IN",46703,41.6338777660001,-84.999240324,474,"207 SOUTH WAYNE ST SUITE B, ANGOLA, IN, 46703","Match","Exact","207 S WAYNE ST, ANGOLA, IN, 46703",7715325,"R"
110975,"207 SOUTH WESTERN AVE APT 14","ANAHEIM","CA",92804,33.828744375,-118.002189629,475,"207 SOUTH WESTERN AVE APT 14, ANAHEIM, CA, 92804","Match","Exact","207 S WESTERN AVE, ANAHEIM, CA, 92804",144001930,"R"
110976,"207 SOUTH WESTERN AVENUE UNIT 14","ANAHEIM","CA",92804,33.828744375,-118.002189629,476,"207 SOUTH WESTERN AVENUE UNIT 14, ANAHEIM, CA, 92804","Match","Exact","207 S WESTERN AVE, ANAHEIM, CA, 92804",144001930,"R"
110977,"207 STONEWALL TERRACE","EASTON","PA",18042,40.6667290840001,-75.199018597,477,"207 STONEWALL TERRACE, EASTON, PA, 18042","Match","Exact","207 STONEWALL TER, EASTON, PA, 18042",627243894,"R"
110978,"207 STOUT ST","TELLICO PLAINS","TN",37385,35.3618052480001,-84.296217143,478,"207 STOUT ST, TELLICO PLAINS, TN, 37385","Match","Exact","207 STOUT ST, TELLICO PLAINS, TN, 37385",85294948,"R"
110979,"207 SUMMIT AVENUE SUITE A","NORWOOD","PA",19074,39.8827758910001,-75.302319493,479,"207 SUMMIT AVENUE SUITE A, NORWOOD, PA, 19074","Match","Exact","207 SUMMIT AVE, NORWOOD, PA, 19074",652541328,"R"
110980,"207 SWAN HILL ROAD","WHITNEY POINT","NY",13862,42.276267352,-75.988277846,480,"207 SWAN HILL ROAD, WHITNEY POINT, NY, 13862","Match","Exact","207 SWAN HILL RD, WHITNEY POINT, NY, 13862",46330142,"R"
110981,"207 TRENTON DR","WYLIE","TX",75098,33.013791638,-96.582694918,481,"207 TRENTON DR, WYLIE, TX, 75098","Match","Exact","207 TRENTON DR, WYLIE, TX, 75098",123562161,"R"
110982,"207 TYRONZA AVE","PARKIN","AR",72373,35.265657893,-90.553776584,482,"207 TYRONZA AVE, PARKIN, AR, 72373","Match","Exact","207 TYRONZA AVE, PARKIN, AR, 72373",69175366,"L"
110983,"207 VALLEY ROAD","SUMMERDALE","PA",17093,NA,NA,483,"207 VALLEY ROAD, SUMMERDALE, PA, 17093","No_Match",NA,NA,NA,NA
110984,"207 VAN SYCKELS RD","HAMPTON","NJ",8827,40.645233783,-74.9765947879999,484,"207 VAN SYCKELS RD, HAMPTON, NJ, 8827","Match","Exact","207 VAN SYCKELS RD, HAMPTON, NJ, 08827",60004958,"R"
110985,"207 VANDALIA ST","COLLINSVILLE","IL",62234,38.671844982,-89.984652094,485,"207 VANDALIA ST, COLLINSVILLE, IL, 62234","Match","Exact","207 VANDALIA ST, COLLINSVILLE, IL, 62234",107693688,"L"
110986,"207 VIKING DR","PETERSBURG","WV",26847,NA,NA,486,"207 VIKING DR, PETERSBURG, WV, 26847","No_Match",NA,NA,NA,NA
110987,"207 VIKING DRIVE","PETERSBURG","WV",26847,NA,NA,487,"207 VIKING DRIVE, PETERSBURG, WV, 26847","No_Match",NA,NA,NA,NA
110988,"207 VILLAGE WAY","MT AIRY","MD",21771,39.382007775,-77.1609183589999,488,"207 VILLAGE WAY, MT AIRY, MD, 21771","Match","Exact","207 VILLAGE WAY, MOUNT AIRY, MD, 21771",60688767,"L"
110989,"207 W 110TH STREET APT 28","NEW YORK","NY",10026,40.7995809870001,-73.95561414,489,"207 W 110TH STREET APT 28, NEW YORK, NY, 10026","Match","Non_Exact","207 W 110TH ST, NEW YORK, NY, 10026",59657674,"R"
110990,"207 W 5TH AVENUE","EUGENE","OR",97401,44.0543411890001,-123.095979825,490,"207 W 5TH AVENUE, EUGENE, OR, 97401","Match","Exact","207 W 5TH AVE, EUGENE, OR, 97401",178166981,"R"
110991,"207 W BARNES AVE","LANSING","MI",48910,42.7148600730001,-84.554140094,491,"207 W BARNES AVE, LANSING, MI, 48910","Match","Exact","207 W BARNES AVE, LANSING, MI, 48910",17499742,"L"
110992,"207 W BROADWAY ST","JOHNSONVILLE","SC",29555,33.8166494050001,-79.4524651419999,492,"207 W BROADWAY ST, JOHNSONVILLE, SC, 29555","Match","Exact","207 W BROADWAY ST, JOHNSONVILLE, SC, 29555",634545087,"L"
110993,"207 W BUCHANAN RD APT 9","PITTSBURG","CA",94565,37.998072371,-121.894769484,493,"207 W BUCHANAN RD APT 9, PITTSBURG, CA, 94565","Match","Exact","207 BUCHANAN RD, PITTSBURG, CA, 94565",192061152,"L"
110994,"207 W FOLSOM STREET","PERRY","GA",32348,NA,NA,494,"207 W FOLSOM STREET, PERRY, GA, 32348","No_Match",NA,NA,NA,NA
110995,"207 W GENESEE ST","TAMPA","FL",33603,27.9844555120001,-82.460785393,495,"207 W GENESEE ST, TAMPA, FL, 33603","Match","Exact","207 W GENESEE ST, TAMPA, FL, 33603",104520931,"R"
110996,"207 W JEFFERSON STREET  SUITE 400","BLOOMINGTON","IL",61701,NA,NA,496,"207 W JEFFERSON STREET  SUITE 400, BLOOMINGTON, IL, 61701","Tie",NA,NA,NA,NA
110997,"207 W LEE ST","CLINTON","NC",28328,35.001556486,-78.3332452619999,497,"207 W LEE ST, CLINTON, NC, 28328","Match","Exact","207 W LEE ST, CLINTON, NC, 28328",638660468,"L"
110998,"207 W LOS ANGELES AVE SUITE 362","MOORPARK","CA",93021,34.279016305,-118.883521827,498,"207 W LOS ANGELES AVE SUITE 362, MOORPARK, CA, 93021","Match","Exact","207 LOS ANGELES AVE, MOORPARK, CA, 93021",110093326,"R"
110999,"207 W MOANA LN","RENO","NV",89509,39.4912634990001,-119.799127817,499,"207 W MOANA LN, RENO, NV, 89509","Match","Exact","207 W MOANA LN, RENO, NV, 89509",107052555,"R"
111000,"207 W MOUNTAIN SKY AVENUE","PHOENIX","AZ",85045,33.308447153,-112.075732182,500,"207 W MOUNTAIN SKY AVENUE, PHOENIX, AZ, 85045","Match","Exact","207 W MOUNTAIN SKY AVE, PHOENIX, AZ, 85045",633219911,"L"
