"ID","Address","City","State","Zip","lat","long","id","input_address","match_indicator","match_type","matched_address","tiger_line_id","tiger_side"
131001,"23679 CALABASAS ROAD SUITE 412","CALABASAS","CA",91302,34.1554723690001,-118.644310422,1,"23679 CALABASAS ROAD SUITE 412, CALABASAS, CA, 91302","Match","Exact","23679 CALABASAS RD, CALABASAS, CA, 91302",241220680,"L"
131002,"23679 CALABASAS ROAD UNIT 305","CALABASAS","CA",91302,34.1554723690001,-118.644310422,2,"23679 CALABASAS ROAD UNIT 305, CALABASAS, CA, 91302","Match","Exact","23679 CALABASAS RD, CALABASAS, CA, 91302",241220680,"L"
131003,"23679 CALABASAS ROAD UNIT 682","CALABASAS","CA",91302,34.1554723690001,-118.644310422,3,"23679 CALABASAS ROAD UNIT 682, CALABASAS, CA, 91302","Match","Exact","23679 CALABASAS RD, CALABASAS, CA, 91302",241220680,"L"
131004,"23679 CALABASAS ROAD UNIT 954","CALABASAS","CA",91302,34.1554723690001,-118.644310422,4,"23679 CALABASAS ROAD UNIT 954, CALABASAS, CA, 91302","Match","Exact","23679 CALABASAS RD, CALABASAS, CA, 91302",241220680,"L"
131005,"23679 GA HIGHWAY 110 / PO BOX 66","WAVERLY","GA",31565,31.095489371,-81.7364192639999,5,"23679 GA HIGHWAY 110 / PO BOX 66, WAVERLY, GA, 31565","Match","Non_Exact","23679 STATE RTE 110, WAVERLY, GA, 31565",629671670,"L"
131006,"2368 AMSTERDAM CIRCLE","MONTGOMERY","WI",60538,NA,NA,6,"2368 AMSTERDAM CIRCLE, MONTGOMERY, WI, 60538","No_Match",NA,NA,NA,NA
131007,"2368 E 1330 S","SPANISH FORK","UT",84660,40.0927716350001,-111.61464922,7,"2368 E 1330 S, SPANISH FORK, UT, 84660","Match","Exact","2368 E 1330 S, SPANISH FORK, UT, 84660",134289378,"R"
131008,"2368 ELMHURST BLVD NW","KENNESAW","GA",30152,34.013471097,-84.6320661889999,8,"2368 ELMHURST BLVD NW, KENNESAW, GA, 30152","Match","Exact","2368 ELMHURST BLVD NW, KENNESAW, GA, 30152",17270316,"L"
131009,"2368 GRAYS LANDING ROAD","WAYZATA","MN",55391,44.95922209,-93.484662805,9,"2368 GRAYS LANDING ROAD, WAYZATA, MN, 55391","Match","Exact","2368 GRAYS LANDING RD, WAYZATA, MN, 55391",648125268,"R"
131010,"2368 HARBOR TOWN DRIVE","KISSIMMEE","FL",34744,28.301054992,-81.348290737,10,"2368 HARBOR TOWN DRIVE, KISSIMMEE, FL, 34744","Match","Exact","2368 HARBOR TOWN DR, KISSIMMEE, FL, 34744",176685887,"R"
131011,"2368 LYNN IRIS DR","DECATUR","GA",30032,33.738049398,-84.292830016,11,"2368 LYNN IRIS DR, DECATUR, GA, 30032","Match","Exact","2368 LYNN IRIS DR, DECATUR, GA, 30032",23368282,"L"
131012,"2368 N 112TH STREET","MILWAUKEE","WI",53226,43.0623966110001,-88.052655951,12,"2368 N 112TH STREET, MILWAUKEE, WI, 53226","Match","Exact","2368 N 112TH ST, MILWAUKEE, WI, 53226",77727471,"R"
131013,"2368 NORTH 91ST STREET","WAUWATOSA","WI",53226,43.061671174,-88.026221097,13,"2368 NORTH 91ST STREET, WAUWATOSA, WI, 53226","Match","Exact","2368 N 91ST ST, WAUWATOSA, WI, 53226",77728370,"R"
131014,"2368 NW 7 STREET","MIAMI","FL",33125,25.7795950390001,-80.234114833,14,"2368 NW 7 STREET, MIAMI, FL, 33125","Match","Exact","2368 NW 7TH ST, MIAMI, FL, 33125",116011519,"L"
131015,"2368 STOUGHTON CIRCLE","AURORA","IL",60502,41.7589662180001,-88.2575899559999,15,"2368 STOUGHTON CIRCLE, AURORA, IL, 60502","Match","Exact","2368 STOUGHTON CIR, AURORA, IL, 60502",624648154,"L"
131016,"2368 TORRANCE BLVD","TORRANCE","CA",90501,33.8363710420001,-118.325752172,16,"2368 TORRANCE BLVD, TORRANCE, CA, 90501","Match","Exact","2368 TORRANCE BLVD, TORRANCE, CA, 90501",141665903,"L"
131017,"2368 WASHINGTON AVE","BRONX","NY",10458,40.8566390990001,-73.891939699,17,"2368 WASHINGTON AVE, BRONX, NY, 10458","Match","Exact","2368 WASHINGTON AVE, BRONX, NY, 10458",80301415,"R"
131018,"2368 WAYFARER DRIVE","DISCOVERY BAY","CA",94505,37.89154139,-121.595515403,18,"2368 WAYFARER DRIVE, DISCOVERY BAY, CA, 94505","Match","Exact","2368 WAYFARER DR, DISCOVERY BAY, CA, 94505",192079156,"R"
131019,"23680 BOHN ROAD","BELLEVILLE","MI",48111,42.1294345100001,-83.489864629,19,"23680 BOHN ROAD, BELLEVILLE, MI, 48111","Match","Exact","23680 BOHN RD, BELLEVILLE, MI, 48111",95692831,"R"
131020,"23680 VILLAGE HOUSE DRIVE N UNIT 7A","SOUTHFIELD","MI",48033,42.4818877760001,-83.276870544,20,"23680 VILLAGE HOUSE DRIVE N UNIT 7A, SOUTHFIELD, MI, 48033","Match","Exact","23680 VILLAGE HOUSE DR N, SOUTHFIELD, MI, 48033",69755682,"R"
131021,"23681 TRI LAKES RD","MONTGOMERY","TX",77316,30.356184968,-95.736300713,21,"23681 TRI LAKES RD, MONTGOMERY, TX, 77316","Match","Exact","23681 TRI LAKES RD, MONTGOMERY, TX, 77316",79268489,"L"
131022,"23684 FM 508","HARLINGEN","TX",78550,NA,NA,22,"23684 FM 508, HARLINGEN, TX, 78550","No_Match",NA,NA,NA,NA
131023,"23684 VALLEY VIEW RD","CALABASAS","CA",91302,34.13088423,-118.645806581,23,"23684 VALLEY VIEW RD, CALABASAS, CA, 91302","Match","Exact","23684 VALLEY VIEW RD, CALABASAS, CA, 91302",141723662,"R"
131024,"2368A RICE BLVD - SUITE 107","HOUSTON","TX",77005,29.717478483,-95.414278114,24,"2368A RICE BLVD - SUITE 107, HOUSTON, TX, 77005","Match","Exact","2368 RICE BLVD, HOUSTON, TX, 77005",96063831,"R"
131025,"2368A RICE BLVD SUITE 458","HOUSTON","TX",77005,29.717478483,-95.414278114,25,"2368A RICE BLVD SUITE 458, HOUSTON, TX, 77005","Match","Exact","2368 RICE BLVD, HOUSTON, TX, 77005",96063831,"R"
131026,"2369 1ST AVE SUITE 9C","NEW YORK","NY",10035,NA,NA,26,"2369 1ST AVE SUITE 9C, NEW YORK, NY, 10035","No_Match",NA,NA,NA,NA
131027,"2369 210TH STREET","AMES","IA",50014,42.04907811,-93.7051215559999,27,"2369 210TH STREET, AMES, IA, 50014","Match","Exact","2369 210TH ST, AMES, IA, 50014",64945225,"L"
131028,"2369 BARRETT AVENUE","RICHMOND","CA",94804,37.938418712,-122.346940853,28,"2369 BARRETT AVENUE, RICHMOND, CA, 94804","Match","Exact","2369 BARRETT AVE, RICHMOND, CA, 94804",192040725,"L"
131029,"2369 JESSUP AVENUE FLOOR 3 ADMIN BD","MARSHALLTOWN","IA",50158,42.0112625240001,-93.0586615129999,29,"2369 JESSUP AVENUE FLOOR 3 ADMIN BD, MARSHALLTOWN, IA, 50158","Match","Exact","2369 JESSUP AVE, MARSHALLTOWN, IA, 50158",638306891,"L"
131030,"2369 JESSUP AVENUE FLOOR 3","MARSHALLTOWN","IA",50158,42.0112625240001,-93.0586615129999,30,"2369 JESSUP AVENUE FLOOR 3, MARSHALLTOWN, IA, 50158","Match","Exact","2369 JESSUP AVE, MARSHALLTOWN, IA, 50158",638306891,"L"
131031,"2369 KRONPRINDSENS GADE  8 304","SAINT THOMAS","VI",802,NA,NA,31,"2369 KRONPRINDSENS GADE  8 304, SAINT THOMAS, VI, 802","No_Match",NA,NA,NA,NA
131032,"2369 NORTH CREEK ROAD","LAKE VIEW","NY",14085,42.696509178,-78.91746856,32,"2369 NORTH CREEK ROAD, LAKE VIEW, NY, 14085","Match","Exact","2369 N CREEK RD, LAKE VIEW, NY, 14085",48342893,"R"
131033,"2369 PRADERA CT APT 202 31707","ALBANY","GA",31707,NA,NA,33,"2369 PRADERA CT APT 202 31707, ALBANY, GA, 31707","No_Match",NA,NA,NA,NA
131034,"2369 SNAPDRAGON POINT","EAST STROUDSBURG","PA",18301,NA,NA,34,"2369 SNAPDRAGON POINT, EAST STROUDSBURG, PA, 18301","No_Match",NA,NA,NA,NA
131035,"23690 NORTH ELM ROAD","LINCOLNSHIRE","IL",60069,42.2069464470001,-87.91583851,35,"23690 NORTH ELM ROAD, LINCOLNSHIRE, IL, 60069","Match","Exact","23690 N ELM RD, LINCOLNSHIRE, IL, 60069",119734575,"R"
131036,"23690 SNAKEBITE TRAIL","GAVILAN HILLS","CA",92590,NA,NA,36,"23690 SNAKEBITE TRAIL, GAVILAN HILLS, CA, 92590","No_Match",NA,NA,NA,NA
131037,"23695 ST RT 347","WEST MANSFIELD","OH",43358,40.347266027,-83.5056369339999,37,"23695 ST RT 347, WEST MANSFIELD, OH, 43358","Match","Non_Exact","23695 STATE RTE 347, W MANSFIELD, OH, 43358",135360275,"L"
131038,"23696 W HUNTINGTON DRIVE","BUCKEYE","AZ",85326,33.393263405,-112.559148747,38,"23696 W HUNTINGTON DRIVE, BUCKEYE, AZ, 85326","Match","Exact","23696 W HUNTINGTON DR, BUCKEYE, AZ, 85326",627231290,"L"
131039,"23697 MULLIGAN MILE","RAPID CITY","SD",57702,43.9707497570001,-103.228834807,39,"23697 MULLIGAN MILE, RAPID CITY, SD, 57702","Match","Exact","23697 MULLIGAN MILE, RAPID CITY, SD, 57702",647737640,"R"
131040,"23699 HEATHER MEWS DRIVE","ASHBURN","VA",20148,38.961809444,-77.562667871,40,"23699 HEATHER MEWS DRIVE, ASHBURN, VA, 20148","Match","Exact","23699 HEATHER MEWS DR, ASHBURN, VA, 20148",646781589,"L"
131041,"236B HERITAGE HILLS","SOMERS","NY",10589,NA,NA,41,"236B HERITAGE HILLS, SOMERS, NY, 10589","Tie",NA,NA,NA,NA
131042,"236G WEST EAST AVENUE","CHICO","CA",95926,39.7544456960001,-121.865253717,42,"236G WEST EAST AVENUE, CHICO, CA, 95926","Match","Exact","236 W EAST AVE, CHICO, CA, 95926",652699141,"L"
131043,"237    PARKVILLE   AVENUE","BROOKLYN","NY",11230,40.631440142,-73.970291469,43,"237    PARKVILLE   AVENUE, BROOKLYN, NY, 11230","Match","Exact","237 PARKVILLE AVE, BROOKLYN, NY, 11230",59096583,"R"
131044,"237 1/2 EAST HOMESTEAD STREET","MEDINA","OH",44256,41.1462397080001,-81.8617306849999,44,"237 1/2 EAST HOMESTEAD STREET, MEDINA, OH, 44256","Match","Exact","237 E HOMESTEAD ST, MEDINA, OH, 44256",58676116,"R"
131045,"237 11TH ST APT 6E","BROOKLYN","NY",11215,40.6693099500001,-73.990041498,45,"237 11TH ST APT 6E, BROOKLYN, NY, 11215","Match","Exact","237 11TH ST, BROOKLYN, NY, 11215",59075628,"L"
131046,"237 11TH STREET APT 4I","BROOKLYN","NY",11215,40.6693099500001,-73.990041498,46,"237 11TH STREET APT 4I, BROOKLYN, NY, 11215","Match","Exact","237 11TH ST, BROOKLYN, NY, 11215",59075628,"L"
131047,"237 15TH AVE W","BRADENTON","FL",34205,27.486135378,-82.564900747,47,"237 15TH AVE W, BRADENTON, FL, 34205","Match","Exact","237 15TH AVE W, BRADENTON, FL, 34205",16272464,"R"
131048,"237 26TH STREET DRIVE SE","CEDAR RAPIDS","IA",52403,42.001732659,-91.631943485,48,"237 26TH STREET DRIVE SE, CEDAR RAPIDS, IA, 52403","Match","Exact","237 26TH STREET DR SE, CEDAR RAPIDS, IA, 52403",17022283,"R"
131049,"237 26TH STREET E220","OGDEN","UT",84401,41.218616173,-111.975116227,49,"237 26TH STREET E220, OGDEN, UT, 84401","Match","Exact","237 26TH ST, OGDEN, UT, 84401",624672269,"R"
131050,"237 7TH AVENUE","BROOKLYN","NY",11215,40.6696726320001,-73.979253587,50,"237 7TH AVENUE, BROOKLYN, NY, 11215","Match","Exact","237 7TH AVE, BROOKLYN, NY, 11215",59078156,"L"
131051,"237 ANACOSTIA AVE NE","WASHINGTON","DC",20019,38.892687208,-76.961022279,51,"237 ANACOSTIA AVE NE, WASHINGTON, DC, 20019","Match","Exact","237 ANACOSTIA AVE NE, WASHINGTON, DC, 20019",76231490,"R"
131052,"237 ARCHIPELAGO TRL","AUSTIN","TX",78759,30.4897414530001,-97.727044561,52,"237 ARCHIPELAGO TRL, AUSTIN, TX, 78759","Match","Non_Exact","237 ARCHIPELAGO TRL, AUSTIN, TX, 78717",641108666,"L"
131053,"237 AUDUBON DRIVE","COLORADO SPRINGS","CO",80910,38.828626538,-104.761504612,53,"237 AUDUBON DRIVE, COLORADO SPRINGS, CO, 80910","Match","Exact","237 AUDUBON DR, COLORADO SPRINGS, CO, 80910",636743584,"R"
131054,"237 BEAVER DRIVE PO BOX 447","DUBOIS","PA",15801,41.1231714900001,-78.751031218,54,"237 BEAVER DRIVE PO BOX 447, DUBOIS, PA, 15801","Match","Exact","237 BEAVER DR, DUBOIS, PA, 15801",50474860,"R"
131055,"237 BERKELEY RIDGE DRIVE","COLUMBIA","SC",29229,34.1833704860001,-80.8825834039999,55,"237 BERKELEY RIDGE DRIVE, COLUMBIA, SC, 29229","Match","Exact","237 BERKELEY RIDGE DR, COLUMBIA, SC, 29229",608832029,"R"
131056,"237 BERKLEY AVENUE","LANSDOWNE","PW",19050,NA,NA,56,"237 BERKLEY AVENUE, LANSDOWNE, PW, 19050","No_Match",NA,NA,NA,NA
131057,"237 BOWLING FARM COURT","RALEIGH","NC",27603,35.6351956930001,-78.633040347,57,"237 BOWLING FARM COURT, RALEIGH, NC, 27603","Match","Exact","237 BOWLING FARM CT, RALEIGH, NC, 27603",72599263,"L"
131058,"237 BRIDGE VIEW LN SE","ROCHESTER","MN",55904,44.018081577,-92.4118507649999,58,"237 BRIDGE VIEW LN SE, ROCHESTER, MN, 55904","Match","Non_Exact","237 BRIDGEVIEW LN SE, ROCHESTER, MN, 55904",30577250,"L"
131059,"237 BROADWAY","HUNTINGTON","NY",11743,40.8518980750001,-73.365645324,59,"237 BROADWAY, HUNTINGTON, NY, 11743","Match","Exact","237 BROADWAY, HUNTINGTON, NY, 11743",652208359,"R"
131060,"237 BROOKDALE DRIVE","LITTLE ELM","TX",75058,33.1646794120001,-96.935982026,60,"237 BROOKDALE DRIVE, LITTLE ELM, TX, 75058","Match","Non_Exact","237 BROOKDALE DR, LITTLE ELM, TX, 75068",614127149,"L"
131061,"237 BROOKDALE DRIVE","LITTLE ELM","TX",75068,33.1646794120001,-96.935982026,61,"237 BROOKDALE DRIVE, LITTLE ELM, TX, 75068","Match","Exact","237 BROOKDALE DR, LITTLE ELM, TX, 75068",614127149,"L"
131062,"237 BUENA VISTA DRIVE","CORPUS CHRISTI","TX",78418,27.62196134,-97.296211967,62,"237 BUENA VISTA DRIVE, CORPUS CHRISTI, TX, 78418","Match","Exact","237 BUENA VISTA DR, CORPUS CHRISTI, TX, 78418",178523819,"L"
131063,"237 CAHORS TRAIL","HOLLY SPRINGS","NC",27540,35.62803525,-78.876777433,63,"237 CAHORS TRAIL, HOLLY SPRINGS, NC, 27540","Match","Exact","237 CAHORS TRL, HOLLY SPRINGS, NC, 27540",652159369,"R"
131064,"237 COUNTRY HILLS LANE","ROOSEVELT","UT",84066,NA,NA,64,"237 COUNTRY HILLS LANE, ROOSEVELT, UT, 84066","No_Match",NA,NA,NA,NA
131065,"237 COVE LANE","HUDSON","WI",54016,44.8987633620001,-92.757362803,65,"237 COVE LANE, HUDSON, WI, 54016","Match","Exact","237 COVE LN, HUDSON, WI, 54016",110917146,"L"
131066,"237 DAVORS DRIVE","MONTGOMERY","AL",36109,32.3771976130001,-86.212575279,66,"237 DAVORS DRIVE, MONTGOMERY, AL, 36109","Match","Exact","237 DAVORS DR, MONTGOMERY, AL, 36109",1472712,"L"
131067,"237 DEFRIES ROAD","RAGLEY","LA",70657,30.52295845,-93.2123663409999,67,"237 DEFRIES ROAD, RAGLEY, LA, 70657","Match","Exact","237 DEFRIES RD, RAGLEY, LA, 70657",88389658,"R"
131068,"237 DOVE HILL LN","WEATHERFORD","TX",76088,32.8075515510001,-97.82887676,68,"237 DOVE HILL LN, WEATHERFORD, TX, 76088","Match","Exact","237 DOVE HILL LN, WEATHERFORD, TX, 76088",103597321,"L"
131069,"237 DRAKE LN","GARLAND","TX",75043,32.859213922,-96.6134877709999,69,"237 DRAKE LN, GARLAND, TX, 75043","Match","Exact","237 DRAKE LN, GARLAND, TX, 75043",103276791,"R"
131070,"237 DRY FORK RD","DEL RIO","TN",37727,NA,NA,70,"237 DRY FORK RD, DEL RIO, TN, 37727","No_Match",NA,NA,NA,NA
131071,"237 E BEACHWOOD LOOP","TRINIDAD","TX",75163,32.237035538,-96.128473497,71,"237 E BEACHWOOD LOOP, TRINIDAD, TX, 75163","Match","Exact","237 BEACHWOOD LOOP, TRINIDAD, TX, 75163",125797391,"L"
131072,"237 E FARISTON DRIVE","PHILADELPHIA","PA",19120,40.048235725,-75.115097674,72,"237 E FARISTON DRIVE, PHILADELPHIA, PA, 19120","Match","Exact","237 E FARISTON DR, PHILADELPHIA, PA, 19120",628810394,"R"
131073,"237 E HARRISON STREET","VILLA PARK","IL",60181,41.8679102680001,-87.9719832549999,73,"237 E HARRISON STREET, VILLA PARK, IL, 60181","Match","Exact","237 E HARRISON ST, VILLA PARK, IL, 60181",112546569,"R"
131074,"237 E LEROY ST","THOMASTON","MI",30286,NA,NA,74,"237 E LEROY ST, THOMASTON, MI, 30286","No_Match",NA,NA,NA,NA
131075,"237 E MINOR","STOCKTON","CA",95202,NA,NA,75,"237 E MINOR, STOCKTON, CA, 95202","No_Match",NA,NA,NA,NA
131076,"237 E SANILAC RD","SANDUSKY","MI",48471,43.421463642,-82.822537016,76,"237 E SANILAC RD, SANDUSKY, MI, 48471","Match","Exact","237 E SANILAC RD, SANDUSKY, MI, 48471",111051961,"L"
131077,"237 E UPSAL STREET","PHILADELPHIA","PA",19119,40.051242632,-75.180361293,77,"237 E UPSAL STREET, PHILADELPHIA, PA, 19119","Match","Exact","237 E UPSAL ST, PHILADELPHIA, PA, 19119",131395452,"L"
131078,"237 ESCONDIDO DRIVE","MARTINEZ","CA",94553,38.0066839830001,-122.10534379,78,"237 ESCONDIDO DRIVE, MARTINEZ, CA, 94553","Match","Exact","237 ESCONDIDO DR, MARTINEZ, CA, 94553",192036253,"L"
131079,"237 EVERTS PL","HIGHWOOD","IL",60040,42.2011564580001,-87.8108386919999,79,"237 EVERTS PL, HIGHWOOD, IL, 60040","Match","Exact","237 EVERTS PL, HIGHWOOD, IL, 60040",119648217,"R"
131080,"237 GOLDEN BEAR DR","AUSTIN","TX",78738,30.333926257,-97.978996095,80,"237 GOLDEN BEAR DR, AUSTIN, TX, 78738","Match","Exact","237 GOLDEN BEAR DR, AUSTIN, TX, 78738",64008792,"R"
131081,"237 GRAYSON WAY SUITE A","UPLAND","CA",91786,34.0919455960001,-117.667247056,81,"237 GRAYSON WAY SUITE A, UPLAND, CA, 91786","Match","Exact","237 GRAYSON WAY, UPLAND, CA, 91786",144672017,"R"
131082,"237 GREAT NECK ROAD 4D","GREAT NECK","NY",11021,40.7818951400001,-73.731977136,82,"237 GREAT NECK ROAD 4D, GREAT NECK, NY, 11021","Match","Exact","237 GREAT NECK RD, GREAT NECK, NY, 11021",147656395,"R"
131083,"237 HAFER ROAD","OLEY","PA",19547,NA,NA,83,"237 HAFER ROAD, OLEY, PA, 19547","No_Match",NA,NA,NA,NA
131084,"237 HAMBURG TURNPIKE","POMPTON LAKES","NJ",7442,40.9988681580001,-74.287959443,84,"237 HAMBURG TURNPIKE, POMPTON LAKES, NJ, 7442","Match","Exact","237 HAMBURG TPKE, POMPTON LAKES, NJ, 07442",65256362,"L"
131085,"237 HAMILTON AVE 1ST FL REAR","GREENWICH","CT",6830,41.0165124860001,-73.640386351,85,"237 HAMILTON AVE 1ST FL REAR, GREENWICH, CT, 6830","Match","Exact","237 HAMILTON AVE, GREENWICH, CT, 06830",3256600,"L"
131086,"237 HANSON AVENUE","PISCATAWAY","NJ",8854,40.5277249320001,-74.4837194199999,86,"237 HANSON AVENUE, PISCATAWAY, NJ, 8854","Match","Exact","237 HANSON AVE, PISCATAWAY, NJ, 08854",60262616,"R"
131087,"237 HARDIMAN PLACE","FRANKFORT","NY",13340,43.0715964870001,-75.166668881,87,"237 HARDIMAN PLACE, FRANKFORT, NY, 13340","Match","Exact","237 HARDIMAN PL, FRANKFORT, NY, 13340",153727723,"L"
131088,"237 HARVEST CT","THAIBODAUX","LA",70301,29.787272521,-90.8539402489999,88,"237 HARVEST CT, THAIBODAUX, LA, 70301","Match","Non_Exact","237 HARVEST CT, THIBODAUX, LA, 70301",648289087,"R"
131089,"237 HEATHERWOOD DR","EPHRATA","PA",17522,40.170761229,-76.1881415,89,"237 HEATHERWOOD DR, EPHRATA, PA, 17522","Match","Exact","237 HEATHERWOOD DR, EPHRATA, PA, 17522",627577427,"R"
131090,"237 HIAWASSEE AVE","ATHENS","GA",30601,33.967008091,-83.396723427,90,"237 HIAWASSEE AVE, ATHENS, GA, 30601","Match","Exact","237 HIAWASSEE AVE, ATHENS, GA, 30601",4801826,"L"
131091,"237 HIGH STREET","PHOENIXVILLE","PA",19460,40.1380233630001,-75.515753989,91,"237 HIGH STREET, PHOENIXVILLE, PA, 19460","Match","Non_Exact","237 E HIGH ST, PHOENIXVILLE, PA, 19460",179494692,"R"
131092,"237 HIGHVILLE RD","CONESTOGA","PA",17516,39.9513058650001,-76.4218409919999,92,"237 HIGHVILLE RD, CONESTOGA, PA, 17516","Match","Exact","237 HIGHVILLE RD, CONESTOGA, PA, 17516",648130447,"L"
131093,"237 HILL STREET","SANTA MONICA","CA",90405,34.0015709520001,-118.481643243,93,"237 HILL STREET, SANTA MONICA, CA, 90405","Match","Exact","237 HILL ST, SANTA MONICA, CA, 90405",141559925,"L"
131094,"237 HILLANDALE DRIVE","CHARLOTTE","NC",28270,35.1260395830001,-80.753227185,94,"237 HILLANDALE DRIVE, CHARLOTTE, NC, 28270","Match","Exact","237 HILLANDALE DR, CHARLOTTE, NC, 28270",648379321,"L"
131095,"237 HOUSATONIC DRIVE","MILFORD","CT",6460,41.1920828460001,-73.10857685,95,"237 HOUSATONIC DRIVE, MILFORD, CT, 6460","Match","Exact","237 HOUSATONIC DR, MILFORD, CT, 06460",3713510,"R"
131096,"237 KEARNY STREET 103","SAN FRANCISCO","CA",94108,37.7903267140001,-122.403946853,96,"237 KEARNY STREET 103, SAN FRANCISCO, CA, 94108","Match","Exact","237 KEARNY ST, SAN FRANCISCO, CA, 94108",192281378,"L"
131097,"237 KI KE ACRES RD","SEARCY","AR",72143,35.202735476,-91.7737147619999,97,"237 KI KE ACRES RD, SEARCY, AR, 72143","Match","Exact","237 KI KE ACRES RD, SEARCY, AR, 72143",82962381,"L"
131098,"237 LAFAYETTE ST STE 2 WEST","NEW YORK","NY",10012,40.722592885,-73.9969977659999,98,"237 LAFAYETTE ST STE 2 WEST, NEW YORK, NY, 10012","Match","Exact","237 LAFAYETTE ST, NEW YORK, NY, 10012",59653760,"R"
131099,"237 LANCASTER AVE","ROSEBURG","OR",97471,43.153532672,-123.397892893,99,"237 LANCASTER AVE, ROSEBURG, OR, 97471","Match","Exact","237 LANCASTER AVE, ROSEBURG, OR, 97471",137238176,"R"
131100,"237 LAUREL SPRINGS ROAD","MACON","GA",31206,32.826269611,-83.745917737,100,"237 LAUREL SPRINGS ROAD, MACON, GA, 31206","Match","Non_Exact","237 LAUREL SPRINGS DR, MACON, GA, 31206",650742094,"R"
131101,"237 LCPL JACOB BEISEL ROAD","LACKAWAXEN","PA",18435,41.4765330380001,-75.004818294,101,"237 LCPL JACOB BEISEL ROAD, LACKAWAXEN, PA, 18435","Match","Exact","237 LCPL JACOB BEISEL RD, LACKAWAXEN, PA, 18435",191437441,"R"
131102,"237 LEXINGTON AVENUE","BROOKLYN","NY",11216,40.687415334,-73.9532618439999,102,"237 LEXINGTON AVENUE, BROOKLYN, NY, 11216","Match","Exact","237 LEXINGTON AVE, BROOKLYN, NY, 11216",59078872,"L"
131103,"237 LONG MEADOW LANE","MADISONVILLE","TN",37354,35.485310102,-84.380116981,103,"237 LONG MEADOW LANE, MADISONVILLE, TN, 37354","Match","Exact","237 LONG MEADOW LN, MADISONVILLE, TN, 37354",85310991,"R"
131104,"237 LUCE ST","GRAND RAPIDS","MI",49534,42.9477635630001,-85.790326234,104,"237 LUCE ST, GRAND RAPIDS, MI, 49534","Match","Non_Exact","237 LUCE ST SW, GRAND RAPIDS, MI, 49534",641564184,"R"
131105,"237 LUDFORD STREET","LUDLOW","KY",41016,39.087864133,-84.5535280029999,105,"237 LUDFORD STREET, LUDLOW, KY, 41016","Match","Exact","237 LUDFORD ST, LUDLOW, KY, 41016",103874423,"L"
131106,"237 MADISON AVENUE","WARMINSTER","PA",18974,40.1936473270001,-75.0958533,106,"237 MADISON AVENUE, WARMINSTER, PA, 18974","Match","Exact","237 MADISON AVE, WARMINSTER, PA, 18974",134706155,"R"
131107,"237 MAIN STREET","KALISPELL","MT",59901,48.196439728,-114.312922495,107,"237 MAIN STREET, KALISPELL, MT, 59901","Match","Exact","237 MAIN ST, KALISPELL, MT, 59901",204087283,"R"
131108,"237 MALLARD DR EAST","NORTH WALES","PA",19454,40.24740188,-75.2052171989999,108,"237 MALLARD DR EAST, NORTH WALES, PA, 19454","Match","Exact","237 MALLARD DR E, NORTH WALES, PA, 19454",135102645,"L"
131109,"237 MAPLEWOOD AVE","CLIFTON","NJ",7013,40.8899144860001,-74.173343598,109,"237 MAPLEWOOD AVE, CLIFTON, NJ, 7013","Match","Exact","237 MAPLEWOOD AVE, CLIFTON, NJ, 07013",65265329,"L"
131110,"237 MARIPOSA ST","BRISBANE","CA",94005,37.6835991390001,-122.402017684,110,"237 MARIPOSA ST, BRISBANE, CA, 94005","Match","Exact","237 MARIPOSA ST, BRISBANE, CA, 94005",192368545,"L"
131111,"237 MILL CREEK PKWY APT 2C","CHESAPEAKE","VA",23323,36.7385338390001,-76.347846406,111,"237 MILL CREEK PKWY APT 2C, CHESAPEAKE, VA, 23323","Match","Exact","237 MILL CREEK PKWY, CHESAPEAKE, VA, 23323",121795112,"L"
131112,"237 MONTE ALTO PL NE","ALBUQUERQUE","NM",87123,35.07031972,-106.494592773,112,"237 MONTE ALTO PL NE, ALBUQUERQUE, NM, 87123","Match","Exact","237 MONTE ALTO PL NE, ALBUQUERQUE, NM, 87123",206707685,"L"
131113,"237 MUSES MILL COURT","HOLLY SPRINGS","NC",27540,35.665442958,-78.841625385,113,"237 MUSES MILL COURT, HOLLY SPRINGS, NC, 27540","Match","Exact","237 MUSES MILL CT, HOLLY SPRINGS, NC, 27540",639846102,"L"
131114,"237 MUSES MILL CT","HOLLY SPRINGS","NC",27540,35.665442958,-78.841625385,114,"237 MUSES MILL CT, HOLLY SPRINGS, NC, 27540","Match","Exact","237 MUSES MILL CT, HOLLY SPRINGS, NC, 27540",639846102,"L"
131115,"237 N 2ND ST","MARINE CITY","MI",48039,42.721673084,-82.498091073,115,"237 N 2ND ST, MARINE CITY, MI, 48039","Match","Exact","237 N 2ND ST, MARINE CITY, MI, 48039",110962672,"L"
131116,"237 N BELLEVUE BLVD","MEMPHIS","TN",38105,35.1459407240001,-90.020835375,116,"237 N BELLEVUE BLVD, MEMPHIS, TN, 38105","Match","Exact","237 N BELLEVUE BLVD, MEMPHIS, TN, 38105",652883582,"L"
131117,"237 N CEDAR ST","MANISTIQUE","MI",49854,45.9626278420001,-86.246257843,117,"237 N CEDAR ST, MANISTIQUE, MI, 49854","Match","Exact","237 N CEDAR ST, MANISTIQUE, MI, 49854",171895700,"L"
131118,"237 N DR MLK JR DRIVE APT 304","SOUTH BEND","IN",46601,NA,NA,118,"237 N DR MLK JR DRIVE APT 304, SOUTH BEND, IN, 46601","No_Match",NA,NA,NA,NA
131119,"237 N MICHIGAN ST APT 908","SOUTH BEND","IN",46601,NA,NA,119,"237 N MICHIGAN ST APT 908, SOUTH BEND, IN, 46601","Tie",NA,NA,NA,NA
131120,"237 N QUINSIGAMOND AVE","SHREWSBURY","MA",1545,42.2937437860001,-71.753643241,120,"237 N QUINSIGAMOND AVE, SHREWSBURY, MA, 1545","Match","Exact","237 N QUINSIGAMOND AVE, SHREWSBURY, MA, 01545",40086662,"R"
131121,"237 N ST JOSEPH AVE","HASTINGS","NE",68901,40.5855342850001,-98.3875985669999,121,"237 N ST JOSEPH AVE, HASTINGS, NE, 68901","Match","Exact","237 N SAINT JOSEPH AVE, HASTINGS, NE, 68901",196205314,"L"
131122,"237 NE BROADWAY SUITE 100","PORTLAND","OR",97232,NA,NA,122,"237 NE BROADWAY SUITE 100, PORTLAND, OR, 97232","No_Match",NA,NA,NA,NA
131123,"237 NE HIDDEN RIDGE CIRCLE","LEES SUMMIT","MO",64064,39.0129496590001,-94.371713933,123,"237 NE HIDDEN RIDGE CIRCLE, LEES SUMMIT, MO, 64064","Match","Exact","237 NE HIDDEN RIDGE CIR, LEES SUMMIT, MO, 64064",91519951,"R"
131124,"237 NEFF STREET","POWHATAN POINT","OH",43942,39.8676989350001,-80.7945178049999,124,"237 NEFF STREET, POWHATAN POINT, OH, 43942","Match","Exact","237 NEFF ST, POWHATAN POINT, OH, 43942",36203378,"L"
131125,"237 NORTH AVENUE UNIT 25","BURLINGTON","VT",5401,44.487920478,-73.225115509,125,"237 NORTH AVENUE UNIT 25, BURLINGTON, VT, 5401","Match","Exact","237 NORTH AVE, BURLINGTON, VT, 05401",135827145,"L"
131126,"237 NORTH ST","SALEM","MA",1970,42.5320562630001,-70.911982555,126,"237 NORTH ST, SALEM, MA, 1970","Match","Exact","237 NORTH ST, SALEM, MA, 01970",86694213,"L"
131127,"237 NORTH WARE DRIVE","WEST PALM BEACH","FL",33409,26.7121384860001,-80.082799171,127,"237 NORTH WARE DRIVE, WEST PALM BEACH, FL, 33409","Match","Exact","237 N WARE DR, WEST PALM BEACH, FL, 33409",115271787,"R"
131128,"237 OAKWOOD DR","VASS","NC",28394,35.2545078850001,-79.288782209,128,"237 OAKWOOD DR, VASS, NC, 28394","Match","Exact","237 OAKWOOD DR, VASS, NC, 28394",20291246,"R"
131129,"237 OAKWOOD DRIVE","MANSFIELD","OH",44906,40.753201677,-82.546627685,129,"237 OAKWOOD DRIVE, MANSFIELD, OH, 44906","Match","Exact","237 OAKWOOD DR, MANSFIELD, OH, 44906",12874768,"L"
131130,"237 OFFICE PLAZA DRIVE SUITE 204","TALLAHASSEE","FL",32301,30.444278416,-84.259657051,130,"237 OFFICE PLAZA DRIVE SUITE 204, TALLAHASSEE, FL, 32301","Match","Exact","237 OFFICE PLZ, TALLAHASSEE, FL, 32301",82854036,"R"
131131,"237 OXFORD ST","PORTLAND","ME",4101,43.6592403070001,-70.2615199849999,131,"237 OXFORD ST, PORTLAND, ME, 4101","Match","Exact","237 OXFORD ST, PORTLAND, ME, 04101",78028184,"R"
131132,"237 POINTER DRIVE","JEFFERSON HILLS","PA",15025,40.3161701130001,-79.974026612,132,"237 POINTER DRIVE, JEFFERSON HILLS, PA, 15025","Match","Exact","237 POINTER DR, JEFFERSON HILLS, PA, 15025",639548616,"L"
131133,"237 QUINCY STREET","BROOKLYN","NY",11216,40.6868573740001,-73.9516120819999,133,"237 QUINCY STREET, BROOKLYN, NY, 11216","Match","Exact","237 QUINCY ST, BROOKLYN, NY, 11216",59078874,"L"
131134,"237 RAILROAD LANE","TOPMOST","KY",41862,37.349801058,-82.809065056,134,"237 RAILROAD LANE, TOPMOST, KY, 41862","Match","Exact","237 RAILROAD LN, TOPMOST, KY, 41862",33693029,"L"
131135,"237 RIDGEVIEW DRIVE","PALM BEACH","FL",33480,26.739872538,-80.037778187,135,"237 RIDGEVIEW DRIVE, PALM BEACH, FL, 33480","Match","Exact","237 RIDGEVIEW DR, PALM BEACH, FL, 33480",115278012,"R"
131136,"237 ROBERT RD","MARLBOROUGH","MA",1752,42.362917016,-71.521883063,136,"237 ROBERT RD, MARLBOROUGH, MA, 1752","Match","Exact","237 ROBERT RD, MARLBOROUGH, MA, 01752",86931449,"L"
131137,"237 ROBERTA AVE","COLLINGDALE","PA",19023,39.915344292,-75.270849536,137,"237 ROBERTA AVE, COLLINGDALE, PA, 19023","Match","Exact","237 ROBERTA AVE, COLLINGDALE, PA, 19023",134884813,"R"
131138,"237 ROCKINGHAM RD","BRYN MAWR","PA",19010,40.025601712,-75.3400759949999,138,"237 ROCKINGHAM RD, BRYN MAWR, PA, 19010","Match","Exact","237 ROCKINGHAM RD, BRYN MAWR, PA, 19010",134872712,"L"
131139,"237 ROSS AVE","HACKENSACK","NJ",7601,40.901594747,-74.048289172,139,"237 ROSS AVE, HACKENSACK, NJ, 7601","Match","Exact","237 ROSS AVE, HACKENSACK, NJ, 07601",64385740,"L"
131140,"237 S FLORENCE AVE","SPRINGFIELD","MO",65806,37.208627945,-93.2774765779999,140,"237 S FLORENCE AVE, SPRINGFIELD, MO, 65806","Match","Exact","237 S FLORENCE AVE, SPRINGFIELD, MO, 65806",605877553,"R"
131141,"237 S VIRGIL AVE","LOS ANGELES","CA",90004,34.069989928,-118.286813244,141,"237 S VIRGIL AVE, LOS ANGELES, CA, 90004","Match","Exact","237 S VIRGIL AVE, LOS ANGELES, CA, 90004",652037227,"R"
131142,"237 SANDPIPER AVE","PRINCETON","WV",24740,37.372030022,-81.124535725,142,"237 SANDPIPER AVE, PRINCETON, WV, 24740","Match","Exact","237 SANDPIPER AVE, PRINCETON, WV, 24740",47698969,"L"
131143,"237 SANTA LUCIA AVENUE  APT 3","SAN BRUNO","CA",94066,37.6162892770001,-122.40396619,143,"237 SANTA LUCIA AVENUE  APT 3, SAN BRUNO, CA, 94066","Match","Exact","237 SANTA LUCIA AVE, SAN BRUNO, CA, 94066",192374344,"R"
131144,"237 SCHOOL DRIVE","POTEET","TX",78065,29.0458976630001,-98.582438047,144,"237 SCHOOL DRIVE, POTEET, TX, 78065","Match","Exact","237 SCHOOL DR, POTEET, TX, 78065",24468605,"L"
131145,"237 SE 16TH AVE UNIT 14","GAINESVILLE","FL",32601,NA,NA,145,"237 SE 16TH AVE UNIT 14, GAINESVILLE, FL, 32601","Tie",NA,NA,NA,NA
131146,"237 SECOND STREET","JERSEY CITY","NJ",7302,40.7224191280001,-74.0431596999999,146,"237 SECOND STREET, JERSEY CITY, NJ, 7302","Match","Exact","237 2ND ST, JERSEY CITY, NJ, 07302",59606223,"L"
131147,"237 SKYLAND AVENUE","WAYNESBORO","VA",22980,38.07769648,-78.912223054,147,"237 SKYLAND AVENUE, WAYNESBORO, VA, 22980","Match","Exact","237 SKYLAND AVE, WAYNESBORO, VA, 22980",98871919,"L"
131148,"237 SOUTH FRANKLIN STREET","JENKS","OK",74037,NA,NA,148,"237 SOUTH FRANKLIN STREET, JENKS, OK, 74037","No_Match",NA,NA,NA,NA
131149,"237 SOUTHSHORE LANE","DALLAS","GA",30157,33.930497206,-84.7645231179999,149,"237 SOUTHSHORE LANE, DALLAS, GA, 30157","Match","Exact","237 SOUTHSHORE LN, DALLAS, GA, 30157",619849617,"L"
131150,"237 SOUTHSHORE LN","DALLAS","GA",30157,33.930497206,-84.7645231179999,150,"237 SOUTHSHORE LN, DALLAS, GA, 30157","Match","Exact","237 SOUTHSHORE LN, DALLAS, GA, 30157",619849617,"L"
131151,"237 STRAWBERRY LANE","DAYTONA BEACH","FL",32117,29.227968043,-81.0392847639999,151,"237 STRAWBERRY LANE, DAYTONA BEACH, FL, 32117","Match","Exact","237 STRAWBERRY LN, DAYTONA BEACH, FL, 32117",647010437,"R"
131152,"237 STREAMS WAY","ANDERSON","SC",29625,34.516898057,-82.734429975,152,"237 STREAMS WAY, ANDERSON, SC, 29625","Match","Exact","237 STREAMS WAY, ANDERSON, SC, 29625",645572185,"R"
131153,"237 SW 22ND STREET","OKLAHOMA CITY","OK",73109,35.4429558590001,-97.516877601,153,"237 SW 22ND STREET, OKLAHOMA CITY, OK, 73109","Match","Exact","237 SW 22ND ST, OKLAHOMA CITY, OK, 73109",100402943,"R"
131154,"237 SWEET BIRCH DRIVE","ROSSVILLE","GA",30741,34.979495636,-85.229118248,154,"237 SWEET BIRCH DRIVE, ROSSVILLE, GA, 30741","Match","Exact","237 SWEET BIRCH DR, ROSSVILLE, GA, 30741",653444585,"L"
131155,"237 TAHOMA ROAD","LEXINGTON","KY",40503,38.0119394990001,-84.508599663,155,"237 TAHOMA ROAD, LEXINGTON, KY, 40503","Match","Exact","237 TAHOMA RD, LEXINGTON, KY, 40503",31923122,"L"
131156,"237 TREMONT ST APT 3","SOMERVILLE","MA",2143,42.3753913510001,-71.095591536,156,"237 TREMONT ST APT 3, SOMERVILLE, MA, 2143","Match","Exact","237 TREMONT ST, SOMERVILLE, MA, 02143",86869485,"L"
131157,"237 TURNWOOD DRIVE","GLEN BURNIE","MD",21061,39.180362073,-76.647603255,157,"237 TURNWOOD DRIVE, GLEN BURNIE, MD, 21061","Match","Exact","237 TURNWOOD DR, GLEN BURNIE, MD, 21061",68155570,"L"
131158,"237 VICTORIA ROAD","HARTFORD","CT",6114,41.7273634420001,-72.6783809519999,158,"237 VICTORIA ROAD, HARTFORD, CT, 6114","Match","Exact","237 VICTORIA RD, HARTFORD, CT, 06114",3516794,"L"
131159,"237 W LINCOLN AVENUE","MOUNT VERNON","NY",10550,40.912238314,-73.8438681769999,159,"237 W LINCOLN AVENUE, MOUNT VERNON, NY, 10550","Match","Exact","237 W LINCOLN AVE, MOUNT VERNON, NY, 10550",139746664,"L"
131160,"237 WALNUT STREET","WYANDOTTE","MI",48192,42.2096532850001,-83.1524314339999,160,"237 WALNUT STREET, WYANDOTTE, MI, 48192","Match","Exact","237 WALNUT ST, WYANDOTTE, MI, 48192",95453242,"L"
131161,"237 WASHINGTON STREET","FRANKLIN","PA",16323,41.4129674390001,-79.84358565,161,"237 WASHINGTON STREET, FRANKLIN, PA, 16323","Match","Exact","237 WASHINGTON ST, FRANKLIN, PA, 16323",70739404,"R"
131162,"237 WOLGEMUTH DR","LANCASTER","PA",17602,40.0167340570001,-76.240805418,162,"237 WOLGEMUTH DR, LANCASTER, PA, 17602","Match","Exact","237 WOLGEMUTH DR, LANCASTER, PA, 17602",179696126,"L"
131163,"237 WOLGEMUTH DRIVE","LANCASTER","PA",17602,40.0167340570001,-76.240805418,163,"237 WOLGEMUTH DRIVE, LANCASTER, PA, 17602","Match","Exact","237 WOLGEMUTH DR, LANCASTER, PA, 17602",179696126,"L"
131164,"237 WOODLAWN CIRCLE","EAST HARTFORD","CT",6108,41.7764171050001,-72.5894955969999,164,"237 WOODLAWN CIRCLE, EAST HARTFORD, CT, 6108","Match","Exact","237 WOODLAWN CIR, EAST HARTFORD, CT, 06108",3496863,"L"
131165,"237 WORTHEN ROAD EAST","LEXINGTON","MA",2421,42.421463606,-71.2179894939999,165,"237 WORTHEN ROAD EAST, LEXINGTON, MA, 2421","Match","Exact","237 WORTHEN RD E, LEXINGTON, MA, 02421",86882535,"R"
131166,"2370 2ND AVENUE/2G","NEW YORK","NY",10035,40.8004930130001,-73.935124457,166,"2370 2ND AVENUE/2G, NEW YORK, NY, 10035","Match","Non_Exact","2370 2ND AVE, NEW YORK, NY, 10035",59658124,"R"
131167,"2370 AVENUE C SUITE 1","BILLINGS","MT",59102,45.7859984940001,-108.575850854,167,"2370 AVENUE C SUITE 1, BILLINGS, MT, 59102","Match","Exact","2370 AVE C, BILLINGS, MT, 59102",181474472,"L"
131168,"2370 BATTERY HILL CIRCLE","WOODBRIDGE","VA",22191,38.6123597710001,-77.284411757,168,"2370 BATTERY HILL CIRCLE, WOODBRIDGE, VA, 22191","Match","Exact","2370 BATTERY HILL CIR, WOODBRIDGE, VA, 22191",634499940,"R"
131169,"2370 BEDMINSTER ROAD","PERKASIE","PA",18944,40.3999286800001,-75.207063024,169,"2370 BEDMINSTER ROAD, PERKASIE, PA, 18944","Match","Exact","2370 BEDMINSTER RD, PERKASIE, PA, 18944",134757165,"L"
131170,"2370 BOX ELDER RD","SUFFOLK","VA",23437,36.6456948250001,-76.7138383069999,170,"2370 BOX ELDER RD, SUFFOLK, VA, 23437","Match","Exact","2370 BOX ELDER RD, SUFFOLK, VA, 23437",122240803,"R"
131171,"2370 CLUBHOUSE DRIVE","ROCKLIN","CA",95765,38.831982388,-121.233557341,171,"2370 CLUBHOUSE DRIVE, ROCKLIN, CA, 95765","Match","Exact","2370 CLUBHOUSE DR, ROCKLIN, CA, 95765",608080626,"R"
131172,"2370 COUNTRY RD","BELLEVILLE","IL",62221,38.5486179930001,-89.9467116549999,172,"2370 COUNTRY RD, BELLEVILLE, IL, 62221","Match","Exact","2370 COUNTRY RD, BELLEVILLE, IL, 62221",107908791,"L"
131173,"2370 DIANNA LN","ST. PAUL","MN",55117,45.013183956,-93.067291289,173,"2370 DIANNA LN, ST. PAUL, MN, 55117","Match","Exact","2370 DIANNA LN, SAINT PAUL, MN, 55117",97649547,"R"
131174,"2370 E STADIUM BLVD STE 115","ANN ARBOR","MI",48104,42.259772158,-83.714082828,174,"2370 E STADIUM BLVD STE 115, ANN ARBOR, MI, 48104","Match","Non_Exact","2370 E STADIUM BLVD, ANN ARBOR, MI, 48104",26046810,"R"
131175,"2370 E STADIUM BLVD SUITE 335","ANN ARBOR","MI",48104,42.259772158,-83.714082828,175,"2370 E STADIUM BLVD SUITE 335, ANN ARBOR, MI, 48104","Match","Non_Exact","2370 E STADIUM BLVD, ANN ARBOR, MI, 48104",26046810,"R"
131176,"2370 MAIN STREET APT 3206","DULUTH","GA",30097,NA,NA,176,"2370 MAIN STREET APT 3206, DULUTH, GA, 30097","No_Match",NA,NA,NA,NA
131177,"2370 MARKET STREET 232","SAN FRANCISCO","CA",94114,37.7632295340001,-122.434526648,177,"2370 MARKET STREET 232, SAN FRANCISCO, CA, 94114","Match","Exact","2370 MARKET ST, SAN FRANCISCO, CA, 94114",192284068,"R"
131178,"2370 MARKET STREET SUITE 103-462","SAN FRANCISCO","CA",94114,37.7632295340001,-122.434526648,178,"2370 MARKET STREET SUITE 103-462, SAN FRANCISCO, CA, 94114","Match","Exact","2370 MARKET ST, SAN FRANCISCO, CA, 94114",192284068,"R"
131179,"2370 MEADOW PARK DRIVE","GREEN BAY","WI",54311,44.4578986180001,-87.9529318199999,179,"2370 MEADOW PARK DRIVE, GREEN BAY, WI, 54311","Match","Exact","2370 MEADOW PARK DR, GREEN BAY, WI, 54311",148112688,"L"
131180,"2370 MESSENGER CIRCLE","SAFETY HARBOR","FL",34695,28.0041015370001,-82.708526808,180,"2370 MESSENGER CIRCLE, SAFETY HARBOR, FL, 34695","Match","Exact","2370 MESSENGER CIR, SAFETY HARBOR, FL, 34695",124831089,"R"
131181,"2370 METROPOLITAN PARKWAY J6","ATLANTA","GA",30315,33.6899506280001,-84.408178635,181,"2370 METROPOLITAN PARKWAY J6, ATLANTA, GA, 30315","Match","Non_Exact","2370 METROPOLITAN PKWY SW, ATLANTA, GA, 30315",17345932,"L"
131182,"2370 MILL STREET","RINGGOLD","LA",71068,NA,NA,182,"2370 MILL STREET, RINGGOLD, LA, 71068","No_Match",NA,NA,NA,NA
131183,"2370 MT HWY 206","COLUMBIA FALLS","MT",59912,48.309439809,-114.159339199,183,"2370 MT HWY 206, COLUMBIA FALLS, MT, 59912","Match","Non_Exact","2370 STATE HWY 206, COLUMBIA FALLS, MT, 59912",628661925,"R"
131184,"2370 N CASTLE ROCK CT","WICHITA","KS",67228,37.725874312,-97.175631579,184,"2370 N CASTLE ROCK CT, WICHITA, KS, 67228","Match","Exact","2370 CASTLE ROCK CT, WICHITA, KS, 67228",624858666,"L"
131185,"2370 NORTH PALAFOX STREET BLDG 1","PENSACOLA","FL",32501,30.436132688,-87.220730577,185,"2370 NORTH PALAFOX STREET BLDG 1, PENSACOLA, FL, 32501","Match","Exact","2370 N PALAFOX ST, PENSACOLA, FL, 32501",640542204,"R"
131186,"2370 PARLIAMENT STREET","EUGENE","OR",97405,44.0342111860001,-123.159144089,186,"2370 PARLIAMENT STREET, EUGENE, OR, 97405","Match","Exact","2370 PARLIAMENT ST, EUGENE, OR, 97405",178164328,"R"
131187,"2370 PLEASANT HILL CHURCH ROAD","GROVER","NC",28073,35.237063279,-81.479555572,187,"2370 PLEASANT HILL CHURCH ROAD, GROVER, NC, 28073","Match","Exact","2370 PLEASANT HILL CHURCH RD, GROVER, NC, 28073",19324109,"L"
131188,"2370 SHERMER RD","NORTHBROOK","IL",60062,42.110136163,-87.829395085,188,"2370 SHERMER RD, NORTHBROOK, IL, 60062","Match","Exact","2370 SHERMER RD, NORTHBROOK, IL, 60062",112367160,"R"
131189,"2370 W CLEVELAND AVE STE 217","MADERA","CA",93637,36.974587178,-120.086254288,189,"2370 W CLEVELAND AVE STE 217, MADERA, CA, 93637","Match","Non_Exact","2370 W CLEVELAND AVE, MADERA, CA, 93637",102357991,"L"
131190,"2370 W SR 11-174","SEDONA","AZ",86336,NA,NA,190,"2370 W SR 11-174, SEDONA, AZ, 86336","No_Match",NA,NA,NA,NA
131191,"2370 W STATE RD 89A STE 11-249","SEDONA","AZ",86336,NA,NA,191,"2370 W STATE RD 89A STE 11-249, SEDONA, AZ, 86336","No_Match",NA,NA,NA,NA
131192,"2370 W STATE ROUTE 89A","SEDONA","AZ",86336,34.8631561880001,-111.802028453,192,"2370 W STATE ROUTE 89A, SEDONA, AZ, 86336","Match","Exact","2370 STATE RTE 89A, SEDONA, AZ, 86336",159473969,"L"
131193,"2370 WALDEN WOODS DRIVE SUITE A","PLANT CITY","FL",33563,NA,NA,193,"2370 WALDEN WOODS DRIVE SUITE A, PLANT CITY, FL, 33563","No_Match",NA,NA,NA,NA
131194,"2370 WALNUT RIDGE LANE","CHARLOTTESVILLE","VA",22911,38.0858461340001,-78.427108107,194,"2370 WALNUT RIDGE LANE, CHARLOTTESVILLE, VA, 22911","Match","Exact","2370 WALNUT RIDGE LN, CHARLOTTESVILLE, VA, 22911",83403818,"L"
131195,"2370 WESLEY CHAPEL RD","DECATUR","GA",30035,33.719079041,-84.21535328,195,"2370 WESLEY CHAPEL RD, DECATUR, GA, 30035","Match","Exact","2370 WESLEY CHAPEL RD, DECATUR, GA, 30035",23389605,"L"
131196,"2370 WEST HWY 89A SUITE 11-198","SEDONA","AZ",86336,NA,NA,196,"2370 WEST HWY 89A SUITE 11-198, SEDONA, AZ, 86336","No_Match",NA,NA,NA,NA
131197,"2370 WOOD CREEK COURT","DACULA","GA",30019,34.020251359,-83.912517569,197,"2370 WOOD CREEK COURT, DACULA, GA, 30019","Match","Non_Exact","2370 WOOD CREEK CT NE, DACULA, GA, 30019",88942035,"R"
131198,"23701 S WESTERN AVENUE SPC 99","TORANCE","CA",90501,33.8101142780001,-118.308601916,198,"23701 S WESTERN AVENUE SPC 99, TORANCE, CA, 90501","Match","Non_Exact","23701 S WESTERN AVE, TORRANCE, CA, 90501",615107904,"R"
131199,"23702 ARLENE AVE","ELKHART","IN",46517,41.6332909440001,-85.920163464,199,"23702 ARLENE AVE, ELKHART, IN, 46517","Match","Exact","23702 ARLENE AVE, ELKHART, IN, 46517",7753434,"L"
131200,"23702 FM 1093 STE 514","RICHMOND","TX",77406,29.699427692,-95.788385677,200,"23702 FM 1093 STE 514, RICHMOND, TX, 77406","Match","Non_Exact","23702 FM 1093, RICHMOND, TX, 77406",631024567,"L"
131201,"23705 PLYMOUTH RD","REFORF","MI",48239,42.3713477220001,-83.271853059,201,"23705 PLYMOUTH RD, REFORF, MI, 48239","Match","Non_Exact","23705 PLYMOUTH RD, REDFORD, MI, 48239",95717075,"L"
131202,"23708 KITTRIDGE ST","WEST HILLS","CA",91307,34.1906934580001,-118.643250303,202,"23708 KITTRIDGE ST, WEST HILLS, CA, 91307","Match","Exact","23708 KITTRIDGE ST, WEST HILLS, CA, 91307",142692282,"L"
131203,"23708 LOCUST WAY UNIT 8A","BOTHELL","WA",98021,47.7833277460001,-122.257082363,203,"23708 LOCUST WAY UNIT 8A, BOTHELL, WA, 98021","Match","Exact","23708 LOCUST WAY, BOTHELL, WA, 98021",608920781,"L"
131204,"23708 MALIBU COLONY RD","MALIBU","CA",92065,34.032967688,-118.691440383,204,"23708 MALIBU COLONY RD, MALIBU, CA, 92065","Match","Non_Exact","23708 MALIBU COLONY RD, MALIBU, CA, 90265",142709724,"R"
131205,"23708 SE 18TH ST","SAMMAMISH","WA",98075,47.5937117770001,-122.023130827,205,"23708 SE 18TH ST, SAMMAMISH, WA, 98075","Match","Exact","23708 SE 18TH ST, SAMMAMISH, WA, 98075",186618397,"L"
131206,"2371 27TH STREET","ASTORIA","NY",11105,40.7746294830001,-73.916932655,206,"2371 27TH STREET, ASTORIA, NY, 11105","Match","Exact","2371 27TH ST, ASTORIA, NY, 11105",652213328,"L"
131207,"2371 COUNTY RD B32","FORT ATKINSON","IA",52144,NA,NA,207,"2371 COUNTY RD B32, FORT ATKINSON, IA, 52144","No_Match",NA,NA,NA,NA
131208,"2371 FENTON STREET","CHULA VISTA","CA",91914,32.6516596120001,-116.964098207,208,"2371 FENTON STREET, CHULA VISTA, CA, 91914","Match","Exact","2371 FENTON ST, CHULA VISTA, CA, 91914",195667949,"L"
131209,"2371 GRAND AVENUE NO 92483","LONG  BEACH","CA",90815,NA,NA,209,"2371 GRAND AVENUE NO 92483, LONG  BEACH, CA, 90815","No_Match",NA,NA,NA,NA
131210,"2371 HWY 411N","ETOWAH","TN",37331,NA,NA,210,"2371 HWY 411N, ETOWAH, TN, 37331","No_Match",NA,NA,NA,NA
131211,"2371 LAMAR AVE","MEMPHIS","TN",38114,35.1039212970001,-89.983485811,211,"2371 LAMAR AVE, MEMPHIS, TN, 38114","Match","Exact","2371 LAMAR AVE, MEMPHIS, TN, 38114",72917452,"R"
131212,"2371 MURPHY MILL RD UNIT 24","DOTHAN","AL",36303,31.26581098,-85.4389686809999,212,"2371 MURPHY MILL RD UNIT 24, DOTHAN, AL, 36303","Match","Exact","2371 MURPHY MILL RD, DOTHAN, AL, 36303",101245294,"R"
131213,"2371 N DECATUR RD","DECATUR","GA",30033,33.7929332140001,-84.295688264,213,"2371 N DECATUR RD, DECATUR, GA, 30033","Match","Exact","2371 N DECATUR RD, DECATUR, GA, 30033",23360460,"R"
131214,"2371 OAKRIDGE COURT","DECATUR","GA",30032,33.714074795,-84.2931795119999,214,"2371 OAKRIDGE COURT, DECATUR, GA, 30032","Match","Exact","2371 OAKRIDGE CT, DECATUR, GA, 30032",23368369,"R"
131215,"2371 S ORCHARD VIEW DR","GREEN VALLEY","AZ",85614,31.8356965130001,-110.998227263,215,"2371 S ORCHARD VIEW DR, GREEN VALLEY, AZ, 85614","Match","Exact","2371 S ORCHARD VIEW DR, GREEN VALLEY, AZ, 85614",641017730,"R"
131216,"2371 SANDERS RD","BETHEL","VT",5032,43.857440674,-72.631276944,216,"2371 SANDERS RD, BETHEL, VT, 5032","Match","Exact","2371 SANDERS RD, BETHEL, VT, 05032",624376372,"R"
131217,"2371 SANDERS ROAD","BETHEL","VT",5032,43.857440674,-72.631276944,217,"2371 SANDERS ROAD, BETHEL, VT, 5032","Match","Exact","2371 SANDERS RD, BETHEL, VT, 05032",624376372,"R"
131218,"2371 SW 15TH ST UNIT 99","DEERFIELD BEACH","FL",33442,26.2970231740001,-80.1354591479999,218,"2371 SW 15TH ST UNIT 99, DEERFIELD BEACH, FL, 33442","Match","Non_Exact","2371 SW 15TH ST, DEERFIELD BEACH, FL, 33442",650075550,"L"
131219,"23710 SPRINGS CT UNIT 112","PLAINFIELD","IL",60585,NA,NA,219,"23710 SPRINGS CT UNIT 112, PLAINFIELD, IL, 60585","No_Match",NA,NA,NA,NA
131220,"23711 MARQUETTE CT","ASHBURN","VA",20148,38.961747372,-77.5290714509999,220,"23711 MARQUETTE CT, ASHBURN, VA, 20148","Match","Exact","23711 MARQUETTE CT, ASHBURN, VA, 20148",645695018,"L"
131221,"23711 SPRINGWOLF DR","SPRING","TX",77373,30.064161932,-95.377651234,221,"23711 SPRINGWOLF DR, SPRING, TX, 77373","Match","Exact","23711 SPRINGWOLF DR, SPRING, TX, 77373",652147827,"R"
131222,"23712 FELCH STREET","CLEVELAND","OH",44128,41.4303559630001,-81.512328068,222,"23712 FELCH STREET, CLEVELAND, OH, 44128","Match","Exact","23712 FELCH ST, CLEVELAND, OH, 44128",61167324,"R"
131223,"23712 VIA SAN GIL","MISSION VIEJO","CA",92691,33.6187368120001,-117.668941528,223,"23712 VIA SAN GIL, MISSION VIEJO, CA, 92691","Match","Exact","23712 VIA SAN GIL, MISSION VIEJO, CA, 92691",144065068,"L"
131224,"23713 SW 110TH PLACE","HOMESTEAD","FL",33032,25.547476584,-80.370727669,224,"23713 SW 110TH PLACE, HOMESTEAD, FL, 33032","Match","Exact","23713 SW 110TH PL, HOMESTEAD, FL, 33032",641692509,"R"
131225,"23715 NILAN DRIVE","NOVI","MI",48375,42.4644435710001,-83.4407741269999,225,"23715 NILAN DRIVE, NOVI, MI, 48375","Match","Exact","23715 NILAN DR, NOVI, MI, 48375",630321434,"L"
131226,"23715 US 50","SALIDA","CO",81201,NA,NA,226,"23715 US 50, SALIDA, CO, 81201","No_Match",NA,NA,NA,NA
131227,"23716 ANTHONY ROAD","CICERO","IN",46034,40.135177663,-86.108658299,227,"23716 ANTHONY ROAD, CICERO, IN, 46034","Match","Exact","23716 ANTHONY RD, CICERO, IN, 46034",29289325,"L"
131228,"23717 CRUISE CIRCLE DR","CANYON LAKE","CA",92587,33.677832607,-117.244325607,228,"23717 CRUISE CIRCLE DR, CANYON LAKE, CA, 92587","Match","Exact","23717 CRUISE CIRCLE DR, CANYON LAKE, CA, 92587",194711344,"L"
131229,"23718 BOTHELL-EVERETT HWY SUITE H","BOTHELL","WA",98021,47.7824053190001,-122.22057067,229,"23718 BOTHELL-EVERETT HWY SUITE H, BOTHELL, WA, 98021","Match","Non_Exact","23718 BOTHELL EVERETT HWY, BOTHELL, WA, 98021",187823759,"R"
131230,"23718 CREEKVIEW DRIVE","SPRING","TX",77389,30.1080327380001,-95.5126604439999,230,"23718 CREEKVIEW DRIVE, SPRING, TX, 77389","Match","Exact","23718 CREEKVIEW DR, SPRING, TX, 77389",96001943,"R"
131231,"23718 S STATE ROUTE 291","HARRISONVILLE","MO",64701,NA,NA,231,"23718 S STATE ROUTE 291, HARRISONVILLE, MO, 64701","No_Match",NA,NA,NA,NA
131232,"23719 VERDE RIVER","SAN ANTONIO","TX",78255,29.6630938120001,-98.65095883,232,"23719 VERDE RIVER, SAN ANTONIO, TX, 78255","Match","Exact","23719 VERDE RIVER, SAN ANTONIO, TX, 78255",625671451,"R"
131233,"2372 CHAMPIONSHIP DR","SEALY","TX",77474,NA,NA,233,"2372 CHAMPIONSHIP DR, SEALY, TX, 77474","No_Match",NA,NA,NA,NA
131234,"2372 DAVIDSON RD","OCEAN SPRINGS","MS",39564,30.4026235690001,-88.807408573,234,"2372 DAVIDSON RD, OCEAN SPRINGS, MS, 39564","Match","Exact","2372 DAVIDSON RD, OCEAN SPRINGS, MS, 39564",89273198,"R"
131235,"2372 LAKEVIEW DRIVE SUITE H","BEAVERCREEK","OH",45431,39.7588928430001,-84.0552302,235,"2372 LAKEVIEW DRIVE SUITE H, BEAVERCREEK, OH, 45431","Match","Exact","2372 LAKEVIEW DR, BEAVERCREEK, OH, 45431",143391168,"R"
131236,"2372 MORSE AVE    145","IRVINE","CA",92614,33.680496417,-117.849275182,236,"2372 MORSE AVE    145, IRVINE, CA, 92614","Match","Exact","2372 MORSE AVE, IRVINE, CA, 92614",650355348,"R"
131237,"2372 MORSE AVE STE 168","IRVINE","CA",92614,33.680496417,-117.849275182,237,"2372 MORSE AVE STE 168, IRVINE, CA, 92614","Match","Exact","2372 MORSE AVE, IRVINE, CA, 92614",650355348,"R"
131238,"2372 MORSE AVE SUITE 216","IRVINE","CA",92843,33.680496417,-117.849275182,238,"2372 MORSE AVE SUITE 216, IRVINE, CA, 92843","Match","Non_Exact","2372 MORSE AVE, IRVINE, CA, 92614",650355348,"R"
131239,"2372 MORSE AVE SUITE 912","IRVINE","CA",92614,33.680496417,-117.849275182,239,"2372 MORSE AVE SUITE 912, IRVINE, CA, 92614","Match","Exact","2372 MORSE AVE, IRVINE, CA, 92614",650355348,"R"
131240,"2372 MORSE AVENUE STE 251","IRVINE","CA",92614,33.680496417,-117.849275182,240,"2372 MORSE AVENUE STE 251, IRVINE, CA, 92614","Match","Exact","2372 MORSE AVE, IRVINE, CA, 92614",650355348,"R"
131241,"2372 MORSE AVENUE SUITE 152","IRVINE","CA",92614,33.680496417,-117.849275182,241,"2372 MORSE AVENUE SUITE 152, IRVINE, CA, 92614","Match","Exact","2372 MORSE AVE, IRVINE, CA, 92614",650355348,"R"
131242,"2372 NORTH VERONA LANE","PLEASANT GROVE","UT",84062,40.3893226810001,-111.745732132,242,"2372 NORTH VERONA LANE, PLEASANT GROVE, UT, 84062","Match","Exact","2372 N VERONA LN, PLEASANT GROVE, UT, 84062",617711479,"R"
131243,"2372 ORCHARD AVENUE","EL CAJON","CA",92019,32.7960867730001,-116.898275482,243,"2372 ORCHARD AVENUE, EL CAJON, CA, 92019","Match","Exact","2372 ORCHARD AVE, EL CAJON, CA, 92019",651696822,"L"
131244,"2372 RANGE HEIGHTS TER","LOGANVILLE","GA",30052,33.8348795590001,-83.963888222,244,"2372 RANGE HEIGHTS TER, LOGANVILLE, GA, 30052","Match","Exact","2372 RANGE HEIGHTS TER, LOGANVILLE, GA, 30052",88943080,"L"
131245,"2372 SHINING STAR WAY","REDDING","CA",96003,40.57528783,-122.326259532,245,"2372 SHINING STAR WAY, REDDING, CA, 96003","Match","Exact","2372 SHINING STAR WAY, REDDING, CA, 96003",624979035,"L"
131246,"2372 ST CLAUDE AVE STE 201","NEW ORLEANS","LA",70117,29.9688147570001,-90.052644892,246,"2372 ST CLAUDE AVE STE 201, NEW ORLEANS, LA, 70117","Match","Exact","2372 SAINT CLAUDE AVE, NEW ORLEANS, LA, 70117",191716644,"R"
131247,"2372 ST CLAUDE AVENUE SUITE 220","NEW ORLEANS","LA",70117,29.9688147570001,-90.052644892,247,"2372 ST CLAUDE AVENUE SUITE 220, NEW ORLEANS, LA, 70117","Match","Exact","2372 SAINT CLAUDE AVE, NEW ORLEANS, LA, 70117",191716644,"R"
131248,"2372 VERA DRIVE","SANTA ROSA","CA",95403,38.477733303,-122.766619551,248,"2372 VERA DRIVE, SANTA ROSA, CA, 95403","Match","Exact","2372 VERA DR, SANTA ROSA, CA, 95403",629553995,"R"
131249,"2372 WEST 1200 NORTH","PROVO","UT",84601,40.2501592200001,-111.700303364,249,"2372 WEST 1200 NORTH, PROVO, UT, 84601","Match","Exact","2372 W 1200 N, PROVO, UT, 84601",618481396,"R"
131250,"2372 WILLIAM DR APT 4","SANTA CLARA","CA",95050,37.3648027740001,-121.964445945,250,"2372 WILLIAM DR APT 4, SANTA CLARA, CA, 95050","Match","Exact","2372 WILLIAM DR, SANTA CLARA, CA, 95050",122898887,"L"
131251,"23720 ARLINGTON AVE SUITE 1","TORRANCE","CA",90501,33.809533394,-118.3198921,251,"23720 ARLINGTON AVE SUITE 1, TORRANCE, CA, 90501","Match","Exact","23720 ARLINGTON AVE, TORRANCE, CA, 90501",241243648,"L"
131252,"23721 BOWMAN RD","DEFIANCE","OH",43512,41.2238238210001,-84.3663812739999,252,"23721 BOWMAN RD, DEFIANCE, OH, 43512","Match","Exact","23721 BOWMAN RD, DEFIANCE, OH, 43512",207557218,"R"
131253,"23721 E CALHOUN AVE","AURORA","CO",80016,39.595675887,-104.712829706,253,"23721 E CALHOUN AVE, AURORA, CO, 80016","Match","Exact","23721 E CALHOUN AVE, AURORA, CO, 80016",645234541,"R"
131254,"23722 BRISBANE BAY","DANA POINT","CA",92629,NA,NA,254,"23722 BRISBANE BAY, DANA POINT, CA, 92629","No_Match",NA,NA,NA,NA
131255,"23722 SAN ESTEBAN","MISSION VIEJO","CA",92691,33.6183180790001,-117.669888338,255,"23722 SAN ESTEBAN, MISSION VIEJO, CA, 92691","Match","Non_Exact","23722 SAN ESTEBAN DR, MISSION VIEJO, CA, 92691",144065084,"L"
131256,"23724 SW 118TH AVENUE","HOMESTEAD","FL",33032,25.546922571,-80.38264032,256,"23724 SW 118TH AVENUE, HOMESTEAD, FL, 33032","Match","Exact","23724 SW 118TH AVE, HOMESTEAD, FL, 33032",642159278,"R"
131257,"23725 17TH PL W","BOTHELL","WA",98021,47.782785087,-122.256441876,257,"23725 17TH PL W, BOTHELL, WA, 98021","Match","Exact","23725 17TH PL W, BOTHELL, WA, 98021",608920872,"L"
131258,"23728 CANTARA ROAD","CORONA","CA",92883,33.776858416,-117.503288538,258,"23728 CANTARA ROAD, CORONA, CA, 92883","Match","Exact","23728 CANTARA RD, CORONA, CA, 92883",194779023,"L"
131259,"23729 230TH AVENUE","ELBOW LAKE","MN",56531,45.957006705,-96.03867607,259,"23729 230TH AVENUE, ELBOW LAKE, MN, 56531","Match","Exact","23729 230TH AVE, ELBOW LAKE, MN, 56531",203193966,"L"
131260,"2373 7TH AVE","NEW YORK","NY",10030,40.8176918340001,-73.941948988,260,"2373 7TH AVE, NEW YORK, NY, 10030","Match","Exact","2373 7TH AVE, NEW YORK, NY, 10030",59656408,"R"
131261,"2373 ACCESS ROAD","COVINGTON","GA",30016,NA,NA,261,"2373 ACCESS ROAD, COVINGTON, GA, 30016","No_Match",NA,NA,NA,NA
131262,"2373 ASP ROUTE 1 SUITE 3","SALAMANCA","NY",14779,NA,NA,262,"2373 ASP ROUTE 1 SUITE 3, SALAMANCA, NY, 14779","No_Match",NA,NA,NA,NA
131263,"2373 AZEVEDO PKWY","SAN JOSE","CA",95125,37.2958876180001,-121.864653029,263,"2373 AZEVEDO PKWY, SAN JOSE, CA, 95125","Match","Exact","2373 AZEVEDO PKWY, SAN JOSE, CA, 95125",615531526,"L"
131264,"2373 BROADWAY 830","NEW YORK","NY",10024,40.788732565,-73.9761531629999,264,"2373 BROADWAY 830, NEW YORK, NY, 10024","Match","Exact","2373 BROADWAY, NEW YORK, NY, 10024",59656703,"L"
131265,"2373 CANTALIER STREET","SACRAMENTO","CA",95815,38.60877005,-121.451970897,265,"2373 CANTALIER STREET, SACRAMENTO, CA, 95815","Match","Exact","2373 CANTALIER ST, SACRAMENTO, CA, 95815",133321372,"L"
131266,"2373 CANTER LANE","GREEN BAY","WI",54304,44.4912514010001,-88.0796591599999,266,"2373 CANTER LANE, GREEN BAY, WI, 54304","Match","Exact","2373 CANTER LN, GREEN BAY, WI, 54304",148097650,"L"
131267,"2373 CENTRAL PARK BLVD - SUITE 100","DENVER","CO",80238,39.751340613,-104.889474357,267,"2373 CENTRAL PARK BLVD - SUITE 100, DENVER, CO, 80238","Match","Non_Exact","2373 N CENTRAL PARK BLVD, DENVER, CO, 80238",640737679,"L"
131268,"2373 CENTRAL PARK BLVD SUITE 100","DENVER","CO",80238,39.751340613,-104.889474357,268,"2373 CENTRAL PARK BLVD SUITE 100, DENVER, CO, 80238","Match","Non_Exact","2373 N CENTRAL PARK BLVD, DENVER, CO, 80238",640737679,"L"
131269,"2373 CENTRAL PARK BOULEVARD STE 100","DENVER","CO",80238,39.751340613,-104.889474357,269,"2373 CENTRAL PARK BOULEVARD STE 100, DENVER, CO, 80238","Match","Non_Exact","2373 N CENTRAL PARK BLVD, DENVER, CO, 80238",640737679,"L"
131270,"2373 DATE PALM ROAD","BOCA RATON","FL",33432,26.327681274,-80.085773317,270,"2373 DATE PALM ROAD, BOCA RATON, FL, 33432","Match","Exact","2373 DATE PALM RD, BOCA RATON, FL, 33432",115303616,"R"
131271,"2373 EAST WALLINGS RD","BROADVIEW HEIGHTS","OH",44147,NA,NA,271,"2373 EAST WALLINGS RD, BROADVIEW HEIGHTS, OH, 44147","Tie",NA,NA,NA,NA
131272,"2373 ELIZABETHTOWN ROAD","LEITCHFIELD","KY",42754,NA,NA,272,"2373 ELIZABETHTOWN ROAD, LEITCHFIELD, KY, 42754","No_Match",NA,NA,NA,NA
131273,"2373 GREENE 628 ROAD","PARAGOULD","AR",72450,NA,NA,273,"2373 GREENE 628 ROAD, PARAGOULD, AR, 72450","No_Match",NA,NA,NA,NA
131274,"2373 HARVEY STRAUGHN RD","CLAYTON","DE",19938,NA,NA,274,"2373 HARVEY STRAUGHN RD, CLAYTON, DE, 19938","No_Match",NA,NA,NA,NA
131275,"2373 MARE RD","CARROLLTON","TX",75010,33.034760663,-96.866335385,275,"2373 MARE RD, CARROLLTON, TX, 75010","Match","Exact","2373 MARE RD, CARROLLTON, TX, 75010",641518740,"R"
131276,"2373 MESENA RD","WARRENTON","GA",30828,33.4639747360001,-82.593335006,276,"2373 MESENA RD, WARRENTON, GA, 30828","Match","Exact","2373 MESENA RD, WARRENTON, GA, 30828",642632798,"R"
131277,"2373 NW 185TH AVE NUM 381","HILLSBORO","OR",97124,45.5357185410001,-122.86750135,277,"2373 NW 185TH AVE NUM 381, HILLSBORO, OR, 97124","Match","Non_Exact","2373 NW 185TH AVE, HILLSBORO, OR, 97124",636604210,"L"
131278,"2373 NW 185TH AVE PMB 122","HILLSBORO","OR",97124,45.5357185410001,-122.86750135,278,"2373 NW 185TH AVE PMB 122, HILLSBORO, OR, 97124","Match","Non_Exact","2373 NW 185TH AVE, HILLSBORO, OR, 97124",636604210,"L"
131279,"2373 NW PETTYGROVE ST","PORTLAND","OR",97210,45.5326174780001,-122.700127273,279,"2373 NW PETTYGROVE ST, PORTLAND, OR, 97210","Match","Exact","2373 NW PETTYGROVE ST, PORTLAND, OR, 97210",157498077,"R"
131280,"2373 S COUNTY ROAD 130 W","FRANKFORT","IN",46041,40.252450073,-86.529246401,280,"2373 S COUNTY ROAD 130 W, FRANKFORT, IN, 46041","Match","Exact","2373 CO RD 130 W, FRANKFORT, IN, 46041",27232228,"R"
131281,"2373 STATE HIGHWAY 161","WATROUS","NM",87753,35.808720039,-104.981087274,281,"2373 STATE HIGHWAY 161, WATROUS, NM, 87753","Match","Exact","2373 STATE HWY 161, WATROUS, NM, 87753",638022003,"L"
131282,"2373 THE WOODS LANE","LEXINGTON","KY",40502,37.994055718,-84.475633264,282,"2373 THE WOODS LANE, LEXINGTON, KY, 40502","Match","Exact","2373 THE WOODS LN, LEXINGTON, KY, 40502",31933512,"R"
131283,"23730 COCKATIEL DRIVE","MORENO VALLEY","CA",92557,33.9514820470001,-117.249373041,283,"23730 COCKATIEL DRIVE, MORENO VALLEY, CA, 92557","Match","Exact","23730 COCKATIEL DR, MORENO VALLEY, CA, 92557",194790242,"L"
131284,"23730 NE STATE ROUTE 3 F64","BELFAIR","WA",98528,47.4509378990001,-122.827236803,284,"23730 NE STATE ROUTE 3 F64, BELFAIR, WA, 98528","Match","Exact","23730 STATE RTE 3, BELFAIR, WA, 98528",619826017,"L"
131285,"23730","MAPLE VALLEY","WA",98038,NA,NA,285,"23730, MAPLE VALLEY, WA, 98038","No_Match",NA,NA,NA,NA
131286,"23731 MARSHALL","DEARBORN","MI",48124,42.31051567,-83.268446898,286,"23731 MARSHALL, DEARBORN, MI, 48124","Match","Non_Exact","23731 MARSHALL ST, DEARBORN, MI, 48124",95433560,"L"
131287,"23733 W 83RD TERR","SHAWNEE","KS",66227,38.977928041,-94.863214609,287,"23733 W 83RD TERR, SHAWNEE, KS, 66227","Match","Non_Exact","23733 W 83RD ST, SHAWNEE, KS, 66227",91267822,"R"
131288,"23736 GREENFIELD DR","PLAINFIELD","IL",60585,41.6476241730001,-88.197549309,288,"23736 GREENFIELD DR, PLAINFIELD, IL, 60585","Match","Exact","23736 GREENFIELD DR, PLAINFIELD, IL, 60585",111612632,"L"
131289,"23739 FAIRLANDS ROAD","HAYWARD","CA",94541,37.6788812130001,-122.059797389,289,"23739 FAIRLANDS ROAD, HAYWARD, CA, 94541","Match","Exact","23739 FAIRLANDS RD, HAYWARD, CA, 94541",606090726,"R"
131290,"23739 W MOHAVE STREET","BUCKEYE","AZ",85326,33.431391993,-112.562092002,290,"23739 W MOHAVE STREET, BUCKEYE, AZ, 85326","Match","Exact","23739 W MOHAVE ST, BUCKEYE, AZ, 85326",640925009,"R"
131291,"2374 E 71ST","CHICAGO","IL",60649,41.7663149580001,-87.5670645389999,291,"2374 E 71ST, CHICAGO, IL, 60649","Match","Non_Exact","2374 E 71ST ST, CHICAGO, IL, 60649",111775676,"L"
131292,"2374 FOX MOUNTAIN RD","COLUMBUS","NC",28722,35.274736294,-82.159476411,292,"2374 FOX MOUNTAIN RD, COLUMBUS, NC, 28722","Match","Exact","2374 FOX MOUNTAIN RD, COLUMBUS, NC, 28722",44324430,"R"
131293,"2374 MT VERNON DR","FAIRFIELD","OH",45014,39.3229749340001,-84.5378582929999,293,"2374 MT VERNON DR, FAIRFIELD, OH, 45014","Match","Exact","2374 MOUNT VERNON DR, FAIRFIELD, OH, 45014",113798358,"L"
131294,"2374 POST ROAD SUITE 201","WARWICK","RI",2886,41.7180590620001,-71.443782523,294,"2374 POST ROAD SUITE 201, WARWICK, RI, 2886","Match","Exact","2374 POST RD, WARWICK, RI, 02886",159167223,"L"
131295,"2374 ROAD 6","LEIPSIC","OH",45856,41.1458208110001,-83.976967362,295,"2374 ROAD 6, LEIPSIC, OH, 45856","Match","Exact","2374 RD 6, LEIPSIC, OH, 45856",208941616,"L"
131296,"2374 SPRING ROW LN","HILLIARD","OH",43026,40.0010965180001,-83.1492065529999,296,"2374 SPRING ROW LN, HILLIARD, OH, 43026","Match","Exact","2374 SPRING ROW LN, HILLIARD, OH, 43026",135631766,"L"
131297,"2374 STONE FENCE LANE","HERNDON","VA",20171,38.948177215,-77.4008736879999,297,"2374 STONE FENCE LANE, HERNDON, VA, 20171","Match","Exact","2374 STONE FENCE LN, HERNDON, VA, 20171",637326213,"R"
131298,"23740 OLD LIGHTHOUSE RD","BONITA SPRINGS","FL",34135,NA,NA,298,"23740 OLD LIGHTHOUSE RD, BONITA SPRINGS, FL, 34135","No_Match",NA,NA,NA,NA
131299,"23742 LYONS AVENUE UNIT 220175","NEWHALL","CA",91322,34.3791728150001,-118.549982112,299,"23742 LYONS AVENUE UNIT 220175, NEWHALL, CA, 91322","Match","Non_Exact","23742 LYONS AVE, NEWHALL, CA, 91321",640415870,"R"
131300,"23747 FM 2090 WEST","SPLENDORA","TX",77372,30.2455619780001,-95.195302512,300,"23747 FM 2090 WEST, SPLENDORA, TX, 77372","Match","Non_Exact","23747 FM 2090, SPLENDORA, TX, 77372",79287245,"L"
131301,"23747 HWY 263","TIMBO","AR",72680,35.8755248850001,-92.31709345,301,"23747 HWY 263, TIMBO, AR, 72680","Match","Non_Exact","23747 STATE HWY 263, TIMBO, AR, 72680",2245319,"L"
131302,"23748 W 135TH ST","PLAINFIELD","IL",60544,41.6372005310001,-88.197580026,302,"23748 W 135TH ST, PLAINFIELD, IL, 60544","Match","Exact","23748 W 135TH ST, PLAINFIELD, IL, 60544",635517092,"L"
131303,"2375 ARIZONA STREET BOX","BISBEE","AZ",85603,31.3753299480001,-109.885794423,303,"2375 ARIZONA STREET BOX, BISBEE, AZ, 85603","Match","Non_Exact","2375 S ARIZONA ST, BISBEE, AZ, 85603",120963684,"R"
131304,"2375 BIRCH VIEW DRIVE","HIGH POINT","NC",27265,36.0525066590001,-79.996735895,304,"2375 BIRCH VIEW DRIVE, HIGH POINT, NC, 27265","Match","Exact","2375 BIRCH VIEW DR, HIGH POINT, NC, 27265",646483155,"R"
131305,"2375 BUTLER RD","CHOUDRANT","LA",71227,32.4694744020001,-92.451679771,305,"2375 BUTLER RD, CHOUDRANT, LA, 71227","Match","Exact","2375 BUTLER RD, CHOUDRANT, LA, 71227",161002470,"L"
131306,"2375 CHAMPLAIN ST NW APT 322","WASHINGTON","DC",20009,38.921314297,-77.0412352389999,306,"2375 CHAMPLAIN ST NW APT 322, WASHINGTON, DC, 20009","Match","Exact","2375 CHAMPLAIN ST NW, WASHINGTON, DC, 20009",76223035,"R"
131307,"2375 CULPEPPER LN","LINCOLN","CA",95648,38.843577097,-121.260013937,307,"2375 CULPEPPER LN, LINCOLN, CA, 95648","Match","Exact","2375 CULPEPPER LN, LINCOLN, CA, 95648",634302435,"L"
131308,"2375 CUMBERLAND CT","SNELLVILLE","GA",30039,33.8315372870001,-84.066331363,308,"2375 CUMBERLAND CT, SNELLVILLE, GA, 30039","Match","Non_Exact","2375 CUMBERLAND CT SW, SNELLVILLE, GA, 30039",88890132,"L"
131309,"2375 E CALLE LOS ALTOS","TUCSON","AZ",85718,32.326400947,-110.937350392,309,"2375 E CALLE LOS ALTOS, TUCSON, AZ, 85718","Match","Non_Exact","2375 E CLL LOS ALTOS, TUCSON, AZ, 85718",121167564,"L"
131310,"2375 EAST ARIZONA AVENUE","DENVER","CO",80210,39.694779388,-104.958722586,310,"2375 EAST ARIZONA AVENUE, DENVER, CO, 80210","Match","Exact","2375 E ARIZONA AVE, DENVER, CO, 80210",177338798,"L"
131311,"2375 HWY 16 N","TAYLORSVILLE","NC",28681,NA,NA,311,"2375 HWY 16 N, TAYLORSVILLE, NC, 28681","No_Match",NA,NA,NA,NA
131312,"2375 LAYCOCK CUTOFF RD","CINCINNATI","OH",45157,38.9465520320001,-84.1688491909999,312,"2375 LAYCOCK CUTOFF RD, CINCINNATI, OH, 45157","Match","Non_Exact","2375 LAYCOCK CUTOFF RD, NEW RICHMOND, OH, 45157",635570414,"L"
131313,"2375 MARETE DR","NAPLES","FL",34114,NA,NA,313,"2375 MARETE DR, NAPLES, FL, 34114","No_Match",NA,NA,NA,NA
131314,"2375 NORTH WILD BLOSSOM COURT","EAST LANSING","MI",48823,42.740822898,-84.44178443,314,"2375 NORTH WILD BLOSSOM COURT, EAST LANSING, MI, 48823","Match","Exact","2375 N WILD BLOSSOM CT, EAST LANSING, MI, 48823",644963011,"L"
131315,"2375 PENNSYLVANIA AVE NW","WASHINGTON DC","DC",20037,38.9029280410001,-77.0511829019999,315,"2375 PENNSYLVANIA AVE NW, WASHINGTON DC, DC, 20037","Match","Exact","2375 PENNSYLVANIA AVE NW, WASHINGTON, DC, 20037",638322766,"R"
131316,"2375 S OLD DECKER ROAD","VINCENNES","IN",47591,38.641571689,-87.525307781,316,"2375 S OLD DECKER ROAD, VINCENNES, IN, 47591","Match","Exact","2375 S OLD DECKER RD, VINCENNES, IN, 47591",638479656,"L"
131317,"2375 SHARON LAKE DR","JACKSONVILLE","FL",32210,30.275472762,-81.7866430559999,317,"2375 SHARON LAKE DR, JACKSONVILLE, FL, 32210","Match","Exact","2375 SHARON LAKE DR, JACKSONVILLE, FL, 32210",83938959,"R"
131318,"2375 SUMMER STREET SE","SALEM","OR",97302,44.918370474,-123.03674201,318,"2375 SUMMER STREET SE, SALEM, OR, 97302","Match","Exact","2375 SUMMER ST SE, SALEM, OR, 97302",156248548,"R"
131319,"2375 UNIVERSITY AVE W SUITE 110","SAINT PAUL","MN",55114,44.963749217,-93.197110887,319,"2375 UNIVERSITY AVE W SUITE 110, SAINT PAUL, MN, 55114","Match","Exact","2375 UNIVERSITY AVE W, SAINT PAUL, MN, 55114",97638907,"R"
131320,"2375 UTLEY ROAD","LA CRESCENTA","CA",91214,34.2357852870001,-118.230111371,320,"2375 UTLEY ROAD, LA CRESCENTA, CA, 91214","Match","Exact","2375 UTLEY RD, LA CRESCENTA, CA, 91214",141589738,"R"
131321,"23751 MYSTERY DOWN DR","LINDALE","TX",75771,32.508040604,-95.568402126,321,"23751 MYSTERY DOWN DR, LINDALE, TX, 75771","Match","Exact","23751 MYSTERY DOWN DR, LINDALE, TX, 75771",636733553,"R"
131322,"23751 NANCYLEE LANE","TORRANCE","CA",90505,33.8101999290001,-118.367042947,322,"23751 NANCYLEE LANE, TORRANCE, CA, 90505","Match","Exact","23751 NANCYLEE LN, TORRANCE, CA, 90505",141665200,"R"
131323,"23755 DONCASTER DR","MORENO VALLEY","CA",92553,33.9346658090001,-117.247360001,323,"23755 DONCASTER DR, MORENO VALLEY, CA, 92553","Match","Exact","23755 DONCASTER DR, MORENO VALLEY, CA, 92553",194749355,"R"
131324,"23756 ARENA DR","RAPID CITY","SD",57702,43.958855785,-103.215961697,324,"23756 ARENA DR, RAPID CITY, SD, 57702","Match","Exact","23756 ARENA DR, RAPID CITY, SD, 57702",634958010,"L"
131325,"23759 LOS PINOS COURT","CORONA","CA",92883,33.774137297,-117.506896904,325,"23759 LOS PINOS COURT, CORONA, CA, 92883","Match","Exact","23759 LOS PINOS CT, CORONA, CA, 92883",608995913,"L"
131326,"2376 A C POWELL JR BLVD / APT 2","NEW YORK","NY",10030,NA,NA,326,"2376 A C POWELL JR BLVD / APT 2, NEW YORK, NY, 10030","No_Match",NA,NA,NA,NA
131327,"2376 BEECH LANE","PAMPA","TX",79065,35.563675017,-100.960386419,327,"2376 BEECH LANE, PAMPA, TX, 79065","Match","Non_Exact","2376 N BEECH LN, PAMPA, TX, 79065",182343283,"R"
131328,"2376 BERKSHIRE LANE","BRENTWOOD","CA",94513,37.9336664780001,-121.737949142,328,"2376 BERKSHIRE LANE, BRENTWOOD, CA, 94513","Match","Exact","2376 BERKSHIRE LN, BRENTWOOD, CA, 94513",192111563,"L"
131329,"2376 E LINCOLN LN","HOLLADAY","UT",84124,40.682148602,-111.822701612,329,"2376 E LINCOLN LN, HOLLADAY, UT, 84124","Match","Exact","2376 E LINCOLN LN, HOLLADAY, UT, 84124",176094262,"R"
131330,"2376 FAIRFIELD AVE APT 6","FAIRFIELD","CA",94533,38.2721557020001,-122.045248339,330,"2376 FAIRFIELD AVE APT 6, FAIRFIELD, CA, 94533","Match","Exact","2376 FAIRFIELD AVE, FAIRFIELD, CA, 94533",192579598,"R"
131331,"2376 FAIRFIELD AVE","FAIRFIELD","CA",94533,38.2721557020001,-122.045248339,331,"2376 FAIRFIELD AVE, FAIRFIELD, CA, 94533","Match","Exact","2376 FAIRFIELD AVE, FAIRFIELD, CA, 94533",192579598,"R"
131332,"2376 GALLATIN GREEN BLVD UNIT 2","BOZEMAN","MT",59718,NA,NA,332,"2376 GALLATIN GREEN BLVD UNIT 2, BOZEMAN, MT, 59718","No_Match",NA,NA,NA,NA
131333,"2376 MAIN STREET","BILLINGS","MT",59105,NA,NA,333,"2376 MAIN STREET, BILLINGS, MT, 59105","No_Match",NA,NA,NA,NA
131334,"2376 MONTANA AVE APT E","CINCINNATI","OH",45211,39.156583261,-84.572762013,334,"2376 MONTANA AVE APT E, CINCINNATI, OH, 45211","Match","Exact","2376 MONTANA AVE, CINCINNATI, OH, 45211",103971501,"R"
131335,"2376 NORTH AVE","CHICO","CA",95926,39.758523289,-121.838640556,335,"2376 NORTH AVE, CHICO, CA, 95926","Match","Exact","2376 NORTH AVE, CHICO, CA, 95926",68426595,"R"
131336,"2376 SUMMERCREEK DR","SANTA ROSA","CA",95404,38.411920466,-122.709118051,336,"2376 SUMMERCREEK DR, SANTA ROSA, CA, 95404","Match","Exact","2376 SUMMERCREEK DR, SANTA ROSA, CA, 95404",634213639,"R"
131337,"2376 WEST LILLIE ROAD","WILLCOX","AZ",85643,32.2451781120001,-109.873343673,337,"2376 WEST LILLIE ROAD, WILLCOX, AZ, 85643","Match","Exact","2376 W LILLIE RD, WILLCOX, AZ, 85643",651612014,"R"
131338,"23760 COUNTY ROAD 675","MYAKKA CITY","FL",34251,27.4785383870001,-82.299015443,338,"23760 COUNTY ROAD 675, MYAKKA CITY, FL, 34251","Match","Exact","23760 CO RD 675, MYAKKA CITY, FL, 34251",16226062,"R"
131339,"23761 CLARRY RD","GRAVETTE","AR",72736,36.3917436830001,-94.5503394789999,339,"23761 CLARRY RD, GRAVETTE, AR, 72736","Match","Exact","23761 CLARRY RD, GRAVETTE, AR, 72736",47818541,"L"
131340,"23761 HWY 10 EAST - PO BOX 276","BUTLER","AL",36904,NA,NA,340,"23761 HWY 10 EAST - PO BOX 276, BUTLER, AL, 36904","No_Match",NA,NA,NA,NA
131341,"23761 REDBARK DRIVE","MORENO VALLEY","CA",92557,33.962042594,-117.248860982,341,"23761 REDBARK DRIVE, MORENO VALLEY, CA, 92557","Match","Exact","23761 REDBARK DR, MORENO VALLEY, CA, 92557",194879213,"R"
131342,"23762 PINE HAVEN DRIVE","RAPID CITY","SD",57702,43.9615626470001,-103.361282081,342,"23762 PINE HAVEN DRIVE, RAPID CITY, SD, 57702","Match","Exact","23762 PINE HAVEN DR, RAPID CITY, SD, 57702",647739308,"R"
131343,"23765 MADISON STREET","TORRANCE","CA",90505,33.8088886890001,-118.348861676,343,"23765 MADISON STREET, TORRANCE, CA, 90505","Match","Exact","23765 MADISON ST, TORRANCE, CA, 90505",641496944,"R"
131344,"23769 BRITTANY","EASTPOINTE","MI",48021,42.4705096650001,-82.939115863,344,"23769 BRITTANY, EASTPOINTE, MI, 48021","Match","Non_Exact","23769 BRITTANY AVE, EASTPOINTE, MI, 48021",110684695,"L"
131345,"2377 CALLAWAY CT","MASON CITY","IA",50401,43.131584402,-93.24702328,345,"2377 CALLAWAY CT, MASON CITY, IA, 50401","Match","Exact","2377 CALLAWAY CT, MASON CITY, IA, 50401",617525770,"L"
131346,"2377 CEDAR KEY DR","LAKE ORION","MI",48360,42.748450446,-83.286855756,346,"2377 CEDAR KEY DR, LAKE ORION, MI, 48360","Match","Exact","2377 CEDAR KEY DR, LAKE ORION, MI, 48360",69701212,"R"
131347,"2377 CLOVE RD","LAGRANGEVILLE","NY",12540,41.6952532270001,-73.66203783,347,"2377 CLOVE RD, LAGRANGEVILLE, NY, 12540","Match","Exact","2377 CLOVE RD, LAGRANGEVILLE, NY, 12540",648639384,"R"
131348,"2377 CORPORATION PARKWAY","BURLINGTON","NC",27215,36.067075914,-79.4357471019999,348,"2377 CORPORATION PARKWAY, BURLINGTON, NC, 27215","Match","Exact","2377 CORPORATION PKWY, BURLINGTON, NC, 27215",71664510,"L"
131349,"2377 GOLD MEADOW WAY STE 100","GOLD RIVER","CA",95670,38.6218909090001,-121.261279326,349,"2377 GOLD MEADOW WAY STE 100, GOLD RIVER, CA, 95670","Match","Exact","2377 GOLD MEADOW WAY, GOLD RIVER, CA, 95670",133347047,"L"
131350,"2377 MENDELSSOHN LANE","GOLDEN VALLEY","MN",55427,45.005560087,-93.399383929,350,"2377 MENDELSSOHN LANE, GOLDEN VALLEY, MN, 55427","Match","Exact","2377 MENDELSSOHN LN, GOLDEN VALLEY, MN, 55427",43843185,"R"
131351,"2377 N 86TH ST","WAUWATOSA","WI",53226,43.061921919,-88.0197251719999,351,"2377 N 86TH ST, WAUWATOSA, WI, 53226","Match","Exact","2377 N 86TH ST, WAUWATOSA, WI, 53226",77728602,"L"
131352,"2377 PINE MOUNTAIN ROAD NW","KENNESAW","GA",30152,34.0110126230001,-84.6303581349999,352,"2377 PINE MOUNTAIN ROAD NW, KENNESAW, GA, 30152","Match","Exact","2377 PINE MOUNTAIN RD NW, KENNESAW, GA, 30152",639372358,"L"
131353,"2377 PLEASANT VIEW ROAD","PLEASANT VIEW","TN",37146,36.4013059370001,-87.063416036,353,"2377 PLEASANT VIEW ROAD, PLEASANT VIEW, TN, 37146","Match","Exact","2377 PLEASANT VIEW RD, PLEASANT VIEW, TN, 37146",650662165,"R"
131354,"2377 PORT ROYAL ROAD","CLARKS SUMMIT","PA",18411,41.4245571880001,-75.799858946,354,"2377 PORT ROYAL ROAD, CLARKS SUMMIT, PA, 18411","Match","Exact","2377 PORT ROYAL RD, CLARKS SUMMIT, PA, 18411",139317611,"R"
131355,"2377 PRAIRIE GRASS DR","SIERRA VISTA","AZ",85635,31.5234677,-110.274667797,355,"2377 PRAIRIE GRASS DR, SIERRA VISTA, AZ, 85635","Match","Exact","2377 PRAIRIE GRASS DR, SIERRA VISTA, AZ, 85635",120989633,"L"
131356,"2377 UPPER CATTLE CREEK ROAD","CARBONDALE","CO",81623,39.4199657950001,-107.094352375,356,"2377 UPPER CATTLE CREEK ROAD, CARBONDALE, CO, 81623","Match","Exact","2377 UPPER CATTLE CREEK RD, CARBONDALE, CO, 81623",647247479,"L"
131357,"2377 VINSON ROAD","CLAYTON","NC",27527,35.629158283,-78.3828504109999,357,"2377 VINSON ROAD, CLAYTON, NC, 27527","Match","Exact","2377 VINSON RD, CLAYTON, NC, 27527",653465158,"R"
131358,"23772 COUNTY ROAD 460","TRINITY","AL",35673,34.553956735,-87.15417143,358,"23772 COUNTY ROAD 460, TRINITY, AL, 35673","Match","Exact","23772 CO RD 460, TRINITY, AL, 35673",647423609,"R"
131359,"23772 WEST ROAD SUIT 457","BROWNSTOWN","MI",48183,42.1381401900001,-83.263678365,359,"23772 WEST ROAD SUIT 457, BROWNSTOWN, MI, 48183","Match","Exact","23772 WEST RD, BROWNSTOWN, MI, 48183",652800794,"R"
131360,"23773 SCARLET OAK DRIVE","MURRIETA","CA",92562,33.573665125,-117.246034331,360,"23773 SCARLET OAK DRIVE, MURRIETA, CA, 92562","Match","Exact","23773 SCARLET OAK DR, MURRIETA, CA, 92562",195088251,"R"
131361,"23776 H WEST CYPRESS WAY","ORANGE BEACH","AL",36561,30.2950770960001,-87.61936554,361,"23776 H WEST CYPRESS WAY, ORANGE BEACH, AL, 36561","Match","Exact","23776 W CYPRESS WAY, ORANGE BEACH, AL, 36561",635262314,"R"
131362,"23777 MULHOLLAND HWY SPC 95","CALABASAS","CA",91302,34.1331233970001,-118.647497612,362,"23777 MULHOLLAND HWY SPC 95, CALABASAS, CA, 91302","Match","Exact","23777 MULHOLLAND HWY, CALABASAS, CA, 91302",141723644,"L"
131363,"23777 NE MOUNTAIN TOP RD","NEWBERG","OR",97132,45.3548870810001,-122.994242599,363,"23777 NE MOUNTAIN TOP RD, NEWBERG, OR, 97132","Match","Exact","23777 NE MOUNTAIN TOP RD, NEWBERG, OR, 97132",627631866,"R"
131364,"23779 HILLCREST COURT","MURRIETA","CA",92562,33.5755106920001,-117.229032075,364,"23779 HILLCREST COURT, MURRIETA, CA, 92562","Match","Exact","23779 HILLCREST CT, MURRIETA, CA, 92562",195088179,"L"
131365,"2378 DAWN DR","DECATUR","GA",30032,33.7200574080001,-84.294121278,365,"2378 DAWN DR, DECATUR, GA, 30032","Match","Exact","2378 DAWN DR, DECATUR, GA, 30032",23403967,"L"
131366,"2378 EUCLID HEIGHTS BLVD SUITE 6F","CLEVELAND HEIGHTS","OH",44106,41.5029071230001,-81.5951438009999,366,"2378 EUCLID HEIGHTS BLVD SUITE 6F, CLEVELAND HEIGHTS, OH, 44106","Match","Exact","2378 EUCLID HEIGHTS BLVD, CLEVELAND HEIGHTS, OH, 44106",61159415,"R"
131367,"2378 KENSINGTON DRIVE","BATON ROUGE","LA",70809,30.427843126,-91.1021866,367,"2378 KENSINGTON DRIVE, BATON ROUGE, LA, 70809","Match","Exact","2378 KENSINGTON DR, BATON ROUGE, LA, 70809",92195783,"L"
131368,"2378 MARITIME DRIVE STE100","ELK GROVE","CA",95758,38.4123865610001,-121.482675524,368,"2378 MARITIME DRIVE STE100, ELK GROVE, CA, 95758","Match","Exact","2378 MARITIME DR, ELK GROVE, CA, 95758",133416522,"R"
131369,"2378 ORY DR","BRUSLY","LA",70719,30.3967443980001,-91.2630852949999,369,"2378 ORY DR, BRUSLY, LA, 70719","Match","Exact","2378 ORY DR, BRUSLY, LA, 70719",92295588,"R"
131370,"2378 SKYWAY DR","MONETA","VA",24121,37.1210189010001,-79.608642426,370,"2378 SKYWAY DR, MONETA, VA, 24121","Match","Exact","2378 SKYWAY DR, MONETA, VA, 24121",636665010,"R"
131371,"2378 UNIVERSITY AVENUE","RIVERSIDE","CA",92507,33.975592283,-117.360551134,371,"2378 UNIVERSITY AVENUE, RIVERSIDE, CA, 92507","Match","Exact","2378 UNIVERSITY AVE, RIVERSIDE, CA, 92507",194742522,"L"
131372,"2378 YAGGER BAY DRIVE","HILLIARD","OH",43026,40.000786191,-83.145444389,372,"2378 YAGGER BAY DRIVE, HILLIARD, OH, 43026","Match","Exact","2378 YAGGER BAY DR, HILLIARD, OH, 43026",218652104,"L"
131373,"23781 US HWY 27  SUITE 412","LAKE WALES","FL",33859,27.957136963,-81.621939281,373,"23781 US HWY 27  SUITE 412, LAKE WALES, FL, 33859","Match","Non_Exact","23781 US HWY 27, LAKE WALES, FL, 33859",651854179,"R"
131374,"23781 US HWY 27 SUITE 212","LAKE WALES","FL",33859,27.957136963,-81.621939281,374,"23781 US HWY 27 SUITE 212, LAKE WALES, FL, 33859","Match","Non_Exact","23781 US HWY 27, LAKE WALES, FL, 33859",651854179,"R"
131375,"23785 EL TORO RD -145","LAKE FOREST","CA",92630,NA,NA,375,"23785 EL TORO RD -145, LAKE FOREST, CA, 92630","No_Match",NA,NA,NA,NA
131376,"23786 BRANT LANE","LAGUNA NIGUEL","CA",92677,33.5460462830001,-117.714434476,376,"23786 BRANT LANE, LAGUNA NIGUEL, CA, 92677","Match","Exact","23786 BRANT LN, LAGUNA NIGUEL, CA, 92677",144069352,"L"
131377,"23786 INDEE BLVD","INDEPENDENCE","WI",54747,NA,NA,377,"23786 INDEE BLVD, INDEPENDENCE, WI, 54747","No_Match",NA,NA,NA,NA
131378,"23788 VIA JACARA","VALENCIA","CA",91355,34.3979912630001,-118.551331504,378,"23788 VIA JACARA, VALENCIA, CA, 91355","Match","Exact","23788 VIA JACARA, VALENCIA, CA, 91355",141834517,"L"
131379,"2379 EMMONS","WARREN","MI",48091,42.4483263330001,-83.078327712,379,"2379 EMMONS, WARREN, MI, 48091","Match","Non_Exact","2379 EMMONS AVE, WARREN, MI, 48091",110669878,"L"
131380,"2379 HWY 49 N UNIT110B","BENTONIA","MS",39040,NA,NA,380,"2379 HWY 49 N UNIT110B, BENTONIA, MS, 39040","No_Match",NA,NA,NA,NA
131381,"2379 MARYLANE","ROGERS","AR",72756,36.366674457,-94.150222167,381,"2379 MARYLANE, ROGERS, AR, 72756","Match","Non_Exact","2379 MARYLANE DR, ROGERS, AR, 72756",47873439,"L"
131382,"2379 ORANGE AVE APT B","COSTA MESA","CA",92627,33.654473459,-117.899757073,382,"2379 ORANGE AVE APT B, COSTA MESA, CA, 92627","Match","Exact","2379 ORANGE AVE, COSTA MESA, CA, 92627",651671926,"L"
131383,"2379 PLOMOSA DRIVE","GRIMESLAND","NC",27837,35.57121382,-77.29079875,383,"2379 PLOMOSA DRIVE, GRIMESLAND, NC, 27837","Match","Non_Exact","2379 PLUMOSA DR, GRIMESLAND, NC, 27837",633690121,"L"
131384,"2379 SE 19TH ST","HOMESTEAD","FL",33035,25.453898022,-80.4414886719999,384,"2379 SE 19TH ST, HOMESTEAD, FL, 33035","Match","Non_Exact","2379 SE 19TH ST, HOMESTEAD, FL, 33035",624991525,"L"
131385,"238 23 117TH ROAD","ELMONT","NY",11003,NA,NA,385,"238 23 117TH ROAD, ELMONT, NY, 11003","No_Match",NA,NA,NA,NA
131386,"238 25TH STREET","OGDEN","UT",84401,41.220718318,-111.974954499,386,"238 25TH STREET, OGDEN, UT, 84401","Match","Exact","238 25TH ST, OGDEN, UT, 84401",155697167,"L"
131387,"238 8TH STREET","GREENFIELD","CA",93927,36.3220458700001,-121.242829768,387,"238 8TH STREET, GREENFIELD, CA, 93927","Match","Exact","238 8TH ST, GREENFIELD, CA, 93927",196855268,"R"
131388,"238 A GLEN COVE AVE","GLEN COVE","NY",11542,40.846418322,-73.635782535,388,"238 A GLEN COVE AVE, GLEN COVE, NY, 11542","Match","Exact","238 GLEN COVE AVE, GLEN COVE, NY, 11542",147661854,"L"
131389,"238 A LAWRENCE AV","LAWRENCE","NY",11559,40.6168836580001,-73.7375331119999,389,"238 A LAWRENCE AV, LAWRENCE, NY, 11559","Match","Exact","238 LAWRENCE AVE, LAWRENCE, NY, 11559",147657355,"R"
131390,"238 ACADIA WOODS DR","THIBODAUX","LA",70301,29.769945034,-90.802546627,390,"238 ACADIA WOODS DR, THIBODAUX, LA, 70301","Match","Exact","238 ACADIA WOODS DR, THIBODAUX, LA, 70301",651045042,"L"
131391,"238 ASH ROAD","SALT LICK","KY",40371,38.1293585290001,-83.588032213,391,"238 ASH ROAD, SALT LICK, KY, 40371","Match","Exact","238 ASH RD, SALT LICK, KY, 40371",43475929,"L"
131392,"238 AUBURN ST APT D37","PORTLAND","ME",4103,43.708276529,-70.290511377,392,"238 AUBURN ST APT D37, PORTLAND, ME, 4103","Match","Exact","238 AUBURN ST, PORTLAND, ME, 04103",78074678,"L"
131393,"238 BAYOU LN","WINDER","GA",30680,34.001531863,-83.744240475,393,"238 BAYOU LN, WINDER, GA, 30680","Match","Exact","238 BAYOU LN, WINDER, GA, 30680",634088443,"L"
131394,"238 CASCADE DRIVE","INDIAN HEAD PARK","IL",60525,41.774629362,-87.896338959,394,"238 CASCADE DRIVE, INDIAN HEAD PARK, IL, 60525","Match","Exact","238 CASCADE DR, INDIAN HEAD PARK, IL, 60525",111806831,"L"
131395,"238 CAUSEWAY ST","MEDFIELD","MA",2052,42.1581481200001,-71.3277422359999,395,"238 CAUSEWAY ST, MEDFIELD, MA, 2052","Match","Exact","238 CAUSEWAY ST, MEDFIELD, MA, 02052",87306240,"R"
131396,"238 CHARLES AVE","SYRACUSE","NY",13209,43.057241866,-76.2004088799999,396,"238 CHARLES AVE, SYRACUSE, NY, 13209","Match","Exact","238 CHARLES AVE, SYRACUSE, NY, 13209",46565305,"R"
131397,"238 CHARLES CIRCLE","ROXBORO","NC",27573,36.3976893820001,-78.990813674,397,"238 CHARLES CIRCLE, ROXBORO, NC, 27573","Match","Exact","238 CHARLES CIR, ROXBORO, NC, 27573",77203071,"L"
131398,"238 CHRISTOL STREET","METUCHEN","NJ",8840,40.551039836,-74.3582438989999,398,"238 CHRISTOL STREET, METUCHEN, NJ, 8840","Match","Exact","238 CHRISTOL ST, METUCHEN, NJ, 08840",60317976,"L"
131399,"238 COHASSET ST","WORCESTER","MA",1604,42.2549947960001,-71.7683616899999,399,"238 COHASSET ST, WORCESTER, MA, 1604","Match","Exact","238 COHASSET ST, WORCESTER, MA, 01604",40014615,"R"
131400,"238 CRAIG ST","MARQUETTE","MI",49855,46.5324972230001,-87.39922031,400,"238 CRAIG ST, MARQUETTE, MI, 49855","Match","Exact","238 CRAIG ST, MARQUETTE, MI, 49855",182035032,"R"
131401,"238 E 2ND ST","CISCO","UT",84515,NA,NA,401,"238 E 2ND ST, CISCO, UT, 84515","No_Match",NA,NA,NA,NA
131402,"238 E MICHIGAN AVE","JACKSONVILLE","IL",62650,39.7159853060001,-90.2258862629999,402,"238 E MICHIGAN AVE, JACKSONVILLE, IL, 62650","Match","Exact","238 E MICHIGAN AVE, JACKSONVILLE, IL, 62650",81432623,"R"
131403,"238 E STELLA STREET","PHILADELPHIA","PA",19134,39.9958024900001,-75.1266527179999,403,"238 E STELLA STREET, PHILADELPHIA, PA, 19134","Match","Exact","238 E STELLA ST, PHILADELPHIA, PA, 19134",131420788,"R"
131404,"238 E WATER STREET APT 207","HARRISONBURG","VA",22801,NA,NA,404,"238 E WATER STREET APT 207, HARRISONBURG, VA, 22801","Tie",NA,NA,NA,NA
131405,"238 EAGLES NEST ROAD","MARQUETTE","MI",49855,46.663935462,-87.5153745699999,405,"238 EAGLES NEST ROAD, MARQUETTE, MI, 49855","Match","Exact","238 EAGLES NEST RD, MARQUETTE, MI, 49855",643862194,"R"
131406,"238 EAST 7TH STREET","CLIFTON","NJ",7011,40.886657122,-74.142551381,406,"238 EAST 7TH STREET, CLIFTON, NJ, 7011","Match","Exact","238 E 7TH ST, CLIFTON, NJ, 07011",65266495,"R"
131407,"238 EAST ROWLAND STREET","COVINA","CA",91723,34.0789704950001,-117.887023932,407,"238 EAST ROWLAND STREET, COVINA, CA, 91723","Match","Exact","238 E ROWLAND ST, COVINA, CA, 91723",141716134,"R"
131408,"238 FORDHAM DR","GLENN HEIGHTS","TX",75154,32.5540113800001,-96.8629579349999,408,"238 FORDHAM DR, GLENN HEIGHTS, TX, 75154","Match","Non_Exact","238 FORDHAM, GLENN HEIGHTS, TX, 75154",618026663,"L"
131409,"238 GABRIEL DRIVE","MARS","PA",16046,40.70027751,-79.9863032929999,409,"238 GABRIEL DRIVE, MARS, PA, 16046","Match","Exact","238 GABRIEL DR, MARS, PA, 16046",646947691,"R"
131410,"238 HILLTOP OAKS LN","SPARTA","MO",65753,37.0169523650001,-93.126656209,410,"238 HILLTOP OAKS LN, SPARTA, MO, 65753","Match","Exact","238 HILLTOP OAKS LN, SPARTA, MO, 65753",647812021,"R"
131411,"238 JUCUNDA ST","PITTSBURGH","PA",15210,40.4172992370001,-79.991651931,411,"238 JUCUNDA ST, PITTSBURGH, PA, 15210","Match","Exact","238 JUCUNDA ST, PITTSBURGH, PA, 15210",51636637,"L"
131412,"238 KENSINGTON DRIVE","ELKTON","VA",22827,38.4137297070001,-78.6421883849999,412,"238 KENSINGTON DRIVE, ELKTON, VA, 22827","Match","Exact","238 KENSINGTON DR, ELKTON, VA, 22827",629009867,"R"
131413,"238 KINTYRE DR","CLAYTON","NC",27520,35.5699694080001,-78.5266935559999,413,"238 KINTYRE DR, CLAYTON, NC, 27520","Match","Exact","238 KINTYRE DR, CLAYTON, NC, 27520",26560953,"R"
131414,"238 LAKESHORE CIR","BUMPUS MILLS","TN",37028,36.636437695,-87.888669604,414,"238 LAKESHORE CIR, BUMPUS MILLS, TN, 37028","Match","Exact","238 LAKESHORE CIR, BUMPUS MILLS, TN, 37028",653272021,"R"
131415,"238 LAKESHORE DRIVE","MARLTON","NJ",8053,39.8071454820001,-74.898446103,415,"238 LAKESHORE DRIVE, MARLTON, NJ, 8053","Match","Exact","238 LAKESHORE DR, MARLTON, NJ, 08053",134058677,"R"
131416,"238 MAGNOLIA AVE","OXNARD","CA",93030,34.203978331,-119.178948544,416,"238 MAGNOLIA AVE, OXNARD, CA, 93030","Match","Exact","238 MAGNOLIA AVE, OXNARD, CA, 93030",109958623,"L"
131417,"238 MAGNOLIA AVENUE","AUGUSTA","GA",30901,33.4643543830001,-81.9441479339999,417,"238 MAGNOLIA AVENUE, AUGUSTA, GA, 30901","Match","Exact","238 MAGNOLIA AVE, AUGUSTA, GA, 30901",55641900,"R"
131418,"238 MAIN STREET","MT VERNON","IL",62864,38.3183518700001,-88.893148052,418,"238 MAIN STREET, MT VERNON, IL, 62864","Match","Exact","238 MAIN ST, MOUNT VERNON, IL, 62864",92869315,"R"
131419,"238 MARKET STREET","BLOOMSBURG","PA",17815,41.001853157,-76.457457758,419,"238 MARKET STREET, BLOOMSBURG, PA, 17815","Match","Exact","238 MARKET ST, BLOOMSBURG, PA, 17815",59234227,"L"
131420,"238 MEADOWVIEW LANE","RUCKERSVILLE","VA",22968,38.2329851850001,-78.390129394,420,"238 MEADOWVIEW LANE, RUCKERSVILLE, VA, 22968","Match","Exact","238 MEADOWVIEW LN, RUCKERSVILLE, VA, 22968",29869998,"R"
131421,"238 MOFFETT ROAD","LAKE BLUFF","IL",60044,42.2737149970001,-87.836135188,421,"238 MOFFETT ROAD, LAKE BLUFF, IL, 60044","Match","Exact","238 MOFFETT RD, LAKE BLUFF, IL, 60044",119646968,"L"
131422,"238 MONUMENT AVENUE","MALVERN","PA",19355,40.033142083,-75.5175472079999,422,"238 MONUMENT AVENUE, MALVERN, PA, 19355","Match","Exact","238 MONUMENT AVE, MALVERN, PA, 19355",179497562,"L"
131423,"238 N CASSIDY AVENUE","BEXLEY","OH",43209,39.975218409,-82.932542655,423,"238 N CASSIDY AVENUE, BEXLEY, OH, 43209","Match","Non_Exact","238 N CASSADY AVE, BEXLEY, OH, 43209",218651500,"R"
131424,"238 N CHARLES WILLIS DR","MIDWAY","FL",32343,30.512969813,-84.477875839,424,"238 N CHARLES WILLIS DR, MIDWAY, FL, 32343","Match","Exact","238 CHARLES WILLIS DR, MIDWAY, FL, 32343",651168309,"R"
131425,"238 NE KATHERINE AVE","BARTLESVILLE","OK",74006,36.759513687,-95.938928737,425,"238 NE KATHERINE AVE, BARTLESVILLE, OK, 74006","Match","Exact","238 KATHERINE AVE, BARTLESVILLE, OK, 74006",18703796,"R"
131426,"238 NE MAIN STREET","FRANKLIN","NC",28734,35.18494065,-83.374777481,426,"238 NE MAIN STREET, FRANKLIN, NC, 28734","Match","Exact","238 NE MAIN ST, FRANKLIN, NC, 28734",35497654,"R"
131427,"238 NORTH MARY STREET","LANCASTER","PA",17603,40.0408793220001,-76.315303581,427,"238 NORTH MARY STREET, LANCASTER, PA, 17603","Match","Exact","238 N MARY ST, LANCASTER, PA, 17603",179662105,"L"
131428,"238 NORTH OAK AVE","HIGHLAND SPRINGS","VA",23075,37.5454302890001,-77.317397703,428,"238 NORTH OAK AVE, HIGHLAND SPRINGS, VA, 23075","Match","Exact","238 N OAK AVE, HIGHLAND SPGS, VA, 23075",106651497,"L"
131429,"238 OAKLAND AVENUE","ROCK HILL","SC",29730,34.932375549,-81.025281421,429,"238 OAKLAND AVENUE, ROCK HILL, SC, 29730","Match","Exact","238 OAKLAND AVE, ROCK HILL, SC, 29730",19791482,"R"
131430,"238 OLD FRANKLIN PIKE","COCHRANTON","PA",16314,41.491180683,-79.9776277449999,430,"238 OLD FRANKLIN PIKE, COCHRANTON, PA, 16314","Match","Exact","238 FRANKLIN PIKE, COCHRANTON, PA, 16314",70736979,"L"
131431,"238 OSBORNE HILL RD","FISHKILL","NY",12524,41.5468013870001,-73.915023569,431,"238 OSBORNE HILL RD, FISHKILL, NY, 12524","Match","Exact","238 OSBORNE HILL RD, FISHKILL, NY, 12524",4163207,"R"
131432,"238 PARTRIDGE DRIVE","PRINCETON","WV",24740,37.3684047180001,-81.120497289,432,"238 PARTRIDGE DRIVE, PRINCETON, WV, 24740","Match","Exact","238 PARTRIDGE DR, PRINCETON, WV, 24740",47690150,"L"
131433,"238 PINE ST","BAMBERG","SC",29003,33.303314566,-81.0185946829999,433,"238 PINE ST, BAMBERG, SC, 29003","Match","Exact","238 PINE ST, BAMBERG, SC, 29003",18955712,"L"
131434,"238 PIPER ST","RICHLAND","WA",99352,46.215980975,-119.261058632,434,"238 PIPER ST, RICHLAND, WA, 99352","Match","Exact","238 PIPER ST, RICHLAND, WA, 99352",174989096,"L"
131435,"238 PRATT STREET","MERIDEN","CT",6450,41.540668119,-72.7925517629999,435,"238 PRATT STREET, MERIDEN, CT, 6450","Match","Exact","238 PRATT ST, MERIDEN, CT, 06450",3724200,"L"
131436,"238 RAINBOW DR 13827","LIVINGSTON","TX",77399,30.646423279,-94.874215481,436,"238 RAINBOW DR 13827, LIVINGSTON, TX, 77399","Match","Exact","238 RAINBOW DR, LIVINGSTON, TX, 77399",650457019,"R"
131437,"238 RIVER ROAD","LIMINGTON","ME",4049,43.760235327,-70.658505465,437,"238 RIVER ROAD, LIMINGTON, ME, 4049","Match","Exact","238 RIVER RD, LIMINGTON, ME, 04049",624456939,"L"
131438,"238 S 1500 E","PLEASANT GROVE","UT",84062,40.360773898,-111.706076931,438,"238 S 1500 E, PLEASANT GROVE, UT, 84062","Match","Exact","238 S 1500 E, PLEASANT GROVE, UT, 84062",134203849,"R"
131439,"238 S COLUMBIA ST","UNION CITY","IN",47390,40.1964733550001,-84.807339543,439,"238 S COLUMBIA ST, UNION CITY, IN, 47390","Match","Exact","238 S COLUMBIA ST, UNION CITY, IN, 47390",31227196,"R"
131440,"238 S EGERT BAY BLVD 195","LEAGUE CITY","TX",77573,NA,NA,440,"238 S EGERT BAY BLVD 195, LEAGUE CITY, TX, 77573","No_Match",NA,NA,NA,NA
131441,"238 S EGRET BAY BLVD UNIT 262","LEAGUE CITY","TX",77573,NA,NA,441,"238 S EGRET BAY BLVD UNIT 262, LEAGUE CITY, TX, 77573","No_Match",NA,NA,NA,NA
131442,"238 S EUCLID AVE","PITTSBURGH","PA",15206,NA,NA,442,"238 S EUCLID AVE, PITTSBURGH, PA, 15206","No_Match",NA,NA,NA,NA
131443,"238 SAINT ANTOINE ST","WORTHINGTON","OH",43085,40.1088035810001,-83.0249375939999,443,"238 SAINT ANTOINE ST, WORTHINGTON, OH, 43085","Match","Exact","238 ST ANTOINE ST, WORTHINGTON, OH, 43085",218662160,"R"
131444,"238 SCHOOLHOUSE RD","KILLONA","LA",70057,29.9987313230001,-90.485716074,444,"238 SCHOOLHOUSE RD, KILLONA, LA, 70057","Match","Exact","238 SCHOOLHOUSE RD, KILLONA, LA, 70057",93632589,"L"
131445,"238 SICKLERVILLE ROAD","SICKLERVILLE","NJ",8081,39.7124258480001,-74.96201416,445,"238 SICKLERVILLE ROAD, SICKLERVILLE, NJ, 8081","Match","Exact","238 SICKLERVILLE RD, SICKLERVILLE, NJ, 08081",134363124,"L"
131446,"238 SOUTH EGRET BAY BLVD PMB 144","LEAGUE CITY","TX",77753,NA,NA,446,"238 SOUTH EGRET BAY BLVD PMB 144, LEAGUE CITY, TX, 77753","No_Match",NA,NA,NA,NA
131447,"238 SOUTH EGRET BAY BLVD SUITE 118","LEAGUE CITY","TX",77573,NA,NA,447,"238 SOUTH EGRET BAY BLVD SUITE 118, LEAGUE CITY, TX, 77573","No_Match",NA,NA,NA,NA
131448,"238 T LEIGH DR","HOUMA","LA",70364,29.6044590710001,-90.7381819999999,448,"238 T LEIGH DR, HOUMA, LA, 70364","Match","Exact","238 T LEIGH DR, HOUMA, LA, 70364",92070883,"L"
131449,"238 TERIKO DRIVE","OLDTOWN","FL",32680,NA,NA,449,"238 TERIKO DRIVE, OLDTOWN, FL, 32680","No_Match",NA,NA,NA,NA
131450,"238 VIRGINIA AVE","DALEVILLE","AL",36322,NA,NA,450,"238 VIRGINIA AVE, DALEVILLE, AL, 36322","No_Match",NA,NA,NA,NA
131451,"238 W 137TH ST SUITE 1","NEW YORK","NY",10030,40.817095233,-73.943931057,451,"238 W 137TH ST SUITE 1, NEW YORK, NY, 10030","Match","Non_Exact","238 W 137TH ST, NEW YORK, NY, 10030",59656148,"L"
131452,"238 W 24TH ST","HOUSTON","TX",77008,29.8080066840001,-95.400214252,452,"238 W 24TH ST, HOUSTON, TX, 77008","Match","Exact","238 W 24TH ST, HOUSTON, TX, 77008",96055334,"L"
131453,"238 W CHESTNUT AVENUE SUITE 1","VINELAND","NJ",8360,NA,NA,453,"238 W CHESTNUT AVENUE SUITE 1, VINELAND, NJ, 8360","No_Match",NA,NA,NA,NA
131454,"238 WEST 56TH STREET","NEW YORK","NY",10019,40.765616793,-73.9823663939999,454,"238 WEST 56TH STREET, NEW YORK, NY, 10019","Match","Exact","238 W 56TH ST, NEW YORK, NY, 10019",59657089,"L"
131455,"238 WESTERN AVENUE","SOUTH PORTLAND","ME",4106,43.6373031740001,-70.32282585,455,"238 WESTERN AVENUE, SOUTH PORTLAND, ME, 4106","Match","Exact","238 WESTERN AVE, SOUTH PORTLAND, ME, 04106",78042374,"R"
131456,"238 WILSON AVENUE","CYNTHIANA","KY",41031,38.3911135980001,-84.287607526,456,"238 WILSON AVENUE, CYNTHIANA, KY, 41031","Match","Exact","238 WILSON AVE, CYNTHIANA, KY, 41031",57893495,"R"
131457,"238","CLARKSVILLE","TN",37043,NA,NA,457,"238, CLARKSVILLE, TN, 37043","No_Match",NA,NA,NA,NA
131458,"238","HUSUM","WA",98623,NA,NA,458,"238, HUSUM, WA, 98623","No_Match",NA,NA,NA,NA
131459,"2380 3RD ST","ROCK ISLAND","TX",77470,29.532189701,-96.5758096169999,459,"2380 3RD ST, ROCK ISLAND, TX, 77470","Match","Exact","2380 3RD ST, ROCK ISLAND, TX, 77470",41171173,"L"
131460,"2380 ABNER PLACE","ATLANTA","GA",30318,33.8017580710001,-84.465288259,460,"2380 ABNER PLACE, ATLANTA, GA, 30318","Match","Non_Exact","2380 ABNER PL NW, ATLANTA, GA, 30318",17333790,"L"
131461,"2380 BENTLEY RIDGE DRIVE","SAN JOSE","CA",95138,37.28647112,-121.771002079,461,"2380 BENTLEY RIDGE DRIVE, SAN JOSE, CA, 95138","Match","Exact","2380 BENTLEY RIDGE DR, SAN JOSE, CA, 95138",618191422,"L"
131462,"2380 CHAMPLAIN STREET NW  NO 203","WASHINGTON","DC",20009,38.9213843530001,-77.041270196,462,"2380 CHAMPLAIN STREET NW  NO 203, WASHINGTON, DC, 20009","Match","Exact","2380 CHAMPLAIN ST NW, WASHINGTON, DC, 20009",76223035,"L"
131463,"2380 E KEATS AVE   MB 77","FRESNO","CA",93740,NA,NA,463,"2380 E KEATS AVE   MB 77, FRESNO, CA, 93740","No_Match",NA,NA,NA,NA
131464,"2380 E MAIN ST","MONTROSE","CO",81401,38.4886829430001,-107.850163549,464,"2380 E MAIN ST, MONTROSE, CO, 81401","Match","Exact","2380 E MAIN ST, MONTROSE, CO, 81401",122570935,"R"
131465,"2380 EASTMAN AVE SUITE 107","OXNARD","CA",93030,34.1989771140001,-119.145490881,465,"2380 EASTMAN AVE SUITE 107, OXNARD, CA, 93030","Match","Exact","2380 EASTMAN AVE, OXNARD, CA, 93030",635807042,"L"
131466,"2380 N 400 E SUITE D","LOGAN","UT",84341,41.7758884850001,-111.823046898,466,"2380 N 400 E SUITE D, LOGAN, UT, 84341","Match","Non_Exact","2380 N 400 E, LOGAN, UT, 84341",639495688,"R"
131467,"2380 NEW CUT CIRCLE","SPARTANBURG","SC",29303,34.9944933560001,-82.026063401,467,"2380 NEW CUT CIRCLE, SPARTANBURG, SC, 29303","Match","Exact","2380 NEW CUT CIR, SPARTANBURG, SC, 29303",19492329,"R"
131468,"2380 NORTHWEST 105TH TER","MIAMI","FL",33147,25.8709641,-80.2381894499999,468,"2380 NORTHWEST 105TH TER, MIAMI, FL, 33147","Match","Exact","2380 NW 105TH TER, MIAMI, FL, 33147",115998636,"L"
131469,"2380 NW 3RD STREET","POMPANO BEACH","FL",33069,26.2340883960001,-80.154733108,469,"2380 NW 3RD STREET, POMPANO BEACH, FL, 33069","Match","Exact","2380 NW 3RD ST, POMPANO BEACH, FL, 33069",114694069,"L"
131470,"2380 PROSPECT RD","NAUVOO","AL",35578,33.9289291960001,-87.43411188,470,"2380 PROSPECT RD, NAUVOO, AL, 35578","Match","Exact","2380 PROSPECT RD, NAUVOO, AL, 35578",120590442,"R"
131471,"2380 S 450 E","KNOX","IN",46534,41.267892057,-86.6110604839999,471,"2380 S 450 E, KNOX, IN, 46534","Match","Exact","2380 S 450 E, KNOX, IN, 46534",604873960,"R"
131472,"2380 SHADY OAK COVE","PORTAGE","MI",49024,42.188240561,-85.617442282,472,"2380 SHADY OAK COVE, PORTAGE, MI, 49024","Match","Exact","2380 SHADY OAK COVE, PORTAGE, MI, 49024",641489760,"L"
131473,"2380 SUDDENLINK WAY 307","BULLHEAD CITY","AZ",86429,NA,NA,473,"2380 SUDDENLINK WAY 307, BULLHEAD CITY, AZ, 86429","No_Match",NA,NA,NA,NA
131474,"2380 SUDDENLINK WAY SUITE 806","BULLHEAD CITY","AZ",86442,NA,NA,474,"2380 SUDDENLINK WAY SUITE 806, BULLHEAD CITY, AZ, 86442","No_Match",NA,NA,NA,NA
131475,"2380 US HIGHWAY 23 SOUTH","ALPENA","MI",49707,NA,NA,475,"2380 US HIGHWAY 23 SOUTH, ALPENA, MI, 49707","Tie",NA,NA,NA,NA
131476,"2380 VIA ESPADA","PLEASANTON","CA",94566,37.666535358,-121.896698309,476,"2380 VIA ESPADA, PLEASANTON, CA, 94566","Match","Exact","2380 VIA ESPADA, PLEASANTON, CA, 94566",125031966,"L"
131477,"23800 COMMERCE PARK","BEACHWOOD","OH",44122,41.462028102,-81.509563305,477,"23800 COMMERCE PARK, BEACHWOOD, OH, 44122","Match","Exact","23800 COMMERCE PARK, BEACHWOOD, OH, 44122",638511656,"R"
131478,"23800 GARLAND COURT","VALENCIA","CA",91354,34.4322997400001,-118.552833856,478,"23800 GARLAND COURT, VALENCIA, CA, 91354","Match","Exact","23800 GARLAND CT, VALENCIA, CA, 91354",142811448,"R"
131479,"23800 NW HILLHURST RD","RIDGEFIELD","WA",98642,NA,NA,479,"23800 NW HILLHURST RD, RIDGEFIELD, WA, 98642","No_Match",NA,NA,NA,NA
131480,"23800 SOUTHFIELD RD","SOUTHFIELD","MI",48075,NA,NA,480,"23800 SOUTHFIELD RD, SOUTHFIELD, MI, 48075","No_Match",NA,NA,NA,NA
131481,"23800 WEST TEN MILE RD","SOUTHFIELD","MI",48033,42.4720478830001,-83.2772167799999,481,"23800 WEST TEN MILE RD, SOUTHFIELD, MI, 48033","Match","Exact","23800 W 10 MILE RD, SOUTHFIELD, MI, 48033",640604693,"R"
131482,"23801 CALABASAS ROAD SUITE 2026","CALABASAS","CA",91302,34.149144017,-118.664334926,482,"23801 CALABASAS ROAD SUITE 2026, CALABASAS, CA, 91302","Match","Exact","23801 CALABASAS RD, CALABASAS, CA, 91302",241249720,"L"
131483,"23801 EFFINGHAM BLVD","EUCLID","OH",44117,41.57238913,-81.5175282129999,483,"23801 EFFINGHAM BLVD, EUCLID, OH, 44117","Match","Exact","23801 EFFINGHAM BLVD, EUCLID, OH, 44117",61124526,"L"
131484,"23801 MARSH CREEK RD","BRENTWOOD","CA",94513,37.896458807,-121.683472191,484,"23801 MARSH CREEK RD, BRENTWOOD, CA, 94513","Match","Exact","23801 MARSH CREEK RD, BRENTWOOD, CA, 94513",607836700,"L"
131485,"23802 CHEROKEE ROAD","NORTH DINWIDDIE","VA",23803,37.197189617,-77.49394525,485,"23802 CHEROKEE ROAD, NORTH DINWIDDIE, VA, 23803","Match","Exact","23802 CHEROKEE RD, NORTH DINWIDDIE, VA, 23803",649995046,"R"
131486,"23802 FM 2978","TOMBALL","TX",77375,30.110225051,-95.592584614,486,"23802 FM 2978, TOMBALL, TX, 77375","Match","Exact","23802 FM 2978, TOMBALL, TX, 77375",642868675,"R"
131487,"23802 FRISBEE APT 4","DETROIT","MI",48219,42.435184103,-83.2759366079999,487,"23802 FRISBEE APT 4, DETROIT, MI, 48219","Match","Non_Exact","23802 FRISBEE ST, DETROIT, MI, 48219",95420442,"R"
131488,"23802 GRAPEVINE RIDGE TERRACE","CLARKSBURG","MD",20871,39.2481028170001,-77.2704414899999,488,"23802 GRAPEVINE RIDGE TERRACE, CLARKSBURG, MD, 20871","Match","Exact","23802 GRAPEVINE RIDGE, CLARKSBURG, MD, 20871",618602366,"L"
131489,"23802 PINE GULCH COURT","LEESBURG","FL",34748,28.694625747,-81.863506047,489,"23802 PINE GULCH COURT, LEESBURG, FL, 34748","Match","Exact","23802 PINE GULCH CT, LEESBURG, FL, 34748",617501819,"R"
131490,"23802 ROAD 6","CHOWCHILLA","CA",93610,37.0952123320001,-120.436915039,490,"23802 ROAD 6, CHOWCHILLA, CA, 93610","Match","Exact","23802 RD 6, CHOWCHILLA, CA, 93610",102356425,"L"
131491,"23802 TUSCANY PLAZA","EDMOND","OK",73025,35.7133385880001,-97.5520776709999,491,"23802 TUSCANY PLAZA, EDMOND, OK, 73025","Match","Exact","23802 TUSCANY PLZ, EDMOND, OK, 73025",646743475,"R"
131492,"23802 WINTERGREEN CIRCLE","NOVI","MI",48374,42.4617527180001,-83.505969622,492,"23802 WINTERGREEN CIRCLE, NOVI, MI, 48374","Match","Exact","23802 WINTERGREEN CIR, NOVI, MI, 48374",69784675,"R"
131493,"23803 SCOTSMAN DR","KATY","TX",77493,29.834566916,-95.7882490919999,493,"23803 SCOTSMAN DR, KATY, TX, 77493","Match","Exact","23803 SCOTSMAN DR, KATY, TX, 77493",646717410,"L"
131494,"23805 IRON WOOD CT","BORDEN","IN",47106,38.4168836600001,-85.9714968009999,494,"23805 IRON WOOD CT, BORDEN, IN, 47106","Match","Non_Exact","23805 IRONWOOD CT, BORDEN, IN, 47106",64915320,"R"
131495,"23806 NEW DELHI STREET","MISSION VIEJO","CA",92691,33.6167097540001,-117.685491984,495,"23806 NEW DELHI STREET, MISSION VIEJO, CA, 92691","Match","Exact","23806 NEW DELHI ST, MISSION VIEJO, CA, 92691",144064237,"L"
131496,"23806 W LAKESHORE DR","BRIMLEY","MI",49715,46.462555379,-84.858641669,496,"23806 W LAKESHORE DR, BRIMLEY, MI, 49715","Match","Exact","23806 W LAKESHORE DR, BRIMLEY, MI, 49715",130572772,"R"
131497,"23809 EAST SILSBY RD","BEACHWOOD","OH",44122,41.497919718,-81.510892097,497,"23809 EAST SILSBY RD, BEACHWOOD, OH, 44122","Match","Exact","23809 E SILSBY RD, BEACHWOOD, OH, 44122",61134030,"L"
131498,"23809 HOOVER ST","HAZEL PARK","MI",48030,42.467446495,-83.092828318,498,"23809 HOOVER ST, HAZEL PARK, MI, 48030","Match","Non_Exact","23809 HOOVER AVE, HAZEL PARK, MI, 48030",69748406,"L"
131499,"2381 BARCODA CT","SIERRA VISTA","AZ",85650,31.498312959,-110.275117228,499,"2381 BARCODA CT, SIERRA VISTA, AZ, 85650","Match","Exact","2381 BARCODA CT, SIERRA VISTA, AZ, 85650",640763391,"L"
131500,"2381 HYLAN BLVD","STATEN ISLAND","NY",10306,40.5733532620001,-74.106865281,500,"2381 HYLAN BLVD, STATEN ISLAND, NY, 10306","Match","Exact","2381 HYLAN BLVD, STATEN ISLAND, NY, 10306",59868889,"R"
