"ID","Address","City","State","Zip","lat","long","id","input_address","match_indicator","match_type","matched_address","tiger_line_id","tiger_side"
261001,"622 WEST 120TH STREET","CHICAGO","IL",60628,41.676046248,-87.6377204619999,1,"622 WEST 120TH STREET, CHICAGO, IL, 60628","Match","Exact","622 W 120TH ST, CHICAGO, IL, 60628",605515058,"R"
261002,"622 WEST AVE","RED WING","MN",55066,44.560896642,-92.53391544,2,"622 WEST AVE, RED WING, MN, 55066","Match","Exact","622 WEST AVE, RED WING, MN, 55066",31539146,"L"
261003,"622 YORKSHIRE DR","DEKALB","IL",60115,41.926363227,-88.766968934,3,"622 YORKSHIRE DR, DEKALB, IL, 60115","Match","Exact","622 YORKSHIRE DR, DEKALB, IL, 60115",52278576,"R"
261004,"622","LINDEN","NC",28356,NA,NA,4,"622, LINDEN, NC, 28356","No_Match",NA,NA,NA,NA
261005,"6220 BARNARD MILL RD","RINGWOOD","IL",60072,42.397857872,-88.318801798,5,"6220 BARNARD MILL RD, RINGWOOD, IL, 60072","Match","Exact","6220 BARNARD MILL RD, RINGWOOD, IL, 60072",119815666,"L"
261006,"6220 COVINGTON WAY","GOLETA","CA",93117,34.4449143690001,-119.840338215,6,"6220 COVINGTON WAY, GOLETA, CA, 93117","Match","Exact","6220 COVINGTON WAY, GOLETA, CA, 93117",108659040,"R"
261007,"6220 DE LONGPRE AVE UNIT 4","LOS ANGELES","CA",90028,34.0961888800001,-118.324448225,7,"6220 DE LONGPRE AVE UNIT 4, LOS ANGELES, CA, 90028","Match","Non_Exact","6220 DE LONGPRE AVE, LOS ANGELES, CA, 90028",141599828,"L"
261008,"6220 E SURREY AVENUE","SCOTTSDALE","AZ",85254,33.6056266320001,-111.946631269,8,"6220 E SURREY AVENUE, SCOTTSDALE, AZ, 85254","Match","Exact","6220 E SURREY AVE, SCOTTSDALE, AZ, 85254",128188402,"L"
261009,"6220 HARTZELL RD","GREENVILLE","OH",45331,40.098258232,-84.555551538,9,"6220 HARTZELL RD, GREENVILLE, OH, 45331","Match","Exact","6220 HARTZELL RD, GREENVILLE, OH, 45331",54549890,"L"
261010,"6220 HICKORY TRAIL","ATLANTA","GA",30349,33.587758369,-84.4898017639999,10,"6220 HICKORY TRAIL, ATLANTA, GA, 30349","Match","Exact","6220 HICKORY TRL, ATLANTA, GA, 30349",623855952,"L"
261011,"6220 HILBERT RIDGE DRIVE","HOLLY SPRINGS","NC",27540,35.605868328,-78.8603093949999,11,"6220 HILBERT RIDGE DRIVE, HOLLY SPRINGS, NC, 27540","Match","Exact","6220 HILBERT RIDGE DR, HOLLY SPRINGS, NC, 27540",72597343,"L"
261012,"6220 JACKSON ST","GROVES","TX",77619,29.952594145,-93.926570292,12,"6220 JACKSON ST, GROVES, TX, 77619","Match","Non_Exact","6220 JACKSON BLVD, GROVES, TX, 77619",73862491,"R"
261013,"6220 KELLER DRIVE","PORT RICHEY","FL",34668,28.3002791430001,-82.7115076599999,13,"6220 KELLER DRIVE, PORT RICHEY, FL, 34668","Match","Exact","6220 KELLER DR, PORT RICHEY, FL, 34668",86340447,"L"
261014,"6220 LAKE COVE DRIVE","TUSCALOOSA","AL",35406,33.273731593,-87.499593986,14,"6220 LAKE COVE DRIVE, TUSCALOOSA, AL, 35406","Match","Exact","6220 LAKE COVE DR, TUSCALOOSA, AL, 35406",82194355,"R"
261015,"6220 LYNNCHESTER DRIVE","LOUISVILLE","KY",40219,38.152147675,-85.646222952,15,"6220 LYNNCHESTER DRIVE, LOUISVILLE, KY, 40219","Match","Exact","6220 LYNNCHESTER DR, LOUISVILLE, KY, 40219",96883026,"R"
261016,"6220 N CYPRESS AVE","KANSAS CITY","MO",64119,39.212189929,-94.526264339,16,"6220 N CYPRESS AVE, KANSAS CITY, MO, 64119","Match","Exact","6220 N CYPRESS AVE, KANSAS CITY, MO, 64119",89774800,"L"
261017,"6220 N FARMINGTON","WESTLAND","MI",48185,42.330477844,-83.3698516809999,17,"6220 N FARMINGTON, WESTLAND, MI, 48185","Match","Non_Exact","6220 N FARMINGTON RD, WESTLAND, MI, 48185",95414455,"R"
261018,"6220 PACIFIC AVE UNIT 303","PLAYA DEL REY","CA",90293,33.9621426150001,-118.452849638,18,"6220 PACIFIC AVE UNIT 303, PLAYA DEL REY, CA, 90293","Match","Exact","6220 PACIFIC AVE, PLAYA DEL REY, CA, 90293",141577031,"L"
261019,"6220 PINE BLUFF DR","CUMMINGS","GA",30040,34.195312716,-84.227766372,19,"6220 PINE BLUFF DR, CUMMINGS, GA, 30040","Match","Non_Exact","6220 PINE BLUFF DR, CUMMING, GA, 30040",646160249,"R"
261020,"6220 RASSLER AVE","LAS VEGAS","NV",89107,36.1780333300001,-115.227330879,20,"6220 RASSLER AVE, LAS VEGAS, NV, 89107","Match","Exact","6220 RASSLER AVE, LAS VEGAS, NV, 89107",201859948,"R"
261021,"6220 RVERSIDE DRIVE STE 554","METAIRIE","LA",70003,30.0090867260001,-90.213406736,21,"6220 RVERSIDE DRIVE STE 554, METAIRIE, LA, 70003","Match","Non_Exact","6220 RIVERSIDE DR, METAIRIE, LA, 70003",93494231,"L"
261022,"6220 S ORANGE BLOSSOM TRAIL 505","ORLANDO","FL",32809,28.4668019920001,-81.396776753,22,"6220 S ORANGE BLOSSOM TRAIL 505, ORLANDO, FL, 32809","Match","Non_Exact","6220 S ORANGE BLOSSOM TRL, ORLANDO, FL, 32809",637458218,"R"
261023,"6220 SE 92ND AVE","PORTLAND","OR",97266,45.4779271100001,-122.568608802,23,"6220 SE 92ND AVE, PORTLAND, OR, 97266","Match","Exact","6220 SE 92ND AVE, PORTLAND, OR, 97266",157520652,"L"
261024,"6220 SHALLOWFORD RD APT 40","CHATTANOOGA","TN",37421,35.0514061310001,-85.177050666,24,"6220 SHALLOWFORD RD APT 40, CHATTANOOGA, TN, 37421","Match","Exact","6220 SHALLOWFORD RD, CHATTANOOGA, TN, 37421",649779078,"R"
261025,"6220 STATE ROAD FL 2","PARMA","OH",44134,41.3945897030001,-81.710402877,25,"6220 STATE ROAD FL 2, PARMA, OH, 44134","Match","Exact","6220 STATE RD, PARMA, OH, 44134",61117233,"R"
261026,"6220 THOMAS DRIVE","PANAMA CITY BEACH","FL",32408,30.1505835720001,-85.7643363289999,26,"6220 THOMAS DRIVE, PANAMA CITY BEACH, FL, 32408","Match","Exact","6220 THOMAS DR, PANAMA CITY BEACH, FL, 32408",7079801,"L"
261027,"6220 W BUENA VISTA CT","VISALIA","CA",93291,36.345992091,-119.359750906,27,"6220 W BUENA VISTA CT, VISALIA, CA, 93291","Match","Exact","6220 W BUENA VISTA CT, VISALIA, CA, 93291",617656350,"R"
261028,"6220 WESTPARK DR  SUITE 245F","HOUSTON","TX",77057,29.723486747,-95.495167298,28,"6220 WESTPARK DR  SUITE 245F, HOUSTON, TX, 77057","Match","Exact","6220 WESTPARK DR, HOUSTON, TX, 77057",647648734,"R"
261029,"6220 WINDING WAY","CARMICHAEL","CA",95608,38.649032918,-121.318734807,29,"6220 WINDING WAY, CARMICHAEL, CA, 95608","Match","Exact","6220 WINDING WAY, CARMICHAEL, CA, 95608",133343463,"R"
261030,"6220 WOODWARD AVE","BELL","CA",90201,33.980524997,-118.185460521,30,"6220 WOODWARD AVE, BELL, CA, 90201","Match","Exact","6220 WOODWARD AVE, BELL, CA, 90201",142851336,"L"
261031,"6221 14TH STREET","SACRAMENTO","CA",95831,38.51252135,-121.507791602,31,"6221 14TH STREET, SACRAMENTO, CA, 95831","Match","Exact","6221 14TH ST, SACRAMENTO, CA, 95831",653168380,"L"
261032,"6221 37TH AVENUE NE","SEATTLE","WA",98115,47.6742210400001,-122.288041777,32,"6221 37TH AVENUE NE, SEATTLE, WA, 98115","Match","Exact","6221 37TH AVE NE, SEATTLE, WA, 98115",186586426,"L"
261033,"6221 BRUSH ST APT 105","DETROIT","MI",48202,42.368436355,-83.066325926,33,"6221 BRUSH ST APT 105, DETROIT, MI, 48202","Match","Exact","6221 BRUSH ST, DETROIT, MI, 48202",95476822,"L"
261034,"6221 EASTERN AVENUE UNIT 25752","BALTIMORE","MD",21224,NA,NA,34,"6221 EASTERN AVENUE UNIT 25752, BALTIMORE, MD, 21224","No_Match",NA,NA,NA,NA
261035,"6221 EASTWOOD GLEN PL","MONTGOMERY","AL",36117,32.348821478,-86.194444694,35,"6221 EASTWOOD GLEN PL, MONTGOMERY, AL, 36117","Match","Exact","6221 EASTWOOD GLEN PL, MONTGOMERY, AL, 36117",1486449,"R"
261036,"6221 ELIZABETH LAKE ROAD","LEONA VALLEY","CA",93551,34.6026623870001,-118.243301274,36,"6221 ELIZABETH LAKE ROAD, LEONA VALLEY, CA, 93551","Match","Exact","6221 ELIZABETH LAKE RD, LEONA VALLEY, CA, 93551",141851814,"L"
261037,"6221 FAIR OAKS AVE","BALTIMORE","MD",21214,39.3609126480001,-76.564901522,37,"6221 FAIR OAKS AVE, BALTIMORE, MD, 21214","Match","Exact","6221 FAIR OAKS AVE, BALTIMORE, MD, 21214",206410564,"R"
261038,"6221 FENWAY ST","DALLAS","TX",75217,32.729018276,-96.714383877,38,"6221 FENWAY ST, DALLAS, TX, 75217","Match","Exact","6221 FENWAY ST, DALLAS, TX, 75217",636339201,"L"
261039,"6221 GREENLEIGH AVE APT 280","BALTIMORE","MD",21220,39.3605833060001,-76.404308779,39,"6221 GREENLEIGH AVE APT 280, BALTIMORE, MD, 21220","Match","Exact","6221 GREENLEIGH AVE, BALTIMORE, MD, 21220",650936803,"R"
261040,"6221 LAUREL LANE","EASTMAN","GA",31023,32.1951205030001,-83.201702578,40,"6221 LAUREL LANE, EASTMAN, GA, 31023","Match","Exact","6221 LAUREL LN, EASTMAN, GA, 31023",9520117,"R"
261041,"6221 MORI STREET","MCLEAN","VA",22101,38.9277210220001,-77.152217589,41,"6221 MORI STREET, MCLEAN, VA, 22101","Match","Exact","6221 MORI ST, MCLEAN, VA, 22101",75964111,"L"
261042,"6221 PACIFIC AVE","PLAYA DEL REY","CA",90293,33.9621373570001,-118.452861239,42,"6221 PACIFIC AVE, PLAYA DEL REY, CA, 90293","Match","Exact","6221 PACIFIC AVE, PLAYA DEL REY, CA, 90293",141577031,"R"
261043,"6221 PALM RIVER RD","TAMPA","FL",33619,27.941137552,-82.3838151209999,43,"6221 PALM RIVER RD, TAMPA, FL, 33619","Match","Exact","6221 PALM RIVER RD, TAMPA, FL, 33619",104538058,"R"
261044,"6221 RYAN CREEK RD","FORT WORTH","TX",76179,32.847494442,-97.424105686,44,"6221 RYAN CREEK RD, FORT WORTH, TX, 76179","Match","Exact","6221 RYAN CREEK RD, FORT WORTH, TX, 76179",648525463,"L"
261045,"6221 S CLAIBORNE AVE   STE 453","NEW ORLEANS","LA",70125,29.9458304290001,-90.1135491329999,45,"6221 S CLAIBORNE AVE   STE 453, NEW ORLEANS, LA, 70125","Match","Non_Exact","6221 S CLAIBORNE AVE, NEW ORLEANS, LA, 70125",191751827,"R"
261046,"6221 S CLAIBORNE AVE SUITE 417","NEW ORLEANS","LA",70125,29.9458304290001,-90.1135491329999,46,"6221 S CLAIBORNE AVE SUITE 417, NEW ORLEANS, LA, 70125","Match","Non_Exact","6221 S CLAIBORNE AVE, NEW ORLEANS, LA, 70125",191751827,"R"
261047,"6221 S CLAIBORNE AVE","NEW ORLEANS","LA",70125,29.9458304290001,-90.1135491329999,47,"6221 S CLAIBORNE AVE, NEW ORLEANS, LA, 70125","Match","Exact","6221 S CLAIBORNE AVE, NEW ORLEANS, LA, 70125",191751827,"R"
261048,"6221 SHOO FLY RD","KELSEY","CA",95667,38.806087909,-120.806081037,48,"6221 SHOO FLY RD, KELSEY, CA, 95667","Match","Exact","6221 SHOO FLY RD, KELSEY, CA, 95667",636426743,"L"
261049,"6221 SONGBIRD CIRCLE","BOULDER","CO",80303,40.0086360720001,-105.209127091,49,"6221 SONGBIRD CIRCLE, BOULDER, CO, 80303","Match","Exact","6221 SONGBIRD CIR, BOULDER, CO, 80303",188170891,"L"
261050,"6221 SOUTH 2275 EAST","SALT LAKE CITY","UT",84121,40.638383629,-111.825468883,50,"6221 SOUTH 2275 EAST, SALT LAKE CITY, UT, 84121","Match","Exact","6221 S 2275 E, SALT LAKE CITY, UT, 84121",176088292,"L"
261051,"6221 STRAWBERRY WAY   SUITE D","SALISBURY","MD",21801,38.3643879530001,-75.636679401,51,"6221 STRAWBERRY WAY   SUITE D, SALISBURY, MD, 21801","Match","Exact","6221 STRAWBERRY WAY, SALISBURY, MD, 21801",114462262,"R"
261052,"6221 W NORTH ST 137","STILESVILLE","IN",46180,39.638996761,-86.635903161,52,"6221 W NORTH ST 137, STILESVILLE, IN, 46180","Match","Exact","6221 NORTH ST, STILESVILLE, IN, 46180",89199088,"R"
261053,"6221 W ROOSEVELT RD","BERWYN","IL",60402,41.8653742130001,-87.780170798,53,"6221 W ROOSEVELT RD, BERWYN, IL, 60402","Match","Exact","6221 W ROOSEVELT RD, BERWYN, IL, 60402",111794937,"L"
261054,"6221 W ROOSEVELT ROAD","BERWYN","IL",60402,41.8653742130001,-87.780170798,54,"6221 W ROOSEVELT ROAD, BERWYN, IL, 60402","Match","Exact","6221 W ROOSEVELT RD, BERWYN, IL, 60402",111794937,"L"
261055,"6221 YELLOWSTONE DRIVE","ALEXANDRIA","VA",22312,38.836232137,-77.144483495,55,"6221 YELLOWSTONE DRIVE, ALEXANDRIA, VA, 22312","Match","Exact","6221 YELLOWSTONE DR, ALEXANDRIA, VA, 22312",75981864,"L"
261056,"6222 BUNKER HILL DRIVE","WILLIAMSBURG","MI",49690,44.748687337,-85.451461647,56,"6222 BUNKER HILL DRIVE, WILLIAMSBURG, MI, 49690","Match","Non_Exact","6222 BUNKER HILL RD, WILLIAMSBURG, MI, 49690",145521366,"L"
261057,"6222 EDGEWATER DR","FALLS CHURCH","VA",22041,38.852354243,-77.151306388,57,"6222 EDGEWATER DR, FALLS CHURCH, VA, 22041","Match","Exact","6222 EDGEWATER DR, FALLS CHURCH, VA, 22041",76043391,"L"
261058,"6222 GA HIGHWAY 37","LEARY","GA",39862,31.5111287560001,-84.529003055,58,"6222 GA HIGHWAY 37, LEARY, GA, 39862","Match","Non_Exact","6222 STATE RTE 37, LEARY, GA, 39862",93848305,"R"
261059,"6222 RAYTOWN TRAFFICWAY PMB 197","RAYTOWN","MO",64133,39.0114378380001,-94.466639711,59,"6222 RAYTOWN TRAFFICWAY PMB 197, RAYTOWN, MO, 64133","Match","Exact","6222 RAYTOWN TRFY, RAYTOWN, MO, 64133",647951189,"R"
261060,"6222 SEAL PLACE","WALDORF","MD",20603,38.6213139230001,-76.9511845219999,60,"6222 SEAL PLACE, WALDORF, MD, 20603","Match","Exact","6222 SEAL PL, WALDORF, MD, 20603",25384594,"R"
261061,"6222 SPENCERS GLEN WAY","SUGAR LAND","TX",77479,29.6045562470001,-95.666614511,61,"6222 SPENCERS GLEN WAY, SUGAR LAND, TX, 77479","Match","Exact","6222 SPENCERS GLEN WAY, SUGAR LAND, TX, 77479",78289356,"R"
261062,"6222 W NORTH AVE","WAUWATOSA","WI",53213,43.060713955,-87.990102844,62,"6222 W NORTH AVE, WAUWATOSA, WI, 53213","Match","Exact","6222 W NORTH AVE, WAUWATOSA, WI, 53213",77731142,"R"
261063,"6222 W NORTH AVENUE","CHICAGO","IL",60639,41.909190451,-87.781140791,63,"6222 W NORTH AVENUE, CHICAGO, IL, 60639","Match","Exact","6222 NORTH AVE, CHICAGO, IL, 60639",112226234,"R"
261064,"6222 WHITE BIRCH LANE","MATTESON","IL",60443,41.514674131,-87.7668528839999,64,"6222 WHITE BIRCH LANE, MATTESON, IL, 60443","Match","Exact","6222 WHITE BIRCH LN, MATTESON, IL, 60443",111706857,"L"
261065,"6223 37TH STREET NW","PLAZA","ND",58771,47.9489407190001,-101.924030956,65,"6223 37TH STREET NW, PLAZA, ND, 58771","Match","Exact","6223 37TH ST NW, PLAZA, ND, 58771",200602803,"L"
261066,"6223 CIELO GRANDE DR NE","RIO RANCHO","NM",87144,35.345252143,-106.613427409,66,"6223 CIELO GRANDE DR NE, RIO RANCHO, NM, 87144","Match","Exact","6223 CIELO GRANDE DR NE, RIO RANCHO, NM, 87144",611357301,"L"
261067,"6223 CREEKSIDE PARK DRIVE","FULSHEAR","TX",77441,29.699888097,-95.864240948,67,"6223 CREEKSIDE PARK DRIVE, FULSHEAR, TX, 77441","Match","Exact","6223 CREEKSIDE PARK DR, FULSHEAR, TX, 77441",629608774,"L"
261068,"6223 GLEN WOOD LOOP","MANASSAS","VA",20112,38.6759397610001,-77.3910105319999,68,"6223 GLEN WOOD LOOP, MANASSAS, VA, 20112","Match","Exact","6223 GLEN WOOD LOOP, MANASSAS, VA, 20112",640863482,"L"
261069,"6223 HOUGH RD","ALMONT","MI",48003,42.9034738500001,-83.093035399,69,"6223 HOUGH RD, ALMONT, MI, 48003","Match","Exact","6223 HOUGH RD, ALMONT, MI, 48003",110469747,"L"
261070,"6223 INTERBAY AVENUE","TAMPA","FL",33611,27.8777623990001,-82.500775394,70,"6223 INTERBAY AVENUE, TAMPA, FL, 33611","Match","Exact","6223 INTERBAY AVE, TAMPA, FL, 33611",104529303,"R"
261071,"6223 JUBILEE LN","LAKELAND","FL",33813,27.9525534630001,-81.88503207,71,"6223 JUBILEE LN, LAKELAND, FL, 33813","Match","Exact","6223 JUBILEE LN, LAKELAND, FL, 33813",104862415,"R"
261072,"6223 KILMER LOOP UNIT 103","ARVADA","CO",80403,39.806568596,-105.172611963,72,"6223 KILMER LOOP UNIT 103, ARVADA, CO, 80403","Match","Exact","6223 KILMER LOOP, ARVADA, CO, 80403",639954794,"R"
261073,"6223 MAPLE STREET 4231","OMAHA","NE",68104,41.2849928690001,-96.0086568519999,73,"6223 MAPLE STREET 4231, OMAHA, NE, 68104","Match","Exact","6223 MAPLE ST, OMAHA, NE, 68104",116976398,"L"
261074,"6223 SE 30TH WAY","GRESHAM","OR",97080,45.475359531,-122.370111921,74,"6223 SE 30TH WAY, GRESHAM, OR, 97080","Match","Exact","6223 SE 30TH WAY, GRESHAM, OR, 97080",157555662,"R"
261075,"6224 BEEMAN AVE","NORTH HOLLYWOOD","CA",91606,34.183675174,-118.407357676,75,"6224 BEEMAN AVE, NORTH HOLLYWOOD, CA, 91606","Match","Exact","6224 BEEMAN AVE, N HOLLYWOOD, CA, 91606",142687707,"R"
261076,"6224 C DURHAM DRIVE","LAKE WORTH","FL",33467,26.583269408,-80.146835751,76,"6224 C DURHAM DRIVE, LAKE WORTH, FL, 33467","Match","Exact","6224 C DURHAM DR, LAKE WORTH, FL, 33467",115558308,"R"
261077,"6224 CARNEGIE","ROMULUS","MI",48174,42.262025108,-83.3746762929999,77,"6224 CARNEGIE, ROMULUS, MI, 48174","Match","Non_Exact","6224 CARNEGIE ST, ROMULUS, MI, 48174",95417386,"R"
261078,"6224 ESTATE NAZARETH","ST THOMAS","VI",802,NA,NA,78,"6224 ESTATE NAZARETH, ST THOMAS, VI, 802","No_Match",NA,NA,NA,NA
261079,"6224 GILLESPIE STREET","PHILADELPHIA","PA",19135,40.022452098,-75.0573063849999,79,"6224 GILLESPIE STREET, PHILADELPHIA, PA, 19135","Match","Exact","6224 GILLESPIE ST, PHILADELPHIA, PA, 19135",131435077,"L"
261080,"6224 LAKE FREEMAN DRIVE","INDIANAPOLIS","IN",46254,39.8491365720001,-86.268520672,80,"6224 LAKE FREEMAN DRIVE, INDIANAPOLIS, IN, 46254","Match","Exact","6224 LAKE FREEMAN DR, INDIANAPOLIS, IN, 46254",108043556,"R"
261081,"6224 LARAMIE CIRCLE","CHATTANOOGA","TN",37421,35.055660189,-85.1801801129999,81,"6224 LARAMIE CIRCLE, CHATTANOOGA, TN, 37421","Match","Exact","6224 LARAMIE CIR, CHATTANOOGA, TN, 37421",627197864,"R"
261082,"6224 N WASHTENAW AVE APT 3","CHICAGO","IL",60659,41.994531744,-87.697102042,82,"6224 N WASHTENAW AVE APT 3, CHICAGO, IL, 60659","Match","Non_Exact","6224 N WASHTENAW AVE, CHICAGO, IL, 60659",111744698,"L"
261083,"6224 NORTH INWOOD ROAD","SHREVEPORT","LA",71119,32.4699830820001,-93.86793875,83,"6224 NORTH INWOOD ROAD, SHREVEPORT, LA, 71119","Match","Exact","6224 N INWOOD RD, SHREVEPORT, LA, 71119",57430020,"R"
261084,"6224 POTOMAC HIGHLANDS TRAIL","GREEN BANK","WV",24944,38.426481573,-79.820352116,84,"6224 POTOMAC HIGHLANDS TRAIL, GREEN BANK, WV, 24944","Match","Exact","6224 POTOMAC HIGHLANDS TRL, GREEN BANK, WV, 24944",648092545,"R"
261085,"6224 RACE STREET","PHLADELPHIA","PA",19139,39.965668415,-75.245098673,85,"6224 RACE STREET, PHLADELPHIA, PA, 19139","Match","Non_Exact","6224 RACE ST, PHILADELPHIA, PA, 19139",131397382,"L"
261086,"6224 SOUTH EVANS AVE APT2","CHICAGO","IL",60637,41.7818215280001,-87.607223359,86,"6224 SOUTH EVANS AVE APT2, CHICAGO, IL, 60637","Match","Exact","6224 S EVANS AVE, CHICAGO, IL, 60637",605542452,"R"
261087,"6224 STATE HIGHWAY 146 S","LIVINGSTON","TX",77351,NA,NA,87,"6224 STATE HIGHWAY 146 S, LIVINGSTON, TX, 77351","No_Match",NA,NA,NA,NA
261088,"6224 SW 80TH ST","OCALA","FL",34476,29.106553117,-82.22317357,88,"6224 SW 80TH ST, OCALA, FL, 34476","Match","Exact","6224 SW 80TH ST, OCALA, FL, 34476",116843008,"L"
261089,"6224 WINBOURNE AVE","BATON ROUGE","LA",70805,30.4792476000001,-91.127702327,89,"6224 WINBOURNE AVE, BATON ROUGE, LA, 70805","Match","Exact","6224 WINBOURNE AVE, BATON ROUGE, LA, 70805",92188591,"R"
261090,"6225 ARBOR BLVD W","NAPLES","FL",34119,26.226449266,-81.719739878,90,"6225 ARBOR BLVD W, NAPLES, FL, 34119","Match","Exact","6225 ARBOR BLVD W, NAPLES, FL, 34119",648751412,"L"
261091,"6225 BEAR CV SOUTH","OLIVE BRANCH","MS",38654,34.948573724,-89.873149331,91,"6225 BEAR CV SOUTH, OLIVE BRANCH, MS, 38654","Match","Exact","6225 BEAR COVE S, OLIVE BRANCH, MS, 38654",627550556,"L"
261092,"6225 BELLMEADOW DR","COLUMBUS","OH",43229,40.0946467250001,-82.972450221,92,"6225 BELLMEADOW DR, COLUMBUS, OH, 43229","Match","Exact","6225 BELLMEADOW DR, COLUMBUS, OH, 43229",135570181,"L"
261093,"6225 BUSH BUCK RUN","FORT WORTH","TX",76179,32.876952101,-97.418214067,93,"6225 BUSH BUCK RUN, FORT WORTH, TX, 76179","Match","Exact","6225 BUSH BUCK RUN, FORT WORTH, TX, 76179",619874041,"L"
261094,"6225 CANVASBACK LANE","ORLANDO","FL",32810,28.623764394,-81.474723427,94,"6225 CANVASBACK LANE, ORLANDO, FL, 32810","Match","Exact","6225 CANVASBACK LN, ORLANDO, FL, 32810",94311373,"R"
261095,"6225 CEDAR SAGE TRAIL","ARGYLE","TX",76226,33.072652041,-97.213125911,95,"6225 CEDAR SAGE TRAIL, ARGYLE, TX, 76226","Match","Exact","6225 CEDAR SAGE TRL, ARGYLE, TX, 76226",646875225,"R"
261096,"6225 CRYSTAL LAKE DRIVE","FORT WORTH","TX",76179,32.846796254,-97.402282481,96,"6225 CRYSTAL LAKE DRIVE, FORT WORTH, TX, 76179","Match","Exact","6225 CRYSTAL LAKE DR, FORT WORTH, TX, 76179",648716509,"L"
261097,"6225 EAST HWY 114 BLDG 3 SUITE 306","RHOME","TX",76078,NA,NA,97,"6225 EAST HWY 114 BLDG 3 SUITE 306, RHOME, TX, 76078","No_Match",NA,NA,NA,NA
261098,"6225 FAIRFAX WAY","FARIBAULT","MN",55021,44.371657699,-93.387553327,98,"6225 FAIRFAX WAY, FARIBAULT, MN, 55021","Match","Exact","6225 FAIRFAX WAY, FARIBAULT, MN, 55021",37316483,"R"
261099,"6225 GRATIOT RD SUITE 1","SAGINAW","MI",48638,43.415467698,-84.038339784,99,"6225 GRATIOT RD SUITE 1, SAGINAW, MI, 48638","Match","Exact","6225 GRATIOT RD, SAGINAW, MI, 48638",80231871,"L"
261100,"6225 HEMPERLY ROAD","ATLANTA","GA",30349,33.5860047150001,-84.47886099,100,"6225 HEMPERLY ROAD, ATLANTA, GA, 30349","Match","Exact","6225 HEMPERLY RD, ATLANTA, GA, 30349",17410807,"R"
261101,"6225 KENTUCKY DR","CENTRAL POINT","OR",97502,42.407988824,-123.04573992,101,"6225 KENTUCKY DR, CENTRAL POINT, OR, 97502","Match","Exact","6225 KENTUCKY DR, CENTRAL POINT, OR, 97502",155539660,"R"
261102,"6225 LAKE WASHINGTON BLVD N E 310","KIRKLAND","WA",98033,47.662403087,-122.206880257,102,"6225 LAKE WASHINGTON BLVD N E 310, KIRKLAND, WA, 98033","Match","Non_Exact","6225 LAKE WASHINGTON BLVD NE, KIRKLAND, WA, 98033",186604447,"L"
261103,"6225 LERNER WAY","LANSING","MI",48911,42.6673157810001,-84.528929583,103,"6225 LERNER WAY, LANSING, MI, 48911","Match","Exact","6225 LERNER WAY, LANSING, MI, 48911",17503768,"L"
261104,"6225 LONE OAK DRIVE","BETHESDA","MD",20817,39.020200082,-77.1251811239999,104,"6225 LONE OAK DRIVE, BETHESDA, MD, 20817","Match","Exact","6225 LONE OAK DR, BETHESDA, MD, 20817",62056611,"R"
261105,"6225 NORTH CENTRAL AVE","BATESVILLE","AR",72501,35.8730401610001,-91.753591134,105,"6225 NORTH CENTRAL AVE, BATESVILLE, AR, 72501","Match","Exact","6225 N CENTRAL AVE, BATESVILLE, AR, 72501",41639762,"L"
261106,"6225 PROVIDENCE CT","CARPENTERSVILLE","IL",60110,42.1223017360001,-88.321291936,106,"6225 PROVIDENCE CT, CARPENTERSVILLE, IL, 60110","Match","Exact","6225 PROVIDENCE CT, CARPENTERSVILLE, IL, 60110",119542739,"R"
261107,"6225 SONHAVEN DRIVE","SHREVEPORT","CO",71119,NA,NA,107,"6225 SONHAVEN DRIVE, SHREVEPORT, CO, 71119","No_Match",NA,NA,NA,NA
261108,"6225 W ILLINI STREET","PHOENIX","AZ",85043,33.4133176610001,-112.193179347,108,"6225 W ILLINI STREET, PHOENIX, AZ, 85043","Match","Exact","6225 W ILLINI ST, PHOENIX, AZ, 85043",128865001,"L"
261109,"6225 W OVERLAND RD","BOISE","ID",83709,43.5899632300001,-116.259403422,109,"6225 W OVERLAND RD, BOISE, ID, 83709","Match","Exact","6225 OVERLAND RD, BOISE, ID, 83709",641557285,"L"
261110,"6226 36TH PLACE  NE","MARYSVILLE","WA",98270,48.0292956050001,-122.147290484,110,"6226 36TH PLACE  NE, MARYSVILLE, WA, 98270","Match","Exact","6226 36TH PL NE, MARYSVILLE, WA, 98270",636772199,"L"
261111,"6226 CROWN","OAKLAND","CA",94611,37.8411189,-122.213015336,111,"6226 CROWN, OAKLAND, CA, 94611","Match","Non_Exact","6226 CROWN AVE, OAKLAND, CA, 94611",125080593,"R"
261112,"6226 JEFFERSON HWY SUITE B","HARAHAN","LA",70123,29.938314415,-90.19086373,112,"6226 JEFFERSON HWY SUITE B, HARAHAN, LA, 70123","Match","Exact","6226 JEFFERSON HWY, HARAHAN, LA, 70123",93534138,"L"
261113,"6226 LEE AVENUE","MURFREESBORO","TN",37129,35.928384226,-86.4962568079999,113,"6226 LEE AVENUE, MURFREESBORO, TN, 37129","Match","Exact","6226 LEE AVE, MURFREESBORO, TN, 37129",59011071,"R"
261114,"6226 MIRAMONTE BLVD","LOS ANGELES","CA",90001,33.983531461,-118.245302424,114,"6226 MIRAMONTE BLVD, LOS ANGELES, CA, 90001","Match","Non_Exact","6226 S MIRAMONTE BLVD, LOS ANGELES, CA, 90001",641280942,"L"
261115,"6226 NW 3RD AVE","MIAMI","FL",33150,25.8327151,-80.202090211,115,"6226 NW 3RD AVE, MIAMI, FL, 33150","Match","Exact","6226 NW 3RD AVE, MIAMI, FL, 33150",116255735,"L"
261116,"6226 NW 84TH TERRACE","PARKLAND","FL",33067,26.307422628,-80.238926697,116,"6226 NW 84TH TERRACE, PARKLAND, FL, 33067","Match","Exact","6226 NW 84TH TER, PARKLAND, FL, 33067",114768336,"R"
261117,"6226 OAK BLUFF WAY","LAKE WORTH","FL",33467,26.584645933,-80.16074021,117,"6226 OAK BLUFF WAY, LAKE WORTH, FL, 33467","Match","Exact","6226 OAK BLUFF WAY, LAKE WORTH, FL, 33467",115510391,"L"
261118,"6226 S COUNTY RD 250 E","PAOLI","IN",47454,NA,NA,118,"6226 S COUNTY RD 250 E, PAOLI, IN, 47454","No_Match",NA,NA,NA,NA
261119,"6226 UNIVERSITY PARK DRIVE STE 3301","RADFORD","VA",24141,NA,NA,119,"6226 UNIVERSITY PARK DRIVE STE 3301, RADFORD, VA, 24141","No_Match",NA,NA,NA,NA
261120,"6227 LANDOVER CIRCLE","MORROW","GA",30260,33.584892547,-84.307908216,120,"6227 LANDOVER CIRCLE, MORROW, GA, 30260","Match","Exact","6227 LANDOVER CIR, MORROW, GA, 30260",23317580,"R"
261121,"6227 MORNING ROSES DR","NORTH LAS VEGAS","NV",89031,36.273494643,-115.191555187,121,"6227 MORNING ROSES DR, NORTH LAS VEGAS, NV, 89031","Match","Exact","6227 MORNING ROSES DR, N LAS VEGAS, NV, 89031",201999088,"L"
261122,"6227 S 117TH ST","SEATTLE","WA",98178,47.498465616,-122.255983978,122,"6227 S 117TH ST, SEATTLE, WA, 98178","Match","Exact","6227 S 117TH ST, SEATTLE, WA, 98178",186629611,"R"
261123,"6227 SW 57 ST","SOUTH MIAMI","FL",33143,25.7177565690001,-80.2946518639999,123,"6227 SW 57 ST, SOUTH MIAMI, FL, 33143","Match","Exact","6227 SW 57TH ST, SOUTH MIAMI, FL, 33143",115978668,"R"
261124,"6227 TUPELO TRAIL","BRADENTON","FL",34202,27.429736238,-82.414657085,124,"6227 TUPELO TRAIL, BRADENTON, FL, 34202","Match","Exact","6227 TUPELO TRL, BRADENTON, FL, 34202",16262480,"L"
261125,"6228 18TH RD N","ARLINGTON","VA",22205,38.8860660550001,-77.149426976,125,"6228 18TH RD N, ARLINGTON, VA, 22205","Match","Exact","6228 18TH RD N, ARLINGTON, VA, 22205",76467281,"L"
261126,"6228 BROOKLINE COURT","EAST LANSING","MI",48823,42.7607597900001,-84.4621606649999,126,"6228 BROOKLINE COURT, EAST LANSING, MI, 48823","Match","Exact","6228 BROOKLINE CT, EAST LANSING, MI, 48823",17504668,"R"
261127,"6228 CAPE COD DRIVE","COLUMBUS","GA",31904,32.5337970890001,-84.983878171,127,"6228 CAPE COD DRIVE, COLUMBUS, GA, 31904","Match","Exact","6228 CAPE COD DR, COLUMBUS, GA, 31904",98936044,"R"
261128,"6228 COMISKEY DR","PASCO","WA",99301,46.2769269070001,-119.171848042,128,"6228 COMISKEY DR, PASCO, WA, 99301","Match","Exact","6228 COMISKEY DR, PASCO, WA, 99301",175256803,"R"
261129,"6228 E129TH STREET","GRANDVIEW","MO",64030,NA,NA,129,"6228 E129TH STREET, GRANDVIEW, MO, 64030","No_Match",NA,NA,NA,NA
261130,"6228 EAGLE PEAK DRIVE","CHARLOTTE","NC",28214,35.2661471540001,-80.946087946,130,"6228 EAGLE PEAK DRIVE, CHARLOTTE, NC, 28214","Match","Exact","6228 EAGLE PEAK DR, CHARLOTTE, NC, 28214",70474840,"R"
261131,"6228 EAGLEBROOK AVE","TAMPA","FL",33625,28.0880741140001,-82.561430678,131,"6228 EAGLEBROOK AVE, TAMPA, FL, 33625","Match","Exact","6228 EAGLEBROOK AVE, TAMPA, FL, 33625",104660405,"L"
261132,"6228 HARRISON AVENUE","HAMMOND","IN",46324,41.6006231550001,-87.516093046,132,"6228 HARRISON AVENUE, HAMMOND, IN, 46324","Match","Exact","6228 HARRISON AVE, HAMMOND, IN, 46324",98416933,"R"
261133,"6228 JOSEPHINE ROAD","NORTON","VA",24273,36.9278215150001,-82.668245084,133,"6228 JOSEPHINE ROAD, NORTON, VA, 24273","Match","Exact","6228 JOSEPHINE RD, NORTON, VA, 24273",83464147,"R"
261134,"6228 LUCENA WAY","MASON","OH",45040,39.3850515080001,-84.341539529,134,"6228 LUCENA WAY, MASON, OH, 45040","Match","Exact","6228 LUCENA WAY, MASON, OH, 45040",641130593,"L"
261135,"6228 N DAKOTA AVE NW STE 109","WASHINGTON","DC",20011,38.965330668,-77.0150174619999,135,"6228 N DAKOTA AVE NW STE 109, WASHINGTON, DC, 20011","Match","Non_Exact","6228 NORTH DAKOTA AVE NW, WASHINGTON, DC, 20011",76222068,"L"
261136,"6228 NORTH DAKOTA AVE NW 202","WASHINGTON","DC",20011,38.965324594,-77.015009124,136,"6228 NORTH DAKOTA AVE NW 202, WASHINGTON, DC, 20011","Match","Exact","6228 NORTH DAKOTA AVE NW, WASHINGTON, DC, 20011",76222068,"L"
261137,"6228 RIDGEMONT DRIVE","OAKLAND","CA",94619,37.7845511460001,-122.167084774,137,"6228 RIDGEMONT DRIVE, OAKLAND, CA, 94619","Match","Exact","6228 RIDGEMONT DR, OAKLAND, CA, 94619",125080733,"R"
261138,"6228 S 233RD ST","KENT","WA",98032,47.393143045,-122.256170976,138,"6228 S 233RD ST, KENT, WA, 98032","Match","Exact","6228 S 233RD ST, KENT, WA, 98032",187088732,"L"
261139,"6228 SW 194 AVENUE","FORT LAUDERDALE","FL",33332,26.040257581,-80.4081316689999,139,"6228 SW 194 AVENUE, FORT LAUDERDALE, FL, 33332","Match","Exact","6228 SW 194TH AVE, FORT LAUDERDALE, FL, 33332",114818739,"L"
261140,"6228 WALSH ST","SAINT LOUIS","MO",63109,38.583746924,-90.2969527,140,"6228 WALSH ST, SAINT LOUIS, MO, 63109","Match","Exact","6228 WALSH ST, SAINT LOUIS, MO, 63109",605145381,"L"
261141,"6228 WASHINGTON PIKE","KNOXVILLE","TN",37918,36.0613122140001,-83.861071554,141,"6228 WASHINGTON PIKE, KNOXVILLE, TN, 37918","Match","Exact","6228 WASHINGTON PIKE, KNOXVILLE, TN, 37918",42608482,"R"
261142,"6228 WHILEAWAY DR","LOVELAND","OH",45140,39.234962556,-84.280107281,142,"6228 WHILEAWAY DR, LOVELAND, OH, 45140","Match","Exact","6228 WHILEAWAY DR, LOVELAND, OH, 45140",118458594,"L"
261143,"6229 CALDWELL DR","NEW ORLEANS","LA",70122,30.0231914880001,-90.0737088509999,143,"6229 CALDWELL DR, NEW ORLEANS, LA, 70122","Match","Exact","6229 CALDWELL DR, NEW ORLEANS, LA, 70122",191703482,"R"
261144,"6229 CALDWELL DRIVE","NEW ORLEANS","LA",70122,30.0231914880001,-90.0737088509999,144,"6229 CALDWELL DRIVE, NEW ORLEANS, LA, 70122","Match","Exact","6229 CALDWELL DR, NEW ORLEANS, LA, 70122",191703482,"R"
261145,"6229 CAMINO ALEGRE","EL PASO","TX",79912,31.8535403160001,-106.530591557,145,"6229 CAMINO ALEGRE, EL PASO, TX, 79912","Match","Non_Exact","6229 CAMINO ALEGRE DR, EL PASO, TX, 79912",189395368,"L"
261146,"6229 CLIMAX RD","CHATHAM","VA",24531,36.916014153,-79.469161243,146,"6229 CLIMAX RD, CHATHAM, VA, 24531","Match","Exact","6229 CLIMAX RD, CHATHAM, VA, 24531",56593845,"L"
261147,"6229 CLIMAX ROAD","CHATHAM","VA",24531,36.916014153,-79.469161243,147,"6229 CLIMAX ROAD, CHATHAM, VA, 24531","Match","Exact","6229 CLIMAX RD, CHATHAM, VA, 24531",56593845,"L"
261148,"6229 NORTH WESTERN AVENUE","CHICAGO","IL",60659,41.994676772,-87.689772881,148,"6229 NORTH WESTERN AVENUE, CHICAGO, IL, 60659","Match","Exact","6229 N WESTERN AVE, CHICAGO, IL, 60659",111744900,"R"
261149,"6229 RIPTIDE DR","WILMINGTON","NC",28403,34.2173058320001,-77.834698223,149,"6229 RIPTIDE DR, WILMINGTON, NC, 28403","Match","Exact","6229 RIPTIDE DR, WILMINGTON, NC, 28403",152738170,"R"
261150,"6229 WADSWORTH DRIVE","NEW ORLEANS","LA",70122,30.0223177780001,-90.066808551,150,"6229 WADSWORTH DRIVE, NEW ORLEANS, LA, 70122","Match","Exact","6229 WADSWORTH DR, NEW ORLEANS, LA, 70122",191703742,"R"
261151,"62290 STARR LN","LA GRANDE","OR",97850,45.4010335030001,-118.077913764,151,"62290 STARR LN, LA GRANDE, OR, 97850","Match","Exact","62290 STARR LN, LA GRANDE, OR, 97850",605953582,"L"
261152,"623 12TH PLAZA","PLEASANT GROVE","AL",35127,33.493146046,-86.9951605909999,152,"623 12TH PLAZA, PLEASANT GROVE, AL, 35127","Match","Exact","623 12TH PLZ, PLEASANT GROVE, AL, 35127",81544701,"R"
261153,"623 146TH AVE","CALEDONIA","MI",49316,42.7537621340001,-85.608939914,153,"623 146TH AVE, CALEDONIA, MI, 49316","Match","Exact","623 146TH AVE, CALEDONIA, MI, 49316",11447808,"L"
261154,"623 AKOAKOA STREET","KAILUA","HI",96734,21.387019627,-157.737261957,154,"623 AKOAKOA STREET, KAILUA, HI, 96734","Match","Exact","623 AKOAKOA ST, KAILUA, HI, 96734",203240155,"L"
261155,"623 ANALU STREET APT A","HONOLULU","HI",96817,21.331223763,-157.850186817,155,"623 ANALU STREET APT A, HONOLULU, HI, 96817","Match","Exact","623 ANALU ST, HONOLULU, HI, 96817",203334814,"L"
261156,"623 ANTIETAM DRIVE","STONE MOUNTAIN","GA",30087,33.7770372030001,-84.154597339,156,"623 ANTIETAM DRIVE, STONE MOUNTAIN, GA, 30087","Match","Exact","623 ANTIETAM DR, STONE MOUNTAIN, GA, 30087",23394755,"L"
261157,"623 ATHENS STREET","ALTADENA","CA",60620,34.197236773,-118.132567481,157,"623 ATHENS STREET, ALTADENA, CA, 60620","Match","Non_Exact","623 ATHENS ST, ALTADENA, CA, 91001",141628122,"L"
261158,"623 ATHENS STREET","ALTADENA","CA",91001,34.197236773,-118.132567481,158,"623 ATHENS STREET, ALTADENA, CA, 91001","Match","Exact","623 ATHENS ST, ALTADENA, CA, 91001",141628122,"L"
261159,"623 BEAR CLAW WAY","MIDDLETON","WI",53562,43.0734291850001,-89.549117924,159,"623 BEAR CLAW WAY, MIDDLETON, WI, 53562","Match","Exact","623 BEAR CLAW WAY, MIDDLETON, WI, 53562",649023698,"L"
261160,"623 BROADWAY ST","BARABOO","WI",53913,43.4711588810001,-89.744243389,160,"623 BROADWAY ST, BARABOO, WI, 53913","Match","Exact","623 BROADWAY ST, BARABOO, WI, 53913",86534366,"L"
261161,"623 BUCKLEY ROAD","ST. LOUIS","MO",63125,38.504667053,-90.309600674,161,"623 BUCKLEY ROAD, ST. LOUIS, MO, 63125","Match","Exact","623 BUCKLEY RD, SAINT LOUIS, MO, 63125",100169251,"R"
261162,"623 CALLE FRANCISCO CASALDUC","SAN JUAN","PR",924,18.4062218830001,-66.026653691,162,"623 CALLE FRANCISCO CASALDUC, SAN JUAN, PR, 924","Match","Non_Exact","623 CLL FRANCISCO CASALDUC, SAN JUAN, PR, 00924",206610901,"R"
261163,"623 CAROLINA AVENUE","RALEIGH","NC",27606,35.784032435,-78.7169953599999,163,"623 CAROLINA AVENUE, RALEIGH, NC, 27606","Match","Exact","623 CAROLINA AVE, RALEIGH, NC, 27606",72500862,"L"
261164,"623 DEMYAN DRIVE","ANNAPOLIS","MD",21403,38.929049822,-76.502188197,164,"623 DEMYAN DRIVE, ANNAPOLIS, MD, 21403","Match","Exact","623 DEMYAN DR, ANNAPOLIS, MD, 21403",68173801,"L"
261165,"623 DRIFTWOOD DR","LOWELL","IN",46356,41.280277622,-87.410166804,165,"623 DRIFTWOOD DR, LOWELL, IN, 46356","Match","Exact","623 DRIFTWOOD DR, LOWELL, IN, 46356",98412949,"L"
261166,"623 E 9TH ST","PANAMA CITY","FL",32401,30.1642504230001,-85.6512321979999,166,"623 E 9TH ST, PANAMA CITY, FL, 32401","Match","Exact","623 E 9TH ST, PANAMA CITY, FL, 32401",7068135,"L"
261167,"623 E SAN JOSE AVE","BURBANK","CA",91501,34.188817,-118.307297795,167,"623 E SAN JOSE AVE, BURBANK, CA, 91501","Match","Exact","623 E SAN JOSE AVE, BURBANK, CA, 91501",141595309,"L"
261168,"623 EAGLE AVENUE STE 154","WEST ORANGE","NJ",7052,NA,NA,168,"623 EAGLE AVENUE STE 154, WEST ORANGE, NJ, 7052","No_Match",NA,NA,NA,NA
261169,"623 EAGLE ROCK AVE    244","WEST ORANGE","NJ",7052,40.809772982,-74.2577634369999,169,"623 EAGLE ROCK AVE    244, WEST ORANGE, NJ, 7052","Match","Exact","623 EAGLE ROCK AVE, WEST ORANGE, NJ, 07052",63459994,"R"
261170,"623 EAGLE ROCK AVENUE SUITE 244","WEST ORANGE","NJ",7052,40.809772982,-74.2577634369999,170,"623 EAGLE ROCK AVENUE SUITE 244, WEST ORANGE, NJ, 7052","Match","Exact","623 EAGLE ROCK AVE, WEST ORANGE, NJ, 07052",63459994,"R"
261171,"623 EAGLE ROCK AVENUE SUITE 369","WEST ORANGE","NJ",7052,40.809772982,-74.2577634369999,171,"623 EAGLE ROCK AVENUE SUITE 369, WEST ORANGE, NJ, 7052","Match","Exact","623 EAGLE ROCK AVE, WEST ORANGE, NJ, 07052",63459994,"R"
261172,"623 EAST 10TH STREET","ERIE","PA",16503,42.1305951040001,-80.0688509669999,172,"623 EAST 10TH STREET, ERIE, PA, 16503","Match","Exact","623 E 10TH ST, ERIE, PA, 16503",117497201,"R"
261173,"623 EAST 2100 SOUTH SUITE B1","SALT LAKE CITY","UT",84106,NA,NA,173,"623 EAST 2100 SOUTH SUITE B1, SALT LAKE CITY, UT, 84106","No_Match",NA,NA,NA,NA
261174,"623 EAST COURT STREET SUITE A","JACKSON","MS",39201,32.294889885,-90.180277867,174,"623 EAST COURT STREET SUITE A, JACKSON, MS, 39201","Match","Non_Exact","623 COURT ST, JACKSON, MS, 39201",65372672,"R"
261175,"623 EAST DALE STREET","COLORADO SPRINGS","CO",80903,38.8448399810001,-104.81396376,175,"623 EAST DALE STREET, COLORADO SPRINGS, CO, 80903","Match","Exact","623 E DALE ST, COLORADO SPRINGS, CO, 80903",105514393,"R"
261176,"623 EAST DEWART STREET","SHAMOKIN","PA",17872,40.7938121180001,-76.549969389,176,"623 EAST DEWART STREET, SHAMOKIN, PA, 17872","Match","Exact","623 E DEWART ST, SHAMOKIN, PA, 17872",48060267,"R"
261177,"623 EAST MAIN STREET SUITE 3","HENDERSONVILLE","TN",37075,36.323711851,-86.568989308,177,"623 EAST MAIN STREET SUITE 3, HENDERSONVILLE, TN, 37075","Match","Exact","623 E MAIN ST, HENDERSONVILLE, TN, 37075",635425070,"R"
261178,"623 EAST VIRGINIA BEACH BOULEVARD","NORFOLK","VA",23510,36.856585136,-76.279815582,178,"623 EAST VIRGINIA BEACH BOULEVARD, NORFOLK, VA, 23510","Match","Exact","623 E VIRGINIA BEACH BLVD, NORFOLK, VA, 23510",122152298,"R"
261179,"623 FARLER DRIVE","COLUMBUS","OH",43213,39.9678302,-82.829751003,179,"623 FARLER DRIVE, COLUMBUS, OH, 43213","Match","Exact","623 FARLER DR, COLUMBUS, OH, 43213",135752654,"R"
261180,"623 GEELE AVE","SHEBOYGAN","WI",53083,43.768354657,-87.7099835829999,180,"623 GEELE AVE, SHEBOYGAN, WI, 53083","Match","Exact","623 GEELE AVE, SHEBOYGAN, WI, 53083",79496950,"L"
261181,"623 GENOA RD","TEXARKANA","AR",71854,33.4151223870001,-94.013654827,181,"623 GENOA RD, TEXARKANA, AR, 71854","Match","Exact","623 GENOA RD, TEXARKANA, AR, 71854",57277002,"R"
261182,"623 GRAND AVE/ PO BOX 812","LEAKESVILLE","MS",39451,NA,NA,182,"623 GRAND AVE/ PO BOX 812, LEAKESVILLE, MS, 39451","No_Match",NA,NA,NA,NA
261183,"623 HAMPTON STREET","AUBURNDALE","FL",33823,28.0700846610001,-81.786648223,183,"623 HAMPTON STREET, AUBURNDALE, FL, 33823","Match","Exact","623 HAMPTON ST, AUBURNDALE, FL, 33823",619846652,"R"
261184,"623 HANSON ROAD","KEMAH","TX",77565,29.537929784,-95.021548674,184,"623 HANSON ROAD, KEMAH, TX, 77565","Match","Exact","623 HANSON RD, KEMAH, TX, 77565",651474372,"R"
261185,"623 HYDE PARK ROAD","ESSEX","MD",21221,39.288558675,-76.4433768439999,185,"623 HYDE PARK ROAD, ESSEX, MD, 21221","Match","Exact","623 HYDE PARK RD, ESSEX, MD, 21221",191490200,"R"
261186,"623 JACKSON STREET","SAINT LOUIS","MO",63147,38.725322734,-90.2259840139999,186,"623 JACKSON STREET, SAINT LOUIS, MO, 63147","Match","Exact","623 JACKSON ST, SAINT LOUIS, MO, 63147",605090109,"R"
261187,"623 KAHANA RIVER RD","FORT MILL","SC",29715,34.967601953,-80.9462679659999,187,"623 KAHANA RIVER RD, FORT MILL, SC, 29715","Match","Exact","623 KAHANA RIVER RD, FORT MILL, SC, 29715",652112558,"L"
261188,"623 KALAMAZOO AVENUE","PETOSKEY","MI",49770,45.3716072290001,-84.9452965409999,188,"623 KALAMAZOO AVENUE, PETOSKEY, MI, 49770","Match","Exact","623 KALAMAZOO AVE, PETOSKEY, MI, 49770",133984722,"R"
261189,"623 LELAND AVE","SOUTH BEND","IN",46616,41.6834051180001,-86.258361583,189,"623 LELAND AVE, SOUTH BEND, IN, 46616","Match","Exact","623 LELAND AVE, SOUTH BEND, IN, 46616",8054113,"L"
261190,"623 MACADAMIA AVE","MADERA","CA",93637,36.9397533120001,-120.050894211,190,"623 MACADAMIA AVE, MADERA, CA, 93637","Match","Exact","623 MACADAMIA AVE, MADERA, CA, 93637",102372591,"R"
261191,"623 MACDADE BLVD SUITE 201","COLLINGDALE","PA",19023,39.9125975950001,-75.275520061,191,"623 MACDADE BLVD SUITE 201, COLLINGDALE, PA, 19023","Match","Exact","623 MACDADE BLVD, COLLINGDALE, PA, 19023",134884784,"R"
261192,"623 MAIN ST","HARWICH","MA",2645,41.686294984,-70.083404359,192,"623 MAIN ST, HARWICH, MA, 2645","Match","Exact","623 MAIN ST, HARWICH, MA, 02645",121568773,"L"
261193,"623 MAIN STREET","WARTBURG","TN",37887,36.1045832390001,-84.5959734859999,193,"623 MAIN STREET, WARTBURG, TN, 37887","Match","Exact","623 MAIN ST, WARTBURG, TN, 37887",26300173,"R"
261194,"623 MEADOW RD","HAMPDEN","ME",4444,44.7123103770001,-68.944105,194,"623 MEADOW RD, HAMPDEN, ME, 4444","Match","Exact","623 MEADOW RD, HAMPDEN, ME, 04444",649580924,"R"
261195,"623 MELLON STREET SE","WASHINGTON","DC",20032,38.8461685510001,-76.998197268,195,"623 MELLON STREET SE, WASHINGTON, DC, 20032","Match","Exact","623 MELLON ST SE, WASHINGTON, DC, 20032",76232258,"R"
261196,"623 MICHIGAN AVENUE","SOUTH MILWAUKEE","WI",53172,42.908701255,-87.853598319,196,"623 MICHIGAN AVENUE, SOUTH MILWAUKEE, WI, 53172","Match","Exact","623 MICHIGAN AVE, S MILWAUKEE, WI, 53172",77756698,"L"
261197,"623 MIDDLE ROAD","ELKTON","MD",21921,39.693886127,-75.9065726919999,197,"623 MIDDLE ROAD, ELKTON, MD, 21921","Match","Exact","623 MIDDLE RD, ELKTON, MD, 21921",187419667,"L"
261198,"623 MONTROSE DRIVE","SHREVEPORT","LA",71106,32.449191307,-93.7422547099999,198,"623 MONTROSE DRIVE, SHREVEPORT, LA, 71106","Match","Exact","623 MONTROSE DR, SHREVEPORT, LA, 71106",57441036,"L"
261199,"623 MUNICIPAL DRIVE","NAZARETH","PA",18064,NA,NA,199,"623 MUNICIPAL DRIVE, NAZARETH, PA, 18064","No_Match",NA,NA,NA,NA
261200,"623 N MONTEREY STREET STE 17","ALHAMBRA","CA",91801,34.1021291220001,-118.128421578,200,"623 N MONTEREY STREET STE 17, ALHAMBRA, CA, 91801","Match","Non_Exact","623 N MONTEREY ST, ALHAMBRA, CA, 91801",141631461,"L"
261201,"623 N RITTER AVE","NIXA","MO",65714,37.0524590690001,-93.272332389,201,"623 N RITTER AVE, NIXA, MO, 65714","Match","Exact","623 RITTER AVE, NIXA, MO, 65714",99836859,"L"
261202,"623 NORTH 34TH STREET","LOUISVILLE","KY",40212,38.272315393,-85.80283064,202,"623 NORTH 34TH STREET, LOUISVILLE, KY, 40212","Match","Exact","623 N 34TH ST, LOUISVILLE, KY, 40212",640116473,"R"
261203,"623 NORTHSIDE AVENUE","RICHMOND","VA",23222,37.57409016,-77.424051584,203,"623 NORTHSIDE AVENUE, RICHMOND, VA, 23222","Match","Exact","623 NORTHSIDE AVE, RICHMOND, VA, 23222",201539960,"R"
261204,"623 NW 5 STREET","BOYNTON BEACH","FL",33435,26.532968973,-80.0709068319999,204,"623 NW 5 STREET, BOYNTON BEACH, FL, 33435","Match","Exact","623 NW 5TH ST, BOYNTON BEACH, FL, 33435",115295780,"L"
261205,"623 OAKWOOD PLACE","TITUSVILLE","FL",32780,28.5412574150001,-80.807486989,205,"623 OAKWOOD PLACE, TITUSVILLE, FL, 32780","Match","Exact","623 OAKWOOD PL, TITUSVILLE, FL, 32780",93892457,"L"
261206,"623 OLMSTED RD","STANFORD","CA",94305,37.427970418,-122.150656374,206,"623 OLMSTED RD, STANFORD, CA, 94305","Match","Exact","623 OLMSTED RD, STANFORD, CA, 94305",642189081,"L"
261207,"623 PINEY GLEN DR","COLUMBUS","OH",43230,40.0527514950001,-82.8566073489999,207,"623 PINEY GLEN DR, COLUMBUS, OH, 43230","Match","Exact","623 PINEY GLEN DR, COLUMBUS, OH, 43230",218670471,"L"
261208,"623 PROSPECT ST","RAVENNA","OH",44266,41.1507547410001,-81.241917426,208,"623 PROSPECT ST, RAVENNA, OH, 44266","Match","Non_Exact","623 S PROSPECT ST, RAVENNA, OH, 44266",208683916,"L"
261209,"623 RAILROAD STREET","ALBANY","TX",76430,32.7274098410001,-99.299223733,209,"623 RAILROAD STREET, ALBANY, TX, 76430","Match","Exact","623 RAILROAD ST, ALBANY, TX, 76430",185616339,"L"
261210,"623 REAGAN HOLLOW ROAD","PIGEON FORGE","TN",37863,35.7759543550001,-83.560766432,210,"623 REAGAN HOLLOW ROAD, PIGEON FORGE, TN, 37863","Match","Exact","623 REAGAN HOLLOW RD, PIGEON FORGE, TN, 37863",107526536,"R"
261211,"623 S 850 W","SPRINGVILLE","UT",84663,40.1585667000001,-111.626767923,211,"623 S 850 W, SPRINGVILLE, UT, 84663","Match","Exact","623 S 850 W, SPRINGVILLE, UT, 84663",633412615,"L"
261212,"623 S EUCLID AVENUE","OAK PARK","IL",60304,41.8774581480001,-87.792950407,212,"623 S EUCLID AVENUE, OAK PARK, IL, 60304","Match","Exact","623 S EUCLID AVE, OAK PARK, IL, 60304",111754734,"R"
261213,"623 S ST NW","WASHINGTON","DC",20001,38.914096597,-77.0206638719999,213,"623 S ST NW, WASHINGTON, DC, 20001","Match","Exact","623 S ST NW, WASHINGTON, DC, 20001",76224420,"R"
261214,"623 SE 69TH AVENUE","PORTLAND","OR",97215,45.5184713740001,-122.592224206,214,"623 SE 69TH AVENUE, PORTLAND, OR, 97215","Match","Exact","623 SE 69TH AVE, PORTLAND, OR, 97215",157513671,"R"
261215,"623 SEDGEWICK DR","MAGNOLIA","DE",19962,39.1072614390001,-75.494302959,215,"623 SEDGEWICK DR, MAGNOLIA, DE, 19962","Match","Exact","623 SEDGEWICK DR, MAGNOLIA, DE, 19962",617130881,"L"
261216,"623 SHARPE DR","VERMILLION","SD",57069,42.773496031,-96.912819543,216,"623 SHARPE DR, VERMILLION, SD, 57069","Match","Exact","623 SHARPE DR, VERMILLION, SD, 57069",172949868,"L"
261217,"623 SOUTH OPAL STREET","BOISE","ID",83705,43.5983361090001,-116.214745811,217,"623 SOUTH OPAL STREET, BOISE, ID, 83705","Match","Non_Exact","623 OPAL ST, BOISE, ID, 83705",117864555,"R"
261218,"623 SPRING RIDGE DR","KENNESAW","GA",30144,34.0351954120001,-84.6655417429999,218,"623 SPRING RIDGE DR, KENNESAW, GA, 30144","Match","Exact","623 SPRING RIDGE DR, KENNESAW, GA, 30144",17207977,"L"
261219,"623 STATE ROUTE 2011","DILLINER","PA",15327,39.751600802,-79.96058479,219,"623 STATE ROUTE 2011, DILLINER, PA, 15327","Match","Exact","623 STATE RTE 2011, DILLINER, PA, 15327",649916702,"L"
261220,"623 SUMMIT AVENUE APT 117","OCONOMOWOC","WI",53066,43.1048083920001,-88.490461452,220,"623 SUMMIT AVENUE APT 117, OCONOMOWOC, WI, 53066","Match","Exact","623 SUMMIT AVE, OCONOMOWOC, WI, 53066",53805589,"R"
261221,"623 US HWY 27 DMB 16","SEBRING","FL",33870,27.4799542210001,-81.477077878,221,"623 US HWY 27 DMB 16, SEBRING, FL, 33870","Match","Non_Exact","623 US HWY 27, SEBRING, FL, 33870",647633270,"L"
261222,"623 VALLEY RIDGE DRIVE","ROSENBERG","TX",77469,29.5333114850001,-95.736527667,222,"623 VALLEY RIDGE DRIVE, ROSENBERG, TX, 77469","Match","Exact","623 VALLEY RIDGE DR, ROSENBERG, TX, 77469",637975430,"L"
261223,"623 W 11TH ST","WINAMAC","IN",46996,41.055236199,-86.6111713559999,223,"623 W 11TH ST, WINAMAC, IN, 46996","Match","Exact","623 W 11TH ST, WINAMAC, IN, 46996",15486444,"R"
261224,"623 W 148TH AVE UNIT A-204","BROOMFIELD","CO",80023,39.964717965,-104.994078109,224,"623 W 148TH AVE UNIT A-204, BROOMFIELD, CO, 80023","Match","Non_Exact","623 W 148TH AVE, BROOMFIELD, CO, 80023",649056884,"L"
261225,"623 W 60TH STREET","LOS ANGELES","CA",90044,33.985093674,-118.28452239,225,"623 W 60TH STREET, LOS ANGELES, CA, 90044","Match","Exact","623 W 60TH ST, LOS ANGELES, CA, 90044",141659304,"R"
261226,"623 W DOUGLAS AVE","WICHITA","KS",67213,37.683997192,-97.347239395,226,"623 W DOUGLAS AVE, WICHITA, KS, 67213","Match","Exact","623 W DOUGLAS AVE, WICHITA, KS, 67213",115634946,"L"
261227,"623 W ELM ST","JUNCTION CITY","KS",66441,39.017804144,-96.839575256,227,"623 W ELM ST, JUNCTION CITY, KS, 66441","Match","Exact","623 W ELM ST, JUNCTION CITY, KS, 66441",28387271,"R"
261228,"623 W LINDNER AVE","MESA","AZ",85210,33.3761788400001,-111.847326008,228,"623 W LINDNER AVE, MESA, AZ, 85210","Match","Exact","623 W LINDNER AVE, MESA, AZ, 85210",642857108,"R"
261229,"623 W NAVARRO AVE","MESA","AZ",85210,33.3667060060001,-111.84610812,229,"623 W NAVARRO AVE, MESA, AZ, 85210","Match","Exact","623 W NAVARRO AVE, MESA, AZ, 85210",128380637,"R"
261230,"623 W PENN ST","CARLISLE","PA",17013,40.206745073,-77.2048194239999,230,"623 W PENN ST, CARLISLE, PA, 17013","Match","Exact","623 W PENN ST, CARLISLE, PA, 17013",60983457,"R"
261231,"623 W SADIE ST APT 220","BRANDON","FL",33510,27.942416757,-82.293008785,231,"623 W SADIE ST APT 220, BRANDON, FL, 33510","Match","Non_Exact","623 W SADIE ST, BRANDON, FL, 33510",640440410,"L"
261232,"623 W SPRING ST","TITUSVILLE","PA",16354,41.6285810250001,-79.683912998,232,"623 W SPRING ST, TITUSVILLE, PA, 16354","Match","Exact","623 SPRING ST, TITUSVILLE, PA, 16354",98562968,"L"
261233,"623 WARWICK DRIVE","MONTGOMERY","AL",36116,32.321374603,-86.297170022,233,"623 WARWICK DRIVE, MONTGOMERY, AL, 36116","Match","Exact","623 WARWICK DR, MONTGOMERY, AL, 36116",1487786,"R"
261234,"623 WASHINGTON ST","GARY","IN",46402,41.5997164440001,-87.338401502,234,"623 WASHINGTON ST, GARY, IN, 46402","Match","Exact","623 WASHINGTON ST, GARY, IN, 46402",98426442,"L"
261235,"623 WATER STREET","BATESVILLE","AR",72501,35.773819802,-91.649639341,235,"623 WATER STREET, BATESVILLE, AR, 72501","Match","Exact","623 WATER ST, BATESVILLE, AR, 72501",41641293,"L"
261236,"623 WEST PENN STREET","CARLISLE","PA",17013,40.2067449150001,-77.204817529,236,"623 WEST PENN STREET, CARLISLE, PA, 17013","Match","Exact","623 W PENN ST, CARLISLE, PA, 17013",60983457,"R"
261237,"623 WILORA LANDING ROAD","CHARLOTTE","NC",28212,35.2151629470001,-80.7487269499999,237,"623 WILORA LANDING ROAD, CHARLOTTE, NC, 28212","Match","Exact","623 WILORA LANDING RD, CHARLOTTE, NC, 28212",70558072,"L"
261238,"623","NANUET","NY",10954,NA,NA,238,"623, NANUET, NY, 10954","No_Match",NA,NA,NA,NA
261239,"6230 5TH AVE APT A3E","PITTSBURGH","PA",15232,40.452680726,-79.922079676,239,"6230 5TH AVE APT A3E, PITTSBURGH, PA, 15232","Match","Exact","6230 5TH AVE, PITTSBURGH, PA, 15232",51646709,"R"
261240,"6230 5TH AVE","MARRERO","LA",70072,29.890601529,-90.1125245219999,240,"6230 5TH AVE, MARRERO, LA, 70072","Match","Exact","6230 5TH AVE, MARRERO, LA, 70072",93505822,"R"
261241,"6230 CANOBIE AVE","WHITTIER","CA",90601,33.9855778360001,-118.052418361,241,"6230 CANOBIE AVE, WHITTIER, CA, 90601","Match","Exact","6230 CANOBIE AVE, WHITTIER, CA, 90601",141747130,"L"
261242,"6230 CARDINAL ST","VENTURA","CA",93003,34.2608079090001,-119.207586388,242,"6230 CARDINAL ST, VENTURA, CA, 93003","Match","Exact","6230 CARDINAL ST, VENTURA, CA, 93003",109953889,"R"
261243,"6230 EAGLE RIDGE CT","FORT COLLINS","CO",80525,40.500148009,-105.05068386,243,"6230 EAGLE RIDGE CT, FORT COLLINS, CO, 80525","Match","Exact","6230 EAGLE RIDGE CT, FORT COLLINS, CO, 80525",188519243,"L"
261244,"6230 EDSALL RD UNIT 304","ALEXANDRIA","VA",22312,38.8054652540001,-77.142981283,244,"6230 EDSALL RD UNIT 304, ALEXANDRIA, VA, 22312","Match","Exact","6230 EDSALL RD, ALEXANDRIA, VA, 22312",649766780,"R"
261245,"6230 GAUNTLET HALL LANE","DAVIE","FL",33331,26.0416236660001,-80.3538849569999,245,"6230 GAUNTLET HALL LANE, DAVIE, FL, 33331","Match","Exact","6230 GAUNTLET HALL LN, DAVIE, FL, 33331",114776408,"L"
261246,"6230 HAVEN AVE APT 30","RANCHO CUCAMONGA","CA",91737,34.140783894,-117.575845169,246,"6230 HAVEN AVE APT 30, RANCHO CUCAMONGA, CA, 91737","Match","Exact","6230 HAVEN AVE, RANCHO CUCAMONGA, CA, 91737",144635932,"R"
261247,"6230 HWY 6","HITCHCOCK","TX",77563,29.341537514,-94.9934767239999,247,"6230 HWY 6, HITCHCOCK, TX, 77563","Match","Non_Exact","6230 STATE HWY 6, HITCHCOCK, TX, 77563",96675607,"L"
261248,"6230 LAFFERRE LN","HILLIARD","OH",43026,40.0493490740001,-83.184698098,248,"6230 LAFFERRE LN, HILLIARD, OH, 43026","Match","Exact","6230 LAFFERRE LN, HILLIARD, OH, 43026",218702163,"R"
261249,"6230 LEAN AVE","SAN JOSE","CA",95123,37.232400705,-121.818115406,249,"6230 LEAN AVE, SAN JOSE, CA, 95123","Match","Exact","6230 LEAN AVE, SAN JOSE, CA, 95123",122925583,"L"
261250,"6230 ORCHARD LAKE RD","WEST BLOOMFIELD","MI",48322,42.5476933620001,-83.360949061,250,"6230 ORCHARD LAKE RD, WEST BLOOMFIELD, MI, 48322","Match","Exact","6230 ORCHARD LAKE RD, W BLOOMFIELD, MI, 48322",69722252,"R"
261251,"6230 QUEENSDALE DRIVE","DOUGLASVILLE","GA",30135,33.671790436,-84.780642261,251,"6230 QUEENSDALE DRIVE, DOUGLASVILLE, GA, 30135","Match","Exact","6230 QUEENSDALE DR, DOUGLASVILLE, GA, 30135",619841760,"L"
261252,"6230 S 233RD STREET 24-3","KENT","WA",98032,47.393143045,-122.256156132,252,"6230 S 233RD STREET 24-3, KENT, WA, 98032","Match","Non_Exact","6230 S 233RD ST, KENT, WA, 98032",187088732,"L"
261253,"6230 S COTTAGE GROVE UNIT 208","CHICAGO","IL",60637,NA,NA,253,"6230 S COTTAGE GROVE UNIT 208, CHICAGO, IL, 60637","No_Match",NA,NA,NA,NA
261254,"6230 S JUSTINE ST","CHICAGO","IL",60636,41.7808437360001,-87.663041961,254,"6230 S JUSTINE ST, CHICAGO, IL, 60636","Match","Exact","6230 S JUSTINE ST, CHICAGO, IL, 60636",605485144,"R"
261255,"6230 SW ZABACO TERRACE","BEAVERTON","OR",97078,45.474877952,-122.891287996,255,"6230 SW ZABACO TERRACE, BEAVERTON, OR, 97078","Match","Exact","6230 SW ZABACO TER, BEAVERTON, OR, 97078",633693032,"L"
261256,"6230 TANGLEWOOD DRIVE","JACKSON","MS",39213,32.3936928690001,-90.209190056,256,"6230 TANGLEWOOD DRIVE, JACKSON, MS, 39213","Match","Exact","6230 TANGLEWOOD DR, JACKSON, MS, 39213",653252130,"L"
261257,"6230 WILSHIRE BLVD  STE 1233","LOS ANGELES","CA",90048,34.0632588170001,-118.3639868,257,"6230 WILSHIRE BLVD  STE 1233, LOS ANGELES, CA, 90048","Match","Exact","6230 WILSHIRE BLVD, LOS ANGELES, CA, 90048",141598822,"L"
261258,"6230 WILSHIRE BLVD 171","LOS ANGELES","CA",90048,34.0632588170001,-118.3639868,258,"6230 WILSHIRE BLVD 171, LOS ANGELES, CA, 90048","Match","Exact","6230 WILSHIRE BLVD, LOS ANGELES, CA, 90048",141598822,"L"
261259,"6230 WILSHIRE BLVD 199","LOS ANGELES","CA",90048,34.0632588170001,-118.3639868,259,"6230 WILSHIRE BLVD 199, LOS ANGELES, CA, 90048","Match","Exact","6230 WILSHIRE BLVD, LOS ANGELES, CA, 90048",141598822,"L"
261260,"6230 WILSHIRE BLVD STE 48","LOS ANGELES","CA",90048,34.0632588170001,-118.3639868,260,"6230 WILSHIRE BLVD STE 48, LOS ANGELES, CA, 90048","Match","Exact","6230 WILSHIRE BLVD, LOS ANGELES, CA, 90048",141598822,"L"
261261,"6230 WILSHIRE BLVD SUITE 1171","LOS ANGELES","CA",90048,34.0632588170001,-118.3639868,261,"6230 WILSHIRE BLVD SUITE 1171, LOS ANGELES, CA, 90048","Match","Exact","6230 WILSHIRE BLVD, LOS ANGELES, CA, 90048",141598822,"L"
261262,"6231 ARLINGTON LANE","OLIVE BRANCH","MS",38654,34.9906461190001,-89.879726924,262,"6231 ARLINGTON LANE, OLIVE BRANCH, MS, 38654","Match","Exact","6231 ARLINGTON LN, OLIVE BRANCH, MS, 38654",614093889,"R"
261263,"6231 CANTIGNY LAKE DRIVE","KATY","TX",77493,NA,NA,263,"6231 CANTIGNY LAKE DRIVE, KATY, TX, 77493","No_Match",NA,NA,NA,NA
261264,"6231 FOURMILE CANYON DR","BOULDER","CO",80302,40.0403737020001,-105.387657023,264,"6231 FOURMILE CANYON DR, BOULDER, CO, 80302","Match","Exact","6231 FOURMILE CANYON DR, BOULDER, CO, 80302",640616855,"L"
261265,"6231 GRAND VISTA AVE","CINCINNATI","OH",45213,39.185478113,-84.423723407,265,"6231 GRAND VISTA AVE, CINCINNATI, OH, 45213","Match","Exact","6231 GRAND VISTA AVE, CINCINNATI, OH, 45213",103931713,"L"
261266,"6231 HETZLER","CULVER CITY","CA",90232,34.0188867420001,-118.384729595,266,"6231 HETZLER, CULVER CITY, CA, 90232","Match","Non_Exact","6231 HETZLER RD, CULVER CITY, CA, 90232",141817275,"R"
261267,"6231 NW ST","PENSACOLA","FL",32505,NA,NA,267,"6231 NW ST, PENSACOLA, FL, 32505","No_Match",NA,NA,NA,NA
261268,"6231 RESIDENCIA","NEWPORT BEACH","CA",92660,NA,NA,268,"6231 RESIDENCIA, NEWPORT BEACH, CA, 92660","No_Match",NA,NA,NA,NA
261269,"6231 S GARLAND ST","LITTLETON","CO",80123,39.603052957,-105.101540775,269,"6231 S GARLAND ST, LITTLETON, CO, 80123","Match","Exact","6231 S GARLAND ST, LITTLETON, CO, 80123",177323698,"R"
261270,"6231 SW 32ND STREET","MIRAMAR","FL",33025,25.982173108,-80.211443038,270,"6231 SW 32ND STREET, MIRAMAR, FL, 33025","Match","Non_Exact","6231 SW 32ND ST, MIRAMAR, FL, 33023",114734933,"R"
261271,"6232 CANVASBACK LN","ORLANDO","FL",32810,28.623904087,-81.474736446,271,"6232 CANVASBACK LN, ORLANDO, FL, 32810","Match","Exact","6232 CANVASBACK LN, ORLANDO, FL, 32810",94311373,"L"
261272,"6232 FRENCH CREEK CT","ELLENTON","FL",34222,27.5559096590001,-82.500647719,272,"6232 FRENCH CREEK CT, ELLENTON, FL, 34222","Match","Exact","6232 FRENCH CREEK CT, ELLENTON, FL, 34222",629898359,"L"
261273,"6232 GLENNOX LANE","DALLAS","TX",75214,32.8500970540001,-96.756513485,273,"6232 GLENNOX LANE, DALLAS, TX, 75214","Match","Exact","6232 GLENNOX LN, DALLAS, TX, 75214",102918130,"R"
261274,"6232 HAZEL AVE","PHILADELPHIA","PA",19143,39.95404791,-75.247213715,274,"6232 HAZEL AVE, PHILADELPHIA, PA, 19143","Match","Exact","6232 HAZEL AVE, PHILADELPHIA, PA, 19143",131397626,"L"
261275,"6232 MCPHERSON AVE","ST LOUIS","MO",63130,38.652243808,-90.3011142569999,275,"6232 MCPHERSON AVE, ST LOUIS, MO, 63130","Match","Exact","6232 MCPHERSON AVE, SAINT LOUIS, MO, 63130",107593264,"L"
261276,"6232 S JACKSON GAP COURT","AURORA","CO",80016,39.6036390410001,-104.695325854,276,"6232 S JACKSON GAP COURT, AURORA, CO, 80016","Match","Exact","6232 S JACKSON GAP CT, AURORA, CO, 80016",618089334,"R"
261277,"6232 SETON HOUSE LANE","CHARLOTTE","NC",28277,35.073370121,-80.805747433,277,"6232 SETON HOUSE LANE, CHARLOTTE, NC, 28277","Match","Exact","6232 SETON HOUSE LN, CHARLOTTE, NC, 28277",70538836,"R"
261278,"6232 SHOREHAM DR","EVANSVILLE","IN",47711,38.034295039,-87.498891042,278,"6232 SHOREHAM DR, EVANSVILLE, IN, 47711","Match","Exact","6232 SHOREHAM DR, EVANSVILLE, IN, 47711",39796798,"R"
261279,"6232 WEST 135 NORTH  APT 42","HURRICANE","UT",84737,37.163621097,-113.433647942,279,"6232 WEST 135 NORTH  APT 42, HURRICANE, UT, 84737","Match","Exact","6232 W 135 N, HURRICANE, UT, 84737",166179732,"L"
261280,"6233 25TH AVE NE","SEATTLE","WA",98115,47.6745996600001,-122.300655109,280,"6233 25TH AVE NE, SEATTLE, WA, 98115","Match","Exact","6233 25TH AVE NE, SEATTLE, WA, 98115",186666206,"L"
261281,"6233 BLOSSOM AVE","SAN JOSE","CA",95123,37.2328104060001,-121.840871975,281,"6233 BLOSSOM AVE, SAN JOSE, CA, 95123","Match","Exact","6233 BLOSSOM AVE, SAN JOSE, CA, 95123",122924303,"R"
261282,"6233 CASCADE FALLS DRIVE","BUFORD","GA",30518,34.15317635,-83.994364886,282,"6233 CASCADE FALLS DRIVE, BUFORD, GA, 30518","Match","Exact","6233 CASCADE FALLS DR, BUFORD, GA, 30518",627660426,"R"
261283,"6233 CLAPHAM LANE","JOHNS CREEK","GA",30097,34.037154657,-84.175864412,283,"6233 CLAPHAM LANE, JOHNS CREEK, GA, 30097","Match","Exact","6233 CLAPHAM LN, JOHNS CREEK, GA, 30097",625205308,"R"
261284,"6233 ESTELLE STREET","SAN DIEGO","CA",92115,32.7587796130001,-117.063661798,284,"6233 ESTELLE STREET, SAN DIEGO, CA, 92115","Match","Exact","6233 ESTELLE ST, SAN DIEGO, CA, 92115",195351089,"R"
261285,"6233 N RIDGE RD W","GENEVA","OH",44041,41.8002758910001,-80.9793216039999,285,"6233 N RIDGE RD W, GENEVA, OH, 44041","Match","Exact","6233 N RIDGE RD W, GENEVA, OH, 44041",117311490,"R"
261286,"6233 PLUM AVE","EASTVALE","CA",92880,33.9745508440001,-117.577363816,286,"6233 PLUM AVE, EASTVALE, CA, 92880","Match","Exact","6233 PLUM AVE, EASTVALE, CA, 92880",638579465,"L"
261287,"6233 REBECCA PL SE","AUBURN","WA",98092,47.251123632,-122.207442077,287,"6233 REBECCA PL SE, AUBURN, WA, 98092","Match","Exact","6233 REBECCA PL SE, AUBURN, WA, 98092",184701483,"L"
261288,"6233 S WINCHESTER","CHICAGO","IL",60636,41.7806841390001,-87.6727172509999,288,"6233 S WINCHESTER, CHICAGO, IL, 60636","Match","Non_Exact","6233 S WINCHESTER AVE, CHICAGO, IL, 60636",605482297,"L"
261289,"6233 U S 223","PALMYRA","MI",49268,41.8598397750001,-83.9381426319999,289,"6233 U S 223, PALMYRA, MI, 49268","Match","Non_Exact","6233 US HWY 223, PALMYRA, MI, 49268",25962861,"L"
261290,"6233 WATERMAN WAY","FREDERICK","CO",80516,40.090729379,-105.005609469,290,"6233 WATERMAN WAY, FREDERICK, CO, 80516","Match","Exact","6233 WATERMAN WAY, FREDERICK, CO, 80516",651571077,"R"
261291,"6234 CULVER DRIVE","MORROW","GA",30260,33.584401902,-84.297728735,291,"6234 CULVER DRIVE, MORROW, GA, 30260","Match","Exact","6234 CULVER DR, MORROW, GA, 30260",624873107,"L"
261292,"6234 GRAND BLVD SUITE 202","NEW PORT RICHEY","FM",34652,NA,NA,292,"6234 GRAND BLVD SUITE 202, NEW PORT RICHEY, FM, 34652","No_Match",NA,NA,NA,NA
261293,"6234 HWY 59 S","TEXARKANA","TX",75501,NA,NA,293,"6234 HWY 59 S, TEXARKANA, TX, 75501","No_Match",NA,NA,NA,NA
261294,"6234 LIGHTNER DR","ORLANDO","FL",32829,28.4730973760001,-81.2722680099999,294,"6234 LIGHTNER DR, ORLANDO, FL, 32829","Match","Exact","6234 LIGHTNER DR, ORLANDO, FL, 32829",94395694,"L"
261295,"6234 O FALLON LAKES DRIVE","O FALLON","MO",63366,38.801711299,-90.748216221,295,"6234 O FALLON LAKES DRIVE, O FALLON, MO, 63366","Match","Non_Exact","6234 OFALLON LAKES DR, O FALLON, MO, 63366",619921779,"R"
261296,"6234 S CONGRESS AVE SUITE F1","LANTANA","FL",33462,26.583929675,-80.0925018999999,296,"6234 S CONGRESS AVE SUITE F1, LANTANA, FL, 33462","Match","Non_Exact","6234 S CONGRESS AVE, LANTANA, FL, 33462",650064638,"L"
261297,"6234 S LOOMIS BLVD","CHICAGO","IL",60636,41.780568407,-87.659392944,297,"6234 S LOOMIS BLVD, CHICAGO, IL, 60636","Match","Exact","6234 S LOOMIS BLVD, CHICAGO, IL, 60636",616793706,"R"
261298,"6234 SOUTH LOOMIS","CHICAGO","IL",60636,41.7805740700001,-87.659393091,298,"6234 SOUTH LOOMIS, CHICAGO, IL, 60636","Match","Non_Exact","6234 S LOOMIS BLVD, CHICAGO, IL, 60636",616793706,"R"
261299,"6235 CHAPS VIEW","FOUNTAIN","CO",80817,38.543674975,-104.714316263,299,"6235 CHAPS VIEW, FOUNTAIN, CO, 80817","Match","Exact","6235 CHAPS VW, FOUNTAIN, CO, 80817",647972560,"L"
261300,"6235 HAMILTON BLVD STE 105","ALLENTOWN","PA",18106,NA,NA,300,"6235 HAMILTON BLVD STE 105, ALLENTOWN, PA, 18106","No_Match",NA,NA,NA,NA
261301,"6235 LEAWOOD DRIVE","HUBER HEIGHTS","OH",45424,39.8591516290001,-84.124303571,301,"6235 LEAWOOD DRIVE, HUBER HEIGHTS, OH, 45424","Match","Exact","6235 LEAWOOD DR, HUBER HEIGHTS, OH, 45424",143629908,"L"
261302,"6235 LYNN RD","SALISBURY","NC",28144,35.7071203740001,-80.598717844,302,"6235 LYNN RD, SALISBURY, NC, 28144","Match","Non_Exact","6235 LYNN RD, SALISBURY, NC, 28147",25281389,"L"
261303,"6235 MCCOMMAS BLVD","DALLAS","TX",75214,32.8292923550001,-96.7585891859999,303,"6235 MCCOMMAS BLVD, DALLAS, TX, 75214","Match","Exact","6235 MCCOMMAS BLVD, DALLAS, TX, 75214",102918570,"L"
261304,"6235 MCHARD 300","HOUSTON","TX",77053,NA,NA,304,"6235 MCHARD 300, HOUSTON, TX, 77053","No_Match",NA,NA,NA,NA
261305,"6235 N ELLENDALE AVE","FRESNO","CA",93722,36.8247643060001,-119.8889451,305,"6235 N ELLENDALE AVE, FRESNO, CA, 93722","Match","Exact","6235 N ELLENDALE AVE, FRESNO, CA, 93722",197615553,"L"
261306,"6235 N RIDGEWAY AVENUE","CHICAGO","IL",60659,41.994390665,-87.7226875919999,306,"6235 N RIDGEWAY AVENUE, CHICAGO, IL, 60659","Match","Exact","6235 N RIDGEWAY AVE, CHICAGO, IL, 60659",111742351,"R"
261307,"6235 PARKWOOD RD","MENTOR","OH",44060,41.70151772,-81.360139567,307,"6235 PARKWOOD RD, MENTOR, OH, 44060","Match","Exact","6235 PARKWOOD RD, MENTOR, OH, 44060",137461795,"L"
261308,"6235 S 2ND AVE","PHOENIX","AZ",85041,33.38974491,-112.075461302,308,"6235 S 2ND AVE, PHOENIX, AZ, 85041","Match","Exact","6235 S 2ND AVE, PHOENIX, AZ, 85041",128215513,"L"
261309,"6235 S MONITOR","CHICAGO","IL",60638,41.7787657650001,-87.7678532319999,309,"6235 S MONITOR, CHICAGO, IL, 60638","Match","Non_Exact","6235 S MONITOR AVE, CHICAGO, IL, 60638",605292710,"L"
261310,"6235 S WOLCOTT AVE","CHICAGO","IL",60636,41.7802288500001,-87.6714970579999,310,"6235 S WOLCOTT AVE, CHICAGO, IL, 60636","Match","Exact","6235 S WOLCOTT AVE, CHICAGO, IL, 60636",605482344,"L"
261311,"6235 SOUTH DAMEN AVENUE","CHICAGO","IL",60636,41.7806552800001,-87.6739273589999,311,"6235 SOUTH DAMEN AVENUE, CHICAGO, IL, 60636","Match","Exact","6235 S DAMEN AVE, CHICAGO, IL, 60636",605482246,"L"
261312,"6235 SW 135TH ST","PINECREST","FL",33156,25.646236549,-80.294326804,312,"6235 SW 135TH ST, PINECREST, FL, 33156","Match","Exact","6235 SW 135TH ST, PINECREST, FL, 33156",115987335,"R"
261313,"6235 SW 57TH STREET","SOUTH MIAMI","FL",33143,25.717750854,-80.2947856659999,313,"6235 SW 57TH STREET, SOUTH MIAMI, FL, 33143","Match","Exact","6235 SW 57TH ST, SOUTH MIAMI, FL, 33143",115978668,"R"
261314,"6235 TOWER DR","HUDSON","FL",34667,28.3459497050001,-82.710753128,314,"6235 TOWER DR, HUDSON, FL, 34667","Match","Exact","6235 TOWER DR, HUDSON, FL, 34667",86393137,"L"
261315,"6235 W 155TH PLACE","OVERLAND PARK","KS",66223,38.847830077,-94.6592029129999,315,"6235 W 155TH PLACE, OVERLAND PARK, KS, 66223","Match","Exact","6235 W 155TH PL, OVERLAND PARK, KS, 66223",91332871,"L"
261316,"6235B N TEUTONIA AVE","MILWAUKE","WI",53209,43.1306784000001,-87.952381165,316,"6235B N TEUTONIA AVE, MILWAUKE, WI, 53209","Match","Non_Exact","6235 N TEUTONIA AVE, MILWAUKEE, WI, 53209",648866946,"L"
261317,"6236 MAGNOLIA STREET","PHILADELPHIA","PA",19144,40.04667964,-75.1758290079999,317,"6236 MAGNOLIA STREET, PHILADELPHIA, PA, 19144","Match","Exact","6236 MAGNOLIA ST, PHILADELPHIA, PA, 19144",131395495,"L"
261318,"6236 MARYLAND DRIVE","LOS ANGELES","CA",90048,34.06680758,-118.363555394,318,"6236 MARYLAND DRIVE, LOS ANGELES, CA, 90048","Match","Exact","6236 MARYLAND DR, LOS ANGELES, CA, 90048",647546666,"L"
261319,"6236 N 41ST DR","PHOENIX","AZ",85019,33.528571852,-112.148003109,319,"6236 N 41ST DR, PHOENIX, AZ, 85019","Match","Exact","6236 N 41ST DR, PHOENIX, AZ, 85019",128198504,"L"
261320,"6236 N LE MAI AVE","CHICAGO","IL",60646,41.994729095,-87.758629452,320,"6236 N LE MAI AVE, CHICAGO, IL, 60646","Match","Non_Exact","6236 N LEMAI AVE, CHICAGO, IL, 60646",605170621,"L"
261321,"6236 W 156TH","OVERLAND PARK","KS",66223,NA,NA,321,"6236 W 156TH, OVERLAND PARK, KS, 66223","Tie",NA,NA,NA,NA
261322,"6236 WADSWORTH AVE","HIGHLAND","CA",92346,34.140463018,-117.233163745,322,"6236 WADSWORTH AVE, HIGHLAND, CA, 92346","Match","Exact","6236 WADSWORTH AVE, HIGHLAND, CA, 92346",144661022,"R"
261323,"6236 WESTWICK PLACE","LEWIS CENTER","OH",43035,40.186504158,-82.977595499,323,"6236 WESTWICK PLACE, LEWIS CENTER, OH, 43035","Match","Exact","6236 WESTWICK PL, LEWIS CENTER, OH, 43035",24593199,"R"
261324,"6237 13TH AVE NORTH","SAINT PETERSBURG","FL",33710,27.7844672580001,-82.721422016,324,"6237 13TH AVE NORTH, SAINT PETERSBURG, FL, 33710","Match","Exact","6237 13TH AVE N, SAINT PETERSBURG, FL, 33710",124698449,"R"
261325,"6237 DELANCEY STREET","PHILADELPHIA","PA",19143,39.9566081190001,-75.246738726,325,"6237 DELANCEY STREET, PHILADELPHIA, PA, 19143","Match","Exact","6237 DELANCEY ST, PHILADELPHIA, PA, 19143",131397582,"R"
261326,"6237 EMPRESS COURT","SAN JOSE","CA",95129,37.302053491,-122.013504446,326,"6237 EMPRESS COURT, SAN JOSE, CA, 95129","Match","Exact","6237 EMPRESS CT, SAN JOSE, CA, 95129",122940869,"R"
261327,"6237 LA FLEUR DRIVE","SHREVEPORT","LA",71119,32.4732821000001,-93.868632221,327,"6237 LA FLEUR DRIVE, SHREVEPORT, LA, 71119","Match","Exact","6237 LA FLEUR DR, SHREVEPORT, LA, 71119",57430049,"L"
261328,"6237 LINDA VISTA LANE","CHARLOTTE","NC",28216,35.315768937,-80.872078334,328,"6237 LINDA VISTA LANE, CHARLOTTE, NC, 28216","Match","Exact","6237 LINDA VISTA LN, CHARLOTTE, NC, 28216",70471491,"L"
261329,"6237 MORTON STREET","PHILADELPHIA","PA",19144,40.0459221520001,-75.17715015,329,"6237 MORTON STREET, PHILADELPHIA, PA, 19144","Match","Exact","6237 MORTON ST, PHILADELPHIA, PA, 19144",131395480,"R"
261330,"6237 PONTIAC ST","SAN DIEGO","CA",92115,32.7685247910001,-117.065613363,330,"6237 PONTIAC ST, SAN DIEGO, CA, 92115","Match","Exact","6237 PONTIAC ST, SAN DIEGO, CA, 92115",195323593,"R"
261331,"6237 ROXBOROUGH DRIVE","ROXBOROUGH","CO",80125,39.452632496,-105.072294651,331,"6237 ROXBOROUGH DRIVE, ROXBOROUGH, CO, 80125","Match","Exact","6237 ROXBOROUGH DR, ROXBOROUGH, CO, 80125",636172543,"R"
261332,"6237 S ALBANY AVE","CHICAGO","IL",60629,41.7802979050001,-87.700727828,332,"6237 S ALBANY AVE, CHICAGO, IL, 60629","Match","Exact","6237 S ALBANY AVE, CHICAGO, IL, 60629",605307272,"L"
261333,"6237 SUSSEX DR","DUBLIN","CA",94583,37.7090837470001,-121.908725604,333,"6237 SUSSEX DR, DUBLIN, CA, 94583","Match","Non_Exact","6237 SUSSEX DR, DUBLIN, CA, 94568",606121819,"R"
261334,"6237HICKORYLANECIRCLE","UNION CITY","GA",30291,NA,NA,334,"6237HICKORYLANECIRCLE, UNION CITY, GA, 30291","No_Match",NA,NA,NA,NA
261335,"6238 BLUFF FOREST DR","ST LOUIS","MO",63129,38.450075525,-90.295391287,335,"6238 BLUFF FOREST DR, ST LOUIS, MO, 63129","Match","Exact","6238 BLUFF FOREST DR, SAINT LOUIS, MO, 63129",629001014,"R"
261336,"6238 COUNTY RD 41","FLORENCE","AL",35633,34.8633444880001,-87.732863671,336,"6238 COUNTY RD 41, FLORENCE, AL, 35633","Match","Exact","6238 CO RD 41, FLORENCE, AL, 35633",41319242,"R"
261337,"6238 CYPRESS DR","MT MORRIS","MI",48458,43.0961250020001,-83.703478581,337,"6238 CYPRESS DR, MT MORRIS, MI, 48458","Match","Exact","6238 CYPRESS DR, MOUNT MORRIS, MI, 48458",69565546,"R"
261338,"6238 FALLBROOK AVE","WOODLAND HILLS","CA",91367,34.1835464660001,-118.623341445,338,"6238 FALLBROOK AVE, WOODLAND HILLS, CA, 91367","Match","Exact","6238 FALLBROOK AVE, WOODLAND HILLS, CA, 91367",141534402,"R"
261339,"6238 YELLOWSTONE","CHEYENNE","WY",82009,41.1765316130001,-104.828588771,339,"6238 YELLOWSTONE, CHEYENNE, WY, 82009","Match","Non_Exact","6238 YELLOWSTONE RD, CHEYENNE, WY, 82009",160168753,"L"
261340,"6239 CARSON HILLS AVE","LAS VEGAS","NV",89139,36.036766523,-115.228623947,340,"6239 CARSON HILLS AVE, LAS VEGAS, NV, 89139","Match","Exact","6239 CARSON HILLS AVE, LAS VEGAS, NV, 89139",202002865,"L"
261341,"6239 E 123RD DRIVE","BRIGHTON","CO",80602,39.920905759,-104.914336038,341,"6239 E 123RD DRIVE, BRIGHTON, CO, 80602","Match","Exact","6239 E 123RD DR, BRIGHTON, CO, 80602",177412109,"L"
261342,"6239 E BROWN RD SUITE 112","MESA","AZ",85205,33.437373585,-111.697360801,342,"6239 E BROWN RD SUITE 112, MESA, AZ, 85205","Match","Non_Exact","6239 E BROWN RD, MESA, AZ, 85205",128267840,"R"
261343,"6239 GENERAL DIAZ ST","NEW ORLEANS","LA",70124,30.003263874,-90.104902452,343,"6239 GENERAL DIAZ ST, NEW ORLEANS, LA, 70124","Match","Exact","6239 GENERAL DIAZ ST, NEW ORLEANS, LA, 70124",191733543,"R"
261344,"6239 HOWE DRIVE","FAIRWAY","KS",66204,39.0162282520001,-94.629026644,344,"6239 HOWE DRIVE, FAIRWAY, KS, 66204","Match","Non_Exact","6239 HOWE DR, FAIRWAY, KS, 66205",91274357,"L"
261345,"6239 JEANE STREET","DALLAS","TX",75217,32.7270784950001,-96.714044631,345,"6239 JEANE STREET, DALLAS, TX, 75217","Match","Exact","6239 JEANE ST, DALLAS, TX, 75217",102957642,"L"
261346,"6239 LARCHWOOD AVE","PHILADELPHIA","PA",19143,39.954572818,-75.247204633,346,"6239 LARCHWOOD AVE, PHILADELPHIA, PA, 19143","Match","Exact","6239 LARCHWOOD AVE, PHILADELPHIA, PA, 19143",131397630,"R"
261347,"6239 PARKDALE","DALLAS","TX",75227,32.7720520870001,-96.7127035349999,347,"6239 PARKDALE, DALLAS, TX, 75227","Match","Non_Exact","6239 PARKDALE DR, DALLAS, TX, 75227",102924267,"L"
261348,"6239 SILVER WOOD DR","MORROW","OH",45152,39.343873058,-84.1990464199999,348,"6239 SILVER WOOD DR, MORROW, OH, 45152","Match","Exact","6239 SILVER WOOD DR, MORROW, OH, 45152",159050426,"L"
261349,"6239 SPRING LAKE DRIVE","HAMILTON","OH",45011,39.399743352,-84.5010222719999,349,"6239 SPRING LAKE DRIVE, HAMILTON, OH, 45011","Match","Exact","6239 SPRING LAKE DR, HAMILTON, OH, 45011",113820214,"L"
261350,"624 1/2 STATE STREET","REDDING","CA",96001,40.5705300440001,-122.380763346,350,"624 1/2 STATE STREET, REDDING, CA, 96001","Match","Exact","624 STATE ST, REDDING, CA, 96001",126685286,"R"
261351,"624 13TH AVE SOUTH","SAINT PETERSBURG","FL",33701,27.7577834350001,-82.641216417,351,"624 13TH AVE SOUTH, SAINT PETERSBURG, FL, 33701","Match","Exact","624 13TH AVE S, SAINT PETERSBURG, FL, 33701",124708471,"L"
261352,"624 3RD AVENUE NORTH","JACKSONVILLE BEACH","FL",32250,30.29131048,-81.396170204,352,"624 3RD AVENUE NORTH, JACKSONVILLE BEACH, FL, 32250","Match","Exact","624 3RD AVE N, JACKSONVILLE BEACH, FL, 32250",83923351,"L"
261353,"624 4TH STREET","HUDSON","WI",54016,44.976270911,-92.753968772,353,"624 4TH STREET, HUDSON, WI, 54016","Match","Exact","624 4TH ST, HUDSON, WI, 54016",110908267,"L"
261354,"624 77TH AVE NE","OLYMPIA","WA",98506,47.1437291290001,-122.895641506,354,"624 77TH AVE NE, OLYMPIA, WA, 98506","Match","Exact","624 77TH AVE NE, OLYMPIA, WA, 98506",180941956,"R"
261355,"624 7TH AVENUE SE","DYERSVILLE","IA",52040,42.479224349,-91.117337677,355,"624 7TH AVENUE SE, DYERSVILLE, IA, 52040","Match","Exact","624 7TH AVE SE, DYERSVILLE, IA, 52040",16899958,"L"
261356,"624 ARCHER STREET","MONTEREY","CA",93940,36.611603524,-121.90610668,356,"624 ARCHER STREET, MONTEREY, CA, 93940","Match","Exact","624 ARCHER ST, MONTEREY, CA, 93940",196814427,"R"
261357,"624 BALLENTINE AVE","MARION","OH",43302,40.599215583,-83.124120481,357,"624 BALLENTINE AVE, MARION, OH, 43302","Match","Exact","624 BALLENTINE AVE, MARION, OH, 43302",12710133,"R"
261358,"624 BENNETT ROAD","LINDEN","IN",47955,40.219008079,-86.9143133859999,358,"624 BENNETT ROAD, LINDEN, IN, 47955","Match","Exact","624 BENNETT RD, LINDEN, IN, 47955",639702153,"L"
261359,"624 BUENA VISTA AVENUE","ASHLAND","OH",44805,40.857198818,-82.3232049279999,359,"624 BUENA VISTA AVENUE, ASHLAND, OH, 44805","Match","Exact","624 BUENA VISTA AVE, ASHLAND, OH, 44805",30146902,"R"
261360,"624 C STREET NE","WASHINGTON","DC",20002,38.893590384,-76.997796022,360,"624 C STREET NE, WASHINGTON, DC, 20002","Match","Exact","624 C ST NE, WASHINGTON, DC, 20002",76229966,"L"
261361,"624 CHAPLIN ST SE","WASHINGTON","DC",20019,38.880499446,-76.940523635,361,"624 CHAPLIN ST SE, WASHINGTON, DC, 20019","Match","Exact","624 CHAPLIN ST SE, WASHINGTON, DC, 20019",76233692,"L"
261362,"624 CHURCH STREET","LUDLOW","KY",41016,39.0887655110001,-84.55218149,362,"624 CHURCH STREET, LUDLOW, KY, 41016","Match","Exact","624 CHURCH ST, LUDLOW, KY, 41016",103893661,"R"
261363,"624 CIRCUIT ST","HANOVER","MA",2339,42.1111620990001,-70.878316508,363,"624 CIRCUIT ST, HANOVER, MA, 2339","Match","Exact","624 CIRCUIT ST, HANOVER, MA, 02339",87448821,"L"
261364,"624 COMMERCIAL ST","STRAWBERRY POINT","IA",52076,42.6718718710001,-91.53715171,364,"624 COMMERCIAL ST, STRAWBERRY POINT, IA, 52076","Match","Exact","624 COMMERCIAL ST, STRAWBERRY POINT, IA, 52076",651830821,"R"
261365,"624 COMMERCIAL STREET","STRAWBERRY POINT","IA",52076,42.6718718710001,-91.53715171,365,"624 COMMERCIAL STREET, STRAWBERRY POINT, IA, 52076","Match","Exact","624 COMMERCIAL ST, STRAWBERRY POINT, IA, 52076",651830821,"R"
261366,"624 COTTAGE STREET","NEW BEDFORD","MA",2740,41.647642196,-70.935440515,366,"624 COTTAGE STREET, NEW BEDFORD, MA, 2740","Match","Exact","624 COTTAGE ST, NEW BEDFORD, MA, 02740",46752927,"R"
261367,"624 E 222ND ST APT 2C","BRONX","NY",10467,40.8863897590001,-73.863836447,367,"624 E 222ND ST APT 2C, BRONX, NY, 10467","Match","Non_Exact","624 E 222ND ST, BRONX, NY, 10467",652207396,"R"
261368,"624 E 23RD ST","PATERSON","NJ",7514,40.9191944630001,-74.1511905139999,368,"624 E 23RD ST, PATERSON, NJ, 7514","Match","Exact","624 E 23RD ST, PATERSON, NJ, 07514",65264442,"R"
261369,"624 E BOXWOOD LN","AZUSA","CA",91702,34.1433338050001,-117.898289593,369,"624 E BOXWOOD LN, AZUSA, CA, 91702","Match","Exact","624 BOXWOOD LN, AZUSA, CA, 91702",614347547,"L"
261370,"624 E CAMINO COLEGIO","SANTA MARIA","CA",93454,NA,NA,370,"624 E CAMINO COLEGIO, SANTA MARIA, CA, 93454","No_Match",NA,NA,NA,NA
261371,"624 E COLLEGE STREET","MEDFORD","WI",54451,45.129951125,-90.336348559,371,"624 E COLLEGE STREET, MEDFORD, WI, 54451","Match","Exact","624 COLLEGE ST, MEDFORD, WI, 54451",607308076,"R"
261372,"624 E COUNTY LINE RD","LAKEWOOD","NJ",8701,40.1051067770001,-74.203950645,372,"624 E COUNTY LINE RD, LAKEWOOD, NJ, 8701","Match","Exact","624 E COUNTY LINE RD, LAKEWOOD, NJ, 08701",635807479,"R"
261373,"624 E JANE ST","VALDOSTA","GA",31601,30.8461041470001,-83.2772066589999,373,"624 E JANE ST, VALDOSTA, GA, 31601","Match","Exact","624 E JANE ST, VALDOSTA, GA, 31601",87717574,"L"
261374,"624 E OKLAHOMA PL","TULSA","OK",74106,36.175910426,-95.986184833,374,"624 E OKLAHOMA PL, TULSA, OK, 74106","Match","Exact","624 E OKLAHOMA PL, TULSA, OK, 74106",166437091,"R"
261375,"624 E TURMONT ST","CARSON","CA",90746,33.8495440510001,-118.263947975,375,"624 E TURMONT ST, CARSON, CA, 90746","Match","Exact","624 E TURMONT ST, CARSON, CA, 90746",141680509,"R"
261376,"624 EAST BEALE STREET","KINGMAN","AZ",86401,NA,NA,376,"624 EAST BEALE STREET, KINGMAN, AZ, 86401","Tie",NA,NA,NA,NA
261377,"624 EAST MAIN STREET","GROVE CITY","PA",16127,41.161492036,-80.0942343689999,377,"624 EAST MAIN STREET, GROVE CITY, PA, 16127","Match","Non_Exact","624 W MAIN ST, GROVE CITY, PA, 16127",605382722,"L"
261378,"624 EAST REELFOOT AVE","UNION CITY","TN",38261,36.4143804650001,-89.05616795,378,"624 EAST REELFOOT AVE, UNION CITY, TN, 38261","Match","Exact","624 E REELFOOT AVE, UNION CITY, TN, 38261",30894964,"R"
261379,"624 FARRAGUT PLACE NE","WASHINGTON","DC",20017,38.951271073,-76.9975096869999,379,"624 FARRAGUT PLACE NE, WASHINGTON, DC, 20017","Match","Exact","624 FARRAGUT PL NE, WASHINGTON, DC, 20017",76228095,"L"
261380,"624 FRENCH ST","SANTA ANA","CA",92701,33.75011765,-117.864556894,380,"624 FRENCH ST, SANTA ANA, CA, 92701","Match","Exact","624 FRENCH ST, SANTA ANA, CA, 92701",144042098,"L"
261381,"624 GALVIN AVE","ROSELLE","NJ",7203,40.658289401,-74.247186627,381,"624 GALVIN AVE, ROSELLE, NJ, 7203","Match","Exact","624 GALVIN AVE, ROSELLE, NJ, 07203",60576773,"R"
261382,"624 GRAN KAYMEN WAY","APOLLO BEACH","FL",33572,27.7688343990001,-82.410570661,382,"624 GRAN KAYMEN WAY, APOLLO BEACH, FL, 33572","Match","Exact","624 GRAN KAYMEN WAY, APOLLO BEACH, FL, 33572",104495643,"L"
261383,"624 GROVER STREET","WARRENSBURG","MO",64093,38.761480346,-93.728057203,383,"624 GROVER STREET, WARRENSBURG, MO, 64093","Match","Exact","624 GROVER ST, WARRENSBURG, MO, 64093",95341656,"L"
261384,"624 HALF MOON WAY","RUNAWAY BAY","TX",76426,33.1664283920001,-97.889500422,384,"624 HALF MOON WAY, RUNAWAY BAY, TX, 76426","Match","Exact","624 HALF MOON WAY, RUNAWAY BAY, TX, 76426",103661558,"R"
261385,"624 HIGHWAY 71","WILLMAR","MN",56201,45.2037212110001,-95.0024274579999,385,"624 HIGHWAY 71, WILLMAR, MN, 56201","Match","Non_Exact","624 US HWY 71, WILLMAR, MN, 56201",36709985,"L"
261386,"624 IDLEWOOD LANE","KNOXVILLE","TN",37923,35.907143585,-84.0598184569999,386,"624 IDLEWOOD LANE, KNOXVILLE, TN, 37923","Match","Exact","624 IDLEWOOD LN, KNOXVILLE, TN, 37923",42614915,"L"
261387,"624 ILLINOIS ST","GARY","IN",46402,41.5995765220001,-87.3160898679999,387,"624 ILLINOIS ST, GARY, IN, 46402","Match","Exact","624 ILLINOIS ST, GARY, IN, 46402",98427279,"R"
261388,"624 INDIAN OAK LANE UNIT 105","OAK PARK","CA",91377,34.183238686,-118.765845948,388,"624 INDIAN OAK LANE UNIT 105, OAK PARK, CA, 91377","Match","Exact","624 INDIAN OAK LN, OAK PARK, CA, 91377",110019882,"L"
261389,"624 ISLE OF PALMS DRIVE","FORT LAUDERDALE","FL",33301,26.1156432020001,-80.116126105,389,"624 ISLE OF PALMS DRIVE, FORT LAUDERDALE, FL, 33301","Match","Exact","624 ISLE OF PALMS DR, FORT LAUDERDALE, FL, 33301",114821504,"L"
261390,"624 JEFFERSON AVE","SCRANTON","PA",18510,41.4114577940001,-75.655598636,390,"624 JEFFERSON AVE, SCRANTON, PA, 18510","Match","Exact","624 JEFFERSON AVE, SCRANTON, PA, 18510",139327527,"R"
261391,"624 KAHN DRIVE","PIKESVILLE","MD",21208,39.3612674340001,-76.7270004109999,391,"624 KAHN DRIVE, PIKESVILLE, MD, 21208","Match","Exact","624 KAHN DR, PIKESVILLE, MD, 21208",191468521,"R"
261392,"624 KINGS VIEW COURT","HAMPTON","VA",23669,37.0599403890001,-76.3110930889999,392,"624 KINGS VIEW COURT, HAMPTON, VA, 23669","Match","Exact","624 KINGS VIEW CT, HAMPTON, VA, 23669",103760256,"R"
261393,"624 KOCH AVE","CAPE GIRARDEAU","MO",63701,37.2977897320001,-89.544787156,393,"624 KOCH AVE, CAPE GIRARDEAU, MO, 63701","Match","Non_Exact","624 KOCH AVE, CPE GIRARDEAU, MO, 63703",35183158,"R"
261394,"624 LEEWARD AVE","BEACHWOOD","NJ",8722,39.935361786,-74.202427445,394,"624 LEEWARD AVE, BEACHWOOD, NJ, 8722","Match","Exact","624 LEEWARD AVE, BEACHWOOD, NJ, 08722",203843124,"R"
261395,"624 LEILA COURT","WEST CARROLLTON","OH",45449,39.657512119,-84.261936099,395,"624 LEILA COURT, WEST CARROLLTON, OH, 45449","Match","Exact","624 LEILA CT, WEST CARROLLTON, OH, 45449",143592119,"R"
261396,"624 LOUISE STREET","MANSFIELD","LA",71052,32.0330612810001,-93.691833058,396,"624 LOUISE STREET, MANSFIELD, LA, 71052","Match","Exact","624 LOUISE ST, MANSFIELD, LA, 71052",67642981,"L"
261397,"624 LUCAS DRIVE","LAFAYETTE","CA",94549,37.8698644680001,-122.092633702,397,"624 LUCAS DRIVE, LAFAYETTE, CA, 94549","Match","Exact","624 LUCAS DR, LAFAYETTE, CA, 94549",192052172,"R"
261398,"624 MAIN STREET","BROCKTON","MA",2301,42.072831283,-71.018778184,398,"624 MAIN STREET, BROCKTON, MA, 2301","Match","Exact","624 MAIN ST, BROCKTON, MA, 02301",87444243,"L"
261399,"624 MAIN STREET","OLEAN","NY",14760,42.091084133,-78.426232237,399,"624 MAIN STREET, OLEAN, NY, 14760","Match","Exact","624 MAIN ST, OLEAN, NY, 14760",122031318,"R"
261400,"624 MAPLE AVE","GLADEWATER","TX",75647,32.5431014490001,-94.948364939,400,"624 MAPLE AVE, GLADEWATER, TX, 75647","Match","Non_Exact","624 W MAPLE AVE, GLADEWATER, TX, 75647",141112759,"L"
261401,"624 MARTIN STREET","WEST MONROE","LA",71292,32.4643996120001,-92.1735668109999,401,"624 MARTIN STREET, WEST MONROE, LA, 71292","Match","Exact","624 MARTIN ST, WEST MONROE, LA, 71292",616289985,"R"
261402,"624 MATTHEWS-MINT HILL RD SUITE 209","MATTHEWS","NC",28105,35.1176566300001,-80.7132368599999,402,"624 MATTHEWS-MINT HILL RD SUITE 209, MATTHEWS, NC, 28105","Match","Exact","624 MATTHEWS-MINT HILL RD, MATTHEWS, NC, 28105",639515336,"L"
261403,"624 MILL STREET","REEDSVILLE","WI",54230,44.1552883950001,-87.960522586,403,"624 MILL STREET, REEDSVILLE, WI, 54230","Match","Exact","624 MILL ST, REEDSVILLE, WI, 54230",147955842,"L"
261404,"624 N 34TH STREET","WACO","TX",76710,31.53725518,-97.163038767,404,"624 N 34TH STREET, WACO, TX, 76710","Match","Exact","624 N 34TH ST, WACO, TX, 76710",146744177,"L"
261405,"624 N 7TH","WAKEENEY","KS",67672,39.0321729460001,-99.880984524,405,"624 N 7TH, WAKEENEY, KS, 67672","Match","Non_Exact","624 N 7TH ST, WAKEENEY, KS, 67672",150102173,"R"
261406,"624 N CASCADE AVE","COLORADO SPRINGS","CO",80903,38.8425881040001,-104.824766658,406,"624 N CASCADE AVE, COLORADO SPRINGS, CO, 80903","Match","Exact","624 N CASCADE AVE, COLORADO SPRINGS, CO, 80903",610725596,"L"
261407,"624 N MADISON STREET","BLOOMINGTON","IN",47404,NA,NA,407,"624 N MADISON STREET, BLOOMINGTON, IN, 47404","No_Match",NA,NA,NA,NA
261408,"624 NORTH BROADWAY ROOM 653","BATLIMORE","MD",21205,39.297607999,-76.594381031,408,"624 NORTH BROADWAY ROOM 653, BATLIMORE, MD, 21205","Match","Non_Exact","624 N BROADWAY, BALTIMORE, MD, 21205",206423731,"L"
261409,"624 NORTH FRONT STREET","WORMLEYSBURG","PA",17043,40.262819349,-76.907004609,409,"624 NORTH FRONT STREET, WORMLEYSBURG, PA, 17043","Match","Exact","624 N FRONT ST, WORMLEYSBURG, PA, 17043",60990393,"L"
261410,"624 NORTHFIELD RD","LITITZ","PA",17543,40.12292969,-76.346790765,410,"624 NORTHFIELD RD, LITITZ, PA, 17543","Match","Exact","624 NORTHFIELD RD, LITITZ, PA, 17543",179689695,"R"
261411,"624 NW CONGRESS STREET","BEND","OR",97703,44.0580514420001,-121.318709298,411,"624 NW CONGRESS STREET, BEND, OR, 97703","Match","Exact","624 NW CONGRESS ST, BEND, OR, 97703",152553917,"R"
261412,"624 PERTH AVE","FLOSSMOOR","IL",60422,41.5512003440001,-87.6775893939999,412,"624 PERTH AVE, FLOSSMOOR, IL, 60422","Match","Exact","624 PERTH AVE, FLOSSMOOR, IL, 60422",111709481,"R"
261413,"624 PONDVIEW DRIVE","ANTIOCH","IL",60002,42.4930723750001,-88.104655011,413,"624 PONDVIEW DRIVE, ANTIOCH, IL, 60002","Match","Exact","624 PONDVIEW DR, ANTIOCH, IL, 60002",119759209,"L"
261414,"624 RAMAPO ROAD","TEANECK","NJ",7666,40.8967528920001,-74.024342868,414,"624 RAMAPO ROAD, TEANECK, NJ, 7666","Match","Exact","624 RAMAPO RD, TEANECK, NJ, 07666",64388530,"L"
261415,"624 RENAISSANCE POINTE UNIT 207","ALTAMONTE SPRINGS","FL",32714,28.646122012,-81.4175555639999,415,"624 RENAISSANCE POINTE UNIT 207, ALTAMONTE SPRINGS, FL, 32714","Match","Exact","624 RENAISSANCE POINTE, ALTAMONTE SPRINGS, FL, 32714",650289584,"L"
261416,"624 S 200TH ST","DES MOINES","WA",98198,47.42309426,-122.326603458,416,"624 S 200TH ST, DES MOINES, WA, 98198","Match","Exact","624 S 200TH ST, DES MOINES, WA, 98198",187004624,"L"
261417,"624 S MILITARY TRAIL","DEERFIELD BEACH","FL",33442,26.3096552280001,-80.1268591159999,417,"624 S MILITARY TRAIL, DEERFIELD BEACH, FL, 33442","Match","Exact","624 S MILITARY TRL, DEERFIELD BEACH, FL, 33442",640937861,"L"
261418,"624 SIX FLAGS DR SUITE 201","ARLINGTON","TX",76011,32.7484044510001,-97.068748021,418,"624 SIX FLAGS DR SUITE 201, ARLINGTON, TX, 76011","Match","Exact","624 SIX FLAGS DR, ARLINGTON, TX, 76011",101912798,"L"
261419,"624 SOUTH LINE STREET","CHESANING","MI",48616,43.180422079,-84.1194331359999,419,"624 SOUTH LINE STREET, CHESANING, MI, 48616","Match","Exact","624 S LINE ST, CHESANING, MI, 48616",80204821,"L"
261420,"624 SUDDERTH DRIVE","RUIDOSO","NM",88345,33.323835063,-105.649635388,420,"624 SUDDERTH DRIVE, RUIDOSO, NM, 88345","Match","Exact","624 SUDDERTH DR, RUIDOSO, NM, 88345",640407530,"R"
261421,"624 SYCAMORE DR","BRONSTON","KY",42518,36.9723952350001,-84.657658026,421,"624 SYCAMORE DR, BRONSTON, KY, 42518","Match","Exact","624 SYCAMORE DR, BRONSTON, KY, 42518",39088112,"L"
261422,"624 TALON COURT","ARNOLD","MD",21012,39.0367121240001,-76.4691098869999,422,"624 TALON COURT, ARNOLD, MD, 21012","Match","Exact","624 TALON CT, ARNOLD, MD, 21012",68193213,"R"
261423,"624 TERRACE HILLS DRIVE","SALT LAKE CITY","UT",84103,40.7834116430001,-111.860948479,423,"624 TERRACE HILLS DRIVE, SALT LAKE CITY, UT, 84103","Match","Exact","624 TERRACE HILLS DR, SALT LAKE CITY, UT, 84103",176133099,"R"
261424,"624 TRAIL AVENUE","FREDERICK","MD",21701,39.4224388580001,-77.4132659589999,424,"624 TRAIL AVENUE, FREDERICK, MD, 21701","Match","Exact","624 TRAIL AVE, FREDERICK, MD, 21701",60672531,"R"
261425,"624 TYVOLA ROAD STE 103-322","CHARLOTTE","NC",28217,35.163906947,-80.8851192129999,425,"624 TYVOLA ROAD STE 103-322, CHARLOTTE, NC, 28217","Match","Exact","624 TYVOLA RD, CHARLOTTE, NC, 28217",647271783,"R"
261426,"624 W  38TH STREET","INDIANAPOLIS","IN",46208,39.8248574350001,-86.1698810569999,426,"624 W  38TH STREET, INDIANAPOLIS, IN, 46208","Match","Exact","624 W 38TH ST, INDIANAPOLIS, IN, 46208",107986390,"R"
261427,"624 W 2ND ST","WASHINGTON","NC",27889,35.546618213,-77.061726344,427,"624 W 2ND ST, WASHINGTON, NC, 27889","Match","Exact","624 W 2ND ST, WASHINGTON, NC, 27889",67953388,"R"
261428,"624 W 90TH STREET","LOS ANGELES","CA",90044,33.955076466,-118.285379948,428,"624 W 90TH STREET, LOS ANGELES, CA, 90044","Match","Exact","624 W 90TH ST, LOS ANGELES, CA, 90044",142661764,"L"
261429,"624 W MAIN ST 3RD FLOOR","LOUISVILLE","KY",40202,NA,NA,429,"624 W MAIN ST 3RD FLOOR, LOUISVILLE, KY, 40202","Tie",NA,NA,NA,NA
261430,"624 W MAIN STREET","TUPELO","MS",38804,34.2573238960001,-88.712409399,430,"624 W MAIN STREET, TUPELO, MS, 38804","Match","Exact","624 W MAIN ST, TUPELO, MS, 38804",90653811,"R"
261431,"624 W NEVADA AVENUE","HOMEDALE","ID",83628,43.624485802,-116.94508092,431,"624 W NEVADA AVENUE, HOMEDALE, ID, 83628","Match","Exact","624 W NEVADA AVE, HOMEDALE, ID, 83628",118568797,"L"
261432,"624 W UNIVERSITY DR NO 268","DENTON","TX",76201,NA,NA,432,"624 W UNIVERSITY DR NO 268, DENTON, TX, 76201","No_Match",NA,NA,NA,NA
261433,"624 W VERDINE","SULPHUR","LA",70663,30.2383220180001,-93.382513315,433,"624 W VERDINE, SULPHUR, LA, 70663","Match","Non_Exact","624 W VERDINE ST, SULPHUR, LA, 70663",640620919,"R"
261434,"624 WAPPING STREET","FRANKFORT","KY",40601,NA,NA,434,"624 WAPPING STREET, FRANKFORT, KY, 40601","No_Match",NA,NA,NA,NA
261435,"624 WEST SECOND STREET","CROWLEY","LA",70526,30.2084087160001,-92.377406792,435,"624 WEST SECOND STREET, CROWLEY, LA, 70526","Match","Exact","624 W 2ND ST, CROWLEY, LA, 70526",88301863,"L"
261436,"624 WESTONRIDGE COURT","WILDWOOD","MO",63021,38.567220881,-90.598399886,436,"624 WESTONRIDGE COURT, WILDWOOD, MO, 63021","Match","Exact","624 WESTONRIDGE CT, WILDWOOD, MO, 63021",100188068,"R"
261437,"624 WYTHE AVE APT 1","BROOKLYN","NY",11249,40.704131009,-73.9655537639999,437,"624 WYTHE AVE APT 1, BROOKLYN, NY, 11249","Match","Exact","624 WYTHE AVE, BROOKLYN, NY, 11249",59100845,"R"
261438,"6240 BUCKINGHAM CIRCLE","CUMMING","GA",30040,34.177495628,-84.2129050619999,438,"6240 BUCKINGHAM CIRCLE, CUMMING, GA, 30040","Match","Exact","6240 BUCKINGHAM CIR, CUMMING, GA, 30040",70195938,"R"
261439,"6240 COUNTY ROAD 120 APT NO 320","ST CLOUD","MN",56303,45.586525608,-94.2355458489999,439,"6240 COUNTY ROAD 120 APT NO 320, ST CLOUD, MN, 56303","Match","Exact","6240 CO RD 120, SAINT CLOUD, MN, 56303",611979659,"R"
261440,"6240 E CALLE DEL MEDIA","SCOTTSDALE","AZ",85251,33.496534534,-111.946741747,440,"6240 E CALLE DEL MEDIA, SCOTTSDALE, AZ, 85251","Match","Non_Exact","6240 E CLL DEL MEDIA, SCOTTSDALE, AZ, 85251",128222394,"L"
261441,"6240 LANSDOWNE CIR","BOYNTON BEACH","FL",33472,26.543841076,-80.1459906429999,441,"6240 LANSDOWNE CIR, BOYNTON BEACH, FL, 33472","Match","Exact","6240 LANSDOWNE CIR, BOYNTON BEACH, FL, 33472",115577339,"R"
261442,"6240 N SAN GABRIEL BLVD UNIT 6","SAN GABRIEL","CA",91775,34.112352978,-118.09113443,442,"6240 N SAN GABRIEL BLVD UNIT 6, SAN GABRIEL, CA, 91775","Match","Non_Exact","6240 N SAN GABRIEL BLVD, SAN GABRIEL, CA, 91775",142736414,"R"
261443,"6240 N63AVE APT 134","GLENDALE","AZ",85301,NA,NA,443,"6240 N63AVE APT 134, GLENDALE, AZ, 85301","No_Match",NA,NA,NA,NA
261444,"6240 POST ROAD","CUMMING","GA",30040,34.178109772,-84.2216889869999,444,"6240 POST ROAD, CUMMING, GA, 30040","Match","Exact","6240 POST RD, CUMMING, GA, 30040",70177431,"L"
261445,"6240 PRIMROSE DR","LA MESA","CA",91942,32.791374391,-116.988959657,445,"6240 PRIMROSE DR, LA MESA, CA, 91942","Match","Exact","6240 PRIMROSE DR, LA MESA, CA, 91942",649823621,"L"
261446,"6240 PRINCESS COURT","ROCKLIN","CA",65765,38.806414949,-121.282905177,446,"6240 PRINCESS COURT, ROCKLIN, CA, 65765","Match","Non_Exact","6240 PRINCESS CT, ROCKLIN, CA, 95765",608082280,"L"
261447,"6240 ROYAL LAKES ESTATES AVE","GONZALES","LA",70737,30.1608700840001,-90.932717541,447,"6240 ROYAL LAKES ESTATES AVE, GONZALES, LA, 70737","Match","Exact","6240 ROYAL LAKES ESTATES AVE, GONZALES, LA, 70737",625390051,"R"
261448,"6240 S CONGRESS AVE SUITE G6","LANTANA","FL",33462,26.5838963940001,-80.092469659,448,"6240 S CONGRESS AVE SUITE G6, LANTANA, FL, 33462","Match","Non_Exact","6240 S CONGRESS AVE, LANTANA, FL, 33462",650064638,"L"
261449,"6240 SANDRISE COURT APT 301","ELKRIDGE","MD",21075,39.2066151430001,-76.734095353,449,"6240 SANDRISE COURT APT 301, ELKRIDGE, MD, 21075","Match","Exact","6240 SANDRISE CT, ELKRIDGE, MD, 21075",158937060,"R"
261450,"6240 SYLMAR AVENUE","VAN NUYS","CA",91401,34.1834355890001,-118.446519418,450,"6240 SYLMAR AVENUE, VAN NUYS, CA, 91401","Match","Exact","6240 SYLMAR AVE, VAN NUYS, CA, 91401",638098759,"R"
261451,"6240 TIMBERVIEW DRIVE","EAST LANSING","MI",48823,42.778556096,-84.4372528339999,451,"6240 TIMBERVIEW DRIVE, EAST LANSING, MI, 48823","Match","Non_Exact","6240 TIMBER VIEW DR, EAST LANSING, MI, 48823",647606601,"L"
261452,"6240 TURRET DR","COLORADO SPRINGS","CO",80918,38.92207856,-104.800209643,452,"6240 TURRET DR, COLORADO SPRINGS, CO, 80918","Match","Exact","6240 TURRET DR, COLORADO SPRINGS, CO, 80918",105510010,"L"
261453,"6240 W ORCHID LN","CHANDLER","AZ",85226,33.3235804130001,-111.947153849,453,"6240 W ORCHID LN, CHANDLER, AZ, 85226","Match","Exact","6240 W ORCHID LN, CHANDLER, AZ, 85226",640976679,"R"
261454,"62407 COND DRIVE","JONES","MI",49061,41.890457778,-85.800237242,454,"62407 COND DRIVE, JONES, MI, 49061","Match","Exact","62407 COND DR, JONES, MI, 49061",22579236,"R"
261455,"62408 HWY 112","ASHLAND","WI",54806,NA,NA,455,"62408 HWY 112, ASHLAND, WI, 54806","No_Match",NA,NA,NA,NA
261456,"6241 BERKSHIRE LN","RACINE","WI",53406,42.750087367,-87.8574918639999,456,"6241 BERKSHIRE LN, RACINE, WI, 53406","Match","Exact","6241 BERKSHIRE LN, RACINE, WI, 53406",77927375,"L"
261457,"6241 DOLORES DRIVE","OAK FOREST","IL",60452,41.607684686,-87.7722203549999,457,"6241 DOLORES DRIVE, OAK FOREST, IL, 60452","Match","Exact","6241 DOLORES DR, OAK FOREST, IL, 60452",111702586,"L"
261458,"6241 JACK LONDON CIRCLE","SACRAMENTO","CA",95842,38.68383873,-121.352751859,458,"6241 JACK LONDON CIRCLE, SACRAMENTO, CA, 95842","Match","Exact","6241 JACK LONDON CIR, SACRAMENTO, CA, 95842",133332253,"L"
261459,"6241 LAKESIDE DRIVE","QUINTON","VA",23141,37.4888507920001,-77.12905005,459,"6241 LAKESIDE DRIVE, QUINTON, VA, 23141","Match","Exact","6241 LAKESIDE DR, QUINTON, VA, 23141",106730498,"R"
261460,"6241 MAGNOLIA RIDGE","STONE MOUNTAIN","GA",30087,33.7752096290001,-84.146123858,460,"6241 MAGNOLIA RIDGE, STONE MOUNTAIN, GA, 30087","Match","Exact","6241 MAGNOLIA RIDGE, STONE MOUNTAIN, GA, 30087",637664608,"L"
261461,"6241 OAKLAND DRIVE","WOODBRIDGE","VA",22193,38.668697068,-77.393972639,461,"6241 OAKLAND DRIVE, WOODBRIDGE, VA, 22193","Match","Exact","6241 OAKLAND DR, WOODBRIDGE, VA, 22193",207157552,"R"
261462,"6241 RIVERSIDE DRIVE","DUBLIN","OH",43017,40.09250667,-83.1083545979999,462,"6241 RIVERSIDE DRIVE, DUBLIN, OH, 43017","Match","Exact","6241 RIVERSIDE DR, DUBLIN, OH, 43017",135778828,"R"
261463,"6241 SALAMANDER RUN LANE","CHARLOTTE","NC",28215,35.2550234010001,-80.720484999,463,"6241 SALAMANDER RUN LANE, CHARLOTTE, NC, 28215","Match","Exact","6241 SALAMANDER RUN LN, CHARLOTTE, NC, 28215",608601436,"R"
261464,"6241 SAVANNAH BREEZE CT","TAMPA","FL",33625,28.06507028,-82.552068661,464,"6241 SAVANNAH BREEZE CT, TAMPA, FL, 33625","Match","Exact","6241 SAVANNAH BREEZE CT, TAMPA, FL, 33625",104614687,"R"
261465,"6241 SOUTH BLVD 241983","CHARLOTTE","NC",28217,35.1505337250001,-80.8763503609999,465,"6241 SOUTH BLVD 241983, CHARLOTTE, NC, 28217","Match","Exact","6241 SOUTH BLVD, CHARLOTTE, NC, 28217",70486516,"L"
261466,"6241 W BROADWAY","BROOKLYN PARK","MN",55428,45.067618285,-93.3754861039999,466,"6241 W BROADWAY, BROOKLYN PARK, MN, 55428","Match","Non_Exact","6241 W BROADWAY AVE, BROOKLYN PARK, MN, 55428",647771077,"L"
261467,"6241 W KINNICKINNIC RIVER PKWY","MIWAUKEE","WI",53219,42.9937163320001,-87.990699498,467,"6241 W KINNICKINNIC RIVER PKWY, MIWAUKEE, WI, 53219","Match","Non_Exact","6241 W KINNICKINNIC RIVER PKWY, MILWAUKEE, WI, 53219",77747838,"L"
261468,"62410 ERICKSON ROAD","BEND","OR",97701,44.0801338810001,-121.207738749,468,"62410 ERICKSON ROAD, BEND, OR, 97701","Match","Exact","62410 ERICKSON RD, BEND, OR, 97701",152558748,"R"
261469,"6242 BOARDMAN RD NW","OLYMPIA","WA",98502,47.122081495,-122.966848485,469,"6242 BOARDMAN RD NW, OLYMPIA, WA, 98502","Match","Exact","6242 BOARDMAN RD NW, OLYMPIA, WA, 98502",180980687,"R"
261470,"6242 SE 29TH WAY","GRESHAM","OR",97080,45.4761172250001,-122.370130959,470,"6242 SE 29TH WAY, GRESHAM, OR, 97080","Match","Exact","6242 SE 29TH WAY, GRESHAM, OR, 97080",157555649,"L"
261471,"6242 STATE RD 56 EAST","WINSLOW","IN",47598,NA,NA,471,"6242 STATE RD 56 EAST, WINSLOW, IN, 47598","No_Match",NA,NA,NA,NA
261472,"6242 WEST GRAND AVENUE","CHICAGO","IL",60639,41.92174513,-87.782003048,472,"6242 WEST GRAND AVENUE, CHICAGO, IL, 60639","Match","Exact","6242 W GRAND AVE, CHICAGO, IL, 60639",111752432,"R"
261473,"6243 E PHILLIPS PL","CENTENNIAL","CO",80112,39.567989159,-104.916975076,473,"6243 E PHILLIPS PL, CENTENNIAL, CO, 80112","Match","Exact","6243 E PHILLIPS PL, CENTENNIAL, CO, 80112",177346283,"L"
261474,"6244 DREAM DUST DRIVE","NORTH RICHLAND HILLS","TX",76180,32.8588537960001,-97.234124166,474,"6244 DREAM DUST DRIVE, NORTH RICHLAND HILLS, TX, 76180","Match","Exact","6244 DREAM DUST DR, NORTH RICHLAND HILLS, TX, 76180",635377016,"L"
261475,"6244 EL CAJON BLVD SUITE 22","SAN DIEGO","CA",92115,NA,NA,475,"6244 EL CAJON BLVD SUITE 22, SAN DIEGO, CA, 92115","No_Match",NA,NA,NA,NA
261476,"6244 FROSTY WINTER CT","CENTREVILLE","VA",20120,38.836602778,-77.453544704,476,"6244 FROSTY WINTER CT, CENTREVILLE, VA, 20120","Match","Exact","6244 FROSTY WINTER CT, CENTREVILLE, VA, 20120",76025841,"R"
261477,"6244 HATCHETT MILL RD","SPOTTSVILLE","KY",42458,37.8359847420001,-87.4344118239999,477,"6244 HATCHETT MILL RD, SPOTTSVILLE, KY, 42458","Match","Exact","6244 HATCHETT MILL RD, SPOTTSVILLE, KY, 42458",57919728,"R"
261478,"6244 LAKE VALLEY POINT","LITHONIA","GA",30058,33.76781937,-84.1339143009999,478,"6244 LAKE VALLEY POINT, LITHONIA, GA, 30058","Match","Exact","6244 LAKE VALLEY PT, LITHONIA, GA, 30058",619388084,"L"
261479,"6244 N 4TH ST","PHILADELPHIA","PA",19120,40.046116972,-75.126480559,479,"6244 N 4TH ST, PHILADELPHIA, PA, 19120","Match","Exact","6244 N 4TH ST, PHILADELPHIA, PA, 19120",131414308,"L"
261480,"6244 PARKSTONE WAY","DALLAS","TX",75249,32.646204041,-96.965829383,480,"6244 PARKSTONE WAY, DALLAS, TX, 75249","Match","Exact","6244 PARKSTONE WAY, DALLAS, TX, 75249",102978843,"L"
261481,"6244 PLASKA AVE","HUNTINGTON PARK","CA",90255,33.982394776,-118.210505495,481,"6244 PLASKA AVE, HUNTINGTON PARK, CA, 90255","Match","Exact","6244 PLASKA AVE, HUNTINGTON PARK, CA, 90255",142763023,"L"
261482,"6244 TINKER STREET","SHREVEPORT","LA",71109,32.4517513980001,-93.800973029,482,"6244 TINKER STREET, SHREVEPORT, LA, 71109","Match","Exact","6244 TINKER ST, SHREVEPORT, LA, 71109",57432358,"R"
261483,"6244 WILD HERON WAY","COLLEGE GROVE","TN",37064,35.823880081,-86.734031341,483,"6244 WILD HERON WAY, COLLEGE GROVE, TN, 37064","Match","Non_Exact","6244 WILD HERON WAY, COLLEGE GROVE, TN, 37046",648196847,"L"
261484,"6245 AERODROME WAY","GEORGETOWN","CA",95634,38.916956853,-120.863843991,484,"6245 AERODROME WAY, GEORGETOWN, CA, 95634","Match","Exact","6245 AERODROME WAY, GEORGETOWN, CA, 95634",633888353,"R"
261485,"6245 AMMONS DRIVE","ARVADA","CO",80004,39.810776425,-105.087157802,485,"6245 AMMONS DRIVE, ARVADA, CO, 80004","Match","Exact","6245 AMMONS DR, ARVADA, CO, 80004",177776641,"L"
261486,"6245 BAYBERRY DRIVE","COLUMBUS","GA",31907,32.467705439,-84.878001365,486,"6245 BAYBERRY DRIVE, COLUMBUS, GA, 31907","Match","Exact","6245 BAYBERRY DR, COLUMBUS, GA, 31907",637355090,"R"
261487,"6245 E TYGARTS ROAD","GREENUP","KY",41144,NA,NA,487,"6245 E TYGARTS ROAD, GREENUP, KY, 41144","No_Match",NA,NA,NA,NA
261488,"6245 NORTH GRATZ STREET","PHILADELPHIA","PA",19141,40.049114172,-75.1497922309999,488,"6245 NORTH GRATZ STREET, PHILADELPHIA, PA, 19141","Match","Exact","6245 N GRATZ ST, PHILADELPHIA, PA, 19141",131413563,"R"
261489,"6245 S POPLAR GROVE ROAD","COLUMBUS","IN",47201,39.1016120900001,-86.112074016,489,"6245 S POPLAR GROVE ROAD, COLUMBUS, IN, 47201","Match","Non_Exact","6245 POPLAR GROOVE RD, COLUMBUS, IN, 47201",633619278,"R"
261490,"6245 SNOWBIRD DRIVE","COLORADO SPRINGS","CO",80918,38.921775084,-104.782909754,490,"6245 SNOWBIRD DRIVE, COLORADO SPRINGS, CO, 80918","Match","Exact","6245 SNOWBIRD DR, COLORADO SPRINGS, CO, 80918",105510189,"L"
261491,"6245 W LEVI AVE","LAS VEGAS","NV",89141,35.9950170490001,-115.228125536,491,"6245 W LEVI AVE, LAS VEGAS, NV, 89141","Match","Exact","6245 W LEVI AVE, LAS VEGAS, NV, 89141",624985118,"R"
261492,"6246 HICKORY LANE CIRCLE","UNION CITY","GA",30291,33.5593957940001,-84.518613236,492,"6246 HICKORY LANE CIRCLE, UNION CITY, GA, 30291","Match","Exact","6246 HICKORY LANE CIR, UNION CITY, GA, 30291",636194409,"L"
261493,"6246 MISSISSIPPI STREET","CAMP LEJEUNE","NC",28547,34.69968956,-77.347706337,493,"6246 MISSISSIPPI STREET, CAMP LEJEUNE, NC, 28547","Match","Exact","6246 MISSISSIPPI ST, CAMP LEJEUNE, NC, 28547",653459958,"L"
261494,"6246 MOSSLINE DRIVE","JACKSON","MS",39211,32.3971878300001,-90.131720102,494,"6246 MOSSLINE DRIVE, JACKSON, MS, 39211","Match","Exact","6246 MOSSLINE DR, JACKSON, MS, 39211",65361007,"L"
261495,"6246 N CAMAC ST","PHILADELPHIA","PA",19141,40.0478607630001,-75.1397400659999,495,"6246 N CAMAC ST, PHILADELPHIA, PA, 19141","Match","Exact","6246 N CAMAC ST, PHILADELPHIA, PA, 19141",131413985,"L"
261496,"6246 NORTH MAPLEWOOD AVE","CHICAGO","IL",60659,41.994908819,-87.693461201,496,"6246 NORTH MAPLEWOOD AVE, CHICAGO, IL, 60659","Match","Exact","6246 N MAPLEWOOD AVE, CHICAGO, IL, 60659",111744717,"L"
261497,"6246 OHM CT","SAN DIEGO","CA",92122,32.853056526,-117.211481882,497,"6246 OHM CT, SAN DIEGO, CA, 92122","Match","Exact","6246 OHM CT, SAN DIEGO, CA, 92122",195302191,"L"
261498,"6246 SPARLING HILLS CIRCLE","ORLANDO","FL",32808,28.6021843730001,-81.4652182629999,498,"6246 SPARLING HILLS CIRCLE, ORLANDO, FL, 32808","Match","Exact","6246 SPARLING HILLS CIR, ORLANDO, FL, 32808",635627474,"R"
261499,"6246 W CERMAK ROAD","BERWYN","IL",60402,41.8508215590001,-87.7802482709999,499,"6246 W CERMAK ROAD, BERWYN, IL, 60402","Match","Exact","6246 CERMAK RD, BERWYN, IL, 60402",111795240,"R"
261500,"6247 KENDRA COURT","STONECREST","GA",30058,33.7209243790001,-84.125209255,500,"6247 KENDRA COURT, STONECREST, GA, 30058","Match","Exact","6247 KENDRA CT, STONECREST, GA, 30058",647247640,"R"
