"ID","Address","City","State","Zip","lat","long","id","input_address","match_indicator","match_type","matched_address","tiger_line_id","tiger_side"
161501,"302 WESTWIND WAY","HELENA","MT",59602,46.618260825,-112.044763324,1,"302 WESTWIND WAY, HELENA, MT, 59602","Match","Exact","302 WESTWIND WAY, HELENA, MT, 59602",202418312,"R"
161502,"302 WILKINS GLEN RD","MEDFIELD","MA",2052,42.1895721170001,-71.301880953,2,"302 WILKINS GLEN RD, MEDFIELD, MA, 2052","Match","Exact","302 WILKINS GLEN RD, MEDFIELD, MA, 02052",87287718,"R"
161503,"302 WILLIAM ST","TROY","AL",36081,NA,NA,3,"302 WILLIAM ST, TROY, AL, 36081","No_Match",NA,NA,NA,NA
161504,"302 WILLOW LANE","NEW HOLLAND","PA",17557,40.105368873,-76.09795399,4,"302 WILLOW LANE, NEW HOLLAND, PA, 17557","Match","Exact","302 WILLOW LN, NEW HOLLAND, PA, 17557",179716336,"L"
161505,"302 WILLOW RUN","EAST STROUDSBURG","PW",18301,NA,NA,5,"302 WILLOW RUN, EAST STROUDSBURG, PW, 18301","No_Match",NA,NA,NA,NA
161506,"302 WILMER AVENUE","RICHMOND","VA",23227,37.6067587480001,-77.431730871,6,"302 WILMER AVENUE, RICHMOND, VA, 23227","Match","Exact","302 WILMER AVE, RICHMOND, VA, 23227",635296067,"L"
161507,"302 WILSON STREET","ERIE","PA",16507,42.138894733,-80.068521774,7,"302 WILSON STREET, ERIE, PA, 16507","Match","Exact","302 WILSON ST, ERIE, PA, 16507",117496739,"R"
161508,"302 WIND RIDGE STREET","ASHEVILLE","NC",28806,35.6043938010001,-82.615879031,8,"302 WIND RIDGE STREET, ASHEVILLE, NC, 28806","Match","Exact","302 WIND RIDGE ST, ASHEVILLE, NC, 28806",607719307,"R"
161509,"302 WINDSONG WAY","WOODSTOCK","GA",30188,34.096069954,-84.5176553969999,9,"302 WINDSONG WAY, WOODSTOCK, GA, 30188","Match","Exact","302 WINDSONG WAY, WOODSTOCK, GA, 30188",617674428,"R"
161510,"302 WINDWARD COVE COURT","GRASONVILLE","MD",21638,38.9072161550001,-76.195371643,10,"302 WINDWARD COVE COURT, GRASONVILLE, MD, 21638","Match","Non_Exact","302 WINDWARD COVE CT N, GRASONVILLE, MD, 21638",68044770,"L"
161511,"302 WOODLAND AVENUE","SMITHVILLE","MO",64089,39.384423844,-94.578798514,11,"302 WOODLAND AVENUE, SMITHVILLE, MO, 64089","Match","Exact","302 WOODLAND AVE, SMITHVILLE, MO, 64089",89749820,"L"
161512,"302-304 HAWTHORNE AVENUE 201","POINT PLEASANT","NJ",8742,40.0948280210001,-74.049143223,12,"302-304 HAWTHORNE AVENUE 201, POINT PLEASANT, NJ, 8742","Match","Exact","302 HAWTHORNE AVE, PT PLEASANT, NJ, 08742",647004607,"L"
161513,"302","PLEASANT HILL","LA",71065,NA,NA,13,"302, PLEASANT HILL, LA, 71065","No_Match",NA,NA,NA,NA
161514,"3020 125TH AVE SE UNIT 8","BELLEVUE","WA",98005,47.583101566,-122.17316042,14,"3020 125TH AVE SE UNIT 8, BELLEVUE, WA, 98005","Match","Exact","3020 125TH AVE SE, BELLEVUE, WA, 98005",186998836,"L"
161515,"3020 21 AVE","ST PETERSBURG","FL",33712,27.7493053430001,-82.6736921309999,15,"3020 21 AVE, ST PETERSBURG, FL, 33712","Match","Non_Exact","3020 21ST AVE S, SAINT PETERSBURG, FL, 33712",124709856,"L"
161516,"3020 BARRIOS AVE","ORLANDO","FL",32811,28.511204524,-81.438317164,16,"3020 BARRIOS AVE, ORLANDO, FL, 32811","Match","Exact","3020 BARRIOS AVE, ORLANDO, FL, 32811",94274140,"R"
161517,"3020 BEAVER CREEK ROAD","LAUREL","MD",20724,39.1144777910001,-76.804595358,17,"3020 BEAVER CREEK ROAD, LAUREL, MD, 20724","Match","Exact","3020 BEAVER CREEK RD, LAUREL, MD, 20724",68204310,"R"
161518,"3020 BERNAL AVE SUITE 110 PMB 125","PLEASANTON","CA",94566,NA,NA,18,"3020 BERNAL AVE SUITE 110 PMB 125, PLEASANTON, CA, 94566","No_Match",NA,NA,NA,NA
161519,"3020 BRIGHTON BLUFF DRIVE","APEX","NC",27539,35.6432786500001,-78.729080154,19,"3020 BRIGHTON BLUFF DRIVE, APEX, NC, 27539","Match","Exact","3020 BRIGHTON BLUFF DR, APEX, NC, 27539",646854679,"R"
161520,"3020 CANFIELD","DETROIT","MI",48207,NA,NA,20,"3020 CANFIELD, DETROIT, MI, 48207","No_Match",NA,NA,NA,NA
161521,"3020 CANNONADE DR","PENSACOLA","FL",32506,30.358992357,-87.4016123339999,21,"3020 CANNONADE DR, PENSACOLA, FL, 32506","Match","Exact","3020 CANNONADE DR, PENSACOLA, FL, 32506",93209211,"L"
161522,"3020 CARBON PLACE SUITE 200","BOULDER","CO",80301,40.026366056,-105.252478844,22,"3020 CARBON PLACE SUITE 200, BOULDER, CO, 80301","Match","Exact","3020 CARBON PL, BOULDER, CO, 80301",188234045,"R"
161523,"3020 CLEAR LAKE WAY STE B432","INDIANAPOLIS","IN",46227,39.7052436160001,-86.112544599,23,"3020 CLEAR LAKE WAY STE B432, INDIANAPOLIS, IN, 46227","Match","Exact","3020 CLEAR LAKE WAY, INDIANAPOLIS, IN, 46227",108009005,"R"
161524,"3020 COLERAIN AVE SUITE B","CINCINNATTI","OH",45225,39.1382012110001,-84.5377264799999,24,"3020 COLERAIN AVE SUITE B, CINCINNATTI, OH, 45225","Match","Non_Exact","3020 COLERAIN AVE, CINCINNATI, OH, 45225",103922840,"R"
161525,"3020 CURRY RD","IMMOKALEE","FL",34143,26.43650045,-81.451103331,25,"3020 CURRY RD, IMMOKALEE, FL, 34143","Match","Non_Exact","3020 CURRY RD, IMMOKALEE, FL, 34142",115230413,"L"
161526,"3020 EDINBURGH DRIVE","VIRGINIA BEACH","VA",23452,36.8518053010001,-76.0756163199999,26,"3020 EDINBURGH DRIVE, VIRGINIA BEACH, VA, 23452","Match","Exact","3020 EDINBURGH DR, VA BCH, VA, 23452",643162971,"R"
161527,"3020 FAIRLAND DRIVE","HIGHLAND VILLAGE","TX",75077,33.081935146,-97.0776068229999,27,"3020 FAIRLAND DRIVE, HIGHLAND VILLAGE, TX, 75077","Match","Exact","3020 FAIRLAND DR, HIGHLAND VILLAGE, TX, 75077",638517714,"L"
161528,"3020 FREEPORT BLVD","SACRAMENTO","CA",95818,38.549898779,-121.489118247,28,"3020 FREEPORT BLVD, SACRAMENTO, CA, 95818","Match","Exact","3020 FREEPORT BLVD, SACRAMENTO, CA, 95818",645245904,"R"
161529,"3020 GARNET DR","BATON ROUGE","LA",70805,30.4771219780001,-91.131122937,29,"3020 GARNET DR, BATON ROUGE, LA, 70805","Match","Exact","3020 GARNET DR, BATON ROUGE, LA, 70805",92188567,"R"
161530,"3020 GILLHAM ROAD APT 107","KANSAS CITY","MO",64108,39.0721442770001,-94.578826958,30,"3020 GILLHAM ROAD APT 107, KANSAS CITY, MO, 64108","Match","Exact","3020 GILLHAM RD, KANSAS CITY, MO, 64108",91446323,"R"
161531,"3020 GLASTONBURY DR","VIRGINIA BEACH","VA",23453,36.779883064,-76.074489655,31,"3020 GLASTONBURY DR, VIRGINIA BEACH, VA, 23453","Match","Exact","3020 GLASTONBURY DR, VIRGINIA BCH, VA, 23453",122270070,"R"
161532,"3020 GRAMERCY CV","LAKELAND","TN",38002,35.208106382,-89.757514167,32,"3020 GRAMERCY CV, LAKELAND, TN, 38002","Match","Exact","3020 GRAMERCY COVE, LAKELAND, TN, 38002",72931178,"R"
161533,"3020 HARTLEY ROAD STE 100-A","JACKSONVILLE","FL",32257,30.1855888900001,-81.630240075,33,"3020 HARTLEY ROAD STE 100-A, JACKSONVILLE, FL, 32257","Match","Exact","3020 HARTLEY RD, JACKSONVILLE, FL, 32257",83960697,"R"
161534,"3020 HARTLEY ROAD SUITE 300","JACKSONVILLE","FL",32257,30.1855888900001,-81.630240075,34,"3020 HARTLEY ROAD SUITE 300, JACKSONVILLE, FL, 32257","Match","Exact","3020 HARTLEY RD, JACKSONVILLE, FL, 32257",83960697,"R"
161535,"3020 HINSEL DR","COLUMBUS","OH",43232,39.9190343660001,-82.835894959,35,"3020 HINSEL DR, COLUMBUS, OH, 43232","Match","Exact","3020 HINSEL DR, COLUMBUS, OH, 43232",135752298,"L"
161536,"3020 HWY 55 W","KINSTON","NC",28504,NA,NA,36,"3020 HWY 55 W, KINSTON, NC, 28504","No_Match",NA,NA,NA,NA
161537,"3020 I PROSPERITY CHURCH RD NUM 521","CHARLOTTE","NC",28269,35.3419178840001,-80.7681691939999,37,"3020 I PROSPERITY CHURCH RD NUM 521, CHARLOTTE, NC, 28269","Match","Exact","3020 PROSPERITY CHURCH RD, CHARLOTTE, NC, 28269",619612702,"L"
161538,"3020 I PROSPERITY CHURCH RD","CHARLOTTE","NC",28269,35.341905668,-80.768149286,38,"3020 I PROSPERITY CHURCH RD, CHARLOTTE, NC, 28269","Match","Exact","3020 PROSPERITY CHURCH RD, CHARLOTTE, NC, 28269",619612702,"L"
161539,"3020 I PROSPERITY CHURCH ROAD /601","CHARLOTTE","NC",28269,35.3419178840001,-80.7681691939999,39,"3020 I PROSPERITY CHURCH ROAD /601, CHARLOTTE, NC, 28269","Match","Exact","3020 PROSPERITY CHURCH RD, CHARLOTTE, NC, 28269",619612702,"L"
161540,"3020 IDLEWILD DR","RENO","NV",89509,39.5148202340001,-119.847190163,40,"3020 IDLEWILD DR, RENO, NV, 89509","Match","Exact","3020 IDLEWILD DR, RENO, NV, 89509",107044148,"L"
161541,"3020 INDIGO TRAIL","ROUND ROCK","TX",78665,30.5149057030001,-97.61711451,41,"3020 INDIGO TRAIL, ROUND ROCK, TX, 78665","Match","Exact","3020 INDIGO TRL, ROUND ROCK, TX, 78665",126476334,"L"
161542,"3020 ISSAQUAH-PINE LK RD PMB 222","SAMMAMISH","WA",98075,NA,NA,42,"3020 ISSAQUAH-PINE LK RD PMB 222, SAMMAMISH, WA, 98075","No_Match",NA,NA,NA,NA
161543,"3020 KADALA PL","FALLS CHURCH","VA",22042,38.8684965900001,-77.1904817779999,43,"3020 KADALA PL, FALLS CHURCH, VA, 22042","Match","Exact","3020 KADALA PL, FALLS CHURCH, VA, 22042",76062709,"R"
161544,"3020 LEEDS GARDEN LN","JOHNS CREEK","GA",30022,34.0176326210001,-84.272078542,44,"3020 LEEDS GARDEN LN, JOHNS CREEK, GA, 30022","Match","Exact","3020 LEEDS GARDEN LN, JOHNS CREEK, GA, 30022",17418838,"L"
161545,"3020 LIBERTY CIRCLE NORTH","LAS VEGAS","NV",89121,36.139934716,-115.108818352,45,"3020 LIBERTY CIRCLE NORTH, LAS VEGAS, NV, 89121","Match","Exact","3020 LIBERTY CIR N, LAS VEGAS, NV, 89121",201871671,"L"
161546,"3020 MAPLE DRIVE","REEDSPORT","OR",97467,43.688926898,-124.131916103,46,"3020 MAPLE DRIVE, REEDSPORT, OR, 97467","Match","Exact","3020 MAPLE DR, REEDSPORT, OR, 97467",613838966,"R"
161547,"3020 MARTIN LUTHER KING JR AVE","KNOXVILLE","TN",37914,35.992120239,-83.886173791,47,"3020 MARTIN LUTHER KING JR AVE, KNOXVILLE, TN, 37914","Match","Exact","3020 MARTIN LUTHER KING JR AVE, KNOXVILLE, TN, 37914",42623386,"R"
161548,"3020 NORTHWEST LOOP","STEPHENVILLE","TX",76401,32.2048194230001,-98.247277825,48,"3020 NORTHWEST LOOP, STEPHENVILLE, TX, 76401","Match","Exact","3020 NORTHWEST LOOP, STEPHENVILLE, TX, 76401",158515666,"R"
161549,"3020 OCOTILLO CT","LAS VEGAS","NV",89121,36.1345954130001,-115.111584533,49,"3020 OCOTILLO CT, LAS VEGAS, NV, 89121","Match","Exact","3020 OCOTILLO CT, LAS VEGAS, NV, 89121",201871532,"L"
161550,"3020 OLD RANCH PARKWAY SUITE 300","SEAL BEACH","CA",90740,33.776433911,-118.074191684,50,"3020 OLD RANCH PARKWAY SUITE 300, SEAL BEACH, CA, 90740","Match","Non_Exact","3020 OLD RANCH PKWY, SEAL BEACH, CA, 90740",144259825,"L"
161551,"3020 OLSON CIRCLE","BRYANT","AR",72022,NA,NA,51,"3020 OLSON CIRCLE, BRYANT, AR, 72022","No_Match",NA,NA,NA,NA
161552,"3020 PARK BLVD","ODESSA","TX",79763,31.8425530810001,-102.405933702,52,"3020 PARK BLVD, ODESSA, TX, 79763","Match","Exact","3020 PARK BLVD, ODESSA, TX, 79763",139426584,"R"
161553,"3020 PROSPERITY CHURCH RD SU 500","CHARLOTTE","NC",28269,35.341905668,-80.768149286,53,"3020 PROSPERITY CHURCH RD SU 500, CHARLOTTE, NC, 28269","Match","Exact","3020 PROSPERITY CHURCH RD, CHARLOTTE, NC, 28269",619612702,"L"
161554,"3020 PROSPERITY CHURCH RD SUITE 104","CHARLOTTE","NC",28269,35.341905668,-80.768149286,54,"3020 PROSPERITY CHURCH RD SUITE 104, CHARLOTTE, NC, 28269","Match","Exact","3020 PROSPERITY CHURCH RD, CHARLOTTE, NC, 28269",619612702,"L"
161555,"3020 PROSPERITY CHURCH ROAD 161","CHARLOTTE","NC",28269,35.341905668,-80.768149286,55,"3020 PROSPERITY CHURCH ROAD 161, CHARLOTTE, NC, 28269","Match","Exact","3020 PROSPERITY CHURCH RD, CHARLOTTE, NC, 28269",619612702,"L"
161556,"3020 PROSPERITY CHURCH ROAD I263","CHARLOTTE","NC",28269,35.341905668,-80.768149286,56,"3020 PROSPERITY CHURCH ROAD I263, CHARLOTTE, NC, 28269","Match","Exact","3020 PROSPERITY CHURCH RD, CHARLOTTE, NC, 28269",619612702,"L"
161557,"3020 PROSPERITY CHURCH ROAD","CHARLOTTE","NC",28269,35.341905668,-80.768149286,57,"3020 PROSPERITY CHURCH ROAD, CHARLOTTE, NC, 28269","Match","Exact","3020 PROSPERITY CHURCH RD, CHARLOTTE, NC, 28269",619612702,"L"
161558,"3020 REDEMEYER RD","UKIAH","CA",95482,39.190694341,-123.193518759,58,"3020 REDEMEYER RD, UKIAH, CA, 95482","Match","Exact","3020 REDEMEYER RD, UKIAH, CA, 95482",67309776,"L"
161559,"3020 RIDGE DR","TOANO","VA",23168,37.436105797,-76.814444694,59,"3020 RIDGE DR, TOANO, VA, 23168","Match","Exact","3020 RIDGE DR, TOANO, VA, 23168",103776642,"R"
161560,"3020 RINER RD","CHRISTIANSBURG","VA",24073,37.093327715,-80.448217184,60,"3020 RINER RD, CHRISTIANSBURG, VA, 24073","Match","Exact","3020 RINER RD, CHRISTIANSBURG, VA, 24073",238915780,"R"
161561,"3020 S MIAMI BLVD","DURHAM","NC",27703,35.925310091,-78.84611018,61,"3020 S MIAMI BLVD, DURHAM, NC, 27703","Match","Exact","3020 S MIAMI BLVD, DURHAM, NC, 27703",640627851,"L"
161562,"3020 S RUTHERFORD BLVD APT B2","MURFREESBORO","TN",37130,35.836087503,-86.350897365,62,"3020 S RUTHERFORD BLVD APT B2, MURFREESBORO, TN, 37130","Match","Non_Exact","3020 S RUTHERFORD BLVD, MURFREESBORO, TN, 37130",59033078,"R"
161563,"3020 SOUTH MIAMI BLVD","DURHAM","NC",27703,35.92532025,-78.846105085,63,"3020 SOUTH MIAMI BLVD, DURHAM, NC, 27703","Match","Exact","3020 S MIAMI BLVD, DURHAM, NC, 27703",640627851,"L"
161564,"3020 SOUTH MIAMI BOULEVARD","DURHAM","NC",27713,35.92532025,-78.846105085,64,"3020 SOUTH MIAMI BOULEVARD, DURHAM, NC, 27713","Match","Non_Exact","3020 S MIAMI BLVD, DURHAM, NC, 27703",640627851,"L"
161565,"3020 SW 111 AVENUE","MIAMI","FM",33165,NA,NA,65,"3020 SW 111 AVENUE, MIAMI, FM, 33165","No_Match",NA,NA,NA,NA
161566,"3020 W 108TH ST","CHICAGO","IL",60655,41.6970962300001,-87.697174934,66,"3020 W 108TH ST, CHICAGO, IL, 60655","Match","Exact","3020 W 108TH ST, CHICAGO, IL, 60655",111822276,"R"
161567,"3020 W 69TH STREET","MISSION HILLS","KS",66208,39.004819044,-94.6206429009999,67,"3020 W 69TH STREET, MISSION HILLS, KS, 66208","Match","Exact","3020 W 69TH ST, MISSION HILLS, KS, 66208",91298343,"R"
161568,"3020 W HARBOR VIEW AVE","TAMPA","FL",33611,27.902302026,-82.491962665,68,"3020 W HARBOR VIEW AVE, TAMPA, FL, 33611","Match","Exact","3020 W HARBOR VIEW AVE, TAMPA, FL, 33611",104608666,"L"
161569,"3020 W WILLOW KNOLLS ROAD","PEORIA,","IL",61614,40.776368489,-89.6394448519999,69,"3020 W WILLOW KNOLLS ROAD, PEORIA,, IL, 61614","Match","Non_Exact","3020 W WILLOW KNOLLS DR, PEORIA, IL, 61614",8711751,"L"
161570,"3020 WALL ST","FORESTPORT","NY",13338,43.434711083,-75.198681081,70,"3020 WALL ST, FORESTPORT, NY, 13338","Match","Exact","3020 WALL ST, FORESTPORT, NY, 13338",171584273,"L"
161571,"3020 WARDS FERRY RD","LYNCHBURG","VA",24502,NA,NA,71,"3020 WARDS FERRY RD, LYNCHBURG, VA, 24502","No_Match",NA,NA,NA,NA
161572,"3020 WILSHIRE BLVD STE 100","LOS ANGELES","CA",90010,34.0618154900001,-118.28690994,72,"3020 WILSHIRE BLVD STE 100, LOS ANGELES, CA, 90010","Match","Exact","3020 WILSHIRE BLVD, LOS ANGELES, CA, 90010",141605030,"L"
161573,"3020 WILSON STREET","BAKER","LA",70714,30.591573387,-91.168755291,73,"3020 WILSON STREET, BAKER, LA, 70714","Match","Exact","3020 WILSON ST, BAKER, LA, 70714",92177986,"R"
161574,"3020 WOODCREEK SUITE C2","DOWNERS GROVE","IL",60515,41.8310934780001,-88.035526892,74,"3020 WOODCREEK SUITE C2, DOWNERS GROVE, IL, 60515","Match","Non_Exact","3020 WOOD CREEK DR, DOWNERS GROVE, IL, 60515",112564394,"L"
161575,"30201 SW 172 AVE","MIAMI","FL",33030,25.484682945,-80.469115495,75,"30201 SW 172 AVE, MIAMI, FL, 33030","Match","Non_Exact","30201 SW 172ND AVE, HOMESTEAD, FL, 33030",115991730,"L"
161576,"30203 GOODWICK WAY","WESLEY CHAPEL","FL",33543,28.173132024,-82.3165086,76,"30203 GOODWICK WAY, WESLEY CHAPEL, FL, 33543","Match","Exact","30203 GOODWICK WAY, WESLEY CHAPEL, FL, 33543",632511635,"L"
161577,"30205 ALGER BLVD","MADISON HEIGHTS","MI",48071,42.513717824,-83.108544244,77,"30205 ALGER BLVD, MADISON HEIGHTS, MI, 48071","Match","Non_Exact","30205 ALGER ST, MADISON HEIGHTS, MI, 48071",69744930,"L"
161578,"30205 BRADMORE RD","WARREN","MI",48092,42.515171636,-83.054825794,78,"30205 BRADMORE RD, WARREN, MI, 48092","Match","Exact","30205 BRADMORE RD, WARREN, MI, 48092",633745682,"R"
161579,"30206 LOBLOLLY CR","SPANISH FORT","AL",36527,30.665221398,-87.8794606279999,79,"30206 LOBLOLLY CR, SPANISH FORT, AL, 36527","Match","Exact","30206 LOBLOLLY CIR, SPANISH FORT, AL, 36527",131698049,"R"
161580,"30206 SCHLICHT RD","NETTLETON","MS",38858,34.0596021800001,-88.6782127339999,80,"30206 SCHLICHT RD, NETTLETON, MS, 38858","Match","Exact","30206 SCHLICHT RD, NETTLETON, MS, 38858",651711824,"L"
161581,"30206 W SHEILA LANE","BUCKEYE","AZ",85396,33.48882939,-112.700068318,81,"30206 W SHEILA LANE, BUCKEYE, AZ, 85396","Match","Exact","30206 W SHEILA LN, BUCKEYE, AZ, 85396",627842430,"R"
161582,"30208 CRESTLINE DRIVE","BAY VILLAGE","OH",44140,NA,NA,82,"30208 CRESTLINE DRIVE, BAY VILLAGE, OH, 44140","No_Match",NA,NA,NA,NA
161583,"3021  SOUTH VALLEY VIEW   STE 209","LAS VEGAS","NV",89102,36.1359488460001,-115.190459903,83,"3021  SOUTH VALLEY VIEW   STE 209, LAS VEGAS, NV, 89102","Match","Non_Exact","3021 S VALLEY VIEW BLVD, LAS VEGAS, NV, 89102",201869324,"R"
161584,"3021 28TH STREET","SAN DIEGO","CA",92104,32.7366970050001,-117.133614867,84,"3021 28TH STREET, SAN DIEGO, CA, 92104","Match","Exact","3021 28TH ST, SAN DIEGO, CA, 92104",195345893,"R"
161585,"3021 2ND ST APT 6","SANTA MONICA","CA",90405,33.9989279930001,-118.479299917,85,"3021 2ND ST APT 6, SANTA MONICA, CA, 90405","Match","Exact","3021 2ND ST, SANTA MONICA, CA, 90405",141559953,"L"
161586,"3021 7TH AVE S","MOUNTAIN BRK","AL",35213,NA,NA,86,"3021 7TH AVE S, MOUNTAIN BRK, AL, 35213","No_Match",NA,NA,NA,NA
161587,"3021 AIRPORT-PULLING RD N STE 202","NAPLES","FL",34105,NA,NA,87,"3021 AIRPORT-PULLING RD N STE 202, NAPLES, FL, 34105","No_Match",NA,NA,NA,NA
161588,"3021 ANNA RD","ANNAPOLIS","MD",21403,NA,NA,88,"3021 ANNA RD, ANNAPOLIS, MD, 21403","No_Match",NA,NA,NA,NA
161589,"3021 BALES AVE","KANSAS CITY","MO",64128,39.0708735090001,-94.54239368,89,"3021 BALES AVE, KANSAS CITY, MO, 64128","Match","Exact","3021 BALES AVE, KANSAS CITY, MO, 64128",91450286,"L"
161590,"3021 BONNEVILLE DRIVE","MACON","GA",31204,32.833427267,-83.671110626,90,"3021 BONNEVILLE DRIVE, MACON, GA, 31204","Match","Non_Exact","3021 BONNIEVILLE DR, MACON, GA, 31204",650739975,"R"
161591,"3021 CHELSEA PARK RIDGE","CHELSEA","AL",35043,33.3424481320001,-86.5911210099999,91,"3021 CHELSEA PARK RIDGE, CHELSEA, AL, 35043","Match","Exact","3021 CHELSEA PARK RIDGE, CHELSEA, AL, 35043",635823997,"L"
161592,"3021 CITRUS CIRCLE SUITE 110","WALNUT CREEK","CA",94598,37.928723899,-122.014739276,92,"3021 CITRUS CIRCLE SUITE 110, WALNUT CREEK, CA, 94598","Match","Exact","3021 CITRUS CIR, WALNUT CREEK, CA, 94598",627323365,"R"
161593,"3021 COUNTRY CLUB HILLS DRIVE","NORTH AUGUSTA","SC",29860,33.5717665490001,-81.972012437,93,"3021 COUNTRY CLUB HILLS DRIVE, NORTH AUGUSTA, SC, 29860","Match","Exact","3021 COUNTRY CLUB HILLS DR, NORTH AUGUSTA, SC, 29860",55850252,"L"
161594,"3021 DARROW STREET","MEMPHIS","TN",38118,35.0655665090001,-89.8878497439999,94,"3021 DARROW STREET, MEMPHIS, TN, 38118","Match","Exact","3021 DARROW ST, MEMPHIS, TN, 38118",72928054,"R"
161595,"3021 DUMBARTON ROAD","MEMPHIS","TN",38128,35.2084167370001,-89.960890186,95,"3021 DUMBARTON ROAD, MEMPHIS, TN, 38128","Match","Non_Exact","3021 DUMBARTON AVE, MEMPHIS, TN, 38128",72911495,"R"
161596,"3021 E WAVERLY ST","TUCSON","AZ",85716,32.2459676880001,-110.927829447,96,"3021 E WAVERLY ST, TUCSON, AZ, 85716","Match","Exact","3021 E WAVERLY ST, TUCSON, AZ, 85716",121173979,"L"
161597,"3021 EDWARD MILLS ROAD 121-724","RALEIGH","NC",27612,NA,NA,97,"3021 EDWARD MILLS ROAD 121-724, RALEIGH, NC, 27612","No_Match",NA,NA,NA,NA
161598,"3021 ENSIGN AVE S","SAINT LOUIS PARK","MN",55426,44.94830117,-93.39471601,98,"3021 ENSIGN AVE S, SAINT LOUIS PARK, MN, 55426","Match","Exact","3021 ENSIGN AVE S, SAINT LOUIS PARK, MN, 55426",43827294,"L"
161599,"3021 FALLSTAFF ROAD UNIT 503","BALTIMORE","MD",21209,39.3694047990001,-76.691407623,99,"3021 FALLSTAFF ROAD UNIT 503, BALTIMORE, MD, 21209","Match","Exact","3021 FALLSTAFF RD, BALTIMORE, MD, 21209",206404426,"L"
161600,"3021 GILBOA RD","WINGATE","NC",28174,34.9518069220001,-80.427364107,100,"3021 GILBOA RD, WINGATE, NC, 28174","Match","Exact","3021 GILBOA RD, WINGATE, NC, 28174",14176697,"R"
161601,"3021 GRAND MISSION WAY","PFLUGERVILLE","TX",78660,30.4584387300001,-97.583824475,101,"3021 GRAND MISSION WAY, PFLUGERVILLE, TX, 78660","Match","Exact","3021 GRAND MISSION WAY, PFLUGERVILLE, TX, 78660",617952051,"R"
161602,"3021 HAMPSHIRE PIKE","MT PLEASANT","TN",38474,NA,NA,102,"3021 HAMPSHIRE PIKE, MT PLEASANT, TN, 38474","No_Match",NA,NA,NA,NA
161603,"3021 HEBRON DRIVE","PITTSBURGH","PA",15235,40.4595603330001,-79.851578106,103,"3021 HEBRON DRIVE, PITTSBURGH, PA, 15235","Match","Exact","3021 HEBRON DR, PITTSBURGH, PA, 15235",51666869,"L"
161604,"3021 KUMQUAT DRIVE","EDGEWATER","FL",32141,28.9458489720001,-80.895342982,104,"3021 KUMQUAT DRIVE, EDGEWATER, FL, 32141","Match","Exact","3021 KUMQUAT DR, EDGEWATER, FL, 32141",94534950,"L"
161605,"3021 MCNAUGHTON DR","COLUMBIA","SC",29223,34.071544637,-80.945711086,105,"3021 MCNAUGHTON DR, COLUMBIA, SC, 29223","Match","Exact","3021 MCNAUGHTON DR, COLUMBIA, SC, 29223",604756197,"L"
161606,"3021 MEMORIAL DRIVE","ATLANTA","GA",30317,33.747101501,-84.287271241,106,"3021 MEMORIAL DRIVE, ATLANTA, GA, 30317","Match","Non_Exact","3021 MEMORIAL DR SE, ATLANTA, GA, 30317",23367702,"R"
161607,"3021 MONROE AVENUE","KANSAS CITY","MO",64128,39.0708061980001,-94.540138498,107,"3021 MONROE AVENUE, KANSAS CITY, MO, 64128","Match","Exact","3021 MONROE AVE, KANSAS CITY, MO, 64128",91451216,"L"
161608,"3021 N GAIA PLACE","TUCSON","AZ",85745,32.2619660660001,-111.030647254,108,"3021 N GAIA PLACE, TUCSON, AZ, 85745","Match","Exact","3021 N GAIA PL, TUCSON, AZ, 85745",121412821,"R"
161609,"3021 N PEARY ST","ARLINGTON","VA",22207,38.917291085,-77.113293945,109,"3021 N PEARY ST, ARLINGTON, VA, 22207","Match","Exact","3021 N PEARY ST, ARLINGTON, VA, 22207",76466264,"R"
161610,"3021 NE 29TH","OKLAHOMA CITY","OK",73121,35.499478223,-97.458671354,110,"3021 NE 29TH, OKLAHOMA CITY, OK, 73121","Match","Non_Exact","3021 NE 29TH ST, OKLAHOMA CITY, OK, 73121",100412267,"L"
161611,"3021 NE 72ND DR STE 9 PMB 148","VANCOUVER","WA",98661,NA,NA,111,"3021 NE 72ND DR STE 9 PMB 148, VANCOUVER, WA, 98661","No_Match",NA,NA,NA,NA
161612,"3021 NE 72ND DR STE 9-44","VANCOUVER","WA",98661,NA,NA,112,"3021 NE 72ND DR STE 9-44, VANCOUVER, WA, 98661","No_Match",NA,NA,NA,NA
161613,"3021 NE GLACIER WAY","CORVALLIS","OR",97330,44.5984363590001,-123.235670177,113,"3021 NE GLACIER WAY, CORVALLIS, OR, 97330","Match","Exact","3021 NE GLACIER WAY, CORVALLIS, OR, 97330",155862325,"R"
161614,"3021 NE QUIET CANYON DRIVE","BEND","OR",97701,44.081140539,-121.285177264,114,"3021 NE QUIET CANYON DRIVE, BEND, OR, 97701","Match","Exact","3021 NE QUIET CANYON DR, BEND, OR, 97701",618404594,"L"
161615,"3021 NUTTING DR","DALLAS","TX",75227,32.7635988810001,-96.7067667329999,115,"3021 NUTTING DR, DALLAS, TX, 75227","Match","Exact","3021 NUTTING DR, DALLAS, TX, 75227",103197203,"L"
161616,"3021 OLD DOMINION COURT","FORT COLLINS","CO",80528,40.506086752,-105.021614998,116,"3021 OLD DOMINION COURT, FORT COLLINS, CO, 80528","Match","Exact","3021 OLD DOMINION CT, FORT COLLINS, CO, 80528",617920104,"R"
161617,"3021 PICO BLVD SUITE B","SANTA MONICA","CA",90405,34.025385041,-118.458253501,117,"3021 PICO BLVD SUITE B, SANTA MONICA, CA, 90405","Match","Exact","3021 PICO BLVD, SANTA MONICA, CA, 90405",141568620,"L"
161618,"3021 RED CEDAR LN UNIT 301","KISSIMMEE","FL",34744,NA,NA,118,"3021 RED CEDAR LN UNIT 301, KISSIMMEE, FL, 34744","No_Match",NA,NA,NA,NA
161619,"3021 RIDGE RD SUITE 283","ROCKWALL","TX",75032,NA,NA,119,"3021 RIDGE RD SUITE 283, ROCKWALL, TX, 75032","No_Match",NA,NA,NA,NA
161620,"3021 RUE SANS FAMILLE","RALEIGH","NC",27607,35.822958553,-78.687221086,120,"3021 RUE SANS FAMILLE, RALEIGH, NC, 27607","Match","Exact","3021 RUE SANS FAMILLE, RALEIGH, NC, 27607",72535630,"L"
161621,"3021 S BYRON ST B","SEATTLE","WA",98144,47.57405171,-122.294442299,121,"3021 S BYRON ST B, SEATTLE, WA, 98144","Match","Non_Exact","3021 S BYRON ST, SEATTLE, WA, 98144",186994007,"R"
161622,"3021 S TRUEMPER ST BUILDING 16000","JBSA LACKLAND","TX",78243,NA,NA,122,"3021 S TRUEMPER ST BUILDING 16000, JBSA LACKLAND, TX, 78243","No_Match",NA,NA,NA,NA
161623,"3021 SCOUT PONY DR","LEANDER","TX",78641,30.527048612,-97.873141486,123,"3021 SCOUT PONY DR, LEANDER, TX, 78641","Match","Exact","3021 SCOUT PONY DR, LEANDER, TX, 78641",648999937,"R"
161624,"3021 SHERMAN LINE RD","MAGNOLIA","MS",39652,NA,NA,124,"3021 SHERMAN LINE RD, MAGNOLIA, MS, 39652","No_Match",NA,NA,NA,NA
161625,"3021 ST MARIE STREET","MEREAUX","LA",70075,29.9372213400001,-89.916012968,125,"3021 ST MARIE STREET, MEREAUX, LA, 70075","Match","Non_Exact","3021 ST MARIE DR, MERAUX, LA, 70075",111189907,"L"
161626,"3021 STATE ROAD 590 SUITE 201","CLEARWATER","FL",33759,NA,NA,126,"3021 STATE ROAD 590 SUITE 201, CLEARWATER, FL, 33759","No_Match",NA,NA,NA,NA
161627,"3021 SW BRADFORT STREET APT 318","SEATTLE","WA",98126,47.5692133370001,-122.371535196,127,"3021 SW BRADFORT STREET APT 318, SEATTLE, WA, 98126","Match","Non_Exact","3021 SW BRADFORD ST, SEATTLE, WA, 98126",187084566,"L"
161628,"3021 SW MEADOW RIDGE DRIVE","ANKENY","IA",50023,41.698722069,-93.6418035039999,128,"3021 SW MEADOW RIDGE DRIVE, ANKENY, IA, 50023","Match","Exact","3021 SW MEADOW RIDGE DR, ANKENY, IA, 50023",65864415,"L"
161629,"3021 WASHINGTON RD","EAST POINT","GA",30344,33.6728091640001,-84.456514171,129,"3021 WASHINGTON RD, EAST POINT, GA, 30344","Match","Exact","3021 WASHINGTON RD, EAST POINT, GA, 30344",17347362,"R"
161630,"3021 WEST TOWER AVENUE","CINCINNATI","OH",45238,39.1325719550001,-84.601597779,130,"3021 WEST TOWER AVENUE, CINCINNATI, OH, 45238","Match","Exact","3021 W TOWER AVE, CINCINNATI, OH, 45238",103917790,"L"
161631,"3021 WOODCREEK WAY","BLOOMFIELD HILLS","MI",48304,42.597135822,-83.23863382,131,"3021 WOODCREEK WAY, BLOOMFIELD HILLS, MI, 48304","Match","Exact","3021 WOODCREEK WAY, BLOOMFIELD HILLS, MI, 48304",69762092,"L"
161632,"3021 WYECLIFF WAY","HIGHLANDS RANCH","CO",80126,39.5344249730001,-104.95264759,132,"3021 WYECLIFF WAY, HIGHLANDS RANCH, CO, 80126","Match","Non_Exact","3021 E WYECLIFF WAY, HIGHLANDS RANCH, CO, 80126",130818345,"R"
161633,"30210 CHERET PLACE","RANCHO PALOS VERDES","CA",90275,33.7563832000001,-118.390833423,133,"30210 CHERET PLACE, RANCHO PALOS VERDES, CA, 90275","Match","Exact","30210 CHERET PL, RANCHO PALOS VERDES, CA, 90275",141585614,"L"
161634,"30210 MESA VALLEY DR","SPRING","TX",77386,30.1290150720001,-95.38798349,134,"30210 MESA VALLEY DR, SPRING, TX, 77386","Match","Exact","30210 MESA VALLEY DR, SPRING, TX, 77386",614128236,"L"
161635,"30211 35TH AVE SW","FEDERAL WAY","WA",98023,NA,NA,135,"30211 35TH AVE SW, FEDERAL WAY, WA, 98023","No_Match",NA,NA,NA,NA
161636,"30213 VIA BORICA","RANCHO PALOS VERDES","CA",90275,33.76045715,-118.40830471,136,"30213 VIA BORICA, RANCHO PALOS VERDES, CA, 90275","Match","Exact","30213 VIA BORICA, RANCHO PALOS VERDES, CA, 90275",142694574,"R"
161637,"3022 47TH AVE SO","ST PETERSBURG FL","FL",33712,27.7256055720001,-82.6739596629999,137,"3022 47TH AVE SO, ST PETERSBURG FL, FL, 33712","Match","Non_Exact","3022 47TH AVE S, SAINT PETERSBURG, FL, 33712",124709999,"L"
161638,"3022 8TH STREET SE","WASHINGTON","DC",20032,38.8446939130001,-76.994696792,138,"3022 8TH STREET SE, WASHINGTON, DC, 20032","Match","Exact","3022 8TH ST SE, WASHINGTON, DC, 20032",76232342,"L"
161639,"3022 AYLESWORTH COURT","KATY","TX",77494,29.738275795,-95.78676945,139,"3022 AYLESWORTH COURT, KATY, TX, 77494","Match","Exact","3022 AYLESWORTH CT, KATY, TX, 77494",624814592,"L"
161640,"3022 CREEKBEND OVERLOOK","DOUGLAS","GA",30135,33.687803451,-84.6773793949999,140,"3022 CREEKBEND OVERLOOK, DOUGLAS, GA, 30135","Match","Non_Exact","3022 CREEKBEND OVERLOOK, DOUGLASVILLE, GA, 30135",618464541,"R"
161641,"3022 DISSTON ST","PHILADELPHIA","PA",19149,40.0372408280001,-75.054786561,141,"3022 DISSTON ST, PHILADELPHIA, PA, 19149","Match","Exact","3022 DISSTON ST, PHILADELPHIA, PA, 19149",131434828,"R"
161642,"3022 ELLIOTT STREET","SAN DIEGO","CA",92106,32.7402028280001,-117.216359513,142,"3022 ELLIOTT STREET, SAN DIEGO, CA, 92106","Match","Exact","3022 ELLIOTT ST, SAN DIEGO, CA, 92106",195341071,"R"
161643,"3022 ELTHAM PLACE","DECATUR","GA",30033,33.8183703490001,-84.264722661,143,"3022 ELTHAM PLACE, DECATUR, GA, 30033","Match","Exact","3022 ELTHAM PL, DECATUR, GA, 30033",642366736,"L"
161644,"3022 EWINGDALE DRIVE","NASHVILLE","TN",37207,36.235165587,-86.7935122069999,144,"3022 EWINGDALE DRIVE, NASHVILLE, TN, 37207","Match","Exact","3022 EWINGDALE DR, NASHVILLE, TN, 37207",645518767,"L"
161645,"3022 FLINTWOOD DRIVE","SUGAR LAND","TX",77479,29.5883164150001,-95.6007905869999,145,"3022 FLINTWOOD DRIVE, SUGAR LAND, TX, 77479","Match","Exact","3022 FLINTWOOD DR, SUGAR LAND, TX, 77479",78268880,"L"
161646,"3022 FREEDOM DRIVE","CHARLOTTE","NC",28208,35.2424152020001,-80.889150367,146,"3022 FREEDOM DRIVE, CHARLOTTE, NC, 28208","Match","Exact","3022 FREEDOM DR, CHARLOTTE, NC, 28208",70476641,"R"
161647,"3022 GRAY ST","HOUSTON","TX",77004,29.739356769,-95.355648671,147,"3022 GRAY ST, HOUSTON, TX, 77004","Match","Exact","3022 GRAY ST, HOUSTON, TX, 77004",96072843,"R"
161648,"3022 GRAY STREET","HOUSTON","TX",77004,29.739356769,-95.355648671,148,"3022 GRAY STREET, HOUSTON, TX, 77004","Match","Exact","3022 GRAY ST, HOUSTON, TX, 77004",96072843,"R"
161649,"3022 HENDRICKS CHAPEL LANE","CHARLOTTE","NC",28216,35.304439293,-80.8819428639999,149,"3022 HENDRICKS CHAPEL LANE, CHARLOTTE, NC, 28216","Match","Exact","3022 HENDRICKS CHAPEL LN, CHARLOTTE, NC, 28216",614170104,"L"
161650,"3022 HYDE PARK ST","SARASOTA","FL",34239,27.315503219,-82.509933507,150,"3022 HYDE PARK ST, SARASOTA, FL, 34239","Match","Exact","3022 HYDE PARK ST, SARASOTA, FL, 34239",636397382,"R"
161651,"3022 INDIANA AVE","KANSAS CITY","MO",64128,39.070882141,-94.5435670109999,151,"3022 INDIANA AVE, KANSAS CITY, MO, 64128","Match","Exact","3022 INDIANA AVE, KANSAS CITY, MO, 64128",91450279,"R"
161652,"3022 JULIP DR","KISSIMMEE","FL",34744,28.338829506,-81.279588932,152,"3022 JULIP DR, KISSIMMEE, FL, 34744","Match","Exact","3022 JULIP DR, KISSIMMEE, FL, 34744",176697575,"L"
161653,"3022 LAKE BUTLER CT","CAPE CORAL","FL",33909,26.709713187,-81.948371723,153,"3022 LAKE BUTLER CT, CAPE CORAL, FL, 33909","Match","Exact","3022 LAKE BUTLER CT, CAPE CORAL, FL, 33909",619609051,"R"
161654,"3022 MAJESTIC CIRCLE","AVONDALE ESTATES","GA",30002,33.7661517560001,-84.259532338,154,"3022 MAJESTIC CIRCLE, AVONDALE ESTATES, GA, 30002","Match","Exact","3022 MAJESTIC CIR, AVONDALE EST, GA, 30002",23369791,"L"
161655,"3022 MAPLELEAF AVENUE","CINCINNATI","OH",45213,39.174598127,-84.4317237929999,155,"3022 MAPLELEAF AVENUE, CINCINNATI, OH, 45213","Match","Exact","3022 MAPLELEAF AVE, CINCINNATI, OH, 45213",103929505,"L"
161656,"3022 MEADOWS LANE","MEMPHIS","TN",38118,35.066822566,-89.9122317819999,156,"3022 MEADOWS LANE, MEMPHIS, TN, 38118","Match","Exact","3022 MEADOWS LN, MEMPHIS, TN, 38118",72969921,"L"
161657,"3022 N VAN BUREN","ENID","OK",73703,36.426057701,-97.8906858989999,157,"3022 N VAN BUREN, ENID, OK, 73703","Match","Non_Exact","3022 N VAN BUREN ST, ENID, OK, 73703",647784961,"L"
161658,"3022 OAK CREST CIRCLE","EL PASO","TX",79936,31.7820466220001,-106.276857461,158,"3022 OAK CREST CIRCLE, EL PASO, TX, 79936","Match","Exact","3022 OAK CREST CIR, EL PASO, TX, 79936",642467688,"R"
161659,"3022 OAK GROVE RD","HATTIESBURG","MS",39402,31.2919903120001,-89.39159139,159,"3022 OAK GROVE RD, HATTIESBURG, MS, 39402","Match","Exact","3022 OAK GROVE RD, HATTIESBURG, MS, 39402",493042,"R"
161660,"3022 OLD HWY 52","STRAWBERRY","SC",29461,33.068437809,-80.023867579,160,"3022 OLD HWY 52, STRAWBERRY, SC, 29461","Match","Non_Exact","3022 OLD HWY 52, MONCKS CORNER, SC, 29461",100749530,"R"
161661,"3022 PANTHER CREEK DRIVE","SPRINGFIELD","IL",62711,39.7288290990001,-89.7099246289999,161,"3022 PANTHER CREEK DRIVE, SPRINGFIELD, IL, 62711","Match","Exact","3022 PANTHER CREEK DR, SPRINGFIELD, IL, 62711",97352991,"R"
161662,"3022 ROSEMONT","SACRAMENTO","CA",95826,38.5545041720001,-121.348577492,162,"3022 ROSEMONT, SACRAMENTO, CA, 95826","Match","Non_Exact","3022 ROSEMONT DR, SACRAMENTO, CA, 95826",133339872,"R"
161663,"3022 S MORGANS POINT ROAD SUITE 178","MOUNT PLEASANT","SC",29466,NA,NA,163,"3022 S MORGANS POINT ROAD SUITE 178, MOUNT PLEASANT, SC, 29466","No_Match",NA,NA,NA,NA
161664,"3022 SEDAN DRIVE","SAINT LOUIS","MO",63125,38.505057311,-90.303151885,164,"3022 SEDAN DRIVE, SAINT LOUIS, MO, 63125","Match","Exact","3022 SEDAN DR, SAINT LOUIS, MO, 63125",100175384,"L"
161665,"3022 SOUTH NOVA ROAD","PINE","CO",80470,39.4780899780001,-105.395985356,165,"3022 SOUTH NOVA ROAD, PINE, CO, 80470","Match","Exact","3022 S NOVA RD, PINE, CO, 80470",635844685,"L"
161666,"3022 STEINER AVE","SANTA MONICA","CA",90405,34.0060827900001,-118.467789118,166,"3022 STEINER AVE, SANTA MONICA, CA, 90405","Match","Exact","3022 STEINER AVE, SANTA MONICA, CA, 90405",141569020,"R"
161667,"3022 W CANTON PL","BROKEN ARROW","OK",74012,36.025071418,-95.8274998159999,167,"3022 W CANTON PL, BROKEN ARROW, OK, 74012","Match","Exact","3022 W CANTON PL, BROKEN ARROW, OK, 74012",166463762,"L"
161668,"3022 W SCOTT AVE","MCHENRY","IL",60050,42.3638325850001,-88.2554419159999,168,"3022 W SCOTT AVE, MCHENRY, IL, 60050","Match","Exact","3022 SCOTT AVE, MCHENRY, IL, 60050",119822051,"L"
161669,"3022 WALNUT ST","GRAND FORKS","ND",58201,47.8911711630001,-97.032260658,169,"3022 WALNUT ST, GRAND FORKS, ND, 58201","Match","Exact","3022 WALNUT ST, GRAND FORKS, ND, 58201",171277229,"R"
161670,"30222 120TH STREET","STRATHCONA","MN",56759,NA,NA,170,"30222 120TH STREET, STRATHCONA, MN, 56759","No_Match",NA,NA,NA,NA
161671,"30222 BOWSPRIT WAY","MENIFEE","CA",92584,33.6817529470001,-117.150248176,171,"30222 BOWSPRIT WAY, MENIFEE, CA, 92584","Match","Exact","30222 BOWSPRIT WAY, MENIFEE, CA, 92584",640327957,"L"
161672,"30223 EMERSON CREEK DR","SPRING","TX",77386,30.1300996620001,-95.3904145609999,172,"30223 EMERSON CREEK DR, SPRING, TX, 77386","Match","Exact","30223 EMERSON CREEK DR, SPRING, TX, 77386",627735434,"L"
161673,"30223 LUIS REY HEIGHTS ROAD","BONSALL","CA",92033,33.2630932280001,-117.166156109,173,"30223 LUIS REY HEIGHTS ROAD, BONSALL, CA, 92033","Match","Non_Exact","30223 LUIS REY HEIGHTS RD, BONSALL, CA, 92003",195289709,"L"
161674,"30225 8TH AVE SW","FEDERAL WAY","WA",98023,47.3306343900001,-122.345262442,174,"30225 8TH AVE SW, FEDERAL WAY, WA, 98023","Match","Exact","30225 8TH AVE SW, FEDERAL WAY, WA, 98023",186648284,"R"
161675,"30226 MATISSE DR","RANCHO PALOS VERDES","CA",90275,33.756202215,-118.392088275,175,"30226 MATISSE DR, RANCHO PALOS VERDES, CA, 90275","Match","Exact","30226 MATISSE DR, RANCHO PALOS VERDES, CA, 90275",640426160,"L"
161676,"30226 TROIS VALLEY ST","MURRIETA","CA",92563,33.604670728,-117.132408147,176,"30226 TROIS VALLEY ST, MURRIETA, CA, 92563","Match","Exact","30226 TROIS VALLEY ST, MURRIETA, CA, 92563",626553795,"L"
161677,"30226 VIEWCREST DRIVE","NOVI","MI",48377,42.518320461,-83.447645291,177,"30226 VIEWCREST DRIVE, NOVI, MI, 48377","Match","Exact","30226 VIEWCREST DR, NOVI, MI, 48377",627792113,"L"
161678,"30228 MILITARY ROAD S","FEDERAL WAY","WA",98003,47.330057487,-122.295495912,178,"30228 MILITARY ROAD S, FEDERAL WAY, WA, 98003","Match","Exact","30228 MILITARY RD S, FEDERAL WAY, WA, 98003",239767934,"L"
161679,"3023 AVISHAN DR","PERRIS","CA",92571,33.827567055,-117.183165329,179,"3023 AVISHAN DR, PERRIS, CA, 92571","Match","Exact","3023 AVISHAN DR, PERRIS, CA, 92571",627716027,"R"
161680,"3023 BENT TREE LOOP","ROUND ROCK","TX",78681,30.5284577080001,-97.7163436179999,180,"3023 BENT TREE LOOP, ROUND ROCK, TX, 78681","Match","Exact","3023 BENT TREE LOOP, ROUND ROCK, TX, 78681",126521876,"L"
161681,"3023 BERKELEY AVE UNIT 2","SHERMAN OAKS","CA",91403,NA,NA,181,"3023 BERKELEY AVE UNIT 2, SHERMAN OAKS, CA, 91403","No_Match",NA,NA,NA,NA
161682,"3023 CANTON HILLS CT","MARIETTA","GA",30062,33.9958931690001,-84.464175546,182,"3023 CANTON HILLS CT, MARIETTA, GA, 30062","Match","Exact","3023 CANTON HILLS CT, MARIETTA, GA, 30062",17182576,"R"
161683,"3023 CARPENTERS PARK ROAD","DAVIDSVILLE","PA",15928,40.249651241,-78.9131314099999,183,"3023 CARPENTERS PARK ROAD, DAVIDSVILLE, PA, 15928","Match","Exact","3023 CARPENTERS PARK RD, DAVIDSVILLE, PA, 15928",636464086,"R"
161684,"3023 CHARLOTTE STREET","KANSAS CITY","MO",64109,39.071976223,-94.5753290279999,184,"3023 CHARLOTTE STREET, KANSAS CITY, MO, 64109","Match","Exact","3023 CHARLOTTE ST, KANSAS CITY, MO, 64109",91446350,"L"
161685,"3023 CORTLAND","DETROIT","MI",48206,42.385500504,-83.121790189,185,"3023 CORTLAND, DETROIT, MI, 48206","Match","Non_Exact","3023 CORTLAND ST, DETROIT, MI, 48206",95471394,"L"
161686,"3023 DAVENPORT AVENUE","SAGINAW","MI",48602,43.437911877,-83.981125574,186,"3023 DAVENPORT AVENUE, SAGINAW, MI, 48602","Match","Exact","3023 DAVENPORT AVE, SAGINAW, MI, 48602",80209347,"L"
161687,"3023 E PALM LANE","PHOENIX","AZ",85008,33.4694189420001,-112.016850582,187,"3023 E PALM LANE, PHOENIX, AZ, 85008","Match","Exact","3023 E PALM LN, PHOENIX, AZ, 85008",128223002,"R"
161688,"3023 EAST 83RD","CHICAGO","IL",60617,NA,NA,188,"3023 EAST 83RD, CHICAGO, IL, 60617","Tie",NA,NA,NA,NA
161689,"3023 HIDDEN PRAIRIE CIRCLE","EDMOND","OK",73013,35.62601074,-97.5010672229999,189,"3023 HIDDEN PRAIRIE CIRCLE, EDMOND, OK, 73013","Match","Exact","3023 HIDDEN PRAIRIE CIR, EDMOND, OK, 73013",617260537,"R"
161690,"3023 JASMINE PARKWAY","ALPHARETTA","GA",30022,NA,NA,190,"3023 JASMINE PARKWAY, ALPHARETTA, GA, 30022","No_Match",NA,NA,NA,NA
161691,"3023 JFSB-BYU","PROVO","UT",84602,NA,NA,191,"3023 JFSB-BYU, PROVO, UT, 84602","No_Match",NA,NA,NA,NA
161692,"3023 KELLEY ENG CENTER - OSU","CORVALLIS","OR",97331,NA,NA,192,"3023 KELLEY ENG CENTER - OSU, CORVALLIS, OR, 97331","No_Match",NA,NA,NA,NA
161693,"3023 KING ST","ALEXANDRIA","VA",22302,38.820430808,-77.078607645,193,"3023 KING ST, ALEXANDRIA, VA, 22302","Match","Exact","3023 KING ST, ALEXANDRIA, VA, 22302",639075139,"R"
161694,"3023 MADISON WAY","ANCHORAGE","AK",99508,61.1929790880001,-149.850565144,194,"3023 MADISON WAY, ANCHORAGE, AK, 99508","Match","Exact","3023 MADISON WAY, ANCHORAGE, AK, 99508",190799151,"L"
161695,"3023 MARTA CIR APT 203","KISSIMMEE","FL",34741,28.3376853820001,-81.4125696099999,195,"3023 MARTA CIR APT 203, KISSIMMEE, FL, 34741","Match","Exact","3023 MARTA CIR, KISSIMMEE, FL, 34741",631828145,"L"
161696,"3023 MEADOWBROOK DR SE","CEDAR RAPIDS","IA",52403,41.980549361,-91.623608196,196,"3023 MEADOWBROOK DR SE, CEDAR RAPIDS, IA, 52403","Match","Exact","3023 MEADOWBROOK DR SE, CEDAR RAPIDS, IA, 52403",17027447,"R"
161697,"3023 MEMORY LANE","CASTLE HAYNE","NC",28429,34.3030325560001,-77.938904979,197,"3023 MEMORY LANE, CASTLE HAYNE, NC, 28429","Match","Exact","3023 MEMORY LN, CASTLE HAYNE, NC, 28429",628029877,"L"
161698,"3023 MOONBEAM CIR N","COLORADO SPRINGS","CO",80916,38.788405461,-104.749846337,198,"3023 MOONBEAM CIR N, COLORADO SPRINGS, CO, 80916","Match","Exact","3023 MOONBEAM CIR N, COLORADO SPRINGS, CO, 80916",105524080,"R"
161699,"3023 NE 11TH TERRACE","GAINESVILLE","FL",32609,29.6808473340001,-82.3112734109999,199,"3023 NE 11TH TERRACE, GAINESVILLE, FL, 32609","Match","Exact","3023 NE 11TH TER, GAINESVILLE, FL, 32609",6808307,"R"
161700,"3023 NORTHWEST AVE","BELLINGHAM","WA",98225,48.77040219,-122.49296472,200,"3023 NORTHWEST AVE, BELLINGHAM, WA, 98225","Match","Exact","3023 NORTHWEST AVE, BELLINGHAM, WA, 98225",183771158,"L"
161701,"3023 NW 128 RD","GAINESVILLE","FL",32609,29.77263487,-82.36686714,201,"3023 NW 128 RD, GAINESVILLE, FL, 32609","Match","Exact","3023 NW 128TH RD, GAINESVILLE, FL, 32609",6864988,"L"
161702,"3023 PILLSBURY AVE S","MINNEAPOLIS","MN",55408,44.9478828100001,-93.281351387,202,"3023 PILLSBURY AVE S, MINNEAPOLIS, MN, 55408","Match","Exact","3023 PILLSBURY AVE S, MINNEAPOLIS, MN, 55408",43633471,"L"
161703,"3023 POLK STREET","HOUSTON","TX",77003,29.744252169,-95.34932901,203,"3023 POLK STREET, HOUSTON, TX, 77003","Match","Exact","3023 POLK ST, HOUSTON, TX, 77003",96072947,"L"
161704,"3023 ROLLINGRIDGE RD","NAPERVILE","IL",60564,41.6989801290001,-88.2081681129999,204,"3023 ROLLINGRIDGE RD, NAPERVILE, IL, 60564","Match","Non_Exact","3023 ROLLINGRIDGE RD, NAPERVILLE, IL, 60564",111622915,"L"
161705,"3023 S UNIVERSITY DRIVE 103","FORT WORTH","TX",76109,32.7070236700001,-97.360353192,205,"3023 S UNIVERSITY DRIVE 103, FORT WORTH, TX, 76109","Match","Non_Exact","3023 S UNIVERSITY DR, FORT WORTH, TX, 76109",637978701,"L"
161706,"3023 SHEPPARD MILL ROAD","SANDY RIDGE","NC",27046,36.4415088740001,-80.154998586,206,"3023 SHEPPARD MILL ROAD, SANDY RIDGE, NC, 27046","Match","Exact","3023 SHEPPARD MILL RD, SANDY RIDGE, NC, 27046",640614218,"L"
161707,"3023 SHORE DR","MERRICK","NY",11566,40.642846724,-73.5457909899999,207,"3023 SHORE DR, MERRICK, NY, 11566","Match","Exact","3023 SHORE DR, MERRICK, NY, 11566",147639306,"L"
161708,"3023 SILVER CHARM CIRCLE","SUFFOLK","VA",23435,NA,NA,208,"3023 SILVER CHARM CIRCLE, SUFFOLK, VA, 23435","No_Match",NA,NA,NA,NA
161709,"3023 SPICE BUSH RD","LAUREL","MD",20724,39.112282914,-76.804588295,209,"3023 SPICE BUSH RD, LAUREL, MD, 20724","Match","Non_Exact","3023 SPICE BUSH LN, LAUREL, MD, 20724",68205700,"L"
161710,"3023 SPICE","LAUREL","MD",20724,NA,NA,210,"3023 SPICE, LAUREL, MD, 20724","No_Match",NA,NA,NA,NA
161711,"3023 SW 156TH PLACE","MIAMI","FL",33185,25.738595198,-80.4475930629999,211,"3023 SW 156TH PLACE, MIAMI, FL, 33185","Match","Non_Exact","3023 SW 156TH PL, MIAMI, FL, 33185",625093529,"R"
161712,"3023 TANAGRINE DR","NORTH LAS VEGAS","NV",89084,36.2832447160001,-115.18168824,212,"3023 TANAGRINE DR, NORTH LAS VEGAS, NV, 89084","Match","Exact","3023 TANAGRINE DR, N LAS VEGAS, NV, 89084",613019428,"L"
161713,"3023 TOWERMILL LANE","ORANGE PARK","FL",32073,30.181750413,-81.7883024239999,213,"3023 TOWERMILL LANE, ORANGE PARK, FL, 32073","Match","Exact","3023 TOWERMILL LN, ORANGE PARK, FL, 32073",83834935,"L"
161714,"3023 W 76TH ST","LOS ANGELES","CA",90043,33.9709176550001,-118.325602818,214,"3023 W 76TH ST, LOS ANGELES, CA, 90043","Match","Exact","3023 W 76TH ST, LOS ANGELES, CA, 90043",141655507,"R"
161715,"3023 WALNUT LANE","WALDORF","MD",20601,38.6562233880001,-76.865855375,215,"3023 WALNUT LANE, WALDORF, MD, 20601","Match","Exact","3023 WALNUT LN, WALDORF, MD, 20601",25373664,"R"
161716,"30230 TREEVIEW STREET","HAYWARD","CA",94544,37.627129122,-122.039257883,216,"30230 TREEVIEW STREET, HAYWARD, CA, 94544","Match","Exact","30230 TREEVIEW ST, HAYWARD, CA, 94544",125024683,"L"
161717,"30233 MATTHEW ST","WESTLAND","MI",48186,42.270667804,-83.3362248339999,217,"30233 MATTHEW ST, WESTLAND, MI, 48186","Match","Exact","30233 MATTHEW ST, WESTLAND, MI, 48186",95434207,"L"
161718,"30238 TUDOR WAY","MAGNOLIA","TX",77355,30.186920989,-95.7147619259999,218,"30238 TUDOR WAY, MAGNOLIA, TX, 77355","Match","Exact","30238 TUDOR WAY, MAGNOLIA, TX, 77355",79335526,"L"
161719,"3024 139TH PLACE SE","MILL CREEK","WA",98012,47.8711827880001,-122.191969702,219,"3024 139TH PLACE SE, MILL CREEK, WA, 98012","Match","Exact","3024 139TH PL SE, MILL CREEK, WA, 98012",187760912,"R"
161720,"3024 31ST LN NE","LACEY","WA",98516,47.078933159,-122.739441226,220,"3024 31ST LN NE, LACEY, WA, 98516","Match","Exact","3024 31ST LN NE, LACEY, WA, 98516",624702374,"R"
161721,"3024 68TH AVENUE","GREELY","CO",80634,40.3877557980001,-104.789487773,221,"3024 68TH AVENUE, GREELY, CO, 80634","Match","Non_Exact","3024 68TH AVE, GREELEY, CO, 80634",614115423,"R"
161722,"3024 6TH ST","BOULDER","CO",80304,40.0297658280001,-105.289121087,222,"3024 6TH ST, BOULDER, CO, 80304","Match","Exact","3024 6TH ST, BOULDER, CO, 80304",188159220,"R"
161723,"3024 ASPEN DRIVE","SANTA CLARA","CA",95051,37.3310298750001,-121.983049962,223,"3024 ASPEN DRIVE, SANTA CLARA, CA, 95051","Match","Exact","3024 ASPEN DR, SANTA CLARA, CA, 95051",122899239,"R"
161724,"3024 AVE","BROOKLYN","NY",11210,40.617242182,-73.9447766979999,224,"3024 AVE, BROOKLYN, NY, 11210","Match","Non_Exact","3024 AVENUE N, BROOKLYN, NY, 11210",59090275,"R"
161725,"3024 BRIGHTON CT","CONYERS","GA",30094,33.623431263,-84.0607685429999,225,"3024 BRIGHTON CT, CONYERS, GA, 30094","Match","Non_Exact","3024 BRIGHTON CT SW, CONYERS, GA, 30094",614160329,"L"
161726,"3024 E CHAPMAN AVE 127","ORANGE","CA",92869,33.787780431,-117.817926527,226,"3024 E CHAPMAN AVE 127, ORANGE, CA, 92869","Match","Non_Exact","3024 E CHAPMAN AVE, ORANGE, CA, 92869",644544576,"R"
161727,"3024 E CHAPMAN AVENUE 211","ORANGE","CA",92869,33.787780431,-117.817926527,227,"3024 E CHAPMAN AVENUE 211, ORANGE, CA, 92869","Match","Non_Exact","3024 E CHAPMAN AVE, ORANGE, CA, 92869",644544576,"R"
161728,"3024 E LAFAYETTE","DETROIT","MI",48207,NA,NA,228,"3024 E LAFAYETTE, DETROIT, MI, 48207","No_Match",NA,NA,NA,NA
161729,"3024 GRIBBLE RD","MATTHEWS","NC",28104,35.0903417530001,-80.685724191,229,"3024 GRIBBLE RD, MATTHEWS, NC, 28104","Match","Exact","3024 GRIBBLE RD, MATTHEWS, NC, 28104",14183918,"R"
161730,"3024 JANE LANE","HILLIARD","FL",32046,30.55486976,-81.996999866,230,"3024 JANE LANE, HILLIARD, FL, 32046","Match","Exact","3024 JANE LN, HILLIARD, FL, 32046",84106664,"L"
161731,"3024 JEAN LAFITTE PARKWAY","CHALMETTE","LA",70043,29.953212955,-89.9819907,231,"3024 JEAN LAFITTE PARKWAY, CHALMETTE, LA, 70043","Match","Exact","3024 JEAN LAFITTE PKWY, CHALMETTE, LA, 70043",111200343,"L"
161732,"3024 JEFFREY LN","MIDLAND","MI",48640,43.6480400890001,-84.264666704,232,"3024 JEFFREY LN, MIDLAND, MI, 48640","Match","Exact","3024 JEFFREY LN, MIDLAND, MI, 48640",623844852,"L"
161733,"3024 KINGSBRIDGE AVE APT 4AN","BRONX","NY",10463,40.878721994,-73.907599978,233,"3024 KINGSBRIDGE AVE APT 4AN, BRONX, NY, 10463","Match","Exact","3024 KINGSBRIDGE AVE, BRONX, NY, 10463",80296145,"R"
161734,"3024 MADDIE CT","LEWIS CENTER","OH",43035,40.161356106,-82.973378176,234,"3024 MADDIE CT, LEWIS CENTER, OH, 43035","Match","Exact","3024 MADDIE CT, LEWIS CENTER, OH, 43035",213001486,"R"
161735,"3024 MELVILLE STREET","COLUMBUS","OH",43219,40.032815477,-82.924038141,235,"3024 MELVILLE STREET, COLUMBUS, OH, 43219","Match","Exact","3024 MELVILLE ST, COLUMBUS, OH, 43219",624654986,"L"
161736,"3024 N 58TH ST","MILWAUKEE","WI",53210,43.0740376470001,-87.985087512,236,"3024 N 58TH ST, MILWAUKEE, WI, 53210","Match","Exact","3024 N 58TH ST, MILWAUKEE, WI, 53210",77731760,"R"
161737,"3024 NASH PLACE SE","WASHINGTON","DC",20020,38.87383283,-76.964073453,237,"3024 NASH PLACE SE, WASHINGTON, DC, 20020","Match","Exact","3024 NASH PL SE, WASHINGTON, DC, 20020",76231966,"L"
161738,"3024 NE 132ND TERRACE","SMITHVILLE","MO",64089,39.3323792250001,-94.540418652,238,"3024 NE 132ND TERRACE, SMITHVILLE, MO, 64089","Match","Non_Exact","3024 NE 132ND ST, SMITHVILLE, MO, 64089",89752109,"L"
161739,"3024 NE 15TH ST APT A24","RENTON","WA",98056,NA,NA,239,"3024 NE 15TH ST APT A24, RENTON, WA, 98056","No_Match",NA,NA,NA,NA
161740,"3024 NW 2ND AVE","CAMAS","WA",98607,45.581106296,-122.441367464,240,"3024 NW 2ND AVE, CAMAS, WA, 98607","Match","Exact","3024 NW 2ND AVE, CAMAS, WA, 98607",649079905,"R"
161741,"3024 OAK CREST DR","ROYSE CITY","TX",75189,32.9874538710001,-96.28845365,241,"3024 OAK CREST DR, ROYSE CITY, TX, 75189","Match","Non_Exact","3024 OAKCREST DR, ROYSE CITY, TX, 75189",642955184,"L"
161742,"3024 OAK CREST DRIVE","ROYSE CITY","TX",75189,32.9874538710001,-96.28845365,242,"3024 OAK CREST DRIVE, ROYSE CITY, TX, 75189","Match","Non_Exact","3024 OAKCREST DR, ROYSE CITY, TX, 75189",642955184,"L"
161743,"3024 OAKCREST DR","ROYSE CITY","TX",75189,32.9874538710001,-96.28845365,243,"3024 OAKCREST DR, ROYSE CITY, TX, 75189","Match","Exact","3024 OAKCREST DR, ROYSE CITY, TX, 75189",642955184,"L"
161744,"3024 SANDY BLUFF PLACE","RICHMOND","VA",23233,37.6385026030001,-77.613916408,244,"3024 SANDY BLUFF PLACE, RICHMOND, VA, 23233","Match","Exact","3024 SANDY BLUFF PL, RICHMOND, VA, 23233",106666716,"L"
161745,"3024 SHORT ST","NEW ORLEANS","LA",70125,29.959711537,-90.114769603,245,"3024 SHORT ST, NEW ORLEANS, LA, 70125","Match","Exact","3024 SHORT ST, NEW ORLEANS, LA, 70125",191701115,"L"
161746,"3024 SPRING CREEK ROAD APT 7","GREENVILLE","NC",27834,35.5918375640001,-77.4042590939999,246,"3024 SPRING CREEK ROAD APT 7, GREENVILLE, NC, 27834","Match","Exact","3024 SPRING CREEK RD, GREENVILLE, NC, 27834",623909836,"L"
161747,"3024 SW 339TH ST","FEDERAL WAY","WA",98023,47.297913683,-122.372714756,247,"3024 SW 339TH ST, FEDERAL WAY, WA, 98023","Match","Exact","3024 SW 339TH ST, FEDERAL WAY, WA, 98023",186650976,"L"
161748,"3024 W SHAW BUTTE DRIVE","PHOENIX","AZ",85029,33.595510839,-112.12297375,248,"3024 W SHAW BUTTE DRIVE, PHOENIX, AZ, 85029","Match","Exact","3024 W SHAW BUTTE DR, PHOENIX, AZ, 85029",128181188,"R"
161749,"3024 WESTFORK DRIVE SUITE B","BATON ROUGE","LA",70816,30.423700524,-91.0549840259999,249,"3024 WESTFORK DRIVE SUITE B, BATON ROUGE, LA, 70816","Match","Exact","3024 WESTFORK DR, BATON ROUGE, LA, 70816",92211559,"R"
161750,"3024 WHITNEY AVENUE","MEMPHIS","TN",38128,35.212328056,-89.962824558,250,"3024 WHITNEY AVENUE, MEMPHIS, TN, 38128","Match","Exact","3024 WHITNEY AVE, MEMPHIS, TN, 38128",72911485,"L"
161751,"3024 WYCLIIFF SE","GRAND RAPIDS","MI",49546,42.9093789780001,-85.494106387,251,"3024 WYCLIIFF SE, GRAND RAPIDS, MI, 49546","Match","Non_Exact","3024 WYCLIFF DR SE, GRAND RAPIDS, MI, 49546",12440788,"R"
161752,"30240 COUNTY ROAD 22","ELKHART","IN",46517,41.647201097,-86.046031924,252,"30240 COUNTY ROAD 22, ELKHART, IN, 46517","Match","Exact","30240 CO RD 22, ELKHART, IN, 46517",639570653,"L"
161753,"30245 MIRA LOMA DRIVE","TEMECULA","CA",92592,33.4988233990001,-117.133825506,253,"30245 MIRA LOMA DRIVE, TEMECULA, CA, 92592","Match","Exact","30245 MIRA LOMA DR, TEMECULA, CA, 92592",194813065,"L"
161754,"30248 LIBERTY ROAD","NETTLETON","MS",38858,34.078413362,-88.5444574379999,254,"30248 LIBERTY ROAD, NETTLETON, MS, 38858","Match","Exact","30248 LIBERTY RD, NETTLETON, MS, 38858",652217526,"R"
161755,"30248 SOUTHFIELD RD SUITE 281","SOUTHFIELD","MI",48076,NA,NA,255,"30248 SOUTHFIELD RD SUITE 281, SOUTHFIELD, MI, 48076","No_Match",NA,NA,NA,NA
161756,"3025 2ND STREET APT 6","SANTA MONICA","CA",90405,33.9989099310001,-118.479281228,256,"3025 2ND STREET APT 6, SANTA MONICA, CA, 90405","Match","Exact","3025 2ND ST, SANTA MONICA, CA, 90405",141559953,"L"
161757,"3025 54TH AVENUE NORTH","BIRMINGHAM","AL",35207,33.5799208080001,-86.8073226239999,257,"3025 54TH AVENUE NORTH, BIRMINGHAM, AL, 35207","Match","Exact","3025 54TH AVE N, BIRMINGHAM, AL, 35207",647610485,"R"
161758,"3025 5TH STREET","VOORHEES","NJ",8043,39.838280395,-74.986201389,258,"3025 5TH STREET, VOORHEES, NJ, 8043","Match","Exact","3025 FIFTH ST, VOORHEES, NJ, 08043",134380214,"R"
161759,"3025 87TH PLACE APT 107","PINELLAS PARK","FL",33782,27.85088109,-82.6744622639999,259,"3025 87TH PLACE APT 107, PINELLAS PARK, FL, 33782","Match","Exact","3025 87TH PL, PINELLAS PARK, FL, 33782",627203040,"R"
161760,"3025 ALBION RD","CLEVELAND","OH",44120,41.4766337840001,-81.586860659,260,"3025 ALBION RD, CLEVELAND, OH, 44120","Match","Exact","3025 ALBION RD, CLEVELAND, OH, 44120",638863346,"L"
161761,"3025 ALCOTT RD","RICHMOND","VA",23237,37.420360939,-77.445639291,261,"3025 ALCOTT RD, RICHMOND, VA, 23237","Match","Exact","3025 ALCOTT RD, RICHMOND, VA, 23237",201547594,"L"
161762,"3025 BLUE JAY LANE","MIDLOTHIAN","TX",76065,32.493695314,-96.957952588,262,"3025 BLUE JAY LANE, MIDLOTHIAN, TX, 76065","Match","Exact","3025 BLUE JAY LN, MIDLOTHIAN, TX, 76065",625828005,"R"
161763,"3025 BULL ST","SAVANNAH","GA",31405,32.0494752640001,-81.103241643,263,"3025 BULL ST, SAVANNAH, GA, 31405","Match","Exact","3025 BULL ST, SAVANNAH, GA, 31405",6173073,"R"
161764,"3025 BULL STREET","SAVANNAH","GA",31405,32.0494752640001,-81.103241643,264,"3025 BULL STREET, SAVANNAH, GA, 31405","Match","Exact","3025 BULL ST, SAVANNAH, GA, 31405",6173073,"R"
161765,"3025 BURLINGAME ST","DETROIT","MI",48206,42.3805687780001,-83.118479231,265,"3025 BURLINGAME ST, DETROIT, MI, 48206","Match","Exact","3025 BURLINGAME ST, DETROIT, MI, 48206",95471422,"L"
161766,"3025 CAYCE ROAD","BYHALIA","MS",38611,34.929221442,-89.618017343,266,"3025 CAYCE ROAD, BYHALIA, MS, 38611","Match","Exact","3025 CAYCE RD, BYHALIA, MS, 38611",72827765,"L"
161767,"3025 CHIPPEWA AVE","ST LOUIS","MO",63118,38.5871507570001,-90.235225997,267,"3025 CHIPPEWA AVE, ST LOUIS, MO, 63118","Match","Non_Exact","3025 CHIPPEWA ST, SAINT LOUIS, MO, 63118",107602374,"R"
161768,"3025 COUNTRY CLUB DRIVE","PEARLAND","TX",77581,29.5585327000001,-95.250697595,268,"3025 COUNTRY CLUB DRIVE, PEARLAND, TX, 77581","Match","Exact","3025 COUNTRY CLUB DR, PEARLAND, TX, 77581",96155967,"L"
161769,"3025 E ROSE GARDEN LN","PHOENIX","AZ",85050,33.676468631,-112.01756446,269,"3025 E ROSE GARDEN LN, PHOENIX, AZ, 85050","Match","Exact","3025 E ROSE GARDEN LN, PHOENIX, AZ, 85050",128353784,"R"
161770,"3025 FOREST HILL AVE","RICHMOND","VA",23225,37.51429347,-77.463887605,270,"3025 FOREST HILL AVE, RICHMOND, VA, 23225","Match","Exact","3025 FOREST HILL AVE, RICHMOND, VA, 23225",201541490,"R"
161771,"3025 GOVERNORS PLACE BLVD","DAYTON","OH",45409,39.707519775,-84.199404771,271,"3025 GOVERNORS PLACE BLVD, DAYTON, OH, 45409","Match","Non_Exact","3025 GOVERNOR'S PLACE BLVD, DAYTON, OH, 45409",616396017,"R"
161772,"3025 HEGGS ROAD","AURORA","IL",60503,41.696109607,-88.253905918,272,"3025 HEGGS ROAD, AURORA, IL, 60503","Match","Exact","3025 HEGGS RD, AURORA, IL, 60503",600603626,"R"
161773,"3025 HIGHLAND RIDGE WAY","WORLAND","WY",82401,44.012565486,-107.931414097,273,"3025 HIGHLAND RIDGE WAY, WORLAND, WY, 82401","Match","Exact","3025 HIGHLAND RIDGE WAY, WORLAND, WY, 82401",634784605,"L"
161774,"3025 HIGHWAY 90","BRONSTON","KY",42518,36.980686265,-84.6548831429999,274,"3025 HIGHWAY 90, BRONSTON, KY, 42518","Match","Non_Exact","3025 STATE HWY 90, BRONSTON, KY, 42518",39093264,"R"
161775,"3025 HOWARD AVE","RIFLE","CO",81650,39.557707878,-107.785577101,275,"3025 HOWARD AVE, RIFLE, CO, 81650","Match","Exact","3025 HOWARD AVE, RIFLE, CO, 81650",605231021,"L"
161776,"3025 INVERMERE WOODS COURT","LITHONIA","GA",30038,33.69600963,-84.191284798,276,"3025 INVERMERE WOODS COURT, LITHONIA, GA, 30038","Match","Exact","3025 INVERMERE WOODS CT, LITHONIA, GA, 30038",23373029,"R"
161777,"3025 IREDELL DRIVE","CHARLOTTE","NC",28269,35.294267145,-80.843351271,277,"3025 IREDELL DRIVE, CHARLOTTE, NC, 28269","Match","Exact","3025 IREDELL DR, CHARLOTTE, NC, 28269",70525707,"R"
161778,"3025 KIBBY ROAD","JACKSON","MI",49203,42.21164472,-84.4462736309999,278,"3025 KIBBY ROAD, JACKSON, MI, 49203","Match","Exact","3025 KIBBY RD, JACKSON, MI, 49203",17616099,"L"
161779,"3025 LIVINGSTON TRAIL","HOOVER","AL",35213,NA,NA,279,"3025 LIVINGSTON TRAIL, HOOVER, AL, 35213","No_Match",NA,NA,NA,NA
161780,"3025 LOMBARD AVE","EVERETT","WA",98201,47.977586854,-122.202956698,280,"3025 LOMBARD AVE, EVERETT, WA, 98201","Match","Exact","3025 LOMBARD AVE, EVERETT, WA, 98201",187745237,"L"
161781,"3025 MADAME PLANTIER AVE","NORTH LAS VEGAS","NV",89081,36.262670647,-115.106794703,281,"3025 MADAME PLANTIER AVE, NORTH LAS VEGAS, NV, 89081","Match","Exact","3025 MADAME PLANTIER AVE, N LAS VEGAS, NV, 89081",626862005,"R"
161782,"3025 NORTH CALIFORNIA AVENUE","CHICAGO","IL",60618,41.9364766370001,-87.697733,282,"3025 NORTH CALIFORNIA AVENUE, CHICAGO, IL, 60618","Match","Exact","3025 N CALIFORNIA AVE, CHICAGO, IL, 60618",111760760,"R"
161783,"3025 NORTH STREET","MORGANTOWN","PA",19543,NA,NA,283,"3025 NORTH STREET, MORGANTOWN, PA, 19543","No_Match",NA,NA,NA,NA
161784,"3025 NORTHMOR DR W","ADRIAN","MI",49221,41.92860325,-84.054232902,284,"3025 NORTHMOR DR W, ADRIAN, MI, 49221","Match","Exact","3025 NORTHMOR DR W, ADRIAN, MI, 49221",633620067,"R"
161785,"3025 ORBIT CIRCLE","ELLENWOOD","GA",30294,33.67650645,-84.299837145,285,"3025 ORBIT CIRCLE, ELLENWOOD, GA, 30294","Match","Exact","3025 ORBIT CIR, ELLENWOOD, GA, 30294",23377515,"R"
161786,"3025 PARK WEST BLVD","MT PLEASANT","SC",29466,32.893502562,-79.803688414,286,"3025 PARK WEST BLVD, MT PLEASANT, SC, 29466","Match","Exact","3025 PARK WEST BLVD, MOUNT PLEASANT, SC, 29466",645444180,"R"
161787,"3025 PARKVIEW DRIVE","PACIFIC","MO",63069,38.4534505770001,-90.705932785,287,"3025 PARKVIEW DRIVE, PACIFIC, MO, 63069","Match","Exact","3025 PARKVIEW DR, PACIFIC, MO, 63069",62789706,"R"
161788,"3025 REID AVENUE","CULVER","CA",90232,34.0307776940001,-118.377062388,288,"3025 REID AVENUE, CULVER, CA, 90232","Match","Non_Exact","3025 REID AVE, CULVER CITY, CA, 90232",142720086,"R"
161789,"3025 S ROSEWOOD AVE","SANTA ANA","CA",92707,33.7065961600001,-117.882145264,289,"3025 S ROSEWOOD AVE, SANTA ANA, CA, 92707","Match","Exact","3025 S ROSEWOOD AVE, SANTA ANA, CA, 92707",636557338,"L"
161790,"3025 SHOALS ROAD","PINNACLE","NC",27043,36.301144429,-80.500119812,290,"3025 SHOALS ROAD, PINNACLE, NC, 27043","Match","Exact","3025 SHOALS RD, PINNACLE, NC, 27043",154169828,"R"
161791,"3025 SOUTH 1100 EAST","SALT LAKE CITY","UT",84106,NA,NA,291,"3025 SOUTH 1100 EAST, SALT LAKE CITY, UT, 84106","No_Match",NA,NA,NA,NA
161792,"3025 SOUTH AVE","YOUNGSTOWN","OH",44502,41.0690938930001,-80.646157003,292,"3025 SOUTH AVE, YOUNGSTOWN, OH, 44502","Match","Exact","3025 SOUTH AVE, YOUNGSTOWN, OH, 44502",64596364,"L"
161793,"3025 SOUTH THAYER AVENUE","SPRINGFIELD","IL",62704,39.7653619760001,-89.671631904,293,"3025 SOUTH THAYER AVENUE, SPRINGFIELD, IL, 62704","Match","Exact","3025 S THAYER AVE, SPRINGFIELD, IL, 62704",637349098,"R"
161794,"3025 STANFORD DRIVE","PLANO","TX",75075,33.014411013,-96.751478123,294,"3025 STANFORD DRIVE, PLANO, TX, 75075","Match","Exact","3025 STANFORD DR, PLANO, TX, 75075",123487930,"R"
161795,"3025 STARR AVENUE","OREGON","OH",43616,41.6441714170001,-83.4746325099999,295,"3025 STARR AVENUE, OREGON, OH, 43616","Match","Exact","3025 STARR AVE, OREGON, OH, 43616",33946950,"L"
161796,"3025 STATE ST NW PO BOX 109","GREENTOWN","OH",44630,NA,NA,296,"3025 STATE ST NW PO BOX 109, GREENTOWN, OH, 44630","No_Match",NA,NA,NA,NA
161797,"3025 STRAND ROAD","DULUTH","MN",55804,46.8876361810001,-91.997592824,297,"3025 STRAND ROAD, DULUTH, MN, 55804","Match","Exact","3025 STRAND RD, DULUTH, MN, 55804",163215810,"L"
161798,"3025 SUTHERLANDV AVE","INDIANAPOLIS","IN",46205,NA,NA,298,"3025 SUTHERLANDV AVE, INDIANAPOLIS, IN, 46205","No_Match",NA,NA,NA,NA
161799,"3025 W GRAN PARADISO DR","PHOENIX","AZ",85086,33.8050650280001,-112.125060667,299,"3025 W GRAN PARADISO DR, PHOENIX, AZ, 85086","Match","Exact","3025 W GRAN PARADISO DR, PHOENIX, AZ, 85086",128856051,"L"
161800,"30250 BRADLEY ROAD","MENIFEE","CA",92584,33.682858907,-117.188602801,300,"30250 BRADLEY ROAD, MENIFEE, CA, 92584","Match","Exact","30250 BRADLEY RD, MENIFEE, CA, 92584",195093399,"R"
161801,"30250 CHEVAL ST","MOUNT DORA","FL",32757,28.7890980110001,-81.611204806,301,"30250 CHEVAL ST, MOUNT DORA, FL, 32757","Match","Exact","30250 CHEVAL ST, MOUNT DORA, FL, 32757",617498769,"R"
161802,"30250 CHUALAR CANYON RD","CHUALAR","CA",93925,NA,NA,302,"30250 CHUALAR CANYON RD, CHUALAR, CA, 93925","No_Match",NA,NA,NA,NA
161803,"30251 GOLDEN LANTERN E367","LAGUNA NIGUEL","CA",92677,33.524037607,-117.685643861,303,"30251 GOLDEN LANTERN E367, LAGUNA NIGUEL, CA, 92677","Match","Exact","30251 GOLDEN LANTERN, LAGUNA NIGUEL, CA, 92677",144118434,"L"
161804,"30251 GOLDEN LANTERN","LAGUNA NIGUEL","CA",92677,33.524037607,-117.685643861,304,"30251 GOLDEN LANTERN, LAGUNA NIGUEL, CA, 92677","Match","Exact","30251 GOLDEN LANTERN, LAGUNA NIGUEL, CA, 92677",144118434,"L"
161805,"30252 SENECA TRL","VALLEY HEAD","WV",26294,NA,NA,305,"30252 SENECA TRL, VALLEY HEAD, WV, 26294","No_Match",NA,NA,NA,NA
161806,"30257 WCR 1230 RD","STIGLER","OK",74462,NA,NA,306,"30257 WCR 1230 RD, STIGLER, OK, 74462","No_Match",NA,NA,NA,NA
161807,"30258 CENTRAL GROVE ROAD","NETTLETON","MS",38858,34.0117367390001,-88.613349972,307,"30258 CENTRAL GROVE ROAD, NETTLETON, MS, 38858","Match","Exact","30258 CENTRAL GROVE RD, NETTLETON, MS, 38858",611742760,"L"
161808,"3026 44TH ST E","TACOMA","WA",98443,47.2170177580001,-122.388474746,308,"3026 44TH ST E, TACOMA, WA, 98443","Match","Exact","3026 44TH ST E, TACOMA, WA, 98443",638577920,"L"
161809,"3026 56TH STREET","LUBBOCK","TX",79413,33.5433007600001,-101.881819248,309,"3026 56TH STREET, LUBBOCK, TX, 79413","Match","Exact","3026 56TH ST, LUBBOCK, TX, 79413",185253901,"R"
161810,"3026 COLONEL SPRINGS WAY","FORT MILL","SC",29708,35.023730039,-80.976092234,310,"3026 COLONEL SPRINGS WAY, FORT MILL, SC, 29708","Match","Exact","3026 COLONEL SPRINGS WAY, FORT MILL, SC, 29708",19810023,"R"
161811,"3026 CRESTVIEW LANE","LANCASTER","SC",29720,34.7949458030001,-80.825415643,311,"3026 CRESTVIEW LANE, LANCASTER, SC, 29720","Match","Exact","3026 CRESTVIEW LN, LANCASTER, SC, 29720",40703554,"L"
161812,"3026 FRANCISCAN DR APT 1323","ARLINGTON","TX",76015,32.697979768,-97.118326772,312,"3026 FRANCISCAN DR APT 1323, ARLINGTON, TX, 76015","Match","Exact","3026 FRANCISCAN DR, ARLINGTON, TX, 76015",653218155,"L"
161813,"3026 GOODNEWS STREET","NORTH POLE","AK",99705,64.7315032970001,-147.319607789,313,"3026 GOODNEWS STREET, NORTH POLE, AK, 99705","Match","Exact","3026 GOODNEWS ST, NORTH POLE, AK, 99705",190899171,"L"
161814,"3026 MARSHALL WAY","SACRAMENTO","CA",95817,38.5505066970001,-121.475685214,314,"3026 MARSHALL WAY, SACRAMENTO, CA, 95817","Match","Exact","3026 MARSHALL WAY, SACRAMENTO, CA, 95817",133326103,"R"
161815,"3026 N HALSTED ST APT GA","CHICAGO","IL",60657,41.9371557690001,-87.649173865,315,"3026 N HALSTED ST APT GA, CHICAGO, IL, 60657","Match","Non_Exact","3026 N HALSTED ST, CHICAGO, IL, 60657",111891589,"L"
161816,"3026 NW 83RD PLACE","ANKENY","IA",50023,41.712408172,-93.659589952,316,"3026 NW 83RD PLACE, ANKENY, IA, 50023","Match","Exact","3026 NW 83RD PL, ANKENY, IA, 50023",65864261,"L"
161817,"3026 PIONEER ST","FORT WORTH","TX",76119,32.689546068,-97.285844546,317,"3026 PIONEER ST, FORT WORTH, TX, 76119","Match","Exact","3026 PIONEER ST, FORT WORTH, TX, 76119",101893451,"R"
161818,"3026 SEAMON AVENUE","BALTIMORE","MD",21225,39.2500252400001,-76.617099954,318,"3026 SEAMON AVENUE, BALTIMORE, MD, 21225","Match","Exact","3026 SEAMON AVE, BALTIMORE, MD, 21225",206422779,"R"
161819,"3026 SHADYBROOK LANE","NEW ALBANY","IN",47150,38.359225759,-85.789466085,319,"3026 SHADYBROOK LANE, NEW ALBANY, IN, 47150","Match","Exact","3026 SHADYBROOK LN, NEW ALBANY, IN, 47150",89554904,"R"
161820,"3026 SUNNYBROOK STREET","SHREVEPORT","LA",71108,32.4486031810001,-93.7904891969999,320,"3026 SUNNYBROOK STREET, SHREVEPORT, LA, 71108","Match","Exact","3026 SUNNYBROOK ST, SHREVEPORT, LA, 71108",57439056,"R"
161821,"3026 WILLOW OAK DR","KNOXVILLE","TN",37909,NA,NA,321,"3026 WILLOW OAK DR, KNOXVILLE, TN, 37909","No_Match",NA,NA,NA,NA
161822,"30260 126TH STREET","PRINCETON","MN",55371,45.5188806150001,-93.587534615,322,"30260 126TH STREET, PRINCETON, MN, 55371","Match","Non_Exact","30260 126TH ST NW, PRINCETON, MN, 55371",97776229,"R"
161823,"30260 MT  VERNON RD UNIT 6","PRINCESS ANNE","MD",21853,38.213455352,-75.702402351,323,"30260 MT  VERNON RD UNIT 6, PRINCESS ANNE, MD, 21853","Match","Exact","30260 MOUNT VERNON RD, PRINCESS ANNE, MD, 21853",104167119,"L"
161824,"30262 CROWN VALLEY PKY","LAGUNA NIGUEL","CA",92677,33.5247443960001,-117.71356922,324,"30262 CROWN VALLEY PKY, LAGUNA NIGUEL, CA, 92677","Match","Exact","30262 CROWN VALLEY PKWY, LAGUNA NIGUEL, CA, 92677",630454311,"L"
161825,"3027 23RD AVE S UNIT D","FARGO","ND",58103,46.844704678,-96.82704033,325,"3027 23RD AVE S UNIT D, FARGO, ND, 58103","Match","Exact","3027 23RD AVE S, FARGO, ND, 58103",151467821,"R"
161826,"3027 BAYSHORE DRIVE","BACLIFF","TX",77518,29.5206927740001,-94.996747602,326,"3027 BAYSHORE DRIVE, BACLIFF, TX, 77518","Match","Exact","3027 BAYSHORE DR, BACLIFF, TX, 77518",96685425,"L"
161827,"3027 BELLINGHAM WAY","LITHIA SPRINGS","GA",30122,33.7798890380001,-84.674906528,327,"3027 BELLINGHAM WAY, LITHIA SPRINGS, GA, 30122","Match","Exact","3027 BELLINGHAM WAY, LITHIA SPGS, GA, 30122",619879319,"L"
161828,"3027 CABERNET DRIVE","HELENA","MT",59601,NA,NA,328,"3027 CABERNET DRIVE, HELENA, MT, 59601","No_Match",NA,NA,NA,NA
161829,"3027 DAISY COURT","GASTONIA","NC",28052,35.260058416,-81.236177627,329,"3027 DAISY COURT, GASTONIA, NC, 28052","Match","Exact","3027 DAISY CT, GASTONIA, NC, 28052",70377074,"L"
161830,"3027 DULUTH ST","MAPLEWOOD","MN",55109,45.032810467,-93.049495083,330,"3027 DULUTH ST, MAPLEWOOD, MN, 55109","Match","Exact","3027 DULUTH ST, MAPLEWOOD, MN, 55109",97662945,"L"
161831,"3027 FALLS DR","DALLAS","TN",75211,NA,NA,331,"3027 FALLS DR, DALLAS, TN, 75211","No_Match",NA,NA,NA,NA
161832,"3027 HIGHBURY TRL SW","ATLANTA","GA",30354,33.6723266430001,-84.392360866,332,"3027 HIGHBURY TRL SW, ATLANTA, GA, 30354","Match","Exact","3027 HIGHBURY TRL SW, ATLANTA, GA, 30354",17349914,"R"
161833,"3027 HUBBARD ROAD","LANDOVER","MD",20785,38.929870228,-76.871084041,333,"3027 HUBBARD ROAD, LANDOVER, MD, 20785","Match","Exact","3027 HUBBARD RD, LANDOVER, MD, 20785",651150737,"L"
161834,"3027 MEMORIAL DR SE","ATLANTA","GA",30317,33.7471032060001,-84.287067673,334,"3027 MEMORIAL DR SE, ATLANTA, GA, 30317","Match","Exact","3027 MEMORIAL DR SE, ATLANTA, GA, 30317",23367702,"R"
161835,"3027 N 22ND ST","PHILADELPHIA","PA",19132,NA,NA,335,"3027 N 22ND ST, PHILADELPHIA, PA, 19132","No_Match",NA,NA,NA,NA
161836,"3027 PECANWOOD DR","MANHATTAN","KS",66502,39.2141004430001,-96.613202633,336,"3027 PECANWOOD DR, MANHATTAN, KS, 66502","Match","Exact","3027 PECANWOOD DR, MANHATTAN, KS, 66502",27809115,"L"
161837,"3027 PIKE DR","RIVA","MD",21140,38.9522733220001,-76.586978749,337,"3027 PIKE DR, RIVA, MD, 21140","Match","Exact","3027 PIKE DR, RIVA, MD, 21140",68170872,"L"
161838,"3027 REMINGTON DRIVE","WILMINGTON","NC",28405,34.303009386,-77.879876961,338,"3027 REMINGTON DRIVE, WILMINGTON, NC, 28405","Match","Exact","3027 REMINGTON DR, WILMINGTON, NC, 28405",152739607,"L"
161839,"3027 ROCKY HILL DEDEAUX RD","KILN","MS",39556,30.493952263,-89.3788746879999,339,"3027 ROCKY HILL DEDEAUX RD, KILN, MS, 39556","Match","Exact","3027 ROCKY HILL DEDEAUX RD, KILN, MS, 39556",642661313,"R"
161840,"3027 SE MAIN ST","PORTLAND","OR",97214,45.513585634,-122.634472435,340,"3027 SE MAIN ST, PORTLAND, OR, 97214","Match","Non_Exact","3027 SE MAIN ST, PORTLAND, OR, 97214",157509706,"L"
161841,"3027 SEAVIEW CASTLE DR","KISSIMMEE","FL",34746,28.336449052,-81.490655676,341,"3027 SEAVIEW CASTLE DR, KISSIMMEE, FL, 34746","Match","Exact","3027 SEAVIEW CASTLE DR, KISSIMMEE, FL, 34746",638764938,"L"
161842,"3027 WATKINS WILKINSON ROAD","OXFORD","VA",27565,NA,NA,342,"3027 WATKINS WILKINSON ROAD, OXFORD, VA, 27565","No_Match",NA,NA,NA,NA
161843,"3027 WESTFEILD ROAD","CHARLOTTE","NC",28209,35.179748245,-80.845126883,343,"3027 WESTFEILD ROAD, CHARLOTTE, NC, 28209","Match","Non_Exact","3027 WESTFIELD RD, CHARLOTTE, NC, 28209",70486199,"L"
161844,"3027 WESTWOOD MANOR LANE","HOUSTON","TX",77047,29.6084118470001,-95.375176336,344,"3027 WESTWOOD MANOR LANE, HOUSTON, TX, 77047","Match","Exact","3027 WESTWOOD MANOR, HOUSTON, TX, 77047",641634563,"L"
161845,"3027 WRANGLE HILL RD","BEAR","DE",19701,39.594820901,-75.701813648,345,"3027 WRANGLE HILL RD, BEAR, DE, 19701","Match","Exact","3027 WRANGLE HILL RD, BEAR, DE, 19701",187292201,"R"
161846,"30271 TIMBERIDGE CIR APT 301","FARMINGTON HILLS","MI",48336,NA,NA,346,"30271 TIMBERIDGE CIR APT 301, FARMINGTON HILLS, MI, 48336","No_Match",NA,NA,NA,NA
161847,"3028 14TH AVE NW","GIG HARBOR","WA",98335,47.285752147,-122.557961098,347,"3028 14TH AVE NW, GIG HARBOR, WA, 98335","Match","Exact","3028 14TH AVE NW, GIG HARBOR, WA, 98335",645393033,"L"
161848,"3028 17TH ST","HOPKINS","MI",49328,42.640845975,-85.7120744389999,348,"3028 17TH ST, HOPKINS, MI, 49328","Match","Exact","3028 17TH ST, HOPKINS, MI, 49328",11441834,"L"
161849,"3028 40TH AVENUE SOUTH","ST PETERSBURG","FL",33712,27.7323652150001,-82.674372669,349,"3028 40TH AVENUE SOUTH, ST PETERSBURG, FL, 33712","Match","Exact","3028 40TH AVE S, SAINT PETERSBURG, FL, 33712",124710111,"L"
161850,"3028 92ND PL NE","CLYDE HILL","WA",98004,47.6375248530001,-122.21908918,350,"3028 92ND PL NE, CLYDE HILL, WA, 98004","Match","Exact","3028 92ND PL NE, CLYDE HILL, WA, 98004",186602650,"R"
161851,"3028 CLARKSVILLE ST","PARIS","TX",75460,33.6497270150001,-95.5213078849999,351,"3028 CLARKSVILLE ST, PARIS, TX, 75460","Match","Exact","3028 CLARKSVILLE ST, PARIS, TX, 75460",614429745,"L"
161852,"3028 HANLON AVE","BALTIMORE","MD",21216,39.3160659270001,-76.669580461,352,"3028 HANLON AVE, BALTIMORE, MD, 21216","Match","Exact","3028 HANLON AVE, BALTIMORE, MD, 21216",206442229,"R"
161853,"3028 HIGH PLAINS DRIVE","KATY","TX",77449,29.8115035750001,-95.727921194,353,"3028 HIGH PLAINS DRIVE, KATY, TX, 77449","Match","Exact","3028 HIGH PLAINS DR, KATY, TX, 77449",96014377,"L"
161854,"3028 HOPEWELL CHURCH ROAD","KINARDS","SC",29355,34.368971586,-81.843710137,354,"3028 HOPEWELL CHURCH ROAD, KINARDS, SC, 29355","Match","Exact","3028 HOPEWELL CHURCH RD, KINARDS, SC, 29355",652909565,"L"
161855,"3028 MITCHELLEVILLE RD STE104","BOWIE","MD",20716,38.930868054,-76.734216929,355,"3028 MITCHELLEVILLE RD STE104, BOWIE, MD, 20716","Match","Non_Exact","3028 MITCHELLVILLE RD, BOWIE, MD, 20716",76328289,"L"
161856,"3028 MORNINGTON DRIVE NW","ATLANTA","GA",30327,33.8373629650001,-84.409625164,356,"3028 MORNINGTON DRIVE NW, ATLANTA, GA, 30327","Match","Exact","3028 MORNINGTON DR NW, ATLANTA, GA, 30327",17416233,"L"
161857,"3028 N AVENIDA REPUBLICA DE CUBA","TAMPA","FL",33605,27.9707781770001,-82.444220152,357,"3028 N AVENIDA REPUBLICA DE CUBA, TAMPA, FL, 33605","Match","Exact","3028 N AVE REPUBLICA DE CUBA, TAMPA, FL, 33605",104523742,"L"
161858,"3028 POWHATTAN","TOLEDO","OH",43606,41.676783341,-83.601680258,358,"3028 POWHATTAN, TOLEDO, OH, 43606","Match","Non_Exact","3028 POWHATTAN PKWY, TOLEDO, OH, 43606",33933401,"R"
161859,"3028 RAVINE GAP DR","SUFFOLK","VA",23434,36.7550692520001,-76.553066831,359,"3028 RAVINE GAP DR, SUFFOLK, VA, 23434","Match","Exact","3028 RAVINE GAP DR, SUFFOLK, VA, 23434",640858567,"R"
161860,"3028 TWIN LAKES DRIVE","MATTHEWS","NC",28104,35.015925951,-80.736929894,360,"3028 TWIN LAKES DRIVE, MATTHEWS, NC, 28104","Match","Exact","3028 TWIN LAKES DR, MATTHEWS, NC, 28104",634087351,"R"
161861,"3028 WEST VIA CORONA","MONTEBELLO","CA",90640,34.0226651410001,-118.13625376,361,"3028 WEST VIA CORONA, MONTEBELLO, CA, 90640","Match","Non_Exact","3028 VIA CORONA, MONTEBELLO, CA, 90640",141638840,"R"
161862,"30288 S WALL ST","COLTON","OR",97017,45.1681447490001,-122.437564262,362,"30288 S WALL ST, COLTON, OR, 97017","Match","Exact","30288 S WALL ST, COLTON, OR, 97017",635463615,"R"
161863,"3029 BENT TREE LOOP","ROUND ROCK","TX",78681,30.5286890990001,-97.71671486,363,"3029 BENT TREE LOOP, ROUND ROCK, TX, 78681","Match","Exact","3029 BENT TREE LOOP, ROUND ROCK, TX, 78681",126521876,"L"
161864,"3029 CHESTNUT RD","LINCOLNTON","NC",28092,35.474282116,-81.1849739909999,364,"3029 CHESTNUT RD, LINCOLNTON, NC, 28092","Match","Exact","3029 CHESTNUT RD, LINCOLNTON, NC, 28092",69539750,"L"
161865,"3029 CLINTON STREET NE","WASHINGTON","DC",20018,38.9311947480001,-76.96460501,365,"3029 CLINTON STREET NE, WASHINGTON, DC, 20018","Match","Exact","3029 CLINTON ST NE, WASHINGTON, DC, 20018",76229479,"R"
161866,"3029 DUBARRY LANE","BROOKEVILLE","MD",20833,39.171375427,-77.06196987,366,"3029 DUBARRY LANE, BROOKEVILLE, MD, 20833","Match","Exact","3029 DUBARRY LN, BROOKEVILLE, MD, 20833",62071033,"R"
161867,"3029 E MISSIONWOOD CIRCLE","MIRAMAR","FL",33025,25.982246079,-80.25202224,367,"3029 E MISSIONWOOD CIRCLE, MIRAMAR, FL, 33025","Match","Exact","3029 E MISSIONWOOD CIR, MIRAMAR, FL, 33025",114734021,"L"
161868,"3029 E PERIMETER RD","JOINT BASE ANDREWS","MD",20762,NA,NA,368,"3029 E PERIMETER RD, JOINT BASE ANDREWS, MD, 20762","No_Match",NA,NA,NA,NA
161869,"3029 ELDERBERRY CT","ASHEBORO","NC",27205,35.710469872,-79.711683597,369,"3029 ELDERBERRY CT, ASHEBORO, NC, 27205","Match","Exact","3029 ELDERBERRY CT, ASHEBORO, NC, 27205",623705159,"R"
161870,"3029 FLEMING AVENUE","LOUISVILLE","KY",40206,38.264421172,-85.692538466,370,"3029 FLEMING AVENUE, LOUISVILLE, KY, 40206","Match","Exact","3029 FLEMING AVE, LOUISVILLE, KY, 40206",96974398,"L"
161871,"3029 GARFIELD","COSTA MESA","CA",92626,33.6813625930001,-117.901673083,371,"3029 GARFIELD, COSTA MESA, CA, 92626","Match","Non_Exact","3029 GARFIELD AVE, COSTA MESA, CA, 92626",144047799,"L"
161872,"3029 LAKEFIELD DRIVE","LITTLE ELM","TX",75068,33.187489398,-96.9069300629999,372,"3029 LAKEFIELD DRIVE, LITTLE ELM, TX, 75068","Match","Exact","3029 LAKEFIELD DR, LITTLE ELM, TX, 75068",619736399,"R"
161873,"3029 MELROSE AVE","CAPE GIRARDEAU","MO",63701,37.332063292,-89.5658337959999,373,"3029 MELROSE AVE, CAPE GIRARDEAU, MO, 63701","Match","Exact","3029 MELROSE AVE, CAPE GIRARDEAU, MO, 63701",35198071,"L"
161874,"3029 N E 188TH STREET APT 1107","AVENTURA","FL",33180,25.9493114050001,-80.140477953,374,"3029 N E 188TH STREET APT 1107, AVENTURA, FL, 33180","Match","Non_Exact","3029 NE 188TH ST, AVENTURA, FL, 33180",633328875,"L"
161875,"3029 NE 188TH STREET APT 1124","AVENTURA","FL",33180,25.9493109960001,-80.140488754,375,"3029 NE 188TH STREET APT 1124, AVENTURA, FL, 33180","Match","Non_Exact","3029 NE 188TH ST, AVENTURA, FL, 33180",633328875,"L"
161876,"3029 OLD FOREST ROAD","LYNCHBURG","VA",24501,37.414686261,-79.207308591,376,"3029 OLD FOREST ROAD, LYNCHBURG, VA, 24501","Match","Exact","3029 OLD FOREST RD, LYNCHBURG, VA, 24501",632531675,"L"
161877,"3029 S LOWE AVE","CHICAGO","IL",60616,41.839456657,-87.642670487,377,"3029 S LOWE AVE, CHICAGO, IL, 60616","Match","Exact","3029 S LOWE AVE, CHICAGO, IL, 60616",605507465,"L"
161878,"3029 SYLVAN DRIVE","FALLS CHURCH","VA",22042,38.8682570820001,-77.170671273,378,"3029 SYLVAN DRIVE, FALLS CHURCH, VA, 22042","Match","Exact","3029 SYLVAN DR, FALLS CHURCH, VA, 22042",75979626,"L"
161879,"3029 TEAKWOOD LANE","HERRIN","MD",62948,NA,NA,379,"3029 TEAKWOOD LANE, HERRIN, MD, 62948","No_Match",NA,NA,NA,NA
161880,"3029 VINE STREET","DENVER","CO",80205,39.759889247,-104.962219031,380,"3029 VINE STREET, DENVER, CO, 80205","Match","Exact","3029 VINE ST, DENVER, CO, 80205",177305464,"L"
161881,"3029 W BELDEN AVE 1A","CHICAGO","IL",60647,41.923254279,-87.7034696859999,381,"3029 W BELDEN AVE 1A, CHICAGO, IL, 60647","Match","Non_Exact","3029 W BELDEN AVE, CHICAGO, IL, 60647",605230989,"L"
161882,"3029 WAUGHTOWN STREET","WINSTON SALEM","NC",27107,36.0768463150001,-80.18025612,382,"3029 WAUGHTOWN STREET, WINSTON SALEM, NC, 27107","Match","Exact","3029 WAUGHTOWN ST, WINSTON SALEM, NC, 27107",84614434,"L"
161883,"3029 WILLIAMSON RD","GREENCASTLE","PA",17225,39.8266380580001,-77.7630825479999,383,"3029 WILLIAMSON RD, GREENCASTLE, PA, 17225","Match","Exact","3029 WILLIAMSON RD, GREENCASTLE, PA, 17225",647528014,"R"
161884,"3029 WOODMONT DR","SOUTH BEND","IN",46614,41.643579306,-86.21888505,384,"3029 WOODMONT DR, SOUTH BEND, IN, 46614","Match","Exact","3029 WOODMONT DR, SOUTH BEND, IN, 46614",8061772,"R"
161885,"30292 SE LAWRENCE RD","ESTACADA","OR",97023,45.3030764920001,-122.311986167,385,"30292 SE LAWRENCE RD, ESTACADA, OR, 97023","Match","Exact","30292 SE LAWRENCE RD, ESTACADA, OR, 97023",627286838,"R"
161886,"30297 N OAK DR","FLORENCE","AZ",85132,33.154041519,-111.422723086,386,"30297 N OAK DR, FLORENCE, AZ, 85132","Match","Exact","30297 N OAK DR, FLORENCE, AZ, 85132",627500934,"R"
161887,"302A W 12TH ST 252","NEW YORK","NY",10014,40.7375443560001,-74.00460271,387,"302A W 12TH ST 252, NEW YORK, NY, 10014","Match","Exact","302 W 12TH ST, NEW YORK, NY, 10014",59659827,"L"
161888,"302A W 12TH STREET NUM 228","NEW YORK","NY",10014,40.7375443560001,-74.00460271,388,"302A W 12TH STREET NUM 228, NEW YORK, NY, 10014","Match","Exact","302 W 12TH ST, NEW YORK, NY, 10014",59659827,"L"
161889,"302A WEST 12TH ST 195","NEW YORK","NY",10014,40.7375443560001,-74.00460271,389,"302A WEST 12TH ST 195, NEW YORK, NY, 10014","Match","Exact","302 W 12TH ST, NEW YORK, NY, 10014",59659827,"L"
161890,"302A WEST 12TH STREET SUITE 136","NEW YORK","NY",10014,40.7375443560001,-74.00460271,390,"302A WEST 12TH STREET SUITE 136, NEW YORK, NY, 10014","Match","Exact","302 W 12TH ST, NEW YORK, NY, 10014",59659827,"L"
161891,"302F TOYON AVENUE NUMBER 124","SAN JOSE","CA",95127,37.3824039570001,-121.827229759,391,"302F TOYON AVENUE NUMBER 124, SAN JOSE, CA, 95127","Match","Exact","302 TOYON AVE, SAN JOSE, CA, 95127",618191552,"R"
161892,"303 10TH AVE SE","STANLEY","ND",58784,48.3077976650001,-102.384254998,392,"303 10TH AVE SE, STANLEY, ND, 58784","Match","Exact","303 10TH AVE SE, STANLEY, ND, 58784",648965170,"L"
161893,"303 10TH STREET","BROOKLYN","NY",11215,40.669630698,-73.988957579,393,"303 10TH STREET, BROOKLYN, NY, 11215","Match","Exact","303 10TH ST, BROOKLYN, NY, 11215",59075693,"L"
161894,"303 14TH STREET NE","DEVILS LAKE","ND",58301,48.1223239180001,-98.8626577379999,394,"303 14TH STREET NE, DEVILS LAKE, ND, 58301","Match","Exact","303 14TH ST NE, DEVILS LAKE, ND, 58301",181172653,"L"
161895,"303 159TH ST E","TACOMA","WA",98445,47.112309339,-122.429011474,395,"303 159TH ST E, TACOMA, WA, 98445","Match","Exact","303 159TH ST E, TACOMA, WA, 98445",184630369,"L"
161896,"303 1ST AVE EAST","WASHBURN","WI",54891,46.6747876110001,-90.890948442,396,"303 1ST AVE EAST, WASHBURN, WI, 54891","Match","Non_Exact","303 S 1ST AVE E, WASHBURN, WI, 54891",194282203,"L"
161897,"303 1ST AVE W","LEMMON","SD",57638,45.9418383220001,-102.160864805,397,"303 1ST AVE W, LEMMON, SD, 57638","Match","Exact","303 1ST AVE W, LEMMON, SD, 57638",197435440,"L"
161898,"303 21ST STREET  SUITE 232","NEWPORT","MN",55055,44.8799596550001,-93.005983273,398,"303 21ST STREET  SUITE 232, NEWPORT, MN, 55055","Match","Exact","303 21ST ST, NEWPORT, MN, 55055",97791460,"L"
161899,"303 2ND AVE","ZILLAH","WA",98953,46.4041827130001,-120.265732516,399,"303 2ND AVE, ZILLAH, WA, 98953","Match","Exact","303 SECOND AVE, ZILLAH, WA, 98953",640177903,"R"
161900,"303 2ND AVENUE","KEYSTONE","IA",52249,42.001504986,-92.196693537,400,"303 2ND AVENUE, KEYSTONE, IA, 52249","Match","Exact","303 2ND AVE, KEYSTONE, IA, 52249",94712541,"L"
161901,"303 52ND STREET","VIRGINIA BEACH","VA",23451,36.8786252,-75.987509792,401,"303 52ND STREET, VIRGINIA BEACH, VA, 23451","Match","Exact","303 52ND ST, VA BCH, VA, 23451",122283323,"R"
161902,"303 9TH STREET","MOODY","TX",76557,31.307789257,-97.363598232,402,"303 9TH STREET, MOODY, TX, 76557","Match","Exact","303 9TH ST, MOODY, TX, 76557",146741015,"R"
161903,"303 ACADEMY RD","HILTONS","VA",24258,36.6539664920001,-82.464304215,403,"303 ACADEMY RD, HILTONS, VA, 24258","Match","Exact","303 ACADEMY RD, HILTONS, VA, 24258",225168426,"R"
161904,"303 ASHLAND AVENUE","SECANE","PA",19018,39.920157348,-75.306956949,404,"303 ASHLAND AVENUE, SECANE, PA, 19018","Match","Exact","303 ASHLAND AVE, SECANE, PA, 19018",134883041,"L"
161905,"303 ATWOOD STREET","LONGMONT","CO",80501,40.1641103700001,-105.096591066,405,"303 ATWOOD STREET, LONGMONT, CO, 80501","Match","Exact","303 ATWOOD ST, LONGMONT, CO, 80501",188156675,"L"
161906,"303 AUBURN WAY","COPPELL","TX",75019,32.979131695,-97.0000892319999,406,"303 AUBURN WAY, COPPELL, TX, 75019","Match","Exact","303 AUBURN WAY, COPPELL, TX, 75019",102997327,"R"
161907,"303 AUTUMN CREST DRIVE","RIDGELAND","MS",39157,32.432558084,-90.117595949,407,"303 AUTUMN CREST DRIVE, RIDGELAND, MS, 39157","Match","Exact","303 AUTUMN CREST DR, RIDGELAND, MS, 39157",152489984,"R"
161908,"303 AVERIL RD","SAN YSIDRO","CA",92173,32.559687936,-117.054270753,408,"303 AVERIL RD, SAN YSIDRO, CA, 92173","Match","Exact","303 AVERIL RD, SAN YSIDRO, CA, 92173",195364988,"L"
161909,"303 AZALEA LANE","CLEVER","MO",65631,37.0335926760001,-93.4366419849999,409,"303 AZALEA LANE, CLEVER, MO, 65631","Match","Exact","303 AZALEA LN, CLEVER, MO, 65631",99849017,"R"
161910,"303 B BOLEN LANE","TRAFFORD","PA",15085,40.3807071420001,-79.698672398,410,"303 B BOLEN LANE, TRAFFORD, PA, 15085","Match","Exact","303 BOLEN LN, TRAFFORD, PA, 15085",53024037,"R"
161911,"303 BELTLINE PL SW 553","DECATUR","AL",35603,34.560073109,-86.987827566,411,"303 BELTLINE PL SW 553, DECATUR, AL, 35603","Match","Non_Exact","303 BELTLINE PL, DECATUR, AL, 35603",97141152,"L"
161912,"303 BENDEMEER LANE","ROLESVILLE","NC",27571,35.9067024870001,-78.476575133,412,"303 BENDEMEER LANE, ROLESVILLE, NC, 27571","Match","Exact","303 BENDEMEER LN, ROLESVILLE, NC, 27571",625612092,"L"
161913,"303 BEVERLEY ROAD APT 4J","BROOKLYN","NY",11218,40.642965954,-73.977229383,413,"303 BEVERLEY ROAD APT 4J, BROOKLYN, NY, 11218","Match","Exact","303 BEVERLEY RD, BROOKLYN, NY, 11218",59080615,"L"
161914,"303 BLANCHARD ROAD","NATCHITOCHES","LA",71457,31.7597530890001,-93.060169893,414,"303 BLANCHARD ROAD, NATCHITOCHES, LA, 71457","Match","Exact","303 BLANCHARD RD, NATCHITOCHES, LA, 71457",13349658,"L"
161915,"303 BRANDYWINE DRIVE","RALEIGH","NC",27607,35.8012588,-78.744130076,415,"303 BRANDYWINE DRIVE, RALEIGH, NC, 27607","Match","Exact","303 BRANDYWINE DR, RALEIGH, NC, 27607",639836082,"L"
161916,"303 BRENTWOOD AVE","TRUSSVILLE","AL",35173,33.6294493710001,-86.612315316,416,"303 BRENTWOOD AVE, TRUSSVILLE, AL, 35173","Match","Exact","303 BRENTWOOD AVE, TRUSSVILLE, AL, 35173",81612025,"L"
161917,"303 BRIGADOON DR","CLEARWATER","FL",33759,27.9719560770001,-82.7179243319999,417,"303 BRIGADOON DR, CLEARWATER, FL, 33759","Match","Exact","303 BRIGADOON DR, CLEARWATER, FL, 33759",124719700,"L"
161918,"303 BROADWAY STREET SUITE 104-16","LAGUNA BEACH","CA",92651,33.5443890450001,-117.78374602,418,"303 BROADWAY STREET SUITE 104-16, LAGUNA BEACH, CA, 92651","Match","Exact","303 BROADWAY ST, LAGUNA BEACH, CA, 92651",144068398,"R"
161919,"303 BRONX RIVER AVE","BRONX","NY",10473,40.807586094,-73.857862842,419,"303 BRONX RIVER AVE, BRONX, NY, 10473","Match","Exact","303 BRONX RIVER AVE, BRONX, NY, 10473",80312111,"L"
161920,"303 BURKWOOD CT W","URBANA","IL",61801,40.096490547,-88.20469173,420,"303 BURKWOOD CT W, URBANA, IL, 61801","Match","Exact","303 BURKWOOD CT W, URBANA, IL, 61801",8825275,"R"
161921,"303 BUTLER","SAUGATUCK","MI",49453,42.656679872,-86.204096738,421,"303 BUTLER, SAUGATUCK, MI, 49453","Match","Non_Exact","303 BUTLER ST, SAUGATUCK, MI, 49453",11421969,"R"
161922,"303 CABBAGE INLET LANE","WILMINGTON","NC",28409,34.1616741020001,-77.8561255979999,422,"303 CABBAGE INLET LANE, WILMINGTON, NC, 28409","Match","Exact","303 CABBAGE INLET LN, WILMINGTON, NC, 28409",152751523,"L"
161923,"303 CAHOON ROAD","BAY VILLAGE","OH",44140,41.4877521930001,-81.927787113,423,"303 CAHOON ROAD, BAY VILLAGE, OH, 44140","Match","Exact","303 CAHOON RD, BAY VILLAGE, OH, 44140",61137635,"L"
161924,"303 CANYON CREST DR","AMARILLO","TX",79124,35.2148523480001,-101.915288767,424,"303 CANYON CREST DR, AMARILLO, TX, 79124","Match","Exact","303 CANYON CREST DR, AMARILLO, TX, 79124",182481565,"L"
161925,"303 CAPRI DRIVE","O FALLON","MO",63366,38.827221416,-90.702868381,425,"303 CAPRI DRIVE, O FALLON, MO, 63366","Match","Exact","303 CAPRI DR, O FALLON, MO, 63366",100014111,"R"
161926,"303 CENTERVILLE ROAD","ANDERSON","SC",29625,34.519222815,-82.701467403,426,"303 CENTERVILLE ROAD, ANDERSON, SC, 29625","Match","Exact","303 CENTERVILLE RD, ANDERSON, SC, 29625",25449900,"L"
161927,"303 CENTRAL AVENUE 6","FARIBAULT","MN",55021,44.2937413340001,-93.26835713,427,"303 CENTRAL AVENUE 6, FARIBAULT, MN, 55021","Match","Non_Exact","303 CENTRAL AVE N, FARIBAULT, MN, 55021",37316757,"R"
161928,"303 CHARLES STREET","WILMINGTON","OH",45177,39.4411589220001,-83.826540096,428,"303 CHARLES STREET, WILMINGTON, OH, 45177","Match","Exact","303 CHARLES ST, WILMINGTON, OH, 45177",146840463,"R"
161929,"303 COLLEGE CIRCLE","MOREHEAD CITY","NC",28557,34.72270632,-76.758630324,429,"303 COLLEGE CIRCLE, MOREHEAD CITY, NC, 28557","Match","Exact","303 COLLEGE CIR, MOREHEAD CITY, NC, 28557",647979949,"L"
161930,"303 CORPORATE CENTER DR SUITE 100","STOCKBRIDGE","GA",30281,33.5055367470001,-84.221284273,430,"303 CORPORATE CENTER DR SUITE 100, STOCKBRIDGE, GA, 30281","Match","Exact","303 CORPORATE CENTER DR, STOCKBRIDGE, GA, 30281",617922072,"R"
161931,"303 COUNTY ROAD 42","GIBSONBURG","OH",43431,41.3465774110001,-83.3399617699999,431,"303 COUNTY ROAD 42, GIBSONBURG, OH, 43431","Match","Exact","303 CO RD 42, GIBSONBURG, OH, 43431",38667664,"R"
161932,"303 COURT ST","LITTLE VALLEY","NY",14755,42.251575109,-78.8007502729999,432,"303 COURT ST, LITTLE VALLEY, NY, 14755","Match","Exact","303 COURT ST, LITTLE VALLEY, NY, 14755",122062427,"R"
161933,"303 COURT STREET SUITE 409","COVINGTON","KY",41011,39.0885556640001,-84.508861127,433,"303 COURT STREET SUITE 409, COVINGTON, KY, 41011","Match","Non_Exact","303 COURT AVE, COVINGTON, KY, 41011",103876123,"R"
161934,"303 CREE COURT","TECUMSEH","MI",49286,42.0206216620001,-83.952447557,434,"303 CREE COURT, TECUMSEH, MI, 49286","Match","Exact","303 CREE CT, TECUMSEH, MI, 49286",25952799,"L"
161935,"303 DEGRAW STREET","BROOKLYN","NY",11231,40.6831586770001,-73.9936777579999,435,"303 DEGRAW STREET, BROOKLYN, NY, 11231","Match","Exact","303 DEGRAW ST, BROOKLYN, NY, 11231",59075273,"L"
161936,"303 DES PLAINES AVE UNIT 403","FOREST PARK","IL",60130,NA,NA,436,"303 DES PLAINES AVE UNIT 403, FOREST PARK, IL, 60130","No_Match",NA,NA,NA,NA
161937,"303 DOGWOOD LANE","PRINCETON","KY",42445,37.0799347700001,-87.895688863,437,"303 DOGWOOD LANE, PRINCETON, KY, 42445","Match","Exact","303 DOGWOOD LN, PRINCETON, KY, 42445",10647248,"R"
161938,"303 DUNWOODY CHACE","ATLANTA","GA",30328,33.922515215,-84.3504084259999,438,"303 DUNWOODY CHACE, ATLANTA, GA, 30328","Match","Exact","303 DUNWOODY CHACE, ATLANTA, GA, 30328",17433934,"R"
161939,"303 E 115TH ST","KANSAS CITY","MO",64114,38.9189448650001,-94.5898636429999,439,"303 E 115TH ST, KANSAS CITY, MO, 64114","Match","Exact","303 E 115TH ST, KANSAS CITY, MO, 64114",91456327,"R"
161940,"303 E 16 STREET SUITE D 132","DOUGLAS","AZ",85607,31.3506381400001,-109.557440973,440,"303 E 16 STREET SUITE D 132, DOUGLAS, AZ, 85607","Match","Exact","303 16TH ST, DOUGLAS, AZ, 85607",120910294,"R"
161941,"303 E 17TH STREET","LOCKPORT","IL",60441,41.5802512870001,-88.05831087,441,"303 E 17TH STREET, LOCKPORT, IL, 60441","Match","Exact","303 E 17TH ST, LOCKPORT, IL, 60441",111545027,"R"
161942,"303 E 18TH STREET","TULSA","OK",74120,36.136182503,-95.981665635,442,"303 E 18TH STREET, TULSA, OK, 74120","Match","Exact","303 E 18TH ST, TULSA, OK, 74120",166442075,"L"
161943,"303 E 21ST ST","JACKSONVILLE","FL",32206,30.357157441,-81.649144543,443,"303 E 21ST ST, JACKSONVILLE, FL, 32206","Match","Exact","303 E 21ST ST, JACKSONVILLE, FL, 32206",83899058,"R"
161944,"303 E 2ND ST UNIT 635","SKIATOOK","OK",74070,36.3695381650001,-95.9987063,444,"303 E 2ND ST UNIT 635, SKIATOOK, OK, 74070","Match","Non_Exact","303 E 2ND ST, SKIATOOK, OK, 74070",166428193,"R"
161945,"303 E 32ND ST","AUSTIN","TX",78705,30.295599613,-97.734710518,445,"303 E 32ND ST, AUSTIN, TX, 78705","Match","Exact","303 E 32ND ST, AUSTIN, TX, 78705",63945679,"R"
161946,"303 E 7TH ST","MUNCIE","IN",47302,40.1829379050001,-85.3840170139999,446,"303 E 7TH ST, MUNCIE, IN, 47302","Match","Exact","303 E 7TH ST, MUNCIE, IN, 47302",30837684,"R"
161947,"303 E ARIZONA AVE","RUSTON","LA",71270,32.5255162940001,-92.635400542,447,"303 E ARIZONA AVE, RUSTON, LA, 71270","Match","Exact","303 E ARIZONA AVE, RUSTON, LA, 71270",164092400,"R"
161948,"303 E ARIZONA AVENUE","RUSTON","LA",71270,32.5255162940001,-92.635400542,448,"303 E ARIZONA AVENUE, RUSTON, LA, 71270","Match","Exact","303 E ARIZONA AVE, RUSTON, LA, 71270",164092400,"R"
161949,"303 E ELM ST","WINFIELD","IA",52659,41.128696684,-91.4349861379999,449,"303 E ELM ST, WINFIELD, IA, 52659","Match","Exact","303 E ELM ST, WINFIELD, IA, 52659",16082140,"R"
161950,"303 E FAYETTE AVE","EFFINGHAM","IL",62401,NA,NA,450,"303 E FAYETTE AVE, EFFINGHAM, IL, 62401","No_Match",NA,NA,NA,NA
161951,"303 E HIGH ST","MOUNT VERNON","OH",42050,40.393335542,-82.479667937,451,"303 E HIGH ST, MOUNT VERNON, OH, 42050","Match","Non_Exact","303 E HIGH ST, MOUNT VERNON, OH, 43050",648841348,"L"
161952,"303 E HOWARD AVENUE","DECATUR","GA",30030,33.771803381,-84.292602669,452,"303 E HOWARD AVENUE, DECATUR, GA, 30030","Match","Exact","303 E HOWARD AVE, DECATUR, GA, 30030",23367195,"R"
161953,"303 E IDLEWILDAVE","EUSTIS","FL",32726,NA,NA,453,"303 E IDLEWILDAVE, EUSTIS, FL, 32726","No_Match",NA,NA,NA,NA
161954,"303 E MAIN ST","FREMONT","MI",49412,43.467123171,-85.939685765,454,"303 E MAIN ST, FREMONT, MI, 49412","Match","Exact","303 E MAIN ST, FREMONT, MI, 49412",150218337,"R"
161955,"303 E MAIN STREET","STONEVILLE","NC",27603,36.466518675,-79.903339976,455,"303 E MAIN STREET, STONEVILLE, NC, 27603","Match","Non_Exact","303 E MAIN ST, STONEVILLE, NC, 27048",56210626,"R"
161956,"303 E NEW ENGLAND AVE","WORTHINGTON","OH",43085,40.086442902,-83.008751708,456,"303 E NEW ENGLAND AVE, WORTHINGTON, OH, 43085","Match","Exact","303 E NEW ENGLAND AVE, WORTHINGTON, OH, 43085",218660488,"R"
161957,"303 E UNIVERSITY DRIVE","EDINBURG","TX",78539,NA,NA,457,"303 E UNIVERSITY DRIVE, EDINBURG, TX, 78539","No_Match",NA,NA,NA,NA
161958,"303 E WACKER DRIVE SUITE 1020","CHICAGO","IL",60601,41.887803864,-87.6205314169999,458,"303 E WACKER DRIVE SUITE 1020, CHICAGO, IL, 60601","Match","Non_Exact","303 E WACKER DR, CHICAGO, IL, 60601",618886103,"R"
161959,"303 E WACKER DRIVE SUITE 1400","CHICAGO","IL",60601,41.887803864,-87.6205314169999,459,"303 E WACKER DRIVE SUITE 1400, CHICAGO, IL, 60601","Match","Non_Exact","303 E WACKER DR, CHICAGO, IL, 60601",618886103,"R"
161960,"303 E WOODLAWN RD STE 3","CHARLOTTE","NC",28217,NA,NA,460,"303 E WOODLAWN RD STE 3, CHARLOTTE, NC, 28217","Tie",NA,NA,NA,NA
161961,"303 EAST 135 STREET APT 1J","BRONX","NY",10454,40.80862196,-73.9275630819999,461,"303 EAST 135 STREET APT 1J, BRONX, NY, 10454","Match","Exact","303 E 135TH ST, BRONX, NY, 10454",642559022,"L"
161962,"303 EAST 3RD SOUTH","PRESCOTT","AR",71857,33.79922393,-93.380703234,462,"303 EAST 3RD SOUTH, PRESCOTT, AR, 71857","Match","Non_Exact","303 E 3RD ST S, PRESCOTT, AR, 71857",10259378,"R"
161963,"303 EAST 51ST STREET- SUITE 8G","NEW YORK","NY",10022,40.7554151640001,-73.967830474,463,"303 EAST 51ST STREET- SUITE 8G, NEW YORK, NY, 10022","Match","Non_Exact","303 E 51ST ST, NEW YORK, NY, 10022",59658727,"L"
161964,"303 EAST 7TH STREET","MUNCIE","IN",47302,40.182937904,-85.384017415,464,"303 EAST 7TH STREET, MUNCIE, IN, 47302","Match","Exact","303 E 7TH ST, MUNCIE, IN, 47302",30837684,"R"
161965,"303 EAST CLEVELAND AVENUE","GREENWOOD","MS",38930,33.531486478,-90.185723001,465,"303 EAST CLEVELAND AVENUE, GREENWOOD, MS, 38930","Match","Exact","303 E CLEVELAND AVE, GREENWOOD, MS, 38930",1053881,"L"
161966,"303 EAST GURLEY STREET UNIT 411","PRESCOTT","AZ",86301,34.541839716,-112.465734086,466,"303 EAST GURLEY STREET UNIT 411, PRESCOTT, AZ, 86301","Match","Exact","303 E GURLEY ST, PRESCOTT, AZ, 86301",159457090,"L"
161967,"303 EAST RUSK","ROCKWALL","TX",75087,32.931055228,-96.4585350469999,467,"303 EAST RUSK, ROCKWALL, TX, 75087","Match","Non_Exact","303 E RUSK ST, ROCKWALL, TX, 75087",123780159,"L"
161968,"303 EAST STREET","ROCHESTER","MI",48307,42.6801094460001,-83.132289527,468,"303 EAST STREET, ROCHESTER, MI, 48307","Match","Exact","303 EAST ST, ROCHESTER, MI, 48307",69713400,"L"
161969,"303 EAST WOOLBRIGHT ROAD","BOYNTON BEACH","FL",33435,26.514559134,-80.061024344,469,"303 EAST WOOLBRIGHT ROAD, BOYNTON BEACH, FL, 33435","Match","Exact","303 E WOOLBRIGHT RD, BOYNTON BEACH, FL, 33435",115297020,"L"
161970,"303 ELLIS ROAD","LANGHORNE","PA",19047,40.2129785650001,-74.9125663839999,470,"303 ELLIS ROAD, LANGHORNE, PA, 19047","Match","Exact","303 ELLIS RD, LANGHORNE, PA, 19047",134778610,"L"
161971,"303 EMERALD WAY","HORSESHOE BAY","TX",78657,30.5347037770001,-98.406400264,471,"303 EMERALD WAY, HORSESHOE BAY, TX, 78657","Match","Exact","303 EMERALD WAY, HORSESHOE BAY, TX, 78657",182249340,"R"
161972,"303 ENCHANTED HILLTOP WAY","LAKEWAY","TX",78738,30.3541023110001,-98.0166619779999,472,"303 ENCHANTED HILLTOP WAY, LAKEWAY, TX, 78738","Match","Exact","303 ENCHANTED HILLTOP WAY, LAKEWAY, TX, 78738",641936540,"R"
161973,"303 EXETER STREET","OLDSMAR","FL",34677,28.0365985620001,-82.664982917,473,"303 EXETER STREET, OLDSMAR, FL, 34677","Match","Exact","303 EXETER ST, OLDSMAR, FL, 34677",124685025,"L"
161974,"303 FAIRWAY DR W","NICHOLASVILLE","KY",40356,37.897499044,-84.596895328,474,"303 FAIRWAY DR W, NICHOLASVILLE, KY, 40356","Match","Exact","303 FAIRWAY DR W, NICHOLASVILLE, KY, 40356",38464586,"L"
161975,"303 FALCON LANE APT T1","WEST CHESTER","PA",19382,39.9660268170001,-75.554142138,475,"303 FALCON LANE APT T1, WEST CHESTER, PA, 19382","Match","Exact","303 FALCON LN, WEST CHESTER, PA, 19382",636456978,"L"
161976,"303 FISHER DR","CLINTON","NC",28328,35.0015656370001,-78.324487281,476,"303 FISHER DR, CLINTON, NC, 28328","Match","Exact","303 FISHER DR, CLINTON, NC, 28328",638660339,"L"
161977,"303 FORREST OAKS LANE","LAKE JACKSON","TX",77566,29.026313578,-95.42554685,477,"303 FORREST OAKS LANE, LAKE JACKSON, TX, 77566","Match","Non_Exact","303 FOREST OAKS LN, LAKE JACKSON, TX, 77566",116580265,"L"
161978,"303 FOX TRAIL","ROYERSFORD","PA",19468,40.208211358,-75.547003901,478,"303 FOX TRAIL, ROYERSFORD, PA, 19468","Match","Exact","303 FOX TRL, ROYERSFORD, PA, 19468",135112030,"L"
161979,"303 FULLER RD","CENTRAL SQ","NY",13036,43.2940585200001,-76.193195222,479,"303 FULLER RD, CENTRAL SQ, NY, 13036","Match","Exact","303 FULLER RD, CENTRAL SQ, NY, 13036",57822972,"L"
161980,"303 FULLER ROAD","CENTRAL SQUARE","NY",13036,43.2940585200001,-76.193195222,480,"303 FULLER ROAD, CENTRAL SQUARE, NY, 13036","Match","Exact","303 FULLER RD, CENTRAL SQUARE, NY, 13036",57822972,"L"
161981,"303 GINGER LN","PHILADELPHIA","PA",19128,40.0394026430001,-75.229581717,481,"303 GINGER LN, PHILADELPHIA, PA, 19128","Match","Exact","303 GINGER LN, PHILADELPHIA, PA, 19128",131447403,"L"
161982,"303 GLEN MYRTLE AVE APT 101","CHARLOTTE","NC",28262,35.342583636,-80.70400298,482,"303 GLEN MYRTLE AVE APT 101, CHARLOTTE, NC, 28262","Match","Exact","303 GLEN MYRTLE AVE, CHARLOTTE, NC, 28262",648556949,"L"
161983,"303 GOLDEN OCALA BLVD","MACON","GA",31216,32.726738992,-83.6964761739999,483,"303 GOLDEN OCALA BLVD, MACON, GA, 31216","Match","Exact","303 GOLDEN OCALA BLVD, MACON, GA, 31216",645704690,"L"
161984,"303 GOODRICH ST","VASSAR","MI",48768,43.366503579,-83.580069403,484,"303 GOODRICH ST, VASSAR, MI, 48768","Match","Exact","303 GOODRICH ST, VASSAR, MI, 48768",81248384,"R"
161985,"303 GOOSE LANE","BATH","NH",3740,44.14792355,-71.9800228189999,485,"303 GOOSE LANE, BATH, NH, 3740","Match","Exact","303 GOOSE LN, BATH, NH, 03740",145673668,"L"
161986,"303 GROVE ST","OXFORD","NC",27565,36.328925181,-78.597274226,486,"303 GROVE ST, OXFORD, NC, 27565","Match","Exact","303 GROVE ST, OXFORD, NC, 27565",77103825,"R"
161987,"303 HAMPTON DR","RAEFORD","NC",28376,34.98855109,-79.108984586,487,"303 HAMPTON DR, RAEFORD, NC, 28376","Match","Exact","303 HAMPTON DR, RAEFORD, NC, 28376",76190208,"L"
161988,"303 HARVARD AVE E","SEATTLE","WA",98102,47.621151366,-122.322150352,488,"303 HARVARD AVE E, SEATTLE, WA, 98102","Match","Exact","303 HARVARD AVE E, SEATTLE, WA, 98102",186584341,"L"
161989,"303 HERITAGE DR","BOSSIER CITY","LA",71112,32.456702482,-93.6613560709999,489,"303 HERITAGE DR, BOSSIER CITY, LA, 71112","Match","Exact","303 HERITAGE DR, BOSSIER CITY, LA, 71112",635019341,"R"
161990,"303 HIGH MESA COURT","COLORADO SPRINGS","CO",80905,38.828134257,-104.851722102,490,"303 HIGH MESA COURT, COLORADO SPRINGS, CO, 80905","Match","Exact","303 HIGH MESA CT, COLORADO SPRINGS, CO, 80905",624720110,"R"
161991,"303 HILL TRL DRIVE","BALLWIN","MO",63011,38.6083484810001,-90.535143626,491,"303 HILL TRL DRIVE, BALLWIN, MO, 63011","Match","Exact","303 HILL TRL, BALLWIN, MO, 63011",100111696,"L"
161992,"303 HOLLY GROVE DRIVE","MOUNTAIN HOME","AR",72653,36.3373767080001,-92.3558428809999,492,"303 HOLLY GROVE DRIVE, MOUNTAIN HOME, AR, 72653","Match","Exact","303 HOLLY GROVE DR, MOUNTAIN HOME, AR, 72653",2972275,"L"
161993,"303 HOMESTEAD AVENUE","HOLYOKE","MA",1040,42.192534429,-72.648083879,493,"303 HOMESTEAD AVENUE, HOLYOKE, MA, 1040","Match","Exact","303 HOMESTEAD AVE, HOLYOKE, MA, 01040",4016969,"R"
161994,"303 HWY CC","ELDON","MO",65026,38.400529293,-92.59178693,494,"303 HWY CC, ELDON, MO, 65026","Match","Exact","303 HWY CC, ELDON, MO, 65026",605448525,"L"
161995,"303 INNER CIRCLE DRIVE","BOLINGBROOK","IL",60490,41.686844197,-88.127194425,495,"303 INNER CIRCLE DRIVE, BOLINGBROOK, IL, 60490","Match","Exact","303 INNER CIRCLE DR, BOLINGBROOK, IL, 60490",620004372,"R"
161996,"303 IRELAND ST","HAMPTON","VA",23663,37.0354134930001,-76.313317645,496,"303 IRELAND ST, HAMPTON, VA, 23663","Match","Exact","303 IRELAND ST, HAMPTON, VA, 23663",103806181,"L"
161997,"303 JAMESTOWN OAKS DRIVE","JAMESTOWN","NC",27282,35.9836902160001,-79.926550149,497,"303 JAMESTOWN OAKS DRIVE, JAMESTOWN, NC, 27282","Match","Exact","303 JAMESTOWN OAKS DR, JAMESTOWN, NC, 27282",131098343,"L"
161998,"303 JOHNSON STREET","RYEGATE","MT",59074,46.2996122230001,-109.259148645,498,"303 JOHNSON STREET, RYEGATE, MT, 59074","Match","Exact","303 JOHNSON ST, RYEGATE, MT, 59074",170700308,"R"
161999,"303 KIDWELLY COURT","EXTON","PA",19341,40.05254913,-75.633655373,499,"303 KIDWELLY COURT, EXTON, PA, 19341","Match","Exact","303 KIDWELLY CT, EXTON, PA, 19341",179487458,"R"
162000,"303 LA PLATA PL","BOULDER CITY","NV",89005,35.9781957800001,-114.825182553,500,"303 LA PLATA PL, BOULDER CITY, NV, 89005","Match","Exact","303 LA PLATA PL, BOULDER CITY, NV, 89005",201830867,"R"
