"ID","Address","City","State","Zip","lat","long","id","input_address","match_indicator","match_type","matched_address","tiger_line_id","tiger_side"
268501,"6602 THREE CHOPT ROAD","RICHMOND","VA",23226,37.5833945430001,-77.531255989,1,"6602 THREE CHOPT ROAD, RICHMOND, VA, 23226","Match","Exact","6602 THREE CHOPT RD, RICHMOND, VA, 23226",201597978,"R"
268502,"6602 W JEFFERSON CT","MCCORDSVILLE","IN",46055,39.867463645,-85.927389937,2,"6602 W JEFFERSON CT, MCCORDSVILLE, IN, 46055","Match","Exact","6602 W JEFFERSON CT, MCCORDSVILLE, IN, 46055",31083140,"R"
268503,"6602 WALTON ST","DETROIT","MI",48210,42.3456215260001,-83.135163903,3,"6602 WALTON ST, DETROIT, MI, 48210","Match","Exact","6602 WALTON ST, DETROIT, MI, 48210",95506508,"R"
268504,"6602 WALTON","DETROIT","MI",48210,42.3456215260001,-83.135163903,4,"6602 WALTON, DETROIT, MI, 48210","Match","Non_Exact","6602 WALTON ST, DETROIT, MI, 48210",95506508,"R"
268505,"6602 WIND WHISPER","LAS VEGAS","NV",89148,36.0684167860001,-115.299307192,5,"6602 WIND WHISPER, LAS VEGAS, NV, 89148","Match","Non_Exact","6602 WIND WHISPER ST, LAS VEGAS, NV, 89148",623725267,"L"
268506,"66025 CADDO RD","HELENA","OK",73741,NA,NA,6,"66025 CADDO RD, HELENA, OK, 73741","No_Match",NA,NA,NA,NA
268507,"6603 AURORA AVE N","SEATTLE","WA",98103,47.676962555,-122.346329027,7,"6603 AURORA AVE N, SEATTLE, WA, 98103","Match","Exact","6603 AURORA AVE N, SEATTLE, WA, 98103",187077078,"L"
268508,"6603 BAR O RANCH RD","SANTA FE","TX",77517,29.351108891,-95.142478576,8,"6603 BAR O RANCH RD, SANTA FE, TX, 77517","Match","Exact","6603 BAR O RANCH RD, SANTA FE, TX, 77517",96703665,"L"
268509,"6603 FIVE ACRE ROAD","PLANT CITY","FL",33565,28.1035094320001,-82.2264270049999,9,"6603 FIVE ACRE ROAD, PLANT CITY, FL, 33565","Match","Exact","6603 5 ACRE RD, PLANT CITY, FL, 33565",631772831,"R"
268510,"6603 GOOD LUCK ROAD","NEW CARROLLTON","MD",20784,38.9721944660001,-76.89334974,10,"6603 GOOD LUCK ROAD, NEW CARROLLTON, MD, 20784","Match","Exact","6603 GOOD LUCK RD, NEW CARROLLTON, MD, 20784",76359000,"R"
268511,"6603 HIRSCH RD APT 414","HOUSTON","TX",77026,29.819318636,-95.32874114,11,"6603 HIRSCH RD APT 414, HOUSTON, TX, 77026","Match","Exact","6603 HIRSCH RD, HOUSTON, TX, 77026",96586090,"L"
268512,"6603 INDEPENDENCE AVE  UNIT A","CANOGA PARK","CA",91303,34.190275946,-118.590590339,12,"6603 INDEPENDENCE AVE  UNIT A, CANOGA PARK, CA, 91303","Match","Exact","6603 INDEPENDENCE AVE, CANOGA PARK, CA, 91303",141535290,"L"
268513,"6603 KENSINGTON AVE","RICHMOND","CA",94805,37.940205984,-122.308832827,13,"6603 KENSINGTON AVE, RICHMOND, CA, 94805","Match","Exact","6603 KENSINGTON AVE, RICHMOND, CA, 94805",192075149,"L"
268514,"6603 KROLLTON DR","AUSTIN","TX",78745,30.2083637870001,-97.810610195,14,"6603 KROLLTON DR, AUSTIN, TX, 78745","Match","Exact","6603 KROLLTON DR, AUSTIN, TX, 78745",63938968,"L"
268515,"6603 LEVEL POND","HUMBLE","TX",77338,30.021421031,-95.3241966739999,15,"6603 LEVEL POND, HUMBLE, TX, 77338","Match","Non_Exact","6603 LEVEL POND LN, HUMBLE, TX, 77338",645149089,"R"
268516,"6603 NE 55TH ST","VANCOUVER","WA",98661,45.6620238720001,-122.604368859,16,"6603 NE 55TH ST, VANCOUVER, WA, 98661","Match","Exact","6603 NE 55TH ST, VANCOUVER, WA, 98661",158369522,"R"
268517,"6603 ORANGEWOOD TER","TAMPA","FL",33610,28.007644429,-82.420529244,17,"6603 ORANGEWOOD TER, TAMPA, FL, 33610","Match","Exact","6603 ORANGEWOOD TER, TAMPA, FL, 33610",104531787,"R"
268518,"6603 RIGGINS DRIVE","CHATTANOOGA","TN",37421,35.0464408890001,-85.1732209,18,"6603 RIGGINS DRIVE, CHATTANOOGA, TN, 37421","Match","Exact","6603 RIGGINS DR, CHATTANOOGA, TN, 37421",59316881,"L"
268519,"6603 SPLITPINE CT","ATLANTA","GA",30349,33.5763933490001,-84.46546022,19,"6603 SPLITPINE CT, ATLANTA, GA, 30349","Match","Exact","6603 SPLITPINE CT, ATLANTA, GA, 30349",624809669,"R"
268520,"6603 SPOUT SPRINGS ROAD","FLOWERY BRANCH","GA",30542,34.148966713,-83.889690948,20,"6603 SPOUT SPRINGS ROAD, FLOWERY BRANCH, GA, 30542","Match","Exact","6603 SPOUT SPRINGS RD, FLOWERY BR, GA, 30542",98268460,"R"
268521,"6603 SPRINGCREST DRIVE","GREENBELT","MD",20770,38.981539905,-76.868382245,21,"6603 SPRINGCREST DRIVE, GREENBELT, MD, 20770","Match","Exact","6603 SPRINGCREST DR, GREENBELT, MD, 20770",76343654,"L"
268522,"6603 TYDINGS ROAD","SYKESVILLE","MD",21784,39.395469479,-76.949372551,22,"6603 TYDINGS ROAD, SYKESVILLE, MD, 21784","Match","Exact","6603 TYDINGS RD, SYKESVILLE, MD, 21784",608452947,"L"
268523,"6603 WEST FOREST RD APT 202","HYATTSVILLE","MD",20785,38.9252067250001,-76.8933525529999,23,"6603 WEST FOREST RD APT 202, HYATTSVILLE, MD, 20785","Match","Exact","6603 W FOREST RD, HYATTSVILLE, MD, 20785",76309194,"R"
268524,"6603 WOODSTREAM DRIVE","LANHAM","MD",20706,38.98052126,-76.8342771339999,24,"6603 WOODSTREAM DRIVE, LANHAM, MD, 20706","Match","Exact","6603 WOODSTREAM DR, LANHAM, MD, 20706",76310401,"L"
268525,"6603 YANKEE DR","PASCO","WA",99301,46.2741338660001,-119.176892537,25,"6603 YANKEE DR, PASCO, WA, 99301","Match","Exact","6603 YANKEE DR, PASCO, WA, 99301",175254304,"L"
268526,"6604 1ST STREET NW APT 4","WASHINGTON","DC",20012,38.9701403400001,-77.011672873,26,"6604 1ST STREET NW APT 4, WASHINGTON, DC, 20012","Match","Exact","6604 1ST ST NW, WASHINGTON, DC, 20012",76222051,"L"
268527,"6604 ANTHONY CREST SQ","MCLEAN","VA",22101,38.9320874750001,-77.1718742899999,27,"6604 ANTHONY CREST SQ, MCLEAN, VA, 22101","Match","Exact","6604 ANTHONY CREST SQ, MCLEAN, VA, 22101",76007141,"R"
268528,"6604 BAY CITY BND","AUSTIN","TX",78725,30.261413373,-97.669783098,28,"6604 BAY CITY BND, AUSTIN, TX, 78725","Match","Exact","6604 BAY CITY BEND, AUSTIN, TX, 78725",640858692,"L"
268529,"6604 CARLISLE PIKE","MECHANICSBURG","PA",17050,40.2447815720001,-77.0362895389999,29,"6604 CARLISLE PIKE, MECHANICSBURG, PA, 17050","Match","Exact","6604 CARLISLE PIKE, MECHANICSBURG, PA, 17050",221249651,"R"
268530,"6604 CLINTON AVE","RICHFIELD","MN",55423,44.883272789,-93.2717489789999,30,"6604 CLINTON AVE, RICHFIELD, MN, 55423","Match","Non_Exact","6604 CLINTON AVE S, RICHFIELD, MN, 55423",43635551,"R"
268531,"6604 DEVONSHIRE AVENUE UNIT 2N","ST. LOUIS","MO",63109,38.5896057100001,-90.305497542,31,"6604 DEVONSHIRE AVENUE UNIT 2N, ST. LOUIS, MO, 63109","Match","Exact","6604 DEVONSHIRE AVE, SAINT LOUIS, MO, 63109",107599089,"L"
268532,"6604 DORSET DRIVE","ALEXANDRIA","VA",22310,38.7748728130001,-77.100800054,32,"6604 DORSET DRIVE, ALEXANDRIA, VA, 22310","Match","Exact","6604 DORSET DR, ALEXANDRIA, VA, 22310",75988961,"R"
268533,"6604 GIANT OAKS RD","WONDER LAKE","IL",60097,42.4222643900001,-88.367352087,33,"6604 GIANT OAKS RD, WONDER LAKE, IL, 60097","Match","Exact","6604 GIANT OAKS RD, WONDER LAKE, IL, 60097",649516576,"L"
268534,"6604 NW 27 AVE ST 400","MIAMI","FL",33147,25.8345771630001,-80.241282263,34,"6604 NW 27 AVE ST 400, MIAMI, FL, 33147","Match","Non_Exact","6604 NW 27TH AVE, MIAMI, FL, 33147",116001402,"L"
268535,"6604 RONEE LEAH DR","AUSTIN","TX",78724,NA,NA,35,"6604 RONEE LEAH DR, AUSTIN, TX, 78724","No_Match",NA,NA,NA,NA
268536,"6604 SILVERY AVE","LAS VEGAS","NV",89108,36.212173788,-115.239399356,36,"6604 SILVERY AVE, LAS VEGAS, NV, 89108","Match","Exact","6604 SILVERY AVE, LAS VEGAS, NV, 89108",201899419,"L"
268537,"6604 SUMMER RAIN WAY","CITRUS HEIGHTS","CA",95621,38.6766254250001,-121.310172601,37,"6604 SUMMER RAIN WAY, CITRUS HEIGHTS, CA, 95621","Match","Exact","6604 SUMMER RAIN WAY, CITRUS HEIGHTS, CA, 95621",133342157,"L"
268538,"6604 SUMMERLYN BOULEVARD","LAMBERTVILLE","MI",48144,41.7351789200001,-83.633746919,38,"6604 SUMMERLYN BOULEVARD, LAMBERTVILLE, MI, 48144","Match","Exact","6604 SUMMERLYN BLVD, LAMBERTVILLE, MI, 48144",624318492,"L"
268539,"6604 VICTORY CREST DR","ARLINGT","TX",76002,32.6386322880001,-97.087700786,39,"6604 VICTORY CREST DR, ARLINGT, TX, 76002","Match","Non_Exact","6604 VICTORY CREST DR, ARLINGTON, TX, 76002",102115131,"L"
268540,"6604 W 7TH ST","TEXARKANA","TX",75501,33.412953429,-94.138005291,40,"6604 W 7TH ST, TEXARKANA, TX, 75501","Match","Exact","6604 W 7TH ST, TEXARKANA, TX, 75501",57683200,"L"
268541,"6604 WEST EVANS DRIVE","GLENDALE","AZ",85306,33.6172047270001,-112.20053409,41,"6604 WEST EVANS DRIVE, GLENDALE, AZ, 85306","Match","Exact","6604 W EVANS DR, GLENDALE, AZ, 85306",128283158,"L"
268542,"660418","MIAMI","FL",33266,NA,NA,42,"660418, MIAMI, FL, 33266","No_Match",NA,NA,NA,NA
268543,"6605 ALICE DR","HORN LAKE","MS",38637,34.9567534190001,-90.0740981709999,43,"6605 ALICE DR, HORN LAKE, MS, 38637","Match","Exact","6605 ALICE DR, HORN LAKE, MS, 38637",91823900,"R"
268544,"6605 ASHTON PARK DRIVE","OAK RIDGE","NC",27310,36.174626366,-79.97375794,44,"6605 ASHTON PARK DRIVE, OAK RIDGE, NC, 27310","Match","Exact","6605 ASHTON PARK DR, OAK RIDGE, NC, 27310",131109920,"R"
268545,"6605 BABAK DR","FREDERICK","MD",21702,39.473538798,-77.461679401,45,"6605 BABAK DR, FREDERICK, MD, 21702","Match","Exact","6605 BABAK DR, FREDERICK, MD, 21702",60700628,"R"
268546,"6605 CR 1940","POMONA","MO",65789,36.851159404,-91.813509089,46,"6605 CR 1940, POMONA, MO, 65789","Match","Exact","6605 CO RD 1940, POMONA, MO, 65789",33311376,"R"
268547,"6605 EASTWIND WAY","CRESTWOOD","KY",40014,38.336001235,-85.4756899779999,47,"6605 EASTWIND WAY, CRESTWOOD, KY, 40014","Match","Exact","6605 EASTWIND WAY, CRESTWOOD, KY, 40014",614163479,"L"
268548,"6605 FOXHALL LN NW","HUNTSVILLE","AL",35806,34.7201389090001,-86.66737533,48,"6605 FOXHALL LN NW, HUNTSVILLE, AL, 35806","Match","Exact","6605 FOXHALL LN NW, HUNTSVILLE, AL, 35806",58113052,"R"
268549,"6605 GARCIA COURT","BAKERSFIELD","CA",93313,35.295120366,-119.050927237,49,"6605 GARCIA COURT, BAKERSFIELD, CA, 93313","Match","Exact","6605 GARCIA CT, BAKERSFIELD, CA, 93313",109115981,"L"
268550,"6605 GARCIA CT","BAKERSFIELD","CA",93313,35.295120366,-119.050927237,50,"6605 GARCIA CT, BAKERSFIELD, CA, 93313","Match","Exact","6605 GARCIA CT, BAKERSFIELD, CA, 93313",109115981,"L"
268551,"6605 KENNARD RD","MEDINA","OH",44256,41.051682127,-81.927933221,51,"6605 KENNARD RD, MEDINA, OH, 44256","Match","Exact","6605 KENNARD RD, MEDINA, OH, 44256",652734757,"L"
268552,"6605 LINDBLOOM LANE","CHERRY VALLEY","IL",61016,42.2159074320001,-88.9882179369999,52,"6605 LINDBLOOM LANE, CHERRY VALLEY, IL, 61016","Match","Exact","6605 LINDBLOOM LN, CHERRY VALLEY, IL, 61016",635576250,"R"
268553,"6605 MANZANITA STREET","AUSTIN","TX",78759,30.4156665780001,-97.767452974,53,"6605 MANZANITA STREET, AUSTIN, TX, 78759","Match","Exact","6605 MANZANITA ST, AUSTIN, TX, 78759",63956192,"R"
268554,"6605 NATASHA CT","LA GRANGE","IL",60525,41.768876725,-87.88715501,54,"6605 NATASHA CT, LA GRANGE, IL, 60525","Match","Exact","6605 NATASHA CT, LA GRANGE, IL, 60525",112376861,"R"
268555,"6605 PARCEL PLACE 201","LOUISVILLE","KY",40219,38.15527289,-85.661674134,55,"6605 PARCEL PLACE 201, LOUISVILLE, KY, 40219","Match","Exact","6605 PARCEL PL, LOUISVILLE, KY, 40219",634137518,"R"
268556,"6605 PENNY LANE","LYNNWOOD","WA",98036,47.827922001,-122.32280327,56,"6605 PENNY LANE, LYNNWOOD, WA, 98036","Match","Exact","6605 PENNY LN, LYNNWOOD, WA, 98036",187752525,"R"
268557,"6605 ROUTE 209","STROUDSBURG","PA",18360,NA,NA,57,"6605 ROUTE 209, STROUDSBURG, PA, 18360","No_Match",NA,NA,NA,NA
268558,"6605 S 102ND STREET","OMAHA","NE",68127,41.192077967,-96.072244972,58,"6605 S 102ND STREET, OMAHA, NE, 68127","Match","Exact","6605 S 102ND ST, OMAHA, NE, 68127",117000429,"L"
268559,"6605 S RACINE AVENUE","CHICAGO","IL",60636,41.7739448570001,-87.654339476,59,"6605 S RACINE AVENUE, CHICAGO, IL, 60636","Match","Exact","6605 S RACINE AVE, CHICAGO, IL, 60636",605488731,"L"
268560,"6605 SOUTHPORT DRIVE","BOYNTON BEACH","FL",33472,NA,NA,60,"6605 SOUTHPORT DRIVE, BOYNTON BEACH, FL, 33472","No_Match",NA,NA,NA,NA
268561,"6605 TAMAR DR","PASADENA","TX",77503,29.670402698,-95.138049409,61,"6605 TAMAR DR, PASADENA, TX, 77503","Match","Exact","6605 TAMAR DR, PASADENA, TX, 77503",96106017,"L"
268562,"6605 TENSAW COURT","FAIRFIELD","AL",35064,33.4729695400001,-86.9246174209999,62,"6605 TENSAW COURT, FAIRFIELD, AL, 35064","Match","Exact","6605 TENSAW CT, FAIRFIELD, AL, 35064",81556060,"L"
268563,"6605 WARWICK DR","ROCKWALL","TX",75087,32.9177191960001,-96.504682416,63,"6605 WARWICK DR, ROCKWALL, TX, 75087","Match","Exact","6605 WARWICK DR, ROCKWALL, TX, 75087",123789007,"L"
268564,"6605 WESTVIEW DRIVE","HOUSTON","TX",77055,29.794554276,-95.466333144,64,"6605 WESTVIEW DRIVE, HOUSTON, TX, 77055","Match","Exact","6605 WESTVIEW DR, HOUSTON, TX, 77055",96032144,"L"
268565,"6605 WICKED OAK LANE","CHARLOTTE","NC",28216,35.298173005,-80.90721481,65,"6605 WICKED OAK LANE, CHARLOTTE, NC, 28216","Match","Exact","6605 WICKED OAK LN, CHARLOTTE, NC, 28216",70597690,"L"
268566,"6605","COLUMBIA","SC",29223,NA,NA,66,"6605, COLUMBIA, SC, 29223","No_Match",NA,NA,NA,NA
268567,"6606 368TH AVE","BURLINGTON","WI",53105,42.572750549,-88.256684927,67,"6606 368TH AVE, BURLINGTON, WI, 53105","Match","Non_Exact","6606 368TH ST, BURLINGTON, WI, 53105",79816943,"L"
268568,"6606 CLYBOURN AVE","NORTH HOLLYWOOD","CA",91606,34.1904155600001,-118.363697679,68,"6606 CLYBOURN AVE, NORTH HOLLYWOOD, CA, 91606","Match","Exact","6606 CLYBOURN AVE, N HOLLYWOOD, CA, 91606",142725227,"R"
268569,"6606 E 55TH PLACE","INDIANAPOLIS","IN",46226,39.853846919,-86.05423588,69,"6606 E 55TH PLACE, INDIANAPOLIS, IN, 46226","Match","Exact","6606 E 55TH PL, INDIANAPOLIS, IN, 46226",107997340,"L"
268570,"6606 FERNBUSH DRIVE","LOUISVILLE","KY",40228,38.1493901380001,-85.6375098949999,70,"6606 FERNBUSH DRIVE, LOUISVILLE, KY, 40228","Match","Exact","6606 FERNBUSH DR, LOUISVILLE, KY, 40228",96919629,"R"
268571,"6606 FM 1488 STE 148 NUM 356","MAGNOLIA","TX",77354,NA,NA,71,"6606 FM 1488 STE 148 NUM 356, MAGNOLIA, TX, 77354","No_Match",NA,NA,NA,NA
268572,"6606 FM 1488 SUITE 148 BOX 356","MAGNOLIA","TX",77354,NA,NA,72,"6606 FM 1488 SUITE 148 BOX 356, MAGNOLIA, TX, 77354","No_Match",NA,NA,NA,NA
268573,"6606 GRAND HAVEN DRIVE","HOUSTON","TX",77088,29.896080134,-95.48855652,73,"6606 GRAND HAVEN DRIVE, HOUSTON, TX, 77088","Match","Exact","6606 GRAND HAVEN DR, HOUSTON, TX, 77088",96225456,"L"
268574,"6606 S KENWOOD AVE FLOOR 3","CHICAGO","IL",60637,NA,NA,74,"6606 S KENWOOD AVE FLOOR 3, CHICAGO, IL, 60637","No_Match",NA,NA,NA,NA
268575,"6606 SPLASHWATER DRIVE","FLOWERY BRANCH","GA",30542,34.1836470690001,-83.9318749449999,75,"6606 SPLASHWATER DRIVE, FLOWERY BRANCH, GA, 30542","Match","Exact","6606 SPLASHWATER DR, FLOWERY BR, GA, 30542",618455203,"R"
268576,"6607 18TH AVE S STE 100","RICHFIELD","MN",55423,44.8833850670001,-93.2491448389999,76,"6607 18TH AVE S STE 100, RICHFIELD, MN, 55423","Match","Exact","6607 18TH AVE S, RICHFIELD, MN, 55423",640578798,"L"
268577,"6607 24TH PLACE","HYATTSVILLE","MD",20784,38.969245846,-76.9701907049999,77,"6607 24TH PLACE, HYATTSVILLE, MD, 20784","Match","Non_Exact","6607 24TH PL, HYATTSVILLE, MD, 20782",76303856,"R"
268578,"6607 6TH AVENUE","LOS ANGELES","CA",90043,33.979326374,-118.3235688,78,"6607 6TH AVENUE, LOS ANGELES, CA, 90043","Match","Exact","6607 6TH AVE, LOS ANGELES, CA, 90043",141657999,"R"
268579,"6607 CARRIAGE DR","COLLEYVILLE","TX",76034,32.903784246,-97.1354575939999,79,"6607 CARRIAGE DR, COLLEYVILLE, TX, 76034","Match","Exact","6607 CARRIAGE DR, COLLEYVILLE, TX, 76034",102090028,"L"
268580,"6607 CASTLEREAGH LAKE LN","KATY","TX",77493,29.869722301,-95.78804488,80,"6607 CASTLEREAGH LAKE LN, KATY, TX, 77493","Match","Exact","6607 CASTLEREAGH LAKE LN, KATY, TX, 77493",652760228,"R"
268581,"6607 FANNON DR","BOWIE","MD",20720,38.980284054,-76.773792864,81,"6607 FANNON DR, BOWIE, MD, 20720","Match","Exact","6607 FANNON DR, BOWIE, MD, 20720",76398763,"L"
268582,"6607 GENTLE BEND DR","HOUSTON","TX",77069,29.979948963,-95.533739913,82,"6607 GENTLE BEND DR, HOUSTON, TX, 77069","Match","Exact","6607 GENTLE BEND DR, HOUSTON, TX, 77069",96009490,"R"
268583,"6607 MCCALLUM ST","PHILADELPHIA","PA",19119,40.0453656490001,-75.191588601,83,"6607 MCCALLUM ST, PHILADELPHIA, PA, 19119","Match","Exact","6607 MCCALLUM ST, PHILADELPHIA, PA, 19119",131394594,"R"
268584,"6607 OLIVER DRIVE","YAKIMA","WA",98901,46.5985217530001,-120.412685148,84,"6607 OLIVER DRIVE, YAKIMA, WA, 98901","Match","Exact","6607 OLIVER DR, YAKIMA, WA, 98901",184939553,"L"
268585,"6607 S ALBANY","CHICAGO","IL",60629,41.773356318,-87.700556901,85,"6607 S ALBANY, CHICAGO, IL, 60629","Match","Non_Exact","6607 S ALBANY AVE, CHICAGO, IL, 60629",605480154,"L"
268586,"6607 SIMMONS CHURCH ROAD","CENTERBURG","OH",43011,40.336588712,-82.6253759639999,86,"6607 SIMMONS CHURCH ROAD, CENTERBURG, OH, 43011","Match","Exact","6607 SIMMONS CHURCH RD, CENTERBURG, OH, 43011",24667333,"L"
268587,"6607 SOUTH CHAMPLAIN AVENUE","CHICAGO","IL",60637,41.7742992440001,-87.609435472,87,"6607 SOUTH CHAMPLAIN AVENUE, CHICAGO, IL, 60637","Match","Exact","6607 S CHAMPLAIN AVE, CHICAGO, IL, 60637",605502568,"L"
268588,"6607 WESTMINSTER DRIVE","ZIONSVILLE","IN",46077,39.9573908,-86.3275987379999,88,"6607 WESTMINSTER DRIVE, ZIONSVILLE, IN, 46077","Match","Exact","6607 WESTMINSTER DR, ZIONSVILLE, IN, 46077",649343068,"R"
268589,"6608 ARLINGTON EXPWY","JACKSONVILLE","FL",32211,30.3272649260001,-81.5890054549999,89,"6608 ARLINGTON EXPWY, JACKSONVILLE, FL, 32211","Match","Exact","6608 ARLINGTON EXPY, JACKSONVILLE, FL, 32211",83969638,"R"
268590,"6608 AUSTIN STREET APT 1A","REGO PARK","NY",11374,NA,NA,90,"6608 AUSTIN STREET APT 1A, REGO PARK, NY, 11374","No_Match",NA,NA,NA,NA
268591,"6608 AUTUMNWOOD DR","FRISCO","TX",75035,33.1329832220001,-96.79678037,91,"6608 AUTUMNWOOD DR, FRISCO, TX, 75035","Match","Exact","6608 AUTUMNWOOD DR, FRISCO, TX, 75035",123546484,"L"
268592,"6608 BROOK VALLEY DRIVE","LOUISVILLE","KY",40228,38.1512422540001,-85.639454171,92,"6608 BROOK VALLEY DRIVE, LOUISVILLE, KY, 40228","Match","Exact","6608 BROOK VALLEY DR, LOUISVILLE, KY, 40228",96924040,"R"
268593,"6608 BRYNHURST AVE UNIT B","LOS ANGELES","CA",90043,33.979261804,-118.333775817,93,"6608 BRYNHURST AVE UNIT B, LOS ANGELES, CA, 90043","Match","Exact","6608 BRYNHURST AVE, LOS ANGELES, CA, 90043",141655107,"L"
268594,"6608 CAHUENGA TERRACE","LOS ANGELES","CA",90068,34.1120912960001,-118.333387194,94,"6608 CAHUENGA TERRACE, LOS ANGELES, CA, 90068","Match","Exact","6608 CAHUENGA TER, LOS ANGELES, CA, 90068",141594599,"L"
268595,"6608 CORK TREE WAY","CLINTON","MD",20735,38.7428720950001,-76.89575653,95,"6608 CORK TREE WAY, CLINTON, MD, 20735","Match","Exact","6608 CORK TREE WAY, CLINTON, MD, 20735",624427974,"R"
268596,"6608 E COLBERT DRIVE","PRESCOTT VALLEY","AZ",86314,34.6210686040001,-112.34894461,96,"6608 E COLBERT DRIVE, PRESCOTT VALLEY, AZ, 86314","Match","Exact","6608 COLBERT DR, PRESCOTT VALLEY, AZ, 86314",617925565,"L"
268597,"6608 EAST DUNKERTON ROAD","DUNKERTON","IA",50626,42.5702562290001,-92.207258124,97,"6608 EAST DUNKERTON ROAD, DUNKERTON, IA, 50626","Match","Exact","6608 E DUNKERTON RD, DUNKERTON, IA, 50626",212733404,"R"
268598,"6608 EAST WAKEFIELD DRIVE B2","ALEXANDRIA","VA",22307,38.77274686,-77.055929804,98,"6608 EAST WAKEFIELD DRIVE B2, ALEXANDRIA, VA, 22307","Match","Non_Exact","6608 WAKEFIELD DR, ALEXANDRIA, VA, 22307",75990005,"R"
268599,"6608 FREEDOM AVE","SYKESVILLE","MD",21784,39.3916725300001,-76.963364497,99,"6608 FREEDOM AVE, SYKESVILLE, MD, 21784","Match","Exact","6608 FREEDOM AVE, SYKESVILLE, MD, 21784",608456373,"R"
268600,"6608 GLYNDON LN","RICHMOND","VA",23225,37.534062174,-77.517369633,100,"6608 GLYNDON LN, RICHMOND, VA, 23225","Match","Exact","6608 GLYNDON LN, RICHMOND, VA, 23225",201555968,"R"
268601,"6608 GULF FREEWAY SOUTH STE 600","LA MARQUE","TX",77568,NA,NA,101,"6608 GULF FREEWAY SOUTH STE 600, LA MARQUE, TX, 77568","No_Match",NA,NA,NA,NA
268602,"6608 LOFTUS AVENUE NE","ALBUQUERQUE","NM",87109,35.1375150120001,-106.57087054,102,"6608 LOFTUS AVENUE NE, ALBUQUERQUE, NM, 87109","Match","Exact","6608 LOFTUS AVE NE, ALBUQUERQUE, NM, 87109",645539758,"R"
268603,"6608 N MAY AVE","OKLAHOMA CITY","OK",73116,NA,NA,103,"6608 N MAY AVE, OKLAHOMA CITY, OK, 73116","No_Match",NA,NA,NA,NA
268604,"6608 N WESTERN   NUMBER 623","OKLAHOMA CITY","OK",73116,NA,NA,104,"6608 N WESTERN   NUMBER 623, OKLAHOMA CITY, OK, 73116","No_Match",NA,NA,NA,NA
268605,"6608 N WESTERN AVE 2002","OKLAHOMA CITY","OK",73116,35.5390998610001,-97.52977612,105,"6608 N WESTERN AVE 2002, OKLAHOMA CITY, OK, 73116","Match","Non_Exact","6608 N WESTERN AVE, OKLAHOMA CITY, OK, 73116",100395240,"R"
268606,"6608 N WESTERN AVE NUM 337","OKLAHOMA CITY","OK",73116,35.5390998610001,-97.52977612,106,"6608 N WESTERN AVE NUM 337, OKLAHOMA CITY, OK, 73116","Match","Non_Exact","6608 N WESTERN AVE, OKLAHOMA CITY, OK, 73116",100395240,"R"
268607,"6608 N WESTERN AVE PMB 475","OKLAHOMA CITY","OK",73116,35.5390998610001,-97.52977612,107,"6608 N WESTERN AVE PMB 475, OKLAHOMA CITY, OK, 73116","Match","Non_Exact","6608 N WESTERN AVE, OKLAHOMA CITY, OK, 73116",100395240,"R"
268608,"6608 N WESTERN AVENUE 1042","OKLAHOMA CITY","OK",73116,35.5390998610001,-97.52977612,108,"6608 N WESTERN AVENUE 1042, OKLAHOMA CITY, OK, 73116","Match","Non_Exact","6608 N WESTERN AVE, OKLAHOMA CITY, OK, 73116",100395240,"R"
268609,"6608 N WESTERN AVENUE 1285","OKLAHOMA CITY","OK",73116,35.5390998610001,-97.52977612,109,"6608 N WESTERN AVENUE 1285, OKLAHOMA CITY, OK, 73116","Match","Non_Exact","6608 N WESTERN AVE, OKLAHOMA CITY, OK, 73116",100395240,"R"
268610,"6608 N WESTERN AVENUE SUITE 623","OKLAHOMA CITY","OK",73116,35.5390998610001,-97.52977612,110,"6608 N WESTERN AVENUE SUITE 623, OKLAHOMA CITY, OK, 73116","Match","Non_Exact","6608 N WESTERN AVE, OKLAHOMA CITY, OK, 73116",100395240,"R"
268611,"6608 NORTH STEVENS ST","SPOKANE","WA",99208,47.717856768,-117.419294229,111,"6608 NORTH STEVENS ST, SPOKANE, WA, 99208","Match","Exact","6608 N STEVENS ST, SPOKANE, WA, 99208",189868701,"R"
268612,"6608 RUDDELL RD SE","LACEY","WA",98513,46.9931737150001,-122.807289417,112,"6608 RUDDELL RD SE, LACEY, WA, 98513","Match","Exact","6608 RUDDELL RD SE, LACEY, WA, 98513",180948707,"L"
268613,"6608 SOUTH ZUNIS 403","TULSA","OK",74136,36.067253056,-95.960441136,113,"6608 SOUTH ZUNIS 403, TULSA, OK, 74136","Match","Non_Exact","6608 S ZUNIS AVE, TULSA, OK, 74136",166444683,"R"
268614,"6608 TREE SUMMIT PARKWAY","DULUTH","GA",30096,33.9885291940001,-84.16593202,114,"6608 TREE SUMMIT PARKWAY, DULUTH, GA, 30096","Match","Exact","6608 TREE SUMMIT PKWY, DULUTH, GA, 30096",641632110,"L"
268615,"6608 TUCKER AVENUE","MCLEAN","VA",22101,38.917211599,-77.170878693,115,"6608 TUCKER AVENUE, MCLEAN, VA, 22101","Match","Exact","6608 TUCKER AVE, MCLEAN, VA, 22101",75963586,"R"
268616,"6608 VINTAGE LN","MCCALLA","AL",35111,33.313749069,-87.0143252089999,116,"6608 VINTAGE LN, MCCALLA, AL, 35111","Match","Non_Exact","6608 VINTAGE LN, MC CALLA, AL, 35111",624096033,"L"
268617,"6608 W 62ND STREET","SIOUX FALLS","SD",57106,43.496098773,-96.8094315979999,117,"6608 W 62ND STREET, SIOUX FALLS, SD, 57106","Match","Exact","6608 W 62ND ST, SIOUX FALLS, SD, 57106",176328002,"R"
268618,"6608 WHITE OAK COURT","SANDSTON","VA",23150,37.482720193,-77.205754997,118,"6608 WHITE OAK COURT, SANDSTON, VA, 23150","Match","Exact","6608 WHITE OAK CT, SANDSTON, VA, 23150",106661063,"R"
268619,"6608 YACHT PLACE","HICKORY","NC",28601,35.7726970530001,-81.357589111,119,"6608 YACHT PLACE, HICKORY, NC, 28601","Match","Exact","6608 YACHT PL, HICKORY, NC, 28601",45874790,"R"
268620,"6609 15TH STREET","MARRERO","LA",70072,29.890458643,-90.120090806,120,"6609 15TH STREET, MARRERO, LA, 70072","Match","Exact","6609 15TH ST, MARRERO, LA, 70072",93505766,"R"
268621,"6609 16TH STREET NW","WASHINGTON","DC",20012,38.970048181,-77.0363609779999,121,"6609 16TH STREET NW, WASHINGTON, DC, 20012","Match","Exact","6609 16TH ST NW, WASHINGTON, DC, 20012",76236513,"R"
268622,"6609 30TH AVE DR","SHELLSBURG","IA",52332,42.0635407620001,-91.9126803349999,122,"6609 30TH AVE DR, SHELLSBURG, IA, 52332","Match","Exact","6609 30TH AVENUE DR, SHELLSBURG, IA, 52332",94718441,"L"
268623,"6609 BEDDOO STREET","ALEXANDRIA","VA",22306,38.7739071450001,-77.0779649199999,123,"6609 BEDDOO STREET, ALEXANDRIA, VA, 22306","Match","Exact","6609 BEDDOO ST, ALEXANDRIA, VA, 22306",75989709,"L"
268624,"6609 EASTSIDE COURT","SANTA ROSA","CA",95409,38.478556478,-122.675275965,124,"6609 EASTSIDE COURT, SANTA ROSA, CA, 95409","Match","Exact","6609 EASTSIDE CT, SANTA ROSA, CA, 95409",67473720,"R"
268625,"6609 HIGHLAND AVE","KISSIMME","FL",34744,NA,NA,125,"6609 HIGHLAND AVE, KISSIMME, FL, 34744","No_Match",NA,NA,NA,NA
268626,"6609 HUNTSHIRE DR","ELKRIDGE","MD",21075,39.195444362,-76.770873125,126,"6609 HUNTSHIRE DR, ELKRIDGE, MD, 21075","Match","Exact","6609 HUNTSHIRE DR, ELKRIDGE, MD, 21075",158942738,"L"
268627,"6609 JAMAICA CT","AUSTIN","TX",78757,30.346755343,-97.749080872,127,"6609 JAMAICA CT, AUSTIN, TX, 78757","Match","Exact","6609 JAMAICA CT, AUSTIN, TX, 78757",63929138,"R"
268628,"6609 KENHILL ROAD","BETHESDA","MD",20817,38.976449211,-77.121919809,128,"6609 KENHILL ROAD, BETHESDA, MD, 20817","Match","Exact","6609 KENHILL RD, BETHESDA, MD, 20817",62058721,"R"
268629,"6609 KENTWOOD BLUFFS DR","LOS ANGELES","CA",90045,33.979814312,-118.401458054,129,"6609 KENTWOOD BLUFFS DR, LOS ANGELES, CA, 90045","Match","Exact","6609 KENTWOOD BLUFFS DR, LOS ANGELES, CA, 90045",142444590,"R"
268630,"6609 LITTLE ROAD","MONROE","NC",28110,35.1640443790001,-80.4829463569999,130,"6609 LITTLE ROAD, MONROE, NC, 28110","Match","Exact","6609 LITTLE RD, MONROE, NC, 28110",14180258,"L"
268631,"6609 MEADOW WAY LN","FORT WORTH","TX",76179,32.85829993,-97.397662248,131,"6609 MEADOW WAY LN, FORT WORTH, TX, 76179","Match","Exact","6609 MEADOW WAY LN, FORT WORTH, TX, 76179",638654787,"L"
268632,"6609 MYRTLE AVENUE","GLENDALE","NY",11385,NA,NA,132,"6609 MYRTLE AVENUE, GLENDALE, NY, 11385","No_Match",NA,NA,NA,NA
268633,"6609 N SHIPLEY RD","OLNEY","IL",62450,38.808354321,-88.1313252469999,133,"6609 N SHIPLEY RD, OLNEY, IL, 62450","Match","Exact","6609 N SHIPLEY RD, OLNEY, IL, 62450",29950017,"L"
268634,"6609 PENSFORD LN","CHARLOTTE","NC",28270,35.1206402080001,-80.776117696,134,"6609 PENSFORD LN, CHARLOTTE, NC, 28270","Match","Exact","6609 PENSFORD LN, CHARLOTTE, NC, 28270",70495187,"L"
268635,"6609 PHEASANT RUN","LINO LAKES","MN",55014,45.1459959090001,-93.087361078,135,"6609 PHEASANT RUN, LINO LAKES, MN, 55014","Match","Exact","6609 PHEASANT RUN, LINO LAKES, MN, 55014",97493024,"L"
268636,"6609 PLEASANT PLAINS WAY","LAS VEGAS","NV",89108,36.228913827,-115.240028241,136,"6609 PLEASANT PLAINS WAY, LAS VEGAS, NV, 89108","Match","Exact","6609 PLEASANT PLAINS WAY, LAS VEGAS, NV, 89108",201858609,"L"
268637,"6609 RIGGS RD","HYATTSVILLE","MD",20782,38.9697394660001,-76.983434066,137,"6609 RIGGS RD, HYATTSVILLE, MD, 20782","Match","Exact","6609 RIGGS RD, HYATTSVILLE, MD, 20782",76414543,"L"
268638,"6609 TIMBERS DR","MOBILE","AL",36695,30.672703561,-88.195139093,138,"6609 TIMBERS DR, MOBILE, AL, 36695","Match","Exact","6609 TIMBERS DR, MOBILE, AL, 36695",61853474,"L"
268639,"6609 VERNON ST","ORLANDO","FL",32818,28.5593744060001,-81.47500386,139,"6609 VERNON ST, ORLANDO, FL, 32818","Match","Exact","6609 VERNON ST, ORLANDO, FL, 32818",94389987,"R"
268640,"6609 W POLK STREET","PHOENIX","AZ",85043,33.4531395830001,-112.20176221,140,"6609 W POLK STREET, PHOENIX, AZ, 85043","Match","Exact","6609 W POLK ST, PHOENIX, AZ, 85043",653259976,"R"
268641,"661 17TH AVENUE SOUTH","ST PETERSBURG","FL",33701,27.753476248,-82.6416338559999,141,"661 17TH AVENUE SOUTH, ST PETERSBURG, FL, 33701","Match","Exact","661 17TH AVE S, SAINT PETERSBURG, FL, 33701",124708539,"R"
268642,"661 77TH AVE N STE 311","ST PETERSBURG","FL",33702,27.843053582,-82.642042525,142,"661 77TH AVE N STE 311, ST PETERSBURG, FL, 33702","Match","Exact","661 77TH AVE N, SAINT PETERSBURG, FL, 33702",124823291,"R"
268643,"661 9TH AVE APT D","NEW YORK","NY",10036,40.760894088,-73.990839916,143,"661 9TH AVE APT D, NEW YORK, NY, 10036","Match","Exact","661 9TH AVE, NEW YORK, NY, 10036",59655219,"L"
268644,"661 ARCADIA RD","RIDGEWOOD","NJ",7450,40.9649988510001,-74.0996553909999,144,"661 ARCADIA RD, RIDGEWOOD, NJ, 7450","Match","Exact","661 ARCADIA RD, RIDGEWOOD, NJ, 07450",64377224,"L"
268645,"661 BEECH ST","EAST LANSING","MI",48823,42.7389069330001,-84.474959638,145,"661 BEECH ST, EAST LANSING, MI, 48823","Match","Exact","661 BEECH ST, EAST LANSING, MI, 48823",17504861,"L"
268646,"661 CARMEL AVE","PACIFICA","CA",94044,37.6360095050001,-122.48113988,146,"661 CARMEL AVE, PACIFICA, CA, 94044","Match","Exact","661 CARMEL AVE, PACIFICA, CA, 94044",192369444,"L"
268647,"661 DUNCAN DRIVE","ATOKA","TN",38004,35.418869036,-89.779244934,147,"661 DUNCAN DRIVE, ATOKA, TN, 38004","Match","Exact","661 DUNCAN DR, ATOKA, TN, 38004",73174411,"L"
268648,"661 E 100TH STREET","CHICAGO","IL",60628,41.7128860510001,-87.607098417,148,"661 E 100TH STREET, CHICAGO, IL, 60628","Match","Exact","661 E 100TH ST, CHICAGO, IL, 60628",605518640,"R"
268649,"661 E MAIN ST SUITE 200-214","MIDLOTHIAN","TX",76065,NA,NA,149,"661 E MAIN ST SUITE 200-214, MIDLOTHIAN, TX, 76065","No_Match",NA,NA,NA,NA
268650,"661 E MAIN STREET 200-102","MIDLOTHIAN","TX",76065,NA,NA,150,"661 E MAIN STREET 200-102, MIDLOTHIAN, TX, 76065","No_Match",NA,NA,NA,NA
268651,"661 E MELROSE CIR","FORT LAUDERDALE","FL",33312,26.1129185840001,-80.191819202,151,"661 E MELROSE CIR, FORT LAUDERDALE, FL, 33312","Match","Exact","661 E MELROSE CIR, FORT LAUDERDALE, FL, 33312",114709920,"R"
268652,"661 E MILT DR","PUEBLO WEST","CO",81007,38.355350179,-104.70856029,152,"661 E MILT DR, PUEBLO WEST, CO, 81007","Match","Exact","661 E MILT DR, PUEBLO WEST, CO, 81007",105020553,"L"
268653,"661 EDENS COURT","CENTERTON","AR",72719,36.366562586,-94.303310981,153,"661 EDENS COURT, CENTERTON, AR, 72719","Match","Exact","661 EDENS CT, CENTERTON, AR, 72719",641766359,"L"
268654,"661 ELBERT ST SW","ATLANTA","GA",30310,33.728389425,-84.409691964,154,"661 ELBERT ST SW, ATLANTA, GA, 30310","Match","Exact","661 ELBERT ST SW, ATLANTA, GA, 30310",17345301,"R"
268655,"661 EVERGLADES BLVD N","NAPLES","FL",34120,26.242718999,-81.5447113669999,155,"661 EVERGLADES BLVD N, NAPLES, FL, 34120","Match","Exact","661 EVERGLADES BLVD N, NAPLES, FL, 34120",115132078,"L"
268656,"661 FLORA STREET","TALLAHASSEE","FL",32310,NA,NA,156,"661 FLORA STREET, TALLAHASSEE, FL, 32310","No_Match",NA,NA,NA,NA
268657,"661 FOXFIELD DRIVE","CLARKSVILLE","TN",37042,36.5530872040001,-87.430641351,157,"661 FOXFIELD DRIVE, CLARKSVILLE, TN, 37042","Match","Exact","661 FOXFIELD DR, CLARKSVILLE, TN, 37042",635022262,"L"
268658,"661 GLENN AVE","WHEELING","IL",60090,42.127375457,-87.91841558,158,"661 GLENN AVE, WHEELING, IL, 60090","Match","Exact","661 GLENN AVE, WHEELING, IL, 60090",111873876,"L"
268659,"661 GOLDEN GATE BLVD E","NAPLES","FL",34120,26.2300400400001,-81.593553215,159,"661 GOLDEN GATE BLVD E, NAPLES, FL, 34120","Match","Exact","661 GOLDEN GATE BLVD E, NAPLES, FL, 34120",115132132,"L"
268660,"661 HERNANDO ST","FORT PIERCE","FL",34949,27.4622253960001,-80.290314324,160,"661 HERNANDO ST, FORT PIERCE, FL, 34949","Match","Exact","661 HERNANDO ST, FORT PIERCE, FL, 34949",120148366,"R"
268661,"661 HILL TOP ROAD","MYERSTOWN","PA",17067,40.3894831590001,-76.308937203,161,"661 HILL TOP ROAD, MYERSTOWN, PA, 17067","Match","Non_Exact","661 HILLTOP RD, MYERSTOWN, PA, 17067",80670338,"L"
268662,"661 LESLIE AVENUE","MOBILE","AL",36617,30.7122140390001,-88.0895220359999,162,"661 LESLIE AVENUE, MOBILE, AL, 36617","Match","Exact","661 LESLIE AVE, MOBILE, AL, 36617",61859786,"L"
268663,"661 MEADOW LANE","HARLEYSVILLE","PA",19438,40.283893671,-75.3986198009999,163,"661 MEADOW LANE, HARLEYSVILLE, PA, 19438","Match","Exact","661 MEADOW LN, HARLEYSVILLE, PA, 19438",135067344,"L"
268664,"661 NE 68TH STREET","MIAMI","FL",33138,25.8379792380001,-80.183223513,164,"661 NE 68TH STREET, MIAMI, FL, 33138","Match","Exact","661 NE 68TH ST, MIAMI, FL, 33138",116007061,"L"
268665,"661 OPEKISKA RIDGE RD","FAIRMONT","WV",26554,39.5379260010001,-80.025140908,165,"661 OPEKISKA RIDGE RD, FAIRMONT, WV, 26554","Match","Exact","661 OPEKISKA RIDGE RD, FAIRMONT, WV, 26554",50786102,"L"
268666,"661 POINT MOUNTAIN RD","VALLEY HEAD","WV",26294,38.550227294,-80.0435079499999,166,"661 POINT MOUNTAIN RD, VALLEY HEAD, WV, 26294","Match","Exact","661 POINT MTN RD, VALLEY HEAD, WV, 26294",53369216,"R"
268667,"661 ROCKSPRAY CIRCLE","PITTSBURG","CA",94565,38.0278670810001,-121.915515809,167,"661 ROCKSPRAY CIRCLE, PITTSBURG, CA, 94565","Match","Exact","661 ROCKSPRAY CIR, PITTSBURG, CA, 94565",607704385,"L"
268668,"661 ROUTE 171","WOODSTOCK","CT",6281,41.9389986900001,-71.9971866669999,168,"661 ROUTE 171, WOODSTOCK, CT, 6281","Match","Non_Exact","661 STATE HWY 171, WOODSTOCK, CT, 06281",611110086,"R"
268669,"661 S RIDGE ROAD","COAL CENTER","PA",15423,40.096833906,-79.943136517,169,"661 S RIDGE ROAD, COAL CENTER, PA, 15423","Match","Exact","661 S RIDGE RD, COAL CENTER, PA, 15423",636548736,"R"
268670,"661 SAINT FERDINAND STREET","Florissant","MO",63368,38.796061132,-90.330801693,170,"661 SAINT FERDINAND STREET, Florissant, MO, 63368","Match","Non_Exact","661 SAINT FERDINAND ST, FLORISSANT, MO, 63031",100119481,"L"
268671,"661 SIMICH DRIVE","SEVEN HILLS","OH",44131,41.3825916380001,-81.680620403,171,"661 SIMICH DRIVE, SEVEN HILLS, OH, 44131","Match","Exact","661 SIMICH DR, SEVEN HILLS, OH, 44131",61117671,"L"
268672,"661 SOUTH MAIN STREET","WALCOTT","IA",52773,41.5788315780001,-90.7747145229999,172,"661 SOUTH MAIN STREET, WALCOTT, IA, 52773","Match","Exact","661 S MAIN ST, WALCOTT, IA, 52773",122729916,"R"
268673,"661 STATE HIGHWAY 103","SYCAMORE","OH",44882,NA,NA,173,"661 STATE HIGHWAY 103, SYCAMORE, OH, 44882","No_Match",NA,NA,NA,NA
268674,"661 SW 10TH COURT","DEERFIELD","FL",33441,26.3041563670001,-80.1131935769999,174,"661 SW 10TH COURT, DEERFIELD, FL, 33441","Match","Non_Exact","661 SW 10TH CT, DEERFIELD BEACH, FL, 33441",114741939,"R"
268675,"661 THOMPSON AVE","CLAIRTON","PA",15025,40.286378201,-79.8908679749999,175,"661 THOMPSON AVE, CLAIRTON, PA, 15025","Match","Exact","661 THOMPSON AVE, CLAIRTON, PA, 15025",51661248,"R"
268676,"661 TURNPIKE ROAD","NEW IPSWICH","NH",3071,42.759011543,-71.860557596,176,"661 TURNPIKE ROAD, NEW IPSWICH, NH, 3071","Match","Exact","661 TURNPIKE RD, NEW IPSWICH, NH, 03071",113561665,"R"
268677,"661 UPPER MOUNTAIN AVE","LITTLE FALLS","NJ",7424,NA,NA,177,"661 UPPER MOUNTAIN AVE, LITTLE FALLS, NJ, 7424","No_Match",NA,NA,NA,NA
268678,"661 W CENTRAL AVE","ORANGE CITY","FL",32763,NA,NA,178,"661 W CENTRAL AVE, ORANGE CITY, FL, 32763","Tie",NA,NA,NA,NA
268679,"661 W LANCASTER BLVD UNIT 201","LANCASTER","CA",93551,NA,NA,179,"661 W LANCASTER BLVD UNIT 201, LANCASTER, CA, 93551","No_Match",NA,NA,NA,NA
268680,"661 WEBSTER POINTE DR","CHAPIN","SC",29036,34.0780837450001,-81.377569277,180,"661 WEBSTER POINTE DR, CHAPIN, SC, 29036","Match","Non_Exact","661 WEBSTER POINTE CT, CHAPIN, SC, 29036",70088056,"L"
268681,"661 WEST CHERRY STREET","GRANTSVILLE","UT",84029,40.5953256970001,-112.480617179,181,"661 WEST CHERRY STREET, GRANTSVILLE, UT, 84029","Match","Exact","661 W CHERRY ST, GRANTSVILLE, UT, 84029",625136981,"L"
268682,"661 WILCOX ROAD","CAIRO","GA",39827,30.9778450150001,-84.176239376,182,"661 WILCOX ROAD, CAIRO, GA, 39827","Match","Exact","661 WILCOX RD, CAIRO, GA, 39827",84367304,"R"
268683,"661 WINTHROP STREET","BROOKLYN","NY",11203,40.657832705,-73.938692374,183,"661 WINTHROP STREET, BROOKLYN, NY, 11203","Match","Exact","661 WINTHROP ST, BROOKLYN, NY, 11203",59079922,"L"
268684,"661","ONEONTA","AL",35121,NA,NA,184,"661, ONEONTA, AL, 35121","No_Match",NA,NA,NA,NA
268685,"6610  FIFTEEN MILE","CEDAR SPRINGS","MI",49319,NA,NA,185,"6610  FIFTEEN MILE, CEDAR SPRINGS, MI, 49319","No_Match",NA,NA,NA,NA
268686,"6610 BROWNS MILL ROAD","LITHONIA","GA",30038,33.6457723180001,-84.134071713,186,"6610 BROWNS MILL ROAD, LITHONIA, GA, 30038","Match","Exact","6610 BROWNS MILL RD, LITHONIA, GA, 30038",23400222,"L"
268687,"6610 COUNTRY FIELD","SAN ANTONIO","TX",78240,29.538464747,-98.618325662,187,"6610 COUNTRY FIELD, SAN ANTONIO, TX, 78240","Match","Non_Exact","6610 COUNTRY FIELD DR, SAN ANTONIO, TX, 78240",101489727,"R"
268688,"6610 CREEKSIDE STREET","REDDING","CA",96001,40.519902401,-122.367247583,188,"6610 CREEKSIDE STREET, REDDING, CA, 96001","Match","Exact","6610 CREEKSIDE ST, REDDING, CA, 96001",126644764,"R"
268689,"6610 EAST 72ND PLACE","COMMERCE CITY","CO",80222,39.8282512270001,-104.910417374,189,"6610 EAST 72ND PLACE, COMMERCE CITY, CO, 80222","Match","Non_Exact","6610 E 72ND PL, COMMERCE CITY, CO, 80022",177312701,"R"
268690,"6610 GERMANTOWN AVE - APT 406","PHILADELPHIA","PA",19119,40.050799743,-75.18478599,190,"6610 GERMANTOWN AVE - APT 406, PHILADELPHIA, PA, 19119","Match","Exact","6610 GERMANTOWN AVE, PHILADELPHIA, PA, 19119",131395376,"L"
268691,"6610 GREENSPRING DR","ARLINGTON","TX",76016,32.675716847,-97.2124404259999,191,"6610 GREENSPRING DR, ARLINGTON, TX, 76016","Match","Exact","6610 GREENSPRING DR, ARLINGTON, TX, 76016",101901734,"R"
268692,"6610 GREENWAY AVE","PHILADELPHIA","PA",19142,39.9255845690001,-75.237082046,192,"6610 GREENWAY AVE, PHILADELPHIA, PA, 19142","Match","Exact","6610 GREENWAY AVE, PHILADELPHIA, PA, 19142",131409005,"L"
268693,"6610 HALCYON DAYS DR","HUMBLE","TX",77338,30.0184294260001,-95.323898083,193,"6610 HALCYON DAYS DR, HUMBLE, TX, 77338","Match","Exact","6610 HALCYON DAYS DR, HUMBLE, TX, 77338",635138853,"L"
268694,"6610 HARWIN DRIVE STE 230","HOUSTON","TX",77036,29.7196291070001,-95.498768529,194,"6610 HARWIN DRIVE STE 230, HOUSTON, TX, 77036","Match","Exact","6610 HARWIN DR, HOUSTON, TX, 77036",96614570,"R"
268695,"6610 HARWIN DRIVE SUITE 208","HOUSTON","TX",77036,29.7196291070001,-95.498768529,195,"6610 HARWIN DRIVE SUITE 208, HOUSTON, TX, 77036","Match","Exact","6610 HARWIN DR, HOUSTON, TX, 77036",96614570,"R"
268696,"6610 HILL ST","EL CERRITO","CA",94530,37.924806962,-122.314458429,196,"6610 HILL ST, EL CERRITO, CA, 94530","Match","Exact","6610 HILL ST, EL CERRITO, CA, 94530",192043198,"R"
268697,"6610 LEAR NAGLE RD 156","NORTH RIDGEVILLE","OH",44039,41.393048105,-81.9836435719999,197,"6610 LEAR NAGLE RD 156, NORTH RIDGEVILLE, OH, 44039","Match","Exact","6610 LEAR NAGLE RD, N RIDGEVILLE, OH, 44039",55425163,"R"
268698,"6610 OLD RIDGE ROAD","WAXHAW","NC",28173,34.880809363,-80.7264502749999,198,"6610 OLD RIDGE ROAD, WAXHAW, NC, 28173","Match","Exact","6610 OLD RIDGE RD, WAXHAW, NC, 28173",14211040,"L"
268699,"6610 SELKIRK DR","FORT WAYNE","IN",46816,41.0229939330001,-85.085242626,199,"6610 SELKIRK DR, FORT WAYNE, IN, 46816","Match","Exact","6610 SELKIRK DR, FORT WAYNE, IN, 46816",6386993,"R"
268700,"6610 SOUTHWESTBLVD","BENBROOK","TX",76109,NA,NA,200,"6610 SOUTHWESTBLVD, BENBROOK, TX, 76109","No_Match",NA,NA,NA,NA
268701,"6610 WINTER MOUNTAIN LN","SPRING","TX",77379,30.071146823,-95.5245540929999,201,"6610 WINTER MOUNTAIN LN, SPRING, TX, 77379","Match","Exact","6610 WINTER MOUNTAIN LN, SPRING, TX, 77379",624928817,"R"
268702,"6611 5TH STREET NW","WASHINGTON","DC",20012,38.970149695,-77.01988629,202,"6611 5TH STREET NW, WASHINGTON, DC, 20012","Match","Exact","6611 5TH ST NW, WASHINGTON, DC, 20012",76221945,"R"
268703,"6611 ATWOOD STREET - 6","DISTRICT HEIGHTS","MD",20747,38.8613694370001,-76.893153104,203,"6611 ATWOOD STREET - 6, DISTRICT HEIGHTS, MD, 20747","Match","Exact","6611 ATWOOD ST, DISTRICT HEIGHTS, MD, 20747",76372177,"R"
268704,"6611 BELMONT ROAD","KATY","TX",77450,29.7075439710001,-95.7459000709999,204,"6611 BELMONT ROAD, KATY, TX, 77450","Match","Non_Exact","6611 BELMONT BEND, KATY, TX, 77450",78323332,"L"
268705,"6611 CHESTERFIELD AVE","MCLEAN","VA",22101,38.916278488,-77.171276005,205,"6611 CHESTERFIELD AVE, MCLEAN, VA, 22101","Match","Exact","6611 CHESTERFIELD AVE, MCLEAN, VA, 22101",75963601,"L"
268706,"6611 COLONIAL DRIVE","GRANBURY","TX",76049,32.369277739,-97.671949705,206,"6611 COLONIAL DRIVE, GRANBURY, TX, 76049","Match","Exact","6611 COLONIAL DR, GRANBURY, TX, 76049",634081404,"R"
268707,"6611 COPLE HWY","HAGUE","VA",22520,38.074569481,-76.684560758,207,"6611 COPLE HWY, HAGUE, VA, 22520","Match","Non_Exact","6611 COPLE HWY, HAGUE, VA, 22469",22174815,"R"
268708,"6611 DELEON ST","IRVING","TX",75039,32.8982598480001,-96.9446298559999,208,"6611 DELEON ST, IRVING, TX, 75039","Match","Exact","6611 DELEON ST, IRVING, TX, 75039",643181880,"L"
268709,"6611 HIGHGATE DRIVE","FORT WASHINGTON","MD",20744,38.799532904,-76.936439149,209,"6611 HIGHGATE DRIVE, FORT WASHINGTON, MD, 20744","Match","Exact","6611 HIGHGATE DR, FT WASHINGTON, MD, 20744",76316513,"R"
268710,"6611 HILL ST","NEWAYGO","MI",49337,43.453874871,-85.637877765,210,"6611 HILL ST, NEWAYGO, MI, 49337","Match","Exact","6611 HILL ST, NEWAYGO, MI, 49337",150229571,"R"
268711,"6611 HILLCREST AVE NUM 444","DALLAS","TX",75205,32.847224785,-96.786865776,211,"6611 HILLCREST AVE NUM 444, DALLAS, TX, 75205","Match","Exact","6611 HILLCREST AVE, DALLAS, TX, 75205",637924695,"L"
268712,"6611 HUNTERS RUN ROAD","HARRISBURG","PA",17111,40.305159218,-76.7513763599999,212,"6611 HUNTERS RUN ROAD, HARRISBURG, PA, 17111","Match","Exact","6611 HUNTERS RUN RD, HARRISBURG, PA, 17111",608438774,"R"
268713,"6611 JOHN DR","CUPERTINO","CA",95014,37.3123128010001,-122.020457719,213,"6611 JOHN DR, CUPERTINO, CA, 95014","Match","Exact","6611 JOHN DR, CUPERTINO, CA, 95014",122940595,"R"
268714,"6611 KNOX AVE S","RICHFIELD","MN",55423,44.8831798840001,-93.302268982,214,"6611 KNOX AVE S, RICHFIELD, MN, 55423","Match","Exact","6611 KNOX AVE S, RICHFIELD, MN, 55423",43629965,"L"
268715,"6611 LAMONT DRIVE","NEW CARROLLTON","MD",20784,38.974499085,-76.882166857,215,"6611 LAMONT DRIVE, NEW CARROLLTON, MD, 20784","Match","Exact","6611 LAMONT DR, NEW CARROLLTON, MD, 20784",76379392,"R"
268716,"6611 MAUGH RD","MCLEAN","VA",22101,38.934957722,-77.171834158,216,"6611 MAUGH RD, MCLEAN, VA, 22101","Match","Exact","6611 MAUGH RD, MCLEAN, VA, 22101",75963475,"L"
268717,"6611 NORFOLK AVENUE","LUBBOCK","TX",79413,33.5338458950001,-101.898604416,217,"6611 NORFOLK AVENUE, LUBBOCK, TX, 79413","Match","Exact","6611 NORFOLK AVE, LUBBOCK, TX, 79413",185252774,"L"
268718,"6611 OLD STONEHOUSE DR","NEWBURGH","IN",47630,37.9387051320001,-87.3794766949999,218,"6611 OLD STONEHOUSE DR, NEWBURGH, IN, 47630","Match","Exact","6611 OLD STONEHOUSE DR, NEWBURGH, IN, 47630",32211174,"L"
268719,"6611 S PAISANO AVE","TUCSON","AR",85746,NA,NA,219,"6611 S PAISANO AVE, TUCSON, AR, 85746","No_Match",NA,NA,NA,NA
268720,"6611 SUTTERS CREEK TRAIL","MISSOURI CITY","TX",77459,29.5582321320001,-95.5738858989999,220,"6611 SUTTERS CREEK TRAIL, MISSOURI CITY, TX, 77459","Match","Exact","6611 SUTTERS CREEK TRL, MISSOURI CITY, TX, 77459",624411500,"L"
268721,"6611 SW PARKHILL DR","PORTLAND","OR",97239,45.476157824,-122.681715741,221,"6611 SW PARKHILL DR, PORTLAND, OR, 97239","Match","Exact","6611 SW PARKHILL DR, PORTLAND, OR, 97239",157548330,"R"
268722,"6611 W SCHORSCH ST","CHICAGO","IL",60634,41.9404601200001,-87.791309126,222,"6611 W SCHORSCH ST, CHICAGO, IL, 60634","Match","Exact","6611 W SCHORSCH ST, CHICAGO, IL, 60634",605204531,"L"
268723,"6612 1ST STREET","LUBBOCK","TX",79416,33.596455512,-101.960500226,223,"6612 1ST STREET, LUBBOCK, TX, 79416","Match","Exact","6612 1ST ST, LUBBOCK, TX, 79416",185325248,"L"
268724,"6612 ACOMA RD SE","ALBUQUERQUE","NM",87108,35.07438567,-106.573855066,224,"6612 ACOMA RD SE, ALBUQUERQUE, NM, 87108","Match","Exact","6612 ACOMA RD SE, ALBUQUERQUE, NM, 87108",206716911,"R"
268725,"6612 ALADDIN DRIVE","ORLANDO","FL",32818,28.610117614,-81.4719099179999,225,"6612 ALADDIN DRIVE, ORLANDO, FL, 32818","Match","Exact","6612 ALADDIN DR, ORLANDO, FL, 32818",94330777,"R"
268726,"6612 COTTONWOOD GROVE DR","COLORADO SPRINGS","CO",80925,38.7369570180001,-104.652374727,226,"6612 COTTONWOOD GROVE DR, COLORADO SPRINGS, CO, 80925","Match","Exact","6612 COTTONWOOD GROVE DR, COLORADO SPRINGS, CO, 80925",105531169,"R"
268727,"6612 E JACKSON ST","MUNCIE","IN",47303,40.1933793740001,-85.30989619,227,"6612 E JACKSON ST, MUNCIE, IN, 47303","Match","Exact","6612 E JACKSON ST, MUNCIE, IN, 47303",30839217,"L"
268728,"6612 MERCER STREET","HOUSTON","TX",77005,29.7088458370001,-95.432081209,228,"6612 MERCER STREET, HOUSTON, TX, 77005","Match","Exact","6612 MERCER ST, HOUSTON, TX, 77005",96063432,"R"
268729,"6612 NORTH 81ST STREET","MILWAUEE","WI",53223,43.138141557,-88.011712947,229,"6612 NORTH 81ST STREET, MILWAUEE, WI, 53223","Match","Non_Exact","6612 N 81ST ST, MILWAUKEE, WI, 53223",77725870,"R"
268730,"6612 NORTHWOOD LANE","SHREVEPORT","LA",71107,32.6015760760001,-93.881717277,230,"6612 NORTHWOOD LANE, SHREVEPORT, LA, 71107","Match","Exact","6612 NORTHWOOD LN, SHREVEPORT, LA, 71107",652809285,"R"
268731,"6612 SILVERSPUR LN","HUNTINGTON BEACH","CA",92648,33.6931024030001,-118.013894069,231,"6612 SILVERSPUR LN, HUNTINGTON BEACH, CA, 92648","Match","Exact","6612 SILVERSPUR LN, HUNTINGTON BEACH, CA, 92648",144416243,"L"
268732,"6613 2ND AVE S","RICHFIELD","MN",55423,44.883134479,-93.2742980089999,232,"6613 2ND AVE S, RICHFIELD, MN, 55423","Match","Exact","6613 2ND AVE S, RICHFIELD, MN, 55423",43635387,"L"
268733,"6613 60TH LANE","RIDGEWOOD","NY",11385,NA,NA,233,"6613 60TH LANE, RIDGEWOOD, NY, 11385","No_Match",NA,NA,NA,NA
268734,"6613 BEVERLY BLVD  - UNIT B","EVERETT","WA",98203,47.9381341340001,-122.209156172,234,"6613 BEVERLY BLVD  - UNIT B, EVERETT, WA, 98203","Match","Exact","6613 BEVERLY BLVD, EVERETT, WA, 98203",187746703,"L"
268735,"6613 E 128TH STREET","GRANDVIEW","MO",64030,38.8926306070001,-94.516237645,235,"6613 E 128TH STREET, GRANDVIEW, MO, 64030","Match","Exact","6613 E 128TH ST, GRANDVIEW, MO, 64030",91492533,"L"
268736,"6613 EMERALD LAKE DRIVE","MIRAMAR","FL",33023,25.9728207910001,-80.21744964,236,"6613 EMERALD LAKE DRIVE, MIRAMAR, FL, 33023","Match","Exact","6613 EMERALD LAKE DR, MIRAMAR, FL, 33023",114792314,"R"
268737,"6613 GOLD CT","LITTLE ROCK","AR",72209,34.652154673,-92.352068776,237,"6613 GOLD CT, LITTLE ROCK, AR, 72209","Match","Exact","6613 GOLD CT, LITTLE ROCK, AR, 72209",83513141,"R"
268738,"6613 IRVINE AVE UNIT 1","NORTH HOLLYWOOD","CA",91606,34.1906519980001,-118.385567062,238,"6613 IRVINE AVE UNIT 1, NORTH HOLLYWOOD, CA, 91606","Match","Exact","6613 IRVINE AVE, N HOLLYWOOD, CA, 91606",141564280,"L"
268739,"6613 NEW HOPE DRIVE","SPRINGFIELD","VA",22151,38.8060487560001,-77.174870998,239,"6613 NEW HOPE DRIVE, SPRINGFIELD, VA, 22151","Match","Exact","6613 NEW HOPE DR, SPRINGFIELD, VA, 22151",75983782,"L"
268740,"6613 RUGER DRIVE","PLANO","TX",75023,33.0653578860001,-96.736130675,240,"6613 RUGER DRIVE, PLANO, TX, 75023","Match","Exact","6613 RUGER DR, PLANO, TX, 75023",123486891,"R"
268741,"6613 S HERMITAGE AVE","CHICAGO","IL",60636,41.773629928,-87.667725444,241,"6613 S HERMITAGE AVE, CHICAGO, IL, 60636","Match","Exact","6613 S HERMITAGE AVE, CHICAGO, IL, 60636",111820518,"L"
268742,"6613 W 4145 S","WEST VALLEY CITY","UT",84128,40.680876939,-112.049081038,242,"6613 W 4145 S, WEST VALLEY CITY, UT, 84128","Match","Exact","6613 W 4145 S, WEST VALLEY CITY, UT, 84128",176128547,"L"
268743,"6613 WILLOW RD","WEST BLOOMFIELD","MI",48324,42.599614999,-83.4147996679999,243,"6613 WILLOW RD, WEST BLOOMFIELD, MI, 48324","Match","Exact","6613 WILLOW RD, W BLOOMFIELD, MI, 48324",69695576,"L"
268744,"66130 HICKORY ST","MANDEVILLE","LA",70448,30.392962187,-90.010437708,244,"66130 HICKORY ST, MANDEVILLE, LA, 70448","Match","Exact","66130 HICKORY ST, MANDEVILLE, LA, 70448",111309100,"R"
268745,"6614 BLACK ANTLER DR","INDIANAPOLIS","IN",46217,39.669627077,-86.201778067,245,"6614 BLACK ANTLER DR, INDIANAPOLIS, IN, 46217","Match","Exact","6614 BLACK ANTLER DR, INDIANAPOLIS, IN, 46217",108046251,"R"
268746,"6614 CLAYTON RD STE 133","ST LOUIS","MO",63117,38.6344060000001,-90.314833451,246,"6614 CLAYTON RD STE 133, ST LOUIS, MO, 63117","Match","Exact","6614 CLAYTON RD, SAINT LOUIS, MO, 63117",652554707,"L"
268747,"6614 CLAYTON RD SUITE 374","RICHMOND HEIGHTS","MO",63117,38.6344060000001,-90.314833451,247,"6614 CLAYTON RD SUITE 374, RICHMOND HEIGHTS, MO, 63117","Match","Exact","6614 CLAYTON RD, RICHMOND HTS, MO, 63117",652554707,"L"
268748,"6614 COLONIAL HIGHWAY","EVINGTON","VA",24550,37.2379712850001,-79.222641444,248,"6614 COLONIAL HIGHWAY, EVINGTON, VA, 24550","Match","Exact","6614 COLONIAL HWY, EVINGTON, VA, 24550",644908376,"R"
268749,"6614 CONIFER CV","AUSTIN","TX",78736,30.2555620410001,-97.908893446,249,"6614 CONIFER CV, AUSTIN, TX, 78736","Match","Exact","6614 CONIFER COVE, AUSTIN, TX, 78736",63995138,"R"
268750,"6614 HARLAN PL NW","WASHINGTON","DC",20012,38.9703063110001,-77.010507106,250,"6614 HARLAN PL NW, WASHINGTON, DC, 20012","Match","Exact","6614 HARLAN PL NW, WASHINGTON, DC, 20012",76222103,"L"
268751,"6614 JABONERIA RD","BELL GARDENS","CA",90201,33.97193624,-118.154282276,251,"6614 JABONERIA RD, BELL GARDENS, CA, 90201","Match","Exact","6614 JABONERIA RD, BELL GARDENS, CA, 90201",141695374,"L"
268752,"6614 LA PUENTE DRIVE","HOUSTON","TX",77083,29.7070626730001,-95.6686280009999,252,"6614 LA PUENTE DRIVE, HOUSTON, TX, 77083","Match","Exact","6614 LA PUENTE DR, HOUSTON, TX, 77083",96017241,"R"
268753,"6614 LILY GARDEN","CLARKSVILLE","MD",21029,NA,NA,253,"6614 LILY GARDEN, CLARKSVILLE, MD, 21029","No_Match",NA,NA,NA,NA
268754,"6614 MONARCH DRIVE","FORT WAYNE","IN",46815,41.0975169180001,-85.0564960579999,254,"6614 MONARCH DRIVE, FORT WAYNE, IN, 46815","Match","Exact","6614 MONARCH DR, FORT WAYNE, IN, 46815",6385734,"R"
268755,"6614 NW 27TH STREET","GAINESVILLE","FL",32653,29.7150041,-82.362780528,255,"6614 NW 27TH STREET, GAINESVILLE, FL, 32653","Match","Exact","6614 NW 27TH ST, GAINESVILLE, FL, 32653",6802545,"L"
268756,"6614 ROBE MENZEL RD","GRANITE FALLS","WA",98252,48.0550616190001,-121.957206255,256,"6614 ROBE MENZEL RD, GRANITE FALLS, WA, 98252","Match","Exact","6614 ROBE MENZEL RD, GRANITE FALLS, WA, 98252",187784464,"L"
268757,"6614 S BLACKSTONE AVE","CHICAGO","IL",60637,41.7745384900001,-87.588832512,257,"6614 S BLACKSTONE AVE, CHICAGO, IL, 60637","Match","Exact","6614 S BLACKSTONE AVE, CHICAGO, IL, 60637",605503177,"R"
268758,"6614 S HERMITAGE AVE  APTB","CHICAGO","IL",60636,41.7735978520001,-87.6677391059999,258,"6614 S HERMITAGE AVE  APTB, CHICAGO, IL, 60636","Match","Non_Exact","6614 S HERMITAGE AVE, CHICAGO, IL, 60636",111820518,"R"
268759,"6614 SE 74TH AVE","PORTLAND","OR",97206,45.475045091,-122.587464485,259,"6614 SE 74TH AVE, PORTLAND, OR, 97206","Match","Exact","6614 SE 74TH AVE, PORTLAND, OR, 97206",157517255,"L"
268760,"6614 STABLEFORD DRIVE","LOVELAND","OH",45140,39.2390642500001,-84.235397211,260,"6614 STABLEFORD DRIVE, LOVELAND, OH, 45140","Match","Exact","6614 STABLEFORD DR, LOVELAND, OH, 45140",617560406,"L"
268761,"6614 SUNDOWN DRIVE NORTH","INDIANAPOLIS","IN",46254,39.832144467,-86.2769865939999,261,"6614 SUNDOWN DRIVE NORTH, INDIANAPOLIS, IN, 46254","Match","Exact","6614 SUNDOWN DR N, INDIANAPOLIS, IN, 46254",108054950,"L"
268762,"6614 SUTTER PARK LANE","HOUSTON","TX",77066,29.9507574290001,-95.51355878,262,"6614 SUTTER PARK LANE, HOUSTON, TX, 77066","Match","Exact","6614 SUTTER PARK LN, HOUSTON, TX, 77066",96010524,"L"
268763,"6614 WEST ASHLAND","BOISE","ID",83709,43.5909141020001,-116.263373259,263,"6614 WEST ASHLAND, BOISE, ID, 83709","Match","Non_Exact","6614 W ASHLAND DR, BOISE, ID, 83709",117862476,"R"
268764,"6614 WOODSIDE AVENUE APT 204A","WOODSIDE","NY",11377,NA,NA,264,"6614 WOODSIDE AVENUE APT 204A, WOODSIDE, NY, 11377","No_Match",NA,NA,NA,NA
268765,"66144 TUDOR RD N","PINELLAS PARK","FL",33782,27.8672044090001,-82.726863393,265,"66144 TUDOR RD N, PINELLAS PARK, FL, 33782","Match","Non_Exact","66144 TUDOR RD, PINELLAS PARK, FL, 33782",124779292,"L"
268766,"6615 BRIMRIDGE LANE","HOUSTON","TX",77048,29.605801974,-95.3064114809999,266,"6615 BRIMRIDGE LANE, HOUSTON, TX, 77048","Match","Exact","6615 BRIMRIDGE LN, HOUSTON, TX, 77048",645213635,"L"
268767,"6615 BRITTANY PARK LN","HOUSTON","TX",77066,29.949588471,-95.5123683749999,267,"6615 BRITTANY PARK LN, HOUSTON, TX, 77066","Match","Exact","6615 BRITTANY PARK LN, HOUSTON, TX, 77066",96010529,"R"
268768,"6615 BROADWAY APT 1","WEST NEW YORK","NJ",7093,40.791196336,-74.0072366049999,268,"6615 BROADWAY APT 1, WEST NEW YORK, NJ, 7093","Match","Exact","6615 BROADWAY, WEST NEW YORK, NJ, 07093",59599843,"L"
268769,"6615 CAROLINA ST SE","LACEY","WA",98513,46.9894379020001,-122.806365691,269,"6615 CAROLINA ST SE, LACEY, WA, 98513","Match","Exact","6615 CAROLINA ST SE, LACEY, WA, 98513",633100122,"R"
268770,"6615 CENTER ROAD PO BOX 399","VALLEY CITY","OH",44280,41.2375865870001,-81.924585368,270,"6615 CENTER ROAD PO BOX 399, VALLEY CITY, OH, 44280","Match","Exact","6615 CENTER RD, VALLEY CITY, OH, 44280",636550288,"L"
268771,"6615 COLBATH AVENUE","VAN NUYS","CA",91404,34.1906867760001,-118.436712649,271,"6615 COLBATH AVENUE, VAN NUYS, CA, 91404","Match","Non_Exact","6615 COLBATH AVE, VAN NUYS, CA, 91405",141561223,"L"
268772,"6615 DEEB STREET APARTMENT 2","PORT RICHEY","FL",34668,28.2809875610001,-82.705207979,272,"6615 DEEB STREET APARTMENT 2, PORT RICHEY, FL, 34668","Match","Exact","6615 DEEB ST, PORT RICHEY, FL, 34668",605971116,"L"
268773,"6615 E PACIFIC COAST HWY STE 150","LONG BEACH","CA",90803,NA,NA,273,"6615 E PACIFIC COAST HWY STE 150, LONG BEACH, CA, 90803","No_Match",NA,NA,NA,NA
268774,"6615 EASTFIELD PARK DR","CHARLOTTE","NC",28269,35.376726691,-80.795386359,274,"6615 EASTFIELD PARK DR, CHARLOTTE, NC, 28269","Match","Exact","6615 EASTFIELD PARK DR, CHARLOTTE, NC, 28269",624253575,"R"
268775,"6615 EASTON STREET","LOS ANGELES","CA",90022,34.0121872570001,-118.129935055,275,"6615 EASTON STREET, LOS ANGELES, CA, 90022","Match","Non_Exact","6615 E EASTON ST, LOS ANGELES, CA, 90022",142738641,"L"
268776,"6615 ELMHURST STREET","DISTRICT HEIGHTS","MD",20747,38.858906614,-76.892460446,276,"6615 ELMHURST STREET, DISTRICT HEIGHTS, MD, 20747","Match","Exact","6615 ELMHURST ST, DISTRICT HEIGHTS, MD, 20747",76318533,"R"
268777,"6615 FORMAN AVENUE","CLEVELAND","OH",44105,41.458679386,-81.64365997,277,"6615 FORMAN AVENUE, CLEVELAND, OH, 44105","Match","Exact","6615 FORMAN AVE, CLEVELAND, OH, 44105",61118219,"L"
268778,"6615 GRAND AVE STE B-399","GURNEE","IL",60031,42.3855791650001,-87.968531146,278,"6615 GRAND AVE STE B-399, GURNEE, IL, 60031","Match","Exact","6615 GRAND AVE, GURNEE, IL, 60031",620771844,"R"
268779,"6615 HAZELTINE AVE UNIT 105","VAN NUYS","CA",91405,34.1911288490001,-118.439988297,279,"6615 HAZELTINE AVE UNIT 105, VAN NUYS, CA, 91405","Match","Exact","6615 HAZELTINE AVE, VAN NUYS, CA, 91405",652037186,"L"
268780,"6615 HITCHING POST LANE","CINCINNATI","OH",45230,39.069210232,-84.3798247129999,280,"6615 HITCHING POST LANE, CINCINNATI, OH, 45230","Match","Exact","6615 HITCHING POST LN, CINCINNATI, OH, 45230",103938034,"L"
268781,"6615 JONEL WAY","BONITA","CA",91902,32.6766767440001,-116.993613435,281,"6615 JONEL WAY, BONITA, CA, 91902","Match","Exact","6615 JONEL WAY, BONITA, CA, 91902",195704252,"R"
268782,"6615 JUPITER GARDENS BLVD","JUPITER","FL",33458,26.9305755440001,-80.1362600859999,282,"6615 JUPITER GARDENS BLVD, JUPITER, FL, 33458","Match","Exact","6615 JUPITER GARDENS BLVD, JUPITER, FL, 33458",646285663,"L"
268783,"6615 LOST PINES BND","HOUSTON","TX",77049,29.8218352160001,-95.208793251,283,"6615 LOST PINES BND, HOUSTON, TX, 77049","Match","Exact","6615 LOST PINES BEND, HOUSTON, TX, 77049",642025181,"L"
268784,"6615 MASTERS ROAD","MANVEL","TX",77578,29.4809781720001,-95.3514890709999,284,"6615 MASTERS ROAD, MANVEL, TX, 77578","Match","Exact","6615 MASTERS RD, MANVEL, TX, 77578",116629783,"R"
268785,"6615 N TRUMBULL AVE","LINCOLNWOOD","IL",60712,42.0013397760001,-87.7154607209999,285,"6615 N TRUMBULL AVE, LINCOLNWOOD, IL, 60712","Match","Exact","6615 TRUMBULL AVE, LINCOLNWOOD, IL, 60712",111742400,"R"
268786,"6615 PRESTONSHIRE LANE","DALLAS","TX",75225,32.8757470620001,-96.7924031379999,286,"6615 PRESTONSHIRE LANE, DALLAS, TX, 75225","Match","Exact","6615 PRESTONSHIRE LN, DALLAS, TX, 75225",102902263,"L"
268787,"6615 ROBERT DRIVE","SOUTH EASTON","MA",2375,NA,NA,287,"6615 ROBERT DRIVE, SOUTH EASTON, MA, 2375","No_Match",NA,NA,NA,NA
268788,"6615 SE WALLACE RD","DAYTON","OR",97114,NA,NA,288,"6615 SE WALLACE RD, DAYTON, OR, 97114","No_Match",NA,NA,NA,NA
268789,"6615 TWO NOTCH RD","COLUMBIA","SC",29223,34.0586517030001,-80.965256708,289,"6615 TWO NOTCH RD, COLUMBIA, SC, 29223","Match","Exact","6615 TWO NOTCH RD, COLUMBIA, SC, 29223",604764450,"L"
268790,"6615 W CORNELIA AVENUE","CHICAGO","IL",60634,41.9437253150001,-87.791405481,290,"6615 W CORNELIA AVENUE, CHICAGO, IL, 60634","Match","Exact","6615 W CORNELIA AVE, CHICAGO, IL, 60634",605203878,"L"
268791,"6616 149TH AVENUE","REDMOND","WA",98052,47.665171506,-122.141421613,291,"6616 149TH AVENUE, REDMOND, WA, 98052","Match","Non_Exact","6616 149TH AVE NE, REDMOND, WA, 98052",239772796,"R"
268792,"6616 BLACK BASS BAY ROAD","PRESQUE ISLE","MI",49777,45.3251453140001,-83.5314142839999,292,"6616 BLACK BASS BAY ROAD, PRESQUE ISLE, MI, 49777","Match","Exact","6616 BLACK BASS BAY RD, PRESQUE ISLE, MI, 49777",130757757,"L"
268793,"6616 CHENEY WAY","GAINESVILLE","VA",20155,38.820802353,-77.60600963,293,"6616 CHENEY WAY, GAINESVILLE, VA, 20155","Match","Exact","6616 CHENEY WAY, GAINESVILLE, VA, 20155",207185877,"R"
268794,"6616 D CLARK RD STE 333","PARADISE","CA",95969,39.7764862440001,-121.591737157,294,"6616 D CLARK RD STE 333, PARADISE, CA, 95969","Match","Exact","6616 CLARK RD, PARADISE, CA, 95969",68467446,"R"
268795,"6616 DEANE HILL DR","KNOXVILLE","TN",37919,35.9285145790001,-84.013484491,295,"6616 DEANE HILL DR, KNOXVILLE, TN, 37919","Match","Exact","6616 DEANE HILL DR, KNOXVILLE, TN, 37919",42615670,"L"
268796,"6616 E CHELSEA ST","TAMPA","FL",33610,27.985461319,-82.381538927,296,"6616 E CHELSEA ST, TAMPA, FL, 33610","Match","Exact","6616 E CHELSEA ST, TAMPA, FL, 33610",104700906,"L"
268797,"6616 ESTATE NADIR","ST. THOMAS","VI",802,NA,NA,297,"6616 ESTATE NADIR, ST. THOMAS, VI, 802","No_Match",NA,NA,NA,NA
268798,"6616 HARRISON RD","CHARLOTTE","NC",28270,35.124318013,-80.7640504359999,298,"6616 HARRISON RD, CHARLOTTE, NC, 28270","Match","Exact","6616 HARRISON RD, CHARLOTTE, NC, 28270",70493500,"R"
268799,"6616 KALUA ROAD","BOULDER","CO",80301,40.055969636,-105.199455072,299,"6616 KALUA ROAD, BOULDER, CO, 80301","Match","Exact","6616 KALUA RD, BOULDER, CO, 80301",188161611,"L"
268800,"6616 KITTRIDGE ST","HOUSTON","TX",77028,29.8281688370001,-95.3084387809999,300,"6616 KITTRIDGE ST, HOUSTON, TX, 77028","Match","Exact","6616 KITTRIDGE ST, HOUSTON, TX, 77028",96076853,"R"
268801,"6616 MAJESTIC WAY","CARPENTERSVILLE","IL",60110,42.1332556410001,-88.3251083549999,301,"6616 MAJESTIC WAY, CARPENTERSVILLE, IL, 60110","Match","Exact","6616 MAJESTIC WAY, CARPENTERSVILLE, IL, 60110",119569528,"L"
268802,"6616 N AMAHL DR","TUCSON","AZ",85704,32.32711521,-111.008262961,302,"6616 N AMAHL DR, TUCSON, AZ, 85704","Match","Exact","6616 N AMAHL DR, TUCSON, AZ, 85704",121160003,"R"
268803,"6616 NW CHINQUAPIN CT","KANSAS CITY","MO",64151,39.215890888,-94.650445889,303,"6616 NW CHINQUAPIN CT, KANSAS CITY, MO, 64151","Match","Exact","6616 NW CHINQUAPIN CT, KANSAS CITY, MO, 64151",39699290,"L"
268804,"6616 OBRIEN RD","KNOXVILLE","TN",37918,36.067378611,-83.9168981569999,304,"6616 OBRIEN RD, KNOXVILLE, TN, 37918","Match","Non_Exact","6616 O BRIEN RD NE, KNOXVILLE, TN, 37918",42607681,"R"
268805,"6616 QUEBEC AVE N","BROOKLYN PARK","MN",55428,45.0747151050001,-93.377609655,305,"6616 QUEBEC AVE N, BROOKLYN PARK, MN, 55428","Match","Exact","6616 QUEBEC AVE N, BROOKLYN PARK, MN, 55428",43842458,"R"
268806,"6616 W SIDE CANYON TRAIL","PHOENIX","AZ",85083,33.7459065090001,-112.202351067,306,"6616 W SIDE CANYON TRAIL, PHOENIX, AZ, 85083","Match","Exact","6616 W SIDE CANYON TRL, PHOENIX, AZ, 85083",650538159,"R"
268807,"6616 WEDDERBURN DR","WILMINGTON","NC",28412,34.096141753,-77.90676467,307,"6616 WEDDERBURN DR, WILMINGTON, NC, 28412","Match","Exact","6616 WEDDERBURN DR, WILMINGTON, NC, 28412",152759000,"R"
268808,"6616 WHITE MIST LN","CHARLOTTE","NC",28269,35.38077136,-80.787686086,308,"6616 WHITE MIST LN, CHARLOTTE, NC, 28269","Match","Exact","6616 WHITE MIST LN, CHARLOTTE, NC, 28269",70531046,"R"
268809,"6616 WOODFIELD RD","LITTLE ROCK","AR",72209,34.6597761460001,-92.351626669,309,"6616 WOODFIELD RD, LITTLE ROCK, AR, 72209","Match","Exact","6616 WOODFIELD RD, LITTLE ROCK, AR, 72209",83513096,"R"
268810,"66161 S MT WICKERSHAM DR","SUTTON","AK",99674,61.7920499630001,-147.750411048,310,"66161 S MT WICKERSHAM DR, SUTTON, AK, 99674","Match","Exact","66161 WICKERSHAM DR, SUTTON, AK, 99674",191059257,"R"
268811,"6617 BRAWNER STREET","MCLEAN","VA",22101,38.9333478660001,-77.171901378,311,"6617 BRAWNER STREET, MCLEAN, VA, 22101","Match","Exact","6617 BRAWNER ST, MCLEAN, VA, 22101",76022603,"L"
268812,"6617 BUCKINGHAM PL","CINCINNATI","OH",45227,39.1558244500001,-84.383239795,312,"6617 BUCKINGHAM PL, CINCINNATI, OH, 45227","Match","Exact","6617 BUCKINGHAM PL, CINCINNATI, OH, 45227",103933942,"R"
268813,"6617 E SADDLEBACK ST","MESA","AZ",85215,33.484791564,-111.686866983,313,"6617 E SADDLEBACK ST, MESA, AZ, 85215","Match","Exact","6617 E SADDLEBACK ST, MESA, AZ, 85215",642858720,"R"
268814,"6617 NORTH DELAWARE AVENUE","PORTLAND","OR",97217,45.570668471,-122.69248935,314,"6617 NORTH DELAWARE AVENUE, PORTLAND, OR, 97217","Match","Exact","6617 N DELAWARE AVE, PORTLAND, OR, 97217",157495524,"L"
268815,"6617 S INGLESIDE UNIT 4N","CHICAGO","IL",60637,NA,NA,315,"6617 S INGLESIDE UNIT 4N, CHICAGO, IL, 60637","No_Match",NA,NA,NA,NA
268816,"6617 S VERMONT AVE","LOS ANGELES","CA",90044,33.979020538,-118.291867491,316,"6617 S VERMONT AVE, LOS ANGELES, CA, 90044","Match","Exact","6617 S VERMONT AVE, LOS ANGELES, CA, 90044",241169986,"R"
268817,"6618 BOLIVIA STREET","YOUNGSTOWN","FL",32466,30.31819053,-85.544858317,317,"6618 BOLIVIA STREET, YOUNGSTOWN, FL, 32466","Match","Exact","6618 BOLIVIA ST, YOUNGSTOWN, FL, 32466",7014325,"R"
268818,"6618 BROKEN STONE","HOUSTON","TX",77084,29.8719422670001,-95.667310694,318,"6618 BROKEN STONE, HOUSTON, TX, 77084","Match","Non_Exact","6618 BROKEN STONE ST, HOUSTON, TX, 77084",644862919,"R"
268819,"6618 CUSTER PINEVIEW RD","CUSTER","MT",59024,NA,NA,319,"6618 CUSTER PINEVIEW RD, CUSTER, MT, 59024","No_Match",NA,NA,NA,NA
268820,"6618 MEMPHIS AVE","PENSACOLA","FL",32526,30.4720102040001,-87.2843452829999,320,"6618 MEMPHIS AVE, PENSACOLA, FL, 32526","Match","Exact","6618 MEMPHIS AVE, PENSACOLA, FL, 32526",93232794,"R"
268821,"6618 NADINE ROAD","PANAMA CITY","FL",32404,30.2406823540001,-85.541328978,321,"6618 NADINE ROAD, PANAMA CITY, FL, 32404","Match","Exact","6618 NADINE RD, PANAMA CITY, FL, 32404",7086345,"L"
268822,"6618 NW 5TH AVENUE","VANCOUVER","WA",98665,45.669896421,-122.675209413,322,"6618 NW 5TH AVENUE, VANCOUVER, WA, 98665","Match","Exact","6618 NW 5TH AVE, VANCOUVER, WA, 98665",158347216,"L"
268823,"6618 PEBBLE BROOKE ROAD BALTIMORE","BALTIMORE","MD",21209,39.3748643100001,-76.669940379,323,"6618 PEBBLE BROOKE ROAD BALTIMORE, BALTIMORE, MD, 21209","Match","Exact","6618 PEBBLE BROOKE RD, BALTIMORE, MD, 21209",635368604,"L"
268824,"6618 POINT COMFORT LANE","CHARLOTTE","NC",28226,35.081832777,-80.845205364,324,"6618 POINT COMFORT LANE, CHARLOTTE, NC, 28226","Match","Exact","6618 POINT COMFORT LN, CHARLOTTE, NC, 28226",70565572,"L"
268825,"6618 WEST 4145 SOUTH","WEST VALLEY CITY","UT",84128,40.680887904,-112.049108636,325,"6618 WEST 4145 SOUTH, WEST VALLEY CITY, UT, 84128","Match","Exact","6618 W 4145 S, WEST VALLEY CITY, UT, 84128",176128547,"R"
268826,"66180 S FOREST AVE","LENOX TWP","MI",48050,42.78827714,-82.7532286799999,326,"66180 S FOREST AVE, LENOX TWP, MI, 48050","Match","Non_Exact","66180 S FOREST AVE, LENOX, MI, 48050",110665133,"R"
268827,"6619 132ND AVE NE PMB 205","KIRKLAND","WA",98033,47.6654410740001,-122.164011862,327,"6619 132ND AVE NE PMB 205, KIRKLAND, WA, 98033","Match","Exact","6619 132ND AVE NE, KIRKLAND, WA, 98033",186610670,"L"
268828,"6619 50TH STREET","SACRAMENTO","CA",95823,38.5071650950001,-121.446523445,328,"6619 50TH STREET, SACRAMENTO, CA, 95823","Match","Exact","6619 50TH ST, SACRAMENTO, CA, 95823",133336839,"L"
268829,"6619 BROAD CREEK OVERLOOK","FREDERICKSBURG","VA",22407,38.263888292,-77.555791093,329,"6619 BROAD CREEK OVERLOOK, FREDERICKSBURG, VA, 22407","Match","Exact","6619 BROAD CREEK OVERLOOK, FREDERICKSBURG, VA, 22407",653499566,"L"
268830,"6619 COVENTRY PT","AUSTELL","GA",30168,33.7920670570001,-84.613193236,330,"6619 COVENTRY PT, AUSTELL, GA, 30168","Match","Exact","6619 COVENTRY PT, AUSTELL, GA, 30168",17218338,"R"
268831,"6619 RUSHSING RIVER","NOBLESVILLE","IN",46062,NA,NA,331,"6619 RUSHSING RIVER, NOBLESVILLE, IN, 46062","No_Match",NA,NA,NA,NA
268832,"6619 S DIXIE HWY STE 187","MIAMI","FL",33143,25.695798827,-80.2999493,332,"6619 S DIXIE HWY STE 187, MIAMI, FL, 33143","Match","Non_Exact","6619 S DIXIE HWY, MIAMI, FL, 33143",115985395,"R"
268833,"6619 SOUTH DIXIE HIGHWAY 569","MIAMI","FL",33143,25.6958026200001,-80.299944926,333,"6619 SOUTH DIXIE HIGHWAY 569, MIAMI, FL, 33143","Match","Exact","6619 S DIXIE HWY, MIAMI, FL, 33143",115985395,"R"
268834,"6619 SOUTH DIXIE HIGHWAY","MIAMI","FL",33143,25.6958026200001,-80.299944926,334,"6619 SOUTH DIXIE HIGHWAY, MIAMI, FL, 33143","Match","Exact","6619 S DIXIE HWY, MIAMI, FL, 33143",115985395,"R"
268835,"662 1ST AVENUE","DEPTFORD","NJ",8096,39.802067154,-75.088267636,335,"662 1ST AVENUE, DEPTFORD, NJ, 8096","Match","Exact","662 FIRST AVE, DEPTFORD, NJ, 08096",134586439,"L"
268836,"662 ACADEMY PLACE","OVIEDO","FL",32765,28.6663833100001,-81.1963655659999,336,"662 ACADEMY PLACE, OVIEDO, FL, 32765","Match","Exact","662 ACADEMY PL, OVIEDO, FL, 32765",93764400,"L"
268837,"662 CALMAR AVENUE","OAKLAND","CA",94610,37.8119212780001,-122.239000578,337,"662 CALMAR AVENUE, OAKLAND, CA, 94610","Match","Exact","662 CALMAR AVE, OAKLAND, CA, 94610",125001891,"L"
268838,"662 FRANCINE CT","LA PUENTE","CA",91746,34.039043211,-117.999906689,338,"662 FRANCINE CT, LA PUENTE, CA, 91746","Match","Non_Exact","662 FRANCINE ST, LA PUENTE, CA, 91746",142748715,"R"
268839,"662 GOFFLE ROAD","HAWTHORNE","NJ",7506,40.9560794610001,-74.16235762,339,"662 GOFFLE ROAD, HAWTHORNE, NJ, 7506","Match","Exact","662 GOFFLE RD, HAWTHORNE, NJ, 07506",65263573,"L"
268840,"662 HAAS AVE","LOS ANGELES","CA",90047,NA,NA,340,"662 HAAS AVE, LOS ANGELES, CA, 90047","No_Match",NA,NA,NA,NA
268841,"662 HURRICANE ROAD","KEENE","NH",3431,42.96661492,-72.378067274,341,"662 HURRICANE ROAD, KEENE, NH, 3431","Match","Exact","662 HURRICANE RD, KEENE, NH, 03431",124079155,"L"
268842,"662 MAPLE ST","BROOKLYN","NY",11203,40.6615511890001,-73.939001651,342,"662 MAPLE ST, BROOKLYN, NY, 11203","Match","Exact","662 MAPLE ST, BROOKLYN, NY, 11203",59079884,"R"
268843,"662 N FRAZIER STREET","PHILADELPHIA","PA",19131,39.9698951400001,-75.23324223,343,"662 N FRAZIER STREET, PHILADELPHIA, PA, 19131","Match","Exact","662 N FRAZIER ST, PHILADELPHIA, PA, 19131",131398254,"L"
268844,"662 NORTH MOORPARK ROAD","THOUSAND OAKS","CA",91360,34.1875684080001,-118.874634257,344,"662 NORTH MOORPARK ROAD, THOUSAND OAKS, CA, 91360","Match","Exact","662 N MOORPARK RD, THOUSAND OAKS, CA, 91360",109976530,"R"
268845,"662 PARK PI APT 2L","BROOKLYN","NY",11216,40.6740117150001,-73.955918614,345,"662 PARK PI APT 2L, BROOKLYN, NY, 11216","Match","Non_Exact","662 PARK PL, BROOKLYN, NY, 11216",59079338,"R"
268846,"662 ROCK DR","KALISPELL","MT",59901,48.242738655,-114.260061199,346,"662 ROCK DR, KALISPELL, MT, 59901","Match","Exact","662 ROCK DR, KALISPELL, MT, 59901",204131921,"L"
268847,"662 S GROVE STREET","RIPON","WI",54971,43.839286267,-88.842524887,347,"662 S GROVE STREET, RIPON, WI, 54971","Match","Exact","662 S GROVE ST, RIPON, WI, 54971",74813700,"L"
268848,"662 SARVIS BRANCH RD","ESTILL SPRINGS","TN",37330,35.2591518410001,-86.172233465,348,"662 SARVIS BRANCH RD, ESTILL SPRINGS, TN, 37330","Match","Exact","662 SARVIS BRANCH RD, ESTILL SPRINGS, TN, 37330",57959330,"R"
268849,"662 SO 52ND STREET","RICHMOND","CA",94804,37.923166612,-122.32117314,349,"662 SO 52ND STREET, RICHMOND, CA, 94804","Match","Exact","662 S 52ND ST, RICHMOND, CA, 94804",607820314,"L"
268850,"662 SOUTH 37TH STREET","LOUISVILLE","KY",40211,38.251780857,-85.813328822,350,"662 SOUTH 37TH STREET, LOUISVILLE, KY, 40211","Match","Exact","662 S 37TH ST, LOUISVILLE, KY, 40211",96836226,"R"
268851,"662 SPRINGTOR DRIVE","LAWRENCEVILLE","GA",30043,34.04000713,-84.008696737,351,"662 SPRINGTOR DRIVE, LAWRENCEVILLE, GA, 30043","Match","Non_Exact","662 SPRINGTOR DR NE, LAWRENCEVILLE, GA, 30043",88939320,"R"
268852,"662 TWP RD 3044","LODUOVNILLE","OH",44842,NA,NA,352,"662 TWP RD 3044, LODUOVNILLE, OH, 44842","No_Match",NA,NA,NA,NA
268853,"662 W IRVING PARK RD","CHICAGO","IL",60613,41.954606676,-87.6475881229999,353,"662 W IRVING PARK RD, CHICAGO, IL, 60613","Match","Exact","662 W IRVING PARK RD, CHICAGO, IL, 60613",111766590,"R"
268854,"662 WINDING VIEW","NEW BRAUNFELS","TX",78132,29.820988587,-98.093012121,354,"662 WINDING VIEW, NEW BRAUNFELS, TX, 78132","Match","Exact","662 WINDING VW, NEW BRAUNFELS, TX, 78132",72277670,"R"
268855,"6620 CEDAR MILL COURT","ACWORTH","GA",30102,34.115844942,-84.637722186,355,"6620 CEDAR MILL COURT, ACWORTH, GA, 30102","Match","Exact","6620 CEDAR MILL CT, ACWORTH, GA, 30102",68835861,"R"
268856,"6620 CROWN POINT CT","MIDLAND","TX",79706,NA,NA,356,"6620 CROWN POINT CT, MIDLAND, TX, 79706","No_Match",NA,NA,NA,NA
268857,"6620 DALLAVIS DRIVE","FLORISSANT","MO",63033,38.7941483380001,-90.2391434049999,357,"6620 DALLAVIS DRIVE, FLORISSANT, MO, 63033","Match","Exact","6620 DALLAVIS DR, FLORISSANT, MO, 63033",100148521,"R"
268858,"6620 EAST 49TH AVE","COMMERCE CITY","CO",80022,39.7852343000001,-104.911158172,358,"6620 EAST 49TH AVE, COMMERCE CITY, CO, 80022","Match","Exact","6620 E 49TH AVE, COMMERCE CITY, CO, 80022",177310109,"R"
268859,"6620 FOREST CT","WINDSOR HEIGHTS","IA",50324,41.603563885,-93.70950872,359,"6620 FOREST CT, WINDSOR HEIGHTS, IA, 50324","Match","Exact","6620 FOREST CT, WINDSOR HEIGHTS, IA, 50324",65796879,"L"
268860,"6620 GLEBE POINT ROAD","CHESTERFIELD","VA",23838,37.32045185,-77.491332029,360,"6620 GLEBE POINT ROAD, CHESTERFIELD, VA, 23838","Match","Exact","6620 GLEBE POINT RD, CHESTERFIELD, VA, 23838",201560053,"L"
268861,"6620 HWY 981","CONWAY","SC",29527,33.881572851,-79.2034514859999,361,"6620 HWY 981, CONWAY, SC, 29527","Match","Exact","6620 HWY 981, CONWAY, SC, 29527",29083144,"L"
268862,"6620 MACEDAY DR","WATERFORD","MI",48329,42.688716003,-83.4195240069999,362,"6620 MACEDAY DR, WATERFORD, MI, 48329","Match","Exact","6620 MACEDAY DR, WATERFORD, MI, 48329",69694410,"R"
268863,"6620 MERRYPORT LANE","NAPLES","FL",34104,26.162627215,-81.734115033,363,"6620 MERRYPORT LANE, NAPLES, FL, 34104","Match","Exact","6620 MERRYPORT LN, NAPLES, FL, 34104",115153428,"R"
268864,"6620 MILLVILLE AVE","MAYS LANDING","NJ",8330,39.442815296,-74.791542813,364,"6620 MILLVILLE AVE, MAYS LANDING, NJ, 8330","Match","Non_Exact","6620 MILLVILLE RD, MAYS LANDING, NJ, 08330",651779515,"R"
268865,"6620 N 78TH TERRACE","OMAHA","NE",68122,41.3186453640001,-96.035438033,365,"6620 N 78TH TERRACE, OMAHA, NE, 68122","Match","Exact","6620 N 78TH TER, OMAHA, NE, 68122",117018737,"L"
268866,"6620 N KILBOURN AVE","LINCOLNWOOD","IN",60712,NA,NA,366,"6620 N KILBOURN AVE, LINCOLNWOOD, IN, 60712","No_Match",NA,NA,NA,NA
268867,"6620 NE PETTIBONE DR","CORVALLIS","OR",97330,44.6369228720001,-123.221520714,367,"6620 NE PETTIBONE DR, CORVALLIS, OR, 97330","Match","Exact","6620 NE PETTIBONE DR, CORVALLIS, OR, 97330",155843082,"L"
268868,"6620 NW 21ST  CT","SUNRISE","FL",33313,26.152876081,-80.237600399,368,"6620 NW 21ST  CT, SUNRISE, FL, 33313","Match","Exact","6620 NW 21ST CT, SUNRISE, FL, 33313",114704463,"L"
268869,"6620 QUAIL POINTE CIRCLE N","MEMPHIS","TN",38120,35.106476033,-89.842913277,369,"6620 QUAIL POINTE CIRCLE N, MEMPHIS, TN, 38120","Match","Exact","6620 QUAIL POINTE CIR N, MEMPHIS, TN, 38120",645531684,"L"
268870,"6620 ROCKGLEN WAY UNIT 614","RALEIGH","NC",27615,35.869997626,-78.596417106,370,"6620 ROCKGLEN WAY UNIT 614, RALEIGH, NC, 27615","Match","Exact","6620 ROCKGLEN WAY, RALEIGH, NC, 27615",208349373,"R"
268871,"6620 S UNION AVE","CHICAGO","IL",60621,41.7735602830001,-87.6426502899999,371,"6620 S UNION AVE, CHICAGO, IL, 60621","Match","Exact","6620 S UNION AVE, CHICAGO, IL, 60621",605490271,"R"
268872,"6620 SE 50TH STREET","TRENTON","FL",32693,29.6671690000001,-82.6960637129999,372,"6620 SE 50TH STREET, TRENTON, FL, 32693","Match","Exact","6620 SE 50TH ST, TRENTON, FL, 32693",635489701,"L"
268873,"6620 SOUTH HARVARD AVE","CHICAGO","IL",60621,41.774022723,-87.633282014,373,"6620 SOUTH HARVARD AVE, CHICAGO, IL, 60621","Match","Exact","6620 S HARVARD AVE, CHICAGO, IL, 60621",111831191,"R"
268874,"6620 SOUTHPOINT DR S STE 115E","JACKSONVILLE","FL",32216,30.2515552420001,-81.590650451,374,"6620 SOUTHPOINT DR S STE 115E, JACKSONVILLE, FL, 32216","Match","Exact","6620 SOUTHPOINT DR S, JACKSONVILLE, FL, 32216",83919808,"R"
268875,"6620 STINCHCOMB DR","OKLAHOMA CITY","OK",73132,35.5402127740001,-97.6637180869999,375,"6620 STINCHCOMB DR, OKLAHOMA CITY, OK, 73132","Match","Exact","6620 STINCHCOMB DR, OKLAHOMA CITY, OK, 73132",100450924,"R"
268876,"6620 SW 70 LN","MIAMI","FL",33143,25.7057062440001,-80.3010140969999,376,"6620 SW 70 LN, MIAMI, FL, 33143","Match","Exact","6620 SW 70TH LN, MIAMI, FL, 33143",116075746,"L"
268877,"6620 SW ARBORGLADE LN","TOPEKA","KS",66619,38.947332519,-95.703871425,377,"6620 SW ARBORGLADE LN, TOPEKA, KS, 66619","Match","Exact","6620 SW ARBORGLADE LN, TOPEKA, KS, 66619",17891758,"R"
268878,"6620 SW KING BLVD","BEAVERTON","OR",97008,45.4724314330001,-122.793689183,378,"6620 SW KING BLVD, BEAVERTON, OR, 97008","Match","Exact","6620 SW KING BLVD, BEAVERTON, OR, 97008",158186874,"L"
268879,"6621 DENSMORE AVE","LAKE BALBOA","CA",91406,34.190884602,-118.4772139,379,"6621 DENSMORE AVE, LAKE BALBOA, CA, 91406","Match","Exact","6621 DENSMORE AVE, LAKE BALBOA, CA, 91406",141560003,"L"
268880,"6621 FM 2218 ROAD","RICHMOND","TX",77469,29.489574399,-95.806567614,380,"6621 FM 2218 ROAD, RICHMOND, TX, 77469","Match","Exact","6621 FM 2218 RD, RICHMOND, TX, 77469",78279897,"R"
268881,"6621 FM 2622","PONDER","TX",76259,33.226196816,-97.353629664,381,"6621 FM 2622, PONDER, TX, 76259","Match","Exact","6621 FM 2622, PONDER, TX, 76259",640564288,"L"
268882,"6621 FRANKSTOWN AVE","PITTSBURGH","PA",15206,40.4592821890001,-79.910343585,382,"6621 FRANKSTOWN AVE, PITTSBURGH, PA, 15206","Match","Exact","6621 FRANKSTOWN AVE, PITTSBURGH, PA, 15206",51646758,"L"
268883,"6621 GOLDEN RIDGE DRIVE","EDEN PRAIRIE","MN",55344,44.882770522,-93.4187010649999,383,"6621 GOLDEN RIDGE DRIVE, EDEN PRAIRIE, MN, 55344","Match","Exact","6621 GOLDEN RIDGE DR, EDEN PRAIRIE, MN, 55344",43827615,"L"
268884,"6621 HAPPY TRAILS DRIVE","DALLAS","TX",75241,32.6578941700001,-96.765497715,384,"6621 HAPPY TRAILS DRIVE, DALLAS, TX, 75241","Match","Exact","6621 HAPPY TRAILS DR, DALLAS, TX, 75241",619132093,"R"
268885,"6621 HERITAGE OAK COURT","MONTGOMERY","AL",36117,32.343029938,-86.180421861,385,"6621 HERITAGE OAK COURT, MONTGOMERY, AL, 36117","Match","Exact","6621 HERITAGE OAK CT, MONTGOMERY, AL, 36117",1489503,"R"
268886,"6621 IVANPAH AVE","TWENTYNINE PALMS","CA",92274,34.1328139760001,-116.158377815,386,"6621 IVANPAH AVE, TWENTYNINE PALMS, CA, 92274","Match","Non_Exact","6621 IVANPAH AVE, TWENTYNINE PALMS, CA, 92277",144622841,"R"
268887,"6621 KELLY ELLIOTT RD","ARLINGTON","TX",76001,32.637624546,-97.175964232,387,"6621 KELLY ELLIOTT RD, ARLINGTON, TX, 76001","Match","Exact","6621 KELLY ELLIOTT RD, ARLINGTON, TX, 76001",102130760,"L"
268888,"6621 MALONEY AVE LOT 10","KEY WEST","FL",33040,24.5711381780001,-81.7342825169999,388,"6621 MALONEY AVE LOT 10, KEY WEST, FL, 33040","Match","Exact","6621 MALONEY AVE, KEY WEST, FL, 33040",116476645,"R"
268889,"6621 OLETA DRIVE","DALLAS","TX",75217,32.7135477940001,-96.7068814469999,389,"6621 OLETA DRIVE, DALLAS, TX, 75217","Match","Exact","6621 OLETA DR, DALLAS, TX, 75217",102978229,"L"
268890,"6621 S GREENWOOD 3A","CHICAGO","IL",60637,NA,NA,390,"6621 S GREENWOOD 3A, CHICAGO, IL, 60637","No_Match",NA,NA,NA,NA
268891,"6621 S HIGH STREET","LITTLETON","CO",80121,39.5965213050001,-104.966906935,391,"6621 S HIGH STREET, LITTLETON, CO, 80121","Match","Exact","6621 S HIGH ST, LITTLETON, CO, 80121",177337716,"R"
268892,"6621 STARLING CIRCLE","DALLAS","TX",75209,32.8390736710001,-96.826327438,392,"6621 STARLING CIRCLE, DALLAS, TX, 75209","Match","Exact","6621 STARLING CIR, DALLAS, TX, 75209",102903817,"L"
268893,"6621 W COUNTY ROAD 1025 SOUTH","REELSVILLE","IN",46171,39.5120958250001,-86.969500613,393,"6621 W COUNTY ROAD 1025 SOUTH, REELSVILLE, IN, 46171","Match","Exact","6621 W CO RD 1025 S, REELSVILLE, IN, 46171",50106376,"L"
268894,"6621 W PORT ARTHUR RD","PORT ARTHUR","TX",77640,29.911578929,-94.015434211,394,"6621 W PORT ARTHUR RD, PORT ARTHUR, TX, 77640","Match","Exact","6621 W PORT ARTHUR RD, PORT ARTHUR, TX, 77640",73873992,"L"
268895,"6621 WASHINGTON ST","NEW PORT RICHEY","FL",34652,28.2542565860001,-82.719531116,395,"6621 WASHINGTON ST, NEW PORT RICHEY, FL, 34652","Match","Exact","6621 WASHINGTON ST, NEW PORT RICHEY, FL, 34652",86402990,"L"
268896,"6621 WEST GROSS AVENUE","PHOENIX","AZ",85043,33.429452112,-112.202211701,396,"6621 WEST GROSS AVENUE, PHOENIX, AZ, 85043","Match","Exact","6621 W GROSS AVE, PHOENIX, AZ, 85043",243943708,"R"
268897,"6622 BACKBAY PASS","SAN ANTONIO","TX",78244,29.4877817170001,-98.3485155549999,397,"6622 BACKBAY PASS, SAN ANTONIO, TX, 78244","Match","Exact","6622 BACKBAY PASS, SAN ANTONIO, TX, 78244",619947874,"R"
268898,"6622 CHERRY COURT","RIVERDALE","GA",30274,33.5739629170001,-84.3980384769999,398,"6622 CHERRY COURT, RIVERDALE, GA, 30274","Match","Exact","6622 CHERRY CT, RIVERDALE, GA, 30274",23322459,"L"
268899,"6622 GILLESPIE STREET","PHILADELPHIA","PA",19135,40.0261522910001,-75.0501660749999,399,"6622 GILLESPIE STREET, PHILADELPHIA, PA, 19135","Match","Exact","6622 GILLESPIE ST, PHILADELPHIA, PA, 19135",131435047,"L"
268900,"6622 HARLEY STREET","PHILADELPHIA","PA",19142,39.91644863,-75.22728162,400,"6622 HARLEY STREET, PHILADELPHIA, PA, 19142","Match","Exact","6622 HARLEY ST, PHILADELPHIA, PA, 19142",131409465,"L"
268901,"6622 JILL COURT","MCLEAN","VA",22101,38.9604583730001,-77.167879376,401,"6622 JILL COURT, MCLEAN, VA, 22101","Match","Exact","6622 JILL CT, MCLEAN, VA, 22101",76014727,"R"
268902,"6622 SUNNYMERE AVE","OAKLAND","CA",94605,37.7775644220001,-122.168764481,402,"6622 SUNNYMERE AVE, OAKLAND, CA, 94605","Match","Exact","6622 SUNNYMERE AVE, OAKLAND, CA, 94605",125008873,"L"
268903,"6622 W WILLIAMS STREET","PHOENIX","AZ",85043,33.4210567700001,-112.202604783,403,"6622 W WILLIAMS STREET, PHOENIX, AZ, 85043","Match","Exact","6622 W WILLIAMS ST, PHOENIX, AZ, 85043",128844317,"R"
268904,"6622 WEST JEFFERSON COURT","MCCORDSVILLE","IN",46055,39.867508135,-85.927494246,404,"6622 WEST JEFFERSON COURT, MCCORDSVILLE, IN, 46055","Match","Exact","6622 W JEFFERSON CT, MCCORDSVILLE, IN, 46055",31083140,"R"
268905,"66221 BUENA VISTA AVE","DESERT HOT SPRINGS","CA",92240,33.9596299340001,-116.506472656,405,"66221 BUENA VISTA AVE, DESERT HOT SPRINGS, CA, 92240","Match","Exact","66221 BUENA VISTA AVE, DESERT HOT SPRINGS, CA, 92240",194721892,"R"
268906,"66221 BUENA VISTA","DESSERT HOT SPRINGS","CA",92240,33.9596299340001,-116.506472656,406,"66221 BUENA VISTA, DESSERT HOT SPRINGS, CA, 92240","Match","Non_Exact","66221 BUENA VISTA AVE, DESERT HOT SPRINGS, CA, 92240",194721892,"R"
268907,"6623 CARRIE LN","SAN ANTONIO","TX",78218,29.4889096410001,-98.4110340839999,407,"6623 CARRIE LN, SAN ANTONIO, TX, 78218","Match","Exact","6623 CARRIE LN, SAN ANTONIO, TX, 78218",101530315,"L"
268908,"6623 CHANTALLE DRIVE","KATY","TX",77449,29.873869117,-95.7045356089999,408,"6623 CHANTALLE DRIVE, KATY, TX, 77449","Match","Exact","6623 CHANTALLE DR, KATY, TX, 77449",96014147,"L"
268909,"6623 EAST LOVERS LANE APT 272","DALLAS","TX",75214,NA,NA,409,"6623 EAST LOVERS LANE APT 272, DALLAS, TX, 75214","No_Match",NA,NA,NA,NA
268910,"6623 FYLER AVE","ST LOUIS","MO",63139,38.6030053600001,-90.30230262,410,"6623 FYLER AVE, ST LOUIS, MO, 63139","Match","Exact","6623 FYLER AVE, SAINT LOUIS, MO, 63139",107608014,"R"
268911,"6623 S UNION AVE 1ST FL","CHICAGO","IL",60621,41.7734607200001,-87.642633373,411,"6623 S UNION AVE 1ST FL, CHICAGO, IL, 60621","Match","Non_Exact","6623 S UNION AVE, CHICAGO, IL, 60621",605490271,"L"
268912,"6623 SHELL FLOWER LANE","DALLAS","TX",75252,32.988992963,-96.791598741,412,"6623 SHELL FLOWER LANE, DALLAS, TX, 75252","Match","Exact","6623 SHELL FLOWER LN, DALLAS, TX, 75252",123484781,"L"
268913,"6623 STONEY POINT S","NORFOLK","VA",23502,36.8500221960001,-76.182028039,413,"6623 STONEY POINT S, NORFOLK, VA, 23502","Match","Exact","6623 STONEY PT S, NORFOLK, VA, 23502",122130486,"R"
268914,"6623 WINBARRC WAY","CANAL WINCHESTER","OH",43110,NA,NA,414,"6623 WINBARRC WAY, CANAL WINCHESTER, OH, 43110","No_Match",NA,NA,NA,NA
268915,"6623-D RICHMOND ROAD","WILLIAMSBURG","VA",23188,37.346950909,-76.7599177449999,415,"6623-D RICHMOND ROAD, WILLIAMSBURG, VA, 23188","Match","Exact","6623 RICHMOND RD, WILLIAMSBURG, VA, 23188",103784806,"R"
268916,"6624 10TH AVENUE LEVEL C2","BROOKLYN","NY",11219,40.6292153410001,-74.0089258949999,416,"6624 10TH AVENUE LEVEL C2, BROOKLYN, NY, 11219","Match","Exact","6624 10TH AVE, BROOKLYN, NY, 11219",59094904,"R"
268917,"6624 APPLE CROSS DRIVE NORTH","MOBILE","AL",36695,30.646903368,-88.1966394199999,417,"6624 APPLE CROSS DRIVE NORTH, MOBILE, AL, 36695","Match","Exact","6624 APPLE CROSS DR N, MOBILE, AL, 36695",61872286,"L"
268918,"6624 AZLE AVE","FORT WORTH","CT",76135,NA,NA,418,"6624 AZLE AVE, FORT WORTH, CT, 76135","No_Match",NA,NA,NA,NA
268919,"6624 BLONDO STREET SUITE A","OMAHA","NE",68104,41.277768817,-96.014694377,419,"6624 BLONDO STREET SUITE A, OMAHA, NE, 68104","Match","Exact","6624 BLONDO ST, OMAHA, NE, 68104",116976269,"R"
268920,"6624 DUME DRIVE","MALIBU","CA",90265,34.0180100960001,-118.806974142,420,"6624 DUME DRIVE, MALIBU, CA, 90265","Match","Exact","6624 DUME DR, MALIBU, CA, 90265",142785275,"R"
268921,"6624 FANNIN ST STE 2580","HOUSTON","TX",77030,29.708408944,-95.401918829,421,"6624 FANNIN ST STE 2580, HOUSTON, TX, 77030","Match","Exact","6624 FANNIN ST, HOUSTON, TX, 77030",624375612,"R"
268922,"6624 HARVARD AVENUE","CLEVELAND","OH",44105,41.4478083870001,-81.643964319,422,"6624 HARVARD AVENUE, CLEVELAND, OH, 44105","Match","Exact","6624 HARVARD AVE, CLEVELAND, OH, 44105",61118266,"R"
268923,"6624 LUCILLE AVE","BAKERSFIELD","CA",93308,35.4160100600001,-119.079005595,423,"6624 LUCILLE AVE, BAKERSFIELD, CA, 93308","Match","Exact","6624 LUCILLE AVE, BAKERSFIELD, CA, 93308",642189488,"R"
268924,"6624 PONDVIEW DRIVE","TINLEY PARK","IL",60477,41.5557684290001,-87.7797992879999,424,"6624 PONDVIEW DRIVE, TINLEY PARK, IL, 60477","Match","Exact","6624 PONDVIEW DR, TINLEY PARK, IL, 60477",112215734,"L"
268925,"6624 RUSTIC VIEW COURT","CHARLOTTE","NC",28216,35.3235040530001,-80.885411335,425,"6624 RUSTIC VIEW COURT, CHARLOTTE, NC, 28216","Match","Exact","6624 RUSTIC VIEW CT, CHARLOTTE, NC, 28216",614169818,"L"
268926,"6624 SARONI DRIVE","OAKLAND","CA",94611,37.832109417,-122.202335611,426,"6624 SARONI DRIVE, OAKLAND, CA, 94611","Match","Exact","6624 SARONI DR, OAKLAND, CA, 94611",125003482,"R"
268927,"6624 W NORTH AVENUE","CHICAGO","IL",60707,41.909091931,-87.790400043,427,"6624 W NORTH AVENUE, CHICAGO, IL, 60707","Match","Exact","6624 NORTH AVE, CHICAGO, IL, 60707",112226224,"R"
268928,"6625 DEL NORTE LN","DALLAS","TX",75225,32.868731285,-96.790990827,428,"6625 DEL NORTE LN, DALLAS, TX, 75225","Match","Exact","6625 DEL NORTE LN, DALLAS, TX, 75225",102907105,"L"
268929,"6625 DEVONSHIRE DR","SAN JOSE","CA",95129,37.3027364440001,-122.020129955,429,"6625 DEVONSHIRE DR, SAN JOSE, CA, 95129","Match","Exact","6625 DEVONSHIRE DR, SAN JOSE, CA, 95129",122940748,"R"
268930,"6625 FREEMONT HILLS LOOP NE","RIO RANCHO","NM",87144,35.3417373520001,-106.602384996,430,"6625 FREEMONT HILLS LOOP NE, RIO RANCHO, NM, 87144","Match","Exact","6625 FREEMONT HILLS LOOP NE, RIO RANCHO, NM, 87144",194017976,"L"
268931,"6625 GREENWOOD ROAD","ST FRANCISVILLE","LA",70775,30.8422059260001,-91.435250599,431,"6625 GREENWOOD ROAD, ST FRANCISVILLE, LA, 70775","Match","Exact","6625 GREENWOOD RD, SAINT FRANCISVILLE, LA, 70775",84912402,"L"
268932,"6625 LYBROOK CT","BETHESDA","MD",20817,38.9988661670001,-77.136057212,432,"6625 LYBROOK CT, BETHESDA, MD, 20817","Match","Exact","6625 LYBROOK CT, BETHESDA, MD, 20817",62140919,"R"
268933,"6625 MIAMI LAKES DRIVE SUITE 211","MIAMI LAKES","FL",33014,25.9113239870001,-80.304559286,433,"6625 MIAMI LAKES DRIVE SUITE 211, MIAMI LAKES, FL, 33014","Match","Non_Exact","6625 E MIAMI LAKES DR, MIAMI LAKES, FL, 33014",116023655,"R"
268934,"6625 MIAMI LAKES DRIVE SUITE 226","MIAMI LAKES","FL",33014,25.9113239870001,-80.304559286,434,"6625 MIAMI LAKES DRIVE SUITE 226, MIAMI LAKES, FL, 33014","Match","Non_Exact","6625 E MIAMI LAKES DR, MIAMI LAKES, FL, 33014",116023655,"R"
268935,"6625 MIAMI LAKES DRIVE SUITE 432","MIAMI LAKES","FL",33014,25.9113239870001,-80.304559286,435,"6625 MIAMI LAKES DRIVE SUITE 432, MIAMI LAKES, FL, 33014","Match","Non_Exact","6625 E MIAMI LAKES DR, MIAMI LAKES, FL, 33014",116023655,"R"
268936,"6625 MIAMI LAKES DRIVE SUITE 484","MIAMI LAKES","FL",33014,25.9113239870001,-80.304559286,436,"6625 MIAMI LAKES DRIVE SUITE 484, MIAMI LAKES, FL, 33014","Match","Non_Exact","6625 E MIAMI LAKES DR, MIAMI LAKES, FL, 33014",116023655,"R"
268937,"6625 N CALIFORNIA AVE","CHICAGO","IL",60645,42.001730568,-87.699743144,437,"6625 N CALIFORNIA AVE, CHICAGO, IL, 60645","Match","Exact","6625 N CALIFORNIA AVE, CHICAGO, IL, 60645",111744527,"R"
268938,"6625 N RICHMOND STREET SUITE 3","CHICAGO","IL",60645,42.001668953,-87.7034010679999,438,"6625 N RICHMOND STREET SUITE 3, CHICAGO, IL, 60645","Match","Non_Exact","6625 N RICHMOND ST, CHICAGO, IL, 60645",111744508,"R"
268939,"6625 NORTH 11TH STREET","PHILADELPHIA","PA",19126,40.0533369010001,-75.136605327,439,"6625 NORTH 11TH STREET, PHILADELPHIA, PA, 19126","Match","Exact","6625 N 11TH ST, PHILADELPHIA, PA, 19126",131413828,"R"
268940,"6625 ROWAN ROAD","NEW PORT RICHEY","FL",34652,28.253937342,-82.699162351,440,"6625 ROWAN ROAD, NEW PORT RICHEY, FL, 34652","Match","Non_Exact","6625 ROWAN RD, NEW PORT RICHEY, FL, 34653",605972648,"L"
268941,"6625 SAHALEE DR","FORT WORTH","TX",76132,32.656062745,-97.437278915,441,"6625 SAHALEE DR, FORT WORTH, TX, 76132","Match","Exact","6625 SAHALEE DR, FORT WORTH, TX, 76132",615577619,"R"
268942,"6625 TERRY RD","JACKSONVILLE","FL",32216,30.2771893820001,-81.593962284,442,"6625 TERRY RD, JACKSONVILLE, FL, 32216","Match","Exact","6625 TERRY RD, JACKSONVILLE, FL, 32216",83919063,"L"
268943,"6625 WANITA PL","HOUSTON","TX",77007,29.7750389070001,-95.428830542,443,"6625 WANITA PL, HOUSTON, TX, 77007","Match","Exact","6625 WANITA PL, HOUSTON, TX, 77007",96059905,"L"
268944,"6626 17TH AVENUE","KENOSHA","WI",53143,42.5739845690001,-87.82972797,444,"6626 17TH AVENUE, KENOSHA, WI, 53143","Match","Exact","6626 17TH AVE, KENOSHA, WI, 53143",79810619,"R"
268945,"6626 CHAPEL HILL BLVD B302","PASCO","WA",99301,46.2611237630001,-119.174718322,445,"6626 CHAPEL HILL BLVD B302, PASCO, WA, 99301","Match","Exact","6626 CHAPEL HILL BLVD, PASCO, WA, 99301",630032035,"L"
268946,"6626 CRESTWELL LANE","INDIANAPOLIS","IN",46268,39.8767305980001,-86.215111308,446,"6626 CRESTWELL LANE, INDIANAPOLIS, IN, 46268","Match","Exact","6626 CRESTWELL LN, INDIANAPOLIS, IN, 46268",108039628,"R"
268947,"6626 CYPRESS POINT ROAD","ALEXANDRIA","VA",22312,38.8257544950001,-77.169135006,447,"6626 CYPRESS POINT ROAD, ALEXANDRIA, VA, 22312","Match","Exact","6626 CYPRESS POINT RD, ALEXANDRIA, VA, 22312",76015529,"L"
268948,"6626 GLENMOOR DR","CHARLOTTE","NC",28214,35.266847485,-80.9426897439999,448,"6626 GLENMOOR DR, CHARLOTTE, NC, 28214","Match","Exact","6626 GLENMOOR DR, CHARLOTTE, NC, 28214",70474842,"R"
268949,"6626 GREESLAKE POINT","MYRTLE BEACH","SC",29588,33.648790648,-79.050533077,449,"6626 GREESLAKE POINT, MYRTLE BEACH, SC, 29588","Match","Non_Exact","6626 GREENSLAKE PT, MYRTLE BEACH, SC, 29588",630490267,"R"
268950,"6626 SANZO ROAD","PIKESVILLE","MD",21209,39.3738918230001,-76.6928703,450,"6626 SANZO ROAD, PIKESVILLE, MD, 21209","Match","Non_Exact","6626 SANZO RD, BALTIMORE, MD, 21209",191471861,"L"
268951,"6626 SUMMER SPRUCE CT","KATY","TX",77449,NA,NA,451,"6626 SUMMER SPRUCE CT, KATY, TX, 77449","No_Match",NA,NA,NA,NA
268952,"6626 WOODLAND TRACE CT","LIBERTY TWP","OH",45044,39.3834141200001,-84.395120326,452,"6626 WOODLAND TRACE CT, LIBERTY TWP, OH, 45044","Match","Exact","6626 WOODLAND TRACE CT, LIBERTY TOWNSHIP, OH, 45044",113809029,"L"
268953,"6627 ANOKA ST NE","FRIDLEY","MN",55432,45.088227552,-93.231474995,453,"6627 ANOKA ST NE, FRIDLEY, MN, 55432","Match","Exact","6627 ANOKA ST NE, FRIDLEY, MN, 55432",97490869,"R"
268954,"6627 E SHAMROCK ST","FLORENCE","AZ",85132,33.095182687,-111.494954448,454,"6627 E SHAMROCK ST, FLORENCE, AZ, 85132","Match","Exact","6627 SHAMROCK ST, FLORENCE, AZ, 85132",627525806,"R"
268955,"6627 LOCUST WAY","ANNANDALE","VA",22003,38.8202133030001,-77.171063203,455,"6627 LOCUST WAY, ANNANDALE, VA, 22003","Match","Exact","6627 LOCUST WAY, ANNANDALE, VA, 22003",75981168,"L"
268956,"6627 MOSSY ROCK LANE","INDIANAPOLIS","IN",46237,39.670973729,-86.089490529,456,"6627 MOSSY ROCK LANE, INDIANAPOLIS, IN, 46237","Match","Exact","6627 MOSSY ROCK LN, INDIANAPOLIS, IN, 46237",108032603,"R"
268957,"6627 N 5TH ST","PHILADELPHIA","PA",19126,40.0522298650001,-75.127026797,457,"6627 N 5TH ST, PHILADELPHIA, PA, 19126","Match","Non_Exact","6627 N 5TH ST, PHILADELPHIA, PA, 19126",131414160,"R"
268958,"6627 SATSUMA AVE","NORTH HOLLYWOOD","CA",91606,34.191010083,-118.367055481,458,"6627 SATSUMA AVE, NORTH HOLLYWOOD, CA, 91606","Match","Exact","6627 SATSUMA AVE, N HOLLYWOOD, CA, 91606",141591274,"L"
268959,"6628 ADRIATIC WAY","WEST PALM BEACH","FL",33413,26.6852386250001,-80.1418433549999,459,"6628 ADRIATIC WAY, WEST PALM BEACH, FL, 33413","Match","Exact","6628 ADRIATIC WAY, WEST PALM BEACH, FL, 33413",636846021,"L"
268960,"6628 CABIN CREEK DR","COLORADO SPRINGS","CO",80923,38.9324347310001,-104.744616877,460,"6628 CABIN CREEK DR, COLORADO SPRINGS, CO, 80923","Match","Exact","6628 CABIN CREEK DR, COLORADO SPRINGS, CO, 80923",633409157,"R"
268961,"6628 E CREST VIEW LOOP SE","SNOQUALMIE","WA",98065,47.5416140900001,-121.863330927,461,"6628 E CREST VIEW LOOP SE, SNOQUALMIE, WA, 98065","Match","Exact","6628 E CREST VIEW LOOP SE, SNOQUALMIE, WA, 98065",636812652,"R"
268962,"6628 KIRBY MEADOWS CV","MEMPHIS","TN",38115,35.054822664,-89.842043113,462,"6628 KIRBY MEADOWS CV, MEMPHIS, TN, 38115","Match","Exact","6628 KIRBY MEADOWS COVE, MEMPHIS, TN, 38115",72930340,"L"
268963,"6628 SILVERSTREAM AVE","LAS VEGAS","NV",89107,36.177516643,-115.239401629,463,"6628 SILVERSTREAM AVE, LAS VEGAS, NV, 89107","Match","Exact","6628 SILVERSTREAM AVE, LAS VEGAS, NV, 89107",201859728,"R"
268964,"6628 TABOR ST","NORTH RICHLAND HILLS","TX",76180,32.8281278050001,-97.240940027,464,"6628 TABOR ST, NORTH RICHLAND HILLS, TX, 76180","Match","Exact","6628 TABOR ST, NORTH RICHLAND HILLS, TX, 76180",101863027,"R"
268965,"6628 WILCREST DR SUITE B200","HOUSTON","TX",77072,29.707155878,-95.571269946,465,"6628 WILCREST DR SUITE B200, HOUSTON, TX, 77072","Match","Exact","6628 WILCREST DR, HOUSTON, TX, 77072",96119926,"R"
268966,"6629 13TH PL NW","WASHINGTON","DC",20012,38.970391002,-77.028463034,466,"6629 13TH PL NW, WASHINGTON, DC, 20012","Match","Exact","6629 13TH PL NW, WASHINGTON, DC, 20012",76221789,"R"
268967,"6629 ARBOR BLUFF CT","N LAS VEGAS","NV",89084,36.2809813200001,-115.162416731,467,"6629 ARBOR BLUFF CT, N LAS VEGAS, NV, 89084","Match","Exact","6629 ARBOR BLUFF CT, N LAS VEGAS, NV, 89084",612992457,"L"
268968,"6629 BAY PARKWAY 2FL","BROOKLYN","NY",11204,NA,NA,468,"6629 BAY PARKWAY 2FL, BROOKLYN, NY, 11204","No_Match",NA,NA,NA,NA
268969,"6629 BRENT SCOTT ST","NORTH LAS VEGAS","NV",89086,36.2813059590001,-115.129516207,469,"6629 BRENT SCOTT ST, NORTH LAS VEGAS, NV, 89086","Match","Exact","6629 BRENT SCOTT ST, N LAS VEGAS, NV, 89086",612683697,"L"
268970,"6629 CHARLESWAY","TOWSON","MD",21204,39.3899021760001,-76.628537729,470,"6629 CHARLESWAY, TOWSON, MD, 21204","Match","Exact","6629 CHARLESWAY, TOWSON, MD, 21204",191472943,"L"
268971,"6629 CRESCENT STREET","LOS ANGELES","CA",90042,34.1160605630001,-118.176271352,471,"6629 CRESCENT STREET, LOS ANGELES, CA, 90042","Match","Exact","6629 CRESCENT ST, LOS ANGELES, CA, 90042",141615454,"L"
268972,"6629 FM 2004","HITCHCOCK","TX",77563,29.349894491,-95.031578688,472,"6629 FM 2004, HITCHCOCK, TX, 77563","Match","Non_Exact","6629 FM 2004 RD, HITCHCOCK, TX, 77563",96684617,"R"
268973,"6629 RICHARD AVE","PLACERVILLE","CA",95667,38.7426200990001,-120.872284182,473,"6629 RICHARD AVE, PLACERVILLE, CA, 95667","Match","Exact","6629 RICHARD AVE, PLACERVILLE, CA, 95667",133025413,"R"
268974,"6629 SE 81ST AVE","PORTLAND","OR",97206,45.4749349740001,-122.580713808,474,"6629 SE 81ST AVE, PORTLAND, OR, 97206","Match","Exact","6629 SE 81ST AVE, PORTLAND, OR, 97206",157517587,"L"
268975,"6629 SUNSET CIRCLE","RIVERSIDE","CA",92505,33.9489700460001,-117.502869597,475,"6629 SUNSET CIRCLE, RIVERSIDE, CA, 92505","Match","Exact","6629 SUNSET CIR, RIVERSIDE, CA, 92505",194735862,"R"
268976,"6629 WANDA LANE","HOUSTON","TX",77074,29.678707081,-95.50769963,476,"6629 WANDA LANE, HOUSTON, TX, 77074","Match","Exact","6629 WANDA LN, HOUSTON, TX, 77074",96037630,"L"
268977,"6629 WEST CHERYL DRIVE","GLENDALE","AZ",85302,33.578720864,-112.201627955,477,"6629 WEST CHERYL DRIVE, GLENDALE, AZ, 85302","Match","Exact","6629 W CHERYL DR, GLENDALE, AZ, 85302",128261899,"L"
268978,"663 7TH STREET NORTH","NAPLES","FL",34102,26.155280802,-81.799542813,478,"663 7TH STREET NORTH, NAPLES, FL, 34102","Match","Exact","663 7TH ST N, NAPLES, FL, 34102",115138407,"L"
268979,"663 ARMSTRONG WAY","BRENTWOOD","CA",94513,37.9183582740001,-121.705529725,479,"663 ARMSTRONG WAY, BRENTWOOD, CA, 94513","Match","Exact","663 ARMSTRONG WAY, BRENTWOOD, CA, 94513",192111465,"L"
268980,"663 CROSSHILL ROAD","ROYERSFORD","PA",19468,40.174843443,-75.524631632,480,"663 CROSSHILL ROAD, ROYERSFORD, PA, 19468","Match","Exact","663 CROSSHILL RD, ROYERSFORD, PA, 19468",135120916,"R"
268981,"663 EAST ROAD","TIVERTON","RI",2878,41.569633136,-71.162421949,481,"663 EAST ROAD, TIVERTON, RI, 2878","Match","Exact","663 EAST RD, TIVERTON, RI, 02878",47360133,"L"
268982,"663 FENELON PLACE","DUBUQUE","IA",52001,42.495605201,-90.6716865239999,482,"663 FENELON PLACE, DUBUQUE, IA, 52001","Match","Exact","663 FENELON PL, DUBUQUE, IA, 52001",16915544,"R"
268983,"663 GREENVIEW AVE NE","ATLANTA","GA",30305,33.8376836530001,-84.365331585,483,"663 GREENVIEW AVE NE, ATLANTA, GA, 30305","Match","Exact","663 GREENVIEW AVE NE, ATLANTA, GA, 30305",17355843,"R"
268984,"663 GUYETTE RD","PLAINFIELD","VT",5667,44.284315701,-72.366394307,484,"663 GUYETTE RD, PLAINFIELD, VT, 5667","Match","Exact","663 GUYETTE RD, PLAINFIELD, VT, 05667",640667020,"L"
268985,"663 HARTFORD DRIVE","BOULDER","CO",80305,39.984312135,-105.260659128,485,"663 HARTFORD DRIVE, BOULDER, CO, 80305","Match","Exact","663 HARTFORD DR, BOULDER, CO, 80305",188193432,"R"
268986,"663 JACON WAY","PACIFIC PALISADES","CA",90272,34.0487263580001,-118.547311773,486,"663 JACON WAY, PACIFIC PALISADES, CA, 90272","Match","Exact","663 JACON WAY, PACIFIC PALISADES, CA, 90272",141557373,"L"
268987,"663 KRIS LANE","MOSINEE","WI",54455,NA,NA,487,"663 KRIS LANE, MOSINEE, WI, 54455","No_Match",NA,NA,NA,NA
268988,"663 LEBANON HWY","CARTHAGE","TN",37030,36.2641026060001,-86.056680495,488,"663 LEBANON HWY, CARTHAGE, TN, 37030","Match","Exact","663 LEBANON HWY, CARTHAGE, TN, 37030",612074672,"L"
268989,"663 MARSHALL COURT","VACAVILLE","CA",95687,38.3434439000001,-121.988591021,489,"663 MARSHALL COURT, VACAVILLE, CA, 95687","Match","Exact","663 MARSHALL CT, VACAVILLE, CA, 95687",192534935,"R"
268990,"663 MEADOWBROOK DRIVE","HUNTINGDON VY","PA",19006,40.111798612,-75.080265132,490,"663 MEADOWBROOK DRIVE, HUNTINGDON VY, PA, 19006","Match","Exact","663 MEADOWBROOK DR, HUNTINGDON VY, PA, 19006",135130745,"R"
268991,"663 MONTIANO CIRCLE","SAINT AUGUSTINE","FL",32084,29.92589782,-81.369587815,491,"663 MONTIANO CIRCLE, SAINT AUGUSTINE, FL, 32084","Match","Exact","663 MONTIANO CIR, SAINT AUGUSTINE, FL, 32084",650349055,"L"
268992,"663 N ADMIRALS POINT DRIVE","LAFAYETTE","IN",47909,NA,NA,492,"663 N ADMIRALS POINT DRIVE, LAFAYETTE, IN, 47909","No_Match",NA,NA,NA,NA
268993,"663 N CAPITOL AVE","SAN JOSE","CA",95133,37.3761228130001,-121.849016043,493,"663 N CAPITOL AVE, SAN JOSE, CA, 95133","Match","Exact","663 N CAPITOL AVE, SAN JOSE, CA, 95133",650224246,"R"
268994,"663 NORTH LOCUST POINT ROAD","MECHANICSBURG","PA",17050,40.262330096,-77.097602218,494,"663 NORTH LOCUST POINT ROAD, MECHANICSBURG, PA, 17050","Match","Exact","663 N LOCUST POINT RD, MECHANICSBURG, PA, 17050",60989623,"R"
268995,"663 PARKWOOD LN","POMONA","CA",91767,34.1101158210001,-117.738353078,495,"663 PARKWOOD LN, POMONA, CA, 91767","Match","Exact","663 PARKWOOD LN, POMONA, CA, 91767",141731968,"R"
268996,"663 PERCH LAKE ROAD","HUDSON","WI",54016,45.049901962,-92.667753782,496,"663 PERCH LAKE ROAD, HUDSON, WI, 54016","Match","Exact","663 PERCH LAKE RD, HUDSON, WI, 54016",110911275,"L"
268997,"663 PINELAND TRAIL","ORMOND BEACH","FL",32174,29.3004611650001,-81.130516114,497,"663 PINELAND TRAIL, ORMOND BEACH, FL, 32174","Match","Exact","663 PINELAND TRL, ORMOND BEACH, FL, 32174",94598626,"R"
268998,"663 PO BOX","PINEVILLE","NC",28134,NA,NA,498,"663 PO BOX, PINEVILLE, NC, 28134","No_Match",NA,NA,NA,NA
268999,"663 RENSSELAER AVE","STATEN ISLAND","NY",10312,40.540383897,-74.1965271619999,499,"663 RENSSELAER AVE, STATEN ISLAND, NY, 10312","Match","Exact","663 RENSSELAER AVE, STATEN ISLAND, NY, 10312",59874218,"R"
269000,"663 RIDGEVIEW RD PO BOX 1","FAIRFAX","VT",5454,NA,NA,500,"663 RIDGEVIEW RD PO BOX 1, FAIRFAX, VT, 5454","No_Match",NA,NA,NA,NA
