"ID","Address","City","State","Zip","lat","long","id","input_address","match_indicator","match_type","matched_address","tiger_line_id","tiger_side"
190501,"3746 OTELLO PLACE","KATY","TX",77493,29.8282527120001,-95.802009353,1,"3746 OTELLO PLACE, KATY, TX, 77493","Match","Exact","3746 OTELLO PL, KATY, TX, 77493",652673730,"R"
190502,"3746 UPTO AVE N","MINNEAPOLIS","MN",55412,NA,NA,2,"3746 UPTO AVE N, MINNEAPOLIS, MN, 55412","No_Match",NA,NA,NA,NA
190503,"3746 W 20TH PLACE","GARY","IN",46404,41.581551704,-87.383835119,3,"3746 W 20TH PLACE, GARY, IN, 46404","Match","Exact","3746 W 20TH PL, GARY, IN, 46404",606329541,"R"
190504,"37463 N COMMERCE LANE","POLSON","MT",59860,NA,NA,4,"37463 N COMMERCE LANE, POLSON, MT, 59860","No_Match",NA,NA,NA,NA
190505,"37464 MIDDLEBURY ST","PALMDALE","CA",93550,34.5632931270001,-118.098757959,5,"37464 MIDDLEBURY ST, PALMDALE, CA, 93550","Match","Exact","37464 MIDDLEBURY ST, PALMDALE, CA, 93550",141778087,"R"
190506,"3747 ASHLEY LANE","MEQUON","WI",53092,43.223155838,-87.957190899,6,"3747 ASHLEY LANE, MEQUON, WI, 53092","Match","Exact","3747 ASHLEY LN, MEQUON, WI, 53092",95907512,"R"
190507,"3747 BROOKSHIRE ST","SAN DIEGO","CA",92111,32.8120875000001,-117.173592189,7,"3747 BROOKSHIRE ST, SAN DIEGO, CA, 92111","Match","Exact","3747 BROOKSHIRE ST, SAN DIEGO, CA, 92111",195305555,"R"
190508,"3747 KNIGHT ARNOLD RD","MEMPHIS","TN",38118,35.0650752510001,-89.9380372369999,8,"3747 KNIGHT ARNOLD RD, MEMPHIS, TN, 38118","Match","Exact","3747 KNIGHT ARNOLD RD, MEMPHIS, TN, 38118",72921069,"R"
190509,"3747 KNIGHT ARNOLD ROAD","MEMPHIS","TN",38118,35.0650752510001,-89.9380372369999,9,"3747 KNIGHT ARNOLD ROAD, MEMPHIS, TN, 38118","Match","Exact","3747 KNIGHT ARNOLD RD, MEMPHIS, TN, 38118",72921069,"R"
190510,"3747 N CLARK ST 4N","CHICAGO","IL",60613,41.949767863,-87.658569159,10,"3747 N CLARK ST 4N, CHICAGO, IL, 60613","Match","Non_Exact","3747 N CLARK ST, CHICAGO, IL, 60613",111762221,"R"
190511,"3747 SOUTH HIGH SCHOOL ROAD","INDIANAPOLIS","IN",46241,39.7094669860001,-86.26957907,11,"3747 SOUTH HIGH SCHOOL ROAD, INDIANAPOLIS, IN, 46241","Match","Exact","3747 S HIGH SCHOOL RD, INDIANAPOLIS, IN, 46241",108025997,"L"
190512,"3747 TOP FLITE LN","MASON","OH",45040,39.3842479580001,-84.3243328839999,12,"3747 TOP FLITE LN, MASON, OH, 45040","Match","Exact","3747 TOP FLITE LN, MASON, OH, 45040",159052940,"R"
190513,"3747 W 57TH STREET","LOS ANGELES","CA",90043,33.9908218570001,-118.338984201,13,"3747 W 57TH STREET, LOS ANGELES, CA, 90043","Match","Exact","3747 W 57TH ST, LOS ANGELES, CA, 90043",141654740,"R"
190514,"37473 S STONEY CLIFF DR","TUCSON","AZ",85739,32.537232057,-110.86823595,14,"37473 S STONEY CLIFF DR, TUCSON, AZ, 85739","Match","Exact","37473 S STONEY CLIFF DR, TUCSON, AZ, 85739",129240554,"L"
190515,"3748 CAMBRIDGE STATION DRIVE","MEMPHIS","TN",38115,35.046122456,-89.887276298,15,"3748 CAMBRIDGE STATION DRIVE, MEMPHIS, TN, 38115","Match","Exact","3748 CAMBRIDGE STATION DR, MEMPHIS, TN, 38115",72955531,"L"
190516,"3748 COUNTY ROAD 456","COLORADO CITY","TX",79512,32.4904484360001,-100.796404031,16,"3748 COUNTY ROAD 456, COLORADO CITY, TX, 79512","Match","Exact","3748 CO RD 456, COLORADO CITY, TX, 79512",183126719,"L"
190517,"3748 CREEKPARK STREET","RIVERSIDE","CA",92501,33.990561063,-117.369466105,17,"3748 CREEKPARK STREET, RIVERSIDE, CA, 92501","Match","Exact","3748 CREEKPARK ST, RIVERSIDE, CA, 92501",608991221,"R"
190518,"3748 GRIFFITH VIEW DRIVE","LOS ANGELES","CA",90039,34.118458344,-118.265711269,18,"3748 GRIFFITH VIEW DRIVE, LOS ANGELES, CA, 90039","Match","Exact","3748 GRIFFITH VIEW DR, LOS ANGELES, CA, 90039",141610410,"L"
190519,"3748 HARRIS DR","MARIETTA","OK",73448,NA,NA,19,"3748 HARRIS DR, MARIETTA, OK, 73448","No_Match",NA,NA,NA,NA
190520,"3748 LOVINA LAND","STOW","OH",44224,41.1880351190001,-81.43035072,20,"3748 LOVINA LAND, STOW, OH, 44224","Match","Non_Exact","3748 LOVINA LN, STOW, OH, 44224",617273468,"L"
190521,"3748 MINNEHAHA AVENUE","MINNEAPOLIS","MN",55406,44.9349733400001,-93.224529532,21,"3748 MINNEHAHA AVENUE, MINNEAPOLIS, MN, 55406","Match","Exact","3748 MINNEHAHA AVE, MINNEAPOLIS, MN, 55406",43639923,"R"
190522,"3748 N SHEFFIELD AVE","CHICAGO","IL",60613,41.950085356,-87.654419418,22,"3748 N SHEFFIELD AVE, CHICAGO, IL, 60613","Match","Exact","3748 N SHEFFIELD AVE, CHICAGO, IL, 60613",111762248,"L"
190523,"3748 NW 115 TH AVE","PORTLAND","OR",97229,45.5465231380001,-122.795431551,23,"3748 NW 115 TH AVE, PORTLAND, OR, 97229","Match","Non_Exact","3748 NW 115TH AVE, PORTLAND, OR, 97229",158229152,"L"
190524,"3748 S WABASH UNIT 3","CHICAGO","IL",60653,NA,NA,24,"3748 S WABASH UNIT 3, CHICAGO, IL, 60653","No_Match",NA,NA,NA,NA
190525,"3748 SENASAC AVENUE","LONG BEACH","CA",90808,33.8259806950001,-118.113827574,25,"3748 SENASAC AVENUE, LONG BEACH, CA, 90808","Match","Exact","3748 SENASAC AVE, LONG BEACH, CA, 90808",141745101,"R"
190526,"3748 W HANCOCK","DETROIT","MI",48208,42.343048557,-83.1024091479999,26,"3748 W HANCOCK, DETROIT, MI, 48208","Match","Non_Exact","3748 W HANCOCK ST, DETROIT, MI, 48208",95472616,"R"
190527,"3748A STATE ROUTE 7","CHESAPEAKE","OH",45619,38.433753632,-82.428300968,27,"3748A STATE ROUTE 7, CHESAPEAKE, OH, 45619","Match","Exact","3748 STATE RTE 7, CHESAPEAKE, OH, 45619",55027162,"L"
190528,"3749 BUCHANAN STREET","CASTRO VALLEY","CA",94123,37.804542596,-122.433632304,28,"3749 BUCHANAN STREET, CASTRO VALLEY, CA, 94123","Match","Non_Exact","3749 BUCHANAN ST, SAN FRANCISCO, CA, 94123",192279476,"L"
190529,"3749 FOSSIL TREE LANE","KELLER","TX",76244,32.892772187,-97.303484264,29,"3749 FOSSIL TREE LANE, KELLER, TX, 76244","Match","Exact","3749 FOSSIL TREE LN, KELLER, TX, 76244",652049672,"L"
190530,"3749 GREENWOOD AVENUE","LOS ANGELES","CA",90066,34.0006084080001,-118.443669991,30,"3749 GREENWOOD AVENUE, LOS ANGELES, CA, 90066","Match","Exact","3749 GREENWOOD AVE, LOS ANGELES, CA, 90066",141570504,"R"
190531,"3749 HIGH BRIDGE ROAD","LANCASTER","KY",40444,37.796541738,-84.695236917,31,"3749 HIGH BRIDGE ROAD, LANCASTER, KY, 40444","Match","Exact","3749 HIGH BRIDGE RD, LANCASTER, KY, 40444",635512925,"L"
190532,"3749 KILLDEE RD","ROPESVILLE","TX",79358,33.4583615270001,-102.078176556,32,"3749 KILLDEE RD, ROPESVILLE, TX, 79358","Match","Non_Exact","3749 KILLDEE, ROPESVILLE, TX, 79358",185757432,"R"
190533,"3749 RUE D ORLEANS","BATON ROUGE","LA",70810,30.314017972,-91.120049067,33,"3749 RUE D ORLEANS, BATON ROUGE, LA, 70810","Match","Non_Exact","3749 RUE D'ORLEANS, BATON ROUGE, LA, 70810",619032632,"L"
190534,"3749 S 720 W","HUNTINGBURG","IN",47542,38.3241861390001,-87.040074505,34,"3749 S 720 W, HUNTINGBURG, IN, 47542","Match","Exact","3749 S 720 W, HUNTINGBURG, IN, 47542",7877181,"L"
190535,"3749 SUMMERSVILLE LANE","FT WORTH","TX",76244,32.9583426140001,-97.279715197,35,"3749 SUMMERSVILLE LANE, FT WORTH, TX, 76244","Match","Exact","3749 SUMMERSVILLE LN, FORT WORTH, TX, 76244",637603995,"L"
190536,"3749 W 86TH PLACE","CHICAGO","IL",60652,41.7358722230001,-87.715385536,36,"3749 W 86TH PLACE, CHICAGO, IL, 60652","Match","Exact","3749 W 86TH PL, CHICAGO, IL, 60652",111817503,"L"
190537,"3749 WEST PROSPECT AVENUE","VISALIA","CA",93291,NA,NA,37,"3749 WEST PROSPECT AVENUE, VISALIA, CA, 93291","No_Match",NA,NA,NA,NA
190538,"37494 SUNSET LANE","BROWNSVILLE","OR",97327,44.36734748,-122.893316267,38,"37494 SUNSET LANE, BROWNSVILLE, OR, 97327","Match","Exact","37494 SUNSET LN, BROWNSVILLE, OR, 97327",156052553,"L"
190539,"37496 GOLDEN EAGLE BLVD","LEWES","DE",19958,38.75247216,-75.1298929169999,39,"37496 GOLDEN EAGLE BLVD, LEWES, DE, 19958","Match","Exact","37496 GOLDEN EAGLE BLVD, LEWES, DE, 19958",635280434,"R"
190540,"375  E CLIVEDEN STREET","PHILADELPHIA","PA",19119,40.0527814210001,-75.177056818,40,"375  E CLIVEDEN STREET, PHILADELPHIA, PA, 19119","Match","Exact","375 E CLIVEDEN ST, PHILADELPHIA, PA, 19119",131395360,"L"
190541,"375 107TH LANE NW","COON RAPIDS","MN",55448,45.1651972220001,-93.2757027119999,41,"375 107TH LANE NW, COON RAPIDS, MN, 55448","Match","Exact","375 107TH LN NW, COON RAPIDS, MN, 55448",97485851,"R"
190542,"375 31ST ST","OGDEN","UT",84401,41.2081699550001,-111.971542937,42,"375 31ST ST, OGDEN, UT, 84401","Match","Exact","375 31ST ST, OGDEN, UT, 84401",155698051,"R"
190543,"375 3RD STEET","ASTORIA","OR",97103,46.1886933710001,-123.839658295,43,"375 3RD STEET, ASTORIA, OR, 97103","Match","Exact","375 3RD ST, ASTORIA, OR, 97103",159221443,"L"
190544,"375 A HARVARD AVE   APT 6A","CAMBRIDGE","MA",2138,42.3715898840001,-71.112530856,44,"375 A HARVARD AVE   APT 6A, CAMBRIDGE, MA, 2138","Match","Non_Exact","375 HARVARD ST, CAMBRIDGE, MA, 02138",86868708,"R"
190545,"375 ACACIA AVE APT 18","CARLSBAD","CA",92008,33.1527795110001,-117.345214664,45,"375 ACACIA AVE APT 18, CARLSBAD, CA, 92008","Match","Exact","375 ACACIA AVE, CARLSBAD, CA, 92008",195449225,"R"
190546,"375 BANBERRY DRIVE","MCDONALD","TN",37353,35.1616055640001,-84.9822391339999,46,"375 BANBERRY DRIVE, MCDONALD, TN, 37353","Match","Non_Exact","375 BANBERRY DR, MC DONALD, TN, 37353",625373032,"L"
190547,"375 BEACH 13TH STREET","FAR ROCKAWAY","NY",11691,40.599654839,-73.747074278,47,"375 BEACH 13TH STREET, FAR ROCKAWAY, NY, 11691","Match","Exact","375 BEACH 13TH ST, FAR ROCKAWAY, NY, 11691",59737574,"L"
190548,"375 BERWIND STREET","SAINT MARYS","PA",15857,41.4241040380001,-78.563852447,48,"375 BERWIND STREET, SAINT MARYS, PA, 15857","Match","Exact","375 BERWIND ST, SAINT MARYS, PA, 15857",157845635,"R"
190549,"375 BIRCH STREET","MORGANTOWN","WV",26505,39.650031074,-79.9699812439999,49,"375 BIRCH STREET, MORGANTOWN, WV, 26505","Match","Exact","375 BIRCH ST, MORGANTOWN, WV, 26505",649854454,"R"
190550,"375 BLAKE AVENUE 3F","BROOKLYN","NY",11212,40.6662168180001,-73.905772821,50,"375 BLAKE AVENUE 3F, BROOKLYN, NY, 11212","Match","Exact","375 BLAKE AVE, BROOKLYN, NY, 11212",611843171,"L"
190551,"375 BLUFF ST","DUBUQUE","IA",52001,42.4967498400001,-90.6675133799999,51,"375 BLUFF ST, DUBUQUE, IA, 52001","Match","Exact","375 BLUFF ST, DUBUQUE, IA, 52001",16908951,"L"
190552,"375 CAMINO DE LAS COLINAS","REDONDO BEACH","CA",90277,NA,NA,52,"375 CAMINO DE LAS COLINAS, REDONDO BEACH, CA, 90277","No_Match",NA,NA,NA,NA
190553,"375 CARVER MILL RD","TALKING ROCK","GA",30175,34.483968706,-84.5893822369999,53,"375 CARVER MILL RD, TALKING ROCK, GA, 30175","Match","Exact","375 CARVER MILL RD, TALKING ROCK, GA, 30175",648802621,"L"
190554,"375 CENTRAL AVE UNIT 62","RIVERSIDE","CA",92507,33.9546862120001,-117.321131171,54,"375 CENTRAL AVE UNIT 62, RIVERSIDE, CA, 92507","Match","Exact","375 CENTRAL AVE, RIVERSIDE, CA, 92507",647453886,"R"
190555,"375 CENTRAL AVENUE","KENNETH","MN",56147,43.753736309,-96.0714757329999,55,"375 CENTRAL AVENUE, KENNETH, MN, 56147","Match","Exact","375 CENTRAL AVE, KENNETH, MN, 56147",619727197,"L"
190556,"375 CHESTNUT ST SUITE 3A ROOM B","NEWARK","NJ",7105,40.7212801490001,-74.15972707,56,"375 CHESTNUT ST SUITE 3A ROOM B, NEWARK, NJ, 7105","Match","Exact","375 CHESTNUT ST, NEWARK, NJ, 07105",63468694,"R"
190557,"375 CHINQUAPIN CIR","DUNNSVILLE","VA",22454,37.8473375720001,-76.872562219,57,"375 CHINQUAPIN CIR, DUNNSVILLE, VA, 22454","Match","Exact","375 CHINQUAPIN CIR, DUNNSVILLE, VA, 22454",635855599,"L"
190558,"375 CHIPETA WAY SUITE A","SALT LAKE CITY","UT",84108,40.7606780510001,-111.825720461,58,"375 CHIPETA WAY SUITE A, SALT LAKE CITY, UT, 84108","Match","Exact","375 CHIPETA WAY, SALT LAKE CITY, UT, 84108",176129612,"L"
190559,"375 CLAUNCH ROAD","PERRYVILLE","KY",40468,37.6842513180001,-84.93503487,59,"375 CLAUNCH ROAD, PERRYVILLE, KY, 40468","Match","Exact","375 CLAUNCH RD, PERRYVILLE, KY, 40468",32483898,"L"
190560,"375 CLIFFWOOD PARK STREET UNIT C","BREA","CA",92821,33.922820798,-117.89020508,60,"375 CLIFFWOOD PARK STREET UNIT C, BREA, CA, 92821","Match","Exact","375 CLIFFWOOD PARK ST, BREA, CA, 92821",144135034,"R"
190561,"375 COFFROATH ROAD","COATESVILLE","PA",19320,40.023712822,-75.8901275549999,61,"375 COFFROATH ROAD, COATESVILLE, PA, 19320","Match","Exact","375 COFFROATH RD, COATESVILLE, PA, 19320",179542119,"L"
190562,"375 COMMERCE PARK ROAD","NORTH KINGSTOWN","RI",2852,41.6037507,-71.439432896,62,"375 COMMERCE PARK ROAD, NORTH KINGSTOWN, RI, 2852","Match","Exact","375 COMMERCE PARK RD, NORTH KINGSTOWN, RI, 02852",640067564,"R"
190563,"375 CONNECTICUT ST","FT MYERS BEACH","FL",33931,26.4451161710001,-81.928001588,63,"375 CONNECTICUT ST, FT MYERS BEACH, FL, 33931","Match","Exact","375 CONNECTICUT ST, FORT MYERS BEACH, FL, 33931",118017711,"L"
190564,"375 COUNTRY CLUB DRIVE","NOGALES","AZ",85621,NA,NA,64,"375 COUNTRY CLUB DRIVE, NOGALES, AZ, 85621","No_Match",NA,NA,NA,NA
190565,"375 COUNTY ROAD 472","LEXINGTON","AL",35648,34.9543293410001,-87.4267275449999,65,"375 COUNTY ROAD 472, LEXINGTON, AL, 35648","Match","Exact","375 CO RD 472, LEXINGTON, AL, 35648",41342277,"R"
190566,"375 DIXIE RD","MEMPHIS","TN",38109,35.0645067770001,-90.076504653,66,"375 DIXIE RD, MEMPHIS, TN, 38109","Match","Exact","375 DIXIE RD, MEMPHIS, TN, 38109",72906769,"L"
190567,"375 DOUBLE WOOD LANE","BLUEMONT","VA",20135,39.0930841650001,-77.902467089,67,"375 DOUBLE WOOD LANE, BLUEMONT, VA, 20135","Match","Exact","375 DOUBLE WOOD LN, BLUEMONT, VA, 20135",223513411,"L"
190568,"375 E  2ND STREET 324","LOS ANGELES","CA",90012,34.048116871,-118.239907859,68,"375 E  2ND STREET 324, LOS ANGELES, CA, 90012","Match","Non_Exact","375 E 2ND ST, LOS ANGELES, CA, 90012",637367710,"R"
190569,"375 E 200 SOUTH","LEHI","UT",84043,40.3857156230001,-111.843129648,69,"375 E 200 SOUTH, LEHI, UT, 84043","Match","Exact","375 E 200 S, LEHI, UT, 84043",134213467,"L"
190570,"375 E 205TH ST APT 6B","BRONX","NY",10467,40.8732639780001,-73.8755555499999,70,"375 E 205TH ST APT 6B, BRONX, NY, 10467","Match","Non_Exact","375 E 205TH ST, BRONX, NY, 10467",80299116,"L"
190571,"375 E ALLEN ST","CASTLE ROCK","CO",80108,39.410785547,-104.860181191,71,"375 E ALLEN ST, CASTLE ROCK, CO, 80108","Match","Exact","375 ALLEN ST, CASTLE ROCK, CO, 80108",623886497,"R"
190572,"375 E GRAND BLANC ROAD","GRAND BLANC","MI",48439,42.9247551390001,-83.633557568,72,"375 E GRAND BLANC ROAD, GRAND BLANC, MI, 48439","Match","Exact","375 E GRAND BLANC RD, GRAND BLANC, MI, 48439",69577627,"L"
190573,"375 E HWY 20      54","UPPER LAKE","CA",95485,NA,NA,73,"375 E HWY 20      54, UPPER LAKE, CA, 95485","No_Match",NA,NA,NA,NA
190574,"375 E WARM SPRINGS ROAD STE 104","LAS VEGAS","NV",89119,36.056963979,-115.155596725,74,"375 E WARM SPRINGS ROAD STE 104, LAS VEGAS, NV, 89119","Match","Non_Exact","375 E WARM SPRINGS RD, LAS VEGAS, NV, 89119",201870700,"R"
190575,"375 EAST 7TH ST","LAKEWOOD","NJ",8701,NA,NA,75,"375 EAST 7TH ST, LAKEWOOD, NJ, 8701","Tie",NA,NA,NA,NA
190576,"375 ELM STREET","MENLO PARK","CA",94025,37.4606239780001,-122.155740142,76,"375 ELM STREET, MENLO PARK, CA, 94025","Match","Exact","375 ELM ST, MENLO PARK, CA, 94025",192366269,"L"
190577,"375 ENGLE STREET - SECOND FLOOR","ENGLEWOOD","NJ",7631,NA,NA,77,"375 ENGLE STREET - SECOND FLOOR, ENGLEWOOD, NJ, 7631","No_Match",NA,NA,NA,NA
190578,"375 EUCLID AVENUE  SUITE 317","SAN FRANCISCO","CA",94118,37.784088696,-122.452224816,78,"375 EUCLID AVENUE  SUITE 317, SAN FRANCISCO, CA, 94118","Match","Exact","375 EUCLID AVE, SAN FRANCISCO, CA, 94118",192282087,"L"
190579,"375 FAFNIR DR","KIMBERLY","ID",83341,42.5826326150001,-114.372189964,79,"375 FAFNIR DR, KIMBERLY, ID, 83341","Match","Exact","375 FAFNIR DR, KIMBERLY, ID, 83341",648695607,"R"
190580,"375 FONTANA LANE","LINN CREEK","MO",65052,38.078075787,-92.733029335,80,"375 FONTANA LANE, LINN CREEK, MO, 65052","Match","Exact","375 FONTANA LN, LINN CREEK, MO, 65052",619791072,"L"
190581,"375 GLENGARRY DRIVE","CAMANO ISLAND","WA",98282,48.2240645360001,-122.46278705,81,"375 GLENGARRY DRIVE, CAMANO ISLAND, WA, 98282","Match","Non_Exact","375 GLEN GARRY DR, CAMANO ISLAND, WA, 98282",187587133,"L"
190582,"375 GREENWICH STREET","NEW YORK","NY",10013,40.719691347,-74.0102430379999,82,"375 GREENWICH STREET, NEW YORK, NY, 10013","Match","Exact","375 GREENWICH ST, NEW YORK, NY, 10013",59659459,"R"
190583,"375 HAMBLEY BLVD","PIKEVILLE","KY",41501,37.482567132,-82.5314656849999,83,"375 HAMBLEY BLVD, PIKEVILLE, KY, 41501","Match","Exact","375 HAMBLEY BLVD, PIKEVILLE, KY, 41501",609028681,"L"
190584,"375 HARWOOD ROAD","LAYTONVILLE","CA",95454,39.6804949340001,-123.482156249,84,"375 HARWOOD ROAD, LAYTONVILLE, CA, 95454","Match","Exact","375 HARWOOD RD, LAYTONVILLE, CA, 95454",67252088,"R"
190585,"375 HAWTHORNE EXT","ATHENS","GA",30606,33.957267481,-83.414344735,85,"375 HAWTHORNE EXT, ATHENS, GA, 30606","Match","Non_Exact","375 HAWTHORNE EXD, ATHENS, GA, 30606",646524832,"L"
190586,"375 HIGH STREET","ROCHESTER","MA",2770,41.7764035000001,-70.78977222,86,"375 HIGH STREET, ROCHESTER, MA, 2770","Match","Exact","375 HIGH ST, ROCHESTER, MA, 02770",87423300,"L"
190587,"375 HIGHLAND AVE NE UNIT 301","ATLANTA","GA",30312,33.7613891400001,-84.374916508,87,"375 HIGHLAND AVE NE UNIT 301, ATLANTA, GA, 30312","Match","Exact","375 HIGHLAND AVE NE, ATLANTA, GA, 30312",17404491,"R"
190588,"375 HOLT ROAD NE","MARIETTA","GA",30068,33.96050934,-84.477692793,88,"375 HOLT ROAD NE, MARIETTA, GA, 30068","Match","Exact","375 HOLT RD NE, MARIETTA, GA, 30068",17182698,"L"
190589,"375 HOLT ROAD","MARIETTA","GA",30068,33.96050934,-84.477692793,89,"375 HOLT ROAD, MARIETTA, GA, 30068","Match","Non_Exact","375 HOLT RD NE, MARIETTA, GA, 30068",17182698,"L"
190590,"375 HUGUENOT STREET","NEW ROCHELLE","NY",10801,40.9069492200001,-73.785702408,90,"375 HUGUENOT STREET, NEW ROCHELLE, NY, 10801","Match","Exact","375 HUGUENOT ST, NEW ROCHELLE, NY, 10801",139807979,"R"
190591,"375 JACKSTOWN ROAD","PARIS","KY",40361,38.229844052,-84.209538112,91,"375 JACKSTOWN ROAD, PARIS, KY, 40361","Match","Exact","375 JACKSTOWN RD, PARIS, KY, 40361",648721882,"L"
190592,"375 JASMINE ST","LAGUNA BEACH","CA",92651,33.546592623,-117.789237346,92,"375 JASMINE ST, LAGUNA BEACH, CA, 92651","Match","Exact","375 JASMINE ST, LAGUNA BEACH, CA, 92651",609045664,"R"
190593,"375 KIRKLAND AVE APT 125","KIRKLAND","WA",98033,47.6754657050001,-122.200927675,93,"375 KIRKLAND AVE APT 125, KIRKLAND, WA, 98033","Match","Exact","375 KIRKLAND AVE, KIRKLAND, WA, 98033",186997263,"R"
190594,"375 LARCH AVENUE","BOGOTA","NJ",7603,40.8788386620001,-74.030475791,94,"375 LARCH AVENUE, BOGOTA, NJ, 7603","Match","Exact","375 LARCH AVE, BOGOTA, NJ, 07603",64389145,"R"
190595,"375 LAS COLINAS BLVD APT 374","IRVING","TX",75039,32.863858808,-96.935608212,95,"375 LAS COLINAS BLVD APT 374, IRVING, TX, 75039","Match","Exact","375 LAS COLINAS BLVD, IRVING, TX, 75039",103279182,"L"
190596,"375 LOS CABOS LANE","VENTURA","CA",93001,34.330128057,-119.287028185,96,"375 LOS CABOS LANE, VENTURA, CA, 93001","Match","Exact","375 LOS CABOS LN, VENTURA, CA, 93001",110020254,"R"
190597,"375 MAPLE STREET","BURLINGTON","VT",5401,44.473975314,-73.2042479039999,97,"375 MAPLE STREET, BURLINGTON, VT, 5401","Match","Exact","375 MAPLE ST, BURLINGTON, VT, 05401",135828067,"R"
190598,"375 MATTHEWS MILL POND RD","ANGIER","NC",27501,NA,NA,98,"375 MATTHEWS MILL POND RD, ANGIER, NC, 27501","No_Match",NA,NA,NA,NA
190599,"375 MIDDLE STREET","PORTSMOUTH","NH",3801,43.071110424,-70.7627424999999,99,"375 MIDDLE STREET, PORTSMOUTH, NH, 3801","Match","Exact","375 MIDDLE ST, PORTSMOUTH, NH, 03801",113666828,"L"
190600,"375 MORGAN STREET","STARK CITY","MO",64866,36.8801924630001,-94.1809835029999,100,"375 MORGAN STREET, STARK CITY, MO, 64866","Match","Exact","375 MORGAN ST, STARK CITY, MO, 64866",55972707,"R"
190601,"375 MT PROSPECT AV UNIT 7 AE","NEWARK","NJ",7104,NA,NA,101,"375 MT PROSPECT AV UNIT 7 AE, NEWARK, NJ, 7104","No_Match",NA,NA,NA,NA
190602,"375 N PACE BLVD","PENSACOLA","FL",32505,30.4164440650001,-87.241527901,102,"375 N PACE BLVD, PENSACOLA, FL, 32505","Match","Exact","375 N PACE BLVD, PENSACOLA, FL, 32505",93219688,"L"
190603,"375 NE CLACKAMAS ST","PORTLAND","OR",97232,45.532940174,-122.661945885,103,"375 NE CLACKAMAS ST, PORTLAND, OR, 97232","Match","Exact","375 NE CLACKAMAS ST, PORTLAND, OR, 97232",157504961,"L"
190604,"375 NEW BRUNSWICK AVENUE","PERTH AMBOY","NJ",8861,40.5156286710001,-74.276313957,104,"375 NEW BRUNSWICK AVENUE, PERTH AMBOY, NJ, 8861","Match","Exact","375 NEW BRUNSWICK AVE, PERTH AMBOY, NJ, 08861",60280966,"L"
190605,"375 NEW YORK AVENUE","COLUMBUS","NJ",8022,40.07416964,-74.72024112,105,"375 NEW YORK AVENUE, COLUMBUS, NJ, 8022","Match","Exact","375 NEW YORK AVE, COLUMBUS, NJ, 08022",134040867,"R"
190606,"375 NEWBURGH AVE","BUFFALO","NY",14215,42.924830392,-78.8083891639999,106,"375 NEWBURGH AVE, BUFFALO, NY, 14215","Match","Exact","375 NEWBURGH AVE, BUFFALO, NY, 14215",48297586,"R"
190607,"375 NEWBURGH AVENUE","BUFFALO","NY",14215,42.924830392,-78.8083891639999,107,"375 NEWBURGH AVENUE, BUFFALO, NY, 14215","Match","Exact","375 NEWBURGH AVE, BUFFALO, NY, 14215",48297586,"R"
190608,"375 NEWPORT AVENUE","LONG BEACH","CA",90814,33.770796574,-118.151330203,108,"375 NEWPORT AVENUE, LONG BEACH, CA, 90814","Match","Non_Exact","375 N NEWPORT AVE, LONG BEACH, CA, 90814",141701762,"L"
190609,"375 NORTH OVERLAND","BURLEY","ID",83318,NA,NA,109,"375 NORTH OVERLAND, BURLEY, ID, 83318","No_Match",NA,NA,NA,NA
190610,"375 OAK VALLEY FARM RD","COATS","NC",27521,35.388983168,-78.638509014,110,"375 OAK VALLEY FARM RD, COATS, NC, 27521","Match","Exact","375 OAK VALLEY FARM RD, COATS, NC, 27521",71958409,"L"
190611,"375 OAKBROOK VILLAGE RD","COLUMBIA","SC",29223,34.083895059,-80.880107849,111,"375 OAKBROOK VILLAGE RD, COLUMBIA, SC, 29223","Match","Exact","375 OAKBROOK VILLAGE RD, COLUMBIA, SC, 29223",604763116,"L"
190612,"375 OAKHURST LANE","COLORADO SPRINGS","CO",80906,38.7717143620001,-104.834688376,112,"375 OAKHURST LANE, COLORADO SPRINGS, CO, 80906","Match","Exact","375 OAKHURST LN, COLORADO SPRINGS, CO, 80906",617229508,"L"
190613,"375 ONTARIO STREET","ALBANY","NY",12208,42.65750093,-73.785339773,113,"375 ONTARIO STREET, ALBANY, NY, 12208","Match","Exact","375 ONTARIO ST, ALBANY, NY, 12208",18308874,"R"
190614,"375 OUTLOOK DRIVE","ONTARIO","OR",97914,44.0977201950001,-116.982776299,114,"375 OUTLOOK DRIVE, ONTARIO, OR, 97914","Match","Exact","375 OUTLOOK DR, ONTARIO, OR, 97914",635438514,"R"
190615,"375 OVERBROOK DR E","LARGO","FL",33770,NA,NA,115,"375 OVERBROOK DR E, LARGO, FL, 33770","No_Match",NA,NA,NA,NA
190616,"375 PINE FOREST DRIVE","SILER CITY","NC",27344,35.7080495010001,-79.467249236,116,"375 PINE FOREST DRIVE, SILER CITY, NC, 27344","Match","Exact","375 PINE FOREST DR, SILER CITY, NC, 27344",649460601,"L"
190617,"375 RAINS CR 1430","POINT","TX",75472,NA,NA,117,"375 RAINS CR 1430, POINT, TX, 75472","No_Match",NA,NA,NA,NA
190618,"375 RALPH MCGILL BLVD NE AP NO 1305","ATLANTA","GA",30312,33.764024566,-84.375717145,118,"375 RALPH MCGILL BLVD NE AP NO 1305, ATLANTA, GA, 30312","Match","Exact","375 RALPH MCGILL BLVD NE, ATLANTA, GA, 30312",635610589,"R"
190619,"375 RALPH MCGILL BLVD NE APT 1206","ATLANTA","GA",30312,33.764024566,-84.375717145,119,"375 RALPH MCGILL BLVD NE APT 1206, ATLANTA, GA, 30312","Match","Exact","375 RALPH MCGILL BLVD NE, ATLANTA, GA, 30312",635610589,"R"
190620,"375 RALPH MCGILL BLVD NE UNIT 804","ATLANTA","GA",30312,33.764024566,-84.375717145,120,"375 RALPH MCGILL BLVD NE UNIT 804, ATLANTA, GA, 30312","Match","Exact","375 RALPH MCGILL BLVD NE, ATLANTA, GA, 30312",635610589,"R"
190621,"375 RALSTON STREET","SAN FRANCISCO","CA",94132,37.7191563060001,-122.468953429,121,"375 RALSTON STREET, SAN FRANCISCO, CA, 94132","Match","Exact","375 RALSTON ST, SAN FRANCISCO, CA, 94132",192285499,"L"
190622,"375 RED STREET","SALTSBURG","PA",15681,40.557669294,-79.385787465,122,"375 RED STREET, SALTSBURG, PA, 15681","Match","Exact","375 RED ST, SALTSBURG, PA, 15681",66288230,"R"
190623,"375 REDONDO AVE 332","LONG BEACH","CA",90803,NA,NA,123,"375 REDONDO AVE 332, LONG BEACH, CA, 90803","No_Match",NA,NA,NA,NA
190624,"375 REDONDO AVENUE SUITE 187","LONG BEACH","CA",90814,33.770798584,-118.152411553,124,"375 REDONDO AVENUE SUITE 187, LONG BEACH, CA, 90814","Match","Non_Exact","375 N REDONDO AVE, LONG BEACH, CA, 90814",141701760,"L"
190625,"375 RICHMOND RD","SUSANVILLE","CA",96130,40.4134281180001,-120.660210918,125,"375 RICHMOND RD, SUSANVILLE, CA, 96130","Match","Exact","375 RICHMOND RD, SUSANVILLE, CA, 96130",636414259,"R"
190626,"375 RIDGE TRAIL","RIVERDALE","GA",30274,33.5819189810001,-84.4011165169999,126,"375 RIDGE TRAIL, RIVERDALE, GA, 30274","Match","Exact","375 RIDGE TRL, RIVERDALE, GA, 30274",23319233,"R"
190627,"375 RIVERSIDE DR APT 13B","NEW YORK","NY",10025,40.804648979,-73.968093612,127,"375 RIVERSIDE DR APT 13B, NEW YORK, NY, 10025","Match","Exact","375 RIVERSIDE DR, NEW YORK, NY, 10025",59656778,"R"
190628,"375 ROCKBRIDGE RD NW STE 172  158","LILBURN","GA",30047,NA,NA,128,"375 ROCKBRIDGE RD NW STE 172  158, LILBURN, GA, 30047","Tie",NA,NA,NA,NA
190629,"375 ROCKBRIDGE RD NW STE 172 229","LILBURN","GA",30047,NA,NA,129,"375 ROCKBRIDGE RD NW STE 172 229, LILBURN, GA, 30047","Tie",NA,NA,NA,NA
190630,"375 ROCKBRIDGE RD NW STE 172-161","LILBURN","GA",30047,NA,NA,130,"375 ROCKBRIDGE RD NW STE 172-161, LILBURN, GA, 30047","Tie",NA,NA,NA,NA
190631,"375 ROCKBRIDGE RD SUITE 172 PMB222","LILBURN","GA",30047,33.8832695240001,-84.162092085,131,"375 ROCKBRIDGE RD SUITE 172 PMB222, LILBURN, GA, 30047","Match","Exact","375 ROCKBRIDGE RD, LILBURN, GA, 30047",641149075,"R"
190632,"375 ROCKIN R LN","JEFFERSONVILLE","KY",40337,NA,NA,132,"375 ROCKIN R LN, JEFFERSONVILLE, KY, 40337","No_Match",NA,NA,NA,NA
190633,"375 ROLLINGWOOD DRIVE","JACKSON","MS",39211,32.368521247,-90.1334778469999,133,"375 ROLLINGWOOD DRIVE, JACKSON, MS, 39211","Match","Exact","375 ROLLINGWOOD DR, JACKSON, MS, 39211",65379245,"R"
190634,"375 ROWLINSON DRIVE","SHIRLEY","NY",11967,40.8307339690001,-72.874357124,134,"375 ROWLINSON DRIVE, SHIRLEY, NY, 11967","Match","Exact","375 ROWLINSON DR, SHIRLEY, NY, 11967",114018560,"R"
190635,"375 RUBY FOREST PK WAY","SUWANEE","GA",30024,34.067843763,-84.0474346999999,135,"375 RUBY FOREST PK WAY, SUWANEE, GA, 30024","Match","Non_Exact","375 RUBY FOREST PKWY, SUWANEE, GA, 30024",88954005,"R"
190636,"375 S BURNSIDE AVE","LOS ANGELES","CA",90036,34.068304255,-118.353212176,136,"375 S BURNSIDE AVE, LOS ANGELES, CA, 90036","Match","Exact","375 S BURNSIDE AVE, LOS ANGELES, CA, 90036",141599124,"R"
190637,"375 S FAIRMONT ST","PITTSBURGH","PA",15232,40.459829154,-79.935041846,137,"375 S FAIRMONT ST, PITTSBURGH, PA, 15232","Match","Non_Exact","375 S FAIRMOUNT ST, PITTSBURGH, PA, 15232",51644740,"L"
190638,"375 S MAIN ST SUITE 115","MOAB","UT",84532,NA,NA,138,"375 S MAIN ST SUITE 115, MOAB, UT, 84532","Tie",NA,NA,NA,NA
190639,"375 SATULA AVENUE","ATHENS","GA",30601,33.9662479420001,-83.399957528,139,"375 SATULA AVENUE, ATHENS, GA, 30601","Match","Exact","375 SATULA AVE, ATHENS, GA, 30601",4801774,"L"
190640,"375 SOMERSET RD UNIT B","PIEDMONT","CA",94611,37.8206134380001,-122.209029496,140,"375 SOMERSET RD UNIT B, PIEDMONT, CA, 94611","Match","Exact","375 SOMERSET RD, PIEDMONT, CA, 94611",125003540,"L"
190641,"375 SOUTH PACIFIC AVENUE","PITTSBURGH","PA",15224,40.4603842270001,-79.940593456,141,"375 SOUTH PACIFIC AVENUE, PITTSBURGH, PA, 15224","Match","Exact","375 S PACIFIC AVE, PITTSBURGH, PA, 15224",51644351,"L"
190642,"375 SOUTH THIRD STREET UNIT 321","BURBANK","CA",91502,34.1799732910001,-118.30463006,142,"375 SOUTH THIRD STREET UNIT 321, BURBANK, CA, 91502","Match","Exact","375 S 3RD ST, BURBANK, CA, 91502",142726994,"R"
190643,"375 STARLIGHT DRIVE","FORT MILL","SC",29715,35.0566909980001,-80.911924872,143,"375 STARLIGHT DRIVE, FORT MILL, SC, 29715","Match","Exact","375 STARLIGHT DR, FORT MILL, SC, 29715",19824757,"L"
190644,"375 STATE ROAD C","BUFFALO","MO",65622,37.692483345,-93.156032974,144,"375 STATE ROAD C, BUFFALO, MO, 65622","Match","Exact","375 STATE RD C, BUFFALO, MO, 65622",22937234,"L"
190645,"375 SUTHERLAND CIRCLE","FAYETTEVILLE","GA",30215,NA,NA,145,"375 SUTHERLAND CIRCLE, FAYETTEVILLE, GA, 30215","No_Match",NA,NA,NA,NA
190646,"375 SWITZGABEL DR","BRODHEADSVILLE","PA",18322,NA,NA,146,"375 SWITZGABEL DR, BRODHEADSVILLE, PA, 18322","No_Match",NA,NA,NA,NA
190647,"375 THOMPSON AVE","EAST HAVEN","CT",6512,41.2708117220001,-72.877399058,147,"375 THOMPSON AVE, EAST HAVEN, CT, 6512","Match","Exact","375 THOMPSON AVE, EAST HAVEN, CT, 06512",3704660,"R"
190648,"375 TOWN BRANCH ROAD","MANCHESTER","KY",40962,37.1497256540001,-83.77528831,148,"375 TOWN BRANCH ROAD, MANCHESTER, KY, 40962","Match","Exact","375 TOWN BRANCH RD, MANCHESTER, KY, 40962",90832420,"L"
190649,"375 US HWY 45N","PLYMOUTH","NC",27962,NA,NA,149,"375 US HWY 45N, PLYMOUTH, NC, 27962","No_Match",NA,NA,NA,NA
190650,"375 W BRIARCLIFF RD","BOLINGBROOK","IL",60440,NA,NA,150,"375 W BRIARCLIFF RD, BOLINGBROOK, IL, 60440","Tie",NA,NA,NA,NA
190651,"375 W BRIARCLIFF","BOLINGBROOK","IL",60440,NA,NA,151,"375 W BRIARCLIFF, BOLINGBROOK, IL, 60440","Tie",NA,NA,NA,NA
190652,"375 W DUNDEE RD APT 209","WHEELING","IL",60090,NA,NA,152,"375 W DUNDEE RD APT 209, WHEELING, IL, 60090","Tie",NA,NA,NA,NA
190653,"375 W EXCHANGE STREET","AKRON","OH",44308,41.082380028,-81.532556722,153,"375 W EXCHANGE STREET, AKRON, OH, 44308","Match","Non_Exact","375 W EXCHANGE ST, AKRON, OH, 44302",61341146,"R"
190654,"375 W PARK ST","GRANTS PASS","OR",97527,42.426617847,-123.337404468,154,"375 W PARK ST, GRANTS PASS, OR, 97527","Match","Exact","375 W PARK ST, GRANTS PASS, OR, 97527",156592017,"R"
190655,"375 WATSON DRIVE","JEFFERSONVILLE","GA",31044,NA,NA,155,"375 WATSON DRIVE, JEFFERSONVILLE, GA, 31044","No_Match",NA,NA,NA,NA
190656,"375 WEST AVON ROAD","AVON","CT",6001,41.7917364260001,-72.8626591619999,156,"375 WEST AVON ROAD, AVON, CT, 6001","Match","Exact","375 W AVON RD, AVON, CT, 06001",3524052,"R"
190657,"375 WEST PARK DR","FULTONDALE","AL",35068,33.599352991,-86.821379167,157,"375 WEST PARK DR, FULTONDALE, AL, 35068","Match","Exact","375 W PARK DR, FULTONDALE, AL, 35068",646664810,"R"
190658,"375 WHITE OAK ROAD","FREDERICKSBURG","VA",22405,38.311290666,-77.4245935819999,158,"375 WHITE OAK ROAD, FREDERICKSBURG, VA, 22405","Match","Exact","375 WHITE OAK RD, FREDERICKSBURG, VA, 22405",636657944,"L"
190659,"375 WILSONVILLE RD","FISHERVILLE","KY",40023,38.106011283,-85.3771938209999,159,"375 WILSONVILLE RD, FISHERVILLE, KY, 40023","Match","Exact","375 WILSONVILLE RD, FISHERVILLE, KY, 40023",652750722,"L"
190660,"375 WINDING RDG","SOUTHINGTON","CT",6489,41.593032054,-72.933205529,160,"375 WINDING RDG, SOUTHINGTON, CT, 6489","Match","Exact","375 WINDING RIDGE, SOUTHINGTON, CT, 06489",604946027,"R"
190661,"375 WINDING RIDGE","SOUTHINGTON","CT",6489,41.593032054,-72.933205529,161,"375 WINDING RIDGE, SOUTHINGTON, CT, 6489","Match","Exact","375 WINDING RIDGE, SOUTHINGTON, CT, 06489",604946027,"R"
190662,"375","ATHENS","GA",30603,NA,NA,162,"375, ATHENS, GA, 30603","No_Match",NA,NA,NA,NA
190663,"375","NORRISTOWN","PA",19404,NA,NA,163,"375, NORRISTOWN, PA, 19404","No_Match",NA,NA,NA,NA
190664,"375","PROSPERITY","WV",25909,NA,NA,164,"375, PROSPERITY, WV, 25909","No_Match",NA,NA,NA,NA
190665,"3750 18TH STREET","SAN FRANCISCO","CA",94114,37.7614609410001,-122.425637459,165,"3750 18TH STREET, SAN FRANCISCO, CA, 94114","Match","Non_Exact","3750 18TH ST, SAN FRANCISCO, CA, 94110",192284240,"R"
190666,"3750 ADMIRAL DR SUIT 101","HIGH POINT","NC",27265,36.028452612,-79.9663354479999,166,"3750 ADMIRAL DR SUIT 101, HIGH POINT, NC, 27265","Match","Exact","3750 ADMIRAL DR, HIGH POINT, NC, 27265",647293065,"R"
190667,"3750 ARBOR AVENUE","ROSAMOND","CA",93560,34.8546710580001,-118.198045159,167,"3750 ARBOR AVENUE, ROSAMOND, CA, 93560","Match","Exact","3750 ARBOR AVE, ROSAMOND, CA, 93560",109423988,"L"
190668,"3750 BAYCHESTER AVE 3RD FLOOR","BRONX","NY",10466,40.885589178,-73.840806281,168,"3750 BAYCHESTER AVE 3RD FLOOR, BRONX, NY, 10466","Match","Exact","3750 BAYCHESTER AVE, BRONX, NY, 10466",80297814,"R"
190669,"3750 CIMARRON BLVD","CORPUS CHRISTI","TX",78414,27.666608023,-97.377056539,169,"3750 CIMARRON BLVD, CORPUS CHRISTI, TX, 78414","Match","Exact","3750 CIMARRON BLVD, CORPUS CHRISTI, TX, 78414",635378849,"R"
190670,"3750 CIMMARON BLVD","CORPUS CHRISTI","TX",78414,27.666608023,-97.377056539,170,"3750 CIMMARON BLVD, CORPUS CHRISTI, TX, 78414","Match","Non_Exact","3750 CIMARRON BLVD, CORPUS CHRISTI, TX, 78414",635378849,"R"
190671,"3750 E 39TH STREET","INDIANAPOLIS","IN",46205,39.8278055700001,-86.104179317,171,"3750 E 39TH STREET, INDIANAPOLIS, IN, 46205","Match","Exact","3750 E 39TH ST, INDIANAPOLIS, IN, 46205",636103141,"L"
190672,"3750 E BROAD ST 13282","COLUMBUS","OH",43213,39.9733562170001,-82.900839922,172,"3750 E BROAD ST 13282, COLUMBUS, OH, 43213","Match","Non_Exact","3750 E BROAD ST, COLUMBUS, OH, 43213",218651609,"L"
190673,"3750 E BROAD ST UNIT 13056","COLUMBUS","OH",43213,39.9733562170001,-82.900839922,173,"3750 E BROAD ST UNIT 13056, COLUMBUS, OH, 43213","Match","Non_Exact","3750 E BROAD ST, COLUMBUS, OH, 43213",218651609,"L"
190674,"3750 E BROAD STREET - 13682","COLUMBUS","OH",43213,39.9733562170001,-82.900839922,174,"3750 E BROAD STREET - 13682, COLUMBUS, OH, 43213","Match","Non_Exact","3750 E BROAD ST, COLUMBUS, OH, 43213",218651609,"L"
190675,"3750 E DOUGLAS","WICHITA","KS",67208,37.686459783,-97.2927152189999,175,"3750 E DOUGLAS, WICHITA, KS, 67208","Match","Non_Exact","3750 E DOUGLAS AVE, WICHITA, KS, 67208",115638262,"L"
190676,"3750 E GAIL DR","PHOENIX","AZ",85044,33.32209471,-112.000692844,176,"3750 E GAIL DR, PHOENIX, AZ, 85044","Match","Exact","3750 E GAIL DR, PHOENIX, AZ, 85044",128284077,"L"
190677,"3750 E PIKES PEAK AVE","COLORADO SPRINGS","CO",80909,38.8319225660001,-104.75927275,177,"3750 E PIKES PEAK AVE, COLORADO SPRINGS, CO, 80909","Match","Exact","3750 E PIKES PEAK AVE, COLORADO SPRINGS, CO, 80909",610727384,"L"
190678,"3750 EAST HWY 452","EUBANK","KY",42567,NA,NA,178,"3750 EAST HWY 452, EUBANK, KY, 42567","No_Match",NA,NA,NA,NA
190679,"3750 EMERALD LANE","MULBERRY","FL",33860,27.9219650110001,-81.9966526279999,179,"3750 EMERALD LANE, MULBERRY, FL, 33860","Match","Exact","3750 EMERALD LN, MULBERRY, FL, 33860",104813398,"R"
190680,"3750 EMERGENCY LANE UNIT 2","SEBRING","FL",33870,27.4644917950001,-81.432407526,180,"3750 EMERGENCY LANE UNIT 2, SEBRING, FL, 33870","Match","Exact","3750 EMERGENCY LN, SEBRING, FL, 33870",4667920,"R"
190681,"3750 GARDENWALL COURT","FORT COLLINS","CO",80524,40.6020963330001,-105.006952316,181,"3750 GARDENWALL COURT, FORT COLLINS, CO, 80524","Match","Exact","3750 GARDENWALL CT, FORT COLLINS, CO, 80524",188543207,"L"
190682,"3750 HACKS CROSS RD STE102 BOX113","MEMPHIS","TN",38125,35.0451173920001,-89.7955195599999,182,"3750 HACKS CROSS RD STE102 BOX113, MEMPHIS, TN, 38125","Match","Exact","3750 HACKS CROSS RD, MEMPHIS, TN, 38125",618989405,"R"
190683,"3750 HACKS CROSS RD SUITE 102","MEMPHIS","TN",38125,35.0451173920001,-89.7955195599999,183,"3750 HACKS CROSS RD SUITE 102, MEMPHIS, TN, 38125","Match","Exact","3750 HACKS CROSS RD, MEMPHIS, TN, 38125",618989405,"R"
190684,"3750 HACKS CROSS ROAD SUITE 102 363","MEMPHIS","TN",38125,35.0451173920001,-89.7955195599999,184,"3750 HACKS CROSS ROAD SUITE 102 363, MEMPHIS, TN, 38125","Match","Exact","3750 HACKS CROSS RD, MEMPHIS, TN, 38125",618989405,"R"
190685,"3750 HACKS CROSS ROAD SUITE 102-211","MEMPHIS","TN",38125,35.0451173920001,-89.7955195599999,185,"3750 HACKS CROSS ROAD SUITE 102-211, MEMPHIS, TN, 38125","Match","Exact","3750 HACKS CROSS RD, MEMPHIS, TN, 38125",618989405,"R"
190686,"3750 HAMMOCK RD","SEBRING","FL",33872,27.47087881,-81.501021275,186,"3750 HAMMOCK RD, SEBRING, FL, 33872","Match","Exact","3750 HAMMOCK RD, SEBRING, FL, 33872",651472171,"R"
190687,"3750 ISABELLA AVE","CINCINNATI","OH",45209,39.1459578320001,-84.432754437,187,"3750 ISABELLA AVE, CINCINNATI, OH, 45209","Match","Exact","3750 ISABELLA AVE, CINCINNATI, OH, 45209",103931051,"R"
190688,"3750 JAMISON ST NE APT 360","WASHINGTON","DC",20018,38.924551729,-76.951524305,188,"3750 JAMISON ST NE APT 360, WASHINGTON, DC, 20018","Match","Exact","3750 JAMISON ST NE, WASHINGTON, DC, 20018",649316692,"L"
190689,"3750 JEFFERSON BLVD","VIRGINIA BEACH","VA",23455,36.90996711,-76.103243784,189,"3750 JEFFERSON BLVD, VIRGINIA BEACH, VA, 23455","Match","Exact","3750 JEFFERSON BLVD, VIRGINIA BCH, VA, 23455",122260263,"R"
190690,"3750 LAKEVIEW BLVD","LAKE OSWEGO","OR",97035,45.4076600070001,-122.714438037,190,"3750 LAKEVIEW BLVD, LAKE OSWEGO, OR, 97035","Match","Exact","3750 LAKEVIEW BLVD, LAKE OSWEGO, OR, 97035",645566794,"L"
190691,"3750 LAS VEGAS BLVD S UNIT 3401","LAS VEGAS","NV",89158,36.1053876280001,-115.172977767,191,"3750 LAS VEGAS BLVD S UNIT 3401, LAS VEGAS, NV, 89158","Match","Non_Exact","3750 LAS VEGAS BLVD S, LAS VEGAS, NV, 89109",650071485,"R"
190692,"3750 MCKEE RD STE A","SAN JOSE","CA",95127,NA,NA,192,"3750 MCKEE RD STE A, SAN JOSE, CA, 95127","Tie",NA,NA,NA,NA
190693,"3750 METRO PKWY APT 813","FORT MYERS","FL",33916,26.6083351660001,-81.8511425849999,193,"3750 METRO PKWY APT 813, FORT MYERS, FL, 33916","Match","Exact","3750 METRO PKWY, FORT MYERS, FL, 33916",648532116,"L"
190694,"3750 MOWRY AVE","FREMONT","CA",94538,NA,NA,194,"3750 MOWRY AVE, FREMONT, CA, 94538","No_Match",NA,NA,NA,NA
190695,"3750 NAPIER RD","CANTON","MI",48187,42.3281500950001,-83.5464932039999,195,"3750 NAPIER RD, CANTON, MI, 48187","Match","Exact","3750 NAPIER RD, CANTON, MI, 48187",26020067,"L"
190696,"3750 OLIVER AVENUE NORTH","MINNEAPOLIS","MN",55412,45.0231804480001,-93.307027454,196,"3750 OLIVER AVENUE NORTH, MINNEAPOLIS, MN, 55412","Match","Exact","3750 OLIVER AVE N, MINNEAPOLIS, MN, 55412",43621996,"R"
190697,"3750 OSAGE BEACH PARKWAY SUITE 100","OSAGE BEACH","MO",65065,NA,NA,197,"3750 OSAGE BEACH PARKWAY SUITE 100, OSAGE BEACH, MO, 65065","No_Match",NA,NA,NA,NA
190698,"3750 PAINTBRUSH DRIVE","ABILENE","TX",79606,32.398089628,-99.771106055,198,"3750 PAINTBRUSH DRIVE, ABILENE, TX, 79606","Match","Non_Exact","3750 PAINT BRUSH DR, ABILENE, TX, 79606",129960826,"L"
190699,"3750 RALPH AVE - APT 1116","OWENSBORO","KY",42303,37.7496900420001,-87.053908152,199,"3750 RALPH AVE - APT 1116, OWENSBORO, KY, 42303","Match","Exact","3750 RALPH AVE, OWENSBORO, KY, 42303",37593495,"R"
190700,"3750 RALPH AVE APT 203","OWENSBORO","KY",42303,37.7496900420001,-87.053908152,200,"3750 RALPH AVE APT 203, OWENSBORO, KY, 42303","Match","Exact","3750 RALPH AVE, OWENSBORO, KY, 42303",37593495,"R"
190701,"3750 ROSEMEADE PKWY APT 7358","DALLAS","TX",75287,33.0117829120001,-96.851897394,201,"3750 ROSEMEADE PKWY APT 7358, DALLAS, TX, 75287","Match","Non_Exact","3750 ROSEMEADE PKWY E, DALLAS, TX, 75287",103359670,"L"
190702,"3750 RUSSELL AVE N","MINNEAPOLIS","MN",55412,45.0231966380001,-93.310856638,202,"3750 RUSSELL AVE N, MINNEAPOLIS, MN, 55412","Match","Exact","3750 RUSSELL AVE N, MINNEAPOLIS, MN, 55412",43621985,"R"
190703,"3750 S 13TH ST","BLACKWELL","OK",74631,36.7749101540001,-97.300893037,203,"3750 S 13TH ST, BLACKWELL, OK, 74631","Match","Exact","3750 S 13TH ST, BLACKWELL, OK, 74631",115903991,"R"
190704,"3750 SHIREBROOK DR 53","LAS VEGAS","NV",89115,36.2127529210001,-115.092417316,204,"3750 SHIREBROOK DR 53, LAS VEGAS, NV, 89115","Match","Exact","3750 SHIREBROOK DR, LAS VEGAS, NV, 89115",201873868,"L"
190705,"3750 SOUTH 2455 EAST","SALT LAKE CITY","UT",84109,40.690841167,-111.82076835,205,"3750 SOUTH 2455 EAST, SALT LAKE CITY, UT, 84109","Match","Exact","3750 S 2455 E, SALT LAKE CITY, UT, 84109",176094120,"R"
190706,"3750 UNIVERSITY AVENUE SUITE 610","RIVERSIDE","CA",92501,33.9822337570001,-117.37510761,206,"3750 UNIVERSITY AVENUE SUITE 610, RIVERSIDE, CA, 92501","Match","Exact","3750 UNIVERSITY AVE, RIVERSIDE, CA, 92501",194742071,"L"
190707,"3750 VINE STREET","DENVER","CO",80205,39.7687335630001,-104.962192707,207,"3750 VINE STREET, DENVER, CO, 80205","Match","Exact","3750 VINE ST, DENVER, CO, 80205",177305409,"R"
190708,"3750 W PLACITA GRACIOSA","TUCSON","AZ",85745,NA,NA,208,"3750 W PLACITA GRACIOSA, TUCSON, AZ, 85745","No_Match",NA,NA,NA,NA
190709,"3750 W STATE ROAD 120","FREMONT","IN",46737,41.7441025640001,-85.063779919,209,"3750 W STATE ROAD 120, FREMONT, IN, 46737","Match","Non_Exact","3750 W STATE RD 120, FREMONT, IN, 46737",652686117,"L"
190710,"3750 WINNERS CIRCLE SUITE 310","PALM HARBOR","FL",34684,NA,NA,210,"3750 WINNERS CIRCLE SUITE 310, PALM HARBOR, FL, 34684","No_Match",NA,NA,NA,NA
190711,"3750 WYNDE TREE DRIVE","SEVEN HILLS","OH",44131,41.3560732980001,-81.6662458179999,211,"3750 WYNDE TREE DRIVE, SEVEN HILLS, OH, 44131","Match","Exact","3750 WYNDE TREE DR, SEVEN HILLS, OH, 44131",61149638,"R"
190712,"37500 PEMBROKE AVE PO BOX 531027","LIVONIA","MI",48152,42.432676503,-83.414462122,212,"37500 PEMBROKE AVE PO BOX 531027, LIVONIA, MI, 48152","Match","Exact","37500 PEMBROKE AVE, LIVONIA, MI, 48152",617660669,"R"
190713,"37504 MANCHESTER ST","PALMDALE","CA",93552,34.5639148820001,-118.050430011,213,"37504 MANCHESTER ST, PALMDALE, CA, 93552","Match","Exact","37504 MANCHESTER ST, PALMDALE, CA, 93552",141725719,"L"
190714,"37506 PLANTAIN LANE","PALMDALE","CA",93551,34.5634758910001,-118.165420833,214,"37506 PLANTAIN LANE, PALMDALE, CA, 93551","Match","Exact","37506 PLANTAIN LN, PALMDALE, CA, 93551",625710214,"L"
190715,"3751 249TH ST NE","MCKENZIE","ND",58572,46.845740348,-100.393747955,215,"3751 249TH ST NE, MCKENZIE, ND, 58572","Match","Exact","3751 249TH ST NE, MCKENZIE, ND, 58572",198868566,"R"
190716,"3751 CHARTER PARK COURT STE 3","SAN JOSE","CA",95136,37.2783084770001,-121.851308408,216,"3751 CHARTER PARK COURT STE 3, SAN JOSE, CA, 95136","Match","Exact","3751 CHARTER PARK CT, SAN JOSE, CA, 95136",122984814,"R"
190717,"3751 FAR WEST BLVD PMB 193","AUSTIN","TX",78731,NA,NA,217,"3751 FAR WEST BLVD PMB 193, AUSTIN, TX, 78731","No_Match",NA,NA,NA,NA
190718,"3751 GOVERNMENT STREET STE A","BATON ROUGE","LA",70806,30.4442428940001,-91.151199611,218,"3751 GOVERNMENT STREET STE A, BATON ROUGE, LA, 70806","Match","Exact","3751 GOVERNMENT ST, BATON ROUGE, LA, 70806",92184144,"L"
190719,"3751 JOHN TYLER HWY","WILLIAMSBURG","VA",23185,37.254388255,-76.789426358,219,"3751 JOHN TYLER HWY, WILLIAMSBURG, VA, 23185","Match","Exact","3751 JOHN TYLER HWY, WILLIAMSBURG, VA, 23185",616029123,"L"
190720,"3751 MAIN ST SUITE 600 BOX 322","THE COLONY","TX",75056,33.0680673890001,-96.8905680249999,220,"3751 MAIN ST SUITE 600 BOX 322, THE COLONY, TX, 75056","Match","Exact","3751 MAIN ST, THE COLONY, TX, 75056",218065799,"L"
190721,"3751 MISTY WAY","DESTIN","FL",32541,30.3979739070001,-86.474348146,221,"3751 MISTY WAY, DESTIN, FL, 32541","Match","Exact","3751 MISTY WAY, DESTIN, FL, 32541",74417854,"R"
190722,"3751 MOTOR AVE - STE 1392","LOS ANGELES","CA",90034,34.0216528440001,-118.404861719,222,"3751 MOTOR AVE - STE 1392, LOS ANGELES, CA, 90034","Match","Exact","3751 MOTOR AVE, LOS ANGELES, CA, 90034",141573717,"R"
190723,"3751 NW 170 STREET","MIAMI","FL",33055,NA,NA,223,"3751 NW 170 STREET, MIAMI, FL, 33055","No_Match",NA,NA,NA,NA
190724,"3751 OCEANSIDE ROAD EAST","OCEANSIDE","NY",11572,NA,NA,224,"3751 OCEANSIDE ROAD EAST, OCEANSIDE, NY, 11572","No_Match",NA,NA,NA,NA
190725,"3751 PENNRIDGE DR SUITE 119","BRIDGETON","MO",63044,38.7613454300001,-90.429190962,225,"3751 PENNRIDGE DR SUITE 119, BRIDGETON, MO, 63044","Match","Exact","3751 PENNRIDGE DR, BRIDGETON, MO, 63044",100193283,"L"
190726,"3751 PENNRIDGE DRIVE SUITE 119","BRIDGETON","MO",63044,38.7613454300001,-90.429190962,226,"3751 PENNRIDGE DRIVE SUITE 119, BRIDGETON, MO, 63044","Match","Exact","3751 PENNRIDGE DR, BRIDGETON, MO, 63044",100193283,"L"
190727,"3751 WILL SCARLET RD","WINSTON SALEM","NC",27104,36.099280009,-80.322074677,227,"3751 WILL SCARLET RD, WINSTON SALEM, NC, 27104","Match","Exact","3751 WILL SCARLET RD, WINSTON SALEM, NC, 27104",84603523,"R"
190728,"3751 WOODLACE DR","HUMBLE","TX",77396,29.967587806,-95.214078339,228,"3751 WOODLACE DR, HUMBLE, TX, 77396","Match","Exact","3751 WOODLACE DR, HUMBLE, TX, 77396",96049956,"L"
190729,"3751-A WESTERRE PARKWAY STE103","HENRICO","VA",23233,37.64317923,-77.578039409,229,"3751-A WESTERRE PARKWAY STE103, HENRICO, VA, 23233","Match","Exact","3751 WESTERRE PKWY, HENRICO, VA, 23233",106700249,"R"
190730,"37510 HURON RIVER DRIVE","ROMULUS","MI",48174,42.2158203760001,-83.406218071,230,"37510 HURON RIVER DRIVE, ROMULUS, MI, 48174","Match","Exact","37510 HURON RIVER DR, ROMULUS, MI, 48174",95416077,"R"
190731,"37512 PROVENCE POINTE","PRAIRIEVILLE","LA",70814,NA,NA,231,"37512 PROVENCE POINTE, PRAIRIEVILLE, LA, 70814","No_Match",NA,NA,NA,NA
190732,"37513 CR 41","EATON","CO",80615,40.545922278,-104.677638903,232,"37513 CR 41, EATON, CO, 80615","Match","Exact","37513 CO RD 41, EATON, CO, 80615",188673578,"R"
190733,"37515 TINDLE CREEK ROAD","WILLAMINA","OR",97396,45.1043290160001,-123.498632755,233,"37515 TINDLE CREEK ROAD, WILLAMINA, OR, 97396","Match","Non_Exact","37515 SW TINDLE CREEK RD, WILLAMINA, OR, 97396",605765885,"L"
190734,"37516 VINEYARD KNOLL DRIVE","MURRIETA","CA",92562,33.574708534,-117.258191687,234,"37516 VINEYARD KNOLL DRIVE, MURRIETA, CA, 92562","Match","Exact","37516 VINEYARD KNOLL DR, MURRIETA, CA, 92562",194841677,"L"
190735,"3752 ALDEN COURT","MARIETTA","GA",30066,34.044887854,-84.507779602,235,"3752 ALDEN COURT, MARIETTA, GA, 30066","Match","Exact","3752 ALDEN CT, MARIETTA, GA, 30066",17206065,"R"
190736,"3752 CHIPPEWA ST APT 2","SAINT LOUIS","MO",63116,38.588823593,-90.248789733,236,"3752 CHIPPEWA ST APT 2, SAINT LOUIS, MO, 63116","Match","Exact","3752 CHIPPEWA ST, SAINT LOUIS, MO, 63116",605132779,"L"
190737,"3752 HWY 309 SOUTH","BYHALIA","MS",38611,34.9748962840001,-89.688921906,237,"3752 HWY 309 SOUTH, BYHALIA, MS, 38611","Match","Non_Exact","3752 HWY 309 N, BYHALIA, MS, 38611",608004652,"L"
190738,"3752 HWY 34 W","LATTA","SC",29565,34.4363072780001,-79.4931759959999,238,"3752 HWY 34 W, LATTA, SC, 29565","Match","Exact","3752 HWY 34 W, LATTA, SC, 29565",28818099,"R"
190739,"3752 LORADO WAY","VIEW PARK","CA",90043,33.9963343850001,-118.340294428,239,"3752 LORADO WAY, VIEW PARK, CA, 90043","Match","Exact","3752 LORADO WAY, VIEW PARK, CA, 90043",142729153,"L"
190740,"3752 MCKENZIE AVE","LOS ANGELES","CA",90032,34.0906354140001,-118.189333634,240,"3752 MCKENZIE AVE, LOS ANGELES, CA, 90032","Match","Exact","3752 MCKENZIE AVE, LOS ANGELES, CA, 90032",142733928,"R"
190741,"3752 MURFREESBORO RD","READYVILLE","TN",37149,35.8183673930001,-86.1506055789999,241,"3752 MURFREESBORO RD, READYVILLE, TN, 37149","Match","Exact","3752 MURFREESBORO RD, READYVILLE, TN, 37149",87943594,"R"
190742,"3752 SALEM KIRK DRIVE","LITHONIA","GA",30038,33.6719510550001,-84.173056641,242,"3752 SALEM KIRK DRIVE, LITHONIA, GA, 30038","Match","Exact","3752 SALEM KIRK DR, LITHONIA, GA, 30038",23395771,"L"
190743,"3752 STOUGHTON ROAD","COLLEGEVILLE","PA",19426,40.1586341780001,-75.4501060119999,243,"3752 STOUGHTON ROAD, COLLEGEVILLE, PA, 19426","Match","Exact","3752 STOUGHTON RD, COLLEGEVILLE, PA, 19426",135068345,"L"
190744,"3753 BOTTLE BAY ROAD","SAGLE","ID",83860,48.2661190160001,-116.509397548,244,"3753 BOTTLE BAY ROAD, SAGLE, ID, 83860","Match","Exact","3753 BOTTLE BAY RD, SAGLE, ID, 83860",639577821,"L"
190745,"3753 DUBARRY ROAD","INDIANAPOLIS","IN",46226,39.8254951500001,-86.016313926,245,"3753 DUBARRY ROAD, INDIANAPOLIS, IN, 46226","Match","Exact","3753 DUBARRY RD, INDIANAPOLIS, IN, 46226",108002819,"R"
190746,"3753 EAST SKY HARBOR DRIVE","COEUR D ALENE","ID",83814,47.6668306660001,-116.734886576,246,"3753 EAST SKY HARBOR DRIVE, COEUR D ALENE, ID, 83814","Match","Exact","3753 E SKY HARBOR DR, COEUR D ALENE, ID, 83814",627356188,"L"
190747,"3753 PERKINS ROAD SUITE D","BATON ROUGE","LA",70808,30.420143211,-91.150903634,247,"3753 PERKINS ROAD SUITE D, BATON ROUGE, LA, 70808","Match","Exact","3753 PERKINS RD, BATON ROUGE, LA, 70808",92184691,"L"
190748,"3754 BOGNER DR","WOODBRIDGE","VA",22193,38.6141844850001,-77.323285133,248,"3754 BOGNER DR, WOODBRIDGE, VA, 22193","Match","Exact","3754 BOGNER DR, WOODBRIDGE, VA, 22193",76524507,"R"
190749,"3754 BROKEN HILL APT 4","ST. LOUIS","MO",63125,38.5077702630001,-90.321229478,249,"3754 BROKEN HILL APT 4, ST. LOUIS, MO, 63125","Match","Non_Exact","3754 BROKEN HILL DR, SAINT LOUIS, MO, 63125",604545277,"L"
190750,"3754 BROWNSVILLE ROAD","PITTSBURGH","PA",15227,40.3712727990001,-79.975252148,250,"3754 BROWNSVILLE ROAD, PITTSBURGH, PA, 15227","Match","Exact","3754 BROWNSVILLE RD, PITTSBURGH, PA, 15227",51639678,"R"
190751,"3754 CHARLOE CT","CINCINNATI","OH",45227,39.1671254620001,-84.417091437,251,"3754 CHARLOE CT, CINCINNATI, OH, 45227","Match","Exact","3754 CHARLOE CT, CINCINNATI, OH, 45227",103932888,"R"
190752,"3754 CREEKSIDE DRIVE","SEBRING","FL",33875,27.4520828240001,-81.5196174709999,252,"3754 CREEKSIDE DRIVE, SEBRING, FL, 33875","Match","Exact","3754 CREEKSIDE DR, SEBRING, FL, 33875",4658671,"L"
190753,"3754 HWY K-33","WELLSVILLE","KS",66092,NA,NA,253,"3754 HWY K-33, WELLSVILLE, KS, 66092","No_Match",NA,NA,NA,NA
190754,"3754 KILLDEER DR","ANTIOCH","CA",94509,37.984142123,-121.844512078,254,"3754 KILLDEER DR, ANTIOCH, CA, 94509","Match","Exact","3754 KILLDEER DR, ANTIOCH, CA, 94509",624024448,"R"
190755,"3754 N 97TH PLACE","MILWAUKEE","WI",53222,43.0848889640001,-88.034372113,255,"3754 N 97TH PLACE, MILWAUKEE, WI, 53222","Match","Exact","3754 N 97TH PL, MILWAUKEE, WI, 53222",77727750,"R"
190756,"3754 N PLAINFIELD AVENUE","CHICAGO","IL",60634,41.9476463870001,-87.834093733,256,"3754 N PLAINFIELD AVENUE, CHICAGO, IL, 60634","Match","Exact","3754 N PLAINFIELD AVE, CHICAGO, IL, 60634",111746395,"L"
190757,"3754 NORTH 42ND ST","MILWAUKEE","WI",53216,43.0854620060001,-87.965421264,257,"3754 NORTH 42ND ST, MILWAUKEE, WI, 53216","Match","Exact","3754 N 42ND ST, MILWAUKEE, WI, 53216",77731692,"R"
190758,"3754 OLD PHILADELPHIA PIKE","BETHLEHEM","PA",18015,40.5905505640001,-75.388184412,258,"3754 OLD PHILADELPHIA PIKE, BETHLEHEM, PA, 18015","Match","Exact","3754 OLD PHILADELPHIA PIKE, BETHLEHEM, PA, 18015",648287095,"R"
190759,"3754 PACIFIC AVENUE","LONG BEACH","CA",90807,33.825576583,-118.194481617,259,"3754 PACIFIC AVENUE, LONG BEACH, CA, 90807","Match","Non_Exact","3754 N PACIFIC AVE, LONG BEACH, CA, 90807",141686112,"R"
190760,"3754 SE 3RD AVENUE","CAPE CORAL","FL",33904,26.5831436130001,-81.968277472,260,"3754 SE 3RD AVENUE, CAPE CORAL, FL, 33904","Match","Exact","3754 SE 3RD AVE, CAPE CORAL, FL, 33904",118014011,"R"
190761,"3754 TUNNELTON RD","BEDFORD","IN",47421,38.8307990700001,-86.436312315,261,"3754 TUNNELTON RD, BEDFORD, IN, 47421","Match","Exact","3754 TUNNELTON RD, BEDFORD, IN, 47421",606757063,"R"
190762,"3754 VICTORY CIRCLE","ORANGE","TX",77630,30.0525192740001,-93.807037985,262,"3754 VICTORY CIRCLE, ORANGE, TX, 77630","Match","Exact","3754 VICTORY CIR, ORANGE, TX, 77630",74018077,"R"
190763,"3754 WINDERWOOD CIRCLE","MEMPHIS","TN",38128,35.2105097360001,-89.93753391,263,"3754 WINDERWOOD CIRCLE, MEMPHIS, TN, 38128","Match","Exact","3754 WINDERWOOD CIR, MEMPHIS, TN, 38128",641636758,"L"
190764,"3754 XERXES AVENUE NORTH","MINNEAPOLIS","MN",55412,45.02326464,-93.318495803,264,"3754 XERXES AVENUE NORTH, MINNEAPOLIS, MN, 55412","Match","Exact","3754 XERXES AVE N, MINNEAPOLIS, MN, 55412",43621138,"R"
190765,"37540 E STAFFORD DRIVE","PRAIRIEVILLE","LA",70769,30.282995026,-90.968339973,265,"37540 E STAFFORD DRIVE, PRAIRIEVILLE, LA, 70769","Match","Exact","37540 E STAFFORD DR, PRAIRIEVILLE, LA, 70769",652863901,"L"
190766,"37541 CHAUNTRY COMMON","NEWARK","CA",94536,37.5584458880001,-122.002216204,266,"37541 CHAUNTRY COMMON, NEWARK, CA, 94536","Match","Non_Exact","37541 CHAUNTRY CMN, FREMONT, CA, 94536",125081120,"R"
190767,"3755 46TH AVE N","ST PETERSBURG","FL",33714,27.813765285,-82.6854536339999,267,"3755 46TH AVE N, ST PETERSBURG, FL, 33714","Match","Exact","3755 46TH AVE N, SAINT PETERSBURG, FL, 33714",124702007,"R"
190768,"3755 AVOCADO BLVD  SUITE 419","LA MESA","CA",91941,32.7481504740001,-116.961979149,268,"3755 AVOCADO BLVD  SUITE 419, LA MESA, CA, 91941","Match","Exact","3755 AVOCADO BLVD, LA MESA, CA, 91941",195409774,"R"
190769,"3755 AVOCADO BLVD STE 147","LA MESA","CA",91941,32.7481504740001,-116.961979149,269,"3755 AVOCADO BLVD STE 147, LA MESA, CA, 91941","Match","Exact","3755 AVOCADO BLVD, LA MESA, CA, 91941",195409774,"R"
190770,"3755 BELLEZA WAY","PALMDALE","CA",93551,34.6182115870001,-118.197904105,270,"3755 BELLEZA WAY, PALMDALE, CA, 93551","Match","Exact","3755 BELLEZA WAY, PALMDALE, CA, 93551",641277523,"R"
190771,"3755 CATON BRANCH RD","SEVIERVILLE","TN",37876,35.782268356,-83.493187705,271,"3755 CATON BRANCH RD, SEVIERVILLE, TN, 37876","Match","Exact","3755 CATON BRANCH RD, SEVIERVILLE, TN, 37876",107553683,"R"
190772,"3755 CHATEAU RIDGE DRIVE","ELLICOTT CITY","MD",21042,39.267504328,-76.8736183409999,272,"3755 CHATEAU RIDGE DRIVE, ELLICOTT CITY, MD, 21042","Match","Exact","3755 CHATEAU RIDGE DR, ELLICOTT CITY, MD, 21042",158922577,"L"
190773,"3755 LOCKLAND DR UNIT 1","LOS ANGELES","CA",90008,34.0086765610001,-118.340088152,273,"3755 LOCKLAND DR UNIT 1, LOS ANGELES, CA, 90008","Match","Exact","3755 LOCKLAND DR, LOS ANGELES, CA, 90008",141602433,"R"
190774,"3755 LOVERS LANE","MONROE","GA",30656,33.8916190510001,-83.748687348,274,"3755 LOVERS LANE, MONROE, GA, 30656","Match","Exact","3755 LOVERS LN, MONROE, GA, 30656",642880685,"R"
190775,"3755 MACON RD","MEMPHIS","TN",38128,35.162417766,-89.935454953,275,"3755 MACON RD, MEMPHIS, TN, 38128","Match","Non_Exact","3755 MACON RD, MEMPHIS, TN, 38122",72915447,"R"
190776,"3755 MISTY WAY","DESTIN","FL",32541,30.3981061200001,-86.474327805,276,"3755 MISTY WAY, DESTIN, FL, 32541","Match","Exact","3755 MISTY WAY, DESTIN, FL, 32541",74417854,"R"
190777,"3755 NORTHLINE DRIVE","ROCKFORD","IL",61104,42.334342495,-89.1122542639999,277,"3755 NORTHLINE DRIVE, ROCKFORD, IL, 61104","Match","Non_Exact","3755 NORTHLINE DR, ROCKFORD, IL, 61101",49293863,"L"
190778,"3755 REDWINE APT 9323","ATLANTA","GA",30344,33.6602868530001,-84.503372384,278,"3755 REDWINE APT 9323, ATLANTA, GA, 30344","Match","Non_Exact","3755 REDWINE RD, ATLANTA, GA, 30344",650038132,"R"
190779,"3755 REDWINE ROAD UNIT 4002","ATANTA","GA",30344,33.6602868530001,-84.503372384,279,"3755 REDWINE ROAD UNIT 4002, ATANTA, GA, 30344","Match","Non_Exact","3755 REDWINE RD, ATLANTA, GA, 30344",650038132,"R"
190780,"3755 SWEET TREE DR","MEMPHIS","TN",38128,35.207571366,-89.9382643879999,280,"3755 SWEET TREE DR, MEMPHIS, TN, 38128","Match","Exact","3755 SWEET TREE DR, MEMPHIS, TN, 38128",72937118,"L"
190781,"3755 W 163RD ST","MARKHAM","IL",60428,41.5935039250001,-87.708083239,281,"3755 W 163RD ST, MARKHAM, IL, 60428","Match","Exact","3755 W 163RD ST, MARKHAM, IL, 60428",111704367,"L"
190782,"3755 W BENJAMIN HOLT DR STE 165","STOCKTON","CA",95219,38.00469997,-121.365117887,282,"3755 W BENJAMIN HOLT DR STE 165, STOCKTON, CA, 95219","Match","Non_Exact","3755 W BENJAMIN HOLT DR, STOCKTON, CA, 95219",133874431,"R"
190783,"3755 WATSEKA AVE APT 201","LOS ANGELES","CA",90034,34.025513222,-118.397735975,283,"3755 WATSEKA AVE APT 201, LOS ANGELES, CA, 90034","Match","Exact","3755 WATSEKA AVE, LOS ANGELES, CA, 90034",642861437,"R"
190784,"37553 SUMMER HOLLY COMMON","FREMONT","CA",94536,37.5442494380001,-122.016320868,284,"37553 SUMMER HOLLY COMMON, FREMONT, CA, 94536","Match","Exact","37553 SUMMER HOLLY CMN, FREMONT, CA, 94536",125082795,"L"
190785,"3756 BOWEN RD","TOLEDO","OH",43613,41.6880632670001,-83.610474494,285,"3756 BOWEN RD, TOLEDO, OH, 43613","Match","Exact","3756 BOWEN RD, TOLEDO, OH, 43613",33932585,"R"
190786,"3756 CARDIFF AVE APT 115","LOS ANGELES","CA",90034,34.025985452,-118.396787667,286,"3756 CARDIFF AVE APT 115, LOS ANGELES, CA, 90034","Match","Exact","3756 CARDIFF AVE, LOS ANGELES, CA, 90034",642865193,"L"
190787,"3756 COOSA COUNTY ROAD 59","ROCKFORD","AL",36136,NA,NA,287,"3756 COOSA COUNTY ROAD 59, ROCKFORD, AL, 36136","No_Match",NA,NA,NA,NA
190788,"3756 DARTFORD DRIVE","DAVENPORT","FL",33837,28.2092645430001,-81.632374677,288,"3756 DARTFORD DRIVE, DAVENPORT, FL, 33837","Match","Exact","3756 DARTFORD DR, DAVENPORT, FL, 33837",104863306,"R"
190789,"3756 GROVES PLACE","SOMIS","CA",93066,34.2583120910001,-119.017898184,289,"3756 GROVES PLACE, SOMIS, CA, 93066","Match","Exact","3756 GROVES PL, SOMIS, CA, 93066",637058074,"R"
190790,"3756 HAWTHORNE ROAD","POCATELLO","ID",83201,42.900203762,-112.476049213,290,"3756 HAWTHORNE ROAD, POCATELLO, ID, 83201","Match","Exact","3756 HAWTHORNE RD, POCATELLO, ID, 83201",204350418,"R"
190791,"3756 MEMORIAL DRIVE SUITE 6","DECATUR","GA",30032,33.758878757,-84.262402432,291,"3756 MEMORIAL DRIVE SUITE 6, DECATUR, GA, 30032","Match","Exact","3756 MEMORIAL DR, DECATUR, GA, 30032",23396498,"L"
190792,"3756 N 22ND STREET","MILWAUKEE","WI",53206,43.085430929,-87.93961078,292,"3756 N 22ND STREET, MILWAUKEE, WI, 53206","Match","Exact","3756 N 22ND ST, MILWAUKEE, WI, 53206",77737845,"R"
190793,"3756 PIMVILLE RD","PARK HILLS","MO",63601,37.7739534680001,-90.465705035,293,"3756 PIMVILLE RD, PARK HILLS, MO, 63601","Match","Exact","3756 PIMVILLE RD, PARK HILLS, MO, 63601",635580663,"L"
190794,"3756 SANTA ROSALIA DRIVE SUITE 505","LOS ANGELES","CA",90008,34.008872411,-118.338869577,294,"3756 SANTA ROSALIA DRIVE SUITE 505, LOS ANGELES, CA, 90008","Match","Exact","3756 SANTA ROSALIA DR, LOS ANGELES, CA, 90008",141602377,"L"
190795,"3756 W AVE 40 SUITE K-270","LOS ANGELES","CA",90065,34.119395712,-118.228054593,295,"3756 W AVE 40 SUITE K-270, LOS ANGELES, CA, 90065","Match","Non_Exact","3756 W AVE 40, LOS ANGELES, CA, 90065",142731421,"R"
190796,"3756 WEST AVENUE 40 STE K276","LOS ANGELES","CA",90065,34.1193922620001,-118.228050095,296,"3756 WEST AVENUE 40 STE K276, LOS ANGELES, CA, 90065","Match","Exact","3756 W AVE 40, LOS ANGELES, CA, 90065",142731421,"R"
190797,"3756 WEST AVENUE 40 SUITE K 417","LOS ANGELES","CA",90065,34.1193922620001,-118.228050095,297,"3756 WEST AVENUE 40 SUITE K 417, LOS ANGELES, CA, 90065","Match","Exact","3756 W AVE 40, LOS ANGELES, CA, 90065",142731421,"R"
190798,"3756 WEST IRVING PARK ROAD","CHICAGO","IL",60618,41.953742312,-87.721976236,298,"3756 WEST IRVING PARK ROAD, CHICAGO, IL, 60618","Match","Exact","3756 W IRVING PARK RD, CHICAGO, IL, 60618",111756803,"R"
190799,"3756 WINDY HILL","CONYERS","GA",30013,NA,NA,299,"3756 WINDY HILL, CONYERS, GA, 30013","No_Match",NA,NA,NA,NA
190800,"37561 SALLEE ROAD","DORENA","OR",97434,43.7320603580001,-122.861209247,300,"37561 SALLEE ROAD, DORENA, OR, 97434","Match","Exact","37561 SALLEE RD, DORENA, OR, 97434",178156203,"R"
190801,"3757 214TH ST","MATTESON","IL",60443,41.5004756910001,-87.707605675,301,"3757 214TH ST, MATTESON, IL, 60443","Match","Exact","3757 214TH ST, MATTESON, IL, 60443",111708380,"L"
190802,"3757 EDWARDS AVE","JACKSON","MS",39213,32.3533973180001,-90.194763182,302,"3757 EDWARDS AVE, JACKSON, MS, 39213","Match","Exact","3757 EDWARDS AVE, JACKSON, MS, 39213",65369353,"L"
190803,"3757 GAIL DRIVE","OCEANSIDE","CA",92056,33.182738091,-117.302848875,303,"3757 GAIL DRIVE, OCEANSIDE, CA, 92056","Match","Exact","3757 GAIL DR, OCEANSIDE, CA, 92056",195750738,"R"
190804,"3757 GEORGETOWN ROAD NW","CLEVELAND","TN",37312,35.2613968490001,-84.915838972,304,"3757 GEORGETOWN ROAD NW, CLEVELAND, TN, 37312","Match","Exact","3757 GEORGETOWN RD NW, CLEVELAND, TN, 37312",57569643,"L"
190805,"3757 HALLDALE AVENUE","LOS ANGELES","CA",90018,34.019071523,-118.302902728,305,"3757 HALLDALE AVENUE, LOS ANGELES, CA, 90018","Match","Exact","3757 HALLDALE AVE, LOS ANGELES, CA, 90018",141606562,"R"
190806,"3757 INDIAN AVENUE","ORANGE CITY","IA",51041,43.1019662320001,-96.096556579,306,"3757 INDIAN AVENUE, ORANGE CITY, IA, 51041","Match","Exact","3757 INDIAN AVE, ORANGE CITY, IA, 51041",93372747,"L"
190807,"3757 SOUTHRIDGE LANE NE","PIEDMONT","OK",73078,35.643459492,-97.704810735,307,"3757 SOUTHRIDGE LANE NE, PIEDMONT, OK, 73078","Match","Non_Exact","3757 SOUTHRIDGE LN, PIEDMONT, OK, 73078",648723769,"R"
190808,"3757 SUNWARD DRIVE","MERRITT ISLAND","FL",32953,28.4225309490001,-80.7093495299999,308,"3757 SUNWARD DRIVE, MERRITT ISLAND, FL, 32953","Match","Exact","3757 SUNWARD DR, MERRITT ISLAND, FL, 32953",93941512,"L"
190809,"3758 89TH STREET 2FL","JACKSON HEIGHTS","NY",11372,NA,NA,309,"3758 89TH STREET 2FL, JACKSON HEIGHTS, NY, 11372","No_Match",NA,NA,NA,NA
190810,"3758 ABBEYGLEN WAY","BIRMINGHAM","AL",35226,NA,NA,310,"3758 ABBEYGLEN WAY, BIRMINGHAM, AL, 35226","No_Match",NA,NA,NA,NA
190811,"3758 CENTER RD","PERRY","OH",44081,41.7700530330001,-81.146705144,311,"3758 CENTER RD, PERRY, OH, 44081","Match","Exact","3758 CENTER RD, PERRY, OH, 44081",137473079,"L"
190812,"3758 LONE OAK ROAD","BARNUM","MN",55707,46.498755196,-92.626460041,312,"3758 LONE OAK ROAD, BARNUM, MN, 55707","Match","Exact","3758 LONE OAK RD, BARNUM, MN, 55707",612118146,"R"
190813,"3758 S ETHEL","DETROIT","MI",48217,42.2574257910001,-83.160805028,313,"3758 S ETHEL, DETROIT, MI, 48217","Match","Non_Exact","3758 ETHEL ST, DETROIT, MI, 48217",95450679,"R"
190814,"3758 S MAPLE VIEW DR APT 21","MILLCREEK","UT",84106,40.6893629210001,-111.865655196,314,"3758 S MAPLE VIEW DR APT 21, MILLCREEK, UT, 84106","Match","Exact","3758 MAPLE VIEW DR, MILLCREEK, UT, 84106",176151249,"L"
190815,"3758 SAND HILL CIR","SOUTH JORDAN","UT",84009,40.564663786,-111.980590824,315,"3758 SAND HILL CIR, SOUTH JORDAN, UT, 84009","Match","Exact","3758 SAND HILL CIR, SOUTH JORDAN, UT, 84009",176135693,"R"
190816,"3758 STATE ROUTE 31","CANASTOTA","NY",13032,43.1567612360001,-75.7478654609999,316,"3758 STATE ROUTE 31, CANASTOTA, NY, 13032","Match","Exact","3758 STATE RTE 31, CANASTOTA, NY, 13032",46518598,"L"
190817,"3758 UPTON AVE NORTH","MINNEAPOLIS","MN",55412,45.023326798,-93.3146705569999,317,"3758 UPTON AVE NORTH, MINNEAPOLIS, MN, 55412","Match","Exact","3758 UPTON AVE N, MINNEAPOLIS, MN, 55412",43832499,"R"
190818,"3759  COVENTRY LANE","BOCA RATON","FL",33496,26.405326996,-80.157845336,318,"3759  COVENTRY LANE, BOCA RATON, FL, 33496","Match","Non_Exact","3759 NW COVENTRY LN, BOCA RATON, FL, 33496",115575679,"R"
190819,"3759 ALWOOD ST","NORTH PORT","FL",34291,27.091594248,-82.253865756,319,"3759 ALWOOD ST, NORTH PORT, FL, 34291","Match","Exact","3759 ALWOOD ST, NORTH PORT, FL, 34291",16336968,"L"
190820,"3759 AUBREY LANE","PACE","FL",32571,30.720919479,-87.164212719,320,"3759 AUBREY LANE, PACE, FL, 32571","Match","Exact","3759 AUBREY LN, PACE, FL, 32571",650716846,"L"
190821,"3759 COUNTRY PLACE DRIVE APT 1113","STAFFORD","TX",77477,29.6091102450001,-95.5664541039999,321,"3759 COUNTRY PLACE DRIVE APT 1113, STAFFORD, TX, 77477","Match","Exact","3759 COUNTRY PLACE DR, STAFFORD, TX, 77477",637089382,"L"
190822,"3759 COURTHOUSE RD","LOUISA","VA",23093,37.9674941930001,-78.0637707939999,322,"3759 COURTHOUSE RD, LOUISA, VA, 23093","Match","Exact","3759 COURTHOUSE RD, LOUISA, VA, 23093",84929529,"L"
190823,"3759 COVENTRY LANE","BOCA RATON","FL",33496,26.405326996,-80.157845336,323,"3759 COVENTRY LANE, BOCA RATON, FL, 33496","Match","Non_Exact","3759 NW COVENTRY LN, BOCA RATON, FL, 33496",115575679,"R"
190824,"3759 HARRELS CORNER RD","LINDEN","VA",22642,38.8790930320001,-78.0649846429999,324,"3759 HARRELS CORNER RD, LINDEN, VA, 22642","Match","Exact","3759 HARRELS CORNER RD, LINDEN, VA, 22642",146297565,"R"
190825,"3759 MCCREARYS RIDGE ROAD -13","MOUNDSVILLE","WV",26041,39.94079184,-80.619081963,325,"3759 MCCREARYS RIDGE ROAD -13, MOUNDSVILLE, WV, 26041","Match","Exact","3759 MCCREARYS RIDGE RD, MOUNDSVILLE, WV, 26041",38075187,"R"
190826,"3759 MCCREARYS RIDGE ROAD","MOUNDSVILLE","WV",26041,39.94079184,-80.619081963,326,"3759 MCCREARYS RIDGE ROAD, MOUNDSVILLE, WV, 26041","Match","Exact","3759 MCCREARYS RIDGE RD, MOUNDSVILLE, WV, 26041",38075187,"R"
190827,"3759 N MERIDIAN AVE","WICHITA","KS",67204,37.7515019800001,-97.37170815,327,"3759 N MERIDIAN AVE, WICHITA, KS, 67204","Match","Exact","3759 N MERIDIAN AVE, WICHITA, KS, 67204",115632188,"L"
190828,"3759 N RAVENSWOOD AVE  SUITE 119","CHICAGO","IL",60613,41.9498255610001,-87.673696202,328,"3759 N RAVENSWOOD AVE  SUITE 119, CHICAGO, IL, 60613","Match","Non_Exact","3759 N RAVENSWOOD AVE, CHICAGO, IL, 60613",111761798,"R"
190829,"3759 NAUTILUS AVE","BROOKLYN","NY",11224,40.576044897,-74.004514715,329,"3759 NAUTILUS AVE, BROOKLYN, NY, 11224","Match","Exact","3759 NAUTILUS AVE, BROOKLYN, NY, 11224",636817279,"R"
190830,"3759 THOMPSON ROAD","MARIANNA","FL",32448,30.7297510060001,-85.2849925949999,330,"3759 THOMPSON ROAD, MARIANNA, FL, 32448","Match","Exact","3759 THOMPSON RD, MARIANNA, FL, 32448",629636392,"L"
190831,"3759 TORREY VIEW CT","SAN DIEGO","CA",92130,32.9201628480001,-117.231941115,331,"3759 TORREY VIEW CT, SAN DIEGO, CA, 92130","Match","Exact","3759 TORREY VIEW CT, SAN DIEGO, CA, 92130",195680422,"R"
190832,"3759 WILLOWTREE LANE","COLUMBUS","OH",43207,39.8918672790001,-82.923679256,332,"3759 WILLOWTREE LANE, COLUMBUS, OH, 43207","Match","Exact","3759 WILLOWTREE LN, COLUMBUS, OH, 43207",218560424,"R"
190833,"37595 CANDRIFF RD","MURRIETA","CA",92563,NA,NA,333,"37595 CANDRIFF RD, MURRIETA, CA, 92563","No_Match",NA,NA,NA,NA
190834,"375A HARVARD STREET 16A","CAMBRIDGE","MA",2138,42.3715898840001,-71.112530856,334,"375A HARVARD STREET 16A, CAMBRIDGE, MA, 2138","Match","Exact","375 HARVARD ST, CAMBRIDGE, MA, 02138",86868708,"R"
190835,"376 80 ROAD","JAMESTOWN","KS",66948,NA,NA,335,"376 80 ROAD, JAMESTOWN, KS, 66948","No_Match",NA,NA,NA,NA
190836,"376 AARON DRIVE","ALEXANDRIA","KY",41001,38.9615047240001,-84.366894902,336,"376 AARON DRIVE, ALEXANDRIA, KY, 41001","Match","Exact","376 AARON DR, ALEXANDRIA, KY, 41001",210243274,"L"
190837,"376 ALDEN WAY","NORTH BRUNSWICK","NJ",8902,40.4564321060001,-74.455600067,337,"376 ALDEN WAY, NORTH BRUNSWICK, NJ, 8902","Match","Exact","376 ALDEN WAY, N BRUNSWICK, NJ, 08902",60264585,"L"
190838,"376 ATLANTIC AVE","BROOKLYN","NY",11217,40.6873364300001,-73.985882225,338,"376 ATLANTIC AVE, BROOKLYN, NY, 11217","Match","Exact","376 ATLANTIC AVE, BROOKLYN, NY, 11217",59075351,"R"
190839,"376 BAINBRIDGE DRIVE","AIKEN","SC",29803,33.4886174550001,-81.692660512,339,"376 BAINBRIDGE DRIVE, AIKEN, SC, 29803","Match","Exact","376 BAINBRIDGE DR, AIKEN, SC, 29803",624917526,"L"
190840,"376 BARBARA WAY","HILLSBOROUGH","CA",94010,37.549178856,-122.367933369,340,"376 BARBARA WAY, HILLSBOROUGH, CA, 94010","Match","Exact","376 BARBARA WAY, HILLSBOROUGH, CA, 94010",192376111,"R"
190841,"376 BUCKINGHAM DRIVE","COVINGTON","GA",30016,33.5388513620001,-84.0290946169999,341,"376 BUCKINGHAM DRIVE, COVINGTON, GA, 30016","Match","Exact","376 BUCKINGHAM DR, COVINGTON, GA, 30016",23619225,"L"
190842,"376 BURLINGTON AVE","BRISTOL","CT",6010,41.6926428300001,-72.944212167,342,"376 BURLINGTON AVE, BRISTOL, CT, 6010","Match","Exact","376 BURLINGTON AVE, BRISTOL, CT, 06010",3504813,"R"
190843,"376 CALLE LUPITA","SAN LUIS OBISPO","CA",93401,35.2573215150001,-120.662562984,343,"376 CALLE LUPITA, SAN LUIS OBISPO, CA, 93401","Match","Non_Exact","376 CLL LUPITA, SAN LUIS OBISPO, CA, 93401",109732819,"R"
190844,"376 COLLEGE ST","DOYLINE","LA",71023,NA,NA,344,"376 COLLEGE ST, DOYLINE, LA, 71023","No_Match",NA,NA,NA,NA
190845,"376 COUNTY LINE RD","STONY POINT","NC",28678,35.8113416410001,-81.078345946,345,"376 COUNTY LINE RD, STONY POINT, NC, 28678","Match","Exact","376 COUNTY LINE RD, STONY POINT, NC, 28678",642916214,"R"
190846,"376 COUNTY ROAD F EAST","VADNAIS HEIGHTS","MN",55127,NA,NA,346,"376 COUNTY ROAD F EAST, VADNAIS HEIGHTS, MN, 55127","No_Match",NA,NA,NA,NA
190847,"376 E MAIN","FILLMORE","MO",64449,40.0251025260001,-94.970646813,347,"376 E MAIN, FILLMORE, MO, 64449","Match","Non_Exact","376 E MAIN ST, FILLMORE, MO, 64449",15936797,"L"
190848,"376 EAST MAIN STREET","COLLEGEVILLE","PA",19426,40.1874585300001,-75.452889931,348,"376 EAST MAIN STREET, COLLEGEVILLE, PA, 19426","Match","Exact","376 E MAIN ST, COLLEGEVILLE, PA, 19426",135068214,"L"
190849,"376 FLEMING COURT","JONESBORO","GA",30238,33.5034477300001,-84.4033010969999,349,"376 FLEMING COURT, JONESBORO, GA, 30238","Match","Exact","376 FLEMING CT, JONESBORO, GA, 30238",23321186,"L"
190850,"376 FOXFIRE RD","ABERDEEN","NC",28315,35.180001475,-79.5140291929999,350,"376 FOXFIRE RD, ABERDEEN, NC, 28315","Match","Exact","376 FOXFIRE RD, ABERDEEN, NC, 28315",20338430,"L"
190851,"376 FREEPORT ROAD","BLAWNOX","PA",15238,40.494322793,-79.860069906,351,"376 FREEPORT ROAD, BLAWNOX, PA, 15238","Match","Exact","376 FREEPORT RD, BLAWNOX, PA, 15238",51666312,"R"
190852,"376 GLASSBORO ROAD","MONROEVILLE","NJ",8343,39.638025858,-75.239960282,352,"376 GLASSBORO ROAD, MONROEVILLE, NJ, 8343","Match","Exact","376 GLASSBORO RD, MONROEVILLE, NJ, 08343",174420887,"L"
190853,"376 GROS VENTRE AVE","HARLEM","MT",59526,48.4842644980001,-108.766176728,353,"376 GROS VENTRE AVE, HARLEM, MT, 59526","Match","Exact","376 GROS VENTRE AVE, HARLEM, MT, 59526",162394184,"R"
190854,"376 HAIZLIP RIDGE","BLAIRSVILLE","GA",30512,34.91528293,-84.0318957,354,"376 HAIZLIP RIDGE, BLAIRSVILLE, GA, 30512","Match","Exact","376 HAIZLIP RIDGE, BLAIRSVILLE, GA, 30512",628088813,"L"
190855,"376 HALE STREET","BEVERLY","MA",1915,42.5513430180001,-70.837747334,355,"376 HALE STREET, BEVERLY, MA, 1915","Match","Exact","376 HALE ST, BEVERLY, MA, 01915",637203243,"L"
190856,"376 HILLCREST ROAD","NEEDHAM","MA",2492,42.28789815,-71.218448031,356,"376 HILLCREST ROAD, NEEDHAM, MA, 2492","Match","Exact","376 HILLCREST RD, NEEDHAM, MA, 02492",87242450,"L"
190857,"376 KEES ST","LEBANON","OR",97355,44.5239776830001,-122.912476558,357,"376 KEES ST, LEBANON, OR, 97355","Match","Exact","376 KEES ST, LEBANON, OR, 97355",156063666,"L"
190858,"376 LAKE WASHINGTON DR","KYLE","TX",78640,29.999256077,-97.841394473,358,"376 LAKE WASHINGTON DR, KYLE, TX, 78640","Match","Exact","376 LAKE WASHINGTON DR, KYLE, TX, 78640",616082115,"R"
190859,"376 LANCASTER BYPASS EAST","LANCASTER","SC",29720,NA,NA,359,"376 LANCASTER BYPASS EAST, LANCASTER, SC, 29720","No_Match",NA,NA,NA,NA
190860,"376 LUELLA AVE","CALUMET CITY","IL",60409,41.6260737740001,-87.5675963739999,360,"376 LUELLA AVE, CALUMET CITY, IL, 60409","Match","Exact","376 LUELLA AVE, CALUMET CITY, IL, 60409",111779721,"R"
190861,"376 N ALLEN AVE","PASADENA","CA",91106,34.1533147100001,-118.113191238,361,"376 N ALLEN AVE, PASADENA, CA, 91106","Match","Exact","376 N ALLEN AVE, PASADENA, CA, 91106",141632051,"R"
190862,"376 NELSON STREET SW","ATLANTA","GA",30313,33.751236068,-84.399712944,362,"376 NELSON STREET SW, ATLANTA, GA, 30313","Match","Exact","376 NELSON ST SW, ATLANTA, GA, 30313",17344171,"L"
190863,"376 OLD STATE ROAD","LEECHBURGH","PA",15656,NA,NA,363,"376 OLD STATE ROAD, LEECHBURGH, PA, 15656","No_Match",NA,NA,NA,NA
190864,"376 RIDGEVIEW ROAD","PRINCETON","NJ",8540,40.376408268,-74.694497143,364,"376 RIDGEVIEW ROAD, PRINCETON, NJ, 8540","Match","Exact","376 RIDGEVIEW RD, PRINCETON, NJ, 08540",60174720,"L"
190865,"376 RIVERWOOD DRIVE","CLAYTON","NC",27527,35.6649544360001,-78.4108228549999,365,"376 RIVERWOOD DRIVE, CLAYTON, NC, 27527","Match","Exact","376 RIVERWOOD DR, CLAYTON, NC, 27527",26552770,"R"
190866,"376 RUN HILL ROAD","BREWSTER","MA",2631,41.739483153,-70.104324595,366,"376 RUN HILL ROAD, BREWSTER, MA, 2631","Match","Exact","376 RUN HILL RD, BREWSTER, MA, 02631",121586189,"L"
190867,"376 S COUNTRY CLUB DRIVE","ATLANTIS","FL",33462,26.591664656,-80.0997928149999,367,"376 S COUNTRY CLUB DRIVE, ATLANTIS, FL, 33462","Match","Exact","376 S COUNTRY CLUB DR, ATLANTIS, FL, 33462",115285193,"L"
190868,"376 SAINT GEMMA DRIVE","OFALLON","MO",63366,38.8156054400001,-90.7205589389999,368,"376 SAINT GEMMA DRIVE, OFALLON, MO, 63366","Match","Non_Exact","376 SAINT GEMMA DR, O FALLON, MO, 63366",605533519,"L"
190869,"376 SUNSHINE DRIVE","HARTLAND","WI",53029,43.1222733600001,-88.336711303,369,"376 SUNSHINE DRIVE, HARTLAND, WI, 53029","Match","Exact","376 SUNSHINE DR, HARTLAND, WI, 53029",53859857,"R"
190870,"376 SW EGRET LANDING","PORT SAINT LUCIE","FL",34953,27.228455958,-80.350121187,370,"376 SW EGRET LANDING, PORT SAINT LUCIE, FL, 34953","Match","Exact","376 SW EGRET LNDG, PORT ST LUCIE, FL, 34953",610709386,"L"
190871,"376 W END AVE 58","LONG BRANCH","NJ",7740,40.289875502,-73.9972849709999,371,"376 W END AVE 58, LONG BRANCH, NJ, 7740","Match","Non_Exact","376 W END AVE, LONG BRANCH, NJ, 07740",90530043,"L"
190872,"376 WAGON WHEEL TRAIL","WEXFORD","PA",15090,40.592357104,-80.041654848,372,"376 WAGON WHEEL TRAIL, WEXFORD, PA, 15090","Match","Exact","376 WAGON WHEEL TRL, WEXFORD, PA, 15090",51698474,"R"
190873,"376 WEST END AVE APT 47","LONG BRANCH","NJ",7740,40.289870358,-73.997275327,373,"376 WEST END AVE APT 47, LONG BRANCH, NJ, 7740","Match","Exact","376 W END AVE, LONG BRANCH, NJ, 07740",90530043,"L"
190874,"376 WEST EXCHANGE STREET","AKRON","OH",44302,41.0827044660001,-81.533019559,374,"376 WEST EXCHANGE STREET, AKRON, OH, 44302","Match","Exact","376 W EXCHANGE ST, AKRON, OH, 44302",61341146,"L"
190875,"376 WYTHE AVENUE","BROOKLYN","NY",11249,40.7131492390001,-73.965658188,375,"376 WYTHE AVENUE, BROOKLYN, NY, 11249","Match","Exact","376 WYTHE AVE, BROOKLYN, NY, 11249",651856905,"R"
190876,"3760 61ST STREET","WOODSIDE","NY",11377,NA,NA,376,"3760 61ST STREET, WOODSIDE, NY, 11377","No_Match",NA,NA,NA,NA
190877,"3760 ALASKA AVENUE","KETCHIKAN","AK",99901,55.358929763,-131.691452321,377,"3760 ALASKA AVENUE, KETCHIKAN, AK, 99901","Match","Exact","3760 ALASKA AVE, KETCHIKAN, AK, 99901",190771640,"L"
190878,"3760 DEWITT RD","LONGS","SC",29568,33.842860994,-78.763543192,378,"3760 DEWITT RD, LONGS, SC, 29568","Match","Exact","3760 DEWITT RD, LONGS, SC, 29568",29085258,"L"
190879,"3760 FOREST VALLEY DR","WINSTON-SALEM","NC",27105,36.1288626670001,-80.185883373,379,"3760 FOREST VALLEY DR, WINSTON-SALEM, NC, 27105","Match","Exact","3760 FOREST VALLEY DR, WINSTON SALEM, NC, 27105",84678258,"L"
190880,"3760 HOLLYBERRY DR","HUNTINGTOWN","MD",20639,38.5854488200001,-76.539140921,380,"3760 HOLLYBERRY DR, HUNTINGTOWN, MD, 20639","Match","Exact","3760 HOLLYBERRY DR, HUNTINGTOWN, MD, 20639",648452394,"L"
190881,"3760 INVERRARY DRIVE 3-B","LAUDERHILL","FL",33319,26.1716938590001,-80.228960145,381,"3760 INVERRARY DRIVE 3-B, LAUDERHILL, FL, 33319","Match","Exact","3760 INVERRARY DR, LAUDERHILL, FL, 33319",114705932,"R"
190882,"3760 MARY EVELYN WAY","ALEXANDRIA","VA",22309,38.7342582650001,-77.0970588709999,382,"3760 MARY EVELYN WAY, ALEXANDRIA, VA, 22309","Match","Exact","3760 MARY EVELYN WAY, ALEXANDRIA, VA, 22309",619914013,"R"
190883,"3760 MICHIGAN AVE","MOUNT DORA","FL",32757,28.805226372,-81.681623555,383,"3760 MICHIGAN AVE, MOUNT DORA, FL, 32757","Match","Exact","3760 MICHIGAN AVE, MOUNT DORA, FL, 32757",94112186,"L"
190884,"3760 N  BAY HORSE LOOP","TUCSON","AZ",85719,32.274771007,-110.949929473,384,"3760 N  BAY HORSE LOOP, TUCSON, AZ, 85719","Match","Exact","3760 N BAY HORSE LOOP, TUCSON, AZ, 85719",645506071,"L"
190885,"3760 NANSEMOND PARKWAY","SUFFOLK","VA",23435,36.810984928,-76.50537059,385,"3760 NANSEMOND PARKWAY, SUFFOLK, VA, 23435","Match","Exact","3760 NANSEMOND PKWY, SUFFOLK, VA, 23435",122235395,"R"
190886,"3760 NIEMAN BLVD","SAN JOSE","CA",95121,37.3034245960001,-121.794507105,386,"3760 NIEMAN BLVD, SAN JOSE, CA, 95121","Match","Exact","3760 NIEMAN BLVD, SAN JOSE, CA, 95121",123010427,"L"
190887,"3760 NW 157TH STREET","OPA-LOCKA","FL",33054,25.9170504730001,-80.2612972159999,387,"3760 NW 157TH STREET, OPA-LOCKA, FL, 33054","Match","Exact","3760 NW 157TH ST, OPA LOCKA, FL, 33054",116027495,"L"
190888,"3760 NW 39TH STREET","LAUD LAKES","FL",33309,26.1738485440001,-80.2000317599999,388,"3760 NW 39TH STREET, LAUD LAKES, FL, 33309","Match","Exact","3760 NW 39TH ST, LAUD LAKES, FL, 33309",114707152,"L"
190889,"3760 NW 57TH STREET","OPA LOCKA","FL",33054,NA,NA,389,"3760 NW 57TH STREET, OPA LOCKA, FL, 33054","No_Match",NA,NA,NA,NA
190890,"3760 PARKRIDGE CIRCLE 23-204","SARASOTA","FL",34243,27.3869288710001,-82.501053476,390,"3760 PARKRIDGE CIRCLE 23-204, SARASOTA, FL, 34243","Match","Exact","3760 PARKRIDGE CIR, SARASOTA, FL, 34243",624336127,"L"
190891,"3760 PREAKNESS CT","CLEBURNE","TX",76033,32.2724145870001,-97.4239260259999,391,"3760 PREAKNESS CT, CLEBURNE, TX, 76033","Match","Exact","3760 PREAKNESS CT, CLEBURNE, TX, 76033",103535935,"L"
190892,"3760 SIXES RD SUITE 126 194","CANTON","GA",30114,34.178617075,-84.550225081,392,"3760 SIXES RD SUITE 126 194, CANTON, GA, 30114","Match","Exact","3760 SIXES RD, CANTON, GA, 30114",68864630,"R"
190893,"3760 SIXES ROAD STE 126-331","CANTON","GA",30114,34.178617075,-84.550225081,393,"3760 SIXES ROAD STE 126-331, CANTON, GA, 30114","Match","Exact","3760 SIXES RD, CANTON, GA, 30114",68864630,"R"
190894,"3760 STEVEN JAMES DRIVE","GARNET VALLEY","PA",19060,39.835444339,-75.4889783849999,394,"3760 STEVEN JAMES DRIVE, GARNET VALLEY, PA, 19060","Match","Exact","3760 STEVEN JAMES DR, GARNET VALLEY, PA, 19060",134901254,"L"
190895,"3760 SUN GARDEN DRIVE","FRISCO","TX",75033,33.1595967600001,-96.855784655,395,"3760 SUN GARDEN DRIVE, FRISCO, TX, 75033","Match","Exact","3760 SUN GARDEN DR, FRISCO, TX, 75033",634085160,"L"
190896,"3760 TRAMORE POINTE PARKWAY","AUSTELL","GA",30106,33.860659561,-84.6235730339999,396,"3760 TRAMORE POINTE PARKWAY, AUSTELL, GA, 30106","Match","Exact","3760 TRAMORE POINTE PKWY, AUSTELL, GA, 30106",629752427,"R"
190897,"3760 TRAMORE POINTE PKWY","AUSTELL","GA",30106,33.860659561,-84.6235730339999,397,"3760 TRAMORE POINTE PKWY, AUSTELL, GA, 30106","Match","Exact","3760 TRAMORE POINTE PKWY, AUSTELL, GA, 30106",629752427,"R"
190898,"3760 TRENERY DR","PLEASANTON","CA",94588,37.688105724,-121.865995482,398,"3760 TRENERY DR, PLEASANTON, CA, 94588","Match","Exact","3760 TRENERY DR, PLEASANTON, CA, 94588",125084112,"R"
190899,"3760 WOODMOUNT DR","BROOKFIELD","WI",53005,NA,NA,399,"3760 WOODMOUNT DR, BROOKFIELD, WI, 53005","No_Match",NA,NA,NA,NA
190900,"37600 CENTRAL COURT SUITE 270","NEWARK","CA",94560,37.5203157400001,-122.039038305,400,"37600 CENTRAL COURT SUITE 270, NEWARK, CA, 94560","Match","Exact","37600 CENTRAL CT, NEWARK, CA, 94560",125055791,"R"
190901,"37600 SNOQUALMIE PARKWAY","SNOQUALMIE","WA",98065,47.5366246990001,-121.83226168,401,"37600 SNOQUALMIE PARKWAY, SNOQUALMIE, WA, 98065","Match","Exact","37600 SNOQUALMIE PKWY, SNOQUALMIE, WA, 98065",617981141,"L"
190902,"37601 BURHANS ROAD","EUSTIS","FL",32736,28.897249113,-81.614112399,402,"37601 BURHANS ROAD, EUSTIS, FL, 32736","Match","Exact","37601 BURHANS RD, EUSTIS, FL, 32736",94094034,"L"
190903,"37602 PHELPS ROAD","ZEPHYRHILLS","FL",33541,28.2809489520001,-82.194004919,403,"37602 PHELPS ROAD, ZEPHYRHILLS, FL, 33541","Match","Exact","37602 PHELPS RD, ZEPHYRHILLS, FL, 33541",650059674,"L"
190904,"37606 W SIX MILE RD","LIVONIA","MI",48152,42.4109426300001,-83.4155725539999,404,"37606 W SIX MILE RD, LIVONIA, MI, 48152","Match","Exact","37606 6 MILE RD, LIVONIA, MI, 48152",95740869,"L"
190905,"37607 NE 137TH CT","LACENTER","WA",98629,45.8938487020001,-122.533002842,405,"37607 NE 137TH CT, LACENTER, WA, 98629","Match","Non_Exact","37607 NE 137TH CT, LA CENTER, WA, 98629",158358621,"L"
190906,"37608 N CAVE CREEK RD","PHOENIX","AZ",85083,NA,NA,406,"37608 N CAVE CREEK RD, PHOENIX, AZ, 85083","No_Match",NA,NA,NA,NA
190907,"3761 BRUNNER BLVD","JOHNSTOWN","CO",80534,40.3424844260001,-104.956263197,407,"3761 BRUNNER BLVD, JOHNSTOWN, CO, 80534","Match","Exact","3761 BRUNNER BLVD, JOHNSTOWN, CO, 80534",639797782,"R"
190908,"3761 CAVERN PLACE","CARLSBAD","CA",92010,33.1677652270001,-117.291972115,408,"3761 CAVERN PLACE, CARLSBAD, CA, 92010","Match","Exact","3761 CAVERN PL, CARLSBAD, CA, 92010",195452110,"R"
190909,"3761 COUNTY HWY A","RHINELANDER","WI",54501,NA,NA,409,"3761 COUNTY HWY A, RHINELANDER, WI, 54501","No_Match",NA,NA,NA,NA
190910,"3761 GERALDINE AVE","SAINT ANN","MO",63074,38.7258671650001,-90.37378136,410,"3761 GERALDINE AVE, SAINT ANN, MO, 63074","Match","Exact","3761 GERALDINE AVE, SAINT ANN, MO, 63074",100118485,"L"
190911,"3761 KATHY RD","MORGANTON","NC",28655,35.702639361,-81.8130574859999,411,"3761 KATHY RD, MORGANTON, NC, 28655","Match","Exact","3761 KATHY RD, MORGANTON, NC, 28655",37186772,"R"
190912,"3761 MAIN ST","ATLANTA","GA",30337,33.652743254,-84.449568498,412,"3761 MAIN ST, ATLANTA, GA, 30337","Match","Exact","3761 MAIN ST, ATLANTA, GA, 30337",17348426,"R"
190913,"3761 MERAMEC ST  APT 1S","ST LOUIS","MO",63116,38.5828020610001,-90.2480157159999,413,"3761 MERAMEC ST  APT 1S, ST LOUIS, MO, 63116","Match","Exact","3761 MERAMEC ST, SAINT LOUIS, MO, 63116",107601339,"R"
190914,"3761 NW 107 WAY","SUNRISE","FL",33351,26.173174009,-80.291425357,414,"3761 NW 107 WAY, SUNRISE, FL, 33351","Match","Exact","3761 NW 107TH WAY, SUNRISE, FL, 33351",114775992,"R"
190915,"3761 S 96TH E AVE","TULSA","OK",74145,36.1091246350001,-95.869443433,415,"3761 S 96TH E AVE, TULSA, OK, 74145","Match","Exact","3761 S 96TH EAST AVE, TULSA, OK, 74145",166454130,"L"
190916,"3761 S NORMANDIE AVE","LOS ANGELES","CA",90007,34.0185789010001,-118.300173916,416,"3761 S NORMANDIE AVE, LOS ANGELES, CA, 90007","Match","Exact","3761 S NORMANDIE AVE, LOS ANGELES, CA, 90007",141606579,"R"
190917,"3761 S NORMANDIE AVENUE","LOS ANGELES","CA",90007,34.0185789010001,-118.300173916,417,"3761 S NORMANDIE AVENUE, LOS ANGELES, CA, 90007","Match","Exact","3761 S NORMANDIE AVE, LOS ANGELES, CA, 90007",141606579,"R"
190918,"3761 S POWER RD","MESA","AZ",85212,33.3504754090001,-111.687420594,418,"3761 S POWER RD, MESA, AZ, 85212","Match","Exact","3761 S POWER RD, MESA, AZ, 85212",128926641,"R"
190919,"3761 SISSETON LANE","MT PLEASANT","SC",29466,32.8937245750001,-79.7551375419999,419,"3761 SISSETON LANE, MT PLEASANT, SC, 29466","Match","Exact","3761 SISSETON LN, MOUNT PLEASANT, SC, 29466",645443414,"R"
190920,"3761 VENTURE DRIVE SUITE 125","DULUTH","GA",30096,33.952117629,-84.137348088,420,"3761 VENTURE DRIVE SUITE 125, DULUTH, GA, 30096","Match","Non_Exact","3761 VENTURE DR NW, DULUTH, GA, 30096",638004949,"L"
190921,"3761 WALNUT CREEK WAY","LITHONIA","GA",30038,33.674091419,-84.168495922,421,"3761 WALNUT CREEK WAY, LITHONIA, GA, 30038","Match","Exact","3761 WALNUT CREEK WAY, LITHONIA, GA, 30038",23400396,"R"
190922,"3761 WEST PRINCETON","FRESNO","CA",93722,36.7751359210001,-119.861555777,422,"3761 WEST PRINCETON, FRESNO, CA, 93722","Match","Non_Exact","3761 W PRINCETON AVE, FRESNO, CA, 93722",619124146,"L"
190923,"3761 WESTERRE PARKWAY SUITE C","RICHMOND","VA",23233,37.643185003,-77.5779867319999,423,"3761 WESTERRE PARKWAY SUITE C, RICHMOND, VA, 23233","Match","Exact","3761 WESTERRE PKWY, RICHMOND, VA, 23233",106700249,"R"
190924,"3761 WINDGAP AVE","PITTSBURGH","PA",15024,40.4574878650001,-80.079659727,424,"3761 WINDGAP AVE, PITTSBURGH, PA, 15024","Match","Non_Exact","3761 WINDGAP AVE, PITTSBURGH, PA, 15204",51615151,"L"
190925,"3761 WINDGAP AVENUE","PITTSBURGH","PA",15204,40.4574878650001,-80.079659727,425,"3761 WINDGAP AVENUE, PITTSBURGH, PA, 15204","Match","Exact","3761 WINDGAP AVE, PITTSBURGH, PA, 15204",51615151,"L"
190926,"3761 WINDTREE DR","EAGAN","MN",55123,44.820609382,-93.117197678,426,"3761 WINDTREE DR, EAGAN, MN, 55123","Match","Exact","3761 WINDTREE DR, EAGAN, MN, 55123",37922358,"R"
190927,"3761 ZION HILL ROAD","SEGUIN","TX",78155,29.4834767730001,-97.895243109,427,"3761 ZION HILL ROAD, SEGUIN, TX, 78155","Match","Exact","3761 ZION HILL RD, SEGUIN, TX, 78155",54829404,"R"
190928,"37610 CECILIA LANE","PURCELLVILLE","VA",20132,39.1310488940001,-77.7028429,428,"37610 CECILIA LANE, PURCELLVILLE, VA, 20132","Match","Exact","37610 CECILIA LN, PURCELLVILLE, VA, 20132",62351323,"L"
190929,"37612 CITRON PLACE","PALMDALE","CA",93551,34.5655018620001,-118.177280386,429,"37612 CITRON PLACE, PALMDALE, CA, 93551","Match","Exact","37612 CITRON PL, PALMDALE, CA, 93551",641530929,"L"
190930,"37615 DOVE LAKE DRIVE","MAGNOLIA","TX",77354,NA,NA,430,"37615 DOVE LAKE DRIVE, MAGNOLIA, TX, 77354","No_Match",NA,NA,NA,NA
190931,"3762 BONNYBRIDGE PLACE","ELLICOTT CITY","MD",21043,39.2708971230001,-76.811938401,431,"3762 BONNYBRIDGE PLACE, ELLICOTT CITY, MD, 21043","Match","Exact","3762 BONNYBRIDGE PL, ELLICOTT CITY, MD, 21043",158941826,"R"
190932,"3762 CLUBSIDE LANE","SACRAMENTO","CA",95835,38.659300682,-121.545593275,432,"3762 CLUBSIDE LANE, SACRAMENTO, CA, 95835","Match","Exact","3762 CLUBSIDE LN, SACRAMENTO, CA, 95835",133408391,"R"
190933,"3762 DUSS AVE","BADEN","PA",15005,40.624488694,-80.226421597,433,"3762 DUSS AVE, BADEN, PA, 15005","Match","Exact","3762 DUSS AVE, BADEN, PA, 15005",52568706,"R"
190934,"3762 JAMES HILL CIRCLE","BIRMINGHAM","AL",35226,33.3952489650001,-86.869012642,434,"3762 JAMES HILL CIRCLE, BIRMINGHAM, AL, 35226","Match","Exact","3762 JAMES HILL CIR, BIRMINGHAM, AL, 35226",642151742,"R"
190935,"3762 PETTY RD","COVINGTON","KY",41015,38.9400802550001,-84.482789501,435,"3762 PETTY RD, COVINGTON, KY, 41015","Match","Exact","3762 PETTY RD, COVINGTON, KY, 41015",629010582,"L"
190936,"3762 RIDGEDALE DR","CINCINNATI","OH",45247,39.1947182160001,-84.607423177,436,"3762 RIDGEDALE DR, CINCINNATI, OH, 45247","Match","Exact","3762 RIDGEDALE DR, CINCINNATI, OH, 45247",103959202,"R"
190937,"37622 43RD STREET EAST","PALMDALE","CA",93552,34.5660462440001,-118.051829196,437,"37622 43RD STREET EAST, PALMDALE, CA, 93552","Match","Exact","37622 43RD ST E, PALMDALE, CA, 93552",141853080,"L"
190938,"37628 17TH PL S","FEDERAL WAY","WA",98003,47.2642954770001,-122.313096208,438,"37628 17TH PL S, FEDERAL WAY, WA, 98003","Match","Exact","37628 17TH PL S, FEDERAL WAY, WA, 98003",186708742,"L"
190939,"37629 LYONS WOODS CT","BEACH PARK","IL",60087,42.4083342980001,-87.839018187,439,"37629 LYONS WOODS CT, BEACH PARK, IL, 60087","Match","Exact","37629 LYONS WOODS CT, BEACH PARK, IL, 60087",653195161,"L"
190940,"3763 AFFIRMED DRIVE","FLORISSANT","MO",63034,38.840341859,-90.31380724,440,"3763 AFFIRMED DRIVE, FLORISSANT, MO, 63034","Match","Exact","3763 AFFIRMED DR, FLORISSANT, MO, 63034",632609573,"L"
190941,"3763 ASHTON WOODS PLACE","COLUMBUS","OH",43230,40.080571134,-82.9170940399999,441,"3763 ASHTON WOODS PLACE, COLUMBUS, OH, 43230","Match","Exact","3763 ASHTON WOODS PL, COLUMBUS, OH, 43230",218660991,"L"
190942,"3763 AUDREY RAE LANE","HOWELL","MI",48843,NA,NA,442,"3763 AUDREY RAE LANE, HOWELL, MI, 48843","No_Match",NA,NA,NA,NA
190943,"3763 DUNN ROAD","EASTOVER","NC",28312,35.0960698690001,-78.784170132,443,"3763 DUNN ROAD, EASTOVER, NC, 28312","Match","Exact","3763 DUNN RD, EASTOVER, NC, 28312",637578266,"R"
190944,"3763 LINDEN LN","EAGAN","MN",55123,44.820699769,-93.127686056,444,"3763 LINDEN LN, EAGAN, MN, 55123","Match","Exact","3763 LINDEN LN, EAGAN, MN, 55123",37930555,"L"
190945,"3763 N 18TH ST","PHILADELPHIA","PA",19140,40.0110679150001,-75.157379497,445,"3763 N 18TH ST, PHILADELPHIA, PA, 19140","Match","Exact","3763 N 18TH ST, PHILADELPHIA, PA, 19140",131417745,"R"
190946,"3763 NORTH EDGE DRIVE","SACRAMENTO","CA",95821,38.627290465,-121.376657686,446,"3763 NORTH EDGE DRIVE, SACRAMENTO, CA, 95821","Match","Exact","3763 N EDGE DR, SACRAMENTO, CA, 95821",133333421,"L"
190947,"3763 RECKER HIGHWAY","WINTER HAVEN","FL",33880,28.017821118,-81.761816671,447,"3763 RECKER HIGHWAY, WINTER HAVEN, FL, 33880","Match","Exact","3763 RECKER HWY, WINTER HAVEN, FL, 33880",653033009,"L"
190948,"3763 SAINT ELMO AVE","MEMPHIS","TN",38128,35.2345142890001,-89.937962541,448,"3763 SAINT ELMO AVE, MEMPHIS, TN, 38128","Match","Exact","3763 SAINT ELMO AVE, MEMPHIS, TN, 38128",72898844,"R"
190949,"3763 W 1150 N","MACY","IN",46951,40.931380549,-86.1422588619999,449,"3763 W 1150 N, MACY, IN, 46951","Match","Exact","3763 W 1150 N, MACY, IN, 46951",106398115,"R"
190950,"37635 JERMANE STREET","WESTLAND","MI",48185,42.3387343690001,-83.412553547,450,"37635 JERMANE STREET, WESTLAND, MI, 48185","Match","Exact","37635 JERMANE ST, WESTLAND, MI, 48185",95411987,"R"
190951,"37636 PHELPS ROAD","ZEPHRYHILLS","FL",33541,28.280947213,-82.1932650269999,451,"37636 PHELPS ROAD, ZEPHRYHILLS, FL, 33541","Match","Non_Exact","37636 PHELPS RD, ZEPHYRHILLS, FL, 33541",650059672,"L"
190952,"37637 FIVE MILE RD  STE 225","LIVONIA","MI",48154,NA,NA,452,"37637 FIVE MILE RD  STE 225, LIVONIA, MI, 48154","Tie",NA,NA,NA,NA
190953,"3764 BROADVIEW DR","CINCINNATI","OH",45208,39.150375712,-84.41001385,453,"3764 BROADVIEW DR, CINCINNATI, OH, 45208","Match","Exact","3764 BROADVIEW DR, CINCINNATI, OH, 45208",103933099,"R"
190954,"3764 DECKARD SCHOOL ROAD","RADCLIFF","KY",40160,37.7930099220001,-85.94820763,454,"3764 DECKARD SCHOOL ROAD, RADCLIFF, KY, 40160","Match","Exact","3764 DECKARD SCHOOL RD, RADCLIFF, KY, 40160",34617235,"R"
190955,"3764 FOX CROSSING","HELENA","MT",59602,46.6275534070001,-111.895427613,455,"3764 FOX CROSSING, HELENA, MT, 59602","Match","Non_Exact","3764 FOX CROSSING RD, HELENA, MT, 59602",617981817,"L"
190956,"3764 LOCKWOOD","TOLEDO","OH",43612,41.6884447240001,-83.569344133,456,"3764 LOCKWOOD, TOLEDO, OH, 43612","Match","Non_Exact","3764 LOCKWOOD AVE, TOLEDO, OH, 43612",33934431,"R"
190957,"3764 N BANKCROFT ST","INDIANAPOLIS","IN",46218,NA,NA,457,"3764 N BANKCROFT ST, INDIANAPOLIS, IN, 46218","No_Match",NA,NA,NA,NA
190958,"3764 ORPWOOD ST","PITTSBURGH","PA",15213,40.430230587,-79.9528498879999,458,"3764 ORPWOOD ST, PITTSBURGH, PA, 15213","Match","Exact","3764 ORPWOOD ST, PITTSBURGH, PA, 15213",51649262,"R"
190959,"3764 SETON HALL DR","DECATUR","GA",30034,33.673200685,-84.238489935,459,"3764 SETON HALL DR, DECATUR, GA, 30034","Match","Exact","3764 SETON HALL DR, DECATUR, GA, 30034",23373262,"L"
190960,"3764 TEACHERS LANE","ORCHARD PARK","NY",14127,42.781606707,-78.7979996179999,460,"3764 TEACHERS LANE, ORCHARD PARK, NY, 14127","Match","Exact","3764 TEACHERS LN, ORCHARD PARK, NY, 14127",48344237,"L"
190961,"3764 WATSEKA AVE","LOS ANGELES","CA",90034,34.0253413290001,-118.397587382,461,"3764 WATSEKA AVE, LOS ANGELES, CA, 90034","Match","Exact","3764 WATSEKA AVE, LOS ANGELES, CA, 90034",642861437,"L"
190962,"3765 17TH STREET","ECORSE","MI",48229,42.262236972,-83.151815001,462,"3765 17TH STREET, ECORSE, MI, 48229","Match","Exact","3765 17TH ST, ECORSE, MI, 48229",95450726,"L"
190963,"3765 42ND STREET","SAN DIEGO","CA",92105,32.747083606,-117.104478799,463,"3765 42ND STREET, SAN DIEGO, CA, 92105","Match","Exact","3765 42ND ST, SAN DIEGO, CA, 92105",195347013,"R"
190964,"3765 BROWNWOOD TERR","NORTH PORT","FL",34286,27.0882473070001,-82.1776672669999,464,"3765 BROWNWOOD TERR, NORTH PORT, FL, 34286","Match","Exact","3765 BROWNWOOD TER, NORTH PORT, FL, 34286",16339100,"L"
190965,"3765 CAMEO DR","OCEANSIDE","CA",92056,33.1951710330001,-117.303070525,465,"3765 CAMEO DR, OCEANSIDE, CA, 92056","Match","Exact","3765 CAMEO DR, OCEANSIDE, CA, 92056",195284979,"R"
190966,"3765 CHIRISTIAN SPRING ROAD","BETHLEHEM","PA",18020,40.6725650240001,-75.348375736,466,"3765 CHIRISTIAN SPRING ROAD, BETHLEHEM, PA, 18020","Match","Non_Exact","3765 CHRISTIAN SPRING RD, BETHLEHEM, PA, 18020",136877258,"L"
190967,"3765 COUNTY ROAD 74","ST. CLOUD","MN",56301,45.5060235240001,-94.219711428,467,"3765 COUNTY ROAD 74, ST. CLOUD, MN, 56301","Match","Exact","3765 CO RD 74, SAINT CLOUD, MN, 56301",635835652,"R"
190968,"3765 DEER FOREST DRIVE","MEMPHIS","TN",38115,35.045374786,-89.845814758,468,"3765 DEER FOREST DRIVE, MEMPHIS, TN, 38115","Match","Exact","3765 DEER FOREST DR, MEMPHIS, TN, 38115",72937017,"L"
190969,"3765 DRUMMOND STREET","HOUSTON","TX",77025,29.6960768060001,-95.435990589,469,"3765 DRUMMOND STREET, HOUSTON, TX, 77025","Match","Exact","3765 DRUMMOND ST, HOUSTON, TX, 77025",96086881,"L"
190970,"3765 LEEDS AVE","CHARLESTON","SC",29405,NA,NA,470,"3765 LEEDS AVE, CHARLESTON, SC, 29405","No_Match",NA,NA,NA,NA
190971,"3765 MARION UPPER SANDUSKY RD","MARION","OH",43302,40.6640202230001,-83.14477231,471,"3765 MARION UPPER SANDUSKY RD, MARION, OH, 43302","Match","Exact","3765 MARION UPPER SANDUSKY RD, MARION, OH, 43302",12714504,"L"
190972,"3765 N GOLDENROD AVE","KERMAN","CA",93630,36.7912083900001,-120.042646069,472,"3765 N GOLDENROD AVE, KERMAN, CA, 93630","Match","Exact","3765 N GOLDENROD AVE, KERMAN, CA, 93630",197552447,"L"
190973,"3765 N HWY 74 SERVICE RD","CRESCENT","OK",73028,NA,NA,473,"3765 N HWY 74 SERVICE RD, CRESCENT, OK, 73028","No_Match",NA,NA,NA,NA
190974,"3765 PRITCHETT LANE","CHARLOTTESVILLE","VA",22911,38.14038222,-78.419663283,474,"3765 PRITCHETT LANE, CHARLOTTESVILLE, VA, 22911","Match","Exact","3765 PRITCHETT LN, CHARLOTTESVILLE, VA, 22911",221715211,"R"
190975,"3765 TIERRA ALAMO DRIVE","EL PASO","TX",79938,31.7932245430001,-106.25162432,475,"3765 TIERRA ALAMO DRIVE, EL PASO, TX, 79938","Match","Non_Exact","3765 TIERRA ALMA LN, EL PASO, TX, 79938",618940776,"L"
190976,"3765 WATSEKA AVE APT 13","LOS ANGELES","CA",90034,34.025335414,-118.397598521,476,"3765 WATSEKA AVE APT 13, LOS ANGELES, CA, 90034","Match","Exact","3765 WATSEKA AVE, LOS ANGELES, CA, 90034",642861437,"R"
190977,"37652 SANTA ANNA STREET","CLINTON TOWNSHIP","MI",48036,42.5745858970001,-82.9329940819999,477,"37652 SANTA ANNA STREET, CLINTON TOWNSHIP, MI, 48036","Match","Exact","37652 SANTA ANNA ST, CLINTON TOWNSHIP, MI, 48036",110679617,"R"
190978,"37655 ARLINGTON COURT","PALMDALE","CA",93552,34.5666872130001,-118.024279371,478,"37655 ARLINGTON COURT, PALMDALE, CA, 93552","Match","Exact","37655 ARLINGTON CT, PALMDALE, CA, 93552",141837224,"R"
190979,"3766 EAST MAIN STREET","NEW WATERFORD","OH",44445,40.8456228090001,-80.61251084,479,"3766 EAST MAIN STREET, NEW WATERFORD, OH, 44445","Match","Exact","3766 E MAIN ST, NEW WATERFORD, OH, 44445",63662797,"R"
190980,"3766 LEE RD 246","SMITHS STATION","AL",36877,NA,NA,480,"3766 LEE RD 246, SMITHS STATION, AL, 36877","No_Match",NA,NA,NA,NA
190981,"3766 N STONE CREEK WAY","BOISE","ID",83703,43.6541006530001,-116.229130137,481,"3766 N STONE CREEK WAY, BOISE, ID, 83703","Match","Exact","3766 STONE CREEK WAY, BOISE, ID, 83703",117918045,"R"
190982,"3766 SKAARUP RD","SEDRO WOOLLEY","WA",98284,48.5906226390001,-122.303901971,482,"3766 SKAARUP RD, SEDRO WOOLLEY, WA, 98284","Match","Exact","3766 SKAARUP RD, SEDRO WOOLLEY, WA, 98284",183674992,"L"
190983,"3766 TUPELO LANE 1901","SAN ANTONIO","TX",78229,29.510544742,-98.556918702,483,"3766 TUPELO LANE 1901, SAN ANTONIO, TX, 78229","Match","Exact","3766 TUPELO LN, SAN ANTONIO, TX, 78229",621909004,"L"
190984,"37662 COUNTY ROAD 330","GRAND RAPIDS","MN",55744,NA,NA,484,"37662 COUNTY ROAD 330, GRAND RAPIDS, MN, 55744","No_Match",NA,NA,NA,NA
190985,"3767 ABINGTON AVENUE S","ST PETERSBURG","FL",33711,27.743258337,-82.684670467,485,"3767 ABINGTON AVENUE S, ST PETERSBURG, FL, 33711","Match","Exact","3767 ABINGTON AVE S, SAINT PETERSBURG, FL, 33711",124709780,"R"
190986,"3767 CLARINGTON AVENUE APT 112","LOS ANGELES","CA",90034,34.0234020010001,-118.401001319,486,"3767 CLARINGTON AVENUE APT 112, LOS ANGELES, CA, 90034","Match","Exact","3767 CLARINGTON AVE, LOS ANGELES, CA, 90034",141573733,"R"
190987,"3767 EAST BROADWAY ROAD STE 4","PHOENIX","AZ",85040,33.407197211,-112.001132144,487,"3767 EAST BROADWAY ROAD STE 4, PHOENIX, AZ, 85040","Match","Exact","3767 E BROADWAY RD, PHOENIX, AZ, 85040",128224105,"R"
190988,"3767 LAMB DR","MARIETTA","GA",30064,33.959924216,-84.664367369,488,"3767 LAMB DR, MARIETTA, GA, 30064","Match","Exact","3767 LAMB DR, MARIETTA, GA, 30064",637664773,"L"
190989,"3767 MIRANDA LN","COOKEVILLE","TN",38501,36.181086226,-85.580905598,489,"3767 MIRANDA LN, COOKEVILLE, TN, 38501","Match","Exact","3767 MIRANDA LN, COOKEVILLE, TN, 38501",25157141,"R"
190990,"3767 MOUNT CARMEL LANE","MELBOURNE","FL",32901,28.0425731990001,-80.606654211,490,"3767 MOUNT CARMEL LANE, MELBOURNE, FL, 32901","Match","Exact","3767 MOUNT CARMEL LN, MELBOURNE, FL, 32901",611181089,"R"
190991,"3767 N DECATUR RD APT H","DECATUR","GA",30032,33.7856619660001,-84.23978662,491,"3767 N DECATUR RD APT H, DECATUR, GA, 30032","Match","Non_Exact","3767 N DECATUR RD, DECATUR, GA, 30032",636358255,"R"
190992,"3767 WINWARD WAY DR","SWANSEA","IL",62226,38.5529884050001,-90.0052160549999,492,"3767 WINWARD WAY DR, SWANSEA, IL, 62226","Match","Exact","3767 WINWARD WAY DR, SWANSEA, IL, 62226",601185695,"R"
190993,"37672 HIGHWAY 26","SEASIDE","OR",97138,45.9058157860001,-123.774969951,493,"37672 HIGHWAY 26, SEASIDE, OR, 97138","Match","Non_Exact","37672 US HWY 26, SEASIDE, OR, 97138",159238301,"L"
190994,"37679 TOWNSVILLE CT","MURRIETA","CA",92563,33.5731696450001,-117.136465398,494,"37679 TOWNSVILLE CT, MURRIETA, CA, 92563","Match","Exact","37679 TOWNSVILLE CT, MURRIETA, CA, 92563",194875111,"R"
190995,"3768 41ST AVENUE NORTH APT B","ST PETERSBURG","FL",33714,27.809196335,-82.685008018,495,"3768 41ST AVENUE NORTH APT B, ST PETERSBURG, FL, 33714","Match","Exact","3768 41ST AVE N, SAINT PETERSBURG, FL, 33714",124702056,"L"
190996,"3768 CLEARWATER LANE","BROOKHAVEN","PA",19015,39.858950486,-75.388408978,496,"3768 CLEARWATER LANE, BROOKHAVEN, PA, 19015","Match","Exact","3768 CLEARWATER LN, BROOKHAVEN, PA, 19015",134889628,"L"
190997,"3768 E 154TH","CLEVELAND","OH",44128,41.456828091,-81.573091572,497,"3768 E 154TH, CLEVELAND, OH, 44128","Match","Non_Exact","3768 E 154TH ST, CLEVELAND, OH, 44128",61127418,"R"
190998,"3768 EISENHOWER PARKWAY","MACON","GA",31206,32.816040947,-83.702868428,498,"3768 EISENHOWER PARKWAY, MACON, GA, 31206","Match","Exact","3768 EISENHOWER PKWY, MACON, GA, 31206",639987874,"L"
190999,"3768 FM 1185","LOCKHART","TX",78644,29.980659476,-97.628886639,499,"3768 FM 1185, LOCKHART, TX, 78644","Match","Exact","3768 FM 1185, LOCKHART, TX, 78644",629619646,"R"
191000,"3768 MERCER STREET","MACON","GA",31204,32.8520354520001,-83.6886972459999,500,"3768 MERCER STREET, MACON, GA, 31204","Match","Exact","3768 MERCER ST, MACON, GA, 31204",636327943,"L"
