"ID","Address","City","State","Zip","lat","long","id","input_address","match_indicator","match_type","matched_address","tiger_line_id","tiger_side"
149001,"2745 LAS VENTANAS TRAIL","FORT WORTH","TX",76131,32.869842894,-97.321336692,1,"2745 LAS VENTANAS TRAIL, FORT WORTH, TX, 76131","Match","Exact","2745 LAS VENTANAS TRL, FORT WORTH, TX, 76131",619871600,"L"
149002,"2745 LENOX RD NE STE 2","ATLANTA","GA",30324,33.83045551,-84.355596089,2,"2745 LENOX RD NE STE 2, ATLANTA, GA, 30324","Match","Non_Exact","2745 LENOX RD, ATLANTA, GA, 30324",17391684,"R"
149003,"2745 MERIDIAN DRIVE","DACULA","GA",30019,34.054046063,-83.930751771,3,"2745 MERIDIAN DRIVE, DACULA, GA, 30019","Match","Exact","2745 MERIDIAN DR, DACULA, GA, 30019",88954137,"L"
149004,"2745 MERRIEWEATHER LN","KISSIMMEE","FL",34743,28.3360162600001,-81.332283578,4,"2745 MERRIEWEATHER LN, KISSIMMEE, FL, 34743","Match","Exact","2745 MERRIEWEATHER LN, KISSIMMEE, FL, 34743",624812649,"R"
149005,"2745 MOREFIELD ROAD","HERMITAGE","PA",16148,41.226569322,-80.4584748239999,5,"2745 MOREFIELD ROAD, HERMITAGE, PA, 16148","Match","Exact","2745 MOREFIELD RD, HERMITAGE, PA, 16148",70654632,"L"
149006,"2745 N DOCTOR MKL DRIVE SUITE 203","MILWAUKEE","WI",53212,NA,NA,6,"2745 N DOCTOR MKL DRIVE SUITE 203, MILWAUKEE, WI, 53212","No_Match",NA,NA,NA,NA
149007,"2745 N MARTIN LUTHER KING DR","MILWAUKEE","WI",53212,43.0685763560001,-87.91405522,7,"2745 N MARTIN LUTHER KING DR, MILWAUKEE, WI, 53212","Match","Exact","2745 N DR MARTIN LUTHER KING DR, MILWAUKEE, WI, 53212",77739651,"L"
149008,"2745 N MLK DR SUITE 203F","MILWAUKEE","WI",53212,43.0685763560001,-87.91405522,8,"2745 N MLK DR SUITE 203F, MILWAUKEE, WI, 53212","Match","Non_Exact","2745 N DR MARTIN LUTHER KING DR, MILWAUKEE, WI, 53212",77739651,"L"
149009,"2745 PAVONIA N RD","MANSFIELD","OH",44903,40.8318397580001,-82.438804147,9,"2745 PAVONIA N RD, MANSFIELD, OH, 44903","Match","Exact","2745 PAVONIA NORTH RD, MANSFIELD, OH, 44903",207228748,"R"
149010,"2745 PIEDMONT AVE UNIT 105","MONTROSE","CA",91020,34.2135334750001,-118.238923473,10,"2745 PIEDMONT AVE UNIT 105, MONTROSE, CA, 91020","Match","Exact","2745 PIEDMONT AVE, MONTROSE, CA, 91020",638625724,"R"
149011,"2745 PRAIRIE AVE UNIT 19","BELOIT","WI",53511,42.5451596830001,-89.01162899,11,"2745 PRAIRIE AVE UNIT 19, BELOIT, WI, 53511","Match","Exact","2745 PRAIRIE AVE, BELOIT, WI, 53511",49900607,"R"
149012,"2745 REEL STREET","HARRISBURG","PA",17110,40.290346722,-76.896744595,12,"2745 REEL STREET, HARRISBURG, PA, 17110","Match","Exact","2745 REEL ST, HARRISBURG, PA, 17110",70816413,"R"
149013,"2745 S 22ND ST","LINCOLN","NE",68502,40.785847244,-96.689660521,13,"2745 S 22ND ST, LINCOLN, NE, 68502","Match","Exact","2745 S 22ND ST, LINCOLN, NE, 68502",28255629,"R"
149014,"2745 SAMPSON AVENUE","BRONX","NY",10465,40.818633268,-73.823489087,14,"2745 SAMPSON AVENUE, BRONX, NY, 10465","Match","Exact","2745 SAMPSON AVE, BRONX, NY, 10465",80309157,"L"
149015,"2745 SHANDON RD","ROCK HILL","SC",29730,34.9144580870001,-80.929475118,15,"2745 SHANDON RD, ROCK HILL, SC, 29730","Match","Exact","2745 SHANDON RD, ROCK HILL, SC, 29730",19794633,"L"
149016,"2745 SOUTH BABCOCK STREET","MELBOURNE","FL",32901,28.0684118630001,-80.621223625,16,"2745 SOUTH BABCOCK STREET, MELBOURNE, FL, 32901","Match","Exact","2745 S BABCOCK ST, MELBOURNE, FL, 32901",637993628,"L"
149017,"2745 W LE MOYNE ST APT 2","CHICAGO","IL",60622,NA,NA,17,"2745 W LE MOYNE ST APT 2, CHICAGO, IL, 60622","No_Match",NA,NA,NA,NA
149018,"2745 WARRENSVILLE CENTER ROAD","SHAKER HEGHTS","OH",44122,41.4813461800001,-81.5362182539999,18,"2745 WARRENSVILLE CENTER ROAD, SHAKER HEGHTS, OH, 44122","Match","Non_Exact","2745 WARRENSVILLE CENTER RD, HIGHLAND HLS, OH, 44122",61167004,"L"
149019,"2745 WELTON ST","DENVER","CO",80205,39.755228226,-104.977499644,19,"2745 WELTON ST, DENVER, CO, 80205","Match","Exact","2745 WELTON ST, DENVER, CO, 80205",647266260,"L"
149020,"27452 482ND AVE","CANTON","SD",57013,43.4111140380001,-96.569141853,20,"27452 482ND AVE, CANTON, SD, 57013","Match","Exact","27452 482ND AVE, CANTON, SD, 57013",176326095,"R"
149021,"27452 SLOAN ST","NOVI","MI",48374,42.4911590570001,-83.5507037409999,21,"27452 SLOAN ST, NOVI, MI, 48374","Match","Exact","27452 SLOAN ST, NOVI, MI, 48374",624398838,"L"
149022,"27453 POLK ST NE","ISANTI","MN",55040,45.466980219,-93.2451651279999,22,"27453 POLK ST NE, ISANTI, MN, 55040","Match","Exact","27453 POLK ST NE, ISANTI, MN, 55040",97624711,"R"
149023,"27454 CARLTON OAKS ST","MURRIETA","CA",92562,33.594939207,-117.181298011,23,"27454 CARLTON OAKS ST, MURRIETA, CA, 92562","Match","Exact","27454 CARLTON OAKS ST, MURRIETA, CA, 92562",608994458,"L"
149024,"27454 OLD SCHOOL HOUSE RD","ARDMORE","AL",35739,34.953489807,-86.801398192,24,"27454 OLD SCHOOL HOUSE RD, ARDMORE, AL, 35739","Match","Exact","27454 OLD SCHOOL HOUSE RD, ARDMORE, AL, 35739",95256522,"L"
149025,"27456 CABEZA","MISSION VIEJO","CA",92691,33.6519169110001,-117.651793703,25,"27456 CABEZA, MISSION VIEJO, CA, 92691","Match","Exact","27456 CABEZA, MISSION VIEJO, CA, 92691",144065968,"R"
149026,"27458 254TH WAY SE","MAPLE VALLEY","WA",98038,47.3552476950001,-122.004401132,26,"27458 254TH WAY SE, MAPLE VALLEY, WA, 98038","Match","Exact","27458 254TH WAY SE, MAPLE VALLEY, WA, 98038",635738722,"L"
149027,"2746 BRENTWOOD DR","ODESSA","TX",79762,31.873517104,-102.365665731,27,"2746 BRENTWOOD DR, ODESSA, TX, 79762","Match","Exact","2746 BRENTWOOD DR, ODESSA, TX, 79762",139429913,"R"
149028,"2746 DECATUR AVENUE","BRONX","NY",10458,40.8657136030001,-73.887808434,28,"2746 DECATUR AVENUE, BRONX, NY, 10458","Match","Exact","2746 DECATUR AVE, BRONX, NY, 10458",80312804,"R"
149029,"2746 E 1525 N","LAYTON","UT",84040,41.0820997480001,-111.913559293,29,"2746 E 1525 N, LAYTON, UT, 84040","Match","Exact","2746 E 1525 N, LAYTON, UT, 84040",642842914,"R"
149030,"2746 EAST HAYMORE COURT","GILBERT","AZ",85298,33.220366911,-111.730682436,30,"2746 EAST HAYMORE COURT, GILBERT, AZ, 85298","Match","Exact","2746 E HAYMORE CT, GILBERT, AZ, 85298",128851500,"L"
149031,"2746 HILSON COMMONS","DECATUR","GA",30034,33.707020996,-84.22977752,31,"2746 HILSON COMMONS, DECATUR, GA, 30034","Match","Exact","2746 HILSON CMNS, DECATUR, GA, 30034",629755593,"L"
149032,"2746 MAPLE AVENUE","ZANESVILLE","OH",43701,39.973283053,-82.011581583,32,"2746 MAPLE AVENUE, ZANESVILLE, OH, 43701","Match","Exact","2746 MAPLE AVE, ZANESVILLE, OH, 43701",45593989,"R"
149033,"2746 POLK ST NE","MINNEAPOLIS","MN",55418,45.0176269470001,-93.245568439,33,"2746 POLK ST NE, MINNEAPOLIS, MN, 55418","Match","Exact","2746 POLK ST NE, MINNEAPOLIS, MN, 55418",43636114,"L"
149034,"2746 PROVIDENCE RIDGE","WENTZVILLE","MO",63385,38.8383514720001,-90.882532248,34,"2746 PROVIDENCE RIDGE, WENTZVILLE, MO, 63385","Match","Non_Exact","2746 PROVIDENCE RIDGE DR, WENTZVILLE, MO, 63385",100097271,"L"
149035,"2746 SHELBURNE RD","DOWNINGTOWN","PA",19335,39.989305388,-75.769459017,35,"2746 SHELBURNE RD, DOWNINGTOWN, PA, 19335","Match","Exact","2746 SHELBURNE RD, DOWNINGTOWN, PA, 19335",623875214,"R"
149036,"2746 STATE HIGHWAY 113","WAUBUN","MN",56589,47.1741852010001,-95.6947986869999,36,"2746 STATE HIGHWAY 113, WAUBUN, MN, 56589","Match","Exact","2746 STATE HWY 113, WAUBUN, MN, 56589",647899247,"R"
149037,"2746 TELEGRAPH RD","DAVENPORT","IA",52804,41.5195050770001,-90.620662878,37,"2746 TELEGRAPH RD, DAVENPORT, IA, 52804","Match","Exact","2746 TELEGRAPH RD, DAVENPORT, IA, 52804",122707625,"R"
149038,"2746 TIMBERCREEK TRAIL","VALDOSTA","GA",31605,30.882622032,-83.225628424,38,"2746 TIMBERCREEK TRAIL, VALDOSTA, GA, 31605","Match","Exact","2746 TIMBERCREEK TRL, VALDOSTA, GA, 31605",625000086,"R"
149039,"2746 TOPAZ RD","RIVERDALE","GA",30296,33.5580116470001,-84.474124035,39,"2746 TOPAZ RD, RIVERDALE, GA, 30296","Match","Exact","2746 TOPAZ RD, RIVERDALE, GA, 30296",648785393,"L"
149040,"2746 WEST FILLMORE STREET SUITE B","PHOENIX","AZ",85009,33.454782928,-112.119225924,40,"2746 WEST FILLMORE STREET SUITE B, PHOENIX, AZ, 85009","Match","Exact","2746 W FILLMORE ST, PHOENIX, AZ, 85009",128210618,"R"
149041,"27460 FOX CREEK ROAD","CAPE VINCENT","NY",13618,44.0601242320001,-76.283107845,41,"27460 FOX CREEK ROAD, CAPE VINCENT, NY, 13618","Match","Non_Exact","27460 FOX CREEK RD N, CAPE VINCENT, NY, 13618",154280527,"R"
149042,"27462 SCHOOL CRAFT","LIVONIA","MI",48154,NA,NA,42,"27462 SCHOOL CRAFT, LIVONIA, MI, 48154","No_Match",NA,NA,NA,NA
149043,"27464 GARZA DRIVE","SANTA CLARITA","CA",91350,34.445279425,-118.526980565,43,"27464 GARZA DRIVE, SANTA CLARITA, CA, 91350","Match","Exact","27464 GARZA DR, SANTA CLARITA, CA, 91350",141519172,"L"
149044,"2746A N 49TH STREET","MILWAUKEE","WI",53210,43.0688135080001,-87.974915008,44,"2746A N 49TH STREET, MILWAUKEE, WI, 53210","Match","Exact","2746 N 49TH ST, MILWAUKEE, WI, 53210",77732024,"R"
149045,"2747 ALLEN","ST LOUIS","MO",63104,38.6124717430001,-90.224917542,45,"2747 ALLEN, ST LOUIS, MO, 63104","Match","Non_Exact","2747 ALLEN AVE, SAINT LOUIS, MO, 63104",107598646,"R"
149046,"2747 BELMONT AVENUE","YOUNGSTOWN","OH",44505,41.1343965290001,-80.665507011,46,"2747 BELMONT AVENUE, YOUNGSTOWN, OH, 44505","Match","Exact","2747 BELMONT AVE, YOUNGSTOWN, OH, 44505",117419808,"L"
149047,"2747 CONEY ISLAND AVE  1ST FLOOR","BROOKLYN","NY",11235,40.5896153800001,-73.960520219,47,"2747 CONEY ISLAND AVE  1ST FLOOR, BROOKLYN, NY, 11235","Match","Exact","2747 CONEY ISLAND AVE, BROOKLYN, NY, 11235",59091077,"L"
149048,"2747 DEERWOOD LANE","ATLANTA","GA",30331,33.671999425,-84.51553245,48,"2747 DEERWOOD LANE, ATLANTA, GA, 30331","Match","Non_Exact","2747 DEERWOOD LN SW, ATLANTA, GA, 30331",643342138,"R"
149049,"2747 E MADISON","DES MOINES","IA",50317,NA,NA,49,"2747 E MADISON, DES MOINES, IA, 50317","Tie",NA,NA,NA,NA
149050,"2747 E UNIVERSITY DRIVE 8998","MESA","AZ",85214,NA,NA,50,"2747 E UNIVERSITY DRIVE 8998, MESA, AZ, 85214","No_Match",NA,NA,NA,NA
149051,"2747 HOOPER AVENUE 9-14","BRICK","NJ",8723,40.0565571320001,-74.135379673,51,"2747 HOOPER AVENUE 9-14, BRICK, NJ, 8723","Match","Exact","2747 HOOPER AVE, BRICK, NJ, 08723",203769627,"L"
149052,"2747 LAFAYETTE AVE","BENSALEM","PA",19020,40.086826526,-74.942629789,52,"2747 LAFAYETTE AVE, BENSALEM, PA, 19020","Match","Exact","2747 LAFAYETTE AVE, BENSALEM, PA, 19020",134715649,"R"
149053,"2747 MERRIEWEATHER LN","KISSIMMEE","FL",34743,28.336015581,-81.3322423609999,53,"2747 MERRIEWEATHER LN, KISSIMMEE, FL, 34743","Match","Exact","2747 MERRIEWEATHER LN, KISSIMMEE, FL, 34743",624812649,"R"
149054,"2747 NC HIGHWAY 56 E","LOUISBURG","NC",27549,36.0786802120001,-78.2059582049999,54,"2747 NC HIGHWAY 56 E, LOUISBURG, NC, 27549","Match","Non_Exact","2747 STATE RD 56 E, LOUISBURG, NC, 27549",90237584,"R"
149055,"2747 OLD COAL CITY RD","PELL CITY","AL",35125,33.6398537900001,-86.261316251,55,"2747 OLD COAL CITY RD, PELL CITY, AL, 35125","Match","Exact","2747 COAL CITY RD, PELL CITY, AL, 35125",66855718,"L"
149056,"2747 RIORDAN STREET","FORT BENNING","GA",31905,32.357324115,-84.972623665,56,"2747 RIORDAN STREET, FORT BENNING, GA, 31905","Match","Non_Exact","2747 RIORDON ST, FORT BENNING, GA, 31905",76774791,"L"
149057,"2747 S RECKER RD","GILBERT","AZ",85295,NA,NA,57,"2747 S RECKER RD, GILBERT, AZ, 85295","No_Match",NA,NA,NA,NA
149058,"2747 SCARBOROUGH DR","GRAND PRAIRIE","TX",75052,32.6707269350001,-97.049928704,58,"2747 SCARBOROUGH DR, GRAND PRAIRIE, TX, 75052","Match","Exact","2747 SCARBOROUGH DR, GRAND PRAIRIE, TX, 75052",101952054,"R"
149059,"2747 SUNSET AVE SUITE 109","ROCKY MOUNT","NC",27804,35.962190934,-77.831534818,59,"2747 SUNSET AVE SUITE 109, ROCKY MOUNT, NC, 27804","Match","Exact","2747 SUNSET AVE, ROCKY MOUNT, NC, 27804",90382362,"L"
149060,"2747 TRADITIONS LOOP","PASO ROBLES","CA",93446,35.6471221730001,-120.679682529,60,"2747 TRADITIONS LOOP, PASO ROBLES, CA, 93446","Match","Exact","2747 TRADITIONS LOOP, PASO ROBLES, CA, 93446",645317502,"R"
149061,"2747 WILLIAMS RD","STARKVILLE","MS",39759,33.4004905050001,-88.8461715879999,61,"2747 WILLIAMS RD, STARKVILLE, MS, 39759","Match","Exact","2747 WILLIAMS RD, STARKVILLE, MS, 39759",649966443,"L"
149062,"27475 FERRY ROAD","WARRENVILLE","IL",60555,NA,NA,62,"27475 FERRY ROAD, WARRENVILLE, IL, 60555","No_Match",NA,NA,NA,NA
149063,"27475 FRANKLIN RD","SOUTHFIELD","MI",48034,42.4883386180001,-83.293221352,63,"27475 FRANKLIN RD, SOUTHFIELD, MI, 48034","Match","Exact","27475 FRANKLIN RD, SOUTHFIELD, MI, 48034",69815186,"L"
149064,"27475 YNEZ RD NUM 429","TEMECULA","CA",92591,NA,NA,64,"27475 YNEZ RD NUM 429, TEMECULA, CA, 92591","No_Match",NA,NA,NA,NA
149065,"27475 YNEZ RD STE 115","TEMECULA","CA",92591,NA,NA,65,"27475 YNEZ RD STE 115, TEMECULA, CA, 92591","No_Match",NA,NA,NA,NA
149066,"27475 YNEZ ROAD 721","TEMECULA","CA",92591,NA,NA,66,"27475 YNEZ ROAD 721, TEMECULA, CA, 92591","No_Match",NA,NA,NA,NA
149067,"2748 ATLANTIC AVE","BROOKLYN","NY",11207,40.676175513,-73.8928396329999,67,"2748 ATLANTIC AVE, BROOKLYN, NY, 11207","Match","Exact","2748 ATLANTIC AVE, BROOKLYN, NY, 11207",59084982,"R"
149068,"2748 ATLANTIC AVENUE","BROOKLYN","NY",11207,40.676175513,-73.8928396329999,68,"2748 ATLANTIC AVENUE, BROOKLYN, NY, 11207","Match","Exact","2748 ATLANTIC AVE, BROOKLYN, NY, 11207",59084982,"R"
149069,"2748 B 1/2 ROAD","GRAND JUNCTION","CO",81503,39.041183249,-108.543104858,69,"2748 B 1/2 ROAD, GRAND JUNCTION, CO, 81503","Match","Exact","2748 B 1/2 RD, GRAND JCT, CO, 81503",618040204,"L"
149070,"2748 COUNTY ROAD 133","GIDDINGS","TX",78942,30.192926287,-96.878556158,70,"2748 COUNTY ROAD 133, GIDDINGS, TX, 78942","Match","Exact","2748 CO RD 133, GIDDINGS, TX, 78942",644619728,"R"
149071,"2748 COVEY COURT","BREA","CA",92821,33.9218182490001,-117.861350125,71,"2748 COVEY COURT, BREA, CA, 92821","Match","Exact","2748 COVEY CT, BREA, CA, 92821",144089314,"L"
149072,"2748 DESERT CRYSTAL DRIVE","LAS VEGAS","NV",89134,36.2104754010001,-115.300588742,72,"2748 DESERT CRYSTAL DRIVE, LAS VEGAS, NV, 89134","Match","Exact","2748 DESERT CRYSTAL DR, LAS VEGAS, NV, 89134",201893792,"R"
149073,"2748 EAST 15TH ST","TULSA","OK",74104,36.1405594350001,-95.9501096659999,73,"2748 EAST 15TH ST, TULSA, OK, 74104","Match","Exact","2748 E 15TH ST, TULSA, OK, 74104",166449022,"R"
149074,"2748 HILTONWOOD RD","BALDWINSVILLE","NY",13027,43.1461891230001,-76.3062124049999,74,"2748 HILTONWOOD RD, BALDWINSVILLE, NY, 13027","Match","Exact","2748 HILTONWOOD RD, BALDWINSVILLE, NY, 13027",46587268,"R"
149075,"2748 MCFARLANE COURT","TALLAHASSEE","FL",32303,30.5066571720001,-84.3416992959999,75,"2748 MCFARLANE COURT, TALLAHASSEE, FL, 32303","Match","Exact","2748 MCFARLANE CT, TALLAHASSEE, FL, 32303",82866156,"R"
149076,"2748 N 19TH ST","MILWAUKEE","WI",53206,43.068693421,-87.93681573,76,"2748 N 19TH ST, MILWAUKEE, WI, 53206","Match","Exact","2748 N 19TH ST, MILWAUKEE, WI, 53206",77738479,"R"
149077,"2748 N COUNTY ROAD 650 W","RICHLAND","IN",47634,37.9267188740001,-87.177999073,77,"2748 N COUNTY ROAD 650 W, RICHLAND, IN, 47634","Match","Exact","2748 CO RD 650 W, RICHLAND, IN, 47634",7977889,"L"
149078,"2748 N LINCOLN AVE","CHICAGO","IL",60614,41.9316583820001,-87.657458205,78,"2748 N LINCOLN AVE, CHICAGO, IL, 60614","Match","Exact","2748 N LINCOLN AVE, CHICAGO, IL, 60614",111764440,"L"
149079,"2748 STATE ROUTE 44","SHINGLEHOUSE","PA",16748,NA,NA,79,"2748 STATE ROUTE 44, SHINGLEHOUSE, PA, 16748","No_Match",NA,NA,NA,NA
149080,"2748 WHITNEY AVENUE","MEMPHIS","TN",38127,35.212669755,-89.972123084,80,"2748 WHITNEY AVENUE, MEMPHIS, TN, 38127","Match","Exact","2748 WHITNEY AVE, MEMPHIS, TN, 38127",72911434,"L"
149081,"27480 VISTA DEL TORO","SALINAS","CA",93908,36.5226264350001,-121.700389829,81,"27480 VISTA DEL TORO, SALINAS, CA, 93908","Match","Non_Exact","27480 VISTA DEL TORO PL, SALINAS, CA, 93908",196861222,"R"
149082,"27482 COUNTRY LANE ROAD","LAGUNA NIGUEL","CA",92677,33.563471156,-117.700825276,82,"27482 COUNTRY LANE ROAD, LAGUNA NIGUEL, CA, 92677","Match","Exact","27482 COUNTRY LANE RD, LAGUNA NIGUEL, CA, 92677",144424359,"L"
149083,"2749 ALAN COURT","WAUKEGAN","IL",60085,42.3814862630001,-87.868946028,83,"2749 ALAN COURT, WAUKEGAN, IL, 60085","Match","Exact","2749 ALAN CT, WAUKEGAN, IL, 60085",119753334,"R"
149084,"2749 BRIDLE RIDGE WAY","BUFORD","GA",30519,34.079559696,-83.950533007,84,"2749 BRIDLE RIDGE WAY, BUFORD, GA, 30519","Match","Exact","2749 BRIDLE RIDGE WAY, BUFORD, GA, 30519",630031449,"R"
149085,"2749 BUFFALO RUN","BURLESON","TX",76028,32.4992961930001,-97.372206133,85,"2749 BUFFALO RUN, BURLESON, TX, 76028","Match","Exact","2749 BUFFALO RUN, BURLESON, TX, 76028",614083547,"L"
149086,"2749 CARRIAGE WAY","AURORA","IL",60504,41.7504451300001,-88.247700633,86,"2749 CARRIAGE WAY, AURORA, IL, 60504","Match","Exact","2749 CARRIAGE WAY, AURORA, IL, 60504",112692724,"R"
149087,"2749 CREEK HILL ROAD","LEOLA","PA",17540,40.076974514,-76.1860497929999,87,"2749 CREEK HILL ROAD, LEOLA, PA, 17540","Match","Exact","2749 CREEK HILL RD, LEOLA, PA, 17540",179715546,"R"
149088,"2749 FORREST DRIVE","KINSTON","NC",28504,35.284831324,-77.674221486,88,"2749 FORREST DRIVE, KINSTON, NC, 28504","Match","Exact","2749 FORREST DR, KINSTON, NC, 28504",13890810,"R"
149089,"2749 GLENGARY AVE NW","ROANOKE","VA",24017,37.284355158,-79.9837645659999,89,"2749 GLENGARY AVE NW, ROANOKE, VA, 24017","Match","Exact","2749 GLENGARY AVE NW, ROANOKE, VA, 24017",62903111,"R"
149090,"2749 HARRINGTON DR","DECATUR","GA",30033,33.803327387,-84.2793522379999,90,"2749 HARRINGTON DR, DECATUR, GA, 30033","Match","Exact","2749 HARRINGTON DR, DECATUR, GA, 30033",23360618,"R"
149091,"2749 HIGHWAY T","LABADIE","MO",63055,NA,NA,91,"2749 HIGHWAY T, LABADIE, MO, 63055","No_Match",NA,NA,NA,NA
149092,"2749 KENSINGTON AVENUE","PHILADELPHIA","PA",19134,39.9909166950001,-75.123520823,92,"2749 KENSINGTON AVENUE, PHILADELPHIA, PA, 19134","Match","Exact","2749 KENSINGTON AVE, PHILADELPHIA, PA, 19134",131421209,"R"
149093,"2749 LARK ROAD","CLYDE","KS",66938,39.480657964,-97.4163574199999,93,"2749 LARK ROAD, CLYDE, KS, 66938","Match","Exact","2749 LARK RD, CLYDE, KS, 66938",148203235,"R"
149094,"2749 MAPLE ST","HOLLISTER","MO",65672,36.6159891350001,-93.2192880549999,94,"2749 MAPLE ST, HOLLISTER, MO, 65672","Match","Exact","2749 MAPLE ST, HOLLISTER, MO, 65672",20157819,"L"
149095,"2749 SW 21ST CIRCLE","ANKENY","IA",50023,41.71011093,-93.6362247019999,95,"2749 SW 21ST CIRCLE, ANKENY, IA, 50023","Match","Exact","2749 SW 21ST CIR, ANKENY, IA, 50023",647024436,"L"
149096,"2749 WOOD LAKE DR","CEDAR HILL","TX",75104,32.5678076230001,-97.002484378,96,"2749 WOOD LAKE DR, CEDAR HILL, TX, 75104","Match","Exact","2749 WOOD LAKE DR, CEDAR HILL, TX, 75104",641713193,"L"
149097,"2749","SPENCERPORT","NY",14559,NA,NA,97,"2749, SPENCERPORT, NY, 14559","No_Match",NA,NA,NA,NA
149098,"27490 COYOTE MESA DR","CORONA","CA",92883,33.719970464,-117.417276476,98,"27490 COYOTE MESA DR, CORONA, CA, 92883","Match","Exact","27490 COYOTE MESA DR, CORONA, CA, 92883",619789850,"R"
149099,"27490 MORRO DRIVE","MISSION VIEJO","CA",92692,33.5877790770001,-117.651293012,99,"27490 MORRO DRIVE, MISSION VIEJO, CA, 92692","Match","Exact","27490 MORRO DR, MISSION VIEJO, CA, 92692",144382602,"R"
149100,"27492 MULE DEER RD","HOT SPRINGS","SD",57747,43.4225186200001,-103.531288943,100,"27492 MULE DEER RD, HOT SPRINGS, SD, 57747","Match","Exact","27492 MULE DEER RD, HOT SPRINGS, SD, 57747",174199920,"L"
149101,"27497 BUFFALO RD","HOTCHKISS","CO",81419,38.8365282890001,-107.845223863,101,"27497 BUFFALO RD, HOTCHKISS, CO, 81419","Match","Exact","27497 BUFFALO RD, HOTCHKISS, CO, 81419",122360111,"L"
149102,"275 10TH ST NUM 532","SAN FRANCISCO","CA",94103,37.7731390860001,-122.41321755,102,"275 10TH ST NUM 532, SAN FRANCISCO, CA, 94103","Match","Exact","275 10TH ST, SAN FRANCISCO, CA, 94103",192292372,"L"
149103,"275 2ND AVENUE UNIT 4049","NEEDHAM","MA",2494,42.302177972,-71.215015455,103,"275 2ND AVENUE UNIT 4049, NEEDHAM, MA, 2494","Match","Exact","275 2ND AVE, NEEDHAM, MA, 02494",635503230,"R"
149104,"275 4TH STREET E SUITE 280","SAINT PAUL","MN",55101,NA,NA,104,"275 4TH STREET E SUITE 280, SAINT PAUL, MN, 55101","No_Match",NA,NA,NA,NA
149105,"275 4TH STREET EAST  SUITE 701","SAINT PAUL","MN",55101,NA,NA,105,"275 4TH STREET EAST  SUITE 701, SAINT PAUL, MN, 55101","No_Match",NA,NA,NA,NA
149106,"275 7TH AVENUE 17TH FLOOR","NEW YORK","NY",10001,40.745757439,-73.9944318999999,106,"275 7TH AVENUE 17TH FLOOR, NEW YORK, NY, 10001","Match","Exact","275 7TH AVE, NEW YORK, NY, 10001",59653388,"R"
149107,"275 8TH ST","SAN FRANCISCO","CA",94110,37.775306406,-122.410445859,107,"275 8TH ST, SAN FRANCISCO, CA, 94110","Match","Non_Exact","275 8TH ST, SAN FRANCISCO, CA, 94103",192287423,"L"
149108,"275 ASHTON AVE","SAN FRANCISCO","CA",94112,37.7231449550001,-122.462276627,108,"275 ASHTON AVE, SAN FRANCISCO, CA, 94112","Match","Exact","275 ASHTON AVE, SAN FRANCISCO, CA, 94112",192285437,"L"
149109,"275 AUTRY MILL LANE","SUWANEE","GA",30024,34.033534488,-84.025003851,109,"275 AUTRY MILL LANE, SUWANEE, GA, 30024","Match","Exact","275 AUTRY MILL LN, SUWANEE, GA, 30024",633097588,"L"
149110,"275 BAR MILL DRIVE","MILLERS CREEK","NC",28651,36.2177706800001,-81.221731232,110,"275 BAR MILL DRIVE, MILLERS CREEK, NC, 28651","Match","Non_Exact","275 BAR MILL RD, MILLERS CREEK, NC, 28651",46155643,"L"
149111,"275 BARNES ROAD","AURORA","IL",60506,41.761772545,-88.3919648739999,111,"275 BARNES ROAD, AURORA, IL, 60506","Match","Exact","275 BARNES RD, AURORA, IL, 60506",638418053,"L"
149112,"275 BARTLETT STREET","RENO","NV",89512,39.545004476,-119.812945688,112,"275 BARTLETT STREET, RENO, NV, 89512","Match","Exact","275 BARTLETT ST, RENO, NV, 89512",107042816,"L"
149113,"275 BATTERY ST STE 2600","SAN FRANCISCO","CA",94111,37.7939769540001,-122.400120568,113,"275 BATTERY ST STE 2600, SAN FRANCISCO, CA, 94111","Match","Exact","275 BATTERY ST, SAN FRANCISCO, CA, 94111",192281465,"L"
149114,"275 BAYSHORE BLVD UNIT 1008","TAMPA","FL",33606,27.941582388,-82.45946903,114,"275 BAYSHORE BLVD UNIT 1008, TAMPA, FL, 33606","Match","Exact","275 BAYSHORE BLVD, TAMPA, FL, 33606",104530329,"R"
149115,"275 BAYVIEW AVE","MASSAPEQUA","NY",11758,40.6527952270001,-73.464188957,115,"275 BAYVIEW AVE, MASSAPEQUA, NY, 11758","Match","Exact","275 BAYVIEW AVE, MASSAPEQUA, NY, 11758",147653836,"R"
149116,"275 BIRCHWOOD DRIVE","CLARKESVILLE","GA",30523,34.6317315580001,-83.465648906,116,"275 BIRCHWOOD DRIVE, CLARKESVILLE, GA, 30523","Match","Exact","275 BIRCHWOOD DR, CLARKESVILLE, GA, 30523",41719026,"L"
149117,"275 BRADY WALK","LAWRENCEVILLE","GA",30046,33.9340397720001,-83.975121558,117,"275 BRADY WALK, LAWRENCEVILLE, GA, 30046","Match","Exact","275 BRADY WALK, LAWRENCEVILLE, GA, 30046",88917916,"R"
149118,"275 BROADWAY","METHUEN","MA",1844,NA,NA,118,"275 BROADWAY, METHUEN, MA, 1844","No_Match",NA,NA,NA,NA
149119,"275 BRYN MAWR AVE UNIT J1","BRYN MAWR","PA",19010,40.016666313,-75.3280829,119,"275 BRYN MAWR AVE UNIT J1, BRYN MAWR, PA, 19010","Match","Non_Exact","275 S BRYN MAWR AVE, BRYN MAWR, PA, 19010",134872839,"L"
149120,"275 CABBAGE CREEK ROAD","CRESTON","NC",28615,36.4400089440001,-81.66368221,120,"275 CABBAGE CREEK ROAD, CRESTON, NC, 28615","Match","Exact","275 CABBAGE CREEK RD, CRESTON, NC, 28615",154047036,"L"
149121,"275 CALEDONIA DRIVE","OWOSSO","MI",48867,43.0011540260001,-84.148797654,121,"275 CALEDONIA DRIVE, OWOSSO, MI, 48867","Match","Non_Exact","275 CALEDONIA, OWOSSO, MI, 48867",23656170,"R"
149122,"275 CANAL AVENUE","OAK HILL","FL",32459,28.87877379,-80.846444295,122,"275 CANAL AVENUE, OAK HILL, FL, 32459","Match","Non_Exact","275 CANAL AVE, OAK HILL, FL, 32759",94602817,"R"
149123,"275 CANTERBURY DRIVE","WEST CHESTER","PA",19380,40.012390806,-75.592098686,123,"275 CANTERBURY DRIVE, WEST CHESTER, PA, 19380","Match","Exact","275 CANTERBURY DR, WEST CHESTER, PA, 19380",636456193,"R"
149124,"275 CARRIAGE STATION CIRCLE","ROSWELL","GA",30075,34.023102953,-84.336319332,124,"275 CARRIAGE STATION CIRCLE, ROSWELL, GA, 30075","Match","Exact","275 CARRIAGE STATION CIR, ROSWELL, GA, 30075",17386246,"R"
149125,"275 CAYWOOD COURT","LONGMONT","CO",80504,40.166666951,-105.085008828,125,"275 CAYWOOD COURT, LONGMONT, CO, 80504","Match","Exact","275 CAYWOOD CT, LONGMONT, CO, 80504",188156906,"R"
149126,"275 CENTRAL PARK WEST  SUITE 1A","NEW YORK","NY",10024,40.786462111,-73.968489119,126,"275 CENTRAL PARK WEST  SUITE 1A, NEW YORK, NY, 10024","Match","Exact","275 CENTRAL PARK W, NEW YORK, NY, 10024",59656959,"L"
149127,"275 CENTRAL PARK WEST APT 14F","NEW YORK","NY",10024,40.786462111,-73.968489119,127,"275 CENTRAL PARK WEST APT 14F, NEW YORK, NY, 10024","Match","Exact","275 CENTRAL PARK W, NEW YORK, NY, 10024",59656959,"L"
149128,"275 CHESTNUT STREET","BOUND BROOK","NJ",8805,40.5716326580001,-74.53789282,128,"275 CHESTNUT STREET, BOUND BROOK, NJ, 8805","Match","Exact","275 CHESTNUT ST, BOUND BROOK, NJ, 08805",59940455,"R"
149129,"275 CHILVERS RD","CHEHALIS","WA",98532,46.648300954,-123.033137001,129,"275 CHILVERS RD, CHEHALIS, WA, 98532","Match","Exact","275 CHILVERS RD, CHEHALIS, WA, 98532",180742045,"R"
149130,"275 CLASSON AVE 301","BROOKLYN","NY",11205,40.691389278,-73.9605058989999,130,"275 CLASSON AVE 301, BROOKLYN, NY, 11205","Match","Exact","275 CLASSON AVE, BROOKLYN, NY, 11205",59077916,"L"
149131,"275 COSMO AVE","MORGAN HILL","CA",95037,37.117077771,-121.650278766,131,"275 COSMO AVE, MORGAN HILL, CA, 95037","Match","Exact","275 COSMO AVE, MORGAN HILL, CA, 95037",123172686,"R"
149132,"275 CREEK LANE SOUTH","JORDAN","MN",55352,44.668130751,-93.634553555,132,"275 CREEK LANE SOUTH, JORDAN, MN, 55352","Match","Exact","275 CREEK LN S, JORDAN, MN, 55352",606964259,"L"
149133,"275 CROWN POINT DRIVE","FRANKFORT","KY",40601,38.2008492000001,-84.888914612,133,"275 CROWN POINT DRIVE, FRANKFORT, KY, 40601","Match","Exact","275 CROWN POINT DR, FRANKFORT, KY, 40601",97054100,"L"
149134,"275 CUMBERLAND PARKWAY MAILBOX 223","MECHANICSBURG","PA",17055,40.19357261,-76.98166064,134,"275 CUMBERLAND PARKWAY MAILBOX 223, MECHANICSBURG, PA, 17055","Match","Exact","275 CUMBERLAND PKWY, MECHANICSBURG, PA, 17055",60984463,"R"
149135,"275 DAKOTA DR","OZARK","MO",65721,36.9828417750001,-93.221685044,135,"275 DAKOTA DR, OZARK, MO, 65721","Match","Non_Exact","275 DAKOTA, OZARK, MO, 65721",625246873,"L"
149136,"275 E DOUGLAS AVENUE SUITE 115","EL CAJON","CA",92020,NA,NA,136,"275 E DOUGLAS AVENUE SUITE 115, EL CAJON, CA, 92020","Tie",NA,NA,NA,NA
149137,"275 E MAIN ST","PLATTEVILLE","WI",53818,42.733502398,-90.47553465,137,"275 E MAIN ST, PLATTEVILLE, WI, 53818","Match","Exact","275 E MAIN ST, PLATTEVILLE, WI, 53818",32755312,"L"
149138,"275 E STREET RD STE 4","FEASTERVILLE TREVOSE","PA",19053,NA,NA,138,"275 E STREET RD STE 4, FEASTERVILLE TREVOSE, PA, 19053","No_Match",NA,NA,NA,NA
149139,"275 E TROPICANA AVE","LAS VEGAS","NV",89169,36.1008746000001,-115.15825169,139,"275 E TROPICANA AVE, LAS VEGAS, NV, 89169","Match","Exact","275 E TROPICANA AVE, LAS VEGAS, NV, 89169",635326593,"R"
149140,"275 EAST STREET","PITTSFORD","NY",14534,43.058164848,-77.497588536,140,"275 EAST STREET, PITTSFORD, NY, 14534","Match","Exact","275 EAST ST, PITTSFORD, NY, 14534",14546966,"R"
149141,"275 ELEVENTH STREET","MANISTEE","MI",49660,44.2357150070001,-86.315372849,141,"275 ELEVENTH STREET, MANISTEE, MI, 49660","Match","Exact","275 11TH ST, MANISTEE, MI, 49660",146023319,"L"
149142,"275 ELLIOTT DRIVE","MENLO PARK","CA",94025,37.4599066700001,-122.150092189,142,"275 ELLIOTT DRIVE, MENLO PARK, CA, 94025","Match","Exact","275 ELLIOTT DR, MENLO PARK, CA, 94025",192412982,"L"
149143,"275 ELM ST","NEW LONDON","CT",6320,41.358301108,-72.113745767,143,"275 ELM ST, NEW LONDON, CT, 6320","Match","Exact","275 ELM ST, NEW LONDON, CT, 06320",56850415,"R"
149144,"275 EMERALD ST","BROOMFIELD","CO",80020,39.9195444710001,-105.077248124,144,"275 EMERALD ST, BROOMFIELD, CO, 80020","Match","Exact","275 EMERALD ST, BROOMFIELD, CO, 80020",210039946,"L"
149145,"275 EVANS AVENUE","MOUNT STERLING","KY",40353,38.0754493740001,-83.9527232569999,145,"275 EVANS AVENUE, MOUNT STERLING, KY, 40353","Match","Non_Exact","275 EVANS DR, MT STERLING, KY, 40353",32034934,"R"
149146,"275 FALCON RIDGE WAY SOUTH","HAMBURG","NJ",7419,41.1505658630001,-74.571221379,146,"275 FALCON RIDGE WAY SOUTH, HAMBURG, NJ, 7419","Match","Exact","275 FALCON RIDGE WAY S, HAMBURG, NJ, 07419",98015713,"L"
149147,"275 FITZPATRICK STREET","HILLSIDE","NJ",7205,40.693256395,-74.234239692,147,"275 FITZPATRICK STREET, HILLSIDE, NJ, 7205","Match","Exact","275 FITZPATRICK ST, HILLSIDE, NJ, 07205",60577363,"R"
149148,"275 FOX LANE","BURLESON","TX",76028,32.539245506,-97.293603342,148,"275 FOX LANE, BURLESON, TX, 76028","Match","Exact","275 FOX LN, BURLESON, TX, 76028",103546141,"L"
149149,"275 GLEN RIDDLE ROAD E24","MEDIA","PA",19063,39.895607817,-75.433806599,149,"275 GLEN RIDDLE ROAD E24, MEDIA, PA, 19063","Match","Exact","275 GLEN RIDDLE RD, MEDIA, PA, 19063",134869576,"R"
149150,"275 GRANT 742","SHERIDAN","AR",72150,34.3071647900001,-92.3744549479999,150,"275 GRANT 742, SHERIDAN, AR, 72150","Match","Exact","275 GRANT 742, SHERIDAN, AR, 72150",2497037,"R"
149151,"275 GRANT RD","NEWMARKET","NH",3857,43.0648068140001,-70.99304223,151,"275 GRANT RD, NEWMARKET, NH, 3857","Match","Exact","275 GRANT RD, NEWMARKET, NH, 03857",635754361,"L"
149152,"275 GREENWOOD AVENUE","BETHEL","CT",6801,41.374291715,-73.422325509,152,"275 GREENWOOD AVENUE, BETHEL, CT, 6801","Match","Exact","275 GREENWOOD AVE, BETHEL, CT, 06801",3262943,"R"
149153,"275 GRIGSBY CIRCLE","SALUDA","SC",29138,34.0220970840001,-81.7139126129999,153,"275 GRIGSBY CIRCLE, SALUDA, SC, 29138","Match","Exact","275 GRIGSBY CIR, SALUDA, SC, 29138",65524968,"L"
149154,"275 HANNAH DR","DRIPPING SPRINGS","TX",78620,30.248725075,-98.0330700819999,154,"275 HANNAH DR, DRIPPING SPRINGS, TX, 78620","Match","Exact","275 HANNAH DR, DRIPPING SPRINGS, TX, 78620",63847930,"L"
149155,"275 HARDSCRABBLE ROAD","ROSWELL","GA",30075,NA,NA,155,"275 HARDSCRABBLE ROAD, ROSWELL, GA, 30075","No_Match",NA,NA,NA,NA
149156,"275 IRON STREET","DETROIT","MI",48207,42.342996602,-83.0084949979999,156,"275 IRON STREET, DETROIT, MI, 48207","Match","Exact","275 IRON ST, DETROIT, MI, 48207",95483949,"L"
149157,"275 JOHN KNOX RD  APT E201","TALLAHASSEE","FL",32303,30.47449857,-84.284207323,157,"275 JOHN KNOX RD  APT E201, TALLAHASSEE, FL, 32303","Match","Exact","275 JOHN KNOX RD, TALLAHASSEE, FL, 32303",618809803,"L"
149158,"275 KINGSTON AVE","BROOKLYN","NY",11213,40.6702830400001,-73.9421022179999,158,"275 KINGSTON AVE, BROOKLYN, NY, 11213","Match","Exact","275 KINGSTON AVE, BROOKLYN, NY, 11213",640852592,"L"
149159,"275 KIOWA PLACE","BOULDER","CO",80303,39.9926419880001,-105.240683428,159,"275 KIOWA PLACE, BOULDER, CO, 80303","Match","Exact","275 KIOWA PL, BOULDER, CO, 80303",188163401,"L"
149160,"275 LAGUNA VILLAS DR","CALHOUN","LA",71225,32.5370249310001,-92.317007243,160,"275 LAGUNA VILLAS DR, CALHOUN, LA, 71225","Match","Exact","275 LAGUNA VILLAS DR, CALHOUN, LA, 71225",642491239,"L"
149161,"275 LAKE OF PINES DRIVE","JACKSON","MS",39206,32.375574844,-90.1964061199999,161,"275 LAKE OF PINES DRIVE, JACKSON, MS, 39206","Match","Exact","275 LAKE OF PINES DR, JACKSON, MS, 39206",611231484,"L"
149162,"275 LEE STREET","FAYETTEVILLE","GA",30214,33.444433025,-84.453961458,162,"275 LEE STREET, FAYETTEVILLE, GA, 30214","Match","Exact","275 LEE ST, FAYETTEVILLE, GA, 30214",75930642,"L"
149163,"275 LEMLEY RD","DOVER","AR",72837,35.4327507840001,-93.083283882,163,"275 LEMLEY RD, DOVER, AR, 72837","Match","Exact","275 LEMLEY RD, DOVER, AR, 72837",625555481,"R"
149164,"275 LEXINGTON PARKWAY N","ST. PAUL","MN",55104,NA,NA,164,"275 LEXINGTON PARKWAY N, ST. PAUL, MN, 55104","No_Match",NA,NA,NA,NA
149165,"275 LEXINGTON PARKWAY NORTH","SAINT PAUL","MN",55104,NA,NA,165,"275 LEXINGTON PARKWAY NORTH, SAINT PAUL, MN, 55104","No_Match",NA,NA,NA,NA
149166,"275 LLOYD STEARMAN DRIVE","GALESBURG","IL",61401,NA,NA,166,"275 LLOYD STEARMAN DRIVE, GALESBURG, IL, 61401","No_Match",NA,NA,NA,NA
149167,"275 LONGSPUR DRIVE","BRIGHTON","CO",80601,39.983545985,-104.745488117,167,"275 LONGSPUR DRIVE, BRIGHTON, CO, 80601","Match","Exact","275 LONGSPUR DR, BRIGHTON, CO, 80601",177421954,"L"
149168,"275 MADISON 7850","WESLEY","AR",72773,NA,NA,168,"275 MADISON 7850, WESLEY, AR, 72773","No_Match",NA,NA,NA,NA
149169,"275 MADISON AVE  35TH FLOOR","NEW YORK","NY",10016,40.7513982350001,-73.980304249,169,"275 MADISON AVE  35TH FLOOR, NEW YORK, NY, 10016","Match","Exact","275 MADISON AVE, NEW YORK, NY, 10016",59658659,"R"
149170,"275 MADISON AVENUE  6TH FLOOR","NEW YORK","NY",10016,40.7513982350001,-73.980304249,170,"275 MADISON AVENUE  6TH FLOOR, NEW YORK, NY, 10016","Match","Exact","275 MADISON AVE, NEW YORK, NY, 10016",59658659,"R"
149171,"275 MADISON AVENUE 6TH FLOOR","NEW YORK","NY",10016,40.7513982350001,-73.980304249,171,"275 MADISON AVENUE 6TH FLOOR, NEW YORK, NY, 10016","Match","Exact","275 MADISON AVE, NEW YORK, NY, 10016",59658659,"R"
149172,"275 MADISON AVENUE SUITE 1905","NEW YORK","NY",10016,40.7513982350001,-73.980304249,172,"275 MADISON AVENUE SUITE 1905, NEW YORK, NY, 10016","Match","Exact","275 MADISON AVE, NEW YORK, NY, 10016",59658659,"R"
149173,"275 MADISON AVENUE","PORT CHESTER","NY",10573,41.015715082,-73.658939588,173,"275 MADISON AVENUE, PORT CHESTER, NY, 10573","Match","Exact","275 MADISON AVE, PORT CHESTER, NY, 10573",139762144,"R"
149174,"275 MALCOLM X BLVD APT 1","BROOKLYN","NY",11233,40.682939688,-73.929048908,174,"275 MALCOLM X BLVD APT 1, BROOKLYN, NY, 11233","Match","Exact","275 MALCOLM X BLVD, BROOKLYN, NY, 11233",59082779,"L"
149175,"275 MARKET STREET SUITE 565","MINNEAPOLIS","MN",55405,44.980451729,-93.289665794,175,"275 MARKET STREET SUITE 565, MINNEAPOLIS, MN, 55405","Match","Exact","275 MARKET ST, MINNEAPOLIS, MN, 55405",43833171,"L"
149176,"275 MAWBEY ST","WOODBRIDGE","NJ",7095,40.560742771,-74.2877242,176,"275 MAWBEY ST, WOODBRIDGE, NJ, 7095","Match","Exact","275 MAWBEY ST, WOODBRIDGE, NJ, 07095",60275200,"L"
149177,"275 MEDICAL DR PO BOX 4473","CARMEL","IN",46082,39.9588475910001,-86.1221745619999,177,"275 MEDICAL DR PO BOX 4473, CARMEL, IN, 46082","Match","Non_Exact","275 MEDICAL DR, CARMEL, IN, 46032",29300698,"L"
149178,"275 MEDICAL DR SUITE 3544","CARMEL","IN",46082,39.9588475910001,-86.1221745619999,178,"275 MEDICAL DR SUITE 3544, CARMEL, IN, 46082","Match","Non_Exact","275 MEDICAL DR, CARMEL, IN, 46032",29300698,"L"
149179,"275 MIDDLE STREET","WEYMOUTH","MA",2189,42.2141979740001,-70.939607095,179,"275 MIDDLE STREET, WEYMOUTH, MA, 2189","Match","Exact","275 MIDDLE ST, WEYMOUTH, MA, 02189",87271858,"R"
149180,"275 MOHAWK TRAIL","LAKE ZURICH","IL",60047,42.193529631,-88.087612137,180,"275 MOHAWK TRAIL, LAKE ZURICH, IL, 60047","Match","Exact","275 MOHAWK TRL, LAKE ZURICH, IL, 60047",119760080,"R"
149181,"275 MONTGOMERY STREET","BROOKLYN","NY",11225,40.665654526,-73.955439407,181,"275 MONTGOMERY STREET, BROOKLYN, NY, 11225","Match","Exact","275 MONTGOMERY ST, BROOKLYN, NY, 11225",59079482,"L"
149182,"275 MT CARMEL AVE","HAMDEN","CT",6518,41.4213403100001,-72.895776849,182,"275 MT CARMEL AVE, HAMDEN, CT, 6518","Match","Exact","275 MOUNT CARMEL AVE, HAMDEN, CT, 06518",604746558,"R"
149183,"275 N 8TH ST BSMT","BROOKLYN","NY",11211,40.669939522,-73.986101909,183,"275 N 8TH ST BSMT, BROOKLYN, NY, 11211","Match","Non_Exact","275 8TH ST, BROOKLYN, NY, 11215",59075699,"L"
149184,"275 N ALDER ST","COQUILLE","OR",97423,43.1763097130001,-124.190096382,184,"275 N ALDER ST, COQUILLE, OR, 97423","Match","Exact","275 N ALDER ST, COQUILLE, OR, 97423",136991094,"L"
149185,"275 N FRONTAGE ROAD","FORSYTH","GA",31029,33.0473104270001,-83.943073842,185,"275 N FRONTAGE ROAD, FORSYTH, GA, 31029","Match","Exact","275 FRONTAGE RD, FORSYTH, GA, 31029",650700348,"R"
149186,"275 N MINNEWAWA AVE","CLOVIS","CA",93612,NA,NA,186,"275 N MINNEWAWA AVE, CLOVIS, CA, 93612","Tie",NA,NA,NA,NA
149187,"275 N QUEENS AVENUE","MASSAPEQUA","NY",11758,40.6964953340001,-73.468896624,187,"275 N QUEENS AVENUE, MASSAPEQUA, NY, 11758","Match","Exact","275 N QUEENS AVE, MASSAPEQUA, NY, 11758",147651038,"R"
149188,"275 NASON STREET","ST. ALBANS","VT",5478,44.802930616,-73.112389905,188,"275 NASON STREET, ST. ALBANS, VT, 5478","Match","Exact","275 NASON ST, SAINT ALBANS, VT, 05478",136537071,"R"
149189,"275 NE 28 STREET","BOCA RATON","FL",33431,26.375483479,-80.081731398,189,"275 NE 28 STREET, BOCA RATON, FL, 33431","Match","Exact","275 NE 28TH ST, BOCA RATON, FL, 33431",115293614,"L"
149190,"275 NORTH N STREET","SALT LAKE CITY","UT",84103,40.775655296,-111.864080306,190,"275 NORTH N STREET, SALT LAKE CITY, UT, 84103","Match","Non_Exact","275 N ST, SALT LAKE CITY, UT, 84103",176067975,"L"
149191,"275 NW 8TH ST","MIAMI","FL",33136,25.7816787400001,-80.1991988999999,191,"275 NW 8TH ST, MIAMI, FL, 33136","Match","Exact","275 NW 8TH ST, MIAMI, FL, 33136",116259953,"R"
149192,"275 OAKFORD STREET","WEST HEMPSTEAD","NY",11552,40.689420775,-73.655899155,192,"275 OAKFORD STREET, WEST HEMPSTEAD, NY, 11552","Match","Exact","275 OAKFORD ST, W HEMPSTEAD, NY, 11552",147674665,"L"
149193,"275 OAKVUE ROAD","PLEASANT HILL","CA",94523,37.9399987570001,-122.076824719,193,"275 OAKVUE ROAD, PLEASANT HILL, CA, 94523","Match","Exact","275 OAKVUE RD, PLEASANT HILL, CA, 94523",607803835,"R"
149194,"275 OHIO ST","TERRE HAUTE","IN",47807,39.4654221050001,-87.414399665,194,"275 OHIO ST, TERRE HAUTE, IN, 47807","Match","Exact","275 OHIO ST, TERRE HAUTE, IN, 47807",606463188,"R"
149195,"275 ORANGE AVENUE","AUBURN","CA",95603,38.895389564,-121.071011505,195,"275 ORANGE AVENUE, AUBURN, CA, 95603","Match","Non_Exact","275 ORANGE ST, AUBURN, CA, 95603",624520335,"L"
149196,"275 PALAMON DR","GROVETOWN","GA",30813,33.4769018050001,-82.2286964049999,196,"275 PALAMON DR, GROVETOWN, GA, 30813","Match","Exact","275 PALAMON DR, GROVETOWN, GA, 30813",640763774,"R"
149197,"275 PARK AVE APT 4S","BROOKLYN","NY",11205,40.696045654,-73.9679451819999,197,"275 PARK AVE APT 4S, BROOKLYN, NY, 11205","Match","Exact","275 PARK AVE, BROOKLYN, NY, 11205",59077769,"L"
149198,"275 PARK FORREST DR","PONTE VEDRA","FL",32081,30.1389872290001,-81.404154496,198,"275 PARK FORREST DR, PONTE VEDRA, FL, 32081","Match","Non_Exact","275 PARK FOREST DR, PONTE VEDRA, FL, 32081",650383294,"L"
149199,"275 PENNSYLVANIA AVENUE","FREEPORT","NY",11520,40.665855832,-73.596488397,199,"275 PENNSYLVANIA AVENUE, FREEPORT, NY, 11520","Match","Exact","275 PENNSYLVANIA AVE, FREEPORT, NY, 11520",147631068,"L"
149200,"275 PETERS STREET","ATLANTA","GA",30313,33.7470377340001,-84.402158019,200,"275 PETERS STREET, ATLANTA, GA, 30313","Match","Non_Exact","275 PETERS ST SW, ATLANTA, GA, 30313",618355332,"R"
149201,"275 POLLARD ROAD","NORTHBRIDGE","MA",1534,42.1591961240001,-71.6867249009999,201,"275 POLLARD ROAD, NORTHBRIDGE, MA, 1534","Match","Exact","275 POLLARD RD, NORTHBRIDGE, MA, 01534",648251307,"L"
149202,"275 POPLAR LN","MOREHEAD","KY",40351,38.2331988510001,-83.5123167089999,202,"275 POPLAR LN, MOREHEAD, KY, 40351","Match","Exact","275 POPLAR LN, MOREHEAD, KY, 40351",39628904,"L"
149203,"275 PORT ROYAL DR","TOMS RIVER,","NJ",8757,39.972806629,-74.2695883969999,203,"275 PORT ROYAL DR, TOMS RIVER,, NJ, 8757","Match","Exact","275 PORT ROYAL DR, TOMS RIVER, NJ, 08757",647819480,"R"
149204,"275 POST RD E 10TH ST UNIT 5169","WESTPORT","CT",6881,NA,NA,204,"275 POST RD E 10TH ST UNIT 5169, WESTPORT, CT, 6881","No_Match",NA,NA,NA,NA
149205,"275 PRAIRIE DRIVE","NORTH BABYLON","NY",11703,40.742104684,-73.337641715,205,"275 PRAIRIE DRIVE, NORTH BABYLON, NY, 11703","Match","Exact","275 PRAIRIE DR, NORTH BABYLON, NY, 11703",113976157,"R"
149206,"275 PROSPECT ST","NORWOOD","MA",2062,42.198815547,-71.207468992,206,"275 PROSPECT ST, NORWOOD, MA, 2062","Match","Exact","275 PROSPECT ST, NORWOOD, MA, 02062",87294252,"R"
149207,"275 PUTNAM AVE FL 2","CAMBRIDGE","MA",2139,42.362813515,-71.113638119,207,"275 PUTNAM AVE FL 2, CAMBRIDGE, MA, 2139","Match","Exact","275 PUTNAM AVE, CAMBRIDGE, MA, 02139",86869672,"R"
149208,"275 RANDOM DRIVE","HAMILTON","OH",45013,39.4351259100001,-84.569403135,208,"275 RANDOM DRIVE, HAMILTON, OH, 45013","Match","Exact","275 RANDOM DR, HAMILTON, OH, 45013",113820393,"L"
149209,"275 RIO WEST DRIVE","EL PASO","TX",79932,31.8805291420001,-106.598402688,209,"275 RIO WEST DRIVE, EL PASO, TX, 79932","Match","Exact","275 RIO WEST DR, EL PASO, TX, 79932",652094751,"R"
149210,"275 ROQUETTE AVE","FLORAL PARK","NY",11001,40.7132233660001,-73.70317068,210,"275 ROQUETTE AVE, FLORAL PARK, NY, 11001","Match","Exact","275 ROQUETTE AVE, FLORAL PARK, NY, 11001",642496825,"L"
149211,"275 ROSE AVE STE 207","PLEASANTON","CA",94566,37.660789724,-121.876741614,211,"275 ROSE AVE STE 207, PLEASANTON, CA, 94566","Match","Exact","275 ROSE AVE, PLEASANTON, CA, 94566",125032477,"R"
149212,"275 ROSE ST","WAHIAWA","HI",96786,21.4958088830001,-158.018189437,212,"275 ROSE ST, WAHIAWA, HI, 96786","Match","Exact","275 ROSE ST, WAHIAWA, HI, 96786",203322426,"L"
149213,"275 S HARRISON ST UNIT 408","DENVER","CO",80209,39.7205404590001,-104.941343751,213,"275 S HARRISON ST UNIT 408, DENVER, CO, 80209","Match","Non_Exact","275 HARRISON ST, DENVER, CO, 80206",177338514,"L"
149214,"275 SADDLE RIDGE ROAD","EVANSTON","WY",82930,41.254868141,-110.954183561,214,"275 SADDLE RIDGE ROAD, EVANSTON, WY, 82930","Match","Exact","275 SADDLE RIDGE RD, EVANSTON, WY, 82930",606032282,"L"
149215,"275 SCHOOL ROAD","DRY RIDGE","KY",41035,NA,NA,215,"275 SCHOOL ROAD, DRY RIDGE, KY, 41035","No_Match",NA,NA,NA,NA
149216,"275 SHIPPEE RD","OROVILLE","CA",95965,39.599842111,-121.670406356,216,"275 SHIPPEE RD, OROVILLE, CA, 95965","Match","Exact","275 SHIPPEE RD, OROVILLE, CA, 95965",648198276,"L"
149217,"275 SILVER MAPLE DR","MANDEVILLE","LA",70471,30.391173796,-90.108442736,217,"275 SILVER MAPLE DR, MANDEVILLE, LA, 70471","Match","Exact","275 SILVER MAPLE DR, MANDEVILLE, LA, 70471",111262439,"L"
149218,"275 SMITHVILLE ROAD N","LEESBURG","GA",31763,NA,NA,218,"275 SMITHVILLE ROAD N, LEESBURG, GA, 31763","Tie",NA,NA,NA,NA
149219,"275 SOUTH STREET LOBBY OFFICE","NEW YORK","NY",10002,NA,NA,219,"275 SOUTH STREET LOBBY OFFICE, NEW YORK, NY, 10002","No_Match",NA,NA,NA,NA
149220,"275 SPOUT BROOK ROAD","CORTLANDT MANOR","NY",10567,41.3281597320001,-73.908898116,220,"275 SPOUT BROOK ROAD, CORTLANDT MANOR, NY, 10567","Match","Non_Exact","275 SPROUT BROOK RD, CORTLANDT MANOR, NY, 10567",640547575,"L"
149221,"275 STONY BROOK UNION","SUNY STONY BROOK","NY",11794,NA,NA,221,"275 STONY BROOK UNION, SUNY STONY BROOK, NY, 11794","No_Match",NA,NA,NA,NA
149222,"275 SW PAGODA TERRACE","PORT ST LUCIE","FL",34984,27.2786556140001,-80.350991198,222,"275 SW PAGODA TERRACE, PORT ST LUCIE, FL, 34984","Match","Exact","275 SW PAGODA TER, PORT ST LUCIE, FL, 34984",120152907,"R"
149223,"275 THIRD AVE","CHULA VISTA","CA",91910,32.6420270140001,-117.080199417,223,"275 THIRD AVE, CHULA VISTA, CA, 91910","Match","Exact","275 3RD AVE, CHULA VISTA, CA, 91910",195355860,"L"
149224,"275 TROWBRIDGE LANE","LAWRENCEVILLE","GA",30043,34.026121011,-84.017159028,224,"275 TROWBRIDGE LANE, LAWRENCEVILLE, GA, 30043","Match","Exact","275 TROWBRIDGE LN, LAWRENCEVILLE, GA, 30043",88941819,"L"
149225,"275 W 39TH ST 6TH FL","NEW YORK","NY",10018,40.755009091,-73.9903967449999,225,"275 W 39TH ST 6TH FL, NEW YORK, NY, 10018","Match","Non_Exact","275 W 39TH ST, NEW YORK, NY, 10018",59658584,"R"
149226,"275 W GREENE DR","MOSHEIM","TN",37818,36.184351065,-82.9741629919999,226,"275 W GREENE DR, MOSHEIM, TN, 37818","Match","Exact","275 W GREENE DR, MOSHEIM, TN, 37818",127752808,"R"
149227,"275 W SENECA TPKE","SYRACUSE","NY",13207,43.001525128,-76.1492476499999,227,"275 W SENECA TPKE, SYRACUSE, NY, 13207","Match","Exact","275 W SENECA TPKE, SYRACUSE, NY, 13207",46609928,"L"
149228,"275 W WOODRUFF AVE 200 KNOWLTON","COLUMBUS","OH",43210,40.004092848,-83.016986737,228,"275 W WOODRUFF AVE 200 KNOWLTON, COLUMBUS, OH, 43210","Match","Non_Exact","275 W WOODRUFF AVE, COLUMBUS, OH, 43210",218652630,"L"
149229,"275 WALNUT STREET","EAST AURORA","NY",14052,42.7606539650001,-78.620195844,229,"275 WALNUT STREET, EAST AURORA, NY, 14052","Match","Exact","275 WALNUT ST, EAST AURORA, NY, 14052",48314305,"R"
149230,"275 WASHINGTON AVENUE","NEW ROCHELLE","NY",10801,40.9098841740001,-73.7973868079999,230,"275 WASHINGTON AVENUE, NEW ROCHELLE, NY, 10801","Match","Exact","275 WASHINGTON AVE, NEW ROCHELLE, NY, 10801",139750003,"R"
149231,"275 WATER BROOK DRIVE","OXFORD","GA",30054,33.6778070080001,-83.90261022,231,"275 WATER BROOK DRIVE, OXFORD, GA, 30054","Match","Exact","275 WATER BROOK DR, OXFORD, GA, 30054",618466103,"L"
149232,"275 WESLEYAN DRIVE","MCADENVILLE","NC",28101,NA,NA,232,"275 WESLEYAN DRIVE, MCADENVILLE, NC, 28101","No_Match",NA,NA,NA,NA
149233,"275 WEST 150TH STREET UNIT 3C","NEW YORK","NY",10039,40.825594537,-73.938614034,233,"275 WEST 150TH STREET UNIT 3C, NEW YORK, NY, 10039","Match","Exact","275 W 150TH ST, NEW YORK, NY, 10039",59656271,"R"
149234,"275 WEST 238TH STREET APT 5H","BRONX","NY",10463,40.885401132,-73.901488022,234,"275 WEST 238TH STREET APT 5H, BRONX, NY, 10463","Match","Exact","275 W 238TH ST, BRONX, NY, 10463",80296412,"R"
149235,"275 WEST FOURTH STREET","MARYSVILLE","OH",43040,40.23767975,-83.369478483,235,"275 WEST FOURTH STREET, MARYSVILLE, OH, 43040","Match","Exact","275 W 4TH ST, MARYSVILLE, OH, 43040",135335115,"L"
149236,"275 WEST LANE","FAYETTEVILLE","GA",30214,33.5236584260001,-84.5652739499999,236,"275 WEST LANE, FAYETTEVILLE, GA, 30214","Match","Exact","275 WEST LN, FAYETTEVILLE, GA, 30214",75932435,"R"
149237,"275 WEST RIO VISTA AVENUE SUITE 3","BURLINGTON","WA",98233,48.4717240580001,-122.338541621,237,"275 WEST RIO VISTA AVENUE SUITE 3, BURLINGTON, WA, 98233","Match","Exact","275 W RIO VISTA AVE, BURLINGTON, WA, 98233",183650145,"L"
149238,"275 WEST SIDE AVENUE","JERSEY CITY","NJ",7305,40.71197091,-74.092157905,238,"275 WEST SIDE AVENUE, JERSEY CITY, NJ, 7305","Match","Exact","275 W SIDE AVE, JERSEY CITY, NJ, 07305",59602143,"L"
149239,"275 WHITE PINE ROAD","DUBOIS","PA",15801,41.10409894,-78.7990587149999,239,"275 WHITE PINE ROAD, DUBOIS, PA, 15801","Match","Exact","275 WHITE PINE RD, DUBOIS, PA, 15801",50484302,"L"
149240,"275 WILMORE LAB AUBURN UNIVERSITY","AUBURN","AL",36849,NA,NA,240,"275 WILMORE LAB AUBURN UNIVERSITY, AUBURN, AL, 36849","No_Match",NA,NA,NA,NA
149241,"275 ZIEGLERVILLE ROAD","SCHWENKSVILLE","PA",19473,40.2807041930001,-75.465641967,241,"275 ZIEGLERVILLE ROAD, SCHWENKSVILLE, PA, 19473","Match","Exact","275 ZIEGLERVILLE RD, SCHWENKSVILLE, PA, 19473",135066635,"R"
149242,"275 ZILG DRIVE","TOMS RIVER","NJ",8753,40.0173807640001,-74.1205468489999,242,"275 ZILG DRIVE, TOMS RIVER, NJ, 8753","Match","Exact","275 ZILG DR, TOMS RIVER, NJ, 08753",203736510,"R"
149243,"2750 14TH ST NW PH7","WASHINGTON","DC",20009,38.925136224,-77.032285668,243,"2750 14TH ST NW PH7, WASHINGTON, DC, 20009","Match","Exact","2750 14TH ST NW, WASHINGTON, DC, 20009",76223026,"L"
149244,"2750 AINA MAHI AI ST","LAHAINA","HI",96761,20.9387640300001,-156.67002155,244,"2750 AINA MAHI AI ST, LAHAINA, HI, 96761","Match","Non_Exact","2750 AINA MAHIAI PL, LAHAINA, HI, 96761",85057004,"R"
149245,"2750 ARTESIA BLVD SUITE 435","REDONDO BEACH","CA",90278,33.8728560220001,-118.360059636,245,"2750 ARTESIA BLVD SUITE 435, REDONDO BEACH, CA, 90278","Match","Exact","2750 ARTESIA BLVD, REDONDO BEACH, CA, 90278",642863415,"L"
149246,"2750 BELLFLOWER BLVD SUITE 210B","LONG BEACH","CA",90815,33.8061728590001,-118.12526211,246,"2750 BELLFLOWER BLVD SUITE 210B, LONG BEACH, CA, 90815","Match","Non_Exact","2750 N BELLFLOWER BLVD, LONG BEACH, CA, 90815",141742418,"R"
149247,"2750 BRINKMAN DRIVE NE","BEMIDJI","MN",56601,47.4878938370001,-94.821394764,247,"2750 BRINKMAN DRIVE NE, BEMIDJI, MN, 56601","Match","Exact","2750 BRINKMAN DR NE, BEMIDJI, MN, 56601",176426134,"R"
149248,"2750 BROADWELL DR UNIT 104","RALEIGH","NC",27606,35.770051418,-78.686548906,248,"2750 BROADWELL DR UNIT 104, RALEIGH, NC, 27606","Match","Exact","2750 BROADWELL DR, RALEIGH, NC, 27606",612817353,"R"
149249,"2750 BUCKIUS STREET","PHILADELPHIA","PA",19137,40.0002752500001,-75.069584898,249,"2750 BUCKIUS STREET, PHILADELPHIA, PA, 19137","Match","Exact","2750 BUCKIUS ST, PHILADELPHIA, PA, 19137",131429560,"R"
149250,"2750 BUFFALO TRAIL","MORRISTOWN","TN",37814,NA,NA,250,"2750 BUFFALO TRAIL, MORRISTOWN, TN, 37814","No_Match",NA,NA,NA,NA
149251,"2750 CRABAPPLE RD","GOLDEN","CO",80401,39.756013963,-105.152466895,251,"2750 CRABAPPLE RD, GOLDEN, CO, 80401","Match","Exact","2750 CRABAPPLE RD, GOLDEN, CO, 80401",177285734,"R"
149252,"2750 CRAFTON PARK","COLUMBUS","OH",43221,40.0095582810001,-83.082983323,252,"2750 CRAFTON PARK, COLUMBUS, OH, 43221","Match","Exact","2750 CRAFTON PARK, COLUMBUS, OH, 43221",642841452,"L"
149253,"2750 DILLARD ROAD SUITE 9","EUSTIS","FL",32726,28.8282309300001,-81.6958368809999,253,"2750 DILLARD ROAD SUITE 9, EUSTIS, FL, 32726","Match","Exact","2750 DILLARD RD, EUSTIS, FL, 32726",94178266,"L"
149254,"2750 DIXWELL AVENUE 3RD FLOOR","HAMDEN","CT",6518,41.382794275,-72.9085409899999,254,"2750 DIXWELL AVENUE 3RD FLOOR, HAMDEN, CT, 6518","Match","Exact","2750 DIXWELL AVE, HAMDEN, CT, 06518",3711976,"L"
149255,"2750 DUNIVAN CIRCLE","AMARILLO","TX",79109,35.1896314890001,-101.867848788,255,"2750 DUNIVAN CIRCLE, AMARILLO, TX, 79109","Match","Non_Exact","2750 DUNIVEN CIR, AMARILLO, TX, 79109",182480582,"R"
149256,"2750 E GALA ST","MERIDIAN","ID",83642,43.5891879640001,-116.361307116,256,"2750 E GALA ST, MERIDIAN, ID, 83642","Match","Non_Exact","2750 E GALA CT, MERIDIAN, ID, 83642",647622701,"L"
149257,"2750 E QUINN AVE","TERRE HAUTE","IN",47805,NA,NA,257,"2750 E QUINN AVE, TERRE HAUTE, IN, 47805","Tie",NA,NA,NA,NA
149258,"2750 E TRINITY MILLS RD 303","CARROLLTON","TX",75006,32.986673039,-96.8584696359999,258,"2750 E TRINITY MILLS RD 303, CARROLLTON, TX, 75006","Match","Exact","2750 TRINITY MILLS RD, CARROLLTON, TX, 75006",102895710,"R"
149259,"2750 E WT HARRIS BLVD SUITE 128","CHARLOTTE","NC",28213,35.2773418150001,-80.72714022,259,"2750 E WT HARRIS BLVD SUITE 128, CHARLOTTE, NC, 28213","Match","Non_Exact","2750 E WT HARRIS BLVD, CHARLOTTE, NC, 28213",642241406,"R"
149260,"2750 FORDHAM ROAD","DALLAS","TX",75216,32.7079225520001,-96.779477863,260,"2750 FORDHAM ROAD, DALLAS, TX, 75216","Match","Exact","2750 FORDHAM RD, DALLAS, TX, 75216",102952157,"R"
149261,"2750 GABLE RD","ST HELENS","OR",97051,45.851434931,-122.843487544,261,"2750 GABLE RD, ST HELENS, OR, 97051","Match","Exact","2750 GABLE RD, SAINT HELENS, OR, 97051",158082627,"R"
149262,"2750 GIMLET CREEK ROAD","LAWRENCEBURG","TN",38464,35.251415996,-87.209033866,262,"2750 GIMLET CREEK ROAD, LAWRENCEBURG, TN, 38464","Match","Exact","2750 GIMLET CREEK RD, LAWRENCEBURG, TN, 38464",607894740,"R"
149263,"2750 GLADES CIRCLE SUITE 500","WESTON","FL",33327,NA,NA,263,"2750 GLADES CIRCLE SUITE 500, WESTON, FL, 33327","No_Match",NA,NA,NA,NA
149264,"2750 HEIGHTS CIRCLE","GREENBRIER","TN",37073,NA,NA,264,"2750 HEIGHTS CIRCLE, GREENBRIER, TN, 37073","Tie",NA,NA,NA,NA
149265,"2750 HOLLY HALL RD","HOUSTON","TX",77054,29.685436168,-95.385896493,265,"2750 HOLLY HALL RD, HOUSTON, TX, 77054","Match","Non_Exact","2750 HOLLY HALL ST, HOUSTON, TX, 77054",625008283,"R"
149266,"2750 HOLLY HALL ST APT 1712","HOUSTON","TX",77054,29.685436168,-95.385896493,266,"2750 HOLLY HALL ST APT 1712, HOUSTON, TX, 77054","Match","Exact","2750 HOLLY HALL ST, HOUSTON, TX, 77054",625008283,"R"
149267,"2750 HOMECREST AVE APT 416","BROOKLYN","NY",11235,40.5846029800001,-73.956372922,267,"2750 HOMECREST AVE APT 416, BROOKLYN, NY, 11235","Match","Exact","2750 HOMECREST AVE, BROOKLYN, NY, 11235",59091686,"R"
149268,"2750 KILLARNEY DRIVE SUITE 203","WOODBRIDGE","VA",22192,38.658272019,-77.294043855,268,"2750 KILLARNEY DRIVE SUITE 203, WOODBRIDGE, VA, 22192","Match","Exact","2750 KILLARNEY DR, WOODBRIDGE, VA, 22192",207158295,"L"
149269,"2750 LAFAYETTE AVE","BRONX","NY",10465,40.827576294,-73.82954338,269,"2750 LAFAYETTE AVE, BRONX, NY, 10465","Match","Exact","2750 LAFAYETTE AVE, BRONX, NY, 10465",80307115,"R"
149270,"2750 MISSION ROAD","TALLAHASSEE","FL",32304,30.4564284750001,-84.339874965,270,"2750 MISSION ROAD, TALLAHASSEE, FL, 32304","Match","Exact","2750 MISSION RD, TALLAHASSEE, FL, 32304",82893052,"R"
149271,"2750 N UNIVERSITY AVE STE 100","PROVO","UT",84604,40.269985762,-111.656993445,271,"2750 N UNIVERSITY AVE STE 100, PROVO, UT, 84604","Match","Non_Exact","2750 N UNIVERSITY AVE, PROVO, UT, 84604",635581174,"R"
149272,"2750 NE HARNEY DRIVE","NEWPORT","OR",97365,44.6559810570001,-124.04610606,272,"2750 NE HARNEY DRIVE, NEWPORT, OR, 97365","Match","Non_Exact","2750 NE HARNEY ST, NEWPORT, OR, 97365",155931388,"L"
149273,"2750 NORTH DALE ST UNIT 50","ROSEVILLE","MN",55113,NA,NA,273,"2750 NORTH DALE ST UNIT 50, ROSEVILLE, MN, 55113","No_Match",NA,NA,NA,NA
149274,"2750 NORTHAVEN RD SUITE 304","DALLAS","TX",75229,32.903830752,-96.8856810779999,274,"2750 NORTHAVEN RD SUITE 304, DALLAS, TX, 75229","Match","Exact","2750 NORTHAVEN RD, DALLAS, TX, 75229",649820350,"R"
149275,"2750 NW 155 TERR","MIAMI","FL",33054,25.916004527,-80.245791486,275,"2750 NW 155 TERR, MIAMI, FL, 33054","Match","Non_Exact","2750 NW 155TH TER, MIAMI GARDENS, FL, 33054",116028382,"L"
149276,"2750 NW HAILE DEAN RD","ARCADIA","FL",34266,27.23082951,-81.9325581689999,276,"2750 NW HAILE DEAN RD, ARCADIA, FL, 34266","Match","Exact","2750 HAILE DEAN RD, ARCADIA, FL, 34266",635831729,"R"
149277,"2750 OLINVILLE AVENUE APT 4K","BRONX","NY",10467,40.8660122430001,-73.868339476,277,"2750 OLINVILLE AVENUE APT 4K, BRONX, NY, 10467","Match","Exact","2750 OLINVILLE AVE, BRONX, NY, 10467",80303402,"R"
149278,"2750 ORANGE ST","RIVERSIDE","CA",92501,33.9905532180001,-117.367018835,278,"2750 ORANGE ST, RIVERSIDE, CA, 92501","Match","Exact","2750 ORANGE ST, RIVERSIDE, CA, 92501",194742016,"L"
149279,"2750 PARK AVENUE","MINNEAPOLIS","MN",55407,44.952825299,-93.2651596869999,279,"2750 PARK AVENUE, MINNEAPOLIS, MN, 55407","Match","Non_Exact","2750 PARK AVE S, MINNEAPOLIS, MN, 55407",43632734,"R"
149280,"2750 PARK TRAIL LANE","CLEARWATER","FL",33759,27.9757508330001,-82.7235942029999,280,"2750 PARK TRAIL LANE, CLEARWATER, FL, 33759","Match","Exact","2750 PARK TRAIL LN, CLEARWATER, FL, 33759",124683502,"L"
149281,"2750 PREMIER ST","FORT WORTH","TX",76111,32.7961015720001,-97.314133312,281,"2750 PREMIER ST, FORT WORTH, TX, 76111","Match","Exact","2750 PREMIER ST, FORT WORTH, TX, 76111",102127552,"R"
149282,"2750 PRUNERIDGE AVE","SANTA CLARA","CA",95051,37.3299568460001,-121.973384547,282,"2750 PRUNERIDGE AVE, SANTA CLARA, CA, 95051","Match","Exact","2750 PRUNERIDGE AVE, SANTA CLARA, CA, 95051",650441411,"L"
149283,"2750 S PRESTON RD SUITE 116-182","CELINA","TX",75009,33.289891761,-96.783743463,283,"2750 S PRESTON RD SUITE 116-182, CELINA, TX, 75009","Match","Non_Exact","2750 S PRESTON RD, CELINA, TX, 75009",653257461,"L"
149284,"2750 SAND HOLLOW CT","CLEARWATER","FL",33761,28.0147650380001,-82.7237444529999,284,"2750 SAND HOLLOW CT, CLEARWATER, FL, 33761","Match","Exact","2750 SAND HOLLOW CT, CLEARWATER, FL, 33761",124742366,"L"
149285,"2750 SHED RD STE D2","BOSSIER CITY","LA",71111,32.532282933,-93.707857071,285,"2750 SHED RD STE D2, BOSSIER CITY, LA, 71111","Match","Exact","2750 SHED RD, BOSSIER CITY, LA, 71111",108534017,"R"
149286,"2750 SUN RISE LANE","GRAND PRAIRIE","TX",75052,32.642932097,-97.05370247,286,"2750 SUN RISE LANE, GRAND PRAIRIE, TX, 75052","Match","Exact","2750 SUN RISE LN, GRAND PRAIRIE, TX, 75052",617672882,"R"
149287,"2750 TALL MAPLE LOOP","OCOEE","FL",34761,28.6049171240001,-81.512273912,287,"2750 TALL MAPLE LOOP, OCOEE, FL, 34761","Match","Exact","2750 TALL MAPLE LOOP, OCOEE, FL, 34761",94346898,"R"
149288,"2750 TAYLOR AVENUE SUITE A 36","ORLANDO","FL",32806,28.5125386450001,-81.377276028,288,"2750 TAYLOR AVENUE SUITE A 36, ORLANDO, FL, 32806","Match","Exact","2750 TAYLOR AVE, ORLANDO, FL, 32806",639773272,"R"
149289,"2750 THISEL DOWN DR","STATHAM","GA",30666,33.936896323,-83.581883095,289,"2750 THISEL DOWN DR, STATHAM, GA, 30666","Match","Exact","2750 THISEL DOWN DR, STATHAM, GA, 30666",628066600,"R"
149290,"2750 TROTTERS WALK TRL","SNELLVILLE","GA",30078,33.8361827160001,-84.0353262419999,290,"2750 TROTTERS WALK TRL, SNELLVILLE, GA, 30078","Match","Exact","2750 TROTTERS WALK TRL, SNELLVILLE, GA, 30078",88964110,"L"
149291,"2750 VISTA PARKWAY","ERIE","CO",80516,40.0030190900001,-105.02578683,291,"2750 VISTA PARKWAY, ERIE, CO, 80516","Match","Exact","2750 VISTA PKWY, ERIE, CO, 80516",630546200,"L"
149292,"2750 W STEELE LN","SANTA ROSA","CA",95403,38.459732403,-122.746678153,292,"2750 W STEELE LN, SANTA ROSA, CA, 95403","Match","Exact","2750 W STEELE LN, SANTA ROSA, CA, 95403",604973715,"R"
149293,"2750 WALLINGFORD DR 1606","HOUSTON","TX",77042,29.7343491080001,-95.563868311,293,"2750 WALLINGFORD DR 1606, HOUSTON, TX, 77042","Match","Exact","2750 WALLINGFORD DR, HOUSTON, TX, 77042",96619384,"L"
149294,"2750 WEST COLUMBUS AVENUE","CHICAGO","IL",60652,41.755677803,-87.690815673,294,"2750 WEST COLUMBUS AVENUE, CHICAGO, IL, 60652","Match","Exact","2750 W COLUMBUS AVE, CHICAGO, IL, 60652",642123617,"R"
149295,"2750 WEST WASHINGTON BOULEVARD","CHICAGO","IL",60612,41.8829151370001,-87.695259487,295,"2750 WEST WASHINGTON BOULEVARD, CHICAGO, IL, 60612","Match","Exact","2750 W WASHINGTON BLVD, CHICAGO, IL, 60612",605084723,"R"
149296,"2750 WHEATSTONE STREET UNIT 83","SAN DIEGO","CA",92111,32.792491496,-117.178138607,296,"2750 WHEATSTONE STREET UNIT 83, SAN DIEGO, CA, 92111","Match","Exact","2750 WHEATSTONE ST, SAN DIEGO, CA, 92111",647667656,"L"
149297,"2750 WILLIAMSON PLACE STE 116","DUPONT","WA",98327,NA,NA,297,"2750 WILLIAMSON PLACE STE 116, DUPONT, WA, 98327","No_Match",NA,NA,NA,NA
149298,"2750 YERBA BUENA RD","SAN JOSE","CA",95121,37.2976897570001,-121.774173507,298,"2750 YERBA BUENA RD, SAN JOSE, CA, 95121","Match","Exact","2750 YERBA BUENA RD, SAN JOSE, CA, 95121",122998964,"R"
149299,"2750 YOSEMITE AVE SO","MINNEAPOLIS","MN",55416,44.953916722,-93.3533315459999,299,"2750 YOSEMITE AVE SO, MINNEAPOLIS, MN, 55416","Match","Exact","2750 YOSEMITE AVE S, MINNEAPOLIS, MN, 55416",43755558,"R"
149300,"27500 COSGROVE DR","WARREN","MI",48092,42.4953569210001,-83.0602508109999,300,"27500 COSGROVE DR, WARREN, MI, 48092","Match","Exact","27500 COSGROVE DR, WARREN, MI, 48092",110669382,"R"
149301,"27500 FULSHEAR BEND DR","FULSHEAR","TX",77441,NA,NA,301,"27500 FULSHEAR BEND DR, FULSHEAR, TX, 77441","No_Match",NA,NA,NA,NA
149302,"27502 KINGSTON PIKE","CIRCLEVILLE","OH",43113,39.5305247410001,-82.933117596,302,"27502 KINGSTON PIKE, CIRCLEVILLE, OH, 43113","Match","Exact","27502 KINGSTON PIKE, CIRCLEVILLE, OH, 43113",37458454,"R"
149303,"27502 PEPPER TRAIL COURT","FULSHEAR","TX",77441,29.701715354,-95.8530724569999,303,"27502 PEPPER TRAIL COURT, FULSHEAR, TX, 77441","Match","Exact","27502 PEPPER TRAIL CT, FULSHEAR, TX, 77441",648707869,"R"
149304,"27504 NOLAND DRIVE","LEBANON","MO",65536,37.7402363100001,-92.748371017,304,"27504 NOLAND DRIVE, LEBANON, MO, 65536","Match","Exact","27504 NOLAND DR, LEBANON, MO, 65536",26129005,"R"
149305,"27506 GRACEFIELD LANE","FULSHEAR","TX",77441,29.722360512,-95.847616423,305,"27506 GRACEFIELD LANE, FULSHEAR, TX, 77441","Match","Exact","27506 GRACEFIELD LN, FULSHEAR, TX, 77441",641052290,"L"
149306,"27507 WAIKIKI COURT","WESLEY CHAPEL","FM",33544,NA,NA,306,"27507 WAIKIKI COURT, WESLEY CHAPEL, FM, 33544","No_Match",NA,NA,NA,NA
149307,"27508 E PINK HILL RD","INDEPENDENCE","MO",64057,NA,NA,307,"27508 E PINK HILL RD, INDEPENDENCE, MO, 64057","No_Match",NA,NA,NA,NA
149308,"2751 4TH STREET  BOX 135","SANTA ROSA","CA",95405,NA,NA,308,"2751 4TH STREET  BOX 135, SANTA ROSA, CA, 95405","No_Match",NA,NA,NA,NA
149309,"2751 ACTON STREET","BERKELEY","CA",94702,37.856814952,-122.282386388,309,"2751 ACTON STREET, BERKELEY, CA, 94702","Match","Exact","2751 ACTON ST, BERKELEY, CA, 94702",124994222,"L"
149310,"2751 COUNTY ROAD 30","FLORENCE","AL",35634,34.874802538,-87.626118326,310,"2751 COUNTY ROAD 30, FLORENCE, AL, 35634","Match","Exact","2751 CO RD 30, FLORENCE, AL, 35634",41331816,"R"
149311,"2751 FOURTH STREET STE 296","SANTA ROSA","CA",95405,NA,NA,311,"2751 FOURTH STREET STE 296, SANTA ROSA, CA, 95405","No_Match",NA,NA,NA,NA
149312,"2751 HAMMONDTON RD APT V4","MARIETTA","GA",30060,33.887281043,-84.567503497,312,"2751 HAMMONDTON RD APT V4, MARIETTA, GA, 30060","Match","Exact","2751 HAMMONDTON RD, MARIETTA, GA, 30060",17267645,"L"
149313,"2751 HARTLEY PARKWAY","SAN JACINTO","CA",92582,33.782866584,-117.016949445,313,"2751 HARTLEY PARKWAY, SAN JACINTO, CA, 92582","Match","Exact","2751 HARTLEY PKWY, SAN JACINTO, CA, 92582",609003253,"L"
149314,"2751 HENNEPIN AVE","MINNEAPOLIS","MN",55408,44.9528392930001,-93.297973473,314,"2751 HENNEPIN AVE, MINNEAPOLIS, MN, 55408","Match","Non_Exact","2751 HENNEPIN AVE S, MINNEAPOLIS, MN, 55408",43833339,"L"
149315,"2751 HENNEPIN AVENUE SOUTH 30","MINNEAPOLIS","MN",55408,44.9528392930001,-93.297973473,315,"2751 HENNEPIN AVENUE SOUTH 30, MINNEAPOLIS, MN, 55408","Match","Exact","2751 HENNEPIN AVE S, MINNEAPOLIS, MN, 55408",43833339,"L"
149316,"2751 HENNEPIN AVENUE SOUTH SUITE 30","MINNEAPOLIS","MN",55408,44.9528392930001,-93.297973473,316,"2751 HENNEPIN AVENUE SOUTH SUITE 30, MINNEAPOLIS, MN, 55408","Match","Exact","2751 HENNEPIN AVE S, MINNEAPOLIS, MN, 55408",43833339,"L"
149317,"2751 HUNTERS POND RUN APT 22","CHAMPAIGN","IL",61820,NA,NA,317,"2751 HUNTERS POND RUN APT 22, CHAMPAIGN, IL, 61820","No_Match",NA,NA,NA,NA
149318,"2751 MISSION ST","SAN FRANCISCO","CA",94110,37.753026403,-122.418510258,318,"2751 MISSION ST, SAN FRANCISCO, CA, 94110","Match","Exact","2751 MISSION ST, SAN FRANCISCO, CA, 94110",192288310,"L"
149319,"2751 MONTICELLO WAY","KISSIMMEE","FL",34741,28.331473778,-81.437151415,319,"2751 MONTICELLO WAY, KISSIMMEE, FL, 34741","Match","Exact","2751 MONTICELLO WAY, KISSIMMEE, FL, 34741",646788920,"L"
149320,"2751 N 70TH TERRACE","HOLLYWOOD","FL",33024,NA,NA,320,"2751 N 70TH TERRACE, HOLLYWOOD, FL, 33024","Tie",NA,NA,NA,NA
149321,"2751 NORTH EARL RUDDER FRWY","BRYAN","TX",77803,30.719106203,-96.410105326,321,"2751 NORTH EARL RUDDER FRWY, BRYAN, TX, 77803","Match","Exact","2751 N EARL RUDDER FWY, BRYAN, TX, 77803",21843418,"R"
149322,"2751 OLD HOUSE CIRCLE","MATTHEWS","NC",28105,35.163105715,-80.7292924559999,322,"2751 OLD HOUSE CIRCLE, MATTHEWS, NC, 28105","Match","Exact","2751 OLD HOUSE CIR, MATTHEWS, NC, 28105",618153636,"L"
149323,"2751 SOUTH HILLS","RIVERDALE","GA",30296,33.560329628,-84.4791005719999,323,"2751 SOUTH HILLS, RIVERDALE, GA, 30296","Match","Exact","2751 S HILLS, RIVERDALE, GA, 30296",636289802,"R"
149324,"2751 SUNRISE LAKES E DRIVE APT 209","SUNRISE","FL",33322,NA,NA,324,"2751 SUNRISE LAKES E DRIVE APT 209, SUNRISE, FL, 33322","Tie",NA,NA,NA,NA
149325,"2751 TAMARACK DR","ARNOLD","MO",63010,38.4185245370001,-90.4003099609999,325,"2751 TAMARACK DR, ARNOLD, MO, 63010","Match","Exact","2751 TAMARACK DR, ARNOLD, MO, 63010",62812549,"R"
149326,"2751 W RIVER DRIVE UNIT 823","SACRAMENTO","CA",95833,38.6136600230001,-121.526798683,326,"2751 W RIVER DRIVE UNIT 823, SACRAMENTO, CA, 95833","Match","Non_Exact","2751 W RIVER DR, SACRAMENTO, CA, 95833",133423709,"L"
149327,"27511 R LANE","OCEAN PARK","WA",48640,46.5015745060001,-124.047450242,327,"27511 R LANE, OCEAN PARK, WA, 48640","Match","Non_Exact","27511 R LN, OCEAN PARK, WA, 98640",176011959,"R"
149328,"27511 RUMSON DR","KATY","TX",77494,29.7583079020001,-95.845109946,328,"27511 RUMSON DR, KATY, TX, 77494","Match","Exact","27511 RUMSON DR, KATY, TX, 77494",647124214,"L"
149329,"27512 DEL GADO APT K","SAN CLEMENTE","CA",92672,NA,NA,329,"27512 DEL GADO APT K, SAN CLEMENTE, CA, 92672","No_Match",NA,NA,NA,NA
149330,"27513 DESERT WILLOW WAY","WESLEY CHAPEL","FL",33544,28.231102746,-82.3611241839999,330,"27513 DESERT WILLOW WAY, WESLEY CHAPEL, FL, 33544","Match","Exact","27513 DESERT WILLOW WAY, WESLEY CHAPEL, FL, 33544",627220758,"R"
149331,"2752 BATTLEFIELD BLVD SOUTH","CHESAPEAKE","VA",23322,36.62946687,-76.20891704,331,"2752 BATTLEFIELD BLVD SOUTH, CHESAPEAKE, VA, 23322","Match","Exact","2752 BATTLEFIELD BLVD S, CHESAPEAKE, VA, 23322",121791265,"R"
149332,"2752 BRAXTON DRIVE","INDIANAPOLIS","IN",46229,39.8081649060001,-85.9601552999999,332,"2752 BRAXTON DRIVE, INDIANAPOLIS, IN, 46229","Match","Exact","2752 BRAXTON DR, INDIANAPOLIS, IN, 46229",108055367,"L"
149333,"2752 CHURCHLAND AVE","DAYTON","OH",45406,39.797059872,-84.263544272,333,"2752 CHURCHLAND AVE, DAYTON, OH, 45406","Match","Exact","2752 CHURCHLAND AVE, DAYTON, OH, 45406",143564825,"R"
149334,"2752 CROMPOND RD","YORKTOWN HEIGHTS","NY",10598,41.2946738570001,-73.80391937,334,"2752 CROMPOND RD, YORKTOWN HEIGHTS, NY, 10598","Match","Exact","2752 CROMPOND RD, YORKTOWN HEIGHTS, NY, 10598",139839731,"L"
149335,"2752 E 1ST ST SUITE 3","LONG BEACH","CA",90803,33.763938604,-118.160101305,335,"2752 E 1ST ST SUITE 3, LONG BEACH, CA, 90803","Match","Non_Exact","2752 E 1ST ST, LONG BEACH, CA, 90803",141701909,"R"
149336,"2752 E COG HILL TER","DUBLIN","CA",94568,37.7249662340001,-121.853723101,336,"2752 E COG HILL TER, DUBLIN, CA, 94568","Match","Non_Exact","2752 COG HILL TER E, DUBLIN, CA, 94568",630978456,"L"
149337,"2752 FORGUE DR STE 100 A","NAPERVILLE","IL",60564,41.714781992,-88.204849057,337,"2752 FORGUE DR STE 100 A, NAPERVILLE, IL, 60564","Match","Exact","2752 FORGUE DR, NAPERVILLE, IL, 60564",607934539,"L"
149338,"2752 FORGUE DRIVE SUITE 100-B","NAPERVILLE","IL",60564,41.714781992,-88.204849057,338,"2752 FORGUE DRIVE SUITE 100-B, NAPERVILLE, IL, 60564","Match","Exact","2752 FORGUE DR, NAPERVILLE, IL, 60564",607934539,"L"
149339,"2752 FORGUE DRIVE","NAPERVILLE","IL",60564,41.714781992,-88.204849057,339,"2752 FORGUE DRIVE, NAPERVILLE, IL, 60564","Match","Exact","2752 FORGUE DR, NAPERVILLE, IL, 60564",607934539,"L"
149340,"2752 HENNEPIN AVE","MINEAPOLIS","MN",55408,44.95281191,-93.298001648,340,"2752 HENNEPIN AVE, MINEAPOLIS, MN, 55408","Match","Non_Exact","2752 HENNEPIN AVE S, MINNEAPOLIS, MN, 55408",43833339,"R"
149341,"2752 PARTRIDGE DR","OAKLAND TWP","MI",48306,42.7604455210001,-83.11644666,341,"2752 PARTRIDGE DR, OAKLAND TWP, MI, 48306","Match","Non_Exact","2752 PARTRIDGE, OAKLAND TOWNSHIP, MI, 48306",69712628,"L"
149342,"2752 W 25 S","CEDAR CITY","UT",84720,37.67838457,-113.104597844,342,"2752 W 25 S, CEDAR CITY, UT, 84720","Match","Non_Exact","2752 W 25 N, CEDAR CITY, UT, 84720",651905806,"L"
149343,"2752 W 91ST STREET","EVERGREEN PARK","IL",60805,41.7281637580001,-87.690852755,343,"2752 W 91ST STREET, EVERGREEN PARK, IL, 60805","Match","Exact","2752 91ST ST, EVERGREEN PARK, IL, 60805",111820367,"R"
149344,"27520  SKY LAKE CIRCLE","WESLEY CHAPEL","FL",33544,28.1836188190001,-82.356193406,344,"27520  SKY LAKE CIRCLE, WESLEY CHAPEL, FL, 33544","Match","Exact","27520 SKY LAKE CIR, WESLEY CHAPEL, FL, 33544",653185018,"L"
149345,"27520 GRANDVIEW AVENUE","HAYWARD","CA",94542,37.651064703,-122.046138753,345,"27520 GRANDVIEW AVENUE, HAYWARD, CA, 94542","Match","Exact","27520 GRANDVIEW AVE, HAYWARD, CA, 94542",606241593,"L"
149346,"27520 POINT LOOKOUT ROAD","LEONARDTOWN","MD",20650,NA,NA,346,"27520 POINT LOOKOUT ROAD, LEONARDTOWN, MD, 20650","No_Match",NA,NA,NA,NA
149347,"27522 PASATIEMPO","MISSION VIEJO","CA",92692,33.598666166,-117.647529015,347,"27522 PASATIEMPO, MISSION VIEJO, CA, 92692","Match","Exact","27522 PASATIEMPO, MISSION VIEJO, CA, 92692",144067137,"R"
149348,"27523 E EUCLID DR","AURORA","CO",80016,39.5966756,-104.667667763,348,"27523 E EUCLID DR, AURORA, CO, 80016","Match","Exact","27523 E EUCLID DR, AURORA, CO, 80016",632520563,"L"
149349,"27525 PARKVIEW BLVD 4107","WARREN","MI",48092,42.495591533,-83.080244581,349,"27525 PARKVIEW BLVD 4107, WARREN, MI, 48092","Match","Exact","27525 PARKVIEW BLVD, WARREN, MI, 48092",110735611,"L"
149350,"27525 STATE HIGHWAY 86","SIMLA","CO",80835,39.273632182,-104.1524446,350,"27525 STATE HIGHWAY 86, SIMLA, CO, 80835","Match","Exact","27525 STATE HWY 86, SIMLA, CO, 80835",130878102,"L"
149351,"27527 GUTHRIE RIDGE LN","KATY","TX",77494,29.7160688860001,-95.820248878,351,"27527 GUTHRIE RIDGE LN, KATY, TX, 77494","Match","Exact","27527 GUTHRIE RIDGE, KATY, TX, 77494",635422020,"L"
149352,"2753 174TH STREET","HAZEL CREST","IL",60429,41.5735673680001,-87.683855947,352,"2753 174TH STREET, HAZEL CREST, IL, 60429","Match","Exact","2753 174TH ST, HAZEL CREST, IL, 60429",111708927,"L"
149353,"2753 CELESTE AVE","CLOVIS","CA",93611,36.8216918570001,-119.660552454,353,"2753 CELESTE AVE, CLOVIS, CA, 93611","Match","Exact","2753 CELESTE AVE, CLOVIS, CA, 93611",197621687,"R"
149354,"2753 CULLENS CT","OCOEE","FL",34761,28.580697994,-81.514217249,354,"2753 CULLENS CT, OCOEE, FL, 34761","Match","Exact","2753 CULLENS CT, OCOEE, FL, 34761",94369172,"L"
149355,"2753 GREENWAY DR","MARYVILLE","TN",37803,35.7025090390001,-84.0159040469999,355,"2753 GREENWAY DR, MARYVILLE, TN, 37803","Match","Exact","2753 GREENWAY DR, MARYVILLE, TN, 37803",89860538,"L"
149356,"2753 JEFFERSON ST SUITE 200","CARLSBAD","CA",92008,33.1639793520001,-117.347785608,356,"2753 JEFFERSON ST SUITE 200, CARLSBAD, CA, 92008","Match","Exact","2753 JEFFERSON ST, CARLSBAD, CA, 92008",195290244,"R"
149357,"2753 KINGSBRIDGE TERRACE UNIT 3","BRONX","NY",10463,40.8722300630001,-73.903327561,357,"2753 KINGSBRIDGE TERRACE UNIT 3, BRONX, NY, 10463","Match","Exact","2753 KINGSBRIDGE TER, BRONX, NY, 10463",80298551,"L"
149358,"2753 RUNNING SPRINGS LOOP","OVIEDO","FL",32765,28.633319337,-81.1754337089999,358,"2753 RUNNING SPRINGS LOOP, OVIEDO, FL, 32765","Match","Exact","2753 RUNNING SPRINGS LOOP, OVIEDO, FL, 32765",93767926,"L"
149359,"2753 STATE ROAD 580 STE 206","CLEARWATER","FL",33761,NA,NA,359,"2753 STATE ROAD 580 STE 206, CLEARWATER, FL, 33761","No_Match",NA,NA,NA,NA
149360,"2753 SW 19 TERR","MIAMI","FL",33145,25.753301095,-80.238976362,360,"2753 SW 19 TERR, MIAMI, FL, 33145","Match","Exact","2753 SW 19TH TER, MIAMI, FL, 33145",116014633,"R"
149361,"2753 W 90TH PL","EVERGREEN PARK","IL",60805,41.7290575860001,-87.691041621,361,"2753 W 90TH PL, EVERGREEN PARK, IL, 60805","Match","Exact","2753 90TH PL, EVERGREEN PARK, IL, 60805",111820351,"L"
149362,"27534 US HWY 287","LAMAR","CO",80152,38.035709684,-102.61476767,362,"27534 US HWY 287, LAMAR, CO, 80152","Match","Non_Exact","27534 US HWY 287, LAMAR, CO, 81052",137796696,"R"
149363,"27534 US HWY 287","LAMAR","CO",81052,38.035709684,-102.61476767,363,"27534 US HWY 287, LAMAR, CO, 81052","Match","Exact","27534 US HWY 287, LAMAR, CO, 81052",137796696,"R"
149364,"27536 N LAKE WOHLFORD RD UNIT E","VALLEY CENTER","CA",92082,33.215242016,-116.971356593,364,"27536 N LAKE WOHLFORD RD UNIT E, VALLEY CENTER, CA, 92082","Match","Non_Exact","27536 N LAKE WOHLFORD RD, VALLEY CENTER, CA, 92082",195748386,"L"
149365,"27539 HIGHWAY W SUITE 202B","ROCKY MOUNT","MO",65072,NA,NA,365,"27539 HIGHWAY W SUITE 202B, ROCKY MOUNT, MO, 65072","No_Match",NA,NA,NA,NA
149366,"2754 CODY ROAD","VIENNA","VA",22181,38.886608338,-77.292037501,366,"2754 CODY ROAD, VIENNA, VA, 22181","Match","Exact","2754 CODY RD, VIENNA, VA, 22181",618598207,"L"
149367,"2754 CROSSHAVEN DRIVE","HEPHZIBAH","GA",30815,33.3938183000001,-82.088400018,367,"2754 CROSSHAVEN DRIVE, HEPHZIBAH, GA, 30815","Match","Exact","2754 CROSSHAVEN DR, HEPHZIBAH, GA, 30815",55650620,"L"
149368,"2754 HARVEST DRIVE SE","CONYERS","GA",30013,33.617069735,-84.012845069,368,"2754 HARVEST DRIVE SE, CONYERS, GA, 30013","Match","Exact","2754 HARVEST DR SE, CONYERS, GA, 30013",23749778,"R"
149369,"2754 JASMINE STREET","NEW ORLEANS","LA",70122,30.001088092,-90.046676441,369,"2754 JASMINE STREET, NEW ORLEANS, LA, 70122","Match","Exact","2754 JASMINE ST, NEW ORLEANS, LA, 70122",191715794,"R"
149370,"2754 LAUREL RD","SHIPMAN","VA",22971,37.7957785180001,-78.7510904169999,370,"2754 LAUREL RD, SHIPMAN, VA, 22971","Match","Exact","2754 LAUREL RD, SHIPMAN, VA, 22971",98917635,"L"
149371,"2754 LYNDHURST RD","WAYNESBORO","VA",22980,38.0354418370001,-78.941823544,371,"2754 LYNDHURST RD, WAYNESBORO, VA, 22980","Match","Exact","2754 LYNDHURST RD, WAYNESBORO, VA, 22980",98807443,"R"
149372,"2754 MABEL STREET","BERKELEY","CA",94702,37.856369118,-122.285075043,372,"2754 MABEL STREET, BERKELEY, CA, 94702","Match","Exact","2754 MABEL ST, BERKELEY, CA, 94702",124994217,"R"
149373,"2754 MICHAEL DRIVE","CORUNNA","MI",48817,43.0050411190001,-84.113540437,373,"2754 MICHAEL DRIVE, CORUNNA, MI, 48817","Match","Exact","2754 MICHAEL DR, CORUNNA, MI, 48817",23646940,"L"
149374,"2754 N UNIVERSITY DRIVE","CORAL SPRINGS","FL",33065,26.2645406090001,-80.24997653,374,"2754 N UNIVERSITY DRIVE, CORAL SPRINGS, FL, 33065","Match","Exact","2754 N UNIVERSITY DR, CORAL SPRINGS, FL, 33065",114691270,"R"
149375,"2754 ORANGE STREET","FORT MYERS","FL",33916,26.6429929510001,-81.857260745,375,"2754 ORANGE STREET, FORT MYERS, FL, 33916","Match","Exact","2754 ORANGE ST, FORT MYERS, FL, 33916",118021472,"R"
149376,"2754 PITKIN AVE APT A5","BROOKLYN","NY",11208,40.675605998,-73.870495379,376,"2754 PITKIN AVE APT A5, BROOKLYN, NY, 11208","Match","Exact","2754 PITKIN AVE, BROOKLYN, NY, 11208",59095267,"R"
149377,"2754 PRAIRIE RIDGE COURT","LAFAYETTE","CO",80026,40.016922161,-105.134962349,377,"2754 PRAIRIE RIDGE COURT, LAFAYETTE, CO, 80026","Match","Exact","2754 PRAIRIE RIDGE CT, LAFAYETTE, CO, 80026",188189013,"L"
149378,"2754 UNICORN LN NW","WASHINGTON","DC",20015,38.9750174590001,-77.0532679679999,378,"2754 UNICORN LN NW, WASHINGTON, DC, 20015","Match","Exact","2754 UNICORN LN NW, WASHINGTON, DC, 20015",76236441,"R"
149379,"2754 WOODED GLEN COURT","INDIANAPOLIS","IN",46268,39.915115443,-86.2095520029999,379,"2754 WOODED GLEN COURT, INDIANAPOLIS, IN, 46268","Match","Exact","2754 WOODED GLEN CT, INDIANAPOLIS, IN, 46268",108025369,"L"
149380,"27542 BENTLEY ST","LIVONIA","MI",48154,42.3891570380001,-83.316199677,380,"27542 BENTLEY ST, LIVONIA, MI, 48154","Match","Exact","27542 BENTLEY ST, LIVONIA, MI, 48154",95427194,"R"
149381,"27542 LIME AVE","YALAHA","FL",34797,28.7474489690001,-81.802539629,381,"27542 LIME AVE, YALAHA, FL, 34797","Match","Exact","27542 LIME AVE, YALAHA, FL, 34797",94168260,"R"
149382,"27545 LONGHILL DRIVE","RANCHO PALOS VERDES","CA",90275,33.774487838,-118.37245695,382,"27545 LONGHILL DRIVE, RANCHO PALOS VERDES, CA, 90275","Match","Exact","27545 LONGHILL DR, RANCHO PALOS VERDES, CA, 90275",141687395,"R"
149383,"2755 ADMIRALS WALK DR E","ORANGE PARK","FL",32073,30.150276438,-81.730197285,383,"2755 ADMIRALS WALK DR E, ORANGE PARK, FL, 32073","Match","Exact","2755 ADMIRALS WALK DR E, ORANGE PARK, FL, 32073",83814961,"L"
149384,"2755 BADGER AVE","JANESVILLE","IA",50647,42.6489175390001,-92.5341751939999,384,"2755 BADGER AVE, JANESVILLE, IA, 50647","Match","Exact","2755 BADGER AVE, JANESVILLE, IA, 50647",77364522,"R"
149385,"2755 BIRCHCREST DRIVE","GRAND RAPIDS","MI",49506,42.9135191250001,-85.613704528,385,"2755 BIRCHCREST DRIVE, GRAND RAPIDS, MI, 49506","Match","Non_Exact","2755 BIRCHCREST DR SE, GRAND RAPIDS, MI, 49506",653387589,"R"
149386,"2755 BORDER LAKE ROAD SUITE 101","APOPKA","FL",32703,NA,NA,386,"2755 BORDER LAKE ROAD SUITE 101, APOPKA, FL, 32703","No_Match",NA,NA,NA,NA
149387,"2755 BRISTOL STREET SUITE 275","COSTA MESA","CA",92626,33.6735976150001,-117.889028664,387,"2755 BRISTOL STREET SUITE 275, COSTA MESA, CA, 92626","Match","Exact","2755 BRISTOL ST, COSTA MESA, CA, 92626",630383907,"L"
149388,"2755 CANYON RIDGE DRIVE","NORTH LOGAN","UT",84341,NA,NA,388,"2755 CANYON RIDGE DRIVE, NORTH LOGAN, UT, 84341","No_Match",NA,NA,NA,NA
149389,"2755 CRABAPPLE AVE","SPRINGDALE","AR",72764,36.1676182630001,-94.100695434,389,"2755 CRABAPPLE AVE, SPRINGDALE, AR, 72764","Match","Exact","2755 CRABAPPLE AVE, SPRINGDALE, AR, 72764",49084089,"L"
149390,"2755 E BERRY RD","RIVES JUNCTION","MI",49277,42.3784365170001,-84.389401505,390,"2755 E BERRY RD, RIVES JUNCTION, MI, 49277","Match","Exact","2755 E BERRY RD, RIVES JUNCTION, MI, 49277",17647476,"R"
149391,"2755 E BERRY ROAD","RIVES JUNCTION","MI",49277,42.3784365170001,-84.389401505,391,"2755 E BERRY ROAD, RIVES JUNCTION, MI, 49277","Match","Exact","2755 E BERRY RD, RIVES JUNCTION, MI, 49277",17647476,"R"
149392,"2755 E DESERT INN RD 155","LAS VEGAS","NV",89121,36.129782296,-115.112355335,392,"2755 E DESERT INN RD 155, LAS VEGAS, NV, 89121","Match","Non_Exact","2755 E DESERT INN RD, LAS VEGAS, NV, 89121",201871776,"R"
149393,"2755 E DESERT INN RD SUITE 155","LAS VEGAS","NV",89121,36.129782296,-115.112355335,393,"2755 E DESERT INN RD SUITE 155, LAS VEGAS, NV, 89121","Match","Non_Exact","2755 E DESERT INN RD, LAS VEGAS, NV, 89121",201871776,"R"
149394,"2755 EAST CHEROKEE DRIVE","CANTON","GA",30115,34.171869531,-84.421854993,394,"2755 EAST CHEROKEE DRIVE, CANTON, GA, 30115","Match","Exact","2755 E CHEROKEE DR, CANTON, GA, 30115",68826467,"L"
149395,"2755 GONZALES ROAD","MOBILE","AL",36605,30.6013942230001,-88.102534174,395,"2755 GONZALES ROAD, MOBILE, AL, 36605","Match","Exact","2755 GONZALES RD, MOBILE, AL, 36605",61874194,"R"
149396,"2755 HARRISBURG AVE","FREMONT","CA",94536,37.5741121990001,-122.013023647,396,"2755 HARRISBURG AVE, FREMONT, CA, 94536","Match","Exact","2755 HARRISBURG AVE, FREMONT, CA, 94536",125027926,"R"
149397,"2755 N 29TH STREET","PHILADELPHIA","PA",19132,39.9982587700001,-75.178302639,397,"2755 N 29TH STREET, PHILADELPHIA, PA, 19132","Match","Exact","2755 N 29TH ST, PHILADELPHIA, PA, 19132",131442647,"R"
149398,"2755 NE 27TH STREET","BEND","OR",97701,44.078438545,-121.263763189,398,"2755 NE 27TH STREET, BEND, OR, 97701","Match","Exact","2755 NE 27TH ST, BEND, OR, 97701",647580448,"L"
149399,"2755 ORDWAY STREET NW APT 508","WASHINGTON","DC",20008,38.9351541670001,-77.056820678,399,"2755 ORDWAY STREET NW APT 508, WASHINGTON, DC, 20008","Match","Exact","2755 ORDWAY ST NW, WASHINGTON, DC, 20008",76221166,"R"
149400,"2755 RAINTREE CIRCLE","TALLAHASSEE","FL",32308,30.4976170510001,-84.242830633,400,"2755 RAINTREE CIRCLE, TALLAHASSEE, FL, 32308","Match","Exact","2755 RAINTREE CIR, TALLAHASSEE, FL, 32308",82883701,"R"
149401,"2755 RIVER PLAZA DRIVE - 229","SACRAMENTO","CA",95833,38.6077621860001,-121.526916784,401,"2755 RIVER PLAZA DRIVE - 229, SACRAMENTO, CA, 95833","Match","Exact","2755 RIVER PLAZA DR, SACRAMENTO, CA, 95833",133395116,"L"
149402,"2755 SAN BRUNO AVE UNIT 347074","SAN FRANCISCO","CA",94134,37.7269851990001,-122.403317768,402,"2755 SAN BRUNO AVE UNIT 347074, SAN FRANCISCO, CA, 94134","Match","Exact","2755 SAN BRUNO AVE, SAN FRANCISCO, CA, 94134",192290533,"L"
149403,"2755 W ADVENTURE DRIVE","PHOENIX","AZ",85086,33.851703494,-112.118211715,403,"2755 W ADVENTURE DRIVE, PHOENIX, AZ, 85086","Match","Exact","2755 W ADVENTURE DR, PHOENIX, AZ, 85086",128856671,"L"
149404,"2755 W ATLANTIC BLVD STE 102","POMPANO BEACH","FL",33069,NA,NA,404,"2755 W ATLANTIC BLVD STE 102, POMPANO BEACH, FL, 33069","No_Match",NA,NA,NA,NA
149405,"2755 W ATLANTIC BLVD SUITE 102","POMPANO BEACH","FL",33069,NA,NA,405,"2755 W ATLANTIC BLVD SUITE 102, POMPANO BEACH, FL, 33069","No_Match",NA,NA,NA,NA
149406,"27555 YNEZ ROAD STE 205","TEMECULA","CA",92591,33.505278687,-117.14989328,406,"27555 YNEZ ROAD STE 205, TEMECULA, CA, 92591","Match","Exact","27555 YNEZ RD, TEMECULA, CA, 92591",195085096,"L"
149407,"2756 A PINE GROVE ROAD","PARIS","KY",40361,38.0727433220001,-84.269990923,407,"2756 A PINE GROVE ROAD, PARIS, KY, 40361","Match","Exact","2756 PINE GROVE RD, PARIS, KY, 40361",31883131,"L"
149408,"2756 APPLING CENTER COVE - STE106","MEMPHIS","TN",38133,35.201614546,-89.811996994,408,"2756 APPLING CENTER COVE - STE106, MEMPHIS, TN, 38133","Match","Exact","2756 APPLING CENTER COVE, MEMPHIS, TN, 38133",72956309,"L"
149409,"2756 FERRARA CIR","SAN JOSE","CA",95111,37.290468392,-121.855502318,409,"2756 FERRARA CIR, SAN JOSE, CA, 95111","Match","Exact","2756 FERRARA CIR, SAN JOSE, CA, 95111",648531009,"R"
149410,"2756 N STAMPEDE DR","BEVERLY HILLS","FL",34465,28.903097127,-82.533075923,410,"2756 N STAMPEDE DR, BEVERLY HILLS, FL, 34465","Match","Exact","2756 N STAMPEDE DR, BEVERLY HILLS, FL, 34465",86213871,"R"
149411,"2756 POE LANE","BRENTWOOD","CA",94513,37.967043717,-121.645103284,411,"2756 POE LANE, BRENTWOOD, CA, 94513","Match","Exact","2756 POE LN, BRENTWOOD, CA, 94513",192079856,"L"
149412,"2756 STEPHENSON LANE NW","WASHINGTON","DC",20015,38.9706410790001,-77.057233093,412,"2756 STEPHENSON LANE NW, WASHINGTON, DC, 20015","Match","Exact","2756 STEPHENSON LN NW, WASHINGTON, DC, 20015",639337039,"L"
149413,"2756 W ATLANTIC BLVD","POMPANO BEACH","FL",33069,NA,NA,413,"2756 W ATLANTIC BLVD, POMPANO BEACH, FL, 33069","No_Match",NA,NA,NA,NA
149414,"2756 YORKSHIRE ROAD","BIRMINGHAM","MI",48009,42.5483655950001,-83.187897552,414,"2756 YORKSHIRE ROAD, BIRMINGHAM, MI, 48009","Match","Exact","2756 YORKSHIRE RD, BIRMINGHAM, MI, 48009",69736779,"R"
149415,"2756","SAN BERNARDINO","CA",92405,NA,NA,415,"2756, SAN BERNARDINO, CA, 92405","No_Match",NA,NA,NA,NA
149416,"27567 V AVE","REINBECK","IA",50669,42.303286536,-92.611210394,416,"27567 V AVE, REINBECK, IA, 50669","Match","Exact","27567 V AVE, REINBECK, IA, 50669",77412171,"L"
149417,"2757 ALDERMAN ROAD","PALM HARBOR","FL",34684,NA,NA,417,"2757 ALDERMAN ROAD, PALM HARBOR, FL, 34684","No_Match",NA,NA,NA,NA
149418,"2757 BOB BETTIS RD","MARIETTA","GA",30066,34.0177439280001,-84.5027897639999,418,"2757 BOB BETTIS RD, MARIETTA, GA, 30066","Match","Exact","2757 BOB BETTIS RD, MARIETTA, GA, 30066",618319565,"L"
149419,"2757 BOB BETTIS ROAD","MARIETTA","GA",30067,34.0177439280001,-84.5027897639999,419,"2757 BOB BETTIS ROAD, MARIETTA, GA, 30067","Match","Non_Exact","2757 BOB BETTIS RD, MARIETTA, GA, 30066",618319565,"L"
149420,"2757 CORAL STREET","PHILADELPHIA","PA",19134,39.9879429740001,-75.120324334,420,"2757 CORAL STREET, PHILADELPHIA, PA, 19134","Match","Exact","2757 CORAL ST, PHILADELPHIA, PA, 19134",131421263,"R"
149421,"2757 EAST 3600 SOUTH","SALT LAKE CITY","UT",84109,40.6928189290001,-111.813725196,421,"2757 EAST 3600 SOUTH, SALT LAKE CITY, UT, 84109","Match","Exact","2757 E 3600 S, SALT LAKE CITY, UT, 84109",176094211,"L"
149422,"2757 GLENMAWR AVE","PITTSBURGH","PA",15204,40.454350263,-80.050504581,422,"2757 GLENMAWR AVE, PITTSBURGH, PA, 15204","Match","Exact","2757 GLENMAWR AVE, PITTSBURGH, PA, 15204",51622280,"L"
149423,"2757 GLENVALLEY DR","DECATUR","GA",30032,33.7373784370001,-84.280200693,423,"2757 GLENVALLEY DR, DECATUR, GA, 30032","Match","Exact","2757 GLENVALLEY DR, DECATUR, GA, 30032",23368454,"R"
149424,"2757 HEATHER RIDGE LANE","JONESBORO","GA",30236,33.5604768060001,-84.300223436,424,"2757 HEATHER RIDGE LANE, JONESBORO, GA, 30236","Match","Exact","2757 HEATHER RIDGE LN, JONESBORO, GA, 30236",23330170,"L"
149425,"2757 INDIAN RIDGE DR NE","GRAND RAPIDS","MI",49505,43.011508308,-85.619032439,425,"2757 INDIAN RIDGE DR NE, GRAND RAPIDS, MI, 49505","Match","Exact","2757 INDIAN RIDGE DR NE, GRAND RAPIDS, MI, 49505",12452278,"L"
149426,"2757 N GARNET STREET","PHILADELPHIA","PA",19132,39.995984482,-75.1628461729999,426,"2757 N GARNET STREET, PHILADELPHIA, PA, 19132","Match","Exact","2757 N GARNET ST, PHILADELPHIA, PA, 19132",131402800,"R"
149427,"2757 NORTH 46TH STREET","MILWAUKEE","WI",53210,43.0689412610001,-87.9711870469999,427,"2757 NORTH 46TH STREET, MILWAUKEE, WI, 53210","Match","Exact","2757 N 46TH ST, MILWAUKEE, WI, 53210",77732302,"L"
149428,"2757 NW 7TH STREET","REDMOND","OR",97756,44.301214714,-121.174868949,428,"2757 NW 7TH STREET, REDMOND, OR, 97756","Match","Exact","2757 NW 7TH ST, REDMOND, OR, 97756",152579527,"L"
149429,"2757 PINE ACRES RD","SAINT AUGUSTINE","FL",32086,29.8443738440001,-81.341589396,429,"2757 PINE ACRES RD, SAINT AUGUSTINE, FL, 32086","Match","Exact","2757 PINE ACRES RD, SAINT AUGUSTINE, FL, 32086",92585881,"L"
149430,"2757 PRIVATE ROAD 3824","QUINLAN","TX",75474,32.854016803,-96.060470347,430,"2757 PRIVATE ROAD 3824, QUINLAN, TX, 75474","Match","Non_Exact","2757 PVT RD 3824, QUINLAN, TX, 75474",42858255,"R"
149431,"2757 SELECT AVENUE","MEMPHIS","TN",38114,35.1062407950001,-89.9709098339999,431,"2757 SELECT AVENUE, MEMPHIS, TN, 38114","Match","Exact","2757 SELECT AVE, MEMPHIS, TN, 38114",72918232,"R"
149432,"2757 TAFFY RD","HARTFORD","KY",42347,37.5807281140001,-86.928368144,432,"2757 TAFFY RD, HARTFORD, KY, 42347","Match","Exact","2757 TAFFY RD, HARTFORD, KY, 42347",639827049,"L"
149433,"2757 VICTORIA LAKE DRIVE","MOUNT PLEASANT","SC",29466,32.864111786,-79.805396765,433,"2757 VICTORIA LAKE DRIVE, MOUNT PLEASANT, SC, 29466","Match","Exact","2757 VICTORIA LAKE DR, MOUNT PLEASANT, SC, 29466",617154274,"L"
149434,"2757 WEST WHITE OAK COURT","LAFAYETTE","CO",80026,40.015413401,-105.134760288,434,"2757 WEST WHITE OAK COURT, LAFAYETTE, CO, 80026","Match","Exact","2757 W WHITE OAK CT, LAFAYETTE, CO, 80026",188186033,"R"
149435,"27574 MOUNTAIN BROOK DRIVE","CONIFER","CO",80433,39.4936691460001,-105.315877348,435,"27574 MOUNTAIN BROOK DRIVE, CONIFER, CO, 80433","Match","Exact","27574 MOUNTAIN BROOK DR, CONIFER, CO, 80433",177731512,"L"
149436,"27575 MOONCREST DR","CARMEL","CA",93923,36.5251860380001,-121.801729619,436,"27575 MOONCREST DR, CARMEL, CA, 93923","Match","Exact","27575 MOONCREST DR, CARMEL, CA, 93923",196842603,"R"
149437,"27579 HOLLYWOOD DRIVE","WESTLAKE","OH",44145,41.437432361,-81.9290865039999,437,"27579 HOLLYWOOD DRIVE, WESTLAKE, OH, 44145","Match","Exact","27579 HOLLYWOOD DR, WESTLAKE, OH, 44145",61138099,"L"
149438,"2758 ACCOMAC","SAINT LOUIS","MO",63104,38.6097812080001,-90.225698331,438,"2758 ACCOMAC, SAINT LOUIS, MO, 63104","Match","Non_Exact","2758 ACCOMAC ST, SAINT LOUIS, MO, 63104",107598676,"L"
149439,"2758 BLUESTEM PATH","LOGANVILLE","GA",30052,33.8752670000001,-83.935600511,439,"2758 BLUESTEM PATH, LOGANVILLE, GA, 30052","Match","Exact","2758 BLUESTEM PATH, LOGANVILLE, GA, 30052",627550753,"L"
149440,"2758 CONAMACKEY RD","MARTINSVILLE","IN",46151,39.532906333,-86.3803440189999,440,"2758 CONAMACKEY RD, MARTINSVILLE, IN, 46151","Match","Exact","2758 CONAMACKEY RD, MARTINSVILLE, IN, 46151",43543674,"R"
149441,"2758 LAGUNA POINTE DRIVE","PEARLAND","TX",77584,29.5816061560001,-95.382772233,441,"2758 LAGUNA POINTE DRIVE, PEARLAND, TX, 77584","Match","Exact","2758 LAGUNA POINTE DR, PEARLAND, TX, 77584",116643504,"L"
149442,"2758 LEOPOLD LN","RICHLAND","WA",99352,46.210674941,-119.264587249,442,"2758 LEOPOLD LN, RICHLAND, WA, 99352","Match","Exact","2758 LEOPOLD LN, RICHLAND, WA, 99352",606988522,"L"
149443,"2758 LUCAS DRIVE","WESTFIELD","IN",46074,40.046923855,-86.114717594,443,"2758 LUCAS DRIVE, WESTFIELD, IN, 46074","Match","Exact","2758 LUCAS DR, WESTFIELD, IN, 46074",29327805,"L"
149444,"2758 US HWY 34 STE B177","OSWEGO","IL",60543,41.7003996870001,-88.314633124,444,"2758 US HWY 34 STE B177, OSWEGO, IL, 60543","Match","Non_Exact","2758 US HWY 34, OSWEGO, IL, 60543",54498686,"R"
149445,"2758 W ATLANTIC BLVD SUITE 25","POMPANO BEACH","FL",33069,NA,NA,445,"2758 W ATLANTIC BLVD SUITE 25, POMPANO BEACH, FL, 33069","No_Match",NA,NA,NA,NA
149446,"27580 95TH AVE","DONAHUE","IA",52746,41.706448569,-90.714294832,446,"27580 95TH AVE, DONAHUE, IA, 52746","Match","Exact","27580 95TH AVE, DONAHUE, IA, 52746",122702303,"L"
149447,"27580 PACHEA TRL","HEMET","CA",92544,33.7196565580001,-116.957522349,447,"27580 PACHEA TRL, HEMET, CA, 92544","Match","Exact","27580 PACHEA TRL, HEMET, CA, 92544",194823222,"L"
149448,"2759 124TH AVE SE","BELLEVUE","WA",98005,47.5852954920001,-122.174396087,448,"2759 124TH AVE SE, BELLEVUE, WA, 98005","Match","Exact","2759 124TH AVE SE, BELLEVUE, WA, 98005",186937702,"R"
149449,"2759 DELK RD SUITE 2700","MARIETTA","GA",30067,33.923174897,-84.472851256,449,"2759 DELK RD SUITE 2700, MARIETTA, GA, 30067","Match","Non_Exact","2759 DELK RD SE, MARIETTA, GA, 30067",649416440,"L"
149450,"2759 IRMA ST","WARREN","MI",48092,NA,NA,450,"2759 IRMA ST, WARREN, MI, 48092","No_Match",NA,NA,NA,NA
149451,"2759 MACKINTOSH LANE","WEST BLOOMFIELD","MI",48302,42.598539084,-83.293359835,451,"2759 MACKINTOSH LANE, WEST BLOOMFIELD, MI, 48302","Match","Non_Exact","2759 MACKINTOSH LN, BLOOMFIELD, MI, 48302",69771703,"L"
149452,"2759 MLK JR AVE SE SUITE B7","WASHINGTON","DC",20032,NA,NA,452,"2759 MLK JR AVE SE SUITE B7, WASHINGTON, DC, 20032","No_Match",NA,NA,NA,NA
149453,"2759 PARK PLACE DR","GRAND PRAIRIE","TX",75052,32.6417494450001,-97.054241195,453,"2759 PARK PLACE DR, GRAND PRAIRIE, TX, 75052","Match","Exact","2759 PARK PLACE DR, GRAND PRAIRIE, TX, 75052",617672875,"L"
149454,"2759 POWELL DR STE 23","CINCINNATI","OH",45221,39.142560621,-84.5908952249999,454,"2759 POWELL DR STE 23, CINCINNATI, OH, 45221","Match","Non_Exact","2759 POWELL DR, CINCINNATI, OH, 45211",103917730,"L"
149455,"2759 ROYAL STREET","AUGUSTA","GA",30909,33.484192426,-82.034331449,455,"2759 ROYAL STREET, AUGUSTA, GA, 30909","Match","Exact","2759 ROYAL ST, AUGUSTA, GA, 30909",55635975,"R"
149456,"2759 W VILLAGE TERRACE","SPRINGFIELD","MO",65810,37.1324807600001,-93.335575744,456,"2759 W VILLAGE TERRACE, SPRINGFIELD, MO, 65810","Match","Exact","2759 W VILLAGE TER, SPRINGFIELD, MO, 65810",76676423,"L"
149457,"2759 WATSON STREET","ELGIN","SC",29045,34.1698887850001,-80.828504236,457,"2759 WATSON STREET, ELGIN, SC, 29045","Match","Exact","2759 WATSON ST, ELGIN, SC, 29045",635589843,"L"
149458,"27590 ROAD H6","CORTEZ","CO",81321,NA,NA,458,"27590 ROAD H6, CORTEZ, CO, 81321","No_Match",NA,NA,NA,NA
149459,"276  5TH AVENUE  SUITE 704","NEW YORK","NY",10001,40.745562969,-73.9866626739999,459,"276  5TH AVENUE  SUITE 704, NEW YORK, NY, 10001","Match","Exact","276 5TH AVE, NEW YORK, NY, 10001",59653467,"L"
149460,"276 5TH AVENUE RM 704","NEW YORK","NY",10001,40.745562969,-73.9866626739999,460,"276 5TH AVENUE RM 704, NEW YORK, NY, 10001","Match","Exact","276 5TH AVE, NEW YORK, NY, 10001",59653467,"L"
149461,"276 5TH AVENUE SUITE 1101","NEW YORK","NY",10001,40.745562969,-73.9866626739999,461,"276 5TH AVENUE SUITE 1101, NEW YORK, NY, 10001","Match","Exact","276 5TH AVE, NEW YORK, NY, 10001",59653467,"L"
149462,"276 5TH AVENUE SUITE 704","NEW YORK","NY",10001,40.745562969,-73.9866626739999,462,"276 5TH AVENUE SUITE 704, NEW YORK, NY, 10001","Match","Exact","276 5TH AVE, NEW YORK, NY, 10001",59653467,"L"
149463,"276 ABBINGTON DRIVE","EAST WINDSOR","NJ",8520,NA,NA,463,"276 ABBINGTON DRIVE, EAST WINDSOR, NJ, 8520","No_Match",NA,NA,NA,NA
149464,"276 ABBOTT ROAD","ADRIAN","WV",26210,NA,NA,464,"276 ABBOTT ROAD, ADRIAN, WV, 26210","No_Match",NA,NA,NA,NA
149465,"276 AMHERST LN","FALLING WATERS","WV",25419,39.5449164290001,-77.920735968,465,"276 AMHERST LN, FALLING WATERS, WV, 25419","Match","Exact","276 AMHERST LN, FALLING WATERS, WV, 25419",123395698,"R"
149466,"276 ANCHOR COURT","BOULDER CREEK","CA",95006,37.1536721200001,-122.158045935,466,"276 ANCHOR COURT, BOULDER CREEK, CA, 95006","Match","Exact","276 ANCHOR CT, BOULDER CREEK, CA, 95006",125521235,"R"
149467,"276 APARTMENT COURT DRIVE UNIT 89","BATON ROUGE","LA",70806,30.4458287480001,-91.123503716,467,"276 APARTMENT COURT DRIVE UNIT 89, BATON ROUGE, LA, 70806","Match","Exact","276 APARTMENT COURT DR, BATON ROUGE, LA, 70806",92197242,"L"
149468,"276 BALD EAGLE DRIVE","STEWARTSVILLE","NJ",8886,40.6989408210001,-75.138084217,468,"276 BALD EAGLE DRIVE, STEWARTSVILLE, NJ, 8886","Match","Exact","276 BALD EAGLE DR, STEWARTSVILLE, NJ, 08886",618412269,"R"
149469,"276 BEAUFORT AVE","LIVINGSTON","NJ",7039,40.8094221920001,-74.334986338,469,"276 BEAUFORT AVE, LIVINGSTON, NJ, 7039","Match","Exact","276 BEAUFORT AVE, LIVINGSTON, NJ, 07039",63482021,"R"
149470,"276 BELFRY HWY","CODY","WY",82414,44.556027971,-109.09135267,470,"276 BELFRY HWY, CODY, WY, 82414","Match","Exact","276 BELFRY HWY, CODY, WY, 82414",612522075,"R"
149471,"276 BRIDGE STREET","SPRINGFIELD","MA",1103,42.103742862,-72.591424686,471,"276 BRIDGE STREET, SPRINGFIELD, MA, 1103","Match","Exact","276 BRIDGE ST, SPRINGFIELD, MA, 01103",4034976,"L"
149472,"276 CALLE 43 PARCELAS FALU","SAN JUAN","PR",924,18.406316298,-66.015916956,472,"276 CALLE 43 PARCELAS FALU, SAN JUAN, PR, 924","Match","Exact","276 CLL 43, SAN JUAN, PR, 00924",635636610,"R"
149473,"276 COUNTRY CLUB WAY","KINGSTON","MA",2364,41.974435849,-70.733695116,473,"276 COUNTRY CLUB WAY, KINGSTON, MA, 2364","Match","Exact","276 COUNTRY CLUB WAY, KINGSTON, MA, 02364",87489893,"R"
149474,"276 COUNTY ROAD 1560","ALVORD","TX",76225,33.3437201580001,-97.767991189,474,"276 COUNTY ROAD 1560, ALVORD, TX, 76225","Match","Exact","276 CO RD 1560, ALVORD, TX, 76225",103658330,"L"
149475,"276 DAIRY DR","KALISPELL","MT",59901,48.243835785,-114.33775819,475,"276 DAIRY DR, KALISPELL, MT, 59901","Match","Exact","276 DAIRY DR, KALISPELL, MT, 59901",204159632,"R"
149476,"276 E 100 N","MOUNT PLEASANT","UT",84647,39.5482228650001,-111.45014354,476,"276 E 100 N, MOUNT PLEASANT, UT, 84647","Match","Exact","276 E 100 N, MOUNT PLEASANT, UT, 84647",133785934,"L"
149477,"276 E JOHNSON STREET","HARRISONBURG","VA",22802,38.4549296600001,-78.859357824,477,"276 E JOHNSON STREET, HARRISONBURG, VA, 22802","Match","Exact","276 E JOHNSON ST, HARRISONBURG, VA, 22802",55712808,"R"
149478,"276 EDGEWOOD DRIVE","PACIFICA","CA",94044,37.661271566,-122.481914761,478,"276 EDGEWOOD DRIVE, PACIFICA, CA, 94044","Match","Exact","276 EDGEWOOD DR, PACIFICA, CA, 94044",192368986,"R"
149479,"276 FAIRMONT STREET","HYDE PARK","MA",2136,42.248123976,-71.113649782,479,"276 FAIRMONT STREET, HYDE PARK, MA, 2136","Match","Non_Exact","276 FAIRMOUNT AVE, HYDE PARK, MA, 02136",85715895,"L"
149480,"276 FIFTH AVENUE  SUITE 704-458","NEW YORK","NY",10001,40.745562969,-73.9866626739999,480,"276 FIFTH AVENUE  SUITE 704-458, NEW YORK, NY, 10001","Match","Exact","276 5TH AVE, NEW YORK, NY, 10001",59653467,"L"
149481,"276 FIFTH AVENUE - SUITE 704","NEW YORK","NY",10001,40.745562969,-73.9866626739999,481,"276 FIFTH AVENUE - SUITE 704, NEW YORK, NY, 10001","Match","Exact","276 5TH AVE, NEW YORK, NY, 10001",59653467,"L"
149482,"276 FURNACE DOCK ROAD","CORTLANDT MANOR","NY",10567,41.2472290800001,-73.888147315,482,"276 FURNACE DOCK ROAD, CORTLANDT MANOR, NY, 10567","Match","Exact","276 FURNACE DOCK RD, CORTLANDT MANOR, NY, 10567",139725792,"L"
149483,"276 GLADE AVE APT 1","ELMHURST","IL",60126,41.905106023,-87.962056965,483,"276 GLADE AVE APT 1, ELMHURST, IL, 60126","Match","Exact","276 GLADE AVE, ELMHURST, IL, 60126",112543245,"L"
149484,"276 GRAYLYN CREST DRIVE","NEW COLUMBIA","PA",17856,41.0559423440001,-76.900420079,484,"276 GRAYLYN CREST DRIVE, NEW COLUMBIA, PA, 17856","Match","Exact","276 GRAYLYN CREST DR, NEW COLUMBIA, PA, 17856",48195692,"R"
149485,"276 GREENTREE LANE NE","ADA","MI",49301,42.975906466,-85.4608015009999,485,"276 GREENTREE LANE NE, ADA, MI, 49301","Match","Exact","276 GREENTREE LN NE, ADA, MI, 49301",12440410,"R"
149486,"276 HARDING BLVD","MATAWAN","NJ",7747,40.4189175330001,-74.239438808,486,"276 HARDING BLVD, MATAWAN, NJ, 7747","Match","Exact","276 HARDING BLVD, MATAWAN, NJ, 07747",90572117,"L"
149487,"276 INGLENOOK LN","SYLACAUGA","AL",35151,33.1487633770001,-86.446064737,487,"276 INGLENOOK LN, SYLACAUGA, AL, 35151","Match","Exact","276 INGLENOOK LN, SYLACAUGA, AL, 35151",66924154,"R"
149488,"276 KAHIKO ST","PAIA","HI",96779,20.9177829830001,-156.377263193,488,"276 KAHIKO ST, PAIA, HI, 96779","Match","Exact","276 KAHIKO ST, PAIA, HI, 96779",85059991,"R"
149489,"276 KING","DETROIT","MI",48202,42.381525223,-83.076910068,489,"276 KING, DETROIT, MI, 48202","Match","Non_Exact","276 KING ST, DETROIT, MI, 48202",95475451,"R"
149490,"276 KNOLLWOOD RD","WHITE PLAINS","NY",10607,41.044190138,-73.805170776,490,"276 KNOLLWOOD RD, WHITE PLAINS, NY, 10607","Match","Exact","276 KNOLLWOOD RD, WHITE PLAINS, NY, 10607",139844942,"L"
149491,"276 LANE 8H","POWELL","WY",82435,NA,NA,491,"276 LANE 8H, POWELL, WY, 82435","No_Match",NA,NA,NA,NA
149492,"276 LINDEN AVENUE","JERSEY CITY","NJ",7305,40.7003877670001,-74.095929669,492,"276 LINDEN AVENUE, JERSEY CITY, NJ, 7305","Match","Exact","276 LINDEN AVE, JERSEY CITY, NJ, 07305",59603178,"R"
149493,"276 LISBON ST SUITE 1","LEWISTON","ME",4240,44.0941228980001,-70.215703853,493,"276 LISBON ST SUITE 1, LEWISTON, ME, 4240","Match","Exact","276 LISBON ST, LEWISTON, ME, 04240",77961656,"L"
149494,"276 LISBON STREET","LEWISTON","ME",4240,44.0941228980001,-70.215703853,494,"276 LISBON STREET, LEWISTON, ME, 4240","Match","Exact","276 LISBON ST, LEWISTON, ME, 04240",77961656,"L"
149495,"276 MANOR RD","RIDGEWOOD","NJ",7450,40.971195084,-74.141417024,495,"276 MANOR RD, RIDGEWOOD, NJ, 7450","Match","Exact","276 MANOR RD, RIDGEWOOD, NJ, 07450",64404930,"L"
149496,"276 MAPLE LANE DRIVE","COOPERSTOWN","PA",16317,41.4950558740001,-79.8785229809999,496,"276 MAPLE LANE DRIVE, COOPERSTOWN, PA, 16317","Match","Exact","276 MAPLE LANE DR, COOPERSTOWN, PA, 16317",70758452,"L"
149497,"276 METZGER ROAD","RHINEBECK","NY",12572,NA,NA,497,"276 METZGER ROAD, RHINEBECK, NY, 12572","No_Match",NA,NA,NA,NA
149498,"276 N CROSS ST","SYCAMORE","IL",60178,41.9933109840001,-88.693693373,498,"276 N CROSS ST, SYCAMORE, IL, 60178","Match","Exact","276 N CROSS ST, SYCAMORE, IL, 60178",642647107,"R"
149499,"276 N EL CAMINO REAL 23","OCEANSIDE","CA",92058,NA,NA,499,"276 N EL CAMINO REAL 23, OCEANSIDE, CA, 92058","Tie",NA,NA,NA,NA
149500,"276 N OLIVE ST","NIANGUA","MO",65713,37.3904504230001,-92.8310318329999,500,"276 N OLIVE ST, NIANGUA, MO, 65713","Match","Exact","276 N OLIVE ST, NIANGUA, MO, 65713",26599741,"R"
