"ID","Address","City","State","Zip","lat","long","id","input_address","match_indicator","match_type","matched_address","tiger_line_id","tiger_side"
283501,"737 PENNSYLVANIA AVE","NORFOLK","VA",23508,36.8843665630001,-76.292156786,1,"737 PENNSYLVANIA AVE, NORFOLK, VA, 23508","Match","Exact","737 PENNSYLVANIA AVE, NORFOLK, VA, 23508",122132110,"L"
283502,"737 RIVERCREST DR","BARABOO","WI",53913,43.4670232010001,-89.731544562,2,"737 RIVERCREST DR, BARABOO, WI, 53913","Match","Exact","737 RIVERCREST DR, BARABOO, WI, 53913",86535447,"R"
283503,"737 S 725 W","TIPTON","IN",46072,40.292044726,-86.150646555,3,"737 S 725 W, TIPTON, IN, 46072","Match","Exact","737 S 725 W, TIPTON, IN, 46072",29417401,"R"
283504,"737 S LEMAY AVE  PO BOX D-4","FORT COLLINS","CO",80524,40.5774180330001,-105.057881448,4,"737 S LEMAY AVE  PO BOX D-4, FORT COLLINS, CO, 80524","Match","Non_Exact","737 S LEMAY AVE, FORT COLLINS, CO, 80524",188492046,"R"
283505,"737 S LEMAY AVE STE B4","FORT COLLINS","CO",80524,40.5774180330001,-105.057881448,5,"737 S LEMAY AVE STE B4, FORT COLLINS, CO, 80524","Match","Non_Exact","737 S LEMAY AVE, FORT COLLINS, CO, 80524",188492046,"R"
283506,"737 SNOWDON CT","WALNUT CREEK","CA",94598,37.913049212,-122.010751369,6,"737 SNOWDON CT, WALNUT CREEK, CA, 94598","Match","Exact","737 SNOWDON CT, WALNUT CREEK, CA, 94598",192057537,"R"
283507,"737 TURQUOISE DR","HERCULES","CA",94547,37.996678446,-122.271520504,7,"737 TURQUOISE DR, HERCULES, CA, 94547","Match","Exact","737 TURQUOISE DR, HERCULES, CA, 94547",192037942,"L"
283508,"737 W 31ST A","SAN PEDRO","CA",90731,NA,NA,8,"737 W 31ST A, SAN PEDRO, CA, 90731","No_Match",NA,NA,NA,NA
283509,"737 W WASHINGTON APT 3707","CHICAGO","IL",60661,NA,NA,9,"737 W WASHINGTON APT 3707, CHICAGO, IL, 60661","No_Match",NA,NA,NA,NA
283510,"737 WALNUT RIDGE STREET","PEOSTA","IA",52068,42.4508058150001,-90.837548678,10,"737 WALNUT RIDGE STREET, PEOSTA, IA, 52068","Match","Exact","737 WALNUT RIDGE ST, PEOSTA, IA, 52068",624088171,"L"
283511,"737 WANAAO PLACE","KAILUA","HI",96734,21.3821931050001,-157.730265587,11,"737 WANAAO PLACE, KAILUA, HI, 96734","Match","Exact","737 WANAAO PL, KAILUA, HI, 96734",203240395,"L"
283512,"737 WAUSAU ST","PELICAN LAKE","WI",54463,NA,NA,12,"737 WAUSAU ST, PELICAN LAKE, WI, 54463","No_Match",NA,NA,NA,NA
283513,"737 WHITE HALL ROAD","DANVILLE","PA",17821,41.1181709790001,-76.6361174909999,13,"737 WHITE HALL ROAD, DANVILLE, PA, 17821","Match","Exact","737 WHITE HALL RD, DANVILLE, PA, 17821",59199554,"L"
283514,"737 WINTER PARK DR","MARS","PA",16046,40.685563933,-80.045039545,14,"737 WINTER PARK DR, MARS, PA, 16046","Match","Exact","737 WINTER PARK DR, MARS, PA, 16046",632586663,"L"
283515,"7370 CENTRAL AVENUE","PHILADELPHIA","PA",19111,40.0657863280001,-75.089868205,15,"7370 CENTRAL AVENUE, PHILADELPHIA, PA, 19111","Match","Exact","7370 CENTRAL AVE, PHILADELPHIA, PA, 19111",131414747,"L"
283516,"7370 CLINTON ROAD","STEDMAN","NC",28391,35.010798638,-78.687467184,16,"7370 CLINTON ROAD, STEDMAN, NC, 28391","Match","Exact","7370 CLINTON RD, STEDMAN, NC, 28391",627856811,"L"
283517,"7370 E 71ST ST","TULSA","OK",74133,NA,NA,17,"7370 E 71ST ST, TULSA, OK, 74133","No_Match",NA,NA,NA,NA
283518,"7370 HODGSON MEMORIAL DRIVE STE F3","SAVANNAH","GA",31406,31.999592281,-81.1139795729999,18,"7370 HODGSON MEMORIAL DRIVE STE F3, SAVANNAH, GA, 31406","Match","Exact","7370 HODGSON MEMORIAL DR, SAVANNAH, GA, 31406",639897144,"L"
283519,"7370 MARTEN RD","NEOSHO","MO",64850,36.962868766,-94.371601568,19,"7370 MARTEN RD, NEOSHO, MO, 64850","Match","Exact","7370 MARTEN RD, NEOSHO, MO, 64850",56003237,"L"
283520,"7370 VEAL STATION RD","AZLE","TX",76020,NA,NA,20,"7370 VEAL STATION RD, AZLE, TX, 76020","No_Match",NA,NA,NA,NA
283521,"73705 GERALD FORD DRIVE","PALM DESERT","CA",92211,33.7873325320001,-116.379074173,21,"73705 GERALD FORD DRIVE, PALM DESERT, CA, 92211","Match","Exact","73705 GERALD FORD DR, PALM DESERT, CA, 92211",635920187,"R"
283522,"7371 ATLAS WALK WAY - SUITE 138","GAINESVILLE","VA",20155,38.7960720740001,-77.6091310479999,22,"7371 ATLAS WALK WAY - SUITE 138, GAINESVILLE, VA, 20155","Match","Exact","7371 ATLAS WALK WAY, GAINESVILLE, VA, 20155",617720312,"R"
283523,"7371 ATLAS WALK WAY STE 182","GAINESVILLE","VA",20155,38.7960720740001,-77.6091310479999,23,"7371 ATLAS WALK WAY STE 182, GAINESVILLE, VA, 20155","Match","Exact","7371 ATLAS WALK WAY, GAINESVILLE, VA, 20155",617720312,"R"
283524,"7371 BACHELORS BUTTON DR","LAS VEGAS","NV",89131,36.299370568,-115.255813088,24,"7371 BACHELORS BUTTON DR, LAS VEGAS, NV, 89131","Match","Exact","7371 BACHELORS BUTTON DR, LAS VEGAS, NV, 89131",638578010,"L"
283525,"7371 E TANQUE VERDE RD","TUCSON","AZ",85715,32.2507233700001,-110.83244797,25,"7371 E TANQUE VERDE RD, TUCSON, AZ, 85715","Match","Exact","7371 E TANQUE VERDE RD, TUCSON, AZ, 85715",646386118,"L"
283526,"7371 KESTLER AVE","DAMASCUS","GA",39841,31.291305918,-84.7147431079999,26,"7371 KESTLER AVE, DAMASCUS, GA, 39841","Match","Exact","7371 KESTLER AVE, DAMASCUS, GA, 39841",636406794,"L"
283527,"7371 W DREAMVIEW TRL","FLAGSTAFF","AZ",86001,35.265635102,-111.729365387,27,"7371 W DREAMVIEW TRL, FLAGSTAFF, AZ, 86001","Match","Exact","7371 W DREAMVIEW TRL, FLAGSTAFF, AZ, 86001",189159292,"L"
283528,"7372 E ST CHARLES ROAD","COLUMBIA","MO",65202,38.96900921,-92.2254971579999,28,"7372 E ST CHARLES ROAD, COLUMBIA, MO, 65202","Match","Exact","7372 E SAINT CHARLES RD, COLUMBIA, MO, 65202",604979466,"R"
283529,"7372 HAWTHORNE DRIVE","PLAINFIELD","IN",46168,39.727847205,-86.392824731,29,"7372 HAWTHORNE DRIVE, PLAINFIELD, IN, 46168","Match","Exact","7372 HAWTHORNE DR, PLAINFIELD, IN, 46168",89211801,"L"
283530,"7372 MEADOW BROOKE WAY","NORTHFIELD","OH",44067,41.284953725,-81.491027735,30,"7372 MEADOW BROOKE WAY, NORTHFIELD, OH, 44067","Match","Exact","7372 MEADOW BROOKE WAY, NORTHFIELD, OH, 44067",627792440,"R"
283531,"7372 OAKLAND HILLS DR","INDIANAPOLIS","IN",46236,39.8889980530001,-85.967255151,31,"7372 OAKLAND HILLS DR, INDIANAPOLIS, IN, 46236","Match","Exact","7372 OAKLAND HILLS DR, INDIANAPOLIS, IN, 46236",108035475,"R"
283532,"7372 PARKRIDGE BLVD","IRVING","TX",75063,32.9050234270001,-96.963999348,32,"7372 PARKRIDGE BLVD, IRVING, TX, 75063","Match","Exact","7372 PARKRIDGE BLVD, IRVING, TX, 75063",103270845,"L"
283533,"7372 WHEELER STREET","PHILADELPHIA","PA",19153,39.9133797980001,-75.244909772,33,"7372 WHEELER STREET, PHILADELPHIA, PA, 19153","Match","Exact","7372 WHEELER ST, PHILADELPHIA, PA, 19153",131408487,"L"
283534,"7373 ARDMORE STREET APT 1344","HOUSTON","TX",77054,29.6900083040001,-95.380765025,34,"7373 ARDMORE STREET APT 1344, HOUSTON, TX, 77054","Match","Exact","7373 ARDMORE ST, HOUSTON, TX, 77054",642864136,"L"
283535,"7373 BIRCH BAY DRIVE","BLAINE","WA",98230,48.9094243380001,-122.753442353,35,"7373 BIRCH BAY DRIVE, BLAINE, WA, 98230","Match","Exact","7373 BIRCH BAY DR, BLAINE, WA, 98230",183808873,"L"
283536,"7373 COVINGTON HIGHWAY","LITHONIA","GA",30058,33.7096983230001,-84.1186901459999,36,"7373 COVINGTON HIGHWAY, LITHONIA, GA, 30058","Match","Exact","7373 COVINGTON HWY, LITHONIA, GA, 30058",23403898,"R"
283537,"7373 DOUBLETREE RANCH RD SUITE 165","SCOTTSDALE","AZ",85258,33.566997396,-111.922424866,37,"7373 DOUBLETREE RANCH RD SUITE 165, SCOTTSDALE, AZ, 85258","Match","Non_Exact","7373 E DOUBLETREE RANCH RD, SCOTTSDALE, AZ, 85258",128920855,"R"
283538,"7373 E DOUBLETREE RANCH RD  165","SCOTTSDALE","AZ",85258,33.5669875830001,-111.922399594,38,"7373 E DOUBLETREE RANCH RD  165, SCOTTSDALE, AZ, 85258","Match","Non_Exact","7373 E DOUBLETREE RANCH RD, SCOTTSDALE, AZ, 85258",128920855,"R"
283539,"7373 E DOUBLETREE RANCH RD STE 165","SCOTTSDALE","AZ",85258,33.5669875830001,-111.922399594,39,"7373 E DOUBLETREE RANCH RD STE 165, SCOTTSDALE, AZ, 85258","Match","Non_Exact","7373 E DOUBLETREE RANCH RD, SCOTTSDALE, AZ, 85258",128920855,"R"
283540,"7373 E DOUBLETREE RANCH RD STE 200","SCOTTSDALE","AZ",85258,33.5669875830001,-111.922399594,40,"7373 E DOUBLETREE RANCH RD STE 200, SCOTTSDALE, AZ, 85258","Match","Non_Exact","7373 E DOUBLETREE RANCH RD, SCOTTSDALE, AZ, 85258",128920855,"R"
283541,"7373 E DOUBLETREE RANCH ROAD  B 165","SCOTTSDALE","AZ",85258,33.5669875830001,-111.922399594,41,"7373 E DOUBLETREE RANCH ROAD  B 165, SCOTTSDALE, AZ, 85258","Match","Non_Exact","7373 E DOUBLETREE RANCH RD, SCOTTSDALE, AZ, 85258",128920855,"R"
283542,"7373 E DOUBLETREE RANCH ROAD 165","SCOTTSDALE","AZ",85258,33.5669875830001,-111.922399594,42,"7373 E DOUBLETREE RANCH ROAD 165, SCOTTSDALE, AZ, 85258","Match","Non_Exact","7373 E DOUBLETREE RANCH RD, SCOTTSDALE, AZ, 85258",128920855,"R"
283543,"7373 EAST DOUBLETREE RANCH ROAD","SCOTTSDALE","AZ",85253,33.566997396,-111.922424866,43,"7373 EAST DOUBLETREE RANCH ROAD, SCOTTSDALE, AZ, 85253","Match","Non_Exact","7373 E DOUBLETREE RANCH RD, SCOTTSDALE, AZ, 85258",128920855,"R"
283544,"7373 FOREST AVE","CINCINNATI","OH",45231,39.2299820060001,-84.5582432689999,44,"7373 FOREST AVE, CINCINNATI, OH, 45231","Match","Exact","7373 FOREST AVE, CINCINNATI, OH, 45231",103919570,"L"
283545,"7373 HICKMAN STREET","MT HEALTHY","OH",45231,39.2293399530001,-84.545867796,45,"7373 HICKMAN STREET, MT HEALTHY, OH, 45231","Match","Exact","7373 HICKMAN ST, MOUNT HEALTHY, OH, 45231",103919790,"L"
283546,"7373 N LINCOLN AV","LINCOLNWOOD","IL",60712,42.0148078300001,-87.7432844639999,46,"7373 N LINCOLN AV, LINCOLNWOOD, IL, 60712","Match","Exact","7373 LINCOLN AVE, LINCOLNWOOD, IL, 60712",111740856,"R"
283547,"7373 RIVERSIDE DRIVE","POWELL","OH",43065,40.2022585290001,-83.1366048149999,47,"7373 RIVERSIDE DRIVE, POWELL, OH, 43065","Match","Exact","7373 RIVERSIDE DR, POWELL, OH, 43065",649590226,"L"
283548,"7373 ROWENA ST","SAN DIEGO","CA",92119,32.8088808420001,-117.044199274,48,"7373 ROWENA ST, SAN DIEGO, CA, 92119","Match","Exact","7373 ROWENA ST, SAN DIEGO, CA, 92119",195323285,"R"
283549,"7373 VALLEY VIEW LANE","DALLAS","TX",75240,32.926113678,-96.7790719449999,49,"7373 VALLEY VIEW LANE, DALLAS, TX, 75240","Match","Exact","7373 VALLEY VIEW LN, DALLAS, TX, 75240",103004538,"L"
283550,"7373 VIGO DRIVE","LITHONIA","GA",30058,33.7625607630001,-84.088084329,50,"7373 VIGO DRIVE, LITHONIA, GA, 30058","Match","Exact","7373 VIGO DR, LITHONIA, GA, 30058",619378462,"R"
283551,"7373 W MAJESTIC AVE","RATHDRUM","ID",83858,47.7924572970001,-116.884090655,51,"7373 W MAJESTIC AVE, RATHDRUM, ID, 83858","Match","Exact","7373 W MAJESTIC AVE, RATHDRUM, ID, 83858",647789985,"R"
283552,"7373 W PRINCE DR","BOISE","ID",83714,43.6814034770001,-116.280561098,52,"7373 W PRINCE DR, BOISE, ID, 83714","Match","Non_Exact","7373 W PRINCE ST, BOISE, ID, 83714",117881147,"L"
283553,"7373A CONVOY STREET","SAN DIEGO","CA",92111,NA,NA,53,"7373A CONVOY STREET, SAN DIEGO, CA, 92111","Tie",NA,NA,NA,NA
283554,"7374 BRIDGEPOINT DR","CINCINNATI","OH",45248,39.199504404,-84.67657695,54,"7374 BRIDGEPOINT DR, CINCINNATI, OH, 45248","Match","Non_Exact","7374 BRIDGE POINT DR, CINCINNATI, OH, 45248",649349956,"R"
283555,"7374 NC 49 SOUTH","SNOW CAMP","NC",27349,35.9411181850001,-79.4746564279999,55,"7374 NC 49 SOUTH, SNOW CAMP, NC, 27349","Match","Non_Exact","7374 STATE HWY 49, SNOW CAMP, NC, 27349",636564339,"R"
283556,"7374 S ALTON WAY STE 103","CENTENNIAL","CO",80112,39.588112186,-104.883730253,56,"7374 S ALTON WAY STE 103, CENTENNIAL, CO, 80112","Match","Non_Exact","7374 S ALTON WAY, CENTENNIAL, CO, 80112",177346876,"L"
283557,"7375 DRAKE ROAD","CINCINNATI","OH",45243,39.193549821,-84.344160049,57,"7375 DRAKE ROAD, CINCINNATI, OH, 45243","Match","Exact","7375 DRAKE RD, CINCINNATI, OH, 45243",103972320,"L"
283558,"7375 EXECUTIVE PLACE SUITE 100","LANHAM","MD",20706,NA,NA,58,"7375 EXECUTIVE PLACE SUITE 100, LANHAM, MD, 20706","No_Match",NA,NA,NA,NA
283559,"7375 SABERWOOD DR","COLORADO SPRINGS","CO",80911,38.7240151550001,-104.686488838,59,"7375 SABERWOOD DR, COLORADO SPRINGS, CO, 80911","Match","Exact","7375 SABERWOOD DR, COLORADO SPRINGS, CO, 80911",105531140,"L"
283560,"7375 SOUTH JACKSON STREET","CENTENNIAL","CO",80122,39.5825830090001,-104.944358371,60,"7375 SOUTH JACKSON STREET, CENTENNIAL, CO, 80122","Match","Exact","7375 S JACKSON ST, CENTENNIAL, CO, 80122",177345140,"R"
283561,"7375 WOODWARD AVE - STE 9","DETROIT","MI",48202,42.3714127170001,-83.074078441,61,"7375 WOODWARD AVE - STE 9, DETROIT, MI, 48202","Match","Exact","7375 WOODWARD AVE, DETROIT, MI, 48202",95475599,"L"
283562,"7376 AMBASSADOR DRIVE","RIVERDALE","GA",30296,33.5539548510001,-84.4446976249999,62,"7376 AMBASSADOR DRIVE, RIVERDALE, GA, 30296","Match","Exact","7376 AMBASSADOR DR, RIVERDALE, GA, 30296",23312482,"L"
283563,"7376 HIGHBRIDGE TERR","FAYETTEVILLE","NY",13066,43.01724756,-76.013142386,63,"7376 HIGHBRIDGE TERR, FAYETTEVILLE, NY, 13066","Match","Exact","7376 HIGHBRIDGE TER, FAYETTEVILLE, NY, 13066",46625882,"R"
283564,"7377 BENT GRASS DRIVE","WINTER HAVEN","FL",33884,27.972318871,-81.6521642659999,64,"7377 BENT GRASS DRIVE, WINTER HAVEN, FL, 33884","Match","Exact","7377 BENT GRASS DR, WINTER HAVEN, FL, 33884",635667859,"L"
283565,"7377 COBBLE CREEK DR","EASTVALE","CA",92880,33.9541151700001,-117.580138587,65,"7377 COBBLE CREEK DR, EASTVALE, CA, 92880","Match","Exact","7377 COBBLE CREEK DR, EASTVALE, CA, 92880",609011019,"L"
283566,"7377 NOBLE AVE N","BROOKLYN PARK","MN",55443,45.0896268710001,-93.341123189,66,"7377 NOBLE AVE N, BROOKLYN PARK, MN, 55443","Match","Non_Exact","7377 NOBLE AVE, BROOKLYN PARK, MN, 55443",43614783,"L"
283567,"7377 NORTH ROGERS AVE /APT 208","CHICAGO","IL",60626,42.015451947,-87.676469487,67,"7377 NORTH ROGERS AVE /APT 208, CHICAGO, IL, 60626","Match","Exact","7377 N ROGERS AVE, CHICAGO, IL, 60626",111745154,"R"
283568,"7377 NW 48TH STREET","LAUDERHILL","FL",33319,26.1842202720001,-80.248206449,68,"7377 NW 48TH STREET, LAUDERHILL, FL, 33319","Match","Exact","7377 NW 48TH ST, LAUDERHILL, FL, 33319",644692717,"R"
283569,"7378 E 119TH PL SOUTH","BIXBY","OK",74008,35.9907377650001,-95.892054823,69,"7378 E 119TH PL SOUTH, BIXBY, OK, 74008","Match","Exact","7378 E 119TH PL S, BIXBY, OK, 74008",611261098,"R"
283570,"7378 PERIGORD CT","TUJUNGA","CA",91042,34.271929754,-118.294331649,70,"7378 PERIGORD CT, TUJUNGA, CA, 91042","Match","Non_Exact","7378 W PERIGORD CT, TUJUNGA, CA, 91042",241193934,"L"
283571,"7378 SOUTH 3100 WEST","WEST JORDAN","UT",84084,40.617201886,-111.965519969,71,"7378 SOUTH 3100 WEST, WEST JORDAN, UT, 84084","Match","Exact","7378 S 3100 W, WEST JORDAN, UT, 84084",176143576,"R"
283572,"7378 W ATLANTIC BLVD   NUM 281","MARGATE","FL",33063,26.2353243530001,-80.224726979,72,"7378 W ATLANTIC BLVD   NUM 281, MARGATE, FL, 33063","Match","Non_Exact","7378 W ATLANTIC BLVD, MARGATE, FL, 33063",638638119,"R"
283573,"7378 W ATLANTIC BLVD 432","MARGATE","FL",33063,26.2353243530001,-80.224726979,73,"7378 W ATLANTIC BLVD 432, MARGATE, FL, 33063","Match","Non_Exact","7378 W ATLANTIC BLVD, MARGATE, FL, 33063",638638119,"R"
283574,"7378 W RIALTO DR","FRESNO","CA",93723,36.8024428360001,-119.922922649,74,"7378 W RIALTO DR, FRESNO, CA, 93723","Match","Non_Exact","7378 W RIALTO AVE, FRESNO, CA, 93723",197565021,"L"
283575,"7379 FROGTOWN RD","MARSHALL","VA",20115,38.9020095320001,-77.813796016,75,"7379 FROGTOWN RD, MARSHALL, VA, 20115","Match","Exact","7379 FROGTOWN RD, MARSHALL, VA, 20115",146302845,"R"
283576,"7379 MILTON COURT","NEW ALBANY","OH",43054,40.059933001,-82.823932965,76,"7379 MILTON COURT, NEW ALBANY, OH, 43054","Match","Exact","7379 MILTON CT, NEW ALBANY, OH, 43054",218659747,"L"
283577,"7379 SE CR 3060","CORSICANA","TX",75109,32.0350641160001,-96.338400862,77,"7379 SE CR 3060, CORSICANA, TX, 75109","Match","Exact","7379 SE CO RD 3060, CORSICANA, TX, 75109",183912339,"L"
283578,"7379 SWEET MAGNOLIA LANE","HARRISON","TN",37341,35.16393642,-85.0719727279999,78,"7379 SWEET MAGNOLIA LANE, HARRISON, TN, 37341","Match","Exact","7379 SWEET MAGNOLIA LN, HARRISON, TN, 37341",618927394,"R"
283579,"7379 THORNAPPLE DALES DR SE","ALTO","MI",49302,42.852744596,-85.4825726889999,79,"7379 THORNAPPLE DALES DR SE, ALTO, MI, 49302","Match","Exact","7379 THORNAPPLE DALES DR SE, ALTO, MI, 49302",12475484,"L"
283580,"738  VERONA COURT","SAN DIEGO","CA",92109,32.7877915440001,-117.253899842,80,"738  VERONA COURT, SAN DIEGO, CA, 92109","Match","Exact","738 VERONA CT, SAN DIEGO, CA, 92109",195299638,"L"
283581,"738 17TH STREET","NEWPORT NEWS","VA",23607,36.9771291600001,-76.41369859,81,"738 17TH STREET, NEWPORT NEWS, VA, 23607","Match","Exact","738 17TH ST, NEWPORT NEWS, VA, 23607",103746737,"R"
283582,"738 22ND ST","COLUMBUS","IN",47201,39.2199828290001,-85.917263132,82,"738 22ND ST, COLUMBUS, IN, 47201","Match","Exact","738 22ND ST, COLUMBUS, IN, 47201",606484111,"L"
283583,"738 ARMSTRONG PARK ROAD","GASTONIA","NC",28054,35.2512031840001,-81.1346471969999,83,"738 ARMSTRONG PARK ROAD, GASTONIA, NC, 28054","Match","Exact","738 ARMSTRONG PARK RD, GASTONIA, NC, 28054",649750977,"R"
283584,"738 ARROWHEAD LANE","MURRAY","UT",84107,40.6595152580001,-111.870999118,84,"738 ARROWHEAD LANE, MURRAY, UT, 84107","Match","Non_Exact","738 E ARROWHEAD LN, MURRAY, UT, 84107",176083091,"R"
283585,"738 ARROWHEAD LN","MURRAY","UT",84107,40.6595152580001,-111.870999118,85,"738 ARROWHEAD LN, MURRAY, UT, 84107","Match","Non_Exact","738 E ARROWHEAD LN, MURRAY, UT, 84107",176083091,"R"
283586,"738 BAYBERRY COURT EAST","BLOOMINGTON","IN",47401,39.1428417540001,-86.524941876,86,"738 BAYBERRY COURT EAST, BLOOMINGTON, IN, 47401","Match","Non_Exact","738 E BAYBERRY CT E, BLOOMINGTON, IN, 47401",42334718,"R"
283587,"738 BAYLES DRIVE","ROMEOVILLE","IL",60446,41.5971310200001,-88.129560064,87,"738 BAYLES DRIVE, ROMEOVILLE, IL, 60446","Match","Exact","738 BAYLES DR, ROMEOVILLE, IL, 60446",648112794,"R"
283588,"738 BOVEE LANE","POWELL","OH",43065,40.1728300440001,-83.079829526,88,"738 BOVEE LANE, POWELL, OH, 43065","Match","Exact","738 BOVEE LN, POWELL, OH, 43065",24602448,"R"
283589,"738 BROADWAY","CHELSEA","MA",2150,42.396558272,-71.0274430169999,89,"738 BROADWAY, CHELSEA, MA, 2150","Match","Exact","738 BROADWAY, CHELSEA, MA, 02150",647315524,"L"
283590,"738 CHESTNUT ST","SANTA CRUZ","CA",95060,NA,NA,90,"738 CHESTNUT ST, SANTA CRUZ, CA, 95060","No_Match",NA,NA,NA,NA
283591,"738 CLAYTON STREET","CENTRAL","SC",29630,34.7208308900001,-82.7633700649999,91,"738 CLAYTON STREET, CENTRAL, SC, 29630","Match","Exact","738 CLAYTON ST, CENTRAL, SC, 29630",653712864,"L"
283592,"738 DEAN STREET","BROOKLYN","NY",11238,40.679757597,-73.965904498,92,"738 DEAN STREET, BROOKLYN, NY, 11238","Match","Exact","738 DEAN ST, BROOKLYN, NY, 11238",59077981,"R"
283593,"738 E 69TH STREET","CHICAGO","IL",60637,41.769496862,-87.6064807609999,93,"738 E 69TH STREET, CHICAGO, IL, 60637","Match","Exact","738 E 69TH ST, CHICAGO, IL, 60637",605502766,"L"
283594,"738 E MARTINTOWN RD","NORTH AUGUSTA","SC",29841,33.490695583,-81.952800452,94,"738 E MARTINTOWN RD, NORTH AUGUSTA, SC, 29841","Match","Exact","738 E MARTINTOWN RD, NORTH AUGUSTA, SC, 29841",639955575,"R"
283595,"738 E NORMAN RD","SAN BERNARDINO","CA",92408,34.081338456,-117.269086486,95,"738 E NORMAN RD, SAN BERNARDINO, CA, 92408","Match","Exact","738 E NORMAN RD, SAN BERNARDINO, CA, 92408",650365540,"L"
283596,"738 EAST 220TH STREET APT 3F","BRONX","NY",10467,40.8839094300001,-73.861255312,96,"738 EAST 220TH STREET APT 3F, BRONX, NY, 10467","Match","Exact","738 E 220TH ST, BRONX, NY, 10467",80297040,"R"
283597,"738 EAST DUNDEE ROAD - SUITE 311","PALATINE","IL",60074,42.139166501,-88.025225457,97,"738 EAST DUNDEE ROAD - SUITE 311, PALATINE, IL, 60074","Match","Exact","738 E DUNDEE RD, PALATINE, IL, 60074",639251909,"L"
283598,"738 EASTWOOD RISE","STONE MOUNTAIN","GA",30087,33.7978539260001,-84.105042168,98,"738 EASTWOOD RISE, STONE MOUNTAIN, GA, 30087","Match","Exact","738 EASTWOOD RISE, STONE MOUNTAIN, GA, 30087",23389049,"R"
283599,"738 GRAFTON STREET","MANTECA","CA",95337,37.7776138520001,-121.205508178,99,"738 GRAFTON STREET, MANTECA, CA, 95337","Match","Exact","738 GRAFTON ST, MANTECA, CA, 95337",133891360,"R"
283600,"738 HIGHLAND AVENUE","COVINGTON","KY",41011,39.0640681350001,-84.518041334,100,"738 HIGHLAND AVENUE, COVINGTON, KY, 41011","Match","Exact","738 HIGHLAND AVE, COVINGTON, KY, 41011",103876902,"R"
283601,"738 JONES CREEK","EVANS","GA",30809,33.5506845410001,-82.100441589,101,"738 JONES CREEK, EVANS, GA, 30809","Match","Exact","738 JONES CREEK, EVANS, GA, 30809",55383130,"L"
283602,"738 LEFFERTS AVENUE APT 3","BROOKLYN","NY",11203,40.66324101,-73.9364320449999,102,"738 LEFFERTS AVENUE APT 3, BROOKLYN, NY, 11203","Match","Exact","738 LEFFERTS AVE, BROOKLYN, NY, 11203",59079898,"R"
283603,"738 LEFFERTS AVENUE SUITE C","BROOKLYN","NY",11203,40.66324101,-73.9364320449999,103,"738 LEFFERTS AVENUE SUITE C, BROOKLYN, NY, 11203","Match","Exact","738 LEFFERTS AVE, BROOKLYN, NY, 11203",59079898,"R"
283604,"738 LONGRIDGE RD","OAKLAND","CA",94610,37.8095960640001,-122.238691877,104,"738 LONGRIDGE RD, OAKLAND, CA, 94610","Match","Exact","738 LONGRIDGE RD, OAKLAND, CA, 94610",125002278,"L"
283605,"738 LORIMOR CT","SAN ANTONIO","TX",78258,29.630538336,-98.506424002,105,"738 LORIMOR CT, SAN ANTONIO, TX, 78258","Match","Non_Exact","738 LORIMAR CT, SAN ANTONIO, TX, 78258",634261259,"R"
283606,"738 MAIN ST NO 210","WALTHAM","MA",2451,42.376208784,-71.241058094,106,"738 MAIN ST NO 210, WALTHAM, MA, 2451","Match","Non_Exact","738 MAIN ST, WALTHAM, MA, 02451",86890364,"L"
283607,"738 MAIN ST NO 540121","WALTHAM","MA",2454,NA,NA,107,"738 MAIN ST NO 540121, WALTHAM, MA, 2454","No_Match",NA,NA,NA,NA
283608,"738 MAIN ST PMB 174","WALTHAM","MA",2451,42.376208784,-71.241058094,108,"738 MAIN ST PMB 174, WALTHAM, MA, 2451","Match","Exact","738 MAIN ST, WALTHAM, MA, 02451",86890364,"L"
283609,"738 MAIN ST","WALTHAM","MA",2451,42.376208784,-71.241058094,109,"738 MAIN ST, WALTHAM, MA, 2451","Match","Exact","738 MAIN ST, WALTHAM, MA, 02451",86890364,"L"
283610,"738 MAIN STREET BOX 323","WALTHAM","MA",2451,42.376208784,-71.241058094,110,"738 MAIN STREET BOX 323, WALTHAM, MA, 2451","Match","Exact","738 MAIN ST, WALTHAM, MA, 02451",86890364,"L"
283611,"738 MAIN STREET NUMBER 340","WALTHAM","MA",2451,42.376208784,-71.241058094,111,"738 MAIN STREET NUMBER 340, WALTHAM, MA, 2451","Match","Exact","738 MAIN ST, WALTHAM, MA, 02451",86890364,"L"
283612,"738 MAIN STREET","BROOKSIDE","AL",35036,NA,NA,112,"738 MAIN STREET, BROOKSIDE, AL, 35036","No_Match",NA,NA,NA,NA
283613,"738 MARKET STREET","COLUSA","CA",95932,39.214823665,-122.011233538,113,"738 MARKET STREET, COLUSA, CA, 95932","Match","Exact","738 MARKET ST, COLUSA, CA, 95932",67118804,"R"
283614,"738 N 5TH AVE  SUITE 222","TUCSON","AZ",85705,32.2308792220001,-110.967136084,114,"738 N 5TH AVE  SUITE 222, TUCSON, AZ, 85705","Match","Non_Exact","738 N 5TH AVE, TUCSON, AZ, 85705",121170217,"R"
283615,"738 OASIS DR","CHICO","CA",95973,39.8117402980001,-121.866352633,115,"738 OASIS DR, CHICO, CA, 95973","Match","Exact","738 OASIS DR, CHICO, CA, 95973",642907754,"R"
283616,"738 OLD DIXVILLE RD","HARRODSBURG","KY",40330,37.730579413,-84.9366763309999,116,"738 OLD DIXVILLE RD, HARRODSBURG, KY, 40330","Match","Exact","738 OLD DIXVILLE RD, HARRODSBURG, KY, 40330",32609811,"L"
283617,"738 PINE HAVEN CIRCLE","LOVER","SC",29710,35.0917360170001,-81.221981984,117,"738 PINE HAVEN CIRCLE, LOVER, SC, 29710","Match","Non_Exact","738 PINE HAVEN CIR, CLOVER, SC, 29710",19816620,"L"
283618,"738 ROBINS AVE","OGDEN","UT",84404,41.2511881300001,-111.941023995,118,"738 ROBINS AVE, OGDEN, UT, 84404","Match","Exact","738 ROBINS AVE, OGDEN, UT, 84404",155697605,"R"
283619,"738 S CLAREMONT AVENUE UNIT 1","CHICAGO","IL",60612,41.872509618,-87.684979546,119,"738 S CLAREMONT AVENUE UNIT 1, CHICAGO, IL, 60612","Match","Non_Exact","738 S CLAREMONT AVE, CHICAGO, IL, 60612",605034631,"R"
283620,"738 S JEFF DAVIS DR","FAYETTEVILLE","GA",30215,33.4368363340001,-84.4337361139999,120,"738 S JEFF DAVIS DR, FAYETTEVILLE, GA, 30215","Match","Exact","738 S JEFF DAVIS DR, FAYETTEVILLE, GA, 30215",638410424,"R"
283621,"738 S LINCOLN","HINSDALE","IL",60521,41.793837835,-87.930456622,121,"738 S LINCOLN, HINSDALE, IL, 60521","Match","Non_Exact","738 S LINCOLN ST, HINSDALE, IL, 60521",112550245,"R"
283622,"738 S SCOTT ST","SPOKANE","WA",99202,47.6492042690001,-117.39928402,122,"738 S SCOTT ST, SPOKANE, WA, 99202","Match","Exact","738 S SCOTT ST, SPOKANE, WA, 99202",189880655,"R"
283623,"738 S VERDUGO RD","GLENDALE","CA",91205,34.1374747200001,-118.233576462,123,"738 S VERDUGO RD, GLENDALE, CA, 91205","Match","Exact","738 S VERDUGO RD, GLENDALE, CA, 91205",141611367,"L"
283624,"738 SCHOOL AVENUE","MATTESON","IL",60443,41.512447412,-87.726003514,124,"738 SCHOOL AVENUE, MATTESON, IL, 60443","Match","Exact","738 SCHOOL AVE, MATTESON, IL, 60443",111708154,"L"
283625,"738 SHADY LODGE LANE","SPRING","TX",77373,30.0900741680001,-95.4259006509999,125,"738 SHADY LODGE LANE, SPRING, TX, 77373","Match","Exact","738 SHADY LODGE LN, SPRING, TX, 77373",627678148,"L"
283626,"738 SOUTH BROAD ST","KENBRIDGE","VA",23944,36.956054452,-78.130722105,126,"738 SOUTH BROAD ST, KENBRIDGE, VA, 23944","Match","Exact","738 S BROAD ST, KENBRIDGE, VA, 23944",54265774,"L"
283627,"738 ST  MARKS AVENUE  BASEMENT","BROOKLYN","NY",11216,40.675131623,-73.9487439449999,127,"738 ST  MARKS AVENUE  BASEMENT, BROOKLYN, NY, 11216","Match","Exact","738 ST MARKS AVE, BROOKLYN, NY, 11216",59079419,"R"
283628,"738 ST NICHOLAS AVENUE SUITE 5","NEW YORK","NY",10031,40.8252323620001,-73.943877088,128,"738 ST NICHOLAS AVENUE SUITE 5, NEW YORK, NY, 10031","Match","Exact","738 ST NICHOLAS AVE, NEW YORK, NY, 10031",59656275,"R"
283629,"738 SW 4 TERRACE","DANIA BEACH","FL",33004,26.0437166940001,-80.150330498,129,"738 SW 4 TERRACE, DANIA BEACH, FL, 33004","Match","Non_Exact","738 SW 4TH TER, DANIA BEACH, FL, 33004",114730040,"R"
283630,"738 W 5TH STREET","LA HABRA","CA",90631,NA,NA,130,"738 W 5TH STREET, LA HABRA, CA, 90631","Tie",NA,NA,NA,NA
283631,"738 WAYSIDE ROAD","NEPTUNE","NJ",7753,40.2241334560001,-74.0599903469999,131,"738 WAYSIDE ROAD, NEPTUNE, NJ, 7753","Match","Exact","738 WAYSIDE RD, NEPTUNE, NJ, 07753",624740669,"R"
283632,"738 WEST 99TH STREET","LOS ANGELES","CA",90044,33.9463483600001,-118.287915805,132,"738 WEST 99TH STREET, LOS ANGELES, CA, 90044","Match","Exact","738 W 99TH ST, LOS ANGELES, CA, 90044",141660122,"L"
283633,"738 WOODALL DR","EVANSVILLE","IN",47711,38.0461673080001,-87.5520822939999,133,"738 WOODALL DR, EVANSVILLE, IN, 47711","Match","Exact","738 WOODALL DR, EVANSVILLE, IN, 47711",39799405,"L"
283634,"7380 ALGONQUIN DRIVE","CINCINNATI","OH",45243,39.1712898860001,-84.37215545,134,"7380 ALGONQUIN DRIVE, CINCINNATI, OH, 45243","Match","Exact","7380 ALGONQUIN DR, CINCINNATI, OH, 45243",103939119,"L"
283635,"7380 BURKHALTER ROAD","STATESBORO","GA",30461,32.4052761080001,-81.743439171,135,"7380 BURKHALTER ROAD, STATESBORO, GA, 30461","Match","Exact","7380 BURKHALTER RD, STATESBORO, GA, 30461",6117371,"R"
283636,"7380 ENGLE ROAD","MIDDLEBURG HEIGHT","OH",44130,41.3654772200001,-81.825111181,136,"7380 ENGLE ROAD, MIDDLEBURG HEIGHT, OH, 44130","Match","Non_Exact","7380 ENGLE RD, MIDDLEBURG HEIGHTS, OH, 44130",61178397,"R"
283637,"7380 MURRELL ROAD","VIERA","FL",32940,28.238532203,-80.712978033,137,"7380 MURRELL ROAD, VIERA, FL, 32940","Match","Exact","7380 MURRELL RD, VIERA, FL, 32940",93933881,"R"
283638,"7381 GERMANIA ROAD","UBLY","MI",48475,43.6284871870001,-83.017281495,138,"7381 GERMANIA ROAD, UBLY, MI, 48475","Match","Exact","7381 GERMANIA RD, UBLY, MI, 48475",111063343,"L"
283639,"7381 HIGHWAY 1496","GRAYSON","KY",41143,38.209841698,-82.8894115749999,139,"7381 HIGHWAY 1496, GRAYSON, KY, 41143","Match","Non_Exact","7381 STATE HWY 1496, GRAYSON, KY, 41143",39588412,"L"
283640,"7381 LA TIJERA BLVD  451687","LA","CA",90045,NA,NA,140,"7381 LA TIJERA BLVD  451687, LA, CA, 90045","No_Match",NA,NA,NA,NA
283641,"7381 LA TIJERA BLVD 452073","LOS ANGELES","CA",90043,NA,NA,141,"7381 LA TIJERA BLVD 452073, LOS ANGELES, CA, 90043","No_Match",NA,NA,NA,NA
283642,"7381 LA TIJERA BLVD 45431","LOS ANGELES","CA",90045,NA,NA,142,"7381 LA TIJERA BLVD 45431, LOS ANGELES, CA, 90045","No_Match",NA,NA,NA,NA
283643,"7381 LA TIJERA BLVD STE 452394","LOS ANGELES","CA",90045,NA,NA,143,"7381 LA TIJERA BLVD STE 452394, LOS ANGELES, CA, 90045","No_Match",NA,NA,NA,NA
283644,"7381 LA TIJERA BOULEVARD UNIT 45857","LOS ANGELES","CA",90045,NA,NA,144,"7381 LA TIJERA BOULEVARD UNIT 45857, LOS ANGELES, CA, 90045","No_Match",NA,NA,NA,NA
283645,"7381 LATIJERA BLVD  45431","LOS ANGELES","CA",90045,33.970762979,-118.379254079,145,"7381 LATIJERA BLVD  45431, LOS ANGELES, CA, 90045","Match","Non_Exact","7381 S LA TIJERA BLVD, LOS ANGELES, CA, 90045",241223797,"R"
283646,"7381 LATIJERA BLVD BOX 452073","LOS ANGELES","CA",90045,33.970762979,-118.379254079,146,"7381 LATIJERA BLVD BOX 452073, LOS ANGELES, CA, 90045","Match","Non_Exact","7381 S LA TIJERA BLVD, LOS ANGELES, CA, 90045",241223797,"R"
283647,"7381 NAVARRE PKWY UNIT 4407","NAVARRE","FL",32566,30.4019251780001,-86.913774439,147,"7381 NAVARRE PKWY UNIT 4407, NAVARRE, FL, 32566","Match","Exact","7381 NAVARRE PKWY, NAVARRE, FL, 32566",74588908,"L"
283648,"7382 NATAL DRIVE","WESTMINSTER","CA",92683,33.7707933070001,-118.000593788,148,"7382 NATAL DRIVE, WESTMINSTER, CA, 92683","Match","Exact","7382 NATAL DR, WESTMINSTER, CA, 92683",144015065,"R"
283649,"7382 WHITE CASTLE COURT","RIVERDALE","GA",30274,33.5533062320001,-84.397344705,149,"7382 WHITE CASTLE COURT, RIVERDALE, GA, 30274","Match","Exact","7382 WHITE CASTLE CT, RIVERDALE, GA, 30274",23313228,"L"
283650,"7384 N LINCOLN AVE","LINCOLNWOOD","IL",60712,42.0151093060001,-87.743687745,150,"7384 N LINCOLN AVE, LINCOLNWOOD, IL, 60712","Match","Exact","7384 LINCOLN AVE, LINCOLNWOOD, IL, 60712",111740856,"L"
283651,"7384 PYRAMID PLACE","LOS ANGELES","CA",90046,34.1215472710001,-118.355554613,151,"7384 PYRAMID PLACE, LOS ANGELES, CA, 90046","Match","Exact","7384 PYRAMID PL, LOS ANGELES, CA, 90046",652038075,"L"
283652,"7384 TRAILING ROCK RD","PRINCE GEORGE","VA",23875,37.244213734,-77.2807253459999,152,"7384 TRAILING ROCK RD, PRINCE GEORGE, VA, 23875","Match","Exact","7384 TRAILING ROCK RD, PRINCE GEORGE, VA, 23875",54177971,"R"
283653,"7384 W COLTER STREET","GLENDALE","AZ",85303,33.5123328770001,-112.217812749,153,"7384 W COLTER STREET, GLENDALE, AZ, 85303","Match","Exact","7384 W COLTER ST, GLENDALE, AZ, 85303",128384394,"L"
283654,"7384 WINDSOR MEADOW DR","MAINEVILLE","OH",45039,39.330319285,-84.269999325,154,"7384 WINDSOR MEADOW DR, MAINEVILLE, OH, 45039","Match","Exact","7384 WINDSOR MEADOW DR, MAINEVILLE, OH, 45039",159035568,"L"
283655,"7385 CROSS CREEK DR","SWARTZ CREEK","MI",48473,42.963120304,-83.824665152,155,"7385 CROSS CREEK DR, SWARTZ CREEK, MI, 48473","Match","Non_Exact","7385 CROSSCREEK DR, SWARTZ CREEK, MI, 48473",630299327,"L"
283656,"7385 CROWN MEADOWS DR","PORT ARTHUR","TX",77642,29.9472724980001,-93.970418507,156,"7385 CROWN MEADOWS DR, PORT ARTHUR, TX, 77642","Match","Exact","7385 CROWN MEADOWS DR, PORT ARTHUR, TX, 77642",624070181,"L"
283657,"7385 DILLMAN RD","CAMDEN","OH",45311,39.632899798,-84.686303906,157,"7385 DILLMAN RD, CAMDEN, OH, 45311","Match","Exact","7385 DILLMAN RD, CAMDEN, OH, 45311",54593448,"R"
283658,"7385 HIGHWAY 188","CODEN","AL",36523,30.377911554,-88.21526991,158,"7385 HIGHWAY 188, CODEN, AL, 36523","Match","Non_Exact","7385 STATE RTE 188, CODEN, AL, 36523",61918436,"R"
283659,"7385 NORTH STATE ROUTE 3  SUITE 175","WESTERVILLE","OH",43082,NA,NA,159,"7385 NORTH STATE ROUTE 3  SUITE 175, WESTERVILLE, OH, 43082","No_Match",NA,NA,NA,NA
283660,"7385 NORTH STATE RT 3 SUITE 141","WESTERVILLE","OH",43082,NA,NA,160,"7385 NORTH STATE RT 3 SUITE 141, WESTERVILLE, OH, 43082","No_Match",NA,NA,NA,NA
283661,"7385 PARK VILLAGE DRIVE APT 1108","JACKSONVILLE","FL",32256,30.2453469120001,-81.5170219189999,161,"7385 PARK VILLAGE DRIVE APT 1108, JACKSONVILLE, FL, 32256","Match","Exact","7385 PARK VILLAGE DR, JACKSONVILLE, FL, 32256",650054271,"L"
283662,"7385 PINEVIEW RD","MT","MT",59024,46.3524609630001,-107.907257914,162,"7385 PINEVIEW RD, MT, MT, 59024","Match","Non_Exact","7385 PINEVIEW RD, CUSTER, MT, 59024",181466246,"R"
283663,"7385 SYLVAN DR","SANFORD","FL",32771,28.809775754,-81.390498602,163,"7385 SYLVAN DR, SANFORD, FL, 32771","Match","Exact","7385 SYLVAN DR, SANFORD, FL, 32771",93735470,"R"
283664,"7385 W HIGHWAY 50","SALIDA","CO",81201,38.524260672,-106.013188962,164,"7385 W HIGHWAY 50, SALIDA, CO, 81201","Match","Non_Exact","7385 US HWY 50, SALIDA, CO, 81201",642422728,"R"
283665,"7386 CORINTH ROAD","JONESBORO","GA",30238,NA,NA,165,"7386 CORINTH ROAD, JONESBORO, GA, 30238","No_Match",NA,NA,NA,NA
283666,"7386 ESCALLONIA CT","CARLSBAD","CA",92011,33.0934828800001,-117.311550333,166,"7386 ESCALLONIA CT, CARLSBAD, CA, 92011","Match","Exact","7386 ESCALLONIA CT, CARLSBAD, CA, 92011",195460813,"L"
283667,"7386 SOUTHAMPTON TERRACE","BOYNTON BEACH","FM",33436,NA,NA,167,"7386 SOUTHAMPTON TERRACE, BOYNTON BEACH, FM, 33436","No_Match",NA,NA,NA,NA
283668,"7387 BUCHANAN DR","KING GEORGE","VA",22485,38.268783027,-77.2148315109999,168,"7387 BUCHANAN DR, KING GEORGE, VA, 22485","Match","Exact","7387 BUCHANAN DR, KING GEORGE, VA, 22485",22054662,"R"
283669,"7387 W KENTUCKY DRIVE APT F","LAKEWOOD","CO",80226,39.7012487590001,-105.07840977,169,"7387 W KENTUCKY DRIVE APT F, LAKEWOOD, CO, 80226","Match","Non_Exact","7387 W KENTUCKY DR, LAKEWOOD, CO, 80226",648203668,"L"
283670,"73875 HIGHWAY 111","PALM DESERT","CA",92260,NA,NA,170,"73875 HIGHWAY 111, PALM DESERT, CA, 92260","No_Match",NA,NA,NA,NA
283671,"7388 BELLA FORESTA PLACE","SANFORD","FL",32771,28.8105101360001,-81.396339253,171,"7388 BELLA FORESTA PLACE, SANFORD, FL, 32771","Match","Exact","7388 BELLA FORESTA PL, SANFORD, FL, 32771",653182878,"L"
283672,"7388 GOLDEN HAWK DR","EL PASO","TX",79912,31.8702899030001,-106.560220747,172,"7388 GOLDEN HAWK DR, EL PASO, TX, 79912","Match","Exact","7388 GOLDEN HAWK DR, EL PASO, TX, 79912",189376471,"L"
283673,"7388 MCCLAIN POINT","COLORADO SPRINGS","CO",80915,38.8478083970001,-104.68961823,173,"7388 MCCLAIN POINT, COLORADO SPRINGS, CO, 80915","Match","Exact","7388 MCCLAIN PT, COLORADO SPRINGS, CO, 80915",647964605,"L"
283674,"7388 TORY DRIVE","HUDSONVILLE","MI",49426,42.9032266130001,-85.885321174,174,"7388 TORY DRIVE, HUDSONVILLE, MI, 49426","Match","Exact","7388 TORY DR, HUDSONVILLE, MI, 49426",71096335,"R"
283675,"73885 MADISON AVE","ARMADA","MI",48005,42.8419144700001,-82.874986416,175,"73885 MADISON AVE, ARMADA, MI, 48005","Match","Non_Exact","73885 MADISON ST, ARMADA, MI, 48005",110713184,"R"
283676,"7389 ALCEDO CIRCLE","SACRAMENTO","CA",95823,38.4888162550001,-121.461177238,176,"7389 ALCEDO CIRCLE, SACRAMENTO, CA, 95823","Match","Exact","7389 ALCEDO CIR, SACRAMENTO, CA, 95823",133351338,"R"
283677,"7389 BENES TRAIL","JACKSONVILLE","FL",32244,30.211553156,-81.7554203449999,177,"7389 BENES TRAIL, JACKSONVILLE, FL, 32244","Match","Exact","7389 BENES TRL, JACKSONVILLE, FL, 32244",647014170,"R"
283678,"7389 EMERALD DR","MANASSAS","VA",20109,38.795594087,-77.505517861,178,"7389 EMERALD DR, MANASSAS, VA, 20109","Match","Exact","7389 EMERALD DR, MANASSAS, VA, 20109",207157378,"L"
283679,"7389 S 25 E","PENDLETON","IN",46064,39.997906017,-85.6672167839999,179,"7389 S 25 E, PENDLETON, IN, 46064","Match","Exact","7389 S 25 E, PENDLETON, IN, 46064",31127966,"L"
283680,"739 12TH ST","PASO ROBLES","CA",93446,35.6267932800001,-120.689604364,180,"739 12TH ST, PASO ROBLES, CA, 93446","Match","Exact","739 12TH ST, PASO ROBLES, CA, 93446",109713793,"L"
283681,"739 32ND STREET","DES MOINES","IA",50312,41.590627823,-93.6604818499999,181,"739 32ND STREET, DES MOINES, IA, 50312","Match","Exact","739 32ND ST, DES MOINES, IA, 50312",65780762,"R"
283682,"739 7TH STREET","CHIPLEY","FL",32428,NA,NA,182,"739 7TH STREET, CHIPLEY, FL, 32428","Tie",NA,NA,NA,NA
283683,"739 ANNIES WAY","SUGAR LAND","TX",77479,29.5916100150001,-95.6946207249999,183,"739 ANNIES WAY, SUGAR LAND, TX, 77479","Match","Non_Exact","739 ANNIE'S WAY, SUGAR LAND, TX, 77479",78296486,"R"
283684,"739 AUSTERLITZ ST","NEW ORLEANS","LA",70115,29.919622062,-90.095565322,184,"739 AUSTERLITZ ST, NEW ORLEANS, LA, 70115","Match","Exact","739 AUSTERLITZ ST, NEW ORLEANS, LA, 70115",191713192,"R"
283685,"739 BUSH ROAD","BARNESVILLE","GA",30204,33.0147020580001,-84.096107424,185,"739 BUSH ROAD, BARNESVILLE, GA, 30204","Match","Exact","739 BUSH RD, BARNESVILLE, GA, 30204",66648457,"L"
283686,"739 CHAPMAN LOOP","THE VILLAGES","FL",32162,28.8737956300001,-81.969526721,186,"739 CHAPMAN LOOP, THE VILLAGES, FL, 32162","Match","Exact","739 CHAPMAN LOOP, THE VILLAGES, FL, 32162",637795071,"R"
283687,"739 DARREM DR","DENHAM SPRINGS","LA",70726,30.4926457,-90.937851516,187,"739 DARREM DR, DENHAM SPRINGS, LA, 70726","Match","Non_Exact","739 DARREN DR, DENHAM SPRINGS, LA, 70726",115086124,"L"
283688,"739 E 17TH ST","BURLEY","ID",83318,42.532147396,-113.78512794,188,"739 E 17TH ST, BURLEY, ID, 83318","Match","Exact","739 E 17TH ST, BURLEY, ID, 83318",105276595,"L"
283689,"739 E 242 STREET 4B","BRONX","NY",10470,40.9055317450001,-73.848610771,189,"739 E 242 STREET 4B, BRONX, NY, 10470","Match","Non_Exact","739 E 242ND ST, BRONX, NY, 10470",80297414,"L"
283690,"739 E 48TH ST BSMT","BROOKLYN","NY",11203,40.643025251,-74.00383267,190,"739 E 48TH ST BSMT, BROOKLYN, NY, 11203","Match","Non_Exact","739 48TH ST, BROOKLYN, NY, 11220",59094795,"L"
283691,"739 FURNACE ROAD","IRON STATION","NC",28080,35.485734479,-81.1272194009999,191,"739 FURNACE ROAD, IRON STATION, NC, 28080","Match","Exact","739 FURNACE RD, IRON STATION, NC, 28080",69538005,"L"
283692,"739 GERMANTOWN CIRCLE APT A","EAST RIDGE","TN",37412,35.0079445900001,-85.253702345,192,"739 GERMANTOWN CIRCLE APT A, EAST RIDGE, TN, 37412","Match","Non_Exact","739 S GERMANTOWN CIR, EAST RIDGE, TN, 37412",59314456,"R"
283693,"739 GRAND AVE APT 1","HARTFORD","WI",53027,43.3078639770001,-88.374177244,193,"739 GRAND AVE APT 1, HARTFORD, WI, 53027","Match","Exact","739 GRAND AVE, HARTFORD, WI, 53027",79556417,"L"
283694,"739 GROVE AVE","SOUTHAMPTON","PA",18966,40.176166811,-75.044858548,194,"739 GROVE AVE, SOUTHAMPTON, PA, 18966","Match","Exact","739 GROVE AVE, SOUTHAMPTON, PA, 18966",134708097,"R"
283695,"739 HARLEY TAYLOR ROAD","GILBERT","SC",29054,33.946622571,-81.412449577,195,"739 HARLEY TAYLOR ROAD, GILBERT, SC, 29054","Match","Exact","739 HARLEY TAYLOR RD, GILBERT, SC, 29054",70036817,"L"
283696,"739 HARRIETT DRIVE","FLORENCE","SC",29501,34.1836692680001,-79.879132328,196,"739 HARRIETT DRIVE, FLORENCE, SC, 29501","Match","Exact","739 HARRIETT DR, FLORENCE, SC, 29501",28875581,"R"
283697,"739 HILL COUNTY ROAD 1120","RIO VISTA","TX",76093,NA,NA,197,"739 HILL COUNTY ROAD 1120, RIO VISTA, TX, 76093","No_Match",NA,NA,NA,NA
283698,"739 HUNTERS TR","AKRON","OH",44313,41.138886868,-81.5820029719999,198,"739 HUNTERS TR, AKRON, OH, 44313","Match","Exact","739 HUNTERS TRL, AKRON, OH, 44313",61380655,"R"
283699,"739 HWY 487 E","CARTHAGE","MS",39051,NA,NA,199,"739 HWY 487 E, CARTHAGE, MS, 39051","No_Match",NA,NA,NA,NA
283700,"739 KNICKERBOCKER DRIVE","WATERTOWN","NY",13601,43.9624924840001,-75.905362495,200,"739 KNICKERBOCKER DRIVE, WATERTOWN, NY, 13601","Match","Exact","739 KNICKERBOCKER DR, WATERTOWN, NY, 13601",154279408,"L"
283701,"739 KNIGHTS BRIDGE CT","CARDIFF BY THE SEA","CA",92007,33.030835724,-117.275764042,201,"739 KNIGHTS BRIDGE CT, CARDIFF BY THE SEA, CA, 92007","Match","Non_Exact","739 KNIGHTSBRIDGE CT, CARDIFF BY THE SEA, CA, 92007",195375095,"L"
283702,"739 LYNN VALLEY ROAD SW","ATLANTA","GA",30311,33.736116441,-84.48444201,202,"739 LYNN VALLEY ROAD SW, ATLANTA, GA, 30311","Match","Exact","739 LYNN VALLEY RD SW, ATLANTA, GA, 30311",17337483,"R"
283703,"739 MADISON","ALBANY","CA",94706,37.893057465,-122.301759545,203,"739 MADISON, ALBANY, CA, 94706","Match","Non_Exact","739 MADISON ST, ALBANY, CA, 94706",124991964,"L"
283704,"739 MICHAEL STREET","IOWA CITY","IA",52246,41.650733632,-91.544912445,204,"739 MICHAEL STREET, IOWA CITY, IA, 52246","Match","Exact","739 MICHAEL ST, IOWA CITY, IA, 52246",84511240,"R"
283705,"739 MILLER AVENUE","MILL VALLEY","CA",94941,37.89061424,-122.525827727,205,"739 MILLER AVENUE, MILL VALLEY, CA, 94941","Match","Exact","739 MILLER AVE, MILL VALLEY, CA, 94941",192766803,"L"
283706,"739 N 8TH ST","QUINCY","IL",62301,39.939892302,-91.403369809,206,"739 N 8TH ST, QUINCY, IL, 62301","Match","Exact","739 N 8TH ST, QUINCY, IL, 62301",35064084,"L"
283707,"739 N MAIN STREET","AKRON","OH",44310,41.1056138700001,-81.510837483,207,"739 N MAIN STREET, AKRON, OH, 44310","Match","Exact","739 N MAIN ST, AKRON, OH, 44310",61340906,"R"
283708,"739 N RUETH DR","GRIFFITH","IN",46319,41.5350076130001,-87.4454952359999,208,"739 N RUETH DR, GRIFFITH, IN, 46319","Match","Exact","739 RUETH DR, GRIFFITH, IN, 46319",98448333,"R"
283709,"739 NORTH LINCOLN AVENUE","ORANGE","CA",92867,33.799532931,-117.837813764,209,"739 NORTH LINCOLN AVENUE, ORANGE, CA, 92867","Match","Non_Exact","739 N LINCOLN ST, ORANGE, CA, 92867",144031094,"R"
283710,"739 NORTH SOUTH STREET","WILMINGTON","OH",45177,39.4551855810001,-83.82790844,210,"739 NORTH SOUTH STREET, WILMINGTON, OH, 45177","Match","Exact","739 N SOUTH ST, WILMINGTON, OH, 45177",146839418,"L"
283711,"739 OAKDALE DRIVE","ELKHART","IN",46517,41.661345291,-85.977298703,211,"739 OAKDALE DRIVE, ELKHART, IN, 46517","Match","Exact","739 OAKDALE DR, ELKHART, IN, 46517",7752354,"L"
283712,"739 POINT AU ROCHE ROAD","PLATTSBURGH","NY",12901,44.794930116,-73.3632657699999,212,"739 POINT AU ROCHE ROAD, PLATTSBURGH, NY, 12901","Match","Exact","739 POINT AU ROCHE RD, PLATTSBURGH, NY, 12901",136085631,"L"
283713,"739 RIVER VALLEY DR","JONESBORO","GA",30238,33.4960357300001,-84.4156703739999,213,"739 RIVER VALLEY DR, JONESBORO, GA, 30238","Match","Exact","739 RIVER VALLEY DR, JONESBORO, GA, 30238",23325913,"R"
283714,"739 S WOODWARD STREET","ALLENTOWN","PA",18103,40.5935339060001,-75.458195027,214,"739 S WOODWARD STREET, ALLENTOWN, PA, 18103","Match","Exact","739 S WOODWARD ST, ALLENTOWN, PA, 18103",80773401,"L"
283715,"739 SELBY AVENUE","ST. PAUL","MN",55104,44.946607445,-93.13116229,215,"739 SELBY AVENUE, ST. PAUL, MN, 55104","Match","Exact","739 SELBY AVE, SAINT PAUL, MN, 55104",97647462,"R"
283716,"739 SMITH CIRCLE","DAWSONVILLE","GA",30534,34.530463808,-84.29673797,216,"739 SMITH CIRCLE, DAWSONVILLE, GA, 30534","Match","Exact","739 SMITH CIR, DAWSONVILLE, GA, 30534",70173573,"L"
283717,"739 SOUTH SPRING GARDEN AVE","DELAND","FL",32720,29.0158229420001,-81.323847207,217,"739 SOUTH SPRING GARDEN AVE, DELAND, FL, 32720","Match","Exact","739 S SPRING GARDEN AVE, DELAND, FL, 32720",648008288,"R"
283718,"739 SPRING THYME DR","BELLE CHASSE","LA",70037,29.864261087,-89.992099073,218,"739 SPRING THYME DR, BELLE CHASSE, LA, 70037","Match","Exact","739 SPRING THYME DR, BELLE CHASSE, LA, 70037",191994969,"R"
283719,"739 STONEBLUFF COURT","CHESTERFIELD","MO",63005,38.649886543,-90.578010929,219,"739 STONEBLUFF COURT, CHESTERFIELD, MO, 63005","Match","Exact","739 STONEBLUFF CT, CHESTERFIELD, MO, 63005",100195910,"L"
283720,"739 STONEHILL RUN","CINCINNATI","OH",45245,39.038254845,-84.286358477,220,"739 STONEHILL RUN, CINCINNATI, OH, 45245","Match","Exact","739 STONEHILL RUN, CINCINNATI, OH, 45245",118465020,"L"
283721,"739 SWEETBRUSH","SAN ANTONIO","TX",78258,29.619033926,-98.4973688539999,221,"739 SWEETBRUSH, SAN ANTONIO, TX, 78258","Match","Exact","739 SWEETBRUSH, SAN ANTONIO, TX, 78258",101566193,"R"
283722,"739 THIMBLE SHOAL BLVD SUITE 1011 G","NEWPORT NEWS","VA",23606,37.081791885,-76.466069761,222,"739 THIMBLE SHOAL BLVD SUITE 1011 G, NEWPORT NEWS, VA, 23606","Match","Non_Exact","739 THIMBLE SHOALS BLVD, NEWPORT NEWS, VA, 23606",650869366,"L"
283723,"739 THIMBLE SHOALS BLVD STE 404","NEWPORT NEWS","VA",23606,37.081791885,-76.466069761,223,"739 THIMBLE SHOALS BLVD STE 404, NEWPORT NEWS, VA, 23606","Match","Exact","739 THIMBLE SHOALS BLVD, NEWPORT NEWS, VA, 23606",650869366,"L"
283724,"739 THIMBLE SHOALS DRIVE STE 1011B","NEWPORT NEWS","VA",23606,37.081791885,-76.466069761,224,"739 THIMBLE SHOALS DRIVE STE 1011B, NEWPORT NEWS, VA, 23606","Match","Non_Exact","739 THIMBLE SHOALS BLVD, NEWPORT NEWS, VA, 23606",650869366,"L"
283725,"739 W PRATT STREET SUITE C","BALTIMORE","MD",21201,NA,NA,225,"739 W PRATT STREET SUITE C, BALTIMORE, MD, 21201","No_Match",NA,NA,NA,NA
283726,"739 W US HWY 54","CAMDENTON","MO",65020,38.002698358,-92.756062715,226,"739 W US HWY 54, CAMDENTON, MO, 65020","Match","Exact","739 US HWY 54, CAMDENTON, MO, 65020",22845426,"L"
283727,"739 WICHITAW DR","FREMONT","CA",94539,37.486201067,-121.919070826,227,"739 WICHITAW DR, FREMONT, CA, 94539","Match","Exact","739 WICHITAW DR, FREMONT, CA, 94539",124990117,"R"
283728,"739 YARMOUTH STREET","NORFOLK","VA",23510,36.855048588,-76.2936728129999,228,"739 YARMOUTH STREET, NORFOLK, VA, 23510","Match","Exact","739 YARMOUTH ST, NORFOLK, VA, 23510",122127279,"L"
283729,"739 YELLOW PINE AVENUE","ATHOL","ID",83801,47.9223460970001,-116.772021222,229,"739 YELLOW PINE AVENUE, ATHOL, ID, 83801","Match","Non_Exact","739 E YELLOW PINE AVE, ATHOL, ID, 83801",192934284,"L"
283730,"7390 NEWHALL AVE","HESPERIA","CA",92345,34.385504768,-117.27885879,230,"7390 NEWHALL AVE, HESPERIA, CA, 92345","Match","Exact","7390 NEWHALL AVE, HESPERIA, CA, 92345",144590895,"L"
283731,"7390 PINDO CIR APT 113","BEAUMONT","TX",77708,30.13633988,-94.190010604,231,"7390 PINDO CIR APT 113, BEAUMONT, TX, 77708","Match","Exact","7390 PINDO CIR, BEAUMONT, TX, 77708",73849402,"R"
283732,"7390 SPARKLING LAKE ROAD","ORLANDO","FL",32819,28.4739867490001,-81.481841107,232,"7390 SPARKLING LAKE ROAD, ORLANDO, FL, 32819","Match","Exact","7390 SPARKLING LAKE RD, ORLANDO, FL, 32819",617790266,"L"
283733,"7390 W SAHARA AVE  UNIT 260","LAS VEGAS","NV",89117,36.14386749,-115.253873481,233,"7390 W SAHARA AVE  UNIT 260, LAS VEGAS, NV, 89117","Match","Non_Exact","7390 W SAHARA AVE, LAS VEGAS, NV, 89117",201861621,"R"
283734,"7390 WINDOVER WAY","TITUSVILLE","FL",32780,28.516497697,-80.8477541029999,234,"7390 WINDOVER WAY, TITUSVILLE, FL, 32780","Match","Exact","7390 WINDOVER WAY, TITUSVILLE, FL, 32780",93891786,"R"
283735,"7391 COUNT CIRCLE","HUNTINGTON BEACH","CA",92647,33.7202230780001,-117.998924469,235,"7391 COUNT CIRCLE, HUNTINGTON BEACH, CA, 92647","Match","Exact","7391 COUNT CIR, HUNTINGTON BEACH, CA, 92647",144251170,"R"
283736,"7391 E DAMASCO PL","TUCSON","AZ",85750,32.3082597850001,-110.834973602,236,"7391 E DAMASCO PL, TUCSON, AZ, 85750","Match","Exact","7391 E DAMASCO PL, TUCSON, AZ, 85750",121192292,"L"
283737,"7391 NESHOBA RD","GERMANTOWN","TN",38138,35.1041706710001,-89.816185678,237,"7391 NESHOBA RD, GERMANTOWN, TN, 38138","Match","Exact","7391 NESHOBA RD, GERMANTOWN, TN, 38138",72944350,"R"
283738,"7391 THIEL RD","LYNDEN","WA",98264,48.9110199400001,-122.420167227,238,"7391 THIEL RD, LYNDEN, WA, 98264","Match","Exact","7391 THIEL RD, LYNDEN, WA, 98264",183827599,"L"
283739,"7392 CHAPMAN PL UNIT A","GOLETA","CA",93117,34.4293669400001,-119.884406413,239,"7392 CHAPMAN PL UNIT A, GOLETA, CA, 93117","Match","Exact","7392 CHAPMAN PL, GOLETA, CA, 93117",108600564,"R"
283740,"7392 RICHARDSON ROAD","GROVEPORT","OH",43125,39.825990238,-82.868958075,240,"7392 RICHARDSON ROAD, GROVEPORT, OH, 43125","Match","Exact","7392 RICHARDSON RD, GROVEPORT, OH, 43125",135597482,"L"
283741,"7392 SW 35 TERRACE SUITE 206","MIAMI","FL",33193,NA,NA,241,"7392 SW 35 TERRACE SUITE 206, MIAMI, FL, 33193","No_Match",NA,NA,NA,NA
283742,"7393 MONTEREY ROAD","GILROY","CA",95020,37.0065713020001,-121.568668802,242,"7393 MONTEREY ROAD, GILROY, CA, 95020","Match","Exact","7393 MONTEREY RD, GILROY, CA, 95020",639645147,"L"
283743,"7394 CALLE REAL SUITE C","GOLETA","CA",93117,34.432783531,-119.885408309,243,"7394 CALLE REAL SUITE C, GOLETA, CA, 93117","Match","Non_Exact","7394 CLL REAL, GOLETA, CA, 93117",108600345,"R"
283744,"7395 126TH PL SE","NEWCASTLE","WA",98056,47.535809848,-122.171607288,244,"7395 126TH PL SE, NEWCASTLE, WA, 98056","Match","Exact","7395 126TH PL SE, NEWCASTLE, WA, 98056",239772764,"R"
283745,"7395 AMHURST TERRACE","ATLANTA","GA",30349,33.6727297240001,-84.628401149,245,"7395 AMHURST TERRACE, ATLANTA, GA, 30349","Match","Exact","7395 AMHURST TER, ATLANTA, GA, 30349",634083346,"L"
283746,"7395 WENDY ST","BARTLETT","TN",38133,35.2162364650001,-89.8161949719999,246,"7395 WENDY ST, BARTLETT, TN, 38133","Match","Exact","7395 WENDY ST, BARTLETT, TN, 38133",72957243,"R"
283747,"7396 FIELDING STREET","DETROIT","MI",48228,42.3448654110001,-83.240239888,247,"7396 FIELDING STREET, DETROIT, MI, 48228","Match","Exact","7396 FIELDING ST, DETROIT, MI, 48228",95439070,"R"
283748,"7396 WILLOW SPRINGS CIRCLE EAST","BOYNTON BEACH","FL",33436,26.566553566,-80.107766708,248,"7396 WILLOW SPRINGS CIRCLE EAST, BOYNTON BEACH, FL, 33436","Match","Exact","7396 WILLOW SPRINGS CIR E, BOYNTON BEACH, FL, 33436",115487904,"R"
283749,"7397 FM 1377","BLUE RIDGE","TX",75424,33.2499488980001,-96.4354296289999,249,"7397 FM 1377, BLUE RIDGE, TX, 75424","Match","Exact","7397 FM 1377, BLUE RIDGE, TX, 75424",642473481,"L"
283750,"7397 WALTON HILL","FAIRBURN","GA",30213,33.556841954,-84.4922322799999,250,"7397 WALTON HILL, FAIRBURN, GA, 30213","Match","Exact","7397 WALTON HILL, FAIRBURN, GA, 30213",644715640,"R"
283751,"7398 WINDSOR RIDGE DRIVE","HUBER HEIGHTS","OH",45424,39.849352105,-84.0943585059999,251,"7398 WINDSOR RIDGE DRIVE, HUBER HEIGHTS, OH, 45424","Match","Exact","7398 WINDSOR RIDGE DR, HUBER HEIGHTS, OH, 45424",143607703,"R"
283752,"7399 CORNFLOWER ROAD","BROOKSVILLE","FL",34601,28.536815378,-82.409618791,252,"7399 CORNFLOWER ROAD, BROOKSVILLE, FL, 34601","Match","Exact","7399 CORNFLOWER RD, BROOKSVILLE, FL, 34601",85464202,"R"
283753,"7399 INNSDALE AVE S","COTTAGE GROVE","MN",55016,44.8426719870001,-92.936668509,253,"7399 INNSDALE AVE S, COTTAGE GROVE, MN, 55016","Match","Exact","7399 INNSDALE AVE S, COTTAGE GROVE, MN, 55016",97786823,"L"
283754,"7399 LONGLEAF PINE PARKWAY","SAINT JOHNS","FL",32259,30.04677802,-81.613660399,254,"7399 LONGLEAF PINE PARKWAY, SAINT JOHNS, FL, 32259","Match","Exact","7399 LONGLEAF PINE PKWY, SAINT JOHNS, FL, 32259",651458362,"L"
283755,"7399 LONGLEAF PINE PARKWAY","ST JOHNS","FL",32259,30.04677802,-81.613660399,255,"7399 LONGLEAF PINE PARKWAY, ST JOHNS, FL, 32259","Match","Exact","7399 LONGLEAF PINE PKWY, SAINT JOHNS, FL, 32259",651458362,"L"
283756,"74 1/2 POWERS STREET","BROOKLYN","NY",11211,40.711999674,-73.9479898609999,256,"74 1/2 POWERS STREET, BROOKLYN, NY, 11211","Match","Exact","74 POWERS ST, BROOKLYN, NY, 11211",59076857,"R"
283757,"74 A  VAN NU PO","SANTA FE","NM",87508,35.5853148570001,-106.012258352,257,"74 A  VAN NU PO, SANTA FE, NM, 87508","Match","Exact","74 A VAN NU PO, SANTA FE, NM, 87508",627969864,"R"
283758,"74 ABIGAIL LANE","HIAWASSEE","GA",30546,NA,NA,258,"74 ABIGAIL LANE, HIAWASSEE, GA, 30546","No_Match",NA,NA,NA,NA
283759,"74 ALLENDALE DRIVE","NORTH HAVEN","CT",6473,41.386058314,-72.877975382,259,"74 ALLENDALE DRIVE, NORTH HAVEN, CT, 6473","Match","Exact","74 ALLENDALE DR, NORTH HAVEN, CT, 06473",635591557,"R"
283760,"74 AMARILLO LN","SANFORD","NC",27332,35.2779275340001,-79.067922048,260,"74 AMARILLO LN, SANFORD, NC, 27332","Match","Exact","74 AMARILLO LN, SANFORD, NC, 27332",638789205,"R"
283761,"74 BARKSDALE DRIVE","CHARLES TOWN","WV",25414,39.2691487910001,-77.845943158,261,"74 BARKSDALE DRIVE, CHARLES TOWN, WV, 25414","Match","Exact","74 BARKSDALE DR, CHARLES TOWN, WV, 25414",619130879,"L"
283762,"74 BEES CREEK ROAD","MISSOURI CITY","TX",77459,29.508504525,-95.53411899,262,"74 BEES CREEK ROAD, MISSOURI CITY, TX, 77459","Match","Exact","74 BEES CREEK RD, MISSOURI CITY, TX, 77459",635756503,"L"
283763,"74 BELLEVUE AVE","SUMMIT","NJ",7901,40.72770611,-74.360537912,263,"74 BELLEVUE AVE, SUMMIT, NJ, 7901","Match","Exact","74 BELLEVUE AVE, SUMMIT, NJ, 07901",60603081,"L"
283764,"74 BEVERLY DRIVE","BERNARDSVILLE","NJ",7924,40.754849859,-74.564946721,264,"74 BEVERLY DRIVE, BERNARDSVILLE, NJ, 7924","Match","Exact","74 BEVERLY DR, BERNARDSVILLE, NJ, 07924",60002655,"L"
283765,"74 BIRCH LANE","VALLEY STREAM","NY",11581,40.6527221310001,-73.7061014189999,265,"74 BIRCH LANE, VALLEY STREAM, NY, 11581","Match","Exact","74 BIRCH LN, VALLEY STREAM, NY, 11581",147677554,"R"
283766,"74 BOORAEM AVENUE","JERSEY CITY","NJ",7307,40.739816773,-74.0497726789999,266,"74 BOORAEM AVENUE, JERSEY CITY, NJ, 7307","Match","Exact","74 BOORAEM AVE, JERSEY CITY, NJ, 07307",59605169,"R"
283767,"74 BROADMAN PARKWAY","JERSEY CITY","NJ",7305,40.7127071990001,-74.088136241,267,"74 BROADMAN PARKWAY, JERSEY CITY, NJ, 7305","Match","Exact","74 BROADMAN PKWY, JERSEY CITY, NJ, 07305",59602170,"R"
283768,"74 BUCKELEW STREET","SAUSALITO","CA",94965,37.8753732230001,-122.515220817,268,"74 BUCKELEW STREET, SAUSALITO, CA, 94965","Match","Exact","74 BUCKELEW ST, SAUSALITO, CA, 94965",192769783,"R"
283769,"74 BUFFALO ST","ASHEVILLE","NC",28806,35.585945446,-82.584100076,269,"74 BUFFALO ST, ASHEVILLE, NC, 28806","Match","Exact","74 BUFFALO ST, ASHEVILLE, NC, 28806",36877403,"L"
283770,"74 BULLDOG BOULEVARD","MELBOURNE","FL",32901,28.0888749280001,-80.620168619,270,"74 BULLDOG BOULEVARD, MELBOURNE, FL, 32901","Match","Exact","74 BULLDOG BLVD, MELBOURNE, FL, 32901",93904643,"L"
283771,"74 BURKETTS CREEK DRIVE","HATTIESBURG","MS",39401,31.2923559380001,-89.2965444559999,271,"74 BURKETTS CREEK DRIVE, HATTIESBURG, MS, 39401","Match","Exact","74 BURKETTS CREEK DR, HATTIESBURG, MS, 39401",632183620,"R"
283772,"74 BUTTONWOOD DR","JACKSON","TN",38305,35.6992815080001,-88.800753776,272,"74 BUTTONWOOD DR, JACKSON, TN, 38305","Match","Exact","74 BUTTONWOOD DR, JACKSON, TN, 38305",21334347,"R"
283773,"74 CALAMUS MEADOW ROAD","HAMDEN","CT",6514,41.3786656350001,-72.9506114979999,273,"74 CALAMUS MEADOW ROAD, HAMDEN, CT, 6514","Match","Exact","74 CALAMUS MEADOW RD, HAMDEN, CT, 06514",651700700,"L"
283774,"74 CAMBRIDGE ST 2ND FL","MERIDEN","CT",6450,41.5516727880001,-72.785775491,274,"74 CAMBRIDGE ST 2ND FL, MERIDEN, CT, 6450","Match","Exact","74 CAMBRIDGE ST, MERIDEN, CT, 06450",3723818,"L"
283775,"74 CAMPERDOWN LANE","SUDBURY","MA",1776,42.3944699300001,-71.433608576,275,"74 CAMPERDOWN LANE, SUDBURY, MA, 1776","Match","Exact","74 CAMPERDOWN LN, SUDBURY, MA, 01776",86931037,"L"
283776,"74 CANNA STREET","WARWICK","RI",2888,41.7394893840001,-71.405429274,276,"74 CANNA STREET, WARWICK, RI, 2888","Match","Exact","74 CANNA ST, WARWICK, RI, 02888",159148606,"L"
283777,"74 CANONCHET STREET","PROVIDENCE","RI",2908,41.8353366380001,-71.452898977,277,"74 CANONCHET STREET, PROVIDENCE, RI, 2908","Match","Exact","74 CANONCHET ST, PROVIDENCE, RI, 02908",47457104,"L"
283778,"74 CARMAN STREET","HEMPSTEAD","NY",11550,40.7028847490001,-73.605692591,278,"74 CARMAN STREET, HEMPSTEAD, NY, 11550","Match","Exact","74 CARMAN ST, HEMPSTEAD, NY, 11550",147629219,"L"
283779,"74 CASEY CT","WENTZVILLE","MO",63385,38.7843524940001,-90.849764218,279,"74 CASEY CT, WENTZVILLE, MO, 63385","Match","Exact","74 CASEY CT, WENTZVILLE, MO, 63385",100084693,"R"
283780,"74 CENTER AVENUE","LITTLE FALLS","NJ",7424,40.8790071550001,-74.2309500119999,280,"74 CENTER AVENUE, LITTLE FALLS, NJ, 7424","Match","Exact","74 CENTER AVE, LITTLE FALLS, NJ, 07424",65270363,"L"
283781,"74 CHERRY HILLS FARM DR","ENGLEWOOD","CO",80113,39.625820656,-104.958563521,281,"74 CHERRY HILLS FARM DR, ENGLEWOOD, CO, 80113","Match","Exact","74 CHERRY HILLS FARM DR, ENGLEWOOD, CO, 80113",640596174,"R"
283782,"74 CINDER ROAD","LUTHERVILLE","MD",21093,39.4402694460001,-76.6191973699999,282,"74 CINDER ROAD, LUTHERVILLE, MD, 21093","Match","Exact","74 CINDER RD, LUTHERVILLE, MD, 21093",191471401,"L"
283783,"74 COGGSWELL STREET","BRIDGEPORT","CT",6610,41.2021088860001,-73.17608387,283,"74 COGGSWELL STREET, BRIDGEPORT, CT, 6610","Match","Exact","74 COGGSWELL ST, BRIDGEPORT, CT, 06610",3224755,"R"
283784,"74 COLUMBIA AVE","VINELAND","NJ",8360,39.4796958260001,-75.010094953,284,"74 COLUMBIA AVE, VINELAND, NJ, 8360","Match","Exact","74 COLUMBIA AVE, VINELAND, NJ, 08360",174111146,"R"
283785,"74 CORNWELLS BEACH ROAD","SANDS POINT","NY",11050,40.848109176,-73.7325721449999,285,"74 CORNWELLS BEACH ROAD, SANDS POINT, NY, 11050","Match","Exact","74 CORNWELLS BEACH RD, SANDS POINT, NY, 11050",147839578,"L"
283786,"74 CROTON DAM ROAD","OSSINING","NY",10562,41.1835376280001,-73.84570137,286,"74 CROTON DAM ROAD, OSSINING, NY, 10562","Match","Exact","74 CROTON DAM RD, OSSINING, NY, 10562",139726792,"R"
283787,"74 CUMBERBACH ST","WYANDANCH","NY",11798,40.7389321520001,-73.362971332,287,"74 CUMBERBACH ST, WYANDANCH, NY, 11798","Match","Exact","74 CUMBERBACH ST, WYANDANCH, NY, 11798",113974905,"R"
283788,"74 DAVENPORT DR","MERIDIAN","ID",83642,43.587694893,-116.395165559,288,"74 DAVENPORT DR, MERIDIAN, ID, 83642","Match","Non_Exact","74 W DAVENPORT DR, MERIDIAN, ID, 83642",117883535,"L"
283789,"74 DELAWARE AVE","STATEN ISLAND","NY",10304,40.5928184150001,-74.097160257,289,"74 DELAWARE AVE, STATEN ISLAND, NY, 10304","Match","Exact","74 DELAWARE AVE, STATEN ISLAND, NY, 10304",59868489,"R"
283790,"74 E 79TH STREET","NEW YORK","NY",10075,40.77596571,-73.961291097,290,"74 E 79TH STREET, NEW YORK, NY, 10075","Match","Exact","74 E 79TH ST, NEW YORK, NY, 10075",59657330,"R"
283791,"74 E CEDAR ST","LIVINGSTON","NJ",7039,40.787330393,-74.308675433,291,"74 E CEDAR ST, LIVINGSTON, NJ, 7039","Match","Exact","74 E CEDAR ST, LIVINGSTON, NJ, 07039",63458502,"R"
283792,"74 EAST WHISTLERS BEND CIRCLE","THE WOODLANDS","TX",77384,30.22328678,-95.4995023069999,292,"74 EAST WHISTLERS BEND CIRCLE, THE WOODLANDS, TX, 77384","Match","Exact","74 E WHISTLERS BEND CIR, THE WOODLANDS, TX, 77384",79332210,"L"
283793,"74 ENTERPRISE ROAD","WASHINGTON","PA",15301,40.20584856,-80.241566763,293,"74 ENTERPRISE ROAD, WASHINGTON, PA, 15301","Match","Exact","74 ENTERPRISE RD, WASHINGTON, PA, 15301",52801429,"L"
283794,"74 FEATHER RIDGE","MISSION VIEJO","CA",92692,33.5884296840001,-117.639731571,294,"74 FEATHER RIDGE, MISSION VIEJO, CA, 92692","Match","Exact","74 FEATHER RIDGE, MISSION VIEJO, CA, 92692",144393637,"R"
283795,"74 FENNBROOK RD","WEST HARTFORD","CT",6119,41.7514284980001,-72.7312195869999,295,"74 FENNBROOK RD, WEST HARTFORD, CT, 6119","Match","Exact","74 FENNBROOK RD, WEST HARTFORD, CT, 06119",3494301,"L"
283796,"74 FIRST STREET","PITTSFIELD","MA",1201,42.4514946030001,-73.250226954,296,"74 FIRST STREET, PITTSFIELD, MA, 1201","Match","Exact","74 1ST ST, PITTSFIELD, MA, 01201",3921026,"R"
283797,"74 FRANCOIS DR","HERCULANEUM","MO",63048,38.256009464,-90.401442719,297,"74 FRANCOIS DR, HERCULANEUM, MO, 63048","Match","Exact","74 FRANCOIS DR, HERCULANEUM, MO, 63048",607868438,"R"
283798,"74 FROST RD","DERRY","NH",3038,42.84937231,-71.296318057,298,"74 FROST RD, DERRY, NH, 3038","Match","Exact","74 FROST RD, DERRY, NH, 03038",644072640,"L"
283799,"74 GROVE STREET","NEW LONDON","CT",6320,41.3675968200001,-72.0999904449999,299,"74 GROVE STREET, NEW LONDON, CT, 6320","Match","Exact","74 GROVE ST, NEW LONDON, CT, 06320",611660409,"L"
283800,"74 HARRIET STREET","TONAWANDA","NY",14150,43.013379537,-78.870009081,300,"74 HARRIET STREET, TONAWANDA, NY, 14150","Match","Exact","74 HARRIET ST, TONAWANDA, NY, 14150",48284405,"R"
283801,"74 HARTFORD STREET","NEWARK","NJ",7103,40.7443687460001,-74.186111172,301,"74 HARTFORD STREET, NEWARK, NJ, 7103","Match","Exact","74 HARTFORD ST, NEWARK, NJ, 07103",63496029,"L"
283802,"74 HEATHER ROAD","CHURCHVILLE","PA",18966,40.2010707950001,-75.027636328,302,"74 HEATHER ROAD, CHURCHVILLE, PA, 18966","Match","Exact","74 HEATHER RD, CHURCHVILLE, PA, 18966",134707700,"R"
283803,"74 HEMLOCK DRIVE","NEW EGYPT","NJ",8533,40.0955412270001,-74.4759785099999,303,"74 HEMLOCK DRIVE, NEW EGYPT, NJ, 8533","Match","Exact","74 HEMLOCK DR, NEW EGYPT, NJ, 08533",641789674,"L"
283804,"74 HILLCREST DRIVE","CHARLEROI","PA",15022,40.1640309730001,-79.9124795499999,304,"74 HILLCREST DRIVE, CHARLEROI, PA, 15022","Match","Exact","74 HILLCREST DR, CHARLEROI, PA, 15022",52828291,"L"
283805,"74 HILLSIDE AVE","FREEPORT","NY",11520,40.6659332620001,-73.575735177,305,"74 HILLSIDE AVE, FREEPORT, NY, 11520","Match","Exact","74 HILLSIDE AVE, FREEPORT, NY, 11520",147631581,"R"
283806,"74 IDORA AVE","SAN FRANCISCO","CA",94127,37.7445290920001,-122.455927027,306,"74 IDORA AVE, SAN FRANCISCO, CA, 94127","Match","Exact","74 IDORA AVE, SAN FRANCISCO, CA, 94127",192283036,"R"
283807,"74 JEFFERSON AVENUE","NEW BRUNSWICK","NJ",8901,40.502658207,-74.465571724,307,"74 JEFFERSON AVENUE, NEW BRUNSWICK, NJ, 8901","Match","Exact","74 JEFFERSON AVE, NEW BRUNSWICK, NJ, 08901",60262948,"L"
283808,"74 JOSHUA HILL","WINDSOR","CT",6095,41.8315041280001,-72.646831678,308,"74 JOSHUA HILL, WINDSOR, CT, 6095","Match","Exact","74 JOSHUA HILL, WINDSOR, CT, 06095",3540683,"L"
283809,"74 KEENEY AVE","WEST HARTFORD","CT",6107,41.767165017,-72.745999024,309,"74 KEENEY AVE, WEST HARTFORD, CT, 6107","Match","Exact","74 KEENEY AVE, WEST HARTFORD, CT, 06107",3493517,"R"
283810,"74 LAURELWOOD RD","MORRIS","PA",16938,41.5288298360001,-77.291244386,310,"74 LAURELWOOD RD, MORRIS, PA, 16938","Match","Exact","74 LAURELWOOD RD, MORRIS, PA, 16938",59437384,"L"
283811,"74 LINWOOD AVENUE","RICHMOND HILL","GA",31324,31.9385829660001,-81.306374229,311,"74 LINWOOD AVENUE, RICHMOND HILL, GA, 31324","Match","Non_Exact","74 LYNWOOD AVE, RICHMOND HILL, GA, 31324",6087165,"L"
283812,"74 LOCUST AVE","AMSTERDAM","NY",12010,42.943570677,-74.184125932,312,"74 LOCUST AVE, AMSTERDAM, NY, 12010","Match","Exact","74 LOCUST AVE, AMSTERDAM, NY, 12010",18616356,"L"
283813,"74 LOWE ROAD","LAUREL","MS",39443,31.762496598,-89.176438729,313,"74 LOWE ROAD, LAUREL, MS, 39443","Match","Exact","74 LOWE RD, LAUREL, MS, 39443",430415,"R"
283814,"74 LUDDINGTON ROAD","WEST ORANGE","FL",7055,NA,NA,314,"74 LUDDINGTON ROAD, WEST ORANGE, FL, 7055","No_Match",NA,NA,NA,NA
283815,"74 MADISON ST","BUFFALO","NY",14206,42.8824637180001,-78.852916778,315,"74 MADISON ST, BUFFALO, NY, 14206","Match","Exact","74 MADISON ST, BUFFALO, NY, 14206",48291448,"L"
283816,"74 MAIN STREET","SUSSEX","NJ",7461,41.2093668590001,-74.6078926869999,316,"74 MAIN STREET, SUSSEX, NJ, 7461","Match","Exact","74 MAIN ST, SUSSEX, NJ, 07461",97995988,"R"
283817,"74 MALIA STREET","HILO","HI",96720,19.6672128590001,-155.091894749,317,"74 MALIA STREET, HILO, HI, 96720","Match","Exact","74 MALIA ST, HILO, HI, 96720",203000269,"R"
283818,"74 MAPLE IN THE WOOD","PORT ORANGE","FL",32129,29.1361255690001,-81.037225013,318,"74 MAPLE IN THE WOOD, PORT ORANGE, FL, 32129","Match","Exact","74 MAPLE IN THE WOOD, PORT ORANGE, FL, 32129",94526676,"R"
283819,"74 MAPLE LANE","COLDWATER","MI",49036,41.9549309010001,-85.002787428,319,"74 MAPLE LANE, COLDWATER, MI, 49036","Match","Exact","74 MAPLE LN, COLDWATER, MI, 49036",8212609,"R"
283820,"74 MCCULLOCH DRIVE","DIX HILLS","NY",11746,40.8083738440001,-73.305048095,320,"74 MCCULLOCH DRIVE, DIX HILLS, NY, 11746","Match","Exact","74 MCCULLOCH DR, DIX HILLS, NY, 11746",113981673,"R"
283821,"74 MELBOURNE ST","PORTLAND","ME",4101,43.6683560910001,-70.249948758,321,"74 MELBOURNE ST, PORTLAND, ME, 4101","Match","Exact","74 MELBOURNE ST, PORTLAND, ME, 04101",78028432,"L"
283822,"74 MERIWETHER AVE","BOZEMAN","MT",59718,45.6802553580001,-111.079798647,322,"74 MERIWETHER AVE, BOZEMAN, MT, 59718","Match","Exact","74 MERIWETHER AVE, BOZEMAN, MT, 59718",163538860,"L"
283823,"74 MERRICK ROAD","AMITYVILLE","NY",11701,40.6715162950001,-73.4202748709999,323,"74 MERRICK ROAD, AMITYVILLE, NY, 11701","Match","Exact","74 MERRICK RD, AMITYVILLE, NY, 11701",113972869,"L"
283824,"74 MISTLETOE LANE","HOPEHULL","AL",36043,32.2386264890001,-86.497925255,324,"74 MISTLETOE LANE, HOPEHULL, AL, 36043","Match","Non_Exact","74 MISTLETOE LN, HOPE HULL, AL, 36043",635605878,"R"
283825,"74 N 5TH STREET APT B","NEWARK","OH",43055,NA,NA,325,"74 N 5TH STREET APT B, NEWARK, OH, 43055","Tie",NA,NA,NA,NA
283826,"74 N COOPER","MEMPIHIS","TN",38104,35.138631409,-89.9898331639999,326,"74 N COOPER, MEMPIHIS, TN, 38104","Match","Non_Exact","74 N COOPER ST, MEMPHIS, TN, 38104",72912566,"R"
283827,"74 N GASTON AVE APT B","SOMERVILLE","NJ",8876,NA,NA,327,"74 N GASTON AVE APT B, SOMERVILLE, NJ, 8876","Tie",NA,NA,NA,NA
283828,"74 N TOMBOY DR","EAGLE NEST","NM",87718,36.55501366,-105.262103555,328,"74 N TOMBOY DR, EAGLE NEST, NM, 87718","Match","Non_Exact","74 N TOM BOY DR, EAGLE NEST, NM, 87718",615870869,"R"
283829,"74 NOKOMIS ROAD","SAINT ALBANS","ME",4971,44.9188871440001,-69.327247749,329,"74 NOKOMIS ROAD, SAINT ALBANS, ME, 4971","Match","Exact","74 NOKOMIS RD, SAINT ALBANS, ME, 04971",124137332,"R"
283830,"74 OVERLOOK DRIVE WEST","FRAMINGHAM","MA",1701,42.3426026770001,-71.413892866,330,"74 OVERLOOK DRIVE WEST, FRAMINGHAM, MA, 1701","Match","Non_Exact","74 OVERLOOK DR, FRAMINGHAM, MA, 01701",623674986,"R"
283831,"74 PARKWAY AVE","CRANSTON","RI",2905,41.7655742950001,-71.3941524479999,331,"74 PARKWAY AVE, CRANSTON, RI, 2905","Match","Exact","74 PARKWAY AVE, CRANSTON, RI, 02905",47472237,"L"
283832,"74 PFISTER DRIVE UNIT 103","ASPEN","CO",81611,39.1932047070001,-106.856570787,332,"74 PFISTER DRIVE UNIT 103, ASPEN, CO, 81611","Match","Exact","74 PFISTER DR, ASPEN, CO, 81611",605968065,"L"
283833,"74 PORTLAND AVENUE","BERGENFIELD","NJ",7621,40.9252776110001,-73.99776445,333,"74 PORTLAND AVENUE, BERGENFIELD, NJ, 7621","Match","Exact","74 PORTLAND AVE, BERGENFIELD, NJ, 07621",64372159,"R"
283834,"74 RIDGE ROAD","RUMSON","NJ",7760,40.368622268,-74.001602374,334,"74 RIDGE ROAD, RUMSON, NJ, 7760","Match","Exact","74 RIDGE RD, RUMSON, NJ, 07760",90453011,"R"
283835,"74 RUSSELL STREET","BATH","ME",4530,43.9046943760001,-69.819221393,335,"74 RUSSELL STREET, BATH, ME, 4530","Match","Exact","74 RUSSELL ST, BATH, ME, 04530",75600432,"L"
283836,"74 S 100 E","HYDE PARK","UT",84318,41.7976132480001,-111.816812516,336,"74 S 100 E, HYDE PARK, UT, 84318","Match","Exact","74 S 100 E, HYDE PARK, UT, 84318",155090828,"R"
283837,"74 S BEVERLY AVE","YOUNGSTOWN","OH",44515,41.1007189960001,-80.72838727,337,"74 S BEVERLY AVE, YOUNGSTOWN, OH, 44515","Match","Exact","74 S BEVERLY AVE, YOUNGSTOWN, OH, 44515",64591871,"R"
283838,"74 SAINT LAWRENCE BLVD","BRICK","NJ",8723,40.0202005830001,-74.088825404,338,"74 SAINT LAWRENCE BLVD, BRICK, NJ, 8723","Match","Exact","74 SAINT LAWRENCE BLVD, BRICK, NJ, 08723",203745119,"R"
283839,"74 SAN SIMEON DR","MANVEL","TX",77578,29.5045314440001,-95.393175867,339,"74 SAN SIMEON DR, MANVEL, TX, 77578","Match","Exact","74 SAN SIMEON DR, MANVEL, TX, 77578",651880625,"R"
283840,"74 SCHOOL DRIVE","CENTRAL SQUARE","NY",13036,43.28078771,-76.149719851,340,"74 SCHOOL DRIVE, CENTRAL SQUARE, NY, 13036","Match","Exact","74 SCHOOL DR, CENTRAL SQUARE, NY, 13036",57811512,"L"
283841,"74 SCIARAPPA STREET","CAMBRIDGE","MA",2141,42.3702895060001,-71.081704313,341,"74 SCIARAPPA STREET, CAMBRIDGE, MA, 2141","Match","Exact","74 SCIARAPPA ST, CAMBRIDGE, MA, 02141",86870863,"L"
283842,"74 SHIRLEY RD","WOODSTOCK","AL",35188,33.1760690840001,-87.167217261,342,"74 SHIRLEY RD, WOODSTOCK, AL, 35188","Match","Exact","74 SHIRLEY RD, WOODSTOCK, AL, 35188",623854802,"R"
283843,"74 SOUTH 26TH STREET","WYANDANCH","NY",11798,40.745973937,-73.368359071,343,"74 SOUTH 26TH STREET, WYANDANCH, NY, 11798","Match","Exact","74 S 26TH ST, WYANDANCH, NY, 11798",113974740,"L"
283844,"74 SOUTH MEADOW RAOD","PLYMOUTH","MA",2360,NA,NA,344,"74 SOUTH MEADOW RAOD, PLYMOUTH, MA, 2360","No_Match",NA,NA,NA,NA
283845,"74 SOUTH ROAD","MATINICUS","ME",4851,43.8581830140001,-68.894722669,345,"74 SOUTH ROAD, MATINICUS, ME, 4851","Match","Exact","74 SOUTH RD, MATINICUS, ME, 04851",75561820,"L"
283846,"74 SPRING STREET","LEXINGTON","MA",2421,42.4300329180001,-71.245349662,346,"74 SPRING STREET, LEXINGTON, MA, 2421","Match","Exact","74 SPRING ST, LEXINGTON, MA, 02421",87110933,"L"
283847,"74 SPRINGBOTTOM","LAWRENCEVILLE","GA",30046,33.9578687330001,-83.9625465089999,347,"74 SPRINGBOTTOM, LAWRENCEVILLE, GA, 30046","Match","Non_Exact","74 SPRINGBOTTOM DR, LAWRENCEVILLE, GA, 30046",624584798,"R"
283848,"74 STANRIDGE ROAD","CHAGRIN FALLS","OH",44022,41.435516056,-81.396530648,348,"74 STANRIDGE ROAD, CHAGRIN FALLS, OH, 44022","Match","Exact","74 STANRIDGE RD, CHAGRIN FALLS, OH, 44022",61137064,"R"
283849,"74 SYLVAN STREET","MALDEN","MA",2148,42.4399989240001,-71.0550295309999,349,"74 SYLVAN STREET, MALDEN, MA, 2148","Match","Exact","74 SYLVAN ST, MALDEN, MA, 02148",86872281,"L"
283850,"74 TAMPA DR","BUFFALO","NY",14220,42.83655716,-78.797334437,350,"74 TAMPA DR, BUFFALO, NY, 14220","Match","Exact","74 TAMPA DR, BUFFALO, NY, 14220",48303235,"L"
283851,"74 TYNGSBORO RD","WESTFORD","MA",1886,42.633407538,-71.4372657499999,351,"74 TYNGSBORO RD, WESTFORD, MA, 1886","Match","Exact","74 TYNGSBORO RD, WESTFORD, MA, 01886",87120508,"R"
283852,"74 UPPER JUAN TOMAS RD","TIJERAS","NM",87059,35.0345808960001,-106.29817209,352,"74 UPPER JUAN TOMAS RD, TIJERAS, NM, 87059","Match","Exact","74 UPPER JUAN TOMAS RD, TIJERAS, NM, 87059",206755211,"R"
283853,"74 UTICA AVE","BROOKLYN","NY",11213,40.675989929,-73.930445855,353,"74 UTICA AVE, BROOKLYN, NY, 11213","Match","Exact","74 UTICA AVE, BROOKLYN, NY, 11213",59083297,"R"
283854,"74 VERES DR","CHAPMANVILLE","WV",25508,37.9419590270001,-82.020690159,354,"74 VERES DR, CHAPMANVILLE, WV, 25508","Match","Exact","74 VERES DR, CHAPMANVILLE, WV, 25508",78789520,"R"
283855,"74 VIEWPOINT LANE","LEVITTOWN","PA",19054,40.1814980990001,-74.827422144,355,"74 VIEWPOINT LANE, LEVITTOWN, PA, 19054","Match","Exact","74 VIEWPOINT LN, LEVITTOWN, PA, 19054",134722653,"R"
283856,"74 W BUSBY DR","SIERRA VISTA","AZ",85635,31.547691931,-110.300683903,356,"74 W BUSBY DR, SIERRA VISTA, AZ, 85635","Match","Exact","74 W BUSBY DR, SIERRA VISTA, AZ, 85635",120947457,"R"
283857,"74 W LONG LAKE ROAD SUITE 203","BLOOMFIELD HILLS","MI",48304,NA,NA,357,"74 W LONG LAKE ROAD SUITE 203, BLOOMFIELD HILLS, MI, 48304","Tie",NA,NA,NA,NA
283858,"74 W MAIN ST PO BOX 312","SEVILLE","OH",44273,NA,NA,358,"74 W MAIN ST PO BOX 312, SEVILLE, OH, 44273","Tie",NA,NA,NA,NA
283859,"74 W WHIPP RD","DAYTON","OH",45459,39.658910222,-84.1568723619999,359,"74 W WHIPP RD, DAYTON, OH, 45459","Match","Exact","74 WHIPP RD, DAYTON, OH, 45459",143583693,"R"
283860,"74 W WILLIAMS STREET","DELAWARE","OH",43015,40.296440139,-83.078307536,360,"74 W WILLIAMS STREET, DELAWARE, OH, 43015","Match","Non_Exact","74 WILLIAMS DR, DELAWARE, OH, 43015",647608584,"R"
283861,"74 WASHINGTON AVENUE","ROOSEVELT","NY",11575,40.679377059,-73.587273953,361,"74 WASHINGTON AVENUE, ROOSEVELT, NY, 11575","Match","Exact","74 WASHINGTON AVE, ROOSEVELT, NY, 11575",147630697,"R"
283862,"74 WAYNE CT","CONCORD","NC",28025,35.3860296890001,-80.5519897619999,362,"74 WAYNE CT, CONCORD, NC, 28025","Match","Non_Exact","74 WAYNE CT SE, CONCORD, NC, 28025",24925769,"L"
283863,"74 WEST 68TH STREET APT 10C","NEW YORK","NY",10023,40.7745031420001,-73.9798403629999,363,"74 WEST 68TH STREET APT 10C, NEW YORK, NY, 10023","Match","Exact","74 W 68TH ST, NEW YORK, NY, 10023",59657015,"L"
283864,"74 WEST ROAD APT B","TACOMA","WA",98406,NA,NA,364,"74 WEST ROAD APT B, TACOMA, WA, 98406","No_Match",NA,NA,NA,NA
283865,"74 WHITE CREEK RD","N. BENNINGTON","VT",5257,42.9383041720001,-73.252536634,365,"74 WHITE CREEK RD, N. BENNINGTON, VT, 5257","Match","Exact","74 WHITE CREEK RD, N BENNINGTON, VT, 05257",139201156,"R"
283866,"74 WILDERS GROVE ROAD","NEWTON","NH",3858,42.8830307970001,-71.0627032089999,366,"74 WILDERS GROVE ROAD, NEWTON, NH, 3858","Match","Exact","74 WILDERS GROVE RD, NEWTON, NH, 03858",113671481,"L"
283867,"74 WOODFORD STREET","DANIEL ISLAND","SC",29492,32.8736103480001,-79.912201147,367,"74 WOODFORD STREET, DANIEL ISLAND, SC, 29492","Match","Exact","74 WOODFORD ST, DANIEL ISLAND, SC, 29492",605131720,"L"
283868,"74 ZACHARY LANE","BRIGHTON","TN",38011,35.488064057,-89.732728578,368,"74 ZACHARY LANE, BRIGHTON, TN, 38011","Match","Exact","74 ZACHARY LN, BRIGHTON, TN, 38011",73173500,"R"
283869,"74-03 46 AVENUE","ELMHURST","NY",11373,40.7400990360001,-73.889740232,369,"74-03 46 AVENUE, ELMHURST, NY, 11373","Match","Exact","74-3 46TH AVE, ELMHURST, NY, 11373",59693974,"L"
283870,"74-133 EL PASEO STE 5","PALM DESERT","CA",92260,NA,NA,370,"74-133 EL PASEO STE 5, PALM DESERT, CA, 92260","No_Match",NA,NA,NA,NA
283871,"74-20 COMMONWEALTH BLVD","BELLEROSE","NY",11426,40.74505064,-73.7269515789999,371,"74-20 COMMONWEALTH BLVD, BELLEROSE, NY, 11426","Match","Exact","74-20 COMMONWEALTH BLVD, BELLEROSE, NY, 11426",639416757,"R"
283872,"74-22 BROADWAY 2 FL","ELMHURST","NY",11373,40.74653469,-73.891117187,372,"74-22 BROADWAY 2 FL, ELMHURST, NY, 11373","Match","Exact","74-22 BROADWAY, ELMHURST, NY, 11373",59693802,"R"
283873,"74-5074 KEALAPUA ST","KAILUA-KONA","HI",96740,19.67322661,-155.983213395,373,"74-5074 KEALAPUA ST, KAILUA-KONA, HI, 96740","Match","Exact","74-5074 KEALAPUA ST, KAILUA KONA, HI, 96740",202996761,"R"
283874,"74-5118 KEALAKAA STREET","KAILUA-KONA","HI",96740,19.672189297,-155.983682103,374,"74-5118 KEALAKAA STREET, KAILUA-KONA, HI, 96740","Match","Exact","74-5118 KEALAKAA ST, KAILUA KONA, HI, 96740",614314100,"L"
283875,"74-5140 KAALAEA PL","KAILUA KONA","HI",96740,19.667337203,-155.980080968,375,"74-5140 KAALAEA PL, KAILUA KONA, HI, 96740","Match","Exact","74-5140 KAALAEA PL, KAILUA KONA, HI, 96740",202997181,"L"
283876,"74-5583 LUHIA STREET SUITE A2","KAILUA-KONA","HI",96740,19.6471969680001,-155.998696431,376,"74-5583 LUHIA STREET SUITE A2, KAILUA-KONA, HI, 96740","Match","Exact","74-5583 LUHIA ST, KAILUA KONA, HI, 96740",614316470,"L"
283877,"74-710 HWY 111","PALM DESERT","CA",92260,NA,NA,377,"74-710 HWY 111, PALM DESERT, CA, 92260","No_Match",NA,NA,NA,NA
283878,"74-947 HIGHWAY 111 SUITE 215","INDIAN WELLS","CA",92210,NA,NA,378,"74-947 HIGHWAY 111 SUITE 215, INDIAN WELLS, CA, 92210","No_Match",NA,NA,NA,NA
283879,"740  NC HIGHWAY 58 SOUTH","TRENTON","NC",28585,NA,NA,379,"740  NC HIGHWAY 58 SOUTH, TRENTON, NC, 28585","No_Match",NA,NA,NA,NA
283880,"740 1/2 SOUTH SAN PEDRO","LOS ANGELES","CA",90014,34.04044428,-118.247029155,380,"740 1/2 SOUTH SAN PEDRO, LOS ANGELES, CA, 90014","Match","Non_Exact","740 S SAN PEDRO ST, LOS ANGELES, CA, 90014",141620339,"L"
283881,"740 32ND ST SE STE 3","WYOMING","MI",49548,42.9055934200001,-85.6485387769999,381,"740 32ND ST SE STE 3, WYOMING, MI, 49548","Match","Exact","740 32ND ST SE, WYOMING, MI, 49548",652807833,"R"
283882,"740 3RD STREET","CORNING","CA",96021,39.928492341,-122.179202082,382,"740 3RD STREET, CORNING, CA, 96021","Match","Exact","740 3RD ST, CORNING, CA, 96021",119377287,"L"
283883,"740 4TH ST N UNIT 123","ST. PETERSBURG","FL",33701,27.7798594820001,-82.638555712,383,"740 4TH ST N UNIT 123, ST. PETERSBURG, FL, 33701","Match","Exact","740 4TH ST N, SAINT PETERSBURG, FL, 33701",124707300,"L"
283884,"740 7TH ST","NEW ORLEANS","LA",70115,29.9219311910001,-90.0823489919999,384,"740 7TH ST, NEW ORLEANS, LA, 70115","Match","Exact","740 7TH ST, NEW ORLEANS, LA, 70115",191714947,"L"
283885,"740 8TH AVENUE","HONOLULU","HI",96816,21.2778103100001,-157.80762698,385,"740 8TH AVENUE, HONOLULU, HI, 96816","Match","Exact","740 8TH AVE, HONOLULU, HI, 96816",203242569,"L"
283886,"740 ASPEN VALLEY DRIVE","ONALASKA","WI",54650,NA,NA,386,"740 ASPEN VALLEY DRIVE, ONALASKA, WI, 54650","No_Match",NA,NA,NA,NA
283887,"740 AXTEL STREET","KALAMAZOO","MI",49008,42.2796925000001,-85.593080175,387,"740 AXTEL STREET, KALAMAZOO, MI, 49008","Match","Non_Exact","740 AXTELL ST, KALAMAZOO, MI, 49008",12228834,"R"
283888,"740 BAY BLVD","CHULA VISTA","CA",91910,32.619329169,-117.092571592,388,"740 BAY BLVD, CHULA VISTA, CA, 91910","Match","Exact","740 BAY BLVD, CHULA VISTA, CA, 91910",653179071,"R"
283889,"740 BAY BLVD","CHULA VISTA","CA",91911,32.619329169,-117.092571592,389,"740 BAY BLVD, CHULA VISTA, CA, 91911","Match","Non_Exact","740 BAY BLVD, CHULA VISTA, CA, 91910",653179071,"R"
283890,"740 BICKLETON HWY","GOLDENDALE","WA",98620,45.8415329270001,-120.6537266,390,"740 BICKLETON HWY, GOLDENDALE, WA, 98620","Match","Exact","740 BICKLETON HWY, GOLDENDALE, WA, 98620",175644367,"R"
283891,"740 BLAIRBETH DR","WELDON SPRING","MO",63304,38.722771433,-90.6401333919999,391,"740 BLAIRBETH DR, WELDON SPRING, MO, 63304","Match","Exact","740 BLAIRBETH DR, WELDON SPRING, MO, 63304",100065172,"L"
283892,"740 CAPAC RD","ALLENTON","MI",48002,42.9160052220001,-82.945479452,392,"740 CAPAC RD, ALLENTON, MI, 48002","Match","Exact","740 CAPAC RD, ALLENTON, MI, 48002",110969433,"L"
283893,"740 CARSON VALLEY ROAD","DUNCANSVILLE","PA",16635,40.448865724,-78.440772877,393,"740 CARSON VALLEY ROAD, DUNCANSVILLE, PA, 16635","Match","Exact","740 CARSON VALLEY RD, DUNCANSVILLE, PA, 16635",633810546,"R"
283894,"740 CASANOVA 24","MONTEREY","CA",93940,36.5963412880001,-121.851539807,394,"740 CASANOVA 24, MONTEREY, CA, 93940","Match","Non_Exact","740 CASANOVA AVE, MONTEREY, CA, 93940",196821024,"R"
283895,"740 CATAMOUNT WAY SW","LILBURN","GA",30047,33.8686493390001,-84.1117290889999,395,"740 CATAMOUNT WAY SW, LILBURN, GA, 30047","Match","Exact","740 CATAMOUNT WAY SW, LILBURN, GA, 30047",653488464,"L"
283896,"740 CIRCLE STREET","WENATCHEE","WA",98801,47.3969255100001,-120.317855826,396,"740 CIRCLE STREET, WENATCHEE, WA, 98801","Match","Exact","740 CIRCLE ST, WENATCHEE, WA, 98801",649617681,"L"
283897,"740 CITY WALK PLACE 1","HAYWARD","CA",94541,37.6704239850001,-122.084596108,397,"740 CITY WALK PLACE 1, HAYWARD, CA, 94541","Match","Exact","740 CITY WALK PL, HAYWARD, CA, 94541",125083256,"R"
283898,"740 CLARKSON AVENUE","BROOKLYN","NY",11203,40.6563732600001,-73.934515619,398,"740 CLARKSON AVENUE, BROOKLYN, NY, 11203","Match","Exact","740 CLARKSON AVE, BROOKLYN, NY, 11203",59079945,"R"
283899,"740 COLONIAL STREET","UNIONDALE","NY",11553,40.695905322,-73.593034011,399,"740 COLONIAL STREET, UNIONDALE, NY, 11553","Match","Exact","740 COLONIAL ST, UNIONDALE, NY, 11553",147630416,"R"
283900,"740 COUNTY HWY M","VERONA","WI",53593,NA,NA,400,"740 COUNTY HWY M, VERONA, WI, 53593","No_Match",NA,NA,NA,NA
283901,"740 CUTLER STREET","SAINT CHARLES","IL",60174,41.9056195630001,-88.321086286,401,"740 CUTLER STREET, SAINT CHARLES, IL, 60174","Match","Exact","740 CUTLER ST, SAINT CHARLES, IL, 60174",119506191,"R"
283902,"740 DALWORTH STREET","GRAND PRAIRIE","TX",75050,32.7445625230001,-97.012978133,402,"740 DALWORTH STREET, GRAND PRAIRIE, TX, 75050","Match","Exact","740 DALWORTH ST, GRAND PRAIRIE, TX, 75050",102935793,"R"
283903,"740 DUNNE CT 2ND FLOOR","BROOKLYN","NY",11235,40.5900503770001,-73.9617279719999,403,"740 DUNNE CT 2ND FLOOR, BROOKLYN, NY, 11235","Match","Exact","740 DUNNE CT, BROOKLYN, NY, 11235",59091076,"R"
283904,"740 E 233RD ST FL 2ND","BRONX","NY",10466,NA,NA,404,"740 E 233RD ST FL 2ND, BRONX, NY, 10466","No_Match",NA,NA,NA,NA
283905,"740 E 43RD STREET  APT 715","CHICAGO","IL",60653,41.816801717,-87.607863836,405,"740 E 43RD STREET  APT 715, CHICAGO, IL, 60653","Match","Non_Exact","740 E 43RD ST, CHICAGO, IL, 60653",641798485,"L"
283906,"740 E 52ND STREET","INDI","IN",46205,39.846967271,-86.1441867139999,406,"740 E 52ND STREET, INDI, IN, 46205","Match","Non_Exact","740 E 52ND ST, INDIANAPOLIS, IN, 46205",107985019,"L"
283907,"740 E BROOKS ROAD","MIDLAND","MI",48640,43.5396398730001,-84.340866261,407,"740 E BROOKS ROAD, MIDLAND, MI, 48640","Match","Exact","740 E BROOKS RD, MIDLAND, MI, 48640",81195393,"L"
283908,"740 E TEMPLE ST","WASHINGTON C.H.","OH",43160,39.5423353250001,-83.434855063,408,"740 E TEMPLE ST, WASHINGTON C.H., OH, 43160","Match","Non_Exact","740 E TEMPLE ST, WASHINGTON COURT HOUSE, OH, 43160",119060024,"L"
283909,"740 EAST 163RD STREET APT 10B","BRONX","NY",10456,40.822977355,-73.904244036,409,"740 EAST 163RD STREET APT 10B, BRONX, NY, 10456","Match","Exact","740 E 163RD ST, BRONX, NY, 10456",612289416,"R"
283910,"740 EAST 93RD STREET","BROOKLYN","NY",11236,40.6500818390001,-73.9131663869999,410,"740 EAST 93RD STREET, BROOKLYN, NY, 11236","Match","Exact","740 E 93RD ST, BROOKLYN, NY, 11236",59086175,"R"
283911,"740 EAST BLVD","CHIPLEY","FL",32428,30.7759958400001,-85.5330757569999,411,"740 EAST BLVD, CHIPLEY, FL, 32428","Match","Exact","740 EAST BLVD, CHIPLEY, FL, 32428",33051194,"L"
283912,"740 EAST GRAND BLVD","DETRIOT","MI",48207,42.3619450520001,-83.011638239,412,"740 EAST GRAND BLVD, DETRIOT, MI, 48207","Match","Non_Exact","740 E GRAND BLVD, DETROIT, MI, 48207",95483799,"R"
283913,"740 EAST MAIN STREET SUITE S","PRATVILLE","AL",36067,32.4602019000001,-86.454926813,413,"740 EAST MAIN STREET SUITE S, PRATVILLE, AL, 36067","Match","Non_Exact","740 E MAIN ST, PRATTVILLE, AL, 36067",2850839,"R"
283914,"740 EDGEWOOD DRIVE","WESTBURY","NY",11590,40.748175641,-73.5654839319999,414,"740 EDGEWOOD DRIVE, WESTBURY, NY, 11590","Match","Exact","740 EDGEWOOD DR, WESTBURY, NY, 11590",147821738,"R"
283915,"740 FORAKER ROAD","FRANKFORT","KY",40601,38.1098122340001,-84.856761197,415,"740 FORAKER ROAD, FRANKFORT, KY, 40601","Match","Exact","740 FORAKER RD, FRANKFORT, KY, 40601",38495202,"L"
283916,"740 FOURTH STREET NO 102-C","SANTA ROSA","CA",95404,38.441515575,-122.711666852,416,"740 FOURTH STREET NO 102-C, SANTA ROSA, CA, 95404","Match","Non_Exact","740 4TH ST, SANTA ROSA, CA, 95404",67469942,"R"
283917,"740 FREEMAN DRIVE","COVINGTON","GA",30016,33.5241332570001,-84.017001581,417,"740 FREEMAN DRIVE, COVINGTON, GA, 30016","Match","Exact","740 FREEMAN DR, COVINGTON, GA, 30016",23638022,"R"
283918,"740 FRONT STREET  BOX 3","HELENA","MT",59601,46.594597353,-112.036788745,418,"740 FRONT STREET  BOX 3, HELENA, MT, 59601","Match","Exact","740 FRONT ST, HELENA, MT, 59601",202357969,"L"
283919,"740 FRONT STREET  SUITE 155","SANTA CRUZ","CA",95060,36.975244086,-122.025463214,419,"740 FRONT STREET  SUITE 155, SANTA CRUZ, CA, 95060","Match","Exact","740 FRONT ST, SANTA CRUZ, CA, 95060",125506143,"R"
283920,"740 HAMPDEN ROAD","ELIZABETHTOWN","PA",17022,40.1468716110001,-76.585682993,420,"740 HAMPDEN ROAD, ELIZABETHTOWN, PA, 17022","Match","Exact","740 HAMPDEN RD, ELIZABETHTOWN, PA, 17022",624963490,"R"
283921,"740 HAWTHORN RD","NEW CASTLE","IN",47362,39.9235279110001,-85.375261969,421,"740 HAWTHORN RD, NEW CASTLE, IN, 47362","Match","Exact","740 HAWTHORN RD, NEW CASTLE, IN, 47362",29982463,"L"
283922,"740 HILLCREST RD  BLDG C","MOBILE","AL",36695,30.6762709770001,-88.190701544,422,"740 HILLCREST RD  BLDG C, MOBILE, AL, 36695","Match","Exact","740 HILLCREST RD, MOBILE, AL, 36695",647788916,"R"
283923,"740 HILLCREST RD STE C","MOBILE","AL",36695,30.6762709770001,-88.190701544,423,"740 HILLCREST RD STE C, MOBILE, AL, 36695","Match","Exact","740 HILLCREST RD, MOBILE, AL, 36695",647788916,"R"
283924,"740 HOMEWOOD DR","COVINGTON","LA",70433,30.450295447,-90.072560809,424,"740 HOMEWOOD DR, COVINGTON, LA, 70433","Match","Exact","740 HOMEWOOD DR, COVINGTON, LA, 70433",111286439,"R"
283925,"740 ILLINOIS STREET","SIDNEY","NE",69149,41.144971377,-102.973694223,425,"740 ILLINOIS STREET, SIDNEY, NE, 69149","Match","Non_Exact","740 ILLINOIS ST, SIDNEY, NE, 69162",135929055,"R"
283926,"740 IOLA ST","AURORA","CO",80010,39.7270863690001,-104.864935557,426,"740 IOLA ST, AURORA, CO, 80010","Match","Exact","740 IOLA ST, AURORA, CO, 80010",177342928,"R"
283927,"740 JESSANDA CIRCLE","LAKELAND","FL",33813,27.969577805,-81.955280838,427,"740 JESSANDA CIRCLE, LAKELAND, FL, 33813","Match","Exact","740 JESSANDA CIR, LAKELAND, FL, 33813",104883941,"R"
283928,"740 KAMILO STREET","HONOLULU","HI",96825,NA,NA,428,"740 KAMILO STREET, HONOLULU, HI, 96825","No_Match",NA,NA,NA,NA
283929,"740 KIMBALL PARC CT","ALPHARETTA","GA",30022,34.063385711,-84.218328419,429,"740 KIMBALL PARC CT, ALPHARETTA, GA, 30022","Match","Non_Exact","740 KIMBALL PARK CT, ALPHARETTA, GA, 30022",17393217,"L"
283930,"740 KIRKHAM ST","SAN FRANCISCO","CA",94122,37.7602062830001,-122.468642738,430,"740 KIRKHAM ST, SAN FRANCISCO, CA, 94122","Match","Exact","740 KIRKHAM ST, SAN FRANCISCO, CA, 94122",192281973,"R"
283931,"740 KIRKLY WAY","FAIRBURN","GA",30213,33.592299713,-84.6297798699999,431,"740 KIRKLY WAY, FAIRBURN, GA, 30213","Match","Exact","740 KIRKLY WAY, FAIRBURN, GA, 30213",624578472,"R"
283932,"740 LEGGETT PLACE","WHITESTONE","NY",11357,NA,NA,432,"740 LEGGETT PLACE, WHITESTONE, NY, 11357","No_Match",NA,NA,NA,NA
283933,"740 MALONEY LN","ORLANDO","FL",32825,28.5519625960001,-81.231615655,433,"740 MALONEY LN, ORLANDO, FL, 32825","Match","Exact","740 MALONEY LN, ORLANDO, FL, 32825",94295971,"L"
283934,"740 MARCO PLACE","VENICE","CA",90291,33.9919825440001,-118.459792975,434,"740 MARCO PLACE, VENICE, CA, 90291","Match","Exact","740 MARCO PL, VENICE, CA, 90291",142457391,"R"
283935,"740 MOOWAA ST","HONOLULU","HI",96817,21.3244791720001,-157.873097464,435,"740 MOOWAA ST, HONOLULU, HI, 96817","Match","Exact","740 MOOWAA ST, HONOLULU, HI, 96817",203235323,"L"
283936,"740 MOUNT VERNON CHURCH ROAD","JACKSON","GA",30248,33.218166308,-83.972538349,436,"740 MOUNT VERNON CHURCH ROAD, JACKSON, GA, 30248","Match","Non_Exact","740 MT VERNON CHURCH RD, JACKSON, GA, 30233",23293382,"L"
283937,"740 MOZLEY DRIVE  UNIT C8","SMYRNA","GA",30080,33.9087782560001,-84.531488294,437,"740 MOZLEY DRIVE  UNIT C8, SMYRNA, GA, 30080","Match","Non_Exact","740 MOZLEY DR SE, SMYRNA, GA, 30080",17178671,"R"
283938,"740 N 2ND STREET","SEWARD","NE",68434,40.91352153,-97.0942909669999,438,"740 N 2ND STREET, SEWARD, NE, 68434","Match","Exact","740 N 2ND ST, SEWARD, NE, 68434",39456550,"R"
283939,"740 N 52ND ST SUITE 200","PHOENIX","AZ",85008,33.4565186080001,-111.969780567,439,"740 N 52ND ST SUITE 200, PHOENIX, AZ, 85008","Match","Non_Exact","740 N 52ND ST, PHOENIX, AZ, 85008",128225402,"L"
283940,"740 N HENDERSON RD","KING OF PRUSSIA","PA",19406,40.1116566520001,-75.376080223,440,"740 N HENDERSON RD, KING OF PRUSSIA, PA, 19406","Match","Exact","740 N HENDERSON RD, KING OF PRUSSIA, PA, 19406",135122190,"R"
283941,"740 N PLANKINTON AVENUE SUITE 210","MILWAUKEE","WI",53203,43.0393292790001,-87.911759369,441,"740 N PLANKINTON AVENUE SUITE 210, MILWAUKEE, WI, 53203","Match","Non_Exact","740 N PLANKINTON AVE, MILWAUKEE, WI, 53203",77741895,"R"
283942,"740 NE 3RD ST STE 3 NO 43","BEND","OR",97701,44.057523066,-121.302489145,442,"740 NE 3RD ST STE 3 NO 43, BEND, OR, 97701","Match","Non_Exact","740 NE 3RD ST, BEND, OR, 97701",152553948,"R"
283943,"740 NE 3RD STREET SUITE 3 - 62","BEND","OR",97701,44.057523066,-121.302489145,443,"740 NE 3RD STREET SUITE 3 - 62, BEND, OR, 97701","Match","Non_Exact","740 NE 3RD ST, BEND, OR, 97701",152553948,"R"
283944,"740 NORTH 25TH STREET","READING","PA",19606,40.3377827800001,-75.879833252,444,"740 NORTH 25TH STREET, READING, PA, 19606","Match","Exact","740 N 25TH ST, READING, PA, 19606",638515100,"R"
283945,"740 NORTH H STREET NUM 206","LOMPOC","CA",93436,34.6495410320001,-120.457726862,445,"740 NORTH H STREET NUM 206, LOMPOC, CA, 93436","Match","Exact","740 N H ST, LOMPOC, CA, 93436",108663853,"R"
283946,"740 NORTH HOBSON AVENUE","WEST SACRAMENTO","CA",95605,38.593649199,-121.543514687,446,"740 NORTH HOBSON AVENUE, WEST SACRAMENTO, CA, 95605","Match","Exact","740 N HOBSON AVE, WEST SACRAMENTO, CA, 95605",67692656,"R"
283947,"740 NW 17TH COURT","POMPANO BEACH","FL",33060,26.2523671230001,-80.133763878,447,"740 NW 17TH COURT, POMPANO BEACH, FL, 33060","Match","Exact","740 NW 17TH CT, POMPANO BEACH, FL, 33060",114741545,"L"
283948,"740 NW 18 STREET","POMPANO BEACH","FL",33060,26.253051602,-80.133984555,448,"740 NW 18 STREET, POMPANO BEACH, FL, 33060","Match","Exact","740 NW 18TH ST, POMPANO BEACH, FL, 33060",114741488,"L"
283949,"740 OAKDALE ROAD","ANN ARBOR","MI",48105,42.321007164,-83.762507539,449,"740 OAKDALE ROAD, ANN ARBOR, MI, 48105","Match","Exact","740 OAKDALE RD, ANN ARBOR, MI, 48105",26011481,"R"
283950,"740 OAKLAND AVE APT 208","OAKLAND","CA",94611,37.821234551,-122.248698573,450,"740 OAKLAND AVE APT 208, OAKLAND, CA, 94611","Match","Exact","740 OAKLAND AVE, OAKLAND, CA, 94611",639858825,"R"
283951,"740 OLIVE AVE","VISTA","CA",92084,33.2046856000001,-117.256508187,451,"740 OLIVE AVE, VISTA, CA, 92084","Match","Non_Exact","740 OLIVE AVE, VISTA, CA, 92083",195457414,"L"
283952,"740 PESTANA AVENUE","MANTECA","CA",95336,37.8071729810001,-121.189261187,452,"740 PESTANA AVENUE, MANTECA, CA, 95336","Match","Exact","740 PESTANA AVE, MANTECA, CA, 95336",133891217,"L"
283953,"740 PONY FARM ROAD","CLAYTON","NC",27520,35.614759796,-78.432128339,453,"740 PONY FARM ROAD, CLAYTON, NC, 27520","Match","Exact","740 PONY FARM RD, CLAYTON, NC, 27520",640772866,"L"
283954,"740 PORTLAND AVENUE SUITE 1205","MINNEAPOLIS","MN",55415,44.973035313,-93.26440537,454,"740 PORTLAND AVENUE SUITE 1205, MINNEAPOLIS, MN, 55415","Match","Non_Exact","740 PORTLAND AVE S, MINNEAPOLIS, MN, 55415",43632488,"R"
283955,"740 PORTLAND AVENUE UNIT 1513","MINNEAPOLIS","MN",55415,44.973035313,-93.26440537,455,"740 PORTLAND AVENUE UNIT 1513, MINNEAPOLIS, MN, 55415","Match","Non_Exact","740 PORTLAND AVE S, MINNEAPOLIS, MN, 55415",43632488,"R"
283956,"740 POWELL AVE","EVANSVILLE","IN",47713,37.964693509,-87.5539873009999,456,"740 POWELL AVE, EVANSVILLE, IN, 47713","Match","Non_Exact","740 E POWELL AVE, EVANSVILLE, IN, 47713",39783357,"L"
283957,"740 PROSPECT AVE","HARTFORD","CT",6105,41.7701728280001,-72.716413546,457,"740 PROSPECT AVE, HARTFORD, CT, 6105","Match","Exact","740 PROSPECT AVE, HARTFORD, CT, 06105",635727841,"R"
283958,"740 S FEDERAL HIGHWAY SUITE 217","POMPANO BEACH","FL",33062,NA,NA,458,"740 S FEDERAL HIGHWAY SUITE 217, POMPANO BEACH, FL, 33062","No_Match",NA,NA,NA,NA
283959,"740 S FEDERAL HWY STE 217","POMPANO BEACH","FL",33062,NA,NA,459,"740 S FEDERAL HWY STE 217, POMPANO BEACH, FL, 33062","No_Match",NA,NA,NA,NA
283960,"740 S FEDERAL HWY SUITE 217","POMPANO BEACH","FL",33062,NA,NA,460,"740 S FEDERAL HWY SUITE 217, POMPANO BEACH, FL, 33062","No_Match",NA,NA,NA,NA
283961,"740 S FRONTAGE ROAD","VALLEY VIEW","TX",76272,NA,NA,461,"740 S FRONTAGE ROAD, VALLEY VIEW, TX, 76272","No_Match",NA,NA,NA,NA
283962,"740 S GROVE AVE","OAK PARK","IL",60304,41.875058622,-87.7952780809999,462,"740 S GROVE AVE, OAK PARK, IL, 60304","Match","Exact","740 S GROVE AVE, OAK PARK, IL, 60304",112383494,"L"
283963,"740 S MAIN ST APT 48","HINESVILLE","GA",31313,NA,NA,463,"740 S MAIN ST APT 48, HINESVILLE, GA, 31313","Tie",NA,NA,NA,NA
283964,"740 S TOURMALINE CT","ANAHEIM","CA",92807,33.8368539100001,-117.775115171,464,"740 S TOURMALINE CT, ANAHEIM, CA, 92807","Match","Exact","740 S TOURMALINE CT, ANAHEIM, CA, 92807",629458183,"L"
283965,"740 SE GREENVILLE BLD STE 400-105","GREENVILLE","NC",27858,NA,NA,465,"740 SE GREENVILLE BLD STE 400-105, GREENVILLE, NC, 27858","No_Match",NA,NA,NA,NA
283966,"740 SE GREENVILLE BLVD STE 400 107","GREENVILLE","NC",27858,NA,NA,466,"740 SE GREENVILLE BLVD STE 400 107, GREENVILLE, NC, 27858","No_Match",NA,NA,NA,NA
283967,"740 SE GREENVILLE BLVD SUITE 400","GREENVILLE","NC",27858,NA,NA,467,"740 SE GREENVILLE BLVD SUITE 400, GREENVILLE, NC, 27858","No_Match",NA,NA,NA,NA
283968,"740 SIDNEY MARCUS BLVD APT 3202","ATLANTA","GA",30324,33.825902151,-84.363561107,468,"740 SIDNEY MARCUS BLVD APT 3202, ATLANTA, GA, 30324","Match","Non_Exact","740 SIDNEY MARCUS BLVD NE, ATLANTA, GA, 30324",650106988,"L"
283969,"740 SOUTH DALE COURT","DENVER","CO",80219,39.7031281000001,-105.021530271,469,"740 SOUTH DALE COURT, DENVER, CO, 80219","Match","Exact","740 S DALE CT, DENVER, CO, 80219",177328189,"L"
283970,"740 SOUTH LIMESTONE","LEXINGTON","KY",40536,NA,NA,470,"740 SOUTH LIMESTONE, LEXINGTON, KY, 40536","No_Match",NA,NA,NA,NA
283971,"740 SOUTH ST SUITE 500","PHILADELPHIA","PA",19146,39.942287606,-75.154580895,471,"740 SOUTH ST SUITE 500, PHILADELPHIA, PA, 19146","Match","Non_Exact","740 SOUTH ST, PHILADELPHIA, PA, 19147",131424024,"L"
283972,"740 SOUTHGATE ROAD","ARGYLE TWP","ME",4468,45.0056681930001,-68.654616109,472,"740 SOUTHGATE ROAD, ARGYLE TWP, ME, 4468","Match","Exact","740 SOUTHGATE RD, ARGYLE TWP, ME, 04468",638509404,"L"
283973,"740 STARGATE DR","COLORADO SPRINGS","CO",80911,38.755629368,-104.722978201,473,"740 STARGATE DR, COLORADO SPRINGS, CO, 80911","Match","Exact","740 STARGATE DR, COLORADO SPRINGS, CO, 80911",610756219,"R"
283974,"740 STUMP RD","SAINT LOUIS","MO",63131,38.5916242540001,-90.454105828,474,"740 STUMP RD, SAINT LOUIS, MO, 63131","Match","Exact","740 STUMP RD, SAINT LOUIS, MO, 63131",100128347,"R"
283975,"740 SUNDANCE PLACE","APPLEGATE","CA",95703,39.0103581880001,-120.976175509,475,"740 SUNDANCE PLACE, APPLEGATE, CA, 95703","Match","Exact","740 SUNDANCE PL, APPLEGATE, CA, 95703",608080815,"R"
283976,"740 SW 14TH STREET","DEERFIELD BEACH","FL",33441,26.299515254,-80.114898571,476,"740 SW 14TH STREET, DEERFIELD BEACH, FL, 33441","Match","Exact","740 SW 14TH ST, DEERFIELD BEACH, FL, 33441",114741707,"L"
283977,"740 SW 50 TERRACE UNIT 104 A","MIAMI","FL",33155,NA,NA,477,"740 SW 50 TERRACE UNIT 104 A, MIAMI, FL, 33155","No_Match",NA,NA,NA,NA
283978,"740 TEXAS ST SUITE 201","FAIRFIELD","CA",94533,NA,NA,478,"740 TEXAS ST SUITE 201, FAIRFIELD, CA, 94533","Tie",NA,NA,NA,NA
283979,"740 TWIN CREEK DR","DESOTO","TX",75115,32.587008315,-96.8730150659999,479,"740 TWIN CREEK DR, DESOTO, TX, 75115","Match","Exact","740 TWIN CREEK DR, DESOTO, TX, 75115",624545459,"L"
283980,"740 VALLEY AVENUE","ATGLEN","PA",19310,39.94785383,-75.9809310159999,480,"740 VALLEY AVENUE, ATGLEN, PA, 19310","Match","Exact","740 VALLEY AVE, ATGLEN, PA, 19310",179477274,"L"
283981,"740 VICTORIA STREET SOUTH APT 247","SAINT PAUL","MN",55102,44.9203201020001,-93.135122848,481,"740 VICTORIA STREET SOUTH APT 247, SAINT PAUL, MN, 55102","Match","Exact","740 VICTORIA ST S, SAINT PAUL, MN, 55102",97647274,"L"
283982,"740 W 47TH ST","CASPER","WY",82601,42.8054308440001,-106.333016151,482,"740 W 47TH ST, CASPER, WY, 82601","Match","Exact","740 W 47TH ST, CASPER, WY, 82601",149035638,"R"
283983,"740 W GRANT STREET","PHOENIX","AZ",85007,33.440918031,-112.083063147,483,"740 W GRANT STREET, PHOENIX, AZ, 85007","Match","Exact","740 W GRANT ST, PHOENIX, AZ, 85007",128212034,"R"
283984,"740 W KELLY RD","WOODLAND PARK","CO",80863,NA,NA,484,"740 W KELLY RD, WOODLAND PARK, CO, 80863","No_Match",NA,NA,NA,NA
283985,"740 W MAIN ST","HAINES CITY","FL",33844,28.1081771680001,-81.6254256029999,485,"740 W MAIN ST, HAINES CITY, FL, 33844","Match","Exact","740 MAIN ST, HAINES CITY, FL, 33844",104827589,"L"
283986,"740 W MAIN STREET","HAINES CITY","FL",33844,28.1081771680001,-81.6254256029999,486,"740 W MAIN STREET, HAINES CITY, FL, 33844","Match","Exact","740 MAIN ST, HAINES CITY, FL, 33844",104827589,"L"
283987,"740 WALKER AVENUE","MEMPHIS","TN",38106,35.119452885,-90.03724363,487,"740 WALKER AVENUE, MEMPHIS, TN, 38106","Match","Non_Exact","740 WALKER AVE, MEMPHIS, TN, 38126",72907722,"L"
283988,"740 WEAVER RD","FESTUS","MO",63028,38.1457994,-90.305434138,488,"740 WEAVER RD, FESTUS, MO, 63028","Match","Exact","740 WEAVER RD, FESTUS, MO, 63028",607909816,"L"
283989,"740 WEST GRANT STREET","PHOENIX","AZ",85007,33.440918031,-112.083059387,489,"740 WEST GRANT STREET, PHOENIX, AZ, 85007","Match","Exact","740 W GRANT ST, PHOENIX, AZ, 85007",128212034,"R"
283990,"740 WEST LEON DRIVE","LINCOLN","NE",68521,40.8734153140001,-96.7320969099999,490,"740 WEST LEON DRIVE, LINCOLN, NE, 68521","Match","Exact","740 W LEON DR, LINCOLN, NE, 68521",28250708,"R"
283991,"740 WEST SUPERIOR AVENUE APT 601","CLEVELAND","OH",44113,41.497550587,-81.697781575,491,"740 WEST SUPERIOR AVENUE APT 601, CLEVELAND, OH, 44113","Match","Exact","740 W SUPERIOR AVE, CLEVELAND, OH, 44113",61108971,"R"
283992,"740 WHARFSIDE COURT","PERTH AMBOY","NJ",8861,40.520351174,-74.257904899,492,"740 WHARFSIDE COURT, PERTH AMBOY, NJ, 8861","Match","Exact","740 WHARFSIDE CT, PERTH AMBOY, NJ, 08861",649712044,"R"
283993,"7400 BAY ROAD","UNIVERSITY CENTER","MI",48710,43.5089198910001,-83.973072636,493,"7400 BAY ROAD, UNIVERSITY CENTER, MI, 48710","Match","Exact","7400 BAY RD, UNIVERSITY CENTER, MI, 48710",643021833,"L"
283994,"7400 BEAUFONT SPRINGS DR  300 9664","N CHESTERFIELD","VA",23225,37.5090670010001,-77.5293640089999,494,"7400 BEAUFONT SPRINGS DR  300 9664, N CHESTERFIELD, VA, 23225","Match","Exact","7400 BEAUFONT SPRING DR, NORTH CHESTERFIELD, VA, 23225",223164853,"R"
283995,"7400 BEAUFONT SPRINGS DR STE 300","RICHMOND","VA",23225,37.5090670010001,-77.5293640089999,495,"7400 BEAUFONT SPRINGS DR STE 300, RICHMOND, VA, 23225","Match","Exact","7400 BEAUFONT SPRING DR, RICHMOND, VA, 23225",223164853,"R"
283996,"7400 BEAUFONT SPRINGS DRIVE STE 300","RICHMOND","VA",23225,37.5090670010001,-77.5293640089999,496,"7400 BEAUFONT SPRINGS DRIVE STE 300, RICHMOND, VA, 23225","Match","Exact","7400 BEAUFONT SPRING DR, RICHMOND, VA, 23225",223164853,"R"
283997,"7400 CARNOUSTIE COURT","GILROY","CA",95020,37.0019908410001,-121.601659738,497,"7400 CARNOUSTIE COURT, GILROY, CA, 95020","Match","Exact","7400 CARNOUSTIE CT, GILROY, CA, 95020",618187863,"L"
283998,"7400 CHESTNUT DRIVE","BISMARCK","ND",58504,46.781585271,-100.677477597,498,"7400 CHESTNUT DRIVE, BISMARCK, ND, 58504","Match","Exact","7400 CHESTNUT DR, BISMARCK, ND, 58504",198866200,"L"
283999,"7400 COLUMBIA AVENUE","HAMMOND","IN",46324,41.5791261540001,-87.500163033,499,"7400 COLUMBIA AVENUE, HAMMOND, IN, 46324","Match","Exact","7400 COLUMBIA AVE, HAMMOND, IN, 46324",98419313,"R"
284000,"7400 CORNELL RD","CINCINNATI","OH",45242,39.2662544890001,-84.352799478,500,"7400 CORNELL RD, CINCINNATI, OH, 45242","Match","Exact","7400 CORNELL RD, CINCINNATI, OH, 45242",641334289,"L"
