"ID","Address","City","State","Zip","lat","long","id","input_address","match_indicator","match_type","matched_address","tiger_line_id","tiger_side"
50001,"1320 MARVIN AVENUE","CHARLESTON","SC",29407,32.8035144250001,-80.004802615,1,"1320 MARVIN AVENUE, CHARLESTON, SC, 29407","Match","Exact","1320 MARVIN AVE, CHARLESTON, SC, 29407",108803032,"R"
50002,"1320 MAVIN AVENUE","CHARLESTON","SC",29407,NA,NA,2,"1320 MAVIN AVENUE, CHARLESTON, SC, 29407","No_Match",NA,NA,NA,NA
50003,"1320 MCGOWEN STREET","HOUSTON","TX",77004,29.7436993270001,-95.37126755,3,"1320 MCGOWEN STREET, HOUSTON, TX, 77004","Match","Exact","1320 MCGOWEN ST, HOUSTON, TX, 77004",96071453,"R"
50004,"1320 MCKENZIE ROAD","BAD AXE","MI",48413,43.779501854,-83.0331398289999,4,"1320 MCKENZIE ROAD, BAD AXE, MI, 48413","Match","Exact","1320 MCKENZIE RD, BAD AXE, MI, 48413",161251486,"L"
50005,"1320 MORGAN AVE","OSHKOSH","WI",54901,44.0464360450001,-88.553264879,5,"1320 MORGAN AVE, OSHKOSH, WI, 54901","Match","Exact","1320 MORGAN AVE, OSHKOSH, WI, 54901",74487780,"L"
50006,"1320 MOUNTAIN VIEW STREET","SAN FERNANDO","CA",91340,34.2959284940001,-118.427591746,6,"1320 MOUNTAIN VIEW STREET, SAN FERNANDO, CA, 91340","Match","Exact","1320 MOUNTAIN VIEW ST, SAN FERNANDO, CA, 91340",141547962,"L"
50007,"1320 N CEDAR HILL RD","CEDAR HILL","TX",75104,32.6161750470001,-96.934843434,7,"1320 N CEDAR HILL RD, CEDAR HILL, TX, 75104","Match","Exact","1320 N CEDAR HILL RD, CEDAR HILL, TX, 75104",623723864,"R"
50008,"1320 N COVINGTON CIRCLE","WICHITA","KS",67212,37.70669302,-97.475020638,8,"1320 N COVINGTON CIRCLE, WICHITA, KS, 67212","Match","Exact","1320 N COVINGTON CIR, WICHITA, KS, 67212",115628666,"R"
50009,"1320 N GRANITO CIRCLE","PALM SPRINGS","CA",92262,33.840683433,-116.555474539,9,"1320 N GRANITO CIRCLE, PALM SPRINGS, CA, 92262","Match","Exact","1320 N GRANITO CIR, PALM SPRINGS, CA, 92262",194791247,"R"
50010,"1320 N HOLLIS STREET","SPOKANE","WA",99201,47.669117494,-117.455484599,10,"1320 N HOLLIS STREET, SPOKANE, WA, 99201","Match","Exact","1320 N HOLLIS ST, SPOKANE, WA, 99201",189871317,"R"
50011,"1320 N PINE HILLS RD","ORALNDO","FL",32808,28.570424249,-81.45215759,11,"1320 N PINE HILLS RD, ORALNDO, FL, 32808","Match","Non_Exact","1320 N PINE HILLS RD, ORLANDO, FL, 32808",94270177,"L"
50012,"1320 N SEMORAN BLVD SUITE 107","ORLANDO","FL",32807,NA,NA,12,"1320 N SEMORAN BLVD SUITE 107, ORLANDO, FL, 32807","Tie",NA,NA,NA,NA
50013,"1320 NE 7TH AVENUE UNIT 7","FORT LAUDERDALE","FL",33304,26.142638762,-80.136765978,13,"1320 NE 7TH AVENUE UNIT 7, FORT LAUDERDALE, FL, 33304","Match","Non_Exact","1320 NE 7TH AVE, FORT LAUDERDALE, FL, 33304",114722258,"R"
50014,"1320 NE MADISON STREET","TOPEKA","KS",66608,39.07221966,-95.6597380429999,14,"1320 NE MADISON STREET, TOPEKA, KS, 66608","Match","Exact","1320 NE MADISON ST, TOPEKA, KS, 66608",17888659,"R"
50015,"1320 NE WATLAND ST","POULSBO","WA",98370,47.740656207,-122.632016748,15,"1320 NE WATLAND ST, POULSBO, WA, 98370","Match","Exact","1320 NE WATLAND ST, POULSBO, WA, 98370",617960148,"L"
50016,"1320 NEW HAMPSHIRE","JOPLIN","MO",64801,37.0765452520001,-94.498464284,16,"1320 NEW HAMPSHIRE, JOPLIN, MO, 64801","Match","Non_Exact","1320 NEW HAMPSHIRE AVE, JOPLIN, MO, 64801",66149187,"R"
50017,"1320 NORTH 6TH STREET 2ND FLOOR","PHILADELPHIA","PA",19122,39.971885421,-75.1462649439999,17,"1320 NORTH 6TH STREET 2ND FLOOR, PHILADELPHIA, PA, 19122","Match","Exact","1320 N 6TH ST, PHILADELPHIA, PA, 19122",131422756,"L"
50018,"1320 NORTH AVENUE 56","LOS ANGELES","CA",90042,34.1220126690001,-118.196439222,18,"1320 NORTH AVENUE 56, LOS ANGELES, CA, 90042","Match","Exact","1320 N AVE 56, LOS ANGELES, CA, 90042",141614040,"R"
50019,"1320 NORTH HOLLIS STREET","SPOKANE","WA",99201,47.669113962,-117.455484915,19,"1320 NORTH HOLLIS STREET, SPOKANE, WA, 99201","Match","Exact","1320 N HOLLIS ST, SPOKANE, WA, 99201",189871317,"R"
50020,"1320 NORTH PINE HILLS ROAD","ORLANDO","FL",32808,28.570424249,-81.45215759,20,"1320 NORTH PINE HILLS ROAD, ORLANDO, FL, 32808","Match","Exact","1320 N PINE HILLS RD, ORLANDO, FL, 32808",94270177,"L"
50021,"1320 NW 179 TERRACE","NORTH MIAMI","FL",33169,25.938823659,-80.22342416,21,"1320 NW 179 TERRACE, NORTH MIAMI, FL, 33169","Match","Non_Exact","1320 NW 179TH TER, MIAMI, FL, 33169",116029478,"L"
50022,"1320 OAK ST","OSHKOSH","WI",54901,44.033758651,-88.5238126,22,"1320 OAK ST, OSHKOSH, WI, 54901","Match","Exact","1320 OAK ST, OSHKOSH, WI, 54901",74488827,"R"
50023,"1320 OVERLAND DRIVE","MURPHY","TX",75094,33.0393656140001,-96.624088499,23,"1320 OVERLAND DRIVE, MURPHY, TX, 75094","Match","Exact","1320 OVERLAND DR, MURPHY, TX, 75094",647659417,"R"
50024,"1320 PALFREY ST","GRETNA","LA",70053,29.9259758590001,-90.047204364,24,"1320 PALFREY ST, GRETNA, LA, 70053","Match","Exact","1320 PALFREY ST, GRETNA, LA, 70053",93507684,"L"
50025,"1320 PALOMA AVENUE","BURLINGAME","CA",94010,37.5873473610001,-122.368142157,25,"1320 PALOMA AVENUE, BURLINGAME, CA, 94010","Match","Exact","1320 PALOMA AVE, BURLINGAME, CA, 94010",192375356,"R"
50026,"1320 PELEM COURT","STOCKTON","CA",95203,37.9603285700001,-121.326999701,26,"1320 PELEM COURT, STOCKTON, CA, 95203","Match","Exact","1320 PELEM CT, STOCKTON, CA, 95203",133847709,"R"
50027,"1320 PONDEROSA DR","RALEIGH","NC",27603,35.6996212070001,-78.663412125,27,"1320 PONDEROSA DR, RALEIGH, NC, 27603","Match","Exact","1320 PONDEROSA DR, RALEIGH, NC, 27603",72504527,"L"
50028,"1320 PORTOLA AVE","ESCONDIDO","CA",92026,33.1551403280001,-117.113148167,28,"1320 PORTOLA AVE, ESCONDIDO, CA, 92026","Match","Exact","1320 PORTOLA AVE, ESCONDIDO, CA, 92026",195311265,"R"
50029,"1320 PULITZER LANE","DURHAM","NC",27703,35.9000675660001,-78.823009223,29,"1320 PULITZER LANE, DURHAM, NC, 27703","Match","Exact","1320 PULITZER LN, DURHAM, NC, 27703",648115999,"L"
50030,"1320 Q ST","LINCOLN","NE",68508,40.81585033,-96.702213633,30,"1320 Q ST, LINCOLN, NE, 68508","Match","Exact","1320 Q ST, LINCOLN, NE, 68508",28253252,"L"
50031,"1320 QUEEN ANNE DR","EVANSVILLE","IN",47715,37.9585618290001,-87.484213115,31,"1320 QUEEN ANNE DR, EVANSVILLE, IN, 47715","Match","Exact","1320 QUEEN ANNE DR, EVANSVILLE, IN, 47715",39795157,"R"
50032,"1320 RAY LANE","GLEN BURNIE","MD",21061,39.150279804,-76.632908443,32,"1320 RAY LANE, GLEN BURNIE, MD, 21061","Match","Exact","1320 RAY LN, GLEN BURNIE, MD, 21061",646653047,"L"
50033,"1320 ROAD J","GENEVA","NE",68361,40.56778172,-97.59115134,33,"1320 ROAD J, GENEVA, NE, 68361","Match","Exact","1320 RD J, GENEVA, NE, 68361",39390781,"R"
50034,"1320 S GIANT CITY ROAD STE F","CARBONDALE","IL",62902,NA,NA,34,"1320 S GIANT CITY ROAD STE F, CARBONDALE, IL, 62902","No_Match",NA,NA,NA,NA
50035,"1320 S HARDING AVE","CHICAGO","IL",60623,41.8638959360001,-87.72389055,35,"1320 S HARDING AVE, CHICAGO, IL, 60623","Match","Exact","1320 S HARDING AVE, CHICAGO, IL, 60623",111798733,"R"
50036,"1320 S HWY 29","CANTONMENT","FL",32533,30.5852781900001,-87.302422636,36,"1320 S HWY 29, CANTONMENT, FL, 32533","Match","Exact","1320 S HWY 29, CANTONMENT, FL, 32533",93285281,"L"
50037,"1320 S SLOAN AVENUE","COMPTON","CA",90221,33.884642286,-118.209187957,37,"1320 S SLOAN AVENUE, COMPTON, CA, 90221","Match","Exact","1320 S SLOAN AVE, COMPTON, CA, 90221",141682673,"L"
50038,"1320 S UNIVERSITY DR STE 400","FORT WORTH","TX",76107,32.7463437960001,-97.3618808209999,38,"1320 S UNIVERSITY DR STE 400, FORT WORTH, TX, 76107","Match","Exact","1320 UNIVERSITY DR, FORT WORTH, TX, 76107",643233068,"R"
50039,"1320 S UTICA STREET","DENVER","CO",80219,39.6926849590001,-105.044988154,39,"1320 S UTICA STREET, DENVER, CO, 80219","Match","Exact","1320 S UTICA ST, DENVER, CO, 80219",177326988,"L"
50040,"1320 S WASHINGTON STREET","BASTROP","LA",71220,32.7655205390001,-91.9122644509999,40,"1320 S WASHINGTON STREET, BASTROP, LA, 71220","Match","Exact","1320 S WASHINGTON ST, BASTROP, LA, 71220",75377995,"L"
50041,"1320 SARATOGA AVE NE UNIT 1","WASHINGTON","DC",20018,38.9220486410001,-76.9878811409999,41,"1320 SARATOGA AVE NE UNIT 1, WASHINGTON, DC, 20018","Match","Exact","1320 SARATOGA AVE NE, WASHINGTON, DC, 20018",76228931,"L"
50042,"1320 SE 15TH ST","OKLAHOMA CITY","OK",73129,35.449845769,-97.488748532,42,"1320 SE 15TH ST, OKLAHOMA CITY, OK, 73129","Match","Exact","1320 SE 15TH ST, OKLAHOMA CITY, OK, 73129",641427145,"R"
50043,"1320 SEMINOLE DR APT L","GREENSBORO","NC",27408,36.082828068,-79.805801246,43,"1320 SEMINOLE DR APT L, GREENSBORO, NC, 27408","Match","Exact","1320 SEMINOLE DR, GREENSBORO, NC, 27408",131031821,"R"
50044,"1320 SOUTH 10TH ST","MANITOWOC","WI",54220,44.0833277460001,-87.660624399,44,"1320 SOUTH 10TH ST, MANITOWOC, WI, 54220","Match","Exact","1320 S 10TH ST, MANITOWOC, WI, 54220",147950235,"R"
50045,"1320 SOUTH QUEEN STREET","ARLINGTON","VA",22204,38.86269557,-77.0728346189999,45,"1320 SOUTH QUEEN STREET, ARLINGTON, VA, 22204","Match","Exact","1320 S QUEEN ST, ARLINGTON, VA, 22204",76471111,"R"
50046,"1320 SPINNAKER TR","MONUMENT","CO",80132,39.1000533970001,-104.850498282,46,"1320 SPINNAKER TR, MONUMENT, CO, 80132","Match","Exact","1320 SPINNAKER TRL, MONUMENT, CO, 80132",105507905,"L"
50047,"1320 STANDIFORD AVE SUITE 4-220","MODESTO","CA",95350,37.6893521870001,-121.012939417,47,"1320 STANDIFORD AVE SUITE 4-220, MODESTO, CA, 95350","Match","Exact","1320 STANDIFORD AVE, MODESTO, CA, 95350",652197824,"L"
50048,"1320 STYER DRIVE","NEW CARLISLE","OH",45344,39.8883890920001,-84.038008,48,"1320 STYER DRIVE, NEW CARLISLE, OH, 45344","Match","Exact","1320 STYER DR, NEW CARLISLE, OH, 45344",135013332,"L"
50049,"1320 T ST SE","WASHINGTON","DC",20020,38.867589078,-76.98654483,49,"1320 T ST SE, WASHINGTON, DC, 20020","Match","Exact","1320 T ST SE, WASHINGTON, DC, 20020",76231139,"L"
50050,"1320 TREE PLACE","FAYETTEVILLE","NC",28314,35.0530451980001,-79.0483848819999,50,"1320 TREE PLACE, FAYETTEVILLE, NC, 28314","Match","Exact","1320 TREE PL, FAYETTEVILLE, NC, 28314",632126050,"R"
50051,"1320 TRUEMPER ST UNIT 369401","SAN ANTONIO","TX",78236,29.3876734790001,-98.6207319329999,51,"1320 TRUEMPER ST UNIT 369401, SAN ANTONIO, TX, 78236","Match","Exact","1320 TRUEMPER ST, SAN ANTONIO, TX, 78236",101731063,"R"
50052,"1320 TUOLUMNE WAY","OAKLEY","CA",94561,NA,NA,52,"1320 TUOLUMNE WAY, OAKLEY, CA, 94561","No_Match",NA,NA,NA,NA
50053,"1320 US 68","MAYSVILLE","KY",41056,NA,NA,53,"1320 US 68, MAYSVILLE, KY, 41056","No_Match",NA,NA,NA,NA
50054,"1320 US HWY 13 NORTH","GATES","NC",27937,36.5295203150001,-76.777895852,54,"1320 US HWY 13 NORTH, GATES, NC, 27937","Match","Exact","1320 US HWY 13 N, GATES, NC, 27937",18579678,"L"
50055,"1320 V ST SE","WASHINGTON","DC",20020,38.865319782,-76.987072741,55,"1320 V ST SE, WASHINGTON, DC, 20020","Match","Exact","1320 V ST SE, WASHINGTON, DC, 20020",76231107,"L"
50056,"1320 VENICE BLVD","LOS ANGELES","CA",90006,34.043110187,-118.28258971,56,"1320 VENICE BLVD, LOS ANGELES, CA, 90006","Match","Exact","1320 VENICE BLVD, LOS ANGELES, CA, 90006",141607161,"L"
50057,"1320 VISTA DRIVE","CENTRAL POINT","OR",97502,42.3873201100001,-122.917399457,57,"1320 VISTA DRIVE, CENTRAL POINT, OR, 97502","Match","Exact","1320 VISTA DR, CENTRAL POINT, OR, 97502",155547043,"R"
50058,"1320 W 177TH ST APT 142","GARDENA","CA",90248,33.8705364040001,-118.294757322,58,"1320 W 177TH ST APT 142, GARDENA, CA, 90248","Match","Non_Exact","1320 W 177TH ST, GARDENA, CA, 90248",142697001,"L"
50059,"1320 W COMMERCE DRIVE STE 200","PEORIA","IL",61615,NA,NA,59,"1320 W COMMERCE DRIVE STE 200, PEORIA, IL, 61615","No_Match",NA,NA,NA,NA
50060,"1320 W ESPLANADE AVENUE APT J","KENNER","LA",70065,NA,NA,60,"1320 W ESPLANADE AVENUE APT J, KENNER, LA, 70065","No_Match",NA,NA,NA,NA
50061,"1320 W GARDENA BLVD STE 103","GARDENA","CA",90247,33.881392749,-118.298375452,61,"1320 W GARDENA BLVD STE 103, GARDENA, CA, 90247","Match","Non_Exact","1320 W GARDENA BLVD, GARDENA, CA, 90247",241243445,"L"
50062,"1320 W LOCKWOOD","SAINT LOUIS","MO",63122,38.583027241,-90.385615822,62,"1320 W LOCKWOOD, SAINT LOUIS, MO, 63122","Match","Non_Exact","1320 W LOCKWOOD AVE, SAINT LOUIS, MO, 63122",100138125,"R"
50063,"1320 W SOMMERVILLE AVENUE - UNIT C","PHILADELPHIA","PA",19141,40.035017645,-75.143728919,63,"1320 W SOMMERVILLE AVENUE - UNIT C, PHILADELPHIA, PA, 19141","Match","Non_Exact","1320 W SOMERVILLE AVE, PHILADELPHIA, PA, 19141",131417204,"L"
50064,"1320 W WASHINGTON","GREENVILLE","MI",48838,NA,NA,64,"1320 W WASHINGTON, GREENVILLE, MI, 48838","No_Match",NA,NA,NA,NA
50065,"1320 WEBSTER ST","PALO ALTO","CA",94301,37.442620225,-122.147070831,65,"1320 WEBSTER ST, PALO ALTO, CA, 94301","Match","Exact","1320 WEBSTER ST, PALO ALTO, CA, 94301",122950690,"R"
50066,"1320 WEST 53RD STREET","LOS ANGELES","CA",90037,33.994134371,-118.298400689,66,"1320 WEST 53RD STREET, LOS ANGELES, CA, 90037","Match","Exact","1320 W 53RD ST, LOS ANGELES, CA, 90037",141658249,"L"
50067,"1320 WEST 6TH STREET","RIVIERA BEACH","FL",33404,26.7681887150001,-80.0733948389999,67,"1320 WEST 6TH STREET, RIVIERA BEACH, FL, 33404","Match","Exact","1320 W 6TH ST, RIVIERA BEACH, FL, 33404",649903050,"R"
50068,"1320 WEST DUPONT","CLAREMORE","OK",74017,36.311061657,-95.625669884,68,"1320 WEST DUPONT, CLAREMORE, OK, 74017","Match","Non_Exact","1320 W DUPONT ST, CLAREMORE, OK, 74017",20682226,"R"
50069,"1320 WEST FULLERTON AVENUE","CHICAGO","IL",60614,41.9252507,-87.661601874,69,"1320 WEST FULLERTON AVENUE, CHICAGO, IL, 60614","Match","Exact","1320 W FULLERTON AVE, CHICAGO, IL, 60614",605267743,"R"
50070,"1320 WEST MAIN STREET","MIDLAND","MI",48640,43.624096008,-84.257991378,70,"1320 WEST MAIN STREET, MIDLAND, MI, 48640","Match","Exact","1320 W MAIN ST, MIDLAND, MI, 48640",81195077,"R"
50071,"1320 WHITE SAND DR","AZLE","TX",76020,NA,NA,71,"1320 WHITE SAND DR, AZLE, TX, 76020","No_Match",NA,NA,NA,NA
50072,"1320 WILLOW PASS RD SUITE 600","CONCORD","CA",94520,37.9687702300001,-122.052091006,72,"1320 WILLOW PASS RD SUITE 600, CONCORD, CA, 94520","Match","Non_Exact","1320 WILLOW PASS RD, CONCORD, CA, 94519",192053587,"R"
50073,"1320 WILSON ST APT 207","LOCKHART","TX",78644,29.8880568970001,-97.690726652,73,"1320 WILSON ST APT 207, LOCKHART, TX, 78644","Match","Exact","1320 WILSON ST, LOCKHART, TX, 78644",45558893,"L"
50074,"1320 WOOD FERN DRIVE","AKRON","OH",44312,41.016416264,-81.3987130049999,74,"1320 WOOD FERN DRIVE, AKRON, OH, 44312","Match","Exact","1320 WOOD FERN DR, AKRON, OH, 44312",648247453,"R"
50075,"1320 WOODBRIDGE RD","CATONSVILLE","MD",21228,39.299148245,-76.7452632869999,75,"1320 WOODBRIDGE RD, CATONSVILLE, MD, 21228","Match","Exact","1320 WOODBRIDGE RD, CATONSVILLE, MD, 21228",191483632,"L"
50076,"1320-206 HENDRIX ROAD","TALLAHASSEE","FL",32301,30.4256594820001,-84.237045106,76,"1320-206 HENDRIX ROAD, TALLAHASSEE, FL, 32301","Match","Exact","1320 HENDRIX RD, TALLAHASSEE, FL, 32301",635797308,"R"
50077,"1320-208 BRISTOE DRIVE","RALEIGH","NC",27545,35.80070333,-78.5182787159999,77,"1320-208 BRISTOE DRIVE, RALEIGH, NC, 27545","Match","Non_Exact","1320 BRISTOE DR, KNIGHTDALE, NC, 27545",640238227,"R"
50078,"13200 BELCHER RD S","LARGO","FL",33773,27.8930647550001,-82.745794702,78,"13200 BELCHER RD S, LARGO, FL, 33773","Match","Exact","13200 BELCHER RD S, LARGO, FL, 33773",652508941,"L"
50079,"13200 CLARKSVILLE PIKE","HIGHLAND","MD",20777,39.183463449,-76.95418359,79,"13200 CLARKSVILLE PIKE, HIGHLAND, MD, 20777","Match","Exact","13200 CLARKSVILLE PIKE, HIGHLAND, MD, 20777",158958567,"R"
50080,"13200 DAWNWOOD CT","MIDLOTHIAN","VA",23114,37.485178708,-77.6406128469999,80,"13200 DAWNWOOD CT, MIDLOTHIAN, VA, 23114","Match","Exact","13200 DAWNWOOD CT, MIDLOTHIAN, VA, 23114",201529161,"L"
50081,"13200 FOXDEN DRIVE","ROCKVILLE","MD",20850,39.072131755,-77.1912743359999,81,"13200 FOXDEN DRIVE, ROCKVILLE, MD, 20850","Match","Exact","13200 FOXDEN DR, ROCKVILLE, MD, 20850",62052789,"L"
50082,"13200 GROVE ST","DETROIT","MI",48235,42.4141754,-83.175450643,82,"13200 GROVE ST, DETROIT, MI, 48235","Match","Exact","13200 GROVE ST, DETROIT, MI, 48235",95424890,"R"
50083,"13200 HENLEY ROAD","MANSFIELD","AR",72944,35.0187661040001,-94.218442544,83,"13200 HENLEY ROAD, MANSFIELD, AR, 72944","Match","Exact","13200 HENLEY RD, MANSFIELD, AR, 72944",34700793,"L"
50084,"13200 MOORPARK STREET APT 104","SHERMAN OAKS","CA",91423,34.1503528650001,-118.420403853,84,"13200 MOORPARK STREET APT 104, SHERMAN OAKS, CA, 91423","Match","Exact","13200 MOORPARK ST, SHERMAN OAKS, CA, 91423",141565209,"L"
50085,"13200 PACIFIC PROMENADE 439","PLAYA VISTA","CA",90094,33.971308197,-118.42691122,85,"13200 PACIFIC PROMENADE 439, PLAYA VISTA, CA, 90094","Match","Exact","13200 PACIFIC PROMENADE, PLAYA VISTA, CA, 90094",241173776,"L"
50086,"13200 SE MCGILLIVRAY BLVD","VANCOUVER","WA",98683,45.610704797,-122.536555236,86,"13200 SE MCGILLIVRAY BLVD, VANCOUVER, WA, 98683","Match","Exact","13200 SE MCGILLIVRAY BLVD, VANCOUVER, WA, 98683",158330209,"L"
50087,"13200 STRICKLAND RD SUITE 114-311","RALEIGH","NC",27613,35.9070935510001,-78.7262902109999,87,"13200 STRICKLAND RD SUITE 114-311, RALEIGH, NC, 27613","Match","Exact","13200 STRICKLAND RD, RALEIGH, NC, 27613",72658529,"R"
50088,"13200 SW 144TH TER","MIAMI","FL",33186,25.632746755,-80.403556324,88,"13200 SW 144TH TER, MIAMI, FL, 33186","Match","Exact","13200 SW 144TH TER, MIAMI, FL, 33186",647866353,"R"
50089,"13200 VANESSA AVENUE","BOWIE","MD",20720,38.9790542210001,-76.7801248979999,89,"13200 VANESSA AVENUE, BOWIE, MD, 20720","Match","Exact","13200 VANESSA AVE, BOWIE, MD, 20720",76353902,"R"
50090,"13201 134TH RD","HOYT","KS",66440,39.288750491,-95.729798466,90,"13201 134TH RD, HOYT, KS, 66440","Match","Exact","13201 134TH RD, HOYT, KS, 66440",637390821,"L"
50091,"13201 AILESBURY COURT","UPPER MARLBORO","MD",20772,38.8346314360001,-76.7753826209999,91,"13201 AILESBURY COURT, UPPER MARLBORO, MD, 20772","Match","Exact","13201 AILESBURY CT, UPPER MARLBORO, MD, 20772",76343594,"R"
50092,"13201 LOMAS BLVD NE","ALBUQUERQUE","NM",87112,35.0863489380001,-106.499943429,92,"13201 LOMAS BLVD NE, ALBUQUERQUE, NM, 87112","Match","Exact","13201 LOMAS BLVD NE, ALBUQUERQUE, NM, 87112",206721230,"L"
50093,"13201 OLD CRYSTAL RIVER RD","BROOKSVILLE","FL",34601,28.6172402010001,-82.380111026,93,"13201 OLD CRYSTAL RIVER RD, BROOKSVILLE, FL, 34601","Match","Exact","13201 OLD CRYSTAL RIVER RD, BROOKSVILLE, FL, 34601",646238932,"L"
50094,"13201 ROOSEVELT AVE","FLUSHING","NY",11354,NA,NA,94,"13201 ROOSEVELT AVE, FLUSHING, NY, 11354","No_Match",NA,NA,NA,NA
50095,"13201 S BELLE VISTA COURT","DRAPER","UT",84020,40.5123587080001,-111.874389123,95,"13201 S BELLE VISTA COURT, DRAPER, UT, 84020","Match","Exact","13201 BELLE VISTA CT, DRAPER, UT, 84020",619114733,"L"
50096,"13201 S WAKIAL LOOP  APT 1005","PHOENIX","AZ",85044,33.327788551,-111.977658841,96,"13201 S WAKIAL LOOP  APT 1005, PHOENIX, AZ, 85044","Match","Non_Exact","13201 S WAKIAL LOOP, PHOENIX, AZ, 85044",128923634,"R"
50097,"13201 SHARSWOOD CIRCLE","ORLANDO","FL",32828,28.508026704,-81.150110449,97,"13201 SHARSWOOD CIRCLE, ORLANDO, FL, 32828","Match","Exact","13201 SHARSWOOD CIR, ORLANDO, FL, 32828",631066632,"R"
50098,"13201 SUGAR BLUFF RD","CLERMONT","FL",34715,28.6541745590001,-81.7383915519999,98,"13201 SUGAR BLUFF RD, CLERMONT, FL, 34715","Match","Non_Exact","13201 SUGARBLUFF RD, CLERMONT, FL, 34715",635747222,"L"
50099,"13201 SW 82ND AVE","MIAMI","FL",33156,25.6477262510001,-80.326076166,99,"13201 SW 82ND AVE, MIAMI, FL, 33156","Match","Exact","13201 SW 82ND AVE, MIAMI, FL, 33156",115986264,"L"
50100,"13202 AVALON DRIVE","NORTHBOROUGH","MA",1532,42.287741284,-71.675685315,100,"13202 AVALON DRIVE, NORTHBOROUGH, MA, 1532","Match","Exact","13202 AVALON DR, NORTHBOROUGH, MA, 01532",646965895,"L"
50101,"13202 BRIAR FOREST 1308","HOUSTON","TX",77077,29.754424058,-95.621283117,101,"13202 BRIAR FOREST 1308, HOUSTON, TX, 77077","Match","Non_Exact","13202 BRIAR FOREST DR, HOUSTON, TX, 77077",649112594,"L"
50102,"13202 GOLDERS GREEN PL","BRISTOW","VA",20136,38.7604957510001,-77.585222217,102,"13202 GOLDERS GREEN PL, BRISTOW, VA, 20136","Match","Exact","13202 GOLDERS GREEN PL, BRISTOW, VA, 20136",76520529,"R"
50103,"13202 HART PLACE","CERRITOS","CA",90703,33.87510431,-118.050266048,103,"13202 HART PLACE, CERRITOS, CA, 90703","Match","Exact","13202 HART PL, CERRITOS, CA, 90703",141753559,"R"
50104,"13203 KERR PLACE","CULPEPER","VA",22701,38.493740432,-77.979684403,104,"13203 KERR PLACE, CULPEPER, VA, 22701","Match","Exact","13203 KERR PL, CULPEPER, VA, 22701",625730878,"L"
50105,"13203 LAVENTANA STREET","SAN ANTONIO","TX",78233,NA,NA,105,"13203 LAVENTANA STREET, SAN ANTONIO, TX, 78233","No_Match",NA,NA,NA,NA
50106,"13203 SANTA ROSA DR","DETROIT","MI",48238,42.3847433450001,-83.1416307809999,106,"13203 SANTA ROSA DR, DETROIT, MI, 48238","Match","Exact","13203 SANTA ROSA DR, DETROIT, MI, 48238",95704479,"L"
50107,"13203 SE 172ND AVE STE 116 PO 114","CLACKAMAS","OR",97086,45.4270578540001,-122.485750233,107,"13203 SE 172ND AVE STE 116 PO 114, CLACKAMAS, OR, 97086","Match","Non_Exact","13203 SE 172ND AVE, CLACKAMAS, OR, 97086",647417872,"L"
50108,"13203 SE 172ND AVE STE 166 BOX 118","HAPPY VALLEY","OR",97086,45.4270578540001,-122.485750233,108,"13203 SE 172ND AVE STE 166 BOX 118, HAPPY VALLEY, OR, 97086","Match","Non_Exact","13203 SE 172ND AVE, HAPPY VALLEY, OR, 97086",647417872,"L"
50109,"13203 SW 161ST PL","TIGARD","OR",97223,45.424209106,-122.842840414,109,"13203 SW 161ST PL, TIGARD, OR, 97223","Match","Exact","13203 SW 161ST PL, TIGARD, OR, 97223",158216837,"R"
50110,"13203 SW 28TH STREET","MIRAMAR","FL",33027,25.9839767070001,-80.321998256,110,"13203 SW 28TH STREET, MIRAMAR, FL, 33027","Match","Exact","13203 SW 28TH ST, MIRAMAR, FL, 33027",114798168,"L"
50111,"13204 ARCTURUS AVE","GARDENA","CA",90249,33.912405957,-118.321243303,111,"13204 ARCTURUS AVE, GARDENA, CA, 90249","Match","Exact","13204 ARCTURUS AVE, GARDENA, CA, 90249",141660998,"L"
50112,"13204 CLARINGTON COURT","LAUREL","MD",20708,39.0712679740001,-76.8560931929999,112,"13204 CLARINGTON COURT, LAUREL, MD, 20708","Match","Exact","13204 CLARINGTON CT, LAUREL, MD, 20708",76325901,"L"
50113,"13204 CORTE DE CHAMISAL","SALINAS","CA",93908,36.5577366540001,-121.743754831,113,"13204 CORTE DE CHAMISAL, SALINAS, CA, 93908","Match","Exact","13204 CORTE DE CHAMISAL, SALINAS, CA, 93908",196821999,"R"
50114,"13204 LAKEVIEW DR","STE GENEVIEVE","MO",63670,37.931848223,-90.238772329,114,"13204 LAKEVIEW DR, STE GENEVIEVE, MO, 63670","Match","Exact","13204 LAKEVIEW DR, STE GENEVIEVE, MO, 63670",62977194,"R"
50115,"13205 COURT RIDGE RD","MIDLOTHIAN","VA",23112,37.420351856,-77.6413075789999,115,"13205 COURT RIDGE RD, MIDLOTHIAN, VA, 23112","Match","Exact","13205 COURT RIDGE RD, MIDLOTHIAN, VA, 23112",201530205,"R"
50116,"13205 ELLENDALE DR","GONZALES","LA",70737,30.2587093000001,-90.95427086,116,"13205 ELLENDALE DR, GONZALES, LA, 70737","Match","Exact","13205 ELLENDALE DR, GONZALES, LA, 70737",648956858,"L"
50117,"13205 GUILFORD RUN LANE","SILVER SPRING","MD",20904,NA,NA,117,"13205 GUILFORD RUN LANE, SILVER SPRING, MD, 20904","No_Match",NA,NA,NA,NA
50118,"13205 S 200 W","KOKOMO","IN",46901,40.576869157,-86.108460508,118,"13205 S 200 W, KOKOMO, IN, 46901","Match","Exact","13205 S 200 W, KOKOMO, IN, 46901",106394121,"R"
50119,"13205 STATE ROUTE 124","PIKETON","OH",45661,39.0999983400001,-83.160640133,119,"13205 STATE ROUTE 124, PIKETON, OH, 45661","Match","Exact","13205 STATE RTE 124, PIKETON, OH, 45661",55064685,"R"
50120,"13205 W VAN NORMAN AVE","NEW BERLIN","WI",53151,42.9617365190001,-88.079471682,120,"13205 W VAN NORMAN AVE, NEW BERLIN, WI, 53151","Match","Exact","13205 W VAN NORMAN AVE, NEW BERLIN, WI, 53151",53846380,"L"
50121,"13206 BALLARA PLACE","HUNTERSVILLE","NC",28078,35.402002296,-80.870185631,121,"13206 BALLARA PLACE, HUNTERSVILLE, NC, 28078","Match","Exact","13206 BALLARA PL, HUNTERSVILLE, NC, 28078",70530929,"L"
50122,"13206 BEAVER TERRACE","ROCKVILLE","MD",20853,39.0742308470001,-77.079955421,122,"13206 BEAVER TERRACE, ROCKVILLE, MD, 20853","Match","Exact","13206 BEAVER TER, ROCKVILLE, MD, 20853",62078238,"L"
50123,"13206 FENCERAIL ROAD","MANCHACA","TX",78652,30.1462693940001,-97.875969659,123,"13206 FENCERAIL ROAD, MANCHACA, TX, 78652","Match","Exact","13206 FENCERAIL RD, MANCHACA, TX, 78652",63965170,"R"
50124,"13206 RHAME DRIVE","FORT WASHINGTON","MD",20744,38.7088672890001,-77.01021429,124,"13206 RHAME DRIVE, FORT WASHINGTON, MD, 20744","Match","Exact","13206 RHAME DR, FT WASHINGTON, MD, 20744",76302522,"L"
50125,"13207 AKRON OAK STREET HOUSTON","HOUSTON","TX",77070,NA,NA,125,"13207 AKRON OAK STREET HOUSTON, HOUSTON, TX, 77070","No_Match",NA,NA,NA,NA
50126,"13207 MALACHITE DR","BRADENTON","FL",34211,27.453064926,-82.409701146,126,"13207 MALACHITE DR, BRADENTON, FL, 34211","Match","Exact","13207 MALACHITE DR, BRADENTON, FL, 34211",649940478,"L"
50127,"13207 MALACHITE DRIVE","LAKEWOOD RANCH","FL",34211,27.453064926,-82.409701146,127,"13207 MALACHITE DRIVE, LAKEWOOD RANCH, FL, 34211","Match","Exact","13207 MALACHITE DR, LAKEWOOD RCH, FL, 34211",649940478,"L"
50128,"13207 N HOME RD","LIBERTY","MO",64068,39.3315972300001,-94.454532955,128,"13207 N HOME RD, LIBERTY, MO, 64068","Match","Exact","13207 N HOME RD, LIBERTY, MO, 64068",89752241,"L"
50129,"13207 SE 54TH PL","BELLEVUE","WA",98006,47.5550406900001,-122.163631806,129,"13207 SE 54TH PL, BELLEVUE, WA, 98006","Match","Exact","13207 SE 54TH PL, BELLEVUE, WA, 98006",239781180,"R"
50130,"13207","BOTHELL","WA",98011,NA,NA,130,"13207, BOTHELL, WA, 98011","No_Match",NA,NA,NA,NA
50131,"13208 CANTERBURY RD","LEAWOOD","KS",66209,38.887841757,-94.622753613,131,"13208 CANTERBURY RD, LEAWOOD, KS, 66209","Match","Non_Exact","13208 CANTERBURY, LEAWOOD, KS, 66209",635856777,"R"
50132,"13208 GLACIER NATIONAL DR APT 4401","ORLANDO","FL",32837,28.3710419820001,-81.424919525,132,"13208 GLACIER NATIONAL DR APT 4401, ORLANDO, FL, 32837","Match","Exact","13208 GLACIER NATIONAL DR, ORLANDO, FL, 32837",617827330,"R"
50133,"13208 PEACOCK CT","CUPERTINO","CA",94015,37.2964742840001,-122.093859639,133,"13208 PEACOCK CT, CUPERTINO, CA, 94015","Match","Non_Exact","13208 PEACOCK CT, CUPERTINO, CA, 95014",614041836,"R"
50134,"13208 PEACOCK CT","CUPERTINO","CA",95014,37.2964742840001,-122.093859639,134,"13208 PEACOCK CT, CUPERTINO, CA, 95014","Match","Exact","13208 PEACOCK CT, CUPERTINO, CA, 95014",614041836,"R"
50135,"13208 SANFORD AVE NUM 4L","FLUSHING","NY",11355,NA,NA,135,"13208 SANFORD AVE NUM 4L, FLUSHING, NY, 11355","No_Match",NA,NA,NA,NA
50136,"13209 BLACKBERRY PATCH CIRCLE","OKLAHOMA CITY","OK",73170,35.3374487780001,-97.540466017,136,"13209 BLACKBERRY PATCH CIRCLE, OKLAHOMA CITY, OK, 73170","Match","Exact","13209 BLACKBERRY PATCH CIR, OKLAHOMA CITY, OK, 73170",240927118,"R"
50137,"13209 LEILA STREET","OCEAN SPRINGS","MS",39564,30.4414138700001,-88.829815948,137,"13209 LEILA STREET, OCEAN SPRINGS, MS, 39564","Match","Exact","13209 LEILA ST, OCEAN SPRINGS, MS, 39564",89271249,"R"
50138,"13209 N VOYAGERS ST","RATHDRUM","WA",83858,NA,NA,138,"13209 N VOYAGERS ST, RATHDRUM, WA, 83858","No_Match",NA,NA,NA,NA
50139,"1321 17TH AVE S APT 206","BIRMINGHAM","AL",35205,33.48971312,-86.80474385,139,"1321 17TH AVE S APT 206, BIRMINGHAM, AL, 35205","Match","Exact","1321 17TH AVE S, BIRMINGHAM, AL, 35205",81717647,"R"
50140,"1321 5TH STREET SUITE 303","WASHINGTON","DC",20001,38.907575303,-77.0189237009999,140,"1321 5TH STREET SUITE 303, WASHINGTON, DC, 20001","Match","Non_Exact","1321 5TH ST NW, WASHINGTON, DC, 20001",76226232,"R"
50141,"1321 86TH AVE NE","CLYDE HILL","WA",98004,47.6219065540001,-122.224682951,141,"1321 86TH AVE NE, CLYDE HILL, WA, 98004","Match","Exact","1321 86TH AVE NE, CLYDE HILL, WA, 98004",186602728,"L"
50142,"1321 AIRLINE DRIVE","BOSSIER CITY","LA",71112,32.5114521450001,-93.693314716,142,"1321 AIRLINE DRIVE, BOSSIER CITY, LA, 71112","Match","Exact","1321 AIRLINE DR, BOSSIER CITY, LA, 71112",108509146,"L"
50143,"1321 APOPKA AIRPORT ROAD UNIT 54","APOPKA","FL",32712,NA,NA,143,"1321 APOPKA AIRPORT ROAD UNIT 54, APOPKA, FL, 32712","No_Match",NA,NA,NA,NA
50144,"1321 AVE O","BROOKLYN","NY",11230,40.612788084,-73.960687623,144,"1321 AVE O, BROOKLYN, NY, 11230","Match","Exact","1321 AVE O, BROOKLYN, NY, 11230",59089860,"L"
50145,"1321 BLUE RIDGE PARKWAY","ALGONQUIN","IL",60102,42.159519668,-88.265681935,145,"1321 BLUE RIDGE PARKWAY, ALGONQUIN, IL, 60102","Match","Exact","1321 BLUE RIDGE PKWY, ALGONQUIN, IL, 60102",119826971,"L"
50146,"1321 BRIDLE WAY","MINDEN","NV",89423,39.0378987010001,-119.743995443,146,"1321 BRIDLE WAY, MINDEN, NV, 89423","Match","Exact","1321 BRIDLE WAY, MINDEN, NV, 89423",173753463,"L"
50147,"1321 BRYAN DRIVE","LANCASTER","PA",17601,40.0697117030001,-76.3722521609999,147,"1321 BRYAN DRIVE, LANCASTER, PA, 17601","Match","Exact","1321 BRYAN DR, LANCASTER, PA, 17601",179697225,"L"
50148,"1321 BURMEISTER RD","FORT WORTH","TX",76134,32.6436543510001,-97.338888275,148,"1321 BURMEISTER RD, FORT WORTH, TX, 76134","Match","Exact","1321 BURMEISTER RD, FORT WORTH, TX, 76134",101894473,"R"
50149,"1321 CAMDEN YARD DR","BURLESON","TX",76028,32.573688153,-97.2960265839999,149,"1321 CAMDEN YARD DR, BURLESON, TX, 76028","Match","Exact","1321 CAMDEN YARD DR, BURLESON, TX, 76028",619864257,"L"
50150,"1321 CENTRAL AVE C/O INDIA BAZAR","ALBANY","NY",12205,42.7014051790001,-73.814355276,150,"1321 CENTRAL AVE C/O INDIA BAZAR, ALBANY, NY, 12205","Match","Exact","1321 CENTRAL AVE, ALBANY, NY, 12205",18305649,"R"
50151,"1321 CHAD DR","ROUND ROCK","TX",78665,30.5517346140001,-97.611414312,151,"1321 CHAD DR, ROUND ROCK, TX, 78665","Match","Exact","1321 CHAD DR, ROUND ROCK, TX, 78665",652003115,"R"
50152,"1321 CHRISTOPHER LANE","FORT WASHINGTON","MD",20744,38.729447285,-76.9866151809999,152,"1321 CHRISTOPHER LANE, FORT WASHINGTON, MD, 20744","Match","Exact","1321 CHRISTOPHER LN, FT WASHINGTON, MD, 20744",76345700,"L"
50153,"1321 COPPERWOOD DR","OSPREY","FL",34229,27.17616761,-82.477804584,153,"1321 COPPERWOOD DR, OSPREY, FL, 34229","Match","Exact","1321 COPPERWOOD DR, OSPREY, FL, 34229",633957306,"R"
50154,"1321 COUNTRY CLUB LN","BEATRICE","NE",68310,40.2465465020001,-96.735942619,154,"1321 COUNTRY CLUB LN, BEATRICE, NE, 68310","Match","Exact","1321 COUNTRY CLUB LN, BEATRICE, NE, 68310",11624631,"R"
50155,"1321 COUNTY ROAD 2075 E","SAINT JOSEPH","IL",61873,40.0675814050001,-88.071418288,155,"1321 COUNTY ROAD 2075 E, SAINT JOSEPH, IL, 61873","Match","Exact","1321 CO RD 2075 E, SAINT JOSEPH, IL, 61873",8827072,"L"
50156,"1321 COVENTRY PLACE","PALMDALE","CA",93551,34.59980425,-118.15435604,156,"1321 COVENTRY PLACE, PALMDALE, CA, 93551","Match","Exact","1321 COVENTRY PL, PALMDALE, CA, 93551",141799489,"R"
50157,"1321 DAVIS ST SW","CANTON","OH",44706,40.7483983170001,-81.3930468739999,157,"1321 DAVIS ST SW, CANTON, OH, 44706","Match","Exact","1321 DAVIS ST SW, CANTON, OH, 44706",64686931,"R"
50158,"1321 DINSMORE AVE","FAR ROCKAWAY","NY",11691,NA,NA,158,"1321 DINSMORE AVE, FAR ROCKAWAY, NY, 11691","No_Match",NA,NA,NA,NA
50159,"1321 DOMINION ROAD","GERRARDSTOWN","WV",25420,39.3591621910001,-78.1088916859999,159,"1321 DOMINION ROAD, GERRARDSTOWN, WV, 25420","Match","Exact","1321 DOMINION RD, GERRARDSTOWN, WV, 25420",123390916,"R"
50160,"1321 E 39TH ST N STE B","SIOUX FALLS","SD",57104,43.5837550360001,-96.710722695,160,"1321 E 39TH ST N STE B, SIOUX FALLS, SD, 57104","Match","Non_Exact","1321 E 39TH ST N, SIOUX FALLS, SD, 57104",34991213,"R"
50161,"1321 E ALBACORE LANE","KUNA","ID",83634,43.4947493120001,-116.396405078,161,"1321 E ALBACORE LANE, KUNA, ID, 83634","Match","Exact","1321 E ALBACORE LN, KUNA, ID, 83634",117890591,"L"
50162,"1321 E MAIN STREET UNIT C05","RICHMOND","VA",23219,37.536085364,-77.432763881,162,"1321 E MAIN STREET UNIT C05, RICHMOND, VA, 23219","Match","Non_Exact","1321 E MAIN ST, RICHMOND, VA, 23219",201540728,"R"
50163,"1321 E SPRING VALLEY RD","RICHARDSON","TX",75081,32.9385924630001,-96.703285873,163,"1321 E SPRING VALLEY RD, RICHARDSON, TX, 75081","Match","Exact","1321 E SPRING VALLEY RD, RICHARDSON, TX, 75081",102915744,"L"
50164,"1321 E TOWNLEY AVE","PHOENIX","AZ",85020,33.566253224,-112.054124348,164,"1321 E TOWNLEY AVE, PHOENIX, AZ, 85020","Match","Exact","1321 E TOWNLEY AVE, PHOENIX, AZ, 85020",128206897,"R"
50165,"1321 EAST 276ST 10","EUCLID","OH",44132,NA,NA,165,"1321 EAST 276ST 10, EUCLID, OH, 44132","No_Match",NA,NA,NA,NA
50166,"1321 EAST FIRST STREET APT 201","DULUTH","MN",55805,46.8004396370001,-92.0825411389999,166,"1321 EAST FIRST STREET APT 201, DULUTH, MN, 55805","Match","Exact","1321 E 1ST ST, DULUTH, MN, 55805",163212481,"L"
50167,"1321 EAST FOREST RIDGE RD","MOBILE","AL",36618,30.717010342,-88.16658864,167,"1321 EAST FOREST RIDGE RD, MOBILE, AL, 36618","Match","Exact","1321 E FOREST RIDGE RD, MOBILE, AL, 36618",649960082,"L"
50168,"1321 FAIRWAY VILLAGE DRIVE","LAS CRUCES","NM",88007,32.31407754,-106.857892743,168,"1321 FAIRWAY VILLAGE DRIVE, LAS CRUCES, NM, 88007","Match","Exact","1321 FAIRWAY VILLAGE DR, LAS CRUCES, NM, 88007",612722799,"R"
50169,"1321 GHOST FLOWER DRIVE","FORT WORTH","TX",76177,32.917512618,-97.339236496,169,"1321 GHOST FLOWER DRIVE, FORT WORTH, TX, 76177","Match","Exact","1321 GHOST FLOWER DR, FORT WORTH, TX, 76177",643396501,"L"
50170,"1321 GILMORE AVENUE","WINONA","MN",55987,44.048677035,-91.6727645139999,170,"1321 GILMORE AVENUE, WINONA, MN, 55987","Match","Exact","1321 GILMORE AVE, WINONA, MN, 55987",31663989,"L"
50171,"1321 GUNTER AVENUE","GUNTERSVILLE","AL",35976,34.3473769340001,-86.302307887,171,"1321 GUNTER AVENUE, GUNTERSVILLE, AL, 35976","Match","Exact","1321 GUNTER AVE, GUNTERSVILLE, AL, 35976",99228345,"R"
50172,"1321 HANSBERRY LANE","OORMOND BEACH","FL",32174,29.3659403390001,-81.144697804,172,"1321 HANSBERRY LANE, OORMOND BEACH, FL, 32174","Match","Non_Exact","1321 HANSBERRY LN, ORMOND BEACH, FL, 32174",612318770,"L"
50173,"1321 HARDEN LANE","BALTIMORE","MD",21208,39.3747285370001,-76.735386182,173,"1321 HARDEN LANE, BALTIMORE, MD, 21208","Match","Exact","1321 HARDEN LN, BALTIMORE, MD, 21208",191467712,"R"
50174,"1321 HARDTKE AVENUE NORTH EAST","ORTING","WA",98360,47.1148479510001,-122.224162269,174,"1321 HARDTKE AVENUE NORTH EAST, ORTING, WA, 98360","Match","Non_Exact","1321 HARDTKE AVE NE, ORTING, WA, 98360",647939178,"R"
50175,"1321 HARVEY ST","HOLLY HILL","SC",29059,33.3300436800001,-80.4128884259999,175,"1321 HARVEY ST, HOLLY HILL, SC, 29059","Match","Exact","1321 HARVEY ST, HOLLY HILL, SC, 29059",633728710,"R"
50176,"1321 JACKSON STREET","MEMPHIS","TN",38107,35.1583042510001,-90.014196823,176,"1321 JACKSON STREET, MEMPHIS, TN, 38107","Match","Non_Exact","1321 JACKSON AVE, MEMPHIS, TN, 38107",72904733,"R"
50177,"1321 JAMESTOWN RD STE 202","WILLIAMSBURG","VA",23185,37.250599347,-76.735138276,177,"1321 JAMESTOWN RD STE 202, WILLIAMSBURG, VA, 23185","Match","Exact","1321 JAMESTOWN RD, WILLIAMSBURG, VA, 23185",103778333,"L"
50178,"1321 JUAN ANTONIO ROAD","VICTORIA","TX",77904,28.941935555,-97.029158915,178,"1321 JUAN ANTONIO ROAD, VICTORIA, TX, 77904","Match","Exact","1321 JUAN ANTONIO RD, VICTORIA, TX, 77904",653216098,"L"
50179,"1321 KENNEDY AVE APT 1","GRAND JUNCTION","CO",81501,39.080122336,-108.550161321,179,"1321 KENNEDY AVE APT 1, GRAND JUNCTION, CO, 81501","Match","Exact","1321 KENNEDY AVE, GRAND JCT, CO, 81501",122432608,"R"
50180,"1321 KENYON ST NW STE 404","WASHINGTON","DC",20010,38.929664179,-77.030245791,180,"1321 KENYON ST NW STE 404, WASHINGTON, DC, 20010","Match","Exact","1321 KENYON ST NW, WASHINGTON, DC, 20010",76223017,"R"
50181,"1321 KINGS COURT","CROWLEY","TX",76036,32.559472052,-97.359099763,181,"1321 KINGS COURT, CROWLEY, TX, 76036","Match","Exact","1321 KINGS CT, CROWLEY, TX, 76036",102114123,"L"
50182,"1321 LOSSING AVENUE","COLONIAL BEACH","VA",22443,38.235379096,-76.9587126719999,182,"1321 LOSSING AVENUE, COLONIAL BEACH, VA, 22443","Match","Exact","1321 LOSSING AVE, COLONIAL BCH, VA, 22443",22163141,"L"
50183,"1321 LUNT CT","SCHAUMBURG","IL",60193,42.0017503660001,-88.0869376589999,183,"1321 LUNT CT, SCHAUMBURG, IL, 60193","Match","Exact","1321 LUNT CT, SCHAUMBURG, IL, 60193",642122970,"R"
50184,"1321 MADISON STREET","AMERICUS","GA",31719,32.088299675,-84.226757188,184,"1321 MADISON STREET, AMERICUS, GA, 31719","Match","Exact","1321 MADISON ST, AMERICUS, GA, 31719",30739285,"R"
50185,"1321 MARTIN LUTHER KING JR WAY","TACOMA","WA",98405,47.249682212,-122.451183776,185,"1321 MARTIN LUTHER KING JR WAY, TACOMA, WA, 98405","Match","Exact","1321 MARTIN LUTHER KING JR WAY, TACOMA, WA, 98405",184624522,"L"
50186,"1321 MARTIN LUTHER KING WAY STE 202","TACOMA","WA",98405,47.249682212,-122.451183776,186,"1321 MARTIN LUTHER KING WAY STE 202, TACOMA, WA, 98405","Match","Exact","1321 MARTIN LUTHER KING JR WAY, TACOMA, WA, 98405",184624522,"L"
50187,"1321 MONMOUTH AVENUE","LINDEN","NJ",7036,40.645406532,-74.242829055,187,"1321 MONMOUTH AVENUE, LINDEN, NJ, 7036","Match","Exact","1321 MONMOUTH AVE, LINDEN, NJ, 07036",60577001,"L"
50188,"1321 N LAMON AVE","CHICAGO","IL",60651,41.904716374,-87.74846203,188,"1321 N LAMON AVE, CHICAGO, IL, 60651","Match","Exact","1321 N LAMON AVE, CHICAGO, IL, 60651",605038594,"R"
50189,"1321 NATCHEZ LOOP","COVINGTON","LA",70433,30.4804847180001,-90.1174728839999,189,"1321 NATCHEZ LOOP, COVINGTON, LA, 70433","Match","Exact","1321 NATCHEZ LOOP, COVINGTON, LA, 70433",618396668,"L"
50190,"1321 NW 93RD  STREET","MIAMI","FL",33147,25.8592456220001,-80.220278015,190,"1321 NW 93RD  STREET, MIAMI, FL, 33147","Match","Exact","1321 NW 93RD ST, MIAMI, FL, 33147",116002810,"R"
50191,"1321 ORLEANS APT 2001W","DETROIT","MI",48207,42.3406684660001,-83.03200782,191,"1321 ORLEANS APT 2001W, DETROIT, MI, 48207","Match","Non_Exact","1321 ORLEANS ST, DETROIT, MI, 48207",95714995,"L"
50192,"1321 OSPREY NEST LANE","PORT ORANGE","FL",32128,29.0811709650001,-81.0320616609999,192,"1321 OSPREY NEST LANE, PORT ORANGE, FL, 32128","Match","Exact","1321 OSPREY NEST LN, PORT ORANGE, FL, 32128",94566950,"R"
50193,"1321 PARKDALE ROAD","MARYVILLE","MO",64468,40.3322487040001,-94.886383119,193,"1321 PARKDALE ROAD, MARYVILLE, MO, 64468","Match","Exact","1321 PARKDALE RD, MARYVILLE, MO, 64468",608410793,"R"
50194,"1321 PITNER AVE UNIT B","EVANSTON","IL",60201,42.0418379930001,-87.705328037,194,"1321 PITNER AVE UNIT B, EVANSTON, IL, 60201","Match","Exact","1321 PITNER AVE, EVANSTON, IL, 60201",605210511,"R"
50195,"1321 PITNER AVE","EVANSTON","IL",60201,42.0418379930001,-87.705328037,195,"1321 PITNER AVE, EVANSTON, IL, 60201","Match","Exact","1321 PITNER AVE, EVANSTON, IL, 60201",605210511,"R"
50196,"1321 PLEASANT PLAINS CHURCH ROAD","WHITEVILLE","NC",28472,34.252152112,-78.6992257649999,196,"1321 PLEASANT PLAINS CHURCH ROAD, WHITEVILLE, NC, 28472","Match","Exact","1321 PLEASANT PLAINS CHURCH RD, WHITEVILLE, NC, 28472",639879955,"L"
50197,"1321 PREACHER ROE BLVD","WEST PLAINS","MO",65775,36.7151831130001,-91.874095268,197,"1321 PREACHER ROE BLVD, WEST PLAINS, MO, 65775","Match","Exact","1321 PREACHER ROE BLVD, WEST PLAINS, MO, 65775",33344350,"L"
50198,"1321 RAVENWOOD DRIVE","GRAHAM","NC",27253,36.0029922860001,-79.422275354,198,"1321 RAVENWOOD DRIVE, GRAHAM, NC, 27253","Match","Exact","1321 RAVENWOOD DR, GRAHAM, NC, 27253",71683211,"R"
50199,"1321 RICE STREET","SAINT PAUL","MN",55117,44.9810577370001,-93.1058989379999,199,"1321 RICE STREET, SAINT PAUL, MN, 55117","Match","Exact","1321 RICE ST, SAINT PAUL, MN, 55117",97661347,"L"
50200,"1321 S 53RD STREET","PHILADELPHIA","PA",19143,39.941404748,-75.222437832,200,"1321 S 53RD STREET, PHILADELPHIA, PA, 19143","Match","Exact","1321 S 53RD ST, PHILADELPHIA, PA, 19143",131399916,"L"
50201,"1321 S SHAMROCK AVE","MONROVIA","CA",91016,34.1375471970001,-117.990778142,201,"1321 S SHAMROCK AVE, MONROVIA, CA, 91016","Match","Exact","1321 S SHAMROCK AVE, MONROVIA, CA, 91016",141647269,"R"
50202,"1321 S SHORE DIAMOND LK RD","NEWPORT","WA",99156,48.1346300800001,-117.178338238,202,"1321 S SHORE DIAMOND LK RD, NEWPORT, WA, 99156","Match","Exact","1321 S SHORE DIAMOND LAKE RD, NEWPORT, WA, 99156",636487431,"L"
50203,"1321 SAINT STEPHENS CHURCH ROAD","CROWNSVILLE","MD",21032,39.0154346780001,-76.635719958,203,"1321 SAINT STEPHENS CHURCH ROAD, CROWNSVILLE, MD, 21032","Match","Exact","1321 ST STEPHENS CHURCH RD, CROWNSVILLE, MD, 21032",617604490,"L"
50204,"1321 SASSWOOD LANE","ZEBULON","NC",27597,35.8171592030001,-78.3405567359999,204,"1321 SASSWOOD LANE, ZEBULON, NC, 27597","Match","Exact","1321 SASSWOOD LN, ZEBULON, NC, 27597",72643804,"L"
50205,"1321 SEDONA DRIVE","WEST DES MOINES","IA",50266,41.5872308690001,-93.8343001819999,205,"1321 SEDONA DRIVE, WEST DES MOINES, IA, 50266","Match","Exact","1321 SEDONA DR, WEST DES MOINES, IA, 50266",640765362,"R"
50206,"1321 SLATER ST","SUGAR GROVE","IL",60554,41.7971271640001,-88.405003877,206,"1321 SLATER ST, SUGAR GROVE, IL, 60554","Match","Exact","1321 SLATER ST, SUGAR GROVE, IL, 60554",119591979,"L"
50207,"1321 SOUTH POTOMAC STREET","HAGERSTOWN","MD",21740,39.614820636,-77.73061394,207,"1321 SOUTH POTOMAC STREET, HAGERSTOWN, MD, 21740","Match","Exact","1321 S POTOMAC ST, HAGERSTOWN, MD, 21740",647263569,"R"
50208,"1321 SPOKANE AVE","ORLANDO","FL",32803,28.562703465,-81.361541527,208,"1321 SPOKANE AVE, ORLANDO, FL, 32803","Match","Exact","1321 SPOKANE AVE, ORLANDO, FL, 32803",94282089,"R"
50209,"1321 SW 42ND STREET","OCALA","FL",34471,29.153662947,-82.150708444,209,"1321 SW 42ND STREET, OCALA, FL, 34471","Match","Exact","1321 SW 42ND ST, OCALA, FL, 34471",116749209,"L"
50210,"1321 SW 6TH WAY","DEERFIELD BEACH","FL",33441,26.300436092,-80.11323232,210,"1321 SW 6TH WAY, DEERFIELD BEACH, FL, 33441","Match","Non_Exact","1321 SW 6TH WAY, DEERFIELD BEACH, FL, 33441",114741944,"R"
50211,"1321 SWAN DR","ANNAPOLIS","MD",21409,39.045119958,-76.439969246,211,"1321 SWAN DR, ANNAPOLIS, MD, 21409","Match","Exact","1321 SWAN DR, ANNAPOLIS, MD, 21409",68175218,"R"
50212,"1321 UPLAND DR PMB 15080","HOUSTON","TX",77043,29.789512116,-95.576573159,212,"1321 UPLAND DR PMB 15080, HOUSTON, TX, 77043","Match","Exact","1321 UPLAND DR, HOUSTON, TX, 77043",642480265,"L"
50213,"1321 UPLAND DR STE 724","HOUSTON","TX",77043,29.789512116,-95.576573159,213,"1321 UPLAND DR STE 724, HOUSTON, TX, 77043","Match","Exact","1321 UPLAND DR, HOUSTON, TX, 77043",642480265,"L"
50214,"1321 UPLAND DR UNIT 5335","HOUSTON","TX",77043,29.789512116,-95.576573159,214,"1321 UPLAND DR UNIT 5335, HOUSTON, TX, 77043","Match","Exact","1321 UPLAND DR, HOUSTON, TX, 77043",642480265,"L"
50215,"1321 VERNON RD","LAKE STEVENS","WA",98258,48.0080446860001,-122.105243524,215,"1321 VERNON RD, LAKE STEVENS, WA, 98258","Match","Exact","1321 VERNON RD, LAKE STEVENS, WA, 98258",648208578,"R"
50216,"1321 W IVESBROOK STREET","LANCASTER","CA",93534,34.702820941,-118.153978359,216,"1321 W IVESBROOK STREET, LANCASTER, CA, 93534","Match","Exact","1321 W IVESBROOK ST, LANCASTER, CA, 93534",141525876,"L"
50217,"1321 W MANCHESTER AVE","LOS ANGELES","CA",90003,33.9600221640001,-118.298892445,217,"1321 W MANCHESTER AVE, LOS ANGELES, CA, 90003","Match","Non_Exact","1321 W MANCHESTER AVE, LOS ANGELES, CA, 90044",141658985,"R"
50218,"1321 W OAK ST","BURBANK","CA",91506,34.1656877630001,-118.317794261,218,"1321 W OAK ST, BURBANK, CA, 91506","Match","Exact","1321 W OAK ST, BURBANK, CA, 91506",141595600,"R"
50219,"1321 W OKMULGEE","MUSKOGEE","OK",74401,NA,NA,219,"1321 W OKMULGEE, MUSKOGEE, OK, 74401","No_Match",NA,NA,NA,NA
50220,"1321 W PARK ST","PHOENIX","AZ",85041,33.3805336200001,-112.088582444,220,"1321 W PARK ST, PHOENIX, AZ, 85041","Match","Exact","1321 W PARK ST, PHOENIX, AZ, 85041",640971801,"L"
50221,"1321 W PARK STREET","PHOENIX","AZ",85041,33.3805336200001,-112.088582444,221,"1321 W PARK STREET, PHOENIX, AZ, 85041","Match","Exact","1321 W PARK ST, PHOENIX, AZ, 85041",640971801,"L"
50222,"1321 W ROSECRANS AVE 14","GARDENA","CA",90247,33.901927314,-118.298726927,222,"1321 W ROSECRANS AVE 14, GARDENA, CA, 90247","Match","Non_Exact","1321 W ROSECRANS AVE, GARDENA, CA, 90247",142754461,"R"
50223,"1321 W ROSECRANS AVE STE 32","GARDENA","CA",90247,33.901927314,-118.298726927,223,"1321 W ROSECRANS AVE STE 32, GARDENA, CA, 90247","Match","Non_Exact","1321 W ROSECRANS AVE, GARDENA, CA, 90247",142754461,"R"
50224,"1321 W THUNDERHILL DRIVE","PHOENIX","AZ",85045,33.30425275,-112.089216378,224,"1321 W THUNDERHILL DRIVE, PHOENIX, AZ, 85045","Match","Exact","1321 W THUNDERHILL DR, PHOENIX, AZ, 85045",647583376,"R"
50225,"1321 WEST MAIN STREET BOX 30","STERLING","CO",80751,40.6251036350001,-103.232228664,225,"1321 WEST MAIN STREET BOX 30, STERLING, CO, 80751","Match","Exact","1321 W MAIN ST, STERLING, CO, 80751",136176924,"R"
50226,"1321 YARDLEY","WAKE FOREST","NC",27587,NA,NA,226,"1321 YARDLEY, WAKE FOREST, NC, 27587","No_Match",NA,NA,NA,NA
50227,"13210 ALLEN ROAD","CHAFFEE","NY",14030,42.5678878300001,-78.491028448,227,"13210 ALLEN ROAD, CHAFFEE, NY, 14030","Match","Exact","13210 ALLEN RD, CHAFFEE, NY, 14030",48281717,"R"
50228,"13210 E CASTLEWOOD STREET","WICHITA","KY",67230,NA,NA,228,"13210 E CASTLEWOOD STREET, WICHITA, KY, 67230","No_Match",NA,NA,NA,NA
50229,"13210 HALIFAX","HOUSTON","TX",77015,29.786098651,-95.1927877539999,229,"13210 HALIFAX, HOUSTON, TX, 77015","Match","Non_Exact","13210 HALIFAX ST, HOUSTON, TX, 77015",96096922,"R"
50230,"13210 NEW JERSEY AVE","KANSAS CITY","KS",66109,39.12154653,-94.8865160989999,230,"13210 NEW JERSEY AVE, KANSAS CITY, KS, 66109","Match","Exact","13210 NEW JERSEY AVE, KANSAS CITY, KS, 66109",619584738,"R"
50231,"13210 SOUTHPORT LANE  UNIT 469H","SEAL BEACH","CA",90740,33.771337998,-118.092026264,231,"13210 SOUTHPORT LANE  UNIT 469H, SEAL BEACH, CA, 90740","Match","Exact","13210 SOUTHPORT LN, SEAL BEACH, CA, 90740",609054825,"L"
50232,"13210 W VAN BUREN ST STE 100","GOODYEAR","AZ",85338,NA,NA,232,"13210 W VAN BUREN ST STE 100, GOODYEAR, AZ, 85338","No_Match",NA,NA,NA,NA
50233,"13211 AQUILLA RD  SUITE B","CHARDON","OH",44024,41.5087675880001,-81.180726492,233,"13211 AQUILLA RD  SUITE B, CHARDON, OH, 44024","Match","Exact","13211 AQUILLA RD, CHARDON, OH, 44024",638626149,"L"
50234,"13211 CONDUCTOR WAY","SILVER SPRING","MD",20904,39.071638121,-76.9456987149999,234,"13211 CONDUCTOR WAY, SILVER SPRING, MD, 20904","Match","Exact","13211 CONDUCTOR WAY, SILVER SPRING, MD, 20904",62115167,"R"
50235,"13211 COTTONWOOD CREEK BLVD","KENNEWICK","WA",99338,46.187242387,-119.283161734,235,"13211 COTTONWOOD CREEK BLVD, KENNEWICK, WA, 99338","Match","Exact","13211 COTTONWOOD CREEK BLVD, KENNEWICK, WA, 99338",617957338,"L"
50236,"13211 LAKESHORE DRIVE","FENTON","MI",48430,42.8354096350001,-83.719000732,236,"13211 LAKESHORE DRIVE, FENTON, MI, 48430","Match","Non_Exact","13211 LAKE SHORE DR, FENTON, MI, 48430",69588229,"L"
50237,"13211 MINNETONKA DRIVE","MINNETONKA","MN",55305,44.940405604,-93.447438384,237,"13211 MINNETONKA DRIVE, MINNETONKA, MN, 55305","Match","Exact","13211 MINNETONKA DR, MINNETONKA, MN, 55305",43610850,"L"
50238,"13211 N 103RD AVENUE SUITE ONE","SUN CITY","AZ",85351,33.60309246,-112.2812363,238,"13211 N 103RD AVENUE SUITE ONE, SUN CITY, AZ, 85351","Match","Non_Exact","13211 N 103RD AVE, SUN CITY, AZ, 85351",128912145,"R"
50239,"13211 SE 159TH PL","RENTON","WA",98058,47.459952312,-122.163430676,239,"13211 SE 159TH PL, RENTON, WA, 98058","Match","Exact","13211 SE 159TH PL, RENTON, WA, 98058",186636581,"R"
50240,"13211 SHARONDALE CT","RIVERVIEW","FL",33579,27.791387194,-82.320308057,240,"13211 SHARONDALE CT, RIVERVIEW, FL, 33579","Match","Exact","13211 SHARONDALE CT, RIVERVIEW, FL, 33579",104576499,"R"
50241,"13211 TAYLOR COURT","PRINCETON JUNCTION","NJ",8550,NA,NA,241,"13211 TAYLOR COURT, PRINCETON JUNCTION, NJ, 8550","No_Match",NA,NA,NA,NA
50242,"13212 BRISTOL AVE","GRANDVIEW","MO",64030,38.8836130460001,-94.5117127509999,242,"13212 BRISTOL AVE, GRANDVIEW, MO, 64030","Match","Exact","13212 BRISTOL AVE, GRANDVIEW, MO, 64030",91483959,"R"
50243,"13212 COLETO CREEK TRL","AUSTIN","TX",78732,30.369288033,-97.907586161,243,"13212 COLETO CREEK TRL, AUSTIN, TX, 78732","Match","Exact","13212 COLETO CREEK TRL, AUSTIN, TX, 78732",624656024,"L"
50244,"13212 HOLDRIDGE ROAD","SILVER SPRING","MD",20906,39.0734435370001,-77.0679424319999,244,"13212 HOLDRIDGE ROAD, SILVER SPRING, MD, 20906","Match","Exact","13212 HOLDRIDGE RD, SILVER SPRING, MD, 20906",62060672,"L"
50245,"13212 N LAMAR BLVD","AUSTIN","TX",78753,30.416911106,-97.6760280839999,245,"13212 N LAMAR BLVD, AUSTIN, TX, 78753","Match","Exact","13212 N LAMAR BLVD, AUSTIN, TX, 78753",637871876,"L"
50246,"13212 N LAMAR","AUSTIN","TX",78758,NA,NA,246,"13212 N LAMAR, AUSTIN, TX, 78758","No_Match",NA,NA,NA,NA
50247,"13212 N YALE RD","MEAD","WA",99021,47.777730762,-117.346662249,247,"13212 N YALE RD, MEAD, WA, 99021","Match","Exact","13212 N YALE RD, MEAD, WA, 99021",189909934,"R"
50248,"13212 REXWOOD AVE","GARFIELD HEIGHTS","OH",44105,41.436543235,-81.590240905,248,"13212 REXWOOD AVE, GARFIELD HEIGHTS, OH, 44105","Match","Exact","13212 REXWOOD AVE, GARFIELD HEIGHTS, OH, 44105",61127013,"R"
50249,"13212 S CARLTON AVE","LOS ANGELES","CA",90061,33.9126408220001,-118.272816087,249,"13212 S CARLTON AVE, LOS ANGELES, CA, 90061","Match","Exact","13212 S CARLTON AVE, LOS ANGELES, CA, 90061",141673597,"L"
50250,"13213 GEORGE ROAD","SAN ANTONIO","TX",78230,29.5613071060001,-98.542811183,250,"13213 GEORGE ROAD, SAN ANTONIO, TX, 78230","Match","Exact","13213 GEORGE RD, SAN ANTONIO, TX, 78230",101569395,"L"
50251,"13213 YORK AVE S","BURNSVILLE","MN",55337,44.762912306,-93.319046295,251,"13213 YORK AVE S, BURNSVILLE, MN, 55337","Match","Non_Exact","13213 YORK AVE, BURNSVILLE, MN, 55337",37902969,"L"
50252,"13214 CORRINGTON AVE","GRANDVIEW","MO",64030,38.883706562,-94.510380949,252,"13214 CORRINGTON AVE, GRANDVIEW, MO, 64030","Match","Exact","13214 CORRINGTON AVE, GRANDVIEW, MO, 64030",91492258,"R"
50253,"13214 FALGOUST STREET","VACHERIE","LA",70090,30.0084107960001,-90.8453280159999,253,"13214 FALGOUST STREET, VACHERIE, LA, 70090","Match","Exact","13214 FALGOUST ST, VACHERIE, LA, 70090",641101228,"L"
50254,"13214 FINCH BROOK DRIVE","CYPRESS","TX",77429,29.9928130270001,-95.6268027099999,254,"13214 FINCH BROOK DRIVE, CYPRESS, TX, 77429","Match","Exact","13214 FINCH BROOK DR, CYPRESS, TX, 77429",96163082,"R"
50255,"13214 GRIFFIN RUN","CARMEL","IN",46033,39.9834407770001,-86.049289648,255,"13214 GRIFFIN RUN, CARMEL, IN, 46033","Match","Exact","13214 GRIFFIN RUN, CARMEL, IN, 46033",653419220,"R"
50256,"13214 HEATHER RIDGE LOOP","FORT MYERS","FL",33966,26.5505008760001,-81.844607772,256,"13214 HEATHER RIDGE LOOP, FORT MYERS, FL, 33966","Match","Exact","13214 HEATHER RIDGE LOOP, FORT MYERS, FL, 33966",118061576,"R"
50257,"13214 WARBURTON DRIVE","FORT WASHINGTON","MD",20744,38.7098112800001,-77.0226845129999,257,"13214 WARBURTON DRIVE, FORT WASHINGTON, MD, 20744","Match","Exact","13214 WARBURTON DR, FT WASHINGTON, MD, 20744",76302346,"L"
50258,"13214 WHITAKER PARK DRIVE","BRANDYWINE","MD",20613,38.708993924,-76.900920441,258,"13214 WHITAKER PARK DRIVE, BRANDYWINE, MD, 20613","Match","Exact","13214 WHITAKER PARK DR, BRANDYWINE, MD, 20613",639468340,"R"
50259,"13215 101ST LN NE","KIRKLAND","WA",98034,47.718666795,-122.206060489,259,"13215 101ST LN NE, KIRKLAND, WA, 98034","Match","Exact","13215 101 LN NE, KIRKLAND, WA, 98034",637476176,"R"
50260,"13215 1ST AVE  APT 1B","FLUSHING","NY",11355,NA,NA,260,"13215 1ST AVE  APT 1B, FLUSHING, NY, 11355","No_Match",NA,NA,NA,NA
50261,"13215 BRUTUS DR","HUDSON","FL",34667,28.4236020540001,-82.596774448,261,"13215 BRUTUS DR, HUDSON, FL, 34667","Match","Exact","13215 BRUTUS DR, HUDSON, FL, 34667",86378681,"L"
50262,"13215 N VERDE RIVER DRIVE SUITE 8","FOUNTAIN HILLS","AZ",85268,33.606919969,-111.717286091,262,"13215 N VERDE RIVER DRIVE SUITE 8, FOUNTAIN HILLS, AZ, 85268","Match","Non_Exact","13215 N VERDE RIVER DR, FOUNTAIN HILLS, AZ, 85268",128191388,"L"
50263,"13215 ROSSTOWN DR","SUGAR LAND","TX",77478,29.655654118,-95.615050992,263,"13215 ROSSTOWN DR, SUGAR LAND, TX, 77478","Match","Exact","13215 ROSSTOWN DR, SUGAR LAND, TX, 77478",78275981,"L"
50264,"13215 SE MILL PLAIN BLVD C-8101","VANCOUVER","WA",98684,45.619055572,-122.536883373,264,"13215 SE MILL PLAIN BLVD C-8101, VANCOUVER, WA, 98684","Match","Non_Exact","13215 SE MILL PLAIN BLVD, VANCOUVER, WA, 98684",649086708,"R"
50265,"13215 SE MILL PLAIN BLVD C8-101","VANCOUVER","WA",98684,45.619055572,-122.536883373,265,"13215 SE MILL PLAIN BLVD C8-101, VANCOUVER, WA, 98684","Match","Non_Exact","13215 SE MILL PLAIN BLVD, VANCOUVER, WA, 98684",649086708,"R"
50266,"13215 SE MILL PLAIN BV C8-212","VANCOUVER","WA",98684,45.619055572,-122.536883373,266,"13215 SE MILL PLAIN BV C8-212, VANCOUVER, WA, 98684","Match","Non_Exact","13215 SE MILL PLAIN BLVD, VANCOUVER, WA, 98684",649086708,"R"
50267,"13216 CASIMIR AVENUE","GARDENA","CA",90249,33.912316881,-118.322082311,267,"13216 CASIMIR AVENUE, GARDENA, CA, 90249","Match","Exact","13216 CASIMIR AVE, GARDENA, CA, 90249",141660996,"L"
50268,"13216 E COUNTY ROAD 110","MIDLAND","TX",79706,NA,NA,268,"13216 E COUNTY ROAD 110, MIDLAND, TX, 79706","No_Match",NA,NA,NA,NA
50269,"13216 HOLDRIDGE RD","SILVER SPRING","MD",20906,39.07350268,-77.067956768,269,"13216 HOLDRIDGE RD, SILVER SPRING, MD, 20906","Match","Exact","13216 HOLDRIDGE RD, SILVER SPRING, MD, 20906",62060672,"L"
50270,"13216 N 98TH AVENUE UNIT C","SUN CITY","AZ",85351,33.6061780790001,-112.265539517,270,"13216 N 98TH AVENUE UNIT C, SUN CITY, AZ, 85351","Match","Non_Exact","13216 N 98TH AVE, SUN CITY, AZ, 85351",128165171,"L"
50271,"13216 S 5600 W","HERRIMAN","UT",84096,40.512349973,-112.024514112,271,"13216 S 5600 W, HERRIMAN, UT, 84096","Match","Exact","13216 S 5600 W, HERRIMAN, UT, 84096",636229661,"L"
50272,"13216 TORRIDON COURT","MOORPARK","CA",93021,34.277003436,-118.879045338,272,"13216 TORRIDON COURT, MOORPARK, CA, 93021","Match","Exact","13216 TORRIDON CT, MOORPARK, CA, 93021",627371688,"L"
50273,"13216 TORRIDON CT","MOORPARK","CA",93021,34.277003436,-118.879045338,273,"13216 TORRIDON CT, MOORPARK, CA, 93021","Match","Exact","13216 TORRIDON CT, MOORPARK, CA, 93021",627371688,"L"
50274,"13217 42ND AVE W","MUKILTEO","WA",98275,47.8780887450001,-122.290447849,274,"13217 42ND AVE W, MUKILTEO, WA, 98275","Match","Exact","13217 42ND AVE W, MUKILTEO, WA, 98275",187773797,"R"
50275,"13217 DEARBONNE DRIVE","DEL VALLE","TX",78617,30.175283957,-97.613630331,275,"13217 DEARBONNE DRIVE, DEL VALLE, TX, 78617","Match","Exact","13217 DEARBONNE DR, DEL VALLE, TX, 78617",64095019,"R"
50276,"13217 JAMBOREE RD   SUITE 333","TUSTIN","CA",92782,NA,NA,276,"13217 JAMBOREE RD   SUITE 333, TUSTIN, CA, 92782","No_Match",NA,NA,NA,NA
50277,"13217 JAMBOREE ROAD UNIT 288","TUSTIN","CA",92782,NA,NA,277,"13217 JAMBOREE ROAD UNIT 288, TUSTIN, CA, 92782","No_Match",NA,NA,NA,NA
50278,"13217 MATTOCK CHASE","CARMEL","IN",46033,39.9837322880001,-86.052515515,278,"13217 MATTOCK CHASE, CARMEL, IN, 46033","Match","Exact","13217 MATTOCK CHASE, CARMEL, IN, 46033",29321803,"R"
50279,"13217 NORTH 79TH STREET","SCOTTSDALE","AZ",85260,33.6058647950001,-111.910321324,279,"13217 NORTH 79TH STREET, SCOTTSDALE, AZ, 85260","Match","Exact","13217 N 79TH ST, SCOTTSDALE, AZ, 85260",128189440,"R"
50280,"13217 S 35TH AVE","BELLEVUE","NE",68123,41.11377887,-95.9656753629999,280,"13217 S 35TH AVE, BELLEVUE, NE, 68123","Match","Exact","13217 S 35TH AVE, BELLEVUE, NE, 68123",28470062,"L"
50281,"13218 KEPHART LN","WOODBRIDGE","VA",22193,38.6666716870001,-77.352255642,281,"13218 KEPHART LN, WOODBRIDGE, VA, 22193","Match","Exact","13218 KEPHART LN, WOODBRIDGE, VA, 22193",76508310,"R"
50282,"13218 PARK LANE","FORT WASHINGTON","MD",20744,38.7106037980001,-77.023650217,282,"13218 PARK LANE, FORT WASHINGTON, MD, 20744","Match","Exact","13218 PARK LN, FT WASHINGTON, MD, 20744",76414364,"L"
50283,"13218 VERDI COURT","SILVER SPRING","MD",20904,39.074419145,-76.950692908,283,"13218 VERDI COURT, SILVER SPRING, MD, 20904","Match","Exact","13218 VERDI CT, SILVER SPRING, MD, 20904",62078035,"L"
50284,"13219 BARBARA ANN STREET UNIT 7","NORTH HOLLYWOOD","CA",91605,34.2002425920001,-118.420512597,284,"13219 BARBARA ANN STREET UNIT 7, NORTH HOLLYWOOD, CA, 91605","Match","Exact","13219 BARBARA ANN ST, N HOLLYWOOD, CA, 91605",141562877,"R"
50285,"13219 COUNTY ROAD 142 SE","EYOTA","MN",55934,43.977344267,-92.2182209979999,285,"13219 COUNTY ROAD 142 SE, EYOTA, MN, 55934","Match","Exact","13219 CO RD 142 SE, EYOTA, MN, 55934",651344895,"L"
50286,"13219 FAIRFIELD ARBOR DR","HOUSTON","TX",77059,NA,NA,286,"13219 FAIRFIELD ARBOR DR, HOUSTON, TX, 77059","No_Match",NA,NA,NA,NA
50287,"13219 HILLENDALE DR","WOODBRIDGE","VA",22193,38.6646634030001,-77.337861532,287,"13219 HILLENDALE DR, WOODBRIDGE, VA, 22193","Match","Exact","13219 HILLENDALE DR, WOODBRIDGE, VA, 22193",76508473,"L"
50288,"13219 RUTHELEN STREET","GARDENA","CA",90249,33.912291752,-118.312272017,288,"13219 RUTHELEN STREET, GARDENA, CA, 90249","Match","Non_Exact","13219 RUTHELEN AVE, GARDENA, CA, 90249",141661064,"R"
50289,"1321B HARVARD STREET","WASHINGTON","DC",20009,38.9267497600001,-77.0304053259999,289,"1321B HARVARD STREET, WASHINGTON, DC, 20009","Match","Non_Exact","1321 HARVARD ST NW, WASHINGTON, DC, 20009",76223022,"R"
50290,"1321OAK STREET","SAN FRANCISCO","CA",94117,NA,NA,290,"1321OAK STREET, SAN FRANCISCO, CA, 94117","No_Match",NA,NA,NA,NA
50291,"1322 11TH ST NE","MASSILLON","OH",44646,40.8120254930001,-81.5107974589999,291,"1322 11TH ST NE, MASSILLON, OH, 44646","Match","Exact","1322 11TH ST NE, MASSILLON, OH, 44646",64668748,"R"
50292,"1322 5TH STREET NW APT 1","WASHINGTON","DC",20001,38.9075982590001,-77.018937584,292,"1322 5TH STREET NW APT 1, WASHINGTON, DC, 20001","Match","Exact","1322 5TH ST NW, WASHINGTON, DC, 20001",76226232,"L"
50293,"1322 62ND STREET STE 1","BROOKLYN","NY",11219,40.627343841,-73.999144061,293,"1322 62ND STREET STE 1, BROOKLYN, NY, 11219","Match","Exact","1322 62ND ST, BROOKLYN, NY, 11219",59101730,"R"
50294,"1322 ASHLAND HILLS DR","CAPE GIRARDEAU","MO",63701,37.329814556,-89.5858143,294,"1322 ASHLAND HILLS DR, CAPE GIRARDEAU, MO, 63701","Match","Exact","1322 ASHLAND HILLS DR, CAPE GIRARDEAU, MO, 63701",35191634,"R"
50295,"1322 BAYVIEW ROAD","MIDDLETOWN","DE",19709,39.487509948,-75.600601313,295,"1322 BAYVIEW ROAD, MIDDLETOWN, DE, 19709","Match","Exact","1322 BAYVIEW RD, MIDDLETOWN, DE, 19709",187249779,"R"
50296,"1322 BRAVEHEART LANE","CHARLOTTE","NC",28078,35.306531808,-80.9030344179999,296,"1322 BRAVEHEART LANE, CHARLOTTE, NC, 28078","Match","Non_Exact","1322 BRAVEHEART LN, CHARLOTTE, NC, 28216",70561846,"L"
50297,"1322 CARROLL AVENUE","AMES","IA",50010,42.034857479,-93.608969331,297,"1322 CARROLL AVENUE, AMES, IA, 50010","Match","Exact","1322 CARROLL AVE, AMES, IA, 50010",65946570,"R"
50298,"1322 CENTRAL AVE NE","MINNEAPOLIS","MN",55413,45.0009660110001,-93.247375798,298,"1322 CENTRAL AVE NE, MINNEAPOLIS, MN, 55413","Match","Exact","1322 CENTRAL AVE NE, MINNEAPOLIS, MN, 55413",43636462,"L"
50299,"1322 COUNTY ROAD 356","ORANGE GROVE","TX",78372,27.957621971,-97.880618213,299,"1322 COUNTY ROAD 356, ORANGE GROVE, TX, 78372","Match","Exact","1322 CO RD 356, ORANGE GROVE, TX, 78372",21527642,"L"
50300,"1322 DANIELS ST","MANTECA","CA",95337,37.7854739360001,-121.236462277,300,"1322 DANIELS ST, MANTECA, CA, 95337","Match","Exact","1322 DANIELS ST, MANTECA, CA, 95337",133909499,"L"
50301,"1322 DOROTHY LANE","CHEYENNE","WY",82009,41.186927004,-104.807935774,301,"1322 DOROTHY LANE, CHEYENNE, WY, 82009","Match","Exact","1322 DOROTHY LN, CHEYENNE, WY, 82009",632577183,"L"
50302,"1322 E FILLMORE STREET","COLORADO SPRINGS","CO",80907,38.873903281,-104.801985658,302,"1322 E FILLMORE STREET, COLORADO SPRINGS, CO, 80907","Match","Exact","1322 E FILLMORE ST, COLORADO SPRINGS, CO, 80907",639291202,"L"
50303,"1322 E GUN HILL RD","BRONX","NY",10469,40.871252456,-73.8477596769999,303,"1322 E GUN HILL RD, BRONX, NY, 10469","Match","Exact","1322 E GUN HILL RD, BRONX, NY, 10469",80303677,"R"
50304,"1322 E SHAW AVE STE 260","FRESNO","CA",93710,36.808583367,-119.764902701,304,"1322 E SHAW AVE STE 260, FRESNO, CA, 93710","Match","Non_Exact","1322 E SHAW AVE, FRESNO, CA, 93710",197575405,"L"
50305,"1322 EAST 16TH STREET","LOVELAND","CO",80538,40.409491589,-105.057984226,305,"1322 EAST 16TH STREET, LOVELAND, CO, 80538","Match","Exact","1322 E 16TH ST, LOVELAND, CO, 80538",188487970,"L"
50306,"1322 FIELDVIEW COURT","EL CENTRO","CA",92243,32.7613721540001,-115.566967445,306,"1322 FIELDVIEW COURT, EL CENTRO, CA, 92243","Match","Exact","1322 FIELDVIEW CT, EL CENTRO, CA, 92243",611781469,"L"
50307,"1322 HIGH RIDGE DRIVE","MEBANE","NC",27302,36.104310695,-79.218001068,307,"1322 HIGH RIDGE DRIVE, MEBANE, NC, 27302","Match","Exact","1322 HIGH RIDGE DR, MEBANE, NC, 27302",636354835,"L"
50308,"1322 LAS POSAS ROAD","CAMARILLO","CA",93010,34.232958174,-119.053739115,308,"1322 LAS POSAS ROAD, CAMARILLO, CA, 93010","Match","Exact","1322 LAS POSAS RD, CAMARILLO, CA, 93010",110062286,"R"
50309,"1322 LEHMAN STREET","LEBANON","PA",17046,40.3450502110001,-76.433816435,309,"1322 LEHMAN STREET, LEBANON, PA, 17046","Match","Exact","1322 LEHMAN ST, LEBANON, PA, 17046",80673493,"R"
50310,"1322 MARTINO ROAD","LAFAYETTE","CA",94549,37.908671923,-122.106724544,310,"1322 MARTINO ROAD, LAFAYETTE, CA, 94549","Match","Exact","1322 MARTINO RD, LAFAYETTE, CA, 94549",607830518,"R"
50311,"1322 METCALF AVE","BRONX","NY",10472,40.8326285640001,-73.873322115,311,"1322 METCALF AVE, BRONX, NY, 10472","Match","Exact","1322 METCALF AVE, BRONX, NY, 10472",80304294,"R"
50312,"1322 MILLCREST WALK NW","CONYERS","GA",30012,33.6810136,-84.0206027959999,312,"1322 MILLCREST WALK NW, CONYERS, GA, 30012","Match","Non_Exact","1322 MILL CREST WALK NW, CONYERS, GA, 30012",23754120,"R"
50313,"1322 MORRO ROAD","FALLBROOK","CA",92028,33.365147531,-117.240614655,313,"1322 MORRO ROAD, FALLBROOK, CA, 92028","Match","Exact","1322 MORRO RD, FALLBROOK, CA, 92028",195711589,"L"
50314,"1322 N CLEVELAND AVE UNIT 2","CHICAGO","IL",60610,NA,NA,314,"1322 N CLEVELAND AVE UNIT 2, CHICAGO, IL, 60610","No_Match",NA,NA,NA,NA
50315,"1322 N CURSON AVE 209","LOS ANGELES","CA",90046,34.094895932,-118.354991561,315,"1322 N CURSON AVE 209, LOS ANGELES, CA, 90046","Match","Non_Exact","1322 N CURSON AVE, LOS ANGELES, CA, 90046",642867523,"R"
50316,"1322 N WOOD ST 2F","GRIFFITH","IN",46319,41.5455006080001,-87.422087974,316,"1322 N WOOD ST 2F, GRIFFITH, IN, 46319","Match","Non_Exact","1322 N WOOD ST, GRIFFITH, IN, 46319",98429218,"L"
50317,"1322 NORTH PIONEER PEAK DRIVE","WASILLA","AK",99654,61.596764948,-149.402794678,317,"1322 NORTH PIONEER PEAK DRIVE, WASILLA, AK, 99654","Match","Non_Exact","1322 PIONEER PEAK DR, WASILLA, AK, 99654",191046239,"R"
50318,"1322 PALMETTO RD","BENTON","LA",71006,32.683700319,-93.738689957,318,"1322 PALMETTO RD, BENTON, LA, 71006","Match","Exact","1322 PALMETTO RD, BENTON, LA, 71006",108518531,"L"
50319,"1322 PATTERSON AVENUE SE","WASHINGTON","DC",20374,NA,NA,319,"1322 PATTERSON AVENUE SE, WASHINGTON, DC, 20374","No_Match",NA,NA,NA,NA
50320,"1322 PECOS COURT","LANCASTER","TX",75146,32.5835114540001,-96.7820534269999,320,"1322 PECOS COURT, LANCASTER, TX, 75146","Match","Exact","1322 PECOS CT, LANCASTER, TX, 75146",103169073,"R"
50321,"1322 RAELL DRIVE","YORK","NE",68467,40.8619461330001,-97.577420782,321,"1322 RAELL DRIVE, YORK, NE, 68467","Match","Exact","1322 RAELL DR, YORK, NE, 68467",649917512,"R"
50322,"1322 RANDOLPH STREET NE","WASHINGTON","DC",20017,38.938319199,-76.987701306,322,"1322 RANDOLPH STREET NE, WASHINGTON, DC, 20017","Match","Exact","1322 RANDOLPH ST NE, WASHINGTON, DC, 20017",76228366,"L"
50323,"1322 RIVERFIELD CT","VALRICO","FL",33596,27.8687709930001,-82.256796784,323,"1322 RIVERFIELD CT, VALRICO, FL, 33596","Match","Exact","1322 RIVERFIELD CT, VALRICO, FL, 33596",104615587,"L"
50324,"1322 S DAIRY ASHFORD RD","HOUSTON","TX",77077,29.757057128,-95.606165489,324,"1322 S DAIRY ASHFORD RD, HOUSTON, TX, 77077","Match","Exact","1322 S DAIRY ASHFORD RD, HOUSTON, TX, 77077",96623886,"R"
50325,"1322 S INDIANA AVE","CHICAGO","IL",60605,41.8653643550001,-87.622619373,325,"1322 S INDIANA AVE, CHICAGO, IL, 60605","Match","Exact","1322 S INDIANA AVE, CHICAGO, IL, 60605",111769891,"R"
50326,"1322 S OLD PIONEER WAY","RIDGEFIELD","WA",98642,NA,NA,326,"1322 S OLD PIONEER WAY, RIDGEFIELD, WA, 98642","Tie",NA,NA,NA,NA
50327,"1322 SANDPIPER LANE","LANTANA","FL",33462,26.573716093,-80.0582828299999,327,"1322 SANDPIPER LANE, LANTANA, FL, 33462","Match","Exact","1322 SANDPIPER LN, LANTANA, FL, 33462",115295014,"L"
50328,"1322 SANTEE DR  STE K","SAN JOSE","CA",95122,37.330585136,-121.848006585,328,"1322 SANTEE DR  STE K, SAN JOSE, CA, 95122","Match","Exact","1322 SANTEE DR, SAN JOSE, CA, 95122",122912541,"L"
50329,"1322 SMOKE RISE LANE","TALLAHASSEE","FL",32317,30.465646237,-84.180148167,329,"1322 SMOKE RISE LANE, TALLAHASSEE, FL, 32317","Match","Exact","1322 SMOKE RISE LN, TALLAHASSEE, FL, 32317",82866985,"R"
50330,"1322 SOUTH 197TH AVENUE","OMAHA","NE",68130,41.2466105710001,-96.224278027,330,"1322 SOUTH 197TH AVENUE, OMAHA, NE, 68130","Match","Exact","1322 S 197TH AVE, OMAHA, NE, 68130",624401625,"L"
50331,"1322 SPACE PARK DRIVE C230","HOUSTON","TX",77058,29.546352654,-95.099918985,331,"1322 SPACE PARK DRIVE C230, HOUSTON, TX, 77058","Match","Exact","1322 SPACE PARK DR, HOUSTON, TX, 77058",96115983,"L"
50332,"1322 STALEY ROAD","GRAND ISLAND","NY",14072,43.0073138770001,-78.939304506,332,"1322 STALEY ROAD, GRAND ISLAND, NY, 14072","Match","Exact","1322 STALEY RD, GRAND ISLAND, NY, 14072",48286131,"L"
50333,"1322 W 25TH ST","HOUSTON","TX",77024,29.8087076100001,-95.4230517409999,333,"1322 W 25TH ST, HOUSTON, TX, 77024","Match","Non_Exact","1322 W 25TH ST, HOUSTON, TX, 77008",96054568,"L"
50334,"1322 W THORNDALE AVE APT 1","CHICAGO","IL",60660,41.9899747960001,-87.663355143,334,"1322 W THORNDALE AVE APT 1, CHICAGO, IL, 60660","Match","Non_Exact","1322 W THORNDALE AVE, CHICAGO, IL, 60660",111745815,"R"
50335,"1322 WASHINGTON AVE","PIQUA","OH",45356,40.1589174160001,-84.256724304,335,"1322 WASHINGTON AVE, PIQUA, OH, 45356","Match","Exact","1322 WASHINGTON AVE, PIQUA, OH, 45356",135294303,"R"
50336,"1322 YALE STREET","HOUSTON","TX",77008,29.7948550260001,-95.39904291,336,"1322 YALE STREET, HOUSTON, TX, 77008","Match","Exact","1322 YALE ST, HOUSTON, TX, 77008",96061011,"R"
50337,"1322","WESTERVILLE","OH",43086,NA,NA,337,"1322, WESTERVILLE, OH, 43086","No_Match",NA,NA,NA,NA
50338,"13220 23RD AVE SE","MILL CREEK","WA",98012,47.877552144,-122.201562384,338,"13220 23RD AVE SE, MILL CREEK, WA, 98012","Match","Exact","13220 23RD AVE SE, MILL CREEK, WA, 98012",648623117,"R"
50339,"13220 271ST AVE SE","MONROE","WA",98272,47.8788767400001,-121.868907934,339,"13220 271ST AVE SE, MONROE, WA, 98272","Match","Exact","13220 271ST AVE SE, MONROE, WA, 98272",627804175,"R"
50340,"13220 CASIMIR AVE","GARDENA","CA",90249,33.9122857420001,-118.322082536,340,"13220 CASIMIR AVE, GARDENA, CA, 90249","Match","Exact","13220 CASIMIR AVE, GARDENA, CA, 90249",141660996,"L"
50341,"13220 HOUSTON AVE UNIT 138","HUDSON","FL",34667,NA,NA,341,"13220 HOUSTON AVE UNIT 138, HUDSON, FL, 34667","Tie",NA,NA,NA,NA
50342,"13220 METCALF AVE STE 100","OVERLAND PARK","KS",66213,38.888173534,-94.667812952,342,"13220 METCALF AVE STE 100, OVERLAND PARK, KS, 66213","Match","Exact","13220 METCALF AVE, OVERLAND PARK, KS, 66213",91292580,"R"
50343,"13220 N WEBSTER RD","CLIO","MI",48420,43.197397704,-83.793993868,343,"13220 N WEBSTER RD, CLIO, MI, 48420","Match","Exact","13220 WEBSTER RD, CLIO, MI, 48420",69559292,"R"
50344,"13220 NW 33RD AVE","VANCOUVER","WA",98685,45.716889667,-122.705161448,344,"13220 NW 33RD AVE, VANCOUVER, WA, 98685","Match","Exact","13220 NW 33RD AVE, VANCOUVER, WA, 98685",158362552,"L"
50345,"13220 PONTCHATRAIN AVE","CHARLOTTE","NC",28273,35.090324638,-80.984658204,345,"13220 PONTCHATRAIN AVE, CHARLOTTE, NC, 28273","Match","Exact","13220 PONTCHATRAIN AVE, CHARLOTTE, NC, 28273",619914422,"R"
50346,"13220 RADCLIFFE DR","FORT MYERS","FL",33966,26.5501367150001,-81.841485488,346,"13220 RADCLIFFE DR, FORT MYERS, FL, 33966","Match","Exact","13220 RADCLIFFE DR, FORT MYERS, FL, 33966",118050992,"L"
50347,"13220 REGINA CT","CARMEL","IN",46074,39.97897951,-86.204467719,347,"13220 REGINA CT, CARMEL, IN, 46074","Match","Exact","13220 REGINA CT, CARMEL, IN, 46074",642694503,"L"
50348,"13220 S 48TH STREET APT 2014","PHOENIX","AZ",85044,NA,NA,348,"13220 S 48TH STREET APT 2014, PHOENIX, AZ, 85044","No_Match",NA,NA,NA,NA
50349,"13220 SEMORA PLACE","CERRITOS","CA",90703,33.8706229860001,-118.050033432,349,"13220 SEMORA PLACE, CERRITOS, CA, 90703","Match","Exact","13220 SEMORA PL, CERRITOS, CA, 90703",141753614,"R"
50350,"13220 USF LAUREL DRIVE MDF 5116","TAMPA","FL",33620,NA,NA,350,"13220 USF LAUREL DRIVE MDF 5116, TAMPA, FL, 33620","No_Match",NA,NA,NA,NA
50351,"13221 55TH ROAD NORTH","ROYAL PALM BEACH","FL",33411,26.7590275330001,-80.251211756,351,"13221 55TH ROAD NORTH, ROYAL PALM BEACH, FL, 33411","Match","Exact","13221 55TH RD N, ROYAL PALM BEACH, FL, 33411",648585371,"L"
50352,"13221 BOYETTE ROAD","RIVERVIEW","FL",33569,27.8535541690001,-82.280569653,352,"13221 BOYETTE ROAD, RIVERVIEW, FL, 33569","Match","Exact","13221 BOYETTE RD, RIVERVIEW, FL, 33569",631855020,"L"
50353,"13221 EVERGREEN DRIVE","FORT WORTH","TX",76244,32.968016752,-97.280562794,353,"13221 EVERGREEN DRIVE, FORT WORTH, TX, 76244","Match","Exact","13221 EVERGREEN DR, FORT WORTH, TX, 76244",619866578,"L"
50354,"13221 HARNESS DRIVE","RANCHO CUCAMONGA","CA",91739,34.1489407610001,-117.517474366,354,"13221 HARNESS DRIVE, RANCHO CUCAMONGA, CA, 91739","Match","Exact","13221 HARNESS DR, ETIWANDA, CA, 91739",614818911,"R"
50355,"13221 LAKE GENEVA WAY","GERMANTOWN","MD",20874,39.1675434300001,-77.272297414,355,"13221 LAKE GENEVA WAY, GERMANTOWN, MD, 20874","Match","Exact","13221 LAKE GENEVA WAY, GERMANTOWN, MD, 20874",62108918,"R"
50356,"13221 NORRIS ROAD","RAYVILLE","MO",64084,39.327329584,-94.09838689,356,"13221 NORRIS ROAD, RAYVILLE, MO, 64084","Match","Exact","13221 NORRIS RD, RAYVILLE, MO, 64084",20979352,"R"
50357,"13222 BUCKTREE DRIVE","SAN ANTONIO","TX",78254,29.5172772510001,-98.755640117,357,"13222 BUCKTREE DRIVE, SAN ANTONIO, TX, 78254","Match","Exact","13222 BUCKTREE DR, SAN ANTONIO, TX, 78254",648974405,"R"
50358,"13222 LOYALTY ROAD","LEESBURG","VA",20176,39.250721153,-77.576187865,358,"13222 LOYALTY ROAD, LEESBURG, VA, 20176","Match","Exact","13222 LOYALTY RD, LEESBURG, VA, 20176",632695583,"R"
50359,"13222 ORCHARD HARVEST DR","RICHMOND","TX",77407,29.623485766,-95.68435095,359,"13222 ORCHARD HARVEST DR, RICHMOND, TX, 77407","Match","Exact","13222 ORCHARD HARVEST DR, RICHMOND, TX, 77407",628003896,"R"
50360,"13222 SILVERGLEN RUN TRAILS","HOUSTON","TX",77014,NA,NA,360,"13222 SILVERGLEN RUN TRAILS, HOUSTON, TX, 77014","No_Match",NA,NA,NA,NA
50361,"13223 BELLSVILLE PIKE","COLUMBUS","IN",47201,39.144659356,-86.0522211689999,361,"13223 BELLSVILLE PIKE, COLUMBUS, IN, 47201","Match","Exact","13223 BELLSVILLE PIKE, COLUMBUS, IN, 47201",610964973,"R"
50362,"13223 GENTRY DRIVE","HAGERSTOWN","MD",21742,39.675072266,-77.701391222,362,"13223 GENTRY DRIVE, HAGERSTOWN, MD, 21742","Match","Exact","13223 GENTRY DR, HAGERSTOWN, MD, 21742",60798642,"R"
50363,"13223 N PALOMINO LN","SPOKANE","WA",99208,47.777557411,-117.388886474,363,"13223 N PALOMINO LN, SPOKANE, WA, 99208","Match","Exact","13223 N PALOMINO LN, SPOKANE, WA, 99208",641089585,"L"
50364,"13223 THUNDERHEAD STREET","SAN DIEGO","CA",92129,32.9581638440001,-117.136133105,364,"13223 THUNDERHEAD STREET, SAN DIEGO, CA, 92129","Match","Exact","13223 THUNDERHEAD ST, SAN DIEGO, CA, 92129",195679601,"L"
50365,"13223 VERBENA LN","HOUSTON","TX",77083,29.707479531,-95.6153300619999,365,"13223 VERBENA LN, HOUSTON, TX, 77083","Match","Exact","13223 VERBENA LN, HOUSTON, TX, 77083",96021817,"L"
50366,"13223 WENHAM AVE","BATON ROUGE","LA",70815,30.4547181720001,-91.037367101,366,"13223 WENHAM AVE, BATON ROUGE, LA, 70815","Match","Exact","13223 WENHAM AVE, BATON ROUGE, LA, 70815",92191792,"L"
50367,"13223-1 BLACK MOUNTAIN RD SUITE 225","SAN DIEGO","CA",92590,32.9564085870001,-117.129492495,367,"13223-1 BLACK MOUNTAIN RD SUITE 225, SAN DIEGO, CA, 92590","Match","Non_Exact","13223 BLACK MOUNTAIN RD, SAN DIEGO, CA, 92129",635932408,"R"
50368,"13223-1 BLACK MOUNTAIN RD SUITE 23","SAN DIEGO","CA",92129,32.9564085870001,-117.129492495,368,"13223-1 BLACK MOUNTAIN RD SUITE 23, SAN DIEGO, CA, 92129","Match","Exact","13223 BLACK MOUNTAIN RD, SAN DIEGO, CA, 92129",635932408,"R"
50369,"13224 37TH AVENUE NE","SEATTLE","WA",98125,47.724558023,-122.288624857,369,"13224 37TH AVENUE NE, SEATTLE, WA, 98125","Match","Exact","13224 37TH AVE NE, SEATTLE, WA, 98125",186577114,"R"
50370,"13224 BARKLEY ST","OVERLAND PARK","KS",66209,38.8888470420001,-94.66398746,370,"13224 BARKLEY ST, OVERLAND PARK, KS, 66209","Match","Exact","13224 BARKLEY ST, OVERLAND PARK, KS, 66209",91334122,"L"
50371,"13224 CALHOUN RD","CONROE","TX",77302,30.1860454270001,-95.3779767889999,371,"13224 CALHOUN RD, CONROE, TX, 77302","Match","Exact","13224 CALHOUN RD, CONROE, TX, 77302",79285429,"L"
50372,"13224 PLYMOUTH","DETROIT","MI",48227,42.3730979580001,-83.174689089,372,"13224 PLYMOUTH, DETROIT, MI, 48227","Match","Non_Exact","13224 PLYMOUTH RD, DETROIT, MI, 48227",95442576,"R"
50373,"13224 SHAKER SQUARE","CLEVELAND","OH",44120,41.4833166170001,-81.590177059,373,"13224 SHAKER SQUARE, CLEVELAND, OH, 44120","Match","Exact","13224 SHAKER SQ, CLEVELAND, OH, 44120",638295920,"R"
50374,"13224 W PROSPECT DRIVE","NEW BERLIN","WI",53151,43.0130089720001,-88.077842521,374,"13224 W PROSPECT DRIVE, NEW BERLIN, WI, 53151","Match","Exact","13224 W PROSPECT DR, NEW BERLIN, WI, 53151",53817725,"R"
50375,"13225 MJ RD","MYAKKA","FL",34251,27.2880168190001,-82.192200828,375,"13225 MJ RD, MYAKKA, FL, 34251","Match","Non_Exact","13225 MJ RD, MYAKKA CITY, FL, 34251",645945185,"R"
50376,"13225 SW 256 ST","HOMESTEAD","FL",33032,25.529190525,-80.405106588,376,"13225 SW 256 ST, HOMESTEAD, FL, 33032","Match","Exact","13225 SW 256TH ST, HOMESTEAD, FL, 33032",115990862,"R"
50377,"13226 MOORPARK ST APT 101","SHERMAN OAKS","CA",91423,34.1503528650001,-118.421150105,377,"13226 MOORPARK ST APT 101, SHERMAN OAKS, CA, 91423","Match","Exact","13226 MOORPARK ST, SHERMAN OAKS, CA, 91423",141565209,"L"
50378,"13226 N HWY 74","ALTURA","MN",55910,44.2151399840001,-91.932863885,378,"13226 N HWY 74, ALTURA, MN, 55910","Match","Non_Exact","13226 STATE HWY 74, ALTURA, MN, 55910",31638084,"R"
50379,"13226 PEACOCK DRIVE","LONE TREE","CO",80124,39.5543991430001,-104.901527331,379,"13226 PEACOCK DRIVE, LONE TREE, CO, 80124","Match","Exact","13226 PEACOCK DR, LONE TREE, CO, 80124",130800976,"R"
50380,"13226 SE 252ND STREET","KENT","WA",98042,47.375716846,-122.16453185,380,"13226 SE 252ND STREET, KENT, WA, 98042","Match","Exact","13226 SE 252ND ST, KENT, WA, 98042",627287200,"L"
50381,"13227 OUTLOOK DR","OVERLAND PARK","KS",66209,38.888076315,-94.652265116,381,"13227 OUTLOOK DR, OVERLAND PARK, KS, 66209","Match","Exact","13227 OUTLOOK DR, OVERLAND PARK, KS, 66209",91306232,"R"
50382,"13228 MILHOUSE WAY","JACKSONVILLE","FL",32224,30.307843045,-81.456713131,382,"13228 MILHOUSE WAY, JACKSONVILLE, FL, 32224","Match","Exact","13228 MILHOUSE WAY, JACKSONVILLE, FL, 32224",83942612,"L"
50383,"13229 171ST AVE NE","REDMOND","WA",98052,47.7192347820001,-122.112465554,383,"13229 171ST AVE NE, REDMOND, WA, 98052","Match","Exact","13229 171ST AVE NE, REDMOND, WA, 98052",186680451,"L"
50384,"13229 62ND DR SE","EVERETT","WA",98208,47.8768910540001,-122.148605505,384,"13229 62ND DR SE, EVERETT, WA, 98208","Match","Exact","13229 62ND DR SE, EVERETT, WA, 98208",652090932,"R"
50385,"13229 GOLD RUSH DR","CORONA","CA",92883,33.7229127430001,-117.42991718,385,"13229 GOLD RUSH DR, CORONA, CA, 92883","Match","Exact","13229 GOLD RUSH DR, CORONA, CA, 92883",194850326,"R"
50386,"1323 11TH AVE","INTERNATIONAL FALLS","MN",56649,48.592606985,-93.4164336219999,386,"1323 11TH AVE, INTERNATIONAL FALLS, MN, 56649","Match","Exact","1323 11TH AVE, INTERNATIONAL FALLS, MN, 56649",176474187,"L"
50387,"1323 24TH STREET","ROCKFORD","IL",61108,42.254376705,-89.052051879,387,"1323 24TH STREET, ROCKFORD, IL, 61108","Match","Exact","1323 24TH ST, ROCKFORD, IL, 61108",49260473,"R"
50388,"1323 AVENUE D - 879","SNOHOMISH","WA",98291,47.927647603,-122.09859587,388,"1323 AVENUE D - 879, SNOHOMISH, WA, 98291","Match","Non_Exact","1323 AVE D, SNOHOMISH, WA, 98290",187750353,"L"
50389,"1323 BOREN AVE APT 214","SEATTLE","WA",98101,47.6117386020001,-122.327347084,389,"1323 BOREN AVE APT 214, SEATTLE, WA, 98101","Match","Exact","1323 BOREN AVE, SEATTLE, WA, 98101",186589770,"L"
50390,"1323 BRIDGE BARRIER ROAD BOX 1737","CAROLINA BEACH","NC",28428,34.050944438,-77.9018875259999,390,"1323 BRIDGE BARRIER ROAD BOX 1737, CAROLINA BEACH, NC, 28428","Match","Exact","1323 BRIDGE BARRIER RD, CAROLINA BCH, NC, 28428",152758555,"L"
50391,"1323 BROADWAY SUITE 2B","DETROIT","MI",48226,42.3348606170001,-83.046017294,391,"1323 BROADWAY SUITE 2B, DETROIT, MI, 48226","Match","Non_Exact","1323 BROADWAY ST, DETROIT, MI, 48226",95479982,"L"
50392,"1323 BUSH CREEK DRIVE","GRAND BLANC","MI",48439,42.9225957640001,-83.5974924769999,392,"1323 BUSH CREEK DRIVE, GRAND BLANC, MI, 48439","Match","Exact","1323 BUSH CREEK DR, GRAND BLANC, MI, 48439",69588620,"L"
50393,"1323 CLAIMONT DRIVE","SHELBY","NC",28150,NA,NA,393,"1323 CLAIMONT DRIVE, SHELBY, NC, 28150","No_Match",NA,NA,NA,NA
50394,"1323 DENNISTON ST","PITTSBURGH","PA",15217,40.4454582610001,-79.9195658529999,394,"1323 DENNISTON ST, PITTSBURGH, PA, 15217","Match","Non_Exact","1323 DENNISTON AVE, PITTSBURGH, PA, 15217",51652108,"L"
50395,"1323 E 51ST ST","TACOMA","WA",98404,47.211127058,-122.411180572,395,"1323 E 51ST ST, TACOMA, WA, 98404","Match","Exact","1323 E 51ST ST, TACOMA, WA, 98404",630035947,"L"
50396,"1323 E SHERMAN AVE","COEUR D'ALENE","ID",83814,47.673337233,-116.767303488,396,"1323 E SHERMAN AVE, COEUR D'ALENE, ID, 83814","Match","Non_Exact","1323 SHERMAN AVE, COEUR D ALENE, ID, 83814",192902891,"R"
50397,"1323 EAST DOUGLAS","WICHITA","KS",67213,NA,NA,397,"1323 EAST DOUGLAS, WICHITA, KS, 67213","No_Match",NA,NA,NA,NA
50398,"1323 FOSTER AVENUE FL 2ND","BROOKLYN","NY",11230,40.6333666080001,-73.9645770939999,398,"1323 FOSTER AVENUE FL 2ND, BROOKLYN, NY, 11230","Match","Exact","1323 FOSTER AVE, BROOKLYN, NY, 11230",59081207,"L"
50399,"1323 FOSTER AVENUE","BROOKLYN","NY",11230,40.6333666080001,-73.9645770939999,399,"1323 FOSTER AVENUE, BROOKLYN, NY, 11230","Match","Exact","1323 FOSTER AVE, BROOKLYN, NY, 11230",59081207,"L"
50400,"1323 FOSTER DR","ASHDOWN","AR",71822,33.6717318510001,-94.145839865,400,"1323 FOSTER DR, ASHDOWN, AR, 71822","Match","Non_Exact","1323 FOSTER ST, ASHDOWN, AR, 71822",84777515,"R"
50401,"1323 GARTHWICK DR","LOS ALTOS","CA",94024,37.354097471,-122.076744651,401,"1323 GARTHWICK DR, LOS ALTOS, CA, 94024","Match","Exact","1323 GARTHWICK DR, LOS ALTOS, CA, 94024",122935026,"L"
50402,"1323 GRANT ST","BEATRICE","NE",68310,40.270571057,-96.736881588,402,"1323 GRANT ST, BEATRICE, NE, 68310","Match","Exact","1323 GRANT ST, BEATRICE, NE, 68310",11614325,"L"
50403,"1323 HARMON PL","MINNEAPOLIS","MN",55403,44.973114579,-93.281288111,403,"1323 HARMON PL, MINNEAPOLIS, MN, 55403","Match","Exact","1323 HARMON PL, MINNEAPOLIS, MN, 55403",43632041,"L"
50404,"1323 JOURNAL AVE","ELMONT","NY",11003,40.707426667,-73.689117068,404,"1323 JOURNAL AVE, ELMONT, NY, 11003","Match","Exact","1323 JOURNAL AVE, ELMONT, NY, 11003",147666858,"L"
50405,"1323 LINCOLN AVENUE","SAINT PAUL","MN",55105,44.9389578600001,-93.156028297,405,"1323 LINCOLN AVENUE, SAINT PAUL, MN, 55105","Match","Non_Exact","1323 W LINCOLN AVE, SAINT PAUL, MN, 55105",97646464,"R"
50406,"1323 MAGNOLIA DR","GREENFIELD","IN",46140,39.8019682030001,-85.748910318,406,"1323 MAGNOLIA DR, GREENFIELD, IN, 46140","Match","Exact","1323 MAGNOLIA DR, GREENFIELD, IN, 46140",31084710,"L"
50407,"1323 MOUNT PLEASANT ROAD","GREENSBURG","PA",15601,40.262248292,-79.518716307,407,"1323 MOUNT PLEASANT ROAD, GREENSBURG, PA, 15601","Match","Exact","1323 MOUNT PLEASANT RD, GREENSBURG, PA, 15601",652397264,"L"
50408,"1323 N 52ND ST","PHILA","PA",19131,39.973702324,-75.2262581959999,408,"1323 N 52ND ST, PHILA, PA, 19131","Match","Exact","1323 N 52ND ST, PHILA, PA, 19131",131398422,"R"
50409,"1323 N AVALON BLVD","WILMINGTON","CA",90744,33.790154812,-118.26323263,409,"1323 N AVALON BLVD, WILMINGTON, CA, 90744","Match","Exact","1323 N AVALON BLVD, WILMINGTON, CA, 90744",141691239,"L"
50410,"1323 NEWBURY RD STE 203","NEWBURY PARK","CA",91320,34.184050315,-118.907611165,410,"1323 NEWBURY RD STE 203, NEWBURY PARK, CA, 91320","Match","Exact","1323 NEWBURY RD, NEWBURY PARK, CA, 91320",110042931,"R"
50411,"1323 NORTHVIEW ROAD","WAUKESHA","WI",53188,43.032231875,-88.2472190459999,411,"1323 NORTHVIEW ROAD, WAUKESHA, WI, 53188","Match","Exact","1323 NORTHVIEW RD, WAUKESHA, WI, 53188",53868046,"L"
50412,"1323 NW 139TH TERRACE","PEMBROKE PINES","FL",33028,26.0181666510001,-80.334964624,412,"1323 NW 139TH TERRACE, PEMBROKE PINES, FL, 33028","Match","Exact","1323 NW 139TH TER, PEMBROKE PINES, FL, 33028",114782091,"R"
50413,"1323 OAKHILL AVE","FAIRBORN","OH",45324,39.8377036540001,-84.0153537469999,413,"1323 OAKHILL AVE, FAIRBORN, OH, 45324","Match","Exact","1323 OAKHILL AVE, FAIRBORN, OH, 45324",143418559,"L"
50414,"1323 PARKER ROAD","WYLIE","TX",75098,NA,NA,414,"1323 PARKER ROAD, WYLIE, TX, 75098","No_Match",NA,NA,NA,NA
50415,"1323 PETERSON LN","SANTA ROSA","CA",95403,38.4491167130001,-122.766650008,415,"1323 PETERSON LN, SANTA ROSA, CA, 95403","Match","Exact","1323 PETERSON LN, SANTA ROSA, CA, 95403",67516248,"R"
50416,"1323 PORTOFINO CIRCLE 901","WESTON","FL",33326,26.102248532,-80.3804596269999,416,"1323 PORTOFINO CIRCLE 901, WESTON, FL, 33326","Match","Exact","1323 PORTOFINO CIR, WESTON, FL, 33326",114782583,"R"
50417,"1323 QUEENS ROAD SUITE 205","CHARLOTTE","NC",28207,35.197164636,-80.828400522,417,"1323 QUEENS ROAD SUITE 205, CHARLOTTE, NC, 28207","Match","Exact","1323 QUEENS RD, CHARLOTTE, NC, 28207",70488178,"L"
50418,"1323 QUEENS ROAD UNIT 205","CHARLOTTE","NC",28207,35.197164636,-80.828400522,418,"1323 QUEENS ROAD UNIT 205, CHARLOTTE, NC, 28207","Match","Exact","1323 QUEENS RD, CHARLOTTE, NC, 28207",70488178,"L"
50419,"1323 S LONG BEACH BLVD","COMPTON","CA",90221,33.884652992,-118.205850556,419,"1323 S LONG BEACH BLVD, COMPTON, CA, 90221","Match","Exact","1323 S LONG BEACH BLVD, COMPTON, CA, 90221",141682886,"R"
50420,"1323 SE 17TH ST SUITE 214","FORT LAUDERDALE","FL",33316,NA,NA,420,"1323 SE 17TH ST SUITE 214, FORT LAUDERDALE, FL, 33316","No_Match",NA,NA,NA,NA
50421,"1323 SE 4TH AVENUE","FORT LAUDERDALE","FL",33316,26.10552347,-80.138925833,421,"1323 SE 4TH AVENUE, FORT LAUDERDALE, FL, 33316","Match","Non_Exact","1323 SE 4TH AVE, FORT LAUDERDALE, FL, 33316",114728217,"R"
50422,"1323 SE THIRD AVENUE","FORT LAUDERDALE","FL",33316,26.10568935,-80.1399776979999,422,"1323 SE THIRD AVENUE, FORT LAUDERDALE, FL, 33316","Match","Exact","1323 SE 3RD AVE, FORT LAUDERDALE, FL, 33316",114728170,"R"
50423,"1323 SERVER DRIVE","COLORADO SPRINGS","CO",80910,38.8125868430001,-104.774644494,423,"1323 SERVER DRIVE, COLORADO SPRINGS, CO, 80910","Match","Exact","1323 SERVER DR, COLORADO SPRINGS, CO, 80910",105517944,"L"
50424,"1323 SPRUCE STREET","CHARLOTTE","NC",28203,35.2155814280001,-80.8710848439999,424,"1323 SPRUCE STREET, CHARLOTTE, NC, 28203","Match","Exact","1323 SPRUCE ST, CHARLOTTE, NC, 28203",70515855,"L"
50425,"1323 STEINBECK DR","PITTSBURG","CA",94565,38.0256913710001,-121.909127869,425,"1323 STEINBECK DR, PITTSBURG, CA, 94565","Match","Exact","1323 STEINBECK DR, PITTSBURG, CA, 94565",192109441,"R"
50426,"1323 STRATFORD ROAD SE","DECATUR","AL",35601,34.573652947,-86.9723219479999,426,"1323 STRATFORD ROAD SE, DECATUR, AL, 35601","Match","Exact","1323 STRATFORD RD SE, DECATUR, AL, 35601",97142750,"R"
50427,"1323 SUNSET STREET","LINWOOD","PA",19061,39.8358550250001,-75.4051895599999,427,"1323 SUNSET STREET, LINWOOD, PA, 19061","Match","Exact","1323 SUNSET ST, LINWOOD, PA, 19061",134888936,"R"
50428,"1323 TIMBERIDGE DR","LAKELAND","FL",33809,28.147858195,-81.930018585,428,"1323 TIMBERIDGE DR, LAKELAND, FL, 33809","Match","Exact","1323 TIMBERIDGE DR, LAKELAND, FL, 33809",104807600,"R"
50429,"1323 VALLEY GROVE DRIVE","SEFFNER","FL",33584,27.985754022,-82.2873102029999,429,"1323 VALLEY GROVE DRIVE, SEFFNER, FL, 33584","Match","Exact","1323 VALLEY GROVE DR, SEFFNER, FL, 33584",104541547,"R"
50430,"1323 VILLAGGIO BLVD","BOSSIER","LA",71111,NA,NA,430,"1323 VILLAGGIO BLVD, BOSSIER, LA, 71111","No_Match",NA,NA,NA,NA
50431,"1323 W 126TH STREET","LOS ANGELES","CA",90044,33.918331912,-118.299073673,431,"1323 W 126TH STREET, LOS ANGELES, CA, 90044","Match","Exact","1323 W 126TH ST, LOS ANGELES, CA, 90044",141661256,"R"
50432,"1323 W SUSQUEHANNA AVENUE","PHILADELPHIA","PA",19122,39.986131501,-75.154972247,432,"1323 W SUSQUEHANNA AVENUE, PHILADELPHIA, PA, 19122","Match","Exact","1323 W SUSQUEHANNA AVE, PHILADELPHIA, PA, 19122",131421599,"R"
50433,"1323 WAVERLY PLACE DR","COLUMBIA","SC",29229,34.1511432620001,-80.9004831089999,433,"1323 WAVERLY PLACE DR, COLUMBIA, SC, 29229","Match","Exact","1323 WAVERLY PLACE DR, COLUMBIA, SC, 29229",653317817,"L"
50434,"1323 WEST CERVANTES STREET","PENSACOLA","FL",32501,30.4203086260001,-87.232824684,434,"1323 WEST CERVANTES STREET, PENSACOLA, FL, 32501","Match","Exact","1323 W CERVANTES ST, PENSACOLA, FL, 32501",93234147,"L"
50435,"1323 WICKLOW LN SW","ROCHESTER","MN",55902,43.9778686590001,-92.482036522,435,"1323 WICKLOW LN SW, ROCHESTER, MN, 55902","Match","Exact","1323 WICKLOW LN SW, ROCHESTER, MN, 55902",30573995,"R"
50436,"1323 WINSTEAD PL","GREENSBORO","NC",27408,36.0896524450001,-79.8071849029999,436,"1323 WINSTEAD PL, GREENSBORO, NC, 27408","Match","Exact","1323 WINSTEAD PL, GREENSBORO, NC, 27408",131031428,"L"
50437,"13230 BORDEAUX WAY","FISHERS","IN",46037,39.981099783,-85.87592598,437,"13230 BORDEAUX WAY, FISHERS, IN, 46037","Match","Exact","13230 BORDEAUX WAY, FISHERS, IN, 46037",650817995,"R"
50438,"13230 MARKET ST","NORTH LIMA","OH",44452,40.9255694610001,-80.654015769,438,"13230 MARKET ST, NORTH LIMA, OH, 44452","Match","Exact","13230 MARKET ST, NORTH LIMA, OH, 44452",64613356,"R"
50439,"13230 TIMBERLANE DR","BAXTER","MN",56425,46.344752403,-94.269384588,439,"13230 TIMBERLANE DR, BAXTER, MN, 56425","Match","Non_Exact","13230 TIMBERLANE DR S, BAXTER, MN, 56425",162852184,"R"
50440,"13230 W BROWARD BLVD","PLANTATION","FL",33325,26.1189599420001,-80.323640739,440,"13230 W BROWARD BLVD, PLANTATION, FL, 33325","Match","Exact","13230 W BROWARD BLVD, PLANTATION, FL, 33325",648329615,"R"
50441,"13230 WINDYGATE LANE","SAINT LOUIS","MO",63146,38.7028195140001,-90.478622193,441,"13230 WINDYGATE LANE, SAINT LOUIS, MO, 63146","Match","Exact","13230 WINDYGATE LN, SAINT LOUIS, MO, 63146",100122847,"L"
50442,"13231 ARMSTEAD STREET","WOODBRIDGE","VA",22191,38.665366804,-77.2625721429999,442,"13231 ARMSTEAD STREET, WOODBRIDGE, VA, 22191","Match","Exact","13231 ARMSTEAD ST, WOODBRIDGE, VA, 22191",76511014,"L"
50443,"13231 ELDRIDGE MEADOW DR","HOUSTON","TX",77041,29.8823694290001,-95.611343394,443,"13231 ELDRIDGE MEADOW DR, HOUSTON, TX, 77041","Match","Exact","13231 ELDRIDGE MEADOW DR, HOUSTON, TX, 77041",96299995,"R"
50444,"13231 MINDEN DR","FISHERS","IN",40637,39.9827045650001,-85.925517366,444,"13231 MINDEN DR, FISHERS, IN, 40637","Match","Non_Exact","13231 MINDEN DR, FISHERS, IN, 46037",626693306,"R"
50445,"13232 CIELO AZUL","CASTROVILLE","CA",95012,36.771961849,-121.737934653,445,"13232 CIELO AZUL, CASTROVILLE, CA, 95012","Match","Exact","13232 CIELO AZUL, CASTROVILLE, CA, 95012",196817972,"R"
50446,"13232 GLAD ACRES DR","FARMERS BRANCH","TX",75234,32.9261302420001,-96.859050441,446,"13232 GLAD ACRES DR, FARMERS BRANCH, TX, 75234","Match","Exact","13232 GLAD ACRES DR, FARMERS BRANCH, TX, 75234",103208105,"R"
50447,"13232 N 54TH DR","GLENDALE","AZ",85304,33.6052801380001,-112.176090977,447,"13232 N 54TH DR, GLENDALE, AZ, 85304","Match","Exact","13232 N 54TH DR, GLENDALE, AZ, 85304",128176661,"R"
50448,"13232 OLD FLORIDA CIRCLE","HUDSON","FL",34669,28.336399278,-82.59622143,448,"13232 OLD FLORIDA CIRCLE, HUDSON, FL, 34669","Match","Exact","13232 OLD FLORIDA CIR, HUDSON, FL, 34669",634073670,"L"
50449,"13232 PLEASANTVIEW LN","FAIRFAX","VA",22033,38.8763299140001,-77.400667518,449,"13232 PLEASANTVIEW LN, FAIRFAX, VA, 22033","Match","Exact","13232 PLEASANTVIEW LN, FAIRFAX, VA, 22033",75964739,"R"
50450,"13232 SW 2ND PLACE","NEWBERRY","FL",32669,29.6523452800001,-82.482625745,450,"13232 SW 2ND PLACE, NEWBERRY, FL, 32669","Match","Exact","13232 SW 2ND PL, NEWBERRY, FL, 32669",6830825,"R"
50451,"13233 CULLEN BLVD","HOUSTON","TX",77047,29.619484377,-95.3551182319999,451,"13233 CULLEN BLVD, HOUSTON, TX, 77047","Match","Exact","13233 CULLEN BLVD, HOUSTON, TX, 77047",644885710,"L"
50452,"13233 INDIAN ROCKS ROAD","LARGO","FL",33774,27.890939615,-82.832381975,452,"13233 INDIAN ROCKS ROAD, LARGO, FL, 33774","Match","Exact","13233 INDIAN ROCKS RD, LARGO, FL, 33774",124719413,"R"
50453,"13235 120TH AVE NE","KIRKLAND","WA",98034,47.7190539900001,-122.180934747,453,"13235 120TH AVE NE, KIRKLAND, WA, 98034","Match","Exact","13235 120TH AVE NE, KIRKLAND, WA, 98034",640982355,"L"
50454,"13235 CHEROKEE ST","OOLOGAH","OK",74053,36.4208037810001,-95.784476732,454,"13235 CHEROKEE ST, OOLOGAH, OK, 74053","Match","Exact","13235 CHEROKEE ST, OOLOGAH, OK, 74053",612091019,"L"
50455,"13235 N VERDE RIVER D STE 1 BOX 156","FOUNTAIN HILLS","AZ",85268,NA,NA,455,"13235 N VERDE RIVER D STE 1 BOX 156, FOUNTAIN HILLS, AZ, 85268","No_Match",NA,NA,NA,NA
50456,"13235 NORTHSPRING BEND LANE","CYPRESS","TX",77429,NA,NA,456,"13235 NORTHSPRING BEND LANE, CYPRESS, TX, 77429","No_Match",NA,NA,NA,NA
50457,"13235 SOUTHPOINT LN","HOUSTON","TX",77034,29.6176161070001,-95.196331019,457,"13235 SOUTHPOINT LN, HOUSTON, TX, 77034","Match","Exact","13235 SOUTHPOINT LN, HOUSTON, TX, 77034",624343899,"R"
50458,"13235 WATERFORD HILLS BLVD","GERMANTOWN","MD",20874,39.177169115,-77.2738838989999,458,"13235 WATERFORD HILLS BLVD, GERMANTOWN, MD, 20874","Match","Exact","13235 WATERFORD HILLS BLVD, GERMANTOWN, MD, 20874",650656177,"L"
50459,"13236 64TH AVENUE","BLUE GRASS","IA",52726,41.4975066000001,-90.776563879,459,"13236 64TH AVENUE, BLUE GRASS, IA, 52726","Match","Exact","13236 64TH AVE, BLUE GRASS, IA, 52726",122699012,"L"
50460,"13236 INDEPENDENCE RD","CLEAR SPRING","MD",21722,39.6745509,-77.836823051,460,"13236 INDEPENDENCE RD, CLEAR SPRING, MD, 21722","Match","Exact","13236 INDEPENDENCE RD, CLEAR SPRING, MD, 21722",612156147,"L"
50461,"13236 N 7TH ST 4","PHOENIX","AZ",85022,33.606114624,-112.065118236,461,"13236 N 7TH ST 4, PHOENIX, AZ, 85022","Match","Non_Exact","13236 N 7TH ST, PHOENIX, AZ, 85022",128607582,"L"
50462,"13236 N 7TH ST SUITE 4 201","PHOENIX","AZ",85022,33.606114624,-112.065118236,462,"13236 N 7TH ST SUITE 4 201, PHOENIX, AZ, 85022","Match","Non_Exact","13236 N 7TH ST, PHOENIX, AZ, 85022",128607582,"L"
50463,"13236 NORTH 7TH STREET SUITE 4-272","PHOENIX","AZ",85022,33.6061092200001,-112.065118236,463,"13236 NORTH 7TH STREET SUITE 4-272, PHOENIX, AZ, 85022","Match","Exact","13236 N 7TH ST, PHOENIX, AZ, 85022",128607582,"L"
50464,"13237 FM 1013","SPURGER","TX",77660,NA,NA,464,"13237 FM 1013, SPURGER, TX, 77660","No_Match",NA,NA,NA,NA
50465,"13237 NANCY CT","WOODBRIDGE","VA",22193,38.666862269,-77.373108273,465,"13237 NANCY CT, WOODBRIDGE, VA, 22193","Match","Exact","13237 NANCY CT, WOODBRIDGE, VA, 22193",76507938,"L"
50466,"13237 SE MCLOUGHLIN BLVD","MILWAUKIE","OR",97222,45.4268170620001,-122.634119725,466,"13237 SE MCLOUGHLIN BLVD, MILWAUKIE, OR, 97222","Match","Exact","13237 MCLOUGHLIN BLVD, MILWAUKIE, OR, 97222",157975358,"R"
50467,"13237 SW 2ND CT","OCALA","FL",34473,29.0295720890001,-82.138953509,467,"13237 SW 2ND CT, OCALA, FL, 34473","Match","Exact","13237 SW 2ND CT, OCALA, FL, 34473",116767360,"R"
50468,"13238 POLO CLUB ROAD  B-202","WELLINGTON","FL",33414,26.64340072,-80.254847839,468,"13238 POLO CLUB ROAD  B-202, WELLINGTON, FL, 33414","Match","Exact","13238 POLO CLUB RD, WELLINGTON, FL, 33414",642539862,"L"
50469,"13239 HOLLY TREE LANE","POWAY","CA",92064,32.960959061,-117.043169487,469,"13239 HOLLY TREE LANE, POWAY, CA, 92064","Match","Exact","13239 HOLLY TREE LN, POWAY, CA, 92064",195680913,"R"
50470,"13239 ST ERVIN AVE","DETROIT","MI",48215,42.369129082,-82.949015547,470,"13239 ST ERVIN AVE, DETROIT, MI, 48215","Match","Exact","13239 ST ERVIN AVE, DETROIT, MI, 48215",631751666,"R"
50471,"13239 VAN PAMEL DR","SHELBY TWP","MI",48315,42.656893337,-82.997898399,471,"13239 VAN PAMEL DR, SHELBY TWP, MI, 48315","Match","Non_Exact","13239 VAN PAMEL, SHELBY TOWNSHIP, MI, 48315",110714503,"L"
50472,"1324  FOREST  AVENUE    SUITE  420","STATEN ISLAND","NY",10302,40.626109673,-74.1339583339999,472,"1324  FOREST  AVENUE    SUITE  420, STATEN ISLAND, NY, 10302","Match","Exact","1324 FOREST AVE, STATEN ISLAND, NY, 10302",59878161,"L"
50473,"1324  FOREST  AVENUE   SUITE  420","STATEN ISLAND","NY",10302,40.626109673,-74.1339583339999,473,"1324  FOREST  AVENUE   SUITE  420, STATEN ISLAND, NY, 10302","Match","Exact","1324 FOREST AVE, STATEN ISLAND, NY, 10302",59878161,"L"
50474,"1324  FOREST  AVENUE   SUITE 420","STATEN ISLAND","NY",10302,40.626109673,-74.1339583339999,474,"1324  FOREST  AVENUE   SUITE 420, STATEN ISLAND, NY, 10302","Match","Exact","1324 FOREST AVE, STATEN ISLAND, NY, 10302",59878161,"L"
50475,"1324  FOREST  AVENUE  SUITE  420","STATEN ISLAND","PA",10302,NA,NA,475,"1324  FOREST  AVENUE  SUITE  420, STATEN ISLAND, PA, 10302","No_Match",NA,NA,NA,NA
50476,"1324  FOREST  AVENUEK  SUITE  420","STATEN  ISLAND","NY",10302,40.626109673,-74.1339583339999,476,"1324  FOREST  AVENUEK  SUITE  420, STATEN  ISLAND, NY, 10302","Match","Non_Exact","1324 FOREST AVE, STATEN ISLAND, NY, 10302",59878161,"L"
50477,"1324  FOREST AVENUE  SUITE  420","STATEN ISLAND","NY",10302,40.626109673,-74.1339583339999,477,"1324  FOREST AVENUE  SUITE  420, STATEN ISLAND, NY, 10302","Match","Exact","1324 FOREST AVE, STATEN ISLAND, NY, 10302",59878161,"L"
50478,"1324 11TH AVENUE SOUTH APARTMENT A7","BIRMINGHAM","AL",35205,33.496195325,-86.805631948,478,"1324 11TH AVENUE SOUTH APARTMENT A7, BIRMINGHAM, AL, 35205","Match","Exact","1324 11TH AVE S, BIRMINGHAM, AL, 35205",81576553,"L"
50479,"1324 30TH AVE","LONGVIEW","WA",98632,46.139402396,-122.962245413,479,"1324 30TH AVE, LONGVIEW, WA, 98632","Match","Exact","1324 30TH AVE, LONGVIEW, WA, 98632",184488719,"R"
50480,"1324 ADRIAN WAY","SAN JOSE","CA",95122,37.342806372,-121.831075825,480,"1324 ADRIAN WAY, SAN JOSE, CA, 95122","Match","Exact","1324 ADRIAN WAY, SAN JOSE, CA, 95122",122912726,"L"
50481,"1324 ALTURAS DRIVE","MOSCOW","ID",83843,NA,NA,481,"1324 ALTURAS DRIVE, MOSCOW, ID, 83843","No_Match",NA,NA,NA,NA
50482,"1324 APPLETREE CIRCLE","STATE COLLEGE","PA",16803,40.7952531020001,-77.901816966,482,"1324 APPLETREE CIRCLE, STATE COLLEGE, PA, 16803","Match","Exact","1324 APPLETREE CIR, STATE COLLEGE, PA, 16803",50369780,"R"
50483,"1324 BELMONT AVE SUITE 403B","SALISBURY","MD",21804,38.370086024,-75.5709246,483,"1324 BELMONT AVE SUITE 403B, SALISBURY, MD, 21804","Match","Exact","1324 BELMONT AVE, SALISBURY, MD, 21804",114458625,"R"
50484,"1324 BLACK DIAMOND DRIVE","BEAUMONT","CA",92223,33.9501558270001,-116.962736517,484,"1324 BLACK DIAMOND DRIVE, BEAUMONT, CA, 92223","Match","Exact","1324 BLACK DIAMOND DR, BEAUMONT, CA, 92223",650426259,"L"
50485,"1324 BLUE DARTER LANE","WILCOX","AZ",85643,32.307408572,-109.815693562,485,"1324 BLUE DARTER LANE, WILCOX, AZ, 85643","Match","Non_Exact","1324 E BLUE DARTER LN, WILLCOX, AZ, 85643",120986497,"L"
50486,"1324 BROOKHOLLOW DR","BATON ROUGE","LA",70810,30.359942124,-91.062087242,486,"1324 BROOKHOLLOW DR, BATON ROUGE, LA, 70810","Match","Exact","1324 BROOKHOLLOW DR, BATON ROUGE, LA, 70810",92193587,"L"
50487,"1324 CAFFREY AVENUE SUITE 2C","FAR ROCKAWAY","NY",11691,NA,NA,487,"1324 CAFFREY AVENUE SUITE 2C, FAR ROCKAWAY, NY, 11691","No_Match",NA,NA,NA,NA
50488,"1324 CAMILLE STREET","SHREVEPORT","LA",71108,32.4599018500001,-93.757977254,488,"1324 CAMILLE STREET, SHREVEPORT, LA, 71108","Match","Exact","1324 CAMILLE ST, SHREVEPORT, LA, 71108",57439859,"R"
50489,"1324 CAROLINE STREET","ALAMEDA","CA",94501,37.770018995,-122.26818636,489,"1324 CAROLINE STREET, ALAMEDA, CA, 94501","Match","Exact","1324 CAROLINE ST, ALAMEDA, CA, 94501",124997849,"R"
50490,"1324 CHURCH STREET","NEW CASTLE","IN",47362,39.9297384380001,-85.369871224,490,"1324 CHURCH STREET, NEW CASTLE, IN, 47362","Match","Exact","1324 CHURCH ST, NEW CASTLE, IN, 47362",29984051,"R"
50491,"1324 CLARKSON CLAYTON 118","ELLISVILLE","MO",63011,NA,NA,491,"1324 CLARKSON CLAYTON 118, ELLISVILLE, MO, 63011","Tie",NA,NA,NA,NA
50492,"1324 CLARKSON CLAYTON CENTER 117","ELLISVILLE","MO",63011,NA,NA,492,"1324 CLARKSON CLAYTON CENTER 117, ELLISVILLE, MO, 63011","Tie",NA,NA,NA,NA
50493,"1324 COLONIAL DR","MARIETTA","OH",45750,39.42588297,-81.439690248,493,"1324 COLONIAL DR, MARIETTA, OH, 45750","Match","Exact","1324 COLONIAL DR, MARIETTA, OH, 45750",45687251,"R"
50494,"1324 CUATRO CERROS TRAIL SE","ALBUQUERQUE","NM",87123,35.046795784,-106.495071743,494,"1324 CUATRO CERROS TRAIL SE, ALBUQUERQUE, NM, 87123","Match","Exact","1324 CUATRO CERROS TRL SE, ALBUQUERQUE, NM, 87123",206742759,"R"
50495,"1324 DESIERTO AZUL DR","EL PASO","TX",79912,31.873872739,-106.560261171,495,"1324 DESIERTO AZUL DR, EL PASO, TX, 79912","Match","Exact","1324 DESIERTO AZUL DR, EL PASO, TX, 79912",189397967,"R"
50496,"1324 DIAMOND RIM DR","COLORADO SPRINGS","CO",80921,39.026618394,-104.809599125,496,"1324 DIAMOND RIM DR, COLORADO SPRINGS, CO, 80921","Match","Exact","1324 DIAMOND RIM DR, COLORADO SPRINGS, CO, 80921",625689852,"R"
50497,"1324 DUMONT AVENUE","BROOKLYN","NY",11208,40.670004444,-73.8691023009999,497,"1324 DUMONT AVENUE, BROOKLYN, NY, 11208","Match","Exact","1324 DUMONT AVE, BROOKLYN, NY, 11208",59095319,"R"
50498,"1324 E PENNSYLVANIA AVE","REDLANDS","CA",92374,34.0736950890001,-117.159210601,498,"1324 E PENNSYLVANIA AVE, REDLANDS, CA, 92374","Match","Exact","1324 E PENNSYLVANIA AVE, REDLANDS, CA, 92374",144690004,"R"
50499,"1324 EAST GUN HILL ROAD","BRONX","NY",10469,40.871212836,-73.847684489,499,"1324 EAST GUN HILL ROAD, BRONX, NY, 10469","Match","Exact","1324 E GUN HILL RD, BRONX, NY, 10469",80303677,"R"
50500,"1324 FAIRVIEW LANE","HOOVER","AL",35244,NA,NA,500,"1324 FAIRVIEW LANE, HOOVER, AL, 35244","No_Match",NA,NA,NA,NA
