"ID","Address","City","State","Zip","lat","long","id","input_address","match_indicator","match_type","matched_address","tiger_line_id","tiger_side"
25001,"1123 STONEWALL LANE","SECAUCUS","NJ",7094,40.8012051160001,-74.053105118,1,"1123 STONEWALL LANE, SECAUCUS, NJ, 7094","Match","Exact","1123 STONEWALL LN, SECAUCUS, NJ, 07094",638993997,"L"
25002,"1123 SW 3RD STREET","BOCA RATON","FL",33486,26.3463263040001,-80.10901095,2,"1123 SW 3RD STREET, BOCA RATON, FL, 33486","Match","Exact","1123 SW 3RD ST, BOCA RATON, FL, 33486",115539371,"R"
25003,"1123 W 18 ST","ANTIOCH","CA",94509,38.0064258250001,-121.825440393,3,"1123 W 18 ST, ANTIOCH, CA, 94509","Match","Exact","1123 W 18TH ST, ANTIOCH, CA, 94509",192032145,"L"
25004,"1123 W KORADINE DRIVE","SOUTH JORDAN","UT",84095,40.5574335420001,-111.923865677,4,"1123 W KORADINE DRIVE, SOUTH JORDAN, UT, 84095","Match","Exact","1123 KORADINE DR, SOUTH JORDAN, UT, 84095",176150139,"L"
25005,"1123 WEST HARRIS STREET","SPUR","TX",79370,33.481070065,-100.868424317,5,"1123 WEST HARRIS STREET, SPUR, TX, 79370","Match","Exact","1123 W HARRIS ST, SPUR, TX, 79370",186137351,"R"
25006,"1123 WHISPERING WINDS COURT","APOPKA","FL",32703,28.6610010750001,-81.4919410379999,6,"1123 WHISPERING WINDS COURT, APOPKA, FL, 32703","Match","Exact","1123 WHISPERING WINDS CT, APOPKA, FL, 32703",94390062,"L"
25007,"1123-37TH STREET NE","CANTON","OH",44714,NA,NA,7,"1123-37TH STREET NE, CANTON, OH, 44714","No_Match",NA,NA,NA,NA
25008,"11230 AVENIDA DEL GATO","SAN DIEGO","CA",92126,32.9251623540001,-117.148169551,8,"11230 AVENIDA DEL GATO, SAN DIEGO, CA, 92126","Match","Exact","11230 AVE DEL GATO, SAN DIEGO, CA, 92126",195300700,"L"
25009,"11230 GAIL DRIVE","PRINCESS ANNE","MD",21853,38.1898242300001,-75.6982836239999,9,"11230 GAIL DRIVE, PRINCESS ANNE, MD, 21853","Match","Exact","11230 GAIL DR, PRINCESS ANNE, MD, 21853",104146783,"L"
25010,"11230 GOLD EXPRESS DR SUITE 210-307","GOLD RIVER","CA",95670,38.622985423,-121.264784625,10,"11230 GOLD EXPRESS DR SUITE 210-307, GOLD RIVER, CA, 95670","Match","Exact","11230 GOLD EXPRESS DR, GOLD RIVER, CA, 95670",133347044,"R"
25011,"11230 GOLD EXPRESS DRIVE ST 310-197","RANCHO CORDOVA","CA",95670,38.622985423,-121.264784625,11,"11230 GOLD EXPRESS DRIVE ST 310-197, RANCHO CORDOVA, CA, 95670","Match","Exact","11230 GOLD EXPRESS DR, RANCHO CORDOVA, CA, 95670",133347044,"R"
25012,"11230 GOLD EXPRESS DRIVE SUITE 310","GOLD RIVER","CA",95670,38.622985423,-121.264784625,12,"11230 GOLD EXPRESS DRIVE SUITE 310, GOLD RIVER, CA, 95670","Match","Exact","11230 GOLD EXPRESS DR, GOLD RIVER, CA, 95670",133347044,"R"
25013,"11230 N GARNETT RD  SUITE A","OWASSO","OK",74055,36.317377725,-95.848127194,13,"11230 N GARNETT RD  SUITE A, OWASSO, OK, 74055","Match","Non_Exact","11230 N GARNETT RD, OWASSO, OK, 74055",166471560,"L"
25014,"11230 N OAKWOOD DR","PEORIA","IL",61615,NA,NA,14,"11230 N OAKWOOD DR, PEORIA, IL, 61615","Tie",NA,NA,NA,NA
25015,"11230 RANCH CREEK TERRACE APT 208","LAKEWOOD RANCH","FL",34211,27.443937443,-82.4296562609999,15,"11230 RANCH CREEK TERRACE APT 208, LAKEWOOD RANCH, FL, 34211","Match","Exact","11230 RANCH CREEK TER, LAKEWOOD RCH, FL, 34211",648240505,"R"
25016,"11230 SIERRA PASS PLACE","CHATSWORTH","CA",91311,34.275362891,-118.610226518,16,"11230 SIERRA PASS PLACE, CHATSWORTH, CA, 91311","Match","Exact","11230 SIERRA PASS PL, CHATSWORTH, CA, 91311",141790099,"L"
25017,"11230 SILENTWOOD LANE","RESTON","VA",20191,38.9341362330001,-77.335729548,17,"11230 SILENTWOOD LANE, RESTON, VA, 20191","Match","Exact","11230 SILENTWOOD LN, RESTON, VA, 20191",618588782,"L"
25018,"11231 ALVIN STREET 2","DALLAS","TX",75218,32.8459651430001,-96.684179577,18,"11231 ALVIN STREET 2, DALLAS, TX, 75218","Match","Exact","11231 ALVIN ST, DALLAS, TX, 75218",103182824,"L"
25019,"11231 GABRIEL STREET","ROUMULUS","MI",48174,42.2200582420001,-83.386572362,19,"11231 GABRIEL STREET, ROUMULUS, MI, 48174","Match","Non_Exact","11231 GABRIEL ST, ROMULUS, MI, 48174",95417796,"L"
25020,"11231 NW 20TH STREET SUITE 135","MIAMI","FL",33172,NA,NA,20,"11231 NW 20TH STREET SUITE 135, MIAMI, FL, 33172","No_Match",NA,NA,NA,NA
25021,"11231 RICHMOND AVE D106","HOUSTON","TX",77082,29.7277493770001,-95.5745284829999,21,"11231 RICHMOND AVE D106, HOUSTON, TX, 77082","Match","Exact","11231 RICHMOND AVE, HOUSTON, TX, 77082",96612974,"R"
25022,"11231 TAHOE STREET","AUBURN","CA",95602,38.9455432570001,-121.113806049,22,"11231 TAHOE STREET, AUBURN, CA, 95602","Match","Exact","11231 TAHOE ST, AUBURN, CA, 95602",106766590,"L"
25023,"11231 US 1 HWY STE212","NORTH PALM BEACH","FL",33408,NA,NA,23,"11231 US 1 HWY STE212, NORTH PALM BEACH, FL, 33408","No_Match",NA,NA,NA,NA
25024,"11231 US 1 STE 417","NORTH PALM BEACH","FL",33408,NA,NA,24,"11231 US 1 STE 417, NORTH PALM BEACH, FL, 33408","No_Match",NA,NA,NA,NA
25025,"11231 US HIGHWAY 1  UNIT 383","NORTH PALM BEACH","FL",33408,26.839062459,-80.061611182,25,"11231 US HIGHWAY 1  UNIT 383, NORTH PALM BEACH, FL, 33408","Match","Non_Exact","11231 US HWY 1, NORTH PALM BEACH, FL, 33408",645847721,"L"
25026,"11231","LYNCHBURG","VA",24506,NA,NA,26,"11231, LYNCHBURG, VA, 24506","No_Match",NA,NA,NA,NA
25027,"11232 120TH AVE NE STE105","KIRKLAND","WA",98033,47.700803556,-122.181158063,27,"11232 120TH AVE NE STE105, KIRKLAND, WA, 98033","Match","Exact","11232 120TH AVE NE, KIRKLAND, WA, 98033",186603848,"R"
25028,"11232 CEDAR HILL RD","GORDONSVILLE","VA",22942,38.1562424000001,-78.183072513,28,"11232 CEDAR HILL RD, GORDONSVILLE, VA, 22942","Match","Exact","11232 CEDAR HILL RD, GORDONSVILLE, VA, 22942",29885920,"L"
25029,"11232 EVANS TRAIL APT T1","BELTSVILLE","MD",20705,NA,NA,29,"11232 EVANS TRAIL APT T1, BELTSVILLE, MD, 20705","No_Match",NA,NA,NA,NA
25030,"11232 N 65TH AVE","GLENDALE","AZ",85304,33.5875463100001,-112.198872993,30,"11232 N 65TH AVE, GLENDALE, AZ, 85304","Match","Exact","11232 N 65TH AVE, GLENDALE, AZ, 85304",128174731,"R"
25031,"11232 NW 103RD STREET","YUKON","OK",73099,35.5748338990001,-97.723601042,31,"11232 NW 103RD STREET, YUKON, OK, 73099","Match","Exact","11232 NW 103RD ST, YUKON, OK, 73099",638572394,"R"
25032,"11232 S JUNIPER ST","JENKS","OK",74037,36.000814351,-95.9837804649999,32,"11232 S JUNIPER ST, JENKS, OK, 74037","Match","Non_Exact","11232 JUNIPER AVE, JENKS, OK, 74037",166505018,"R"
25033,"11232 SOUTH NORMAL AVENUE","CHICAGO","IL",60628,41.6899834430001,-87.635060344,33,"11232 SOUTH NORMAL AVENUE, CHICAGO, IL, 60628","Match","Exact","11232 S NORMAL AVE, CHICAGO, IL, 60628",111833631,"R"
25034,"11232 SUMTER AVENUE N","CHAMPLIN","MN",55316,45.157579561,-93.380230834,34,"11232 SUMTER AVENUE N, CHAMPLIN, MN, 55316","Match","Exact","11232 SUMTER AVE N, CHAMPLIN, MN, 55316",638530445,"R"
25035,"11233 BLOOMINGTON DR","TAMPA","FL",33636,28.035438877,-82.6023651089999,35,"11233 BLOOMINGTON DR, TAMPA, FL, 33636","Match","Non_Exact","11233 BLOOMINGTON DR, TAMPA, FL, 33635",653181162,"L"
25036,"11233 CROWN PARK DRIVE","HOUSTON","TX",77067,29.9445608290001,-95.4467620949999,36,"11233 CROWN PARK DRIVE, HOUSTON, TX, 77067","Match","Exact","11233 CROWN PARK DR, HOUSTON, TX, 77067",96656116,"L"
25037,"11233B SNOWFLAKE COURT","COLUMBIA","MD",21044,39.210935168,-76.88854113,37,"11233B SNOWFLAKE COURT, COLUMBIA, MD, 21044","Match","Exact","11233 SNOWFLAKE CT, COLUMBIA, MD, 21044",158924368,"R"
25038,"11234 BARNWALL ST","NORWALK","CA",90650,33.891205246,-118.094207224,38,"11234 BARNWALL ST, NORWALK, CA, 90650","Match","Exact","11234 BARNWALL ST, NORWALK, CA, 90650",241246803,"R"
25039,"11235 JOHN GALT BLVD","OMAHA","NE",68137,41.208378914,-96.087706998,39,"11235 JOHN GALT BLVD, OMAHA, NE, 68137","Match","Exact","11235 JOHN GALT BLVD, OMAHA, NE, 68137",116973748,"L"
25040,"11235 OAK LEAF DRIVE 1105","SILVER SPING","MD",20901,39.040729313,-76.9955491159999,40,"11235 OAK LEAF DRIVE 1105, SILVER SPING, MD, 20901","Match","Non_Exact","11235 OAK LEAF DR, SILVER SPRING, MD, 20901",608371135,"R"
25041,"11235 OAK LEAF DRIVE APT 509","SILVER SPRING","MD",20901,39.040729313,-76.9955491159999,41,"11235 OAK LEAF DRIVE APT 509, SILVER SPRING, MD, 20901","Match","Exact","11235 OAK LEAF DR, SILVER SPRING, MD, 20901",608371135,"R"
25042,"11235 SUNBURST SREET","SYLMAR","CA",91342,34.2803305190001,-118.375856704,42,"11235 SUNBURST SREET, SYLMAR, CA, 91342","Match","Non_Exact","11235 SUNBURST ST, SYLMAR, CA, 91342",141586034,"R"
25043,"11235 WEST POINT DRIVE","KNOXVILLE","TN",37934,35.8858296270001,-84.156786784,43,"11235 WEST POINT DRIVE, KNOXVILLE, TN, 37934","Match","Exact","11235 W POINT DR, KNOXVILLE, TN, 37934",640164556,"R"
25044,"11236 HAMPSHIRE CT E","CHAMPLIN","MN",55316,45.158375607,-93.3662509929999,44,"11236 HAMPSHIRE CT E, CHAMPLIN, MN, 55316","Match","Exact","11236 HAMPSHIRE CT E, CHAMPLIN, MN, 55316",43828105,"R"
25045,"11236 LOZIER AVE","WARREN","MI",48089,42.466492117,-83.012724884,45,"11236 LOZIER AVE, WARREN, MI, 48089","Match","Exact","11236 LOZIER AVE, WARREN, MI, 48089",110677568,"R"
25046,"11236 NE FREMONT CT","PORTLAND","OR",97220,45.5484933980001,-122.546811156,46,"11236 NE FREMONT CT, PORTLAND, OR, 97220","Match","Exact","11236 NE FREMONT CT, PORTLAND, OR, 97220",157519184,"R"
25047,"11237 E LENNON ROAD","LENNON","MI",48449,42.9841988420001,-83.9437806349999,47,"11237 E LENNON ROAD, LENNON, MI, 48449","Match","Exact","11237 E LENNON RD, LENNON, MI, 48449",23653211,"R"
25048,"11237 JW JORDAN ROAD","LASCASSAS","TN",37085,NA,NA,48,"11237 JW JORDAN ROAD, LASCASSAS, TN, 37085","Tie",NA,NA,NA,NA
25049,"11237 KINGSTON PIKE","KNOXVILLE","TN",37934,35.883264206,-84.1560299509999,49,"11237 KINGSTON PIKE, KNOXVILLE, TN, 37934","Match","Exact","11237 KINGSTON PIKE, KNOXVILLE, TN, 37934",639439560,"R"
25050,"11237 POWDERHORN ST","BOISE","ID",83713,43.6383376490001,-116.322138095,50,"11237 POWDERHORN ST, BOISE, ID, 83713","Match","Exact","11237 POWDERHORN ST, BOISE, ID, 83713",117856415,"L"
25051,"11238 82ND STREET EAST","PARRISH","FL",34219,27.588344265,-82.4480616389999,51,"11238 82ND STREET EAST, PARRISH, FL, 34219","Match","Exact","11238 82ND ST E, PARRISH, FL, 34219",640864609,"R"
25052,"11238 IVY DR","ARLINGTON","TN",38002,35.280086972,-89.6882285569999,52,"11238 IVY DR, ARLINGTON, TN, 38002","Match","Exact","11238 IVY DR, ARLINGTON, TN, 38002",72969157,"R"
25053,"11238 W GARFIELD STREET","AVONDALE","AZ",85323,33.4538339580001,-112.30129046,53,"11238 W GARFIELD STREET, AVONDALE, AZ, 85323","Match","Exact","11238 GARFIELD ST, AVONDALE, AZ, 85323",128871494,"L"
25054,"11238 ZAMURA AVE 621","LOS ANGELES","CA",90059,33.9326037920001,-118.251234565,54,"11238 ZAMURA AVE 621, LOS ANGELES, CA, 90059","Match","Non_Exact","11238 ZAMORA AVE, LOS ANGELES, CA, 90059",141673370,"L"
25055,"11239 E CENTER AVE","AURORA","CO",80012,39.7055015710001,-104.858041021,55,"11239 E CENTER AVE, AURORA, CO, 80012","Match","Exact","11239 E CENTER AVE, AURORA, CO, 80012",177391279,"L"
25056,"11239 INWOOD LANE","WHITE PLAINS","MD",20695,38.576823571,-76.926753156,56,"11239 INWOOD LANE, WHITE PLAINS, MD, 20695","Match","Exact","11239 INWOOD LN, WHITE PLAINS, MD, 20695",641652141,"R"
25057,"11239 N 75 STREET","SCOTTSDALE","AZ",85260,33.5884683890001,-111.919906844,57,"11239 N 75 STREET, SCOTTSDALE, AZ, 85260","Match","Exact","11239 N 75TH ST, SCOTTSDALE, AZ, 85260",128227753,"R"
25058,"11239 NORTH 11TH PLACE","PHOENIX","AZ",85020,33.5884137510001,-112.057056579,58,"11239 NORTH 11TH PLACE, PHOENIX, AZ, 85020","Match","Exact","11239 N 11TH PL, PHOENIX, AZ, 85020",128948397,"R"
25059,"1124 1/2 13TH ST SOUTH","TEKAMAH","NE",68061,NA,NA,59,"1124 1/2 13TH ST SOUTH, TEKAMAH, NE, 68061","No_Match",NA,NA,NA,NA
25060,"1124 30TH DRIVE","PARSONS","KS",67357,37.3289004110001,-95.281859835,60,"1124 30TH DRIVE, PARSONS, KS, 67357","Match","Exact","1124 30TH DR, PARSONS, KS, 67357",13719941,"R"
25061,"1124 8TH AVENUE","NEW BRIGHTON","PA",15066,40.733390403,-80.307769311,61,"1124 8TH AVENUE, NEW BRIGHTON, PA, 15066","Match","Exact","1124 8TH AVE, NEW BRIGHTON, PA, 15066",52560043,"R"
25062,"1124 ASTER STREET","AMARILLO","TX",79107,35.2250270000001,-101.772907693,62,"1124 ASTER STREET, AMARILLO, TX, 79107","Match","Exact","1124 ASTER ST, AMARILLO, TX, 79107",182479257,"R"
25063,"1124 AZTEC ROAD","NORTH POLE","AK",99705,64.8165620610001,-147.536619973,63,"1124 AZTEC ROAD, NORTH POLE, AK, 99705","Match","Exact","1124 AZTEC RD, NORTH POLE, AK, 99705",614904798,"L"
25064,"1124 BAHIA BLANCA STREET S","JACKSONVILLE","FL",32256,30.2184126110001,-81.528081769,64,"1124 BAHIA BLANCA STREET S, JACKSONVILLE, FL, 32256","Match","Exact","1124 BAHIA BLANCA ST S, JACKSONVILLE, FL, 32256",83921088,"L"
25065,"1124 BAY BLVD STE B","CHULA VISTA","CA",91911,32.607092553,-117.092231613,65,"1124 BAY BLVD STE B, CHULA VISTA, CA, 91911","Match","Exact","1124 BAY BLVD, CHULA VISTA, CA, 91911",195738822,"R"
25066,"1124 BLACKBURN DR","GRAYSLAKE","IL",60030,42.3522428840001,-88.0196863,66,"1124 BLACKBURN DR, GRAYSLAKE, IL, 60030","Match","Exact","1124 BLACKBURN DR, GRAYSLAKE, IL, 60030",119674615,"L"
25067,"1124 CALHOUN STREET","LITTLE ROCK","AR",72202,34.7361893280001,-92.2437377539999,67,"1124 CALHOUN STREET, LITTLE ROCK, AR, 72202","Match","Exact","1124 CALHOUN ST, LITTLE ROCK, AR, 72202",83516025,"R"
25068,"1124 CAMPGROUND RD","MCDONOUGH","GA",30252,33.4910823060001,-84.140253334,68,"1124 CAMPGROUND RD, MCDONOUGH, GA, 30252","Match","Exact","1124 CAMPGROUND RD, MCDONOUGH, GA, 30252",210411821,"R"
25069,"1124 CAMROSE LANE","DESOTO","TX",75115,32.61458241,-96.88624559,69,"1124 CAMROSE LANE, DESOTO, TX, 75115","Match","Exact","1124 CAMROSE LN, DESOTO, TX, 75115",102994626,"R"
25070,"1124 CLEAR CREEK","ALPINE","AL",35014,33.4502815770001,-86.274866,70,"1124 CLEAR CREEK, ALPINE, AL, 35014","Match","Non_Exact","1124 CLEAR CREEK DR, ALPINE, AL, 35014",66914716,"L"
25071,"1124 CLEVELAND ROAD","SANDUSKY","OH",44870,41.4455540750001,-82.694870163,71,"1124 CLEVELAND ROAD, SANDUSKY, OH, 44870","Match","Non_Exact","1124 CLEVELAND RD W, SANDUSKY, OH, 44870",55324727,"L"
25072,"1124 COACH RD","PAPILLION","NE",68046,41.1452628650001,-96.03394073,72,"1124 COACH RD, PAPILLION, NE, 68046","Match","Exact","1124 COACH RD, PAPILLION, NE, 68046",28469115,"R"
25073,"1124 COUNTY ROAD 601","ASHLAND","OH",44805,40.897673378,-82.249353591,73,"1124 COUNTY ROAD 601, ASHLAND, OH, 44805","Match","Exact","1124 CO RD 601, ASHLAND, OH, 44805",30145448,"L"
25074,"1124 DANBURY DRIVE","KOKOMO","IN",46901,40.5134914130001,-86.1182972719999,74,"1124 DANBURY DRIVE, KOKOMO, IN, 46901","Match","Exact","1124 DANBURY DR, KOKOMO, IN, 46901",27284581,"L"
25075,"1124 DARJOY LANE","RICHMOND","VA",23231,37.499805171,-77.3953024209999,75,"1124 DARJOY LANE, RICHMOND, VA, 23231","Match","Exact","1124 DARJOY LN, RICHMOND, VA, 23231",106666924,"R"
25076,"1124 DECATUR STREET","CHESAPEAKE","VA",23324,36.8164598660001,-76.275883307,76,"1124 DECATUR STREET, CHESAPEAKE, VA, 23324","Match","Exact","1124 DECATUR ST, CHESAPEAKE, VA, 23324",121770275,"R"
25077,"1124 DUNFORD DRIVE","SAINT LOUIS","MO",63137,38.732049299,-90.2345894699999,77,"1124 DUNFORD DRIVE, SAINT LOUIS, MO, 63137","Match","Exact","1124 DUNFORD DR, SAINT LOUIS, MO, 63137",100175225,"L"
25078,"1124 E 64TH STREET APT B","TULSA","OK",74136,36.0706225180001,-95.977429467,78,"1124 E 64TH STREET APT B, TULSA, OK, 74136","Match","Non_Exact","1124 E 64TH ST, TULSA, OK, 74136",166443977,"R"
25079,"1124 E LAS TUNAS DR SUITE C","SAN GABRIEL","CA",91776,34.1034404600001,-118.083055387,79,"1124 E LAS TUNAS DR SUITE C, SAN GABRIEL, CA, 91776","Match","Non_Exact","1124 E LAS TUNAS DR, SAN GABRIEL, CA, 91776",142736488,"R"
25080,"1124 EAGLE EYE RD","GAINESVILLE","GA",30504,34.2937748730001,-83.86232004,80,"1124 EAGLE EYE RD, GAINESVILLE, GA, 30504","Match","Exact","1124 EAGLE EYE RD, GAINESVILLE, GA, 30504",618456189,"R"
25081,"1124 EASLEY COURT","LAWRENCEVILLE","GA",30045,33.9252490980001,-83.945821579,81,"1124 EASLEY COURT, LAWRENCEVILLE, GA, 30045","Match","Exact","1124 EASLEY CT, LAWRENCEVILLE, GA, 30045",627723947,"L"
25082,"1124 EAST MOUNT HOPE AVENUE","LANSING","MI",48910,42.711938231,-84.536461916,82,"1124 EAST MOUNT HOPE AVENUE, LANSING, MI, 48910","Match","Exact","1124 E MOUNT HOPE AVE, LANSING, MI, 48910",17500354,"R"
25083,"1124 EL DORADO ST","CRESCENT CITY","CA",95531,41.7666606130001,-124.209185693,83,"1124 EL DORADO ST, CRESCENT CITY, CA, 95531","Match","Exact","1124 EL DORADO ST, CRESCENT CITY, CA, 95531",113161425,"R"
25084,"1124 EL DORADO","CRESCENT CITY","CA",95531,41.7666606130001,-124.209185693,84,"1124 EL DORADO, CRESCENT CITY, CA, 95531","Match","Non_Exact","1124 EL DORADO ST, CRESCENT CITY, CA, 95531",113161425,"R"
25085,"1124 ESSEX STREET","BROOKLYN","NY",11239,40.656808799,-73.872110439,85,"1124 ESSEX STREET, BROOKLYN, NY, 11239","Match","Exact","1124 ESSEX ST, BROOKLYN, NY, 11239",648691986,"R"
25086,"1124 EVELYN COURT","RIDGECREST","CA",93555,35.6303680520001,-117.692662749,86,"1124 EVELYN COURT, RIDGECREST, CA, 93555","Match","Non_Exact","1124 W EVELYN CT, RIDGECREST, CA, 93555",109112030,"R"
25087,"1124 FIELDER RD  UNIT 282","ARLINGTON","TX",76012,32.7506529410001,-97.131690914,87,"1124 FIELDER RD  UNIT 282, ARLINGTON, TX, 76012","Match","Non_Exact","1124 N FIELDER RD, ARLINGTON, TX, 76012",618450781,"L"
25088,"1124 FILLMORE STREET","PHILADELPHIA","PA",19124,40.022449178,-75.0894334509999,88,"1124 FILLMORE STREET, PHILADELPHIA, PA, 19124","Match","Exact","1124 FILLMORE ST, PHILADELPHIA, PA, 19124",131426979,"R"
25089,"1124 FRESHWATER LAKES DRIVE","WEST PALM BEACH","FL",33401,26.723601837,-80.061213121,89,"1124 FRESHWATER LAKES DRIVE, WEST PALM BEACH, FL, 33401","Match","Exact","1124 FRESHWATER LAKES DR, WEST PALM BEACH, FL, 33401",115351983,"R"
25090,"1124 GREEN VALLEY ROAD","GLENCOE","AL",35905,33.922034941,-85.957428168,90,"1124 GREEN VALLEY ROAD, GLENCOE, AL, 35905","Match","Exact","1124 GREEN VALLEY RD, GLENCOE, AL, 35905",66791346,"R"
25091,"1124 GREENRIDGE LN","LITHONIA","GA",30058,33.7590572890001,-84.159365969,91,"1124 GREENRIDGE LN, LITHONIA, GA, 30058","Match","Exact","1124 GREENRIDGE LN, LITHONIA, GA, 30058",619387287,"L"
25092,"1124 HARVEYS LANE","CLEARWATER","FL",33756,27.944764379,-82.7898633569999,92,"1124 HARVEYS LANE, CLEARWATER, FL, 33756","Match","Exact","1124 HARVEYS LN, CLEARWATER, FL, 33756",124732532,"R"
25093,"1124 HARWICH DRIVE","SAN MARCOS","CA",92069,33.149937304,-117.134610594,93,"1124 HARWICH DRIVE, SAN MARCOS, CA, 92069","Match","Exact","1124 HARWICH DR, SAN MARCOS, CA, 92069",195413485,"L"
25094,"1124 HERRINGTON RD","ELIZABETH CITY","NC",27909,36.288971459,-76.2193428149999,94,"1124 HERRINGTON RD, ELIZABETH CITY, NC, 27909","Match","Exact","1124 HERRINGTON RD, ELIZABETH CITY, NC, 27909",18598379,"R"
25095,"1124 HUXLEY AVE","ORLANDO","FL",32837,NA,NA,95,"1124 HUXLEY AVE, ORLANDO, FL, 32837","No_Match",NA,NA,NA,NA
25096,"1124 KELLY SPRINGS ROAD","DOTHAN","AL",36303,31.2773420070001,-85.463413561,96,"1124 KELLY SPRINGS ROAD, DOTHAN, AL, 36303","Match","Exact","1124 KELLY SPRINGS RD, DOTHAN, AL, 36303",630193338,"L"
25097,"1124 KENNEBEC STREET 101","OXON HILL","MD",20745,38.8197695970001,-76.991031552,97,"1124 KENNEBEC STREET 101, OXON HILL, MD, 20745","Match","Exact","1124 KENNEBEC ST, OXON HILL, MD, 20745",76312105,"L"
25098,"1124 LAKESIDE WAY","NEWNAN","GA",30265,33.395689948,-84.7382765899999,98,"1124 LAKESIDE WAY, NEWNAN, GA, 30265","Match","Exact","1124 LAKESIDE WAY, NEWNAN, GA, 30265",635857369,"L"
25099,"1124 LANDERS ST","ORMOND BEACH","GA",32174,NA,NA,99,"1124 LANDERS ST, ORMOND BEACH, GA, 32174","No_Match",NA,NA,NA,NA
25100,"1124 MOBERLY RD","HARRODSBURG","KY",40330,37.783222154,-84.858327973,100,"1124 MOBERLY RD, HARRODSBURG, KY, 40330","Match","Exact","1124 MOBERLY RD, HARRODSBURG, KY, 40330",631674960,"L"
25101,"1124 MOBERLY ROAD","HARRODSBURG","KY",40330,37.783222154,-84.858327973,101,"1124 MOBERLY ROAD, HARRODSBURG, KY, 40330","Match","Exact","1124 MOBERLY RD, HARRODSBURG, KY, 40330",631674960,"L"
25102,"1124 MOCKINGBIRD DRIVE","AUBREY","TX",76627,33.2227291610001,-96.9413900869999,102,"1124 MOCKINGBIRD DRIVE, AUBREY, TX, 76627","Match","Non_Exact","1124 MOCKINGBIRD DR, AUBREY, TX, 76227",218073775,"L"
25103,"1124 N FRINK STREET","PEORIA","IL",61606,40.7014581350001,-89.609058766,103,"1124 N FRINK STREET, PEORIA, IL, 61606","Match","Exact","1124 N FRINK ST, PEORIA, IL, 61606",8716979,"R"
25104,"1124 NE 2ND ST  /109","OCALA","FL",34470,29.188412955,-82.124841949,104,"1124 NE 2ND ST  /109, OCALA, FL, 34470","Match","Non_Exact","1124 NE 2ND ST, OCALA, FL, 34470",116728182,"R"
25105,"1124 NEILSON STREET","FAR ROCKAWAY","NY",11691,40.606490126,-73.748823407,105,"1124 NEILSON STREET, FAR ROCKAWAY, NY, 11691","Match","Exact","1124 NEILSON ST, FAR ROCKAWAY, NY, 11691",59723290,"R"
25106,"1124 NORTH 64TH STREET","PHILADELPHIA","PA",19151,39.9796226,-75.249383238,106,"1124 NORTH 64TH STREET, PHILADELPHIA, PA, 19151","Match","Exact","1124 N 64TH ST, PHILADELPHIA, PA, 19151",131397115,"L"
25107,"1124 NORTH FRINK STREET","PEORIA","IL",61606,40.7014558170001,-89.609058779,107,"1124 NORTH FRINK STREET, PEORIA, IL, 61606","Match","Exact","1124 N FRINK ST, PEORIA, IL, 61606",8716979,"R"
25108,"1124 OAK ST SW","ATLANTA","GA",30310,33.7407607150001,-84.424360195,108,"1124 OAK ST SW, ATLANTA, GA, 30310","Match","Exact","1124 OAK ST SW, ATLANTA, GA, 30310",17344981,"L"
25109,"1124 OLD STAGE RD","DICKSON","TN",37055,36.1561050710001,-87.396123072,109,"1124 OLD STAGE RD, DICKSON, TN, 37055","Match","Exact","1124 OLD STAGE RD, DICKSON, TN, 37055",618077950,"R"
25110,"1124 PETERSBURG ROAD","DUNDEE","MI",48131,41.9110250410001,-83.709996183,110,"1124 PETERSBURG ROAD, DUNDEE, MI, 48131","Match","Exact","1124 PETERSBURG RD, DUNDEE, MI, 48131",40475673,"R"
25111,"1124 PINE GROVE DRIVE","MT SHASTA","CA",96067,41.3207623120001,-122.333501796,111,"1124 PINE GROVE DRIVE, MT SHASTA, CA, 96067","Match","Exact","1124 PINE GROVE DR, MOUNT SHASTA, CA, 96067",113269227,"R"
25112,"1124 REGIMENT DRIVE","ACWORTH","GA",30101,33.983259844,-84.736384033,112,"1124 REGIMENT DRIVE, ACWORTH, GA, 30101","Match","Non_Exact","1124 REGIMENT DR NW, ACWORTH, GA, 30101",17222043,"R"
25113,"1124 S BURNSIDE AVE STE 100B","BATON ROUGE","LA",70737,NA,NA,113,"1124 S BURNSIDE AVE STE 100B, BATON ROUGE, LA, 70737","No_Match",NA,NA,NA,NA
25114,"1124 S CHARLES ST STE 1","BALTIMORE","MD",21230,39.276179552,-76.6143306719999,114,"1124 S CHARLES ST STE 1, BALTIMORE, MD, 21230","Match","Non_Exact","1124 S CHARLES ST, BALTIMORE, MD, 21230",206421044,"R"
25115,"1124 S DAWSON","SEATTLE","WA",98108,47.555630912,-122.318206568,115,"1124 S DAWSON, SEATTLE, WA, 98108","Match","Non_Exact","1124 S DAWSON ST, SEATTLE, WA, 98108",186592000,"L"
25116,"1124 S FIVE MILE RD","BOISE","ID",83709,43.5945321840001,-116.314216497,116,"1124 S FIVE MILE RD, BOISE, ID, 83709","Match","Exact","1124 S FIVE MILE RD, BOISE, ID, 83709",617925575,"L"
25117,"1124 SEIB AVENUE","ELIZABETH","NJ",7202,40.654448157,-74.230132568,117,"1124 SEIB AVENUE, ELIZABETH, NJ, 7202","Match","Exact","1124 SEIB AVE, ELIZABETH, NJ, 07202",60578149,"L"
25118,"1124 SOUTH JOE WILSON ROAD","CEDAR HILL","TX",75104,32.566342381,-96.925382209,118,"1124 SOUTH JOE WILSON ROAD, CEDAR HILL, TX, 75104","Match","Exact","1124 S JOE WILSON RD, CEDAR HILL, TX, 75104",103001605,"L"
25119,"1124 SOUTH RACINE WAY D104","AURORA","CO",80012,39.69618253,-104.843985056,119,"1124 SOUTH RACINE WAY D104, AURORA, CO, 80012","Match","Exact","1124 S RACINE WAY, AURORA, CO, 80012",177371500,"R"
25120,"1124 STATE ROUTE 105","ABERDEEN","WA",98520,46.919946521,-123.951171849,120,"1124 STATE ROUTE 105, ABERDEEN, WA, 98520","Match","Exact","1124 STATE RTE 105, ABERDEEN, WA, 98520",647588741,"L"
25121,"1124 SW 318TH PL","FEDERAL WAY","WA",98023,47.316566444,-122.350939319,121,"1124 SW 318TH PL, FEDERAL WAY, WA, 98023","Match","Exact","1124 SW 318TH PL, FEDERAL WAY, WA, 98023",186707380,"L"
25122,"1124 TORRINGTON CIRCLE","ROCK HILL","SC",29732,34.9835188610001,-81.0261104849999,122,"1124 TORRINGTON CIRCLE, ROCK HILL, SC, 29732","Match","Exact","1124 TORRINGTON CIR, ROCK HILL, SC, 29732",19808342,"R"
25123,"1124 VIRGINIA AVE APT C","PORTSMOUTH","VA",23707,36.83735289,-76.330776105,123,"1124 VIRGINIA AVE APT C, PORTSMOUTH, VA, 23707","Match","Exact","1124 VIRGINIA AVE, PORTSMOUTH, VA, 23707",122200654,"R"
25124,"1124 W 72ND CIR","MERRILLVILLE","IN",46410,41.487927315,-87.35136665,124,"1124 W 72ND CIR, MERRILLVILLE, IN, 46410","Match","Exact","1124 W 72ND CIR, MERRILLVILLE, IN, 46410",98431516,"R"
25125,"1124 W ADAMS BLVD","LOS ANGELES","CA",90007,34.0319645710001,-118.284600284,125,"1124 W ADAMS BLVD, LOS ANGELES, CA, 90007","Match","Exact","1124 W ADAMS BLVD, LOS ANGELES, CA, 90007",141607413,"L"
25126,"1124 W BEECH ST","DURANT","OK",74701,33.995835782,-96.38732486,126,"1124 W BEECH ST, DURANT, OK, 74701","Match","Exact","1124 W BEECH ST, DURANT, OK, 74701",62489896,"R"
25127,"1124 W LEXINGTON AVE","ELKHART","IN",46514,41.6838867000001,-85.991275319,127,"1124 W LEXINGTON AVE, ELKHART, IN, 46514","Match","Exact","1124 W LEXINGTON AVE, ELKHART, IN, 46514",7749627,"R"
25128,"1124 WEST AVE","HAMPTON","VA",23669,37.0370258950001,-76.3529029319999,128,"1124 WEST AVE, HAMPTON, VA, 23669","Match","Exact","1124 WEST AVE, HAMPTON, VA, 23669",103758190,"R"
25129,"1124 WEST HAMILTON STREET","ALLENTOWN","PA",18101,40.5997442,-75.480735904,129,"1124 WEST HAMILTON STREET, ALLENTOWN, PA, 18101","Match","Exact","1124 W HAMILTON ST, ALLENTOWN, PA, 18101",80770032,"L"
25130,"1124 WILLIS AVE P O BOX 472","PERRY","IA",50220,41.838501982,-94.105717032,130,"1124 WILLIS AVE P O BOX 472, PERRY, IA, 50220","Match","Exact","1124 WILLIS AVE, PERRY, IA, 50220",65626866,"R"
25131,"11240 PARKWOOD COURT S","NEW ORLEANS","LA",70128,30.0297265310001,-89.956191958,131,"11240 PARKWOOD COURT S, NEW ORLEANS, LA, 70128","Match","Exact","11240 PARKWOOD CT S, NEW ORLEANS, LA, 70128",191738538,"L"
25132,"11240 PLANTATION OAKS LANE","LUMBERTON","TX",77657,30.198422485,-94.208881779,132,"11240 PLANTATION OAKS LANE, LUMBERTON, TX, 77657","Match","Exact","11240 PLANTATION OAKS LN, LUMBERTON, TX, 77657",637064740,"R"
25133,"11240 SITTING BULL CIRCLE","LUSBY","MD",20657,38.3791445950001,-76.421161496,133,"11240 SITTING BULL CIRCLE, LUSBY, MD, 20657","Match","Exact","11240 SITTING BULL CIR, LUSBY, MD, 20657",78192209,"R"
25134,"11240 SPRING BANK PLACE","LA PLATA","MD",20646,NA,NA,134,"11240 SPRING BANK PLACE, LA PLATA, MD, 20646","No_Match",NA,NA,NA,NA
25135,"11240 SYCAMORE LANE     UNIT A","PALOS HILLS","IL",60465,41.6863545680001,-87.820609181,135,"11240 SYCAMORE LANE     UNIT A, PALOS HILLS, IL, 60465","Match","Exact","11240 SYCAMORE LN, PALOS HILLS, IL, 60465",111810414,"R"
25136,"11241 OLD LEAVELLS RD","FREDEERICKSBURG","VA",22407,38.2680668990001,-77.541148322,136,"11241 OLD LEAVELLS RD, FREDEERICKSBURG, VA, 22407","Match","Non_Exact","11241 OLD LEAVELLS RD, FREDERICKSBURG, VA, 22407",636655134,"R"
25137,"11241 RAVENNA LN","PORTER RANCH","CA",91326,34.2754143980001,-118.584800583,137,"11241 RAVENNA LN, PORTER RANCH, CA, 91326","Match","Exact","11241 RAVENNA LN, PORTER RANCH, CA, 91326",142681773,"L"
25138,"11243 CHELSEA LANE","HAMPTON","GA",30228,33.4493102930001,-84.3478273169999,138,"11243 CHELSEA LANE, HAMPTON, GA, 30228","Match","Exact","11243 CHELSEA LN, HAMPTON, GA, 30228",23326993,"L"
25139,"11243 LAKELAND RD","NORWALK","CA",90650,33.931185741,-118.094001589,139,"11243 LAKELAND RD, NORWALK, CA, 90650","Match","Exact","11243 LAKELAND RD, NORWALK, CA, 90650",141741003,"L"
25140,"11244 CABLE CIRCLE","OSAKIS","MN",56360,45.853806218,-95.1383145469999,140,"11244 CABLE CIRCLE, OSAKIS, MN, 56360","Match","Exact","11244 CABLE CIR, OSAKIS, MN, 56360",647582841,"R"
25141,"11244 CASPER COVE","BEAUMONT","CA",92223,33.959749517,-117.036845914,141,"11244 CASPER COVE, BEAUMONT, CA, 92223","Match","Exact","11244 CASPER COVE, BEAUMONT, CA, 92223",629825884,"R"
25142,"11244 COLYER AVE","LYNWOOD","CA",90262,33.927401036,-118.193202048,142,"11244 COLYER AVE, LYNWOOD, CA, 90262","Match","Exact","11244 COLYER AVE, LYNWOOD, CA, 90262",141678986,"L"
25143,"11244 COUNTY 10 C","CALEDONIA","MN",55921,NA,NA,143,"11244 COUNTY 10 C, CALEDONIA, MN, 55921","No_Match",NA,NA,NA,NA
25144,"11244 S EGGLESTON AVE","CHICAGO","IL",60628,41.689798776,-87.6338558259999,144,"11244 S EGGLESTON AVE, CHICAGO, IL, 60628","Match","Exact","11244 S EGGLESTON AVE, CHICAGO, IL, 60628",111833633,"R"
25145,"11244 VOLLMER LN","SAN ANTONIO","TX",78254,29.5176929510001,-98.71166324,145,"11244 VOLLMER LN, SAN ANTONIO, TX, 78254","Match","Exact","11244 VOLLMER LN, SAN ANTONIO, TX, 78254",101703480,"L"
25146,"11244 WILLOWCREST LANE","MOKENA","IL",60448,41.531961225,-87.8902158239999,146,"11244 WILLOWCREST LANE, MOKENA, IL, 60448","Match","Non_Exact","11244 WILLOW CREST LN, MOKENA, IL, 60448",111598566,"R"
25147,"11245 LOCKWOOD DRIVE","SILVER SPRING","MD",20901,39.0389857420001,-76.99196619,147,"11245 LOCKWOOD DRIVE, SILVER SPRING, MD, 20901","Match","Exact","11245 LOCKWOOD DR, SILVER SPRING, MD, 20901",652558675,"R"
25148,"11245 LOWER AZUSA ROAD  STE C","EL MONTE","CA",91731,34.091659958,-118.021792939,148,"11245 LOWER AZUSA ROAD  STE C, EL MONTE, CA, 91731","Match","Exact","11245 LOWER AZUSA RD, EL MONTE, CA, 91731",142745560,"L"
25149,"11245 SIR WINSTON ST 515","SAN ANTONIO","TX",78216,NA,NA,149,"11245 SIR WINSTON ST 515, SAN ANTONIO, TX, 78216","No_Match",NA,NA,NA,NA
25150,"11245 TUSCARORA LN","MINNEOLA","FL",34715,28.6065207680001,-81.767425772,150,"11245 TUSCARORA LN, MINNEOLA, FL, 34715","Match","Exact","11245 TUSCARORA LN, MINNEOLA, FL, 34715",94142435,"L"
25151,"11246 ALBETH RD","MARRIOTTSVILLE","MD",21104,39.302870867,-76.901503296,151,"11246 ALBETH RD, MARRIOTTSVILLE, MD, 21104","Match","Exact","11246 ALBETH RD, MARRIOTTSVILLE, MD, 21104",619802440,"R"
25152,"11246 BIENVENIDA WAY UNIT 201","FORT MYERS","FL",33908,26.534632376,-81.934019403,152,"11246 BIENVENIDA WAY UNIT 201, FORT MYERS, FL, 33908","Match","Exact","11246 BIENVENIDA WAY, FORT MYERS, FL, 33908",118083254,"R"
25153,"11246 DODGE AVE","WARREN","MI",48089,42.462634451,-83.01231182,153,"11246 DODGE AVE, WARREN, MI, 48089","Match","Exact","11246 DODGE AVE, WARREN, MI, 48089",110677595,"R"
25154,"11246 MASONIC","WARREN","MI",48093,42.5286241110001,-83.014358871,154,"11246 MASONIC, WARREN, MI, 48093","Match","Non_Exact","11246 MASONIC BLVD, WARREN, MI, 48093",110672650,"R"
25155,"11246 OAK STREET","KANSAS CITY","MO",64114,38.9224763460001,-94.588379893,155,"11246 OAK STREET, KANSAS CITY, MO, 64114","Match","Exact","11246 OAK ST, KANSAS CITY, MO, 64114",91506977,"R"
25156,"11246 RODEO CIRCLE","PARKER","CO",80138,39.513304405,-104.756565458,156,"11246 RODEO CIRCLE, PARKER, CO, 80138","Match","Exact","11246 RODEO CIR, PARKER, CO, 80138",130825591,"L"
25157,"11246 SO NORMAL","CHICAGO","IL",60628,41.6897658940001,-87.63505312,157,"11246 SO NORMAL, CHICAGO, IL, 60628","Match","Non_Exact","11246 S NORMAL AVE, CHICAGO, IL, 60628",111833631,"R"
25158,"11246 SOUTH 252ND EAST AVE","BROKEN ARROW","OK",74013,NA,NA,158,"11246 SOUTH 252ND EAST AVE, BROKEN ARROW, OK, 74013","No_Match",NA,NA,NA,NA
25159,"11247 CRESTLINE ST SW","BEACH CITY","OH",44608,40.675881453,-81.571828454,159,"11247 CRESTLINE ST SW, BEACH CITY, OH, 44608","Match","Exact","11247 CRESTLINE ST SW, BEACH CITY, OH, 44608",64671488,"R"
25160,"11247 MEMORIAL PARKWAY SW","HUNTSVILLE","AL",35803,34.6355741,-86.566780219,160,"11247 MEMORIAL PARKWAY SW, HUNTSVILLE, AL, 35803","Match","Exact","11247 MEMORIAL PKWY SW, HUNTSVILLE, AL, 35803",647659919,"L"
25161,"11247 S WASHTENAW","CHICAGO","IL",60655,41.6890217490001,-87.688434109,161,"11247 S WASHTENAW, CHICAGO, IL, 60655","Match","Non_Exact","11247 S WASHTENAW AVE, CHICAGO, IL, 60655",111822457,"L"
25162,"11247 SOUTH MEMORIAL PARKWAY","HUNTSVILLE","AL",35803,NA,NA,162,"11247 SOUTH MEMORIAL PARKWAY, HUNTSVILLE, AL, 35803","No_Match",NA,NA,NA,NA
25163,"11247 SW CAPITOL HWY","PORTLAND","OR",97219,45.443951928,-122.730321484,163,"11247 SW CAPITOL HWY, PORTLAND, OR, 97219","Match","Exact","11247 SW CAPITOL HWY, PORTLAND, OR, 97219",157524900,"R"
25164,"11247 YELM HWY SE","OLYMPIA","WA",98513,47.000922088,-122.700545587,164,"11247 YELM HWY SE, OLYMPIA, WA, 98513","Match","Exact","11247 YELM HWY SE, OLYMPIA, WA, 98513",648525201,"L"
25165,"11248 BORDEN AVENUE","PACOIMA","CA",91331,34.274155733,-118.406351462,165,"11248 BORDEN AVENUE, PACOIMA, CA, 91331","Match","Exact","11248 BORDEN AVE, PACOIMA, CA, 91331",648145795,"R"
25166,"11248 E HIGHWAY 107","EDINBURG","TX",78542,26.292753528,-98.04818705,166,"11248 E HIGHWAY 107, EDINBURG, TX, 78542","Match","Non_Exact","11248 STATE HWY 107, EDINBURG, TX, 78542",607640983,"L"
25167,"11248 GERRY CT","CROWN POINT","IN",46307,41.4148610980001,-87.405274662,167,"11248 GERRY CT, CROWN POINT, IN, 46307","Match","Exact","11248 GERRY CT, CROWN POINT, IN, 46307",641191125,"R"
25168,"11249 PALMERS GREEN DR","PEYTON","CO",80831,38.9803208070001,-104.619945911,168,"11249 PALMERS GREEN DR, PEYTON, CO, 80831","Match","Exact","11249 PALMERS GREEN DR, PEYTON, CO, 80831",105572644,"R"
25169,"1125 20TH STREET","SAN FRANCISCO","CA",94107,37.760233344,-122.392632556,169,"1125 20TH STREET, SAN FRANCISCO, CA, 94107","Match","Exact","1125 20TH ST, SAN FRANCISCO, CA, 94107",192289619,"L"
25170,"1125 30TH AVENUE","BELLWOOD","IL",60104,41.8724059300001,-87.869350099,170,"1125 30TH AVENUE, BELLWOOD, IL, 60104","Match","Exact","1125 30TH AVE, BELLWOOD, IL, 60104",111788358,"L"
25171,"1125 53RD STREET- BUILDING C NORTH","EMERYVILLE","CA",94608,37.8367760300001,-122.284118934,171,"1125 53RD STREET- BUILDING C NORTH, EMERYVILLE, CA, 94608","Match","Non_Exact","1125 53RD ST, EMERYVILLE, CA, 94608",124994533,"L"
25172,"1125 A STREET","GOLDEN","CO",80401,39.722268238,-105.206244211,172,"1125 A STREET, GOLDEN, CO, 80401","Match","Exact","1125 A ST, GOLDEN, CO, 80401",177404208,"R"
25173,"1125 ADAMS RIDGE ROAD","WALNUT COVE","NC",27052,36.2760553680001,-80.147291916,173,"1125 ADAMS RIDGE ROAD, WALNUT COVE, NC, 27052","Match","Exact","1125 ADAMS RIDGE RD, WALNUT COVE, NC, 27052",56333136,"L"
25174,"1125 APPLE COURT","IOWA CITY","IA",52240,41.63785453,-91.520232628,174,"1125 APPLE COURT, IOWA CITY, IA, 52240","Match","Exact","1125 APPLE CT, IOWA CITY, IA, 52240",84502756,"R"
25175,"1125 ASHFORD DRIVE","DESOTO","TX",75115,32.590357066,-96.883733099,175,"1125 ASHFORD DRIVE, DESOTO, TX, 75115","Match","Exact","1125 ASHFORD DR, DESOTO, TX, 75115",103187029,"R"
25176,"1125 ATLANTIC AVE 3RD FLOOR","ATLANTIC CITY","NJ",8401,39.3633283300001,-74.42507062,176,"1125 ATLANTIC AVE 3RD FLOOR, ATLANTIC CITY, NJ, 8401","Match","Exact","1125 ATLANTIC AVE, ATLANTIC CITY, NJ, 08401",202491165,"R"
25177,"1125 ATLANTIC AVENUE 3RD FLOOR","ATLANTIC CITY","NJ",8401,39.3633283300001,-74.42507062,177,"1125 ATLANTIC AVENUE 3RD FLOOR, ATLANTIC CITY, NJ, 8401","Match","Exact","1125 ATLANTIC AVE, ATLANTIC CITY, NJ, 08401",202491165,"R"
25178,"1125 ATLANTIC AVENUE STE 512","ATLANTIC CITY","NJ",8401,39.3633283300001,-74.42507062,178,"1125 ATLANTIC AVENUE STE 512, ATLANTIC CITY, NJ, 8401","Match","Exact","1125 ATLANTIC AVE, ATLANTIC CITY, NJ, 08401",202491165,"R"
25179,"1125 ATLANTIC AVENUE","ATLANTIC CITY","NJ",8401,39.3633283300001,-74.42507062,179,"1125 ATLANTIC AVENUE, ATLANTIC CITY, NJ, 8401","Match","Exact","1125 ATLANTIC AVE, ATLANTIC CITY, NJ, 08401",202491165,"R"
25180,"1125 AUSTRIAN PINE RD","RENO","NV",89511,39.3594713260001,-119.837435321,180,"1125 AUSTRIAN PINE RD, RENO, NV, 89511","Match","Exact","1125 AUSTRIAN PINE RD, RENO, NV, 89511",107097802,"L"
25181,"1125 BRANDON ROAD","VIRGINIA BEACH","VA",23451,36.880575417,-76.0050674789999,181,"1125 BRANDON ROAD, VIRGINIA BEACH, VA, 23451","Match","Exact","1125 BRANDON RD, VA BCH, VA, 23451",122261797,"L"
25182,"1125 BRANDY CREEK DR","WINTER GARDEN","FL",34787,28.5534867320001,-81.607186449,182,"1125 BRANDY CREEK DR, WINTER GARDEN, FL, 34787","Match","Exact","1125 BRANDY CREEK DR, WINTER GARDEN, FL, 34787",94367711,"L"
25183,"1125 CADY CIR","TITUSVILLE","FL",32780,28.5363559410001,-80.812029162,183,"1125 CADY CIR, TITUSVILLE, FL, 32780","Match","Exact","1125 CADY CIR, TITUSVILLE, FL, 32780",601722090,"L"
25184,"1125 CATHERINE DR","ALICE","TX",78332,27.757737166,-98.064244894,184,"1125 CATHERINE DR, ALICE, TX, 78332","Match","Exact","1125 CATHERINE DR, ALICE, TX, 78332",21513751,"L"
25185,"1125 CEDARVIEW LANE","FRANKLIN","TN",37067,35.8884354250001,-86.796625747,185,"1125 CEDARVIEW LANE, FRANKLIN, TN, 37067","Match","Exact","1125 CEDARVIEW LN, FRANKLIN, TN, 37067",73123399,"L"
25186,"1125 COKER ST","IRVING","TX",75062,NA,NA,186,"1125 COKER ST, IRVING, TX, 75062","No_Match",NA,NA,NA,NA
25187,"1125 COMMERCIAL DRIVE","LEXINGTON","KY",40505,38.046635442,-84.458617324,187,"1125 COMMERCIAL DRIVE, LEXINGTON, KY, 40505","Match","Exact","1125 COMMERCIAL DR, LEXINGTON, KY, 40505",31930342,"L"
25188,"1125 CUSTER AVENUE","BILLINGS","MT",59102,45.7760802220001,-108.544188283,188,"1125 CUSTER AVENUE, BILLINGS, MT, 59102","Match","Exact","1125 CUSTER AVE, BILLINGS, MT, 59102",181475256,"R"
25189,"1125 E 36TH ST N","TULSA","OK",74106,36.2059769470001,-95.9796390069999,189,"1125 E 36TH ST N, TULSA, OK, 74106","Match","Exact","1125 E 36TH ST N, TULSA, OK, 74106",166436066,"L"
25190,"1125 E 47TH 1B","CHICAGO","IL",60653,NA,NA,190,"1125 E 47TH 1B, CHICAGO, IL, 60653","No_Match",NA,NA,NA,NA
25191,"1125 E 47TH APT 2C","CHICAGO","IL",60653,NA,NA,191,"1125 E 47TH APT 2C, CHICAGO, IL, 60653","No_Match",NA,NA,NA,NA
25192,"1125 E BROOKSIDE AVE STE D8 DOORG10","INDIANAPOLIS","IN",46202,39.781323727,-86.137507264,192,"1125 E BROOKSIDE AVE STE D8 DOORG10, INDIANAPOLIS, IN, 46202","Match","Non_Exact","1125 E BROOKSIDE AVE, INDIANAPOLIS, IN, 46202",107993231,"R"
25193,"1125 E CLARK AVE   A1","SANTA MARIA","CA",93455,34.865088515,-120.416979338,193,"1125 E CLARK AVE   A1, SANTA MARIA, CA, 93455","Match","Non_Exact","1125 E CLARK AVE, SANTA MARIA, CA, 93455",647313948,"L"
25194,"1125 E ROOSEVELT ST","PHOENIX","AZ",85006,33.4586774000001,-112.05820914,194,"1125 E ROOSEVELT ST, PHOENIX, AZ, 85006","Match","Exact","1125 E ROOSEVELT ST, PHOENIX, AZ, 85006",128213908,"R"
25195,"1125 EAST STREET","WOODLAND","CA",95776,38.666223652,-121.765558373,195,"1125 EAST STREET, WOODLAND, CA, 95776","Match","Exact","1125 EAST ST, WOODLAND, CA, 95776",67699600,"R"
25196,"1125 EDGEWATER DRIVE","ATLANTA","GA",30328,33.927787622,-84.421293104,196,"1125 EDGEWATER DRIVE, ATLANTA, GA, 30328","Match","Non_Exact","1125 EDGEWATER DR NW, ATLANTA, GA, 30328",17332805,"R"
25197,"1125 ELIZABETH AVENUE","ELIZABETH","NJ",7201,40.6620152190001,-74.21253853,197,"1125 ELIZABETH AVENUE, ELIZABETH, NJ, 7201","Match","Exact","1125 ELIZABETH AVE, ELIZABETH, NJ, 07201",60578924,"R"
25198,"1125 ESSEX LN","NEWPORT BEACH","CA",92660,33.6256195920001,-117.90106511,198,"1125 ESSEX LN, NEWPORT BEACH, CA, 92660","Match","Exact","1125 ESSEX LN, NEWPORT BEACH, CA, 92660",144049641,"L"
25199,"1125 FORD ST","MAUMEE","OH",43537,41.566770546,-83.6701461769999,199,"1125 FORD ST, MAUMEE, OH, 43537","Match","Exact","1125 FORD ST, MAUMEE, OH, 43537",640307871,"L"
25200,"1125 GLENDALOUGH DR","PFLUGERVILLE","TX",78660,30.4750199900001,-97.636609974,200,"1125 GLENDALOUGH DR, PFLUGERVILLE, TX, 78660","Match","Exact","1125 GLENDALOUGH DR, PFLUGERVILLE, TX, 78660",64005028,"R"
25201,"1125 GOODRICH BLVD","EAST LOS ANGELES","CA",90022,34.016654357,-118.155354921,201,"1125 GOODRICH BLVD, EAST LOS ANGELES, CA, 90022","Match","Exact","1125 GOODRICH BLVD, EAST LOS ANGELES, CA, 90022",142850503,"R"
25202,"1125 HAYES AVENUE","OAK PARK","IL",60302,41.9061502530001,-87.779416133,202,"1125 HAYES AVENUE, OAK PARK, IL, 60302","Match","Exact","1125 HAYES AVE, OAK PARK, IL, 60302",605116085,"L"
25203,"1125 HODIAMONT AVE","SAINT LOUIS","MO",63112,38.6644319590001,-90.29305183,203,"1125 HODIAMONT AVE, SAINT LOUIS, MO, 63112","Match","Exact","1125 HODIAMONT AVE, SAINT LOUIS, MO, 63112",107592518,"L"
25204,"1125 JACKRABBIT TRAIL","TWENTYNINE PALMS","CA",92277,34.2347641050001,-116.157247339,204,"1125 JACKRABBIT TRAIL, TWENTYNINE PALMS, CA, 92277","Match","Exact","1125 JACKRABBIT TRL, TWENTYNINE PALMS, CA, 92277",144730624,"R"
25205,"1125 JACKSON ST","ALBANY","CA",94706,37.8864739250001,-122.300553974,205,"1125 JACKSON ST, ALBANY, CA, 94706","Match","Exact","1125 JACKSON ST, ALBANY, CA, 94706",616917740,"L"
25206,"1125 JACKSON STREET","AURORA","IL",60505,41.734691551,-88.310458092,206,"1125 JACKSON STREET, AURORA, IL, 60505","Match","Exact","1125 JACKSON ST, AURORA, IL, 60505",119516311,"R"
25207,"1125 JEFFERSON AVENUE","BELLMAWR","NJ",8031,39.875711117,-75.113853346,207,"1125 JEFFERSON AVENUE, BELLMAWR, NJ, 8031","Match","Exact","1125 JEFFERSON AVE, BELLMAWR, NJ, 08031",134347519,"L"
25208,"1125 JEFFERSON DAVIS HWY STE 400","FREDERICKSBURG","VA",22401,38.381685099,-77.446233482,208,"1125 JEFFERSON DAVIS HWY STE 400, FREDERICKSBURG, VA, 22401","Match","Non_Exact","1125 JEFFERSON DAVIS HWY, FREDERICKSBURG, VA, 22405",25563921,"L"
25209,"1125 JUNEGRASS LN","CROWLEY","TX",76036,32.5628445350001,-97.37719251,209,"1125 JUNEGRASS LN, CROWLEY, TX, 76036","Match","Exact","1125 JUNEGRASS LN, CROWLEY, TX, 76036",627701520,"L"
25210,"1125 KELLY JOHNSON BLVD SUITE 105","COLORADO SPRINGS","CO",80920,38.9454475320001,-104.807891261,210,"1125 KELLY JOHNSON BLVD SUITE 105, COLORADO SPRINGS, CO, 80920","Match","Exact","1125 KELLY JOHNSON BLVD, CO SPGS, CO, 80920",610692989,"R"
25211,"1125 KENT AVE","NEW SHARON","IA",50207,41.491409451,-92.679039677,211,"1125 KENT AVE, NEW SHARON, IA, 50207","Match","Exact","1125 KENT AVE, NEW SHARON, IA, 50207",89383992,"L"
25212,"1125 KINZER ST","POPLAR BLUFF","MO",63901,36.7601550950001,-90.405958611,212,"1125 KINZER ST, POPLAR BLUFF, MO, 63901","Match","Exact","1125 KINZER ST, POPLAR BLUFF, MO, 63901",47385990,"R"
25213,"1125 LAUREL LANE","SAN LUIS OBISPO","CA",93401,35.262844063,-120.642404665,213,"1125 LAUREL LANE, SAN LUIS OBISPO, CA, 93401","Match","Exact","1125 LAUREL LN, SAN LUIS OBISPO, CA, 93401",642780222,"R"
25214,"1125 LEHIGH STREET","EASTON","PA",18042,40.687488386,-75.225012099,214,"1125 LEHIGH STREET, EASTON, PA, 18042","Match","Exact","1125 LEHIGH ST, EASTON, PA, 18042",136882941,"R"
25215,"1125 LILAC CT","VACAVILLE","CA",95687,38.316773776,-121.957355291,215,"1125 LILAC CT, VACAVILLE, CA, 95687","Match","Exact","1125 LILAC CT, VACAVILLE, CA, 95687",192561621,"R"
25216,"1125 LINWOOD AVE","LUMBERTON","NC",28358,34.625697389,-78.98553767,216,"1125 LINWOOD AVE, LUMBERTON, NC, 28358","Match","Exact","1125 LINWOOD AVE, LUMBERTON, NC, 28358",49145006,"L"
25217,"1125 LOCHBRAE ROAD APT 8","SACRAMENTO","CA",95815,38.6028574690001,-121.463372259,217,"1125 LOCHBRAE ROAD APT 8, SACRAMENTO, CA, 95815","Match","Exact","1125 LOCHBRAE RD, SACRAMENTO, CA, 95815",133324685,"L"
25218,"1125 LOCHBRAE ROAD","SACRAMENTO","CA",95815,38.6028574690001,-121.463372259,218,"1125 LOCHBRAE ROAD, SACRAMENTO, CA, 95815","Match","Exact","1125 LOCHBRAE RD, SACRAMENTO, CA, 95815",133324685,"L"
25219,"1125 LULLWATER ROAD NE","ATLANTA","GA",30307,33.7821837400001,-84.330537433,219,"1125 LULLWATER ROAD NE, ATLANTA, GA, 30307","Match","Exact","1125 LULLWATER RD NE, ATLANTA, GA, 30307",23412934,"L"
25220,"1125 MADISON 306","MARQUAND","MO",63655,37.3339331350001,-90.2999087809999,220,"1125 MADISON 306, MARQUAND, MO, 63655","Match","Exact","1125 MADISON 306, MARQUAND, MO, 63655",35278436,"R"
25221,"1125 MAIN ST","HAMILTON","OH",45013,39.415313505,-84.583787996,221,"1125 MAIN ST, HAMILTON, OH, 45013","Match","Exact","1125 MAIN ST, HAMILTON, OH, 45013",608966193,"L"
25222,"1125 MARTIN PLACE","ANN ARBOR","MI",48104,42.267861779,-83.7284672929999,222,"1125 MARTIN PLACE, ANN ARBOR, MI, 48104","Match","Exact","1125 MARTIN PL, ANN ARBOR, MI, 48104",26027748,"L"
25223,"1125 MAXWELL LANE APT 462","HOBOKEN","NJ",7030,40.7494550960001,-74.024868704,223,"1125 MAXWELL LANE APT 462, HOBOKEN, NJ, 7030","Match","Exact","1125 MAXWELL LN, HOBOKEN, NJ, 07030",624666183,"L"
25224,"1125 MAXWELL LANE APT 911","HOBOKEN","NJ",7030,40.7494550960001,-74.024868704,224,"1125 MAXWELL LANE APT 911, HOBOKEN, NJ, 7030","Match","Exact","1125 MAXWELL LN, HOBOKEN, NJ, 07030",624666183,"L"
25225,"1125 N 13TH STREET","ST JOSEPH","MO",64501,39.7765449190001,-94.8442054559999,225,"1125 N 13TH STREET, ST JOSEPH, MO, 64501","Match","Exact","1125 N 13TH ST, SAINT JOSEPH, MO, 64501",618535354,"R"
25226,"1125 N 3RD AVE","KELSO","WA",98626,46.152559561,-122.907651315,226,"1125 N 3RD AVE, KELSO, WA, 98626","Match","Exact","1125 N 3RD AVE, KELSO, WA, 98626",184490728,"L"
25227,"1125 N BROKATE RD","PORT CLINTON","OH",43452,41.531050635,-83.0773995869999,227,"1125 N BROKATE RD, PORT CLINTON, OH, 43452","Match","Exact","1125 N BROKATE RD, PORT CLINTON, OH, 43452",44075596,"R"
25228,"1125 N MAIN STREET 6-H","LAYTON","UT",84041,41.077450078,-111.984637515,228,"1125 N MAIN STREET 6-H, LAYTON, UT, 84041","Match","Non_Exact","1125 N MAIN ST, LAYTON, UT, 84041",611255480,"R"
25229,"1125 NE 125 STREET SUITE 208","NORTH MIAMI","FL",33161,25.8907375310001,-80.175164735,229,"1125 NE 125 STREET SUITE 208, NORTH MIAMI, FL, 33161","Match","Non_Exact","1125 NE 125TH ST, NORTH MIAMI, FL, 33161",116037314,"L"
25230,"1125 NE 125TH STREET","NORTH MIAMI","FL",33161,25.8907375310001,-80.175164735,230,"1125 NE 125TH STREET, NORTH MIAMI, FL, 33161","Match","Exact","1125 NE 125TH ST, NORTH MIAMI, FL, 33161",116037314,"L"
25231,"1125 NE 16TH PLACE","FORT LAUDEDALE","FL",33305,26.148973276,-80.132691468,231,"1125 NE 16TH PLACE, FORT LAUDEDALE, FL, 33305","Match","Non_Exact","1125 NE 16TH PL, FORT LAUDERDALE, FL, 33305",114722295,"L"
25232,"1125 NEHOA STEET","HONOLULU","HI",96822,21.309980969,-157.837713571,232,"1125 NEHOA STEET, HONOLULU, HI, 96822","Match","Exact","1125 NEHOA ST, HONOLULU, HI, 96822",203237271,"R"
25233,"1125 NEW GRADY BROWN SCHOOL RD","HILLSBOROUGH","NC",27278,36.052300856,-79.137035918,233,"1125 NEW GRADY BROWN SCHOOL RD, HILLSBOROUGH, NC, 27278","Match","Exact","1125 NEW GRADY BROWN SCHOOL RD, HILLSBOROUGH, NC, 27278",72410738,"L"
25234,"1125 NORTH GOLDEN STATE BLVD STE F","TURLOCK","CA",95380,37.5037820750001,-120.854741225,234,"1125 NORTH GOLDEN STATE BLVD STE F, TURLOCK, CA, 95380","Match","Exact","1125 N GOLDEN STATE BLVD, TURLOCK, CA, 95380",102594446,"R"
25235,"1125 OLE JULE LANE","MATTITUCK","NY",11952,40.9878848490001,-72.528629745,235,"1125 OLE JULE LANE, MATTITUCK, NY, 11952","Match","Exact","1125 OLE JULE LN, MATTITUCK, NY, 11952",113955670,"L"
25236,"1125 PAR THREE DR S","WILSON","NC",27893,35.689793202,-77.942436,236,"1125 PAR THREE DR S, WILSON, NC, 27893","Match","Exact","1125 PAR THREE DR S, WILSON, NC, 27893",26707025,"L"
25237,"1125 PARK DRIVE","PALMYRA","PA",17078,40.3001016040001,-76.585203314,237,"1125 PARK DRIVE, PALMYRA, PA, 17078","Match","Exact","1125 PARK DR, PALMYRA, PA, 17078",80671434,"L"
25238,"1125 PESTANA AVE","MANTECA","CA",95336,37.812445994,-121.189827184,238,"1125 PESTANA AVE, MANTECA, CA, 95336","Match","Exact","1125 PESTANA AVE, MANTECA, CA, 95336",133882924,"R"
25239,"1125 PINE VIEW DRIVE","LONG LAKE","MN",55356,44.998598466,-93.5915222,239,"1125 PINE VIEW DRIVE, LONG LAKE, MN, 55356","Match","Exact","1125 PINE VIEW DR, LONG LAKE, MN, 55356",647077204,"L"
25240,"1125 PINNIX ROAD","JONESVILLE","NC",28642,36.195856894,-80.879129483,240,"1125 PINNIX ROAD, JONESVILLE, NC, 28642","Match","Exact","1125 PINNIX RD, JONESVILLE, NC, 28642",46151792,"L"
25241,"1125 QUAIL RUN","DEKALB","IL",60115,41.91720938,-88.777345681,241,"1125 QUAIL RUN, DEKALB, IL, 60115","Match","Exact","1125 QUAIL RUN, DEKALB, IL, 60115",52275473,"R"
25242,"1125 RED FERN ROAD","CAMPBELLSVILLE","KY",42718,37.3892735060001,-85.333091569,242,"1125 RED FERN ROAD, CAMPBELLSVILLE, KY, 42718","Match","Exact","1125 RED FERN RD, CAMPBELLSVILLE, KY, 42718",650338575,"R"
25243,"1125 ROSELYN AVE WEST APT 10","ROSEVILLE","MN",55113,NA,NA,243,"1125 ROSELYN AVE WEST APT 10, ROSEVILLE, MN, 55113","No_Match",NA,NA,NA,NA
25244,"1125 ROSEMARY ST 1","DENVER","CO",80220,39.7336773760001,-104.899887288,244,"1125 ROSEMARY ST 1, DENVER, CO, 80220","Match","Exact","1125 ROSEMARY ST, DENVER, CO, 80220",177313547,"L"
25245,"1125 ROSEWOOD LANE","LANCASTER","TX",75146,32.6003423170001,-96.779724221,245,"1125 ROSEWOOD LANE, LANCASTER, TX, 75146","Match","Exact","1125 ROSEWOOD LN, LANCASTER, TX, 75146",102955173,"L"
25246,"1125 RURITAN ROAD","HARRIMAN","TN",37748,35.909244948,-84.560967137,246,"1125 RURITAN ROAD, HARRIMAN, TN, 37748","Match","Exact","1125 RURITAN RD, HARRIMAN, TN, 37748",88589028,"R"
25247,"1125 S BRITAIN ROAD","SOUTHBURY","CT",6488,41.482236759,-73.257494654,247,"1125 S BRITAIN ROAD, SOUTHBURY, CT, 6488","Match","Exact","1125 S BRITAIN RD, SOUTHBURY, CT, 06488",3758305,"R"
25248,"1125 S FARRAGUT","RIDGECREST","CA",93555,35.6036817020001,-117.692977936,248,"1125 S FARRAGUT, RIDGECREST, CA, 93555","Match","Non_Exact","1125 S FARRAGUT ST, RIDGECREST, CA, 93555",109036824,"R"
25249,"1125 S MARIPOSA AVE","LOS ANGELES","CA",90010,34.05035359,-118.298933293,249,"1125 S MARIPOSA AVE, LOS ANGELES, CA, 90010","Match","Non_Exact","1125 S MARIPOSA AVE, LOS ANGELES, CA, 90006",141604102,"R"
25250,"1125 SANCTUARY PKWY STE 100","ALPHARETTA","GA",30009,34.0517788130001,-84.309381205,250,"1125 SANCTUARY PKWY STE 100, ALPHARETTA, GA, 30009","Match","Exact","1125 SANCTUARY PKWY, ALPHARETTA, GA, 30009",642691554,"L"
25251,"1125 SE 27TH AVE","MILWAUKIE","OR",97222,NA,NA,251,"1125 SE 27TH AVE, MILWAUKIE, OR, 97222","No_Match",NA,NA,NA,NA
25252,"1125 SE MADISON STE 103B","PORTLAND","OR",97214,NA,NA,252,"1125 SE MADISON STE 103B, PORTLAND, OR, 97214","No_Match",NA,NA,NA,NA
25253,"1125 SE MADISON STREET SUITE 103C","PORTLAND","OR",97214,45.5129320460001,-122.654395344,253,"1125 SE MADISON STREET SUITE 103C, PORTLAND, OR, 97214","Match","Non_Exact","1125 SE MADISON ST, PORTLAND, OR, 97214",157508383,"L"
25254,"1125 SE WESTBROOK DRIVE SUITE A2","WAUKEE","IA",50263,NA,NA,254,"1125 SE WESTBROOK DRIVE SUITE A2, WAUKEE, IA, 50263","No_Match",NA,NA,NA,NA
25255,"1125 SHAFFERSVILLE RD","MOUNT AIRY","MD",21771,39.341888845,-77.133825752,255,"1125 SHAFFERSVILLE RD, MOUNT AIRY, MD, 21771","Match","Exact","1125 SHAFFERSVILLE RD, MOUNT AIRY, MD, 21771",158952061,"L"
25256,"1125 SPRING LILLY CT","HIGH RIDGE","MO",63049,38.5078727210001,-90.5037928959999,256,"1125 SPRING LILLY CT, HIGH RIDGE, MO, 63049","Match","Exact","1125 SPRING LILLY CT, HIGH RIDGE, MO, 63049",617836999,"R"
25257,"1125 STARWOOD PASS","LAKE IN THE HILLS","IL",60156,NA,NA,257,"1125 STARWOOD PASS, LAKE IN THE HILLS, IL, 60156","No_Match",NA,NA,NA,NA
25258,"1125 STATE RD UNIT 2","WESTPORT","MA",2790,41.6461997380001,-71.059418663,258,"1125 STATE RD UNIT 2, WESTPORT, MA, 2790","Match","Exact","1125 STATE RD, WESTPORT, MA, 02790",46804591,"L"
25259,"1125 STRICKLAND DRIVE","AUSTIN","TX",78748,30.182904987,-97.8056085429999,259,"1125 STRICKLAND DRIVE, AUSTIN, TX, 78748","Match","Exact","1125 STRICKLAND DR, AUSTIN, TX, 78748",63990973,"R"
25260,"1125 SUNNYSIDE DR","KALISPELL","MT",59901,48.182232798,-114.325496327,260,"1125 SUNNYSIDE DR, KALISPELL, MT, 59901","Match","Exact","1125 SUNNYSIDE DR, KALISPELL, MT, 59901",204128079,"L"
25261,"1125 SUNSET AVE","SANTA MONICA","CA",90405,34.006126314,-118.469644467,261,"1125 SUNSET AVE, SANTA MONICA, CA, 90405","Match","Exact","1125 SUNSET AVE, SANTA MONICA, CA, 90405",640425519,"L"
25262,"1125 TEMPLETON PL","CHESTERFIELD","MO",63017,38.6272580730001,-90.496595073,262,"1125 TEMPLETON PL, CHESTERFIELD, MO, 63017","Match","Exact","1125 TEMPLETON PL, CHESTERFIELD, MO, 63017",100179396,"R"
25263,"1125 TEMPLETON PLACE","TOWN AND COUNTRY","MO",63017,38.6272580730001,-90.496595073,263,"1125 TEMPLETON PLACE, TOWN AND COUNTRY, MO, 63017","Match","Exact","1125 TEMPLETON PL, TOWN AND COUNTRY, MO, 63017",100179396,"R"
25264,"1125 TRENTON AVE","CORONA","CA",92880,33.910337414,-117.58987102,264,"1125 TRENTON AVE, CORONA, CA, 92880","Match","Non_Exact","1125 TRENTON AVE, CORONA, CA, 92878",651720558,"L"
25265,"1125 W 25TH STREET","JACKSONVILLE","FL",32209,30.3596207050001,-81.671464874,265,"1125 W 25TH STREET, JACKSONVILLE, FL, 32209","Match","Exact","1125 W 25TH ST, JACKSONVILLE, FL, 32209",83895735,"R"
25266,"1125 W SAN ANTONIO ST","LOCKHART","TX",78644,29.8831723800001,-97.686928089,266,"1125 W SAN ANTONIO ST, LOCKHART, TX, 78644","Match","Exact","1125 W SAN ANTONIO ST, LOCKHART, TX, 78644",45531023,"L"
25267,"1125 W VERSILIA DR","ORO VALLEY","AZ",85755,32.452448926,-110.989133005,267,"1125 W VERSILIA DR, ORO VALLEY, AZ, 85755","Match","Exact","1125 W VERSILIA DR, ORO VALLEY, AZ, 85755",617656851,"R"
25268,"1125 WEST 185TH PLACE","HOMEWOOD","IL",60430,41.5524970540001,-87.643393101,268,"1125 WEST 185TH PLACE, HOMEWOOD, IL, 60430","Match","Non_Exact","1125 185TH PL, HOMEWOOD, IL, 60430",111712741,"L"
25269,"1125 WEST CANTERFIELD PARKWAY WEST","WEST DUNDEE","IL",60118,NA,NA,269,"1125 WEST CANTERFIELD PARKWAY WEST, WEST DUNDEE, IL, 60118","No_Match",NA,NA,NA,NA
25270,"1125 WESTPORT DRIVE SUITE B","MANHATTAN","KS",66502,NA,NA,270,"1125 WESTPORT DRIVE SUITE B, MANHATTAN, KS, 66502","No_Match",NA,NA,NA,NA
25271,"1125 WESTPORT DRIVE","MANHATTAN","KS",66502,NA,NA,271,"1125 WESTPORT DRIVE, MANHATTAN, KS, 66502","No_Match",NA,NA,NA,NA
25272,"1125 WHEATON OAKS COURT","WHEATON","IL",60187,41.8762477110001,-88.120508894,272,"1125 WHEATON OAKS COURT, WHEATON, IL, 60187","Match","Exact","1125 WHEATON OAKS CT, WHEATON, IL, 60187",112521234,"R"
25273,"11250 5TH STREET NE","HANOVER","MN",55341,45.159648313,-93.6601244249999,273,"11250 5TH STREET NE, HANOVER, MN, 55341","Match","Exact","11250 5TH ST NE, HANOVER, MN, 55341",652845684,"L"
25274,"11250 BRIAR FOREST DRIVE UNIT 101","TEXAS","TX",77042,29.747942833,-95.5761107599999,274,"11250 BRIAR FOREST DRIVE UNIT 101, TEXAS, TX, 77042","Match","Non_Exact","11250 BRIAR FOREST DR, HOUSTON, TX, 77042",96619128,"L"
25275,"11250 E QR AVE","SCOTTS","MI",49088,42.1970477340001,-85.407197034,275,"11250 E QR AVE, SCOTTS, MI, 49088","Match","Exact","11250 E QR AVE, SCOTTS, MI, 49088",12233273,"L"
25276,"11250 FRED LANE","MISSOULA","MT",59808,46.9794651880001,-114.154340272,276,"11250 FRED LANE, MISSOULA, MT, 59808","Match","Exact","11250 FRED LN, MISSOULA, MT, 59808",627261744,"L"
25277,"11250 LADY JANE LOOP APT 302","MANASSAS","VA",20109,38.7798920920001,-77.531086161,277,"11250 LADY JANE LOOP APT 302, MANASSAS, VA, 20109","Match","Exact","11250 LADY JANE LOOP, MANASSAS, VA, 20109",207162792,"R"
25278,"11250 N 56TH STREET","TEMPLE TERRACE","FL",33617,28.0498759340001,-82.393679227,278,"11250 N 56TH STREET, TEMPLE TERRACE, FL, 33617","Match","Exact","11250 N 56TH ST, TEMPLE TER, FL, 33617",104532413,"L"
25279,"11250 OLD ST AUGUSTINE ROAD 15213","JACKSONVILLE","FL",32257,30.1686914270001,-81.6022871,279,"11250 OLD ST AUGUSTINE ROAD 15213, JACKSONVILLE, FL, 32257","Match","Exact","11250 ST AUGUSTINE RD, JACKSONVILLE, FL, 32257",83965670,"R"
25280,"11250 PLAYA ST SPC 103","CULVER CITY","CA",90230,33.992207701,-118.391911949,280,"11250 PLAYA ST SPC 103, CULVER CITY, CA, 90230","Match","Exact","11250 PLAYA ST, CULVER CITY, CA, 90230",141578955,"L"
25281,"11250 SE 27TH AVE","MILWAUKIE","OR",97089,45.44203294,-122.634857389,281,"11250 SE 27TH AVE, MILWAUKIE, OR, 97089","Match","Non_Exact","11250 SE 27TH AVE, MILWAUKIE, OR, 97222",157912824,"L"
25282,"11250 SOUTH AVALON BLVD","LOS ANGELES","CA",90061,33.932091659,-118.265146141,282,"11250 SOUTH AVALON BLVD, LOS ANGELES, CA, 90061","Match","Non_Exact","11250 AVALON BLVD, LOS ANGELES, CA, 90061",141673161,"L"
25283,"11250 W SANDBY GREEN PL","MARANA","AZ",85653,32.4308558720001,-111.205604826,283,"11250 W SANDBY GREEN PL, MARANA, AZ, 85653","Match","Exact","11250 W SANDBY GREEN PL, MARANA, AZ, 85653",627443847,"L"
25284,"11250 WEST RD UNIT E","HOUSTON","TX",77065,29.909953365,-95.5865425979999,284,"11250 WEST RD UNIT E, HOUSTON, TX, 77065","Match","Exact","11250 WEST RD, HOUSTON, TX, 77065",642107175,"R"
25285,"11251 120TH AVE NE SUITE 150","KIRKLAND","WA",98033,47.7010563580001,-122.181174355,285,"11251 120TH AVE NE SUITE 150, KIRKLAND, WA, 98033","Match","Exact","11251 120TH AVE NE, KIRKLAND, WA, 98033",186603848,"L"
25286,"11251 CRYSTAL SPRINGS RD","KLAMATH FALLS","OR",97603,42.1553906240001,-121.649107017,286,"11251 CRYSTAL SPRINGS RD, KLAMATH FALLS, OR, 97603","Match","Exact","11251 CRYSTAL SPRINGS RD, KLAMATH FALLS, OR, 97603",639137866,"R"
25287,"11251 DOLFIELD BLVD","OWINGS MILLS","MD",21117,39.4201335920001,-76.807883089,287,"11251 DOLFIELD BLVD, OWINGS MILLS, MD, 21117","Match","Exact","11251 DOLFIELD BLVD, OWINGS MILLS, MD, 21117",641697338,"L"
25288,"11251 EAST ZEPHYR PLACE","TUCSON","AZ",85749,32.286655438,-110.752146924,288,"11251 EAST ZEPHYR PLACE, TUCSON, AZ, 85749","Match","Exact","11251 E ZEPHYR PL, TUCSON, AZ, 85749",121192587,"L"
25289,"11251 RANCHO CARMEL DRIVE - 501304","SAN DIEGO","CA",92150,NA,NA,289,"11251 RANCHO CARMEL DRIVE - 501304, SAN DIEGO, CA, 92150","No_Match",NA,NA,NA,NA
25290,"11251 RANCHO CARMEL DRIVE - 501945","SAN DIEGO","CA",92150,NA,NA,290,"11251 RANCHO CARMEL DRIVE - 501945, SAN DIEGO, CA, 92150","No_Match",NA,NA,NA,NA
25291,"11251 S NANDINA AVE","JENKS","OK",74037,36.001470376,-95.988673118,291,"11251 S NANDINA AVE, JENKS, OK, 74037","Match","Exact","11251 S NANDINA AVE, JENKS, OK, 74037",640185069,"L"
25292,"11251 SIERRA AVE APT 2E-534","FONTANA","CA",92337,34.0494264340001,-117.435419851,292,"11251 SIERRA AVE APT 2E-534, FONTANA, CA, 92337","Match","Exact","11251 SIERRA AVE, FONTANA, CA, 92337",653170990,"L"
25293,"11251 SIERRA AVE SUITE 2E-333","FONTANA","CA",92337,34.0494264340001,-117.435419851,293,"11251 SIERRA AVE SUITE 2E-333, FONTANA, CA, 92337","Match","Exact","11251 SIERRA AVE, FONTANA, CA, 92337",653170990,"L"
25294,"11252 LAKESHORE SOUTH","AUBURN","CA",95602,39.0348977130001,-121.071002941,294,"11252 LAKESHORE SOUTH, AUBURN, CA, 95602","Match","Exact","11252 LAKESHORE S, AUBURN, CA, 95602",106558644,"R"
25295,"11252 LYNCHBURG WAY","INDIANAPOLIS","IN",46229,39.7852841420001,-85.965352243,295,"11252 LYNCHBURG WAY, INDIANAPOLIS, IN, 46229","Match","Exact","11252 LYNCHBURG WAY, INDIANAPOLIS, IN, 46229",108030484,"L"
25296,"11252 MARBELLA DRIVE 9","SAINT LOUIS","MO",63138,38.7757799770001,-90.215500488,296,"11252 MARBELLA DRIVE 9, SAINT LOUIS, MO, 63138","Match","Exact","11252 MARBELLA DR, SAINT LOUIS, MO, 63138",100148974,"R"
25297,"11252 REDSKIN LANE       G","INDIANAPOLIS","IN",46235,39.8135754080001,-85.9665416939999,297,"11252 REDSKIN LANE       G, INDIANAPOLIS, IN, 46235","Match","Exact","11252 REDSKIN LN, INDIANAPOLIS, IN, 46235",108035739,"R"
25298,"11252 YOLANDA AVENUE","PORTER RANCH","CA",91326,34.273684513,-118.545324926,298,"11252 YOLANDA AVENUE, PORTER RANCH, CA, 91326","Match","Exact","11252 YOLANDA AVE, PORTER RANCH, CA, 91326",141539410,"R"
25299,"11253 BEACON DRIVE","JACKSONVILLE","FL",32225,30.3786083430001,-81.5153239799999,299,"11253 BEACON DRIVE, JACKSONVILLE, FL, 32225","Match","Exact","11253 BEACON DR, JACKSONVILLE, FL, 32225",83937596,"R"
25300,"11253 FOREMARK DR","BLUE ASH","OH",45241,39.2722825130001,-84.3839456699999,300,"11253 FOREMARK DR, BLUE ASH, OH, 45241","Match","Exact","11253 FOREMARK DR, BLUE ASH, OH, 45241",103945011,"L"
25301,"11253 PLOVER CIRCLE","PARKER","CO",80134,39.5139320930001,-104.802126551,301,"11253 PLOVER CIRCLE, PARKER, CO, 80134","Match","Exact","11253 PLOVER CIR, PARKER, CO, 80134",639582681,"L"
25302,"11254 ALGA CT","LAS VEGAS","NV",89141,35.985170919,-115.186788598,302,"11254 ALGA CT, LAS VEGAS, NV, 89141","Match","Exact","11254 ALGA CT, LAS VEGAS, NV, 89141",201997841,"L"
25303,"11254 GOTHIC AVENUE","GRANADA HILLS","CA",91344,34.275078771,-118.488460202,303,"11254 GOTHIC AVENUE, GRANADA HILLS, CA, 91344","Match","Exact","11254 GOTHIC AVE, GRANADA HILLS, CA, 91344",141762842,"R"
25304,"11255 NW 1ST TERR","MIAMI","FL",33172,25.7699868070001,-80.379229129,304,"11255 NW 1ST TERR, MIAMI, FL, 33172","Match","Exact","11255 NW 1ST TER, MIAMI, FL, 33172",116049026,"R"
25305,"11256 BOWEN ROAD","MANTUA","OH",44255,41.298051038,-81.2330772879999,305,"11256 BOWEN ROAD, MANTUA, OH, 44255","Match","Exact","11256 BOWEN RD, MANTUA, OH, 44255",137544738,"R"
25306,"11256 BOYETTE RD","RIVERVIEW","FL",33569,27.8535151140001,-82.3132132969999,306,"11256 BOYETTE RD, RIVERVIEW, FL, 33569","Match","Exact","11256 BOYETTE RD, RIVERVIEW, FL, 33569",104574797,"R"
25307,"11256 CALAIS CIRCLE","HIGHLAND","UT",84003,40.4368786270001,-111.817648225,307,"11256 CALAIS CIRCLE, HIGHLAND, UT, 84003","Match","Exact","11256 CALAIS CIR, HIGHLAND, UT, 84003",629663646,"R"
25308,"11256 KLING STREET","LOS ANGELES","CA",91602,34.1555465600001,-118.376364538,308,"11256 KLING STREET, LOS ANGELES, CA, 91602","Match","Non_Exact","11256 KLING ST, TOLUCA LAKE, CA, 91602",141565147,"L"
25309,"11256 S 73RD EAST CT","BIXBY","OK",74008,36.0000284880001,-95.892894547,309,"11256 S 73RD EAST CT, BIXBY, OK, 74008","Match","Exact","11256 S 73RD EAST CT, BIXBY, OK, 74008",623704442,"R"
25310,"11256 S PARNELL AVE","CHICAGO","IL",60628,41.6895779970001,-87.636251832,310,"11256 S PARNELL AVE, CHICAGO, IL, 60628","Match","Exact","11256 S PARNELL AVE, CHICAGO, IL, 60628",111833579,"R"
25311,"11256 SW 238 ST","HOMESTEAD","FL",33032,25.5461649170001,-80.373258619,311,"11256 SW 238 ST, HOMESTEAD, FL, 33032","Match","Exact","11256 SW 238TH ST, HOMESTEAD, FL, 33032",625213403,"R"
25312,"11258 BOSTON WAY","FISHERS","IN",46038,39.951087181,-86.022005226,312,"11258 BOSTON WAY, FISHERS, IN, 46038","Match","Exact","11258 BOSTON WAY, FISHERS, IN, 46038",29329823,"R"
25313,"11258 PINGWOOD AVE","SANTA FE SPRINGS","CA",90670,NA,NA,313,"11258 PINGWOOD AVE, SANTA FE SPRINGS, CA, 90670","No_Match",NA,NA,NA,NA
25314,"11258 THYME DRIVE","PALM BEACH GARDENS","FL",33418,NA,NA,314,"11258 THYME DRIVE, PALM BEACH GARDENS, FL, 33418","No_Match",NA,NA,NA,NA
25315,"11259 W PARK RANGE ROAD","LITTLETON","CO",80127,39.5793426020001,-105.124870817,315,"11259 W PARK RANGE ROAD, LITTLETON, CO, 80127","Match","Exact","11259 W PARK RANGE RD, LITTLETON, CO, 80127",177322821,"R"
25316,"112597","CARROLLTON","TX",75011,NA,NA,316,"112597, CARROLLTON, TX, 75011","No_Match",NA,NA,NA,NA
25317,"11259N STATE RD 77","HAYWARD","WI",54843,46.0697861610001,-91.239403844,317,"11259N STATE RD 77, HAYWARD, WI, 54843","Match","Exact","11259 STATE RD 77, HAYWARD, WI, 54843",194436619,"L"
25318,"1125A INMAN AVENUE","EDISON","NJ",8820,40.5968375840001,-74.3654177829999,318,"1125A INMAN AVENUE, EDISON, NJ, 8820","Match","Exact","1125 INMAN AVE, EDISON, NJ, 08820",60298844,"L"
25319,"1126 19TH STREET NE","CANTON","OH",44714,40.8186819530001,-81.361819853,319,"1126 19TH STREET NE, CANTON, OH, 44714","Match","Exact","1126 19TH ST NE, CANTON, OH, 44714",64679626,"R"
25320,"1126 4TH AVENUE UNIT 6","LOS ANGELES","CA",90019,34.0504645560001,-118.319826837,320,"1126 4TH AVENUE UNIT 6, LOS ANGELES, CA, 90019","Match","Exact","1126 4TH AVE, LOS ANGELES, CA, 90019",642861853,"L"
25321,"1126 7TH AVENUE N","SAINT CLOUD","MN",56303,45.5708244350001,-94.169638972,321,"1126 7TH AVENUE N, SAINT CLOUD, MN, 56303","Match","Exact","1126 7TH AVE N, SAINT CLOUD, MN, 56303",107414233,"R"
25322,"1126 8TH AVENUE WEST","SEATTLE","WA",98119,NA,NA,322,"1126 8TH AVENUE WEST, SEATTLE, WA, 98119","No_Match",NA,NA,NA,NA
25323,"1126 9TH STREET","COLUMBUS","IN",47201,39.207791382,-85.911794647,323,"1126 9TH STREET, COLUMBUS, IN, 47201","Match","Exact","1126 9TH ST, COLUMBUS, IN, 47201",606472396,"R"
25324,"1126 ARBORETUM DRIVE","WILMINGTON","NC",28405,34.2401882880001,-77.8034769349999,324,"1126 ARBORETUM DRIVE, WILMINGTON, NC, 28405","Match","Exact","1126 ARBORETUM DR, WILMINGTON, NC, 28405",152740087,"L"
25325,"1126 BEL AIR DR","SANTA BARBARA","CA",93105,34.4186685620001,-119.729273711,325,"1126 BEL AIR DR, SANTA BARBARA, CA, 93105","Match","Exact","1126 BEL AIR DR, SANTA BARBARA, CA, 93105",652033071,"R"
25326,"1126 BILTSDALE COURT","APOPKA","FL",32712,28.684350545,-81.490458817,326,"1126 BILTSDALE COURT, APOPKA, FL, 32712","Match","Exact","1126 BILTSDALE CT, APOPKA, FL, 32712",94415788,"R"
25327,"1126 BRADO DRIVE","COLLIERVILLE","TN",38017,35.0700155050001,-89.678150972,327,"1126 BRADO DRIVE, COLLIERVILLE, TN, 38017","Match","Exact","1126 BRADO DR, COLLIERVILLE, TN, 38017",72933570,"R"
25328,"1126 CALLE ORIENTE","MILPITAS","CA",95035,37.4460057220001,-121.889456256,328,"1126 CALLE ORIENTE, MILPITAS, CA, 95035","Match","Non_Exact","1126 CLL ORIENTE, MILPITAS, CA, 95035",615536621,"R"
25329,"1126 CATHEDRAL POINT DRIVE","VERONA","WI",53593,42.969068609,-89.5244194639999,329,"1126 CATHEDRAL POINT DRIVE, VERONA, WI, 53593","Match","Exact","1126 CATHEDRAL POINT DR, VERONA, WI, 53593",618565677,"L"
25330,"1126 CENTRAL AVE","SARASOTA","FL",34236,27.3472819790001,-82.542668459,330,"1126 CENTRAL AVE, SARASOTA, FL, 34236","Match","Exact","1126 CENTRAL AVE, SARASOTA, FL, 34236",629965889,"R"
25331,"1126 CHARLESTON RIDGE DRIVE","MCDONOUGH","GA",30252,33.489023506,-84.082034656,331,"1126 CHARLESTON RIDGE DRIVE, MCDONOUGH, GA, 30252","Match","Exact","1126 CHARLESTON RIDGE, MCDONOUGH, GA, 30252",632076966,"R"
25332,"1126 CHARLESTON RIDGE","MCDONOUGH","GA",30252,33.489023506,-84.082034656,332,"1126 CHARLESTON RIDGE, MCDONOUGH, GA, 30252","Match","Exact","1126 CHARLESTON RIDGE, MCDONOUGH, GA, 30252",632076966,"R"
25333,"1126 COLUMBINE DR","GARLAND","TX",75043,32.859077239,-96.590756698,333,"1126 COLUMBINE DR, GARLAND, TX, 75043","Match","Exact","1126 COLUMBINE DR, GARLAND, TX, 75043",102932816,"R"
25334,"1126 COREY DR","BLAIR","NE",68008,41.5535224910001,-96.129412579,334,"1126 COREY DR, BLAIR, NE, 68008","Match","Exact","1126 COREY DR, BLAIR, NE, 68008",176765087,"R"
25335,"1126 CORSHAM CIRCLE","AKRON","OH",44113,40.9811962420001,-81.482637374,335,"1126 CORSHAM CIRCLE, AKRON, OH, 44113","Match","Non_Exact","1126 CORSHAM CIR, AKRON, OH, 44312",61387286,"L"
25336,"1126 CUMBERLAND ST","SAINT PAUL","MN",55117,44.9745033290001,-93.1174452769999,336,"1126 CUMBERLAND ST, SAINT PAUL, MN, 55117","Match","Exact","1126 CUMBERLAND ST, SAINT PAUL, MN, 55117",97643952,"R"
25337,"1126 DALGETY STREET","CORONA","CA",92882,33.845694515,-117.589001085,337,"1126 DALGETY STREET, CORONA, CA, 92882","Match","Exact","1126 DALGETY ST, CORONA, CA, 92882",608985635,"R"
25338,"1126 DORALEE WAY","SAN JOSE","CA",95125,37.283865495,-121.884362153,338,"1126 DORALEE WAY, SAN JOSE, CA, 95125","Match","Exact","1126 DORALEE WAY, SAN JOSE, CA, 95125",122910519,"L"
25339,"1126 E 33RD","ERIE","PA",16504,42.1150200880001,-80.044139278,339,"1126 E 33RD, ERIE, PA, 16504","Match","Non_Exact","1126 E 33RD ST, ERIE, PA, 16504",117524005,"L"
25340,"1126 EAST LAURELTON PKWY","TEANECK","NJ",7666,40.8968648170001,-74.014549971,340,"1126 EAST LAURELTON PKWY, TEANECK, NJ, 7666","Match","Exact","1126 E LAURELTON PKWY, TEANECK, NJ, 07666",64388898,"L"
25341,"1126 EL PRADO COURT","SAN JOSE","CA",95120,37.2268089560001,-121.870638398,341,"1126 EL PRADO COURT, SAN JOSE, CA, 95120","Match","Exact","1126 EL PRADO CT, SAN JOSE, CA, 95120",122922775,"R"
25342,"1126 ENCHANTED DRIVE","LAKELAND","FL",33801,28.0575913050001,-81.9009222399999,342,"1126 ENCHANTED DRIVE, LAKELAND, FL, 33801","Match","Exact","1126 ENCHANTED DR, LAKELAND, FL, 33801",636407526,"L"
25343,"1126 FAIRFIELD MEADOWS DRIVE","WESTON","FL",33327,26.1324068980001,-80.409696008,343,"1126 FAIRFIELD MEADOWS DRIVE, WESTON, FL, 33327","Match","Exact","1126 FAIRFIELD MEADOWS DR, WESTON, FL, 33327",114789206,"R"
25344,"1126 GENEVA STREET","GLENDALE","CA",91207,34.1616430780001,-118.246686224,344,"1126 GENEVA STREET, GLENDALE, CA, 91207","Match","Exact","1126 GENEVA ST, GLENDALE, CA, 91207",141609345,"R"
25345,"1126 HADLEY STREET APT E","ST LOUIS","MO",63101,38.6364379250001,-90.1941283639999,345,"1126 HADLEY STREET APT E, ST LOUIS, MO, 63101","Match","Exact","1126 HADLEY ST, SAINT LOUIS, MO, 63101",107605033,"R"
25346,"1126 HARRISON STREET","PADUCAH","KY",42001,37.086637544,-88.610868505,346,"1126 HARRISON STREET, PADUCAH, KY, 42001","Match","Exact","1126 HARRISON ST, PADUCAH, KY, 42001",8396841,"R"
25347,"1126 HUNTINGTON DR","RICHARDSON","TX",75080,32.976085717,-96.757971512,347,"1126 HUNTINGTON DR, RICHARDSON, TX, 75080","Match","Exact","1126 HUNTINGTON DR, RICHARDSON, TX, 75080",102896396,"R"
25348,"1126 JOHN STREET","ROCK HILL","SC",29732,34.9525505980001,-81.02139061,348,"1126 JOHN STREET, ROCK HILL, SC, 29732","Match","Exact","1126 JOHN ST, ROCK HILL, SC, 29732",19791724,"R"
25349,"1126 LELAND AVENUE","NASHVILLE","TN",37216,36.2036029280001,-86.735985012,349,"1126 LELAND AVENUE, NASHVILLE, TN, 37216","Match","Exact","1126 LELAND AVE, NASHVILLE, TN, 37216",606366728,"R"
25350,"1126 LONGFORD CIRCLE","SOUTHLAKE","TX",76092,32.9290189320001,-97.137149634,350,"1126 LONGFORD CIRCLE, SOUTHLAKE, TX, 76092","Match","Exact","1126 LONGFORD CIR, SOUTHLAKE, TX, 76092",102109711,"R"
25351,"1126 MESABA AVE APT 214","DULUTH","MN",55811,46.7957455970001,-92.106993777,351,"1126 MESABA AVE APT 214, DULUTH, MN, 55811","Match","Exact","1126 MESABA AVE, DULUTH, MN, 55811",163214215,"R"
25352,"1126 MISSOURI STREET","FAIRFIELD","CA",94533,38.2481417340001,-122.047629682,352,"1126 MISSOURI STREET, FAIRFIELD, CA, 94533","Match","Exact","1126 MISSOURI ST, FAIRFIELD, CA, 94533",192536860,"R"
25353,"1126 MOON CT","MILPITAS","CA",95035,37.41378215,-121.905397125,353,"1126 MOON CT, MILPITAS, CA, 95035","Match","Exact","1126 MOON CT, MILPITAS, CA, 95035",122961382,"L"
25354,"1126 N ARDENWOOD APT A","BATON ROUGE","LA",70806,NA,NA,354,"1126 N ARDENWOOD APT A, BATON ROUGE, LA, 70806","No_Match",NA,NA,NA,NA
25355,"1126 N BROADWAY BLDG A","SPRINGFIELD","MO",65802,NA,NA,355,"1126 N BROADWAY BLDG A, SPRINGFIELD, MO, 65802","No_Match",NA,NA,NA,NA
25356,"1126 N SECOND ST","EL CAJON","CA",92021,32.8102661250001,-116.935732845,356,"1126 N SECOND ST, EL CAJON, CA, 92021","Match","Exact","1126 N 2ND ST, EL CAJON, CA, 92021",195333308,"L"
25357,"1126 NIPOMO","LOS OSOS","CA",93402,35.3169126270001,-120.830403631,357,"1126 NIPOMO, LOS OSOS, CA, 93402","Match","Non_Exact","1126 NIPOMO AVE, LOS OSOS, CA, 93402",109729838,"R"
25358,"1126 NW 1ST AVE","FORT LAUDERDALE","FL",33311,26.1391287210001,-80.145235156,358,"1126 NW 1ST AVE, FORT LAUDERDALE, FL, 33311","Match","Exact","1126 NW 1ST AVE, FORT LAUDERDALE, FL, 33311",114787122,"R"
25359,"1126 NW 30TH PLACE","MIAMI","FL",33125,25.783248443,-80.2456397079999,359,"1126 NW 30TH PLACE, MIAMI, FL, 33125","Match","Exact","1126 NW 30TH PL, MIAMI, FL, 33125",116011148,"L"
25360,"1126 OAKMONT DRIVE","LANCASTER","PA",17601,40.0714703570001,-76.2820045349999,360,"1126 OAKMONT DRIVE, LANCASTER, PA, 17601","Match","Exact","1126 OAKMONT DR, LANCASTER, PA, 17601",179689331,"R"
25361,"1126 OTTO GRAHAM LANE","ZION","IL",60099,42.425127499,-87.843835192,361,"1126 OTTO GRAHAM LANE, ZION, IL, 60099","Match","Exact","1126 OTTO GRAHAM LN, ZION, IL, 60099",119698613,"R"
25362,"1126 PEREGRINE PARKWAY","BARTLETT","IL",60103,42.0078779310001,-88.211973686,362,"1126 PEREGRINE PARKWAY, BARTLETT, IL, 60103","Match","Exact","1126 PEREGRINE PKWY, BARTLETT, IL, 60103",112371300,"L"
25363,"1126 PONCE DE LEON AVE NE","ATLANTA","GA",30306,33.7738461000001,-84.350524359,363,"1126 PONCE DE LEON AVE NE, ATLANTA, GA, 30306","Match","Exact","1126 PONCE DE LEON AVE NE, ATLANTA, GA, 30306",17357942,"L"
25364,"1126 PORTER CIRCLE","GRAY","GA",31032,NA,NA,364,"1126 PORTER CIRCLE, GRAY, GA, 31032","No_Match",NA,NA,NA,NA
25365,"1126 RAVEN LOOP","METLAKATLA","AK",99926,55.1193367180001,-131.5781406,365,"1126 RAVEN LOOP, METLAKATLA, AK, 99926","Match","Non_Exact","1126 RAVEN ST, METLAKATLA, AK, 99926",190789334,"R"
25366,"1126 RIALTO DRIVE","BOYNTON BEACH","FL",33436,26.5521907450001,-80.0978839379999,366,"1126 RIALTO DRIVE, BOYNTON BEACH, FL, 33436","Match","Exact","1126 RIALTO DR, BOYNTON BEACH, FL, 33436",647661938,"L"
25367,"1126 ROCKBRIDGE AVE","NORFOLK","VA",23508,36.894517905,-76.301421015,367,"1126 ROCKBRIDGE AVE, NORFOLK, VA, 23508","Match","Exact","1126 ROCKBRIDGE AVE, NORFOLK, VA, 23508",122131553,"R"
25368,"1126 S 22ND STREET","FORT DODGE","IA",50501,42.492439705,-94.167868114,368,"1126 S 22ND STREET, FORT DODGE, IA, 50501","Match","Exact","1126 S 22ND ST, FORT DODGE, IA, 50501",635833938,"L"
25369,"1126 S FEDERAL HIGHWAY STE 429","FORT LAUDERDALE","FL",33316,26.1085453160001,-80.136907489,369,"1126 S FEDERAL HIGHWAY STE 429, FORT LAUDERDALE, FL, 33316","Match","Non_Exact","1126 S FEDERAL HWY, FORT LAUDERDALE, FL, 33316",114728200,"L"
25370,"1126 S FEDERAL HIGHWAY SUITE 488","FORT LAUDERDALE","FL",33316,26.1085453160001,-80.136907489,370,"1126 S FEDERAL HIGHWAY SUITE 488, FORT LAUDERDALE, FL, 33316","Match","Non_Exact","1126 S FEDERAL HWY, FORT LAUDERDALE, FL, 33316",114728200,"L"
25371,"1126 S FEDERAL HWY STE 429","FORT LAUDERDALE","FL",33316,26.1085453160001,-80.136907489,371,"1126 S FEDERAL HWY STE 429, FORT LAUDERDALE, FL, 33316","Match","Non_Exact","1126 S FEDERAL HWY, FORT LAUDERDALE, FL, 33316",114728200,"L"
25372,"1126 SOUTH FEDERAL HIGHWAY 429","FORT LAUDERDALE","FL",33316,26.1085453160001,-80.136907489,372,"1126 SOUTH FEDERAL HIGHWAY 429, FORT LAUDERDALE, FL, 33316","Match","Exact","1126 S FEDERAL HWY, FORT LAUDERDALE, FL, 33316",114728200,"L"
25373,"1126 VT ROUTE 30 PO BOX 157","WELLS","VT",5774,43.417011265,-73.211350782,373,"1126 VT ROUTE 30 PO BOX 157, WELLS, VT, 5774","Match","Non_Exact","1126 STATE RTE 30, WELLS, VT, 05774",138961322,"R"
25374,"1126 W ENCLAVE CIR","LOUISVILLE","CO",80027,39.974228216,-105.168648072,374,"1126 W ENCLAVE CIR, LOUISVILLE, CO, 80027","Match","Exact","1126 W ENCLAVE CIR, LOUISVILLE, CO, 80027",647468271,"L"
25375,"1126 W HARDING AVENUE","STOCKTON","CA",95203,37.9646587130001,-121.31042591,375,"1126 W HARDING AVENUE, STOCKTON, CA, 95203","Match","Non_Exact","1126 W HARDING WAY, STOCKTON, CA, 95203",133848165,"L"
25376,"1126 W LAIRD ST","TEMPE","AZ",85281,33.420433921,-111.955041163,376,"1126 W LAIRD ST, TEMPE, AZ, 85281","Match","Exact","1126 W LAIRD ST, TEMPE, AZ, 85281",128226378,"R"
25377,"1126 WILDERNESS DRIVE","RICHMOND","VA",23231,37.4902185290001,-77.401860141,377,"1126 WILDERNESS DRIVE, RICHMOND, VA, 23231","Match","Exact","1126 WILDERNESS DR, RICHMOND, VA, 23231",106673326,"L"
25378,"1126 WILSHIRE BLVD/","LOS ANGELES","CA",90017,34.0525612800001,-118.263857922,378,"1126 WILSHIRE BLVD/, LOS ANGELES, CA, 90017","Match","Non_Exact","1126 WILSHIRE BLVD, LOS ANGELES, CA, 90017",650080269,"L"
25379,"1126","FORT LAUDERDALE","FL",33316,NA,NA,379,"1126, FORT LAUDERDALE, FL, 33316","No_Match",NA,NA,NA,NA
25380,"11260 BARTHOLOMEW ROAD","CHAGRIN FALLS","OH",44023,41.3634581680001,-81.235757792,380,"11260 BARTHOLOMEW ROAD, CHAGRIN FALLS, OH, 44023","Match","Exact","11260 BARTHOLOMEW RD, CHAGRIN FALLS, OH, 44023",137440664,"L"
25381,"11260 BOWEN ROAD","MANTUA","OH",44255,41.298096795,-81.233113134,381,"11260 BOWEN ROAD, MANTUA, OH, 44255","Match","Exact","11260 BOWEN RD, MANTUA, OH, 44255",137544738,"R"
25382,"11260 CHESTER RD SUITE 225B","CINCINNATI","OH",45246,39.2777707160001,-84.443752161,382,"11260 CHESTER RD SUITE 225B, CINCINNATI, OH, 45246","Match","Exact","11260 CHESTER RD, CINCINNATI, OH, 45246",103966576,"R"
25383,"11260 DONNER PASS RD 191","TRUCKEE","CA",96161,39.3260855610001,-120.206217059,383,"11260 DONNER PASS RD 191, TRUCKEE, CA, 96161","Match","Exact","11260 DONNER PASS RD, TRUCKEE, CA, 96161",611885805,"R"
25384,"11260 DONNER PASS RD STE C1 PMB 302","TRUCKEE","CA",96161,39.3260855610001,-120.206217059,384,"11260 DONNER PASS RD STE C1 PMB 302, TRUCKEE, CA, 96161","Match","Exact","11260 DONNER PASS RD, TRUCKEE, CA, 96161",611885805,"R"
25385,"11260 ESKO AVENUE","LAKE VIEW TERRACE","CA",91342,34.2744700010001,-118.347493867,385,"11260 ESKO AVENUE, LAKE VIEW TERRACE, CA, 91342","Match","Exact","11260 ESKO AVE, LAKE VIEW TERRACE, CA, 91342",141586221,"R"
25386,"11260 OVERLAND AVE 18D","CULVER CITY","CA",90230,33.9941145970001,-118.390366761,386,"11260 OVERLAND AVE 18D, CULVER CITY, CA, 90230","Match","Exact","11260 OVERLAND AVE, CULVER CITY, CA, 90230",142811233,"L"
25387,"11260 OVERLAND AVENUE UNIT 18D","CULVER CITY","CA",90230,33.9941145970001,-118.390366761,387,"11260 OVERLAND AVENUE UNIT 18D, CULVER CITY, CA, 90230","Match","Exact","11260 OVERLAND AVE, CULVER CITY, CA, 90230",142811233,"L"
25388,"11260 ROSE RD","EMMETT","MI",48022,43.0655827580001,-82.784486783,388,"11260 ROSE RD, EMMETT, MI, 48022","Match","Exact","11260 ROSE RD, EMMETT, MI, 48022",110965935,"L"
25389,"11261 DANBURY ST","ARCADIA","CA",91006,34.1052268940001,-118.02549649,389,"11261 DANBURY ST, ARCADIA, CA, 91006","Match","Exact","11261 DANBURY ST, ARCADIA, CA, 91006",141645761,"L"
25390,"11261 NESTLE AVE","NORTHRIDGE","CA",91326,34.2754178210001,-118.531290549,390,"11261 NESTLE AVE, NORTHRIDGE, CA, 91326","Match","Exact","11261 NESTLE AVE, NORTHRIDGE, CA, 91326",141539667,"L"
25391,"11261 SAN PABLO AVE","EL CERRITO","CA",94530,37.9202154180001,-122.314913509,391,"11261 SAN PABLO AVE, EL CERRITO, CA, 94530","Match","Exact","11261 SAN PABLO AVE, EL CERRITO, CA, 94530",638367239,"R"
25392,"11261 SOUTH LONGWOOD DRIVE","CHICAGO","IL",60643,41.6887479170001,-87.672444809,392,"11261 SOUTH LONGWOOD DRIVE, CHICAGO, IL, 60643","Match","Exact","11261 S LONGWOOD DR, CHICAGO, IL, 60643",111823300,"L"
25393,"11262 FINCHLEY LN","JACKSONVILLE","FL",32223,30.1695055210001,-81.61053959,393,"11262 FINCHLEY LN, JACKSONVILLE, FL, 32223","Match","Exact","11262 FINCHLEY LN, JACKSONVILLE, FL, 32223",83946897,"L"
25394,"11262 NW 22ND AVE","MIAMI","FL",33167,25.877155793,-80.2345890459999,394,"11262 NW 22ND AVE, MIAMI, FL, 33167","Match","Exact","11262 NW 22ND AVE, MIAMI, FL, 33167",642153488,"L"
25395,"11262 SPRING MOUNTAIN DR","FARMINGTON","AR",72730,36.0201033170001,-94.2425057569999,395,"11262 SPRING MOUNTAIN DR, FARMINGTON, AR, 72730","Match","Exact","11262 SPRING MOUNTAIN DR, FARMINGTON, AR, 72730",49065509,"L"
25396,"11264 HWY 55","STERRETT","AL",35147,33.3745602290001,-86.5301584589999,396,"11264 HWY 55, STERRETT, AL, 35147","Match","Non_Exact","11264 CO RD 55, STERRETT, AL, 35147",82120826,"R"
25397,"11264 JAMES MADISON DR","HAMPTON","GA",30228,33.4485376690001,-84.329889443,397,"11264 JAMES MADISON DR, HAMPTON, GA, 30228","Match","Exact","11264 JAMES MADISON DR, HAMPTON, GA, 30228",645216281,"L"
25398,"11264 JAMES MADISON DRIVE","HAMPTON","GA",30228,33.4485376690001,-84.329889443,398,"11264 JAMES MADISON DRIVE, HAMPTON, GA, 30228","Match","Exact","11264 JAMES MADISON DR, HAMPTON, GA, 30228",645216281,"L"
25399,"11265 ESSEX","WARREN","MI",48089,42.4680073050001,-83.012464693,399,"11265 ESSEX, WARREN, MI, 48089","Match","Non_Exact","11265 ESSEX AVE, WARREN, MI, 48089",110677563,"L"
25400,"11265 RIVER KNOLL DR","JACKSONVILLE","FL",32225,30.3764556620001,-81.5152032669999,400,"11265 RIVER KNOLL DR, JACKSONVILLE, FL, 32225","Match","Exact","11265 RIVER KNOLL DR, JACKSONVILLE, FL, 32225",83904744,"L"
25401,"11265 SW 227TH STREET","MIAMI","FL",33170,25.5565764460001,-80.37314452,401,"11265 SW 227TH STREET, MIAMI, FL, 33170","Match","Exact","11265 SW 227TH ST, MIAMI, FL, 33170",642201278,"L"
25402,"11265 WESTWIND DR APT A","EDEN PRAIRIE","MN",55344,44.8451418450001,-93.4205510529999,402,"11265 WESTWIND DR APT A, EDEN PRAIRIE, MN, 55344","Match","Exact","11265 WESTWIND DR, EDEN PRAIRIE, MN, 55344",639216207,"L"
25403,"11266 CORSICA CRT","RANCHO CUCAMONGA","CA",91730,34.1148593340001,-117.559257217,403,"11266 CORSICA CRT, RANCHO CUCAMONGA, CA, 91730","Match","Exact","11266 CORSICA CT, RANCHO CUCAMONGA, CA, 91730",145219378,"L"
25404,"11266 PARLEYS CONE CT","LAS VEGAS","NV",89135,36.131342707,-115.338797613,404,"11266 PARLEYS CONE CT, LAS VEGAS, NV, 89135","Match","Exact","11266 PARLEYS CONE CT, LAS VEGAS, NV, 89135",201997729,"R"
25405,"11266 SW 156TH PL","MIAMI","FL",33196,25.6631881610001,-80.4496484009999,405,"11266 SW 156TH PL, MIAMI, FL, 33196","Match","Exact","11266 SW 156TH PL, MIAMI, FL, 33196",116257231,"L"
25406,"11267 COUNTY RD 122","CENTERVILLE","TX",75833,31.24844117,-95.7841306289999,406,"11267 COUNTY RD 122, CENTERVILLE, TX, 75833","Match","Exact","11267 CO RD 122, CENTERVILLE, TX, 75833",22097477,"R"
25407,"11267 DEROSNEC DR","OAKTON","VA",22124,38.8666847310001,-77.3346481519999,407,"11267 DEROSNEC DR, OAKTON, VA, 22124","Match","Exact","11267 DEROSNEC DR, OAKTON, VA, 22124",651971669,"R"
25408,"11267 W COMBINE DR","MARANA","AZ",85653,32.434901204,-111.206293339,408,"11267 W COMBINE DR, MARANA, AZ, 85653","Match","Exact","11267 W COMBINE DR, MARANA, AZ, 85653",606792126,"L"
25409,"11267 W FORD DRIVE","LAKEWOOD","CO",80226,39.6973391120001,-105.123510756,409,"11267 W FORD DRIVE, LAKEWOOD, CO, 80226","Match","Exact","11267 W FORD DR, LAKEWOOD, CO, 80226",647336958,"R"
25410,"11268 CR 682","WEBSTER","FL",33597,28.591491569,-82.1713500179999,410,"11268 CR 682, WEBSTER, FL, 33597","Match","Exact","11268 CO RD 682, WEBSTER, FL, 33597",612354404,"L"
25411,"11268 GARDINERS COURT","CYPRESS","CA",90630,33.799001059,-118.015566467,411,"11268 GARDINERS COURT, CYPRESS, CA, 90630","Match","Exact","11268 GARDINERS CT, CYPRESS, CA, 90630",144002128,"L"
25412,"11268 MANDALE DRIVE","STERLING HEIGHTS","MI",48312,42.544778432,-83.0131758429999,412,"11268 MANDALE DRIVE, STERLING HEIGHTS, MI, 48312","Match","Exact","11268 MANDALE DR, STERLING HEIGHTS, MI, 48312",110672589,"R"
25413,"11268 WINFIELD ROAD","WINFIELD","WV",25213,38.5370203040001,-81.884484351,413,"11268 WINFIELD ROAD, WINFIELD, WV, 25213","Match","Exact","11268 WINFIELD RD, WINFIELD, WV, 25213",130527761,"L"
25414,"11269 BROADWAY","ALDEN","NY",14004,42.8903353900001,-78.5667053289999,414,"11269 BROADWAY, ALDEN, NY, 14004","Match","Exact","11269 BROADWAY, ALDEN, NY, 14004",48346934,"R"
25415,"11269 LAMAR ST","WESTMINSTER","CO",80020,39.901201794,-105.066981329,415,"11269 LAMAR ST, WESTMINSTER, CO, 80020","Match","Exact","11269 LAMAR ST, WESTMINSTER, CO, 80020",177281904,"L"
25416,"1127 11TH ST SUITE 830","SACRAMENTO","CA",95814,38.578667029,-121.492665256,416,"1127 11TH ST SUITE 830, SACRAMENTO, CA, 95814","Match","Exact","1127 11TH ST, SACRAMENTO, CA, 95814",133421604,"L"
25417,"1127 11TH STREET SUITE 208","SACRAMENTO","CA",95814,38.578667029,-121.492665256,417,"1127 11TH STREET SUITE 208, SACRAMENTO, CA, 95814","Match","Exact","1127 11TH ST, SACRAMENTO, CA, 95814",133421604,"L"
25418,"1127 4TH ST","SPRINGFIELD","OR",97477,44.055048734,-123.020679596,418,"1127 4TH ST, SPRINGFIELD, OR, 97477","Match","Exact","1127 4TH ST, SPRINGFIELD, OR, 97477",178172747,"R"
25419,"1127 BAKER ROAD","WESTLAKE","LA",70669,30.2734188640001,-93.2281889559999,419,"1127 BAKER ROAD, WESTLAKE, LA, 70669","Match","Exact","1127 BAKER RD, WESTLAKE, LA, 70669",624022237,"R"
25420,"1127 BANBURY CROSS","AVONDALE ESTATES","GA",30002,33.762272775,-84.262371892,420,"1127 BANBURY CROSS, AVONDALE ESTATES, GA, 30002","Match","Exact","1127 BANBURY CROSS, AVONDALE EST, GA, 30002",23396503,"L"
25421,"1127 BROOKMEADE DR","NASHVILLE","TN",37204,36.0990556790001,-86.7959900279999,421,"1127 BROOKMEADE DR, NASHVILLE, TN, 37204","Match","Exact","1127 BROOKMEADE DR, NASHVILLE, TN, 37204",97208869,"L"
25422,"1127 C STREET","SCHUYLER","NE",68661,41.447885619,-97.055952512,422,"1127 C STREET, SCHUYLER, NE, 68661","Match","Exact","1127 C ST, SCHUYLER, NE, 68661",136044598,"L"
25423,"1127 CARINOSO CIRCLE","SEVERN","MD",21144,39.122945997,-76.703557168,423,"1127 CARINOSO CIRCLE, SEVERN, MD, 21144","Match","Exact","1127 CARINOSO CIR, SEVERN, MD, 21144",642809293,"L"
25424,"1127 CEDARWOOD LANE","CHARLOTTE","NC",28212,35.194255567,-80.752076786,424,"1127 CEDARWOOD LANE, CHARLOTTE, NC, 28212","Match","Exact","1127 CEDARWOOD LN, CHARLOTTE, NC, 28212",70523170,"L"
25425,"1127 COUNTY ROAD 167","BALDWYN","MS",38824,34.532757024,-88.7584586899999,425,"1127 COUNTY ROAD 167, BALDWYN, MS, 38824","Match","Exact","1127 CO RD 167, BALDWYN, MS, 38824",605031598,"L"
25426,"1127 DELANO AVE SW","WILSON","NC",27893,35.718267859,-77.9319431549999,426,"1127 DELANO AVE SW, WILSON, NC, 27893","Match","Exact","1127 DELANO AVE SW, WILSON, NC, 27893",26705565,"R"
25427,"1127 E COMMONS DR","BLOOMINGTON","IN",47401,39.1327751000001,-86.521002929,427,"1127 E COMMONS DR, BLOOMINGTON, IN, 47401","Match","Exact","1127 E COMMONS DR, BLOOMINGTON, IN, 47401",42335009,"L"
25428,"1127 E LAS TUNAS DR","SAN GABRIEL","CA",91776,34.1034522320001,-118.082855415,428,"1127 E LAS TUNAS DR, SAN GABRIEL, CA, 91776","Match","Exact","1127 E LAS TUNAS DR, SAN GABRIEL, CA, 91776",638620101,"L"
25429,"1127 E LEMON AVENUE","MONROVIA","CA",91016,34.14688525,-117.981019399,429,"1127 E LEMON AVENUE, MONROVIA, CA, 91016","Match","Exact","1127 E LEMON AVE, MONROVIA, CA, 91016",647547927,"L"
25430,"1127 E SAN ANTONIO AVE","EL PASO","TX",79901,31.7605713400001,-106.477938492,430,"1127 E SAN ANTONIO AVE, EL PASO, TX, 79901","Match","Exact","1127 E SAN ANTONIO AVE, EL PASO, TX, 79901",189342104,"L"
25431,"1127 EAST 570TH AVE","PITTSBURG","KS",66762,37.4375974920001,-94.6432117259999,431,"1127 EAST 570TH AVE, PITTSBURG, KS, 66762","Match","Exact","1127 E 570TH AVE, PITTSBURG, KS, 66762",33428464,"R"
25432,"1127 ELDRIDGE PARKWAY STE 300-347","HOUSTON","TX",77077,29.767806502,-95.6238138209999,432,"1127 ELDRIDGE PARKWAY STE 300-347, HOUSTON, TX, 77077","Match","Exact","1127 ELDRIDGE PKWY, HOUSTON, TX, 77077",640069953,"R"
25433,"1127 FIELDSTONE DR","MEBANE","NC",27302,36.0825320650001,-79.289746742,433,"1127 FIELDSTONE DR, MEBANE, NC, 27302","Match","Exact","1127 FIELDSTONE DR, MEBANE, NC, 27302",71687760,"L"
25434,"1127 FLANDERS STREET","NEW ORLEANS","LA",70114,29.943289943,-90.0200483,434,"1127 FLANDERS STREET, NEW ORLEANS, LA, 70114","Match","Exact","1127 FLANDERS ST, NEW ORLEANS, LA, 70114",191719777,"R"
25435,"1127 FORDHAM LANE","WOODMERE","NY",11598,40.6446627610001,-73.714730402,435,"1127 FORDHAM LANE, WOODMERE, NY, 11598","Match","Exact","1127 FORDHAM LN, WOODMERE, NY, 11598",147677514,"R"
25436,"1127 GEORGE HILL ROAD","LANCASTER","MA",1523,42.441422518,-71.704240349,436,"1127 GEORGE HILL ROAD, LANCASTER, MA, 1523","Match","Exact","1127 GEORGE HILL RD, LANCASTER, MA, 01523",40035045,"L"
25437,"1127 GRANT STREET","SANTA MONICA","CA",90405,34.012909091,-118.477748609,437,"1127 GRANT STREET, SANTA MONICA, CA, 90405","Match","Exact","1127 GRANT ST, SANTA MONICA, CA, 90405",141568697,"L"
25438,"1127 HADLEY ST  APT C","ST. LOUIS","MO",63103,38.6364406710001,-90.194141954,438,"1127 HADLEY ST  APT C, ST. LOUIS, MO, 63103","Match","Non_Exact","1127 HADLEY ST, SAINT LOUIS, MO, 63101",107605033,"L"
25439,"1127 HEFENR DR NW","CONOVER","NC",28613,NA,NA,439,"1127 HEFENR DR NW, CONOVER, NC, 28613","No_Match",NA,NA,NA,NA
25440,"1127 HILLROCK DRIVE","SOUTH EUCLD","OH",44121,41.5314373030001,-81.511352729,440,"1127 HILLROCK DRIVE, SOUTH EUCLD, OH, 44121","Match","Non_Exact","1127 HILLROCK DR, SOUTH EUCLID, OH, 44121",61124860,"L"
25441,"1127 LAKEWOOD DR","TWIN FALLS","ID",83301,42.580209666,-114.435189658,441,"1127 LAKEWOOD DR, TWIN FALLS, ID, 83301","Match","Exact","1127 LAKEWOOD DR, TWIN FALLS, ID, 83301",617972812,"L"
25442,"1127 LAS COLINAS WAY","SAN DIMAS","CA",91773,34.1098771710001,-117.82919927,442,"1127 LAS COLINAS WAY, SAN DIMAS, CA, 91773","Match","Exact","1127 LAS COLINAS WAY, SAN DIMAS, CA, 91773",648645223,"R"
25443,"1127 LEVONA STREET","YPSILANTI","MI",48198,42.229657333,-83.588918291,443,"1127 LEVONA STREET, YPSILANTI, MI, 48198","Match","Exact","1127 LEVONA ST, YPSILANTI, MI, 48198",26021980,"L"
25444,"1127 MAGEE ROAD","SEWICKLEY","PA",15143,40.58291273,-80.117077098,444,"1127 MAGEE ROAD, SEWICKLEY, PA, 15143","Match","Exact","1127 MAGEE RD, SEWICKLEY, PA, 15143",51696313,"L"
25445,"1127 MAVERICK DR","ALLEN","TX",75013,33.0870762330001,-96.6917065379999,445,"1127 MAVERICK DR, ALLEN, TX, 75013","Match","Exact","1127 MAVERICK DR, ALLEN, TX, 75013",646681888,"L"
25446,"1127 MOSSY KNOLL DR","CORDOVA","TN",38018,35.155673473,-89.719412714,446,"1127 MOSSY KNOLL DR, CORDOVA, TN, 38018","Match","Exact","1127 MOSSY KNOLL DR, CORDOVA, TN, 38018",72975977,"R"
25447,"1127 N 950 E","OGDEN","UT",84404,41.2772621760001,-111.953300757,447,"1127 N 950 E, OGDEN, UT, 84404","Match","Exact","1127 N 950 E, OGDEN, UT, 84404",155694367,"L"
25448,"1127 N PINE ST","HARRISON","AR",72601,36.2401731910001,-93.11069564,448,"1127 N PINE ST, HARRISON, AR, 72601","Match","Exact","1127 N PINE ST, HARRISON, AR, 72601",19982305,"R"
25449,"1127 NORTH AVENUE SUITE 27 PMB 208","BURLINGTON","VT",5408,44.507235506,-73.245263872,449,"1127 NORTH AVENUE SUITE 27 PMB 208, BURLINGTON, VT, 5408","Match","Exact","1127 NORTH AVE, BURLINGTON, VT, 05408",135827014,"L"
25450,"1127 NORTH BROADWAY","KNOXVILLE","TN",37617,35.9829043060001,-83.922710455,450,"1127 NORTH BROADWAY, KNOXVILLE, TN, 37617","Match","Non_Exact","1127 N BROADWAY, KNOXVILLE, TN, 37917",647261777,"L"
25451,"1127 NORTH LINWOOD","VISALIA","CA",93291,36.3386609070001,-119.34138529,451,"1127 NORTH LINWOOD, VISALIA, CA, 93291","Match","Non_Exact","1127 N LINWOOD ST, VISALIA, CA, 93291",202804591,"R"
25452,"1127 NORTH ORIANNA STREET","PHILADELPHIA","PA",19123,39.968206717,-75.14260978,452,"1127 NORTH ORIANNA STREET, PHILADELPHIA, PA, 19123","Match","Exact","1127 N ORIANNA ST, PHILADELPHIA, PA, 19123",131422829,"R"
25453,"1127 NORTH STREET","YREKA","CA",96097,41.737863856,-122.656091059,453,"1127 NORTH STREET, YREKA, CA, 96097","Match","Exact","1127 NORTH ST, YREKA, CA, 96097",113224870,"L"
25454,"1127 NORTH WESTERN AVENUE","MARION","IN",46952,40.5730545370001,-85.674210755,454,"1127 NORTH WESTERN AVENUE, MARION, IN, 46952","Match","Exact","1127 N WESTERN AVE, MARION, IN, 46952",95007640,"L"
25455,"1127 ORCHARD STREET","SANTA ROSA","CA",95404,38.4511314280001,-122.713310038,455,"1127 ORCHARD STREET, SANTA ROSA, CA, 95404","Match","Exact","1127 ORCHARD ST, SANTA ROSA, CA, 95404",67468811,"L"
25456,"1127 OXFORD DR SE","CONYERS","GA",30013,33.617806,-84.0062171599999,456,"1127 OXFORD DR SE, CONYERS, GA, 30013","Match","Exact","1127 OXFORD DR SE, CONYERS, GA, 30013",23746627,"R"
25457,"1127 PINE ST","EUDORA","KS",66025,38.939921892,-95.103774485,457,"1127 PINE ST, EUDORA, KS, 66025","Match","Exact","1127 PINE ST, EUDORA, KS, 66025",17678706,"R"
25458,"1127 POMEROY AVE","SANTA CLARA","CA",95051,37.34693958,-121.986766121,458,"1127 POMEROY AVE, SANTA CLARA, CA, 95051","Match","Exact","1127 POMEROY AVE, SANTA CLARA, CA, 95051",636428996,"R"
25459,"1127 QUEENS PLACE","KANSAS CITY","MO",64131,38.949070486,-94.577440769,459,"1127 QUEENS PLACE, KANSAS CITY, MO, 64131","Match","Exact","1127 QUEENS PL, KANSAS CITY, MO, 64131",91456142,"R"
25460,"1127 RIVER FOREST ROAD","PITTSBORO","NC",27312,35.7997338340001,-79.165496409,460,"1127 RIVER FOREST ROAD, PITTSBORO, NC, 27312","Match","Exact","1127 RIVER FOREST RD, PITTSBORO, NC, 27312",71379883,"R"
25461,"1127 ROSARIO DRIVE","TOPANGA","CA",90290,34.1041762780001,-118.589294946,461,"1127 ROSARIO DRIVE, TOPANGA, CA, 90290","Match","Exact","1127 ROSARIO DR, TOPANGA, CA, 90290",141536439,"L"
25462,"1127 ROYAL PALM BEACH BLVD BOX 288","ROYAL PALM BEACH","FL",33411,26.7070579590001,-80.229187495,462,"1127 ROYAL PALM BEACH BLVD BOX 288, ROYAL PALM BEACH, FL, 33411","Match","Exact","1127 ROYAL PALM BEACH BLVD, ROYAL PALM BEACH, FL, 33411",115507990,"L"
25463,"1127 S ASH AVE","TEMPE","AZ",85281,33.4171825130001,-111.942432967,463,"1127 S ASH AVE, TEMPE, AZ, 85281","Match","Exact","1127 S ASH AVE, TEMPE, AZ, 85281",128227114,"L"
25464,"1127 SCHOLASTIC CIRCLE","DURHAM","NC",27713,35.889827396,-78.95390122,464,"1127 SCHOLASTIC CIRCLE, DURHAM, NC, 27713","Match","Exact","1127 SCHOLASTIC CIR, DURHAM, NC, 27713",71767421,"R"
25465,"1127 SEPULVEDA BLVD L104","TORRANCE","CA",90502,33.8118781950001,-118.294911679,465,"1127 SEPULVEDA BLVD L104, TORRANCE, CA, 90502","Match","Exact","1127 SEPULVEDA BLVD, TORRANCE, CA, 90502",640420719,"R"
25466,"1127 SHIRKEN DR","IOWA CITY","IA",52246,41.646319487,-91.545507636,466,"1127 SHIRKEN DR, IOWA CITY, IA, 52246","Match","Exact","1127 SHIRKEN DR, IOWA CITY, IA, 52246",84515963,"L"
25467,"1127 SOUTH LAKE DR - UNIT 117","NOVI","MI",48377,42.5132922660001,-83.4880292409999,467,"1127 SOUTH LAKE DR - UNIT 117, NOVI, MI, 48377","Match","Exact","1127 S LAKE DR, NOVI, MI, 48377",69758929,"L"
25468,"1127 STRAWBERRY CREEK DR","CHULA VISTA","CA",91913,32.6196292070001,-117.009607159,468,"1127 STRAWBERRY CREEK DR, CHULA VISTA, CA, 91913","Match","Non_Exact","1127 STRAWBERRY CREEK ST, CHULA VISTA, CA, 91913",195764192,"L"
25469,"1127 SUGAR CREEK PIKE","NICHOLASVILLE","KY",40356,37.81507887,-84.592742062,469,"1127 SUGAR CREEK PIKE, NICHOLASVILLE, KY, 40356","Match","Exact","1127 SUGAR CREEK PIKE, NICHOLASVILLE, KY, 40356",38466728,"R"
25470,"1127 TRACY LN","PETOSKEY","MI",49770,45.3260579010001,-85.0154795289999,470,"1127 TRACY LN, PETOSKEY, MI, 49770","Match","Exact","1127 TRACY LN, PETOSKEY, MI, 49770",133989526,"L"
25471,"1127 TROTWOOD BLVD","WINTER SPRINGS","FL",32708,28.686543719,-81.2748907329999,471,"1127 TROTWOOD BLVD, WINTER SPRINGS, FL, 32708","Match","Exact","1127 TROTWOOD BLVD, WINTER SPRINGS, FL, 32708",93761014,"L"
25472,"1127 US HIGHWAY ROUTE 1A","HARRINGTON","ME",4643,NA,NA,472,"1127 US HIGHWAY ROUTE 1A, HARRINGTON, ME, 4643","No_Match",NA,NA,NA,NA
25473,"1127 W 127TH PL STREET APT C2","CALUMET PARK","IL",60827,41.662356118,-87.649587945,473,"1127 W 127TH PL STREET APT C2, CALUMET PARK, IL, 60827","Match","Non_Exact","1127 W 127TH PL, CALUMET PARK, IL, 60827",605516082,"R"
25474,"1127 W CARROLL ST","MACOMB","IL",61455,40.460078749,-90.686972767,474,"1127 W CARROLL ST, MACOMB, IL, 61455","Match","Exact","1127 W CARROLL ST, MACOMB, IL, 61455",5369019,"L"
25475,"1127 W FARNUM APT 201","ROYAL OAK","MI",48067,NA,NA,475,"1127 W FARNUM APT 201, ROYAL OAK, MI, 48067","No_Match",NA,NA,NA,NA
25476,"1127 WABANK RD E203","LANCASTER","PA",17603,40.023780351,-76.316428391,476,"1127 WABANK RD E203, LANCASTER, PA, 17603","Match","Exact","1127 WABANK RD, LANCASTER, PA, 17603",179664404,"R"
25477,"11270 W PARK PLACE SUITE 100","MILWAUKEE","WI",53224,43.15082749,-88.053255395,477,"11270 W PARK PLACE SUITE 100, MILWAUKEE, WI, 53224","Match","Non_Exact","11270 W PARK PL, MILWAUKEE, WI, 53224",636677825,"R"
25478,"11271 STANFORD AVENUE","GARDEN GROVE","CA",92840,33.7778568800001,-117.935866624,478,"11271 STANFORD AVENUE, GARDEN GROVE, CA, 92840","Match","Exact","11271 STANFORD AVE, GARDEN GROVE, CA, 92840",144036348,"L"
25479,"11271 VALLEY SPRING LANE","NORTH HOLLYWOOD","CA",91602,34.147192139,-118.376872332,479,"11271 VALLEY SPRING LANE, NORTH HOLLYWOOD, CA, 91602","Match","Exact","11271 VALLEY SPRING LN, N HOLLYWOOD, CA, 91602",141566026,"R"
25480,"11271 VENTURA BLVD 612","STUDIO CITY","CA",91604,34.1410917800001,-118.375524113,480,"11271 VENTURA BLVD 612, STUDIO CITY, CA, 91604","Match","Exact","11271 VENTURA BLVD, STUDIO CITY, CA, 91604",142726418,"R"
25481,"11271 VENTURA BLVD ROOM 113","STUDIO CITY","CA",91604,34.1410917800001,-118.375524113,481,"11271 VENTURA BLVD ROOM 113, STUDIO CITY, CA, 91604","Match","Exact","11271 VENTURA BLVD, STUDIO CITY, CA, 91604",142726418,"R"
25482,"11271 ZIEGLER","TAYLOR","MI",48180,42.2245569460001,-83.230931891,482,"11271 ZIEGLER, TAYLOR, MI, 48180","Match","Non_Exact","11271 ZIEGLER ST, TAYLOR, MI, 48180",95447520,"L"
25483,"11272 SE 60TH ST","BELLEVUE","WA",98006,NA,NA,483,"11272 SE 60TH ST, BELLEVUE, WA, 98006","No_Match",NA,NA,NA,NA
25484,"11274 BETHANY DR","RANCHO CUCAMONGA","CA",91710,34.132354252,-117.559598701,484,"11274 BETHANY DR, RANCHO CUCAMONGA, CA, 91710","Match","Non_Exact","11274 BETHANY DR, ALTA LOMA, CA, 91701",144700852,"R"
25485,"11274 BETHANY DRIVE","RANCHO CUCAMONGA","CA",91701,34.132354252,-117.559598701,485,"11274 BETHANY DRIVE, RANCHO CUCAMONGA, CA, 91701","Match","Exact","11274 BETHANY DR, RANCHO CUCAMONGA, CA, 91701",144700852,"R"
25486,"11274 SUGARMILL DRIVE","ALEXANDRIA","KY",41001,38.894255076,-84.376221818,486,"11274 SUGARMILL DRIVE, ALEXANDRIA, KY, 41001","Match","Exact","11274 SUGARMILL DR, ALEXANDRIA, KY, 41001",636524675,"R"
25487,"11275 BEACH MILL ROAD","GREAT FALLS","VA",22066,39.0311329420001,-77.33313865,487,"11275 BEACH MILL ROAD, GREAT FALLS, VA, 22066","Match","Exact","11275 BEACH MILL RD, GREAT FALLS, VA, 22066",215925438,"L"
25488,"11275 HILLCREST","CONROE","TX",77303,30.3959179020001,-95.29927276,488,"11275 HILLCREST, CONROE, TX, 77303","Match","Non_Exact","11275 HILLCREST DR, CONROE, TX, 77303",79267732,"L"
25489,"11275 SEA VIEW AVE APT 11B","BROOKLYN","NY",11239,40.6436177730001,-73.877810242,489,"11275 SEA VIEW AVE APT 11B, BROOKLYN, NY, 11239","Match","Exact","11275 SEA VIEW AVE, BROOKLYN, NY, 11239",641020703,"L"
25490,"11275 SW 218 ST","MIAMI","FL",33170,25.5645006410001,-80.3734850279999,490,"11275 SW 218 ST, MIAMI, FL, 33170","Match","Exact","11275 SW 218TH ST, MIAMI, FL, 33170",115994880,"R"
25491,"11275 US HWY 98  STE 6-305","MIRMAR BEACH","FL",32550,30.384326087,-86.363250679,491,"11275 US HWY 98  STE 6-305, MIRMAR BEACH, FL, 32550","Match","Non_Exact","11275 US HWY 98, MIRAMAR BEACH, FL, 32550",641071330,"R"
25492,"11276 N 500 W-90","ROANOKE","IN",46783,40.9077764130001,-85.3190585249999,492,"11276 N 500 W-90, ROANOKE, IN, 46783","Match","Exact","11276 N 500 W-90, ROANOKE, IN, 46783",6622405,"R"
25493,"11276 WINDY PEAK RIDGE DR","SANDY","UT",84094,40.5465294570001,-111.858905777,493,"11276 WINDY PEAK RIDGE DR, SANDY, UT, 84094","Match","Exact","11276 WINDY PEAK RIDGE DR, SANDY, UT, 84094",176092872,"L"
25494,"11277  34 MILE ROAD","ROMEO","MI",48065,42.831334536,-83.025910129,494,"11277  34 MILE ROAD, ROMEO, MI, 48065","Match","Exact","11277 34 MILE RD, ROMEO, MI, 48065",110719318,"L"
25495,"11277 OAK RIDGE AVENUE","RED LION","PA",17356,39.8412046190001,-76.627845366,495,"11277 OAK RIDGE AVENUE, RED LION, PA, 17356","Match","Exact","11277 OAK RIDGE AVE, RED LION, PA, 17356",652466048,"R"
25496,"11277 W BELFAIR VALLEY RD","BREMERTON","WA",98312,47.5014368870001,-122.800914028,496,"11277 W BELFAIR VALLEY RD, BREMERTON, WA, 98312","Match","Exact","11277 W BELFAIR VALLEY RD, BREMERTON, WA, 98312",643616937,"R"
25497,"11278 BOCA WOODS LANE","BOCA RATON","FL",33428,26.36296357,-80.208450377,497,"11278 BOCA WOODS LANE, BOCA RATON, FL, 33428","Match","Exact","11278 BOCA WOODS LN, BOCA RATON, FL, 33428",115324879,"R"
25498,"11278 MEADOW GLEN WAY EAST","ESCONDIDO","CA",92026,33.2197844300001,-117.095469906,498,"11278 MEADOW GLEN WAY EAST, ESCONDIDO, CA, 92026","Match","Exact","11278 MEADOW GLEN WAY E, ESCONDIDO, CA, 92026",195460494,"L"
25499,"11278 SAINT CHRISTOPHER DR","WHITE PLAINS","MD",20695,38.5664959580001,-76.918874858,499,"11278 SAINT CHRISTOPHER DR, WHITE PLAINS, MD, 20695","Match","Exact","11278 ST CHRISTOPHER DR, WHITE PLAINS, MD, 20695",642954621,"L"
25500,"11279 16TH ST NE","ST MICHAEL","MN",55313,45.1761727250001,-93.658733592,500,"11279 16TH ST NE, ST MICHAEL, MN, 55313","Match","Non_Exact","11279 16TH ST NE, SAINT MICHAEL, MN, 55376",646633197,"R"
