"ID","Address","City","State","Zip","lat","long","id","input_address","match_indicator","match_type","matched_address","tiger_line_id","tiger_side"
46001,"1295 EAST TALLMADGE AVE","AKRON","OH",44310,41.101930494,-81.469002766,1,"1295 EAST TALLMADGE AVE, AKRON, OH, 44310","Match","Exact","1295 E TALLMADGE AVE, AKRON, OH, 44310",61350688,"L"
46002,"1295 EATON ROAD","CHICO","CA",95973,39.7758556640001,-121.847208454,2,"1295 EATON ROAD, CHICO, CA, 95973","Match","Exact","1295 EATON RD, CHICO, CA, 95973",651626905,"R"
46003,"1295 FOSTORIA AVE","FINDLAY","OH",45840,41.0516873350001,-83.626798029,3,"1295 FOSTORIA AVE, FINDLAY, OH, 45840","Match","Exact","1295 FOSTORIA AVE, FINDLAY, OH, 45840",637956720,"R"
46004,"1295 FRANKLIN DR SE  STE A9","MARIETTA","GA",30067,33.9217825960001,-84.49200859,4,"1295 FRANKLIN DR SE  STE A9, MARIETTA, GA, 30067","Match","Non_Exact","1295 FRANKLIN RD SE, MARIETTA, GA, 30067",17253716,"L"
46005,"1295 GORMAN AVE","WEST SAINT PAUL","MN",55118,44.9071326760001,-93.08380736,5,"1295 GORMAN AVE, WEST SAINT PAUL, MN, 55118","Match","Exact","1295 GORMAN AVE, W SAINT PAUL, MN, 55118",37915958,"R"
46006,"1295 INDIAN RD","LAPEER","MI",48446,43.063666831,-83.422072439,6,"1295 INDIAN RD, LAPEER, MI, 48446","Match","Exact","1295 INDIAN RD, LAPEER, MI, 48446",110475549,"L"
46007,"1295 LOWER RD","PLAINFIELD","VT",5667,44.2566595100001,-72.443993383,7,"1295 LOWER RD, PLAINFIELD, VT, 5667","Match","Exact","1295 LOWER RD, PLAINFIELD, VT, 05667",136680281,"R"
46008,"1295 MURPHY CREEK RD","GRANTS PASS","OR",97257,42.315749791,-123.356578456,8,"1295 MURPHY CREEK RD, GRANTS PASS, OR, 97257","Match","Non_Exact","1295 MURPHY CREEK RD, GRANTS PASS, OR, 97527",156611167,"L"
46009,"1295 N ASH ST UNIT912","GILBERT","AZ",85233,33.373906521,-111.791115814,9,"1295 N ASH ST UNIT912, GILBERT, AZ, 85233","Match","Non_Exact","1295 N ASH ST, GILBERT, AZ, 85233",128935766,"L"
46010,"1295 N KNOLLWOOD CIRCLE","ANAHEIM","CA",92801,33.8540889510001,-117.979759408,10,"1295 N KNOLLWOOD CIRCLE, ANAHEIM, CA, 92801","Match","Exact","1295 KNOLLWOOD CIR, ANAHEIM, CA, 92801",144114261,"R"
46011,"1295 NOTTINGHAM LN","HOFFMAN ESTATES","IL",60169,42.064423655,-88.11162103,11,"1295 NOTTINGHAM LN, HOFFMAN ESTATES, IL, 60169","Match","Exact","1295 NOTTINGHAM LN, HOFFMAN EST, IL, 60169",111693025,"L"
46012,"1295 NW 14 STREET SUITE I","MIAMI","FL",33125,25.7875783160001,-80.216080473,12,"1295 NW 14 STREET SUITE I, MIAMI, FL, 33125","Match","Non_Exact","1295 NW 14TH ST, MIAMI, FL, 33125",116016017,"R"
46013,"1295 NW 67TH STREET","MIAMI","FL",33147,25.835666501,-80.2187430239999,13,"1295 NW 67TH STREET, MIAMI, FL, 33147","Match","Exact","1295 NW 67TH ST, MIAMI, FL, 33147",116004347,"R"
46014,"1295 OLD PEACHTREE RD NW STE 200","SUWANEE","GA",30024,34.0058226200001,-84.0611525049999,14,"1295 OLD PEACHTREE RD NW STE 200, SUWANEE, GA, 30024","Match","Non_Exact","1295 OLD PEACHTREE RD NW, SUWANEE, GA, 30024",88953117,"R"
46015,"1295 PEMBROKE ST","BRIDGEPORT","CT",6608,41.1918913920001,-73.1771484669999,15,"1295 PEMBROKE ST, BRIDGEPORT, CT, 6608","Match","Exact","1295 PEMBROKE ST, BRIDGEPORT, CT, 06608",3224840,"L"
46016,"1295 PEMBROKE STREET","BRIDGEPORT","CT",6608,41.1918913920001,-73.1771484669999,16,"1295 PEMBROKE STREET, BRIDGEPORT, CT, 6608","Match","Exact","1295 PEMBROKE ST, BRIDGEPORT, CT, 06608",3224840,"L"
46017,"1295 PRIVATE ROAD 3952","WILLOW WOOD","OH",45696,38.5443449840001,-82.4485920609999,17,"1295 PRIVATE ROAD 3952, WILLOW WOOD, OH, 45696","Match","Non_Exact","1295 PVT RD 3952, WILLOW WOOD, OH, 45696",55028663,"R"
46018,"1295 SARAHS LANDING DRIVE","JACKSONVILLE","FL",32221,30.300199412,-81.812183659,18,"1295 SARAHS LANDING DRIVE, JACKSONVILLE, FL, 32221","Match","Exact","1295 SARAHS LANDING DR, JACKSONVILLE, FL, 32221",650593191,"L"
46019,"1295 SOUTH CAWSTON AVENUE SPC 319","HEMET","CA",92545,33.7249635310001,-117.015324104,19,"1295 SOUTH CAWSTON AVENUE SPC 319, HEMET, CA, 92545","Match","Exact","1295 S CAWSTON AVE, HEMET, CA, 92545",194829502,"L"
46020,"1295 SOUTH CLAY STREET","TROY","OH",45373,40.026390097,-84.204452637,20,"1295 SOUTH CLAY STREET, TROY, OH, 45373","Match","Exact","1295 S CLAY ST, TROY, OH, 45373",135298573,"L"
46021,"1295 TEANECK ROAD","TEANECK","NM",7606,NA,NA,21,"1295 TEANECK ROAD, TEANECK, NM, 7606","No_Match",NA,NA,NA,NA
46022,"1295 TERRELL MILL RD STE 104","MARIETTA","GA",30067,33.9199443740001,-84.464954298,22,"1295 TERRELL MILL RD STE 104, MARIETTA, GA, 30067","Match","Non_Exact","1295 TERRELL MILL RD SE, MARIETTA, GA, 30067",17253962,"L"
46023,"1295 WEST 37TH PLACE","LOS ANGELES","CA",90007,34.019973845,-118.297333535,23,"1295 WEST 37TH PLACE, LOS ANGELES, CA, 90007","Match","Exact","1295 W 37TH PL, LOS ANGELES, CA, 90007",141607600,"R"
46024,"1295 WYOMING AVE","RENO","NV",89503,39.536948582,-119.846458464,24,"1295 WYOMING AVE, RENO, NV, 89503","Match","Exact","1295 WYOMING AVE, RENO, NV, 89503",107042075,"L"
46025,"12950 LEMAN LN","WALDORF","MD",20601,38.5981260500001,-76.862355959,25,"12950 LEMAN LN, WALDORF, MD, 20601","Match","Exact","12950 LEMAN LN, WALDORF, MD, 20601",25384078,"L"
46026,"12950 SW HILLSBORO HWY","HILLSBORO","OR",97123,45.4281332370001,-122.962088964,26,"12950 SW HILLSBORO HWY, HILLSBORO, OR, 97123","Match","Exact","12950 SW HILLSBORO HWY, HILLSBORO, OR, 97123",635628550,"R"
46027,"12951 BANDERA ROAD","HELOTES","TX",78023,NA,NA,27,"12951 BANDERA ROAD, HELOTES, TX, 78023","No_Match",NA,NA,NA,NA
46028,"12951 HUEBNER RD SUITE 782315","SAN ANTONIO","TX",78278,29.5613437150001,-98.5612167199999,28,"12951 HUEBNER RD SUITE 782315, SAN ANTONIO, TX, 78278","Match","Non_Exact","12951 HUEBNER RD, SAN ANTONIO, TX, 78230",101569692,"L"
46029,"12951 MESQUITE RD","APPLE VALLEY","CA",92308,34.4897927740001,-117.163926717,29,"12951 MESQUITE RD, APPLE VALLEY, CA, 92308","Match","Exact","12951 MESQUITE RD, APPLE VALLEY, CA, 92308",144595495,"R"
46030,"12951 NW 82ND CT","CHIEFLAND","FL",32626,29.517697626,-82.9102837299999,30,"12951 NW 82ND CT, CHIEFLAND, FL, 32626","Match","Exact","12951 NW 82ND CT, CHIEFLAND, FL, 32626",43294885,"R"
46031,"12951 W CHICAGO ST","DETROIT","MI",48228,42.3659267990001,-83.171014653,31,"12951 W CHICAGO ST, DETROIT, MI, 48228","Match","Exact","12951 W CHICAGO ST, DETROIT, MI, 48228",95443007,"L"
46032,"12952 CARMEL CREEK RD UNIT 120","SAN DIEGO","CA",92130,32.9517070250001,-117.226728819,32,"12952 CARMEL CREEK RD UNIT 120, SAN DIEGO, CA, 92130","Match","Exact","12952 CARMEL CREEK RD, SAN DIEGO, CA, 92130",640049506,"R"
46033,"12952 FERNMONT ST","SYLMAR","CA",91342,34.3090493940001,-118.415467937,33,"12952 FERNMONT ST, SYLMAR, CA, 91342","Match","Exact","12952 FERNMONT ST, SYLMAR, CA, 91342",141546435,"L"
46034,"12952 REAVES RD","WINTER GARDEN","FL",34787,28.528405697,-81.574867287,34,"12952 REAVES RD, WINTER GARDEN, FL, 34787","Match","Exact","12952 REAVES RD, WINTER GARDEN, FL, 34787",653590632,"L"
46035,"12952 SOUTH ZION PARK DRIVE","RIVERTON","UT",84065,40.51571491,-111.977477281,35,"12952 SOUTH ZION PARK DRIVE, RIVERTON, UT, 84065","Match","Non_Exact","12952 ZION PARK DR, RIVERTON, UT, 84065",624514649,"R"
46036,"12953 MINUTEMAN DR","DRAPER","UT",84020,40.516284469,-111.890681654,36,"12953 MINUTEMAN DR, DRAPER, UT, 84020","Match","Exact","12953 MINUTEMAN DR, DRAPER, UT, 84020",619112614,"R"
46037,"12954 AVE 412","OROSI","CA",93647,36.537500305,-119.284343977,37,"12954 AVE 412, OROSI, CA, 93647","Match","Exact","12954 AVE 412, OROSI, CA, 93647",607575332,"L"
46038,"12954 SHADY HILLS RD","SHADY HILLS","FL",34610,28.344173406,-82.542678622,38,"12954 SHADY HILLS RD, SHADY HILLS, FL, 34610","Match","Exact","12954 SHADY HILLS RD, SHADY HILLS, FL, 34610",631472145,"R"
46039,"12955 BIG HORN DRIVE","HUNTLEY","IL",60124,42.163817721,-88.449347621,39,"12955 BIG HORN DRIVE, HUNTLEY, IL, 60124","Match","Non_Exact","12955 BIG HORN DR, HUNTLEY, IL, 60142",119866946,"R"
46040,"12955 BISCAYNE BOULEVARD SUITE 300","NORTH MIAMI","FL",33181,25.894967605,-80.162060517,40,"12955 BISCAYNE BOULEVARD SUITE 300, NORTH MIAMI, FL, 33181","Match","Exact","12955 BISCAYNE BLVD, NORTH MIAMI, FL, 33181",116290811,"R"
46041,"12955 NORTH MIAMI AVENUE","MIAMI","FL",33168,25.893988747,-80.198844252,41,"12955 NORTH MIAMI AVENUE, MIAMI, FL, 33168","Match","Exact","12955 N MIAMI AVE, MIAMI, FL, 33168",116033998,"R"
46042,"12955 WILLOW PL DR W 690041","HOUSTON","TX",77269,NA,NA,42,"12955 WILLOW PL DR W 690041, HOUSTON, TX, 77269","No_Match",NA,NA,NA,NA
46043,"12957 PONY EXPRESS DRIVE","PIEDMONT","SD",57769,44.2046781270001,-103.358235331,43,"12957 PONY EXPRESS DRIVE, PIEDMONT, SD, 57769","Match","Exact","12957 PONY EXPY, PIEDMONT, SD, 57769",637643740,"L"
46044,"12957 SE 275TH ST","KENT","WA",98030,47.354792752,-122.16978747,44,"12957 SE 275TH ST, KENT, WA, 98030","Match","Exact","12957 SE 275TH ST, KENT, WA, 98030",186654357,"L"
46045,"12957 TREE WAY CT S","JACKSONVILLE","FL",32258,NA,NA,45,"12957 TREE WAY CT S, JACKSONVILLE, FL, 32258","No_Match",NA,NA,NA,NA
46046,"12958 NASHVILLE RD","WOODBURN","KY",42170,36.831287205,-86.545200154,46,"12958 NASHVILLE RD, WOODBURN, KY, 42170","Match","Exact","12958 NASHVILLE RD, WOODBURN, KY, 42170",651772850,"R"
46047,"12959 JUPITER RD  STE 140","DALLAS","TX",75238,32.872301728,-96.6831975969999,47,"12959 JUPITER RD  STE 140, DALLAS, TX, 75238","Match","Exact","12959 JUPITER RD, DALLAS, TX, 75238",102917950,"L"
46048,"12959 LONGVIEW CIRCLE","JACKSONVILLE","FL",32223,30.133614838,-81.6372899099999,48,"12959 LONGVIEW CIRCLE, JACKSONVILLE, FL, 32223","Match","Exact","12959 LONGVIEW CIR, JACKSONVILLE, FL, 32223",83944171,"L"
46049,"1295B HWY 18","EDGARD","LA",70049,30.044443836,-90.518452367,49,"1295B HWY 18, EDGARD, LA, 70049","Match","Exact","1295 HWY 18, EDGARD, LA, 70049",647895148,"R"
46050,"1296 AUWAIKU STREET","KAILUA","HI",96734,21.371490183,-157.727755446,50,"1296 AUWAIKU STREET, KAILUA, HI, 96734","Match","Exact","1296 AUWAIKU ST, KAILUA, HI, 96734",203258278,"R"
46051,"1296 BURRIS  STREET","MEMPHIS","TN",38106,35.1110291900001,-90.00698905,51,"1296 BURRIS  STREET, MEMPHIS, TN, 38106","Match","Exact","1296 BURRIS ST, MEMPHIS, TN, 38106",72916901,"L"
46052,"1296 CORONA DRIVE","LEXINGTON","KY",40514,37.9790519850001,-84.571031029,52,"1296 CORONA DRIVE, LEXINGTON, KY, 40514","Match","Exact","1296 CORONA DR, LEXINGTON, KY, 40514",31938121,"R"
46053,"1296 CRONSON BLVD 3120","CROFTON","MD",21114,39.013945973,-76.6994746349999,53,"1296 CRONSON BLVD 3120, CROFTON, MD, 21114","Match","Exact","1296 CRONSON BLVD, CROFTON, MD, 21114",68195093,"R"
46054,"1296 CRONSON BOULEVARD","CROFTON","MD",21114,39.013945973,-76.6994746349999,54,"1296 CRONSON BOULEVARD, CROFTON, MD, 21114","Match","Exact","1296 CRONSON BLVD, CROFTON, MD, 21114",68195093,"R"
46055,"1296 DAMRON BRANCH","GRAYSON","KY",41143,38.313544286,-82.9191854489999,55,"1296 DAMRON BRANCH, GRAYSON, KY, 41143","Match","Exact","1296 DAMRON BRANCH, GRAYSON, KY, 41143",39590623,"L"
46056,"1296 E FLAMINGO CT","GILBERT","AZ",85297,33.276851085,-111.761140981,56,"1296 E FLAMINGO CT, GILBERT, AZ, 85297","Match","Exact","1296 E FLAMINGO CT, GILBERT, AZ, 85297",128873768,"L"
46057,"1296 HILLSIDE ROAD","SHAVERTOWN","PA",18708,41.2948995460001,-75.9465909099999,57,"1296 HILLSIDE ROAD, SHAVERTOWN, PA, 18708","Match","Exact","1296 HILLSIDE RD, SHAVERTOWN, PA, 18708",653370677,"R"
46058,"1296 INTERVALE ROAD","NEW GLOUCESTER","ME",4260,43.912077622,-70.2508098879999,58,"1296 INTERVALE ROAD, NEW GLOUCESTER, ME, 4260","Match","Exact","1296 INTERVALE RD, NEW GLOUCESTER, ME, 04260",78016957,"R"
46059,"1296 IOLA STREET","AURORA","CO",80010,39.7363024630001,-104.864651706,59,"1296 IOLA STREET, AURORA, CO, 80010","Match","Exact","1296 IOLA ST, AURORA, CO, 80010",177314308,"R"
46060,"1296 KAWIKA PL","WAILUKU","HI",96793,20.858413474,-156.505619484,60,"1296 KAWIKA PL, WAILUKU, HI, 96793","Match","Exact","1296 KAWIKA PL, WAILUKU, HI, 96793",85088306,"L"
46061,"1296 MARY JANE AVE","MEMPHIS","TN",38115,35.0023869930001,-90.020805044,61,"1296 MARY JANE AVE, MEMPHIS, TN, 38115","Match","Non_Exact","1296 MARY JANE AVE, MEMPHIS, TN, 38116",72922738,"L"
46062,"1296 PARKSIDE LANE","LAYTON","UT",84041,41.043234974,-111.989984741,62,"1296 PARKSIDE LANE, LAYTON, UT, 84041","Match","Exact","1296 PARKSIDE LN, LAYTON, UT, 84041",229356804,"R"
46063,"1296 PLACID AVENUE","VENTURA","CA",93004,34.2681371670001,-119.18210564,63,"1296 PLACID AVENUE, VENTURA, CA, 93004","Match","Exact","1296 PLACID AVE, VENTURA, CA, 93004",109956820,"L"
46064,"1296 RIDGE ROAD","CUSTER","WI",54423,44.5175573760001,-89.3804966869999,64,"1296 RIDGE ROAD, CUSTER, WI, 54423","Match","Exact","1296 RIDGE RD, CUSTER, WI, 54423",126796951,"L"
46065,"1296 S WALNUT AVE","ARLINGTON HGTS","IL",60005,42.0607221160001,-87.9884740809999,65,"1296 S WALNUT AVE, ARLINGTON HGTS, IL, 60005","Match","Non_Exact","1296 S WALNUT AVE, ARLINGTON HEIGHTS, IL, 60005",111715849,"R"
46066,"1296 WHITE OAK RD BLDG 1 APT 2","AMELIA","OH",45102,39.0400537580001,-84.240041912,66,"1296 WHITE OAK RD BLDG 1 APT 2, AMELIA, OH, 45102","Match","Exact","1296 WHITE OAK RD, AMELIA, OH, 45102",635571161,"R"
46067,"12960 CARRIE PL SE","ALBUQUERQUE","NM",87112,35.06274419,-106.503164098,67,"12960 CARRIE PL SE, ALBUQUERQUE, NM, 87112","Match","Non_Exact","12960 CARRIE PL SE, ALBUQUERQUE, NM, 87123",206721937,"R"
46068,"12960 ODYSSEY WAY","EASTVALE","CA",92880,33.9640212260001,-117.562180699,68,"12960 ODYSSEY WAY, EASTVALE, CA, 92880","Match","Exact","12960 ODYSSEY WAY, EASTVALE, CA, 92880",629824654,"L"
46069,"12960 S HOUGHTON RD","TUCSON","AZ",85747,32.0288914010001,-110.773829806,69,"12960 S HOUGHTON RD, TUCSON, AZ, 85747","Match","Exact","12960 S HOUGHTON RD, TUCSON, AZ, 85747",121189786,"L"
46070,"12963 GOLDEN MEADOW CT","FAIRFAX","VA",22033,38.896161197,-77.395909965,70,"12963 GOLDEN MEADOW CT, FAIRFAX, VA, 22033","Match","Exact","12963 GOLDEN MEADOW CT, FAIRFAX, VA, 22033",624680299,"L"
46071,"12963 SE CARRIE LYN LN","MILWAUKIE","OR",97222,45.4291698800001,-122.606635339,71,"12963 SE CARRIE LYN LN, MILWAUKIE, OR, 97222","Match","Exact","12963 SE CARRIE LYN LN, MILWAUKIE, OR, 97222",647097614,"R"
46072,"12963 THORNHILL","ST LOUIS","MO",63131,38.6066115850001,-90.467431338,72,"12963 THORNHILL, ST LOUIS, MO, 63131","Match","Non_Exact","12963 THORNHILL DR, SAINT LOUIS, MO, 63131",100192483,"R"
46073,"12963 WATSON SEED FARM ROAD","WHITAKERS","NC",27891,36.1014413510001,-77.775408757,73,"12963 WATSON SEED FARM ROAD, WHITAKERS, NC, 27891","Match","Exact","12963 WATSON SEED FARM RD, WHITAKERS, NC, 27891",90374392,"R"
46074,"12965 446TH AVE","GRENVILLE","SD",57262,45.5054738530001,-97.2883358829999,74,"12965 446TH AVE, GRENVILLE, SD, 57262","Match","Non_Exact","12965 446TH AVE, GRENVILLE, SD, 57239",647450955,"L"
46075,"12965 BUCHANAN STREET NE SUITE B","BLAINE","MN",55434,45.2053794,-93.240526318,75,"12965 BUCHANAN STREET NE SUITE B, BLAINE, MN, 55434","Match","Exact","12965 BUCHANAN ST NE, BLAINE, MN, 55434",97489020,"R"
46076,"12965 DEXTER ST","THORNTON","CO",80234,39.930701592,-104.932868689,76,"12965 DEXTER ST, THORNTON, CO, 80234","Match","Non_Exact","12965 DEXTER ST, THORNTON, CO, 80241",177306919,"L"
46077,"12965 JESSIE STREET","CARLYLE","IL",62231,38.6093732420001,-89.236069974,77,"12965 JESSIE STREET, CARLYLE, IL, 62231","Match","Non_Exact","12965 JESSE ST, CARLYLE, IL, 62231",94812630,"L"
46078,"12966 TIGERS EYE DRIVE","VENICE","FL",34292,27.0831757180001,-82.3372821149999,78,"12966 TIGERS EYE DRIVE, VENICE, FL, 34292","Match","Exact","12966 TIGERS EYE DR, VENICE, FL, 34292",614849551,"L"
46079,"12967 GAR HWY","CHARDON","OH",44024,41.591000496,-81.175717242,79,"12967 GAR HWY, CHARDON, OH, 44024","Match","Exact","12967 GAR HWY, CHARDON, OH, 44024",137442045,"R"
46080,"12967 N NORMANDY WAY","WEST PALM BEACH","FL",33410,26.866631736,-80.0740629749999,80,"12967 N NORMANDY WAY, WEST PALM BEACH, FL, 33410","Match","Exact","12967 N NORMANDY WAY, WEST PALM BEACH, FL, 33410",115580474,"R"
46081,"12968 HIGHWAY 9","BOULDER CREEK","CA",95006,37.122039934,-122.121216683,81,"12968 HIGHWAY 9, BOULDER CREEK, CA, 95006","Match","Non_Exact","12968 STATE RTE 9, BOULDER CREEK, CA, 95006",125501813,"R"
46082,"12969 GALEWOOD ST","APPLE VALLEY","CA",92308,34.4878392190001,-117.243386366,82,"12969 GALEWOOD ST, APPLE VALLEY, CA, 92308","Match","Non_Exact","12969 GALEWOOD DR, APPLE VALLEY, CA, 92308",144765863,"L"
46083,"12969 NW 9TH TERRACE","MIAMI","FL",33182,25.7788034910001,-80.405818208,83,"12969 NW 9TH TERRACE, MIAMI, FL, 33182","Match","Non_Exact","12969 NW 9TH TER, MIAMI, FL, 33182",116088383,"R"
46084,"1297 14TH AVE","MARION","IA",52302,42.0391930600001,-91.595770595,84,"1297 14TH AVE, MARION, IA, 52302","Match","Exact","1297 14TH AVE, MARION, IA, 52302",17022990,"R"
46085,"1297 BELL ROAD","CHAGRIN FALLS","OH",44022,41.4315568260001,-81.329517718,85,"1297 BELL ROAD, CHAGRIN FALLS, OH, 44022","Match","Exact","1297 BELL RD, CHAGRIN FALLS, OH, 44022",137433835,"L"
46086,"1297 CENTENNIAL AVE - SUITE 5-115","PISCATAWAY","NJ",8854,40.552426257,-74.454500518,86,"1297 CENTENNIAL AVE - SUITE 5-115, PISCATAWAY, NJ, 8854","Match","Exact","1297 CENTENNIAL AVE, PISCATAWAY, NJ, 08854",60260276,"L"
46087,"1297 CENTENNIAL AVE STE 5-350","PISCATAWAY","NJ",8854,40.552426257,-74.454500518,87,"1297 CENTENNIAL AVE STE 5-350, PISCATAWAY, NJ, 8854","Match","Exact","1297 CENTENNIAL AVE, PISCATAWAY, NJ, 08854",60260276,"L"
46088,"1297 FARMVIEW DRIVE","BUCYRUS","OH",44820,40.793564792,-82.991767194,88,"1297 FARMVIEW DRIVE, BUCYRUS, OH, 44820","Match","Exact","1297 FARMVIEW DR, BUCYRUS, OH, 44820",12074467,"L"
46089,"1297 HEARTWOOD AVE","MCDONOUGH","GA",30253,NA,NA,89,"1297 HEARTWOOD AVE, MCDONOUGH, GA, 30253","No_Match",NA,NA,NA,NA
46090,"1297 HOOKS RD","HARDINSBURG","KY",40143,NA,NA,90,"1297 HOOKS RD, HARDINSBURG, KY, 40143","No_Match",NA,NA,NA,NA
46091,"1297 MARLKRESS ROAD","CHERRY HILL","NJ",8003,39.89210266,-74.987250764,91,"1297 MARLKRESS ROAD, CHERRY HILL, NJ, 8003","Match","Exact","1297 MARLKRESS RD, CHERRY HILL, NJ, 08003",134358038,"L"
46092,"1297 MYCROFT DR","COCOA","FL",32926,28.3787697120001,-80.8201647939999,92,"1297 MYCROFT DR, COCOA, FL, 32926","Match","Exact","1297 MYCROFT DR, COCOA, FL, 32926",629900264,"L"
46093,"1297 N CHAUCER WAY","EAGLE","ID",83616,43.7070996030001,-116.386591068,93,"1297 N CHAUCER WAY, EAGLE, ID, 83616","Match","Exact","1297 N CHAUCER WAY, EAGLE, ID, 83616",117880405,"L"
46094,"1297 PASEO DEL OSO LN","HENDERSON","NV",89002,36.0019880450001,-114.936728244,94,"1297 PASEO DEL OSO LN, HENDERSON, NV, 89002","Match","Exact","1297 PASEO DEL OSO LN, HENDERSON, NV, 89002",651831824,"R"
46095,"1297 PHEASANT RUN DRIVE","CANAL WINCHESTER","OH",43110,39.75487465,-82.812517568,95,"1297 PHEASANT RUN DRIVE, CANAL WINCHESTER, OH, 43110","Match","Non_Exact","1297 PHEASANT RUN DR NW, CANAL WINCHESTER, OH, 43110",37233922,"R"
46096,"1297 RHEMS ROAD","ANDREWS","SC",29510,33.605871183,-79.4958170789999,96,"1297 RHEMS ROAD, ANDREWS, SC, 29510","Match","Exact","1297 RHEMS RD, ANDREWS, SC, 29510",29211342,"R"
46097,"1297 SAINT ANDREWS DRIVE","HOLLAND","MI",49423,42.751906723,-86.125436736,97,"1297 SAINT ANDREWS DRIVE, HOLLAND, MI, 49423","Match","Exact","1297 ST ANDREWS DR, HOLLAND, MI, 49423",11448513,"L"
46098,"1297 SCENIC HIGHWAY","RISING FAWN","GA",30738,34.817868479,-85.4684304,98,"1297 SCENIC HIGHWAY, RISING FAWN, GA, 30738","Match","Exact","1297 SCENIC HWY, RISING FAWN, GA, 30738",79404328,"L"
46099,"1297 VAN DYKE ST","ST PAUL","MN",55119,44.9808515980001,-93.0227304429999,99,"1297 VAN DYKE ST, ST PAUL, MN, 55119","Match","Exact","1297 VAN DYKE ST, SAINT PAUL, MN, 55119",97653112,"L"
46100,"1297 VILLA RICA HWY","DALLAS","GA",30157,33.893740741,-84.835473768,100,"1297 VILLA RICA HWY, DALLAS, GA, 30157","Match","Exact","1297 VILLA RICA HWY, DALLAS, GA, 30157",17743462,"R"
46101,"1297 W MARTINTOWN ROAD","NORTH AUGUSTA","SC",29841,33.5440956510001,-81.996606401,101,"1297 W MARTINTOWN ROAD, NORTH AUGUSTA, SC, 29841","Match","Exact","1297 W MARTINTOWN RD, NORTH AUGUSTA, SC, 29841",65027162,"L"
46102,"1297 WEST 85TH STREET","CLEVELAND","OH",44102,41.482443344,-81.743204959,102,"1297 WEST 85TH STREET, CLEVELAND, OH, 44102","Match","Exact","1297 W 85TH ST, CLEVELAND, OH, 44102",61101016,"L"
46103,"1297 WEST AVENUE","HILTON","NY",14468,43.2875614480001,-77.818774359,103,"1297 WEST AVENUE, HILTON, NY, 14468","Match","Exact","1297 WEST AVE, HILTON, NY, 14468",14551082,"L"
46104,"1297","BEDFORD","IN",47421,NA,NA,104,"1297, BEDFORD, IN, 47421","No_Match",NA,NA,NA,NA
46105,"12970 57TH ROAD NORTH","WEST PALM BEACH","FL",33411,26.761747116,-80.246641913,105,"12970 57TH ROAD NORTH, WEST PALM BEACH, FL, 33411","Match","Exact","12970 57TH RD N, WEST PALM BEACH, FL, 33411",115535661,"R"
46106,"12970 SELLARONDA WAY","FRISCO","TX",75035,33.1292035210001,-96.76618143,106,"12970 SELLARONDA WAY, FRISCO, TX, 75035","Match","Exact","12970 SELLARONDA WAY, FRISCO, TX, 75035",646669952,"L"
46107,"12970 WESTHEIMER RD STE 103","HOUSTON","TX",77077,29.7359526760001,-95.617913969,107,"12970 WESTHEIMER RD STE 103, HOUSTON, TX, 77077","Match","Exact","12970 WESTHEIMER RD, HOUSTON, TX, 77077",96618846,"L"
46108,"12972 MADISON RD","HUNTSBURG","OH",44046,NA,NA,108,"12972 MADISON RD, HUNTSBURG, OH, 44046","No_Match",NA,NA,NA,NA
46109,"12973 KINGSTON WAY","NORTH ROYALTON","OH",44133,41.2844970460001,-81.7812872979999,109,"12973 KINGSTON WAY, NORTH ROYALTON, OH, 44133","Match","Exact","12973 KINGSTON WAY, N ROYALTON, OH, 44133",61132562,"R"
46110,"12973 SW 112 STREET - 335","MIAMI","FL",33186,25.663962081,-80.403613433,110,"12973 SW 112 STREET - 335, MIAMI, FL, 33186","Match","Non_Exact","12973 SW 112TH ST, MIAMI, FL, 33186",115968047,"L"
46111,"12973 SW 112 STREET 189","MIAMI","FL",33186,25.663962081,-80.403613433,111,"12973 SW 112 STREET 189, MIAMI, FL, 33186","Match","Non_Exact","12973 SW 112TH ST, MIAMI, FL, 33186",115968047,"L"
46112,"12973 SW 112 STREET SUITE 210","MIAMI","FL",33186,25.663962081,-80.403613433,112,"12973 SW 112 STREET SUITE 210, MIAMI, FL, 33186","Match","Non_Exact","12973 SW 112TH ST, MIAMI, FL, 33186",115968047,"L"
46113,"12973 SW 112TH STREET 221","MIAMI","FL",33186,25.663962081,-80.403613433,113,"12973 SW 112TH STREET 221, MIAMI, FL, 33186","Match","Non_Exact","12973 SW 112TH ST, MIAMI, FL, 33186",115968047,"L"
46114,"12973 W 28TH PL","BEACH PARK","IL",60099,42.4438497420001,-87.8814488209999,114,"12973 W 28TH PL, BEACH PARK, IL, 60099","Match","Exact","12973 W 28TH PL, BEACH PARK, IL, 60099",119712928,"R"
46115,"12976 HWY 1","OIL CITY","LA",71061,32.771104313,-93.9795766729999,115,"12976 HWY 1, OIL CITY, LA, 71061","Match","Exact","12976 HWY 1, OIL CITY, LA, 71061",57475131,"R"
46116,"12976 NETTLES DRIVE","NEWPORT NEWS","VA",23602,37.1035914080001,-76.505278676,116,"12976 NETTLES DRIVE, NEWPORT NEWS, VA, 23602","Match","Exact","12976 NETTLES DR, NEWPORT NEWS, VA, 23602",103822356,"R"
46117,"12977 HIGHWAY F62 E","SULLY","IA",50251,NA,NA,117,"12977 HIGHWAY F62 E, SULLY, IA, 50251","No_Match",NA,NA,NA,NA
46118,"12977 NORTH EASTSHORE DRIVE","SYRACUSE","IN",46567,41.4228227410001,-85.726360361,118,"12977 NORTH EASTSHORE DRIVE, SYRACUSE, IN, 46567","Match","Exact","12977 N EASTSHORE DR, SYRACUSE, IN, 46567",639710529,"L"
46119,"12978 SOPHIE FALLS AVE","FAIRHOPE","AL",36532,NA,NA,119,"12978 SOPHIE FALLS AVE, FAIRHOPE, AL, 36532","No_Match",NA,NA,NA,NA
46120,"12979 N YELLOW ORCHID DR","ORO VALLEY","AZ",85755,32.4411208440001,-110.983297581,120,"12979 N YELLOW ORCHID DR, ORO VALLEY, AZ, 85755","Match","Exact","12979 N YELLOW ORCHID DR, ORO VALLEY, AZ, 85755",606801508,"L"
46121,"1298 BROOKFIELD RD","MEMPHIS","TN",38119,35.096369388,-89.873982519,121,"1298 BROOKFIELD RD, MEMPHIS, TN, 38119","Match","Exact","1298 BROOKFIELD RD, MEMPHIS, TN, 38119",72927271,"L"
46122,"1298 CAPPS RD","MCEWEN","TN",37101,36.1435369610001,-87.618625046,122,"1298 CAPPS RD, MCEWEN, TN, 37101","Match","Non_Exact","1298 CAPPS RD, MC EWEN, TN, 37101",19874039,"R"
46123,"1298 CRYSTAL TREE COURT","BLACKLICK","OH",43004,40.00956131,-82.822631518,123,"1298 CRYSTAL TREE COURT, BLACKLICK, OH, 43004","Match","Exact","1298 CRYSTAL TREE CT, BLACKLICK, OH, 43004",218566266,"L"
46124,"1298 E 142ND ST S","GRINNELL","IA",50112,41.6870598200001,-92.798853534,124,"1298 E 142ND ST S, GRINNELL, IA, 50112","Match","Exact","1298 E 142ND ST S, GRINNELL, IA, 50112",624721635,"L"
46125,"1298 HARRIS RIDGE RD","YOUNG HARRIS","GA",30582,34.967258703,-83.840166746,125,"1298 HARRIS RIDGE RD, YOUNG HARRIS, GA, 30582","Match","Exact","1298 HARRIS RIDGE RD, YOUNG HARRIS, GA, 30582",624960716,"L"
46126,"1298 HARTFORD TURNPIKE 8H","NORTH HAVEN","CT",6473,41.381626586,-72.882795303,126,"1298 HARTFORD TURNPIKE 8H, NORTH HAVEN, CT, 6473","Match","Exact","1298 HARTFORD TPKE, NORTH HAVEN, CT, 06473",641648059,"L"
46127,"1298 HARTFORD TURNPIKE UNIT 4A","NORTH HAVEN","CT",6473,41.381626586,-72.882795303,127,"1298 HARTFORD TURNPIKE UNIT 4A, NORTH HAVEN, CT, 6473","Match","Exact","1298 HARTFORD TPKE, NORTH HAVEN, CT, 06473",641648059,"L"
46128,"1298 HAZY FALLS BLVD","WESTFIELD","IN",46074,40.049946806,-86.183695837,128,"1298 HAZY FALLS BLVD, WESTFIELD, IN, 46074","Match","Exact","1298 HAZY FALLS BLVD, WESTFIELD, IN, 46074",640735647,"R"
46129,"1298 MAIN STREET","ROTTERDAM JUNCTION","NY",12150,42.8740723390001,-74.045168959,129,"1298 MAIN STREET, ROTTERDAM JUNCTION, NY, 12150","Match","Exact","1298 MAIN ST, ROTTERDAM JCT, NY, 12150",18032958,"L"
46130,"1298 MEADOW VISTA DRIVE","MAINEVILLE","OH",45039,39.345120745,-84.241793463,130,"1298 MEADOW VISTA DRIVE, MAINEVILLE, OH, 45039","Match","Exact","1298 MEADOW VISTA DR, MAINEVILLE, OH, 45039",617732321,"R"
46131,"1298 MEADOWLAKE WAY","MONUMENT","CO",80132,39.1026396610001,-104.850310615,131,"1298 MEADOWLAKE WAY, MONUMENT, CO, 80132","Match","Exact","1298 MEADOWLAKE WAY, MONUMENT, CO, 80132",647971198,"R"
46132,"1298 NATIONAL RD SW","ETNA","OH",43062,NA,NA,132,"1298 NATIONAL RD SW, ETNA, OH, 43062","No_Match",NA,NA,NA,NA
46133,"1298 ROCKBRIDGE ROAD SUITE D","STONE MOUNTAIN","GA",30087,33.8391067580001,-84.1305138609999,133,"1298 ROCKBRIDGE ROAD SUITE D, STONE MOUNTAIN, GA, 30087","Match","Exact","1298 ROCKBRIDGE RD, STONE MOUNTAIN, GA, 30087",88887096,"L"
46134,"1298 STATE RD","ELIOT","ME",3903,43.1224531240001,-70.787562253,134,"1298 STATE RD, ELIOT, ME, 3903","Match","Exact","1298 STATE RD, ELIOT, ME, 03903",92759769,"L"
46135,"1298 SWISS LANE","DELTONA","FL",32738,28.900382886,-81.169201,135,"1298 SWISS LANE, DELTONA, FL, 32738","Match","Exact","1298 SWISS LN, DELTONA, FL, 32738",94592086,"L"
46136,"1298 WEST CEDAR STREET","OXNARD","CA",93033,34.184782452,-119.19266832,136,"1298 WEST CEDAR STREET, OXNARD, CA, 93033","Match","Exact","1298 W CEDAR ST, OXNARD, CA, 93033",110116252,"L"
46137,"1298","LOS ANGELES","CA",90007,NA,NA,137,"1298, LOS ANGELES, CA, 90007","No_Match",NA,NA,NA,NA
46138,"12980 PERRY HIGHWAY","WEXFORD","PA",15090,40.6451554340001,-80.070466616,138,"12980 PERRY HIGHWAY, WEXFORD, PA, 15090","Match","Exact","12980 PERRY HWY, WEXFORD, PA, 15090",647503340,"R"
46139,"12980 SW 108TH STREET CIR","MIAMI","FL",33186,25.666791254,-80.4047383119999,139,"12980 SW 108TH STREET CIR, MIAMI, FL, 33186","Match","Exact","12980 SW 108TH STREET CIR, MIAMI, FL, 33186",115967930,"R"
46140,"12980 SW 267TH ST","HOMESTEAD","FL",33032,25.518933029,-80.402068077,140,"12980 SW 267TH ST, HOMESTEAD, FL, 33032","Match","Exact","12980 SW 267TH ST, HOMESTEAD, FL, 33032",642087247,"L"
46141,"12981 COUNTY 10 POB 202","OSAKIS","MN",56360,45.945048451,-95.094544489,141,"12981 COUNTY 10 POB 202, OSAKIS, MN, 56360","Match","Exact","12981 COUNTY 10, OSAKIS, MN, 56360",201414991,"R"
46142,"12981 MT CHARLESTON ST","RENO","NV",89506,39.652609403,-119.875719959,142,"12981 MT CHARLESTON ST, RENO, NV, 89506","Match","Exact","12981 MOUNT CHARLESTON ST, RENO, NV, 89506",107040031,"L"
46143,"12982 10TH STREET","MILAKA","MN",56353,45.70687266,-93.67594632,143,"12982 10TH STREET, MILAKA, MN, 56353","Match","Non_Exact","12982 110TH ST, MILACA, MN, 56353",163064367,"R"
46144,"12983 CONVOY RD","VAN WERT","OH",45891,40.9172845460001,-84.572185842,144,"12983 CONVOY RD, VAN WERT, OH, 45891","Match","Exact","12983 CONVOY RD, VAN WERT, OH, 45891",6769414,"R"
46145,"12985 N CARLSBAD PL","TUCSON","AZ",85755,32.441605339,-110.990161168,145,"12985 N CARLSBAD PL, TUCSON, AZ, 85755","Match","Exact","12985 N CARLSBAD PL, TUCSON, AZ, 85755",617654312,"R"
46146,"12985 PIERCE RD","SARATOGA","CA",95070,37.279438559,-122.038258923,146,"12985 PIERCE RD, SARATOGA, CA, 95070","Match","Exact","12985 PIERCE RD, SARATOGA, CA, 95070",614043088,"R"
46147,"12985 STATE RT 347","MARYSVILLE","OH",43040,40.3442378250001,-83.299870904,147,"12985 STATE RT 347, MARYSVILLE, OH, 43040","Match","Exact","12985 STATE RTE 347, MARYSVILLE, OH, 43040",135333433,"L"
46148,"12985 TOM SMITH RD","HENDERSON","KY",42420,37.7761440950001,-87.432758812,148,"12985 TOM SMITH RD, HENDERSON, KY, 42420","Match","Exact","12985 TOM SMITH RD, HENDERSON, KY, 42420",57930987,"L"
46149,"12986 SQUIRREL TREE ROAD","WILLIS","TX",77318,30.477801405,-95.5501085339999,149,"12986 SQUIRREL TREE ROAD, WILLIS, TX, 77318","Match","Exact","12986 SQUIRREL TREE RD, WILLIS, TX, 77318",79298949,"L"
46150,"12986 W CROSS DRIVE","LITTLETON","CO",80127,39.613634275,-105.144427787,150,"12986 W CROSS DRIVE, LITTLETON, CO, 80127","Match","Exact","12986 W CROSS DR, LITTLETON, CO, 80127",177322263,"R"
46151,"12986","OJAI","CA",93023,NA,NA,151,"12986, OJAI, CA, 93023","No_Match",NA,NA,NA,NA
46152,"12988 CARMEL CREEK ROAD UNIT 175","SAN DIEGO","CA",92130,32.951990139,-117.226803609,152,"12988 CARMEL CREEK ROAD UNIT 175, SAN DIEGO, CA, 92130","Match","Exact","12988 CARMEL CREEK RD, SAN DIEGO, CA, 92130",645893304,"R"
46153,"12988 ECHO LN","APPLE VALLEY","MN",55124,44.7619970690001,-93.168020332,153,"12988 ECHO LN, APPLE VALLEY, MN, 55124","Match","Exact","12988 ECHO LN, APPLE VALLEY, MN, 55124",37927547,"L"
46154,"12989 UPPER HARDEN AVE","ORLANDO","FL",32827,28.378668869,-81.2503541889999,154,"12989 UPPER HARDEN AVE, ORLANDO, FL, 32827","Match","Exact","12989 UPPER HARDEN AVE, ORLANDO, FL, 32827",645279808,"R"
46155,"1299 4TH ST STE 304","SAN RAFAEL","CA",94901,37.973384819,-122.53062367,155,"1299 4TH ST STE 304, SAN RAFAEL, CA, 94901","Match","Exact","1299 4TH ST, SAN RAFAEL, CA, 94901",192764578,"L"
46156,"1299 66TH ST N STE 41694","ST PETERSBURG","FL",33710,27.7842363870001,-82.728431853,156,"1299 66TH ST N STE 41694, ST PETERSBURG, FL, 33710","Match","Exact","1299 66TH ST N, SAINT PETERSBURG, FL, 33710",124698160,"R"
46157,"1299 ANTELOPE CR DR 297","ROSEVILLE","CA",95678,38.769792405,-121.25604944,157,"1299 ANTELOPE CR DR 297, ROSEVILLE, CA, 95678","Match","Exact","1299 ANTELOPE CREEK DR, ROSEVILLE, CA, 95678",608090696,"L"
46158,"1299 BATTLE CREEK RD STE 110","JONESBORO","GA",30236,33.5532539210001,-84.345549397,158,"1299 BATTLE CREEK RD STE 110, JONESBORO, GA, 30236","Match","Non_Exact","1299 BATTLECREEK RD, JONESBORO, GA, 30236",23316737,"R"
46159,"1299 COLUMBIA AVENUE","PLAINFIELD","NJ",7062,40.6333020070001,-74.400729381,159,"1299 COLUMBIA AVENUE, PLAINFIELD, NJ, 7062","Match","Exact","1299 COLUMBIA AVE, PLAINFIELD, NJ, 07062",60603672,"L"
46160,"1299 FORT COBB TERRACE","WESLEY CHAPEL","FL",33543,28.1759828990001,-82.282566921,160,"1299 FORT COBB TERRACE, WESLEY CHAPEL, FL, 33543","Match","Exact","1299 FORT COBB TER, WESLEY CHAPEL, FL, 33543",650546261,"R"
46161,"1299 HOMESTEAD RD  N","LEHIGH ACRES","FL",33936,26.6088304800001,-81.65216172,161,"1299 HOMESTEAD RD  N, LEHIGH ACRES, FL, 33936","Match","Exact","1299 HOMESTEAD RD N, LEHIGH ACRES, FL, 33936",117987421,"L"
46162,"1299 JARBRIDGE RD","LAS VEGAS","NV",89110,36.1831010920001,-115.051809693,162,"1299 JARBRIDGE RD, LAS VEGAS, NV, 89110","Match","Exact","1299 JARBRIDGE RD, LAS VEGAS, NV, 89110",202001173,"L"
46163,"1299 MAYLAND DRIVE","CINCINNATI","OH",45230,39.077023872,-84.385302541,163,"1299 MAYLAND DRIVE, CINCINNATI, OH, 45230","Match","Exact","1299 MAYLAND DR, CINCINNATI, OH, 45230",103962224,"L"
46164,"1299 MILSTEAD AVENUE","CONYERS","GA",30012,33.6780271540001,-84.0092268769999,164,"1299 MILSTEAD AVENUE, CONYERS, GA, 30012","Match","Non_Exact","1299 MILSTEAD AVE NE, CONYERS, GA, 30012",622151832,"R"
46165,"1299 MORTON STREET","CAMDEN","NJ",8104,39.9265616480001,-75.1017911279999,165,"1299 MORTON STREET, CAMDEN, NJ, 8104","Match","Exact","1299 MORTON ST, CAMDEN, NJ, 08104",134347899,"L"
46166,"1299 N 7TH STREET - 3502","PHILADELPHIA","PA",19122,NA,NA,166,"1299 N 7TH STREET - 3502, PHILADELPHIA, PA, 19122","No_Match",NA,NA,NA,NA
46167,"1299 NEAL ST NE","WASHINGTON","DC",20002,38.903463409,-76.9863612139999,167,"1299 NEAL ST NE, WASHINGTON, DC, 20002","Match","Exact","1299 NEAL ST NE, WASHINGTON, DC, 20002",76230133,"R"
46168,"1299 OCEAN AVE APT 3E","BROOKLYN","NY",11230,40.6307053620001,-73.957324305,168,"1299 OCEAN AVE APT 3E, BROOKLYN, NY, 11230","Match","Exact","1299 OCEAN AVE, BROOKLYN, NY, 11230",59081637,"L"
46169,"1299 OCEAN AVE SUITE 333","SANTA MONICA","CA",90401,34.015530174,-118.499720224,169,"1299 OCEAN AVE SUITE 333, SANTA MONICA, CA, 90401","Match","Exact","1299 OCEAN AVE, SANTA MONICA, CA, 90401",141559444,"L"
46170,"1299 S HAUGH AVE","PICAYUNE","MS",39466,30.508590908,-89.682037927,170,"1299 S HAUGH AVE, PICAYUNE, MS, 39466","Match","Exact","1299 S HAUGH AVE, PICAYUNE, MS, 39466",614111464,"R"
46171,"1299 S MAIN ST  NUMBER 105","YREKA","CA",96097,41.718469773,-122.639742647,171,"1299 S MAIN ST  NUMBER 105, YREKA, CA, 96097","Match","Non_Exact","1299 S MAIN ST, YREKA, CA, 96097",613789598,"L"
46172,"1299 S PAPAGO DRIVE","PUEBLO WEST","CO",81007,38.291904801,-104.757705023,172,"1299 S PAPAGO DRIVE, PUEBLO WEST, CO, 81007","Match","Exact","1299 S PAPAGO DR, PUEBLO WEST, CO, 81007",105034803,"L"
46173,"1299 SOUTH MAIN STREET SUITE C 119","YREKA","CA",96097,41.718469773,-122.639742647,173,"1299 SOUTH MAIN STREET SUITE C 119, YREKA, CA, 96097","Match","Exact","1299 S MAIN ST, YREKA, CA, 96097",613789598,"L"
46174,"1299 WEST 114 STREET","CLEVELAND","OH",44102,41.485156083,-81.765264367,174,"1299 WEST 114 STREET, CLEVELAND, OH, 44102","Match","Exact","1299 W 114TH ST, CLEVELAND, OH, 44102",61178410,"L"
46175,"1299 WEST 75 NORTH","CENTERVILLE","UT",84014,40.917320735,-111.898483608,175,"1299 WEST 75 NORTH, CENTERVILLE, UT, 84014","Match","Exact","1299 W 75 N, CENTERVILLE, UT, 84014",155336519,"L"
46176,"12991 CHETS CREEK DR N","JACKSONVILLE","CA",32224,NA,NA,176,"12991 CHETS CREEK DR N, JACKSONVILLE, CA, 32224","No_Match",NA,NA,NA,NA
46177,"12992 145TH AVE","OTTUMWA","IA",52501,41.0745834040001,-92.4387275459999,177,"12992 145TH AVE, OTTUMWA, IA, 52501","Match","Exact","12992 145TH AVE, OTTUMWA, IA, 52501",89624950,"L"
46178,"12992 DARTMORE CIRCLE","ALPHARETTA","GA",30005,NA,NA,178,"12992 DARTMORE CIRCLE, ALPHARETTA, GA, 30005","No_Match",NA,NA,NA,NA
46179,"12994 FLATIRON TRL","FRISCO","TX",75035,33.1328374620001,-96.7657776469999,179,"12994 FLATIRON TRL, FRISCO, TX, 75035","Match","Exact","12994 FLATIRON TRL, FRISCO, TX, 75035",641736734,"L"
46180,"12994 LEGEND LAKES DRIVE","ROSCOE","IL",61073,42.449946853,-88.958906419,180,"12994 LEGEND LAKES DRIVE, ROSCOE, IL, 61073","Match","Exact","12994 LEGEND LAKES DR, ROSCOE, IL, 61073",49272979,"L"
46181,"12995 N ORACLE RD STE 328","TUCSON","AZ",85739,32.4412884970001,-110.933933658,181,"12995 N ORACLE RD STE 328, TUCSON, AZ, 85739","Match","Non_Exact","12995 N ORACLE RD, TUCSON, AZ, 85739",652597339,"R"
46182,"12995 S CLEVELAND AVE STE 208","FORT MYERS","FL",33907,NA,NA,182,"12995 S CLEVELAND AVE STE 208, FORT MYERS, FL, 33907","No_Match",NA,NA,NA,NA
46183,"12996 FRONTIER PARKWAY","OREGON CITY","OR",97045,45.32226595,-122.599703942,183,"12996 FRONTIER PARKWAY, OREGON CITY, OR, 97045","Match","Exact","12996 FRONTIER PKWY, OREGON CITY, OR, 97045",642612769,"L"
46184,"12997 E FLORIDA AVE","AURORA","CO",80012,39.6881284840001,-104.838844611,184,"12997 E FLORIDA AVE, AURORA, CO, 80012","Match","Exact","12997 E FLORIDA AVE, AURORA, CO, 80012",177354261,"L"
46185,"12999 MURPHY ROAD SUITE B-3","STAFFORD","TX",77477,29.6337698090001,-95.565029372,185,"12999 MURPHY ROAD SUITE B-3, STAFFORD, TX, 77477","Match","Exact","12999 MURPHY RD, STAFFORD, TX, 77477",78341121,"R"
46186,"129NW COLUMBIA AVE","CHAPIN","SC",29036,34.1677797070001,-81.355540662,186,"129NW COLUMBIA AVE, CHAPIN, SC, 29036","Match","Exact","129 COLUMBIA AVE, CHAPIN, SC, 29036",70045729,"R"
46187,"12A LAKE AVENUE","HELMETTA","NJ",8828,40.381517998,-74.418177777,187,"12A LAKE AVENUE, HELMETTA, NJ, 8828","Match","Exact","12 LAKE AVE, HELMETTA, NJ, 08828",641772866,"L"
46188,"12A LARK DRIVE","ALBANY","NY",12210,42.6646059330001,-73.751016743,188,"12A LARK DRIVE, ALBANY, NY, 12210","Match","Exact","12 LARK DR, ALBANY, NY, 12210",624846644,"L"
46189,"12A STRAWTOWN ROAD","WEST NYACK","NY",10994,41.094724324,-73.972621009,189,"12A STRAWTOWN ROAD, WEST NYACK, NY, 10994","Match","Exact","12 STRAWTOWN RD, WEST NYACK, NY, 10994",124598295,"R"
46190,"12A279 LINCOLN CT","APPLE RIVER","IL",61001,42.4213110740001,-90.166876512,190,"12A279 LINCOLN CT, APPLE RIVER, IL, 61001","Match","Exact","12 LINCOLN CT, APPLE RIVER, IL, 61001",27718543,"R"
46191,"12B CORSONS TAVERN ROAD","SEAVILLE","NJ",8230,39.2054795990001,-74.7092376749999,191,"12B CORSONS TAVERN ROAD, SEAVILLE, NJ, 8230","Match","Non_Exact","12 CORSONS TAVERN RD, OCEAN VIEW, NJ, 08230",174358833,"L"
46192,"12C ACADEMY LANE","DEERFIELD","MA",1342,42.5447075010001,-72.602597347,192,"12C ACADEMY LANE, DEERFIELD, MA, 1342","Match","Exact","12 ACADEMY LN, DEERFIELD, MA, 01342",39936664,"L"
46193,"12G SEVEN SPRINGS LANE","BURLINGTON","MA",1803,42.47486337,-71.2081045749999,193,"12G SEVEN SPRINGS LANE, BURLINGTON, MA, 1803","Match","Exact","12 SEVEN SPRINGS LN, BURLINGTON, MA, 01803",647973766,"R"
46194,"12N044 MUIRHEAD RD","PLATO","IL",60124,NA,NA,194,"12N044 MUIRHEAD RD, PLATO, IL, 60124","No_Match",NA,NA,NA,NA
46195,"12N707 ROMKE RD","HAMPSHIRE","IL",60140,42.0511164770001,-88.509034572,195,"12N707 ROMKE RD, HAMPSHIRE, IL, 60140","Match","Exact","12N707 ROMKE RD, HAMPSHIRE, IL, 60140",119498246,"R"
46196,"12OO S CLEARVIEW PKY STE 1166","HARAHAN","LA",70123,NA,NA,196,"12OO S CLEARVIEW PKY STE 1166, HARAHAN, LA, 70123","No_Match",NA,NA,NA,NA
46197,"13 1/2 VAN HOUTEN ST APT 411","PATERSON","NJ",7505,NA,NA,197,"13 1/2 VAN HOUTEN ST APT 411, PATERSON, NJ, 7505","No_Match",NA,NA,NA,NA
46198,"13 2ND ST","ALBANY","NY",12210,42.6577424600001,-73.752250675,198,"13 2ND ST, ALBANY, NY, 12210","Match","Exact","13 2ND ST, ALBANY, NY, 12210",18310433,"R"
46199,"13 2ND STREET SE","WATERTOWN","SD",57201,44.899576815,-97.1113147839999,199,"13 2ND STREET SE, WATERTOWN, SD, 57201","Match","Exact","13 2ND ST SE, WATERTOWN, SD, 57201",200730004,"L"
46200,"13 35TH AVE NW","GIG HARBOR","WA",98335,47.2558659700001,-122.58560376,200,"13 35TH AVE NW, GIG HARBOR, WA, 98335","Match","Exact","13 35TH AVE NW, GIG HARBOR, WA, 98335",184660597,"R"
46201,"13 A W ERWIN CT","LAS VEGAS","NC",89115,NA,NA,201,"13 A W ERWIN CT, LAS VEGAS, NC, 89115","No_Match",NA,NA,NA,NA
46202,"13 ABBY ELLEN LN","PEABODY","MA",1960,42.510967351,-70.967112035,202,"13 ABBY ELLEN LN, PEABODY, MA, 1960","Match","Exact","13 ABBY ELLEN LN, PEABODY, MA, 01960",86666956,"R"
46203,"13 AIRLINE DRIVE","NEWPORT NEWSS","VA",23608,37.1451497150001,-76.562826108,203,"13 AIRLINE DRIVE, NEWPORT NEWSS, VA, 23608","Match","Non_Exact","13 ARLINE DR, NEWPORT NEWS, VA, 23608",103750301,"R"
46204,"13 ALBERT MEADOW","BAR HARBOR","ME",4609,44.3881742840001,-68.203012051,204,"13 ALBERT MEADOW, BAR HARBOR, ME, 4609","Match","Exact","13 ALBERT MEADOW, BAR HARBOR, ME, 04609",648457185,"R"
46205,"13 ALLEN DRIVE","SALISBURY","MA",1952,42.8523833740001,-70.869025978,205,"13 ALLEN DRIVE, SALISBURY, MA, 1952","Match","Exact","13 ALLEN DR, SALISBURY, MA, 01952",86669997,"L"
46206,"13 ALLYN RD","GOSHEN","CT",6756,41.8358880490001,-73.272480682,206,"13 ALLYN RD, GOSHEN, CT, 6756","Match","Exact","13 ALLYN RD, GOSHEN, CT, 06756",3100358,"R"
46207,"13 ANTLER TRAIL","BELTON","TX",76513,31.156187975,-97.484904818,207,"13 ANTLER TRAIL, BELTON, TX, 76513","Match","Exact","13 ANTLER TRL, BELTON, TX, 76513",146155188,"L"
46208,"13 ARDMORE CIR","CARTERSVILE","GA",30120,34.1319702530001,-84.8013315219999,208,"13 ARDMORE CIR, CARTERSVILE, GA, 30120","Match","Non_Exact","13 ARDMORE CIR, CARTERSVILLE, GA, 30120",30467784,"R"
46209,"13 ASH CT","NOVATO","CA",94949,38.072821451,-122.564754997,209,"13 ASH CT, NOVATO, CA, 94949","Match","Exact","13 ASH CT, NOVATO, CA, 94949",192787438,"L"
46210,"13 ASTON COURT","OWINGS MILLS","MD",21117,39.456898956,-76.7673299909999,210,"13 ASTON COURT, OWINGS MILLS, MD, 21117","Match","Exact","13 ASTON CT, OWINGS MILLS, MD, 21117",191561659,"R"
46211,"13 BACHMAN WASH ROAD","ORACLE","AZ",85623,32.600587078,-110.788836828,211,"13 BACHMAN WASH ROAD, ORACLE, AZ, 85623","Match","Exact","13 BACHMAN WASH RD, ORACLE, AZ, 85623",653669016,"R"
46212,"13 BALDWIN ST","WEST SPRINGFIELD","MA",1089,42.094039954,-72.617777511,212,"13 BALDWIN ST, WEST SPRINGFIELD, MA, 1089","Match","Exact","13 BALDWIN ST, W SPRINGFIELD, MA, 01089",4033153,"R"
46213,"13 BAYBERRY CT","STREAMWOOD","IL",60107,42.021621748,-88.156680498,213,"13 BAYBERRY CT, STREAMWOOD, IL, 60107","Match","Exact","13 BAYBERRY CT, STREAMWOOD, IL, 60107",111847889,"R"
46214,"13 BEETHOVEN STREET","BINGHAMTON","NY",13905,42.093728271,-75.934463647,214,"13 BEETHOVEN STREET, BINGHAMTON, NY, 13905","Match","Exact","13 BEETHOVEN ST, BINGHAMTON, NY, 13905",46341412,"L"
46215,"13 BELL ROAD","BOURNE","MA",2532,41.7385421160001,-70.6104916,215,"13 BELL ROAD, BOURNE, MA, 2532","Match","Exact","13 BELL RD, BOURNE, MA, 02532",121625157,"L"
46216,"13 BELLSTONE DRIVE","BELLINGHAM","MA",2019,42.036755783,-71.495987837,216,"13 BELLSTONE DRIVE, BELLINGHAM, MA, 2019","Match","Exact","13 BELLSTONE DR, BELLINGHAM, MA, 02019",87281725,"R"
46217,"13 BELMAR ROAD","HATBORO","PA",19040,40.1897465690001,-75.105690167,217,"13 BELMAR ROAD, HATBORO, PA, 19040","Match","Exact","13 BELMAR RD, HATBORO, PA, 19040",135080311,"L"
46218,"13 BERTRAM STREET","PENSACOLA","FL",32506,30.4242880460001,-87.279275414,218,"13 BERTRAM STREET, PENSACOLA, FL, 32506","Match","Exact","13 BERTRAM ST, PENSACOLA, FL, 32506",93214046,"L"
46219,"13 BIRCH DRIVE","FREEHOLD","NJ",7728,40.2674283420001,-74.277544184,219,"13 BIRCH DRIVE, FREEHOLD, NJ, 7728","Match","Exact","13 BIRCH DR, FREEHOLD, NJ, 07728",90445798,"L"
46220,"13 BIRCH DRIVE","HAMPTON FALLS","NH",3844,42.9204298440001,-70.882922964,220,"13 BIRCH DRIVE, HAMPTON FALLS, NH, 3844","Match","Exact","13 BIRCH DR, HAMPTON FALLS, NH, 03844",113674936,"R"
46221,"13 BIRCH STREET","CARPENTERSVILLE","IL",60110,42.1221679000001,-88.253427507,221,"13 BIRCH STREET, CARPENTERSVILLE, IL, 60110","Match","Exact","13 BIRCH ST, CARPENTERSVILLE, IL, 60110",119508814,"R"
46222,"13 BRADBURN RD","WATERBORO","ME",4087,43.586500415,-70.797870857,222,"13 BRADBURN RD, WATERBORO, ME, 4087","Match","Exact","13 BRADBURN RD, WATERBORO, ME, 04087",92754001,"L"
46223,"13 BRADFORD HILLS","SULLIVAN","IL",61951,39.5723870950001,-88.588272139,223,"13 BRADFORD HILLS, SULLIVAN, IL, 61951","Match","Exact","13 BRADFORD HILLS, SULLIVAN, IL, 61951",5821599,"L"
46224,"13 BRANBERRY DRIVE","WESTERLY","RI",2891,41.396324953,-71.816475113,224,"13 BRANBERRY DRIVE, WESTERLY, RI, 2891","Match","Exact","13 BRANBERRY DR, WESTERLY, RI, 02891",58893711,"R"
46225,"13 BRENDLE DRIVE","SIMPSONVILLE","SC",29681,34.7316128900001,-82.238441423,225,"13 BRENDLE DRIVE, SIMPSONVILLE, SC, 29681","Match","Exact","13 BRENDLE DR, SIMPSONVILLE, SC, 29681",38313347,"L"
46226,"13 BRIAR PARK DRIVE","GREER","SC",29651,34.849775331,-82.2249818289999,226,"13 BRIAR PARK DRIVE, GREER, SC, 29651","Match","Non_Exact","13 BRIARPARK DR, GREER, SC, 29651",38327288,"R"
46227,"13 BRIGHTFORD HEIGHTS ROAD","ROCHESTER","NY",14610,43.1231657880001,-77.521174112,227,"13 BRIGHTFORD HEIGHTS ROAD, ROCHESTER, NY, 14610","Match","Exact","13 BRIGHTFORD HEIGHTS RD, ROCHESTER, NY, 14610",14557522,"L"
46228,"13 BROAD STREET","HAMILTON","NY",13346,42.8262373160001,-75.543207318,228,"13 BROAD STREET, HAMILTON, NY, 13346","Match","Exact","13 BROAD ST, HAMILTON, NY, 13346",46501032,"R"
46229,"13 BROADWAY","HAVERSTRAW","NY",10927,41.1970706610001,-73.964437902,229,"13 BROADWAY, HAVERSTRAW, NY, 10927","Match","Non_Exact","13 BROADWAY ST, HAVERSTRAW, NY, 10927",124591750,"L"
46230,"13 BROOKDALE ACRES DRIVE","LYMAN","SC",29365,34.9597693480001,-82.182318,230,"13 BROOKDALE ACRES DRIVE, LYMAN, SC, 29365","Match","Exact","13 BROOKDALE ACRES DR, LYMAN, SC, 29365",19460318,"L"
46231,"13 BROOKMIST","COLUMBIA","SC",29229,34.1474589970001,-80.880946287,231,"13 BROOKMIST, COLUMBIA, SC, 29229","Match","Exact","13 BROOKMIST, COLUMBIA, SC, 29229",71851975,"L"
46232,"13 BUNDAY COURT","NORTHFIELD","MN",55057,44.4512962900001,-93.152156222,232,"13 BUNDAY COURT, NORTHFIELD, MN, 55057","Match","Non_Exact","13 BUNDY CT, NORTHFIELD, MN, 55057",37315334,"L"
46233,"13 CALENDAR CT","COLUMBIA","SC",29206,34.0144166760001,-80.9660110039999,233,"13 CALENDAR CT, COLUMBIA, SC, 29206","Match","Non_Exact","13 CALENDER CT, COLUMBIA, SC, 29206",71850618,"R"
46234,"13 CAMBRIDGE ST","WORCESTER","MA",2139,NA,NA,234,"13 CAMBRIDGE ST, WORCESTER, MA, 2139","No_Match",NA,NA,NA,NA
46235,"13 CAMPBELL ST","WOBURN","MA",1801,42.4819013440001,-71.149850177,235,"13 CAMPBELL ST, WOBURN, MA, 1801","Match","Exact","13 CAMPBELL ST, WOBURN, MA, 01801",86886275,"R"
46236,"13 CAMPBELL STREET","WOBURN","MA",1801,42.4819013440001,-71.149850177,236,"13 CAMPBELL STREET, WOBURN, MA, 1801","Match","Exact","13 CAMPBELL ST, WOBURN, MA, 01801",86886275,"R"
46237,"13 CAROLYN ROAD","LAKE PLACID","NY",12946,44.285235863,-74.013754252,237,"13 CAROLYN ROAD, LAKE PLACID, NY, 12946","Match","Exact","13 CAROLYN RD, LAKE PLACID, NY, 12946",136240090,"L"
46238,"13 CAROUSEL DRIVE","PORTLAND","CT",6480,41.5991426620001,-72.6033522769999,238,"13 CAROUSEL DRIVE, PORTLAND, CT, 6480","Match","Exact","13 CAROUSEL DR, PORTLAND, CT, 06480",627063707,"L"
46239,"13 CATHERINE DRIVE","PEABODY","MA",1960,42.554995164,-71.026716689,239,"13 CATHERINE DRIVE, PEABODY, MA, 1960","Match","Exact","13 CATHERINE DR, PEABODY, MA, 01960",86655263,"R"
46240,"13 CEDAR DRIVE","FARMINGDALE","NY",11735,40.7252834280001,-73.471727197,240,"13 CEDAR DRIVE, FARMINGDALE, NY, 11735","Match","Exact","13 CEDAR DR, FARMINGDALE, NY, 11735",147646496,"L"
46241,"13 CEDAR STREET","MORRISTOWN","NJ",7960,40.8084504,-74.467366732,241,"13 CEDAR STREET, MORRISTOWN, NJ, 7960","Match","Exact","13 CEDAR ST, MORRISTOWN, NJ, 07960",60442949,"R"
46242,"13 CENTRAL AVE","HOPATCONG","NJ",7843,40.946666776,-74.644206429,242,"13 CENTRAL AVE, HOPATCONG, NJ, 7843","Match","Exact","13 CENTRAL AVE, HOPATCONG, NJ, 07843",98015066,"L"
46243,"13 CHAPEL DRIVE","BRANFORD","CT",6405,41.265722791,-72.775972617,243,"13 CHAPEL DRIVE, BRANFORD, CT, 6405","Match","Exact","13 CHAPEL DR, BRANFORD, CT, 06405",647242766,"R"
46244,"13 CHARDONNAY CT","LAKEWOOD","NJ",8701,40.0705835960001,-74.238120258,244,"13 CHARDONNAY CT, LAKEWOOD, NJ, 8701","Match","Exact","13 CHARDONNAY CT, LAKEWOOD, NJ, 08701",649713392,"L"
46245,"13 CHATHAM PLACE","NO PLAINFIELD","NJ",7060,40.62352108,-74.423987535,245,"13 CHATHAM PLACE, NO PLAINFIELD, NJ, 7060","Match","Exact","13 CHATHAM PL, N PLAINFIELD, NJ, 07060",59941621,"L"
46246,"13 CHAUTAUQUA DR","BELLEVILLE","IL",62220,38.5043673820001,-90.012742051,246,"13 CHAUTAUQUA DR, BELLEVILLE, IL, 62220","Match","Exact","13 CHAUTAUQUA DR, BELLEVILLE, IL, 62220",107927958,"R"
46247,"13 CHERRY BLOSSOM LN","MARRERO","LA",70072,29.888612917,-90.1279665229999,247,"13 CHERRY BLOSSOM LN, MARRERO, LA, 70072","Match","Exact","13 CHERRY BLOSSOM LN, MARRERO, LA, 70072",93505576,"L"
46248,"13 CHERRY LANE","WEST DEPTFORD","NJ",8096,39.814225198,-75.171066179,248,"13 CHERRY LANE, WEST DEPTFORD, NJ, 8096","Match","Exact","13 CHERRY LN, WEST DEPTFORD, NJ, 08096",134582307,"R"
46249,"13 CHRIST SCHOOL ROAD APT 7","ARDEN","NC",28704,35.460865767,-82.5108517749999,249,"13 CHRIST SCHOOL ROAD APT 7, ARDEN, NC, 28704","Match","Exact","13 CHRIST SCHOOL RD, ARDEN, NC, 28704",36877293,"L"
46250,"13 CHRISTO DRIVE","HILTON HEAD ISLAND","SC",29926,32.253000931,-80.733648183,250,"13 CHRISTO DRIVE, HILTON HEAD ISLAND, SC, 29926","Match","Exact","13 CHRISTO DR, HILTON HEAD ISLAND, SC, 29926",612417346,"L"
46251,"13 CIMARRON TRAIL","LUCAS","TX",75002,33.057929073,-96.599199641,251,"13 CIMARRON TRAIL, LUCAS, TX, 75002","Match","Exact","13 CIMARRON TRL, LUCAS, TX, 75002",123507048,"L"
46252,"13 CLAIR DRIVE","WARREN","NJ",7059,NA,NA,252,"13 CLAIR DRIVE, WARREN, NJ, 7059","No_Match",NA,NA,NA,NA
46253,"13 CLAYTON WAY","THOMASVILLE","NC",27360,35.9249043930001,-80.0763588889999,253,"13 CLAYTON WAY, THOMASVILLE, NC, 27360","Match","Exact","13 CLAYTON WAY, THOMASVILLE, NC, 27360",20230478,"L"
46254,"13 CLEVELAND PLACE APT 3","YONKERS","NY",10710,40.9734903990001,-73.8328768389999,254,"13 CLEVELAND PLACE APT 3, YONKERS, NY, 10710","Match","Exact","13 CLEVELAND PL, YONKERS, NY, 10710",139734263,"L"
46255,"13 COLD SPRING CT","MOUNT KISCO","NY",10549,41.1905109530001,-73.716614262,255,"13 COLD SPRING CT, MOUNT KISCO, NY, 10549","Match","Exact","13 COLD SPRING CT, MOUNT KISCO, NY, 10549",139780605,"L"
46256,"13 COLONY COURT","ATTICA","NY",14011,42.8746556680001,-78.277121571,256,"13 COLONY COURT, ATTICA, NY, 14011","Match","Exact","13 COLONY CT, ATTICA, NY, 14011",48148689,"L"
46257,"13 COMMON STREET","GROTON","MA",1450,42.6172789680001,-71.57194734,257,"13 COMMON STREET, GROTON, MA, 1450","Match","Exact","13 COMMON ST, GROTON, MA, 01450",87096159,"L"
46258,"13 CONTRADA FIORE DRIVE","HENDERSON","NV",89011,36.0909974780001,-114.936159763,258,"13 CONTRADA FIORE DRIVE, HENDERSON, NV, 89011","Match","Exact","13 CONTRADA FIORE DR, HENDERSON, NV, 89011",630308424,"L"
46259,"13 COTTAGE STREET APT D","FREEPORT","ME",4032,43.852418835,-70.104838668,259,"13 COTTAGE STREET APT D, FREEPORT, ME, 4032","Match","Exact","13 COTTAGE ST, FREEPORT, ME, 04032",78014764,"L"
46260,"13 COTTONWOOD LANE","HILTON HEAD ISLAND","SC",29926,32.260130218,-80.7181837049999,260,"13 COTTONWOOD LANE, HILTON HEAD ISLAND, SC, 29926","Match","Exact","13 COTTONWOOD LN, HILTON HEAD ISLAND, SC, 29926",612417512,"L"
46261,"13 COUNTY ROAD 251","VALLECITOS","NM",87581,36.4928345060001,-106.117572135,261,"13 COUNTY ROAD 251, VALLECITOS, NM, 87581","Match","Exact","13 CO RD 251, VALLECITOS, NM, 87581",143280737,"R"
46262,"13 COURT STREET","CASTINE","ME",4421,44.3862609270001,-68.801946975,262,"13 COURT STREET, CASTINE, ME, 4421","Match","Exact","13 COURT ST, CASTINE, ME, 04421",110253197,"R"
46263,"13 COVERT STREET","BROOKLYN","NY",11207,40.685260473,-73.9133514709999,263,"13 COVERT STREET, BROOKLYN, NY, 11207","Match","Exact","13 COVERT ST, BROOKLYN, NY, 11207",59083211,"L"
46264,"13 CUTLER ROAD","PAXTON","MA",1612,42.2887362540001,-71.897752839,264,"13 CUTLER ROAD, PAXTON, MA, 1612","Match","Exact","13 CUTLER RD, PAXTON, MA, 01612",40004309,"L"
46265,"13 DARK ENTRY RD","WASHINGTON","CT",6793,41.658012522,-73.2653694529999,265,"13 DARK ENTRY RD, WASHINGTON, CT, 6793","Match","Exact","13 DARK ENTRY RD, WASHINGTON, CT, 06793",3106134,"L"
46266,"13 DEER TRAIL CIR","OXFORD","OH",45056,39.5058243010001,-84.767803132,266,"13 DEER TRAIL CIR, OXFORD, OH, 45056","Match","Exact","13 DEER TRAIL CIR, OXFORD, OH, 45056",113809250,"L"
46267,"13 DEERWOOD WEST","IRVINE","CA",92604,33.6941187730001,-117.794655206,267,"13 DEERWOOD WEST, IRVINE, CA, 92604","Match","Exact","13 DEERWOOD W, IRVINE, CA, 92604",144057326,"L"
46268,"13 DEPOT STREET","WESTFORD","MA",1886,42.587015588,-71.434896527,268,"13 DEPOT STREET, WESTFORD, MA, 1886","Match","Exact","13 DEPOT ST, WESTFORD, MA, 01886",86895219,"R"
46269,"13 DILLON LN","SMITHFIELD","RI",2917,41.880044345,-71.490237141,269,"13 DILLON LN, SMITHFIELD, RI, 2917","Match","Exact","13 DILLON LN, SMITHFIELD, RI, 02917",634191314,"R"
46270,"13 DOLORES DRIVE","BURLINGTON","MA",1803,42.518492543,-71.2010026469999,270,"13 DOLORES DRIVE, BURLINGTON, MA, 1803","Match","Exact","13 DOLORES DR, BURLINGTON, MA, 01803",86905414,"L"
46271,"13 DORSET STREET","DORCHESTER","MA",2125,42.3235433840001,-71.057366567,271,"13 DORSET STREET, DORCHESTER, MA, 2125","Match","Exact","13 DORSET ST, DORCHESTER, MA, 02125",639002142,"R"
46272,"13 DOVER","CONROE","TX",77301,NA,NA,272,"13 DOVER, CONROE, TX, 77301","No_Match",NA,NA,NA,NA
46273,"13 E GATE LANE","EAST SETAUKET","NY",11733,40.953358757,-73.135394365,273,"13 E GATE LANE, EAST SETAUKET, NY, 11733","Match","Exact","13 E GATE LN, EAST SETAUKET, NY, 11733",113986766,"R"
46274,"13 E MAIN ST","FAIRFIELD","PA",17320,39.7875683390001,-77.368591215,274,"13 E MAIN ST, FAIRFIELD, PA, 17320","Match","Exact","13 E MAIN ST, FAIRFIELD, PA, 17320",60874120,"L"
46275,"13 E O FALLON DR","O FALLON","MO",63366,38.817116969,-90.6734456039999,275,"13 E O FALLON DR, O FALLON, MO, 63366","Match","Non_Exact","13 FALLON PASS, O FALLON, MO, 63366",605535294,"R"
46276,"13 E SIDE AVENUE 1","EDISON","NJ",8817,40.507893912,-74.389745143,276,"13 E SIDE AVENUE 1, EDISON, NJ, 8817","Match","Non_Exact","13 E SIDE AVE, EDISON, NJ, 08817",641815815,"R"
46277,"13 EAGLEVIEW LANE","SCHWENKSVILLE","PA",19473,40.2434169570001,-75.459474105,277,"13 EAGLEVIEW LANE, SCHWENKSVILLE, PA, 19473","Match","Exact","13 EAGLEVIEW LN, SCHWENKSVILLE, PA, 19473",605644375,"L"
46278,"13 EAST DOVETAIL PLACE","CORALVILLE","IA",52241,41.7071565890001,-91.562749447,278,"13 EAST DOVETAIL PLACE, CORALVILLE, IA, 52241","Match","Exact","13 E DOVETAIL PL, CORALVILLE, IA, 52241",84513881,"R"
46279,"13 EDDIE HOLMES COURT","SAINT HELENA","SC",29920,32.378664659,-80.542666158,279,"13 EDDIE HOLMES COURT, SAINT HELENA, SC, 29920","Match","Non_Exact","13 EDDIE HOLMES CT, ST HELENA IS, SC, 29920",87640775,"L"
46280,"13 ELK ST","ELLICOTTVILLE","NY",14731,42.2777909440001,-78.6733058729999,280,"13 ELK ST, ELLICOTTVILLE, NY, 14731","Match","Exact","13 ELK ST, ELLICOTTVILLE, NY, 14731",122041717,"R"
46281,"13 ELMWOOD  ROAD","MARBLEHEAD","MA",1945,42.4856426040001,-70.8873134469999,281,"13 ELMWOOD  ROAD, MARBLEHEAD, MA, 1945","Match","Exact","13 ELMWOOD RD, MARBLEHEAD, MA, 01945",86647567,"R"
46282,"13 ELY FORK RD","SUMERCO","WV",25567,38.2146745410001,-81.848998205,282,"13 ELY FORK RD, SUMERCO, WV, 25567","Match","Exact","13 ELY FORK RD, SUMERCO, WV, 25567",78734402,"R"
46283,"13 ESSEX STREET NUMBER 11","NEW YORK","NY",10002,40.7150493940001,-73.990015136,283,"13 ESSEX STREET NUMBER 11, NEW YORK, NY, 10002","Match","Exact","13 ESSEX ST, NEW YORK, NY, 10002",59654287,"L"
46284,"13 FIRST NH TRNPK","NORTHWOOD","NH",3261,43.1874458450001,-71.140651083,284,"13 FIRST NH TRNPK, NORTHWOOD, NH, 3261","Match","Exact","13 FIRST NEW HAMPSHIRE TPKE, NORTHWOOD, NH, 03261",113660672,"L"
46285,"13 FRANICS J CLARKE CIRCLE UNIT D","BETHEL","CT",6801,41.357980599,-73.426976909,285,"13 FRANICS J CLARKE CIRCLE UNIT D, BETHEL, CT, 6801","Match","Non_Exact","13 FRANCIS J CLARKE CIR, BETHEL, CT, 06801",3277782,"R"
46286,"13 FRANKS WAY","MADISON","CT",6443,41.3038269100001,-72.611646138,286,"13 FRANKS WAY, MADISON, CT, 6443","Match","Exact","13 FRANKS WAY, MADISON, CT, 06443",3747108,"L"
46287,"13 GIBBES STREET","CHARLESTON","SC",29401,32.771830471,-79.935549532,287,"13 GIBBES STREET, CHARLESTON, SC, 29401","Match","Exact","13 GIBBES ST, CHARLESTON, SC, 29401",108807865,"L"
46288,"13 GLENWOOD RD","COLTS NECK","NJ",7722,40.3393858470001,-74.2121730709999,288,"13 GLENWOOD RD, COLTS NECK, NJ, 7722","Match","Exact","13 GLENWOOD RD, COLTS NECK, NJ, 07722",90479894,"R"
46289,"13 GONCH FARM ROAD","LEDYARD","CT",6339,41.4746277200001,-71.996176509,289,"13 GONCH FARM ROAD, LEDYARD, CT, 6339","Match","Exact","13 GONCH FARM RD, LEDYARD, CT, 06339",56857348,"L"
46290,"13 GRACELYN DR","OCEAN VIEW","DE",19970,38.532737233,-75.086823162,290,"13 GRACELYN DR, OCEAN VIEW, DE, 19970","Match","Exact","13 GRACELYN DR, OCEAN VIEW, DE, 19970",640558027,"R"
46291,"13 GREEN STREET","PRINCETON","NJ",8542,40.352493123,-74.661378122,291,"13 GREEN STREET, PRINCETON, NJ, 8542","Match","Exact","13 GREEN ST, PRINCETON, NJ, 08542",60170766,"R"
46292,"13 GREENBRIAR CIRCLE","ARMONK","NY",10504,41.1221122320001,-73.719648997,292,"13 GREENBRIAR CIRCLE, ARMONK, NY, 10504","Match","Exact","13 GREENBRIAR CIR, ARMONK, NY, 10504",139785920,"L"
46293,"13 GREENE AVENUE","BROOKLYN","NY",11238,40.685898518,-73.972659057,293,"13 GREENE AVENUE, BROOKLYN, NY, 11238","Match","Exact","13 GREENE AVE, BROOKLYN, NY, 11238",59077686,"L"
46294,"13 HADLEY ROAD","ARMONK","NY",10504,41.121955724,-73.685578181,294,"13 HADLEY ROAD, ARMONK, NY, 10504","Match","Exact","13 HADLEY RD, ARMONK, NY, 10504",139760983,"R"
46295,"13 HAMILTON STREET APT 2","SOMERVILLE","NJ",8876,40.566171926,-74.60801814,295,"13 HAMILTON STREET APT 2, SOMERVILLE, NJ, 8876","Match","Exact","13 HAMILTON ST, SOMERVILLE, NJ, 08876",59938206,"L"
46296,"13 HAMPSHIRE GLEN PKWY","HAMPTON","VA",23669,37.0217791740001,-76.375497852,296,"13 HAMPSHIRE GLEN PKWY, HAMPTON, VA, 23669","Match","Exact","13 HAMPSHIRE GLEN PKWY, HAMPTON, VA, 23669",640285606,"R"
46297,"13 HARDSCRABBLE ROAD","LITCHFIELD","ME",4350,44.215785608,-69.9335976739999,297,"13 HARDSCRABBLE ROAD, LITCHFIELD, ME, 4350","Match","Exact","13 HARDSCRABBLE RD, LITCHFIELD, ME, 04350",75479197,"R"
46298,"13 HARRISON STREET","SOMERVILLE","MA",2143,42.381832235,-71.1088425139999,298,"13 HARRISON STREET, SOMERVILLE, MA, 2143","Match","Exact","13 HARRISON ST, SOMERVILLE, MA, 02143",86868585,"R"
46299,"13 HATHAWAY ROAD SOUTH","MOBILE","AL",36608,NA,NA,299,"13 HATHAWAY ROAD SOUTH, MOBILE, AL, 36608","No_Match",NA,NA,NA,NA
46300,"13 HAZELTINE ROAD","UPTON","MA",1568,42.1731165840001,-71.6099563129999,300,"13 HAZELTINE ROAD, UPTON, MA, 1568","Match","Exact","13 HAZELTINE RD, UPTON, MA, 01568",40037638,"R"
46301,"13 HERKIMER ST","BROOKLYN","NY",11216,40.6798048910001,-73.952581389,301,"13 HERKIMER ST, BROOKLYN, NY, 11216","Match","Exact","13 HERKIMER ST, BROOKLYN, NY, 11216",59078858,"L"
46302,"13 HIDDEN CEDAR LOOP","COLUMBIA FALLS","MT",59912,48.3623884340001,-114.188122106,302,"13 HIDDEN CEDAR LOOP, COLUMBIA FALLS, MT, 59912","Match","Exact","13 HIDDEN CEDAR LOOP, COLUMBIA FALLS, MT, 59912",635884433,"L"
46303,"13 HIGH WOOD AVENUE SUITE 2","SICKLERVILLE","NJ",8081,NA,NA,303,"13 HIGH WOOD AVENUE SUITE 2, SICKLERVILLE, NJ, 8081","No_Match",NA,NA,NA,NA
46304,"13 HILLTOWNE DRIVE","ORCHARD PARK","NY",14127,42.748329895,-78.7664750989999,304,"13 HILLTOWNE DRIVE, ORCHARD PARK, NY, 14127","Match","Exact","13 HILLTOWNE DR, ORCHARD PARK, NY, 14127",626801803,"R"
46305,"13 HILLWAY DRIVE","ROUND ROCK","TX",78664,30.524984772,-97.604725287,305,"13 HILLWAY DRIVE, ROUND ROCK, TX, 78664","Match","Exact","13 HILLWAY DR, ROUND ROCK, TX, 78664",126451531,"R"
46306,"13 HOBBY FARM DRIVE","BEDFORD","NY",10506,41.1462867650001,-73.634881111,306,"13 HOBBY FARM DRIVE, BEDFORD, NY, 10506","Match","Exact","13 HOBBY FARM DR, BEDFORD, NY, 10506",139778699,"R"
46307,"13 HUMMINGBIRD ROAD","WYOMISSING","PA",19610,40.3159524970001,-75.961070357,307,"13 HUMMINGBIRD ROAD, WYOMISSING, PA, 19610","Match","Exact","13 HUMMINGBIRD RD, WYOMISSING, PA, 19610",80380856,"L"
46308,"13 HUNT RD","KINGSTON","NH",3848,42.882587551,-71.08613815,308,"13 HUNT RD, KINGSTON, NH, 3848","Match","Exact","13 HUNT RD, KINGSTON, NH, 03848",113712828,"L"
46309,"13 INWOOD DRIVE","SPRING VALLEY","NY",10977,41.125028252,-74.0300275549999,309,"13 INWOOD DRIVE, SPRING VALLEY, NY, 10977","Match","Exact","13 INWOOD DR, SPRING VALLEY, NY, 10977",649131630,"R"
46310,"13 IVES ROAD","SILVER BAY","MN",55614,47.291975404,-91.287287748,310,"13 IVES ROAD, SILVER BAY, MN, 55614","Match","Exact","13 IVES RD, SILVER BAY, MN, 55614",194217454,"L"
46311,"13 IVYSTONE DRIVE","EGG HARBOR TWP","NJ",8234,39.4211732460001,-74.5831400129999,311,"13 IVYSTONE DRIVE, EGG HARBOR TWP, NJ, 8234","Match","Exact","13 IVYSTONE DR, EGG HARBOR TOWNSHIP, NJ, 08234",619151799,"R"
46312,"13 JACKMAN RIDGE RD","WINDHAM","NH",3087,42.8250800960001,-71.295172886,312,"13 JACKMAN RIDGE RD, WINDHAM, NH, 3087","Match","Exact","13 JACKMAN RIDGE RD, WINDHAM, NH, 03087",113689008,"R"
46313,"13 JAKE COURT","RYDAL","GA",30171,34.3125237300001,-84.71481661,313,"13 JAKE COURT, RYDAL, GA, 30171","Match","Exact","13 JAKE CT, RYDAL, GA, 30171",625088588,"R"
46314,"13 JEAN PLACE","SYOSSET","NY",11791,40.7998895710001,-73.495470723,314,"13 JEAN PLACE, SYOSSET, NY, 11791","Match","Exact","13 JEAN PL, SYOSSET, NY, 11791",147641823,"R"
46315,"13 KEARNY AVE APT 1B","EDISON","NJ",8817,40.501273568,-74.389765717,315,"13 KEARNY AVE APT 1B, EDISON, NJ, 8817","Match","Exact","13 KEARNY AVE, EDISON, NJ, 08817",60268424,"R"
46316,"13 KETTLE CREEK RD","JERICHO","VT",5465,44.4575793760001,-72.971863448,316,"13 KETTLE CREEK RD, JERICHO, VT, 5465","Match","Exact","13 KETTLE CREEK RD, JERICHO, VT, 05465",135850335,"R"
46317,"13 KRUEGER LANE","HAMILTON","NJ",5620,NA,NA,317,"13 KRUEGER LANE, HAMILTON, NJ, 5620","No_Match",NA,NA,NA,NA
46318,"13 LANDMARK LN","MONMOUTH","NJ",7746,40.2964278650001,-74.283330701,318,"13 LANDMARK LN, MONMOUTH, NJ, 7746","Match","Non_Exact","13 LANDMARK LN, MARLBORO, NJ, 07746",626959837,"L"
46319,"13 LEMBO DR","WETHERSFIELD","CT",6109,41.6952690310001,-72.653891868,319,"13 LEMBO DR, WETHERSFIELD, CT, 6109","Match","Exact","13 LEMBO DR, WETHERSFIELD, CT, 06109",3521050,"L"
46320,"13 LEXINGTON COURT","WASHINGTON CROSSING","PA",18977,40.2915533510001,-74.888794199,320,"13 LEXINGTON COURT, WASHINGTON CROSSING, PA, 18977","Match","Exact","13 LEXINGTON CT, WASHINGTON CROSSING, PA, 18977",134760246,"R"
46321,"13 LEXINGTON DRIVE","NEWBURGH","NY",12550,41.5528300400001,-74.0176918189999,321,"13 LEXINGTON DRIVE, NEWBURGH, NY, 12550","Match","Exact","13 LEXINGTON DR, NEWBURGH, NY, 12550",124450005,"L"
46322,"13 LIME ROCK ROAD","LYNCHBURG","VA",24501,37.304538845,-79.215406549,322,"13 LIME ROCK ROAD, LYNCHBURG, VA, 24501","Match","Exact","13 LIME ROCK RD, LYNCHBURG, VA, 24501",644911485,"R"
46323,"13 LITTLE BEAR HILL RD  PO BOX 597","NEW MILFORD","CT",6776,41.6311073150001,-73.399414313,323,"13 LITTLE BEAR HILL RD  PO BOX 597, NEW MILFORD, CT, 6776","Match","Exact","13 LITTLE BEAR HILL RD, NEW MILFORD, CT, 06776",611521664,"R"
46324,"13 LONG ROAD","RATON","NM",87740,NA,NA,324,"13 LONG ROAD, RATON, NM, 87740","No_Match",NA,NA,NA,NA
46325,"13 LORDSHIP LANE","DOVER","DE",19901,39.1131305280001,-75.529169511,325,"13 LORDSHIP LANE, DOVER, DE, 19901","Match","Exact","13 LORDSHIP LN, DOVER, DE, 19901",68100703,"L"
46326,"13 LORING WAY","STERLING","MA",1564,42.4009792950001,-71.777643228,326,"13 LORING WAY, STERLING, MA, 1564","Match","Exact","13 LORING WAY, STERLING, MA, 01564",40033570,"R"
46327,"13 LOUISBURG SQ","LAKEWOOD","NJ",8701,NA,NA,327,"13 LOUISBURG SQ, LAKEWOOD, NJ, 8701","No_Match",NA,NA,NA,NA
46328,"13 LOWELL STREET NUMBER 127","CARLISLE","MA",1741,42.5293956740001,-71.348989968,328,"13 LOWELL STREET NUMBER 127, CARLISLE, MA, 1741","Match","Exact","13 LOWELL ST, CARLISLE, MA, 01741",87129508,"L"
46329,"13 MADRIGAL STREET","ROHNERT PARK","CA",94928,38.3437109560001,-122.715189072,329,"13 MADRIGAL STREET, ROHNERT PARK, CA, 94928","Match","Exact","13 MADRIGAL ST, ROHNERT PARK, CA, 94928",605007565,"L"
46330,"13 MARINA POINT PLACE","PALM COAST","GA",32137,NA,NA,330,"13 MARINA POINT PLACE, PALM COAST, GA, 32137","No_Match",NA,NA,NA,NA
46331,"13 MARWOOD DRIVE","ANDOVER","MA",1810,42.6713154460001,-71.152580958,331,"13 MARWOOD DRIVE, ANDOVER, MA, 1810","Match","Exact","13 MARWOOD DR, ANDOVER, MA, 01810",86629333,"R"
46332,"13 MAST CT","PORTSMOUTH","VA",23703,NA,NA,332,"13 MAST CT, PORTSMOUTH, VA, 23703","No_Match",NA,NA,NA,NA
46333,"13 MAURA LANE","DANBURY","CT",6810,NA,NA,333,"13 MAURA LANE, DANBURY, CT, 6810","No_Match",NA,NA,NA,NA
46334,"13 MEADOW DR","BIG FLATS","NY",14814,42.1521515540001,-76.9426867459999,334,"13 MEADOW DR, BIG FLATS, NY, 14814","Match","Exact","13 MEADOW DR, BIG FLATS, NY, 14814",18562356,"R"
46335,"13 MELBA STREET","MILFORD","CT",6460,41.208045801,-73.02860287,335,"13 MELBA STREET, MILFORD, CT, 6460","Match","Exact","13 MELBA ST, MILFORD, CT, 06460",3715618,"R"
46336,"13 MERLOT CT","LAKEWOOD","NJ",8701,40.069901676,-74.2382746929999,336,"13 MERLOT CT, LAKEWOOD, NJ, 8701","Match","Exact","13 MERLOT CT, LAKEWOOD, NJ, 08701",649712305,"L"
46337,"13 MILITARY RD","MARION","AR",72364,35.2135041490001,-90.193076909,337,"13 MILITARY RD, MARION, AR, 72364","Match","Exact","13 MILITARY RD, MARION, AR, 72364",69371640,"L"
46338,"13 MILL STREET","MILFORD","DE",19963,38.9133202530001,-75.433146628,338,"13 MILL STREET, MILFORD, DE, 19963","Match","Exact","13 MILL ST, MILFORD, DE, 19963",68109927,"L"
46339,"13 MILLBROOK AVENUE","TARRYTOWN","NY",10591,41.0628979620001,-73.8540620759999,339,"13 MILLBROOK AVENUE, TARRYTOWN, NY, 10591","Match","Exact","13 MILLBROOK AVE, TARRYTOWN, NY, 10591",139731298,"L"
46340,"13 MONTCLAIR AVENUE","MONTCLAIR","NJ",7042,40.817933075,-74.208623738,340,"13 MONTCLAIR AVENUE, MONTCLAIR, NJ, 7042","Match","Exact","13 MONTCLAIR AVE, MONTCLAIR, NJ, 07042",63448846,"R"
46341,"13 MORGAN DRIVE - UNIT 208","NATICK","MA",1760,42.264726812,-71.354182129,341,"13 MORGAN DRIVE - UNIT 208, NATICK, MA, 1760","Match","Exact","13 MORGAN DR, NATICK, MA, 01760",646833398,"R"
46342,"13 MORGAN DRIVE SUITE 203","NATICK","MA",1760,42.264726812,-71.354182129,342,"13 MORGAN DRIVE SUITE 203, NATICK, MA, 1760","Match","Exact","13 MORGAN DR, NATICK, MA, 01760",646833398,"R"
46343,"13 MOROCCO LANE","SCHENECTADY","NY",12304,42.756340859,-73.88980958,343,"13 MOROCCO LANE, SCHENECTADY, NY, 12304","Match","Non_Exact","13 MORROCCO LN, SCHENECTADY, NY, 12304",18331388,"L"
46344,"13 MORSE AVE","NORWICH","NY",13815,42.522264803,-75.523381898,344,"13 MORSE AVE, NORWICH, NY, 13815","Match","Exact","13 MORSE AVE, NORWICH, NY, 13815",46422214,"R"
46345,"13 MOSS VIEW COURT","CATONSVILLE","MD",21228,39.250095753,-76.7184595849999,345,"13 MOSS VIEW COURT, CATONSVILLE, MD, 21228","Match","Exact","13 MOSS VIEW CT, CATONSVILLE, MD, 21228",191504341,"L"
46346,"13 MOUNTAIN SPRING RD","CHITTENDEN","VT",5737,43.732589406,-72.941619244,346,"13 MOUNTAIN SPRING RD, CHITTENDEN, VT, 5737","Match","Exact","13 MOUNTAIN SPRING RD, CHITTENDEN, VT, 05737",138955057,"L"
46347,"13 MYSTIC WAY","BURLINGTON","NJ",8016,40.053953877,-74.811969398,347,"13 MYSTIC WAY, BURLINGTON, NJ, 8016","Match","Exact","13 MYSTIC WAY, BURLINGTON, NJ, 08016",134072958,"R"
46348,"13 N 15TH STREET","DEL HAVEN","NJ",8251,39.0455282610001,-74.91676855,348,"13 N 15TH STREET, DEL HAVEN, NJ, 8251","Match","Exact","13 N 15TH ST, DEL HAVEN, NJ, 08251",174336082,"L"
46349,"13 N FEDERAL","MASON CITY","IA",50401,43.151970771,-93.201067209,349,"13 N FEDERAL, MASON CITY, IA, 50401","Match","Non_Exact","13 N FEDERAL AVE, MASON CITY, IA, 50401",7290429,"R"
46350,"13 N KAUFMANN STONE WAY","BILTMORE LAKE","NC",28715,35.5279333350001,-82.66299362,350,"13 N KAUFMANN STONE WAY, BILTMORE LAKE, NC, 28715","Match","Exact","13 N KAUFMANN STONE WAY, BILTMORE LAKE, NC, 28715",617257410,"R"
46351,"13 NEEDLE CT","OFALLON","MO",63368,38.76810506,-90.736559555,351,"13 NEEDLE CT, OFALLON, MO, 63368","Match","Non_Exact","13 NEEDLE CT, O FALLON, MO, 63368",100070626,"R"
46352,"13 NIGHT HERON CT","COLUMBIA","SC",29229,34.1532536010001,-80.9097808339999,352,"13 NIGHT HERON CT, COLUMBIA, SC, 29229","Match","Exact","13 NIGHT HERON CT, COLUMBIA, SC, 29229",71863961,"L"
46353,"13 NORTH END TERRACE","BLOOMFIELD","NJ",7003,40.836124194,-74.1720768719999,353,"13 NORTH END TERRACE, BLOOMFIELD, NJ, 7003","Match","Exact","13 N END TER, BLOOMFIELD, NJ, 07003",63452425,"R"
46354,"13 NORTH ROAD","HOPKINTON","RI",2833,41.4663147810001,-71.777350645,354,"13 NORTH ROAD, HOPKINTON, RI, 2833","Match","Exact","13 NORTH RD, HOPKINTON, RI, 02833",58929344,"L"
46355,"13 NORTH ROSCOE BOULEVARD","PONTE VEDRA BEACH","FL",32082,NA,NA,355,"13 NORTH ROSCOE BOULEVARD, PONTE VEDRA BEACH, FL, 32082","No_Match",NA,NA,NA,NA
46356,"13 OAK LANE","GREEN BROOK","NJ",8813,NA,NA,356,"13 OAK LANE, GREEN BROOK, NJ, 8813","No_Match",NA,NA,NA,NA
46357,"13 OBERT STREET","SOUTH RIVER","NJ",8882,40.4488729240001,-74.3785407399999,357,"13 OBERT STREET, SOUTH RIVER, NJ, 8882","Match","Exact","13 OBERT ST, SOUTH RIVER, NJ, 08882",60268807,"R"
46358,"13 OCEAN AVE","JAMESTOWN","RI",2835,41.4967851010001,-71.38242666,358,"13 OCEAN AVE, JAMESTOWN, RI, 2835","Match","Exact","13 OCEAN AVE, JAMESTOWN, RI, 02835",47344785,"R"
46359,"13 OLDE STAGE STOP VILLAGE","MARSHFIELD","MA",2050,42.1069965630001,-70.751820639,359,"13 OLDE STAGE STOP VILLAGE, MARSHFIELD, MA, 2050","Match","Non_Exact","13 OLD STAGE STOP VILLAGE, MARSHFIELD, MA, 02050",87499945,"L"
46360,"13 ONE/HALF 8TH ST","LAWRENCE","KS",66047,NA,NA,360,"13 ONE/HALF 8TH ST, LAWRENCE, KS, 66047","No_Match",NA,NA,NA,NA
46361,"13 ORCHARD CT","LAKEWOOD","NJ",8701,40.1062192140001,-74.2023723,361,"13 ORCHARD CT, LAKEWOOD, NJ, 8701","Match","Exact","13 ORCHARD CT, LAKEWOOD, NJ, 08701",641931766,"L"
46362,"13 ORCHARD PLACE","LITTLE SILVER","NJ",7739,40.3351233560001,-74.041946399,362,"13 ORCHARD PLACE, LITTLE SILVER, NJ, 7739","Match","Exact","13 ORCHARD PL, LITTLE SILVER, NJ, 07739",90454941,"L"
46363,"13 ORCHARD STREET","COS COB","CT",6807,41.0407707350001,-73.596136754,363,"13 ORCHARD STREET, COS COB, CT, 6807","Match","Exact","13 ORCHARD ST, COS COB, CT, 06807",3243980,"R"
46364,"13 OTIS HILL ROAD","HINGHAM","MA",2043,42.2516912460001,-70.8933706409999,364,"13 OTIS HILL ROAD, HINGHAM, MA, 2043","Match","Exact","13 OTIS HILL RD, HINGHAM, MA, 02043",87429592,"L"
46365,"13 OVERTURE LANE","ALISO VIEJO","CA",92656,33.5734360910001,-117.722256788,365,"13 OVERTURE LANE, ALISO VIEJO, CA, 92656","Match","Exact","13 OVERTURE LN, ALISO VIEJO, CA, 92656",144386960,"L"
46366,"13 PALMEAR RD","FREEVILLE","NY",13068,42.5195927600001,-76.358754049,366,"13 PALMEAR RD, FREEVILLE, NY, 13068","Match","Exact","13 PALMEAR RD, FREEVILLE, NY, 13068",18853755,"L"
46367,"13 PARTRIDGE COURT","BRIDGETON","NJ",8302,39.471317394,-75.2451110219999,367,"13 PARTRIDGE COURT, BRIDGETON, NJ, 8302","Match","Exact","13 PARTRIDGE CT, BRIDGETON, NJ, 08302",174120194,"R"
46368,"13 PATHFINDER WAY","CHICO","CA",95928,39.748847992,-121.779235048,368,"13 PATHFINDER WAY, CHICO, CA, 95928","Match","Exact","13 PATHFINDER WAY, CHICO, CA, 95928",627877883,"R"
46369,"13 PEARL ST","ALLENTOWN","NJ",8501,40.1799648240001,-74.5867273379999,369,"13 PEARL ST, ALLENTOWN, NJ, 8501","Match","Exact","13 PEARL ST, ALLENTOWN, NJ, 08501",90477635,"L"
46370,"13 PEBBLE LANE","CHERRY HILL","NJ",8002,39.92748141,-75.001205327,370,"13 PEBBLE LANE, CHERRY HILL, NJ, 8002","Match","Exact","13 PEBBLE LN, CHERRY HILL, NJ, 08002",134357344,"R"
46371,"13 PENNYBROOK LANE","MIDDLETOWN","NJ",7748,40.3953579940001,-74.094182189,371,"13 PENNYBROOK LANE, MIDDLETOWN, NJ, 7748","Match","Exact","13 PENNYBROOK LN, MIDDLETOWN, NJ, 07748",90497288,"L"
46372,"13 PERIWINKLE DRIVE","MOUNT LAUREL","NJ",8054,39.9282774060001,-74.875197355,372,"13 PERIWINKLE DRIVE, MOUNT LAUREL, NJ, 8054","Match","Exact","13 PERIWINKLE DR, MOUNT LAUREL, NJ, 08054",134062096,"R"
46373,"13 PINE STREET","MINE HILL","NJ",7803,40.8808393750001,-74.5983474069999,373,"13 PINE STREET, MINE HILL, NJ, 7803","Match","Exact","13 PINE ST, MINE HILL, NJ, 07803",60434891,"L"
46374,"13 PLANTERS MOON COURT","PANAMA CITY BEACH","FL",32413,NA,NA,374,"13 PLANTERS MOON COURT, PANAMA CITY BEACH, FL, 32413","No_Match",NA,NA,NA,NA
46375,"13 PRATT STREET","ESSEX","CT",6426,41.3533055290001,-72.389827802,375,"13 PRATT STREET, ESSEX, CT, 6426","Match","Exact","13 PRATT ST, ESSEX, CT, 06426",113878147,"R"
46376,"13 PRESTS MILL ROAD","OLD BRIDGE","NJ",8857,40.390518684,-74.290586199,376,"13 PRESTS MILL ROAD, OLD BRIDGE, NJ, 8857","Match","Exact","13 PRESTS MILL RD, OLD BRIDGE, NJ, 08857",60285904,"R"
46377,"13 RAINBOW DRIVE","BETTENDORF","IA",52722,41.592931874,-90.422512511,377,"13 RAINBOW DRIVE, BETTENDORF, IA, 52722","Match","Exact","13 RAINBOW DR, BETTENDORF, IA, 52722",122710123,"L"
46378,"13 RAY AVENUE","BURLINGTON","MA",1803,42.481654916,-71.1867144619999,378,"13 RAY AVENUE, BURLINGTON, MA, 1803","Match","Exact","13 RAY AVE, BURLINGTON, MA, 01803",86883283,"L"
46379,"13 RAYMOND CIRCLE","PEABODY","MA",1960,42.5275679920001,-70.947458062,379,"13 RAYMOND CIRCLE, PEABODY, MA, 1960","Match","Exact","13 RAYMOND CIR, PEABODY, MA, 01960",86640091,"R"
46380,"13 RAYMOND ST","CORINTH","NY",12822,43.2436319270001,-73.8395425309999,380,"13 RAYMOND ST, CORINTH, NY, 12822","Match","Exact","13 RAYMOND ST, CORINTH, NY, 12822",18762027,"R"
46381,"13 RED SQUIRREL LN","NAPLES","ME",4055,NA,NA,381,"13 RED SQUIRREL LN, NAPLES, ME, 4055","No_Match",NA,NA,NA,NA
46382,"13 RENEE DR","EGG HARBOR TWP","NJ",8234,39.364815401,-74.60567109,382,"13 RENEE DR, EGG HARBOR TWP, NJ, 8234","Match","Exact","13 RENEE DR, EGG HARBOR TOWNSHIP, NJ, 08234",202507246,"L"
46383,"13 RENNIE STREET","HAMILTON","NJ",8610,40.1980194590001,-74.7281442669999,383,"13 RENNIE STREET, HAMILTON, NJ, 8610","Match","Exact","13 RENNIE ST, HAMILTON, NJ, 08610",60182682,"L"
46384,"13 RICE SPRING LANE","WAYLAND","MA",1778,42.338468349,-71.363202771,384,"13 RICE SPRING LANE, WAYLAND, MA, 1778","Match","Exact","13 RICE SPRING LN, WAYLAND, MA, 01778",86851722,"L"
46385,"13 RICHARD CIRCLE","WOBURN","MA",1801,42.5061012680001,-71.12391625,385,"13 RICHARD CIRCLE, WOBURN, MA, 1801","Match","Exact","13 RICHARD CIR, WOBURN, MA, 01801",86917647,"R"
46386,"13 RICHARD DRIVE","ELKTON","MD",21921,39.6769495680001,-75.92334705,386,"13 RICHARD DRIVE, ELKTON, MD, 21921","Match","Exact","13 RICHARD DR, ELKTON, MD, 21921",207857872,"R"
46387,"13 ROBERT AVENUE","MASSAPEQUA","NY",11758,40.69858537,-73.430489745,387,"13 ROBERT AVENUE, MASSAPEQUA, NY, 11758","Match","Exact","13 ROBERT AVE, MASSAPEQUA, NY, 11758",147652770,"L"
46388,"13 ROGERS STREET UNIT 13-G","BRANFORD","CT",6405,41.2760514830001,-72.814225845,388,"13 ROGERS STREET UNIT 13-G, BRANFORD, CT, 6405","Match","Exact","13 ROGERS ST, BRANFORD, CT, 06405",3738802,"R"
46389,"13 ROSELL AVENUE","TRENTON","NJ",8638,40.233895234,-74.759215753,389,"13 ROSELL AVENUE, TRENTON, NJ, 8638","Match","Non_Exact","13 ROSSELL AVE, TRENTON, NJ, 08638",60178786,"L"
46390,"13 ROSZEL ROAD SUITE C225","PRINCETON","NJ",8540,40.3209728740001,-74.638225666,390,"13 ROSZEL ROAD SUITE C225, PRINCETON, NJ, 8540","Match","Exact","13 ROSZEL RD, PRINCETON, NJ, 08540",60213352,"L"
46391,"13 RUE CALAIS","KENNER","LA",70065,30.0327167080001,-90.25149907,391,"13 RUE CALAIS, KENNER, LA, 70065","Match","Exact","13 RUE CALAIS, KENNER, LA, 70065",93492625,"L"
46392,"13 RUE DE PAIX","LAKE ST LOUIS","MO",63367,38.79904679,-90.757589821,392,"13 RUE DE PAIX, LAKE ST LOUIS, MO, 63367","Match","Exact","13 RUE DE PAIX, LAKE SAINT LOUIS, MO, 63367",100068926,"L"
46393,"13 RUSHWICK ROAD","MOUNT LAUREL","NJ",8054,39.9571261610001,-74.879313867,393,"13 RUSHWICK ROAD, MOUNT LAUREL, NJ, 8054","Match","Exact","13 RUSHWICK RD, MOUNT LAUREL, NJ, 08054",134062490,"R"
46394,"13 S BROOKSVILLE AVE","BROOKSVILLE","FL",34601,28.5547517090001,-82.386987832,394,"13 S BROOKSVILLE AVE, BROOKSVILLE, FL, 34601","Match","Exact","13 S BROOKSVILLE AVE, BROOKSVILLE, FL, 34601",85454836,"R"
46395,"13 S FRIENDSHIP CT","COLORA","MD",21917,39.6457964960001,-76.109319559,395,"13 S FRIENDSHIP CT, COLORA, MD, 21917","Match","Exact","13 S FRIENDSHIP CT, COLORA, MD, 21917",207862082,"R"
46396,"13 S PRESCOTT RD","MEMPHIS","TN",38111,35.1313916710001,-89.9486932679999,396,"13 S PRESCOTT RD, MEMPHIS, TN, 38111","Match","Non_Exact","13 S PRESCOTT ST, MEMPHIS, TN, 38111",72915764,"R"
46397,"13 S WILDFLOWER DRIVE","ALPINE","UT",84004,40.453478482,-111.755084731,397,"13 S WILDFLOWER DRIVE, ALPINE, UT, 84004","Match","Non_Exact","13 S WILD FLOWER DR, ALPINE, UT, 84004",637773466,"L"
46398,"13 SAGAMORE ROAD","HAMPTON BAYS","NY",11946,40.8832570000001,-72.497461233,398,"13 SAGAMORE ROAD, HAMPTON BAYS, NY, 11946","Match","Exact","13 SAGAMORE RD, HAMPTON BAYS, NY, 11946",114028469,"L"
46399,"13 SANDPIPER COURT","PALM COAST","FL",32137,29.546501354,-81.175012425,399,"13 SANDPIPER COURT, PALM COAST, FL, 32137","Match","Exact","13 SANDPIPER CT, PALM COAST, FL, 32137",610651953,"L"
46400,"13 SANTIAGO ROAD","DEBARY","FL",32713,28.8764779700001,-81.3100363309999,400,"13 SANTIAGO ROAD, DEBARY, FL, 32713","Match","Exact","13 SANTIAGO RD, DEBARY, FL, 32713",94517387,"L"
46401,"13 SCHOOL ST","SHERBURNE","NY",13460,42.6884813030001,-75.502180287,401,"13 SCHOOL ST, SHERBURNE, NY, 13460","Match","Exact","13 SCHOOL ST, SHERBURNE, NY, 13460",46419475,"L"
46402,"13 SCHOOL STREET","VERONA ISLAND","ME",4416,44.572174858,-68.7913873489999,402,"13 SCHOOL STREET, VERONA ISLAND, ME, 4416","Match","Exact","13 SCHOOL ST, VERONA ISLAND, ME, 04416",110268379,"R"
46403,"13 SEALS DRIVE","DALLAS","GA",30157,33.7983024820001,-84.864018959,403,"13 SEALS DRIVE, DALLAS, GA, 30157","Match","Exact","13 SEALS DR, DALLAS, GA, 30157",207993525,"L"
46404,"13 SHORE DRIVE  BOX 58","FORESTDALE","MA",2644,41.6799579190001,-70.4996026279999,404,"13 SHORE DRIVE  BOX 58, FORESTDALE, MA, 2644","Match","Exact","13 SHORE DR, FORESTDALE, MA, 02644",121625970,"R"
46405,"13 SILVER LAKE DRIVE","CLEMENTON","NJ",8021,39.811068526,-74.9873674839999,405,"13 SILVER LAKE DRIVE, CLEMENTON, NJ, 8021","Match","Exact","13 SILVER LAKE DR, CLEMENTON, NJ, 08021",134361554,"L"
46406,"13 SILVERSTONE DRIVE","LE CLAIRE","IA",52753,41.5937806900001,-90.3927100499999,406,"13 SILVERSTONE DRIVE, LE CLAIRE, IA, 52753","Match","Exact","13 SILVERSTONE DR, LE CLAIRE, IA, 52753",652075370,"L"
46407,"13 SIMPSON STREET APT G","GENEVA","IL",60134,41.8863391420001,-88.290026713,407,"13 SIMPSON STREET APT G, GENEVA, IL, 60134","Match","Exact","13 SIMPSON ST, GENEVA, IL, 60134",119584355,"R"
46408,"13 SMOKEY COURT","BLOOMINGTON","IL",61704,40.5041628560001,-88.92352798,408,"13 SMOKEY COURT, BLOOMINGTON, IL, 61704","Match","Exact","13 SMOKEY CT, BLOOMINGTON, IL, 61704",20562795,"R"
46409,"13 SOUTH 13TH AVENUE","MANVILLE","NJ",8835,40.5410547770001,-74.597761958,409,"13 SOUTH 13TH AVENUE, MANVILLE, NJ, 8835","Match","Exact","13 S 13TH AVE, MANVILLE, NJ, 08835",59939290,"L"
46410,"13 SOUTH DIVISION STREET","PEEKSKILL","NY",10566,41.2883536030001,-73.915275327,410,"13 SOUTH DIVISION STREET, PEEKSKILL, NY, 10566","Match","Exact","13 S DIVISION ST, PEEKSKILL, NY, 10566",139724245,"L"
46411,"13 SOUTH LAKE AVENUE","AVON PARK","FL",33825,27.5954406750001,-81.502161749,411,"13 SOUTH LAKE AVENUE, AVON PARK, FL, 33825","Match","Exact","13 S LAKE AVE, AVON PARK, FL, 33825",636333028,"R"
46412,"13 SOUTH MAIN STREET APT 27","HANOVER","NH",3755,43.701688211,-72.289389177,412,"13 SOUTH MAIN STREET APT 27, HANOVER, NH, 3755","Match","Exact","13 S MAIN ST, HANOVER, NH, 03755",637771438,"L"
46413,"13 SPREUCE STREET","MARCUS HOOK","PA",19061,39.8219745860001,-75.413281361,413,"13 SPREUCE STREET, MARCUS HOOK, PA, 19061","Match","Non_Exact","13 SPRUCE ST, MARCUS HOOK, PA, 19061",134899387,"L"
46414,"13 SPRUCE ST","MARCUS HOOK","PA",19061,39.8219745860001,-75.413281361,414,"13 SPRUCE ST, MARCUS HOOK, PA, 19061","Match","Exact","13 SPRUCE ST, MARCUS HOOK, PA, 19061",134899387,"L"
46415,"13 SPRUCE STREET","MARCUS HOOK","PA",19061,39.8219745860001,-75.413281361,415,"13 SPRUCE STREET, MARCUS HOOK, PA, 19061","Match","Exact","13 SPRUCE ST, MARCUS HOOK, PA, 19061",134899387,"L"
46416,"13 STARBOARD CT","THIRD LAKE","IL",60030,42.3636901150001,-88.006453364,416,"13 STARBOARD CT, THIRD LAKE, IL, 60030","Match","Exact","13 STARBOARD CT, THIRD LAKE, IL, 60030",119667740,"R"
46417,"13 STARR AVE","MONTICELLO","NY",12701,41.6576768910001,-74.679086099,417,"13 STARR AVE, MONTICELLO, NY, 12701","Match","Exact","13 STARR AVE, MONTICELLO, NY, 12701",128983456,"R"
46418,"13 STEPHANIE RD","MIDDLETOWN","NJ",7748,40.4168244960001,-74.124444887,418,"13 STEPHANIE RD, MIDDLETOWN, NJ, 7748","Match","Exact","13 STEPHANIE RD, MIDDLETOWN, NJ, 07748",90469257,"R"
46419,"13 STICKNEY AVE","SOMERVILLE","MA",2145,42.3888739600001,-71.095657112,419,"13 STICKNEY AVE, SOMERVILLE, MA, 2145","Match","Exact","13 STICKNEY AVE, SOMERVILLE, MA, 02145",639008731,"L"
46420,"13 STOCKTON STREET","DORCHESTER","MA",2124,42.282945087,-71.0722528109999,420,"13 STOCKTON STREET, DORCHESTER, MA, 2124","Match","Exact","13 STOCKTON ST, DORCHESTER, MA, 02124",85706064,"R"
46421,"13 STONEYBROOK LANE","OAKRIDGE","NJ",7438,41.022578353,-74.51732107,421,"13 STONEYBROOK LANE, OAKRIDGE, NJ, 7438","Match","Non_Exact","13 STONEY BROOK LN, OAK RIDGE, NJ, 07438",640032659,"L"
46422,"13 SUMMIT TERRACE","DOBBS FERRY","NY",10522,41.0170854890001,-73.853385679,422,"13 SUMMIT TERRACE, DOBBS FERRY, NY, 10522","Match","Exact","13 SUMMIT TER, DOBBS FERRY, NY, 10522",139732543,"L"
46423,"13 SUMMIT TERRACE","SPARTA","NJ",7871,41.0183653820001,-74.6759913129999,423,"13 SUMMIT TERRACE, SPARTA, NJ, 7871","Match","Exact","13 SUMMIT TER, SPARTA, NJ, 07871",646969911,"L"
46424,"13 SUNSET RIVER","IRVINE","CA",92604,33.687941532,-117.78741083,424,"13 SUNSET RIVER, IRVINE, CA, 92604","Match","Exact","13 SUNSET RIVER, IRVINE, CA, 92604",144060063,"L"
46425,"13 SUNSET STREET","THOMASTON","ME",4841,NA,NA,425,"13 SUNSET STREET, THOMASTON, ME, 4841","No_Match",NA,NA,NA,NA
46426,"13 SWEETWATER PARK LOOP","FORT MITCHELL","AL",36856,32.2829042760001,-85.008334174,426,"13 SWEETWATER PARK LOOP, FORT MITCHELL, AL, 36856","Match","Exact","13 SWEETWATER PARK LOOP, FORT MITCHELL, AL, 36856",642437409,"L"
46427,"13 SYLVAN PARK DRIVE","NEWBURGH","NY",12550,41.5393350570001,-74.086864995,427,"13 SYLVAN PARK DRIVE, NEWBURGH, NY, 12550","Match","Exact","13 SYLVAN PARK DR, NEWBURGH, NY, 12550",124496937,"L"
46428,"13 TAMIAMIWAY","KISSIMMEE","FL",34758,NA,NA,428,"13 TAMIAMIWAY, KISSIMMEE, FL, 34758","No_Match",NA,NA,NA,NA
46429,"13 TANGLEWOOD COURT","MONMOUTH JUNCTION","NJ",8852,40.4217687920001,-74.52369229,429,"13 TANGLEWOOD COURT, MONMOUTH JUNCTION, NJ, 8852","Match","Exact","13 TANGLEWOOD CT, MONMOUTH JCT, NJ, 08852",60298464,"R"
46430,"13 THORESEN ROAD","WARREN","NJ",7059,40.602870088,-74.517520503,430,"13 THORESEN ROAD, WARREN, NJ, 7059","Match","Exact","13 THORESEN RD, WARREN, NJ, 07059",59940193,"L"
46431,"13 TIFT STREET","JEWETT CITY","CT",6351,41.614013707,-71.977403033,431,"13 TIFT STREET, JEWETT CITY, CT, 6351","Match","Exact","13 TIFT ST, JEWETT CITY, CT, 06351",56835276,"R"
46432,"13 TOWN HALL RD","MADBURY","NH",3823,43.1673246940001,-70.9429935209999,432,"13 TOWN HALL RD, MADBURY, NH, 3823","Match","Exact","13 TOWN HALL RD, MADBURY, NH, 03823",117805543,"R"
46433,"13 TRAVERS STREET","HUDSON","NH",3051,42.7671256780001,-71.425403193,433,"13 TRAVERS STREET, HUDSON, NH, 3051","Match","Exact","13 TRAVERS ST, HUDSON, NH, 03051",113537825,"R"
46434,"13 TREASURE LAKE","DUBOIS","PA",15801,41.1587542610001,-78.7167573959999,434,"13 TREASURE LAKE, DUBOIS, PA, 15801","Match","Exact","13 TREASURE LAKE, DUBOIS, PA, 15801",50470384,"L"
46435,"13 ULSTER AVE","ULSTER PARK","NY",12487,41.859041889,-73.973877325,435,"13 ULSTER AVE, ULSTER PARK, NY, 12487","Match","Exact","13 ULSTER AVE, ULSTER PARK, NY, 12487",648155588,"R"
46436,"13 VALLEY WAY","WEST ORANGE","NJ",7052,40.7999151600001,-74.234750547,436,"13 VALLEY WAY, WEST ORANGE, NJ, 7052","Match","Exact","13 VALLEY WAY, WEST ORANGE, NJ, 07052",63449368,"R"
46437,"13 VILLA ENCANTADA","CIDRA","PR",739,NA,NA,437,"13 VILLA ENCANTADA, CIDRA, PR, 739","No_Match",NA,NA,NA,NA
46438,"13 VILLAGE DR","LITTLETON","CO",80123,39.6063053080001,-105.037434886,438,"13 VILLAGE DR, LITTLETON, CO, 80123","Match","Exact","13 VILLAGE DR, LITTLETON, CO, 80123",177335371,"R"
46439,"13 W 129TH STREET UNIT 1","NEW YORK","NY",10027,40.8092850040001,-73.9411595179999,439,"13 W 129TH STREET UNIT 1, NEW YORK, NY, 10027","Match","Non_Exact","13 W 129TH ST, NEW YORK, NY, 10027",634257295,"R"
46440,"13 W 200 S","IVINS","UT",84738,37.1649109690001,-113.679736847,440,"13 W 200 S, IVINS, UT, 84738","Match","Exact","13 W 200 S, IVINS, UT, 84738",645611413,"L"
46441,"13 W AVENIDA SAN GABRIEL","SAN CLEMENTE","CA",92672,33.4149176930001,-117.600928896,441,"13 W AVENIDA SAN GABRIEL, SAN CLEMENTE, CA, 92672","Match","Exact","13 W AVE SAN GABRIEL, SAN CLEMENTE, CA, 92672",144076465,"L"
46442,"13 W BEVERLEY ST 5TH FLOOR","STAUNTON","VA",24401,NA,NA,442,"13 W BEVERLEY ST 5TH FLOOR, STAUNTON, VA, 24401","Tie",NA,NA,NA,NA
46443,"13 W FRONT ST","TRENTON","NJ",8608,40.2195473470001,-74.766937088,443,"13 W FRONT ST, TRENTON, NJ, 8608","Match","Exact","13 W FRONT ST, TRENTON, NJ, 08608",60178684,"L"
46444,"13 W JACKSON STREET","SULLIVAN","IN",47879,39.0943677770001,-87.407326604,444,"13 W JACKSON STREET, SULLIVAN, IN, 47879","Match","Non_Exact","13 W JACKSON ST, SULLIVAN, IN, 47882",27074802,"L"
46445,"13 WALL STREET","GLOUCESTER","MA",1930,42.615068229,-70.6495863919999,445,"13 WALL STREET, GLOUCESTER, MA, 1930","Match","Exact","13 WALL ST, GLOUCESTER, MA, 01930",86679781,"R"
46446,"13 WALLIS PO BOX 461","PEABODY","MA",1960,42.525946558,-70.9247191389999,446,"13 WALLIS PO BOX 461, PEABODY, MA, 1960","Match","Non_Exact","13 WALLIS ST, PEABODY, MA, 01960",651708741,"R"
46447,"13 WELLINGTON DR","BASKING RIDGE","NJ",7920,40.6537092310001,-74.60922992,447,"13 WELLINGTON DR, BASKING RIDGE, NJ, 7920","Match","Exact","13 WELLINGTON DR, BASKING RIDGE, NJ, 07920",59961237,"R"
46448,"13 WEST 32ND STREET","BAYONNE","NJ",7002,40.6713849240001,-74.112863089,448,"13 WEST 32ND STREET, BAYONNE, NJ, 7002","Match","Exact","13 W 32ND ST, BAYONNE, NJ, 07002",59610531,"R"
46449,"13 WEST FRANKLIN ROAD","FRANKLIN","ME",4634,44.588045897,-68.2504784499999,449,"13 WEST FRANKLIN ROAD, FRANKLIN, ME, 4634","Match","Exact","13 W FRANKLIN RD, FRANKLIN, ME, 04634",110302685,"L"
46450,"13 WESTPHAL DR","DELMAR","NY",12054,42.5979803210001,-73.825134556,450,"13 WESTPHAL DR, DELMAR, NY, 12054","Match","Exact","13 WESTPHAL DR, DELMAR, NY, 12054",18330998,"R"
46451,"13 WHALEY STREET","MILFORD","NJ",8848,40.611972978,-75.119252515,451,"13 WHALEY STREET, MILFORD, NJ, 8848","Match","Exact","13 WHALEY ST, MILFORD, NJ, 08848",60014668,"L"
46452,"13 WHITE FIR DRIVE","LOUDONVILLE","NY",12211,42.716669482,-73.778138642,452,"13 WHITE FIR DRIVE, LOUDONVILLE, NY, 12211","Match","Exact","13 WHITE FIR DR, LOUDONVILLE, NY, 12211",18306702,"R"
46453,"13 WHITE HAWK LANE","ITHACA","NY",14850,42.362721697,-76.49194837,453,"13 WHITE HAWK LANE, ITHACA, NY, 14850","Match","Non_Exact","13 WHITE HAWK RD, ITHACA, NY, 14850",624893628,"L"
46454,"13 WILLIAMS LN","TRENTON","TN",38382,35.9679854450001,-88.883983252,454,"13 WILLIAMS LN, TRENTON, TN, 38382","Match","Exact","13 WILLIAMS LN, TRENTON, TN, 38382",40812510,"L"
46455,"13 WILLIAMS RD","ASHBURNHAM","MA",1430,42.6225218480001,-71.922825124,455,"13 WILLIAMS RD, ASHBURNHAM, MA, 1430","Match","Exact","13 WILLIAMS RD, ASHBURNHAM, MA, 01430",40094448,"L"
46456,"13 WINDSOR DRIVE","LITTLE SILVER","NJ",7739,40.3441312680001,-74.050645246,456,"13 WINDSOR DRIVE, LITTLE SILVER, NJ, 7739","Match","Exact","13 WINDSOR DR, LITTLE SILVER, NJ, 07739",90454759,"R"
46457,"13 WINOOSKI ST","WATERBURY","VT",5676,44.3384761670001,-72.759508381,457,"13 WINOOSKI ST, WATERBURY, VT, 5676","Match","Exact","13 WINOOSKI ST, WATERBURY, VT, 05676",136674114,"L"
46458,"13 WOODS LANE","EAST HAMPTON","NY",11937,40.9533165670001,-72.195811442,458,"13 WOODS LANE, EAST HAMPTON, NY, 11937","Match","Exact","13 WOODS LN, EAST HAMPTON, NY, 11937",114066744,"R"
46459,"13 YORK DRIVE","SAINT LOUIS","MO",63144,38.628801331,-90.3600985909999,459,"13 YORK DRIVE, SAINT LOUIS, MO, 63144","Match","Exact","13 YORK DR, SAINT LOUIS, MO, 63144",100134903,"L"
46460,"13 YORKSHIRE DR APT E","NEWBURGH","IN",47630,37.9462563490001,-87.416406948,460,"13 YORKSHIRE DR APT E, NEWBURGH, IN, 47630","Match","Non_Exact","13 YORKSHIRE RD, NEWBURGH, IN, 47630",32210394,"R"
46461,"13-1255 MALAMA STREET","PAHOA","HI",96778,19.457021099,-154.932850356,461,"13-1255 MALAMA STREET, PAHOA, HI, 96778","Match","Exact","13-1255 MALAMA ST, PAHOA, HI, 96778",635780332,"R"
46462,"13-3410 MOKU ST","PAHOA","HI",96778,19.4684491200001,-154.916465545,462,"13-3410 MOKU ST, PAHOA, HI, 96778","Match","Exact","13-3410 MOKU ST, PAHOA, HI, 96778",614328494,"R"
46463,"13-3430 POMAIKAI STREET","PAHOA","HI",96778,19.4727621320001,-154.918723405,463,"13-3430 POMAIKAI STREET, PAHOA, HI, 96778","Match","Exact","13-3430 POMAIKAI ST, PAHOA, HI, 96778",614326527,"L"
46464,"13-3441 MOKU ST","PAHOA","HI",96778,19.4674472450001,-154.916549741,464,"13-3441 MOKU ST, PAHOA, HI, 96778","Match","Exact","13-3441 MOKU ST, PAHOA, HI, 96778",614328494,"L"
46465,"13-3482 ALAPAI ST","PAHOA","HI",96778,19.4675160780001,-154.921862308,465,"13-3482 ALAPAI ST, PAHOA, HI, 96778","Match","Exact","13-3482 ALAPAI ST, PAHOA, HI, 96778",203026313,"R"
46466,"13-38 131 STREET","COLLEGE POINT","NY",11356,40.787074375,-73.837389571,466,"13-38 131 STREET, COLLEGE POINT, NY, 11356","Match","Exact","13-38 131ST ST, COLLEGE POINT, NY, 11356",59699774,"R"
46467,"13-38 SUNNYSIDE DRIVE","FAIR LAWN","NJ",7410,40.9401560840001,-74.113538338,467,"13-38 SUNNYSIDE DRIVE, FAIR LAWN, NJ, 7410","Match","Exact","13-38 SUNNYSIDE DR, FAIR LAWN, NJ, 07410",64380078,"L"
46468,"13-6554 KALAPANA-KAPOHO RD","PAHOA","HI",96778,NA,NA,468,"13-6554 KALAPANA-KAPOHO RD, PAHOA, HI, 96778","No_Match",NA,NA,NA,NA
46469,"13-926 KAHUKAI ST","PAHOA","HI",96778,19.4769563790001,-154.914169639,469,"13-926 KAHUKAI ST, PAHOA, HI, 96778","Match","Exact","13-926 KAHUKAI ST, PAHOA, HI, 96778",614326878,"R"
46470,"13","MIAMI","FL",33179,NA,NA,470,"13, MIAMI, FL, 33179","No_Match",NA,NA,NA,NA
46471,"130 24TH ST NE","CEDAR RAPIDS","IA",52402,42.000629695,-91.636897413,471,"130 24TH ST NE, CEDAR RAPIDS, IA, 52402","Match","Exact","130 24TH ST NE, CEDAR RAPIDS, IA, 52402",17022088,"R"
46472,"130 26TH ST NW UNIT 807","ATLANTA","GA",30309,33.801986286,-84.39617871,472,"130 26TH ST NW UNIT 807, ATLANTA, GA, 30309","Match","Exact","130 26TH ST NW, ATLANTA, GA, 30309",612217993,"L"
46473,"130 5TH AVE N","KINDRED","ND",58051,46.6503776390001,-97.018644738,473,"130 5TH AVE N, KINDRED, ND, 58051","Match","Exact","130 5TH AVE N, KINDRED, ND, 58051",151437794,"L"
46474,"130 5TH ST NE","CARROLLTON","OH",44615,40.575806776,-81.082355465,474,"130 5TH ST NE, CARROLLTON, OH, 44615","Match","Exact","130 5TH ST NE, CARROLLTON, OH, 44615",44182355,"L"
46475,"130 5TH STSREET","NAZARETH","PA",18064,40.7419539960001,-75.29287848,475,"130 5TH STSREET, NAZARETH, PA, 18064","Match","Non_Exact","130 5TH ST, NAZARETH, PA, 18064",136897345,"R"
46476,"130 7TH AVENUE STE 151","NEW YORK","NY",10011,40.7409421950001,-73.9979513499999,476,"130 7TH AVENUE STE 151, NEW YORK, NY, 10011","Match","Exact","130 7TH AVE, NEW YORK, NY, 10011",59653328,"L"
46477,"130 ACOUSTIC DR","CHARLESTON","WV",25306,NA,NA,477,"130 ACOUSTIC DR, CHARLESTON, WV, 25306","No_Match",NA,NA,NA,NA
46478,"130 AIRPARK","PHILADELPHIA","MS",39350,32.7544575480001,-89.092422748,478,"130 AIRPARK, PHILADELPHIA, MS, 39350","Match","Non_Exact","130 AIRPARK DR, PHILADELPHIA, MS, 39350",157763693,"R"
46479,"130 ALICANTE STREET","ATLANTA","GA",30349,33.574103753,-84.467269287,479,"130 ALICANTE STREET, ATLANTA, GA, 30349","Match","Exact","130 ALICANTE ST, ATLANTA, GA, 30349",624809728,"L"
46480,"130 ALIDA STREET","RHEEMS","PA",17570,NA,NA,480,"130 ALIDA STREET, RHEEMS, PA, 17570","No_Match",NA,NA,NA,NA
46481,"130 ANDOVER CIRCLE","OAK RIDGE","TN",37830,36.04851668,-84.221161694,481,"130 ANDOVER CIRCLE, OAK RIDGE, TN, 37830","Match","Exact","130 ANDOVER CIR, OAK RIDGE, TN, 37830",644716160,"R"
46482,"130 ANNA DR","WINDSOR","CA",95492,38.5306886160001,-122.783632262,482,"130 ANNA DR, WINDSOR, CA, 95492","Match","Exact","130 ANNA DR, WINDSOR, CA, 95492",67511513,"R"
46483,"130 ASHBURY DRIVE","VILLA RICA","GA",30180,33.7191860360001,-84.9270042479999,483,"130 ASHBURY DRIVE, VILLA RICA, GA, 30180","Match","Exact","130 ASHBURY DR, VILLA RICA, GA, 30180",633900650,"R"
46484,"130 AVALON ROAD","MOUNT VERNON","OH",43050,40.4147737850001,-82.463073894,484,"130 AVALON ROAD, MOUNT VERNON, OH, 43050","Match","Exact","130 AVALON RD, MOUNT VERNON, OH, 43050",24637549,"R"
46485,"130 AVENUE B","BILLINGS","MT",59101,45.7850587240001,-108.518775224,485,"130 AVENUE B, BILLINGS, MT, 59101","Match","Exact","130 AVE B, BILLINGS, MT, 59101",181476921,"L"
46486,"130 AVENUE C CHAPLIN OFFICE PSA 4","NEW YORK","NY",10009,40.7248650350001,-73.9782781979999,486,"130 AVENUE C CHAPLIN OFFICE PSA 4, NEW YORK, NY, 10009","Match","Exact","130 AVE C, NEW YORK, NY, 10009",59654727,"R"
46487,"130 AVON ST","MALDEN","MA",2148,42.416701722,-71.0822963479999,487,"130 AVON ST, MALDEN, MA, 2148","Match","Exact","130 AVON ST, MALDEN, MA, 02148",86860532,"L"
46488,"130 B NORTH 34TH STREET","SAN JOSE","CA",95116,37.354292103,-121.859373727,488,"130 B NORTH 34TH STREET, SAN JOSE, CA, 95116","Match","Exact","130 N 34TH ST, SAN JOSE, CA, 95116",650936690,"R"
46489,"130 BARCLAY FARMS SHOPPING CENTER","CHERRY HILL","NJ",8034,NA,NA,489,"130 BARCLAY FARMS SHOPPING CENTER, CHERRY HILL, NJ, 8034","Tie",NA,NA,NA,NA
46490,"130 BAY AVE","GREENPORT","NY",11944,41.104610408,-72.357172469,490,"130 BAY AVE, GREENPORT, NY, 11944","Match","Exact","130 BAY AVE, GREENPORT, NY, 11944",113957995,"L"
46491,"130 BEACH MORELLI","MAMARONECK","NY",10543,40.9525636130001,-73.728282072,491,"130 BEACH MORELLI, MAMARONECK, NY, 10543","Match","Non_Exact","130 BEACH AVE, MAMARONECK, NY, 10543",139755329,"L"
46492,"130 BEACH ST 104","QUINCY","MA",2170,42.2718871920001,-71.0156849429999,492,"130 BEACH ST 104, QUINCY, MA, 2170","Match","Exact","130 BEACH ST, QUINCY, MA, 02170",87248850,"L"
46493,"130 BEDFORD LANE","JACKSON","MS",39206,32.38165853,-90.1974571389999,493,"130 BEDFORD LANE, JACKSON, MS, 39206","Match","Exact","130 BEDFORD LN, JACKSON, MS, 39206",65359791,"L"
46494,"130 BEDFORD WAY","BAKERSFIELD","CA",93308,35.429036705,-119.01993284,494,"130 BEDFORD WAY, BAKERSFIELD, CA, 93308","Match","Exact","130 BEDFORD WAY, BAKERSFIELD, CA, 93308",109500066,"L"
46495,"130 BELLEROSE DR","SAN JOSE","CA",95128,37.326027835,-121.935970202,495,"130 BELLEROSE DR, SAN JOSE, CA, 95128","Match","Exact","130 BELLEROSE DR, SAN JOSE, CA, 95128",123180738,"L"
46496,"130 BERLIN ROAD","NEW OXFORD","PA",17350,39.8682047950001,-77.0540971469999,496,"130 BERLIN ROAD, NEW OXFORD, PA, 17350","Match","Exact","130 BERLIN RD, NEW OXFORD, PA, 17350",60873018,"L"
46497,"130 BERRY LN","MARSHALL","TX",75670,32.6135115650001,-94.3901032099999,497,"130 BERRY LN, MARSHALL, TX, 75670","Match","Exact","130 BERRY LN, MARSHALL, TX, 75670",648222373,"R"
46498,"130 BLACKBEAR DRIVE APT1323","WALTHAM","MA",2451,42.378950973,-71.271099552,498,"130 BLACKBEAR DRIVE APT1323, WALTHAM, MA, 2451","Match","Non_Exact","130 BLACK BEAR DR, WALTHAM, MA, 02451",87133072,"R"
46499,"130 BLEVINS HOLLOW RD","ELIZABETHTON","TN",37643,NA,NA,499,"130 BLEVINS HOLLOW RD, ELIZABETHTON, TN, 37643","No_Match",NA,NA,NA,NA
46500,"130 BOYLE DR","EUREKA","CA",95503,40.756091789,-124.166177361,500,"130 BOYLE DR, EUREKA, CA, 95503","Match","Exact","130 BOYLE DR, EUREKA, CA, 95503",112990906,"R"
