"ID","Address","City","State","Zip","lat","long","id","input_address","match_indicator","match_type","matched_address","tiger_line_id","tiger_side"
112501,"21 CENTRAL AVENUE","BOSTON","MA",2136,42.2573923210001,-71.12100756,1,"21 CENTRAL AVENUE, BOSTON, MA, 2136","Match","Exact","21 CENTRAL AVE, BOSTON, MA, 02136",85718232,"R"
112502,"21 CHELSEA CT","SEWELL","NJ",8080,39.7376906630001,-75.0773705129999,2,"21 CHELSEA CT, SEWELL, NJ, 8080","Match","Exact","21 CHELSEA CT, SEWELL, NJ, 08080",134595369,"L"
112503,"21 CHESTER ROAD","BILLERICA","MA",1821,42.535219365,-71.2195840099999,3,"21 CHESTER ROAD, BILLERICA, MA, 1821","Match","Exact","21 CHESTER RD, BILLERICA, MA, 01821",86908251,"R"
112504,"21 CHESTNUT LANE","WAYNE","PA",19087,40.0511540850001,-75.3972492249999,4,"21 CHESTNUT LANE, WAYNE, PA, 19087","Match","Exact","21 CHESTNUT LN, WAYNE, PA, 19087",179513372,"R"
112505,"21 CHESTNUT STREET","CHARLESTOWN","MA",2129,42.3741614850001,-71.0588917819999,5,"21 CHESTNUT STREET, CHARLESTOWN, MA, 2129","Match","Exact","21 CHESTNUT ST, CHARLESTOWN, MA, 02129",639000245,"R"
112506,"21 CHRISMAR RD","PORTAGE","IN",46368,41.621179505,-87.2010139229999,6,"21 CHRISMAR RD, PORTAGE, IN, 46368","Match","Exact","21 CHRISMAR RD, PORTAGE, IN, 46368",119907914,"R"
112507,"21 CHRISTIE ST","DEMAREST","NJ",7627,40.9577046300001,-73.9663337709999,7,"21 CHRISTIE ST, DEMAREST, NJ, 7627","Match","Exact","21 CHRISTIE ST, DEMAREST, NJ, 07627",64373514,"L"
112508,"21 CLARENCE PLACE APT 402","SAN FRANCISCO","CA",94107,37.779737734,-122.392774098,8,"21 CLARENCE PLACE APT 402, SAN FRANCISCO, CA, 94107","Match","Exact","21 CLARENCE PL, SAN FRANCISCO, CA, 94107",192289455,"L"
112509,"21 CLEARWATER DRIVE","DURHAM","NC",27707,35.937973453,-78.966557127,9,"21 CLEARWATER DRIVE, DURHAM, NC, 27707","Match","Exact","21 CLEARWATER DR, DURHAM, NC, 27707",71773070,"L"
112510,"21 CLEMATIS STREET APT 2","PROVIDENCE","RI",2908,41.833356462,-71.4459215799999,10,"21 CLEMATIS STREET APT 2, PROVIDENCE, RI, 2908","Match","Exact","21 CLEMATIS ST, PROVIDENCE, RI, 02908",47458112,"R"
112511,"21 COACHMANS LANE","HAVERHILL","MA",1832,42.7899198980001,-71.154474431,11,"21 COACHMANS LANE, HAVERHILL, MA, 1832","Match","Exact","21 COACHMANS LN, HAVERHILL, MA, 01832",86666330,"L"
112512,"21 COLONIA AVE","HADDONFIELD","NJ",8033,NA,NA,12,"21 COLONIA AVE, HADDONFIELD, NJ, 8033","No_Match",NA,NA,NA,NA
112513,"21 COLUMBIA CIRCLE","PLYMOUTH","MA",2360,41.9360739110001,-70.73299281,13,"21 COLUMBIA CIRCLE, PLYMOUTH, MA, 2360","Match","Exact","21 COLUMBIA CIR, PLYMOUTH, MA, 02360",87437080,"L"
112514,"21 COMMERCE BLVD SUITE 1","WEST GROVE","PA",19390,39.8251303820001,-75.878064323,14,"21 COMMERCE BLVD SUITE 1, WEST GROVE, PA, 19390","Match","Exact","21 COMMERCE BL, WEST GROVE, PA, 19390",179530397,"L"
112515,"21 CONCORD STREET","NORWALK","CT",6854,41.0934127130001,-73.4184731519999,15,"21 CONCORD STREET, NORWALK, CT, 6854","Match","Exact","21 CONCORD ST, NORWALK, CT, 06854",3251288,"L"
112516,"21 CONGER ROAD","WORCESTER","MA",1602,42.2803216230001,-71.877885657,16,"21 CONGER ROAD, WORCESTER, MA, 1602","Match","Exact","21 CONGER RD, WORCESTER, MA, 01602",40006977,"L"
112517,"21 COOLIDGE AVENUE","SPENCERPORT","NY",14559,43.1884215270001,-77.7941083869999,17,"21 COOLIDGE AVENUE, SPENCERPORT, NY, 14559","Match","Exact","21 COOLIDGE AVE, SPENCERPORT, NY, 14559",14528067,"R"
112518,"21 CORPORATE DR SUITE 203","CLIFTON PARK","NY",12065,NA,NA,18,"21 CORPORATE DR SUITE 203, CLIFTON PARK, NY, 12065","No_Match",NA,NA,NA,NA
112519,"21 CORPORATE DRIVE SUITE 203","CLIFTON PARK","NY",12065,NA,NA,19,"21 CORPORATE DRIVE SUITE 203, CLIFTON PARK, NY, 12065","No_Match",NA,NA,NA,NA
112520,"21 CORPORATE DRIVE","EASTON","PA",18045,40.6864893640001,-75.2538080959999,20,"21 CORPORATE DRIVE, EASTON, PA, 18045","Match","Exact","21 CORPORATE DR, EASTON, PA, 18045",136912102,"R"
112521,"21 CORTE LATEUZA","LAKE ELSINORE","CA",92532,33.67750411,-117.289226903,21,"21 CORTE LATEUZA, LAKE ELSINORE, CA, 92532","Match","Exact","21 CORTE LATEUZA, LAKE ELSINORE, CA, 92532",194838920,"L"
112522,"21 COTTAGE ROAD","NEWBURY","MA",1951,42.765552423,-70.843056127,22,"21 COTTAGE ROAD, NEWBURY, MA, 1951","Match","Exact","21 COTTAGE RD, NEWBURY, MA, 01951",86623387,"L"
112523,"21 COTTONTAIL LANE","LAMOINE","ME",4605,44.4728814650001,-68.350019038,23,"21 COTTONTAIL LANE, LAMOINE, ME, 4605","Match","Exact","21 COTTONTAIL LN, LAMOINE, ME, 04605",648212467,"R"
112524,"21 COUNTRY DRIVE","PORT WASHINGTON","NY",11050,NA,NA,24,"21 COUNTRY DRIVE, PORT WASHINGTON, NY, 11050","No_Match",NA,NA,NA,NA
112525,"21 COUNTY ROAD","BENNINGTON","VT",5201,NA,NA,25,"21 COUNTY ROAD, BENNINGTON, VT, 5201","No_Match",NA,NA,NA,NA
112526,"21 COVE ROAD","SAG HARBOR","NY",11963,40.9979918490001,-72.308077627,26,"21 COVE ROAD, SAG HARBOR, NY, 11963","Match","Exact","21 COVE RD, SAG HARBOR, NY, 11963",113959638,"R"
112527,"21 COVERED BRIDGE ROAD","FLEMINGTON","NJ",8822,40.5456652500001,-74.862103844,27,"21 COVERED BRIDGE ROAD, FLEMINGTON, NJ, 8822","Match","Exact","21 COVERED BRIDGE RD, FLEMINGTON, NJ, 08822",60021311,"L"
112528,"21 COVEY LANE UNIT F","GREENSBORO","NC",27406,36.0144688340001,-79.797161204,28,"21 COVEY LANE UNIT F, GREENSBORO, NC, 27406","Match","Exact","21 COVEY LN, GREENSBORO, NC, 27406",131098918,"L"
112529,"21 CR 287","OXFORD","MS",38655,34.307129349,-89.275844308,29,"21 CR 287, OXFORD, MS, 38655","Match","Exact","21 CO RD 287, OXFORD, MS, 38655",645506942,"L"
112530,"21 CRAIGSIDE PLACE 7A","HONOLULU","HI",96817,21.3230870740001,-157.848685957,30,"21 CRAIGSIDE PLACE 7A, HONOLULU, HI, 96817","Match","Exact","21 CRAIGSIDE PL, HONOLULU, HI, 96817",203333648,"R"
112531,"21 CRENSHAW DR","FLANDERS","NJ",7836,40.8356850650001,-74.7018242779999,31,"21 CRENSHAW DR, FLANDERS, NJ, 7836","Match","Exact","21 CRENSHAW DR, FLANDERS, NJ, 07836",60469482,"R"
112532,"21 CURRENT DR CAMPUS BOX 7904","RALEIGH","NC",27695,NA,NA,32,"21 CURRENT DR CAMPUS BOX 7904, RALEIGH, NC, 27695","No_Match",NA,NA,NA,NA
112533,"21 CUSTOM HOUSE","BOSTON","MA",2110,42.3577559710001,-71.0531418899999,33,"21 CUSTOM HOUSE, BOSTON, MA, 2110","Match","Non_Exact","21 CUSTOM HOUSE ST, BOSTON, MA, 02110",85710326,"R"
112534,"21 CYPRESS BLVD STE 1155","ROUND ROCK","TX",78665,30.553737932,-97.68168492,34,"21 CYPRESS BLVD STE 1155, ROUND ROCK, TX, 78665","Match","Exact","21 CYPRESS BLVD, ROUND ROCK, TX, 78665",126485453,"R"
112535,"21 DALEBROOK DRIVE","PHOENIX","MD",21131,39.4932905270001,-76.565131188,35,"21 DALEBROOK DRIVE, PHOENIX, MD, 21131","Match","Exact","21 DALEBROOK DR, PHOENIX, MD, 21131",191474509,"L"
112536,"21 DAVENPORT AVE 4H","NEW ROCHELLE","NY",10805,40.9058294650001,-73.7719412069999,36,"21 DAVENPORT AVE 4H, NEW ROCHELLE, NY, 10805","Match","Exact","21 DAVENPORT AVE, NEW ROCHELLE, NY, 10805",139848128,"R"
112537,"21 DAVIS AVENUE","POUGHKEEPIE","NY",12603,41.693603764,-73.898753283,37,"21 DAVIS AVENUE, POUGHKEEPIE, NY, 12603","Match","Non_Exact","21 DAVIS AVE, POUGHKEEPSIE, NY, 12603",4168682,"L"
112538,"21 DAVIS STREET","DOUGLAS","MA",1516,42.074279432,-71.704995846,38,"21 DAVIS STREET, DOUGLAS, MA, 1516","Match","Exact","21 DAVIS ST, DOUGLAS, MA, 01516",40092500,"L"
112539,"21 DEER VIEW ROAD","JOHNSTON","RI",2919,41.812971867,-71.4835198919999,39,"21 DEER VIEW ROAD, JOHNSTON, RI, 2919","Match","Exact","21 DEER VIEW RD, JOHNSTON, RI, 02919",47501636,"L"
112540,"21 DELBROOK RD","MORRIS PLAINS","NJ",7950,40.854851915,-74.45114635,40,"21 DELBROOK RD, MORRIS PLAINS, NJ, 7950","Match","Exact","21 DELBROOK RD, MORRIS PLAINS, NJ, 07950",60442780,"R"
112541,"21 DEVELLIS DRIVE","TRUMBULL","CT",6611,41.25280926,-73.2216429489999,41,"21 DEVELLIS DRIVE, TRUMBULL, CT, 6611","Match","Exact","21 DEVELLIS DR, TRUMBULL, CT, 06611",3217571,"L"
112542,"21 DEVERELL DRIVE","NORTH BARRINGTON","IL",60010,42.216033495,-88.123672706,42,"21 DEVERELL DRIVE, NORTH BARRINGTON, IL, 60010","Match","Exact","21 DEVERELL DR, N BARRINGTON, IL, 60010",119667921,"R"
112543,"21 DEVONSHIRE DRIVE","WATERFORD","CT",6385,41.3584719310001,-72.140250685,43,"21 DEVONSHIRE DRIVE, WATERFORD, CT, 6385","Match","Exact","21 DEVONSHIRE DR, WATERFORD, CT, 06385",56844896,"R"
112544,"21 DICKERSON ROAD","AUGUSTA","NJ",7822,41.1402569840001,-74.716776742,44,"21 DICKERSON ROAD, AUGUSTA, NJ, 7822","Match","Exact","21 DICKERSON RD, AUGUSTA, NJ, 07822",635467632,"R"
112545,"21 DIKE DRIVE","MONSEY","NY",10952,41.1589880220001,-74.081457426,45,"21 DIKE DRIVE, MONSEY, NY, 10952","Match","Exact","21 DIKE DR, MONSEY, NY, 10952",124627356,"L"
112546,"21 DINEEN STREET","SPRINGFIELD","MA",1104,42.124625587,-72.585650014,46,"21 DINEEN STREET, SPRINGFIELD, MA, 1104","Match","Exact","21 DINEEN ST, SPRINGFIELD, MA, 01104",4034595,"R"
112547,"21 DIVISION STREET","EAST GREENWICH","RI",2818,41.663950431,-71.4507517819999,47,"21 DIVISION STREET, EAST GREENWICH, RI, 2818","Match","Exact","21 DIVISION ST, EAST GREENWICH, RI, 02818",159151207,"R"
112548,"21 DOLPHIN ST","GREENVILLE","SC",29605,34.762092974,-82.386561671,48,"21 DOLPHIN ST, GREENVILLE, SC, 29605","Match","Exact","21 DOLPHIN ST, GREENVILLE, SC, 29605",38305852,"L"
112549,"21 DOUGLAS DR","AYER","MA",1432,42.579951744,-71.585808976,49,"21 DOUGLAS DR, AYER, MA, 1432","Match","Exact","21 DOUGLAS DR, AYER, MA, 01432",86925302,"R"
112550,"21 E 10TH ST 11C","NEW YORK","NY",10003,NA,NA,50,"21 E 10TH ST 11C, NEW YORK, NY, 10003","No_Match",NA,NA,NA,NA
112551,"21 E 1ST STREET APT 502","NEW YORK","NY",10003,NA,NA,51,"21 E 1ST STREET APT 502, NEW YORK, NY, 10003","Tie",NA,NA,NA,NA
112552,"21 E 36TH ST","BAYONNE","NJ",7002,40.6740917340001,-74.1088312689999,52,"21 E 36TH ST, BAYONNE, NJ, 7002","Match","Exact","21 E 36TH ST, BAYONNE, NJ, 07002",59603490,"L"
112553,"21 E 6TH ST 409","TEMPE","AZ",85281,NA,NA,53,"21 E 6TH ST 409, TEMPE, AZ, 85281","Tie",NA,NA,NA,NA
112554,"21 E BLACK HORSE PIKE","PLEASANTVILLE","NJ",8232,39.389614775,-74.523301949,54,"21 E BLACK HORSE PIKE, PLEASANTVILLE, NJ, 8232","Match","Exact","21 E BLACK HORSE PIKE, PLEASANTVILLE, NJ, 08232",202486290,"R"
112555,"21 E FREDERICK ST","STAUNTON","VA",24401,38.1505642480001,-79.0724956779999,55,"21 E FREDERICK ST, STAUNTON, VA, 24401","Match","Exact","21 E FREDERICK ST, STAUNTON, VA, 24401",98814149,"L"
112556,"21 E HANNAH ROAD","SUMMERTOWN","TN",38483,35.3780297340001,-87.315437071,56,"21 E HANNAH ROAD, SUMMERTOWN, TN, 38483","Match","Exact","21 HANNAH RD, SUMMERTOWN, TN, 38483",26820326,"R"
112557,"21 E MAIN ST PO BOX 300","NEW PALESTINE","IN",46163,NA,NA,57,"21 E MAIN ST PO BOX 300, NEW PALESTINE, IN, 46163","Tie",NA,NA,NA,NA
112558,"21 E MAIN ST","BREVARD","NC",28712,NA,NA,58,"21 E MAIN ST, BREVARD, NC, 28712","Tie",NA,NA,NA,NA
112559,"21 E ORCHARD LN","SHELTON","WA",98584,47.2059338390001,-123.061114439,59,"21 E ORCHARD LN, SHELTON, WA, 98584","Match","Exact","21 E ORCHARD LN, SHELTON, WA, 98584",180854657,"R"
112560,"21 EAST 21 STREET APT 6A","BROOKLYN","NY",11226,40.6539453680001,-73.960676281,60,"21 EAST 21 STREET APT 6A, BROOKLYN, NY, 11226","Match","Exact","21 E 21ST ST, BROOKLYN, NY, 11226",59078568,"L"
112561,"21 EAST 32ND STREET APT 1","BAYONNE","NJ",7002,40.67078846,-74.1116374759999,61,"21 EAST 32ND STREET APT 1, BAYONNE, NJ, 7002","Match","Exact","21 E 32ND ST, BAYONNE, NJ, 07002",59602622,"L"
112562,"21 EAST LUCIUS AVENUE","YOUNGSTOWN","OH",44507,41.0662304370001,-80.660110705,62,"21 EAST LUCIUS AVENUE, YOUNGSTOWN, OH, 44507","Match","Exact","21 E LUCIUS AVE, YOUNGSTOWN, OH, 44507",64596119,"R"
112563,"21 EASTOVER DRIVE","EAST NORTHPORT","NY",11731,40.86119059,-73.312217726,63,"21 EASTOVER DRIVE, EAST NORTHPORT, NY, 11731","Match","Exact","21 EASTOVER DR, E NORTHPORT, NY, 11731",113979345,"L"
112564,"21 EDWARDS STREET","SPRINGFIELD","MA",1103,NA,NA,64,"21 EDWARDS STREET, SPRINGFIELD, MA, 1103","No_Match",NA,NA,NA,NA
112565,"21 ELCANO DR","HOT SPRINGS VILLAGE","AR",71909,34.6425589310001,-92.857739728,65,"21 ELCANO DR, HOT SPRINGS VILLAGE, AR, 71909","Match","Exact","21 ELCANO DR, HOT SPRINGS VILLAGE, AR, 71909",619611226,"L"
112566,"21 ELIZABETH STREET","HAMMOND","IN",46320,41.60507476,-87.524683435,66,"21 ELIZABETH STREET, HAMMOND, IN, 46320","Match","Exact","21 ELIZABETH ST, HAMMOND, IN, 46320",98416855,"L"
112567,"21 ELLSWORTH ST","WEST HAVEN","CT",6516,41.295803017,-72.976010451,67,"21 ELLSWORTH ST, WEST HAVEN, CT, 6516","Match","Exact","21 ELLSWORTH ST, W HAVEN, CT, 06516",604741170,"R"
112568,"21 ELM AVENUE","KENTFIELD","CA",94904,37.9571100210001,-122.548791568,68,"21 ELM AVENUE, KENTFIELD, CA, 94904","Match","Exact","21 ELM AVE, KENTFIELD, CA, 94904",192777715,"L"
112569,"21 ELM DRIVE","NEPTUNE","NJ",7753,40.206666258,-74.082115024,69,"21 ELM DRIVE, NEPTUNE, NJ, 7753","Match","Exact","21 ELM DR, NEPTUNE, NJ, 07753",90457025,"R"
112570,"21 ELMWOOD COURT","ALEXANDRIA","KY",41001,38.9512213890001,-84.370346425,70,"21 ELMWOOD COURT, ALEXANDRIA, KY, 41001","Match","Exact","21 ELMWOOD CT, ALEXANDRIA, KY, 41001",104453699,"R"
112571,"21 ESSEX STREET","IRVINGTON","NJ",7111,NA,NA,71,"21 ESSEX STREET, IRVINGTON, NJ, 7111","Tie",NA,NA,NA,NA
112572,"21 EUCLID AVE","MERCHANTVILLE","NJ",8109,39.9497728310001,-75.062856998,72,"21 EUCLID AVE, MERCHANTVILLE, NJ, 8109","Match","Exact","21 EUCLID AVE, MERCHANTVILLE, NJ, 08109",134343375,"L"
112573,"21 EVERETT ROAD EXT","ALBANY","NY",12205,42.6830940090001,-73.784501424,73,"21 EVERETT ROAD EXT, ALBANY, NY, 12205","Match","Non_Exact","21 EVERETT RD EXD, ALBANY, NY, 12205",18360421,"R"
112574,"21 FAIRFIELD AVENUE","RANDOLPH","NJ",7869,40.8705104060001,-74.5603253199999,74,"21 FAIRFIELD AVENUE, RANDOLPH, NJ, 7869","Match","Exact","21 FAIRFIELD AVE, RANDOLPH, NJ, 07869",60468781,"L"
112575,"21 FELIZ CREEK ROAD","UKIAH","CA",95449,38.969770398,-123.117503637,75,"21 FELIZ CREEK ROAD, UKIAH, CA, 95449","Match","Non_Exact","21 FELIZ CREEK RD, HOPLAND, CA, 95449",67274092,"L"
112576,"21 FIELDWOOD PLACE","NEWNAN","GA",30263,33.3865850670001,-84.8373103599999,76,"21 FIELDWOOD PLACE, NEWNAN, GA, 30263","Match","Exact","21 FIELDWOOD PL, NEWNAN, GA, 30263",9334268,"L"
112577,"21 FIR DRIVE","MANHASSET HILLS","NY",11040,40.7582359030001,-73.670178027,77,"21 FIR DRIVE, MANHASSET HILLS, NY, 11040","Match","Exact","21 FIR DR, MANHASSET HILLS, NY, 11040",147663070,"R"
112578,"21 FIRST ST","PORT JERVIS","NY",12771,41.372892914,-74.694529783,78,"21 FIRST ST, PORT JERVIS, NY, 12771","Match","Exact","21 1ST ST, PORT JERVIS, NY, 12771",124395720,"R"
112579,"21 FLOVERTON ST","ROCHESTER","NY",14610,43.149943432,-77.556001646,79,"21 FLOVERTON ST, ROCHESTER, NY, 14610","Match","Exact","21 FLOVERTON ST, ROCHESTER, NY, 14610",14562655,"L"
112580,"21 FORBES AVE","BURLINGTON","MA",1803,42.509029528,-71.1924553009999,80,"21 FORBES AVE, BURLINGTON, MA, 1803","Match","Exact","21 FORBES AVE, BURLINGTON, MA, 01803",86905688,"L"
112581,"21 FRANK DAVIS ROAD","BRIDGETON","NJ",8302,39.438259638,-75.366518264,81,"21 FRANK DAVIS ROAD, BRIDGETON, NJ, 8302","Match","Exact","21 FRANK DAVIS RD, BRIDGETON, NJ, 08302",174131543,"R"
112582,"21 FREE STREET","MILFORD","MA",1757,42.1500234970001,-71.506752126,82,"21 FREE STREET, MILFORD, MA, 1757","Match","Exact","21 FREE ST, MILFORD, MA, 01757",40039774,"R"
112583,"21 FROWEIN RD","CENTER MORICHES","NY",11934,40.8082099050001,-72.780378227,83,"21 FROWEIN RD, CENTER MORICHES, NY, 11934","Match","Exact","21 FROWEIN RD, CENTER MORICHES, NY, 11934",652701854,"R"
112584,"21 FROWEIN ROAD","CENTER MORICHES","NY",11934,40.8082099050001,-72.780378227,84,"21 FROWEIN ROAD, CENTER MORICHES, NY, 11934","Match","Exact","21 FROWEIN RD, CENTER MORICHES, NY, 11934",652701854,"R"
112585,"21 GAME FARM RD","CATSKILL","NY",12414,42.2217228910001,-73.99009284,85,"21 GAME FARM RD, CATSKILL, NY, 12414","Match","Exact","21 GAME FARM RD, CATSKILL, NY, 12414",35695330,"R"
112586,"21 GARDEN CITY DRIVE","CRANSTON","RI",2910,NA,NA,86,"21 GARDEN CITY DRIVE, CRANSTON, RI, 2910","No_Match",NA,NA,NA,NA
112587,"21 GARDEN CITY DRIVE","CRANSTON","RI",2920,41.7645641500001,-71.4574756489999,87,"21 GARDEN CITY DRIVE, CRANSTON, RI, 2920","Match","Exact","21 GARDEN CITY DR, CRANSTON, RI, 02920",47498915,"R"
112588,"21 GODEN STREET","BELMONT","MA",2478,42.3931358500001,-71.169124455,88,"21 GODEN STREET, BELMONT, MA, 2478","Match","Exact","21 GODEN ST, BELMONT, MA, 02478",86885808,"R"
112589,"21 GORDON AVE","BRIARCLIFF MANOR","NY",10510,41.1641778970001,-73.821232096,89,"21 GORDON AVE, BRIARCLIFF MANOR, NY, 10510","Match","Exact","21 GORDON AVE, BRIARCLIFF MANOR, NY, 10510",139734477,"L"
112590,"21 GOULD STREET","EAST HAMPTON","NY",11937,40.9682147090001,-72.1972425599999,90,"21 GOULD STREET, EAST HAMPTON, NY, 11937","Match","Exact","21 GOULD ST, EAST HAMPTON, NY, 11937",113960904,"R"
112591,"21 GRAMERCY PARK DR APT 516","BRYAN","TX",77802,30.6546788950001,-96.292045408,91,"21 GRAMERCY PARK DR APT 516, BRYAN, TX, 77802","Match","Exact","21 GRAMERCY PARK DR, BRYAN, TX, 77802",640717349,"L"
112592,"21 GRAND ROYALE CT","ALAMO","CA",94507,37.8661614120001,-122.02389038,92,"21 GRAND ROYALE CT, ALAMO, CA, 94507","Match","Exact","21 GRAND ROYALE CT, ALAMO, CA, 94507",650501448,"L"
112593,"21 GRAND ST  APT1","GLOVERSVILLE","NY",12078,43.0550029620001,-74.344275508,93,"21 GRAND ST  APT1, GLOVERSVILLE, NY, 12078","Match","Exact","21 GRAND ST, GLOVERSVILLE, NY, 12078",153637306,"R"
112594,"21 GRAYSTONE CT","SAINT CHARLES","MO",63303,38.7661658580001,-90.540264918,94,"21 GRAYSTONE CT, SAINT CHARLES, MO, 63303","Match","Exact","21 GRAYSTONE CT, SAINT CHARLES, MO, 63303",100036898,"R"
112595,"21 GRE","PROVIDENCE","RI",2906,NA,NA,95,"21 GRE, PROVIDENCE, RI, 2906","No_Match",NA,NA,NA,NA
112596,"21 GREENHALGE STREET","TEWKSBURY","MA",1876,42.576530129,-71.201598777,96,"21 GREENHALGE STREET, TEWKSBURY, MA, 1876","Match","Exact","21 GREENHALGE ST, TEWKSBURY, MA, 01876",86908713,"R"
112597,"21 GRETA DRIVE","RAYVILLE","LA",71269,32.473975554,-91.8008893699999,97,"21 GRETA DRIVE, RAYVILLE, LA, 71269","Match","Exact","21 GRETA DR, RAYVILLE, LA, 71269",71203801,"L"
112598,"21 HAPUA PLACE","WAILUKU","HI",96793,20.8763498800001,-156.502966018,98,"21 HAPUA PLACE, WAILUKU, HI, 96793","Match","Exact","21 HAPUA PL, WAILUKU, HI, 96793",85102454,"R"
112599,"21 HARBOUR ISLE DRIVE WEST UNIT 104","FORT PIERCE","FL",34949,27.4592430370001,-80.3040568879999,99,"21 HARBOUR ISLE DRIVE WEST UNIT 104, FORT PIERCE, FL, 34949","Match","Exact","21 HARBOUR ISLE DR W, FORT PIERCE, FL, 34949",610741037,"R"
112600,"21 HARFORD STREET","CLAREMONT","NH",3743,NA,NA,100,"21 HARFORD STREET, CLAREMONT, NH, 3743","No_Match",NA,NA,NA,NA
112601,"21 HARRISON STREET","SOMERVILLE","MA",2143,42.3818705240001,-71.1091602119999,101,"21 HARRISON STREET, SOMERVILLE, MA, 2143","Match","Exact","21 HARRISON ST, SOMERVILLE, MA, 02143",86868585,"R"
112602,"21 HAVEN COURT","HAINES","AK",99827,59.2450997180001,-135.428954573,102,"21 HAVEN COURT, HAINES, AK, 99827","Match","Exact","21 HAVEN CT, HAINES, AK, 99827",626867749,"L"
112603,"21 HAVEN HILL","STERRETT","AL",35147,33.4907734490001,-86.451837718,103,"21 HAVEN HILL, STERRETT, AL, 35147","Match","Non_Exact","21 HAVEN HILL LN, STERRETT, AL, 35147",82052738,"R"
112604,"21 HEATHER RIDGE","HIGHLAND MILLS","NY",10930,41.366893582,-74.127381967,104,"21 HEATHER RIDGE, HIGHLAND MILLS, NY, 10930","Match","Exact","21 HEATHER RIDGE, HIGHLAND MILLS, NY, 10930",124484611,"L"
112605,"21 HECKAMORE RD","BALA CYNWYD","PA",19004,40.000078773,-75.230852602,105,"21 HECKAMORE RD, BALA CYNWYD, PA, 19004","Match","Exact","21 HECKAMORE RD, BALA CYNWYD, PA, 19004",135130579,"R"
112606,"21 HERRICK COURT","TIFFIN","OH",44883,41.103460275,-83.174519092,106,"21 HERRICK COURT, TIFFIN, OH, 44883","Match","Exact","21 HERRICK CT, TIFFIN, OH, 44883",12967971,"L"
112607,"21 HIGHLAND STREET","SOUTHBOROUGH","MA",1772,42.2675751400001,-71.531047598,107,"21 HIGHLAND STREET, SOUTHBOROUGH, MA, 1772","Match","Exact","21 HIGHLAND ST, SOUTHBOROUGH, MA, 01772",40102565,"L"
112608,"21 HILL TOP LN","MUNCY VALLEY","PA",17758,41.376960877,-76.526799502,108,"21 HILL TOP LN, MUNCY VALLEY, PA, 17758","Match","Non_Exact","21 HILLTOP LN, MUNCY VALLEY, PA, 17758",177164188,"L"
112609,"21 HILLCREST AVENUE","JAMESTOWN","NY",14701,42.1016329130001,-79.2738279279999,109,"21 HILLCREST AVENUE, JAMESTOWN, NY, 14701","Match","Exact","21 HILLCREST AVE, JAMESTOWN, NY, 14701",120751631,"L"
112610,"21 HILLSBOROUGH","NEWPORT BEACH","CA",92660,33.618695878,-117.851162668,110,"21 HILLSBOROUGH, NEWPORT BEACH, CA, 92660","Match","Exact","21 HILLSBOROUGH, NEWPORT BEACH, CA, 92660",144059222,"R"
112611,"21 HILLSIDE DRIVE","HIGHLAND FALLS","NY",10928,41.3737376870001,-73.9714267969999,111,"21 HILLSIDE DRIVE, HIGHLAND FALLS, NY, 10928","Match","Non_Exact","21 HILLSIDE AVE, HIGHLAND FALLS, NY, 10928",124414929,"L"
112612,"21 HILLTOP CIRCLE","MENDHAM","NJ",7945,40.7892498090001,-74.571377206,112,"21 HILLTOP CIRCLE, MENDHAM, NJ, 7945","Match","Exact","21 HILLTOP CIR, MENDHAM, NJ, 07945",60437870,"L"
112613,"21 HINCKLEY PLACE","BROOKLYN","NY",11218,40.6444604330001,-73.9710878879999,113,"21 HINCKLEY PLACE, BROOKLYN, NY, 11218","Match","Exact","21 HINCKLEY PL, BROOKLYN, NY, 11218",59080891,"L"
112614,"21 HINES STREET","MONROEVILLE","AL",36460,NA,NA,114,"21 HINES STREET, MONROEVILLE, AL, 36460","No_Match",NA,NA,NA,NA
112615,"21 HOBBS LN","CLINTON CORNERS","NY",12514,41.849291753,-73.7575739659999,115,"21 HOBBS LN, CLINTON CORNERS, NY, 12514","Match","Exact","21 HOBBS LN, CLINTON CORNERS, NY, 12514",4196657,"L"
112616,"21 HOLBROOK STREET","ROCKLAND","MA",2370,42.138444141,-70.9204834449999,116,"21 HOLBROOK STREET, ROCKLAND, MA, 2370","Match","Exact","21 HOLBROOK ST, ROCKLAND, MA, 02370",87468768,"L"
112617,"21 HOMEFIELD COURT","O FALLON","MO",63366,38.8263342590001,-90.68884945,117,"21 HOMEFIELD COURT, O FALLON, MO, 63366","Match","Exact","21 HOMEFIELD CT, O FALLON, MO, 63366",605531480,"R"
112618,"21 HOMESTEAD ROAD","WOONSOCKET","RI",2895,42.007317298,-71.520243926,118,"21 HOMESTEAD ROAD, WOONSOCKET, RI, 2895","Match","Exact","21 HOMESTEAD RD, WOONSOCKET, RI, 02895",47510895,"L"
112619,"21 HOSPITAL DRIVE","ASHEVILLE","NC",28801,35.5788877740001,-82.5515577689999,119,"21 HOSPITAL DRIVE, ASHEVILLE, NC, 28801","Match","Exact","21 HOSPITAL DR, ASHEVILLE, NC, 28801",639449863,"R"
112620,"21 HUMMINGBIRD CV","JACKSON","TN",38305,35.6887777810001,-88.793857077,120,"21 HUMMINGBIRD CV, JACKSON, TN, 38305","Match","Exact","21 HUMMINGBIRD COVE, JACKSON, TN, 38305",21320546,"L"
112621,"21 HUNTERS LANE","NORWALK","CT",6850,41.1225691980001,-73.443884412,121,"21 HUNTERS LANE, NORWALK, CT, 6850","Match","Exact","21 HUNTERS LN, NORWALK, CT, 06850",3249286,"L"
112622,"21 INDEPENDENCE DR","WHIPPANY","NJ",7981,40.8130709770001,-74.418484736,122,"21 INDEPENDENCE DR, WHIPPANY, NJ, 7981","Match","Exact","21 INDEPENDENCE DR, WHIPPANY, NJ, 07981",60447410,"R"
112623,"21 INDEPENDENCE LANE","EAST MILLINOCKET","ME",4430,45.630478666,-68.5801810299999,123,"21 INDEPENDENCE LANE, EAST MILLINOCKET, ME, 4430","Match","Exact","21 INDEPENDENCE LN, EAST MILLINOCKET, ME, 04430",123621109,"R"
112624,"21 INDIA STREET APT 2105","BROOKLYN","NY",11222,40.7318336390001,-73.959892385,124,"21 INDIA STREET APT 2105, BROOKLYN, NY, 11222","Match","Exact","21 INDIA ST, BROOKLYN, NY, 11222",59075868,"L"
112625,"21 INDIANA AVE","YOUNGSTOWN","OH",44504,41.113204775,-80.641564688,125,"21 INDIANA AVE, YOUNGSTOWN, OH, 44504","Match","Non_Exact","21 INDIANA AVE, YOUNGSTOWN, OH, 44505",64595620,"L"
112626,"21 INGRAHAM BOULEVARD","HEMPSTEAD","NY",11550,40.7083258690001,-73.611360721,126,"21 INGRAHAM BOULEVARD, HEMPSTEAD, NY, 11550","Match","Exact","21 INGRAHAM BLVD, HEMPSTEAD, NY, 11550",147627609,"L"
112627,"21 JACKSON AVE","SCARSDALE","NY",10583,NA,NA,127,"21 JACKSON AVE, SCARSDALE, NY, 10583","No_Match",NA,NA,NA,NA
112628,"21 JASMINE LANE","WESTWEGO","LA",70094,29.9464167570001,-90.241173838,128,"21 JASMINE LANE, WESTWEGO, LA, 70094","Match","Exact","21 JASMINE LN, WESTWEGO, LA, 70094",631871072,"R"
112629,"21 JAY ST","GENEVA","NY",14456,42.8537082070001,-76.982610724,129,"21 JAY ST, GENEVA, NY, 14456","Match","Exact","21 JAY ST, GENEVA, NY, 14456",639396659,"R"
112630,"21 JUDGES WAY","WESTPORT","MA",2790,41.54776416,-71.097066474,130,"21 JUDGES WAY, WESTPORT, MA, 2790","Match","Exact","21 JUDGES WAY, WESTPORT, MA, 02790",46778751,"R"
112631,"21 JUNE RD","KENMORE","NY",14217,42.977952714,-78.873081172,131,"21 JUNE RD, KENMORE, NY, 14217","Match","Exact","21 JUNE RD, KENMORE, NY, 14217",48287362,"R"
112632,"21 KATY LN","ELIOT","ME",3903,43.1403578600001,-70.75142184,132,"21 KATY LN, ELIOT, ME, 3903","Match","Exact","21 KATY LN, ELIOT, ME, 03903",627026937,"L"
112633,"21 KENNEY CT","NEWBURGH","NY",12550,41.495605002,-74.026618546,133,"21 KENNEY CT, NEWBURGH, NY, 12550","Match","Non_Exact","21 KENNY CT, NEWBURGH, NY, 12550",124450118,"R"
112634,"21 KENSINGTON ROAD","SCARSDALE","NY",10583,41.0029947620001,-73.7886500929999,134,"21 KENSINGTON ROAD, SCARSDALE, NY, 10583","Match","Exact","21 KENSINGTON RD, SCARSDALE, NY, 10583",139740252,"L"
112635,"21 KEYSTONE DR","SAVANNAH","GA",31406,31.9859066280001,-81.1236184209999,135,"21 KEYSTONE DR, SAVANNAH, GA, 31406","Match","Exact","21 KEYSTONE DR, SAVANNAH, GA, 31406",6174245,"R"
112636,"21 KILMER ROAD  11245","EDISON","NJ",8906,NA,NA,136,"21 KILMER ROAD  11245, EDISON, NJ, 8906","No_Match",NA,NA,NA,NA
112637,"21 KILMER ROAD 11245","EDISON","NJ",8906,NA,NA,137,"21 KILMER ROAD 11245, EDISON, NJ, 8906","No_Match",NA,NA,NA,NA
112638,"21 KIMBERLY LANE","RANDOLPH","MA",2368,42.1384840470001,-71.036755354,138,"21 KIMBERLY LANE, RANDOLPH, MA, 2368","Match","Exact","21 KIMBERLY LN, RANDOLPH, MA, 02368",87271759,"L"
112639,"21 KINGLET DRIVE SOUTH","CRANBURY","NJ",8512,40.337802643,-74.559375755,139,"21 KINGLET DRIVE SOUTH, CRANBURY, NJ, 8512","Match","Exact","21 KINGLET DR S, CRANBURY, NJ, 08512",60363283,"R"
112640,"21 KINGSLEY PL","STATEN ISLAND","NY",10301,40.6359898260001,-74.088866735,140,"21 KINGSLEY PL, STATEN ISLAND, NY, 10301","Match","Exact","21 KINGSLEY PL, STATEN ISLAND, NY, 10301",59878686,"L"
112641,"21 KLAMERT LANE","JOLIET","MT",59041,45.544798212,-108.844275411,141,"21 KLAMERT LANE, JOLIET, MT, 59041","Match","Exact","21 KLAMERT LN, JOLIET, MT, 59041",617065055,"L"
112642,"21 KNAUTH RD","ASHEVILLE","NC",28805,35.588026658,-82.491335431,142,"21 KNAUTH RD, ASHEVILLE, NC, 28805","Match","Exact","21 KNAUTH RD, ASHEVILLE, NC, 28805",36879462,"R"
112643,"21 KNOLLWOOD LANE","PUTNAM","CT",6260,41.9247645180001,-71.8954666989999,143,"21 KNOLLWOOD LANE, PUTNAM, CT, 6260","Match","Non_Exact","21 KNOLL WOOD LN, PUTNAM, CT, 06260",56459184,"L"
112644,"21 KRISTIN DRIVE UNIT 529","SCHAUMBURG","IL",60195,42.0580505770001,-88.080216502,144,"21 KRISTIN DRIVE UNIT 529, SCHAUMBURG, IL, 60195","Match","Exact","21 KRISTIN DR, SCHAUMBURG, IL, 60195",112360762,"R"
112645,"21 LA BUENA VIDA DRIVE","ARANSAS PASS","TX",78336,27.953320972,-97.105651048,145,"21 LA BUENA VIDA DRIVE, ARANSAS PASS, TX, 78336","Match","Exact","21 LA BUENA VIDA DR, ARANSAS PASS, TX, 78336",651495225,"L"
112646,"21 LADERA ROAD","SANTA FE","NM",87508,35.531582498,-105.963874912,146,"21 LADERA ROAD, SANTA FE, NM, 87508","Match","Exact","21 LADERA RD, SANTA FE, NM, 87508",169399227,"L"
112647,"21 LAKE ROAD","SHORT HILLS","NJ",7078,40.732389352,-74.321795857,147,"21 LAKE ROAD, SHORT HILLS, NJ, 7078","Match","Exact","21 LAKE RD, SHORT HILLS, NJ, 07078",63495627,"L"
112648,"21 LAKE STREET UNIT 4B","WHITE PLAINS","NY",10603,41.037149395,-73.7616728629999,148,"21 LAKE STREET UNIT 4B, WHITE PLAINS, NY, 10603","Match","Exact","21 LAKE ST, WHITE PLAINS, NY, 10603",139741347,"L"
112649,"21 LANGSTON BLVD","HAMPTON","VA",23666,37.029219659,-76.403247257,149,"21 LANGSTON BLVD, HAMPTON, VA, 23666","Match","Exact","21 LANGSTON BLVD, HAMPTON, VA, 23666",103811060,"L"
112650,"21 LAZY GLEN","SNOWMASS","CO",81654,39.3417658920001,-107.000201744,150,"21 LAZY GLEN, SNOWMASS, CO, 81654","Match","Exact","21 LAZY GLEN, SNOWMASS, CO, 81654",650598445,"R"
112651,"21 LEEWAY","BALTIMORE","MD",21222,39.261893017,-76.519788159,151,"21 LEEWAY, BALTIMORE, MD, 21222","Match","Exact","21 LEEWAY, BALTIMORE, MD, 21222",191488438,"R"
112652,"21 LENOX ROAD","ROCKAWAY TOWNSHIP","NJ",7866,40.9044567550001,-74.533122298,152,"21 LENOX ROAD, ROCKAWAY TOWNSHIP, NJ, 7866","Match","Non_Exact","21 LENOX RD, ROCKAWAY, NJ, 07866",629449629,"R"
112653,"21 LEONARD ST","GLOUCESTER","MA",1930,42.6544457270001,-70.677877909,153,"21 LEONARD ST, GLOUCESTER, MA, 1930","Match","Exact","21 LEONARD ST, GLOUCESTER, MA, 01930",86632149,"R"
112654,"21 LEUVINE ST","NORWALK","CT",6850,41.118791317,-73.4256348979999,154,"21 LEUVINE ST, NORWALK, CT, 6850","Match","Exact","21 LEUVINE ST, NORWALK, CT, 06850",3249411,"R"
112655,"21 LEWIS AVE   PO BOX 368","BELLMAWR","NJ",8031,39.8667892890001,-75.0786024769999,155,"21 LEWIS AVE   PO BOX 368, BELLMAWR, NJ, 8031","Match","Exact","21 LEWIS AVE, BELLMAWR, NJ, 08031",134351574,"R"
112656,"21 LEXINGTON DR","EAST WALPOLE","MA",2032,42.1644415260001,-71.227480266,156,"21 LEXINGTON DR, EAST WALPOLE, MA, 2032","Match","Exact","21 LEXINGTON DR, EAST WALPOLE, MA, 02032",648263910,"R"
112657,"21 LIANNE DR","ROCHESTER","NY",14626,43.220311816,-77.7366916089999,157,"21 LIANNE DR, ROCHESTER, NY, 14626","Match","Exact","21 LIANNE DR, ROCHESTER, NY, 14626",646918482,"R"
112658,"21 LIBERTY WAY","CLIFTON PARK","NY",12065,42.830161807,-73.779134035,158,"21 LIBERTY WAY, CLIFTON PARK, NY, 12065","Match","Exact","21 LIBERTY WAY, CLIFTON PARK, NY, 12065",18812285,"L"
112659,"21 LOCUST AVE STE 2A","NEW CANAAN","CT",6840,41.1489139650001,-73.4923193129999,159,"21 LOCUST AVE STE 2A, NEW CANAAN, CT, 6840","Match","Exact","21 LOCUST AVE, NEW CANAAN, CT, 06840",3258497,"R"
112660,"21 LOCUST AVE SUITE 2D","NEW CANAAN","CT",6840,41.1489139650001,-73.4923193129999,160,"21 LOCUST AVE SUITE 2D, NEW CANAAN, CT, 6840","Match","Exact","21 LOCUST AVE, NEW CANAAN, CT, 06840",3258497,"R"
112661,"21 LOUIE CREEK DRIVE","CURLEW","WA",99118,NA,NA,161,"21 LOUIE CREEK DRIVE, CURLEW, WA, 99118","No_Match",NA,NA,NA,NA
112662,"21 LYNDE STREET","PROVIDENCE","RI",2908,41.847132893,-71.452147796,162,"21 LYNDE STREET, PROVIDENCE, RI, 2908","Match","Exact","21 LYNDE ST, PROVIDENCE, RI, 02908",47488629,"L"
112663,"21 LYONS ROAD","STAFFORD SPRINGS","CT",6076,41.994332823,-72.258747049,163,"21 LYONS ROAD, STAFFORD SPRINGS, CT, 6076","Match","Exact","21 LYONS RD, STAFFORD SPGS, CT, 06076",57000029,"R"
112664,"21 MACERA FARM ROAD","JOHNSTON","RI",2919,41.801110764,-71.507555485,164,"21 MACERA FARM ROAD, JOHNSTON, RI, 2919","Match","Exact","21 MACERA FARM RD, JOHNSTON, RI, 02919",47535266,"L"
112665,"21 MADBURY ROAD","DURHAM","NH",3824,43.1366755970001,-70.9256690719999,165,"21 MADBURY ROAD, DURHAM, NH, 3824","Match","Exact","21 MADBURY RD, DURHAM, NH, 03824",117805812,"L"
112666,"21 MAIN ST SE    PO BOX 337","BOWBELLS","ND",58721,NA,NA,166,"21 MAIN ST SE    PO BOX 337, BOWBELLS, ND, 58721","No_Match",NA,NA,NA,NA
112667,"21 MAIN ST","TAUNTON","MA",2780,41.9017493900001,-71.092075715,167,"21 MAIN ST, TAUNTON, MA, 2780","Match","Exact","21 MAIN ST, TAUNTON, MA, 02780",46760831,"L"
112668,"21 MAIN STREET 2ND FLOOR","SPARTA","NJ",7871,41.0374489230001,-74.635177988,168,"21 MAIN STREET 2ND FLOOR, SPARTA, NJ, 7871","Match","Exact","21 MAIN ST, SPARTA, NJ, 07871",641811541,"L"
112669,"21 MAIN STREET SUITE 200","HACKENSACK","NJ",7601,40.8787541090001,-74.0444876299999,169,"21 MAIN STREET SUITE 200, HACKENSACK, NJ, 7601","Match","Exact","21 MAIN ST, HACKENSACK, NJ, 07601",64386408,"L"
112670,"21 MAPLE AVE","MENDHAM","NJ",7945,40.779938132,-74.609979148,170,"21 MAPLE AVE, MENDHAM, NJ, 7945","Match","Exact","21 MAPLE AVE, MENDHAM, NJ, 07945",60437247,"L"
112671,"21 MAPLE STREET","LINCOLN PARK","NJ",7035,40.913415806,-74.2714365749999,171,"21 MAPLE STREET, LINCOLN PARK, NJ, 7035","Match","Exact","21 MAPLE ST, LINCOLN PARK, NJ, 07035",60429472,"L"
112672,"21 MAPLE STREET","WEST ORANGE","NJ",7052,40.7935232500001,-74.2283473539999,172,"21 MAPLE STREET, WEST ORANGE, NJ, 7052","Match","Exact","21 MAPLE ST, WEST ORANGE, NJ, 07052",63449565,"R"
112673,"21 MARIAN COURT 2","SAN RAFAEL","CA",94901,37.969277419,-122.511112183,173,"21 MARIAN COURT 2, SAN RAFAEL, CA, 94901","Match","Non_Exact","21 MARINA COURT DR, SAN RAFAEL, CA, 94901",192767126,"L"
112674,"21 MARINER GREEN DRIVE","CORTE MADERA","CA",94925,37.9188394170001,-122.503864873,174,"21 MARINER GREEN DRIVE, CORTE MADERA, CA, 94925","Match","Exact","21 MARINER GREEN DR, CORTE MADERA, CA, 94925",192768430,"L"
112675,"21 MATTOON ST","AMHERST","MA",1002,42.3785345200001,-72.51316401,175,"21 MATTOON ST, AMHERST, MA, 1002","Match","Non_Exact","21 MATOON ST, AMHERST, MA, 01002",39880845,"R"
112676,"21 MAXIE COURT STE 2","STATEN ISLAND","NY",10304,40.6216846340001,-74.085858069,176,"21 MAXIE COURT STE 2, STATEN ISLAND, NY, 10304","Match","Exact","21 MAXIE CT, STATEN ISLAND, NY, 10304",624998699,"L"
112677,"21 MCALPIN AVENUE","ERLANGER","KY",41018,39.014169387,-84.605546944,177,"21 MCALPIN AVENUE, ERLANGER, KY, 41018","Match","Exact","21 MCALPIN AVE, ERLANGER, KY, 41018",103873272,"L"
112678,"21 MCINTOSH RD","HILTON HEAD ISLAND","SC",29926,32.1878237620001,-80.77663695,178,"21 MCINTOSH RD, HILTON HEAD ISLAND, SC, 29926","Match","Exact","21 MCINTOSH RD, HILTON HEAD ISLAND, SC, 29926",87624742,"R"
112679,"21 MEETING PLACE CIRCLE","BOXFORD","MA",1921,42.6936525450001,-70.999415902,179,"21 MEETING PLACE CIRCLE, BOXFORD, MA, 1921","Match","Exact","21 MEETING PLACE CIR, BOXFORD, MA, 01921",86705177,"R"
112680,"21 MIDDLE STREE PO BOX 248","GALENA","OH",43021,40.215491555,-82.880100488,180,"21 MIDDLE STREE PO BOX 248, GALENA, OH, 43021","Match","Non_Exact","21 MIDDLE ST, GALENA, OH, 43021",24603443,"R"
112681,"21 MIDDLE TURNPIKE EAST","MANCHESTER","CT",6040,41.7834562690001,-72.5222624689999,181,"21 MIDDLE TURNPIKE EAST, MANCHESTER, CT, 6040","Match","Exact","21 MIDDLE TPKE E, MANCHESTER, CT, 06040",3492272,"L"
112682,"21 MILFORD STREET","HAMBURG","NY",14075,42.7235074370001,-78.8459964149999,182,"21 MILFORD STREET, HAMBURG, NY, 14075","Match","Exact","21 MILFORD ST, HAMBURG, NY, 14075",48309797,"R"
112683,"21 MINERVA DRIVE","YONKERS","NY",10710,40.96257045,-73.837771857,183,"21 MINERVA DRIVE, YONKERS, NY, 10710","Match","Exact","21 MINERVA DR, YONKERS, NY, 10710",139734335,"L"
112684,"21 MOHAWK TRAIL PMB 127","GREENFIELD","MA",1301,42.5866010600001,-72.6102402769999,184,"21 MOHAWK TRAIL PMB 127, GREENFIELD, MA, 1301","Match","Exact","21 MOHAWK TRL, GREENFIELD, MA, 01301",39937388,"L"
112685,"21 MOLTON AVENUE","SAN CARLOS","CA",94070,37.5008220300001,-122.277451347,185,"21 MOLTON AVENUE, SAN CARLOS, CA, 94070","Match","Exact","21 MOLTON AVE, SAN CARLOS, CA, 94070",192382294,"L"
112686,"21 MONTAGUE ROAD","NEWARK","DE",19713,39.64339076,-75.775659858,186,"21 MONTAGUE ROAD, NEWARK, DE, 19713","Match","Exact","21 MONTAGUE RD, NEWARK, DE, 19713",187285752,"L"
112687,"21 MONTCLAIR AVENUE","WEST ROXBURY","MA",2132,42.2900359980001,-71.142392419,187,"21 MONTCLAIR AVENUE, WEST ROXBURY, MA, 2132","Match","Exact","21 MONTCLAIR AVE, WEST ROXBURY, MA, 02132",85702899,"R"
112688,"21 MONTVALE STREET","ROSLINDALE","MA",2131,42.285299395,-71.145292367,188,"21 MONTVALE STREET, ROSLINDALE, MA, 2131","Match","Exact","21 MONTVALE ST, ROSLINDALE, MA, 02131",85702893,"R"
112689,"21 MORGAN STREET","LINCOLN","ME",4457,45.368391564,-68.497913668,189,"21 MORGAN STREET, LINCOLN, ME, 4457","Match","Exact","21 MORGAN ST, LINCOLN, ME, 04457",123635042,"R"
112690,"21 MORRIS LANE","SCARSDALE","NY",10583,40.9910223190001,-73.78209677,190,"21 MORRIS LANE, SCARSDALE, NY, 10583","Match","Exact","21 MORRIS LN, SCARSDALE, NY, 10583",139740348,"L"
112691,"21 MURRAY ST SE","KENTWOOD","MI",49508,42.8850230360001,-85.664047044,191,"21 MURRAY ST SE, KENTWOOD, MI, 49508","Match","Non_Exact","21 MURRAY ST SE, KENTWOOD, MI, 49548",642603550,"L"
112692,"21 MYRTLE STREET","STONEHAM","MA",2180,42.483638581,-71.091509101,192,"21 MYRTLE STREET, STONEHAM, MA, 2180","Match","Exact","21 MYRTLE ST, STONEHAM, MA, 02180",86856559,"R"
112693,"21 N ARCH ST","MILTON","PA",17847,NA,NA,193,"21 N ARCH ST, MILTON, PA, 17847","Tie",NA,NA,NA,NA
112694,"21 N FISHER PARK WY","EAGLE","ID",83616,43.695736541,-116.396291976,194,"21 N FISHER PARK WY, EAGLE, ID, 83616","Match","Exact","21 N FISHER PARK WAY, EAGLE, ID, 83616",641544024,"L"
112695,"21 N HERRICK ST","GOTEBO","OK",73041,35.069875848,-98.874823625,195,"21 N HERRICK ST, GOTEBO, OK, 73041","Match","Exact","21 HERRICK ST, GOTEBO, OK, 73041",125595238,"R"
112696,"21 N LAST CHANCE GULCH- SUITE 105","HELENA","MT",59601,NA,NA,196,"21 N LAST CHANCE GULCH- SUITE 105, HELENA, MT, 59601","No_Match",NA,NA,NA,NA
112697,"21 N MONTFORD AVE","BALTIMORE","MD",21224,39.2922473250001,-76.583328952,197,"21 N MONTFORD AVE, BALTIMORE, MD, 21224","Match","Exact","21 N MONTFORD AVE, BALTIMORE, MD, 21224",206424765,"R"
112698,"21 N PAYNE STREET","NEW ULM","MN",56073,44.3095359440001,-94.4675327959999,198,"21 N PAYNE STREET, NEW ULM, MN, 56073","Match","Exact","21 N PAYNE ST, NEW ULM, MN, 56073",28568951,"L"
112699,"21 NAPEAGUE HARBOR ROAD","AMAGANSETT","NY",11963,41.0043143390001,-72.032962374,199,"21 NAPEAGUE HARBOR ROAD, AMAGANSETT, NY, 11963","Match","Non_Exact","21 NAPEAGUE HARBOR RD, AMAGANSETT, NY, 11930",114031726,"L"
112700,"21 NECK ROAD","CHINA LAKE","ME",4358,44.4779865530001,-69.5185497259999,200,"21 NECK ROAD, CHINA LAKE, ME, 4358","Match","Non_Exact","21 NECK RD, CHINA, ME, 04358",75482725,"L"
112701,"21 NEVADA STREET  NO 3","WINTHROP","MA",2152,42.375168547,-70.97220141,201,"21 NEVADA STREET  NO 3, WINTHROP, MA, 2152","Match","Non_Exact","21 NEVADA ST, WINTHROP, MA, 02152",85715013,"R"
112702,"21 NEWINS ST","CENTER MORICHES","NY",11934,40.8012923320001,-72.792569031,202,"21 NEWINS ST, CENTER MORICHES, NY, 11934","Match","Exact","21 NEWINS ST, CENTER MORICHES, NY, 11934",642833689,"R"
112703,"21 NEWTON AVENUE","LYNBROOK","NY",11563,40.6543438580001,-73.661326813,203,"21 NEWTON AVENUE, LYNBROOK, NY, 11563","Match","Exact","21 NEWTON AVE, LYNBROOK, NY, 11563",147675632,"R"
112704,"21 NOB HILL CIRCLE","BRIDGEPORT","CT",6610,41.208805517,-73.173966916,204,"21 NOB HILL CIRCLE, BRIDGEPORT, CT, 6610","Match","Exact","21 NOB HILL CIR, BRIDGEPORT, CT, 06610",3224892,"L"
112705,"21 NORFOLK ROAD","COHASSET","MA",2025,42.2376091080001,-70.806030876,205,"21 NORFOLK ROAD, COHASSET, MA, 2025","Match","Exact","21 NORFOLK RD, COHASSET, MA, 02025",87257980,"L"
112706,"21 NORMAL RD","FITCHBURG","MA",1420,42.5871135190001,-71.783409546,206,"21 NORMAL RD, FITCHBURG, MA, 1420","Match","Exact","21 NORMAL RD, FITCHBURG, MA, 01420",40028448,"R"
112707,"21 NORTH AUSTIN","CHICAGO","IL",60644,41.880853417,-87.774669968,207,"21 NORTH AUSTIN, CHICAGO, IL, 60644","Match","Non_Exact","21 N AUSTIN BLVD, CHICAGO, IL, 60644",641756898,"R"
112708,"21 NORTH BUCHANAN AVENUE","WENATCHEE","WA",98801,47.4241166210001,-120.316731367,208,"21 NORTH BUCHANAN AVENUE, WENATCHEE, WA, 98801","Match","Exact","21 N BUCHANAN AVE, WENATCHEE, WA, 98801",156974471,"L"
112709,"21 NORTH DRIVE","TABERNACLE","NJ",8088,NA,NA,209,"21 NORTH DRIVE, TABERNACLE, NJ, 8088","No_Match",NA,NA,NA,NA
112710,"21 NORTH ST","MIDDLETOWN","NY",10940,41.445753396,-74.419784186,210,"21 NORTH ST, MIDDLETOWN, NY, 10940","Match","Exact","21 NORTH ST, MIDDLETOWN, NY, 10940",124389283,"R"
112711,"21 NORTH STREET","WOODSTOCK","IL",60098,42.319257314,-88.447935398,211,"21 NORTH STREET, WOODSTOCK, IL, 60098","Match","Exact","21 NORTH ST, WOODSTOCK, IL, 60098",633552681,"L"
112712,"21 NW 1ST AVENUE ROOM 1208","DANIA BEACH","FL",33004,NA,NA,212,"21 NW 1ST AVENUE ROOM 1208, DANIA BEACH, FL, 33004","Tie",NA,NA,NA,NA
112713,"21 NW 1ST AVENUE","DANIA BEACH","FL",33004,NA,NA,213,"21 NW 1ST AVENUE, DANIA BEACH, FL, 33004","Tie",NA,NA,NA,NA
112714,"21 OAK STREET SUITE 208","HARTFORD","CT",6117,NA,NA,214,"21 OAK STREET SUITE 208, HARTFORD, CT, 6117","Tie",NA,NA,NA,NA
112715,"21 OAK STREET","AUBURN","NY",13021,NA,NA,215,"21 OAK STREET, AUBURN, NY, 13021","No_Match",NA,NA,NA,NA
112716,"21 OAKLAND AVENUE","QUINCY","MA",2170,42.260087221,-71.01512996,216,"21 OAKLAND AVENUE, QUINCY, MA, 2170","Match","Exact","21 OAKLAND AVE, QUINCY, MA, 02170",87249338,"R"
112717,"21 OAKMAN STREET","ROCHESTER","NY",14605,43.1709398360001,-77.616234676,217,"21 OAKMAN STREET, ROCHESTER, NY, 14605","Match","Exact","21 OAKMAN ST, ROCHESTER, NY, 14605",14537968,"R"
112718,"21 OLD FARM WAY","NEWBURY","MA",1951,42.786895444,-70.857387648,218,"21 OLD FARM WAY, NEWBURY, MA, 1951","Match","Exact","21 OLD FARM WAY, NEWBURY, MA, 01951",86679065,"L"
112719,"21 OLD FORT ROAD","CAPE ELIZABETH","ME",4107,43.6215107940001,-70.219983811,219,"21 OLD FORT ROAD, CAPE ELIZABETH, ME, 4107","Match","Exact","21 OLD FORT RD, CAPE ELIZABETH, ME, 04107",78034014,"L"
112720,"21 ORBIT DRIVE","STONY BROOK","NY",11790,40.881028298,-73.1222236249999,220,"21 ORBIT DRIVE, STONY BROOK, NY, 11790","Match","Exact","21 ORBIT DR, STONY BROOK, NY, 11790",113988184,"L"
112721,"21 OXFORD DRIVE","CORAOPOLIS","PA",15108,40.4776267880001,-80.132816383,221,"21 OXFORD DRIVE, CORAOPOLIS, PA, 15108","Match","Exact","21 OXFORD DR, CORAOPOLIS, PA, 15108",51613715,"L"
112722,"21 OXFORD PARK","REVERE","MA",2151,42.417102287,-71.005592389,222,"21 OXFORD PARK, REVERE, MA, 2151","Match","Exact","21 OXFORD PARK, REVERE, MA, 02151",85707967,"L"
112723,"21 OXFORD ROAD","WHITE PLAINS","NY",10605,41.0154261320001,-73.7452339449999,223,"21 OXFORD ROAD, WHITE PLAINS, NY, 10605","Match","Exact","21 OXFORD RD, WHITE PLAINS, NY, 10605",139843946,"R"
112724,"21 OYSTER BAY RD APT G","ABSECON","NJ",8201,39.4169666220001,-74.511781089,224,"21 OYSTER BAY RD APT G, ABSECON, NJ, 8201","Match","Non_Exact","21 OYSTER BAY, ABSECON, NJ, 08201",624203509,"L"
112725,"21 PADDY CREEK ROAD","KENNEBUNKPORT","ME",4046,43.366367333,-70.44179666,225,"21 PADDY CREEK ROAD, KENNEBUNKPORT, ME, 4046","Match","Exact","21 PADDY CREEK RD, KENNEBUNKPORT, ME, 04046",92772472,"L"
112726,"21 PALMER DRIVE","MOORESTOWN","NJ",8057,39.987050492,-74.9034901749999,226,"21 PALMER DRIVE, MOORESTOWN, NJ, 8057","Match","Exact","21 PALMER DR, MOORESTOWN, NJ, 08057",134069463,"R"
112727,"21 PALMER LN","OXFORD","CT",6478,41.3698064750001,-73.1466698839999,227,"21 PALMER LN, OXFORD, CT, 6478","Match","Non_Exact","21 PALMER RD, OXFORD, CT, 06478",3696375,"L"
112728,"21 PAM CT","RIDGELEY","WV",26753,39.5572934520001,-78.78902828,228,"21 PAM CT, RIDGELEY, WV, 26753","Match","Exact","21 PAM CT, RIDGELEY, WV, 26753",611611095,"R"
112729,"21 PARK ACRE ROAD","PITTSFORD","NY",14534,43.064987311,-77.581273094,229,"21 PARK ACRE ROAD, PITTSFORD, NY, 14534","Match","Exact","21 PARK ACRE RD, PITTSFORD, NY, 14534",14544491,"R"
112730,"21 PARK ROAD","HAMDEN","CT",6517,41.3296011840001,-72.899656904,230,"21 PARK ROAD, HAMDEN, CT, 6517","Match","Exact","21 PARK RD, HAMDEN, CT, 06517",3758521,"R"
112731,"21 PARK ST","HYDE PARK","MA",2136,42.263467135,-71.120283066,231,"21 PARK ST, HYDE PARK, MA, 2136","Match","Exact","21 PARK ST, HYDE PARK, MA, 02136",85729198,"R"
112732,"21 PARK STREET","STOCKBRIDGE","MA",1262,42.2792540140001,-73.31166615,232,"21 PARK STREET, STOCKBRIDGE, MA, 1262","Match","Exact","21 PARK ST, STOCKBRIDGE, MA, 01262",3925231,"R"
112733,"21 PARKSIDE DR","GREENVILLE","SC",29609,34.8770475960001,-82.390417552,233,"21 PARKSIDE DR, GREENVILLE, SC, 29609","Match","Exact","21 PARKSIDE DR, GREENVILLE, SC, 29609",38353739,"L"
112734,"21 PARKVIEW ROAD","CRANBURY","NJ",8512,40.295481651,-74.5419125989999,234,"21 PARKVIEW ROAD, CRANBURY, NJ, 8512","Match","Exact","21 PARKVIEW RD, CRANBURY, NJ, 08512",60290152,"R"
112735,"21 PARTRIDGE DRIVE","EXETER","RI",2822,41.5683024680001,-71.538799927,235,"21 PARTRIDGE DRIVE, EXETER, RI, 2822","Match","Exact","21 PARTRIDGE DR, EXETER, RI, 02822",58901274,"L"
112736,"21 PASSAIC STREET","HACKENSACK","NJ",7601,40.8893534590001,-74.0395447179999,236,"21 PASSAIC STREET, HACKENSACK, NJ, 7601","Match","Non_Exact","21 E PASSAIC ST, HACKENSACK, NJ, 07601",64386244,"R"
112737,"21 PEARL ST","FORESTVILLE","NY",14062,NA,NA,237,"21 PEARL ST, FORESTVILLE, NY, 14062","No_Match",NA,NA,NA,NA
112738,"21 PECAN GROVE CIRCLE","LUCAS","TX",75002,33.113016649,-96.590324271,238,"21 PECAN GROVE CIRCLE, LUCAS, TX, 75002","Match","Exact","21 PECAN GROVE CIR, LUCAS, TX, 75002",123567186,"L"
112739,"21 PENISTON AVE","EAST HANOVER","NJ",7936,40.827599111,-74.35356568,239,"21 PENISTON AVE, EAST HANOVER, NJ, 7936","Match","Exact","21 PENISTON AVE, EAST HANOVER, NJ, 07936",60448584,"R"
112740,"21 PEZZENTE LN","EAST HARTFORD","CT",6108,41.7918086440001,-72.5953951559999,240,"21 PEZZENTE LN, EAST HARTFORD, CT, 6108","Match","Exact","21 PEZZENTE LN, EAST HARTFORD, CT, 06108",3521654,"L"
112741,"21 PINECREST DRIVE","BREVARD","NC",28712,35.183713434,-82.7651430289999,241,"21 PINECREST DRIVE, BREVARD, NC, 28712","Match","Exact","21 PINECREST DR, BREVARD, NC, 28712",615345483,"L"
112742,"21 PLAZA VALENZA","LAKE ELSINORE","CA",92532,33.6754817680001,-117.280591213,242,"21 PLAZA VALENZA, LAKE ELSINORE, CA, 92532","Match","Non_Exact","21 PLZ VALENZA, LAKE ELSINORE, CA, 92532",651006704,"L"
112743,"21 PLEASANT ST SUITE 248","NEWBURYPORT","MA",1950,42.810159819,-70.8710450889999,243,"21 PLEASANT ST SUITE 248, NEWBURYPORT, MA, 1950","Match","Exact","21 PLEASANT ST, NEWBURYPORT, MA, 01950",86686918,"R"
112744,"21 PLEASANT STREET","CARVER","MA",2330,41.9393330390001,-70.789126715,244,"21 PLEASANT STREET, CARVER, MA, 2330","Match","Exact","21 PLEASANT ST, CARVER, MA, 02330",642660081,"L"
112745,"21 POCO LANE","OAKLEY","CA",94561,37.995531891,-121.742023173,245,"21 POCO LANE, OAKLEY, CA, 94561","Match","Exact","21 POCO LN, OAKLEY, CA, 94561",192098618,"L"
112746,"21 POINT OF VIEW ARCH","PORTSMOUTH","VA",23703,36.860806853,-76.3576638009999,246,"21 POINT OF VIEW ARCH, PORTSMOUTH, VA, 23703","Match","Exact","21 PT OF VIEW ARCH, PORTSMOUTH, VA, 23703",122197089,"R"
112747,"21 POLLUX CIR E","PORTSMOUTH","VA",23701,36.8227837370001,-76.367136909,247,"21 POLLUX CIR E, PORTSMOUTH, VA, 23701","Match","Exact","21 POLLUX CIR E, PORTSMOUTH, VA, 23701",122191535,"L"
112748,"21 POND VIEW LANE","PENFIELD","NY",14526,43.1440551850001,-77.4504401089999,248,"21 POND VIEW LANE, PENFIELD, NY, 14526","Match","Exact","21 POND VIEW LN, PENFIELD, NY, 14526",14569725,"R"
112749,"21 POWDER HORN LANE","REHOBOTH BEACH","DE",19971,38.7365967330001,-75.132982732,249,"21 POWDER HORN LANE, REHOBOTH BEACH, DE, 19971","Match","Exact","21 POWDER HORN LN, REHOBOTH BCH, DE, 19971",106087867,"L"
112750,"21 PRESTIGE CIRCLE  STE-100","ALLEN","TX",75002,33.0911462620001,-96.6733480189999,250,"21 PRESTIGE CIRCLE  STE-100, ALLEN, TX, 75002","Match","Exact","21 PRESTIGE CIR, ALLEN, TX, 75002",123501439,"L"
112751,"21 PROSPECT AVENUE","NIANTIC","CT",6357,41.315312385,-72.205269083,251,"21 PROSPECT AVENUE, NIANTIC, CT, 6357","Match","Exact","21 PROSPECT AVE, NIANTIC, CT, 06357",56843972,"R"
112752,"21 RED GROUND ROAD","OLD WESTBURY","NY",11568,40.789311535,-73.614730003,252,"21 RED GROUND ROAD, OLD WESTBURY, NY, 11568","Match","Exact","21 RED GROUND RD, OLD WESTBURY, NY, 11568",147623394,"R"
112753,"21 REDWOOD DR","PHENIX CITY","AL",36869,32.3863543030001,-85.040370083,253,"21 REDWOOD DR, PHENIX CITY, AL, 36869","Match","Exact","21 REDWOOD DR, PHENIX CITY, AL, 36869",633369382,"R"
112754,"21 REID ST","SOUTH BOUND BROOK","NJ",8880,40.547937075,-74.521812961,254,"21 REID ST, SOUTH BOUND BROOK, NJ, 8880","Match","Exact","21 REID ST, S BOUND BROOK, NJ, 08880",623780645,"L"
112755,"21 RETROP RD","NATICK","MA",1760,42.286065513,-71.3299521559999,255,"21 RETROP RD, NATICK, MA, 1760","Match","Exact","21 RETROP RD, NATICK, MA, 01760",86854065,"R"
112756,"21 REVERE DR","S BARRINGTON","IL",60010,42.0868512370001,-88.167492725,256,"21 REVERE DR, S BARRINGTON, IL, 60010","Match","Exact","21 REVERE DR, S BARRINGTON, IL, 60010",111687234,"R"
112757,"21 REVERE DRIVE","TINTON FALLS","NJ",7753,40.248958482,-74.0862249159999,257,"21 REVERE DRIVE, TINTON FALLS, NJ, 7753","Match","Exact","21 REVERE DR, TINTON FALLS, NJ, 07753",90488121,"R"
112758,"21 RICHARD CIRCLE","WOBURN","MA",1801,42.5056105290001,-71.123637776,258,"21 RICHARD CIRCLE, WOBURN, MA, 1801","Match","Exact","21 RICHARD CIR, WOBURN, MA, 01801",86917647,"R"
112759,"21 RICHARDSON AVE A","EATONTOWN","NJ",7724,40.29613585,-74.061187955,259,"21 RICHARDSON AVE A, EATONTOWN, NJ, 7724","Match","Exact","21 RICHARDSON AVE, EATONTOWN, NJ, 07724",90454670,"R"
112760,"21 RICHEY PLACE","TRENTON","NJ",8618,40.225786036,-74.778944902,260,"21 RICHEY PLACE, TRENTON, NJ, 8618","Match","Exact","21 RICHEY PL, TRENTON, NJ, 08618",60178130,"R"
112761,"21 RIDER ROAD","BREWER","ME",4412,44.775004489,-68.770924298,261,"21 RIDER ROAD, BREWER, ME, 4412","Match","Exact","21 RIDER RD, BREWER, ME, 04412",123629276,"R"
112762,"21 RIDGE DRIVE","FLEETWOOD","PA",19522,40.4278556720001,-75.785402802,262,"21 RIDGE DRIVE, FLEETWOOD, PA, 19522","Match","Exact","21 RIDGE DR, FLEETWOOD, PA, 19522",80406635,"L"
112763,"21 RIDGE ROAD","MORRIS","MN",56267,45.5811590870001,-95.902642984,263,"21 RIDGE ROAD, MORRIS, MN, 56267","Match","Exact","21 RIDGE RD, MORRIS, MN, 56267",165152805,"R"
112764,"21 RIP RAP ROAD","HAMPTON","VA",23669,37.0391732300001,-76.348996214,264,"21 RIP RAP ROAD, HAMPTON, VA, 23669","Match","Exact","21 RIP RAP RD, HAMPTON, VA, 23669",103758468,"L"
112765,"21 ROBERT PITT DRIVE SUITE 310","MONSEY","NY",10952,41.110618914,-74.065019607,265,"21 ROBERT PITT DRIVE SUITE 310, MONSEY, NY, 10952","Match","Exact","21 ROBERT PITT DR, MONSEY, NY, 10952",124627468,"L"
112766,"21 ROBIN RD","MOORESTOWN","NJ",8057,39.983561154,-74.972268489,266,"21 ROBIN RD, MOORESTOWN, NJ, 8057","Match","Exact","21 ROBIN RD, MOORESTOWN, NJ, 08057",134058074,"R"
112767,"21 ROBINWOOD RD","BUZZARDS BAY","MA",2532,41.741158044,-70.639407077,267,"21 ROBINWOOD RD, BUZZARDS BAY, MA, 2532","Match","Exact","21 ROBINWOOD RD, BUZZARDS BAY, MA, 02532",87492012,"L"
112768,"21 ROCKVIEW AVENUE","NORTH PLAINFIELD","NJ",7060,40.619999174,-74.434458143,268,"21 ROCKVIEW AVENUE, NORTH PLAINFIELD, NJ, 7060","Match","Exact","21 ROCKVIEW AVE, N PLAINFIELD, NJ, 07060",59941544,"L"
112769,"21 RODNEY STREET","SEAFORD","DE",19973,38.6451275640001,-75.627705366,269,"21 RODNEY STREET, SEAFORD, DE, 19973","Match","Exact","21 RODNEY ST, SEAFORD, DE, 19973",106082991,"L"
112770,"21 ROIUTE 31 NORTH STE B5-A","PENNINGTON","NJ",8534,NA,NA,270,"21 ROIUTE 31 NORTH STE B5-A, PENNINGTON, NJ, 8534","No_Match",NA,NA,NA,NA
112771,"21 ROLLING RD","CRANBERRY TWP","PA",16066,40.67885778,-80.1262925079999,271,"21 ROLLING RD, CRANBERRY TWP, PA, 16066","Match","Exact","21 ROLLING RD, CRANBERRY TOWNSHIP, PA, 16066",52671197,"L"
112772,"21 S 11TH STREET","PHILADELPHIA","PA",19107,39.9508316340001,-75.1584832519999,272,"21 S 11TH STREET, PHILADELPHIA, PA, 19107","Match","Exact","21 S 11TH ST, PHILADELPHIA, PA, 19107",636465288,"L"
112773,"21 S 12TH STREET SUITE 100","PHILADELPHIA","PA",19107,NA,NA,273,"21 S 12TH STREET SUITE 100, PHILADELPHIA, PA, 19107","Tie",NA,NA,NA,NA
112774,"21 S KENT STREET","WINCHESTER","VA",22601,39.182633245,-78.1630181579999,274,"21 S KENT STREET, WINCHESTER, VA, 22601","Match","Exact","21 S KENT ST, WINCHESTER, VA, 22601",55578474,"L"
112775,"21 SACKETT HILL ROAD","WARREN","CT",6754,41.738895959,-73.34710867,275,"21 SACKETT HILL ROAD, WARREN, CT, 6754","Match","Exact","21 SACKETT HILL RD, WARREN, CT, 06754",611508797,"R"
112776,"21 SAGE HILL COURT","DANVILLE","CA",94526,37.79235584,-121.985484596,276,"21 SAGE HILL COURT, DANVILLE, CA, 94526","Match","Exact","21 SAGE HILL CT, DANVILLE, CA, 94526",192079040,"L"
112777,"21 SAINT CHRISTOPHER COURT","SUGAR LAND","TX",77479,29.559997208,-95.624183613,277,"21 SAINT CHRISTOPHER COURT, SUGAR LAND, TX, 77479","Match","Exact","21 ST CHRISTOPHER CT, SUGAR LAND, TX, 77479",78330091,"L"
112778,"21 SALT ISLAND ROAD","GLOUCESTER","MA",1930,42.622871522,-70.625649957,278,"21 SALT ISLAND ROAD, GLOUCESTER, MA, 1930","Match","Exact","21 SALT ISLAND RD, GLOUCESTER, MA, 01930",86634229,"R"
112779,"21 SANDY BROOK DRIVE","SPRING VALLEY","NY",10977,41.159829352,-74.050782251,279,"21 SANDY BROOK DRIVE, SPRING VALLEY, NY, 10977","Match","Exact","21 SANDY BROOK DR, SPRING VALLEY, NY, 10977",124593052,"R"
112780,"21 SANDY LANE","BRISTOL","RI",2809,41.7061014330001,-71.253403615,280,"21 SANDY LANE, BRISTOL, RI, 2809","Match","Exact","21 SANDY LN, BRISTOL, RI, 02809",46483333,"L"
112781,"21 SANDY POND ROAD","CONCORD","MA",1742,42.448628441,-71.328869907,281,"21 SANDY POND ROAD, CONCORD, MA, 1742","Match","Exact","21 SANDY POND RD, CONCORD, MA, 01742",87092085,"L"
112782,"21 SANTA BARBARA DR","RANCHO PALOS VERDES","CA",90275,33.76167515,-118.371003599,282,"21 SANTA BARBARA DR, RANCHO PALOS VERDES, CA, 90275","Match","Exact","21 SANTA BARBARA DR, RANCHO PALOS VERDES, CA, 90275",142809530,"R"
112783,"21 SARAH ANNE COURT","MILLER PLACE","NY",11764,40.937146764,-72.98943127,283,"21 SARAH ANNE COURT, MILLER PLACE, NY, 11764","Match","Exact","21 SARAH ANNE CT, MILLER PLACE, NY, 11764",647289357,"L"
112784,"21 SAYBROOK AVE","NARRAGANSETT","RI",2882,41.480667586,-71.443241056,284,"21 SAYBROOK AVE, NARRAGANSETT, RI, 2882","Match","Exact","21 SAYBROOK AVE, NARRAGANSETT, RI, 02882",58920225,"L"
112785,"21 SCHOOL STREET","NEWPORT","NH",3773,43.36698769,-72.17031839,285,"21 SCHOOL STREET, NEWPORT, NH, 3773","Match","Exact","21 SCHOOL ST, NEWPORT, NH, 03773",124343794,"R"
112786,"21 SCHUYLER AVENUE","STAMFORD","CT",6902,41.05323077,-73.547698888,286,"21 SCHUYLER AVENUE, STAMFORD, CT, 6902","Match","Exact","21 SCHUYLER AVE, STAMFORD, CT, 06902",3245451,"R"
112787,"21 SEAVER AVENUE APT 2D","STATEN ISLAND","NY",10306,40.5866680390001,-74.103311256,287,"21 SEAVER AVENUE APT 2D, STATEN ISLAND, NY, 10306","Match","Exact","21 SEAVER AVE, STATEN ISLAND, NY, 10306",59868343,"L"
112788,"21 SECOND STREET SE","CHATFIELD","MN",55923,43.845662938,-92.188803333,288,"21 SECOND STREET SE, CHATFIELD, MN, 55923","Match","Exact","21 2ND ST SE, CHATFIELD, MN, 55923",608263388,"L"
112789,"21 SENECA AVE","ONEIDA CASTLE","NY",13421,43.0786105830001,-75.6381700649999,289,"21 SENECA AVE, ONEIDA CASTLE, NY, 13421","Match","Non_Exact","21 SENECA AVE, ONEIDA, NY, 13421",171541860,"R"
112790,"21 SEYMOUR AVE SE","MINNEAPOLIS","MN",55414,44.9680675800001,-93.212569872,290,"21 SEYMOUR AVE SE, MINNEAPOLIS, MN, 55414","Match","Exact","21 SEYMOUR AVE SE, MINNEAPOLIS, MN, 55414",43836426,"L"
112791,"21 SHERWOOD DR","BELCHERTOWN","MA",1007,42.299763172,-72.3931927369999,291,"21 SHERWOOD DR, BELCHERTOWN, MA, 1007","Match","Exact","21 SHERWOOD DR, BELCHERTOWN, MA, 01007",39871190,"R"
112792,"21 SOLARIS ROAD","HYDE PARK","MA",2136,42.243598639,-71.1436093029999,292,"21 SOLARIS ROAD, HYDE PARK, MA, 2136","Match","Exact","21 SOLARIS RD, HYDE PARK, MA, 02136",85703348,"R"
112793,"21 SOMERSET DRIVE UNIT 12Q","SUFFERN","NY",10901,41.1088043660001,-74.128836243,293,"21 SOMERSET DRIVE UNIT 12Q, SUFFERN, NY, 10901","Match","Exact","21 SOMERSET DR, SUFFERN, NY, 10901",124602108,"L"
112794,"21 SOUTH END AVENUE SUITE 332","NEW YORK","NY",10280,40.7080971460001,-74.0176376639999,294,"21 SOUTH END AVENUE SUITE 332, NEW YORK, NY, 10280","Match","Exact","21 S END AVE, NEW YORK, NY, 10280",59659493,"R"
112795,"21 SOUTH WAHSATCH APARTMENT 42","COLORADO SPRINGS","CO",80903,38.8333425760001,-104.81792932,295,"21 SOUTH WAHSATCH APARTMENT 42, COLORADO SPRINGS, CO, 80903","Match","Non_Exact","21 S WAHSATCH AVE, COLORADO SPRINGS, CO, 80903",610727497,"L"
112796,"21 SOUTHBRIDGE","EDWARDSVILLE","IL",62025,38.7987235960001,-89.9644698339999,296,"21 SOUTHBRIDGE, EDWARDSVILLE, IL, 62025","Match","Non_Exact","21 SOUTHBRIDGE LN, EDWARDSVILLE, IL, 62025",107713283,"R"
112797,"21 SOUTHLAND WAY","FREMONT","OH",43420,41.319817813,-83.108410463,297,"21 SOUTHLAND WAY, FREMONT, OH, 43420","Match","Exact","21 SOUTHLAND WAY, FREMONT, OH, 43420",38680508,"L"
112798,"21 SPANISH STREET","SAINT AUGUSTINE","FL",32084,29.896786288,-81.313998216,298,"21 SPANISH STREET, SAINT AUGUSTINE, FL, 32084","Match","Exact","21 SPANISH ST, SAINT AUGUSTINE, FL, 32084",92595862,"R"
112799,"21 SPINNING WHEEL ROAD APT 16B","HINSDALE","IL",60521,41.819332823,-87.9199206649999,299,"21 SPINNING WHEEL ROAD APT 16B, HINSDALE, IL, 60521","Match","Exact","21 SPINNING WHEEL RD, HINSDALE, IL, 60521",649691694,"R"
112800,"21 SPINNING WHEEL ROAD STE M18","HINSDALE","IL",60521,41.819332823,-87.9199206649999,300,"21 SPINNING WHEEL ROAD STE M18, HINSDALE, IL, 60521","Match","Exact","21 SPINNING WHEEL RD, HINSDALE, IL, 60521",649691694,"R"
112801,"21 SPIRIT LAKE RD","WINTER HAVEN","FL",33880,28.0260290640001,-81.77611272,301,"21 SPIRIT LAKE RD, WINTER HAVEN, FL, 33880","Match","Exact","21 SPIRIT LAKE RD, WINTER HAVEN, FL, 33880",104913115,"R"
112802,"21 SPRING AVE","FERGUSON","MO",63135,38.744888029,-90.309873258,302,"21 SPRING AVE, FERGUSON, MO, 63135","Match","Exact","21 SPRING AVE, FERGUSON, MO, 63135",100145974,"L"
112803,"21 ST JAMES PLACE","BROOKLYN","NY",11205,40.6891114740001,-73.965004553,303,"21 ST JAMES PLACE, BROOKLYN, NY, 11205","Match","Exact","21 ST JAMES PL, BROOKLYN, NY, 11205",59077954,"L"
112804,"21 ST MICHAEL PLACE","SALINAS","CA",93905,36.681590231,-121.63304246,304,"21 ST MICHAEL PLACE, SALINAS, CA, 93905","Match","Exact","21 ST MICHAEL PL, SALINAS, CA, 93905",196823801,"L"
112805,"21 STARR ROAD","SINKING SPRING","PA",19608,40.353007372,-76.0664288949999,305,"21 STARR ROAD, SINKING SPRING, PA, 19608","Match","Exact","21 STARR RD, SINKING SPRING, PA, 19608",642007934,"R"
112806,"21 STATE STREET","OSSINING","NY",10562,41.1586407840001,-73.865250966,306,"21 STATE STREET, OSSINING, NY, 10562","Match","Exact","21 STATE ST, OSSINING, NY, 10562",139839998,"R"
112807,"21 STRATHMORE ROAD","NATICK","MA",1760,42.29565352,-71.389162276,307,"21 STRATHMORE ROAD, NATICK, MA, 1760","Match","Exact","21 STRATHMORE RD, NATICK, MA, 01760",86848779,"R"
112808,"21 SUFFOLK LANE","ESSEX JUNCTION","VT",5452,44.5046302740001,-73.122794917,308,"21 SUFFOLK LANE, ESSEX JUNCTION, VT, 5452","Match","Exact","21 SUFFOLK LN, ESSEX JCT, VT, 05452",135836447,"R"
112809,"21 SUMMER AVE","WALTHAM","MA",2452,42.3803670180001,-71.2340382049999,309,"21 SUMMER AVE, WALTHAM, MA, 2452","Match","Exact","21 SUMMER AVE, WALTHAM, MA, 02452",86890332,"R"
112810,"21 SUMMER ROAD","DAVIS","WV",26260,39.0467824360001,-79.446010636,310,"21 SUMMER ROAD, DAVIS, WV, 26260","Match","Exact","21 SUMMER RD, DAVIS, WV, 26260",611958398,"L"
112811,"21 SW 52ND ST","DES MOINES","IA",50312,41.5778450290001,-93.689588463,311,"21 SW 52ND ST, DES MOINES, IA, 50312","Match","Exact","21 SW 52ND ST, DES MOINES, IA, 50312",65853113,"L"
112812,"21 SWEETWATER LN","HAMBURG","NJ",7419,41.1481308910001,-74.60066461,312,"21 SWEETWATER LN, HAMBURG, NJ, 7419","Match","Exact","21 SWEETWATER LN, HAMBURG, NJ, 07419",627426543,"R"
112813,"21 TANNIN COURT","DALLAS","GA",30132,33.972805685,-84.825589994,313,"21 TANNIN COURT, DALLAS, GA, 30132","Match","Exact","21 TANNIN CT, DALLAS, GA, 30132",207989188,"L"
112814,"21 TEMPLE PLACE APT 4R","BOSTON","MA",19807,42.3554572830001,-71.0624575479999,314,"21 TEMPLE PLACE APT 4R, BOSTON, MA, 19807","Match","Non_Exact","21 TEMPLE PL, BOSTON, MA, 02111",639989669,"R"
112815,"21 TERRELL LN","HICKSVILLE","NY",11801,40.7505197790001,-73.530594779,315,"21 TERRELL LN, HICKSVILLE, NY, 11801","Match","Exact","21 TERRELL LN, HICKSVILLE, NY, 11801",147633293,"L"
112816,"21 THATCH POND ROAD","SMITHTOWN","NY",11787,40.867877209,-73.1937395859999,316,"21 THATCH POND ROAD, SMITHTOWN, NY, 11787","Match","Exact","21 THATCH POND RD, SMITHTOWN, NY, 11787",113986179,"L"
112817,"21 THOMAS PARK UNIT 2","SOUTH BOSTON","MA",2127,42.3335817820001,-71.04617861,317,"21 THOMAS PARK UNIT 2, SOUTH BOSTON, MA, 2127","Match","Exact","21 THOMAS PARK, SOUTH BOSTON, MA, 02127",85712924,"R"
112818,"21 THORMAN LANE","NORTH BABYLON","NY",11703,40.747113288,-73.3280533029999,318,"21 THORMAN LANE, NORTH BABYLON, NY, 11703","Match","Exact","21 THORMAN LN, NORTH BABYLON, NY, 11703",114050619,"L"
112819,"21 THOROUGHBRED TRAIL","PENFIELD","NY",14526,43.1701730510001,-77.483505506,319,"21 THOROUGHBRED TRAIL, PENFIELD, NY, 14526","Match","Exact","21 THOROUGHBRED TRL, PENFIELD, NY, 14526",14551647,"L"
112820,"21 TIER STREET","BRONX","NY",10464,40.847810141,-73.790561372,320,"21 TIER STREET, BRONX, NY, 10464","Match","Exact","21 TIER ST, BRONX, NY, 10464",80307822,"L"
112821,"21 TINKERS LEDGE ROAD","DUXBURY","MA",2332,42.027390466,-70.7211608659999,321,"21 TINKERS LEDGE ROAD, DUXBURY, MA, 2332","Match","Exact","21 TINKERS LEDGE RD, DUXBURY, MA, 02332",87435709,"R"
112822,"21 TRAILSIDE RD","MEDFIELD","MA",2052,42.197213231,-71.273289392,322,"21 TRAILSIDE RD, MEDFIELD, MA, 2052","Match","Exact","21 TRAILSIDE RD, MEDFIELD, MA, 02052",624683738,"R"
112823,"21 VERDUN PLACE","CHEEKTOWAGA","NY",14225,42.9232367430001,-78.776003961,323,"21 VERDUN PLACE, CHEEKTOWAGA, NY, 14225","Match","Exact","21 VERDUN PL, CHEEKTOWAGA, NY, 14225",48299412,"R"
112824,"21 VICTORIA FALLS COURT","SPARKS","MD",21152,39.521290478,-76.6397461189999,324,"21 VICTORIA FALLS COURT, SPARKS, MD, 21152","Match","Exact","21 VICTORIA FALLS CT, SPARKS, MD, 21152",191545436,"R"
112825,"21 VILLA MORAINE DRIVE","CHEEKTOWAGA","NY",14225,42.9155385980001,-78.7956762649999,325,"21 VILLA MORAINE DRIVE, CHEEKTOWAGA, NY, 14225","Match","Exact","21 VILLA MORAINE DR, CHEEKTOWAGA, NY, 14225",48299200,"L"
112826,"21 VILLAGE AVE","CRANSTON","RI",2920,41.7866986440001,-71.482718173,326,"21 VILLAGE AVE, CRANSTON, RI, 2920","Match","Exact","21 VILLAGE AVE, CRANSTON, RI, 02920",47489843,"R"
112827,"21 VILLAGE HILL RD","DOVER","MA",2030,42.2380871440001,-71.278582613,327,"21 VILLAGE HILL RD, DOVER, MA, 2030","Match","Exact","21 VILLAGE HILL RD, DOVER, MA, 02030",87275642,"R"
112828,"21 W 131ST STREET 2R","NEW YORK","NY",10037,NA,NA,328,"21 W 131ST STREET 2R, NEW YORK, NY, 10037","Tie",NA,NA,NA,NA
112829,"21 W 758 CLIFFORD ROAD","GLEN ELLYN","IL",60137,NA,NA,329,"21 W 758 CLIFFORD ROAD, GLEN ELLYN, IL, 60137","Tie",NA,NA,NA,NA
112830,"21 W BELAIR ROAD","RIDLEY PARK","PA",19078,39.8737798930001,-75.334335552,330,"21 W BELAIR ROAD, RIDLEY PARK, PA, 19078","Match","Exact","21 W BELAIR RD, RIDLEY PARK, PA, 19078",134906198,"R"
112831,"21 W BROADWAY","NYACK","NY",10960,41.093928196,-73.939001387,331,"21 W BROADWAY, NYACK, NY, 10960","Match","Exact","21 W BROADWAY, NYACK, NY, 10960",124617640,"L"
112832,"21 W COCONIO PLACE","CHANDLER","AZ",85248,NA,NA,332,"21 W COCONIO PLACE, CHANDLER, AZ, 85248","No_Match",NA,NA,NA,NA
112833,"21 W EVERGREEN DR APT E","KALISPELL","MT",59901,48.225914968,-114.278454435,333,"21 W EVERGREEN DR APT E, KALISPELL, MT, 59901","Match","Non_Exact","21 W EVERGREEN DR, KALISPELL, MT, 59901",204086610,"L"
112834,"21 W GEORGE ST","ARCANUM","OH",45304,39.9911704240001,-84.553910939,334,"21 W GEORGE ST, ARCANUM, OH, 45304","Match","Exact","21 W GEORGE ST, ARCANUM, OH, 45304",54555955,"R"
112835,"21 W HENRI ST","PRESTON","IA",52069,42.046376943,-90.394357772,335,"21 W HENRI ST, PRESTON, IA, 52069","Match","Exact","21 W HENRI ST, PRESTON, IA, 52069",16972181,"R"
112836,"21 W LAUREL DRIVE SUITE 49","SALINAS","CA",93906,NA,NA,336,"21 W LAUREL DRIVE SUITE 49, SALINAS, CA, 93906","Tie",NA,NA,NA,NA
112837,"21 W MOUNT KIRK AVE","EAGLEVILLE","PA",19403,40.154442046,-75.4024261499999,337,"21 W MOUNT KIRK AVE, EAGLEVILLE, PA, 19403","Match","Exact","21 W MOUNT KIRK AVE, EAGLEVILLE, PA, 19403",135069010,"R"
112838,"21 W NEW FEE AVE STE D","MELBOURNE","FL",32901,NA,NA,338,"21 W NEW FEE AVE STE D, MELBOURNE, FL, 32901","No_Match",NA,NA,NA,NA
112839,"21 W OLIVER","SHOW LOW","AZ",85901,34.246326153,-110.043527038,339,"21 W OLIVER, SHOW LOW, AZ, 85901","Match","Exact","21 W OLIVER, SHOW LOW, AZ, 85901",172538757,"R"
112840,"21 W TIMBER","RHINELANDER","WI",54501,45.642419906,-89.4116528919999,340,"21 W TIMBER, RHINELANDER, WI, 54501","Match","Non_Exact","21 W TIMBER DR, RHINELANDER, WI, 54501",196588656,"L"
112841,"21 W WASHINGTON STREET","CHAGRIN FALLS","OH",44022,41.4297276770001,-81.392626111,341,"21 W WASHINGTON STREET, CHAGRIN FALLS, OH, 44022","Match","Exact","21 W WASHINGTON ST, CHAGRIN FALLS, OH, 44022",640776914,"L"
112842,"21 WAGNER STREET","HUMMELSTOWN","PA",17036,40.2667437600001,-76.6980189719999,342,"21 WAGNER STREET, HUMMELSTOWN, PA, 17036","Match","Exact","21 WAGNER ST, HUMMELSTOWN, PA, 17036",70842115,"L"
112843,"21 WALDEN BIRCH CT","WOODLAWN","MD",21207,39.3028537690001,-76.735015601,343,"21 WALDEN BIRCH CT, WOODLAWN, MD, 21207","Match","Exact","21 WALDEN BIRCH CT, WOODLAWN, MD, 21207",191483795,"R"
112844,"21 WALLER APT 513","AUSTIN","TX",78702,30.2535977320001,-97.7354962479999,344,"21 WALLER APT 513, AUSTIN, TX, 78702","Match","Non_Exact","21 WALLER ST, AUSTIN, TX, 78702",63948237,"R"
112845,"21 WALNUT DR","ORWIGSBURG","PA",17961,40.6541167560001,-76.030745867,345,"21 WALNUT DR, ORWIGSBURG, PA, 17961","Match","Exact","21 WALNUT DR, ORWIGSBURG, PA, 17961",70948804,"L"
112846,"21 WALNUT PLACE","OYSTER BAY","NY",11771,40.8749795780001,-73.537977605,346,"21 WALNUT PLACE, OYSTER BAY, NY, 11771","Match","Exact","21 WALNUT PL, OYSTER BAY, NY, 11771",147622422,"L"
112847,"21 WALNUT ST","SALEM CITY","NJ",8079,39.5702990400001,-75.4663832909999,347,"21 WALNUT ST, SALEM CITY, NJ, 8079","Match","Non_Exact","21 WALNUT ST, SALEM, NJ, 08079",174412732,"R"
112848,"21 WALTER MARTIN UNIT 4718","FORT WALTON BEACH","FL",32549,NA,NA,348,"21 WALTER MARTIN UNIT 4718, FORT WALTON BEACH, FL, 32549","No_Match",NA,NA,NA,NA
112849,"21 WALTER STREET","SPRINGFIELD","OH",45506,39.9262007250001,-83.842615301,349,"21 WALTER STREET, SPRINGFIELD, OH, 45506","Match","Non_Exact","21 S WALTER ST, SPRINGFIELD, OH, 45506",135008160,"R"
112850,"21 WALWORTH AVE","SCARSDALE","NY",10583,41.011205467,-73.792305001,350,"21 WALWORTH AVE, SCARSDALE, NY, 10583","Match","Exact","21 WALWORTH AVE, SCARSDALE, NY, 10583",139738965,"L"
112851,"21 WANDERING WAY","SMITHTOWN","NY",11787,40.8793833710001,-73.200639367,351,"21 WANDERING WAY, SMITHTOWN, NY, 11787","Match","Exact","21 WANDERING WAY, SMITHTOWN, NY, 11787",113986125,"L"
112852,"21 WARFORD TERRACE","ORINDA","CA",94563,37.883670615,-122.174678084,352,"21 WARFORD TERRACE, ORINDA, CA, 94563","Match","Exact","21 WARFORD TER, ORINDA, CA, 94563",192112886,"L"
112853,"21 WARWICK CIRCLE","SPRINGFIELD","NJ",7081,40.7038739910001,-74.320670341,353,"21 WARWICK CIRCLE, SPRINGFIELD, NJ, 7081","Match","Exact","21 WARWICK CIR, SPRINGFIELD, NJ, 07081",60603927,"L"
112854,"21 WASHINGTON STREET","PENSACOLA","FL",32507,30.386298272,-87.2785541539999,354,"21 WASHINGTON STREET, PENSACOLA, FL, 32507","Match","Exact","21 WASHINGTON ST, PENSACOLA, FL, 32507",93216494,"L"
112855,"21 WATSON LANE","WOBURN","MA",1801,42.4905153660001,-71.159829341,355,"21 WATSON LANE, WOBURN, MA, 1801","Match","Exact","21 WATSON LN, WOBURN, MA, 01801",651768779,"R"
112856,"21 WEBSTER STREET","SOMERVILLE","MA",2145,42.3856474360001,-71.084763785,356,"21 WEBSTER STREET, SOMERVILLE, MA, 2145","Match","Exact","21 WEBSTER ST, SOMERVILLE, MA, 02145",86870418,"R"
112857,"21 WELLESLEY COLLEGE ROAD UNIT 3115","WELLESLEY","MA",2139,NA,NA,357,"21 WELLESLEY COLLEGE ROAD UNIT 3115, WELLESLEY, MA, 2139","No_Match",NA,NA,NA,NA
112858,"21 WELLS ROAD","CAPE ELIZABETH","ME",4107,43.5943137140001,-70.249602357,358,"21 WELLS ROAD, CAPE ELIZABETH, ME, 4107","Match","Exact","21 WELLS RD, CAPE ELIZABETH, ME, 04107",78072513,"L"
112859,"21 WEST BALTIMORE AVENUE","LANSDOWNE","PA",19050,39.9380021860001,-75.2734336459999,359,"21 WEST BALTIMORE AVENUE, LANSDOWNE, PA, 19050","Match","Exact","21 W BALTIMORE AVE, LANSDOWNE, PA, 19050",134877922,"R"
112860,"21 WEST CHURCH STREET","MILLTOWN","NJ",8850,40.452210021,-74.4394700409999,360,"21 WEST CHURCH STREET, MILLTOWN, NJ, 8850","Match","Exact","21 W CHURCH ST, MILLTOWN, NJ, 08850",60267192,"R"
112861,"21 WEST COCONINO PLACE","CHANDLER","AZ",85248,33.242130843,-111.84204003,361,"21 WEST COCONINO PLACE, CHANDLER, AZ, 85248","Match","Exact","21 W COCONINO PL, CHANDLER, AZ, 85248",638560479,"L"
112862,"21 WEST END AVE","MIDDLEBORO","MA",2346,41.8914942000001,-70.92624735,362,"21 WEST END AVE, MIDDLEBORO, MA, 2346","Match","Exact","21 W END AVE, MIDDLEBORO, MA, 02346",87512447,"R"
112863,"21 WEST FORREST AVENUE","SHREWSBURY","PA",17361,39.7686405600001,-76.68136929,363,"21 WEST FORREST AVENUE, SHREWSBURY, PA, 17361","Match","Exact","21 W FORREST AVE, SHREWSBURY, PA, 17361",88714062,"L"
112864,"21 WEST MILL DR APT 6C","GREAT NECK","NY",11021,40.7759128820001,-73.7368032479999,364,"21 WEST MILL DR APT 6C, GREAT NECK, NY, 11021","Match","Exact","21 W MILL DR, GREAT NECK, NY, 11021",147656453,"L"
112865,"21 WEST SILVER STREET","MIDDLETOWN","CT",6457,41.5511262750001,-72.643716551,365,"21 WEST SILVER STREET, MIDDLETOWN, CT, 6457","Match","Exact","21 W SILVER ST, MIDDLETOWN, CT, 06457",113889744,"L"
112866,"21 WEST SOUTHERN PINES","PINE BLUFF","AR",71603,34.1854520520001,-92.023714232,366,"21 WEST SOUTHERN PINES, PINE BLUFF, AR, 71603","Match","Non_Exact","21 SOUTHERN PINES, PINE BLUFF, AR, 71603",2553778,"R"
112867,"21 WEST SUMTER ST","MAYESVILLE","SC",29104,33.9876394980001,-80.211729313,367,"21 WEST SUMTER ST, MAYESVILLE, SC, 29104","Match","Exact","21 W SUMTER ST, MAYESVILLE, SC, 29104",202673092,"L"
112868,"21 WESTBURY DR","BELLEVILLE","IL",62226,38.5395504540001,-90.010201004,368,"21 WESTBURY DR, BELLEVILLE, IL, 62226","Match","Exact","21 WESTBURY DR, BELLEVILLE, IL, 62226",107839530,"L"
112869,"21 WESTBURY DRIVE","BELLEVILLE","IL",62226,38.5395504540001,-90.010201004,369,"21 WESTBURY DRIVE, BELLEVILLE, IL, 62226","Match","Exact","21 WESTBURY DR, BELLEVILLE, IL, 62226",107839530,"L"
112870,"21 WESTMINSTER PLACE","BEAUFORT","SC",29907,32.475619701,-80.642583267,370,"21 WESTMINSTER PLACE, BEAUFORT, SC, 29907","Match","Exact","21 WESTMINSTER PL, BEAUFORT, SC, 29907",87653315,"R"
112871,"21 WESTMONT DR","ASHEVILLE","NC",28806,35.623757104,-82.6295625229999,371,"21 WESTMONT DR, ASHEVILLE, NC, 28806","Match","Exact","21 WESTMONT DR, ASHEVILLE, NC, 28806",36896020,"R"
112872,"21 WESTRIDGE","PINE BLUFF","AR",71603,34.1881275900001,-92.007090319,372,"21 WESTRIDGE, PINE BLUFF, AR, 71603","Match","Non_Exact","21 WESTRIDGE DR, PINE BLUFF, AR, 71603",2558040,"R"
112873,"21 WEYFAIR PATH","WEYMOUTH","MA",2190,42.1799540010001,-70.9404625829999,373,"21 WEYFAIR PATH, WEYMOUTH, MA, 2190","Match","Exact","21 WEYFAIR PATH, WEYMOUTH, MA, 02190",87280196,"R"
112874,"21 WHITE BIRCH DR","POMONA","NY",10970,41.1706716250001,-74.061798793,374,"21 WHITE BIRCH DR, POMONA, NY, 10970","Match","Exact","21 WHITE BIRCH DR, POMONA, NY, 10970",124628801,"R"
112875,"21 WHITNEYT STREET","SHERBORN","MA",1770,NA,NA,375,"21 WHITNEYT STREET, SHERBORN, MA, 1770","No_Match",NA,NA,NA,NA
112876,"21 WHITON AVENUE","QUINCY","MA",2169,42.246879031,-70.9750870359999,376,"21 WHITON AVENUE, QUINCY, MA, 2169","Match","Exact","21 WHITON AVE, QUINCY, MA, 02169",87250468,"R"
112877,"21 WILLIS STREET","NEW HAVEN","CT",6511,41.331864136,-72.936065785,377,"21 WILLIS STREET, NEW HAVEN, CT, 6511","Match","Exact","21 WILLIS ST, NEW HAVEN, CT, 06511",3699024,"R"
112878,"21 WINDING HOLLOW TRL","DAYTON","OH",45414,39.8657917470001,-84.1982405589999,378,"21 WINDING HOLLOW TRL, DAYTON, OH, 45414","Match","Exact","21 WINDING HOLLOW TRL, DAYTON, OH, 45414",143564319,"R"
112879,"21 WINTER ST","MEDIA","PA",19063,39.923763041,-75.3822070379999,379,"21 WINTER ST, MEDIA, PA, 19063","Match","Exact","21 WINTER ST, MEDIA, PA, 19063",134870495,"R"
112880,"21 WINTERBERRY CT","GLASSBORO","NJ",8028,39.721453673,-75.110176926,380,"21 WINTERBERRY CT, GLASSBORO, NJ, 8028","Match","Exact","21 WINTERBERRY CT, GLASSBORO, NJ, 08028",134602529,"L"
112881,"21 WOODLAND DR","IRVINE","CA",92604,33.6848064610001,-117.805472759,381,"21 WOODLAND DR, IRVINE, CA, 92604","Match","Exact","21 WOODLAND DR, IRVINE, CA, 92604",144409132,"L"
112882,"21 WOODLAND DRIVE","ROSELLE","NJ",7203,40.6482121870001,-74.269375129,382,"21 WOODLAND DRIVE, ROSELLE, NJ, 7203","Match","Exact","21 WOODLAND DR, ROSELLE, NJ, 07203",60597724,"L"
112883,"21 WOODLAND RD","EAST HARTFORD","CT",6108,41.786752775,-72.5899330189999,383,"21 WOODLAND RD, EAST HARTFORD, CT, 6108","Match","Exact","21 WOODLAND RD, EAST HARTFORD, CT, 06108",3490951,"R"
112884,"21 WYMAN ROAD","GROTON","MA",1450,42.6541069800001,-71.55439756,384,"21 WYMAN ROAD, GROTON, MA, 1450","Match","Exact","21 WYMAN RD, GROTON, MA, 01450",86840966,"L"
112885,"21 WYNDHAM KNOB","PARKERSBURG","WV",26104,39.301070608,-81.531659593,385,"21 WYNDHAM KNOB, PARKERSBURG, WV, 26104","Match","Non_Exact","21 WYNDHAM KNOB RD, PARKERSBURG, WV, 26104",90908213,"L"
112886,"21-06 45TH AVENUE APT 1E","LONG ISLAND CITY","NY",11101,40.7472958700001,-73.9473043369999,386,"21-06 45TH AVENUE APT 1E, LONG ISLAND CITY, NY, 11101","Match","Exact","21-6 45TH AVE, LONG ISLAND CITY, NY, 11101",59691941,"R"
112887,"21-22 NEWTON AVENUE APARTMENT 3R","ASTORIA","NY",11102,NA,NA,387,"21-22 NEWTON AVENUE APARTMENT 3R, ASTORIA, NY, 11102","No_Match",NA,NA,NA,NA
112888,"21-25 35TH AVENUE APT 6D","ASTORIA","NY",11106,40.761027997,-73.934670942,388,"21-25 35TH AVENUE APT 6D, ASTORIA, NY, 11106","Match","Exact","21-25 35TH AVE, ASTORIA, NY, 11106",59740373,"L"
112889,"21-32 CRESCENT STREET APT B4","ASTORIA","NY",11105,40.7799635040001,-73.9130052209999,389,"21-32 CRESCENT STREET APT B4, ASTORIA, NY, 11105","Match","Exact","21-32 CRESCENT ST, ASTORIA, NY, 11105",59697008,"R"
112890,"21-34 44TH RD","LONG ISLAND CITY","NY",11101,40.7486821590001,-73.9462449769999,390,"21-34 44TH RD, LONG ISLAND CITY, NY, 11101","Match","Exact","21-34 44TH RD, LONG ISLAND CITY, NY, 11101",59691933,"R"
112891,"21-48 42ND STREET","ASTORIA","NY",11105,40.772770318,-73.9034831179999,391,"21-48 42ND STREET, ASTORIA, NY, 11105","Match","Exact","21-48 42ND ST, ASTORIA, NY, 11105",59697363,"R"
112892,"21-75 JAMAICA AVE","QUEENS VILLAGE","NY",11428,NA,NA,392,"21-75 JAMAICA AVE, QUEENS VILLAGE, NY, 11428","No_Match",NA,NA,NA,NA
112893,"21-83 STEINWAY ST","ASTORIA","NY",11106,40.7732477430001,-73.905566985,393,"21-83 STEINWAY ST, ASTORIA, NY, 11106","Match","Non_Exact","21 STEINWAY ST, ASTORIA, NY, 11105",59697349,"L"
112894,"21","ATLANTA","GA",30318,NA,NA,394,"21, ATLANTA, GA, 30318","No_Match",NA,NA,NA,NA
112895,"210 11TH AVENUE SW","OLYMPIA","WA",98504,47.038073378,-122.902258957,395,"210 11TH AVENUE SW, OLYMPIA, WA, 98504","Match","Non_Exact","210 11TH AVE SW, OLYMPIA, WA, 98501",180944278,"R"
112896,"210 11TH STREET","FORT LUPTON","CO",80621,40.090080807,-104.815577869,396,"210 11TH STREET, FORT LUPTON, CO, 80621","Match","Exact","210 11TH ST, FORT LUPTON, CO, 80621",188739095,"L"
112897,"210 15TH STREET EAST APARTMENT 2","TUSCALOOSA","AL",35401,33.198421158,-87.53786151,397,"210 15TH STREET EAST APARTMENT 2, TUSCALOOSA, AL, 35401","Match","Non_Exact","210 15TH ST, TUSCALOOSA, AL, 35401",82150066,"R"
112898,"210 15TH STREET","ROCK ISLAND","IL",61201,41.510146553,-90.579142615,398,"210 15TH STREET, ROCK ISLAND, IL, 61201","Match","Exact","210 15TH ST, ROCK ISLAND, IL, 61201",9207605,"R"
112899,"210 16TH ST","MARYSVILLE","MI",48040,42.905289903,-82.481076017,399,"210 16TH ST, MARYSVILLE, MI, 48040","Match","Exact","210 16TH ST, MARYSVILLE, MI, 48040",110980796,"L"
112900,"210 1ST STREET NW","DILWORTH","MN",56529,46.878676124,-96.704342211,400,"210 1ST STREET NW, DILWORTH, MN, 56529","Match","Exact","210 1ST ST NW, DILWORTH, MN, 56529",168030885,"L"
112901,"210 1ST STREET SOUTH","REFORM","AL",35481,33.380081902,-88.0147917799999,401,"210 1ST STREET SOUTH, REFORM, AL, 35481","Match","Non_Exact","210 1ST ST N, REFORM, AL, 35481",609762,"L"
112902,"210 27TH STREET","COLUMBUS","GA",31904,32.4889830180001,-84.989940184,402,"210 27TH STREET, COLUMBUS, GA, 31904","Match","Exact","210 27TH ST, COLUMBUS, GA, 31904",98936980,"R"
112903,"210 38TH ST SE","CANTON","OH",44707,40.7537898080001,-81.375604792,403,"210 38TH ST SE, CANTON, OH, 44707","Match","Exact","210 38TH ST SE, CANTON, OH, 44707",64687025,"R"
112904,"210 3RD STREET WEST SUITE 8106","BRADENTON","FL",34205,NA,NA,404,"210 3RD STREET WEST SUITE 8106, BRADENTON, FL, 34205","No_Match",NA,NA,NA,NA
112905,"210 4TH ST NW","CONOVER","NC",28613,NA,NA,405,"210 4TH ST NW, CONOVER, NC, 28613","Tie",NA,NA,NA,NA
112906,"210 6TH STREET","JERSEY CITY","NJ",7302,40.7253151290001,-74.043410557,406,"210 6TH STREET, JERSEY CITY, NJ, 7302","Match","Exact","210 6TH ST, JERSEY CITY, NJ, 07302",59606171,"R"
112907,"210 7 ST NW APT 2","JAMESTOWN","ND",58401,46.9148712370001,-98.710707317,407,"210 7 ST NW APT 2, JAMESTOWN, ND, 58401","Match","Exact","210 7TH ST NW, JAMESTOWN, ND, 58401",151886363,"L"
112908,"210 AGUAVIVA","MANATI","PR",674,NA,NA,408,"210 AGUAVIVA, MANATI, PR, 674","No_Match",NA,NA,NA,NA
112909,"210 AMBER HILL RD","YADKINVILLE","NC",27055,36.038028958,-80.680651306,409,"210 AMBER HILL RD, YADKINVILLE, NC, 27055","Match","Exact","210 AMBER HILL RD, YADKINVILLE, NC, 27055",218848877,"R"
112910,"210 AMBERWOOD DR SOUTH  APT 917","KYLE","TX",78640,30.0286919650001,-97.847593369,410,"210 AMBERWOOD DR SOUTH  APT 917, KYLE, TX, 78640","Match","Non_Exact","210 AMBERWOOD S, KYLE, TX, 78640",63847514,"R"
112911,"210 ANDERSONTOWN ROAD","MECHANICSBURG","PA",17055,40.1512592440001,-76.933092812,411,"210 ANDERSONTOWN ROAD, MECHANICSBURG, PA, 17055","Match","Exact","210 ANDERSONTOWN RD, MECHANICSBURG, PA, 17055",88737267,"R"
112912,"210 ANNIVERSARY LANE","ACWORTH","GA",30102,34.0850508140001,-84.632130618,412,"210 ANNIVERSARY LANE, ACWORTH, GA, 30102","Match","Exact","210 ANNIVERSARY LN, ACWORTH, GA, 30102",625413371,"R"
112913,"210 ANTHONY ROAD","SPARTANBURG","SC",29301,34.9352311660001,-81.97038043,413,"210 ANTHONY ROAD, SPARTANBURG, SC, 29301","Match","Exact","210 ANTHONY RD, SPARTANBURG, SC, 29301",19518428,"L"
112914,"210 ANTLER WAY DRIVE","SHERWOOD","AR",72120,34.887839838,-92.23891623,414,"210 ANTLER WAY DRIVE, SHERWOOD, AR, 72120","Match","Exact","210 ANTLER WAY DR, SHERWOOD, AR, 72120",640961852,"R"
112915,"210 ARMORY RD","HAWTHORNE","NV",89415,38.5233528470001,-118.633580454,415,"210 ARMORY RD, HAWTHORNE, NV, 89415","Match","Exact","210 ARMORY RD, HAWTHORNE, NV, 89415",140428203,"R"
112916,"210 ARTIST VIEW ROAD","WELLINGTON","NV",89444,38.814884342,-119.35548655,416,"210 ARTIST VIEW ROAD, WELLINGTON, NV, 89444","Match","Exact","210 ARTIST VIEW RD, WELLINGTON, NV, 89444",140345643,"L"
112917,"210 ARUNDEL BEACH ROAD","SEVERNA PARK","MD",21146,39.0838800600001,-76.536277904,417,"210 ARUNDEL BEACH ROAD, SEVERNA PARK, MD, 21146","Match","Exact","210 ARUNDEL BEACH RD, SEVERNA PARK, MD, 21146",606944176,"L"
112918,"210 ASHFORD CT","NOBLESVILLE","IN",46062,40.0847842810001,-86.053302658,418,"210 ASHFORD CT, NOBLESVILLE, IN, 46062","Match","Exact","210 ASHFORD CT, NOBLESVILLE, IN, 46062",29292996,"R"
112919,"210 ASTOR LANE","FRANKLIN PARK","NJ",8823,40.432275206,-74.556355031,419,"210 ASTOR LANE, FRANKLIN PARK, NJ, 8823","Match","Exact","210 ASTOR LN, FRANKLIN PARK, NJ, 08823",641257347,"R"
112920,"210 AUTUMN AVE","DUXBURY","MA",2332,42.0291761550001,-70.749848379,420,"210 AUTUMN AVE, DUXBURY, MA, 2332","Match","Exact","210 AUTUMN AVE, DUXBURY, MA, 02332",87435584,"R"
112921,"210 AVENUE B","REDONDO BEACH","CA",90277,33.8266104900001,-118.388329404,421,"210 AVENUE B, REDONDO BEACH, CA, 90277","Match","Exact","210 AVE B, REDONDO BEACH, CA, 90277",141584212,"R"
112922,"210 AVENUE E","HAWLEY","TX",79525,NA,NA,422,"210 AVENUE E, HAWLEY, TX, 79525","No_Match",NA,NA,NA,NA
112923,"210 AVERY DRIVE","COVINGTON","GA",30016,33.4853909030001,-83.9107166639999,423,"210 AVERY DRIVE, COVINGTON, GA, 30016","Match","Exact","210 AVERY DR, COVINGTON, GA, 30016",23637059,"R"
112924,"210 B STREET SUITE 2","ROCK SPRINGS","WY",82901,41.5852315880001,-109.220890405,424,"210 B STREET SUITE 2, ROCK SPRINGS, WY, 82901","Match","Exact","210 B ST, ROCK SPRINGS, WY, 82901",647294174,"L"
112925,"210 BAKER DRIVE","BERRY","AL",35546,33.6814553880001,-87.585718632,425,"210 BAKER DRIVE, BERRY, AL, 35546","Match","Exact","210 BAKER DR, BERRY, AL, 35546",120509904,"L"
112926,"210 BARRETT AVENUE S","WESSINGTON SPRINGS","SD",57382,44.0782093820001,-98.567966413,426,"210 BARRETT AVENUE S, WESSINGTON SPRINGS, SD, 57382","Match","Exact","210 BARRETT AVE S, WESSINGTON SPRINGS, SD, 57382",199203815,"R"
112927,"210 BEEDY STREET","OXNARD","CA",93036,34.2572622170001,-119.15824826,427,"210 BEEDY STREET, OXNARD, CA, 93036","Match","Exact","210 BEEDY ST, OXNARD, CA, 93036",110047766,"R"
112928,"210 BELLEFAYE LANE","MCCORMICK","SC",29835,33.9092120890001,-82.3834255199999,428,"210 BELLEFAYE LANE, MCCORMICK, SC, 29835","Match","Non_Exact","210 BELLEFAYE LN, MC CORMICK, SC, 29835",50923960,"L"
112929,"210 BENTON STREET","LEAVENWORTH","WA",98826,47.5952354660001,-120.668293108,429,"210 BENTON STREET, LEAVENWORTH, WA, 98826","Match","Exact","210 BENTON ST, LEAVENWORTH, WA, 98826",156968920,"L"
112930,"210 BERRY ST","NASHVILLE","TN",37207,36.1813389160001,-86.770700769,430,"210 BERRY ST, NASHVILLE, TN, 37207","Match","Exact","210 BERRY ST, NASHVILLE, TN, 37207",97187723,"R"
112931,"210 BIRCH DR","ROSLYN","NY",11576,40.8005236170001,-73.635655543,431,"210 BIRCH DR, ROSLYN, NY, 11576","Match","Exact","210 BIRCH DR, ROSLYN, NY, 11576",147663759,"R"
112932,"210 BIRCH STREET","WILLIMANTIC","CT",6226,41.7175977430001,-72.221147515,432,"210 BIRCH STREET, WILLIMANTIC, CT, 6226","Match","Exact","210 BIRCH ST, WILLIMANTIC, CT, 06226",637840503,"L"
112933,"210 BLACKPINE ROAD","PHILIPSBURG","MT",59858,46.3725655860001,-113.351961833,433,"210 BLACKPINE ROAD, PHILIPSBURG, MT, 59858","Match","Non_Exact","210 BLACK PINE RD, PHILIPSBURG, MT, 59858",611083042,"R"
112934,"210 BLAKE ST","LEWISTON","ME",4240,44.093079684,-70.210861027,434,"210 BLAKE ST, LEWISTON, ME, 4240","Match","Exact","210 BLAKE ST, LEWISTON, ME, 04240",77961730,"L"
112935,"210 BLUESTONE AVE","MOUNTAIN TOP","PA",18707,41.160366991,-75.873017696,435,"210 BLUESTONE AVE, MOUNTAIN TOP, PA, 18707","Match","Exact","210 BLUESTONE AVE, MOUNTAIN TOP, PA, 18707",647571169,"R"
112936,"210 BONNIE ROAD","IRONWOOD","MI",49938,46.461679475,-90.124055309,436,"210 BONNIE ROAD, IRONWOOD, MI, 49938","Match","Exact","210 BONNIE RD, IRONWOOD, MI, 49938",164955036,"R"
112937,"210 BOSTON POST ROAD","WATERFORD","CT",6385,41.3452659010001,-72.1365190459999,437,"210 BOSTON POST ROAD, WATERFORD, CT, 6385","Match","Exact","210 BOSTON POST RD, WATERFORD, CT, 06385",56844945,"L"
112938,"210 BRIDGEWAY DRIVE","MARYVILLE","TN",37801,35.7503908910001,-84.008305497,438,"210 BRIDGEWAY DRIVE, MARYVILLE, TN, 37801","Match","Exact","210 BRIDGEWAY DR, MARYVILLE, TN, 37801",644941774,"R"
112939,"210 BRITTANY DR","ALBRIGHTSVILLE","PA",18210,40.997683065,-75.515593643,439,"210 BRITTANY DR, ALBRIGHTSVILLE, PA, 18210","Match","Exact","210 BRITTANY DR, ALBRIGHTSVILLE, PA, 18210",634154333,"L"
112940,"210 BROAD STREET","SCOTIA","NY",12302,42.833304899,-73.973823071,440,"210 BROAD STREET, SCOTIA, NY, 12302","Match","Exact","210 BROAD ST, SCOTIA, NY, 12302",18024747,"R"
112941,"210 BROADWAY  STE 202","FARGO","ND",58102,46.8784128560001,-96.787694575,441,"210 BROADWAY  STE 202, FARGO, ND, 58102","Match","Exact","210 BROADWAY, FARGO, ND, 58102",151472329,"L"
112942,"210 BROOKSHIRE GARDENS","LAFAYETTE","LA",70503,30.1608448580001,-92.068459499,442,"210 BROOKSHIRE GARDENS, LAFAYETTE, LA, 70503","Match","Non_Exact","210 BROOKSHIRE GARDENS DR, LAFAYETTE, LA, 70503",635126732,"R"
112943,"210 BURNETT AVE","WARREN","IL",61087,42.496041146,-89.9872766679999,443,"210 BURNETT AVE, WARREN, IL, 61087","Match","Exact","210 BURNETT AVE, WARREN, IL, 61087",27731623,"L"
112944,"210 CAMELOT DRIVE","FAYETTEVILLE","GA",30214,33.4818910340001,-84.500018296,444,"210 CAMELOT DRIVE, FAYETTEVILLE, GA, 30214","Match","Exact","210 CAMELOT DR, FAYETTEVILLE, GA, 30214",75945096,"R"
112945,"210 CAMILLE VICTORIA COURT","MOUNT JULIET","TN",37122,36.275534184,-86.511182474,445,"210 CAMILLE VICTORIA COURT, MOUNT JULIET, TN, 37122","Match","Exact","210 CAMILLE VICTORIA CT, MOUNT JULIET, TN, 37122",637299929,"R"
112946,"210 CAMP RD","COWANSVILLE","PA",16218,40.914846835,-79.618609454,446,"210 CAMP RD, COWANSVILLE, PA, 16218","Match","Exact","210 CAMP RD, COWANSVILLE, PA, 16218",52476936,"L"
112947,"210 CAMPBELL AVE","ITHACA","NY",14850,42.455943403,-76.524148306,447,"210 CAMPBELL AVE, ITHACA, NY, 14850","Match","Exact","210 CAMPBELL AVE, ITHACA, NY, 14850",18862747,"L"
112948,"210 CANAL ST","PORT NECHES","TX",77651,29.986131476,-93.9384210589999,448,"210 CANAL ST, PORT NECHES, TX, 77651","Match","Exact","210 CANAL ST, PORT NECHES, TX, 77651",73862257,"L"
112949,"210 CANNON ST","GRAIN VALLEY","MO",64029,39.0131514650001,-94.1993519219999,449,"210 CANNON ST, GRAIN VALLEY, MO, 64029","Match","Exact","210 CANNON ST, GRAIN VALLEY, MO, 64029",91521093,"L"
112950,"210 CAPITOL AVENUE ROOM 409A","HARTFORD","CT",6106,41.762830448,-72.682350275,450,"210 CAPITOL AVENUE ROOM 409A, HARTFORD, CT, 6106","Match","Exact","210 CAPITOL AVE, HARTFORD, CT, 06106",3541159,"R"
112951,"210 CARLISLE RD","ALEXANDER CITY","AL",35010,32.962625351,-85.9392237929999,451,"210 CARLISLE RD, ALEXANDER CITY, AL, 35010","Match","Exact","210 CARLISLE RD, ALEX CITY, AL, 35010",1676262,"L"
112952,"210 CARLTON ROAD","CHARLOTTESVILLE","VA",22902,38.023795277,-78.4690365449999,452,"210 CARLTON ROAD, CHARLOTTESVILLE, VA, 22902","Match","Exact","210 CARLTON RD, CHARLOTTESVILLE, VA, 22902",83371260,"L"
112953,"210 CARMEL HILL RD N","BETHLEHEM","CT",6751,41.6332130800001,-73.2483090809999,453,"210 CARMEL HILL RD N, BETHLEHEM, CT, 6751","Match","Exact","210 CARMEL HILL RD N, BETHLEHEM, CT, 06751",3126740,"L"
112954,"210 CARRIE LANE   APT B101","REDLANDS","CA",92373,34.0495243170001,-117.175257073,454,"210 CARRIE LANE   APT B101, REDLANDS, CA, 92373","Match","Exact","210 CARRIE LN, REDLANDS, CA, 92373",635332015,"R"
112955,"210 CARSON DRIVE","BRYAN","OH",43506,41.4730622450001,-84.571654676,455,"210 CARSON DRIVE, BRYAN, OH, 43506","Match","Exact","210 CARSON DR, BRYAN, OH, 43506",8333503,"R"
112956,"210 CASHUA FERRY RD","DARLINGTON","SC",29532,34.3119736720001,-79.8561305009999,456,"210 CASHUA FERRY RD, DARLINGTON, SC, 29532","Match","Exact","210 CASHUA FERRY RD, DARLINGTON, SC, 29532",635571375,"L"
112957,"210 CEDAR LANE","MURCHISON","TX",75778,32.364842235,-95.70084315,457,"210 CEDAR LANE, MURCHISON, TX, 75778","Match","Non_Exact","210 E CEDAR LN, MURCHISON, TX, 75778",42923141,"L"
112958,"210 CHEVAL CIR SE","BROWNSBORO","AL",35741,34.7081496480001,-86.509066452,458,"210 CHEVAL CIR SE, BROWNSBORO, AL, 35741","Match","Non_Exact","210 CHEVAL CIR, BROWNSBORO, AL, 35741",58138769,"L"
112959,"210 CHURCH  STREET","MANCHESTER","KY",40962,37.1574813170001,-83.7682188429999,459,"210 CHURCH  STREET, MANCHESTER, KY, 40962","Match","Exact","210 CHURCH ST, MANCHESTER, KY, 40962",90832400,"L"
112960,"210 CLARKE ST","SYRACUSE","NY",13210,43.0390305920001,-76.1162238699999,460,"210 CLARKE ST, SYRACUSE, NY, 13210","Match","Exact","210 CLARKE ST, SYRACUSE, NY, 13210",46573661,"R"
112961,"210 CLINTON AVENUE","NORTH PLAINFIELD","NJ",7063,40.6013933840001,-74.444656121,461,"210 CLINTON AVENUE, NORTH PLAINFIELD, NJ, 7063","Match","Exact","210 CLINTON AVE, N PLAINFIELD, NJ, 07063",60602272,"R"
112962,"210 CLYDE AVE","SMYRNA","TN",37167,35.982187363,-86.530044871,462,"210 CLYDE AVE, SMYRNA, TN, 37167","Match","Exact","210 CLYDE AVE, SMYRNA, TN, 37167",59033968,"R"
112963,"210 COLUMBIA STREET UNIT 4","CAMBRIDGE","MA",2139,42.3682742730001,-71.0971175399999,463,"210 COLUMBIA STREET UNIT 4, CAMBRIDGE, MA, 2139","Match","Exact","210 COLUMBIA ST, CAMBRIDGE, MA, 02139",86869436,"R"
112964,"210 COMMERCIAL ST    PO BOX 272","BROOKLYN","WI",53521,42.8532914560001,-89.3704991559999,464,"210 COMMERCIAL ST    PO BOX 272, BROOKLYN, WI, 53521","Match","Exact","210 COMMERCIAL ST, BROOKLYN, WI, 53521",48528365,"R"
112965,"210 COMPTON DRIVE","WAXAHACHIE","TX",75167,32.380920098,-96.8706758929999,465,"210 COMPTON DRIVE, WAXAHACHIE, TX, 75167","Match","Exact","210 COMPTON DR, WAXAHACHIE, TX, 75167",103449138,"L"
112966,"210 CONTINENTE AVE","BRENTWOOD","CA",94513,37.9218106960001,-121.706964252,466,"210 CONTINENTE AVE, BRENTWOOD, CA, 94513","Match","Exact","210 CONTINENTE AVE, BRENTWOOD, CA, 94513",633748862,"L"
112967,"210 COTTAGE AVENUE","WESTON","WV",26452,39.033142705,-80.465039702,467,"210 COTTAGE AVENUE, WESTON, WV, 26452","Match","Exact","210 COTTAGE AVE, WESTON, WV, 26452",639828547,"L"
112968,"210 COUNTY ROAD 6877","NATALIA","TX",78059,29.1838612930001,-98.815665704,468,"210 COUNTY ROAD 6877, NATALIA, TX, 78059","Match","Exact","210 CO RD 6877, NATALIA, TX, 78059",629624114,"L"
112969,"210 COWANSHANNOCK AVENUE","RURAL VALLEY","PA",16249,NA,NA,469,"210 COWANSHANNOCK AVENUE, RURAL VALLEY, PA, 16249","No_Match",NA,NA,NA,NA
112970,"210 CR 289 PO BOX 31","PACHUTA","MS",39347,32.0271183570001,-88.870031259,470,"210 CR 289 PO BOX 31, PACHUTA, MS, 39347","Match","Non_Exact","210 CO RD 289, PACHUTA, MS, 39347",649411023,"L"
112971,"210 CRESCENT CIRCLE","CHICKAMAUGA","GA",30707,34.871311393,-85.297521274,471,"210 CRESCENT CIRCLE, CHICKAMAUGA, GA, 30707","Match","Non_Exact","210 CRESCENT AVE, CHICKAMAUGA, GA, 30707",66712260,"R"
112972,"210 CROSSGATE DRIVE","CHURCH HILL","MD",21623,39.1415278060001,-75.982158106,472,"210 CROSSGATE DRIVE, CHURCH HILL, MD, 21623","Match","Exact","210 CROSSGATE DR, CHURCH HILL, MD, 21623",625747758,"R"
112973,"210 CRYSTAL ST SUITE A","CARY","IL",60013,42.2104275880001,-88.243541208,473,"210 CRYSTAL ST SUITE A, CARY, IL, 60013","Match","Exact","210 CRYSTAL ST, CARY, IL, 60013",119823887,"L"
112974,"210 CUMBERLAND ST","GLOUCESTER CITY","NJ",8030,39.8974726490001,-75.1255449179999,474,"210 CUMBERLAND ST, GLOUCESTER CITY, NJ, 8030","Match","Exact","210 CUMBERLAND ST, GLOUCESTER CITY, NJ, 08030",134346652,"R"
112975,"210 CUMBERLAND STREET","GLOUCESTER CITY","NJ",8030,39.8974726490001,-75.1255449179999,475,"210 CUMBERLAND STREET, GLOUCESTER CITY, NJ, 8030","Match","Exact","210 CUMBERLAND ST, GLOUCESTER CITY, NJ, 08030",134346652,"R"
112976,"210 CYANAMID LANE","ANDERSONVILLE","GA",31711,32.197756371,-84.1362540539999,476,"210 CYANAMID LANE, ANDERSONVILLE, GA, 31711","Match","Exact","210 CYANAMID LN, ANDERSONVILLE, GA, 31711",653489565,"L"
112977,"210 DELBURG STREET","MOORESVILLE","NC",28117,NA,NA,477,"210 DELBURG STREET, MOORESVILLE, NC, 28117","No_Match",NA,NA,NA,NA
112978,"210 DEVOE ST","JACKSONVILLE","FL",32220,30.3247356210001,-81.7951179519999,478,"210 DEVOE ST, JACKSONVILLE, FL, 32220","Match","Exact","210 DEVOE ST, JACKSONVILLE, FL, 32220",83957289,"L"
112979,"210 DEVON LN","WILMER","TX",75172,32.605722132,-96.6975280679999,479,"210 DEVON LN, WILMER, TX, 75172","Match","Non_Exact","210 DEVON, WILMER, TX, 75172",103218524,"R"
112980,"210 DIVISION ST","SANDSTONE","MN",55072,46.127654368,-92.8675516759999,480,"210 DIVISION ST, SANDSTONE, MN, 55072","Match","Exact","210 DIVISION ST, SANDSTONE, MN, 55072",163093641,"R"
112981,"210 DOWNING DRIVE","GALT","CA",95632,38.2440918410001,-121.312574144,481,"210 DOWNING DRIVE, GALT, CA, 95632","Match","Exact","210 DOWNING DR, GALT, CA, 95632",133317103,"L"
112982,"210 DOWNY DR","HAMPSTEAD","NC",28443,34.3780783300001,-77.7081447309999,482,"210 DOWNY DR, HAMPSTEAD, NC, 28443","Match","Exact","210 DOWNY DR, HAMPSTEAD, NC, 28443",652094091,"R"
112983,"210 E 2ND ST","NORBORNE","MO",64668,39.302770642,-93.675214266,483,"210 E 2ND ST, NORBORNE, MO, 64668","Match","Exact","210 E 2ND ST, NORBORNE, MO, 64668",20815805,"L"
112984,"210 E 3RD ST","GOLDEN","IL",62339,40.1091038430001,-91.0158604119999,484,"210 E 3RD ST, GOLDEN, IL, 62339","Match","Exact","210 E 3RD ST, GOLDEN, IL, 62339",35075796,"L"
112985,"210 E 51 STREET","BROOKLYN","NY",11203,40.657040399,-73.929940131,485,"210 E 51 STREET, BROOKLYN, NY, 11203","Match","Exact","210 E 51ST ST, BROOKLYN, NY, 11203",59083546,"R"
112986,"210 E 78TH AVE","MERRILLVILLE","IN",46410,NA,NA,486,"210 E 78TH AVE, MERRILLVILLE, IN, 46410","Tie",NA,NA,NA,NA
112987,"210 E AUGUSTA LN","SLIDELL","LA",70458,30.2346543560001,-89.7894723919999,487,"210 E AUGUSTA LN, SLIDELL, LA, 70458","Match","Exact","210 E AUGUSTA LN, SLIDELL, LA, 70458",111284066,"R"
112988,"210 E BIDDLE STREET","BALTIMORE","MD",21202,39.303582836,-76.6125484139999,488,"210 E BIDDLE STREET, BALTIMORE, MD, 21202","Match","Exact","210 E BIDDLE ST, BALTIMORE, MD, 21202",206419496,"L"
112989,"210 E CHARLESTON AVE","WILDWOOD CREST","NJ",8260,38.9635966660001,-74.848494923,489,"210 E CHARLESTON AVE, WILDWOOD CREST, NJ, 8260","Match","Exact","210 E CHARLESTON AVE, WILDWOOD CREST, NJ, 08260",174333105,"L"
112990,"210 E DOZIER STREET","MARION","SC",29571,34.1792852,-79.398858049,490,"210 E DOZIER STREET, MARION, SC, 29571","Match","Exact","210 E DOZIER ST, MARION, SC, 29571",28773198,"L"
112991,"210 E ELLIS ST","BELDING","MI",48809,43.1034770530001,-85.2263878919999,491,"210 E ELLIS ST, BELDING, MI, 48809","Match","Exact","210 E ELLIS ST, BELDING, MI, 48809",12148079,"L"
112992,"210 E FORSYTH STREET","JACKSONVILLE","FL",32202,30.326426526,-81.6551429689999,492,"210 E FORSYTH STREET, JACKSONVILLE, FL, 32202","Match","Exact","210 E FORSYTH ST, JACKSONVILLE, FL, 32202",83899819,"R"
112993,"210 E HUDSPETH ST","WELCH","LA",70591,30.23568914,-92.820485999,493,"210 E HUDSPETH ST, WELCH, LA, 70591","Match","Non_Exact","210 E HUDSPETH ST, WELSH, LA, 70591",88213420,"R"
112994,"210 E IVY AVE 5","INGLEWOOD","CA",90302,NA,NA,494,"210 E IVY AVE 5, INGLEWOOD, CA, 90302","Tie",NA,NA,NA,NA
112995,"210 E KNOB HILL DRIVE","ARLINGTON HEIGHTS","IN",60004,NA,NA,495,"210 E KNOB HILL DRIVE, ARLINGTON HEIGHTS, IN, 60004","No_Match",NA,NA,NA,NA
112996,"210 E LIBERTY ST","CHARLES TOWN","WV",25414,39.290394991,-77.858918999,496,"210 E LIBERTY ST, CHARLES TOWN, WV, 25414","Match","Exact","210 E LIBERTY ST, CHARLES TOWN, WV, 25414",123421945,"L"
112997,"210 E LIVE OAK ST","SEGUIN","TX",78155,29.565952313,-97.96358266,497,"210 E LIVE OAK ST, SEGUIN, TX, 78155","Match","Exact","210 E LIVE OAK ST, SEGUIN, TX, 78155",54828375,"L"
112998,"210 E MAIN ST","AVON","MA",2322,42.1251667560001,-71.035498622,498,"210 E MAIN ST, AVON, MA, 2322","Match","Exact","210 E MAIN ST, AVON, MA, 02322",87311046,"R"
112999,"210 E MAIN ST","HOOKERTON","NC",28538,35.4245892280001,-77.589116017,499,"210 E MAIN ST, HOOKERTON, NC, 28538","Match","Exact","210 E MAIN ST, HOOKERTON, NC, 28538",26505539,"L"
113000,"210 E MAIN STREET","LAGRANGE","KY",40031,38.407837789,-85.377524636,500,"210 E MAIN STREET, LAGRANGE, KY, 40031","Match","Exact","210 E MAIN ST, LAGRANGE, KY, 40031",130914169,"L"
