"ID","Address","City","State","Zip","lat","long","id","input_address","match_indicator","match_type","matched_address","tiger_line_id","tiger_side"
280501,"7207 GARRETTS COVE COURT","HUMBLE","TX",77396,29.9330061700001,-95.279492034,1,"7207 GARRETTS COVE COURT, HUMBLE, TX, 77396","Match","Exact","7207 GARRETTS COVE CT, HUMBLE, TX, 77396",624604614,"R"
280502,"7207 HANOVER PKWY APT BC","BELTSVILLE","MD",20770,38.991584061,-76.8764825,2,"7207 HANOVER PKWY APT BC, BELTSVILLE, MD, 20770","Match","Non_Exact","7207 HANOVER PKWY, GREENBELT, MD, 20770",638324289,"R"
280503,"7207 KYLE AVE","BROOKLYN CENTER","MN",55429,45.0855543270001,-93.337115475,3,"7207 KYLE AVE, BROOKLYN CENTER, MN, 55429","Match","Non_Exact","7207 KYLE AVE N, BROOKLYN CENTER, MN, 55429",43829628,"L"
280504,"7207 LAKETREE DR","FAIRFAX STATION","VA",22039,38.758344848,-77.28980281,4,"7207 LAKETREE DR, FAIRFAX STATION, VA, 22039","Match","Exact","7207 LAKETREE DR, FAIRFAX STATION, VA, 22039",76013001,"L"
280505,"7207 LYNDSEY WAY","ELKRIDE","MD",21075,39.179272412,-76.7560099419999,5,"7207 LYNDSEY WAY, ELKRIDE, MD, 21075","Match","Non_Exact","7207 LYNDSEY WAY, ELKRIDGE, MD, 21075",618947354,"L"
280506,"7207 NORTHLAKE HEIGHTS CIR NE","ATLANTA","GA",30345,33.8511723240001,-84.248401277,6,"7207 NORTHLAKE HEIGHTS CIR NE, ATLANTA, GA, 30345","Match","Non_Exact","7207 NORTHLAKE HEIGHTS CIR, ATLANTA, GA, 30345",624619007,"R"
280507,"7207 RISING SUN AVENUE","PHILADELPHIA","PA",19111,40.059681002,-75.0856638389999,7,"7207 RISING SUN AVENUE, PHILADELPHIA, PA, 19111","Match","Exact","7207 RISING SUN AVE, PHILADELPHIA, PA, 19111",131415098,"R"
280508,"7207 ROCA WAY","SACRAMENTO","CA",95842,38.698101509,-121.333753476,8,"7207 ROCA WAY, SACRAMENTO, CA, 95842","Match","Exact","7207 ROCA WAY, SACRAMENTO, CA, 95842",133340762,"L"
280509,"7207 S CHRISTIANA AVE","CHICAGO","IL",60629,41.762268582,-87.706408024,9,"7207 S CHRISTIANA AVE, CHICAGO, IL, 60629","Match","Exact","7207 S CHRISTIANA AVE, CHICAGO, IL, 60629",111816966,"L"
280510,"7207 STUART STREET","PALATKA","FL",32177,29.639875832,-81.702548555,10,"7207 STUART STREET, PALATKA, FL, 32177","Match","Exact","7207 STUART ST, PALATKA, FL, 32177",86092496,"L"
280511,"7207 SURFBIRD CIR","CARLSBAD","CA",92011,33.1041608940001,-117.288546728,11,"7207 SURFBIRD CIR, CARLSBAD, CA, 92011","Match","Exact","7207 SURFBIRD CIR, CARLSBAD, CA, 92011",195461473,"R"
280512,"7207 WARD PARKWAY","KANSAS CITY","MO",64114,38.9979534890001,-94.603135819,12,"7207 WARD PARKWAY, KANSAS CITY, MO, 64114","Match","Non_Exact","7207 WARD PKWY N, KANSAS CITY, MO, 64114",91453849,"L"
280513,"7207 YARROW WAY","CITRUS HEIGHTS","CA",95610,38.6973086990001,-121.260773791,13,"7207 YARROW WAY, CITRUS HEIGHTS, CA, 95610","Match","Exact","7207 YARROW WAY, CITRUS HEIGHTS, CA, 95610",133383543,"L"
280514,"7208 BELLWEATHER COURT N","RALEIGH","NC",27615,NA,NA,14,"7208 BELLWEATHER COURT N, RALEIGH, NC, 27615","No_Match",NA,NA,NA,NA
280515,"7208 BOYD LANE","LAS VEGAS","NV",89121,36.2910274880001,-115.222130871,15,"7208 BOYD LANE, LAS VEGAS, NV, 89121","Match","Non_Exact","7208 BOYD LN, LAS VEGAS, NV, 89131",201857557,"L"
280516,"7208 GRAMMER DRIVE","FAIRVIEW","TN",37062,NA,NA,16,"7208 GRAMMER DRIVE, FAIRVIEW, TN, 37062","No_Match",NA,NA,NA,NA
280517,"7208 HACKBERRY CIR","MANHATTAN","KS",66503,39.374780205,-96.7104753679999,17,"7208 HACKBERRY CIR, MANHATTAN, KS, 66503","Match","Exact","7208 HACKBERRY CIR, MANHATTAN, KS, 66503",27790948,"L"
280518,"7208 LARCHMONT DR","SACRAMENTO","CA",95660,38.698405042,-121.375887398,18,"7208 LARCHMONT DR, SACRAMENTO, CA, 95660","Match","Non_Exact","7208 LARCHMONT DR, NORTH HIGHLANDS, CA, 95660",133427759,"R"
280519,"7208 NE HAZEL DELL AVENUE  SUITE A","VANCOUVER","WA",98665,45.6741780340001,-122.668231218,19,"7208 NE HAZEL DELL AVENUE  SUITE A, VANCOUVER, WA, 98665","Match","Non_Exact","7208 NE HAZEL DELL AVE, VANCOUVER, WA, 98665",158322947,"L"
280520,"7208 NE HAZEL DELL AVENUE","VANCOUVER","WA",98665,45.6741780340001,-122.668231218,20,"7208 NE HAZEL DELL AVENUE, VANCOUVER, WA, 98665","Match","Exact","7208 NE HAZEL DELL AVE, VANCOUVER, WA, 98665",158322947,"L"
280521,"7208 PERRYWOOD DRIVE","UPPER MARLBORO","MD",20772,38.788857835,-76.824158516,21,"7208 PERRYWOOD DRIVE, UPPER MARLBORO, MD, 20772","Match","Non_Exact","7208 PERRYWOOD RD, UPPER MARLBORO, MD, 20772",624711213,"L"
280522,"7208 STANDREWS RD","ST. LOUIS","MO",63121,NA,NA,22,"7208 STANDREWS RD, ST. LOUIS, MO, 63121","No_Match",NA,NA,NA,NA
280523,"7208 TESSERA PKWY","LAGO VISTA","TX",78645,30.478263058,-98.0016885859999,23,"7208 TESSERA PKWY, LAGO VISTA, TX, 78645","Match","Exact","7208 TESSERA PKWY, LAGO VISTA, TX, 78645",641737526,"R"
280524,"7208 W SAND LAKE RD / SUIT 305","ORLANDO","FL",32819,28.449995625,-81.478975379,24,"7208 W SAND LAKE RD / SUIT 305, ORLANDO, FL, 32819","Match","Non_Exact","7208 W SAND LAKE RD, ORLANDO, FL, 32819",617827079,"L"
280525,"7208 W WESTCHESTER CT","MEQUON","WI",53092,43.232345889,-87.998617909,25,"7208 W WESTCHESTER CT, MEQUON, WI, 53092","Match","Exact","7208 W WESTCHESTER CT, MEQUON, WI, 53092",95907465,"R"
280526,"7208 WALDEN CROSSING DRIVE","CANTON","GA",30115,NA,NA,26,"7208 WALDEN CROSSING DRIVE, CANTON, GA, 30115","No_Match",NA,NA,NA,NA
280527,"7208 WOODHAVEN RD","LOUISVILLE","KY",40291,38.1734666290001,-85.626445657,27,"7208 WOODHAVEN RD, LOUISVILLE, KY, 40291","Match","Exact","7208 WOODHAVEN RD, LOUISVILLE, KY, 40291",96884725,"R"
280528,"7209 55TH ST E","ELLENTON","FL",34222,27.5618539110001,-82.490287856,28,"7209 55TH ST E, ELLENTON, FL, 34222","Match","Exact","7209 55TH ST E, ELLENTON, FL, 34222",624278874,"R"
280529,"7209 ABBINGTON DRIVE","OXON HILL","MD",20745,38.791505649,-77.0007381299999,29,"7209 ABBINGTON DRIVE, OXON HILL, MD, 20745","Match","Exact","7209 ABBINGTON DR, OXON HILL, MD, 20745",76315084,"R"
280530,"7209 CANNONBURY DR APT F","NEW ORLEANS","LA",70126,30.028804215,-90.019619119,30,"7209 CANNONBURY DR APT F, NEW ORLEANS, LA, 70126","Match","Exact","7209 CANNONBURY DR, NEW ORLEANS, LA, 70126",191705308,"R"
280531,"7209 DIXIE HIGHWAY","FAIRFIELD","OH",45014,39.3094227500001,-84.4874569519999,31,"7209 DIXIE HIGHWAY, FAIRFIELD, OH, 45014","Match","Exact","7209 DIXIE HWY, FAIRFIELD, OH, 45014",653455648,"R"
280532,"7209 E WT HARRIS BLVD NUM 245","CHARLOTE","NC",28227,35.2217333620001,-80.7241962429999,32,"7209 E WT HARRIS BLVD NUM 245, CHARLOTE, NC, 28227","Match","Non_Exact","7209 E WT HARRIS BLVD, CHARLOTTE, NC, 28227",70493835,"R"
280533,"7209 E WT HARRIS BLVD SUITE 1","CHARLOTTE","NC",28227,35.2217333620001,-80.7241962429999,33,"7209 E WT HARRIS BLVD SUITE 1, CHARLOTTE, NC, 28227","Match","Non_Exact","7209 E WT HARRIS BLVD, CHARLOTTE, NC, 28227",70493835,"R"
280534,"7209 E WT HARRIS BLVD SUITE J129","CHARLOTTE","NC",28227,35.2217333620001,-80.7241962429999,34,"7209 E WT HARRIS BLVD SUITE J129, CHARLOTTE, NC, 28227","Match","Non_Exact","7209 E WT HARRIS BLVD, CHARLOTTE, NC, 28227",70493835,"R"
280535,"7209 EAST WT HARRIS BLVD STE J 105","CHARLOTTE","NC",28227,35.22174671,-80.7242027729999,35,"7209 EAST WT HARRIS BLVD STE J 105, CHARLOTTE, NC, 28227","Match","Exact","7209 E WT HARRIS BLVD, CHARLOTTE, NC, 28227",70493835,"R"
280536,"7209 ENGLE ROAD","FORT WAYNE","IN",46804,41.044157651,-85.237147045,36,"7209 ENGLE ROAD, FORT WAYNE, IN, 46804","Match","Exact","7209 ENGLE RD, FORT WAYNE, IN, 46804",652297158,"R"
280537,"7209 FLANNIGAN RD","ORLEANS","MI",48865,43.09116162,-85.119826143,37,"7209 FLANNIGAN RD, ORLEANS, MI, 48865","Match","Exact","7209 FLANNIGAN RD, ORLEANS, MI, 48865",12152983,"L"
280538,"7209 HWY 93","ARNAUDVILLE","LA",70512,30.4048505330001,-91.996569439,38,"7209 HWY 93, ARNAUDVILLE, LA, 70512","Match","Non_Exact","7209 STATE RTE 93, ARNAUDVILLE, LA, 70512",106441829,"L"
280539,"7209 LANCASTER PIKE STE 4-3041","HOCKESSIN","DE",19707,39.787952825,-75.693353211,39,"7209 LANCASTER PIKE STE 4-3041, HOCKESSIN, DE, 19707","Match","Exact","7209 LANCASTER PIKE, HOCKESSIN, DE, 19707",187252007,"L"
280540,"7209 LANCASTER PIKE SUITE 4-1130","HOCKESSIN","DE",19707,39.787952825,-75.693353211,40,"7209 LANCASTER PIKE SUITE 4-1130, HOCKESSIN, DE, 19707","Match","Exact","7209 LANCASTER PIKE, HOCKESSIN, DE, 19707",187252007,"L"
280541,"7209 LONG CANYON TRAIL","DALLAS","TX",75249,32.64115903,-96.950402644,41,"7209 LONG CANYON TRAIL, DALLAS, TX, 75249","Match","Exact","7209 LONG CANYON TRL, DALLAS, TX, 75249",102941564,"R"
280542,"7209 ST ANDREWS DR","BAKERSFIELD","CA",93309,35.343877519,-119.081601658,42,"7209 ST ANDREWS DR, BAKERSFIELD, CA, 93309","Match","Exact","7209 SAINT ANDREWS DR, BAKERSFIELD, CA, 93309",109135305,"R"
280543,"7209 STOCKTON DR","KNOXVILLE","TN",37909,35.938211692,-84.031159078,43,"7209 STOCKTON DR, KNOXVILLE, TN, 37909","Match","Exact","7209 STOCKTON DR, KNOXVILLE, TN, 37909",42615165,"R"
280544,"7209 W WT HARRIS BLVD SUITEJ56","CHARLOTTE","NC",28227,35.2217333620001,-80.7241962429999,44,"7209 W WT HARRIS BLVD SUITEJ56, CHARLOTTE, NC, 28227","Match","Non_Exact","7209 E WT HARRIS BLVD, CHARLOTTE, NC, 28227",70493835,"R"
280545,"721 10TH ST","GALVESTON","TX",77550,29.3065818330001,-94.778008975,45,"721 10TH ST, GALVESTON, TX, 77550","Match","Exact","721 10TH ST, GALVESTON, TX, 77550",96692933,"R"
280546,"721 1ST AVE N SUITE 200","SAINT PETERSBURG","FL",33701,27.7720648260001,-82.644134414,46,"721 1ST AVE N SUITE 200, SAINT PETERSBURG, FL, 33701","Match","Exact","721 1ST AVE N, SAINT PETERSBURG, FL, 33701",124708064,"R"
280547,"721 1ST STREET SW","MOULTRIE","GA",31768,31.172690469,-83.790108119,47,"721 1ST STREET SW, MOULTRIE, GA, 31768","Match","Exact","721 1ST ST SW, MOULTRIE, GA, 31768",84234333,"R"
280548,"721 6TH AVENUE NW","ARDMORE","OK",73401,34.1812406820001,-97.136756689,48,"721 6TH AVENUE NW, ARDMORE, OK, 73401","Match","Exact","721 6TH AVE NW, ARDMORE, OK, 73401",14828474,"R"
280549,"721 7TH STREET STE A","EUREKA","CA",95501,40.8006199020001,-124.163106434,49,"721 7TH STREET STE A, EUREKA, CA, 95501","Match","Exact","721 7TH ST, EUREKA, CA, 95501",112989190,"L"
280550,"721 A MISSISSIPPI AVE","CRYSTAL CITY","MO",63019,38.2273083600001,-90.3778640629999,50,"721 A MISSISSIPPI AVE, CRYSTAL CITY, MO, 63019","Match","Exact","721 MISSISSIPPI AVE, CRYSTAL CITY, MO, 63019",649424221,"L"
280551,"721 ARGYLE PLACE","TEMPLE TERRACE","FL",33617,28.039175389,-82.374510458,51,"721 ARGYLE PLACE, TEMPLE TERRACE, FL, 33617","Match","Exact","721 ARGYLE PL, TEMPLE TER, FL, 33617",104570043,"R"
280552,"721 ASCOT DRIVE","MAINEVILLE","OH",45039,39.3112481310001,-84.2368809399999,52,"721 ASCOT DRIVE, MAINEVILLE, OH, 45039","Match","Exact","721 ASCOT DR, MAINEVILLE, OH, 45039",159044499,"R"
280553,"721 ASH DRIVE","HANOVER","PA",17331,39.815009887,-76.9690645329999,53,"721 ASH DRIVE, HANOVER, PA, 17331","Match","Exact","721 ASH DR, HANOVER, PA, 17331",88745486,"R"
280554,"721 AVERY ST","LOWELL","MI",49331,42.936592422,-85.331175588,54,"721 AVERY ST, LOWELL, MI, 49331","Match","Exact","721 AVERY ST, LOWELL, MI, 49331",12507401,"L"
280555,"721 BERNARD ST","MIDDLEVILLE","MI",49333,42.7162594500001,-85.475000558,55,"721 BERNARD ST, MIDDLEVILLE, MI, 49333","Match","Exact","721 BERNARD ST, MIDDLEVILLE, MI, 49333",10529954,"L"
280556,"721 BOARDMAN-POLAND RD","BOARDMAN","OH",44512,NA,NA,56,"721 BOARDMAN-POLAND RD, BOARDMAN, OH, 44512","No_Match",NA,NA,NA,NA
280557,"721 BRADDOCK AVENUE","BRADDOCK","PA",15104,40.4018421050001,-79.8666081329999,57,"721 BRADDOCK AVENUE, BRADDOCK, PA, 15104","Match","Exact","721 BRADDOCK AVE, BRADDOCK, PA, 15104",51690679,"L"
280558,"721 BRANDYWINE ST SE","WASHINGTON","DC",20032,38.830076585,-76.9957615709999,58,"721 BRANDYWINE ST SE, WASHINGTON, DC, 20032","Match","Exact","721 BRANDYWINE ST SE, WASHINGTON, DC, 20032",76232612,"R"
280559,"721 BROADWAY STE U70","KINGSTON","NY",12401,41.9315040490001,-74.0097535689999,59,"721 BROADWAY STE U70, KINGSTON, NY, 12401","Match","Exact","721 BROADWAY, KINGSTON, NY, 12401",613183280,"L"
280560,"721 BURLESON","SAN ANTONIO","TX",78202,29.4326964160001,-98.469864587,60,"721 BURLESON, SAN ANTONIO, TX, 78202","Match","Non_Exact","721 BURLESON ST, SAN ANTONIO, TX, 78202",101528173,"L"
280561,"721 CARSONIA AVE","READING","PA",19606,40.3380609000001,-75.881094246,61,"721 CARSONIA AVE, READING, PA, 19606","Match","Exact","721 CARSONIA AVE, READING, PA, 19606",642114787,"R"
280562,"721 CAVE SPRINGS RD","SMITHLAND","KY",42081,37.371101394,-88.429321832,62,"721 CAVE SPRINGS RD, SMITHLAND, KY, 42081","Match","Exact","721 CAVE SPRINGS RD, SMITHLAND, KY, 42081",8366256,"R"
280563,"721 CLIFF ST","ITHACA","NY",14850,42.448308615,-76.517031214,63,"721 CLIFF ST, ITHACA, NY, 14850","Match","Exact","721 CLIFF ST, ITHACA, NY, 14850",636423342,"R"
280564,"721 COTTONWOOD DR","SEVERNA PARK","MD",21146,39.07788901,-76.562290059,64,"721 COTTONWOOD DR, SEVERNA PARK, MD, 21146","Match","Exact","721 COTTONWOOD DR, SEVERNA PARK, MD, 21146",68167677,"L"
280565,"721 COVENTRY LANE V","FLORENCE","SC",29501,34.186773895,-79.882824999,65,"721 COVENTRY LANE V, FLORENCE, SC, 29501","Match","Exact","721 COVENTRY LN, FLORENCE, SC, 29501",28875516,"R"
280566,"721 DEANNE STREET","LARNED","KS",67550,NA,NA,66,"721 DEANNE STREET, LARNED, KS, 67550","No_Match",NA,NA,NA,NA
280567,"721 DEPOT DRIVE","ANCHORAGE","AL",99501,NA,NA,67,"721 DEPOT DRIVE, ANCHORAGE, AL, 99501","No_Match",NA,NA,NA,NA
280568,"721 DUNN ROAD","HAZEWLWOOD","MO",63042,38.7819451030001,-90.373004588,68,"721 DUNN ROAD, HAZEWLWOOD, MO, 63042","Match","Non_Exact","721 DUNN RD, HAZELWOOD, MO, 63042",100184820,"R"
280569,"721 E ENCHANTED DRIVE","MIDVALE","UT",84047,NA,NA,69,"721 E ENCHANTED DRIVE, MIDVALE, UT, 84047","Tie",NA,NA,NA,NA
280570,"721 E HIGH ST","FARMER CITY","IL",61842,40.244932185,-88.635150005,70,"721 E HIGH ST, FARMER CITY, IL, 61842","Match","Exact","721 E HIGH ST, FARMER CITY, IL, 61842",20506322,"R"
280571,"721 E PEACH STREET 1ST FL","VINELAND","NJ",8360,39.489994433,-75.02016069,71,"721 E PEACH STREET 1ST FL, VINELAND, NJ, 8360","Match","Non_Exact","721 E PEACH ST, VINELAND, NJ, 08360",174110807,"R"
280572,"721 EADON RD","TOLEDO","WA",98591,46.4533427470001,-122.765213576,72,"721 EADON RD, TOLEDO, WA, 98591","Match","Exact","721 EADON RD, TOLEDO, WA, 98591",180721455,"L"
280573,"721 EAST SKYLINE PARKWAY","DULUTH","MN",55805,46.802881455,-92.103889409,73,"721 EAST SKYLINE PARKWAY, DULUTH, MN, 55805","Match","Exact","721 E SKYLINE PKWY, DULUTH, MN, 55805",163211601,"L"
280574,"721 EDGE HILL ROAD","FAYETTEVILLE","NC",28314,35.049942779,-78.9710451569999,74,"721 EDGE HILL ROAD, FAYETTEVILLE, NC, 28314","Match","Non_Exact","721 EDGEHILL RD, FAYETTEVILLE, NC, 28314",64195959,"L"
280575,"721 EVELYN AVE","KANNAPOLIS","NC",28083,35.5046238090001,-80.5966378379999,75,"721 EVELYN AVE, KANNAPOLIS, NC, 28083","Match","Exact","721 EVELYN AVE, KANNAPOLIS, NC, 28083",25272759,"L"
280576,"721 EVERGREEN CT","BURLESON","TX",76028,32.5676202280001,-97.330465757,76,"721 EVERGREEN CT, BURLESON, TX, 76028","Match","Exact","721 EVERGREEN CT, BURLESON, TX, 76028",102189055,"R"
280577,"721 FAIRVIEW AVE","ARCADIA","CA",91007,34.128912889,-118.055705055,77,"721 FAIRVIEW AVE, ARCADIA, CA, 91007","Match","Exact","721 FAIRVIEW AVE, ARCADIA, CA, 91007",141644398,"R"
280578,"721 FRANLYN DRIVE","DALLASTOWN","PA",17313,39.9085051810001,-76.643762136,78,"721 FRANLYN DRIVE, DALLASTOWN, PA, 17313","Match","Exact","721 FRANLYN DR, DALLASTOWN, PA, 17313",88736085,"R"
280579,"721 FRAYNE WAY","SACRAMENTO","CA",95838,38.6515095390001,-121.449254252,79,"721 FRAYNE WAY, SACRAMENTO, CA, 95838","Match","Exact","721 FRAYNE WAY, SACRAMENTO, CA, 95838",618067040,"L"
280580,"721 FRISELLA ST","TERRYTOWN","LA",70056,29.913689608,-90.037685456,80,"721 FRISELLA ST, TERRYTOWN, LA, 70056","Match","Exact","721 FRISELLA ST, TERRYTOWN, LA, 70056",639162672,"L"
280581,"721 GATLIN AVE","ORLANDO","FL",32806,28.494251907,-81.3683343289999,81,"721 GATLIN AVE, ORLANDO, FL, 32806","Match","Exact","721 GATLIN AVE, ORLANDO, FL, 32806",94393002,"L"
280582,"721 HYDE DRIVE","OFALLON","MO",63366,38.798334653,-90.741128596,82,"721 HYDE DRIVE, OFALLON, MO, 63366","Match","Non_Exact","721 HYDE DR, O FALLON, MO, 63366",617667515,"R"
280583,"721 INDIAN TRAIL BLVD","TRAVERSE CITY","MI",49686,44.7531542420001,-85.5746528509999,83,"721 INDIAN TRAIL BLVD, TRAVERSE CITY, MI, 49686","Match","Exact","721 INDIAN TRAIL BLVD, TRAVERSE CITY, MI, 49686",644931517,"L"
280584,"721 JUNE LAKE LANE","BRANDON","FL",33510,27.9590282410001,-82.2976723529999,84,"721 JUNE LAKE LANE, BRANDON, FL, 33510","Match","Exact","721 JUNE LAKE LN, BRANDON, FL, 33510",104615112,"L"
280585,"721 KENDALL CROSSING DRIVE","ST JOHN","FL",32259,30.0183953220001,-81.631167325,85,"721 KENDALL CROSSING DRIVE, ST JOHN, FL, 32259","Match","Non_Exact","721 KENDALL CROSSING DR, SAINT JOHNS, FL, 32259",653174533,"R"
280586,"721 KENDALL LANE","BOULDER CITY","NV",89005,35.9964017710001,-114.836469474,86,"721 KENDALL LANE, BOULDER CITY, NV, 89005","Match","Exact","721 KENDALL LN, BOULDER CITY, NV, 89005",201925386,"R"
280587,"721 LAFAYETTE HIGHWAY","ROANOKE","AL",36274,33.139968073,-85.36235063,87,"721 LAFAYETTE HIGHWAY, ROANOKE, AL, 36274","Match","Exact","721 LAFAYETTE HWY, ROANOKE, AL, 36274",1626737,"R"
280588,"721 LAKEVIEW DRIVE","DEVILS LAKE","ND",58301,48.0627133770001,-98.785697768,88,"721 LAKEVIEW DRIVE, DEVILS LAKE, ND, 58301","Match","Non_Exact","721 LAKE VIEW DR, DEVILS LAKE, ND, 58301",639849729,"R"
280589,"721 LAMI STREET","SAINT LOUIS","MO",63104,38.603420295,-90.205532487,89,"721 LAMI STREET, SAINT LOUIS, MO, 63104","Match","Exact","721 LAMI ST, SAINT LOUIS, MO, 63104",605125432,"R"
280590,"721 LONGPOINT ROAD SUITE 405","MOUNT PLEASANT","SC",29464,32.8418647030001,-79.85181711,90,"721 LONGPOINT ROAD SUITE 405, MOUNT PLEASANT, SC, 29464","Match","Non_Exact","721 LONG POINT RD, MOUNT PLEASANT, SC, 29464",108899330,"L"
280591,"721 LULLABY COURT","CINCINNATI","OH",45238,39.106146999,-84.611988808,91,"721 LULLABY COURT, CINCINNATI, OH, 45238","Match","Exact","721 LULLABY CT, CINCINNATI, OH, 45238",103918530,"L"
280592,"721 MAGNOLIA AVE","CROSBY","TX",77532,29.8663869260001,-95.07349637,92,"721 MAGNOLIA AVE, CROSBY, TX, 77532","Match","Exact","721 MAGNOLIA AVE, CROSBY, TX, 77532",96554789,"L"
280593,"721 MAIN STREET","HOXIE","KS",67740,39.353080909,-100.441950142,93,"721 MAIN STREET, HOXIE, KS, 67740","Match","Exact","721 MAIN ST, HOXIE, KS, 67740",196506920,"L"
280594,"721 MCLEAN AVE","POINT PLEASANT BEACH","NJ",8742,40.093772404,-74.053042462,94,"721 MCLEAN AVE, POINT PLEASANT BEACH, NJ, 8742","Match","Exact","721 MCLEAN AVE, PT PLEASANT BEACH, NJ, 08742",203734392,"R"
280595,"721 N 31ST STREET","KANSAS CITY","KS",66102,39.1134651990001,-94.6640989269999,95,"721 N 31ST STREET, KANSAS CITY, KS, 66102","Match","Exact","721 N 31ST ST, KANSAS CITY, KS, 66102",91139641,"R"
280596,"721 N 3RD STREET","LAWRENCE","KS",66044,38.9834019690001,-95.2332060639999,96,"721 N 3RD STREET, LAWRENCE, KS, 66044","Match","Exact","721 N 3RD ST, LAWRENCE, KS, 66044",17683862,"L"
280597,"721 N AVENUE F","FREEPORT","TX",77541,28.9677946900001,-95.366001954,97,"721 N AVENUE F, FREEPORT, TX, 77541","Match","Exact","721 N AVE F, FREEPORT, TX, 77541",116581975,"R"
280598,"721 N B STREET SUITE 27","SACRAMENTO","CA",95811,38.59203754,-121.491487269,98,"721 N B STREET SUITE 27, SACRAMENTO, CA, 95811","Match","Non_Exact","721 N B ST, SACRAMENTO, CA, 95811",640620516,"L"
280599,"721 N COCKRELL HILL ROAD","DESOTO","TX",75115,32.5989042670001,-96.891445623,99,"721 N COCKRELL HILL ROAD, DESOTO, TX, 75115","Match","Exact","721 N COCKRELL HILL RD, DESOTO, TX, 75115",103263727,"R"
280600,"721 N MONTEREY ST SUITE 101","GILBERT","AZ",85233,NA,NA,100,"721 N MONTEREY ST SUITE 101, GILBERT, AZ, 85233","Tie",NA,NA,NA,NA
280601,"721 N NANTES AVE","LA PUENTE","CA",91744,34.034031129,-117.95479813,101,"721 N NANTES AVE, LA PUENTE, CA, 91744","Match","Exact","721 N NANTES AVE, LA PUENTE, CA, 91744",141713357,"L"
280602,"721 N POINSETTIA PLACE","LOS ANGELES","CA",90046,34.083984731,-118.348657473,102,"721 N POINSETTIA PLACE, LOS ANGELES, CA, 90046","Match","Exact","721 N POINSETTIA PL, LOS ANGELES, CA, 90046",141599540,"L"
280603,"721 N SUNSET SP 35","BANNING","CA",92220,NA,NA,103,"721 N SUNSET SP 35, BANNING, CA, 92220","No_Match",NA,NA,NA,NA
280604,"721 NARCISSUS AVENUE","CORONA DEL MAR","CA",92625,33.598074411,-117.866513101,104,"721 NARCISSUS AVENUE, CORONA DEL MAR, CA, 92625","Match","Exact","721 NARCISSUS AVE, CORONA DEL MAR, CA, 92625",144050954,"L"
280605,"721 NARROWS ROAD","BIGLERVILLE","PA",17307,39.934746466,-77.3171348879999,105,"721 NARROWS ROAD, BIGLERVILLE, PA, 17307","Match","Exact","721 NARROWS RD, BIGLERVILLE, PA, 17307",60884056,"R"
280606,"721 NEW SCOTLAND AVENUE","ALBANY","NY",12208,42.6592294960001,-73.810328316,106,"721 NEW SCOTLAND AVENUE, ALBANY, NY, 12208","Match","Exact","721 NEW SCOTLAND AVE, ALBANY, NY, 12208",18307900,"R"
280607,"721 NORTH DAVIDSON ST UNIT E","CHARLOTTE","NC",28202,35.2279405680001,-80.83095731,107,"721 NORTH DAVIDSON ST UNIT E, CHARLOTTE, NC, 28202","Match","Exact","721 N DAVIDSON ST, CHARLOTTE, NC, 28202",70563966,"L"
280608,"721 NW 18TH ST","POMPANO BEACH","FL",33060,26.2530683310001,-80.133748377,108,"721 NW 18TH ST, POMPANO BEACH, FL, 33060","Match","Non_Exact","721 NW 18TH ST, POMPANO BEACH, FL, 33060",114741488,"R"
280609,"721 NW 9TH AVENUE STE 200","PORTLAND","OR",97209,45.528158874,-122.68026119,109,"721 NW 9TH AVENUE STE 200, PORTLAND, OR, 97209","Match","Non_Exact","721 NW 9TH AVE, PORTLAND, OR, 97209",157499072,"L"
280610,"721 PARKWAY DRIVE","MT. HOREB","WI",53572,43.0000724450001,-89.742834069,110,"721 PARKWAY DRIVE, MT. HOREB, WI, 53572","Match","Exact","721 PARKWAY DR, MOUNT HOREB, WI, 53572",49495755,"L"
280611,"721 PEMBERTON ST","PHILADELPHIA","PA",19147,39.940793672,-75.154907123,111,"721 PEMBERTON ST, PHILADELPHIA, PA, 19147","Match","Exact","721 PEMBERTON ST, PHILADELPHIA, PA, 19147",131441118,"R"
280612,"721 PHEASANT TRAIL","ST. CHARLES","IL",60174,41.92581347,-88.254608139,112,"721 PHEASANT TRAIL, ST. CHARLES, IL, 60174","Match","Exact","721 PHEASANT TRL, SAINT CHARLES, IL, 60174",112735600,"R"
280613,"721 PICKWICK PLACE","SHREVEPORT","LA",71108,32.425115261,-93.7765550889999,113,"721 PICKWICK PLACE, SHREVEPORT, LA, 71108","Match","Exact","721 PICKWICK PL, SHREVEPORT, LA, 71108",57439505,"R"
280614,"721 PINEY GROVE CHURCH RD","SILER CITY","NC",27344,35.757067959,-79.474427142,114,"721 PINEY GROVE CHURCH RD, SILER CITY, NC, 27344","Match","Exact","721 PINEY GROVE CHURCH RD, SILER CITY, NC, 27344",600318731,"L"
280615,"721 POLAND ROAD","AUBURN","ME",4210,44.0706966000001,-70.265357455,115,"721 POLAND ROAD, AUBURN, ME, 4210","Match","Exact","721 POLAND RD, AUBURN, ME, 04210",77976774,"R"
280616,"721 QUESTOVER DRIVE","CARTHAGE","IL",62321,40.4247166330001,-91.1328917559999,116,"721 QUESTOVER DRIVE, CARTHAGE, IL, 62321","Match","Exact","721 QUESTOVER DR, CARTHAGE, IL, 62321",5314926,"R"
280617,"721 RIDGE BROOK TRL","DULUTH","GA",30096,NA,NA,117,"721 RIDGE BROOK TRL, DULUTH, GA, 30096","No_Match",NA,NA,NA,NA
280618,"721 ROUTE 34","MATAWAN","NJ",7747,40.4149795750001,-74.2450865819999,118,"721 ROUTE 34, MATAWAN, NJ, 7747","Match","Non_Exact","721 STATE RTE 34, MATAWAN, NJ, 07747",90472449,"L"
280619,"721 RUFINA","LEAGUE CITY","TX",77573,29.496591729,-95.06882598,119,"721 RUFINA, LEAGUE CITY, TX, 77573","Match","Non_Exact","721 RUFINA ST, LEAGUE CITY, TX, 77573",616378760,"R"
280620,"721 S CALUMET AVE","MICHIGAN CITY","IN",46360,41.703066925,-86.8716681179999,120,"721 S CALUMET AVE, MICHIGAN CITY, IN, 46360","Match","Exact","721 S CALUMET AVE, MICHIGAN CITY, IN, 46360",15412792,"R"
280621,"721 S COURT STREET","GRAYVILLE","IL",62844,38.250821527,-87.996088512,121,"721 S COURT STREET, GRAYVILLE, IL, 62844","Match","Exact","721 S COURT ST, GRAYVILLE, IL, 62844",38210133,"R"
280622,"721 S MINERVA AVENUE","ROYAL OAK","MI",48067,42.484106571,-83.118647709,122,"721 S MINERVA AVENUE, ROYAL OAK, MI, 48067","Match","Exact","721 S MINERVA AVE, ROYAL OAK, MI, 48067",69746907,"L"
280623,"721 S OAK PARK STREET","VISALIA","CA",93277,36.3243764320001,-119.304312251,123,"721 S OAK PARK STREET, VISALIA, CA, 93277","Match","Exact","721 S OAK PARK ST, VISALIA, CA, 93277",202780546,"R"
280624,"721 S SHERIDAN AVE","OTTUMWA","IA",52501,40.995978736,-92.418655133,124,"721 S SHERIDAN AVE, OTTUMWA, IA, 52501","Match","Exact","721 S SHERIDAN AVE, OTTUMWA, IA, 52501",89629017,"L"
280625,"721 SANDY LN STE D","SURFSIDE BEACH","SC",29575,33.606364996,-78.989411898,125,"721 SANDY LN STE D, SURFSIDE BEACH, SC, 29575","Match","Exact","721 SANDY LN, SURFSIDE BCH, SC, 29575",607429789,"L"
280626,"721 SOUTH 4TH STREET","LE SUEUR","MN",56058,44.452092851,-93.916705744,126,"721 SOUTH 4TH STREET, LE SUEUR, MN, 56058","Match","Exact","721 S 4TH ST, LE SUEUR, MN, 56058",28658446,"R"
280627,"721 SOUTH BENTSEN ROAD","MCALLEN","TX",78501,26.201427777,-98.270663482,127,"721 SOUTH BENTSEN ROAD, MCALLEN, TX, 78501","Match","Exact","721 S BENTSEN RD, MCALLEN, TX, 78501",627707431,"L"
280628,"721 SOUTH EUCLID AVE","DAYTON","OH",45402,39.747193264,-84.220386156,128,"721 SOUTH EUCLID AVE, DAYTON, OH, 45402","Match","Exact","721 S EUCLID AVE, DAYTON, OH, 45402",143570378,"R"
280629,"721 SOUTH JACOB MILLER ROAD","PORT TOWNSEND","WA",98368,48.1094709660001,-122.827148891,129,"721 SOUTH JACOB MILLER ROAD, PORT TOWNSEND, WA, 98368","Match","Exact","721 S JACOB MILLER RD, PORT TOWNSEND, WA, 98368",629045340,"R"
280630,"721 SOUTH MAIN","SULLIVAN","IL",61951,39.592769844,-88.6073749779999,130,"721 SOUTH MAIN, SULLIVAN, IL, 61951","Match","Non_Exact","721 S MAIN ST, SULLIVAN, IL, 61951",5818602,"L"
280631,"721 SOUTH MEMORIAL","PITTSFIELD","IL",62363,39.59869888,-90.8075564919999,131,"721 SOUTH MEMORIAL, PITTSFIELD, IL, 62363","Match","Non_Exact","721 S MEMORIAL ST, PITTSFIELD, IL, 62363",44719865,"L"
280632,"721 SPYGLASS WAY","EAGLE","ID",83616,43.7003655030001,-116.33957682,132,"721 SPYGLASS WAY, EAGLE, ID, 83616","Match","Exact","721 SPYGLASS WAY, EAGLE, ID, 83616",117919128,"R"
280633,"721 STATE AVE","MARYSVILLE","WA",98270,48.054746041,-122.176997403,133,"721 STATE AVE, MARYSVILLE, WA, 98270","Match","Exact","721 STATE AVE, MARYSVILLE, WA, 98270",187743124,"L"
280634,"721 STATE STREET","SPRINGFIELD","MA",1109,42.11035581,-72.56809377,134,"721 STATE STREET, SPRINGFIELD, MA, 1109","Match","Exact","721 STATE ST, SPRINGFIELD, MA, 01109",4070283,"R"
280635,"721 SW 4TH PLACE","MOORE","OK",73160,35.3348718760001,-97.49903001,135,"721 SW 4TH PLACE, MOORE, OK, 73160","Match","Exact","721 SW 4TH PL, MOORE, OK, 73160",99905878,"R"
280636,"721 SW 66 AVENUE","MIAMI","FL",33144,25.763892845,-80.302906712,136,"721 SW 66 AVENUE, MIAMI, FL, 33144","Match","Exact","721 SW 66TH AVE, MIAMI, FL, 33144",116055808,"L"
280637,"721 TEMPLE TRAIL","FRISCO","CO",80443,39.566928723,-106.0910621,137,"721 TEMPLE TRAIL, FRISCO, CO, 80443","Match","Exact","721 TEMPLE TRL, FRISCO, CO, 80443",106048002,"L"
280638,"721 TREGASKIS AVE","VALLEJO","CA",94591,38.106639397,-122.222839204,138,"721 TREGASKIS AVE, VALLEJO, CA, 94591","Match","Exact","721 TREGASKIS AVE, VALLEJO, CA, 94591",192528527,"L"
280639,"721 TURNERS CROSSROAD S","GOLDEN VALLEY","MN",55416,44.973440001,-93.349519428,139,"721 TURNERS CROSSROAD S, GOLDEN VALLEY, MN, 55416","Match","Exact","721 TURNERS CROSSROAD S, GOLDEN VALLEY, MN, 55416",43663271,"L"
280640,"721 UNIVERSITY AVENUE","SYRACUSE","NY",13244,43.0423757190001,-76.1344124089999,140,"721 UNIVERSITY AVENUE, SYRACUSE, NY, 13244","Match","Non_Exact","721 UNIVERSITY AVE, SYRACUSE, NY, 13210",46571494,"L"
280641,"721 W ASPEN AVE","FLAGSTAFF","AZ",86001,35.200986684,-111.65664174,141,"721 W ASPEN AVE, FLAGSTAFF, AZ, 86001","Match","Exact","721 W ASPEN AVE, FLAGSTAFF, AZ, 86001",188860871,"L"
280642,"721 W BEACH DRIVE","ADDISON","IL",60101,41.9469935980001,-88.005933835,142,"721 W BEACH DRIVE, ADDISON, IL, 60101","Match","Exact","721 BEACH DR, ADDISON, IL, 60101",112694100,"L"
280643,"721 W BROOKHAVEN CIRCLE","MEMPHIS","TN",38117,35.1127076160001,-89.890556939,143,"721 W BROOKHAVEN CIRCLE, MEMPHIS, TN, 38117","Match","Exact","721 W BROOKHAVEN CIR, MEMPHIS, TN, 38117",72952324,"L"
280644,"721 W MARSH STREET","SALSIBURY","NC",28144,NA,NA,144,"721 W MARSH STREET, SALSIBURY, NC, 28144","No_Match",NA,NA,NA,NA
280645,"721 W SUGAR CREEK RD","CHARLOTTE","NC",28213,35.268656789,-80.794580696,145,"721 W SUGAR CREEK RD, CHARLOTTE, NC, 28213","Match","Exact","721 W SUGAR CREEK RD, CHARLOTTE, NC, 28213",70479758,"L"
280646,"721 WALTON AVE B5","BRONX","NY",10451,40.8236795510001,-73.926224464,146,"721 WALTON AVE B5, BRONX, NY, 10451","Match","Exact","721 WALTON AVE, BRONX, NY, 10451",80300148,"L"
280647,"721 WASHINGTON STREET","PADUCAH","KY",42003,37.083067294,-88.60084418,147,"721 WASHINGTON STREET, PADUCAH, KY, 42003","Match","Exact","721 WASHINGTON ST, PADUCAH, KY, 42003",8396953,"L"
280648,"721 WORTHINGTON DR","WARMINSTER","PA",18974,40.2210547020001,-75.116945527,148,"721 WORTHINGTON DR, WARMINSTER, PA, 18974","Match","Exact","721 WORTHINGTON DR, WARMINSTER, PA, 18974",134705401,"R"
280649,"721","PARAMOUNT","CA",90723,NA,NA,149,"721, PARAMOUNT, CA, 90723","No_Match",NA,NA,NA,NA
280650,"7210 ARBOR DRIVE","NEW ORLEANS","LA",70126,30.027687488,-90.006699564,150,"7210 ARBOR DRIVE, NEW ORLEANS, LA, 70126","Match","Exact","7210 ARBOR DR, NEW ORLEANS, LA, 70126",191720834,"R"
280651,"7210 BRUSH COUNTRY RD","AUSTIN","TX",78749,30.2178419590001,-97.8452964429999,151,"7210 BRUSH COUNTRY RD, AUSTIN, TX, 78749","Match","Exact","7210 BRUSH COUNTRY RD, AUSTIN, TX, 78749",63977874,"L"
280652,"7210 DARBY DOWNS UNIT R","ELKRIDGE","MD",21075,39.2089228840001,-76.7274502389999,152,"7210 DARBY DOWNS UNIT R, ELKRIDGE, MD, 21075","Match","Exact","7210 DARBY DOWNS, ELKRIDGE, MD, 21075",618713783,"R"
280653,"7210 HEARTHSIDE TRAIL","FREDERICKSBURG","VA",22407,38.2756885850001,-77.583225783,153,"7210 HEARTHSIDE TRAIL, FREDERICKSBURG, VA, 22407","Match","Exact","7210 HEARTHSIDE TRL, FREDERICKSBURG, VA, 22407",85017795,"L"
280654,"7210 JESSIE COURT","ARLINGTON","TX",76002,32.6256918460001,-97.1061244209999,154,"7210 JESSIE COURT, ARLINGTON, TX, 76002","Match","Exact","7210 JESSIE CT, ARLINGTON, TX, 76002",102188250,"R"
280655,"7210 JORDAN AVE NUM B55","CANOGA PARK","CA",91303,34.201323431,-118.602849482,155,"7210 JORDAN AVE NUM B55, CANOGA PARK, CA, 91303","Match","Exact","7210 JORDAN AVE, CANOGA PARK, CA, 91303",141533215,"R"
280656,"7210 JORDAN AVE STE D4","CANOGA PARK","CA",91303,34.201323431,-118.602849482,156,"7210 JORDAN AVE STE D4, CANOGA PARK, CA, 91303","Match","Exact","7210 JORDAN AVE, CANOGA PARK, CA, 91303",141533215,"R"
280657,"7210 LE FLORE PLACE","GRANITE BAY","CA",95746,38.750184851,-121.167552752,157,"7210 LE FLORE PLACE, GRANITE BAY, CA, 95746","Match","Exact","7210 LE FLORE PL, GRANITE BAY, CA, 95746",106809511,"R"
280658,"7210 LISBON ST","SAN DIEGO","CA",92113,32.71207431,-117.043721915,158,"7210 LISBON ST, SAN DIEGO, CA, 92113","Match","Non_Exact","7210 LISBON ST, SAN DIEGO, CA, 92114",195353338,"L"
280659,"7210 MEADOW LANE","HAMMOND","IN",46324,41.5826543270001,-87.5203587239999,159,"7210 MEADOW LANE, HAMMOND, IN, 46324","Match","Non_Exact","7210 MEADOW LANE AVE, HAMMOND, IN, 46324",98417412,"R"
280660,"7210 N WOODLAND AVE","KANSAS CITY","MO",64118,39.2272148910001,-94.557390948,160,"7210 N WOODLAND AVE, KANSAS CITY, MO, 64118","Match","Exact","7210 N WOODLAND AVE, KANSAS CITY, MO, 64118",89755116,"L"
280661,"7210 NORTH MANHATTAN AVE SUITE 1524","TAMPA","FL",33614,28.014982644,-82.517259181,161,"7210 NORTH MANHATTAN AVE SUITE 1524, TAMPA, FL, 33614","Match","Exact","7210 N MANHATTAN AVE, TAMPA, FL, 33614",104514199,"L"
280662,"7210 NW 179 STREET STE 208","HIALEAH","FL",33015,NA,NA,162,"7210 NW 179 STREET STE 208, HIALEAH, FL, 33015","Tie",NA,NA,NA,NA
280663,"7210 NW 23RD ST","BETHANY","OK",73008,35.493389189,-97.639197082,163,"7210 NW 23RD ST, BETHANY, OK, 73008","Match","Exact","7210 NW 23RD ST, BETHANY, OK, 73008",617860106,"L"
280664,"7210 ONYX DRIVE NORTH","ST PETERSBURG","FL",33702,27.837685902,-82.654065299,164,"7210 ONYX DRIVE NORTH, ST PETERSBURG, FL, 33702","Match","Exact","7210 ONYX DR N, SAINT PETERSBURG, FL, 33702",124703094,"L"
280665,"7210 READ BLVD","NEW ORLEANS","LA",70127,30.0403278040001,-89.9786309099999,165,"7210 READ BLVD, NEW ORLEANS, LA, 70127","Match","Exact","7210 READ BLVD, NEW ORLEANS, LA, 70127",191721263,"L"
280666,"7210 RED ROAD SUITE 221","SOUTH MIAMI","FL",33143,25.7042909630001,-80.28539718,166,"7210 RED ROAD SUITE 221, SOUTH MIAMI, FL, 33143","Match","Non_Exact","7210 S RED RD, SOUTH MIAMI, FL, 33143",115979041,"R"
280667,"7210 STILLWATER DR","COLUMBUS","GA",31904,32.5521542170001,-85.017767431,167,"7210 STILLWATER DR, COLUMBUS, GA, 31904","Match","Exact","7210 STILLWATER DR, COLUMBUS, GA, 31904",98951674,"R"
280668,"7210 SUMMIT RD","DARIEN","IL",60561,41.755605523,-87.987948966,168,"7210 SUMMIT RD, DARIEN, IL, 60561","Match","Exact","7210 SUMMIT RD, DARIEN, IL, 60561",112550698,"R"
280669,"7210 TESSA LAKES COURT","SUGAR LAND","TX",77479,29.585995536,-95.671563629,169,"7210 TESSA LAKES COURT, SUGAR LAND, TX, 77479","Match","Exact","7210 TESSA LAKES CT, SUGAR LAND, TX, 77479",78298034,"R"
280670,"7210 TURFWAY ROAD","FLORENCE","KY",41042,39.0095591140001,-84.625401129,170,"7210 TURFWAY ROAD, FLORENCE, KY, 41042","Match","Exact","7210 TURFWAY RD, FLORENCE, KY, 41042",610486095,"R"
280671,"7210 W KINGS AVE","PEORIA","AZ",85382,33.634171505,-112.21354009,171,"7210 W KINGS AVE, PEORIA, AZ, 85382","Match","Exact","7210 W KINGS AVE, PEORIA, AZ, 85382",128837846,"R"
280672,"7211 BEAUMONT PLACE","HOUSTON","TX",77049,29.8274275700001,-95.199155234,172,"7211 BEAUMONT PLACE, HOUSTON, TX, 77049","Match","Exact","7211 BEAUMONT PL, HOUSTON, TX, 77049",96095338,"L"
280673,"7211 CLOVERDALE ROAD","ROANOKE","VA",24019,37.358542992,-79.8853714109999,173,"7211 CLOVERDALE ROAD, ROANOKE, VA, 24019","Match","Exact","7211 CLOVERDALE RD, ROANOKE, VA, 24019",649877831,"L"
280674,"7211 FLOWER AVE","TAKOMA PARK","MD",20912,38.9812724770001,-76.9949644979999,174,"7211 FLOWER AVE, TAKOMA PARK, MD, 20912","Match","Exact","7211 FLOWER AVE, TAKOMA PARK, MD, 20912",76303001,"R"
280675,"7211 FLYHAWK LN","SAUK CITY","WI",53583,43.2527495080001,-89.7108559279999,175,"7211 FLYHAWK LN, SAUK CITY, WI, 53583","Match","Exact","7211 FLYHAWK LN, SAUK CITY, WI, 53583",624942054,"R"
280676,"7211 FOXBRICK LN APT 9101","HUMBLE","TX",77338,30.007260568,-95.315488602,176,"7211 FOXBRICK LN APT 9101, HUMBLE, TX, 77338","Match","Exact","7211 FOXBRICK LN, HUMBLE, TX, 77338",644482170,"L"
280677,"7211 GARFIELD AVE","HUNTINGTON BEACH","CA",92648,33.68657267,-118.003649179,177,"7211 GARFIELD AVE, HUNTINGTON BEACH, CA, 92648","Match","Exact","7211 GARFIELD AVE, HUNTINGTON BEACH, CA, 92648",144019587,"L"
280678,"7211 HANNUM AVENUE","CULVER CITY","CA",90230,NA,NA,178,"7211 HANNUM AVENUE, CULVER CITY, CA, 90230","No_Match",NA,NA,NA,NA
280679,"7211 HAVEN AVE STE  E559","RANCHO CUCAMONGA","CA",91701,34.123741238,-117.57588155,179,"7211 HAVEN AVE STE  E559, RANCHO CUCAMONGA, CA, 91701","Match","Exact","7211 HAVEN AVE, RANCHO CUCAMONGA, CA, 91701",144686874,"L"
280680,"7211 HAVEN AVENUE E-403","RANCHO CUCAMONGA","CA",91701,34.123741238,-117.57588155,180,"7211 HAVEN AVENUE E-403, RANCHO CUCAMONGA, CA, 91701","Match","Non_Exact","7211 HAVEN AVE, RANCHO CUCAMONGA, CA, 91701",144686874,"L"
280681,"7211 HAVEN AVENUE SUITE E-565","RANCHO CUCAMONGA","CA",91701,34.123741238,-117.57588155,181,"7211 HAVEN AVENUE SUITE E-565, RANCHO CUCAMONGA, CA, 91701","Match","Exact","7211 HAVEN AVE, RANCHO CUCAMONGA, CA, 91701",144686874,"L"
280682,"7211 HAVEN AVENUE SUITE E298","RANCHO CUCAMONGA","CA",91701,34.123741238,-117.57588155,182,"7211 HAVEN AVENUE SUITE E298, RANCHO CUCAMONGA, CA, 91701","Match","Exact","7211 HAVEN AVE, RANCHO CUCAMONGA, CA, 91701",144686874,"L"
280683,"7211 LARME AVE","ALLEN PARK","MI",48101,42.255989818,-83.221498572,183,"7211 LARME AVE, ALLEN PARK, MI, 48101","Match","Exact","7211 LARME AVE, ALLEN PARK, MI, 48101",95446795,"L"
280684,"7211 MARION AVE","KANSAS CITY","MO",64133,38.9891630720001,-94.43613475,184,"7211 MARION AVE, KANSAS CITY, MO, 64133","Match","Exact","7211 MARION AVE, KANSAS CITY, MO, 64133",91517103,"L"
280685,"7211 N SERVICE RD","BIG SPRING","TX",79720,NA,NA,185,"7211 N SERVICE RD, BIG SPRING, TX, 79720","No_Match",NA,NA,NA,NA
280686,"7211 NW HWY 225","OCALA","FL",34482,29.2631398670001,-82.284339356,186,"7211 NW HWY 225, OCALA, FL, 34482","Match","Exact","7211 NW HWY 225, OCALA, FL, 34482",116820611,"R"
280687,"7211 OAKLEY RD","GLENN DALE","MD",20769,38.9895830660001,-76.8064777609999,187,"7211 OAKLEY RD, GLENN DALE, MD, 20769","Match","Exact","7211 OAKLEY RD, GLENN DALE, MD, 20769",653261994,"L"
280688,"7211 OAKWOOD AVENUE","LOS ANGELES","CA",90036,34.0782691200001,-118.346519381,188,"7211 OAKWOOD AVENUE, LOS ANGELES, CA, 90036","Match","Exact","7211 OAKWOOD AVE, LOS ANGELES, CA, 90036",141599582,"R"
280689,"7211 OGDEN BUSINESS LANE SUITE 205","WILMINGTON","NC",28411,34.2731275240001,-77.821050322,189,"7211 OGDEN BUSINESS LANE SUITE 205, WILMINGTON, NC, 28411","Match","Exact","7211 OGDEN BUSINESS LN, WILMINGTON, NC, 28411",152756863,"L"
280690,"7211 REGENCY BLVD SUITE 270","HOUSTON","TX",77036,NA,NA,190,"7211 REGENCY BLVD SUITE 270, HOUSTON, TX, 77036","No_Match",NA,NA,NA,NA
280691,"7211 REGENCY SQUARE 148","HOUSTON","TX",77036,NA,NA,191,"7211 REGENCY SQUARE 148, HOUSTON, TX, 77036","Tie",NA,NA,NA,NA
280692,"7211 REGENCY SQUARE BLVD NUMBER 105","HOUSTON","TX",77036,29.7162203830001,-95.510590088,192,"7211 REGENCY SQUARE BLVD NUMBER 105, HOUSTON, TX, 77036","Match","Exact","7211 REGENCY SQUARE BLVD, HOUSTON, TX, 77036",96031634,"L"
280693,"7211 REMSEN STREET UNIT 27","NORFOLK","VA",23505,36.9083893490001,-76.2767987139999,193,"7211 REMSEN STREET UNIT 27, NORFOLK, VA, 23505","Match","Exact","7211 REMSEN ST, NORFOLK, VA, 23505",122133479,"L"
280694,"7211 S WHITTIER AVENUE","WHITTIER","CA",90601,33.97697358,-118.043177878,194,"7211 S WHITTIER AVENUE, WHITTIER, CA, 90601","Match","Non_Exact","7211 WHITTIER AVE, WHITTIER, CA, 90602",141747352,"R"
280695,"7211 SW 42ND CT","DAVIE","FL",33314,26.068862321,-80.241929053,195,"7211 SW 42ND CT, DAVIE, FL, 33314","Match","Exact","7211 SW 42ND CT, DAVIE, FL, 33314",632884321,"R"
280696,"7212 BARD RD","TIPP CITY","OH",45371,39.933835641,-84.23713485,196,"7212 BARD RD, TIPP CITY, OH, 45371","Match","Exact","7212 BARD RD, TIPP CITY, OH, 45371",207645164,"R"
280697,"7212 FROST LANE","DENTON","TX",76210,33.1491092420001,-97.111753804,197,"7212 FROST LANE, DENTON, TX, 76210","Match","Exact","7212 FROST LN, DENTON, TX, 76210",218076531,"L"
280698,"7212 HELMSDALE RD","BETHESDA","MD",20817,38.98312244,-77.151777161,198,"7212 HELMSDALE RD, BETHESDA, MD, 20817","Match","Exact","7212 HELMSDALE RD, BETHESDA, MD, 20817",62057632,"L"
280699,"7212 KAVAN HUNTER DR","CHARLOTTE","NC",29745,35.2686433910001,-80.953216652,199,"7212 KAVAN HUNTER DR, CHARLOTTE, NC, 29745","Match","Non_Exact","7212 KAVAN HUNTER DR, CHARLOTTE, NC, 28214",70545200,"R"
280700,"7212 KILSYTH ST","CHARLOTTE","NC",28273,35.153611632,-80.979492374,200,"7212 KILSYTH ST, CHARLOTTE, NC, 28273","Match","Exact","7212 KILSYTH ST, CHARLOTTE, NC, 28273",618150483,"R"
280701,"7212 NOTRE DAME DR","IRVING","TX",75063,32.9052075650001,-96.9893468609999,201,"7212 NOTRE DAME DR, IRVING, TX, 75063","Match","Exact","7212 NOTRE DAME DR, IRVING, TX, 75063",643199099,"R"
280702,"7212 OAK AVE  4NW","RIVER FOREST","IL",60305,41.892185129,-87.805451873,202,"7212 OAK AVE  4NW, RIVER FOREST, IL, 60305","Match","Exact","7212 OAK AVE, RIVER FOREST, IL, 60305",111752680,"R"
280703,"7212 OAK RIDGE HWY","KNOXVILLE","TN",37931,35.9887708790001,-84.077812186,203,"7212 OAK RIDGE HWY, KNOXVILLE, TN, 37931","Match","Exact","7212 OAK RIDGE HWY, KNOXVILLE, TN, 37931",624551546,"L"
280704,"7212 OAK UNIT 4NW","RIVER FOREST","IL",60305,41.892185129,-87.805451873,204,"7212 OAK UNIT 4NW, RIVER FOREST, IL, 60305","Match","Non_Exact","7212 OAK AVE, RIVER FOREST, IL, 60305",111752680,"R"
280705,"7212 OLIVE BRANCH LANE","KNOXVILLE","TN",37931,35.9738686090001,-84.062505835,205,"7212 OLIVE BRANCH LANE, KNOXVILLE, TN, 37931","Match","Exact","7212 OLIVE BRANCH LN, KNOXVILLE, TN, 37931",604625544,"L"
280706,"7212 POPLAR CREEK TRCE","NASHVILLE","TN",37221,36.0520543100001,-86.95969961,206,"7212 POPLAR CREEK TRCE, NASHVILLE, TN, 37221","Match","Exact","7212 POPLAR CREEK TRCE, NASHVILLE, TN, 37221",97209758,"L"
280707,"7212 TOTTENHAM RD","TOLEDO","OH",43617,41.6634320480001,-83.7152919549999,207,"7212 TOTTENHAM RD, TOLEDO, OH, 43617","Match","Exact","7212 TOTTENHAM RD, TOLEDO, OH, 43617",33950625,"R"
280708,"7212 WESTMORELAND DRIVE","UNIVERSITY CITY","MO",63130,38.6513882410001,-90.321332833,208,"7212 WESTMORELAND DRIVE, UNIVERSITY CITY, MO, 63130","Match","Exact","7212 WESTMORELAND DR, UNIVERSITY CITY, MO, 63130",645708921,"L"
280709,"7213 BYBROOK LANE","CHEVY CHASE","MD",20815,38.981990227,-77.060033102,209,"7213 BYBROOK LANE, CHEVY CHASE, MD, 20815","Match","Exact","7213 BYBROOK LN, CHEVY CHASE, MD, 20815",62067070,"R"
280710,"7213 CAMPSITE DRIVE","WENDELL","NC",27591,35.80688037,-78.3943362919999,210,"7213 CAMPSITE DRIVE, WENDELL, NC, 27591","Match","Exact","7213 CAMPSITE DR, WENDELL, NC, 27591",72630558,"L"
280711,"7213 CHUCK WAGON TRAIL","AUSTIN","TX",78749,30.223005893,-97.858079056,211,"7213 CHUCK WAGON TRAIL, AUSTIN, TX, 78749","Match","Exact","7213 CHUCK WAGON TRL, AUSTIN, TX, 78749",63937483,"L"
280712,"7213 EAST JACKSON STREET","BROKEN ARROW","OK",74014,36.0446463320001,-95.702511868,212,"7213 EAST JACKSON STREET, BROKEN ARROW, OK, 74014","Match","Exact","7213 E JACKSON ST, BROKEN ARROW, OK, 74014",606209226,"L"
280713,"7213 KIPLING PARKWAY","DISTRICT HEIGHTS","MD",20747,38.8596087810001,-76.881151145,213,"7213 KIPLING PARKWAY, DISTRICT HEIGHTS, MD, 20747","Match","Exact","7213 KIPLING PKWY, DISTRICT HEIGHTS, MD, 20747",653265836,"L"
280714,"7213 KNAPP RD","DUNDEE","NY",14837,NA,NA,214,"7213 KNAPP RD, DUNDEE, NY, 14837","No_Match",NA,NA,NA,NA
280715,"7213 N 72ND DRIVE","GLENDALE","AZ",85303,33.540668587,-112.214238876,215,"7213 N 72ND DRIVE, GLENDALE, AZ, 85303","Match","Exact","7213 N 72ND DR, GLENDALE, AZ, 85303",613300075,"R"
280716,"7213 PAUTLER RD","EVANSVILLE","IL",62242,38.0735044830001,-89.8702207649999,216,"7213 PAUTLER RD, EVANSVILLE, IL, 62242","Match","Exact","7213 PAUTLER RD, EVANSVILLE, IL, 62242",95187433,"L"
280717,"7213 ROBERT ULRICH AVE","DAYTON","OH",45415,39.843069342,-84.285661856,217,"7213 ROBERT ULRICH AVE, DAYTON, OH, 45415","Match","Exact","7213 ROBERT ULRICH AVE, DAYTON, OH, 45415",143561895,"R"
280718,"7213 SWIFTROCK RIDGE TERRACE","CHESTERFIELD","VA",23838,NA,NA,218,"7213 SWIFTROCK RIDGE TERRACE, CHESTERFIELD, VA, 23838","Tie",NA,NA,NA,NA
280719,"7213 THREE SISTERS COURT","CITRUS HEIGHTS","CA",95621,38.6953304570001,-121.296334757,219,"7213 THREE SISTERS COURT, CITRUS HEIGHTS, CA, 95621","Match","Exact","7213 THREE SISTERS CT, CITRUS HEIGHTS, CA, 95621",133341930,"L"
280720,"7213 TOURS DR","UPPER MARLBORO","MD",20772,38.7932499300001,-76.785724955,220,"7213 TOURS DR, UPPER MARLBORO, MD, 20772","Match","Exact","7213 TOURS DR, UPPER MARLBORO, MD, 20772",76344921,"L"
280721,"72135 LANDRY LN","ABITA SPRINGS","LA",70420,30.479892792,-89.9940511359999,221,"72135 LANDRY LN, ABITA SPRINGS, LA, 70420","Match","Exact","72135 LANDRY LN, ABITA SPRINGS, LA, 70420",111242744,"L"
280722,"7214 6TH AVENUE","BROOKLYN","NY",11209,40.630244369,-74.0193939599999,222,"7214 6TH AVENUE, BROOKLYN, NY, 11209","Match","Exact","7214 6TH AVE, BROOKLYN, NY, 11209",59094545,"R"
280723,"7214 DEMETER DRIVE","ATLANTA","GA",30349,33.6494576690001,-84.6207244,223,"7214 DEMETER DRIVE, ATLANTA, GA, 30349","Match","Exact","7214 DEMETER DR, ATLANTA, GA, 30349",650773976,"L"
280724,"7214 EMILY LANE","CARTERET","NJ",7008,40.5746114660001,-74.218004311,224,"7214 EMILY LANE, CARTERET, NJ, 7008","Match","Exact","7214 EMILY LN, CARTERET, NJ, 07008",625735008,"L"
280725,"7214 OAK HAVEN CIRCLE APT 204","BALTIMORE","MD",21244,NA,NA,225,"7214 OAK HAVEN CIRCLE APT 204, BALTIMORE, MD, 21244","No_Match",NA,NA,NA,NA
280726,"7214 S PRAIRIE AVE","CHICAGO","IL",60619,41.763455149,-87.618431291,226,"7214 S PRAIRIE AVE, CHICAGO, IL, 60619","Match","Exact","7214 S PRAIRIE AVE, CHICAGO, IL, 60619",111772316,"R"
280727,"7214 SANDY BAY","CONVERSE","TX",78109,29.4535130470001,-98.345322078,227,"7214 SANDY BAY, CONVERSE, TX, 78109","Match","Exact","7214 SANDY BAY, CONVERSE, TX, 78109",619944668,"R"
280728,"7214 SE 87TH AVE","PORTLAND","OR",97266,45.470859713,-122.573898382,228,"7214 SE 87TH AVE, PORTLAND, OR, 97266","Match","Exact","7214 SE 87TH AVE, PORTLAND, OR, 97266",639092614,"L"
280729,"7214 TURTLE CREEK ROAD","FLORENCE","IN",47020,38.78844021,-84.921322125,229,"7214 TURTLE CREEK ROAD, FLORENCE, IN, 47020","Match","Exact","7214 TURTLE CREEK RD, FLORENCE, IN, 47020",65107955,"R"
280730,"7214 W CREST LANE","GLENDALE","AZ",85310,33.6849101110001,-112.213383532,230,"7214 W CREST LANE, GLENDALE, AZ, 85310","Match","Exact","7214 W CREST LN, GLENDALE, AZ, 85310",128387149,"L"
280731,"72147 BURLINGTON AVE N","SAINT PETERSBURG","FL",33710,NA,NA,231,"72147 BURLINGTON AVE N, SAINT PETERSBURG, FL, 33710","No_Match",NA,NA,NA,NA
280732,"7215 BAYOU VISTA DRIVE","BAYTOWN","TX",77521,29.798272216,-94.921403017,232,"7215 BAYOU VISTA DRIVE, BAYTOWN, TX, 77521","Match","Exact","7215 BAYOU VISTA DR, BAYTOWN, TX, 77521",95960030,"R"
280733,"7215 BOULDER PASS","UNION CITY","GA",30291,33.5604887280001,-84.528245998,233,"7215 BOULDER PASS, UNION CITY, GA, 30291","Match","Exact","7215 BOULDER PASS, UNION CITY, GA, 30291",628098642,"L"
280734,"7215 CULMORE DR","HOUSTON","TX",77087,29.691379361,-95.300430326,234,"7215 CULMORE DR, HOUSTON, TX, 77087","Match","Exact","7215 CULMORE DR, HOUSTON, TX, 77087",96091737,"L"
280735,"7215 E MAIN ST","SCOTTSDALE","AZ",85251,33.4931301870001,-111.925783353,235,"7215 E MAIN ST, SCOTTSDALE, AZ, 85251","Match","Exact","7215 E MAIN ST, SCOTTSDALE, AZ, 85251",128222743,"R"
280736,"7215 E MAIN STREET","SCOTTSDALE","AZ",85251,33.4931301870001,-111.925783353,236,"7215 E MAIN STREET, SCOTTSDALE, AZ, 85251","Match","Exact","7215 E MAIN ST, SCOTTSDALE, AZ, 85251",128222743,"R"
280737,"7215 GLENWICK BLVD","INDIANAPOLIS","IN",46217,39.6637596690001,-86.1779793969999,237,"7215 GLENWICK BLVD, INDIANAPOLIS, IN, 46217","Match","Exact","7215 GLENWICK BLVD, INDIANAPOLIS, IN, 46217",108046219,"R"
280738,"7215 KINGFISHER RD","SANFORD","NC",27332,35.3859356070001,-79.2347002449999,238,"7215 KINGFISHER RD, SANFORD, NC, 27332","Match","Exact","7215 KINGFISHER RD, SANFORD, NC, 27332",72068651,"L"
280739,"7215 N 16TH DR","PHOENIX","AZ",85021,33.5425833640001,-112.094315983,239,"7215 N 16TH DR, PHOENIX, AZ, 85021","Match","Exact","7215 N 16TH DR, PHOENIX, AZ, 85021",128303637,"R"
280740,"7215 S 120TH ST","SEATTLE","WA",98178,47.4977243650001,-122.243000473,240,"7215 S 120TH ST, SEATTLE, WA, 98178","Match","Exact","7215 S 120TH ST, SEATTLE, WA, 98178",186629844,"R"
280741,"7215 SPRING CYPRESS RD APT 913","SPRING","TX",77379,30.047302642,-95.53313049,241,"7215 SPRING CYPRESS RD APT 913, SPRING, TX, 77379","Match","Exact","7215 SPRING CYPRESS RD, SPRING, TX, 77379",96666712,"R"
280742,"7215 W 71ST STREET","OVERLAND PARK","KS",66204,39.000391172,-94.669106711,242,"7215 W 71ST STREET, OVERLAND PARK, KS, 66204","Match","Exact","7215 W 71ST ST, OVERLAND PARK, KS, 66204",91275545,"L"
280743,"7215 WESTGLADE","SAN ANTONIO","TX",78227,29.4161372350001,-98.6322177599999,243,"7215 WESTGLADE, SAN ANTONIO, TX, 78227","Match","Non_Exact","7215 WESTGLADE PL, SAN ANTONIO, TX, 78227",101507264,"R"
280744,"7216 BERGENLINE AVENUE","NORTH BERGEN","NJ",7047,40.7974683400001,-74.009841631,244,"7216 BERGENLINE AVENUE, NORTH BERGEN, NJ, 7047","Match","Exact","7216 BERGENLINE AVE, NORTH BERGEN, NJ, 07047",59598670,"R"
280745,"7216 BIRCH AVE","HAMMOND","IN",46324,41.582942701,-87.492176947,245,"7216 BIRCH AVE, HAMMOND, IN, 46324","Match","Exact","7216 BIRCH AVE, HAMMOND, IN, 46324",98419380,"R"
280746,"7216 BRIGHTON DRIVE","HARAHAN","LA",70123,29.933815914,-90.2016809689999,246,"7216 BRIGHTON DRIVE, HARAHAN, LA, 70123","Match","Exact","7216 BRIGHTON DR, HARAHAN, LA, 70123",93532547,"R"
280747,"7216 COTTONSPARROW ST","LAS VEGAS","NV",89131,36.2917610870001,-115.264027607,247,"7216 COTTONSPARROW ST, LAS VEGAS, NV, 89131","Match","Exact","7216 COTTONSPARROW ST, LAS VEGAS, NV, 89131",201935672,"R"
280748,"7216 DEBORAH DRIVE","FALLS CHURCH","VA",22046,38.8798735280001,-77.193940399,248,"7216 DEBORAH DRIVE, FALLS CHURCH, VA, 22046","Match","Exact","7216 DEBORAH DR, FALLS CHURCH, VA, 22046",76022109,"R"
280749,"7216 FORREST AVE","PHILADELPHIA","PA",19138,40.063854646,-75.1544857869999,249,"7216 FORREST AVE, PHILADELPHIA, PA, 19138","Match","Exact","7216 FORREST AVE, PHILADELPHIA, PA, 19138",131440957,"L"
280750,"7216 LOTUS AVENUE  SUITE 7","SAN GABRIEL","CA",91775,34.128824863,-118.076011722,250,"7216 LOTUS AVENUE  SUITE 7, SAN GABRIEL, CA, 91775","Match","Non_Exact","7216 N LOTUS AVE, SAN GABRIEL, CA, 91775",141634476,"R"
280751,"7216 NOOK CREST CT","LAS VEGAS","NV",89129,36.2384630270001,-115.2520362,251,"7216 NOOK CREST CT, LAS VEGAS, NV, 89129","Match","Exact","7216 NOOK CREST CT, LAS VEGAS, NV, 89129",612684359,"R"
280752,"7216 NW 39TH MANOR","CORAL SPRINGS","FL",33065,26.2796525700001,-80.2220681759999,252,"7216 NW 39TH MANOR, CORAL SPRINGS, FL, 33065","Match","Exact","7216 NW 39TH MANOR, CORAL SPRINGS, FL, 33065",114738328,"R"
280753,"7216 PERCY DRIVE","MCKINNEY","TX",75071,33.2217692840001,-96.710993032,253,"7216 PERCY DRIVE, MCKINNEY, TX, 75071","Match","Exact","7216 PERCY DR, MCKINNEY, TX, 75071",619922420,"L"
280754,"7216 QUAIL ROAD","FAIR OAKS","CA",95628,38.6574990840001,-121.298061769,254,"7216 QUAIL ROAD, FAIR OAKS, CA, 95628","Match","Exact","7216 QUAIL RD, FAIR OAKS, CA, 95628",133342651,"R"
280755,"7216 RICHFIELD ST  8","PARAMOUNT","CA",90723,33.9018112700001,-118.172449764,255,"7216 RICHFIELD ST  8, PARAMOUNT, CA, 90723","Match","Exact","7216 RICHFIELD ST, PARAMOUNT, CA, 90723",142772863,"R"
280756,"7216 S SOUTH SHORE DR 2S","CHICAGO","IL",60649,NA,NA,256,"7216 S SOUTH SHORE DR 2S, CHICAGO, IL, 60649","No_Match",NA,NA,NA,NA
280757,"7216 SPRING RANCH CT","GODLEY","TX",76044,32.5152964120001,-97.5277623279999,257,"7216 SPRING RANCH CT, GODLEY, TX, 76044","Match","Exact","7216 SPRING RANCH CT, GODLEY, TX, 76044",649496695,"R"
280758,"7216 SW TERWILLIGER BLVD","PORTLAND","OR",97219,45.4723346800001,-122.685465775,258,"7216 SW TERWILLIGER BLVD, PORTLAND, OR, 97219","Match","Exact","7216 SW TERWILLIGER BLVD, PORTLAND, OR, 97219",636576097,"L"
280759,"7217 BOARDWALK","CROWN POINT","IN",46307,41.4267218370001,-87.248387972,259,"7217 BOARDWALK, CROWN POINT, IN, 46307","Match","Non_Exact","7217 BOARDWALK CIR, CROWN POINT, IN, 46307",606281342,"L"
280760,"7217 CHADWICK DR","FORT WAYNE","IN",46816,41.019750689,-85.083536237,260,"7217 CHADWICK DR, FORT WAYNE, IN, 46816","Match","Exact","7217 CHADWICK DR, FORT WAYNE, IN, 46816",6387015,"L"
280761,"7217 COVENTRY CT","NORTH RICHLAND HILLS","TX",76182,32.8788145560001,-97.2113378829999,261,"7217 COVENTRY CT, NORTH RICHLAND HILLS, TX, 76182","Match","Exact","7217 COVENTRY CT, NORTH RICHLAND HILLS, TX, 76182",102110247,"L"
280762,"7217 CREEKWOOD COURT","TAMPA","FL",33615,28.0191846640001,-82.5811113829999,262,"7217 CREEKWOOD COURT, TAMPA, FL, 33615","Match","Exact","7217 CREEKWOOD CT, TAMPA, FL, 33615",104507308,"R"
280763,"7217 ENGLISH PRIDE DRIVE","TRINITY","NC",27370,35.8600119130001,-80.047839112,263,"7217 ENGLISH PRIDE DRIVE, TRINITY, NC, 27370","Match","Exact","7217 ENGLISH PRIDE DR, TRINITY, NC, 27370",631988847,"L"
280764,"7217 INTERNATIONAL BOULEVARD","OAKLAND","CA",94621,37.759509085,-122.187793122,264,"7217 INTERNATIONAL BOULEVARD, OAKLAND, CA, 94621","Match","Exact","7217 INTERNATIONAL BLVD, OAKLAND, CA, 94621",606188949,"R"
280765,"7217 KESTREL STREET","HOBART","IN",46342,41.505004345,-87.2489031539999,265,"7217 KESTREL STREET, HOBART, IN, 46342","Match","Exact","7217 KESTREL ST, HOBART, IN, 46342",645521926,"R"
280766,"7217 N 100 W","CRAWFORDSVILLE","IN",47933,40.145160902,-86.9231649829999,266,"7217 N 100 W, CRAWFORDSVILLE, IN, 47933","Match","Exact","7217 N 100 W, CRAWFORDSVILLE, IN, 47933",652684413,"L"
280767,"7217 N JERSEY ST","PORTLAND","OR",97203,45.5862384230001,-122.74178174,267,"7217 N JERSEY ST, PORTLAND, OR, 97203","Match","Exact","7217 N JERSEY ST, PORTLAND, OR, 97203",157493853,"R"
280768,"7217 NE 160TH STREET","KENMORE","WA",98028,47.7441619140001,-122.244234874,268,"7217 NE 160TH STREET, KENMORE, WA, 98028","Match","Exact","7217 NE 160TH ST, KENMORE, WA, 98028",186671241,"L"
280769,"7217 S COLES AVE","CHICAGO","IL",60649,41.7647405230001,-87.5632087879999,269,"7217 S COLES AVE, CHICAGO, IL, 60649","Match","Exact","7217 S COLES AVE, CHICAGO, IL, 60649",605536436,"L"
280770,"7217 S ROCKWELL AVE UNIT 2","CHICAGO","IL",60629,NA,NA,270,"7217 S ROCKWELL AVE UNIT 2, CHICAGO, IL, 60629","No_Match",NA,NA,NA,NA
280771,"7217 SAYBROOK AVENUE","PHILADELPHIA","PA",19142,39.917861658,-75.2438768609999,271,"7217 SAYBROOK AVENUE, PHILADELPHIA, PA, 19142","Match","Exact","7217 SAYBROOK AVE, PHILADELPHIA, PA, 19142",642044791,"R"
280772,"7217 WAGON RUN DRIVE","FORT WORTH","TX",76137,32.8715545920001,-97.2735685809999,272,"7217 WAGON RUN DRIVE, FORT WORTH, TX, 76137","Match","Exact","7217 WAGON RUN DR, FORT WORTH, TX, 76137",102100833,"L"
280773,"7218 BORDACE COURT","SPRING","TX",77379,30.08142795,-95.5357992259999,273,"7218 BORDACE COURT, SPRING, TX, 77379","Match","Exact","7218 BORDACE CT, SPRING, TX, 77379",627641867,"R"
280774,"7218 CAMPDEN PL","CASTLE PINES","CO",80108,39.4664166580001,-104.89322784,274,"7218 CAMPDEN PL, CASTLE PINES, CO, 80108","Match","Exact","7218 CAMPDEN PL, CASTLE PINES, CO, 80108",130832365,"L"
280775,"7218 COVEWOOD DRIVE","GARLAND","TX",75044,32.9806632620001,-96.631221045,275,"7218 COVEWOOD DRIVE, GARLAND, TX, 75044","Match","Exact","7218 COVEWOOD DR, GARLAND, TX, 75044",103172739,"R"
280776,"7218 DARTMOUTH DRIVE","ROWLETT","TX",75089,32.9263242260001,-96.5283672099999,276,"7218 DARTMOUTH DRIVE, ROWLETT, TX, 75089","Match","Exact","7218 DARTMOUTH DR, ROWLETT, TX, 75089",640543054,"L"
280777,"7218 HIGHLAND RD","INDIANAPOLIS","IN",46268,39.8846334310001,-86.2160170879999,277,"7218 HIGHLAND RD, INDIANAPOLIS, IN, 46268","Match","Exact","7218 HIGHLAND RD, INDIANAPOLIS, IN, 46268",647086371,"L"
280778,"7218 HOLYOKE DRIVE","DALLAS","TX",75248,32.976999263,-96.7822114269999,278,"7218 HOLYOKE DRIVE, DALLAS, TX, 75248","Match","Exact","7218 HOLYOKE DR, DALLAS, TX, 75248",102988782,"R"
280779,"7218 HWY 83","WINTERS","TX",79567,31.884026362,-99.959382325,279,"7218 HWY 83, WINTERS, TX, 79567","Match","Non_Exact","7218 US HWY 83, WINTERS, TX, 79567",607843877,"L"
280780,"7218 ORIOLE AVE","SPRINGFIELD","VA",22150,38.771402331,-77.190840843,280,"7218 ORIOLE AVE, SPRINGFIELD, VA, 22150","Match","Exact","7218 ORIOLE AVE, SPRINGFIELD, VA, 22150",76056436,"L"
280781,"7218 RIVER DRIVE ROAD","SPARROWS PT","MD",21219,39.24498004,-76.4415928189999,281,"7218 RIVER DRIVE ROAD, SPARROWS PT, MD, 21219","Match","Exact","7218 RIVER DRIVE RD, SPARROWS POINT, MD, 21219",647293025,"L"
280782,"7218 ROUMARE RD","EAST SYRACUSE","NY",13057,43.048127014,-76.022917196,282,"7218 ROUMARE RD, EAST SYRACUSE, NY, 13057","Match","Exact","7218 ROUMARE RD, EAST SYRACUSE, NY, 13057",46606828,"R"
280783,"7218 S 51ST AVE","TAMPA","FL",33619,27.901908302,-82.374456457,283,"7218 S 51ST AVE, TAMPA, FL, 33619","Match","Non_Exact","7218 51ST AVE S, TAMPA, FL, 33619",104557895,"L"
280784,"7218 S LUELLA AVENUE","CHICAGO","IL",60649,41.7639672120001,-87.570122909,284,"7218 S LUELLA AVENUE, CHICAGO, IL, 60649","Match","Exact","7218 S LUELLA AVE, CHICAGO, IL, 60649",111775659,"R"
280785,"7218 SOUTH MOZART STREET","CHICAGO","IL",60629,41.762270765,-87.694192583,285,"7218 SOUTH MOZART STREET, CHICAGO, IL, 60629","Match","Exact","7218 S MOZART ST, CHICAGO, IL, 60629",111819602,"R"
280786,"7218 VILLAGE GREEN DRIVE","STOCKTON","CA",95210,38.0176832400001,-121.28195468,286,"7218 VILLAGE GREEN DRIVE, STOCKTON, CA, 95210","Match","Exact","7218 VILLAGE GREEN DR, STOCKTON, CA, 95210",133846435,"R"
280787,"7218 W 550 S","DELPHI","IN",46923,40.466165388,-86.662139917,287,"7218 W 550 S, DELPHI, IN, 46923","Match","Exact","7218 W 550 S, DELPHI, IN, 46923",27047508,"R"
280788,"7218 YELLOWSTONE BLVD","FOREST HILLS","NY",11375,NA,NA,288,"7218 YELLOWSTONE BLVD, FOREST HILLS, NY, 11375","No_Match",NA,NA,NA,NA
280789,"7219 ALBANY RDG","SAN ANTONIO","TX",78250,29.501913787,-98.6479461,289,"7219 ALBANY RDG, SAN ANTONIO, TX, 78250","Match","Exact","7219 ALBANY RIDGE, SAN ANTONIO, TX, 78250",619992763,"R"
280790,"7219 ANDERSON MILL RD","CHURCH ROAD","VA",23883,37.171667724,-77.631171954,290,"7219 ANDERSON MILL RD, CHURCH ROAD, VA, 23883","Match","Non_Exact","7219 ANDERSON MILL RD, CHURCH ROAD, VA, 23833",54168684,"R"
280791,"7219 CATAMARAN WAY","ARVERNE","NY",11692,40.588355241,-73.799110624,291,"7219 CATAMARAN WAY, ARVERNE, NY, 11692","Match","Exact","7219 CATAMARAN WAY, ARVERNE, NY, 11692",625505213,"L"
280792,"7219 E 88TH TERR APT 102","KANSAS CITY","MO",64138,38.963542784,-94.504136924,292,"7219 E 88TH TERR APT 102, KANSAS CITY, MO, 64138","Match","Non_Exact","7219 E 88TH TER, KANSAS CITY, MO, 64138",91464754,"R"
280793,"7219 E NAVARRO AVE","MESA","AZ",85209,33.3670886,-111.678758012,293,"7219 E NAVARRO AVE, MESA, AZ, 85209","Match","Exact","7219 E NAVARRO AVE, MESA, AZ, 85209",128781547,"L"
280794,"7219 EULISS CT","AVON","IN",46123,39.7740929390001,-86.39593679,294,"7219 EULISS CT, AVON, IN, 46123","Match","Exact","7219 EULISS CT, AVON, IN, 46123",89214886,"R"
280795,"7219 FLOWER AVE  UNIT 8","TAKOMA PARK","MD",20912,38.981319613,-76.995120791,295,"7219 FLOWER AVE  UNIT 8, TAKOMA PARK, MD, 20912","Match","Exact","7219 FLOWER AVE, TAKOMA PARK, MD, 20912",76303001,"R"
280796,"7219 HIDDEN HLS N","SAN ANTONIO","TX",78244,29.4821908390001,-98.338429342,296,"7219 HIDDEN HLS N, SAN ANTONIO, TX, 78244","Match","Non_Exact","7219 HIDDEN HILLS N DR, SAN ANTONIO, TX, 78244",101537539,"R"
280797,"7219 KESTER AVE","VAN NUYS","CA",91405,34.2017937270001,-118.457462748,297,"7219 KESTER AVE, VAN NUYS, CA, 91405","Match","Exact","7219 KESTER AVE, VAN NUYS, CA, 91405",648153871,"L"
280798,"7219 N LITCHFIELD RD BLDG 1130","LUKE AFB","AZ",85309,NA,NA,298,"7219 N LITCHFIELD RD BLDG 1130, LUKE AFB, AZ, 85309","No_Match",NA,NA,NA,NA
280799,"7219 NEBLINA DR","GRAND PRAIRIE","TX",75054,32.583937603,-97.044134863,299,"7219 NEBLINA DR, GRAND PRAIRIE, TX, 75054","Match","Exact","7219 NEBLINA DR, GRAND PRAIRIE, TX, 75054",643201861,"R"
280800,"7219 NW GRANDVIEW DR","CORVALLIS","OR",97330,44.584986766,-123.325166466,300,"7219 NW GRANDVIEW DR, CORVALLIS, OR, 97330","Match","Exact","7219 NW GRANDVIEW DR, CORVALLIS, OR, 97330",640408523,"R"
280801,"7219 PARK HEIGHTS AVENUE STE 206","BALTIMORE","MD",21208,39.3690203460001,-76.7079131149999,301,"7219 PARK HEIGHTS AVENUE STE 206, BALTIMORE, MD, 21208","Match","Exact","7219 PARK HEIGHTS AVE, BALTIMORE, MD, 21208",206465097,"R"
280802,"7219 RESEDA BLVD UNIT 210","RESEDA","CA",91335,34.2015921460001,-118.536052487,302,"7219 RESEDA BLVD UNIT 210, RESEDA, CA, 91335","Match","Exact","7219 RESEDA BLVD, RESEDA, CA, 91335",142712286,"L"
280803,"7219 RIDGE OAK DRIVE","HOUSTON","TX",77088,29.8762815310001,-95.4846367439999,303,"7219 RIDGE OAK DRIVE, HOUSTON, TX, 77088","Match","Exact","7219 RIDGE OAK DR, HOUSTON, TX, 77088",96026696,"L"
280804,"7219 ROLLINGBROOK TRL","SOLON","OH",44139,41.361337146,-81.40870628,304,"7219 ROLLINGBROOK TRL, SOLON, OH, 44139","Match","Exact","7219 ROLLINGBROOK TRL, SOLON, OH, 44139",638474266,"L"
280805,"7219 SKYLINE BLVD","OAKLAND","CA",94611,37.8426014820001,-122.19787271,305,"7219 SKYLINE BLVD, OAKLAND, CA, 94611","Match","Exact","7219 SKYLINE BLVD, OAKLAND, CA, 94611",606823563,"R"
280806,"7219 VILLA MARIA LN","AUSTIN","TX",78759,30.408969277,-97.7782141929999,306,"7219 VILLA MARIA LN, AUSTIN, TX, 78759","Match","Exact","7219 VILLA MARIA LN, AUSTIN, TX, 78759",64006232,"R"
280807,"7219 WEST SAHARA AVE STE 105","LAS VEGAS","NV",89117,36.1439574030001,-115.250186492,307,"7219 WEST SAHARA AVE STE 105, LAS VEGAS, NV, 89117","Match","Exact","7219 W SAHARA AVE, LAS VEGAS, NV, 89117",201861836,"L"
280808,"722  E 116TH ST","JENKS","OK",74037,35.9964591350001,-95.9619774349999,308,"722  E 116TH ST, JENKS, OK, 74037","Match","Exact","722 E 116TH ST, JENKS, OK, 74037",166518194,"R"
280809,"722  SUSAN STREET","SANTA  ANA","CA",92704,33.7375731720001,-117.914161727,309,"722  SUSAN STREET, SANTA  ANA, CA, 92704","Match","Non_Exact","722 S SUSAN ST, SANTA ANA, CA, 92704",631773786,"R"
280810,"722 18TH AVE","SEATTLE","WA",98122,47.608334787,-122.308919998,310,"722 18TH AVE, SEATTLE, WA, 98122","Match","Exact","722 18TH AVE, SEATTLE, WA, 98122",239762785,"R"
280811,"722 39TH STREET","DOWNERS GROVE","IL",60515,41.8165926510001,-88.004606194,311,"722 39TH STREET, DOWNERS GROVE, IL, 60515","Match","Exact","722 39TH ST, DOWNERS GROVE, IL, 60515",629483742,"R"
280812,"722 7TH STREET","MARYSVILLE","CA",95901,39.1421291680001,-121.594711921,312,"722 7TH STREET, MARYSVILLE, CA, 95901","Match","Exact","722 7TH ST, MARYSVILLE, CA, 95901",106940961,"L"
280813,"722 ALMONDWOOD WAY","SAN JOSE","CA",95120,37.209743916,-121.828553366,313,"722 ALMONDWOOD WAY, SAN JOSE, CA, 95120","Match","Exact","722 ALMONDWOOD WAY, SAN JOSE, CA, 95120",122999743,"R"
280814,"722 BAHIA CIRCLE","OCALA","FL",34472,29.1072392930001,-82.010235489,314,"722 BAHIA CIRCLE, OCALA, FL, 34472","Match","Exact","722 BAHIA CIR, OCALA, FL, 34472",116732927,"L"
280815,"722 BONINI ROAD SE","WASHINGTON","DC",20032,38.82547057,-76.997135309,315,"722 BONINI ROAD SE, WASHINGTON, DC, 20032","Match","Exact","722 BONINI RD SE, WASHINGTON, DC, 20032",641273465,"L"
280816,"722 BROADWAY ST","VERO BEACH","FL",32960,27.643843707,-80.387830618,316,"722 BROADWAY ST, VERO BEACH, FL, 32960","Match","Non_Exact","722 BROADWAY, VERO BEACH, FL, 32960",120304656,"L"
280817,"722 BROOKMONT AVE","SALISBURY","NC",27146,35.6551780360001,-80.441975149,317,"722 BROOKMONT AVE, SALISBURY, NC, 27146","Match","Non_Exact","722 BROOKMONT AVE, SALISBURY, NC, 28146",604941028,"L"
280818,"722 CHURCH ST APT 2","NEWINGTON","CT",6111,41.649922084,-72.736294888,318,"722 CHURCH ST APT 2, NEWINGTON, CT, 6111","Match","Exact","722 CHURCH ST, NEWINGTON, CT, 06111",635489549,"L"
280819,"722 COLLINS HILL RD STE H329","LAWRENCEVILLE","GA",30046,33.9737654630001,-83.9936500699999,319,"722 COLLINS HILL RD STE H329, LAWRENCEVILLE, GA, 30046","Match","Exact","722 COLLINS HILL RD, LAWRENCEVILLE, GA, 30046",88943313,"R"
280820,"722 COLLINS HILL ROAD","LAWRENCEVILLE","GA",30046,33.9737654630001,-83.9936500699999,320,"722 COLLINS HILL ROAD, LAWRENCEVILLE, GA, 30046","Match","Exact","722 COLLINS HILL RD, LAWRENCEVILLE, GA, 30046",88943313,"R"
280821,"722 COMMONWEALTH AVENUE BOX 0104","BOSTON","MA",2215,42.349764039,-71.105370061,321,"722 COMMONWEALTH AVENUE BOX 0104, BOSTON, MA, 2215","Match","Exact","722 COMMONWEALTH AVE, BOSTON, MA, 02215",85723280,"R"
280822,"722 CREEK ROAD","KENNETT SQUARE","PA",19348,39.8303090360001,-75.6904104719999,322,"722 CREEK ROAD, KENNETT SQUARE, PA, 19348","Match","Exact","722 CREEK RD, KENNETT SQUARE, PA, 19348",179537368,"R"
280823,"722 DAVIS RD","STOCKBRIDGE","GA",30281,NA,NA,323,"722 DAVIS RD, STOCKBRIDGE, GA, 30281","No_Match",NA,NA,NA,NA
280824,"722 DULANEY VALLEY ROAD STE 204","TOWSON","MD",21204,39.402480585,-76.602054247,324,"722 DULANEY VALLEY ROAD STE 204, TOWSON, MD, 21204","Match","Exact","722 DULANEY VALLEY RD, TOWSON, MD, 21204",191540297,"L"
280825,"722 DUNBARTON ROAD","MONTGOMERY","AL",36117,32.394912714,-86.205157377,325,"722 DUNBARTON ROAD, MONTGOMERY, AL, 36117","Match","Exact","722 DUNBARTON RD, MONTGOMERY, AL, 36117",1472561,"R"
280826,"722 E 10TH ST","PAWHUSKA","OK",74056,36.667547158,-96.330129076,326,"722 E 10TH ST, PAWHUSKA, OK, 74056","Match","Exact","722 E 10TH ST, PAWHUSKA, OK, 74056",82316674,"L"
280827,"722 E 11TH ST","BICKNELL","IN",47512,38.7802782200001,-87.301586888,327,"722 E 11TH ST, BICKNELL, IN, 47512","Match","Exact","722 E 11TH ST, BICKNELL, IN, 47512",606636181,"L"
280828,"722 E BROADWAY","LOGANSPORT","IN",46947,40.754809048,-86.3611930389999,328,"722 E BROADWAY, LOGANSPORT, IN, 46947","Match","Exact","722 E BROADWAY, LOGANSPORT, IN, 46947",27185592,"L"
280829,"722 E MANCHESTER BLVD","INGLEWOOD","CA",90301,33.9598614510001,-118.346102841,329,"722 E MANCHESTER BLVD, INGLEWOOD, CA, 90301","Match","Exact","722 E MANCHESTER BLVD, INGLEWOOD, CA, 90301",141655317,"R"
280830,"722 EAST MINER AVE","STOCKTON","CA",95202,37.9570797900001,-121.282424559,330,"722 EAST MINER AVE, STOCKTON, CA, 95202","Match","Exact","722 E MINER AVE, STOCKTON, CA, 95202",133850516,"R"
280831,"722 EAST US HWY 74 SUITE H","ROCKINGHAM","NC",28379,34.9129938670001,-79.729555438,331,"722 EAST US HWY 74 SUITE H, ROCKINGHAM, NC, 28379","Match","Non_Exact","722 W US HWY 74, ROCKINGHAM, NC, 28379",639959105,"L"
280832,"722 EXPERIMENT ST","GRIFFIN","GA",30223,33.254380871,-84.2739677019999,332,"722 EXPERIMENT ST, GRIFFIN, GA, 30223","Match","Exact","722 EXPERIMENT ST, GRIFFIN, GA, 30223",23758620,"L"
280833,"722 FIREWEED DR","FARIBANKS","AK",99709,64.8921847220001,-147.759410219,333,"722 FIREWEED DR, FARIBANKS, AK, 99709","Match","Non_Exact","722 FIREWEED DR, FAIRBANKS, AK, 99709",190892971,"L"
280834,"722 GENEVIEVE STREET SUITE H","SOLANA BEACH","CA",92014,32.989332377,-117.260053011,334,"722 GENEVIEVE STREET SUITE H, SOLANA BEACH, CA, 92014","Match","Non_Exact","722 GENEVIEVE ST, SOLANA BEACH, CA, 92075",195294322,"L"
280835,"722 GOLDEN GATE AVE","PT RICHMOND","CA",94801,37.929567906,-122.393073044,335,"722 GOLDEN GATE AVE, PT RICHMOND, CA, 94801","Match","Exact","722 GOLDEN GATE AVE, POINT RICHMOND, CA, 94801",192037166,"R"
280836,"722 GRANT STREET SUITE K","HERNDON","VA",20170,38.9697780110001,-77.379210497,336,"722 GRANT STREET SUITE K, HERNDON, VA, 20170","Match","Exact","722 GRANT ST, HERNDON, VA, 20170",642594277,"R"
280837,"722 GULPH RD","WAYNE","PA",19087,40.0921452480001,-75.4225770099999,337,"722 GULPH RD, WAYNE, PA, 19087","Match","Exact","722 GULPH RD, WAYNE, PA, 19087",179498397,"R"
280838,"722 KEY CORNER STREET","BROWNSVILLE","TN",38012,35.5974222790001,-89.273026801,338,"722 KEY CORNER STREET, BROWNSVILLE, TN, 38012","Match","Exact","722 KEY CORNER ST, BROWNSVILLE, TN, 38012",63735124,"L"
280839,"722 LONDON DR","CHARLESTON","SC",29412,32.7452804380001,-79.9231563229999,339,"722 LONDON DR, CHARLESTON, SC, 29412","Match","Exact","722 LONDON DR, CHARLESTON, SC, 29412",640469279,"R"
280840,"722 LYNN COURT","FESTUS","MO",63028,38.2262546380001,-90.403117156,340,"722 LYNN COURT, FESTUS, MO, 63028","Match","Exact","722 LYNN CT, FESTUS, MO, 63028",62771809,"R"
280841,"722 MIDDLETON RUN ROAD","ELKHART","IN",46516,41.6916338770001,-85.917332995,341,"722 MIDDLETON RUN ROAD, ELKHART, IN, 46516","Match","Exact","722 MIDDLETON RUN RD, ELKHART, IN, 46516",617564508,"L"
280842,"722 N 500 W","MOAB","UT",84532,38.584375159,-109.561058678,342,"722 N 500 W, MOAB, UT, 84532","Match","Exact","722 N 500 W, MOAB, UT, 84532",647572436,"R"
280843,"722 N ORLANDO AVE APT 303","LOS ANGELES","CA",90069,34.084109127,-118.373149538,343,"722 N ORLANDO AVE APT 303, LOS ANGELES, CA, 90069","Match","Non_Exact","722 N ORLANDO AVE, LOS ANGELES, CA, 90069",141598149,"R"
280844,"722 NW 4TH AVENUE","DELRAY BEACH","FL",33444,NA,NA,344,"722 NW 4TH AVENUE, DELRAY BEACH, FL, 33444","Tie",NA,NA,NA,NA
280845,"722 OAKDALE AVE","TOLEDO","OH",43605,41.6218203110001,-83.5184553669999,345,"722 OAKDALE AVE, TOLEDO, OH, 43605","Match","Exact","722 OAKDALE AVE, TOLEDO, OH, 43605",33945859,"R"
280846,"722 OTTILLIA ST SE","GRAND RAPIDS","MI",49507,42.922828413,-85.649717096,346,"722 OTTILLIA ST SE, GRAND RAPIDS, MI, 49507","Match","Exact","722 OTTILLIA ST SE, GRAND RAPIDS, MI, 49507",12461978,"R"
280847,"722 PARADISE WAY","NATIONAL CITY","CA",91950,NA,NA,347,"722 PARADISE WAY, NATIONAL CITY, CA, 91950","No_Match",NA,NA,NA,NA
280848,"722 PEBBLE BEACH DRIVE","SILVER SPRING","MD",20904,39.0691069860001,-77.023859821,348,"722 PEBBLE BEACH DRIVE, SILVER SPRING, MD, 20904","Match","Exact","722 PEBBLE BEACH DR, SILVER SPRING, MD, 20904",62094230,"L"
280849,"722 PEGGY DRIVE","SAN DIEGO","CA",92114,32.713439549,-117.038935413,349,"722 PEGGY DRIVE, SAN DIEGO, CA, 92114","Match","Exact","722 PEGGY DR, SAN DIEGO, CA, 92114",195663517,"L"
280850,"722 QUILL RD","BEAVERCREEK","OH",45430,39.7127973940001,-84.100460485,350,"722 QUILL RD, BEAVERCREEK, OH, 45430","Match","Exact","722 QUILL RD, BEAVERCREEK, OH, 45430",143422164,"L"
280851,"722 S 130TH ST","OMAHA","NE",68154,41.2526917530001,-96.116760105,351,"722 S 130TH ST, OMAHA, NE, 68154","Match","Exact","722 S 130TH ST, OMAHA, NE, 68154",116970429,"R"
280852,"722 S BIXEL ST SUITE 315","LOS ANGELES","CA",90017,34.0505232520001,-118.264414773,352,"722 S BIXEL ST SUITE 315, LOS ANGELES, CA, 90017","Match","Non_Exact","722 S BIXEL ST, LOS ANGELES, CA, 90017",642861444,"L"
280853,"722 S HANCOCK ST","LOUISVILLE","KY",40203,38.2437790270001,-85.743781541,353,"722 S HANCOCK ST, LOUISVILLE, KY, 40203","Match","Exact","722 S HANCOCK ST, LOUISVILLE, KY, 40203",96846103,"R"
280854,"722 S MCCOMBS ST","MARTIN","TN",38237,36.3534315700001,-88.845596499,354,"722 S MCCOMBS ST, MARTIN, TN, 38237","Match","Non_Exact","722 N MCCOMBS ST, MARTIN, TN, 38237",40878449,"L"
280855,"722 S SUSAN ST","SANTA ANA","CA",92704,33.7375677750001,-117.914160796,355,"722 S SUSAN ST, SANTA ANA, CA, 92704","Match","Exact","722 S SUSAN ST, SANTA ANA, CA, 92704",631773786,"R"
280856,"722 SAINT CHARLES STREET","THIBODAUX","LA",70301,29.7921418620001,-90.816874029,356,"722 SAINT CHARLES STREET, THIBODAUX, LA, 70301","Match","Exact","722 ST CHARLES ST, THIBODAUX, LA, 70301",92329049,"L"
280857,"722 SAN PATRICIO","SAN ANTONIO","TX",78207,29.417499607,-98.521798658,357,"722 SAN PATRICIO, SAN ANTONIO, TX, 78207","Match","Non_Exact","722 SAN PATRICIO ST, SAN ANTONIO, TX, 78207",101517039,"L"
280858,"722 SAYRE AVE","PHILLIPSBURG","NJ",8865,40.684233303,-75.177663905,358,"722 SAYRE AVE, PHILLIPSBURG, NJ, 8865","Match","Exact","722 SAYRE AVE, PHILLIPSBURG, NJ, 08865",98097416,"R"
280859,"722 SE 3RD ST","MADIOSN","SD",57042,44.0016587740001,-97.10367734,359,"722 SE 3RD ST, MADIOSN, SD, 57042","Match","Non_Exact","722 SE 3RD ST, MADISON, SD, 57042",203675625,"R"
280860,"722 SOUTH LOS ANGELES ST APT 202","LOS ANGELES","CA",90014,34.042888673,-118.250907669,360,"722 SOUTH LOS ANGELES ST APT 202, LOS ANGELES, CA, 90014","Match","Exact","722 S LOS ANGELES ST, LOS ANGELES, CA, 90014",141619363,"L"
280861,"722 SPRING OAK LANE","SULLIVAN","MO",63080,38.272491275,-91.137985304,361,"722 SPRING OAK LANE, SULLIVAN, MO, 63080","Match","Exact","722 SPRING OAK LN, SULLIVAN, MO, 63080",99755616,"R"
280862,"722 STONEGATE DRIVE","SOUTH SAN FRANCISCO","CA",94080,37.6643125590001,-122.426130002,362,"722 STONEGATE DRIVE, SOUTH SAN FRANCISCO, CA, 94080","Match","Exact","722 STONEGATE DR, S SAN FRAN, CA, 94080",192398300,"R"
280863,"722 TERRACE BLVD","DEPEW","NY",14043,42.9038333500001,-78.687071577,363,"722 TERRACE BLVD, DEPEW, NY, 14043","Match","Exact","722 TERRACE BLVD, DEPEW, NY, 14043",48308233,"L"
280864,"722 W BITTERSWEET PLACE APT 2W","CHICAGO","IL",60613,41.9556786220001,-87.648572529,364,"722 W BITTERSWEET PLACE APT 2W, CHICAGO, IL, 60613","Match","Non_Exact","722 W BITTERSWEET PL, CHICAGO, IL, 60613",111889207,"R"
280865,"722 W CAMBRIDGE ST","SPRINGFIELD","MO",65807,37.160919349,-93.300903266,365,"722 W CAMBRIDGE ST, SPRINGFIELD, MO, 65807","Match","Exact","722 W CAMBRIDGE ST, SPRINGFIELD, MO, 65807",76676550,"L"
280866,"722 WALNUT STREET","KANSAS CITY","MO",64106,39.1052103110001,-94.581758601,366,"722 WALNUT STREET, KANSAS CITY, MO, 64106","Match","Exact","722 WALNUT ST, KANSAS CITY, MO, 64106",91445007,"R"
280867,"722 WEST 123RD STREET","LOS ANGELES","CA",90044,33.92112898,-118.287821318,367,"722 WEST 123RD STREET, LOS ANGELES, CA, 90044","Match","Exact","722 W 123RD ST, LOS ANGELES, CA, 90044",141661740,"L"
280868,"722 WEST HIGHWAY 22","WEWAHITCHKA","FL",32465,30.1218554930001,-85.2064144029999,368,"722 WEST HIGHWAY 22, WEWAHITCHKA, FL, 32465","Match","Non_Exact","722 OLD HWY 22, WEWAHITCHKA, FL, 32465",7145267,"R"
280869,"722 YALE RD","BALA CYNWYD","PA",19004,40.0180591380001,-75.234753946,369,"722 YALE RD, BALA CYNWYD, PA, 19004","Match","Exact","722 YALE RD, BALA CYNWYD, PA, 19004",135091321,"L"
280870,"7220 ALLENTOWN RD","FORT WASHINGTON","MD",20744,38.7906661320001,-76.934157192,370,"7220 ALLENTOWN RD, FORT WASHINGTON, MD, 20744","Match","Exact","7220 ALLENTOWN RD, FT WASHINGTON, MD, 20744",76383083,"L"
280871,"7220 AVENIDA ENCINAS SUITE 204","CARLSBAD","AR",92011,NA,NA,371,"7220 AVENIDA ENCINAS SUITE 204, CARLSBAD, AR, 92011","No_Match",NA,NA,NA,NA
280872,"7220 BEVERLY BOULEVARD SUITE 203B","LOS ANGELES","CA",90036,34.0761520560001,-118.346727733,372,"7220 BEVERLY BOULEVARD SUITE 203B, LOS ANGELES, CA, 90036","Match","Exact","7220 BEVERLY BLVD, LOS ANGELES, CA, 90036",141599595,"L"
280873,"7220 BLUE GRASS RD","DURHAM","NC",27703,35.922794949,-78.7633361859999,373,"7220 BLUE GRASS RD, DURHAM, NC, 27703","Match","Exact","7220 BLUE GRASS RD, DURHAM, NC, 27703",648745139,"R"
280874,"7220 BOSTON DR","NEW ORLEANS","LA",70127,30.036723581,-89.9892941099999,374,"7220 BOSTON DR, NEW ORLEANS, LA, 70127","Match","Exact","7220 BOSTON DR, NEW ORLEANS, LA, 70127",191720713,"L"
280875,"7220 COMBS RD","INDIANAPOLIS","IN",46237,39.6630120230001,-86.054093564,375,"7220 COMBS RD, INDIANAPOLIS, IN, 46237","Match","Exact","7220 COMBS RD, INDIANAPOLIS, IN, 46237",108041141,"R"
280876,"7220 COUNTY ROUTE 27","CANTON","NY",13617,44.664414901,-75.197082267,376,"7220 COUNTY ROUTE 27, CANTON, NY, 13617","Match","Non_Exact","7220 CO RD 27, CANTON, NY, 13617",155178884,"R"
280877,"7220 CRAB APPLE CIR","TUSCALOOSA","AL",35405,33.142860193,-87.556918235,377,"7220 CRAB APPLE CIR, TUSCALOOSA, AL, 35405","Match","Exact","7220 CRAB APPLE CIR, TUSCALOOSA, AL, 35405",82206860,"R"
280878,"7220 EAST LOMBARD STREET","HYATTSVILLE","MD",20785,38.9266329590001,-76.882003254,378,"7220 EAST LOMBARD STREET, HYATTSVILLE, MD, 20785","Match","Exact","7220 E LOMBARD ST, HYATTSVILLE, MD, 20785",76309315,"L"
280879,"7220 EL CAMINO REAL","ATASCADERO","CA",93422,35.483066207,-120.660452788,379,"7220 EL CAMINO REAL, ATASCADERO, CA, 93422","Match","Exact","7220 EL CAMINO REAL, ATASCADERO, CA, 93422",645356926,"L"
280880,"7220 FOSSIL RIM TRAIL","ARLINGTON","TX",76002,32.6254394160001,-97.102469882,380,"7220 FOSSIL RIM TRAIL, ARLINGTON, TX, 76002","Match","Exact","7220 FOSSIL RIM TRL, ARLINGTON, TX, 76002",101961063,"R"
280881,"7220 GRANBY ST","NORFOLK","VA",23505,36.9085159420001,-76.2752140379999,381,"7220 GRANBY ST, NORFOLK, VA, 23505","Match","Exact","7220 GRANBY ST, NORFOLK, VA, 23505",122133491,"R"
280882,"7220 LINDEN","PRAIRIE VILLAGE","KS",66208,38.998739185,-94.641422274,382,"7220 LINDEN, PRAIRIE VILLAGE, KS, 66208","Match","Non_Exact","7220 LINDEN ST, PRAIRIE VLG, KS, 66208",91278804,"R"
280883,"7220 MCCALLUM BOULEVARD APT 1201","DALLAS","TX",75252,32.9879235820001,-96.778154746,383,"7220 MCCALLUM BOULEVARD APT 1201, DALLAS, TX, 75252","Match","Exact","7220 MCCALLUM BLVD, DALLAS, TX, 75252",653857928,"R"
280884,"7220 NORTH LINDBERGH BLVD500","HAZELWOOD","MO",63042,38.783615265,-90.355511013,384,"7220 NORTH LINDBERGH BLVD500, HAZELWOOD, MO, 63042","Match","Non_Exact","7220 N LINDBERGH BLVD, HAZELWOOD, MO, 63042",100119058,"R"
280885,"7220 NW 114TH AVE APT 310","DORAL","FL",33178,25.834237617,-80.383545382,385,"7220 NW 114TH AVE APT 310, DORAL, FL, 33178","Match","Non_Exact","7220 NW 114TH AVE, DORAL, FL, 33178",648441225,"R"
280886,"7220 NW 6TH COURT","PLANTATION","FL",33317,26.1308182980001,-80.243544475,386,"7220 NW 6TH COURT, PLANTATION, FL, 33317","Match","Exact","7220 NW 6TH CT, PLANTATION, FL, 33317",114704875,"L"
280887,"7220 PINE POINT","PAINESVILLE","OH",44077,41.6742881010001,-81.2306557159999,387,"7220 PINE POINT, PAINESVILLE, OH, 44077","Match","Exact","7220 PINE PT, PAINESVILLE, OH, 44077",137472593,"L"
280888,"7220 SPRUCE ST","UPPER DARBY","PA",19082,39.9539980230001,-75.2649115299999,388,"7220 SPRUCE ST, UPPER DARBY, PA, 19082","Match","Exact","7220 SPRUCE ST, UPPER DARBY, PA, 19082",134877818,"L"
280889,"7220 W 90TH PLACE","BRIDGEVIEW","IL",60455,41.7271525890001,-87.80005755,389,"7220 W 90TH PLACE, BRIDGEVIEW, IL, 60455","Match","Exact","7220 W 90TH PL, BRIDGEVIEW, IL, 60455",111811946,"L"
280890,"7220 WATKINS CT","RUTHER GLEN","VA",22546,38.0275040010001,-77.522978407,390,"7220 WATKINS CT, RUTHER GLEN, VA, 22546","Match","Exact","7220 WATKINS CT, RUTHER GLEN, VA, 22546",636775019,"R"
280891,"7221 87TH ST SE","MERCER ISLAND","WA",98040,47.537989483,-122.22247964,391,"7221 87TH ST SE, MERCER ISLAND, WA, 98040","Match","Non_Exact","7221 87TH AVE SE, MERCER ISLAND, WA, 98040",629182520,"R"
280892,"7221 CHADBOURNE DRIVE","NEW ORLEANS","LA",70126,30.026112358,-90.006101927,392,"7221 CHADBOURNE DRIVE, NEW ORLEANS, LA, 70126","Match","Exact","7221 CHADBOURNE DR, NEW ORLEANS, LA, 70126",191720790,"L"
280893,"7221 DIVISION STREET UNIT 2","RIVERFOREST","IL",60305,41.9015420110001,-87.805914436,393,"7221 DIVISION STREET UNIT 2, RIVERFOREST, IL, 60305","Match","Non_Exact","7221 DIVISION ST, RIVER FOREST, IL, 60305",111752572,"L"
280894,"7221 E RENAISSANCE","NEW ORLEANS","LA",70128,30.0554099280001,-89.954602186,394,"7221 E RENAISSANCE, NEW ORLEANS, LA, 70128","Match","Non_Exact","7221 E RENAISSANCE CT, NEW ORLEANS, LA, 70128",191721976,"R"
280895,"7221 EAST RIDGE DR STE E","LANDOVER","MD",20785,38.9186562300001,-76.882059715,395,"7221 EAST RIDGE DR STE E, LANDOVER, MD, 20785","Match","Exact","7221 E RIDGE DR, LANDOVER, MD, 20785",76309430,"R"
280896,"7221 HICKORY LANE","WINSTON","GA",30187,33.689986671,-84.811562845,396,"7221 HICKORY LANE, WINSTON, GA, 30187","Match","Exact","7221 HICKORY LN, WINSTON, GA, 30187",16646684,"R"
280897,"7221 MOUNTAINDALE RD","FREDERICK","MD",21702,39.5147557830001,-77.415468107,397,"7221 MOUNTAINDALE RD, FREDERICK, MD, 21702","Match","Exact","7221 MOUNTAINDALE RD, FREDERICK, MD, 21702",60740537,"R"
280898,"7221 N M 123","PARADISE","MI",49768,NA,NA,398,"7221 N M 123, PARADISE, MI, 49768","No_Match",NA,NA,NA,NA
280899,"7221 NE 36TH ST","OKLAHOMA CITY","OK",73140,35.507594376,-97.401787471,399,"7221 NE 36TH ST, OKLAHOMA CITY, OK, 73140","Match","Non_Exact","7221 NE 36TH ST, OKLAHOMA CITY, OK, 73141",606715474,"L"
280900,"7221 PLANTATION BLVD","MIRAMAR","FL",33023,25.991355024,-80.23130013,400,"7221 PLANTATION BLVD, MIRAMAR, FL, 33023","Match","Exact","7221 PLANTATION BLVD, MIRAMAR, FL, 33023",114733941,"R"
280901,"7221 RAFTER ROAD","FRANKTOWN","CO",80116,39.40000351,-104.751407041,401,"7221 RAFTER ROAD, FRANKTOWN, CO, 80116","Match","Exact","7221 RAFTER RD, FRANKTOWN, CO, 80116",130851108,"L"
280902,"7221 S ALBION ST","CENTENNIAL","CO",80122,39.5859051200001,-104.939691621,402,"7221 S ALBION ST, CENTENNIAL, CO, 80122","Match","Exact","7221 S ALBION ST, CENTENNIAL, CO, 80122",177345170,"R"
280903,"7221 S JENNINGS RD","SWARTZ CREEK","MI",48473,42.9227726660001,-83.7506386489999,403,"7221 S JENNINGS RD, SWARTZ CREEK, MI, 48473","Match","Exact","7221 S JENNINGS RD, SWARTZ CREEK, MI, 48473",69574242,"L"
280904,"7221 SMITH CREEK ROAD","SOPCHOPPY","FL",32358,30.0849699820001,-84.546024169,404,"7221 SMITH CREEK ROAD, SOPCHOPPY, FL, 32358","Match","Exact","7221 SMITH CREEK RD, SOPCHOPPY, FL, 32358",629647558,"L"
280905,"7221 VERDI WAY","MCKINNEY","TX",75072,33.200160828,-96.713256433,405,"7221 VERDI WAY, MCKINNEY, TX, 75072","Match","Exact","7221 VERDI WAY, MCKINNEY, TX, 75072",619923068,"L"
280906,"7221 W VALHALLA WAY","MADISON","WI",53719,43.0456795280001,-89.508373976,406,"7221 W VALHALLA WAY, MADISON, WI, 53719","Match","Exact","7221 W VALHALLA WAY, MADISON, WI, 53719",49498438,"L"
280907,"7222 BROOKCOVE LN","DALLAS","TX",75214,32.8465479990001,-96.734883839,407,"7222 BROOKCOVE LN, DALLAS, TX, 75214","Match","Exact","7222 BROOKCOVE LN, DALLAS, TX, 75214",102919113,"R"
280908,"7222 CARMEN PLACE","MENTOR","OH",44060,41.6729761030001,-81.311376536,408,"7222 CARMEN PLACE, MENTOR, OH, 44060","Match","Exact","7222 CARMEN PL, MENTOR, OH, 44060",137474210,"L"
280909,"7222 N BRAY ROAD","MOUNT MORRIS","MI",48458,NA,NA,409,"7222 N BRAY ROAD, MOUNT MORRIS, MI, 48458","Tie",NA,NA,NA,NA
280910,"7222 ORCHID LAKE ROAD","NEW PORT RICHEY","FL",34653,28.272903914,-82.6951301139999,410,"7222 ORCHID LAKE ROAD, NEW PORT RICHEY, FL, 34653","Match","Exact","7222 ORCHID LAKE RD, NEW PORT RICHEY, FL, 34653",86372030,"R"
280911,"7222 PETROL ST APT 2","PARAMOUNT","CA",90723,33.8982014110001,-118.172362975,411,"7222 PETROL ST APT 2, PARAMOUNT, CA, 90723","Match","Non_Exact","7222 E PETROL ST, PARAMOUNT, CA, 90723",142851181,"R"
280912,"7222 S WABASH","CHICAGO","IL",60619,NA,NA,412,"7222 S WABASH, CHICAGO, IL, 60619","No_Match",NA,NA,NA,NA
280913,"7222 STILLBROOK ST","San Antonio","TX",78238,29.4903091480001,-98.6317094299999,413,"7222 STILLBROOK ST, San Antonio, TX, 78238","Match","Non_Exact","7222 STILL BROOK ST, SAN ANTONIO, TX, 78238",101506352,"L"
280914,"7222 W CERMAK SUITE 312","NORTH RIVERSIDE","IL",60546,41.850180676,-87.815888925,414,"7222 W CERMAK SUITE 312, NORTH RIVERSIDE, IL, 60546","Match","Non_Exact","7222 CERMAK RD, N RIVERSIDE, IL, 60546",605267437,"R"
280915,"7222 W COUNTY LINE RD","ODESSA","FL",33556,28.172863481,-82.559325396,415,"7222 W COUNTY LINE RD, ODESSA, FL, 33556","Match","Exact","7222 COUNTY LINE RD, ODESSA, FL, 33556",635536906,"L"
280916,"7223 BUCANERO","GRAND PRAIRIE","TX",75054,32.591194092,-97.0432391319999,416,"7223 BUCANERO, GRAND PRAIRIE, TX, 75054","Match","Exact","7223 BUCANERO, GRAND PRAIRIE, TX, 75054",617672017,"R"
280917,"7223 CANADIAN DR","IRVING","TX",75039,32.907314587,-96.946631976,417,"7223 CANADIAN DR, IRVING, TX, 75039","Match","Exact","7223 CANADIAN DR, IRVING, TX, 75039",624608143,"R"
280918,"7223 CHADWICK DR","FORT WAYNE","IN",46835,41.0196809550001,-85.083572395,418,"7223 CHADWICK DR, FORT WAYNE, IN, 46835","Match","Non_Exact","7223 CHADWICK DR, FORT WAYNE, IN, 46816",6387015,"L"
280919,"7223 ESTANCIA LANE","SMITHFIELD","UT",84335,41.8635737980001,-111.87671542,419,"7223 ESTANCIA LANE, SMITHFIELD, UT, 84335","Match","Exact","7223 ESTANCIA LN, SMITHFIELD, UT, 84335",640987862,"L"
280920,"7223 KRUTSINGER RD","KINMUNDY","IL",62854,38.738156313,-88.720078856,420,"7223 KRUTSINGER RD, KINMUNDY, IL, 62854","Match","Exact","7223 KRUTSINGER RD, KINMUNDY, IL, 62854",93041504,"L"
280921,"7223 LONESOME WOODS TRL","HUMBLE","TX",77346,29.992479561,-95.1675490659999,421,"7223 LONESOME WOODS TRL, HUMBLE, TX, 77346","Match","Exact","7223 LONESOME WOODS TRL, HUMBLE, TX, 77346",96118570,"L"
280922,"7223 N WILDERNESS RD","MOUNT VERNON","KY",40456,NA,NA,422,"7223 N WILDERNESS RD, MOUNT VERNON, KY, 40456","Tie",NA,NA,NA,NA
280923,"7223 NORTH HAMILTON AVENUE UNIT F","CHICAGO","IL",60645,42.012932957,-87.684976083,423,"7223 NORTH HAMILTON AVENUE UNIT F, CHICAGO, IL, 60645","Match","Exact","7223 N HAMILTON AVE, CHICAGO, IL, 60645",605261291,"R"
280924,"7223 RUTH DR","KLAMATH FALLS","OR",97603,42.182704259,-121.701882335,424,"7223 RUTH DR, KLAMATH FALLS, OR, 97603","Match","Exact","7223 RUTH DR, KLAMATH FALLS, OR, 97603",156708608,"L"
280925,"7223 S MAIN ST","LOS ANGELES","CA",90003,33.9744577540001,-118.273933678,425,"7223 S MAIN ST, LOS ANGELES, CA, 90003","Match","Non_Exact","7223 S MAIN ST, LOS ANGELES, CA, 90003",141659855,"R"
280926,"7223 SHELTON COURT","CHESTERFIELD","VA",23832,37.381482754,-77.5114031909999,426,"7223 SHELTON COURT, CHESTERFIELD, VA, 23832","Match","Exact","7223 SHELTON CT, CHESTERFIELD, VA, 23832",201566289,"R"
280927,"7223 SOUTH MAIN STREET","LOS ANGELES","CA",90003,33.974461149,-118.273933694,427,"7223 SOUTH MAIN STREET, LOS ANGELES, CA, 90003","Match","Exact","7223 S MAIN ST, LOS ANGELES, CA, 90003",141659855,"R"
280928,"7223 W 118TH PL UNIT D","BROOMFIELD","CO",80020,39.9104213100001,-105.076913512,428,"7223 W 118TH PL UNIT D, BROOMFIELD, CO, 80020","Match","Non_Exact","7223 W 118TH PL, BROOMFIELD, CO, 80020",210038883,"R"
280929,"7223 WILD OLIVE AVE NE","ALBUQUERQUE","NM",87113,35.1905204940001,-106.565856563,429,"7223 WILD OLIVE AVE NE, ALBUQUERQUE, NM, 87113","Match","Exact","7223 WILD OLIVE AVE NE, ALBUQUERQUE, NM, 87113",632646314,"L"
280930,"7223B FLORIN MALL DRIVE","SACRAMENTO","CA",95823,38.4950799370001,-121.434378927,430,"7223B FLORIN MALL DRIVE, SACRAMENTO, CA, 95823","Match","Exact","7223 FLORIN MALL DR, SACRAMENTO, CA, 95823",133352738,"L"
280931,"7224 COLD SPRINGS ROAD","PENNGROVE","CA",94951,38.3272824760001,-122.630105665,431,"7224 COLD SPRINGS ROAD, PENNGROVE, CA, 94951","Match","Exact","7224 COLD SPRINGS RD, PENNGROVE, CA, 94951",67475549,"R"
280932,"7224 KALLIE KAY LANE","SACRAMENTO","CA",95823,38.477397266,-121.419745813,432,"7224 KALLIE KAY LANE, SACRAMENTO, CA, 95823","Match","Exact","7224 KALLIE KAY LN, SACRAMENTO, CA, 95823",637116194,"R"
280933,"7224 PORT AVENUE","CLEVELAND","OH",44104,41.4774899760001,-81.638133969,433,"7224 PORT AVENUE, CLEVELAND, OH, 44104","Match","Exact","7224 PORT AVE, CLEVELAND, OH, 44104",640792117,"R"
280934,"7224 REGNER RD","SAN DIEGO","CA",92119,32.8122058100001,-117.015554358,434,"7224 REGNER RD, SAN DIEGO, CA, 92119","Match","Exact","7224 REGNER RD, SAN DIEGO, CA, 92119",195325950,"L"
280935,"7224 S HALLDALE AVE","LOS ANGELES","CA",90047,33.9742459140001,-118.302424023,435,"7224 S HALLDALE AVE, LOS ANGELES, CA, 90047","Match","Exact","7224 S HALLDALE AVE, LOS ANGELES, CA, 90047",141658477,"L"
280936,"7224 SE ARIEL ST","HILLSBORO","OR",97123,45.5141678250001,-122.905931923,436,"7224 SE ARIEL ST, HILLSBORO, OR, 97123","Match","Exact","7224 SE ARIEL ST, HILLSBORO, OR, 97123",158219560,"L"
280937,"7224 W CANBERRA ST DRIVE","GREELEY","CO",80634,40.4331447870001,-104.796494474,437,"7224 W CANBERRA ST DRIVE, GREELEY, CO, 80634","Match","Non_Exact","7224 CANBERRA ST RD, GREELEY, CO, 80634",188743296,"R"
280938,"7224 WOODSPAN DRIVE","DALLAS","TX",75232,32.6605427280001,-96.831898804,438,"7224 WOODSPAN DRIVE, DALLAS, TX, 75232","Match","Exact","7224 WOODSPAN DR, DALLAS, TX, 75232",102953047,"L"
280939,"7225 CALVIN ROAD","UPPER DARBY","PA",19082,39.95856073,-75.265457979,439,"7225 CALVIN ROAD, UPPER DARBY, PA, 19082","Match","Exact","7225 CALVIN RD, UPPER DARBY, PA, 19082",134877739,"R"
280940,"7225 CROSSROADS GARDEN DR APT 4211","ORLANDO","FL",32821,28.356794866,-81.486857857,440,"7225 CROSSROADS GARDEN DR APT 4211, ORLANDO, FL, 32821","Match","Exact","7225 CROSSROADS GARDEN DR, ORLANDO, FL, 32821",650566193,"R"
280941,"7225 CROWLEY ROAD","FORT WORTH","TX",76134,32.640097052,-97.3484806929999,441,"7225 CROWLEY ROAD, FORT WORTH, TX, 76134","Match","Exact","7225 CROWLEY RD, FORT WORTH, TX, 76134",102130568,"L"
280942,"7225 E CRESCENT CT","SPRINGFIELD","MO",65809,37.176090957,-93.138544172,442,"7225 E CRESCENT CT, SPRINGFIELD, MO, 65809","Match","Exact","7225 E CRESCENT CT, SPRINGFIELD, MO, 65809",618213528,"R"
280943,"7225 ELLINGTON CIRCLE","AUSTIN","TX",78724,30.306088403,-97.643243426,443,"7225 ELLINGTON CIRCLE, AUSTIN, TX, 78724","Match","Exact","7225 ELLINGTON CIR, AUSTIN, TX, 78724",63974549,"R"
280944,"7225 FERNWOOD AVE","EGG HARBOR TOWNSHIP","NJ",8234,39.3723266970001,-74.620013098,444,"7225 FERNWOOD AVE, EGG HARBOR TOWNSHIP, NJ, 8234","Match","Exact","7225 FERNWOOD AVE, EGG HARBOR TOWNSHIP, NJ, 08234",202524408,"L"
280945,"7225 HIGHWAY 41","LEMOORE","CA",93245,36.3717506140001,-119.80956132,445,"7225 HIGHWAY 41, LEMOORE, CA, 93245","Match","Non_Exact","7225 STATE HWY 41, LEMOORE, CA, 93245",197995279,"R"
280946,"7225 JOHNSTON ROAD","ZOLFO SPRINGS","FL",33890,27.4003146220001,-81.62917325,446,"7225 JOHNSTON ROAD, ZOLFO SPRINGS, FL, 33890","Match","Exact","7225 JOHNSTON RD, ZOLFO SPRINGS, FL, 33890",16197357,"R"
280947,"7225 LEDBETTER RD","CLIMAX","NC",27233,35.910951647,-79.690769506,447,"7225 LEDBETTER RD, CLIMAX, NC, 27233","Match","Exact","7225 LEDBETTER RD, CLIMAX, NC, 27233",131091287,"R"
280948,"7225 LESTER ROAD","UNION CITY","GA",30291,33.553292637,-84.5250600809999,448,"7225 LESTER ROAD, UNION CITY, GA, 30291","Match","Exact","7225 LESTER RD, UNION CITY, GA, 30291",17410408,"R"
280949,"7225 NORMANDY ROAD","FORT WORTH","TX",76112,32.7488956650001,-97.204423323,449,"7225 NORMANDY ROAD, FORT WORTH, TX, 76112","Match","Exact","7225 NORMANDY RD, FORT WORTH, TX, 76112",101900468,"L"
280950,"7225 PERRYSVILLE AVENUE","PITTSBURGH","PA",15202,40.510156871,-80.0837018889999,450,"7225 PERRYSVILLE AVENUE, PITTSBURGH, PA, 15202","Match","Exact","7225 PERRYSVILLE AVE, PITTSBURGH, PA, 15202",51614361,"L"
280951,"7225 SYLVANIA AVE","SYLVANIA","OH",43560,41.6890497840001,-83.716709682,451,"7225 SYLVANIA AVE, SYLVANIA, OH, 43560","Match","Exact","7225 SYLVANIA AVE, SYLVANIA, OH, 43560",33961296,"L"
280952,"7225 W SYLVANIA","SYLVANIA","OH",43560,41.6890494400001,-83.716714161,452,"7225 W SYLVANIA, SYLVANIA, OH, 43560","Match","Non_Exact","7225 SYLVANIA AVE, SYLVANIA, OH, 43560",33961296,"L"
280953,"7225 WALNUT DRIVE","LOS ANGELES","CA",90001,33.974274677,-118.239524777,453,"7225 WALNUT DRIVE, LOS ANGELES, CA, 90001","Match","Exact","7225 WALNUT DR, LOS ANGELES, CA, 90001",141671921,"R"
280954,"7226 235TH STREET WEST","FARMINGTON","MN",55024,44.608872047,-93.212756882,454,"7226 235TH STREET WEST, FARMINGTON, MN, 55024","Match","Exact","7226 235TH ST W, FARMINGTON, MN, 55024",636520882,"R"
280955,"7226 ALAMEDA AVE","EL PASO","TX",79915,31.74822082,-106.385548652,455,"7226 ALAMEDA AVE, EL PASO, TX, 79915","Match","Exact","7226 ALAMEDA AVE, EL PASO, TX, 79915",189346651,"R"
280956,"7226 BELMONT AVENUE","MAYS LANDING","NJ",8330,39.524628471,-74.812017898,456,"7226 BELMONT AVENUE, MAYS LANDING, NJ, 8330","Match","Exact","7226 BELMONT AVE, MAYS LANDING, NJ, 08330",202519025,"L"
280957,"7226 BRITTANY WAY","DOUGLASVILLE","GA",30134,33.779032623,-84.734302342,457,"7226 BRITTANY WAY, DOUGLASVILLE, GA, 30134","Match","Exact","7226 BRITTANY WAY, DOUGLASVILLE, GA, 30134",618477920,"L"
280958,"7226 GENERAL SHERMAN LANE","AFFTON","MO",63123,38.5641273850001,-90.3391830749999,458,"7226 GENERAL SHERMAN LANE, AFFTON, MO, 63123","Match","Exact","7226 GENERAL SHERMAN LN, AFFTON, MO, 63123",100141775,"L"
280959,"7226 INDIAN BOUNDARY","GARY","IN",46403,41.617307403,-87.251121891,459,"7226 INDIAN BOUNDARY, GARY, IN, 46403","Match","Exact","7226 INDIAN BOUNDARY, GARY, IN, 46403",98428037,"L"
280960,"7226 KETCHEL DRIVE","COMSTOCK PARK","MI",49321,43.0935628410001,-85.6490374369999,460,"7226 KETCHEL DRIVE, COMSTOCK PARK, MI, 49321","Match","Non_Exact","7226 KETCHEL DR NE, COMSTOCK PARK, MI, 49321",12451378,"L"
280961,"7226 W COLONIAL DR","BERRIEN SPRINGS","FL",49103,NA,NA,461,"7226 W COLONIAL DR, BERRIEN SPRINGS, FL, 49103","No_Match",NA,NA,NA,NA
280962,"7226 WALNUT RIDGE CIR","LAS VEGAS","NV",89119,36.0592798110001,-115.129296279,462,"7226 WALNUT RIDGE CIR, LAS VEGAS, NV, 89119","Match","Exact","7226 WALNUT RIDGE CIR, LAS VEGAS, NV, 89119",201872860,"L"
280963,"7226 WHIPPLE STREET","PITTSBURGH","PA",15218,40.4247972680001,-79.895966003,463,"7226 WHIPPLE STREET, PITTSBURGH, PA, 15218","Match","Exact","7226 WHIPPLE ST, PITTSBURGH, PA, 15218",639084618,"R"
280964,"7226 WICKFORD DR","ALEXANDRIA","VA",22315,38.7614949800001,-77.128763124,464,"7226 WICKFORD DR, ALEXANDRIA, VA, 22315","Match","Exact","7226 WICKFORD DR, ALEXANDRIA, VA, 22315",75985696,"R"
280965,"7227 BLAIR ROAD NW","WASHINGTON","DC",20012,38.9771016390001,-77.020847358,465,"7227 BLAIR ROAD NW, WASHINGTON, DC, 20012","Match","Exact","7227 BLAIR RD NW, WASHINGTON, DC, 20012",76221761,"R"
280966,"7227 BRANICO DR","ROANOKE","VA",24018,37.179450381,-80.012046251,466,"7227 BRANICO DR, ROANOKE, VA, 24018","Match","Exact","7227 BRANICO DR, ROANOKE, VA, 24018",62922394,"L"
280967,"7227 CANA","GRAND PRAIRIE","TX",75054,32.583390353,-97.059591971,467,"7227 CANA, GRAND PRAIRIE, TX, 75054","Match","Exact","7227 CANA, GRAND PRAIRIE, TX, 75054",617672292,"R"
280968,"7227 LACY HILL DR","HOUSTON","TX",77036,29.7005844780001,-95.5446662799999,468,"7227 LACY HILL DR, HOUSTON, TX, 77036","Match","Exact","7227 LACY HILL DR, HOUSTON, TX, 77036",96024245,"L"
280969,"7227 LAND O LAKES BLVD","LAND O LAKES","FL",34638,NA,NA,469,"7227 LAND O LAKES BLVD, LAND O LAKES, FL, 34638","No_Match",NA,NA,NA,NA
280970,"7227 N 16TH STREET","PHOENIX","AZ",85020,33.542171683,-112.047489929,470,"7227 N 16TH STREET, PHOENIX, AZ, 85020","Match","Non_Exact","7227 N 16TH ST, PHOENIX, AZ, 85020",128918938,"R"
280971,"7227 N PHILADELPHIA AVENUE APT 116","PORTLAND","OR",97203,45.5892274870001,-122.756055134,471,"7227 N PHILADELPHIA AVENUE APT 116, PORTLAND, OR, 97203","Match","Non_Exact","7227 N PHILADELPHIA AVE, PORTLAND, OR, 97203",157493240,"L"
280972,"7227 NORTH EUCLID AVE","GLADSTONE","MO",64118,39.225215974,-94.5569847739999,472,"7227 NORTH EUCLID AVE, GLADSTONE, MO, 64118","Match","Exact","7227 N EUCLID AVE, GLADSTONE, MO, 64118",636507278,"R"
280973,"7227 OWENSMOUTH AVENUE","CANOGA PARK","CA",91303,34.2015765030001,-118.601572907,473,"7227 OWENSMOUTH AVENUE, CANOGA PARK, CA, 91303","Match","Exact","7227 OWENSMOUTH AVE, CANOGA PARK, CA, 91303",141533223,"L"
280974,"7227 PINELAND TRAIL","DAYTON","OH",45415,39.8526805920001,-84.288683452,474,"7227 PINELAND TRAIL, DAYTON, OH, 45415","Match","Exact","7227 PINELAND TRL, DAYTON, OH, 45415",143608666,"R"
280975,"7227 POINT PLEASANT ROAD","ELK GROVE","CA",95757,38.335877827,-121.419029101,475,"7227 POINT PLEASANT ROAD, ELK GROVE, CA, 95757","Match","Exact","7227 POINT PLEASANT RD, ELK GROVE, CA, 95757",629156690,"L"
280976,"7227 SIERRA WAY","DALLAS","TX",75241,32.658108575,-96.776932341,476,"7227 SIERRA WAY, DALLAS, TX, 75241","Match","Exact","7227 SIERRA WAY, DALLAS, TX, 75241",103190612,"R"
280977,"7227 SW 22ND PLACE","GAINESVILLE","FL",32607,29.63226402,-82.420220366,477,"7227 SW 22ND PLACE, GAINESVILLE, FL, 32607","Match","Exact","7227 SW 22ND PL, GAINESVILLE, FL, 32607",6804251,"R"
280978,"7228 ALLAN AVENUE","FALLS CHURCH","VA",22046,38.8863613600001,-77.195253781,478,"7228 ALLAN AVENUE, FALLS CHURCH, VA, 22046","Match","Exact","7228 ALLAN AVE, FALLS CHURCH, VA, 22046",75978408,"R"
280979,"7228 COMMERCIAL STREET","BEULAH","MI",49617,44.6283758910001,-86.0950012,479,"7228 COMMERCIAL STREET, BEULAH, MI, 49617","Match","Non_Exact","7228 COMMERCIAL AVE, BEULAH, MI, 49617",145912968,"R"
280980,"7228 ELMWOOD AVE","MIDDLETON","WI",53562,43.096064185,-89.505538547,480,"7228 ELMWOOD AVE, MIDDLETON, WI, 53562","Match","Exact","7228 ELMWOOD AVE, MIDDLETON, WI, 53562",49464636,"R"
280981,"7228 EVE COURT","LAS VEGAS","NV",89145,36.163552366,-115.256291311,481,"7228 EVE COURT, LAS VEGAS, NV, 89145","Match","Exact","7228 EVE CT, LAS VEGAS, NV, 89145",201858313,"R"
280982,"7228 GOLD MINE AVE","AUSTELL","GA",30168,33.77777396,-84.558679345,482,"7228 GOLD MINE AVE, AUSTELL, GA, 30168","Match","Exact","7228 GOLD MINE AVE, AUSTELL, GA, 30168",634052029,"L"
280983,"7228 HAZELTINE COURT","DENVER","NC",28037,35.4805155070001,-81.0340732449999,483,"7228 HAZELTINE COURT, DENVER, NC, 28037","Match","Exact","7228 HAZELTINE CT, DENVER, NC, 28037",625229609,"L"
280984,"7228 MOORE LN","STANTON","CA",90680,33.8051123330001,-118.006760239,484,"7228 MOORE LN, STANTON, CA, 90680","Match","Exact","7228 MOORE LN, STANTON, CA, 90680",650673010,"R"
280985,"7229 BEECH AVE","ORANGEVALE","CA",95662,38.698251531,-121.229988936,485,"7229 BEECH AVE, ORANGEVALE, CA, 95662","Match","Exact","7229 BEECH AVE, ORANGEVALE, CA, 95662",133363961,"L"
280986,"7229 BOGGESS","HOUSTON","TX",77016,29.859576335,-95.29845077,486,"7229 BOGGESS, HOUSTON, TX, 77016","Match","Non_Exact","7229 BOGGESS RD, HOUSTON, TX, 77016",96075602,"L"
280987,"7229 EASY STREET","CAMP SPRINGS","MD",20748,38.7910443870001,-76.918033378,487,"7229 EASY STREET, CAMP SPRINGS, MD, 20748","Match","Exact","7229 EASY ST, CAMP SPRINGS, MD, 20748",76330479,"R"
280988,"7229 MERLOT SIENNA AVE","GIBSONTON","FL",33534,27.7941354500001,-82.369827834,488,"7229 MERLOT SIENNA AVE, GIBSONTON, FL, 33534","Match","Exact","7229 MERLOT SIENNA AVE, GIBSONTON, FL, 33534",624729897,"R"
280989,"722A W NORTH 1ST STREET","SENECA","SC",29678,34.6887732550001,-82.970840174,489,"722A W NORTH 1ST STREET, SENECA, SC, 29678","Match","Exact","722 W NORTH 1ST ST, SENECA, SC, 29678",25644605,"R"
280990,"723 1ST AVE S","FORT DODGE","IA",50501,42.50396762,-94.188233435,490,"723 1ST AVE S, FORT DODGE, IA, 50501","Match","Exact","723 1ST AVE S, FORT DODGE, IA, 50501",638319836,"R"
280991,"723 3RD ST S","KIRKLAND","WA",98033,47.669985313,-122.20332084,491,"723 3RD ST S, KIRKLAND, WA, 98033","Match","Exact","723 3RD ST S, KIRKLAND, WA, 98033",239763871,"R"
280992,"723 ARBUCKLE RD","ERIE","PA",16509,42.0903715860001,-80.039701666,492,"723 ARBUCKLE RD, ERIE, PA, 16509","Match","Exact","723 ARBUCKLE RD, ERIE, PA, 16509",117498815,"R"
280993,"723 BAKER ST","SAN FRANCISCO","CA",94115,37.7776225900001,-122.4417326,493,"723 BAKER ST, SAN FRANCISCO, CA, 94115","Match","Exact","723 BAKER ST, SAN FRANCISCO, CA, 94115",192283289,"L"
280994,"723 BISHOP ROAD","BALL GROUND","GA",30107,34.3048313730001,-84.439634456,494,"723 BISHOP ROAD, BALL GROUND, GA, 30107","Match","Exact","723 BISHOP RD, BALL GROUND, GA, 30107",624486263,"R"
280995,"723 BREAUX ALLEY","NEW IBERIA","LA",70560,30.0090309820001,-91.83464881,495,"723 BREAUX ALLEY, NEW IBERIA, LA, 70560","Match","Exact","723 BREAUX ALY, NEW IBERIA, LA, 70560",85361490,"L"
280996,"723 BROWNSVILLE RD","SINKING SPRING","PA",19608,40.36054217,-76.0501059109999,496,"723 BROWNSVILLE RD, SINKING SPRING, PA, 19608","Match","Exact","723 BROWNSVILLE RD, SINKING SPRING, PA, 19608",80433059,"L"
280997,"723 CARMEL PLACE","RUTLAND","VT",5701,43.6065793320001,-72.94677267,497,"723 CARMEL PLACE, RUTLAND, VT, 5701","Match","Exact","723 CARMEL PL, RUTLAND, VT, 05701",627123132,"R"
280998,"723 CLINTON DRIVE - SUITE A","STOCKTON","CA",95210,38.023666523,-121.303322774,498,"723 CLINTON DRIVE - SUITE A, STOCKTON, CA, 95210","Match","Exact","723 CLINTON DR, STOCKTON, CA, 95210",133845257,"L"
280999,"723 CLINTON ST","WAUKESHA","WI",53186,43.0099913400001,-88.232740314,499,"723 CLINTON ST, WAUKESHA, WI, 53186","Match","Exact","723 CLINTON ST, WAUKESHA, WI, 53186",53811766,"R"
281000,"723 CLINTON STREET","CAMDEN","NJ",8103,39.9385071680001,-75.1150031239999,500,"723 CLINTON STREET, CAMDEN, NJ, 8103","Match","Exact","723 CLINTON ST, CAMDEN, NJ, 08103",647273278,"L"
