"ID","Address","City","State","Zip","lat","long","id","input_address","match_indicator","match_type","matched_address","tiger_line_id","tiger_side"
67501,"1501 9TH AVE N","SARTELL","MN",56307,45.6413963570001,-94.2185388839999,1,"1501 9TH AVE N, SARTELL, MN, 56307","Match","Non_Exact","1501 9TH AVE N, SARTELL, MN, 56377",611976221,"R"
67502,"1501 ADELLA ST","COLUMBIA","SC",29210,34.031915434,-81.0791511739999,2,"1501 ADELLA ST, COLUMBIA, SC, 29210","Match","Exact","1501 ADELLA ST, COLUMBIA, SC, 29210",647346660,"L"
67503,"1501 ALAMO DRIVE SUITE 109","VACAVILLE","CA",95687,38.335500709,-121.983807428,3,"1501 ALAMO DRIVE SUITE 109, VACAVILLE, CA, 95687","Match","Exact","1501 ALAMO DR, VACAVILLE, CA, 95687",192582095,"L"
67504,"1501 AMARONE PL","LUTZ","FL",33548,28.126390992,-82.4891095949999,4,"1501 AMARONE PL, LUTZ, FL, 33548","Match","Exact","1501 AMARONE PL, LUTZ, FL, 33548",623993292,"R"
67505,"1501 B SOUTH WHEELER ST","JASPER","TX",75951,30.905785764,-93.993629813,5,"1501 B SOUTH WHEELER ST, JASPER, TX, 75951","Match","Exact","1501 S WHEELER ST, JASPER, TX, 75951",32400558,"L"
67506,"1501 BARNSDALE ROAD","LA GRANGE PARK","IL",60526,41.842544811,-87.866876292,6,"1501 BARNSDALE ROAD, LA GRANGE PARK, IL, 60526","Match","Exact","1501 BARNSDALE RD, LA GRANGE PARK, IL, 60526",605267672,"R"
67507,"1501 BASS BLVD","DUNEDIN","FL",34698,28.0249751800001,-82.7802416769999,7,"1501 BASS BLVD, DUNEDIN, FL, 34698","Match","Exact","1501 BASS BLVD, DUNEDIN, FL, 34698",124665205,"R"
67508,"1501 BENNETT CLARK RD","NACOGDOCHES","TX",75961,31.583474198,-94.647983414,8,"1501 BENNETT CLARK RD, NACOGDOCHES, TX, 75961","Match","Exact","1501 BENNETT CLARK RD, NACOGDOCHES, TX, 75961",72436334,"R"
67509,"1501 BERKSHIRE AVENUE","JUPITER","FL",33469,26.9526372730001,-80.08965703,9,"1501 BERKSHIRE AVENUE, JUPITER, FL, 33469","Match","Exact","1501 BERKSHIRE AVE, JUPITER, FL, 33469",115261830,"R"
67510,"1501 BEXAR CROSSING STREET","SAN ANTONIO","TX",78232,29.601744868,-98.472119148,10,"1501 BEXAR CROSSING STREET, SAN ANTONIO, TX, 78232","Match","Exact","1501 BEXAR CROSSING, SAN ANTONIO, TX, 78232",101711172,"R"
67511,"1501 BISCAYNE BLVD SUITE 200 RM 21","MIAMI","FL",33132,NA,NA,11,"1501 BISCAYNE BLVD SUITE 200 RM 21, MIAMI, FL, 33132","No_Match",NA,NA,NA,NA
67512,"1501 BLACKFOOT DR","FREMONT","CA",94539,37.511742801,-121.927668753,12,"1501 BLACKFOOT DR, FREMONT, CA, 94539","Match","Exact","1501 BLACKFOOT DR, FREMONT, CA, 94539",125034353,"L"
67513,"1501 BLAIR ST","HOUSTON","TX",77008,29.7980736760001,-95.4068437189999,13,"1501 BLAIR ST, HOUSTON, TX, 77008","Match","Exact","1501 BLAIR ST, HOUSTON, TX, 77008",96055292,"L"
67514,"1501 BROOKFORD ROAD","KERNERSVILLE","NC",27284,36.092586156,-80.05755727,14,"1501 BROOKFORD ROAD, KERNERSVILLE, NC, 27284","Match","Exact","1501 BROOKFORD RD, KERNERSVILLE, NC, 27284",616661570,"L"
67515,"1501 BROOKVIEW BLVD","KENDALLVILLE","IN",46755,41.4596437480001,-85.240089671,15,"1501 BROOKVIEW BLVD, KENDALLVILLE, IN, 46755","Match","Exact","1501 BROOKVIEW BLVD, KENDALLVILLE, IN, 46755",649911409,"L"
67516,"1501 BROOKWOOD AVE","FLINT","MI",48503,43.0127041420001,-83.66947707,16,"1501 BROOKWOOD AVE, FLINT, MI, 48503","Match","Non_Exact","1501 BROOKWOOD DR, FLINT, MI, 48503",69569320,"L"
67517,"1501 BRUSHY VIEW CV","AUSTIN","TX",78754,30.3666331920001,-97.664824354,17,"1501 BRUSHY VIEW CV, AUSTIN, TX, 78754","Match","Exact","1501 BRUSHY VIEW COVE, AUSTIN, TX, 78754",63934498,"R"
67518,"1501 BYRD STREET","BALTIMORE","MD",21230,39.27264769,-76.610813594,18,"1501 BYRD STREET, BALTIMORE, MD, 21230","Match","Exact","1501 BYRD ST, BALTIMORE, MD, 21230",206421288,"L"
67519,"1501 CALUSA DR  300-204","BELLE GLADE","FL",33430,26.6648000340001,-80.686889478,19,"1501 CALUSA DR  300-204, BELLE GLADE, FL, 33430","Match","Exact","1501 CALUSA DR, BELLE GLADE, FL, 33430",652043112,"R"
67520,"1501 CALUSA DRIVE APT 5201","BELLE GLADE","FL",33430,26.6648000340001,-80.686889478,20,"1501 CALUSA DRIVE APT 5201, BELLE GLADE, FL, 33430","Match","Exact","1501 CALUSA DR, BELLE GLADE, FL, 33430",652043112,"R"
67521,"1501 CASS STREET SUITE C","TRAVERSE CITY","MI",49684,44.7486467310001,-85.620858879,21,"1501 CASS STREET SUITE C, TRAVERSE CITY, MI, 49684","Match","Non_Exact","1501 S CASS ST, TRAVERSE CITY, MI, 49684",145519528,"R"
67522,"1501 CEDAR PARK DR","MOBILE","AL",36605,30.6012224630001,-88.075023576,22,"1501 CEDAR PARK DR, MOBILE, AL, 36605","Match","Exact","1501 CEDAR PARK DR, MOBILE, AL, 36605",61864519,"L"
67523,"1501 CEDAR STREET","ALEXANDRIA","MN",56308,45.8753636480001,-95.383825481,23,"1501 CEDAR STREET, ALEXANDRIA, MN, 56308","Match","Exact","1501 CEDAR ST, ALEXANDRIA, MN, 56308",204654762,"R"
67524,"1501 CHERRY STREET","PHILADELPHIA","PA",19102,39.9555583280001,-75.164723856,24,"1501 CHERRY STREET, PHILADELPHIA, PA, 19102","Match","Exact","1501 CHERRY ST, PHILADELPHIA, PA, 19102",131407570,"R"
67525,"1501 CHIMNEY WORKS DR","SOUTHLAKE","TX",76092,32.9283224110001,-97.174451742,25,"1501 CHIMNEY WORKS DR, SOUTHLAKE, TX, 76092","Match","Exact","1501 CHIMNEY WORKS DR, SOUTHLAKE, TX, 76092",102110386,"R"
67526,"1501 COPPERFIELD","COLLEGE STATION","TX",77845,30.6476660710001,-96.29222114,26,"1501 COPPERFIELD, COLLEGE STATION, TX, 77845","Match","Non_Exact","1501 COPPERFIELD PKWY, COLLEGE STATION, TX, 77845",617263967,"L"
67527,"1501 COVEY RISE COURT","CLARKSVILLE","TN",37043,36.565258263,-87.2268772579999,27,"1501 COVEY RISE COURT, CLARKSVILLE, TN, 37043","Match","Exact","1501 COVEY RISE CT, CLARKSVILLE, TN, 37043",634980423,"R"
67528,"1501 CR 271","LEANDER","TX",78641,30.5700058680001,-97.8219718189999,28,"1501 CR 271, LEANDER, TX, 78641","Match","Exact","1501 CO RD 271, LEANDER, TX, 78641",647874730,"R"
67529,"1501 CRIPPLE CREEK COURT","DESOTO","TX",75115,32.5883317060001,-96.8980234749999,29,"1501 CRIPPLE CREEK COURT, DESOTO, TX, 75115","Match","Exact","1501 CRIPPLE CREEK CT, DESOTO, TX, 75115",103185983,"L"
67530,"1501 CRYSTAL DRIVE STE 431","ARLINGTON","VA",22202,38.860729382,-77.049385424,30,"1501 CRYSTAL DRIVE STE 431, ARLINGTON, VA, 22202","Match","Exact","1501 CRYSTAL DR, ARLINGTON, VA, 22202",640767976,"L"
67531,"1501 CUSSETA ROAD","COLUMBUS","GA",31901,32.4553185990001,-84.970548736,31,"1501 CUSSETA ROAD, COLUMBUS, GA, 31901","Match","Exact","1501 CUSSETA RD, COLUMBUS, GA, 31901",98941727,"L"
67532,"1501 DARTMOUTH AVENUE","AUSTIN","TX",78757,30.3485204880001,-97.72350992,32,"1501 DARTMOUTH AVENUE, AUSTIN, TX, 78757","Match","Exact","1501 DARTMOUTH AVE, AUSTIN, TX, 78757",63931155,"L"
67533,"1501 DECATUR HWY STE 101","GARDENDALE","AL",35071,33.6625360290001,-86.813529391,33,"1501 DECATUR HWY STE 101, GARDENDALE, AL, 35071","Match","Exact","1501 DECATUR HWY, GARDENDALE, AL, 35071",81698252,"R"
67534,"1501 DEER RUN COURT","MITCHELLVILLE","MD",20721,38.9119567450001,-76.822918316,34,"1501 DEER RUN COURT, MITCHELLVILLE, MD, 20721","Match","Exact","1501 DEER RUN CT, MITCHELLVILLE, MD, 20721",76341944,"L"
67535,"1501 E 4TH STREET APT 18","LONG BEACH","CA",90802,33.771716396,-118.172870437,35,"1501 E 4TH STREET APT 18, LONG BEACH, CA, 90802","Match","Non_Exact","1501 E 4TH ST, LONG BEACH, CA, 90802",141695047,"L"
67536,"1501 E BASELINE RD","GILBERT","AZ",85233,33.3789684120001,-111.797909274,36,"1501 E BASELINE RD, GILBERT, AZ, 85233","Match","Exact","1501 E BASELINE RD, GILBERT, AZ, 85233",128254459,"R"
67537,"1501 E BROWARD BLVD SUITE 606","FT LAUDERDALE","FL",33301,26.122668891,-80.128508793,37,"1501 E BROWARD BLVD SUITE 606, FT LAUDERDALE, FL, 33301","Match","Non_Exact","1501 E BROWARD BLVD, FORT LAUDERDALE, FL, 33301",114726089,"L"
67538,"1501 E COURT ST","DYERSBURG","TN",38024,36.0286499790001,-89.3672351879999,38,"1501 E COURT ST, DYERSBURG, TN, 38024","Match","Exact","1501 E COURT ST, DYERSBURG, TN, 38024",40653930,"L"
67539,"1501 E GANSON STREET","JACKSON","MI",49202,42.254763977,-84.385723806,39,"1501 E GANSON STREET, JACKSON, MI, 49202","Match","Exact","1501 E GANSON ST, JACKSON, MI, 49202",17617431,"R"
67540,"1501 E MAXWELL ST","PENSACOLA","FL",32503,30.437842447,-87.201092375,40,"1501 E MAXWELL ST, PENSACOLA, FL, 32503","Match","Exact","1501 E MAXWELL ST, PENSACOLA, FL, 32503",93221820,"R"
67541,"1501 E MOCKINGBIRD LN STE 222","VICTORIA","TX",77904,28.8359565550001,-96.991389506,41,"1501 E MOCKINGBIRD LN STE 222, VICTORIA, TX, 77904","Match","Non_Exact","1501 E MOCKINGBIRD LN, VICTORIA, TX, 77904",44558494,"R"
67542,"1501 E OLIVER ST","BALTIMORE","MD",21213,39.3073510580001,-76.598123081,42,"1501 E OLIVER ST, BALTIMORE, MD, 21213","Match","Exact","1501 E OLIVER ST, BALTIMORE, MD, 21213",206420296,"R"
67543,"1501 E PYTHIAN STREET","SPRINGFIELD","MO",65802,37.218484285,-93.267972265,43,"1501 E PYTHIAN STREET, SPRINGFIELD, MO, 65802","Match","Exact","1501 E PYTHIAN ST, SPRINGFIELD, MO, 65802",605874765,"L"
67544,"1501 E RED RIVER SUITE C1","VICTORIA","TX",77901,NA,NA,44,"1501 E RED RIVER SUITE C1, VICTORIA, TX, 77901","No_Match",NA,NA,NA,NA
67545,"1501 E REMINGTON RD","ATHOL","ID",83801,47.9332269700001,-116.764974791,45,"1501 E REMINGTON RD, ATHOL, ID, 83801","Match","Exact","1501 E REMINGTON RD, ATHOL, ID, 83801",192931228,"R"
67546,"1501 EAST AVENUE","VICKSBURG","MS",39180,32.34077662,-90.871647223,46,"1501 EAST AVENUE, VICKSBURG, MS, 39180","Match","Exact","1501 EAST AVE, VICKSBURG, MS, 39180",71293990,"L"
67547,"1501 EDGEMORE AVE SUITE C1","SALISBURY","MD",21801,38.3819361720001,-75.586789129,47,"1501 EDGEMORE AVE SUITE C1, SALISBURY, MD, 21801","Match","Exact","1501 EDGEMORE AVE, SALISBURY, MD, 21801",114495828,"L"
67548,"1501 EGMONT PLACE","FAR ROCKAWAY","NY",11691,NA,NA,48,"1501 EGMONT PLACE, FAR ROCKAWAY, NY, 11691","No_Match",NA,NA,NA,NA
67549,"1501 EL CAMINO AVE SUITE 204","SACRAMENTO","CA",95815,NA,NA,49,"1501 EL CAMINO AVE SUITE 204, SACRAMENTO, CA, 95815","No_Match",NA,NA,NA,NA
67550,"1501 EL PRADO LANE","SUISUN","CA",94585,38.248183565,-121.987302172,50,"1501 EL PRADO LANE, SUISUN, CA, 94585","Match","Non_Exact","1501 EL PRADO LN, SUISUN CITY, CA, 94585",192577390,"L"
67551,"1501 ESTALOTE","HARVEY","LA",70058,29.8901053660001,-90.07096281,51,"1501 ESTALOTE, HARVEY, LA, 70058","Match","Non_Exact","1501 ESTALOTE AVE, HARVEY, LA, 70058",93509470,"L"
67552,"1501 EVELYN AVE","CHAPEL HILL","TN",37034,35.602003202,-86.7458141,52,"1501 EVELYN AVE, CHAPEL HILL, TN, 37034","Match","Exact","1501 EVELYN AVE, CHAPEL HILL, TN, 37034",58977436,"L"
67553,"1501 EVERMAN PKWY","FORT WORTH","TX",76134,32.6275486370001,-97.3040229549999,53,"1501 EVERMAN PKWY, FORT WORTH, TX, 76134","Match","Non_Exact","1501 EVERMAN PKWY, FT WORTH, TX, 76140",102130159,"L"
67554,"1501 FAIRLAKES PL","BOWIE","MD",20721,38.9107647070001,-76.8245470699999,54,"1501 FAIRLAKES PL, BOWIE, MD, 20721","Match","Exact","1501 FAIRLAKES PL, BOWIE, MD, 20721",76335891,"L"
67555,"1501 FAVORWOOD CT","RALEIGH","NC",27615,35.8892984180001,-78.612651767,55,"1501 FAVORWOOD CT, RALEIGH, NC, 27615","Match","Exact","1501 FAVORWOOD CT, RALEIGH, NC, 27615",72505922,"R"
67556,"1501 FERN AVE","WALLA WALLA","WA",99362,46.054578486,-118.314796584,56,"1501 FERN AVE, WALLA WALLA, WA, 99362","Match","Non_Exact","1501 FERN ST, WALLA WALLA, WA, 99362",647304666,"R"
67557,"1501 FOREST HILL BLVD STE 103","WEST PALM BEACH","FL",33406,26.65389702,-80.0750026489999,57,"1501 FOREST HILL BLVD STE 103, WEST PALM BEACH, FL, 33406","Match","Exact","1501 FOREST HILL BLVD, WEST PALM BEACH, FL, 33406",115280200,"R"
67558,"1501 GAMBLE ROAD","LITTLE ROCK","AR",72211,34.74086207,-92.418362139,58,"1501 GAMBLE ROAD, LITTLE ROCK, AR, 72211","Match","Exact","1501 GAMBLE RD, LITTLE ROCK, AR, 72211",83547382,"R"
67559,"1501 GASCONY ROAD","ENCINITAS","CA",92024,33.0768561080001,-117.287512555,59,"1501 GASCONY ROAD, ENCINITAS, CA, 92024","Match","Exact","1501 GASCONY RD, ENCINITAS, CA, 92024",195292157,"R"
67560,"1501 GENEVA","SIOUX CITY","IA",51103,42.506235673,-96.418114552,60,"1501 GENEVA, SIOUX CITY, IA, 51103","Match","Non_Exact","1501 GENEVA ST, SIOUX CITY, IA, 51103",93443062,"L"
67561,"1501 GRUNDY LANE SUITE 100","BRISTOL","PA",19007,40.1074042290001,-74.9013490259999,61,"1501 GRUNDY LANE SUITE 100, BRISTOL, PA, 19007","Match","Exact","1501 GRUNDY LN, BRISTOL, PA, 19007",134716322,"R"
67562,"1501 HALL JOHNSON RD  UNIT 897","COLLEYVILLE","TX",76034,32.892492648,-97.145389686,62,"1501 HALL JOHNSON RD  UNIT 897, COLLEYVILLE, TX, 76034","Match","Exact","1501 HALL JOHNSON RD, COLLEYVILLE, TX, 76034",102145133,"R"
67563,"1501 HALL JOHNSON ROAD","COLLEYVILLE","TX",76034,32.892492648,-97.145389686,63,"1501 HALL JOHNSON ROAD, COLLEYVILLE, TX, 76034","Match","Exact","1501 HALL JOHNSON RD, COLLEYVILLE, TX, 76034",102145133,"R"
67564,"1501 HALL-JOHNSON ROAD 1164","COLLEYVILLE","TX",76034,32.892492648,-97.145389686,64,"1501 HALL-JOHNSON ROAD 1164, COLLEYVILLE, TX, 76034","Match","Non_Exact","1501 HALL JOHNSON RD, COLLEYVILLE, TX, 76034",102145133,"R"
67565,"1501 HARRODSBURG ROAD","LAWRENCEBURG","KY",40342,38.006661782,-84.879303882,65,"1501 HARRODSBURG ROAD, LAWRENCEBURG, KY, 40342","Match","Exact","1501 HARRODSBURG RD, LAWRENCEBURG, KY, 40342",43454100,"R"
67566,"1501 HUNTCREST DRIVE","CINCINNATI","OH",45255,39.0787227810001,-84.3393847039999,66,"1501 HUNTCREST DRIVE, CINCINNATI, OH, 45255","Match","Exact","1501 HUNTCREST DR, CINCINNATI, OH, 45255",103940788,"L"
67567,"1501 HUNTINGDON ROAD","ABINGTON","PA",19001,40.1223077390001,-75.110178612,67,"1501 HUNTINGDON ROAD, ABINGTON, PA, 19001","Match","Exact","1501 HUNTINGDON RD, ABINGTON, PA, 19001",135095028,"R"
67568,"1501 HWY 157","MANSFIELD","TX",76063,32.5866261910001,-97.1518963779999,68,"1501 HWY 157, MANSFIELD, TX, 76063","Match","Non_Exact","1501 HWY 157 N, MANSFIELD, TX, 76063",102129546,"L"
67569,"1501 INDIA STREET SUITE 103-64","SAN DIEGO","CA",92101,32.7209898790001,-117.168269344,69,"1501 INDIA STREET SUITE 103-64, SAN DIEGO, CA, 92101","Match","Exact","1501 INDIA ST, SAN DIEGO, CA, 92101",195343369,"R"
67570,"1501 INDIA STREET SUITE 304","SAN DIEGO","CA",92101,32.7209898790001,-117.168269344,70,"1501 INDIA STREET SUITE 304, SAN DIEGO, CA, 92101","Match","Exact","1501 INDIA ST, SAN DIEGO, CA, 92101",195343369,"R"
67571,"1501 JACKSONIAN PLAZA UNIT 13122","JACKSON","MS",39211,32.363102967,-90.148644727,71,"1501 JACKSONIAN PLAZA UNIT 13122, JACKSON, MS, 39211","Match","Exact","1501 JACKSONIAN PLZ, JACKSON, MS, 39211",65381629,"R"
67572,"1501 JEFFERSON STREET","NASHVILLE","TN",37208,36.170609579,-86.8020639,72,"1501 JEFFERSON STREET, NASHVILLE, TN, 37208","Match","Exact","1501 JEFFERSON ST, NASHVILLE, TN, 37208",606818638,"L"
67573,"1501 K STREET NW SUITE 175","WASHINGTON","DC",20005,38.902531954,-77.034731903,73,"1501 K STREET NW SUITE 175, WASHINGTON, DC, 20005","Match","Non_Exact","1501 K ST NW, WASHINGTON, DC, 20001",76225749,"R"
67574,"1501 K/4 RD","FRUITA","CO",81521,NA,NA,74,"1501 K/4 RD, FRUITA, CO, 81521","No_Match",NA,NA,NA,NA
67575,"1501 LACK RIDGE DR","WILDWOOD","MO",63021,38.5587770650001,-90.602099439,75,"1501 LACK RIDGE DR, WILDWOOD, MO, 63021","Match","Exact","1501 LACK RIDGE DR, WILDWOOD, MO, 63021",100184904,"R"
67576,"1501 LAKESIDE DR","LYNCHBURG","VA",24501,37.401738521,-79.1825806109999,76,"1501 LAKESIDE DR, LYNCHBURG, VA, 24501","Match","Exact","1501 LAKESIDE DR, LYNCHBURG, VA, 24501",62738697,"L"
67577,"1501 LAKESIDE DRIVE","LYNCHBURG","VA",24501,37.401738521,-79.1825806109999,77,"1501 LAKESIDE DRIVE, LYNCHBURG, VA, 24501","Match","Exact","1501 LAKESIDE DR, LYNCHBURG, VA, 24501",62738697,"L"
67578,"1501 LAPSLEY STREET","SELMA","AL",36701,32.4198246060001,-87.031554273,78,"1501 LAPSLEY STREET, SELMA, AL, 36701","Match","Exact","1501 LAPSLEY ST, SELMA, AL, 36701",1283490,"L"
67579,"1501 LAURA DUNCAN ROAD","APEX","NC",27502,35.7448267340001,-78.8363657199999,79,"1501 LAURA DUNCAN ROAD, APEX, NC, 27502","Match","Exact","1501 LAURA DUNCAN RD, APEX, NC, 27502",639843071,"L"
67580,"1501 LIBERTY ST","ALTON","IL",62002,38.900645786,-90.1741142179999,80,"1501 LIBERTY ST, ALTON, IL, 62002","Match","Exact","1501 LIBERTY ST, ALTON, IL, 62002",107679557,"R"
67581,"1501 LIBERTY STREET","ALTON","IL",62002,38.900645786,-90.1741142179999,81,"1501 LIBERTY STREET, ALTON, IL, 62002","Match","Exact","1501 LIBERTY ST, ALTON, IL, 62002",107679557,"R"
67582,"1501 LITTLE GLOUCESTER RD G8","BLACKWOOD","NJ",8012,39.793652233,-75.037531956,82,"1501 LITTLE GLOUCESTER RD G8, BLACKWOOD, NJ, 8012","Match","Exact","1501 LITTLE GLOUCESTER RD, BLACKWOOD, NJ, 08012",134420305,"R"
67583,"1501 LOMALINDA CIRCLE NW","UNIONTOWN","OH",44685,40.959525867,-81.3699448579999,83,"1501 LOMALINDA CIRCLE NW, UNIONTOWN, OH, 44685","Match","Exact","1501 LOMALINDA CIR NW, UNIONTOWN, OH, 44685",64691069,"R"
67584,"1501 MADISON AVE UNIT A","AUSTIN","TX",78757,30.344548053,-97.7260818409999,84,"1501 MADISON AVE UNIT A, AUSTIN, TX, 78757","Match","Exact","1501 MADISON AVE, AUSTIN, TX, 78757",63931026,"L"
67585,"1501 MENDOCINO AVE","SANTA ROSA","CA",95401,38.454911145,-122.717347994,85,"1501 MENDOCINO AVE, SANTA ROSA, CA, 95401","Match","Exact","1501 MENDOCINO AVE, SANTA ROSA, CA, 95401",67533362,"L"
67586,"1501 MERCER UNIVERSITY DR","MACON","GA",31207,NA,NA,86,"1501 MERCER UNIVERSITY DR, MACON, GA, 31207","No_Match",NA,NA,NA,NA
67587,"1501 METROPOLITAN AVE SUITE 10B","BRONX","NY",10462,40.8391847680001,-73.858913081,87,"1501 METROPOLITAN AVE SUITE 10B, BRONX, NY, 10462","Match","Exact","1501 METROPOLITAN AVE, BRONX, NY, 10462",80309126,"L"
67588,"1501 MILLERSVILLE PIKE","LANCASTER","PA",17603,40.024415961,-76.330941126,88,"1501 MILLERSVILLE PIKE, LANCASTER, PA, 17603","Match","Exact","1501 MILLERSVILLE PIKE, LANCASTER, PA, 17603",179664072,"R"
67589,"1501 MORRIS AVE","BRONX","NY",10457,40.841152245,-73.909457397,89,"1501 MORRIS AVE, BRONX, NY, 10457","Match","Exact","1501 MORRIS AVE, BRONX, NY, 10457",80299947,"L"
67590,"1501 MOUNTAIN SHADOW LN","POCATELLO","ID",83204,42.8139659300001,-112.413131704,90,"1501 MOUNTAIN SHADOW LN, POCATELLO, ID, 83204","Match","Non_Exact","1501 MOUNTAIN SHADOW DR, POCATELLO, ID, 83204",625911794,"L"
67591,"1501 MULBERRY AVE","PANAMA CITY","FL",32412,30.175549308,-85.6647837249999,91,"1501 MULBERRY AVE, PANAMA CITY, FL, 32412","Match","Non_Exact","1501 MULBERRY AVE, PANAMA CITY, FL, 32405",7029095,"L"
67592,"1501 N 29TH ST","RICHMOND","VA",23223,37.5398094820001,-77.405234198,92,"1501 N 29TH ST, RICHMOND, VA, 23223","Match","Exact","1501 N 29TH ST, RICHMOND, VA, 23223",201548613,"R"
67593,"1501 N 9TH ST","PAYETTE","ID",83661,44.090303571,-116.933375722,93,"1501 N 9TH ST, PAYETTE, ID, 83661","Match","Exact","1501 N 9TH ST, PAYETTE, ID, 83661",141426370,"L"
67594,"1501 N ALBANY AVENUE","ATLANTIC CITY","NJ",8401,39.3709458100001,-74.477539153,94,"1501 N ALBANY AVENUE, ATLANTIC CITY, NJ, 8401","Match","Exact","1501 N ALBANY AVE, ATLANTIC CITY, NJ, 08401",202540275,"R"
67595,"1501 N BRITIAN RD","IRVING","TX",75061,32.8300085170001,-96.944289221,95,"1501 N BRITIAN RD, IRVING, TX, 75061","Match","Non_Exact","1501 N BRITAIN RD, IRVING, TX, 75061",643199312,"L"
67596,"1501 N HAYDEN ISLAND DR UNIT 104E","PORTLAND","OR",97217,NA,NA,96,"1501 N HAYDEN ISLAND DR UNIT 104E, PORTLAND, OR, 97217","No_Match",NA,NA,NA,NA
67597,"1501 N MASSASOIT AVE","CHICAGO","IL",60651,41.9076275620001,-87.769479453,97,"1501 N MASSASOIT AVE, CHICAGO, IL, 60651","Match","Exact","1501 N MASSASOIT AVE, CHICAGO, IL, 60651",605046038,"R"
67598,"1501 N MONITOR","CHICAGO","IL",60651,41.907591704,-87.771899436,98,"1501 N MONITOR, CHICAGO, IL, 60651","Match","Non_Exact","1501 N MONITOR AVE, CHICAGO, IL, 60651",605046102,"R"
67599,"1501 N MOUNTAIN AVE","UPLAND","CA",91786,34.1181430560001,-117.670273763,99,"1501 N MOUNTAIN AVE, UPLAND, CA, 91786","Match","Exact","1501 N MOUNTAIN AVE, UPLAND, CA, 91786",638618423,"L"
67600,"1501 N STATE STREET","BELLINGHAM","WA",98225,48.750514224,-122.473948943,100,"1501 N STATE STREET, BELLINGHAM, WA, 98225","Match","Exact","1501 N STATE ST, BELLINGHAM, WA, 98225",183772333,"L"
67601,"1501 N UNIVERSITY STE 227","LITTLE ROCK","AR",72207,NA,NA,101,"1501 N UNIVERSITY STE 227, LITTLE ROCK, AR, 72207","No_Match",NA,NA,NA,NA
67602,"1501 NEWTON ROAD","ALBANY","GA",31701,31.559595185,-84.165312886,102,"1501 NEWTON ROAD, ALBANY, GA, 31701","Match","Exact","1501 NEWTON RD, ALBANY, GA, 31701",84315116,"R"
67603,"1501 NEWTON STREET","NEW ORLEANS","LA",70114,29.9451745590001,-90.0415149039999,103,"1501 NEWTON STREET, NEW ORLEANS, LA, 70114","Match","Exact","1501 NEWTON ST, NEW ORLEANS, LA, 70114",191718990,"R"
67604,"1501 NOBLE WAY","FLOWER MOUND","TX",75022,33.0065171160001,-97.110327667,104,"1501 NOBLE WAY, FLOWER MOUND, TX, 75022","Match","Exact","1501 NOBLE WAY, FLOWER MOUND, TX, 75022",103379897,"R"
67605,"1501 NORTH MARKET STREET ROOM 1100","FREDERICK","MD",21701,39.4328047910001,-77.404847715,105,"1501 NORTH MARKET STREET ROOM 1100, FREDERICK, MD, 21701","Match","Exact","1501 N MARKET ST, FREDERICK, MD, 21701",60671199,"L"
67606,"1501 NW 15TTH AVENUE","POMPANO BEACH","FL",33069,26.245770319,-80.143324954,106,"1501 NW 15TTH AVENUE, POMPANO BEACH, FL, 33069","Match","Non_Exact","1501 NW 15TH AVE, POMPANO BEACH, FL, 33069",114694191,"L"
67607,"1501 OAK AVE UNIT 105","EVANSTON","IL",60201,42.0442449440001,-87.686881177,107,"1501 OAK AVE UNIT 105, EVANSTON, IL, 60201","Match","Exact","1501 OAK AVE, EVANSTON, IL, 60201",605240186,"R"
67608,"1501 OCEAN AVE UNIT 2501","ASBURY PARK","NJ",7712,40.225895957,-73.99847105,108,"1501 OCEAN AVE UNIT 2501, ASBURY PARK, NJ, 7712","Match","Exact","1501 OCEAN AVE, ASBURY PARK, NJ, 07712",90525837,"L"
67609,"1501 OLD MONROVIA RD APT 311","HUNTSVILLE","AL",35806,34.75368425,-86.6796003169999,109,"1501 OLD MONROVIA RD APT 311, HUNTSVILLE, AL, 35806","Match","Non_Exact","1501 OLD MONROVIA RD, HUNTSVILLE, AL, 35806",648134923,"R"
67610,"1501 PERALTA STREET","OAKLAND","CA",94607,37.8120960740001,-122.293463356,110,"1501 PERALTA STREET, OAKLAND, CA, 94607","Match","Exact","1501 PERALTA ST, OAKLAND, CA, 94607",124995253,"L"
67611,"1501 PETTIS BLVD","KISSIMMEE","FL",34741,28.305435318,-81.423430109,111,"1501 PETTIS BLVD, KISSIMMEE, FL, 34741","Match","Exact","1501 PETTIS BLVD, KISSIMMEE, FL, 34741",629966144,"R"
67612,"1501 PIKE PLACE SUITE 1","SEATTLE","WA",98101,47.6086971730001,-122.340579289,112,"1501 PIKE PLACE SUITE 1, SEATTLE, WA, 98101","Match","Exact","1501 PIKE PL, SEATTLE, WA, 98101",642838073,"L"
67613,"1501 PINE VIEW COVE","JACKSONVILLE","AR",72076,34.8584649370001,-92.0936272009999,113,"1501 PINE VIEW COVE, JACKSONVILLE, AR, 72076","Match","Exact","1501 PINE VIEW COVE, JACKSONVILLE, AR, 72076",83540620,"L"
67614,"1501 PIPELINE RD E STE B","BEDFORD","TX",76022,NA,NA,114,"1501 PIPELINE RD E STE B, BEDFORD, TX, 76022","No_Match",NA,NA,NA,NA
67615,"1501 PLOVER STREET","STEVENS POINT","WI",54481,44.5214730820001,-89.579203964,115,"1501 PLOVER STREET, STEVENS POINT, WI, 54481","Match","Exact","1501 PLOVER ST, STEVENS POINT, WI, 54481",126794742,"R"
67616,"1501 QUINCY ST","PLAINIVEW","TX",79072,34.197091658,-101.724651118,116,"1501 QUINCY ST, PLAINIVEW, TX, 79072","Match","Non_Exact","1501 QUINCY ST, PLAINVIEW, TX, 79072",185696124,"L"
67617,"1501 RAHLING RD APT 607","LITTLE ROCK","AR",72223,34.7714486570001,-92.451609753,117,"1501 RAHLING RD APT 607, LITTLE ROCK, AR, 72223","Match","Exact","1501 RAHLING RD, LITTLE ROCK, AR, 72223",83567844,"L"
67618,"1501 RAINER ROAD","BROOKHAVEN","PA",19015,39.8518221510001,-75.39205348,118,"1501 RAINER ROAD, BROOKHAVEN, PA, 19015","Match","Exact","1501 RAINER RD, BROOKHAVEN, PA, 19015",134889624,"R"
67619,"1501 REDTAIL DR","ROCK SPRINGS","WY",82901,41.6325253680001,-109.257270693,119,"1501 REDTAIL DR, ROCK SPRINGS, WY, 82901","Match","Non_Exact","1501 RED TAIL DR, ROCK SPRINGS, WY, 82901",612219413,"R"
67620,"1501 RIDING TRAIL LANE","CONCORD","NC",28027,35.4349875790001,-80.698234654,120,"1501 RIDING TRAIL LANE, CONCORD, NC, 28027","Match","Exact","1501 RIDING TRAIL LN, CONCORD, NC, 28027",24893595,"L"
67621,"1501 ROBY RD","STOUGHTON","WI",53589,42.9272888130001,-89.238900644,121,"1501 ROBY RD, STOUGHTON, WI, 53589","Match","Exact","1501 ROBY RD, STOUGHTON, WI, 53589",49501325,"R"
67622,"1501 ROYAL DRIVE","KAUFMAN","TX",75142,NA,NA,122,"1501 ROYAL DRIVE, KAUFMAN, TX, 75142","No_Match",NA,NA,NA,NA
67623,"1501 RUATAN STREET","HYATTSVILLE","MD",20783,38.9958905290001,-76.97963788,123,"1501 RUATAN STREET, HYATTSVILLE, MD, 20783","Match","Exact","1501 RUATAN ST, HYATTSVILLE, MD, 20783",76302928,"R"
67624,"1501 RUFFIAN ROAD","DESOTO","TX",75115,32.5768807100001,-96.8957519749999,124,"1501 RUFFIAN ROAD, DESOTO, TX, 75115","Match","Exact","1501 RUFFIAN RD, DESOTO, TX, 75115",103279547,"R"
67625,"1501 S 29TH STREET","PHILADELPHIA","PA",19146,39.9347529500001,-75.1925687359999,125,"1501 S 29TH STREET, PHILADELPHIA, PA, 19146","Match","Exact","1501 S 29TH ST, PHILADELPHIA, PA, 19146",131410219,"L"
67626,"1501 S BEACH BL UNIT C305","LA HABRA","CA",90631,33.912177442,-117.973451958,126,"1501 S BEACH BL UNIT C305, LA HABRA, CA, 90631","Match","Non_Exact","1501 S BEACH BLVD, LA HABRA, CA, 90631",649766659,"R"
67627,"1501 S CHERRYBELL STRA RM 205-26272","TUCSON","AZ",85726,32.2040062400001,-110.946641334,127,"1501 S CHERRYBELL STRA RM 205-26272, TUCSON, AZ, 85726","Match","Non_Exact","1501 S CHERRYBELL STRA, TUCSON, AZ, 85726",121175837,"L"
67628,"1501 S DILWORTH","HARLINGEN","TX",78552,26.174119234,-97.750761038,128,"1501 S DILWORTH, HARLINGEN, TX, 78552","Match","Non_Exact","1501 DILWORTH RD, HARLINGEN, TX, 78552",653229881,"L"
67629,"1501 S HETHERWILDE BLVD SUITE 632","PFLUGERVILLE","TX",78660,30.433580916,-97.6502976469999,129,"1501 S HETHERWILDE BLVD SUITE 632, PFLUGERVILLE, TX, 78660","Match","Non_Exact","1501 S HEATHERWILDE BLVD, PFLUGERVILLE, TX, 78660",641852186,"L"
67630,"1501 S KILBOURN AVENUE","CHICAGO","IL",60623,41.8602023510001,-87.737221741,130,"1501 S KILBOURN AVENUE, CHICAGO, IL, 60623","Match","Exact","1501 S KILBOURN AVE, CHICAGO, IL, 60623",605053052,"L"
67631,"1501 S LA CIENEGA BLVD SUITE A","LOS ANGELES","CA",90035,NA,NA,131,"1501 S LA CIENEGA BLVD SUITE A, LOS ANGELES, CA, 90035","No_Match",NA,NA,NA,NA
67632,"1501 S LOOP 288 STE 104 PMB 200","DENTON","TX",76205,NA,NA,132,"1501 S LOOP 288 STE 104 PMB 200, DENTON, TX, 76205","No_Match",NA,NA,NA,NA
67633,"1501 S MAIN ST","LOMBARD","IL",60148,41.853888485,-88.01691532,133,"1501 S MAIN ST, LOMBARD, IL, 60148","Match","Exact","1501 S MAIN ST, LOMBARD, IL, 60148",112671913,"L"
67634,"1501 S MAIN ST","PALMYRA","MO",63461,39.7868250110001,-91.523300223,134,"1501 S MAIN ST, PALMYRA, MO, 63461","Match","Exact","1501 S MAIN ST, PALMYRA, MO, 63461",35345897,"R"
67635,"1501 S MARIETTA ST","GASTONIA","NC",28054,35.241337984,-81.1880416069999,135,"1501 S MARIETTA ST, GASTONIA, NC, 28054","Match","Exact","1501 S MARIETTA ST, GASTONIA, NC, 28054",70379776,"R"
67636,"1501 S MIAMI AVE","MIAMI","FL",33129,25.7586019780001,-80.1942552359999,136,"1501 S MIAMI AVE, MIAMI, FL, 33129","Match","Exact","1501 S MIAMI AVE, MIAMI, FL, 33129",640560408,"L"
67637,"1501 S MONTEREY SUITE 109","GILBERT","AZ",85233,NA,NA,137,"1501 S MONTEREY SUITE 109, GILBERT, AZ, 85233","No_Match",NA,NA,NA,NA
67638,"1501 S RIVERSIDE DRIVE","EDGEWATER","FL",32132,28.9788428300001,-80.896001547,138,"1501 S RIVERSIDE DRIVE, EDGEWATER, FL, 32132","Match","Exact","1501 S RIVERSIDE DR, EDGEWATER, FL, 32132",94533567,"L"
67639,"1501 S SIXTH ST","MINNEAPOLIS","MI",55454,NA,NA,139,"1501 S SIXTH ST, MINNEAPOLIS, MI, 55454","No_Match",NA,NA,NA,NA
67640,"1501 SAN ELIJO RD S 104-206","SAN MARCOS","CA",92078,33.0977483,-117.199866886,140,"1501 SAN ELIJO RD S 104-206, SAN MARCOS, CA, 92078","Match","Non_Exact","1501 SAN ELIJO RD, SAN MARCOS, CA, 92078",625178154,"R"
67641,"1501 SE DECKER AVE","STUART","FL",34994,27.18574993,-80.242834278,141,"1501 SE DECKER AVE, STUART, FL, 34994","Match","Exact","1501 SE DECKER AVE, STUART, FL, 34994",120442292,"R"
67642,"1501 SE PARDEE ST 2","PORTLAND","OR",97202,45.4896134840001,-122.650012081,142,"1501 SE PARDEE ST 2, PORTLAND, OR, 97202","Match","Non_Exact","1501 SE PARDEE ST, PORTLAND, OR, 97202",157510155,"L"
67643,"1501 SECRET RAVINE PARKWAY UNIT 734","ROSEVILLE","CA",95611,38.7648330530001,-121.242717544,143,"1501 SECRET RAVINE PARKWAY UNIT 734, ROSEVILLE, CA, 95611","Match","Non_Exact","1501 SECRET RAVINE PKWY, ROSEVILLE, CA, 95661",647390148,"R"
67644,"1501 SHADY VILLA FERN","HOUSTON","TX",77055,NA,NA,144,"1501 SHADY VILLA FERN, HOUSTON, TX, 77055","No_Match",NA,NA,NA,NA
67645,"1501 SOMERSET CANYON LANE","CEDAR PARK","TX",78613,30.481567672,-97.850639682,145,"1501 SOMERSET CANYON LANE, CEDAR PARK, TX, 78613","Match","Exact","1501 SOMERSET CANYON LN, CEDAR PARK, TX, 78613",651466507,"R"
67646,"1501 SOUTH 2ND STREET","MONROE","LA",71202,32.4852018890001,-92.101372193,146,"1501 SOUTH 2ND STREET, MONROE, LA, 71202","Match","Exact","1501 S 2ND ST, MONROE, LA, 71202",161087761,"L"
67647,"1501 SOUTH 6TH ST","RICHMOND","IN",47374,39.810033278,-84.895511281,147,"1501 SOUTH 6TH ST, RICHMOND, IN, 47374","Match","Exact","1501 S 6TH ST, RICHMOND, IN, 47374",31324860,"R"
67648,"1501 SOUTH CABRILLO AVENUE","SAN PEDRO","CA",90731,33.730545131,-118.294573178,148,"1501 SOUTH CABRILLO AVENUE, SAN PEDRO, CA, 90731","Match","Exact","1501 S CABRILLO AVE, SAN PEDRO, CA, 90731",141690597,"R"
67649,"1501 SOUTH CLINTON BOX 10451","FORT WAYNE","IN",46802,NA,NA,149,"1501 SOUTH CLINTON BOX 10451, FORT WAYNE, IN, 46802","No_Match",NA,NA,NA,NA
67650,"1501 SOUTH HUNTER STREET","PLANT CITY","FL",33563,28.0014078510001,-82.129582284,150,"1501 SOUTH HUNTER STREET, PLANT CITY, FL, 33563","Match","Non_Exact","1501 HUNTER ST, PLANT CITY, FL, 33563",104642641,"R"
67651,"1501 SOUTH LAYTON BOULEVARD","MILWAUKEE","WI",53215,43.0158502460001,-87.947894075,151,"1501 SOUTH LAYTON BOULEVARD, MILWAUKEE, WI, 53215","Match","Exact","1501 S LAYTON BLVD, MILWAUKEE, WI, 53215",638396429,"R"
67652,"1501 SPRING VALE AVE","MCLEAN","VA",22101,38.931669277,-77.1845041409999,152,"1501 SPRING VALE AVE, MCLEAN, VA, 22101","Match","Exact","1501 SPRING VALE AVE, MCLEAN, VA, 22101",75962926,"L"
67653,"1501 ST ANDREWS STREET","LA CROSSE","WI",54601,NA,NA,153,"1501 ST ANDREWS STREET, LA CROSSE, WI, 54601","No_Match",NA,NA,NA,NA
67654,"1501 STATE STREET","MARSHALL","MN",56258,44.454538395,-95.7567643689999,154,"1501 STATE STREET, MARSHALL, MN, 56258","Match","Exact","1501 STATE ST, MARSHALL, MN, 56258",38523144,"L"
67655,"1501 STEVES RD","CLERMONT","FL",34711,28.5354750400001,-81.72767709,155,"1501 STEVES RD, CLERMONT, FL, 34711","Match","Exact","1501 STEVES RD, CLERMONT, FL, 34711",617504471,"L"
67656,"1501 STONECREEK DR S SUITE 101","PICKERINGTON","OH",43147,39.9107318420001,-82.7852805639999,156,"1501 STONECREEK DR S SUITE 101, PICKERINGTON, OH, 43147","Match","Exact","1501 STONECREEK DR S, PICKERINGTON, OH, 43147",650381551,"L"
67657,"1501 SW 118 CT","MIAMI","FL",33184,25.754572653,-80.388083416,157,"1501 SW 118 CT, MIAMI, FL, 33184","Match","Exact","1501 SW 118TH CT, MIAMI, FL, 33184",115963344,"R"
67658,"1501 SWEETBRIAR AVENUE","NASHVILLE","TN",37212,36.1242893240001,-86.7920771509999,158,"1501 SWEETBRIAR AVENUE, NASHVILLE, TN, 37212","Match","Exact","1501 SWEETBRIAR AVE, NASHVILLE, TN, 37212",606379008,"L"
67659,"1501 TEAKWOOD CT","FORT COLLINS","CO",80525,40.5538689910001,-105.049827514,159,"1501 TEAKWOOD CT, FORT COLLINS, CO, 80525","Match","Exact","1501 TEAKWOOD CT, FORT COLLINS, CO, 80525",188492501,"R"
67660,"1501 THE OAKS APT 5101","CLARKSTON","GA",30021,33.8153370900001,-84.2493513169999,160,"1501 THE OAKS APT 5101, CLARKSTON, GA, 30021","Match","Non_Exact","1501 THE OAKS, CLARKSTON, GA, 30021",649758716,"R"
67661,"1501 TREE LINE DR","NORMAN","OK",73071,35.200781029,-97.41581949,161,"1501 TREE LINE DR, NORMAN, OK, 73071","Match","Exact","1501 TREE LINE DR, NORMAN, OK, 73071",99917512,"R"
67662,"1501 TULEY ST","CEDAR HILL","TX",75104,32.621819014,-96.951339841,162,"1501 TULEY ST, CEDAR HILL, TX, 75104","Match","Exact","1501 TULEY ST, CEDAR HILL, TX, 75104",102978976,"L"
67663,"1501 TULEY STREET","CEDAR HILL","TX",75104,32.621819014,-96.951339841,163,"1501 TULEY STREET, CEDAR HILL, TX, 75104","Match","Exact","1501 TULEY ST, CEDAR HILL, TX, 75104",102978976,"L"
67664,"1501 VALLEY VIEW DRIVE","HOMEWOOD","AL",35209,33.482541203,-86.804396436,164,"1501 VALLEY VIEW DRIVE, HOMEWOOD, AL, 35209","Match","Exact","1501 VALLEY VIEW DR, HOMEWOOD, AL, 35209",653023560,"R"
67665,"1501 VINE STREET","HUDSON","WI",54016,44.977841643,-92.737739603,165,"1501 VINE STREET, HUDSON, WI, 54016","Match","Exact","1501 VINE ST, HUDSON, WI, 54016",612040890,"R"
67666,"1501 VIOLET ST OFFICE 386","COLTON","CA",92324,NA,NA,166,"1501 VIOLET ST OFFICE 386, COLTON, CA, 92324","No_Match",NA,NA,NA,NA
67667,"1501 VOORHIES AVE APT 10H","BROOKLYN","NY",11235,40.5857287640001,-73.953900516,167,"1501 VOORHIES AVE APT 10H, BROOKLYN, NY, 11235","Match","Exact","1501 VOORHIES AVE, BROOKLYN, NY, 11235",59091738,"L"
67668,"1501 W 36TH AVENUE SUITE 200","ANCHORAGE","AK",99503,61.1880859600001,-149.910895802,168,"1501 W 36TH AVENUE SUITE 200, ANCHORAGE, AK, 99503","Match","Non_Exact","1501 W 36TH AVE, ANCHORAGE, AK, 99503",641304826,"R"
67669,"1501 W 6TH STREET APT A3","AUSTIN","TX",78703,30.274396767,-97.761537392,169,"1501 W 6TH STREET APT A3, AUSTIN, TX, 78703","Match","Non_Exact","1501 W 6TH ST, AUSTIN, TX, 78703",63942822,"L"
67670,"1501 W BOUGHTON RD","BOLINGBROOK","IL",60490,NA,NA,170,"1501 W BOUGHTON RD, BOLINGBROOK, IL, 60490","No_Match",NA,NA,NA,NA
67671,"1501 W BRADLEY AVENUE CGC300","PEORIA","IL",61625,NA,NA,171,"1501 W BRADLEY AVENUE CGC300, PEORIA, IL, 61625","No_Match",NA,NA,NA,NA
67672,"1501 W BROADWAY AVE N","MINNEAPOLIS","MN",55411,NA,NA,172,"1501 W BROADWAY AVE N, MINNEAPOLIS, MN, 55411","No_Match",NA,NA,NA,NA
67673,"1501 W CUMBERLAND ST","PHILADELPHIA","PA",19132,39.991091555,-75.1569636689999,173,"1501 W CUMBERLAND ST, PHILADELPHIA, PA, 19132","Match","Exact","1501 W CUMBERLAND ST, PHILADELPHIA, PA, 19132",131418227,"R"
67674,"1501 W DIVISION ST","ARLINGTON","TX",76012,32.7364008430001,-97.132008739,174,"1501 W DIVISION ST, ARLINGTON, TX, 76012","Match","Exact","1501 W DIVISION ST, ARLINGTON, TX, 76012",101905640,"R"
67675,"1501 W EVERMAN PKWY","FORT WORTH","TX",76134,32.6302052570001,-97.3421228299999,175,"1501 W EVERMAN PKWY, FORT WORTH, TX, 76134","Match","Exact","1501 W EVERMAN PKWY, FORT WORTH, TX, 76134",102130091,"R"
67676,"1501 W LIBERTY RD","ANN ARBOR","MI",48103,42.2762835510001,-83.7665778319999,176,"1501 W LIBERTY RD, ANN ARBOR, MI, 48103","Match","Non_Exact","1501 W LIBERTY ST, ANN ARBOR, MI, 48103",646689844,"L"
67677,"1501 W MILLER ROAD  SUITE 180","GARLAND","TX",75041,32.8944947430001,-96.650724146,177,"1501 W MILLER ROAD  SUITE 180, GARLAND, TX, 75041","Match","Non_Exact","1501 W MILLER RD, GARLAND, TX, 75041",647920280,"R"
67678,"1501 W NINTH STREET","PARKER","AZ",85344,34.1481725690001,-114.297153408,178,"1501 W NINTH STREET, PARKER, AZ, 85344","Match","Exact","1501 W 9TH ST, PARKER, AZ, 85344",129731114,"L"
67679,"1501 W TAYLOR ST","KOKOMO","IN",46901,40.4891813310001,-86.1484096789999,179,"1501 W TAYLOR ST, KOKOMO, IN, 46901","Match","Exact","1501 W TAYLOR ST, KOKOMO, IN, 46901",27262921,"L"
67680,"1501 W THIRD STREET","DAYTON","OH",45402,39.7547374490001,-84.220900725,180,"1501 W THIRD STREET, DAYTON, OH, 45402","Match","Exact","1501 W 3RD ST, DAYTON, OH, 45402",143615231,"R"
67681,"1501 W WASHINGTON STREET SUITE 344","PHOENIX","AZ",85007,33.4481626420001,-112.091450026,181,"1501 W WASHINGTON STREET SUITE 344, PHOENIX, AZ, 85007","Match","Non_Exact","1501 W WASHINGTON ST, PHOENIX, AZ, 85007",128581067,"L"
67682,"1501 W WVERMAN PARKWAY","FORT WORTH","TX",76134,NA,NA,182,"1501 W WVERMAN PARKWAY, FORT WORTH, TX, 76134","No_Match",NA,NA,NA,NA
67683,"1501 WATERFORD ROAD","NORTH AURORA","IL",60542,41.8094177450001,-88.360547508,183,"1501 WATERFORD ROAD, NORTH AURORA, IL, 60542","Match","Exact","1501 WATERFORD RD, NORTH AURORA, IL, 60542",119549704,"L"
67684,"1501 WEST FREDDY GONZALEZ","MCALLEN","TX",78504,NA,NA,184,"1501 WEST FREDDY GONZALEZ, MCALLEN, TX, 78504","No_Match",NA,NA,NA,NA
67685,"1501 WEST GEDDES AVENUE","LITTLETON","CO",80120,NA,NA,185,"1501 WEST GEDDES AVENUE, LITTLETON, CO, 80120","No_Match",NA,NA,NA,NA
67686,"1501 WESTWIND","FORT STOCKTON","TX",79735,30.9026111150001,-102.894758051,186,"1501 WESTWIND, FORT STOCKTON, TX, 79735","Match","Non_Exact","1501 WESTWIND DR, FORT STOCKTON, TX, 79735",184278794,"L"
67687,"1501 WILSON STREET","ONALASKA","WI",54650,43.876922445,-91.214450885,187,"1501 WILSON STREET, ONALASKA, WI, 54650","Match","Exact","1501 WILSON ST, ONALASKA, WI, 54650",51011252,"L"
67688,"1501 WINDERMERE DRIVE","COLUMBIA","TN",38401,35.589961788,-87.0833122179999,188,"1501 WINDERMERE DRIVE, COLUMBIA, TN, 38401","Match","Exact","1501 WINDERMERE DR, COLUMBIA, TN, 38401",26885021,"R"
67689,"1501-C SOUTH WHEELER STREET","JASPER","TX",75951,30.9057985650001,-93.993634438,189,"1501-C SOUTH WHEELER STREET, JASPER, TX, 75951","Match","Exact","1501 S WHEELER ST, JASPER, TX, 75951",32400558,"L"
67690,"15010 RUBY GARDEN LN","CONROE","TX",77302,NA,NA,190,"15010 RUBY GARDEN LN, CONROE, TX, 77302","No_Match",NA,NA,NA,NA
67691,"15010 TARA RIDGE OAK CT","HOUSTON","TX",77082,29.7224318020001,-95.6554950129999,191,"15010 TARA RIDGE OAK CT, HOUSTON, TX, 77082","Match","Exact","15010 TARA RIDGE OAK CT, HOUSTON, TX, 77082",96557956,"R"
67692,"15011 CHARLESTON RD","KENNA","WV",25248,NA,NA,192,"15011 CHARLESTON RD, KENNA, WV, 25248","No_Match",NA,NA,NA,NA
67693,"15011 E 44TH ST S","INDEPENDENCE","MO",64055,39.040617856,-94.4013914879999,193,"15011 E 44TH ST S, INDEPENDENCE, MO, 64055","Match","Exact","15011 E 44TH ST S, INDEPENDENCE, MO, 64055",91470366,"R"
67694,"15011 JUNIPER RIDGE DRIVE NW","RAMSEY","MN",55303,45.2433701830001,-93.390949513,194,"15011 JUNIPER RIDGE DRIVE NW, RAMSEY, MN, 55303","Match","Exact","15011 JUNIPER RIDGE DR NW, RAMSEY, MN, 55303",97504675,"R"
67695,"15011 MIDDLE FAIRWAY DR","BROOKSVILLE","FL",34609,28.4968319480001,-82.482218455,195,"15011 MIDDLE FAIRWAY DR, BROOKSVILLE, FL, 34609","Match","Exact","15011 MIDDLE FAIRWAY DR, BROOKSVILLE, FL, 34609",85450956,"L"
67696,"15011 WHEATLAND PLACE","LAUREL","MD",20707,39.0960744600001,-76.8602009639999,196,"15011 WHEATLAND PLACE, LAUREL, MD, 20707","Match","Exact","15011 WHEATLAND PL, LAUREL, MD, 20707",76335490,"R"
67697,"15012 DANUBE CIRCLE","SENECA","SC",29672,34.768678595,-82.965393165,197,"15012 DANUBE CIRCLE, SENECA, SC, 29672","Match","Exact","15012 DANUBE CIR, SENECA, SC, 29672",25671729,"R"
67698,"15012 HARVEST STREET","MISSION HILLS","CA",91345,34.2785131810001,-118.459245644,198,"15012 HARVEST STREET, MISSION HILLS, CA, 91345","Match","Exact","15012 HARVEST ST, MISSION HILLS, CA, 91345",141546768,"L"
67699,"15012 SALAMANDER LANE","VICTORVILLE","CA",92394,34.522916718,-117.35204929,199,"15012 SALAMANDER LANE, VICTORVILLE, CA, 92394","Match","Exact","15012 SALAMANDER LN, VICTORVILLE, CA, 92394",144756000,"R"
67700,"15013 GOSSOM AMNOR PL","HAYMARKET","VA",20169,NA,NA,200,"15013 GOSSOM AMNOR PL, HAYMARKET, VA, 20169","No_Match",NA,NA,NA,NA
67701,"15013 HUNTGATE LANE","MONTCLAIR","VA",22025,38.6276570470001,-77.349752915,201,"15013 HUNTGATE LANE, MONTCLAIR, VA, 22025","Match","Exact","15013 HUNTGATE LN, MONTCLAIR, VA, 22025",76508820,"L"
67702,"15013 LINDHALL WAY","WHITTIER","CA",90604,33.936440444,-118.01124764,202,"15013 LINDHALL WAY, WHITTIER, CA, 90604","Match","Exact","15013 LINDHALL WAY, WHITTIER, CA, 90604",141751467,"L"
67703,"15013 MORMON STREET","BENNINGTON","NE",68007,41.3348972380001,-96.1495100389999,203,"15013 MORMON STREET, BENNINGTON, NE, 68007","Match","Exact","15013 MORMON ST, BENNINGTON, NE, 68007",637498654,"R"
67704,"15013 ROSEMARY WAY DRIVE","HUNTERSVILLE","NC",28078,35.414762017,-80.8250342119999,204,"15013 ROSEMARY WAY DRIVE, HUNTERSVILLE, NC, 28078","Match","Exact","15013 ROSEMARY WAY DR, HUNTERSVILLE, NC, 28078",634132428,"L"
67705,"15014 54TH AVE SE","EVERETT","WA",98208,47.8611910110001,-122.160352083,205,"15014 54TH AVE SE, EVERETT, WA, 98208","Match","Exact","15014 54TH AVE SE, EVERETT, WA, 98208",187811883,"L"
67706,"15014 KEEL RD","NOBLESVILLE","IN",46040,39.9521461260001,-85.895793741,206,"15014 KEEL RD, NOBLESVILLE, IN, 46040","Match","Non_Exact","15014 KEEL RD, FORTVILLE, IN, 46040",626693761,"L"
67707,"15014 N 56TH STREET","SCOTTSDALE","AZ",85254,33.6226508450001,-111.96036155,207,"15014 N 56TH STREET, SCOTTSDALE, AZ, 85254","Match","Exact","15014 N 56TH ST, SCOTTSDALE, AZ, 85254",128363003,"L"
67708,"15015 HARRISON","ROMULUS","MI",48174,42.195403808,-83.316196964,208,"15015 HARRISON, ROMULUS, MI, 48174","Match","Non_Exact","15015 HARRISON ST, ROMULUS, MI, 48174",95503679,"L"
67709,"15015 SW 24ST","MIAMI","FL",33185,NA,NA,209,"15015 SW 24ST, MIAMI, FL, 33185","No_Match",NA,NA,NA,NA
67710,"15015 SW 24TH ST","MIAMI","FL",33185,NA,NA,210,"15015 SW 24TH ST, MIAMI, FL, 33185","No_Match",NA,NA,NA,NA
67711,"15015 SW 24TH STREET","MIAMI","FL",33185,NA,NA,211,"15015 SW 24TH STREET, MIAMI, FL, 33185","No_Match",NA,NA,NA,NA
67712,"15015 TUFF ROAD","MANOR","TX",78653,NA,NA,212,"15015 TUFF ROAD, MANOR, TX, 78653","No_Match",NA,NA,NA,NA
67713,"15015 W AIRPORT BLVD APT 2132","SUGAR LAND","TX",77498,29.6480965390001,-95.6457139999999,213,"15015 W AIRPORT BLVD APT 2132, SUGAR LAND, TX, 77498","Match","Non_Exact","15015 W AIRPORT BLVD, SUGAR LAND, TX, 77498",647984782,"R"
67714,"15015 WEST AIRPORT BLVD APT 623","SUGAR LAND","TX",77498,29.648096122,-95.645657226,214,"15015 WEST AIRPORT BLVD APT 623, SUGAR LAND, TX, 77498","Match","Exact","15015 W AIRPORT BLVD, SUGAR LAND, TX, 77498",647984782,"R"
67715,"15016 E ROCKY RIVER ROAD","DAVIDSON","NC",28036,35.4735400690001,-80.7947655,215,"15016 E ROCKY RIVER ROAD, DAVIDSON, NC, 28036","Match","Exact","15016 E ROCKY RIVER RD, DAVIDSON, NC, 28036",618148636,"L"
67716,"15016 FENKELL","DETROIT","MI",48227,42.401700486,-83.192876397,216,"15016 FENKELL, DETROIT, MI, 48227","Match","Non_Exact","15016 FENKELL ST, DETROIT, MI, 48227",95424735,"R"
67717,"15017 EVELYN LN","MINNETONKA","MN",55345,44.924949387,-93.4708874519999,217,"15017 EVELYN LN, MINNETONKA, MN, 55345","Match","Exact","15017 EVELYN LN, MINNETONKA, MN, 55345",43652448,"L"
67718,"15017 SOUTH 28TH STREET","PHOENIX","AZ",85048,33.3082861070001,-112.022162456,218,"15017 SOUTH 28TH STREET, PHOENIX, AZ, 85048","Match","Exact","15017 S 28TH ST, PHOENIX, AZ, 85048",128284123,"L"
67719,"15018 LIVE OAK STREET","HESPERIA","CA",92345,34.433235263,-117.335650324,219,"15018 LIVE OAK STREET, HESPERIA, CA, 92345","Match","Exact","15018 LIVE OAK ST, HESPERIA, CA, 92345",144589223,"R"
67720,"15019 HWY 129","DRY BRANCH","GA",31020,32.686998859,-83.533069766,220,"15019 HWY 129, DRY BRANCH, GA, 31020","Match","Non_Exact","15019 STATE RTE 129, DRY BRANCH, GA, 31020",638605309,"L"
67721,"15019 LISHA LANE","CHARLOTTE","NC",28277,35.0319525210001,-80.832706813,221,"15019 LISHA LANE, CHARLOTTE, NC, 28277","Match","Exact","15019 LISHA LN, CHARLOTTE, NC, 28277",70561133,"L"
67722,"15019 SE MAY VALLEY RD","RENTON","WA",98059,47.515586823,-122.139727371,222,"15019 SE MAY VALLEY RD, RENTON, WA, 98059","Match","Exact","15019 SE MAY VALLEY RD, RENTON, WA, 98059",187048984,"R"
67723,"1501A BERKLEY CT","HARWOOD","MD",20776,38.8589615610001,-76.684435628,223,"1501A BERKLEY CT, HARWOOD, MD, 20776","Match","Exact","1501 BERKLEY CT, HARWOOD, MD, 20776",68213286,"R"
67724,"1502 10TH ST","DES MOINES","IA",50314,41.6060514960001,-93.6306142769999,224,"1502 10TH ST, DES MOINES, IA, 50314","Match","Exact","1502 10TH ST, DES MOINES, IA, 50314",65782188,"L"
67725,"1502 15TH LANE","GREENACRES","FL",33463,26.613336632,-80.134416689,225,"1502 15TH LANE, GREENACRES, FL, 33463","Match","Exact","1502 15TH LN, GREENACRES, FL, 33463",115500907,"R"
67726,"1502 ALLEN DRIVE","CEDAR HILL","TX",75104,32.6204604380001,-96.9410467019999,226,"1502 ALLEN DRIVE, CEDAR HILL, TX, 75104","Match","Exact","1502 ALLEN DR, CEDAR HILL, TX, 75104",102975829,"R"
67727,"1502 AVENIDA LA POSTA","ENCINITAS","CA",92024,33.0619998620001,-117.251841124,227,"1502 AVENIDA LA POSTA, ENCINITAS, CA, 92024","Match","Exact","1502 AVE LA POSTA, ENCINITAS, CA, 92024",195384366,"L"
67728,"1502 BARN SWALLOW DR","AUSTIN","TX",78746,30.270291946,-97.807839701,228,"1502 BARN SWALLOW DR, AUSTIN, TX, 78746","Match","Exact","1502 BARN SWALLOW DR, AUSTIN, TX, 78746",63938243,"R"
67729,"1502 BAYTREE TERRACE","BOWIE","MD",20721,38.910549508,-76.825654657,229,"1502 BAYTREE TERRACE, BOWIE, MD, 20721","Match","Exact","1502 BAYTREE TER, BOWIE, MD, 20721",76334258,"L"
67730,"1502 BEECHWOOD CIR","CUYAHOGA FALLS","OH",44221,41.136301055,-81.461238147,230,"1502 BEECHWOOD CIR, CUYAHOGA FALLS, OH, 44221","Match","Exact","1502 BEECHWOOD CIR, CUYAHOGA FALLS, OH, 44221",61349240,"R"
67731,"1502 BEVIS STREET","HOUSTON","TX",77008,29.797967869,-95.422229897,231,"1502 BEVIS STREET, HOUSTON, TX, 77008","Match","Exact","1502 BEVIS ST, HOUSTON, TX, 77008",96059979,"R"
67732,"1502 BRYANT AVE","MAHTOMEDI","MN",55115,45.078373422,-92.9518960249999,232,"1502 BRYANT AVE, MAHTOMEDI, MN, 55115","Match","Exact","1502 BRYANT AVE, MAHTOMEDI, MN, 55115",97789527,"L"
67733,"1502 CAYMAN WAY APT G3","COCONUT CREEK","FL",33066,26.2474951510001,-80.169940848,233,"1502 CAYMAN WAY APT G3, COCONUT CREEK, FL, 33066","Match","Exact","1502 CAYMAN WAY, COCONUT CREEK, FL, 33066",114767719,"R"
67734,"1502 CHARLESTON PARK DR","SPRING HILL","TN",37174,35.7613072880001,-86.884561285,234,"1502 CHARLESTON PARK DR, SPRING HILL, TN, 37174","Match","Exact","1502 CHARLESTON PARK DR, SPRING HILL, TN, 37174",629220936,"R"
67735,"1502 CHESTNUT AVE APT B","CHESAPEAKE","VA",23325,36.8134115980001,-76.23928978,235,"1502 CHESTNUT AVE APT B, CHESAPEAKE, VA, 23325","Match","Exact","1502 CHESTNUT AVE, CHESAPEAKE, VA, 23325",121770897,"L"
67736,"1502 CHIPPENDALE RD","HOUSTON","TX",77018,29.824208766,-95.437722977,236,"1502 CHIPPENDALE RD, HOUSTON, TX, 77018","Match","Exact","1502 CHIPPENDALE RD, HOUSTON, TX, 77018",96029121,"R"
67737,"1502 COPPERTREE DRIVE","TARPON SPRINGS","FL",34689,28.1258539190001,-82.772519995,237,"1502 COPPERTREE DRIVE, TARPON SPRINGS, FL, 34689","Match","Exact","1502 COPPERTREE DR, TARPON SPNGS, FL, 34689",124660400,"R"
67738,"1502 DALE AVENUE","SOUTH BEND","IN",46613,41.659688558,-86.237149898,238,"1502 DALE AVENUE, SOUTH BEND, IN, 46613","Match","Exact","1502 DALE AVE, SOUTH BEND, IN, 46613",8084226,"L"
67739,"1502 DUPONT AVE N APT A","MINNEAPOLIS","MN",55411,44.9942582410001,-93.292567256,239,"1502 DUPONT AVE N APT A, MINNEAPOLIS, MN, 55411","Match","Exact","1502 DUPONT AVE N, MINNEAPOLIS, MN, 55411",43623901,"R"
67740,"1502 E 46TH STREET","INDIANAPOLIS","IN",46205,39.840201214,-86.133495663,240,"1502 E 46TH STREET, INDIANAPOLIS, IN, 46205","Match","Exact","1502 E 46TH ST, INDIANAPOLIS, IN, 46205",107985212,"L"
67741,"1502 E LAURIDSEN BLVD","PORT ANGELES","WA",98362,48.1023776320001,-123.412288044,241,"1502 E LAURIDSEN BLVD, PORT ANGELES, WA, 98362","Match","Exact","1502 E LAURIDSEN BLVD, PORT ANGELES, WA, 98362",150849530,"L"
67742,"1502 EAST LERDO HWY","SHAFTER","CA",93263,NA,NA,242,"1502 EAST LERDO HWY, SHAFTER, CA, 93263","No_Match",NA,NA,NA,NA
67743,"1502 ECORSE ROAD","YPSILANTI","MI",48198,42.2351134680001,-83.5798934489999,243,"1502 ECORSE ROAD, YPSILANTI, MI, 48198","Match","Exact","1502 ECORSE RD, YPSILANTI, MI, 48198",26022155,"R"
67744,"1502 FAIRFIELD DRIVE","FORNEY","TX",75126,32.756957346,-96.440592397,244,"1502 FAIRFIELD DRIVE, FORNEY, TX, 75126","Match","Exact","1502 FAIRFIELD DR, FORNEY, TX, 75126",614178969,"R"
67745,"1502 FOOTHILL FLVD NUM 103-202","LA VERNE","CA",91750,34.116479279,-117.774761928,245,"1502 FOOTHILL FLVD NUM 103-202, LA VERNE, CA, 91750","Match","Non_Exact","1502 FOOTHILL BLVD, LA VERNE, CA, 91750",141726884,"R"
67746,"1502 FOSTER CREEK ROAD","HANNAHAN","SC",29410,NA,NA,246,"1502 FOSTER CREEK ROAD, HANNAHAN, SC, 29410","No_Match",NA,NA,NA,NA
67747,"1502 GIBBONS ROAD","COOKEVILLE","TN",38506,36.196347577,-85.465687953,247,"1502 GIBBONS ROAD, COOKEVILLE, TN, 38506","Match","Exact","1502 GIBBONS RD, COOKEVILLE, TN, 38506",605306931,"R"
67748,"1502 GRANITE HILLS DR UNIT A","EL CAJON","CA",92019,32.7852824440001,-116.927532488,248,"1502 GRANITE HILLS DR UNIT A, EL CAJON, CA, 92019","Match","Exact","1502 GRANITE HILLS DR, EL CAJON, CA, 92019",640043480,"L"
67749,"1502 HARBERT AVE","MEMPHIS","TN",38104,35.129582907,-90.0117207009999,249,"1502 HARBERT AVE, MEMPHIS, TN, 38104","Match","Exact","1502 HARBERT AVE, MEMPHIS, TN, 38104",72905445,"L"
67750,"1502 HARBERT AVENUE","MEMPHIS","TN",38104,35.129582907,-90.0117207009999,250,"1502 HARBERT AVENUE, MEMPHIS, TN, 38104","Match","Exact","1502 HARBERT AVE, MEMPHIS, TN, 38104",72905445,"L"
67751,"1502 HASKELL DR","RUSTON","LA",71270,32.5134063730001,-92.681814343,251,"1502 HASKELL DR, RUSTON, LA, 71270","Match","Exact","1502 HASKELL DR, RUSTON, LA, 71270",164093711,"L"
67752,"1502 HENSON CT","CHARLESTOWN","IN",47111,38.4631781100001,-85.667831561,252,"1502 HENSON CT, CHARLESTOWN, IN, 47111","Match","Exact","1502 HENSON CT, CHARLESTOWN, IN, 47111",64888205,"R"
67753,"1502 HIGHLAND LANE","DELRAY BEACH","FL",33444,26.4804749300001,-80.072230379,253,"1502 HIGHLAND LANE, DELRAY BEACH, FL, 33444","Match","Exact","1502 HIGHLAND LN, DELRAY BEACH, FL, 33444",115297611,"L"
67754,"1502 IRION COURT","SOUTHLAKE","TX",76092,32.9438492840001,-97.1762414889999,254,"1502 IRION COURT, SOUTHLAKE, TX, 76092","Match","Exact","1502 IRION CT, SOUTHLAKE, TX, 76092",102087639,"R"
67755,"1502 JOH AVENUE  SUITE 180","BALTIMORE","MD",21227,NA,NA,255,"1502 JOH AVENUE  SUITE 180, BALTIMORE, MD, 21227","No_Match",NA,NA,NA,NA
67756,"1502 LYNCHBURG HIGHWAY","LYNCHBURG","TN",37352,35.310910193,-86.360402493,256,"1502 LYNCHBURG HIGHWAY, LYNCHBURG, TN, 37352","Match","Exact","1502 LYNCHBURG HWY, LYNCHBURG, TN, 37352",58471263,"R"
67757,"1502 LYNCHBURG HWY","LYNCHBURG","TN",37352,35.310910193,-86.360402493,257,"1502 LYNCHBURG HWY, LYNCHBURG, TN, 37352","Match","Exact","1502 LYNCHBURG HWY, LYNCHBURG, TN, 37352",58471263,"R"
67758,"1502 LYNN AVE","DETROIT LAKES","MN",56501,46.8038722470001,-95.859553246,258,"1502 LYNN AVE, DETROIT LAKES, MN, 56501","Match","Exact","1502 LYNN AVE, DETROIT LAKES, MN, 56501",167953718,"R"
67759,"1502 MAGNOLIA STREET","GLENVIEW","IL",60025,42.0822085630001,-87.87550319,259,"1502 MAGNOLIA STREET, GLENVIEW, IL, 60025","Match","Exact","1502 MAGNOLIA ST, GLENVIEW, IL, 60025",111722756,"L"
67760,"1502 MESQUITE COURT","HAVELOCK","NC",28532,34.8751633730001,-76.873748483,260,"1502 MESQUITE COURT, HAVELOCK, NC, 28532","Match","Exact","1502 MESQUITE CT, HAVELOCK, NC, 28532",623958763,"R"
67761,"1502 MONTE SANO AVENUE","AUGUSTA","GA",30904,33.47081323,-82.0281114429999,261,"1502 MONTE SANO AVENUE, AUGUSTA, GA, 30904","Match","Exact","1502 MONTE SANO AVE, AUGUSTA, GA, 30904",635635187,"L"
67762,"1502 MOSSY GLEN CTR","GARLAND","TX",75040,32.9324595030001,-96.604654683,262,"1502 MOSSY GLEN CTR, GARLAND, TX, 75040","Match","Non_Exact","1502 MOSSY GLEN CT, GARLAND, TX, 75040",103280878,"L"
67763,"1502 N BEAVER STREET","FLAGSTAFF","AZ",86001,35.212192643,-111.644613843,263,"1502 N BEAVER STREET, FLAGSTAFF, AZ, 86001","Match","Exact","1502 N BEAVER ST, FLAGSTAFF, AZ, 86001",188860675,"R"
67764,"1502 NE 180TH TER","SMITHVILLE","MO",64089,39.4199661120001,-94.558235005,264,"1502 NE 180TH TER, SMITHVILLE, MO, 64089","Match","Exact","1502 180TH TER, SMITHVILLE, MO, 64089",628825866,"L"
67765,"1502 NE BLUFF SPRINGS AVE","BENTONVILLE","AR",72712,36.383688793,-94.160903301,265,"1502 NE BLUFF SPRINGS AVE, BENTONVILLE, AR, 72712","Match","Exact","1502 NE BLUFF SPRINGS AVE, BENTONVILLE, AR, 72712",47880141,"L"
67766,"1502 NW 3RD STREET","DEERFIELD BEACH","FL",33443,26.3213208440001,-80.124724592,266,"1502 NW 3RD STREET, DEERFIELD BEACH, FL, 33443","Match","Non_Exact","1502 NW 3RD ST, DEERFIELD BEACH, FL, 33442",114739701,"L"
67767,"1502 OLD THICKET CT","GREENWOOD","IN",46143,39.5947775290001,-86.145141005,267,"1502 OLD THICKET CT, GREENWOOD, IN, 46143","Match","Exact","1502 OLD THICKET CT, GREENWOOD, IN, 46143",606991291,"L"
67768,"1502 OLMSTEAD ST","BALTIMORE","MD",21226,39.227532835,-76.590068705,268,"1502 OLMSTEAD ST, BALTIMORE, MD, 21226","Match","Exact","1502 OLMSTEAD ST, BALTIMORE, MD, 21226",206427120,"L"
67769,"1502 PALM AVE","HUNTINGTON BEACH","CA",92648,33.6687884880001,-118.00559819,269,"1502 PALM AVE, HUNTINGTON BEACH, CA, 92648","Match","Exact","1502 PALM AVE, HUNTINGTON BEACH, CA, 92648",144019557,"R"
67770,"1502 PELHAM ROAD","WINTERVILLE","NC",28590,35.556062501,-77.359503333,270,"1502 PELHAM ROAD, WINTERVILLE, NC, 28590","Match","Exact","1502 PELHAM RD, WINTERVILLE, NC, 28590",627149436,"R"
67771,"1502 PICASSO LANE","OXNARD","CA",93033,34.174230935,-119.162818904,271,"1502 PICASSO LANE, OXNARD, CA, 93033","Match","Exact","1502 PICASSO LN, OXNARD, CA, 93033",110122508,"R"
67772,"1502 PICASSO STREET","SEBASTIAN","FL",32958,27.7631115290001,-80.491913279,272,"1502 PICASSO STREET, SEBASTIAN, FL, 32958","Match","Exact","1502 PICASSO ST, SEBASTIAN, FL, 32958",120297704,"R"
67773,"1502 PORT MALABAR BLE NE","PALM BAY","FL",32906,NA,NA,273,"1502 PORT MALABAR BLE NE, PALM BAY, FL, 32906","No_Match",NA,NA,NA,NA
67774,"1502 RIDLEY AVE","CHESTER","PA",19013,39.864037803,-75.351610593,274,"1502 RIDLEY AVE, CHESTER, PA, 19013","Match","Exact","1502 RIDLEY AVE, CHESTER, PA, 19013",134881270,"L"
67775,"1502 ROSE VALLEY RD","KELSO","WA",98626,46.098722411,-122.826199656,275,"1502 ROSE VALLEY RD, KELSO, WA, 98626","Match","Exact","1502 ROSE VALLEY RD, KELSO, WA, 98626",184491956,"L"
67776,"1502 SAN BERNARDO AVE","LAREDO","TX",78040,27.5125554570001,-99.504551782,276,"1502 SAN BERNARDO AVE, LAREDO, TX, 78040","Match","Exact","1502 SAN BERNARDO AVE, LAREDO, TX, 78040",21671640,"L"
67777,"1502 SAN YSIDRO DRIVE","BEVERLY HILLS","CA",90210,34.0988829880001,-118.422984348,277,"1502 SAN YSIDRO DRIVE, BEVERLY HILLS, CA, 90210","Match","Exact","1502 SAN YSIDRO DR, BEVERLY HILLS, CA, 90210",141570915,"R"
67778,"1502 SINGLETARY AVENUE","PAHOKEE","FL",33476,26.8302390960001,-80.6438398509999,278,"1502 SINGLETARY AVENUE, PAHOKEE, FL, 33476","Match","Exact","1502 SINGLETARY AVE, PAHOKEE, FL, 33476",115580241,"R"
67779,"1502 SOUTH BOULDER AVE 18G","TULSA","OK",74119,36.140533883,-95.9885220959999,279,"1502 SOUTH BOULDER AVE 18G, TULSA, OK, 74119","Match","Non_Exact","1502 S BOULDER AVE W, TULSA, OK, 74119",166441825,"R"
67780,"1502 SOUTH LA BRUCHERIE ROAD","EL CENTRO","CA",92243,32.7680895620001,-115.578095439,280,"1502 SOUTH LA BRUCHERIE ROAD, EL CENTRO, CA, 92243","Match","Exact","1502 S LA BRUCHERIE RD, EL CENTRO, CA, 92243",194542001,"R"
67781,"1502 STONY BROOK TRAIL","STE GENEVIEVE","MO",63670,37.9613293640001,-90.035907053,281,"1502 STONY BROOK TRAIL, STE GENEVIEVE, MO, 63670","Match","Exact","1502 STONY BROOK TRL, STE GENEVIEVE, MO, 63670",62985737,"L"
67782,"1502 SW 149 AVE","PEMBROKE PINES","FL",33027,25.995955644,-80.3445731899999,282,"1502 SW 149 AVE, PEMBROKE PINES, FL, 33027","Match","Exact","1502 SW 149TH AVE, PEMBROKE PINES, FL, 33027",114808891,"R"
67783,"1502 SYDNEY STREET","MEMPHIS","TN",38108,35.173606459,-89.9603299619999,283,"1502 SYDNEY STREET, MEMPHIS, TN, 38108","Match","Exact","1502 SYDNEY ST, MEMPHIS, TN, 38108",72913162,"R"
67784,"1502 TRADEWINDS AVENUE","LAKELAND","FL",33801,28.024971416,-81.9228397219999,284,"1502 TRADEWINDS AVENUE, LAKELAND, FL, 33801","Match","Exact","1502 TRADEWINDS AVE, LAKELAND, FL, 33801",104812049,"L"
67785,"1502 TROWBRIDGE RD","FORT PIERCE","FL",34945,27.435633979,-80.4850366109999,285,"1502 TROWBRIDGE RD, FORT PIERCE, FL, 34945","Match","Exact","1502 TROWBRIDGE RD, FORT PIERCE, FL, 34945",648128548,"R"
67786,"1502 UPLAND AVE","BOULDER","CO",80304,40.052797942,-105.278284529,286,"1502 UPLAND AVE, BOULDER, CO, 80304","Match","Exact","1502 UPLAND AVE, BOULDER, CO, 80304",647462565,"R"
67787,"1502 VISTA LARGA COURT NE","ALBUQUERQUE","NM",87106,35.1010069970001,-106.616566327,287,"1502 VISTA LARGA COURT NE, ALBUQUERQUE, NM, 87106","Match","Exact","1502 VISTA LARGA CT NE, ALBUQUERQUE, NM, 87106",206709558,"R"
67788,"1502 W NASH STREET SUITE B","WILSON","NC",27893,35.743211671,-77.923792971,288,"1502 W NASH STREET SUITE B, WILSON, NC, 27893","Match","Non_Exact","1502 NASH ST NW, WILSON, NC, 27893",26704539,"R"
67789,"1502 W SAVANNAH ST","WICHITA","KS",67217,37.649595762,-97.357315966,289,"1502 W SAVANNAH ST, WICHITA, KS, 67217","Match","Exact","1502 W SAVANNAH ST, WICHITA, KS, 67217",115644449,"R"
67790,"1502 W WASHINGTON","GUTHRIE","OK",73044,35.8842257250001,-97.443153837,290,"1502 W WASHINGTON, GUTHRIE, OK, 73044","Match","Non_Exact","1502 W WASHINGTON AVE, GUTHRIE, OK, 73044",121955765,"R"
67791,"1502 WEST 17TH STREET","ASHTABULA","OH",44004,41.8845866830001,-80.804326702,291,"1502 WEST 17TH STREET, ASHTABULA, OH, 44004","Match","Exact","1502 W 17TH ST, ASHTABULA, OH, 44004",117332101,"R"
67792,"1502 WINDEMERE AVENUE","BALTIMORE","MD",21218,39.3301444700001,-76.59397298,292,"1502 WINDEMERE AVENUE, BALTIMORE, MD, 21218","Match","Exact","1502 WINDEMERE AVE, BALTIMORE, MD, 21218",206434840,"L"
67793,"1502 WINDING RIDGE ROAD","EDMOND","OK",73034,35.6702548390001,-97.393630114,293,"1502 WINDING RIDGE ROAD, EDMOND, OK, 73034","Match","Exact","1502 WINDING RIDGE RD, EDMOND, OK, 73034",617260586,"R"
67794,"1502 WINSTON ST","MARSHALL","TX",75670,32.5316546290001,-94.386090813,294,"1502 WINSTON ST, MARSHALL, TX, 75670","Match","Exact","1502 WINSTON ST, MARSHALL, TX, 75670",141172168,"R"
67795,"1502 WOODSTREAM DR","BRYAN","OH",43506,41.45743932,-84.5647019309999,295,"1502 WOODSTREAM DR, BRYAN, OH, 43506","Match","Exact","1502 WOODSTREAM DR, BRYAN, OH, 43506",649319853,"R"
67796,"1502 WYOMING WAY","MADISON","WI",53704,43.145561899,-89.3696266699999,296,"1502 WYOMING WAY, MADISON, WI, 53704","Match","Exact","1502 WYOMING WAY, MADISON, WI, 53704",49470809,"L"
67797,"1502","RIDGELAND","MS",39157,NA,NA,297,"1502, RIDGELAND, MS, 39157","No_Match",NA,NA,NA,NA
67798,"15020 ALASKA RD","WOODBRIDGE","VA",22191,38.626727051,-77.262728613,298,"15020 ALASKA RD, WOODBRIDGE, VA, 22191","Match","Exact","15020 ALASKA RD, WOODBRIDGE, VA, 22191",76511561,"R"
67799,"15020 BOWFIN TERRACE","LAKEWOOD RANCH","FL",34202,27.424794977,-82.3892765539999,299,"15020 BOWFIN TERRACE, LAKEWOOD RANCH, FL, 34202","Match","Exact","15020 BOWFIN TER, LAKEWOOD RCH, FL, 34202",624467674,"L"
67800,"15020 MICHIGAN AVE","DEARBORN","MI",48126,42.3181188520001,-83.1899303499999,300,"15020 MICHIGAN AVE, DEARBORN, MI, 48126","Match","Exact","15020 MICHIGAN AVE, DEARBORN, MI, 48126",95443817,"R"
67801,"15020 NORTHFIELD BLVD","OAK PARK","MI",48237,42.4694998260001,-83.196088544,301,"15020 NORTHFIELD BLVD, OAK PARK, MI, 48237","Match","Exact","15020 NORTHFIELD BLVD, OAK PARK, MI, 48237",69741156,"R"
67802,"15020 SW 136 ST","MIAMI","FL",33196,NA,NA,302,"15020 SW 136 ST, MIAMI, FL, 33196","No_Match",NA,NA,NA,NA
67803,"15020 WHEATLAND PLACE","LAUREL","MD",20707,39.096425723,-76.8600567349999,303,"15020 WHEATLAND PLACE, LAUREL, MD, 20707","Match","Exact","15020 WHEATLAND PL, LAUREL, MD, 20707",76335490,"L"
67804,"15021 CORDELIA DRIVE","CHARLOTTE","NC",28278,NA,NA,304,"15021 CORDELIA DRIVE, CHARLOTTE, NC, 28278","No_Match",NA,NA,NA,NA
67805,"15021 VENTURA BLVD STE 474","SHERMAN OAKS","CA",91403,34.1528123160001,-118.460107825,305,"15021 VENTURA BLVD STE 474, SHERMAN OAKS, CA, 91403","Match","Exact","15021 VENTURA BLVD, SHERMAN OAKS, CA, 91403",141560854,"R"
67806,"15021 VENTURA BLVD SUITE 595","SHERMAN OAKS","CA",91403,34.1528123160001,-118.460107825,306,"15021 VENTURA BLVD SUITE 595, SHERMAN OAKS, CA, 91403","Match","Exact","15021 VENTURA BLVD, SHERMAN OAKS, CA, 91403",141560854,"R"
67807,"15021 VENTURA BOULEVARD STE 523","SHERMAN OAKS","CA",91403,34.1528123160001,-118.460107825,307,"15021 VENTURA BOULEVARD STE 523, SHERMAN OAKS, CA, 91403","Match","Exact","15021 VENTURA BLVD, SHERMAN OAKS, CA, 91403",141560854,"R"
67808,"15022 HENDERSON ROAD NE","BAINBRIDGE ISLAND","WA",98110,47.699311815,-122.561206063,308,"15022 HENDERSON ROAD NE, BAINBRIDGE ISLAND, WA, 98110","Match","Exact","15022 HENDERSON RD NE, BAINBRIDGE ISLAND, WA, 98110",635627110,"R"
67809,"15022 MADISON AVE","LAKEWOOD","OH",44107,41.47729974,-81.802159031,309,"15022 MADISON AVE, LAKEWOOD, OH, 44107","Match","Exact","15022 MADISON AVE, LAKEWOOD, OH, 44107",61100266,"R"
67810,"15022 RED CEDAR BLUFF LN","CYPRESS","TX",77433,29.9893670270001,-95.727929705,310,"15022 RED CEDAR BLUFF LN, CYPRESS, TX, 77433","Match","Exact","15022 RED CEDAR BLUFF, CYPRESS, TX, 77433",96161869,"R"
67811,"15023 GOLDENROD DRIVE","URBANDALE","IA",50323,NA,NA,311,"15023 GOLDENROD DRIVE, URBANDALE, IA, 50323","No_Match",NA,NA,NA,NA
67812,"15024 CALLE VERANO","CHINO HILLS","CA",91709,33.979357011,-117.7438639,312,"15024 CALLE VERANO, CHINO HILLS, CA, 91709","Match","Non_Exact","15024 CLL VERANO, CHINO HILLS, CA, 91709",144967911,"R"
67813,"15024 CHERRYDALE DRIVE","DALE CITY","VA",22193,38.6268135920001,-77.317164179,313,"15024 CHERRYDALE DRIVE, DALE CITY, VA, 22193","Match","Exact","15024 CHERRYDALE DR, DALE CITY, VA, 22193",76515779,"R"
67814,"15024 REYNOSA DR","RANCHO MURIETA","CA",95683,38.4928425030001,-121.082649018,314,"15024 REYNOSA DR, RANCHO MURIETA, CA, 95683","Match","Exact","15024 REYNOSA DR, RANCHO MURIETA, CA, 95683",133387492,"L"
67815,"15024 SHORE AVENUE","JAMAICA","NY",11433,NA,NA,315,"15024 SHORE AVENUE, JAMAICA, NY, 11433","No_Match",NA,NA,NA,NA
67816,"15024 WOODMONT AVE","DETROIT","MI",48227,42.399351101,-83.208996409,316,"15024 WOODMONT AVE, DETROIT, MI, 48227","Match","Exact","15024 WOODMONT AVE, DETROIT, MI, 48227",95423711,"R"
67817,"15025 S ILLINOIS ST","PLAINFIELD","IL",60544,41.6097027810001,-88.2036868449999,317,"15025 S ILLINOIS ST, PLAINFIELD, IL, 60544","Match","Exact","15025 S ILLINOIS ST, PLAINFIELD, IL, 60544",111533802,"L"
67818,"15026 HOWLAND ST","HOUSTON","TX",77084,29.8638903070001,-95.634275046,318,"15026 HOWLAND ST, HOUSTON, TX, 77084","Match","Exact","15026 HOWLAND ST, HOUSTON, TX, 77084",96018147,"L"
67819,"15026 SW 38TH ST","DAVIE","FL",33331,26.071059185,-80.350294784,319,"15026 SW 38TH ST, DAVIE, FL, 33331","Match","Exact","15026 SW 38TH ST, DAVIE, FL, 33331",606183290,"L"
67820,"15027 SHERMAN WAY UNIT A","VAN NUYS","CA",91405,34.2013104910001,-118.460477893,320,"15027 SHERMAN WAY UNIT A, VAN NUYS, CA, 91405","Match","Non_Exact","15027 W SHERMAN WAY, VAN NUYS, CA, 91405",241188394,"R"
67821,"15028 ALBURTIS AVE","NORWALK","CA",90650,33.894193586,-118.084274558,321,"15028 ALBURTIS AVE, NORWALK, CA, 90650","Match","Exact","15028 ALBURTIS AVE, NORWALK, CA, 90650",142794444,"L"
67822,"15028 GLENCOE VERONA ROAD","VERONA","KY",41092,38.8176875990001,-84.66144282,322,"15028 GLENCOE VERONA ROAD, VERONA, KY, 41092","Match","Non_Exact","15028 GLENCOE-VERONA RD, VERONA, KY, 41092",81949517,"R"
67823,"15029 2ND STREET NE","AURORA","OR",97002,45.231742087,-122.754124939,323,"15029 2ND STREET NE, AURORA, OR, 97002","Match","Exact","15029 2ND ST NE, AURORA, OR, 97002",156239977,"L"
67824,"15029 PIONEER BLVD","NORWALK","CA",90650,33.894546909,-118.082529524,324,"15029 PIONEER BLVD, NORWALK, CA, 90650","Match","Exact","15029 PIONEER BLVD, NORWALK, CA, 90650",241145026,"R"
67825,"1503 11TH AVENUE","DOROTHY","NJ",8317,39.3904484710001,-74.844231151,325,"1503 11TH AVENUE, DOROTHY, NJ, 8317","Match","Exact","1503 11TH AVE, DOROTHY, NJ, 08317",202510340,"R"
67826,"1503 AMITY CHURCH ROAD","DENVER","NC",28037,35.5125757870001,-81.118861411,326,"1503 AMITY CHURCH ROAD, DENVER, NC, 28037","Match","Exact","1503 AMITY CHURCH RD, DENVER, NC, 28037",69534560,"L"
67827,"1503 ANDERSON AVENUE UNIT B","FORT LEE","NJ",7024,40.849074768,-73.97816019,327,"1503 ANDERSON AVENUE UNIT B, FORT LEE, NJ, 7024","Match","Exact","1503 ANDERSON AVE, FORT LEE, NJ, 07024",64391815,"L"
67828,"1503 ANDERSON ST","NEW IBERIA","LA",70560,30.008179607,-91.8420536099999,328,"1503 ANDERSON ST, NEW IBERIA, LA, 70560","Match","Exact","1503 ANDERSON ST, NEW IBERIA, LA, 70560",85361548,"R"
67829,"1503 ANDICOT LANE","SHELBY","NC",28152,35.267144574,-81.527746872,329,"1503 ANDICOT LANE, SHELBY, NC, 28152","Match","Exact","1503 ANDICOT LN, SHELBY, NC, 28152",19345129,"R"
67830,"1503 ATCHISON AVE","TRINIDAD","CO",81082,37.1690225790001,-104.528676969,330,"1503 ATCHISON AVE, TRINIDAD, CO, 81082","Match","Exact","1503 ATCHISON AVE, TRINIDAD, CO, 81082",636503494,"R"
67831,"1503 BLUE FOREST LN","MARYVILLE","TN",37803,35.6912957920001,-83.9634160529999,331,"1503 BLUE FOREST LN, MARYVILLE, TN, 37803","Match","Exact","1503 BLUE FOREST LN, MARYVILLE, TN, 37803",89847499,"L"
67832,"1503 BRAZOS WOOD DR","RICHMOND","TX",77469,29.555246319,-95.6955712829999,332,"1503 BRAZOS WOOD DR, RICHMOND, TX, 77469","Match","Exact","1503 BRAZOS WOOD DR, RICHMOND, TX, 77469",78326825,"R"
67833,"1503 BURKHALTER DRIVE","ENID","MS",38927,34.0861784420001,-89.971558908,333,"1503 BURKHALTER DRIVE, ENID, MS, 38927","Match","Exact","1503 BURKHALTER DR, ENID, MS, 38927",608033754,"L"
67834,"1503 CANANDAIGUA RD","MACEDON","NY",14502,43.064720492,-77.3198696919999,334,"1503 CANANDAIGUA RD, MACEDON, NY, 14502","Match","Exact","1503 CANANDAIGUA RD, MACEDON, NY, 14502",636420605,"L"
67835,"1503 CHESTNUT STREET","TERRE HAUTE","IN",47807,39.470545137,-87.392547,335,"1503 CHESTNUT STREET, TERRE HAUTE, IN, 47807","Match","Exact","1503 CHESTNUT ST, TERRE HAUTE, IN, 47807",27116970,"R"
67836,"1503 CHURCH ST","EVANSTON","IL",60201,42.0485982960001,-87.693725812,336,"1503 CHURCH ST, EVANSTON, IL, 60201","Match","Exact","1503 CHURCH ST, EVANSTON, IL, 60201",111743229,"R"
67837,"1503 CITY PLACE","GONZALES","LA",70737,30.2200848840001,-90.904821018,337,"1503 CITY PLACE, GONZALES, LA, 70737","Match","Non_Exact","1503 CITIPLACE, GONZALES, LA, 70737",115040674,"L"
67838,"1503 COLD SPRING ROAD","POTTSTOWN","PA",19465,40.2258038100001,-75.720826082,338,"1503 COLD SPRING ROAD, POTTSTOWN, PA, 19465","Match","Non_Exact","1503 COLDSPRINGS RD, POTTSTOWN, PA, 19465",179553154,"R"
67839,"1503 COLD SPRING ROAD","POTTSTOWN","PR",19465,NA,NA,339,"1503 COLD SPRING ROAD, POTTSTOWN, PR, 19465","No_Match",NA,NA,NA,NA
67840,"1503 COLONY LAKES DR","SUGAR LAND","TX",77479,29.596436618,-95.632403755,340,"1503 COLONY LAKES DR, SUGAR LAND, TX, 77479","Match","Exact","1503 COLONY LAKES DR, SUGAR LAND, TX, 77479",78347954,"L"
67841,"1503 DANIA DRIVE","FORT WASHINGTON","MD",20744,38.7616515990001,-76.9838802209999,341,"1503 DANIA DRIVE, FORT WASHINGTON, MD, 20744","Match","Exact","1503 DANIA DR, FT WASHINGTON, MD, 20744",624709865,"R"
67842,"1503 DARNLEY LN","HOUSTON","TX",77077,29.759404095,-95.633986278,342,"1503 DARNLEY LN, HOUSTON, TX, 77077","Match","Exact","1503 DARNLEY LN, HOUSTON, TX, 77077",96294729,"L"
67843,"1503 DOVER RD","BLOOMINGTON","IL",61704,40.461224153,-88.940309997,343,"1503 DOVER RD, BLOOMINGTON, IL, 61704","Match","Exact","1503 DOVER RD, BLOOMINGTON, IL, 61704",20556270,"R"
67844,"1503 E 52 STREET","BROOKLYN","NY",11234,40.622836324,-73.92533085,344,"1503 E 52 STREET, BROOKLYN, NY, 11234","Match","Exact","1503 E 52ND ST, BROOKLYN, NY, 11234",59092378,"L"
67845,"1503 E CHELSEA ST","TAMPA","FL",33610,27.985123211,-82.442821033,345,"1503 E CHELSEA ST, TAMPA, FL, 33610","Match","Exact","1503 E CHELSEA ST, TAMPA, FL, 33610",104522794,"R"
67846,"1503 E GREENFIELD AVE","MURRAY","UT",84121,40.631573288,-111.849238628,346,"1503 E GREENFIELD AVE, MURRAY, UT, 84121","Match","Exact","1503 GREENFIELD AVE, MURRAY, UT, 84121",176087541,"L"
67847,"1503 E STATE ST","EAGLE LAKE","TX",77434,29.582702286,-96.321626185,347,"1503 E STATE ST, EAGLE LAKE, TX, 77434","Match","Exact","1503 E STATE ST, EAGLE LAKE, TX, 77434",41172733,"L"
67848,"1503 EAST SLIGH AVENUE","TAMPA","FL",33610,28.010635888,-82.4427352179999,348,"1503 EAST SLIGH AVENUE, TAMPA, FL, 33610","Match","Exact","1503 E SLIGH AVE, TAMPA, FL, 33610",104520166,"R"
67849,"1503 EL SEGUNDO AVE","LAS VEGAS","NV",89169,36.139620016,-115.132094209,349,"1503 EL SEGUNDO AVE, LAS VEGAS, NV, 89169","Match","Exact","1503 EL SEGUNDO AVE, LAS VEGAS, NV, 89169",201870909,"R"
67850,"1503 ELMWOOD AVE","STOCKTON","CA",95204,37.969752982,-121.316924339,350,"1503 ELMWOOD AVE, STOCKTON, CA, 95204","Match","Exact","1503 ELMWOOD AVE, STOCKTON, CA, 95204",133927805,"R"
67851,"1503 GOVERNMENT","MOBILE","AL",36604,30.680511089,-88.072413237,351,"1503 GOVERNMENT, MOBILE, AL, 36604","Match","Non_Exact","1503 GOVERNMENT ST, MOBILE, AL, 36604",61861678,"L"
67852,"1503 HAGGERTY WAY","TALLAHASSEE","FL",32317,30.4715604150001,-84.0777044979999,352,"1503 HAGGERTY WAY, TALLAHASSEE, FL, 32317","Match","Exact","1503 HAGGERTY WAY, TALLAHASSEE, FL, 32317",82872382,"L"
67853,"1503 HIGHWAY 367 N","BALD KNOB","AR",72010,35.3012752990001,-91.586845174,353,"1503 HIGHWAY 367 N, BALD KNOB, AR, 72010","Match","Exact","1503 HWY 367 N, BALD KNOB, AR, 72010",82964978,"L"
67854,"1503 HILL COURT","WINSTON SALEM","NC",27107,NA,NA,354,"1503 HILL COURT, WINSTON SALEM, NC, 27107","No_Match",NA,NA,NA,NA
67855,"1503 INDEPENDENCE AVE SE","WASHINGTON","DC",20003,38.88759465,-76.983508375,355,"1503 INDEPENDENCE AVE SE, WASHINGTON, DC, 20003","Match","Exact","1503 INDEPENDENCE AVE SE, WASHINGTON, DC, 20003",76230506,"R"
67856,"1503 IROQUOIS PARKWAY","LOUISVILLE","KY",40219,38.163032507,-85.795657761,356,"1503 IROQUOIS PARKWAY, LOUISVILLE, KY, 40219","Match","Non_Exact","1503 IROQUOIS PKWY, LOUISVILLE, KY, 40214",96848397,"R"
67857,"1503 JOSEPH ST","CINCINNATI","OH",45237,39.172863836,-84.4720220139999,357,"1503 JOSEPH ST, CINCINNATI, OH, 45237","Match","Exact","1503 JOSEPH ST, CINCINNATI, OH, 45237",103928669,"R"
67858,"1503 KIRK FARM LANE - APT 203","CHARLOTTE","NC",28213,35.2893936130001,-80.7337088149999,358,"1503 KIRK FARM LANE - APT 203, CHARLOTTE, NC, 28213","Match","Exact","1503 KIRK FARM LN, CHARLOTTE, NC, 28213",70597369,"L"
67859,"1503 LANGDON TERRACE DRIVE","INDIAN TRAIL","NC",28079,35.0341397440001,-80.6623570579999,359,"1503 LANGDON TERRACE DRIVE, INDIAN TRAIL, NC, 28079","Match","Exact","1503 LANGDON TERRACE DR, INDIAN TRAIL, NC, 28079",618496030,"L"
67860,"1503 MACDONALD AVE SUITE A","RICHMOND","CA",94801,37.9357188920001,-122.355112728,360,"1503 MACDONALD AVE SUITE A, RICHMOND, CA, 94801","Match","Exact","1503 MACDONALD AVE, RICHMOND, CA, 94801",192040599,"L"
67861,"1503 MADALINE DRIVE","AVENEL","NJ",7001,40.5725416230001,-74.28169528,361,"1503 MADALINE DRIVE, AVENEL, NJ, 7001","Match","Exact","1503 MADALINE DR, AVENEL, NJ, 07001",637442938,"R"
67862,"1503 MARLOWE DR A3","CLARKSVILLE","IN",47129,38.32183695,-85.773797938,362,"1503 MARLOWE DR A3, CLARKSVILLE, IN, 47129","Match","Exact","1503 MARLOWE DR, CLARKSVILLE, IN, 47129",64906801,"R"
67863,"1503 MARS AVE","LAKEWOOD","OH",44107,41.4821766380001,-81.80365605,363,"1503 MARS AVE, LAKEWOOD, OH, 44107","Match","Exact","1503 MARS AVE, LAKEWOOD, OH, 44107",61100156,"L"
67864,"1503 MARTHA DR","LONGVIEW","TX",75601,32.5197955950001,-94.6935214819999,364,"1503 MARTHA DR, LONGVIEW, TX, 75601","Match","Exact","1503 MARTHA DR, LONGVIEW, TX, 75601",630324840,"L"
67865,"1503 MAYWOOD AVENUE","TOWSON","MD",21204,39.4030426520001,-76.643808684,365,"1503 MAYWOOD AVENUE, TOWSON, MD, 21204","Match","Exact","1503 MAYWOOD AVE, TOWSON, MD, 21204",191472624,"L"
67866,"1503 MEREDITH DRIVE","SPRING HILL","FL",34608,28.4586253580001,-82.568978081,366,"1503 MEREDITH DRIVE, SPRING HILL, FL, 34608","Match","Exact","1503 MEREDITH DR, SPRING HILL, FL, 34608",85432319,"L"
67867,"1503 N 15TH","COEUR D ALENE","ID",83815,NA,NA,367,"1503 N 15TH, COEUR D ALENE, ID, 83815","No_Match",NA,NA,NA,NA
67868,"1503 N BURNING BUSH LANE","MOUNT PROSPECT","IL",60056,42.095168739,-87.897207866,368,"1503 N BURNING BUSH LANE, MOUNT PROSPECT, IL, 60056","Match","Exact","1503 BURNING BUSH LN, MOUNT PROSPECT, IL, 60056",111718963,"R"
67869,"1503 N PRESCOTT CIRCLE","WICHITA","KS",67212,37.7114100690001,-97.470200671,369,"1503 N PRESCOTT CIRCLE, WICHITA, KS, 67212","Match","Exact","1503 N PRESCOTT CIR, WICHITA, KS, 67212",115628557,"L"
67870,"1503 N SAN ANTONIO AVENUE","UPLAND","CA",91786,34.1180421600001,-117.660860492,370,"1503 N SAN ANTONIO AVENUE, UPLAND, CA, 91786","Match","Exact","1503 N SAN ANTONIO AVE, UPLAND, CA, 91786",639056254,"L"
67871,"1503 OLD MOUNTAIN ROAD","STATESVILLE","NC",28677,35.756165654,-80.974649337,371,"1503 OLD MOUNTAIN ROAD, STATESVILLE, NC, 28677","Match","Exact","1503 OLD MOUNTAIN RD, STATESVILLE, NC, 28677",640639294,"L"
67872,"1503 POPLAR ST","HIGHLAND","IL",62249,38.7352803200001,-89.67141606,372,"1503 POPLAR ST, HIGHLAND, IL, 62249","Match","Exact","1503 POPLAR ST, HIGHLAND, IL, 62249",107675021,"R"
67873,"1503 QUINLAN CT","INDIANAPOLIS","IN",46217,39.663214012,-86.185766466,373,"1503 QUINLAN CT, INDIANAPOLIS, IN, 46217","Match","Exact","1503 QUINLAN CT, INDIANAPOLIS, IN, 46217",108040042,"L"
67874,"1503 REGENT MANOR CT","SILVER SPRING","MD",20904,39.0430289190001,-76.9791191259999,374,"1503 REGENT MANOR CT, SILVER SPRING, MD, 20904","Match","Exact","1503 REGENT MANOR CT, SILVER SPRING, MD, 20904",618599065,"R"
67875,"1503 RHETT DR","ANDERSON","IN",46013,40.0647013180001,-85.662425301,375,"1503 RHETT DR, ANDERSON, IN, 46013","Match","Exact","1503 RHETT DR, ANDERSON, IN, 46013",31125127,"R"
67876,"1503 RIVERVIEW DR","FALLBROOK","CA",92028,33.4039341710001,-117.217620734,376,"1503 RIVERVIEW DR, FALLBROOK, CA, 92028","Match","Exact","1503 RIVERVIEW DR, FALLBROOK, CA, 92028",195711474,"L"
67877,"1503 ROLLING DR","GREENWOOD","MO",64034,38.838546857,-94.3473238019999,377,"1503 ROLLING DR, GREENWOOD, MO, 64034","Match","Exact","1503 ROLLING DR, GREENWOOD, MO, 64034",91493963,"L"
67878,"1503 S COAST DRIVE STE 210","COSTA MESA","CA",92626,33.691610236,-117.92130578,378,"1503 S COAST DRIVE STE 210, COSTA MESA, CA, 92626","Match","Non_Exact","1503 S COAST DR, COSTA MESA, CA, 92626",647315826,"L"
67879,"1503 S HOUSTON AVE","HUMBLE","TX",77338,30.0084080240001,-95.257871533,379,"1503 S HOUSTON AVE, HUMBLE, TX, 77338","Match","Non_Exact","1503 N HOUSTON AVE, HUMBLE, TX, 77338",96663316,"L"
67880,"1503 S LUTHER AVE","LOMBARD","IL",60148,41.854886277,-87.989982718,380,"1503 S LUTHER AVE, LOMBARD, IL, 60148","Match","Exact","1503 LUTHER AVE, LOMBARD, IL, 60148",112546185,"L"
67881,"1503 S ONEIDA ST","APPLETON","WI",54915,44.2487050450001,-88.404165537,381,"1503 S ONEIDA ST, APPLETON, WI, 54915","Match","Exact","1503 S ONEIDA ST, APPLETON, WI, 54915",74893052,"R"
67882,"1503 SIENA LN","BOYNTON BEACH","FL",33436,26.5551799850001,-80.097347427,382,"1503 SIENA LN, BOYNTON BEACH, FL, 33436","Match","Exact","1503 SIENA LN, BOYNTON BEACH, FL, 33436",115568184,"L"
67883,"1503 SIR GALAHAD ROAD","GREENSBORO","NC",27405,36.0956967700001,-79.733583036,383,"1503 SIR GALAHAD ROAD, GREENSBORO, NC, 27405","Match","Exact","1503 SIR GALAHAD RD, GREENSBORO, NC, 27405",131035186,"L"
67884,"1503 SOUTH BAILEY ST","PHILADELPHIA","PA",19146,39.9341896380001,-75.188398659,384,"1503 SOUTH BAILEY ST, PHILADELPHIA, PA, 19146","Match","Exact","1503 S BAILEY ST, PHILADELPHIA, PA, 19146",131410295,"L"
67885,"1503 SOUTH MARY STREET","EUSTIS","FL",32726,28.8383022720001,-81.679246768,385,"1503 SOUTH MARY STREET, EUSTIS, FL, 32726","Match","Exact","1503 S MARY ST, EUSTIS, FL, 32726",94129950,"R"
67886,"1503 SR 224","MELROSE","NM",88124,34.4791514020001,-103.546909314,386,"1503 SR 224, MELROSE, NM, 88124","Match","Non_Exact","1503 STATE HWY 224, MELROSE, NM, 88124",163757815,"R"
67887,"1503 STATE ROUTE 56","APOLLO","PA",15613,NA,NA,387,"1503 STATE ROUTE 56, APOLLO, PA, 15613","No_Match",NA,NA,NA,NA
67888,"1503 THIRD AVENUE SUITE 2A","NEW YORK","NY",10028,40.7779675580001,-73.95459813,388,"1503 THIRD AVENUE SUITE 2A, NEW YORK, NY, 10028","Match","Exact","1503 3RD AVE, NEW YORK, NY, 10028",59658288,"R"
67889,"1503 TYLER CIRCLE APT 68","WOODBRIDGE","VA",22191,38.665469048,-77.252444815,389,"1503 TYLER CIRCLE APT 68, WOODBRIDGE, VA, 22191","Match","Exact","1503 TYLER CIR, WOODBRIDGE, VA, 22191",76511749,"R"
67890,"1503 UNION ST","BROOKLYN","NY",11213,40.668418269,-73.941426945,390,"1503 UNION ST, BROOKLYN, NY, 11213","Match","Exact","1503 UNION ST, BROOKLYN, NY, 11213",59079698,"L"
67891,"1503 W 111TH PLACE","LOS ANGELES","CA",90047,33.933320995,-118.302558552,391,"1503 W 111TH PLACE, LOS ANGELES, CA, 90047","Match","Exact","1503 W 111TH PL, LOS ANGELES, CA, 90047",141660851,"R"
67892,"1503 W BROADWAY AVE","MINNEAPOLIS","MN",55411,44.9995350290001,-93.2991648409999,392,"1503 W BROADWAY AVE, MINNEAPOLIS, MN, 55411","Match","Exact","1503 W BROADWAY AVE, MINNEAPOLIS, MN, 55411",43623514,"L"
67893,"1503 WINGO LANE  UNIT 4","BOURBONNAIS","IL",60914,41.1670743610001,-87.8429332859999,393,"1503 WINGO LANE  UNIT 4, BOURBONNAIS, IL, 60914","Match","Exact","1503 WINGO LN, BOURBONNAIS, IL, 60914",98368662,"R"
67894,"15030 32ND STREET ROAD","GREEN RIDGE","MO",65332,38.675723745,-93.411169284,394,"15030 32ND STREET ROAD, GREEN RIDGE, MO, 65332","Match","Exact","15030 32ND STREET RD, GREEN RIDGE, MO, 65332",54713488,"L"
67895,"15030 HIGHWAY 6","ROSHARON","TX",77583,29.4962249970001,-95.439531858,395,"15030 HIGHWAY 6, ROSHARON, TX, 77583","Match","Exact","15030 HWY 6, ROSHARON, TX, 77583",647820227,"R"
67896,"15030 LIVERNOIS","DETROIT","MI",48238,42.4007697430001,-83.140160365,396,"15030 LIVERNOIS, DETROIT, MI, 48238","Match","Non_Exact","15030 LIVERNOIS AVE, DETROIT, MI, 48238",95461429,"R"
67897,"15030 MOUNTAIN VIEW AVENUE","DESERT HOT SPRINGS","CA",92240,33.9389581290001,-116.475382877,397,"15030 MOUNTAIN VIEW AVENUE, DESERT HOT SPRINGS, CA, 92240","Match","Non_Exact","15030 MOUNTAIN VIEW RD, DESERT HOT SPRINGS, CA, 92240",194691091,"R"
67898,"15030 MOUNTAIN VIEW","DESERT HOT SPRINGS","CA",92240,33.9389581290001,-116.475382877,398,"15030 MOUNTAIN VIEW, DESERT HOT SPRINGS, CA, 92240","Match","Non_Exact","15030 MOUNTAIN VIEW RD, DESERT HOT SPRINGS, CA, 92240",194691091,"R"
67899,"15030 S SPRINGWATER ROAD","OREGON CITY","OR",97045,45.388310586,-122.492169893,399,"15030 S SPRINGWATER ROAD, OREGON CITY, OR, 97045","Match","Exact","15030 S SPRINGWATER RD, OREGON CITY, OR, 97045",157921479,"R"
67900,"15030 VENTURA BLVD  UNIT 339","SHERMAN OAKS","CA",91403,34.1528305100001,-118.460284439,400,"15030 VENTURA BLVD  UNIT 339, SHERMAN OAKS, CA, 91403","Match","Exact","15030 VENTURA BLVD, SHERMAN OAKS, CA, 91403",141560854,"L"
67901,"15031 DIAMOND ROAD","VICTORVILLE","CA",92394,34.5244923070001,-117.377377147,401,"15031 DIAMOND ROAD, VICTORVILLE, CA, 92394","Match","Exact","15031 DIAMOND RD, VICTORVILLE, CA, 92394",627414545,"R"
67902,"15031 OAK SPRING DR","FONTANA","CA",92336,34.1290827980001,-117.4769336,402,"15031 OAK SPRING DR, FONTANA, CA, 92336","Match","Non_Exact","15031 OAKSPRING DR, FONTANA, CA, 92336",614822119,"R"
67903,"15031 SILHOUETTE RIDGE DRIVE","HUMBLE","TX",77396,29.9393926450001,-95.2291089189999,403,"15031 SILHOUETTE RIDGE DRIVE, HUMBLE, TX, 77396","Match","Exact","15031 SILHOUETTE RIDGE DR, HUMBLE, TX, 77396",625666668,"L"
67904,"15032 FORT STREET","SOUTHGATE","MI",48195,42.199127097,-83.18048473,404,"15032 FORT STREET, SOUTHGATE, MI, 48195","Match","Exact","15032 FORT ST, SOUTHGATE, MI, 48195",95452053,"R"
67905,"15033 STAHELIN AVE","DETROIT","MI",48223,42.3987865920001,-83.2264038769999,405,"15033 STAHELIN AVE, DETROIT, MI, 48223","Match","Non_Exact","15033 STAHELIN RD, DETROIT, MI, 48223",95422499,"L"
67906,"15034 SW 153 AVE","MIAMI","FL",33196,25.62685794,-80.440504617,406,"15034 SW 153 AVE, MIAMI, FL, 33196","Match","Non_Exact","15034 SW 153RD AVE, MIAMI, FL, 33196",116063060,"L"
67907,"15034 VALLEY RIDGE DR","CHESTERFIELD","MO",63017,38.6312927560001,-90.54895422,407,"15034 VALLEY RIDGE DR, CHESTERFIELD, MO, 63017","Match","Exact","15034 VALLEY RIDGE DR, CHESTERFIELD, MO, 63017",100110998,"L"
67908,"15035 COMPARK BLVD","PARKER","CO",80134,39.559421016,-104.81297378,408,"15035 COMPARK BLVD, PARKER, CO, 80134","Match","Exact","15035 COMPARK BLVD, PARKER, CO, 80134",649062766,"L"
67909,"15035 RAFFIA LEAVES WAY","HOUSTON","TX",77090,29.9922552790001,-95.437983088,409,"15035 RAFFIA LEAVES WAY, HOUSTON, TX, 77090","Match","Exact","15035 RAFFIA LEAVES WAY, HOUSTON, TX, 77090",652179466,"R"
67910,"15035 W BRUCE","HOMER GLEN","IL",60491,41.569702249,-87.9832709409999,410,"15035 W BRUCE, HOMER GLEN, IL, 60491","Match","Non_Exact","15035 W BRUCE RD, HOMER GLEN, IL, 60491",111564051,"R"
67911,"15036 CHERRY LANE","MINNETONKA","MN",55345,44.90728813,-93.471088209,411,"15036 CHERRY LANE, MINNETONKA, MN, 55345","Match","Exact","15036 CHERRY LN, MINNETONKA, MN, 55345",43825581,"R"
67912,"15036 HIGHWAY 1064 UNIT 1645","NATALBANY","LA",70451,NA,NA,412,"15036 HIGHWAY 1064 UNIT 1645, NATALBANY, LA, 70451","No_Match",NA,NA,NA,NA
67913,"15036 JACK DOWLING CIRCLE","SANDERSON","FL",32087,30.442720325,-82.291923959,413,"15036 JACK DOWLING CIRCLE, SANDERSON, FL, 32087","Match","Exact","15036 JACK DOWLING CIR, SANDERSON, FL, 32087",5114275,"L"
67914,"15036 SALAMANDER LANE","VICTORVILLE","CA",92394,34.5231263200001,-117.351901814,414,"15036 SALAMANDER LANE, VICTORVILLE, CA, 92394","Match","Exact","15036 SALAMANDER LN, VICTORVILLE, CA, 92394",144755999,"R"
67915,"15037 ROSALITA DRIVE","LA MIRADA","CA",90638,33.902185161,-118.010222919,415,"15037 ROSALITA DRIVE, LA MIRADA, CA, 90638","Match","Exact","15037 ROSALITA DR, LA MIRADA, CA, 90638",141752250,"L"
67916,"15038-F VIA HONDONADO","SAN DIEGO","CA",92129,32.988442046,-117.089751164,416,"15038-F VIA HONDONADO, SAN DIEGO, CA, 92129","Match","Non_Exact","15038 VIA HONDONADA, SAN DIEGO, CA, 92129",195316125,"L"
67917,"15039 RAFFIA LEAVES WAY","HOUSTON","TX",77090,29.992284222,-95.4379826749999,417,"15039 RAFFIA LEAVES WAY, HOUSTON, TX, 77090","Match","Exact","15039 RAFFIA LEAVES WAY, HOUSTON, TX, 77090",652179466,"R"
67918,"15039 S 82ND AVE","ORLAND PARK","IL",60462,41.6171974590001,-87.8191457409999,418,"15039 S 82ND AVE, ORLAND PARK, IL, 60462","Match","Exact","15039 82ND AVE, ORLAND PARK, IL, 60462",640481750,"L"
67919,"15039 S WINCHESTER","HARVEY","IL",60426,41.6161045040001,-87.664430001,419,"15039 S WINCHESTER, HARVEY, IL, 60426","Match","Non_Exact","15039 WINCHESTER AVE, HARVEY, IL, 60426",605688975,"L"
67920,"15039 SEELEY AVENUE","HARVEY","IL",60426,41.616113183,-87.666862082,420,"15039 SEELEY AVENUE, HARVEY, IL, 60426","Match","Exact","15039 SEELEY AVE, HARVEY, IL, 60426",605702407,"L"
67921,"15039 SW 13TH CT","SUNRISE","FL",33326,26.1041293170001,-80.350308463,421,"15039 SW 13TH CT, SUNRISE, FL, 33326","Match","Non_Exact","15039 SW 13TH CT, SUNRISE, FL, 33326",114775907,"R"
67922,"1504 19TH AVE","KENOSHA","WI",53140,42.631255077,-87.8323738829999,422,"1504 19TH AVE, KENOSHA, WI, 53140","Match","Exact","1504 19TH AVE, KENOSHA, WI, 53140",79802424,"R"
67923,"1504 34TH CIRCLE SE","RIO RANCHO","NM",87124,35.2325391530001,-106.66778273,423,"1504 34TH CIRCLE SE, RIO RANCHO, NM, 87124","Match","Exact","1504 34TH CIR SE, RIO RANCHO, NM, 87124",193996745,"L"
67924,"1504 ALVISO AVE","INGLEWOOD","CA",90302,NA,NA,424,"1504 ALVISO AVE, INGLEWOOD, CA, 90302","No_Match",NA,NA,NA,NA
67925,"1504 ARAGONA BLVD","FORT WASHINGTON","MD",20744,38.7362521640001,-76.9835353349999,425,"1504 ARAGONA BLVD, FORT WASHINGTON, MD, 20744","Match","Exact","1504 ARAGONA BLVD, FT WASHINGTON, MD, 20744",76345656,"L"
67926,"1504 ATLANTIC AVE","CHESAPEAKE","VA",23324,36.809420758,-76.264329792,426,"1504 ATLANTIC AVE, CHESAPEAKE, VA, 23324","Match","Exact","1504 ATLANTIC AVE, CHESAPEAKE, VA, 23324",121771271,"L"
67927,"1504 BATTERY CREEK RD","BEAUFORT","SC",29902,32.3925005930001,-80.701044893,427,"1504 BATTERY CREEK RD, BEAUFORT, SC, 29902","Match","Exact","1504 BATTERY CREEK RD, BEAUFORT, SC, 29902",87632415,"L"
67928,"1504 BELLGLEN DR","LAS VEGAS","NV",89128,36.18718367,-115.258002161,428,"1504 BELLGLEN DR, LAS VEGAS, NV, 89128","Match","Exact","1504 BELLGLEN DR, LAS VEGAS, NV, 89128",201905035,"R"
67929,"1504 BELVIEW COURT","EL PASO","TX",79912,31.8558891440001,-106.525174366,429,"1504 BELVIEW COURT, EL PASO, TX, 79912","Match","Non_Exact","1504 BELLVIEW CT, EL PASO, TX, 79912",189376150,"R"
67930,"1504 BORDELAIS DRIVE","SAN JOSE","CA",95118,37.237782716,-121.896647502,430,"1504 BORDELAIS DRIVE, SAN JOSE, CA, 95118","Match","Exact","1504 BORDELAIS DR, SAN JOSE, CA, 95118",123008359,"L"
67931,"1504 BRINTON PARK DRIVE","WYNNEWOOD","PA",19096,39.9899959420001,-75.2830321439999,431,"1504 BRINTON PARK DRIVE, WYNNEWOOD, PA, 19096","Match","Exact","1504 BRINTON PARK DR, WYNNEWOOD, PA, 19096",135087597,"L"
67932,"1504 BROOKHOLLOW DR STE 114","SANTA ANA","CA",92705,33.7131262250001,-117.849143087,432,"1504 BROOKHOLLOW DR STE 114, SANTA ANA, CA, 92705","Match","Exact","1504 BROOKHOLLOW DR, SANTA ANA, CA, 92705",144054372,"L"
67933,"1504 BUTLER PLANK RD","GLENSHAW","PA",15116,40.5290765020001,-79.95584497,433,"1504 BUTLER PLANK RD, GLENSHAW, PA, 15116","Match","Exact","1504 BUTLER PLANK RD, GLENSHAW, PA, 15116",51640379,"R"
67934,"1504 CATHAY DRIVE","SAN JOSE","CA",95122,37.3383668710001,-121.833544648,434,"1504 CATHAY DRIVE, SAN JOSE, CA, 95122","Match","Exact","1504 CATHAY DR, SAN JOSE, CA, 95122",122912734,"L"
67935,"1504 CITY AVENUE","MOORE","OK",73160,35.3509363000001,-97.498864902,435,"1504 CITY AVENUE, MOORE, OK, 73160","Match","Non_Exact","1504 N CITY AVE, MOORE, OK, 73160",99905767,"R"
67936,"1504 CLEARVIEW DRIVE","GREENSBURG","PA",15601,40.3080977440001,-79.4666483729999,436,"1504 CLEARVIEW DRIVE, GREENSBURG, PA, 15601","Match","Exact","1504 CLEARVIEW DR, GREENSBURG, PA, 15601",635369292,"R"
67937,"1504 COLLIER ST APT 9","AUSTIN","TX",78704,30.252677642,-97.767100789,437,"1504 COLLIER ST APT 9, AUSTIN, TX, 78704","Match","Exact","1504 COLLIER ST, AUSTIN, TX, 78704",649358863,"R"
67938,"1504 COUNTRY SIDE DRIVE","GREENSBORO","NC",27405,36.1269235350001,-79.76833973,438,"1504 COUNTRY SIDE DRIVE, GREENSBORO, NC, 27405","Match","Non_Exact","1504 COUNTRYSIDE DR, GREENSBORO, NC, 27405",131034414,"R"
67939,"1504 COUPLES STREET","LAS VEGAS","NV",89128,36.187702545,-115.277629732,439,"1504 COUPLES STREET, LAS VEGAS, NV, 89128","Match","Exact","1504 COUPLES ST, LAS VEGAS, NV, 89128",201951176,"L"
67940,"1504 E 24TH ST","SIOUX FALLS","SD",57105,43.531268019,-96.707028936,440,"1504 E 24TH ST, SIOUX FALLS, SD, 57105","Match","Exact","1504 E 24TH ST, SIOUX FALLS, SD, 57105",34974251,"L"
67941,"1504 E 48TH ST","TEXARKANA","AR",71854,33.468608149,-94.022804163,441,"1504 E 48TH ST, TEXARKANA, AR, 71854","Match","Exact","1504 E 48TH ST, TEXARKANA, AR, 71854",57282576,"R"
67942,"1504 E MCKINNEY ST STE 200","DENTON","TX",76209,33.215838686,-97.113392983,442,"1504 E MCKINNEY ST STE 200, DENTON, TX, 76209","Match","Non_Exact","1504 E MCKINNEY ST, DENTON, TX, 76209",103340424,"R"
67943,"1504 E SHENANDOAH DRIVE","BOISE","ID",83712,43.6141634080001,-116.170771939,443,"1504 E SHENANDOAH DRIVE, BOISE, ID, 83712","Match","Exact","1504 SHENANDOAH DR, BOISE, ID, 83712",117867000,"L"
67944,"1504 E SKYLINE DR","ELLENSBURG","WA",98926,47.003998945,-120.523257272,444,"1504 E SKYLINE DR, ELLENSBURG, WA, 98926","Match","Exact","1504 SKYLINE DR, ELLENSBURG, WA, 98926",157222683,"R"
67945,"1504 EAST WOOD VILLAGE DR","STOCKBRIDGE","GA",30281,NA,NA,445,"1504 EAST WOOD VILLAGE DR, STOCKBRIDGE, GA, 30281","No_Match",NA,NA,NA,NA
67946,"1504 EDGE ROCK CT","DAVIDSONVILLE","MD",21035,NA,NA,446,"1504 EDGE ROCK CT, DAVIDSONVILLE, MD, 21035","No_Match",NA,NA,NA,NA
67947,"1504 ELIZABETH DR","CARROLLTON","TX",75007,33.0119046880001,-96.901875541,447,"1504 ELIZABETH DR, CARROLLTON, TX, 75007","Match","Exact","1504 ELIZABETH DR, CARROLLTON, TX, 75007",103351632,"L"
67948,"1504 FALLBROOK ST","WEST SACRAMENTO","CA",95691,38.5708040710001,-121.533168865,448,"1504 FALLBROOK ST, WEST SACRAMENTO, CA, 95691","Match","Exact","1504 FALLBROOK ST, WEST SACRAMENTO, CA, 95691",67693118,"R"
67949,"1504 GREINER CIRCLE","HEPHZIBAH","GA",30815,33.2281328400001,-82.056462095,449,"1504 GREINER CIRCLE, HEPHZIBAH, GA, 30815","Match","Exact","1504 GREINER CIR, HEPHZIBAH, GA, 30815",645613365,"R"
67950,"1504 GROVEWOOD LANE","ROSEVILLE","CA",95747,38.807274842,-121.329835471,450,"1504 GROVEWOOD LANE, ROSEVILLE, CA, 95747","Match","Exact","1504 GROVEWOOD LN, ROSEVILLE, CA, 95747",106819448,"R"
67951,"1504 GULF TO BAY BLVD","CLEARWATER","FL",33765,27.960726203,-82.7751584069999,451,"1504 GULF TO BAY BLVD, CLEARWATER, FL, 33765","Match","Non_Exact","1504 GULF TO BAY BLVD, CLEARWATER, FL, 33755",124668575,"L"
67952,"1504 HABERSHAM WAY","DALTON","GA",30720,34.752462961,-84.999947348,452,"1504 HABERSHAM WAY, DALTON, GA, 30720","Match","Exact","1504 HABERSHAM WAY, DALTON, GA, 30720",57384018,"R"
67953,"1504 HIGH LONESOME","LEANDER","TX",78641,30.5378396560001,-97.8976753169999,453,"1504 HIGH LONESOME, LEANDER, TX, 78641","Match","Exact","1504 HIGH LONESOME, LEANDER, TX, 78641",627738577,"L"
67954,"1504 HILLMONT ST","AUSTIN","TX",78704,30.260233144,-97.76051238,454,"1504 HILLMONT ST, AUSTIN, TX, 78704","Match","Exact","1504 HILLMONT ST, AUSTIN, TX, 78704",63943000,"R"
67955,"1504 HOWARD CT","HOBART","IN",46342,41.5124590450001,-87.309058108,455,"1504 HOWARD CT, HOBART, IN, 46342","Match","Exact","1504 HOWARD CT, HOBART, IN, 46342",98435305,"R"
67956,"1504 JARVIS AVENUE","OXON HILL","MD",20745,38.8140669570001,-76.9826048319999,456,"1504 JARVIS AVENUE, OXON HILL, MD, 20745","Match","Exact","1504 JARVIS AVE, OXON HILL, MD, 20745",76312160,"L"
67957,"1504 JOH AVENUE SUITE 120","BALTIMORE","MD",21227,NA,NA,457,"1504 JOH AVENUE SUITE 120, BALTIMORE, MD, 21227","No_Match",NA,NA,NA,NA
67958,"1504 KENTON COURT","ANTIOCH","TN",37013,36.0695912400001,-86.5940928959999,458,"1504 KENTON COURT, ANTIOCH, TN, 37013","Match","Exact","1504 KENTON CT, ANTIOCH, TN, 37013",97213621,"R"
67959,"1504 KENTUCKY STREET","SALISBURY","NC",28144,35.650583237,-80.4858903149999,459,"1504 KENTUCKY STREET, SALISBURY, NC, 28144","Match","Exact","1504 KENTUCKY ST, SALISBURY, NC, 28144",25275730,"R"
67960,"1504 KNOLLWOOD AVENUE","LANSING","MI",48906,42.7523365970001,-84.5631080539999,460,"1504 KNOLLWOOD AVENUE, LANSING, MI, 48906","Match","Exact","1504 KNOLLWOOD AVE, LANSING, MI, 48906",17497515,"R"
67961,"1504 KNOTTS HAVEN TRL","LEXINGTON","SC",29073,33.8941261430001,-81.273669554,461,"1504 KNOTTS HAVEN TRL, LEXINGTON, SC, 29073","Match","Exact","1504 KNOTTS HAVEN TRL, LEXINGTON, SC, 29073",70088499,"L"
67962,"1504 LYNNGROVE DRIVE","MANHATTAN BEACH","CA",90266,33.8895742770001,-118.382516131,462,"1504 LYNNGROVE DRIVE, MANHATTAN BEACH, CA, 90266","Match","Exact","1504 LYNNGROVE DR, MANHATTAN BEACH, CA, 90266",642862112,"R"
67963,"1504 MARIE STREET","PITTSBURGH","PA",15221,40.448728552,-79.8621050469999,463,"1504 MARIE STREET, PITTSBURGH, PA, 15221","Match","Exact","1504 MARIE ST, PITTSBURGH, PA, 15221",51666671,"R"
67964,"1504 MEDALLION CT","PERRIS","CA",92571,33.799393115,-117.219433318,464,"1504 MEDALLION CT, PERRIS, CA, 92571","Match","Exact","1504 MEDALLION CT, PERRIS, CA, 92571",194800432,"R"
67965,"1504 MOFFET RD","SILVER SPRING","MD",20903,39.017360211,-76.9821023919999,465,"1504 MOFFET RD, SILVER SPRING, MD, 20903","Match","Exact","1504 MOFFET RD, SILVER SPRING, MD, 20903",62073731,"L"
67966,"1504 MULBERRY ST","TIPTON","IA",52772,41.780027122,-91.125108056,466,"1504 MULBERRY ST, TIPTON, IA, 52772","Match","Exact","1504 MULBERRY ST, TIPTON, IA, 52772",16702499,"R"
67967,"1504 MUNAL DR","BATON ROUGE","LA",70816,30.446491763,-91.019720747,467,"1504 MUNAL DR, BATON ROUGE, LA, 70816","Match","Exact","1504 MUNAL DR, BATON ROUGE, LA, 70816",92194545,"R"
67968,"1504 N 188 STREET","ELKHORN","NE",68022,41.2727711960001,-96.209682686,468,"1504 N 188 STREET, ELKHORN, NE, 68022","Match","Exact","1504 188TH ST, ELKHORN, NE, 68022",646828427,"L"
67969,"1504 NEW JERSEY AVE","SHEBOYGAN","WI",53081,43.746522794,-87.724803983,469,"1504 NEW JERSEY AVE, SHEBOYGAN, WI, 53081","Match","Exact","1504 NEW JERSEY AVE, SHEBOYGAN, WI, 53081",79497216,"R"
67970,"1504 NORTH 17TH STREET","MILWAUKEE","WI",53205,43.0500113050001,-87.933912462,470,"1504 NORTH 17TH STREET, MILWAUKEE, WI, 53205","Match","Exact","1504 N 17TH ST, MILWAUKEE, WI, 53205",77741052,"R"
67971,"1504 OAK TREE ROAD","ALLEN","TX",75002,33.1130328040001,-96.6309539439999,471,"1504 OAK TREE ROAD, ALLEN, TX, 75002","Match","Exact","1504 OAK TREE RD, ALLEN, TX, 75002",123525302,"R"
67972,"1504 OCEAN AVE APT 3G","BROOKLYN","NY",11230,40.625388892,-73.956334924,472,"1504 OCEAN AVE APT 3G, BROOKLYN, NY, 11230","Match","Exact","1504 OCEAN AVE, BROOKLYN, NY, 11230",639413909,"R"
67973,"1504 PAGAN ROAD","RALEIGH","NC",27603,35.617855332,-78.6512105319999,473,"1504 PAGAN ROAD, RALEIGH, NC, 27603","Match","Exact","1504 PAGAN RD, RALEIGH, NC, 27603",72651795,"R"
67974,"1504 PEBBLE RIDGE DR","RALEIGH","NC",27610,35.755469668,-78.5656230869999,474,"1504 PEBBLE RIDGE DR, RALEIGH, NC, 27610","Match","Exact","1504 PEBBLE RIDGE DR, RALEIGH, NC, 27610",619264873,"R"
67975,"1504 PINK CHEROKEE COURT","APEX","NC",27502,35.731068544,-78.877512222,475,"1504 PINK CHEROKEE COURT, APEX, NC, 27502","Match","Exact","1504 PINK CHEROKEE CT, APEX, NC, 27502",72596400,"R"
67976,"1504 PITNER AVE","EVANSTON","IL",60201,42.044881511,-87.7052804909999,476,"1504 PITNER AVE, EVANSTON, IL, 60201","Match","Exact","1504 PITNER AVE, EVANSTON, IL, 60201",111743231,"L"
67977,"1504 PRANCER CT","GASTONIA","NC",28056,35.218950369,-81.139878484,477,"1504 PRANCER CT, GASTONIA, NC, 28056","Match","Non_Exact","1504 PRANCER LN, GASTONIA, NC, 28056",70383109,"R"
67978,"1504 PRESCOTT DRIVE","CHULA VISTA","CA",91915,32.634781478,-116.938795553,478,"1504 PRESCOTT DRIVE, CHULA VISTA, CA, 91915","Match","Exact","1504 PRESCOTT DR, CHULA VISTA, CA, 91915",195757435,"L"
67979,"1504 PRESIDENT STREET","BROOKLYN","NY",11213,40.6674155060001,-73.9386654639999,479,"1504 PRESIDENT STREET, BROOKLYN, NY, 11213","Match","Exact","1504 PRESIDENT ST, BROOKLYN, NY, 11213",59079720,"R"
67980,"1504 PRINCETON DRIVE","FORT SMITH","AR",72908,35.3016094770001,-94.419155339,480,"1504 PRINCETON DRIVE, FORT SMITH, AR, 72908","Match","Exact","1504 PRINCETON DR, FORT SMITH, AR, 72908",56113102,"R"
67981,"1504 PROVIDENCE ROAD","TOWSON","MD",21286,39.425910291,-76.560730366,481,"1504 PROVIDENCE ROAD, TOWSON, MD, 21286","Match","Exact","1504 PROVIDENCE RD, TOWSON, MD, 21286",635886926,"L"
67982,"1504 QUARRIER ST","CHARLESTON","WV",25311,38.3419224630001,-81.624081459,482,"1504 QUARRIER ST, CHARLESTON, WV, 25311","Match","Non_Exact","1504 QUARRIER ST E, CHARLESTON, WV, 25311",78647809,"L"
67983,"1504 S MARTIN LUTHER KING JR BLVD","LONGVIEW","TX",75602,32.4740308770001,-94.716376515,483,"1504 S MARTIN LUTHER KING JR BLVD, LONGVIEW, TX, 75602","Match","Exact","1504 S MARTIN LUTHER KING JR BLVD, LONGVIEW, TX, 75602",653214480,"L"
67984,"1504 S MARYLAND PKWY","LAS VEGAS","NV",89104,NA,NA,484,"1504 S MARYLAND PKWY, LAS VEGAS, NV, 89104","No_Match",NA,NA,NA,NA
67985,"1504 SAN ANTONIO ST","AUSTIN","TX",78701,30.2783693260001,-97.7440090439999,485,"1504 SAN ANTONIO ST, AUSTIN, TX, 78701","Match","Exact","1504 SAN ANTONIO ST, AUSTIN, TX, 78701",63943243,"L"
67986,"1504 SIMPSON STREET","SAINT PAUL","MN",55108,44.9865420580001,-93.1630650279999,486,"1504 SIMPSON STREET, SAINT PAUL, MN, 55108","Match","Exact","1504 SIMPSON ST, SAINT PAUL, MN, 55108",97641054,"R"
67987,"1504 SOUTH 3RD AVE","BOZEMAN","MT",59715,45.6638389660001,-111.041740607,487,"1504 SOUTH 3RD AVE, BOZEMAN, MT, 59715","Match","Exact","1504 S 3RD AVE, BOZEMAN, MT, 59715",640598919,"R"
67988,"1504 SOUTH LEAH LANE","STATESBORO","GA",30461,32.405116892,-81.728524398,488,"1504 SOUTH LEAH LANE, STATESBORO, GA, 30461","Match","Non_Exact","1504 LEAH LN, STATESBORO, GA, 30461",614093111,"R"
67989,"1504 SPRING WATER PL","HIGHLANDS RANCH","CO",80129,39.528521336,-105.007275695,489,"1504 SPRING WATER PL, HIGHLANDS RANCH, CO, 80129","Match","Non_Exact","1504 W SPRING WATER PL, HIGHLANDS RANCH, CO, 80129",130815914,"R"
67990,"1504 TAYLOR DRIVE","MESQUITE","TX",75149,32.75043944,-96.609663685,490,"1504 TAYLOR DRIVE, MESQUITE, TX, 75149","Match","Exact","1504 TAYLOR DR, MESQUITE, TX, 75149",103165365,"L"
67991,"1504 TERRACE STREET","CLEVELAND","MS",38732,33.7370969780001,-90.745801689,491,"1504 TERRACE STREET, CLEVELAND, MS, 38732","Match","Non_Exact","1504 TERRACE RD, CLEVELAND, MS, 38732",843983,"R"
67992,"1504 W 63RD STREET","CHICAGO","IL",60636,41.7795109150001,-87.6620366079999,492,"1504 W 63RD STREET, CHICAGO, IL, 60636","Match","Exact","1504 W 63RD ST, CHICAGO, IL, 60636",111805947,"R"
67993,"1504 W BOYCE AVE","FORT WORTH","TX",76115,32.679820309,-97.343226962,493,"1504 W BOYCE AVE, FORT WORTH, TX, 76115","Match","Exact","1504 W BOYCE AVE, FORT WORTH, TX, 76115",101887972,"R"
67994,"1504 WEST BOWMAN RD","FRENCH CAMP","CA",95231,37.8648382270001,-121.316537037,494,"1504 WEST BOWMAN RD, FRENCH CAMP, CA, 95231","Match","Non_Exact","1504 BOWMAN RD, FRENCH CAMP, CA, 95231",133854886,"L"
67995,"1504 YELLOWBIRD CT","DESOTO","TX",75115,32.5665734340001,-96.8494876729999,495,"1504 YELLOWBIRD CT, DESOTO, TX, 75115","Match","Exact","1504 YELLOWBIRD CT, DESOTO, TX, 75115",102994597,"L"
67996,"15040 BUCHANAN ST","MIAMI","FL",33176,25.629217179,-80.368354053,496,"15040 BUCHANAN ST, MIAMI, FL, 33176","Match","Exact","15040 BUCHANAN ST, MIAMI, FL, 33176",115982035,"R"
67997,"15040 MIDDLESBOROUGH DRIVE","MATTHEWS","NC",28104,35.114290479,-80.663463959,497,"15040 MIDDLESBOROUGH DRIVE, MATTHEWS, NC, 28104","Match","Exact","15040 MIDDLESBOROUGH DR, MATTHEWS, NC, 28104",14196187,"L"
67998,"15041 MARTIN LUTHER KING JR DR","DOLTON","IL",60419,NA,NA,498,"15041 MARTIN LUTHER KING JR DR, DOLTON, IL, 60419","No_Match",NA,NA,NA,NA
67999,"15041 SW 141ST LN","MIAMI","FL",33196,25.6351148470001,-80.4375888659999,499,"15041 SW 141ST LN, MIAMI, FL, 33196","Match","Exact","15041 SW 141ST LN, MIAMI, FL, 33196",116092385,"R"
68000,"15042 TOWNSHIP ROAD 403","THORNVILLE","OH",43076,NA,NA,500,"15042 TOWNSHIP ROAD 403, THORNVILLE, OH, 43076","No_Match",NA,NA,NA,NA
