"ID","Address","City","State","Zip","lat","long","id","input_address","match_indicator","match_type","matched_address","tiger_line_id","tiger_side"
173501,"3250 POINT VIEW DRIVE","TALLAHASSEE","FL",32303,30.5110231310001,-84.345493904,1,"3250 POINT VIEW DRIVE, TALLAHASSEE, FL, 32303","Match","Exact","3250 POINT VIEW DR, TALLAHASSEE, FL, 32303",82890586,"L"
173502,"3250 POST VALLEY DRIVE","O FALLON","MO",63368,NA,NA,2,"3250 POST VALLEY DRIVE, O FALLON, MO, 63368","No_Match",NA,NA,NA,NA
173503,"3250 RIDGE CREST CT","HAYWARD","CA",94541,37.6843400440001,-122.048359579,3,"3250 RIDGE CREST CT, HAYWARD, CA, 94541","Match","Exact","3250 RIDGE CREST CT, HAYWARD, CA, 94541",125016232,"L"
173504,"3250 RIVER DRIVE SW","LAWRENCEVILLE","GA",30044,33.88536236,-84.069176629,4,"3250 RIVER DRIVE SW, LAWRENCEVILLE, GA, 30044","Match","Exact","3250 RIVER DR SW, LAWRENCEVILLE, GA, 30044",88889674,"L"
173505,"3250 RIVER ROAD WEST","GOOCHLAND","VA",23063,37.697944181,-77.895841269,5,"3250 RIVER ROAD WEST, GOOCHLAND, VA, 23063","Match","Exact","3250 RIVER RD W, GOOCHLAND, VA, 23063",210332763,"R"
173506,"3250 S ARIZONA AVE APT 1008","CHANDLER","AZ",85248,33.258542278,-111.841395284,6,"3250 S ARIZONA AVE APT 1008, CHANDLER, AZ, 85248","Match","Non_Exact","3250 S ARIZONA AVE, CHANDLER, AZ, 85248",642641313,"L"
173507,"3250 SKY TERRA DRIVE","MOBILE","AL",36618,30.758630054,-88.211334726,7,"3250 SKY TERRA DRIVE, MOBILE, AL, 36618","Match","Exact","3250 SKY TERRA DR, MOBILE, AL, 36618",61846522,"L"
173508,"3250 UNIVERSITY AVE","HIGHLAND PARK","IL",60035,42.2119215270001,-87.8268580069999,8,"3250 UNIVERSITY AVE, HIGHLAND PARK, IL, 60035","Match","Exact","3250 UNIVERSITY AVE, HIGHLAND PARK, IL, 60035",119647892,"L"
173509,"3250 VIEW VALLEY TRAIL","KATY","TX",77493,29.8220915000001,-95.785369069,9,"3250 VIEW VALLEY TRAIL, KATY, TX, 77493","Match","Exact","3250 VIEW VALLEY TRL, KATY, TX, 77493",641967118,"R"
173510,"3250 W 60TH STREET","CHICAGO","IL",60629,41.7844105120001,-87.704818012,10,"3250 W 60TH STREET, CHICAGO, IL, 60629","Match","Exact","3250 W 60TH ST, CHICAGO, IL, 60629",605305788,"R"
173511,"3250 W ADAMS ST","CHICAGO","IL",60624,41.878388364,-87.70686496,11,"3250 W ADAMS ST, CHICAGO, IL, 60624","Match","Exact","3250 W ADAMS ST, CHICAGO, IL, 60624",641672581,"R"
173512,"3250 W BIG BEAVER RD STE 302","TROY","MI",48084,42.5612674170001,-83.190449904,12,"3250 W BIG BEAVER RD STE 302, TROY, MI, 48084","Match","Non_Exact","3250 W BIG BEAVER RD, TROY, MI, 48084",630327544,"R"
173513,"3250 WASHBURN AVE N","MINNEAPOLIS","MN",55412,45.014769008,-93.317138619,13,"3250 WASHBURN AVE N, MINNEAPOLIS, MN, 55412","Match","Exact","3250 WASHBURN AVE N, MINNEAPOLIS, MN, 55412",43621291,"R"
173514,"3250 WEST BIG BEAVER ROAD","TROY","MI",48084,42.5612677930001,-83.190418909,14,"3250 WEST BIG BEAVER ROAD, TROY, MI, 48084","Match","Exact","3250 W BIG BEAVER RD, TROY, MI, 48084",630327544,"R"
173515,"3250 WILSHIRE BLVD  SUITE 1700","LOS ANGELES","CA",90010,34.0617817740001,-118.293044822,15,"3250 WILSHIRE BLVD  SUITE 1700, LOS ANGELES, CA, 90010","Match","Exact","3250 WILSHIRE BLVD, LOS ANGELES, CA, 90010",141604950,"L"
173516,"3250 WILSHIRE BLVD - SUITTE 1500","LOS ANGELES","CA",90010,34.0617817740001,-118.293044822,16,"3250 WILSHIRE BLVD - SUITTE 1500, LOS ANGELES, CA, 90010","Match","Exact","3250 WILSHIRE BLVD, LOS ANGELES, CA, 90010",141604950,"L"
173517,"3250 WILSHIRE BLVD 1705","LOS ANGELES","CA",90010,34.0617817740001,-118.293044822,17,"3250 WILSHIRE BLVD 1705, LOS ANGELES, CA, 90010","Match","Exact","3250 WILSHIRE BLVD, LOS ANGELES, CA, 90010",141604950,"L"
173518,"3250 WILSHIRE BLVD SUITE 1500","LOS ANGELES","CA",90010,34.0617817740001,-118.293044822,18,"3250 WILSHIRE BLVD SUITE 1500, LOS ANGELES, CA, 90010","Match","Exact","3250 WILSHIRE BLVD, LOS ANGELES, CA, 90010",141604950,"L"
173519,"3250 WILSHIRE BLVD SUITE 1750 J","LOS ANGELES","CA",90010,34.0617817740001,-118.293044822,19,"3250 WILSHIRE BLVD SUITE 1750 J, LOS ANGELES, CA, 90010","Match","Exact","3250 WILSHIRE BLVD, LOS ANGELES, CA, 90010",141604950,"L"
173520,"3250-A RIVER ROAD WEST","GOOCHLAND","VA",23063,37.697944181,-77.895841269,20,"3250-A RIVER ROAD WEST, GOOCHLAND, VA, 23063","Match","Exact","3250 RIVER RD W, GOOCHLAND, VA, 23063",210332763,"R"
173521,"32500 CHARDON ROAD","WILLOUGHBY HILLS","OH",44094,41.5839613800001,-81.450799547,21,"32500 CHARDON ROAD, WILLOUGHBY HILLS, OH, 44094","Match","Exact","32500 CHARDON RD, WILLOUGHBY HILLS, OH, 44094",647709095,"R"
173522,"32500 EL DIENTE COURT","EVERGREEN","CO",80439,39.6874848420001,-105.369734305,22,"32500 EL DIENTE COURT, EVERGREEN, CO, 80439","Match","Exact","32500 EL DIENTE CT, EVERGREEN, CO, 80439",177732196,"L"
173523,"32500 SCENIC LANE","FRANKLIN","MI",48025,42.524193444,-83.316515284,23,"32500 SCENIC LANE, FRANKLIN, MI, 48025","Match","Exact","32500 SCENIC LN, FRANKLIN, MI, 48025",69727811,"R"
173524,"32500 TELEGRAPH ROAD  SUITE 222","BINGHAM FARMS","MI",48025,NA,NA,24,"32500 TELEGRAPH ROAD  SUITE 222, BINGHAM FARMS, MI, 48025","No_Match",NA,NA,NA,NA
173525,"32501 J ROAD","HOTCHKISS","CO",81419,38.785017274,-107.753382888,25,"32501 J ROAD, HOTCHKISS, CO, 81419","Match","Exact","32501 J RD, HOTCHKISS, CO, 81419",647355184,"R"
173526,"32501 MCDONNELL LANE","FORT BRAGG","CA",95437,39.3872055640001,-123.80161629,26,"32501 MCDONNELL LANE, FORT BRAGG, CA, 95437","Match","Exact","32501 MCDONNELL LN, FORT BRAGG, CA, 95437",627878554,"R"
173527,"32503 SEACLIFF DR","RANCHO PALOS VERDES","CA",90275,33.732203332,-118.344453221,27,"32503 SEACLIFF DR, RANCHO PALOS VERDES, CA, 90275","Match","Exact","32503 SEACLIFF DR, RANCHO PALOS VERDES, CA, 90275",141688100,"L"
173528,"32504 N 56TH PL","CAVE CREEK","AZ",85331,33.7800314940001,-111.959426827,28,"32504 N 56TH PL, CAVE CREEK, AZ, 85331","Match","Exact","32504 N 56TH PL, CAVE CREEK, AZ, 85331",243974992,"L"
173529,"32509 COAL HERITAGE RD RT 52 BOX 10","KEYSTONE","WV",24868,NA,NA,29,"32509 COAL HERITAGE RD RT 52 BOX 10, KEYSTONE, WV, 24868","No_Match",NA,NA,NA,NA
173530,"3251 3RD AVENUE N  STE 125","ST PETERSBURG","FL",33713,27.774655523,-82.676448759,30,"3251 3RD AVENUE N  STE 125, ST PETERSBURG, FL, 33713","Match","Exact","3251 3RD AVE N, SAINT PETERSBURG, FL, 33713",124705448,"R"
173531,"3251 AUSTINS COLONY PARKWAY","BRYAN","TX",77808,30.681325341,-96.336604125,31,"3251 AUSTINS COLONY PARKWAY, BRYAN, TX, 77808","Match","Exact","3251 AUSTINS COLONY PKWY, BRYAN, TX, 77808",21835000,"L"
173532,"3251 AUSTINS COLONY PKWY","BRYAN","TX",77808,30.681325341,-96.336604125,32,"3251 AUSTINS COLONY PKWY, BRYAN, TX, 77808","Match","Exact","3251 AUSTINS COLONY PKWY, BRYAN, TX, 77808",21835000,"L"
173533,"3251 CARMAN AVENUE","SPRINGFIELD","IL",62703,39.7566734160001,-89.658185808,33,"3251 CARMAN AVENUE, SPRINGFIELD, IL, 62703","Match","Exact","3251 CARMAN AVE, SPRINGFIELD, IL, 62703",97324306,"R"
173534,"3251 CHANDON WAY","HIGHLANDS RANCH","CO",80126,39.5173427490001,-104.948062612,34,"3251 CHANDON WAY, HIGHLANDS RANCH, CO, 80126","Match","Exact","3251 CHANDON WAY, HIGHLANDS RANCH, CO, 80126",130841035,"L"
173535,"3251 CORNISH CIR","SOUTH JORDAN","UT",84095,40.5573157270001,-111.968540738,35,"3251 CORNISH CIR, SOUTH JORDAN, UT, 84095","Match","Exact","3251 CORNISH CIR, SOUTH JORDAN, UT, 84095",176154521,"L"
173536,"3251 CORTE MALPASO STE 501B","CAMARILLO","CA",93012,NA,NA,36,"3251 CORTE MALPASO STE 501B, CAMARILLO, CA, 93012","No_Match",NA,NA,NA,NA
173537,"3251 CORTE MALPASO STE 501B/C","CAMARILLO","CA",93012,NA,NA,37,"3251 CORTE MALPASO STE 501B/C, CAMARILLO, CA, 93012","No_Match",NA,NA,NA,NA
173538,"3251 CROOKED OAK DR","LENOIR CITY","TN",37771,35.800068896,-84.306275681,38,"3251 CROOKED OAK DR, LENOIR CITY, TN, 37771","Match","Exact","3251 CROOKED OAK DR, LENOIR CITY, TN, 37771",99974912,"R"
173539,"3251 CROSS KEYS RD","COLUMBUS","OH",43232,39.906583535,-82.908527206,39,"3251 CROSS KEYS RD, COLUMBUS, OH, 43232","Match","Exact","3251 CROSS KEYS RD, COLUMBUS, OH, 43232",218643760,"R"
173540,"3251 DOUGLAS HIGHWAY","JUNEAU","AK",99801,58.2947567200001,-134.430250318,40,"3251 DOUGLAS HIGHWAY, JUNEAU, AK, 99801","Match","Exact","3251 DOUGLAS HWY, JUNEAU, AK, 99801",190966358,"R"
173541,"3251 FOREST AVE APT 15","KANSAS CITY","MO",64109,39.0677160600001,-94.5702220969999,41,"3251 FOREST AVE APT 15, KANSAS CITY, MO, 64109","Match","Exact","3251 FOREST AVE, KANSAS CITY, MO, 64109",91446457,"L"
173542,"3251 MARLA DRIVE","WINNEMUCCA","NV",89445,40.962492818,-117.714339349,42,"3251 MARLA DRIVE, WINNEMUCCA, NV, 89445","Match","Exact","3251 MARLA DR, WINNEMUCCA, NV, 89445",170951567,"L"
173543,"3251 NE 180TH AVE","WILLISTON","FL",39686,29.3795978850001,-82.4725331389999,43,"3251 NE 180TH AVE, WILLISTON, FL, 39686","Match","Non_Exact","3251 NE 180TH AVE, WILLISTON, FL, 32696",612201323,"R"
173544,"3251 RIVERWOOD WAY","CASTLE ROCK","CO",80109,39.396422366,-104.88275584,44,"3251 RIVERWOOD WAY, CASTLE ROCK, CO, 80109","Match","Exact","3251 RIVERWOOD WAY, CASTLE ROCK, CO, 80109",649061826,"L"
173545,"3251 ROSECRANS STREET","SAN DIEGO","CA",92110,32.7475769960001,-117.208471379,45,"3251 ROSECRANS STREET, SAN DIEGO, CA, 92110","Match","Exact","3251 ROSECRANS ST, SAN DIEGO, CA, 92110",195340937,"R"
173546,"3251 S CLAY STREET","GREEN BAY","WI",54301,44.4635510050001,-88.034672717,46,"3251 S CLAY STREET, GREEN BAY, WI, 54301","Match","Exact","3251 S CLAY ST, GREEN BAY, WI, 54301",148101896,"L"
173547,"3251 S KRAMERIA ST","DENVER","CO",80222,39.6592958300001,-104.917191006,47,"3251 S KRAMERIA ST, DENVER, CO, 80222","Match","Exact","3251 S KRAMERIA ST, DENVER, CO, 80222",177341771,"R"
173548,"3251 S STEWART AVE UNIT D","CHICAGO","IL",60616,41.8354185150001,-87.635900328,48,"3251 S STEWART AVE UNIT D, CHICAGO, IL, 60616","Match","Non_Exact","3251 S STEWART AVE, CHICAGO, IL, 60616",111828718,"L"
173549,"3251 SCHANROCK RD","MERIDIAN","MS",39301,32.3293000130001,-88.658450814,49,"3251 SCHANROCK RD, MERIDIAN, MS, 39301","Match","Exact","3251 SCHANROCK RD, MERIDIAN, MS, 39301",196462,"R"
173550,"3251 SW 67 AVE","MIAMI","FL",33155,25.7397206530001,-80.303165303,50,"3251 SW 67 AVE, MIAMI, FL, 33155","Match","Exact","3251 SW 67TH AVE, MIAMI, FL, 33155",115977588,"L"
173551,"3251 TRENT ROAD","ORIENTAL","NC",28571,35.0857934740001,-76.669573293,51,"3251 TRENT ROAD, ORIENTAL, NC, 28571","Match","Exact","3251 TRENT RD, ORIENTAL, NC, 28571",67922603,"R"
173552,"3251 W 53RD AVE","DENVER","CO",80221,39.7929385150001,-105.029372384,52,"3251 W 53RD AVE, DENVER, CO, 80221","Match","Exact","3251 W 53RD AVE, DENVER, CO, 80221",177298970,"R"
173553,"3251 W 6TH ST STE 342","LOS ANGELES","CA",90020,34.0636103190001,-118.29300786,53,"3251 W 6TH ST STE 342, LOS ANGELES, CA, 90020","Match","Non_Exact","3251 W 6TH ST, LOS ANGELES, CA, 90020",141604949,"R"
173554,"3251 W 6TH STREET","LOS ANGELES","CA",90020,34.0636103190001,-118.29300786,54,"3251 W 6TH STREET, LOS ANGELES, CA, 90020","Match","Exact","3251 W 6TH ST, LOS ANGELES, CA, 90020",141604949,"R"
173555,"32511 CLAY BANK RD","ERHARD","MN",56534,NA,NA,55,"32511 CLAY BANK RD, ERHARD, MN, 56534","No_Match",NA,NA,NA,NA
173556,"32515 HIGHWAY 31","CALERA","AL",35040,33.064790068,-86.752632367,56,"32515 HIGHWAY 31, CALERA, AL, 35040","Match","Non_Exact","32515 US HWY 31, CALERA, AL, 35040",652224402,"L"
173557,"3252 ALBANS DRIVE","LOS ALAMITOS","CA",90720,NA,NA,57,"3252 ALBANS DRIVE, LOS ALAMITOS, CA, 90720","No_Match",NA,NA,NA,NA
173558,"3252 CALHOUN RD NE","ROME","GA",30161,34.3098944340001,-85.099881636,58,"3252 CALHOUN RD NE, ROME, GA, 30161","Match","Exact","3252 CALHOUN RD NE, ROME, GA, 30161",30698129,"R"
173559,"3252 COLLEGE BLVD","LYNN HAVEN","FL",32444,30.2395754660001,-85.6133361509999,59,"3252 COLLEGE BLVD, LYNN HAVEN, FL, 32444","Match","Exact","3252 COLLEGE BLVD, LYNN HAVEN, FL, 32444",7091130,"R"
173560,"3252 EDGEMONT STREET","PHILADELPHIA","PA",19134,39.9851668040001,-75.1006311209999,60,"3252 EDGEMONT STREET, PHILADELPHIA, PA, 19134","Match","Exact","3252 EDGEMONT ST, PHILADELPHIA, PA, 19134",131429951,"L"
173561,"3252 FOXCROFT RD UNIT 308","MIRAMAR","FL",33025,25.9794070520001,-80.2650030359999,61,"3252 FOXCROFT RD UNIT 308, MIRAMAR, FL, 33025","Match","Exact","3252 FOXCROFT RD, MIRAMAR, FL, 33025",114778354,"L"
173562,"3252 HAWKS NEST DR","KISSIMMEE","FL",34741,28.3472536690001,-81.431312314,62,"3252 HAWKS NEST DR, KISSIMMEE, FL, 34741","Match","Exact","3252 HAWKS NEST DR, KISSIMMEE, FL, 34741",176691430,"L"
173563,"3252 HILLVIEW LANE","LAFAYETTE","CA",94549,37.9067511810001,-122.099535052,63,"3252 HILLVIEW LANE, LAFAYETTE, CA, 94549","Match","Exact","3252 HILLVIEW LN, LAFAYETTE, CA, 94549",607682220,"L"
173564,"3252 HOOPER RD","FOREST","VA",24551,37.3952051050001,-79.279591136,64,"3252 HOOPER RD, FOREST, VA, 24551","Match","Exact","3252 HOOPER RD, FOREST, VA, 24551",624994541,"L"
173565,"3252 HUNTERS LANDING RD","BINGHAMTON","NY",13903,42.0307957210001,-75.924268992,65,"3252 HUNTERS LANDING RD, BINGHAMTON, NY, 13903","Match","Exact","3252 HUNTERS LANDING RD, BINGHAMTON, NY, 13903",46350931,"R"
173566,"3252 KILER CANYON ROAD","PASO ROBLES","CA",93446,35.6069782050001,-120.730562502,66,"3252 KILER CANYON ROAD, PASO ROBLES, CA, 93446","Match","Exact","3252 KILER CANYON RD, PASO ROBLES, CA, 93446",109899897,"L"
173567,"3252 LEXINGTON WAY","AUGUSTA","GA",30909,33.4552071410001,-82.098190398,67,"3252 LEXINGTON WAY, AUGUSTA, GA, 30909","Match","Exact","3252 LEXINGTON WAY, AUGUSTA, GA, 30909",619883440,"R"
173568,"3252 NORTH PALMER STREET","MILWAUKEE","WI",53212,43.0776456770001,-87.90879474,68,"3252 NORTH PALMER STREET, MILWAUKEE, WI, 53212","Match","Exact","3252 N PALMER ST, MILWAUKEE, WI, 53212",77743335,"R"
173569,"3252 SE  23RD ST","GRESHAM","OR",97080,45.480805984,-122.399396869,69,"3252 SE  23RD ST, GRESHAM, OR, 97080","Match","Exact","3252 SE 23RD ST, GRESHAM, OR, 97080",157552480,"R"
173570,"3252 SOUTHFORK DRIVE","PACE","FL",32571,30.633538518,-87.18956203,70,"3252 SOUTHFORK DRIVE, PACE, FL, 32571","Match","Exact","3252 SOUTHFORK DR, PACE, FL, 32571",618793938,"R"
173571,"3252 SW WARNICKS RD","ST JOSEPH","MO",64504,39.6471719080001,-94.910321498,71,"3252 SW WARNICKS RD, ST JOSEPH, MO, 64504","Match","Exact","3252 SW WARNICKS RD, SAINT JOSEPH, MO, 64504",15970153,"L"
173572,"3252-B CLEVELAND AVENUE","COLUMBUS","OH",43224,40.034507322,-82.9634702279999,72,"3252-B CLEVELAND AVENUE, COLUMBUS, OH, 43224","Match","Exact","3252 CLEVELAND AVE, COLUMBUS, OH, 43224",637222832,"L"
173573,"32522 WESTMINSTER DRIVE","WESTON LAKES","TX",77441,29.652331625,-95.930443348,73,"32522 WESTMINSTER DRIVE, WESTON LAKES, TX, 77441","Match","Exact","32522 WESTMINSTER DR, WESTON LAKES, TX, 77441",635235438,"L"
173574,"32523 342ND AVE SE","RAVENSDALE","WA",98051,47.3089996250001,-121.889776637,74,"32523 342ND AVE SE, RAVENSDALE, WA, 98051","Match","Exact","32523 342ND AVE SE, RAVENSDALE, WA, 98051",187068635,"L"
173575,"32526 DUNFORD STREET","FARMINGTON HILLS","MI",48334,42.506500665,-83.372231342,75,"32526 DUNFORD STREET, FARMINGTON HILLS, MI, 48334","Match","Exact","32526 DUNFORD ST, FARMINGTON HILLS, MI, 48334",69723253,"R"
173576,"3253 DOGWOOD DR","ATLANTA","GA",30354,33.665437979,-84.408576432,76,"3253 DOGWOOD DR, ATLANTA, GA, 30354","Match","Exact","3253 DOGWOOD DR, ATLANTA, GA, 30354",17349513,"R"
173577,"3253 GREEN KNOLL RD","WINDSOR MILL","MD",21244,39.3544920370001,-76.789974241,77,"3253 GREEN KNOLL RD, WINDSOR MILL, MD, 21244","Match","Exact","3253 GREEN KNOLL RD, WINDSOR MILL, MD, 21244",191463300,"R"
173578,"3253 GREEN KNOLL ROAD","BALTIMORE","MD",21244,39.3544920370001,-76.789974241,78,"3253 GREEN KNOLL ROAD, BALTIMORE, MD, 21244","Match","Exact","3253 GREEN KNOLL RD, BALTIMORE, MD, 21244",191463300,"R"
173579,"3253 KALLIN AVENUE","LONG BEACH","CA",90808,33.8158379860001,-118.097246659,79,"3253 KALLIN AVENUE, LONG BEACH, CA, 90808","Match","Exact","3253 KALLIN AVE, LONG BEACH, CA, 90808",141745480,"L"
173580,"3253 N LEWISVILLE LN","PARAGON","IN",46166,39.475739473,-86.617726169,80,"3253 N LEWISVILLE LN, PARAGON, IN, 46166","Match","Exact","3253 LEWISVILLE LN, PARAGON, IN, 46166",43572378,"R"
173581,"3253 STANTON RD SE","WASHINGTON","DC",20020,38.8479237270001,-76.9806707559999,81,"3253 STANTON RD SE, WASHINGTON, DC, 20020","Match","Exact","3253 STANTON RD SE, WASHINGTON, DC, 20020",624368224,"R"
173582,"32539 2ND AVE","SAN ANTONIO","FL",33576,28.340145235,-82.2774278219999,82,"32539 2ND AVE, SAN ANTONIO, FL, 33576","Match","Exact","32539 2ND AVE, SAN ANTONIO, FL, 33576",86344477,"R"
173583,"3254 BANNING ROAD","CINCINNATI","OH",45239,39.212048006,-84.589723517,83,"3254 BANNING ROAD, CINCINNATI, OH, 45239","Match","Exact","3254 BANNING RD, CINCINNATI, OH, 45239",103951250,"R"
173584,"3254 BLACK OAK DRIVE","EAGAN","MN",55121,44.8386776630001,-93.1068665929999,84,"3254 BLACK OAK DRIVE, EAGAN, MN, 55121","Match","Exact","3254 BLACK OAK DR, EAGAN, MN, 55121",37932691,"L"
173585,"3254 CASA LINDA DRIVE","DECATUR","GA",30032,33.7220647620001,-84.2565263509999,85,"3254 CASA LINDA DRIVE, DECATUR, GA, 30032","Match","Exact","3254 CASA LINDA DR, DECATUR, GA, 30032",23404003,"L"
173586,"3254 HAZELWOOD","DETROIT","MI",48224,NA,NA,86,"3254 HAZELWOOD, DETROIT, MI, 48224","No_Match",NA,NA,NA,NA
173587,"3254 OAKDALE RD","STUDIO CITY","CA",91604,NA,NA,87,"3254 OAKDALE RD, STUDIO CITY, CA, 91604","No_Match",NA,NA,NA,NA
173588,"3254 RIVERWOODS DR NE","ROCKFORD","MI",49341,43.083755744,-85.588294586,88,"3254 RIVERWOODS DR NE, ROCKFORD, MI, 49341","Match","Exact","3254 RIVERWOODS DR NE, ROCKFORD, MI, 49341",12496943,"L"
173589,"3254 S 301ST PL","AUBURN","WA",98001,47.331628289,-122.291047381,89,"3254 S 301ST PL, AUBURN, WA, 98001","Match","Exact","3254 S 301ST PL, AUBURN, WA, 98001",650628684,"R"
173590,"3254 SECOND STREET","OCEANSIDE","NY",11572,40.6314823430001,-73.63721866,90,"3254 SECOND STREET, OCEANSIDE, NY, 11572","Match","Exact","3254 2ND ST, OCEANSIDE, NY, 11572",147681522,"R"
173591,"3254 TRANQUILITY CT SE","SALEM","OR",97317,44.8738710220001,-122.996494007,91,"3254 TRANQUILITY CT SE, SALEM, OR, 97317","Match","Exact","3254 TRANQUILITY CT SE, SALEM, OR, 97317",156251984,"R"
173592,"3254 VAN AKEN BLVD","SHAKER HEIGHTS","OH",44120,41.470948795,-81.5757129309999,92,"3254 VAN AKEN BLVD, SHAKER HEIGHTS, OH, 44120","Match","Exact","3254 VAN AKEN BLVD, SHAKER HEIGHTS, OH, 44120",61127150,"R"
173593,"3254 W 86TH STREET","CHICAGO","IL",60652,41.7373903870001,-87.7042464529999,93,"3254 W 86TH STREET, CHICAGO, IL, 60652","Match","Exact","3254 W 86TH ST, CHICAGO, IL, 60652",112048152,"L"
173594,"3254 W ROCKPORT PARK DR","JANESVILLE","WI",53548,42.6634456730001,-89.063563718,94,"3254 W ROCKPORT PARK DR, JANESVILLE, WI, 53548","Match","Exact","3254 W ROCKPORT PARK DR, JANESVILLE, WI, 53548",648160538,"R"
173595,"3254 WEST 116TH STREET","CLEVELAND","OH",44111,41.463832731,-81.7676874639999,95,"3254 WEST 116TH STREET, CLEVELAND, OH, 44111","Match","Exact","3254 W 116TH ST, CLEVELAND, OH, 44111",61103044,"R"
173596,"3254 WININGS LANE","CARMEL","IN",46074,39.994886992,-86.2153620239999,96,"3254 WININGS LANE, CARMEL, IN, 46074","Match","Exact","3254 WININGS LN, CARMEL, IN, 46074",618464038,"R"
173597,"32542 SAFFLOWER ST","WINCHESTER","CA",92596,33.619213474,-117.091992499,97,"32542 SAFFLOWER ST, WINCHESTER, CA, 92596","Match","Exact","32542 SAFFLOWER ST, WINCHESTER, CA, 92596",618479650,"R"
173598,"3255 39TH ST","ZACHARY","LA",70791,30.6379590390001,-91.165863128,98,"3255 39TH ST, ZACHARY, LA, 70791","Match","Exact","3255 39TH ST, ZACHARY, LA, 70791",92210371,"L"
173599,"3255 39TH STREET","ZACHARY","LA",70791,30.6379590390001,-91.165863128,99,"3255 39TH STREET, ZACHARY, LA, 70791","Match","Exact","3255 39TH ST, ZACHARY, LA, 70791",92210371,"L"
173600,"3255 BROOMFIELD RD","DOVER","AR",72837,35.4764748480001,-93.0791727279999,100,"3255 BROOMFIELD RD, DOVER, AR, 72837","Match","Exact","3255 BROOMFIELD RD, DOVER, AR, 72837",637279958,"L"
173601,"3255 CALVIN CT","EAST POINT","GA",30344,33.667803888,-84.490384589,101,"3255 CALVIN CT, EAST POINT, GA, 30344","Match","Exact","3255 CALVIN CT, EAST POINT, GA, 30344",636750822,"R"
173602,"3255 CERRITOS AVE","SIGNAL HILL","CA",90755,33.816261814,-118.17740551,102,"3255 CERRITOS AVE, SIGNAL HILL, CA, 90755","Match","Exact","3255 CERRITOS AVE, SIGNAL HILL, CA, 90755",141686994,"L"
173603,"3255 CHESTNUT DR APT 2","EAST POINT","GA",30344,33.642871434,-84.494871463,103,"3255 CHESTNUT DR APT 2, EAST POINT, GA, 30344","Match","Exact","3255 CHESTNUT DR, EAST POINT, GA, 30344",643296542,"R"
173604,"3255 CYPRESS PARK RD UNIT C","GREENSBORO","NC",27407,36.0303182550001,-79.846289185,104,"3255 CYPRESS PARK RD UNIT C, GREENSBORO, NC, 27407","Match","Exact","3255 CYPRESS PARK RD, GREENSBORO, NC, 27407",131106356,"L"
173605,"3255 FAIRGROVE TERRACE","ROCHESTER HILLS","MI",48309,42.6307208000001,-83.198186967,105,"3255 FAIRGROVE TERRACE, ROCHESTER HILLS, MI, 48309","Match","Exact","3255 FAIRGROVE TER, ROCHESTER HILLS, MI, 48309",69819354,"L"
173606,"3255 GOTHIC PLACE","COLORADO SPRINGS","CO",80917,38.8790454950001,-104.725108687,106,"3255 GOTHIC PLACE, COLORADO SPRINGS, CO, 80917","Match","Exact","3255 GOTHIC PL, COLORADO SPRINGS, CO, 80917",105522154,"L"
173607,"3255 LAUREL ST","INDIANAPOLIS","IN",46227,39.7189922750001,-86.136007851,107,"3255 LAUREL ST, INDIANAPOLIS, IN, 46227","Match","Exact","3255 LAUREL ST, INDIANAPOLIS, IN, 46227",108028945,"L"
173608,"3255 LONGVIEW RD","MECHANICSBURG","PA",17055,40.1905619520001,-76.941269597,108,"3255 LONGVIEW RD, MECHANICSBURG, PA, 17055","Match","Exact","3255 LONGVIEW RD, MECHANICSBURG, PA, 17055",651598062,"L"
173609,"3255 LORIEN DR","PINCKNEY","MI",48169,42.4399240320001,-83.880489246,109,"3255 LORIEN DR, PINCKNEY, MI, 48169","Match","Exact","3255 LORIEN DR, PINCKNEY, MI, 48169",23555999,"R"
173610,"3255 LORIEN DRIVE","PINCKNEY","MI",48169,42.4399240320001,-83.880489246,110,"3255 LORIEN DRIVE, PINCKNEY, MI, 48169","Match","Exact","3255 LORIEN DR, PINCKNEY, MI, 48169",23555999,"R"
173611,"3255 MATTHEWS DRIVE","SUMTER","SC",29154,33.8938927890001,-80.4219653919999,111,"3255 MATTHEWS DRIVE, SUMTER, SC, 29154","Match","Exact","3255 MATTHEWS DR, SUMTER, SC, 29154",640352321,"L"
173612,"3255 N SURGING WATERS PLACE","TUCSON","AZ",85712,32.2662438040001,-110.902702473,112,"3255 N SURGING WATERS PLACE, TUCSON, AZ, 85712","Match","Exact","3255 N SURGING WATERS PL, TUCSON, AZ, 85712",606804681,"L"
173613,"3255 NE 184TH STREET APT 12218","N MIAMI BEACH","FL",33160,NA,NA,113,"3255 NE 184TH STREET APT 12218, N MIAMI BEACH, FL, 33160","No_Match",NA,NA,NA,NA
173614,"3255 NW 94TH AVE NUM 8067","CORAL SPRINGS","FL",33065,26.2711129570001,-80.2518833089999,114,"3255 NW 94TH AVE NUM 8067, CORAL SPRINGS, FL, 33065","Match","Non_Exact","3255 NW 94TH AVE, CORAL SPRINGS, FL, 33065",637060672,"L"
173615,"3255 NW 94TH AVE NUM 8711","CORAL SPRINGS","FL",33065,26.2711129570001,-80.2518833089999,115,"3255 NW 94TH AVE NUM 8711, CORAL SPRINGS, FL, 33065","Match","Non_Exact","3255 NW 94TH AVE, CORAL SPRINGS, FL, 33065",637060672,"L"
173616,"3255 PIONEER DRIVE","GREEN BAY","WI",54313,44.4765326890001,-88.1157467,116,"3255 PIONEER DRIVE, GREEN BAY, WI, 54313","Match","Exact","3255 PIONEER DR, GREEN BAY, WI, 54313",148097355,"L"
173617,"3255 POND RIDGE TRAIL","SNELLVILLE","GA",30078,33.844956675,-83.983621871,117,"3255 POND RIDGE TRAIL, SNELLVILLE, GA, 30078","Match","Exact","3255 POND RIDGE TRL, SNELLVILLE, GA, 30078",88948621,"R"
173618,"3255 PRUETT DRIVE","ROSEVILLE","CA",95747,NA,NA,118,"3255 PRUETT DRIVE, ROSEVILLE, CA, 95747","No_Match",NA,NA,NA,NA
173619,"3255 S DORSEY LANE 1007","TEMPE","AZ",85282,33.3935920340001,-111.917723957,119,"3255 S DORSEY LANE 1007, TEMPE, AZ, 85282","Match","Non_Exact","3255 S DORSEY LN, TEMPE, AZ, 85282",128922905,"L"
173620,"3255 SAINT ROSE PARKWAY SUITE 160","HNEDERSON","NV",89074,NA,NA,120,"3255 SAINT ROSE PARKWAY SUITE 160, HNEDERSON, NV, 89074","No_Match",NA,NA,NA,NA
173621,"3255 WILMINGTON ROAD","MONTGOMERY","AL",36105,32.3480977630001,-86.3010585119999,121,"3255 WILMINGTON ROAD, MONTGOMERY, AL, 36105","Match","Exact","3255 WILMINGTON RD, MONTGOMERY, AL, 36105",1544463,"L"
173622,"3255 WILSHIR BLVD SUITE 1717","LOS ANGELES","CA",90010,NA,NA,122,"3255 WILSHIR BLVD SUITE 1717, LOS ANGELES, CA, 90010","No_Match",NA,NA,NA,NA
173623,"3255 WILSHIRE BLVD STE 1717","LOS ANGELES","CA",90010,34.0617919690001,-118.293161793,123,"3255 WILSHIRE BLVD STE 1717, LOS ANGELES, CA, 90010","Match","Exact","3255 WILSHIRE BLVD, LOS ANGELES, CA, 90010",141604950,"R"
173624,"3255 WILSHIRE BOULEVARD SUITE 1010","LOS ANGELES","CA",90010,34.0617919690001,-118.293161793,124,"3255 WILSHIRE BOULEVARD SUITE 1010, LOS ANGELES, CA, 90010","Match","Exact","3255 WILSHIRE BLVD, LOS ANGELES, CA, 90010",141604950,"R"
173625,"32553 FORSTER ROAD","LA CRESCENT","MN",55947,43.8692884930001,-91.430746146,125,"32553 FORSTER ROAD, LA CRESCENT, MN, 55947","Match","Exact","32553 FORSTER RD, LA CRESCENT, MN, 55947",611913619,"L"
173626,"32555 DEER HOLLOW WAY","TEMECULA","CA",92592,NA,NA,126,"32555 DEER HOLLOW WAY, TEMECULA, CA, 92592","No_Match",NA,NA,NA,NA
173627,"32557 COUNTY 30","LAPORTE","MN",56461,47.1933489420001,-94.6826542269999,127,"32557 COUNTY 30, LAPORTE, MN, 56461","Match","Exact","32557 COUNTY 30, LAPORTE, MN, 56461",608297083,"L"
173628,"3256 BERRY DR","STUDIO CITY","CA",91604,34.1331155880001,-118.379766456,128,"3256 BERRY DR, STUDIO CITY, CA, 91604","Match","Exact","3256 BERRY DR, STUDIO CITY, CA, 91604",141566146,"R"
173629,"3256 BROWNS ISLAND CT","WEST SACRAMENTO","CA",95691,38.5373607330001,-121.564242957,129,"3256 BROWNS ISLAND CT, WEST SACRAMENTO, CA, 95691","Match","Exact","3256 BROWNS ISLAND CT, WEST SACRAMENTO, CA, 95691",67706568,"R"
173630,"3256 FIREBUSH AVENUE","ROSAMOND","CA",93560,34.8516472040001,-118.190293055,130,"3256 FIREBUSH AVENUE, ROSAMOND, CA, 93560","Match","Exact","3256 FIREBUSH AVE, ROSAMOND, CA, 93560",109572697,"L"
173631,"3256 MERCER UNIVERSITY DRIVE 116","CHAMBLEE","GA",30341,33.876395544,-84.25681561,131,"3256 MERCER UNIVERSITY DRIVE 116, CHAMBLEE, GA, 30341","Match","Exact","3256 MERCER UNIVERSITY DR, CHAMBLEE, GA, 30341",639507563,"L"
173632,"3256 MILLWOOD TRAIL SE","SMYRNA","GA",30080,33.8713807230001,-84.504557338,132,"3256 MILLWOOD TRAIL SE, SMYRNA, GA, 30080","Match","Exact","3256 MILLWOOD TRL SE, SMYRNA, GA, 30080",17226606,"R"
173633,"3256 NORTHAVEN RD","DALLAS","TX",75229,32.9021225870001,-96.8704290649999,133,"3256 NORTHAVEN RD, DALLAS, TX, 75229","Match","Exact","3256 NORTHAVEN RD, DALLAS, TX, 75229",103206566,"R"
173634,"3256 ROSEDALE DRIVE","ARNOLD","MO",63010,38.422291194,-90.393759672,134,"3256 ROSEDALE DRIVE, ARNOLD, MO, 63010","Match","Exact","3256 ROSEDALE DR, ARNOLD, MO, 63010",636524102,"R"
173635,"3256 SOUTH 106TH STREET","WEST ALLIS","WI",53227,42.9850369810001,-88.044317943,135,"3256 SOUTH 106TH STREET, WEST ALLIS, WI, 53227","Match","Exact","3256 S 106TH ST, WEST ALLIS, WI, 53227",77745423,"L"
173636,"3256 WEATHERED WOOD WAY","REX","GA",30273,33.5635453310001,-84.283615304,136,"3256 WEATHERED WOOD WAY, REX, GA, 30273","Match","Exact","3256 WEATHERED WOOD WAY, REX, GA, 30273",23325057,"L"
173637,"3256 WEST LAKE MARY BLVD SUITE 1100","LAKE MARY","FL",32746,28.756135941,-81.335340834,137,"3256 WEST LAKE MARY BLVD SUITE 1100, LAKE MARY, FL, 32746","Match","Exact","3256 W LAKE MARY BLVD, LAKE MARY, FL, 32746",629621206,"L"
173638,"32565 B GOLDEN LANTERN 354","DANA POINT","CA",92629,33.48875322,-117.698158777,138,"32565 B GOLDEN LANTERN 354, DANA POINT, CA, 92629","Match","Non_Exact","32565 GOLDEN LANTERN ST, DANA POINT, CA, 92629",640226566,"R"
173639,"32565 GOLDEN LANTERN 201","DANA POINT","CA",92629,33.488763116,-117.698158421,139,"32565 GOLDEN LANTERN 201, DANA POINT, CA, 92629","Match","Non_Exact","32565 GOLDEN LANTERN ST, DANA POINT, CA, 92629",640226566,"R"
173640,"32565 GOLDEN LANTERN ST SUITE B260","DANA POINT","CA",92629,33.488763116,-117.698158421,140,"32565 GOLDEN LANTERN ST SUITE B260, DANA POINT, CA, 92629","Match","Exact","32565 GOLDEN LANTERN ST, DANA POINT, CA, 92629",640226566,"R"
173641,"32565-B GOLDEN LANTERN STREET 185","DANA POINT","CA",92629,33.488763116,-117.698158421,141,"32565-B GOLDEN LANTERN STREET 185, DANA POINT, CA, 92629","Match","Exact","32565 GOLDEN LANTERN ST, DANA POINT, CA, 92629",640226566,"R"
173642,"32565-B GOLDENA LANTERN ST 118","DANA POINT","CA",92629,33.488763116,-117.698158421,142,"32565-B GOLDENA LANTERN ST 118, DANA POINT, CA, 92629","Match","Non_Exact","32565 GOLDEN LANTERN ST, DANA POINT, CA, 92629",640226566,"R"
173643,"32565B GOLDEN LANTERN SUITE 261","DANA POINT","CA",92629,33.48875322,-117.698158777,143,"32565B GOLDEN LANTERN SUITE 261, DANA POINT, CA, 92629","Match","Non_Exact","32565 GOLDEN LANTERN ST, DANA POINT, CA, 92629",640226566,"R"
173644,"3257 7TH ST","SARASOTA","FL",34237,27.341810937,-82.504000398,144,"3257 7TH ST, SARASOTA, FL, 34237","Match","Exact","3257 7TH ST, SARASOTA, FL, 34237",16413894,"L"
173645,"3257 BERT KOUNS APARTMENT 20105","SHREVEPORT","LA",71118,NA,NA,145,"3257 BERT KOUNS APARTMENT 20105, SHREVEPORT, LA, 71118","No_Match",NA,NA,NA,NA
173646,"3257 BERT KOUNS INDUSTRIAL APT15205","SHREVEPORT","LA",71118,32.402116474,-93.827466762,146,"3257 BERT KOUNS INDUSTRIAL APT15205, SHREVEPORT, LA, 71118","Match","Non_Exact","3257 BERT KOUNS INDUSTRIAL LOOP, SHREVEPORT, LA, 71118",57487771,"L"
173647,"3257 CARRIAGE DR","PALM HARBOR","FL",34684,28.0988324150001,-82.738222927,147,"3257 CARRIAGE DR, PALM HARBOR, FL, 34684","Match","Exact","3257 CARRIAGE DR, PALM HARBOR, FL, 34684",124679601,"R"
173648,"3257 CREEK TRACE E","POWDER SPRINGS","GA",30127,33.8727501070001,-84.718599448,148,"3257 CREEK TRACE E, POWDER SPRINGS, GA, 30127","Match","Exact","3257 CREEK TRCE E, POWDER SPGS, GA, 30127",614186912,"R"
173649,"3257 EAST GERONIMO COURT","GILBERT","AZ",85295,33.2939226460001,-111.719439487,149,"3257 EAST GERONIMO COURT, GILBERT, AZ, 85295","Match","Exact","3257 E GERONIMO CT, GILBERT, AZ, 85295",128852721,"R"
173650,"3257 LOHR RD","ANN ARBOR","MI",48108,42.239930386,-83.7593383189999,150,"3257 LOHR RD, ANN ARBOR, MI, 48108","Match","Exact","3257 LOHR RD, ANN ARBOR, MI, 48108",648312816,"L"
173651,"3257 S HUNTER OAK WAY","WEST VALLEY CITY","UT",84128,40.701001649,-112.057811918,151,"3257 S HUNTER OAK WAY, WEST VALLEY CITY, UT, 84128","Match","Exact","3257 HUNTER OAK WAY, WEST VALLEY CITY, UT, 84128",176156873,"R"
173652,"3258 55TH STREET 2FL","WOODSIDE","NY",11377,NA,NA,152,"3258 55TH STREET 2FL, WOODSIDE, NY, 11377","No_Match",NA,NA,NA,NA
173653,"3258 BROAD STREET","DEXTER","MI",48130,42.338853666,-83.8874849219999,153,"3258 BROAD STREET, DEXTER, MI, 48130","Match","Exact","3258 BROAD ST, DEXTER, MI, 48130",26010569,"R"
173654,"3258 GAYLORD AVENUE","PITTSBURGH","PA",15216,40.388591068,-80.040028552,154,"3258 GAYLORD AVENUE, PITTSBURGH, PA, 15216","Match","Exact","3258 GAYLORD AVE, PITTSBURGH, PA, 15216",51632270,"R"
173655,"3258 LANIER DR","BATON ROUGE","LA",70814,30.480048583,-91.109116775,155,"3258 LANIER DR, BATON ROUGE, LA, 70814","Match","Exact","3258 LANIER DR, BATON ROUGE, LA, 70814",637547044,"R"
173656,"3258 N CHAMBERLAIN BLVD","NORTH PORT","FL",34286,27.0848044210001,-82.165946326,156,"3258 N CHAMBERLAIN BLVD, NORTH PORT, FL, 34286","Match","Exact","3258 N CHAMBERLAIN BLVD, NORTH PORT, FL, 34286",16343322,"R"
173657,"3258 RIVER LANDING DR","ADDIS","LA",70710,30.372854325,-91.249241341,157,"3258 RIVER LANDING DR, ADDIS, LA, 70710","Match","Exact","3258 RIVER LANDING DR, ADDIS, LA, 70710",92297923,"R"
173658,"3258 S PINE ISLAND RD","BEAUMONT","TX",77713,30.0456158150001,-94.256108662,158,"3258 S PINE ISLAND RD, BEAUMONT, TX, 77713","Match","Exact","3258 S PINE ISLAND RD, BEAUMONT, TX, 77713",73897069,"R"
173659,"3258 SOUTHEAST RIVER VISTA DRIVE","PORT SAINT LUCIE","FL",34952,27.248004168,-80.3186259349999,159,"3258 SOUTHEAST RIVER VISTA DRIVE, PORT SAINT LUCIE, FL, 34952","Match","Exact","3258 SE RIVER VISTA DR, PORT ST LUCIE, FL, 34952",640919251,"L"
173660,"32580 GRANDRIVER AVE - 14","FARMINGTON HILLS","MI",48336,42.4618178470001,-83.369187569,160,"32580 GRANDRIVER AVE - 14, FARMINGTON HILLS, MI, 48336","Match","Non_Exact","32580 GRAND RIVER AVE, FARMINGTON HILLS, MI, 48336",69725405,"R"
173661,"32581 MEADOW MOUNTAIN ROAD","EVERGREEN","CO",80439,39.6914180000001,-105.370839659,161,"32581 MEADOW MOUNTAIN ROAD, EVERGREEN, CO, 80439","Match","Exact","32581 MEADOW MOUNTAIN RD, EVERGREEN, CO, 80439",177274788,"R"
173662,"32583 SNOWSHOE RD","EVERGREEN","CA",80439,NA,NA,162,"32583 SNOWSHOE RD, EVERGREEN, CA, 80439","No_Match",NA,NA,NA,NA
173663,"32584 GALATINA STREET","TEMECULA","CA",92592,33.490819881,-117.090764697,163,"32584 GALATINA STREET, TEMECULA, CA, 92592","Match","Exact","32584 GALATINA ST, TEMECULA, CA, 92592",194871247,"L"
173664,"3259 HOLDREGE ST  ROOM 7","LINCOLN","NE",68503,40.8280147770001,-96.673779826,164,"3259 HOLDREGE ST  ROOM 7, LINCOLN, NE, 68503","Match","Exact","3259 HOLDREGE ST, LINCOLN, NE, 68503",28254094,"R"
173665,"3259 HYATT COURT","SAINT PETERS","MO",63303,38.748691588,-90.5663924949999,165,"3259 HYATT COURT, SAINT PETERS, MO, 63303","Match","Exact","3259 HYATT CT, SAINT PETERS, MO, 63303",100054431,"R"
173666,"3259 KOAPAKA ST STE B","HONOLULU","HI",96819,21.335734486,-157.913349136,166,"3259 KOAPAKA ST STE B, HONOLULU, HI, 96819","Match","Exact","3259 KOAPAKA ST, HONOLULU, HI, 96819",616636367,"L"
173667,"3259 LAPP LANE","NAPERVILLE","IL",60564,41.7048020880001,-88.218317783,167,"3259 LAPP LANE, NAPERVILLE, IL, 60564","Match","Exact","3259 LAPP LN, NAPERVILLE, IL, 60564",111618614,"L"
173668,"3259 SAINT ANNE DRIVE","DUBUQUE","IA",52001,42.5026034580001,-90.719666594,168,"3259 SAINT ANNE DRIVE, DUBUQUE, IA, 52001","Match","Exact","3259 ST ANNE DR, DUBUQUE, IA, 52001",16907051,"R"
173669,"3259 TRAIL POINT","DOUGLASVILLE","GA",30135,33.6854383530001,-84.689160237,169,"3259 TRAIL POINT, DOUGLASVILLE, GA, 30135","Match","Exact","3259 TRAIL PT, DOUGLASVILLE, GA, 30135",619831597,"L"
173670,"3259 WELMINGAM  DRIVE SW","ATLANTA","GA",30331,NA,NA,170,"3259 WELMINGAM  DRIVE SW, ATLANTA, GA, 30331","No_Match",NA,NA,NA,NA
173671,"32593 RIVERSIDE DR","LAKE ELSINORE","CA",92530,33.6706758290001,-117.379023022,171,"32593 RIVERSIDE DR, LAKE ELSINORE, CA, 92530","Match","Exact","32593 RIVERSIDE DR, LAKE ELSINORE, CA, 92530",627908162,"L"
173672,"32597 C C RD","SLIDELL","LA",70460,30.28100506,-89.86172549,172,"32597 C C RD, SLIDELL, LA, 70460","Match","Exact","32597 C C RD, SLIDELL, LA, 70460",632477783,"R"
173673,"32598 SEWARD HWY","MOOSE PASS","AK",99631,60.454401391,-149.36996081,173,"32598 SEWARD HWY, MOOSE PASS, AK, 99631","Match","Exact","32598 SEWARD HWY, MOOSE PASS, AK, 99631",635215285,"L"
173674,"326 13TH STREET   UNIT 5","HUNTINGTON BEACH","CA",92648,33.6643942910001,-118.007189885,174,"326 13TH STREET   UNIT 5, HUNTINGTON BEACH, CA, 92648","Match","Exact","326 13TH ST, HUNTINGTON BEACH, CA, 92648",144019572,"R"
173675,"326 15TH ST SE APT B","WASHINGTON","DC",20003,38.884975669,-76.983644184,175,"326 15TH ST SE APT B, WASHINGTON, DC, 20003","Match","Exact","326 15TH ST SE, WASHINGTON, DC, 20003",76230932,"L"
173676,"326 15TH STREET","OAKLAND","CA",94612,37.8040703990001,-122.267467327,176,"326 15TH STREET, OAKLAND, CA, 94612","Match","Exact","326 15TH ST, OAKLAND, CA, 94612",124997172,"R"
173677,"326 2ND AVENUE","DECATUR","GA",30030,33.755966931,-84.310454119,177,"326 2ND AVENUE, DECATUR, GA, 30030","Match","Non_Exact","326 2ND AVE NE, DECATUR, GA, 30030",23366785,"L"
173678,"326 3RD STREET","FARMINGTON","MN",55024,44.6400234320001,-93.1451975859999,178,"326 3RD STREET, FARMINGTON, MN, 55024","Match","Exact","326 3RD ST, FARMINGTON, MN, 55024",37912486,"R"
173679,"326 4TH ST SE","WASHINGTON","DC",20003,38.885203344,-77.0005647359999,179,"326 4TH ST SE, WASHINGTON, DC, 20003","Match","Exact","326 4TH ST SE, WASHINGTON, DC, 20003",76230569,"L"
173680,"326 7TH STRETT","LAKEWOOD","NJ",8701,40.096883447,-74.2167608629999,180,"326 7TH STRETT, LAKEWOOD, NJ, 8701","Match","Non_Exact","326 7TH ST, LAKEWOOD, NJ, 08701",203723522,"R"
173681,"326 ANCASTER COURT","NEKOOSA","WI",54457,44.209053829,-89.794933307,181,"326 ANCASTER COURT, NEKOOSA, WI, 54457","Match","Exact","326 ANCASTER CT, NEKOOSA, WI, 54457",73279612,"L"
173682,"326 ANTIOCH ROAD","MGDONOUGH","GA",30252,33.4226029020001,-84.053637449,182,"326 ANTIOCH ROAD, MGDONOUGH, GA, 30252","Match","Non_Exact","326 ANTIOCH RD, MCDONOUGH, GA, 30252",210411087,"L"
173683,"326 ARROYO DR","ENCINITAS","CA",92024,33.0516587820001,-117.292996563,183,"326 ARROYO DR, ENCINITAS, CA, 92024","Match","Exact","326 ARROYO DR, ENCINITAS, CA, 92024",195292708,"R"
173684,"326 ASBURY AVENUE","RIPLEY","TN",38063,35.7216589820001,-89.566096397,184,"326 ASBURY AVENUE, RIPLEY, TN, 38063","Match","Non_Exact","326 ASBURY RD, RIPLEY, TN, 38063",607066463,"R"
173685,"326 BEECH LANE","MIDDLETOWN","DE",19709,39.53122971,-75.668257615,185,"326 BEECH LANE, MIDDLETOWN, DE, 19709","Match","Exact","326 BEECH LN, MIDDLETOWN, DE, 19709",187286003,"R"
173686,"326 BLUE MOUNTAIN RD","ANNISTON","AL",36201,33.6872797510001,-85.834201352,186,"326 BLUE MOUNTAIN RD, ANNISTON, AL, 36201","Match","Exact","326 BLUE MOUNTAIN RD, ANNISTON, AL, 36201",66581320,"L"
173687,"326 CALLAND DR","OROFINO","ID",83544,46.493086572,-116.266296812,187,"326 CALLAND DR, OROFINO, ID, 83544","Match","Exact","326 CALLAND DR, OROFINO, ID, 83544",201691539,"R"
173688,"326 CENTENNIAL BLVD","SPRINGFIELD","OR",97477,44.0563219430001,-123.022152313,188,"326 CENTENNIAL BLVD, SPRINGFIELD, OR, 97477","Match","Exact","326 CENTENNIAL BLVD, SPRINGFIELD, OR, 97477",178172612,"L"
173689,"326 CHANCELLOR AVENUE","NEWARK","NJ",7112,40.7092268000001,-74.221225685,189,"326 CHANCELLOR AVENUE, NEWARK, NJ, 7112","Match","Exact","326 CHANCELLOR AVE, NEWARK, NJ, 07112",63465190,"L"
173690,"326 CLEARBROOK AVE","LANSDOWNE","PA",19050,39.9512651850001,-75.2766234059999,190,"326 CLEARBROOK AVE, LANSDOWNE, PA, 19050","Match","Exact","326 CLEARBROOK AVE, LANSDOWNE, PA, 19050",134877332,"L"
173691,"326 CONCORD AVE","GREENSBURG","PA",15601,40.3061158400001,-79.5483402579999,191,"326 CONCORD AVE, GREENSBURG, PA, 15601","Match","Exact","326 CONCORD AVE, GREENSBURG, PA, 15601",52975345,"R"
173692,"326 COOPER SCHOOL RD","VACAVILLE","CA",95687,38.359868781,-121.94523249,192,"326 COOPER SCHOOL RD, VACAVILLE, CA, 95687","Match","Exact","326 COOPER SCHOOL RD, VACAVILLE, CA, 95687",192582739,"L"
173693,"326 CORNELIA STREET","BROOKLYN","NY",11237,40.6954325940001,-73.910365806,193,"326 CORNELIA STREET, BROOKLYN, NY, 11237","Match","Exact","326 CORNELIA ST, BROOKLYN, NY, 11237",652213016,"R"
173694,"326 CRABAPPLE CHASE DRIVE","ANDERSON","SC",29625,NA,NA,194,"326 CRABAPPLE CHASE DRIVE, ANDERSON, SC, 29625","No_Match",NA,NA,NA,NA
173695,"326 CROSSWHITE LANE","ERWIN","TN",37650,36.123107949,-82.429390278,195,"326 CROSSWHITE LANE, ERWIN, TN, 37650","Match","Non_Exact","326 CROSSWHITE ST, ERWIN, TN, 37650",643557425,"R"
173696,"326 DAYTON AVE","SPRINGFILED","OH",45506,39.9223349420001,-83.8370790719999,196,"326 DAYTON AVE, SPRINGFILED, OH, 45506","Match","Non_Exact","326 DAYTON AVE, SPRINGFIELD, OH, 45506",135023045,"L"
173697,"326 DONAHEY AVE NE","NEW PHILADELPHIA","OH",44663,40.502557734,-81.437998879,197,"326 DONAHEY AVE NE, NEW PHILADELPHIA, OH, 44663","Match","Exact","326 DONAHEY AVE NE, NEW PHILADELPHIA, OH, 44663",44257287,"R"
173698,"326 DUG ROAD","S GLASTONBURY","CT",6073,41.6607437100001,-72.615670778,198,"326 DUG ROAD, S GLASTONBURY, CT, 6073","Match","Exact","326 DUG RD, S GLASTONBURY, CT, 06073",604942978,"L"
173699,"326 E 103RD ST","KANSAS CITY","MO",64114,38.941351748,-94.590533318,199,"326 E 103RD ST, KANSAS CITY, MO, 64114","Match","Exact","326 E 103RD ST, KANSAS CITY, MO, 64114",632606191,"L"
173700,"326 E 36TH STREET","LOS ANGELES","CA",90011,34.0154001880001,-118.269930317,200,"326 E 36TH STREET, LOS ANGELES, CA, 90011","Match","Exact","326 E 36TH ST, LOS ANGELES, CA, 90011",141619680,"R"
173701,"326 E 47TH PLACE","LOS ANGELES","CA",90011,34.00017423,-118.271015388,201,"326 E 47TH PLACE, LOS ANGELES, CA, 90011","Match","Exact","326 E 47TH PL, LOS ANGELES, CA, 90011",141619883,"R"
173702,"326 E MAIN ST","SYKESVILLE","PA",15865,41.051797182,-78.8161535199999,202,"326 E MAIN ST, SYKESVILLE, PA, 15865","Match","Exact","326 E MAIN ST, SYKESVILLE, PA, 15865",66449825,"R"
173703,"326 EAST 35TH STREET APT 62","NYC","NY",10016,40.7449525650001,-73.974227889,203,"326 EAST 35TH STREET APT 62, NYC, NY, 10016","Match","Exact","326 E 35TH ST, NEW YORK, NY, 10016",59654499,"R"
173704,"326 EGLINGTON WAY","CIBOLO","TX",78108,29.578944478,-98.243332541,204,"326 EGLINGTON WAY, CIBOLO, TX, 78108","Match","Exact","326 EGLINGTON WAY, CIBOLO, TX, 78108",627732484,"L"
173705,"326 ERIN DRIVE","NILES","MI",49120,41.830901614,-86.28732595,205,"326 ERIN DRIVE, NILES, MI, 49120","Match","Exact","326 ERIN DR, NILES, MI, 49120",119985871,"R"
173706,"326 FERN STREET SUITE 613","WEST PALM BEACH","FL",33401,26.7103237910001,-80.052470668,206,"326 FERN STREET SUITE 613, WEST PALM BEACH, FL, 33401","Match","Exact","326 FERN ST, WEST PALM BEACH, FL, 33401",115278677,"L"
173707,"326 FIRESTONE RD","GREENSBURG","PA",15601,40.2518269280001,-79.487066826,207,"326 FIRESTONE RD, GREENSBURG, PA, 15601","Match","Exact","326 FIRESTONE RD, GREENSBURG, PA, 15601",52947163,"L"
173708,"326 FM 286","HILLSBORO","TX",76645,32.016692402,-97.079290101,208,"326 FM 286, HILLSBORO, TX, 76645","Match","Exact","326 FM 286, HILLSBORO, TX, 76645",634086716,"L"
173709,"326 FOREST BEND DRIVE","MT JULIET","TN",37122,36.165224661,-86.493420556,209,"326 FOREST BEND DRIVE, MT JULIET, TN, 37122","Match","Exact","326 FOREST BEND DR, MOUNT JULIET, TN, 37122",628004503,"R"
173710,"326 GIFFORD PLACE","TEANECK","NJ",7666,40.871932583,-74.014253893,210,"326 GIFFORD PLACE, TEANECK, NJ, 7666","Match","Exact","326 GIFFORD PL, TEANECK, NJ, 07666",64397761,"L"
173711,"326 GREENLEAF DRIVE","BIRMINGHAM","AL",35214,33.5854042290001,-86.907351558,211,"326 GREENLEAF DRIVE, BIRMINGHAM, AL, 35214","Match","Non_Exact","326 W GREENLEAF DR, BIRMINGHAM, AL, 35214",81644607,"L"
173712,"326 HABERSHAM ROAD","MARTINEZ","GA",30907,33.5267337270001,-82.058217642,212,"326 HABERSHAM ROAD, MARTINEZ, GA, 30907","Match","Exact","326 HABERSHAM RD, MARTINEZ, GA, 30907",636344815,"R"
173713,"326 HARRIS ST    P O  BOX 916","ITALY","TX",76651,32.177038387,-96.8894374,213,"326 HARRIS ST    P O  BOX 916, ITALY, TX, 76651","Match","Exact","326 HARRIS ST, ITALY, TX, 76651",103444708,"R"
173714,"326 HIGHLAND AVENUE PO BOX 123","KUTZTOWN","PA",19530,40.524845396,-75.774143238,214,"326 HIGHLAND AVENUE PO BOX 123, KUTZTOWN, PA, 19530","Match","Exact","326 HIGHLAND AVE, KUTZTOWN, PA, 19530",80451310,"R"
173715,"326 HUDSON AVENUE","ALBANY","NY",12210,42.6531870760001,-73.765195663,215,"326 HUDSON AVENUE, ALBANY, NY, 12210","Match","Exact","326 HUDSON AVE, ALBANY, NY, 12210",18310181,"L"
173716,"326 I ST SUITE 147","EUREKA","CA",95501,40.8035989620001,-124.162973781,216,"326 I ST SUITE 147, EUREKA, CA, 95501","Match","Exact","326 I ST, EUREKA, CA, 95501",113043232,"L"
173717,"326 I STREET SUITE 148","EUREKA","CA",95501,40.8035989620001,-124.162973781,217,"326 I STREET SUITE 148, EUREKA, CA, 95501","Match","Exact","326 I ST, EUREKA, CA, 95501",113043232,"L"
173718,"326 JACKRABBIT DR","EL CENTRO","CA",92243,32.761554634,-115.548576735,218,"326 JACKRABBIT DR, EL CENTRO, CA, 92243","Match","Exact","326 JACKRABBIT DR, EL CENTRO, CA, 92243",611777442,"L"
173719,"326 KAHAKO ST","KAILUA","HI",96734,21.363151696,-157.733095633,219,"326 KAHAKO ST, KAILUA, HI, 96734","Match","Exact","326 KAHAKO ST, KAILUA, HI, 96734",203259207,"R"
173720,"326 KING AVE  APT 310","WILMINGTON","CA",90744,33.7724508310001,-118.274903999,220,"326 KING AVE  APT 310, WILMINGTON, CA, 90744","Match","Exact","326 KING AVE, WILMINGTON, CA, 90744",627904008,"R"
173721,"326 LAKEVIEW DRIVE","ALEXANDER CITY","AL",35010,32.7865647150001,-85.984164369,221,"326 LAKEVIEW DRIVE, ALEXANDER CITY, AL, 35010","Match","Exact","326 LAKEVIEW DR, ALEX CITY, AL, 35010",647805589,"L"
173722,"326 LOCUST STREET","WALTERBORO","SC",29488,NA,NA,222,"326 LOCUST STREET, WALTERBORO, SC, 29488","No_Match",NA,NA,NA,NA
173723,"326 LONG CANE ROAD","LAGRANGE","GA",30240,32.9603151170001,-85.1248602589999,223,"326 LONG CANE ROAD, LAGRANGE, GA, 30240","Match","Exact","326 LONG CANE RD, LAGRANGE, GA, 30240",1763789,"R"
173724,"326 MAIN ST","HLAF MOON BAY","CA",94019,37.46544383,-122.428960249,224,"326 MAIN ST, HLAF MOON BAY, CA, 94019","Match","Non_Exact","326 MAIN ST, HALF MOON BAY, CA, 94019",192382696,"R"
173725,"326 MAIN STREET","MOVILLE","IA",51039,42.488780595,-96.071946552,225,"326 MAIN STREET, MOVILLE, IA, 51039","Match","Exact","326 MAIN ST, MOVILLE, IA, 51039",93416800,"L"
173726,"326 MAPLE TERRACE","PITTSBURGH","PA",15211,40.43023958,-80.0099282469999,226,"326 MAPLE TERRACE, PITTSBURGH, PA, 15211","Match","Exact","326 MAPLE TER, PITTSBURGH, PA, 15211",51633861,"R"
173727,"326 MARKETVIEW","IRVINE","CA",92602,33.728001018,-117.780053551,227,"326 MARKETVIEW, IRVINE, CA, 92602","Match","Exact","326 MARKETVIEW, IRVINE, CA, 92602",627014238,"L"
173728,"326 MAYNARD AVE SW","WALKER","MI",49534,42.9599407760001,-85.746567354,228,"326 MAYNARD AVE SW, WALKER, MI, 49534","Match","Exact","326 MAYNARD AVE SW, WALKER, MI, 49534",12453088,"L"
173729,"326 MCCLURES MILL ROAD","GREENVILLE","VA",24440,38.023428525,-79.166212951,229,"326 MCCLURES MILL ROAD, GREENVILLE, VA, 24440","Match","Exact","326 MCCLURES MILL RD, GREENVILLE, VA, 24440",98839489,"R"
173730,"326 MERCER STREET","ELIZABETHTOWN","KY",42701,37.7115362970001,-85.882115023,230,"326 MERCER STREET, ELIZABETHTOWN, KY, 42701","Match","Exact","326 MERCER ST, ELIZABETHTOWN, KY, 42701",34620307,"R"
173731,"326 MIDLAND COURT","WEST NEW YORK","NJ",7093,40.786405517,-74.0021361249999,231,"326 MIDLAND COURT, WEST NEW YORK, NJ, 7093","Match","Exact","326 MIDLAND CT, WEST NEW YORK, NJ, 07093",624920563,"R"
173732,"326 MILL HOUSE DR","LINCOLN UNIVERSITY","PA",19352,39.769203695,-75.8550236689999,232,"326 MILL HOUSE DR, LINCOLN UNIVERSITY, PA, 19352","Match","Exact","326 MILL HOUSE DR, LINCOLN UNIV, PA, 19352",645850734,"R"
173733,"326 N ALMONT DRIVE","BEVERLY HILLS","NE",90211,NA,NA,233,"326 N ALMONT DRIVE, BEVERLY HILLS, NE, 90211","No_Match",NA,NA,NA,NA
173734,"326 N ATHENIAN","WICHITA","KS",67203,37.6881326340001,-97.366723989,234,"326 N ATHENIAN, WICHITA, KS, 67203","Match","Exact","326 N ATHENIAN, WICHITA, KS, 67203",115633891,"R"
173735,"326 N ELM AVENUE","NEWTOWN","PA",18940,40.2346742030001,-74.928305059,235,"326 N ELM AVENUE, NEWTOWN, PA, 18940","Match","Exact","326 N ELM AVE, NEWTOWN, PA, 18940",134710969,"L"
173736,"326 N HAMPTON RD","WILMINGTON","NC",28409,34.174870889,-77.873302517,236,"326 N HAMPTON RD, WILMINGTON, NC, 28409","Match","Exact","326 N HAMPTON RD, WILMINGTON, NC, 28409",636546115,"L"
173737,"326 N SANDBRANCH ROAD APT 9A","MOUNT HOPE","WV",25880,NA,NA,237,"326 N SANDBRANCH ROAD APT 9A, MOUNT HOPE, WV, 25880","Tie",NA,NA,NA,NA
173738,"326 N WESTERN AVE SUITE 206","LOS ANGELES","CA",90004,34.077314877,-118.309143796,238,"326 N WESTERN AVE SUITE 206, LOS ANGELES, CA, 90004","Match","Non_Exact","326 N WESTERN AVE, LOS ANGELES, CA, 90004",141603336,"R"
173739,"326 NAVAJO LOOP","HUNTINGTON","CT",6484,41.2983709440001,-73.13016878,239,"326 NAVAJO LOOP, HUNTINGTON, CT, 6484","Match","Exact","326 NAVAJO LOOP, HUNTINGTON, CT, 06484",3281289,"R"
173740,"326 NELSON ST SW APT 306","ATLANTA","GA",30313,33.751629436,-84.398251284,240,"326 NELSON ST SW APT 306, ATLANTA, GA, 30313","Match","Exact","326 NELSON ST SW, ATLANTA, GA, 30313",618353872,"L"
173741,"326 NELSON STREET SW  UNIT 302","ATLANTA","GA",30313,33.751629436,-84.398251284,241,"326 NELSON STREET SW  UNIT 302, ATLANTA, GA, 30313","Match","Exact","326 NELSON ST SW, ATLANTA, GA, 30313",618353872,"L"
173742,"326 NORA ST","STOUGHTON","WI",53589,42.9164278910001,-89.233078597,242,"326 NORA ST, STOUGHTON, WI, 53589","Match","Exact","326 NORA ST, STOUGHTON, WI, 53589",49494386,"L"
173743,"326 NORTH UNION","SHAWNEE","OK",74801,35.3304204390001,-96.920890958,243,"326 NORTH UNION, SHAWNEE, OK, 74801","Match","Non_Exact","326 N UNION AVE, SHAWNEE, OK, 74801",100579286,"L"
173744,"326 NORTHRIDGE DRIVE","GRAND JUNCTION","CO",81506,NA,NA,244,"326 NORTHRIDGE DRIVE, GRAND JUNCTION, CO, 81506","No_Match",NA,NA,NA,NA
173745,"326 NW STRATFORD LANE","ANKENY","IA",50023,41.73461687,-93.616499597,245,"326 NW STRATFORD LANE, ANKENY, IA, 50023","Match","Exact","326 NW STRATFORD LN, ANKENY, IA, 50023",65778301,"L"
173746,"326 ORCHARD TRACE LANE APT 6","CHARLOTTE","NC",28213,35.282662116,-80.768761215,246,"326 ORCHARD TRACE LANE APT 6, CHARLOTTE, NC, 28213","Match","Exact","326 ORCHARD TRACE LN, CHARLOTTE, NC, 28213",648378895,"L"
173747,"326 ORENDORFF WAY NE","COLUMBIA HEIGHTS","MN",55421,45.0381333350001,-93.261964462,247,"326 ORENDORFF WAY NE, COLUMBIA HEIGHTS, MN, 55421","Match","Non_Exact","326 ORENDORF WAY NE, COLUMBIA HEIGHTS, MN, 55421",617527261,"L"
173748,"326 PARKER AVENUE","CLIFTON","NJ",7011,40.878295725,-74.124674371,248,"326 PARKER AVENUE, CLIFTON, NJ, 7011","Match","Exact","326 PARKER AVE, CLIFTON, NJ, 07011",65267196,"R"
173749,"326 POPHAM LN","CORVALLIS","MT",59828,46.345424671,-114.097996214,249,"326 POPHAM LN, CORVALLIS, MT, 59828","Match","Exact","326 POPHAM LN, CORVALLIS, MT, 59828",153528053,"L"
173750,"326 PROSPECT AVENUE 11H","HACKENSACK","NJ",7601,40.8936772320001,-74.053036381,250,"326 PROSPECT AVENUE 11H, HACKENSACK, NJ, 7601","Match","Exact","326 PROSPECT AVE, HACKENSACK, NJ, 07601",650115103,"R"
173751,"326 REID AVENUE","PORT SAINT JOE","FL",32456,29.813831841,-85.3032676669999,251,"326 REID AVENUE, PORT SAINT JOE, FL, 32456","Match","Exact","326 REID AVE, PORT SAINT JOE, FL, 32456",7141244,"L"
173752,"326 RICE MILL DR","MYRTLE BEACH","SC",29588,33.682051078,-78.984750501,252,"326 RICE MILL DR, MYRTLE BEACH, SC, 29588","Match","Exact","326 RICE MILL DR, MYRTLE BEACH, SC, 29588",29068247,"R"
173753,"326 RIDER RIDGE ROAD","SANTA CRUZ","CA",95065,37.0707071620001,-121.965107257,253,"326 RIDER RIDGE ROAD, SANTA CRUZ, CA, 95065","Match","Exact","326 RIDER RIDGE RD, SANTA CRUZ, CA, 95065",606050593,"R"
173754,"326 RIDGE LANE","AUTRYVILLE","NC",28318,35.1013657020001,-78.636938151,254,"326 RIDGE LANE, AUTRYVILLE, NC, 28318","Match","Exact","326 RIDGE LN, AUTRYVILLE, NC, 28318",14264230,"L"
173755,"326 RIO DRIVE","CHESAPEAKEKE","VA",23322,36.7191417340001,-76.2892820559999,255,"326 RIO DRIVE, CHESAPEAKEKE, VA, 23322","Match","Non_Exact","326 RIO DR, CHESAPEAKE, VA, 23322",121778776,"L"
173756,"326 ROCK ISLAND ST","DALLAS","TX",75207,32.7726282630001,-96.8138076179999,256,"326 ROCK ISLAND ST, DALLAS, TX, 75207","Match","Exact","326 ROCK ISLAND ST, DALLAS, TX, 75207",102909494,"L"
173757,"326 ROCKFERN AVE","ELYRIA","OH",44035,41.3761526530001,-82.130508161,257,"326 ROCKFERN AVE, ELYRIA, OH, 44035","Match","Exact","326 ROCKFERN AVE, ELYRIA, OH, 44035",55407286,"L"
173758,"326 S DILLARD ST","WINTER GARDEN","FL",34787,28.5611161410001,-81.583542205,258,"326 S DILLARD ST, WINTER GARDEN, FL, 34787","Match","Exact","326 S DILLARD ST, WINTER GARDEN, FL, 34787",94264905,"R"
173759,"326 S HEWITT ST UNIT 1","LOS ANGELES","CA",90018,NA,NA,259,"326 S HEWITT ST UNIT 1, LOS ANGELES, CA, 90018","No_Match",NA,NA,NA,NA
173760,"326 SAINT IDA CIR","LAFAYETTE","CO",80026,39.9961641190001,-105.096627633,260,"326 SAINT IDA CIR, LAFAYETTE, CO, 80026","Match","Exact","326 SAINT IDA CIR, LAFAYETTE, CO, 80026",653317464,"L"
173761,"326 SEDONA FALLS DR","SUNNYVALE","TX",75182,32.797063005,-96.5717415029999,261,"326 SEDONA FALLS DR, SUNNYVALE, TX, 75182","Match","Exact","326 SEDONA FALLS DR, SUNNYVALE, TX, 75182",638656133,"R"
173762,"326 SMITHWOLD RD","SOMERSET","NJ",8873,40.5130921470001,-74.52047136,262,"326 SMITHWOLD RD, SOMERSET, NJ, 8873","Match","Exact","326 SMITHWOLD RD, SOMERSET, NJ, 08873",644371159,"L"
173763,"326 SOUTHMOOR DRIVE","NATCHEZ","MS",39120,31.591829697,-91.3561201209999,263,"326 SOUTHMOOR DRIVE, NATCHEZ, MS, 39120","Match","Exact","326 SOUTHMOOR DR, NATCHEZ, MS, 39120",79847121,"R"
173764,"326 SPRING STREET","JEFFERSONVILLE","IN",47130,38.272213504,-85.740667708,264,"326 SPRING STREET, JEFFERSONVILLE, IN, 47130","Match","Exact","326 SPRING ST, JEFFERSONVILLE, IN, 47130",64881857,"R"
173765,"326 TABBS LANE","NEWPORT NEWS","VA",23602,37.122193543,-76.534473662,265,"326 TABBS LANE, NEWPORT NEWS, VA, 23602","Match","Exact","326 TABBS LN, NEWPORT NEWS, VA, 23602",103813927,"L"
173766,"326 TAYLOR ROAD","KNOXVILLE","TN",37920,35.9357679830001,-83.9000845099999,266,"326 TAYLOR ROAD, KNOXVILLE, TN, 37920","Match","Exact","326 TAYLOR RD, KNOXVILLE, TN, 37920",635414139,"R"
173767,"326 TUSCARORA TRL","HARTWELL","GA",30643,34.4296952650001,-82.9149735299999,267,"326 TUSCARORA TRL, HARTWELL, GA, 30643","Match","Exact","326 TUSCARORA TRL, HARTWELL, GA, 30643",22638481,"L"
173768,"326 TY LANE","TRENTON","GA",30752,34.953163755,-85.4663828,268,"326 TY LANE, TRENTON, GA, 30752","Match","Exact","326 TY LN, TRENTON, GA, 30752",79403373,"R"
173769,"326 VINCENT STREET","PHILOMATH","OR",97370,44.5401557490001,-123.343475785,269,"326 VINCENT STREET, PHILOMATH, OR, 97370","Match","Exact","326 VINCENT ST, PHILOMATH, OR, 97370",155865623,"R"
173770,"326 W CHURCH ST","SOCORRO","NM",87801,34.055760954,-106.895153729,270,"326 W CHURCH ST, SOCORRO, NM, 87801","Match","Exact","326 W CHURCH ST, SOCORRO, NM, 87801",193200351,"R"
173771,"326 W NEW HAVEN AVENUE","MELBOURNE","FL",32901,28.0788023540001,-80.62740433,271,"326 W NEW HAVEN AVENUE, MELBOURNE, FL, 32901","Match","Exact","326 W NEW HAVEN AVE, MELBOURNE, FL, 32901",93904772,"R"
173772,"326 W PARADISE ST","ORRVILLE","OH",44667,40.8368349610001,-81.767482733,272,"326 W PARADISE ST, ORRVILLE, OH, 44667","Match","Exact","326 W PARADISE ST, ORRVILLE, OH, 44667",58724484,"L"
173773,"326 WALSH COURT","BROOKLYN","NY",11230,40.628097805,-73.9739449469999,273,"326 WALSH COURT, BROOKLYN, NY, 11230","Match","Exact","326 WALSH CT, BROOKLYN, NY, 11230",59080839,"R"
173774,"326 WEST POINT DR","CLAREMONT","CA",91711,34.0897439330001,-117.709828256,274,"326 WEST POINT DR, CLAREMONT, CA, 91711","Match","Exact","326 W POINT DR, CLAREMONT, CA, 91711",141735713,"R"
173775,"326 WEST SENECA ST","ITHACA","NY",14850,42.440299537,-76.502430686,275,"326 WEST SENECA ST, ITHACA, NY, 14850","Match","Exact","326 W SENECA ST, ITHACA, NY, 14850",18855388,"L"
173776,"326 WILD PLUM ST","SAN MARCOS","TX",78666,29.823601356,-97.939806027,276,"326 WILD PLUM ST, SAN MARCOS, TX, 78666","Match","Non_Exact","326 WILD PLUM, SAN MARCOS, TX, 78666",627912875,"R"
173777,"326 WOODBINE AVE","STATEN ISLAND","NY",10314,40.6115393360001,-74.149551474,277,"326 WOODBINE AVE, STATEN ISLAND, NY, 10314","Match","Exact","326 WOODBINE AVE, STATEN ISLAND, NY, 10314",59871526,"R"
173778,"326 WOODLAWN RD","BALTIMORE","MD",21210,39.348389942,-76.6341594479999,278,"326 WOODLAWN RD, BALTIMORE, MD, 21210","Match","Exact","326 WOODLAWN RD, BALTIMORE, MD, 21210",206406964,"L"
173779,"3260  FORDS COLONY DR","ROCKY MOUNT","NC",27804,NA,NA,279,"3260  FORDS COLONY DR, ROCKY MOUNT, NC, 27804","No_Match",NA,NA,NA,NA
173780,"3260 BASS LAKE RD STE C","BROOKLYN CENTER","MN",55428,NA,NA,280,"3260 BASS LAKE RD STE C, BROOKLYN CENTER, MN, 55428","No_Match",NA,NA,NA,NA
173781,"3260 E WASATCH PINES LANE","SANDY","UT",84092,40.5728525600001,-111.801475801,281,"3260 E WASATCH PINES LANE, SANDY, UT, 84092","Match","Exact","3260 WASATCH PINES LN, SANDY, UT, 84092",176116077,"R"
173782,"3260 E WOODMEN RD STE 100","COLORADO SPGS","CO",80920,38.9359311210001,-104.764348418,282,"3260 E WOODMEN RD STE 100, COLORADO SPGS, CO, 80920","Match","Non_Exact","3260 E WOODMEN RD, CO SPGS, CO, 80920",610800735,"L"
173783,"3260 FAIRWAY DRIVE","LA MESA","CA",91941,32.741754842,-117.012435344,283,"3260 FAIRWAY DRIVE, LA MESA, CA, 91941","Match","Exact","3260 FAIRWAY DR, LA MESA, CA, 91941",195360365,"L"
173784,"3260 FOUNTAIN FALLS WAY APT 1012","N LAS VEGAS","NV",89032,36.2181259430001,-115.183958503,284,"3260 FOUNTAIN FALLS WAY APT 1012, N LAS VEGAS, NV, 89032","Match","Exact","3260 FOUNTAIN FALLS WAY, N LAS VEGAS, NV, 89032",201976116,"R"
173785,"3260 HENRY HUDSON PARKWAY APT 4F","BRONX","NY",10463,40.885607351,-73.9130496399999,285,"3260 HENRY HUDSON PARKWAY APT 4F, BRONX, NY, 10463","Match","Non_Exact","3260 HENRY HUDSON PKWY E, BRONX, NY, 10463",638742325,"R"
173786,"3260 KINGSHOUSE COMMONS","ALPHARETTA","GA",30022,34.015214422,-84.2661914129999,286,"3260 KINGSHOUSE COMMONS, ALPHARETTA, GA, 30022","Match","Exact","3260 KINGSHOUSE CMNS, ALPHARETTA, GA, 30022",17376560,"R"
173787,"3260 LIBERTY COURT SE","CONYERS","GA",30094,33.6243289380001,-84.025253686,287,"3260 LIBERTY COURT SE, CONYERS, GA, 30094","Match","Exact","3260 LIBERTY CT SE, CONYERS, GA, 30094",619876641,"R"
173788,"3260 LONG RD","DESOTO","MO",63020,38.0939000860001,-90.488722531,288,"3260 LONG RD, DESOTO, MO, 63020","Match","Non_Exact","3260 LONG RD, DE SOTO, MO, 63020",607890354,"R"
173789,"3260 N 53RD ST","MILWAUKEE","WI",53216,43.0783818680001,-87.9796460909999,289,"3260 N 53RD ST, MILWAUKEE, WI, 53216","Match","Exact","3260 N 53RD ST, MILWAUKEE, WI, 53216",77731807,"R"
173790,"3260 N HAYDEN RD STE 210","SCOTTSDALE","AZ",85251,33.485380101,-111.908915486,290,"3260 N HAYDEN RD STE 210, SCOTTSDALE, AZ, 85251","Match","Non_Exact","3260 N HAYDEN RD, SCOTTSDALE, AZ, 85251",642858627,"L"
173791,"3260 NIAGARA SQUARE","PITTSBURGH","PA",15213,40.4345061940001,-79.959760343,291,"3260 NIAGARA SQUARE, PITTSBURGH, PA, 15213","Match","Non_Exact","3260 NIAGRA SQ, PITTSBURGH, PA, 15213",625079843,"R"
173792,"3260 NW 112TH AVE","CORAL SPRINGS","FL",33065,26.270254585,-80.276951568,292,"3260 NW 112TH AVE, CORAL SPRINGS, FL, 33065","Match","Non_Exact","3260 NW 112TH AVE, CORAL SPRINGS, FL, 33065",114689884,"L"
173793,"3260 NW 23RD AVE SUITE 1100E","POMPANO BEACH","FL",33069,26.270312163,-80.1555053719999,293,"3260 NW 23RD AVE SUITE 1100E, POMPANO BEACH, FL, 33069","Match","Non_Exact","3260 NW 23RD AVE, POMPANO BEACH, FL, 33069",114774884,"R"
173794,"3260 NW IVY LN","CAMAS","WA",98607,45.602871572,-122.420525462,294,"3260 NW IVY LN, CAMAS, WA, 98607","Match","Exact","3260 NW IVY LN, CAMAS, WA, 98607",158331170,"L"
173795,"3260 ORCHARD AVE","EDMOND","OK",73012,35.664099799,-97.575905126,295,"3260 ORCHARD AVE, EDMOND, OK, 73012","Match","Exact","3260 ORCHARD AVE, EDMOND, OK, 73012",627757855,"R"
173796,"3260 PRAIRIE SMOKE RD","BOZEMAN","MT",59715,45.7555307850001,-111.037835085,296,"3260 PRAIRIE SMOKE RD, BOZEMAN, MT, 59715","Match","Exact","3260 PRAIRIE SMOKE RD, BOZEMAN, MT, 59715",163495616,"L"
173797,"3260 REGENCY DR","LAKE ORION","MI",48359,42.7320613640001,-83.298555891,297,"3260 REGENCY DR, LAKE ORION, MI, 48359","Match","Exact","3260 REGENCY DR, LAKE ORION, MI, 48359",69805145,"L"
173798,"3260 STIRLING RD STE B","HOLLYWOOD","FL",33021,26.0476315510001,-80.173846923,298,"3260 STIRLING RD STE B, HOLLYWOOD, FL, 33021","Match","Exact","3260 STIRLING RD, HOLLYWOOD, FL, 33021",641073230,"R"
173799,"3260 SW 25 ST","MIAMI","FL",33133,25.744774998,-80.2472620309999,299,"3260 SW 25 ST, MIAMI, FL, 33133","Match","Exact","3260 SW 25TH ST, MIAMI, FL, 33133",116265810,"L"
173800,"3260 THAMES WAY","MIRAMAR","FL",33025,25.9816799710001,-80.274595034,300,"3260 THAMES WAY, MIRAMAR, FL, 33025","Match","Exact","3260 THAMES WAY, MIRAMAR, FL, 33025",114759779,"R"
173801,"32602 RIVERWOOD DRIVE","MAGNOLIA","TX",77354,30.2131911450001,-95.572869262,301,"32602 RIVERWOOD DRIVE, MAGNOLIA, TX, 77354","Match","Exact","32602 RIVERWOOD DR, MAGNOLIA, TX, 77354",79280013,"R"
173802,"3261 19TH ST NW","ROCHESTER","MN",55901,44.0435934930001,-92.5129318799999,302,"3261 19TH ST NW, ROCHESTER, MN, 55901","Match","Exact","3261 19TH ST NW, ROCHESTER, MN, 55901",640027032,"R"
173803,"3261 ASHWORTH AVE","HIGHLANDS RANCH","CO",80126,39.521037273,-104.948233768,303,"3261 ASHWORTH AVE, HIGHLANDS RANCH, CO, 80126","Match","Exact","3261 ASHWORTH AVE, HIGHLANDS RANCH, CO, 80126",627799617,"R"
173804,"3261 E B AVE","PLAINWELL","MI",49080,42.4053827280001,-85.55058096,304,"3261 E B AVE, PLAINWELL, MI, 49080","Match","Exact","3261 E B AVE, PLAINWELL, MI, 49080",647917886,"L"
173805,"3261 E STATE ROAD 14","COLUMBIA CITY","IN",46725,NA,NA,305,"3261 E STATE ROAD 14, COLUMBIA CITY, IN, 46725","Tie",NA,NA,NA,NA
173806,"3261 EAST MILLER DRIVE","FLAGSTAFF","AZ",86004,35.217622528,-111.599214834,306,"3261 EAST MILLER DRIVE, FLAGSTAFF, AZ, 86004","Match","Exact","3261 E MILLER DR, FLAGSTAFF, AZ, 86004",188863299,"L"
173807,"3261 FRANKLIN RD","MURFREESBORO","TN",37128,35.8446791050001,-86.4550987969999,307,"3261 FRANKLIN RD, MURFREESBORO, TN, 37128","Match","Exact","3261 FRANKLIN RD, MURFREESBORO, TN, 37128",639205456,"R"
173808,"3261 GEORGIA RD","FRANKLIN","NC",28734,NA,NA,308,"3261 GEORGIA RD, FRANKLIN, NC, 28734","No_Match",NA,NA,NA,NA
173809,"3261 HILHAM ROAD APT I2","COOKEVILLE","TN",38506,36.208081995,-85.48508777,309,"3261 HILHAM ROAD APT I2, COOKEVILLE, TN, 38506","Match","Exact","3261 HILHAM RD, COOKEVILLE, TN, 38506",25152329,"R"
173810,"3261 KEADY MILL LOOP","KANNAPOLIS","NC",28081,35.4620698900001,-80.659765796,310,"3261 KEADY MILL LOOP, KANNAPOLIS, NC, 28081","Match","Exact","3261 KEADY MILL LOOP, KANNAPOLIS, NC, 28081",634070998,"R"
173811,"3261 KNOWLAND AVE","OAKLAND","CA",94619,37.7828453330001,-122.194632357,311,"3261 KNOWLAND AVE, OAKLAND, CA, 94619","Match","Exact","3261 KNOWLAND AVE, OAKLAND, CA, 94619",125080712,"L"
173812,"3261 LANCASTER LN","MONTGOMERY","AL",36106,32.3575578860001,-86.257368824,312,"3261 LANCASTER LN, MONTGOMERY, AL, 36106","Match","Exact","3261 LANCASTER LN, MONTGOMERY, AL, 36106",1487809,"L"
173813,"3261 MONTECITO DR","LAS VEGAS","NV",89120,36.0576859650001,-115.103678063,313,"3261 MONTECITO DR, LAS VEGAS, NV, 89120","Match","Exact","3261 MONTECITO DR, LAS VEGAS, NV, 89120",201873342,"R"
173814,"3261 N 92ND STREET","MILWAUKEE","WI",53222,43.0780660820001,-88.027623962,314,"3261 N 92ND STREET, MILWAUKEE, WI, 53222","Match","Exact","3261 N 92ND ST, MILWAUKEE, WI, 53222",77728207,"L"
173815,"3261 NW 40TH DRIVE APT 2","OKEECHOBEE","FL",34972,NA,NA,315,"3261 NW 40TH DRIVE APT 2, OKEECHOBEE, FL, 34972","Tie",NA,NA,NA,NA
173816,"3261 NW 96 WAY","SUNRISE","FL",33351,26.1668982240001,-80.279265155,316,"3261 NW 96 WAY, SUNRISE, FL, 33351","Match","Exact","3261 NW 96TH WAY, SUNRISE, FL, 33351",114702011,"L"
173817,"3261 OLD WASHINGTON RD 2020","WALDORF","MD",20602,38.622131117,-76.910931782,317,"3261 OLD WASHINGTON RD 2020, WALDORF, MD, 20602","Match","Non_Exact","3261 OLD WASHINGTON RD, WALDORF, MD, 20602",647438999,"L"
173818,"3261 OLD WASHINGTON RD SUITE 1011","WALDORF","MD",20602,38.622131117,-76.910931782,318,"3261 OLD WASHINGTON RD SUITE 1011, WALDORF, MD, 20602","Match","Non_Exact","3261 OLD WASHINGTON RD, WALDORF, MD, 20602",647438999,"L"
173819,"3261 OLD WASHINGTON ROAD SUITE 2020","WALDORF","MD",20602,38.622131117,-76.910931782,319,"3261 OLD WASHINGTON ROAD SUITE 2020, WALDORF, MD, 20602","Match","Non_Exact","3261 OLD WASHINGTON RD, WALDORF, MD, 20602",647438999,"L"
173820,"3261 OZARK HWY","ENTERPRISE","AL",36330,31.3636222800001,-85.83002407,320,"3261 OZARK HWY, ENTERPRISE, AL, 36330","Match","Exact","3261 OZARK HWY, ENTERPRISE, AL, 36330",651769885,"L"
173821,"3261 PATRICK F TAYLOR HALL","BATON ROUGE","LA",70803,NA,NA,321,"3261 PATRICK F TAYLOR HALL, BATON ROUGE, LA, 70803","No_Match",NA,NA,NA,NA
173822,"3261 QUEENS GRANT DRIVE","MIDLOTHIAN","VA",23113,NA,NA,322,"3261 QUEENS GRANT DRIVE, MIDLOTHIAN, VA, 23113","No_Match",NA,NA,NA,NA
173823,"3261 ROSS ROAD","PALO ALTO","CA",94303,37.430817475,-122.118974276,323,"3261 ROSS ROAD, PALO ALTO, CA, 94303","Match","Exact","3261 ROSS RD, PALO ALTO, CA, 94303",122951557,"L"
173824,"3261 SHINGLE SPRINGS DR","SHINGLE SPRINGS","CA",95682,38.68543162,-120.914862823,324,"3261 SHINGLE SPRINGS DR, SHINGLE SPRINGS, CA, 95682","Match","Exact","3261 SHINGLE SPRINGS DR, SHINGLE SPRINGS, CA, 95682",133024926,"R"
173825,"3261 SHINGLE SPRINGS DRIVE","SHINGLE SPRINGS","CA",95682,38.68543162,-120.914862823,325,"3261 SHINGLE SPRINGS DRIVE, SHINGLE SPRINGS, CA, 95682","Match","Exact","3261 SHINGLE SPRINGS DR, SHINGLE SPRINGS, CA, 95682",133024926,"R"
173826,"3261 STANTON ROAD SE","WASHINGTON DC","DC",20020,38.847686373,-76.980588272,326,"3261 STANTON ROAD SE, WASHINGTON DC, DC, 20020","Match","Exact","3261 STANTON RD SE, WASHINGTON, DC, 20020",624368224,"R"
173827,"3261 ZUBIN LANE","KATY","TX",77493,29.8211391300001,-95.810193479,327,"3261 ZUBIN LANE, KATY, TX, 77493","Match","Exact","3261 ZUBIN LN, KATY, TX, 77493",96298655,"R"
173828,"32610 STATE HWY 12","TRINIDAD","CO",81082,37.1497323770001,-104.562887557,328,"32610 STATE HWY 12, TRINIDAD, CO, 81082","Match","Exact","32610 STATE HWY 12, TRINIDAD, CO, 81082",112774893,"R"
173829,"32611 THE OLD ROAD","CASTAIC","CA",91384,34.5114953620001,-118.637331307,329,"32611 THE OLD ROAD, CASTAIC, CA, 91384","Match","Exact","32611 THE OLD RD, CASTAIC, CA, 91384",142681206,"L"
173830,"32619 COOPER DR NE","ALBANY","OR",97321,44.729472279,-123.09461672,330,"32619 COOPER DR NE, ALBANY, OR, 97321","Match","Exact","32619 COOPER DR NE, ALBANY, OR, 97321",156071351,"R"
173831,"3262 CAPRIANA CIRCLE","SAN JOSE","CA",95135,37.3081694430001,-121.760638704,331,"3262 CAPRIANA CIRCLE, SAN JOSE, CA, 95135","Match","Exact","3262 CAPRIANA CIR, SAN JOSE, CA, 95135",123160945,"L"
173832,"3262 DRAKE AVE","GROVEPORT","OH",43125,39.8608959200001,-82.921700403,332,"3262 DRAKE AVE, GROVEPORT, OH, 43125","Match","Exact","3262 DRAKE AVE, GROVEPORT, OH, 43125",218640545,"R"
173833,"3262 LORI LANE","NEW PORT RICHEY","FL",34655,28.2073987970001,-82.6616199539999,333,"3262 LORI LANE, NEW PORT RICHEY, FL, 34655","Match","Exact","3262 LORI LN, NEW PORT RICHEY, FL, 34655",86380651,"L"
173834,"3262 MARYSVILLE BLVD","SACRAMENTO","CA",95815,38.6278293020001,-121.432060911,334,"3262 MARYSVILLE BLVD, SACRAMENTO, CA, 95815","Match","Exact","3262 MARYSVILLE BLVD, SACRAMENTO, CA, 95815",133446834,"R"
173835,"3262 POINTE AUX BARQUES","PORT AUSTIN","MI",48467,NA,NA,335,"3262 POINTE AUX BARQUES, PORT AUSTIN, MI, 48467","Tie",NA,NA,NA,NA
173836,"3262 S HUDSON AVE APT 72","TULSA","OK",74135,36.117181558,-95.9134935229999,336,"3262 S HUDSON AVE APT 72, TULSA, OK, 74135","Match","Non_Exact","3262 S HUDSON AVE, TULSA, OK, 74135",166450721,"R"
173837,"3262 W WASHINGTON BLVD","CHICAGO","IL",60624,41.882786692,-87.707443333,337,"3262 W WASHINGTON BLVD, CHICAGO, IL, 60624","Match","Exact","3262 W WASHINGTON BLVD, CHICAGO, IL, 60624",616787020,"R"
173838,"3262 WESTHEIMER RD  124","HOUSTON","TX",77098,29.742139282,-95.424767172,338,"3262 WESTHEIMER RD  124, HOUSTON, TX, 77098","Match","Exact","3262 WESTHEIMER RD, HOUSTON, TX, 77098",652310034,"R"
173839,"3262 WESTHEIMER RD SUITE 219","HOUSTON","TX",77098,29.742139282,-95.424767172,339,"3262 WESTHEIMER RD SUITE 219, HOUSTON, TX, 77098","Match","Exact","3262 WESTHEIMER RD, HOUSTON, TX, 77098",652310034,"R"
173840,"3262 WESTHIMER ROAD STE 341","HOUSTON","TX",77098,29.742139282,-95.424767172,340,"3262 WESTHIMER ROAD STE 341, HOUSTON, TX, 77098","Match","Non_Exact","3262 WESTHEIMER RD, HOUSTON, TX, 77098",652310034,"R"
173841,"32620 JOYA ST","LOS FRESNOS","TX",78566,26.0694550170001,-97.4990653199999,341,"32620 JOYA ST, LOS FRESNOS, TX, 78566","Match","Exact","32620 JOYA ST, LOS FRESNOS, TX, 78566",89974077,"R"
173842,"32624 BLOSSOM LANE","LEESBURG","FL",34788,28.824648831,-81.789156699,342,"32624 BLOSSOM LANE, LEESBURG, FL, 34788","Match","Exact","32624 BLOSSOM LN, LEESBURG, FL, 34788",635553047,"R"
173843,"32624 WOLFS TRAIL","SORRENTO","FL",32776,28.8240123080001,-81.5779291329999,343,"32624 WOLFS TRAIL, SORRENTO, FL, 32776","Match","Exact","32624 WOLFS TRL, SORRENTO, FL, 32776",94151277,"R"
173844,"32627 NE 109TH ST","CARNATION","WA",98014,47.6948085540001,-121.902060117,344,"32627 NE 109TH ST, CARNATION, WA, 98014","Match","Exact","32627 NE 109TH ST, CARNATION, WA, 98014",186680296,"L"
173845,"3263 AUTUMN ASH DRIVE","ZIONSVILLE","IN",46077,39.9980415300001,-86.257796229,345,"3263 AUTUMN ASH DRIVE, ZIONSVILLE, IN, 46077","Match","Exact","3263 AUTUMN ASH DR, ZIONSVILLE, IN, 46077",610979070,"R"
173846,"3263 BIDLINGTON DR","COLUMBUS","OH",43224,40.0357395400001,-82.9455020839999,346,"3263 BIDLINGTON DR, COLUMBUS, OH, 43224","Match","Exact","3263 BIDLINGTON DR, COLUMBUS, OH, 43224",642841935,"R"
173847,"3263 BIDLINGTON DRIVE","COLUMBUS","OH",43224,40.0357395400001,-82.9455020839999,347,"3263 BIDLINGTON DRIVE, COLUMBUS, OH, 43224","Match","Exact","3263 BIDLINGTON DR, COLUMBUS, OH, 43224",642841935,"R"
173848,"3263 GREENHILL COURT","VILLA RICA","GA",30180,33.650127561,-84.935909946,348,"3263 GREENHILL COURT, VILLA RICA, GA, 30180","Match","Exact","3263 GREENHILL CT, VILLA RICA, GA, 30180",17116451,"L"
173849,"3263 HWY 70","BEAUFORT","NC",28516,34.7814041340001,-76.626050645,349,"3263 HWY 70, BEAUFORT, NC, 28516","Match","Exact","3263 HWY 70, BEAUFORT, NC, 28516",640638734,"L"
173850,"3263 OAK ORCHARD ROAD","ALBION","NY",14411,43.2584340270001,-78.193276462,350,"3263 OAK ORCHARD ROAD, ALBION, NY, 14411","Match","Exact","3263 OAK ORCHARD RD, ALBION, NY, 14411",618209100,"R"
173851,"3263 SHAWN WAY","HAYWARD","CA",94541,37.6837875150001,-122.047735918,351,"3263 SHAWN WAY, HAYWARD, CA, 94541","Match","Exact","3263 SHAWN WAY, HAYWARD, CA, 94541",125016236,"L"
173852,"3263 SPRING MESA CT","SNELLVELLE","GA",30039,33.825734362,-84.027351589,352,"3263 SPRING MESA CT, SNELLVELLE, GA, 30039","Match","Non_Exact","3263 SPRING MESA CT SW, SNELLVILLE, GA, 30039",623805715,"L"
173853,"3263 US HIGHWAY 70 EAST","BEAUFORT","NC",28516,34.7814041340001,-76.626050645,353,"3263 US HIGHWAY 70 EAST, BEAUFORT, NC, 28516","Match","Non_Exact","3263 HWY 70, BEAUFORT, NC, 28516",640638734,"L"
173854,"3263 VERDANT DRIVE SW  -  1318","ATLANTA","GA",30331,33.6845255220001,-84.496550348,354,"3263 VERDANT DRIVE SW  -  1318, ATLANTA, GA, 30331","Match","Exact","3263 VERDANT DR SW, ATLANTA, GA, 30331",610225562,"R"
173855,"32630 TIMBER HILL DR","DADE CITY","FL",33523,28.4253619580001,-82.2764779829999,355,"32630 TIMBER HILL DR, DADE CITY, FL, 33523","Match","Exact","32630 TIMBER HILL DR, DADE CITY, FL, 33523",623709124,"R"
173856,"32638 RAY CT","VISALIA","CA",93292,36.3844920220001,-119.268480952,356,"32638 RAY CT, VISALIA, CA, 93292","Match","Exact","32638 RAY CT, VISALIA, CA, 93292",617760166,"R"
173857,"32639 LONG NECK RD   UNIT 18","MILLSBORO","DE",19966,38.6295273380001,-75.171002233,357,"32639 LONG NECK RD   UNIT 18, MILLSBORO, DE, 19966","Match","Exact","32639 LONG NECK RD, MILLSBORO, DE, 19966",626738821,"R"
173858,"3264 ALTAMONT AVE","CLEVELAND HEIGHTS","OH",44118,41.511493339,-81.562448623,358,"3264 ALTAMONT AVE, CLEVELAND HEIGHTS, OH, 44118","Match","Non_Exact","3264 ALTAMONT RD, CLEVELAND HEIGHTS, OH, 44118",61123203,"R"
173859,"3264 CENTRAL AVENUE","ALAMEDA","CA",94501,37.756800104,-122.22997402,359,"3264 CENTRAL AVENUE, ALAMEDA, CA, 94501","Match","Exact","3264 CENTRAL AVE, ALAMEDA, CA, 94501",125006921,"R"
173860,"3264 CHATWIN AVE","LONG BEACH","CA",90808,33.816576049,-118.123224486,360,"3264 CHATWIN AVE, LONG BEACH, CA, 90808","Match","Non_Exact","3264 N CHATWIN AVE, LONG BEACH, CA, 90808",141742378,"R"
173861,"3264 PALMO CT","SAN JOSE","CA",95135,37.3060178920001,-121.760099097,361,"3264 PALMO CT, SAN JOSE, CA, 95135","Match","Exact","3264 PALMO CT, SAN JOSE, CA, 95135",123171545,"R"
173862,"3264 SANDERS ROAD UNIT B7","NORTHBROOK","IL",60062,42.091297447,-87.873558305,362,"3264 SANDERS ROAD UNIT B7, NORTHBROOK, IL, 60062","Match","Exact","3264 SANDERS RD, NORTHBROOK, IL, 60062",616786512,"R"
173863,"3264 SENECA TPKE","CANASTOTA","NY",13032,43.0687849500001,-75.7591185429999,363,"3264 SENECA TPKE, CANASTOTA, NY, 13032","Match","Exact","3264 SENECA TPKE, CANASTOTA, NY, 13032",46504258,"R"
173864,"3264 TOWNSEND BLVD","JACKSONVILLE","FL",32277,30.359301798,-81.577355933,364,"3264 TOWNSEND BLVD, JACKSONVILLE, FL, 32277","Match","Exact","3264 TOWNSEND BLVD, JACKSONVILLE, FL, 32277",83989278,"L"
173865,"3264 TOWNSEND","JACKSONVILLE","FL",32277,30.359301798,-81.577355933,365,"3264 TOWNSEND, JACKSONVILLE, FL, 32277","Match","Non_Exact","3264 TOWNSEND BLVD, JACKSONVILLE, FL, 32277",83989278,"L"
173866,"3264 WINBROOK DR","MEMPHIS","TN",38116,35.058878178,-89.9972758649999,366,"3264 WINBROOK DR, MEMPHIS, TN, 38116","Match","Exact","3264 WINBROOK DR, MEMPHIS, TN, 38116",72970431,"L"
173867,"32640 CONCORD DRIVE","MADISON HEIGHTS","MI",48071,42.532038841,-83.113131435,367,"32640 CONCORD DRIVE, MADISON HEIGHTS, MI, 48071","Match","Exact","32640 CONCORD DR, MADISON HEIGHTS, MI, 48071",644590188,"L"
173868,"32645 RACHEL CIR","DANA POINT","CA",92629,33.4883647520001,-117.702857267,368,"32645 RACHEL CIR, DANA POINT, CA, 92629","Match","Exact","32645 RACHEL CIR, DANA POINT, CA, 92629",144392262,"L"
173869,"32648 COACH DR","CHESTERFIELD","MI",48047,42.6732656290001,-82.780656157,369,"32648 COACH DR, CHESTERFIELD, MI, 48047","Match","Exact","32648 COACH DR, CHESTERFIELD, MI, 48047",110666661,"R"
173870,"3265 AAGIMAAK","MT. PLEASANT","MI",48858,NA,NA,370,"3265 AAGIMAAK, MT. PLEASANT, MI, 48858","No_Match",NA,NA,NA,NA
173871,"3265 ALMANAC ROAD","TALLAHASSEE","FL",32309,30.4951102900001,-84.122680326,371,"3265 ALMANAC ROAD, TALLAHASSEE, FL, 32309","Match","Exact","3265 ALMANAC RD, TALLAHASSEE, FL, 32309",82857556,"R"
173872,"3265 AQUEOUS LN","INDIANAPOLIS","IN",46214,39.8138328430001,-86.295241199,372,"3265 AQUEOUS LN, INDIANAPOLIS, IN, 46214","Match","Exact","3265 AQUEOUS LN, INDIANAPOLIS, IN, 46214",108032178,"L"
173873,"3265 CHURCHHILL LN 5","SAGINAW","MI",48603,NA,NA,373,"3265 CHURCHHILL LN 5, SAGINAW, MI, 48603","No_Match",NA,NA,NA,NA
173874,"3265 E INDIGO BAY CT","GILBERT","AZ",85234,33.3728543930001,-111.720798828,374,"3265 E INDIGO BAY CT, GILBERT, AZ, 85234","Match","Exact","3265 E INDIGO BAY CT, GILBERT, AZ, 85234",623848111,"R"
173875,"3265 LIBERTY RD S","SALEM","OR",97302,44.908993378,-123.047438684,375,"3265 LIBERTY RD S, SALEM, OR, 97302","Match","Exact","3265 LIBERTY RD S, SALEM, OR, 97302",156263688,"R"
173876,"3265 N CALLE TORTOSA","TUCSON","AZ",85750,32.2665869030001,-110.843881884,376,"3265 N CALLE TORTOSA, TUCSON, AZ, 85750","Match","Non_Exact","3265 N CLL TORTOSA, TUCSON, AZ, 85750",121178687,"L"
173877,"3265 REBEL DR","SUN PRAIRIE","WI",53590,43.185563637,-89.283866615,377,"3265 REBEL DR, SUN PRAIRIE, WI, 53590","Match","Exact","3265 REBEL DR, SUN PRAIRIE, WI, 53590",49517350,"R"
173878,"3265 S SHORE DR SE APT 1","ALBANY","OR",97322,NA,NA,378,"3265 S SHORE DR SE APT 1, ALBANY, OR, 97322","Tie",NA,NA,NA,NA
173879,"3265 SANTA FE AVE APT 145","LONG BEACH","CA",90810,33.816507641,-118.21545344,379,"3265 SANTA FE AVE APT 145, LONG BEACH, CA, 90810","Match","Exact","3265 SANTA FE AVE, LONG BEACH, CA, 90810",141685346,"L"
173880,"3265 SUGARLOAF MOUNTAIN ROAD","LOOMIS","CA",95650,38.8307100010001,-121.153827198,380,"3265 SUGARLOAF MOUNTAIN ROAD, LOOMIS, CA, 95650","Match","Exact","3265 SUGARLOAF MTN RD, LOOMIS, CA, 95650",106778707,"R"
173881,"32650 NANTASKET DRIVE APT 94","RANCHO PALOS VERDES","CA",90275,33.740665021,-118.393854634,381,"32650 NANTASKET DRIVE APT 94, RANCHO PALOS VERDES, CA, 90275","Match","Exact","32650 NANTASKET DR, RANCHO PALOS VERDES, CA, 90275",142665896,"L"
173882,"32652 REDBUD DRIVE","BRIGHTON","IL",62012,39.022871697,-90.1914467939999,382,"32652 REDBUD DRIVE, BRIGHTON, IL, 62012","Match","Exact","32652 REDBUD DR, BRIGHTON, IL, 62012",97878702,"R"
173883,"32659 CR 41","HUGO","CO",80821,38.9646695540001,-103.322175339,383,"32659 CR 41, HUGO, CO, 80821","Match","Exact","32659 CO RD 41, HUGO, CO, 80821",112869190,"R"
173884,"3266 BELLINGHAM DR","ORLANDO","FL",32825,28.504691639,-81.233887506,384,"3266 BELLINGHAM DR, ORLANDO, FL, 32825","Match","Exact","3266 BELLINGHAM DR, ORLANDO, FL, 32825",94369654,"R"
173885,"3266 HUNTING RIDGE ROAD","WINCHESTER","VA",22603,39.322431039,-78.200136314,385,"3266 HUNTING RIDGE ROAD, WINCHESTER, VA, 22603","Match","Exact","3266 HUNTING RIDGE RD, WINCHESTER, VA, 22603",55599328,"R"
173886,"3266 MCKELL DRIVE","MEMPHIS","TN",38127,35.214642348,-89.988727793,386,"3266 MCKELL DRIVE, MEMPHIS, TN, 38127","Match","Exact","3266 MCKELL DR, MEMPHIS, TN, 38127",72910909,"R"
173887,"3266 N MERIDIAN ST","INDIANAPOLIS","IN",46208,39.8149708970001,-86.1567670969999,387,"3266 N MERIDIAN ST, INDIANAPOLIS, IN, 46208","Match","Non_Exact","3266 N MERIDIAN ST, INDIANAPOLIS, IN, 46208",107989079,"L"
173888,"3266 RIDERS TRAIL","FORT WAYNE","IN",46814,41.0532283380001,-85.3191182529999,388,"3266 RIDERS TRAIL, FORT WAYNE, IN, 46814","Match","Exact","3266 RIDERS TRL, FORT WAYNE, IN, 46814",648383770,"R"
173889,"3266 RIVERWOOD WAY","CASTLE ROCK","CO",80109,39.3964493390001,-104.882721416,389,"3266 RIVERWOOD WAY, CASTLE ROCK, CO, 80109","Match","Exact","3266 RIVERWOOD WAY, CASTLE ROCK, CO, 80109",649061826,"R"
173890,"3266 S FOX ST","ENGLEWOOD","CO",80110,39.657431102,-104.994599673,390,"3266 S FOX ST, ENGLEWOOD, CO, 80110","Match","Non_Exact","3266 S FOX ST, ENGLEWOOD, CO, 80110",177333015,"L"
173891,"3266 WESTCHESTER DR","ABILENE","TX",79606,32.39008641,-99.768576045,391,"3266 WESTCHESTER DR, ABILENE, TX, 79606","Match","Exact","3266 WESTCHESTER DR, ABILENE, TX, 79606",129960947,"R"
173892,"3266 WYNDHAM PARK WAY","DECATUR","GA",30034,33.6890815610001,-84.216427817,392,"3266 WYNDHAM PARK WAY, DECATUR, GA, 30034","Match","Exact","3266 WYNDHAM PARK WAY, DECATUR, GA, 30034",23387909,"L"
173893,"3266 ZOAR CHURCH LANE","SNELLVILLE","GA",30039,33.808383801,-84.054262111,393,"3266 ZOAR CHURCH LANE, SNELLVILLE, GA, 30039","Match","Exact","3266 ZOAR CHURCH LN, SNELLVILLE, GA, 30039",624250754,"R"
173894,"32667 270TH ST","SLEEPY EYE","MN",56085,44.355008045,-94.838302067,394,"32667 270TH ST, SLEEPY EYE, MN, 56085","Match","Exact","32667 270TH ST, SLEEPY EYE, MN, 56085",28577148,"R"
173895,"3267 12TH AVE","ANOKA","MN",55303,45.213946058,-93.3654926149999,395,"3267 12TH AVE, ANOKA, MN, 55303","Match","Exact","3267 12TH AVE, ANOKA, MN, 55303",97494537,"R"
173896,"3267 BALTIC AVENUE","LONG BEACH","CA",90810,33.8164553070001,-118.213285296,396,"3267 BALTIC AVENUE, LONG BEACH, CA, 90810","Match","Exact","3267 BALTIC AVE, LONG BEACH, CA, 90810",141685414,"L"
173897,"3267 BEE CAVES ROAD SUITE 107-104","AUSTIN","TX",78746,30.2746129450001,-97.800703794,397,"3267 BEE CAVES ROAD SUITE 107-104, AUSTIN, TX, 78746","Match","Exact","3267 BEE CAVES RD, AUSTIN, TX, 78746",646493628,"L"
173898,"3267 CLAIRMONT NORTH NE","BROOKHAVEN","GA",30329,33.851451481,-84.312922613,398,"3267 CLAIRMONT NORTH NE, BROOKHAVEN, GA, 30329","Match","Exact","3267 CLAIRMONT NORTH NE, BROOKHAVEN, GA, 30329",23406486,"R"
173899,"3267 FORREST BLUFF WAY","LITHONIA","GA",30038,33.687769888,-84.1868379699999,399,"3267 FORREST BLUFF WAY, LITHONIA, GA, 30038","Match","Exact","3267 FORREST BLUFF WAY, LITHONIA, GA, 30038",23398309,"R"
173900,"3267 JANUARY AVE 4","ST. LOUIS","MO",63139,38.602567691,-90.286865575,400,"3267 JANUARY AVE 4, ST. LOUIS, MO, 63139","Match","Exact","3267 JANUARY AVE, SAINT LOUIS, MO, 63139",605124577,"R"
173901,"3267 N 1ST ST","MILWAUKEE","WI",53212,43.0778740550001,-87.910919118,401,"3267 N 1ST ST, MILWAUKEE, WI, 53212","Match","Exact","3267 N 1ST ST, MILWAUKEE, WI, 53212",77739507,"L"
173902,"3267 N 36TH STREET","MILWAUKEE","WI",53216,43.0784029590001,-87.9584705239999,402,"3267 N 36TH STREET, MILWAUKEE, WI, 53216","Match","Exact","3267 N 36TH ST, MILWAUKEE, WI, 53216",77737901,"L"
173903,"3267 N MIDDLETOWN RD","PARIS","KY",40361,38.1453733210001,-84.11296996,403,"3267 N MIDDLETOWN RD, PARIS, KY, 40361","Match","Exact","3267 N MIDDLETOWN RD, PARIS, KY, 40361",625110101,"R"
173904,"32676 WHIMBRET WAY","SPANISH FORT","AL",36527,30.6990397500001,-87.8523994449999,404,"32676 WHIMBRET WAY, SPANISH FORT, AL, 36527","Match","Exact","32676 WHIMBRET WAY, SPANISH FORT, AL, 36527",633480131,"R"
173905,"32677 SEMINOLE RD W","SEMINOLE","AL",36574,30.509370962,-87.469590182,405,"32677 SEMINOLE RD W, SEMINOLE, AL, 36574","Match","Exact","32677 SEMINOLE RD W, SEMINOLE, AL, 36574",131673618,"R"
173906,"3268 COMMERCIAL PKWY","MEMPHIS","TN",38116,35.0598330020001,-90.021961941,406,"3268 COMMERCIAL PKWY, MEMPHIS, TN, 38116","Match","Exact","3268 COMMERCIAL PKWY, MEMPHIS, TN, 38116",636696224,"L"
173907,"3268 EAGLE WAY","ROSAMOND","CA",93560,34.8680888120001,-118.178202138,407,"3268 EAGLE WAY, ROSAMOND, CA, 93560","Match","Exact","3268 EAGLE WAY, ROSAMOND, CA, 93560",109117413,"R"
173908,"3268 GOVERNOR DR  SUITE 262","SAN DIEGO","CA",92122,32.851171466,-117.215543345,408,"3268 GOVERNOR DR  SUITE 262, SAN DIEGO, CA, 92122","Match","Exact","3268 GOVERNOR DR, SAN DIEGO, CA, 92122",195302051,"L"
173909,"3268 GOVERNOR DR NUMBER 104","SAN DIEGO","CA",92122,32.851171466,-117.215543345,409,"3268 GOVERNOR DR NUMBER 104, SAN DIEGO, CA, 92122","Match","Exact","3268 GOVERNOR DR, SAN DIEGO, CA, 92122",195302051,"L"
173910,"3268 LAWRENCE AVENUE","OCEANSIDE","NY",11572,40.631960903,-73.641780562,410,"3268 LAWRENCE AVENUE, OCEANSIDE, NY, 11572","Match","Exact","3268 LAWRENCE AVE, OCEANSIDE, NY, 11572",147681226,"R"
173911,"3268 LONDON LANE","OXNARD","CA",93036,34.248343302,-119.17264274,411,"3268 LONDON LANE, OXNARD, CA, 93036","Match","Exact","3268 LONDON LN, OXNARD, CA, 93036",618347811,"L"
173912,"3268 MIKE GODWIN DRIVE","EL PASO","TX",79936,31.78830967,-106.269998698,412,"3268 MIKE GODWIN DRIVE, EL PASO, TX, 79936","Match","Exact","3268 MIKE GODWIN DR, EL PASO, TX, 79936",649371056,"R"
173913,"3268 NW 118TH LN","CORAL SPRINGS","FL",33065,26.271097576,-80.2854849719999,413,"3268 NW 118TH LN, CORAL SPRINGS, FL, 33065","Match","Non_Exact","3268 NW 118TH LN, CORAL SPRINGS, FL, 33065",114689307,"L"
173914,"3268 REX RD","REX","GA",30273,33.5906539580001,-84.284521302,414,"3268 REX RD, REX, GA, 30273","Match","Exact","3268 REX RD, REX, GA, 30273",23334655,"L"
173915,"3268 SW 137TH LOOP","OCALA","FL",34473,29.0209752860001,-82.1741540479999,415,"3268 SW 137TH LOOP, OCALA, FL, 34473","Match","Exact","3268 SW 137TH LOOP, OCALA, FL, 34473",116718180,"L"
173916,"32681 ATKINS WY","FORT BRAGG","CA",95437,39.4113212180001,-123.802132719,416,"32681 ATKINS WY, FORT BRAGG, CA, 95437","Match","Exact","32681 ATKINS WAY, FORT BRAGG, CA, 95437",67257490,"L"
173917,"3268A MISSION ST","SAN FRANCISCO","CA",94110,37.7442711470001,-122.420750767,417,"3268A MISSION ST, SAN FRANCISCO, CA, 94110","Match","Exact","3268 MISSION ST, SAN FRANCISCO, CA, 94110",192288542,"R"
173918,"3269 98 CIRCLE N","BROOKLYN PARK","MN",55443,45.1311081150001,-93.323350997,418,"3269 98 CIRCLE N, BROOKLYN PARK, MN, 55443","Match","Exact","3269 98TH CIR N, BROOKLYN PARK, MN, 55443",43859716,"R"
173919,"3269 MARCHANT DRIVE","BETHLEHEM","PA",18017,40.6614706570001,-75.355047626,419,"3269 MARCHANT DRIVE, BETHLEHEM, PA, 18017","Match","Exact","3269 MARCHANT DR, BETHLEHEM, PA, 18017",136896942,"L"
173920,"3269 N SUMMIT AVE","MILWAUKEE","WI",53211,43.0769891090001,-87.875573488,420,"3269 N SUMMIT AVE, MILWAUKEE, WI, 53211","Match","Exact","3269 N SUMMIT AVE, MILWAUKEE, WI, 53211",77744118,"L"
173921,"3269 NELSON ROAD","OSHKOSH","WI",54904,44.0395155890001,-88.616569968,421,"3269 NELSON ROAD, OSHKOSH, WI, 54904","Match","Exact","3269 NELSON RD, OSHKOSH, WI, 54904",618421557,"R"
173922,"3269 OLD CONCORD ROAD","SMYRNA","GA",30082,NA,NA,422,"3269 OLD CONCORD ROAD, SMYRNA, GA, 30082","No_Match",NA,NA,NA,NA
173923,"3269 STOCKTON HILL KRMC CASE MGR","KINGMAN","AZ",86409,NA,NA,423,"3269 STOCKTON HILL KRMC CASE MGR, KINGMAN, AZ, 86409","No_Match",NA,NA,NA,NA
173924,"32693 GRUWELL STREET","WILDOMAR","CA",92595,33.603703739,-117.278425717,424,"32693 GRUWELL STREET, WILDOMAR, CA, 92595","Match","Exact","32693 GRUWELL ST, WILDOMAR, CA, 92595",194730717,"L"
173925,"32693 ROAD 236","WOODLAKE","CA",93286,36.381619599,-119.044398024,425,"32693 ROAD 236, WOODLAKE, CA, 93286","Match","Exact","32693 RD 236, WOODLAKE, CA, 93286",607533445,"L"
173926,"32695 WEST OAKLAND ROAD","NASHOTAH","WI",53058,NA,NA,426,"32695 WEST OAKLAND ROAD, NASHOTAH, WI, 53058","No_Match",NA,NA,NA,NA
173927,"327 30TH ST","GULFPORT","MS",39507,30.386609089,-89.056454717,427,"327 30TH ST, GULFPORT, MS, 39507","Match","Exact","327 30TH ST, GULFPORT, MS, 39507",111381028,"L"
173928,"327 4TH AVENUE NE","SAINT CLOUD","MN",56304,45.5684857040001,-94.155532604,428,"327 4TH AVENUE NE, SAINT CLOUD, MN, 56304","Match","Exact","327 4TH AVE NE, SAINT CLOUD, MN, 56304",167359756,"L"
173929,"327 52ND STREET","NEWPORT NEWS","VA",23607,36.9959948220001,-76.438621656,429,"327 52ND STREET, NEWPORT NEWS, VA, 23607","Match","Exact","327 52ND ST, NEWPORT NEWS, VA, 23607",103745857,"L"
173930,"327 7TH AVE","LOMPOC","CA",93436,NA,NA,430,"327 7TH AVE, LOMPOC, CA, 93436","No_Match",NA,NA,NA,NA
173931,"327 ADAMS RANCH ROAD APT 703","TELLURIDE","CO",81435,NA,NA,431,"327 ADAMS RANCH ROAD APT 703, TELLURIDE, CO, 81435","No_Match",NA,NA,NA,NA
173932,"327 ALEXANDRIA DRIVE","MACON","GA",31210,32.8781350190001,-83.7060685609999,432,"327 ALEXANDRIA DRIVE, MACON, GA, 31210","Match","Exact","327 ALEXANDRIA DR, MACON, GA, 31210",81057053,"R"
173933,"327 AMERICAN RIVER CT","OXNARD","CA",93036,34.237392545,-119.174557414,433,"327 AMERICAN RIVER CT, OXNARD, CA, 93036","Match","Exact","327 AMERICAN RIVER CT, OXNARD, CA, 93036",639782721,"R"
173934,"327 B PARKVIEW ROAD","READING","PA",19606,40.3248711470001,-75.8714238219999,434,"327 B PARKVIEW ROAD, READING, PA, 19606","Match","Exact","327 PARKVIEW RD, READING, PA, 19606",635821667,"L"
173935,"327 BARBIE ST","SOUTH BEND","IN",46614,41.6332789410001,-86.246864202,435,"327 BARBIE ST, SOUTH BEND, IN, 46614","Match","Exact","327 BARBIE ST, SOUTH BEND, IN, 46614",8069574,"L"
173936,"327 BLOOMFIELD AVENUE","CALDWELL","NJ",7006,40.839989422,-74.276402468,436,"327 BLOOMFIELD AVENUE, CALDWELL, NJ, 7006","Match","Exact","327 BLOOMFIELD AVE, CALDWELL, NJ, 07006",63459313,"R"
173937,"327 BRIDGE STREET","EAST BRIDGEWATER","MA",2333,42.026825816,-70.9318947209999,437,"327 BRIDGE STREET, EAST BRIDGEWATER, MA, 2333","Match","Exact","327 BRIDGE ST, E BRIDGEWATER, MA, 02333",87491716,"R"
173938,"327 BRYN MAWR DRIVE","WILLIAMSTOWN","NJ",8094,39.684260927,-74.9745918199999,438,"327 BRYN MAWR DRIVE, WILLIAMSTOWN, NJ, 8094","Match","Exact","327 BRYN MAWR DR, WILLIAMSTOWN, NJ, 08094",635310517,"L"
173939,"327 BUCKINGHAM DR","VENETIA","PA",15367,40.253420465,-80.073617127,439,"327 BUCKINGHAM DR, VENETIA, PA, 15367","Match","Exact","327 BUCKINGHAM DR, VENETIA, PA, 15367",653368958,"L"
173940,"327 CALIFORNIA AVE","RENO","NV",89509,39.520086258,-119.815293866,440,"327 CALIFORNIA AVE, RENO, NV, 89509","Match","Exact","327 CALIFORNIA AVE, RENO, NV, 89509",107045077,"R"
173941,"327 CANNON TRAIL","DALLAS","GA",30157,33.9023148360001,-84.863284306,441,"327 CANNON TRAIL, DALLAS, GA, 30157","Match","Exact","327 CANNON TRL, DALLAS, GA, 30157",618936600,"L"
173942,"327 CANTON STREET","STOUGHTON","MA",2072,42.1277664900001,-71.115304481,442,"327 CANTON STREET, STOUGHTON, MA, 2072","Match","Exact","327 CANTON ST, STOUGHTON, MA, 02072",87267142,"R"
173943,"327 CASTRO ST","OAKLAND","CA",94607,37.7991977620001,-122.281849142,443,"327 CASTRO ST, OAKLAND, CA, 94607","Match","Exact","327 CASTRO ST, OAKLAND, CA, 94607",125079858,"L"
173944,"327 CHERRY STREET","NEW YORK","NY",10002,40.71155822,-73.986466675,444,"327 CHERRY STREET, NEW YORK, NY, 10002","Match","Exact","327 CHERRY ST, NEW YORK, NY, 10002",59654342,"R"
173945,"327 COUNTY ROAD 4651","POPLAR BLUFF","MO",63901,36.7558422910001,-90.431032449,445,"327 COUNTY ROAD 4651, POPLAR BLUFF, MO, 63901","Match","Exact","327 CO RD 4651, POPLAR BLUFF, MO, 63901",47414314,"R"
173946,"327 COVINA AVE","SAN ANTONIO","TX",78218,29.498263165,-98.405127684,446,"327 COVINA AVE, SAN ANTONIO, TX, 78218","Match","Exact","327 COVINA AVE, SAN ANTONIO, TX, 78218",101502241,"L"
173947,"327 CROSS STREET","WESTBURY","NY",11590,40.7592081330001,-73.5870064169999,447,"327 CROSS STREET, WESTBURY, NY, 11590","Match","Exact","327 CROSS ST, WESTBURY, NY, 11590",147624134,"L"
173948,"327 CURIE DR","SAN JOSE","CA",95119,37.2278086900001,-121.798202799,448,"327 CURIE DR, SAN JOSE, CA, 95119","Match","Exact","327 CURIE DR, SAN JOSE, CA, 95119",122927062,"R"
173949,"327 DAHLONEGA STREET STE 903A","CUMMING","GA",30040,34.209740658,-84.138125835,449,"327 DAHLONEGA STREET STE 903A, CUMMING, GA, 30040","Match","Non_Exact","327 DAHLONEGA RD, CUMMING, GA, 30040",70177179,"R"
173950,"327 DECELLE STREET","JACKSON","MS",39216,32.3384983390001,-90.178823751,450,"327 DECELLE STREET, JACKSON, MS, 39216","Match","Exact","327 DECELLE ST, JACKSON, MS, 39216",65370531,"R"
173951,"327 E  74TH ST","LOS ANGELES","CA",90003,33.973008872,-118.268862319,451,"327 E  74TH ST, LOS ANGELES, CA, 90003","Match","Exact","327 E 74TH ST, LOS ANGELES, CA, 90003",141670436,"L"
173952,"327 E 4TH ST","HUNTINGBURG","IN",47542,38.2960629080001,-86.95662572,452,"327 E 4TH ST, HUNTINGBURG, IN, 47542","Match","Exact","327 E 4TH ST, HUNTINGBURG, IN, 47542",7872996,"L"
173953,"327 E PERSHING RD","CHICAGO","IL",60653,41.823811311,-87.618318863,453,"327 E PERSHING RD, CHICAGO, IL, 60653","Match","Exact","327 E PERSHING RD, CHICAGO, IL, 60653",111770520,"R"
173954,"327 E42ND STREET","PATERSON","NJ",7504,NA,NA,454,"327 E42ND STREET, PATERSON, NJ, 7504","No_Match",NA,NA,NA,NA
173955,"327 EAST 23RD ST APT G1","CHESTER","PA",19013,39.866688546,-75.364939524,455,"327 EAST 23RD ST APT G1, CHESTER, PA, 19013","Match","Exact","327 E 23RD ST, CHESTER, PA, 19013",134880890,"R"
173956,"327 EGAN DR","CRESTVIEW","FL",32536,30.717217959,-86.616174465,456,"327 EGAN DR, CRESTVIEW, FL, 32536","Match","Exact","327 EGAN DR, CRESTVIEW, FL, 32536",74418502,"L"
173957,"327 FOXBANK PLANTATION BLVD","MONCKS CORNER","SC",29461,33.103908328,-80.037996633,457,"327 FOXBANK PLANTATION BLVD, MONCKS CORNER, SC, 29461","Match","Exact","327 FOXBANK PLANTATION BLVD, MONCKS CORNER, SC, 29461",630192074,"R"
173958,"327 FRANKLIN AVENUE UNIT 3 SOUTH","HARTFORD","CT",6114,41.7411622060001,-72.676020904,458,"327 FRANKLIN AVENUE UNIT 3 SOUTH, HARTFORD, CT, 6114","Match","Exact","327 FRANKLIN AVE, HARTFORD, CT, 06114",3516076,"R"
173959,"327 GRAND OAKS DRIVE","NICEVILLE","FL",32578,30.5185967210001,-86.486128045,459,"327 GRAND OAKS DRIVE, NICEVILLE, FL, 32578","Match","Non_Exact","327 GRAND OAK DR, NICEVILLE, FL, 32578",74433451,"L"
173960,"327 HAMILTON STREET APT 2","RAHWAY","NJ",7065,40.6115820740001,-74.279072867,460,"327 HAMILTON STREET APT 2, RAHWAY, NJ, 7065","Match","Exact","327 HAMILTON ST, RAHWAY, NJ, 07065",60602558,"R"
173961,"327 HAVERHILL STREET","LAWRENCE","MA",1841,42.7212349210001,-71.1420957779999,461,"327 HAVERHILL STREET, LAWRENCE, MA, 1841","Match","Non_Exact","327 E HAVERHILL ST, LAWRENCE, MA, 01841",86689859,"R"
173962,"327 HELLERMAN STREET","PHILADELPHIA","PA",19111,40.052743327,-75.097157307,462,"327 HELLERMAN STREET, PHILADELPHIA, PA, 19111","Match","Exact","327 HELLERMAN ST, PHILADELPHIA, PA, 19111",131414788,"L"
173963,"327 HERSDEN LANE","ARNOLD","MD",21012,39.051191332,-76.4979213559999,463,"327 HERSDEN LANE, ARNOLD, MD, 21012","Match","Exact","327 HERSDEN LN, ARNOLD, MD, 21012",642859220,"R"
173964,"327 HIDDEN CREEK PLACE","WEST FORK","AR",72774,NA,NA,464,"327 HIDDEN CREEK PLACE, WEST FORK, AR, 72774","No_Match",NA,NA,NA,NA
173965,"327 HILLBROOK ROAD","LAURENS","SC",29360,34.5168782980001,-82.0833226789999,465,"327 HILLBROOK ROAD, LAURENS, SC, 29360","Match","Exact","327 HILLBROOK RD, LAURENS, SC, 29360",44446900,"L"
173966,"327 HOWELL DRIVE SW","ATLANTA","GA",30331,33.7542461410001,-84.5066088149999,466,"327 HOWELL DRIVE SW, ATLANTA, GA, 30331","Match","Exact","327 HOWELL DR SW, ATLANTA, GA, 30331",17433613,"R"
173967,"327 HUBBARD ST","ALLEGAN","MI",49010,42.52772478,-85.8512211079999,467,"327 HUBBARD ST, ALLEGAN, MI, 49010","Match","Exact","327 HUBBARD ST, ALLEGAN, MI, 49010",638483441,"L"
173968,"327 IRVINE CT","CHIPPEWA FALLS","WI",54729,44.9479411030001,-91.405042603,468,"327 IRVINE CT, CHIPPEWA FALLS, WI, 54729","Match","Exact","327 IRVINE CT, CHIPPEWA FALLS, WI, 54729",78932513,"R"
173969,"327 KAULANA ROAD","KAPAA","HI",96746,22.0590849450001,-159.347398478,469,"327 KAULANA ROAD, KAPAA, HI, 96746","Match","Exact","327 KAULANA RD, KAPAA, HI, 96746",614441915,"L"
173970,"327 KINGSTON AVE APT 3FL","BROOKLYN","NY",11213,40.667973981,-73.9423199,470,"327 KINGSTON AVE APT 3FL, BROOKLYN, NY, 11213","Match","Exact","327 KINGSTON AVE, BROOKLYN, NY, 11213",59079697,"L"
173971,"327 KIVA PLACE","SANTA ROSA","CA",95403,38.5110432700001,-122.758121133,471,"327 KIVA PLACE, SANTA ROSA, CA, 95403","Match","Exact","327 KIVA PL, SANTA ROSA, CA, 95403",67531000,"L"
173972,"327 LOGAN STREET","FRANKFORT","KY",40601,38.1924179810001,-84.8730073899999,472,"327 LOGAN STREET, FRANKFORT, KY, 40601","Match","Exact","327 LOGAN ST, FRANKFORT, KY, 40601",97053801,"R"
173973,"327 MANOR RD","HARLEYSVILLE","PA",19438,40.2730918340001,-75.369583271,473,"327 MANOR RD, HARLEYSVILLE, PA, 19438","Match","Exact","327 MANOR RD, HARLEYSVILLE, PA, 19438",634149770,"R"
173974,"327 MARGARET AVE","ESSEX","MD",21221,39.3054079010001,-76.472902178,474,"327 MARGARET AVE, ESSEX, MD, 21221","Match","Exact","327 MARGARET AVE, ESSEX, MD, 21221",191489443,"L"
173975,"327 MEADOWBROOK LN","TALLAHASSEE","FL",32304,30.4366464730001,-84.321105319,475,"327 MEADOWBROOK LN, TALLAHASSEE, FL, 32304","Match","Exact","327 MEADOWBROOK LN, TALLAHASSEE, FL, 32304",82849753,"L"
173976,"327 MERRILL AVENUE","CALUMET CITY","IL",60409,41.6274182500001,-87.5699961189999,476,"327 MERRILL AVENUE, CALUMET CITY, IL, 60409","Match","Exact","327 MERRILL AVE, CALUMET CITY, IL, 60409",111779700,"L"
173977,"327 MILL POND RD","BLUFFTON","SC",29910,32.2418186670001,-80.908564423,477,"327 MILL POND RD, BLUFFTON, SC, 29910","Match","Exact","327 MILL POND RD, BLUFFTON, SC, 29910",633384696,"R"
173978,"327 MISSOURI AVE SUITE 417","EAST SAINT LOUIS","IL",62201,38.6270635340001,-90.159916832,478,"327 MISSOURI AVE SUITE 417, EAST SAINT LOUIS, IL, 62201","Match","Exact","327 MISSOURI AVE, E SAINT LOUIS, IL, 62201",107829702,"L"
173979,"327 N 21ST ST","LOUISVILLE","KY",40203,38.2630899010001,-85.783557389,479,"327 N 21ST ST, LOUISVILLE, KY, 40203","Match","Exact","327 N 21ST ST, LOUISVILLE, KY, 40203",96841919,"R"
173980,"327 N ASHLEY STREET DA OFFICE","VALDOSTA","GA",31601,NA,NA,480,"327 N ASHLEY STREET DA OFFICE, VALDOSTA, GA, 31601","No_Match",NA,NA,NA,NA
173981,"327 N CALLE DEL CHANCERO","GREEN VALLEY","AZ",85614,31.8746538720001,-110.991076088,481,"327 N CALLE DEL CHANCERO, GREEN VALLEY, AZ, 85614","Match","Non_Exact","327 N CLL DEL CHANCERO, GREEN VALLEY, AZ, 85614",121227592,"L"
173982,"327 N MILAN PLACE","ANAHEIM","CA",92801,33.835029074,-117.979047886,482,"327 N MILAN PLACE, ANAHEIM, CA, 92801","Match","Exact","327 N MILAN PL, ANAHEIM, CA, 92801",144011546,"L"
173983,"327 N QUEEN ST","KINSTON","NC",28504,35.262807708,-77.581087598,483,"327 N QUEEN ST, KINSTON, NC, 28504","Match","Non_Exact","327 N QUEEN ST, KINSTON, NC, 28501",13876084,"R"
173984,"327 NELSON AVE","LONGWOOD","FL",32750,28.6861940470001,-81.3825618929999,484,"327 NELSON AVE, LONGWOOD, FL, 32750","Match","Exact","327 NELSON AVE, LONGWOOD, FL, 32750",93736351,"L"
173985,"327 NORTH PARKSIDE AVENUE","CHICAGO","IL",60644,41.8860140200001,-87.7667104939999,485,"327 NORTH PARKSIDE AVENUE, CHICAGO, IL, 60644","Match","Exact","327 N PARKSIDE AVE, CHICAGO, IL, 60644",616787136,"R"
173986,"327 OFFICE PLAZA DRIVE  SUITE 108","TALLAHASSEE","FL",32301,30.445541334,-84.259650483,486,"327 OFFICE PLAZA DRIVE  SUITE 108, TALLAHASSEE, FL, 32301","Match","Exact","327 OFFICE PLZ, TALLAHASSEE, FL, 32301",82854035,"R"
173987,"327 OFFICE PLAZA SUITE 208","TALLAHASSEE","FL",32301,30.445541334,-84.259650483,487,"327 OFFICE PLAZA SUITE 208, TALLAHASSEE, FL, 32301","Match","Exact","327 OFFICE PLZ, TALLAHASSEE, FL, 32301",82854035,"R"
173988,"327 PARKLANDS TRAIL","BOZEMAN","MT",59718,45.6800461550001,-111.162388448,488,"327 PARKLANDS TRAIL, BOZEMAN, MT, 59718","Match","Exact","327 PARKLANDS TRL, BOZEMAN, MT, 59718",626859007,"L"
173989,"327 PENNSYLVANIA  AVE","OCOEE","FL",34761,28.566008857,-81.525679273,489,"327 PENNSYLVANIA  AVE, OCOEE, FL, 34761","Match","Exact","327 PENNSYLVANIA AVE, OCOEE, FL, 34761",94305465,"R"
173990,"327 REGENCY AVENUE","PATASKALA","SC",43062,NA,NA,490,"327 REGENCY AVENUE, PATASKALA, SC, 43062","No_Match",NA,NA,NA,NA
173991,"327 RIVERSVILLE ROAD","GREENWICH","CT",6831,41.0601783230001,-73.674140645,491,"327 RIVERSVILLE ROAD, GREENWICH, CT, 6831","Match","Exact","327 RIVERSVILLE RD, GREENWICH, CT, 06831",649722363,"R"
173992,"327 ROBINSON WAY","BATAVIA","IL",60510,41.849004687,-88.2863885089999,492,"327 ROBINSON WAY, BATAVIA, IL, 60510","Match","Exact","327 ROBINSON WAY, BATAVIA, IL, 60510",119567366,"L"
173993,"327 ROYAL BLUFF RD","JACKSONVILLE","NC",28540,34.77015736,-77.4469603699999,493,"327 ROYAL BLUFF RD, JACKSONVILLE, NC, 28540","Match","Exact","327 ROYAL BLUFF RD, JACKSONVILLE, NC, 28540",653462910,"R"
173994,"327 S COUNTY RD 13","ORLANDO","FL",32833,28.5412653170001,-81.101653626,494,"327 S COUNTY RD 13, ORLANDO, FL, 32833","Match","Exact","327 S CO RD 13, ORLANDO, FL, 32833",641064851,"R"
173995,"327 S FILLMORE STREET","EDWARDSVILLE","IL",62025,38.8088120080001,-89.9509359739999,495,"327 S FILLMORE STREET, EDWARDSVILLE, IL, 62025","Match","Exact","327 S FILLMORE ST, EDWARDSVILLE, IL, 62025",107691407,"R"
173996,"327 S MARKET ST","TROY","OH",45373,40.036367737,-84.205721759,496,"327 S MARKET ST, TROY, OH, 45373","Match","Exact","327 S MARKET ST, TROY, OH, 45373",135298404,"L"
173997,"327 SAINT JAMES AVENUE","WOODBRIDGE","NJ",7095,40.5497020190001,-74.287287885,497,"327 SAINT JAMES AVENUE, WOODBRIDGE, NJ, 7095","Match","Exact","327 ST JAMES AVE, WOODBRIDGE, NJ, 07095",60280074,"L"
173998,"327 SNAPDRAGON LOOP","BRADENTON","FL",34212,27.5014876980001,-82.420139916,498,"327 SNAPDRAGON LOOP, BRADENTON, FL, 34212","Match","Exact","327 SNAPDRAGON LOOP, BRADENTON, FL, 34212",624565299,"R"
173999,"327 SOUTH ADAMS STREET","QUINCY","FL",32351,30.584252242,-84.576714526,499,"327 SOUTH ADAMS STREET, QUINCY, FL, 32351","Match","Exact","327 S ADAMS ST, QUINCY, FL, 32351",87816544,"R"
174000,"327 SOUTH ELM STREET","CAMPBELLSPORT","WI",53010,43.595620336,-88.278904306,500,"327 SOUTH ELM STREET, CAMPBELLSPORT, WI, 53010","Match","Exact","327 S ELM ST, CAMPBELLSPORT, WI, 53010",74820979,"L"
