"ID","Address","City","State","Zip","lat","long","id","input_address","match_indicator","match_type","matched_address","tiger_line_id","tiger_side"
187501,"3641 WOODLAND DR","METAMORA","MI",48455,42.9666802830001,-83.366507597,1,"3641 WOODLAND DR, METAMORA, MI, 48455","Match","Exact","3641 WOODLAND DR, METAMORA, MI, 48455",110469066,"R"
187502,"3641 WYOMING AVE","FLINT","MI",48506,43.0457104710001,-83.640985714,2,"3641 WYOMING AVE, FLINT, MI, 48506","Match","Exact","3641 WYOMING AVE, FLINT, MI, 48506",69570458,"L"
187503,"36410 TALL OAK","WESTLAND","MI",48185,42.3307078650001,-83.3996813379999,3,"36410 TALL OAK, WESTLAND, MI, 48185","Match","Exact","36410 TALL OAK, WESTLAND, MI, 48185",95693558,"R"
187504,"36410 US HWY 19 N","PALM HARBOR","FL",34684,28.10158561,-82.7396460319999,4,"36410 US HWY 19 N, PALM HARBOR, FL, 34684","Match","Exact","36410 US HWY 19 N, PALM HARBOR, FL, 34684",646746530,"R"
187505,"36413 183RD ST","ROCKHAM","SD",57470,44.736351658,-98.9035912429999,5,"36413 183RD ST, ROCKHAM, SD, 57470","Match","Exact","36413 183RD ST, ROCKHAM, SD, 57470",201091123,"L"
187506,"36415 GERANIUM DR","LAKE ELSINORE","CA",92532,33.667527104,-117.228007345,6,"36415 GERANIUM DR, LAKE ELSINORE, CA, 92532","Match","Exact","36415 GERANIUM DR, LAKE ELSINORE, CA, 92532",650830885,"R"
187507,"3642 33RD AVENUE SOUTH","SEATTLE","WA",98144,47.5711518030001,-122.290995673,7,"3642 33RD AVENUE SOUTH, SEATTLE, WA, 98144","Match","Exact","3642 33RD AVE S, SEATTLE, WA, 98144",239763030,"L"
187508,"3642 APPOMATTOX DRIVE","WINSTON SALEM","NC",27106,36.1553990720001,-80.292209729,8,"3642 APPOMATTOX DRIVE, WINSTON SALEM, NC, 27106","Match","Exact","3642 APPOMATTOX DR, WINSTON SALEM, NC, 27106",84601682,"L"
187509,"3642 AVALON RD SECOND FLOOR","SHAKER HEIGHTS","OH",44120,41.4603876800001,-81.5590018669999,9,"3642 AVALON RD SECOND FLOOR, SHAKER HEIGHTS, OH, 44120","Match","Exact","3642 AVALON RD, SHAKER HEIGHTS, OH, 44120",61128750,"R"
187510,"3642 BLACK LOCUST DRIVE","INDIANAPOLIS","IN",46235,39.823999228,-85.964136755,10,"3642 BLACK LOCUST DRIVE, INDIANAPOLIS, IN, 46235","Match","Exact","3642 BLACK LOCUST DR, INDIANAPOLIS, IN, 46235",108031306,"L"
187511,"3642 CLIFTON RD UNIT A","GREENSBORO","NC",27407,36.059843175,-79.854430269,11,"3642 CLIFTON RD UNIT A, GREENSBORO, NC, 27407","Match","Exact","3642 CLIFTON RD, GREENSBORO, NC, 27407",641637416,"L"
187512,"3642 DUNES ROAD","PALM BEACH GARDENS","FL",33410,26.8552991500001,-80.090306094,12,"3642 DUNES ROAD, PALM BEACH GARDENS, FL, 33410","Match","Exact","3642 DUNES RD, PALM BEACH GARDENS, FL, 33410",115580464,"L"
187513,"3642 E VERMONT STREET","LONG BEACH","CA",90814,33.770792127,-118.149668847,13,"3642 E VERMONT STREET, LONG BEACH, CA, 90814","Match","Exact","3642 E VERMONT ST, LONG BEACH, CA, 90814",141701834,"R"
187514,"3642 HENDRICKS AVE","MEMPHIS","TN",38111,35.091517029,-89.941423142,14,"3642 HENDRICKS AVE, MEMPHIS, TN, 38111","Match","Exact","3642 HENDRICKS AVE, MEMPHIS, TN, 38111",72920166,"L"
187515,"3642 KNOX DR","DULUTH","GA",30096,34.0056562720001,-84.1467054729999,15,"3642 KNOX DR, DULUTH, GA, 30096","Match","Non_Exact","3642 KNOX DR NW, DULUTH, GA, 30096",638088712,"R"
187516,"3642 MAYFAIR ROAD NE","ATLANTA","GA",30342,33.854484121,-84.372764095,16,"3642 MAYFAIR ROAD NE, ATLANTA, GA, 30342","Match","Exact","3642 MAYFAIR RD NE, ATLANTA, GA, 30342",17355541,"L"
187517,"3642 RIVER EDGE COURT","DECATUR","GA",30034,33.6764185590001,-84.240086114,17,"3642 RIVER EDGE COURT, DECATUR, GA, 30034","Match","Exact","3642 RIVER EDGE CT, DECATUR, GA, 30034",23387698,"R"
187518,"3642 SAVANNAH HWY SUITE 116","JOHNS ISLAND","SC",29455,32.802946564,-80.110651261,18,"3642 SAVANNAH HWY SUITE 116, JOHNS ISLAND, SC, 29455","Match","Exact","3642 SAVANNAH HWY, JOHNS ISLAND, SC, 29455",648198376,"L"
187519,"3642 SEAHORN DR","MALIBU","CA",90265,34.045952421,-118.572632308,19,"3642 SEAHORN DR, MALIBU, CA, 90265","Match","Exact","3642 SEAHORN DR, MALIBU, CA, 90265",142032040,"R"
187520,"3642 W LUTHER LANE","INGLEWOOD","CA",90305,33.9539925550001,-118.333515165,20,"3642 W LUTHER LANE, INGLEWOOD, CA, 90305","Match","Exact","3642 W LUTHER LN, INGLEWOOD, CA, 90305",632052870,"L"
187521,"3643 BAKER DRIVE","HOUMA","LA",70363,29.5927825420001,-90.667619797,21,"3643 BAKER DRIVE, HOUMA, LA, 70363","Match","Exact","3643 BAKER DR, HOUMA, LA, 70363",92058054,"L"
187522,"3643 BUFFALO RD","MEMPHIS","TN",38109,35.0487860170001,-90.083674332,22,"3643 BUFFALO RD, MEMPHIS, TN, 38109","Match","Exact","3643 BUFFALO RD, MEMPHIS, TN, 38109",72906807,"R"
187523,"3643 CENTER ROAD","BRUNSWICK","OH",44212,NA,NA,23,"3643 CENTER ROAD, BRUNSWICK, OH, 44212","No_Match",NA,NA,NA,NA
187524,"3643 COLFAX AVENUE NORTH","MINNEAPOLIS","MN",55412,45.0211306400001,-93.2918224319999,24,"3643 COLFAX AVENUE NORTH, MINNEAPOLIS, MN, 55412","Match","Exact","3643 COLFAX AVE N, MINNEAPOLIS, MN, 55412",43622359,"L"
187525,"3643 E WASHINGTON AVE","GILBERT","AZ",85234,33.3514732090001,-111.711939762,25,"3643 E WASHINGTON AVE, GILBERT, AZ, 85234","Match","Exact","3643 E WASHINGTON AVE, GILBERT, AZ, 85234",637414775,"L"
187526,"3643 LANDING COURT","DOUGLASVILLE","GA",30135,33.7303159040001,-84.693914843,26,"3643 LANDING COURT, DOUGLASVILLE, GA, 30135","Match","Exact","3643 LANDING CT, DOUGLASVILLE, GA, 30135",16651419,"R"
187527,"3643 MISTFLOWER LANE","NAPERVILLE","IL",60564,41.7017151860001,-88.2199325349999,27,"3643 MISTFLOWER LANE, NAPERVILLE, IL, 60564","Match","Exact","3643 MISTFLOWER LN, NAPERVILLE, IL, 60564",111627707,"R"
187528,"3643 NORTH SHORE DRIVE","AKRON","OH",44333,41.147899077,-81.645657065,28,"3643 NORTH SHORE DRIVE, AKRON, OH, 44333","Match","Exact","3643 N SHORE DR, AKRON, OH, 44333",61374603,"L"
187529,"3643 S INDIANA AVE","CHICAGO","IL",60653,41.8282601810001,-87.6216916069999,29,"3643 S INDIANA AVE, CHICAGO, IL, 60653","Match","Exact","3643 S INDIANA AVE, CHICAGO, IL, 60653",653218510,"L"
187530,"3643 TALONEGA TRAIL","ELLENWOOD","GA",30294,33.673622317,-84.294280581,30,"3643 TALONEGA TRAIL, ELLENWOOD, GA, 30294","Match","Exact","3643 TALONEGA TRL, ELLENWOOD, GA, 30294",640498774,"L"
187531,"3643 UPTON AVENUE NORTH","MINNEAPOLIS","MN",55411,45.021262762,-93.314637864,31,"3643 UPTON AVENUE NORTH, MINNEAPOLIS, MN, 55411","Match","Non_Exact","3643 UPTON AVE N, MINNEAPOLIS, MN, 55412",43621188,"L"
187532,"3643 WALTON WAY EXT BLDG 7B","AUGUSTA","GA",30909,33.4907894300001,-82.075456453,32,"3643 WALTON WAY EXT BLDG 7B, AUGUSTA, GA, 30909","Match","Non_Exact","3643 WALTON WAY EXD, AUGUSTA, GA, 30909",648115472,"R"
187533,"36431 41ST STREET EAST","PALMDALE","CA",93552,34.5434541330001,-118.05624061,33,"36431 41ST STREET EAST, PALMDALE, CA, 93552","Match","Exact","36431 41ST ST E, PALMDALE, CA, 93552",141530917,"R"
187534,"36434 ORCHARD LAKE DR","NEW BLATIMORE","MI",48047,42.703789703,-82.7354454489999,34,"36434 ORCHARD LAKE DR, NEW BLATIMORE, MI, 48047","Match","Non_Exact","36434 ORCHARD LAKE DR, NEW BALTIMORE, MI, 48047",110712063,"L"
187535,"36435 WEST POWERLINE ROAD","PEARL RIVER","LA",70452,30.358751182,-89.790207556,35,"36435 WEST POWERLINE ROAD, PEARL RIVER, LA, 70452","Match","Exact","36435 W POWERLINE RD, PEARL RIVER, LA, 70452",111311649,"L"
187536,"3644 BELLECREST AVE","CINCINNATI","OH",45208,39.141400317,-84.4144331969999,36,"3644 BELLECREST AVE, CINCINNATI, OH, 45208","Match","Exact","3644 BELLECREST AVE, CINCINNATI, OH, 45208",103933107,"R"
187537,"3644 CLAY ST","DENVER","CO",80211,39.7673935620001,-105.020513233,37,"3644 CLAY ST, DENVER, CO, 80211","Match","Exact","3644 CLAY ST, DENVER, CO, 80211",177301182,"R"
187538,"3644 CURTIN DRIVE","WHITE PLAINS","MD",20695,38.611240794,-76.965529029,38,"3644 CURTIN DRIVE, WHITE PLAINS, MD, 20695","Match","Exact","3644 CURTIN DR, WHITE PLAINS, MD, 20695",642678037,"R"
187539,"3644 EAST 1600 NORTH","LINCOLN CITY","IN",47552,38.1182996270001,-86.989414466,39,"3644 EAST 1600 NORTH, LINCOLN CITY, IN, 47552","Match","Non_Exact","3644 E CO RD 1600 N, LINCOLN CITY, IN, 47552",7995397,"R"
187540,"3644 EAST FREMONT PLACE","CENTENNIAL","CO",80122,39.5859615640001,-104.945092795,40,"3644 EAST FREMONT PLACE, CENTENNIAL, CO, 80122","Match","Exact","3644 E FREMONT PL, CENTENNIAL, CO, 80122",177345100,"R"
187541,"3644 HIGHWAY 42","LOCUST GROVE","GA",30248,33.352593498,-84.1128746049999,41,"3644 HIGHWAY 42, LOCUST GROVE, GA, 30248","Match","Non_Exact","3644 STATE RTE 42, LOCUST GROVE, GA, 30248",637445964,"L"
187542,"3644 MARK DALE DR","WADSWORTH","OH",44281,41.0426729330001,-81.8194520769999,42,"3644 MARK DALE DR, WADSWORTH, OH, 44281","Match","Non_Exact","3644 MARK-DALE DR, WADSWORTH, OH, 44281",58689031,"L"
187543,"3644 OVERLAND AVE APT 507","LOS ANGELES","CA",90034,34.022197539,-118.409645247,43,"3644 OVERLAND AVE APT 507, LOS ANGELES, CA, 90034","Match","Exact","3644 OVERLAND AVE, LOS ANGELES, CA, 90034",141573650,"L"
187544,"3644 S FT APACHE RD APT 1032","LAS VEGAS","NV",89147,36.1231932160001,-115.297014504,44,"3644 S FT APACHE RD APT 1032, LAS VEGAS, NV, 89147","Match","Non_Exact","3644 S FORT APACHE RD, LAS VEGAS, NV, 89147",612986405,"L"
187545,"3644 SAPPHIRE COURT","DECATUR","GA",30034,33.6758449110001,-84.2276730419999,45,"3644 SAPPHIRE COURT, DECATUR, GA, 30034","Match","Exact","3644 SAPPHIRE CT, DECATUR, GA, 30034",23398276,"L"
187546,"3644 SHAMROCK STREET WEST","TALLAHASSEE","FL",32309,30.5148693790001,-84.22397101,46,"3644 SHAMROCK STREET WEST, TALLAHASSEE, FL, 32309","Match","Exact","3644 SHAMROCK ST W, TALLAHASSEE, FL, 32309",82853380,"L"
187547,"3644 SILVER FARMS LANE","TRAVERSE CITY","MI",49684,44.7319268250001,-85.663555794,47,"3644 SILVER FARMS LANE, TRAVERSE CITY, MI, 49684","Match","Exact","3644 SILVER FARMS LN, TRAVERSE CITY, MI, 49684",145534974,"L"
187548,"3644 SURREY LN","COLUMBUS","GA",31906,32.470585156,-84.936359657,48,"3644 SURREY LN, COLUMBUS, GA, 31906","Match","Exact","3644 SURREY LN, COLUMBUS, GA, 31906",98945984,"R"
187549,"3644 SW THISTLEWOOD LANE","PALM CITY","FL",34990,27.1590504000001,-80.281150367,49,"3644 SW THISTLEWOOD LANE, PALM CITY, FL, 34990","Match","Exact","3644 SW THISTLEWOOD LN, PALM CITY, FL, 34990",120426071,"L"
187550,"3644 VALLEY RD","LIBERTY CORNER","NJ",7938,NA,NA,50,"3644 VALLEY RD, LIBERTY CORNER, NJ, 7938","No_Match",NA,NA,NA,NA
187551,"3644 WEST 51ST STREET","CHICAGO","IL",60632,41.8006775640001,-87.714926029,51,"3644 WEST 51ST STREET, CHICAGO, IL, 60632","Match","Exact","3644 W 51ST ST, CHICAGO, IL, 60632",111801113,"R"
187552,"3644 WHITE EAGLE DR","NAPERVILLE","IL",60564,41.7221130900001,-88.224714047,52,"3644 WHITE EAGLE DR, NAPERVILLE, IL, 60564","Match","Exact","3644 WHITE EAGLE DR, NAPERVILLE, IL, 60564",111585062,"L"
187553,"3644-1D MCCONNELL ROAD","GREENSBORO","NC",27405,36.0618075350001,-79.701862628,53,"3644-1D MCCONNELL ROAD, GREENSBORO, NC, 27405","Match","Exact","3644 MCCONNELL RD, GREENSBORO, NC, 27405",633929761,"R"
187554,"36445 NW LONG RD","CORNELIUS","OR",97113,45.540241146,-123.051176965,54,"36445 NW LONG RD, CORNELIUS, OR, 97113","Match","Exact","36445 NW LONG RD, CORNELIUS, OR, 97113",627418830,"R"
187555,"3645 APPLEWOOD DR","WAUKESHA","WI",53189,42.960222285,-88.284527929,55,"3645 APPLEWOOD DR, WAUKESHA, WI, 53189","Match","Exact","3645 APPLEWOOD DR, WAUKESHA, WI, 53189",630314007,"L"
187556,"3645 BARROW WOOD LN","LEXINGTON","KY",40502,37.997275061,-84.474500666,56,"3645 BARROW WOOD LN, LEXINGTON, KY, 40502","Match","Exact","3645 BARROW WOOD LN, LEXINGTON, KY, 40502",641325856,"L"
187557,"3645 BATTERSEA ROAD","MIAMI","FL",33133,25.710134893,-80.2516074929999,57,"3645 BATTERSEA ROAD, MIAMI, FL, 33133","Match","Exact","3645 BATTERSEA RD, MIAMI, FL, 33133",116015308,"R"
187558,"3645 BURKEHILL DR","BARTLETT","TN",38135,35.22520511,-89.862636133,58,"3645 BURKEHILL DR, BARTLETT, TN, 38135","Match","Exact","3645 BURKEHILL DR, BARTLETT, TN, 38135",72900254,"L"
187559,"3645 CENTRAL","KANSAS CITY","MO",64111,39.0612885900001,-94.589250202,59,"3645 CENTRAL, KANSAS CITY, MO, 64111","Match","Non_Exact","3645 CENTRAL ST, KANSAS CITY, MO, 64111",91447337,"L"
187560,"3645 COOPER ISLAND ROAD","WEST SACRAMENTO","CA",95691,38.5420157720001,-121.574510686,60,"3645 COOPER ISLAND ROAD, WEST SACRAMENTO, CA, 95691","Match","Exact","3645 COOPER ISLAND RD, WEST SACRAMENTO, CA, 95691",67705181,"R"
187561,"3645 CUSSETA RD","COLUMBUS","GA",31903,32.438611913,-84.942373117,61,"3645 CUSSETA RD, COLUMBUS, GA, 31903","Match","Exact","3645 CUSSETA RD, COLUMBUS, GA, 31903",98942209,"L"
187562,"3645 DELGANY DR","CHARLOTTE","NC",28215,35.236865632,-80.764551754,62,"3645 DELGANY DR, CHARLOTTE, NC, 28215","Match","Exact","3645 DELGANY DR, CHARLOTTE, NC, 28215",70481946,"L"
187563,"3645 DUEBER AVE SW","CANTON","OH",44706,40.756980673,-81.3979477029999,63,"3645 DUEBER AVE SW, CANTON, OH, 44706","Match","Exact","3645 DUEBER AVE SW, CANTON, OH, 44706",64717413,"R"
187564,"3645 FOSKETT ROAD","MEDINA","OH",44256,41.196932658,-81.817358312,64,"3645 FOSKETT ROAD, MEDINA, OH, 44256","Match","Exact","3645 FOSKETT RD, MEDINA, OH, 44256",58674885,"R"
187565,"3645 GENTIAN BLVD","COLUMBUS","GA",31907,32.507298947,-84.9334661299999,65,"3645 GENTIAN BLVD, COLUMBUS, GA, 31907","Match","Exact","3645 GENTIAN BLVD, COLUMBUS, GA, 31907",98940285,"L"
187566,"3645 HAGAMAN ROAD","CHESTERFIELD","IL",62630,NA,NA,66,"3645 HAGAMAN ROAD, CHESTERFIELD, IL, 62630","No_Match",NA,NA,NA,NA
187567,"3645 INDEPENDENCE RD","FREMONT","CA",93845,37.5167190120001,-121.949917012,67,"3645 INDEPENDENCE RD, FREMONT, CA, 93845","Match","Non_Exact","3645 INDEPENDENCE RD, FREMONT, CA, 94538",125034061,"R"
187568,"3645 JEFFRIES ROAD SE","NEWARK","OH",43056,40.0338590470001,-82.250936994,68,"3645 JEFFRIES ROAD SE, NEWARK, OH, 43056","Match","Exact","3645 JEFFRIES RD SE, NEWARK, OH, 43056",61525037,"R"
187569,"3645 KIRK LANE","WINDSOR MILL","MD",21244,NA,NA,69,"3645 KIRK LANE, WINDSOR MILL, MD, 21244","No_Match",NA,NA,NA,NA
187570,"3645 KNOLLWOOD DRIVE","CHATTANOOGA","TN",37415,35.111122864,-85.285387486,70,"3645 KNOLLWOOD DRIVE, CHATTANOOGA, TN, 37415","Match","Exact","3645 KNOLLWOOD DR, CHATTANOOGA, TN, 37415",59306569,"L"
187571,"3645 LEE CIRCLE","PRESCOTT","AZ",86301,34.5497191970001,-112.401358749,71,"3645 LEE CIRCLE, PRESCOTT, AZ, 86301","Match","Exact","3645 LEE CIR, PRESCOTT, AZ, 86301",159503906,"R"
187572,"3645 MARKETPLACE BLVD 130 SUITE 406","ATLANTA","GA",30344,33.658488463,-84.502409899,72,"3645 MARKETPLACE BLVD 130 SUITE 406, ATLANTA, GA, 30344","Match","Exact","3645 MARKETPLACE BLVD, ATLANTA, GA, 30344",643295866,"L"
187573,"3645 MARKETPLACE BLVD STE 130 236","EAST POINT","GA",30344,33.658488463,-84.502409899,73,"3645 MARKETPLACE BLVD STE 130 236, EAST POINT, GA, 30344","Match","Exact","3645 MARKETPLACE BLVD, EAST POINT, GA, 30344",643295866,"L"
187574,"3645 MARKETPLACE BLVD STE 130 659","EAST POINT","GA",30344,33.658488463,-84.502409899,74,"3645 MARKETPLACE BLVD STE 130 659, EAST POINT, GA, 30344","Match","Exact","3645 MARKETPLACE BLVD, EAST POINT, GA, 30344",643295866,"L"
187575,"3645 MARKETPLACE BLVD STE 130-169","ATLANTA","GA",30344,33.658488463,-84.502409899,75,"3645 MARKETPLACE BLVD STE 130-169, ATLANTA, GA, 30344","Match","Exact","3645 MARKETPLACE BLVD, ATLANTA, GA, 30344",643295866,"L"
187576,"3645 MARKETPLACE BLVD STE 130-292","EAST POINT","GA",30344,33.658488463,-84.502409899,76,"3645 MARKETPLACE BLVD STE 130-292, EAST POINT, GA, 30344","Match","Exact","3645 MARKETPLACE BLVD, EAST POINT, GA, 30344",643295866,"L"
187577,"3645 MARKETPLACE BLVD STE 130-375","EAST POINT","GA",30344,33.658488463,-84.502409899,77,"3645 MARKETPLACE BLVD STE 130-375, EAST POINT, GA, 30344","Match","Exact","3645 MARKETPLACE BLVD, EAST POINT, GA, 30344",643295866,"L"
187578,"3645 MARKETPLACE BLVD STE130 - 661","EAST POINT","GA",30344,33.658488463,-84.502409899,78,"3645 MARKETPLACE BLVD STE130 - 661, EAST POINT, GA, 30344","Match","Exact","3645 MARKETPLACE BLVD, EAST POINT, GA, 30344",643295866,"L"
187579,"3645 MARKETPLACE BLVD STE130 BX284","EAST POINT","GA",30344,33.658488463,-84.502409899,79,"3645 MARKETPLACE BLVD STE130 BX284, EAST POINT, GA, 30344","Match","Exact","3645 MARKETPLACE BLVD, EAST POINT, GA, 30344",643295866,"L"
187580,"3645 MARKETPLACE BLVD SUITE 103-602","EAST POINT","GA",30344,33.658488463,-84.502409899,80,"3645 MARKETPLACE BLVD SUITE 103-602, EAST POINT, GA, 30344","Match","Exact","3645 MARKETPLACE BLVD, EAST POINT, GA, 30344",643295866,"L"
187581,"3645 MARKETPLACE BLVD SUITE 130-346","EAST POINT","GA",30344,33.658488463,-84.502409899,81,"3645 MARKETPLACE BLVD SUITE 130-346, EAST POINT, GA, 30344","Match","Exact","3645 MARKETPLACE BLVD, EAST POINT, GA, 30344",643295866,"L"
187582,"3645 MARKETPLACE BLVD SUITE 130-44","ATLANTA","GA",30344,33.658488463,-84.502409899,82,"3645 MARKETPLACE BLVD SUITE 130-44, ATLANTA, GA, 30344","Match","Exact","3645 MARKETPLACE BLVD, ATLANTA, GA, 30344",643295866,"L"
187583,"3645 MARKETPLACE BLVD SUITE 130-54","EAST POINT","GA",30344,33.658488463,-84.502409899,83,"3645 MARKETPLACE BLVD SUITE 130-54, EAST POINT, GA, 30344","Match","Exact","3645 MARKETPLACE BLVD, EAST POINT, GA, 30344",643295866,"L"
187584,"3645 MARKETPLACE BLVD SUITE 130-604","EAST POINT","GA",30344,33.658488463,-84.502409899,84,"3645 MARKETPLACE BLVD SUITE 130-604, EAST POINT, GA, 30344","Match","Exact","3645 MARKETPLACE BLVD, EAST POINT, GA, 30344",643295866,"L"
187585,"3645 MARKETPLACE BLVD SUITE 130-760","EAST POINT","GA",30344,33.658488463,-84.502409899,85,"3645 MARKETPLACE BLVD SUITE 130-760, EAST POINT, GA, 30344","Match","Exact","3645 MARKETPLACE BLVD, EAST POINT, GA, 30344",643295866,"L"
187586,"3645 N 21ST STREET","PHILADELPHIA","PA",19140,40.010073392,-75.162755147,86,"3645 N 21ST STREET, PHILADELPHIA, PA, 19140","Match","Exact","3645 N 21ST ST, PHILADELPHIA, PA, 19140",131402421,"R"
187587,"3645 NORMAN BRIDGE ROAD","MONTGOMERY","AL",36105,32.335676908,-86.299395894,87,"3645 NORMAN BRIDGE ROAD, MONTGOMERY, AL, 36105","Match","Exact","3645 NORMAN BRIDGE RD, MONTGOMERY, AL, 36105",652580225,"L"
187588,"3645 NW BLUE JACKET DR","LEES SUMMIT","MO",64064,38.9786015110001,-94.382434812,88,"3645 NW BLUE JACKET DR, LEES SUMMIT, MO, 64064","Match","Exact","3645 NW BLUE JACKET DR, LEES SUMMIT, MO, 64064",91471918,"R"
187589,"3645 RECREATION LANE","NAPLES","FL",34116,26.168380789,-81.710484102,89,"3645 RECREATION LANE, NAPLES, FL, 34116","Match","Exact","3645 RECREATION LN, NAPLES, FL, 34116",115174054,"L"
187590,"3645 SAINT MARYS PLACE NW","WASHINGTON","DC",20007,38.9056425160001,-77.0715080149999,90,"3645 SAINT MARYS PLACE NW, WASHINGTON, DC, 20007","Match","Exact","3645 SAINT MARYS PL NW, WASHINGTON, DC, 20007",76224820,"R"
187591,"3645 SILVER BLUFF RD","AIKEN","SC",29803,33.3807476050001,-81.834073484,91,"3645 SILVER BLUFF RD, AIKEN, SC, 29803","Match","Exact","3645 SILVER BLUFF RD, AIKEN, SC, 29803",64991822,"R"
187592,"3645 SOUTH COUNTY ROAD 200 WEST","GREENCASTLE","IN",46135,39.6085102690001,-86.891227782,92,"3645 SOUTH COUNTY ROAD 200 WEST, GREENCASTLE, IN, 46135","Match","Exact","3645 S CO RD 200 W, GREENCASTLE, IN, 46135",635529251,"R"
187593,"3645 W MCFADDEN AVE","SANTA ANA","CA",92704,33.7383501960001,-117.917726408,93,"3645 W MCFADDEN AVE, SANTA ANA, CA, 92704","Match","Exact","3645 W MCFADDEN AVE, SANTA ANA, CA, 92704",609058248,"R"
187594,"3645 WOODLAWN TERRACE PL","HONOLULU","HI",96822,21.3180578700001,-157.796735534,94,"3645 WOODLAWN TERRACE PL, HONOLULU, HI, 96822","Match","Exact","3645 WOODLAWN TERRACE PL, HONOLULU, HI, 96822",203238221,"R"
187595,"36451 EW 1270 RD","WEWOKA","OK",74884,35.1756478180001,-96.520363994,95,"36451 EW 1270 RD, WEWOKA, OK, 74884","Match","Exact","36451 EW 1270 RD, WEWOKA, OK, 74884",607548296,"R"
187596,"36456 LAKE BEND AVE","PRAIRIEVILLE","LA",70769,30.277459956,-90.9914872109999,96,"36456 LAKE BEND AVE, PRAIRIEVILLE, LA, 70769","Match","Exact","36456 LAKE BEND AVE, PRAIRIEVILLE, LA, 70769",648968036,"R"
187597,"3646 ARDEN BLVD","YOUNGSTOWN","OH",44511,41.063316883,-80.684032795,97,"3646 ARDEN BLVD, YOUNGSTOWN, OH, 44511","Match","Exact","3646 ARDEN BLVD, YOUNGSTOWN, OH, 44511",64594887,"R"
187598,"3646 GRAND CENTRAL AVENUE","FULTONDALE","AL",35068,33.611138786,-86.790929123,98,"3646 GRAND CENTRAL AVENUE, FULTONDALE, AL, 35068","Match","Exact","3646 GRAND CENTRAL AVE, FULTONDALE, AL, 35068",646665615,"L"
187599,"3646 HIGHLAND GLEN WAY W","JACKONVILLE","FL",32224,NA,NA,99,"3646 HIGHLAND GLEN WAY W, JACKONVILLE, FL, 32224","No_Match",NA,NA,NA,NA
187600,"3646 HIGHWAY 115","HESSMER","LA",71341,31.036194111,-92.144457254,100,"3646 HIGHWAY 115, HESSMER, LA, 71341","Match","Exact","3646 HWY 115, HESSMER, LA, 71341",607517528,"L"
187601,"3646 JOY LANE","WALDORF","MD",20603,38.638250627,-76.9320747579999,101,"3646 JOY LANE, WALDORF, MD, 20603","Match","Exact","3646 JOY LN, WALDORF, MD, 20603",25377671,"R"
187602,"3646 KALAMAZOO AVE SE","GRAND RAPIDS","MI",49508,42.8970129510001,-85.626654776,102,"3646 KALAMAZOO AVE SE, GRAND RAPIDS, MI, 49508","Match","Exact","3646 KALAMAZOO AVE SE, GRAND RAPIDS, MI, 49508",651914272,"L"
187603,"3646 MIDWAY ROAD","HERMANTOWN","MN",55810,46.7744330290001,-92.280095097,103,"3646 MIDWAY ROAD, HERMANTOWN, MN, 55810","Match","Exact","3646 MIDWAY RD, HERMANTOWN, MN, 55810",163207823,"L"
187604,"3646 NE BAHIA VISTA DRIVE","BREMERTON","WA",98310,47.5941197610001,-122.594764856,104,"3646 NE BAHIA VISTA DRIVE, BREMERTON, WA, 98310","Match","Exact","3646 NE BAHIA VISTA DR, BREMERTON, WA, 98310",187650197,"R"
187605,"3646 NEOSHO ST APT 2E","SAINT LOUIS","MO",63116,38.5763665920001,-90.249246038,105,"3646 NEOSHO ST APT 2E, SAINT LOUIS, MO, 63116","Match","Exact","3646 NEOSHO ST, SAINT LOUIS, MO, 63116",107601764,"L"
187606,"3646 OCEAN RANCH BLVD","OCEANSIDE","CA",92056,NA,NA,106,"3646 OCEAN RANCH BLVD, OCEANSIDE, CA, 92056","Tie",NA,NA,NA,NA
187607,"3646 PEREGRINE DRIVE","CORONA","CA",92881,33.8301958370001,-117.554867799,107,"3646 PEREGRINE DRIVE, CORONA, CA, 92881","Match","Exact","3646 PEREGRINE DR, CORONA, CA, 92881",194835700,"L"
187608,"3646 REYNARD WAY","SAN DIEGO","CA",92103,32.744097772,-117.17142712,108,"3646 REYNARD WAY, SAN DIEGO, CA, 92103","Match","Exact","3646 REYNARD WAY, SAN DIEGO, CA, 92103",651641143,"L"
187609,"3646 S 700 E","SALT LAKE CITY","UT",84106,40.69191663,-111.871355972,109,"3646 S 700 E, SALT LAKE CITY, UT, 84106","Match","Exact","3646 S 700 E, SALT LAKE CITY, UT, 84106",176120485,"R"
187610,"3646 W FIFTH STREET","WELLSBURG","NY",14894,42.0127743210001,-76.7290554159999,110,"3646 W FIFTH STREET, WELLSBURG, NY, 14894","Match","Exact","3646 W 5TH ST, WELLSBURG, NY, 14894",18540396,"L"
187611,"36466 HESKETT LN","PURCELLVILLE","VA",20132,39.2166749040001,-77.740975416,111,"36466 HESKETT LN, PURCELLVILLE, VA, 20132","Match","Exact","36466 HESKETT LN, PURCELLVILLE, VA, 20132",218946312,"L"
187612,"36469 DIJON DR","NEWARK","CA",94560,NA,NA,112,"36469 DIJON DR, NEWARK, CA, 94560","No_Match",NA,NA,NA,NA
187613,"3647 BRADLEY AVENUE","HUNTINGTON","WV",25704,38.4013768610001,-82.50852664,113,"3647 BRADLEY AVENUE, HUNTINGTON, WV, 25704","Match","Non_Exact","3647 BRADLEY RD, HUNTINGTON, WV, 25704",57202875,"L"
187614,"3647 BROADMEAD","HOUSTON","TX",77025,29.6898333840001,-95.4327974349999,114,"3647 BROADMEAD, HOUSTON, TX, 77025","Match","Non_Exact","3647 BROADMEAD DR, HOUSTON, TX, 77025",96086911,"L"
187615,"3647 CHURCH ST","SLAUGHTER","LA",70777,30.717682209,-91.142210125,115,"3647 CHURCH ST, SLAUGHTER, LA, 70777","Match","Exact","3647 CHURCH ST, SLAUGHTER, LA, 70777",75686427,"R"
187616,"3647 W 200 N","HUNTINGTON","IN",46750,40.859187954,-85.523611859,116,"3647 W 200 N, HUNTINGTON, IN, 46750","Match","Exact","3647 W 200 N, HUNTINGTON, IN, 46750",639600767,"L"
187617,"3647 W 85TH ST","CHICAGO","IL",60652,41.738645746,-87.7138323199999,117,"3647 W 85TH ST, CHICAGO, IL, 60652","Match","Exact","3647 W 85TH ST, CHICAGO, IL, 60652",616791813,"L"
187618,"3647 W FOSTER AVE","CHICAGO","IL",60625,41.975616057,-87.719865484,118,"3647 W FOSTER AVE, CHICAGO, IL, 60625","Match","Exact","3647 W FOSTER AVE, CHICAGO, IL, 60625",641756774,"L"
187619,"36470 JIM DAHLER RD","SOLDOTNA","AK",99669,60.510274924,-150.940541417,119,"36470 JIM DAHLER RD, SOLDOTNA, AK, 99669","Match","Exact","36470 JIM DAHLER RD, SOLDOTNA, AK, 99669",627008031,"L"
187620,"36470 N 12TH STREET","PHOENIX","AZ",85086,33.816860483,-112.056594963,120,"36470 N 12TH STREET, PHOENIX, AZ, 85086","Match","Exact","36470 N 12TH ST, PHOENIX, AZ, 85086",648283927,"L"
187621,"36475 DETROIT ROAD","AVON","OH",44011,41.456076603,-82.028978404,121,"36475 DETROIT ROAD, AVON, OH, 44011","Match","Exact","36475 DETROIT RD, AVON, OH, 44011",629473680,"L"
187622,"3648 BELLA LEGATO AVE","NLV","NV",89139,36.259293353,-115.094711078,122,"3648 BELLA LEGATO AVE, NLV, NV, 89139","Match","Non_Exact","3648 BELLA LEGATO AVE, N LAS VEGAS, NV, 89081",626861115,"R"
187623,"3648 COUNTY ROAD 496","ISHPEMING","MI",49849,46.488039558,-87.7623599679999,123,"3648 COUNTY ROAD 496, ISHPEMING, MI, 49849","Match","Exact","3648 CO RD 496, ISHPEMING, MI, 49849",651729531,"R"
187624,"3648 E LONGRIDGE DR","VILLA PARK","CA",92867,33.825526548,-117.81530892,124,"3648 E LONGRIDGE DR, VILLA PARK, CA, 92867","Match","Exact","3648 E LONGRIDGE DR, VILLA PARK, CA, 92867",144120338,"R"
187625,"3648 FAIRESTA ST","GLENDALE","CA",91214,34.237467383,-118.258429678,125,"3648 FAIRESTA ST, GLENDALE, CA, 91214","Match","Exact","3648 FAIRESTA ST, GLENDALE, CA, 91214",141589153,"L"
187626,"3648 FAWN LILY LANE","SAN BERNARDINO","CA",92407,34.185044299,-117.41994418,126,"3648 FAWN LILY LANE, SAN BERNARDINO, CA, 92407","Match","Exact","3648 FAWN LILY LN, SAN BERNARDINO, CA, 92407",650226862,"L"
187627,"3648 MAGNOLIA LANE","BACONTON","GA",31716,31.4019007640001,-84.103391229,127,"3648 MAGNOLIA LANE, BACONTON, GA, 31716","Match","Exact","3648 MAGNOLIA LN, BACONTON, GA, 31716",84156373,"L"
187628,"3648 NESSA COURT SE","SMYRNA","GA",30082,33.8659430430001,-84.554498473,128,"3648 NESSA COURT SE, SMYRNA, GA, 30082","Match","Non_Exact","3648 NESSA CT, SMYRNA, GA, 30082",17187556,"R"
187629,"3648 PARKSTONE WAY","CLOVIS","CA",93619,36.801382415,-119.64024545,129,"3648 PARKSTONE WAY, CLOVIS, CA, 93619","Match","Exact","3648 PARKSTONE WAY, CLOVIS, CA, 93619",651905137,"R"
187630,"3648 SALARY ST","MONTGOMERY","AL",36110,32.429368567,-86.2117731439999,130,"3648 SALARY ST, MONTGOMERY, AL, 36110","Match","Exact","3648 SALARY ST, MONTGOMERY, AL, 36110",1472346,"R"
187631,"3648 THORNBROOK DR","GREENVILLE","NC",27834,35.560511187,-77.401831182,131,"3648 THORNBROOK DR, GREENVILLE, NC, 27834","Match","Exact","3648 THORNBROOK DR, GREENVILLE, NC, 27834",636302510,"L"
187632,"3648 WRIGHT TERRACE","WASHINGTON","DC",20018,38.9234507560001,-76.955479883,132,"3648 WRIGHT TERRACE, WASHINGTON, DC, 20018","Match","Non_Exact","3648 WRIGHT TER NE, WASHINGTON, DC, 20018",649878372,"L"
187633,"3649 CLAY AVE","ST LOUIS","MO",63115,38.664809829,-90.2270974159999,133,"3649 CLAY AVE, ST LOUIS, MO, 63115","Match","Exact","3649 CLAY AVE, SAINT LOUIS, MO, 63115",606634197,"L"
187634,"3649 COUNTY ROAD 329","PALMYRA","MO",63461,39.815446277,-91.5437270529999,134,"3649 COUNTY ROAD 329, PALMYRA, MO, 63461","Match","Exact","3649 CO RD 329, PALMYRA, MO, 63461",35346117,"R"
187635,"3649 EAST 65TH STREET","CLEVELAND","OH",44105,41.45870554,-81.644984686,135,"3649 EAST 65TH STREET, CLEVELAND, OH, 44105","Match","Exact","3649 E 65TH ST, CLEVELAND, OH, 44105",61118110,"L"
187636,"3649 GAMBRELL LANE NE","BROOKHAVEN","GA",30319,33.8948511410001,-84.3207520189999,136,"3649 GAMBRELL LANE NE, BROOKHAVEN, GA, 30319","Match","Non_Exact","3649 GAMBRELL LN, BROOKHAVEN, GA, 30319",619387546,"R"
187637,"3649 HERITAGE RIDGE LANE SW","MARIETTA","GA",30008,33.86507858,-84.598462295,137,"3649 HERITAGE RIDGE LANE SW, MARIETTA, GA, 30008","Match","Exact","3649 HERITAGE RIDGE LN SW, MARIETTA, GA, 30008",17224851,"R"
187638,"3649 LAKE LYNN DRIVE","GRETNA","LA",70056,29.8553928860001,-90.027020278,138,"3649 LAKE LYNN DRIVE, GRETNA, LA, 70056","Match","Non_Exact","3649 LAKE LYNN, GRETNA, LA, 70056",93525120,"R"
187639,"3649 LEOPARD ST STE 413","CORPUS CHRISTI","TX",78408,27.797254421,-97.430916901,139,"3649 LEOPARD ST STE 413, CORPUS CHRISTI, TX, 78408","Match","Exact","3649 LEOPARD ST, CORPUS CHRISTI, TX, 78408",647424912,"L"
187640,"3649 NIHIPALI PL","HONOLULU","HI",96816,21.295454615,-157.791513853,140,"3649 NIHIPALI PL, HONOLULU, HI, 96816","Match","Exact","3649 NIHIPALI PL, HONOLULU, HI, 96816",203242913,"R"
187641,"3649 RUSHWOOD COURT","WICHITA","KS",67226,37.7494073500001,-97.257696003,141,"3649 RUSHWOOD COURT, WICHITA, KS, 67226","Match","Exact","3649 RUSHWOOD CT, WICHITA, KS, 67226",115680931,"R"
187642,"3649 S COLT DRIVE","GILBERT","AZ",85297,33.2839593050001,-111.717787263,142,"3649 S COLT DRIVE, GILBERT, AZ, 85297","Match","Exact","3649 S COLT DR, GILBERT, AZ, 85297",128822751,"L"
187643,"3649 SE BELMONT","PORTLAND","OR",97214,NA,NA,143,"3649 SE BELMONT, PORTLAND, OR, 97214","No_Match",NA,NA,NA,NA
187644,"3649 SPRING BRANCH RD","BAXLEY","GA",31513,31.877919369,-82.333888244,144,"3649 SPRING BRANCH RD, BAXLEY, GA, 31513","Match","Exact","3649 SPRING BRANCH RD, BAXLEY, GA, 31513",4488721,"L"
187645,"3649 VENTURA CLUB CIRCLE","ORLANDO","FL",32822,28.505851493,-81.297614686,145,"3649 VENTURA CLUB CIRCLE, ORLANDO, FL, 32822","Match","Exact","3649 VENTURA CLUB CIR, ORLANDO, FL, 32822",94341258,"R"
187646,"36491YAMAS DR UNIT 2003","WILDOMAR","CA",92595,NA,NA,146,"36491YAMAS DR UNIT 2003, WILDOMAR, CA, 92595","No_Match",NA,NA,NA,NA
187647,"365 2ND ST","JERSEY CITY","NJ",7302,40.722997832,-74.0503081909999,147,"365 2ND ST, JERSEY CITY, NJ, 7302","Match","Exact","365 2ND ST, JERSEY CITY, NJ, 07302",59616596,"L"
187648,"365 2ND ST","NATCHITOCHES","LA",71457,31.7572460860001,-93.0898581769999,148,"365 2ND ST, NATCHITOCHES, LA, 71457","Match","Exact","365 2ND ST, NATCHITOCHES, LA, 71457",13350448,"R"
187649,"365 7TH STREET SOUTH","SAINT PETERSBURG","FL",33701,27.7674356750001,-82.643278795,149,"365 7TH STREET SOUTH, SAINT PETERSBURG, FL, 33701","Match","Exact","365 7TH ST S, SAINT PETERSBURG, FL, 33701",124708146,"R"
187650,"365 B SEWALL STREET","LUDLOW","MA",1056,42.1655788310001,-72.4810127649999,150,"365 B SEWALL STREET, LUDLOW, MA, 1056","Match","Exact","365 SEWALL ST, LUDLOW, MA, 01056",4025993,"L"
187651,"365 BARDEN PARKWAY","CASTROVILLE","TX",78009,29.427132407,-98.83635555,151,"365 BARDEN PARKWAY, CASTROVILLE, TX, 78009","Match","Exact","365 BARDEN PKWY, CASTROVILLE, TX, 78009",651874409,"L"
187652,"365 BAY RIDGE PARKWAY","BROOKLYN","NY",11209,40.631061835,-74.026077577,152,"365 BAY RIDGE PARKWAY, BROOKLYN, NY, 11209","Match","Exact","365 BAY RIDGE PKWY, BROOKLYN, NY, 11209",59094269,"L"
187653,"365 BEALE AVE","ST AUGUSTINE","FL",32092,30.03058065,-81.568732105,153,"365 BEALE AVE, ST AUGUSTINE, FL, 32092","Match","Exact","365 BEALE AVE, SAINT AUGUSTINE, FL, 32092",652184247,"L"
187654,"365 BOND ST B318","BROOKLYN","NY",11231,40.678061391,-73.990936265,154,"365 BOND ST B318, BROOKLYN, NY, 11231","Match","Exact","365 BOND ST, BROOKLYN, NY, 11231",59075572,"L"
187655,"365 BOWERS ROAD","TROY","IL",62294,38.670314551,-89.88937321,155,"365 BOWERS ROAD, TROY, IL, 62294","Match","Exact","365 BOWERS RD, TROY, IL, 62294",107744744,"L"
187656,"365 BRIDGE STREET 3PRO","BROOKLYN","NY",11201,40.6922746930001,-73.985264216,156,"365 BRIDGE STREET 3PRO, BROOKLYN, NY, 11201","Match","Exact","365 BRIDGE ST, BROOKLYN, NY, 11201",639414323,"L"
187657,"365 BRIDGE STREET APT 10N","BROOKLYN","NY",11201,40.6922746930001,-73.985264216,157,"365 BRIDGE STREET APT 10N, BROOKLYN, NY, 11201","Match","Exact","365 BRIDGE ST, BROOKLYN, NY, 11201",639414323,"L"
187658,"365 BRIGGS ROAD","WESTPORT","MA",2790,41.6477595470001,-71.1089657529999,158,"365 BRIGGS ROAD, WESTPORT, MA, 2790","Match","Exact","365 BRIGGS RD, WESTPORT, MA, 02790",649755220,"L"
187659,"365 CANAL STREET SUITE 2000","NEW ORLEANS","LA",20130,29.951193636,-90.065849354,159,"365 CANAL STREET SUITE 2000, NEW ORLEANS, LA, 20130","Match","Non_Exact","365 CANAL ST, NEW ORLEANS, LA, 70130",191714480,"R"
187660,"365 CASTLETON CIRCLE","BOILING SPRINGS","SC",29316,NA,NA,160,"365 CASTLETON CIRCLE, BOILING SPRINGS, SC, 29316","No_Match",NA,NA,NA,NA
187661,"365 CHAPEL HILL LANE RD","WAXAHACHIE","TX",75165,32.481097258,-96.7617757949999,161,"365 CHAPEL HILL LANE RD, WAXAHACHIE, TX, 75165","Match","Exact","365 CHAPEL HILL LN, WAXAHACHIE, TX, 75165",103481613,"L"
187662,"365 CLEARLAKE DR","LA VERGNE","TN",37086,36.0566821940001,-86.545015918,162,"365 CLEARLAKE DR, LA VERGNE, TN, 37086","Match","Exact","365 CLEARLAKE DR, LA VERGNE, TN, 37086",645531302,"L"
187663,"365 COUNTY ROAD 2281","EUREKA SPRINGS","AR",72631,NA,NA,163,"365 COUNTY ROAD 2281, EUREKA SPRINGS, AR, 72631","No_Match",NA,NA,NA,NA
187664,"365 COUNTY ROAD 301","NACOGDOCHES","TX",75961,31.609759475,-94.533537662,164,"365 COUNTY ROAD 301, NACOGDOCHES, TX, 75961","Match","Exact","365 CO RD 301, NACOGDOCHES, TX, 75961",72437984,"L"
187665,"365 CRABTREE MOUNTAIN ROAD","CANTON","NC",28716,35.5610355470001,-82.857952326,165,"365 CRABTREE MOUNTAIN ROAD, CANTON, NC, 28716","Match","Exact","365 CRABTREE MOUNTAIN RD, CANTON, NC, 28716",151825661,"L"
187666,"365 DECATUR STREET","BROOKLYN","NY",11233,40.681918701,-73.929374815,166,"365 DECATUR STREET, BROOKLYN, NY, 11233","Match","Exact","365 DECATUR ST, BROOKLYN, NY, 11233",59082793,"L"
187667,"365 DEPUTY LN UNIT A","NEWPORT NEWS","VA",23608,37.1443536040001,-76.5356314319999,167,"365 DEPUTY LN UNIT A, NEWPORT NEWS, VA, 23608","Match","Exact","365 DEPUTY LN, NEWPORT NEWS, VA, 23608",103822748,"R"
187668,"365 DEVON DRIVE","EXTON","PA",19341,40.0432988750001,-75.64744739,168,"365 DEVON DRIVE, EXTON, PA, 19341","Match","Exact","365 DEVON DR, EXTON, PA, 19341",179487411,"R"
187669,"365 DEWDROP RD","YORK","PA",17402,39.924053112,-76.6831586709999,169,"365 DEWDROP RD, YORK, PA, 17402","Match","Non_Exact","365 DEW DROP RD, YORK, PA, 17402",611430683,"L"
187670,"365 DURAY COURT","JACKSONVILLE","FL",32208,30.3801553280001,-81.658790364,170,"365 DURAY COURT, JACKSONVILLE, FL, 32208","Match","Exact","365 DURAY CT, JACKSONVILLE, FL, 32208",83897643,"R"
187671,"365 E 53RD ST","BROOKLYN","NY",11203,40.6511972340001,-73.927384342,171,"365 E 53RD ST, BROOKLYN, NY, 11203","Match","Exact","365 E 53RD ST, BROOKLYN, NY, 11203",59085747,"L"
187672,"365 E AVENIDA DE LOS ARBOLES","THOUSAND OAKS","CA",91360,34.217769294,-118.870161016,172,"365 E AVENIDA DE LOS ARBOLES, THOUSAND OAKS, CA, 91360","Match","Exact","365 E AVE DE LOS ARBOLES, THOUSAND OAKS, CA, 91360",109975072,"L"
187673,"365 EAST FREEHOLD ROAD","FREEHOLD","NJ",7728,40.272382787,-74.2477771809999,173,"365 EAST FREEHOLD ROAD, FREEHOLD, NJ, 7728","Match","Exact","365 E FREEHOLD RD, FREEHOLD, NJ, 07728",653263646,"L"
187674,"365 EVANS ST","ERIE","CO",80516,40.052801247,-105.049401446,174,"365 EVANS ST, ERIE, CO, 80516","Match","Exact","365 EVANS ST, ERIE, CO, 80516",188733393,"L"
187675,"365 FAIRFAX DR","WINSTON SALEM","NC",27104,36.093322432,-80.293461973,175,"365 FAIRFAX DR, WINSTON SALEM, NC, 27104","Match","Exact","365 FAIRFAX DR, WINSTON SALEM, NC, 27104",84679365,"L"
187676,"365 FIFTH AVE S SUITE 200","NAPLES","FL",34102,NA,NA,176,"365 FIFTH AVE S SUITE 200, NAPLES, FL, 34102","No_Match",NA,NA,NA,NA
187677,"365 FLORENCE AVENUE","OAKLAND","CA",94618,37.8391639710001,-122.228339409,177,"365 FLORENCE AVENUE, OAKLAND, CA, 94618","Match","Exact","365 FLORENCE AVE, OAKLAND, CA, 94618",125080539,"R"
187678,"365 GOLF ROAD","REINHOLDS","PA",17569,40.298052275,-76.1195959839999,178,"365 GOLF ROAD, REINHOLDS, PA, 17569","Match","Exact","365 GOLF RD, REINHOLDS, PA, 17569",80429280,"R"
187679,"365 GRAND STREET","NEW YORK","NY",10002,40.7166246620001,-73.9889121269999,179,"365 GRAND STREET, NEW YORK, NY, 10002","Match","Exact","365 GRAND ST, NEW YORK, NY, 10002",59654286,"R"
187680,"365 HIGH POINT CV","STATE COLLEGE","PA",16801,40.773632063,-77.870043202,180,"365 HIGH POINT CV, STATE COLLEGE, PA, 16801","Match","Exact","365 HIGH POINT COVE, STATE COLLEGE, PA, 16801",50378756,"L"
187681,"365 JOG ROAD","WEST PALM BEACH","FL",33415,26.6758668190001,-80.145197292,181,"365 JOG ROAD, WEST PALM BEACH, FL, 33415","Match","Non_Exact","365 JOG RD, WEST PALM BEACH, FL, 33413",115487458,"R"
187682,"365 JONES RD","CORDOVA","AL",35550,33.7837564590001,-87.155034417,182,"365 JONES RD, CORDOVA, AL, 35550","Match","Exact","365 JONES RD, CORDOVA, AL, 35550",120574832,"R"
187683,"365 KINGSTON AVE","BROOKLYN","NY",11213,40.666470351,-73.942458427,183,"365 KINGSTON AVE, BROOKLYN, NY, 11213","Match","Exact","365 KINGSTON AVE, BROOKLYN, NY, 11213",642653979,"L"
187684,"365 LEATHER LEAF","LEBANON","OH",45036,39.413670246,-84.213686918,184,"365 LEATHER LEAF, LEBANON, OH, 45036","Match","Non_Exact","365 LEATHER LEAF LN, LEBANON, OH, 45036",159044221,"R"
187685,"365 LOAR RD SE","SILVERTON","OR",97381,44.9261453990001,-122.66705029,185,"365 LOAR RD SE, SILVERTON, OR, 97381","Match","Exact","365 LOAR RD SE, SILVERTON, OR, 97381",613684705,"R"
187686,"365 LYNWOOD DR","SEVERNA PARK","MD",21146,39.086117734,-76.589685292,186,"365 LYNWOOD DR, SEVERNA PARK, MD, 21146","Match","Exact","365 LYNWOOD DR, SEVERNA PARK, MD, 21146",68191289,"L"
187687,"365 MAPLE CREEK ROAD","RUTHEFORDTON","NC",28139,35.3762328830001,-81.971437424,187,"365 MAPLE CREEK ROAD, RUTHEFORDTON, NC, 28139","Match","Non_Exact","365 MAPLE CREEK RD, RUTHERFORDTON, NC, 28139",636816562,"L"
187688,"365 MARION OAKS DRIVE","OCALA","FL",34473,29.0080057910001,-82.191475054,188,"365 MARION OAKS DRIVE, OCALA, FL, 34473","Match","Exact","365 MARION OAKS DR, OCALA, FL, 34473",116718396,"R"
187689,"365 MATHER STREET UNIT 15","HAMDEN","CT",6514,41.3577841630001,-72.9227489739999,189,"365 MATHER STREET UNIT 15, HAMDEN, CT, 6514","Match","Exact","365 MATHER ST, HAMDEN, CT, 06514",3699298,"R"
187690,"365 MISSION COURT","ST LOUIS","MO",63130,38.653626414,-90.332544715,190,"365 MISSION COURT, ST LOUIS, MO, 63130","Match","Exact","365 MISSION CT, SAINT LOUIS, MO, 63130",100135568,"L"
187691,"365 MORNINGSIDE DR","SARASOTA","FL",34236,27.327041281,-82.583690108,191,"365 MORNINGSIDE DR, SARASOTA, FL, 34236","Match","Exact","365 MORNINGSIDE DR, SARASOTA, FL, 34236",16347534,"L"
187692,"365 N 3RD STREET","LARAMIE","WY",82072,41.3153953880001,-105.593131813,192,"365 N 3RD STREET, LARAMIE, WY, 82072","Match","Exact","365 N 3RD ST, LARAMIE, WY, 82072",168754651,"R"
187693,"365 N 5TH ST","MONROE","OR",97456,44.3183504580001,-123.297896225,193,"365 N 5TH ST, MONROE, OR, 97456","Match","Exact","365 N 5TH ST, MONROE, OR, 97456",155873612,"R"
187694,"365 N CENTER STREET","SALT LAKE CITY","UT",84103,40.777662456,-111.893489299,194,"365 N CENTER STREET, SALT LAKE CITY, UT, 84103","Match","Exact","365 N CENTER ST, SALT LAKE CITY, UT, 84103",176067223,"L"
187695,"365 N HALSTED ST APT 2906","CHICAGO","IL",60661,NA,NA,195,"365 N HALSTED ST APT 2906, CHICAGO, IL, 60661","Tie",NA,NA,NA,NA
187696,"365 N MAIN ST","SMYRNA","DE",19977,39.3049686700001,-75.6125432379999,196,"365 N MAIN ST, SMYRNA, DE, 19977","Match","Exact","365 N MAIN ST, SMYRNA, DE, 19977",648167926,"L"
187697,"365 N OAKHURST DR APT 21","AURORA","IL",60504,NA,NA,197,"365 N OAKHURST DR APT 21, AURORA, IL, 60504","Tie",NA,NA,NA,NA
187698,"365 NE 9TH PLACE","HILLSBORO","OR",97124,45.5252035840001,-122.974518902,198,"365 NE 9TH PLACE, HILLSBORO, OR, 97124","Match","Exact","365 NE 9TH PL, HILLSBORO, OR, 97124",158178865,"L"
187699,"365 NEW HOPE RD STE 6","GASTONIA","NC",28054,NA,NA,199,"365 NEW HOPE RD STE 6, GASTONIA, NC, 28054","No_Match",NA,NA,NA,NA
187700,"365 NORTH AVE B-23 RES ASSOC OFF","ATLANTA","GA",30308,NA,NA,200,"365 NORTH AVE B-23 RES ASSOC OFF, ATLANTA, GA, 30308","No_Match",NA,NA,NA,NA
187701,"365 OCEAN HOUSE ROAD","CAPE ELIZABETH","ME",4107,43.589121199,-70.225690382,201,"365 OCEAN HOUSE ROAD, CAPE ELIZABETH, ME, 4107","Match","Exact","365 OCEAN HOUSE RD, CAPE ELIZABETH, ME, 04107",78061804,"R"
187702,"365 OLD BARNSTABLE ROAD","E. FALMOUTH","MA",2536,41.5938860160001,-70.5545706139999,202,"365 OLD BARNSTABLE ROAD, E. FALMOUTH, MA, 2536","Match","Exact","365 OLD BARNSTABLE RD, EAST FALMOUTH, MA, 02536",624683771,"R"
187703,"365 PECK STREET","NEW HAVEN","CT",6513,41.3154293330001,-72.901901424,203,"365 PECK STREET, NEW HAVEN, CT, 6513","Match","Exact","365 PECK ST, NEW HAVEN, CT, 06513",3703606,"R"
187704,"365 RAIDER WAY","BOLINGBROOK","IL",60440,41.6879756370001,-88.0896684639999,204,"365 RAIDER WAY, BOLINGBROOK, IL, 60440","Match","Exact","365 RAIDER WAY, BOLINGBROOK, IL, 60440",641300722,"L"
187705,"365 RIFLE CAMP ROAD","WOODLAND PARK","NJ",7424,40.890974343,-74.1875039889999,205,"365 RIFLE CAMP ROAD, WOODLAND PARK, NJ, 7424","Match","Exact","365 RIFLE CAMP RD, WOODLAND PARK, NJ, 07424",641146360,"L"
187706,"365 RIVER FERN DR 3101","GARLAND","TX",75040,32.9537144970001,-96.609817334,206,"365 RIVER FERN DR 3101, GARLAND, TX, 75040","Match","Exact","365 RIVER FERN DR, GARLAND, TX, 75040",646564442,"R"
187707,"365 RIVERDALE DR","NORTHFIELD","IL",60093,42.1175185380001,-87.789425705,207,"365 RIVERDALE DR, NORTHFIELD, IL, 60093","Match","Exact","365 RIVERDALE DR, NORTHFIELD, IL, 60093",112386591,"L"
187708,"365 RIVERS RIDGE CIRCLE","NEWPORT NEWS","VA",23608,37.166038681,-76.564494135,208,"365 RIVERS RIDGE CIRCLE, NEWPORT NEWS, VA, 23608","Match","Exact","365 RIVERS RIDGE CIR, NEWPORT NEWS, VA, 23608",103821424,"L"
187709,"365 S 10TH ST","GROVER BEACH","CA",93433,35.118699744,-120.619184652,209,"365 S 10TH ST, GROVER BEACH, CA, 93433","Match","Exact","365 S 10TH ST, GROVER BEACH, CA, 93433",109741787,"R"
187710,"365 S 1370 E","TOOELE","UT",84074,40.523995783,-112.269617065,210,"365 S 1370 E, TOOELE, UT, 84074","Match","Exact","365 S 1370 E, TOOELE, UT, 84074",617535683,"L"
187711,"365 S ARBOLEDA ST","CLEWISTON","FL",33440,26.626459853,-81.125798658,211,"365 S ARBOLEDA ST, CLEWISTON, FL, 33440","Match","Exact","365 S ARBOLEDA ST, CLEWISTON, FL, 33440",4513857,"L"
187712,"365 S STATE STREET","FERRON","UT",84523,39.085793693,-111.131925609,212,"365 S STATE STREET, FERRON, UT, 84523","Match","Exact","365 STATE ST, FERRON, UT, 84523",615438292,"R"
187713,"365 SACKMAN STREET","BROOKLYN","NY",11212,40.6688464210001,-73.904674429,213,"365 SACKMAN STREET, BROOKLYN, NY, 11212","Match","Exact","365 SACKMAN ST, BROOKLYN, NY, 11212",59084576,"L"
187714,"365 SCHILLINGS CROSSING ROAD","EAST CHATHAM","NY",12060,42.4125813590001,-73.469689746,214,"365 SCHILLINGS CROSSING ROAD, EAST CHATHAM, NY, 12060","Match","Exact","365 SCHILLINGS CROSSING RD, EAST CHATHAM, NY, 12060",41484079,"L"
187715,"365 SCHOOL AVENUE","WASKOM","TX",75692,32.4779569880001,-94.062643017,215,"365 SCHOOL AVENUE, WASKOM, TX, 75692","Match","Exact","365 SCHOOL AVE, WASKOM, TX, 75692",141165750,"R"
187716,"365 SCHOOL STREET","YORK","PA",17402,39.928875528,-76.672491134,216,"365 SCHOOL STREET, YORK, PA, 17402","Match","Exact","365 SCHOOL ST, YORK, PA, 17402",88758270,"R"
187717,"365 SHAGBARK RD","TAUNTON","MA",2780,41.9169665840001,-71.1570005089999,217,"365 SHAGBARK RD, TAUNTON, MA, 2780","Match","Non_Exact","365 SHAG BARK RD, TAUNTON, MA, 02780",46777573,"R"
187718,"365 SHAWNEE LN","SUPERIOR","CO",80027,39.9566418840001,-105.177130842,218,"365 SHAWNEE LN, SUPERIOR, CO, 80027","Match","Exact","365 SHAWNEE LN, SUPERIOR, CO, 80027",188192465,"L"
187719,"365 SMITH RD","OSTEEN","FL",32764,28.839530558,-81.105692747,219,"365 SMITH RD, OSTEEN, FL, 32764","Match","Exact","365 SMITH RD, OSTEEN, FL, 32764",636388546,"L"
187720,"365 SONOMA LANE","MCDONOUGH","GA",30253,33.488897846,-84.155227267,220,"365 SONOMA LANE, MCDONOUGH, GA, 30253","Match","Exact","365 SONOMA LN, MCDONOUGH, GA, 30253",649151456,"L"
187721,"365 STEWART AVENUE","GARDEN CITY","NY",11530,40.7268848460001,-73.633251597,221,"365 STEWART AVENUE, GARDEN CITY, NY, 11530","Match","Exact","365 STEWART AVE, GARDEN CITY, NY, 11530",147673606,"L"
187722,"365 SUNSET RIDGE RD","CLEARFIELD","PA",16830,41.034537103,-78.459442447,222,"365 SUNSET RIDGE RD, CLEARFIELD, PA, 16830","Match","Exact","365 SUNSET RIDGE RD, CLEARFIELD, PA, 16830",50477284,"L"
187723,"365 TECHNOLOGY WAY","BOWLING GREEN","KY",42101,NA,NA,223,"365 TECHNOLOGY WAY, BOWLING GREEN, KY, 42101","No_Match",NA,NA,NA,NA
187724,"365 UPTOWN BLVD APT 5208","CEDAR HILL","TX",75104,32.5974865250001,-96.944567212,224,"365 UPTOWN BLVD APT 5208, CEDAR HILL, TX, 75104","Match","Exact","365 UPTOWN BLVD, CEDAR HILL, TX, 75104",627902588,"L"
187725,"365 W GARVEY AVE STE 102","MONTEREY PARK","CA",91754,34.0625395820001,-118.126985278,225,"365 W GARVEY AVE STE 102, MONTEREY PARK, CA, 91754","Match","Non_Exact","365 W GARVEY AVE, MONTEREY PARK, CA, 91754",141637109,"R"
187726,"365 WALNUT GLENN DRIVE","SPRINGFIELD","IL",62704,39.912340677,-89.663134215,226,"365 WALNUT GLENN DRIVE, SPRINGFIELD, IL, 62704","Match","Non_Exact","365 WALNUT GLEN DR, SPRINGFIELD, IL, 62707",653198696,"R"
187727,"365 WALNUT LANE","APPLE VALLEY","MN",55124,44.737676902,-93.246965786,227,"365 WALNUT LANE, APPLE VALLEY, MN, 55124","Match","Exact","365 WALNUT LN, APPLE VALLEY, MN, 55124",37906504,"L"
187728,"365 WASHINGTON AVENUE","CLIFTON","NJ",7011,40.875582744,-74.1570955019999,228,"365 WASHINGTON AVENUE, CLIFTON, NJ, 7011","Match","Exact","365 WASHINGTON AVE, CLIFTON, NJ, 07011",65266611,"L"
187729,"365 WEKIVA SPRINGS RD STE 251","LONGWOOD","FL",32779,28.691098556,-81.408720697,229,"365 WEKIVA SPRINGS RD STE 251, LONGWOOD, FL, 32779","Match","Exact","365 WEKIVA SPRINGS RD, LONGWOOD, FL, 32779",605416564,"L"
187730,"365 WEST 120 STREET","NEW YORK","NY",10027,40.807903133,-73.955673998,230,"365 WEST 120 STREET, NEW YORK, NY, 10027","Match","Exact","365 W 120TH ST, NEW YORK, NY, 10027",59656056,"R"
187731,"365 WEST CT","OAKLAND","CA",94580,37.7284321880001,-122.18112271,231,"365 WEST CT, OAKLAND, CA, 94580","Match","Non_Exact","365 WEST CT, OAKLAND, CA, 94603",125062076,"L"
187732,"365 WEST CT","OAKLAND","CA",94603,37.7284321880001,-122.18112271,232,"365 WEST CT, OAKLAND, CA, 94603","Match","Exact","365 WEST CT, OAKLAND, CA, 94603",125062076,"L"
187733,"365 WEST END AVENUE APARTMENT 3E","NEW YORK","NY",10024,40.78324129,-73.981977474,233,"365 WEST END AVENUE APARTMENT 3E, NEW YORK, NY, 10024","Match","Exact","365 W END AVE, NEW YORK, NY, 10024",59656643,"L"
187734,"365 WESTFIELD AVE","CLARK","NJ",7066,40.6224330790001,-74.310613212,234,"365 WESTFIELD AVE, CLARK, NJ, 7066","Match","Exact","365 WESTFIELD AVE, CLARK, NJ, 07066",60584683,"L"
187735,"365 WESTFIELD WAY","PEWAUKEE","WI",53072,43.0899296760001,-88.241530545,235,"365 WESTFIELD WAY, PEWAUKEE, WI, 53072","Match","Exact","365 WESTFIELD WAY, PEWAUKEE, WI, 53072",53843347,"L"
187736,"3650 34TH AVE WEST","SEATTLE","WA",98199,47.652771838,-122.400894824,236,"3650 34TH AVE WEST, SEATTLE, WA, 98199","Match","Exact","3650 34TH AVE W, SEATTLE, WA, 98199",186659367,"R"
187737,"3650 ASHFORD DUNWOODY RD UNIT 125","BROOKHAVEN","GA",30319,33.89805834,-84.3307224329999,237,"3650 ASHFORD DUNWOODY RD UNIT 125, BROOKHAVEN, GA, 30319","Match","Exact","3650 ASHFORD DUNWOODY RD, BROOKHAVEN, GA, 30319",23406890,"L"
187738,"3650 ASHFORD DUNWOODY RDNE UNIT 821","BROOKHAVEN","GA",30319,33.89805834,-84.3307224329999,238,"3650 ASHFORD DUNWOODY RDNE UNIT 821, BROOKHAVEN, GA, 30319","Match","Non_Exact","3650 ASHFORD DUNWOODY RD, BROOKHAVEN, GA, 30319",23406890,"L"
187739,"3650 BIG BEND DR","MEMPHIS","TN",38116,35.0490407550001,-90.000000514,239,"3650 BIG BEND DR, MEMPHIS, TN, 38116","Match","Non_Exact","3650 W BIG BEND DR, MEMPHIS, TN, 38116",72918868,"L"
187740,"3650 BORDER CREEK CT","DENVER","NC",28037,35.510761566,-80.9749431829999,240,"3650 BORDER CREEK CT, DENVER, NC, 28037","Match","Exact","3650 BORDER CREEK CT, DENVER, NC, 28037",69530969,"R"
187741,"3650 BOSTON ROAD STE 188","LEXINGTON","KY",40514,37.9805731870001,-84.551159478,241,"3650 BOSTON ROAD STE 188, LEXINGTON, KY, 40514","Match","Exact","3650 BOSTON RD, LEXINGTON, KY, 40514",618014566,"R"
187742,"3650 CANDLE GLEN","SAN ANTONIO","TX",78244,29.4576827650001,-98.367967678,242,"3650 CANDLE GLEN, SAN ANTONIO, TX, 78244","Match","Non_Exact","3650 CANDLEGLENN, SAN ANTONIO, TX, 78244",101703911,"L"
187743,"3650 CHESTNUT MEADOWS DR","DOUGLASSVILLE","GA",30135,33.741382494,-84.6942109189999,243,"3650 CHESTNUT MEADOWS DR, DOUGLASSVILLE, GA, 30135","Match","Non_Exact","3650 CHESTNUT MEADOWS DR, DOUGLASVILLE, GA, 30135",618470654,"L"
187744,"3650 CIRCLE 4 CT","BUTTE VALLEY","CA",95965,39.6410320250001,-121.640881878,244,"3650 CIRCLE 4 CT, BUTTE VALLEY, CA, 95965","Match","Exact","3650 CIRCLE 4 CT, BUTTE VALLEY, CA, 95965",68416275,"L"
187745,"3650 CLAIREMONT DR SUITE 8A","SAN DIEGO","CA",92115,32.8070197530001,-117.201040397,245,"3650 CLAIREMONT DR SUITE 8A, SAN DIEGO, CA, 92115","Match","Non_Exact","3650 CLAIREMONT DR, SAN DIEGO, CA, 92117",195680004,"L"
187746,"3650 CLUB DRIVE","LAWRENCEVILLE","GA",30044,33.941413552,-84.124074847,246,"3650 CLUB DRIVE, LAWRENCEVILLE, GA, 30044","Match","Exact","3650 CLUB DR, LAWRENCEVILLE, GA, 30044",637987519,"L"
187747,"3650 DARLING ROAD","GUTHRIE","OK",73044,NA,NA,247,"3650 DARLING ROAD, GUTHRIE, OK, 73044","No_Match",NA,NA,NA,NA
187748,"3650 DEPOT ROAD","ERIE","PA",16510,42.1478137650001,-79.939091114,248,"3650 DEPOT ROAD, ERIE, PA, 16510","Match","Exact","3650 DEPOT RD, ERIE, PA, 16510",648774984,"R"
187749,"3650 FORESTBROOK ROAD","MYRTLE BEACH","SC",29588,33.6943600320001,-79.002213599,249,"3650 FORESTBROOK ROAD, MYRTLE BEACH, SC, 29588","Match","Exact","3650 FORESTBROOK RD, MYRTLE BEACH, SC, 29588",639628794,"L"
187750,"3650 HARVEY PL","CASPER","WY",82601,NA,NA,250,"3650 HARVEY PL, CASPER, WY, 82601","No_Match",NA,NA,NA,NA
187751,"3650 HIGHWAY 19  SUITE C","ZACHARY","LA",70791,30.640637473,-91.153974815,251,"3650 HIGHWAY 19  SUITE C, ZACHARY, LA, 70791","Match","Non_Exact","3650 STATE RTE 19, ZACHARY, LA, 70791",92177287,"R"
187752,"3650 HOLLAND AVENUE","BRONX","NY",10467,40.8797155130001,-73.8634661689999,252,"3650 HOLLAND AVENUE, BRONX, NY, 10467","Match","Exact","3650 HOLLAND AVE, BRONX, NY, 10467",80297284,"R"
187753,"3650 HWY 395 N","SALEM","AR",72576,NA,NA,253,"3650 HWY 395 N, SALEM, AR, 72576","No_Match",NA,NA,NA,NA
187754,"3650 JOSEPH SIEWICK DRIVE","FAIRFAX","VA",22033,38.8840303530001,-77.378813786,254,"3650 JOSEPH SIEWICK DRIVE, FAIRFAX, VA, 22033","Match","Exact","3650 JOSEPH SIEWICK DR, FAIRFAX, VA, 22033",642144551,"R"
187755,"3650 KEENER RD W","MARION","OH",43302,40.5716692280001,-83.2282057319999,255,"3650 KEENER RD W, MARION, OH, 43302","Match","Non_Exact","3650 KEENER PIKE W, MARION, OH, 43302",12709389,"L"
187756,"3650 LINDELL BLVD PIUS XII LIBRARY","ST LOUIS","MO",63108,38.6377713360001,-90.235376767,256,"3650 LINDELL BLVD PIUS XII LIBRARY, ST LOUIS, MO, 63108","Match","Exact","3650 LINDELL BLVD, SAINT LOUIS, MO, 63108",639469524,"L"
187757,"3650 LONG LAKE DRIVE","DOUGLASVILLE","GA",30135,33.7070255690001,-84.741984325,257,"3650 LONG LAKE DRIVE, DOUGLASVILLE, GA, 30135","Match","Exact","3650 LONG LAKE DR, DOUGLASVILLE, GA, 30135",619853907,"L"
187758,"3650 MARTIN LUTHER KING BL 296","LOS ANGELES","CA",90008,34.011513795,-118.336503894,258,"3650 MARTIN LUTHER KING BL 296, LOS ANGELES, CA, 90008","Match","Non_Exact","3650 W MARTIN LUTHER KING JR BLVD, LOS ANGELES, CA, 90008",142452295,"L"
187759,"3650 MOUNTAIN COVE RD","SNELLVILLE","GA",30039,33.7895818870001,-84.060611539,259,"3650 MOUNTAIN COVE RD, SNELLVILLE, GA, 30039","Match","Exact","3650 MOUNTAIN COVE RD, SNELLVILLE, GA, 30039",88905912,"L"
187760,"3650 N 5TH STREET SUITE 100","NORTH LAS VEGAS","NV",89032,36.225957226,-115.133961333,260,"3650 N 5TH STREET SUITE 100, NORTH LAS VEGAS, NV, 89032","Match","Non_Exact","3650 N 5TH ST, N LAS VEGAS, NV, 89032",201944687,"L"
187761,"3650 N COASTAL HWY","FLEMING","GA",31309,31.848867995,-81.4071237209999,261,"3650 N COASTAL HWY, FLEMING, GA, 31309","Match","Exact","3650 N COASTAL HWY, FLEMING, GA, 31309",647796342,"L"
187762,"3650 N NINTH ST","PHILADELPHIA","PA",19140,40.0074639110001,-75.1429065409999,262,"3650 N NINTH ST, PHILADELPHIA, PA, 19140","Match","Non_Exact","3650 N 9TH ST, PHILADELPHIA, PA, 19140",131418578,"L"
187763,"3650 N RANCHO DR  STE 106","LAS VEGAS","NV",89130,36.2253085250001,-115.219450749,263,"3650 N RANCHO DR  STE 106, LAS VEGAS, NV, 89130","Match","Non_Exact","3650 N RANCHO DR, LAS VEGAS, NV, 89130",639333663,"R"
187764,"3650 NORTHWOOD DRIVE UNIT B","CONCORD","CA",94520,38.0007842040001,-122.039576781,264,"3650 NORTHWOOD DRIVE UNIT B, CONCORD, CA, 94520","Match","Exact","3650 NORTHWOOD DR, CONCORD, CA, 94520",607727045,"L"
187765,"3650 NW 4TH AVE","BOCA RATON","FL",33431,NA,NA,265,"3650 NW 4TH AVE, BOCA RATON, FL, 33431","Tie",NA,NA,NA,NA
187766,"3650 NW 82ND AVE SUITE 401","DORAL","FL",33166,25.8084351320001,-80.329334547,266,"3650 NW 82ND AVE SUITE 401, DORAL, FL, 33166","Match","Non_Exact","3650 NW 82ND AVE, DORAL, FL, 33166",647856228,"R"
187767,"3650 NW 82ND AVENUE","DORAL","FL",33166,25.8084351320001,-80.329334547,267,"3650 NW 82ND AVENUE, DORAL, FL, 33166","Match","Non_Exact","3650 NW 82ND AVE, DORAL, FL, 33166",647856228,"R"
187768,"3650 OAKDALE AVE","SAINT LOUIS","MO",63121,38.692695832,-90.281997872,268,"3650 OAKDALE AVE, SAINT LOUIS, MO, 63121","Match","Exact","3650 OAKDALE AVE, SAINT LOUIS, MO, 63121",100152725,"R"
187769,"3650 OLD POST CIR","SAN ANGELO","TX",76904,31.4328970980001,-100.486929521,269,"3650 OLD POST CIR, SAN ANGELO, TX, 76904","Match","Exact","3650 OLD POST CIR, SAN ANGELO, TX, 76904",190680424,"R"
187770,"3650 SAN REMO DR","SANTA BARBARA","CA",93105,34.442334556,-119.742054788,270,"3650 SAN REMO DR, SANTA BARBARA, CA, 93105","Match","Exact","3650 SAN REMO DR, SANTA BARBARA, CA, 93105",108603476,"R"
187771,"3650 SANGO ROAD","CLARKSVILLE","TN",37043,36.504977808,-87.209912735,271,"3650 SANGO ROAD, CLARKSVILLE, TN, 37043","Match","Exact","3650 SANGO RD, CLARKSVILLE, TN, 37043",651887733,"L"
187772,"3650 SEVERN RD","CLEVELAND HEIGHTS","OH",44118,41.5124308040001,-81.549139235,272,"3650 SEVERN RD, CLEVELAND HEIGHTS, OH, 44118","Match","Exact","3650 SEVERN RD, CLEVELAND HEIGHTS, OH, 44118",61125060,"R"
187773,"3650 SOUTH EASTERN AVENUE 100-M","LAS VEGAS","NV",89169,36.123713954,-115.118780094,273,"3650 SOUTH EASTERN AVENUE 100-M, LAS VEGAS, NV, 89169","Match","Exact","3650 S EASTERN AVE, LAS VEGAS, NV, 89169",201871576,"L"
187774,"3650 SOUTH STOCKENHAM AVE","MERIDIAN","ID",83642,43.5716508520001,-116.345164756,274,"3650 SOUTH STOCKENHAM AVE, MERIDIAN, ID, 83642","Match","Exact","3650 S STOCKENHAM AVE, MERIDIAN, ID, 83642",641523464,"L"
187775,"3650 SPENCEVILLE RD","WHEATLAND","CA",95692,39.0691973850001,-121.353884057,275,"3650 SPENCEVILLE RD, WHEATLAND, CA, 95692","Match","Exact","3650 SPENCEVILLE RD, WHEATLAND, CA, 95692",635512170,"L"
187776,"3650 WILCOX DRIVE","PEARL","MS",39208,32.2903385610001,-90.0986070009999,276,"3650 WILCOX DRIVE, PEARL, MS, 39208","Match","Exact","3650 WILCOX DR, PEARL, MS, 39208",116906534,"R"
187777,"3650 WISCONSIN","ST LOUIS","MO",63118,38.588192366,-90.221816808,277,"3650 WISCONSIN, ST LOUIS, MO, 63118","Match","Non_Exact","3650 WISCONSIN AVE, SAINT LOUIS, MO, 63118",107602755,"L"
187778,"36500 31 MILE RD","LENOX","MI",48050,42.794642959,-82.748156663,278,"36500 31 MILE RD, LENOX, MI, 48050","Match","Exact","36500 31 MILE RD, LENOX, MI, 48050",110729997,"R"
187779,"36500 CHERRYWOOD DRIVE","YUCAIPA","CA",92399,NA,NA,279,"36500 CHERRYWOOD DRIVE, YUCAIPA, CA, 92399","No_Match",NA,NA,NA,NA
187780,"36500 FORD RD SUITE 353","WESTLAND","MI",48185,42.324222289,-83.4007426909999,280,"36500 FORD RD SUITE 353, WESTLAND, MI, 48185","Match","Exact","36500 FORD RD, WESTLAND, MI, 48185",617582357,"R"
187781,"36500 FORD ROAD STE 115","WESTLAND","MI",48185,42.324222289,-83.4007426909999,281,"36500 FORD ROAD STE 115, WESTLAND, MI, 48185","Match","Exact","36500 FORD RD, WESTLAND, MI, 48185",617582357,"R"
187782,"36500 FORD ROAD","WESTLAND","MI",48185,42.324222289,-83.4007426909999,282,"36500 FORD ROAD, WESTLAND, MI, 48185","Match","Exact","36500 FORD RD, WESTLAND, MI, 48185",617582357,"R"
187783,"36500 NYS RTE 26","CARTHAGE","NY",13619,43.988380459,-75.644303656,283,"36500 NYS RTE 26, CARTHAGE, NY, 13619","Match","Non_Exact","36500 STATE RTE 26, CARTHAGE, NY, 13619",154242620,"L"
187784,"36502 NOTCH PINE TRAIL","LAKE GEORGE","MN",56458,47.1893533250001,-95.002605312,284,"36502 NOTCH PINE TRAIL, LAKE GEORGE, MN, 56458","Match","Exact","36502 NOTCH PINE TRL, LAKE GEORGE, MN, 56458",168162661,"R"
187785,"36505 NE 241ST AVE","YACOLT","WA",98675,45.8857616390001,-122.426124697,285,"36505 NE 241ST AVE, YACOLT, WA, 98675","Match","Exact","36505 NE 241ST AVE, YACOLT, WA, 98675",158351363,"R"
187786,"3651 54TH AVE N","SAINT PETERSBURG","FL",33714,27.8210813810001,-82.6830701329999,286,"3651 54TH AVE N, SAINT PETERSBURG, FL, 33714","Match","Exact","3651 54TH AVE N, SAINT PETERSBURG, FL, 33714",124701839,"R"
187787,"3651 ALOHEA AVE","HONOLULU","HI",96816,21.2709495190001,-157.803872621,287,"3651 ALOHEA AVE, HONOLULU, HI, 96816","Match","Exact","3651 ALOHEA AVE, HONOLULU, HI, 96816",203242654,"R"
187788,"3651 CR 700","BLUE MOUNTAIN","MS",38610,34.6466167780001,-88.973830548,288,"3651 CR 700, BLUE MOUNTAIN, MS, 38610","Match","Exact","3651 CO RD 700, BLUE MOUNTAIN, MS, 38610",604544666,"L"
187789,"3651 E MARGINAL WAY S","SEATTLE","WA",98134,47.5703897010001,-122.339847486,289,"3651 E MARGINAL WAY S, SEATTLE, WA, 98134","Match","Exact","3651 E MARGINAL WAY S, SEATTLE, WA, 98134",239762566,"R"
187790,"3651 FAU BLVD STE 400-EE5","BOCA RATON","FL",33431,26.3841759540001,-80.097953961,290,"3651 FAU BLVD STE 400-EE5, BOCA RATON, FL, 33431","Match","Exact","3651 FAU BLVD, BOCA RATON, FL, 33431",648315923,"R"
187791,"3651 HIGHWAY 1","NAPOLEONVILLE","LA",70390,29.8855358430001,-90.9890418099999,291,"3651 HIGHWAY 1, NAPOLEONVILLE, LA, 70390","Match","Exact","3651 HWY 1, NAPOLEONVILLE, LA, 70390",650988807,"L"
187792,"3651 HIGHWAY 104","OPELOUSAS","LA",70570,NA,NA,292,"3651 HIGHWAY 104, OPELOUSAS, LA, 70570","No_Match",NA,NA,NA,NA
187793,"3651 LA BREA AVENUE","LOS ANGELES","CA",90016,34.020593508,-118.355603621,293,"3651 LA BREA AVENUE, LOS ANGELES, CA, 90016","Match","Non_Exact","3651 S LA BREA AVE, LOS ANGELES, CA, 90016",141601428,"R"
187794,"3651 LINDELL RD D747","LAS VEGAS","NV",89103,36.1235333670001,-115.216490982,294,"3651 LINDELL RD D747, LAS VEGAS, NV, 89103","Match","Non_Exact","3651 S LINDELL RD, LAS VEGAS, NV, 89103",201862966,"R"
187795,"3651 LINDELL RD STE D","LAS VEGAS","NV",89103,36.1235333670001,-115.216490982,295,"3651 LINDELL RD STE D, LAS VEGAS, NV, 89103","Match","Non_Exact","3651 S LINDELL RD, LAS VEGAS, NV, 89103",201862966,"R"
187796,"3651 LINDELL RD SUITE D-794","LAS VEGAS","NV",89103,36.1235333670001,-115.216490982,296,"3651 LINDELL RD SUITE D-794, LAS VEGAS, NV, 89103","Match","Non_Exact","3651 S LINDELL RD, LAS VEGAS, NV, 89103",201862966,"R"
187797,"3651 LINDELL RD SUITE D","LAS VEGAS","NV",89103,36.1235333670001,-115.216490982,297,"3651 LINDELL RD SUITE D, LAS VEGAS, NV, 89103","Match","Non_Exact","3651 S LINDELL RD, LAS VEGAS, NV, 89103",201862966,"R"
187798,"3651 LINDELL ROAD SUITE D","LAS VEGAS","NV",89103,36.1235333670001,-115.216490982,298,"3651 LINDELL ROAD SUITE D, LAS VEGAS, NV, 89103","Match","Non_Exact","3651 S LINDELL RD, LAS VEGAS, NV, 89103",201862966,"R"
187799,"3651 LINDELL ROAD SUITE D118","LAS VEGAS","NV",89103,36.1235333670001,-115.216490982,299,"3651 LINDELL ROAD SUITE D118, LAS VEGAS, NV, 89103","Match","Non_Exact","3651 S LINDELL RD, LAS VEGAS, NV, 89103",201862966,"R"
187800,"3651 LINDELL ROAD SUITE D422","LAS VEGAS","NV",89103,36.1235333670001,-115.216490982,300,"3651 LINDELL ROAD SUITE D422, LAS VEGAS, NV, 89103","Match","Non_Exact","3651 S LINDELL RD, LAS VEGAS, NV, 89103",201862966,"R"
187801,"3651 MAIN PLAZA DR","HOUSTON","TX",77025,29.6617233650001,-95.4366982189999,301,"3651 MAIN PLAZA DR, HOUSTON, TX, 77025","Match","Exact","3651 MAIN PLAZA DR, HOUSTON, TX, 77025",652146731,"R"
187802,"3651 NE 12TH TERRACE","POMPANO BEACH","FL",33064,26.276161745,-80.1063633749999,302,"3651 NE 12TH TERRACE, POMPANO BEACH, FL, 33064","Match","Non_Exact","3651 NE 12TH TER, POMPANO BEACH, FL, 33064",114742819,"L"
187803,"3651 ORANGEFIELD DR","ALEXANDRIA","LA",71302,31.280086591,-92.434237517,303,"3651 ORANGEFIELD DR, ALEXANDRIA, LA, 71302","Match","Exact","3651 ORANGEFIELD DR, ALEXANDRIA, LA, 71302",11784761,"R"
187804,"3651 PEACHTREE PARKWAY SUITE E254","SUWANEE","GA",30024,34.0717577730001,-84.1665482289999,304,"3651 PEACHTREE PARKWAY SUITE E254, SUWANEE, GA, 30024","Match","Exact","3651 PEACHTREE PKWY, SUWANEE, GA, 30024",638302927,"R"
187805,"3651 PEACHTREE PKWY STE E-108","SUWANEE","GA",30024,34.0717577730001,-84.1665482289999,305,"3651 PEACHTREE PKWY STE E-108, SUWANEE, GA, 30024","Match","Exact","3651 PEACHTREE PKWY, SUWANEE, GA, 30024",638302927,"R"
187806,"3651 PRAIRIE WATERS DRIVE 5236","GRAND PRAIRIE","TX",75052,32.606953506,-97.073584254,306,"3651 PRAIRIE WATERS DRIVE 5236, GRAND PRAIRIE, TX, 75052","Match","Exact","3651 PRAIRIE WATERS DR, GRAND PRAIRIE, TX, 75052",650219433,"R"
187807,"3651 RIDGEWAY DR","EAU CLAIRE","WI",54701,44.7795922130001,-91.427085199,307,"3651 RIDGEWAY DR, EAU CLAIRE, WI, 54701","Match","Exact","3651 RIDGEWAY DR, EAU CLAIRE, WI, 54701",629315084,"R"
187808,"3651 S 645 E","SALT LAKE CITY","UT",84106,40.6915855020001,-111.872591883,308,"3651 S 645 E, SALT LAKE CITY, UT, 84106","Match","Exact","3651 S 645 E, SALT LAKE CITY, UT, 84106",176082426,"L"
187809,"3651 S LA BREA AVE -428","LOS ANGELES","CA",90016,NA,NA,309,"3651 S LA BREA AVE -428, LOS ANGELES, CA, 90016","No_Match",NA,NA,NA,NA
187810,"3651 S LA BREA AVE 119","LOS ANGELES","CA",90016,NA,NA,310,"3651 S LA BREA AVE 119, LOS ANGELES, CA, 90016","No_Match",NA,NA,NA,NA
187811,"3651 S LA BREA AVE STE 131","LOS ANGELES","CA",90016,NA,NA,311,"3651 S LA BREA AVE STE 131, LOS ANGELES, CA, 90016","No_Match",NA,NA,NA,NA
187812,"3651 S LA BREA AVE STE 141","LOS ANGELES","CA",90016,NA,NA,312,"3651 S LA BREA AVE STE 141, LOS ANGELES, CA, 90016","No_Match",NA,NA,NA,NA
187813,"3651 S LA BREA AVE STE 291","LOS ANGELES","CA",90016,NA,NA,313,"3651 S LA BREA AVE STE 291, LOS ANGELES, CA, 90016","No_Match",NA,NA,NA,NA
187814,"3651 S LA BREA AVE STE 306","LOS ANGELES","CA",90016,NA,NA,314,"3651 S LA BREA AVE STE 306, LOS ANGELES, CA, 90016","No_Match",NA,NA,NA,NA
187815,"3651 S LA BREA AVENUE 991","LOS ANGELES","CA",90016,NA,NA,315,"3651 S LA BREA AVENUE 991, LOS ANGELES, CA, 90016","No_Match",NA,NA,NA,NA
187816,"3651 S LA BREA AVENUE SUITE 204","LOS ANGELES","CA",90016,NA,NA,316,"3651 S LA BREA AVENUE SUITE 204, LOS ANGELES, CA, 90016","No_Match",NA,NA,NA,NA
187817,"3651 S LABREA AVENUE","LOS ANGELES","CA",90016,34.0205865470001,-118.355603508,317,"3651 S LABREA AVENUE, LOS ANGELES, CA, 90016","Match","Non_Exact","3651 S LA BREA AVE, LOS ANGELES, CA, 90016",141601428,"R"
187818,"3651 S VERMONT AVENUE","LOS ANGELES","CA",90007,34.0218066510001,-118.291541883,318,"3651 S VERMONT AVENUE, LOS ANGELES, CA, 90007","Match","Exact","3651 S VERMONT AVE, LOS ANGELES, CA, 90007",141607677,"R"
187819,"3651 SE 2ND ST","BOYNTON BEACH","FL",33435,26.492139975,-80.0688812349999,319,"3651 SE 2ND ST, BOYNTON BEACH, FL, 33435","Match","Exact","3651 SE 2ND ST, BOYNTON BEACH, FL, 33435",115297514,"R"
187820,"3651 SOUTH LA BREA AVENUE  267","LOS ANGELES","CA",90016,34.020593508,-118.355603621,320,"3651 SOUTH LA BREA AVENUE  267, LOS ANGELES, CA, 90016","Match","Exact","3651 S LA BREA AVE, LOS ANGELES, CA, 90016",141601428,"R"
187821,"3651 STONEVALLEY DRIVE","LAFAYETTE","IN",47909,40.3659953310001,-86.879782389,321,"3651 STONEVALLEY DRIVE, LAFAYETTE, IN, 47909","Match","Non_Exact","3651 STONE VALLEY DR, LAFAYETTE, IN, 47909",27318750,"L"
187822,"3651 W RICHMOND VISTA DR","MARANA","AZ",85658,NA,NA,322,"3651 W RICHMOND VISTA DR, MARANA, AZ, 85658","No_Match",NA,NA,NA,NA
187823,"3651 W SCHUBERT AVE","CHICAGO","IL",60647,41.930073013,-87.718684702,323,"3651 W SCHUBERT AVE, CHICAGO, IL, 60647","Match","Exact","3651 W SCHUBERT AVE, CHICAGO, IL, 60647",605224620,"L"
187824,"3651 W WAGONTRAIL DR","DENVER","CO",80123,39.631005885,-105.035371507,324,"3651 W WAGONTRAIL DR, DENVER, CO, 80123","Match","Non_Exact","3651 W WAGON TRAIL DR, DENVER, CO, 80123",177329966,"R"
187825,"3651 WENTWORTH DR SW","WYOMING","MI",49519,42.898224326,-85.733182861,325,"3651 WENTWORTH DR SW, WYOMING, MI, 49519","Match","Exact","3651 WENTWORTH DR SW, WYOMING, MI, 49519",12505720,"R"
187826,"3652 ARROWHEAD PLACE","DOUGLASVILLE","GA",30135,33.6820649540001,-84.694978325,326,"3652 ARROWHEAD PLACE, DOUGLASVILLE, GA, 30135","Match","Exact","3652 ARROWHEAD PL, DOUGLASVILLE, GA, 30135",618473059,"L"
187827,"3652 CADMAN DR","LOS ANGELES","CA",90027,34.1192160790001,-118.274159512,327,"3652 CADMAN DR, LOS ANGELES, CA, 90027","Match","Exact","3652 CADMAN DR, LOS ANGELES, CA, 90027",142728304,"L"
187828,"3652 J DEWEY GRAY CIRCLE  SUITE A","AUGUSTA","GA",30909,NA,NA,328,"3652 J DEWEY GRAY CIRCLE  SUITE A, AUGUSTA, GA, 30909","No_Match",NA,NA,NA,NA
187829,"3652 N RANCHO DR STE 102","LAS VEGAS","NV",89130,36.225334333,-115.219474145,329,"3652 N RANCHO DR STE 102, LAS VEGAS, NV, 89130","Match","Non_Exact","3652 N RANCHO DR, LAS VEGAS, NV, 89130",639333663,"R"
187830,"3652 OAK CHASE DR","HIGH POINT","NC",27265,36.0487808450001,-79.9828309219999,330,"3652 OAK CHASE DR, HIGH POINT, NC, 27265","Match","Exact","3652 OAK CHASE DR, HIGH POINT, NC, 27265",131077818,"R"
187831,"3652 TERRAPIN LANE SUITE 1304","CORAL SPRINGS","FL",33067,26.276806886,-80.2086432099999,331,"3652 TERRAPIN LANE SUITE 1304, CORAL SPRINGS, FL, 33067","Match","Exact","3652 TERRAPIN LN, CORAL SPRINGS, FL, 33067",650095550,"L"
187832,"36520 SAXONY","FARMINGTON","MI",48335,42.464053096,-83.406856348,332,"36520 SAXONY, FARMINGTON, MI, 48335","Match","Non_Exact","36520 SAXONY RD, FARMINGTON, MI, 48335",69724305,"R"
187833,"36523 25TH STREET EAST I-134","PALMDALE","CA",93550,34.549529991,-118.084914653,333,"36523 25TH STREET EAST I-134, PALMDALE, CA, 93550","Match","Exact","36523 25TH ST E, PALMDALE, CA, 93550",141843163,"R"
187834,"36523 MOUNTVILLE RD","MIDDLEBURG","VA",20117,39.0170918950001,-77.742734598,334,"36523 MOUNTVILLE RD, MIDDLEBURG, VA, 20117","Match","Exact","36523 MOUNTVILLE RD, MIDDLEBURG, VA, 20117",62363548,"L"
187835,"36525 LESLYE LN","EUSTIS","FL",32736,28.883526943,-81.528779127,335,"36525 LESLYE LN, EUSTIS, FL, 32736","Match","Exact","36525 LESLYE LN, EUSTIS, FL, 32736",94147266,"L"
187836,"3653 GRANDVIEW DRIVE","SAN ANGELO","TX",76904,31.4096510470001,-100.504637962,336,"3653 GRANDVIEW DRIVE, SAN ANGELO, TX, 76904","Match","Exact","3653 GRANDVIEW DR, SAN ANGELO, TX, 76904",633856096,"L"
187837,"3653 HUDDLESTONE LANE","BUFORD","GA",30519,34.0787022420001,-83.9700557739999,337,"3653 HUDDLESTONE LANE, BUFORD, GA, 30519","Match","Non_Exact","3653 HUDDLESTONE LN NE, BUFORD, GA, 30519",627062362,"L"
187838,"3653 KARL RD","COLUMBUS","OH",43224,40.0412192260001,-82.977433343,338,"3653 KARL RD, COLUMBUS, OH, 43224","Match","Exact","3653 KARL RD, COLUMBUS, OH, 43224",135571389,"L"
187839,"3653 LAKE TELFER DR","ORLANDO","FL",32817,28.591236645,-81.259046809,339,"3653 LAKE TELFER DR, ORLANDO, FL, 32817","Match","Exact","3653 LAKE TELFER DR, ORLANDO, FL, 32817",94423054,"R"
187840,"3653 OAKDALE ROAD","MOUNTAIN BROOK","AL",35223,33.4950487850001,-86.714920526,340,"3653 OAKDALE ROAD, MOUNTAIN BROOK, AL, 35223","Match","Exact","3653 OAKDALE RD, MOUNTAIN BRK, AL, 35223",81587833,"R"
187841,"3653 RIVER BLUFFS PLACE","HENRICO","VA",23223,NA,NA,341,"3653 RIVER BLUFFS PLACE, HENRICO, VA, 23223","No_Match",NA,NA,NA,NA
187842,"3653 TYLER AVE","BERKLEY","MI",48072,42.5050842200001,-83.192835901,342,"3653 TYLER AVE, BERKLEY, MI, 48072","Match","Exact","3653 TYLER AVE, BERKLEY, MI, 48072",640604217,"L"
187843,"3653 UNIVERSAL PLAZA","NEW PORT RICHEY","FL",34652,28.2105436460001,-82.74053245,343,"3653 UNIVERSAL PLAZA, NEW PORT RICHEY, FL, 34652","Match","Exact","3653 UNIVERSAL PLZ, NEW PORT RICHEY, FL, 34652",86403361,"L"
187844,"3653 WEST WALNUT HILL LANE APT 1120","IRVING","TX",75038,32.8656425890001,-96.9951664449999,344,"3653 WEST WALNUT HILL LANE APT 1120, IRVING, TX, 75038","Match","Exact","3653 W WALNUT HILL LN, IRVING, TX, 75038",103202996,"L"
187845,"36538 94TH STREET EAST","LITTLEROCK","CA",93543,34.546682,-117.962542129,345,"36538 94TH STREET EAST, LITTLEROCK, CA, 93543","Match","Exact","36538 94TH ST E, LITTLEROCK, CA, 93543",241108393,"L"
187846,"3654 HADFIELD DR","MARIETTA","GA",30062,33.9979008540001,-84.4361395079999,346,"3654 HADFIELD DR, MARIETTA, GA, 30062","Match","Exact","3654 HADFIELD DR, MARIETTA, GA, 30062",17221127,"R"
187847,"3654 LAKE SHORE RD S","DENVER","NC",28037,35.5031963910001,-80.984003496,347,"3654 LAKE SHORE RD S, DENVER, NC, 28037","Match","Exact","3654 LAKE SHORE RD S, DENVER, NC, 28037",69535052,"R"
187848,"3654 MARCEY CREEK RD","LAUREL","MD",20724,39.101354685,-76.812826296,348,"3654 MARCEY CREEK RD, LAUREL, MD, 20724","Match","Exact","3654 MARCEY CREEK RD, LAUREL, MD, 20724",68200235,"L"
187849,"3654 MONON ST","LOS ANGELES","CA",90027,34.108876088,-118.27297896,349,"3654 MONON ST, LOS ANGELES, CA, 90027","Match","Exact","3654 MONON ST, LOS ANGELES, CA, 90027",141597871,"L"
187850,"3654 NORTH MARVINE STREET","PHILANDELPHIA","PA",19140,40.0079332660001,-75.1468246759999,350,"3654 NORTH MARVINE STREET, PHILANDELPHIA, PA, 19140","Match","Non_Exact","3654 N MARVINE ST, PHILADELPHIA, PA, 19140",131418535,"L"
187851,"3654 PARK AVENUE","Memphis","TN",38111,35.1077521300001,-89.94071823,351,"3654 PARK AVENUE, Memphis, TN, 38111","Match","Exact","3654 PARK AVE, MEMPHIS, TN, 38111",72919828,"L"
187852,"3654 SLAUSON AVE","LOS ANGELES","CA",90043,33.9889788360001,-118.33717306,352,"3654 SLAUSON AVE, LOS ANGELES, CA, 90043","Match","Non_Exact","3654 W SLAUSON AVE, LOS ANGELES, CA, 90043",142809150,"L"
187853,"3654 STRATHAVON ROAD","SHAKER HEIGHTS","OH",44120,41.4605201160001,-81.5613324509999,353,"3654 STRATHAVON ROAD, SHAKER HEIGHTS, OH, 44120","Match","Exact","3654 STRATHAVON RD, SHAKER HEIGHTS, OH, 44120",61128746,"R"
187854,"3654 SW 163RD AVE","MIRAMAR","FL",33027,25.9743599170001,-80.363641819,354,"3654 SW 163RD AVE, MIRAMAR, FL, 33027","Match","Exact","3654 SW 163RD AVE, MIRAMAR, FL, 33027",114797503,"R"
187855,"3654 W GEORGE ST","CHICAGO","IL",60618,41.933716035,-87.719420831,355,"3654 W GEORGE ST, CHICAGO, IL, 60618","Match","Exact","3654 W GEORGE ST, CHICAGO, IL, 60618",605225002,"R"
187856,"3654 WILEY ROAD","MONTGOMERY","AL",36106,32.350250289,-86.2478208919999,356,"3654 WILEY ROAD, MONTGOMERY, AL, 36106","Match","Exact","3654 WILEY RD, MONTGOMERY, AL, 36106",1501218,"R"
187857,"36540 HWY 82 W","ITTA BENA","MS",38941,33.4966160160001,-90.349845418,357,"36540 HWY 82 W, ITTA BENA, MS, 38941","Match","Exact","36540 HWY 82 W, ITTA BENA, MS, 38941",1038978,"R"
187858,"36540 QUAIL STREET","PALMDALE","CA",93552,34.545205535,-118.053633975,358,"36540 QUAIL STREET, PALMDALE, CA, 93552","Match","Exact","36540 QUAIL ST, PALMDALE, CA, 93552",141838801,"L"
187859,"3655 13TH DRIVE","WISCONSIN DELLS","WI",53965,43.7294460200001,-89.832795156,359,"3655 13TH DRIVE, WISCONSIN DELLS, WI, 53965","Match","Exact","3655 13TH DR, WISCONSIN DELLS, WI, 53965",649741244,"L"
187860,"3655 AYNSLEY DRIVE","ROCHESTER HILLS","MI",48306,42.695444518,-83.208744667,360,"3655 AYNSLEY DRIVE, ROCHESTER HILLS, MI, 48306","Match","Exact","3655 AYNSLEY DR, ROCHESTER HILLS, MI, 48306",69808536,"L"
187861,"3655 BECKWITH LN","CRETE","IL",60417,41.4607438460001,-87.595252053,361,"3655 BECKWITH LN, CRETE, IL, 60417","Match","Exact","3655 BECKWITH LN, CRETE, IL, 60417",111553753,"R"
187862,"3655 COLEGROVE ST APT 9","SAN MATEO","CA",94403,37.534023545,-122.29655099,362,"3655 COLEGROVE ST APT 9, SAN MATEO, CA, 94403","Match","Exact","3655 COLEGROVE ST, SAN MATEO, CA, 94403",192380108,"L"
187863,"3655 DAVIS BLVD","ATLANTA","GA",30349,33.6573452420001,-84.638861143,363,"3655 DAVIS BLVD, ATLANTA, GA, 30349","Match","Exact","3655 DAVIS BLVD, ATLANTA, GA, 30349",644634068,"R"
187864,"3655 E CREST LANE","PHOENIX","AZ",85050,33.6903160270001,-111.995433143,364,"3655 E CREST LANE, PHOENIX, AZ, 85050","Match","Exact","3655 E CREST LN, PHOENIX, AZ, 85050",243990095,"R"
187865,"3655 FOREST GARDEN AVE","GWYNN OAK","MD",21207,39.343119045,-76.716633168,365,"3655 FOREST GARDEN AVE, GWYNN OAK, MD, 21207","Match","Exact","3655 FOREST GARDEN AVE, GWYNN OAK, MD, 21207",191469296,"R"
187866,"3655 MARKETPLACE BLVD","EAST POINT","GA",30344,33.6582488700001,-84.502245584,366,"3655 MARKETPLACE BLVD, EAST POINT, GA, 30344","Match","Exact","3655 MARKETPLACE BLVD, EAST POINT, GA, 30344",643295866,"L"
187867,"3655 NC HWY 704","MADISON","NC",27025,36.3821210520001,-79.9189222639999,367,"3655 NC HWY 704, MADISON, NC, 27025","Match","Non_Exact","3655 STATE HWY 704, MADISON, NC, 27025",56235719,"L"
187868,"3655 PRAIRIE WATERS DR APT 2102","GRAND PRAIRIE","TX",75052,32.6068733600001,-97.07376075,368,"3655 PRAIRIE WATERS DR APT 2102, GRAND PRAIRIE, TX, 75052","Match","Exact","3655 PRAIRIE WATERS DR, GRAND PRAIRIE, TX, 75052",650219433,"R"
187869,"3655 PRAIRIE WATERS DRIVE APT 4313","GRAND PRAIRIE","TX",75052,32.6068733600001,-97.07376075,369,"3655 PRAIRIE WATERS DRIVE APT 4313, GRAND PRAIRIE, TX, 75052","Match","Exact","3655 PRAIRIE WATERS DR, GRAND PRAIRIE, TX, 75052",650219433,"R"
187870,"3655 TORRANCE BLVD 3RD FLOOR","TORRANCE","CA",90503,33.837559132,-118.350758731,370,"3655 TORRANCE BLVD 3RD FLOOR, TORRANCE, CA, 90503","Match","Exact","3655 TORRANCE BLVD, TORRANCE, CA, 90503",142457535,"R"
187871,"3655 TORRANCE BLVD SUITE 430","TORRANCE","CA",90503,33.837559132,-118.350758731,371,"3655 TORRANCE BLVD SUITE 430, TORRANCE, CA, 90503","Match","Exact","3655 TORRANCE BLVD, TORRANCE, CA, 90503",142457535,"R"
187872,"3655 W ANTHEM WAY STE A 109-256","PHOENIX","AZ",85086,NA,NA,372,"3655 W ANTHEM WAY STE A 109-256, PHOENIX, AZ, 85086","No_Match",NA,NA,NA,NA
187873,"3655 W ANTHEM WAY STE A109-403","ANTHEM","AZ",85086,NA,NA,373,"3655 W ANTHEM WAY STE A109-403, ANTHEM, AZ, 85086","No_Match",NA,NA,NA,NA
187874,"3655 W ANTHEM WAY","ANTHEM","AZ",85086,NA,NA,374,"3655 W ANTHEM WAY, ANTHEM, AZ, 85086","No_Match",NA,NA,NA,NA
187875,"3655 W SAN JOSE AVE 153","FRESNO","CA",93711,36.8118279780001,-119.859836748,375,"3655 W SAN JOSE AVE 153, FRESNO, CA, 93711","Match","Non_Exact","3655 W SAN JOSE AVE, FRESNO, CA, 93711",648163135,"R"
187876,"3655 W TURKEY LN","TUCSON","AZ",85742,32.406205927,-111.044009947,376,"3655 W TURKEY LN, TUCSON, AZ, 85742","Match","Exact","3655 W TURKEY LN, TUCSON, AZ, 85742",121157010,"L"
187877,"3655 WHISPERING CYPRESS LN","BOYNTON BEACH","FL",33435,26.492634287,-80.066556164,377,"3655 WHISPERING CYPRESS LN, BOYNTON BEACH, FL, 33435","Match","Exact","3655 WHISPERING CYPRESS LN, BOYNTON BEACH, FL, 33435",640271000,"R"
187878,"36550 CHESTER RD SUITE  3620","AVON","OH",44011,41.467156048,-82.021246703,378,"36550 CHESTER RD SUITE  3620, AVON, OH, 44011","Match","Exact","36550 CHESTER RD, AVON, OH, 44011",636704950,"R"
187879,"365525 EAST HIGHWAY 64","CLEVELAND","OK",74020,NA,NA,379,"365525 EAST HIGHWAY 64, CLEVELAND, OK, 74020","No_Match",NA,NA,NA,NA
187880,"36553 LEONE STREET","NEWARK","CA",94560,37.536951775,-122.03673548,380,"36553 LEONE STREET, NEWARK, CA, 94560","Match","Exact","36553 LEONE ST, NEWARK, CA, 94560",125027427,"R"
187881,"3656 EBENEZER ROAD","MARIETTA","GA",30066,34.0403429260001,-84.5100903319999,381,"3656 EBENEZER ROAD, MARIETTA, GA, 30066","Match","Exact","3656 EBENEZER RD, MARIETTA, GA, 30066",17257160,"R"
187882,"3656 GOLDNER LANE SW","WARREN","OH",44481,41.1440609360001,-80.841756769,382,"3656 GOLDNER LANE SW, WARREN, OH, 44481","Match","Non_Exact","3656 GOLDNER LN, WARREN, OH, 44481",117420014,"L"
187883,"3656 GOVERNMENT BLVD","MOBILE","AL",36609,NA,NA,383,"3656 GOVERNMENT BLVD, MOBILE, AL, 36609","No_Match",NA,NA,NA,NA
187884,"3656 GOVERNMENT BOULEVARD","MOBILE","AL",36693,NA,NA,384,"3656 GOVERNMENT BOULEVARD, MOBILE, AL, 36693","No_Match",NA,NA,NA,NA
187885,"3656 HENDERSON BLVD","TAMPA","FL",33609,27.9365153430001,-82.502775951,385,"3656 HENDERSON BLVD, TAMPA, FL, 33609","Match","Exact","3656 HENDERSON BLVD, TAMPA, FL, 33609",104526279,"L"
187886,"3656 HOMEWAY DRIVE","LOS ANGELES","CA",90008,34.0042588200001,-118.338403141,386,"3656 HOMEWAY DRIVE, LOS ANGELES, CA, 90008","Match","Exact","3656 HOMEWAY DR, LOS ANGELES, CA, 90008",141602447,"L"
187887,"3656 JOHNSON AVENUE - 6J","BRONX","NY",10463,40.887992044,-73.9093567,387,"3656 JOHNSON AVENUE - 6J, BRONX, NY, 10463","Match","Exact","3656 JOHNSON AVE, BRONX, NY, 10463",80296002,"L"
187888,"3656 LOS COLINAS ROAD","LIVERMORE","CA",94551,37.7032473140001,-121.754780239,388,"3656 LOS COLINAS ROAD, LIVERMORE, CA, 94551","Match","Exact","3656 LAS COLINAS RD, LIVERMORE, CA, 94551",606847847,"R"
187889,"3656 N SANDIA","PERORIA","IL",61603,NA,NA,389,"3656 N SANDIA, PERORIA, IL, 61603","No_Match",NA,NA,NA,NA
187890,"3656 PARSONS POND CIR","WESTLAKE","OH",44145,41.4359060310001,-81.968139208,390,"3656 PARSONS POND CIR, WESTLAKE, OH, 44145","Match","Exact","3656 PARSONS POND CIR, WESTLAKE, OH, 44145",61147349,"L"
187891,"3656 SATELLITE BLVD","ELLENWOOD","GA",30294,33.6760647460001,-84.301152222,391,"3656 SATELLITE BLVD, ELLENWOOD, GA, 30294","Match","Exact","3656 SATELLITE BLVD, ELLENWOOD, GA, 30294",23369016,"L"
187892,"3656 SHOREWOOD AVE","GREENBANK","WA",98253,48.076883896,-122.608437071,392,"3656 SHOREWOOD AVE, GREENBANK, WA, 98253","Match","Exact","3656 SHOREWOOD AVE, GREENBANK, WA, 98253",187614623,"L"
187893,"3656 WALLWERTH DR","TOLEDO","OH",43612,41.6869982870001,-83.5833865339999,393,"3656 WALLWERTH DR, TOLEDO, OH, 43612","Match","Exact","3656 WALLWERTH DR, TOLEDO, OH, 43612",33934218,"R"
187894,"3656 WASHINGTON ST SUITE B","PENTWATER","MI",49449,43.8190092580001,-86.369206081,394,"3656 WASHINGTON ST SUITE B, PENTWATER, MI, 49449","Match","Non_Exact","3656 WASHINGTON RD, PENTWATER, MI, 49449",148061728,"R"
187895,"3656 WESTWOOD BLVD APT 111","LOS ANGELES","CA",90034,34.0198097150001,-118.411828095,395,"3656 WESTWOOD BLVD APT 111, LOS ANGELES, CA, 90034","Match","Exact","3656 WESTWOOD BLVD, LOS ANGELES, CA, 90034",141574134,"L"
187896,"3657 22ND AVENUE","SACRAMENTO","CA",95820,38.532733928,-121.467444096,396,"3657 22ND AVENUE, SACRAMENTO, CA, 95820","Match","Exact","3657 22ND AVE, SACRAMENTO, CA, 95820",133327061,"L"
187897,"3657 CLERMONT DRIVE","NEW ORLEANS","LA",70122,29.995374279,-90.054337652,397,"3657 CLERMONT DRIVE, NEW ORLEANS, LA, 70122","Match","Exact","3657 CLERMONT DR, NEW ORLEANS, LA, 70122",191715257,"R"
187898,"3657 DIANNA WAY","WENATCHEE","WA",98801,47.4826698540001,-120.342485331,398,"3657 DIANNA WAY, WENATCHEE, WA, 98801","Match","Exact","3657 DIANNA WAY, WENATCHEE, WA, 98801",605717797,"R"
187899,"3657 EDISON WAY SUITE 6","FREMONT","CA",94538,37.5083531230001,-121.947327405,399,"3657 EDISON WAY SUITE 6, FREMONT, CA, 94538","Match","Exact","3657 EDISON WAY, FREMONT, CA, 94538",125034210,"R"
187900,"3657 HIGHWAY 51 SOUTH","SENATOBIA","MS",38668,NA,NA,400,"3657 HIGHWAY 51 SOUTH, SENATOBIA, MS, 38668","No_Match",NA,NA,NA,NA
187901,"3657 HORSEMINT TRL","LEXINGTON","KY",40509,37.990094609,-84.412920175,401,"3657 HORSEMINT TRL, LEXINGTON, KY, 40509","Match","Exact","3657 HORSEMINT TRL, LEXINGTON, KY, 40509",618013127,"L"
187902,"3657 S LAURA WAY","YUMA","AZ",85365,32.6618243390001,-114.481054618,402,"3657 S LAURA WAY, YUMA, AZ, 85365","Match","Exact","3657 S LAURA WAY, YUMA, AZ, 85365",651955535,"R"
187903,"3657 SW 24 ST","MIAMI","FL",33145,25.746184568,-80.253360806,403,"3657 SW 24 ST, MIAMI, FL, 33145","Match","Non_Exact","3657 SW 24TH ST, MIAMI, FL, 33145",116266004,"R"
187904,"3657 TUDOR PARK DRIVE","INDIANAPOLIS","IN",46235,39.8238590390001,-85.995107489,404,"3657 TUDOR PARK DRIVE, INDIANAPOLIS, IN, 46235","Match","Exact","3657 TUDOR PARK DR, INDIANAPOLIS, IN, 46235",108035942,"L"
187905,"36578 MAPLE LEAF DRIVE","NEW BALTIMORE","MI",48047,42.699895095,-82.733176221,405,"36578 MAPLE LEAF DRIVE, NEW BALTIMORE, MI, 48047","Match","Exact","36578 MAPLE LEAF DR, NEW BALTIMORE, MI, 48047",110714063,"R"
187906,"3658 147TH AVE NE","HAM LAKE","MN",55304,45.237800905,-93.177096529,406,"3658 147TH AVE NE, HAM LAKE, MN, 55304","Match","Exact","3658 147TH AVE NE, HAM LAKE, MN, 55304",614151710,"R"
187907,"3658 BARHAM BLVD","LOS ANGELES","CA",90068,34.139238646,-118.34156167,407,"3658 BARHAM BLVD, LOS ANGELES, CA, 90068","Match","Exact","3658 BARHAM BLVD, LOS ANGELES, CA, 90068",648880559,"R"
187908,"3658 BRISTOL COVE LANE","SAINT CLOUD","FL",34772,28.1903008030001,-81.2964960629999,408,"3658 BRISTOL COVE LANE, SAINT CLOUD, FL, 34772","Match","Exact","3658 BRISTOL COVE LN, SAINT CLOUD, FL, 34772",638653275,"L"
187909,"3658 CALUMET STREET","PHILADELPHIA","PA",19129,40.0113849740001,-75.194808866,409,"3658 CALUMET STREET, PHILADELPHIA, PA, 19129","Match","Exact","3658 CALUMET ST, PHILADELPHIA, PA, 19129",131445409,"L"
187910,"3658 COACH LANTERN AVE","RALEIGH","NC",27587,35.9136262220001,-78.517057767,410,"3658 COACH LANTERN AVE, RALEIGH, NC, 27587","Match","Non_Exact","3658 COACH LANTERN AVE, WAKE FOREST, NC, 27587",72644026,"R"
187911,"3658 HAYFILED CT","THOMASVILLE","NC",27360,35.9357425740001,-80.06497221,411,"3658 HAYFILED CT, THOMASVILLE, NC, 27360","Match","Non_Exact","3658 HAYFIELD CT, THOMASVILLE, NC, 27360",649020890,"R"
187912,"3658 MT DIABLO BLVD SUITE 210","LAFAYETTE","CA",94549,NA,NA,412,"3658 MT DIABLO BLVD SUITE 210, LAFAYETTE, CA, 94549","No_Match",NA,NA,NA,NA
187913,"3658 N PERRY PARK RD","SEDALIA","CO",80135,NA,NA,413,"3658 N PERRY PARK RD, SEDALIA, CO, 80135","Tie",NA,NA,NA,NA
187914,"36584 TRILBY RD","DADE CITY","FL",33523,28.4572027630001,-82.2114916949999,414,"36584 TRILBY RD, DADE CITY, FL, 33523","Match","Exact","36584 TRILBY RD, DADE CITY, FL, 33523",614274721,"R"
187915,"36585","CAVE CREEK","AZ",85331,NA,NA,415,"36585, CAVE CREEK, AZ, 85331","No_Match",NA,NA,NA,NA
187916,"3659 2ND AVE N","SAINT PETERSBURG","FL",33713,27.7728481080001,-82.682896796,416,"3659 2ND AVE N, SAINT PETERSBURG, FL, 33713","Match","Exact","3659 2ND AVE N, SAINT PETERSBURG, FL, 33713",124705344,"R"
187917,"3659 DAYDREAM PLACE","SAINT CLOUD","FL",34772,28.1815636090001,-81.2931664769999,417,"3659 DAYDREAM PLACE, SAINT CLOUD, FL, 34772","Match","Exact","3659 DAYDREAM PL, SAINT CLOUD, FL, 34772",635760589,"L"
187918,"3659 E CREST LN","PHOENIX","AZ",85050,33.690317673,-111.995410916,418,"3659 E CREST LN, PHOENIX, AZ, 85050","Match","Exact","3659 E CREST LN, PHOENIX, AZ, 85050",243990095,"R"
187919,"3659 FULLER AVE NE","GRAND RAPIDS","MI",49525,43.03008105,-85.63927898,419,"3659 FULLER AVE NE, GRAND RAPIDS, MI, 49525","Match","Exact","3659 FULLER AVE NE, GRAND RAPIDS, MI, 49525",12451844,"L"
187920,"3659 GREEN RD SUITE 124","BEACHWOOD","OH",44122,41.460478535,-81.517010611,420,"3659 GREEN RD SUITE 124, BEACHWOOD, OH, 44122","Match","Exact","3659 GREEN RD, BEACHWOOD, OH, 44122",61129545,"L"
187921,"3659 JORDAN CT","GULF SHORES","AL",36542,30.296186576,-87.651339155,421,"3659 JORDAN CT, GULF SHORES, AL, 36542","Match","Exact","3659 JORDAN CT, GULF SHORES, AL, 36542",131716901,"R"
187922,"3659 LAKE END DR","LOGANVILLE","GA",30052,33.879473338,-83.874981248,422,"3659 LAKE END DR, LOGANVILLE, GA, 30052","Match","Exact","3659 LAKE END DR, LOGANVILLE, GA, 30052",650743975,"R"
187923,"3659 LAUGHLIN RD","ZELLWOOD","FL",32798,28.7372798480001,-81.609649987,423,"3659 LAUGHLIN RD, ZELLWOOD, FL, 32798","Match","Exact","3659 LAUGHLIN RD, ZELLWOOD, FL, 32798",636487244,"R"
187924,"3659 MCCORDS FERRY RD","EASTOVER","SC",29044,33.8978821060001,-80.6666849819999,424,"3659 MCCORDS FERRY RD, EASTOVER, SC, 29044","Match","Exact","3659 MCCORDS FERRY RD, EASTOVER, SC, 29044",71812518,"R"
187925,"3659 VIRGINIA TRAIL","BETHEL","OH",45106,38.9654044760001,-84.040008015,425,"3659 VIRGINIA TRAIL, BETHEL, OH, 45106","Match","Exact","3659 VIRGINIA TRL, BETHEL, OH, 45106",618762062,"R"
187926,"36590 N PIMA ROAD NO 3481","CAREFREE","AZ",85377,NA,NA,426,"36590 N PIMA ROAD NO 3481, CAREFREE, AZ, 85377","No_Match",NA,NA,NA,NA
187927,"36592 GERANIUM DRIVE","LAKE ELSINORE","CA",92532,33.669095994,-117.219994702,427,"36592 GERANIUM DRIVE, LAKE ELSINORE, CA, 92532","Match","Exact","36592 GERANIUM DR, LAKE ELSINORE, CA, 92532",646201302,"L"
187928,"365B HERITAGE VILLAGE","SOUTHBURY","CT",6488,NA,NA,428,"365B HERITAGE VILLAGE, SOUTHBURY, CT, 6488","No_Match",NA,NA,NA,NA
187929,"366 10TH AVENUE","SAN FRANCISCO","CA",94118,37.7815511760001,-122.468608128,429,"366 10TH AVENUE, SAN FRANCISCO, CA, 94118","Match","Exact","366 10TH AVE, SAN FRANCISCO, CA, 94118",192281788,"L"
187930,"366 26TH AVE","CUMBERLAND","WI",54829,45.581450369,-92.0774325799999,430,"366 26TH AVE, CUMBERLAND, WI, 54829","Match","Exact","366 26TH AVE, CUMBERLAND, WI, 54829",126292737,"R"
187931,"366 BLUE LICK ROAD","BEREA","KY",40403,37.577960391,-84.252844483,431,"366 BLUE LICK ROAD, BEREA, KY, 40403","Match","Exact","366 BLUE LICK RD, BEREA, KY, 40403",635638677,"R"
187932,"366 BROADWAY APT 5C","NEW YORK","NY",10013,40.7175748430001,-74.003418761,432,"366 BROADWAY APT 5C, NEW YORK, NY, 10013","Match","Exact","366 BROADWAY, NEW YORK, NY, 10013",59660250,"R"
187933,"366 BROOKS ROAD","REIDSVILLE","NC",27320,36.3568600880001,-79.62498368,433,"366 BROOKS ROAD, REIDSVILLE, NC, 27320","Match","Exact","366 BROOKS RD, REIDSVILLE, NC, 27320",56219794,"L"
187934,"366 CARRERA DRIVE","MILL VALLEY","CA",94941,37.8696897890001,-122.530042389,434,"366 CARRERA DRIVE, MILL VALLEY, CA, 94941","Match","Exact","366 CARRERA DR, MILL VALLEY, CA, 94941",192786950,"R"
187935,"366 CLIFTON PL APT 3C","BROOKLYN","NY",11216,40.6892250710001,-73.950489681,435,"366 CLIFTON PL APT 3C, BROOKLYN, NY, 11216","Match","Exact","366 CLIFTON PL, BROOKLYN, NY, 11216",59078882,"R"
187936,"366 COTTAGE VIEW TERRACE","VALPARAISO","IN",46383,41.5111818990001,-87.065553046,436,"366 COTTAGE VIEW TERRACE, VALPARAISO, IN, 46383","Match","Exact","366 COTTAGE VIEW TER, VALPARAISO, IN, 46383",119929456,"L"
187937,"366 DEERWOOD LN","MARION","TX",78124,29.597674328,-98.124158747,437,"366 DEERWOOD LN, MARION, TX, 78124","Match","Exact","366 DEERWOOD LN, MARION, TX, 78124",54839237,"L"
187938,"366 E 134TH STREET","CHICAGO","IL",60827,41.6518455550001,-87.61326703,438,"366 E 134TH STREET, CHICAGO, IL, 60827","Match","Exact","366 E 134TH ST, CHICAGO, IL, 60827",111777870,"L"
187939,"366 E 146TH ST","NEW YORK","NY",10455,40.8143132490001,-73.919609495,439,"366 E 146TH ST, NEW YORK, NY, 10455","Match","Non_Exact","366 E 146TH ST, BRONX, NY, 10455",80300371,"R"
187940,"366 E 3RD STREET","WINONA","MN",55987,44.0499721890001,-91.628034417,440,"366 E 3RD STREET, WINONA, MN, 55987","Match","Exact","366 E 3RD ST, WINONA, MN, 55987",31662719,"R"
187941,"366 E CHAPEL ROYAL DR","VERONA","WI",53593,42.9705334700001,-89.5300995119999,441,"366 E CHAPEL ROYAL DR, VERONA, WI, 53593","Match","Exact","366 E CHAPEL ROYAL DR, VERONA, WI, 53593",618565458,"L"
187942,"366 E ELGIN ST","GILBERT","AZ",85295,33.297824512,-111.782496446,442,"366 E ELGIN ST, GILBERT, AZ, 85295","Match","Exact","366 E ELGIN ST, GILBERT, AZ, 85295",128860806,"L"
187943,"366 E FERRY ST","BUFFALO","NY",14208,42.9147307690001,-78.850833891,443,"366 E FERRY ST, BUFFALO, NY, 14208","Match","Exact","366 E FERRY ST, BUFFALO, NY, 14208",48290055,"L"
187944,"366 EAST 40TH ST","PATERSON","NJ",7504,40.910167103,-74.136877899,444,"366 EAST 40TH ST, PATERSON, NJ, 7504","Match","Exact","366 E 40TH ST, PATERSON, NJ, 07504",65266849,"R"
187945,"366 EAST ROAD","CORNISH","NH",3745,43.474073554,-72.2883323849999,445,"366 EAST ROAD, CORNISH, NH, 3745","Match","Exact","366 EAST RD, CORNISH, NH, 03745",124340115,"L"
187946,"366 GEORGE W LILES PARKWAY NW - 158","CONCORD","NC",28027,35.411330042,-80.665419135,446,"366 GEORGE W LILES PARKWAY NW - 158, CONCORD, NC, 28027","Match","Non_Exact","366 GEORGE W LILES PKWY, CONCORD, NC, 28027",641626035,"R"
187947,"366 GEORGE W LILES PKWY NW STE 174","CONCORD","NC",28027,35.411330042,-80.665419135,447,"366 GEORGE W LILES PKWY NW STE 174, CONCORD, NC, 28027","Match","Non_Exact","366 GEORGE W LILES PKWY, CONCORD, NC, 28027",641626035,"R"
187948,"366 GEORGE W LILES PKWY NW UNIT 169","CONCORD","NC",28027,35.411330042,-80.665419135,448,"366 GEORGE W LILES PKWY NW UNIT 169, CONCORD, NC, 28027","Match","Non_Exact","366 GEORGE W LILES PKWY, CONCORD, NC, 28027",641626035,"R"
187949,"366 HARRY S TRUMAN DRIVE","LARGO","MD",20774,38.884719305,-76.833602247,449,"366 HARRY S TRUMAN DRIVE, LARGO, MD, 20774","Match","Exact","366 HARRY S TRUMAN DR, LARGO, MD, 20774",76378484,"L"
187950,"366 HERITAGE RUN ROAD","INDIANA","PA",15701,40.6189193170001,-79.180831907,450,"366 HERITAGE RUN ROAD, INDIANA, PA, 15701","Match","Exact","366 HERITAGE RUN RD, INDIANA, PA, 15701",647572566,"R"
187951,"366 LAFAYETTE POINT CIRCLE","CLARKSVILLE","TN",37042,36.5681667750001,-87.424253703,451,"366 LAFAYETTE POINT CIRCLE, CLARKSVILLE, TN, 37042","Match","Exact","366 LAFAYETTE POINT CIR, CLARKSVILLE, TN, 37042",31830315,"L"
187952,"366 LAWRIE STREET","PERTH AMBOY","NJ",8861,40.5178241130001,-74.2751242849999,452,"366 LAWRIE STREET, PERTH AMBOY, NJ, 8861","Match","Exact","366 LAWRIE ST, PERTH AMBOY, NJ, 08861",60280968,"R"
187953,"366 LEWIS NAIL ROAD","UVALDA","GA",30473,31.9895515160001,-82.453465721,453,"366 LEWIS NAIL ROAD, UVALDA, GA, 30473","Match","Exact","366 LEWIS NAIL RD, UVALDA, GA, 30473",4786417,"R"
187954,"366 LUDLOW AVENUE","CINCINNATI","OH",45220,39.143857274,-84.5217885179999,454,"366 LUDLOW AVENUE, CINCINNATI, OH, 45220","Match","Exact","366 LUDLOW AVE, CINCINNATI, OH, 45220",103924322,"R"
187955,"366 LUNA DR","LAS VEGAS","NM",87701,35.6222607990001,-105.257906241,455,"366 LUNA DR, LAS VEGAS, NM, 87701","Match","Non_Exact","366 N LUNA DR, LAS VEGAS, NM, 87701",169016137,"L"
187956,"366 MARLDALE DRIVE","MIDDLETOWN","DE",19709,39.4589101170001,-75.713417588,456,"366 MARLDALE DRIVE, MIDDLETOWN, DE, 19709","Match","Exact","366 MARLDALE DR, MIDDLETOWN, DE, 19709",187286287,"R"
187957,"366 MASON HILL ROAD","PINEVILLE","KY",40977,36.733766184,-83.6681017129999,457,"366 MASON HILL ROAD, PINEVILLE, KY, 40977","Match","Exact","366 MASON HILL, PINEVILLE, KY, 40977",87974354,"R"
187958,"366 MASSACHUSETTS AVE 303","ARLINGTON","MA",2474,42.4117874570001,-71.148525835,458,"366 MASSACHUSETTS AVE 303, ARLINGTON, MA, 2474","Match","Exact","366 MASSACHUSETTS AVE, ARLINGTON, MA, 02474",86888631,"L"
187959,"366 MASSACHUSETTS AVENUE SUITE 303","ARLINGTON","MA",2474,42.4117874570001,-71.148525835,459,"366 MASSACHUSETTS AVENUE SUITE 303, ARLINGTON, MA, 2474","Match","Exact","366 MASSACHUSETTS AVE, ARLINGTON, MA, 02474",86888631,"L"
187960,"366 MONTROSE AVENUE","SOUTH ORANGE","NJ",7079,40.7492051460001,-74.242859718,460,"366 MONTROSE AVENUE, SOUTH ORANGE, NJ, 7079","Match","Exact","366 MONTROSE AVE, SOUTH ORANGE, NJ, 07079",63487973,"R"
187961,"366 MUDDY CREEK ROAD","EDGEWATER","MD",21037,NA,NA,461,"366 MUDDY CREEK ROAD, EDGEWATER, MD, 21037","No_Match",NA,NA,NA,NA
187962,"366 N VAN NESS AVE","FRESNO","CA",93701,36.7483058130001,-119.798855883,462,"366 N VAN NESS AVE, FRESNO, CA, 93701","Match","Exact","366 N VAN NESS AVE, FRESNO, CA, 93701",617779447,"R"
187963,"366 NE 47TH PLACE","POMPANO BEACH","FL",33064,NA,NA,463,"366 NE 47TH PLACE, POMPANO BEACH, FL, 33064","Tie",NA,NA,NA,NA
187964,"366 NEW YORK AVE","NEW BRAUNFELS","TX",78130,29.7139659800001,-98.1436776579999,464,"366 NEW YORK AVE, NEW BRAUNFELS, TX, 78130","Match","Exact","366 NEW YORK AVE, NEW BRAUNFELS, TX, 78130",72244878,"L"
187965,"366 NOAH DAIGLE RD","CHURCH POINT","LA",70525,30.4282311480001,-92.286514629,465,"366 NOAH DAIGLE RD, CHURCH POINT, LA, 70525","Match","Exact","366 NOAH DAIGLE RD, CHURCH POINT, LA, 70525",88315567,"R"
187966,"366 NW COUNTY ROAD 2005","CORSICANA","TX",75110,32.065869363,-96.5273537469999,466,"366 NW COUNTY ROAD 2005, CORSICANA, TX, 75110","Match","Exact","366 NW CO RD 2005, CORSICANA, TX, 75110",183912752,"L"
187967,"366 OAK RIDGE RD","ORMOND BEACH","FL",32136,29.270076895,-81.2115400119999,467,"366 OAK RIDGE RD, ORMOND BEACH, FL, 32136","Match","Non_Exact","366 OAK RIDGE RD, ORMOND BEACH, FL, 32174",649908600,"L"
187968,"366 RIDGE ROAD","WINDSOR","ME",4363,44.302398634,-69.583681864,468,"366 RIDGE ROAD, WINDSOR, ME, 4363","Match","Exact","366 RIDGE RD, WINDSOR, ME, 04363",640594264,"L"
187969,"366 ROUTE 202","SOMERS","NY",10589,41.330817085,-73.681515895,469,"366 ROUTE 202, SOMERS, NY, 10589","Match","Exact","366 RTE 202, SOMERS, NY, 10589",649728860,"R"
187970,"366 S ANTEROS AVE","STOCKTON","CA",95215,NA,NA,470,"366 S ANTEROS AVE, STOCKTON, CA, 95215","Tie",NA,NA,NA,NA
187971,"366 S FIRST ST","SAN JOSE","CA",95113,37.3305132290001,-121.88634379,471,"366 S FIRST ST, SAN JOSE, CA, 95113","Match","Exact","366 S 1ST ST, SAN JOSE, CA, 95113",122907944,"L"
187972,"366 SAN CARLOS AVE","PIEDMONT","CA",94611,37.8228622400001,-122.237824844,472,"366 SAN CARLOS AVE, PIEDMONT, CA, 94611","Match","Exact","366 SAN CARLOS AVE, PIEDMONT, CA, 94611",125001725,"L"
187973,"366 SAVIN HILL AVENUE 1L","BOSTON","MA",2125,42.3126253990001,-71.0511112089999,473,"366 SAVIN HILL AVENUE 1L, BOSTON, MA, 2125","Match","Exact","366 SAVIN HILL AVE, BOSTON, MA, 02125",647316796,"L"
187974,"366 SHANTY CREEK ROAD","CENTRAL SQUARE","NY",13036,43.3297001170001,-76.132647063,474,"366 SHANTY CREEK ROAD, CENTRAL SQUARE, NY, 13036","Match","Exact","366 SHANTY CREEK RD, CENTRAL SQUARE, NY, 13036",57811697,"R"
187975,"366 SOUTH STATE RD 7","MARGATE","FL",33608,NA,NA,475,"366 SOUTH STATE RD 7, MARGATE, FL, 33608","No_Match",NA,NA,NA,NA
187976,"366 TAUNTON PLACE","BUFFALO","NY",14216,42.954518814,-78.850896705,476,"366 TAUNTON PLACE, BUFFALO, NY, 14216","Match","Exact","366 TAUNTON PL, BUFFALO, NY, 14216",48289548,"L"
187977,"366 WADSWORTH AVE APT 2","NEW YORK","NY",10040,40.856364544,-73.930149473,477,"366 WADSWORTH AVE APT 2, NEW YORK, NY, 10040","Match","Exact","366 WADSWORTH AVE, NEW YORK, NY, 10040",59659044,"L"
187978,"366 WALKER STREET 1","LOWELL","MA",1851,42.636514269,-71.329121029,478,"366 WALKER STREET 1, LOWELL, MA, 1851","Match","Exact","366 WALKER ST, LOWELL, MA, 01851",86921437,"L"
187979,"366 WESTON HALL DRIVE","SUMMERVILLE","SC",29483,32.983204035,-80.263977016,479,"366 WESTON HALL DRIVE, SUMMERVILLE, SC, 29483","Match","Exact","366 WESTON HALL DR, SUMMERVILLE, SC, 29483",645288483,"R"
187980,"366 WOOD OAK TRAIL","ELLIJAY","GA",30540,34.6348319040001,-84.5605838989999,480,"366 WOOD OAK TRAIL, ELLIJAY, GA, 30540","Match","Exact","366 WOOD OAK TRL, ELLIJAY, GA, 30540",57255679,"L"
187981,"366 WYLAND RD","BUCKINGHAM","VA",23921,37.687699084,-78.690009242,481,"366 WYLAND RD, BUCKINGHAM, VA, 23921","Match","Exact","366 WYLAND RD, BUCKINGHAM, VA, 23921",73761236,"L"
187982,"366","LITTLESTOWN","PA",17340,NA,NA,482,"366, LITTLESTOWN, PA, 17340","No_Match",NA,NA,NA,NA
187983,"3660 40TH AVE S","MINNEAPOLIS","ME",55406,NA,NA,483,"3660 40TH AVE S, MINNEAPOLIS, ME, 55406","No_Match",NA,NA,NA,NA
187984,"3660 4TH AVE SE","NAPLES","FL",34117,26.2234345800001,-81.526214598,484,"3660 4TH AVE SE, NAPLES, FL, 34117","Match","Exact","3660 4TH AVE SE, NAPLES, FL, 34117",115132162,"R"
187985,"3660 66TH STREET","URBANDALE","IA",50322,41.628187139,-93.707380175,485,"3660 66TH STREET, URBANDALE, IA, 50322","Match","Exact","3660 66TH ST, URBANDALE, IA, 50322",65776080,"L"
187986,"3660 91ST PL","STURTEVANT","WI",53177,42.6895346570001,-87.896687163,486,"3660 91ST PL, STURTEVANT, WI, 53177","Match","Exact","3660 91ST PL, STURTEVANT, WI, 53177",630356092,"L"
187987,"3660 BANDERA LANE","OKEMOS","MI",48864,42.689075738,-84.397086117,487,"3660 BANDERA LANE, OKEMOS, MI, 48864","Match","Exact","3660 BANDERA LN, OKEMOS, MI, 48864",651221551,"R"
187988,"3660 BILTMORE AVE","TALLAHASSEE","FL",32311,30.400731577,-84.209360972,488,"3660 BILTMORE AVE, TALLAHASSEE, FL, 32311","Match","Exact","3660 BILTMORE AVE, TALLAHASSEE, FL, 32311",82902974,"L"
187989,"3660 BILTMORE OAKS DRIVE","BETHLEHEM","GA",30620,33.9358062800001,-83.813071968,489,"3660 BILTMORE OAKS DRIVE, BETHLEHEM, GA, 30620","Match","Exact","3660 BILTMORE OAKS DR, BETHLEHEM, GA, 30620",88929069,"L"
187990,"3660 BOND PLACE","PIERRE","SD",57501,44.4067397200001,-100.300294112,490,"3660 BOND PLACE, PIERRE, SD, 57501","Match","Exact","3660 BOND PL, PIERRE, SD, 57501",200331293,"R"
187991,"3660 CENTER ROAD SUITE 117","BRUNSWICK","OH",44212,41.238324085,-81.818036717,491,"3660 CENTER ROAD SUITE 117, BRUNSWICK, OH, 44212","Match","Exact","3660 CENTER RD, BRUNSWICK, OH, 44212",58694302,"R"
187992,"3660 COLORADO BLVD 1050","PASADENA","CA",91107,34.1462787500001,-118.074204464,492,"3660 COLORADO BLVD 1050, PASADENA, CA, 91107","Match","Non_Exact","3660 E COLORADO BLVD, PASADENA, CA, 91107",141634328,"R"
187993,"3660 CROWCHILD DR","CUMMING","GA",30041,34.1329033420001,-84.137199386,493,"3660 CROWCHILD DR, CUMMING, GA, 30041","Match","Exact","3660 CROWCHILD DR, CUMMING, GA, 30041",629556078,"L"
187994,"3660 ELDERBERRY DR SE","KENTWOOD","MI",49512,42.8675861560001,-85.574675148,494,"3660 ELDERBERRY DR SE, KENTWOOD, MI, 49512","Match","Exact","3660 ELDERBERRY DR SE, KENTWOOD, MI, 49512",12497584,"L"
187995,"3660 JACKSON AVE","OGDEN","UT",84403,41.19643733,-111.954294591,495,"3660 JACKSON AVE, OGDEN, UT, 84403","Match","Exact","3660 JACKSON AVE, OGDEN, UT, 84403",155698521,"L"
187996,"3660 KALISPELL STREET","AURORA","CO",80011,39.767884818,-104.802776481,496,"3660 KALISPELL STREET, AURORA, CO, 80011","Match","Exact","3660 KALISPELL ST, AURORA, CO, 80011",177423404,"R"
187997,"3660 MANOR ROAD","BETHLEHEM","PA",18020,40.682512993,-75.333361946,497,"3660 MANOR ROAD, BETHLEHEM, PA, 18020","Match","Exact","3660 MANOR RD, BETHLEHEM, PA, 18020",136895468,"R"
187998,"3660 N LAKE SHORE DR APT 1409","CHICAGO","IL",60613,41.9501865350001,-87.644402251,498,"3660 N LAKE SHORE DR APT 1409, CHICAGO, IL, 60613","Match","Non_Exact","3660 N LAKESHORE DR, CHICAGO, IL, 60613",111889202,"L"
187999,"3660 NORTH RANCHO DRIVE","LAS VEGAS","NV",89130,36.2254297430001,-115.219560638,499,"3660 NORTH RANCHO DRIVE, LAS VEGAS, NV, 89130","Match","Exact","3660 N RANCHO DR, LAS VEGAS, NV, 89130",639333663,"R"
188000,"3660 NW 126 AVENUE UNIT 1","CORAL SPRINGS","FL",33065,26.2758711000001,-80.294435589,500,"3660 NW 126 AVENUE UNIT 1, CORAL SPRINGS, FL, 33065","Match","Non_Exact","3660 NW 126TH AVE, CORAL SPRINGS, FL, 33065",114689189,"L"
