"ID","Address","City","State","Zip","lat","long","id","input_address","match_indicator","match_type","matched_address","tiger_line_id","tiger_side"
256501,"606 E SHORT","WINCHESTER","IN",47394,40.1756553000001,-84.973102775,1,"606 E SHORT, WINCHESTER, IN, 47394","Match","Non_Exact","606 E SHORT ST, WINCHESTER, IN, 47394",31225625,"L"
256502,"606 E THOMAS STREET","WAUSAU","WI",54403,44.9513482670001,-89.622464107,2,"606 E THOMAS STREET, WAUSAU, WI, 54403","Match","Exact","606 E THOMAS ST, WAUSAU, WI, 54403",117138643,"L"
256503,"606 E TROY AVE","INDIANAPOLIS","IN",46203,39.7226333070001,-86.147758699,3,"606 E TROY AVE, INDIANAPOLIS, IN, 46203","Match","Exact","606 E TROY AVE, INDIANAPOLIS, IN, 46203",108006457,"L"
256504,"606 E WOODLAND PARK AVE 203","CHICAGO","IL",60616,41.8324999700001,-87.6094388499999,4,"606 E WOODLAND PARK AVE 203, CHICAGO, IL, 60616","Match","Non_Exact","606 E WOODLAND PARK, CHICAGO, IL, 60616",618343508,"R"
256505,"606 EAST 106TH TERRACE","KANSAS CITY","VA",64131,NA,NA,5,"606 EAST 106TH TERRACE, KANSAS CITY, VA, 64131","No_Match",NA,NA,NA,NA
256506,"606 EAST 2ND STREET","BROOKLYN","NY",11218,40.63624314,-73.976999454,6,"606 EAST 2ND STREET, BROOKLYN, NY, 11218","Match","Exact","606 E 2ND ST, BROOKLYN, NY, 11218",59080691,"R"
256507,"606 EAST PEMBROKE AVE","HAMPTON","VA",23669,37.0329677830001,-76.3346543549999,7,"606 EAST PEMBROKE AVE, HAMPTON, VA, 23669","Match","Exact","606 E PEMBROKE AVE, HAMPTON, VA, 23669",103759850,"R"
256508,"606 FAIRGROUNDS ROAD","WARRENTON","MO",63383,38.8350063130001,-91.138088462,8,"606 FAIRGROUNDS ROAD, WARRENTON, MO, 63383","Match","Exact","606 FAIRGROUNDS RD, WARRENTON, MO, 63383",639225330,"R"
256509,"606 FOURTH STREET","OLAR","SC",29843,33.180659226,-81.188381653,9,"606 FOURTH STREET, OLAR, SC, 29843","Match","Non_Exact","606 W 4TH ST, OLAR, SC, 29843",18957062,"R"
256510,"606 GEARNER DRIVE","WINNSBORO","TX",75494,32.9501347770001,-95.2850596339999,10,"606 GEARNER DRIVE, WINNSBORO, TX, 75494","Match","Exact","606 GEARNER DR, WINNSBORO, TX, 75494",42973830,"R"
256511,"606 GREENSIDE","BAIRD","TX",79504,32.4037853410001,-99.455512404,11,"606 GREENSIDE, BAIRD, TX, 79504","Match","Exact","606 GREENSIDE, BAIRD, TX, 79504",129548773,"L"
256512,"606 GROVE RD","GREENVILLE","SC",29605,34.8225537170001,-82.411802256,12,"606 GROVE RD, GREENVILLE, SC, 29605","Match","Exact","606 GROVE RD, GREENVILLE, SC, 29605",642160415,"R"
256513,"606 HADDONFIELD ROAD","CHERRY HILL","NJ",8002,39.9323116530001,-75.031404591,13,"606 HADDONFIELD ROAD, CHERRY HILL, NJ, 8002","Match","Exact","606 HADDONFIELD RD, CHERRY HILL, NJ, 08002",134354388,"L"
256514,"606 HANKEN RD","BOUND BROOK","NJ",8805,40.56581012,-74.551238412,14,"606 HANKEN RD, BOUND BROOK, NJ, 8805","Match","Exact","606 HANKEN RD, BOUND BROOK, NJ, 08805",59939102,"R"
256515,"606 HANOVER COURT","WAYNE","PA",19087,40.0738236350001,-75.446486395,15,"606 HANOVER COURT, WAYNE, PA, 19087","Match","Exact","606 HANOVER CT, WAYNE, PA, 19087",179536568,"R"
256516,"606 HARRIS LANE","LEBANON","MO",65536,37.6988193920001,-92.676636828,16,"606 HARRIS LANE, LEBANON, MO, 65536","Match","Exact","606 HARRIS LN, LEBANON, MO, 65536",26127493,"R"
256517,"606 HUCKLEBERRY RD","CANTON","GA",30114,34.2552160490001,-84.513017454,17,"606 HUCKLEBERRY RD, CANTON, GA, 30114","Match","Exact","606 HUCKLEBERRY RD, CANTON, GA, 30114",68822266,"L"
256518,"606 KLEIN DRIVE","SMITHTON","IL",62285,38.4138321680001,-89.9956347299999,18,"606 KLEIN DRIVE, SMITHTON, IL, 62285","Match","Exact","606 KLEIN DR, SMITHTON, IL, 62285",107848016,"L"
256519,"606 LENNA AVE","SEFFNER","FM",33584,NA,NA,19,"606 LENNA AVE, SEFFNER, FM, 33584","No_Match",NA,NA,NA,NA
256520,"606 LEVERING AVENUE APT 213","LOS ANGELES","CA",90024,34.066458923,-118.453123173,20,"606 LEVERING AVENUE APT 213, LOS ANGELES, CA, 90024","Match","Exact","606 LEVERING AVE, LOS ANGELES, CA, 90024",642867179,"L"
256521,"606 LIBERTY AVE 3RD FLOOR 107","PITTSBURG","PA",15222,40.4417563170001,-80.002422213,21,"606 LIBERTY AVE 3RD FLOOR 107, PITTSBURG, PA, 15222","Match","Non_Exact","606 LIBERTY AVE, PITTSBURGH, PA, 15222",51633735,"R"
256522,"606 MARSHALL ST","LEXINGTON","VA",24450,37.779207694,-79.453785865,22,"606 MARSHALL ST, LEXINGTON, VA, 24450","Match","Exact","606 MARSHALL ST, LEXINGTON, VA, 24450",63143969,"R"
256523,"606 MARTIN ST","BONHAM","TX",75418,33.5980632390001,-96.1714817769999,23,"606 MARTIN ST, BONHAM, TX, 75418","Match","Non_Exact","606 MARTIN DR, BONHAM, TX, 75418",63278358,"R"
256524,"606 MAYER STREET","VINELAND","NJ",8360,39.478869231,-75.054884941,24,"606 MAYER STREET, VINELAND, NJ, 8360","Match","Exact","606 MAYER ST, VINELAND, NJ, 08360",174110479,"R"
256525,"606 MEADOW CIRCLE","QUINCY","IL",62301,39.925108664,-91.357378205,25,"606 MEADOW CIRCLE, QUINCY, IL, 62301","Match","Non_Exact","606 MEADOW CIR, QUINCY, IL, 62305",35066697,"L"
256526,"606 MOUNTAINVIEW RD","LUFKIN","TX",75904,31.3243662560001,-94.8511155159999,26,"606 MOUNTAINVIEW RD, LUFKIN, TX, 75904","Match","Non_Exact","606 MOUNTAIN VIEW RD, LUFKIN, TX, 75904",648105440,"R"
256527,"606 N 560 W","SANTAQUIN","UT",84655,39.984985185,-111.796732722,27,"606 N 560 W, SANTAQUIN, UT, 84655","Match","Exact","606 N 560 W, SANTAQUIN, UT, 84655",134283201,"R"
256528,"606 N DUPONT AVENUE APT 201","MADISON","TN",37115,36.266109312,-86.70316818,28,"606 N DUPONT AVENUE APT 201, MADISON, TN, 37115","Match","Exact","606 DUPONT AVE, MADISON, TN, 37115",97183145,"R"
256529,"606 N LARCHMONT BOULEVARD SUITE 4B","LOS ANGELES","CA",90004,34.081942279,-118.32365157,29,"606 N LARCHMONT BOULEVARD SUITE 4B, LOS ANGELES, CA, 90004","Match","Non_Exact","606 N LARCHMONT BLVD, LOS ANGELES, CA, 90004",652035801,"R"
256530,"606 N SPRING AVE","COMPTON","CA",90221,33.899952123,-118.218196239,30,"606 N SPRING AVE, COMPTON, CA, 90221","Match","Exact","606 N SPRING AVE, COMPTON, CA, 90221",141678357,"R"
256531,"606 N STAPLEY DR","MESA","AZ",85203,33.4262726850001,-111.805287111,31,"606 N STAPLEY DR, MESA, AZ, 85203","Match","Exact","606 N STAPLEY DR, MESA, AZ, 85203",128245380,"L"
256532,"606 N WALNUT","ROANOKE","TX",76262,NA,NA,32,"606 N WALNUT, ROANOKE, TX, 76262","No_Match",NA,NA,NA,NA
256533,"606 N WINNEBAGO DR","GREENWOOD","MO",64034,38.8221187080001,-94.3532797249999,33,"606 N WINNEBAGO DR, GREENWOOD, MO, 64034","Match","Exact","606 N WINNEBAGO DR, GREENWOOD, MO, 64034",648666805,"L"
256534,"606 NE 5TH STREET","CRYSTAL RIVER","FL",34429,28.8983741770001,-82.584598559,34,"606 NE 5TH STREET, CRYSTAL RIVER, FL, 34429","Match","Exact","606 NE 5TH ST, CRYSTAL RIVER, FL, 34429",610749272,"L"
256535,"606 NICHOLSON STREET NW","WASHINGTON","DC",20011,38.960163794,-77.021336111,35,"606 NICHOLSON STREET NW, WASHINGTON, DC, 20011","Match","Exact","606 NICHOLSON ST NW, WASHINGTON, DC, 20011",76223347,"L"
256536,"606 NORTH 2700 EAST","ROBERTS","ID",83444,43.7148790690001,-112.162717196,36,"606 NORTH 2700 EAST, ROBERTS, ID, 83444","Match","Exact","606 N 2700 E, ROBERTS, ID, 83444",119293820,"R"
256537,"606 NORTH ROCK ROAD","MANSFIELD","OH",44903,NA,NA,37,"606 NORTH ROCK ROAD, MANSFIELD, OH, 44903","No_Match",NA,NA,NA,NA
256538,"606 NORTH TALBOT STREET SUITE 113","SAINT MICHAELS","MD",21663,38.7909126380001,-76.225274353,38,"606 NORTH TALBOT STREET SUITE 113, SAINT MICHAELS, MD, 21663","Match","Exact","606 N TALBOT ST, SAINT MICHAELS, MD, 21663",209754945,"L"
256539,"606 OAKESDALE AVE SW SUITE 204","RENTON","WA",98057,47.473349483,-122.238223423,39,"606 OAKESDALE AVE SW SUITE 204, RENTON, WA, 98057","Match","Exact","606 OAKESDALE AVE SW, RENTON, WA, 98057",239775997,"R"
256540,"606 OK STREET","KINSTON","NC",28502,NA,NA,40,"606 OK STREET, KINSTON, NC, 28502","No_Match",NA,NA,NA,NA
256541,"606 ORIOLE BLVD SUITE 204 207","DUNCANVILLE","TX",75116,32.6620973330001,-96.900841945,41,"606 ORIOLE BLVD SUITE 204 207, DUNCANVILLE, TX, 75116","Match","Exact","606 ORIOLE BLVD, DUNCANVILLE, TX, 75116",103190315,"R"
256542,"606 PAULINE STREET","PHILIPSBURG","PA",16866,40.8894448520001,-78.2096271199999,42,"606 PAULINE STREET, PHILIPSBURG, PA, 16866","Match","Exact","606 PAULINE ST, PHILIPSBURG, PA, 16866",50372709,"L"
256543,"606 PLEASANT POINT","SPARTANBURG","SC",29301,34.911553215,-82.011948947,43,"606 PLEASANT POINT, SPARTANBURG, SC, 29301","Match","Exact","606 PLEASANT PT, SPARTANBURG, SC, 29301",19479271,"R"
256544,"606 POLK AVE","AKRON","OH",44314,41.0485305390001,-81.5501137099999,44,"606 POLK AVE, AKRON, OH, 44314","Match","Exact","606 POLK AVE, AKRON, OH, 44314",61344028,"L"
256545,"606 POST ROAD EAST  PMB 629","WESTPORT","CT",6880,41.1387088170001,-73.3447572439999,45,"606 POST ROAD EAST  PMB 629, WESTPORT, CT, 6880","Match","Exact","606 POST RD E, WESTPORT, CT, 06880",638553351,"R"
256546,"606 QUAIL AVENUE","CHESAPEAKE","VA",23324,36.8237543980001,-76.2644221049999,46,"606 QUAIL AVENUE, CHESAPEAKE, VA, 23324","Match","Exact","606 QUAIL AVE, CHESAPEAKE, VA, 23324",121770448,"R"
256547,"606 RALEIGH PLACE SE SUITE 203","WASHINGTON","DC",20032,NA,NA,47,"606 RALEIGH PLACE SE SUITE 203, WASHINGTON, DC, 20032","No_Match",NA,NA,NA,NA
256548,"606 RAMBLEWOOD ROAD","FOREST","VA",24551,37.346510676,-79.27651064,48,"606 RAMBLEWOOD ROAD, FOREST, VA, 24551","Match","Exact","606 RAMBLEWOOD RD, FOREST, VA, 24551",62669668,"L"
256549,"606 RHODORA HTS RD","LAKE STEVENS","WA",98208,47.990833379,-122.072470969,49,"606 RHODORA HTS RD, LAKE STEVENS, WA, 98208","Match","Non_Exact","606 RHODORA HEIGHTS RD, LAKE STEVENS, WA, 98258",606939627,"L"
256550,"606 RIDGE AVE","KENNET SQUARE","PA",19348,39.8350238520001,-75.716459147,50,"606 RIDGE AVE, KENNET SQUARE, PA, 19348","Match","Non_Exact","606 RIDGE AVE, KENNETT SQUARE, PA, 19348",179502656,"R"
256551,"606 ROBIN HOOD DR","YORKTOWN","VA",23693,37.1065280930001,-76.412321231,51,"606 ROBIN HOOD DR, YORKTOWN, VA, 23693","Match","Exact","606 ROBIN HOOD DR, YORKTOWN, VA, 23693",103789992,"L"
256552,"606 ROBIN LANE","HAVANA","FL",32333,30.5301199190001,-84.439748622,52,"606 ROBIN LANE, HAVANA, FL, 32333","Match","Exact","606 ROBIN LN, HAVANA, FL, 32333",87825869,"L"
256553,"606 ROSE ST","FLORENCE","SC",29506,34.2038687190001,-79.758369737,53,"606 ROSE ST, FLORENCE, SC, 29506","Match","Exact","606 ROSE ST, FLORENCE, SC, 29506",28876580,"R"
256554,"606 S 13TH AVE","BOZEMAN","MT",59715,45.673167504,-111.054612788,54,"606 S 13TH AVE, BOZEMAN, MT, 59715","Match","Exact","606 S 13TH AVE, BOZEMAN, MT, 59715",163498329,"R"
256555,"606 S 15TH STREET","EAST ST LOUIS","IL",62207,38.6103246860001,-90.156489424,55,"606 S 15TH STREET, EAST ST LOUIS, IL, 62207","Match","Exact","606 S 15TH ST, E SAINT LOUIS, IL, 62207",107830050,"L"
256556,"606 S 1ST ST","TUCUMCARI","NM",88401,35.173676109,-103.724785893,56,"606 S 1ST ST, TUCUMCARI, NM, 88401","Match","Exact","606 S 1ST ST, TUCUMCARI, NM, 88401",607967845,"R"
256557,"606 S BROADWAY ST","WESTPORT","WA",98595,46.882230092,-124.107077113,57,"606 S BROADWAY ST, WESTPORT, WA, 98595","Match","Exact","606 S BROADWAY ST, WESTPORT, WA, 98595",180594817,"L"
256558,"606 S CENTRAL AVE","SAFFORD","AZ",85546,32.8332379010001,-109.711281712,58,"606 S CENTRAL AVE, SAFFORD, AZ, 85546","Match","Exact","606 S CENTRAL AVE, SAFFORD, AZ, 85546",128053048,"R"
256559,"606 S GREEN","GEORGETOWN","OH",45121,38.861828185,-83.906586266,59,"606 S GREEN, GEORGETOWN, OH, 45121","Match","Non_Exact","606 S GREEN ST, GEORGETOWN, OH, 45121",100969408,"L"
256560,"606 S HARRISON PLACE","MT PLEASANT","IA",52641,40.960651951,-91.550803209,60,"606 S HARRISON PLACE, MT PLEASANT, IA, 52641","Match","Exact","606 S HARRISON PL, MOUNT PLEASANT, IA, 52641",16084653,"R"
256561,"606 S HENDERSON STREET","SYLVESTER","GA",31791,NA,NA,61,"606 S HENDERSON STREET, SYLVESTER, GA, 31791","Tie",NA,NA,NA,NA
256562,"606 S HILL ST APT 606","LOS ANGELES","CA",90014,34.047154698,-118.253277811,62,"606 S HILL ST APT 606, LOS ANGELES, CA, 90014","Match","Non_Exact","606 S HILL ST, LOS ANGELES, CA, 90014",141619320,"L"
256563,"606 S HUSBAND ST SUITE 111","STILLWATER","OK",74074,36.115586448,-97.0599557,63,"606 S HUSBAND ST SUITE 111, STILLWATER, OK, 74074","Match","Non_Exact","606 S HUSBAND ST, STILLWATER, OK, 74074",639317454,"L"
256564,"606 SAINT PAUL STREET NUMBER 13","BALTIMORE","MD",21202,39.2969039980001,-76.614032497,64,"606 SAINT PAUL STREET NUMBER 13, BALTIMORE, MD, 21202","Match","Exact","606 SAINT PAUL ST, BALTIMORE, MD, 21202",206429827,"L"
256565,"606 SANTA FE PIKE","COLUMBIA","TN",38401,35.633367542,-87.041355718,65,"606 SANTA FE PIKE, COLUMBIA, TN, 38401","Match","Exact","606 SANTA FE PIKE, COLUMBIA, TN, 38401",26897269,"R"
256566,"606 SARATOGA AVENUE","BROOKLYN","NY",11212,40.6659368580001,-73.916597203,66,"606 SARATOGA AVENUE, BROOKLYN, NY, 11212","Match","Exact","606 SARATOGA AVE, BROOKLYN, NY, 11212",59083804,"R"
256567,"606 SE 148TH AVE","PORTLAND","OR",97233,45.518540525,-122.510696,67,"606 SE 148TH AVE, PORTLAND, OR, 97233","Match","Exact","606 SE 148TH AVE, PORTLAND, OR, 97233",157561138,"L"
256568,"606 SETH LN","LONGS","SC",29568,33.9165047270001,-78.81079715,68,"606 SETH LN, LONGS, SC, 29568","Match","Exact","606 SETH LN, LONGS, SC, 29568",624724031,"R"
256569,"606 SHOEY ROAD","MOHRSVILLE","PA",19541,40.492848386,-75.981739605,69,"606 SHOEY ROAD, MOHRSVILLE, PA, 19541","Match","Exact","606 SHOEY RD, MOHRSVILLE, PA, 19541",80369680,"R"
256570,"606 SINGLE SPUR COURT","SCOTTS VALLEY","CA",95066,37.0388042540001,-122.015971292,70,"606 SINGLE SPUR COURT, SCOTTS VALLEY, CA, 95066","Match","Exact","606 SINGLE SPUR CT, SCOTTS VALLEY, CA, 95066",125528572,"R"
256571,"606 SMITH ST","MOORESVILLE","NC",28115,35.571305566,-80.820637614,71,"606 SMITH ST, MOORESVILLE, NC, 28115","Match","Exact","606 SMITH ST, MOORESVILLE, NC, 28115",45992087,"R"
256572,"606 SOUTH 4TH AVE","WASHINGTON","IA",52353,41.294560044,-91.688021018,72,"606 SOUTH 4TH AVE, WASHINGTON, IA, 52353","Match","Exact","606 S 4TH AVE, WASHINGTON, IA, 52353",84182573,"R"
256573,"606 SUGARBALL LANE","CINCINNATI","OH",45215,39.216028862,-84.4841386639999,73,"606 SUGARBALL LANE, CINCINNATI, OH, 45215","Match","Exact","606 SUGARBALL LN, CINCINNATI, OH, 45215",640627702,"L"
256574,"606 SUMMIT AVE","GREENSBORO","NC",27405,36.079932156,-79.781581376,74,"606 SUMMIT AVE, GREENSBORO, NC, 27405","Match","Exact","606 SUMMIT AVE, GREENSBORO, NC, 27405",131033189,"R"
256575,"606 SUNSET ROAD","WEST PALM BEACH","FL",33401,26.691769003,-80.057482717,75,"606 SUNSET ROAD, WEST PALM BEACH, FL, 33401","Match","Exact","606 SUNSET RD, WEST PALM BEACH, FL, 33401",115528513,"L"
256576,"606 TATE ROAD","BOLIVAR","TN",38008,35.264413249,-88.9959807769999,76,"606 TATE ROAD, BOLIVAR, TN, 38008","Match","Exact","606 TATE RD, BOLIVAR, TN, 38008",21116787,"R"
256577,"606 TURQUOISE TRAIL","MARSHALL","MI",49068,42.281675765,-84.972570557,77,"606 TURQUOISE TRAIL, MARSHALL, MI, 49068","Match","Exact","606 TURQUOISE TRL, MARSHALL, MI, 49068",11722710,"L"
256578,"606 VICTORIA DOWNS COURT","WOODSTOCK","GA",30189,34.1362684220001,-84.5976401629999,78,"606 VICTORIA DOWNS COURT, WOODSTOCK, GA, 30189","Match","Exact","606 VICTORIA DOWNS CT, WOODSTOCK, GA, 30189",68834765,"R"
256579,"606 W 5TH ST","OSMOND","NE",68765,42.3609245000001,-97.603558936,79,"606 W 5TH ST, OSMOND, NE, 68765","Match","Exact","606 5TH ST, OSMOND, NE, 68765",649155984,"R"
256580,"606 W CAROLINA AVENUE","HARTSVILLE","SC",29550,34.369037522,-80.086586058,80,"606 W CAROLINA AVENUE, HARTSVILLE, SC, 29550","Match","Exact","606 WEST CAROLINA AVE, HARTSVILLE, SC, 29550",78394515,"L"
256581,"606 W CHESTNUT ST","ALBION","MI",49224,42.2491920590001,-84.76065425,81,"606 W CHESTNUT ST, ALBION, MI, 49224","Match","Exact","606 W CHESTNUT ST, ALBION, MI, 49224",11724758,"L"
256582,"606 W DENTON STREET","ENNIS","TX",75119,32.32917668,-96.6350409139999,82,"606 W DENTON STREET, ENNIS, TX, 75119","Match","Exact","606 W DENTON ST, ENNIS, TX, 75119",103455073,"R"
256583,"606 W MONROE AVE","GREENWOOD","MS",38930,33.5260143940001,-90.195562216,83,"606 W MONROE AVE, GREENWOOD, MS, 38930","Match","Exact","606 W MONROE AVE, GREENWOOD, MS, 38930",1048206,"L"
256584,"606 W STATE ST","O FALLON","IL",62269,38.59228869,-89.921097828,84,"606 W STATE ST, O FALLON, IL, 62269","Match","Exact","606 W STATE ST, O FALLON, IL, 62269",107843435,"R"
256585,"606 WALDEN RUN PLACE","MCDONOUGH","GA",30253,33.448690533,-84.168036491,85,"606 WALDEN RUN PLACE, MCDONOUGH, GA, 30253","Match","Exact","606 WALDEN RUN PL, MCDONOUGH, GA, 30253",210412758,"L"
256586,"606 WALLACH DR","EUREKA","MO",63025,38.4892192360001,-90.61708433,86,"606 WALLACH DR, EUREKA, MO, 63025","Match","Exact","606 WALLACH DR, EUREKA, MO, 63025",100180028,"L"
256587,"606 WALNUT GROVE DR","MADISON","WI",53717,43.074572532,-89.506313292,87,"606 WALNUT GROVE DR, MADISON, WI, 53717","Match","Exact","606 WALNUT GROVE DR, MADISON, WI, 53717",49483694,"L"
256588,"606 WALNUT ST W","WILSON","NC",27893,35.727953262,-77.9227286779999,88,"606 WALNUT ST W, WILSON, NC, 27893","Match","Exact","606 WALNUT ST W, WILSON, NC, 27893",26705104,"R"
256589,"606 WEATHERVANE DRIVE","DURHAM","NC",27703,35.9705462090001,-78.79103176,89,"606 WEATHERVANE DRIVE, DURHAM, NC, 27703","Match","Exact","606 WEATHERVANE DR, DURHAM, NC, 27703",614176415,"R"
256590,"606 WEST 12TH ST","AUSTIN","TX",78701,30.275479084,-97.746425049,90,"606 WEST 12TH ST, AUSTIN, TX, 78701","Match","Exact","606 W 12TH ST, AUSTIN, TX, 78701",63943167,"R"
256591,"606 WEST COLLEGE AVENUE","HARTSVILLE","SC",29550,34.3702172380001,-80.0867717949999,91,"606 WEST COLLEGE AVENUE, HARTSVILLE, SC, 29550","Match","Exact","606 W COLLEGE AVE, HARTSVILLE, SC, 29550",78393785,"L"
256592,"606 WEST HACKBERRY AVE","MCALLEN","TX",78501,26.210062099,-98.224563389,92,"606 WEST HACKBERRY AVE, MCALLEN, TX, 78501","Match","Exact","606 W HACKBERRY AVE, MCALLEN, TX, 78501",71502166,"R"
256593,"606 WEST OAK STREET","FAIRBURY","IL",61739,40.743772307,-88.521083517,93,"606 WEST OAK STREET, FAIRBURY, IL, 61739","Match","Exact","606 W OAK ST, FAIRBURY, IL, 61739",22379383,"R"
256594,"606 WESTWOOD DR","HOMEDALE","ID",83628,43.6196071620001,-116.944857415,94,"606 WESTWOOD DR, HOMEDALE, ID, 83628","Match","Exact","606 WESTWOOD DR, HOMEDALE, ID, 83628",625326191,"R"
256595,"606 WILBUR ST SE","SALEM","OR",97302,44.9245208240001,-123.03996405,95,"606 WILBUR ST SE, SALEM, OR, 97302","Match","Exact","606 WILBUR ST SE, SALEM, OR, 97302",156248488,"R"
256596,"606 WILSON AVE NE","ST CLOUD","MN",56304,45.572064212,-94.1570682299999,96,"606 WILSON AVE NE, ST CLOUD, MN, 56304","Match","Exact","606 WILSON AVE NE, SAINT CLOUD, MN, 56304",167359548,"R"
256597,"606 WINDSOR TER","JEFFERSON","WI",53549,43.01197505,-88.8147115789999,97,"606 WINDSOR TER, JEFFERSON, WI, 53549","Match","Exact","606 WINDSOR TER, JEFFERSON, WI, 53549",53231264,"L"
256598,"606 YARDARM DR","APOLLO BEACH","FL",33572,27.7738862940001,-82.408236067,98,"606 YARDARM DR, APOLLO BEACH, FL, 33572","Match","Exact","606 YARDARM DR, APOLLO BEACH, FL, 33572",640440118,"L"
256599,"6060 BUCKINGHAM PARKWAY  APT 409","CULVER CITY","CA",90230,33.985087413,-118.383919624,99,"6060 BUCKINGHAM PARKWAY  APT 409, CULVER CITY, CA, 90230","Match","Exact","6060 BUCKINGHAM PKWY, CULVER CITY, CA, 90230",141579120,"L"
256600,"6060 CENTER DR FL 10","LOS ANGELES","CA",90045,NA,NA,100,"6060 CENTER DR FL 10, LOS ANGELES, CA, 90045","No_Match",NA,NA,NA,NA
256601,"6060 E LOS ARCOS ST","LONG BEACH","CA",90815,33.799991946,-118.11426783,101,"6060 E LOS ARCOS ST, LONG BEACH, CA, 90815","Match","Exact","6060 E LOS ARCOS ST, LONG BEACH, CA, 90815",640417953,"R"
256602,"6060 FEDERAL BOULEVARD","SAN DIEGO","CA",92114,32.7301826070001,-117.0615267,102,"6060 FEDERAL BOULEVARD, SAN DIEGO, CA, 92114","Match","Exact","6060 FEDERAL BLVD, SAN DIEGO, CA, 92114",195749575,"L"
256603,"6060 GOLF VIEW CROSSING","LOCUST GROVE","GA",30248,33.3416370100001,-84.201021163,103,"6060 GOLF VIEW CROSSING, LOCUST GROVE, GA, 30248","Match","Exact","6060 GOLF VIEW CROSSING, LOCUST GROVE, GA, 30248",627696041,"R"
256604,"6060 HANGAR ROAD","TILLAMOOK","OR",97141,45.4212211560001,-123.802729427,104,"6060 HANGAR ROAD, TILLAMOOK, OR, 97141","Match","Exact","6060 HANGAR RD, TILLAMOOK, OR, 97141",156386682,"L"
256605,"6060 HARTLAND RD","FENTON","MI",48430,42.6957572630001,-83.742145776,105,"6060 HARTLAND RD, FENTON, MI, 48430","Match","Exact","6060 HARTLAND RD, FENTON, MI, 48430",653389715,"L"
256606,"6060 HEATH VALLEY RD A","CHARLOTTE","NC",28210,35.129287323,-80.831238425,106,"6060 HEATH VALLEY RD A, CHARLOTTE, NC, 28210","Match","Exact","6060 HEATH VALLEY RD, CHARLOTTE, NC, 28210",70505661,"L"
256607,"6060 MOSS SIDE LANE","BATON ROUGE","LA",70808,30.4113004640001,-91.127582811,107,"6060 MOSS SIDE LANE, BATON ROUGE, LA, 70808","Match","Exact","6060 MOSS SIDE LN, BATON ROUGE, LA, 70808",606432388,"R"
256608,"6060 N 77TH STREET","MILWAUKEE","WI",53218,43.127922406,-88.0071718309999,108,"6060 N 77TH STREET, MILWAUKEE, WI, 53218","Match","Exact","6060 N 77TH ST, MILWAUKEE, WI, 53218",77725978,"R"
256609,"6060 N CENTRAL EXPRESSWAY STE 500","DALLAS","TX",75206,32.8407930440001,-96.775721733,109,"6060 N CENTRAL EXPRESSWAY STE 500, DALLAS, TX, 75206","Match","Non_Exact","6060 N CENTRAL EXPY, DALLAS, TX, 75206",637925168,"R"
256610,"6060 N CENTRAL EXPRESSWAY STE 560","DALLAS","TX",75206,32.8407930440001,-96.775721733,110,"6060 N CENTRAL EXPRESSWAY STE 560, DALLAS, TX, 75206","Match","Non_Exact","6060 N CENTRAL EXPY, DALLAS, TX, 75206",637925168,"R"
256611,"6060 N CENTRAL EXPRESSWAY SUITE 500","DALLAS","TX",75206,32.8407930440001,-96.775721733,111,"6060 N CENTRAL EXPRESSWAY SUITE 500, DALLAS, TX, 75206","Match","Non_Exact","6060 N CENTRAL EXPY, DALLAS, TX, 75206",637925168,"R"
256612,"6060 NORTH CENTRAL EXPWY","DALLAS","TX",75206,32.840784861,-96.775726428,112,"6060 NORTH CENTRAL EXPWY, DALLAS, TX, 75206","Match","Exact","6060 N CENTRAL EXPY, DALLAS, TX, 75206",637925168,"R"
256613,"6060 PARKLAND BOULEVARD SUITE 100","CLEVELAND","OH",44124,41.5092652270001,-81.457084896,113,"6060 PARKLAND BOULEVARD SUITE 100, CLEVELAND, OH, 44124","Match","Exact","6060 PARKLAND BLVD, CLEVELAND, OH, 44124",649549338,"R"
256614,"6060 PIEDMONT ROW DRIVE S SUITE 120","CHARLOTTE","NC",28287,NA,NA,114,"6060 PIEDMONT ROW DRIVE S SUITE 120, CHARLOTTE, NC, 28287","No_Match",NA,NA,NA,NA
256615,"6060 POPLAR STE 140","MEMPHIS","TN",38119,35.102365693,-89.861936005,115,"6060 POPLAR STE 140, MEMPHIS, TN, 38119","Match","Non_Exact","6060 POPLAR AVE, MEMPHIS, TN, 38119",634269565,"L"
256616,"6060 RICHMOND AVENUE SUITE 110","HOUSTON","TX",77057,29.731663913,-95.4860017889999,116,"6060 RICHMOND AVENUE SUITE 110, HOUSTON, TX, 77057","Match","Exact","6060 RICHMOND AVE, HOUSTON, TX, 77057",96620220,"R"
256617,"6060 S WHITETAIL DR","HEREFORD","AZ",85615,31.4584009650001,-110.283143811,117,"6060 S WHITETAIL DR, HEREFORD, AZ, 85615","Match","Exact","6060 S WHITETAIL DR, HEREFORD, AZ, 85615",121027322,"R"
256618,"6060 SE BLVD","DERBY","KS",67037,37.5826829170001,-97.281429487,118,"6060 SE BLVD, DERBY, KS, 67037","Match","Non_Exact","6060 S SOUTHEAST BLVD, DERBY, KS, 67037",115649848,"L"
256619,"6060 VILLAGE BEND DRIVE APT 212","DALLAS","TX",75206,32.8532873010001,-96.760978982,119,"6060 VILLAGE BEND DRIVE APT 212, DALLAS, TX, 75206","Match","Exact","6060 VILLAGE BEND DR, DALLAS, TX, 75206",103183067,"R"
256620,"6060 W CANAL RD","VALLEY VIEW","OH",44125,41.3992881180001,-81.62719909,120,"6060 W CANAL RD, VALLEY VIEW, OH, 44125","Match","Non_Exact","6060 W CANAL RD, VALLEY VIEW, OH, 44125",61176288,"R"
256621,"6060 W MANCHESTER BLVD STE 315","LOS ANGELES","CA",90045,NA,NA,121,"6060 W MANCHESTER BLVD STE 315, LOS ANGELES, CA, 90045","No_Match",NA,NA,NA,NA
256622,"6060 W MANCHESTER BLVD STE310","LOS ANGELES","CA",90045,NA,NA,122,"6060 W MANCHESTER BLVD STE310, LOS ANGELES, CA, 90045","No_Match",NA,NA,NA,NA
256623,"6060 WATER OAKS DRIVE","AUSTELL","GA",30106,33.810153192,-84.664636776,123,"6060 WATER OAKS DRIVE, AUSTELL, GA, 30106","Match","Exact","6060 WATER OAKS DR, AUSTELL, GA, 30106",645394910,"R"
256624,"6060 WHITWORTH DR","LOS ANGELES","CA",90019,34.055538535,-118.364138834,124,"6060 WHITWORTH DR, LOS ANGELES, CA, 90019","Match","Exact","6060 WHITWORTH DR, LOS ANGELES, CA, 90019",141598960,"L"
256625,"6060 WORMAR AVE","FORT WORTH","TX",76133,32.6553989440001,-97.3782230739999,125,"6060 WORMAR AVE, FORT WORTH, TX, 76133","Match","Exact","6060 WORMAR AVE, FORT WORTH, TX, 76133",101893542,"R"
256626,"6061 4TH AVE","LOS ANGELES","CA",90043,33.9843915860001,-118.321585646,126,"6061 4TH AVE, LOS ANGELES, CA, 90043","Match","Exact","6061 4TH AVE, LOS ANGELES, CA, 90043",141657862,"R"
256627,"6061 DALE ST STE M","BUENA PARK","CA",90621,33.87248112,-117.985851544,127,"6061 DALE ST STE M, BUENA PARK, CA, 90621","Match","Exact","6061 DALE ST, BUENA PARK, CA, 90621",144095505,"L"
256628,"6061 FATHER CARUSO DR APT 3425","CLEVELAND","OH",44102,NA,NA,128,"6061 FATHER CARUSO DR APT 3425, CLEVELAND, OH, 44102","No_Match",NA,NA,NA,NA
256629,"6061 GATE PARKWAY","JACKSONVILLE","FL",32256,30.2476758660001,-81.522491504,129,"6061 GATE PARKWAY, JACKSONVILLE, FL, 32256","Match","Non_Exact","6061 GATE PKWY N, JACKSONVILLE, FL, 32256",650051024,"L"
256630,"6061 GREENWAY AVE","PHILADELPHIA","PA",19142,39.9304521450001,-75.230166788,130,"6061 GREENWAY AVE, PHILADELPHIA, PA, 19142","Match","Exact","6061 GREENWAY AVE, PHILADELPHIA, PA, 19142",131409107,"R"
256631,"6061 MAXIE HWY","CROWLEY","LA",70526,30.326690172,-92.4063807109999,131,"6061 MAXIE HWY, CROWLEY, LA, 70526","Match","Exact","6061 MAXIE HWY, CROWLEY, LA, 70526",651497376,"L"
256632,"6061 MYRTLE AVE","LONG BEACH","CA",90805,33.8647855610001,-118.182035132,132,"6061 MYRTLE AVE, LONG BEACH, CA, 90805","Match","Exact","6061 MYRTLE AVE, LONG BEACH, CA, 90805",141684499,"L"
256633,"6061 OHIO RIVER ROAD","HUNTINGTON","WV",25702,38.4584165160001,-82.304086661,133,"6061 OHIO RIVER ROAD, HUNTINGTON, WV, 25702","Match","Exact","6061 OHIO RIVER RD, HUNTINGTON, WV, 25702",101320842,"R"
256634,"6061 POTOMAC ST","ST LOUIS","MO",63139,38.598556984,-90.293711579,134,"6061 POTOMAC ST, ST LOUIS, MO, 63139","Match","Exact","6061 POTOMAC ST, SAINT LOUIS, MO, 63139",605126955,"R"
256635,"6061 S POINTE BLVD","FORT MYERS","FL",33919,NA,NA,135,"6061 S POINTE BLVD, FORT MYERS, FL, 33919","No_Match",NA,NA,NA,NA
256636,"6061 WATERVIEW CT","WEST BLOOMFIELD","MI",48322,42.551116983,-83.402987211,136,"6061 WATERVIEW CT, WEST BLOOMFIELD, MI, 48322","Match","Exact","6061 WATERVIEW CT, W BLOOMFIELD, MI, 48322",69721606,"L"
256637,"60613 GENTLE RUN CT","SOUTH BEND","IN",46614,41.6138753130001,-86.2680366719999,137,"60613 GENTLE RUN CT, SOUTH BEND, IN, 46614","Match","Exact","60613 GENTLE RUN CT, SOUTH BEND, IN, 46614",8072285,"R"
256638,"6062 GIBSON AVENUE","TAMPA","FL",33617,28.062573038,-82.3896155959999,138,"6062 GIBSON AVENUE, TAMPA, FL, 33617","Match","Exact","6062 GIBSON AVE, TAMPA, FL, 33617",630029899,"R"
256639,"6062 ROBINSON ST","JUPITER","FL",33458,26.903801953,-80.128750635,139,"6062 ROBINSON ST, JUPITER, FL, 33458","Match","Exact","6062 ROBINSON ST, JUPITER, FL, 33458",115342721,"R"
256640,"6062 S HIDDEN PLACE","TAYLORSVILLE","UT",84123,40.642277178,-111.930819837,140,"6062 S HIDDEN PLACE, TAYLORSVILLE, UT, 84123","Match","Exact","6062 HIDDEN PL, TAYLORSVILLE, UT, 84123",176155315,"R"
256641,"6062 TINA LANE","REX","GA",30273,33.5883091860001,-84.27470919,141,"6062 TINA LANE, REX, GA, 30273","Match","Exact","6062 TINA LN, REX, GA, 30273",23315986,"L"
256642,"60625 RIVER BEND DRIVE","BEND","OR",97702,44.0016528040001,-121.371510283,142,"60625 RIVER BEND DRIVE, BEND, OR, 97702","Match","Exact","60625 RIVER BEND DR, BEND, OR, 97702",152563351,"L"
256643,"6063 FLEETWOOD DRIVE","BATON ROUGE","LA",70817,30.394894293,-90.9926113129999,143,"6063 FLEETWOOD DRIVE, BATON ROUGE, LA, 70817","Match","Exact","6063 FLEETWOOD DR, BATON ROUGE, LA, 70817",92196877,"L"
256644,"6063 KILMER NW SUITE G","ALBUQUERQUE","NM",87120,35.1210772910001,-106.706917038,144,"6063 KILMER NW SUITE G, ALBUQUERQUE, NM, 87120","Match","Non_Exact","6063 KILMER AVE NW, ALBUQUERQUE, NM, 87120",206699414,"R"
256645,"6063 MARIE DRIVE","GULF BREEZE","FL",32563,30.3965455690001,-86.968747572,145,"6063 MARIE DRIVE, GULF BREEZE, FL, 32563","Match","Exact","6063 MARIE DR, GULF BREEZE, FL, 32563",626950352,"R"
256646,"6063 MARSHAL FOCH ST","NEW ORLEANS","LA",70124,29.9999444480001,-90.104307494,146,"6063 MARSHAL FOCH ST, NEW ORLEANS, LA, 70124","Match","Non_Exact","6063 MARSHALL FOCH ST, NEW ORLEANS, LA, 70124",191705827,"R"
256647,"6063 PEACHTREE PARKWAY   SUITE 101A","PEACHTREE CORNERS","GA",30092,33.954005997,-84.2336360739999,147,"6063 PEACHTREE PARKWAY   SUITE 101A, PEACHTREE CORNERS, GA, 30092","Match","Non_Exact","6063 PEACHTREE PKWY NW, PEACHTREE CORNERS, GA, 30092",88957775,"L"
256648,"6064 CALLOWHILL ST","PHILADELPHIA","PA",19151,39.968251373,-75.240758991,148,"6064 CALLOWHILL ST, PHILADELPHIA, PA, 19151","Match","Exact","6064 CALLOWHILL ST, PHILADELPHIA, PA, 19151",131397498,"L"
256649,"6064 HARVEST DRIVE","COLUMBUS","GA",31907,32.487581284,-84.8871857089999,149,"6064 HARVEST DRIVE, COLUMBUS, GA, 31907","Match","Exact","6064 HARVEST DR, COLUMBUS, GA, 31907",98944448,"R"
256650,"6064 LANDIS DR","BATON ROUGE","LA",70812,30.506867546,-91.119975799,150,"6064 LANDIS DR, BATON ROUGE, LA, 70812","Match","Exact","6064 LANDIS DR, BATON ROUGE, LA, 70812",92188393,"R"
256651,"6064 TARRAGONA DRIVE","SAN DIEGO","CA",92115,32.7562318080001,-117.064726485,151,"6064 TARRAGONA DRIVE, SAN DIEGO, CA, 92115","Match","Exact","6064 TARRAGONA DR, SAN DIEGO, CA, 92115",195351041,"L"
256652,"60649","CHICAGO","IL",60649,NA,NA,152,"60649, CHICAGO, IL, 60649","No_Match",NA,NA,NA,NA
256653,"6065 44TH ST N","OAKDALE","MN",55128,45.0121818900001,-92.9836657,153,"6065 44TH ST N, OAKDALE, MN, 55128","Match","Exact","6065 44TH ST N, OAKDALE, MN, 55128",97791210,"R"
256654,"6065 FRANKFORD AVE","PHILADELPHIA","PA",19135,40.026884775,-75.066354839,154,"6065 FRANKFORD AVE, PHILADELPHIA, PA, 19135","Match","Exact","6065 FRANKFORD AVE, PHILADELPHIA, PA, 19135",131428664,"R"
256655,"6065 HARFORD RD","BALTIMORE","MD",21214,39.3578913360001,-76.556642623,155,"6065 HARFORD RD, BALTIMORE, MD, 21214","Match","Exact","6065 HARFORD RD, BALTIMORE, MD, 21214",206410779,"R"
256656,"6065 HEARTH COURT","COLORADO SPRINGS","CO",80922,38.9075935070001,-104.705227412,156,"6065 HEARTH COURT, COLORADO SPRINGS, CO, 80922","Match","Exact","6065 HEARTH CT, COLORADO SPRINGS, CO, 80922",105550077,"L"
256657,"6065 HILLCROFT ST SUITE 104","HOUSTON","TX",77081,29.715682778,-95.4979673,157,"6065 HILLCROFT ST SUITE 104, HOUSTON, TX, 77081","Match","Exact","6065 HILLCROFT ST, HOUSTON, TX, 77081",96614612,"L"
256658,"6065 ROSWELL RD STE 450","ATLANTA","GA",30328,33.9206662450001,-84.379021248,158,"6065 ROSWELL RD STE 450, ATLANTA, GA, 30328","Match","Exact","6065 ROSWELL RD, ATLANTA, GA, 30328",17333248,"R"
256659,"6065 ROSWELL RD STE 680","ATLANTA","GA",30328,33.9206662450001,-84.379021248,159,"6065 ROSWELL RD STE 680, ATLANTA, GA, 30328","Match","Exact","6065 ROSWELL RD, ATLANTA, GA, 30328",17333248,"R"
256660,"6065 ROSWELL ROAD STE 450","ATLANTA","GA",30328,33.9206662450001,-84.379021248,160,"6065 ROSWELL ROAD STE 450, ATLANTA, GA, 30328","Match","Exact","6065 ROSWELL RD, ATLANTA, GA, 30328",17333248,"R"
256661,"6065 ROSWELL ROAD SUITE 450","MARIETTA","GA",30328,33.9206662450001,-84.379021248,161,"6065 ROSWELL ROAD SUITE 450, MARIETTA, GA, 30328","Match","Non_Exact","6065 ROSWELL RD, ATLANTA, GA, 30328",17333248,"R"
256662,"6065 S TROPICAL TRAIL","MERRITT ISLAND","FL",32952,28.250534085,-80.658120647,162,"6065 S TROPICAL TRAIL, MERRITT ISLAND, FL, 32952","Match","Exact","6065 S TROPICAL TRL, MERRITT ISLAND, FL, 32952",601722319,"R"
256663,"6065A ESSEX HOUSE SQUARE","ALEXANDRIA","VA",22310,38.766563912,-77.147578728,163,"6065A ESSEX HOUSE SQUARE, ALEXANDRIA, VA, 22310","Match","Exact","6065 ESSEX HOUSE SQ, ALEXANDRIA, VA, 22310",619828597,"R"
256664,"6066 DEER RIDGE TRL","SPRINGFIELD","VA",22150,38.790184938,-77.15798734,164,"6066 DEER RIDGE TRL, SPRINGFIELD, VA, 22150","Match","Exact","6066 DEER RIDGE TRL, SPRINGFIELD, VA, 22150",624907103,"L"
256665,"6066 HIGHWAY 291","NINE MILE FALLS","WA",99026,NA,NA,165,"6066 HIGHWAY 291, NINE MILE FALLS, WA, 99026","Tie",NA,NA,NA,NA
256666,"6066 N AUGUSTA","FRESNO","CA",93710,36.823953079,-119.778976224,166,"6066 N AUGUSTA, FRESNO, CA, 93710","Match","Non_Exact","6066 N AUGUSTA ST, FRESNO, CA, 93710",197573408,"R"
256667,"6066 S WILSON DR","CHANDLER","AZ",85249,33.2179631770001,-111.79327459,167,"6066 S WILSON DR, CHANDLER, AZ, 85249","Match","Exact","6066 S WILSON DR, CHANDLER, AZ, 85249",625684327,"R"
256668,"6066 SHINGLE CREEK PARKWAY -251","BROOKLYN CENTER","MN",55430,45.065186737,-93.309424656,168,"6066 SHINGLE CREEK PARKWAY -251, BROOKLYN CENTER, MN, 55430","Match","Exact","6066 SHINGLE CREEK PKWY, BROOKLYN CENTER, MN, 55430",640591188,"L"
256669,"6066 SHINGLE CREEK PKWY STE 245","MINNEAPOLIS","MN",55430,45.065186737,-93.309424656,169,"6066 SHINGLE CREEK PKWY STE 245, MINNEAPOLIS, MN, 55430","Match","Exact","6066 SHINGLE CREEK PKWY, MINNEAPOLIS, MN, 55430",640591188,"L"
256670,"6066 SHINGLE CREEK PKWY SUITE 1119","BROOKLYN CENTER","MN",55430,45.065186737,-93.309424656,170,"6066 SHINGLE CREEK PKWY SUITE 1119, BROOKLYN CENTER, MN, 55430","Match","Exact","6066 SHINGLE CREEK PKWY, BROOKLYN CENTER, MN, 55430",640591188,"L"
256671,"6066 STATE HWY 154","MARSHALL","TX",75670,32.58423258,-94.437631153,171,"6066 STATE HWY 154, MARSHALL, TX, 75670","Match","Exact","6066 STATE HWY 154, MARSHALL, TX, 75670",141172620,"R"
256672,"60661 THUNDERBIRD","BEND","OR",97702,44.002302136,-121.306256904,172,"60661 THUNDERBIRD, BEND, OR, 97702","Match","Non_Exact","60661 THUNDERBIRD CT, BEND, OR, 97702",152576916,"L"
256673,"6067 HOLLYWOOD BLVD","HOLLYWOOD","FL",33024,26.010149906,-80.209261866,173,"6067 HOLLYWOOD BLVD, HOLLYWOOD, FL, 33024","Match","Exact","6067 HOLLYWOOD BLVD, HOLLYWOOD, FL, 33024",114716585,"R"
256674,"6067 KINGSTON DRIVE","DOUGLASVILLE","GA",30135,33.715784351,-84.732124679,174,"6067 KINGSTON DRIVE, DOUGLASVILLE, GA, 30135","Match","Exact","6067 KINGSTON DR, DOUGLASVILLE, GA, 30135",618478297,"L"
256675,"6067 N GRANITE REEF RD","SCOTTSDALE","AZ",85250,33.52454527,-111.900123206,175,"6067 N GRANITE REEF RD, SCOTTSDALE, AZ, 85250","Match","Exact","6067 N GRANITE REEF RD, SCOTTSDALE, AZ, 85250",637420008,"R"
256676,"6067 NW 56TH CIRCLE","CORAL SPRINGS","FL",33067,26.2993618890001,-80.208669211,176,"6067 NW 56TH CIRCLE, CORAL SPRINGS, FL, 33067","Match","Exact","6067 NW 56TH CIR, CORAL SPRINGS, FL, 33067",114807972,"R"
256677,"6067 SAINT PETERSBURG DRIVE","LAS VEGAS","NV",89142,36.1458900050001,-115.041100034,177,"6067 SAINT PETERSBURG DRIVE, LAS VEGAS, NV, 89142","Match","Exact","6067 ST PETERSBURG DR, LAS VEGAS, NV, 89142",612688282,"R"
256678,"6067 STRADA ISLE WAY","ORLANDO","FL",32835,28.5102410530001,-81.462888181,178,"6067 STRADA ISLE WAY, ORLANDO, FL, 32835","Match","Exact","6067 STRADA ISLE WAY, ORLANDO, FL, 32835",640923726,"L"
256679,"6067 W EARLL DR","PHOENIX","AZ",85033,33.483302483,-112.190668059,179,"6067 W EARLL DR, PHOENIX, AZ, 85033","Match","Exact","6067 W EARLL DR, PHOENIX, AZ, 85033",128200042,"L"
256680,"6068 HWY 98 W STE 1 BOX 181","HATTIESBURG","MS",39402,NA,NA,180,"6068 HWY 98 W STE 1 BOX 181, HATTIESBURG, MS, 39402","No_Match",NA,NA,NA,NA
256681,"6068 PLUMAS ST -B","RENO","NV",89519,39.4737085570001,-119.81146562,181,"6068 PLUMAS ST -B, RENO, NV, 89519","Match","Exact","6068 PLUMAS ST, RENO, NV, 89519",107045920,"L"
256682,"6068 ROTONDO PLACE","NORCROSS","GA",30093,33.878432414,-84.183401037,182,"6068 ROTONDO PLACE, NORCROSS, GA, 30093","Match","Exact","6068 ROTONDO PL, NORCROSS, GA, 30093",88885067,"L"
256683,"60681 DOGWOOD LANE","AMITE","LA",70422,30.729665615,-90.467844983,183,"60681 DOGWOOD LANE, AMITE, LA, 70422","Match","Exact","60681 DOGWOOD LN, AMITE, LA, 70422",75774038,"L"
256684,"6069 4TH AVE N","ST PETERSBURG","FL",33710,27.775585904,-82.717822019,184,"6069 4TH AVE N, ST PETERSBURG, FL, 33710","Match","Exact","6069 4TH AVE N, SAINT PETERSBURG, FL, 33710",124699034,"R"
256685,"6069 N MILWAUKEE AVE","CHICAGO","IL",60646,41.991487211,-87.782278888,185,"6069 N MILWAUKEE AVE, CHICAGO, IL, 60646","Match","Exact","6069 N MILWAUKEE AVE, CHICAGO, IL, 60646",111736418,"R"
256686,"6069 S FORT APACHE RD 100","LAS VEGAS","NV",89148,36.0789892220001,-115.297624459,186,"6069 S FORT APACHE RD 100, LAS VEGAS, NV, 89148","Match","Non_Exact","6069 S FORT APACHE RD, LAS VEGAS, NV, 89148",201992971,"L"
256687,"6069 S FORT APACHE ROAD 100","LAS VEGAS","NV",89148,36.0789892220001,-115.297624459,187,"6069 S FORT APACHE ROAD 100, LAS VEGAS, NV, 89148","Match","Non_Exact","6069 S FORT APACHE RD, LAS VEGAS, NV, 89148",201992971,"L"
256688,"6069 SOUTHWESTERN BLVD","LAKEVIEW","NY",14085,NA,NA,188,"6069 SOUTHWESTERN BLVD, LAKEVIEW, NY, 14085","No_Match",NA,NA,NA,NA
256689,"607 14TH ST NE","WINTER HAVEN","FL",33881,28.028338664,-81.703401335,189,"607 14TH ST NE, WINTER HAVEN, FL, 33881","Match","Exact","607 14TH ST NE, WINTER HAVEN, FL, 33881",104828453,"R"
256690,"607 14TH STREET NW SUITE 900","WASHINGTON","DC",20005,38.8974781530001,-77.031954132,190,"607 14TH STREET NW SUITE 900, WASHINGTON, DC, 20005","Match","Exact","607 14TH ST NW, WASHINGTON, DC, 20005",76225884,"R"
256691,"607 24TH AVENUE NORTH","ST PETERSBURG","FL",33704,27.7939214400001,-82.641681032,191,"607 24TH AVENUE NORTH, ST PETERSBURG, FL, 33704","Match","Exact","607 24TH AVE N, SAINT PETERSBURG, FL, 33704",124706995,"R"
256692,"607 2ND AVE E","TWIN FALLS","ID",83301,42.551952273,-114.462819428,192,"607 2ND AVE E, TWIN FALLS, ID, 83301","Match","Exact","607 2ND AVE E, TWIN FALLS, ID, 83301",118762207,"R"
256693,"607 3RD AVE","JOLIET","IL",60433,41.518997547,-88.0665959039999,193,"607 3RD AVE, JOLIET, IL, 60433","Match","Exact","607 3RD AVE, JOLIET, IL, 60433",111543073,"L"
256694,"607 3RD AVE","WIGGINS","CO",80654,NA,NA,194,"607 3RD AVE, WIGGINS, CO, 80654","No_Match",NA,NA,NA,NA
256695,"607 6TH PL SW","WASHINGTON","DC",20024,38.881667443,-77.020958804,195,"607 6TH PL SW, WASHINGTON, DC, 20024","Match","Exact","607 6TH PL SW, WASHINGTON, DC, 20024",76226968,"L"
256696,"607 6TH ST N","WAHPETON","ND",58075,46.269555192,-96.608279194,196,"607 6TH ST N, WAHPETON, ND, 58075","Match","Exact","607 6TH ST N, WAHPETON, ND, 58075",181257115,"L"
256697,"607 ANDERSON AVENUE","CLIFFSIDE PARK","NJ",7010,40.825063115,-73.988071312,197,"607 ANDERSON AVENUE, CLIFFSIDE PARK, NJ, 7010","Match","Exact","607 ANDERSON AVE, CLIFFSIDE PARK, NJ, 07010",64391481,"L"
256698,"607 ARMADALE PLACE","LOUISVILLE","KY",40243,38.2361242260001,-85.5568936449999,198,"607 ARMADALE PLACE, LOUISVILLE, KY, 40243","Match","Exact","607 ARMADALE PL, LOUISVILLE, KY, 40243",96864679,"R"
256699,"607 ARMSTRONG DRIVE","BELMONT","NC",28012,35.1911945360001,-81.066272311,199,"607 ARMSTRONG DRIVE, BELMONT, NC, 28012","Match","Exact","607 ARMSTRONG DR, BELMONT, NC, 28012",70386688,"L"
256700,"607 ARNETTE BOULEVARD","DANVILLE","VA",24540,36.612928665,-79.397166899,200,"607 ARNETTE BOULEVARD, DANVILLE, VA, 24540","Match","Non_Exact","607 ARNETT BLVD, DANVILLE, VA, 24540",56589073,"L"
256701,"607 AVALON RD","WINTER GARDEN","FL",34787,NA,NA,201,"607 AVALON RD, WINTER GARDEN, FL, 34787","No_Match",NA,NA,NA,NA
256702,"607 BELLVUE PL","PUEBLO","CO",81004,38.256140821,-104.613235187,202,"607 BELLVUE PL, PUEBLO, CO, 81004","Match","Non_Exact","607 BELLEVUE PL, PUEBLO, CO, 81004",105026291,"L"
256703,"607 BENSON RD","GARNER","NC",27529,35.7032427570001,-78.612679011,203,"607 BENSON RD, GARNER, NC, 27529","Match","Exact","607 BENSON RD, GARNER, NC, 27529",641593155,"R"
256704,"607 BLACKBERRY DRIVE","AUSTIN","TX",78745,30.188537766,-97.789932995,204,"607 BLACKBERRY DRIVE, AUSTIN, TX, 78745","Match","Exact","607 BLACKBERRY DR, AUSTIN, TX, 78745",63949508,"L"
256705,"607 BLUFF DR","ELIZABETH","AR",72531,36.3015895140001,-92.221214231,205,"607 BLUFF DR, ELIZABETH, AR, 72531","Match","Non_Exact","607 BLUFF LN, ELIZABETH, AR, 72531",2966045,"R"
256706,"607 BOWNE RD","OCEAN","NJ",7712,40.2469507690001,-74.066882321,206,"607 BOWNE RD, OCEAN, NJ, 7712","Match","Exact","607 BOWNE RD, OCEAN, NJ, 07712",90455481,"L"
256707,"607 BOYLSTON ST LOWER LEV UNIT 400","BOSTON","MA",2116,42.350209019,-71.0769103489999,207,"607 BOYLSTON ST LOWER LEV UNIT 400, BOSTON, MA, 2116","Match","Exact","607 BOYLSTON ST, BOSTON, MA, 02116",85698000,"R"
256708,"607 BROADWAY STREET","ALEXANDRIA","MN",56308,45.885790839,-95.377634853,208,"607 BROADWAY STREET, ALEXANDRIA, MN, 56308","Match","Exact","607 BROADWAY ST, ALEXANDRIA, MN, 56308",204650645,"R"
256709,"607 BROCKMAN COURT","GREAT FALLS","VA",22066,39.031832851,-77.3525481469999,209,"607 BROCKMAN COURT, GREAT FALLS, VA, 22066","Match","Exact","607 BROCKMAN CT, GREAT FALLS, VA, 22066",215925431,"L"
256710,"607 BRUCE WAY","LILBURN","GA",30047,33.877003615,-84.102755002,210,"607 BRUCE WAY, LILBURN, GA, 30047","Match","Non_Exact","607 BRUCE WAY SW, LILBURN, GA, 30047",88887302,"R"
256711,"607 BUENA VISTA CT","BELTON","MO",64012,38.807101135,-94.5471944129999,211,"607 BUENA VISTA CT, BELTON, MO, 64012","Match","Exact","607 BUENA VISTA CT, BELTON, MO, 64012",100914644,"L"
256712,"607 BURTON AVE","LUFKIN","TX",75904,31.321716247,-94.736257333,212,"607 BURTON AVE, LUFKIN, TX, 75904","Match","Exact","607 BURTON AVE, LUFKIN, TX, 75904",23841091,"L"
256713,"607 CALCUTTA DRIVE","DALLAS","TX",75241,32.6807110290001,-96.816643343,213,"607 CALCUTTA DRIVE, DALLAS, TX, 75241","Match","Exact","607 CALCUTTA DR, DALLAS, TX, 75241",102951581,"L"
256714,"607 CALEDON COURT","GREENVILLE","SC",29615,34.8624489360001,-82.338469598,214,"607 CALEDON COURT, GREENVILLE, SC, 29615","Match","Exact","607 CALEDON CT, GREENVILLE, SC, 29615",38345913,"L"
256715,"607 CALISTA DR","CHESAPEAKE","VA",23320,NA,NA,215,"607 CALISTA DR, CHESAPEAKE, VA, 23320","No_Match",NA,NA,NA,NA
256716,"607 CALISTA DRIVE","CHESAPEAKE","VA",23320,NA,NA,216,"607 CALISTA DRIVE, CHESAPEAKE, VA, 23320","No_Match",NA,NA,NA,NA
256717,"607 CANEMOUNT LN","COPPELL","TX",75019,32.9845404540001,-96.998812349,217,"607 CANEMOUNT LN, COPPELL, TX, 75019","Match","Exact","607 CANEMOUNT LN, COPPELL, TX, 75019",102999044,"L"
256718,"607 CASA PARK CT K","WINTER SPRINGS","FL",32708,NA,NA,218,"607 CASA PARK CT K, WINTER SPRINGS, FL, 32708","Tie",NA,NA,NA,NA
256719,"607 CATRINA COURT","STONE MOUNTAIN","GA",30087,33.793441516,-84.158526657,219,"607 CATRINA COURT, STONE MOUNTAIN, GA, 30087","Match","Exact","607 CATRINA CT, STONE MOUNTAIN, GA, 30087",23381291,"L"
256720,"607 CEDAR AVE S","MINNEAPOLIS","MN",55454,44.9674927200001,-93.247243421,220,"607 CEDAR AVE S, MINNEAPOLIS, MN, 55454","Match","Exact","607 CEDAR AVE S, MINNEAPOLIS, MN, 55454",43636989,"L"
256721,"607 CEDAR AVE","MINNEAPOLIS","MN",55454,44.9674927200001,-93.247243421,221,"607 CEDAR AVE, MINNEAPOLIS, MN, 55454","Match","Non_Exact","607 CEDAR AVE S, MINNEAPOLIS, MN, 55454",43636989,"L"
256722,"607 CENTER STREET","UNION","IA",50258,42.2452284170001,-93.0663784069999,222,"607 CENTER STREET, UNION, IA, 50258","Match","Exact","607 CENTER ST, UNION, IA, 50258",77441032,"L"
256723,"607 CHIEF STREET PO BOX 645","BENKELMAN","NE",69021,40.049288469,-101.532919335,223,"607 CHIEF STREET PO BOX 645, BENKELMAN, NE, 69021","Match","Exact","607 CHIEF ST, BENKELMAN, NE, 69021",161539807,"R"
256724,"607 CHOWNING PLACE","WILMINGTON","NC",28409,34.170194689,-77.8765834129999,224,"607 CHOWNING PLACE, WILMINGTON, NC, 28409","Match","Exact","607 CHOWNING PL, WILMINGTON, NC, 28409",640608561,"L"
256725,"607 COPPER CREEK DRIVE","KATY","TX",77450,29.771123167,-95.7721401379999,225,"607 COPPER CREEK DRIVE, KATY, TX, 77450","Match","Exact","607 COPPER CREEK DR, KATY, TX, 77450",96291561,"R"
256726,"607 CR 466A","FRUITLAND PARK","FL",34731,28.8617336200001,-81.944827038,226,"607 CR 466A, FRUITLAND PARK, FL, 34731","Match","Exact","607 CO RD 466A, FRUITLAND PARK, FL, 34731",639257077,"R"
256727,"607 CRAWFORD ST","TUSKEGEE","AL",36083,32.43160291,-85.6891082389999,227,"607 CRAWFORD ST, TUSKEGEE, AL, 36083","Match","Exact","607 CRAWFORD ST, TUSKEGEE, AL, 36083",69128760,"L"
256728,"607 DAFFODIL DRIVE","KERNERSVILLE","NC",27284,36.1284367900001,-80.1239730309999,228,"607 DAFFODIL DRIVE, KERNERSVILLE, NC, 27284","Match","Exact","607 DAFFODIL DR, KERNERSVILLE, NC, 27284",84700990,"R"
256729,"607 DONALDSON WAY","AMERICAN CANYON","CA",94503,38.1741167970001,-122.264143198,229,"607 DONALDSON WAY, AMERICAN CANYON, CA, 94503","Match","Exact","607 DONALDSON WAY, AMERICAN CANYON, CA, 94503",67418419,"L"
256730,"607 DOUGHERTY TERRACE DR","BALLWIN","MO",63021,38.581990755,-90.47150571,230,"607 DOUGHERTY TERRACE DR, BALLWIN, MO, 63021","Match","Exact","607 DOUGHERTY TER DR, BALLWIN, MO, 63021",100127114,"R"
256731,"607 DRAKE AVENUE SE","HUNTSVILLE","AL",35802,34.705277702,-86.5658689529999,231,"607 DRAKE AVENUE SE, HUNTSVILLE, AL, 35802","Match","Exact","607 DRAKE AVE SE, HUNTSVILLE, AL, 35802",650792902,"L"
256732,"607 E 55TH ST","BROOKLYN","NY",11203,40.6435298850001,-73.924713507,232,"607 E 55TH ST, BROOKLYN, NY, 11203","Match","Exact","607 E 55TH ST, BROOKLYN, NY, 11203",59085894,"L"
256733,"607 E BLANCO STE 16","BOERNE","TX",78006,NA,NA,233,"607 E BLANCO STE 16, BOERNE, TX, 78006","No_Match",NA,NA,NA,NA
256734,"607 E JEFFERSON BLVD","FORT WAYNE","IN",46802,41.0775057220001,-85.130493238,234,"607 E JEFFERSON BLVD, FORT WAYNE, IN, 46802","Match","Exact","607 E JEFFERSON BLVD, FORT WAYNE, IN, 46802",6379657,"L"
256735,"607 E SECOND AVE SUITE 100","FLINT","MI",48502,43.0201350410001,-83.694166563,235,"607 E SECOND AVE SUITE 100, FLINT, MI, 48502","Match","Non_Exact","607 E 2ND AVE, FLINT, MI, 48502",69567935,"L"
256736,"607 EAST 10TH AVENUE","BOWLING GREEN","KY",42101,36.990167602,-86.440512236,236,"607 EAST 10TH AVENUE, BOWLING GREEN, KY, 42101","Match","Exact","607 E 10TH AVE, BOWLING GREEN, KY, 42101",28011539,"L"
256737,"607 EAST 11TH STREET APT 17","NEW YORK","NY",10009,40.7273421360001,-73.9791525329999,237,"607 EAST 11TH STREET APT 17, NEW YORK, NY, 10009","Match","Exact","607 E 11TH ST, NEW YORK, NY, 10009",59654718,"L"
256738,"607 EBONY DR","OSWEGO","IL",60543,41.693156496,-88.300107533,238,"607 EBONY DR, OSWEGO, IL, 60543","Match","Exact","607 EBONY DR, OSWEGO, IL, 60543",54501288,"R"
256739,"607 ECKEL RD","PERRYSBURG","OH",43551,41.5479606600001,-83.637553931,239,"607 ECKEL RD, PERRYSBURG, OH, 43551","Match","Exact","607 ECKEL RD, PERRYSBURG, OH, 43551",647760142,"R"
256740,"607 ELM AVENUE","SELKIRK","NY",12158,42.580828103,-73.829252099,240,"607 ELM AVENUE, SELKIRK, NY, 12158","Match","Exact","607 ELM AVE, SELKIRK, NY, 12158",18321456,"R"
256741,"607 ELM ST 1ST FLOOR","NEW HAVEN","CT",6511,41.314656518,-72.941476375,241,"607 ELM ST 1ST FLOOR, NEW HAVEN, CT, 6511","Match","Exact","607 ELM ST, NEW HAVEN, CT, 06511",3700316,"R"
256742,"607 EMILY STREET SUITE J","OJAI","CA",93023,34.4524847330001,-119.25018963,242,"607 EMILY STREET SUITE J, OJAI, CA, 93023","Match","Exact","607 EMILY ST, OJAI, CA, 93023",109985289,"L"
256743,"607 EMILY STREET","MICHIGAN CITY","IN",46360,41.7197325320001,-86.889429444,243,"607 EMILY STREET, MICHIGAN CITY, IN, 46360","Match","Exact","607 EMILY ST, MICHIGAN CITY, IN, 46360",15410998,"R"
256744,"607 EMORY STREET","ASBURY PARK","NJ",7712,40.2183868650001,-74.009525105,244,"607 EMORY STREET, ASBURY PARK, NJ, 7712","Match","Exact","607 EMORY ST, ASBURY PARK, NJ, 07712",90464840,"L"
256745,"607 FOOTHILL BLVD UNIT 20","LA CANADA FLT","CA",91012,NA,NA,245,"607 FOOTHILL BLVD UNIT 20, LA CANADA FLT, CA, 91012","No_Match",NA,NA,NA,NA
256746,"607 GALLOWAY DRIVE","FAYETTEVILLE","NC",28303,35.1045043720001,-78.984403884,246,"607 GALLOWAY DRIVE, FAYETTEVILLE, NC, 28303","Match","Exact","607 GALLOWAY DR, FAYETTEVILLE, NC, 28303",64194327,"L"
256747,"607 GLENGARY DRIVE","PITTSBURGH","PA",15215,40.5154041800001,-79.9200187169999,247,"607 GLENGARY DRIVE, PITTSBURGH, PA, 15215","Match","Exact","607 GLENGARY DR, PITTSBURGH, PA, 15215",51645407,"L"
256748,"607 GOEBEL STREET P O BOX 167","BELEN","NM",87002,34.6617368280001,-106.774514309,248,"607 GOEBEL STREET P O BOX 167, BELEN, NM, 87002","Match","Non_Exact","607 GOEBEL AVE, BELEN, NM, 87002",179196097,"L"
256749,"607 HAMILTON ROAD","SOUTH ORANGE","NJ",7079,40.74862596,-74.237685755,249,"607 HAMILTON ROAD, SOUTH ORANGE, NJ, 7079","Match","Exact","607 HAMILTON RD, SOUTH ORANGE, NJ, 07079",63496537,"L"
256750,"607 HIGHWAY 31","MOORESBURG","TN",37811,36.35510515,-83.231021728,250,"607 HIGHWAY 31, MOORESBURG, TN, 37811","Match","Non_Exact","607 STATE RTE 31, MOORESBURG, TN, 37811",42396125,"L"
256751,"607 HOPE STREET","CORNING","AR",72422,36.417808678,-90.589630057,251,"607 HOPE STREET, CORNING, AR, 72422","Match","Exact","607 HOPE ST, CORNING, AR, 72422",41032248,"R"
256752,"607 JAMES DOAK PARKWAY","GREENSBORO","NC",27455,36.2000099100001,-79.820285624,252,"607 JAMES DOAK PARKWAY, GREENSBORO, NC, 27455","Match","Exact","607 JAMES DOAK PKWY, GREENSBORO, NC, 27455",131082017,"R"
256753,"607 JEFFERSON STREET","BEDFORD","IA",50833,40.6679565680001,-94.72201183,253,"607 JEFFERSON STREET, BEDFORD, IA, 50833","Match","Exact","607 JEFFERSON ST, BEDFORD, IA, 50833",38631612,"R"
256754,"607 JOHNSTOWN RD","BECKLEY","WV",25801,37.7778220000001,-81.1746064399999,254,"607 JOHNSTOWN RD, BECKLEY, WV, 25801","Match","Exact","607 JOHNSTOWN RD, BECKLEY, WV, 25801",78818149,"L"
256755,"607 JOHNSTOWN ROAD","BECKLEY","WV",25801,37.7778220000001,-81.1746064399999,255,"607 JOHNSTOWN ROAD, BECKLEY, WV, 25801","Match","Exact","607 JOHNSTOWN RD, BECKLEY, WV, 25801",78818149,"L"
256756,"607 KENILWORTH","DETROIT","MI",48202,42.3868422570001,-83.076029395,256,"607 KENILWORTH, DETROIT, MI, 48202","Match","Non_Exact","607 KENILWORTH ST, DETROIT, MI, 48202",652802110,"L"
256757,"607 KINGS RIDGE DRIVE","MURFREESBORO","TN",37129,35.9067901000001,-86.3894409119999,257,"607 KINGS RIDGE DRIVE, MURFREESBORO, TN, 37129","Match","Exact","607 KINGS RIDGE DR, MURFREESBORO, TN, 37129",59036197,"R"
256758,"607 KNOLLWOOD COURT","STAFFORD","VA",22554,38.464092093,-77.4218504899999,258,"607 KNOLLWOOD COURT, STAFFORD, VA, 22554","Match","Exact","607 KNOLLWOOD CT, STAFFORD, VA, 22554",647903199,"L"
256759,"607 LADY ST","COLUMBIA","SC",29201,33.9997137660001,-81.04351703,259,"607 LADY ST, COLUMBIA, SC, 29201","Match","Exact","607 LADY ST, COLUMBIA, SC, 29201",645314936,"L"
256760,"607 LOCK AVE","COLUMBUS","OH",46207,39.9151333500001,-82.9789678559999,260,"607 LOCK AVE, COLUMBUS, OH, 46207","Match","Non_Exact","607 LOCK AVE, COLUMBUS, OH, 43207",641112435,"R"
256761,"607 LOUISIANA","LAWRENCE","KS",66044,38.972901543,-95.2417494489999,261,"607 LOUISIANA, LAWRENCE, KS, 66044","Match","Non_Exact","607 LOUISIANA ST, LAWRENCE, KS, 66044",17683915,"R"
256762,"607 LUPINE DR","ALPINE","UT",84004,40.459460999,-111.789329763,262,"607 LUPINE DR, ALPINE, UT, 84004","Match","Exact","607 LUPINE DR, ALPINE, UT, 84004",636261881,"L"
256763,"607 LUPINE DRIVE ALPINE UTAH 84004","ALPINE","UT",84004,40.459460999,-111.789329763,263,"607 LUPINE DRIVE ALPINE UTAH 84004, ALPINE, UT, 84004","Match","Exact","607 LUPINE DR, ALPINE, UT, 84004",636261881,"L"
256764,"607 MADISON ST","LYNCHBURG","VA",24504,37.415153784,-79.1480470449999,264,"607 MADISON ST, LYNCHBURG, VA, 24504","Match","Exact","607 MADISON ST, LYNCHBURG, VA, 24504",62626675,"R"
256765,"607 MARKET STREET THIRD FLOOR","SAN FRANCISCO","CA",94105,37.7890923050001,-122.401492936,265,"607 MARKET STREET THIRD FLOOR, SAN FRANCISCO, CA, 94105","Match","Exact","607 MARKET ST, SAN FRANCISCO, CA, 94105",192301682,"L"
256766,"607 MARSHALL LN","HOLLANDALE","WI",53544,NA,NA,266,"607 MARSHALL LN, HOLLANDALE, WI, 53544","No_Match",NA,NA,NA,NA
256767,"607 MCALPINE ST","TALLADEGA","AL",35160,33.437949073,-86.112481771,267,"607 MCALPINE ST, TALLADEGA, AL, 35160","Match","Exact","607 MCALPINE ST, TALLADEGA, AL, 35160",66917071,"R"
256768,"607 MCINTOSH STREET","SANFORD","NC",27330,35.463967236,-79.167256336,268,"607 MCINTOSH STREET, SANFORD, NC, 27330","Match","Non_Exact","607 W MCINTOSH ST, SANFORD, NC, 27330",640630385,"R"
256769,"607 MCLEOD STREET BOX 973","BIG TIMBER","MT",59101,45.830863338,-109.950446834,269,"607 MCLEOD STREET BOX 973, BIG TIMBER, MT, 59101","Match","Non_Exact","607 MCLEOD ST, BIG TIMBER, MT, 59011",193560821,"R"
256770,"607 MORTON ST","STOUGHTON","MA",2072,42.107382839,-71.101931481,270,"607 MORTON ST, STOUGHTON, MA, 2072","Match","Exact","607 MORTON ST, STOUGHTON, MA, 02072",87267607,"R"
256771,"607 N 13TH STREET","BOISE","ID",83702,43.622535306,-116.205596821,271,"607 N 13TH STREET, BOISE, ID, 83702","Match","Exact","607 N 13TH ST, BOISE, ID, 83702",117860045,"L"
256772,"607 N 4TH ST","HUGO","OK",74743,34.014915215,-95.508525103,272,"607 N 4TH ST, HUGO, OK, 74743","Match","Exact","607 N 4TH ST, HUGO, OK, 74743",63170588,"L"
256773,"607 N COMMERCIAL ST","WEEPING WATER","NE",68463,40.8749639960001,-96.143514075,273,"607 N COMMERCIAL ST, WEEPING WATER, NE, 68463","Match","Exact","607 N COMMERCIAL ST, WEEPING WATER, NE, 68463",639616422,"R"
256774,"607 N SCHOOL STREET","DESLOGE","MO",63601,37.8763426410001,-90.5242910649999,274,"607 N SCHOOL STREET, DESLOGE, MO, 63601","Match","Exact","607 N SCHOOL ST, DESLOGE, MO, 63601",62377183,"L"
256775,"607 NORTH BUCKNER BLVD","DALLAS","TX",75218,32.84687273,-96.7139284099999,275,"607 NORTH BUCKNER BLVD, DALLAS, TX, 75218","Match","Non_Exact","607 BUCKNER BLVD, DALLAS, TX, 75218",647950478,"R"
256776,"607 NORTH BUCKNER","DALLAS","TX",75218,NA,NA,276,"607 NORTH BUCKNER, DALLAS, TX, 75218","No_Match",NA,NA,NA,NA
256777,"607 NORTH ST","BOULDER","CO",80304,40.0244014420001,-105.288516449,277,"607 NORTH ST, BOULDER, CO, 80304","Match","Exact","607 NORTH ST, BOULDER, CO, 80304",188215557,"L"
256778,"607 NORTHWOOD ST","HOUSTON","TX",77009,29.7971921490001,-95.378001319,278,"607 NORTHWOOD ST, HOUSTON, TX, 77009","Match","Exact","607 NORTHWOOD ST, HOUSTON, TX, 77009",96065457,"L"
256779,"607 NW 10TH TERR","FORT LAUDERDALE","FL",33311,26.129620656,-80.155517206,279,"607 NW 10TH TERR, FORT LAUDERDALE, FL, 33311","Match","Exact","607 NW 10TH TER, FORT LAUDERDALE, FL, 33311",114721281,"L"
256780,"607 NW 21 AVENUE","POMPANO BEACH","FL",33069,26.23815188,-80.151360441,280,"607 NW 21 AVENUE, POMPANO BEACH, FL, 33069","Match","Exact","607 NW 21ST AVE, POMPANO BEACH, FL, 33069",614089775,"L"
256781,"607 NW 4TH STREET","STUART","IA",50250,41.5072944660001,-94.325420601,281,"607 NW 4TH STREET, STUART, IA, 50250","Match","Exact","607 NW 4TH ST, STUART, IA, 50250",68679706,"R"
256782,"607 NW FURNISH AVE","PENDLETON","OR",97801,45.6765479760001,-118.793553322,282,"607 NW FURNISH AVE, PENDLETON, OR, 97801","Match","Exact","607 NW FURNISH AVE, PENDLETON, OR, 97801",170404265,"L"
256783,"607 OAK RIDGE DRIVE","BOERNE","TX",78006,29.8363728510001,-98.694729487,283,"607 OAK RIDGE DRIVE, BOERNE, TX, 78006","Match","Exact","607 OAK RIDGE DR, BOERNE, TX, 78006",102757006,"L"
256784,"607 OLD STEESE HIGHWAY SUITE B 194","FAIRBANKS","AK",99701,64.8502346290001,-147.697030258,284,"607 OLD STEESE HIGHWAY SUITE B 194, FAIRBANKS, AK, 99701","Match","Non_Exact","607 OLD STEESE HWY, FAIRBANKS, AK, 99701",614903204,"R"
256785,"607 OLD STEESE HWY  SUITE B179","FAIRBANKS","AK",99701,64.8502346290001,-147.697030258,285,"607 OLD STEESE HWY  SUITE B179, FAIRBANKS, AK, 99701","Match","Non_Exact","607 OLD STEESE HWY, FAIRBANKS, AK, 99701",614903204,"R"
256786,"607 ONEIDA PLACE NW","WASHINGTON","DC",20011,38.9620133380001,-77.021242676,286,"607 ONEIDA PLACE NW, WASHINGTON, DC, 20011","Match","Exact","607 ONEIDA PL NW, WASHINGTON, DC, 20011",76223329,"R"
256787,"607 OTIS PLACE NW","WASHINGTON","DC",20010,38.9351680400001,-77.0195638339999,287,"607 OTIS PLACE NW, WASHINGTON, DC, 20010","Match","Exact","607 OTIS PL NW, WASHINGTON, DC, 20010",76224157,"R"
256788,"607 PATTON DRIVE","CROSSETT","AR",71635,33.144044222,-91.9526028129999,288,"607 PATTON DRIVE, CROSSETT, AR, 71635","Match","Exact","607 PATTON DR, CROSSETT, AR, 71635",31446410,"R"
256789,"607 PIEDMONT AVE","SAN ANTONIO","TX",78203,29.4131358660001,-98.466780752,289,"607 PIEDMONT AVE, SAN ANTONIO, TX, 78203","Match","Exact","607 PIEDMONT AVE, SAN ANTONIO, TX, 78203",101529251,"R"
256790,"607 PINETREE ES DR","SALISBURY","NC",28144,35.681109441,-80.423432436,290,"607 PINETREE ES DR, SALISBURY, NC, 28144","Match","Non_Exact","607 PINE TREE ES DR, SALISBURY, NC, 28144",617676583,"R"
256791,"607 POLK ROAD 62","MENA","AR",71953,34.5160660270001,-94.062455977,291,"607 POLK ROAD 62, MENA, AR, 71953","Match","Exact","607 POLK ROAD 62, MENA, AR, 71953",34549505,"R"
256792,"607 PUGET STREET","SEDRO WOOLLEY","WA",98284,48.506599819,-122.235378175,292,"607 PUGET STREET, SEDRO WOOLLEY, WA, 98284","Match","Exact","607 PUGET ST, SEDRO WOOLLEY, WA, 98284",183643717,"R"
256793,"607 PUTNAM STREET","MARIETTA","OH",45750,39.4188701590001,-81.4489378379999,293,"607 PUTNAM STREET, MARIETTA, OH, 45750","Match","Exact","607 PUTNAM ST, MARIETTA, OH, 45750",45681592,"L"
256794,"607 RENOTA CT","STONE MOUNTAIN","GA",30083,33.796457058,-84.174707843,294,"607 RENOTA CT, STONE MOUNTAIN, GA, 30083","Match","Exact","607 RENOTA CT, STONE MOUNTAIN, GA, 30083",23364818,"R"
256795,"607 RICHMOND AVE NORTH","LEHIGH ACRES","FL",33972,26.621821239,-81.625035493,295,"607 RICHMOND AVE NORTH, LEHIGH ACRES, FL, 33972","Match","Exact","607 RICHMOND AVE N, LEHIGH ACRES, FL, 33972",117986910,"L"
256796,"607 RIDGECREST LANE","LEBANON","TN",37087,36.246129255,-86.37117391,296,"607 RIDGECREST LANE, LEBANON, TN, 37087","Match","Exact","607 RIDGECREST LN, LEBANON, TN, 37087",647297278,"L"
256797,"607 RONALD REAGAN DR PO BOX 2087","EVANS","GA",30809,33.542612719,-82.135645213,297,"607 RONALD REAGAN DR PO BOX 2087, EVANS, GA, 30809","Match","Exact","607 RONALD REAGAN DR, EVANS, GA, 30809",641056488,"R"
256798,"607 RONALD REAGAN DRIVE 274","EVANS","GA",30809,33.542612719,-82.135645213,298,"607 RONALD REAGAN DRIVE 274, EVANS, GA, 30809","Match","Exact","607 RONALD REAGAN DR, EVANS, GA, 30809",641056488,"R"
256799,"607 RONALD REAGAN DRIVE SUITE 730","EVANS","GA",30813,33.542612719,-82.135645213,299,"607 RONALD REAGAN DRIVE SUITE 730, EVANS, GA, 30813","Match","Non_Exact","607 RONALD REAGAN DR, EVANS, GA, 30809",641056488,"R"
256800,"607 ROSE PETAL LANE","MOUNT JOY","PA",17552,40.104174877,-76.519908178,300,"607 ROSE PETAL LANE, MOUNT JOY, PA, 17552","Match","Exact","607 ROSE PETAL LN, MOUNT JOY, PA, 17552",640225063,"R"
256801,"607 S 24TH AVE PO BOX 370","WAUSAU","WI",54401,44.957382588,-89.6653996219999,301,"607 S 24TH AVE PO BOX 370, WAUSAU, WI, 54401","Match","Non_Exact","607 S 24TH AVE, WAUSAU, WI, 54401",117141985,"L"
256802,"607 S FIR AVE","PRESHO","SD",57568,NA,NA,302,"607 S FIR AVE, PRESHO, SD, 57568","Tie",NA,NA,NA,NA
256803,"607 S MICHOT DRIVE","LAFAYETTE","LA",70508,30.149155933,-92.02377513,303,"607 S MICHOT DRIVE, LAFAYETTE, LA, 70508","Match","Exact","607 S MICHOT DR, LAFAYETTE, LA, 70508",85635860,"L"
256804,"607 SALO STREET","WILMINGTON","NC",28411,34.2921228980001,-77.7842793629999,304,"607 SALO STREET, WILMINGTON, NC, 28411","Match","Exact","607 SALO ST, WILMINGTON, NC, 28411",152756847,"L"
256805,"607 SCHOONOVER ST","POCAHONTAS","AR",72455,36.267624519,-90.9710858079999,305,"607 SCHOONOVER ST, POCAHONTAS, AR, 72455","Match","Exact","607 SCHOONOVER ST, POCAHONTAS, AR, 72455",52375656,"L"
256806,"607 SE EVERETT MALL WAY 10-07","EVERETT","WA",98208,47.9092267250001,-122.22466855,306,"607 SE EVERETT MALL WAY 10-07, EVERETT, WA, 98208","Match","Non_Exact","607 SE EVERETT MALL WAY, EVERETT, WA, 98208",187758432,"L"
256807,"607 SHELBY 700-1131","DETROIT","MI",48226,42.329343742,-83.048163169,307,"607 SHELBY 700-1131, DETROIT, MI, 48226","Match","Non_Exact","607 SHELBY ST, DETROIT, MI, 48226",95479995,"L"
256808,"607 SHELBY ST  SUITE 700","DETROIT","MI",48226,42.329343742,-83.048163169,308,"607 SHELBY ST  SUITE 700, DETROIT, MI, 48226","Match","Exact","607 SHELBY ST, DETROIT, MI, 48226",95479995,"L"
256809,"607 SHELBY ST STE 700-1123","DETROIT","MI",48226,42.329343742,-83.048163169,309,"607 SHELBY ST STE 700-1123, DETROIT, MI, 48226","Match","Exact","607 SHELBY ST, DETROIT, MI, 48226",95479995,"L"
256810,"607 SHELBY ST STE 718","DETROIT","MI",48226,42.329343742,-83.048163169,310,"607 SHELBY ST STE 718, DETROIT, MI, 48226","Match","Exact","607 SHELBY ST, DETROIT, MI, 48226",95479995,"L"
256811,"607 SHELBY ST","DETROIT","MI",48226,42.329343742,-83.048163169,311,"607 SHELBY ST, DETROIT, MI, 48226","Match","Exact","607 SHELBY ST, DETROIT, MI, 48226",95479995,"L"
256812,"607 SHELBY STREET SUITE 715","DETROIT","MI",48226,42.329343742,-83.048163169,312,"607 SHELBY STREET SUITE 715, DETROIT, MI, 48226","Match","Exact","607 SHELBY ST, DETROIT, MI, 48226",95479995,"L"
256813,"607 SHELBY STREET SUITE 785","DETROIT","MI",48226,42.329343742,-83.048163169,313,"607 SHELBY STREET SUITE 785, DETROIT, MI, 48226","Match","Exact","607 SHELBY ST, DETROIT, MI, 48226",95479995,"L"
256814,"607 SHIVERS STREET","BLYTHEVILLE","AR",72315,35.9169554650001,-89.910144187,314,"607 SHIVERS STREET, BLYTHEVILLE, AR, 72315","Match","Exact","607 SHIVERS ST, BLYTHEVILLE, AR, 72315",47217886,"L"
256815,"607 SO BEACH RD","SO BURLINGTON","VT",5403,44.423121241,-73.216686083,315,"607 SO BEACH RD, SO BURLINGTON, VT, 5403","Match","Exact","607 S BEACH RD, S BURLINGTON, VT, 05403",135841690,"R"
256816,"607 SOUTH HILL STREET SUITE 537","LOS ANGELES","CA",90014,34.0471629460001,-118.253286842,316,"607 SOUTH HILL STREET SUITE 537, LOS ANGELES, CA, 90014","Match","Exact","607 S HILL ST, LOS ANGELES, CA, 90014",141619320,"R"
256817,"607 SOUTH WATER STREET","SHEBOYGAN","WI",53081,43.7485875400001,-87.7153382829999,317,"607 SOUTH WATER STREET, SHEBOYGAN, WI, 53081","Match","Exact","607 S WATER ST, SHEBOYGAN, WI, 53081",79497537,"L"
256818,"607 ST CHARLES AVE","NEW ORLEANS","LA",70130,29.9481772570001,-90.070994776,318,"607 ST CHARLES AVE, NEW ORLEANS, LA, 70130","Match","Exact","607 SAINT CHARLES AVE, NEW ORLEANS, LA, 70130",191714297,"R"
256819,"607 STRATFORD CIRCLE","LOCUST GROVE","VA",22508,38.3271163960001,-77.780744849,319,"607 STRATFORD CIRCLE, LOCUST GROVE, VA, 22508","Match","Exact","607 STRATFORD CIR, LOCUST GROVE, VA, 22508",29880960,"L"
256820,"607 SUNRISE DRIVE","DAYTON","NV",89403,39.292709663,-119.526965531,320,"607 SUNRISE DRIVE, DAYTON, NV, 89403","Match","Exact","607 SUNRISE DR, DAYTON, NV, 89403",614162355,"R"
256821,"607 SW 14TH STREET","OKEECHOBEE","FL",34974,27.2308117040001,-80.8351923869999,321,"607 SW 14TH STREET, OKEECHOBEE, FL, 34974","Match","Exact","607 SW 14TH ST, OKEECHOBEE, FL, 34974",4925584,"L"
256822,"607 SW HURBERT ST STE 103","NEWPORT","OR",97365,NA,NA,322,"607 SW HURBERT ST STE 103, NEWPORT, OR, 97365","Tie",NA,NA,NA,NA
256823,"607 TALIPUT PALM PLACE","HENDERSON","NV",89011,36.0644651270001,-115.029377865,323,"607 TALIPUT PALM PLACE, HENDERSON, NV, 89011","Match","Exact","607 TALIPUT PALM PL, HENDERSON, NV, 89011",624983642,"R"
256824,"607 TANGLEWOOD DR","SICKLERVILLE","NJ",8081,39.762432082,-75.040620785,324,"607 TANGLEWOOD DR, SICKLERVILLE, NJ, 8081","Match","Exact","607 TANGLEWOOD DR, SICKLERVILLE, NJ, 08081",134420417,"R"
256825,"607 TERRY STREET SE","ATLANTA","GA",30312,33.7386339880001,-84.3848476429999,325,"607 TERRY STREET SE, ATLANTA, GA, 30312","Match","Exact","607 TERRY ST SE, ATLANTA, GA, 30312",17346356,"R"
256826,"607 THOROUGHBRED AVENUE","FRISCO","TX",75036,33.1430721410001,-96.886818109,326,"607 THOROUGHBRED AVENUE, FRISCO, TX, 75036","Match","Exact","607 THOROUGHBRED AVE, FRISCO, TX, 75036",647120508,"R"
256827,"607 TOWNE DRIVE NE","BYRON","MN",55920,44.035231636,-92.616895583,327,"607 TOWNE DRIVE NE, BYRON, MN, 55920","Match","Exact","607 TOWNE DR NE, BYRON, MN, 55920",30576833,"R"
256828,"607 W 28TH STREET APT 518","MINNEAPOLIS","MN",55408,44.9519423690001,-93.286963643,328,"607 W 28TH STREET APT 518, MINNEAPOLIS, MN, 55408","Match","Non_Exact","607 W 28TH ST, MINNEAPOLIS, MN, 55408",43628653,"L"
256829,"607 W 34TH ST","SAND SPRINGS","OK",74063,36.1125053710001,-96.132223751,329,"607 W 34TH ST, SAND SPRINGS, OK, 74063","Match","Exact","607 W 34TH ST, SAND SPRINGS, OK, 74063",166431526,"L"
256830,"607 W BURTON STREET","SHERMAN","TX",75092,33.655326813,-96.622274424,330,"607 W BURTON STREET, SHERMAN, TX, 75092","Match","Exact","607 W BURTON ST, SHERMAN, TX, 75092",63353878,"R"
256831,"607 W DUE WEST AVE SUITE 113","MADISON","TN",37115,NA,NA,331,"607 W DUE WEST AVE SUITE 113, MADISON, TN, 37115","Tie",NA,NA,NA,NA
256832,"607 W MULBERRY ST","OGDEN","IA",50212,42.0380420720001,-94.0349632099999,332,"607 W MULBERRY ST, OGDEN, IA, 50212","Match","Exact","607 W MULBERRY ST, OGDEN, IA, 50212",64941589,"R"
256833,"607 WALNUT CROSSING DRIVE","WHITSETT","NC",27377,36.0841681260001,-79.552469133,333,"607 WALNUT CROSSING DRIVE, WHITSETT, NC, 27377","Match","Exact","607 WALNUT CROSSING DR, WHITSETT, NC, 27377",612875970,"L"
256834,"607 WARE STREET SW","VIENNA","VA",22180,38.890964065,-77.267189053,334,"607 WARE STREET SW, VIENNA, VA, 22180","Match","Exact","607 WARE ST SW, VIENNA, VA, 22180",75968864,"R"
256835,"607 WASHINGTON AVE","DETROIT LAKES","MN",56501,46.820340602,-95.845210037,335,"607 WASHINGTON AVE, DETROIT LAKES, MN, 56501","Match","Exact","607 WASHINGTON AVE, DETROIT LAKES, MN, 56501",167954111,"R"
256836,"607 WASHINGTON AVENUE SOUTH STE 204","MINNEAPOLIS","MN",55415,44.9781823320001,-93.259794422,336,"607 WASHINGTON AVENUE SOUTH STE 204, MINNEAPOLIS, MN, 55415","Match","Exact","607 WASHINGTON AVE S, MINNEAPOLIS, MN, 55415",43633043,"R"
256837,"607 WASHTENAW / APT 3","YPSILANTI","MI",48197,42.2437480400001,-83.6206969199999,337,"607 WASHTENAW / APT 3, YPSILANTI, MI, 48197","Match","Non_Exact","607 WASHTENAW RD, YPSILANTI, MI, 48197",26020778,"L"
256838,"607 WEBSTER STREET","CARY","NC",27511,35.7868592840001,-78.768781928,338,"607 WEBSTER STREET, CARY, NC, 27511","Match","Exact","607 WEBSTER ST, CARY, NC, 27511",72498995,"L"
256839,"607 WEST MORRIS AVE","HAMMOND","LA",70403,30.501787091,-90.466650182,339,"607 WEST MORRIS AVE, HAMMOND, LA, 70403","Match","Exact","607 W MORRIS AVE, HAMMOND, LA, 70403",75761488,"R"
256840,"607 WESTCHESTER PLACE","CLARKSVILLE","TN",37043,36.5172048250001,-87.2170343609999,340,"607 WESTCHESTER PLACE, CLARKSVILLE, TN, 37043","Match","Exact","607 WESTCHESTER PL, CLARKSVILLE, TN, 37043",31832452,"R"
256841,"607 WHEELER AVE","SUNNYSIDE","WA",98944,46.323209568,-120.029123666,341,"607 WHEELER AVE, SUNNYSIDE, WA, 98944","Match","Exact","607 WHEELER AVE, SUNNYSIDE, WA, 98944",184950382,"R"
256842,"607 WILTON ROAD","TOWSON","MD",21286,39.3858913190001,-76.6020626219999,342,"607 WILTON ROAD, TOWSON, MD, 21286","Match","Exact","607 WILTON RD, TOWSON, MD, 21286",191473833,"R"
256843,"607 WINDSOR DRIVE","SOLON","IA",52333,41.804579813,-91.4879592569999,343,"607 WINDSOR DRIVE, SOLON, IA, 52333","Match","Exact","607 WINDSOR DR, SOLON, IA, 52333",84509368,"L"
256844,"607 WORCESTER ROAD","KNOXVILLE","TN",37934,35.8727594170001,-84.138041016,344,"607 WORCESTER ROAD, KNOXVILLE, TN, 37934","Match","Exact","607 WORCESTER RD, KNOXVILLE, TN, 37934",42602278,"L"
256845,"607","LIBERTY HILL","TX",78642,NA,NA,345,"607, LIBERTY HILL, TX, 78642","No_Match",NA,NA,NA,NA
256846,"6070 BOBCAT PLACE","CHARLOTTE","NC",28269,35.3311389940001,-80.807298164,346,"6070 BOBCAT PLACE, CHARLOTTE, NC, 28269","Match","Exact","6070 BOBCAT PL, CHARLOTTE, NC, 28269",70539504,"L"
256847,"6070 MAGGIES CIRCLE UNIT 101","JACKSONVILLE","FL",32244,30.2312993,-81.7425352069999,347,"6070 MAGGIES CIRCLE UNIT 101, JACKSONVILLE, FL, 32244","Match","Exact","6070 MAGGIES CIR, JACKSONVILLE, FL, 32244",647018502,"L"
256848,"6070 N GREENSBURG RD","SUMMIT","MS",39666,31.3044361560001,-90.626416539,348,"6070 N GREENSBURG RD, SUMMIT, MS, 39666","Match","Exact","6070 N GREENSBURG RD, SUMMIT, MS, 39666",612195782,"R"
256849,"6070 SAINT JOHN CHAPEL ROAD","EIGHT MILE","AL",36613,30.8183033540001,-88.19164074,349,"6070 SAINT JOHN CHAPEL ROAD, EIGHT MILE, AL, 36613","Match","Non_Exact","6070 SAINT JOHNS CHAPEL RD, EIGHT MILE, AL, 36613",61924435,"R"
256850,"6070 WESTFALEN CT UNIT","JOHNSTON","IA",50131,41.671021996,-93.762636206,350,"6070 WESTFALEN CT UNIT, JOHNSTON, IA, 50131","Match","Exact","6070 WESTFALEN CT, JOHNSTON, IA, 50131",640337322,"L"
256851,"60700 E 190 RD","FAIRLAND","OK",74343,36.7428559740001,-94.7891323329999,351,"60700 E 190 RD, FAIRLAND, OK, 74343","Match","Exact","60700 E 190 RD, FAIRLAND, OK, 74343",56294922,"R"
256852,"6071 BERNICE ST","AMANDA","OH",43102,39.64991179,-82.7256247139999,352,"6071 BERNICE ST, AMANDA, OH, 43102","Match","Non_Exact","6071 BERNICE ST SW, AMANDA, OH, 43102",37221634,"R"
256853,"6071 DOYLE DRIVE","HUNTINGTON BEACH","CA",92647,33.7187433240001,-118.023346219,353,"6071 DOYLE DRIVE, HUNTINGTON BEACH, CA, 92647","Match","Exact","6071 DOYLE DR, HUNTINGTON BEACH, CA, 92647",144014425,"L"
256854,"6071 E  O REAR ROAD","COLUMBIA","MO",65202,39.0482284920001,-92.242808759,354,"6071 E  O REAR ROAD, COLUMBIA, MO, 65202","Match","Non_Exact","6071 E OREAR RD, COLUMBIA, MO, 65202",604838639,"L"
256855,"6071 GOLD SPIRIT STREET","EASTVALE","CA",92880,33.9772819630001,-117.580910214,355,"6071 GOLD SPIRIT STREET, EASTVALE, CA, 92880","Match","Exact","6071 GOLD SPIRIT ST, EASTVALE, CA, 92880",636900154,"R"
256856,"6071 HIGHWAY 85 APT 31A","RIVERDALE","GA",30274,33.587926856,-84.4097892079999,356,"6071 HIGHWAY 85 APT 31A, RIVERDALE, GA, 30274","Match","Non_Exact","6071 STATE RTE 85, RIVERDALE, GA, 30274",23311752,"R"
256857,"6072 GRAND CHAMPION BLVD","FORT WORTH","TX",76179,32.8466956510001,-97.378412457,357,"6072 GRAND CHAMPION BLVD, FORT WORTH, TX, 76179","Match","Exact","6072 GRAND CHAMPION BLVD, FORT WORTH, TX, 76179",102107796,"L"
256858,"6072 HOOVER DR","MAYS LANDING","NJ",8330,39.452823885,-74.766521438,358,"6072 HOOVER DR, MAYS LANDING, NJ, 8330","Match","Exact","6072 HOOVER DR, MAYS LANDING, NJ, 08330",202506842,"R"
256859,"6072 LAMB WOODS DR","BARTLETT","TN",38135,35.2559612470001,-89.860783001,359,"6072 LAMB WOODS DR, BARTLETT, TN, 38135","Match","Exact","6072 LAMB WOODS DR, BARTLETT, TN, 38135",601175887,"R"
256860,"6072 RALEIGH ST 1901","ORLANDO","FL",32807,28.5278891840001,-81.4657214979999,360,"6072 RALEIGH ST 1901, ORLANDO, FL, 32807","Match","Non_Exact","6072 RALEIGH ST, ORLANDO, FL, 32835",636400904,"L"
256861,"6072 S DURANGO DR","LAS VEGAS","NV",89113,36.078338768,-115.279301415,361,"6072 S DURANGO DR, LAS VEGAS, NV, 89113","Match","Exact","6072 S DURANGO DR, LAS VEGAS, NV, 89113",201961475,"L"
256862,"6073 AXIS DR","SPARKS","NV",89436,39.602299099,-119.688103396,362,"6073 AXIS DR, SPARKS, NV, 89436","Match","Exact","6073 AXIS DR, SPARKS, NV, 89436",107124955,"R"
256863,"6073 BREWER RD","MASON","OH",45040,39.396808632,-84.3263084829999,363,"6073 BREWER RD, MASON, OH, 45040","Match","Exact","6073 BREWER RD, MASON, OH, 45040",649562034,"R"
256864,"6073 GRAND CYPRESS CIR W","COCONUT CREEK","FL",33073,26.3049971730001,-80.190501476,364,"6073 GRAND CYPRESS CIR W, COCONUT CREEK, FL, 33073","Match","Exact","6073 GRAND CYPRESS CIR W, COCONUT CREEK, FL, 33073",623917843,"R"
256865,"6073 N RIVER","FREELAND","MI",48623,43.497393253,-84.114258981,365,"6073 N RIVER, FREELAND, MI, 48623","Match","Non_Exact","6073 N RIVER RD, FREELAND, MI, 48623",80207497,"L"
256866,"6073 PACK LANE","ROGERS","AR",72758,36.2745607800001,-94.178904076,366,"6073 PACK LANE, ROGERS, AR, 72758","Match","Non_Exact","6073 S PACK LN, ROGERS, AR, 72758",650785471,"L"
256867,"6073 ROCKBRIDGE ROAD","STONE MOUNTAIN","GA",30087,33.7890902350001,-84.1472853339999,367,"6073 ROCKBRIDGE ROAD, STONE MOUNTAIN, GA, 30087","Match","Exact","6073 ROCKBRIDGE RD, STONE MOUNTAIN, GA, 30087",23374793,"R"
256868,"6073 TRIDENT LANE","WOODBRIDGE","VA",22193,38.6682008970001,-77.3867903189999,368,"6073 TRIDENT LANE, WOODBRIDGE, VA, 22193","Match","Exact","6073 TRIDENT LN, WOODBRIDGE, VA, 22193",207158097,"L"
256869,"6074 ALCANTE DR","SAN JOSE","CA",95129,37.3055131460001,-122.01117537,369,"6074 ALCANTE DR, SAN JOSE, CA, 95129","Match","Exact","6074 ALCANTE DR, SAN JOSE, CA, 95129",122940835,"L"
256870,"6074 CAPRI CIRCLE","COLUMBUS","GA",31907,32.47313373,-84.8874919849999,370,"6074 CAPRI CIRCLE, COLUMBUS, GA, 31907","Match","Exact","6074 CAPRI CIR, COLUMBUS, GA, 31907",98944558,"R"
256871,"6074 EDGEMONT WAY","SHELBYVILLE","KY",40065,38.19031505,-85.224321635,371,"6074 EDGEMONT WAY, SHELBYVILLE, KY, 40065","Match","Exact","6074 EDGEMONT WAY, SHELBYVILLE, KY, 40065",651589529,"R"
256872,"6075 BARFIELD ROAD","ATLANTA","GA",30328,33.921008762,-84.3598956179999,372,"6075 BARFIELD ROAD, ATLANTA, GA, 30328","Match","Non_Exact","6075 BARFIELD RD NE, ATLANTA, GA, 30328",17417378,"R"
256873,"6075 CALIFORNIA AVE SW","SEATTLE","WA",98136,47.547964162,-122.387167279,373,"6075 CALIFORNIA AVE SW, SEATTLE, WA, 98136","Match","Exact","6075 CALIFORNIA AVE SW, SEATTLE, WA, 98136",186661567,"R"
256874,"6075 ENCELIA RD","29 PALMS","CA",92277,34.143397792,-116.098256355,374,"6075 ENCELIA RD, 29 PALMS, CA, 92277","Match","Non_Exact","6075 ENCELIA DR, 29 PALMS, CA, 92277",614806746,"R"
256875,"6075 HIGH STREET","MARTINSVILLE","IN",46151,39.5155459170001,-86.3935138589999,375,"6075 HIGH STREET, MARTINSVILLE, IN, 46151","Match","Exact","6075 HIGH ST, MARTINSVILLE, IN, 46151",43543719,"R"
256876,"6075 INDEPENDENCE PARKWAY","FRISCO","TX",75035,NA,NA,376,"6075 INDEPENDENCE PARKWAY, FRISCO, TX, 75035","No_Match",NA,NA,NA,NA
256877,"6075 LAKESIDE BLVD","INDIANAPOLIS","IN",46278,39.8767576280001,-86.265727425,377,"6075 LAKESIDE BLVD, INDIANAPOLIS, IN, 46278","Match","Exact","6075 LAKESIDE BLVD, INDIANAPOLIS, IN, 46278",108021054,"L"
256878,"6075 LINCOLN DRIVE UNIT 208","EDINA","MN",55436,44.892608755,-93.398501543,378,"6075 LINCOLN DRIVE UNIT 208, EDINA, MN, 55436","Match","Exact","6075 LINCOLN DR, EDINA, MN, 55436",43837367,"L"
256879,"6075 N ESPANA STREET","AURORA","CO",80019,39.8072105570001,-104.759922224,379,"6075 N ESPANA STREET, AURORA, CO, 80019","Match","Exact","6075 ESPANA ST, AURORA, CO, 80019",177467936,"L"
256880,"6075 NORTH SEQUOIA AVENUE","FRESNO","CA",93711,36.8236455250001,-119.833070546,380,"6075 NORTH SEQUOIA AVENUE, FRESNO, CA, 93711","Match","Non_Exact","6075 N SEQUOIA DR, FRESNO, CA, 93711",645794044,"L"
256881,"6075 SPRING CANYON ROAD","OGDEN","UT",84403,41.153274378,-111.906080454,381,"6075 SPRING CANYON ROAD, OGDEN, UT, 84403","Match","Exact","6075 SPRING CANYON RD, OGDEN, UT, 84403",605808628,"R"
256882,"6075 STATELINE ROAD","SOUTH BELOIT","IL",61080,42.4960295070001,-88.998593221,382,"6075 STATELINE ROAD, SOUTH BELOIT, IL, 61080","Match","Non_Exact","6075 STATE LINE RD, SOUTH BELOIT, IL, 61080",49296098,"R"
256883,"6075 WINCHESTER SUITE 340","MEMPHIS","TN",38115,NA,NA,383,"6075 WINCHESTER SUITE 340, MEMPHIS, TN, 38115","No_Match",NA,NA,NA,NA
256884,"6075 WINCHESTER","MEMPHIS","TN",38115,35.0497787830001,-89.860555298,384,"6075 WINCHESTER, MEMPHIS, TN, 38115","Match","Non_Exact","6075 WINCHESTER RD, MEMPHIS, TN, 38115",607468216,"R"
256885,"6076 OLD WASHINGTON RD","ELKRIDGE","MD",21075,39.2091262000001,-76.7186819999999,385,"6076 OLD WASHINGTON RD, ELKRIDGE, MD, 21075","Match","Exact","6076 OLD WASHINGTON RD, ELKRIDGE, MD, 21075",158961411,"R"
256886,"60760 LATHAM TRAIL","JOSHUA TREE","CA",92252,34.118389646,-116.338621229,386,"60760 LATHAM TRAIL, JOSHUA TREE, CA, 92252","Match","Exact","60760 LATHAM TRL, JOSHUA TREE, CA, 92252",144631799,"R"
256887,"6077 EAST GLENHOME DR","MEMPHIS","TN",38134,35.178629474,-89.860501778,387,"6077 EAST GLENHOME DR, MEMPHIS, TN, 38134","Match","Exact","6077 E GLENHOME DR, MEMPHIS, TN, 38134",72924595,"R"
256888,"6077 FAR HILLS AVE 222","CENTERVILLE","OH",45459,NA,NA,388,"6077 FAR HILLS AVE 222, CENTERVILLE, OH, 45459","No_Match",NA,NA,NA,NA
256889,"6077 W PICO BLVD","WEST LOS ANGELES","CA",90035,34.0527519840001,-118.373104546,389,"6077 W PICO BLVD, WEST LOS ANGELES, CA, 90035","Match","Non_Exact","6077 W PICO BLVD, LOS ANGELES, CA, 90035",141598876,"R"
256890,"60770 SOUTHGATE ROAD","BYESVILLE","OH",43723,39.9824220730001,-81.567580902,390,"60770 SOUTHGATE ROAD, BYESVILLE, OH, 43723","Match","Exact","60770 SOUTHGATE RD, BYESVILLE, OH, 43723",37642903,"R"
256891,"6078 BOONE DRIVE","CASTRO VALLEY","CA",94552,NA,NA,391,"6078 BOONE DRIVE, CASTRO VALLEY, CA, 94552","No_Match",NA,NA,NA,NA
256892,"6078 PINEDALE COURT","HARRISBURG","PA",17111,40.2646932530001,-76.782830362,392,"6078 PINEDALE COURT, HARRISBURG, PA, 17111","Match","Exact","6078 PINEDALE CT, HARRISBURG, PA, 17111",624042102,"R"
256893,"6078 WESTERHAM","MAYFIELD HTS.","OH",44124,41.5116817160001,-81.460452822,393,"6078 WESTERHAM, MAYFIELD HTS., OH, 44124","Match","Non_Exact","6078 WESTERHAM RD, MAYFIELD HEIGHTS, OH, 44124",61134503,"R"
256894,"6079 CASTLE COAKLEY","CHRISTIANSTED","VI",820,NA,NA,394,"6079 CASTLE COAKLEY, CHRISTIANSTED, VI, 820","No_Match",NA,NA,NA,NA
256895,"6079 COUNTRY APPLE COURT","WEST VALLEY CITY","UT",84128,40.6939252440001,-112.035744179,395,"6079 COUNTRY APPLE COURT, WEST VALLEY CITY, UT, 84128","Match","Non_Exact","6079 W COUNTRY APPLE CT, WEST VALLEY CITY, UT, 84128",649148674,"L"
256896,"6079 KINGSLEY LAKE DRIVE","STARKE","FL",32091,NA,NA,396,"6079 KINGSLEY LAKE DRIVE, STARKE, FL, 32091","No_Match",NA,NA,NA,NA
256897,"6079 MCGUIRE ROAD","FENTON","MI",48430,42.69418525,-83.800534188,397,"6079 MCGUIRE ROAD, FENTON, MI, 48430","Match","Non_Exact","6079 MC GUIRE RD, FENTON, MI, 48430",23541113,"L"
256898,"6079 TAYLOR RD","GAHANNA","OH",43230,40.002099883,-82.837850306,398,"6079 TAYLOR RD, GAHANNA, OH, 43230","Match","Exact","6079 TAYLOR RD, GAHANNA, OH, 43230",622975373,"R"
256899,"6079 TAYLOR ROAD","GAHANNA","OH",43230,40.002099883,-82.837850306,399,"6079 TAYLOR ROAD, GAHANNA, OH, 43230","Match","Exact","6079 TAYLOR RD, GAHANNA, OH, 43230",622975373,"R"
256900,"607B YORKTOWN PLACE","STATESBORO","GA",30461,32.4604926850001,-81.74370321,400,"607B YORKTOWN PLACE, STATESBORO, GA, 30461","Match","Exact","607 YORKTOWN PL, STATESBORO, GA, 30461",6128426,"L"
256901,"608 13TH ST","MODESTO","CA",95354,37.6389469860001,-120.993002027,401,"608 13TH ST, MODESTO, CA, 95354","Match","Exact","608 13TH ST, MODESTO, CA, 95354",102604910,"R"
256902,"608 14TH ST","RAWLINS","WY",82301,41.790066128,-107.251883815,402,"608 14TH ST, RAWLINS, WY, 82301","Match","Exact","608 14TH ST, RAWLINS, WY, 82301",148729037,"L"
256903,"608 19TH STREET","HUNTINGTON BEACH","CA",92648,33.6703744180001,-118.009557413,403,"608 19TH STREET, HUNTINGTON BEACH, CA, 92648","Match","Exact","608 19TH ST, HUNTINGTON BEACH, CA, 92648",144019483,"R"
256904,"608 29TH ROAD SOUTH","ARLINGTON","VA",22202,38.846338055,-77.055669418,404,"608 29TH ROAD SOUTH, ARLINGTON, VA, 22202","Match","Exact","608 29TH RD S, ARLINGTON, VA, 22202",76473219,"L"
256905,"608 2ND ST SW","BIRMINGHAM","AL",35211,33.5036267770001,-86.838057777,405,"608 2ND ST SW, BIRMINGHAM, AL, 35211","Match","Exact","608 2ND ST SW, BIRMINGHAM, AL, 35211",81720287,"R"
256906,"608 2ND ST","BONAPARTE","IA",52620,40.698573701,-91.8011094299999,406,"608 2ND ST, BONAPARTE, IA, 52620","Match","Exact","608 2ND ST, BONAPARTE, IA, 52620",12930020,"R"
256907,"608 3RD AVENUE S","JASPER","AL",35501,33.84579433,-87.2769729189999,407,"608 3RD AVENUE S, JASPER, AL, 35501","Match","Exact","608 3RD AVE S, JASPER, AL, 35501",120584737,"L"
256908,"608 4TH AVE SE","CULLMAN","AL",35055,34.1736799170001,-86.836730043,408,"608 4TH AVE SE, CULLMAN, AL, 35055","Match","Exact","608 4TH AVE SE, CULLMAN, AL, 35055",130220625,"R"
256909,"608 57TH STREET NE","WASHINGTON","DC",20019,38.897330234,-76.919155159,409,"608 57TH STREET NE, WASHINGTON, DC, 20019","Match","Exact","608 57TH ST NE, WASHINGTON, DC, 20019",76234108,"L"
256910,"608 7TH AVE SE","AUSTIN","MN",55912,43.660284173,-92.968490714,410,"608 7TH AVE SE, AUSTIN, MN, 55912","Match","Exact","608 7TH AVE SE, AUSTIN, MN, 55912",27623023,"L"
256911,"608 7TH ST NE","LONG PRAIRIE","MN",56347,45.9816990400001,-94.854076086,411,"608 7TH ST NE, LONG PRAIRIE, MN, 56347","Match","Exact","608 7TH ST NE, LONG PRAIRIE, MN, 56347",201429294,"R"
256912,"608 APPLEWOOD DRIVE","YANKTON","SD",57078,42.9031260020001,-97.382874713,412,"608 APPLEWOOD DRIVE, YANKTON, SD, 57078","Match","Exact","608 APPLEWOOD DR, YANKTON, SD, 57078",646687597,"L"
256913,"608 AUDUBON WAY","DALTON","GA",30720,34.764110687,-84.985877041,413,"608 AUDUBON WAY, DALTON, GA, 30720","Match","Exact","608 AUDUBON WAY, DALTON, GA, 30720",57366137,"L"
256914,"608 AURORA STREET","HOUSTON","TX",77008,29.809778567,-95.392203176,414,"608 AURORA STREET, HOUSTON, TX, 77008","Match","Exact","608 AURORA ST, HOUSTON, TX, 77008",96055764,"R"
256915,"608 AVENUE A","OPELIKA","AL",36801,32.6490735630001,-85.3761805089999,415,"608 AVENUE A, OPELIKA, AL, 36801","Match","Exact","608 AVE A, OPELIKA, AL, 36801",1571776,"R"
256916,"608 BALSAM ST","GRANTS","NM",87020,35.1516814840001,-107.827741692,416,"608 BALSAM ST, GRANTS, NM, 87020","Match","Exact","608 BALSAM ST, GRANTS, NM, 87020",179222692,"R"
256917,"608 BEACON ST","NEWTON CENTER","MA",2459,42.3316396800001,-71.18481528,417,"608 BEACON ST, NEWTON CENTER, MA, 2459","Match","Exact","608 BEACON ST, NEWTON CENTRE, MA, 02459",86866707,"L"
256918,"608 BELLEVUE AVENUE","DUBLIN","GA",31021,32.5379056990001,-82.913087424,418,"608 BELLEVUE AVENUE, DUBLIN, GA, 31021","Match","Exact","608 BELLEVUE AVE, DUBLIN, GA, 31021",100652504,"R"
256919,"608 BRIAR STREET","SHERWOOD","AR",72120,34.838187943,-92.19888446,419,"608 BRIAR STREET, SHERWOOD, AR, 72120","Match","Exact","608 BRIAR ST, SHERWOOD, AR, 72120",83530426,"L"
256920,"608 BRUNS DRIVE","ROSSFORD","OH",43460,41.5969488280001,-83.5551952279999,420,"608 BRUNS DRIVE, ROSSFORD, OH, 43460","Match","Exact","608 BRUNS DR, ROSSFORD, OH, 43460",38729882,"L"
256921,"608 C HWY 80 EAST","CLINTON","MS",39056,32.3335734980001,-90.316556244,421,"608 C HWY 80 EAST, CLINTON, MS, 39056","Match","Non_Exact","608 HWY 80 W, CLINTON, MS, 39056",65362706,"L"
256922,"608 CACTUS DRIVE","CONROE","TX",77304,30.1671081640001,-95.4310415319999,422,"608 CACTUS DRIVE, CONROE, TX, 77304","Match","Non_Exact","608 CACTUS DR, CONROE, TX, 77385",79284866,"L"
256923,"608 CANDELILA DRIVE","DESOTO","TX",75115,32.570505811,-96.845665697,423,"608 CANDELILA DRIVE, DESOTO, TX, 75115","Match","Exact","608 CANDELILA DR, DESOTO, TX, 75115",624291587,"L"
256924,"608 CEDAR PARK DRIVE","DAYTONA BEACH","FL",32114,29.197420091,-81.026473671,424,"608 CEDAR PARK DRIVE, DAYTONA BEACH, FL, 32114","Match","Exact","608 CEDAR PARK DR, DAYTONA BEACH, FL, 32114",94524900,"R"
256925,"608 COLLEGE ST","VANCEBORO","NC",28586,35.301486208,-77.151425554,425,"608 COLLEGE ST, VANCEBORO, NC, 28586","Match","Exact","608 COLLEGE ST, VANCEBORO, NC, 28586",34107104,"L"
256926,"608 CORNELL DRIVE","PFLUGERVILLE","TX",78660,30.435814158,-97.629246183,426,"608 CORNELL DRIVE, PFLUGERVILLE, TX, 78660","Match","Exact","608 CORNELL DR, PFLUGERVILLE, TX, 78660",63988585,"L"
256927,"608 CRAB APPLE LANE","NEW WINDSOR","NY",12553,41.4747897840001,-74.046504548,427,"608 CRAB APPLE LANE, NEW WINDSOR, NY, 12553","Match","Exact","608 CRAB APPLE LN, NEW WINDSOR, NY, 12553",124432888,"L"
256928,"608 CREEKSTONE COURT","JONESBORO","GA",30281,33.535087253,-84.284048059,428,"608 CREEKSTONE COURT, JONESBORO, GA, 30281","Match","Non_Exact","608 CREEKSTONE CT, JONESBORO, GA, 30236",23212137,"L"
256929,"608 CYPRESS LANE","EAST BRUNSWICK","NJ",8816,40.3959225300001,-74.429495792,429,"608 CYPRESS LANE, EAST BRUNSWICK, NJ, 8816","Match","Exact","608 CYPRESS LN, E BRUNSWICK, NJ, 08816",624882443,"R"
256930,"608 DAFFODIL DRIVE","BENICIA","CA",94510,38.084615205,-122.166807645,430,"608 DAFFODIL DRIVE, BENICIA, CA, 94510","Match","Exact","608 DAFFODIL DR, BENICIA, CA, 94510",192555653,"L"
256931,"608 DEER COUNTRY","SAN ANTONIO","TX",78253,29.432008395,-98.765085807,431,"608 DEER COUNTRY, SAN ANTONIO, TX, 78253","Match","Exact","608 DEER COUNTRY, SAN ANTONIO, TX, 78253",101687763,"L"
256932,"608 DIBBLE STREET","TUSKEGEE","AL",36083,32.4267923620001,-85.695849846,432,"608 DIBBLE STREET, TUSKEGEE, AL, 36083","Match","Exact","608 DIBBLE ST, TUSKEGEE, AL, 36083",69141008,"R"
256933,"608 DON JOSE CORTEZ LANE","TAOS","NM",87571,36.4178745940001,-105.581914859,433,"608 DON JOSE CORTEZ LANE, TAOS, NM, 87571","Match","Exact","608 DON JOSE CORTEZ LN, TAOS, NM, 87571",159928935,"L"
256934,"608 E HIGHWAY 260","PAYSON","AZ",85541,34.241045408,-111.316645094,434,"608 E HIGHWAY 260, PAYSON, AZ, 85541","Match","Non_Exact","608 STATE HWY 260, PAYSON, AZ, 85541",159372444,"L"
256935,"608 E LANE ST","SHELBYVILLE","TN",37160,35.485376005,-86.447818828,435,"608 E LANE ST, SHELBYVILLE, TN, 37160","Match","Exact","608 E LANE ST, SHELBYVILLE, TN, 37160",607155068,"R"
256936,"608 E OHIO STREET","CLINTON","MO",64735,38.3666065080001,-93.767228158,436,"608 E OHIO STREET, CLINTON, MO, 64735","Match","Exact","608 E OHIO ST, CLINTON, MO, 64735",44936018,"L"
256937,"608 E SOUTHVIEW","COLFAX","WA",99111,46.8751144440001,-117.357746425,437,"608 E SOUTHVIEW, COLFAX, WA, 99111","Match","Non_Exact","608 E SOUTHVIEW AVE, COLFAX, WA, 99111",173287543,"L"
256938,"608 E SUNSET DRIVE NORTH","REDLANDS","CA",92373,34.031932555,-117.145722142,438,"608 E SUNSET DRIVE NORTH, REDLANDS, CA, 92373","Match","Exact","608 E SUNSET DR N, REDLANDS, CA, 92373",144666861,"R"
256939,"608 E VALLEY BLVD D108","SAN GABRIEL","CA",91776,34.080064733,-118.092647371,439,"608 E VALLEY BLVD D108, SAN GABRIEL, CA, 91776","Match","Non_Exact","608 E VALLEY BLVD, SAN GABRIEL, CA, 91776",241241045,"R"
256940,"608 E VALLEY BLVD D122","SAN GABRIEL","CA",91776,34.080064733,-118.092647371,440,"608 E VALLEY BLVD D122, SAN GABRIEL, CA, 91776","Match","Non_Exact","608 E VALLEY BLVD, SAN GABRIEL, CA, 91776",241241045,"R"
256941,"608 E VALLEY BLVD D97","SAN GABRIEL","CA",91776,34.080064733,-118.092647371,441,"608 E VALLEY BLVD D97, SAN GABRIEL, CA, 91776","Match","Non_Exact","608 E VALLEY BLVD, SAN GABRIEL, CA, 91776",241241045,"R"
256942,"608 E VALLEY BLVD SUITE D-311","SAN GABRIEL","CA",91776,34.080064733,-118.092647371,442,"608 E VALLEY BLVD SUITE D-311, SAN GABRIEL, CA, 91776","Match","Non_Exact","608 E VALLEY BLVD, SAN GABRIEL, CA, 91776",241241045,"R"
256943,"608 E WACO ST","BROKEN ARROW","OK",74011,36.008847616,-95.7830279789999,443,"608 E WACO ST, BROKEN ARROW, OK, 74011","Match","Exact","608 E WACO ST, BROKEN ARROW, OK, 74011",166505086,"L"
256944,"608 E WALNUT","AURORA","MO",65605,36.9605584400001,-93.713299454,444,"608 E WALNUT, AURORA, MO, 65605","Match","Non_Exact","608 E WALNUT ST, AURORA, MO, 65605",99852191,"L"
256945,"608 EAST CHURCH STREET","EDENTON","NC",27932,36.061442771,-76.597120417,445,"608 EAST CHURCH STREET, EDENTON, NC, 27932","Match","Exact","608 E CHURCH ST, EDENTON, NC, 27932",18470109,"R"
256946,"608 EAST COLUMBIA","FARMINGTON","MO",63640,37.779813115,-90.4143803709999,446,"608 EAST COLUMBIA, FARMINGTON, MO, 63640","Match","Non_Exact","608 E COLUMBIA ST, FARMINGTON, MO, 63640",62383097,"L"
256947,"608 EAST FORDYCE STREET","ENGLAND","AR",72046,34.546000303,-91.963475642,447,"608 EAST FORDYCE STREET, ENGLAND, AR, 72046","Match","Exact","608 E FORDYCE ST, ENGLAND, AR, 72046",79703327,"R"
256948,"608 EAST THIRD STREET","PERRYVILLE","KY",40468,37.6490872150001,-84.9453751139999,448,"608 EAST THIRD STREET, PERRYVILLE, KY, 40468","Match","Exact","608 E 3RD ST, PERRYVILLE, KY, 40468",32478849,"L"
256949,"608 FIELDBROOK CT","MONTGOMERY","AL",36117,32.393667545,-86.192450346,449,"608 FIELDBROOK CT, MONTGOMERY, AL, 36117","Match","Exact","608 FIELDBROOK CT, MONTGOMERY, AL, 36117",1472919,"R"
256950,"608 FLATBUSH AVENUE APT 2D","BROOKLYN","NY",11225,40.6587511340001,-73.960519683,450,"608 FLATBUSH AVENUE APT 2D, BROOKLYN, NY, 11225","Match","Exact","608 FLATBUSH AVE, BROOKLYN, NY, 11225",59078555,"R"
256951,"608 FM 2558","BROADDUS","TX",75929,31.310393913,-94.277744206,451,"608 FM 2558, BROADDUS, TX, 75929","Match","Non_Exact","608 FM-2558 E, BROADDUS, TX, 75929",72672332,"R"
256952,"608 FORWARD ST","LA JOLLA","CA",92037,32.814276727,-117.267250644,452,"608 FORWARD ST, LA JOLLA, CA, 92037","Match","Exact","608 FORWARD ST, LA JOLLA, CA, 92037",612854660,"L"
256953,"608 FRANKLIN AVE","NEW BERN","NC",28560,35.1075542130001,-77.0700734169999,453,"608 FRANKLIN AVE, NEW BERN, NC, 28560","Match","Exact","608 FRANKLIN AVE, NEW BERN, NC, 28560",34112572,"R"
256954,"608 GALLATIN","LIBERTY","MO",64068,39.253929101,-94.421358807,454,"608 GALLATIN, LIBERTY, MO, 64068","Match","Non_Exact","608 GALLATIN ST, LIBERTY, MO, 64068",89760632,"L"
256955,"608 GLENDALE RD","GLENVIEW","IL",60025,42.0664978630001,-87.836975415,455,"608 GLENDALE RD, GLENVIEW, IL, 60025","Match","Exact","608 GLENDALE RD, GLENVIEW, IL, 60025",624310068,"L"
256956,"608 GOSLING MARSH RD","MARTINSBURG","WV",25404,39.443991479,-77.860166468,456,"608 GOSLING MARSH RD, MARTINSBURG, WV, 25404","Match","Exact","608 GOSLING MARSH RD, MARTINSBURG, WV, 25404",632535982,"R"
256957,"608 GRINER STREET","DEL RIO","TX",78840,29.358249883,-100.900012941,457,"608 GRINER STREET, DEL RIO, TX, 78840","Match","Exact","608 GRINER ST, DEL RIO, TX, 78840",173576447,"R"
256958,"608 HALYARD DR","ALLEN","TX",75013,33.107171715,-96.703009123,458,"608 HALYARD DR, ALLEN, TX, 75013","Match","Exact","608 HALYARD DR, ALLEN, TX, 75013",123538445,"R"
256959,"608 HASTEDT STREET","GARWOOD","TX",77442,29.447931951,-96.395463799,459,"608 HASTEDT STREET, GARWOOD, TX, 77442","Match","Exact","608 HASTEDT ST, GARWOOD, TX, 77442",41174636,"R"
256960,"608 HIGH PLAIN DRIVE","BEL AIR","MD",21014,39.5172471700001,-76.3490414199999,460,"608 HIGH PLAIN DRIVE, BEL AIR, MD, 21014","Match","Exact","608 HIGH PLAIN DR, BEL AIR, MD, 21014",191647872,"L"
256961,"608 HIGHLAND AVE","FALLS CHURCH","VA",22046,38.892986249,-77.179898996,461,"608 HIGHLAND AVE, FALLS CHURCH, VA, 22046","Match","Exact","608 HIGHLAND AVE, FALLS CHURCH, VA, 22046",75979104,"L"
256962,"608 HOWARD AVE","BURLINGAME","CA",94010,37.5822355,-122.338540287,462,"608 HOWARD AVE, BURLINGAME, CA, 94010","Match","Exact","608 HOWARD AVE, BURLINGAME, CA, 94010",192376519,"R"
256963,"608 JOHNSON ROAD","CENTRAL","SC",29630,34.73534598,-82.777177487,463,"608 JOHNSON ROAD, CENTRAL, SC, 29630","Match","Exact","608 JOHNSON RD, CENTRAL, SC, 29630",26163296,"R"
256964,"608 KILPATRICK ST","AMERICAN CANYON","CA",94503,38.156000987,-122.260228286,464,"608 KILPATRICK ST, AMERICAN CANYON, CA, 94503","Match","Exact","608 KILPATRICK ST, AMERICAN CANYON, CA, 94503",67418520,"L"
256965,"608 KISMET RD","PHILADELPHIA","PA",19115,40.1057563860001,-75.0490810589999,465,"608 KISMET RD, PHILADELPHIA, PA, 19115","Match","Exact","608 KISMET RD, PHILADELPHIA, PA, 19115",131449709,"R"
256966,"608 KNOB CREEK LANE","MODESTO","CA",95354,37.647972189,-120.937613887,466,"608 KNOB CREEK LANE, MODESTO, CA, 95354","Match","Exact","608 KNOB CREEK LN, MODESTO, CA, 95354",102607297,"R"
256967,"608 LADYNE AVENUE NW","BOLIVAR","OH",44612,40.656133153,-81.453108533,467,"608 LADYNE AVENUE NW, BOLIVAR, OH, 44612","Match","Exact","608 LADYNE AVE NW, BOLIVAR, OH, 44612",44239596,"L"
256968,"608 LEE ST","WINSLOW","AZ",86047,35.0364210990001,-110.700409801,468,"608 LEE ST, WINSLOW, AZ, 86047","Match","Non_Exact","608 W LEE ST, WINSLOW, AZ, 86047",172492370,"L"
256969,"608 LENNOX ST","BALTIMORE","MD",21217,39.311850614,-76.6271748029999,469,"608 LENNOX ST, BALTIMORE, MD, 21217","Match","Exact","608 LENNOX ST, BALTIMORE, MD, 21217",206416836,"R"
256970,"608 LINWOOD ST","PLEASANT HILL","MO",64080,38.7924541840001,-94.255310795,470,"608 LINWOOD ST, PLEASANT HILL, MO, 64080","Match","Exact","608 LINWOOD ST, PLEASANT HILL, MO, 64080",624520758,"R"
256971,"608 MAIN STREET","LANDER","WY",82520,42.834483429,-108.737519362,471,"608 MAIN STREET, LANDER, WY, 82520","Match","Exact","608 MAIN ST, LANDER, WY, 82520",148435835,"R"
256972,"608 MATADOR CT","BOSSIER CITY","LA",71111,32.574190189,-93.665894135,472,"608 MATADOR CT, BOSSIER CITY, LA, 71111","Match","Exact","608 MATADOR CT, BOSSIER CITY, LA, 71111",648698332,"L"
256973,"608 MCGRUDER STREET NE","ATLANTA","GA",30312,33.758551606,-84.3666615349999,473,"608 MCGRUDER STREET NE, ATLANTA, GA, 30312","Match","Exact","608 MCGRUDER ST NE, ATLANTA, GA, 30312",17357321,"L"
256974,"608 MCINTOSH ROAD","ORMOND BEACH","FL",32174,29.2990280390001,-81.068175949,474,"608 MCINTOSH ROAD, ORMOND BEACH, FL, 32174","Match","Exact","608 MCINTOSH RD, ORMOND BEACH, FL, 32174",94520489,"L"
256975,"608 MINT CT","GREER","SC",29651,34.867822717,-82.2013232849999,475,"608 MINT CT, GREER, SC, 29651","Match","Exact","608 MINT CT, GREER, SC, 29651",19495274,"R"
256976,"608 MITCHELL ROAD","PUT-IN-BAY","OH",43456,41.65037842,-82.830231211,476,"608 MITCHELL ROAD, PUT-IN-BAY, OH, 43456","Match","Exact","608 MITCHELL RD, PUT IN BAY, OH, 43456",44072723,"R"
256977,"608 MONASTERY STREET","SITKA","AK",99835,57.057546996,-135.334284894,477,"608 MONASTERY STREET, SITKA, AK, 99835","Match","Exact","608 MONASTERY ST, SITKA, AK, 99835",191272368,"L"
256978,"608 MOUNT PLEASANT ROAD APT 449","PITTSBURGH","PA",15214,40.4768637880001,-79.999030555,478,"608 MOUNT PLEASANT ROAD APT 449, PITTSBURGH, PA, 15214","Match","Exact","608 MOUNT PLEASANT RD, PITTSBURGH, PA, 15214",51625643,"R"
256979,"608 N 10TH ST","LEAVENWORTH","KS",66048,39.3224011680001,-94.9282209359999,479,"608 N 10TH ST, LEAVENWORTH, KS, 66048","Match","Exact","608 N 10TH ST, LEAVENWORTH, KS, 66048",619690431,"L"
256980,"608 N 2ND AVE","WASHINGTON","IA",52353,41.304278018,-91.690398772,480,"608 N 2ND AVE, WASHINGTON, IA, 52353","Match","Exact","608 N 2ND AVE, WASHINGTON, IA, 52353",84182236,"R"
256981,"608 N BULLARD STREET","SILVER CITY","NM",88061,32.7725737150001,-108.276106886,481,"608 N BULLARD STREET, SILVER CITY, NM, 88061","Match","Exact","608 N BULLARD ST, SILVER CITY, NM, 88061",192654368,"R"
256982,"608 N BUSHNESS AVENUE","ALHAMBRA","CA",91801,NA,NA,482,"608 N BUSHNESS AVENUE, ALHAMBRA, CA, 91801","No_Match",NA,NA,NA,NA
256983,"608 N HIGH ST","CHILLICOTHE","OH",45604,39.34616391,-82.993569162,483,"608 N HIGH ST, CHILLICOTHE, OH, 45604","Match","Non_Exact","608 N HIGH ST, CHILLICOTHE, OH, 45601",37481611,"L"
256984,"608 N MAIN ST","GAINESVILLE","FL",32601,29.6570109990001,-82.3250255679999,484,"608 N MAIN ST, GAINESVILLE, FL, 32601","Match","Exact","608 N MAIN ST, GAINESVILLE, FL, 32601",6808498,"L"
256985,"608 N OAKRIDGE DR","SANDSPRINGS","OK",74063,36.169237513,-96.099324324,485,"608 N OAKRIDGE DR, SANDSPRINGS, OK, 74063","Match","Non_Exact","608 OAK RIDGE DR, SAND SPRINGS, OK, 74063",650518548,"R"
256986,"608 N OHIO STREET","TOLEDO","IL",62468,NA,NA,486,"608 N OHIO STREET, TOLEDO, IL, 62468","No_Match",NA,NA,NA,NA
256987,"608 NE INNES LANE","BEND","OR",97701,44.069789616,-121.296953708,487,"608 NE INNES LANE, BEND, OR, 97701","Match","Exact","608 NE INNES LN, BEND, OR, 97701",152553272,"L"
256988,"608 NEW HAMPSHIRE AVE","NORFOLK","VA",23508,36.8889615800001,-76.287593617,488,"608 NEW HAMPSHIRE AVE, NORFOLK, VA, 23508","Match","Exact","608 NEW HAMPSHIRE AVE, NORFOLK, VA, 23508",122132132,"R"
256989,"608 NORFOLK AVE","VIRGINIA BEACH","VA",23451,36.8377050060001,-75.979649519,489,"608 NORFOLK AVE, VIRGINIA BEACH, VA, 23451","Match","Exact","608 NORFOLK AVE, VA BCH, VA, 23451",122271340,"R"
256990,"608 NORTH 17TH STREET","LAMESA","TX",79331,32.747932217,-101.959081166,490,"608 NORTH 17TH STREET, LAMESA, TX, 79331","Match","Exact","608 N 17TH ST, LAMESA, TX, 79331",182745987,"L"
256991,"608 NORTHWEST BLVD SUITE 101","COEUR D'ALENE","ID",83814,47.6779850880001,-116.789611966,491,"608 NORTHWEST BLVD SUITE 101, COEUR D'ALENE, ID, 83814","Match","Non_Exact","608 NORTHWEST BLVD, COEUR D ALENE, ID, 83814",650267144,"R"
256992,"608 NW 3RD AVE","HALLANDALE BEACH","FL",33009,NA,NA,492,"608 NW 3RD AVE, HALLANDALE BEACH, FL, 33009","Tie",NA,NA,NA,NA
256993,"608 NW PACIFIC GROVE DRIVE","BEAVERTON","OR",97006,45.524390786,-122.848739139,493,"608 NW PACIFIC GROVE DRIVE, BEAVERTON, OR, 97006","Match","Exact","608 NW PACIFIC GROVE DR, BEAVERTON, OR, 97006",158211180,"L"
256994,"608 OXFORD STREET","WEST MEMPHIS","AR",72301,35.138876026,-90.194761215,494,"608 OXFORD STREET, WEST MEMPHIS, AR, 72301","Match","Exact","608 OXFORD ST, WEST MEMPHIS, AR, 72301",69372330,"R"
256995,"608 PALENCIA PLACE","LAKELAND","FL",32803,28.0099186140001,-81.962247415,495,"608 PALENCIA PLACE, LAKELAND, FL, 32803","Match","Non_Exact","608 PALENCIA PL, LAKELAND, FL, 33803",104811038,"L"
256996,"608 PARK AVENUE","SELMA","AL",36701,32.433962681,-87.0326887799999,496,"608 PARK AVENUE, SELMA, AL, 36701","Match","Exact","608 PARK AVE, SELMA, AL, 36701",1283012,"R"
256997,"608 PARK LN S","MINNETONKA","MN",55305,44.9758662580001,-93.430927572,497,"608 PARK LN S, MINNETONKA, MN, 55305","Match","Exact","608 PARK LN S, MINNETONKA, MN, 55305",641212436,"R"
256998,"608 PINETREE DR","PERHAM","MN",56573,46.6033124250001,-95.575868548,498,"608 PINETREE DR, PERHAM, MN, 56573","Match","Exact","608 PINETREE DR, PERHAM, MN, 56573",168339390,"R"
256999,"608 PORTSIDE CT","LAFAYETTE","CO",80026,39.9936669460001,-105.121884327,499,"608 PORTSIDE CT, LAFAYETTE, CO, 80026","Match","Exact","608 PORTSIDE CT, LAFAYETTE, CO, 80026",188186219,"L"
257000,"608 RAINTREE RD","BUFFALO GROVE","IL",60089,42.201371425,-87.972187714,500,"608 RAINTREE RD, BUFFALO GROVE, IL, 60089","Match","Exact","608 RAINTREE RD, BUFFALO GROVE, IL, 60089",119665852,"L"
