"ID","Address","City","State","Zip","lat","long","id","input_address","match_indicator","match_type","matched_address","tiger_line_id","tiger_side"
270001,"6703 GERMANTOWN AVENUE","PHILADELPHIA","PA",19119,40.052516316,-75.1857183229999,1,"6703 GERMANTOWN AVENUE, PHILADELPHIA, PA, 19119","Match","Exact","6703 GERMANTOWN AVE, PHILADELPHIA, PA, 19119",131395215,"R"
270002,"6703 KIPLING STREET","ARVADA","CO",80004,39.8183385360001,-105.110116875,2,"6703 KIPLING STREET, ARVADA, CO, 80004","Match","Exact","6703 KIPLING ST, ARVADA, CO, 80004",177398910,"L"
270003,"6703 MT VERNON CT","ARLINGTON","TX",76017,32.6630702320001,-97.215122298,3,"6703 MT VERNON CT, ARLINGTON, TX, 76017","Match","Exact","6703 MOUNT VERNON CT, ARLINGTON, TX, 76017",101925747,"L"
270004,"6703 NW 62ND ST","TAMARAC","FL",33321,26.200799422,-80.242100325,4,"6703 NW 62ND ST, TAMARAC, FL, 33321","Match","Exact","6703 NW 62ND ST, TAMARAC, FL, 33321",114702742,"R"
270005,"6703 ROLLING MILL DR","HOUSTON","TX",77088,29.8897499290001,-95.489436386,5,"6703 ROLLING MILL DR, HOUSTON, TX, 77088","Match","Exact","6703 ROLLING MILL DR, HOUSTON, TX, 77088",96024995,"R"
270006,"6703 SHANNON PKWY STE 11","UNION CITY","GA",30291,33.5741729280001,-84.539334685,6,"6703 SHANNON PKWY STE 11, UNION CITY, GA, 30291","Match","Exact","6703 SHANNON PKWY, UNION CITY, GA, 30291",17351076,"L"
270007,"6703 SWEET SHRUB COURT","CLINTON","MD",20735,38.738950507,-76.8917288659999,7,"6703 SWEET SHRUB COURT, CLINTON, MD, 20735","Match","Exact","6703 SWEET SHRUB CT, CLINTON, MD, 20735",624427996,"L"
270008,"67036 RASMUSSEN RD P O BOX 335","MELLEN","WI",54546,46.3187589520001,-90.7735314459999,8,"67036 RASMUSSEN RD P O BOX 335, MELLEN, WI, 54546","Match","Exact","67036 RASMUSSEN RD, MELLEN, WI, 54546",635057311,"R"
270009,"6704 86TH AVE NE","MARYSVILLE","WA",98270,48.0565081450001,-122.116585977,9,"6704 86TH AVE NE, MARYSVILLE, WA, 98270","Match","Exact","6704 86TH AVE NE, MARYSVILLE, WA, 98270",606940597,"R"
270010,"6704 BENJAMIN ROAD SUITE 500","TAMPA","FL",33634,28.0148932500001,-82.541902706,10,"6704 BENJAMIN ROAD SUITE 500, TAMPA, FL, 33634","Match","Exact","6704 BENJAMIN RD, TAMPA, FL, 33634",104508286,"L"
270011,"6704 BRET HARTE DRIVE","SAN JOSE","CA",95120,37.2171819260001,-121.849800579,11,"6704 BRET HARTE DRIVE, SAN JOSE, CA, 95120","Match","Exact","6704 BRET HARTE DR, SAN JOSE, CA, 95120",122925767,"L"
270012,"6704 CROOKED LANE","FLOWER MOUND","TX",75022,33.017382384,-97.1358608,12,"6704 CROOKED LANE, FLOWER MOUND, TX, 75022","Match","Exact","6704 CROOKED LN, FLOWER MOUND, TX, 75022",640566624,"R"
270013,"6704 DOVE LANE","LITTLE ROCK","AR",72206,34.7179125380001,-92.195355738,13,"6704 DOVE LANE, LITTLE ROCK, AR, 72206","Match","Exact","6704 DOVE LN, LITTLE ROCK, AR, 72206",83517456,"L"
270014,"6704 MINK RD","MACUNGIE","PA",18062,40.54894467,-75.587123731,14,"6704 MINK RD, MACUNGIE, PA, 18062","Match","Exact","6704 MINK RD, MACUNGIE, PA, 18062",625030677,"L"
270015,"6704 OVERLOOK RIDGE","ATLANTA","GA",30349,33.6379074280001,-84.605668472,15,"6704 OVERLOOK RIDGE, ATLANTA, GA, 30349","Match","Exact","6704 OVERLOOK RIDGE, ATLANTA, GA, 30349",628099618,"R"
270016,"6704 PRESTON ST","ERIE","MI",41812,41.740343554,-83.518905818,16,"6704 PRESTON ST, ERIE, MI, 41812","Match","Non_Exact","6704 PRESTON ST, ERIE, MI, 48133",40486109,"R"
270017,"6704 WALNUT HILLS DRIVE","BRENTWOOD","TN",37027,36.0088112070001,-86.720158043,17,"6704 WALNUT HILLS DRIVE, BRENTWOOD, TN, 37027","Match","Exact","6704 WALNUT HILLS DR, BRENTWOOD, TN, 37027",652883057,"R"
270018,"6704 WEIMER DRIVE","RALEIGH","NC",27617,35.911494831,-78.747628129,18,"6704 WEIMER DRIVE, RALEIGH, NC, 27617","Match","Exact","6704 WEIMER DR, RALEIGH, NC, 27617",72646333,"L"
270019,"6704 WILBURN DRIVE","CAPITOL HEIGHTS","MD",20743,38.879712189,-76.890898794,19,"6704 WILBURN DRIVE, CAPITOL HEIGHTS, MD, 20743","Match","Exact","6704 WILBURN DR, CAPITOL HEIGHTS, MD, 20743",76317990,"L"
270020,"6705 BRAEBURN DR","DALLAS","TX",75214,32.840694311,-96.745168918,20,"6705 BRAEBURN DR, DALLAS, TX, 75214","Match","Exact","6705 BRAEBURN DR, DALLAS, TX, 75214",102918766,"L"
270021,"6705 CHEWACAN DR","BAKERSFIELD","CA",93309,35.3278904270001,-119.076186039,21,"6705 CHEWACAN DR, BAKERSFIELD, CA, 93309","Match","Exact","6705 CHEWACAN DR, BAKERSFIELD, CA, 93309",109091217,"R"
270022,"6705 CROSSMOOR LANE","LOUISVILLE","KY",40222,38.275511389,-85.628797385,22,"6705 CROSSMOOR LANE, LOUISVILLE, KY, 40222","Match","Exact","6705 CROSSMOOR LN, LOUISVILLE, KY, 40222",96855264,"R"
270023,"6705 DRYLOG STREET","SEAT PLEASANT","MD",20743,38.8979572710001,-76.8904660969999,23,"6705 DRYLOG STREET, SEAT PLEASANT, MD, 20743","Match","Exact","6705 DRYLOG ST, SEAT PLEASANT, MD, 20743",76317802,"R"
270024,"6705 E 1236TH ST","GRANDVIEW","MO",64030,NA,NA,24,"6705 E 1236TH ST, GRANDVIEW, MO, 64030","No_Match",NA,NA,NA,NA
270025,"6705 E PARADISE LANE","SCOTTSDALE","AZ",85254,33.633124251,-111.936980383,25,"6705 E PARADISE LANE, SCOTTSDALE, AZ, 85254","Match","Exact","6705 E PARADISE LN, SCOTTSDALE, AZ, 85254",128915612,"R"
270026,"6705 GLADE DR","ARLINGTON","TX",76001,32.6357936210001,-97.146298901,26,"6705 GLADE DR, ARLINGTON, TX, 76001","Match","Exact","6705 GLADE DR, ARLINGTON, TX, 76001",641424297,"L"
270027,"6705 GLENALLEN AVENUE","SOLON","OH",44139,41.3769432870001,-81.448516736,27,"6705 GLENALLEN AVENUE, SOLON, OH, 44139","Match","Exact","6705 GLENALLEN AVE, SOLON, OH, 44139",61148661,"L"
270028,"6705 GREGORY LANE","SOBIESKI","WI",54171,44.6829177640001,-88.105377044,28,"6705 GREGORY LANE, SOBIESKI, WI, 54171","Match","Exact","6705 GREGORY LN, SOBIESKI, WI, 54171",170326224,"L"
270029,"6705 HAIGHT ST","HOUSTON","TX",77028,29.8237960170001,-95.2761623439999,29,"6705 HAIGHT ST, HOUSTON, TX, 77028","Match","Exact","6705 HAIGHT ST, HOUSTON, TX, 77028",96640575,"L"
270030,"6705 HOUSMAN ST","HOUSTON","TX",77055,29.79950417,-95.468523505,30,"6705 HOUSMAN ST, HOUSTON, TX, 77055","Match","Exact","6705 HOUSMAN ST, HOUSTON, TX, 77055",96028500,"L"
270031,"6705 HUCKLEBERRY LANE","KESWICK","VA",22947,NA,NA,31,"6705 HUCKLEBERRY LANE, KESWICK, VA, 22947","No_Match",NA,NA,NA,NA
270032,"6705 KENSLOW DR","STILLWATER","OK",74074,36.09519801,-97.146984007,32,"6705 KENSLOW DR, STILLWATER, OK, 74074","Match","Exact","6705 KENSLOW DR, STILLWATER, OK, 74074",623897026,"R"
270033,"6705 KINGS POINT WEST","AUSTIN","TX",78723,30.3115089090001,-97.6685183229999,33,"6705 KINGS POINT WEST, AUSTIN, TX, 78723","Match","Exact","6705 KINGS PT W, AUSTIN, TX, 78723",63935191,"R"
270034,"6705 OAK GROVE PARKWAY SUITE 1405","BROOKLYN PARK","MN",55445,45.132264015,-93.3638844989999,34,"6705 OAK GROVE PARKWAY SUITE 1405, BROOKLYN PARK, MN, 55445","Match","Exact","6705 OAK GROVE PKWY, BROOKLYN PARK, MN, 55445",638531498,"L"
270035,"6705 PEBBLE BROOKE RD","BALTIMORE","MD",21209,39.3771925190001,-76.67047094,35,"6705 PEBBLE BROOKE RD, BALTIMORE, MD, 21209","Match","Exact","6705 PEBBLE BROOKE RD, BALTIMORE, MD, 21209",645108486,"R"
270036,"6705 S GRANITE MOUNTAIN LN","SPOKANE","WA",99223,NA,NA,36,"6705 S GRANITE MOUNTAIN LN, SPOKANE, WA, 99223","No_Match",NA,NA,NA,NA
270037,"6705 SALTSBURG ROAD APT 303","PITTSBURGH","PA",15235,40.481010106,-79.802342885,37,"6705 SALTSBURG ROAD APT 303, PITTSBURGH, PA, 15235","Match","Exact","6705 SALTSBURG RD, PITTSBURGH, PA, 15235",51815807,"L"
270038,"6705 SOUTHSIDE DRIVE","BLACKSHEAR","GA",31516,31.2451752430001,-82.248979962,38,"6705 SOUTHSIDE DRIVE, BLACKSHEAR, GA, 31516","Match","Exact","6705 SOUTHSIDE DR, BLACKSHEAR, GA, 31516",4608029,"L"
270039,"6705 SUMMERS DRIVE WEST APT 204","FORT WORTH","TX",76137,32.8645171790001,-97.309932492,39,"6705 SUMMERS DRIVE WEST APT 204, FORT WORTH, TX, 76137","Match","Exact","6705 SUMMERS DR W, FORT WORTH, TX, 76137",640623996,"L"
270040,"6705 TABOR ST","NORTH RICHLAND HILLS","TX",76180,32.828017866,-97.2383783829999,40,"6705 TABOR ST, NORTH RICHLAND HILLS, TX, 76180","Match","Exact","6705 TABOR ST, NORTH RICHLAND HILLS, TX, 76180",101863184,"L"
270041,"6705 TEMPLEHURST RD","ENGLEWOOD","OH",45322,39.8441498560001,-84.2933015629999,41,"6705 TEMPLEHURST RD, ENGLEWOOD, OH, 45322","Match","Non_Exact","6705 TEMPLEHURST DR, ENGLEWOOD, OH, 45322",143561785,"L"
270042,"6705 WESNER ROAD","MADISON","WI",53593,NA,NA,42,"6705 WESNER ROAD, MADISON, WI, 53593","No_Match",NA,NA,NA,NA
270043,"6706 HARRY S TRUMAN DR","JACKSON","GA",39213,NA,NA,43,"6706 HARRY S TRUMAN DR, JACKSON, GA, 39213","No_Match",NA,NA,NA,NA
270044,"6706 HAYCOCK ROAD","FALLS CHURCH","VA",22043,38.902702737,-77.176602626,44,"6706 HAYCOCK ROAD, FALLS CHURCH, VA, 22043","Match","Exact","6706 HAYCOCK RD, FALLS CHURCH, VA, 22043",75979059,"R"
270045,"6706 N BROAD ST","PHILADELPHIA","PA",19126,40.0553492450001,-75.141170007,45,"6706 N BROAD ST, PHILADELPHIA, PA, 19126","Match","Exact","6706 N BROAD ST, PHILADELPHIA, PA, 19126",131413791,"L"
270046,"6706 N NEBRASKA AVE UNIT 9095","TAMPA","FL",33674,NA,NA,46,"6706 N NEBRASKA AVE UNIT 9095, TAMPA, FL, 33674","No_Match",NA,NA,NA,NA
270047,"6706 NW 104TH TERRACE","KANSAS CITY","MO",64154,39.282713361,-94.655944211,47,"6706 NW 104TH TERRACE, KANSAS CITY, MO, 64154","Match","Exact","6706 NW 104TH TER, KANSAS CITY, MO, 64154",651387935,"L"
270048,"6706 NW 209TH ST","RIDGEFIELD","WA",98642,45.7719447520001,-122.741040796,48,"6706 NW 209TH ST, RIDGEFIELD, WA, 98642","Match","Exact","6706 NW 209TH ST, RIDGEFIELD, WA, 98642",158342473,"R"
270049,"6706 S COURT DRIVE","TAMPA","FL",33611,27.8705164400001,-82.49998368,49,"6706 S COURT DRIVE, TAMPA, FL, 33611","Match","Exact","6706 S COURT DR, TAMPA, FL, 33611",104555470,"L"
270050,"6706 THEOTA AVE","PARMA","OH",44129,41.413201089,-81.730851421,50,"6706 THEOTA AVE, PARMA, OH, 44129","Match","Exact","6706 THEOTA AVE, PARMA, OH, 44129",61107046,"R"
270051,"6706 W AIRPORT BLVD","HOUSTON","TX",77071,29.6442385940001,-95.508393779,51,"6706 W AIRPORT BLVD, HOUSTON, TX, 77071","Match","Exact","6706 W AIRPORT BLVD, HOUSTON, TX, 77071",96595289,"L"
270052,"6706 WAGONWHEEL LANE","HOUSTON","TX",77088,29.868831948,-95.480991682,52,"6706 WAGONWHEEL LANE, HOUSTON, TX, 77088","Match","Exact","6706 WAGONWHEEL LN, HOUSTON, TX, 77088",96646996,"R"
270053,"67060","MARENGO","WI",54855,NA,NA,53,"67060, MARENGO, WI, 54855","No_Match",NA,NA,NA,NA
270054,"6707 CAMDEN BAY DRIVE","TAMPA","FL",33635,NA,NA,54,"6707 CAMDEN BAY DRIVE, TAMPA, FL, 33635","No_Match",NA,NA,NA,NA
270055,"6707 CHAPPARRAL DRIVE","LITHONIA","GA",30038,33.6877106170001,-84.1162927569999,55,"6707 CHAPPARRAL DRIVE, LITHONIA, GA, 30038","Match","Non_Exact","6707 CHAPARRAL DR, LITHONIA, GA, 30038",23376296,"R"
270056,"6707 DEMOCRACY BOULEVARD SUITE 504","BETHESDA","MD",20817,39.0220141080001,-77.135393254,56,"6707 DEMOCRACY BOULEVARD SUITE 504, BETHESDA, MD, 20817","Match","Exact","6707 DEMOCRACY BLVD, BETHESDA, MD, 20817",640588454,"R"
270057,"6707 DOGWOOD ROAD","BALTIMORE","MD",21207,39.3210027260001,-76.7409838469999,57,"6707 DOGWOOD ROAD, BALTIMORE, MD, 21207","Match","Exact","6707 DOGWOOD RD, BALTIMORE, MD, 21207",191483569,"L"
270058,"6707 E HIGHWAY 252","GREENWOOD","AR",72936,35.1571916720001,-94.146680881,58,"6707 E HIGHWAY 252, GREENWOOD, AR, 72936","Match","Non_Exact","6707 STATE HWY 252, GREENWOOD, AR, 72936",56160017,"R"
270059,"6707 FM 1464","RICHMOND","TX",77407,NA,NA,59,"6707 FM 1464, RICHMOND, TX, 77407","No_Match",NA,NA,NA,NA
270060,"6707 GLEN FOREST DRIVE","CHAPEL HILL","NC",27517,35.9014571490001,-78.9858479979999,60,"6707 GLEN FOREST DRIVE, CHAPEL HILL, NC, 27517","Match","Exact","6707 GLEN FOREST DR, CHAPEL HILL, NC, 27517",71737642,"R"
270061,"6707 HOLLYBROOK DR","SACRAMENTO","CA",95823,38.4419467280001,-121.424490609,61,"6707 HOLLYBROOK DR, SACRAMENTO, CA, 95823","Match","Exact","6707 HOLLYBROOK DR, SACRAMENTO, CA, 95823",133380283,"R"
270062,"6707 LOBLOLLY CIRCLE","WAXHAW","NC",28173,34.892103832,-80.711311091,62,"6707 LOBLOLLY CIRCLE, WAXHAW, NC, 28173","Match","Exact","6707 LOBLOLLY CIR, WAXHAW, NC, 28173",216853866,"L"
270063,"6707 MELVILLE DRIVE","CHESTERFIELD","VA",23832,37.4624712460001,-77.5215102079999,63,"6707 MELVILLE DRIVE, CHESTERFIELD, VA, 23832","Match","Exact","6707 MELVILLE DR, CHESTERFIELD, VA, 23832",201557044,"L"
270064,"6707 METROPOLITAN BLVD","BARNHART","MO",63012,38.3502443240001,-90.3961254439999,64,"6707 METROPOLITAN BLVD, BARNHART, MO, 63012","Match","Exact","6707 METROPOLITAN BLVD, BARNHART, MO, 63012",62765392,"L"
270065,"6707 NE 117TH AVE STE 100D","VANCOUVER","WA",98662,45.669581486,-122.552541264,65,"6707 NE 117TH AVE STE 100D, VANCOUVER, WA, 98662","Match","Non_Exact","6707 NE 117TH AVE, VANCOUVER, WA, 98662",158359944,"R"
270066,"6707 PANTHER WAY","INDIANAPOLIS","IN",46237,39.6643200720001,-86.05032804,66,"6707 PANTHER WAY, INDIANAPOLIS, IN, 46237","Match","Exact","6707 PANTHER WAY, INDIANAPOLIS, IN, 46237",637361779,"R"
270067,"6707 PLANTATION RD STE B1","PENSACOLA","FL",32504,30.496138795,-87.2278605229999,67,"6707 PLANTATION RD STE B1, PENSACOLA, FL, 32504","Match","Exact","6707 PLANTATION RD, PENSACOLA, FL, 32504",93253768,"R"
270068,"6707 SHEPHERDSTOWN RD","WARRENTON","VA",20187,38.7524885610001,-77.6882762549999,68,"6707 SHEPHERDSTOWN RD, WARRENTON, VA, 20187","Match","Exact","6707 SHEPHERDSTOWN RD, WARRENTON, VA, 20187",146276460,"L"
270069,"6707 SHERRIE JEAN LN","PEORIA","AZ",85382,33.630635688,-112.202903129,69,"6707 SHERRIE JEAN LN, PEORIA, AZ, 85382","Match","Non_Exact","6707 W SHERRI JEAN LN, PEORIA, AZ, 85382",128174154,"L"
270070,"6707 SUNSET TERRACE","LANHAM","MD",20706,38.970859884,-76.889407539,70,"6707 SUNSET TERRACE, LANHAM, MD, 20706","Match","Exact","6707 SUNSET TER, LANHAM, MD, 20706",76333125,"R"
270071,"6707 VALLEY MILLS AVE","INDIANAPOLIS","IN",46241,39.692078617,-86.2772193449999,71,"6707 VALLEY MILLS AVE, INDIANAPOLIS, IN, 46241","Match","Exact","6707 VALLEY MILLS AVE, INDIANAPOLIS, IN, 46241",108004238,"L"
270072,"6707-A BURCH HILL ROAD","BRANDYWINE","MD",20613,38.7235327430001,-76.88877185,72,"6707-A BURCH HILL ROAD, BRANDYWINE, MD, 20613","Match","Exact","6707 BURCH HILL RD, BRANDYWINE, MD, 20613",76375845,"R"
270073,"6708 BROOKFIELD WAY","DOUGLASVILLE","GA",30134,33.7254024330001,-84.786462967,73,"6708 BROOKFIELD WAY, DOUGLASVILLE, GA, 30134","Match","Exact","6708 BROOKFIELD WAY, DOUGLASVILLE, GA, 30134",618476965,"L"
270074,"6708 CARLSEN AVE","INDIANAPOLIS","IN",46214,39.7875394910001,-86.278401791,74,"6708 CARLSEN AVE, INDIANAPOLIS, IN, 46214","Match","Exact","6708 CARLSEN AVE, INDIANAPOLIS, IN, 46214",107976941,"R"
270075,"6708 GREEN PLANTATION RD","HARLEM","GA",30814,33.433340872,-82.3310428789999,75,"6708 GREEN PLANTATION RD, HARLEM, GA, 30814","Match","Exact","6708 GREEN PLANTATION RD, HARLEM, GA, 30814",55372783,"L"
270076,"6708 HADDONFIELD PLACE","CHARLOTTE","NC",28277,35.0425610460001,-80.79565244,76,"6708 HADDONFIELD PLACE, CHARLOTTE, NC, 28277","Match","Exact","6708 HADDONFIELD PL, CHARLOTTE, NC, 28277",70552813,"R"
270077,"6708 KELLY CT","ZEBULON","NC",27597,35.7901492290001,-78.23616853,77,"6708 KELLY CT, ZEBULON, NC, 27597","Match","Exact","6708 KELLY CT, ZEBULON, NC, 27597",90399232,"L"
270078,"6708 OAKVIEW","EDMOND","OK",73025,35.723864384,-97.487369388,78,"6708 OAKVIEW, EDMOND, OK, 73025","Match","Non_Exact","6708 OAK VIEW RD, EDMOND, OK, 73025",633221988,"R"
270079,"6708 PLANTATION PINES BLVD","FORT MYERS","FM",33966,NA,NA,79,"6708 PLANTATION PINES BLVD, FORT MYERS, FM, 33966","No_Match",NA,NA,NA,NA
270080,"6708 SUMMERTIME DRIVE","MURFREESBORO","TN",37129,35.93861566,-86.491346891,80,"6708 SUMMERTIME DRIVE, MURFREESBORO, TN, 37129","Match","Exact","6708 SUMMERTIME DR, MURFREESBORO, TN, 37129",59030993,"R"
270081,"6708 WEST MAGNOLIA BLVD","HARAHAN","LA",70123,29.9338930330001,-90.194168285,81,"6708 WEST MAGNOLIA BLVD, HARAHAN, LA, 70123","Match","Exact","6708 W MAGNOLIA BLVD, HARAHAN, LA, 70123",93501925,"L"
270082,"6709 10TH AVE APT 1","LOS ANGELES","CA",90043,33.9778658070001,-118.327947427,82,"6709 10TH AVE APT 1, LOS ANGELES, CA, 90043","Match","Exact","6709 10TH AVE, LOS ANGELES, CA, 90043",141655189,"R"
270083,"6709 BACK BAY LANE","AUSTIN","TX",78739,30.1897625730001,-97.898233493,83,"6709 BACK BAY LANE, AUSTIN, TX, 78739","Match","Exact","6709 BACK BAY LN, AUSTIN, TX, 78739",63990019,"L"
270084,"6709 BROOKWOOD CIRCLE","JONESBORO","GA",30236,33.571821136,-84.376449311,84,"6709 BROOKWOOD CIRCLE, JONESBORO, GA, 30236","Match","Exact","6709 BROOKWOOD CIR, JONESBORO, GA, 30236",23316152,"R"
270085,"6709 CACTUS COURT","ORLANDO","FL",32819,28.464004177,-81.4923709889999,85,"6709 CACTUS COURT, ORLANDO, FL, 32819","Match","Exact","6709 CACTUS CT, ORLANDO, FL, 32819",94288633,"R"
270086,"6709 DEL PRADO AVENUE","FORT WORTH","TX",76133,32.6489110300001,-97.388500199,86,"6709 DEL PRADO AVENUE, FORT WORTH, TX, 76133","Match","Exact","6709 DEL PRADO AVE, FORT WORTH, TX, 76133",101883129,"L"
270087,"6709 EL PASO ST","LANDOVER","MD",20785,38.9193105000001,-76.8912801869999,87,"6709 EL PASO ST, LANDOVER, MD, 20785","Match","Exact","6709 EL PASO ST, LANDOVER, MD, 20785",76338088,"R"
270088,"6709 FISHERS FARM LANE E2","CHARLOTTE","NC",28277,35.081844512,-80.832309418,88,"6709 FISHERS FARM LANE E2, CHARLOTTE, NC, 28277","Match","Exact","6709 FISHERS FARM LN, CHARLOTTE, NC, 28277",70534031,"R"
270089,"6709 LA TIJERA BLVD SUITE 181","LOS ANGELES","CA",90045,NA,NA,89,"6709 LA TIJERA BLVD SUITE 181, LOS ANGELES, CA, 90045","No_Match",NA,NA,NA,NA
270090,"6709 LA TIJERA BLVD SUITE 368","LOS ANGELES","CA",90045,NA,NA,90,"6709 LA TIJERA BLVD SUITE 368, LOS ANGELES, CA, 90045","No_Match",NA,NA,NA,NA
270091,"6709 LA TIJERA BLVD SUITE 637","LOS ANGELES","CA",90045,NA,NA,91,"6709 LA TIJERA BLVD SUITE 637, LOS ANGELES, CA, 90045","No_Match",NA,NA,NA,NA
270092,"6709 MAGNOLIA POINTE CIR","ORLANDO","FL",32810,28.6222420020001,-81.428346281,92,"6709 MAGNOLIA POINTE CIR, ORLANDO, FL, 32810","Match","Exact","6709 MAGNOLIA POINTE CIR, ORLANDO, FL, 32810",94269369,"R"
270093,"6709 MATTINA COURT","WINDERMERE","FL",37486,28.459084875,-81.5532658509999,93,"6709 MATTINA COURT, WINDERMERE, FL, 37486","Match","Non_Exact","6709 MATTINA CT, WINDERMERE, FL, 34786",624575553,"L"
270094,"6709 MEADOW CREST DRIVE","NORTH RICHLAND HILLS","TX",76180,32.845613837,-97.238413099,94,"6709 MEADOW CREST DRIVE, NORTH RICHLAND HILLS, TX, 76180","Match","Exact","6709 MEADOW CREST DR, NORTH RICHLAND HILLS, TX, 76180",102121307,"L"
270095,"6709 N RAMONA AVENUE","LINCOLNWOOD","IL",60712,42.0028164030001,-87.75923232,95,"6709 N RAMONA AVENUE, LINCOLNWOOD, IL, 60712","Match","Non_Exact","6709 N RAMONA ST, LINCOLNWOOD, IL, 60712",111737272,"R"
270096,"6709 OSBORNE HILL DR","UPPER MARLBORO","MD",20772,38.7972370000001,-76.815801162,96,"6709 OSBORNE HILL DR, UPPER MARLBORO, MD, 20772","Match","Exact","6709 OSBORNE HILL DR, UPPER MARLBORO, MD, 20772",76385858,"R"
270097,"6709 SOUTH BERMUDA DR","LINCOLN","NE",68506,40.7924015300001,-96.630311998,97,"6709 SOUTH BERMUDA DR, LINCOLN, NE, 68506","Match","Exact","6709 S BERMUDA DR, LINCOLN, NE, 68506",28261242,"R"
270098,"6709 TORRESDALE AVE","PHILADELPHIA","PA",19135,40.0243770660001,-75.046272175,98,"6709 TORRESDALE AVE, PHILADELPHIA, PA, 19135","Match","Exact","6709 TORRESDALE AVE, PHILADELPHIA, PA, 19135",131435556,"R"
270099,"6709 TRILOBITE TRAIL","FORT WORTH","TX",76137,32.864319962,-97.3058449219999,99,"6709 TRILOBITE TRAIL, FORT WORTH, TX, 76137","Match","Exact","6709 TRILOBITE TRL, FORT WORTH, TX, 76137",102099694,"R"
270100,"6709 W 119TH STREET","OVERLAND PARK","KS",66209,38.9128415860001,-94.663266234,100,"6709 W 119TH STREET, OVERLAND PARK, KS, 66209","Match","Exact","6709 W 119TH ST, OVERLAND PARK, KS, 66209",91313859,"L"
270101,"6709 W 149TH TER","OVERLAND PARK","KS",66223,38.85774099,-94.66491346,101,"6709 W 149TH TER, OVERLAND PARK, KS, 66223","Match","Exact","6709 W 149TH TER, OVERLAND PARK, KS, 66223",91314072,"L"
270102,"6709 WEATHERSTONE DRIVE","PLANO","TX",75024,33.0670116250001,-96.842287842,102,"6709 WEATHERSTONE DRIVE, PLANO, TX, 75024","Match","Exact","6709 WEATHERSTONE DR, PLANO, TX, 75024",123567601,"L"
270103,"671 12TH ST","OGDEN","UT",84404,41.244211804,-111.962173963,103,"671 12TH ST, OGDEN, UT, 84404","Match","Exact","671 12TH ST, OGDEN, UT, 84404",155696820,"R"
270104,"671 BROADWAY","SAN FRANCISCO","CA",94133,37.7976867690001,-122.408102465,104,"671 BROADWAY, SAN FRANCISCO, CA, 94133","Match","Exact","671 BROADWAY, SAN FRANCISCO, CA, 94133",639024292,"L"
270105,"671 CECIL STREET","MONTEREY PARK","CA",91755,34.0534514560001,-118.124975705,105,"671 CECIL STREET, MONTEREY PARK, CA, 91755","Match","Exact","671 CECIL ST, MONTEREY PARK, CA, 91755",634249194,"R"
270106,"671 COUNTY ROAD 183","CARTHAGE","TX",75633,32.0433652950001,-94.438434608,106,"671 COUNTY ROAD 183, CARTHAGE, TX, 75633","Match","Exact","671 CO RD 183, CARTHAGE, TX, 75633",627893213,"R"
270107,"671 DU FORT AVE","HENDERSON","NV",89002,35.9926941080001,-114.964084191,107,"671 DU FORT AVE, HENDERSON, NV, 89002","Match","Exact","671 DU FORT AVE, HENDERSON, NV, 89002",201975580,"L"
270108,"671 DURSHIRE WAY","SUNNYVALE","CA",94087,37.343414597,-122.022079076,108,"671 DURSHIRE WAY, SUNNYVALE, CA, 94087","Match","Exact","671 DURSHIRE WAY, SUNNYVALE, CA, 94087",122939190,"L"
270109,"671 E AUGUSTA AVE","VINTON","VA",24179,37.2713595440001,-79.8911531799999,109,"671 E AUGUSTA AVE, VINTON, VA, 24179","Match","Exact","671 E AUGUSTA AVE, VINTON, VA, 24179",62911803,"R"
270110,"671 EAST 103 STREET","BROOKLYN","NY",11236,40.6485464450001,-73.898346949,110,"671 EAST 103 STREET, BROOKLYN, NY, 11236","Match","Exact","671 E 103RD ST, BROOKLYN, NY, 11236",59086699,"L"
270111,"671 EAST 445 SOUTH","OREM","UT",84097,40.2887519130001,-111.679713665,111,"671 EAST 445 SOUTH, OREM, UT, 84097","Match","Exact","671 E 445 S, OREM, UT, 84097",134206598,"L"
270112,"671 FREEPORT ROAD","FREEPORT","PA",16229,40.718391265,-79.6624935689999,112,"671 FREEPORT ROAD, FREEPORT, PA, 16229","Match","Exact","671 FREEPORT RD, FREEPORT, PA, 16229",52473512,"L"
270113,"671 GATES AVE UNIT 4C","BROOKLYN","NY",11221,40.6874277470001,-73.940128398,113,"671 GATES AVE UNIT 4C, BROOKLYN, NY, 11221","Match","Exact","671 GATES AVE, BROOKLYN, NY, 11221",59079196,"L"
270114,"671 GODLEY RD","GRIMESLAND","NC",27837,35.5424191600001,-77.140572003,114,"671 GODLEY RD, GRIMESLAND, NC, 27837","Match","Exact","671 GODLEY RD, GRIMESLAND, NC, 27837",67962871,"L"
270115,"671 HALLS BRIDGE RD","JACKSON","GA",30233,33.3074804070001,-83.904803506,115,"671 HALLS BRIDGE RD, JACKSON, GA, 30233","Match","Exact","671 HALLS BRIDGE RD, JACKSON, GA, 30233",23291595,"L"
270116,"671 HEATHMOOR PLACE","DECATUR","GA",30032,33.7781350860001,-84.237953326,116,"671 HEATHMOOR PLACE, DECATUR, GA, 30032","Match","Exact","671 HEATHMOOR PL, DECATUR, GA, 30032",23370008,"R"
270117,"671 INDUSTRIAL PARK ROAD","LITTLETON","NH",3561,44.2946305560001,-71.7999791249999,117,"671 INDUSTRIAL PARK ROAD, LITTLETON, NH, 3561","Match","Exact","671 INDUSTRIAL PARK RD, LITTLETON, NH, 03561",145700003,"R"
270118,"671 IRIS AVE  UNIT 12","SUNNYVALE","CA",94086,37.3630836580001,-122.022208306,118,"671 IRIS AVE  UNIT 12, SUNNYVALE, CA, 94086","Match","Exact","671 IRIS AVE, SUNNYVALE, CA, 94086",122938569,"L"
270119,"671 IRVINE RANCH ROAD","POINCIANA","FL",34759,28.134986951,-81.506997489,119,"671 IRVINE RANCH ROAD, POINCIANA, FL, 34759","Match","Exact","671 IRVINE RANCH RD, POINCIANA, FL, 34759",648236369,"L"
270120,"671 LITTLE CITY ROAD","HIGGANUM","CT",6441,41.450210977,-72.601392856,120,"671 LITTLE CITY ROAD, HIGGANUM, CT, 6441","Match","Exact","671 LITTLE CITY RD, HIGGANUM, CT, 06441",625096163,"L"
270121,"671 LOTUS ST","SAN JOSE","CA",95116,37.339545534,-121.859001917,121,"671 LOTUS ST, SAN JOSE, CA, 95116","Match","Exact","671 LOTUS ST, SAN JOSE, CA, 95116",122997991,"R"
270122,"671 MACDONOUGH STREET APT 3B","BROOKLYN","NY",11233,40.683827008,-73.919278028,122,"671 MACDONOUGH STREET APT 3B, BROOKLYN, NY, 11233","Match","Exact","671 MACDONOUGH ST, BROOKLYN, NY, 11233",642653807,"L"
270123,"671 MEADOW ROSE COURT","HUMMELSTOWN","PA",17036,40.251998965,-76.6824612199999,123,"671 MEADOW ROSE COURT, HUMMELSTOWN, PA, 17036","Match","Exact","671 MEADOW ROSE CT, HUMMELSTOWN, PA, 17036",623812640,"L"
270124,"671 N ERICSON ROAD","CORDOVA","TN",38018,35.143327518,-89.77513795,124,"671 N ERICSON ROAD, CORDOVA, TN, 38018","Match","Exact","671 N ERICSON RD, CORDOVA, TN, 38018",72976756,"R"
270125,"671 N MADRID LN","CHANDLER","AZ",85226,33.314792691,-111.902513634,125,"671 N MADRID LN, CHANDLER, AZ, 85226","Match","Exact","671 N MADRID LN, CHANDLER, AZ, 85226",128368629,"R"
270126,"671 N RUSSELL AVE","BOLIVAR","MO",65613,37.6183896320001,-93.4279885079999,126,"671 N RUSSELL AVE, BOLIVAR, MO, 65613","Match","Exact","671 RUSSELL AVE, BOLIVAR, MO, 65613",23035585,"L"
270127,"671 NE 195TH STREET  SUITE 421","MIAMI","FL",33179,25.9550274860001,-80.188736588,127,"671 NE 195TH STREET  SUITE 421, MIAMI, FL, 33179","Match","Non_Exact","671 NE 195TH ST, MIAMI, FL, 33179",649488143,"L"
270128,"671 NEWCASTLE RD","NEWCASTLE","CA",95658,38.871017146,-121.131389094,128,"671 NEWCASTLE RD, NEWCASTLE, CA, 95658","Match","Exact","671 NEWCASTLE RD, NEWCASTLE, CA, 95658",106771205,"L"
270129,"671 OAK AVENUE","CARPINTERIA","CA",93013,34.3931961600001,-119.516322852,129,"671 OAK AVENUE, CARPINTERIA, CA, 93013","Match","Exact","671 OAK AVE, CARPINTERIA, CA, 93013",108614228,"L"
270130,"671 PROFESSIONAL AVE STE 518","HENDERSON","NV",89015,36.0329682330001,-115.004703101,130,"671 PROFESSIONAL AVE STE 518, HENDERSON, NV, 89015","Match","Exact","671 PROFESSIONAL AVE, HENDERSON, NV, 89015",201921610,"L"
270131,"671 S MAIN ST","STEWARTSVILLE","NJ",8886,40.6735043950001,-75.105217922,131,"671 S MAIN ST, STEWARTSVILLE, NJ, 8886","Match","Exact","671 S MAIN ST, STEWARTSVILLE, NJ, 08886",98099805,"R"
270132,"671 SEA SHELL COURT","WESTERVILLE","OH",43082,40.143064988,-82.8851556509999,132,"671 SEA SHELL COURT, WESTERVILLE, OH, 43082","Match","Exact","671 SEA SHELL CT, WESTERVILLE, OH, 43082",24594597,"L"
270133,"671 SEA VALE SUITE 21","CHULA VISTA","CA",91910,NA,NA,133,"671 SEA VALE SUITE 21, CHULA VISTA, CA, 91910","No_Match",NA,NA,NA,NA
270134,"671 SOUTH 14TH STREET","NEWARK","NJ",7103,40.731507186,-74.207950404,134,"671 SOUTH 14TH STREET, NEWARK, NJ, 7103","Match","Exact","671 S 14TH ST, NEWARK, NJ, 07103",63465508,"R"
270135,"671 SOUTH LEWIS AVENUE","WAUKEGAN","IL",60085,42.3486697970001,-87.855782147,135,"671 SOUTH LEWIS AVENUE, WAUKEGAN, IL, 60085","Match","Exact","671 S LEWIS AVE, WAUKEGAN, IL, 60085",639256020,"L"
270136,"671 SOUTH SIMMS STREET","LAKEWOOD","CO",80228,39.703570912,-105.128484299,136,"671 SOUTH SIMMS STREET, LAKEWOOD, CO, 80228","Match","Exact","671 S SIMMS ST, LAKEWOOD, CO, 80228",177317465,"R"
270137,"671 SPRINGFIELD AVENUE","NEWARK","NJ",7103,40.730120705,-74.211901063,137,"671 SPRINGFIELD AVENUE, NEWARK, NJ, 7103","Match","Exact","671 SPRINGFIELD AVE, NEWARK, NJ, 07103",63465489,"L"
270138,"671 STATE STREET","NEW HAVEN","CT",6511,41.3104272420001,-72.917719169,138,"671 STATE STREET, NEW HAVEN, CT, 6511","Match","Exact","671 STATE ST, NEW HAVEN, CT, 06511",641522269,"R"
270139,"671 TABATHA DR","OSTEEN","FL",32764,28.810807035,-81.1454947999999,139,"671 TABATHA DR, OSTEEN, FL, 32764","Match","Exact","671 TABATHA DR, OSTEEN, FL, 32764",94579906,"L"
270140,"671 TOTTEN WAY","CINCINNATI","OH",45226,39.1246947550001,-84.4327842169999,140,"671 TOTTEN WAY, CINCINNATI, OH, 45226","Match","Exact","671 TOTTEN WAY, CINCINNATI, OH, 45226",627086950,"L"
270141,"671 WILLOUGHBY WAY EAST","MINNETONKA","MN",55305,44.9758967550001,-93.419048635,141,"671 WILLOUGHBY WAY EAST, MINNETONKA, MN, 55305","Match","Exact","671 WILLOUGHBY WAY E, MINNETONKA, MN, 55305",43853416,"L"
270142,"6710 16TH STREET","BERWYN","IL",60402,41.8578972380001,-87.791586712,142,"6710 16TH STREET, BERWYN, IL, 60402","Match","Exact","6710 16TH ST, BERWYN, IL, 60402",111794167,"L"
270143,"6710 ASHWORTH DR","SUGAR LAND","TX",77479,29.5833626310001,-95.658918538,143,"6710 ASHWORTH DR, SUGAR LAND, TX, 77479","Match","Exact","6710 ASHWORTH DR, SUGAR LAND, TX, 77479",617959545,"R"
270144,"6710 BIG BEND ROAD","WATERFORD","WI",53185,42.810066831,-88.198384026,144,"6710 BIG BEND ROAD, WATERFORD, WI, 53185","Match","Exact","6710 BIG BEND RD, WATERFORD, WI, 53185",77921811,"R"
270145,"6710 CHATHAM PARK DRIVE","BRANDYWINE","MD",20613,38.7091647820001,-76.891977808,145,"6710 CHATHAM PARK DRIVE, BRANDYWINE, MD, 20613","Match","Exact","6710 CHATHAM PARK DR, BRANDYWINE, MD, 20613",639468306,"L"
270146,"6710 CLAYTON RD","ST. LOUIS","MO",63117,38.6345850980001,-90.316739855,146,"6710 CLAYTON RD, ST. LOUIS, MO, 63117","Match","Exact","6710 CLAYTON RD, SAINT LOUIS, MO, 63117",100136060,"L"
270147,"6710 CLAYTON ROAD","STAIN LOUIS","MO",63117,38.6345850980001,-90.316739855,147,"6710 CLAYTON ROAD, STAIN LOUIS, MO, 63117","Match","Non_Exact","6710 CLAYTON RD, SAINT LOUIS, MO, 63117",100136060,"L"
270148,"6710 DESERT DR","PLAINFIELD","IL",60586,41.5675056640001,-88.24724264,148,"6710 DESERT DR, PLAINFIELD, IL, 60586","Match","Exact","6710 DESERT DR, PLAINFIELD, IL, 60586",111605041,"R"
270149,"6710 GREENBARK DRIVE","MEMPHIS","TN",38115,35.053191376,-89.838937245,149,"6710 GREENBARK DRIVE, MEMPHIS, TN, 38115","Match","Exact","6710 GREENBARK DR, MEMPHIS, TN, 38115",72930347,"L"
270150,"6710 JENNY LEIGH CT","CENTREVILLE","VA",20121,38.816804636,-77.449156354,150,"6710 JENNY LEIGH CT, CENTREVILLE, VA, 20121","Match","Exact","6710 JENNY LEIGH CT, CENTREVILLE, VA, 20121",76034984,"L"
270151,"6710 JOSIE DRIVE","SEFFNER","FL",33584,28.0292638930001,-82.314890641,151,"6710 JOSIE DRIVE, SEFFNER, FL, 33584","Match","Exact","6710 JOSIE DR, SEFFNER, FL, 33584",104614781,"L"
270152,"6710 KEMBELL DR","EVANSVILLE","IN",47710,38.03860045,-87.5645771219999,152,"6710 KEMBELL DR, EVANSVILLE, IN, 47710","Match","Exact","6710 KEMBELL DR, EVANSVILLE, IN, 47710",39792800,"L"
270153,"6710 LANGDON LN","HOUSTON","TX",77074,29.69307751,-95.501405587,153,"6710 LANGDON LN, HOUSTON, TX, 77074","Match","Exact","6710 LANGDON LN, HOUSTON, TX, 77074",96037530,"R"
270154,"6710 LAUREL BOWIE ROAD 709","BOWIE","MD",20718,38.9841093860001,-76.757188943,154,"6710 LAUREL BOWIE ROAD 709, BOWIE, MD, 20718","Match","Non_Exact","6710 LAUREL BOWIE RD, BOWIE, MD, 20715",76411740,"L"
270155,"6710 LAUREL BOWIE ROAD SUITE 1281","BOWIE","MD",20718,38.9841093860001,-76.757188943,155,"6710 LAUREL BOWIE ROAD SUITE 1281, BOWIE, MD, 20718","Match","Non_Exact","6710 LAUREL BOWIE RD, BOWIE, MD, 20715",76411740,"L"
270156,"6710 LAUREL-BOWIE RD APT 758","BOWIE","MD",20718,38.9841093860001,-76.757188943,156,"6710 LAUREL-BOWIE RD APT 758, BOWIE, MD, 20718","Match","Non_Exact","6710 LAUREL BOWIE RD, BOWIE, MD, 20715",76411740,"L"
270157,"6710 MAIN ST STE 234","MIAMI LAKES","FL",33014,25.913201649,-80.3096064979999,157,"6710 MAIN ST STE 234, MIAMI LAKES, FL, 33014","Match","Exact","6710 MAIN ST, MIAMI LAKES, FL, 33014",116022963,"L"
270158,"6710 MILLER ROAD","ALEXANDER","AR",72002,34.6555851360001,-92.5053993229999,158,"6710 MILLER ROAD, ALEXANDER, AR, 72002","Match","Exact","6710 MILLER RD, ALEXANDER, AR, 72002",632715751,"R"
270159,"6710 N ARMENIA AVE","TAMPA","FL",33604,28.0076887750001,-82.484389542,159,"6710 N ARMENIA AVE, TAMPA, FL, 33604","Match","Exact","6710 N ARMENIA AVE, TAMPA, FL, 33604",104515376,"L"
270160,"6710 OLDOLYMPIC HIGHWAY SW","OLYMPIA","WA",98512,NA,NA,160,"6710 OLDOLYMPIC HIGHWAY SW, OLYMPIA, WA, 98512","No_Match",NA,NA,NA,NA
270161,"6710 OXON HILL ROAD 200","OXON HILL","MA",20745,NA,NA,161,"6710 OXON HILL ROAD 200, OXON HILL, MA, 20745","No_Match",NA,NA,NA,NA
270162,"6710 OXON HILL ROAD SUITE 210","OXON HILL","MD",20745,38.797441199,-77.002892275,162,"6710 OXON HILL ROAD SUITE 210, OXON HILL, MD, 20745","Match","Exact","6710 OXON HILL RD, OXON HILL, MD, 20745",652363203,"R"
270163,"6710 PROSPER DR","AMARILLO","TX",79119,35.1269363440001,-101.912472755,163,"6710 PROSPER DR, AMARILLO, TX, 79119","Match","Exact","6710 PROSPER DR, AMARILLO, TX, 79119",637599609,"R"
270164,"6710 RANCH HOUSE PLACE","CROOKED RIVER RANCH","OR",97760,NA,NA,164,"6710 RANCH HOUSE PLACE, CROOKED RIVER RANCH, OR, 97760","No_Match",NA,NA,NA,NA
270165,"6710 SAN MIGUEL WAY","SAN ANTONIO","TX",78109,29.45087747,-98.355332076,165,"6710 SAN MIGUEL WAY, SAN ANTONIO, TX, 78109","Match","Non_Exact","6710 SAN MIGUEL WAY, CONVERSE, TX, 78109",650859070,"R"
270166,"6710 SAVANNAH AVENUE","CINCINNATI","OH",45239,39.2148576970001,-84.553825896,166,"6710 SAVANNAH AVENUE, CINCINNATI, OH, 45239","Match","Exact","6710 SAVANNAH AVE, CINCINNATI, OH, 45239",103920932,"R"
270167,"6710 SPRINGFIELD WAY","ATLANTA","GA",30331,NA,NA,167,"6710 SPRINGFIELD WAY, ATLANTA, GA, 30331","No_Match",NA,NA,NA,NA
270168,"6710 VIRGINIA PKWY SUITE 11","MCKINNEY","TX",75071,33.199103537,-96.705724173,168,"6710 VIRGINIA PKWY SUITE 11, MCKINNEY, TX, 75071","Match","Exact","6710 VIRGINIA PKWY, MCKINNEY, TX, 75071",619979376,"R"
270169,"6710 YADKINVILLE ROAD","PFAFFTOWN","NC",27040,36.1330557110001,-80.413618624,169,"6710 YADKINVILLE ROAD, PFAFFTOWN, NC, 27040","Match","Exact","6710 YADKINVILLE RD, PFAFFTOWN, NC, 27040",639226233,"L"
270170,"6710-F RITCHIE HIGHWAY 234","GLEN BURNIE","MD",21061,39.192456871,-76.613635678,170,"6710-F RITCHIE HIGHWAY 234, GLEN BURNIE, MD, 21061","Match","Exact","6710 RITCHIE HWY, GLEN BURNIE, MD, 21061",640566277,"R"
270171,"6710-F RITCHIE HWY STE 442","GLEN BURNIE","MD",21061,39.192456871,-76.613635678,171,"6710-F RITCHIE HWY STE 442, GLEN BURNIE, MD, 21061","Match","Exact","6710 RITCHIE HWY, GLEN BURNIE, MD, 21061",640566277,"R"
270172,"6711 159 ST E","PUYALLUP","WA",98375,47.112394921,-122.339931372,172,"6711 159 ST E, PUYALLUP, WA, 98375","Match","Exact","6711 159TH ST E, PUYALLUP, WA, 98375",630048238,"L"
270173,"6711 91ST ST","LUBBOCK","TX",79424,33.5116128650001,-101.963187222,173,"6711 91ST ST, LUBBOCK, TX, 79424","Match","Exact","6711 91ST ST, LUBBOCK, TX, 79424",185273167,"R"
270174,"6711 CHURCH STREET APT10D","RIVERDALE","GA",30274,33.5714732660001,-84.415975241,174,"6711 CHURCH STREET APT10D, RIVERDALE, GA, 30274","Match","Exact","6711 CHURCH ST, RIVERDALE, GA, 30274",23312647,"R"
270175,"6711 E CAMINO SANTO","SCOTTSDALE","AZ",85254,NA,NA,175,"6711 E CAMINO SANTO, SCOTTSDALE, AZ, 85254","No_Match",NA,NA,NA,NA
270176,"6711 EAST 101 STREET","KANSAS CITY","MO",64134,38.9420316200001,-94.5113036,176,"6711 EAST 101 STREET, KANSAS CITY, MO, 64134","Match","Exact","6711 E 101ST ST, KANSAS CITY, MO, 64134",91465773,"R"
270177,"6711 JOHNNY MORRIS RD","AUSTIN","TX",78724,30.3005737710001,-97.6479926009999,177,"6711 JOHNNY MORRIS RD, AUSTIN, TX, 78724","Match","Exact","6711 JOHNNY MORRIS RD, AUSTIN, TX, 78724",642469466,"R"
270178,"6711 LAKE SHORE DR S APT 816","RICHFIELD","MN",55423,44.881514553,-93.289272802,178,"6711 LAKE SHORE DR S APT 816, RICHFIELD, MN, 55423","Match","Non_Exact","6711 LAKESHORE DR, RICHFIELD, MN, 55423",43858569,"L"
270179,"6711 PASSING SKY DR","COLORADO SPRINGS","CO",80911,38.7631815290001,-104.716011691,179,"6711 PASSING SKY DR, COLORADO SPRINGS, CO, 80911","Match","Exact","6711 PASSING SKY DR, COLORADO SPRINGS, CO, 80911",643447409,"L"
270180,"6711 PELHAM DRIVE","PARMA","OH",44129,41.3955041740001,-81.73057805,180,"6711 PELHAM DRIVE, PARMA, OH, 44129","Match","Exact","6711 PELHAM DR, PARMA, OH, 44129",61107208,"L"
270181,"6711 PINEWOOD PL","DAYTON","OH",45459,39.65068747,-84.205392643,181,"6711 PINEWOOD PL, DAYTON, OH, 45459","Match","Exact","6711 PINEWOOD PL, DAYTON, OH, 45459",143596592,"R"
270182,"6711 ROCKGLEN WAY SUITE 406","RALEIGH","NC",27615,35.8712010190001,-78.596219318,182,"6711 ROCKGLEN WAY SUITE 406, RALEIGH, NC, 27615","Match","Exact","6711 ROCKGLEN WAY, RALEIGH, NC, 27615",208349373,"L"
270183,"6711 SPRINGFIELD ST","SAN DIEGO","CA",92114,32.727159118,-117.053616246,183,"6711 SPRINGFIELD ST, SAN DIEGO, CA, 92114","Match","Exact","6711 SPRINGFIELD ST, SAN DIEGO, CA, 92114",195663563,"R"
270184,"6712 25TH AVE","HYATTSVILLE","MD",20782,38.969972569,-76.968815327,184,"6712 25TH AVE, HYATTSVILLE, MD, 20782","Match","Exact","6712 25TH AVE, HYATTSVILLE, MD, 20782",76303863,"L"
270185,"6712 49 AVENUE","WOODSIDE","NY",11377,NA,NA,185,"6712 49 AVENUE, WOODSIDE, NY, 11377","No_Match",NA,NA,NA,NA
270186,"6712 BEVINGTON BROOK LANE","CHARLOTTE","NC",28277,35.0795012670001,-80.8361660039999,186,"6712 BEVINGTON BROOK LANE, CHARLOTTE, NC, 28277","Match","Exact","6712 BEVINGTON BROOK LN, CHARLOTTE, NC, 28277",70534079,"R"
270187,"6712 BURBAGE LAKE CIRCLE","SUFFOLK","VA",23435,36.8786999370001,-76.411809213,187,"6712 BURBAGE LAKE CIRCLE, SUFFOLK, VA, 23435","Match","Exact","6712 BURBAGE LAKE CIR, SUFFOLK, VA, 23435",122231407,"L"
270188,"6712 DICKS AVE","PHILADELPHIA","PA",19142,39.9177847390001,-75.23045529,188,"6712 DICKS AVE, PHILADELPHIA, PA, 19142","Match","Exact","6712 DICKS AVE, PHILADELPHIA, PA, 19142",131409372,"L"
270189,"6712 FERN LANE","ANNANDALE","VA",22003,38.84544092,-77.176547619,189,"6712 FERN LANE, ANNANDALE, VA, 22003","Match","Exact","6712 FERN LN, ANNANDALE, VA, 22003",76061248,"R"
270190,"6712 FREDRICK DRIVE","COLORADO SPRINGS","CO",80918,38.9290508510001,-104.779249376,190,"6712 FREDRICK DRIVE, COLORADO SPRINGS, CO, 80918","Match","Exact","6712 FREDRICK DR, COLORADO SPRINGS, CO, 80918",610697252,"R"
270191,"6712 HOLLY COURT","ZEPHYRHILLS","FL",33542,28.254963338,-82.181005597,191,"6712 HOLLY COURT, ZEPHYRHILLS, FL, 33542","Match","Exact","6712 HOLLY CT, ZEPHYRHILLS, FL, 33542",86378002,"R"
270192,"6712 HWY 49E","SPRINGFIELD","TN",37172,NA,NA,192,"6712 HWY 49E, SPRINGFIELD, TN, 37172","No_Match",NA,NA,NA,NA
270193,"6712 JOE LOUIS DRIVE","SAN ANTONIO","TX",78220,29.4162647850001,-98.356964727,193,"6712 JOE LOUIS DRIVE, SAN ANTONIO, TX, 78220","Match","Exact","6712 JOE LOUIS DR, SAN ANTONIO, TX, 78220",101720497,"R"
270194,"6712 LONGFELLOW DR","BUENA PARK","CA",90620,33.8615906040001,-118.017264206,194,"6712 LONGFELLOW DR, BUENA PARK, CA, 90620","Match","Exact","6712 LONGFELLOW DR, BUENA PARK, CA, 90620",144000819,"R"
270195,"6712 MEDIA STREET","PHILADELPHIA","PA",19151,39.9734015710001,-75.253643024,195,"6712 MEDIA STREET, PHILADELPHIA, PA, 19151","Match","Exact","6712 MEDIA ST, PHILADELPHIA, PA, 19151",131397032,"L"
270196,"6712 METROPOLITAN CENTER DR","SPRINGFIELD","VA",22150,38.7676884030001,-77.176094083,196,"6712 METROPOLITAN CENTER DR, SPRINGFIELD, VA, 22150","Match","Exact","6712 METROPOLITAN CENTER DR, SPRINGFIELD, VA, 22150",624433410,"R"
270197,"6712 N ROCKING ROAD","SCOTTSDALE","AZ",85250,33.5358936600001,-111.920396478,197,"6712 N ROCKING ROAD, SCOTTSDALE, AZ, 85250","Match","Exact","6712 N ROCKING RD, SCOTTSDALE, AZ, 85250",128364744,"L"
270198,"6712 NW 50TH ST","KANSAS CITY","MO",64151,39.1848967380001,-94.658247304,198,"6712 NW 50TH ST, KANSAS CITY, MO, 64151","Match","Non_Exact","6712 50TH, KANSAS CITY, MO, 64151",39713673,"R"
270199,"6712 OLD OAK COURT","CITRUS HEIGHTS","CA",95610,38.6874321560001,-121.266835808,199,"6712 OLD OAK COURT, CITRUS HEIGHTS, CA, 95610","Match","Exact","6712 OLD OAK CT, CITRUS HEIGHTS, CA, 95610",133412706,"L"
270200,"6712 SHALSTED ST STE 1","CHICAGO","IL",60621,NA,NA,200,"6712 SHALSTED ST STE 1, CHICAGO, IL, 60621","No_Match",NA,NA,NA,NA
270201,"6712 VILLAGE PARK DRIVE","GREENBELT","MD",20770,38.981505525,-76.873515251,201,"6712 VILLAGE PARK DRIVE, GREENBELT, MD, 20770","Match","Exact","6712 VILLAGE PARK DR, GREENBELT, MD, 20770",76365525,"L"
270202,"6712 WHITAKER AVENUE","LAKE BALBOA","CA",91406,34.191661197,-118.498003153,202,"6712 WHITAKER AVENUE, LAKE BALBOA, CA, 91406","Match","Exact","6712 WHITAKER AVE, LAKE BALBOA, CA, 91406",141556254,"R"
270203,"67126 CSAH 33","DARWIN","MN",55324,NA,NA,203,"67126 CSAH 33, DARWIN, MN, 55324","No_Match",NA,NA,NA,NA
270204,"6713 BROADAY STE D","PEARLAND","TX",77581,NA,NA,204,"6713 BROADAY STE D, PEARLAND, TX, 77581","No_Match",NA,NA,NA,NA
270205,"6713 CARIBOU PLACE","INDIANAPOLIS","IN",46278,39.876960739,-86.285153818,205,"6713 CARIBOU PLACE, INDIANAPOLIS, IN, 46278","Match","Exact","6713 CARIBOU PL, INDIANAPOLIS, IN, 46278",108027873,"R"
270206,"6713 DUSK COURT","INDIANAPOLIS","IN",46254,39.832085858,-86.2781832649999,206,"6713 DUSK COURT, INDIANAPOLIS, IN, 46254","Match","Exact","6713 DUSK CT, INDIANAPOLIS, IN, 46254",108034820,"L"
270207,"6713 EASTGATE DRIVE","FORT SMITH","AR",72903,35.362607573,-94.35864544,207,"6713 EASTGATE DRIVE, FORT SMITH, AR, 72903","Match","Exact","6713 EASTGATE DR, FORT SMITH, AR, 72903",56114289,"R"
270208,"6713 MATHER DR","MARRERO","LA",70072,29.8768658970001,-90.122086065,208,"6713 MATHER DR, MARRERO, LA, 70072","Match","Exact","6713 MATHER DR, MARRERO, LA, 70072",93523820,"R"
270209,"6713 MILL SPRINGS CT","DUBLIN","OH",43016,40.1268241240001,-83.172493419,209,"6713 MILL SPRINGS CT, DUBLIN, OH, 43016","Match","Exact","6713 MILL SPRINGS CT, DUBLIN, OH, 43016",634053914,"R"
270210,"6713 N OREGON AVE","KANSAS CITY","MO",64151,39.2162535050001,-94.6345395229999,210,"6713 N OREGON AVE, KANSAS CITY, MO, 64151","Match","Exact","6713 N OREGON AVE, KANSAS CITY, MO, 64151",39694221,"R"
270211,"6713 PARAMONT COURT","GLOUCESTER","VA",23061,37.398542191,-76.5997360219999,211,"6713 PARAMONT COURT, GLOUCESTER, VA, 23061","Match","Exact","6713 PARAMONT CT, GLOUCESTER, VA, 23061",168206904,"R"
270212,"6713 SHALIMAR WAY","CITRUS HEIGHTS","CA",95621,38.679639126,-121.307497377,212,"6713 SHALIMAR WAY, CITRUS HEIGHTS, CA, 95621","Match","Exact","6713 SHALIMAR WAY, CITRUS HEIGHTS, CA, 95621",133342168,"L"
270213,"6713 W CHADWICK ROAD","DEWITT","MI",48820,42.8713675180001,-84.654806158,213,"6713 W CHADWICK ROAD, DEWITT, MI, 48820","Match","Exact","6713 W CHADWICK RD, DEWITT, MI, 48820",17298568,"R"
270214,"6713 WEST FLORISSANT AVE","JENNINGS","MO",63136,38.7158844840001,-90.2588253059999,214,"6713 WEST FLORISSANT AVE, JENNINGS, MO, 63136","Match","Exact","6713 W FLORISSANT AVE, JENNINGS, MO, 63136",100149813,"R"
270215,"6713-6717 11TH AVE","BROOKLYN","NY",11219,40.6273560820001,-74.007255914,215,"6713-6717 11TH AVE, BROOKLYN, NY, 11219","Match","Exact","6713 11TH AVE, BROOKLYN, NY, 11219",59094910,"L"
270216,"6714 COVINGTON","HOUSTON","TX",77091,29.8613425630001,-95.440556272,216,"6714 COVINGTON, HOUSTON, TX, 77091","Match","Non_Exact","6714 COVINGTON DR, HOUSTON, TX, 77091",96027765,"R"
270217,"6714 FURMAN PARKWAY","RIVERDALE","MD",20737,38.952396503,-76.902264614,217,"6714 FURMAN PARKWAY, RIVERDALE, MD, 20737","Match","Exact","6714 FURMAN PKWY, RIVERDALE, MD, 20737",76358921,"L"
270218,"6714 HOMAN ST","CHINO","CA",91710,34.005290115,-117.657981267,218,"6714 HOMAN ST, CHINO, CA, 91710","Match","Exact","6714 HOMAN ST, CHINO, CA, 91710",144999683,"L"
270219,"6714 HWY 69 S","COLUMBUS","MS",39702,33.4220228460001,-88.336626151,219,"6714 HWY 69 S, COLUMBUS, MS, 39702","Match","Exact","6714 HWY 69 S, COLUMBUS, MS, 39702",610605965,"L"
270220,"6714 HWY 85","RIVERDALE","GA",30274,33.580500699,-84.411609136,220,"6714 HWY 85, RIVERDALE, GA, 30274","Match","Non_Exact","6714 STATE RTE 85, RIVERDALE, GA, 30274",23336481,"R"
270221,"6714 NEBO ROAD","HIRAM","GA",30141,33.8567688520001,-84.7845701589999,221,"6714 NEBO ROAD, HIRAM, GA, 30141","Match","Non_Exact","6714 OLD NEBO RD, HIRAM, GA, 30141",642893117,"R"
270222,"6714 PLEASANT BAY","SAN ANTONIO","TX",78244,29.489076063,-98.34772635,222,"6714 PLEASANT BAY, SAN ANTONIO, TX, 78244","Match","Exact","6714 PLEASANT BAY, SAN ANTONIO, TX, 78244",645362799,"R"
270223,"6714 PRINCETON PARK WALK","LITHONIA","GA",30058,33.7635019310001,-84.115170201,223,"6714 PRINCETON PARK WALK, LITHONIA, GA, 30058","Match","Exact","6714 PRINCETON PARK WALK, LITHONIA, GA, 30058",619388657,"L"
270224,"6714 S 122ND STREET","SEATTLE","WA",98178,47.493921142,-122.250017552,224,"6714 S 122ND STREET, SEATTLE, WA, 98178","Match","Exact","6714 S 122ND ST, SEATTLE, WA, 98178",239766104,"L"
270225,"6714 S ARLINGTON","LOS ANGELES","CA",90043,33.9779824980001,-118.318700521,225,"6714 S ARLINGTON, LOS ANGELES, CA, 90043","Match","Non_Exact","6714 ARLINGTON AVE, LOS ANGELES, CA, 90043",141658032,"L"
270226,"6714 SHAG BARK CT","FORT WAYNE","IN",46835,41.1410535360001,-85.0569040679999,226,"6714 SHAG BARK CT, FORT WAYNE, IN, 46835","Match","Exact","6714 SHAG BARK CT, FORT WAYNE, IN, 46835",6397547,"R"
270227,"6714 SHIRLEY LANE","BAKERSFIELD","CA",93307,NA,NA,227,"6714 SHIRLEY LANE, BAKERSFIELD, CA, 93307","No_Match",NA,NA,NA,NA
270228,"6714 SWISS RANCH RD","MOUNTAIN RANCH","CA",95246,38.26755203,-120.467073675,228,"6714 SWISS RANCH RD, MOUNTAIN RANCH, CA, 95246","Match","Exact","6714 SWISS RANCH RD, MOUNTAIN RANCH, CA, 95246",102281129,"R"
270229,"6714 TWIN LEAF DRIVE","SPRING","TX",77379,30.028425848,-95.5164761569999,229,"6714 TWIN LEAF DRIVE, SPRING, TX, 77379","Match","Exact","6714 TWIN LEAF DR, SPRING, TX, 77379",96007418,"L"
270230,"6715 BRIAN DR","RACINE","WI",53402,42.8099500700001,-87.804582854,230,"6715 BRIAN DR, RACINE, WI, 53402","Match","Exact","6715 BRIAN DR, RACINE, WI, 53402",77905323,"R"
270231,"6715 BROCKBANK DR","ORLANDO","FL",32809,28.461921154,-81.390361119,231,"6715 BROCKBANK DR, ORLANDO, FL, 32809","Match","Exact","6715 BROCKBANK DR, ORLANDO, FL, 32809",94290600,"L"
270232,"6715 CASTLE GREEN PL","ZEPHYRHILLS","FL",33541,28.2547200930001,-82.237493285,232,"6715 CASTLE GREEN PL, ZEPHYRHILLS, FL, 33541","Match","Exact","6715 CASTLE GREEN PL, ZEPHYRHILLS, FL, 33541",631991775,"L"
270233,"6715 GLORIA DRIVE","SACRAMENTO","CA",95831,38.505084412,-121.534426504,233,"6715 GLORIA DRIVE, SACRAMENTO, CA, 95831","Match","Exact","6715 GLORIA DR, SACRAMENTO, CA, 95831",133322296,"L"
270234,"6715 HICKORY VALLEY ROAD","HEISKELL","TN",37754,36.15339119,-84.028659434,234,"6715 HICKORY VALLEY ROAD, HEISKELL, TN, 37754","Match","Exact","6715 HICKORY VALLEY RD, HEISKELL, TN, 37754",90127545,"L"
270235,"6715 HOLLOPETER RD","LEO","IN",46765,41.2440298710001,-85.062848429,235,"6715 HOLLOPETER RD, LEO, IN, 46765","Match","Exact","6715 HOLLOPETER RD, LEO, IN, 46765",6409665,"L"
270236,"6715 LITTLE RIVER TURNPIKE STE 203","ANNANDALE","VA",22003,38.825526602,-77.175262081,236,"6715 LITTLE RIVER TURNPIKE STE 203, ANNANDALE, VA, 22003","Match","Exact","6715 LITTLE RIVER TPKE, ANNANDALE, VA, 22003",642594685,"L"
270237,"6715 MARIAH DR","FLAGSTAFF","AZ",86004,35.2600465830001,-111.530543506,237,"6715 MARIAH DR, FLAGSTAFF, AZ, 86004","Match","Exact","6715 MARIAH DR, FLAGSTAFF, AZ, 86004",188947444,"R"
270238,"6715 N RICHMOND AVE","CHICAGO","IL",60645,42.0033713390001,-87.7034010679999,238,"6715 N RICHMOND AVE, CHICAGO, IL, 60645","Match","Non_Exact","6715 N RICHMOND ST, CHICAGO, IL, 60645",605168817,"R"
270239,"6715 NEBRASKA AVE","HAMMOND","IN",46323,41.5914422810001,-87.440979654,239,"6715 NEBRASKA AVE, HAMMOND, IN, 46323","Match","Exact","6715 NEBRASKA AVE, HAMMOND, IN, 46323",98424128,"L"
270240,"6715 OAK LAKE DRIVE","INDIANAPOLIS","IN",46214,39.809375232,-86.2776414849999,240,"6715 OAK LAKE DRIVE, INDIANAPOLIS, IN, 46214","Match","Exact","6715 OAK LAKE DR, INDIANAPOLIS, IN, 46214",108035371,"L"
270241,"6715 ST RT 34","CULLODEN","WV",25510,NA,NA,241,"6715 ST RT 34, CULLODEN, WV, 25510","No_Match",NA,NA,NA,NA
270242,"6715 TWISTED WOOD DR","LAS VEGAS","NV",89148,36.0660665460001,-115.300922483,242,"6715 TWISTED WOOD DR, LAS VEGAS, NV, 89148","Match","Exact","6715 TWISTED WOOD DR, LAS VEGAS, NV, 89148",612989687,"R"
270243,"6715 WILDWOOD WAY","HOUSTON","TX",77023,29.7213684010001,-95.308775494,243,"6715 WILDWOOD WAY, HOUSTON, TX, 77023","Match","Exact","6715 WILDWOOD WAY, HOUSTON, TX, 77023",96082734,"L"
270244,"6715 WINDING VALLEY TRL","ROWLETT","TX",75089,32.931224451,-96.53814227,244,"6715 WINDING VALLEY TRL, ROWLETT, TX, 75089","Match","Exact","6715 WINDING VALLEY TRL, ROWLETT, TX, 75089",641668903,"L"
270245,"6716 ADAIR AVE NORTH","BROOKLYN PARK","MN",55429,45.077664885,-93.356736492,245,"6716 ADAIR AVE NORTH, BROOKLYN PARK, MN, 55429","Match","Exact","6716 ADAIR AVE N, BROOKLYN PARK, MN, 55429",43839570,"L"
270246,"6716 BURNING OAK LANE","CHARLOTTE","NC",28216,35.3004955420001,-80.907734561,246,"6716 BURNING OAK LANE, CHARLOTTE, NC, 28216","Match","Exact","6716 BURNING OAK LN, CHARLOTTE, NC, 28216",70597691,"R"
270247,"6716 CREEKWOOD LANE","FORT WAYNE","IN",46835,41.134508683,-85.055851037,247,"6716 CREEKWOOD LANE, FORT WAYNE, IN, 46835","Match","Exact","6716 CREEKWOOD LN, FORT WAYNE, IN, 46835",606525750,"R"
270248,"6716 CRYSTAL RUN LN","LAS VEGAS","NV",89122,36.086914838,-115.026569805,248,"6716 CRYSTAL RUN LN, LAS VEGAS, NV, 89122","Match","Non_Exact","6716 E CRYSTAL RUN LN, LAS VEGAS, NV, 89122",647536149,"R"
270249,"6716 EAST SIDE DRIVE NE SUITE 1-144","TACOMA","WA",98422,47.3016615220001,-122.434570848,249,"6716 EAST SIDE DRIVE NE SUITE 1-144, TACOMA, WA, 98422","Match","Exact","6716 E SIDE DR NE, TACOMA, WA, 98422",649056766,"L"
270250,"6716 FLORENCE BLVD","OMAHA","NE",68112,41.3197182110001,-95.945598283,250,"6716 FLORENCE BLVD, OMAHA, NE, 68112","Match","Exact","6716 FLORENCE BLVD, OMAHA, NE, 68112",117008131,"L"
270251,"6716 GAP POINT CIR","SHERWOOD","AR",72120,34.8524366730001,-92.1828980289999,251,"6716 GAP POINT CIR, SHERWOOD, AR, 72120","Match","Exact","6716 GAP POINT CIR, SHERWOOD, AR, 72120",636128030,"R"
270252,"6716 GAP POINT CIRCLE","SHERWOOD","AR",72120,34.8524366730001,-92.1828980289999,252,"6716 GAP POINT CIRCLE, SHERWOOD, AR, 72120","Match","Exact","6716 GAP POINT CIR, SHERWOOD, AR, 72120",636128030,"R"
270253,"6716 IRONKETTLE ROAD","CHARLOTTE","NC",28270,35.122504953,-80.761654968,253,"6716 IRONKETTLE ROAD, CHARLOTTE, NC, 28270","Match","Exact","6716 IRONKETTLE RD, CHARLOTTE, NC, 28270",70495368,"L"
270254,"6716 LAVENDER LILY UNIT 1","NLV","NV",89084,36.283169571,-115.185237229,254,"6716 LAVENDER LILY UNIT 1, NLV, NV, 89084","Match","Non_Exact","6716 LAVENDER LILLY LN, N LAS VEGAS, NV, 89084",612990465,"R"
270255,"6716 N NOKOMIS AVE","LINCOLNWOOD","IL",60712,42.0031972250001,-87.756690431,255,"6716 N NOKOMIS AVE, LINCOLNWOOD, IL, 60712","Match","Exact","6716 N NOKOMIS AVE, LINCOLNWOOD, IL, 60712",111737277,"L"
270256,"6716 NW 60TH CT","TAMARAC","FL",33321,26.199373097,-80.242643363,256,"6716 NW 60TH CT, TAMARAC, FL, 33321","Match","Exact","6716 NW 60TH CT, TAMARAC, FL, 33321",114702738,"L"
270257,"6716 QUIMBY AVE","CLEVELAND","OH",44103,41.5097880500001,-81.6433741,257,"6716 QUIMBY AVE, CLEVELAND, OH, 44103","Match","Exact","6716 QUIMBY AVE, CLEVELAND, OH, 44103",61113077,"R"
270258,"6716 S HULEN","FORT WORTH","TX",76133,32.6494264070001,-97.395882807,258,"6716 S HULEN, FORT WORTH, TX, 76133","Match","Non_Exact","6716 S HULEN ST, FORT WORTH, TX, 76133",102130373,"R"
270259,"6716 SELFRIDGE ST GND FL","FOREST HILLS","NY",11375,NA,NA,259,"6716 SELFRIDGE ST GND FL, FOREST HILLS, NY, 11375","No_Match",NA,NA,NA,NA
270260,"6717 3RD ST","JUPITER","FL",33458,26.9398575010001,-80.1381182659999,260,"6717 3RD ST, JUPITER, FL, 33458","Match","Exact","6717 3RD ST, JUPITER, FL, 33458",115260693,"L"
270261,"6717 DAVID STREET","COLUMBIA","SC",29203,NA,NA,261,"6717 DAVID STREET, COLUMBIA, SC, 29203","No_Match",NA,NA,NA,NA
270262,"6717 HUGHES ROAD","PROSPECT","OH",43342,40.454082692,-83.185034308,262,"6717 HUGHES ROAD, PROSPECT, OH, 43342","Match","Exact","6717 HUGHES RD, PROSPECT, OH, 43342",12704446,"L"
270263,"6717 N INDIANA AVENUE","GLADSTONE","MO",64119,39.216681792,-94.539336546,263,"6717 N INDIANA AVENUE, GLADSTONE, MO, 64119","Match","Exact","6717 N INDIANA AVE, GLADSTONE, MO, 64119",89779313,"R"
270264,"6717 NORTH 52ND STREET","OMAHA","NE",68152,41.319271115,-95.9949504429999,264,"6717 NORTH 52ND STREET, OMAHA, NE, 68152","Match","Exact","6717 N 52ND ST, OMAHA, NE, 68152",116976857,"R"
270265,"6717 RANCH AVE","MIDLAND","TX",79705,NA,NA,265,"6717 RANCH AVE, MIDLAND, TX, 79705","No_Match",NA,NA,NA,NA
270266,"6717 SNAKE RIVER AVE","LAS VEGAS","NV",89130,36.2583055470001,-115.242558315,266,"6717 SNAKE RIVER AVE, LAS VEGAS, NV, 89130","Match","Exact","6717 SNAKE RIVER AVE, LAS VEGAS, NV, 89130",201935197,"L"
270267,"6717 SO DOVER CIRCLE","LITTLETON","CO",80128,39.5948802440001,-105.092926528,267,"6717 SO DOVER CIRCLE, LITTLETON, CO, 80128","Match","Exact","6717 S DOVER CIR, LITTLETON, CO, 80128",177763961,"R"
270268,"6717 THERMAL RD","CHARLOTTE","NC",28211,35.1554805120001,-80.75885221,268,"6717 THERMAL RD, CHARLOTTE, NC, 28211","Match","Exact","6717 THERMAL RD, CHARLOTTE, NC, 28211",70493271,"L"
270269,"6717 WINDING ARCH DR","DURHAM","NC",27713,35.903122814,-78.9300389749999,269,"6717 WINDING ARCH DR, DURHAM, NC, 27713","Match","Exact","6717 WINDING ARCH DR, DURHAM, NC, 27713",71763103,"L"
270270,"6717 WISTERIA DRIVE","MYRTLE BEACH","SC",29588,33.654458629,-79.050589488,270,"6717 WISTERIA DRIVE, MYRTLE BEACH, SC, 29588","Match","Exact","6717 WISTERIA DR, MYRTLE BEACH, SC, 29588",630489886,"R"
270271,"6718 ELDRIDGE ST","HYATTSVILLE","MD",20784,38.9372353790001,-76.899265665,271,"6718 ELDRIDGE ST, HYATTSVILLE, MD, 20784","Match","Exact","6718 ELDRIDGE ST, HYATTSVILLE, MD, 20784",76309108,"L"
270272,"6718 JOHN WEST RD","WINSTON","GA",30187,33.7265323680001,-84.796007217,272,"6718 JOHN WEST RD, WINSTON, GA, 30187","Match","Exact","6718 JOHN WEST RD, WINSTON, GA, 30187",647293298,"R"
270273,"6718 PECAN VALLEY DR","SAN ANTONIO","TX",78223,29.3609546170001,-98.443923108,273,"6718 PECAN VALLEY DR, SAN ANTONIO, TX, 78223","Match","Exact","6718 PECAN VALLEY DR, SAN ANTONIO, TX, 78223",101535214,"L"
270274,"6718 PUBLIC LANDING RD","SNOW HILL","MD",21863,38.170774529,-75.35028776,274,"6718 PUBLIC LANDING RD, SNOW HILL, MD, 21863","Match","Non_Exact","6718 PUB LANDING RD, SNOW HILL, MD, 21863",114517993,"R"
270275,"6718 QUAIL RUN CIRCLE","WESTLAND","MI",48185,NA,NA,275,"6718 QUAIL RUN CIRCLE, WESTLAND, MI, 48185","No_Match",NA,NA,NA,NA
270276,"6718 ROLLIN DRIVE","BOSTON","NY",14025,42.643663582,-78.737613418,276,"6718 ROLLIN DRIVE, BOSTON, NY, 14025","Match","Exact","6718 ROLLIN DR, BOSTON, NY, 14025",48278067,"R"
270277,"6718 SW WENTLEY LN","TOPEKA","KS",66614,39.0092360890001,-95.77943139,277,"6718 SW WENTLEY LN, TOPEKA, KS, 66614","Match","Exact","6718 SW WENTLEY LN, TOPEKA, KS, 66614",17902184,"L"
270278,"6718 WINDWARD VIEW DRIVE","ROWLETT","TX",75088,32.884702298,-96.537991076,278,"6718 WINDWARD VIEW DRIVE, ROWLETT, TX, 75088","Match","Exact","6718 WINDWARD VIEW DR, ROWLETT, TX, 75088",103206168,"L"
270279,"6719 96TH ST E","PUYALLUP","WA",98371,47.1699049420001,-122.339676679,279,"6719 96TH ST E, PUYALLUP, WA, 98371","Match","Exact","6719 96TH ST E, PUYALLUP, WA, 98371",652986817,"L"
270280,"6719 CAMINO DEL SOL CIRCLE","RANCHO MURIETA","CA",95683,38.5058052140001,-121.09528868,280,"6719 CAMINO DEL SOL CIRCLE, RANCHO MURIETA, CA, 95683","Match","Exact","6719 CAMINO DEL SOL CIR, RANCHO MURIETA, CA, 95683",133358915,"R"
270281,"6719 CURRINGTON CIRCLE","LOUISVILLE","KY",40258,38.127981963,-85.877903589,281,"6719 CURRINGTON CIRCLE, LOUISVILLE, KY, 40258","Match","Exact","6719 CURRINGTON CIR, LOUISVILLE, KY, 40258",96889732,"R"
270282,"6719 EARHART AVE","FONTANA","CA",92336,34.1319566110001,-117.471649699,282,"6719 EARHART AVE, FONTANA, CA, 92336","Match","Exact","6719 EARHART AVE, FONTANA, CA, 92336",144983953,"L"
270283,"6719 HWY 12","RAGLEY",NA,70657,30.5097399630001,-93.237105788,283,"6719 HWY 12, RAGLEY, , 70657","Match","Non_Exact","6719 STATE RTE 12, RAGLEY, LA, 70657",646709049,"R"
270284,"6719 INDIAN FALLS DR","MISSOURI CITY","TX",77489,29.599863537,-95.4873650649999,284,"6719 INDIAN FALLS DR, MISSOURI CITY, TX, 77489","Match","Exact","6719 INDIAN FALLS DR, MISSOURI CITY, TX, 77489",227773354,"R"
270285,"6719 MAPLE STREET","CINCINNATI","OH",45227,39.1473977540001,-84.380518627,285,"6719 MAPLE STREET, CINCINNATI, OH, 45227","Match","Exact","6719 MAPLE ST, CINCINNATI, OH, 45227",103971221,"R"
270286,"6719 MOUNTAIN WOOD WAY","HUMBLE","TX",77338,30.01955151,-95.323203871,286,"6719 MOUNTAIN WOOD WAY, HUMBLE, TX, 77338","Match","Exact","6719 MOUNTAIN WOOD WAY, HUMBLE, TX, 77338",645149042,"R"
270287,"6719 N 8TH ST","PHOENIX","AZ",85014,33.534977876,-112.063554354,287,"6719 N 8TH ST, PHOENIX, AZ, 85014","Match","Exact","6719 N 8TH ST, PHOENIX, AZ, 85014",128302085,"R"
270288,"6719 OAKDALE MEADOWS COURT","CHARLOTTE","NC",28227,35.1865699900001,-80.679905016,288,"6719 OAKDALE MEADOWS COURT, CHARLOTTE, NC, 28227","Match","Exact","6719 OAKDALE MEADOWS CT, CHARLOTTE, NC, 28227",70559628,"R"
270289,"6719 REDDING SPRINGS LN","HOUSTON","TX",77086,29.92125363,-95.486617434,289,"6719 REDDING SPRINGS LN, HOUSTON, TX, 77086","Match","Exact","6719 REDDING SPRINGS LN, HOUSTON, TX, 77086",96011771,"R"
270290,"67194 OMAR COURT","MONTROSE","CO",81401,38.4521998650001,-107.831845735,290,"67194 OMAR COURT, MONTROSE, CO, 81401","Match","Exact","67194 OMAR CT, MONTROSE, CO, 81401",612977460,"L"
270291,"672 ANDERSON LANE","SPRINGFIELD","OR",97477,44.051301348,-123.04804348,291,"672 ANDERSON LANE, SPRINGFIELD, OR, 97477","Match","Exact","672 ANDERSON LN, SPRINGFIELD, OR, 97477",616837287,"L"
270292,"672 BEDFORD AVE","BROOKLYN","NY",11249,40.7012187940001,-73.9578864649999,292,"672 BEDFORD AVE, BROOKLYN, NY, 11249","Match","Exact","672 BEDFORD AVE, BROOKLYN, NY, 11249",59077861,"R"
270293,"672 CR 319","NACOGDOCHES","TX",75961,31.6109811220001,-94.498097607,293,"672 CR 319, NACOGDOCHES, TX, 75961","Match","Exact","672 CO RD 319, NACOGDOCHES, TX, 75961",72438403,"L"
270294,"672 CRESCENT STREET","BROCKTON","MA",2302,42.0809422410001,-70.992183922,294,"672 CRESCENT STREET, BROCKTON, MA, 2302","Match","Exact","672 CRESCENT ST, BROCKTON, MA, 02302",87445069,"L"
270295,"672 DALE STREET NORTH","SAINT PAUL","MN",55103,44.9614293340001,-93.126370688,295,"672 DALE STREET NORTH, SAINT PAUL, MN, 55103","Match","Exact","672 DALE ST N, SAINT PAUL, MN, 55103",97643892,"R"
270296,"672 DANUBE AVE","SHAKOPEE","MN",55379,44.7689996340001,-93.5330047589999,296,"672 DANUBE AVE, SHAKOPEE, MN, 55379","Match","Exact","672 DANUBE AVE, SHAKOPEE, MN, 55379",624815251,"L"
270297,"672 DOGWOOD AVE 235","FRANKLIN SQUARE","NY",11010,40.688980771,-73.667875199,297,"672 DOGWOOD AVE 235, FRANKLIN SQUARE, NY, 11010","Match","Exact","672 DOGWOOD AVE, FRANKLIN SQUARE, NY, 11010",147674259,"R"
270298,"672 DOGWOOD AVE STE 339","FRANKLIN SQUARE","NY",11010,40.688980771,-73.667875199,298,"672 DOGWOOD AVE STE 339, FRANKLIN SQUARE, NY, 11010","Match","Exact","672 DOGWOOD AVE, FRANKLIN SQUARE, NY, 11010",147674259,"R"
270299,"672 DOOGWOOD AVE SUITE 204","FRANKLIN SQUARE","NY",11010,40.688980771,-73.667875199,299,"672 DOOGWOOD AVE SUITE 204, FRANKLIN SQUARE, NY, 11010","Match","Non_Exact","672 DOGWOOD AVE, FRANKLIN SQUARE, NY, 11010",147674259,"R"
270300,"672 DR  MARTIN LUTHER KING BLVD","NEWARK","NJ",7102,40.7297076020001,-74.18217924,300,"672 DR  MARTIN LUTHER KING BLVD, NEWARK, NJ, 7102","Match","Exact","672 DR MARTIN LUTHER KING JR BLVD, NEWARK, NJ, 07102",63467158,"L"
270301,"672 E BUENA VISTA DR","CHANDLER","AZ",85249,33.2099168080001,-111.830396246,301,"672 E BUENA VISTA DR, CHANDLER, AZ, 85249","Match","Exact","672 E BUENA VISTA DR, CHANDLER, AZ, 85249",642849663,"L"
270302,"672 EMPIRE BLVD STE 7C","BROOKLYN","NY",11213,40.6639125460001,-73.9401417999999,302,"672 EMPIRE BLVD STE 7C, BROOKLYN, NY, 11213","Match","Exact","672 EMPIRE BLVD, BROOKLYN, NY, 11213",634254600,"R"
270303,"672 HALE STREET","BEVERLY","MA",1915,42.5612114310001,-70.817984587,303,"672 HALE STREET, BEVERLY, MA, 1915","Match","Exact","672 HALE ST, BEVERLY, MA, 01915",86709140,"L"
270304,"672 HAMLET CIRCLE","GOOSE CREEK","SC",29445,32.995362008,-80.077231897,304,"672 HAMLET CIRCLE, GOOSE CREEK, SC, 29445","Match","Exact","672 HAMLET CIR, GOOSE CREEK, SC, 29445",100784659,"R"
270305,"672 IDLEWILD CIRCLE","BIRMINGHAM","AL",35205,33.489080937,-86.814687314,305,"672 IDLEWILD CIRCLE, BIRMINGHAM, AL, 35205","Match","Exact","672 IDLEWILD CIR, BIRMINGHAM, AL, 35205",81717307,"L"
270306,"672 LAKEWORTH CIRCLE","SANFORD","FL",32746,28.7794646450001,-81.3663419229999,306,"672 LAKEWORTH CIRCLE, SANFORD, FL, 32746","Match","Non_Exact","672 LAKEWORTH CIR, LAKE MARY, FL, 32746",93771288,"R"
270307,"672 LORD DUNMORE DR","VIRGINIA BEACH","VA",23464,36.8185370640001,-76.1675440389999,307,"672 LORD DUNMORE DR, VIRGINIA BEACH, VA, 23464","Match","Exact","672 LORD DUNMORE DR, VA BCH, VA, 23464",122296101,"L"
270308,"672 MANCHESTER RD","MANSFIELD","OH",44903,40.7490043240001,-82.540964075,308,"672 MANCHESTER RD, MANSFIELD, OH, 44903","Match","Exact","672 MANCHESTER RD, MANSFIELD, OH, 44903",207222001,"R"
270309,"672 N TRENTON AVE","ATLANTIC CITY","NJ",8401,39.359482084,-74.462660622,309,"672 N TRENTON AVE, ATLANTIC CITY, NJ, 8401","Match","Exact","672 N TRENTON AVE, ATLANTIC CITY, NJ, 08401",202488894,"L"
270310,"672 OHIO STREET","TERRE HAUTE","IN",47807,39.4654454020001,-87.40755645,310,"672 OHIO STREET, TERRE HAUTE, IN, 47807","Match","Exact","672 OHIO ST, TERRE HAUTE, IN, 47807",27114226,"L"
270311,"672 OLD MILL ROAD SUITE 159","MILLERSVILLE","MD",21108,39.1176682220001,-76.631977381,311,"672 OLD MILL ROAD SUITE 159, MILLERSVILLE, MD, 21108","Match","Non_Exact","672 OLD MILL RD, MILLERSVILLE, MD, 21108",639940195,"R"
270312,"672 PHILTON DR","RAMONA","CA",92065,33.038345592,-116.833947176,312,"672 PHILTON DR, RAMONA, CA, 92065","Match","Exact","672 PHILTON DR, RAMONA, CA, 92065",195426784,"R"
270313,"672 S LAUDERDALE ST","MEMPHIS","TN",38126,35.129037522,-90.0444145659999,313,"672 S LAUDERDALE ST, MEMPHIS, TN, 38126","Match","Exact","672 S LAUDERDALE ST, MEMPHIS, TN, 38126",72903876,"L"
270314,"672 S OLD POTATO ROAD","PAIGE","TX",78659,30.165419618,-97.157114114,314,"672 S OLD POTATO ROAD, PAIGE, TX, 78659","Match","Exact","672 S OLD POTATO RD, PAIGE, TX, 78659",635393278,"L"
270315,"672 SHAD STREET","NORTH TONAWANDA","NY",14120,43.041572968,-78.868906578,315,"672 SHAD STREET, NORTH TONAWANDA, NY, 14120","Match","Exact","672 SHAD ST, N TONAWANDA, NY, 14120",48689266,"L"
270316,"672 TERRA DRIVE","CORONA","CA",92879,33.897986589,-117.517209792,316,"672 TERRA DRIVE, CORONA, CA, 92879","Match","Exact","672 TERRA DR, CORONA, CA, 92879",194793199,"L"
270317,"672 TYRONE PIKE","PHILIPSBURG","PA",16866,40.88371442,-78.211748531,317,"672 TYRONE PIKE, PHILIPSBURG, PA, 16866","Match","Exact","672 TYRONE PIKE, PHILIPSBURG, PA, 16866",50395336,"R"
270318,"672 W BROOME ST","CLERMONT","FL",34711,28.5522885600001,-81.766380978,318,"672 W BROOME ST, CLERMONT, FL, 34711","Match","Exact","672 W BROOME ST, CLERMONT, FL, 34711",94103855,"R"
270319,"672 WEST 11TH ST SUITE 200","TRACY","CA",95376,NA,NA,319,"672 WEST 11TH ST SUITE 200, TRACY, CA, 95376","No_Match",NA,NA,NA,NA
270320,"672 WEST 1ST ST","CLAREMONT","CA",91711,34.094677425,-117.722953826,320,"672 WEST 1ST ST, CLAREMONT, CA, 91711","Match","Exact","672 W 1ST ST, CLAREMONT, CA, 91711",642193050,"L"
270321,"672 WEST 275 NORTH","HYRUM","UT",84319,41.6401804160001,-111.874023658,321,"672 WEST 275 NORTH, HYRUM, UT, 84319","Match","Exact","672 W 275 N, HYRUM, UT, 84319",155112519,"L"
270322,"6720 43RD AVENUE S","LAKE WORTH","FL",33463,26.5761819960001,-80.110251094,322,"6720 43RD AVENUE S, LAKE WORTH, FL, 33463","Match","Exact","6720 43RD AVE S, LAKE WORTH, FL, 33463",115578054,"R"
270323,"6720 BUENA VISTA DR","OGDEN","UT",84405,41.141422075,-111.931041678,323,"6720 BUENA VISTA DR, OGDEN, UT, 84405","Match","Exact","6720 BUENA VISTA DR, OGDEN, UT, 84405",155700022,"L"
270324,"6720 E FOWLER AVENUE SUITE 163","TAMPA","FM",33617,NA,NA,324,"6720 E FOWLER AVENUE SUITE 163, TAMPA, FM, 33617","No_Match",NA,NA,NA,NA
270325,"6720 EAST FOWLER AVE SUITE 114","TAMPA","FL",33617,28.054352431,-82.378663557,325,"6720 EAST FOWLER AVE SUITE 114, TAMPA, FL, 33617","Match","Exact","6720 E FOWLER AVE, TAMPA, FL, 33617",104535649,"L"
270326,"6720 EAST FOWLER AVE SUITE 116","TAMPA","FL",33617,28.054352431,-82.378663557,326,"6720 EAST FOWLER AVE SUITE 116, TAMPA, FL, 33617","Match","Exact","6720 E FOWLER AVE, TAMPA, FL, 33617",104535649,"L"
270327,"6720 FAIR OAKS BLVD SUITE 200","CARMICHAEL","CA",95608,38.6229077900001,-121.328451548,327,"6720 FAIR OAKS BLVD SUITE 200, CARMICHAEL, CA, 95608","Match","Exact","6720 FAIR OAKS BLVD, CARMICHAEL, CA, 95608",133343259,"R"
270328,"6720 FAWN VIEW DRIVE","CHARLOTTE","NC",28216,35.325888316,-80.885295179,328,"6720 FAWN VIEW DRIVE, CHARLOTTE, NC, 28216","Match","Exact","6720 FAWN VIEW DR, CHARLOTTE, NC, 28216",636703033,"R"
270329,"6720 FORBES AVE","VAN NUYS","CA",91406,34.1918377850001,-118.499010837,329,"6720 FORBES AVE, VAN NUYS, CA, 91406","Match","Exact","6720 FORBES AVE, VAN NUYS, CA, 91406",141556249,"R"
270330,"6720 GHIA LANE","SAN ANTONIO","TX",78257,NA,NA,330,"6720 GHIA LANE, SAN ANTONIO, TX, 78257","No_Match",NA,NA,NA,NA
270331,"6720 HWY 281 SOUTH","BLANCO","TX",78606,NA,NA,331,"6720 HWY 281 SOUTH, BLANCO, TX, 78606","No_Match",NA,NA,NA,NA
270332,"6720 JAGUAR DR","SANTA FE","NM",87505,35.622664307,-106.054531134,332,"6720 JAGUAR DR, SANTA FE, NM, 87505","Match","Non_Exact","6720 JAGUAR DR, SANTA FE, NM, 87507",649765420,"R"
270333,"6720 JAMESTOWN DRIVE","ALPHARETTA","GA",30005,34.1016656480001,-84.23320659,333,"6720 JAMESTOWN DRIVE, ALPHARETTA, GA, 30005","Match","Exact","6720 JAMESTOWN DR, ALPHARETTA, GA, 30005",653440325,"L"
270334,"6720 LASSO CT","CITRUS HEIGHTS","CA",95621,38.6890044570001,-121.309540324,334,"6720 LASSO CT, CITRUS HEIGHTS, CA, 95621","Match","Exact","6720 LASSO CT, CITRUS HEIGHTS, CA, 95621",133394561,"L"
270335,"6720 MCLEANSVILLE ROAD","MCLEANSVILLE","NC",27301,36.1570282640001,-79.673559803,335,"6720 MCLEANSVILLE ROAD, MCLEANSVILLE, NC, 27301","Match","Non_Exact","6720 MCLEANSVILLE RD, MC LEANSVILLE, NC, 27301",131034341,"R"
270336,"6720 N CAPITAL OF TX HWY","AUSTIN","TX",78731,30.3686937350001,-97.789092142,336,"6720 N CAPITAL OF TX HWY, AUSTIN, TX, 78731","Match","Exact","6720 N CAPITAL OF TEXAS HWY, AUSTIN, TX, 78731",64023694,"L"
270337,"6720 N HUALAPAI WAY STE 145-455","LAS VEGAS","NV",89149,NA,NA,337,"6720 N HUALAPAI WAY STE 145-455, LAS VEGAS, NV, 89149","No_Match",NA,NA,NA,NA
270338,"6720 NW 40TH DRIVE","GAINESVILLE","FL",32653,29.716249363,-82.384545165,338,"6720 NW 40TH DRIVE, GAINESVILLE, FL, 32653","Match","Exact","6720 NW 40 DR, GAINESVILLE, FL, 32653",6821399,"L"
270339,"6720 PRAIRIE FLOWER TRL","DALLAS","TX",75227,32.779181325,-96.70347214,339,"6720 PRAIRIE FLOWER TRL, DALLAS, TX, 75227","Match","Exact","6720 PRAIRIE FLOWER TRL, DALLAS, TX, 75227",634122464,"R"
270340,"6720 RURITAN BLVD","SUFFOLK","VA",23437,36.6816122130001,-76.781897385,340,"6720 RURITAN BLVD, SUFFOLK, VA, 23437","Match","Exact","6720 RURITAN BLVD, SUFFOLK, VA, 23437",122236009,"R"
270341,"6720 SE JENNINGS AVE","MILWAUKIE","OR",97267,45.401306414,-122.594546682,341,"6720 SE JENNINGS AVE, MILWAUKIE, OR, 97267","Match","Exact","6720 SE JENNINGS AVE, MILWAUKIE, OR, 97267",157916714,"R"
270342,"6720 SOUTH LOIS AVE APT7105","TAMPA","FL",33616,27.871055095,-82.514489117,342,"6720 SOUTH LOIS AVE APT7105, TAMPA, FL, 33616","Match","Exact","6720 S LOIS AVE, TAMPA, FL, 33616",640441005,"L"
270343,"6720 SPRING VALLEY DRIVE","ELMORE","AL",36025,32.526044862,-86.350060846,343,"6720 SPRING VALLEY DRIVE, ELMORE, AL, 36025","Match","Exact","6720 SPRING VALLEY DR, ELMORE, AL, 36025",1373035,"R"
270344,"6720 THORNHILL DRIVE","OAKLAND","CA",94611,37.8407188630001,-122.201888341,344,"6720 THORNHILL DRIVE, OAKLAND, CA, 94611","Match","Exact","6720 THORNHILL DR, OAKLAND, CA, 94611",125003319,"R"
270345,"6720 VIA AUSTI PARKWAY SUITE 350","LAS VEGAS","NV",89119,NA,NA,345,"6720 VIA AUSTI PARKWAY SUITE 350, LAS VEGAS, NV, 89119","No_Match",NA,NA,NA,NA
270346,"6720 W 31ST ST","BERWYN","IL",60402,41.8359654290001,-87.791241707,346,"6720 W 31ST ST, BERWYN, IL, 60402","Match","Exact","6720 31ST ST, BERWYN, IL, 60402",605126137,"L"
270347,"6720 WILLOWBROOK DRIVE UNIT 1","FAYETTEVILLE","NC",28314,35.0735118760001,-79.013942352,347,"6720 WILLOWBROOK DRIVE UNIT 1, FAYETTEVILLE, NC, 28314","Match","Exact","6720 WILLOWBROOK DR, FAYETTEVILLE, NC, 28314",64227849,"R"
270348,"6720-B ROCKLEDGE DR  SUITE 400","BETHESDA","MD",20817,39.029186059,-77.1385994789999,348,"6720-B ROCKLEDGE DR  SUITE 400, BETHESDA, MD, 20817","Match","Exact","6720 ROCKLEDGE DR, BETHESDA, MD, 20817",650140509,"L"
270349,"67204 E 685 PR NE","RICHLAND","WA",99352,46.2488589480001,-119.350130673,349,"67204 E 685 PR NE, RICHLAND, WA, 99352","Match","Exact","67204 E 685 PR NE, RICHLAND, WA, 99352",606997408,"L"
270350,"6721 CHURCHILL ROAD","MCLEAN","VA",22101,38.9411736280001,-77.178098781,350,"6721 CHURCHILL ROAD, MCLEAN, VA, 22101","Match","Exact","6721 CHURCHILL RD, MCLEAN, VA, 22101",638075393,"R"
270351,"6721 E BARWICK DR","CAVE CREEK","AZ",85331,33.7575421130001,-111.936202361,351,"6721 E BARWICK DR, CAVE CREEK, AZ, 85331","Match","Exact","6721 E BARWICK DR, CAVE CREEK, AZ, 85331",128595914,"R"
270352,"6721 E FLORENCE AVE","BELL GARDENS","CA",90201,33.9621575410001,-118.146374773,352,"6721 E FLORENCE AVE, BELL GARDENS, CA, 90201","Match","Exact","6721 FLORENCE AVE, BELL GARDENS, CA, 90201",647685759,"L"
270353,"6721 EAST SHELBY DRIVE","MEMPHIS","TN",38141,35.0203811040001,-89.838857275,353,"6721 EAST SHELBY DRIVE, MEMPHIS, TN, 38141","Match","Exact","6721 E SHELBY DR, MEMPHIS, TN, 38141",72979703,"R"
270354,"6721 GRELOT ROAD SUITE A","MOBILE","AL",36695,30.661114067,-88.1995616999999,354,"6721 GRELOT ROAD SUITE A, MOBILE, AL, 36695","Match","Exact","6721 GRELOT RD, MOBILE, AL, 36695",639039731,"L"
270355,"6721 MARTIN LUTHER KING JR WAY S","SEATTLE","WA",98118,47.5421536270001,-122.283554658,355,"6721 MARTIN LUTHER KING JR WAY S, SEATTLE, WA, 98118","Match","Exact","6721 MARTIN LUTHER KING JR WAY S, SEATTLE, WA, 98118",186596203,"R"
270356,"6721 MID CITIES AVENUE","BELTSVILLE","MD",20705,39.0537307550001,-76.889131595,356,"6721 MID CITIES AVENUE, BELTSVILLE, MD, 20705","Match","Exact","6721 MID CITIES AVE, BELTSVILLE, MD, 20705",76373788,"R"
270357,"6721 N CAMPBELL AVE","CHICAGO","IL",60645,42.003617594,-87.692465817,357,"6721 N CAMPBELL AVE, CHICAGO, IL, 60645","Match","Exact","6721 N CAMPBELL AVE, CHICAGO, IL, 60645",111744782,"R"
270358,"6721 N FRANCISCO","CHICAGO","IL",60645,42.0033265760001,-87.702199121,358,"6721 N FRANCISCO, CHICAGO, IL, 60645","Match","Non_Exact","6721 N FRANCISCO AVE, CHICAGO, IL, 60645",605168812,"R"
270359,"6721 S ALBION WAY","CENTENNIAL","CO",80122,39.594736647,-104.939331597,359,"6721 S ALBION WAY, CENTENNIAL, CO, 80122","Match","Exact","6721 S ALBION WAY, CENTENNIAL, CO, 80122",177345074,"R"
270360,"6721 SEVILLE PL NW","ALBUQUERQUE","NM",87120,35.1596004720001,-106.711752864,360,"6721 SEVILLE PL NW, ALBUQUERQUE, NM, 87120","Match","Exact","6721 SEVILLE PL NW, ALBUQUERQUE, NM, 87120",206739111,"R"
270361,"6721 SPRINGPARK AVE UNIT 6","LOS ANGELES","CA",90056,33.9789857650001,-118.374702598,361,"6721 SPRINGPARK AVE UNIT 6, LOS ANGELES, CA, 90056","Match","Non_Exact","6721 S SPRINGPARK AVE, LOS ANGELES, CA, 90056",241242475,"R"
270362,"6721 SPRINGPARK AVE","LOS ANGELES","CA",90056,33.9789857650001,-118.374702598,362,"6721 SPRINGPARK AVE, LOS ANGELES, CA, 90056","Match","Non_Exact","6721 S SPRINGPARK AVE, LOS ANGELES, CA, 90056",241242475,"R"
270363,"6721 STONECREEK STREET","GREENACRES","FL",33413,26.6654242110001,-80.1485607079999,363,"6721 STONECREEK STREET, GREENACRES, FL, 33413","Match","Exact","6721 STONECREEK ST, GREENACRES, FL, 33413",115546105,"R"
270364,"6721 VIEWPOINT ROAD","EIGHT MILE","AL",36613,30.8311597690001,-88.186931543,364,"6721 VIEWPOINT ROAD, EIGHT MILE, AL, 36613","Match","Exact","6721 VIEWPOINT RD, EIGHT MILE, AL, 36613",61923925,"R"
270365,"6721 W 145TH AVE","CEDAR LAKE","IN",46303,41.355213501,-87.415607208,365,"6721 W 145TH AVE, CEDAR LAKE, IN, 46303","Match","Exact","6721 W 145TH AVE, CEDAR LAKE, IN, 46303",636322689,"L"
270366,"6721 WEST FLORISSANT","SAINT LOUIS","MO",63136,38.7159268450001,-90.258886208,366,"6721 WEST FLORISSANT, SAINT LOUIS, MO, 63136","Match","Non_Exact","6721 W FLORISSANT AVE, SAINT LOUIS, MO, 63136",100149813,"R"
270367,"6721 WOODCREST LN","SACHSE","TX",75048,32.980905385,-96.565084299,367,"6721 WOODCREST LN, SACHSE, TX, 75048","Match","Exact","6721 WOODCREST LN, SACHSE, TX, 75048",103258849,"R"
270368,"6722 46TH AVE S","SEATTLE","WA",98118,47.5422206380001,-122.275363068,368,"6722 46TH AVE S, SEATTLE, WA, 98118","Match","Exact","6722 46TH AVE S, SEATTLE, WA, 98118",186596545,"L"
270369,"6722 ALABAMA AVE","HAMMOND","IN",46323,41.5915775130001,-87.4604296649999,369,"6722 ALABAMA AVE, HAMMOND, IN, 46323","Match","Exact","6722 ALABAMA AVE, HAMMOND, IN, 46323",98420034,"R"
270370,"6722 ALISO AVE","WEST PALM BEACH","FL",33413,26.689823833,-80.1500444119999,370,"6722 ALISO AVE, WEST PALM BEACH, FL, 33413","Match","Exact","6722 ALISO AVE, WEST PALM BEACH, FL, 33413",636088587,"R"
270371,"6722 COVINGTON DR","HOUSTON","TX",77091,29.861719398,-95.4405616339999,371,"6722 COVINGTON DR, HOUSTON, TX, 77091","Match","Exact","6722 COVINGTON DR, HOUSTON, TX, 77091",96027723,"R"
270372,"6722 HARTWOOD LANE","CENTREVILLE","VA",20121,38.8126815860001,-77.4399357409999,372,"6722 HARTWOOD LANE, CENTREVILLE, VA, 20121","Match","Exact","6722 HARTWOOD LN, CENTREVILLE, VA, 20121",642595251,"L"
270373,"6722 MERWIN","CINCINNATI","OH",45227,39.153196908,-84.3820658079999,373,"6722 MERWIN, CINCINNATI, OH, 45227","Match","Non_Exact","6722 MERWIN AVE, CINCINNATI, OH, 45227",103934053,"L"
270374,"6722 OLD PIMLICO ROAD","BALTIMORE","MD",21209,39.3766879680001,-76.6771255849999,374,"6722 OLD PIMLICO ROAD, BALTIMORE, MD, 21209","Match","Exact","6722 OLD PIMLICO RD, BALTIMORE, MD, 21209",191513489,"L"
270375,"6722 RIVERSIDE BLUFFS DR","RIVERVIEW","FL",33578,27.884608428,-82.310861587,375,"6722 RIVERSIDE BLUFFS DR, RIVERVIEW, FL, 33578","Match","Exact","6722 RIVERSIDE BLUFFS DR, RIVERVIEW, FL, 33578",646582301,"L"
270376,"6722 S LEWIS AVE UNIT 905","TULSA","OK",74136,36.0648867140001,-95.9579151039999,376,"6722 S LEWIS AVE UNIT 905, TULSA, OK, 74136","Match","Non_Exact","6722 S LEWIS AVE, TULSA, OK, 74136",611253163,"R"
270377,"6722 SE REED COLLEGE PLACE","PORTLAND","OR",97202,45.4746436780001,-122.629165655,377,"6722 SE REED COLLEGE PLACE, PORTLAND, OR, 97202","Match","Exact","6722 SE REED COLLEGE PL, PORTLAND, OR, 97202",157510777,"L"
270378,"6722 SOUTH CONSTANCE AVENUE","CHICAGO","IL",60649,41.772919351,-87.580170934,378,"6722 SOUTH CONSTANCE AVENUE, CHICAGO, IL, 60649","Match","Exact","6722 S CONSTANCE AVE, CHICAGO, IL, 60649",111774602,"R"
270379,"6723 1ST AVE","INDIAN TRAIL","NC",28079,35.091281408,-80.647028662,379,"6723 1ST AVE, INDIAN TRAIL, NC, 28079","Match","Exact","6723 1ST AVE, INDIAN TRAIL, NC, 28079",14199615,"L"
270380,"6723 ALTIPLANO WAY","SAN JOSE","CA",95119,37.229554663,-121.787011781,380,"6723 ALTIPLANO WAY, SAN JOSE, CA, 95119","Match","Exact","6723 ALTIPLANO WAY, SAN JOSE, CA, 95119",122927191,"R"
270381,"6723 BRADDOCK PLACE","DALLAS","TX",75232,32.666504828,-96.85642834,381,"6723 BRADDOCK PLACE, DALLAS, TX, 75232","Match","Exact","6723 BRADDOCK PL, DALLAS, TX, 75232",102947659,"R"
270382,"6723 CARRADALE WAY","CHARLOTTE","NC",28278,35.1719166710001,-80.987302286,382,"6723 CARRADALE WAY, CHARLOTTE, NC, 28278","Match","Exact","6723 CARRADALE WAY, CHARLOTTE, NC, 28278",631731914,"L"
270383,"6723 CATOCTIN AVENUE","LAS VEGAS","NV",89139,36.052913404,-115.238297236,383,"6723 CATOCTIN AVENUE, LAS VEGAS, NV, 89139","Match","Exact","6723 CATOCTIN AVE, LAS VEGAS, NV, 89139",612683481,"L"
270384,"6723 COPPEL CT","INDIANAPOLIS","IN",46259,39.6722003310001,-86.014418365,384,"6723 COPPEL CT, INDIANAPOLIS, IN, 46259","Match","Exact","6723 COPPEL CT, INDIANAPOLIS, IN, 46259",627784584,"L"
270385,"6723 E LINCOLN DR","PARADISE VALLEY","AZ",85253,33.531236216,-111.93614156,385,"6723 E LINCOLN DR, PARADISE VALLEY, AZ, 85253","Match","Exact","6723 E LINCOLN DR, PARADISE VALLEY, AZ, 85253",128222189,"R"
270386,"6723 LIMPKIN DRIVE","ORLANDO","FL",32810,28.6222501980001,-81.4714231,386,"6723 LIMPKIN DRIVE, ORLANDO, FL, 32810","Match","Exact","6723 LIMPKIN DR, ORLANDO, FL, 32810",94333026,"L"
270387,"6723 PLAINVIEW AVENUE","ST. LOUIS","MO",63109,38.590218866,-90.307502663,387,"6723 PLAINVIEW AVENUE, ST. LOUIS, MO, 63109","Match","Exact","6723 PLAINVIEW AVE, SAINT LOUIS, MO, 63109",605132597,"R"
270388,"6723 STONEGATE DR","NAPLES","FL",34109,26.229304868,-81.7840726869999,388,"6723 STONEGATE DR, NAPLES, FL, 34109","Match","Exact","6723 STONEGATE DR, NAPLES, FL, 34109",115168389,"R"
270389,"6723 WHITTIER AVE  SUITE 206","MCLEAN","VA",22101,38.931487056,-77.176312694,389,"6723 WHITTIER AVE  SUITE 206, MCLEAN, VA, 22101","Match","Exact","6723 WHITTIER AVE, MCLEAN, VA, 22101",75963464,"L"
270390,"6723 WHITTIER AVE STE 206","MCLEAN","VA",22101,38.931487056,-77.176312694,390,"6723 WHITTIER AVE STE 206, MCLEAN, VA, 22101","Match","Exact","6723 WHITTIER AVE, MCLEAN, VA, 22101",75963464,"L"
270391,"6724 49TH AVENUE","KENOSHA","WI",53142,42.573062163,-87.8675745479999,391,"6724 49TH AVENUE, KENOSHA, WI, 53142","Match","Exact","6724 49TH AVE, KENOSHA, WI, 53142",79798780,"R"
270392,"6724 AARWOOD RD NW","RAPID CITY","MI",49676,44.847283417,-85.308752655,392,"6724 AARWOOD RD NW, RAPID CITY, MI, 49676","Match","Exact","6724 AARWOOD RD NW, RAPID CITY, MI, 49676",145936430,"R"
270393,"6724 CEDAR SHADOW DRIVE","DALLAS","TX",75236,32.6665425090001,-96.936198645,393,"6724 CEDAR SHADOW DRIVE, DALLAS, TX, 75236","Match","Exact","6724 CEDAR SHADOW DR, DALLAS, TX, 75236",103174694,"R"
270394,"6724 CORDIALLY WAY","ELK GROVE","CA",95757,38.404849605,-121.412584474,394,"6724 CORDIALLY WAY, ELK GROVE, CA, 95757","Match","Exact","6724 CORDIALLY WAY, ELK GROVE, CA, 95757",624927106,"L"
270395,"6724 DOGWOOD RD APT B","GWYNN OAK","MD",21207,39.321216828,-76.7417389669999,395,"6724 DOGWOOD RD APT B, GWYNN OAK, MD, 21207","Match","Exact","6724 DOGWOOD RD, GWYNN OAK, MD, 21207",191484427,"R"
270396,"6724 FINCH","HOUSTON","TX",77028,29.8292289780001,-95.306191215,396,"6724 FINCH, HOUSTON, TX, 77028","Match","Non_Exact","6724 FINCH ST, HOUSTON, TX, 77028",96076820,"R"
270397,"6724 GENTLE OAKS DR","JACKSONVILLE","FL",32244,30.229298256,-81.75656228,397,"6724 GENTLE OAKS DR, JACKSONVILLE, FL, 32244","Match","Exact","6724 GENTLE OAKS DR, JACKSONVILLE, FL, 32244",629899561,"L"
270398,"6724 HILLBRIAR DR APT 1207","DALLAS","TX",75248,32.9533710370001,-96.793984134,398,"6724 HILLBRIAR DR APT 1207, DALLAS, TX, 75248","Match","Exact","6724 HILLBRIAR DR, DALLAS, TX, 75248",102900409,"R"
270399,"6724 KENWORTHY CT","HUGHSON","CA",95326,37.607129801,-120.868723462,399,"6724 KENWORTHY CT, HUGHSON, CA, 95326","Match","Exact","6724 KENWORTHY CT, HUGHSON, CA, 95326",102635106,"R"
270400,"6724 NORTH PARK COURT","SHREVEPORT","LA",71107,32.610115407,-93.88484227,400,"6724 NORTH PARK COURT, SHREVEPORT, LA, 71107","Match","Exact","6724 N PARK CT, SHREVEPORT, LA, 71107",57428393,"R"
270401,"6724 OLD ZION HILL ROAD","N CHESTERFIELD","VA",23234,37.4237330560001,-77.504563732,401,"6724 OLD ZION HILL ROAD, N CHESTERFIELD, VA, 23234","Match","Exact","6724 OLD ZION HILL RD, NORTH CHESTERFIELD, VA, 23234",625202747,"R"
270402,"6724 PECOS STREET","FARMINGTON","NM",87402,36.7873150090001,-108.122516292,402,"6724 PECOS STREET, FARMINGTON, NM, 87402","Match","Exact","6724 PECOS ST, FARMINGTON, NM, 87402",627871886,"R"
270403,"6724 PERIMETER LOOP RD UNIT 125","DUBLIN","OH",43017,40.102336404,-83.157888616,403,"6724 PERIMETER LOOP RD UNIT 125, DUBLIN, OH, 43017","Match","Exact","6724 PERIMETER LOOP RD, DUBLIN, OH, 43017",218661544,"L"
270404,"6724 RACQUET CLUB","MEMPHIS","TN",38119,35.0677982940001,-89.839577225,404,"6724 RACQUET CLUB, MEMPHIS, TN, 38119","Match","Non_Exact","6724 RACQUET CLUB DR, MEMPHIS, TN, 38119",72930304,"L"
270405,"6724 SW 28 CT","MIRAMAR","FL",33023,25.9829101820001,-80.220518982,405,"6724 SW 28 CT, MIRAMAR, FL, 33023","Match","Exact","6724 SW 28TH CT, MIRAMAR, FL, 33023",114734803,"L"
270406,"6724 WOOSTER AVENUE","LOS ANGELES","CA",90056,33.9772853740001,-118.384858473,406,"6724 WOOSTER AVENUE, LOS ANGELES, CA, 90056","Match","Exact","6724 WOOSTER AVE, LOS ANGELES, CA, 90056",640418419,"L"
270407,"6725 BENTLEY RIDGE DRIVE","CUMMING","GA",30040,34.199563283,-84.250938144,407,"6725 BENTLEY RIDGE DRIVE, CUMMING, GA, 30040","Match","Exact","6725 BENTLEY RIDGE DR, CUMMING, GA, 30040",646193147,"L"
270408,"6725 BRITTMOORE RD APT 1206","HOUSTON","TX",77041,29.867732012,-95.56919118,408,"6725 BRITTMOORE RD APT 1206, HOUSTON, TX, 77041","Match","Exact","6725 BRITTMOORE RD, HOUSTON, TX, 77041",96294554,"L"
270409,"6725 DIABLO VIEW TRAIL","PLACERVILLE","CA",95667,38.6892892810001,-120.624929206,409,"6725 DIABLO VIEW TRAIL, PLACERVILLE, CA, 95667","Match","Exact","6725 DIABLO VIEW TRL, PLACERVILLE, CA, 95667",645555361,"L"
270410,"6725 DORMAN STREET","HYATTSVILLE","MD",20784,38.933671099,-76.8962539949999,410,"6725 DORMAN STREET, HYATTSVILLE, MD, 20784","Match","Exact","6725 DORMAN ST, HYATTSVILLE, MD, 20784",76309124,"R"
270411,"6725 EAGLES CROSSING DRIVE","WENDELL","NC",27591,35.7842657850001,-78.4067201089999,411,"6725 EAGLES CROSSING DRIVE, WENDELL, NC, 27591","Match","Exact","6725 EAGLES CROSSING DR, WENDELL, NC, 27591",208344871,"L"
270412,"6725 KENNEDY AVE","HAMMOND","IN",46323,41.5915620540001,-87.46162499,412,"6725 KENNEDY AVE, HAMMOND, IN, 46323","Match","Exact","6725 KENNEDY AVE, HAMMOND, IN, 46323",98420030,"L"
270413,"6725 KENORA ST","RIO LINDA","CA",95673,38.68933372,-121.462463155,413,"6725 KENORA ST, RIO LINDA, CA, 95673","Match","Exact","6725 KENORA ST, RIO LINDA, CA, 95673",133319638,"L"
270414,"6725 MISSION GORGE ROAD UNIT 200A","SAN DIEGO","CA",92120,32.7952799920001,-117.095806551,414,"6725 MISSION GORGE ROAD UNIT 200A, SAN DIEGO, CA, 92120","Match","Exact","6725 MISSION GORGE RD, SAN DIEGO, CA, 92120",195321916,"R"
270415,"6725 N 17TH AVENUE APT 5","PHOENIX","AZ",85015,33.535986225,-112.094719636,415,"6725 N 17TH AVENUE APT 5, PHOENIX, AZ, 85015","Match","Non_Exact","6725 N 17TH AVE, PHOENIX, AZ, 85015",128302347,"R"
270416,"6725 N PALM SUITE 106","FRESNO","CA",93711,NA,NA,416,"6725 N PALM SUITE 106, FRESNO, CA, 93711","No_Match",NA,NA,NA,NA
270417,"6725 OLOHENA RD UNIT B","KAPAA","HI",96746,22.0801823420001,-159.379486798,417,"6725 OLOHENA RD UNIT B, KAPAA, HI, 96746","Match","Exact","6725 OLOHENA RD, KAPAA, HI, 96746",203397100,"L"
270418,"6725 RANCHO TOYON PLACE","SAN DIEGO","CA",92130,32.943147676,-117.17944979,418,"6725 RANCHO TOYON PLACE, SAN DIEGO, CA, 92130","Match","Exact","6725 RANCHO TOYON PL, SAN DIEGO, CA, 92130",612889390,"R"
270419,"6725 S FRY RD STE 700-315","KATY","TX",77494,29.7145416660001,-95.775342397,419,"6725 S FRY RD STE 700-315, KATY, TX, 77494","Match","Non_Exact","6725 S FRY RD, KATY, TX, 77494",642185004,"L"
270420,"6725 S FRY ROAD STE 700-357","KATY","TX",77494,29.7145416660001,-95.775342397,420,"6725 S FRY ROAD STE 700-357, KATY, TX, 77494","Match","Non_Exact","6725 S FRY RD, KATY, TX, 77494",642185004,"L"
270421,"6725 SO RIDGELAND","CHICAGO","IL",60649,41.7726756440001,-87.58262159,421,"6725 SO RIDGELAND, CHICAGO, IL, 60649","Match","Non_Exact","6725 S RIDGELAND AVE, CHICAGO, IL, 60649",605831832,"L"
270422,"6725 SPRUCE DRIVE","BLOOMFIELD HILLS","MI",48301,42.5414259180001,-83.291735538,422,"6725 SPRUCE DRIVE, BLOOMFIELD HILLS, MI, 48301","Match","Exact","6725 SPRUCE DR, BLOOMFIELD HILLS, MI, 48301",69777050,"L"
270423,"6725 SUITLAND ROAD","MORNINGSIDE","MD",20746,38.8281456830001,-76.8941391239999,423,"6725 SUITLAND ROAD, MORNINGSIDE, MD, 20746","Match","Exact","6725 SUITLAND RD, MORNINGSIDE, MD, 20746",76318968,"R"
270424,"6725 TOURNAMENT DRIVE","HOUSTON","TX",77069,29.9882542450001,-95.5392410969999,424,"6725 TOURNAMENT DRIVE, HOUSTON, TX, 77069","Match","Exact","6725 TOURNAMENT DR, HOUSTON, TX, 77069",96660802,"R"
270425,"6725 YORK AVE S UNIT 408","EDINA","MN",55435,44.881110575,-93.321105164,425,"6725 YORK AVE S UNIT 408, EDINA, MN, 55435","Match","Exact","6725 YORK AVE S, EDINA, MN, 55435",641240051,"L"
270426,"67250 E 260 RD","GROVE","OK",74344,36.6381373830001,-94.674964517,426,"67250 E 260 RD, GROVE, OK, 74344","Match","Exact","67250 E 260 RD, GROVE, OK, 74344",49674019,"R"
270427,"6726 10TH AVENUE NORTH","SAINT PETERSBURG","FL",33710,27.781601118,-82.730942263,427,"6726 10TH AVENUE NORTH, SAINT PETERSBURG, FL, 33710","Match","Exact","6726 10TH AVE N, SAINT PETERSBURG, FL, 33710",124698169,"L"
270428,"6726 14TH PLACE","WASHINGTON","DC",20012,38.9714448550001,-77.032314722,428,"6726 14TH PLACE, WASHINGTON, DC, 20012","Match","Non_Exact","6726 14TH PL NW, WASHINGTON, DC, 20012",76221613,"L"
270429,"6726 BEAR CREEK ROAD","STERRETT","AL",35147,33.422478916,-86.577794567,429,"6726 BEAR CREEK ROAD, STERRETT, AL, 35147","Match","Exact","6726 BEAR CREEK RD, STERRETT, AL, 35147",629292036,"R"
270430,"6726 E LOS ARCOS","LONG BEACH","CA",90815,33.7998146680001,-118.102238189,430,"6726 E LOS ARCOS, LONG BEACH, CA, 90815","Match","Non_Exact","6726 E LOS ARCOS ST, LONG BEACH, CA, 90815",141745982,"R"
270431,"6726 FOREST MEWS CT","HOUSTON","TX",77049,29.8206418,-95.170936034,431,"6726 FOREST MEWS CT, HOUSTON, TX, 77049","Match","Exact","6726 FOREST MEWS CT, HOUSTON, TX, 77049",625665936,"R"
270432,"6726 HERITAGE HAVEN CT","RICHMOND","TX",77469,29.536795189,-95.716211926,432,"6726 HERITAGE HAVEN CT, RICHMOND, TX, 77469","Match","Exact","6726 HERITAGE HAVEN CT, RICHMOND, TX, 77469",621530943,"R"
270433,"6726 LA GRANADA DRIVE","HOUSTON","TX",77083,29.704800773,-95.660479376,433,"6726 LA GRANADA DRIVE, HOUSTON, TX, 77083","Match","Exact","6726 LA GRANADA DR, HOUSTON, TX, 77083",96017511,"R"
270434,"6726 N KEATING AVE","LINCOLNWOOD","IL",60712,42.003280714,-87.746969507,434,"6726 N KEATING AVE, LINCOLNWOOD, IL, 60712","Match","Exact","6726 N KEATING AVE, LINCOLNWOOD, IL, 60712",111741300,"L"
270435,"6726 OGONTZ AVENUE","PHIILADELPHIA","PA",19126,40.0569892890001,-75.1493706429999,435,"6726 OGONTZ AVENUE, PHIILADELPHIA, PA, 19126","Match","Non_Exact","6726 OGONTZ AVE, PHILADELPHIA, PA, 19126",131413354,"L"
270436,"6726 S ARLINGTON AVENUE","LOS ANGELES","CA",90043,33.9779219260001,-118.318700925,436,"6726 S ARLINGTON AVENUE, LOS ANGELES, CA, 90043","Match","Exact","6726 ARLINGTON AVE, LOS ANGELES, CA, 90043",141658032,"L"
270437,"6726 SE 3RD ST","RENTON","WA",98059,47.480133407,-122.128808155,437,"6726 SE 3RD ST, RENTON, WA, 98059","Match","Exact","6726 SE 3RD ST, RENTON, WA, 98059",628073537,"R"
270438,"6726 TOWNLINE RD","SYRACUSE","NY",13211,43.0992799680001,-76.117283474,438,"6726 TOWNLINE RD, SYRACUSE, NY, 13211","Match","Non_Exact","6726 TOWN LINE RD, SYRACUSE, NY, 13211",639482486,"R"
270439,"6726 W 9TH PL","KENNEWICK","WA",99336,46.1999130740001,-119.209343614,439,"6726 W 9TH PL, KENNEWICK, WA, 99336","Match","Exact","6726 W 9TH PL, KENNEWICK, WA, 99336",174990103,"R"
270440,"6727 11TH AVENUE","LOS ANGELES","CA",90043,33.977816982,-118.329391288,440,"6727 11TH AVENUE, LOS ANGELES, CA, 90043","Match","Exact","6727 11TH AVE, LOS ANGELES, CA, 90043",141655182,"R"
270441,"6727 ASHWOOD LOOP","FARGO","ND",58104,46.798073661,-96.899548601,441,"6727 ASHWOOD LOOP, FARGO, ND, 58104","Match","Non_Exact","6727 ASHWOOD LOOP S, FARGO, ND, 58104",646547962,"R"
270442,"6727 CHARLIE DOOLEY","SAINT LOUIS","MO",63121,NA,NA,442,"6727 CHARLIE DOOLEY, SAINT LOUIS, MO, 63121","No_Match",NA,NA,NA,NA
270443,"6727 GREENHOUSE RD","KATY","TX",77449,29.876524256,-95.703581355,443,"6727 GREENHOUSE RD, KATY, TX, 77449","Match","Exact","6727 GREENHOUSE RD, KATY, TX, 77449",96123449,"L"
270444,"6727 HIGHCLERE MANOR LANE","HOUSTON","TX",77055,29.7948973790001,-95.46868634,444,"6727 HIGHCLERE MANOR LANE, HOUSTON, TX, 77055","Match","Exact","6727 HIGHCLERE MANOR LN, HOUSTON, TX, 77055",646666789,"L"
270445,"6727 HILL AVE APT 7","TOLEDO","OH",43615,41.63881938,-83.7021495079999,445,"6727 HILL AVE APT 7, TOLEDO, OH, 43615","Match","Exact","6727 HILL AVE, TOLEDO, OH, 43615",33952900,"L"
270446,"6727 MARTIN LUTHER KING WAY S STE B","SEATTLE","WA",98118,47.5421084000001,-122.283532658,446,"6727 MARTIN LUTHER KING WAY S STE B, SEATTLE, WA, 98118","Match","Exact","6727 MARTIN LUTHER KING JR WAY S, SEATTLE, WA, 98118",186596203,"R"
270447,"6727 PALACE CT","MARION","SC",29571,34.2887843410001,-79.371935794,447,"6727 PALACE CT, MARION, SC, 29571","Match","Exact","6727 PALACE CT, MARION, SC, 29571",28783228,"R"
270448,"6727 S SHERIDAN RD","TULSA","OK",74133,36.0648206590001,-95.904257269,448,"6727 S SHERIDAN RD, TULSA, OK, 74133","Match","Exact","6727 S SHERIDAN RD, TULSA, OK, 74133",166452601,"L"
270449,"6727 W USTICK RD","BOISE","ID",83704,43.6338209470001,-116.265225242,449,"6727 W USTICK RD, BOISE, ID, 83704","Match","Exact","6727 USTICK RD, BOISE, ID, 83704",117916856,"L"
270450,"6727 WIDE CREEK DR","KATY","TX",77449,29.8740293020001,-95.719067359,450,"6727 WIDE CREEK DR, KATY, TX, 77449","Match","Exact","6727 WIDE CREEK DR, KATY, TX, 77449",623688875,"R"
270451,"6728 CURZON TERRACE","UNIVERSITY PARK","FL",34201,27.3918574580001,-82.4741100479999,451,"6728 CURZON TERRACE, UNIVERSITY PARK, FL, 34201","Match","Exact","6728 CURZON TER, UNIVERSITY PARK, FL, 34201",645954291,"R"
270452,"6728 DEVENSHIRE LANE","MEMPHIS","TN",38141,35.0321742720001,-89.838951207,452,"6728 DEVENSHIRE LANE, MEMPHIS, TN, 38141","Match","Exact","6728 DEVENSHIRE LN, MEMPHIS, TN, 38141",72930720,"L"
270453,"6728 HILL ROAD","CANAL WINCHESTER","OH",43110,39.839785068,-82.79064212,453,"6728 HILL ROAD, CANAL WINCHESTER, OH, 43110","Match","Non_Exact","6728 HILL RD NW, CANAL WINCHESTER, OH, 43110",639884070,"R"
270454,"6728 LOOP RD BUILDING 5 SUITE 301","CENTERVILLE","OH",45459,39.645707493,-84.148078026,454,"6728 LOOP RD BUILDING 5 SUITE 301, CENTERVILLE, OH, 45459","Match","Exact","6728 LOOP RD, CENTERVILLE, OH, 45459",143600258,"L"
270455,"6728 N ALSUP AVE","LITCHFIELD PARK","AZ",85340,33.5331823070001,-112.401147116,455,"6728 N ALSUP AVE, LITCHFIELD PARK, AZ, 85340","Match","Non_Exact","6728 N ALSUP RD, LITCHFIELD PARK, AZ, 85340",128412154,"L"
270456,"6728 S 615 E STE B","MIDVALE","UT",84047,40.629062532,-111.874366345,456,"6728 S 615 E STE B, MIDVALE, UT, 84047","Match","Non_Exact","6728 S 615 E, MIDVALE, UT, 84047",176110519,"R"
270457,"6728 SOUTH OAKLEY","DUBUQUE","IL",52001,NA,NA,457,"6728 SOUTH OAKLEY, DUBUQUE, IL, 52001","No_Match",NA,NA,NA,NA
270458,"6728 SW MAURY PARK RD","VASHON","WA",98070,47.3993468310001,-122.417705593,458,"6728 SW MAURY PARK RD, VASHON, WA, 98070","Match","Exact","6728 SW MAURY PARK RD, VASHON, WA, 98070",186712580,"R"
270459,"6728 VALYNN DRIVE","HERRIMAN","UT",84096,40.505882108,-112.051359867,459,"6728 VALYNN DRIVE, HERRIMAN, UT, 84096","Match","Non_Exact","6728 W VALYNN DR, HERRIMAN, UT, 84096",638533038,"R"
270460,"6728 WHITEFISH LAKE RD","THREE LAKES","WI",54562,45.782915836,-89.062071196,460,"6728 WHITEFISH LAKE RD, THREE LAKES, WI, 54562","Match","Exact","6728 WHITEFISH LAKE RD, THREE LAKES, WI, 54562",196608246,"R"
270461,"67287 W USTICK RD","BOISE","ID",83704,NA,NA,461,"67287 W USTICK RD, BOISE, ID, 83704","No_Match",NA,NA,NA,NA
270462,"6729 CURRAN STREET","MCLEAN","VA",22101,38.935133595,-77.1769282079999,462,"6729 CURRAN STREET, MCLEAN, VA, 22101","Match","Exact","6729 CURRAN ST, MCLEAN, VA, 22101",75963409,"L"
270463,"6729 ORION AVE","VAN NUYS","CA",91406,34.192841281,-118.47055552,463,"6729 ORION AVE, VAN NUYS, CA, 91406","Match","Exact","6729 ORION AVE, VAN NUYS, CA, 91406",141560072,"L"
270464,"6729 PETUNIA DRIVE","MIRAMAR","FL",33023,25.9750216190001,-80.221159471,464,"6729 PETUNIA DRIVE, MIRAMAR, FL, 33023","Match","Exact","6729 PETUNIA DR, MIRAMAR, FL, 33023",114734853,"R"
270465,"6729 PROVIDENCE STREET P O BOX 257","WHITEHOUSE","OH",43571,41.5181164910001,-83.8031519419999,465,"6729 PROVIDENCE STREET P O BOX 257, WHITEHOUSE, OH, 43571","Match","Exact","6729 PROVIDENCE ST, WHITEHOUSE, OH, 43571",33926339,"L"
270466,"673 237TH PL SE","SAMMAMISH","WA",98074,47.6026217310001,-122.022900044,466,"673 237TH PL SE, SAMMAMISH, WA, 98074","Match","Exact","673 237TH PL SE, SAMMAMISH, WA, 98074",627280662,"L"
270467,"673 ACR 470","PALESTINE","TX",75803,31.9675079150001,-95.814222883,467,"673 ACR 470, PALESTINE, TX, 75803","Match","Non_Exact","673 CO RD 470, PALESTINE, TX, 75803",74649097,"L"
270468,"673 BLOOMFIELD AVENUE 2ND FLOOR","BLOOMFIELD","NJ",7003,40.7969149910001,-74.2002326639999,468,"673 BLOOMFIELD AVENUE 2ND FLOOR, BLOOMFIELD, NJ, 7003","Match","Exact","673 BLOOMFIELD AVE, BLOOMFIELD, NJ, 07003",63451038,"R"
270469,"673 BLOOMFIELD AVENUE","BLOOMFIELD","NJ",7003,40.7969149910001,-74.2002326639999,469,"673 BLOOMFIELD AVENUE, BLOOMFIELD, NJ, 7003","Match","Exact","673 BLOOMFIELD AVE, BLOOMFIELD, NJ, 07003",63451038,"R"
270470,"673 BRANNAN ST UNIT 515","SAN FRANCISCO","CA",94107,37.7754624610001,-122.400145688,470,"673 BRANNAN ST UNIT 515, SAN FRANCISCO, CA, 94107","Match","Exact","673 BRANNAN ST, SAN FRANCISCO, CA, 94107",641458507,"L"
270471,"673 BURNING BUSH RD","RINGGOLD","GA",30736,34.9189294330001,-85.210835816,471,"673 BURNING BUSH RD, RINGGOLD, GA, 30736","Match","Exact","673 BURNING BUSH RD, RINGGOLD, GA, 30736",66698350,"R"
270472,"673 CAMERON CT","KENNER","LA",70065,30.0139375530001,-90.2611754179999,472,"673 CAMERON CT, KENNER, LA, 70065","Match","Exact","673 CAMERON CT, KENNER, LA, 70065",93492868,"R"
270473,"673 DEGRAW STREET","BROOKLYN","NY",11217,40.678400998,-73.981426493,473,"673 DEGRAW STREET, BROOKLYN, NY, 11217","Match","Exact","673 DEGRAW ST, BROOKLYN, NY, 11217",59077610,"L"
270474,"673 EAST JEFFERSON AVENUE","POMONA","CA",91767,34.0695204940001,-117.739746432,474,"673 EAST JEFFERSON AVENUE, POMONA, CA, 91767","Match","Exact","673 E JEFFERSON AVE, POMONA, CA, 91767",141734092,"L"
270475,"673 F KNOX BLVD","RADCLIFF","KY",40160,37.8611187710001,-85.9548320919999,475,"673 F KNOX BLVD, RADCLIFF, KY, 40160","Match","Exact","673 KNOX BLVD, RADCLIFF, KY, 40160",651755722,"R"
270476,"673 FRANKLIN ST APT 311D","WORCESTER","MA",1604,42.2670780930001,-71.7756440699999,476,"673 FRANKLIN ST APT 311D, WORCESTER, MA, 1604","Match","Exact","673 FRANKLIN ST, WORCESTER, MA, 01604",40014101,"L"
270477,"673 HIGHWAY 98 W","TYLERTOWN","MS",39667,31.170336552,-90.234249308,477,"673 HIGHWAY 98 W, TYLERTOWN, MS, 39667","Match","Exact","673 HWY 98 W, TYLERTOWN, MS, 39667",612495994,"R"
270478,"673 JACK PINE DRIVE","WHITELAND","IN",46184,39.573494452,-86.118736327,478,"673 JACK PINE DRIVE, WHITELAND, IN, 46184","Match","Exact","673 JACK PINE DR, WHITELAND, IN, 46184",635559373,"R"
270479,"673 LIBERTY AVE","BROOKLYN","NY",11207,40.6760697870001,-73.88530472,479,"673 LIBERTY AVE, BROOKLYN, NY, 11207","Match","Exact","673 LIBERTY AVE, BROOKLYN, NY, 11207",642654129,"L"
270480,"673 LYNVILLE LN","ROCK HILL","SC",29730,34.8838516610001,-80.957315996,480,"673 LYNVILLE LN, ROCK HILL, SC, 29730","Match","Exact","673 LYNVILLE LN, ROCK HILL, SC, 29730",618914102,"L"
270481,"673 N E 3RD AVE APT 312","FORT LAUDERDALE","FL",33304,26.1307446770001,-80.140817396,481,"673 N E 3RD AVE APT 312, FORT LAUDERDALE, FL, 33304","Match","Non_Exact","673 NE 3RD AVE, FORT LAUDERDALE, FL, 33304",114722602,"L"
270482,"673 NORTH FULTON AVE","LINDENHURST","NY",11757,40.7000957650001,-73.374792293,482,"673 NORTH FULTON AVE, LINDENHURST, NY, 11757","Match","Exact","673 N FULTON AVE, LINDENHURST, NY, 11757",113973927,"L"
270483,"673 NORTH GRANT STREET","DENVER","CO",80203,39.7267843610001,-104.98362773,483,"673 NORTH GRANT STREET, DENVER, CO, 80203","Match","Non_Exact","673 GRANT ST, DENVER, CO, 80203",177331413,"L"
270484,"673 PIKES PEAK DR","WEST RICHLAND","WA",99353,46.2943576860001,-119.371770837,484,"673 PIKES PEAK DR, WEST RICHLAND, WA, 99353","Match","Exact","673 PIKES PEAK DR, WEST RICHLAND, WA, 99353",642953282,"R"
270485,"673 PLEASANT MEADOW RD","LUMBERTON","NC",28358,34.650215626,-78.964781304,485,"673 PLEASANT MEADOW RD, LUMBERTON, NC, 28358","Match","Exact","673 PLEASANT MEADOW RD, LUMBERTON, NC, 28358",49144914,"R"
270486,"673 POTOMAC STATION DR NE UNIT 604","LEESBURG","VA",20176,39.098981166,-77.525239186,486,"673 POTOMAC STATION DR NE UNIT 604, LEESBURG, VA, 20176","Match","Exact","673 POTOMAC STATION DR NE, LEESBURG, VA, 20176",641061325,"L"
270487,"673 POTOMAC STATION DRIVE - 111","LEESBURG","VA",20176,39.098981166,-77.525239186,487,"673 POTOMAC STATION DRIVE - 111, LEESBURG, VA, 20176","Match","Non_Exact","673 POTOMAC STATION DR NE, LEESBURG, VA, 20176",641061325,"L"
270488,"673 POWELL CHAPEL RD","PULASKI","TN",38478,35.2250865500001,-86.9487493,488,"673 POWELL CHAPEL RD, PULASKI, TN, 38478","Match","Exact","673 POWELL CHAPEL RD, PULASKI, TN, 38478",45306825,"R"
270489,"673 PRAIRIE GRASS ROAD","OREGON","WI",53575,NA,NA,489,"673 PRAIRIE GRASS ROAD, OREGON, WI, 53575","No_Match",NA,NA,NA,NA
270490,"673 ROAD 8","POWELL","WY",82435,NA,NA,490,"673 ROAD 8, POWELL, WY, 82435","No_Match",NA,NA,NA,NA
270491,"673 S SANTA FE TRAIL","CORNVILLE","AZ",86325,34.7274879340001,-111.971441818,491,"673 S SANTA FE TRAIL, CORNVILLE, AZ, 86325","Match","Exact","673 S SANTA FE TRL, CORNVILLE, AZ, 86325",645779601,"R"
270492,"673 SAN MARCO AVE","MADERA","CA",93637,36.9355412310001,-120.06400406,492,"673 SAN MARCO AVE, MADERA, CA, 93637","Match","Exact","673 SAN MARCO AVE, MADERA, CA, 93637",614739627,"R"
270493,"673 SOUTH 11TH STREET","NEWARK","NJ",7103,40.7300669200001,-74.205572016,493,"673 SOUTH 11TH STREET, NEWARK, NJ, 7103","Match","Exact","673 S 11TH ST, NEWARK, NJ, 07103",63485505,"R"
270494,"673 STARNES COVE ROAD","ASHEVILLE","NC",28806,35.578504723,-82.655889894,494,"673 STARNES COVE ROAD, ASHEVILLE, NC, 28806","Match","Exact","673 STARNES COVE RD, ASHEVILLE, NC, 28806",644132250,"R"
270495,"673 STUYVESANT AVE","IRVINGTON","NJ",7111,40.723977452,-74.2378917249999,495,"673 STUYVESANT AVE, IRVINGTON, NJ, 7111","Match","Exact","673 STUYVESANT AVE, IRVINGTON, NJ, 07111",63464578,"R"
270496,"673 SUNSET STRIP","SUNSET","LA",70584,30.396637545,-92.0740627449999,496,"673 SUNSET STRIP, SUNSET, LA, 70584","Match","Exact","673 SUNSET STRIP, SUNSET, LA, 70584",106449026,"R"
270497,"673 TOWN CREEK RD","KERRVILLE","TX",78028,30.0803747680001,-99.1512394329999,497,"673 TOWN CREEK RD, KERRVILLE, TX, 78028","Match","Exact","673 TOWN CREEK RD, KERRVILLE, TX, 78028",649842729,"R"
270498,"673 US ROUTE 40","MONTROSE","IL",62445,39.2404299410001,-88.170139403,498,"673 US ROUTE 40, MONTROSE, IL, 62445","Match","Exact","673 US RTE 40, MONTROSE, IL, 62445",5714352,"R"
270499,"673","RICHLAND","WA",99352,NA,NA,499,"673, RICHLAND, WA, 99352","No_Match",NA,NA,NA,NA
270500,"6730 80TH AVENUE SE","MERCER ISLAND","WA",98040,47.5428775820001,-122.232400429,500,"6730 80TH AVENUE SE, MERCER ISLAND, WA, 98040","Match","Exact","6730 80TH AVE SE, MERCER ISLAND, WA, 98040",186606868,"L"
