"ID","Address","City","State","Zip","lat","long","id","input_address","match_indicator","match_type","matched_address","tiger_line_id","tiger_side"
243501,"5496 COCONUT BLVD","WEST PALM BEACH","FL",33411,26.7584603990001,-80.239213695,1,"5496 COCONUT BLVD, WEST PALM BEACH, FL, 33411","Match","Exact","5496 COCONUT BLVD, WEST PALM BEACH, FL, 33411",115345448,"R"
243502,"5496 HARGROVE BOULEVARD","VIRGINIA BEACH","VA",23464,36.815222212,-76.1805489719999,2,"5496 HARGROVE BOULEVARD, VIRGINIA BEACH, VA, 23464","Match","Exact","5496 HARGROVE BLVD, VA BCH, VA, 23464",122283559,"R"
243503,"5496 HIGHWAY 92","ACWORTH","GA",30102,34.088777943,-84.5977223849999,3,"5496 HIGHWAY 92, ACWORTH, GA, 30102","Match","Non_Exact","5496 STATE HWY 92, ACWORTH, GA, 30102",640548766,"L"
243504,"5496 HUGH HOWELL RD","STONE MOUNTAIN","GA",30087,33.8405940540001,-84.166842389,4,"5496 HUGH HOWELL RD, STONE MOUNTAIN, GA, 30087","Match","Exact","5496 HUGH HOWELL RD, STONE MOUNTAIN, GA, 30087",23373978,"L"
243505,"5496 MOON VALLEY DRIVE","LAKELAND","FL",33812,27.9647712080001,-81.905735369,5,"5496 MOON VALLEY DRIVE, LAKELAND, FL, 33812","Match","Exact","5496 MOON VALLEY DR, LAKELAND, FL, 33812",104893719,"L"
243506,"5496 RD 7 NW","EPHRATA","WA",98823,47.1919908880001,-119.608069195,6,"5496 RD 7 NW, EPHRATA, WA, 98823","Match","Exact","5496 RD 7 NW, EPHRATA, WA, 98823",157089092,"L"
243507,"5496 RIDGE RD","MARSHALL","WI",53559,43.148318348,-89.1279186469999,7,"5496 RIDGE RD, MARSHALL, WI, 53559","Match","Exact","5496 RIDGE RD, MARSHALL, WI, 53559",49559909,"R"
243508,"5496 WEST 13680 SO","HERRIMAN","UT",84096,40.502798854,-112.02206586,8,"5496 WEST 13680 SO, HERRIMAN, UT, 84096","Match","Exact","5496 W 13680 S, HERRIMAN, UT, 84096",176128270,"L"
243509,"5497 INSPIRATION DRIVE","RIVERSIDE","CA",92506,33.95178515,-117.362852108,9,"5497 INSPIRATION DRIVE, RIVERSIDE, CA, 92506","Match","Exact","5497 INSPIRATION DR, RIVERSIDE, CA, 92506",194743009,"R"
243510,"5497 JOYCE CT","GOLDEN","CO",80403,39.796113211,-105.167478294,10,"5497 JOYCE CT, GOLDEN, CO, 80403","Match","Exact","5497 JOYCE CT, GOLDEN, CO, 80403",177787364,"L"
243511,"5497 MOJAVE COURT","HELENA","MT",59602,46.6524203610001,-112.043361406,11,"5497 MOJAVE COURT, HELENA, MT, 59602","Match","Exact","5497 MOJAVE CT, HELENA, MT, 59602",202357908,"R"
243512,"5497 SIERRA TRAIL","ATLANTA","GA",30349,33.6051305450001,-84.548243209,12,"5497 SIERRA TRAIL, ATLANTA, GA, 30349","Match","Exact","5497 SIERRA TRL, ATLANTA, GA, 30349",623863860,"L"
243513,"5498 ASHBURN ROAD","SPRINGFIELD","TN",37172,36.627938235,-86.844257574,13,"5498 ASHBURN ROAD, SPRINGFIELD, TN, 37172","Match","Exact","5498 ASHBURN RD, SPRINGFIELD, TN, 37172",605275490,"R"
243514,"5498 COUGAR PARK COURT","JACKSONVILLE","FL",32244,30.216857568,-81.725778916,14,"5498 COUGAR PARK COURT, JACKSONVILLE, FL, 32244","Match","Exact","5498 COUGAR PARK CT, JACKSONVILLE, FL, 32244",614102450,"R"
243515,"5498 GREYSTON STREET","PALM HARBOR","FL",34685,28.105531075,-82.679395254,15,"5498 GREYSTON STREET, PALM HARBOR, FL, 34685","Match","Exact","5498 GREYSTON ST, PALM HARBOR, FL, 34685",124749638,"R"
243516,"5498 WEEPING WILLOW DRIVE","HUDSON","OH",44236,41.2201490350001,-81.453199022,16,"5498 WEEPING WILLOW DRIVE, HUDSON, OH, 44236","Match","Exact","5498 WEEPING WILLOW DR, HUDSON, OH, 44236",61378941,"R"
243517,"5499 CR 401 SOUTH","HENDERSON","TX",75654,32.0816792110001,-94.851985653,17,"5499 CR 401 SOUTH, HENDERSON, TX, 75654","Match","Exact","5499 CO RD 401 S, HENDERSON, TX, 75654",79635283,"R"
243518,"5499 DEVONWOOD STREET","CIBOLO","TX",78108,29.6379510960001,-98.204947252,18,"5499 DEVONWOOD STREET, CIBOLO, TX, 78108","Match","Exact","5499 DEVONWOOD ST, CIBOLO, TX, 78108",649126558,"L"
243519,"5499 GREY GOOSE GULCH APT 5","CARMEL","CA",93923,36.533689128,-121.878148934,19,"5499 GREY GOOSE GULCH APT 5, CARMEL, CA, 93923","Match","Exact","5499 GREY GOOSE GULCH, CARMEL, CA, 93923",196842623,"R"
243520,"5499 HUNTER ROAD/POST OFFIC BOX 126","CALVERT","TX",77837,31.0199200600001,-96.6189388769999,20,"5499 HUNTER ROAD/POST OFFIC BOX 126, CALVERT, TX, 77837","Match","Non_Exact","5499 HUNTER RD, CALVERT, TX, 77837",647891947,"L"
243521,"5499 KEYHAVEN PLACE","ATLANTA","GA",30349,33.604980778,-84.523479805,21,"5499 KEYHAVEN PLACE, ATLANTA, GA, 30349","Match","Exact","5499 KEYHAVEN PL, ATLANTA, GA, 30349",632242961,"R"
243522,"5499 N FEDERAL HIGHWAY STE H","BOCA RATON","FL",33487,NA,NA,22,"5499 N FEDERAL HIGHWAY STE H, BOCA RATON, FL, 33487","No_Match",NA,NA,NA,NA
243523,"5499 N FEDERAL HIGHWAY STE N","BOCA RATON","FL",33487,NA,NA,23,"5499 N FEDERAL HIGHWAY STE N, BOCA RATON, FL, 33487","No_Match",NA,NA,NA,NA
243524,"5499 N FEDERAL HIGHWAY UNIT N","BOCA RATON","FL",33487,NA,NA,24,"5499 N FEDERAL HIGHWAY UNIT N, BOCA RATON, FL, 33487","No_Match",NA,NA,NA,NA
243525,"5499 WYNHALL DRIVE","NORCROSS","GA",30071,33.956738865,-84.203198157,25,"5499 WYNHALL DRIVE, NORCROSS, GA, 30071","Match","Exact","5499 WYNHALL DR, NORCROSS, GA, 30071",638947956,"L"
243526,"549A DICKMAN ROAD","FORT BLISS","TX",79906,31.798178674,-106.429606963,26,"549A DICKMAN ROAD, FORT BLISS, TX, 79906","Match","Exact","549 DICKMAN RD, FORT BLISS, TX, 79906",189381085,"R"
243527,"54B WESTLAND STREET","BOSTON","MA",2115,42.3436293300001,-71.088116182,27,"54B WESTLAND STREET, BOSTON, MA, 2115","Match","Non_Exact","54 WESTLAND AVE, BOSTON, MA, 02115",85733011,"L"
243528,"55  MEADOWGATE BLVD","BEDFORD","OH",44146,41.4080413070001,-81.534849661,28,"55  MEADOWGATE BLVD, BEDFORD, OH, 44146","Match","Exact","55 MEADOWGATE BLVD, BEDFORD, OH, 44146",61130231,"L"
243529,"55  PLYMOUTH ST","NEWARK","NJ",7106,40.7425565080001,-74.222619041,29,"55  PLYMOUTH ST, NEWARK, NJ, 7106","Match","Exact","55 PLYMOUTH ST, NEWARK, NJ, 07106",63464177,"R"
243530,"55 23RD STREET","BRISTOL","TN",37620,36.594046258,-82.207880508,30,"55 23RD STREET, BRISTOL, TN, 37620","Match","Exact","55 23RD ST, BRISTOL, TN, 37620",127841068,"R"
243531,"55 46TH STREET NE","WASHINGTON","DC",20019,38.8906825190001,-76.9367832089999,31,"55 46TH STREET NE, WASHINGTON, DC, 20019","Match","Exact","55 46TH ST NE, WASHINGTON, DC, 20019",76233497,"R"
243532,"55 AGNES ST","TEMPLE","GA",30179,33.6998554470001,-84.994507765,32,"55 AGNES ST, TEMPLE, GA, 30179","Match","Exact","55 AGNES ST, TEMPLE, GA, 30179",17117204,"L"
243533,"55 ALCOVY FOREST DR","COVINGTON","GA",30014,33.6529324540001,-83.787717125,33,"55 ALCOVY FOREST DR, COVINGTON, GA, 30014","Match","Exact","55 ALCOVY FOREST DR, COVINGTON, GA, 30014",23639063,"L"
243534,"55 ALDER STREET APT 2-S","YONKERS","NY",10701,40.9291226760001,-73.8860001629999,34,"55 ALDER STREET APT 2-S, YONKERS, NY, 10701","Match","Exact","55 ALDER ST, YONKERS, NY, 10701",139846823,"L"
243535,"55 ALHAMBRA CIRCLE","CRANSTON","RI",2905,41.7710390610001,-71.39638526,35,"55 ALHAMBRA CIRCLE, CRANSTON, RI, 2905","Match","Exact","55 ALHAMBRA CIR, CRANSTON, RI, 02905",47472149,"R"
243536,"55 ARABIAN WAY","HOLLAND","PA",18966,40.193595869,-74.9484225969999,36,"55 ARABIAN WAY, HOLLAND, PA, 18966","Match","Exact","55 ARABIAN WAY, HOLLAND, PA, 18966",134780316,"R"
243537,"55 AUDUBON STREET","NEW HAVEN","CT",6510,41.3113836250001,-72.921253295,37,"55 AUDUBON STREET, NEW HAVEN, CT, 6510","Match","Exact","55 AUDUBON ST, NEW HAVEN, CT, 06510",3745193,"R"
243538,"55 AVALON PLACE","FEEDING HILLS","MA",1030,42.081298728,-72.668247333,38,"55 AVALON PLACE, FEEDING HILLS, MA, 1030","Match","Exact","55 AVALON PL, FEEDING HILLS, MA, 01030",624530051,"L"
243539,"55 BARTLETT BAY RD","S BURLINGTON","VT",5403,44.427866571,-73.21821382,39,"55 BARTLETT BAY RD, S BURLINGTON, VT, 5403","Match","Exact","55 BARTLETT BAY RD, S BURLINGTON, VT, 05403",135855324,"R"
243540,"55 BEACONSDALE LANE","NEWPORT NEWS","VA",23601,37.063484261,-76.476023497,40,"55 BEACONSDALE LANE, NEWPORT NEWS, VA, 23601","Match","Exact","55 BEACONSDALE LN, NEWPORT NEWS, VA, 23601",103754249,"L"
243541,"55 BEAVERBROOK ROAD","ASHEVILLE","NC",28804,35.649814658,-82.556762108,41,"55 BEAVERBROOK ROAD, ASHEVILLE, NC, 28804","Match","Exact","55 BEAVERBROOK RD, ASHEVILLE, NC, 28804",630113048,"R"
243542,"55 BEECHWOOD HILL TRAIL","EXETER","RI",2822,41.526954163,-71.5334783389999,42,"55 BEECHWOOD HILL TRAIL, EXETER, RI, 2822","Match","Exact","55 BEECHWOOD HILL TRL, EXETER, RI, 02822",58910981,"L"
243543,"55 BENNETT AVENUE","HUNTINGTON STATION","NY",11746,40.8459800190001,-73.384227809,43,"55 BENNETT AVENUE, HUNTINGTON STATION, NY, 11746","Match","Exact","55 BENNETT AVE, HUNTINGTON STATION, NY, 11746",114045999,"L"
243544,"55 BENSON DR NO","LEWISTON","MN",55952,43.980163303,-91.873339892,44,"55 BENSON DR NO, LEWISTON, MN, 55952","Match","Exact","55 BENSON DR N, LEWISTON, MN, 55952",635603747,"L"
243545,"55 BERWICK ROAD","SOUTH BERWICK","ME",3908,43.237651498,-70.812602112,45,"55 BERWICK ROAD, SOUTH BERWICK, ME, 3908","Match","Exact","55 BERWICK RD, SOUTH BERWICK, ME, 03908",92788651,"L"
243546,"55 BIRCH CT","NORTH LIBERTY","IA",52317,41.741567117,-91.597039538,46,"55 BIRCH CT, NORTH LIBERTY, IA, 52317","Match","Exact","55 BIRCH CT, NORTH LIBERTY, IA, 52317",84493599,"L"
243547,"55 BIRCHWOOD DRIVE WEST","VALLEY STREAM","NY",11580,40.6786896690001,-73.7061957989999,47,"55 BIRCHWOOD DRIVE WEST, VALLEY STREAM, NY, 11580","Match","Exact","55 BIRCHWOOD DR W, VALLEY STREAM, NY, 11580",147668188,"R"
243548,"55 BLACK ALDER DR","PALM COAST","FL",32137,29.5469912520001,-81.2004248599999,48,"55 BLACK ALDER DR, PALM COAST, FL, 32137","Match","Exact","55 BLACK ALDER DR, PALM COAST, FL, 32137",94962314,"L"
243549,"55 BOGGESS ST","BUCKHANNON","WV",26201,38.9870287110001,-80.2355990459999,49,"55 BOGGESS ST, BUCKHANNON, WV, 26201","Match","Exact","55 BOGGESS ST, BUCKHANNON, WV, 26201",611597557,"L"
243550,"55 BRADLEY TERRACE","WATSONVILLE","CA",95076,36.967093623,-121.790274053,50,"55 BRADLEY TERRACE, WATSONVILLE, CA, 95076","Match","Exact","55 BRADLEY TER, WATSONVILLE, CA, 95076",125511630,"L"
243551,"55 BROADWAY FLOOR 3","NEW YORK","NY",10006,40.7066045490001,-74.012651217,51,"55 BROADWAY FLOOR 3, NEW YORK, NY, 10006","Match","Exact","55 BROADWAY, NEW YORK, NY, 10006",59659614,"L"
243552,"55 BROADWAY NO 325","GREENLAWN","NY",11740,40.8695916720001,-73.365239721,52,"55 BROADWAY NO 325, GREENLAWN, NY, 11740","Match","Non_Exact","55 BROADWAY, GREENLAWN, NY, 11740",113964547,"R"
243553,"55 BROWN HILL ROAD","BOW","NH",3304,43.13066222,-71.5741170379999,53,"55 BROWN HILL ROAD, BOW, NH, 3304","Match","Exact","55 BROWN HILL RD, BOW, NH, 03304",615523686,"R"
243554,"55 CAMPAU AVE NW SUITE 300","GRAND RAPIDS","MI",49503,42.965161079,-85.673405666,54,"55 CAMPAU AVE NW SUITE 300, GRAND RAPIDS, MI, 49503","Match","Exact","55 CAMPAU AVE NW, GRAND RAPIDS, MI, 49503",12457317,"L"
243555,"55 CAMPAU AVENUE NW SUITE 300","GRAND RAPIDS","MI",49503,42.965161079,-85.673405666,55,"55 CAMPAU AVENUE NW SUITE 300, GRAND RAPIDS, MI, 49503","Match","Exact","55 CAMPAU AVE NW, GRAND RAPIDS, MI, 49503",12457317,"L"
243556,"55 CARDINAL LANE","MANDEVILLE","LA",70471,30.386797195,-90.110119514,56,"55 CARDINAL LANE, MANDEVILLE, LA, 70471","Match","Exact","55 CARDINAL LN, MANDEVILLE, LA, 70471",111290342,"R"
243557,"55 CASTLE ROCK TRAIL","SEDONA","AZ",86336,34.8371539450001,-111.779911959,57,"55 CASTLE ROCK TRAIL, SEDONA, AZ, 86336","Match","Exact","55 CASTLE ROCK TRL, SEDONA, AZ, 86336",159474086,"L"
243558,"55 CAVENDISH DRIVE","AMBLER","PA",19002,40.1613236530001,-75.210454015,58,"55 CAVENDISH DRIVE, AMBLER, PA, 19002","Match","Exact","55 CAVENDISH DR, AMBLER, PA, 19002",135078212,"L"
243559,"55 CENTER AVE EXT","NORWALK","CT",6851,41.130237735,-73.417360651,59,"55 CENTER AVE EXT, NORWALK, CT, 6851","Match","Non_Exact","55 CENTER AVE EXD, NORWALK, CT, 06851",645550244,"L"
243560,"55 CENTER STREET","WESTPORT","CT",6880,41.1298370210001,-73.330022239,60,"55 CENTER STREET, WESTPORT, CT, 6880","Match","Exact","55 CENTER ST, WESTPORT, CT, 06880",3238915,"L"
243561,"55 CHANNING AVENUE","PORTSMOUTH","VA",23702,36.799440874,-76.317146658,61,"55 CHANNING AVENUE, PORTSMOUTH, VA, 23702","Match","Exact","55 CHANNING AVE, PORTSMOUTH, VA, 23702",122195794,"L"
243562,"55 CHRISTIANS DRIVE","HANOVER","PA",17331,39.7535106440001,-76.962467649,62,"55 CHRISTIANS DRIVE, HANOVER, PA, 17331","Match","Exact","55 CHRISTIANS DR, HANOVER, PA, 17331",613694683,"R"
243563,"55 CHURCH STREET","BRIDGEVILLE","DE",19933,38.7497736620001,-75.602550094,63,"55 CHURCH STREET, BRIDGEVILLE, DE, 19933","Match","Exact","55 CHURCH ST, BRIDGEVILLE, DE, 19933",106083544,"L"
243564,"55 CHURCHILL STREET","SUDBURY","MA",1776,42.3871820640001,-71.4335002179999,64,"55 CHURCHILL STREET, SUDBURY, MA, 1776","Match","Exact","55 CHURCHILL ST, SUDBURY, MA, 01776",87088058,"R"
243565,"55 CLINTON PLACE APT 203","HACKENSACK","NJ",7601,40.895104689,-74.041767606,65,"55 CLINTON PLACE APT 203, HACKENSACK, NJ, 7601","Match","Exact","55 CLINTON PL, HACKENSACK, NJ, 07601",64434402,"L"
243566,"55 COMMERCIAL AVE","NEW BRUNSWICK","NJ",8901,40.487900951,-74.439233886,66,"55 COMMERCIAL AVE, NEW BRUNSWICK, NJ, 8901","Match","Exact","55 COMMERCIAL AVE, NEW BRUNSWICK, NJ, 08901",647258125,"R"
243567,"55 CONSTANCE LN","NORTHBROOK","IL",60062,42.1516981720001,-87.881260966,67,"55 CONSTANCE LN, NORTHBROOK, IL, 60062","Match","Exact","55 CONSTANCE LN, NORTHBROOK, IL, 60062",640605321,"R"
243568,"55 CONSTITUTION DR","BEDFORD","NH",3110,42.95622581,-71.500729361,68,"55 CONSTITUTION DR, BEDFORD, NH, 3110","Match","Exact","55 CONSTITUTION DR, BEDFORD, NH, 03110",113558830,"R"
243569,"55 CONSTITUTION DRIVE","BEDFORD","NH",3110,42.95622581,-71.500729361,69,"55 CONSTITUTION DRIVE, BEDFORD, NH, 3110","Match","Exact","55 CONSTITUTION DR, BEDFORD, NH, 03110",113558830,"R"
243570,"55 COVE CIRCLE","BROWNSVILLE","TX",78521,25.9407379250001,-97.489149287,70,"55 COVE CIRCLE, BROWNSVILLE, TX, 78521","Match","Exact","55 COVE CIR, BROWNSVILLE, TX, 78521",89964609,"L"
243571,"55 CREEK BANK COURT","ACWORTH","GA",30101,34.0542768380001,-84.773275056,71,"55 CREEK BANK COURT, ACWORTH, GA, 30101","Match","Exact","55 CREEK BANK CT, ACWORTH, GA, 30101",17750019,"L"
243572,"55 CREST PLACE","GADSDEN","AL",35901,33.938851087,-85.966718992,72,"55 CREST PLACE, GADSDEN, AL, 35901","Match","Exact","55 CREST PL, GADSDEN, AL, 35901",66781050,"L"
243573,"55 CRICKET LANE","TURNERSVILLE","NJ",8012,39.7507770060001,-75.061707726,73,"55 CRICKET LANE, TURNERSVILLE, NJ, 8012","Match","Exact","55 CRICKET LN, TURNERSVILLE, NJ, 08012",134596648,"R"
243574,"55 CURTIS AVENUE","WOODBURY","NJ",8096,39.8364492960001,-75.151718069,74,"55 CURTIS AVENUE, WOODBURY, NJ, 8096","Match","Exact","55 CURTIS AVE, WOODBURY, NJ, 08096",134583307,"R"
243575,"55 DENNIS KNIGHT ROAD","COLLINS","MS",39428,31.6521327930001,-89.505740951,75,"55 DENNIS KNIGHT ROAD, COLLINS, MS, 39428","Match","Exact","55 DENNIS KNIGHT RD, COLLINS, MS, 39428",2922808,"R"
243576,"55 DORRANCE STREET","PROVIDENCE","RI",2903,41.8233754180001,-71.4113672409999,76,"55 DORRANCE STREET, PROVIDENCE, RI, 2903","Match","Exact","55 DORRANCE ST, PROVIDENCE, RI, 02903",47465855,"R"
243577,"55 DOSCHER STREER","BROOKLYN","NY",11208,40.6760924910001,-73.8728576249999,77,"55 DOSCHER STREER, BROOKLYN, NY, 11208","Match","Non_Exact","55 DOSCHER ST, BROOKLYN, NY, 11208",59095226,"L"
243578,"55 DUNBAR STREET","CHATHAM","NJ",7928,40.745374166,-74.386499805,78,"55 DUNBAR STREET, CHATHAM, NJ, 7928","Match","Exact","55 DUNBAR ST, CHATHAM, NJ, 07928",60450582,"L"
243579,"55 DUNMORE CT","FALLING WATERS","WV",25419,39.57431274,-77.880874908,79,"55 DUNMORE CT, FALLING WATERS, WV, 25419","Match","Exact","55 DUNMORE CT, FALLING WATERS, WV, 25419",618014238,"L"
243580,"55 DUSK DR","NEW ROCHELLE","NY",10804,40.9529317060001,-73.783284809,80,"55 DUSK DR, NEW ROCHELLE, NY, 10804","Match","Exact","55 DUSK DR, NEW ROCHELLE, NY, 10804",139749545,"R"
243581,"55 E 21ST","BROOKLYN","NY",11226,40.653328275,-73.960560168,81,"55 E 21ST, BROOKLYN, NY, 11226","Match","Non_Exact","55 E 21ST ST, BROOKLYN, NY, 11226",59078568,"L"
243582,"55 E 3RD AVE","SAN MATEO","CA",94401,37.563721322,-122.324975291,82,"55 E 3RD AVE, SAN MATEO, CA, 94401","Match","Exact","55 E 3RD AVE, SAN MATEO, CA, 94401",192377889,"L"
243583,"55 E CIRCLE DR","EAST LONGMEADOW","MA",1028,42.076810188,-72.496339325,83,"55 E CIRCLE DR, EAST LONGMEADOW, MA, 1028","Match","Exact","55 E CIRCLE DR, E LONGMEADOW, MA, 01028",4060073,"R"
243584,"55 E GARFIELD  UNIT 609","CHICAGO","IL",60637,NA,NA,84,"55 E GARFIELD  UNIT 609, CHICAGO, IL, 60637","No_Match",NA,NA,NA,NA
243585,"55 E GRANADA BLVD UNIT 1553","ORMOND BEACH","FL",32175,NA,NA,85,"55 E GRANADA BLVD UNIT 1553, ORMOND BEACH, FL, 32175","No_Match",NA,NA,NA,NA
243586,"55 E GREYHOUND PASS","CARMEL","IN",46032,40.0081073370001,-86.14567984,86,"55 E GREYHOUND PASS, CARMEL, IN, 46032","Match","Exact","55 E GREYHOUND PASS, CARMEL, IN, 46032",29290069,"L"
243587,"55 E HUNTINGTON DR STE 108","ARCADIA","CA",91006,34.140076827,-118.029719236,87,"55 E HUNTINGTON DR STE 108, ARCADIA, CA, 91006","Match","Non_Exact","55 E HUNTINGTON DR, ARCADIA, CA, 91006",141645113,"L"
243588,"55 E JACKSON BLVD SUITE 490","CHICAGO","IL",60604,NA,NA,88,"55 E JACKSON BLVD SUITE 490, CHICAGO, IL, 60604","Tie",NA,NA,NA,NA
243589,"55 E LAWN DRIVE","COVINGTON","GA",30016,33.578200458,-83.914521349,89,"55 E LAWN DRIVE, COVINGTON, GA, 30016","Match","Exact","55 E LAWN DR, COVINGTON, GA, 30016",23638285,"R"
243590,"55 E LINCOLN RD STE 102","SPOKANE","WA",99208,47.7294468210001,-117.410223815,90,"55 E LINCOLN RD STE 102, SPOKANE, WA, 99208","Match","Non_Exact","55 E LINCOLN RD, SPOKANE, WA, 99208",636107860,"L"
243591,"55 E LONG LAKE RD NUM 401","TROY","MI",48085,42.591711715,-83.146733304,91,"55 E LONG LAKE RD NUM 401, TROY, MI, 48085","Match","Non_Exact","55 E LONG LAKE RD, TROY, MI, 48085",630321929,"L"
243592,"55 E LONG LAKE ROAD    SUITE 348","TROY","MI",48085,42.591711715,-83.146733304,92,"55 E LONG LAKE ROAD    SUITE 348, TROY, MI, 48085","Match","Non_Exact","55 E LONG LAKE RD, TROY, MI, 48085",630321929,"L"
243593,"55 E MONROE STREET SUITE 3800","CHICAGO","IL",60603,41.8807888360001,-87.6259593949999,93,"55 E MONROE STREET SUITE 3800, CHICAGO, IL, 60603","Match","Non_Exact","55 E MONROE ST, CHICAGO, IL, 60603",605109915,"R"
243594,"55 E NORTH AVENUE","NORTHLAKE","IL",60164,41.9084972570001,-87.919175152,94,"55 E NORTH AVENUE, NORTHLAKE, IL, 60164","Match","Non_Exact","55 NORTHWEST AVE, NORTHLAKE, IL, 60164",111867022,"R"
243595,"55 E RICHMOND STREET","WESTMONT","IL",60559,41.793728183,-87.9729491479999,95,"55 E RICHMOND STREET, WESTMONT, IL, 60559","Match","Exact","55 E RICHMOND ST, WESTMONT, IL, 60559",112548066,"R"
243596,"55 E RUSSET GROVE CIRCLE","THE WOODLANDS","TX",77384,30.224922506,-95.5059053099999,96,"55 E RUSSET GROVE CIRCLE, THE WOODLANDS, TX, 77384","Match","Exact","55 E RUSSET GROVE CIR, THE WOODLANDS, TX, 77384",79332182,"L"
243597,"55 E VILLA STREET","Pasadena","CA",91103,34.1541228460001,-118.149662269,97,"55 E VILLA STREET, Pasadena, CA, 91103","Match","Exact","55 E VILLA ST, PASADENA, CA, 91103",141627983,"L"
243598,"55 EAST 18TH STREET","ANTIOCH","CA",94509,38.004883206,-121.803857101,98,"55 EAST 18TH STREET, ANTIOCH, CA, 94509","Match","Exact","55 E 18TH ST, ANTIOCH, CA, 94509",192032635,"L"
243599,"55 EAST 200 SOUTH","ORANGEVILLE","UT",84537,39.2249025080001,-111.052105177,99,"55 EAST 200 SOUTH, ORANGEVILLE, UT, 84537","Match","Exact","55 E 200 S, ORANGEVILLE, UT, 84537",133669543,"R"
243600,"55 EAST 3RD STREET","SAN MATEO","CA",94401,37.563709112,-122.324992812,100,"55 EAST 3RD STREET, SAN MATEO, CA, 94401","Match","Non_Exact","55 E 3RD AVE, SAN MATEO, CA, 94401",192377889,"L"
243601,"55 EAST 40TH STREET","BROOKLYN","NY",11203,40.6544646420001,-73.940357782,101,"55 EAST 40TH STREET, BROOKLYN, NY, 11203","Match","Exact","55 E 40TH ST, BROOKLYN, NY, 11203",59079867,"L"
243602,"55 EAST 84TH STREET","NEW YORK","NY",10028,40.7793146230001,-73.959217114,102,"55 EAST 84TH STREET, NEW YORK, NY, 10028","Match","Exact","55 E 84TH ST, NEW YORK, NY, 10028",59657336,"L"
243603,"55 EAST CUTHBERT BLVD","HADDON TOWNSHIP","NJ",8108,39.914579039,-75.056332545,103,"55 EAST CUTHBERT BLVD, HADDON TOWNSHIP, NJ, 8108","Match","Exact","55 E CUTHBERT BLVD, HADDON TOWNSHIP, NJ, 08108",642883426,"L"
243604,"55 EAST LONG LAKE RD  BOX 239","TROY","MI",48085,42.5917121420001,-83.146712817,104,"55 EAST LONG LAKE RD  BOX 239, TROY, MI, 48085","Match","Exact","55 E LONG LAKE RD, TROY, MI, 48085",630321929,"L"
243605,"55 EAST MONROE STREET","CHICAGO","IL",60603,41.880788706,-87.625964613,105,"55 EAST MONROE STREET, CHICAGO, IL, 60603","Match","Exact","55 E MONROE ST, CHICAGO, IL, 60603",605109915,"R"
243606,"55 EAST TERRACE","PORTSMOUTH","RI",2871,41.5711868710001,-71.24000733,106,"55 EAST TERRACE, PORTSMOUTH, RI, 2871","Match","Exact","55 EAST TER, PORTSMOUTH, RI, 02871",624837641,"R"
243607,"55 EAST WAY","MOUNT KISCO","NY",10549,41.1877509060001,-73.7353539539999,107,"55 EAST WAY, MOUNT KISCO, NY, 10549","Match","Exact","55 EAST WAY, MOUNT KISCO, NY, 10549",139758898,"L"
243608,"55 EASTERN PARKWAY","HILLSIDE","NJ",7205,40.701906331,-74.2466565349999,108,"55 EASTERN PARKWAY, HILLSIDE, NJ, 7205","Match","Exact","55 EASTERN PKWY, HILLSIDE, NJ, 07205",60598519,"L"
243609,"55 EBERHARDT RD","EAST HANOVER","NJ",7936,40.829656878,-74.34768841,109,"55 EBERHARDT RD, EAST HANOVER, NJ, 7936","Match","Exact","55 EBERHARDT RD, EAST HANOVER, NJ, 07936",60448588,"R"
243610,"55 ELM STREET","CARTERET","NJ",7008,40.5825133370001,-74.232800458,110,"55 ELM STREET, CARTERET, NJ, 7008","Match","Exact","55 ELM ST, CARTERET, NJ, 07008",60276614,"L"
243611,"55 EMERALD CT","SATELLITE BEACH","FL",32937,28.1850547870001,-80.6067311589999,111,"55 EMERALD CT, SATELLITE BEACH, FL, 32937","Match","Exact","55 EMERALD CT, SATELLITE BEACH, FL, 32937",93927451,"L"
243612,"55 EMERALD DR","DRACUT","MA",1826,42.715956498,-71.2700822529999,112,"55 EMERALD DR, DRACUT, MA, 1826","Match","Exact","55 EMERALD DR, DRACUT, MA, 01826",86919549,"R"
243613,"55 EMMETT PL","YONKERS","NY",10703,40.958611327,-73.879683998,113,"55 EMMETT PL, YONKERS, NY, 10703","Match","Exact","55 EMMETT PL, YONKERS, NY, 10703",139744149,"L"
243614,"55 ESSEX ST APT 606","CAMBRIDGE","MA",2139,42.3674212620001,-71.1011919759999,114,"55 ESSEX ST APT 606, CAMBRIDGE, MA, 2139","Match","Exact","55 ESSEX ST, CAMBRIDGE, MA, 02139",86870040,"L"
243615,"55 ESSEX STREET APT 606","CAMBRIDGE","MA",2139,42.3674212620001,-71.1011919759999,115,"55 ESSEX STREET APT 606, CAMBRIDGE, MA, 2139","Match","Exact","55 ESSEX ST, CAMBRIDGE, MA, 02139",86870040,"L"
243616,"55 FAIR DRIVE","COSTA MESA","CA",92626,33.6638718400001,-117.904366197,116,"55 FAIR DRIVE, COSTA MESA, CA, 92626","Match","Exact","55 FAIR DR, COSTA MESA, CA, 92626",144076815,"L"
243617,"55 FAREWELL STREET","NEWPORT","RI",2840,NA,NA,117,"55 FAREWELL STREET, NEWPORT, RI, 2840","No_Match",NA,NA,NA,NA
243618,"55 FARMHILL ROAD","WRENTHAM","MA",2093,42.02788295,-71.433593517,118,"55 FARMHILL ROAD, WRENTHAM, MA, 2093","Match","Non_Exact","55 FARM HILL RD, WRENTHAM, MA, 02093",87260033,"R"
243619,"55 FILLMORE STREET","SAN FRANCISCO","CA",94117,37.769863709,-122.430003281,119,"55 FILLMORE STREET, SAN FRANCISCO, CA, 94117","Match","Exact","55 FILLMORE ST, SAN FRANCISCO, CA, 94117",192284018,"L"
243620,"55 FIRE ROAD 10","LANCASTER","MA",1523,42.5158557930001,-71.6909669889999,120,"55 FIRE ROAD 10, LANCASTER, MA, 1523","Match","Exact","55 FIRE RD 10, LANCASTER, MA, 01523",40031423,"R"
243621,"55 FIRST STREET","PELHAM","NY",10803,40.911063427,-73.8117239859999,121,"55 FIRST STREET, PELHAM, NY, 10803","Match","Exact","55 1ST ST, PELHAM, NY, 10803",139749141,"R"
243622,"55 FIVE CENT RANCH ROAD","REPUBLIC","WA",99166,48.6357462120001,-118.718514326,122,"55 FIVE CENT RANCH ROAD, REPUBLIC, WA, 99166","Match","Exact","55 5 CENT RANCH RD, REPUBLIC, WA, 99166",635754309,"R"
243623,"55 FOURTH ST","FAIR HAVEN","VT",5743,43.6010047990001,-73.270798298,123,"55 FOURTH ST, FAIR HAVEN, VT, 5743","Match","Exact","55 4TH ST, FAIR HAVEN, VT, 05743",641174400,"R"
243624,"55 FREEDOM DRIVE NE","CARTERSVILLE","GA",30121,34.212046291,-84.790298534,124,"55 FREEDOM DRIVE NE, CARTERSVILLE, GA, 30121","Match","Exact","55 FREEDOM DR NE, CARTERSVILLE, GA, 30121",639485969,"L"
243625,"55 FRUIT STREET WHT535","BOSTON","MA",2114,42.3624334570001,-71.0698290939999,125,"55 FRUIT STREET WHT535, BOSTON, MA, 2114","Match","Exact","55 FRUIT ST, BOSTON, MA, 02114",642551691,"R"
243626,"55 GATES STREET","SLOAN","NY",14212,42.8933999120001,-78.793045429,126,"55 GATES STREET, SLOAN, NY, 14212","Match","Exact","55 GATES ST, SLOAN, NY, 14212",48303577,"R"
243627,"55 GILMER ST SE","ATLANTA","GA",30303,33.7538954670001,-84.385866157,127,"55 GILMER ST SE, ATLANTA, GA, 30303","Match","Exact","55 GILMER ST SE, ATLANTA, GA, 30303",17344579,"R"
243628,"55 GIRARD AVE","HARTFORD","CT",6106,NA,NA,128,"55 GIRARD AVE, HARTFORD, CT, 6106","No_Match",NA,NA,NA,NA
243629,"55 GLEN STREET","DOVER","MA",2030,42.244874688,-71.318987329,129,"55 GLEN STREET, DOVER, MA, 2030","Match","Exact","55 GLEN ST, DOVER, MA, 02030",87237523,"L"
243630,"55 GLENWOOD DRIVE","WARWICK","RI",2889,41.729937352,-71.3986742069999,130,"55 GLENWOOD DRIVE, WARWICK, RI, 2889","Match","Exact","55 GLENWOOD DR, WARWICK, RI, 02889",159148926,"R"
243631,"55 GRAY FOX RUN  STE 1","CAMDENTON","MO",65020,38.1310849750001,-92.8146145009999,131,"55 GRAY FOX RUN  STE 1, CAMDENTON, MO, 65020","Match","Exact","55 GRAY FOX RUN, CAMDENTON, MO, 65020",22870972,"R"
243632,"55 GREENWICH ROAD","AMHERST","MA",1002,42.334468503,-72.529769985,132,"55 GREENWICH ROAD, AMHERST, MA, 1002","Match","Exact","55 GREENWICH RD, AMHERST, MA, 01002",39868543,"L"
243633,"55 GROUNDS DR","SEDONA","AZ",86336,34.8691568290001,-111.793910689,133,"55 GROUNDS DR, SEDONA, AZ, 86336","Match","Exact","55 GROUNDS DR, SEDONA, AZ, 86336",159473911,"L"
243634,"55 HAMILTON AVE","OYSTER BAY","NY",11771,40.874107725,-73.5310199099999,134,"55 HAMILTON AVE, OYSTER BAY, NY, 11771","Match","Exact","55 HAMILTON AVE, OYSTER BAY, NY, 11771",147622500,"L"
243635,"55 HAMILTON DRIVE","PORTSMOUTH","RI",2871,41.5901242840001,-71.2513735489999,135,"55 HAMILTON DRIVE, PORTSMOUTH, RI, 2871","Match","Exact","55 HAMILTON DR, PORTSMOUTH, RI, 02871",623996135,"R"
243636,"55 HARRFISTOWN RD SUITE 106","GLEN ROCK","NJ",7452,40.948636154,-74.144370829,136,"55 HARRFISTOWN RD SUITE 106, GLEN ROCK, NJ, 7452","Match","Non_Exact","55 HARRISTOWN RD, GLEN ROCK, NJ, 07452",64405453,"L"
243637,"55 HARRISTOWN ROAD   SUITE 106","GLEN ROCK","NJ",7452,40.948636154,-74.144370829,137,"55 HARRISTOWN ROAD   SUITE 106, GLEN ROCK, NJ, 7452","Match","Exact","55 HARRISTOWN RD, GLEN ROCK, NJ, 07452",64405453,"L"
243638,"55 HARRISTOWN ROAD SUITE 106","GLEN ROCK","NJ",7452,40.948636154,-74.144370829,138,"55 HARRISTOWN ROAD SUITE 106, GLEN ROCK, NJ, 7452","Match","Exact","55 HARRISTOWN RD, GLEN ROCK, NJ, 07452",64405453,"L"
243639,"55 HARRISTOWN ROAD SUTE 106","GLEN ROCK","NJ",7452,40.948636154,-74.144370829,139,"55 HARRISTOWN ROAD SUTE 106, GLEN ROCK, NJ, 7452","Match","Exact","55 HARRISTOWN RD, GLEN ROCK, NJ, 07452",64405453,"L"
243640,"55 HEWITT STREET","ROCHESTER","NY",14612,43.2446260580001,-77.619797798,140,"55 HEWITT STREET, ROCHESTER, NY, 14612","Match","Exact","55 HEWITT ST, ROCHESTER, NY, 14612",635860774,"L"
243641,"55 HICKORY ROAD","WOODBRIDGE","CT",6525,41.3610881050001,-73.029856164,141,"55 HICKORY ROAD, WOODBRIDGE, CT, 6525","Match","Exact","55 HICKORY RD, WOODBRIDGE, CT, 06525",3732353,"R"
243642,"55 HOLLOWAY RD","ROBBINSVILLE","NC",28771,35.3522916380001,-83.787826883,142,"55 HOLLOWAY RD, ROBBINSVILLE, NC, 28771","Match","Exact","55 HOLLOWAY RD, ROBBINSVILLE, NC, 28771",35962242,"L"
243643,"55 HOSMER STREET","WEST BOYLSTON","MA",1583,42.394884145,-71.803557424,143,"55 HOSMER STREET, WEST BOYLSTON, MA, 1583","Match","Exact","55 HOSMER ST, WEST BOYLSTON, MA, 01583",645570383,"L"
243644,"55 HUDSON AVE","MAPLEWOOD","NJ",7040,40.734442534,-74.252797217,144,"55 HUDSON AVE, MAPLEWOOD, NJ, 7040","Match","Exact","55 HUDSON AVE, MAPLEWOOD, NJ, 07040",63463073,"R"
243645,"55 HUMMINGBIRD LANE","ORMOND BEACH","FL",32174,29.2740318510001,-81.1025052109999,145,"55 HUMMINGBIRD LANE, ORMOND BEACH, FL, 32174","Match","Exact","55 HUMMINGBIRD LN, ORMOND BEACH, FL, 32174",94515930,"R"
243646,"55 ILION STREET","TONAWANDA","NY",14150,43.0034084760001,-78.872574769,146,"55 ILION STREET, TONAWANDA, NY, 14150","Match","Exact","55 ILION ST, TONAWANDA, NY, 14150",48287527,"L"
243647,"55 JACOB STREET","NEWARK","NJ",7103,40.7345297250001,-74.2008986719999,147,"55 JACOB STREET, NEWARK, NJ, 7103","Match","Exact","55 JACOB ST, NEWARK, NJ, 07103",63496017,"L"
243648,"55 JAMES NECK","SAINT JAMES","NY",11780,40.903997501,-73.2097822859999,148,"55 JAMES NECK, SAINT JAMES, NY, 11780","Match","Exact","55 JAMES NCK, SAINT JAMES, NY, 11780",625844067,"R"
243649,"55 JEFFREY DRIVE","AMHERST","NY",14228,43.031275388,-78.797469599,149,"55 JEFFREY DRIVE, AMHERST, NY, 14228","Match","Exact","55 JEFFREY DR, AMHERST, NY, 14228",48284968,"R"
243650,"55 JENSEN RD","SAYREVILLE","NJ",8872,40.456782251,-74.3489343859999,150,"55 JENSEN RD, SAYREVILLE, NJ, 8872","Match","Exact","55 JENSEN RD, SAYREVILLE, NJ, 08872",60281994,"R"
243651,"55 JEWELERS PARK DRIVE SUITE 400","NEENAH","WI",54956,44.1625958970001,-88.4846941059999,151,"55 JEWELERS PARK DRIVE SUITE 400, NEENAH, WI, 54956","Match","Exact","55 JEWELERS PARK DR, NEENAH, WI, 54956",74517511,"R"
243652,"55 JOHN CLARKE ROAD SUITE B1","MIDDLETOWN","RI",2842,41.5021033100001,-71.286362012,152,"55 JOHN CLARKE ROAD SUITE B1, MIDDLETOWN, RI, 2842","Match","Exact","55 JOHN CLARKE RD, MIDDLETOWN, RI, 02842",47353993,"R"
243653,"55 JUNIPER RD","CENTERVILLE","MA",2632,41.6609060640001,-70.3394566709999,153,"55 JUNIPER RD, CENTERVILLE, MA, 2632","Match","Exact","55 JUNIPER RD, CENTERVILLE, MA, 02632",121556377,"L"
243654,"55 KNOLLS CRESCENT APT 11J","BRONX","NY",10463,40.878848453,-73.918293532,154,"55 KNOLLS CRESCENT APT 11J, BRONX, NY, 10463","Match","Exact","55 KNOLLS CRES, BRONX, NY, 10463",80312926,"L"
243655,"55 LA SALLE STREET APT 20A","NEW YORK","NY",10027,40.8127630980001,-73.957172698,155,"55 LA SALLE STREET APT 20A, NEW YORK, NY, 10027","Match","Non_Exact","55 LA SALLE ST, NEW YORK, NY, 10027",610217344,"R"
243656,"55 LAFAYETTE ROAD","NORTH HAMPTON","NH",3862,42.997536558,-70.815996884,156,"55 LAFAYETTE ROAD, NORTH HAMPTON, NH, 3862","Match","Non_Exact","55 LAFAYETTE TER, NORTH HAMPTON, NH, 03862",113675616,"R"
243657,"55 LAKE DELAWARE DRIVE","DELHI","NY",13753,42.2464596890001,-74.8285445559999,157,"55 LAKE DELAWARE DRIVE, DELHI, NY, 13753","Match","Exact","55 LAKE DELAWARE DR, DELHI, NY, 13753",41567057,"R"
243658,"55 LAKE HAVASU AVE S  F165","LAKE HAVASU CITY","AZ",86403,34.4730734880001,-114.342996279,158,"55 LAKE HAVASU AVE S  F165, LAKE HAVASU CITY, AZ, 86403","Match","Exact","55 LAKE HAVASU AVE S, LAKE HAVASU CITY, AZ, 86403",608968526,"L"
243659,"55 LAKE HAVASU AVE S SUITE F-250","Lake Havasu City","AZ",86403,34.4730734880001,-114.342996279,159,"55 LAKE HAVASU AVE S SUITE F-250, Lake Havasu City, AZ, 86403","Match","Exact","55 LAKE HAVASU AVE S, LAKE HAVASU CITY, AZ, 86403",608968526,"L"
243660,"55 LAKESIDE RD","MOUNT DESERT","ME",4660,44.3361393120001,-68.345120767,160,"55 LAKESIDE RD, MOUNT DESERT, ME, 4660","Match","Exact","55 LAKESIDE RD, MOUNT DESERT, ME, 04660",624893417,"R"
243661,"55 LANIER RDG","ACWORTH","GA",30101,34.044927193,-84.7613209739999,161,"55 LANIER RDG, ACWORTH, GA, 30101","Match","Exact","55 LANIER RIDGE, ACWORTH, GA, 30101",645834168,"L"
243662,"55 LITTLE COMFORT ROAD","SAVANNAH","GA",31411,31.928619477,-81.0368493559999,162,"55 LITTLE COMFORT ROAD, SAVANNAH, GA, 31411","Match","Exact","55 LITTLE COMFORT RD, SAVANNAH, GA, 31411",6198052,"R"
243663,"55 LONG HILL TERRACE","NEW HAVEN","CT",6515,41.3282816760001,-72.98488378,163,"55 LONG HILL TERRACE, NEW HAVEN, CT, 6515","Match","Exact","55 LONG HILL TER, NEW HAVEN, CT, 06515",3697165,"R"
243664,"55 LOST CREEK LANE","BUENA VISTA","VA",24416,37.8138556070001,-79.339735355,164,"55 LOST CREEK LANE, BUENA VISTA, VA, 24416","Match","Exact","55 LOST CREEK LN, BUENA VISTA, VA, 24416",63130162,"L"
243665,"55 LUZANNE CIRCLE","SAN ANSELMO","CA",94960,38.0119048,-122.580791249,165,"55 LUZANNE CIRCLE, SAN ANSELMO, CA, 94960","Match","Exact","55 LUZANNE CIR, SAN ANSELMO, CA, 94960",605759966,"L"
243666,"55 MADISON AVE STE 424","MORRISTOWN","NJ",7960,NA,NA,166,"55 MADISON AVE STE 424, MORRISTOWN, NJ, 7960","Tie",NA,NA,NA,NA
243667,"55 MADISON AVE SUITE 400","MORRISTOWN","NJ",7960,NA,NA,167,"55 MADISON AVE SUITE 400, MORRISTOWN, NJ, 7960","Tie",NA,NA,NA,NA
243668,"55 MADISON AVENUE SUITE 400","MORRISTOWN","NJ",7960,NA,NA,168,"55 MADISON AVENUE SUITE 400, MORRISTOWN, NJ, 7960","Tie",NA,NA,NA,NA
243669,"55 MAIN STREET SUITE 101","WOONSOCKET","RI",2895,42.0016901650001,-71.5152019829999,169,"55 MAIN STREET SUITE 101, WOONSOCKET, RI, 2895","Match","Exact","55 MAIN ST, WOONSOCKET, RI, 02895",47489689,"R"
243670,"55 MAIN STREET","EAST ROCHESTER","NH",3868,NA,NA,170,"55 MAIN STREET, EAST ROCHESTER, NH, 3868","No_Match",NA,NA,NA,NA
243671,"55 MALLORY AVENUE - 60","JERSEY CITY","NJ",7305,NA,NA,171,"55 MALLORY AVENUE - 60, JERSEY CITY, NJ, 7305","No_Match",NA,NA,NA,NA
243672,"55 MARBELLA DRIVE","RANCHO MIRAGE","CA",92270,33.7361569760001,-116.401003446,172,"55 MARBELLA DRIVE, RANCHO MIRAGE, CA, 92270","Match","Exact","55 MARBELLA DR, RANCHO MIRAGE, CA, 92270",194769277,"L"
243673,"55 MARLOW DR APT 3","OAKLAND","CA",94605,37.735776431,-122.138686952,173,"55 MARLOW DR APT 3, OAKLAND, CA, 94605","Match","Exact","55 MARLOW DR, OAKLAND, CA, 94605",606085174,"L"
243674,"55 MARTHA ROAD","BOSTON","MA",2114,42.365770325,-71.065332403,174,"55 MARTHA ROAD, BOSTON, MA, 2114","Match","Exact","55 MARTHA RD, BOSTON, MA, 02114",639506731,"R"
243675,"55 MCLAUGHLIN DRIVE","GREENSBURG","PA",15601,40.3234686600001,-79.5424287769999,175,"55 MCLAUGHLIN DRIVE, GREENSBURG, PA, 15601","Match","Exact","55 MCLAUGHLIN DR, GREENSBURG, PA, 15601",615516433,"L"
243676,"55 MEADOW STREET SUITE 222","BROOKLYN","NY",11206,40.711047792,-73.9350597059999,176,"55 MEADOW STREET SUITE 222, BROOKLYN, NY, 11206","Match","Exact","55 MEADOW ST, BROOKLYN, NY, 11206",59077343,"L"
243677,"55 MELBOURNE ROAD","HYANNIS","MA",2601,41.6433463810001,-70.31241106,177,"55 MELBOURNE ROAD, HYANNIS, MA, 2601","Match","Exact","55 MELBOURNE RD, HYANNIS, MA, 02601",121557033,"L"
243678,"55 MERIDIAN PARKWAY SUITE 103","MARTINSBURG","WV",25404,NA,NA,178,"55 MERIDIAN PARKWAY SUITE 103, MARTINSBURG, WV, 25404","No_Match",NA,NA,NA,NA
243679,"55 MINERVA STREET","SAN FRANCISCO","CA",94112,37.7157434980001,-122.454429413,179,"55 MINERVA STREET, SAN FRANCISCO, CA, 94112","Match","Exact","55 MINERVA ST, SAN FRANCISCO, CA, 94112",192299354,"L"
243680,"55 MITCHELL BLVD  SUITE 16","SAN RAFAEL","CA",94903,38.0169200510001,-122.53827438,180,"55 MITCHELL BLVD  SUITE 16, SAN RAFAEL, CA, 94903","Match","Exact","55 MITCHELL BLVD, SAN RAFAEL, CA, 94903",192762421,"L"
243681,"55 MOHAWK PATH TRL","THE WOODLANDS","TX",77389,30.1412721350001,-95.52448255,181,"55 MOHAWK PATH TRL, THE WOODLANDS, TX, 77389","Match","Exact","55 MOHAWK PATH TRL, THE WOODLANDS, TX, 77389",624605806,"R"
243682,"55 MONTGOMERY ST","PARISH","NY",13131,43.402485723,-76.12980397,182,"55 MONTGOMERY ST, PARISH, NY, 13131","Match","Exact","55 MONTGOMERY ST, PARISH, NY, 13131",57806565,"L"
243683,"55 MORNINGSIDE DRIVE","LONGMEADOW","MA",1106,42.045717241,-72.580072812,183,"55 MORNINGSIDE DRIVE, LONGMEADOW, MA, 1106","Match","Exact","55 MORNINGSIDE DR, LONGMEADOW, MA, 01106",4038133,"R"
243684,"55 N HILLSIDE RD","CANFIELD","OH",44406,41.026457259,-80.74996299,184,"55 N HILLSIDE RD, CANFIELD, OH, 44406","Match","Exact","55 N HILLSIDE RD, CANFIELD, OH, 44406",64593098,"L"
243685,"55 N LOUDVILLE ROAD","FLORENCE","MA",1062,NA,NA,185,"55 N LOUDVILLE ROAD, FLORENCE, MA, 1062","Tie",NA,NA,NA,NA
243686,"55 N MULBERRY ST","MANSFIELD","OH",44902,40.759996755,-82.517886262,186,"55 N MULBERRY ST, MANSFIELD, OH, 44902","Match","Exact","55 N MULBERRY ST, MANSFIELD, OH, 44902",12833395,"L"
243687,"55 N PARK AVE UNIT 3402","TUCSON","AZ",85719,32.2217203660001,-110.956349387,187,"55 N PARK AVE UNIT 3402, TUCSON, AZ, 85719","Match","Non_Exact","55 N PARK AVE, TUCSON, AZ, 85719",121171383,"L"
243688,"55 N RAILROAD STREET","REBECCA","GA",31783,31.81034893,-83.493007926,188,"55 N RAILROAD STREET, REBECCA, GA, 31783","Match","Exact","55 N RAILROAD ST, REBECCA, GA, 31783",642894051,"L"
243689,"55 N ROUTE 9W","WEST HAVERSTRAW","NY",10993,41.212166918,-73.982139001,189,"55 N ROUTE 9W, WEST HAVERSTRAW, NY, 10993","Match","Non_Exact","55 NORTH ST, W HAVERSTRAW, NY, 10993",124591495,"R"
243690,"55 N ROUTE O","ROCHEPORT","MO",65279,38.9548407520001,-92.49607101,190,"55 N ROUTE O, ROCHEPORT, MO, 65279","Match","Exact","55 RTE O, ROCHEPORT, MO, 65279",633440721,"R"
243691,"55 NEW MONMOUTH ROAD","MIDDLETOWN","NJ",7748,40.4045294320001,-74.109933333,191,"55 NEW MONMOUTH ROAD, MIDDLETOWN, NJ, 7748","Match","Exact","55 NEW MONMOUTH RD, MIDDLETOWN, NJ, 07748",649134555,"R"
243692,"55 NEWTON SPARTA RD UNIT 107","NEWTON","NJ",7860,41.042468043,-74.7337803579999,192,"55 NEWTON SPARTA RD UNIT 107, NEWTON, NJ, 7860","Match","Exact","55 NEWTON SPARTA RD, NEWTON, NJ, 07860",98003713,"R"
243693,"55 NIGHTINGALE TRAIL","ENON","OH",45323,39.8438208220001,-83.9300739989999,193,"55 NIGHTINGALE TRAIL, ENON, OH, 45323","Match","Exact","55 NIGHTINGALE TRL, ENON, OH, 45323",135014186,"L"
243694,"55 NORTH 25TH ST","BATTLE CREEK","MI",49015,42.306852233,-85.225167965,194,"55 NORTH 25TH ST, BATTLE CREEK, MI, 49015","Match","Exact","55 N 25TH ST, BATTLE CREEK, MI, 49015",11711557,"L"
243695,"55 NORTH MAIN STREET","HIGH SPRINGS","FL",32643,NA,NA,195,"55 NORTH MAIN STREET, HIGH SPRINGS, FL, 32643","No_Match",NA,NA,NA,NA
243696,"55 OAKLAND AVE","LYNN","MA",1905,42.4626959660001,-70.9877584659999,196,"55 OAKLAND AVE, LYNN, MA, 1905","Match","Exact","55 OAKLAND AVE, LYNN, MA, 01905",86675738,"R"
243697,"55 OAKLAWN DRIVE","COVINGTON","LA",70433,30.425476369,-90.114643761,197,"55 OAKLAWN DRIVE, COVINGTON, LA, 70433","Match","Exact","55 OAKLAWN DR, COVINGTON, LA, 70433",111306104,"R"
243698,"55 OLD HANCOCK ROAD","HANCOCK","NH",3449,42.966053813,-71.9795302329999,198,"55 OLD HANCOCK ROAD, HANCOCK, NH, 3449","Match","Exact","55 OLD HANCOCK RD, HANCOCK, NH, 03449",113563765,"L"
243699,"55 ORIOLE DRIVE","STEVENS","PA",17578,40.218412148,-76.12613005,199,"55 ORIOLE DRIVE, STEVENS, PA, 17578","Match","Exact","55 ORIOLE DR, STEVENS, PA, 17578",179690959,"R"
243700,"55 PARISH RD","NEW CANAAN","CT",6840,NA,NA,200,"55 PARISH RD, NEW CANAAN, CT, 6840","Tie",NA,NA,NA,NA
243701,"55 PARK AVENUE UNIT 35","BLOOMFIELD","NJ",7003,40.79891508,-74.199750493,201,"55 PARK AVENUE UNIT 35, BLOOMFIELD, NJ, 7003","Match","Exact","55 PARK AVE, BLOOMFIELD, NJ, 07003",63451037,"R"
243702,"55 PARK PLACE SUITE 300","ATLANTA","GA",30303,33.756050148,-84.387671217,202,"55 PARK PLACE SUITE 300, ATLANTA, GA, 30303","Match","Non_Exact","55 PARK PL NE, ATLANTA, GA, 30303",17344550,"R"
243703,"55 PATRICK DRIVE","SNOW HILL","NC",28580,35.440254178,-77.691989625,203,"55 PATRICK DRIVE, SNOW HILL, NC, 28580","Match","Exact","55 PATRICK DR, SNOW HILL, NC, 28580",26511017,"L"
243704,"55 PATRIOT WAY","UXBRIDGE","MA",1569,42.0525952770001,-71.600772432,204,"55 PATRIOT WAY, UXBRIDGE, MA, 1569","Match","Exact","55 PATRIOT WAY, UXBRIDGE, MA, 01569",40068980,"R"
243705,"55 PEACH GLEN RD","GARDNERS","PA",17324,40.026754904,-77.2270164879999,205,"55 PEACH GLEN RD, GARDNERS, PA, 17324","Match","Exact","55 PEACH GLEN RD, GARDNERS, PA, 17324",60966031,"R"
243706,"55 PECUNIT ST","CANTON","MA",2021,42.1860787040001,-71.133800003,206,"55 PECUNIT ST, CANTON, MA, 2021","Match","Exact","55 PECUNIT ST, CANTON, MA, 02021",87297999,"L"
243707,"55 PENN RIDGE CT","NORTH LIBERTY","IA",52317,41.747331015,-91.591006613,207,"55 PENN RIDGE CT, NORTH LIBERTY, IA, 52317","Match","Exact","55 PENN RIDGE CT, NORTH LIBERTY, IA, 52317",84510881,"L"
243708,"55 PHILLIPS ST","MIDDLETOWN","NY",10940,41.4394592300001,-74.410620434,208,"55 PHILLIPS ST, MIDDLETOWN, NY, 10940","Match","Exact","55 PHILLIPS ST, MIDDLETOWN, NY, 10940",124439120,"L"
243709,"55 PILGRIM ROAD","EDGARTOWN","MA",2539,41.4051868980001,-70.553765297,209,"55 PILGRIM ROAD, EDGARTOWN, MA, 2539","Match","Exact","55 PILGRIM RD, EDGARTOWN, MA, 02539",638523124,"R"
243710,"55 PIONEER CIRCLE","ATTLEBORO","MA",2703,41.910918527,-71.2860139869999,210,"55 PIONEER CIRCLE, ATTLEBORO, MA, 2703","Match","Exact","55 PIONEER CIR, ATTLEBORO, MA, 02703",46785760,"L"
243711,"55 POLARIS LANE","TEWKSBURY","MA",1876,42.6136545270001,-71.191855276,211,"55 POLARIS LANE, TEWKSBURY, MA, 1876","Match","Exact","55 POLARIS LN, TEWKSBURY, MA, 01876",86907392,"R"
243712,"55 PONDFIELD ROAD","BRONXVILLE","NY",10708,40.9410850450001,-73.8337483449999,212,"55 PONDFIELD ROAD, BRONXVILLE, NY, 10708","Match","Exact","55 PONDFIELD RD, BRONXVILLE, NY, 10708",139746204,"L"
243713,"55 POOSPATUCK LN","MASTIC","NY",11950,40.7938848520001,-72.839118145,213,"55 POOSPATUCK LN, MASTIC, NY, 11950","Match","Exact","55 POOSPATUCK LN, MASTIC, NY, 11950",114020446,"L"
243714,"55 PROSPECT PARK SW","BROOKLYN","NY",11215,40.6593162450001,-73.9763871709999,214,"55 PROSPECT PARK SW, BROOKLYN, NY, 11215","Match","Exact","55 PROSPECT PARK SW, BROOKLYN, NY, 11215",59078297,"R"
243715,"55 RESER RD","WALLA WALLA","WA",99362,46.0416397810001,-118.323361931,215,"55 RESER RD, WALLA WALLA, WA, 99362","Match","Exact","55 RESER RD, WALLA WALLA, WA, 99362",644987323,"L"
243716,"55 RICHFIELD STREET","PLAINVIEW","NY",11803,40.7937543350001,-73.477771063,216,"55 RICHFIELD STREET, PLAINVIEW, NY, 11803","Match","Exact","55 RICHFIELD ST, PLAINVIEW, NY, 11803",147642173,"L"
243717,"55 RIVER OAKS PL SUITE 498","SAN JOSE","CA",95134,37.401532509,-121.940638228,217,"55 RIVER OAKS PL SUITE 498, SAN JOSE, CA, 95134","Match","Exact","55 RIVER OAKS PL, SAN JOSE, CA, 95134",646649342,"L"
243718,"55 RIVERCREST DRIVE","RIVERDALE","GA",30274,33.5625356260001,-84.388395983,218,"55 RIVERCREST DRIVE, RIVERDALE, GA, 30274","Match","Exact","55 RIVERCREST DR, RIVERDALE, GA, 30274",640611744,"R"
243719,"55 RIVERWALK PL APT 732","WEST NEW YORK","NJ",7093,40.783124516,-74.005310002,219,"55 RIVERWALK PL APT 732, WEST NEW YORK, NJ, 7093","Match","Exact","55 RIVERWALK PL, WEST NEW YORK, NJ, 07093",641256582,"R"
243720,"55 ROBERTS ST","MALDEN","MA",2148,42.436108846,-71.036678556,220,"55 ROBERTS ST, MALDEN, MA, 2148","Match","Exact","55 ROBERTS ST, MALDEN, MA, 02148",87087198,"R"
243721,"55 ROLLING MEADOWS DR","CLAYTON","NC",27527,35.636526163,-78.417105501,221,"55 ROLLING MEADOWS DR, CLAYTON, NC, 27527","Match","Exact","55 ROLLING MEADOWS DR, CLAYTON, NC, 27527",624755782,"R"
243722,"55 S BARNSTEAD RD SUITE 21","CENTER BARNSTEAD","NH",3225,NA,NA,222,"55 S BARNSTEAD RD SUITE 21, CENTER BARNSTEAD, NH, 3225","Tie",NA,NA,NA,NA
243723,"55 S BRINKER AVE","COLUMBUS","OH",43204,39.953279868,-83.084092714,223,"55 S BRINKER AVE, COLUMBUS, OH, 43204","Match","Exact","55 S BRINKER AVE, COLUMBUS, OH, 43204",218648559,"R"
243724,"55 S KUKUI STREET","HONOLULU","HI",96813,21.3123498160001,-157.858065042,224,"55 S KUKUI STREET, HONOLULU, HI, 96813","Match","Exact","55 S KUKUI ST, HONOLULU, HI, 96813",633845621,"R"
243725,"55 S LAKE AVE SUITE 600","PASADENA","CA",91101,NA,NA,225,"55 S LAKE AVE SUITE 600, PASADENA, CA, 91101","Tie",NA,NA,NA,NA
243726,"55 S MAIN STREET","LOBELVILLE","TN",37097,35.771968907,-87.7836077869999,226,"55 S MAIN STREET, LOBELVILLE, TN, 37097","Match","Exact","55 MAIN ST, LOBELVILLE, TN, 37097",19908880,"R"
243727,"55 S MIDLAND BLVD","NAMPA","ID",83651,43.572068631,-116.59291715,227,"55 S MIDLAND BLVD, NAMPA, ID, 83651","Match","Exact","55 S MIDLAND BLVD, NAMPA, ID, 83651",647502026,"L"
243728,"55 S STATE STREET 337","INDIANAPOLIS","IN",46220,NA,NA,228,"55 S STATE STREET 337, INDIANAPOLIS, IN, 46220","No_Match",NA,NA,NA,NA
243729,"55 S VIEW DR","DEPEW","NY",14043,42.8657105720001,-78.699054296,229,"55 S VIEW DR, DEPEW, NY, 14043","Match","Exact","55 S VIEW DR, DEPEW, NY, 14043",48307790,"R"
243730,"55 SANFORD STREET","SAINT AUGUSTINE","FL",32084,29.888033835,-81.316442701,230,"55 SANFORD STREET, SAINT AUGUSTINE, FL, 32084","Match","Exact","55 SANFORD ST, SAINT AUGUSTINE, FL, 32084",92582526,"R"
243731,"55 SANTA CLARA AVE STE 127","OAKLAND","CA",94610,37.8204408820001,-122.254863517,231,"55 SANTA CLARA AVE STE 127, OAKLAND, CA, 94610","Match","Exact","55 SANTA CLARA AVE, OAKLAND, CA, 94610",125000422,"R"
243732,"55 SCHUELE AVENUE","BUFFALO","NY",14215,42.916069131,-78.8265077629999,232,"55 SCHUELE AVENUE, BUFFALO, NY, 14215","Match","Exact","55 SCHUELE AVE, BUFFALO, NY, 14215",48296765,"R"
243733,"55 SE 2ND AVE","DELRAY BEACH","FL",33444,26.4606581620001,-80.071055725,233,"55 SE 2ND AVE, DELRAY BEACH, FL, 33444","Match","Exact","55 SE 2ND AVE, DELRAY BEACH, FL, 33444",115298123,"L"
243734,"55 SE 6TH APT 3701","MIAMI","FL",33131,NA,NA,234,"55 SE 6TH APT 3701, MIAMI, FL, 33131","No_Match",NA,NA,NA,NA
243735,"55 SE 6TH ST","MIAMI","FL",33131,25.768198951,-80.191290689,235,"55 SE 6TH ST, MIAMI, FL, 33131","Match","Exact","55 SE 6TH ST, MIAMI, FL, 33131",116284563,"L"
243736,"55 SE 6TH STREET APARTMENT 4106","MIAMI","FL",33131,25.768198951,-80.191290689,236,"55 SE 6TH STREET APARTMENT 4106, MIAMI, FL, 33131","Match","Non_Exact","55 SE 6TH ST, MIAMI, FL, 33131",116284563,"L"
243737,"55 SE 6TH STREET UNIT 1506","MIAMI","FL",33131,25.768198951,-80.191290689,237,"55 SE 6TH STREET UNIT 1506, MIAMI, FL, 33131","Match","Non_Exact","55 SE 6TH ST, MIAMI, FL, 33131",116284563,"L"
243738,"55 SHADOW LANE","WHISPERING PINES","NC",28327,35.2595675600001,-79.358468016,238,"55 SHADOW LANE, WHISPERING PINES, NC, 28327","Match","Exact","55 SHADOW LN, WHISPERING PINES, NC, 28327",636538112,"L"
243739,"55 SHAW AVENUE SUITE 205","CLOVIS","CA",93612,36.8084902210001,-119.708440469,239,"55 SHAW AVENUE SUITE 205, CLOVIS, CA, 93612","Match","Exact","55 SHAW AVE, CLOVIS, CA, 93612",197578218,"L"
243740,"55 SIERRA VISTA DR","MONTEREY","CA",93940,36.581959892,-121.906616668,240,"55 SIERRA VISTA DR, MONTEREY, CA, 93940","Match","Exact","55 SIERRA VISTA DR, MONTEREY, CA, 93940",196815266,"L"
243741,"55 SILVER RIDGE RD","COVINGTON","GA",30016,NA,NA,241,"55 SILVER RIDGE RD, COVINGTON, GA, 30016","Tie",NA,NA,NA,NA
243742,"55 SMALLWOOD AVE","BELLEVILLE","NJ",7109,40.792959781,-74.173002506,242,"55 SMALLWOOD AVE, BELLEVILLE, NJ, 7109","Match","Exact","55 SMALLWOOD AVE, BELLEVILLE, NJ, 07109",63454427,"L"
243743,"55 SMITH ST","EAST STROUDSBURG","PA",18301,41.0015354390001,-75.173787481,243,"55 SMITH ST, EAST STROUDSBURG, PA, 18301","Match","Exact","55 SMITH ST, E STROUDSBURG, PA, 18301",639770999,"L"
243744,"55 SOUTH BAYSHORE DRIVE","EASTPOINT","FL",32328,29.7320821980001,-84.898634465,244,"55 SOUTH BAYSHORE DRIVE, EASTPOINT, FL, 32328","Match","Non_Exact","55 S BAY SHORE DR, EASTPOINT, FL, 32328",610427904,"L"
243745,"55 SOUTH COCALICO ROAD","DENVER","PA",17517,40.2863169330001,-76.20370716,245,"55 SOUTH COCALICO ROAD, DENVER, PA, 17517","Match","Exact","55 S COCALICO RD, DENVER, PA, 17517",179646101,"L"
243746,"55 SOUTH KUKUI STREET C109","HONOLULU","HI",96813,21.312356638,-157.858069539,246,"55 SOUTH KUKUI STREET C109, HONOLULU, HI, 96813","Match","Exact","55 S KUKUI ST, HONOLULU, HI, 96813",633845621,"R"
243747,"55 SOUTH KUKUI STREET/D-1202","HONOLULU","HI",96813,21.312356638,-157.858069539,247,"55 SOUTH KUKUI STREET/D-1202, HONOLULU, HI, 96813","Match","Non_Exact","55 S KUKUI ST, HONOLULU, HI, 96813",633845621,"R"
243748,"55 SOUTH MAIN STREET","LOBELVILLE","TN",37097,NA,NA,248,"55 SOUTH MAIN STREET, LOBELVILLE, TN, 37097","No_Match",NA,NA,NA,NA
243749,"55 SOUTH VILLAGE ST  SUITE 1","LOUDON","NH",3307,43.2830329700001,-71.465504376,249,"55 SOUTH VILLAGE ST  SUITE 1, LOUDON, NH, 3307","Match","Non_Exact","55 S VILLAGE RD, LOUDON, NH, 03307",117712635,"R"
243750,"55 SPRINGSTOWNE CTR STE 120","VALLEJO","CA",94591,38.1042631600001,-122.217080109,250,"55 SPRINGSTOWNE CTR STE 120, VALLEJO, CA, 94591","Match","Exact","55 SPRINGSTOWNE CENTER, VALLEJO, CA, 94591",192558907,"L"
243751,"55 SPRINGSTOWNE CTR STE 325","VALLEJO","CA",94591,38.1042631600001,-122.217080109,251,"55 SPRINGSTOWNE CTR STE 325, VALLEJO, CA, 94591","Match","Exact","55 SPRINGSTOWNE CENTER, VALLEJO, CA, 94591",192558907,"L"
243752,"55 SPRINGTOWNE CIR","BALTIMORE","MD",21234,39.396737697,-76.493165177,252,"55 SPRINGTOWNE CIR, BALTIMORE, MD, 21234","Match","Exact","55 SPRINGTOWNE CIR, BALTIMORE, MD, 21234",652703456,"R"
243753,"55 SR 46 E","NASHVILLE","IN",47448,39.2026493870001,-86.244066801,253,"55 SR 46 E, NASHVILLE, IN, 47448","Match","Non_Exact","55 STATE RD 46 E, NASHVILLE, IN, 47448",638341430,"L"
243754,"55 STATE STREET","TROY","NY",12180,42.7296440200001,-73.687050719,254,"55 STATE STREET, TROY, NY, 12180","Match","Exact","55 STATE ST, TROY, NY, 12180",35728917,"L"
243755,"55 STEARNS AVE","MANSFIELD","MA",2048,42.032155593,-71.1830617969999,255,"55 STEARNS AVE, MANSFIELD, MA, 2048","Match","Exact","55 STEARNS AVE, MANSFIELD, MA, 02048",46765339,"R"
243756,"55 SUMMER STREET","LYNNFIELD","MA",1940,42.537680702,-71.045768541,256,"55 SUMMER STREET, LYNNFIELD, MA, 1940","Match","Exact","55 SUMMER ST, LYNNFIELD, MA, 01940",86655556,"R"
243757,"55 SUMMER STREET","ROCHESTER","NH",3867,43.3082596190001,-70.9723814709999,257,"55 SUMMER STREET, ROCHESTER, NH, 3867","Match","Exact","55 SUMMER ST, ROCHESTER, NH, 03867",117803836,"R"
243758,"55 SUNNYMEAD ROAD","HILLSBOROUGH","NJ",8844,40.5337687190001,-74.611008565,258,"55 SUNNYMEAD ROAD, HILLSBOROUGH, NJ, 8844","Match","Exact","55 SUNNYMEAD RD, HILLSBOROUGH, NJ, 08844",59970405,"R"
243759,"55 SUNRISE DRIVE","WILLISTON","VT",5495,44.4352104610001,-73.045458971,259,"55 SUNRISE DRIVE, WILLISTON, VT, 5495","Match","Exact","55 SUNRISE DR, WILLISTON, VT, 05495",135844703,"R"
243760,"55 SUNSET AVENUE","VERONA","NJ",7044,40.8235967320001,-74.231865634,260,"55 SUNSET AVENUE, VERONA, NJ, 7044","Match","Exact","55 SUNSET AVE, VERONA, NJ, 07044",614832321,"R"
243761,"55 SUTHERLAND STREET","PITTSFORD","NY",14534,43.088404048,-77.522362071,261,"55 SUTHERLAND STREET, PITTSFORD, NY, 14534","Match","Exact","55 SUTHERLAND ST, PITTSFORD, NY, 14534",14573310,"R"
243762,"55 SW 6TH STREET","LAKE BUTLER","FL",32054,30.018062512,-82.338532564,262,"55 SW 6TH STREET, LAKE BUTLER, FL, 32054","Match","Exact","55 SW 6TH ST, LAKE BUTLER, FL, 32054",6776990,"L"
243763,"55 SW APPALOOSA ST","STUART","FL",34997,27.131651515,-80.253341125,263,"55 SW APPALOOSA ST, STUART, FL, 34997","Match","Exact","55 SW APPALOOSA ST, STUART, FL, 34997",120419793,"R"
243764,"55 SWEET ALLEN FARM ROAD","SOUTH KINGSTOWN","MA",2879,NA,NA,264,"55 SWEET ALLEN FARM ROAD, SOUTH KINGSTOWN, MA, 2879","No_Match",NA,NA,NA,NA
243765,"55 TALMADGE RD","PROSPECT","CT",6712,NA,NA,265,"55 TALMADGE RD, PROSPECT, CT, 6712","No_Match",NA,NA,NA,NA
243766,"55 TAYLOR ST","SAN FRANCISCO","CA",94102,37.7830256710001,-122.410730762,266,"55 TAYLOR ST, SAN FRANCISCO, CA, 94102","Match","Exact","55 TAYLOR ST, SAN FRANCISCO, CA, 94102",192298636,"L"
243767,"55 THOMAS AVENUE","HAVERHILL","MA",1832,42.7714441790001,-71.110149318,267,"55 THOMAS AVENUE, HAVERHILL, MA, 1832","Match","Exact","55 THOMAS AVE, HAVERHILL, MA, 01832",86616885,"R"
243768,"55 TIPTOE LN","HILLSBOROUGH","CA",94010,NA,NA,268,"55 TIPTOE LN, HILLSBOROUGH, CA, 94010","No_Match",NA,NA,NA,NA
243769,"55 TOBIN AVE","GREAT NECK","NY",11021,40.7790666700001,-73.730078066,269,"55 TOBIN AVE, GREAT NECK, NY, 11021","Match","Exact","55 TOBIN AVE, GREAT NECK, NY, 11021",147656399,"R"
243770,"55 TOTTEN DRIVE","BRIDGEWATER","NJ",8807,40.6054158260001,-74.589638701,270,"55 TOTTEN DRIVE, BRIDGEWATER, NJ, 8807","Match","Exact","55 TOTTEN DR, BRIDGEWATER, NJ, 08807",59999126,"L"
243771,"55 TRUESDALE LAKE DR","SOUTH SALEM","NY",10590,41.281158578,-73.5505667849999,271,"55 TRUESDALE LAKE DR, SOUTH SALEM, NY, 10590","Match","Exact","55 TRUESDALE LAKE DR, SOUTH SALEM, NY, 10590",139777781,"L"
243772,"55 TURNSTONE DR","SAFETY HARBOR","FL",34695,28.01744008,-82.6974269839999,272,"55 TURNSTONE DR, SAFETY HARBOR, FL, 34695","Match","Exact","55 TURNSTONE DR, SAFETY HARBOR, FL, 34695",124682611,"R"
243773,"55 UNION PL UNIT 280","SUMMIT","NJ",7901,40.7168819570001,-74.358030244,273,"55 UNION PL UNIT 280, SUMMIT, NJ, 7901","Match","Exact","55 UNION PL, SUMMIT, NJ, 07901",60565230,"R"
243774,"55 UNION PLACE","SUMMIT","NJ",7901,40.7168819570001,-74.358030244,274,"55 UNION PLACE, SUMMIT, NJ, 7901","Match","Exact","55 UNION PL, SUMMIT, NJ, 07901",60565230,"R"
243775,"55 UNION ST","ONEONTA","NY",13820,42.4649241160001,-75.056833152,275,"55 UNION ST, ONEONTA, NY, 13820","Match","Exact","55 UNION ST, ONEONTA, NY, 13820",125918710,"L"
243776,"55 VALDEZ AVENUE","SAN FRANCISCO","CA",94112,37.7295230020001,-122.454831349,276,"55 VALDEZ AVENUE, SAN FRANCISCO, CA, 94112","Match","Exact","55 VALDEZ AVE, SAN FRANCISCO, CA, 94112",192285777,"L"
243777,"55 VALLEY VIEW AVE","RIDGEWOOD","NJ",7450,40.9882831670001,-74.1203884719999,277,"55 VALLEY VIEW AVE, RIDGEWOOD, NJ, 7450","Match","Exact","55 VALLEY VIEW AVE, RIDGEWOOD, NJ, 07450",64376305,"R"
243778,"55 VAN BUREN ST NW","WASHINGTON","DC",20012,38.969981999,-77.0106749999999,278,"55 VAN BUREN ST NW, WASHINGTON, DC, 20012","Match","Exact","55 VAN BUREN ST NW, WASHINGTON, DC, 20012",76222105,"R"
243779,"55 VANDEWATER STREET APT 8","SAN FRANCISCO","CA",94133,37.805245653,-122.412755651,279,"55 VANDEWATER STREET APT 8, SAN FRANCISCO, CA, 94133","Match","Exact","55 VANDEWATER ST, SAN FRANCISCO, CA, 94133",192280362,"L"
243780,"55 VINCE DR","BENNET","NE",68317,40.6854541970001,-96.510913551,280,"55 VINCE DR, BENNET, NE, 68317","Match","Exact","55 VINCE DR, BENNET, NE, 68317",614708870,"R"
243781,"55 W 116TH ST STE 412","NEW YORK","NY",10026,40.8015412350001,-73.948513614,281,"55 W 116TH ST STE 412, NEW YORK, NY, 10026","Match","Non_Exact","55 W 116TH ST, NEW YORK, NY, 10026",652207878,"R"
243782,"55 W 12TH ST","COLUMBUS","OH",43210,39.9968899040001,-83.008720801,282,"55 W 12TH ST, COLUMBUS, OH, 43210","Match","Non_Exact","55 W 12TH AVE, COLUMBUS, OH, 43210",218690396,"L"
243783,"55 W 68TH STREET - APT 3A","NEW YORK","NY",10023,40.774324043,-73.979386948,283,"55 W 68TH STREET - APT 3A, NEW YORK, NY, 10023","Match","Non_Exact","55 W 68TH ST, NEW YORK, NY, 10023",59657015,"R"
243784,"55 W DELAWARE PLACE  APT 901","CHICAGO","IL",60610,41.899121667,-87.6294111409999,284,"55 W DELAWARE PLACE  APT 901, CHICAGO, IL, 60610","Match","Non_Exact","55 W DELAWARE PL, CHICAGO, IL, 60610",605072713,"L"
243785,"55 W FEDERAL HWY","ROSCOMMON","MI",48653,44.5112650080001,-84.616158484,285,"55 W FEDERAL HWY, ROSCOMMON, MI, 48653","Match","Exact","55 W FEDERAL HWY, ROSCOMMON, MI, 48653",635595437,"R"
243786,"55 W MIDLAND AVE","PARAMUS","NJ",7652,NA,NA,286,"55 W MIDLAND AVE, PARAMUS, NJ, 7652","Tie",NA,NA,NA,NA
243787,"55 W NEW STREET","WINDER","GA",30680,33.998217794,-83.717215828,287,"55 W NEW STREET, WINDER, GA, 30680","Match","Exact","55 W NEW ST, WINDER, GA, 30680",77567018,"R"
243788,"55 WALDEN MILL WAY","CATONSVILLE","MD",21228,39.288896591,-76.7439888339999,288,"55 WALDEN MILL WAY, CATONSVILLE, MD, 21228","Match","Exact","55 WALDEN MILL WAY, CATONSVILLE, MD, 21228",191483932,"R"
243789,"55 WALLACE SSTREET","BELLEVILLE","NJ",7109,40.789267785,-74.1788537689999,289,"55 WALLACE SSTREET, BELLEVILLE, NJ, 7109","Match","Non_Exact","55 WALLACE ST, BELLEVILLE, NJ, 07109",63454202,"L"
243790,"55 WALLACE STREET","BELLEVILLE","NJ",7109,40.789267785,-74.1788537689999,290,"55 WALLACE STREET, BELLEVILLE, NJ, 7109","Match","Exact","55 WALLACE ST, BELLEVILLE, NJ, 07109",63454202,"L"
243791,"55 WALNUT STREET","MONTCLAIR","NJ",7042,40.814769498,-74.207298254,291,"55 WALNUT STREET, MONTCLAIR, NJ, 7042","Match","Exact","55 WALNUT ST, MONTCLAIR, NJ, 07042",63448910,"L"
243792,"55 WANAQUE AVE NUM 102","POMPTON LAKES","NJ",7442,41.0072785850001,-74.2926875059999,292,"55 WANAQUE AVE NUM 102, POMPTON LAKES, NJ, 7442","Match","Exact","55 WANAQUE AVE, POMPTON LAKES, NJ, 07442",65279775,"L"
243793,"55 WASHINGTON ST STE 714","BROOKLYN","NY",11201,40.7026918660001,-73.989493077,293,"55 WASHINGTON ST STE 714, BROOKLYN, NY, 11201","Match","Exact","55 WASHINGTON ST, BROOKLYN, NY, 11201",59075046,"L"
243794,"55 WASHINGTON STREET SUITE 300","BROOKLYN","NY",11201,40.7026918660001,-73.989493077,294,"55 WASHINGTON STREET SUITE 300, BROOKLYN, NY, 11201","Match","Exact","55 WASHINGTON ST, BROOKLYN, NY, 11201",59075046,"L"
243795,"55 WATERBURY CIRCLE","OSWEGO","IL",60543,41.712123261,-88.283361344,295,"55 WATERBURY CIRCLE, OSWEGO, IL, 60543","Match","Exact","55 WATERBURY CIR, OSWEGO, IL, 60543",54491914,"L"
243796,"55 WATERFORD DRIVE","WHEATLEY HTS","NY",11798,40.7648719680001,-73.373218585,296,"55 WATERFORD DRIVE, WHEATLEY HTS, NY, 11798","Match","Exact","55 WATERFORD DR, WHEATLEY HEIGHTS, NY, 11798",113968009,"R"
243797,"55 WATSON DRIVE","MOUNT LAUREL","NJ",8054,39.9415977040001,-74.91811759,297,"55 WATSON DRIVE, MOUNT LAUREL, NJ, 8054","Match","Exact","55 WATSON DR, MOUNT LAUREL, NJ, 08054",134070411,"L"
243798,"55 WEST 116 STREET SUITE 236","NEW YORK","NY",10026,40.801530692,-73.948488611,298,"55 WEST 116 STREET SUITE 236, NEW YORK, NY, 10026","Match","Exact","55 W 116TH ST, NEW YORK, NY, 10026",652207878,"R"
243799,"55 WEST 116TH STREET SUITE 159","NEW YORK","NY",10026,40.801530692,-73.948488611,299,"55 WEST 116TH STREET SUITE 159, NEW YORK, NY, 10026","Match","Exact","55 W 116TH ST, NEW YORK, NY, 10026",652207878,"R"
243800,"55 WEST 116TH STREET SUITE 204","NEW YORK","NY",10026,40.801530692,-73.948488611,300,"55 WEST 116TH STREET SUITE 204, NEW YORK, NY, 10026","Match","Exact","55 W 116TH ST, NEW YORK, NY, 10026",652207878,"R"
243801,"55 WEST 116TH STREET SUITE 236","NEW YORK","NY",10026,40.801530692,-73.948488611,301,"55 WEST 116TH STREET SUITE 236, NEW YORK, NY, 10026","Match","Exact","55 W 116TH ST, NEW YORK, NY, 10026",652207878,"R"
243802,"55 WEST 116TH STREET SUITE 288","NEW YORK","NY",10026,40.801530692,-73.948488611,302,"55 WEST 116TH STREET SUITE 288, NEW YORK, NY, 10026","Match","Exact","55 W 116TH ST, NEW YORK, NY, 10026",652207878,"R"
243803,"55 WEST 129TH STREET","NEW YORK CITY","NY",10027,40.8097410230001,-73.942239866,303,"55 WEST 129TH STREET, NEW YORK CITY, NY, 10027","Match","Exact","55 W 129TH ST, NEW YORK, NY, 10027",634257295,"R"
243804,"55 WEST 400 SOUTH","RICHFIELD","UT",84701,38.7625177040001,-112.085765638,304,"55 WEST 400 SOUTH, RICHFIELD, UT, 84701","Match","Exact","55 W 400 S, RICHFIELD, UT, 84701",175332058,"L"
243805,"55 WEST 92ND STREET APT 2H","NEW YORK CITY","NY",10025,40.7896667480001,-73.9678634539999,305,"55 WEST 92ND STREET APT 2H, NEW YORK CITY, NY, 10025","Match","Exact","55 W 92ND ST, NEW YORK, NY, 10025",650153774,"R"
243806,"55 WEST BOYLSTON DRIVE","WORCESTER","MA",1606,42.2996719820001,-71.80305846,306,"55 WEST BOYLSTON DRIVE, WORCESTER, MA, 1606","Match","Exact","55 W BOYLSTON DR, WORCESTER, MA, 01606",40148586,"L"
243807,"55 WEST CHURCH STREET STE 2921","ORLANDO","FL",32801,28.5403460420001,-81.3803508139999,307,"55 WEST CHURCH STREET STE 2921, ORLANDO, FL, 32801","Match","Exact","55 W CHURCH ST, ORLANDO, FL, 32801",94282437,"R"
243808,"55 WEST MONROE STREET  SUITE 990","CHICAGO","IL",60603,41.8807086240001,-87.62967625,308,"55 WEST MONROE STREET  SUITE 990, CHICAGO, IL, 60603","Match","Non_Exact","55 W MONROE ST, CHICAGO, IL, 60607",111769585,"L"
243809,"55 WEST RIVER PARKWAY","NORTH PROVIDENCE","RI",2904,41.8693223820001,-71.453676248,309,"55 WEST RIVER PARKWAY, NORTH PROVIDENCE, RI, 2904","Match","Exact","55 W RIVER PKWY, N PROVIDENCE, RI, 02904",47456285,"R"
243810,"55 WEST RIVER PKWY","NORTH PROVIDENCE","RI",2904,41.8693223820001,-71.453676248,310,"55 WEST RIVER PKWY, NORTH PROVIDENCE, RI, 2904","Match","Exact","55 W RIVER PKWY, N PROVIDENCE, RI, 02904",47456285,"R"
243811,"55 WEST WATER STREET","MIDDLETOWN","PA",17057,40.198360031,-76.731382293,311,"55 WEST WATER STREET, MIDDLETOWN, PA, 17057","Match","Exact","55 W WATER ST, MIDDLETOWN, PA, 17057",70825828,"R"
243812,"55 WESTGATE RD","ASHEVILLE","NC",28806,35.573923585,-82.5982736449999,312,"55 WESTGATE RD, ASHEVILLE, NC, 28806","Match","Exact","55 WESTGATE RD, ASHEVILLE, NC, 28806",36843129,"R"
243813,"55 WHITNEY AVENUE SUITE 450","NEW HAVEN","CT",6510,41.3118866470001,-72.9221218759999,313,"55 WHITNEY AVENUE SUITE 450, NEW HAVEN, CT, 6510","Match","Exact","55 WHITNEY AVE, NEW HAVEN, CT, 06510",637983941,"R"
243814,"55 WHITNEY AVENUE","NEW HAVEN","CT",6510,41.3118866470001,-72.9221218759999,314,"55 WHITNEY AVENUE, NEW HAVEN, CT, 6510","Match","Exact","55 WHITNEY AVE, NEW HAVEN, CT, 06510",637983941,"R"
243815,"55 WHITNEY STE 430","NEW HAVEN","CT",6510,41.3118866470001,-72.9221218759999,315,"55 WHITNEY STE 430, NEW HAVEN, CT, 6510","Match","Non_Exact","55 WHITNEY AVE, NEW HAVEN, CT, 06510",637983941,"R"
243816,"55 WILLIAM PENN DRIVE","SCHWENKSVILLE","PA",19473,40.246180209,-75.5285191579999,316,"55 WILLIAM PENN DRIVE, SCHWENKSVILLE, PA, 19473","Match","Exact","55 WILLIAM PENN DR, SCHWENKSVILLE, PA, 19473",615087660,"R"
243817,"55 WILLIAMS ROAD","SHARON","MA",2067,42.1058992530001,-71.1368204309999,317,"55 WILLIAMS ROAD, SHARON, MA, 2067","Match","Exact","55 WILLIAMS RD, SHARON, MA, 02067",87263268,"R"
243818,"55 WILLOUGHBY ST","BROOKYN","NY",11201,40.6922202820001,-73.986734826,318,"55 WILLOUGHBY ST, BROOKYN, NY, 11201","Match","Non_Exact","55 WILLOUGHBY ST, BROOKLYN, NY, 11201",59075164,"L"
243819,"55 WILLOW SPRINGS DRIVE","OAKLAND","TN",38060,35.2053932320001,-89.51043915,319,"55 WILLOW SPRINGS DRIVE, OAKLAND, TN, 38060","Match","Non_Exact","55 WILLOW SPRINGS LN, OAKLAND, TN, 38060",643424007,"L"
243820,"55 WINSTER FAX","WILLIAMSBURG","VA",23185,37.233105881,-76.663859768,320,"55 WINSTER FAX, WILLIAMSBURG, VA, 23185","Match","Exact","55 WINSTER FAX, WILLIAMSBURG, VA, 23185",103778548,"R"
243821,"55 WINTHROP STREET - FLOOR 2","SPRINGFIELD","MA",1105,42.0985049270001,-72.5818850429999,321,"55 WINTHROP STREET - FLOOR 2, SPRINGFIELD, MA, 1105","Match","Exact","55 WINTHROP ST, SPRINGFIELD, MA, 01105",4035344,"R"
243822,"55 WOODCLIFF AVE","WESTWOOD","NJ",7675,40.979883623,-74.040718907,322,"55 WOODCLIFF AVE, WESTWOOD, NJ, 7675","Match","Exact","55 WOODCLIFF AVE, WESTWOOD, NJ, 07675",64378705,"R"
243823,"55 WOODS LANE  PO BOX 805","GEYSERVILLE","CA",95441,38.711528136,-122.90943314,323,"55 WOODS LANE  PO BOX 805, GEYSERVILLE, CA, 95441","Match","Exact","55 WOODS LN, GEYSERVILLE, CA, 95441",67459971,"R"
243824,"55 YELLOW STRAW LN","HALL","MT",59837,NA,NA,324,"55 YELLOW STRAW LN, HALL, MT, 59837","No_Match",NA,NA,NA,NA
243825,"55-044 LANIHULI ST","LAIE","HI",96762,21.6502206960001,-157.927200429,325,"55-044 LANIHULI ST, LAIE, HI, 96762","Match","Exact","55-44 LANIHULI ST, LAIE, HI, 96762",203223332,"L"
243826,"55-050 KAMEHAMEHA HWY","LAIE","HI",96762,21.623931468,-157.919749044,326,"55-050 KAMEHAMEHA HWY, LAIE, HI, 96762","Match","Exact","55-50 KAMEHAMEHA HWY, LAIE, HI, 96762",203251987,"L"
243827,"55-080 KAMEHAMEHA HIGHWAY","HAUULA","HI",96717,NA,NA,327,"55-080 KAMEHAMEHA HIGHWAY, HAUULA, HI, 96717","Tie",NA,NA,NA,NA
243828,"55-130 NAUPAKA STREET","LAIE","HI",96762,21.648079527,-157.919536802,328,"55-130 NAUPAKA STREET, LAIE, HI, 96762","Match","Exact","55-130 NAUPAKA ST, LAIE, HI, 96762",203326942,"L"
243829,"55-158 KULANUI ST","LAIE","HI",96762,21.6470082810001,-157.924586785,329,"55-158 KULANUI ST, LAIE, HI, 96762","Match","Exact","55-158 KULANUI ST, LAIE, HI, 96762",203223357,"L"
243830,"55-164 KULANUI ST","LAIE","HI",96762,21.6469084510001,-157.924602013,330,"55-164 KULANUI ST, LAIE, HI, 96762","Match","Exact","55-164 KULANUI ST, LAIE, HI, 96762",203223357,"L"
243831,"55-220 KULANUI ST","LAIE","HI",96762,NA,NA,331,"55-220 KULANUI ST, LAIE, HI, 96762","Tie",NA,NA,NA,NA
243832,"55-421 KAMEHAMEHA HWY APT A","LAIE","HI",96762,21.6424836080001,-157.91968939,332,"55-421 KAMEHAMEHA HWY APT A, LAIE, HI, 96762","Match","Exact","55-421 KAMEHAMEHA HWY, LAIE, HI, 96762",203223427,"R"
243833,"55-551 MOANA ST","LAIE","HI",96762,21.647054989,-157.926750571,333,"55-551 MOANA ST, LAIE, HI, 96762","Match","Exact","55 MOANA ST, LAIE, HI, 96762",203223354,"R"
243834,"55-603 MOANA STREET","LAIE","HI",96762,21.6482597890001,-157.927149774,334,"55-603 MOANA STREET, LAIE, HI, 96762","Match","Exact","55-603 MOANA ST, LAIE, HI, 96762",639062157,"R"
243835,"55-607 NANILAO LOOP APT B","LAIE","HI",96762,21.648270929,-157.928359753,335,"55-607 NANILAO LOOP APT B, LAIE, HI, 96762","Match","Non_Exact","55-607 NANILOA LOOP, LAIE, HI, 96762",203223324,"R"
243836,"55","BELGRADE","MT",59714,NA,NA,336,"55, BELGRADE, MT, 59714","No_Match",NA,NA,NA,NA
243837,"55","GLENWOOD CITY","WI",54013,NA,NA,337,"55, GLENWOOD CITY, WI, 54013","No_Match",NA,NA,NA,NA
243838,"55","TIPTON","IN",46072,NA,NA,338,"55, TIPTON, IN, 46072","No_Match",NA,NA,NA,NA
243839,"550  N MARLEY RD","NEW LENOX","IL",60451,41.5261657930001,-87.940621462,339,"550  N MARLEY RD, NEW LENOX, IL, 60451","Match","Exact","550 N MARLEY RD, NEW LENOX, IL, 60451",111584384,"R"
243840,"550 15TH STREET UNIT 606","SAN DIEGO","CA",92101,32.71125154,-117.150364104,340,"550 15TH STREET UNIT 606, SAN DIEGO, CA, 92101","Match","Exact","550 15TH ST, SAN DIEGO, CA, 92101",612865416,"L"
243841,"550 29TH AVENUE","SAN MATEO","CA",94403,37.536040289,-122.31252449,341,"550 29TH AVENUE, SAN MATEO, CA, 94403","Match","Exact","550 29TH AVE, SAN MATEO, CA, 94403",192379785,"R"
243842,"550 7TH ST W","HASTINGS","MN",55033,44.7392837300001,-92.8589537509999,342,"550 7TH ST W, HASTINGS, MN, 55033","Match","Exact","550 7TH ST W, HASTINGS, MN, 55033",37913885,"L"
243843,"550 ADELINE STREET","OAKLAND","CA",94607,NA,NA,343,"550 ADELINE STREET, OAKLAND, CA, 94607","No_Match",NA,NA,NA,NA
243844,"550 AIRPORT ROAD - SUITE 500","ROCK HILL","SC",29732,34.9933145190001,-81.0585691159999,344,"550 AIRPORT ROAD - SUITE 500, ROCK HILL, SC, 29732","Match","Exact","550 AIRPORT RD, ROCK HILL, SC, 29732",647235248,"R"
243845,"550 AMBRYM DRIVE","FAIRVIEW","TX",75069,33.136206929,-96.6376274849999,345,"550 AMBRYM DRIVE, FAIRVIEW, TX, 75069","Match","Exact","550 AMBRYM DR, FAIRVIEW, TX, 75069",210513810,"L"
243846,"550 AMERICAN AVE STE 203","KING OF PRUSSIA","PA",19406,40.095032341,-75.397830539,346,"550 AMERICAN AVE STE 203, KING OF PRUSSIA, PA, 19406","Match","Exact","550 AMERICAN AVE, KING OF PRUSSIA, PA, 19406",645485510,"L"
243847,"550 ANCHOR DRIVE","JOPPA","MD",21085,39.405748783,-76.357834886,347,"550 ANCHOR DRIVE, JOPPA, MD, 21085","Match","Exact","550 ANCHOR DR, JOPPA, MD, 21085",191644215,"L"
243848,"550 AZALEA CIRCLE","NORTHFIELD","OH",44067,41.280505729,-81.498052518,348,"550 AZALEA CIRCLE, NORTHFIELD, OH, 44067","Match","Exact","550 AZALEA CIR, NORTHFIELD, OH, 44067",61383297,"R"
243849,"550 BELLESTRI DRIVE","MONROE","MI",48161,41.922328986,-83.425820894,349,"550 BELLESTRI DRIVE, MONROE, MI, 48161","Match","Exact","550 BELLESTRI DR, MONROE, MI, 48161",40479715,"R"
243850,"550 BLACKBERRY LANE","SAN RAFAEL","CA",94903,38.028216781,-122.55461898,350,"550 BLACKBERRY LANE, SAN RAFAEL, CA, 94903","Match","Exact","550 BLACKBERRY LN, SAN RAFAEL, CA, 94903",192761961,"R"
243851,"550 BOBCAT RD","SUMMERFIELD","NC",27358,36.3028779360001,-79.8701601189999,351,"550 BOBCAT RD, SUMMERFIELD, NC, 27358","Match","Exact","550 BOBCAT RD, SUMMERFIELD, NC, 27358",56216889,"L"
243852,"550 BOURBON ST","GEORGETOWN","KY",40324,38.212609775,-84.551615337,352,"550 BOURBON ST, GEORGETOWN, KY, 40324","Match","Exact","550 BOURBON ST, GEORGETOWN, KY, 40324",41232067,"L"
243853,"550 BRANCH AVE","PROVIDENCE","RI",2904,41.8513223300001,-71.422421318,353,"550 BRANCH AVE, PROVIDENCE, RI, 2904","Match","Exact","550 BRANCH AVE, PROVIDENCE, RI, 02904",47458421,"L"
243854,"550 BUSH ROAD","JUPITER","FL",33458,26.9293308920001,-80.129432005,354,"550 BUSH ROAD, JUPITER, FL, 33458","Match","Exact","550 BUSH RD, JUPITER, FL, 33458",653176377,"R"
243855,"550 CASCADE DRIVE","LEBANON","OR",97335,44.5099591970001,-122.891377643,355,"550 CASCADE DRIVE, LEBANON, OR, 97335","Match","Non_Exact","550 CASCADE DR, LEBANON, OR, 97355",616562671,"L"
243856,"550 CENTRAL AVE","MIDDLETOWN","IN",47356,40.0582414880001,-85.5345647409999,356,"550 CENTRAL AVE, MIDDLETOWN, IN, 47356","Match","Exact","550 CENTRAL AVE, MIDDLETOWN, IN, 47356",29997682,"L"
243857,"550 CLAYPOOL BOYCE RD","ALVATON","KY",42122,36.8506988670001,-86.321133096,357,"550 CLAYPOOL BOYCE RD, ALVATON, KY, 42122","Match","Non_Exact","550 CLAYPOOL-BOYCE RD, ALVATON, KY, 42122",635399948,"L"
243858,"550 COCHITUATE ROAD SUITE 25","FRAMINGHAM","MA",1701,42.306567769,-71.391698821,358,"550 COCHITUATE ROAD SUITE 25, FRAMINGHAM, MA, 1701","Match","Exact","550 COCHITUATE RD, FRAMINGHAM, MA, 01701",638524037,"L"
243859,"550 COLUMBUS AVE APT 5","BOSTON","MA",2118,42.341378703,-71.080674589,359,"550 COLUMBUS AVE APT 5, BOSTON, MA, 2118","Match","Exact","550 COLUMBUS AVE, BOSTON, MA, 02118",640251097,"R"
243860,"550 CORAL COURT APT 2A","NEWPORT NEWS","VA",23606,37.096411985,-76.492652382,360,"550 CORAL COURT APT 2A, NEWPORT NEWS, VA, 23606","Match","Exact","550 CORAL CT, NEWPORT NEWS, VA, 23606",624268325,"L"
243861,"550 COUNTRY DR","RINGGOLD","VA",24586,36.6297024450001,-79.256823566,361,"550 COUNTRY DR, RINGGOLD, VA, 24586","Match","Exact","550 COUNTRY DR, RINGGOLD, VA, 24586",56639731,"R"
243862,"550 COUNTY HIGHWAY 782","DELANO","TN",37331,NA,NA,362,"550 COUNTY HIGHWAY 782, DELANO, TN, 37331","No_Match",NA,NA,NA,NA
243863,"550 COUNTY RD 502","BAYFIELD","CO",81122,37.238135271,-107.613706629,363,"550 COUNTY RD 502, BAYFIELD, CO, 81122","Match","Exact","550 CO RD 502, BAYFIELD, CO, 81122",91717640,"R"
243864,"550 COURTHOUSE ROAD","STAFFORD","VA",22554,38.4363070970001,-77.450708745,364,"550 COURTHOUSE ROAD, STAFFORD, VA, 22554","Match","Exact","550 COURTHOUSE RD, STAFFORD, VA, 22554",647890945,"L"
243865,"550 COVE COURT 550","SAN LEANDRO","CA",94578,37.691870749,-122.136150876,365,"550 COVE COURT 550, SAN LEANDRO, CA, 94578","Match","Exact","550 COVE CT, SAN LEANDRO, CA, 94578",125041562,"L"
243866,"550 CR 912A","BRAZORIA","TX",77422,29.038615281,-95.550125319,366,"550 CR 912A, BRAZORIA, TX, 77422","Match","Exact","550 CO RD 912A, BRAZORIA, TX, 77422",116573944,"L"
243867,"550 CRANES WAY APT 224","ALTAMONTE SPRGS","FL",32701,NA,NA,367,"550 CRANES WAY APT 224, ALTAMONTE SPRGS, FL, 32701","No_Match",NA,NA,NA,NA
243868,"550 CRESTWOOD AVE","WADSWORTH","OH",44281,41.038288998,-81.7239239689999,368,"550 CRESTWOOD AVE, WADSWORTH, OH, 44281","Match","Exact","550 CRESTWOOD AVE, WADSWORTH, OH, 44281",58678979,"R"
243869,"550 DORIAN ROAD","WESTFIELD","NJ",7090,40.6436546950001,-74.3479559899999,369,"550 DORIAN ROAD, WESTFIELD, NJ, 7090","Match","Exact","550 DORIAN RD, WESTFIELD, NJ, 07090",60568345,"R"
243870,"550 DULLES AVENUE","SUGAR LAND","TX",77478,29.618967103,-95.5826048329999,370,"550 DULLES AVENUE, SUGAR LAND, TX, 77478","Match","Exact","550 DULLES AVE, SUGAR LAND, TX, 77478",78348585,"L"
243871,"550 E 61ST","CHICAGO","IL",60637,41.7839692110001,-87.6113061999999,371,"550 E 61ST, CHICAGO, IL, 60637","Match","Non_Exact","550 E 61ST ST, CHICAGO, IL, 60637",605564145,"L"
243872,"550 E CARSON PLAZA DR SUITE 221","CARSON","CA",90746,33.8452809360001,-118.265748112,372,"550 E CARSON PLAZA DR SUITE 221, CARSON, CA, 90746","Match","Non_Exact","550 E CARSON PLAZA DR, CARSON, CA, 90746",241251246,"R"
243873,"550 E CARSON PLAZA DRIVE STE 232","CARSON","CA",90746,33.8452809360001,-118.265748112,373,"550 E CARSON PLAZA DRIVE STE 232, CARSON, CA, 90746","Match","Non_Exact","550 E CARSON PLAZA DR, CARSON, CA, 90746",241251246,"R"
243874,"550 E HAMBURG ST","PINCKNEY","MI",48169,42.4596030770001,-83.942382927,374,"550 E HAMBURG ST, PINCKNEY, MI, 48169","Match","Exact","550 E HAMBURG ST, PINCKNEY, MI, 48169",23547691,"R"
243875,"550 E HOSPITALITY LANE SUITE 200","SAN BERNARDINO","CA",92408,34.0663780560001,-117.274404413,375,"550 E HOSPITALITY LANE SUITE 200, SAN BERNARDINO, CA, 92408","Match","Non_Exact","550 E HOSPITALITY LN, SAN BERNARDINO, CA, 92408",144724587,"R"
243876,"550 E MCKELLIPS RD APT 1006","MESA","AZ",85203,33.451498374,-111.818279555,376,"550 E MCKELLIPS RD APT 1006, MESA, AZ, 85203","Match","Non_Exact","550 E MCKELLIPS RD, MESA, AZ, 85203",637534530,"L"
243877,"550 E MONA DR","OAK CREEK","WI",53154,42.89915139,-87.904693094,377,"550 E MONA DR, OAK CREEK, WI, 53154","Match","Exact","550 E MONA DR, OAK CREEK, WI, 53154",77764581,"R"
243878,"550 E SHAW AVE SUITE 240-21","FRESNO","CA",93710,36.8085580750001,-119.777947705,378,"550 E SHAW AVE SUITE 240-21, FRESNO, CA, 93710","Match","Non_Exact","550 E SHAW AVE, FRESNO, CA, 93710",197575150,"L"
243879,"550 E SPRING STREET","COLUMBUS","OH",43215,39.968395447,-82.98558502,379,"550 E SPRING STREET, COLUMBUS, OH, 43215","Match","Exact","550 E SPRING ST, COLUMBUS, OH, 43215",218649229,"L"
243880,"550 E STATE HIGHWAY 100","PALM COAST","FL",32164,NA,NA,380,"550 E STATE HIGHWAY 100, PALM COAST, FL, 32164","No_Match",NA,NA,NA,NA
243881,"550 E WEDDELL DR UNIT 1121","SUNNYVALE","CA",94089,37.398986033,-122.014178504,381,"550 E WEDDELL DR UNIT 1121, SUNNYVALE, CA, 94089","Match","Non_Exact","550 E WEDDELL DR, SUNNYVALE, CA, 94089",624393193,"R"
243882,"550 EARL GARRETT STREET SUITE 103","KERRVILLE","TX",78028,30.04883583,-99.136857347,382,"550 EARL GARRETT STREET SUITE 103, KERRVILLE, TX, 78028","Match","Exact","550 EARL GARRETT ST, KERRVILLE, TX, 78028",176889081,"L"
243883,"550 EAST 8TH STREET","HIALEAH","FL",33010,25.829428009,-80.2704828719999,383,"550 EAST 8TH STREET, HIALEAH, FL, 33010","Match","Exact","550 E 8TH ST, HIALEAH, FL, 33010",115999832,"R"
243884,"550 EAST CHESTER STREET","LONG BEACH","NY",11561,40.589529226,-73.648159151,384,"550 EAST CHESTER STREET, LONG BEACH, NY, 11561","Match","Exact","550 E CHESTER ST, LONG BEACH, NY, 11561",147682565,"R"
243885,"550 EAST HOSPITALITY LANE-SUITE 300","SAN BERNARDINO","CA",92408,34.0663812500001,-117.274421234,385,"550 EAST HOSPITALITY LANE-SUITE 300, SAN BERNARDINO, CA, 92408","Match","Non_Exact","550 E HOSPITALITY LN, SAN BERNARDINO, CA, 92408",144724587,"R"
243886,"550 EAST MARKET ST","DALY CITY","CA",94014,37.690372187,-122.460185434,386,"550 EAST MARKET ST, DALY CITY, CA, 94014","Match","Exact","550 E MARKET ST, DALY CITY, CA, 94014",192367860,"R"
243887,"550 EAST SOUTH BOUNDARY","PERRYSBURG","OH",43551,41.5494121830001,-83.6101210909999,387,"550 EAST SOUTH BOUNDARY, PERRYSBURG, OH, 43551","Match","Non_Exact","550 E SOUTH BOUNDARY ST, PERRYSBURG, OH, 43551",38728574,"R"
243888,"550 EAST TENNESSEE STREET","TALLAHASSEE","FL",32308,30.4447148260001,-84.274757837,388,"550 EAST TENNESSEE STREET, TALLAHASSEE, FL, 32308","Match","Exact","550 E TENNESSEE ST, TALLAHASSEE, FL, 32308",82889418,"L"
243889,"550 EL CIELO ROAD 11","PALM SPRINGS","CA",92264,NA,NA,389,"550 EL CIELO ROAD 11, PALM SPRINGS, CA, 92264","No_Match",NA,NA,NA,NA
243890,"550 EUGENE ST","FERNDALE","CA",95536,40.5740601190001,-124.263975672,390,"550 EUGENE ST, FERNDALE, CA, 95536","Match","Exact","550 EUGENE ST, FERNDALE, CA, 95536",652327012,"L"
243891,"550 F AVE","CORONADO","CA",92118,32.6937444340001,-117.179498847,391,"550 F AVE, CORONADO, CA, 92118","Match","Exact","550 F AVE, CORONADO, CA, 92118",195344012,"R"
243892,"550 FANNIN SUITE 600","BEAUMONT","TX",77701,30.0808942100001,-94.099693841,392,"550 FANNIN SUITE 600, BEAUMONT, TX, 77701","Match","Non_Exact","550 FANNIN ST, BEAUMONT, TX, 77701",73880189,"R"
243893,"550 FISHERMAN STREET  541642","OPA-LOCKA","FL",33053,25.901359036,-80.253074525,393,"550 FISHERMAN STREET  541642, OPA-LOCKA, FL, 33053","Match","Non_Exact","550 FISHERMAN ST, OPA LOCKA, FL, 33054",116032125,"R"
243894,"550 FLYING POINT ROAD","WATER MILL","NY",11976,40.894376664,-72.353277723,394,"550 FLYING POINT ROAD, WATER MILL, NY, 11976","Match","Exact","550 FLYING POINT RD, WATER MILL, NY, 11976",114047176,"L"
243895,"550 FOREST AVE SUITE 14- 2","PLYMOUTH","MI",48170,42.3684498310001,-83.4708407959999,395,"550 FOREST AVE SUITE 14- 2, PLYMOUTH, MI, 48170","Match","Exact","550 FOREST AVE, PLYMOUTH, MI, 48170",95407976,"R"
243896,"550 FRANKLIN AVENUE","BROOKLYN","NY",11238,40.6796620040001,-73.955386392,396,"550 FRANKLIN AVENUE, BROOKLYN, NY, 11238","Match","Exact","550 FRANKLIN AVE, BROOKLYN, NY, 11238",652208370,"R"
243897,"550 GOLDFINCH WAY","STOCKBRIDGE","GA",30281,33.520091327,-84.238050475,397,"550 GOLDFINCH WAY, STOCKBRIDGE, GA, 30281","Match","Exact","550 GOLDFINCH WAY, STOCKBRIDGE, GA, 30281",628089261,"L"
243898,"550 GRACELAND AVE - APT 11","DES PLAINES","IL",60016,42.043481709,-87.889343584,398,"550 GRACELAND AVE - APT 11, DES PLAINES, IL, 60016","Match","Exact","550 GRACELAND AVE, DES PLAINES, IL, 60016",605243231,"R"
243899,"550 GREY GOOSE LANE","EFFORT","PA",18330,NA,NA,399,"550 GREY GOOSE LANE, EFFORT, PA, 18330","No_Match",NA,NA,NA,NA
243900,"550 GUS HIPP BLVD SUITE 1","ROCKLEDGE","FL",32955,28.304108947,-80.7193872299999,400,"550 GUS HIPP BLVD SUITE 1, ROCKLEDGE, FL, 32955","Match","Exact","550 GUS HIPP BLVD, ROCKLEDGE, FL, 32955",93954001,"L"
243901,"550 HANCOCK STREET","Q","MA",2170,42.270631537,-71.020943647,401,"550 HANCOCK STREET, Q, MA, 2170","Match","Non_Exact","550 HANCOCK ST, QUINCY, MA, 02170",87248724,"L"
243902,"550 HARMONY SCHOOL ROAD","JASPER","GA",30143,34.4325468710001,-84.429632759,402,"550 HARMONY SCHOOL ROAD, JASPER, GA, 30143","Match","Exact","550 HARMONY SCHOOL RD, JASPER, GA, 30143",600556114,"L"
243903,"550 HARVEST PARK DR STE B","BRENTWOOD","CA",94513,NA,NA,403,"550 HARVEST PARK DR STE B, BRENTWOOD, CA, 94513","No_Match",NA,NA,NA,NA
243904,"550 HIETTS LN SUITE C","CLARKSVILLE","TN",37043,36.507051604,-87.318468052,404,"550 HIETTS LN SUITE C, CLARKSVILLE, TN, 37043","Match","Exact","550 HIETTS LN, CLARKSVILLE, TN, 37043",31824085,"R"
243905,"550 HIGHLAND STREET","FREDERICK","MD",21701,39.4161460980001,-77.398273229,405,"550 HIGHLAND STREET, FREDERICK, MD, 21701","Match","Exact","550 HIGHLAND ST, FREDERICK, MD, 21701",60673227,"L"
243906,"550 HIGHWAY 72 BY-PASS","GREENWOOD","SC",29649,34.2053163510001,-82.192748361,406,"550 HIGHWAY 72 BY-PASS, GREENWOOD, SC, 29649","Match","Non_Exact","550 STATE HWY 72, GREENWOOD, SC, 29649",617916763,"L"
243907,"550 HOMESTEAD ROAD","HERSHEY","PA",17033,40.2784206100001,-76.639536332,407,"550 HOMESTEAD ROAD, HERSHEY, PA, 17033","Match","Exact","550 HOMESTEAD RD, HERSHEY, PA, 17033",648399281,"L"
243908,"550 IDA ST    2SW","DES PLAINES","IL",60016,42.0432674190001,-87.887622296,408,"550 IDA ST    2SW, DES PLAINES, IL, 60016","Match","Exact","550 IDA ST, DES PLAINES, IL, 60016",111722704,"R"
243909,"550 JIMMY CARTER BLVRD   SUITE 110","NORCROSS","GA",30093,NA,NA,409,"550 JIMMY CARTER BLVRD   SUITE 110, NORCROSS, GA, 30093","No_Match",NA,NA,NA,NA
243910,"550 JOHN WESLEY DOBBS AVE NE APT B","ATLANTA","GA",30312,33.7593042870001,-84.3688397669999,410,"550 JOHN WESLEY DOBBS AVE NE APT B, ATLANTA, GA, 30312","Match","Exact","550 JOHN WESLEY DOBBS AVE NE, ATLANTA, GA, 30312",17357284,"L"
243911,"550 JUNE LN APT 302","RALEIGH","NC",27610,NA,NA,411,"550 JUNE LN APT 302, RALEIGH, NC, 27610","No_Match",NA,NA,NA,NA
243912,"550 KINGS AVE","LAKESIDE","OR",97449,43.5889611200001,-124.179540715,412,"550 KINGS AVE, LAKESIDE, OR, 97449","Match","Exact","550 KINGS AVE, LAKESIDE, OR, 97449",136999702,"L"
243913,"550 KNOX AVE","BOYD","TX",76023,33.0755489490001,-97.571119258,413,"550 KNOX AVE, BOYD, TX, 76023","Match","Exact","550 KNOX AVE, BOYD, TX, 76023",611203404,"L"
243914,"550 LAGUNA DRIVE SUITE A","CARLSBAD","CA",92008,33.1652140570001,-117.3521862,414,"550 LAGUNA DRIVE SUITE A, CARLSBAD, CA, 92008","Match","Exact","550 LAGUNA DR, CARLSBAD, CA, 92008",195457639,"L"
243915,"550 LARKSPUR ST H328","PONDERAY","ID",83852,48.3055273000001,-116.536773397,415,"550 LARKSPUR ST H328, PONDERAY, ID, 83852","Match","Exact","550 LARKSPUR ST, PONDERAY, ID, 83852",625084267,"R"
243916,"550 LENA STREET","SAINT AUGUSTINE","FL",32084,29.8831456940001,-81.332673342,416,"550 LENA STREET, SAINT AUGUSTINE, FL, 32084","Match","Exact","550 LENA ST, SAINT AUGUSTINE, FL, 32084",92583812,"L"
243917,"550 LENOIR ROAD","MORGANTON","NC",28655,35.7712675110001,-81.690566738,417,"550 LENOIR ROAD, MORGANTON, NC, 28655","Match","Exact","550 LENOIR RD, MORGANTON, NC, 28655",37157728,"L"
243918,"550 LIBERTY SQUARE RD","BOXBOROUGH","MA",1719,42.4945870000001,-71.497928918,418,"550 LIBERTY SQUARE RD, BOXBOROUGH, MA, 1719","Match","Exact","550 LIBERTY SQUARE RD, BOXBOROUGH, MA, 01719",87118893,"R"
243919,"550 LINDSAY ST NW","ATLANTA","GA",30314,33.7697431770001,-84.416490354,419,"550 LINDSAY ST NW, ATLANTA, GA, 30314","Match","Non_Exact","550 LINDSEY ST NW, ATLANTA, GA, 30314",17341969,"L"
243920,"550 LONG POINT ROAD","MOUNT PLEASANT","SC",29464,NA,NA,420,"550 LONG POINT ROAD, MOUNT PLEASANT, SC, 29464","No_Match",NA,NA,NA,NA
243921,"550 MAIN ST","CAIRO","NY",12413,42.3011302370001,-74.0015508499999,421,"550 MAIN ST, CAIRO, NY, 12413","Match","Exact","550 MAIN ST, CAIRO, NY, 12413",35683076,"R"
243922,"550 MAIN STREET","CAIRO","NY",12413,42.3011302370001,-74.0015508499999,422,"550 MAIN STREET, CAIRO, NY, 12413","Match","Exact","550 MAIN ST, CAIRO, NY, 12413",35683076,"R"
243923,"550 MALTBIE STREET","LAWRENCEVILLE","GA",30046,33.964443998,-84.0018951179999,423,"550 MALTBIE STREET, LAWRENCEVILLE, GA, 30046","Match","Exact","550 MALTBIE ST, LAWRENCEVILLE, GA, 30046",640547279,"R"
243924,"550 MANOR RD SUITE 1042","STATEN ISLAND","NY",10314,40.6138432590001,-74.12260738,424,"550 MANOR RD SUITE 1042, STATEN ISLAND, NY, 10314","Match","Exact","550 MANOR RD, STATEN ISLAND, NY, 10314",59866608,"R"
243925,"550 MANZANITA ROAD","REDLANDS","CA",92373,34.0238720930001,-117.163457211,425,"550 MANZANITA ROAD, REDLANDS, CA, 92373","Match","Exact","550 MANZANITA RD, REDLANDS, CA, 92373",144665825,"R"
243926,"550 MASSACHUSETTS AVE FLOOR 3","CAMBRIDGE","MA",2139,42.3645666640001,-71.1022962599999,426,"550 MASSACHUSETTS AVE FLOOR 3, CAMBRIDGE, MA, 2139","Match","Exact","550 MASSACHUSETTS AVE, CAMBRIDGE, MA, 02139",86870059,"L"
243927,"550 MAYBELL AVE","PALO ALTO","CA",94306,37.4090363390001,-122.126746009,427,"550 MAYBELL AVE, PALO ALTO, CA, 94306","Match","Exact","550 MAYBELL AVE, PALO ALTO, CA, 94306",122952470,"R"
243928,"550 MCDONALD ST","GUNTER ANNEX","AL",36114,32.4045383380001,-86.254097322,428,"550 MCDONALD ST, GUNTER ANNEX, AL, 36114","Match","Non_Exact","550 MCDONALD ST, MAXWELL AFB GUNTER ANNEX, AL, 36114",642884581,"R"
243929,"550 MCDONALD ST","MONTGOMERY","AL",36114,32.4045383380001,-86.254097322,429,"550 MCDONALD ST, MONTGOMERY, AL, 36114","Match","Exact","550 MCDONALD ST, MONTGOMERY, AL, 36114",642884581,"R"
243930,"550 MEADE AVE","CHARLOTTESVILLE","VA",22902,38.0310381800001,-78.464381201,430,"550 MEADE AVE, CHARLOTTESVILLE, VA, 22902","Match","Exact","550 MEADE AVE, CHARLOTTESVILLE, VA, 22902",83371468,"R"
243931,"550 MEIGS STREET","ROCHESTER","NY",14607,43.143736598,-77.5967671459999,431,"550 MEIGS STREET, ROCHESTER, NY, 14607","Match","Exact","550 MEIGS ST, ROCHESTER, NY, 14607",14540512,"L"
243932,"550 MINOT AVE","AUBURN","ME",4210,44.082589962,-70.248145614,432,"550 MINOT AVE, AUBURN, ME, 4210","Match","Exact","550 MINOT AVE, AUBURN, ME, 04210",77978786,"L"
243933,"550 MOREHOUSE ROAD","EASTON","CT",6612,41.2454512630001,-73.291173737,433,"550 MOREHOUSE ROAD, EASTON, CT, 6612","Match","Exact","550 MOREHOUSE RD, EASTON, CT, 06612",649722425,"R"
243934,"550 N 120 W","LINDON","UT",84042,40.347922456,-111.718463286,434,"550 N 120 W, LINDON, UT, 84042","Match","Exact","550 N 120 W, LINDON, UT, 84042",134233498,"R"
243935,"550 N 159TH ST E SUITE 309","WICHITA","KS",67230,NA,NA,435,"550 N 159TH ST E SUITE 309, WICHITA, KS, 67230","Tie",NA,NA,NA,NA
243936,"550 N 2300 EAST ROAD","PANA","IL",62557,39.428395075,-89.0992718799999,436,"550 N 2300 EAST ROAD, PANA, IL, 62557","Match","Exact","550 N 2300 EAST RD, PANA, IL, 62557",99313889,"R"
243937,"550 N CENTRAL EXPRESSWAY - UNIT 622","MCKINNEY","TX",75070,33.1940310030001,-96.639506621,437,"550 N CENTRAL EXPRESSWAY - UNIT 622, MCKINNEY, TX, 75070","Match","Exact","550 CENTRAL EXPY, MCKINNEY, TX, 75070",123491882,"L"
243938,"550 N CENTRAL EXPRESSWAY 1274","MCKINNEY","TX",75070,33.1940310030001,-96.639506621,438,"550 N CENTRAL EXPRESSWAY 1274, MCKINNEY, TX, 75070","Match","Exact","550 CENTRAL EXPY, MCKINNEY, TX, 75070",123491882,"L"
243939,"550 N CENTRAL EXPRESSWAY","MCKINNEY","TX",75070,NA,NA,439,"550 N CENTRAL EXPRESSWAY, MCKINNEY, TX, 75070","Tie",NA,NA,NA,NA
243940,"550 N CENTRAL EXPY NUM 2633","MCKINNEY","TX",75070,33.1940310030001,-96.639506621,440,"550 N CENTRAL EXPY NUM 2633, MCKINNEY, TX, 75070","Match","Exact","550 CENTRAL EXPY, MCKINNEY, TX, 75070",123491882,"L"
243941,"550 N CENTRAL EXPY UNIT 18","MCKINNEY","TX",75070,33.1940310030001,-96.639506621,441,"550 N CENTRAL EXPY UNIT 18, MCKINNEY, TX, 75070","Match","Exact","550 CENTRAL EXPY, MCKINNEY, TX, 75070",123491882,"L"
243942,"550 N CONGRESS AVE SUITE23","WEST PALMBEACH","FL",33401,26.717080084,-80.081155428,442,"550 N CONGRESS AVE SUITE23, WEST PALMBEACH, FL, 33401","Match","Non_Exact","550 CONGRESS AVE, WEST PALM BEACH, FL, 33401",647708459,"R"
243943,"550 N FIGUEROA ST 6107","LOS ANGELES","CA",90012,34.062190679,-118.246559089,443,"550 N FIGUEROA ST 6107, LOS ANGELES, CA, 90012","Match","Non_Exact","550 N FIGUEROA ST, LOS ANGELES, CA, 90012",141617915,"R"
243944,"550 N FIGUEROA ST APT 2021","LOS ANGELES","CA",90012,34.062190679,-118.246559089,444,"550 N FIGUEROA ST APT 2021, LOS ANGELES, CA, 90012","Match","Non_Exact","550 N FIGUEROA ST, LOS ANGELES, CA, 90012",141617915,"R"
243945,"550 N FIGUEROA STREET APT 4056","LOS ANGELES","CA",90012,34.062190679,-118.246559089,445,"550 N FIGUEROA STREET APT 4056, LOS ANGELES, CA, 90012","Match","Non_Exact","550 N FIGUEROA ST, LOS ANGELES, CA, 90012",141617915,"R"
243946,"550 N FIGUEROA STREET UNIT 4063","LOS ANGELES","CA",90012,34.062190679,-118.246559089,446,"550 N FIGUEROA STREET UNIT 4063, LOS ANGELES, CA, 90012","Match","Non_Exact","550 N FIGUEROA ST, LOS ANGELES, CA, 90012",141617915,"R"
243947,"550 N FLORES ST 1","WEST HOLLYWOOD","CA",90048,34.0811405600001,-118.371209058,447,"550 N FLORES ST 1, WEST HOLLYWOOD, CA, 90048","Match","Non_Exact","550 N FLORES ST, W HOLLYWOOD, CA, 90048",141598199,"R"
243948,"550 N INDIANA AVE","CROWN POINT","IN",46307,41.4234168,-87.3546981279999,448,"550 N INDIANA AVE, CROWN POINT, IN, 46307","Match","Exact","550 N INDIANA AVE, CROWN POINT, IN, 46307",98432612,"L"
243949,"550 N INDIANA ST","MOORESVILLE","IN",46158,39.6193969010001,-86.374963669,449,"550 N INDIANA ST, MOORESVILLE, IN, 46158","Match","Exact","550 N INDIANA ST, MOORESVILLE, IN, 46158",43573048,"L"
243950,"550 N INDIANA STREET","MOORESVILLE","IN",46158,39.6193969010001,-86.374963669,450,"550 N INDIANA STREET, MOORESVILLE, IN, 46158","Match","Exact","550 N INDIANA ST, MOORESVILLE, IN, 46158",43573048,"L"
243951,"550 N MAIN ST PO BOX 128","WHEATLAND","MO",65779,NA,NA,451,"550 N MAIN ST PO BOX 128, WHEATLAND, MO, 65779","No_Match",NA,NA,NA,NA
243952,"550 N MAIN STREET","JONESBORO","IL",62952,37.4623731770001,-89.268899179,452,"550 N MAIN STREET, JONESBORO, IL, 62952","Match","Exact","550 N MAIN ST, JONESBORO, IL, 62952",5978779,"R"
243953,"550 N VAN DYKE ST","DECATUR","IL",62521,39.8482170720001,-88.9682410629999,453,"550 N VAN DYKE ST, DECATUR, IL, 62521","Match","Non_Exact","550 N VAN DYKE ST, DECATUR, IL, 62522",20745923,"R"
243954,"550 NE 124 STREET","MIAMI","FL",33161,25.889310016,-80.187346314,454,"550 NE 124 STREET, MIAMI, FL, 33161","Match","Exact","550 NE 124TH ST, MIAMI, FL, 33161",116056798,"R"
243955,"550 NEGLEY RUN BOULEVARD","PITTSBURGH","PA",15206,40.465865718,-79.919330911,455,"550 NEGLEY RUN BOULEVARD, PITTSBURGH, PA, 15206","Match","Exact","550 NEGLEY RUN BLVD, PITTSBURGH, PA, 15206",629104500,"R"
243956,"550 NELSON LN","LINCOLN","CA",95648,38.881097691,-121.340074534,456,"550 NELSON LN, LINCOLN, CA, 95648","Match","Exact","550 NELSON LN, LINCOLN, CA, 95648",106775839,"R"
243957,"550 NORTH 160 WEST CIRCLE","ST. GEORGE","UT",84770,37.117454219,-113.58657841,457,"550 NORTH 160 WEST CIRCLE, ST. GEORGE, UT, 84770","Match","Exact","550 N 160 WEST CIR, SAINT GEORGE, UT, 84770",166188374,"R"
243958,"550 NORTH LARCHMONT BLVD STE 102","LOS ANGELES","CA",90004,34.0803392120001,-118.323645643,458,"550 NORTH LARCHMONT BLVD STE 102, LOS ANGELES, CA, 90004","Match","Exact","550 N LARCHMONT BLVD, LOS ANGELES, CA, 90004",141602974,"R"
243959,"550 NORTH PARSON STREET","WEST COLUMBIA","SC",29169,33.9926107250001,-81.079553889,459,"550 NORTH PARSON STREET, WEST COLUMBIA, SC, 29169","Match","Exact","550 N PARSON ST, WEST COLUMBIA, SC, 29169",70055273,"R"
243960,"550 NORTH STREET","WHITE PLAINS","NY",10605,41.0184345580001,-73.738289003,460,"550 NORTH STREET, WHITE PLAINS, NY, 10605","Match","Exact","550 NORTH ST, WHITE PLAINS, NY, 10605",139843975,"L"
243961,"550 NORTHRIDGE PARKWAY APT 2104","SANDY SPRINGS","GA",30350,33.9842303830001,-84.3475762309999,461,"550 NORTHRIDGE PARKWAY APT 2104, SANDY SPRINGS, GA, 30350","Match","Exact","550 NORTHRIDGE PKWY, SANDY SPRINGS, GA, 30350",642709961,"L"
243962,"550 NW UNIVERSITY BLVD STE 104","PORT SAINT LUCIE","FL",34986,27.321456966,-80.3994259629999,462,"550 NW UNIVERSITY BLVD STE 104, PORT SAINT LUCIE, FL, 34986","Match","Non_Exact","550 NW UNIVERSITY BLVD, PORT ST LUCIE, FL, 34986",638635327,"L"
243963,"550 ORANGE GROVE PLACE","PASADENA","CA",91103,34.1536479590001,-118.155862856,463,"550 ORANGE GROVE PLACE, PASADENA, CA, 91103","Match","Exact","550 ORANGE GROVE PL, PASADENA, CA, 91103",642190303,"R"
243964,"550 OURAY AVENUE","GRAND JUNCTION","CO",81504,39.0713953000001,-108.5635943,464,"550 OURAY AVENUE, GRAND JUNCTION, CO, 81504","Match","Non_Exact","550 OURAY AVE, GRAND JCT, CO, 81501",122432433,"L"
243965,"550 OZORA ROAD","LOGANVILLE","GA",30052,33.893240539,-83.913671999,465,"550 OZORA ROAD, LOGANVILLE, GA, 30052","Match","Exact","550 OZORA RD, LOGANVILLE, GA, 30052",88914791,"L"
243966,"550 PASEO MIRAMAR","PACIFIC PALISADES","CA",90272,34.0469016060001,-118.556429142,466,"550 PASEO MIRAMAR, PACIFIC PALISADES, CA, 90272","Match","Non_Exact","550 PSO MIRAMAR, PACIFIC PALISADES, CA, 90272",141557531,"R"
243967,"550 PECK ROAD","SPENCERPORT","NY",14559,43.2441292660001,-77.785281572,467,"550 PECK ROAD, SPENCERPORT, NY, 14559","Match","Exact","550 PECK RD, SPENCERPORT, NY, 14559",14525389,"R"
243968,"550 PHARR RD NE","ATLANTA","GA",30305,33.836996566,-84.370416736,468,"550 PHARR RD NE, ATLANTA, GA, 30305","Match","Exact","550 PHARR RD NE, ATLANTA, GA, 30305",17355854,"L"
243969,"550 PIN OAK DRIVE","LEXINGTON","SC",29073,33.991563206,-81.159344452,469,"550 PIN OAK DRIVE, LEXINGTON, SC, 29073","Match","Exact","550 OAK DR, LEXINGTON, SC, 29073",70086117,"R"
243970,"550 PINETOWN ROAD SUITE 205","FORT WASHINGTON","PA",19034,40.1401841860001,-75.19412627,470,"550 PINETOWN ROAD SUITE 205, FORT WASHINGTON, PA, 19034","Match","Exact","550 PINETOWN RD, FORT WASHINGTON, PA, 19034",651262836,"L"
243971,"550 POPLAR AVENUE","MEMPHIS","TN",38105,35.147706095,-90.041591473,471,"550 POPLAR AVENUE, MEMPHIS, TN, 38105","Match","Exact","550 POPLAR AVE, MEMPHIS, TN, 38105",72903675,"L"
243972,"550 POST RD UNIT 108","RIDGELAND","MS",39157,32.4305521000001,-90.074747073,472,"550 POST RD UNIT 108, RIDGELAND, MS, 39157","Match","Exact","550 POST RD, RIDGELAND, MS, 39157",152492726,"R"
243973,"550 RAMS BLVD","RACELAND","KY",41169,NA,NA,473,"550 RAMS BLVD, RACELAND, KY, 41169","No_Match",NA,NA,NA,NA
243974,"550 RICE STREET","ST PAUL","MN",55103,44.9578230760001,-93.105956441,474,"550 RICE STREET, ST PAUL, MN, 55103","Match","Exact","550 RICE ST, SAINT PAUL, MN, 55103",97644795,"R"
243975,"550 RIDGE ROAD","MILL HALL","PA",17751,41.079569285,-77.456296688,475,"550 RIDGE ROAD, MILL HALL, PA, 17751","Match","Exact","550 RIDGE RD, MILL HALL, PA, 17751",77159806,"L"
243976,"550 RIVER ROAD","CHATHAM","NJ",7928,40.707563475,-74.418724251,476,"550 RIVER ROAD, CHATHAM, NJ, 7928","Match","Exact","550 RIVER RD, CHATHAM, NJ, 07928",629450530,"R"
243977,"550 RIVERSIDE DR APT 54","NEW YORK","NY",10027,40.8159322270001,-73.960534046,477,"550 RIVERSIDE DR APT 54, NEW YORK, NY, 10027","Match","Exact","550 RIVERSIDE DR, NEW YORK, NY, 10027",650153463,"R"
243978,"550 RODRIGUEZ STREET","WATSONVILLE","CA",95076,36.9110947950001,-121.761264234,478,"550 RODRIGUEZ STREET, WATSONVILLE, CA, 95076","Match","Exact","550 RODRIGUEZ ST, WATSONVILLE, CA, 95076",125513570,"R"
243979,"550 ROWANWOOD WAY","APEX","NC",27523,35.758976197,-78.856257956,479,"550 ROWANWOOD WAY, APEX, NC, 27523","Match","Exact","550 ROWANWOOD WAY, APEX, NC, 27523",648793057,"R"
243980,"550 S 600 W","HURRICANE","UT",84737,37.168694004,-113.298918955,480,"550 S 600 W, HURRICANE, UT, 84737","Match","Exact","550 S 600 W, HURRICANE, UT, 84737",166178984,"R"
243981,"550 S COHANSEY AVE","EGG HARBOR CITY","NJ",8215,39.5221442820001,-74.6515821259999,481,"550 S COHANSEY AVE, EGG HARBOR CITY, NJ, 8215","Match","Exact","550 S COHANSEY AVE, EGG HARBOR CITY, NJ, 08215",202498083,"R"
243982,"550 S GRANDIN AVENUE","AZUSA","CA",91702,34.1128436380001,-117.911146807,482,"550 S GRANDIN AVENUE, AZUSA, CA, 91702","Match","Exact","550 S GRANDIN AVE, AZUSA, CA, 91702",141709347,"L"
243983,"550 S ROAD 1 E","CHINO VALLEY","AZ",86323,34.7390725390001,-112.447608837,483,"550 S ROAD 1 E, CHINO VALLEY, AZ, 86323","Match","Exact","550 S RD 1 E, CHINO VALLEY, AZ, 86323",617711678,"L"
243984,"550 S SHORELINE BLVD","MOUNTAIN VIEW","CA",94041,37.391089908,-122.086190095,484,"550 S SHORELINE BLVD, MOUNTAIN VIEW, CA, 94041","Match","Exact","550 S SHORELINE BLVD, MOUNTAIN VIEW, CA, 94041",635452440,"R"
243985,"550 SAGLE RD","SAGLE","ID",83860,48.2029641720001,-116.553513571,485,"550 SAGLE RD, SAGLE, ID, 83860","Match","Exact","550 SAGLE RD, SAGLE, ID, 83860",169480705,"L"
243986,"550 SE  EIGHTH ST","EVANSVILLE","IN",47713,37.969109293,-87.5629869749999,486,"550 SE  EIGHTH ST, EVANSVILLE, IN, 47713","Match","Exact","550 SE 8TH ST, EVANSVILLE, IN, 47713",39783001,"L"
243987,"550 SILKY LEAF DRIVE","HOUSTON","TX",77073,29.9696152430001,-95.4111321249999,487,"550 SILKY LEAF DRIVE, HOUSTON, TX, 77073","Match","Exact","550 SILKY LEAF DR, HOUSTON, TX, 77073",627945127,"L"
243988,"550 SILVER SPUR RD STE 230","RANCHO PALOS VERDES","CA",90275,33.772432053,-118.372288718,488,"550 SILVER SPUR RD STE 230, RANCHO PALOS VERDES, CA, 90275","Match","Exact","550 SILVER SPUR RD, RANCHO PALOS VERDES, CA, 90275",241244516,"L"
243989,"550 SOMERSET TERRACE NE SUITE 101","ATLANTA","GA",30306,33.77049284,-84.3623257849999,489,"550 SOMERSET TERRACE NE SUITE 101, ATLANTA, GA, 30306","Match","Exact","550 SOMERSET TER NE, ATLANTA, GA, 30306",17357020,"L"
243990,"550 SOUTH 52ND STREET","LINCOLN","NE",68510,40.8085238530001,-96.648913941,490,"550 SOUTH 52ND STREET, LINCOLN, NE, 68510","Match","Exact","550 S 52ND ST, LINCOLN, NE, 68510",28258705,"L"
243991,"550 SOUTH AUDUBON ROAD","INDIANAPOLIS","IN",46219,39.760727709,-86.070225621,491,"550 SOUTH AUDUBON ROAD, INDIANAPOLIS, IN, 46219","Match","Exact","550 S AUDUBON RD, INDIANAPOLIS, IN, 46219",108001689,"R"
243992,"550 SOUTH GARDNER ST","SCOTTSBURG","IN",47170,38.69343216,-85.780467943,492,"550 SOUTH GARDNER ST, SCOTTSBURG, IN, 47170","Match","Non_Exact","550 N GARDNER ST, SCOTTSBURG, IN, 47170",31602877,"L"
243993,"550 SOUTH HILL ST UNIT 1344","LOS ANGELES","CA",90013,34.048048662,-118.252446018,493,"550 SOUTH HILL ST UNIT 1344, LOS ANGELES, CA, 90013","Match","Exact","550 S HILL ST, LOS ANGELES, CA, 90013",141617286,"L"
243994,"550 SOUTH HILL STREET SUITE 1650","LOS ANGELES","CA",90013,34.048048662,-118.252446018,494,"550 SOUTH HILL STREET SUITE 1650, LOS ANGELES, CA, 90013","Match","Exact","550 S HILL ST, LOS ANGELES, CA, 90013",141617286,"L"
243995,"550 SPRING BRANCH RD","OXFORD","GA",30054,33.6471679040001,-83.8670787679999,495,"550 SPRING BRANCH RD, OXFORD, GA, 30054","Match","Exact","550 SPRING BRANCH RD, OXFORD, GA, 30054",23622169,"R"
243996,"550 STAFFORD RUN RD 209","STAFFORD","TX",77477,NA,NA,496,"550 STAFFORD RUN RD 209, STAFFORD, TX, 77477","No_Match",NA,NA,NA,NA
243997,"550 STANTON CHRISTIANA ROAD","NEWARK","DE",19713,39.6976182970001,-75.65124144,497,"550 STANTON CHRISTIANA ROAD, NEWARK, DE, 19713","Match","Exact","550 STANTON CHRISTIANA RD, NEWARK, DE, 19713",187301050,"L"
243998,"550 SUMMIT AVE","DUNDAS","MN",55019,44.424902833,-93.177329341,498,"550 SUMMIT AVE, DUNDAS, MN, 55019","Match","Exact","550 SUMMIT AVE, DUNDAS, MN, 55019",633642898,"L"
243999,"550 SUMMIT ST","ELGIN","IL",60120,42.0462393340001,-88.268967502,499,"550 SUMMIT ST, ELGIN, IL, 60120","Match","Exact","550 SUMMIT ST, ELGIN, IL, 60120",119509283,"L"
244000,"550 SW 146TH STREET","BURIEN","WA",98166,47.472257702,-122.341077392,500,"550 SW 146TH STREET, BURIEN, WA, 98166","Match","Exact","550 SW 146TH ST, BURIEN, WA, 98166",239765516,"R"
