"ID","Address","City","State","Zip","lat","long","id","input_address","match_indicator","match_type","matched_address","tiger_line_id","tiger_side"
180501,"3429 SOUTH HWY 619","JAMESTOWN","KY",42629,NA,NA,1,"3429 SOUTH HWY 619, JAMESTOWN, KY, 42629","No_Match",NA,NA,NA,NA
180502,"3429 SOUTH MAIN ST","ELKHART","IN",46517,41.6482459740001,-85.937203935,2,"3429 SOUTH MAIN ST, ELKHART, IN, 46517","Match","Exact","3429 S MAIN ST, ELKHART, IN, 46517",7771053,"R"
180503,"3429 WESTGATE DRIVE","GREENVILLE","NC",27834,35.6024282930001,-77.433162626,3,"3429 WESTGATE DRIVE, GREENVILLE, NC, 27834","Match","Exact","3429 WESTGATE DR, GREENVILLE, NC, 27834",80029256,"R"
180504,"3429 WOODRUFF RIDGE LN","LOGANVILLE","GA",30052,33.837836839,-83.96665516,4,"3429 WOODRUFF RIDGE LN, LOGANVILLE, GA, 30052","Match","Non_Exact","3429 WOODRUFF RIDGE LN SW, LOGANVILLE, GA, 30052",625221384,"L"
180505,"34298 CRENSHAW ST","BEAUMONT","CA",92223,33.961851429,-117.067704792,5,"34298 CRENSHAW ST, BEAUMONT, CA, 92223","Match","Exact","34298 CRENSHAW ST, BEAUMONT, CA, 92223",640582173,"R"
180506,"343 18TH STREET","DUNBAR","WV",25064,38.360738843,-81.7478393599999,6,"343 18TH STREET, DUNBAR, WV, 25064","Match","Exact","343 18TH ST, DUNBAR, WV, 25064",78586565,"L"
180507,"343 ALVERSTON COURT","BALLWIN","MO",63021,38.5780131010001,-90.568863759,7,"343 ALVERSTON COURT, BALLWIN, MO, 63021","Match","Exact","343 ALVERSTON CT, BALLWIN, MO, 63021",100187569,"R"
180508,"343 ARNOLD LAMP RD","E BERNSTADT","KY",40729,37.1908601120001,-84.170073494,8,"343 ARNOLD LAMP RD, E BERNSTADT, KY, 40729","Match","Exact","343 ARNOLD LAMP RD, E BERNSTADT, KY, 40729",650956300,"L"
180509,"343 ASCHIM ROAD","SUNBURST","MT",59482,48.936884859,-111.665368115,9,"343 ASCHIM ROAD, SUNBURST, MT, 59482","Match","Exact","343 ASCHIM RD, SUNBURST, MT, 59482",636310460,"L"
180510,"343 AUBE RIDGE RD","HINESBURG","VT",5461,44.3505928600001,-73.097263691,10,"343 AUBE RIDGE RD, HINESBURG, VT, 5461","Match","Exact","343 AUBE RIDGE RD, HINESBURG, VT, 05461",135844264,"L"
180511,"343 AUBE RIDGE ROAD","HINESBURG","VT",5461,44.3505928600001,-73.097263691,11,"343 AUBE RIDGE ROAD, HINESBURG, VT, 5461","Match","Exact","343 AUBE RIDGE RD, HINESBURG, VT, 05461",135844264,"L"
180512,"343 BENJAMIN BLVD","FISHERVILLE","KY",40023,38.1170794120001,-85.377718656,12,"343 BENJAMIN BLVD, FISHERVILLE, KY, 40023","Match","Exact","343 BENJAMIN BLVD, FISHERVILLE, KY, 40023",614130364,"L"
180513,"343 BOB BRANCH RD","ANDREWS","NC",28901,NA,NA,13,"343 BOB BRANCH RD, ANDREWS, NC, 28901","No_Match",NA,NA,NA,NA
180514,"343 CALHOUN RD","ROCKY MOUNT","NC",27801,35.908691311,-77.755301919,14,"343 CALHOUN RD, ROCKY MOUNT, NC, 27801","Match","Exact","343 CALHOUN RD, ROCKY MOUNT, NC, 27801",640081563,"R"
180515,"343 CAMBRIDGE CT","WAXAHACHIE","TX",75167,32.4913644160001,-96.8686101709999,15,"343 CAMBRIDGE CT, WAXAHACHIE, TX, 75167","Match","Exact","343 CAMBRIDGE CT, WAXAHACHIE, TX, 75167",616470431,"L"
180516,"343 CAMPBELLS CREEK DRIVE","CHARLESTON","WV",25306,38.3142093550001,-81.5351249569999,16,"343 CAMPBELLS CREEK DRIVE, CHARLESTON, WV, 25306","Match","Exact","343 CAMPBELLS CREEK DR, CHARLESTON, WV, 25306",78650003,"L"
180517,"343 CARVER ROAD","GRIFFIN","GA",30224,33.240990803,-84.297409148,17,"343 CARVER ROAD, GRIFFIN, GA, 30224","Match","Exact","343 CARVER RD, GRIFFIN, GA, 30224",23761356,"L"
180518,"343 CLAIREMORE CIRCLE","HINESVILLE","GA",31313,31.7913522470001,-81.624303238,18,"343 CLAIREMORE CIRCLE, HINESVILLE, GA, 31313","Match","Exact","343 CLAIREMORE CIR, HINESVILLE, GA, 31313",619374629,"R"
180519,"343 DEMYA DRIVE","SAN ANTONIO","TX",78227,29.406419676,-98.654911339,19,"343 DEMYA DRIVE, SAN ANTONIO, TX, 78227","Match","Exact","343 DEMYA DR, SAN ANTONIO, TX, 78227",101506820,"R"
180520,"343 DORCHESTER ST","CLEMMONS","NC",27012,35.990001562,-80.3437739679999,20,"343 DORCHESTER ST, CLEMMONS, NC, 27012","Match","Exact","343 DORCHESTER ST, CLEMMONS, NC, 27012",651377218,"L"
180521,"343 DUTCH LN","CARLINVILLE","IL",62626,39.2830939020001,-89.9063214289999,21,"343 DUTCH LN, CARLINVILLE, IL, 62626","Match","Exact","343 DUTCH LN, CARLINVILLE, IL, 62626",97934612,"R"
180522,"343 E  LIVINGSTON AVE","COLUMBUS","OH",43215,39.9524665770001,-82.98933089,22,"343 E  LIVINGSTON AVE, COLUMBUS, OH, 43215","Match","Exact","343 E LIVINGSTON AVE, COLUMBUS, OH, 43215",218649197,"R"
180523,"343 E 30TH ST APT 17G","NEW YORK","NY",10016,40.7418261390001,-73.9766250389999,23,"343 E 30TH ST APT 17G, NEW YORK, NY, 10016","Match","Non_Exact","343 E 30TH ST, NEW YORK, NY, 10016",59654567,"L"
180524,"343 E 76TH ST SUITE 1C","NEW YORK","NY",10021,40.7709212660001,-73.955353583,24,"343 E 76TH ST SUITE 1C, NEW YORK, NY, 10021","Match","Non_Exact","343 E 76TH ST, NEW YORK, NY, 10021",650087079,"L"
180525,"343 E ELWOOD STREET","PHOENIX","AZ",85040,33.4135662400001,-112.06810052,25,"343 E ELWOOD STREET, PHOENIX, AZ, 85040","Match","Exact","343 E ELWOOD ST, PHOENIX, AZ, 85040",128215307,"R"
180526,"343 E MAIN STREET 101","STOCKTON","CA",95202,37.953243576,-121.286591157,26,"343 E MAIN STREET 101, STOCKTON, CA, 95202","Match","Non_Exact","343 E MAIN ST, STOCKTON, CA, 95202",133850496,"L"
180527,"343 EAST MAIN ST SUITE 919","STOCKTON","CA",95202,37.9532419230001,-121.286600906,27,"343 EAST MAIN ST SUITE 919, STOCKTON, CA, 95202","Match","Exact","343 E MAIN ST, STOCKTON, CA, 95202",133850496,"L"
180528,"343 FLYNN AVENUE","SEBASTOPOL","CA",95472,38.405593744,-122.821776273,28,"343 FLYNN AVENUE, SEBASTOPOL, CA, 95472","Match","Non_Exact","343 FLYNN ST, SEBASTOPOL, CA, 95472",67527324,"R"
180529,"343 FOUR SEASONS DR","CEDAR FALLS","IA",50613,NA,NA,29,"343 FOUR SEASONS DR, CEDAR FALLS, IA, 50613","No_Match",NA,NA,NA,NA
180530,"343 GENOA SPRINGS DRIVE","GENOA","NV",89411,39.015268286,-119.833651092,30,"343 GENOA SPRINGS DRIVE, GENOA, NV, 89411","Match","Exact","343 GENOA SPRINGS DR, GENOA, NV, 89411",173755528,"L"
180531,"343 GOLD STREET SUITE 1501","BROOKLYN","NY",11201,40.6941248100001,-73.983358891,31,"343 GOLD STREET SUITE 1501, BROOKLYN, NY, 11201","Match","Exact","343 GOLD ST, BROOKLYN, NY, 11201",650082689,"L"
180532,"343 GREAT NECK ROAD","GREAT NECK","NY",11021,40.7803217470001,-73.732675257,32,"343 GREAT NECK ROAD, GREAT NECK, NY, 11021","Match","Exact","343 GREAT NECK RD, GREAT NECK, NY, 11021",147656459,"R"
180533,"343 HEMLOCK CIRCLE","LINCOLN","MA",1773,42.410373038,-71.351006317,33,"343 HEMLOCK CIRCLE, LINCOLN, MA, 1773","Match","Exact","343 HEMLOCK CIR, LINCOLN, MA, 01773",87140009,"R"
180534,"343 HOBRON LN APT 3503","HONOLULU","HI",96815,21.286235279,-157.837878718,34,"343 HOBRON LN APT 3503, HONOLULU, HI, 96815","Match","Exact","343 HOBRON LN, HONOLULU, HI, 96815",624613810,"R"
180535,"343 HOWARD AVENUE","WOODMERE","NY",11598,40.631661668,-73.7199023049999,35,"343 HOWARD AVENUE, WOODMERE, NY, 11598","Match","Exact","343 HOWARD AVE, WOODMERE, NY, 11598",147677401,"L"
180536,"343 KIRK RD","JACKSONVILLE","FL",32218,30.5146396150001,-81.61626331,36,"343 KIRK RD, JACKSONVILLE, FL, 32218","Match","Exact","343 KIRK RD, JACKSONVILLE, FL, 32218",83890812,"L"
180537,"343 KOSER AVENUE","IOWA CITY","IA",52246,41.6550155790001,-91.560020827,37,"343 KOSER AVENUE, IOWA CITY, IA, 52246","Match","Exact","343 KOSER AVE, IOWA CITY, IA, 52246",84519321,"R"
180538,"343 LAMELLA AVE","LEHIGH ACRES","FL",33974,26.5835510570001,-81.571950424,38,"343 LAMELLA AVE, LEHIGH ACRES, FL, 33974","Match","Non_Exact","343 LAMELLA AVE S, LEHIGH ACRES, FL, 33974",117992762,"L"
180539,"343 LEROSE DR","CHICAGO HEIGHTS","IL",60411,41.53708691,-87.644947939,39,"343 LEROSE DR, CHICAGO HEIGHTS, IL, 60411","Match","Exact","343 LEROSE DR, CHICAGO HEIGHTS, IL, 60411",111713029,"R"
180540,"343 LOCKWOOD VALLEY RD","MARICOPA","CA",93252,34.6949299290001,-119.294343697,40,"343 LOCKWOOD VALLEY RD, MARICOPA, CA, 93252","Match","Exact","343 LOCKWOOD VALLEY RD, MARICOPA, CA, 93252",110079558,"L"
180541,"343 MONTAUK AVE","BROOKLYN","NY",11208,40.6699269910001,-73.876885762,41,"343 MONTAUK AVE, BROOKLYN, NY, 11208","Match","Exact","343 MONTAUK AVE, BROOKLYN, NY, 11208",59085597,"L"
180542,"343 MORTON RD","RHINEBECK","NY",12572,41.895181074,-73.937290521,42,"343 MORTON RD, RHINEBECK, NY, 12572","Match","Exact","343 MORTON RD, RHINEBECK, NY, 12572",4194367,"R"
180543,"343 MYRTLE HILL DRIVE","BATON ROUGE","LA",70810,30.365507311,-91.112584482,43,"343 MYRTLE HILL DRIVE, BATON ROUGE, LA, 70810","Match","Exact","343 MYRTLE HILL DR, BATON ROUGE, LA, 70810",606187202,"L"
180544,"343 NORTH ALMENAR DRIVE","GREENBRAE","CA",94904,37.956757371,-122.526826614,44,"343 NORTH ALMENAR DRIVE, GREENBRAE, CA, 94904","Match","Exact","343 N ALMENAR DR, GREENBRAE, CA, 94904",192765090,"L"
180545,"343 PARK AVE 1","WORCESTER","MA",1610,NA,NA,45,"343 PARK AVE 1, WORCESTER, MA, 1610","No_Match",NA,NA,NA,NA
180546,"343 PEFLEY DR","NORFOLK","VA",23502,36.835270145,-76.2078229219999,46,"343 PEFLEY DR, NORFOLK, VA, 23502","Match","Exact","343 PEFLEY DR, NORFOLK, VA, 23502",122130320,"R"
180547,"343 PENDRYN HILL CURVE","WOODBURY","MN",55125,44.943091377,-92.916219746,47,"343 PENDRYN HILL CURVE, WOODBURY, MN, 55125","Match","Exact","343 PENDRYN HILL CURVE, WOODBURY, MN, 55125",636516935,"L"
180548,"343 PERSINGER LANE","LEWISBURG","WV",24901,37.850461281,-80.384426375,48,"343 PERSINGER LANE, LEWISBURG, WV, 24901","Match","Exact","343 PERSINGER LN, LEWISBURG, WV, 24901",246586232,"R"
180549,"343 PINERIDGE DRIVE","FOREST PARK","GA",30297,33.6061496340001,-84.3786466189999,49,"343 PINERIDGE DRIVE, FOREST PARK, GA, 30297","Match","Exact","343 PINERIDGE DR, FOREST PARK, GA, 30297",23319169,"R"
180550,"343 POTENTIAL DRIVE","HOLLISTER","MO",65672,36.57071882,-93.305612665,50,"343 POTENTIAL DRIVE, HOLLISTER, MO, 65672","Match","Exact","343 POTENTIAL DR, HOLLISTER, MO, 65672",20156706,"R"
180551,"343 RANCO RIO AVE","BEN LOMOND","CA",95005,37.0899284500001,-122.07616495,51,"343 RANCO RIO AVE, BEN LOMOND, CA, 95005","Match","Non_Exact","343 RANCHO RIO AVE, BEN LOMOND, CA, 95005",125525716,"L"
180552,"343 RIDGE AVE","LAKEWOOD","NJ",8701,40.0968507640001,-74.199226344,52,"343 RIDGE AVE, LAKEWOOD, NJ, 8701","Match","Exact","343 RIDGE AVE, LAKEWOOD, NJ, 08701",635805081,"L"
180553,"343 S 500 E","SALT LAKE CITY","UT",84102,40.761647657,-111.876768673,53,"343 S 500 E, SALT LAKE CITY, UT, 84102","Match","Exact","343 S 500 E, SALT LAKE CITY, UT, 84102",652893671,"L"
180554,"343 SAINT VINCENT","IRVINE","CA",92618,NA,NA,54,"343 SAINT VINCENT, IRVINE, CA, 92618","Tie",NA,NA,NA,NA
180555,"343 SCHYLER WAY","COLUMBUS","OH",43230,40.0098068630001,-82.85733284,55,"343 SCHYLER WAY, COLUMBUS, OH, 43230","Match","Exact","343 SCHYLER WAY, COLUMBUS, OH, 43230",218690721,"R"
180556,"343 SCOTLOW WAY","MORRISVILLE","NC",27560,35.8310370030001,-78.8615491309999,56,"343 SCOTLOW WAY, MORRISVILLE, NC, 27560","Match","Exact","343 SCOTLOW WAY, MORRISVILLE, NC, 27560",641577161,"R"
180557,"343 SIERRA STREET","GAFFNEY","SC",29341,35.1077970360001,-81.642311677,57,"343 SIERRA STREET, GAFFNEY, SC, 29341","Match","Non_Exact","343 SIERRA DR, GAFFNEY, SC, 29341",18987828,"L"
180558,"343 SMITH AVENUE","CANTON","MS",39046,32.6158895740001,-90.0390929069999,58,"343 SMITH AVENUE, CANTON, MS, 39046","Match","Non_Exact","343 SMITH ST, CANTON, MS, 39046",152484531,"L"
180559,"343 SOQUEL AVE SUITE 257","SANTA CRUZ","CA",95062,36.9741555850001,-122.02029201,59,"343 SOQUEL AVE SUITE 257, SANTA CRUZ, CA, 95062","Match","Exact","343 SOQUEL AVE, SANTA CRUZ, CA, 95062",635482440,"L"
180560,"343 SOUTH WALNUT ST","HUNTINGTON","WV",25705,38.401836546,-82.40752564,60,"343 SOUTH WALNUT ST, HUNTINGTON, WV, 25705","Match","Exact","343 S WALNUT ST, HUNTINGTON, WV, 25705",101331471,"R"
180561,"343 SUNTERRA DRIVE","IDAHO FALLS","ID",83404,43.4527645910001,-112.027323092,61,"343 SUNTERRA DRIVE, IDAHO FALLS, ID, 83404","Match","Exact","343 SUNTERRA DR, IDAHO FALLS, ID, 83404",600581300,"L"
180562,"343 SW 27TH AVENUE","FORT LAUDERDALE","FL",33312,26.1173932730001,-80.177982513,62,"343 SW 27TH AVENUE, FORT LAUDERDALE, FL, 33312","Match","Exact","343 SW 27TH AVE, FORT LAUDERDALE, FL, 33312",114720889,"R"
180563,"343 SW STONEGATE TER","LAKE CITY","FL",32024,30.1819817620001,-82.7063985679999,63,"343 SW STONEGATE TER, LAKE CITY, FL, 32024","Match","Exact","343 SW STONEGATE TER, LAKE CITY, FL, 32024",5159575,"L"
180564,"343 SYCAMORE AVENUE","MERION","PA",19066,40.002252798,-75.24715077,64,"343 SYCAMORE AVENUE, MERION, PA, 19066","Match","Non_Exact","343 SYCAMORE AVE, MERION STA, PA, 19066",135091134,"R"
180565,"343 TICHENOR AVENUE","SOUTH ORANGE","NJ",7079,40.7387594790001,-74.258872271,65,"343 TICHENOR AVENUE, SOUTH ORANGE, NJ, 7079","Match","Exact","343 TICHENOR AVE, SOUTH ORANGE, NJ, 07079",63462900,"R"
180566,"343 TIMBER GROVE RD","OWINGS MILLS","MD",21117,39.450317145,-76.797928621,66,"343 TIMBER GROVE RD, OWINGS MILLS, MD, 21117","Match","Exact","343 TIMBER GROVE RD, OWINGS MILLS, MD, 21117",191562407,"R"
180567,"343 VIA MT CARMEL WAY","YOUNGSTOWN","OH",44505,41.10003519,-80.641999664,67,"343 VIA MT CARMEL WAY, YOUNGSTOWN, OH, 44505","Match","Non_Exact","343 VIA MT CARMEL AVE, YOUNGSTOWN, OH, 44505",64595798,"R"
180568,"343 VIZCAYA DR","PALM BEACH GARDENS","FL",33418,26.846975559,-80.1350281649999,68,"343 VIZCAYA DR, PALM BEACH GARDENS, FL, 33418","Match","Exact","343 VIZCAYA DR, PALM BEACH GARDENS, FL, 33418",115519706,"R"
180569,"343 W 25TH STREET","NEW YORK","NY",10001,40.7472896530001,-73.999231591,69,"343 W 25TH STREET, NEW YORK, NY, 10001","Match","Exact","343 W 25TH ST, NEW YORK, NY, 10001",611185462,"R"
180570,"343 W MILLTOWN RD SUITE 136","WOOSTER","OH",44691,NA,NA,70,"343 W MILLTOWN RD SUITE 136, WOOSTER, OH, 44691","Tie",NA,NA,NA,NA
180571,"343 W MULBERRY ALLEY","BEAVERTOWN","PA",17813,40.7529647480001,-77.173410087,71,"343 W MULBERRY ALLEY, BEAVERTOWN, PA, 17813","Match","Exact","343 W MULBERRY ALY, BEAVERTOWN, PA, 17813",47783733,"L"
180572,"343 WALDEN STREET","CAMBRIDGE","MA",2138,42.3845436840001,-71.133301659,72,"343 WALDEN STREET, CAMBRIDGE, MA, 2138","Match","Exact","343 WALDEN ST, CAMBRIDGE, MA, 02138",86892234,"R"
180573,"343 WEST PIKE STREET","COVINGTON","KY",41011,39.079968686,-84.515587209,73,"343 WEST PIKE STREET, COVINGTON, KY, 41011","Match","Exact","343 W PIKE ST, COVINGTON, KY, 41011",103876063,"L"
180574,"343 WOODLAWN CIRCLE","LAWRENCE","KS",66049,38.9850955000001,-95.273977144,74,"343 WOODLAWN CIRCLE, LAWRENCE, KS, 66049","Match","Exact","343 WOODLAWN CIR, LAWRENCE, KS, 66049",17687021,"R"
180575,"343-359 SPRINGFIELD AVENUE","NEWARK","ND",7103,NA,NA,75,"343-359 SPRINGFIELD AVENUE, NEWARK, ND, 7103","No_Match",NA,NA,NA,NA
180576,"343","FREELAND","MI",48623,NA,NA,76,"343, FREELAND, MI, 48623","No_Match",NA,NA,NA,NA
180577,"3430 34TH PLACE NW","WASHINGTON","DC",20016,38.93519902,-77.067521165,77,"3430 34TH PLACE NW, WASHINGTON, DC, 20016","Match","Exact","3430 34TH PL NW, WASHINGTON, DC, 20016",76221085,"L"
180578,"3430 3RD ST","BLOOMSBURG","PA",17815,41.015222672,-76.390125541,78,"3430 3RD ST, BLOOMSBURG, PA, 17815","Match","Exact","3430 THIRD ST, BLOOMSBURG, PA, 17815",59253529,"R"
180579,"3430 AVALON ROAD APT 202","SHAKER HEIGHTS","OH",44120,41.4680036410001,-81.559041323,79,"3430 AVALON ROAD APT 202, SHAKER HEIGHTS, OH, 44120","Match","Exact","3430 AVALON RD, SHAKER HEIGHTS, OH, 44120",61128714,"R"
180580,"3430 BRECKENRIDGE LANE  APARTMENT 3","LOUISVILLE","KY",40220,38.199476286,-85.624108833,80,"3430 BRECKENRIDGE LANE  APARTMENT 3, LOUISVILLE, KY, 40220","Match","Exact","3430 BRECKENRIDGE LN, LOUISVILLE, KY, 40220",649833520,"R"
180581,"3430 CONNECTICUT AVE NW 11187","WASHINGTON","DC",20008,38.9345819550001,-77.057943049,81,"3430 CONNECTICUT AVE NW 11187, WASHINGTON, DC, 20008","Match","Exact","3430 CONNECTICUT AVE NW, WASHINGTON, DC, 20008",76221161,"L"
180582,"3430 COUNTRY SQUARE DR APT 1022","CARROLLTON","TX",75006,32.964488413,-96.850219033,82,"3430 COUNTRY SQUARE DR APT 1022, CARROLLTON, TX, 75006","Match","Exact","3430 COUNTRY SQUARE DR, CARROLLTON, TX, 75006",611520956,"R"
180583,"3430 COUNTRY SQUARE DRIVE  1124","CARROLLTON","TX",75006,32.964488413,-96.850219033,83,"3430 COUNTRY SQUARE DRIVE  1124, CARROLLTON, TX, 75006","Match","Exact","3430 COUNTRY SQUARE DR, CARROLLTON, TX, 75006",611520956,"R"
180584,"3430 E FLAMINGO RD STE 232","LAS VEGAS","NV",89121,36.1153078410001,-115.099999616,84,"3430 E FLAMINGO RD STE 232, LAS VEGAS, NV, 89121","Match","Non_Exact","3430 E FLAMINGO RD, LAS VEGAS, NV, 89121",201877645,"L"
180585,"3430 E SUNRISE DRIVE STE 200","TUCSON","AZ",85718,32.3210430990001,-110.919909761,85,"3430 E SUNRISE DRIVE STE 200, TUCSON, AZ, 85718","Match","Non_Exact","3430 E SUNRISE DR, TUCSON, AZ, 85718",121167837,"L"
180586,"3430 EAST PONCE DE LEON AVE","ATLANTA","GA",30079,33.7946061170001,-84.26325912,86,"3430 EAST PONCE DE LEON AVE, ATLANTA, GA, 30079","Match","Non_Exact","3430 E PONCE DE LEON AVE, SCOTTDALE, GA, 30079",23362503,"L"
180587,"3430 EIGER MOUNTAIN ROAD","FLAGSTAFF","AZ",86004,35.223805708,-111.618665262,87,"3430 EIGER MOUNTAIN ROAD, FLAGSTAFF, AZ, 86004","Match","Exact","3430 EIGER MOUNTAIN RD, FLAGSTAFF, AZ, 86004",188860557,"L"
180588,"3430 ELDIVA CT","SAN JOSE","CA",95148,37.320056166,-121.770121258,88,"3430 ELDIVA CT, SAN JOSE, CA, 95148","Match","Exact","3430 ELDIVA CT, SAN JOSE, CA, 95148",615525710,"R"
180589,"3430 GOOSE DAM RD","ROCKY MOUNT","VA",24151,36.893792315,-79.84720956,89,"3430 GOOSE DAM RD, ROCKY MOUNT, VA, 24151","Match","Exact","3430 GOOSE DAM RD, ROCKY MOUNT, VA, 24151",56370273,"R"
180590,"3430 HOLLIDAY RD","DALLAS","TX",75224,32.701045736,-96.8542704399999,90,"3430 HOLLIDAY RD, DALLAS, TX, 75224","Match","Exact","3430 HOLLIDAY RD, DALLAS, TX, 75224",102947348,"L"
180591,"3430 IRBY DRIVE APT 609","CONWAY","AR",72034,35.107068957,-92.484161998,91,"3430 IRBY DRIVE APT 609, CONWAY, AR, 72034","Match","Exact","3430 IRBY DR, CONWAY, AR, 72034",141069137,"L"
180592,"3430 ISLE WAY","OXNARD","CA",93035,34.1820138200001,-119.215512722,92,"3430 ISLE WAY, OXNARD, CA, 93035","Match","Exact","3430 ISLE WAY, OXNARD, CA, 93035",110060201,"L"
180593,"3430 MALVERN HILL RD","CONWAY","AR",72032,35.071073267,-92.37299938,93,"3430 MALVERN HILL RD, CONWAY, AR, 72032","Match","Non_Exact","3430 MALVERN HILL DR, CONWAY, AR, 72032",630243217,"R"
180594,"3430 MARILYN STREET","COLUMBUS","IN",47203,39.2365537920001,-85.863596547,94,"3430 MARILYN STREET, COLUMBUS, IN, 47203","Match","Exact","3430 MARILYN ST, COLUMBUS, IN, 47203",30974287,"L"
180595,"3430 MCKELVEY ROAD STE L PMB 1206","BRIDGETON","MO",63044,38.7482499340001,-90.431111555,95,"3430 MCKELVEY ROAD STE L PMB 1206, BRIDGETON, MO, 63044","Match","Exact","3430 MCKELVEY RD, BRIDGETON, MO, 63044",618227963,"R"
180596,"3430 MONTICELLO BLVD","CLEVELAND HTS","OH",44121,41.5271160020001,-81.556653586,96,"3430 MONTICELLO BLVD, CLEVELAND HTS, OH, 44121","Match","Exact","3430 MONTICELLO BLVD, CLEVELAND HEIGHTS, OH, 44121",642638436,"R"
180597,"3430 N ACADEMY BLVD","COLORADO SPRINGS","CO",80917,38.880185254,-104.757090679,97,"3430 N ACADEMY BLVD, COLORADO SPRINGS, CO, 80917","Match","Exact","3430 N ACADEMY BLVD, COLORADO SPRINGS, CO, 80917",610711137,"L"
180598,"3430 NE MADISON WAY","ISSAQUAH","WA",98029,47.552467547,-121.990268363,98,"3430 NE MADISON WAY, ISSAQUAH, WA, 98029","Match","Exact","3430 NE MADISON WAY, ISSAQUAH, WA, 98029",647894159,"L"
180599,"3430 NEWPORT AVENUE","ANNAPOLIS","MD",21403,38.9213161590001,-76.464942295,99,"3430 NEWPORT AVENUE, ANNAPOLIS, MD, 21403","Match","Exact","3430 NEWPORT AVE, ANNAPOLIS, MD, 21403",68176956,"R"
180600,"3430 PECAN DR","PUEBLO","CO",81005,38.231099842,-104.651072596,100,"3430 PECAN DR, PUEBLO, CO, 81005","Match","Exact","3430 PECAN DR, PUEBLO, CO, 81005",105026600,"L"
180601,"3430 ROBINWOOD ROAD","GASTONIA","NC",28054,35.215744208,-81.1625639919999,101,"3430 ROBINWOOD ROAD, GASTONIA, NC, 28054","Match","Exact","3430 ROBINWOOD RD, GASTONIA, NC, 28054",637324581,"R"
180602,"3430 S 198TH STREET","SEATAC","WA",98188,47.424247967,-122.289133515,102,"3430 S 198TH STREET, SEATAC, WA, 98188","Match","Exact","3430 S 198TH ST, SEATAC, WA, 98188",650027452,"L"
180603,"3430 SOMERSET STREET","CRETE","IL",60417,41.4684687490001,-87.614707987,103,"3430 SOMERSET STREET, CRETE, IL, 60417","Match","Exact","3430 SOMERSET ST, CRETE, IL, 60417",111553484,"R"
180604,"3430 SOUTH BIRCH STREET","DENVER","CO",80222,39.6542565120001,-104.936284545,104,"3430 SOUTH BIRCH STREET, DENVER, CO, 80222","Match","Exact","3430 S BIRCH ST, DENVER, CO, 80222",177341062,"L"
180605,"3430 TEXAS SOTOL","SAN ANTONIO","TX",78261,29.6871773880001,-98.426815023,105,"3430 TEXAS SOTOL, SAN ANTONIO, TX, 78261","Match","Exact","3430 TEXAS SOTOL, SAN ANTONIO, TX, 78261",645099967,"L"
180606,"3430 TIBBETT AVENUE","BRONX","NY",10463,40.8836083840001,-73.905354845,106,"3430 TIBBETT AVENUE, BRONX, NY, 10463","Match","Exact","3430 TIBBETT AVE, BRONX, NY, 10463",80296395,"R"
180607,"3430 W CORTLAND","CHICAGO","IL",60647,41.9155251110001,-87.712413227,107,"3430 W CORTLAND, CHICAGO, IL, 60647","Match","Non_Exact","3430 W CORTLAND ST, CHICAGO, IL, 60647",111759170,"R"
180608,"3430 W PARKER AVE STE 1","CHICAGO","IL",60647,41.93106092,-87.71318847,108,"3430 W PARKER AVE STE 1, CHICAGO, IL, 60647","Match","Non_Exact","3430 W PARKER AVE, CHICAGO, IL, 60647",605224148,"R"
180609,"34301 24TH AVENUE EAST","ROY","WA",98580,46.9444737410001,-122.39741919,109,"34301 24TH AVENUE EAST, ROY, WA, 98580","Match","Exact","34301 24TH AVE E, ROY, WA, 98580",184703823,"L"
180610,"34301 S OLD BLACK CANYON HWY 7","BLACK CANYON CITY","AZ",85324,34.0695913800001,-112.151968637,110,"34301 S OLD BLACK CANYON HWY 7, BLACK CANYON CITY, AZ, 85324","Match","Exact","34301 OLD BLACK CANYON HWY, BLACK CANYON CITY, AZ, 85324",159442718,"R"
180611,"34305 SOLON ROAD SUITE 73","SOLON","OH",44139,41.3935513970001,-81.435237141,111,"34305 SOLON ROAD SUITE 73, SOLON, OH, 44139","Match","Exact","34305 SOLON RD, SOLON, OH, 44139",61168419,"L"
180612,"3431 1ST AVE S","MINNEAPOLIS","MN",55408,44.94073674,-93.2766167409999,112,"3431 1ST AVE S, MINNEAPOLIS, MN, 55408","Match","Exact","3431 1ST AVE S, MINNEAPOLIS, MN, 55408",43633593,"L"
180613,"3431 ALDRICH AVE S","MINNEAPOLIS","MN",55408,44.9407207670001,-93.2894521969999,113,"3431 ALDRICH AVE S, MINNEAPOLIS, MN, 55408","Match","Exact","3431 ALDRICH AVE S, MINNEAPOLIS, MN, 55408",43628703,"L"
180614,"3431 COLONIAL DRIVE","DUNCANSVILLE","PA",16635,40.450774079,-78.4297050709999,114,"3431 COLONIAL DRIVE, DUNCANSVILLE, PA, 16635","Match","Exact","3431 COLONIAL DR, DUNCANSVILLE, PA, 16635",628809562,"R"
180615,"3431 ELLWOOD AVE","RICHMOND","VA",23221,37.5561364120001,-77.485326207,115,"3431 ELLWOOD AVE, RICHMOND, VA, 23221","Match","Exact","3431 ELLWOOD AVE, RICHMOND, VA, 23221",201535267,"L"
180616,"3431 FORT BLVD","EL PASO","TX",79930,31.8059159330001,-106.453285516,116,"3431 FORT BLVD, EL PASO, TX, 79930","Match","Exact","3431 FORT BLVD, EL PASO, TX, 79930",189340787,"L"
180617,"3431 GARDEN GROVE DRIVE","HOUSTON","TX",77066,29.9420181,-95.470490656,117,"3431 GARDEN GROVE DRIVE, HOUSTON, TX, 77066","Match","Exact","3431 GARDEN GROVE DR, HOUSTON, TX, 77066",96011685,"R"
180618,"3431 LESTER RD","DENAIR","CA",95316,37.524410706,-120.803165009,118,"3431 LESTER RD, DENAIR, CA, 95316","Match","Exact","3431 LESTER RD, DENAIR, CA, 95316",102597203,"R"
180619,"3431 LOCUST CORNER ROAD","NEW RICHMOND","OH",45157,NA,NA,119,"3431 LOCUST CORNER ROAD, NEW RICHMOND, OH, 45157","No_Match",NA,NA,NA,NA
180620,"3431 N OXNARD BLVD","OXNARD","CA",93036,NA,NA,120,"3431 N OXNARD BLVD, OXNARD, CA, 93036","Tie",NA,NA,NA,NA
180621,"3431 ORANGEWOOD AVE","ROSSMOOR","CA",90720,33.7958888160001,-118.072634587,121,"3431 ORANGEWOOD AVE, ROSSMOOR, CA, 90720","Match","Exact","3431 ORANGEWOOD AVE, ROSSMOOR, CA, 90720",143997596,"L"
180622,"3431 ORIOLE CT NE","CEDAR RAPIDS","IA",52402,42.0197302290001,-91.689470876,122,"3431 ORIOLE CT NE, CEDAR RAPIDS, IA, 52402","Match","Exact","3431 ORIOLE CT NE, CEDAR RAPIDS, IA, 52402",17031314,"R"
180623,"3431 PEBBLESHORES","DALLAS","TX",75241,32.6618173480001,-96.764569928,123,"3431 PEBBLESHORES, DALLAS, TX, 75241","Match","Non_Exact","3431 PEBBLESHORES DR, DALLAS, TX, 75241",102959145,"L"
180624,"3431 PORTOLA AVE","LOS ANGELES","CA",90032,34.0855696470001,-118.172594556,124,"3431 PORTOLA AVE, LOS ANGELES, CA, 90032","Match","Exact","3431 PORTOLA AVE, LOS ANGELES, CA, 90032",141623376,"L"
180625,"3431 RAYFORD RD","S","TX",77386,30.112400682,-95.38959751,125,"3431 RAYFORD RD, S, TX, 77386","Match","Non_Exact","3431 RAYFORD RD, SPRING, TX, 77386",650444313,"L"
180626,"3431 ROBBINSDALE AVENUE","ROBBINSDALE","MN",55422,NA,NA,126,"3431 ROBBINSDALE AVENUE, ROBBINSDALE, MN, 55422","No_Match",NA,NA,NA,NA
180627,"3431 RUNNEBURG RD","CROSBY","TX",77532,29.9121943860001,-95.0154329599999,127,"3431 RUNNEBURG RD, CROSBY, TX, 77532","Match","Exact","3431 RUNNEBURG RD, CROSBY, TX, 77532",636958145,"L"
180628,"3431 S MARSHALL CT","INDEPENDENCE","MO",64055,39.056317377,-94.3781610569999,128,"3431 S MARSHALL CT, INDEPENDENCE, MO, 64055","Match","Exact","3431 S MARSHALL CT, INDEPENDENCE, MO, 64055",91500057,"R"
180629,"3431 S RIDGEWOOD AVE","PORT ORANGE","FL",32129,29.1497091310001,-80.990546029,129,"3431 S RIDGEWOOD AVE, PORT ORANGE, FL, 32129","Match","Exact","3431 S RIDGEWOOD AVE, PORT ORANGE, FL, 32129",647939600,"R"
180630,"3431 SHENANDOAH PL","ALAMOGORDO","NM",88310,32.932867006,-105.95731878,130,"3431 SHENANDOAH PL, ALAMOGORDO, NM, 88310","Match","Exact","3431 SHENANDOAH PL, ALAMOGORDO, NM, 88310",132322933,"L"
180631,"3431 SHORE DRIVE","EXCELSIOR","MN",55331,44.888083656,-93.607667194,131,"3431 SHORE DRIVE, EXCELSIOR, MN, 55331","Match","Exact","3431 SHORE DR, EXCELSIOR, MN, 55331",43495791,"R"
180632,"3431 W QUEEN LANE","PHILADELPHIA","PA",19129,40.0141482170001,-75.189584093,132,"3431 W QUEEN LANE, PHILADELPHIA, PA, 19129","Match","Exact","3431 W QUEEN LN, PHILADELPHIA, PA, 19129",131400596,"R"
180633,"3431 WALTON AVE","LOS ANGELES","CA",90007,34.0250492480001,-118.294858291,133,"3431 WALTON AVE, LOS ANGELES, CA, 90007","Match","Exact","3431 WALTON AVE, LOS ANGELES, CA, 90007",141607053,"R"
180634,"3431 WATERLICK ROAD","FOREST","VA",24551,37.3300997430001,-79.24922824,134,"3431 WATERLICK ROAD, FOREST, VA, 24551","Match","Exact","3431 WATERLICK RD, FOREST, VA, 24551",647602643,"L"
180635,"3431 WHEAT STREET","COLUMBIA","SC",29205,33.9942587360001,-80.991959606,135,"3431 WHEAT STREET, COLUMBIA, SC, 29205","Match","Exact","3431 WHEAT ST, COLUMBIA, SC, 29205",71828643,"L"
180636,"3431 WINDING RD","PARTLOW","VA",22534,38.054265996,-77.642730011,136,"3431 WINDING RD, PARTLOW, VA, 22534","Match","Exact","3431 WINDING RD, PARTLOW, VA, 22534",228786210,"R"
180637,"34310 N 139TH PLACE","SCOTTSDALE","AZ",85262,NA,NA,137,"34310 N 139TH PLACE, SCOTTSDALE, AZ, 85262","Tie",NA,NA,NA,NA
180638,"3432 65TH AVENUE","OAKLAND","CA",94605,37.7740214660001,-122.177198055,138,"3432 65TH AVENUE, OAKLAND, CA, 94605","Match","Exact","3432 65TH AVE, OAKLAND, CA, 94605",635728864,"R"
180639,"3432 ALISSA CT","ORLANDO","FL",32808,28.5878637910001,-81.464219526,139,"3432 ALISSA CT, ORLANDO, FL, 32808","Match","Exact","3432 ALISSA CT, ORLANDO, FL, 32808",94311946,"R"
180640,"3432 ARCHDALE DRIVE","RALEIGH","NC",27614,35.9630882810001,-78.5479379499999,140,"3432 ARCHDALE DRIVE, RALEIGH, NC, 27614","Match","Exact","3432 ARCHDALE DR, RALEIGH, NC, 27614",208364569,"L"
180641,"3432 CHERRY BLOSSOM DR NE","OLYMPIA","WA",98506,47.061969613,-122.846513745,141,"3432 CHERRY BLOSSOM DR NE, OLYMPIA, WA, 98506","Match","Exact","3432 CHERRY BLOSSOM DR NE, OLYMPIA, WA, 98506",180953210,"R"
180642,"3432 COUNTRY WOODS RD","COLUMBIA","MO",65203,38.9178492660001,-92.3815975219999,142,"3432 COUNTRY WOODS RD, COLUMBIA, MO, 65203","Match","Exact","3432 COUNTRY WOODS RD, COLUMBIA, MO, 65203",604990931,"R"
180643,"3432 DENMARK AVE NUMBER 141","EAGAN","MN",55123,44.8325457290001,-93.159631034,143,"3432 DENMARK AVE NUMBER 141, EAGAN, MN, 55123","Match","Exact","3432 DENMARK AVE, EAGAN, MN, 55123",37947327,"R"
180644,"3432 DENMARK AVE STE 253","EAGAN","MN",55123,44.8325457290001,-93.159631034,144,"3432 DENMARK AVE STE 253, EAGAN, MN, 55123","Match","Exact","3432 DENMARK AVE, EAGAN, MN, 55123",37947327,"R"
180645,"3432 MALLARD RISE","TODDVILLE","IA",52341,42.1268562270001,-91.69840298,145,"3432 MALLARD RISE, TODDVILLE, IA, 52341","Match","Non_Exact","3432 MALLARD RISE LN, TODDVILLE, IA, 52341",17057527,"L"
180646,"3432 N BRUCE ST SUITE 8","NORTH LAS VEGAS","NV",89030,36.2225889270001,-115.125247803,146,"3432 N BRUCE ST SUITE 8, NORTH LAS VEGAS, NV, 89030","Match","Non_Exact","3432 N BRUCE ST, N LAS VEGAS, NV, 89030",201965161,"R"
180647,"3432 OLD CROWN DRIVE","PASADENA","MD",21122,39.126921558,-76.5287353529999,147,"3432 OLD CROWN DRIVE, PASADENA, MD, 21122","Match","Exact","3432 OLD CROWN DR, PASADENA, MD, 21122",68165846,"L"
180648,"3432 OVERLAND DRIVE","DURANT","OK",74701,34.015260267,-96.409765389,148,"3432 OVERLAND DRIVE, DURANT, OK, 74701","Match","Exact","3432 OVERLAND DR, DURANT, OK, 74701",651557960,"L"
180649,"3432 OVERTON ROAD","COOL","CA",95614,38.8744235950001,-121.005898701,149,"3432 OVERTON ROAD, COOL, CA, 95614","Match","Exact","3432 OVERTON RD, COOL, CA, 95614",133058406,"L"
180650,"3432 PARK AVENUE","MEMPHIS","TN",38111,35.1078570060001,-89.9480641339999,150,"3432 PARK AVENUE, MEMPHIS, TN, 38111","Match","Exact","3432 PARK AVE, MEMPHIS, TN, 38111",72919697,"L"
180651,"3432 PARK GLENN LN","SNELLVILLE","GA",30078,33.8428395110001,-84.047199532,151,"3432 PARK GLENN LN, SNELLVILLE, GA, 30078","Match","Exact","3432 PARK GLENN LN, SNELLVILLE, GA, 30078",624671492,"R"
180652,"3432 SPRINGDALE ROAD","ARDMORE","OK",73401,NA,NA,152,"3432 SPRINGDALE ROAD, ARDMORE, OK, 73401","No_Match",NA,NA,NA,NA
180653,"3432 SPRUCE VALLEY LANE","DALLAS","TX",75233,32.7025008730001,-96.878186434,153,"3432 SPRUCE VALLEY LANE, DALLAS, TX, 75233","Match","Exact","3432 SPRUCE VALLEY LN, DALLAS, TX, 75233",102941260,"L"
180654,"3432 WALLACE ST UNIT A","PHILADELPHIA","PA",19104,39.96512325,-75.192694242,154,"3432 WALLACE ST UNIT A, PHILADELPHIA, PA, 19104","Match","Exact","3432 WALLACE ST, PHILADELPHIA, PA, 19104",131403683,"L"
180655,"3433 AXELWOOD DRIVE","MURFREESBORO","TN",37128,35.8527883200001,-86.459274508,155,"3433 AXELWOOD DRIVE, MURFREESBORO, TN, 37128","Match","Exact","3433 AXELWOOD DR, MURFREESBORO, TN, 37128",606779851,"L"
180656,"3433 COVE VIEW BLVD - UNIT 1503","GALVESTON","TX",77554,29.250594881,-94.8707611519999,156,"3433 COVE VIEW BLVD - UNIT 1503, GALVESTON, TX, 77554","Match","Exact","3433 COVE VIEW BLVD, GALVESTON, TX, 77554",96727502,"R"
180657,"3433 DEER PATH ROAD","ROCKFORD","IL",61107,42.295393818,-89.0414211359999,157,"3433 DEER PATH ROAD, ROCKFORD, IL, 61107","Match","Exact","3433 DEER PATH RD, ROCKFORD, IL, 61107",49277306,"R"
180658,"3433 E BLUERIDGE ST","SPRINGFIELD","MO",65809,37.1888881410001,-93.224476232,158,"3433 E BLUERIDGE ST, SPRINGFIELD, MO, 65809","Match","Exact","3433 E BLUERIDGE ST, SPRINGFIELD, MO, 65809",76700364,"L"
180659,"3433 E MARKET ST","YORK","PA",17402,39.9802939250001,-76.65695701,159,"3433 E MARKET ST, YORK, PA, 17402","Match","Exact","3433 E MARKET ST, YORK, PA, 17402",628809068,"L"
180660,"3433 GENEVA DR","SANTA CLARA","CA",95051,37.329125505,-121.992392703,160,"3433 GENEVA DR, SANTA CLARA, CA, 95051","Match","Exact","3433 GENEVA DR, SANTA CLARA, CA, 95051",122898376,"R"
180661,"3433 HIGHWAY 425","PINE BLUFF","AR",71601,34.1105967140001,-91.871996328,161,"3433 HIGHWAY 425, PINE BLUFF, AR, 71601","Match","Non_Exact","3433 US HWY 425, PINE BLUFF, AR, 71601",2566014,"R"
180662,"3433 LITHIA PINECREST RD SUITE 305","VALRICO","FL",33596,27.891306878,-82.2416627059999,162,"3433 LITHIA PINECREST RD SUITE 305, VALRICO, FL, 33596","Match","Exact","3433 LITHIA PINECREST RD, VALRICO, FL, 33596",629639299,"L"
180663,"3433 LITHIA PNECREST RD SUITE 237","VALRICO","FL",33596,27.891306878,-82.2416627059999,163,"3433 LITHIA PNECREST RD SUITE 237, VALRICO, FL, 33596","Match","Non_Exact","3433 LITHIA PINECREST RD, VALRICO, FL, 33596",629639299,"L"
180664,"3433 MERRICK LANE","COCONUT CREEK","FL",33063,26.2699193930001,-80.2010633849999,164,"3433 MERRICK LANE, COCONUT CREEK, FL, 33063","Match","Exact","3433 MERRICK LN, COCONUT CREEK, FL, 33063",633860950,"L"
180665,"3433 MLK FREEWAY","FORT WORTH","TX",76119,32.7112531510001,-97.275159984,165,"3433 MLK FREEWAY, FORT WORTH, TX, 76119","Match","Exact","3433 MARTIN LUTHER KING JR FWY, FORT WORTH, TX, 76119",101898322,"L"
180666,"3433 MYNA LN","MIAMISBURG","OH",45342,39.592236439,-84.2559285519999,166,"3433 MYNA LN, MIAMISBURG, OH, 45342","Match","Exact","3433 MYNA LN, MIAMISBURG, OH, 45342",624759147,"L"
180667,"3433 N RIDGE RD","TALLAHASSEE","FL",32305,30.397918819,-84.3031791339999,167,"3433 N RIDGE RD, TALLAHASSEE, FL, 32305","Match","Exact","3433 N RIDGE RD, TALLAHASSEE, FL, 32305",82867694,"R"
180668,"3433 NORTH CHURCH STREET APT 205","GREENSBORO","NC",27405,36.126035146,-79.788202258,168,"3433 NORTH CHURCH STREET APT 205, GREENSBORO, NC, 27405","Match","Exact","3433 N CHURCH ST, GREENSBORO, NC, 27405",131030800,"L"
180669,"3433 NW 173RD ST","EDMOND","OK",73012,35.6457629180001,-97.578384743,169,"3433 NW 173RD ST, EDMOND, OK, 73012","Match","Exact","3433 NW 173RD ST, EDMOND, OK, 73012",606073082,"R"
180670,"3433 RAINS CROSSROADS ROAD","PRINCETON","NC",27569,35.5171970660001,-78.171816984,170,"3433 RAINS CROSSROADS ROAD, PRINCETON, NC, 27569","Match","Exact","3433 RAINS CROSSROADS RD, PRINCETON, NC, 27569",26526454,"R"
180671,"3433 S GALENA ST STE 130","DENVER","CO",80231,39.6545397360001,-104.870064502,171,"3433 S GALENA ST STE 130, DENVER, CO, 80231","Match","Non_Exact","3433 S GALENA ST, DENVER, CO, 80231",177627887,"R"
180672,"3433 SOUTH 8000 WEST","MAGNA","UT",84044,40.6976691140001,-112.082257281,172,"3433 SOUTH 8000 WEST, MAGNA, UT, 84044","Match","Exact","3433 S 8000 W, MAGNA, UT, 84044",651943845,"L"
180673,"3433 W 400 S","BERNE","IN",46711,40.685531198,-85.0032357059999,173,"3433 W 400 S, BERNE, IN, 46711","Match","Exact","3433 W 400 S, BERNE, IN, 46711",6487868,"L"
180674,"3433 W OVERLOOK DR","LAYTON","UT",84041,NA,NA,174,"3433 W OVERLOOK DR, LAYTON, UT, 84041","No_Match",NA,NA,NA,NA
180675,"3433 W WESTMORELAND ST","PHILADELPHIA","PA",19129,40.0065373320001,-75.185297611,175,"3433 W WESTMORELAND ST, PHILADELPHIA, PA, 19129","Match","Exact","3433 W WESTMORELAND ST, PHILADELPHIA, PA, 19129",131401672,"R"
180676,"34331 OLIVE GROVE RD","WILDOMAR","CA",92595,33.62121977,-117.229619548,176,"34331 OLIVE GROVE RD, WILDOMAR, CA, 92595","Match","Exact","34331 OLIVE GROVE RD, WILDOMAR, CA, 92595",194867461,"R"
180677,"34332 ISLAND ESTATE STREET","SAN BENITO","TX",78586,26.06272116,-97.6266912999999,177,"34332 ISLAND ESTATE STREET, SAN BENITO, TX, 78586","Match","Non_Exact","34332 ISLAND ESTATES ST, SAN BENITO, TX, 78586",90021587,"R"
180678,"34337 WINDSONG TER","FREMONT","CA",94555,37.5592028880001,-122.056101528,178,"34337 WINDSONG TER, FREMONT, CA, 94555","Match","Exact","34337 WINDSONG TER, FREMONT, CA, 94555",125042133,"R"
180679,"3434 17TH AVE N","ST PETERSBURG","FL",33713,27.78820611,-82.680226966,179,"3434 17TH AVE N, ST PETERSBURG, FL, 33713","Match","Exact","3434 17TH AVE N, SAINT PETERSBURG, FL, 33713",124704796,"L"
180680,"3434 47TH STREET SUITE 220","BOULDER","CO",80301,40.0381347690001,-105.244203038,180,"3434 47TH STREET SUITE 220, BOULDER, CO, 80301","Match","Exact","3434 47TH ST, BOULDER, CO, 80301",220759020,"R"
180681,"3434 BURT DR","DECATUR","IL",62526,39.868021846,-89.00976658,181,"3434 BURT DR, DECATUR, IL, 62526","Match","Exact","3434 BURT DR, DECATUR, IL, 62526",653854383,"R"
180682,"3434 EDWARDS MILL RD  STE 112","RALEIGH","NC",27612,35.82662902,-78.704367452,182,"3434 EDWARDS MILL RD  STE 112, RALEIGH, NC, 27612","Match","Exact","3434 EDWARDS MILL RD, RALEIGH, NC, 27612",639840873,"L"
180683,"3434 HUMPHREY STREET","SAINT LOUIS","MO",63118,38.598224069,-90.239353192,183,"3434 HUMPHREY STREET, SAINT LOUIS, MO, 63118","Match","Exact","3434 HUMPHREY ST, SAINT LOUIS, MO, 63118",107601239,"L"
180684,"3434 LANFRANCO STREET","LOS ANGELES","CA",90063,34.0313386600001,-118.197803803,184,"3434 LANFRANCO STREET, LOS ANGELES, CA, 90063","Match","Exact","3434 LANFRANCO ST, LOS ANGELES, CA, 90063",141624917,"R"
180685,"3434 MAPLE AVENUE","TERRE HAUTE","IN",47804,39.492186964,-87.3692117799999,185,"3434 MAPLE AVENUE, TERRE HAUTE, IN, 47804","Match","Exact","3434 MAPLE AVE, TERRE HAUTE, IN, 47804",606469425,"L"
180686,"3434 MILL RD SUITE 11","SHEBOYGAN","WI",53083,43.785184203,-87.752216216,186,"3434 MILL RD SUITE 11, SHEBOYGAN, WI, 53083","Match","Exact","3434 MILL RD, SHEBOYGAN, WI, 53083",79522783,"R"
180687,"3434 MILL ROAD 48","SHEBOYGAN","WI",53083,43.785184203,-87.752216216,187,"3434 MILL ROAD 48, SHEBOYGAN, WI, 53083","Match","Exact","3434 MILL RD, SHEBOYGAN, WI, 53083",79522783,"R"
180688,"3434 ROSE ARBOR COURT","ATLANTA","GA",30340,33.891213291,-84.251089177,188,"3434 ROSE ARBOR COURT, ATLANTA, GA, 30340","Match","Exact","3434 ROSE ARBOR CT, ATLANTA, GA, 30340",23392641,"R"
180689,"3434 S GARNETT RD","TULSA","OK",74146,36.112948783,-95.8511349,189,"3434 S GARNETT RD, TULSA, OK, 74146","Match","Exact","3434 S GARNETT RD, TULSA, OK, 74146",166480148,"R"
180690,"3434 SAVOY ST","KNOXVILLE","TN",37921,35.984018233,-83.965444045,190,"3434 SAVOY ST, KNOXVILLE, TN, 37921","Match","Exact","3434 SAVOY ST, KNOXVILLE, TN, 37921",42662222,"R"
180691,"3434 SE KENTUCKY PLACE","BARTLESVILLE","OK",74006,36.7543101790001,-95.939295898,191,"3434 SE KENTUCKY PLACE, BARTLESVILLE, OK, 74006","Match","Exact","3434 KENTUCKY PL, BARTLESVILLE, OK, 74006",18705635,"L"
180692,"3434 SILVER CREEK ROAD","SAN JOSE","CA",95121,37.304102377,-121.808289219,192,"3434 SILVER CREEK ROAD, SAN JOSE, CA, 95121","Match","Exact","3434 SILVER CREEK RD, SAN JOSE, CA, 95121",122998559,"L"
180693,"3434 TRUXTUN AVE SUITE 275","BAKERSFIELD","CA",93301,35.3736419800001,-119.041055225,193,"3434 TRUXTUN AVE SUITE 275, BAKERSFIELD, CA, 93301","Match","Exact","3434 TRUXTUN AVE, BAKERSFIELD, CA, 93301",109085592,"L"
180694,"3434 VILLAGE POND LANE","FRESNO","TX",77545,29.53766118,-95.4927676139999,194,"3434 VILLAGE POND LANE, FRESNO, TX, 77545","Match","Exact","3434 VILLAGE POND LN, FRESNO, TX, 77545",635754721,"R"
180695,"3434 W 6TH ST STE 401F","LOS ANGELES","CA",90020,34.0635860020001,-118.296255272,195,"3434 W 6TH ST STE 401F, LOS ANGELES, CA, 90020","Match","Non_Exact","3434 W 6TH ST, LOS ANGELES, CA, 90020",141604937,"L"
180696,"3434-135 KILDAIRE FARM RD 811","CARY","NC",27518,NA,NA,196,"3434-135 KILDAIRE FARM RD 811, CARY, NC, 27518","No_Match",NA,NA,NA,NA
180697,"3434-135 KILDAIRE FARM ROAD 778","CARY","NC",27518,35.706578119,-78.79408975,197,"3434-135 KILDAIRE FARM ROAD 778, CARY, NC, 27518","Match","Non_Exact","3434 KILDAIRE FARM RD, CARY, NC, 27518",612830060,"L"
180698,"3434-135 KILDAIRE FARM ROAD","CARY","NC",27518,35.706578119,-78.79408975,198,"3434-135 KILDAIRE FARM ROAD, CARY, NC, 27518","Match","Exact","3434 KILDAIRE FARM RD, CARY, NC, 27518",612830060,"L"
180699,"343406 MANCHESTER COMMON","FREMONT","CA",94536,NA,NA,199,"343406 MANCHESTER COMMON, FREMONT, CA, 94536","No_Match",NA,NA,NA,NA
180700,"343408 CLINTON PLAZA DR","CLINTON TOWNSHIP","MI",48035,NA,NA,200,"343408 CLINTON PLAZA DR, CLINTON TOWNSHIP, MI, 48035","No_Match",NA,NA,NA,NA
180701,"34342 PORT LANTERN","DANA POINT","CA",92629,33.464106331,-117.696468727,201,"34342 PORT LANTERN, DANA POINT, CA, 92629","Match","Exact","34342 PORT LANTERN, DANA POINT, CA, 92629",144073439,"L"
180702,"34343 E 142ND PLACE","HUDSON","CO",80642,39.9542128680001,-104.585244755,202,"34343 E 142ND PLACE, HUDSON, CO, 80642","Match","Exact","34343 E 142ND PL, HUDSON, CO, 80642",629618760,"R"
180703,"34346 TUSCANY AVENUE","SORRENTO","AR",32776,NA,NA,203,"34346 TUSCANY AVENUE, SORRENTO, AR, 32776","No_Match",NA,NA,NA,NA
180704,"3435 CARIBETH DRIVE","ENCINO","CA",91436,34.134238134,-118.492471232,204,"3435 CARIBETH DRIVE, ENCINO, CA, 91436","Match","Exact","3435 CARIBETH DR, ENCINO, CA, 91436",141556924,"L"
180705,"3435 COUNTY RD 21","FORT LUPTON","CO",80621,40.0500178240001,-104.86730226,205,"3435 COUNTY RD 21, FORT LUPTON, CO, 80621","Match","Exact","3435 CO RD 21, FORT LUPTON, CO, 80621",188724271,"R"
180706,"3435 DANBURY DR APT B109","PHOENIX","AZ",85053,33.642122225,-112.132939164,206,"3435 DANBURY DR APT B109, PHOENIX, AZ, 85053","Match","Non_Exact","3435 W DANBURY DR, PHOENIX, AZ, 85053",128280717,"L"
180707,"3435 E THOUSAND OAKS BLVD STE 6876","THOUSAND OAKS","CA",91359,NA,NA,207,"3435 E THOUSAND OAKS BLVD STE 6876, THOUSAND OAKS, CA, 91359","No_Match",NA,NA,NA,NA
180708,"3435 FORT LYON DRIVE","WOODBRIDGE","VA",22192,38.6921273090001,-77.314202112,208,"3435 FORT LYON DRIVE, WOODBRIDGE, VA, 22192","Match","Exact","3435 FORT LYON DR, WOODBRIDGE, VA, 22192",76508519,"L"
180709,"3435 GILES PLACE   APT 5G","BRONX","NY",10463,40.8806352920001,-73.89758502,209,"3435 GILES PLACE   APT 5G, BRONX, NY, 10463","Match","Exact","3435 GILES PL, BRONX, NY, 10463",80310365,"L"
180710,"3435 JACKSONVILLE ROAD","BETHLEHEM","PA",18017,40.6612886190001,-75.3972399359999,210,"3435 JACKSONVILLE ROAD, BETHLEHEM, PA, 18017","Match","Exact","3435 JACKSONVILLE RD, BETHLEHEM, PA, 18017",136875673,"L"
180711,"3435 JENNINGS CHAPEL ROAD","WOODBINE","MD",21797,39.278234894,-77.0835994079999,211,"3435 JENNINGS CHAPEL ROAD, WOODBINE, MD, 21797","Match","Exact","3435 JENNINGS CHAPEL RD, WOODBINE, MD, 21797",158953340,"L"
180712,"3435 MISSION RIDGE CIR NW","ATLANTA","GA",30339,33.8742418190001,-84.4724741539999,212,"3435 MISSION RIDGE CIR NW, ATLANTA, GA, 30339","Match","Exact","3435 MISSION RIDGE CIR NW, ATLANTA, GA, 30339",17252042,"L"
180713,"3435 N RACEWAY RD","INDIANAPOLIS","IN",46234,39.8164513410001,-86.327151166,213,"3435 N RACEWAY RD, INDIANAPOLIS, IN, 46234","Match","Exact","3435 N RACEWAY RD, INDIANAPOLIS, IN, 46234",636509858,"R"
180714,"3435 NANTUCKET DRIVE","FAIRFIELD","CA",94534,38.2632491210001,-122.075612758,214,"3435 NANTUCKET DRIVE, FAIRFIELD, CA, 94534","Match","Exact","3435 NANTUCKET DR, FAIRFIELD, CA, 94534",192551084,"R"
180715,"3435 NEVIN RD","CHARLOTTE","NC",28269,35.282345772,-80.8316084739999,215,"3435 NEVIN RD, CHARLOTTE, NC, 28269","Match","Exact","3435 NEVIN RD, CHARLOTTE, NC, 28269",70581913,"L"
180716,"3435 NORTH VERDE ROAD","GOLDEN VALLEY","AZ",86413,35.2269733250001,-114.218449569,216,"3435 NORTH VERDE ROAD, GOLDEN VALLEY, AZ, 86413","Match","Non_Exact","3435 VERDE RD, GOLDEN VALLEY, AZ, 86413",618644065,"L"
180717,"3435 OAK PARK ROAD","MADISON","VA",22727,38.3759861840001,-78.209759933,217,"3435 OAK PARK ROAD, MADISON, VA, 22727","Match","Exact","3435 OAK PARK RD, MADISON, VA, 22727",29587953,"R"
180718,"3435 OCEAN PARK BLVD  NR 107-328","SANTA MONICA","CA",90405,34.022394191,-118.449587262,218,"3435 OCEAN PARK BLVD  NR 107-328, SANTA MONICA, CA, 90405","Match","Exact","3435 OCEAN PARK BLVD, SANTA MONICA, CA, 90405",653224526,"L"
180719,"3435 OCEAN PARK BLVD 107-224","SANTA MONICA","CA",90405,34.022394191,-118.449587262,219,"3435 OCEAN PARK BLVD 107-224, SANTA MONICA, CA, 90405","Match","Exact","3435 OCEAN PARK BLVD, SANTA MONICA, CA, 90405",653224526,"L"
180720,"3435 OCEAN PARK BLVD 107-424","SANTA MONICA","CA",90405,34.022394191,-118.449587262,220,"3435 OCEAN PARK BLVD 107-424, SANTA MONICA, CA, 90405","Match","Exact","3435 OCEAN PARK BLVD, SANTA MONICA, CA, 90405",653224526,"L"
180721,"3435 OCEAN PARK BLVD STE 107","SANTA MONICA","CA",90405,34.022394191,-118.449587262,221,"3435 OCEAN PARK BLVD STE 107, SANTA MONICA, CA, 90405","Match","Exact","3435 OCEAN PARK BLVD, SANTA MONICA, CA, 90405",653224526,"L"
180722,"3435 OCEAN PARK BLVD STE107 PMB 614","SANTA MONICA","CA",90405,34.022394191,-118.449587262,222,"3435 OCEAN PARK BLVD STE107 PMB 614, SANTA MONICA, CA, 90405","Match","Exact","3435 OCEAN PARK BLVD, SANTA MONICA, CA, 90405",653224526,"L"
180723,"3435 OCEAN PARK BLVD SUITE 107-216","SANTA MONICA","CA",90405,34.022394191,-118.449587262,223,"3435 OCEAN PARK BLVD SUITE 107-216, SANTA MONICA, CA, 90405","Match","Exact","3435 OCEAN PARK BLVD, SANTA MONICA, CA, 90405",653224526,"L"
180724,"3435 OCEAN PARK BLVD SUITE 107-371","SANTA MONICA","CA",90405,34.022394191,-118.449587262,224,"3435 OCEAN PARK BLVD SUITE 107-371, SANTA MONICA, CA, 90405","Match","Exact","3435 OCEAN PARK BLVD, SANTA MONICA, CA, 90405",653224526,"L"
180725,"3435 OLD CANNON BRIDGE RD","DEMOREST","GA",30535,34.5692589220001,-83.591122535,225,"3435 OLD CANNON BRIDGE RD, DEMOREST, GA, 30535","Match","Exact","3435 OLD CANNON BRIDGE RD, DEMOREST, GA, 30535",652131565,"R"
180726,"3435 PORTSMOUTH BOULEVARD","Portsmouth","VA",23462,36.815533535,-76.34274635,226,"3435 PORTSMOUTH BOULEVARD, Portsmouth, VA, 23462","Match","Non_Exact","3435 PORTSMOUTH BLVD, PORTSMOUTH, VA, 23701",122199160,"L"
180727,"3435 PRIMROSE RD","PHILADELPHIA","PA",19114,40.066626662,-75.004449974,227,"3435 PRIMROSE RD, PHILADELPHIA, PA, 19114","Match","Exact","3435 PRIMROSE RD, PHILADELPHIA, PA, 19114",131433916,"L"
180728,"3435 RANCH RD","WALLA WALLA","WA",99362,46.021413604,-118.311468833,228,"3435 RANCH RD, WALLA WALLA, WA, 99362","Match","Exact","3435 RANCH RD, WALLA WALLA, WA, 99362",174676040,"L"
180729,"3435 REEDER DRIVE","AMARILLO","TX",79121,35.174569955,-101.935137251,229,"3435 REEDER DRIVE, AMARILLO, TX, 79121","Match","Exact","3435 REEDER DR, AMARILLO, TX, 79121",182652201,"R"
180730,"3435 RICHLAND DR 8","SANTA BARBARA","CA",93105,34.439128128,-119.738323254,230,"3435 RICHLAND DR 8, SANTA BARBARA, CA, 93105","Match","Exact","3435 RICHLAND DR, SANTA BARBARA, CA, 93105",108603556,"L"
180731,"3435 ROCKY SPRINGS COURT","MARIETTA","GA",30062,34.012875342,-84.451247364,231,"3435 ROCKY SPRINGS COURT, MARIETTA, GA, 30062","Match","Exact","3435 ROCKY SPRINGS CT, MARIETTA, GA, 30062",17170317,"L"
180732,"3435 ROSEWOOD LN","JOHNSTOWN","CO",80534,40.3831550620001,-104.98416197,232,"3435 ROSEWOOD LN, JOHNSTOWN, CO, 80534","Match","Exact","3435 ROSEWOOD LN, JOHNSTOWN, CO, 80534",645455484,"R"
180733,"3435 TOWNWOOD COURT","OCEANSIDE","CA",92058,33.2296717790001,-117.346717688,233,"3435 TOWNWOOD COURT, OCEANSIDE, CA, 92058","Match","Exact","3435 TOWNWOOD CT, OCEANSIDE, CA, 92058",195283547,"L"
180734,"3435 W 112TH STREET","INGLEWOOD","CA",90303,33.9329211880001,-118.332442089,234,"3435 W 112TH STREET, INGLEWOOD, CA, 90303","Match","Exact","3435 W 112TH ST, INGLEWOOD, CA, 90303",141657197,"R"
180735,"3435 W 57TH STREET","INDIANAPOLIS","IN",46228,39.854559669,-86.218970224,235,"3435 W 57TH STREET, INDIANAPOLIS, IN, 46228","Match","Exact","3435 W 57TH ST, INDIANAPOLIS, IN, 46228",107982001,"L"
180736,"3435 W 84TH PL","INGLEWOOD","CA",90305,33.9618190530001,-118.33244902,236,"3435 W 84TH PL, INGLEWOOD, CA, 90305","Match","Exact","3435 W 84TH PL, INGLEWOOD, CA, 90305",141655455,"R"
180737,"3435 W CARY ST","RICHMOND","VA",23221,37.554944951,-77.485719412,237,"3435 W CARY ST, RICHMOND, VA, 23221","Match","Exact","3435 W CARY ST, RICHMOND, VA, 23221",201535781,"L"
180738,"3435 W CHEYENNE AVE 105","NORTH LAS VEGAS","NV",89032,36.217523382,-115.186089947,238,"3435 W CHEYENNE AVE 105, NORTH LAS VEGAS, NV, 89032","Match","Non_Exact","3435 W CHEYENNE AVE, N LAS VEGAS, NV, 89032",201976115,"L"
180739,"3435 W CRAIG ROAD SUITE A","NORTH LAS VEGAS","NV",89032,36.239331545,-115.187850022,239,"3435 W CRAIG ROAD SUITE A, NORTH LAS VEGAS, NV, 89032","Match","Non_Exact","3435 W CRAIG RD, N LAS VEGAS, NV, 89032",639253843,"L"
180740,"3435 W CRAIG ROAD","NORTH LAS VEGAS","NV",89032,36.239331545,-115.187850022,240,"3435 W CRAIG ROAD, NORTH LAS VEGAS, NV, 89032","Match","Exact","3435 W CRAIG RD, N LAS VEGAS, NV, 89032",639253843,"L"
180741,"3435 WILSHIRE BL STE 270022","LOS ANGELES","CA",90010,34.0617590100001,-118.29900935,241,"3435 WILSHIRE BL STE 270022, LOS ANGELES, CA, 90010","Match","Exact","3435 WILSHIRE BLVD, LOS ANGELES, CA, 90010",141603915,"R"
180742,"3435 WILSHIRE BLVD   SUITE 270022","LOS ANGELES","CA",90010,34.0617590100001,-118.29900935,242,"3435 WILSHIRE BLVD   SUITE 270022, LOS ANGELES, CA, 90010","Match","Exact","3435 WILSHIRE BLVD, LOS ANGELES, CA, 90010",141603915,"R"
180743,"3435 WILSHIRE BLVD  STE 2722","LOS ANGELES","CA",90010,34.0617590100001,-118.29900935,243,"3435 WILSHIRE BLVD  STE 2722, LOS ANGELES, CA, 90010","Match","Exact","3435 WILSHIRE BLVD, LOS ANGELES, CA, 90010",141603915,"R"
180744,"3435 WILSHIRE BLVD  SUITE 2700-18","LOS ANGELES","CA",90010,34.0617590100001,-118.29900935,244,"3435 WILSHIRE BLVD  SUITE 2700-18, LOS ANGELES, CA, 90010","Match","Exact","3435 WILSHIRE BLVD, LOS ANGELES, CA, 90010",141603915,"R"
180745,"3435 WILSHIRE BLVD FLOOR 14","LOS ANGELES","CA",90010,34.0617590100001,-118.29900935,245,"3435 WILSHIRE BLVD FLOOR 14, LOS ANGELES, CA, 90010","Match","Exact","3435 WILSHIRE BLVD, LOS ANGELES, CA, 90010",141603915,"R"
180746,"3435 WILSHIRE BLVD STE 1101","LOS ANGELES","CA",90010,34.0617590100001,-118.29900935,246,"3435 WILSHIRE BLVD STE 1101, LOS ANGELES, CA, 90010","Match","Exact","3435 WILSHIRE BLVD, LOS ANGELES, CA, 90010",141603915,"R"
180747,"3435 WILSHIRE BLVD STE 1950","LOS ANGELES","CA",90010,34.0617590100001,-118.29900935,247,"3435 WILSHIRE BLVD STE 1950, LOS ANGELES, CA, 90010","Match","Exact","3435 WILSHIRE BLVD, LOS ANGELES, CA, 90010",141603915,"R"
180748,"3435 WILSHIRE BLVD STE 2090","LOS ANGELES","CA",90010,34.0617590100001,-118.29900935,248,"3435 WILSHIRE BLVD STE 2090, LOS ANGELES, CA, 90010","Match","Exact","3435 WILSHIRE BLVD, LOS ANGELES, CA, 90010",141603915,"R"
180749,"3435 WILSHIRE BLVD STE 2310","LOS ANGELES","CA",90010,34.0617590100001,-118.29900935,249,"3435 WILSHIRE BLVD STE 2310, LOS ANGELES, CA, 90010","Match","Exact","3435 WILSHIRE BLVD, LOS ANGELES, CA, 90010",141603915,"R"
180750,"3435 WILSHIRE BLVD STE 2450","LOS ANGELES","CA",90010,34.0617590100001,-118.29900935,250,"3435 WILSHIRE BLVD STE 2450, LOS ANGELES, CA, 90010","Match","Exact","3435 WILSHIRE BLVD, LOS ANGELES, CA, 90010",141603915,"R"
180751,"3435 WILSHIRE BLVD SUITE 2220","LOS ANGELES","CA",90010,34.0617590100001,-118.29900935,251,"3435 WILSHIRE BLVD SUITE 2220, LOS ANGELES, CA, 90010","Match","Exact","3435 WILSHIRE BLVD, LOS ANGELES, CA, 90010",141603915,"R"
180752,"3435 WILSHIRE BLVD SUITE 2310","LOS ANGELES","CA",90010,34.0617590100001,-118.29900935,252,"3435 WILSHIRE BLVD SUITE 2310, LOS ANGELES, CA, 90010","Match","Exact","3435 WILSHIRE BLVD, LOS ANGELES, CA, 90010",141603915,"R"
180753,"3435 WILSHIRE BLVD SUITE 2700-18","LOS ANGELES","CA",90010,34.0617590100001,-118.29900935,253,"3435 WILSHIRE BLVD SUITE 2700-18, LOS ANGELES, CA, 90010","Match","Exact","3435 WILSHIRE BLVD, LOS ANGELES, CA, 90010",141603915,"R"
180754,"3435 WILSHIRE BLVD SUITE 450","LOS ANGELES","CA",90010,34.0617590100001,-118.29900935,254,"3435 WILSHIRE BLVD SUITE 450, LOS ANGELES, CA, 90010","Match","Exact","3435 WILSHIRE BLVD, LOS ANGELES, CA, 90010",141603915,"R"
180755,"3435 WILSHIRE BLVD SUITE 477","LOS ANGELES","CA",90010,34.0617590100001,-118.29900935,255,"3435 WILSHIRE BLVD SUITE 477, LOS ANGELES, CA, 90010","Match","Exact","3435 WILSHIRE BLVD, LOS ANGELES, CA, 90010",141603915,"R"
180756,"3435 WILSHIRE BOULEVARD SUITE 450","LOS ANGELES","CA",90010,34.0617590100001,-118.29900935,256,"3435 WILSHIRE BOULEVARD SUITE 450, LOS ANGELES, CA, 90010","Match","Exact","3435 WILSHIRE BLVD, LOS ANGELES, CA, 90010",141603915,"R"
180757,"3435 WISHIRE BLVD  SUITE 2700-15","LOS ANGELES","CA",90010,NA,NA,257,"3435 WISHIRE BLVD  SUITE 2700-15, LOS ANGELES, CA, 90010","No_Match",NA,NA,NA,NA
180758,"3435 WYNKOOP ST","DENVER","CO",80216,39.768854101,-104.978722198,258,"3435 WYNKOOP ST, DENVER, CO, 80216","Match","Exact","3435 WYNKOOP ST, DENVER, CO, 80216",606061890,"L"
180759,"3435-A W LEIGH STREET","RICHMOND","VA",23230,37.570259289,-77.474528248,259,"3435-A W LEIGH STREET, RICHMOND, VA, 23230","Match","Exact","3435 W LEIGH ST, RICHMOND, VA, 23230",201535419,"L"
180760,"3435","GREEN BAY","WI",54311,NA,NA,260,"3435, GREEN BAY, WI, 54311","No_Match",NA,NA,NA,NA
180761,"34350 BRITTANY DRIVE","FARMINGTON HILLS","MI",48335,42.480707179,-83.388033337,261,"34350 BRITTANY DRIVE, FARMINGTON HILLS, MI, 48335","Match","Exact","34350 BRITTANY DR, FARMINGTON HILLS, MI, 48335",69724719,"R"
180762,"34354 COUNTY ROAD 3","CROSSLAKE","MN",56442,46.6513234650001,-94.114456121,262,"34354 COUNTY ROAD 3, CROSSLAKE, MN, 56442","Match","Exact","34354 CO RD 3, CROSSLAKE, MN, 56442",611717093,"L"
180763,"34355 DE PORTOLA RD","TEMECULA","CA",92592,33.4957710360001,-117.059173222,263,"34355 DE PORTOLA RD, TEMECULA, CA, 92592","Match","Exact","34355 DE PORTOLA RD, TEMECULA, CA, 92592",195081496,"L"
180764,"3436 265TH AVE","KEOKUK","IA",52632,40.4593363930001,-91.406339729,264,"3436 265TH AVE, KEOKUK, IA, 52632","Match","Exact","3436 265TH AVE, KEOKUK, IA, 52632",631381080,"R"
180765,"3436 43RD AVENUE COURT","BETTENDORF","IA",52722,41.5655431340001,-90.483948272,265,"3436 43RD AVENUE COURT, BETTENDORF, IA, 52722","Match","Exact","3436 43RD AVENUE CT, BETTENDORF, IA, 52722",122716713,"R"
180766,"3436 CEDAR GROVE RD","SOPERTON","GA",30457,32.358553025,-82.605355278,266,"3436 CEDAR GROVE RD, SOPERTON, GA, 30457","Match","Exact","3436 CEDAR GROVE RD, SOPERTON, GA, 30457",38478964,"R"
180767,"3436 FLORA DRIVE","WINTERVILLE","NC",28590,35.565042781,-77.4257100409999,267,"3436 FLORA DRIVE, WINTERVILLE, NC, 28590","Match","Exact","3436 FLORA DR, WINTERVILLE, NC, 28590",648297411,"L"
180768,"3436 GLADDEN AVE","BATON ROUGE","LA",70808,30.435158744,-91.153478868,268,"3436 GLADDEN AVE, BATON ROUGE, LA, 70808","Match","Exact","3436 GLADDEN AVE, BATON ROUGE, LA, 70808",606161820,"R"
180769,"3436 INWOOD CIRCLE WEST","JACKSONVILLE","FL",32207,30.2893120370001,-81.6394273879999,269,"3436 INWOOD CIRCLE WEST, JACKSONVILLE, FL, 32207","Match","Exact","3436 INWOOD CIR W, JACKSONVILLE, FL, 32207",83915359,"R"
180770,"3436 LINDEN ST","DEABORN","MI",48124,42.2806010950001,-83.2175720819999,270,"3436 LINDEN ST, DEABORN, MI, 48124","Match","Non_Exact","3436 LINDEN ST, DEARBORN, MI, 48124",95446378,"R"
180771,"3436 LIVINGSTON","CARROLLTON","TX",75007,33.008500058,-96.8659644799999,271,"3436 LIVINGSTON, CARROLLTON, TX, 75007","Match","Non_Exact","3436 LIVINGSTON LN, CARROLLTON, TX, 75007",651171606,"L"
180772,"3436 MAGAZINE ST NUMBER 517","NEW ORLEANS","LA",70115,29.92263739,-90.089835794,272,"3436 MAGAZINE ST NUMBER 517, NEW ORLEANS, LA, 70115","Match","Exact","3436 MAGAZINE ST, NEW ORLEANS, LA, 70115",191713333,"L"
180773,"3436 MAGAZINE ST SUITE 833","NEW ORLEANS","LA",70115,29.92263739,-90.089835794,273,"3436 MAGAZINE ST SUITE 833, NEW ORLEANS, LA, 70115","Match","Exact","3436 MAGAZINE ST, NEW ORLEANS, LA, 70115",191713333,"L"
180774,"3436 MAGAZINE STREET - 438","NEW ORLEANS","LA",70115,29.92263739,-90.089835794,274,"3436 MAGAZINE STREET - 438, NEW ORLEANS, LA, 70115","Match","Exact","3436 MAGAZINE ST, NEW ORLEANS, LA, 70115",191713333,"L"
180775,"3436 MAGAZINE STREET POBOX 431","NEW ORLEANS","LA",70115,29.92263739,-90.089835794,275,"3436 MAGAZINE STREET POBOX 431, NEW ORLEANS, LA, 70115","Match","Exact","3436 MAGAZINE ST, NEW ORLEANS, LA, 70115",191713333,"L"
180776,"3436 MAGNOLIA SHORES LN","PEARLAND","TX",77584,29.545698993,-95.427345311,276,"3436 MAGNOLIA SHORES LN, PEARLAND, TX, 77584","Match","Exact","3436 MAGNOLIA SHORES LN, PEARLAND, TX, 77584",648926622,"L"
180777,"3436 ROSALIE ST","HOUSTON","TX",77004,29.7298593100001,-95.351349742,277,"3436 ROSALIE ST, HOUSTON, TX, 77004","Match","Exact","3436 ROSALIE ST, HOUSTON, TX, 77004",96073326,"R"
180778,"3436 ROSINBURG ROAD","ZEBULON","NC",27597,35.869766865,-78.301505735,278,"3436 ROSINBURG ROAD, ZEBULON, NC, 27597","Match","Exact","3436 ROSINBURG RD, ZEBULON, NC, 27597",636585256,"R"
180779,"3436 ST ANDREWS DRIVE","PARMA","OH",44134,41.355082816,-81.7091397899999,279,"3436 ST ANDREWS DRIVE, PARMA, OH, 44134","Match","Exact","3436 SAINT ANDREWS DR, PARMA, OH, 44134",61156384,"R"
180780,"3436 VISTAMONT DR","SAN JOSE","CA",95118,37.270772811,-121.884807468,280,"3436 VISTAMONT DR, SAN JOSE, CA, 95118","Match","Exact","3436 VISTAMONT DR, SAN JOSE, CA, 95118",122921794,"L"
180781,"34366 VIESTE TERRACE","FREMONT","CA",94555,37.55655512,-122.061629141,281,"34366 VIESTE TERRACE, FREMONT, CA, 94555","Match","Exact","34366 VIESTE TER, FREMONT, CA, 94555",125056560,"R"
180782,"3437 CAROLINE MALL OFFICE 3008","ST LOUIS","MO",63104,38.6218057720001,-90.233596544,282,"3437 CAROLINE MALL OFFICE 3008, ST LOUIS, MO, 63104","Match","Non_Exact","3437 CAROLINE ST, SAINT LOUIS, MO, 63104",641433712,"R"
180783,"3437 COVE CT","MELBOURNE","FL",32935,28.162740603,-80.649782542,283,"3437 COVE CT, MELBOURNE, FL, 32935","Match","Exact","3437 COVE CT, MELBOURNE, FL, 32935",93900486,"R"
180784,"3437 CROOKED CREEK DRIVE","DIAMOND BAR","CA",91765,33.9652807690001,-117.848142738,284,"3437 CROOKED CREEK DRIVE, DIAMOND BAR, CA, 91765","Match","Exact","3437 CROOKED CREEK DR, DIAMOND BAR, CA, 91765",141736300,"R"
180785,"3437 E BASELINE STREET","CORNELIUS","OR",97113,45.5199771320001,-123.031329499,285,"3437 E BASELINE STREET, CORNELIUS, OR, 97113","Match","Non_Exact","3437 E BASELINE ST, CORNELIUS, OR, 97123",158177677,"R"
180786,"3437 LARK MEADOW WAY","DALLAS","TX",75287,32.990748668,-96.859607185,286,"3437 LARK MEADOW WAY, DALLAS, TX, 75287","Match","Exact","3437 LARK MEADOW WAY, DALLAS, TX, 75287",103416197,"R"
180787,"3437 MILTON AVENUE UNIT 2","DALLAS","TX",75205,32.8484808310001,-96.789216438,287,"3437 MILTON AVENUE UNIT 2, DALLAS, TX, 75205","Match","Exact","3437 MILTON AVE, DALLAS, TX, 75205",102907249,"L"
180788,"3437 NE 80TH AVE","PORTLAND","OR",97213,45.547537505,-122.58079208,288,"3437 NE 80TH AVE, PORTLAND, OR, 97213","Match","Exact","3437 NE 80TH AVE, PORTLAND, OR, 97213",157513163,"L"
180789,"3437 PONDRIDGE CT","CHARLOTTE","NC",28269,35.3139440360001,-80.7990665889999,289,"3437 PONDRIDGE CT, CHARLOTTE, NC, 28269","Match","Exact","3437 PONDRIDGE CT, CHARLOTTE, NC, 28269",70517919,"R"
180790,"3437 ROSEBUD PARK DR","SNELLVILLE","GA",30039,33.776320895,-84.0041127269999,290,"3437 ROSEBUD PARK DR, SNELLVILLE, GA, 30039","Match","Exact","3437 ROSEBUD PARK DR, SNELLVILLE, GA, 30039",636428962,"R"
180791,"3437 SAGE WIND CIR APT 1110","FORT WORTH","TX",76177,32.911006033,-97.3079411209999,291,"3437 SAGE WIND CIR APT 1110, FORT WORTH, TX, 76177","Match","Exact","3437 SAGE WIND CIR, FORT WORTH, TX, 76177",648638978,"R"
180792,"3437 SULLIVANT AVENUE","COLUMBUS","OH",43204,39.942825843,-83.090955557,292,"3437 SULLIVANT AVENUE, COLUMBUS, OH, 43204","Match","Exact","3437 SULLIVANT AVE, COLUMBUS, OH, 43204",218646165,"L"
180793,"3437 SUTER STREET","OAKLAND","CA",94602,37.792031487,-122.205604479,293,"3437 SUTER STREET, OAKLAND, CA, 94602","Match","Exact","3437 SUTER ST, OAKLAND, CA, 94602",652204600,"R"
180794,"3437 US HWY 601 N","MOCKSVILLE","NC",27028,35.980697886,-80.621637751,294,"3437 US HWY 601 N, MOCKSVILLE, NC, 27028","Match","Non_Exact","3437 US HWY 601, MOCKSVILLE, NC, 27028",640646003,"L"
180795,"34372 CAMINO EL MOLINO","DANA POINT","CA",92624,NA,NA,295,"34372 CAMINO EL MOLINO, DANA POINT, CA, 92624","No_Match",NA,NA,NA,NA
180796,"34378 DUNHILL DR","FREMONT","CA",94555,37.5581696900001,-122.056712004,296,"34378 DUNHILL DR, FREMONT, CA, 94555","Match","Exact","34378 DUNHILL DR, FREMONT, CA, 94555",125081856,"R"
180797,"3438 34TH STREET APT 3R","ASTORIA","NY",11106,NA,NA,297,"3438 34TH STREET APT 3R, ASTORIA, NY, 11106","No_Match",NA,NA,NA,NA
180798,"3438 ADRIATIC CT","NAPLES","FL",34119,26.2906847950001,-81.714610448,298,"3438 ADRIATIC CT, NAPLES, FL, 34119","Match","Exact","3438 ADRIATIC CT, NAPLES, FL, 34119",646516118,"R"
180799,"3438 BAHIA BLANCA WEST UNIT B","LAGUNA WOODS","CA",92637,33.613323915,-117.751849031,299,"3438 BAHIA BLANCA WEST UNIT B, LAGUNA WOODS, CA, 92637","Match","Exact","3438 BAHIA BLANCA W, LAGUNA WOODS, CA, 92637",144383579,"R"
180800,"3438 COUNTRY CLUB DR APT 333","IRVING","TX",75038,32.8605448710001,-96.9948585129999,300,"3438 COUNTRY CLUB DR APT 333, IRVING, TX, 75038","Match","Non_Exact","3438 COUNTRY CLUB DR W, IRVING, TX, 75038",102977269,"R"
180801,"3438 CREATWOOD TRAIL SE","SMYRNA","GA",30080,33.869129064,-84.5012010849999,301,"3438 CREATWOOD TRAIL SE, SMYRNA, GA, 30080","Match","Exact","3438 CREATWOOD TRL SE, SMYRNA, GA, 30080",17181773,"R"
180802,"3438 EAST LAKE ROAD STE 14 PMB 624","PALM HARBOR","FL",34685,28.09769614,-82.6941455639999,302,"3438 EAST LAKE ROAD STE 14 PMB 624, PALM HARBOR, FL, 34685","Match","Non_Exact","3438 E LAKE RD S, PALM HARBOR, FL, 34685",124749682,"R"
180803,"3438 IMPERATOR LANE UNIT 101","LOUISVILLE","KY",40245,38.2858958260001,-85.5008510169999,303,"3438 IMPERATOR LANE UNIT 101, LOUISVILLE, KY, 40245","Match","Exact","3438 IMPERATOR LN, LOUISVILLE, KY, 40245",628837527,"L"
180804,"3438 LAURIE PLACE","STUDIO CITY","CA",91604,34.1356831100001,-118.374936127,304,"3438 LAURIE PLACE, STUDIO CITY, CA, 91604","Match","Exact","3438 LAURIE PL, STUDIO CITY, CA, 91604",141593414,"R"
180805,"3438 OTTER CREEK ROAD","ADDISON","VT",5491,44.094314002,-73.231021378,305,"3438 OTTER CREEK ROAD, ADDISON, VT, 5491","Match","Exact","3438 OTTER CREEK RD, ADDISON, VT, 05491",631712298,"L"
180806,"3438 S OAKLEY AVE","CHICAGO","IL",60608,41.8309810860001,-87.6826310979999,306,"3438 S OAKLEY AVE, CHICAGO, IL, 60608","Match","Exact","3438 S OAKLEY AVE, CHICAGO, IL, 60608",604981405,"R"
180807,"3438 SE 33RD AVE APT 3","PORTLAND","OR",97202,45.4978076150001,-122.631494308,307,"3438 SE 33RD AVE APT 3, PORTLAND, OR, 97202","Match","Non_Exact","3438 SE 33RD AVE, PORTLAND, OR, 97202",157510085,"L"
180808,"3438 SW PUMICE PLACE","REDMOND","OR",97756,44.259009183,-121.208833557,308,"3438 SW PUMICE PLACE, REDMOND, OR, 97756","Match","Exact","3438 SW PUMICE PL, REDMOND, OR, 97756",152571719,"L"
180809,"3438 VICTORIAN DRIVE","RACINE","WI",53406,42.6913270480001,-87.84344064,309,"3438 VICTORIAN DRIVE, RACINE, WI, 53406","Match","Exact","3438 VICTORIAN DR, RACINE, WI, 53406",77911353,"R"
180810,"3438 W KIMBERLY WAY","PHOENIX","AZ",85027,33.65764505,-112.13356734,310,"3438 W KIMBERLY WAY, PHOENIX, AZ, 85027","Match","Exact","3438 W KIMBERLY WAY, PHOENIX, AZ, 85027",128280808,"R"
180811,"3438 W PENN STREET","PHILADELPHIA","PA",19129,40.014473045,-75.190191995,311,"3438 W PENN STREET, PHILADELPHIA, PA, 19129","Match","Exact","3438 W PENN ST, PHILADELPHIA, PA, 19129",131400594,"L"
180812,"3439 ALISSA COURT","ORLANDO","FL",32808,28.587939132,-81.4642029199999,312,"3439 ALISSA COURT, ORLANDO, FL, 32808","Match","Exact","3439 ALISSA CT, ORLANDO, FL, 32808",94311946,"L"
180813,"3439 ARROWWOOD DRIVE","LAKELAND","FL",33811,27.954681314,-82.016879804,313,"3439 ARROWWOOD DRIVE, LAKELAND, FL, 33811","Match","Exact","3439 ARROWWOOD DR, LAKELAND, FL, 33811",104838772,"R"
180814,"3439 CONNECTICUT STREET","GARY","IN",46409,41.555967595,-87.334126123,314,"3439 CONNECTICUT STREET, GARY, IN, 46409","Match","Exact","3439 CONNECTICUT ST, GARY, IN, 46409",98433452,"L"
180815,"3439 MASON RIDGE DR NE","GRAND RAPIDS","MI",49525,43.0075336940001,-85.582625779,315,"3439 MASON RIDGE DR NE, GRAND RAPIDS, MI, 49525","Match","Exact","3439 MASON RIDGE DR NE, GRAND RAPIDS, MI, 49525",627193506,"L"
180816,"3439 NE SANDY BLVD 326","PORTLAND","OR",97232,NA,NA,316,"3439 NE SANDY BLVD 326, PORTLAND, OR, 97232","No_Match",NA,NA,NA,NA
180817,"3439 NE SANDY BLVD 348","PORTLAND","OR",97232,NA,NA,317,"3439 NE SANDY BLVD 348, PORTLAND, OR, 97232","No_Match",NA,NA,NA,NA
180818,"3439 PICKLE RD","OREGON","OH",43616,41.629824936,-83.4657739849999,318,"3439 PICKLE RD, OREGON, OH, 43616","Match","Exact","3439 PICKLE RD, OREGON, OH, 43616",33947048,"L"
180819,"3439 SILVER RIDGE COURT","HERMITAGE","PA",16148,41.204743932,-80.4456235179999,319,"3439 SILVER RIDGE COURT, HERMITAGE, PA, 16148","Match","Exact","3439 SILVER RIDGE CT, HERMITAGE, PA, 16148",605376226,"L"
180820,"3439 ST MARYS ROAD","LAFAYETTE","CA",94549,37.883593331,-122.110668586,320,"3439 ST MARYS ROAD, LAFAYETTE, CA, 94549","Match","Exact","3439 ST MARYS RD, LAFAYETTE, CA, 94549",192072502,"L"
180821,"3439 TIMBERLINE DRIVE","ORANGEBURG","SC",29118,33.521536387,-80.9172797689999,321,"3439 TIMBERLINE DRIVE, ORANGEBURG, SC, 29118","Match","Exact","3439 TIMBERLINE DR, ORANGEBURG, SC, 29118",19245145,"R"
180822,"3439 VICTORIA BROOK LN","CHARLOTTE","NC",28208,35.2514988560001,-80.911415279,322,"3439 VICTORIA BROOK LN, CHARLOTTE, NC, 28208","Match","Exact","3439 VICTORIA BROOK LN, CHARLOTTE, NC, 28208",648377527,"L"
180823,"3439 WOBURN STREET STE 261","BELLINGHAM","WA",98226,48.775639434,-122.445342183,323,"3439 WOBURN STREET STE 261, BELLINGHAM, WA, 98226","Match","Exact","3439 WOBURN ST, BELLINGHAM, WA, 98226",183772501,"L"
180824,"344 1/2 NORTH HAROLD STREET","FORT BRAGG","CA",95437,39.4447888020001,-123.79800389,324,"344 1/2 NORTH HAROLD STREET, FORT BRAGG, CA, 95437","Match","Exact","344 N HAROLD ST, FORT BRAGG, CA, 95437",67256478,"R"
180825,"344 18TH ST NE","SALEM","OR",97301,44.9380278740001,-123.017361757,325,"344 18TH ST NE, SALEM, OR, 97301","Match","Exact","344 18TH ST NE, SALEM, OR, 97301",156250345,"R"
180826,"344 2ND AVE NORTH","TWIN FALLS","ID",83301,42.5587486210001,-114.472159546,326,"344 2ND AVE NORTH, TWIN FALLS, ID, 83301","Match","Exact","344 2ND AVE N, TWIN FALLS, ID, 83301",118761920,"R"
180827,"344 ARAPAHOE STREET","THERMOPOLIS","WY",82443,43.6472073740001,-108.208715528,327,"344 ARAPAHOE STREET, THERMOPOLIS, WY, 82443","Match","Exact","344 ARAPAHOE ST, THERMOPOLIS, WY, 82443",148933786,"R"
180828,"344 AZALEA DRIVE","WINSTON SALEM","NC",27105,36.1671142810001,-80.255054609,328,"344 AZALEA DRIVE, WINSTON SALEM, NC, 27105","Match","Exact","344 AZALEA DR, WINSTON SALEM, NC, 27105",650606001,"R"
180829,"344 BAUER ROAD BOX 287","SAND LAKE","NY",12153,42.6208753720001,-73.464959612,329,"344 BAUER ROAD BOX 287, SAND LAKE, NY, 12153","Match","Exact","344 BAUER RD, SAND LAKE, NY, 12153",35726493,"R"
180830,"344 BELLA VIDA DRIVE","NORTH SALT LAKE","UT",84054,NA,NA,330,"344 BELLA VIDA DRIVE, NORTH SALT LAKE, UT, 84054","No_Match",NA,NA,NA,NA
180831,"344 BRADLEY ROAD","BAY VILLAGE","OH",44140,41.489951396,-81.9598132739999,331,"344 BRADLEY ROAD, BAY VILLAGE, OH, 44140","Match","Exact","344 BRADLEY RD, BAY VILLAGE, OH, 44140",61137360,"R"
180832,"344 BREWTON ROAD","SPARTANBURG","SC",29301,34.9173474350001,-82.0496240479999,332,"344 BREWTON ROAD, SPARTANBURG, SC, 29301","Match","Exact","344 BREWTON RD, SPARTANBURG, SC, 29301",19485461,"R"
180833,"344 BRIDGE TREE CT","EVINGTON","VA",24550,37.272206909,-79.2916421589999,333,"344 BRIDGE TREE CT, EVINGTON, VA, 24550","Match","Exact","344 BRIDGE TREE CT, EVINGTON, VA, 24550",644914005,"L"
180834,"344 CARLYN CT","DOWNINGTOWN","PA",19335,40.005129616,-75.730865275,334,"344 CARLYN CT, DOWNINGTOWN, PA, 19335","Match","Exact","344 CARLYN CT, DOWNINGTOWN, PA, 19335",179537350,"L"
180835,"344 CARRINGTON DRIVE","ATHENS","GA",30605,33.911634742,-83.299470254,335,"344 CARRINGTON DRIVE, ATHENS, GA, 30605","Match","Exact","344 CARRINGTON DR, ATHENS, GA, 30605",614138253,"R"
180836,"344 CORNING AVE","MILPITAS","CA",95035,37.4235960130001,-121.910948762,336,"344 CORNING AVE, MILPITAS, CA, 95035","Match","Exact","344 CORNING AVE, MILPITAS, CA, 95035",636424472,"L"
180837,"344 COUNTY ROAD 253","LYMAN","WY",82937,41.3252129160001,-110.259036644,337,"344 COUNTY ROAD 253, LYMAN, WY, 82937","Match","Exact","344 CO RD 253, LYMAN, WY, 82937",160277597,"L"
180838,"344 CR 748","BUNA","TX",77612,30.44439019,-93.955772855,338,"344 CR 748, BUNA, TX, 77612","Match","Exact","344 CO RD 748, BUNA, TX, 77612",32398228,"L"
180839,"344 CRESTWOOD LANE","LOUISVILLE","KY",40229,38.076628203,-85.676769677,339,"344 CRESTWOOD LANE, LOUISVILLE, KY, 40229","Match","Exact","344 CRESTWOOD LN, LOUISVILLE, KY, 40229",47734417,"L"
180840,"344 CRYSTAL LAKE DRIVE","CLERMONT","FL",34711,28.5545703670001,-81.760360052,340,"344 CRYSTAL LAKE DRIVE, CLERMONT, FL, 34711","Match","Exact","344 CRYSTAL LAKE DR, CLERMONT, FL, 34711",94103766,"L"
180841,"344 CUMBERLAND MOUNTAIN CIR","SUNBRIGHT","TN",37872,36.2219773140001,-84.6718463449999,341,"344 CUMBERLAND MOUNTAIN CIR, SUNBRIGHT, TN, 37872","Match","Exact","344 CUMBERLAND MOUNTAIN CIR, SUNBRIGHT, TN, 37872",633864109,"R"
180842,"344 E 170TH ST","SOUTH HOLLAND","IL",60473,41.5862661630001,-87.60854735,342,"344 E 170TH ST, SOUTH HOLLAND, IL, 60473","Match","Exact","344 E 170TH ST, SOUTH HOLLAND, IL, 60473",111778935,"L"
180843,"344 E WASHINGTON AVE","GILBERT","AZ",85234,33.3506625570001,-111.782591041,343,"344 E WASHINGTON AVE, GILBERT, AZ, 85234","Match","Exact","344 E WASHINGTON AVE, GILBERT, AZ, 85234",128255125,"L"
180844,"344 EAST 110TH STREET   5C","NEW YORK","NY",10029,40.79272767,-73.939481471,344,"344 EAST 110TH STREET   5C, NEW YORK, NY, 10029","Match","Exact","344 E 110TH ST, NEW YORK, NY, 10029",59658182,"R"
180845,"344 EAST 28TH STREET SUITE12J","NEW YORK","NY",10016,40.740251304,-73.976828354,345,"344 EAST 28TH STREET SUITE12J, NEW YORK, NY, 10016","Match","Exact","344 E 28TH ST, NEW YORK, NY, 10016",59654570,"R"
180846,"344 EAST 9TH STREET","NEW YORK","NY",10003,40.728732897,-73.9861582089999,346,"344 EAST 9TH STREET, NEW YORK, NY, 10003","Match","Exact","344 E 9TH ST, NEW YORK, NY, 10003",59654046,"R"
180847,"344 EDGECROFT WAY","FUQUAY VARINA","NC",27526,35.610403472,-78.81277087,347,"344 EDGECROFT WAY, FUQUAY VARINA, NC, 27526","Match","Exact","344 EDGECROFT WAY, FUQUAY VARINA, NC, 27526",642171253,"R"
180848,"344 FAIRGROUNDS  ROAD","CHILLICOTHE","OH",45601,39.408629494,-83.004941607,348,"344 FAIRGROUNDS  ROAD, CHILLICOTHE, OH, 45601","Match","Exact","344 FAIRGROUNDS RD, CHILLICOTHE, OH, 45601",647683647,"R"
180849,"344 FOREST ROAD","WILTON","NH",3086,NA,NA,349,"344 FOREST ROAD, WILTON, NH, 3086","No_Match",NA,NA,NA,NA
180850,"344 FUNSTON PL","SAN ANTONIO","TX",78209,29.457637289,-98.463729439,350,"344 FUNSTON PL, SAN ANTONIO, TX, 78209","Match","Exact","344 FUNSTON PL, SAN ANTONIO, TX, 78209",101525208,"R"
180851,"344 GRAND AVE","LOVES PARK","IL",61114,42.3122776860001,-89.062077572,351,"344 GRAND AVE, LOVES PARK, IL, 61114","Match","Non_Exact","344 GRAND AVE, LOVES PARK, IL, 61111",49256635,"L"
180852,"344 GROVE ST STE 256","JERSEY CITY","NJ",7302,40.7205902590001,-74.04279093,352,"344 GROVE ST STE 256, JERSEY CITY, NJ, 7302","Match","Exact","344 GROVE ST, JERSEY CITY, NJ, 07302",59606226,"R"
180853,"344 GROVE STREET SUITE 277","JERSEY CITY","NJ",7302,40.7205902590001,-74.04279093,353,"344 GROVE STREET SUITE 277, JERSEY CITY, NJ, 7302","Match","Exact","344 GROVE ST, JERSEY CITY, NJ, 07302",59606226,"R"
180854,"344 GROVE STREET","JERSEY CITY","NJ",7302,40.7205902590001,-74.04279093,354,"344 GROVE STREET, JERSEY CITY, NJ, 7302","Match","Exact","344 GROVE ST, JERSEY CITY, NJ, 07302",59606226,"R"
180855,"344 HARVARD ST","HOUSTON","TX",77007,29.7774004890001,-95.396147306,355,"344 HARVARD ST, HOUSTON, TX, 77007","Match","Exact","344 HARVARD ST, HOUSTON, TX, 77007",96061575,"R"
180856,"344 HUMPREY RD","LYNNVILLE","IN",47619,NA,NA,356,"344 HUMPREY RD, LYNNVILLE, IN, 47619","No_Match",NA,NA,NA,NA
180857,"344 HYANCITH LOOP","MURRELLS INLET","SC",29576,NA,NA,357,"344 HYANCITH LOOP, MURRELLS INLET, SC, 29576","No_Match",NA,NA,NA,NA
180858,"344 JACKSON RD","NORWOOD","GA",30821,33.404486035,-82.746193634,358,"344 JACKSON RD, NORWOOD, GA, 30821","Match","Exact","344 JACKSON RD, NORWOOD, GA, 30821",16747533,"L"
180859,"344 LAFAYETTE AVENUE - APARTMENT 2B","BROOKLYN","NY",11238,40.6886874670001,-73.961646872,359,"344 LAFAYETTE AVENUE - APARTMENT 2B, BROOKLYN, NY, 11238","Match","Exact","344 LAFAYETTE AVE, BROOKLYN, NY, 11238",650066887,"R"
180860,"344 MAIN AVENU","BAY HEAD","FL",8742,NA,NA,360,"344 MAIN AVENU, BAY HEAD, FL, 8742","No_Match",NA,NA,NA,NA
180861,"344 MAIN ST","GROTON","MA",1450,42.6154727530001,-71.581056116,361,"344 MAIN ST, GROTON, MA, 1450","Match","Exact","344 MAIN ST, GROTON, MA, 01450",87096165,"R"
180862,"344 MAIN STREET SUITE 200","WAKEFIELD","RI",2879,41.4383116720001,-71.499419308,362,"344 MAIN STREET SUITE 200, WAKEFIELD, RI, 2879","Match","Exact","344 MAIN ST, WAKEFIELD, RI, 02879",58908328,"R"
180863,"344 MAPLE AVENUE WEST  NO 385","VIENNA","VA",22180,38.897262637,-77.2706042089999,363,"344 MAPLE AVENUE WEST  NO 385, VIENNA, VA, 22180","Match","Exact","344 MAPLE AVE W, VIENNA, VA, 22180",615656584,"L"
180864,"344 MORNINGSTAR DR","HUTCHINS","TX",75141,32.6539809120001,-96.722798091,364,"344 MORNINGSTAR DR, HUTCHINS, TX, 75141","Match","Non_Exact","344 MORNING STAR DR, HUTCHINS, TX, 75141",624629835,"R"
180865,"344 NORTH 13TH STREET","SURF CITY","NJ",8008,39.6485794290001,-74.1816878239999,365,"344 NORTH 13TH STREET, SURF CITY, NJ, 8008","Match","Non_Exact","344 W 13TH ST, SURF CITY, NJ, 08008",203707089,"L"
180866,"344 NORTH 16TH PLACE","STURGEON BAY","WI",54235,44.8389159650001,-87.355023354,366,"344 NORTH 16TH PLACE, STURGEON BAY, WI, 54235","Match","Exact","344 N 16TH PL, STURGEON BAY, WI, 54235",167250150,"R"
180867,"344 NORTH MARKET STREET","ELIZABETHTOWN","PA",17022,40.1563341780001,-76.6091467479999,367,"344 NORTH MARKET STREET, ELIZABETHTOWN, PA, 17022","Match","Exact","344 N MARKET ST, ELIZABETHTOWN, PA, 17022",179686046,"R"
180868,"344 OAK HILL RD","FRIEDENS","PA",15541,40.041808534,-78.9710719829999,368,"344 OAK HILL RD, FRIEDENS, PA, 15541","Match","Non_Exact","344 OAK HILL DR, FRIEDENS, PA, 15541",649994511,"R"
180869,"344 OAKLAND AVE","MAPLE SHADE","NJ",8052,39.960142123,-75.006788703,369,"344 OAKLAND AVE, MAPLE SHADE, NJ, 8052","Match","Exact","344 OAKLAND AVE, MAPLE SHADE, NJ, 08052",134026973,"L"
180870,"344 PAINTER DRIVE","STANLEY","VA",22851,38.5783849950001,-78.511354766,370,"344 PAINTER DRIVE, STANLEY, VA, 22851","Match","Exact","344 PAINTER DR, STANLEY, VA, 22851",29912371,"L"
180871,"344 PALMTRAIL","DELRAY BEACH","FL",33483,NA,NA,371,"344 PALMTRAIL, DELRAY BEACH, FL, 33483","No_Match",NA,NA,NA,NA
180872,"344 PARK RIDGE","BOERNE","TX",78006,29.8438549790001,-98.5872068739999,372,"344 PARK RIDGE, BOERNE, TX, 78006","Match","Exact","344 PARK RIDGE, BOERNE, TX, 78006",102764694,"L"
180873,"344 PHILLIPS LANE","NELLYSFORD","VA",22958,37.8901048610001,-78.892420279,373,"344 PHILLIPS LANE, NELLYSFORD, VA, 22958","Match","Exact","344 PHILLIPS LN, NELLYSFORD, VA, 22958",98916150,"R"
180874,"344 PLANTATION DRIVE","GREENWOOD","SC",29649,34.2571085340001,-82.1743461629999,374,"344 PLANTATION DRIVE, GREENWOOD, SC, 29649","Match","Exact","344 PLANTATION DR, GREENWOOD, SC, 29649",636620982,"L"
180875,"344 PROVIDENCE BLVD","DELTONA","FL",32725,28.8711754230001,-81.253026544,375,"344 PROVIDENCE BLVD, DELTONA, FL, 32725","Match","Exact","344 PROVIDENCE BLVD, DELTONA, FL, 32725",94535646,"R"
180876,"344 RICHLAND DRIVE","KILGORE","TX",75662,32.421692014,-94.861430785,376,"344 RICHLAND DRIVE, KILGORE, TX, 75662","Match","Exact","344 RICHLAND DR, KILGORE, TX, 75662",141120927,"L"
180877,"344 ROBIN ST","DECATUR","GA",30030,33.771333231,-84.301088992,377,"344 ROBIN ST, DECATUR, GA, 30030","Match","Exact","344 ROBIN ST, DECATUR, GA, 30030",23366464,"L"
180878,"344 S BETHLEHEM ROAD","BATESBURG","SC",29006,NA,NA,378,"344 S BETHLEHEM ROAD, BATESBURG, SC, 29006","Tie",NA,NA,NA,NA
180879,"344 SUNSET BEACH ROAD","MORGANTOWN","WV",26508,39.6840026200001,-79.856277628,379,"344 SUNSET BEACH ROAD, MORGANTOWN, WV, 26508","Match","Exact","344 SUNSET BEACH RD, MORGANTOWN, WV, 26508",50775564,"R"
180880,"344 SW 4TH AVENUE","HOMESTEAD","FL",33030,25.4662695920001,-80.483409663,380,"344 SW 4TH AVENUE, HOMESTEAD, FL, 33030","Match","Exact","344 SW 4TH AVE, HOMESTEAD, FL, 33030",115991988,"R"
180881,"344 SW WILSHIRE BLVD STE Q","BURLESON","TX",76028,NA,NA,381,"344 SW WILSHIRE BLVD STE Q, BURLESON, TX, 76028","Tie",NA,NA,NA,NA
180882,"344 THIRD AVENUE APARTMENT PHH","NEW YORK","NY",10010,40.740297636,-73.982086148,382,"344 THIRD AVENUE APARTMENT PHH, NEW YORK, NY, 10010","Match","Exact","344 3RD AVE, NEW YORK, NY, 10010",59654548,"L"
180883,"344 W BROADWAY STREET","MISHAWAKA","IN",46545,41.6697715080001,-86.186062218,383,"344 W BROADWAY STREET, MISHAWAKA, IN, 46545","Match","Exact","344 W BROADWAY ST, MISHAWAKA, IN, 46545",8085667,"R"
180884,"344 W MARQUETTE ST","APPLETON","WI",54911,44.282041115,-88.410077589,384,"344 W MARQUETTE ST, APPLETON, WI, 54911","Match","Exact","344 W MARQUETTE ST, APPLETON, WI, 54911",74920141,"R"
180885,"344 W PICKERELL CT","BOISE","ID",83706,NA,NA,385,"344 W PICKERELL CT, BOISE, ID, 83706","Tie",NA,NA,NA,NA
180886,"344 WEBBER AVE","LEWISTON","ME",4240,44.088103405,-70.193120418,386,"344 WEBBER AVE, LEWISTON, ME, 4240","Match","Exact","344 WEBBER AVE, LEWISTON, ME, 04240",77962613,"L"
180887,"344 WEST CIMMARRON WAY","ERDA","UT",84074,40.592642406,-112.31132381,387,"344 WEST CIMMARRON WAY, ERDA, UT, 84074","Match","Exact","344 W CIMMARRON WAY, ERDA, UT, 84074",155397412,"R"
180888,"344 WEST MOWRY DR","HOMESTEAD","FL",33030,25.4697920420001,-80.482928479,388,"344 WEST MOWRY DR, HOMESTEAD, FL, 33030","Match","Exact","344 W MOWRY DR, HOMESTEAD, FL, 33030",115991971,"L"
180889,"3440 AINSLIE STREET","PHILADELPHIA","PA",19129,40.0132330000001,-75.188785202,389,"3440 AINSLIE STREET, PHILADELPHIA, PA, 19129","Match","Exact","3440 AINSLIE ST, PHILADELPHIA, PA, 19129",131400604,"L"
180890,"3440 ALMOND ST","PHILADELPHIA","PA",19134,39.9885354300001,-75.098012497,390,"3440 ALMOND ST, PHILADELPHIA, PA, 19134","Match","Exact","3440 ALMOND ST, PHILADELPHIA, PA, 19134",131427647,"L"
180891,"3440 AVALON ROAD  ROOM 103","SHAKER HEIGHTS","OH",44120,41.467872765,-81.559040983,391,"3440 AVALON ROAD  ROOM 103, SHAKER HEIGHTS, OH, 44120","Match","Exact","3440 AVALON RD, SHAKER HEIGHTS, OH, 44120",61128714,"R"
180892,"3440 BELL ST STE 320 PMB 107","AMARILLO","TX",79109,35.175345285,-101.902287935,392,"3440 BELL ST STE 320 PMB 107, AMARILLO, TX, 79109","Match","Exact","3440 BELL ST, AMARILLO, TX, 79109",182652451,"R"
180893,"3440 BLUE SPRINGS RD","KENNESAW","GA",30144,34.0380438500001,-84.6510787239999,393,"3440 BLUE SPRINGS RD, KENNESAW, GA, 30144","Match","Non_Exact","3440 BLUE SPRINGS RD NW, KENNESAW, GA, 30144",614170096,"R"
180894,"3440 BURNET AVENUE SUITE 130","CINCINNATI","OH",45229,39.1438870900001,-84.500061498,394,"3440 BURNET AVENUE SUITE 130, CINCINNATI, OH, 45229","Match","Exact","3440 BURNET AVE, CINCINNATI, OH, 45229",103925453,"R"
180895,"3440 BUTLER WALK","NAPERVILLE","IL",60564,41.7274489170001,-88.231857314,395,"3440 BUTLER WALK, NAPERVILLE, IL, 60564","Match","Exact","3440 BUTLER WALK, NAPERVILLE, IL, 60564",112590528,"L"
180896,"3440 DREW ST UNIT A","HOUSTON","TX",77004,29.7315823910001,-95.350163966,396,"3440 DREW ST UNIT A, HOUSTON, TX, 77004","Match","Exact","3440 DREW ST, HOUSTON, TX, 77004",96073314,"R"
180897,"3440 E RUSSELL RD 211","LAS VEGAS","NV",89120,36.086286597,-115.10008953,397,"3440 E RUSSELL RD 211, LAS VEGAS, NV, 89120","Match","Non_Exact","3440 E RUSSELL RD, LAS VEGAS, NV, 89120",201873188,"L"
180898,"3440 EAST RUSSELL ROAD","LAS VEGAS","NV",89120,36.086287165,-115.10009762,398,"3440 EAST RUSSELL ROAD, LAS VEGAS, NV, 89120","Match","Exact","3440 E RUSSELL RD, LAS VEGAS, NV, 89120",201873188,"L"
180899,"3440 EMPRESS DR","NAPERVILLE","IL",60564,41.7042411950001,-88.226953239,399,"3440 EMPRESS DR, NAPERVILLE, IL, 60564","Match","Exact","3440 EMPRESS DR, NAPERVILLE, IL, 60564",646570810,"L"
180900,"3440 GUIDER AVENUE SUITE 7C","BROOKLYN","NY",11235,40.5829559050001,-73.958244303,400,"3440 GUIDER AVENUE SUITE 7C, BROOKLYN, NY, 11235","Match","Exact","3440 GUIDER AVE, BROOKLYN, NY, 11235",59091692,"R"
180901,"3440 HOLLYWOOD BLVD SUITE 140","HOLLYWOOD","FL",33021,26.0105812620001,-80.1768910059999,401,"3440 HOLLYWOOD BLVD SUITE 140, HOLLYWOOD, FL, 33021","Match","Exact","3440 HOLLYWOOD BLVD, HOLLYWOOD, FL, 33021",640934182,"R"
180902,"3440 HOLLYWOOD BLVD SUITE 415","HOLLYWOOD","FL",33021,26.0105812620001,-80.1768910059999,402,"3440 HOLLYWOOD BLVD SUITE 415, HOLLYWOOD, FL, 33021","Match","Exact","3440 HOLLYWOOD BLVD, HOLLYWOOD, FL, 33021",640934182,"R"
180903,"3440 JOY RD","OCCIDENTAL","CA",95465,38.3929073680001,-122.973675863,403,"3440 JOY RD, OCCIDENTAL, CA, 95465","Match","Exact","3440 JOY RD, OCCIDENTAL, CA, 95465",605048952,"L"
180904,"3440 LACHENCREST LANE NW","ROCHESTER","MN",55901,44.026197822,-92.514964146,404,"3440 LACHENCREST LANE NW, ROCHESTER, MN, 55901","Match","Exact","3440 LACHENCREST LN NW, ROCHESTER, MN, 55901",612123396,"R"
180905,"3440 LAKE KNOLL DRIVE","NORTHBROOK","IL",60062,42.1153153720001,-87.864483064,405,"3440 LAKE KNOLL DRIVE, NORTHBROOK, IL, 60062","Match","Exact","3440 LAKE KNOLL DR, NORTHBROOK, IL, 60062",605267193,"R"
180906,"3440 LAKEWOOD DR","WEST MELBOURNE","FL",32904,28.074141221,-80.641427854,406,"3440 LAKEWOOD DR, WEST MELBOURNE, FL, 32904","Match","Exact","3440 LAKEWOOD DR, W MELBOURNE, FL, 32904",93903331,"R"
180907,"3440 MEADOW BROOK COURT","NAPA","CA",94558,38.303254854,-122.338870847,407,"3440 MEADOW BROOK COURT, NAPA, CA, 94558","Match","Non_Exact","3440 MEADOWBROOK CT, NAPA, CA, 94558",67414413,"R"
180908,"3440 MEADOW ROAD","VERONA","WI",53593,43.0424254380001,-89.5670366319999,408,"3440 MEADOW ROAD, VERONA, WI, 53593","Match","Exact","3440 MEADOW RD, VERONA, WI, 53593",646643965,"L"
180909,"3440 N 55TH ST","MILWAUKEE","WI",53216,43.0815809750001,-87.9820824609999,409,"3440 N 55TH ST, MILWAUKEE, WI, 53216","Match","Exact","3440 N 55TH ST, MILWAUKEE, WI, 53216",77731741,"R"
180910,"3440 N LAKESHORE DRIVE 10G","CHICAGO","IL",60657,NA,NA,410,"3440 N LAKESHORE DRIVE 10G, CHICAGO, IL, 60657","No_Match",NA,NA,NA,NA
180911,"3440 NE 192ND ST APT 1 B","AVENTURA","FL",33180,25.9547425590001,-80.132893144,411,"3440 NE 192ND ST APT 1 B, AVENTURA, FL, 33180","Match","Non_Exact","3440 NE 192ND ST, AVENTURA, FL, 33180",629024202,"R"
180912,"3440 PROVINCIAL CIR E","JACKSONVILLE","FL",32277,30.362175903,-81.559181221,412,"3440 PROVINCIAL CIR E, JACKSONVILLE, FL, 32277","Match","Exact","3440 PROVINCIAL CIR E, JACKSONVILLE, FL, 32277",83947334,"L"
180913,"3440 S COTTAGE GROVE AVE APT 201","CHICAGO","IL",60616,41.8322624,-87.6110376249999,413,"3440 S COTTAGE GROVE AVE APT 201, CHICAGO, IL, 60616","Match","Non_Exact","3440 S COTTAGE GROVE AVE, CHICAGO, IL, 60616",618343515,"R"
180914,"3440 TASCOSA ST","EL PASO","TX",79936,31.7917871860001,-106.317912458,414,"3440 TASCOSA ST, EL PASO, TX, 79936","Match","Exact","3440 TASCOSA ST, EL PASO, TX, 79936",189348318,"R"
180915,"3440 W 29TH ST","DAVENPORT","IA",52804,41.5488579600001,-90.6265921419999,415,"3440 W 29TH ST, DAVENPORT, IA, 52804","Match","Exact","3440 W 29TH ST, DAVENPORT, IA, 52804",122726031,"R"
180916,"3440 W 84TH PLACE","INGLEWOOD","CA",90305,33.961808089,-118.332481995,416,"3440 W 84TH PLACE, INGLEWOOD, CA, 90305","Match","Exact","3440 W 84TH PL, INGLEWOOD, CA, 90305",141655455,"L"
180917,"3440 W ARBY AVE","LAS VEGAS","NV",89118,36.0607804220001,-115.186329763,417,"3440 W ARBY AVE, LAS VEGAS, NV, 89118","Match","Exact","3440 W ARBY AVE, LAS VEGAS, NV, 89118",201922510,"R"
180918,"3440 W LEWIS AVENUE SUITE E","PHOENIX","AZ",85009,33.474996344,-112.133542014,418,"3440 W LEWIS AVENUE SUITE E, PHOENIX, AZ, 85009","Match","Non_Exact","3440 W LEWIS AVE, PHOENIX, AZ, 85009",128201769,"R"
180919,"3440 W RIVER ROAD","NEWTON","OH",44444,41.1495745130001,-80.96874672,419,"3440 W RIVER ROAD, NEWTON, OH, 44444","Match","Non_Exact","3440 W RIVER RD, NEWTON FALLS, OH, 44444",117424431,"R"
180920,"3440 WALNUT RIDGE","ATLANTA","GA",30349,33.6615048030001,-84.5866935339999,420,"3440 WALNUT RIDGE, ATLANTA, GA, 30349","Match","Exact","3440 WALNUT RIDGE, ATLANTA, GA, 30349",643421877,"R"
180921,"3440 WILSHIRE BLVD STE 1000","LOS ANGELES","CA",90010,34.0617485180001,-118.298953903,421,"3440 WILSHIRE BLVD STE 1000, LOS ANGELES, CA, 90010","Match","Exact","3440 WILSHIRE BLVD, LOS ANGELES, CA, 90010",141603915,"L"
180922,"3440 WILSHIRE BLVD STE 1208","LOS ANGELES","CA",90010,34.0617485180001,-118.298953903,422,"3440 WILSHIRE BLVD STE 1208, LOS ANGELES, CA, 90010","Match","Exact","3440 WILSHIRE BLVD, LOS ANGELES, CA, 90010",141603915,"L"
180923,"3440 WILSHIRE BLVD STE 915","LOS ANGELES","CA",90010,34.0617485180001,-118.298953903,423,"3440 WILSHIRE BLVD STE 915, LOS ANGELES, CA, 90010","Match","Exact","3440 WILSHIRE BLVD, LOS ANGELES, CA, 90010",141603915,"L"
180924,"3440 WOODHILL CIRCLE","DIAMOND BAR","CA",91765,33.9651766370001,-117.843561451,424,"3440 WOODHILL CIRCLE, DIAMOND BAR, CA, 91765","Match","Exact","3440 WOODHILL CIR, DIAMOND BAR, CA, 91765",141736351,"L"
180925,"3440 WOODPARK DR","MONTGOMERY","AL",36116,32.3048805780001,-86.266479472,425,"3440 WOODPARK DR, MONTGOMERY, AL, 36116","Match","Exact","3440 WOODPARK DR, MONTGOMERY, AL, 36116",1477265,"L"
180926,"3440 YOUNGFIELD STREET NUMBER 189","WHEAT RIDGE","CO",80033,39.7649999540001,-105.14252246,426,"3440 YOUNGFIELD STREET NUMBER 189, WHEAT RIDGE, CO, 80033","Match","Exact","3440 YOUNGFIELD ST, WHEAT RIDGE, CO, 80033",634263860,"R"
180927,"34404 OLD OCEAN CITY ROAD","PITTSVILLE","MD",21850,38.390981461,-75.419467437,427,"34404 OLD OCEAN CITY ROAD, PITTSVILLE, MD, 21850","Match","Exact","34404 OLD OCEAN CITY RD, PITTSVILLE, MD, 21850",114484146,"R"
180928,"34408 ALBERTA TERRACE","FREMONT","CA",94555,37.561206262,-122.053576802,428,"34408 ALBERTA TERRACE, FREMONT, CA, 94555","Match","Exact","34408 ALBERTA TER, FREMONT, CA, 94555",125042118,"L"
180929,"3441 32ND STREET 2ND FLOOR","ASTORIA","NY",11106,NA,NA,429,"3441 32ND STREET 2ND FLOOR, ASTORIA, NY, 11106","No_Match",NA,NA,NA,NA
180930,"3441 42ND AVE SOUTH","FARGO","ND",58104,46.8156876250001,-96.835126772,430,"3441 42ND AVE SOUTH, FARGO, ND, 58104","Match","Exact","3441 42ND AVE S, FARGO, ND, 58104",151466824,"R"
180931,"3441 77TH STREET APT 626","JACKSON HEIGHTS","NY",11372,NA,NA,431,"3441 77TH STREET APT 626, JACKSON HEIGHTS, NY, 11372","No_Match",NA,NA,NA,NA
180932,"3441 85TH STREET  APT 3G","JACKSON HEIGHTS","NY",11372,NA,NA,432,"3441 85TH STREET  APT 3G, JACKSON HEIGHTS, NY, 11372","No_Match",NA,NA,NA,NA
180933,"3441 BRAEBURN CIR","ANN ARBOR","MI",48108,42.230826893,-83.706433105,433,"3441 BRAEBURN CIR, ANN ARBOR, MI, 48108","Match","Exact","3441 BRAEBURN CIR, ANN ARBOR, MI, 48108",26027638,"L"
180934,"3441 CLAUDE DOUGLAS CIRCLE","FLORENCE","SC",29501,34.1533934650001,-79.850811935,434,"3441 CLAUDE DOUGLAS CIRCLE, FLORENCE, SC, 29501","Match","Exact","3441 CLAUDE DOUGLAS CIR, FLORENCE, SC, 29501",28900687,"R"
180935,"3441 EVANSTON","CINCINNATI","OH",45207,39.1397701240001,-84.463461705,435,"3441 EVANSTON, CINCINNATI, OH, 45207","Match","Non_Exact","3441 EVANSTON AVE, CINCINNATI, OH, 45207",103930279,"L"
180936,"3441 FLORENCE STREET","WELLINGTON","FL",33414,26.637135673,-80.206656398,436,"3441 FLORENCE STREET, WELLINGTON, FL, 33414","Match","Exact","3441 FLORENCE ST, WELLINGTON, FL, 33414",638633175,"R"
180937,"3441 HAMLIN SQ SW","ATLANTA","GA",30331,33.660811557,-84.556056301,437,"3441 HAMLIN SQ SW, ATLANTA, GA, 30331","Match","Non_Exact","3441 HAMLIN SQ, ATLANTA, GA, 30331",624704048,"R"
180938,"3441 HEATHER DRIVE","AUGUSTA","GA",30909,33.4760209820001,-82.065475468,438,"3441 HEATHER DRIVE, AUGUSTA, GA, 30909","Match","Exact","3441 HEATHER DR, AUGUSTA, GA, 30909",604924722,"L"
180939,"3441 IVY HILLS BOULEVARD","CINCINNATI","OH",45244,39.119232095,-84.342181924,439,"3441 IVY HILLS BOULEVARD, CINCINNATI, OH, 45244","Match","Exact","3441 IVY HILLS BLVD, CINCINNATI, OH, 45244",103959063,"R"
180940,"3441 KINNEYS ROAD","CEDAR HILL","TN",37032,36.532991554,-86.971051898,440,"3441 KINNEYS ROAD, CEDAR HILL, TN, 37032","Match","Exact","3441 KINNEYS RD, CEDAR HILL, TN, 37032",605283667,"L"
180941,"3441 LAREDO DRIVE UNIT 32","LEXINGTON","KY",40517,37.98705834,-84.507635841,441,"3441 LAREDO DRIVE UNIT 32, LEXINGTON, KY, 40517","Match","Exact","3441 LAREDO DR, LEXINGTON, KY, 40517",647460655,"R"
180942,"3441 MOUNT PINOS WAY","FRAZIER PARK","CA",93225,34.8221221110001,-118.942926088,442,"3441 MOUNT PINOS WAY, FRAZIER PARK, CA, 93225","Match","Exact","3441 MOUNT PINOS WAY, FRAZIER PARK, CA, 93225",109099448,"L"
180943,"3441 N VALLEYVIEW DR","BLOOMINGTON","IN",47404,39.198135467,-86.5467437949999,443,"3441 N VALLEYVIEW DR, BLOOMINGTON, IN, 47404","Match","Exact","3441 N VALLEYVIEW DR, BLOOMINGTON, IN, 47404",42321252,"L"
180944,"3441 OXFORD BLVD","SAINT LOUIS","MO",63143,38.604818476,-90.317705463,444,"3441 OXFORD BLVD, SAINT LOUIS, MO, 63143","Match","Exact","3441 OXFORD BLVD, SAINT LOUIS, MO, 63143",100136706,"R"
180945,"3441 S AMMONS ST 10-2","LAKEWOOD","CO",80227,39.654303704,-105.087493685,445,"3441 S AMMONS ST 10-2, LAKEWOOD, CO, 80227","Match","Non_Exact","3441 S AMMONS ST, LAKEWOOD, CO, 80227",177321737,"R"
180946,"3441 S DECKER LAKE DR","WEST VALLEY","UT",84119,40.698538586,-111.947194114,446,"3441 S DECKER LAKE DR, WEST VALLEY, UT, 84119","Match","Exact","3441 DECKER LAKE DR, WEST VALLEY, UT, 84119",176133278,"R"
180947,"3441 STEENWICK AVE","BRONX","NY",10475,NA,NA,447,"3441 STEENWICK AVE, BRONX, NY, 10475","No_Match",NA,NA,NA,NA
180948,"3441 VILLAGE GREEN COURT","SAINT CLOUD","FL",34772,28.227171954,-81.310303171,448,"3441 VILLAGE GREEN COURT, SAINT CLOUD, FL, 34772","Match","Exact","3441 VILLAGE GREEN CT, SAINT CLOUD, FL, 34772",637783949,"R"
180949,"3441 W CARMEN AVE","CHICAGO","IL",60625,41.972544671,-87.715144758,449,"3441 W CARMEN AVE, CHICAGO, IL, 60625","Match","Exact","3441 W CARMEN AVE, CHICAGO, IL, 60625",605184226,"L"
180950,"3441 W CHICAGO AVE","CHICAGO","IL",60651,41.895488234,-87.713087896,450,"3441 W CHICAGO AVE, CHICAGO, IL, 60651","Match","Exact","3441 W CHICAGO AVE, CHICAGO, IL, 60651",605079346,"L"
180951,"3441 W VIA ENCANTADA WAY","SOUTH JORDAN","UT",84095,NA,NA,451,"3441 W VIA ENCANTADA WAY, SOUTH JORDAN, UT, 84095","Tie",NA,NA,NA,NA
180952,"3441 WEST 52ND STREET","CLEVELAND","OH",44102,41.4608051500001,-81.7228747139999,452,"3441 WEST 52ND STREET, CLEVELAND, OH, 44102","Match","Exact","3441 W 52ND ST, CLEVELAND, OH, 44102",61105606,"L"
180953,"3441 WEST ANDREW JOHNSON HWY","MORRISTOWN","TN",37814,36.2304431950001,-83.250615887,453,"3441 WEST ANDREW JOHNSON HWY, MORRISTOWN, TN, 37814","Match","Non_Exact","3441 E ANDREW JOHNSON HWY, MORRISTOWN, TN, 37814",42222302,"L"
180954,"34410 34TH PLACE SW","FEDERAL WAY","WA",98023,47.291948753,-122.37568563,454,"34410 34TH PLACE SW, FEDERAL WAY, WA, 98023","Match","Exact","34410 34TH PL SW, FEDERAL WAY, WA, 98023",239794412,"L"
180955,"3442 25TH AVENUE SOUTH","MINNEAPOLIS","MN",55406,44.940551998,-93.235943896,455,"3442 25TH AVENUE SOUTH, MINNEAPOLIS, MN, 55406","Match","Exact","3442 25TH AVE S, MINNEAPOLIS, MN, 55406",43639141,"R"
180956,"3442 28TH ST APT 1F","ASTORIA","NY",11106,NA,NA,456,"3442 28TH ST APT 1F, ASTORIA, NY, 11106","No_Match",NA,NA,NA,NA
180957,"3442 47TH ST","SAN DIEGO","CA",92105,32.741534867,-117.093366202,457,"3442 47TH ST, SAN DIEGO, CA, 92105","Match","Exact","3442 47TH ST, SAN DIEGO, CA, 92105",651651727,"L"
180958,"3442 AQUARIOUS CIR","OAKLAND","MI",48363,42.7502084970001,-83.2053858099999,458,"3442 AQUARIOUS CIR, OAKLAND, MI, 48363","Match","Exact","3442 AQUARIOUS CIR, OAKLAND, MI, 48363",69707977,"R"
180959,"3442 CATALPA AVENUE","INDIANAPOLIS","IN",46228,39.8613724570001,-86.219100539,459,"3442 CATALPA AVENUE, INDIANAPOLIS, IN, 46228","Match","Exact","3442 CATALPA AVE, INDIANAPOLIS, IN, 46228",107981810,"R"
180960,"3442 CREEKVIEW DR","REX","GA",30273,33.5830276560001,-84.277312379,460,"3442 CREEKVIEW DR, REX, GA, 30273","Match","Exact","3442 CREEKVIEW DR, REX, GA, 30273",627394234,"R"
180961,"3442 E BARDSLEY AVE","TULARE","CA",93274,36.1964342530001,-119.298727597,461,"3442 E BARDSLEY AVE, TULARE, CA, 93274","Match","Exact","3442 E BARDSLEY AVE, TULARE, CA, 93274",651529032,"L"
180962,"3442 FLINT TAVERN PLACE","WOODBRIDGE","VA",22192,38.6974129560001,-77.310553323,462,"3442 FLINT TAVERN PLACE, WOODBRIDGE, VA, 22192","Match","Exact","3442 FLINT TAVERN PL, WOODBRIDGE, VA, 22192",76510329,"L"
180963,"3442 GRACE AVE APT A","ST LOUIS","MO",63116,38.5949248580001,-90.244750155,463,"3442 GRACE AVE APT A, ST LOUIS, MO, 63116","Match","Exact","3442 GRACE AVE, SAINT LOUIS, MO, 63116",107601220,"L"
180964,"3442 HARVEY RD","WASHINGTON","NC",27889,35.5107776090001,-76.9150631919999,464,"3442 HARVEY RD, WASHINGTON, NC, 27889","Match","Exact","3442 HARVEY RD, WASHINGTON, NC, 27889",635555896,"R"
180965,"3442 MAGNOLIA SHORES LN","PEERLAND","TX",77584,29.545594819,-95.42732338,465,"3442 MAGNOLIA SHORES LN, PEERLAND, TX, 77584","Match","Non_Exact","3442 MAGNOLIA SHORES LN, PEARLAND, TX, 77584",648926622,"L"
180966,"3442 MCCONNELL DR","BELLEVUE","NE",68123,41.1203174990001,-95.964411232,466,"3442 MCCONNELL DR, BELLEVUE, NE, 68123","Match","Non_Exact","3442 MCCONNELL ST, BELLEVUE, NE, 68123",28469775,"L"
180967,"3442 MORGAN TRAIL","JEFFERSONVILLE","IN",47130,38.3429213410001,-85.715029623,467,"3442 MORGAN TRAIL, JEFFERSONVILLE, IN, 47130","Match","Exact","3442 MORGAN TRL, JEFFERSONVILLE, IN, 47130",651329353,"R"
180968,"3442 RAVINIA CIRCLE","AURORA","IL",60504,41.744392342,-88.231991998,468,"3442 RAVINIA CIRCLE, AURORA, IL, 60504","Match","Exact","3442 RAVINIA CIR, AURORA, IL, 60504",112687365,"L"
180969,"3442 S HAWES ROAD","MESA","AZ",85212,33.3529255380001,-111.653128484,469,"3442 S HAWES ROAD, MESA, AZ, 85212","Match","Exact","3442 S HAWES RD, MESA, AZ, 85212",128968040,"L"
180970,"3442 STELLHORN ROAD","FORT WAYNE","IN",46815,41.1192815160001,-85.097276114,470,"3442 STELLHORN ROAD, FORT WAYNE, IN, 46815","Match","Exact","3442 STELLHORN RD, FORT WAYNE, IN, 46815",606512233,"R"
180971,"3442 TOMS DRIVE","AUGUSTA","GA",30906,33.4243163940001,-82.077888501,471,"3442 TOMS DRIVE, AUGUSTA, GA, 30906","Match","Exact","3442 TOMS DR, AUGUSTA, GA, 30906",55651201,"L"
180972,"3442 W 66TH PL","CHICAGO","IL",60629,41.772520247,-87.708915191,472,"3442 W 66TH PL, CHICAGO, IL, 60629","Match","Exact","3442 W 66TH PL, CHICAGO, IL, 60629",111816855,"R"
180973,"3442 WEST 159TH STREET","MARKHAM","IL",60428,41.6007748060001,-87.700420865,473,"3442 WEST 159TH STREET, MARKHAM, IL, 60428","Match","Exact","3442 W 159TH ST, MARKHAM, IL, 60428",111704572,"R"
180974,"3442 WEST CARROLL AVENUE","CHICAGO","IL",60624,41.8874514330001,-87.712271024,474,"3442 WEST CARROLL AVENUE, CHICAGO, IL, 60624","Match","Exact","3442 W CARROLL AVE, CHICAGO, IL, 60624",111759807,"R"
180975,"34420 DEVLIN DR","BEAUMONT","CA",92223,33.96174161,-117.065864034,475,"34420 DEVLIN DR, BEAUMONT, CA, 92223","Match","Exact","34420 DEVLIN DR, BEAUMONT, CA, 92223",647472647,"R"
180976,"3443 2ND AVENUE","SACRAMENTO","CA",95817,38.5528809690001,-121.468746647,476,"3443 2ND AVENUE, SACRAMENTO, CA, 95817","Match","Exact","3443 2ND AVE, SACRAMENTO, CA, 95817",133326758,"L"
180977,"3443 AMBERWAY CT","CINCINNAT","OH",45251,39.2418790890001,-84.591857521,477,"3443 AMBERWAY CT, CINCINNAT, OH, 45251","Match","Non_Exact","3443 AMBERWAY CT, CINCINNATI, OH, 45251",103915362,"L"
180978,"3443 BUTLER AVE","STEGER","IL",60475,41.4689578860001,-87.6280952929999,478,"3443 BUTLER AVE, STEGER, IL, 60475","Match","Exact","3443 BUTLER AVE, STEGER, IL, 60475",111553177,"L"
180979,"3443 CLAREMONT STREET","MOUNT PLEASANT","SC",29466,32.908665926,-79.7831713689999,479,"3443 CLAREMONT STREET, MOUNT PLEASANT, SC, 29466","Match","Exact","3443 CLAREMONT ST, MOUNT PLEASANT, SC, 29466",627475021,"R"
180980,"3443 CORTE SONRISA","CARLSBAD","CA",92009,33.0636704550001,-117.23389336,480,"3443 CORTE SONRISA, CARLSBAD, CA, 92009","Match","Exact","3443 CORTE SONRISA, CARLSBAD, CA, 92009",195658437,"R"
180981,"3443 COVAL CIRCLE","ATLANTA","GA",30349,33.662283904,-84.562294751,481,"3443 COVAL CIRCLE, ATLANTA, GA, 30349","Match","Non_Exact","3443 COVALL DR, ATLANTA, GA, 30349",624704041,"R"
180982,"3443 CR 3420","HAWKINS","TX",75765,32.6179960440001,-95.245005122,482,"3443 CR 3420, HAWKINS, TX, 75765","Match","Exact","3443 CO RD 3420, HAWKINS, TX, 75765",636451165,"R"
180983,"3443 DELL GLADE DRIVE","MEMPHIS","TN",38111,35.1388039340001,-89.947513323,483,"3443 DELL GLADE DRIVE, MEMPHIS, TN, 38111","Match","Exact","3443 DELL GLADE DR, MEMPHIS, TN, 38111",72915688,"R"
180984,"3443 DICKERSON PIKE SUITE 430","NASHVILLE","TN",37207,NA,NA,484,"3443 DICKERSON PIKE SUITE 430, NASHVILLE, TN, 37207","No_Match",NA,NA,NA,NA
180985,"3443 ESPLANADE AVE   APT 437","NEW ORLEANS","NY",70119,NA,NA,485,"3443 ESPLANADE AVE   APT 437, NEW ORLEANS, NY, 70119","No_Match",NA,NA,NA,NA
180986,"3443 ESPLANADE AVENUE STE 236","NEW ORLEANS","LA",70119,29.9825652650001,-90.0876983699999,486,"3443 ESPLANADE AVENUE STE 236, NEW ORLEANS, LA, 70119","Match","Exact","3443 ESPLANADE AVE, NEW ORLEANS, LA, 70119",191729676,"R"
180987,"3443 GREENFIELD CIRCLE","MOUNTAIN GREEN","UT",84050,41.150657537,-111.759121133,487,"3443 GREENFIELD CIRCLE, MOUNTAIN GREEN, UT, 84050","Match","Exact","3443 GREENFIELD CIR, MOUNTAIN GREEN, UT, 84050",639446952,"R"
180988,"3443 JACKSONVILLE ROAD","TALLAPOOSA","GA",30176,33.795898879,-85.2863071209999,488,"3443 JACKSONVILLE ROAD, TALLAPOOSA, GA, 30176","Match","Exact","3443 JACKSONVILLE RD, TALLAPOOSA, GA, 30176",610518535,"L"
180989,"3443 KINGSBORO ROAD NE","ATLANTA","GA",30326,33.849866708,-84.3581170259999,489,"3443 KINGSBORO ROAD NE, ATLANTA, GA, 30326","Match","Exact","3443 KINGSBORO RD NE, ATLANTA, GA, 30326",17355663,"R"
180990,"3443 OAK PARK AVE","BERWYN","IL",60402,41.8296628090001,-87.7927004809999,490,"3443 OAK PARK AVE, BERWYN, IL, 60402","Match","Exact","3443 OAK PARK AVE, BERWYN, IL, 60402",111794733,"L"
180991,"3443 TUMBLING RIVER DRIVE","CLERMONT","FM",34711,NA,NA,491,"3443 TUMBLING RIVER DRIVE, CLERMONT, FM, 34711","No_Match",NA,NA,NA,NA
180992,"3443 VALLEJO STREET","DENVER","CO",80211,39.7649671680001,-105.012785194,492,"3443 VALLEJO STREET, DENVER, CO, 80211","Match","Exact","3443 VALLEJO ST, DENVER, CO, 80211",177301294,"L"
180993,"3443 W 73RD STREET","CHICAGO","IL",60629,41.760644933,-87.7086810499999,493,"3443 W 73RD STREET, CHICAGO, IL, 60629","Match","Exact","3443 W 73RD ST, CHICAGO, IL, 60629",111816963,"L"
180994,"3443 W IRVING PARK RD","CHICAGO","IL",60618,41.953834145,-87.7144094659999,494,"3443 W IRVING PARK RD, CHICAGO, IL, 60618","Match","Exact","3443 W IRVING PARK RD, CHICAGO, IL, 60618",111757078,"L"
180995,"3443 WOODDUCK WAY","MANHATTAN","KS",66503,39.1874906510001,-96.623428432,495,"3443 WOODDUCK WAY, MANHATTAN, KS, 66503","Match","Exact","3443 WOODDUCK WAY, MANHATTAN, KS, 66503",27808517,"L"
180996,"3443 XENIA AVE N","CRYSTAL","MN",55422,45.0189109620001,-93.352224574,496,"3443 XENIA AVE N, CRYSTAL, MN, 55422","Match","Exact","3443 XENIA AVE N, CRYSTAL, MN, 55422",43831103,"L"
180997,"34432 STATE ROUTE 78","LEWISVLLE","OH",43754,39.762932999,-81.199287114,497,"34432 STATE ROUTE 78, LEWISVLLE, OH, 43754","Match","Non_Exact","34432 STATE RTE 78, LEWISVILLE, OH, 43754",37861434,"R"
180998,"3444 BRADBURY CIR","AURORA","IL",60504,41.7626194900001,-88.232170293,498,"3444 BRADBURY CIR, AURORA, IL, 60504","Match","Exact","3444 BRADBURY CIR, AURORA, IL, 60504",633560895,"R"
180999,"3444 CRAYRICH DRIVE","HOOVER","AL",35226,33.3865174040001,-86.812911476,499,"3444 CRAYRICH DRIVE, HOOVER, AL, 35226","Match","Exact","3444 CRAYRICH DR, HOOVER, AL, 35226",81710079,"R"
181000,"3444 E US HWY 20","ROLLING PRAIRIE","IN",46371,NA,NA,500,"3444 E US HWY 20, ROLLING PRAIRIE, IN, 46371","No_Match",NA,NA,NA,NA
