"ID","Address","City","State","Zip","lat","long","id","input_address","match_indicator","match_type","matched_address","tiger_line_id","tiger_side"
241501,"54 WILLIAMSON AVENUE","HILLLSIDE","NJ",7205,40.701647156,-74.216433889,1,"54 WILLIAMSON AVENUE, HILLLSIDE, NJ, 7205","Match","Non_Exact","54 WILLIAMSON AVE, HILLSIDE, NJ, 07205",60577644,"L"
241502,"54 WILLOW ST","WHEATLEY HEIGHTS","NY",11798,40.763558082,-73.365337344,2,"54 WILLOW ST, WHEATLEY HEIGHTS, NY, 11798","Match","Exact","54 WILLOW ST, WHEATLEY HEIGHTS, NY, 11798",113969139,"L"
241503,"54 WILLOW STREET","PORT READING","NJ",7064,NA,NA,3,"54 WILLOW STREET, PORT READING, NJ, 7064","No_Match",NA,NA,NA,NA
241504,"54 WILLOW STREET","WHEATLEY HEIGHTS","NY",11798,40.763558082,-73.365337344,4,"54 WILLOW STREET, WHEATLEY HEIGHTS, NY, 11798","Match","Exact","54 WILLOW ST, WHEATLEY HEIGHTS, NY, 11798",113969139,"L"
241505,"54 WINSPEAR AVE","BUFFALO","NY",14214,42.9505505980001,-78.823985981,5,"54 WINSPEAR AVE, BUFFALO, NY, 14214","Match","Exact","54 WINSPEAR AVE, BUFFALO, NY, 14214",48360610,"L"
241506,"54 WINTERSET DR","SPRINGFIELD","MA",1129,42.1167492820001,-72.4859955319999,6,"54 WINTERSET DR, SPRINGFIELD, MA, 1129","Match","Exact","54 WINTERSET DR, SPRINGFIELD, MA, 01129",4044236,"L"
241507,"54 WOODLAND AVENUE","EAST ORANGE","NJ",7017,40.773291972,-74.2142222579999,7,"54 WOODLAND AVENUE, EAST ORANGE, NJ, 7017","Match","Exact","54 WOODLAND AVE, EAST ORANGE, NJ, 07017",63451436,"R"
241508,"54 YAPHANK MIDDLE ISLAND RD","MIDDLE ISLAND","NY",11953,40.875447846,-72.9391614579999,8,"54 YAPHANK MIDDLE ISLAND RD, MIDDLE ISLAND, NY, 11953","Match","Exact","54 YAPHANK MIDDLE ISLAND RD, MIDDLE ISLAND, NY, 11953",114047305,"R"
241509,"54 ZION SPRINGS LANE","LOUISA","VA",23093,37.944949647,-78.1406461019999,9,"54 ZION SPRINGS LANE, LOUISA, VA, 23093","Match","Exact","54 ZION SPRINGS LN, LOUISA, VA, 23093",651940273,"R"
241510,"54-010 KUKUNA RD / P O BOX 264","HAUULA","HI",96717,21.6089119280001,-157.909809807,10,"54-010 KUKUNA RD / P O BOX 264, HAUULA, HI, 96717","Match","Exact","54-10 KUKUNA RD, HAUULA, HI, 96717",203223576,"L"
241511,"54-062 KUKUNA RD","HAUULA","HI",96717,21.6079922440001,-157.912185815,11,"54-062 KUKUNA RD, HAUULA, HI, 96717","Match","Exact","54-62 KUKUNA RD, HAUULA, HI, 96717",203223561,"L"
241512,"54-09 100 STREET / SUITE 613","CORONA","NY",11368,40.7397443450001,-73.860051992,12,"54-09 100 STREET / SUITE 613, CORONA, NY, 11368","Match","Exact","54-9 100TH ST, CORONA, NY, 11368",59704935,"L"
241513,"54-2259 KYNNERSLEY ROAD","KAPAAU","HI",96755,20.2189497680001,-155.819684405,13,"54-2259 KYNNERSLEY ROAD, KAPAAU, HI, 96755","Match","Exact","54-2259 KYNNERSLEY RD, KAPAAU, HI, 96755",614306981,"L"
241514,"54-316 KAMEHAMEHA HWY 568","HAUULA","HI",96717,21.6197170470001,-157.915228137,14,"54-316 KAMEHAMEHA HWY 568, HAUULA, HI, 96717","Match","Exact","54-316 KAMEHAMEHA HWY, HAUULA, HI, 96717",203223479,"L"
241515,"54-55 65TH PLACE","MASPETH","NY",11378,40.7276227520001,-73.9002822479999,15,"54-55 65TH PLACE, MASPETH, NY, 11378","Match","Exact","54-55 65TH PL, MASPETH, NY, 11378",59694294,"L"
241516,"54-59 82ND ST 2FL","ELMHURST","NY",11373,NA,NA,16,"54-59 82ND ST 2FL, ELMHURST, NY, 11373","Tie",NA,NA,NA,NA
241517,"54-G TROWBRIDGE STREET","CAMBRIDGE","MA",2138,42.37276209,-71.111127853,17,"54-G TROWBRIDGE STREET, CAMBRIDGE, MA, 2138","Match","Exact","54 TROWBRIDGE ST, CAMBRIDGE, MA, 02138",636923481,"R"
241518,"54","KANSAS CITY","MO",64133,NA,NA,18,"54, KANSAS CITY, MO, 64133","No_Match",NA,NA,NA,NA
241519,"540 13TH STREET","ELKO","NV",89801,40.839665005,-115.757316844,19,"540 13TH STREET, ELKO, NV, 89801","Match","Exact","540 13TH ST, ELKO, NV, 89801",154548781,"R"
241520,"540 14TH AVENUE","PATERSON","NJ",7504,40.917146567,-74.15229011,20,"540 14TH AVENUE, PATERSON, NJ, 7504","Match","Exact","540 14TH AVE, PATERSON, NJ, 07504",65264445,"R"
241521,"540 39TH STREET SUITE 40","UNION CITY","NJ",7087,40.7762790460001,-74.0274536859999,21,"540 39TH STREET SUITE 40, UNION CITY, NJ, 7087","Match","Exact","540 39TH ST, UNION CITY, NJ, 07087",59599137,"R"
241522,"540 48TH STREET SOUTH","SAINT PETERSBURG","FL",33711,27.7651389320001,-82.698496704,22,"540 48TH STREET SOUTH, SAINT PETERSBURG, FL, 33711","Match","Exact","540 48TH ST S, SAINT PETERSBURG, FL, 33711",124700771,"L"
241523,"540 4TH ST / PO BOX 75","GERING","NE",69341,41.813103047,-103.650969369,23,"540 4TH ST / PO BOX 75, GERING, NE, 69341","Match","Exact","540 4TH ST, GERING, NE, 69341",639696578,"R"
241524,"540 AIRLIFT DR","FAIRFIELD","CA",94535,NA,NA,24,"540 AIRLIFT DR, FAIRFIELD, CA, 94535","No_Match",NA,NA,NA,NA
241525,"540 ALAMEDA BLVD","CORONADO","CA",92118,32.6961899950001,-117.184949849,25,"540 ALAMEDA BLVD, CORONADO, CA, 92118","Match","Exact","540 ALAMEDA BLVD, CORONADO, CA, 92118",195343978,"R"
241526,"540 ALLEN RD","BATESVILLE","AR",72501,35.8297371840001,-91.706708384,26,"540 ALLEN RD, BATESVILLE, AR, 72501","Match","Exact","540 ALLEN RD, BATESVILLE, AR, 72501",635402215,"R"
241527,"540 ASH AVENUE PO BOX 145","WESTBROOK","MN",56183,44.041473061,-95.434569435,27,"540 ASH AVENUE PO BOX 145, WESTBROOK, MN, 56183","Match","Exact","540 ASH AVE, WESTBROOK, MN, 56183",30328906,"L"
241528,"540 ASPEN DRIVE","JACKSON","WY",83001,43.471486994,-110.771405793,28,"540 ASPEN DRIVE, JACKSON, WY, 83001","Match","Exact","540 ASPEN DR, JACKSON, WY, 83001",130413132,"R"
241529,"540 BALTIMORE ANNAPOLIS BLVD SUITE","SEVERNA PARK","MD",21146,39.073666168,-76.5478686229999,29,"540 BALTIMORE ANNAPOLIS BLVD SUITE, SEVERNA PARK, MD, 21146","Match","Exact","540 BALTIMORE ANNAPOLIS BLVD, SEVERNA PARK, MD, 21146",68167934,"R"
241530,"540 BARN HILL RD","MONROE","CT",6468,41.361955661,-73.1906713939999,30,"540 BARN HILL RD, MONROE, CT, 6468","Match","Exact","540 BARN HILL RD, MONROE, CT, 06468",3217658,"R"
241531,"540 BAXTER ST","ATHENS","GA",30605,33.950002668,-83.384191663,31,"540 BAXTER ST, ATHENS, GA, 30605","Match","Exact","540 BAXTER ST, ATHENS, GA, 30605",4802339,"R"
241532,"540 BAXTER STREET","ATHENS","GA",30605,33.950002668,-83.384191663,32,"540 BAXTER STREET, ATHENS, GA, 30605","Match","Exact","540 BAXTER ST, ATHENS, GA, 30605",4802339,"R"
241533,"540 BLUE HERON RD","SALISBURY","NC",28146,35.6653831410001,-80.3403995199999,33,"540 BLUE HERON RD, SALISBURY, NC, 28146","Match","Exact","540 BLUE HERON RD, SALISBURY, NC, 28146",638657931,"R"
241534,"540 BRANCH DR STE A","ALPHARETTA","GA",30004,34.1289167630001,-84.225616187,34,"540 BRANCH DR STE A, ALPHARETTA, GA, 30004","Match","Exact","540 BRANCH DR, ALPHARETTA, GA, 30004",636523477,"R"
241535,"540 BRICKELL KEY DRIVE APT 506","MIAMI","FL",33131,25.7658882310001,-80.184726933,35,"540 BRICKELL KEY DRIVE APT 506, MIAMI, FL, 33131","Match","Exact","540 BRICKELL KEY DR, MIAMI, FL, 33131",642891757,"L"
241536,"540 BROADWAY","ELIZABETH","NJ",7206,40.6572629830001,-74.1938745959999,36,"540 BROADWAY, ELIZABETH, NJ, 7206","Match","Exact","540 BROADWAY, ELIZABETH, NJ, 07206",60579310,"L"
241537,"540 BULLCREEK ROAD","BUTLER","PA",16002,40.8033374140001,-79.86624619,37,"540 BULLCREEK ROAD, BUTLER, PA, 16002","Match","Exact","540 BULLCREEK RD, BUTLER, PA, 16002",52658441,"L"
241538,"540 BURGWYN ROAD","MONTGOMERY","AL",36105,32.321595582,-86.314096993,38,"540 BURGWYN ROAD, MONTGOMERY, AL, 36105","Match","Exact","540 BURGWYN RD, MONTGOMERY, AL, 36105",1475292,"R"
241539,"540 CALIFORNIA AVENUE","FRESNO","CA",93706,NA,NA,39,"540 CALIFORNIA AVENUE, FRESNO, CA, 93706","Tie",NA,NA,NA,NA
241540,"540 CAMINO DE HIGINO","LOS LUNAS","NM",87031,NA,NA,40,"540 CAMINO DE HIGINO, LOS LUNAS, NM, 87031","No_Match",NA,NA,NA,NA
241541,"540 CARROLL STREET","SOUTH BEND","IN",46601,41.6699442170001,-86.247075239,41,"540 CARROLL STREET, SOUTH BEND, IN, 46601","Match","Exact","540 CARROLL ST, SOUTH BEND, IN, 46601",8083953,"L"
241542,"540 CARSON AVE","LAS ANIMAS","CO",81054,38.067302994,-103.221267124,42,"540 CARSON AVE, LAS ANIMAS, CO, 81054","Match","Exact","540 CARSON AVE, LAS ANIMAS, CO, 81054",138188959,"R"
241543,"540 CHARLESTON ROAD","MOUNT LAUREL","NJ",8054,39.9261848580001,-74.935264654,43,"540 CHARLESTON ROAD, MOUNT LAUREL, NJ, 8054","Match","Exact","540 CHARLESTON RD, MOUNT LAUREL, NJ, 08054",134036271,"L"
241544,"540 CHESTNUT STREET","MANCHESTER","NH",3101,42.9966823280001,-71.461241738,44,"540 CHESTNUT STREET, MANCHESTER, NH, 3101","Match","Exact","540 CHESTNUT ST, MANCHESTER, NH, 03101",651939527,"L"
241545,"540 CHESTNUT","MANCHESTER","NH",3101,42.9966823280001,-71.461241738,45,"540 CHESTNUT, MANCHESTER, NH, 3101","Match","Non_Exact","540 CHESTNUT ST, MANCHESTER, NH, 03101",651939527,"L"
241546,"540 COUNTRY LANE","HOLLY SPRINGS","NC",27540,35.645235359,-78.839979178,46,"540 COUNTRY LANE, HOLLY SPRINGS, NC, 27540","Match","Exact","540 COUNTRY LN, HOLLY SPRINGS, NC, 27540",72631270,"L"
241547,"540 DAYTONA AVENUE","DAYTONA BEACH","FL",32117,29.2360534270001,-81.033870214,47,"540 DAYTONA AVENUE, DAYTONA BEACH, FL, 32117","Match","Exact","540 DAYTONA AVE, DAYTONA BEACH, FL, 32117",94523634,"L"
241548,"540 E CALIFORNIA","FRESNO","CA",93706,36.721368297,-119.806017224,48,"540 E CALIFORNIA, FRESNO, CA, 93706","Match","Non_Exact","540 E CALIFORNIA AVE, FRESNO, CA, 93706",197579521,"R"
241549,"540 E HIGHLAND ST","MARTINSVILLE","IN",46151,39.4306483990001,-86.422002348,49,"540 E HIGHLAND ST, MARTINSVILLE, IN, 46151","Match","Exact","540 E HIGHLAND ST, MARTINSVILLE, IN, 46151",43545791,"R"
241550,"540 E WASHINGTON STREET","CHAMBERSBURG","PA",17201,39.932826074,-77.650930304,50,"540 E WASHINGTON STREET, CHAMBERSBURG, PA, 17201","Match","Exact","540 E WASHINGTON ST, CHAMBERSBURG, PA, 17201",60081991,"L"
241551,"540 EAST BOYER STREET","TARPON SPRINGS","FL",34689,28.14408812,-82.749622254,51,"540 EAST BOYER STREET, TARPON SPRINGS, FL, 34689","Match","Exact","540 E BOYER ST, TARPON SPNGS, FL, 34689",124661018,"R"
241552,"540 EAST BRADDOCK DRIVE","FRESNO","CA",93720,36.8687059530001,-119.773640053,52,"540 EAST BRADDOCK DRIVE, FRESNO, CA, 93720","Match","Exact","540 E BRADDOCK DR, FRESNO, CA, 93720",197616940,"R"
241553,"540 EAST COURT STREET","ROCKY MOUNT","VA",24151,36.9958877380001,-79.879931692,53,"540 EAST COURT STREET, ROCKY MOUNT, VA, 24151","Match","Exact","540 E COURT ST, ROCKY MOUNT, VA, 24151",648594772,"R"
241554,"540 EAST G STREET","UPLAND","CA",91786,34.1024398280001,-117.643430773,54,"540 EAST G STREET, UPLAND, CA, 91786","Match","Exact","540 E G ST, UPLAND, CA, 91786",144674813,"R"
241555,"540 EAST KELLAR LANE","DECATUR","IL",62526,39.8659110580001,-88.9507755389999,55,"540 EAST KELLAR LANE, DECATUR, IL, 62526","Match","Exact","540 E KELLAR LN, DECATUR, IL, 62526",20746448,"L"
241556,"540 EAST PINE PLACE","TULSA","OK",74106,36.177838894,-95.987766876,56,"540 EAST PINE PLACE, TULSA, OK, 74106","Match","Exact","540 E PINE PL, TULSA, OK, 74106",166518367,"R"
241557,"540 EAST STATE STREET","TRENTON","NJ",8609,40.2212518330001,-74.754171319,57,"540 EAST STATE STREET, TRENTON, NJ, 8609","Match","Exact","540 E STATE ST, TRENTON, NJ, 08609",635127871,"L"
241558,"540 ELKO SUMMIT DRIVE","ELKO","NV",89801,40.801211057,-115.733424172,58,"540 ELKO SUMMIT DRIVE, ELKO, NV, 89801","Match","Exact","540 ELKO SUMMIT DR, ELKO, NV, 89801",154629308,"R"
241559,"540 ELKTON DR    SUITE 104","COLORADO SPRINGS","CO",80921,38.900738291,-104.833655998,59,"540 ELKTON DR    SUITE 104, COLORADO SPRINGS, CO, 80921","Match","Non_Exact","540 ELKTON DR, COLO SPGS, CO, 80919",610707264,"L"
241560,"540 FAIRFAX AVE","DAVIE","FL",33325,26.1134351360001,-80.3401527999999,60,"540 FAIRFAX AVE, DAVIE, FL, 33325","Match","Exact","540 FAIRFAX AVE, DAVIE, FL, 33325",114766345,"L"
241561,"540 FAIRVIEW AVENUE","PARAMUS","NJ",7652,40.954494004,-74.058404012,61,"540 FAIRVIEW AVENUE, PARAMUS, NJ, 7652","Match","Non_Exact","540 N FARVIEW AVE, PARAMUS, NJ, 07652",637774628,"R"
241562,"540 FAIRVIEW AVENUE","RIPON","WI",54971,43.837793257,-88.844870194,62,"540 FAIRVIEW AVENUE, RIPON, WI, 54971","Match","Exact","540 FAIRVIEW AVE, RIPON, WI, 54971",74813687,"R"
241563,"540 FARVIEW AVE","PARAMUS","NJ",7652,40.954494004,-74.058404012,63,"540 FARVIEW AVE, PARAMUS, NJ, 7652","Match","Non_Exact","540 N FARVIEW AVE, PARAMUS, NJ, 07652",637774628,"R"
241564,"540 FIELDBROOK DR","MONTGOMERY","AL",36117,32.393630601,-86.1927126529999,64,"540 FIELDBROOK DR, MONTGOMERY, AL, 36117","Match","Exact","540 FIELDBROOK DR, MONTGOMERY, AL, 36117",1472913,"R"
241565,"540 FORK MESA","HENDERSON","NV",89015,NA,NA,65,"540 FORK MESA, HENDERSON, NV, 89015","No_Match",NA,NA,NA,NA
241566,"540 FURNACE RD","IRON STATION","NC",28080,35.482015362,-81.123340771,66,"540 FURNACE RD, IRON STATION, NC, 28080","Match","Exact","540 FURNACE RD, IRON STATION, NC, 28080",69538012,"R"
241567,"540 GALLIVAN BLVD","DORCHESTER","MA",2124,42.2828540940001,-71.054298796,67,"540 GALLIVAN BLVD, DORCHESTER, MA, 2124","Match","Exact","540 GALLIVAN BLVD, DORCHESTER, MA, 02124",85736462,"L"
241568,"540 GIRARD AVENUE","PHILADELPHIA","PA",19125,39.97114365,-75.127560247,68,"540 GIRARD AVENUE, PHILADELPHIA, PA, 19125","Match","Non_Exact","540 E GIRARD AVE, PHILADELPHIA, PA, 19125",131425756,"R"
241569,"540 GOLDEN CIRCLE SUITE 214","SANTA ANA","CA",92705,NA,NA,69,"540 GOLDEN CIRCLE SUITE 214, SANTA ANA, CA, 92705","No_Match",NA,NA,NA,NA
241570,"540 HOLLY DRIVE","GAINESVILLE","GA",30501,34.315483607,-83.841055228,70,"540 HOLLY DRIVE, GAINESVILLE, GA, 30501","Match","Exact","540 HOLLY DR, GAINESVILLE, GA, 30501",98248838,"L"
241571,"540 HOWARD STREET FL 2","SAN FRANCISCO","CA",94105,37.7877909870001,-122.396986218,71,"540 HOWARD STREET FL 2, SAN FRANCISCO, CA, 94105","Match","Exact","540 HOWARD ST, SAN FRANCISCO, CA, 94105",642621494,"R"
241572,"540 IDLEWOOD LANE","ELGIN","SC",29045,34.192256178,-80.7877133,72,"540 IDLEWOOD LANE, ELGIN, SC, 29045","Match","Non_Exact","540 IDLEWOOD DR, ELGIN, SC, 29045",78485918,"L"
241573,"540 INVERNESS DR","VALLEJO","CA",94589,38.1316725,-122.248325635,73,"540 INVERNESS DR, VALLEJO, CA, 94589","Match","Exact","540 INVERNESS DR, VALLEJO, CA, 94589",192532188,"R"
241574,"540 ISLAND AVE","PORT EDWARDS","WI",54469,44.3452322970001,-89.865275891,74,"540 ISLAND AVE, PORT EDWARDS, WI, 54469","Match","Exact","540 ISLAND AVE, PORT EDWARDS, WI, 54469",51291021,"R"
241575,"540 JAYHAWK DR","CHENEY","KS",67025,37.6345104330001,-97.77500488,75,"540 JAYHAWK DR, CHENEY, KS, 67025","Match","Exact","540 JAYHAWK DR, CHENEY, KS, 67025",115686716,"L"
241576,"540 JERICHO RD","LAGRANGE","KY",40031,38.40860286,-85.374145068,76,"540 JERICHO RD, LAGRANGE, KY, 40031","Match","Exact","540 JERICHO RD, LAGRANGE, KY, 40031",130915407,"L"
241577,"540 JUANITA ST","SANTA FE","NM",87501,35.6827504120001,-105.954131281,77,"540 JUANITA ST, SANTA FE, NM, 87501","Match","Exact","540 JUANITA ST, SANTA FE, NM, 87501",169378497,"R"
241578,"540 JUANITA STREET","SANTA FE","NM",87501,35.6827504120001,-105.954131281,78,"540 JUANITA STREET, SANTA FE, NM, 87501","Match","Exact","540 JUANITA ST, SANTA FE, NM, 87501",169378497,"R"
241579,"540 LAKOTA LANE","CHASKA","MN",55318,44.8172428120001,-93.534207115,79,"540 LAKOTA LANE, CHASKA, MN, 55318","Match","Exact","540 LAKOTA LN, CHASKA, MN, 55318",635759893,"R"
241580,"540 LASSO LANE","CENTERTON","AR",72719,36.3755626670001,-94.29002293,80,"540 LASSO LANE, CENTERTON, AR, 72719","Match","Exact","540 LASSO LN, CENTERTON, AR, 72719",641983994,"L"
241581,"540 LEONARD ST NW  STE G","GRAND RAPIDS","MI",49504,42.985018245,-85.6818288169999,81,"540 LEONARD ST NW  STE G, GRAND RAPIDS, MI, 49504","Match","Exact","540 LEONARD ST NW, GRAND RAPIDS, MI, 49504",12456544,"L"
241582,"540 MAIN STREET SUITE B1314","ROOSEVELT ISLAND","NY",10044,40.7614477590001,-73.950089713,82,"540 MAIN STREET SUITE B1314, ROOSEVELT ISLAND, NY, 10044","Match","Exact","540 MAIN ST, ROOSEVELT ISLAND, NY, 10044",650067787,"R"
241583,"540 MAPLE AVE","EWING","NJ",8618,40.2462591120001,-74.778153044,83,"540 MAPLE AVE, EWING, NJ, 8618","Match","Exact","540 MAPLE AVE, EWING, NJ, 08618",60176876,"R"
241584,"540 MILL STREET","BELLEVILLE","NJ",7109,40.788836195,-74.171897327,84,"540 MILL STREET, BELLEVILLE, NJ, 7109","Match","Exact","540 MILL ST, BELLEVILLE, NJ, 07109",63454439,"R"
241585,"540 MINNESOTA AVENUE","KANSAS CITY","KS",66101,39.115554129,-94.622506008,85,"540 MINNESOTA AVENUE, KANSAS CITY, KS, 66101","Match","Exact","540 MINNESOTA AVE, KANSAS CITY, KS, 66101",91140998,"R"
241586,"540 MOCKSVILLE HWY","STATESVILLE","NC",28625,35.8085438050001,-80.8129789989999,86,"540 MOCKSVILLE HWY, STATESVILLE, NC, 28625","Match","Exact","540 MOCKSVILLE HWY, STATESVILLE, NC, 28625",619599940,"L"
241587,"540 N BULLARD AVENUE SUITE 15","GOODYEAR","AZ",85338,33.4448544000001,-112.375555454,87,"540 N BULLARD AVENUE SUITE 15, GOODYEAR, AZ, 85338","Match","Non_Exact","540 N BULLARD AVE, GOODYEAR, AZ, 85338",642859561,"L"
241588,"540 N CATALINA AVE  4","PASADENA","CA",91106,34.135298715,-118.12931517,88,"540 N CATALINA AVE  4, PASADENA, CA, 91106","Match","Exact","540 CATALINA AVE, PASADENA, CA, 91106",141630979,"L"
241589,"540 N CENTRAL AVE UNIT 501","GLENDALE","CA",91203,34.153982462,-118.257917611,89,"540 N CENTRAL AVE UNIT 501, GLENDALE, CA, 91203","Match","Non_Exact","540 N CENTRAL AVE, GLENDALE, CA, 91203",241240353,"R"
241590,"540 N COMMERCIAL ST STE 510","HARRISBURG","IL",62946,NA,NA,90,"540 N COMMERCIAL ST STE 510, HARRISBURG, IL, 62946","Tie",NA,NA,NA,NA
241591,"540 N GOLDEN CIRCLE SUITE 214","SANTA ANA","CA",92705,NA,NA,91,"540 N GOLDEN CIRCLE SUITE 214, SANTA ANA, CA, 92705","No_Match",NA,NA,NA,NA
241592,"540 N NEVADA AVE","MONTROSE","CO",81401,38.486530911,-107.87708256,92,"540 N NEVADA AVE, MONTROSE, CO, 81401","Match","Exact","540 N NEVADA AVE, MONTROSE, CO, 81401",122539639,"R"
241593,"540 N STATE STREET APT 5106","CHICAGO","IL",60654,41.8751742370001,-87.627681486,93,"540 N STATE STREET APT 5106, CHICAGO, IL, 60654","Match","Non_Exact","540 STATE ST, CHICAGO, IL, 60605",605015124,"L"
241594,"540 N TAMIAMI TRL STE 701","SARASOTA","FL",34236,27.340631269,-82.5467631389999,94,"540 N TAMIAMI TRL STE 701, SARASOTA, FL, 34236","Match","Non_Exact","540 N TAMIAMI TRL, SARASOTA, FL, 34236",16405101,"R"
241595,"540 N WEST AVENUE","ARLINGTON","WA",98223,48.198515457,-122.128140835,95,"540 N WEST AVENUE, ARLINGTON, WA, 98223","Match","Exact","540 N WEST AVE, ARLINGTON, WA, 98223",187740937,"L"
241596,"540 NEPPERHAN AVENUE - SUITE 544","YONKERS","NY",10701,40.9447593150001,-73.883173281,96,"540 NEPPERHAN AVENUE - SUITE 544, YONKERS, NY, 10701","Match","Exact","540 NEPPERHAN AVE, YONKERS, NY, 10701",139743332,"R"
241597,"540 NEW STREET","FAIRPORT HARBOR","OH",44077,41.7480665260001,-81.2707071789999,97,"540 NEW STREET, FAIRPORT HARBOR, OH, 44077","Match","Exact","540 NEW ST, FAIRPORT HARBOR, OH, 44077",137464718,"R"
241598,"540 NORTH AND SOUTH ROAD   APT303","SAINT LOUIS","MO",63130,NA,NA,98,"540 NORTH AND SOUTH ROAD   APT303, SAINT LOUIS, MO, 63130","No_Match",NA,NA,NA,NA
241599,"540 NORTH CHURCH STREET","MOORESTOWN","NJ",8057,39.967223878,-74.960035712,99,"540 NORTH CHURCH STREET, MOORESTOWN, NJ, 8057","Match","Exact","540 N CHURCH ST, MOORESTOWN, NJ, 08057",134027626,"L"
241600,"540 NW 165TH STREET RD SUITE 110-A","MIAMI","FL",33169,25.923542136,-80.2094096979999,100,"540 NW 165TH STREET RD SUITE 110-A, MIAMI, FL, 33169","Match","Non_Exact","540 NW 165TH ST, MIAMI, FL, 33169",116291370,"R"
241601,"540 NW UNIVERSITY BLVD","PORT SAINT LUCIE","FL",34986,27.321499164,-80.399618123,101,"540 NW UNIVERSITY BLVD, PORT SAINT LUCIE, FL, 34986","Match","Exact","540 NW UNIVERSITY BLVD, PORT ST LUCIE, FL, 34986",638635327,"L"
241602,"540 OBED HEIGHTS ROAD","MORAVIAN FALLS","NC",28654,NA,NA,102,"540 OBED HEIGHTS ROAD, MORAVIAN FALLS, NC, 28654","No_Match",NA,NA,NA,NA
241603,"540 OLD IRON WORKS RD","SPARTANBURG","SC",29302,34.933862349,-81.843365746,103,"540 OLD IRON WORKS RD, SPARTANBURG, SC, 29302","Match","Exact","540 OLD IRON WORKS RD, SPARTANBURG, SC, 29302",19499002,"R"
241604,"540 PARK AVENUE","LOCK HAVEN","PA",17745,41.181961689,-77.365878935,104,"540 PARK AVENUE, LOCK HAVEN, PA, 17745","Match","Exact","540 PARK AVE, LOCK HAVEN, PA, 17745",77168316,"R"
241605,"540 PIPPIN DRIVE","ANTIOCH","TN",37013,36.0588109110001,-86.650447028,105,"540 PIPPIN DRIVE, ANTIOCH, TN, 37013","Match","Exact","540 PIPPIN DR, ANTIOCH, TN, 37013",633861295,"L"
241606,"540 POWELL DRIVE","ANNAPOLIS","MD",21401,39.012785923,-76.547451376,106,"540 POWELL DRIVE, ANNAPOLIS, MD, 21401","Match","Exact","540 POWELL DR, ANNAPOLIS, MD, 21401",68170637,"R"
241607,"540 PRESIDENT STREET","BROOKLYN","NY",11215,40.6773715580001,-73.9850001,107,"540 PRESIDENT STREET, BROOKLYN, NY, 11215","Match","Exact","540 PRESIDENT ST, BROOKLYN, NY, 11215",59075665,"R"
241608,"540 RACHEL COURT","FALLON","NV",89406,39.469253107,-118.788874332,108,"540 RACHEL COURT, FALLON, NV, 89406","Match","Exact","540 RACHEL CT, FALLON, NV, 89406",139960105,"R"
241609,"540 REEF RD","VERO BEACH","FL",32963,27.5920755280001,-80.330737508,109,"540 REEF RD, VERO BEACH, FL, 32963","Match","Exact","540 REEF RD, VERO BEACH, FL, 32963",610923568,"R"
241610,"540 REEF ROAD","VERO BEACH","FL",32963,27.5920755280001,-80.330737508,110,"540 REEF ROAD, VERO BEACH, FL, 32963","Match","Exact","540 REEF RD, VERO BEACH, FL, 32963",610923568,"R"
241611,"540 ROTH RD","PARKERBURG","WV",26104,NA,NA,111,"540 ROTH RD, PARKERBURG, WV, 26104","No_Match",NA,NA,NA,NA
241612,"540 ROUTE 131","ASCUTNEY","VT",5030,NA,NA,112,"540 ROUTE 131, ASCUTNEY, VT, 5030","No_Match",NA,NA,NA,NA
241613,"540 S 11TH ST","NEWARK","NJ",7103,40.734800466,-74.2037437549999,113,"540 S 11TH ST, NEWARK, NJ, 7103","Match","Exact","540 S 11TH ST, NEWARK, NJ, 07103",625109749,"L"
241614,"540 S COLORADO AVENUE","LARAMIE","WY",82070,41.306894443,-105.624714962,114,"540 S COLORADO AVENUE, LARAMIE, WY, 82070","Match","Exact","540 S COLORADO AVE, LARAMIE, WY, 82070",641989069,"R"
241615,"540 S HERCULES AVE","CLEARWATER","FL",33764,27.9593497760001,-82.754390417,115,"540 S HERCULES AVE, CLEARWATER, FL, 33764","Match","Exact","540 S HERCULES AVE, CLEARWATER, FL, 33764",124799001,"R"
241616,"540 S HERCULES AVENUE","CLEARWATER","FL",33764,27.9593497760001,-82.754390417,116,"540 S HERCULES AVENUE, CLEARWATER, FL, 33764","Match","Exact","540 S HERCULES AVE, CLEARWATER, FL, 33764",124799001,"R"
241617,"540 S WEST ROAD UNIT 22","WICKENBURG","AZ",85390,33.9592527080001,-112.769778347,117,"540 S WEST ROAD UNIT 22, WICKENBURG, AZ, 85390","Match","Non_Exact","540 S WEST RD, WICKENBURG, AZ, 85390",642852864,"L"
241618,"540 S WILKINSON STREET","MILLEDGEVILLE","GA",31061,33.0871586420001,-83.230565059,118,"540 S WILKINSON STREET, MILLEDGEVILLE, GA, 31061","Match","Non_Exact","540 N WILKINSON ST, MILLEDGEVILLE, GA, 31061",16589852,"L"
241619,"540 SABAL LAKE DR APT 102","LONGWOOD","FL",32779,28.701436325,-81.413350399,119,"540 SABAL LAKE DR APT 102, LONGWOOD, FL, 32779","Match","Exact","540 SABAL LAKE DR, LONGWOOD, FL, 32779",605428976,"R"
241620,"540 SAINT JOHNS PLACE APT 3B","BROOKLYN","NY",11238,40.672992553,-73.960109415,120,"540 SAINT JOHNS PLACE APT 3B, BROOKLYN, NY, 11238","Match","Exact","540 ST JOHNS PL, BROOKLYN, NY, 11238",59078461,"R"
241621,"540 SECRETARIAT COURT","RENO","NV",89521,39.4019785420001,-119.735896687,121,"540 SECRETARIAT COURT, RENO, NV, 89521","Match","Exact","540 SECRETARIAT CT, RENO, NV, 89521",107121073,"R"
241622,"540 SHADOW VIEW DR E","HERNANDO","MS",38632,34.851556784,-90.00029303,122,"540 SHADOW VIEW DR E, HERNANDO, MS, 38632","Match","Non_Exact","540 SHADOW VIEW DR, HERNANDO, MS, 38632",91852823,"L"
241623,"540 SHAMROCK LANE","RENO","NV",89509,39.514425192,-119.8457365,123,"540 SHAMROCK LANE, RENO, NV, 89509","Match","Exact","540 SHAMROCK LN, RENO, NV, 89509",107044153,"L"
241624,"540 SHELBY STREET","MONTEVALLO","AL",35115,33.0984600640001,-86.862814347,124,"540 SHELBY STREET, MONTEVALLO, AL, 35115","Match","Exact","540 SHELBY ST, MONTEVALLO, AL, 35115",82061408,"R"
241625,"540 SKYLARK DRIVE","OKLAHOMA CITY","OK",73127,35.4723549220001,-97.6504588,125,"540 SKYLARK DRIVE, OKLAHOMA CITY, OK, 73127","Match","Exact","540 SKYLARK DR, OKLAHOMA CITY, OK, 73127",100389794,"R"
241626,"540 SPRINGSIDE LN","BUFFALO GROVE","IL",60089,42.1625333910001,-87.973373926,126,"540 SPRINGSIDE LN, BUFFALO GROVE, IL, 60089","Match","Exact","540 SPRINGSIDE LN, BUFFALO GROVE, IL, 60089",119649418,"R"
241627,"540 SPRUCE ST","LAKEWOOD","NJ",8701,NA,NA,127,"540 SPRUCE ST, LAKEWOOD, NJ, 8701","No_Match",NA,NA,NA,NA
241628,"540 STEARNS LN","OAKLAND","OR",97462,43.418415915,-123.303905462,128,"540 STEARNS LN, OAKLAND, OR, 97462","Match","Exact","540 STEARNS LN, OAKLAND, OR, 97462",627133076,"R"
241629,"540 THOMAS AVE","HOHENWALD","TN",38462,35.5551238780001,-87.560912598,129,"540 THOMAS AVE, HOHENWALD, TN, 38462","Match","Exact","540 THOMAS AVE, HOHENWALD, TN, 38462",26748842,"L"
241630,"540 THOMPSON ST 4042","ANN ARBOR","MI",48104,42.2754763200001,-83.7431775169999,130,"540 THOMPSON ST 4042, ANN ARBOR, MI, 48104","Match","Exact","540 THOMPSON ST, ANN ARBOR, MI, 48104",26042285,"R"
241631,"540 TRINITY LN N UNIT 8116","ST PETERSBURG","FL",33716,27.8835204270001,-82.6597380219999,131,"540 TRINITY LN N UNIT 8116, ST PETERSBURG, FL, 33716","Match","Non_Exact","540 TRINITY LN, SAINT PETERSBURG, FL, 33716",124797008,"L"
241632,"540 TUNXIS HILL RD","FAIRFIELD","CT",6825,41.177666813,-73.2327821929999,132,"540 TUNXIS HILL RD, FAIRFIELD, CT, 6825","Match","Exact","540 TUNXIS HILL RD, FAIRFIELD, CT, 06825",3221491,"R"
241633,"540 TURQUOISE ST","NEW ORLEANS","LA",70124,30.021386928,-90.109261499,133,"540 TURQUOISE ST, NEW ORLEANS, LA, 70124","Match","Exact","540 TURQUOISE ST, NEW ORLEANS, LA, 70124",191702745,"R"
241634,"540 VINEYARD WAY","DOYLESTOWN","OH",44230,40.9629084760001,-81.686600093,134,"540 VINEYARD WAY, DOYLESTOWN, OH, 44230","Match","Exact","540 VINEYARD WAY, DOYLESTOWN, OH, 44230",58742118,"R"
241635,"540 W 18TH STREET","CHICAGO","IL",60616,41.85764586,-87.640669127,135,"540 W 18TH STREET, CHICAGO, IL, 60616","Match","Exact","540 W 18TH ST, CHICAGO, IL, 60616",111827789,"R"
241636,"540 W ALDINE APT G","CHICAGO","IL",60657,NA,NA,136,"540 W ALDINE APT G, CHICAGO, IL, 60657","No_Match",NA,NA,NA,NA
241637,"540 W MADISON ST","PLATTEVILLE","WI",53818,42.740389931,-90.483434702,137,"540 W MADISON ST, PLATTEVILLE, WI, 53818","Match","Exact","540 W MADISON ST, PLATTEVILLE, WI, 53818",32755078,"L"
241638,"540 W MADISON","PLATTEVILLE","WI",53818,42.740389931,-90.483434702,138,"540 W MADISON, PLATTEVILLE, WI, 53818","Match","Non_Exact","540 W MADISON ST, PLATTEVILLE, WI, 53818",32755078,"L"
241639,"540 W NORTH STREET","CARLISLE","PA",17013,40.205607102,-77.201502149,139,"540 W NORTH STREET, CARLISLE, PA, 17013","Match","Exact","540 W NORTH ST, CARLISLE, PA, 17013",60983161,"L"
241640,"540 W OLIN AVE APT 219","MADISON","WI",53715,43.053965787,-89.390402975,140,"540 W OLIN AVE APT 219, MADISON, WI, 53715","Match","Non_Exact","540 W OLIN AVE, MADISON, WI, 53715",49473396,"R"
241641,"540 W THIRD ST","LEXINGTON","KY",40508,38.0563281280001,-84.500123074,141,"540 W THIRD ST, LEXINGTON, KY, 40508","Match","Exact","540 W 3RD ST, LEXINGTON, KY, 40508",31921493,"L"
241642,"540 WAR ADMIRAL COURT","CARY","NC",27519,35.824137304,-78.913359503,142,"540 WAR ADMIRAL COURT, CARY, NC, 27519","Match","Exact","540 WAR ADMIRAL CT, CARY, NC, 27519",635308789,"L"
241643,"540 WEST MAIN STREER","ROCHESTER","NY",14608,NA,NA,143,"540 WEST MAIN STREER, ROCHESTER, NY, 14608","No_Match",NA,NA,NA,NA
241644,"540 WEST MAIN STREET","ROCHESTER","NY",14608,NA,NA,144,"540 WEST MAIN STREET, ROCHESTER, NY, 14608","No_Match",NA,NA,NA,NA
241645,"540 WESTLAKE DRIVE","WEST SACRAMENTO","CA",95605,38.5979874490001,-121.525585367,145,"540 WESTLAKE DRIVE, WEST SACRAMENTO, CA, 95605","Match","Exact","540 WESTLAKE DR, WEST SACRAMENTO, CA, 95605",67704925,"R"
241646,"540 WOODLAND DR","PRINCETON","IL",61356,41.3627836840001,-89.474381111,146,"540 WOODLAND DR, PRINCETON, IL, 61356","Match","Exact","540 WOODLAND DR, PRINCETON, IL, 61356",648932146,"L"
241647,"540-28TH STREET","RICHMOND","CA",94804,NA,NA,147,"540-28TH STREET, RICHMOND, CA, 94804","No_Match",NA,NA,NA,NA
241648,"540","FORT WASHINGTON","PA",19034,NA,NA,148,"540, FORT WASHINGTON, PA, 19034","No_Match",NA,NA,NA,NA
241649,"540","HUNTSVILLE","TX",77340,NA,NA,149,"540, HUNTSVILLE, TX, 77340","No_Match",NA,NA,NA,NA
241650,"5400 AMANDAS OAK COURT","CINCINNATI","OH",45248,39.192651504,-84.66921715,150,"5400 AMANDAS OAK COURT, CINCINNATI, OH, 45248","Match","Exact","5400 AMANDAS OAK CT, CINCINNATI, OH, 45248",103978382,"R"
241651,"5400 BERNARD DRIVE E308","ROANOKE","VA",24018,37.225632042,-79.988134013,151,"5400 BERNARD DRIVE E308, ROANOKE, VA, 24018","Match","Non_Exact","5400 BERNARD DR SW, ROANOKE, VA, 24018",62933908,"L"
241652,"5400 BITTERSWEET RD","WAUSAU","WI",54401,NA,NA,152,"5400 BITTERSWEET RD, WAUSAU, WI, 54401","No_Match",NA,NA,NA,NA
241653,"5400 CHENONCEAU BLVD APT 922","LITTLE ROCK","AR",72223,34.8039715300001,-92.471773881,153,"5400 CHENONCEAU BLVD APT 922, LITTLE ROCK, AR, 72223","Match","Exact","5400 CHENONCEAU BLVD, LITTLE ROCK, AR, 72223",83554310,"R"
241654,"5400 COCHRAN STREET","SIMI VALLEY","CA",93063,34.2789973000001,-118.686901551,154,"5400 COCHRAN STREET, SIMI VALLEY, CA, 93063","Match","Exact","5400 COCHRAN ST, SIMI VALLEY, CA, 93063",651148076,"R"
241655,"5400 COUNTRY CLUB DRIVE","ROHNERT PARK","CA",94928,38.358751017,-122.693884024,155,"5400 COUNTRY CLUB DRIVE, ROHNERT PARK, CA, 94928","Match","Exact","5400 COUNTRY CLUB DR, ROHNERT PARK, CA, 94928",605023823,"R"
241656,"5400 DONIPHAN DR","NEOSHO","MO",64850,NA,NA,156,"5400 DONIPHAN DR, NEOSHO, MO, 64850","No_Match",NA,NA,NA,NA
241657,"5400 DOUGLAS RD","IDA","MI",48140,41.8681631260001,-83.610541353,157,"5400 DOUGLAS RD, IDA, MI, 48140","Match","Exact","5400 DOUGLAS RD, IDA, MI, 48140",40482778,"R"
241658,"5400 E 21ST ST N STE 707","WICHITA","KS",67208,37.722982755,-97.271599357,158,"5400 E 21ST ST N STE 707, WICHITA, KS, 67208","Match","Non_Exact","5400 E 21ST ST N, WICHITA, KS, 67208",115639124,"L"
241659,"5400 E CANTON ST","LONG BEACH","CA",90815,33.8096492880001,-118.128283747,159,"5400 E CANTON ST, LONG BEACH, CA, 90815","Match","Exact","5400 E CANTON ST, LONG BEACH, CA, 90815",141700935,"R"
241660,"5400 E CAREY AVE","LAS VEGAS","NV",89156,36.203552641,-115.055142151,160,"5400 E CAREY AVE, LAS VEGAS, NV, 89156","Match","Exact","5400 E CAREY AVE, LAS VEGAS, NV, 89156",201874324,"L"
241661,"5400 E WILLIAMS BLVD APT 8204","TUCSON","AZ",85711,32.2169579540001,-110.876344437,161,"5400 E WILLIAMS BLVD APT 8204, TUCSON, AZ, 85711","Match","Non_Exact","5400 E WILLIAMS BLVD, TUCSON, AZ, 85711",121383405,"L"
241662,"5400 EAST AVENUE","COUNTRYSIDE","IL",60525,41.793309541,-87.859001158,162,"5400 EAST AVENUE, COUNTRYSIDE, IL, 60525","Match","Exact","5400 EAST AVE, COUNTRYSIDE, IL, 60525",605001041,"R"
241663,"5400 EIELSON","ANCHORAGE","AK",99518,61.1719270310001,-149.906230103,163,"5400 EIELSON, ANCHORAGE, AK, 99518","Match","Non_Exact","5400 EIELSON ST, ANCHORAGE, AK, 99518",190798008,"R"
241664,"5400 EISENHOWER AVE","GREAT BEND","KS",67530,38.3654844050001,-98.805712033,164,"5400 EISENHOWER AVE, GREAT BEND, KS, 67530","Match","Exact","5400 EISENHOWER AVE, GREAT BEND, KS, 67530",132558966,"R"
241665,"5400 FLORIDA AVE","BETHEL PARK","PA",15102,40.32470348,-80.031177628,165,"5400 FLORIDA AVE, BETHEL PARK, PA, 15102","Match","Exact","5400 FLORIDA AVE, BETHEL PARK, PA, 15102",51657394,"R"
241666,"5400 GLENRIDGE DRIVE UNIT  420156","ATLANTA","GA",30342,NA,NA,166,"5400 GLENRIDGE DRIVE UNIT  420156, ATLANTA, GA, 30342","Tie",NA,NA,NA,NA
241667,"5400 GUION ROAD","INDIANAPOLIS","IN",46254,39.848702287,-86.232774595,167,"5400 GUION ROAD, INDIANAPOLIS, IN, 46254","Match","Exact","5400 GUION RD, INDIANAPOLIS, IN, 46254",108043449,"L"
241668,"5400 HENSON DR","TEMPLE HILLS","MD",20748,NA,NA,168,"5400 HENSON DR, TEMPLE HILLS, MD, 20748","No_Match",NA,NA,NA,NA
241669,"5400 JEFFBURN COVE","AUSTIN","TX",78745,NA,NA,169,"5400 JEFFBURN COVE, AUSTIN, TX, 78745","No_Match",NA,NA,NA,NA
241670,"5400 JOHNSON DRIVE -194","MISSION","KS",66205,39.0227110820001,-94.647620264,170,"5400 JOHNSON DRIVE -194, MISSION, KS, 66205","Match","Exact","5400 JOHNSON DR, MISSION, KS, 66205",91338341,"R"
241671,"5400 JOHNSON STREET","HOLLYWOOD","FL",33021,26.0178428500001,-80.198382765,171,"5400 JOHNSON STREET, HOLLYWOOD, FL, 33021","Match","Exact","5400 JOHNSON ST, HOLLYWOOD, FL, 33021",114717275,"L"
241672,"5400 KERWOOD OAKS DR","CORAL GABLES","FL",33156,25.68287667,-80.281187565,172,"5400 KERWOOD OAKS DR, CORAL GABLES, FL, 33156","Match","Exact","5400 KERWOOD OAKS DR, CORAL GABLES, FL, 33156",115985793,"L"
241673,"5400 LANSDOWNE AVENUE - APT G2","PHILADELPHIA","PA",19131,39.9770577560001,-75.229935078,173,"5400 LANSDOWNE AVENUE - APT G2, PHILADELPHIA, PA, 19131","Match","Exact","5400 LANSDOWNE AVE, PHILADELPHIA, PA, 19131",131398123,"L"
241674,"5400 LARCH LANE","GAINESVILLE","GA",30506,34.303341561,-83.949043278,174,"5400 LARCH LANE, GAINESVILLE, GA, 30506","Match","Exact","5400 LARCH LN, GAINESVILLE, GA, 30506",636522523,"R"
241675,"5400 LAUREL SPRINGS PARKWAY SUITE 7","SUWANEE","GA",30024,NA,NA,175,"5400 LAUREL SPRINGS PARKWAY SUITE 7, SUWANEE, GA, 30024","No_Match",NA,NA,NA,NA
241676,"5400 LAWN AVE","WESTERN SPRINGS","IL",60558,41.7914706700001,-87.899467294,176,"5400 LAWN AVE, WESTERN SPRINGS, IL, 60558","Match","Exact","5400 LAWN AVE, WESTERN SPRINGS, IL, 60558",111789513,"R"
241677,"5400 LAWRENCEVILLE HWY SUITE E2","LILBURN","GA",30047,33.8851235320001,-84.1595536839999,177,"5400 LAWRENCEVILLE HWY SUITE E2, LILBURN, GA, 30047","Match","Exact","5400 LAWRENCEVILLE HWY, LILBURN, GA, 30047",642535338,"L"
241678,"5400 LEAR NAGLE ROAD","NORTH RIDGEVILLE","OH",44039,41.411183765,-81.9896246549999,178,"5400 LEAR NAGLE ROAD, NORTH RIDGEVILLE, OH, 44039","Match","Exact","5400 LEAR NAGLE RD, N RIDGEVILLE, OH, 44039",55415155,"R"
241679,"5400 MALL DRIVE WEST 3145","LANSING","MI",48917,42.7453981730001,-84.626431952,179,"5400 MALL DRIVE WEST 3145, LANSING, MI, 48917","Match","Exact","5400 MALL DR W, LANSING, MI, 48917",12034868,"R"
241680,"5400 N HELENA ST","SPOKANE","WA",99207,47.706558623,-117.38728321,180,"5400 N HELENA ST, SPOKANE, WA, 99207","Match","Exact","5400 N HELENA ST, SPOKANE, WA, 99207",605643653,"R"
241681,"5400 NEWPORT DRIVE SUITE 9","ROLLING MEADOWS","IL",60008,42.0573019870001,-88.01715209,181,"5400 NEWPORT DRIVE SUITE 9, ROLLING MEADOWS, IL, 60008","Match","Exact","5400 NEWPORT DR, ROLLING MDWS, IL, 60008",605600567,"L"
241682,"5400 NORTH BRUMMETTS CREEK RD","BLOOMINGTON","IN",47408,39.226306879,-86.416497668,182,"5400 NORTH BRUMMETTS CREEK RD, BLOOMINGTON, IN, 47408","Match","Exact","5400 N BRUMMETTS CREEK RD, BLOOMINGTON, IN, 47408",42326481,"R"
241683,"5400 OAK CHASE DRIVE","ANTIOCH","TN",37013,36.0330805420001,-86.674677898,183,"5400 OAK CHASE DRIVE, ANTIOCH, TN, 37013","Match","Exact","5400 OAK CHASE DR, ANTIOCH, TN, 37013",617930949,"R"
241684,"5400 OLD MILL ROAD","FORT WAYNE","IN",46807,41.033237468,-85.149651824,184,"5400 OLD MILL ROAD, FORT WAYNE, IN, 46807","Match","Exact","5400 OLD MILL RD, FORT WAYNE, IN, 46807",6381857,"R"
241685,"5400 OLD SLIGO RD","LAGRANGE","KY",40031,38.4697301360001,-85.3422019559999,185,"5400 OLD SLIGO RD, LAGRANGE, KY, 40031","Match","Exact","5400 OLD SLIGO RD, LAGRANGE, KY, 40031",130927734,"L"
241686,"5400 OLD TAYLOR MILL ROAD","TAYLOR MILL","KY",41015,NA,NA,186,"5400 OLD TAYLOR MILL ROAD, TAYLOR MILL, KY, 41015","Tie",NA,NA,NA,NA
241687,"5400 OPPORTUNITY CT SUITE 150","MINNETONKA","MN",55343,44.9043555040001,-93.40416506,187,"5400 OPPORTUNITY CT SUITE 150, MINNETONKA, MN, 55343","Match","Exact","5400 OPPORTUNITY CT, MINNETONKA, MN, 55343",43674976,"R"
241688,"5400 ORCHARD GROVE LANE","MIDLOTHIAN","VA",23112,37.425104649,-77.684943558,188,"5400 ORCHARD GROVE LANE, MIDLOTHIAN, VA, 23112","Match","Exact","5400 ORCHARD GROVE LN, MIDLOTHIAN, VA, 23112",201562863,"L"
241689,"5400 ORCHARD PARK COURT APT 538","GLEN ALLEN","VA",23059,37.683866618,-77.5918060929999,189,"5400 ORCHARD PARK COURT APT 538, GLEN ALLEN, VA, 23059","Match","Exact","5400 ORCHARD PARK CT, GLEN ALLEN, VA, 23059",106670449,"R"
241690,"5400 PARKER HENDERSON LOT 125","FORT WORTH","TX",76119,32.6796857790001,-97.25552251,190,"5400 PARKER HENDERSON LOT 125, FORT WORTH, TX, 76119","Match","Non_Exact","5400 PARKER HENDERSON RD, FORT WORTH, TX, 76119",636189477,"R"
241691,"5400 POPLAR AVE SUITE 200","MEMPHIS","TN",38119,35.1068473830001,-89.881671195,191,"5400 POPLAR AVE SUITE 200, MEMPHIS, TN, 38119","Match","Exact","5400 POPLAR AVE, MEMPHIS, TN, 38119",72926759,"L"
241692,"5400 S BURLINGTON DRIVE","MUNCIE","IN",47302,40.1439607340001,-85.332115131,192,"5400 S BURLINGTON DRIVE, MUNCIE, IN, 47302","Match","Exact","5400 S BURLINGTON DR, MUNCIE, IN, 47302",30839409,"R"
241693,"5400 S HYDE PARK BLVD SUITE B14","CHICAGO","IL",60615,41.798027339,-87.584021879,193,"5400 S HYDE PARK BLVD SUITE B14, CHICAGO, IL, 60615","Match","Non_Exact","5400 S HYDE PARK BLVD, CHICAGO, IL, 60615",637904393,"R"
241694,"5400 S UNIVERSITY DR SUITE 203","DAVIE","FL",33328,26.053719459,-80.251794818,194,"5400 S UNIVERSITY DR SUITE 203, DAVIE, FL, 33328","Match","Non_Exact","5400 S UNIVERSITY DR, DAVIE, FL, 33328",640909961,"L"
241695,"5400 S YOSEMITE ST","GREENWOOD VILLAGE","CO",80111,39.619515216,-104.885328697,195,"5400 S YOSEMITE ST, GREENWOOD VILLAGE, CO, 80111","Match","Exact","5400 S YOSEMITE ST, GREENWOOD VILLAGE, CO, 80111",642878660,"L"
241696,"5400 SHAWNEE RD SUITE 300","ALEXANDRIA","VA",22312,38.8067435040001,-77.166675931,196,"5400 SHAWNEE RD SUITE 300, ALEXANDRIA, VA, 22312","Match","Exact","5400 SHAWNEE RD, ALEXANDRIA, VA, 22312",76045318,"R"
241697,"5400 SOLAR PLACE","GREENSBORO","NC",27406,35.9734738870001,-79.801721427,197,"5400 SOLAR PLACE, GREENSBORO, NC, 27406","Match","Exact","5400 SOLAR PL, GREENSBORO, NC, 27406",131081479,"L"
241698,"5400 SOUTH GARY STREET","FORT SMITH","AR",72903,35.348861701,-94.372703797,198,"5400 SOUTH GARY STREET, FORT SMITH, AR, 72903","Match","Non_Exact","5400 GARY ST, FORT SMITH, AR, 72903",56104791,"R"
241699,"5400 SOUTH ST LOUIS AVENUE","CHICAGO","IL",60632,41.795194447,-87.710954417,199,"5400 SOUTH ST LOUIS AVENUE, CHICAGO, IL, 60632","Match","Non_Exact","5400 S ST LOUIS AVE, CHICAGO, IL, 60629",604983404,"R"
241700,"5400 SUN VALLEY","EL PASO","TX",79924,31.910662379,-106.416246614,200,"5400 SUN VALLEY, EL PASO, TX, 79924","Match","Non_Exact","5400 SUN VALLEY DR, EL PASO, TX, 79924",189338376,"R"
241701,"5400 TRABUCO RD STE 110","IRVINE","CA",92620,NA,NA,201,"5400 TRABUCO RD STE 110, IRVINE, CA, 92620","No_Match",NA,NA,NA,NA
241702,"5400 TRABUCO ROAD SUITE 120","IRVINE","CA",92620,NA,NA,202,"5400 TRABUCO ROAD SUITE 120, IRVINE, CA, 92620","No_Match",NA,NA,NA,NA
241703,"5400 VALE DR","DENVER","CO",80246,39.6997939290001,-104.924949668,203,"5400 VALE DR, DENVER, CO, 80246","Match","Exact","5400 VALE DR, DENVER, CO, 80246",177340090,"R"
241704,"5400 W CIVIC CENTER DR  SUITE 2","HIGHLAND","UT",84003,40.428543947,-111.789658421,204,"5400 W CIVIC CENTER DR  SUITE 2, HIGHLAND, UT, 84003","Match","Exact","5400 CIVIC CENTER DR, HIGHLAND, UT, 84003",645691736,"R"
241705,"5400 WARD ROAD V170","ARVADA","CO",80002,39.795839841,-105.137971424,205,"5400 WARD ROAD V170, ARVADA, CO, 80002","Match","Exact","5400 WARD RD, ARVADA, CO, 80002",177761726,"R"
241706,"5400 WEST NORFOLK RD","PORTSMOUTH","VA",23703,36.865743659,-76.382759073,206,"5400 WEST NORFOLK RD, PORTSMOUTH, VA, 23703","Match","Exact","5400 W NORFOLK RD, PORTSMOUTH, VA, 23703",122190565,"R"
241707,"5400 ZIEGLER ROAD","FORT COLLINS","CO",80528,40.513094618,-105.019956488,207,"5400 ZIEGLER ROAD, FORT COLLINS, CO, 80528","Match","Exact","5400 ZIEGLER RD, FORT COLLINS, CO, 80528",653326311,"L"
241708,"5401 - 5407 LANSDOWNE AVE","SAINT LOUIS","MO",63109,NA,NA,208,"5401 - 5407 LANSDOWNE AVE, SAINT LOUIS, MO, 63109","No_Match",NA,NA,NA,NA
241709,"5401 68TH WAY NORTH UNIT 1104","KENNETH CITY","FL",33709,27.821711405,-82.733035526,209,"5401 68TH WAY NORTH UNIT 1104, KENNETH CITY, FL, 33709","Match","Exact","5401 68TH WAY N, KENNETH CITY, FL, 33709",124794225,"R"
241710,"5401 92ND ST","LUBBOCK","TX",79424,33.5101785700001,-101.928274871,210,"5401 92ND ST, LUBBOCK, TX, 79424","Match","Exact","5401 92ND ST, LUBBOCK, TX, 79424",185252510,"R"
241711,"5401 ADAMSTOWN COMMONS DRIVE","ADAMSTOWN","MD",21710,NA,NA,211,"5401 ADAMSTOWN COMMONS DRIVE, ADAMSTOWN, MD, 21710","No_Match",NA,NA,NA,NA
241712,"5401 BROADWATER LANE","CLARKSVILLE","MD",21029,39.224752847,-76.9709044529999,212,"5401 BROADWATER LANE, CLARKSVILLE, MD, 21029","Match","Exact","5401 BROADWATER LN, CLARKSVILLE, MD, 21029",158944892,"L"
241713,"5401 CABALLO COURT NE","RIO RANCHO","NM",87144,35.3492367210001,-106.608164218,213,"5401 CABALLO COURT NE, RIO RANCHO, NM, 87144","Match","Exact","5401 CABALLO CT NE, RIO RANCHO, NM, 87144",611357693,"L"
241714,"5401 CHIMENY ROCK RD APT 650","HOUSTON","TX",77081,29.7243941720001,-95.476509887,214,"5401 CHIMENY ROCK RD APT 650, HOUSTON, TX, 77081","Match","Non_Exact","5401 CHIMNEY ROCK RD, HOUSTON, TX, 77081",96614838,"L"
241715,"5401 CHIMNEY ROCK RD APT 534","HOUSTON","TX",77081,29.7243941720001,-95.476509887,215,"5401 CHIMNEY ROCK RD APT 534, HOUSTON, TX, 77081","Match","Exact","5401 CHIMNEY ROCK RD, HOUSTON, TX, 77081",96614838,"L"
241716,"5401 DURHAM DRIVE","NEW ORLEANS","LA",70131,29.9201272190001,-89.997468585,216,"5401 DURHAM DRIVE, NEW ORLEANS, LA, 70131","Match","Exact","5401 DURHAM DR, NEW ORLEANS, LA, 70131",191740390,"R"
241717,"5401 E SAPPHIRE LANE","PARADISE VALLEY","AZ",85253,33.5594080390001,-111.964232612,217,"5401 E SAPPHIRE LANE, PARADISE VALLEY, AZ, 85253","Match","Exact","5401 E SAPPHIRE LN, PARADISE VALLEY, AZ, 85253",128220978,"R"
241718,"5401 EASTERN AVENUE","BALTIMORE","MD",21224,39.28723591,-76.550203349,218,"5401 EASTERN AVENUE, BALTIMORE, MD, 21224","Match","Exact","5401 EASTERN AVE, BALTIMORE, MD, 21224",640557068,"R"
241719,"5401 FARM TO MARKET 1626 S170 P177","KYLE","TX",78640,NA,NA,219,"5401 FARM TO MARKET 1626 S170 P177, KYLE, TX, 78640","No_Match",NA,NA,NA,NA
241720,"5401 FRANKFORD AVENUE","BALTIMORE","MD",21206,39.324298621,-76.5408395599999,220,"5401 FRANKFORD AVENUE, BALTIMORE, MD, 21206","Match","Exact","5401 FRANKFORD AVE, BALTIMORE, MD, 21206",640160732,"R"
241721,"5401 GARDEN GTWY RD","VALPARAISO","IN",46383,41.5170383500001,-87.054042053,221,"5401 GARDEN GTWY RD, VALPARAISO, IN, 46383","Match","Exact","5401 GARDEN GATEWAY, VALPARAISO, IN, 46383",119928981,"L"
241722,"5401 HAMILTON AVENUE","CLEVELAND","OH",44114,41.5220045030001,-81.654953905,222,"5401 HAMILTON AVENUE, CLEVELAND, OH, 44114","Match","Exact","5401 HAMILTON AVE, CLEVELAND, OH, 44114",61112609,"L"
241723,"5401 HANCOCK ROAD","SOUTHWEST RANCHES","FL",33330,26.0520259690001,-80.3378296289999,223,"5401 HANCOCK ROAD, SOUTHWEST RANCHES, FL, 33330","Match","Exact","5401 HANCOCK RD, SOUTHWEST RANCHES, FL, 33330",114699125,"R"
241724,"5401 HERITAGE AVE","COLLEYVILLE","TX",76034,32.8875271380001,-97.105476241,224,"5401 HERITAGE AVE, COLLEYVILLE, TX, 76034","Match","Exact","5401 HERITAGE AVE, COLLEYVILLE, TX, 76034",102144520,"R"
241725,"5401 HIGHLIGHT PL","LOS ANGELES","CA",90016,34.0233133310001,-118.363550066,225,"5401 HIGHLIGHT PL, LOS ANGELES, CA, 90016","Match","Exact","5401 HIGHLIGHT PL, LOS ANGELES, CA, 90016",141600934,"R"
241726,"5401 INDEPENDENCE APT 1105","PLANO","TX",75023,33.0532199310001,-96.750794957,226,"5401 INDEPENDENCE APT 1105, PLANO, TX, 75023","Match","Non_Exact","5401 INDEPENDENCE PKWY, PLANO, TX, 75023",123486216,"L"
241727,"5401 KNOLL RD","COLUMBIA","SC",29203,34.054171474,-81.036273695,227,"5401 KNOLL RD, COLUMBIA, SC, 29203","Match","Exact","5401 KNOLL RD, COLUMBIA, SC, 29203",71818838,"L"
241728,"5401 LINCOLNSHIRE PLACE","GLEN ALLEN","VA",23059,37.6842165080001,-77.600122803,228,"5401 LINCOLNSHIRE PLACE, GLEN ALLEN, VA, 23059","Match","Exact","5401 LINCOLNSHIRE PL, GLEN ALLEN, VA, 23059",106672790,"L"
241729,"5401 LOCH RAVEN BLVD","BALTIMORE","MD",21239,39.35563813,-76.5895695579999,229,"5401 LOCH RAVEN BLVD, BALTIMORE, MD, 21239","Match","Exact","5401 LOCH RAVEN BLVD, BALTIMORE, MD, 21239",206409632,"R"
241730,"5401 LOCHDALE DRIVE","ORLANDO","FL",32818,28.611318698,-81.486457289,230,"5401 LOCHDALE DRIVE, ORLANDO, FL, 32818","Match","Exact","5401 LOCHDALE DR, ORLANDO, FL, 32818",631810640,"R"
241731,"5401 MEETINGHOUSE VILLAGE","MERIDEN","CT",6450,NA,NA,231,"5401 MEETINGHOUSE VILLAGE, MERIDEN, CT, 6450","No_Match",NA,NA,NA,NA
241732,"5401 N COMMERCIAL ST","RUSTON","WA",98407,47.2967175140001,-122.509872539,232,"5401 N COMMERCIAL ST, RUSTON, WA, 98407","Match","Exact","5401 N COMMERCIAL ST, RUSTON, WA, 98407",647952115,"R"
241733,"5401 N HAVERHILL ROAD STUDIO 119","WEST PALM BEACH","FL",33407,26.7538391320001,-80.117401044,233,"5401 N HAVERHILL ROAD STUDIO 119, WEST PALM BEACH, FL, 33407","Match","Exact","5401 HAVERHILL RD, WEST PALM BEACH, FL, 33407",618464658,"L"
241734,"5401 N ORMONDO WAY","LITCHFIELD PARK","AZ",85340,33.5130012060001,-112.328956456,234,"5401 N ORMONDO WAY, LITCHFIELD PARK, AZ, 85340","Match","Exact","5401 N ORMONDO WAY, LITCHFIELD PARK, AZ, 85340",128858004,"R"
241735,"5401 N PORTLAND AVENUE SUITE 206","OKLAHOMA  CITY","OK",73112,35.525284438,-97.583442052,235,"5401 N PORTLAND AVENUE SUITE 206, OKLAHOMA  CITY, OK, 73112","Match","Non_Exact","5401 N PORTLAND AVE, OKLAHOMA CITY, OK, 73112",637606061,"L"
241736,"5401 N UNIVERSITY DRIVE 104","CORAL SPRINGS","FL",33067,26.295874627,-80.249422908,236,"5401 N UNIVERSITY DRIVE 104, CORAL SPRINGS, FL, 33067","Match","Non_Exact","5401 N UNIVERSITY DR, CORAL SPRINGS, FL, 33067",616391610,"L"
241737,"5401 NAAMAN FOREST BLVD APT 437","GARLAND","TX",75044,32.9614275710001,-96.647603854,237,"5401 NAAMAN FOREST BLVD APT 437, GARLAND, TX, 75044","Match","Exact","5401 NAAMAN FOREST BLVD, GARLAND, TX, 75044",103254586,"L"
241738,"5401 NW 40TH ST","OKLAHOMA CITY","OK",73122,35.512605578,-97.610224568,238,"5401 NW 40TH ST, OKLAHOMA CITY, OK, 73122","Match","Exact","5401 NW 40TH ST, OKLAHOMA CITY, OK, 73122",100390902,"R"
241739,"5401 NW WALNUT STREET","VANCOUVER","WA",98663,45.661656232,-122.687865165,239,"5401 NW WALNUT STREET, VANCOUVER, WA, 98663","Match","Exact","5401 NW WALNUT ST, VANCOUVER, WA, 98663",158321497,"R"
241740,"5401 PATTON DR STE 102","LISLE","IL",60532,41.7871204940001,-88.081184387,240,"5401 PATTON DR STE 102, LISLE, IL, 60532","Match","Exact","5401 PATTON DR, LISLE, IL, 60532",112568195,"R"
241741,"5401 PINE VALLEY DR","PLEASANT HILL","IA",50327,41.5853142830001,-93.507337344,241,"5401 PINE VALLEY DR, PLEASANT HILL, IA, 50327","Match","Exact","5401 PINE VALLEY DR, PLEASANT HILL, IA, 50327",653861108,"R"
241742,"5401 QUAIL RIDGE CT","LINCOLN","NE",68516,40.7608373050001,-96.645881488,242,"5401 QUAIL RIDGE CT, LINCOLN, NE, 68516","Match","Exact","5401 QUAIL RIDGE CT, LINCOLN, NE, 68516",28283494,"L"
241743,"5401 RAMPART STREET 511","HOUSTON","TX",77081,29.72333359,-95.4890194549999,243,"5401 RAMPART STREET 511, HOUSTON, TX, 77081","Match","Exact","5401 RAMPART ST, HOUSTON, TX, 77081",642146657,"L"
241744,"5401 ROGERS AVENUE 2ND FLOOR","FORT SMITH","AR",72903,35.362806796,-94.3727044,244,"5401 ROGERS AVENUE 2ND FLOOR, FORT SMITH, AR, 72903","Match","Exact","5401 ROGERS AVE, FORT SMITH, AR, 72903",56104623,"L"
241745,"5401 RUBY DR","FAIRFAX","VA",22030,38.830078029,-77.3724403909999,245,"5401 RUBY DR, FAIRFAX, VA, 22030","Match","Exact","5401 RUBY DR, FAIRFAX, VA, 22030",75965383,"L"
241746,"5401 S 7TH ST","PHOENIX","AZ",85040,33.396961789,-112.064627904,246,"5401 S 7TH ST, PHOENIX, AZ, 85040","Match","Exact","5401 S 7TH ST, PHOENIX, AZ, 85040",637534858,"L"
241747,"5401 S 7TH STREET","PHOENIX","AZ",85040,33.396961789,-112.064627904,247,"5401 S 7TH STREET, PHOENIX, AZ, 85040","Match","Exact","5401 S 7TH ST, PHOENIX, AZ, 85040",637534858,"L"
241748,"5401 S CROSSCREEK DRIVE","CHANDLER","AZ",85249,33.2275478440001,-111.820422596,248,"5401 S CROSSCREEK DRIVE, CHANDLER, AZ, 85249","Match","Exact","5401 S CROSSCREEK DR, CHANDLER, AZ, 85249",624385421,"L"
241749,"5401 S KIRKMAN RD 310","ORLANDO","FL",32819,28.484287378,-81.458714958,249,"5401 S KIRKMAN RD 310, ORLANDO, FL, 32819","Match","Non_Exact","5401 S KIRKMAN RD, ORLANDO, FL, 32819",638654055,"R"
241750,"5401 S KIRKMAN RD STE 201","ORLANDO","FL",32819,28.484287378,-81.458714958,250,"5401 S KIRKMAN RD STE 201, ORLANDO, FL, 32819","Match","Non_Exact","5401 S KIRKMAN RD, ORLANDO, FL, 32819",638654055,"R"
241751,"5401 S KIRKMAN RD STE 310","ORLANDO","FL",32819,28.484287378,-81.458714958,251,"5401 S KIRKMAN RD STE 310, ORLANDO, FL, 32819","Match","Non_Exact","5401 S KIRKMAN RD, ORLANDO, FL, 32819",638654055,"R"
241752,"5401 S KIRKMAN RD SUITE 310","ORLANDO","FL",32819,28.484287378,-81.458714958,252,"5401 S KIRKMAN RD SUITE 310, ORLANDO, FL, 32819","Match","Non_Exact","5401 S KIRKMAN RD, ORLANDO, FL, 32819",638654055,"R"
241753,"5401 S KIRKMAN RD SUITE 310","ORLANDO","FL",32839,NA,NA,253,"5401 S KIRKMAN RD SUITE 310, ORLANDO, FL, 32839","No_Match",NA,NA,NA,NA
241754,"5401 S KIRKMAN RD","ORLANDO","FL",32819,28.484287378,-81.458714958,254,"5401 S KIRKMAN RD, ORLANDO, FL, 32819","Match","Exact","5401 S KIRKMAN RD, ORLANDO, FL, 32819",638654055,"R"
241755,"5401 S WENTWORTH AVE STE 12E","CHICAGO","IL",60609,NA,NA,255,"5401 S WENTWORTH AVE STE 12E, CHICAGO, IL, 60609","No_Match",NA,NA,NA,NA
241756,"5401 S WENTWORTH AVE","CHICAGO","IL",60609,41.7965606450001,-87.6305525129999,256,"5401 S WENTWORTH AVE, CHICAGO, IL, 60609","Match","Non_Exact","5401 S WENTWORTH AVE, CHICAGO, IL, 60621",111830215,"L"
241757,"5401 SE 85TH STREET","OKLAHOMA CITY","OK",73135,35.3801599270001,-97.426284247,257,"5401 SE 85TH STREET, OKLAHOMA CITY, OK, 73135","Match","Exact","5401 SE 85TH ST, OKLAHOMA CITY, OK, 73135",606087366,"L"
241758,"5401 SHADOWBEND PLACE","THE WOODLANDS","TX",77381,30.1787962430001,-95.5021558459999,258,"5401 SHADOWBEND PLACE, THE WOODLANDS, TX, 77381","Match","Non_Exact","5401 SHADOW BEND PL, THE WOODLANDS, TX, 77381",79305925,"L"
241759,"5401 SOUTH KIRKMAN RD SUITE 235","ORLANDO","FL",32819,28.4842991130001,-81.45871519,259,"5401 SOUTH KIRKMAN RD SUITE 235, ORLANDO, FL, 32819","Match","Exact","5401 S KIRKMAN RD, ORLANDO, FL, 32819",638654055,"R"
241760,"5401 SOUTH KIRKMAN ROAD","ORLANDO","FL",32819,28.4842991130001,-81.45871519,260,"5401 SOUTH KIRKMAN ROAD, ORLANDO, FL, 32819","Match","Exact","5401 S KIRKMAN RD, ORLANDO, FL, 32819",638654055,"R"
241761,"5401 SUMMIT VIEW DR","MCKINNEY","TX",75071,33.2279342190001,-96.6823786689999,261,"5401 SUMMIT VIEW DR, MCKINNEY, TX, 75071","Match","Exact","5401 SUMMIT VIEW DR, MCKINNEY, TX, 75071",619910189,"L"
241762,"5401 SW 36TH STREET","WEST PARK","FL",33023,25.9773588050001,-80.19691138,262,"5401 SW 36TH STREET, WEST PARK, FL, 33023","Match","Exact","5401 SW 36TH ST, WEST PARK, FL, 33023",114735426,"R"
241763,"5401 TARA OAKS CT","ROSHARON","TX",77583,29.505542609,-95.4285310339999,263,"5401 TARA OAKS CT, ROSHARON, TX, 77583","Match","Exact","5401 TARA OAKS CT, ROSHARON, TX, 77583",624811445,"L"
241764,"5401 THELEN AVE","MCHENRY","IL",60050,42.405636513,-88.204493208,264,"5401 THELEN AVE, MCHENRY, IL, 60050","Match","Exact","5401 THELEN AVE, MCHENRY, IL, 60050",119814300,"L"
241765,"5401 TIFTON DRIVE","RALEIGH","NC",27610,35.783172806,-78.5433258429999,265,"5401 TIFTON DRIVE, RALEIGH, NC, 27610","Match","Exact","5401 TIFTON DR, RALEIGH, NC, 27610",72649440,"L"
241766,"5401 VILLAGE GREEN","LOS ANGELES","CA",90016,NA,NA,266,"5401 VILLAGE GREEN, LOS ANGELES, CA, 90016","No_Match",NA,NA,NA,NA
241767,"5401 W 71ST ST","INDIANAPOLIS","IN",46268,39.8818604960001,-86.253628744,267,"5401 W 71ST ST, INDIANAPOLIS, IN, 46268","Match","Exact","5401 W 71ST ST, INDIANAPOLIS, IN, 46268",646844758,"L"
241768,"5401 W KENNEDY BLVD STE 100","TAMPA","FL",33609,27.9448757870001,-82.532935574,268,"5401 W KENNEDY BLVD STE 100, TAMPA, FL, 33609","Match","Non_Exact","5401 W KENNEDY BLVD, TAMPA, FL, 33609",640440262,"R"
241769,"5401 W LAKE ST","CHICAGO","IL",60644,41.8872479770001,-87.7605056199999,269,"5401 W LAKE ST, CHICAGO, IL, 60644","Match","Exact","5401 W LAKE ST, CHICAGO, IL, 60644",616786654,"R"
241770,"5401 WEST KENNEDY BLVD SUITE 100","TAMPA","FL",33609,27.9448757870001,-82.532934998,270,"5401 WEST KENNEDY BLVD SUITE 100, TAMPA, FL, 33609","Match","Exact","5401 W KENNEDY BLVD, TAMPA, FL, 33609",640440262,"R"
241771,"5401 WEST KENNEDY BOULEVARD","TAMPA","FL",33609,27.9448757870001,-82.532934998,271,"5401 WEST KENNEDY BOULEVARD, TAMPA, FL, 33609","Match","Exact","5401 W KENNEDY BLVD, TAMPA, FL, 33609",640440262,"R"
241772,"5401 WESTBARD AVE 807","BETHESDA","MD",20816,38.9650073440001,-77.107126056,272,"5401 WESTBARD AVE 807, BETHESDA, MD, 20816","Match","Exact","5401 WESTBARD AVE, BETHESDA, MD, 20816",62089162,"R"
241773,"5402 99TH ST","LUBBOCK","TX",79424,33.504072792,-101.928303844,273,"5402 99TH ST, LUBBOCK, TX, 79424","Match","Exact","5402 99TH ST, LUBBOCK, TX, 79424",185268514,"L"
241774,"5402 AVENUE M","BROOKLYN","NY",11234,40.621601538,-73.9231675189999,274,"5402 AVENUE M, BROOKLYN, NY, 11234","Match","Exact","5402 AVE M, BROOKLYN, NY, 11234",59092397,"R"
241775,"5402 BALMORHEA DR","PEARLAND","TX",77584,29.5312265800001,-95.303942557,275,"5402 BALMORHEA DR, PEARLAND, TX, 77584","Match","Exact","5402 BALMORHEA DR, PEARLAND, TX, 77584",116648208,"L"
241776,"5402 DUKE DRIVE","FAIRVIEW HTS","IL",62208,38.575775632,-89.970384745,276,"5402 DUKE DRIVE, FAIRVIEW HTS, IL, 62208","Match","Exact","5402 DUKE DR, FAIRVIEW HTS, IL, 62208",107903660,"L"
241777,"5402 EASTERN PINES RD","GREENVILLE","NC",27858,35.5561155030001,-77.29935884,277,"5402 EASTERN PINES RD, GREENVILLE, NC, 27858","Match","Exact","5402 EASTERN PINES RD, GREENVILLE, NC, 27858",80012367,"L"
241778,"5402 KEYSTONE STREET","PITTSBURGH","PA",15201,40.4818359390001,-79.949691064,278,"5402 KEYSTONE STREET, PITTSBURGH, PA, 15201","Match","Exact","5402 KEYSTONE ST, PITTSBURGH, PA, 15201",51642097,"R"
241779,"5402 LARK CT","WILMINGTON","NC",28409,34.1804722580001,-77.8766923759999,279,"5402 LARK CT, WILMINGTON, NC, 28409","Match","Exact","5402 LARK CT, WILMINGTON, NC, 28409",152751553,"R"
241780,"5402 LYDIA CT","SPRING HILL","FL",34608,28.509693731,-82.560316827,280,"5402 LYDIA CT, SPRING HILL, FL, 34608","Match","Exact","5402 LYDIA CT, SPRING HILL, FL, 34608",85423540,"R"
241781,"5402 MASON RD","SANDUSKY","OH",44870,41.353952979,-82.714671772,281,"5402 MASON RD, SANDUSKY, OH, 44870","Match","Exact","5402 MASON RD, SANDUSKY, OH, 44870",55343416,"L"
241782,"5402 N 25TH ST","PHOENIX","AZ",85016,33.515408532,-112.029378221,282,"5402 N 25TH ST, PHOENIX, AZ, 85016","Match","Non_Exact","5402 N 25TH ST, PHOENIX, AZ, 85016",128209556,"L"
241783,"5402 RED FOX DR","BRIGHTON","MI",48114,42.52534494,-83.732882445,283,"5402 RED FOX DR, BRIGHTON, MI, 48114","Match","Exact","5402 RED FOX DR, BRIGHTON, MI, 48114",23558934,"R"
241784,"5402 S US HWY 281","BURNET","TX",78611,30.6954642630001,-98.253681253,284,"5402 S US HWY 281, BURNET, TX, 78611","Match","Exact","5402 S US HWY 281, BURNET, TX, 78611",146511316,"L"
241785,"5402 SPRUCE STREET AVE","BETHESDA","MD",20814,NA,NA,285,"5402 SPRUCE STREET AVE, BETHESDA, MD, 20814","No_Match",NA,NA,NA,NA
241786,"5402 STYLING DR","HOUSTON","TX",77016,29.859187729,-95.3099144179999,286,"5402 STYLING DR, HOUSTON, TX, 77016","Match","Exact","5402 STYLING DR, HOUSTON, TX, 77016",96554543,"R"
241787,"5402 W LAUREL ST SUITE 205","TAMPA","FL",33607,27.9560711250001,-82.5352089739999,287,"5402 W LAUREL ST SUITE 205, TAMPA, FL, 33607","Match","Non_Exact","5402 W LAUREL ST, TAMPA, FL, 33607",641415636,"L"
241788,"5402 WOOD DUCK WAY","LAKE PARK","GA",31636,30.67427121,-83.212312514,288,"5402 WOOD DUCK WAY, LAKE PARK, GA, 31636","Match","Exact","5402 WOOD DUCK WAY, LAKE PARK, GA, 31636",87726790,"R"
241789,"5403 340TH ST E","EATONVILLE","WA",98328,46.9475327280001,-122.356974214,289,"5403 340TH ST E, EATONVILLE, WA, 98328","Match","Exact","5403 340TH ST E, EATONVILLE, WA, 98328",184760808,"R"
241790,"5403 87TH AVE CT W","UNIVERSITY PLACE","WA",98467,47.207967049,-122.553598704,290,"5403 87TH AVE CT W, UNIVERSITY PLACE, WA, 98467","Match","Exact","5403 87TH AVENUE CT W, UNIVERSITY PLACE, WA, 98467",184619233,"L"
241791,"5403 ALDER CIRCLE","BELLAIRE","TX",77401,29.7000304960001,-95.480483146,291,"5403 ALDER CIRCLE, BELLAIRE, TX, 77401","Match","Exact","5403 ALDER CIR, BELLAIRE, TX, 77401",651934137,"L"
241792,"5403 BEAUMONT AVE","LA JOLLA","CA",92037,32.8117687720001,-117.264558286,292,"5403 BEAUMONT AVE, LA JOLLA, CA, 92037","Match","Exact","5403 BEAUMONT AVE, LA JOLLA, CA, 92037",195299218,"R"
241793,"5403 CORNER STONE AVENUE","BILLINGS","MT",59106,45.7910250910001,-108.653545786,293,"5403 CORNER STONE AVENUE, BILLINGS, MT, 59106","Match","Exact","5403 CORNER STONE AVE, BILLINGS, MT, 59106",181505770,"R"
241794,"5403 FAUNTLEROY WAY SW","SEATTLE","WA",98136,47.5529014740001,-122.38162879,294,"5403 FAUNTLEROY WAY SW, SEATTLE, WA, 98136","Match","Exact","5403 FAUNTLEROY WAY SW, SEATTLE, WA, 98136",186703861,"L"
241795,"5403 JACKWOOD DR SUITE C","SAN ANTONIO","TX",78238,29.485461888,-98.601260409,295,"5403 JACKWOOD DR SUITE C, SAN ANTONIO, TX, 78238","Match","Exact","5403 JACKWOOD DR, SAN ANTONIO, TX, 78238",101508909,"L"
241796,"5403 LITTLE DIPPER CT","GREENACRES","FL",33463,26.601096279,-80.129169121,296,"5403 LITTLE DIPPER CT, GREENACRES, FL, 33463","Match","Exact","5403 LITTLE DIPPER CT, GREENACRES, FL, 33463",115531904,"L"
241797,"5403 NEWCASTLE AVE UNIT 38","ENCINO","CA",91316,34.168902114,-118.524360847,297,"5403 NEWCASTLE AVE UNIT 38, ENCINO, CA, 91316","Match","Exact","5403 NEWCASTLE AVE, ENCINO, CA, 91316",650065726,"L"
241798,"5403 S GRAHAM ROAD","ST CHARLES","MI",48655,43.345681697,-84.141311199,298,"5403 S GRAHAM ROAD, ST CHARLES, MI, 48655","Match","Exact","5403 S GRAHAM RD, SAINT CHARLES, MI, 48655",80230435,"R"
241799,"5403 SILICA DR","SYLVANIA","OH",43560,41.7116006540001,-83.7097920419999,299,"5403 SILICA DR, SYLVANIA, OH, 43560","Match","Exact","5403 SILICA DR, SYLVANIA, OH, 43560",33957296,"L"
241800,"5403 TREE FARM LANE UNIT 103","SANTA BARBARA","CA",93111,34.449265299,-119.808285009,300,"5403 TREE FARM LANE UNIT 103, SANTA BARBARA, CA, 93111","Match","Exact","5403 TREE FARM LN, SANTA BARBARA, CA, 93111",650907474,"L"
241801,"5403 WILSON DRIVE","PUNTA GORDA","FL",33982,26.9499534180001,-81.996126378,301,"5403 WILSON DRIVE, PUNTA GORDA, FL, 33982","Match","Exact","5403 WILSON DR, PUNTA GORDA, FL, 33982",4290248,"L"
241802,"54036 BIRCHFIELD DR W","SHELBY TOWNSHIP","MI",48316,42.6904896710001,-83.081542369,302,"54036 BIRCHFIELD DR W, SHELBY TOWNSHIP, MI, 48316","Match","Exact","54036 BIRCHFIELD DR W, SHELBY TOWNSHIP, MI, 48316",110708731,"L"
241803,"5404 1/2 PACKARD STREET","LOS ANGELES","CA",90019,34.0508474210001,-118.354314558,303,"5404 1/2 PACKARD STREET, LOS ANGELES, CA, 90019","Match","Exact","5404 PACKARD ST, LOS ANGELES, CA, 90019",141599329,"L"
241804,"5404 ALTON PKWY STE 5A360","IRVINE","CA",92604,NA,NA,304,"5404 ALTON PKWY STE 5A360, IRVINE, CA, 92604","No_Match",NA,NA,NA,NA
241805,"5404 BALMORAL DR","FRISCO","TX",75034,33.0987742350001,-96.8407146659999,305,"5404 BALMORAL DR, FRISCO, TX, 75034","Match","Exact","5404 BALMORAL DR, FRISCO, TX, 75034",616539816,"R"
241806,"5404 BANTRY COURT","WOODBRIDGE","VA",22193,38.6280017340001,-77.368932646,306,"5404 BANTRY COURT, WOODBRIDGE, VA, 22193","Match","Exact","5404 BANTRY CT, WOODBRIDGE, VA, 22193",619948399,"L"
241807,"5404 BROWNSFORD ROAD","SCOTTSVILLE","KY",42164,36.767470089,-86.0878755849999,307,"5404 BROWNSFORD ROAD, SCOTTSVILLE, KY, 42164","Match","Exact","5404 BROWNSFORD RD, SCOTTSVILLE, KY, 42164",29391551,"R"
241808,"5404 CENTERFIELD ROAD","SUMMERFIELD","NC",27358,NA,NA,308,"5404 CENTERFIELD ROAD, SUMMERFIELD, NC, 27358","No_Match",NA,NA,NA,NA
241809,"5404 CHAPMAN RIDGE ROAD","FISHERVILLE","KY",40023,38.1609087850001,-85.423660959,309,"5404 CHAPMAN RIDGE ROAD, FISHERVILLE, KY, 40023","Match","Exact","5404 CHAPMAN RIDGE RD, FISHERVILLE, KY, 40023",96894279,"L"
241810,"5404 CHARLESTON WOODS DRIVE","FAIRFAX","VA",22032,38.8048911320001,-77.302611744,310,"5404 CHARLESTON WOODS DRIVE, FAIRFAX, VA, 22032","Match","Exact","5404 CHARLESTON WOODS DR, FAIRFAX, VA, 22032",76016398,"R"
241811,"5404 CHESTNUT HILL COURT","MOUNT HOLLY","NC",28120,35.2990161210001,-81.057351492,311,"5404 CHESTNUT HILL COURT, MOUNT HOLLY, NC, 28120","Match","Exact","5404 CHESTNUT HILL CT, MOUNT HOLLY, NC, 28120",70418417,"R"
241812,"5404 CROSLAND CT WEST","NORTH CHARLESTON","SC",29420,32.918958956,-80.124591472,312,"5404 CROSLAND CT WEST, NORTH CHARLESTON, SC, 29420","Match","Exact","5404 CROSLAND CT W, N CHARLESTON, SC, 29420",178484187,"R"
241813,"5404 E 33RD AVE","DENVER","CO",80207,39.7637878790001,-104.924391392,313,"5404 E 33RD AVE, DENVER, CO, 80207","Match","Exact","5404 E 33RD AVE, DENVER, CO, 80207",177311622,"R"
241814,"5404 EASTNOL BLVD","GREENVILLE","OH",45331,40.1027591690001,-84.6025041239999,314,"5404 EASTNOL BLVD, GREENVILLE, OH, 45331","Match","Exact","5404 EASTNOL BLVD, GREENVILLE, OH, 45331",54549367,"L"
241815,"5404 ITASKA STREET","SAINT LOUIS","MO",63109,38.5842788950001,-90.285094283,315,"5404 ITASKA STREET, SAINT LOUIS, MO, 63109","Match","Exact","5404 ITASKA ST, SAINT LOUIS, MO, 63109",107599727,"L"
241816,"5404 KANSAS AVE NW","WASHINGTON","DC",20011,38.955632398,-77.015726689,316,"5404 KANSAS AVE NW, WASHINGTON, DC, 20011","Match","Exact","5404 KANSAS AVE NW, WASHINGTON, DC, 20011",644043494,"L"
241817,"5404 KOUFAX LN","PASCO","WA",99301,46.276270331,-119.178429372,317,"5404 KOUFAX LN, PASCO, WA, 99301","Match","Exact","5404 KOUFAX LN, PASCO, WA, 99301",639686351,"L"
241818,"5404 MAIN ST","NEW PORT RICHEY","FL",34652,28.2502235800001,-82.725316441,318,"5404 MAIN ST, NEW PORT RICHEY, FL, 34652","Match","Exact","5404 MAIN ST, NEW PORT RICHEY, FL, 34652",635969021,"L"
241819,"5404 MEIJER DRIVE","FORT WAYNE","IN",46835,41.135401947,-85.0157308349999,319,"5404 MEIJER DRIVE, FORT WAYNE, IN, 46835","Match","Exact","5404 MEIJER DR, FORT WAYNE, IN, 46835",6407247,"R"
241820,"5404 N 49TH AVE","OMAHA","NE",68104,41.3076982220001,-95.989147251,320,"5404 N 49TH AVE, OMAHA, NE, 68104","Match","Exact","5404 N 49TH AVE, OMAHA, NE, 68104",116977816,"L"
241821,"5404 NE 21ST TERRACE","FORT LAUDERDALE","FL",33308,26.1936129310001,-80.116862692,321,"5404 NE 21ST TERRACE, FORT LAUDERDALE, FL, 33308","Match","Exact","5404 NE 21ST TER, FORT LAUDERDALE, FL, 33308",114723764,"R"
241822,"5404 NICHOLAS ST","OMAHA","NE",68132,41.2695963360001,-95.9969557219999,322,"5404 NICHOLAS ST, OMAHA, NE, 68132","Match","Exact","5404 NICHOLAS ST, OMAHA, NE, 68132",117016792,"R"
241823,"5404 NW 26 WAY","TAMARAC","FL",33309,26.192398251,-80.1787262399999,323,"5404 NW 26 WAY, TAMARAC, FL, 33309","Match","Exact","5404 NW 26TH WAY, TAMARAC, FL, 33309",114717722,"R"
241824,"5404 ROSEBROOKE RD","LOTHIAN","MD",20711,38.762745339,-76.67136228,324,"5404 ROSEBROOKE RD, LOTHIAN, MD, 20711","Match","Exact","5404 ROSEBROOKE RD, LOTHIAN, MD, 20711",617905289,"R"
241825,"5404 RUE NICOLE","BAKER","LA",70714,30.581849043,-91.13962087,325,"5404 RUE NICOLE, BAKER, LA, 70714","Match","Exact","5404 RUE NICOLE, BAKER, LA, 70714",614698467,"R"
241826,"5404 S 45TH CT","ROGERS","AR",72758,36.2833578930001,-94.180341287,326,"5404 S 45TH CT, ROGERS, AR, 72758","Match","Exact","5404 S 45TH CT, ROGERS, AR, 72758",47905006,"L"
241827,"5404 S COUNTY RD 1168","MIDLAND","TX",79706,31.9384456860001,-102.024783478,327,"5404 S COUNTY RD 1168, MIDLAND, TX, 79706","Match","Exact","5404 S CO RD 1168, MIDLAND, TX, 79706",139592836,"L"
241828,"5404 STEWART DRIVE","VIRGINIA BEACH","VA",23464,36.783071207,-76.170179499,328,"5404 STEWART DRIVE, VIRGINIA BEACH, VA, 23464","Match","Exact","5404 STEWART DR, VA BCH, VA, 23464",122296424,"L"
241829,"5404 SW 141 PLACE","MIAMI","FL",33175,25.715304174,-80.422550867,329,"5404 SW 141 PLACE, MIAMI, FL, 33175","Match","Exact","5404 SW 141ST PL, MIAMI, FL, 33175",115963903,"L"
241830,"5404 W MADISON ST","CHICAGO","IL",60644,41.880310277,-87.760363781,330,"5404 W MADISON ST, CHICAGO, IL, 60644","Match","Exact","5404 W MADISON ST, CHICAGO, IL, 60644",111754877,"R"
241831,"5404 WEST ROWLAND PLACE","LITTLETON","CO",80128,39.587477354,-105.056472157,331,"5404 WEST ROWLAND PLACE, LITTLETON, CO, 80128","Match","Exact","5404 W ROWLAND PL, LITTLETON, CO, 80128",177335093,"L"
241832,"5404 WEST TRAILWOOD COURT","KILLEEN","TX",76542,31.06135276,-97.686142078,332,"5404 WEST TRAILWOOD COURT, KILLEEN, TX, 76542","Match","Exact","5404 W TRAILWOOD CT, KILLEEN, TX, 76542",146203610,"R"
241833,"5404 WHITSETT AVE APT 188","LOS ANGELES","CA",91607,34.168854589,-118.405235177,333,"5404 WHITSETT AVE APT 188, LOS ANGELES, CA, 91607","Match","Non_Exact","5404 WHITSETT AVE, VALLEY VILLAGE, CA, 91607",637813515,"R"
241834,"5404 WINDY CT","TROY","MI",48098,42.5967187520001,-83.197394786,334,"5404 WINDY CT, TROY, MI, 48098","Match","Exact","5404 WINDY CT, TROY, MI, 48098",69736277,"R"
241835,"5404 WYNNEFORD WAY","RALEIGH","NC",27614,35.918239514,-78.613478346,335,"5404 WYNNEFORD WAY, RALEIGH, NC, 27614","Match","Exact","5404 WYNNEFORD WAY, RALEIGH, NC, 27614",208346398,"R"
241836,"5404A N OCEANSHORE BLVD","PALM COAST","FL",32137,29.6001887830001,-81.1968888659999,336,"5404A N OCEANSHORE BLVD, PALM COAST, FL, 32137","Match","Exact","5404 N OCEANSHORE BLVD, PALM COAST, FL, 32137",629629295,"L"
241837,"5405 172ND ST SW","LYNNWOOD","WA",98037,47.8429829310001,-122.306984025,337,"5405 172ND ST SW, LYNNWOOD, WA, 98037","Match","Exact","5405 172ND ST SW, LYNNWOOD, WA, 98037",187819937,"R"
241838,"5405 196TH ST SW","LYNNWOOD","WA",98036,47.821420792,-122.305811114,338,"5405 196TH ST SW, LYNNWOOD, WA, 98036","Match","Exact","5405 196TH ST SW, LYNNWOOD, WA, 98036",187791066,"R"
241839,"5405 36TH AVENUE","HYATTSVILLE","MD",20782,38.9544156870001,-76.958250726,339,"5405 36TH AVENUE, HYATTSVILLE, MD, 20782","Match","Exact","5405 36TH AVE, HYATTSVILLE, MD, 20782",76304432,"R"
241840,"5405 ALTON PARKWAY SUITE 5A-441","IRVINE","CA",92604,33.6706325000001,-117.789797036,340,"5405 ALTON PARKWAY SUITE 5A-441, IRVINE, CA, 92604","Match","Exact","5405 ALTON PKWY, IRVINE, CA, 92604",144060115,"R"
241841,"5405 ALTON PARKWAY SUITE 5AS-305","IRVINE","CA",92604,33.6706325000001,-117.789797036,341,"5405 ALTON PARKWAY SUITE 5AS-305, IRVINE, CA, 92604","Match","Exact","5405 ALTON PKWY, IRVINE, CA, 92604",144060115,"R"
241842,"5405 ALTON PKWY 5A-426","IRVINE","CA",92604,33.6706325000001,-117.789797036,342,"5405 ALTON PKWY 5A-426, IRVINE, CA, 92604","Match","Exact","5405 ALTON PKWY, IRVINE, CA, 92604",144060115,"R"
241843,"5405 ALTON PKWY SUITE A-705","IRVINE","CA",92603,33.6706325000001,-117.789797036,343,"5405 ALTON PKWY SUITE A-705, IRVINE, CA, 92603","Match","Non_Exact","5405 ALTON PKWY, IRVINE, CA, 92604",144060115,"R"
241844,"5405 ANGUS CT  4","LOUISVILLE","KY",40272,38.102041731,-85.863432447,344,"5405 ANGUS CT  4, LOUISVILLE, KY, 40272","Match","Exact","5405 ANGUS CT, LOUISVILLE, KY, 40272",96838123,"R"
241845,"5405 DEODAR ST","SILVER SPRINGS","NV",89429,39.370770065,-119.238231663,345,"5405 DEODAR ST, SILVER SPRINGS, NV, 89429","Match","Exact","5405 DEODAR ST, SILVER SPRINGS, NV, 89429",605231676,"L"
241846,"5405 E 20TH PLACE","INDIANAPOLIS","IN",46218,39.7954662810001,-86.076235858,346,"5405 E 20TH PLACE, INDIANAPOLIS, IN, 46218","Match","Exact","5405 E 20TH PL, INDIANAPOLIS, IN, 46218",108000061,"R"
241847,"5405 E 33RD AVE","DENVER","CO",80207,39.7637988440001,-104.924549956,347,"5405 E 33RD AVE, DENVER, CO, 80207","Match","Exact","5405 E 33RD AVE, DENVER, CO, 80207",177311622,"L"
241848,"5405 FOREST ACRES DR","NASHVILLE","TN",37220,36.0487935620001,-86.7814222809999,348,"5405 FOREST ACRES DR, NASHVILLE, TN, 37220","Match","Exact","5405 FOREST ACRES DR, NASHVILLE, TN, 37220",97224907,"L"
241849,"5405 GERALD RD","ASHTABULA","OH",44004,41.8602505970001,-80.837512745,349,"5405 GERALD RD, ASHTABULA, OH, 44004","Match","Exact","5405 GERALD RD, ASHTABULA, OH, 44004",117315016,"L"
241850,"5405 HANSDALE ROAD","RICHMOND","VA",23224,37.4734203510001,-77.4944896929999,350,"5405 HANSDALE ROAD, RICHMOND, VA, 23224","Match","Exact","5405 HANSDALE RD, RICHMOND, VA, 23224",201545117,"L"
241851,"5405 KINGS PARK DR","SPRINGFIELD","VA",22151,38.8036887310001,-77.249572372,351,"5405 KINGS PARK DR, SPRINGFIELD, VA, 22151","Match","Exact","5405 KINGS PARK DR, SPRINGFIELD, VA, 22151",75975224,"L"
241852,"5405 LOCUST LANE","HARRISBURG","PA",17109,40.2929353590001,-76.797311241,352,"5405 LOCUST LANE, HARRISBURG, PA, 17109","Match","Exact","5405 LOCUST LN, HARRISBURG, PA, 17109",70823835,"R"
241853,"5405 MARYLAND STREET","AMES","IA",50014,42.036102768,-93.69158391,353,"5405 MARYLAND STREET, AMES, IA, 50014","Match","Exact","5405 MARYLAND ST, AMES, IA, 50014",627649783,"R"
241854,"5405 NEVADA CT","CONCORD","CA",94521,37.9450661020001,-121.967563992,354,"5405 NEVADA CT, CONCORD, CA, 94521","Match","Exact","5405 NEVADA CT, CONCORD, CA, 94521",192059245,"L"
241855,"5405 NW 158TH TERRACE APT 308","MIAMI LAKES","FL",33014,NA,NA,355,"5405 NW 158TH TERRACE APT 308, MIAMI LAKES, FL, 33014","No_Match",NA,NA,NA,NA
241856,"5405 OKEECHOBEE BLVD 201","WEST PALM BEACH","FL",33417,26.707155023,-80.126143989,356,"5405 OKEECHOBEE BLVD 201, WEST PALM BEACH, FL, 33417","Match","Exact","5405 OKEECHOBEE BLVD, WEST PALM BEACH, FL, 33417",115582450,"R"
241857,"5405 PARKVILLE CT","SACRAMENTO","CA",95842,38.6916727450001,-121.338517568,357,"5405 PARKVILLE CT, SACRAMENTO, CA, 95842","Match","Exact","5405 PARKVILLE CT, SACRAMENTO, CA, 95842",133340638,"L"
241858,"5405 POOR HOUSE RD","DOLPHIN","VA",23843,36.8365775140001,-77.840731245,358,"5405 POOR HOUSE RD, DOLPHIN, VA, 23843","Match","Exact","5405 POOR HOUSE RD, DOLPHIN, VA, 23843",54022365,"L"
241859,"5405 REYNIER AVENUE","LOS ANGELES","CA",90056,33.9932772010001,-118.375880634,359,"5405 REYNIER AVENUE, LOS ANGELES, CA, 90056","Match","Exact","5405 REYNIER AVE, LOS ANGELES, CA, 90056",141579138,"R"
241860,"5405 RUTHERFORD PLACE","OVIEDO","FL",32765,28.6254976120001,-81.250150382,360,"5405 RUTHERFORD PLACE, OVIEDO, FL, 32765","Match","Exact","5405 RUTHERFORD PL, OVIEDO, FL, 32765",630017172,"R"
241861,"5405 S TELLURIDE ST","AURORA","CO",80015,39.618749843,-104.783703559,361,"5405 S TELLURIDE ST, AURORA, CO, 80015","Match","Exact","5405 S TELLURIDE ST, AURORA, CO, 80015",177520952,"R"
241862,"5405 SCOGGINS STREET","FORT WORTH","TX",76114,32.8095198990001,-97.400801748,362,"5405 SCOGGINS STREET, FORT WORTH, TX, 76114","Match","Exact","5405 SCOGGINS ST, FORT WORTH, TX, 76114",101852919,"L"
241863,"5405 SILVER SAGE LN","ROSAHRON","TX",77583,29.507111325,-95.4348511329999,363,"5405 SILVER SAGE LN, ROSAHRON, TX, 77583","Match","Non_Exact","5405 SILVER SAGE LN, ROSHARON, TX, 77583",614115343,"L"
241864,"5405 THOMPSON RD","CLEARANCE","NY",14031,42.9934480590001,-78.64712159,364,"5405 THOMPSON RD, CLEARANCE, NY, 14031","Match","Non_Exact","5405 THOMPSON RD, CLARENCE, NY, 14031",48306610,"R"
241865,"5405 VILLAGE ROAD 8215","LONG BEACH","CA",90808,33.8336596720001,-118.126737509,365,"5405 VILLAGE ROAD 8215, LONG BEACH, CA, 90808","Match","Non_Exact","5405 E VILLAGE RD, LONG BEACH, CA, 90808",141700590,"L"
241866,"5405 W MARGARET ST","MONEE","IL",60449,41.4173756640001,-87.743057952,366,"5405 W MARGARET ST, MONEE, IL, 60449","Match","Exact","5405 W MARGARET ST, MONEE, IL, 60449",111552079,"R"
241867,"5405 WOOLSHIRE COURT","GLEN ALLEN","VA",23059,37.68598573,-77.60300562,367,"5405 WOOLSHIRE COURT, GLEN ALLEN, VA, 23059","Match","Exact","5405 WOOLSHIRE CT, GLEN ALLEN, VA, 23059",106689781,"R"
241868,"5405 YORK ROAD","BALTIMORE","MD",21212,39.355611568,-76.6098457149999,368,"5405 YORK ROAD, BALTIMORE, MD, 21212","Match","Exact","5405 YORK RD, BALTIMORE, MD, 21212",206461289,"R"
241869,"5406 AMETHYST LN","CHINO HILLS","CA",91709,33.9649577530001,-117.686120192,369,"5406 AMETHYST LN, CHINO HILLS, CA, 91709","Match","Exact","5406 AMETHYST LN, CHINO HILLS, CA, 91709",145224027,"R"
241870,"5406 ARANSAS LANE","KATY","TX",77449,NA,NA,370,"5406 ARANSAS LANE, KATY, TX, 77449","No_Match",NA,NA,NA,NA
241871,"5406 BRINKLEY ROAD","CAMP SPRINGS","MD",20748,38.8022173040001,-76.9145218849999,371,"5406 BRINKLEY ROAD, CAMP SPRINGS, MD, 20748","Match","Exact","5406 BRINKLEY RD, CAMP SPRINGS, MD, 20748",76361952,"L"
241872,"5406 CASTLE STONE DR","BALTIMORE","MD",21237,39.360005087,-76.4672223269999,372,"5406 CASTLE STONE DR, BALTIMORE, MD, 21237","Match","Non_Exact","5406 CASTLESTONE DR, BALTIMORE, MD, 21237",191509004,"L"
241873,"5406 CHARBAR DR","PENSACOLA","FL",32526,30.4529219090001,-87.289841324,373,"5406 CHARBAR DR, PENSACOLA, FL, 32526","Match","Non_Exact","5406 CHAR BAR DR, PENSACOLA, FL, 32526",93213572,"R"
241874,"5406 CROSSINGS DRIVE SUITE 102369","ROCKLIN","CA",95677,NA,NA,374,"5406 CROSSINGS DRIVE SUITE 102369, ROCKLIN, CA, 95677","No_Match",NA,NA,NA,NA
241875,"5406 GOLF DR","HOUSTON","TX",77091,29.845268946,-95.42467551,375,"5406 GOLF DR, HOUSTON, TX, 77091","Match","Exact","5406 GOLF DR, HOUSTON, TX, 77091",96053970,"R"
241876,"5406 IDLEWILD RD N","CHARLOTTE","NC",28227,35.1998871060001,-80.7207011739999,376,"5406 IDLEWILD RD N, CHARLOTTE, NC, 28227","Match","Exact","5406 IDLEWILD RD N, CHARLOTTE, NC, 28227",618149886,"R"
241877,"5406 LEONARD ST","FERNANDINA BEACH","FL",32034,30.5747075990001,-81.4483647599999,377,"5406 LEONARD ST, FERNANDINA BEACH, FL, 32034","Match","Exact","5406 LEONARD ST, FERNANDINA BCH, FL, 32034",84109863,"R"
241878,"5406 N COUNTY ROAD 25","BIG SPRING","TX",79720,32.324510983,-101.491835444,378,"5406 N COUNTY ROAD 25, BIG SPRING, TX, 79720","Match","Exact","5406 CO RD 25, BIG SPRING, TX, 79720",182872213,"R"
241879,"5406 RENAISSANCE AVE","SAN DIEGO","CA",92122,32.8690058620001,-117.204063713,379,"5406 RENAISSANCE AVE, SAN DIEGO, CA, 92122","Match","Exact","5406 RENAISSANCE AVE, SAN DIEGO, CA, 92122",195668516,"R"
241880,"5406 SANDY ACRES DR","SANDUSKY","OH",44870,41.394709881,-82.6757788369999,380,"5406 SANDY ACRES DR, SANDUSKY, OH, 44870","Match","Exact","5406 SANDY ACRES DR, SANDUSKY, OH, 44870",617310945,"L"
241881,"5406 STILLWELL DRIVE","WONDER LAKE","IL",60097,42.4039527420001,-88.335305316,381,"5406 STILLWELL DRIVE, WONDER LAKE, IL, 60097","Match","Exact","5406 STILLWELL DR, WONDER LAKE, IL, 60097",617575077,"L"
241882,"5406 STRATFORD LN","TEMPLE HILLS","MD",20748,38.815398997,-76.934578044,382,"5406 STRATFORD LN, TEMPLE HILLS, MD, 20748","Match","Exact","5406 STRATFORD LN, TEMPLE HILLS, MD, 20748",76314358,"R"
241883,"5406 W 11000 N SUITE 103-123","HIGHLAND","UT",84003,40.431859311,-111.789312089,383,"5406 W 11000 N SUITE 103-123, HIGHLAND, UT, 84003","Match","Non_Exact","5406 W 11000 N, HIGHLAND, UT, 84003",134266817,"L"
241884,"5406 W TIMPANOGOS HWY STE 103-409","HIGHLAND","UT",84003,NA,NA,384,"5406 W TIMPANOGOS HWY STE 103-409, HIGHLAND, UT, 84003","No_Match",NA,NA,NA,NA
241885,"5406 YALE DRIVE","KATY","TX",77493,29.8064750070001,-95.8143807499999,385,"5406 YALE DRIVE, KATY, TX, 77493","Match","Exact","5406 YALE DR, KATY, TX, 77493",96012548,"L"
241886,"5407 CASA CALVET DRIVE","KATY","TX",77449,29.850149673,-95.7108059779999,386,"5407 CASA CALVET DRIVE, KATY, TX, 77449","Match","Exact","5407 CASA CALVET DR, KATY, TX, 77449",646704322,"L"
241887,"5407 CHRISTY BLVD","SAINT LOUIS","MO",63116,38.579524916,-90.275817751,387,"5407 CHRISTY BLVD, SAINT LOUIS, MO, 63116","Match","Exact","5407 CHRISTY BLVD, SAINT LOUIS, MO, 63116",107599949,"R"
241888,"5407 COLFAX AVE APT 106","NORTH HOLLYWOOD","CA",91601,34.1689406790001,-118.387765939,388,"5407 COLFAX AVE APT 106, NORTH HOLLYWOOD, CA, 91601","Match","Exact","5407 COLFAX AVE, N HOLLYWOOD, CA, 91601",652037337,"L"
241889,"5407 DOUBLEDAY LANE","SAINT CHARLES","MD",20602,38.559928095,-76.910656393,389,"5407 DOUBLEDAY LANE, SAINT CHARLES, MD, 20602","Match","Non_Exact","5407 DOUBLE DAY LN, SAINT CHARLES, MD, 20602",642955075,"R"
241890,"5407 EAKES RD NW","LOS RANCHOS","NM",87107,35.1543292640001,-106.662770621,390,"5407 EAKES RD NW, LOS RANCHOS, NM, 87107","Match","Exact","5407 EAKES RD NW, LOS RANCHOS, NM, 87107",648068275,"L"
241891,"5407 EAST DRIVE","ARBUTUS","MD",21227,NA,NA,391,"5407 EAST DRIVE, ARBUTUS, MD, 21227","No_Match",NA,NA,NA,NA
241892,"5407 KING ALBERT","SAN ANTONIO","TX",78229,29.491148158,-98.592778224,392,"5407 KING ALBERT, SAN ANTONIO, TX, 78229","Match","Non_Exact","5407 KING ALBERT ST, SAN ANTONIO, TX, 78229",101491512,"R"
241893,"5407 KIRKLAND WAY","CARMICHAEL","CA",95608,38.6286590340001,-121.339001597,393,"5407 KIRKLAND WAY, CARMICHAEL, CA, 95608","Match","Exact","5407 KIRKLAND WAY, CARMICHAEL, CA, 95608",133343119,"R"
241894,"5407 MECHANICSVILLE TURNPIKE","MECHANICSVILLE","VA",23111,37.6307255310001,-77.291713697,394,"5407 MECHANICSVILLE TURNPIKE, MECHANICSVILLE, VA, 23111","Match","Exact","5407 MECHANICSVILLE TPKE, MECHANICSVILLE, VA, 23111",84996953,"L"
241895,"5407 MEDALLION DRIVE EAST","WESTERVILLE","OH",43082,40.170725073,-82.88736095,395,"5407 MEDALLION DRIVE EAST, WESTERVILLE, OH, 43082","Match","Exact","5407 MEDALLION DR E, WESTERVILLE, OH, 43082",652486527,"R"
241896,"5407 MELWOOD PARK AVE","UPPER MARLBORO","MD",20772,38.81434656,-76.816366251,396,"5407 MELWOOD PARK AVE, UPPER MARLBORO, MD, 20772","Match","Exact","5407 MELWOOD PARK AVE, UPPER MARLBORO, MD, 20772",76346898,"L"
241897,"5407 OVERLOOK CIRCLE","WHITE MARSH","MD",21162,39.3995095010001,-76.4198764289999,397,"5407 OVERLOOK CIRCLE, WHITE MARSH, MD, 21162","Match","Exact","5407 OVERLOOK CIR, WHITE MARSH, MD, 21162",614113155,"L"
241898,"5407 RUE SHAYLIN","BAKER","LA",70714,30.5810772350001,-91.139593798,398,"5407 RUE SHAYLIN, BAKER, LA, 70714","Match","Non_Exact","5407 RUE SHAYLYN, BAKER, LA, 70714",614698478,"L"
241899,"5407 SANTA TERESITA","SANTA TERESA","NM",88008,31.8421619060001,-106.606724825,399,"5407 SANTA TERESITA, SANTA TERESA, NM, 88008","Match","Non_Exact","5407 SANTA TERESITA DR, SANTA TERESA, NM, 88008",612743031,"R"
241900,"5407 SOUTHERN BELLE DR","KILLEEN","TX",76542,31.064333392,-97.682413066,400,"5407 SOUTHERN BELLE DR, KILLEEN, TX, 76542","Match","Exact","5407 SOUTHERN BELLE DR, KILLEEN, TX, 76542",619909533,"R"
241901,"5407 TURNEY ROAD","GARFIELD HEIGHTS","OH",44125,41.414815731,-81.6044370339999,401,"5407 TURNEY ROAD, GARFIELD HEIGHTS, OH, 44125","Match","Exact","5407 TURNEY RD, GARFIELD HEIGHTS, OH, 44125",61127983,"L"
241902,"54075 ELLIS BLVD","LORANGER","LA",70446,30.6387667390001,-90.4089236199999,402,"54075 ELLIS BLVD, LORANGER, LA, 70446","Match","Exact","54075 ELLIS BLVD, LORANGER, LA, 70446",75767441,"L"
241903,"5408 ARMSTRONG CT","INDIANAPOLIS","IN",46237,39.688885328,-86.0713876899999,403,"5408 ARMSTRONG CT, INDIANAPOLIS, IN, 46237","Match","Exact","5408 ARMSTRONG CT, INDIANAPOLIS, IN, 46237",108009710,"R"
241904,"5408 ASPEN ST","HOUSTON","TX",77081,29.70111733,-95.4744105789999,404,"5408 ASPEN ST, HOUSTON, TX, 77081","Match","Exact","5408 ASPEN ST, HOUSTON, TX, 77081",96033451,"R"
241905,"5408 BERKERS COURT WEST","NORTH CHARLESTON","SC",29420,32.9180523970001,-80.127707538,405,"5408 BERKERS COURT WEST, NORTH CHARLESTON, SC, 29420","Match","Exact","5408 BERKERS CT W, N CHARLESTON, SC, 29420",178466724,"R"
241906,"5408 BRINKLEY ROAD","CAMP SPRINGS","MD",20607,38.8022146650001,-76.914510702,406,"5408 BRINKLEY ROAD, CAMP SPRINGS, MD, 20607","Match","Non_Exact","5408 BRINKLEY RD, CAMP SPRINGS, MD, 20748",76361952,"L"
241907,"5408 CASPER COURT","FAYETTEVILLE","NC",28303,35.084326004,-78.978039829,407,"5408 CASPER COURT, FAYETTEVILLE, NC, 28303","Match","Exact","5408 CASPER CT, FAYETTEVILLE, NC, 28303",64194718,"R"
241908,"5408 CENTURY OAKS DRIVE","GREENSBORO","NC",27455,36.154990888,-79.839781676,408,"5408 CENTURY OAKS DRIVE, GREENSBORO, NC, 27455","Match","Exact","5408 CENTURY OAKS DR, GREENSBORO, NC, 27455",131060452,"R"
241909,"5408 CHINA DOLL CT","HOUSTON","TX",77041,29.846418667,-95.6093915549999,409,"5408 CHINA DOLL CT, HOUSTON, TX, 77041","Match","Exact","5408 CHINA DOLL CT, HOUSTON, TX, 77041",96289493,"R"
241910,"5408 COLFAX AVE S","MINNEAPOLIS","MN",55419,44.9048251180001,-93.2921047729999,410,"5408 COLFAX AVE S, MINNEAPOLIS, MN, 55419","Match","Exact","5408 COLFAX AVE S, MINNEAPOLIS, MN, 55419",43629223,"R"
241911,"5408 GERLAND AVENUE","BALTIMORE","MD",21206,39.3325876320001,-76.5451420379999,411,"5408 GERLAND AVENUE, BALTIMORE, MD, 21206","Match","Exact","5408 GERLAND AVE, BALTIMORE, MD, 21206",206411780,"L"
241912,"5408 GOODWIN STREET","INDIANAPOLIS","IN",46234,39.8436160540001,-86.331310504,412,"5408 GOODWIN STREET, INDIANAPOLIS, IN, 46234","Match","Exact","5408 GOODWIN ST, INDIANAPOLIS, IN, 46234",610126344,"R"
241913,"5408 HWY 306","COLDWATER","MS",38618,34.6997517670001,-89.88922165,413,"5408 HWY 306, COLDWATER, MS, 38618","Match","Non_Exact","5408 STATE HWY 306, COLDWATER, MS, 38618",608126844,"L"
241914,"5408 KENNINGTON PL","FAIRFAX","VA",22032,38.804823938,-77.2980647369999,414,"5408 KENNINGTON PL, FAIRFAX, VA, 22032","Match","Exact","5408 KENNINGTON PL, FAIRFAX, VA, 22032",76004848,"L"
241915,"5408 KING RICHARD AVE","LAWTON","OK",73505,34.6373960080001,-98.460668598,415,"5408 KING RICHARD AVE, LAWTON, OK, 73505","Match","Exact","5408 KING RICHARD AVE, LAWTON, OK, 73505",652030894,"L"
241916,"5408 MOUNTAIN WAY","CASPER","WY",82601,42.8004946180001,-106.329475803,416,"5408 MOUNTAIN WAY, CASPER, WY, 82601","Match","Exact","5408 MOUNTAIN WAY, CASPER, WY, 82601",149037754,"L"
241917,"5408 OAKRIDGE CIRCLE","SACHSE","TX",75048,32.9719480890001,-96.5616922629999,417,"5408 OAKRIDGE CIRCLE, SACHSE, TX, 75048","Match","Exact","5408 OAKRIDGE CIR, SACHSE, TX, 75048",103257774,"L"
241918,"5408 PARKSIDE PLACE","BALTIMORE","MD",21206,39.3190183840001,-76.5389011729999,418,"5408 PARKSIDE PLACE, BALTIMORE, MD, 21206","Match","Exact","5408 PARKSIDE PL, BALTIMORE, MD, 21206",635297495,"L"
241919,"5408 PECAN BROOK DR","AUSTIN","TX",78724,30.3139307060001,-97.654467246,419,"5408 PECAN BROOK DR, AUSTIN, TX, 78724","Match","Exact","5408 PECAN BROOK DR, AUSTIN, TX, 78724",63935317,"L"
241920,"5408 QUAIL DRIVE","RAPID CITY","SD",57702,43.9935707590001,-103.318968912,420,"5408 QUAIL DRIVE, RAPID CITY, SD, 57702","Match","Exact","5408 QUAIL DR, RAPID CITY, SD, 57702",205525366,"R"
241921,"5408 RIDGESON DRIVE","MCKINNEY","TX",75071,33.233316555,-96.688066667,421,"5408 RIDGESON DRIVE, MCKINNEY, TX, 75071","Match","Exact","5408 RIDGESON DR, MCKINNEY, TX, 75071",616525878,"L"
241922,"5408 RIVERSHORE RD","PORTSMOUTH","VA",23703,NA,NA,422,"5408 RIVERSHORE RD, PORTSMOUTH, VA, 23703","No_Match",NA,NA,NA,NA
241923,"5408 RUSSELL AVENUE APT 3","LOS ANGELES","CA",90027,34.104195324,-118.307522008,423,"5408 RUSSELL AVENUE APT 3, LOS ANGELES, CA, 90027","Match","Exact","5408 RUSSELL AVE, LOS ANGELES, CA, 90027",141597270,"L"
241924,"5408 S POPLAR AVE","BROKEN ARROW","OK",74011,35.999878423,-95.808721787,424,"5408 S POPLAR AVE, BROKEN ARROW, OK, 74011","Match","Exact","5408 S POPLAR AVE, BROKEN ARROW, OK, 74011",166464471,"R"
241925,"5408 SADDLE CLUB DRIVE","KALAMAZOO","MI",49009,42.20394406,-85.656083138,425,"5408 SADDLE CLUB DRIVE, KALAMAZOO, MI, 49009","Match","Exact","5408 SADDLE CLUB DR, KALAMAZOO, MI, 49009",12240669,"L"
241926,"5408 SECTION AVE","NORWOOD","OH",45212,39.1741685600001,-84.459158163,426,"5408 SECTION AVE, NORWOOD, OH, 45212","Match","Exact","5408 SECTION AVE, NORWOOD, OH, 45212",103928849,"R"
241927,"5408 TARA OAKS","ROSHARON","TX",77583,29.505504602,-95.428530209,427,"5408 TARA OAKS, ROSHARON, TX, 77583","Match","Non_Exact","5408 TARA OAKS CT, ROSHARON, TX, 77583",624811445,"R"
241928,"5408 TAYLOR ST","BLADENSBURG","MD",20710,38.94064525,-76.926038833,428,"5408 TAYLOR ST, BLADENSBURG, MD, 20710","Match","Exact","5408 TAYLOR ST, BLADENSBURG, MD, 20710",76307057,"L"
241929,"5408 VALERIE ST","BELLAIRE","TX",77401,29.6934966920001,-95.480908927,429,"5408 VALERIE ST, BELLAIRE, TX, 77401","Match","Exact","5408 VALERIE ST, BELLAIRE, TX, 77401",96609606,"R"
241930,"5408 WATERWOOD COURT","THE COLONY","TX",75056,33.0812241610001,-96.875832206,430,"5408 WATERWOOD COURT, THE COLONY, TX, 75056","Match","Exact","5408 WATERWOOD CT, THE COLONY, TX, 75056",103409414,"L"
241931,"5408 WINONA AVE","ST LOUIS","MO",63109,38.5913750010001,-90.28394586,431,"5408 WINONA AVE, ST LOUIS, MO, 63109","Match","Exact","5408 WINONA AVE, SAINT LOUIS, MO, 63109",107599701,"L"
241932,"54080 W 17600 N","PARK VALLEY","UT",84329,41.8169085920001,-113.337307919,432,"54080 W 17600 N, PARK VALLEY, UT, 84329","Match","Exact","54080 W 17600 N, PARK VALLEY, UT, 84329",153886203,"L"
241933,"5409 19TH AVENUE","BROOKLYN","NY",11204,40.623860001,-73.981798289,433,"5409 19TH AVENUE, BROOKLYN, NY, 11204","Match","Exact","5409 19TH AVE, BROOKLYN, NY, 11204",59089256,"L"
241934,"5409 8TH AVE FL2","BROOKLYN","NY",11220,40.638791632,-74.0061205759999,434,"5409 8TH AVE FL2, BROOKLYN, NY, 11220","Match","Exact","5409 8TH AVE, BROOKLYN, NY, 11220",59094848,"L"
241935,"5409 AVENUE F","AUSTIN","TX",78751,30.3189244000001,-97.720397524,435,"5409 AVENUE F, AUSTIN, TX, 78751","Match","Exact","5409 AVE F, AUSTIN, TX, 78751",63931817,"R"
241936,"5409 BARTRAM DRIVE UNIT 2B","PHILADELPHIA","PA",19143,39.931053778,-75.214564868,436,"5409 BARTRAM DRIVE UNIT 2B, PHILADELPHIA, PA, 19143","Match","Exact","5409 BARTRAM DR, PHILADELPHIA, PA, 19143",131445053,"R"
241937,"5409 BRYNHURST AVE","LOS ANGELES","CA",90043,33.9928771510001,-118.333309747,437,"5409 BRYNHURST AVE, LOS ANGELES, CA, 90043","Match","Exact","5409 BRYNHURST AVE, LOS ANGELES, CA, 90043",141654971,"R"
241938,"5409 CENTERVILLE LANE","DURHAM","NC",27713,35.8852621300001,-78.922884462,438,"5409 CENTERVILLE LANE, DURHAM, NC, 27713","Match","Exact","5409 CENTERVILLE LN, DURHAM, NC, 27713",618110670,"L"
241939,"5409 COUNTRY HILLS LANE","GLEN ALLEN","VA",23059,37.686830791,-77.616891841,439,"5409 COUNTRY HILLS LANE, GLEN ALLEN, VA, 23059","Match","Exact","5409 COUNTRY HILLS LN, GLEN ALLEN, VA, 23059",106671101,"L"
241940,"5409 DIMEBOX DRIVE","MCKINNEY","TX",75070,33.156004104,-96.686032493,440,"5409 DIMEBOX DRIVE, MCKINNEY, TX, 75070","Match","Exact","5409 DIMEBOX DR, MCKINNEY, TX, 75070",642936163,"L"
241941,"5409 E BUCKEYE ROAD","MADISON","WI",53716,43.073460627,-89.2881512339999,441,"5409 E BUCKEYE ROAD, MADISON, WI, 53716","Match","Exact","5409 E BUCKEYE RD, MADISON, WI, 53716",49479618,"R"
241942,"5409 E HIDDEN SPRINGS DR","PERKINS","OK",74059,35.9742302280001,-96.9858528249999,442,"5409 E HIDDEN SPRINGS DR, PERKINS, OK, 74059","Match","Exact","5409 E HIDDEN SPRINGS DR, PERKINS, OK, 74059",166393940,"R"
241943,"5409 LEWELLEN AVENUE","GWYNN OAK","MD",21207,39.3306226610001,-76.7152127319999,443,"5409 LEWELLEN AVENUE, GWYNN OAK, MD, 21207","Match","Exact","5409 LEWELLEN AVE, GWYNN OAK, MD, 21207",191469363,"L"
241944,"5409 MALLARD LANE","CAMBRIDGE","MD",21613,38.5540904540001,-76.016571771,444,"5409 MALLARD LANE, CAMBRIDGE, MD, 21613","Match","Exact","5409 MALLARD LN, CAMBRIDGE, MD, 21613",99675762,"R"
241945,"5409 RED FOX DR","OAK RIDGE","NC",27310,36.158497943,-80.00713991,445,"5409 RED FOX DR, OAK RIDGE, NC, 27310","Match","Exact","5409 RED FOX DR, OAK RIDGE, NC, 27310",634128152,"L"
241946,"5409 RIXEYVILLE RD","RIXEYVILLE","VA",22737,38.6258562890001,-77.9393925589999,446,"5409 RIXEYVILLE RD, RIXEYVILLE, VA, 22737","Match","Exact","5409 RIXEYVILLE RD, RIXEYVILLE, VA, 22737",29850243,"R"
241947,"5409 STONE MEADOW LANE","FORT WORTH","TX",76179,32.8548195500001,-97.403578266,447,"5409 STONE MEADOW LANE, FORT WORTH, TX, 76179","Match","Exact","5409 STONE MEADOW LN, FORT WORTH, TX, 76179",619874055,"L"
241948,"5409 UTICA SELLERSBURG RD","SELLERSBURG","IN",47172,38.3699729050001,-85.726706887,448,"5409 UTICA SELLERSBURG RD, SELLERSBURG, IN, 47172","Match","Exact","5409 UTICA SELLERSBURG RD, SELLERSBURG, IN, 47172",624577785,"L"
241949,"5409 W PEA RIDGE RD","HUNTINGTON","WV",25705,38.4095087690001,-82.337133071,449,"5409 W PEA RIDGE RD, HUNTINGTON, WV, 25705","Match","Exact","5409 W PEA RIDGE RD, HUNTINGTON, WV, 25705",647870597,"L"
241950,"5409 W SIESTA WAY","LAVEEN","AZ",85339,33.3645799720001,-112.175636883,450,"5409 W SIESTA WAY, LAVEEN, AZ, 85339","Match","Exact","5409 W SIESTA WAY, LAVEEN, AZ, 85339",614553269,"L"
241951,"5409 WATERS AVENUE","SAVANNAH","GA",31404,32.0275683990001,-81.093434356,451,"5409 WATERS AVENUE, SAVANNAH, GA, 31404","Match","Exact","5409 WATERS AVE, SAVANNAH, GA, 31404",6178467,"R"
241952,"5409 YE OLD POST ROAD - APT 2","LOUISVILLE","KY",40219,NA,NA,452,"5409 YE OLD POST ROAD - APT 2, LOUISVILLE, KY, 40219","No_Match",NA,NA,NA,NA
241953,"541  10TH STREET NW  SUITE 177","ATLANTA","GA",30318,33.781549705,-84.405212163,453,"541  10TH STREET NW  SUITE 177, ATLANTA, GA, 30318","Match","Exact","541 10TH ST NW, ATLANTA, GA, 30318",17342095,"R"
241954,"541  TEXTER MOUNTAIN ROAD","ROBESONIA","PA",19551,40.3239946840001,-76.139301744,454,"541  TEXTER MOUNTAIN ROAD, ROBESONIA, PA, 19551","Match","Exact","541 TEXTER MOUNTAIN RD, ROBESONIA, PA, 19551",80417353,"L"
241955,"541 10TH ST NW STE 213","ATLANTA","GA",30318,33.781549705,-84.405212163,455,"541 10TH ST NW STE 213, ATLANTA, GA, 30318","Match","Exact","541 10TH ST NW, ATLANTA, GA, 30318",17342095,"R"
241956,"541 10TH ST SUITE 168","ATLANTA","GA",30318,33.781549705,-84.405212163,456,"541 10TH ST SUITE 168, ATLANTA, GA, 30318","Match","Non_Exact","541 10TH ST NW, ATLANTA, GA, 30318",17342095,"R"
241957,"541 1ST ST BLDG 308","LAUGHLIN AFB","TX",78843,NA,NA,457,"541 1ST ST BLDG 308, LAUGHLIN AFB, TX, 78843","No_Match",NA,NA,NA,NA
241958,"541 AVENUE M","BOULDER CITY","NV",89005,35.978302334,-114.82721988,458,"541 AVENUE M, BOULDER CITY, NV, 89005","Match","Exact","541 AVE M, BOULDER CITY, NV, 89005",201830893,"R"
241959,"541 BLUE HOLE ROAD","CAMPBELLSVILLE","KY",42718,37.2985927030001,-85.349768884,459,"541 BLUE HOLE ROAD, CAMPBELLSVILLE, KY, 42718","Match","Exact","541 BLUE HOLE RD, CAMPBELLSVILLE, KY, 42718",35248011,"L"
241960,"541 BRADLEY DRIVE","NORTH AUGUSTA","SC",29841,33.515406941,-81.93788048,460,"541 BRADLEY DRIVE, NORTH AUGUSTA, SC, 29841","Match","Exact","541 BRADLEY DR, NORTH AUGUSTA, SC, 29841",65042562,"R"
241961,"541 COLLEGE STREET","LEWISTON","ME",4240,44.11994122,-70.192868405,461,"541 COLLEGE STREET, LEWISTON, ME, 4240","Match","Exact","541 COLLEGE ST, LEWISTON, ME, 04240",77962376,"R"
241962,"541 CORNELIA STREET","JANESVILLE","WI",53545,42.6910240720001,-89.021198168,462,"541 CORNELIA STREET, JANESVILLE, WI, 53545","Match","Exact","541 CORNELIA ST, JANESVILLE, WI, 53545",49853783,"L"
241963,"541 CURTIN CT","LAS VEGAS","NV",89123,36.017992528,-115.151711736,463,"541 CURTIN CT, LAS VEGAS, NV, 89123","Match","Exact","541 CURTIN CT, LAS VEGAS, NV, 89123",201951943,"L"
241964,"541 DANIEL DRIVE","NORTH VERNON","IN",47265,38.9932369740001,-85.648589304,464,"541 DANIEL DRIVE, NORTH VERNON, IN, 47265","Match","Exact","541 DANIEL DR, NORTH VERNON, IN, 47265",30121046,"R"
241965,"541 DOMENICO CIRCLE","ST AUGUSTINE","FL",32086,29.795436914,-81.3080803289999,465,"541 DOMENICO CIRCLE, ST AUGUSTINE, FL, 32086","Match","Exact","541 DOMENICO CIR, SAINT AUGUSTINE, FL, 32086",637525643,"R"
241966,"541 E 20TH STREET  APT 14G","NEW YORK","NY",10010,40.733360502,-73.976100636,466,"541 E 20TH STREET  APT 14G, NEW YORK, NY, 10010","Match","Non_Exact","541 E 20TH ST, NEW YORK, NY, 10010",611237896,"L"
241967,"541 E 213TH ST","CARON","CA",90745,33.8353649330001,-118.26658101,467,"541 E 213TH ST, CARON, CA, 90745","Match","Non_Exact","541 E 213TH ST, CARSON, CA, 90745",142766689,"L"
241968,"541 E ELM","HUNTSVILLE","MO",65259,39.4388718660001,-92.531263727,468,"541 E ELM, HUNTSVILLE, MO, 65259","Match","Non_Exact","541 E ELM ST, HUNTSVILLE, MO, 65259",652849894,"R"
241969,"541 E MICHELL DR","UNION","WA",98592,NA,NA,469,"541 E MICHELL DR, UNION, WA, 98592","No_Match",NA,NA,NA,NA
241970,"541 E PATAPSCO AVE SUITE 204","BALTIMORE","MD",21225,39.3109643380001,-76.498720622,470,"541 E PATAPSCO AVE SUITE 204, BALTIMORE, MD, 21225","Match","Non_Exact","541 PATAPSCO AVE, BALTIMORE, MD, 21237",191524428,"L"
241971,"541 E WASHINGTON AVE","BETHLEHEM","PA",18017,40.6341304860001,-75.364587398,471,"541 E WASHINGTON AVE, BETHLEHEM, PA, 18017","Match","Exact","541 E WASHINGTON AVE, BETHLEHEM, PA, 18017",639156694,"L"
241972,"541 EAST 147TH STREET APT 7541","BRONX","NY",10455,40.813343651,-73.9148679959999,472,"541 EAST 147TH STREET APT 7541, BRONX, NY, 10455","Match","Exact","541 E 147TH ST, BRONX, NY, 10455",80300776,"L"
241973,"541 EASTRIDGE DR","HAILEY","ID",83333,43.519548523,-114.302517043,473,"541 EASTRIDGE DR, HAILEY, ID, 83333","Match","Exact","541 EASTRIDGE DR, HAILEY, ID, 83333",105228378,"R"
241974,"541 ENTERPRISE DRIVE","ROHNERT PARK","CA",94928,38.3446189090001,-122.703059736,474,"541 ENTERPRISE DRIVE, ROHNERT PARK, CA, 94928","Match","Exact","541 ENTERPRISE DR, ROHNERT PARK, CA, 94928",605107719,"R"
241975,"541 FISHER STREET","WALPOLE","MA",2081,42.180441586,-71.244609881,475,"541 FISHER STREET, WALPOLE, MA, 2081","Match","Exact","541 FISHER ST, WALPOLE, MA, 02081",87297070,"R"
241976,"541 FOREST BLUFFS ROAD","AIKEN","SC",29803,33.4852908070001,-81.724712941,476,"541 FOREST BLUFFS ROAD, AIKEN, SC, 29803","Match","Non_Exact","541 FOREST BLUFF RD, AIKEN, SC, 29803",65019106,"R"
241977,"541 GARDNER ROAD","HORSHEHEADS","NY",14845,42.1784562670001,-76.846288414,477,"541 GARDNER ROAD, HORSHEHEADS, NY, 14845","Match","Non_Exact","541 GARDNER RD, HORSEHEADS, NY, 14845",18568211,"L"
241978,"541 GLEN ARDEN DRIVE","PITTSBURGH","PA",15208,40.4476138730001,-79.91218594,478,"541 GLEN ARDEN DRIVE, PITTSBURGH, PA, 15208","Match","Exact","541 GLEN ARDEN DR, PITTSBURGH, PA, 15208",51646817,"L"
241979,"541 HARLEY O STAGGERS DR SUITE 2","KEYSER","WV",26726,NA,NA,479,"541 HARLEY O STAGGERS DR SUITE 2, KEYSER, WV, 26726","No_Match",NA,NA,NA,NA
241980,"541 HARLEY O STAGGERS DRIVE STE 2","KEYSER","WV",26726,NA,NA,480,"541 HARLEY O STAGGERS DRIVE STE 2, KEYSER, WV, 26726","No_Match",NA,NA,NA,NA
241981,"541 HARLEY O STAGGERS DRIVE SUITE 2","KEYSER","WV",26726,NA,NA,481,"541 HARLEY O STAGGERS DRIVE SUITE 2, KEYSER, WV, 26726","No_Match",NA,NA,NA,NA
241982,"541 HARLEY STAGGERS DRIVE","KEYSER","WV",26726,NA,NA,482,"541 HARLEY STAGGERS DRIVE, KEYSER, WV, 26726","No_Match",NA,NA,NA,NA
241983,"541 HARLEY STAGGERS ROAD SUITE 2","KEYSER","WV",26726,NA,NA,483,"541 HARLEY STAGGERS ROAD SUITE 2, KEYSER, WV, 26726","No_Match",NA,NA,NA,NA
241984,"541 HARLEY STAGGS ROAD STE 2","KEYSER","WV",26726,NA,NA,484,"541 HARLEY STAGGS ROAD STE 2, KEYSER, WV, 26726","No_Match",NA,NA,NA,NA
241985,"541 KONEN AVE","AURORA","IL",60505,41.7928611190001,-88.30330822,485,"541 KONEN AVE, AURORA, IL, 60505","Match","Exact","541 KONEN AVE, AURORA, IL, 60505",119512735,"R"
241986,"541 KYLEA LAIRD DR","FREEORT","FL",32439,30.498868067,-86.134037666,486,"541 KYLEA LAIRD DR, FREEORT, FL, 32439","Match","Non_Exact","541 KYLEA LAIRD DR, FREEPORT, FL, 32439",32992684,"R"
241987,"541 LIBRARY DRIVE","SAULT STE MARIE","MI",49783,46.495562985,-84.348474583,487,"541 LIBRARY DRIVE, SAULT STE MARIE, MI, 49783","Match","Non_Exact","541 LIBRARY DR, SAULT SAINTE MARIE, MI, 49783",130549998,"R"
241988,"541 LOCUST STREET","LEBANON","MO",65536,37.684621108,-92.660324606,488,"541 LOCUST STREET, LEBANON, MO, 65536","Match","Exact","541 LOCUST ST, LEBANON, MO, 65536",26098548,"R"
241989,"541 MASSACHUSETTS AVENUE","CAMBRIDGE","MA",2139,42.364534103,-71.102209726,489,"541 MASSACHUSETTS AVENUE, CAMBRIDGE, MA, 2139","Match","Exact","541 MASSACHUSETTS AVE, CAMBRIDGE, MA, 02139",86870059,"R"
241990,"541 MAXWELL STREET","CHESAPEAKE","VA",23322,36.7101642100001,-76.144775056,490,"541 MAXWELL STREET, CHESAPEAKE, VA, 23322","Match","Exact","541 MAXWELL ST, CHESAPEAKE, VA, 23322",121791509,"L"
241991,"541 MCCOUN RD","SMITHFIELD","KY",40068,38.3762047610001,-85.253293363,491,"541 MCCOUN RD, SMITHFIELD, KY, 40068","Match","Exact","541 MCCOUN RD, SMITHFIELD, KY, 40068",95303283,"L"
241992,"541 MCKINLEY","GARY","IN",46404,41.600736462,-87.362962597,492,"541 MCKINLEY, GARY, IN, 46404","Match","Non_Exact","541 MCKINLEY ST, GARY, IN, 46404",606330523,"L"
241993,"541 MERLIN DRIVE","SAN DIEGO","CA",92114,32.7105591760001,-117.071057302,493,"541 MERLIN DRIVE, SAN DIEGO, CA, 92114","Match","Exact","541 MERLIN DR, SAN DIEGO, CA, 92114",195352159,"R"
241994,"541 MERRITT MORNING WAY SUITE 211","ALTAMONTE SPRINGS","FL",33701,NA,NA,494,"541 MERRITT MORNING WAY SUITE 211, ALTAMONTE SPRINGS, FL, 33701","No_Match",NA,NA,NA,NA
241995,"541 MIDDLE ROAD","PORTSMOUTH","RI",2871,41.5771103860001,-71.259401414,495,"541 MIDDLE ROAD, PORTSMOUTH, RI, 2871","Match","Exact","541 MIDDLE RD, PORTSMOUTH, RI, 02871",624535637,"L"
241996,"541 MILLGATE RD","BELLEFONTE","PA",16823,40.8952128330001,-77.806873044,496,"541 MILLGATE RD, BELLEFONTE, PA, 16823","Match","Exact","541 MILLGATE RD, BELLEFONTE, PA, 16823",624913534,"L"
241997,"541 MOUNTAIN AVE","GILLETTE","NJ",7933,40.6736351050001,-74.465860528,497,"541 MOUNTAIN AVE, GILLETTE, NJ, 7933","Match","Exact","541 MOUNTAIN AVE, GILLETTE, NJ, 07933",60449780,"L"
241998,"541 N 5TH AVE","SEQUIM","WA",98382,48.084076259,-123.113134536,498,"541 N 5TH AVE, SEQUIM, WA, 98382","Match","Exact","541 N 5TH AVE, SEQUIM, WA, 98382",606559073,"L"
241999,"541 N DANIELSON WAY","CHANDLER","AZ",85225,33.312124023,-111.798800574,499,"541 N DANIELSON WAY, CHANDLER, AZ, 85225","Match","Exact","541 N DANIELSON WAY, CHANDLER, AZ, 85225",128968768,"R"
242000,"541 NE 71ST STREET","MIAMI","FL",33138,25.856034559,-80.123628432,500,"541 NE 71ST STREET, MIAMI, FL, 33138","Match","Non_Exact","541 71ST ST, MIAMI, FL, 33141",116009320,"R"
