"ID","Address","City","State","Zip","lat","long","id","input_address","match_indicator","match_type","matched_address","tiger_line_id","tiger_side"
259501,"6161 OAKLAND MILLS RD","ELDERSBURG","MD",21784,39.404276076,-76.9000204719999,1,"6161 OAKLAND MILLS RD, ELDERSBURG, MD, 21784","Match","Exact","6161 OAKLAND MILLS RD, ELDERSBURG, MD, 21784",61756733,"L"
259502,"6161 REIMS RD APT 1205","HOUSTON","TX",77036,29.712481402,-95.5157043409999,2,"6161 REIMS RD APT 1205, HOUSTON, TX, 77036","Match","Exact","6161 REIMS RD, HOUSTON, TX, 77036",96614124,"L"
259503,"6161 SAVOY DR STE 1010","HOUSTON","TX",77026,29.7161028360001,-95.504877575,3,"6161 SAVOY DR STE 1010, HOUSTON, TX, 77026","Match","Non_Exact","6161 SAVOY DR, HOUSTON, TX, 77036",644737113,"L"
259504,"6161 SMOKEY HOLLOW ROAD","JAMESVILLE","NY",13078,42.9818802620001,-76.094345803,4,"6161 SMOKEY HOLLOW ROAD, JAMESVILLE, NY, 13078","Match","Exact","6161 SMOKEY HOLLOW RD, JAMESVILLE, NY, 13078",652981756,"L"
259505,"6161 TRANSIT ROAD","EAST AMHERST","NY",14051,43.0127972720001,-78.696931616,5,"6161 TRANSIT ROAD, EAST AMHERST, NY, 14051","Match","Exact","6161 TRANSIT RD, EAST AMHERST, NY, 14051",638554115,"R"
259506,"6162 CHINABERRY DR","COLUMBUS","OH",43213,39.9583298090001,-82.833540445,6,"6162 CHINABERRY DR, COLUMBUS, OH, 43213","Match","Exact","6162 CHINABERRY DR, COLUMBUS, OH, 43213",135594609,"L"
259507,"6162 E SAGE STREET","INVERNESS","FM",34452,NA,NA,7,"6162 E SAGE STREET, INVERNESS, FM, 34452","No_Match",NA,NA,NA,NA
259508,"6162 GRAHAM POINT","ROYSE CITY","TX",75189,32.9668461910001,-96.230635851,8,"6162 GRAHAM POINT, ROYSE CITY, TX, 75189","Match","Non_Exact","6162 GRAHAM POINT TRL, ROYSE CITY, TX, 75189",627797271,"L"
259509,"6162 SALEM ROAD","MYRTLE BEACH","SC",29588,33.6219191820001,-79.0570161109999,9,"6162 SALEM ROAD, MYRTLE BEACH, SC, 29588","Match","Exact","6162 SALEM RD, MYRTLE BEACH, SC, 29588",648911576,"R"
259510,"6163 GALLOWAY LANE","LEAGUE CITY","TX",77573,29.4796769020001,-95.16230023,10,"6163 GALLOWAY LANE, LEAGUE CITY, TX, 77573","Match","Exact","6163 GALLOWAY LN, LEAGUE CITY, TX, 77573",96743246,"R"
259511,"6163 HORSEPASTURE PRICE RD","RIDGEWAY","VA",24148,36.5486159970001,-79.930983579,11,"6163 HORSEPASTURE PRICE RD, RIDGEWAY, VA, 24148","Match","Exact","6163 HORSEPASTURE PRICE RD, RIDGEWAY, VA, 24148",55525698,"R"
259512,"6163 KEARNY WAY","SAN RAMON","CA",94582,37.75064981,-121.8872099,12,"6163 KEARNY WAY, SAN RAMON, CA, 94582","Match","Exact","6163 KEARNY WAY, SAN RAMON, CA, 94582",634158678,"R"
259513,"6163 KNIGHT ARNOLD ROAD EXT","MEMPHIS","TN",38115,35.060236162,-89.857952262,13,"6163 KNIGHT ARNOLD ROAD EXT, MEMPHIS, TN, 38115","Match","Non_Exact","6163 KNIGHT ARNOLD RD EXD, MEMPHIS, TN, 38115",72969418,"R"
259514,"6163 NW 86TH STREET SUITE 105","JOHNSON","IA",50131,41.672150109,-93.736465508,14,"6163 NW 86TH STREET SUITE 105, JOHNSON, IA, 50131","Match","Non_Exact","6163 NW 86TH ST, JOHNSTON, IA, 50131",65801578,"R"
259515,"6163 RUSH LIMA RD","RUSH","NY",14543,42.990840459,-77.641521477,15,"6163 RUSH LIMA RD, RUSH, NY, 14543","Match","Exact","6163 RUSH LIMA RD, RUSH, NY, 14543",14571410,"R"
259516,"6163 RUSH-LIMA RD","RUSH","NY",14543,42.990840459,-77.641521477,16,"6163 RUSH-LIMA RD, RUSH, NY, 14543","Match","Non_Exact","6163 RUSH LIMA RD, RUSH, NY, 14543",14571410,"R"
259517,"61637 116TH ST","MINNESOTA LAKE","MN",56068,NA,NA,17,"61637 116TH ST, MINNESOTA LAKE, MN, 56068","No_Match",NA,NA,NA,NA
259518,"6164 E ROYAL PALM RD","PARADISE VALLEY","AZ",85253,33.5580008330001,-111.94924434,18,"6164 E ROYAL PALM RD, PARADISE VALLEY, AZ, 85253","Match","Exact","6164 E ROYAL PALM RD, PARADISE VALLEY, AZ, 85253",128602298,"L"
259519,"6164 RICHMOND AVE 206","HOUSTON","TX",77057,29.7317941590001,-95.488736294,19,"6164 RICHMOND AVE 206, HOUSTON, TX, 77057","Match","Exact","6164 RICHMOND AVE, HOUSTON, TX, 77057",96620223,"R"
259520,"6164 S PACIFIC COAST HWY APT 5","REDONDO BEACH","CA",90277,NA,NA,20,"6164 S PACIFIC COAST HWY APT 5, REDONDO BEACH, CA, 90277","No_Match",NA,NA,NA,NA
259521,"6164 STRATFORD AVE","BATON ROUGE","LA",70808,30.416537991,-91.123353687,21,"6164 STRATFORD AVE, BATON ROUGE, LA, 70808","Match","Exact","6164 STRATFORD AVE, BATON ROUGE, LA, 70808",92189450,"R"
259522,"6164 VILLAGE DRIVE NW","CONCORD","NC",28027,35.4102123210001,-80.676745356,22,"6164 VILLAGE DRIVE NW, CONCORD, NC, 28027","Match","Exact","6164 VILLAGE DR NW, CONCORD, NC, 28027",641626340,"L"
259523,"6164 WOODLAKE RD","JUPITER","FL",33458,26.961042214,-80.131016683,23,"6164 WOODLAKE RD, JUPITER, FL, 33458","Match","Non_Exact","6164 WOOD LAKE RD, JUPITER, FL, 33458",115260632,"R"
259524,"6165 CABIN CREEK ROAD","HOPKINS","SC",29061,33.9095853470001,-80.8698152709999,24,"6165 CABIN CREEK ROAD, HOPKINS, SC, 29061","Match","Exact","6165 CABIN CREEK RD, HOPKINS, SC, 29061",71853079,"L"
259525,"6165 COLUMBIA","SAINT LOUIS","MO",63139,38.6126088070001,-90.2919529179999,25,"6165 COLUMBIA, SAINT LOUIS, MO, 63139","Match","Non_Exact","6165 COLUMBIA AVE, SAINT LOUIS, MO, 63139",107606988,"R"
259526,"6165 EL CAJON BLVD APT C","SAN DIEGO","CA",92115,NA,NA,26,"6165 EL CAJON BLVD APT C, SAN DIEGO, CA, 92115","No_Match",NA,NA,NA,NA
259527,"6165 EMILY LANE","LONGVIEW","TX",75605,32.5078319020001,-94.633341313,27,"6165 EMILY LANE, LONGVIEW, TX, 75605","Match","Non_Exact","6165 EMILY CIR, LONGVIEW, TX, 75605",141188539,"L"
259528,"6165 STERLING AVE","MAYS LANDING","NJ",8330,39.4519481900001,-74.830703061,28,"6165 STERLING AVE, MAYS LANDING, NJ, 8330","Match","Exact","6165 STERLING AVE, MAYS LANDING, NJ, 08330",202524966,"L"
259529,"6165 THACKER DIARY ROAD","WHITSETT","NC",27377,35.996497318,-79.636344112,29,"6165 THACKER DIARY ROAD, WHITSETT, NC, 27377","Match","Non_Exact","6165 THACKER DAIRY RD, WHITSETT, NC, 27377",635781523,"R"
259530,"6166 BREEZE POINT DRIVE","GONZALES","LA",70737,30.158739,-90.930411328,30,"6166 BREEZE POINT DRIVE, GONZALES, LA, 70737","Match","Exact","6166 BREEZE POINT DR, GONZALES, LA, 70737",628443056,"R"
259531,"6166 COLBATH AVE","VAN NUYS","CA",91401,34.1826988240001,-118.436694814,31,"6166 COLBATH AVE, VAN NUYS, CA, 91401","Match","Exact","6166 COLBATH AVE, VAN NUYS, CA, 91401",141561319,"R"
259532,"6166 FAIRVIEW LN","HOUSE SPRINGS","MO",63051,38.3481536030001,-90.517402998,32,"6166 FAIRVIEW LN, HOUSE SPRINGS, MO, 63051","Match","Exact","6166 FAIRVIEW LN, HOUSE SPRINGS, MO, 63051",607856388,"R"
259533,"6166 HIGHWAY 206 WEST","HARRISON","AR",72601,36.1810487700001,-93.175772217,33,"6166 HIGHWAY 206 WEST, HARRISON, AR, 72601","Match","Non_Exact","6166 STATE HWY 206 W, HARRISON, AR, 72601",19981447,"L"
259534,"6166 N SHERIDAN RD","CHICAGO","IL",60660,41.994318225,-87.655520904,34,"6166 N SHERIDAN RD, CHICAGO, IL, 60660","Match","Exact","6166 N SHERIDAN RD, CHICAGO, IL, 60660",111889280,"L"
259535,"6166 S  SANDHILL RD STE 110","LAS VEGAS","NV",89120,36.0774342500001,-115.091568043,35,"6166 S  SANDHILL RD STE 110, LAS VEGAS, NV, 89120","Match","Non_Exact","6166 S SANDHILL RD, LAS VEGAS, NV, 89120",201911839,"L"
259536,"6167 104TH CIRCLE NORTH","BROOKLYN PARK","MN",55443,45.143156495,-93.357184535,36,"6167 104TH CIRCLE NORTH, BROOKLYN PARK, MN, 55443","Match","Non_Exact","6167 104TH CIR, BROOKLYN PARK, MN, 55443",641219890,"R"
259537,"6167 BLUE DAWN TRL","SAN DIEGO","CA",92130,32.965960637,-117.188447114,37,"6167 BLUE DAWN TRL, SAN DIEGO, CA, 92130","Match","Exact","6167 BLUE DAWN TRL, SAN DIEGO, CA, 92130",619520633,"R"
259538,"6167 N 39TH ST","MILWAUKEE","WI",53209,43.130165183,-87.960885936,38,"6167 N 39TH ST, MILWAUKEE, WI, 53209","Match","Exact","6167 N 39TH ST, MILWAUKEE, WI, 53209",641664947,"L"
259539,"6167 ROSSI DR","CANAL WINCHESTER","OH",43110,39.8822660120001,-82.833592284,39,"6167 ROSSI DR, CANAL WINCHESTER, OH, 43110","Match","Exact","6167 ROSSI DR, CANAL WINCHESTER, OH, 43110",218666155,"R"
259540,"6167 TALBOT ST","NORTH PORT","FL",34287,27.043303059,-82.251320666,40,"6167 TALBOT ST, NORTH PORT, FL, 34287","Match","Exact","6167 TALBOT ST, NORTH PORT, FL, 34287",16337379,"L"
259541,"6168 CENTER GROVE ROAD","EDWARDSVILLE","IL",62025,38.7873030280001,-89.9781124579999,41,"6168 CENTER GROVE ROAD, EDWARDSVILLE, IL, 62025","Match","Exact","6168 CENTER GROVE RD, EDWARDSVILLE, IL, 62025",107740500,"R"
259542,"6168 MISTY MEADOWS DRIVE","HOUSE SPRING","MO",63051,NA,NA,42,"6168 MISTY MEADOWS DRIVE, HOUSE SPRING, MO, 63051","No_Match",NA,NA,NA,NA
259543,"6168 PANORAMA STREET","JOSHUA TREE","CA",92252,NA,NA,43,"6168 PANORAMA STREET, JOSHUA TREE, CA, 92252","No_Match",NA,NA,NA,NA
259544,"6168 PRINCESS GARDEN PKWY","LANHAM","MD",20706,38.967496312,-76.864979225,44,"6168 PRINCESS GARDEN PKWY, LANHAM, MD, 20706","Match","Exact","6168 PRINCESS GARDEN PKWY, LANHAM, MD, 20706",76308472,"L"
259545,"6168 SOUTHWELL LANE","LEAGUE CITY","TX",77573,29.479471803,-95.15907662,45,"6168 SOUTHWELL LANE, LEAGUE CITY, TX, 77573","Match","Exact","6168 SOUTHWELL LN, LEAGUE CITY, TX, 77573",96743701,"L"
259546,"61682 DAILEY RD","CASSOPOLIS","MI",49031,41.9056733720001,-86.087548334,46,"61682 DAILEY RD, CASSOPOLIS, MI, 49031","Match","Non_Exact","61682 DAILY RD, CASSOPOLIS, MI, 49031",624203913,"L"
259547,"6169 BRANCHWOOD DRIVE","LAKE WORTH","FL",33467,26.584561792,-80.172359759,47,"6169 BRANCHWOOD DRIVE, LAKE WORTH, FL, 33467","Match","Exact","6169 BRANCHWOOD DR, LAKE WORTH, FL, 33467",115503575,"L"
259548,"6169 GERALDINE COURT","BANGOR","PA",18013,40.834947313,-75.115316245,48,"6169 GERALDINE COURT, BANGOR, PA, 18013","Match","Exact","6169 GERALDINE CT, BANGOR, PA, 18013",136896385,"R"
259549,"6169 STONE RD","MEDINA","OH",44256,41.1547869870001,-81.910541048,49,"6169 STONE RD, MEDINA, OH, 44256","Match","Exact","6169 STONE RD, MEDINA, OH, 44256",601199242,"R"
259550,"61691 733 RD","TECUMSEH","NE",68450,40.450406162,-96.258285139,50,"61691 733 RD, TECUMSEH, NE, 68450","Match","Exact","61691 733 RD, TECUMSEH, NE, 68450",639618694,"R"
259551,"617 24TH AVENUE NE","MINNEAPOLIS","MN",55418,45.0121730500001,-93.258323875,51,"617 24TH AVENUE NE, MINNEAPOLIS, MN, 55418","Match","Exact","617 24TH AVE NE, MINNEAPOLIS, MN, 55418",43631076,"L"
259552,"617 2ND ST","MILFORD","NE",68405,40.773177918,-97.0520754,52,"617 2ND ST, MILFORD, NE, 68405","Match","Exact","617 2ND ST, MILFORD, NE, 68405",39458968,"L"
259553,"617 5TH STREET","BIRMINGHAM","AL",35214,33.530000795,-86.884280613,53,"617 5TH STREET, BIRMINGHAM, AL, 35214","Match","Exact","617 5TH ST, BIRMINGHAM, AL, 35214",81681163,"R"
259554,"617 5TH STREET","FORESTDALE","AL",35214,33.530000795,-86.884280613,54,"617 5TH STREET, FORESTDALE, AL, 35214","Match","Exact","617 5TH ST, FORESTDALE, AL, 35214",81681163,"R"
259555,"617 5TH STREET","NEWARK","VA",19711,NA,NA,55,"617 5TH STREET, NEWARK, VA, 19711","No_Match",NA,NA,NA,NA
259556,"617 9TH AVENUE SE","WASECA","MN",56093,44.0713934940001,-93.499829961,56,"617 9TH AVENUE SE, WASECA, MN, 56093","Match","Exact","617 9TH AVE SE, WASECA, MN, 56093",28723100,"L"
259557,"617 B EAST BROAD AVE","ROCKINGHAM","NC",28379,34.955637822,-79.814616971,57,"617 B EAST BROAD AVE, ROCKINGHAM, NC, 28379","Match","Non_Exact","617 BROAD AVE, ROCKINGHAM, NC, 28379",642401325,"L"
259558,"617 BILTMORE DRIVE","NORTH AUGUSTA","SC",29841,33.488939977,-81.949191496,58,"617 BILTMORE DRIVE, NORTH AUGUSTA, SC, 29841","Match","Exact","617 BILTMORE DR, NORTH AUGUSTA, SC, 29841",65019543,"R"
259559,"617 BOTTOM QUAY","CHESAPEAKE","VA",23320,36.7355610590001,-76.277716577,59,"617 BOTTOM QUAY, CHESAPEAKE, VA, 23320","Match","Exact","617 BOTTOM QUAY, CHESAPEAKE, VA, 23320",121783262,"R"
259560,"617 BOYLSTON ST","BROOKLINE","MA",2445,42.327202716,-71.1387358489999,60,"617 BOYLSTON ST, BROOKLINE, MA, 2445","Match","Exact","617 BOYLSTON ST, BROOKLINE, MA, 02445",87294828,"R"
259561,"617 BROAD STREET","SELMA","AL",36701,NA,NA,61,"617 BROAD STREET, SELMA, AL, 36701","No_Match",NA,NA,NA,NA
259562,"617 BROADWAY  781","SONOMA","CA",95476,38.2896481430001,-122.458215363,62,"617 BROADWAY  781, SONOMA, CA, 95476","Match","Exact","617 BROADWAY, SONOMA, CA, 95476",67481831,"L"
259563,"617 BROADWAY NUMBER 1637","SONOMA","CA",95476,38.2896481430001,-122.458215363,63,"617 BROADWAY NUMBER 1637, SONOMA, CA, 95476","Match","Exact","617 BROADWAY, SONOMA, CA, 95476",67481831,"L"
259564,"617 BROOKEDGE COURT","MITCHELLVILLE","MD",20721,38.8984542630001,-76.813294086,64,"617 BROOKEDGE COURT, MITCHELLVILLE, MD, 20721","Match","Exact","617 BROOKEDGE CT, MITCHELLVILLE, MD, 20721",76342532,"R"
259565,"617 BURKE GLENN RD","TOLEDO","OH",43607,41.645956697,-83.6352589219999,65,"617 BURKE GLENN RD, TOLEDO, OH, 43607","Match","Non_Exact","617 BURKE GLEN RD, TOLEDO, OH, 43607",33935508,"L"
259566,"617 CAMBRIDGE STREET","BOSTON","MA",2134,42.3520093450001,-71.141763713,66,"617 CAMBRIDGE STREET, BOSTON, MA, 2134","Match","Exact","617 CAMBRIDGE ST, BOSTON, MA, 02134",85727053,"R"
259567,"617 CAMP CREEK RD","UNION MILLS","NC",28167,35.490387049,-81.9311050809999,67,"617 CAMP CREEK RD, UNION MILLS, NC, 28167","Match","Exact","617 CAMP CREEK RD, UNION MILLS, NC, 28167",636785922,"L"
259568,"617 CASWELL ROAD","CHAPEL HILL","NC",27514,35.932257023,-79.0478334059999,68,"617 CASWELL ROAD, CHAPEL HILL, NC, 27514","Match","Exact","617 CASWELL RD, CHAPEL HILL, NC, 27514",72380108,"R"
259569,"617 CEDAR AVE 1","LONG BEACH","CA",90802,33.774537116,-118.195051511,69,"617 CEDAR AVE 1, LONG BEACH, CA, 90802","Match","Exact","617 CEDAR AVE, LONG BEACH, CA, 90802",141693872,"L"
259570,"617 CEDAR AVENUE S 272","MINNEAPOLIS","MN",55454,44.967411059,-93.247243421,70,"617 CEDAR AVENUE S 272, MINNEAPOLIS, MN, 55454","Match","Exact","617 CEDAR AVE S, MINNEAPOLIS, MN, 55454",43636989,"L"
259571,"617 CHERRY RD","CHICORA","PA",16025,40.9775352120001,-79.787857871,71,"617 CHERRY RD, CHICORA, PA, 16025","Match","Exact","617 CHERRY RD, CHICORA, PA, 16025",52651463,"L"
259572,"617 COHANNET ST","TAUNTON","MA",2780,41.890571686,-71.109006721,72,"617 COHANNET ST, TAUNTON, MA, 2780","Match","Exact","617 COHANNET ST, TAUNTON, MA, 02780",46760701,"L"
259573,"617 COLUMBIA AVENUE","LEXINGTON","KY",40508,38.030042988,-84.4963309949999,73,"617 COLUMBIA AVENUE, LEXINGTON, KY, 40508","Match","Exact","617 COLUMBIA AVE, LEXINGTON, KY, 40508",652740969,"L"
259574,"617 CORDELIA CIR","VACAVILLE","CA",95687,38.342688294,-121.990485802,74,"617 CORDELIA CIR, VACAVILLE, CA, 95687","Match","Exact","617 CORDELIA CIR, VACAVILLE, CA, 95687",192553101,"L"
259575,"617 DAISY DR","DESOTO","TX",75115,32.579830196,-96.885184173,75,"617 DAISY DR, DESOTO, TX, 75115","Match","Exact","617 DAISY DR, DESOTO, TX, 75115",103277845,"R"
259576,"617 DESOTO DR","LAPLACE","LA",70068,30.0957900270001,-90.477043856,76,"617 DESOTO DR, LAPLACE, LA, 70068","Match","Non_Exact","617 DESOTO DR, LA PLACE, LA, 70068",614108119,"L"
259577,"617 DREYSPRING WAY","PIKE ROAD","AL",36064,32.351791668,-86.077375334,77,"617 DREYSPRING WAY, PIKE ROAD, AL, 36064","Match","Exact","617 DREYSPRING WAY, PIKE ROAD, AL, 36064",1549154,"R"
259578,"617 E 3RD AVE","COLUMBUS","OH",43201,39.983390635,-82.987695716,78,"617 E 3RD AVE, COLUMBUS, OH, 43201","Match","Exact","617 E 3RD AVE, COLUMBUS, OH, 43201",135578934,"R"
259579,"617 E ELK AVE APT 4","GLENDALE","CA",91205,34.1417619640001,-118.247996813,79,"617 E ELK AVE APT 4, GLENDALE, CA, 91205","Match","Non_Exact","617 E ELK AVE, GLENDALE, CA, 91205",141611041,"L"
259580,"617 E LOOP 499 STE B","HARLINGEN","TX",78550,NA,NA,80,"617 E LOOP 499 STE B, HARLINGEN, TX, 78550","No_Match",NA,NA,NA,NA
259581,"617 E SHAWNEE ST","FREEPORT","IL",61032,42.291605524,-89.6095048619999,81,"617 E SHAWNEE ST, FREEPORT, IL, 61032","Match","Exact","617 E SHAWNEE ST, FREEPORT, IL, 61032",32695491,"R"
259582,"617 EAST OLIVE","FRESNO","CA",93728,36.7576507050001,-119.804004619,82,"617 EAST OLIVE, FRESNO, CA, 93728","Match","Non_Exact","617 E OLIVE AVE, FRESNO, CA, 93728",197578498,"L"
259583,"617 EDDIE ROBINSON SR DRIVE","BATON ROUGE","LA",70802,30.4423742560001,-91.175609368,83,"617 EDDIE ROBINSON SR DRIVE, BATON ROUGE, LA, 70802","Match","Exact","617 EDDIE ROBINSON SR DR, BATON ROUGE, LA, 70802",92182298,"L"
259584,"617 EMPIRE BOULEVARD","BROOKLYN","NY",11213,40.6640098560001,-73.9417530699999,84,"617 EMPIRE BOULEVARD, BROOKLYN, NY, 11213","Match","Exact","617 EMPIRE BLVD, BROOKLYN, NY, 11213",634254600,"L"
259585,"617 FALLEN TIMBER LN","MASCOUTAH","IL",62258,38.5042084610001,-89.8199478609999,85,"617 FALLEN TIMBER LN, MASCOUTAH, IL, 62258","Match","Exact","617 FALLEN TIMBER LN, MASCOUTAH, IL, 62258",601616524,"R"
259586,"617 FALLOWFIELD AVENUE","CHARLEROI","PA",15022,40.139277608,-79.8996791819999,86,"617 FALLOWFIELD AVENUE, CHARLEROI, PA, 15022","Match","Exact","617 FALLOWFIELD AVE, CHARLEROI, PA, 15022",52813467,"L"
259587,"617 FIELD CREST DR","CARROLL","IA",51401,42.0521143130001,-94.875495599,87,"617 FIELD CREST DR, CARROLL, IA, 51401","Match","Exact","617 FIELD CREST DR, CARROLL, IA, 51401",633294646,"L"
259588,"617 FLEMING ROAD","CINCINNATI","OH",45231,39.236236858,-84.501554284,88,"617 FLEMING ROAD, CINCINNATI, OH, 45231","Match","Exact","617 FLEMING RD, CINCINNATI, OH, 45231",103920290,"L"
259589,"617 FORESTWOOD DRIVE","BIRMINGHAM","AL",35214,33.5684332280001,-86.8899792029999,89,"617 FORESTWOOD DRIVE, BIRMINGHAM, AL, 35214","Match","Exact","617 FORESTWOOD DR, BIRMINGHAM, AL, 35214",81550638,"R"
259590,"617 FOXCROFT DRIVE","BEL AIR","MD",21014,39.5327021270001,-76.3352481219999,90,"617 FOXCROFT DRIVE, BEL AIR, MD, 21014","Match","Exact","617 FOXCROFT DR, BEL AIR, MD, 21014",191641460,"L"
259591,"617 GARDEN STREET","SANTA BARBARA","CA",93101,34.421129599,-119.693650715,91,"617 GARDEN STREET, SANTA BARBARA, CA, 93101","Match","Exact","617 GARDEN ST, SANTA BARBARA, CA, 93101",108605374,"L"
259592,"617 GROTON STREET","DUNSTABLE","MA",1827,42.65303936,-71.5295586399999,92,"617 GROTON STREET, DUNSTABLE, MA, 1827","Match","Exact","617 GROTON ST, DUNSTABLE, MA, 01827",87172643,"R"
259593,"617 HAMLIN STREET APT 4","WASHINGTON DC","DC",20017,38.9274196920001,-76.9973099379999,93,"617 HAMLIN STREET APT 4, WASHINGTON DC, DC, 20017","Match","Non_Exact","617 HAMLIN ST NE, WASHINGTON, DC, 20017",648397199,"R"
259594,"617 HANCOCK ST","BROOKLYN","NY",11233,40.684789175,-73.930501921,94,"617 HANCOCK ST, BROOKLYN, NY, 11233","Match","Exact","617 HANCOCK ST, BROOKLYN, NY, 11233",634254882,"L"
259595,"617 HARVEST HILL DRIVE","MURPHY","TX",75094,33.037856033,-96.627837917,95,"617 HARVEST HILL DRIVE, MURPHY, TX, 75094","Match","Exact","617 HARVEST HILL DR, MURPHY, TX, 75094",642947794,"R"
259596,"617 HIGH STREET BELL MOUNTAIN","DICKSON CITY","PA",18519,NA,NA,96,"617 HIGH STREET BELL MOUNTAIN, DICKSON CITY, PA, 18519","No_Match",NA,NA,NA,NA
259597,"617 HOWARD AVENUE  PO BOX 23","SAINT PAUL","NE",68873,41.2133793570001,-98.457069417,97,"617 HOWARD AVENUE  PO BOX 23, SAINT PAUL, NE, 68873","Match","Exact","617 HOWARD AVE, SAINT PAUL, NE, 68873",198188875,"L"
259598,"617 ISABELLA AVENUE","APOLLO","PA",15613,40.577904593,-79.564625721,98,"617 ISABELLA AVENUE, APOLLO, PA, 15613","Match","Exact","617 ISABELLA AVE, APOLLO, PA, 15613",52474645,"R"
259599,"617 JONES STREET","MONROE","NC",28110,34.9898010530001,-80.5217080309999,99,"617 JONES STREET, MONROE, NC, 28110","Match","Exact","617 JONES ST, MONROE, NC, 28110",636626691,"L"
259600,"617 KILLARNEY","RICHARDSON","TX",75081,32.9326858650001,-96.716860195,100,"617 KILLARNEY, RICHARDSON, TX, 75081","Match","Exact","617 KILLARNEY, RICHARDSON, TX, 75081",639645090,"L"
259601,"617 KLEVIN STREET","ANCHORAGE","AK",99508,61.2287974440001,-149.804633301,101,"617 KLEVIN STREET, ANCHORAGE, AK, 99508","Match","Non_Exact","617 N KLEVIN ST, ANCHORAGE, AK, 99508",190801503,"R"
259602,"617 LEXINGTON STREET","WALTHAM","MA",2452,42.3967911870001,-71.2355231719999,102,"617 LEXINGTON STREET, WALTHAM, MA, 2452","Match","Exact","617 LEXINGTON ST, WALTHAM, MA, 02452",87159222,"R"
259603,"617 LONE STAR DRIVE","ABILENE","TX",79602,32.3954600480001,-99.714346614,103,"617 LONE STAR DRIVE, ABILENE, TX, 79602","Match","Exact","617 LONE STAR DR, ABILENE, TX, 79602",637809025,"R"
259604,"617 MAGNOLIA AVE","AUBURNDALE","FL",33823,28.0588607880001,-81.789920061,104,"617 MAGNOLIA AVE, AUBURNDALE, FL, 33823","Match","Exact","617 MAGNOLIA AVE, AUBURNDALE, FL, 33823",104817078,"R"
259605,"617 MCDOWELL ROAD","RICHMOND","VA",23225,37.497378896,-77.513492797,105,"617 MCDOWELL ROAD, RICHMOND, VA, 23225","Match","Exact","617 MCDOWELL RD, RICHMOND, VA, 23225",201536853,"L"
259606,"617 MCGUFFEY DRIVE","MADISON","WI",53717,43.0731199410001,-89.5303278439999,106,"617 MCGUFFEY DRIVE, MADISON, WI, 53717","Match","Exact","617 MCGUFFEY DR, MADISON, WI, 53717",49544633,"R"
259607,"617 MELCHER ST","PORT ORCHARD","WA",98366,47.530850924,-122.638795527,107,"617 MELCHER ST, PORT ORCHARD, WA, 98366","Match","Exact","617 MELCHER ST, PORT ORCHARD, WA, 98366",187642886,"L"
259608,"617 MIDDLE RIVER RD","MIDDLE RIVER","MD",21220,39.341219032,-76.44866243,108,"617 MIDDLE RIVER RD, MIDDLE RIVER, MD, 21220","Match","Exact","617 MIDDLE RIVER RD, MIDDLE RIVER, MD, 21220",191480922,"R"
259609,"617 MT PROSPECT AVE","NEWARK","NJ",7104,40.7730748970001,-74.167088403,109,"617 MT PROSPECT AVE, NEWARK, NJ, 7104","Match","Exact","617 MT PROSPECT AVE, NEWARK, NJ, 07104",63455022,"R"
259610,"617 N 27TH ST","LOUISVILLE","KY",40212,38.272416902,-85.791495589,110,"617 N 27TH ST, LOUISVILLE, KY, 40212","Match","Exact","617 N 27TH ST, LOUISVILLE, KY, 40212",96840977,"R"
259611,"617 N 7TH STREET","CAMBRIDGE","OH",43725,40.032261686,-81.5914094999999,111,"617 N 7TH STREET, CAMBRIDGE, OH, 43725","Match","Exact","617 N 7TH ST, CAMBRIDGE, OH, 43725",623999541,"L"
259612,"617 N COLLEGE AVE APT 202","FRESNO","CA",93728,36.75144407,-119.797687983,112,"617 N COLLEGE AVE APT 202, FRESNO, CA, 93728","Match","Non_Exact","617 N COLLEGE AVE, FRESNO, CA, 93728",197578661,"L"
259613,"617 N G AVE REAR","DOUGLAS","AZ",85607,31.340760308,-109.554532828,113,"617 N G AVE REAR, DOUGLAS, AZ, 85607","Match","Exact","617 G AVE, DOUGLAS, AZ, 85607",120910771,"R"
259614,"617 N MAIN ST STE A","GREENVILLE","SC",29601,NA,NA,114,"617 N MAIN ST STE A, GREENVILLE, SC, 29601","Tie",NA,NA,NA,NA
259615,"617 N SAN GABRIEL AVE","AZUSA","CA",91702,34.1320584810001,-117.908826462,115,"617 N SAN GABRIEL AVE, AZUSA, CA, 91702","Match","Exact","617 N SAN GABRIEL AVE, AZUSA, CA, 91702",141709009,"L"
259616,"617 N STEPHENSON AVE","IRON MOUNTAIN","MI",49801,45.8289473900001,-88.060552254,116,"617 N STEPHENSON AVE, IRON MOUNTAIN, MI, 49801","Match","Exact","617 N STEPHENSON AVE, IRON MOUNTAIN, MI, 49801",170158515,"R"
259617,"617 N TOPEKA STREET","WICHITA","KS",67214,NA,NA,117,"617 N TOPEKA STREET, WICHITA, KS, 67214","Tie",NA,NA,NA,NA
259618,"617 NE 81ST TERR","KANSAS CITY","MO",64118,39.2415884330001,-94.5730463039999,118,"617 NE 81ST TERR, KANSAS CITY, MO, 64118","Match","Exact","617 NE 81ST TER, KANSAS CITY, MO, 64118",89754532,"R"
259619,"617 NEWMANN VILLAGE CT","OCOEE","FL",34761,NA,NA,119,"617 NEWMANN VILLAGE CT, OCOEE, FL, 34761","No_Match",NA,NA,NA,NA
259620,"617 NINTH AVE SW","ROCHESTER","MN",55902,44.0168401660001,-92.476364775,120,"617 NINTH AVE SW, ROCHESTER, MN, 55902","Match","Exact","617 9TH AVE SW, ROCHESTER, MN, 55902",30552878,"R"
259621,"617 NORTH BLUFF","WICHITA","KS",67208,37.6958801860001,-97.289798702,121,"617 NORTH BLUFF, WICHITA, KS, 67208","Match","Non_Exact","617 N BLUFF AVE, WICHITA, KS, 67208",115638136,"L"
259622,"617 NORTH CONFEDERATE AVE","TYLER","TX",75702,32.3567332580001,-95.31469371,122,"617 NORTH CONFEDERATE AVE, TYLER, TX, 75702","Match","Exact","617 N CONFEDERATE AVE, TYLER, TX, 75702",141266105,"R"
259623,"617 NORTH DALLAS AVE","MOORE","OK",73160,35.3422178640001,-97.5024861969999,123,"617 NORTH DALLAS AVE, MOORE, OK, 73160","Match","Exact","617 N DALLAS AVE, MOORE, OK, 73160",99905786,"L"
259624,"617 NORTON FORK RD","HOT SPRINGS","NC",28743,35.7125523080001,-82.852761901,124,"617 NORTON FORK RD, HOT SPRINGS, NC, 28743","Match","Exact","617 NORTON FORK RD, HOT SPRINGS, NC, 28743",618044732,"L"
259625,"617 ODENVILLE DR","WYLIE","TX",75098,33.0241775590001,-96.5585035999999,125,"617 ODENVILLE DR, WYLIE, TX, 75098","Match","Non_Exact","617 ODENVILLE RD, WYLIE, TX, 75098",614185015,"R"
259626,"617 ORCHARD AVENUE","NORTH CHARLEROI","PA",15022,40.149041348,-79.9083065899999,126,"617 ORCHARD AVENUE, NORTH CHARLEROI, PA, 15022","Match","Non_Exact","617 ORCHARD ST, NORTH CHARLEROI, PA, 15022",52823193,"L"
259627,"617 ORLANDO AVE APT 105","NORMAL","IL",61761,40.52685824,-88.9961809599999,127,"617 ORLANDO AVE APT 105, NORMAL, IL, 61761","Match","Exact","617 ORLANDO AVE, NORMAL, IL, 61761",20543938,"L"
259628,"617 PARK AVE","MANTECA","CA",95337,37.792144697,-121.219676223,128,"617 PARK AVE, MANTECA, CA, 95337","Match","Exact","617 PARK AVE, MANTECA, CA, 95337",133858745,"R"
259629,"617 PRESTWICK DR","HOOVER","AL",35244,33.398603038,-86.751759695,129,"617 PRESTWICK DR, HOOVER, AL, 35244","Match","Exact","617 PRESTWICK DR, HOOVER, AL, 35244",627973927,"R"
259630,"617 QUEEN STREET","NEW BERN","NC",28560,35.1109240600001,-77.043559697,130,"617 QUEEN STREET, NEW BERN, NC, 28560","Match","Exact","617 QUEEN ST, NEW BERN, NC, 28560",34112413,"R"
259631,"617 REASOR DRIVE","VIRGINIA BEACH","VA",23464,36.8212514420001,-76.177921837,131,"617 REASOR DRIVE, VIRGINIA BEACH, VA, 23464","Match","Exact","617 REASOR DR, VA BCH, VA, 23464",122262864,"R"
259632,"617 RIALTO DR","VACAVILLE","CA",95687,38.3452519790001,-121.993280679,132,"617 RIALTO DR, VACAVILLE, CA, 95687","Match","Exact","617 RIALTO DR, VACAVILLE, CA, 95687",192534891,"R"
259633,"617 RUSSELL STREET","DE FOREST","WI",53532,43.250072109,-89.332809997,133,"617 RUSSELL STREET, DE FOREST, WI, 53532","Match","Non_Exact","617 RUSSELL ST, DEFOREST, WI, 53532",49504552,"R"
259634,"617 S MAXWELL ST","SILOAM SPRINGS","AR",72761,36.180041239,-94.539329257,134,"617 S MAXWELL ST, SILOAM SPRINGS, AR, 72761","Match","Exact","617 S MAXWELL ST, SILOAM SPRINGS, AR, 72761",47828782,"R"
259635,"617 S PACIFIC COAST HWY UNIT C","REDONDO BEACH","CA",90277,33.8323001260001,-118.384931565,135,"617 S PACIFIC COAST HWY UNIT C, REDONDO BEACH, CA, 90277","Match","Non_Exact","617 S PACIFIC COAST HWY, REDONDO BEACH, CA, 90277",141584106,"R"
259636,"617 S THIRD AVE","HAILEY","ID",83333,NA,NA,136,"617 S THIRD AVE, HAILEY, ID, 83333","Tie",NA,NA,NA,NA
259637,"617 SANTA MARIA","IRVINE","CA",92606,33.6982028210001,-117.802742042,137,"617 SANTA MARIA, IRVINE, CA, 92606","Match","Exact","617 SANTA MARIA, IRVINE, CA, 92606",653219495,"L"
259638,"617 SE 5TH CT","FORT LAUDERDALE","FL",33301,26.1159042990001,-80.136622014,138,"617 SE 5TH CT, FORT LAUDERDALE, FL, 33301","Match","Exact","617 SE 5TH CT, FORT LAUDERDALE, FL, 33301",114723207,"L"
259639,"617 SE CUMBERLAND DR","LEES SUMMIT","MO",64063,38.9067648230001,-94.336220672,139,"617 SE CUMBERLAND DR, LEES SUMMIT, MO, 64063","Match","Exact","617 SE CUMBERLAND DR, LEES SUMMIT, MO, 64063",91512888,"L"
259640,"617 SECOND AVE","HARVEY","LA",70058,29.9030020320001,-90.0851194529999,140,"617 SECOND AVE, HARVEY, LA, 70058","Match","Exact","617 2ND AVE, HARVEY, LA, 70058",93506613,"L"
259641,"617 SOUTH GREEN STREET SUITE 300","MORGANTON","NC",28655,35.7416462470001,-81.682277956,141,"617 SOUTH GREEN STREET SUITE 300, MORGANTON, NC, 28655","Match","Exact","617 S GREEN ST, MORGANTON, NC, 28655",608503625,"R"
259642,"617 SOUTH NEWBURY PLACE","ARLINGTON HEIGHTS","IL",60005,42.0733328420001,-87.9745057539999,142,"617 SOUTH NEWBURY PLACE, ARLINGTON HEIGHTS, IL, 60005","Match","Exact","617 S NEWBURY PL, ARLINGTON HEIGHTS, IL, 60005",111716420,"L"
259643,"617 SPAIN STREET","NEW ORLEANS","LA",70117,29.964051485,-90.052871766,143,"617 SPAIN STREET, NEW ORLEANS, LA, 70117","Match","Exact","617 SPAIN ST, NEW ORLEANS, LA, 70117",191716657,"R"
259644,"617 STOKES RD SUITE 4      229","MEDFORD","NJ",8055,39.873855183,-74.8126496529999,144,"617 STOKES RD SUITE 4      229, MEDFORD, NJ, 8055","Match","Exact","617 STOKES RD, MEDFORD, NJ, 08055",134069434,"L"
259645,"617 STONE VILLA LN","FARRAGUT","TN",37934,35.854458284,-84.183523389,145,"617 STONE VILLA LN, FARRAGUT, TN, 37934","Match","Exact","617 STONE VILLA LN, FARRAGUT, TN, 37934",619255797,"L"
259646,"617 STRATH HAVEN AVENUE","SWARTHMORE","PA",19081,39.8934698310001,-75.350481541,146,"617 STRATH HAVEN AVENUE, SWARTHMORE, PA, 19081","Match","Exact","617 STRATH HAVEN AVE, SWARTHMORE, PA, 19081",134879306,"R"
259647,"617 SUMMEY FARM DRIVE","DALLAS","NC",28034,35.318090139,-81.205198417,147,"617 SUMMEY FARM DRIVE, DALLAS, NC, 28034","Match","Exact","617 SUMMEY FARM DR, DALLAS, NC, 28034",70420367,"L"
259648,"617 SUMMIT AVE","WESTVILLE","NJ",8093,39.8772400410001,-75.1339290289999,148,"617 SUMMIT AVE, WESTVILLE, NJ, 8093","Match","Exact","617 SUMMIT AVE, WESTVILLE, NJ, 08093",134583623,"R"
259649,"617 SW CAMDEN COURT","ANKENY","IA",50023,41.725538322,-93.650891601,149,"617 SW CAMDEN COURT, ANKENY, IA, 50023","Match","Exact","617 SW CAMDEN CT, ANKENY, IA, 50023",647022182,"L"
259650,"617 TIMBER BAY CIRCLE E","OLDSMAR","FL",34677,28.016118584,-82.662153222,150,"617 TIMBER BAY CIRCLE E, OLDSMAR, FL, 34677","Match","Exact","617 TIMBER BAY CIR E, OLDSMAR, FL, 34677",124685144,"L"
259651,"617 TOUCHSTONE CIRCLE","PORT ORANGE","FL",32127,29.107518041,-80.9997970919999,151,"617 TOUCHSTONE CIRCLE, PORT ORANGE, FL, 32127","Match","Exact","617 TOUCHSTONE CIR, PORT ORANGE, FL, 32127",94579710,"L"
259652,"617 TRACY DRIVE","AZLE","TX",76020,32.9035509190001,-97.537232898,152,"617 TRACY DRIVE, AZLE, TX, 76020","Match","Exact","617 TRACY DR, AZLE, TX, 76020",102185666,"R"
259653,"617 VETERANS BLVD STE 116","REDWOOD CITY","CA",94063,37.4922593490001,-122.231923057,153,"617 VETERANS BLVD STE 116, REDWOOD CITY, CA, 94063","Match","Exact","617 VETERANS BLVD, REDWOOD CITY, CA, 94063",192360975,"L"
259654,"617 W FAIRVIEW BLVD","INGLEWOOD","CA",90302,33.9797801020001,-118.368237116,154,"617 W FAIRVIEW BLVD, INGLEWOOD, CA, 90302","Match","Exact","617 W FAIRVIEW BLVD, INGLEWOOD, CA, 90302",141653565,"R"
259655,"617 W MONTECITO AVE","SIERRA MADRE","CA",91024,34.1631487020001,-118.065179264,155,"617 W MONTECITO AVE, SIERRA MADRE, CA, 91024","Match","Exact","617 W MONTECITO AVE, SIERRA MADRE, CA, 91024",141643396,"R"
259656,"617 W POOR ST","OLATHE","KS",66061,38.869973966,-94.8270724819999,156,"617 W POOR ST, OLATHE, KS, 66061","Match","Exact","617 W POOR ST, OLATHE, KS, 66061",91298452,"R"
259657,"617 W VANDALIA RD","GREENSBORO","NC",27406,36.0159016870001,-79.812812574,157,"617 W VANDALIA RD, GREENSBORO, NC, 27406","Match","Exact","617 W VANDALIA RD, GREENSBORO, NC, 27406",131046203,"L"
259658,"617 WADE RD","LONGMONT","CO",80503,40.17134077,-105.139284152,158,"617 WADE RD, LONGMONT, CO, 80503","Match","Exact","617 WADE RD, LONGMONT, CO, 80503",640386235,"R"
259659,"617 WARREN ST","GILMER","TX",75644,32.7238703190001,-94.950436274,159,"617 WARREN ST, GILMER, TX, 75644","Match","Exact","617 WARREN ST, GILMER, TX, 75644",147587597,"L"
259660,"617 WATTS CIRCLE","MINDEN","LA",71055,32.615505071,-93.306825424,160,"617 WATTS CIRCLE, MINDEN, LA, 71055","Match","Exact","617 WATTS CIR, MINDEN, LA, 71055",73415493,"L"
259661,"617 WEATHERVANE WAY","ROCKY MOUNT","NC",27803,35.9359227940001,-77.8357779629999,161,"617 WEATHERVANE WAY, ROCKY MOUNT, NC, 27803","Match","Exact","617 WEATHERVANE WAY, ROCKY MOUNT, NC, 27803",90400589,"L"
259662,"617 WEST 143RD STREET 3A","NEW YORK","NY",10031,40.8252880360001,-73.9517322089999,162,"617 WEST 143RD STREET 3A, NEW YORK, NY, 10031","Match","Exact","617 W 143RD ST, NEW YORK, NY, 10031",59655853,"R"
259663,"617 WHITE OAK DRIVE","MICHIGAN CITY","IN",46360,41.6975846650001,-86.866563508,163,"617 WHITE OAK DRIVE, MICHIGAN CITY, IN, 46360","Match","Exact","617 WHITE OAK DR, MICHIGAN CITY, IN, 46360",15412934,"R"
259664,"617 WILLARD RD","GREENWOOD","SC",29649,34.275011389,-82.0948282419999,164,"617 WILLARD RD, GREENWOOD, SC, 29649","Match","Exact","617 WILLARD RD, GREENWOOD, SC, 29649",50803526,"L"
259665,"617 WOODSFIELD DRIVE","COLUMBUS","OH",43214,40.072242106,-83.002356558,165,"617 WOODSFIELD DRIVE, COLUMBUS, OH, 43214","Match","Exact","617 WOODSFIELD DR, COLUMBUS, OH, 43214",218660536,"R"
259666,"617 WOOSTER RD W","BARBERTON","OH",44203,41.012081451,-81.6122379509999,166,"617 WOOSTER RD W, BARBERTON, OH, 44203","Match","Exact","617 WOOSTER RD W, BARBERTON, OH, 44203",61336769,"R"
259667,"6170 BONNIE RIDGE CT","BELEWS CREEK","NC",27009,36.2261187180001,-80.061197775,167,"6170 BONNIE RIDGE CT, BELEWS CREEK, NC, 27009","Match","Exact","6170 BONNIE RIDGE CT, BELEWS CREEK, NC, 27009",632182700,"L"
259668,"6170 E 10TH AVE","APACHE JUNCTION","AZ",85119,33.4058401780001,-111.479549833,168,"6170 E 10TH AVE, APACHE JUNCTION, AZ, 85119","Match","Exact","6170 E 10TH AVE, APACHE JUNCTION, AZ, 85119",129261737,"L"
259669,"6170 FALCON WAY","FORNEY","TX",75126,32.7648953570001,-96.403574009,169,"6170 FALCON WAY, FORNEY, TX, 75126","Match","Exact","6170 FALCON WAY, FORNEY, TX, 75126",647770127,"L"
259670,"6170 GARESCHE AVE","ST LOUIS","MO",63136,38.7049753790001,-90.2597259039999,170,"6170 GARESCHE AVE, ST LOUIS, MO, 63136","Match","Exact","6170 GARESCHE AVE, SAINT LOUIS, MO, 63136",107594836,"L"
259671,"6170 GEORGEWOOD LANE WEST","JACKSONVILLE","FL",32244,NA,NA,171,"6170 GEORGEWOOD LANE WEST, JACKSONVILLE, FL, 32244","No_Match",NA,NA,NA,NA
259672,"6170 GRAHAM PT","ROYSE CITY","TX",75189,32.966651379,-96.2306412199999,172,"6170 GRAHAM PT, ROYSE CITY, TX, 75189","Match","Non_Exact","6170 GRAHAM POINT TRL, ROYSE CITY, TX, 75189",627797271,"L"
259673,"6170 HERINHUT RD","WINSTON SALEM","NC",27127,35.9905582550001,-80.296274252,173,"6170 HERINHUT RD, WINSTON SALEM, NC, 27127","Match","Exact","6170 HERINHUT RD, WINSTON SALEM, NC, 27127",20227284,"L"
259674,"6170 HIGHWAY 138","FLORENCE","TX",76527,30.8376008600001,-97.8977496479999,174,"6170 HIGHWAY 138, FLORENCE, TX, 76527","Match","Non_Exact","6170 STATE HWY 138, FLORENCE, TX, 76527",126443622,"L"
259675,"6170 HWY 162","HOLLYWOOD","SC",29449,32.735773608,-80.232705073,175,"6170 HWY 162, HOLLYWOOD, SC, 29449","Match","Non_Exact","6170 STATE HWY 162, HOLLYWOOD, SC, 29449",605771004,"L"
259676,"6170 LISA LN","PAHRUMP","NV",89048,36.129688367,-115.99619442,176,"6170 LISA LN, PAHRUMP, NV, 89048","Match","Non_Exact","6170 S LISA LN, PAHRUMP, NV, 89048",140587816,"L"
259677,"6170 MANASTASH ROAD","ELLENSBURG","WA",98926,46.97075234,-120.650263781,177,"6170 MANASTASH ROAD, ELLENSBURG, WA, 98926","Match","Exact","6170 MANASTASH RD, ELLENSBURG, WA, 98926",623970590,"R"
259678,"6170 OAK GROVE ROAD","MOREHEAD","KY",40351,38.144024126,-83.337800553,178,"6170 OAK GROVE ROAD, MOREHEAD, KY, 40351","Match","Exact","6170 OAK GROVE RD, MOREHEAD, KY, 40351",39628915,"R"
259679,"6170 OLDE ORCHARD DR","COLUMBUS","OH",43213,39.9636067660001,-82.834249101,179,"6170 OLDE ORCHARD DR, COLUMBUS, OH, 43213","Match","Exact","6170 OLDE ORCHARD DR, COLUMBUS, OH, 43213",135594389,"L"
259680,"6170 ROBBINS RD","LAKELAND","FL",33810,NA,NA,180,"6170 ROBBINS RD, LAKELAND, FL, 33810","No_Match",NA,NA,NA,NA
259681,"6170 SHALLOWFORD ROAD SUITE 103","CHATTANOOGA","TN",37421,35.0531046470001,-85.1819351839999,181,"6170 SHALLOWFORD ROAD SUITE 103, CHATTANOOGA, TN, 37421","Match","Exact","6170 SHALLOWFORD RD, CHATTANOOGA, TN, 37421",605475835,"R"
259682,"6170 TANOMA ROAD","INDIANA","PA",15701,40.667517908,-79.0552742099999,182,"6170 TANOMA ROAD, INDIANA, PA, 15701","Match","Exact","6170 TANOMA RD, INDIANA, PA, 15701",66323639,"L"
259683,"6170 US HWY 431","WAVERLY","AL",36879,32.7853292080001,-85.4708728639999,183,"6170 US HWY 431, WAVERLY, AL, 36879","Match","Exact","6170 US HWY 431, WAVERLY, AL, 36879",651780226,"R"
259684,"6170 WEST KRISTAL WAY","GLENDALE","AZ",85308,33.6597370330001,-112.19211383,184,"6170 WEST KRISTAL WAY, GLENDALE, AZ, 85308","Match","Exact","6170 W KRISTAL WAY, GLENDALE, AZ, 85308",128388499,"L"
259685,"6170 WESTFORD RD","TROTWOOD","OH",45426,39.825440375,-84.296302871,185,"6170 WESTFORD RD, TROTWOOD, OH, 45426","Match","Exact","6170 WESTFORD RD, TROTWOOD, OH, 45426",143628401,"L"
259686,"61700 GARCIA BLVD","JBLM LEWIS MAIN","WA",98433,NA,NA,186,"61700 GARCIA BLVD, JBLM LEWIS MAIN, WA, 98433","No_Match",NA,NA,NA,NA
259687,"6171 N PANORAMA PL","TUCSON","AZ",85704,32.3181772070001,-110.987045013,187,"6171 N PANORAMA PL, TUCSON, AZ, 85704","Match","Exact","6171 N PANORAMA PL, TUCSON, AZ, 85704",121394567,"L"
259688,"6171 N SHERIDAN ROAD APT 1803","CHICAGO","IL",60660,41.99456717,-87.655514597,188,"6171 N SHERIDAN ROAD APT 1803, CHICAGO, IL, 60660","Match","Non_Exact","6171 N SHERIDAN RD, CHICAGO, IL, 60660",111889280,"R"
259689,"6171 N SHERIDAN ROAD","CHICAGO","IL",60660,41.99456717,-87.655514597,189,"6171 N SHERIDAN ROAD, CHICAGO, IL, 60660","Match","Exact","6171 N SHERIDAN RD, CHICAGO, IL, 60660",111889280,"R"
259690,"6171 NORTH SHERIDAN ROAD 1811","CHICAGO","IL",60660,41.9945150880001,-87.655512229,190,"6171 NORTH SHERIDAN ROAD 1811, CHICAGO, IL, 60660","Match","Exact","6171 N SHERIDAN RD, CHICAGO, IL, 60660",111889280,"R"
259691,"6171 PUTTER DRIVE","ALLENTOWN","PA",18106,40.5527861740001,-75.574603016,191,"6171 PUTTER DRIVE, ALLENTOWN, PA, 18106","Match","Exact","6171 PUTTER DR, ALLENTOWN, PA, 18106",80756538,"L"
259692,"6171 SUMMER ST","HONOLULU","HI",96821,21.285545771,-157.720522504,192,"6171 SUMMER ST, HONOLULU, HI, 96821","Match","Exact","6171 SUMMER ST, HONOLULU, HI, 96821",203244015,"R"
259693,"6171 W HIGHLAND AVE","PHOENIX","AZ",85033,33.5046123830001,-112.190742878,193,"6171 W HIGHLAND AVE, PHOENIX, AZ, 85033","Match","Exact","6171 W HIGHLAND AVE, PHOENIX, AZ, 85033",128194899,"L"
259694,"6172 BARNES RD","CRESTVIEW","FL",32536,30.821637685,-86.541719644,194,"6172 BARNES RD, CRESTVIEW, FL, 32536","Match","Exact","6172 BARNES RD, CRESTVIEW, FL, 32536",74416286,"L"
259695,"6172 COMMONWEALTH DR","WESTERVILLE","OH",43082,40.1668521890001,-82.921959515,195,"6172 COMMONWEALTH DR, WESTERVILLE, OH, 43082","Match","Exact","6172 COMMONWEALTH DR, WESTERVILLE, OH, 43082",24602261,"R"
259696,"6172 DUNCAN BRIDGE ROAD","CLEVELAND","GA",30528,34.597597766,-83.6793458559999,196,"6172 DUNCAN BRIDGE ROAD, CLEVELAND, GA, 30528","Match","Exact","6172 DUNCAN BRIDGE RD, CLEVELAND, GA, 30528",89044102,"L"
259697,"6172 N 450 W","LA PORTE","IN",46350,41.696507771,-86.787201949,197,"6172 N 450 W, LA PORTE, IN, 46350","Match","Exact","6172 N 450 W, LA PORTE, IN, 46350",15414043,"L"
259698,"6172 QUINCE RD","MEMPHIS","TN",38119,35.0859139080001,-89.855688761,198,"6172 QUINCE RD, MEMPHIS, TN, 38119","Match","Exact","6172 QUINCE RD, MEMPHIS, TN, 38119",72927664,"L"
259699,"6172 RAINBOW DR","SAN JOSE","CA",95129,37.3012309870001,-122.012287864,199,"6172 RAINBOW DR, SAN JOSE, CA, 95129","Match","Exact","6172 RAINBOW DR, SAN JOSE, CA, 95129",122940871,"L"
259700,"6172 S COUNTY ROAD 210","KNOX","IN",46534,41.225141249,-86.600795972,200,"6172 S COUNTY ROAD 210, KNOX, IN, 46534","Match","Exact","6172 S CO RD 210, KNOX, IN, 46534",8253785,"R"
259701,"61725 TEN BARR RANCH RD","BEND","OR",97701,NA,NA,201,"61725 TEN BARR RANCH RD, BEND, OR, 97701","No_Match",NA,NA,NA,NA
259702,"6173 CAMP LEE RD","WEST PALM BEACH","FL",33417,26.694253657,-80.138997911,202,"6173 CAMP LEE RD, WEST PALM BEACH, FL, 33417","Match","Exact","6173 CAMP LEE RD, WEST PALM BEACH, FL, 33417",115269336,"L"
259703,"6173 CINNAMON COURT","ALEXANDRIA","VA",22310,38.7721112470001,-77.149572037,203,"6173 CINNAMON COURT, ALEXANDRIA, VA, 22310","Match","Exact","6173 CINNAMON CT, ALEXANDRIA, VA, 22310",76046585,"L"
259704,"6173 N CANFIELD","CHICAGO","IL",60631,NA,NA,204,"6173 N CANFIELD, CHICAGO, IL, 60631","Tie",NA,NA,NA,NA
259705,"6173 VALLEY VIEW ROAD","OAKLAND","CA",94611,37.840877978,-122.211581932,205,"6173 VALLEY VIEW ROAD, OAKLAND, CA, 94611","Match","Exact","6173 VALLEY VIEW RD, OAKLAND, CA, 94611",125080596,"L"
259706,"6173 WURTENBURG CT","STONE MOUNTAIN","GA",30087,33.781602978,-84.135911872,206,"6173 WURTENBURG CT, STONE MOUNTAIN, GA, 30087","Match","Exact","6173 WURTENBURG CT, STONE MOUNTAIN, GA, 30087",627355521,"R"
259707,"6174 MCKENZIE DR","FLINT","MI",48507,42.938483821,-83.729569813,207,"6174 MCKENZIE DR, FLINT, MI, 48507","Match","Non_Exact","6174 W MC KENZIE DR, FLINT, MI, 48507",69574277,"R"
259708,"6174 RED MAPLE RD","ATLANTA","GA",30349,33.6592389,-84.5905458839999,208,"6174 RED MAPLE RD, ATLANTA, GA, 30349","Match","Exact","6174 RED MAPLE RD, ATLANTA, GA, 30349",627744150,"R"
259709,"6174 STATEZNY LANE","CRANDON","WI",54520,NA,NA,209,"6174 STATEZNY LANE, CRANDON, WI, 54520","No_Match",NA,NA,NA,NA
259710,"6174 WAUCONDA WAY W","LAKE WORTH","FL",33463,26.600296916,-80.1432548889999,210,"6174 WAUCONDA WAY W, LAKE WORTH, FL, 33463","Match","Exact","6174 WAUCONDA WAY W, LAKE WORTH, FL, 33463",115578205,"L"
259711,"6174 WINTERGREEN RD","NORCROSS","GA",30093,33.8913022570001,-84.1945499559999,211,"6174 WINTERGREEN RD, NORCROSS, GA, 30093","Match","Exact","6174 WINTERGREEN RD, NORCROSS, GA, 30093",88892850,"L"
259712,"6174","PEORIA","AZ",85385,NA,NA,212,"6174, PEORIA, AZ, 85385","No_Match",NA,NA,NA,NA
259713,"6175 CATSKILL LN","COLORADO SPRINGS","CO",80918,38.9205489670001,-104.75465676,213,"6175 CATSKILL LN, COLORADO SPRINGS, CO, 80918","Match","Exact","6175 CATSKILL LN, COLORADO SPRINGS, CO, 80918",105511439,"L"
259714,"6175 HICKORY FLAT RD STE 110 NO 359","CANTON","GA",30115,34.1762819590001,-84.419398647,214,"6175 HICKORY FLAT RD STE 110 NO 359, CANTON, GA, 30115","Match","Non_Exact","6175 HICKORY FLAT HWY, CANTON, GA, 30115",653490800,"L"
259715,"6175 LAWRENCEVILLE HWY","TUCKER","GA",30084,NA,NA,215,"6175 LAWRENCEVILLE HWY, TUCKER, GA, 30084","No_Match",NA,NA,NA,NA
259716,"6175 NW 153RD STREET STE 201","MIAMI LAKES","FL",33014,25.912383047,-80.301073794,216,"6175 NW 153RD STREET STE 201, MIAMI LAKES, FL, 33014","Match","Non_Exact","6175 NW 153RD ST, MIAMI LAKES, FL, 33014",116023672,"R"
259717,"6175 NW 167TH STREET STE G21","HIALEAH","FL",33015,25.9251236060001,-80.300951558,217,"6175 NW 167TH STREET STE G21, HIALEAH, FL, 33015","Match","Non_Exact","6175 NW 167TH ST, HIALEAH, FL, 33015",116023608,"R"
259718,"6175 SCENIC HIGHWAY","BATON ROUGE","LA",70805,30.505462294,-91.170614518,218,"6175 SCENIC HIGHWAY, BATON ROUGE, LA, 70805","Match","Exact","6175 SCENIC HWY, BATON ROUGE, LA, 70805",92179895,"L"
259719,"6175 STATE ROUTE 132","GOSHEN","OH",45122,39.1905407630001,-84.168759951,219,"6175 STATE ROUTE 132, GOSHEN, OH, 45122","Match","Exact","6175 STATE RTE 132, GOSHEN, OH, 45122",641732026,"R"
259720,"61752 BRIDGECLIFF DR","BEND","OR",97702,44.042879514,-121.267373896,220,"61752 BRIDGECLIFF DR, BEND, OR, 97702","Match","Exact","61752 BRIDGECLIFF DR, BEND, OR, 97702",647586265,"R"
259721,"61754 CALLE LAS SIERRAS","JOSHUA TREE","CA",92252,34.168573919,-116.315734507,221,"61754 CALLE LAS SIERRAS, JOSHUA TREE, CA, 92252","Match","Non_Exact","61754 CLL LAS SIERRAS, JOSHUA TREE, CA, 92252",144619288,"L"
259722,"6176 COUNTESS DRIVE","SAN JOSE","CA",95129,37.3039008120001,-122.012669451,222,"6176 COUNTESS DRIVE, SAN JOSE, CA, 95129","Match","Exact","6176 COUNTESS DR, SAN JOSE, CA, 95129",122940865,"L"
259723,"6176 PARKSIDE AVENUE","SAN DIEGO","CA",92139,32.666322247,-117.053081138,223,"6176 PARKSIDE AVENUE, SAN DIEGO, CA, 92139","Match","Exact","6176 PARKSIDE AVE, SAN DIEGO, CA, 92139",195683196,"L"
259724,"6177 EDWARD ST APT 101","NORFOLK","VA",23513,36.8931669410001,-76.230028014,224,"6177 EDWARD ST APT 101, NORFOLK, VA, 23513","Match","Exact","6177 EDWARD ST, NORFOLK, VA, 23513",122146470,"L"
259725,"6177 HIGHGROVE PARK","EAST AMHERST","NY",14051,43.014789222,-78.693196545,225,"6177 HIGHGROVE PARK, EAST AMHERST, NY, 14051","Match","Exact","6177 HIGHGROVE PARK, EAST AMHERST, NY, 14051",48331312,"R"
259726,"6177 N LINCOLN AVE SUITE138","CHICAGO","IL",60659,41.994181763,-87.713530377,226,"6177 N LINCOLN AVE SUITE138, CHICAGO, IL, 60659","Match","Non_Exact","6177 N LINCOLN AVE, CHICAGO, IL, 60659",111742506,"R"
259727,"6178 BURR OAK WAY","HUDSON","OH",44236,41.226570936,-81.399979719,227,"6178 BURR OAK WAY, HUDSON, OH, 44236","Match","Exact","6178 BURR OAK WAY, HUDSON, OH, 44236",61389526,"R"
259728,"6178 GRACE K DR","WATERFORD","MI",48329,42.6932897980001,-83.411084312,228,"6178 GRACE K DR, WATERFORD, MI, 48329","Match","Exact","6178 GRACE K DR, WATERFORD, MI, 48329",69769163,"R"
259729,"6178 JOHNSON FORK ROAD","CEDAR GROVE","IN",47016,39.389776344,-84.873464976,229,"6178 JOHNSON FORK ROAD, CEDAR GROVE, IN, 47016","Match","Exact","6178 JOHNSON FORK RD, CEDAR GROVE, IN, 47016",33185883,"R"
259730,"6178 N BLOSSER AVE","FRESNO","CA",93711,36.8260143270001,-119.845113298,230,"6178 N BLOSSER AVE, FRESNO, CA, 93711","Match","Exact","6178 N BLOSSER AVE, FRESNO, CA, 93711",197566653,"L"
259731,"6178 THIBODEAUX RD","GREENWELL SPRINGS","LA",70739,30.507658033,-90.997747838,231,"6178 THIBODEAUX RD, GREENWELL SPRINGS, LA, 70739","Match","Exact","6178 THIBODEAUX RD, GREENWELL SPRINGS, LA, 70739",92194189,"L"
259732,"61783 SHAW ROAD","CAMBRIDGE","OH",43725,40.0008555050001,-81.6788869279999,232,"61783 SHAW ROAD, CAMBRIDGE, OH, 43725","Match","Exact","61783 SHAW RD, CAMBRIDGE, OH, 43725",37640651,"L"
259733,"6179 RINGOLD CIRCLE","PENSACOLA","FL",32503,30.4821138720001,-87.234105228,233,"6179 RINGOLD CIRCLE, PENSACOLA, FL, 32503","Match","Non_Exact","6179 RINGGOLD CIR, PENSACOLA, FL, 32503",93217936,"L"
259734,"618  E SOUTH STREET SUITE 500","ORLANDO","FL",32801,28.538470279,-81.3694916859999,234,"618  E SOUTH STREET SUITE 500, ORLANDO, FL, 32801","Match","Non_Exact","618 E SOUTH ST, ORLANDO, FL, 32801",94282850,"R"
259735,"618 1/2 LEONARD AVE","DEKALB","IL",60115,41.925950937,-88.759592632,235,"618 1/2 LEONARD AVE, DEKALB, IL, 60115","Match","Exact","618 LEONARD AVE, DEKALB, IL, 60115",52257614,"R"
259736,"618 5TH  ST N","MINNEAPOLIS","MN",55401,44.9847248460001,-93.279719223,236,"618 5TH  ST N, MINNEAPOLIS, MN, 55401","Match","Exact","618 5TH ST N, MINNEAPOLIS, MN, 55401",43739142,"R"
259737,"618 62ND STREET 2ND FLOOR","BROOKLYN","NY",11220,40.636701385,-74.0146337049999,237,"618 62ND STREET 2ND FLOOR, BROOKLYN, NY, 11220","Match","Exact","618 62ND ST, BROOKLYN, NY, 11220",59094596,"R"
259738,"618 6TH AVE E","ALEXANDRIA","MN",56308,45.885884677,-95.36877119,238,"618 6TH AVE E, ALEXANDRIA, MN, 56308","Match","Exact","618 6TH AVE E, ALEXANDRIA, MN, 56308",204652081,"L"
259739,"618 6TH ST","DEWITT","IA",52742,41.821257587,-90.539296999,239,"618 6TH ST, DEWITT, IA, 52742","Match","Non_Exact","618 6TH ST, DE WITT, IA, 52742",16805025,"R"
259740,"618 7TH AVENUE","HAVRE","MT",59501,48.547342401,-109.673095041,240,"618 7TH AVENUE, HAVRE, MT, 59501","Match","Exact","618 7TH AVE, HAVRE, MT, 59501",162154463,"L"
259741,"618 9TH AVENUE SOUTH  APT 505","MINNEAPOLIS","MN",55415,44.9724557540001,-93.2593277719999,241,"618 9TH AVENUE SOUTH  APT 505, MINNEAPOLIS, MN, 55415","Match","Exact","618 9TH AVE S, MINNEAPOLIS, MN, 55415",43633098,"R"
259742,"618 A STREET","VADER","WA",98593,46.402892023,-122.960270842,242,"618 A STREET, VADER, WA, 98593","Match","Exact","618 A ST, VADER, WA, 98593",180719890,"R"
259743,"618 AGNES ARNOLD HALL UNIV OF HOUST","HOUSTON","TX",77204,NA,NA,243,"618 AGNES ARNOLD HALL UNIV OF HOUST, HOUSTON, TX, 77204","No_Match",NA,NA,NA,NA
259744,"618 ARBOR LAKE BLVD","HERMITAGE","TN",37076,NA,NA,244,"618 ARBOR LAKE BLVD, HERMITAGE, TN, 37076","Tie",NA,NA,NA,NA
259745,"618 BROOK KNOLL CIRCLE","WEAVERVILLE","NC",28787,35.755882937,-82.5549272219999,245,"618 BROOK KNOLL CIRCLE, WEAVERVILLE, NC, 28787","Match","Exact","618 BROOK KNOLL CIR, WEAVERVILLE, NC, 28787",636601028,"L"
259746,"618 CALLE GUATEMALA","ISABELA","PR",662,18.470950481,-67.038822164,246,"618 CALLE GUATEMALA, ISABELA, PR, 662","Match","Non_Exact","618 CLL GUATEMALA, ISABELA, PR, 00662",640090084,"L"
259747,"618 CASS ST","SAGINAW","MI",48602,43.4169335350001,-83.967151052,247,"618 CASS ST, SAGINAW, MI, 48602","Match","Exact","618 CASS ST, SAGINAW, MI, 48602",80215200,"R"
259748,"618 CENTER POINT WAY UNIT 83744","GAITHERSBURG","MD",20883,39.121892229,-77.234328712,248,"618 CENTER POINT WAY UNIT 83744, GAITHERSBURG, MD, 20883","Match","Non_Exact","618 CENTER POINT WAY, GAITHERSBURG, MD, 20878",62106275,"L"
259749,"618 CHERRY BLOSSOM LANE","FENTON","MI",48430,42.804243511,-83.694986892,249,"618 CHERRY BLOSSOM LANE, FENTON, MI, 48430","Match","Exact","618 CHERRY BLOSSOM LN, FENTON, MI, 48430",625542417,"L"
259750,"618 CHESTERFIELD LANE","LEAGUE CITY","TX",77573,29.475525008,-95.165604168,250,"618 CHESTERFIELD LANE, LEAGUE CITY, TX, 77573","Match","Exact","618 CHESTERFIELD LN, LEAGUE CITY, TX, 77573",640854367,"R"
259751,"618 COLUMBIA RD NW","WASHINGTON","DC",20001,38.928276189,-77.021528787,251,"618 COLUMBIA RD NW, WASHINGTON, DC, 20001","Match","Exact","618 COLUMBIA RD NW, WASHINGTON, DC, 20001",76224216,"L"
259752,"618 COMMERCIAL","MINGO JUNCTION","OH",43938,NA,NA,252,"618 COMMERCIAL, MINGO JUNCTION, OH, 43938","Tie",NA,NA,NA,NA
259753,"618 CRESCENT AVE","READING","PA",19605,40.368084224,-75.9247957059999,253,"618 CRESCENT AVE, READING, PA, 19605","Match","Exact","618 CRESCENT AVE, READING, PA, 19605",80377134,"R"
259754,"618 CURTIS STREET","ALBANY","CA",94706,37.896131617,-122.287285279,254,"618 CURTIS STREET, ALBANY, CA, 94706","Match","Exact","618 CURTIS ST, ALBANY, CA, 94706",124992133,"R"
259755,"618 DAVIS DR","BETHLEHEM","GA",30620,33.9458178310001,-83.731599229,255,"618 DAVIS DR, BETHLEHEM, GA, 30620","Match","Non_Exact","618 DAVIS DR SW, BETHLEHEM, GA, 30620",629771894,"L"
259756,"618 DENNIS CT SE","TUMWATER","WA",98501,46.9895366630001,-122.899830659,256,"618 DENNIS CT SE, TUMWATER, WA, 98501","Match","Exact","618 DENNIS CT SE, TUMWATER, WA, 98501",180945717,"L"
259757,"618 DIKE RD","GRAND JUNCTION","CO",81507,NA,NA,257,"618 DIKE RD, GRAND JUNCTION, CO, 81507","No_Match",NA,NA,NA,NA
259758,"618 DIVISION STREET","BILOXI","MS",39530,30.403199369,-88.882490119,258,"618 DIVISION STREET, BILOXI, MS, 39530","Match","Exact","618 DIVISION ST, BILOXI, MS, 39530",111384930,"L"
259759,"618 DUNCAN CIRCLE W","AUBURNDALE","FL",33823,28.0598104100001,-81.823156129,259,"618 DUNCAN CIRCLE W, AUBURNDALE, FL, 33823","Match","Exact","618 DUNCAN CIR W, AUBURNDALE, FL, 33823",104845242,"R"
259760,"618 E CORNELL ST","AVON PARK","FL",33825,27.588276695,-81.488107858,260,"618 E CORNELL ST, AVON PARK, FL, 33825","Match","Exact","618 CORNELL ST, AVON PARK, FL, 33825",4671414,"L"
259761,"618 E PRESTON AVE","SOMERDALE","NJ",8083,39.838648316,-75.023462127,261,"618 E PRESTON AVE, SOMERDALE, NJ, 8083","Match","Exact","618 E PRESTON AVE, SOMERDALE, NJ, 08083",134386070,"R"
259762,"618 E SOUTH ST SUITE 500","ORLANDO","FL",32801,28.538470279,-81.3694916859999,262,"618 E SOUTH ST SUITE 500, ORLANDO, FL, 32801","Match","Non_Exact","618 E SOUTH ST, ORLANDO, FL, 32801",94282850,"R"
259763,"618 E THIRD STREET","WENDELL","NC",27591,35.7805445270001,-78.359795484,263,"618 E THIRD STREET, WENDELL, NC, 27591","Match","Exact","618 E 3RD ST, WENDELL, NC, 27591",72488205,"R"
259764,"618 EAST BEAVER AVE","STATE COLLEGE","PA",16801,40.799528455,-77.8521821309999,264,"618 EAST BEAVER AVE, STATE COLLEGE, PA, 16801","Match","Exact","618 E BEAVER AVE, STATE COLLEGE, PA, 16801",50370829,"R"
259765,"618 EMERALD TRAIL","MARTINSVILLE","NJ",8836,40.5881911110001,-74.5350087429999,265,"618 EMERALD TRAIL, MARTINSVILLE, NJ, 8836","Match","Exact","618 EMERALD TRL, MARTINSVILLE, NJ, 08836",59940245,"R"
259766,"618 EUWANEE PLACE","NORFOLK","VA",23503,36.9381987570001,-76.2480602269999,266,"618 EUWANEE PLACE, NORFOLK, VA, 23503","Match","Exact","618 EUWANEE PL, NORFOLK, VA, 23503",122139800,"L"
259767,"618 FALLING BROOK DRIVE","O FALLON","MO",63366,38.8158562130001,-90.774157568,267,"618 FALLING BROOK DRIVE, O FALLON, MO, 63366","Match","Non_Exact","618 FALLLING BROOK DR, O FALLON, MO, 63366",617665548,"R"
259768,"618 FAVORWOOD DR","ROCK HILL","SC",29730,34.876776422,-81.05582823,268,"618 FAVORWOOD DR, ROCK HILL, SC, 29730","Match","Exact","618 FAVORWOOD DR, ROCK HILL, SC, 29730",19818685,"R"
259769,"618 FOXWOOD DRIVE","GLEN BURNIE","MD",21060,39.1712286810001,-76.570072247,269,"618 FOXWOOD DRIVE, GLEN BURNIE, MD, 21060","Match","Exact","618 FOXWOOD DR, GLEN BURNIE, MD, 21060",641580857,"L"
259770,"618 GEORGIA WAY","WOODSTOCK","GA",30188,34.1348894970001,-84.512071103,270,"618 GEORGIA WAY, WOODSTOCK, GA, 30188","Match","Exact","618 GEORGIA WAY, WOODSTOCK, GA, 30188",642073858,"R"
259771,"618 GLEASON PKWY","CAPE CORAL","FL",33914,26.5924905630001,-81.9876839309999,271,"618 GLEASON PKWY, CAPE CORAL, FL, 33914","Match","Exact","618 GLEASON PKWY, CAPE CORAL, FL, 33914",118012135,"R"
259772,"618 HARDING BLVD","BATON ROUGE","LA",70807,30.520179935,-91.1910507159999,272,"618 HARDING BLVD, BATON ROUGE, LA, 70807","Match","Exact","618 HARDING BLVD, BATON ROUGE, LA, 70807",640182505,"R"
259773,"618 HARMONY STREET","NEW ORLEANS","LA",70115,29.919697829,-90.083958615,273,"618 HARMONY STREET, NEW ORLEANS, LA, 70115","Match","Exact","618 HARMONY ST, NEW ORLEANS, LA, 70115",191714925,"L"
259774,"618 HAUSER BLVD UNIT 6","LOS ANGELES","CA",90036,34.062999888,-118.351433948,274,"618 HAUSER BLVD UNIT 6, LOS ANGELES, CA, 90036","Match","Exact","618 HAUSER BLVD, LOS ANGELES, CA, 90036",142728597,"L"
259775,"618 HIGH MEADOWS DRIVE","SUGAR LAND","TX",77479,29.5928099600001,-95.6953925,275,"618 HIGH MEADOWS DRIVE, SUGAR LAND, TX, 77479","Match","Exact","618 HIGH MEADOWS DR, SUGAR LAND, TX, 77479",78290437,"R"
259776,"618 HILCHOT DRIVE","SUMMERVILLE","SC",29486,NA,NA,276,"618 HILCHOT DRIVE, SUMMERVILLE, SC, 29486","No_Match",NA,NA,NA,NA
259777,"618 HUDSON STREET","SAN ANTONIO","TX",78202,29.4322212120001,-98.453366939,277,"618 HUDSON STREET, SAN ANTONIO, TX, 78202","Match","Exact","618 HUDSON ST, SAN ANTONIO, TX, 78202",101530657,"R"
259778,"618 INDIGO BAY CIRCLE","MYRTLE BEACH","SC",29579,33.762465079,-78.892578298,278,"618 INDIGO BAY CIRCLE, MYRTLE BEACH, SC, 29579","Match","Exact","618 INDIGO BAY CIR, MYRTLE BEACH, SC, 29579",648947742,"L"
259779,"618 JAQUES AVE","RAHWAY","NJ",7065,40.5993738270001,-74.287067193,279,"618 JAQUES AVE, RAHWAY, NJ, 7065","Match","Exact","618 JAQUES AVE, RAHWAY, NJ, 07065",60563139,"L"
259780,"618 JEFFERSON AVENUE","HUNTINGTON","WV",25704,38.413975626,-82.465271854,280,"618 JEFFERSON AVENUE, HUNTINGTON, WV, 25704","Match","Exact","618 JEFFERSON AVE, HUNTINGTON, WV, 25704",101317097,"R"
259781,"618 KILLARNEY","RICHARDSON","TX",75081,32.932674665,-96.716801631,281,"618 KILLARNEY, RICHARDSON, TX, 75081","Match","Exact","618 KILLARNEY, RICHARDSON, TX, 75081",639645090,"R"
259782,"618 MAGNOLIA DR NE","CORYDON","IN",47112,38.2070864200001,-86.062374979,282,"618 MAGNOLIA DR NE, CORYDON, IN, 47112","Match","Exact","618 MAGNOLIA DR NE, CORYDON, IN, 47112",34809489,"R"
259783,"618 MAIN STREET SUITE 1","SCOTT CITY","MO",63780,37.219217972,-89.514359785,283,"618 MAIN STREET SUITE 1, SCOTT CITY, MO, 63780","Match","Non_Exact","618 E MAIN ST, SCOTT CITY, MO, 63780",639693599,"L"
259784,"618 MARTIN AVENUE","ALTAMONTE SPRINGS","FL",32701,28.6491861100001,-81.369404426,284,"618 MARTIN AVENUE, ALTAMONTE SPRINGS, FL, 32701","Match","Exact","618 MARTIN AVE, ALTAMONTE SPRINGS, FL, 32701",93742828,"R"
259785,"618 MATTHEWS ST","BRISTOL","CT",6010,41.6849971950001,-72.974751495,285,"618 MATTHEWS ST, BRISTOL, CT, 6010","Match","Exact","618 MATTHEWS ST, BRISTOL, CT, 06010",639787910,"R"
259786,"618 MCELWAIN CT","BOWLING GREEN","KY",42101,36.9874703990001,-86.465311024,286,"618 MCELWAIN CT, BOWLING GREEN, KY, 42101","Match","Non_Exact","618 MC ELWAIN CT, BOWLING GREEN, KY, 42101",28005595,"R"
259787,"618 MORRIS LANE","WALLINGFORD","PA",19086,39.8828563550001,-75.36918048,287,"618 MORRIS LANE, WALLINGFORD, PA, 19086","Match","Exact","618 MORRIS LN, WALLINGFORD, PA, 19086",652559753,"L"
259788,"618 N MCKEAN ST","BUTLER","PA",16001,40.8689929450001,-79.893445099,288,"618 N MCKEAN ST, BUTLER, PA, 16001","Match","Exact","618 N MCKEAN ST, BUTLER, PA, 16001",52653256,"L"
259789,"618 N POPLAR","NEW LONDON","IA",52645,40.931123207,-91.406221801,289,"618 N POPLAR, NEW LONDON, IA, 52645","Match","Non_Exact","618 N POPLAR ST, NEW LONDON, IA, 52645",16088307,"R"
259790,"618 N WASHINGTON STREET","ALEXANDRIA","VA",22314,38.8110156440001,-77.045696272,290,"618 N WASHINGTON STREET, ALEXANDRIA, VA, 22314","Match","Exact","618 N WASHINGTON ST, ALEXANDRIA, VA, 22314",75988516,"L"
259791,"618 N WILLIAMSON AVE","WINSLOW","AZ",86047,35.026654331,-110.694836971,291,"618 N WILLIAMSON AVE, WINSLOW, AZ, 86047","Match","Exact","618 N WILLIAMSON AVE, WINSLOW, AZ, 86047",172491476,"R"
259792,"618 N WYMORE ROAD","WINTER PARK","FL",32789,28.603677965,-81.385235205,292,"618 N WYMORE ROAD, WINTER PARK, FL, 32789","Match","Exact","618 N WYMORE RD, WINTER PARK, FL, 32789",94409917,"R"
259793,"618 N YALE ST","MESA","AZ",85213,33.4270000110001,-111.771683221,293,"618 N YALE ST, MESA, AZ, 85213","Match","Non_Exact","618 N YALE, MESA, AZ, 85213",128246471,"R"
259794,"618 NOBLE ROAD","SIMI VALLEY","CA",93065,34.2508126010001,-118.794645489,294,"618 NOBLE ROAD, SIMI VALLEY, CA, 93065","Match","Exact","618 NOBLE RD, SIMI VALLEY, CA, 93065",110085080,"R"
259795,"618 NORTH GUADALUPE AVENUE UNIT C","REDONDO BEACH","CA",90277,33.848718628,-118.386503488,295,"618 NORTH GUADALUPE AVENUE UNIT C, REDONDO BEACH, CA, 90277","Match","Exact","618 N GUADALUPE AVE, REDONDO BEACH, CA, 90277",141583813,"R"
259796,"618 NW HEMLOCK AVE SUITE 1482","REDMOND","OR",97756,44.2837352720001,-121.174466207,296,"618 NW HEMLOCK AVE SUITE 1482, REDMOND, OR, 97756","Match","Non_Exact","618 NW HEMLOCK AVE, REDMOND, OR, 97756",152574444,"L"
259797,"618 OAKLAWN CIRCLE","LITTLE ROCK","AR",72206,34.5741279110001,-92.292854924,297,"618 OAKLAWN CIRCLE, LITTLE ROCK, AR, 72206","Match","Exact","618 OAKLAWN CIR, LITTLE ROCK, AR, 72206",636167777,"L"
259798,"618 PARKSIDE AVENUE","TOMS RIVER","NJ",8753,39.946038425,-74.133883638,298,"618 PARKSIDE AVENUE, TOMS RIVER, NJ, 8753","Match","Exact","618 PARKSIDE AVE, TOMS RIVER, NJ, 08753",203737533,"R"
259799,"618 PIONEER TRAIL","TOWNSEND","TN",37882,35.6669719550001,-83.8022946139999,299,"618 PIONEER TRAIL, TOWNSEND, TN, 37882","Match","Exact","618 PIONEER TRL, TOWNSEND, TN, 37882",89861044,"R"
259800,"618 PORTERSVILLE RD","ELLWOOD CITY","PA",16117,40.857507093,-80.2529597129999,300,"618 PORTERSVILLE RD, ELLWOOD CITY, PA, 16117","Match","Exact","618 PORTERSVILLE RD, ELLWOOD CITY, PA, 16117",65183464,"L"
259801,"618 QUARRY STREET","RALEIGH","NC",27610,35.772004628,-78.623325227,301,"618 QUARRY STREET, RALEIGH, NC, 27610","Match","Non_Exact","618 QUARRY ST, RALEIGH, NC, 27601",72509152,"R"
259802,"618 QUINCE STREET SE","OLYMPIA","WA",98501,47.0437944230001,-122.889674357,302,"618 QUINCE STREET SE, OLYMPIA, WA, 98501","Match","Exact","618 QUINCE ST SE, OLYMPIA, WA, 98501",180944514,"L"
259803,"618 REED DRIVE","FRANKFORT","KY",40601,38.1741567940001,-84.8860862509999,303,"618 REED DRIVE, FRANKFORT, KY, 40601","Match","Exact","618 REED DR, FRANKFORT, KY, 40601",97044954,"R"
259804,"618 RIDGE DRIVE","MYRTLE BEACH","SC",29588,33.680549624,-78.972264207,304,"618 RIDGE DRIVE, MYRTLE BEACH, SC, 29588","Match","Exact","618 RIDGE DR, MYRTLE BEACH, SC, 29588",631162022,"R"
259805,"618 S 9TH ST","SAGINAW","MI",48601,43.4233562960001,-83.9242584249999,305,"618 S 9TH ST, SAGINAW, MI, 48601","Match","Exact","618 S 9TH ST, SAGINAW, MI, 48601",80212426,"L"
259806,"618 S ALEXANDER CREEK ROAD","NEWNAN","GA",30263,33.4830690320001,-84.7408081739999,306,"618 S ALEXANDER CREEK ROAD, NEWNAN, GA, 30263","Match","Exact","618 S ALEXANDER CREEK RD, NEWNAN, GA, 30263",9340385,"L"
259807,"618 S LAFLIN COURT UNIT G","CHICAGO","IL",60607,NA,NA,307,"618 S LAFLIN COURT UNIT G, CHICAGO, IL, 60607","No_Match",NA,NA,NA,NA
259808,"618 S MAIN ST","KOKOMO","IN",46901,40.480978969,-86.131113195,308,"618 S MAIN ST, KOKOMO, IN, 46901","Match","Exact","618 S MAIN ST, KOKOMO, IN, 46901",27263955,"L"
259809,"618 S MAIN STREET","REIDSVILLE","NC",27320,36.354316591,-79.666247636,309,"618 S MAIN STREET, REIDSVILLE, NC, 27320","Match","Exact","618 S MAIN ST, REIDSVILLE, NC, 27320",56230867,"L"
259810,"618 S PARK ST","MADISON","WI",53715,43.0608022760001,-89.400751928,310,"618 S PARK ST, MADISON, WI, 53715","Match","Exact","618 S PARK ST, MADISON, WI, 53715",49530381,"R"
259811,"618 S SANGAMON","GIBSON CITY","IL",60936,40.458265548,-88.375311242,311,"618 S SANGAMON, GIBSON CITY, IL, 60936","Match","Non_Exact","618 S SANGAMON AVE, GIBSON CITY, IL, 60936",22343337,"R"
259812,"618 S SHERIDAN AVENUE","TACOMA","WA",98405,47.256452386,-122.457137302,312,"618 S SHERIDAN AVENUE, TACOMA, WA, 98405","Match","Exact","618 S SHERIDAN AVE, TACOMA, WA, 98405",184646768,"R"
259813,"618 SAINT ST","RICHLAND","WA",99354,46.3111783050001,-119.278009442,313,"618 SAINT ST, RICHLAND, WA, 99354","Match","Exact","618 SAINT ST, RICHLAND, WA, 99354",174986695,"R"
259814,"618 SAW MILL RIVER RD SUITE 11","YONKERS","NY",10710,NA,NA,314,"618 SAW MILL RIVER RD SUITE 11, YONKERS, NY, 10710","No_Match",NA,NA,NA,NA
259815,"618 SE OCEAN BOULVEARD / SUITE 5","STUART","FL",34994,NA,NA,315,"618 SE OCEAN BOULVEARD / SUITE 5, STUART, FL, 34994","No_Match",NA,NA,NA,NA
259816,"618 SOUTH GRANDVIEW TER","OREGON","IL",61061,42.005286787,-89.25396155,316,"618 SOUTH GRANDVIEW TER, OREGON, IL, 61061","Match","Exact","618 S GRANDVIEW TER, OREGON, IL, 61061",52328518,"R"
259817,"618 STAGG LANE","SANTA CRUZ","CA",90562,36.9712304990001,-121.99754394,317,"618 STAGG LANE, SANTA CRUZ, CA, 90562","Match","Non_Exact","618 STAGG LN, SANTA CRUZ, CA, 95062",125507183,"R"
259818,"618 STUARTS DRAFT HWY","STUARTS DRAFT","VA",24477,NA,NA,318,"618 STUARTS DRAFT HWY, STUARTS DRAFT, VA, 24477","No_Match",NA,NA,NA,NA
259819,"618 SUDBROOK RD","PIKESVILLE","MD",21208,39.364227941,-76.733286184,319,"618 SUDBROOK RD, PIKESVILLE, MD, 21208","Match","Non_Exact","618 SUDBROOK LN, PIKESVILLE, MD, 21208",191468421,"R"
259820,"618 SUNSET ST FRONT HOUSE","CLARKS SUMMIT","PA",18411,41.4850175230001,-75.711887948,320,"618 SUNSET ST FRONT HOUSE, CLARKS SUMMIT, PA, 18411","Match","Exact","618 SUNSET ST, CLARKS SUMMIT, PA, 18411",623572044,"L"
259821,"618 SW 185TH ST","NORMANDY PARK","WA",98166,47.437778544,-122.342766912,321,"618 SW 185TH ST, NORMANDY PARK, WA, 98166","Match","Exact","618 SW 185TH ST, NORMANDY PARK, WA, 98166",630346437,"R"
259822,"618 TOPAZ ST","REDWOOD CITY","CA",94061,37.470239716,-122.244920438,322,"618 TOPAZ ST, REDWOOD CITY, CA, 94061","Match","Exact","618 TOPAZ ST, REDWOOD CITY, CA, 94061",192362170,"R"
259823,"618 UVALDE COURT","ALLEN","TX",75013,33.1068023130001,-96.7079153289999,323,"618 UVALDE COURT, ALLEN, TX, 75013","Match","Exact","618 UVALDE CT, ALLEN, TX, 75013",123525626,"R"
259824,"618 VILLAGE DRIVE SUITE J","VIRGINIA BEACH","VA",23454,36.8477916100001,-76.0280802679999,324,"618 VILLAGE DRIVE SUITE J, VIRGINIA BEACH, VA, 23454","Match","Exact","618 VILLAGE DR, VIRGINIA BCH, VA, 23454",122297615,"R"
259825,"618 W BASELINE ROAD","CLAREMONT","CA",91711,34.12158349,-117.726334524,325,"618 W BASELINE ROAD, CLAREMONT, CA, 91711","Match","Exact","618 W BASELINE RD, CLAREMONT, CA, 91711",142790847,"L"
259826,"618 W MAIN ST","INDEPENDENCE","KS",67301,37.2233163650001,-95.713857766,326,"618 W MAIN ST, INDEPENDENCE, KS, 67301","Match","Exact","618 W MAIN ST, INDEPENDENCE, KS, 67301",13783662,"R"
259827,"618 W NEWMAN AVENUE","HARRISON","AR",72601,36.22278722,-93.114567096,327,"618 W NEWMAN AVENUE, HARRISON, AR, 72601","Match","Exact","618 W NEWMAN AVE, HARRISON, AR, 72601",19982877,"R"
259828,"618 W ORTEGA ST","SANTA BARBARA","CA",93101,34.4121704230001,-119.70497403,328,"618 W ORTEGA ST, SANTA BARBARA, CA, 93101","Match","Exact","618 W ORTEGA ST, SANTA BARBARA, CA, 93101",108629656,"R"
259829,"618 WEIRWOOD DRIVE","TOLEDO","OH",43607,41.645917254,-83.627388092,329,"618 WEIRWOOD DRIVE, TOLEDO, OH, 43607","Match","Exact","618 WEIRWOOD DR, TOLEDO, OH, 43607",33952655,"R"
259830,"618 WEST AVENUE N301","OCEAN CITY","NJ",8226,39.2824480100001,-74.5731351059999,330,"618 WEST AVENUE N301, OCEAN CITY, NJ, 8226","Match","Exact","618 WEST AVE, OCEAN CITY, NJ, 08226",174343242,"R"
259831,"618 WEST MARKET STREET SUITE D","ABEDEEEN","WA",98520,46.97191157,-123.824944578,331,"618 WEST MARKET STREET SUITE D, ABEDEEEN, WA, 98520","Match","Non_Exact","618 W MARKET ST, ABERDEEN, WA, 98520",180582310,"L"
259832,"618 WILEY AVENUE","SALISBURY","NC",28144,35.6635118610001,-80.492647393,332,"618 WILEY AVENUE, SALISBURY, NC, 28144","Match","Exact","618 WILEY AVE, SALISBURY, NC, 28144",25267651,"R"
259833,"618 WILKINSON ST UNIT 2","SHREVEPORT","LA",71104,32.4854347730001,-93.7422207819999,333,"618 WILKINSON ST UNIT 2, SHREVEPORT, LA, 71104","Match","Exact","618 WILKINSON ST, SHREVEPORT, LA, 71104",57438063,"R"
259834,"618 WILLOW CREEK DRIVE","FOLSOM","CA",95630,38.680246631,-121.141382531,334,"618 WILLOW CREEK DRIVE, FOLSOM, CA, 95630","Match","Exact","618 WILLOW CREEK DR, FOLSOM, CA, 95630",133369808,"L"
259835,"618 WINDSOR TERRACE SE","GRAND RAPIDS","MI",49503,42.961526297,-85.653956864,335,"618 WINDSOR TERRACE SE, GRAND RAPIDS, MI, 49503","Match","Exact","618 WINDSOR TER SE, GRAND RAPIDS, MI, 49503",12460352,"R"
259836,"618 WRIGHT DR","RUTHER GLEN","VA",22546,38.022345645,-77.549339763,336,"618 WRIGHT DR, RUTHER GLEN, VA, 22546","Match","Exact","618 WRIGHT DR, RUTHER GLEN, VA, 22546",21944229,"R"
259837,"6180 24TH ST N","OAKDALE","MN",55128,44.983196659,-92.981942853,337,"6180 24TH ST N, OAKDALE, MN, 55128","Match","Exact","6180 24TH ST N, OAKDALE, MN, 55128",97791264,"L"
259838,"6180 BELLA OAKS COURT","LIVERMORE","CA",94550,37.66790143,-121.715022579,338,"6180 BELLA OAKS COURT, LIVERMORE, CA, 94550","Match","Exact","6180 BELLA OAKS CT, LIVERMORE, CA, 94550",606833190,"L"
259839,"6180 BRENT THURMAN WAY SUITE 100A","LAS VEGAS","CA",89120,NA,NA,339,"6180 BRENT THURMAN WAY SUITE 100A, LAS VEGAS, CA, 89120","No_Match",NA,NA,NA,NA
259840,"6180 BRENT THURMAN WAY SUITE 100A","LAS VEGAS","NV",89148,NA,NA,340,"6180 BRENT THURMAN WAY SUITE 100A, LAS VEGAS, NV, 89148","No_Match",NA,NA,NA,NA
259841,"6180 BRENT THURMAN WAY","LAS VEGAS","NV",89148,NA,NA,341,"6180 BRENT THURMAN WAY, LAS VEGAS, NV, 89148","No_Match",NA,NA,NA,NA
259842,"6180 CANTERBURY DRIVE APT 333","CULVER CITY","CA",90230,33.9824748570001,-118.383977801,342,"6180 CANTERBURY DRIVE APT 333, CULVER CITY, CA, 90230","Match","Exact","6180 CANTERBURY DR, CULVER CITY, CA, 90230",608988842,"L"
259843,"6180 IRONWOOD DRIVE","BILLINGS","MT",59106,45.816822474,-108.673626149,343,"6180 IRONWOOD DRIVE, BILLINGS, MT, 59106","Match","Exact","6180 IRONWOOD DR, BILLINGS, MT, 59106",608050024,"R"
259844,"6180 OLD NATIONAL HIGHWAY","COLLEGE PARK","GA",30349,33.586404116,-84.469211027,344,"6180 OLD NATIONAL HIGHWAY, COLLEGE PARK, GA, 30349","Match","Exact","6180 OLD NATIONAL HWY, COLLEGE PARK, GA, 30349",628098652,"L"
259845,"6180 OVERLOOK COURT","GREENDALE","WI",53129,42.931873614,-88.0098334259999,345,"6180 OVERLOOK COURT, GREENDALE, WI, 53129","Match","Exact","6180 OVERLOOK CT, GREENDALE, WI, 53129",77749400,"R"
259846,"6180 WINNPENY LANE","INDIANAPOLIS","IN",46220,39.8678528180001,-86.089251758,346,"6180 WINNPENY LANE, INDIANAPOLIS, IN, 46220","Match","Exact","6180 WINNPENY LN, INDIANAPOLIS, IN, 46220",107995806,"L"
259847,"6181 BAYARD DRIVE","NOBLESVILLE","IN",46062,40.018177902,-86.063325686,347,"6181 BAYARD DRIVE, NOBLESVILLE, IN, 46062","Match","Exact","6181 BAYARD DR, NOBLESVILLE, IN, 46062",645523392,"R"
259848,"6181 CAMERONS FERRY DRIVE","HAYMARKET","VA",20169,NA,NA,348,"6181 CAMERONS FERRY DRIVE, HAYMARKET, VA, 20169","No_Match",NA,NA,NA,NA
259849,"6181 GA HWY 355","BBOX SPRINGS","GA",31801,NA,NA,349,"6181 GA HWY 355, BBOX SPRINGS, GA, 31801","No_Match",NA,NA,NA,NA
259850,"6181 LOTTIE LANE","LAKE WORTH","FL",33462,26.5846092890001,-80.083407417,350,"6181 LOTTIE LANE, LAKE WORTH, FL, 33462","Match","Exact","6181 LOTTIE LN, LAKE WORTH, FL, 33462",115487755,"L"
259851,"6181 S LAND PARK DRIVE","SACRAMENTO","CA",95831,38.5142825520001,-121.515247609,351,"6181 S LAND PARK DRIVE, SACRAMENTO, CA, 95831","Match","Exact","6181 S LAND PARK DR, SACRAMENTO, CA, 95831",133322897,"L"
259852,"6181 SABLEWOOD CIRCLE","PORTAGE","MI",49024,42.227727327,-85.624399732,352,"6181 SABLEWOOD CIRCLE, PORTAGE, MI, 49024","Match","Exact","6181 SABLEWOOD CIR, PORTAGE, MI, 49024",12236540,"L"
259853,"6181 W STATE RD 28","WEST LEBANON","IN",47991,40.2797932880001,-87.4441728319999,353,"6181 W STATE RD 28, WEST LEBANON, IN, 47991","Match","Non_Exact","6181 W STATE RD 28, WEST LEBANON, IN, 47991",55251223,"L"
259854,"6181","GOODYEAR","AZ",85338,NA,NA,354,"6181, GOODYEAR, AZ, 85338","No_Match",NA,NA,NA,NA
259855,"6182 ASHTON PARK COURT","MABLETON","GA",30126,33.8028205090001,-84.584485834,355,"6182 ASHTON PARK COURT, MABLETON, GA, 30126","Match","Non_Exact","6182 ASHTON PARK CT SW, MABLETON, GA, 30126",616576175,"L"
259856,"6182 HIDDEN CANYON ROAD","CENTREVILLE","VA",20120,38.849362317,-77.482323129,356,"6182 HIDDEN CANYON ROAD, CENTREVILLE, VA, 20120","Match","Exact","6182 HIDDEN CANYON RD, CENTREVILLE, VA, 20120",76011160,"L"
259857,"6182 KILLARNEY AVE","GARDEN GROVE","CA",92845,33.7807041240001,-118.025259089,357,"6182 KILLARNEY AVE, GARDEN GROVE, CA, 92845","Match","Exact","6182 KILLARNEY AVE, GARDEN GROVE, CA, 92845",144003581,"R"
259858,"6182 LAUREL LANE","TAMARAC","FL",33319,26.1980459260001,-80.229640011,358,"6182 LAUREL LANE, TAMARAC, FL, 33319","Match","Exact","6182 LAUREL LN, TAMARAC, FL, 33319",114756961,"L"
259859,"6183 ADAMSON CIRCLE","CHATTANOOGA","TN",37416,35.073072391,-85.182600266,359,"6183 ADAMSON CIRCLE, CHATTANOOGA, TN, 37416","Match","Exact","6183 ADAMSON CIR, CHATTANOOGA, TN, 37416",59332856,"L"
259860,"6183 LAKE VALLEY POINT","LITHONIA","GA",30058,33.7685649160001,-84.1346930779999,360,"6183 LAKE VALLEY POINT, LITHONIA, GA, 30058","Match","Exact","6183 LAKE VALLEY PT, LITHONIA, GA, 30058",619388083,"R"
259861,"6183 SWABIA COURT","STONE MOUNTAIN","GA",30087,33.7835260850001,-84.135938099,361,"6183 SWABIA COURT, STONE MOUNTAIN, GA, 30087","Match","Exact","6183 SWABIA CT, STONE MOUNTAIN, GA, 30087",627355242,"R"
259862,"6184 E PASEO RIO VERDE","ANAHEIM","CA",92807,33.856285654,-117.775199788,362,"6184 E PASEO RIO VERDE, ANAHEIM, CA, 92807","Match","Non_Exact","6184 E PSO RIO VERDE, ANAHEIM, CA, 92807",144033503,"R"
259863,"6184 NE JACKSONVILLE ROAD","OCALA","FL",34479,NA,NA,363,"6184 NE JACKSONVILLE ROAD, OCALA, FL, 34479","No_Match",NA,NA,NA,NA
259864,"6185 188TH TRL N","LOXAHATCHEE","FL",33470,26.7674703490001,-80.341806941,364,"6185 188TH TRL N, LOXAHATCHEE, FL, 33470","Match","Exact","6185 188TH TRL N, LOXAHATCHEE, FL, 33470",115243057,"L"
259865,"6185 E TRAVERSE HWY - SUITE B","TRAVERSE CITY","MI",49684,44.7748943010001,-85.730342907,365,"6185 E TRAVERSE HWY - SUITE B, TRAVERSE CITY, MI, 49684","Match","Non_Exact","6185 E TRAVERSE HWY, TRAVERSE CITY, MI, 49684",145514097,"L"
259866,"6185 GIBBSDOWN PLACE","RICHMOND","VA",23111,37.634666338,-77.315506891,366,"6185 GIBBSDOWN PLACE, RICHMOND, VA, 23111","Match","Non_Exact","6185 GIBBSDOWN PL, MECHANICSVILLE, VA, 23111",84969601,"R"
259867,"6185 LEGACY RIDGE DRIVE","MILLERSBURG","OH",44654,40.577148155,-81.838700042,367,"6185 LEGACY RIDGE DRIVE, MILLERSBURG, OH, 44654","Match","Exact","6185 LEGACY RIDGE DR, MILLERSBURG, OH, 44654",651595134,"L"
259868,"6185 MAGNOLIA AVE  STE 148","RIVERSIDE","CA",92506,33.958289973,-117.393457441,368,"6185 MAGNOLIA AVE  STE 148, RIVERSIDE, CA, 92506","Match","Exact","6185 MAGNOLIA AVE, RIVERSIDE, CA, 92506",635981892,"R"
259869,"6185 MAGNOLIA AVE SUITE 141","RIVERSIDE","CA",92506,33.958289973,-117.393457441,369,"6185 MAGNOLIA AVE SUITE 141, RIVERSIDE, CA, 92506","Match","Exact","6185 MAGNOLIA AVE, RIVERSIDE, CA, 92506",635981892,"R"
259870,"6185 MAGNOLIA AVE UNIT 149","RIVERSIDE","CA",92506,33.958289973,-117.393457441,370,"6185 MAGNOLIA AVE UNIT 149, RIVERSIDE, CA, 92506","Match","Exact","6185 MAGNOLIA AVE, RIVERSIDE, CA, 92506",635981892,"R"
259871,"6185 REGINA","HILLSBORO","MO",63050,NA,NA,371,"6185 REGINA, HILLSBORO, MO, 63050","No_Match",NA,NA,NA,NA
259872,"6186 CROOKED CREEK DRIVE","REX","GA",30273,NA,NA,372,"6186 CROOKED CREEK DRIVE, REX, GA, 30273","No_Match",NA,NA,NA,NA
259873,"6186 KING WILKINSON ROAD","DENVER","NC",28037,35.5352084310001,-81.076185967,373,"6186 KING WILKINSON ROAD, DENVER, NC, 28037","Match","Exact","6186 KING WILKINSON RD, DENVER, NC, 28037",69534794,"R"
259874,"6186 KINGS CROWN ROAD","GRAND BLANC","MI",48439,42.9399852660001,-83.609123575,374,"6186 KINGS CROWN ROAD, GRAND BLANC, MI, 48439","Match","Exact","6186 KINGS CROWN RD, GRAND BLANC, MI, 48439",69590192,"R"
259875,"6186 POKAGON ROAD","BERRIEN SPRINGS","MI",49103,41.9411379570001,-86.3076322209999,375,"6186 POKAGON ROAD, BERRIEN SPRINGS, MI, 49103","Match","Exact","6186 POKAGON RD, BERRIEN SPRINGS, MI, 49103",119999115,"L"
259876,"6187 ATLANTIC AVENUE STE 101","LONG BEACH","CA",90805,33.866985943,-118.185214453,376,"6187 ATLANTIC AVENUE STE 101, LONG BEACH, CA, 90805","Match","Exact","6187 ATLANTIC AVE, LONG BEACH, CA, 90805",141684192,"L"
259877,"6187 ATLANTIC BLVD  2747","LONG BEACH","CA",90805,33.866985943,-118.185214453,377,"6187 ATLANTIC BLVD  2747, LONG BEACH, CA, 90805","Match","Non_Exact","6187 ATLANTIC AVE, LONG BEACH, CA, 90805",141684192,"L"
259878,"6187 MCKENDREE CHURCH ROAD","TARBORO","NC",27886,35.860320275,-77.625524809,378,"6187 MCKENDREE CHURCH ROAD, TARBORO, NC, 27886","Match","Exact","6187 MCKENDREE CHURCH RD, TARBORO, NC, 27886",90181033,"R"
259879,"6187 NE 195TH COURT","KENMORE","WA",98028,47.770237713,-122.260218654,379,"6187 NE 195TH COURT, KENMORE, WA, 98028","Match","Exact","6187 NE 195TH CT, KENMORE, WA, 98028",186968877,"L"
259880,"6187 NE 195TH CT","KENMORE","WA",98028,47.770237713,-122.260218654,380,"6187 NE 195TH CT, KENMORE, WA, 98028","Match","Exact","6187 NE 195TH CT, KENMORE, WA, 98028",186968877,"L"
259881,"6187 RIDGE RD","PARMA","OH",44129,41.395176985,-81.734559267,381,"6187 RIDGE RD, PARMA, OH, 44129","Match","Exact","6187 RIDGE RD, PARMA, OH, 44129",61107173,"L"
259882,"6187 STAGE ROAD","BARTLETT","TN",38134,35.2045904600001,-89.857012428,382,"6187 STAGE ROAD, BARTLETT, TN, 38134","Match","Exact","6187 STAGE RD, BARTLETT, TN, 38134",72941588,"R"
259883,"6187 TOWNSEND WAY","RIVERDALE","GA",30296,33.586113417,-84.43444299,383,"6187 TOWNSEND WAY, RIVERDALE, GA, 30296","Match","Exact","6187 TOWNSEND WAY, RIVERDALE, GA, 30296",23312356,"R"
259884,"6188 BADHAM DRIVE","REEVESVILLE","SC",29471,33.1950040560001,-80.612151314,384,"6188 BADHAM DRIVE, REEVESVILLE, SC, 29471","Match","Exact","6188 BADHAM DR, REEVESVILLE, SC, 29471",638641368,"R"
259885,"6188 BELVEDERE RD","WEST PALM BEACH","FL",33413,NA,NA,385,"6188 BELVEDERE RD, WEST PALM BEACH, FL, 33413","No_Match",NA,NA,NA,NA
259886,"6188 CHARRING CROSS COURT","LITHONIA","GA",30058,33.7250619700001,-84.136821601,386,"6188 CHARRING CROSS COURT, LITHONIA, GA, 30058","Match","Exact","6188 CHARRING CROSS CT, LITHONIA, GA, 30058",23383051,"R"
259887,"6188 DRY HARBOR RD APT 5F","MIDDLE VILLAGE","NY",11379,NA,NA,387,"6188 DRY HARBOR RD APT 5F, MIDDLE VILLAGE, NY, 11379","No_Match",NA,NA,NA,NA
259888,"6188 S WESTVIEW ST","LITTLETON","CO",80120,39.6040491360001,-104.989252399,388,"6188 S WESTVIEW ST, LITTLETON, CO, 80120","Match","Exact","6188 S WESTVIEW ST, LITTLETON, CO, 80120",177336575,"L"
259889,"6189 COUNTY ROAD XX","COPE","CO",80812,NA,NA,389,"6189 COUNTY ROAD XX, COPE, CO, 80812","No_Match",NA,NA,NA,NA
259890,"6189 EL CAMINO REAL SUITE 201","CARLSBAD","CA",92009,33.124627348,-117.266377186,390,"6189 EL CAMINO REAL SUITE 201, CARLSBAD, CA, 92009","Match","Exact","6189 EL CAMINO REAL, CARLSBAD, CA, 92009",195766911,"R"
259891,"6189 HERITAGE LANE","LISLE","IL",60532,NA,NA,391,"6189 HERITAGE LANE, LISLE, IL, 60532","No_Match",NA,NA,NA,NA
259892,"6189 PURPLE SAGE CT","SAN JOSE","CA",95119,37.2344327060001,-121.793403462,392,"6189 PURPLE SAGE CT, SAN JOSE, CA, 95119","Match","Exact","6189 PURPLE SAGE CT, SAN JOSE, CA, 95119",122927035,"R"
259893,"6189 S 1550 E","OGDEN","UT",84405,41.1505972040001,-111.939696482,393,"6189 S 1550 E, OGDEN, UT, 84405","Match","Exact","6189 S 1550 E, OGDEN, UT, 84405",155720197,"R"
259894,"6189 SEQUOIA DRIVE","PORT ORANGE","FL",32127,29.084067019,-80.989844186,394,"6189 SEQUOIA DRIVE, PORT ORANGE, FL, 32127","Match","Exact","6189 SEQUOIA DR, PORT ORANGE, FL, 32127",94559223,"R"
259895,"6189 SKYWAY","PARADISE","CA",95969,39.755704328,-121.62655867,395,"6189 SKYWAY, PARADISE, CA, 95969","Match","Exact","6189 SKYWAY, PARADISE, CA, 95969",68475040,"L"
259896,"6189 TAYLOR RD","NAPLES","FL",34109,26.2214181790001,-81.783623841,396,"6189 TAYLOR RD, NAPLES, FL, 34109","Match","Exact","6189 TAYLOR RD, NAPLES, FL, 34109",115188664,"R"
259897,"618A HARNETT STREET","WILMINGTON","NC",28401,34.2471897950001,-77.9425480419999,397,"618A HARNETT STREET, WILMINGTON, NC, 28401","Match","Exact","618 HARNETT ST, WILMINGTON, NC, 28401",152730672,"R"
259898,"619 11TH STREET","GOTHENBURG","NE",69138,40.928887735,-100.159225745,398,"619 11TH STREET, GOTHENBURG, NE, 69138","Match","Exact","619 11TH ST, GOTHENBURG, NE, 69138",137907431,"R"
259899,"619 33 RD","CLIFTON","CO",81520,39.0944983260001,-108.440889241,399,"619 33 RD, CLIFTON, CO, 81520","Match","Exact","619 33 RD, CLIFTON, CO, 81520",122452601,"L"
259900,"619 64TH AVE","CAPITOL HEIGHTS","MD",20743,38.8982910760001,-76.908201514,400,"619 64TH AVE, CAPITOL HEIGHTS, MD, 20743","Match","Exact","619 64TH AVE, CAPITOL HEIGHTS, MD, 20743",76373165,"R"
259901,"619 AARON ST","BETHLEHEM","PA",18015,40.6098532710001,-75.352190349,401,"619 AARON ST, BETHLEHEM, PA, 18015","Match","Exact","619 AARON ST, BETHLEHEM, PA, 18015",136886016,"L"
259902,"619 ALBERTHAS DR","VIRGINIA BEACH","VA",23452,36.8523983520001,-76.089154524,402,"619 ALBERTHAS DR, VIRGINIA BEACH, VA, 23452","Match","Exact","619 ALBERTHAS DR, VA BCH, VA, 23452",122273560,"R"
259903,"619 APPLE AVE","HOLLAND","MI",49423,42.7742814970001,-86.089808782,403,"619 APPLE AVE, HOLLAND, MI, 49423","Match","Exact","619 APPLE AVE, HOLLAND, MI, 49423",71077921,"R"
259904,"619 BAINBRIDGE STREET","FOSTER CITY","CA",94404,37.5477698460001,-122.26594792,404,"619 BAINBRIDGE STREET, FOSTER CITY, CA, 94404","Match","Exact","619 BAINBRIDGE ST, FOSTER CITY, CA, 94404",192380863,"L"
259905,"619 BERRY TRAIL","FORNEY","TX",75126,32.763866953,-96.452083718,405,"619 BERRY TRAIL, FORNEY, TX, 75126","Match","Exact","619 BERRY TRL, FORNEY, TX, 75126",614177811,"L"
259906,"619 BEVERLY DR","DESOTO","TX",75115,32.6158675450001,-96.8706001479999,406,"619 BEVERLY DR, DESOTO, TX, 75115","Match","Exact","619 BEVERLY DR, DESOTO, TX, 75115",102972527,"R"
259907,"619 BLAND STREET","BLUEFIELD","WV",24701,37.267239836,-81.222281516,407,"619 BLAND STREET, BLUEFIELD, WV, 24701","Match","Exact","619 BLAND ST, BLUEFIELD, WV, 24701",640009638,"R"
259908,"619 BROOKHAVEN WAY","NICEVILLE","FL",32578,30.470789128,-86.419147374,408,"619 BROOKHAVEN WAY, NICEVILLE, FL, 32578","Match","Exact","619 BROOKHAVEN WAY, NICEVILLE, FL, 32578",651737680,"L"
259909,"619 CALVIN ST","WASHINGTON TOWNSHIP","NJ",7676,40.994839084,-74.048617232,409,"619 CALVIN ST, WASHINGTON TOWNSHIP, NJ, 7676","Match","Non_Exact","619 CALVIN ST, WASHINGTON TWPS, NJ, 07676",64412962,"R"
259910,"619 CENTRAL AVENUE","EGG HARBOR TWP","NJ",8234,39.3721456650001,-74.592681171,410,"619 CENTRAL AVENUE, EGG HARBOR TWP, NJ, 8234","Match","Exact","619 CENTRAL AVE, EGG HARBOR TOWNSHIP, NJ, 08234",619154066,"R"
259911,"619 CHURCH STREET NUM 2056","OTTUMWA","IA",52501,41.007995013,-92.4205902309999,411,"619 CHURCH STREET NUM 2056, OTTUMWA, IA, 52501","Match","Exact","619 CHURCH ST, OTTUMWA, IA, 52501",89628815,"L"
259912,"619 CHURCH STREET","VONORE","TN",37885,35.590867464,-84.245252652,412,"619 CHURCH STREET, VONORE, TN, 37885","Match","Exact","619 CHURCH ST, VONORE, TN, 37885",647185021,"R"
259913,"619 COLLEGE AVENUE","HAVERFORD","PA",19041,40.0077792110001,-75.316102191,413,"619 COLLEGE AVENUE, HAVERFORD, PA, 19041","Match","Exact","619 COLLEGE AVE, HAVERFORD, PA, 19041",134892768,"R"
259914,"619 COLLINGWOOD ST","DETROIT","MI",48202,42.3889919760001,-83.090242147,414,"619 COLLINGWOOD ST, DETROIT, MI, 48202","Match","Exact","619 COLLINGWOOD ST, DETROIT, MI, 48202",95475151,"L"
259915,"619 COUNCIL LANE","CHAPELHILL","NC",27516,35.9156147800001,-79.114262529,415,"619 COUNCIL LANE, CHAPELHILL, NC, 27516","Match","Non_Exact","619 COUNCIL LN, CHAPEL HILL, NC, 27516",72404115,"R"
259916,"619 COUNTY ROAD 281","WOODLAND PARK","CO",80863,38.9426165020001,-105.065266535,416,"619 COUNTY ROAD 281, WOODLAND PARK, CO, 80863","Match","Exact","619 CO RD 281, WOODLAND PARK, CO, 80863",617197291,"L"
259917,"619 CRESCENT LANE","STATESVILLE","NC",28677,35.7671015330001,-80.872833241,417,"619 CRESCENT LANE, STATESVILLE, NC, 28677","Match","Exact","619 CRESCENT LN, STATESVILLE, NC, 28677",46002950,"R"
259918,"619 DEFOREST CT","COPPELL","TX",75019,32.9843825470001,-96.96347353,418,"619 DEFOREST CT, COPPELL, TX, 75019","Match","Exact","619 DEFOREST CT, COPPELL, TX, 75019",618492003,"R"
259919,"619 E 5TH AVE  UNIT 2","SALT LAKE CITY","UT",84103,40.775108645,-111.870946156,419,"619 E 5TH AVE  UNIT 2, SALT LAKE CITY, UT, 84103","Match","Non_Exact","619 E 5TH AVE, SALT LAKE CITY, UT, 84103",176067886,"L"
259920,"619 E JENSEN UNIT 2","MESA","AZ",85203,NA,NA,420,"619 E JENSEN UNIT 2, MESA, AZ, 85203","No_Match",NA,NA,NA,NA
259921,"619 E MERCER ST","SEATTLE","WA",98102,47.6242789360001,-122.323803702,421,"619 E MERCER ST, SEATTLE, WA, 98102","Match","Exact","619 E MERCER ST, SEATTLE, WA, 98102",186584284,"R"
259922,"619 E SANTA ANITA AVE UNIT D","BURBANK","CA",91501,34.1829177600001,-118.299576733,422,"619 E SANTA ANITA AVE UNIT D, BURBANK, CA, 91501","Match","Non_Exact","619 E SANTA ANITA AVE, BURBANK, CA, 91501",141595479,"L"
259923,"619 EAST 11 AND ONE HALF ST","HOUSTON","TX",77008,29.790788648,-95.391527675,423,"619 EAST 11 AND ONE HALF ST, HOUSTON, TX, 77008","Match","Non_Exact","619 E 11TH ST, HOUSTON, TX, 77008",96061459,"L"
259924,"619 EAST COLT COURT","CHANDLER","AZ",85225,33.3370532650001,-111.832026309,424,"619 EAST COLT COURT, CHANDLER, AZ, 85225","Match","Exact","619 E COLT CT, CHANDLER, AZ, 85225",128822492,"L"
259925,"619 EAST ELM STREET","LIMA","OH",45804,40.7376495130001,-84.097014885,425,"619 EAST ELM STREET, LIMA, OH, 45804","Match","Exact","619 E ELM ST, LIMA, OH, 45804",35567876,"L"
259926,"619 EASTWOOD VILLAGE DR","STOCKBRIDGE","GA",30281,33.5482953000001,-84.256165451,426,"619 EASTWOOD VILLAGE DR, STOCKBRIDGE, GA, 30281","Match","Exact","619 EASTWOOD VILLAGE DR, STOCKBRIDGE, GA, 30281",649954140,"R"
259927,"619 ELIZABETH ROAD","GLEN BURNIE","MD",21061,39.142328041,-76.640964743,427,"619 ELIZABETH ROAD, GLEN BURNIE, MD, 21061","Match","Exact","619 ELIZABETH RD, GLEN BURNIE, MD, 21061",68157789,"R"
259928,"619 ENTERPRISE DRIVE - SUITE 100","OAK BROOK","IL",60523,41.8473121960001,-87.9389764269999,428,"619 ENTERPRISE DRIVE - SUITE 100, OAK BROOK, IL, 60523","Match","Exact","619 ENTERPRISE DR, OAK BROOK, IL, 60523",112669074,"L"
259929,"619 FAGAN SPRINGS DR","HUNTSVILLE","AL",35801,34.734721204,-86.556267442,429,"619 FAGAN SPRINGS DR, HUNTSVILLE, AL, 35801","Match","Non_Exact","619 FAGAN SPRINGS DR SE, HUNTSVILLE, AL, 35801",58187181,"L"
259930,"619 FIFTH STREET SUITE 2","MILFORD","PA",18337,41.3272608350001,-74.799877636,430,"619 FIFTH STREET SUITE 2, MILFORD, PA, 18337","Match","Exact","619 5TH ST, MILFORD, PA, 18337",647944383,"R"
259931,"619 FONTES DRIVE","FREMONT","CA",94539,37.5408149020001,-121.932572783,431,"619 FONTES DRIVE, FREMONT, CA, 94539","Match","Exact","619 FONTES DR, FREMONT, CA, 94539",125044292,"L"
259932,"619 FRANK KEASLER BLVD","DUNCANVILLE","TX",75116,32.6687816210001,-96.919465698,432,"619 FRANK KEASLER BLVD, DUNCANVILLE, TX, 75116","Match","Exact","619 FRANK KEASLER BLVD, DUNCANVILLE, TX, 75116",102940846,"R"
259933,"619 GLENRIDGE CT SE","CONYERS","GA",30094,33.55462929,-84.026844383,433,"619 GLENRIDGE CT SE, CONYERS, GA, 30094","Match","Exact","619 GLENRIDGE CT SE, CONYERS, GA, 30094",23738678,"R"
259934,"619 GLORIOSA AVE","PERRIS","CA",92571,33.839456372,-117.209805454,434,"619 GLORIOSA AVE, PERRIS, CA, 92571","Match","Exact","619 GLORIOSA AVE, PERRIS, CA, 92571",624625589,"L"
259935,"619 GOLFVIEW AVE","ZUMBROTA","MN",55992,44.3162169720001,-92.6804442119999,435,"619 GOLFVIEW AVE, ZUMBROTA, MN, 55992","Match","Exact","619 GOLFVIEW AVE, ZUMBROTA, MN, 55992",648499455,"L"
259936,"619 GRASSMERE TERRACE 2ND FLOOR","FAR ROCKAWAY","NY",11691,40.600749228,-73.757967475,436,"619 GRASSMERE TERRACE 2ND FLOOR, FAR ROCKAWAY, NY, 11691","Match","Exact","619 GRASSMERE TER, FAR ROCKAWAY, NY, 11691",59723715,"L"
259937,"619 GREENE STREET","AUGUSTA","GA",30901,33.472179053,-81.9627327709999,437,"619 GREENE STREET, AUGUSTA, GA, 30901","Match","Exact","619 GREENE ST, AUGUSTA, GA, 30901",617769878,"R"
259938,"619 HAMPTON ST","HINESVILLE","GA",31313,31.841941809,-81.614210729,438,"619 HAMPTON ST, HINESVILLE, GA, 31313","Match","Exact","619 HAMPTON ST, HINESVILLE, GA, 31313",6347595,"R"
259939,"619 HUNTINGTON AVE","PLAINFIELD","NJ",7060,40.5997029580001,-74.421807668,439,"619 HUNTINGTON AVE, PLAINFIELD, NJ, 7060","Match","Exact","619 HUNTINGTON AVE, PLAINFIELD, NJ, 07060",640085080,"L"
259940,"619 JOEL DRIVE","TYLER","TX",75703,32.27501606,-95.2986488939999,440,"619 JOEL DRIVE, TYLER, TX, 75703","Match","Exact","619 JOEL DR, TYLER, TX, 75703",141273071,"R"
259941,"619 KIMBALL STREET","PHILADELPHIA","PA",19147,39.9359952250001,-75.154051698,441,"619 KIMBALL STREET, PHILADELPHIA, PA, 19147","Match","Exact","619 KIMBALL ST, PHILADELPHIA, PA, 19147",131424091,"R"
259942,"619 KINGSLEY DRIVE","VENTNOR","NJ",8406,39.3430100620001,-74.493902094,442,"619 KINGSLEY DRIVE, VENTNOR, NJ, 8406","Match","Non_Exact","619 KINGSLEY DR, VENTNOR CITY, NJ, 08406",202488248,"R"
259943,"619 KNIGHT ST","MILES CITY","MT",59301,46.412937883,-105.844975053,443,"619 KNIGHT ST, MILES CITY, MT, 59301","Match","Non_Exact","619 N KNIGHT ST, MILES CITY, MT, 59301",150379624,"L"
259944,"619 LEE PLACE","FREDERICK","MD",21702,39.432009642,-77.426408107,444,"619 LEE PLACE, FREDERICK, MD, 21702","Match","Exact","619 LEE PL, FREDERICK, MD, 21702",60672366,"L"
259945,"619 LEXINGTON AVE NORTH","NEW PRAGUE","MN",56071,44.549142612,-93.5652829969999,445,"619 LEXINGTON AVE NORTH, NEW PRAGUE, MN, 56071","Match","Exact","619 LEXINGTON AVE N, NEW PRAGUE, MN, 56071",38153230,"R"
259946,"619 LOS OLIVOS DRIVE","SAN GABRIEL","CA",91775,34.1147191540001,-118.092857381,446,"619 LOS OLIVOS DRIVE, SAN GABRIEL, CA, 91775","Match","Exact","619 LOS OLIVOS DR, SAN GABRIEL, CA, 91775",141633875,"L"
259947,"619 MAIN STREET","WAUSAUKEE","WI",54177,45.3745182060001,-87.951933573,447,"619 MAIN STREET, WAUSAUKEE, WI, 54177","Match","Exact","619 MAIN ST, WAUSAUKEE, WI, 54177",169990861,"L"
259948,"619 MAJESTIC OAK RIDGE","SOLON","IA",52333,41.8066491760001,-91.486853627,448,"619 MAJESTIC OAK RIDGE, SOLON, IA, 52333","Match","Exact","619 MAJESTIC OAK RIDGE, SOLON, IA, 52333",653234869,"L"
259949,"619 MUDDY CREEK RD","CHESAPEAKE","VA",23324,NA,NA,449,"619 MUDDY CREEK RD, CHESAPEAKE, VA, 23324","No_Match",NA,NA,NA,NA
259950,"619 N 16 STREET","COEUR D ALENE","ID",83814,47.6776317920001,-116.763309923,450,"619 N 16 STREET, COEUR D ALENE, ID, 83814","Match","Exact","619 N 16TH ST, COEUR D ALENE, ID, 83814",192902680,"L"
259951,"619 N HICKORY STREET","JOLIET","IL",60435,41.534371295,-88.087901727,451,"619 N HICKORY STREET, JOLIET, IL, 60435","Match","Exact","619 N HICKORY ST, JOLIET, IL, 60435",111541449,"L"
259952,"619 N LONGWOOD CT","GLENWOOD","IL",60425,NA,NA,452,"619 N LONGWOOD CT, GLENWOOD, IL, 60425","Tie",NA,NA,NA,NA
259953,"619 NE BLUESTEM RD UNIT 12","EL DORADO","KS",67042,NA,NA,453,"619 NE BLUESTEM RD UNIT 12, EL DORADO, KS, 67042","No_Match",NA,NA,NA,NA
259954,"619 NELSON POINT ROAD","NICEVILLE","FL",32578,30.5011456600001,-86.444872155,454,"619 NELSON POINT ROAD, NICEVILLE, FL, 32578","Match","Exact","619 NELSON POINT RD, NICEVILLE, FL, 32578",643948051,"L"
259955,"619 NORTH SECOND ST","HARRISBURG","PA",17101,40.263701532,-76.887728774,455,"619 NORTH SECOND ST, HARRISBURG, PA, 17101","Match","Exact","619 N 2ND ST, HARRISBURG, PA, 17101",70817513,"R"
259956,"619 NW 130TH WAY","PEMBROKE PINES","FL",33028,26.01197561,-80.324380608,456,"619 NW 130TH WAY, PEMBROKE PINES, FL, 33028","Match","Exact","619 NW 130TH WAY, PEMBROKE PINES, FL, 33028",114782085,"R"
259957,"619 NW 6TH AVE 7TH FLOOR","PORTLAND","OR",97209,NA,NA,457,"619 NW 6TH AVE 7TH FLOOR, PORTLAND, OR, 97209","No_Match",NA,NA,NA,NA
259958,"619 OVERLOOK TERRACE","DEFOREST","WI",53532,43.247419431,-89.3559218089999,458,"619 OVERLOOK TERRACE, DEFOREST, WI, 53532","Match","Exact","619 OVERLOOK TER, DEFOREST, WI, 53532",49505104,"L"
259959,"619 PARK ST","NEOSHO","MO",64850,36.863283219,-94.360309571,459,"619 PARK ST, NEOSHO, MO, 64850","Match","Exact","619 PARK ST, NEOSHO, MO, 64850",55975909,"L"
259960,"619 Q ST NW","WASHINGTON","DC",20001,38.911132498,-77.0206819599999,460,"619 Q ST NW, WASHINGTON, DC, 20001","Match","Exact","619 Q ST NW, WASHINGTON, DC, 20001",76226219,"R"
259961,"619 RED CEDAR RD 335-C WELLS HALL","EAST LANSING","MI",48824,NA,NA,461,"619 RED CEDAR RD 335-C WELLS HALL, EAST LANSING, MI, 48824","No_Match",NA,NA,NA,NA
259962,"619 RED CEDAR RD C714 WELLS HALL","EAST LANSING","MI",48824,NA,NA,462,"619 RED CEDAR RD C714 WELLS HALL, EAST LANSING, MI, 48824","No_Match",NA,NA,NA,NA
259963,"619 S 4TH ST","BOONVILLE","IN",47601,38.0447457550001,-87.273268655,463,"619 S 4TH ST, BOONVILLE, IN, 47601","Match","Exact","619 S 4TH ST, BOONVILLE, IN, 47601",32206837,"L"
259964,"619 S 5TH AVE","ST CHARLES","IL",60174,41.9100769250001,-88.307559312,464,"619 S 5TH AVE, ST CHARLES, IL, 60174","Match","Exact","619 S 5TH AVE, SAINT CHARLES, IL, 60174",119507355,"R"
259965,"619 S FREDONIA","NACOGDOCHES","TX",75961,31.598804224,-94.6566023,465,"619 S FREDONIA, NACOGDOCHES, TX, 75961","Match","Non_Exact","619 S FREDONIA ST, NACOGDOCHES, TX, 75961",72435983,"R"
259966,"619 S JACKSON ST","SEATTLE","WA",98104,47.5991834660001,-122.325826574,466,"619 S JACKSON ST, SEATTLE, WA, 98104","Match","Exact","619 S JACKSON ST, SEATTLE, WA, 98104",186590164,"R"
259967,"619 S WHITE HORSE PIKE","AUDUBON","NJ",8106,39.8889013200001,-75.063120335,467,"619 S WHITE HORSE PIKE, AUDUBON, NJ, 8106","Match","Exact","619 S WHITE HORSE PIKE, AUDUBON, NJ, 08106",134350607,"L"
259968,"619 SMITH ROAD","POLK CITY","FL",33868,28.185614753,-81.809158963,468,"619 SMITH ROAD, POLK CITY, FL, 33868","Match","Exact","619 SMITH RD, POLK CITY, FL, 33868",104894118,"R"
259969,"619 SMITH STREET ADDITION","MARLINTON","WV",24954,38.2228250740001,-80.080642681,469,"619 SMITH STREET ADDITION, MARLINTON, WV, 24954","Match","Exact","619 SMITH STREET ADDITION, MARLINTON, WV, 24954",607464457,"L"
259970,"619 SOUNDVIEW AVE","BRIDGEPORT","CT",6604,NA,NA,470,"619 SOUNDVIEW AVE, BRIDGEPORT, CT, 6604","No_Match",NA,NA,NA,NA
259971,"619 SOUTH FOURTH STREET","LOUISVILLE","KY",40202,38.2482751090001,-85.757986209,471,"619 SOUTH FOURTH STREET, LOUISVILLE, KY, 40202","Match","Exact","619 S 4TH ST, LOUISVILLE, KY, 40202",647937352,"L"
259972,"619 SOUTH YOUNG STREET","PINE BLUFF","AR",71603,34.223577203,-92.061928936,472,"619 SOUTH YOUNG STREET, PINE BLUFF, AR, 71603","Match","Exact","619 S YOUNG ST, PINE BLUFF, AR, 71603",2548411,"L"
259973,"619 STONEWOOD ST","SAN ANTONIO","TX",78216,29.5767425650001,-98.498865055,473,"619 STONEWOOD ST, SAN ANTONIO, TX, 78216","Match","Exact","619 STONEWOOD ST, SAN ANTONIO, TX, 78216",101566893,"R"
259974,"619 VICTORY DRIVE","STAFFORD","TX",77477,29.6079654340001,-95.54363122,474,"619 VICTORY DRIVE, STAFFORD, TX, 77477","Match","Exact","619 VICTORY DR, STAFFORD, TX, 77477",641170582,"R"
259975,"619 W 12TH ST","EMMETT","ID",83617,43.8647081180001,-116.508242641,475,"619 W 12TH ST, EMMETT, ID, 83617","Match","Exact","619 W 12TH ST, EMMETT, ID, 83617",649836368,"L"
259976,"619 W 3RD ST","COAL VALLEY","IL",61240,41.4443259390001,-90.463638886,476,"619 W 3RD ST, COAL VALLEY, IL, 61240","Match","Exact","619 W 3RD ST, COAL VALLEY, IL, 61240",633746347,"L"
259977,"619 W GALLATIN ST","HAZLEHURST","MS",39083,31.8576068400001,-90.410137919,477,"619 W GALLATIN ST, HAZLEHURST, MS, 39083","Match","Exact","619 W GALLATIN ST, HAZLEHURST, MS, 39083",64330233,"R"
259978,"619 W MAIN ST STE C","ARLINGTON","TX",76010,NA,NA,478,"619 W MAIN ST STE C, ARLINGTON, TX, 76010","Tie",NA,NA,NA,NA
259979,"619 W RIDGECREST BLVD SUITE A","RIDGECREST","CA",93555,NA,NA,479,"619 W RIDGECREST BLVD SUITE A, RIDGECREST, CA, 93555","Tie",NA,NA,NA,NA
259980,"619 WATERFORD LANE","MCDONOUGH","GA",30253,33.4889085200001,-84.178785079,480,"619 WATERFORD LANE, MCDONOUGH, GA, 30253","Match","Exact","619 WATERFORD LN, MCDONOUGH, GA, 30253",23199178,"R"
259981,"619 WEST 179TH STREET","NEW YORK","NY",10033,40.848212403,-73.93517522,481,"619 WEST 179TH STREET, NEW YORK, NY, 10033","Match","Exact","619 W 179TH ST, NEW YORK, NY, 10033",59655605,"R"
259982,"619 WEST 2ND STREET","HUMMELSTOWN","PA",17036,40.2652670850001,-76.721876717,482,"619 WEST 2ND STREET, HUMMELSTOWN, PA, 17036","Match","Exact","619 W 2ND ST, HUMMELSTOWN, PA, 17036",70831801,"L"
259983,"619 WEST 54TH STREET  -  SUITE 10A","NEW YORK","NY",10019,40.768593394,-73.9932785939999,483,"619 WEST 54TH STREET  -  SUITE 10A, NEW YORK, NY, 10019","Match","Exact","619 W 54TH ST, NEW YORK, NY, 10019",59655069,"R"
259984,"619 WEST CHESTNUT ST","LANCASTER","PA",17603,40.03988064,-76.318485424,484,"619 WEST CHESTNUT ST, LANCASTER, PA, 17603","Match","Exact","619 W CHESTNUT ST, LANCASTER, PA, 17603",179662091,"R"
259985,"619 WEST MAGNOLIA ST","STOCKTON","CA",95203,37.9619851730001,-121.302163595,485,"619 WEST MAGNOLIA ST, STOCKTON, CA, 95203","Match","Exact","619 W MAGNOLIA ST, STOCKTON, CA, 95203",133849066,"R"
259986,"619 WEST MARION ROAD","MT GILEAD","OH",43338,40.549299638,-82.849485183,486,"619 WEST MARION ROAD, MT GILEAD, OH, 43338","Match","Non_Exact","619 W MARION ST, MOUNT GILEAD, OH, 43338",12747726,"L"
259987,"619 WEST SMITH VALLEY ROAD","GREENWOOD","IN",46142,39.606206851,-86.117246208,487,"619 WEST SMITH VALLEY ROAD, GREENWOOD, IN, 46142","Match","Exact","619 W SMITH VALLEY RD, GREENWOOD, IN, 46142",619219264,"R"
259988,"619 WHITESTONE ROAD","SPARTANBURG","SC",29302,34.891471101,-81.8125280849999,488,"619 WHITESTONE ROAD, SPARTANBURG, SC, 29302","Match","Exact","619 WHITESTONE RD, SPARTANBURG, SC, 29302",624316844,"L"
259989,"619 WILLIAM PENN PLACE","PITTSBURGH","PA",15219,40.4412666850001,-79.9966596679999,489,"619 WILLIAM PENN PLACE, PITTSBURGH, PA, 15219","Match","Exact","619 WILLIAM PENN PL, PITTSBURGH, PA, 15219",51635012,"L"
259990,"619 WILLOW BROOK RD","CLINTON CORNERS","NY",12514,41.9055844650001,-73.7665961119999,490,"619 WILLOW BROOK RD, CLINTON CORNERS, NY, 12514","Match","Exact","619 WILLOW BROOK RD, CLINTON CORNERS, NY, 12514",4187798,"R"
259991,"619 WILLOWWOOD COURT","ALAMONTE SPRINGS","FL",32714,28.6749545820001,-81.411456882,491,"619 WILLOWWOOD COURT, ALAMONTE SPRINGS, FL, 32714","Match","Non_Exact","619 WILLOWWOOD AVE, ALTAMONTE SPG, FL, 32714",93735370,"R"
259992,"6190 DETRICK ROAD","TIPP CITY","OH",45371,39.949949754,-84.2171568489999,492,"6190 DETRICK ROAD, TIPP CITY, OH, 45371","Match","Exact","6190 DETRICK RD, TIPP CITY, OH, 45371",135298988,"R"
259993,"6190 E COUNTY ROAD 350 N","BROWNSBURG","IN",46112,39.8137559350001,-86.416806833,493,"6190 E COUNTY ROAD 350 N, BROWNSBURG, IN, 46112","Match","Exact","6190 E CO RD 350 N, BROWNSBURG, IN, 46112",89206453,"R"
259994,"6190 W 112TH ST","GRANT","MI",49327,43.3517532880001,-85.95433659,494,"6190 W 112TH ST, GRANT, MI, 49327","Match","Exact","6190 W 112TH ST, GRANT, MI, 49327",150229322,"L"
259995,"6190 W VIRGINIA PKWY STE 800","MCKINNEY","TX",75071,33.1991505,-96.700927147,495,"6190 W VIRGINIA PKWY STE 800, MCKINNEY, TX, 75071","Match","Exact","6190 VIRGINIA PKWY, MCKINNEY, TX, 75071",210474822,"R"
259996,"6190 YARROW DR","CARLSBAD","CA",92011,33.1232638440001,-117.27376386,496,"6190 YARROW DR, CARLSBAD, CA, 92011","Match","Exact","6190 YARROW DR, CARLSBAD, CA, 92011",195292083,"L"
259997,"6191 HILLSIDE DRIVE","EL SOBRANTE","CA",94803,37.9524319560001,-122.267863303,497,"6191 HILLSIDE DRIVE, EL SOBRANTE, CA, 94803","Match","Exact","6191 HILLSIDE DR, EL SOBRANTE, CA, 94803",192110513,"L"
259998,"6191 HONORAVILLE ROAD","HONORAVILLE","AL",36042,31.8522148010001,-86.399791524,498,"6191 HONORAVILLE ROAD, HONORAVILLE, AL, 36042","Match","Exact","6191 HONORAVILLE RD, HONORAVILLE, AL, 36042",10431414,"R"
259999,"6191 PEBBLE STONE LN","WOOSTER","OH",44691,40.8750628170001,-81.957113522,499,"6191 PEBBLE STONE LN, WOOSTER, OH, 44691","Match","Exact","6191 PEBBLE STONE LN, WOOSTER, OH, 44691",58744048,"R"
260000,"6191 RIVER ROAD","DOWNSVILLE","NY",13755,42.0707105810001,-74.996690842,500,"6191 RIVER ROAD, DOWNSVILLE, NY, 13755","Match","Exact","6191 RIVER RD, DOWNSVILLE, NY, 13755",41560478,"L"
