"ID","Address","City","State","Zip","lat","long","id","input_address","match_indicator","match_type","matched_address","tiger_line_id","tiger_side"
219001,"46 HUNTS POINT ROAD","CAPE ELIZABETH","ME",4107,43.5696756190001,-70.209754365,1,"46 HUNTS POINT ROAD, CAPE ELIZABETH, ME, 4107","Match","Exact","46 HUNTS POINT RD, CAPE ELIZABETH, ME, 04107",78046526,"R"
219002,"46 INDIAN HILL ROAD","WESTPORT","CT",6880,41.1221227400001,-73.3759840989999,2,"46 INDIAN HILL ROAD, WESTPORT, CT, 6880","Match","Exact","46 INDIAN HILL RD, WESTPORT, CT, 06880",627248075,"R"
219003,"46 JACQUELINE DRIVE","PAOLI","PA",19301,40.048846503,-75.4941071919999,3,"46 JACQUELINE DRIVE, PAOLI, PA, 19301","Match","Exact","46 JACQUELINE DR, PAOLI, PA, 19301",179612031,"R"
219004,"46 JEFFERSON VALLEY","COATESVILLE","IN",46121,NA,NA,4,"46 JEFFERSON VALLEY, COATESVILLE, IN, 46121","No_Match",NA,NA,NA,NA
219005,"46 JR LANE","CANDLER","NC",28715,NA,NA,5,"46 JR LANE, CANDLER, NC, 28715","No_Match",NA,NA,NA,NA
219006,"46 JUROCKO AVE","SOMERSET","NJ",8873,40.494771782,-74.470886908,6,"46 JUROCKO AVE, SOMERSET, NJ, 8873","Match","Exact","46 JUROCKO AVE, SOMERSET, NJ, 08873",59968899,"R"
219007,"46 KINGWOOD GREENS DR","KINGWOOD","TX",77339,30.032895635,-95.180640979,7,"46 KINGWOOD GREENS DR, KINGWOOD, TX, 77339","Match","Exact","46 KINGWOOD GREENS DR, KINGWOOD, TX, 77339",96572174,"L"
219008,"46 LAKE SHORE DRIVE","JOHNSTON","RI",2919,41.855722343,-71.550869945,8,"46 LAKE SHORE DRIVE, JOHNSTON, RI, 2919","Match","Exact","46 LAKE SHORE DR, JOHNSTON, RI, 02919",47449818,"R"
219009,"46 LINDEN ST NUM 2","LOWELL","MA",1852,42.6374914690001,-71.3078875269999,9,"46 LINDEN ST NUM 2, LOWELL, MA, 1852","Match","Exact","46 LINDEN ST, LOWELL, MA, 01852",648063217,"L"
219010,"46 LOCUST LANE","ORWIGSBURG","PA",17961,40.630399233,-76.0532647379999,10,"46 LOCUST LANE, ORWIGSBURG, PA, 17961","Match","Exact","46 LOCUST LN, ORWIGSBURG, PA, 17961",70949591,"R"
219011,"46 LOMBARDI ROAD","PEARL RIVER","NY",10965,41.070324795,-74.008493575,11,"46 LOMBARDI ROAD, PEARL RIVER, NY, 10965","Match","Exact","46 LOMBARDI RD, PEARL RIVER, NY, 10965",124597059,"R"
219012,"46 LONGVIEW ROAD","PORT WASHINGTON","NY",11050,40.8370155690001,-73.6803108129999,12,"46 LONGVIEW ROAD, PORT WASHINGTON, NY, 11050","Match","Exact","46 LONGVIEW RD, PORT WASHINGTON, NY, 11050",147839650,"R"
219013,"46 LOST POND CIR","THE WOODLANDS","TX",77381,NA,NA,13,"46 LOST POND CIR, THE WOODLANDS, TX, 77381","Tie",NA,NA,NA,NA
219014,"46 LOST TREE COURT","DOVER","DE",19904,39.1723289870001,-75.576162847,14,"46 LOST TREE COURT, DOVER, DE, 19904","Match","Exact","46 LOST TREE CT, DOVER, DE, 19904",68094603,"L"
219015,"46 LYNACRES BOULEVARD","FAYETTEVILLE","NY",13066,43.0338227400001,-76.0434075059999,15,"46 LYNACRES BOULEVARD, FAYETTEVILLE, NY, 13066","Match","Exact","46 LYNACRES BLVD, FAYETTEVILLE, NY, 13066",46575792,"R"
219016,"46 MACON STREET","BROOKLYN","NY",11216,40.6811267510001,-73.949195093,16,"46 MACON STREET, BROOKLYN, NY, 11216","Match","Exact","46 MACON ST, BROOKLYN, NY, 11216",59078926,"R"
219017,"46 MAIN ST","RAYMOND","NH",3077,43.036998442,-71.184224386,17,"46 MAIN ST, RAYMOND, NH, 3077","Match","Exact","46 MAIN ST, RAYMOND, NH, 03077",113662002,"R"
219018,"46 MAPLE AVE","NORTHPORT","NY",11768,40.902230048,-73.33371499,18,"46 MAPLE AVE, NORTHPORT, NY, 11768","Match","Exact","46 MAPLE AVE, NORTHPORT, NY, 11768",113964849,"R"
219019,"46 MARION DR","PLAINSBORO","NJ",8536,40.332021087,-74.5796977159999,19,"46 MARION DR, PLAINSBORO, NJ, 8536","Match","Exact","46 MARION DR, PLAINSBORO, NJ, 08536",60299963,"R"
219020,"46 MARISA COURT","CORBIN","KY",40701,36.9701965530001,-84.03326746,20,"46 MARISA COURT, CORBIN, KY, 40701","Match","Exact","46 MARISA CT, CORBIN, KY, 40701",160702614,"R"
219021,"46 MARISOL STREET","RANCHO MISSION VIEJO","CA",92694,33.536033951,-117.598303151,21,"46 MARISOL STREET, RANCHO MISSION VIEJO, CA, 92694","Match","Exact","46 MARISOL ST, RANCHO MISSION VIEJO, CA, 92694",650348611,"R"
219022,"46 MEADOWBROOK LANE","TAUNTON","MA",2780,41.9244491520001,-71.163125146,22,"46 MEADOWBROOK LANE, TAUNTON, MA, 2780","Match","Non_Exact","46 MEADOW BROOK LN, TAUNTON, MA, 02780",46777595,"L"
219023,"46 MERCER STREET 4W","NEW YORK","NY",10013,40.721610664,-74.001134207,23,"46 MERCER STREET 4W, NEW YORK, NY, 10013","Match","Exact","46 MERCER ST, NEW YORK, NY, 10013",59660297,"R"
219024,"46 MIDDLE STREET","HADLEY","MA",1035,42.343456388,-72.589242762,24,"46 MIDDLE STREET, HADLEY, MA, 1035","Match","Exact","46 MIDDLE ST, HADLEY, MA, 01035",39851324,"L"
219025,"46 MIKE SLOTT ROAD","NEW WAVERLY","TX",77358,30.5193018350001,-95.443477824,25,"46 MIKE SLOTT ROAD, NEW WAVERLY, TX, 77358","Match","Exact","46 MIKE SLOTT RD, NEW WAVERLY, TX, 77358",22208818,"R"
219026,"46 MILFORD STREET","BROOKLYN","NY",11208,40.678545592,-73.8780865809999,26,"46 MILFORD STREET, BROOKLYN, NY, 11208","Match","Exact","46 MILFORD ST, BROOKLYN, NY, 11208",59085470,"R"
219027,"46 MIRIAM AVE","BLASDELL","NY",14219,42.7978664250001,-78.82570228,27,"46 MIRIAM AVE, BLASDELL, NY, 14219","Match","Exact","46 MIRIAM AVE, BLASDELL, NY, 14219",48344564,"L"
219028,"46 MIXON STREET","YEMASSEE","SC",29945,32.6937385800001,-80.852228113,28,"46 MIXON STREET, YEMASSEE, SC, 29945","Match","Exact","46 MIXON ST, YEMASSEE, SC, 29945",33113492,"L"
219029,"46 MONROE STREET","WESTMINSTER","MD",21157,39.584198126,-76.99671657,29,"46 MONROE STREET, WESTMINSTER, MD, 21157","Match","Exact","46 MONROE ST, WESTMINSTER, MD, 21157",61752576,"R"
219030,"46 MORGAN AVENUE SUITE A","DANBURY","CT",6810,41.4100713380001,-73.431558888,30,"46 MORGAN AVENUE SUITE A, DANBURY, CT, 6810","Match","Exact","46 MORGAN AVE, DANBURY, CT, 06810",647171976,"L"
219031,"46 MOURNING DOVE LANE","YORK","PA",17406,39.9710849160001,-76.5899554659999,31,"46 MOURNING DOVE LANE, YORK, PA, 17406","Match","Exact","46 MOURNING DOVE LN, YORK, PA, 17406",635608812,"L"
219032,"46 MUNSON RD","HYDE PARK","VT",5655,44.6016890830001,-72.541947034,32,"46 MUNSON RD, HYDE PARK, VT, 5655","Match","Exact","46 MUNSON RD, HYDE PARK, VT, 05655",136624663,"L"
219033,"46 MYRTLE AVE","EDGEWATER","NJ",7020,40.836601891,-73.9718607249999,33,"46 MYRTLE AVE, EDGEWATER, NJ, 7020","Match","Exact","46 MYRTLE AVE, EDGEWATER, NJ, 07020",64392133,"L"
219034,"46 N 4TH STREET","NEWARK","OH",43055,40.0591059240001,-82.4051148309999,34,"46 N 4TH STREET, NEWARK, OH, 43055","Match","Exact","46 N 4TH ST, NEWARK, OH, 43055",61553800,"R"
219035,"46 N MUNROE ROAD","TALLMADGE","OH",44278,41.09977831,-81.415813439,35,"46 N MUNROE ROAD, TALLMADGE, OH, 44278","Match","Non_Exact","46 S MUNROE RD, TALLMADGE, OH, 44278",61352731,"R"
219036,"46 NATIONAL BOULEVARD","BEAUFORT","SC",29907,32.3667377580001,-80.653394303,36,"46 NATIONAL BOULEVARD, BEAUFORT, SC, 29907","Match","Exact","46 NATIONAL BLVD, BEAUFORT, SC, 29907",87651222,"R"
219037,"46 NORTH DR","AMHERST","NY",14226,42.9510128850001,-78.8022197929999,37,"46 NORTH DR, AMHERST, NY, 14226","Match","Exact","46 NORTH DR, AMHERST, NY, 14226",636677709,"L"
219038,"46 NORTH SUGAN ROAD","NEW HOPE","PA",18938,40.364438481,-74.968339885,38,"46 NORTH SUGAN ROAD, NEW HOPE, PA, 18938","Match","Exact","46 N SUGAN RD, NEW HOPE, PA, 18938",633346319,"R"
219039,"46 OCEANVIEW DR","BAY POINT","CA",94565,38.038299825,-121.97163468,39,"46 OCEANVIEW DR, BAY POINT, CA, 94565","Match","Exact","46 OCEANVIEW DR, BAY POINT, CA, 94565",192053328,"L"
219040,"46 OWLS NEST CIR","BEAR","DE",19701,39.603418886,-75.7173066089999,40,"46 OWLS NEST CIR, BEAR, DE, 19701","Match","Exact","46 OWLS NEST CIR, BEAR, DE, 19701",187287783,"R"
219041,"46 PENINSULA CENTER DRIVE 406","PALOS VERDES PENINSU","CA",90274,NA,NA,41,"46 PENINSULA CENTER DRIVE 406, PALOS VERDES PENINSU, CA, 90274","No_Match",NA,NA,NA,NA
219042,"46 PEQUOT ROAD PO BOX 484","PLAINVILLE","CT",6062,41.6844380800001,-72.840076545,42,"46 PEQUOT ROAD PO BOX 484, PLAINVILLE, CT, 6062","Match","Exact","46 PEQUOT RD, PLAINVILLE, CT, 06062",3519972,"R"
219043,"46 PETERS BLVD","CENTRAL ISLIP","NY",11722,40.7827552590001,-73.2081576909999,43,"46 PETERS BLVD, CENTRAL ISLIP, NY, 11722","Match","Exact","46 PETERS BLVD, CENTRAL ISLIP, NY, 11722",113989649,"L"
219044,"46 PINE RIDGE TRAIL","ARDEN","NC",28704,35.4554889980001,-82.576790146,44,"46 PINE RIDGE TRAIL, ARDEN, NC, 28704","Match","Exact","46 PINE RIDGE TRL, ARDEN, NC, 28704",36881908,"L"
219045,"46 PINE SQUARE","HAMMOND","LA",70401,NA,NA,45,"46 PINE SQUARE, HAMMOND, LA, 70401","Tie",NA,NA,NA,NA
219046,"46 PINEDALE AVE","BILLERICA","MA",1821,42.530523789,-71.220267171,46,"46 PINEDALE AVE, BILLERICA, MA, 1821","Match","Exact","46 PINEDALE AVE, BILLERICA, MA, 01821",86913244,"L"
219047,"46 PIONEER BLVD","HUNTINGTON","NY",11746,40.818213278,-73.397016945,47,"46 PIONEER BLVD, HUNTINGTON, NY, 11746","Match","Non_Exact","46 PIONEER BLVD, S HUNTINGTON, NY, 11746",113966562,"R"
219048,"46 PLEASANT STREET APT 4","CHARLESTOWN","MA",2129,42.375096382,-71.062154014,48,"46 PLEASANT STREET APT 4, CHARLESTOWN, MA, 2129","Match","Non_Exact","46 PLEASANT STREET CT, CHARLESTOWN, MA, 02129",85718250,"R"
219049,"46 PROSPECT ST","MARBLEHEAD","MA",1945,42.4986480100001,-70.858194474,49,"46 PROSPECT ST, MARBLEHEAD, MA, 1945","Match","Exact","46 PROSPECT ST, MARBLEHEAD, MA, 01945",86648989,"L"
219050,"46 Q STREET NW","WASHINGTON","DC",20001,38.9111196640001,-77.01090643,50,"46 Q STREET NW, WASHINGTON, DC, 20001","Match","Exact","46 Q ST NW, WASHINGTON, DC, 20001",76226493,"L"
219051,"46 RACCOON LANE","BE SPRINGS","WV",25411,NA,NA,51,"46 RACCOON LANE, BE SPRINGS, WV, 25411","No_Match",NA,NA,NA,NA
219052,"46 REYNOLDS RD","FORT EDWARD","NY",12828,43.258628989,-73.595793182,52,"46 REYNOLDS RD, FORT EDWARD, NY, 12828","Match","Exact","46 REYNOLDS RD, FORT EDWARD, NY, 12828",18799508,"R"
219053,"46 RICH ST APT 5B","IRVINGTON","NJ",7111,40.7315135150001,-74.231295819,53,"46 RICH ST APT 5B, IRVINGTON, NJ, 7111","Match","Exact","46 RICH ST, IRVINGTON, NJ, 07111",63464123,"L"
219054,"46 RIVERVIEW AVENUE","ONEONTA","NY",13820,42.442664101,-75.0749463349999,54,"46 RIVERVIEW AVENUE, ONEONTA, NY, 13820","Match","Exact","46 RIVERVIEW AVE, ONEONTA, NY, 13820",125919002,"R"
219055,"46 ROCKY ROAD","GREEN SPRING","WV",26722,39.52156074,-78.6254304569999,55,"46 ROCKY ROAD, GREEN SPRING, WV, 26722","Match","Exact","46 ROCKY RD, GREEN SPRING, WV, 26722",56072256,"R"
219056,"46 ROCKY VALLEY COVE","LITTLE ROCK","AR",72212,34.7853295730001,-92.392913178,56,"46 ROCKY VALLEY COVE, LITTLE ROCK, AR, 72212","Match","Exact","46 ROCKY VALLEY COVE, LITTLE ROCK, AR, 72212",83567952,"L"
219057,"46 ROSEWOOD DRIVE","BEEBE","AR",72012,35.1231309620001,-91.895180867,57,"46 ROSEWOOD DRIVE, BEEBE, AR, 72012","Match","Exact","46 ROSEWOOD DR, BEEBE, AR, 72012",82958820,"R"
219058,"46 ROWE ROAD","BUXTON","ME",4093,43.6534352510001,-70.581592638,58,"46 ROWE ROAD, BUXTON, ME, 4093","Match","Exact","46 ROWE RD, BUXTON, ME, 04093",92793455,"R"
219059,"46 S 16TH STREET","SAN JOSE","CA",95112,37.34256736,-121.874639548,59,"46 S 16TH STREET, SAN JOSE, CA, 95112","Match","Exact","46 S 16TH ST, SAN JOSE, CA, 95112",122908688,"L"
219060,"46 S 1ST ST E","MALTA","MT",59538,48.359757528,-107.87321382,60,"46 S 1ST ST E, MALTA, MT, 59538","Match","Exact","46 S 1ST ST E, MALTA, MT, 59538",166879441,"L"
219061,"46 S BERRYLINE CIRCLE","THE WOODLANDS","TX",77381,30.170522154,-95.478402381,61,"46 S BERRYLINE CIRCLE, THE WOODLANDS, TX, 77381","Match","Exact","46 S BERRYLINE CIR, THE WOODLANDS, TX, 77381",79310305,"L"
219062,"46 S MARION ST","BLOOMVILLE","OH",44818,41.05039967,-83.015370186,62,"46 S MARION ST, BLOOMVILLE, OH, 44818","Match","Exact","46 S MARION ST, BLOOMVILLE, OH, 44818",12968420,"L"
219063,"46 SANDERS ROAD","QUEENSBURY","NY",12804,43.2993632970001,-73.703893697,63,"46 SANDERS ROAD, QUEENSBURY, NY, 12804","Match","Exact","46 SANDERS RD, QUEENSBURY, NY, 12804",173900445,"R"
219064,"46 SECOND ST","RARITAN","NJ",8869,40.5688047800001,-74.63715891,64,"46 SECOND ST, RARITAN, NJ, 8869","Match","Exact","46 SECOND ST, RARITAN, NJ, 08869",59946886,"R"
219065,"46 SEVEN OAKS CIRCLE","HOLMDEL","NJ",7733,40.375238262,-74.160809109,65,"46 SEVEN OAKS CIRCLE, HOLMDEL, NJ, 7733","Match","Exact","46 SEVEN OAKS CIR, HOLMDEL, NJ, 07733",90476415,"L"
219066,"46 SHAWN CT","HINESVILLE","GA",31313,31.850069972,-81.548323008,66,"46 SHAWN CT, HINESVILLE, GA, 31313","Match","Exact","46 SHAWN CT, HINESVILLE, GA, 31313",627206629,"L"
219067,"46 SHEPTON ST","DORCHESTER","MA",2124,42.289796919,-71.061393129,67,"46 SHEPTON ST, DORCHESTER, MA, 2124","Match","Exact","46 SHEPTON ST, DORCHESTER, MA, 02124",85715268,"L"
219068,"46 SMITH MILL RD","NEW FREEDOM","PA",17349,39.7223658630001,-76.70121921,68,"46 SMITH MILL RD, NEW FREEDOM, PA, 17349","Match","Exact","46 SMITH MILL RD, NEW FREEDOM, PA, 17349",617900362,"R"
219069,"46 SOUTH DUNLAP","ST. PAUL","MN",55105,44.940684979,-93.1491506959999,69,"46 SOUTH DUNLAP, ST. PAUL, MN, 55105","Match","Non_Exact","46 S DUNLAP ST, SAINT PAUL, MN, 55105",97646453,"L"
219070,"46 SOUTH ORLEANS RD","ORLEANS","MA",2653,41.787255024,-69.98766897,70,"46 SOUTH ORLEANS RD, ORLEANS, MA, 2653","Match","Exact","46 S ORLEANS RD, ORLEANS, MA, 02653",121538377,"L"
219071,"46 SOUTH PERSHING AVENUE    SUITE B","YORK","PA",17401,39.9602421710001,-76.731078194,71,"46 SOUTH PERSHING AVENUE    SUITE B, YORK, PA, 17401","Match","Exact","46 S PERSHING AVE, YORK, PA, 17401",88731153,"R"
219072,"46 SPINNAKER LANE","POCASSET","MA",2559,41.7079547450001,-70.588942206,72,"46 SPINNAKER LANE, POCASSET, MA, 2559","Match","Exact","46 SPINNAKER LN, POCASSET, MA, 02559",121611932,"R"
219073,"46 SPRING STREET","HANOVER TOWNSHIP","PA",18706,41.2234386640001,-75.898428865,73,"46 SPRING STREET, HANOVER TOWNSHIP, PA, 18706","Match","Exact","46 SPRING ST, HANOVER TOWNSHIP, PA, 18706",604527686,"L"
219074,"46 SPRUCE DR","POCASSET","MA",2559,41.682002466,-70.618190719,74,"46 SPRUCE DR, POCASSET, MA, 2559","Match","Exact","46 SPRUCE DR, POCASSET, MA, 02559",121548711,"L"
219075,"46 STATUE WAY","PORTSMOUTH","RI",2871,41.6035659930001,-71.257535148,75,"46 STATUE WAY, PORTSMOUTH, RI, 2871","Match","Exact","46 STATUE WAY, PORTSMOUTH, RI, 02871",47355338,"L"
219076,"46 SULLIVANS LANDING","MISSOURI CITY","TX",77459,NA,NA,76,"46 SULLIVANS LANDING, MISSOURI CITY, TX, 77459","Tie",NA,NA,NA,NA
219077,"46 THRASHER ST","NEW ORLEANS","LA",70124,30.023884004,-90.096383487,77,"46 THRASHER ST, NEW ORLEANS, LA, 70124","Match","Exact","46 THRASHER ST, NEW ORLEANS, LA, 70124",191703082,"L"
219078,"46 TIGER LILY TRAIL","REHOBOTH","MA",2769,41.792734174,-71.228482215,78,"46 TIGER LILY TRAIL, REHOBOTH, MA, 2769","Match","Exact","46 TIGER LILY TRL, REHOBOTH, MA, 02769",46786066,"L"
219079,"46 TRAYNOR 7","HAYWARD","CA",94544,37.6559915170001,-122.08657106,79,"46 TRAYNOR 7, HAYWARD, CA, 94544","Match","Non_Exact","46 TRAYNOR ST, HAYWARD, CA, 94544",125021306,"L"
219080,"46 VEGA AVE","BROCKTON","MA",2302,42.0663584820001,-70.9996133069999,80,"46 VEGA AVE, BROCKTON, MA, 2302","Match","Exact","46 VEGA AVE, BROCKTON, MA, 02302",87445099,"L"
219081,"46 VERNON AVENUE","BATAVIA","NY",14020,43.00529212,-78.195549463,81,"46 VERNON AVENUE, BATAVIA, NY, 14020","Match","Exact","46 VERNON AVE, BATAVIA, NY, 14020",48160269,"R"
219082,"46 VILLAGE DRIVE","ORMOND BEACH","FL",32174,29.3421066540001,-81.1117522329999,82,"46 VILLAGE DRIVE, ORMOND BEACH, FL, 32174","Match","Exact","46 VILLAGE DR, ORMOND BEACH, FL, 32174",94515703,"R"
219083,"46 W ELM ST","HOPKINTON","MA",2138,NA,NA,83,"46 W ELM ST, HOPKINTON, MA, 2138","No_Match",NA,NA,NA,NA
219084,"46 W SUNBOW ST","CEDAR CITY","UT",84721,37.709406707,-113.063049015,84,"46 W SUNBOW ST, CEDAR CITY, UT, 84721","Match","Exact","46 W SUNBOW ST, CEDAR CITY, UT, 84721",165427446,"R"
219085,"46 WASHINGTON BLVD","WILLIAMSPORT","PA",17701,41.246985468,-77.0038061069999,85,"46 WASHINGTON BLVD, WILLIAMSPORT, PA, 17701","Match","Exact","46 WASHINGTON BLVD, WILLIAMSPORT, PA, 17701",59447286,"R"
219086,"46 WELLESLEY AVENUE","WELLESLEY","MA",2482,42.2977478270001,-71.2849015199999,86,"46 WELLESLEY AVENUE, WELLESLEY, MA, 2482","Match","Exact","46 WELLESLEY AVE, WELLESLEY, MA, 02482",87237059,"L"
219087,"46 WEST AVE","TALLMADGE","OH",44278,41.101479521,-81.44348803,87,"46 WEST AVE, TALLMADGE, OH, 44278","Match","Exact","46 WEST AVE, TALLMADGE, OH, 44278",640651903,"R"
219088,"46 WEST COTTAGE STREET","DORCHESTER","MA",2125,42.3206310150001,-71.0749491079999,88,"46 WEST COTTAGE STREET, DORCHESTER, MA, 2125","Match","Exact","46 W COTTAGE ST, DORCHESTER, MA, 02125",85701127,"L"
219089,"46 WEST MAIN STREET","ASHLAND","OH",44805,40.868705881,-82.3160878149999,89,"46 WEST MAIN STREET, ASHLAND, OH, 44805","Match","Exact","46 W MAIN ST, ASHLAND, OH, 44805",30146530,"R"
219090,"46 WHITMAN STREET","SOMERVILLE","MA",2144,42.402351523,-71.123392322,90,"46 WHITMAN STREET, SOMERVILLE, MA, 2144","Match","Exact","46 WHITMAN ST, SOMERVILLE, MA, 02144",86921843,"L"
219091,"46 WILSON DRIVE","SPARTA","NJ",7871,41.077290959,-74.665616407,91,"46 WILSON DRIVE, SPARTA, NJ, 7871","Match","Exact","46 WILSON DR, SPARTA, NJ, 07871",98021426,"R"
219092,"46 WINDING RUN","STREAMWOOD","IL",60107,42.037903521,-88.143293587,92,"46 WINDING RUN, STREAMWOOD, IL, 60107","Match","Non_Exact","46 WINDING RUN LN, STREAMWOOD, IL, 60107",111848110,"L"
219093,"46 WINDSOR AVE","MEDFORD","OR",97504,42.327380566,-122.842063709,93,"46 WINDSOR AVE, MEDFORD, OR, 97504","Match","Exact","46 WINDSOR AVE, MEDFORD, OR, 97504",155515258,"R"
219094,"46 WOODSIDE AVE","CHALFONT","PA",18914,40.269112867,-75.207211194,94,"46 WOODSIDE AVE, CHALFONT, PA, 18914","Match","Exact","46 WOODSIDE AVE, CHALFONT, PA, 18914",647090313,"R"
219095,"46 WOODWARD RD","MERRIMACK","NH",3054,42.890684557,-71.5505600499999,95,"46 WOODWARD RD, MERRIMACK, NH, 3054","Match","Exact","46 WOODWARD RD, MERRIMACK, NH, 03054",113534920,"L"
219096,"46 WORTHY COURT","FENTON","MO",63026,38.5273631320001,-90.4934585509999,96,"46 WORTHY COURT, FENTON, MO, 63026","Match","Exact","46 WORTHY CT, FENTON, MO, 63026",100161990,"L"
219097,"46 YARD RD","PENNINGTON","NJ",8534,40.3389567950001,-74.808127172,97,"46 YARD RD, PENNINGTON, NJ, 8534","Match","Exact","46 YARD RD, PENNINGTON, NJ, 08534",60190242,"R"
219098,"46-005 KAWA STREET/SUITE 104","KANEOHE","HI",96744,21.4191680380001,-157.803743409,98,"46-005 KAWA STREET/SUITE 104, KANEOHE, HI, 96744","Match","Non_Exact","46-5 KAWA ST, KANEOHE, HI, 96744",203233698,"R"
219099,"46-02 30TH AVENUE","ASTORIA","NY",11103,40.7616005990001,-73.9101161949999,99,"46-02 30TH AVENUE, ASTORIA, NY, 11103","Match","Exact","46-2 30TH AVE, ASTORIA, NY, 11103",59697257,"R"
219100,"46-034 PUULENA STREET STE 726","KANEOHE","HI",96744,21.4215221850001,-157.800562132,100,"46-034 PUULENA STREET STE 726, KANEOHE, HI, 96744","Match","Exact","46-34 PUULENA ST, KANEOHE, HI, 96744",203233752,"R"
219101,"46-078 EMEPELA PLACE A104","KANEOHE","HI",96744,21.416410989,-157.811440999,101,"46-078 EMEPELA PLACE A104, KANEOHE, HI, 96744","Match","Exact","46-78 EMEPELA PL, KANEOHE, HI, 96744",624892850,"L"
219102,"46-081 KONOHIKI STREET NO 3531","KANEOHE","HI",96744,21.4243993050001,-157.794094455,102,"46-081 KONOHIKI STREET NO 3531, KANEOHE, HI, 96744","Match","Non_Exact","46-81 KONOHIKI ST, KANEOHE, HI, 96744",203255771,"L"
219103,"46-147 NAHIKU PLACE","KANEOHE","HI",96744,21.4248837970001,-157.802135475,103,"46-147 NAHIKU PLACE, KANEOHE, HI, 96744","Match","Exact","46-147 NAHIKU PL, KANEOHE, HI, 96744",203233538,"R"
219104,"46-15 CENTER BOULEVARD","LONG ISLAND CITY","NY",11109,40.7483604990001,-73.956792573,104,"46-15 CENTER BOULEVARD, LONG ISLAND CITY, NY, 11109","Match","Exact","46-15 CENTER BLVD, LONG ISLAND CITY, NY, 11109",640813145,"R"
219105,"46-160 KIOWAI ST UNIT 2324","KANEOHE","HI",96744,21.422552566,-157.801518756,105,"46-160 KIOWAI ST UNIT 2324, KANEOHE, HI, 96744","Match","Exact","46-160 KIOWAI ST, KANEOHE, HI, 96744",203233737,"L"
219106,"46-166 KEOE PLACE","KANEOHE","HI",96744,21.424220398,-157.79754537,106,"46-166 KEOE PLACE, KANEOHE, HI, 96744","Match","Exact","46-166 KEOE PL, KANEOHE, HI, 96744",203248728,"R"
219107,"46-20 HOLLIS COURT BOULEVARD","FLUSHING","NY",11358,40.7529578910001,-73.7919931439999,107,"46-20 HOLLIS COURT BOULEVARD, FLUSHING, NY, 11358","Match","Exact","46-20 HOLLIS COURT BLVD, FLUSHING, NY, 11358",59711009,"R"
219108,"46-217 AHUI NANI PLACE","KANEOHE","HI",96744,21.427036937,-157.808756044,108,"46-217 AHUI NANI PLACE, KANEOHE, HI, 96744","Match","Exact","46-217 AHUI NANI PL, KANEOHE, HI, 96744",203263270,"R"
219109,"46-219 HAIKU ROAD","KANEOHE","HI",96744,21.418613576,-157.809820563,109,"46-219 HAIKU ROAD, KANEOHE, HI, 96744","Match","Exact","46-219 HAIKU RD, KANEOHE, HI, 96744",203233684,"R"
219110,"46-232 PUNAWAI STREET","KANEOHE","HI",96744,21.4215175800001,-157.81056604,110,"46-232 PUNAWAI STREET, KANEOHE, HI, 96744","Match","Exact","46-232 PUNAWAI ST, KANEOHE, HI, 96744",203233611,"L"
219111,"46-283 KAHUHIPA STREET A113","KANEOHE","HI",96744,21.4137936870001,-157.809430516,111,"46-283 KAHUHIPA STREET A113, KANEOHE, HI, 96744","Match","Exact","46-283 KAHUHIPA ST, KANEOHE, HI, 96744",650071497,"R"
219112,"46-307 KAUHAA PLACE","KANEOHE","HI",96744,21.4133543520001,-157.811408004,112,"46-307 KAUHAA PLACE, KANEOHE, HI, 96744","Match","Exact","46 KAUHAA PL, KANEOHE, HI, 96744",203233635,"R"
219113,"46-31 LITTLE NECK PKWY","LITTLE NECK","NY",11362,40.7703439220001,-73.734222894,113,"46-31 LITTLE NECK PKWY, LITTLE NECK, NY, 11362","Match","Exact","46-31 LITTLE NECK PKWY, LITTLE NECK, NY, 11362",59704051,"L"
219114,"46-320 HAIKU RD NO 96","KANEOHE","HI",96744,21.4160672030001,-157.814841151,114,"46-320 HAIKU RD NO 96, KANEOHE, HI, 96744","Match","Non_Exact","46-320 HAIKU RD, KANEOHE, HI, 96744",203233625,"L"
219115,"46-359 HAIKU RD A7","KANEOHE","HI",96744,21.4143051450001,-157.816410924,115,"46-359 HAIKU RD A7, KANEOHE, HI, 96744","Match","Exact","46-359 HAIKU RD, KANEOHE, HI, 96744",203259412,"R"
219116,"46-3991 OLD MAMALAHOA HWY","HONOKAA","HI",96727,NA,NA,116,"46-3991 OLD MAMALAHOA HWY, HONOKAA, HI, 96727","Tie",NA,NA,NA,NA
219117,"46-4036 KAHANA DR","HONOKAA","HI",96727,20.0501180860001,-155.505595681,117,"46-4036 KAHANA DR, HONOKAA, HI, 96727","Match","Exact","46-4036 KAHANA DR, HONOKAA, HI, 96727",203028726,"L"
219118,"46-44 162 STREET","FLUSHING","NY",11358,40.75279543,-73.8050227799999,118,"46-44 162 STREET, FLUSHING, NY, 11358","Match","Exact","46-44 162ND ST, FLUSHING, NY, 11358",59710032,"R"
219119,"46-471 HOLONUI PLACE","KANEOHE","HI",96744,21.41979551,-157.822626622,119,"46-471 HOLONUI PLACE, KANEOHE, HI, 96744","Match","Exact","46 HOLONUI PL, KANEOHE, HI, 96744",203233449,"R"
219120,"46-522 HAIKU PLANTATIONS DRIVE","KANEOHE","HI",96744,21.4190247060001,-157.82559594,120,"46-522 HAIKU PLANTATIONS DRIVE, KANEOHE, HI, 96744","Match","Non_Exact","46 HAIKU PLANTATION DR, KANEOHE, HI, 96744",203233443,"L"
219121,"46-E PENINSULA CENTER DRIVE 120","ROLLING HILLS ESTATE","CA",90274,NA,NA,121,"46-E PENINSULA CENTER DRIVE 120, ROLLING HILLS ESTATE, CA, 90274","No_Match",NA,NA,NA,NA
219122,"46-E PENINSULA CENTER DRIVE 228","RLLNG HLS EST","CA",90274,NA,NA,122,"46-E PENINSULA CENTER DRIVE 228, RLLNG HLS EST, CA, 90274","No_Match",NA,NA,NA,NA
219123,"46-E PENINSULA CENTER UNIT 351","ROLLING HILLS","CA",90274,NA,NA,123,"46-E PENINSULA CENTER UNIT 351, ROLLING HILLS, CA, 90274","No_Match",NA,NA,NA,NA
219124,"46","HUNTSVILLE","AL",35816,NA,NA,124,"46, HUNTSVILLE, AL, 35816","No_Match",NA,NA,NA,NA
219125,"460 36TH AVE","SAN FRANCISCO","CA",94121,37.7803309070001,-122.496567202,125,"460 36TH AVE, SAN FRANCISCO, CA, 94121","Match","Exact","460 36TH AVE, SAN FRANCISCO, CA, 94121",192298539,"L"
219126,"460 46TH AVE N","ST PETERSBURG","FL",33703,27.813954294,-82.6398218419999,126,"460 46TH AVE N, ST PETERSBURG, FL, 33703","Match","Exact","460 46TH AVE N, SAINT PETERSBURG, FL, 33703",124704366,"L"
219127,"460 4TH STREET NORTH","SAINT PETERSBURG","FL",33703,27.776634862,-82.638519717,127,"460 4TH STREET NORTH, SAINT PETERSBURG, FL, 33703","Match","Non_Exact","460 4TH ST N, SAINT PETERSBURG, FL, 33701",124707319,"L"
219128,"460 ARENA ROAD","PERRY","GA",31069,32.4565325940001,-83.65365797,128,"460 ARENA ROAD, PERRY, GA, 31069","Match","Exact","460 ARENA RD, PERRY, GA, 31069",647589104,"R"
219129,"460 BACON ST","WINSTON SALEM","NC",27105,36.1233884010001,-80.25559873,129,"460 BACON ST, WINSTON SALEM, NC, 27105","Match","Exact","460 BACON ST, WINSTON SALEM, NC, 27105",84608544,"L"
219130,"460 BERGEN BLVD SUITE 201","PALISADES PARK","NJ",7650,NA,NA,130,"460 BERGEN BLVD SUITE 201, PALISADES PARK, NJ, 7650","No_Match",NA,NA,NA,NA
219131,"460 BERGEN BLVD SUITE 202A","PALISADES PARK","NJ",7650,NA,NA,131,"460 BERGEN BLVD SUITE 202A, PALISADES PARK, NJ, 7650","No_Match",NA,NA,NA,NA
219132,"460 BERGEN BLVD SUITE 260","PALISADES PARK","NJ",7650,NA,NA,132,"460 BERGEN BLVD SUITE 260, PALISADES PARK, NJ, 7650","No_Match",NA,NA,NA,NA
219133,"460 BETHANY LOOP","BETHANY BEACH","DE",19930,38.5464511380001,-75.080501756,133,"460 BETHANY LOOP, BETHANY BEACH, DE, 19930","Match","Exact","460 BETHANY LOOP, BETHANY BEACH, DE, 19930",642058814,"L"
219134,"460 BILL PEARSON ROAD","WOODRUFF","SC",29388,34.795435567,-82.095258356,134,"460 BILL PEARSON ROAD, WOODRUFF, SC, 29388","Match","Exact","460 BILL PEARSON RD, WOODRUFF, SC, 29388",19483361,"R"
219135,"460 BOWMAN ROAD","MEDON","TN",38356,35.443380883,-88.901554542,135,"460 BOWMAN ROAD, MEDON, TN, 38356","Match","Exact","460 BOWMAN RD, MEDON, TN, 38356",21313956,"L"
219136,"460 BRIARWOOD DRIVE SUITE","JACKSON","MS",39206,32.3803349470001,-90.149490703,136,"460 BRIARWOOD DRIVE SUITE, JACKSON, MS, 39206","Match","Exact","460 BRIARWOOD DR, JACKSON, MS, 39206",611215668,"L"
219137,"460 BRIARWOODDRIVE STE 413","JACKSON","MS",39206,NA,NA,137,"460 BRIARWOODDRIVE STE 413, JACKSON, MS, 39206","No_Match",NA,NA,NA,NA
219138,"460 BRIARWOORD DR STE 400 PMB 1056","JACKSON","MS",39206,NA,NA,138,"460 BRIARWOORD DR STE 400 PMB 1056, JACKSON, MS, 39206","No_Match",NA,NA,NA,NA
219139,"460 BUFFALO ROAD SUITE 70","ROCHESTER","NY",14611,43.1517938590001,-77.66081403,139,"460 BUFFALO ROAD SUITE 70, ROCHESTER, NY, 14611","Match","Exact","460 BUFFALO RD, ROCHESTER, NY, 14611",14575731,"R"
219140,"460 BUSH STREET 2ND FLOOR","SAN FRANCISCO","CA",94108,37.790643544,-122.405013029,140,"460 BUSH STREET 2ND FLOOR, SAN FRANCISCO, CA, 94108","Match","Exact","460 BUSH ST, SAN FRANCISCO, CA, 94108",639024066,"R"
219141,"460 CENTRAL AVE","CARLISLE","OH",45005,39.5770236820001,-84.310008732,141,"460 CENTRAL AVE, CARLISLE, OH, 45005","Match","Exact","460 CENTRAL AVE, CARLISLE, OH, 45005",159039621,"L"
219142,"460 CHAMPAGNE CIR","PORT ORANGE","FL",32127,29.087385506,-80.9897851279999,142,"460 CHAMPAGNE CIR, PORT ORANGE, FL, 32127","Match","Exact","460 CHAMPAGNE CIR, PORT ORANGE, FL, 32127",94559162,"R"
219143,"460 COLEMAN ROAD","DECATUR","TN",37322,35.485177537,-84.870209457,143,"460 COLEMAN ROAD, DECATUR, TN, 37322","Match","Exact","460 COLEMAN RD, DECATUR, TN, 37322",79415982,"L"
219144,"460 DIX LEE ON DR","FAYETTEVILLE","GA",30214,33.5437978690001,-84.456771077,144,"460 DIX LEE ON DR, FAYETTEVILLE, GA, 30214","Match","Non_Exact","460 DIX-LEE-ON DR, FAYETTEVILLE, GA, 30214",642495996,"L"
219145,"460 DIX LEE ON DRIVE","FAYETTEVILLE","GA",30214,33.5437978690001,-84.456771077,145,"460 DIX LEE ON DRIVE, FAYETTEVILLE, GA, 30214","Match","Non_Exact","460 DIX-LEE-ON DR, FAYETTEVILLE, GA, 30214",642495996,"L"
219146,"460 E 42ND STREET","CHICAGO","IL",60653,41.817569603,-87.615080811,146,"460 E 42ND STREET, CHICAGO, IL, 60653","Match","Non_Exact","460 E 42ND PL, CHICAGO, IL, 60653",605590737,"L"
219147,"460 E NORWICH AVE APT D","COLUMBUS","OH",43201,40.006129129,-82.9966107289999,147,"460 E NORWICH AVE APT D, COLUMBUS, OH, 43201","Match","Non_Exact","460 E NORWICH AVE, COLUMBUS, OH, 43201",135573887,"L"
219148,"460 EAST 400 SOUTH UNIT 423","SALT LAKE CITY","UT",84111,40.760651604,-111.877774451,148,"460 EAST 400 SOUTH UNIT 423, SALT LAKE CITY, UT, 84111","Match","Exact","460 E 400 S, SALT LAKE CITY, UT, 84111",652892970,"R"
219149,"460 EAST A ST","DIXON","CA",95620,38.4455045060001,-121.817948597,149,"460 EAST A ST, DIXON, CA, 95620","Match","Exact","460 E A ST, DIXON, CA, 95620",192540330,"R"
219150,"460 ESPERANZA DRIVE","PROSPER","TX",75078,33.2329556400001,-96.870769066,150,"460 ESPERANZA DRIVE, PROSPER, TX, 75078","Match","Exact","460 ESPERANZA DR, PROSPER, TX, 75078",646840404,"L"
219151,"460 FALLS PARK DRIVE","PENDLETON","IN",46064,NA,NA,151,"460 FALLS PARK DRIVE, PENDLETON, IN, 46064","No_Match",NA,NA,NA,NA
219152,"460 FORTH STREET","AURORA","NC",27806,NA,NA,152,"460 FORTH STREET, AURORA, NC, 27806","No_Match",NA,NA,NA,NA
219153,"460 GALLERY PLACE 460 S MAIN STREET","WARDENSVILLE","WV",26851,NA,NA,153,"460 GALLERY PLACE 460 S MAIN STREET, WARDENSVILLE, WV, 26851","No_Match",NA,NA,NA,NA
219154,"460 GOLDEN AVE UNIT 432","LONG BEACH","CA",90802,33.7726521490001,-118.201820868,154,"460 GOLDEN AVE UNIT 432, LONG BEACH, CA, 90802","Match","Non_Exact","460 N GOLDEN AVE, LONG BEACH, CA, 90802",141693118,"R"
219155,"460 GOSS PARRISH DRIVE","BOWLING GREEN","KY",42103,36.939146282,-86.34646738,155,"460 GOSS PARRISH DRIVE, BOWLING GREEN, KY, 42103","Match","Non_Exact","460 GOSS PARRISH RD, BOWLING GREEN, KY, 42103",28022155,"L"
219156,"460 GRAVILLA STREET","LA JOLLA","CA",92037,32.8291900770001,-117.275875206,156,"460 GRAVILLA STREET, LA JOLLA, CA, 92037","Match","Exact","460 GRAVILLA ST, LA JOLLA, CA, 92037",195298398,"L"
219157,"460 GREEN ST APT 2","CAMBRIDGE","MA",2139,42.3667950350001,-71.107583424,157,"460 GREEN ST APT 2, CAMBRIDGE, MA, 2139","Match","Exact","460 GREEN ST, CAMBRIDGE, MA, 02139",86869815,"L"
219158,"460 HALF HOLLOW ROAD","DIX HILLS","NY",11746,40.7960352260001,-73.364863493,158,"460 HALF HOLLOW ROAD, DIX HILLS, NY, 11746","Match","Exact","460 HALF HOLLOW RD, DIX HILLS, NY, 11746",113968935,"R"
219159,"460 HANNAH DR SW","SHALLOTTE","NC",28470,33.9446305820001,-78.429715917,159,"460 HANNAH DR SW, SHALLOTTE, NC, 28470","Match","Exact","460 HANNAH DR SW, SHALLOTTE, NC, 28470",153186369,"L"
219160,"460 HARITON COURT","NORFOLK","VA",23505,36.9125629380001,-76.280900785,160,"460 HARITON COURT, NORFOLK, VA, 23505","Match","Exact","460 HARITON CT, NORFOLK, VA, 23505",122144906,"R"
219161,"460 HAYS MILL RD  SUITE J7","CARROLLTON","GA",30117,33.56745571,-85.0905105479999,161,"460 HAYS MILL RD  SUITE J7, CARROLLTON, GA, 30117","Match","Exact","460 HAYS MILL RD, CARROLLTON, GA, 30117",639950616,"R"
219162,"460 HIGHWAY 81 SW","COVINGTON","GA",30014,NA,NA,162,"460 HIGHWAY 81 SW, COVINGTON, GA, 30014","No_Match",NA,NA,NA,NA
219163,"460 HOLMAN AVE","ATHENS","GA",30606,33.958036534,-83.4085127609999,163,"460 HOLMAN AVE, ATHENS, GA, 30606","Match","Exact","460 HOLMAN AVE, ATHENS, GA, 30606",4801276,"R"
219164,"460 JOHNSONBURG RD","HOPE","NJ",8744,NA,NA,164,"460 JOHNSONBURG RD, HOPE, NJ, 8744","No_Match",NA,NA,NA,NA
219165,"460 KETCHAM STREET","INDIANAPOLIS","IN",46222,39.773835225,-86.20876659,165,"460 KETCHAM STREET, INDIANAPOLIS, IN, 46222","Match","Exact","460 KETCHAM ST, INDIANAPOLIS, IN, 46222",107987136,"L"
219166,"460 LANI ST","HONOLULU","HI",96821,21.293241897,-157.726134901,166,"460 LANI ST, HONOLULU, HI, 96821","Match","Exact","460 LANI ST, HONOLULU, HI, 96821",203243942,"L"
219167,"460 LINCOLNWAY STREET NUMBER 501","VALPARAISO","IN",46385,NA,NA,167,"460 LINCOLNWAY STREET NUMBER 501, VALPARAISO, IN, 46385","No_Match",NA,NA,NA,NA
219168,"460 MAIN STREET APT 210","STEVENSVILLE","MD",21666,38.9789306980001,-76.311768796,168,"460 MAIN STREET APT 210, STEVENSVILLE, MD, 21666","Match","Exact","460 MAIN ST, STEVENSVILLE, MD, 21666",68051070,"L"
219169,"460 MARKET ST 20","BEAVER","PA",15009,40.6971120540001,-80.309289072,169,"460 MARKET ST 20, BEAVER, PA, 15009","Match","Exact","460 MARKET ST, BEAVER, PA, 15009",52561504,"R"
219170,"460 MARMORA AVE","TAMPA","FL",33606,27.919130361,-82.457829537,170,"460 MARMORA AVE, TAMPA, FL, 33606","Match","Exact","460 MARMORA AVE, TAMPA, FL, 33606",104530437,"R"
219171,"460 MCREYNOLDS HALL","COLUMBIA","MO",65211,NA,NA,171,"460 MCREYNOLDS HALL, COLUMBIA, MO, 65211","No_Match",NA,NA,NA,NA
219172,"460 MEADOWOOD BLVD","FERN PARK","FL",32730,28.648121185,-81.3434433749999,172,"460 MEADOWOOD BLVD, FERN PARK, FL, 32730","Match","Exact","460 MEADOWOOD BLVD, FERN PARK, FL, 32730",639253775,"L"
219173,"460 MELWOOD AVE -300","PITTSBURGH","PA",15213,40.4553858990001,-79.952971807,173,"460 MELWOOD AVE -300, PITTSBURGH, PA, 15213","Match","Exact","460 MELWOOD AVE, PITTSBURGH, PA, 15213",641849422,"R"
219174,"460 MIDLAND AVENUE","STATEN ISLAND","NY",10306,40.574583569,-74.097279473,174,"460 MIDLAND AVENUE, STATEN ISLAND, NY, 10306","Match","Exact","460 MIDLAND AVE, STATEN ISLAND, NY, 10306",59869088,"R"
219175,"460 MIDWAY AVE","MASCOTTE","FL",34753,28.5722865970001,-81.884638062,175,"460 MIDWAY AVE, MASCOTTE, FL, 34753","Match","Exact","460 MIDWAY AVE, MASCOTTE, FL, 34753",94174353,"L"
219176,"460 MILL ROAD","MADISON","AL",35758,34.699536853,-86.755758391,176,"460 MILL ROAD, MADISON, AL, 35758","Match","Exact","460 MILL RD, MADISON, AL, 35758",58206334,"R"
219177,"460 MONROE ST","NAPA","CA",94559,38.292309495,-122.299537838,177,"460 MONROE ST, NAPA, CA, 94559","Match","Exact","460 MONROE ST, NAPA, CA, 94559",67416643,"R"
219178,"460 MOOSE HOLLOW ROAD","VICTOR","MT",59875,46.3572756840001,-114.181292698,178,"460 MOOSE HOLLOW ROAD, VICTOR, MT, 59875","Match","Exact","460 MOOSE HOLLOW RD, VICTOR, MT, 59875",640429842,"L"
219179,"460 MYLAN PARK LANE","MORGANTOWN","WV",26501,NA,NA,179,"460 MYLAN PARK LANE, MORGANTOWN, WV, 26501","No_Match",NA,NA,NA,NA
219180,"460 N UNIVERSITY AVE STE 205","PROVO","UT",84601,NA,NA,180,"460 N UNIVERSITY AVE STE 205, PROVO, UT, 84601","Tie",NA,NA,NA,NA
219181,"460 NE 158 ST","N MIAMI BEACH","FL",33162,25.9204282740001,-80.190310712,181,"460 NE 158 ST, N MIAMI BEACH, FL, 33162","Match","Exact","460 NE 158TH ST, N MIAMI BEACH, FL, 33162",116031389,"R"
219182,"460 NE 28 STREET STE 902","MIAMI","FL",33137,NA,NA,182,"460 NE 28 STREET STE 902, MIAMI, FL, 33137","No_Match",NA,NA,NA,NA
219183,"460 NEW BRITAIN AVE","HARTFORD","CT",6106,41.739038205,-72.698134596,183,"460 NEW BRITAIN AVE, HARTFORD, CT, 6106","Match","Exact","460 NEW BRITAIN AVE, HARTFORD, CT, 06106",3515795,"R"
219184,"460 NORTH SELINA ST","SYRACUSE","NY",13208,NA,NA,184,"460 NORTH SELINA ST, SYRACUSE, NY, 13208","No_Match",NA,NA,NA,NA
219185,"460 NORTHFIELD ROAD","BEDFORD","OH",44146,41.4057994880001,-81.527299865,185,"460 NORTHFIELD ROAD, BEDFORD, OH, 44146","Match","Exact","460 NORTHFIELD RD, BEDFORD, OH, 44146",61130268,"R"
219186,"460 NORWICH DR","CLAREMONT","CA",91711,34.1230675,-117.722253631,186,"460 NORWICH DR, CLAREMONT, CA, 91711","Match","Exact","460 NORWICH DR, CLAREMONT, CA, 91711",141732520,"L"
219187,"460 OLD DEARING ROAD","ALVATON","KY",42122,36.839405223,-86.40610865,187,"460 OLD DEARING ROAD, ALVATON, KY, 42122","Match","Exact","460 OLD DEARING RD, ALVATON, KY, 42122",28009804,"L"
219188,"460 PALM TERRACE","DELAND","FM",32724,NA,NA,188,"460 PALM TERRACE, DELAND, FM, 32724","No_Match",NA,NA,NA,NA
219189,"460 PARKSIDE TRAIL","MACEDON","NY",14502,43.124649085,-77.354673895,189,"460 PARKSIDE TRAIL, MACEDON, NY, 14502","Match","Exact","460 PARKSIDE TRL, MACEDON, NY, 14502",14927751,"L"
219190,"460 QUAIL RIDGE DR","WESTMONT","IL",60559,41.8236567910001,-87.957067531,190,"460 QUAIL RIDGE DR, WESTMONT, IL, 60559","Match","Exact","460 QUAIL RIDGE DR, WESTMONT, IL, 60559",222446226,"L"
219191,"460 RAWLES COURT","INDIANAPOLIS","IN",46229,39.7632117840001,-86.0031521929999,191,"460 RAWLES COURT, INDIANAPOLIS, IN, 46229","Match","Exact","460 RAWLES CT, INDIANAPOLIS, IN, 46229",640855384,"R"
219192,"460 REEDA BRANCH ROAD","ROSEBORO","NC",28382,35.0693806250001,-78.4979189319999,192,"460 REEDA BRANCH ROAD, ROSEBORO, NC, 28382","Match","Exact","460 REEDA BRANCH RD, ROSEBORO, NC, 28382",636184468,"R"
219193,"460 RHEINE RD NW","PALM BAY","FL",32907,28.028762849,-80.6826738239999,193,"460 RHEINE RD NW, PALM BAY, FL, 32907","Match","Exact","460 RHEINE RD NW, PALM BAY, FL, 32907",93906829,"R"
219194,"460 RICE AVE","BELLWOOD","IL",60104,41.8834272560001,-87.874712948,194,"460 RICE AVE, BELLWOOD, IL, 60104","Match","Exact","460 RICE AVE, BELLWOOD, IL, 60104",605140531,"R"
219195,"460 RIVERSIDE DR APT 102","NEW YORK CITY","NY",10027,40.8099948820001,-73.96499068,195,"460 RIVERSIDE DR APT 102, NEW YORK CITY, NY, 10027","Match","Exact","460 RIVERSIDE DR, NEW YORK, NY, 10027",59655332,"R"
219196,"460 S 7TH AVE","MOUNT VERNON","NY",10550,40.89985956,-73.835652087,196,"460 S 7TH AVE, MOUNT VERNON, NY, 10550","Match","Exact","460 S 7TH AVE, MOUNT VERNON, NY, 10550",139747556,"R"
219197,"460 SAINT CLAIR STREET","MOORESVILLE","IN",46158,39.6187394620001,-86.36636129,197,"460 SAINT CLAIR STREET, MOORESVILLE, IN, 46158","Match","Exact","460 ST CLAIR ST, MOORESVILLE, IN, 46158",43549770,"L"
219198,"460 SKY TOP DR","FAIRFIELD","CT",6825,41.2048999620001,-73.2396596999999,198,"460 SKY TOP DR, FAIRFIELD, CT, 6825","Match","Exact","460 SKY TOP DR, FAIRFIELD, CT, 06825",3220751,"R"
219199,"460 SLEEPER AVENUE","MOUNTAIN VIEW","CA",94040,37.3715558420001,-122.07414909,199,"460 SLEEPER AVENUE, MOUNTAIN VIEW, CA, 94040","Match","Exact","460 SLEEPER AVE, MOUNTAIN VIEW, CA, 94040",123180023,"L"
219200,"460 SOUTH ELM STREET","WATERLOO","IN",46793,41.428362099,-85.022430374,200,"460 SOUTH ELM STREET, WATERLOO, IN, 46793","Match","Exact","460 S ELM ST, WATERLOO, IN, 46793",606649621,"R"
219201,"460 SOUTH LAKESHORE DRIVE","HOLLAND","MI",49424,NA,NA,201,"460 SOUTH LAKESHORE DRIVE, HOLLAND, MI, 49424","No_Match",NA,NA,NA,NA
219202,"460 SOUTH RIVER STREET","MARSHFIELD","MA",2050,42.102430466,-70.7019364929999,202,"460 SOUTH RIVER STREET, MARSHFIELD, MA, 2050","Match","Exact","460 S RIVER ST, MARSHFIELD, MA, 02050",87434830,"R"
219203,"460 ST MICHAELS DRIVE","SANTA FE","NM",87505,35.6574459130001,-105.946307296,203,"460 ST MICHAELS DRIVE, SANTA FE, NM, 87505","Match","Exact","460 SAINT MICHAELS DR, SANTA FE, NM, 87505",637987629,"L"
219204,"460 ST PETERS HOWELL RD","SAINT CHARLES","MO",63304,38.7462478300001,-90.612566117,204,"460 ST PETERS HOWELL RD, SAINT CHARLES, MO, 63304","Match","Exact","460 ST PETERS HOWELL RD, SAINT CHARLES, MO, 63304",605590045,"R"
219205,"460 STOBE AVENUE","STATEN ISLAND","NY",10306,40.578449526,-74.09232758,205,"460 STOBE AVENUE, STATEN ISLAND, NY, 10306","Match","Exact","460 STOBE AVE, STATEN ISLAND, NY, 10306",59868765,"R"
219206,"460 STULL ST SUITE 300","SOUTH BEND","IN",46601,NA,NA,206,"460 STULL ST SUITE 300, SOUTH BEND, IN, 46601","No_Match",NA,NA,NA,NA
219207,"460 SUMMIT STREET","DUBUQUE","IA",52001,42.496254047,-90.672813648,207,"460 SUMMIT STREET, DUBUQUE, IA, 52001","Match","Exact","460 SUMMIT ST, DUBUQUE, IA, 52001",16908805,"R"
219208,"460 SUN N LAKE BLVD","LAKE PLACID","FL",33852,27.280013135,-81.366556654,208,"460 SUN N LAKE BLVD, LAKE PLACID, FL, 33852","Match","Non_Exact","460 LAKE BLVD, LAKE PLACID, FL, 33852",4657823,"L"
219209,"460 SW MADISON AVE STE 1","CORVALLIS","OR",97333,44.5638046880001,-123.263109009,209,"460 SW MADISON AVE STE 1, CORVALLIS, OR, 97333","Match","Non_Exact","460 SW MADISON AVE, CORVALLIS, OR, 97333",155847279,"L"
219210,"460 VETERANS DRIVE","BURLINGTON","NJ",8016,40.0759533720001,-74.867651861,210,"460 VETERANS DRIVE, BURLINGTON, NJ, 8016","Match","Exact","460 VETERANS DR, BURLINGTON, NJ, 08016",134076870,"R"
219211,"460 W 12TH AVE RM 418","COLUMBUS","OH",43210,39.996108883,-83.01839014,211,"460 W 12TH AVE RM 418, COLUMBUS, OH, 43210","Match","Non_Exact","460 W 12TH AVE, COLUMBUS, OH, 43210",642843442,"R"
219212,"460 W 91ST CIRCLE","THORNTON","CO",80260,39.860667216,-104.99133192,212,"460 W 91ST CIRCLE, THORNTON, CO, 80260","Match","Exact","460 W 91ST CIR, THORNTON, CO, 80260",177416504,"R"
219213,"460 W CALIFORNIA BLVD UNIT 3","PASADENA","CA",91105,NA,NA,213,"460 W CALIFORNIA BLVD UNIT 3, PASADENA, CA, 91105","Tie",NA,NA,NA,NA
219214,"460 W CENTRAL PARKWAY","ALTAMONTE SPRINGS","FL",32714,28.6727176860001,-81.4005588969999,214,"460 W CENTRAL PARKWAY, ALTAMONTE SPRINGS, FL, 32714","Match","Exact","460 W CENTRAL PKWY, ALTAMONTE SPRINGS, FL, 32714",93796192,"R"
219215,"460 W LIBERTY ST","SOUTH LYON","MI",48178,42.459430114,-83.65774449,215,"460 W LIBERTY ST, SOUTH LYON, MI, 48178","Match","Exact","460 W LIBERTY ST, SOUTH LYON, MI, 48178",69781008,"R"
219216,"460 W SIERRA MADRE BLVD","SIERRA MADRE","CA",91024,34.1618352720001,-118.062090293,216,"460 W SIERRA MADRE BLVD, SIERRA MADRE, CA, 91024","Match","Exact","460 W SIERRA MADRE BLVD, SIERRA MADRE, CA, 91024",141643408,"L"
219217,"460 WEAVERVILLE ROAD UNIT 4","ASHEVILLE","NC",28804,35.670098641,-82.5835321229999,217,"460 WEAVERVILLE ROAD UNIT 4, ASHEVILLE, NC, 28804","Match","Exact","460 WEAVERVILLE RD, ASHEVILLE, NC, 28804",645523919,"R"
219218,"460 WEST 147TH STREET APT 25","BRONX","NY",10475,NA,NA,218,"460 WEST 147TH STREET APT 25, BRONX, NY, 10475","No_Match",NA,NA,NA,NA
219219,"460 WEST 20TH STREET APT 3J","NEW YORK","NY",10011,40.7453305010001,-74.004382573,219,"460 WEST 20TH STREET APT 3J, NEW YORK, NY, 10011","Match","Exact","460 W 20TH ST, NEW YORK, NY, 10011",59659732,"L"
219220,"460 WEST 34 STREET","NEW YORK","NY",10001,40.754249422,-73.998357931,220,"460 WEST 34 STREET, NEW YORK, NY, 10001","Match","Exact","460 W 34TH ST, NEW YORK, NY, 10001",641385213,"L"
219221,"460 WEST SR 434 / SUITE 104","LONGWOOD","FL",32750,NA,NA,221,"460 WEST SR 434 / SUITE 104, LONGWOOD, FL, 32750","No_Match",NA,NA,NA,NA
219222,"4600  JENNINGS LANE","LOUISVILLE","KY",40218,38.189193661,-85.6864706389999,222,"4600  JENNINGS LANE, LOUISVILLE, KY, 40218","Match","Non_Exact","4600 JENNINGS CT, LOUISVILLE, KY, 40218",96923187,"R"
219223,"4600 145TH ST","LITTLE ROCK","AR",72206,NA,NA,223,"4600 145TH ST, LITTLE ROCK, AR, 72206","No_Match",NA,NA,NA,NA
219224,"4600 9TH AVE","BROOKLYN","NY",11220,40.641984877,-73.999226291,224,"4600 9TH AVE, BROOKLYN, NY, 11220","Match","Exact","4600 9TH AVE, BROOKLYN, NY, 11220",59098063,"R"
219225,"4600 ASHLAND AVENUE","BALTIMORE","MD",21205,39.301928735,-76.5586230879999,225,"4600 ASHLAND AVENUE, BALTIMORE, MD, 21205","Match","Exact","4600 ASHLAND AVE, BALTIMORE, MD, 21205",206425807,"L"
219226,"4600 BELMAR BLVD","NEPTUNE","NJ",7753,40.2012277470001,-74.1155901829999,226,"4600 BELMAR BLVD, NEPTUNE, NJ, 7753","Match","Exact","4600 BELMAR BLVD, NEPTUNE, NJ, 07753",90456076,"L"
219227,"4600 BEVERLY AVE NE","CANTON","OH",44714,40.848651703,-81.3620255549999,227,"4600 BEVERLY AVE NE, CANTON, OH, 44714","Match","Exact","4600 BEVERLY AVE NE, CANTON, OH, 44714",64709372,"L"
219228,"4600 BROOKFIELD CORPORATE DR","CHANTILLY","VA",20151,38.882624348,-77.446155716,228,"4600 BROOKFIELD CORPORATE DR, CHANTILLY, VA, 20151","Match","Exact","4600 BROOKFIELD CORPORATE DR, CHANTILLY, VA, 20151",649767619,"R"
219229,"4600 BROOKFIELD CORPORATE DRIVE","CHANTILLY","VA",20151,38.882624348,-77.446155716,229,"4600 BROOKFIELD CORPORATE DRIVE, CHANTILLY, VA, 20151","Match","Exact","4600 BROOKFIELD CORPORATE DR, CHANTILLY, VA, 20151",649767619,"R"
219230,"4600 CARTERS CORNER RD","SUNBURY","OH",43074,40.313951403,-82.880784679,230,"4600 CARTERS CORNER RD, SUNBURY, OH, 43074","Match","Non_Exact","4600 CARTER'S CORNER RD, SUNBURY, OH, 43074",24599944,"R"
219231,"4600 CHAMBERLAIN PL","BISMARCK","ND",58503,46.8434482930001,-100.722339851,231,"4600 CHAMBERLAIN PL, BISMARCK, ND, 58503","Match","Exact","4600 CHAMBERLAIN PL, BISMARCK, ND, 58503",198884350,"L"
219232,"4600 CHATEAU DR","METAIRIE","LA",70002,30.0163413380001,-90.163888298,232,"4600 CHATEAU DR, METAIRIE, LA, 70002","Match","Exact","4600 CHATEAU DR, METAIRIE, LA, 70002",639855901,"L"
219233,"4600 CLOUD COURT","BOULDER","CO",80301,40.05751625,-105.217200549,233,"4600 CLOUD COURT, BOULDER, CO, 80301","Match","Exact","4600 CLOUD CT, BOULDER, CO, 80301",188184375,"R"
219234,"4600 COLBY DRIVE","FRISCO","TX",75035,NA,NA,234,"4600 COLBY DRIVE, FRISCO, TX, 75035","No_Match",NA,NA,NA,NA
219235,"4600 CRESTMORE ROAD","JURUPA VALLEY","CA",92509,33.9892658430001,-117.397438776,235,"4600 CRESTMORE ROAD, JURUPA VALLEY, CA, 92509","Match","Exact","4600 CRESTMORE RD, JURUPA VALLEY, CA, 92509",627831886,"L"
219236,"4600 DEBARR RD STE 180","ANCHORAGE","AK",99504,61.209696347,-149.795280615,236,"4600 DEBARR RD STE 180, ANCHORAGE, AK, 99504","Match","Non_Exact","4600 DEBARR RD, ANCHORAGE, AK, 99508",190801762,"R"
219237,"4600 DOMINION ROAD","FAYETTEVILLE","NC",28306,35.0112897170001,-78.9435737489999,237,"4600 DOMINION ROAD, FAYETTEVILLE, NC, 28306","Match","Exact","4600 DOMINION RD, FAYETTEVILLE, NC, 28306",64203907,"R"
219238,"4600 DRUIT ST","LOS ANGELES","CA",90032,34.0709929120001,-118.185542986,238,"4600 DRUIT ST, LOS ANGELES, CA, 90032","Match","Non_Exact","4600 DRUID ST, LOS ANGELES, CA, 90032",141623509,"R"
219239,"4600 E CRANBROOK ROAD","BLOOMINGTON","IN",47401,39.1330686800001,-86.468361118,239,"4600 E CRANBROOK ROAD, BLOOMINGTON, IN, 47401","Match","Exact","4600 E CRANBROOK RD, BLOOMINGTON, IN, 47401",42330207,"R"
219240,"4600 E DEL MAR BLVD","LAREDO","TX",78041,NA,NA,240,"4600 E DEL MAR BLVD, LAREDO, TX, 78041","No_Match",NA,NA,NA,NA
219241,"4600 E MOODY BLVD APT 8M","BUNNELL","FL",32110,NA,NA,241,"4600 E MOODY BLVD APT 8M, BUNNELL, FL, 32110","No_Match",NA,NA,NA,NA
219242,"4600 E WASHINGTON ST SUITE 300","PHOENIX","AZ",85034,33.4476472000001,-111.98057198,242,"4600 E WASHINGTON ST SUITE 300, PHOENIX, AZ, 85034","Match","Non_Exact","4600 E WASHINGTON ST, PHOENIX, AZ, 85034",128358115,"L"
219243,"4600 EAST MOODY BLVD 8-G","BUNNELL","FL",32110,NA,NA,243,"4600 EAST MOODY BLVD 8-G, BUNNELL, FL, 32110","No_Match",NA,NA,NA,NA
219244,"4600 EAST WASHINGTON ST  SUITE 300","PHOENIX","AZ",85034,33.4476472000001,-111.98057198,244,"4600 EAST WASHINGTON ST  SUITE 300, PHOENIX, AZ, 85034","Match","Exact","4600 E WASHINGTON ST, PHOENIX, AZ, 85034",128358115,"L"
219245,"4600 FLAT WILLOW PLACE","DOUGLASVILLE","GA",30135,33.6815374810001,-84.667212889,245,"4600 FLAT WILLOW PLACE, DOUGLASVILLE, GA, 30135","Match","Exact","4600 FLAT WILLOW PL, DOUGLASVILLE, GA, 30135",618984117,"R"
219246,"4600 FORSYTH DR","TROY","MI",48085,42.584910613,-83.095883567,246,"4600 FORSYTH DR, TROY, MI, 48085","Match","Exact","4600 FORSYTH DR, TROY, MI, 48085",69753714,"R"
219247,"4600 GARFIELD RD SUITE 800","AUBURN","MI",48611,43.607270762,-84.0893486749999,247,"4600 GARFIELD RD SUITE 800, AUBURN, MI, 48611","Match","Exact","4600 GARFIELD RD, AUBURN, MI, 48611",81137172,"R"
219248,"4600 GASTON AVENUE APT 5","DALLAS","TX",75246,32.797699891,-96.7722921279999,248,"4600 GASTON AVENUE APT 5, DALLAS, TX, 75246","Match","Exact","4600 GASTON AVE, DALLAS, TX, 75246",102911175,"R"
219249,"4600 GRAND CENTRAL PKWY","DECATUR","GA",30035,33.73377958,-84.198107314,249,"4600 GRAND CENTRAL PKWY, DECATUR, GA, 30035","Match","Exact","4600 GRAND CENTRAL PKWY, DECATUR, GA, 30035",634040797,"R"
219250,"4600 GUNSTON PLACE","RALEIGH","NC",27612,35.8438148290001,-78.665354838,250,"4600 GUNSTON PLACE, RALEIGH, NC, 27612","Match","Exact","4600 GUNSTON PL, RALEIGH, NC, 27612",636582578,"R"
219251,"4600 HEDGEROW","BEL AIRE","KS",67220,37.7663697180001,-97.2689138969999,251,"4600 HEDGEROW, BEL AIRE, KS, 67220","Match","Non_Exact","4600 HEDGEROW CT, BEL AIRE, KS, 67220",115710961,"L"
219252,"4600 HERITAGE HEIGHTS RD","DE PERE","WI",54115,44.4160194200001,-88.019783687,252,"4600 HERITAGE HEIGHTS RD, DE PERE, WI, 54115","Match","Exact","4600 HERITAGE HTS, DE PERE, WI, 54115",641225709,"R"
219253,"4600 HIGHWAY A1A UNIT 307","VERO BEACH","FL",32963,NA,NA,253,"4600 HIGHWAY A1A UNIT 307, VERO BEACH, FL, 32963","No_Match",NA,NA,NA,NA
219254,"4600 HWY 6 NORTH STE 270","HOUSTON","TX",77084,NA,NA,254,"4600 HWY 6 NORTH STE 270, HOUSTON, TX, 77084","No_Match",NA,NA,NA,NA
219255,"4600 INTERNATIONAL GATEWAY","COLUMBUS","OH",43219,39.9976114450001,-82.888055521,255,"4600 INTERNATIONAL GATEWAY, COLUMBUS, OH, 43219","Match","Exact","4600 INTERNATIONAL GATEWAY, COLUMBUS, OH, 43219",641180799,"L"
219256,"4600 INTERNATIONAL GTWY","COLUMBUS","OH",43219,39.9976114450001,-82.888055521,256,"4600 INTERNATIONAL GTWY, COLUMBUS, OH, 43219","Match","Exact","4600 INTERNATIONAL GATEWAY, COLUMBUS, OH, 43219",641180799,"L"
219257,"4600 JONESTOWN RD","HARRISBURG","PA",17109,40.300874741,-76.816094359,257,"4600 JONESTOWN RD, HARRISBURG, PA, 17109","Match","Exact","4600 JONESTOWN RD, HARRISBURG, PA, 17109",649838873,"L"
219258,"4600 MADISON AVENUE SUITE 120","KANSAS CITY","MO",64112,39.044153303,-94.5972977229999,258,"4600 MADISON AVENUE SUITE 120, KANSAS CITY, MO, 64112","Match","Exact","4600 MADISON AVE, KANSAS CITY, MO, 64112",91526999,"R"
219259,"4600 MILLERSVILLE ROAD","INDIANAPOLIS","IN",46220,39.8403619320001,-86.1011419769999,259,"4600 MILLERSVILLE ROAD, INDIANAPOLIS, IN, 46220","Match","Non_Exact","4600 MILLERSVILLE RD, INDIANAPOLIS, IN, 46226",107995691,"L"
219260,"4600 MOTEREY OAKS BLVD - 1616","AUSTIN","TX",78749,30.2316356360001,-97.8393240999999,260,"4600 MOTEREY OAKS BLVD - 1616, AUSTIN, TX, 78749","Match","Non_Exact","4600 MONTEREY OAKS BLVD, AUSTIN, TX, 78749",624609992,"R"
219261,"4600 N CUMBERLAND AVE  UNIT 612","CHICAGO","IL",60656,41.9635078800001,-87.836699203,261,"4600 N CUMBERLAND AVE  UNIT 612, CHICAGO, IL, 60656","Match","Exact","4600 CUMBERLAND AVE, CHICAGO, IL, 60656",639790199,"L"
219262,"4600 N MAIZE RD","MAIZE","KS",67101,37.7662233880001,-97.4630467599999,262,"4600 N MAIZE RD, MAIZE, KS, 67101","Match","Exact","4600 N MAIZE RD, MAIZE, KS, 67101",115687666,"L"
219263,"4600 N POPLAR AVE","BROKEN ARROW","OK",74012,36.098985456,-95.8093891789999,263,"4600 N POPLAR AVE, BROKEN ARROW, OK, 74012","Match","Exact","4600 N POPLAR AVE, BROKEN ARROW, OK, 74012",617313928,"L"
219264,"4600 NORTH FLAGLER DRIVE","WEST PALM BEACH","FL",33407,26.7527967570001,-80.052705594,264,"4600 NORTH FLAGLER DRIVE, WEST PALM BEACH, FL, 33407","Match","Exact","4600 N FLAGLER DR, WEST PALM BEACH, FL, 33407",115277133,"R"
219265,"4600 NW PLAZA W DRIVE","ZIONSVILLE","IN",46077,NA,NA,265,"4600 NW PLAZA W DRIVE, ZIONSVILLE, IN, 46077","No_Match",NA,NA,NA,NA
219266,"4600 PARADISE BLVD 66228","ALBUQUERQUE","NM",87193,NA,NA,266,"4600 PARADISE BLVD 66228, ALBUQUERQUE, NM, 87193","No_Match",NA,NA,NA,NA
219267,"4600 POWDER MILL RD STE 450-F","BELTSVILLE","MD",20705,39.0441541000001,-76.912574231,267,"4600 POWDER MILL RD STE 450-F, BELTSVILLE, MD, 20705","Match","Exact","4600 POWDER MILL RD, BELTSVILLE, MD, 20705",76324081,"L"
219268,"4600 POWDER MILL RD SUITE 450Q","BELTSVILLE","MD",20705,39.0441541000001,-76.912574231,268,"4600 POWDER MILL RD SUITE 450Q, BELTSVILLE, MD, 20705","Match","Exact","4600 POWDER MILL RD, BELTSVILLE, MD, 20705",76324081,"L"
219269,"4600 POWDER MILL ROAD SUITE 450-E","BELTSVILLE","MD",20705,39.0441541000001,-76.912574231,269,"4600 POWDER MILL ROAD SUITE 450-E, BELTSVILLE, MD, 20705","Match","Exact","4600 POWDER MILL RD, BELTSVILLE, MD, 20705",76324081,"L"
219270,"4600 POWDER MILL ROAD SUITE 450E","BELTSVILLE","MD",20705,39.0441541000001,-76.912574231,270,"4600 POWDER MILL ROAD SUITE 450E, BELTSVILLE, MD, 20705","Match","Exact","4600 POWDER MILL RD, BELTSVILLE, MD, 20705",76324081,"L"
219271,"4600 POWDER MILL ROAD","BELTSVILLE","MD",20705,39.0441541000001,-76.912574231,271,"4600 POWDER MILL ROAD, BELTSVILLE, MD, 20705","Match","Exact","4600 POWDER MILL RD, BELTSVILLE, MD, 20705",76324081,"L"
219272,"4600 QUINCE RD","MEMPHIS","TN",38117,35.091881777,-89.908651026,272,"4600 QUINCE RD, MEMPHIS, TN, 38117","Match","Exact","4600 QUINCE RD, MEMPHIS, TN, 38117",72920843,"L"
219273,"4600 ROCKBRIDGE ROAD SUITE C","STONE MOUNTAIN","GA",30083,33.786335756,-84.206187121,273,"4600 ROCKBRIDGE ROAD SUITE C, STONE MOUNTAIN, GA, 30083","Match","Exact","4600 ROCKBRIDGE RD, STONE MOUNTAIN, GA, 30083",644799856,"L"
219274,"4600 ROSWELL RD BLDG I368","ATLANTA","GA",30342,33.8812000930001,-84.379816407,274,"4600 ROSWELL RD BLDG I368, ATLANTA, GA, 30342","Match","Exact","4600 ROSWELL RD, ATLANTA, GA, 30342",648700417,"L"
219275,"4600 ROSWELL RD UNIT 323","SANDY SPRINGS","GA",30342,33.8812000930001,-84.379816407,275,"4600 ROSWELL RD UNIT 323, SANDY SPRINGS, GA, 30342","Match","Exact","4600 ROSWELL RD, SANDY SPRINGS, GA, 30342",648700417,"L"
219276,"4600 S FOX ST","ENGLEWOOD","CO",80110,39.6329781310001,-104.994896434,276,"4600 S FOX ST, ENGLEWOOD, CO, 80110","Match","Exact","4600 S FOX ST, ENGLEWOOD, CO, 80110",177333629,"L"
219277,"4600 S LAND PARK DR","SACRAMENTO","CA",95822,38.5332250320001,-121.507284106,277,"4600 S LAND PARK DR, SACRAMENTO, CA, 95822","Match","Exact","4600 S LAND PARK DR, SACRAMENTO, CA, 95822",133322657,"R"
219278,"4600 S SYRACUSE STREET SUITE 928","DENVER","CO",80237,39.6293505730001,-104.899854199,278,"4600 S SYRACUSE STREET SUITE 928, DENVER, CO, 80237","Match","Non_Exact","4600 S SYRACUSE ST, DENVER, CO, 80237",606058460,"L"
219279,"4600 SCHWARTZ AVENUE","LISLE","IL",60532,41.802601257,-88.0847738259999,279,"4600 SCHWARTZ AVENUE, LISLE, IL, 60532","Match","Exact","4600 SCHWARTZ AVE, LISLE, IL, 60532",112531371,"R"
219280,"4600 SHELBYVILLE ROAD SUITE 7591","LOUISVILLE","KY",40257,38.2508155990001,-85.6298574689999,280,"4600 SHELBYVILLE ROAD SUITE 7591, LOUISVILLE, KY, 40257","Match","Non_Exact","4600 SHELBYVILLE RD, LOUISVILLE, KY, 40207",96855661,"R"
219281,"4600 SHELBYVILLE ROAD UNIT 6691","LOUISVILLE","KY",40206,38.2508155990001,-85.6298574689999,281,"4600 SHELBYVILLE ROAD UNIT 6691, LOUISVILLE, KY, 40206","Match","Non_Exact","4600 SHELBYVILLE RD, LOUISVILLE, KY, 40207",96855661,"R"
219282,"4600 SHERIDAN ST STE 300","HOLLYWOOD","FL",33021,26.0326245420001,-80.190299281,282,"4600 SHERIDAN ST STE 300, HOLLYWOOD, FL, 33021","Match","Exact","4600 SHERIDAN ST, HOLLYWOOD, FL, 33021",637739402,"R"
219283,"4600 SHERWOOD COMMON BLVD STE202","BATON ROUGE","LA",70816,30.4069686990001,-91.0572805469999,283,"4600 SHERWOOD COMMON BLVD STE202, BATON ROUGE, LA, 70816","Match","Exact","4600 SHERWOOD COMMON BLVD, BATON ROUGE, LA, 70816",92198894,"R"
219284,"4600 SNAPFINGER ROAD","ELLENWOOD","GA",30294,33.648090761,-84.187399418,284,"4600 SNAPFINGER ROAD, ELLENWOOD, GA, 30294","Match","Exact","4600 SNAPFINGER RD, ELLENWOOD, GA, 30294",23399979,"L"
219285,"4600 SUMMERLIN ROAD - C 2495","FORT MYERS","FL",33919,NA,NA,285,"4600 SUMMERLIN ROAD - C 2495, FORT MYERS, FL, 33919","No_Match",NA,NA,NA,NA
219286,"4600 SW 141ST AVE","MIRAMAR","FL",33027,25.967535678,-80.334293019,286,"4600 SW 141ST AVE, MIRAMAR, FL, 33027","Match","Exact","4600 SW 141ST AVE, MIRAMAR, FL, 33027",114733133,"R"
219287,"4600 SW 82 AVENUE","DAVIE","FL",33328,26.063527181,-80.2561651239999,287,"4600 SW 82 AVENUE, DAVIE, FL, 33328","Match","Exact","4600 SW 82ND AVE, DAVIE, FL, 33328",637513488,"L"
219288,"4600 TIMBER LN","COLUMBIA","MO",65202,38.9824383550001,-92.2683921409999,288,"4600 TIMBER LN, COLUMBIA, MO, 65202","Match","Exact","4600 TIMBER LN, COLUMBIA, MO, 65202",605020969,"L"
219289,"4600 TOUCHTON RD E BLDG100  STE150","JACKSONVILLE","FL",32246,30.263750805,-81.549442674,289,"4600 TOUCHTON RD E BLDG100  STE150, JACKSONVILLE, FL, 32246","Match","Exact","4600 TOUCHTON RD E, JACKSONVILLE, FL, 32246",614103605,"R"
219290,"4600 TOUCHTON ROAD BLDG 100 STE 150","JACKSONVILLE","FL",32246,30.263750805,-81.549442674,290,"4600 TOUCHTON ROAD BLDG 100 STE 150, JACKSONVILLE, FL, 32246","Match","Non_Exact","4600 TOUCHTON RD E, JACKSONVILLE, FL, 32246",614103605,"R"
219291,"4600 UNIVERSITY AVE APT 312","MADISON","WI",53705,43.0753903140001,-89.4553922219999,291,"4600 UNIVERSITY AVE APT 312, MADISON, WI, 53705","Match","Exact","4600 UNIVERSITY AVE, MADISON, WI, 53705",49483368,"R"
219292,"4600 W 122ND ST APT 208","ALSIP","IL",60803,41.671508857,-87.734489732,292,"4600 W 122ND ST APT 208, ALSIP, IL, 60803","Match","Non_Exact","4600 W 122ND ST, ALSIP, IL, 60803",111823964,"R"
219293,"4600 W 139TH STREET","LEAWOOD","KS",66224,38.875646928,-94.636921026,293,"4600 W 139TH STREET, LEAWOOD, KS, 66224","Match","Exact","4600 W 139TH ST, LEAWOOD, KS, 66224",91334151,"L"
219294,"4600 W COMMERCIAL BLVD STE 3","TAMARAC","FL",33319,26.188906262,-80.2087290919999,294,"4600 W COMMERCIAL BLVD STE 3, TAMARAC, FL, 33319","Match","Non_Exact","4600 W COMMERCIAL BLVD, TAMARAC, FL, 33319",638636207,"R"
219295,"4600 W GUADALUPE STREET APT B-325","AUSTIN","TX",78751,30.31365234,-97.732465307,295,"4600 W GUADALUPE STREET APT B-325, AUSTIN, TX, 78751","Match","Non_Exact","4600 GUADALUPE ST W, AUSTIN, TX, 78751",635282251,"L"
219296,"4600 WINDING STONE CIRCLE","OLNEY","MD",20832,39.1645758110001,-77.092990223,296,"4600 WINDING STONE CIRCLE, OLNEY, MD, 20832","Match","Exact","4600 WINDING STONE CIR, OLNEY, MD, 20832",638660966,"R"
219297,"4601 16TH STREET NW SUITE B","WASHINGTON","DC",20011,38.946221291,-77.036417581,297,"4601 16TH STREET NW SUITE B, WASHINGTON, DC, 20011","Match","Exact","4601 16TH ST NW, WASHINGTON, DC, 20011",76222377,"R"
219298,"4601 4601 RINCON PLACE","MONTCLAIR","VA",22025,38.627713187,-77.3506925739999,298,"4601 4601 RINCON PLACE, MONTCLAIR, VA, 22025","Match","Exact","4601 RINCON PL, MONTCLAIR, VA, 22025",207152412,"L"
219299,"4601 66TH ST W APT 800A","BRADENTON","FL",34210,27.459312921,-82.626654845,299,"4601 66TH ST W APT 800A, BRADENTON, FL, 34210","Match","Exact","4601 66TH ST W, BRADENTON, FL, 34210",649940029,"R"
219300,"4601 82ND STREET","LUBBOCK","TX",79423,33.5197283740001,-101.910411477,300,"4601 82ND STREET, LUBBOCK, TX, 79423","Match","Non_Exact","4601 82ND ST, LUBBOCK, TX, 79424",185260286,"R"
219301,"4601 ATHENS HWY","MADISON","GA",30650,33.7168744620001,-83.4358396709999,301,"4601 ATHENS HWY, MADISON, GA, 30650","Match","Exact","4601 ATHENS HWY, MADISON, GA, 30650",77595372,"R"
219302,"4601 BALATON DR","LOUISVILLE","KY",40219,38.171514416,-85.675348328,302,"4601 BALATON DR, LOUISVILLE, KY, 40219","Match","Exact","4601 BALATON DR, LOUISVILLE, KY, 40219",96858174,"L"
219303,"4601 BONNE TERRE DR","NESBIT","MS",38651,34.9272419960001,-90.074966065,303,"4601 BONNE TERRE DR, NESBIT, MS, 38651","Match","Exact","4601 BONNE TERRE DR, NESBIT, MS, 38651",617662865,"R"
219304,"4601 CARNES ROAD NO29","ROSEBURG","OR",97471,43.1480266830001,-123.381107266,304,"4601 CARNES ROAD NO29, ROSEBURG, OR, 97471","Match","Exact","4601 CARNES RD, ROSEBURG, OR, 97471",137218240,"R"
219305,"4601 COBBS DRIVE","WACO","TX",76710,31.5460503300001,-97.1920913499999,305,"4601 COBBS DRIVE, WACO, TX, 76710","Match","Exact","4601 COBBS DR, WACO, TX, 76710",146732867,"R"
219306,"4601 CONCORD PIKE BOX 747","WILMINGTON","DE",19803,NA,NA,306,"4601 CONCORD PIKE BOX 747, WILMINGTON, DE, 19803","No_Match",NA,NA,NA,NA
219307,"4601 CONNECTICUT AVE APT 217 NW","WASHINGTON","DC",20008,38.9497713430001,-77.0667526079999,307,"4601 CONNECTICUT AVE APT 217 NW, WASHINGTON, DC, 20008","Match","Non_Exact","4601 CONNECTICUT AVE NW, WASHINGTON, DC, 20008",76220707,"R"
219308,"4601 COTTENDALE DR","DURHAM","NC",27703,35.9393570450001,-78.829963724,308,"4601 COTTENDALE DR, DURHAM, NC, 27703","Match","Exact","4601 COTTENDALE DR, DURHAM, NC, 27703",618408489,"L"
219309,"4601 DAKOTA AVE","NASHVILLE","TN",37209,36.1476009450001,-86.842151137,309,"4601 DAKOTA AVE, NASHVILLE, TN, 37209","Match","Exact","4601 DAKOTA AVE, NASHVILLE, TN, 37209",97179316,"L"
219310,"4601 DON QUIXOTE DR","LOS ANGELES","CA",90008,34.003230344,-118.355807564,310,"4601 DON QUIXOTE DR, LOS ANGELES, CA, 90008","Match","Exact","4601 DON QUIXOTE DR, LOS ANGELES, CA, 90008",141601505,"R"
219311,"4601 E 21ST ST","INDIANAPOLIS","IN",46208,39.796161963,-86.0915472729999,311,"4601 E 21ST ST, INDIANAPOLIS, IN, 46208","Match","Non_Exact","4601 E 21ST ST, INDIANAPOLIS, IN, 46218",107999744,"R"
219312,"4601 E 2ND STREET SUITE 1","LONG BEACH","CA",90803,33.762163334,-118.139272885,312,"4601 E 2ND STREET SUITE 1, LONG BEACH, CA, 90803","Match","Non_Exact","4601 E 2ND ST, LONG BEACH, CA, 90803",141702575,"L"
219313,"4601 E 32ND ST","TUCSON","AZ",85711,32.1965553950001,-110.894720596,313,"4601 E 32ND ST, TUCSON, AZ, 85711","Match","Exact","4601 E 32ND ST, TUCSON, AZ, 85711",121181243,"L"
219314,"4601 E 5TH AVE","COLUMBUS","OH",43219,39.9870487690001,-82.8806537259999,314,"4601 E 5TH AVE, COLUMBUS, OH, 43219","Match","Exact","4601 E 5TH AVE, COLUMBUS, OH, 43219",218689583,"R"
219315,"4601 E DOUGLAS AV","WITCHITA","KS",67218,37.6865033730001,-97.282336705,315,"4601 E DOUGLAS AV, WITCHITA, KS, 67218","Match","Non_Exact","4601 E DOUGLAS AVE, WICHITA, KS, 67218",115638376,"R"
219316,"4601 E DOUGLAS AVE STE 150","WICHITA","KS",67218,37.6865033730001,-97.282336705,316,"4601 E DOUGLAS AVE STE 150, WICHITA, KS, 67218","Match","Non_Exact","4601 E DOUGLAS AVE, WICHITA, KS, 67218",115638376,"R"
219317,"4601 E DOUGLAS AVE","WICHITA","KS",67218,37.6865033730001,-97.282336705,317,"4601 E DOUGLAS AVE, WICHITA, KS, 67218","Match","Exact","4601 E DOUGLAS AVE, WICHITA, KS, 67218",115638376,"R"
219318,"4601 E DOUGLAS AVENUE STE 314","WICHITA","KS",67218,37.6865033730001,-97.282336705,318,"4601 E DOUGLAS AVENUE STE 314, WICHITA, KS, 67218","Match","Non_Exact","4601 E DOUGLAS AVE, WICHITA, KS, 67218",115638376,"R"
219319,"4601 E MONTECITO AVE","PHOENIX","AZ",85018,33.498844772,-111.981814887,319,"4601 E MONTECITO AVE, PHOENIX, AZ, 85018","Match","Exact","4601 E MONTECITO AVE, PHOENIX, AZ, 85018",128220470,"R"
219320,"4601 E OAK ISLAND DR","OAK ISLAND","NC",28465,33.913518249,-78.116528645,320,"4601 E OAK ISLAND DR, OAK ISLAND, NC, 28465","Match","Exact","4601 E OAK ISLAND DR, OAK ISLAND, NC, 28465",153142695,"L"
219321,"4601 EARLY MORN DR","PLANO","TX",75093,33.029127224,-96.785580174,321,"4601 EARLY MORN DR, PLANO, TX, 75093","Match","Exact","4601 EARLY MORN DR, PLANO, TX, 75093",123483949,"L"
219322,"4601 EBENEZER ROAD","BALTIMORE","MD",21236,39.393992204,-76.464704432,322,"4601 EBENEZER ROAD, BALTIMORE, MD, 21236","Match","Exact","4601 EBENEZER RD, BALTIMORE, MD, 21236",191526307,"R"
219323,"4601 FAIRFAX DR STE 1200","ARLINGTON","VA",22203,38.8820847920001,-77.116068478,323,"4601 FAIRFAX DR STE 1200, ARLINGTON, VA, 22203","Match","Exact","4601 FAIRFAX DR, ARLINGTON, VA, 22203",638168844,"R"
219324,"4601 HOPE VALLEY ROAD NUM 1E","DURHAM","NC",27707,35.9257969120001,-78.954668408,324,"4601 HOPE VALLEY ROAD NUM 1E, DURHAM, NC, 27707","Match","Exact","4601 HOPE VALLEY RD, DURHAM, NC, 27707",615692070,"R"
219325,"4601 HORIZON DRIVE","PASCO","WA",99301,NA,NA,325,"4601 HORIZON DRIVE, PASCO, WA, 99301","No_Match",NA,NA,NA,NA
219326,"4601 HURON DR NE","RIO RANCHO","NM",87144,35.281260377,-106.643997642,326,"4601 HURON DR NE, RIO RANCHO, NM, 87144","Match","Exact","4601 HURON DR NE, RIO RANCHO, NM, 87144",194017393,"L"
219327,"4601 LAGRANGE ROAD","SHELBYVILLE","KY",40065,38.285798727,-85.263578426,327,"4601 LAGRANGE ROAD, SHELBYVILLE, KY, 40065","Match","Exact","4601 LAGRANGE RD, SHELBYVILLE, KY, 40065",97089477,"R"
219328,"4601 LAKE BOONE TRAIL SUITE 3B","RALEIGH","NC",27607,35.815836448,-78.707631326,328,"4601 LAKE BOONE TRAIL SUITE 3B, RALEIGH, NC, 27607","Match","Exact","4601 LAKE BOONE TRL, RALEIGH, NC, 27607",72616657,"L"
219329,"4601 LANGDON DRIVE APT 302","MORRISVILLE","NC",27560,35.883502332,-78.8269397179999,329,"4601 LANGDON DRIVE APT 302, MORRISVILLE, NC, 27560","Match","Exact","4601 LANGDON DR, MORRISVILLE, NC, 27560",71778165,"L"
219330,"4601 LEWIS LEIGH CT","CHANTILLY","VA",20151,38.8734732390001,-77.428892552,330,"4601 LEWIS LEIGH CT, CHANTILLY, VA, 20151","Match","Exact","4601 LEWIS LEIGH CT, CHANTILLY, VA, 20151",76035271,"R"
219331,"4601 LOCUST LANE STE 305","HARRISBURG","PA",17109,40.292439292,-76.811298381,331,"4601 LOCUST LANE STE 305, HARRISBURG, PA, 17109","Match","Exact","4601 LOCUST LN, HARRISBURG, PA, 17109",70822277,"R"
219332,"4601 MAIN ST","KANSAS CITY","MO",64112,39.0435172580001,-94.586837971,332,"4601 MAIN ST, KANSAS CITY, MO, 64112","Match","Exact","4601 MAIN ST, KANSAS CITY, MO, 64112",91447599,"L"
219333,"4601 MORGANFORD RD","SAINT LOUIS","MO",63116,38.584862833,-90.265997399,333,"4601 MORGANFORD RD, SAINT LOUIS, MO, 63116","Match","Exact","4601 MORGANFORD RD, SAINT LOUIS, MO, 63116",618276453,"R"
219334,"4601 MOUNTAIN PARK RD","CHUBBUCK","ID",83202,42.9160034440001,-112.451656868,334,"4601 MOUNTAIN PARK RD, CHUBBUCK, ID, 83202","Match","Exact","4601 MOUNTAIN PARK RD, CHUBBUCK, ID, 83202",204360689,"L"
219335,"4601 N 36TH STREET","TAMPA","FL",33610,27.987108805,-82.420335716,335,"4601 N 36TH STREET, TAMPA, FL, 33610","Match","Exact","4601 N 36TH ST, TAMPA, FL, 33610",104533527,"R"
219336,"4601 N FAIRFAX DR STE 1200","ARLINGTON","VA",22203,38.8820847920001,-77.116068478,336,"4601 N FAIRFAX DR STE 1200, ARLINGTON, VA, 22203","Match","Exact","4601 FAIRFAX DR, ARLINGTON, VA, 22203",638168844,"R"
219337,"4601 N PARK AVE SUITE 6","CHEVY CHASE","MD",20815,38.9634820840001,-77.091178719,337,"4601 N PARK AVE SUITE 6, CHEVY CHASE, MD, 20815","Match","Non_Exact","4601 N PARK AVE, CHEVY CHASE, MD, 20815",647262932,"L"
219338,"4601 N PARK AVENUE SUITE 1719","CHEVY CHASE","MD",20815,38.9634820840001,-77.091178719,338,"4601 N PARK AVENUE SUITE 1719, CHEVY CHASE, MD, 20815","Match","Non_Exact","4601 N PARK AVE, CHEVY CHASE, MD, 20815",647262932,"L"
219339,"4601 NORTHVIEW STREET","WINSTON-SALEM","NC",27105,36.159277828,-80.224736661,339,"4601 NORTHVIEW STREET, WINSTON-SALEM, NC, 27105","Match","Exact","4601 NORTHVIEW ST, WINSTON SALEM, NC, 27105",84630050,"R"
219340,"4601 PICKETT PARK HWY","JAMESTOWN","TN",38556,NA,NA,340,"4601 PICKETT PARK HWY, JAMESTOWN, TN, 38556","No_Match",NA,NA,NA,NA
219341,"4601 PRESIDENTS DR STE 135","LANHAM","MD",20706,38.951716316,-76.832056401,341,"4601 PRESIDENTS DR STE 135, LANHAM, MD, 20706","Match","Exact","4601 PRESIDENTS DR, LANHAM, MD, 20706",76378780,"L"
219342,"4601 RIVERPARK DRIVE","FORT WORTH","TX",76137,32.870959971,-97.286755408,342,"4601 RIVERPARK DRIVE, FORT WORTH, TX, 76137","Match","Exact","4601 RIVERPARK DR, FORT WORTH, TX, 76137",102110092,"L"
219343,"4601 S BAHA AVE","SIOUX FALLS","SD",57106,43.5020391530001,-96.769862857,343,"4601 S BAHA AVE, SIOUX FALLS, SD, 57106","Match","Exact","4601 S BAHA AVE, SIOUX FALLS, SD, 57106",34993699,"L"
219344,"4601 SAUK TRAIL","RICHTON PARK","IL",60471,41.4843070140001,-87.727919609,344,"4601 SAUK TRAIL, RICHTON PARK, IL, 60471","Match","Exact","4601 SAUK TRL, RICHTON PARK, IL, 60471",111708455,"L"
219345,"4601 STATE STREET","EAST SAINT LOUIS","IL",62205,38.607941774,-90.1066762469999,345,"4601 STATE STREET, EAST SAINT LOUIS, IL, 62205","Match","Exact","4601 STATE ST, E SAINT LOUIS, IL, 62205",107834941,"L"
219346,"4601 SW 132ND AVENUE","MIAMI","FL",33175,25.7240245200001,-80.4074399689999,346,"4601 SW 132ND AVENUE, MIAMI, FL, 33175","Match","Exact","4601 SW 132ND AVE, MIAMI, FL, 33175",115965017,"L"
219347,"4601 SW 20TH TERRACE","GAINESVILLE","FL",32608,29.6099922450001,-82.349241746,347,"4601 SW 20TH TERRACE, GAINESVILLE, FL, 32608","Match","Exact","4601 SW 20TH TER, GAINESVILLE, FL, 32608",6830499,"L"
219348,"4601 TIPSY CIR APT 100","LOUISVILLE","KY",40216,38.191990268,-85.845393024,348,"4601 TIPSY CIR APT 100, LOUISVILLE, KY, 40216","Match","Exact","4601 TIPSY CIR, LOUISVILLE, KY, 40216",618509002,"R"
219349,"4601 W LAKE CIRCLE N","LITTLETON","CO",80123,39.6074722280001,-105.046845638,349,"4601 W LAKE CIRCLE N, LITTLETON, CO, 80123","Match","Exact","4601 W LAKE CIR N, LITTLETON, CO, 80123",177379393,"R"
219350,"4601 W MARQUETTE AVE","FRANKLIN","WI",53132,42.908841674,-87.973092946,350,"4601 W MARQUETTE AVE, FRANKLIN, WI, 53132","Match","Exact","4601 W MARQUETTE AVE, FRANKLIN, WI, 53132",645470100,"L"
219351,"4601 W OREM DRIVE","HOUSTON","TX",77045,29.62742437,-95.448045296,351,"4601 W OREM DRIVE, HOUSTON, TX, 77045","Match","Exact","4601 W OREM DR, HOUSTON, TX, 77045",96593330,"L"
219352,"4601 W SUBLETT RD","ARLINGTON","TX",76017,NA,NA,352,"4601 W SUBLETT RD, ARLINGTON, TX, 76017","Tie",NA,NA,NA,NA
219353,"4601 WASHINGTON AVE STE 280","HOUSTON","TX",77007,29.7704833170001,-95.407329169,353,"4601 WASHINGTON AVE STE 280, HOUSTON, TX, 77007","Match","Exact","4601 WASHINGTON AVE, HOUSTON, TX, 77007",96061741,"L"
219354,"4601 WEST 180 SOUTH","RUSSIAVILLE","IN",46979,NA,NA,354,"4601 WEST 180 SOUTH, RUSSIAVILLE, IN, 46979","No_Match",NA,NA,NA,NA
219355,"4601 WILDCAT DR","PORTLAND","TX",78374,NA,NA,355,"4601 WILDCAT DR, PORTLAND, TX, 78374","No_Match",NA,NA,NA,NA
219356,"4601 WILSHIRE BLVD SUITE 260","LOS ANGELES","CA",90010,34.061951391,-118.32952503,356,"4601 WILSHIRE BLVD SUITE 260, LOS ANGELES, CA, 90010","Match","Exact","4601 WILSHIRE BLVD, LOS ANGELES, CA, 90010",141600414,"R"
219357,"46018 KAMEHAMEHA HWY SUITE 205","KANEOHE","HI",96744,NA,NA,357,"46018 KAMEHAMEHA HWY SUITE 205, KANEOHE, HI, 96744","No_Match",NA,NA,NA,NA
219358,"4602 ASTIBLE CIRCLE NW","ACWORTH","GA",30102,NA,NA,358,"4602 ASTIBLE CIRCLE NW, ACWORTH, GA, 30102","Tie",NA,NA,NA,NA
219359,"4602 BISON ST","BOCA RATON","FL",33428,26.3438425580001,-80.2130373259999,359,"4602 BISON ST, BOCA RATON, FL, 33428","Match","Exact","4602 BISON ST, BOCA RATON, FL, 33428",115299802,"L"
219360,"4602 COUNTY RD 673 LOT 15287","BUSHNELL","FL",33513,NA,NA,360,"4602 COUNTY RD 673 LOT 15287, BUSHNELL, FL, 33513","Tie",NA,NA,NA,NA
219361,"4602 CREEK VIEW LN","BALCH SPRINGS","TX",75180,32.710570927,-96.5927193799999,361,"4602 CREEK VIEW LN, BALCH SPRINGS, TX, 75180","Match","Non_Exact","4602 CREEKVIEW LN, BALCH SPRINGS, TX, 75180",630978981,"R"
219362,"4602 CUSTER AVENUE","BROOKFIELD","IL",60513,41.808448045,-87.8400347639999,362,"4602 CUSTER AVENUE, BROOKFIELD, IL, 60513","Match","Exact","4602 CUSTER AVE, BROOKFIELD, IL, 60513",111792858,"R"
219363,"4602 DENVIEW WAY","RASPEBURG","MD",21206,39.320098026,-76.536321253,363,"4602 DENVIEW WAY, RASPEBURG, MD, 21206","Match","Exact","4602 DENVIEW WAY, RASPEBURG, MD, 21206",635297503,"L"
219364,"4602 E FREMONT STREET","PHOENIX","AZ",85042,33.3824531810001,-111.981772716,364,"4602 E FREMONT STREET, PHOENIX, AZ, 85042","Match","Exact","4602 E FREMONT ST, PHOENIX, AZ, 85042",128889804,"L"
219365,"4602 EXMOORE COURT","UPPER MARLBORO","MD",20772,38.826634133,-76.810753173,365,"4602 EXMOORE COURT, UPPER MARLBORO, MD, 20772","Match","Exact","4602 EXMOORE CT, UPPER MARLBORO, MD, 20772",624713156,"R"
219366,"4602 FAIT AVENUE","BALTIMORE","MD",21224,39.2839725960001,-76.556976107,366,"4602 FAIT AVENUE, BALTIMORE, MD, 21224","Match","Exact","4602 FAIT AVE, BALTIMORE, MD, 21224",649504884,"L"
219367,"4602 GARDEN  CITY DRIVE","LITHONIA","GA",30058,33.6439525010001,-84.1333622559999,367,"4602 GARDEN  CITY DRIVE, LITHONIA, GA, 30058","Match","Non_Exact","4602 GARDEN CITY DR, LITHONIA, GA, 30038",23400230,"L"
219368,"4602 HILLSIDE RD SE APT 3","WASHINGTON","DC",20019,38.8764907620001,-76.933778603,368,"4602 HILLSIDE RD SE APT 3, WASHINGTON, DC, 20019","Match","Exact","4602 HILLSIDE RD SE, WASHINGTON, DC, 20019",76233916,"L"
219369,"4602 LAINE AVE","NEW ORLEANS","LA",70126,30.0178760100001,-89.990488881,369,"4602 LAINE AVE, NEW ORLEANS, LA, 70126","Match","Exact","4602 LAINE AVE, NEW ORLEANS, LA, 70126",191721074,"L"
219370,"4602 LAVENDER LANE","SAN ANTONIO","TX",78220,29.4174946310001,-98.402618729,370,"4602 LAVENDER LANE, SAN ANTONIO, TX, 78220","Match","Exact","4602 LAVENDER LN, SAN ANTONIO, TX, 78220",101536830,"R"
219371,"4602 NANTUCKET DRIVE APT 50","TOLEDO","OH",43623,41.700371171,-83.657059214,371,"4602 NANTUCKET DRIVE APT 50, TOLEDO, OH, 43623","Match","Exact","4602 NANTUCKET DR, TOLEDO, OH, 43623",33931231,"R"
219372,"4602 NE 6 AVENUE","OAKLAND PARK","FL",33334,26.183707472,-80.138846659,372,"4602 NE 6 AVENUE, OAKLAND PARK, FL, 33334","Match","Non_Exact","4602 NE 6TH AVE, OAKLAND PARK, FL, 33334",114719597,"R"
219373,"4602 NW 185 STREET","MIAMI GARDENS","FL",33055,25.942326683,-80.276944021,373,"4602 NW 185 STREET, MIAMI GARDENS, FL, 33055","Match","Exact","4602 NW 185TH ST, MIAMI GARDENS, FL, 33055",116026592,"R"
219374,"4602 NW 18TH STREET","ANKENY","IA",50023,41.746275138,-93.6620723939999,374,"4602 NW 18TH STREET, ANKENY, IA, 50023","Match","Exact","4602 NW 18 ST, ANKENY, IA, 50023",645461104,"L"
219375,"4602 OLD COURT RD","PIKESVILLE","MD",21208,39.367140675,-76.754231008,375,"4602 OLD COURT RD, PIKESVILLE, MD, 21208","Match","Exact","4602 OLD COURT RD, PIKESVILLE, MD, 21208",191467150,"R"
219376,"4602 RICE COURT","VENTURA","CA",93003,34.28164665,-119.2343907,376,"4602 RICE COURT, VENTURA, CA, 93003","Match","Exact","4602 RICE CT, VENTURA, CA, 93003",109952472,"R"
219377,"4602 RIVER HILLS DR","TAMPA","FL",33617,28.022226785,-82.4098134549999,377,"4602 RIVER HILLS DR, TAMPA, FL, 33617","Match","Non_Exact","4602 E RIVER HILLS DR, TAMPA, FL, 33617",104531939,"L"
219378,"4602 SOUTH CRENSHAW BLVD STE A","LOS ANGELES","CA",90043,34.001670398,-118.330534334,378,"4602 SOUTH CRENSHAW BLVD STE A, LOS ANGELES, CA, 90043","Match","Exact","4602 S CRENSHAW BLVD, LOS ANGELES, CA, 90043",241169930,"L"
219379,"4602 SPRUCE DRIVE APT 2107","ARLINGTON","TX",76018,32.671926994,-97.1077090489999,379,"4602 SPRUCE DRIVE APT 2107, ARLINGTON, TX, 76018","Match","Exact","4602 SPRUCE DR, ARLINGTON, TX, 76018",102189438,"L"
219380,"4602 SUPERERIOR AVE APT 2","CLEVELAND","OH",44103,NA,NA,380,"4602 SUPERERIOR AVE APT 2, CLEVELAND, OH, 44103","No_Match",NA,NA,NA,NA
219381,"4602 TUDOR ROAD","STILESVILLE","IN",46180,NA,NA,381,"4602 TUDOR ROAD, STILESVILLE, IN, 46180","No_Match",NA,NA,NA,NA
219382,"4602 WESTGROVE COURT - SUITE A","VIRGINIA BEACH","VA",23455,36.87230821,-76.1381738109999,382,"4602 WESTGROVE COURT - SUITE A, VIRGINIA BEACH, VA, 23455","Match","Exact","4602 WESTGROVE CT, VIRGINIA BCH, VA, 23455",122289736,"R"
219383,"46027 GREENRIDGE DR","NORTHVILLE","MI",48167,42.43520247,-83.4993097729999,383,"46027 GREENRIDGE DR, NORTHVILLE, MI, 48167","Match","Exact","46027 GREENRIDGE DR, NORTHVILLE, MI, 48167",642522633,"R"
219384,"46028 BARTLETT DR","CANTON","MI",48187,42.3422935350001,-83.4934935759999,384,"46028 BARTLETT DR, CANTON, MI, 48187","Match","Exact","46028 BARTLETT DR, CANTON, MI, 48187",95498473,"L"
219385,"4603 4TH ST SOUTH","ARLINGTON","VA",22204,38.863311122,-77.1107381639999,385,"4603 4TH ST SOUTH, ARLINGTON, VA, 22204","Match","Exact","4603 4TH ST S, ARLINGTON, VA, 22204",76468994,"R"
219386,"4603 COLONY WEST DRIVE","RICHMOND","TX",77406,29.635340897,-95.825289128,386,"4603 COLONY WEST DRIVE, RICHMOND, TX, 77406","Match","Exact","4603 COLONY WEST DR, RICHMOND, TX, 77406",78349221,"R"
219387,"4603 COUNTRYCROSSING DR","SPRING","TX",77388,30.044818601,-95.485896075,387,"4603 COUNTRYCROSSING DR, SPRING, TX, 77388","Match","Exact","4603 COUNTRYCROSSING DR, SPRING, TX, 77388",624860084,"R"
219388,"4603 EAST 4TH PLACE","TULSA","OK",74112,36.155056647,-95.925422597,388,"4603 EAST 4TH PLACE, TULSA, OK, 74112","Match","Exact","4603 E 4TH PL, TULSA, OK, 74112",166446177,"L"
219389,"4603 ENCHANTED BAY BLVD","ARLINGTON","TX",76016,32.6733165540001,-97.2271651679999,389,"4603 ENCHANTED BAY BLVD, ARLINGTON, TX, 76016","Match","Exact","4603 ENCHANTED BAY BLVD, ARLINGTON, TX, 76016",101960424,"L"
219390,"4603 HWY 56","CHAUVIN","LA",70344,29.5157862620001,-90.591637544,390,"4603 HWY 56, CHAUVIN, LA, 70344","Match","Exact","4603 HWY 56, CHAUVIN, LA, 70344",631937380,"R"
219391,"4603 KENDALL AVE","GULFPORT","MS",39507,30.4064851030001,-89.04586297,391,"4603 KENDALL AVE, GULFPORT, MS, 39507","Match","Exact","4603 KENDALL AVE, GULFPORT, MS, 39507",111434400,"L"
219392,"4603 KILMARNOCH WAY","MISSOURI CITY","TX",77459,29.593983263,-95.57972634,392,"4603 KILMARNOCH WAY, MISSOURI CITY, TX, 77459","Match","Exact","4603 KILMARNOCH WAY, MISSOURI CITY, TX, 77459",78281300,"L"
219393,"4603 MAGELLAN DR","WALNUTPORT","PA",18088,40.732096122,-75.56287231,393,"4603 MAGELLAN DR, WALNUTPORT, PA, 18088","Match","Exact","4603 MAGELLAN DR, WALNUTPORT, PA, 18088",625129298,"R"
219394,"4603 MILLSTONE CANYON LANE","SUGARLAND","TX",77479,29.5272663470001,-95.567400745,394,"4603 MILLSTONE CANYON LANE, SUGARLAND, TX, 77479","Match","Non_Exact","4603 MILLSTONE CANYON LN, SUGAR LAND, TX, 77479",646470050,"L"
219395,"4603 PEACHTREE PLACE PKWY APT D","DORAVILLE","GA",30360,33.932239641,-84.268591218,395,"4603 PEACHTREE PLACE PKWY APT D, DORAVILLE, GA, 30360","Match","Exact","4603 PEACHTREE PLACE PKWY, DORAVILLE, GA, 30360",23402884,"R"
219396,"4603 PRESTBURY DRIVE","GREENSBORO","NC",27455,36.14176151,-79.810736568,396,"4603 PRESTBURY DRIVE, GREENSBORO, NC, 27455","Match","Exact","4603 PRESTBURY DR, GREENSBORO, NC, 27455",131109772,"R"
219397,"4603 PRISCILLA AVE","MEMPHIS","TN",38128,35.2087980530001,-89.910096954,397,"4603 PRISCILLA AVE, MEMPHIS, TN, 38128","Match","Exact","4603 PRISCILLA AVE, MEMPHIS, TN, 38128",72914762,"R"
219398,"4603 SPRINGWATER COURT UNIT J","OWINGS MILLS","MD",21117,39.401057931,-76.806895647,398,"4603 SPRINGWATER COURT UNIT J, OWINGS MILLS, MD, 21117","Match","Exact","4603 SPRINGWATER CT, OWINGS MILLS, MD, 21117",191514860,"R"
219399,"4603 SYCAMORE SHOALS DR","DURHAM","NC",27705,36.0223264050001,-78.974363809,399,"4603 SYCAMORE SHOALS DR, DURHAM, NC, 27705","Match","Non_Exact","4603 SYCAMORE SHOALS RD, DURHAM, NC, 27705",640010585,"L"
219400,"4603 TIMOTHY DR","GREEN","OH",44319,40.95603506,-81.515848187,400,"4603 TIMOTHY DR, GREEN, OH, 44319","Match","Non_Exact","4603 TIMOTHY DR, AKRON, OH, 44319",61359493,"L"
219401,"4603 W GARY DR","CHANDLER","AZ",85226,33.320559679,-111.921018118,401,"4603 W GARY DR, CHANDLER, AZ, 85226","Match","Exact","4603 W GARY DR, CHANDLER, AZ, 85226",128240537,"L"
219402,"4603 W LEON TER","MILWAUKEE","WI",53216,43.087348885,-87.971282512,402,"4603 W LEON TER, MILWAUKEE, WI, 53216","Match","Exact","4603 W LEON TER, MILWAUKEE, WI, 53216",77731592,"L"
219403,"4603 W NAOMI WAY","FRESNO","CA",93722,36.792035404,-119.876093051,403,"4603 W NAOMI WAY, FRESNO, CA, 93722","Match","Exact","4603 W NAOMI WAY, FRESNO, CA, 93722",619122378,"R"
219404,"4603 WEST COUNTY ROAD 700 SOUTH","MUNCIE","IN",47302,40.09096651,-85.440004996,404,"4603 WEST COUNTY ROAD 700 SOUTH, MUNCIE, IN, 47302","Match","Exact","4603 W CO RD 700 S, MUNCIE, IN, 47302",30840130,"R"
219405,"4603 WOODHALL","DETROIT","MI",48224,42.4047276960001,-82.9243107839999,405,"4603 WOODHALL, DETROIT, MI, 48224","Match","Non_Exact","4603 WOODHALL ST, DETROIT, MI, 48224",95487461,"L"
219406,"46036 MICHIGAN AVE   116","CANTON","MI",48188,42.270476203,-83.4930448379999,406,"46036 MICHIGAN AVE   116, CANTON, MI, 48188","Match","Exact","46036 MICHIGAN AVE, CANTON, MI, 48188",95725339,"L"
219407,"46036 MICHIGAN AVENUE SUITE 320","CANTON","MI",48188,42.270476203,-83.4930448379999,407,"46036 MICHIGAN AVENUE SUITE 320, CANTON, MI, 48188","Match","Exact","46036 MICHIGAN AVE, CANTON, MI, 48188",95725339,"L"
219408,"4604 49TH STREET NORTH STE 1162","ST PETERSBURG","FL",33709,27.813804815,-82.700034633,408,"4604 49TH STREET NORTH STE 1162, ST PETERSBURG, FL, 33709","Match","Exact","4604 49TH ST N, SAINT PETERSBURG, FL, 33709",124697582,"L"
219409,"4604 ACAPULCO STREET","SAN BERNARDINO","CA",92407,34.1697811670001,-117.348809973,409,"4604 ACAPULCO STREET, SAN BERNARDINO, CA, 92407","Match","Exact","4604 ACAPULCO ST, SAN BERNARDINO, CA, 92407",144974812,"L"
219410,"4604 ATLANTIC STREET","FARMINGTON","NM",87402,36.7732463070001,-108.150396495,410,"4604 ATLANTIC STREET, FARMINGTON, NM, 87402","Match","Exact","4604 ATLANTIC ST, FARMINGTON, NM, 87402",636556547,"R"
219411,"4604 BATTLEGROUND RD UNIT 4","WAITSFIELD","VT",5673,44.1992429100001,-72.894115606,411,"4604 BATTLEGROUND RD UNIT 4, WAITSFIELD, VT, 5673","Match","Exact","4604 BATTLEGROUND RD, WAITSFIELD, VT, 05673",136682839,"L"
219412,"4604 BIMINI LN","WEST PALM BEACH","FL",33417,26.6963315680001,-80.113539015,412,"4604 BIMINI LN, WEST PALM BEACH, FL, 33417","Match","Exact","4604 BIMINI LN, WEST PALM BEACH, FL, 33417",640586675,"L"
219413,"4604 CHEENEY STREET","SANTA CLARA","CA",95054,37.398112301,-121.96373353,413,"4604 CHEENEY STREET, SANTA CLARA, CA, 95054","Match","Exact","4604 CHEENEY ST, SANTA CLARA, CA, 95054",123016929,"L"
219414,"4604 CHINABERRY LN","NAPERVILLE","IL",60564,41.6866423050001,-88.229609312,414,"4604 CHINABERRY LN, NAPERVILLE, IL, 60564","Match","Exact","4604 CHINABERRY LN, NAPERVILLE, IL, 60564",607934203,"L"
219415,"4604 DALROCK DR","PLANO","TX",75024,33.100561833,-96.7849282879999,415,"4604 DALROCK DR, PLANO, TX, 75024","Match","Exact","4604 DALROCK DR, PLANO, TX, 75024",123567471,"L"
219416,"4604 ECHO SPRINGS CIRCLE","EL DORADO HILLS","CA",95762,38.6859862480001,-121.056036943,416,"4604 ECHO SPRINGS CIRCLE, EL DORADO HILLS, CA, 95762","Match","Exact","4604 ECHO SPRINGS CIR, EL DORADO HILLS, CA, 95762",133064249,"R"
219417,"4604 EVERETT DR","TYLER","TX",75706,32.422050632,-95.304097174,417,"4604 EVERETT DR, TYLER, TX, 75706","Match","Exact","4604 EVERETT DR, TYLER, TX, 75706",141297279,"L"
219418,"4604 JARRIS LANE","FORT WORTH","TX",76119,NA,NA,418,"4604 JARRIS LANE, FORT WORTH, TX, 76119","No_Match",NA,NA,NA,NA
219419,"4604 MARIELLE DRIVE","ROSEDALE","MD",21237,39.3606645940001,-76.499701315,419,"4604 MARIELLE DRIVE, ROSEDALE, MD, 21237","Match","Exact","4604 MARIELLE DR, ROSEDALE, MD, 21237",636805957,"R"
219420,"4604 MAYFIELD DR","KOKOMO","IN",46901,40.4803521630001,-86.196570421,420,"4604 MAYFIELD DR, KOKOMO, IN, 46901","Match","Exact","4604 MAYFIELD DR, KOKOMO, IN, 46901",27284465,"L"
219421,"4604 N 14TH AVENUE","PHOENIX","AZ",85013,33.5042959640001,-112.090423419,421,"4604 N 14TH AVENUE, PHOENIX, AZ, 85013","Match","Non_Exact","4604 N 14TH AVE, PHOENIX, AZ, 85013",128206102,"L"
219422,"4604 N FRIDAY CIRCLE","ROCKLEDGE","FL",32926,28.3997180010001,-80.799098843,422,"4604 N FRIDAY CIRCLE, ROCKLEDGE, FL, 32926","Match","Non_Exact","4604 N FRIDAY CIR, COCOA, FL, 32926",93914400,"R"
219423,"4604 N KINGS HWY","MYRTLE BEACH","SC",29577,33.72045544,-78.850258238,423,"4604 N KINGS HWY, MYRTLE BEACH, SC, 29577","Match","Exact","4604 N KINGS HWY, MYRTLE BEACH, SC, 29577",607424672,"L"
219424,"4604 NE BELL AVE","LAWTON","OK",73507,34.6107857000001,-98.3334314479999,424,"4604 NE BELL AVE, LAWTON, OK, 73507","Match","Exact","4604 NE BELL AVE, LAWTON, OK, 73507",15002645,"L"
219425,"4604 PAYNE ROAD","HURLOCK","MD",21643,38.6667624090001,-75.864362618,425,"4604 PAYNE ROAD, HURLOCK, MD, 21643","Match","Exact","4604 PAYNE RD, HURLOCK, MD, 21643",99669334,"R"
219426,"4604 RIVER OAK","KNOXVILLE","TN",37920,35.9262669820001,-83.950209118,426,"4604 RIVER OAK, KNOXVILLE, TN, 37920","Match","Non_Exact","4604 RIVER OAK DR, KNOXVILLE, TN, 37920",42660341,"L"
219427,"4604 SARANDON CT","CHARLOTTE","NC",28215,35.267092867,-80.687590614,427,"4604 SARANDON CT, CHARLOTTE, NC, 28215","Match","Exact","4604 SARANDON CT, CHARLOTTE, NC, 28215",70535510,"L"
219428,"4604 SARASOTA DRIVE","THE COLONY","TX",75056,33.0763728740001,-96.8943464829999,428,"4604 SARASOTA DRIVE, THE COLONY, TX, 75056","Match","Exact","4604 SARASOTA DR, THE COLONY, TX, 75056",103429070,"L"
219429,"4604 SPRINGFIELD COURT","LOUISVILLE","KY",40229,38.061771261,-85.680986495,429,"4604 SPRINGFIELD COURT, LOUISVILLE, KY, 40229","Match","Exact","4604 SPRINGFIELD CT, LOUISVILLE, KY, 40229",47749491,"R"
219430,"4604 VIA VENTURA","MESQUITE","TX",75150,32.8276168020001,-96.6026418719999,430,"4604 VIA VENTURA, MESQUITE, TX, 75150","Match","Exact","4604 VIA VENTURA, MESQUITE, TX, 75150",103166849,"L"
219431,"4604 WESTMINSTER AVE","PHILADELPHIA","PA",19131,39.9692579410001,-75.2140986479999,431,"4604 WESTMINSTER AVE, PHILADELPHIA, PA, 19131","Match","Exact","4604 WESTMINSTER AVE, PHILADELPHIA, PA, 19131",647553527,"L"
219432,"4605 233RD ST SW","MOUNTLAKE TERRACE","WA",98043,47.7871442640001,-122.295382304,432,"4605 233RD ST SW, MOUNTLAKE TERRACE, WA, 98043","Match","Exact","4605 233RD ST SW, MOUNTLAKE TERRACE, WA, 98043",187757036,"R"
219433,"4605 7TH AVENUE 1FL","BROOKLYN","NY",11220,40.64462367,-74.003641032,433,"4605 7TH AVENUE 1FL, BROOKLYN, NY, 11220","Match","Exact","4605 7TH AVE, BROOKLYN, NY, 11220",59094800,"L"
219434,"4605 88TH AVE SE","MERCER ISLAND","WA",98040,47.5634986850001,-122.221588075,434,"4605 88TH AVE SE, MERCER ISLAND, WA, 98040","Match","Exact","4605 88TH AVE SE, MERCER ISLAND, WA, 98040",186606943,"R"
219435,"4605 BLUEBONNET BLVD SUITE A","BATON ROUGE","LA",70809,30.407090404,-91.0826581759999,435,"4605 BLUEBONNET BLVD SUITE A, BATON ROUGE, LA, 70809","Match","Non_Exact","4605 BLUEBONNET RD, BATON ROUGE, LA, 70809",646575245,"L"
219436,"4605 CASS AVE","DETROIT","MI",48201,42.353516658,-83.065256027,436,"4605 CASS AVE, DETROIT, MI, 48201","Match","Exact","4605 CASS AVE, DETROIT, MI, 48201",638893975,"L"
219437,"4605 CLUB COURSE DRIVE","N CHARLESTON","SC",29420,32.9298256000001,-80.1132305789999,437,"4605 CLUB COURSE DRIVE, N CHARLESTON, SC, 29420","Match","Exact","4605 CLUB COURSE DR, N CHARLESTON, SC, 29420",178471724,"L"
219438,"4605 COUNTY ROAD 660","FARMERSVILLE","TX",75442,33.2191302360001,-96.333595846,438,"4605 COUNTY ROAD 660, FARMERSVILLE, TX, 75442","Match","Exact","4605 CO RD 660, FARMERSVILLE, TX, 75442",642946123,"L"
219439,"4605 COUNTY ROAD 69","REEDS","MO",64859,37.1182381130001,-94.181593079,439,"4605 COUNTY ROAD 69, REEDS, MO, 64859","Match","Exact","4605 CO RD 69, REEDS, MO, 64859",634374446,"L"
219440,"4605 E SWALLER RD","IMPERIAL","MO",63052,38.413266956,-90.480609285,440,"4605 E SWALLER RD, IMPERIAL, MO, 63052","Match","Exact","4605 E SWALLER RD, IMPERIAL, MO, 63052",607919987,"R"
219441,"4605 EMBASSY CIRCLE APT 203","OWINGS MILLS","MD",21117,39.3962743120001,-76.7997514099999,441,"4605 EMBASSY CIRCLE APT 203, OWINGS MILLS, MD, 21117","Match","Exact","4605 EMBASSY CIR, OWINGS MILLS, MD, 21117",191550775,"R"
219442,"4605 ESTATE TUTU","ST THOMAS","VI",802,NA,NA,442,"4605 ESTATE TUTU, ST THOMAS, VI, 802","No_Match",NA,NA,NA,NA
219443,"4605 HARE STREET","HOUSTON","TX",77020,29.7693995160001,-95.323977916,443,"4605 HARE STREET, HOUSTON, TX, 77020","Match","Exact","4605 HARE ST, HOUSTON, TX, 77020",96079845,"L"
219444,"4605 HILLTOP DRIVE","MIDLAND","TX",79707,32.035489634,-102.152294355,444,"4605 HILLTOP DRIVE, MIDLAND, TX, 79707","Match","Exact","4605 HILLTOP DR, MIDLAND, TX, 79707",139598767,"L"
219445,"4605 KAVON AVENUE","BALTIMORE","MD",21206,39.330306093,-76.559873406,445,"4605 KAVON AVENUE, BALTIMORE, MD, 21206","Match","Exact","4605 KAVON AVE, BALTIMORE, MD, 21206",206433135,"R"
219446,"4605 LANKERSHIM BLVD SUITE 301","NORTH HOLLYWOOD","CA",91602,34.1543735380001,-118.3682671,446,"4605 LANKERSHIM BLVD SUITE 301, NORTH HOLLYWOOD, CA, 91602","Match","Exact","4605 LANKERSHIM BLVD, N HOLLYWOOD, CA, 91602",141591910,"L"
219447,"4605 MAIL PLUS TUTU MALL 133 446","ST THOMAS","VI",802,NA,NA,447,"4605 MAIL PLUS TUTU MALL 133 446, ST THOMAS, VI, 802","No_Match",NA,NA,NA,NA
219448,"4605 OLD MEMPHIS PIKE","TUSCUMBIA","AL",35674,34.7104457720001,-87.7627149589999,448,"4605 OLD MEMPHIS PIKE, TUSCUMBIA, AL, 35674","Match","Exact","4605 OLD MEMPHIS PIKE, TUSCUMBIA, AL, 35674",40769447,"R"
219449,"4605 PALACE PLACE","TITUSVILLE","FL",32796,28.6457940400001,-80.8742922339999,449,"4605 PALACE PLACE, TITUSVILLE, FL, 32796","Match","Exact","4605 PALACE PL, TITUSVILLE, FL, 32796",93919205,"R"
219450,"4605 POINT LOMA AVENUE","SAN DIEGO","CA",92107,32.7342888630001,-117.251623464,450,"4605 POINT LOMA AVENUE, SAN DIEGO, CA, 92107","Match","Exact","4605 POINT LOMA AVE, SAN DIEGO, CA, 92107",195339175,"L"
219451,"4605 ROSEDALE AVE","AUSTIN","TX",78756,30.3172806800001,-97.741525716,451,"4605 ROSEDALE AVE, AUSTIN, TX, 78756","Match","Exact","4605 ROSEDALE AVE, AUSTIN, TX, 78756",63931464,"R"
219452,"4605 S 2ND ST UNIT B","AUSTIN","TX",78745,30.2181995760001,-97.775814525,452,"4605 S 2ND ST UNIT B, AUSTIN, TX, 78745","Match","Non_Exact","4605 S 2ND ST, AUSTIN, TX, 78745",63944378,"L"
219453,"4605 S MEADOWLARK DRIVE","SPRINGFIELD","MO",65810,37.131547878,-93.3468891269999,453,"4605 S MEADOWLARK DRIVE, SPRINGFIELD, MO, 65810","Match","Exact","4605 S MEADOWLARK DR, SPRINGFIELD, MO, 65810",76690983,"R"
219454,"4605 S NATHAN AVE","SIOUX FALLS","SD",57103,43.5021985490001,-96.6847780589999,454,"4605 S NATHAN AVE, SIOUX FALLS, SD, 57103","Match","Exact","4605 S NATHAN AVE, SIOUX FALLS, SD, 57103",34978281,"R"
219455,"4605 S PLATEAU TRAIL","SIOUX FALLS","SD",57106,43.504648853,-96.8096374309999,455,"4605 S PLATEAU TRAIL, SIOUX FALLS, SD, 57106","Match","Exact","4605 S PLATEAU TRL, SIOUX FALLS, SD, 57106",34982499,"R"
219456,"4605 SAINT MATTHEWS ROAD","ORANGEBURG","SC",29118,NA,NA,456,"4605 SAINT MATTHEWS ROAD, ORANGEBURG, SC, 29118","No_Match",NA,NA,NA,NA
219457,"4605 SOPHIA WAY","LAS VEGAS","NV",89032,36.2258568830001,-115.204302433,457,"4605 SOPHIA WAY, LAS VEGAS, NV, 89032","Match","Non_Exact","4605 SOPHIA WAY, N LAS VEGAS, NV, 89032",201908045,"L"
219458,"4605 SUMMIT DRIVE","LOUISVILLE","KY",40229,38.0670474990001,-85.6771889789999,458,"4605 SUMMIT DRIVE, LOUISVILLE, KY, 40229","Match","Exact","4605 SUMMIT DR, LOUISVILLE, KY, 40229",636922241,"R"
219459,"4605 SUMMITT DRIVE","LOUISVILLE","KY",40229,38.0665884360001,-85.6786725919999,459,"4605 SUMMITT DRIVE, LOUISVILLE, KY, 40229","Match","Exact","4605 SUMMITT DR, LOUISVILLE, KY, 40229",47737760,"L"
219460,"4605 SW JOSHUA STREET","TUALATIN","OR",97062,45.379568238,-122.724476043,460,"4605 SW JOSHUA STREET, TUALATIN, OR, 97062","Match","Exact","4605 SW JOSHUA ST, TUALATIN, OR, 97062",157945255,"L"
219461,"4605 TUTU PARK MALL STE 207","ST THOMAS","VI",802,NA,NA,461,"4605 TUTU PARK MALL STE 207, ST THOMAS, VI, 802","No_Match",NA,NA,NA,NA
219462,"4605 TUTU PARK MALL STE133 PMB 653","STTHOMAS","VI",802,NA,NA,462,"4605 TUTU PARK MALL STE133 PMB 653, STTHOMAS, VI, 802","No_Match",NA,NA,NA,NA
219463,"4605 VARRELMANN AVE","ST LOUIS","MO",63116,38.583192936,-90.262850497,463,"4605 VARRELMANN AVE, ST LOUIS, MO, 63116","Match","Exact","4605 VARRELMANN AVE, SAINT LOUIS, MO, 63116",639094307,"R"
219464,"4605 WHISPER WAY","PENSACOLA","FL",32504,30.5029178980001,-87.163492133,464,"4605 WHISPER WAY, PENSACOLA, FL, 32504","Match","Exact","4605 WHISPER WAY, PENSACOLA, FL, 32504",93222962,"R"
219465,"4605C OLEANDER DR STE 301","MYRTLE BEACH","SC",29577,33.730961547,-78.863254985,465,"4605C OLEANDER DR STE 301, MYRTLE BEACH, SC, 29577","Match","Exact","4605 OLEANDER DR, MYRTLE BEACH, SC, 29577",622307110,"L"
219466,"4606 227TH ST SW","MOUNTLAKE TERRACE","WA",98043,47.7926411290001,-122.294898229,466,"4606 227TH ST SW, MOUNTLAKE TERRACE, WA, 98043","Match","Exact","4606 227TH ST SW, MOUNTLAKE TERRACE, WA, 98043",187756988,"L"
219467,"4606 BEECHER RD F2","FLINT","MI",48532,43.0307177460001,-83.766686087,467,"4606 BEECHER RD F2, FLINT, MI, 48532","Match","Exact","4606 BEECHER RD, FLINT, MI, 48532",69562037,"R"
219468,"4606 BOUDINOT STREET","PHILADELPHIA","PA",19120,40.019320678,-75.1178590489999,468,"4606 BOUDINOT STREET, PHILADELPHIA, PA, 19120","Match","Exact","4606 BOUDINOT ST, PHILADELPHIA, PA, 19120",131420122,"L"
219469,"4606 CEDAR SPRINGS RD SUITE 822","DALLAS","TX",75219,32.817663274,-96.81939123,469,"4606 CEDAR SPRINGS RD SUITE 822, DALLAS, TX, 75219","Match","Exact","4606 CEDAR SPRINGS RD, DALLAS, TX, 75219",102905023,"R"
219470,"4606 CLARA ROSE LN","KATY","TX",77449,NA,NA,470,"4606 CLARA ROSE LN, KATY, TX, 77449","No_Match",NA,NA,NA,NA
219471,"4606 CLYDE MORRIS BLVD     2N","PORT ORANGE","FL",32129,29.1292492810001,-81.0257004279999,471,"4606 CLYDE MORRIS BLVD     2N, PORT ORANGE, FL, 32129","Match","Non_Exact","4606 S CLYDE MORRIS BLVD, PORT ORANGE, FL, 32129",94527914,"R"
219472,"4606 DEEPWOOD CT","BOWIE","MD",20720,38.9517778040001,-76.809161707,472,"4606 DEEPWOOD CT, BOWIE, MD, 20720","Match","Exact","4606 DEEPWOOD CT, BOWIE, MD, 20720",76340389,"R"
219473,"4606 E REZANOF DR","KODIAK","AK",99615,57.824783037,-152.355657499,473,"4606 E REZANOF DR, KODIAK, AK, 99615","Match","Exact","4606 E REZANOF DR, KODIAK, AK, 99615",193547203,"R"
219474,"4606 EAST 93RD STREET","GARFIELD HTS","OH",44125,41.4340152840001,-81.621325594,474,"4606 EAST 93RD STREET, GARFIELD HTS, OH, 44125","Match","Exact","4606 E 93RD ST, GARFIELD HEIGHTS, OH, 44125",61119390,"R"
219475,"4606 ELM TERRACE","SKOKIE","IL",60076,42.0348703810001,-87.7427958339999,475,"4606 ELM TERRACE, SKOKIE, IL, 60076","Match","Exact","4606 ELM TER, SKOKIE, IL, 60076",111740651,"R"
219476,"4606 FM 1960 437","HOUSTON","TX",77069,NA,NA,476,"4606 FM 1960 437, HOUSTON, TX, 77069","No_Match",NA,NA,NA,NA
219477,"4606 FM 1960 RD W STE 305","HOUSTON","TX",77069,NA,NA,477,"4606 FM 1960 RD W STE 305, HOUSTON, TX, 77069","No_Match",NA,NA,NA,NA
219478,"4606 FM 1960 RD W STE 400","HOUSTON","TX",77069,NA,NA,478,"4606 FM 1960 RD W STE 400, HOUSTON, TX, 77069","No_Match",NA,NA,NA,NA
219479,"4606 FM 1960 RD W STE 413","HOUSTON","TX",77069,NA,NA,479,"4606 FM 1960 RD W STE 413, HOUSTON, TX, 77069","No_Match",NA,NA,NA,NA
219480,"4606 FM 1960 WEST  STE 144","HOUSTON","TX",77069,NA,NA,480,"4606 FM 1960 WEST  STE 144, HOUSTON, TX, 77069","No_Match",NA,NA,NA,NA
219481,"4606 FM 1960 WEST STE 312","HOUSTON","TX",77069,NA,NA,481,"4606 FM 1960 WEST STE 312, HOUSTON, TX, 77069","No_Match",NA,NA,NA,NA
219482,"4606 FM 1960 WEST STE 312","SPRING","TX",77069,NA,NA,482,"4606 FM 1960 WEST STE 312, SPRING, TX, 77069","No_Match",NA,NA,NA,NA
219483,"4606 FM 1960 WEST","HOUSTON","TX",77066,NA,NA,483,"4606 FM 1960 WEST, HOUSTON, TX, 77066","No_Match",NA,NA,NA,NA
219484,"4606 FOXHALL CRES NW","WASHINGTON","DC",20007,38.9217654940001,-77.092359207,484,"4606 FOXHALL CRES NW, WASHINGTON, DC, 20007","Match","Exact","4606 FOXHALL CRES NW, WASHINGTON, DC, 20007",76242756,"L"
219485,"4606 HARTFORD DRIVE","FORT WAYNE","IN",46835,41.1234116890001,-85.041256271,485,"4606 HARTFORD DRIVE, FORT WAYNE, IN, 46835","Match","Exact","4606 HARTFORD DR, FORT WAYNE, IN, 46835",6395002,"R"
219486,"4606 HIGHGATE DRIVE","DELRAY BEACH","FL",33445,26.482542589,-80.117163367,486,"4606 HIGHGATE DRIVE, DELRAY BEACH, FL, 33445","Match","Exact","4606 HIGHGATE DR, DELRAY BEACH, FL, 33445",630035733,"R"
219487,"4606 KINGSWELL AVENUE APT 1","LOS ANGELES","CA",90027,34.102688533,-118.289873019,487,"4606 KINGSWELL AVENUE APT 1, LOS ANGELES, CA, 90027","Match","Exact","4606 KINGSWELL AVE, LOS ANGELES, CA, 90027",141597587,"L"
219488,"4606 MCCUEN AVE","STOCKTON","CA",95203,37.901064375,-121.308598067,488,"4606 MCCUEN AVE, STOCKTON, CA, 95203","Match","Non_Exact","4606 MCCUEN AVE, STOCKTON, CA, 95206",133887898,"L"
219489,"4606 MCCUEN AVE","STOCKTON","CA",95206,37.901064375,-121.308598067,489,"4606 MCCUEN AVE, STOCKTON, CA, 95206","Match","Exact","4606 MCCUEN AVE, STOCKTON, CA, 95206",133887898,"L"
219490,"4606 MUSTANG AVE","ROSENBERG","TX",77471,29.561185731,-95.781339417,490,"4606 MUSTANG AVE, ROSENBERG, TX, 77471","Match","Exact","4606 MUSTANG AVE, ROSENBERG, TX, 77471",78263697,"R"
219491,"4606 N ALBINA AVE","PORTLAND","OR",97217,45.5561550790001,-122.674927494,491,"4606 N ALBINA AVE, PORTLAND, OR, 97217","Match","Exact","4606 N ALBINA AVE, PORTLAND, OR, 97217",157580209,"R"
219492,"4606 N FRANKFORT AVE","TULSA","OK",74126,36.2207378420001,-95.9889880329999,492,"4606 N FRANKFORT AVE, TULSA, OK, 74126","Match","Exact","4606 N FRANKFORT AVE, TULSA, OK, 74126",166435795,"L"
219493,"4606 NETA DR","KILLEEN","TX",76549,31.09655931,-97.795585949,493,"4606 NETA DR, KILLEEN, TX, 76549","Match","Exact","4606 NETA DR, KILLEEN, TX, 76549",146234375,"L"
219494,"4606 PIPPIN GLEN DR","HUMBLE","TX",77396,29.942586664,-95.248883667,494,"4606 PIPPIN GLEN DR, HUMBLE, TX, 77396","Match","Exact","4606 PIPPIN GLEN DR, HUMBLE, TX, 77396",625666915,"R"
219495,"4606 POLK NE","COLUMBIA HEIGHTS","MN",55421,45.05203299,-93.244841921,495,"4606 POLK NE, COLUMBIA HEIGHTS, MN, 55421","Match","Non_Exact","4606 POLK ST NE, COLUMBIA HEIGHTS, MN, 55421",97493490,"L"
219496,"4606 S DOSS RD","PORT ANGELES","WA",98362,48.081570888,-123.411208433,496,"4606 S DOSS RD, PORT ANGELES, WA, 98362","Match","Exact","4606 S DOSS RD, PORT ANGELES, WA, 98362",150878097,"R"
219497,"4606 S MEADOWLARK DR","SPRINGFIELD","MO",65810,37.1315020750001,-93.346876282,497,"4606 S MEADOWLARK DR, SPRINGFIELD, MO, 65810","Match","Exact","4606 S MEADOWLARK DR, SPRINGFIELD, MO, 65810",76690983,"L"
219498,"4606 SHOALWOOD AVENUE","AUSTIN","TX",78756,30.3186153070001,-97.7441535459999,498,"4606 SHOALWOOD AVENUE, AUSTIN, TX, 78756","Match","Exact","4606 SHOALWOOD AVE, AUSTIN, TX, 78756",63929599,"L"
219499,"4606 SPRINGVIEW ROAD APT 3","CHARLOTTE","NC",28213,35.2622291440001,-80.7877286459999,499,"4606 SPRINGVIEW ROAD APT 3, CHARLOTTE, NC, 28213","Match","Exact","4606 SPRINGVIEW RD, CHARLOTTE, NC, 28213",70581452,"R"
219500,"4606 STEEPLECHASE DRIVE","BATAVIA","OH",45103,39.0917145540001,-84.216017075,500,"4606 STEEPLECHASE DRIVE, BATAVIA, OH, 45103","Match","Exact","4606 STEEPLECHASE DR, BATAVIA, OH, 45103",118472854,"L"
