"ID","Address","City","State","Zip","lat","long","id","input_address","match_indicator","match_type","matched_address","tiger_line_id","tiger_side"
349001,"PO BOX 43234","JACKSONVILLE","FL",32203,NA,NA,1,"PO BOX 43234, JACKSONVILLE, FL, 32203","No_Match",NA,NA,NA,NA
349002,"PO BOX 4324","WALNUT CREEK","CA",94596,NA,NA,2,"PO BOX 4324, WALNUT CREEK, CA, 94596","No_Match",NA,NA,NA,NA
349003,"PO BOX 4325","NORTH MYRTLE BEACH","SC",29597,NA,NA,3,"PO BOX 4325, NORTH MYRTLE BEACH, SC, 29597","No_Match",NA,NA,NA,NA
349004,"PO BOX 4327","GARDEN GROVE","CA",92842,NA,NA,4,"PO BOX 4327, GARDEN GROVE, CA, 92842","No_Match",NA,NA,NA,NA
349005,"PO BOX 432960","SAN YSIDRO","CA",92143,NA,NA,5,"PO BOX 432960, SAN YSIDRO, CA, 92143","No_Match",NA,NA,NA,NA
349006,"PO BOX 433","BEAVERTON","OR",97075,NA,NA,6,"PO BOX 433, BEAVERTON, OR, 97075","No_Match",NA,NA,NA,NA
349007,"PO BOX 433","CASPER","WY",82602,NA,NA,7,"PO BOX 433, CASPER, WY, 82602","No_Match",NA,NA,NA,NA
349008,"PO BOX 433","COALMONT","TN",37313,NA,NA,8,"PO BOX 433, COALMONT, TN, 37313","No_Match",NA,NA,NA,NA
349009,"PO BOX 433","DANVILLE","IN",46122,NA,NA,9,"PO BOX 433, DANVILLE, IN, 46122","No_Match",NA,NA,NA,NA
349010,"PO BOX 433","FORT PIERCE","FL",34954,NA,NA,10,"PO BOX 433, FORT PIERCE, FL, 34954","No_Match",NA,NA,NA,NA
349011,"PO BOX 433","GOLD BAR","WA",98251,NA,NA,11,"PO BOX 433, GOLD BAR, WA, 98251","No_Match",NA,NA,NA,NA
349012,"PO BOX 433","GRAND LEDGE","MI",48837,NA,NA,12,"PO BOX 433, GRAND LEDGE, MI, 48837","No_Match",NA,NA,NA,NA
349013,"PO BOX 433","HERMISTON","OR",97838,NA,NA,13,"PO BOX 433, HERMISTON, OR, 97838","No_Match",NA,NA,NA,NA
349014,"PO BOX 433","HINTON","OK",73047,NA,NA,14,"PO BOX 433, HINTON, OK, 73047","No_Match",NA,NA,NA,NA
349015,"PO BOX 433","IRON RIVER","MI",49935,NA,NA,15,"PO BOX 433, IRON RIVER, MI, 49935","No_Match",NA,NA,NA,NA
349016,"PO BOX 433","LAKEVILLE","MN",55044,NA,NA,16,"PO BOX 433, LAKEVILLE, MN, 55044","No_Match",NA,NA,NA,NA
349017,"PO BOX 433","LANCASTER","TX",75146,NA,NA,17,"PO BOX 433, LANCASTER, TX, 75146","No_Match",NA,NA,NA,NA
349018,"PO BOX 433","MURCHISON","TX",75778,NA,NA,18,"PO BOX 433, MURCHISON, TX, 75778","No_Match",NA,NA,NA,NA
349019,"PO BOX 433","NANUET","NY",10954,NA,NA,19,"PO BOX 433, NANUET, NY, 10954","No_Match",NA,NA,NA,NA
349020,"PO BOX 433","SEDALIA","MO",65302,NA,NA,20,"PO BOX 433, SEDALIA, MO, 65302","No_Match",NA,NA,NA,NA
349021,"PO BOX 433","SHAW ISLAND","WA",98286,NA,NA,21,"PO BOX 433, SHAW ISLAND, WA, 98286","No_Match",NA,NA,NA,NA
349022,"PO BOX 433","SOUTH SAINT PAUL","MN",55075,NA,NA,22,"PO BOX 433, SOUTH SAINT PAUL, MN, 55075","No_Match",NA,NA,NA,NA
349023,"PO BOX 433","STEPHEN","MN",56757,NA,NA,23,"PO BOX 433, STEPHEN, MN, 56757","No_Match",NA,NA,NA,NA
349024,"PO BOX 433","THOMAS","OK",73669,NA,NA,24,"PO BOX 433, THOMAS, OK, 73669","No_Match",NA,NA,NA,NA
349025,"PO BOX 433","VICTORIA","KS",67671,NA,NA,25,"PO BOX 433, VICTORIA, KS, 67671","No_Match",NA,NA,NA,NA
349026,"PO BOX 433","WAXHAW","NC",28173,NA,NA,26,"PO BOX 433, WAXHAW, NC, 28173","No_Match",NA,NA,NA,NA
349027,"PO BOX 4332","ANDERSON","SC",29622,NA,NA,27,"PO BOX 4332, ANDERSON, SC, 29622","No_Match",NA,NA,NA,NA
349028,"PO BOX 4334","HOT SPRINGS","AR",71914,NA,NA,28,"PO BOX 4334, HOT SPRINGS, AR, 71914","No_Match",NA,NA,NA,NA
349029,"PO BOX 4335","MARYVILLE","TN",37802,NA,NA,29,"PO BOX 4335, MARYVILLE, TN, 37802","No_Match",NA,NA,NA,NA
349030,"PO BOX 4336","LYNCHBURG","VA",24502,NA,NA,30,"PO BOX 4336, LYNCHBURG, VA, 24502","No_Match",NA,NA,NA,NA
349031,"PO BOX 4337","ORLANDO","FL",32802,NA,NA,31,"PO BOX 4337, ORLANDO, FL, 32802","No_Match",NA,NA,NA,NA
349032,"PO BOX 4337","WILLISTON","ND",58802,NA,NA,32,"PO BOX 4337, WILLISTON, ND, 58802","No_Match",NA,NA,NA,NA
349033,"PO BOX 434","BEDFORD","MA",1730,NA,NA,33,"PO BOX 434, BEDFORD, MA, 1730","No_Match",NA,NA,NA,NA
349034,"PO BOX 434","BLOOMINGTON","IL",61702,NA,NA,34,"PO BOX 434, BLOOMINGTON, IL, 61702","No_Match",NA,NA,NA,NA
349035,"PO BOX 434","BUTLER","AL",36904,NA,NA,35,"PO BOX 434, BUTLER, AL, 36904","No_Match",NA,NA,NA,NA
349036,"PO BOX 434","CLAY","KY",42404,NA,NA,36,"PO BOX 434, CLAY, KY, 42404","No_Match",NA,NA,NA,NA
349037,"PO BOX 434","DELEON","TX",76444,NA,NA,37,"PO BOX 434, DELEON, TX, 76444","No_Match",NA,NA,NA,NA
349038,"PO BOX 434","DEWITT","NY",13214,NA,NA,38,"PO BOX 434, DEWITT, NY, 13214","No_Match",NA,NA,NA,NA
349039,"PO BOX 434","ESCALON","CA",95320,NA,NA,39,"PO BOX 434, ESCALON, CA, 95320","No_Match",NA,NA,NA,NA
349040,"PO BOX 434","ETNA","CA",96027,NA,NA,40,"PO BOX 434, ETNA, CA, 96027","No_Match",NA,NA,NA,NA
349041,"PO BOX 434","FORT MADISON","IA",52627,NA,NA,41,"PO BOX 434, FORT MADISON, IA, 52627","No_Match",NA,NA,NA,NA
349042,"PO BOX 434","GREENWOOD","IN",46142,NA,NA,42,"PO BOX 434, GREENWOOD, IN, 46142","No_Match",NA,NA,NA,NA
349043,"PO BOX 434","HERMITAGE","TN",37076,NA,NA,43,"PO BOX 434, HERMITAGE, TN, 37076","No_Match",NA,NA,NA,NA
349044,"PO BOX 434","LAKE ORION","MI",48361,NA,NA,44,"PO BOX 434, LAKE ORION, MI, 48361","No_Match",NA,NA,NA,NA
349045,"PO BOX 434","LITTLE ELM","TX",75068,NA,NA,45,"PO BOX 434, LITTLE ELM, TX, 75068","No_Match",NA,NA,NA,NA
349046,"PO BOX 434","MALVERN","IA",51551,NA,NA,46,"PO BOX 434, MALVERN, IA, 51551","No_Match",NA,NA,NA,NA
349047,"PO BOX 434","MAPLETON","OR",97453,NA,NA,47,"PO BOX 434, MAPLETON, OR, 97453","No_Match",NA,NA,NA,NA
349048,"PO BOX 434","MCCONNELSVILLE","OH",43756,NA,NA,48,"PO BOX 434, MCCONNELSVILLE, OH, 43756","No_Match",NA,NA,NA,NA
349049,"PO BOX 434","ORANGE CITY","IA",51041,NA,NA,49,"PO BOX 434, ORANGE CITY, IA, 51041","No_Match",NA,NA,NA,NA
349050,"PO BOX 434","PALM SPRINGS","CA",92263,NA,NA,50,"PO BOX 434, PALM SPRINGS, CA, 92263","No_Match",NA,NA,NA,NA
349051,"PO BOX 434","PINEVILLE","NC",28134,NA,NA,51,"PO BOX 434, PINEVILLE, NC, 28134","No_Match",NA,NA,NA,NA
349052,"PO BOX 434","QUAKER CITY","OH",43773,NA,NA,52,"PO BOX 434, QUAKER CITY, OH, 43773","No_Match",NA,NA,NA,NA
349053,"PO BOX 434","READING","PA",19607,NA,NA,53,"PO BOX 434, READING, PA, 19607","No_Match",NA,NA,NA,NA
349054,"PO BOX 434","ROCKAWAY","NJ",7866,NA,NA,54,"PO BOX 434, ROCKAWAY, NJ, 7866","No_Match",NA,NA,NA,NA
349055,"PO BOX 434","TELLICO PLAINS","TN",37385,NA,NA,55,"PO BOX 434, TELLICO PLAINS, TN, 37385","No_Match",NA,NA,NA,NA
349056,"PO BOX 434","TETONIA","ID",83452,NA,NA,56,"PO BOX 434, TETONIA, ID, 83452","No_Match",NA,NA,NA,NA
349057,"PO BOX 434","TOWANDA","KS",67144,NA,NA,57,"PO BOX 434, TOWANDA, KS, 67144","No_Match",NA,NA,NA,NA
349058,"PO BOX 434","VERONA","MS",38879,NA,NA,58,"PO BOX 434, VERONA, MS, 38879","No_Match",NA,NA,NA,NA
349059,"PO BOX 434","WEST ORANGE","NJ",7052,NA,NA,59,"PO BOX 434, WEST ORANGE, NJ, 7052","No_Match",NA,NA,NA,NA
349060,"PO BOX 434062","SAINT LOUIS","MO",63143,NA,NA,60,"PO BOX 434062, SAINT LOUIS, MO, 63143","No_Match",NA,NA,NA,NA
349061,"PO BOX 4341","BEAUFORT","SC",29903,NA,NA,61,"PO BOX 4341, BEAUFORT, SC, 29903","No_Match",NA,NA,NA,NA
349062,"PO BOX 4341","COSTA MESA","CA",92628,NA,NA,62,"PO BOX 4341, COSTA MESA, CA, 92628","No_Match",NA,NA,NA,NA
349063,"PO BOX 4341","MORGANTOWN","WV",26504,NA,NA,63,"PO BOX 4341, MORGANTOWN, WV, 26504","No_Match",NA,NA,NA,NA
349064,"PO BOX 43411","BROOKLYN PARK","MN",55443,NA,NA,64,"PO BOX 43411, BROOKLYN PARK, MN, 55443","No_Match",NA,NA,NA,NA
349065,"PO BOX 43415","LOS ANGELE","CA",90047,NA,NA,65,"PO BOX 43415, LOS ANGELE, CA, 90047","No_Match",NA,NA,NA,NA
349066,"PO BOX 43418","LOS ANGELES","CA",90043,NA,NA,66,"PO BOX 43418, LOS ANGELES, CA, 90043","No_Match",NA,NA,NA,NA
349067,"PO BOX 4342","APOPKA","FL",32704,NA,NA,67,"PO BOX 4342, APOPKA, FL, 32704","No_Match",NA,NA,NA,NA
349068,"PO BOX 4343","MODESTO","CA",95352,NA,NA,68,"PO BOX 4343, MODESTO, CA, 95352","No_Match",NA,NA,NA,NA
349069,"PO BOX 4343","WHITE RIVER JUNCTION","VT",5001,NA,NA,69,"PO BOX 4343, WHITE RIVER JUNCTION, VT, 5001","No_Match",NA,NA,NA,NA
349070,"PO BOX 4344","BISBEE","AZ",85603,NA,NA,70,"PO BOX 4344, BISBEE, AZ, 85603","No_Match",NA,NA,NA,NA
349071,"PO BOX 43444","UPPER MONTCLAIR","NJ",7043,NA,NA,71,"PO BOX 43444, UPPER MONTCLAIR, NJ, 7043","No_Match",NA,NA,NA,NA
349072,"PO BOX 4345","DUNELLEN","NJ",8812,NA,NA,72,"PO BOX 4345, DUNELLEN, NJ, 8812","No_Match",NA,NA,NA,NA
349073,"PO BOX 43450","LAFAYETTE","LA",70504,NA,NA,73,"PO BOX 43450, LAFAYETTE, LA, 70504","No_Match",NA,NA,NA,NA
349074,"PO BOX 4348","ORLANDO","FL",32802,NA,NA,74,"PO BOX 4348, ORLANDO, FL, 32802","No_Match",NA,NA,NA,NA
349075,"PO BOX 435","ANN ARBOR","MI",48106,NA,NA,75,"PO BOX 435, ANN ARBOR, MI, 48106","No_Match",NA,NA,NA,NA
349076,"PO BOX 435","AVON PARK","FL",33826,NA,NA,76,"PO BOX 435, AVON PARK, FL, 33826","No_Match",NA,NA,NA,NA
349077,"PO BOX 435","BYRON CENTER","MI",49315,NA,NA,77,"PO BOX 435, BYRON CENTER, MI, 49315","No_Match",NA,NA,NA,NA
349078,"PO BOX 435","CHELSEA","OK",74016,NA,NA,78,"PO BOX 435, CHELSEA, OK, 74016","No_Match",NA,NA,NA,NA
349079,"PO BOX 435","CORYDON","IA",50060,NA,NA,79,"PO BOX 435, CORYDON, IA, 50060","No_Match",NA,NA,NA,NA
349080,"PO BOX 435","DEWITT","IA",52742,NA,NA,80,"PO BOX 435, DEWITT, IA, 52742","No_Match",NA,NA,NA,NA
349081,"PO BOX 435","GOSHEN","IN",46527,NA,NA,81,"PO BOX 435, GOSHEN, IN, 46527","No_Match",NA,NA,NA,NA
349082,"PO BOX 435","HOT SPRINGS NATIONAL","AR",71902,NA,NA,82,"PO BOX 435, HOT SPRINGS NATIONAL, AR, 71902","No_Match",NA,NA,NA,NA
349083,"PO BOX 435","MONTGOMERY CENTER","VT",5471,NA,NA,83,"PO BOX 435, MONTGOMERY CENTER, VT, 5471","No_Match",NA,NA,NA,NA
349084,"PO BOX 435","NILES","MI",49120,NA,NA,84,"PO BOX 435, NILES, MI, 49120","No_Match",NA,NA,NA,NA
349085,"PO BOX 435","SOUTHPORT","CT",6890,NA,NA,85,"PO BOX 435, SOUTHPORT, CT, 6890","No_Match",NA,NA,NA,NA
349086,"PO BOX 435","ST CLAIR","MI",48079,NA,NA,86,"PO BOX 435, ST CLAIR, MI, 48079","No_Match",NA,NA,NA,NA
349087,"PO BOX 435","WARRIOR","AL",35180,NA,NA,87,"PO BOX 435, WARRIOR, AL, 35180","No_Match",NA,NA,NA,NA
349088,"PO BOX 435035","SAINT LOUIS","MO",63041,NA,NA,88,"PO BOX 435035, SAINT LOUIS, MO, 63041","No_Match",NA,NA,NA,NA
349089,"PO BOX 4351","HARRISBURG","PA",17111,NA,NA,89,"PO BOX 4351, HARRISBURG, PA, 17111","No_Match",NA,NA,NA,NA
349090,"PO BOX 4352","RIO RICO","AZ",85648,NA,NA,90,"PO BOX 4352, RIO RICO, AZ, 85648","No_Match",NA,NA,NA,NA
349091,"PO BOX 4352","TUMWATER","WA",98501,NA,NA,91,"PO BOX 4352, TUMWATER, WA, 98501","No_Match",NA,NA,NA,NA
349092,"PO BOX 435232","SAN DIEGO","CA",92143,NA,NA,92,"PO BOX 435232, SAN DIEGO, CA, 92143","No_Match",NA,NA,NA,NA
349093,"PO BOX 4353","DAVENPORT","IA",52808,NA,NA,93,"PO BOX 4353, DAVENPORT, IA, 52808","No_Match",NA,NA,NA,NA
349094,"PO BOX 4353","DILLON","CO",80435,NA,NA,94,"PO BOX 4353, DILLON, CO, 80435","No_Match",NA,NA,NA,NA
349095,"PO BOX 4353","MIDLOTHIAN","VA",23112,NA,NA,95,"PO BOX 4353, MIDLOTHIAN, VA, 23112","No_Match",NA,NA,NA,NA
349096,"PO BOX 43545","LOUISVILLE","KY",40243,NA,NA,96,"PO BOX 43545, LOUISVILLE, KY, 40243","No_Match",NA,NA,NA,NA
349097,"PO BOX 4355","PHILADELPHIA","PA",19118,NA,NA,97,"PO BOX 4355, PHILADELPHIA, PA, 19118","No_Match",NA,NA,NA,NA
349098,"PO BOX 4359","GARY","IN",46406,NA,NA,98,"PO BOX 4359, GARY, IN, 46406","No_Match",NA,NA,NA,NA
349099,"PO BOX 436 CROWLEY LA 70527","CROWLEY","LA",70526,NA,NA,99,"PO BOX 436 CROWLEY LA 70527, CROWLEY, LA, 70526","No_Match",NA,NA,NA,NA
349100,"PO BOX 436","BLOSSOM","TX",75416,NA,NA,100,"PO BOX 436, BLOSSOM, TX, 75416","No_Match",NA,NA,NA,NA
349101,"PO BOX 436","BRIGHTWOOD","OR",97011,NA,NA,101,"PO BOX 436, BRIGHTWOOD, OR, 97011","No_Match",NA,NA,NA,NA
349102,"PO BOX 436","CLARKSVILLE","TN",37041,NA,NA,102,"PO BOX 436, CLARKSVILLE, TN, 37041","No_Match",NA,NA,NA,NA
349103,"PO BOX 436","ESCALANTE","UT",84726,NA,NA,103,"PO BOX 436, ESCALANTE, UT, 84726","No_Match",NA,NA,NA,NA
349104,"PO BOX 436","FISHERSVILLE","VA",22939,NA,NA,104,"PO BOX 436, FISHERSVILLE, VA, 22939","No_Match",NA,NA,NA,NA
349105,"PO BOX 436","GLEN","NH",3838,NA,NA,105,"PO BOX 436, GLEN, NH, 3838","No_Match",NA,NA,NA,NA
349106,"PO BOX 436","GUERNSEY","WY",82214,NA,NA,106,"PO BOX 436, GUERNSEY, WY, 82214","No_Match",NA,NA,NA,NA
349107,"PO BOX 436","LEDGEWOOD","NJ",7852,NA,NA,107,"PO BOX 436, LEDGEWOOD, NJ, 7852","No_Match",NA,NA,NA,NA
349108,"PO BOX 436","METALINE FALLS","WA",99153,NA,NA,108,"PO BOX 436, METALINE FALLS, WA, 99153","No_Match",NA,NA,NA,NA
349109,"PO BOX 436","MOUNT TABOR","NJ",7878,NA,NA,109,"PO BOX 436, MOUNT TABOR, NJ, 7878","No_Match",NA,NA,NA,NA
349110,"PO BOX 436","PALMER","AK",99645,NA,NA,110,"PO BOX 436, PALMER, AK, 99645","No_Match",NA,NA,NA,NA
349111,"PO BOX 436","PEA RIDGE","AR",72751,NA,NA,111,"PO BOX 436, PEA RIDGE, AR, 72751","No_Match",NA,NA,NA,NA
349112,"PO BOX 436","PRINCETON","WI",54968,NA,NA,112,"PO BOX 436, PRINCETON, WI, 54968","No_Match",NA,NA,NA,NA
349113,"PO BOX 436","SUAMICO","WI",54173,NA,NA,113,"PO BOX 436, SUAMICO, WI, 54173","No_Match",NA,NA,NA,NA
349114,"PO BOX 4364","SAN CELEMNTE","CA",92674,NA,NA,114,"PO BOX 4364, SAN CELEMNTE, CA, 92674","No_Match",NA,NA,NA,NA
349115,"PO BOX 43647","CLEVELAND","OH",44143,NA,NA,115,"PO BOX 43647, CLEVELAND, OH, 44143","No_Match",NA,NA,NA,NA
349116,"PO BOX 4365","ATLANTA","GA",30302,NA,NA,116,"PO BOX 4365, ATLANTA, GA, 30302","No_Match",NA,NA,NA,NA
349117,"PO BOX 43656","CHARLOTTE","NC",28215,NA,NA,117,"PO BOX 43656, CHARLOTTE, NC, 28215","No_Match",NA,NA,NA,NA
349118,"PO BOX 436789","MIDDLETOWN","KY",40253,NA,NA,118,"PO BOX 436789, MIDDLETOWN, KY, 40253","No_Match",NA,NA,NA,NA
349119,"PO BOX 436885  IL 60643","CHICAGO","IL",60643,NA,NA,119,"PO BOX 436885  IL 60643, CHICAGO, IL, 60643","No_Match",NA,NA,NA,NA
349120,"PO BOX 4369","AUSTIN","TX",78765,NA,NA,120,"PO BOX 4369, AUSTIN, TX, 78765","No_Match",NA,NA,NA,NA
349121,"PO BOX 4369","CHARLOTTESVILLE","VA",22905,NA,NA,121,"PO BOX 4369, CHARLOTTESVILLE, VA, 22905","No_Match",NA,NA,NA,NA
349122,"PO BOX 437","BONNERS FERRY","ID",83805,NA,NA,122,"PO BOX 437, BONNERS FERRY, ID, 83805","No_Match",NA,NA,NA,NA
349123,"PO BOX 437","EASTPOINTE","MI",48021,NA,NA,123,"PO BOX 437, EASTPOINTE, MI, 48021","No_Match",NA,NA,NA,NA
349124,"PO BOX 437","ESSEX","IA",51638,NA,NA,124,"PO BOX 437, ESSEX, IA, 51638","No_Match",NA,NA,NA,NA
349125,"PO BOX 437","GEORGETOWN","SC",29442,NA,NA,125,"PO BOX 437, GEORGETOWN, SC, 29442","No_Match",NA,NA,NA,NA
349126,"PO BOX 437","HAYSI","VA",24256,NA,NA,126,"PO BOX 437, HAYSI, VA, 24256","No_Match",NA,NA,NA,NA
349127,"PO BOX 437","NEW MARKET","AL",35761,NA,NA,127,"PO BOX 437, NEW MARKET, AL, 35761","No_Match",NA,NA,NA,NA
349128,"PO BOX 437","NORTH LIBERY","IA",52317,NA,NA,128,"PO BOX 437, NORTH LIBERY, IA, 52317","No_Match",NA,NA,NA,NA
349129,"PO BOX 437","ROOSEVELT","NY",11575,NA,NA,129,"PO BOX 437, ROOSEVELT, NY, 11575","No_Match",NA,NA,NA,NA
349130,"PO BOX 437","WAYNE","NJ",7474,NA,NA,130,"PO BOX 437, WAYNE, NJ, 7474","No_Match",NA,NA,NA,NA
349131,"PO BOX 4370","TUMWATER","WA",98501,NA,NA,131,"PO BOX 4370, TUMWATER, WA, 98501","No_Match",NA,NA,NA,NA
349132,"PO BOX 437053","CHICAGO","IL",60643,NA,NA,132,"PO BOX 437053, CHICAGO, IL, 60643","No_Match",NA,NA,NA,NA
349133,"PO BOX 4371","LITTLE ROCK","AR",72214,NA,NA,133,"PO BOX 4371, LITTLE ROCK, AR, 72214","No_Match",NA,NA,NA,NA
349134,"PO BOX 4371","TALLAHASSEE","FL",32315,NA,NA,134,"PO BOX 4371, TALLAHASSEE, FL, 32315","No_Match",NA,NA,NA,NA
349135,"PO BOX 437147","KAMUELA","HI",96743,NA,NA,135,"PO BOX 437147, KAMUELA, HI, 96743","No_Match",NA,NA,NA,NA
349136,"PO BOX 43716","BALTIMORE","MD",21236,NA,NA,136,"PO BOX 43716, BALTIMORE, MD, 21236","No_Match",NA,NA,NA,NA
349137,"PO BOX 437199","KAMUELA","HI",96743,NA,NA,137,"PO BOX 437199, KAMUELA, HI, 96743","No_Match",NA,NA,NA,NA
349138,"PO BOX 4372 757 WARREN ROAD","ITHACA","NY",14850,42.4950102620001,-76.468460807,138,"PO BOX 4372 757 WARREN ROAD, ITHACA, NY, 14850","Match","Exact","757 WARREN RD, ITHACA, NY, 14850",18883300,"L"
349139,"PO BOX 437280","SAN YSIDRO","CA",92143,NA,NA,139,"PO BOX 437280, SAN YSIDRO, CA, 92143","No_Match",NA,NA,NA,NA
349140,"PO BOX 437388","CHICAGO","IL",60643,NA,NA,140,"PO BOX 437388, CHICAGO, IL, 60643","No_Match",NA,NA,NA,NA
349141,"PO BOX 4374","HUNTSVILLE","AL",35815,NA,NA,141,"PO BOX 4374, HUNTSVILLE, AL, 35815","No_Match",NA,NA,NA,NA
349142,"PO BOX 43753","LOUISVILLE","KY",40253,NA,NA,142,"PO BOX 43753, LOUISVILLE, KY, 40253","No_Match",NA,NA,NA,NA
349143,"PO BOX 43755","BROOKLYN PARK","MN",55443,NA,NA,143,"PO BOX 43755, BROOKLYN PARK, MN, 55443","No_Match",NA,NA,NA,NA
349144,"PO BOX 43767","BIRMINGHAM","AL",35243,NA,NA,144,"PO BOX 43767, BIRMINGHAM, AL, 35243","No_Match",NA,NA,NA,NA
349145,"PO BOX 43777","CHARLOTTE","NC",28215,NA,NA,145,"PO BOX 43777, CHARLOTTE, NC, 28215","No_Match",NA,NA,NA,NA
349146,"PO BOX 43783","WASHINGTON","DC",20010,NA,NA,146,"PO BOX 43783, WASHINGTON, DC, 20010","No_Match",NA,NA,NA,NA
349147,"PO BOX 43794","BIRMINGHAM","AL",35243,NA,NA,147,"PO BOX 43794, BIRMINGHAM, AL, 35243","No_Match",NA,NA,NA,NA
349148,"PO BOX 438","COLUMBUS","NJ",8022,NA,NA,148,"PO BOX 438, COLUMBUS, NJ, 8022","No_Match",NA,NA,NA,NA
349149,"PO BOX 438","GARDINER","MT",59030,NA,NA,149,"PO BOX 438, GARDINER, MT, 59030","No_Match",NA,NA,NA,NA
349150,"PO BOX 438","LAFAYETTE","GA",30728,NA,NA,150,"PO BOX 438, LAFAYETTE, GA, 30728","No_Match",NA,NA,NA,NA
349151,"PO BOX 438","MAYNARD","MA",1754,NA,NA,151,"PO BOX 438, MAYNARD, MA, 1754","No_Match",NA,NA,NA,NA
349152,"PO BOX 438","PRESTON","IA",52069,NA,NA,152,"PO BOX 438, PRESTON, IA, 52069","No_Match",NA,NA,NA,NA
349153,"PO BOX 438","SANTA CRUZ","NM",87567,NA,NA,153,"PO BOX 438, SANTA CRUZ, NM, 87567","No_Match",NA,NA,NA,NA
349154,"PO BOX 438","SHELDON","SC",29941,NA,NA,154,"PO BOX 438, SHELDON, SC, 29941","No_Match",NA,NA,NA,NA
349155,"PO BOX 43819","CLEVELAND","OH",44143,NA,NA,155,"PO BOX 43819, CLEVELAND, OH, 44143","No_Match",NA,NA,NA,NA
349156,"PO BOX 4382","PAGO PAGO","AS",96799,NA,NA,156,"PO BOX 4382, PAGO PAGO, AS, 96799","No_Match",NA,NA,NA,NA
349157,"PO BOX 43824","LOUISVILLE","KY",40253,NA,NA,157,"PO BOX 43824, LOUISVILLE, KY, 40253","No_Match",NA,NA,NA,NA
349158,"PO BOX 4383","DAVENPORT","IA",52802,NA,NA,158,"PO BOX 4383, DAVENPORT, IA, 52802","No_Match",NA,NA,NA,NA
349159,"PO BOX 438305","CHICAGO","IL",60643,NA,NA,159,"PO BOX 438305, CHICAGO, IL, 60643","No_Match",NA,NA,NA,NA
349160,"PO BOX 4384","LEXINGTON","KY",40544,NA,NA,160,"PO BOX 4384, LEXINGTON, KY, 40544","No_Match",NA,NA,NA,NA
349161,"PO BOX 4384","MARYVILLE","TN",37802,NA,NA,161,"PO BOX 4384, MARYVILLE, TN, 37802","No_Match",NA,NA,NA,NA
349162,"PO BOX 438493","CHICAGO","IL",60643,NA,NA,162,"PO BOX 438493, CHICAGO, IL, 60643","No_Match",NA,NA,NA,NA
349163,"PO BOX 4386","COMPTON","CA",90224,NA,NA,163,"PO BOX 4386, COMPTON, CA, 90224","No_Match",NA,NA,NA,NA
349164,"PO BOX 438614","CHICAGO","IL",60643,NA,NA,164,"PO BOX 438614, CHICAGO, IL, 60643","No_Match",NA,NA,NA,NA
349165,"PO BOX 43862","ATLANTA","GA",30036,NA,NA,165,"PO BOX 43862, ATLANTA, GA, 30036","No_Match",NA,NA,NA,NA
349166,"PO BOX 438825","CHICAGO","IL",60643,NA,NA,166,"PO BOX 438825, CHICAGO, IL, 60643","No_Match",NA,NA,NA,NA
349167,"PO BOX 439","FOWLERVILLE","MI",48836,NA,NA,167,"PO BOX 439, FOWLERVILLE, MI, 48836","No_Match",NA,NA,NA,NA
349168,"PO BOX 439","HIGH FALLS","NY",12440,NA,NA,168,"PO BOX 439, HIGH FALLS, NY, 12440","No_Match",NA,NA,NA,NA
349169,"PO BOX 439","KINGS PARK","NY",11754,NA,NA,169,"PO BOX 439, KINGS PARK, NY, 11754","No_Match",NA,NA,NA,NA
349170,"PO BOX 439","SADDLE BROOK","NJ",7663,NA,NA,170,"PO BOX 439, SADDLE BROOK, NJ, 7663","No_Match",NA,NA,NA,NA
349171,"PO BOX 439","TRENTON","NJ",8603,NA,NA,171,"PO BOX 439, TRENTON, NJ, 8603","No_Match",NA,NA,NA,NA
349172,"PO BOX 439030     PMB 153","SAN YSIDRO","CA",92143,NA,NA,172,"PO BOX 439030     PMB 153, SAN YSIDRO, CA, 92143","No_Match",NA,NA,NA,NA
349173,"PO BOX 439030 PMB 168","SAN YSIDRO","CA",92143,NA,NA,173,"PO BOX 439030 PMB 168, SAN YSIDRO, CA, 92143","No_Match",NA,NA,NA,NA
349174,"PO BOX 439060   PMB 421","SAN DIEGO","CA",92143,NA,NA,174,"PO BOX 439060   PMB 421, SAN DIEGO, CA, 92143","No_Match",NA,NA,NA,NA
349175,"PO BOX 4391","GARDEN GROVE","CA",92842,NA,NA,175,"PO BOX 4391, GARDEN GROVE, CA, 92842","No_Match",NA,NA,NA,NA
349176,"PO BOX 4392","BUTTE","MT",59702,NA,NA,176,"PO BOX 4392, BUTTE, MT, 59702","No_Match",NA,NA,NA,NA
349177,"PO BOX 4392","SANFORD","NC",27331,NA,NA,177,"PO BOX 4392, SANFORD, NC, 27331","No_Match",NA,NA,NA,NA
349178,"PO BOX 439468","CHICAGO","IL",60643,NA,NA,178,"PO BOX 439468, CHICAGO, IL, 60643","No_Match",NA,NA,NA,NA
349179,"PO BOX 4395","ANN ARBOR","MI",48106,NA,NA,179,"PO BOX 4395, ANN ARBOR, MI, 48106","No_Match",NA,NA,NA,NA
349180,"PO BOX 4397","VESTAVIA","AL",35243,NA,NA,180,"PO BOX 4397, VESTAVIA, AL, 35243","No_Match",NA,NA,NA,NA
349181,"PO BOX 44","BELMONT","NC",28012,NA,NA,181,"PO BOX 44, BELMONT, NC, 28012","No_Match",NA,NA,NA,NA
349182,"PO BOX 44","BODEGA","CA",94922,NA,NA,182,"PO BOX 44, BODEGA, CA, 94922","No_Match",NA,NA,NA,NA
349183,"PO BOX 44","BURLINGTON","CO",80807,NA,NA,183,"PO BOX 44, BURLINGTON, CO, 80807","No_Match",NA,NA,NA,NA
349184,"PO BOX 44","BUTNER","NC",27509,NA,NA,184,"PO BOX 44, BUTNER, NC, 27509","No_Match",NA,NA,NA,NA
349185,"PO BOX 44","CALAIS","VT",5648,NA,NA,185,"PO BOX 44, CALAIS, VT, 5648","No_Match",NA,NA,NA,NA
349186,"PO BOX 44","CASHTOWN","PA",17310,NA,NA,186,"PO BOX 44, CASHTOWN, PA, 17310","No_Match",NA,NA,NA,NA
349187,"PO BOX 44","CENTERTON","AR",72719,NA,NA,187,"PO BOX 44, CENTERTON, AR, 72719","No_Match",NA,NA,NA,NA
349188,"PO BOX 44","CISSNA PARK","IL",60924,NA,NA,188,"PO BOX 44, CISSNA PARK, IL, 60924","No_Match",NA,NA,NA,NA
349189,"PO BOX 44","CULLODEN","WV",25510,NA,NA,189,"PO BOX 44, CULLODEN, WV, 25510","No_Match",NA,NA,NA,NA
349190,"PO BOX 44","DELLSLOW","WV",26531,NA,NA,190,"PO BOX 44, DELLSLOW, WV, 26531","No_Match",NA,NA,NA,NA
349191,"PO BOX 44","DELPHI","IN",46923,NA,NA,191,"PO BOX 44, DELPHI, IN, 46923","No_Match",NA,NA,NA,NA
349192,"PO BOX 44","ERIE","CO",80516,NA,NA,192,"PO BOX 44, ERIE, CO, 80516","No_Match",NA,NA,NA,NA
349193,"PO BOX 44","GRANITE FALLS","WA",98252,NA,NA,193,"PO BOX 44, GRANITE FALLS, WA, 98252","No_Match",NA,NA,NA,NA
349194,"PO BOX 44","GRAYMONT","IL",61743,NA,NA,194,"PO BOX 44, GRAYMONT, IL, 61743","No_Match",NA,NA,NA,NA
349195,"PO BOX 44","GREENVILLE","MO",63944,NA,NA,195,"PO BOX 44, GREENVILLE, MO, 63944","No_Match",NA,NA,NA,NA
349196,"PO BOX 44","HENDERSONVILLE","TN",37077,NA,NA,196,"PO BOX 44, HENDERSONVILLE, TN, 37077","No_Match",NA,NA,NA,NA
349197,"PO BOX 44","LAKE CHARLES","LA",70602,NA,NA,197,"PO BOX 44, LAKE CHARLES, LA, 70602","No_Match",NA,NA,NA,NA
349198,"PO BOX 44","LEBANON","OH",45036,NA,NA,198,"PO BOX 44, LEBANON, OH, 45036","No_Match",NA,NA,NA,NA
349199,"PO BOX 44","LEBANON","OR",97355,NA,NA,199,"PO BOX 44, LEBANON, OR, 97355","No_Match",NA,NA,NA,NA
349200,"PO BOX 44","LINCOLN","AR",72744,NA,NA,200,"PO BOX 44, LINCOLN, AR, 72744","No_Match",NA,NA,NA,NA
349201,"PO BOX 44","LOUISBURG","NC",27549,NA,NA,201,"PO BOX 44, LOUISBURG, NC, 27549","No_Match",NA,NA,NA,NA
349202,"PO BOX 44","MARLBOROUGH","CT",6447,NA,NA,202,"PO BOX 44, MARLBOROUGH, CT, 6447","No_Match",NA,NA,NA,NA
349203,"PO BOX 44","MARSTONS MILLS","MA",2648,NA,NA,203,"PO BOX 44, MARSTONS MILLS, MA, 2648","No_Match",NA,NA,NA,NA
349204,"PO BOX 44","MATTITUCK","NY",11952,NA,NA,204,"PO BOX 44, MATTITUCK, NY, 11952","No_Match",NA,NA,NA,NA
349205,"PO BOX 44","MEDINA","TN",38355,NA,NA,205,"PO BOX 44, MEDINA, TN, 38355","No_Match",NA,NA,NA,NA
349206,"PO BOX 44","MELBA","ID",83641,NA,NA,206,"PO BOX 44, MELBA, ID, 83641","No_Match",NA,NA,NA,NA
349207,"PO BOX 44","METCALFE","MS",38760,NA,NA,207,"PO BOX 44, METCALFE, MS, 38760","No_Match",NA,NA,NA,NA
349208,"PO BOX 44","MILL SPRING","NC",28756,NA,NA,208,"PO BOX 44, MILL SPRING, NC, 28756","No_Match",NA,NA,NA,NA
349209,"PO BOX 44","MONGO","IN",46771,NA,NA,209,"PO BOX 44, MONGO, IN, 46771","No_Match",NA,NA,NA,NA
349210,"PO BOX 44","NASHVILLE","IN",47448,NA,NA,210,"PO BOX 44, NASHVILLE, IN, 47448","No_Match",NA,NA,NA,NA
349211,"PO BOX 44","OILVILLE","VA",23129,NA,NA,211,"PO BOX 44, OILVILLE, VA, 23129","No_Match",NA,NA,NA,NA
349212,"PO BOX 44","OREGON","MO",64473,NA,NA,212,"PO BOX 44, OREGON, MO, 64473","No_Match",NA,NA,NA,NA
349213,"PO BOX 44","PHOENIX","NY",13135,NA,NA,213,"PO BOX 44, PHOENIX, NY, 13135","No_Match",NA,NA,NA,NA
349214,"PO BOX 44","POMEROY","WA",99347,NA,NA,214,"PO BOX 44, POMEROY, WA, 99347","No_Match",NA,NA,NA,NA
349215,"PO BOX 44","PRESTO","PA",15142,NA,NA,215,"PO BOX 44, PRESTO, PA, 15142","No_Match",NA,NA,NA,NA
349216,"PO BOX 44","SANDWICH","IL",60548,NA,NA,216,"PO BOX 44, SANDWICH, IL, 60548","No_Match",NA,NA,NA,NA
349217,"PO BOX 44","SAVOY","IL",61874,NA,NA,217,"PO BOX 44, SAVOY, IL, 61874","No_Match",NA,NA,NA,NA
349218,"PO BOX 44","SIMLA","CO",80835,NA,NA,218,"PO BOX 44, SIMLA, CO, 80835","No_Match",NA,NA,NA,NA
349219,"PO BOX 44","SPRING HOUSE","PA",19477,NA,NA,219,"PO BOX 44, SPRING HOUSE, PA, 19477","No_Match",NA,NA,NA,NA
349220,"PO BOX 44","STURGIS","SD",57785,NA,NA,220,"PO BOX 44, STURGIS, SD, 57785","No_Match",NA,NA,NA,NA
349221,"PO BOX 44","TEMECULA","CA",92593,NA,NA,221,"PO BOX 44, TEMECULA, CA, 92593","No_Match",NA,NA,NA,NA
349222,"PO BOX 44","TRENTON","MO",64683,NA,NA,222,"PO BOX 44, TRENTON, MO, 64683","No_Match",NA,NA,NA,NA
349223,"PO BOX 44","WARWICK","NY",10990,NA,NA,223,"PO BOX 44, WARWICK, NY, 10990","No_Match",NA,NA,NA,NA
349224,"PO BOX 44","WELLSBURG","IA",50680,NA,NA,224,"PO BOX 44, WELLSBURG, IA, 50680","No_Match",NA,NA,NA,NA
349225,"PO BOX 44","WEST BOXFORD","MA",1885,NA,NA,225,"PO BOX 44, WEST BOXFORD, MA, 1885","No_Match",NA,NA,NA,NA
349226,"PO BOX 44","WILLCOX","AZ",85644,NA,NA,226,"PO BOX 44, WILLCOX, AZ, 85644","No_Match",NA,NA,NA,NA
349227,"PO BOX 44","YOUNTVILLE","CA",94599,NA,NA,227,"PO BOX 44, YOUNTVILLE, CA, 94599","No_Match",NA,NA,NA,NA
349228,"PO BOX 440","BELMONT","CA",94002,NA,NA,228,"PO BOX 440, BELMONT, CA, 94002","No_Match",NA,NA,NA,NA
349229,"PO BOX 440","COARSEGOLD","CA",93614,NA,NA,229,"PO BOX 440, COARSEGOLD, CA, 93614","No_Match",NA,NA,NA,NA
349230,"PO BOX 440","PELHAM","NH",3076,NA,NA,230,"PO BOX 440, PELHAM, NH, 3076","No_Match",NA,NA,NA,NA
349231,"PO BOX 440","PITTSFORD","NY",14534,NA,NA,231,"PO BOX 440, PITTSFORD, NY, 14534","No_Match",NA,NA,NA,NA
349232,"PO BOX 440","WEST MILFORD","WV",26451,NA,NA,232,"PO BOX 440, WEST MILFORD, WV, 26451","No_Match",NA,NA,NA,NA
349233,"PO BOX 4401","ATLANTA","GA",30302,NA,NA,233,"PO BOX 4401, ATLANTA, GA, 30302","No_Match",NA,NA,NA,NA
349234,"PO BOX 4401","BISBEE","AZ",85603,NA,NA,234,"PO BOX 4401, BISBEE, AZ, 85603","No_Match",NA,NA,NA,NA
349235,"PO BOX 4401","PENSACOLA","FL",32507,NA,NA,235,"PO BOX 4401, PENSACOLA, FL, 32507","No_Match",NA,NA,NA,NA
349236,"PO BOX 440171","SAINT LOUIS","MO",63144,NA,NA,236,"PO BOX 440171, SAINT LOUIS, MO, 63144","No_Match",NA,NA,NA,NA
349237,"PO BOX 4402","OMAHA","NE",68104,NA,NA,237,"PO BOX 4402, OMAHA, NE, 68104","No_Match",NA,NA,NA,NA
349238,"PO BOX 440232","AURORA","CO",80044,NA,NA,238,"PO BOX 440232, AURORA, CO, 80044","No_Match",NA,NA,NA,NA
349239,"PO BOX 4403","PORTSMOUTH","NH",3802,NA,NA,239,"PO BOX 4403, PORTSMOUTH, NH, 3802","No_Match",NA,NA,NA,NA
349240,"PO BOX 4403","SILVER SPRING","MD",20914,NA,NA,240,"PO BOX 4403, SILVER SPRING, MD, 20914","No_Match",NA,NA,NA,NA
349241,"PO BOX 440305","ST LOUIS","MO",63144,NA,NA,241,"PO BOX 440305, ST LOUIS, MO, 63144","No_Match",NA,NA,NA,NA
349242,"PO BOX 440321","HOUSTON","TX",77244,NA,NA,242,"PO BOX 440321, HOUSTON, TX, 77244","No_Match",NA,NA,NA,NA
349243,"PO BOX 44034","BATON ROUGE","LA",70804,NA,NA,243,"PO BOX 44034, BATON ROUGE, LA, 70804","No_Match",NA,NA,NA,NA
349244,"PO BOX 44042","EDEN PRAIRIE","MN",55344,NA,NA,244,"PO BOX 44042, EDEN PRAIRIE, MN, 55344","No_Match",NA,NA,NA,NA
349245,"PO BOX 4405 650 S GREENWOOD AVE","EASTON","PA",18043,40.674180333,-75.2591671879999,245,"PO BOX 4405 650 S GREENWOOD AVE, EASTON, PA, 18043","Match","Non_Exact","650 S GREENWOOD AVE, EASTON, PA, 18045",136912072,"L"
349246,"PO BOX 4405","DAVIS","CA",95617,NA,NA,246,"PO BOX 4405, DAVIS, CA, 95617","No_Match",NA,NA,NA,NA
349247,"PO BOX 4405","PARKERSBURGER","WV",26101,NA,NA,247,"PO BOX 4405, PARKERSBURGER, WV, 26101","No_Match",NA,NA,NA,NA
349248,"PO BOX 440548","HOUSTON","TX",77244,NA,NA,248,"PO BOX 440548, HOUSTON, TX, 77244","No_Match",NA,NA,NA,NA
349249,"PO BOX 44064","TACOMA","WA",98448,NA,NA,249,"PO BOX 44064, TACOMA, WA, 98448","No_Match",NA,NA,NA,NA
349250,"PO BOX 440641","JACKSONVILLE","FL",32222,NA,NA,250,"PO BOX 440641, JACKSONVILLE, FL, 32222","No_Match",NA,NA,NA,NA
349251,"PO BOX 440794","AURORA","CO",80044,NA,NA,251,"PO BOX 440794, AURORA, CO, 80044","No_Match",NA,NA,NA,NA
349252,"PO BOX 4408","SAN LUIS OBISPO","CA",93403,NA,NA,252,"PO BOX 4408, SAN LUIS OBISPO, CA, 93403","No_Match",NA,NA,NA,NA
349253,"PO BOX 4408","SCHENECTADY","NY",12304,NA,NA,253,"PO BOX 4408, SCHENECTADY, NY, 12304","No_Match",NA,NA,NA,NA
349254,"PO BOX 440846","JACKSONVILLE","FL",32222,NA,NA,254,"PO BOX 440846, JACKSONVILLE, FL, 32222","No_Match",NA,NA,NA,NA
349255,"PO BOX 440973","KENNESAW","GA",30160,NA,NA,255,"PO BOX 440973, KENNESAW, GA, 30160","No_Match",NA,NA,NA,NA
349256,"PO BOX 441","CARMICHAELS","PA",15320,NA,NA,256,"PO BOX 441, CARMICHAELS, PA, 15320","No_Match",NA,NA,NA,NA
349257,"PO BOX 441","CATLETTSBURG","KY",41129,NA,NA,257,"PO BOX 441, CATLETTSBURG, KY, 41129","No_Match",NA,NA,NA,NA
349258,"PO BOX 441","COLUMBIA","TN",38402,NA,NA,258,"PO BOX 441, COLUMBIA, TN, 38402","No_Match",NA,NA,NA,NA
349259,"PO BOX 441","CROSSVILLE","IL",62827,NA,NA,259,"PO BOX 441, CROSSVILLE, IL, 62827","No_Match",NA,NA,NA,NA
349260,"PO BOX 441","EAST SCHODACK","NY",12063,NA,NA,260,"PO BOX 441, EAST SCHODACK, NY, 12063","No_Match",NA,NA,NA,NA
349261,"PO BOX 441","ELIZABETH","CO",80107,NA,NA,261,"PO BOX 441, ELIZABETH, CO, 80107","No_Match",NA,NA,NA,NA
349262,"PO BOX 441","FRIENDSHIP","WI",53934,NA,NA,262,"PO BOX 441, FRIENDSHIP, WI, 53934","No_Match",NA,NA,NA,NA
349263,"PO BOX 441","GLENS FALLS","NY",12801,NA,NA,263,"PO BOX 441, GLENS FALLS, NY, 12801","No_Match",NA,NA,NA,NA
349264,"PO BOX 441","HARRAH","WA",98933,NA,NA,264,"PO BOX 441, HARRAH, WA, 98933","No_Match",NA,NA,NA,NA
349265,"PO BOX 441","HAWI","HI",96719,NA,NA,265,"PO BOX 441, HAWI, HI, 96719","No_Match",NA,NA,NA,NA
349266,"PO BOX 441","JENKS","OK",74037,NA,NA,266,"PO BOX 441, JENKS, OK, 74037","No_Match",NA,NA,NA,NA
349267,"PO BOX 441","LEAKEY","TX",78873,NA,NA,267,"PO BOX 441, LEAKEY, TX, 78873","No_Match",NA,NA,NA,NA
349268,"PO BOX 441","MCDONALD","OH",44437,NA,NA,268,"PO BOX 441, MCDONALD, OH, 44437","No_Match",NA,NA,NA,NA
349269,"PO BOX 441","MEDANALES","NM",87548,NA,NA,269,"PO BOX 441, MEDANALES, NM, 87548","No_Match",NA,NA,NA,NA
349270,"PO BOX 441","MIDLAND PARK","NJ",7432,NA,NA,270,"PO BOX 441, MIDLAND PARK, NJ, 7432","No_Match",NA,NA,NA,NA
349271,"PO BOX 441","MONTGOMERY","AL",36101,NA,NA,271,"PO BOX 441, MONTGOMERY, AL, 36101","No_Match",NA,NA,NA,NA
349272,"PO BOX 441","NARBERTH","PA",19072,NA,NA,272,"PO BOX 441, NARBERTH, PA, 19072","No_Match",NA,NA,NA,NA
349273,"PO BOX 441","NEW HOPE","AL",35760,NA,NA,273,"PO BOX 441, NEW HOPE, AL, 35760","No_Match",NA,NA,NA,NA
349274,"PO BOX 441","NOME","AK",99762,NA,NA,274,"PO BOX 441, NOME, AK, 99762","No_Match",NA,NA,NA,NA
349275,"PO BOX 441","PENNVILLE","IN",47369,NA,NA,275,"PO BOX 441, PENNVILLE, IN, 47369","No_Match",NA,NA,NA,NA
349276,"PO BOX 441","PERIDOT","AZ",85542,NA,NA,276,"PO BOX 441, PERIDOT, AZ, 85542","No_Match",NA,NA,NA,NA
349277,"PO BOX 441","PHOENIX","NY",13135,NA,NA,277,"PO BOX 441, PHOENIX, NY, 13135","No_Match",NA,NA,NA,NA
349278,"PO BOX 441","ROYERSFORD","PA",19468,NA,NA,278,"PO BOX 441, ROYERSFORD, PA, 19468","No_Match",NA,NA,NA,NA
349279,"PO BOX 441","SAINT CHARLES","MO",63302,NA,NA,279,"PO BOX 441, SAINT CHARLES, MO, 63302","No_Match",NA,NA,NA,NA
349280,"PO BOX 441","SAN FRANCISCO","CA",94104,NA,NA,280,"PO BOX 441, SAN FRANCISCO, CA, 94104","No_Match",NA,NA,NA,NA
349281,"PO BOX 441","SINTON","TX",78387,NA,NA,281,"PO BOX 441, SINTON, TX, 78387","No_Match",NA,NA,NA,NA
349282,"PO BOX 441","SOSO","MS",39480,NA,NA,282,"PO BOX 441, SOSO, MS, 39480","No_Match",NA,NA,NA,NA
349283,"PO BOX 441","STAYTON","OR",97383,NA,NA,283,"PO BOX 441, STAYTON, OR, 97383","No_Match",NA,NA,NA,NA
349284,"PO BOX 441","WOODLAKE","CA",93286,NA,NA,284,"PO BOX 441, WOODLAKE, CA, 93286","No_Match",NA,NA,NA,NA
349285,"PO BOX 4410","ANTHONY","NM",88021,NA,NA,285,"PO BOX 4410, ANTHONY, NM, 88021","No_Match",NA,NA,NA,NA
349286,"PO BOX 441013","FORT WASHINGTON","MD",20749,NA,NA,286,"PO BOX 441013, FORT WASHINGTON, MD, 20749","No_Match",NA,NA,NA,NA
349287,"PO BOX 44103","DETROIT","MI",48226,NA,NA,287,"PO BOX 44103, DETROIT, MI, 48226","No_Match",NA,NA,NA,NA
349288,"PO BOX 441034","KENNESAW","GA",30160,NA,NA,288,"PO BOX 441034, KENNESAW, GA, 30160","No_Match",NA,NA,NA,NA
349289,"PO BOX 44104","CHICAGO","IL",60644,NA,NA,289,"PO BOX 44104, CHICAGO, IL, 60644","No_Match",NA,NA,NA,NA
349290,"PO BOX 44105","DETROIT","MI",48244,NA,NA,290,"PO BOX 44105, DETROIT, MI, 48244","No_Match",NA,NA,NA,NA
349291,"PO BOX 4411","JOPLIN","MO",64803,NA,NA,291,"PO BOX 4411, JOPLIN, MO, 64803","No_Match",NA,NA,NA,NA
349292,"PO BOX 441175","HOUSTON","TX",77244,NA,NA,292,"PO BOX 441175, HOUSTON, TX, 77244","No_Match",NA,NA,NA,NA
349293,"PO BOX 4412","ANNAPOLIS","MD",21403,NA,NA,293,"PO BOX 4412, ANNAPOLIS, MD, 21403","No_Match",NA,NA,NA,NA
349294,"PO BOX 4412","BATON ROUGE","LA",70821,NA,NA,294,"PO BOX 4412, BATON ROUGE, LA, 70821","No_Match",NA,NA,NA,NA
349295,"PO BOX 44122","FAYETTEVILLE","NC",28309,NA,NA,295,"PO BOX 44122, FAYETTEVILLE, NC, 28309","No_Match",NA,NA,NA,NA
349296,"PO BOX 44123","DENVER","CO",80201,NA,NA,296,"PO BOX 44123, DENVER, CO, 80201","No_Match",NA,NA,NA,NA
349297,"PO BOX 441271","INDIANAPOLIS","IN",46244,NA,NA,297,"PO BOX 441271, INDIANAPOLIS, IN, 46244","No_Match",NA,NA,NA,NA
349298,"PO BOX 4413","COLUMBUS","GA",31914,NA,NA,298,"PO BOX 4413, COLUMBUS, GA, 31914","No_Match",NA,NA,NA,NA
349299,"PO BOX 44146","DENVER","CO",80201,NA,NA,299,"PO BOX 44146, DENVER, CO, 80201","No_Match",NA,NA,NA,NA
349300,"PO BOX 441491","AURORA","CO",80044,NA,NA,300,"PO BOX 441491, AURORA, CO, 80044","No_Match",NA,NA,NA,NA
349301,"PO BOX 4415","BERKELEY","CA",94704,NA,NA,301,"PO BOX 4415, BERKELEY, CA, 94704","No_Match",NA,NA,NA,NA
349302,"PO BOX 44152","PHILADELPHIA","PA",19144,NA,NA,302,"PO BOX 44152, PHILADELPHIA, PA, 19144","No_Match",NA,NA,NA,NA
349303,"PO BOX 441521","DETROIT","MI",48244,NA,NA,303,"PO BOX 441521, DETROIT, MI, 48244","No_Match",NA,NA,NA,NA
349304,"PO BOX 4416","OMAHA","NE",68104,NA,NA,304,"PO BOX 4416, OMAHA, NE, 68104","No_Match",NA,NA,NA,NA
349305,"PO BOX 44164","TACOMA","WA",98448,NA,NA,305,"PO BOX 44164, TACOMA, WA, 98448","No_Match",NA,NA,NA,NA
349306,"PO BOX 44168","INDIANAPOLIS","IN",46244,NA,NA,306,"PO BOX 44168, INDIANAPOLIS, IN, 46244","No_Match",NA,NA,NA,NA
349307,"PO BOX 441701","DETROIT","MI",48224,NA,NA,307,"PO BOX 441701, DETROIT, MI, 48224","No_Match",NA,NA,NA,NA
349308,"PO BOX 44172","DETROIT","MI",48244,NA,NA,308,"PO BOX 44172, DETROIT, MI, 48244","No_Match",NA,NA,NA,NA
349309,"PO BOX 441729","AURORA","CO",80044,NA,NA,309,"PO BOX 441729, AURORA, CO, 80044","No_Match",NA,NA,NA,NA
349310,"PO BOX 441734","DETROIT","MI",48244,NA,NA,310,"PO BOX 441734, DETROIT, MI, 48244","No_Match",NA,NA,NA,NA
349311,"PO BOX 44178","PITTSBURGH","PA",15205,NA,NA,311,"PO BOX 44178, PITTSBURGH, PA, 15205","No_Match",NA,NA,NA,NA
349312,"PO BOX 44199","GOODFELLOW AFB","TX",76908,NA,NA,312,"PO BOX 44199, GOODFELLOW AFB, TX, 76908","No_Match",NA,NA,NA,NA
349313,"PO BOX 442","BURLINGTON","CO",80807,NA,NA,313,"PO BOX 442, BURLINGTON, CO, 80807","No_Match",NA,NA,NA,NA
349314,"PO BOX 442","CAMDEN","NJ",8101,NA,NA,314,"PO BOX 442, CAMDEN, NJ, 8101","No_Match",NA,NA,NA,NA
349315,"PO BOX 442","CARTHAGE","NY",13619,NA,NA,315,"PO BOX 442, CARTHAGE, NY, 13619","No_Match",NA,NA,NA,NA
349316,"PO BOX 442","CLINTON","SC",29325,NA,NA,316,"PO BOX 442, CLINTON, SC, 29325","No_Match",NA,NA,NA,NA
349317,"PO BOX 442","COTTONWOOD","AZ",86326,NA,NA,317,"PO BOX 442, COTTONWOOD, AZ, 86326","No_Match",NA,NA,NA,NA
349318,"PO BOX 442","DUVALL","WA",98019,NA,NA,318,"PO BOX 442, DUVALL, WA, 98019","No_Match",NA,NA,NA,NA
349319,"PO BOX 442","HERMITAGE","MO",65668,NA,NA,319,"PO BOX 442, HERMITAGE, MO, 65668","No_Match",NA,NA,NA,NA
349320,"PO BOX 442","LAKE CRYSTAL","MN",56055,NA,NA,320,"PO BOX 442, LAKE CRYSTAL, MN, 56055","No_Match",NA,NA,NA,NA
349321,"PO BOX 442","LANDENBERG","PA",19350,NA,NA,321,"PO BOX 442, LANDENBERG, PA, 19350","No_Match",NA,NA,NA,NA
349322,"PO BOX 442","LOVINGSTON","VA",22949,NA,NA,322,"PO BOX 442, LOVINGSTON, VA, 22949","No_Match",NA,NA,NA,NA
349323,"PO BOX 442","MATHEWS","VA",23109,NA,NA,323,"PO BOX 442, MATHEWS, VA, 23109","No_Match",NA,NA,NA,NA
349324,"PO BOX 442","MEDFORD","MA",2155,NA,NA,324,"PO BOX 442, MEDFORD, MA, 2155","No_Match",NA,NA,NA,NA
349325,"PO BOX 442","MIDDLEBURG","VA",20118,NA,NA,325,"PO BOX 442, MIDDLEBURG, VA, 20118","No_Match",NA,NA,NA,NA
349326,"PO BOX 442","MILES CITY","MT",59301,NA,NA,326,"PO BOX 442, MILES CITY, MT, 59301","No_Match",NA,NA,NA,NA
349327,"PO BOX 442","MONTPELIER","VT",5601,NA,NA,327,"PO BOX 442, MONTPELIER, VT, 5601","No_Match",NA,NA,NA,NA
349328,"PO BOX 442","MULLICA HILL","NJ",8062,NA,NA,328,"PO BOX 442, MULLICA HILL, NJ, 8062","No_Match",NA,NA,NA,NA
349329,"PO BOX 442","NORFOLK","VA",23501,NA,NA,329,"PO BOX 442, NORFOLK, VA, 23501","No_Match",NA,NA,NA,NA
349330,"PO BOX 442","PONTIAC","IL",61764,NA,NA,330,"PO BOX 442, PONTIAC, IL, 61764","No_Match",NA,NA,NA,NA
349331,"PO BOX 442","SOUTHAVEN","MS",38671,NA,NA,331,"PO BOX 442, SOUTHAVEN, MS, 38671","No_Match",NA,NA,NA,NA
349332,"PO BOX 442","SPRING VALLEY","NY",10977,NA,NA,332,"PO BOX 442, SPRING VALLEY, NY, 10977","No_Match",NA,NA,NA,NA
349333,"PO BOX 442","STRATFORD","NJ",8084,NA,NA,333,"PO BOX 442, STRATFORD, NJ, 8084","No_Match",NA,NA,NA,NA
349334,"PO BOX 442","TOMS RIVER","NJ",8754,NA,NA,334,"PO BOX 442, TOMS RIVER, NJ, 8754","No_Match",NA,NA,NA,NA
349335,"PO BOX 442","VIEQUES","PR",765,NA,NA,335,"PO BOX 442, VIEQUES, PR, 765","No_Match",NA,NA,NA,NA
349336,"PO BOX 442","WESTFIELD","IN",46074,NA,NA,336,"PO BOX 442, WESTFIELD, IN, 46074","No_Match",NA,NA,NA,NA
349337,"PO BOX 44201","FT WASHINGTON","MD",20749,NA,NA,337,"PO BOX 44201, FT WASHINGTON, MD, 20749","No_Match",NA,NA,NA,NA
349338,"PO BOX 44208","COLUMBUS","OH",43204,NA,NA,338,"PO BOX 44208, COLUMBUS, OH, 43204","No_Match",NA,NA,NA,NA
349339,"PO BOX 4421","ROCHE HARBOR","WA",98250,NA,NA,339,"PO BOX 4421, ROCHE HARBOR, WA, 98250","No_Match",NA,NA,NA,NA
349340,"PO BOX 44214","FORT WASHINGTON","MD",20749,NA,NA,340,"PO BOX 44214, FORT WASHINGTON, MD, 20749","No_Match",NA,NA,NA,NA
349341,"PO BOX 442164","DETROIT","MI",48244,NA,NA,341,"PO BOX 442164, DETROIT, MI, 48244","No_Match",NA,NA,NA,NA
349342,"PO BOX 442164","LAWRENCE","KS",66044,NA,NA,342,"PO BOX 442164, LAWRENCE, KS, 66044","No_Match",NA,NA,NA,NA
349343,"PO BOX 4422","EDWARDS","CO",81632,NA,NA,343,"PO BOX 4422, EDWARDS, CO, 81632","No_Match",NA,NA,NA,NA
349344,"PO BOX 4422","GREENVILLE","NC",27836,NA,NA,344,"PO BOX 4422, GREENVILLE, NC, 27836","No_Match",NA,NA,NA,NA
349345,"PO BOX 44221","ATLANTA","GA",30336,NA,NA,345,"PO BOX 44221, ATLANTA, GA, 30336","No_Match",NA,NA,NA,NA
349346,"PO BOX 44234","FORT WASHINGTON","MD",20749,NA,NA,346,"PO BOX 44234, FORT WASHINGTON, MD, 20749","No_Match",NA,NA,NA,NA
349347,"PO BOX 44246","MADISON","WI",53719,NA,NA,347,"PO BOX 44246, MADISON, WI, 53719","No_Match",NA,NA,NA,NA
349348,"PO BOX 4425","BRANDON","MS",39047,NA,NA,348,"PO BOX 4425, BRANDON, MS, 39047","No_Match",NA,NA,NA,NA
349349,"PO BOX 4427","SEVIERVILLE","TN",37864,NA,NA,349,"PO BOX 4427, SEVIERVILLE, TN, 37864","No_Match",NA,NA,NA,NA
349350,"PO BOX 44282","COLUMBUS","OH",43204,NA,NA,350,"PO BOX 44282, COLUMBUS, OH, 43204","No_Match",NA,NA,NA,NA
349351,"PO BOX 443","AUBURN","AL",36831,NA,NA,351,"PO BOX 443, AUBURN, AL, 36831","No_Match",NA,NA,NA,NA
349352,"PO BOX 443","BALSAM","NC",28707,NA,NA,352,"PO BOX 443, BALSAM, NC, 28707","No_Match",NA,NA,NA,NA
349353,"PO BOX 443","BELT","MT",59412,NA,NA,353,"PO BOX 443, BELT, MT, 59412","No_Match",NA,NA,NA,NA
349354,"PO BOX 443","BREVARD","NC",28712,NA,NA,354,"PO BOX 443, BREVARD, NC, 28712","No_Match",NA,NA,NA,NA
349355,"PO BOX 443","BUNN","NC",27508,NA,NA,355,"PO BOX 443, BUNN, NC, 27508","No_Match",NA,NA,NA,NA
349356,"PO BOX 443","COPALLIS","WA",98535,NA,NA,356,"PO BOX 443, COPALLIS, WA, 98535","No_Match",NA,NA,NA,NA
349357,"PO BOX 443","DANVILLE","IN",46122,NA,NA,357,"PO BOX 443, DANVILLE, IN, 46122","No_Match",NA,NA,NA,NA
349358,"PO BOX 443","DAPHNE","AL",36526,NA,NA,358,"PO BOX 443, DAPHNE, AL, 36526","No_Match",NA,NA,NA,NA
349359,"PO BOX 443","DEXTER","MO",63841,NA,NA,359,"PO BOX 443, DEXTER, MO, 63841","No_Match",NA,NA,NA,NA
349360,"PO BOX 443","DUNN LORING","VA",22027,NA,NA,360,"PO BOX 443, DUNN LORING, VA, 22027","No_Match",NA,NA,NA,NA
349361,"PO BOX 443","ELKHORN","WI",53121,NA,NA,361,"PO BOX 443, ELKHORN, WI, 53121","No_Match",NA,NA,NA,NA
349362,"PO BOX 443","ELYRIA","OH",44036,NA,NA,362,"PO BOX 443, ELYRIA, OH, 44036","No_Match",NA,NA,NA,NA
349363,"PO BOX 443","ENNIS","MT",59729,NA,NA,363,"PO BOX 443, ENNIS, MT, 59729","No_Match",NA,NA,NA,NA
349364,"PO BOX 443","FINDLAY","OH",45839,NA,NA,364,"PO BOX 443, FINDLAY, OH, 45839","No_Match",NA,NA,NA,NA
349365,"PO BOX 443","FOX LAKE","WI",53933,NA,NA,365,"PO BOX 443, FOX LAKE, WI, 53933","No_Match",NA,NA,NA,NA
349366,"PO BOX 443","FOXBOROUGH","MA",2035,NA,NA,366,"PO BOX 443, FOXBOROUGH, MA, 2035","No_Match",NA,NA,NA,NA
349367,"PO BOX 443","HERALD","CA",95638,NA,NA,367,"PO BOX 443, HERALD, CA, 95638","No_Match",NA,NA,NA,NA
349368,"PO BOX 443","HOWARD","PA",16841,NA,NA,368,"PO BOX 443, HOWARD, PA, 16841","No_Match",NA,NA,NA,NA
349369,"PO BOX 443","HUNTINGTON STATION","NY",11746,NA,NA,369,"PO BOX 443, HUNTINGTON STATION, NY, 11746","No_Match",NA,NA,NA,NA
349370,"PO BOX 443","JUDSON","TX",75660,NA,NA,370,"PO BOX 443, JUDSON, TX, 75660","No_Match",NA,NA,NA,NA
349371,"PO BOX 443","MCDONALD","OH",44437,NA,NA,371,"PO BOX 443, MCDONALD, OH, 44437","No_Match",NA,NA,NA,NA
349372,"PO BOX 443","MONETTE","AR",72447,NA,NA,372,"PO BOX 443, MONETTE, AR, 72447","No_Match",NA,NA,NA,NA
349373,"PO BOX 443","NEW MARTINSVILLE","WV",26155,NA,NA,373,"PO BOX 443, NEW MARTINSVILLE, WV, 26155","No_Match",NA,NA,NA,NA
349374,"PO BOX 443","NEWBURGH","IN",47629,NA,NA,374,"PO BOX 443, NEWBURGH, IN, 47629","No_Match",NA,NA,NA,NA
349375,"PO BOX 443","OSCEOLA","AR",72370,NA,NA,375,"PO BOX 443, OSCEOLA, AR, 72370","No_Match",NA,NA,NA,NA
349376,"PO BOX 443","PETERSTOWN","WV",24963,NA,NA,376,"PO BOX 443, PETERSTOWN, WV, 24963","No_Match",NA,NA,NA,NA
349377,"PO BOX 443","PHOENIX","NY",13135,NA,NA,377,"PO BOX 443, PHOENIX, NY, 13135","No_Match",NA,NA,NA,NA
349378,"PO BOX 443","SAINT STEPHEN","SC",29479,NA,NA,378,"PO BOX 443, SAINT STEPHEN, SC, 29479","No_Match",NA,NA,NA,NA
349379,"PO BOX 443","STAFFORD","TX",77497,NA,NA,379,"PO BOX 443, STAFFORD, TX, 77497","No_Match",NA,NA,NA,NA
349380,"PO BOX 443","TAZEWELL","TN",37879,NA,NA,380,"PO BOX 443, TAZEWELL, TN, 37879","No_Match",NA,NA,NA,NA
349381,"PO BOX 443","TOWNSEND","MA",1469,NA,NA,381,"PO BOX 443, TOWNSEND, MA, 1469","No_Match",NA,NA,NA,NA
349382,"PO BOX 443","VOLGA","SD",57071,NA,NA,382,"PO BOX 443, VOLGA, SD, 57071","No_Match",NA,NA,NA,NA
349383,"PO BOX 443","WILLERNIE","MN",55090,NA,NA,383,"PO BOX 443, WILLERNIE, MN, 55090","No_Match",NA,NA,NA,NA
349384,"PO BOX 4431","CERRITOS","CA",90703,NA,NA,384,"PO BOX 4431, CERRITOS, CA, 90703","No_Match",NA,NA,NA,NA
349385,"PO BOX 44321","MADISON","WI",53744,NA,NA,385,"PO BOX 44321, MADISON, WI, 53744","No_Match",NA,NA,NA,NA
349386,"PO BOX 44324","TUCSON","AZ",85733,NA,NA,386,"PO BOX 44324, TUCSON, AZ, 85733","No_Match",NA,NA,NA,NA
349387,"PO BOX 44334","BOISE","ID",83711,NA,NA,387,"PO BOX 44334, BOISE, ID, 83711","No_Match",NA,NA,NA,NA
349388,"PO BOX 4434","BATON ROUGE","LA",70821,NA,NA,388,"PO BOX 4434, BATON ROUGE, LA, 70821","No_Match",NA,NA,NA,NA
349389,"PO BOX 4434","BUTTE","MT",59702,NA,NA,389,"PO BOX 4434, BUTTE, MT, 59702","No_Match",NA,NA,NA,NA
349390,"PO BOX 4434","SONORA","CA",95370,NA,NA,390,"PO BOX 4434, SONORA, CA, 95370","No_Match",NA,NA,NA,NA
349391,"PO BOX 4435","CAPITOL HEIGHTS","MD",20791,NA,NA,391,"PO BOX 4435, CAPITOL HEIGHTS, MD, 20791","No_Match",NA,NA,NA,NA
349392,"PO BOX 4436","DAYTON","OH",45401,NA,NA,392,"PO BOX 4436, DAYTON, OH, 45401","No_Match",NA,NA,NA,NA
349393,"PO BOX 444         7 COWANESQUE ST","LAWRENCEVILLE","PA",16929,41.997061488,-77.127362792,393,"PO BOX 444         7 COWANESQUE ST, LAWRENCEVILLE, PA, 16929","Match","Exact","7 COWANESQUE ST, LAWRENCEVILLE, PA, 16929",189657046,"L"
349394,"PO BOX 444","ABERDEEN","WA",98520,NA,NA,394,"PO BOX 444, ABERDEEN, WA, 98520","No_Match",NA,NA,NA,NA
349395,"PO BOX 444","BISON","SD",57620,NA,NA,395,"PO BOX 444, BISON, SD, 57620","No_Match",NA,NA,NA,NA
349396,"PO BOX 444","BOHEMIA","NY",11716,NA,NA,396,"PO BOX 444, BOHEMIA, NY, 11716","No_Match",NA,NA,NA,NA
349397,"PO BOX 444","BURLINGTON","NJ",8016,NA,NA,397,"PO BOX 444, BURLINGTON, NJ, 8016","No_Match",NA,NA,NA,NA
349398,"PO BOX 444","BUTNER","NC",27509,NA,NA,398,"PO BOX 444, BUTNER, NC, 27509","No_Match",NA,NA,NA,NA
349399,"PO BOX 444","CINCINNATI","OH",45201,NA,NA,399,"PO BOX 444, CINCINNATI, OH, 45201","No_Match",NA,NA,NA,NA
349400,"PO BOX 444","COLUMBIA","TN",38402,NA,NA,400,"PO BOX 444, COLUMBIA, TN, 38402","No_Match",NA,NA,NA,NA
349401,"PO BOX 444","COROLLA","NC",27927,NA,NA,401,"PO BOX 444, COROLLA, NC, 27927","No_Match",NA,NA,NA,NA
349402,"PO BOX 444","CROSS PLAINS","TX",76443,NA,NA,402,"PO BOX 444, CROSS PLAINS, TX, 76443","No_Match",NA,NA,NA,NA
349403,"PO BOX 444","FARMINGDALE","NJ",7727,NA,NA,403,"PO BOX 444, FARMINGDALE, NJ, 7727","No_Match",NA,NA,NA,NA
349404,"PO BOX 444","GRANTSVILLE","UT",84029,NA,NA,404,"PO BOX 444, GRANTSVILLE, UT, 84029","No_Match",NA,NA,NA,NA
349405,"PO BOX 444","HARTSEL","CO",80449,NA,NA,405,"PO BOX 444, HARTSEL, CO, 80449","No_Match",NA,NA,NA,NA
349406,"PO BOX 444","HAYS","KS",67601,NA,NA,406,"PO BOX 444, HAYS, KS, 67601","No_Match",NA,NA,NA,NA
349407,"PO BOX 444","HOLTON","KS",66436,NA,NA,407,"PO BOX 444, HOLTON, KS, 66436","No_Match",NA,NA,NA,NA
349408,"PO BOX 444","ISLIP","NY",11751,NA,NA,408,"PO BOX 444, ISLIP, NY, 11751","No_Match",NA,NA,NA,NA
349409,"PO BOX 444","KATY","TX",77492,NA,NA,409,"PO BOX 444, KATY, TX, 77492","No_Match",NA,NA,NA,NA
349410,"PO BOX 444","KINGSLEY","MI",49649,NA,NA,410,"PO BOX 444, KINGSLEY, MI, 49649","No_Match",NA,NA,NA,NA
349411,"PO BOX 444","LAUPAHOEHOE","HI",96764,NA,NA,411,"PO BOX 444, LAUPAHOEHOE, HI, 96764","No_Match",NA,NA,NA,NA
349412,"PO BOX 444","LEBANON","IN",46052,NA,NA,412,"PO BOX 444, LEBANON, IN, 46052","No_Match",NA,NA,NA,NA
349413,"PO BOX 444","LEOTI","KS",67861,NA,NA,413,"PO BOX 444, LEOTI, KS, 67861","No_Match",NA,NA,NA,NA
349414,"PO BOX 444","LITITZ","PA",17543,NA,NA,414,"PO BOX 444, LITITZ, PA, 17543","No_Match",NA,NA,NA,NA
349415,"PO BOX 444","MARSHALL","MI",49068,NA,NA,415,"PO BOX 444, MARSHALL, MI, 49068","No_Match",NA,NA,NA,NA
349416,"PO BOX 444","MILLERSBURG","IN",46543,NA,NA,416,"PO BOX 444, MILLERSBURG, IN, 46543","No_Match",NA,NA,NA,NA
349417,"PO BOX 444","MOMENCE","IL",60954,NA,NA,417,"PO BOX 444, MOMENCE, IL, 60954","No_Match",NA,NA,NA,NA
349418,"PO BOX 444","MONTGOMERY","AL",36101,NA,NA,418,"PO BOX 444, MONTGOMERY, AL, 36101","No_Match",NA,NA,NA,NA
349419,"PO BOX 444","MONTICELLO","NY",12701,NA,NA,419,"PO BOX 444, MONTICELLO, NY, 12701","No_Match",NA,NA,NA,NA
349420,"PO BOX 444","MOUNT HOLLY","NJ",8060,NA,NA,420,"PO BOX 444, MOUNT HOLLY, NJ, 8060","No_Match",NA,NA,NA,NA
349421,"PO BOX 444","NAHUNTA","GA",31553,NA,NA,421,"PO BOX 444, NAHUNTA, GA, 31553","No_Match",NA,NA,NA,NA
349422,"PO BOX 444","RAVENNA","OH",44266,NA,NA,422,"PO BOX 444, RAVENNA, OH, 44266","No_Match",NA,NA,NA,NA
349423,"PO BOX 444","SENATOBIA","MS",38668,NA,NA,423,"PO BOX 444, SENATOBIA, MS, 38668","No_Match",NA,NA,NA,NA
349424,"PO BOX 444","SIOUX FALLS","SD",57005,NA,NA,424,"PO BOX 444, SIOUX FALLS, SD, 57005","No_Match",NA,NA,NA,NA
349425,"PO BOX 444","SPENCER","MA",1562,NA,NA,425,"PO BOX 444, SPENCER, MA, 1562","No_Match",NA,NA,NA,NA
349426,"PO BOX 444","SPICER","MN",56288,NA,NA,426,"PO BOX 444, SPICER, MN, 56288","No_Match",NA,NA,NA,NA
349427,"PO BOX 444","SWEETWATER","TN",37874,NA,NA,427,"PO BOX 444, SWEETWATER, TN, 37874","No_Match",NA,NA,NA,NA
349428,"PO BOX 444","THREE FORKS","MT",59752,NA,NA,428,"PO BOX 444, THREE FORKS, MT, 59752","No_Match",NA,NA,NA,NA
349429,"PO BOX 444","TUOLUMNE","CA",95379,NA,NA,429,"PO BOX 444, TUOLUMNE, CA, 95379","No_Match",NA,NA,NA,NA
349430,"PO BOX 444","WALNUT","IL",61376,NA,NA,430,"PO BOX 444, WALNUT, IL, 61376","No_Match",NA,NA,NA,NA
349431,"PO BOX 4440","BOZEMAN","MT",59772,NA,NA,431,"PO BOX 4440, BOZEMAN, MT, 59772","No_Match",NA,NA,NA,NA
349432,"PO BOX 4441","EAST LANSING","MI",48826,NA,NA,432,"PO BOX 4441, EAST LANSING, MI, 48826","No_Match",NA,NA,NA,NA
349433,"PO BOX 4441","TRAVERSE CITY","MI",49684,NA,NA,433,"PO BOX 4441, TRAVERSE CITY, MI, 49684","No_Match",NA,NA,NA,NA
349434,"PO BOX 4442","BRYAN","TX",77805,NA,NA,434,"PO BOX 4442, BRYAN, TX, 77805","No_Match",NA,NA,NA,NA
349435,"PO BOX 44431","SHREVEPORT","LA",71134,NA,NA,435,"PO BOX 44431, SHREVEPORT, LA, 71134","No_Match",NA,NA,NA,NA
349436,"PO BOX 4444","ESTES PARK","CO",80517,NA,NA,436,"PO BOX 4444, ESTES PARK, CO, 80517","No_Match",NA,NA,NA,NA
349437,"PO BOX 4446","APOPKA","FL",32704,NA,NA,437,"PO BOX 4446, APOPKA, FL, 32704","No_Match",NA,NA,NA,NA
349438,"PO BOX 44460","EDEN PRAIRIE","MN",55344,NA,NA,438,"PO BOX 44460, EDEN PRAIRIE, MN, 55344","No_Match",NA,NA,NA,NA
349439,"PO BOX 44474","DETROIT","MI",48244,NA,NA,439,"PO BOX 44474, DETROIT, MI, 48244","No_Match",NA,NA,NA,NA
349440,"PO BOX 4449","ONTARIO","CA",91761,NA,NA,440,"PO BOX 4449, ONTARIO, CA, 91761","No_Match",NA,NA,NA,NA
349441,"PO BOX 445 - 1651 KINGSWAY CT","TRENTON","MI",48183,42.1556253750001,-83.191386573,441,"PO BOX 445 - 1651 KINGSWAY CT, TRENTON, MI, 48183","Match","Exact","1651 KINGSWAY CT, TRENTON, MI, 48183",95458327,"L"
349442,"PO BOX 445","BAYFIELD","WI",54814,NA,NA,442,"PO BOX 445, BAYFIELD, WI, 54814","No_Match",NA,NA,NA,NA
349443,"PO BOX 445","BELLE HAVEN","VA",23306,NA,NA,443,"PO BOX 445, BELLE HAVEN, VA, 23306","No_Match",NA,NA,NA,NA
349444,"PO BOX 445","BRIGHTON","CO",80601,NA,NA,444,"PO BOX 445, BRIGHTON, CO, 80601","No_Match",NA,NA,NA,NA
349445,"PO BOX 445","BRONX","NY",10475,NA,NA,445,"PO BOX 445, BRONX, NY, 10475","No_Match",NA,NA,NA,NA
349446,"PO BOX 445","CHADRON","NE",69337,NA,NA,446,"PO BOX 445, CHADRON, NE, 69337","No_Match",NA,NA,NA,NA
349447,"PO BOX 445","CHEHALIS","WA",98532,NA,NA,447,"PO BOX 445, CHEHALIS, WA, 98532","No_Match",NA,NA,NA,NA
349448,"PO BOX 445","COVINGTON","TN",38019,NA,NA,448,"PO BOX 445, COVINGTON, TN, 38019","No_Match",NA,NA,NA,NA
349449,"PO BOX 445","DUBOIS","WY",82513,NA,NA,449,"PO BOX 445, DUBOIS, WY, 82513","No_Match",NA,NA,NA,NA
349450,"PO BOX 445","EAST STROUDSBURG","PA",18301,NA,NA,450,"PO BOX 445, EAST STROUDSBURG, PA, 18301","No_Match",NA,NA,NA,NA
349451,"PO BOX 445","GRAND LEDGE","MI",48837,NA,NA,451,"PO BOX 445, GRAND LEDGE, MI, 48837","No_Match",NA,NA,NA,NA
349452,"PO BOX 445","HARDEEVILLE","SC",29927,NA,NA,452,"PO BOX 445, HARDEEVILLE, SC, 29927","No_Match",NA,NA,NA,NA
349453,"PO BOX 445","LUXEMBURG","WI",54217,NA,NA,453,"PO BOX 445, LUXEMBURG, WI, 54217","No_Match",NA,NA,NA,NA
349454,"PO BOX 445","PEORIA","AZ",85380,NA,NA,454,"PO BOX 445, PEORIA, AZ, 85380","No_Match",NA,NA,NA,NA
349455,"PO BOX 445","STIGLER","OK",74462,NA,NA,455,"PO BOX 445, STIGLER, OK, 74462","No_Match",NA,NA,NA,NA
349456,"PO BOX 445","STONY CREEK","VA",23882,NA,NA,456,"PO BOX 445, STONY CREEK, VA, 23882","No_Match",NA,NA,NA,NA
349457,"PO BOX 445","TERRACE PARK","OH",45174,NA,NA,457,"PO BOX 445, TERRACE PARK, OH, 45174","No_Match",NA,NA,NA,NA
349458,"PO BOX 445","TREGO","MT",59934,NA,NA,458,"PO BOX 445, TREGO, MT, 59934","No_Match",NA,NA,NA,NA
349459,"PO BOX 445","WHITTEMORE","IA",50598,NA,NA,459,"PO BOX 445, WHITTEMORE, IA, 50598","No_Match",NA,NA,NA,NA
349460,"PO BOX 445","WIMBERLEY","TX",78676,NA,NA,460,"PO BOX 445, WIMBERLEY, TX, 78676","No_Match",NA,NA,NA,NA
349461,"PO BOX 4451","SONORA","CA",95370,NA,NA,461,"PO BOX 4451, SONORA, CA, 95370","No_Match",NA,NA,NA,NA
349462,"PO BOX 44526","FORT WASHINGTON","MD",20749,NA,NA,462,"PO BOX 44526, FORT WASHINGTON, MD, 20749","No_Match",NA,NA,NA,NA
349463,"PO BOX 44532","LOS ANGELES","CA",90044,NA,NA,463,"PO BOX 44532, LOS ANGELES, CA, 90044","No_Match",NA,NA,NA,NA
349464,"PO BOX 4454","WINTER HAVEN","FL",33885,NA,NA,464,"PO BOX 4454, WINTER HAVEN, FL, 33885","No_Match",NA,NA,NA,NA
349465,"PO BOX 4455","LONG BEACH","CA",90804,NA,NA,465,"PO BOX 4455, LONG BEACH, CA, 90804","No_Match",NA,NA,NA,NA
349466,"PO BOX 4455","MIDLAND","TX",79704,NA,NA,466,"PO BOX 4455, MIDLAND, TX, 79704","No_Match",NA,NA,NA,NA
349467,"PO BOX 4455","PALMER","AK",99645,NA,NA,467,"PO BOX 4455, PALMER, AK, 99645","No_Match",NA,NA,NA,NA
349468,"PO BOX 44582","ATLANTA","GA",30336,NA,NA,468,"PO BOX 44582, ATLANTA, GA, 30336","No_Match",NA,NA,NA,NA
349469,"PO BOX 44583","PHOENIX","AZ",85064,NA,NA,469,"PO BOX 44583, PHOENIX, AZ, 85064","No_Match",NA,NA,NA,NA
349470,"PO BOX 446","CONCORD","NH",3302,NA,NA,470,"PO BOX 446, CONCORD, NH, 3302","No_Match",NA,NA,NA,NA
349471,"PO BOX 446","CONSHOHOCKEN","PA",19428,NA,NA,471,"PO BOX 446, CONSHOHOCKEN, PA, 19428","No_Match",NA,NA,NA,NA
349472,"PO BOX 446","ENDICOTT","NY",13761,NA,NA,472,"PO BOX 446, ENDICOTT, NY, 13761","No_Match",NA,NA,NA,NA
349473,"PO BOX 446","FRUITA","CO",81521,NA,NA,473,"PO BOX 446, FRUITA, CO, 81521","No_Match",NA,NA,NA,NA
349474,"PO BOX 446","GRASS LAKE","MI",49240,NA,NA,474,"PO BOX 446, GRASS LAKE, MI, 49240","No_Match",NA,NA,NA,NA
349475,"PO BOX 446","GRAYSON","GA",30017,NA,NA,475,"PO BOX 446, GRAYSON, GA, 30017","No_Match",NA,NA,NA,NA
349476,"PO BOX 446","GREAT BEND","KS",67530,NA,NA,476,"PO BOX 446, GREAT BEND, KS, 67530","No_Match",NA,NA,NA,NA
349477,"PO BOX 446","HARRISONBURG","VA",22803,NA,NA,477,"PO BOX 446, HARRISONBURG, VA, 22803","No_Match",NA,NA,NA,NA
349478,"PO BOX 446","HELENA","MT",59624,NA,NA,478,"PO BOX 446, HELENA, MT, 59624","No_Match",NA,NA,NA,NA
349479,"PO BOX 446","KANE","PA",16735,NA,NA,479,"PO BOX 446, KANE, PA, 16735","No_Match",NA,NA,NA,NA
349480,"PO BOX 446","NAALEHU","HI",96772,NA,NA,480,"PO BOX 446, NAALEHU, HI, 96772","No_Match",NA,NA,NA,NA
349481,"PO BOX 446","NEAH BAY","WA",98357,NA,NA,481,"PO BOX 446, NEAH BAY, WA, 98357","No_Match",NA,NA,NA,NA
349482,"PO BOX 446","OJAI","CA",93024,NA,NA,482,"PO BOX 446, OJAI, CA, 93024","No_Match",NA,NA,NA,NA
349483,"PO BOX 446","SOUTHEASTERN","PA",19399,NA,NA,483,"PO BOX 446, SOUTHEASTERN, PA, 19399","No_Match",NA,NA,NA,NA
349484,"PO BOX 446","SUMMIT","MS",39666,NA,NA,484,"PO BOX 446, SUMMIT, MS, 39666","No_Match",NA,NA,NA,NA
349485,"PO BOX 446","WALDPORT","OR",97394,NA,NA,485,"PO BOX 446, WALDPORT, OR, 97394","No_Match",NA,NA,NA,NA
349486,"PO BOX 446","ZIMMERMAN","MN",55398,NA,NA,486,"PO BOX 446, ZIMMERMAN, MN, 55398","No_Match",NA,NA,NA,NA
349487,"PO BOX 4461","DUBLIN","GA",31040,NA,NA,487,"PO BOX 4461, DUBLIN, GA, 31040","No_Match",NA,NA,NA,NA
349488,"PO BOX 4462","BRANDON","MS",39047,NA,NA,488,"PO BOX 4462, BRANDON, MS, 39047","No_Match",NA,NA,NA,NA
349489,"PO BOX 4463","KAILUA KONA","HI",96745,NA,NA,489,"PO BOX 4463, KAILUA KONA, HI, 96745","No_Match",NA,NA,NA,NA
349490,"PO BOX 4464","GREENSBORO","NC",27404,NA,NA,490,"PO BOX 4464, GREENSBORO, NC, 27404","No_Match",NA,NA,NA,NA
349491,"PO BOX 4466","POCATELLO","ID",83205,NA,NA,491,"PO BOX 4466, POCATELLO, ID, 83205","No_Match",NA,NA,NA,NA
349492,"PO BOX 44671","COLUMBUS","OH",43204,NA,NA,492,"PO BOX 44671, COLUMBUS, OH, 43204","No_Match",NA,NA,NA,NA
349493,"PO BOX 44671","KAMUELA","HI",96743,NA,NA,493,"PO BOX 44671, KAMUELA, HI, 96743","No_Match",NA,NA,NA,NA
349494,"PO BOX 4468","ONTARIO","CA",91761,NA,NA,494,"PO BOX 4468, ONTARIO, CA, 91761","No_Match",NA,NA,NA,NA
349495,"PO BOX 44693","Kamuela","HI",96743,NA,NA,495,"PO BOX 44693, Kamuela, HI, 96743","No_Match",NA,NA,NA,NA
349496,"PO BOX 447","BYRON","MN",55920,NA,NA,496,"PO BOX 447, BYRON, MN, 55920","No_Match",NA,NA,NA,NA
349497,"PO BOX 447","FARMINGDALE","NJ",7727,NA,NA,497,"PO BOX 447, FARMINGDALE, NJ, 7727","No_Match",NA,NA,NA,NA
349498,"PO BOX 447","FLORAL PARK","NY",11002,NA,NA,498,"PO BOX 447, FLORAL PARK, NY, 11002","No_Match",NA,NA,NA,NA
349499,"PO BOX 447","FOLLETT","TX",79034,NA,NA,499,"PO BOX 447, FOLLETT, TX, 79034","No_Match",NA,NA,NA,NA
349500,"PO BOX 447","HEMLOCK","MI",48626,NA,NA,500,"PO BOX 447, HEMLOCK, MI, 48626","No_Match",NA,NA,NA,NA
