"ID","Address","City","State","Zip","lat","long","id","input_address","match_indicator","match_type","matched_address","tiger_line_id","tiger_side"
301501,"8412 INDIAN MOUND DRIVE","DAYTON","OH",45424,39.8761675600001,-84.12956587,1,"8412 INDIAN MOUND DRIVE, DAYTON, OH, 45424","Match","Exact","8412 INDIAN MOUND DR, DAYTON, OH, 45424",143572941,"R"
301502,"8412 N GOMEZ AVE","TAMPA","FL",33614,28.025689388,-82.491055119,2,"8412 N GOMEZ AVE, TAMPA, FL, 33614","Match","Exact","8412 N GOMEZ AVE, TAMPA, FL, 33614",104515072,"L"
301503,"8412 OLD COLONY DRIVE SOUTH","UPPER MARLBORO","MD",20772,38.7725199760001,-76.790284263,3,"8412 OLD COLONY DRIVE SOUTH, UPPER MARLBORO, MD, 20772","Match","Exact","8412 OLD COLONY DR S, UPPER MARLBORO, MD, 20772",76393174,"R"
301504,"8412 PRESTINE LOOP  203","CORDOVA","TN",38018,35.1543312430001,-89.7825292699999,4,"8412 PRESTINE LOOP  203, CORDOVA, TN, 38018","Match","Exact","8412 PRESTINE LOOP, CORDOVA, TN, 38018",618377382,"L"
301505,"8412 RAM RIDGE ROAD","FORT WORTH","TX",76137,32.890801357,-97.282411285,5,"8412 RAM RIDGE ROAD, FORT WORTH, TX, 76137","Match","Exact","8412 RAM RIDGE RD, FORT WORTH, TX, 76137",102107629,"R"
301506,"8412 SAINT MORITZ DR","SPRING GROVE","IL",60081,42.449181336,-88.259282194,6,"8412 SAINT MORITZ DR, SPRING GROVE, IL, 60081","Match","Exact","8412 ST MORITZ DR, SPRING GROVE, IL, 60081",119869850,"L"
301507,"8413 CASE RIDGE DR","OAK RIDGE","NC",27310,36.1882039400001,-79.99407543,7,"8413 CASE RIDGE DR, OAK RIDGE, NC, 27310","Match","Exact","8413 CASE RIDGE DR, OAK RIDGE, NC, 27310",131110445,"L"
301508,"8413 CHAPEL RD","NILES","MI",49120,41.9061796400001,-86.2555501049999,8,"8413 CHAPEL RD, NILES, MI, 49120","Match","Exact","8413 CHAPEL RD, NILES, MI, 49120",119978257,"L"
301509,"8413 EAST 55TH STREET","KANSAS CITY","MO",64129,39.0241212190001,-94.488198333,9,"8413 EAST 55TH STREET, KANSAS CITY, MO, 64129","Match","Exact","8413 E 55TH ST, KANSAS CITY, MO, 64129",91460707,"R"
301510,"8413 KESTREL CT","MCKINNEY","TX",75072,33.202376369,-96.726446679,10,"8413 KESTREL CT, MCKINNEY, TX, 75072","Match","Exact","8413 KESTREL CT, MCKINNEY, TX, 75072",123544282,"L"
301511,"8413 KITTYHAWK AVE","LOS ANGELES","CA",90045,33.9621140960001,-118.387943131,11,"8413 KITTYHAWK AVE, LOS ANGELES, CA, 90045","Match","Exact","8413 KITTYHAWK AVE, LOS ANGELES, CA, 90045",141579563,"R"
301512,"8413 LITTLETON ROAD SUITE A","NORTH FORT MYERS","FL",33903,26.69683387,-81.899899846,12,"8413 LITTLETON ROAD SUITE A, NORTH FORT MYERS, FL, 33903","Match","Exact","8413 LITTLETON RD, N FORT MYERS, FL, 33903",647911556,"L"
301513,"8413 SARATOGA AVE","LUBBOCK","TX",79424,33.516422408,-101.970625257,13,"8413 SARATOGA AVE, LUBBOCK, TX, 79424","Match","Exact","8413 SARATOGA AVE, LUBBOCK, TX, 79424",185266433,"R"
301514,"8413 SENTINEL RIDGE","NORRISTOWN","PA",19403,40.1130774430001,-75.4085738599999,14,"8413 SENTINEL RIDGE, NORRISTOWN, PA, 19403","Match","Exact","8413 SENTINEL RIDGE, NORRISTOWN, PA, 19403",624316564,"L"
301515,"8413 SPINNAKER COVE","ROWLETT","TX",75089,32.933745129,-96.5229207249999,15,"8413 SPINNAKER COVE, ROWLETT, TX, 75089","Match","Exact","8413 SPINNAKER COVE, ROWLETT, TX, 75089",103167240,"R"
301516,"8413 SWANANOAH RD","DALLAS","TX",75209,32.854365606,-96.83835392,16,"8413 SWANANOAH RD, DALLAS, TX, 75209","Match","Exact","8413 SWANANOAH RD, DALLAS, TX, 75209",102903343,"L"
301517,"8413 TERRA COTTA DRIVE","CHARLOTTE","NC",28215,35.251638343,-80.717594546,17,"8413 TERRA COTTA DRIVE, CHARLOTTE, NC, 28215","Match","Exact","8413 TERRA COTTA DR, CHARLOTTE, NC, 28215",70518014,"L"
301518,"84136 AVENUE 44","INDIO","CA",92203,33.7294608880001,-116.197931357,18,"84136 AVENUE 44, INDIO, CA, 92203","Match","Exact","84136 AVE 44, INDIO, CA, 92203",195045707,"R"
301519,"8414 APPLETON TRAIL","COLORADO SPRINGS","CO",80925,38.7260879950001,-104.67183662,19,"8414 APPLETON TRAIL, COLORADO SPRINGS, CO, 80925","Match","Exact","8414 APPLETON TRL, COLORADO SPRINGS, CO, 80925",624711351,"L"
301520,"8414 E VISTA DRIVE","SCOTTSDALE","AZ",85250,33.5130187300001,-111.89960453,20,"8414 E VISTA DRIVE, SCOTTSDALE, AZ, 85250","Match","Exact","8414 E VISTA DR, SCOTTSDALE, AZ, 85250",128230002,"L"
301521,"8414 FARM RD STE 180 PMB 310","LAS VEGAS","NV",89131,NA,NA,21,"8414 FARM RD STE 180 PMB 310, LAS VEGAS, NV, 89131","No_Match",NA,NA,NA,NA
301522,"8414 FARM RD STE 180-215","LAS VEGAS","NV",89131,NA,NA,22,"8414 FARM RD STE 180-215, LAS VEGAS, NV, 89131","No_Match",NA,NA,NA,NA
301523,"8414 FARM RD","LAS VEGAS","NV",89134,36.299208148,-115.279722642,23,"8414 FARM RD, LAS VEGAS, NV, 89134","Match","Non_Exact","8414 FARM RD, LAS VEGAS, NV, 89131",641494263,"R"
301524,"8414 HARTFORD AVENUE","SILVER SPRING","MD",20910,38.9949365250001,-77.010728253,24,"8414 HARTFORD AVENUE, SILVER SPRING, MD, 20910","Match","Exact","8414 HARTFORD AVE, SILVER SPRING, MD, 20910",62068532,"L"
301525,"8414 MADISON PLACE","PHILADELPHIA","PA",19153,39.8959921210001,-75.2506713179999,25,"8414 MADISON PLACE, PHILADELPHIA, PA, 19153","Match","Exact","8414 MADISON PL, PHILADELPHIA, PA, 19153",131440842,"L"
301526,"8414 MAY ST","TAMPA","FL",33614,28.0260043440001,-82.493560813,26,"8414 MAY ST, TAMPA, FL, 33614","Match","Exact","8414 MAY ST, TAMPA, FL, 33614",104515066,"L"
301527,"8414 MOSSHANG COURT","HOUSTON","TX",77040,29.8958455320001,-95.528194855,27,"8414 MOSSHANG COURT, HOUSTON, TX, 77040","Match","Exact","8414 MOSSHANG CT, HOUSTON, TX, 77040",96024365,"R"
301528,"8414 N GREENSFERRY RD","POST FALLS","ID",83854,47.7456977950001,-116.915911997,28,"8414 N GREENSFERRY RD, POST FALLS, ID, 83854","Match","Exact","8414 N GREENSFERRY RD, POST FALLS, ID, 83854",192932555,"R"
301529,"8414 PANOLA ST","NEW ORLEANS","LA",70118,29.9559355970001,-90.125735043,29,"8414 PANOLA ST, NEW ORLEANS, LA, 70118","Match","Exact","8414 PANOLA ST, NEW ORLEANS, LA, 70118",191700440,"L"
301530,"8414 S HERMITAGE AVE","CHICAGO","IL",60620,41.740832826,-87.6668467379999,30,"8414 S HERMITAGE AVE, CHICAGO, IL, 60620","Match","Exact","8414 S HERMITAGE AVE, CHICAGO, IL, 60620",111821341,"R"
301531,"8414 WESTERBROOK LN","HUMBLE","TX",77396,29.9296767020001,-95.2607148069999,31,"8414 WESTERBROOK LN, HUMBLE, TX, 77396","Match","Exact","8414 WESTERBROOK LN, HUMBLE, TX, 77396",633572534,"R"
301532,"841428","PEARLAND","TX",77584,NA,NA,32,"841428, PEARLAND, TX, 77584","No_Match",NA,NA,NA,NA
301533,"8415 45TH ST","LYONS","IL",60534,41.809797953,-87.830952817,33,"8415 45TH ST, LYONS, IL, 60534","Match","Exact","8415 45TH ST, LYONS, IL, 60534",111793135,"L"
301534,"8415 BELLONA LANE   SUITE 1012","BALTIMORE","MD",21204,39.4158979440001,-76.631416718,34,"8415 BELLONA LANE   SUITE 1012, BALTIMORE, MD, 21204","Match","Exact","8415 BELLONA LN, BALTIMORE, MD, 21204",639106486,"R"
301535,"8415 BRANDERMILL LN","CHATTANOOGA","TN",37421,35.026643071,-85.127532225,35,"8415 BRANDERMILL LN, CHATTANOOGA, TN, 37421","Match","Exact","8415 BRANDERMILL LN, CHATTANOOGA, TN, 37421",59324221,"R"
301536,"8415 BRIARMONT LANE","MANASSAS","VA",20112,38.715405896,-77.4540110569999,36,"8415 BRIARMONT LANE, MANASSAS, VA, 20112","Match","Exact","8415 BRIARMONT LN, MANASSAS, VA, 20112",653500606,"L"
301537,"8415 BROOKSEDGE DRIVE APT 207","CHARLOTTE","NC",28216,35.346408115,-80.8647917929999,37,"8415 BROOKSEDGE DRIVE APT 207, CHARLOTTE, NC, 28216","Match","Exact","8415 BROOKSEDGE DR, CHARLOTTE, NC, 28216",70599186,"L"
301538,"8415 CANTON CENTER ROAD","CANTON","MI",48187,42.343707082,-83.488909685,38,"8415 CANTON CENTER ROAD, CANTON, MI, 48187","Match","Non_Exact","8415 N CANTON CENTER RD, CANTON, MI, 48187",95407716,"L"
301539,"8415 DEL RIO WAY APT 510","TEMPLE TERRACE","FL",33617,28.026732672,-82.40152417,39,"8415 DEL RIO WAY APT 510, TEMPLE TERRACE, FL, 33617","Match","Non_Exact","8415 DEL RIO WAY, TEMPLE TER, FL, 33617",649204993,"R"
301540,"8415 E 21ST STREET N STE 100","WICHITA","KS",67206,37.723016251,-97.2394847309999,40,"8415 E 21ST STREET N STE 100, WICHITA, KS, 67206","Match","Non_Exact","8415 E 21ST ST N, WICHITA, KS, 67206",652701295,"R"
301541,"8415 HOGAN DRIVE","HUNTSVILLE","AL",35802,34.6564517950001,-86.562802603,41,"8415 HOGAN DRIVE, HUNTSVILLE, AL, 35802","Match","Non_Exact","8415 HOGAN DR SE, HUNTSVILLE, AL, 35802",58198324,"L"
301542,"8415 LYONS PLACE","PHILADELPHIA","PA",19153,39.8955330420001,-75.250055781,42,"8415 LYONS PLACE, PHILADELPHIA, PA, 19153","Match","Exact","8415 LYONS PL, PHILADELPHIA, PA, 19153",131448132,"R"
301543,"8415 MACKENZIE AVE NW","NORTH CANTON","OH",44720,40.910268151,-81.391449961,43,"8415 MACKENZIE AVE NW, NORTH CANTON, OH, 44720","Match","Exact","8415 MACKENZIE AVE NW, NORTH CANTON, OH, 44720",641776805,"L"
301544,"8415 MALTBY RD","BRIGHTON","MI",48116,42.5002445220001,-83.781691188,44,"8415 MALTBY RD, BRIGHTON, MI, 48116","Match","Exact","8415 MALTBY RD, BRIGHTON, MI, 48116",614117084,"L"
301545,"8415 NE MILTON STREET","PORTLAND","OR",97220,45.5488614750001,-122.576954991,45,"8415 NE MILTON STREET, PORTLAND, OR, 97220","Match","Exact","8415 NE MILTON ST, PORTLAND, OR, 97220",157513210,"L"
301546,"8415 PLANTATION ROAD","MACCLENNY","FL",32063,30.2334290040001,-82.181529266,46,"8415 PLANTATION ROAD, MACCLENNY, FL, 32063","Match","Exact","8415 PLANTATION RD, MACCLENNY, FL, 32063",649153281,"R"
301547,"8415 S HARVARD BLVD","LOS ANGELES","CA",90047,33.9624528940001,-118.306825491,47,"8415 S HARVARD BLVD, LOS ANGELES, CA, 90047","Match","Exact","8415 S HARVARD BLVD, LOS ANGELES, CA, 90047",141658882,"R"
301548,"8415 SW 19TH STREET","NORTH LAUDERDALE","FL",33068,26.2034404880001,-80.2413155799999,48,"8415 SW 19TH STREET, NORTH LAUDERDALE, FL, 33068","Match","Exact","8415 SW 19TH ST, N LAUDERDALE, FL, 33068",114702682,"L"
301549,"8416 27TH AVE NE","TULALIP","WA",98271,48.07293566,-122.194734532,49,"8416 27TH AVE NE, TULALIP, WA, 98271","Match","Exact","8416 27TH AVE NE, TULALIP, WA, 98271",187742741,"L"
301550,"8416 ANTERO DR","AUSTIN","TX",78759,30.37847069,-97.759247553,50,"8416 ANTERO DR, AUSTIN, TX, 78759","Match","Exact","8416 ANTERO DR, AUSTIN, TX, 78759",63927776,"L"
301551,"8416 BECKET COVE","CORDOVA","TN",38016,35.180767599,-89.782685299,51,"8416 BECKET COVE, CORDOVA, TN, 38016","Match","Exact","8416 BECKET COVE, CORDOVA, TN, 38016",72945551,"L"
301552,"8416 CONCORD BLVD W","JACKSONVILLE","FL",32208,NA,NA,52,"8416 CONCORD BLVD W, JACKSONVILLE, FL, 32208","No_Match",NA,NA,NA,NA
301553,"8416 CORD DR","PASCO","WA",99301,46.278563046,-119.200732562,53,"8416 CORD DR, PASCO, WA, 99301","Match","Exact","8416 CORD DR, PASCO, WA, 99301",175257771,"R"
301554,"8416 LITTLE NECK PKWAY 2ND FL","FLORAL PARK","NY",11001,NA,NA,54,"8416 LITTLE NECK PKWAY 2ND FL, FLORAL PARK, NY, 11001","No_Match",NA,NA,NA,NA
301555,"8416 LORRAINE DRIVE","STRONGSVILLE","OH",44149,41.3449778130001,-81.874940038,55,"8416 LORRAINE DRIVE, STRONGSVILLE, OH, 44149","Match","Exact","8416 LORRAINE DR, STRONGSVILLE, OH, 44149",61130673,"R"
301556,"8416 N JONES AVENUE UNIT 3","TAMPA","FL",33604,28.0260513910001,-82.4780881889999,56,"8416 N JONES AVENUE UNIT 3, TAMPA, FL, 33604","Match","Exact","8416 JONES AVE, TAMPA, FL, 33604",104517751,"L"
301557,"841617","PEARLAND","TX",77584,NA,NA,57,"841617, PEARLAND, TX, 77584","No_Match",NA,NA,NA,NA
301558,"8417 78TH AVE","SEMINOLE","FL",33777,27.8427910660001,-82.7552431569999,58,"8417 78TH AVE, SEMINOLE, FL, 33777","Match","Exact","8417 78TH AVE, SEMINOLE, FL, 33777",124692436,"R"
301559,"8417 BILLSON RD","RANDALLSTOWN","MD",21133,39.3682291760001,-76.770411166,59,"8417 BILLSON RD, RANDALLSTOWN, MD, 21133","Match","Exact","8417 BILLSON RD, RANDALLSTOWN, MD, 21133",191466908,"L"
301560,"8417 BUFFALO AVENUE","PANORAMA CITY","CA",91402,34.2235784820001,-118.43211736,60,"8417 BUFFALO AVENUE, PANORAMA CITY, CA, 91402","Match","Exact","8417 BUFFALO AVE, PANORAMA CITY, CA, 91402",141550335,"L"
301561,"8417 CAMELLIA STREET","RALEIGH","NC",27603,35.6599653660001,-78.7017490489999,61,"8417 CAMELLIA STREET, RALEIGH, NC, 27603","Match","Exact","8417 CAMELLIA ST, RALEIGH, NC, 27603",72504281,"R"
301562,"8417 CEDARCREST LN","FORT WORTH","TX",76123,32.620012806,-97.393712498,62,"8417 CEDARCREST LN, FORT WORTH, TX, 76123","Match","Exact","8417 CEDARCREST LN, FORT WORTH, TX, 76123",102119855,"L"
301563,"8417 KENTON CT","COLUMBIA","MD",21046,39.173774505,-76.8718519769999,63,"8417 KENTON CT, COLUMBIA, MD, 21046","Match","Exact","8417 KENTON CT, COLUMBIA, MD, 21046",158924942,"L"
301564,"8417 LANDER ST APT 4A","BRIARWOOD","NY",11435,NA,NA,64,"8417 LANDER ST APT 4A, BRIARWOOD, NY, 11435","No_Match",NA,NA,NA,NA
301565,"8417 MIGUEL WAY","ELVERTA","CA",95626,38.7229091300001,-121.468869459,65,"8417 MIGUEL WAY, ELVERTA, CA, 95626","Match","Exact","8417 MIGUEL WAY, ELVERTA, CA, 95626",133318656,"L"
301566,"8417 MIRAMAR RD","PASADENA","MD",21122,39.157843074,-76.523407455,66,"8417 MIRAMAR RD, PASADENA, MD, 21122","Match","Exact","8417 MIRAMAR RD, PASADENA, MD, 21122",68165410,"L"
301567,"8417 OSWEGO RD 129","BALDWINSVILLE","NY",13027,43.178540314,-76.3523757409999,67,"8417 OSWEGO RD 129, BALDWINSVILLE, NY, 13027","Match","Exact","8417 OSWEGO RD, BALDWINSVILLE, NY, 13027",652343447,"R"
301568,"8417 OSWEGO RD UNIT 193","BALDWINSVILLE","NY",13027,43.178540314,-76.3523757409999,68,"8417 OSWEGO RD UNIT 193, BALDWINSVILLE, NY, 13027","Match","Exact","8417 OSWEGO RD, BALDWINSVILLE, NY, 13027",652343447,"R"
301569,"8417 REGENT AVE N NO 103","BROOKLYN PARK","MN",55443,45.1065161920001,-93.346405548,69,"8417 REGENT AVE N NO 103, BROOKLYN PARK, MN, 55443","Match","Exact","8417 REGENT AVE N, BROOKLYN PARK, MN, 55443",611513737,"L"
301570,"8417 REGENT AVENUE NORTH APT 3","MINNEAPOLIS","MN",55443,45.1065161920001,-93.346405548,70,"8417 REGENT AVENUE NORTH APT 3, MINNEAPOLIS, MN, 55443","Match","Exact","8417 REGENT AVE N, MINNEAPOLIS, MN, 55443",611513737,"L"
301571,"8417 SOUTH AVENUE 4 AND A HALF E","YUMA","AZ",85365,NA,NA,71,"8417 SOUTH AVENUE 4 AND A HALF E, YUMA, AZ, 85365","No_Match",NA,NA,NA,NA
301572,"8417 STABLE LANE","KNOXVILLE","TN",37938,36.1138843200001,-83.9506249089999,72,"8417 STABLE LANE, KNOXVILLE, TN, 37938","Match","Exact","8417 STABLE LN, KNOXVILLE, TN, 37938",42665101,"L"
301573,"8418 BANYAN BLVD","ORLANDO","FL",32819,28.467669388,-81.4986413139999,73,"8418 BANYAN BLVD, ORLANDO, FL, 32819","Match","Exact","8418 BANYAN BLVD, ORLANDO, FL, 32819",94272071,"R"
301574,"8418 COUNTY ROAD D","WINNECONNE","WI",54986,NA,NA,74,"8418 COUNTY ROAD D, WINNECONNE, WI, 54986","No_Match",NA,NA,NA,NA
301575,"8418 CRUIT ISLE","MISSOURI CITY","TX",77459,29.494110392,-95.543053572,75,"8418 CRUIT ISLE, MISSOURI CITY, TX, 77459","Match","Exact","8418 CRUIT ISLE, MISSOURI CITY, TX, 77459",624927603,"R"
301576,"8418 E SANDLEWOOD LN","SPOKANE","WA",99217,47.70816898,-117.291641727,76,"8418 E SANDLEWOOD LN, SPOKANE, WA, 99217","Match","Exact","8418 E SANDLEWOOD LN, SPOKANE, WA, 99217",633822835,"R"
301577,"8418 EAST BAY BLVD","NAVARRE","FL",32566,30.432357358,-86.871071738,77,"8418 EAST BAY BLVD, NAVARRE, FL, 32566","Match","Exact","8418 E BAY BLVD, NAVARRE, FL, 32566",74584298,"L"
301578,"8418 GREENWOOD RD","HEBRON","IL",60034,42.4488901760001,-88.3744892729999,78,"8418 GREENWOOD RD, HEBRON, IL, 60034","Match","Exact","8418 GREENWOOD RD, HEBRON, IL, 60034",119815237,"L"
301579,"8418 LARGE STREET","PHILADELPHIA","PA",19152,40.0690450120001,-75.047614186,79,"8418 LARGE STREET, PHILADELPHIA, PA, 19152","Match","Exact","8418 LARGE ST, PHILADELPHIA, PA, 19152",131441319,"L"
301580,"8418 NAYLOR AVENUE","LOS ANGELES","CA",90045,33.9619199030001,-118.395423792,80,"8418 NAYLOR AVENUE, LOS ANGELES, CA, 90045","Match","Exact","8418 NAYLOR AVE, LOS ANGELES, CA, 90045",141579351,"L"
301581,"8418 SOUTHGATE COMMONS DRIVE","CHARLOTTE","NC",28277,35.051890057,-80.8179506179999,81,"8418 SOUTHGATE COMMONS DRIVE, CHARLOTTE, NC, 28277","Match","Exact","8418 SOUTHGATE COMMONS DR, CHARLOTTE, NC, 28277",640628023,"R"
301582,"8418 WINNCREST LN","COLORADO SPRINGS","CO",80920,38.9574145560001,-104.762402561,82,"8418 WINNCREST LN, COLORADO SPRINGS, CO, 80920","Match","Exact","8418 WINNCREST LN, CO SPGS, CO, 80920",105547015,"R"
301583,"8419 BERGENLINE AVE 1ST FLOOR","NORTH BERGEN","NJ",7047,40.80477396,-74.004470349,83,"8419 BERGENLINE AVE 1ST FLOOR, NORTH BERGEN, NJ, 7047","Match","Exact","8419 BERGENLINE AVE, NORTH BERGEN, NJ, 07047",59599725,"L"
301584,"8419 BRIGHTON LAKE LN","HOUSTON","TX",77095,29.9004210520001,-95.683902541,84,"8419 BRIGHTON LAKE LN, HOUSTON, TX, 77095","Match","Exact","8419 BRIGHTON LAKE LN, HOUSTON, TX, 77095",641765265,"R"
301585,"8419 CASA MORENA CT NW","ALBUQUERQUE","NM",87120,35.098664887,-106.739266599,85,"8419 CASA MORENA CT NW, ALBUQUERQUE, NM, 87120","Match","Exact","8419 CASA MORENA CT NW, ALBUQUERQUE, NM, 87120",625221435,"L"
301586,"8419 CREIGER","CHICAGO","IL",60617,NA,NA,86,"8419 CREIGER, CHICAGO, IL, 60617","No_Match",NA,NA,NA,NA
301587,"8419 E SIENNA COVE LANE","HOUSTON","TX",77083,29.6870142110001,-95.686461131,87,"8419 E SIENNA COVE LANE, HOUSTON, TX, 77083","Match","Exact","8419 E SIENNA COVE LN, HOUSTON, TX, 77083",627340839,"R"
301588,"8419 GLENEAGLES COURT","DUBLIN","OH",43017,40.136924827,-83.135311601,88,"8419 GLENEAGLES COURT, DUBLIN, OH, 43017","Match","Exact","8419 GLENEAGLES CT, DUBLIN, OH, 43017",218696554,"L"
301589,"8419 GRAND CARRIAGE GROVE","COLORADO SPRINGS","CO",80920,38.954354052,-104.7889357,89,"8419 GRAND CARRIAGE GROVE, COLORADO SPRINGS, CO, 80920","Match","Non_Exact","8419 GRAND CARRIAGE DR, CO SPGS, CO, 80920",105574430,"R"
301590,"8419 LORRIE DRIVE","HOUSTON","TX",77025,29.6889520170001,-95.421407887,90,"8419 LORRIE DRIVE, HOUSTON, TX, 77025","Match","Exact","8419 LORRIE DR, HOUSTON, TX, 77025",96087123,"L"
301591,"8419 NANDINA WAY","ANTELOPE","CA",95843,38.722170374,-121.393051832,91,"8419 NANDINA WAY, ANTELOPE, CA, 95843","Match","Exact","8419 NANDINA WAY, ANTELOPE, CA, 95843",133369580,"L"
301592,"8419 ROMANA RED LANE","CHARLOTTE","NC",28213,35.275338033,-80.735884679,92,"8419 ROMANA RED LANE, CHARLOTTE, NC, 28213","Match","Exact","8419 ROMANA RED LN, CHARLOTTE, NC, 28213",618146441,"L"
301593,"8419 S CALUMET","CHICAGO","IL",60619,41.7415295690001,-87.61626838,93,"8419 S CALUMET, CHICAGO, IL, 60619","Match","Non_Exact","8419 S CALUMET AVE, CHICAGO, IL, 60619",111772772,"L"
301594,"8419 SAILING LOOP","BRADENTON","FL",34202,27.390195281,-82.430523567,94,"8419 SAILING LOOP, BRADENTON, FL, 34202","Match","Exact","8419 SAILING LOOP, BRADENTON, FL, 34202",16275269,"L"
301595,"8419 WILLIAMS ROAD","CHARDON","OH",44024,41.6392036980001,-81.131216541,95,"8419 WILLIAMS ROAD, CHARDON, OH, 44024","Match","Exact","8419 WILLIAMS RD, CHARDON, OH, 44024",137434667,"R"
301596,"842 2ND AVE","GEORGETOWN","SC",29440,33.4037806590001,-79.27219846,96,"842 2ND AVE, GEORGETOWN, SC, 29440","Match","Exact","842 2ND AVE, GEORGETOWN, SC, 29440",636582954,"R"
301597,"842 7TH ST","NORCO","CA",92860,33.9456746660001,-117.539950399,97,"842 7TH ST, NORCO, CA, 92860","Match","Exact","842 7TH ST, NORCO, CA, 92860",194734942,"L"
301598,"842 BEST ROAD","WEST SAND LAKE","NY",12196,42.6148914880001,-73.63434971,98,"842 BEST ROAD, WEST SAND LAKE, NY, 12196","Match","Exact","842 BEST RD, W SAND LAKE, NY, 12196",35765962,"L"
301599,"842 BROOKLINE DR","SUNNYVALE","CA",94087,37.3684188020001,-122.043912507,99,"842 BROOKLINE DR, SUNNYVALE, CA, 94087","Match","Exact","842 BROOKLINE DR, SUNNYVALE, CA, 94087",122937162,"L"
301600,"842 CHESTNUT RD 369 S CASE HALL","EAST LANSING","MI",48825,42.725437492,-84.487758143,100,"842 CHESTNUT RD 369 S CASE HALL, EAST LANSING, MI, 48825","Match","Exact","842 CHESTNUT RD, EAST LANSING, MI, 48825",17523610,"R"
301601,"842 CHIPPENDALE DRIVE","BOWLING GREEN","KY",42103,36.980185744,-86.4164700969999,101,"842 CHIPPENDALE DRIVE, BOWLING GREEN, KY, 42103","Match","Exact","842 CHIPPENDALE DR, BOWLING GREEN, KY, 42103",28018505,"L"
301602,"842 CLARK ST","PAGELAND","SC",29728,34.7677213700001,-80.368191794,102,"842 CLARK ST, PAGELAND, SC, 29728","Match","Exact","842 CLARK ST, PAGELAND, SC, 29728",14341516,"R"
301603,"842 COUNTY ROAD 3150","KEMPNER","TX",76539,31.114551851,-98.0348950429999,103,"842 COUNTY ROAD 3150, KEMPNER, TX, 76539","Match","Exact","842 CO RD 3150, KEMPNER, TX, 76539",146699131,"L"
301604,"842 FRONT STREET","SANTA CRUZ","CA",95060,36.9760604520001,-122.026175053,104,"842 FRONT STREET, SANTA CRUZ, CA, 95060","Match","Exact","842 FRONT ST, SANTA CRUZ, CA, 95060",125506106,"R"
301605,"842 HART STREET 1R","BROOKLYN","NY",11237,40.7022909950001,-73.922378072,105,"842 HART STREET 1R, BROOKLYN, NY, 11237","Match","Exact","842 HART ST, BROOKLYN, NY, 11237",59082659,"R"
301606,"842 LOMBRANO ST","SAN ANTONIO","TX",78207,29.442373123,-98.519761656,106,"842 LOMBRANO ST, SAN ANTONIO, TX, 78207","Match","Exact","842 LOMBRANO ST, SAN ANTONIO, TX, 78207",101514699,"L"
301607,"842 LYNWOOD LANE","BROKEN ARROW","OK",74011,35.97039435,-95.78934035,107,"842 LYNWOOD LANE, BROKEN ARROW, OK, 74011","Match","Exact","842 LYNWOOD LN, BROKEN ARROW, OK, 74011",166510042,"R"
301608,"842 N HAMILTON AVE","INDIANAPOLIS","IN",46203,39.7786670240001,-86.124916152,108,"842 N HAMILTON AVE, INDIANAPOLIS, IN, 46203","Match","Non_Exact","842 N HAMILTON AVE, INDIANAPOLIS, IN, 46201",107993515,"L"
301609,"842 PULASKI MERCER ROAD","NEW WILMINGTON","PA",16142,41.1554421100001,-80.358773221,109,"842 PULASKI MERCER ROAD, NEW WILMINGTON, PA, 16142","Match","Exact","842 PULASKI MERCER RD, NEW WILMINGTON, PA, 16142",647911054,"R"
301610,"842 RAYMOND AVENUE SUITE 200","ST PAUL","MN",55114,NA,NA,110,"842 RAYMOND AVENUE SUITE 200, ST PAUL, MN, 55114","No_Match",NA,NA,NA,NA
301611,"842 S BROOK TROUT WAY","MERIDIAN","ID",83642,43.5966866570001,-116.409218282,111,"842 S BROOK TROUT WAY, MERIDIAN, ID, 83642","Match","Exact","842 S BROOK TROUT WAY, MERIDIAN, ID, 83642",617935595,"L"
301612,"842 S DESHON ROAD","LITHONIA","GA",30058,33.77099745,-84.1023907049999,112,"842 S DESHON ROAD, LITHONIA, GA, 30058","Match","Exact","842 S DESHON RD, LITHONIA, GA, 30058",23387176,"L"
301613,"842 S SCOVILLE AVE 3","OAK PARK","IL",60304,41.8729543040001,-87.7878881239999,113,"842 S SCOVILLE AVE 3, OAK PARK, IL, 60304","Match","Non_Exact","842 S SCOVILLE AVE, OAK PARK, IL, 60304",605112541,"L"
301614,"842 SW 14TH AVENUE APT 1","MIAMI","FL",33135,25.765223286,-80.218471193,114,"842 SW 14TH AVENUE APT 1, MIAMI, FL, 33135","Match","Non_Exact","842 SW 14TH AVE, MIAMI, FL, 33135",116016660,"R"
301615,"842 VAN BRIGGLE PATH","SUGAR HILL","GA",30518,34.141063182,-84.075535851,115,"842 VAN BRIGGLE PATH, SUGAR HILL, GA, 30518","Match","Non_Exact","842 VAN BRIGGLE PATH NE, SUGAR HILL, GA, 30518",634065592,"R"
301616,"842 W GRAND AVE","CHICAGO","IL",60642,41.891171468,-87.6494370899999,116,"842 W GRAND AVE, CHICAGO, IL, 60642","Match","Exact","842 W GRAND AVE, CHICAGO, IL, 60642",111767861,"L"
301617,"842 WATERFORD DR","DELRAN","NJ",8075,39.9951799560001,-74.9558918339999,117,"842 WATERFORD DR, DELRAN, NJ, 8075","Match","Exact","842 WATERFORD DR, DELRAN, NJ, 08075",134030399,"R"
301618,"842 WILLIAM STREET","RIVER FOREST","IL",60305,41.894965912,-87.810141726,118,"842 WILLIAM STREET, RIVER FOREST, IL, 60305","Match","Exact","842 WILLIAM ST, RIVER FOREST, IL, 60305",111749499,"L"
301619,"8420 183RD AVE SW","ROCHESTER","WA",98579,46.8220456560001,-123.060158992,119,"8420 183RD AVE SW, ROCHESTER, WA, 98579","Match","Exact","8420 183RD AVE SW, ROCHESTER, WA, 98579",625200020,"L"
301620,"8420 75TH ST NE","MARYSVILLE","WA",98270,48.06363242,-122.118327727,120,"8420 75TH ST NE, MARYSVILLE, WA, 98270","Match","Exact","8420 75TH ST NE, MARYSVILLE, WA, 98270",648624806,"R"
301621,"8420 AUTUMN CREEK TRAIL","FORT WORTH","TX",76134,32.629390614,-97.33739256,121,"8420 AUTUMN CREEK TRAIL, FORT WORTH, TX, 76134","Match","Exact","8420 AUTUMN CREEK TRL, FORT WORTH, TX, 76134",638653734,"R"
301622,"8420 CLOVER HILL LOOP","HUDSON","FL",34667,28.33909384,-82.67538261,122,"8420 CLOVER HILL LOOP, HUDSON, FL, 34667","Match","Exact","8420 CLOVER HILL LOOP, HUDSON, FL, 34667",86335661,"R"
301623,"8420 GAS HOUSE PIKE STE Z","FREDERICK","MD",21701,NA,NA,123,"8420 GAS HOUSE PIKE STE Z, FREDERICK, MD, 21701","No_Match",NA,NA,NA,NA
301624,"8420 GOVERNOR BRADFORD LANE","ELLICOTT CITY","MD",21043,39.2814837770001,-76.793039951,124,"8420 GOVERNOR BRADFORD LANE, ELLICOTT CITY, MD, 21043","Match","Exact","8420 GOVERNOR BRADFORD LN, ELLICOTT CITY, MD, 21043",158936003,"R"
301625,"8420 GREENBRIER DR","SAN ANTONIO","TX",78209,29.5138916240001,-98.462254059,125,"8420 GREENBRIER DR, SAN ANTONIO, TX, 78209","Match","Exact","8420 GREENBRIER DR, SAN ANTONIO, TX, 78209",101497810,"R"
301626,"8420 KAWALA DR","LAS VEGAS","NV",89128,36.2136152310001,-115.277445856,126,"8420 KAWALA DR, LAS VEGAS, NV, 89128","Match","Exact","8420 KAWALA DR, LAS VEGAS, NV, 89128",201904821,"R"
301627,"8420 MANUEL CIA PL NE","ALBUQUERQUE","NM",87122,35.1790973440001,-106.552762059,127,"8420 MANUEL CIA PL NE, ALBUQUERQUE, NM, 87122","Match","Exact","8420 MANUEL CIA PL NE, ALBUQUERQUE, NM, 87122",648280970,"R"
301628,"8420 MAYMEADOW CT","BALTIMORE","MD",21244,39.353552316,-76.773083105,128,"8420 MAYMEADOW CT, BALTIMORE, MD, 21244","Match","Exact","8420 MAYMEADOW CT, BALTIMORE, MD, 21244",191467032,"L"
301629,"8420 MUNDY DR","RICHMOND","VA",23228,37.6342781170001,-77.489373633,129,"8420 MUNDY DR, RICHMOND, VA, 23228","Match","Exact","8420 MUNDY DR, RICHMOND, VA, 23228",106662777,"L"
301630,"8420 MUNDY DRIVE","RICHMOND","VA",23228,37.6342781170001,-77.489373633,130,"8420 MUNDY DRIVE, RICHMOND, VA, 23228","Match","Exact","8420 MUNDY DR, RICHMOND, VA, 23228",106662777,"L"
301631,"8420 NEW HARRISON-BRADFORD RD","BRADFORD","OH",45308,40.1225959430001,-84.4959487039999,131,"8420 NEW HARRISON-BRADFORD RD, BRADFORD, OH, 45308","Match","Exact","8420 NEW HARRISON-BRADFORD RD, BRADFORD, OH, 45308",54552606,"L"
301632,"8420 PERRY PINES ROAD - 201","RALEIGH","NC",27626,NA,NA,132,"8420 PERRY PINES ROAD - 201, RALEIGH, NC, 27626","No_Match",NA,NA,NA,NA
301633,"8420 S HERMITAGE","CHICAGO","IL",60620,41.7407376470001,-87.666844279,133,"8420 S HERMITAGE, CHICAGO, IL, 60620","Match","Non_Exact","8420 S HERMITAGE AVE, CHICAGO, IL, 60620",111821341,"R"
301634,"8420 SUMMER BREEZE PLACE","MANASSAS","VA",20112,38.7308816820001,-77.4532480679999,134,"8420 SUMMER BREEZE PLACE, MANASSAS, VA, 20112","Match","Exact","8420 SUMMER BREEZE PL, MANASSAS, VA, 20112",207141909,"L"
301635,"8420 SW 133 AVE ROAD APT 111","MIAMI","FL",33183,25.6881569970001,-80.413249063,135,"8420 SW 133 AVE ROAD APT 111, MIAMI, FL, 33183","Match","Non_Exact","8420 SW 133RD AVENUE RD, MIAMI, FL, 33183",116257276,"R"
301636,"8420","LENEXA","KS",66227,NA,NA,136,"8420, LENEXA, KS, 66227","No_Match",NA,NA,NA,NA
301637,"8421 169TH ST","JAMAICA","NY",11432,NA,NA,137,"8421 169TH ST, JAMAICA, NY, 11432","No_Match",NA,NA,NA,NA
301638,"8421 ABERDEEN RD","NEW ORLEANS","LA",70127,30.0379539200001,-89.996982316,138,"8421 ABERDEEN RD, NEW ORLEANS, LA, 70127","Match","Exact","8421 ABERDEEN RD, NEW ORLEANS, LA, 70127",191736750,"L"
301639,"8421 AMINO DR","SANTEE","CA",92071,32.8442527660001,-117.02030158,139,"8421 AMINO DR, SANTEE, CA, 92071","Match","Exact","8421 AMINO DR, SANTEE, CA, 92071",195324525,"R"
301640,"8421 AUBURN BLVD SUITE 248","CITRUS HEIGHTS","CA",95610,38.7177644070001,-121.290438557,140,"8421 AUBURN BLVD SUITE 248, CITRUS HEIGHTS, CA, 95610","Match","Exact","8421 AUBURN BLVD, CITRUS HEIGHTS, CA, 95610",133328738,"L"
301641,"8421 BAYMEADOWS WAY SUITE 4A","JACKSONVILLE","FL",32256,30.22845578,-81.582496422,141,"8421 BAYMEADOWS WAY SUITE 4A, JACKSONVILLE, FL, 32256","Match","Exact","8421 BAYMEADOWS WAY, JACKSONVILLE, FL, 32256",83920138,"R"
301642,"8421 BULAVILLE PIKE","GALLIPOLIS","OH",45631,38.920726099,-82.2388098069999,142,"8421 BULAVILLE PIKE, GALLIPOLIS, OH, 45631","Match","Exact","8421 BULAVILLE PIKE, GALLIPOLIS, OH, 45631",652725912,"L"
301643,"8421 CEDAR LANE","KING GEORGE","VA",22485,38.2938889010001,-77.1488828619999,143,"8421 CEDAR LANE, KING GEORGE, VA, 22485","Match","Exact","8421 CEDAR LN, KING GEORGE, VA, 22485",22055060,"R"
301644,"8421 DORCHESTER RD  STE109/158","NORTH CHARLESTON","SC",29420,32.914827761,-80.1090329359999,144,"8421 DORCHESTER RD  STE109/158, NORTH CHARLESTON, SC, 29420","Match","Exact","8421 DORCHESTER RD, N CHARLESTON, SC, 29420",647837542,"L"
301645,"8421 DORCHESTER RD STE 109/158","NORTH CHARLESTON","SC",29420,32.914827761,-80.1090329359999,145,"8421 DORCHESTER RD STE 109/158, NORTH CHARLESTON, SC, 29420","Match","Exact","8421 DORCHESTER RD, N CHARLESTON, SC, 29420",647837542,"L"
301646,"8421 DORCHESTER RD SUITE 109-334","NORTH CHARLESTON","SC",29420,32.914827761,-80.1090329359999,146,"8421 DORCHESTER RD SUITE 109-334, NORTH CHARLESTON, SC, 29420","Match","Exact","8421 DORCHESTER RD, N CHARLESTON, SC, 29420",647837542,"L"
301647,"8421 E MAIN ST LOT 146","MESA","AZ",85207,NA,NA,147,"8421 E MAIN ST LOT 146, MESA, AZ, 85207","No_Match",NA,NA,NA,NA
301648,"8421 N HENPECK ROAD","QUINTON","VA",23141,37.5267372070001,-77.1695428369999,148,"8421 N HENPECK ROAD, QUINTON, VA, 23141","Match","Exact","8421 N HENPECK RD, QUINTON, VA, 23141",106730811,"R"
301649,"8421 NW 38 STREET","COOPER CITY","FL",33024,NA,NA,149,"8421 NW 38 STREET, COOPER CITY, FL, 33024","Tie",NA,NA,NA,NA
301650,"8421 PLEASANT HILL ROAD","LITHONIA","GA",30058,33.734738312,-84.0467761909999,150,"8421 PLEASANT HILL ROAD, LITHONIA, GA, 30058","Match","Exact","8421 PLEASANT HILL RD, LITHONIA, GA, 30058",23401456,"R"
301651,"8421 S ORANGE BLOSSOM TRAIL STE 235","ORLANDO","FL",32809,28.4425713050001,-81.402910993,151,"8421 S ORANGE BLOSSOM TRAIL STE 235, ORLANDO, FL, 32809","Match","Non_Exact","8421 S ORANGE BLOSSOM TRL, ORLANDO, FL, 32809",637457798,"R"
301652,"8421 SOUTHWEST 33 TERRACE","MIAMI","FL",33155,25.739069493,-80.332188004,152,"8421 SOUTHWEST 33 TERRACE, MIAMI, FL, 33155","Match","Exact","8421 SW 33RD TER, MIAMI, FL, 33155",115973376,"R"
301653,"8421 SW 56TH AVE","PORTLAND","OR",97219,45.464092958,-122.734276913,153,"8421 SW 56TH AVE, PORTLAND, OR, 97219","Match","Exact","8421 SW 56TH AVE, PORTLAND, OR, 97219",647822370,"R"
301654,"8422 ANDROMEDA LANE","BAKERSFIELD","CA",93306,35.3752045460001,-118.908379349,154,"8422 ANDROMEDA LANE, BAKERSFIELD, CA, 93306","Match","Exact","8422 ANDROMEDA LN, BAKERSFIELD, CA, 93306",636968253,"L"
301655,"8422 CLARKDALE DRIVE","HUNTINGTON BEACH","CA",92646,33.6727388940001,-117.981365256,155,"8422 CLARKDALE DRIVE, HUNTINGTON BEACH, CA, 92646","Match","Exact","8422 CLARKDALE DR, HUNTINGTON BEACH, CA, 92646",144020476,"R"
301656,"8422 HAIGHT RD","BARKER","NY",14012,43.3365970130001,-78.5704863019999,156,"8422 HAIGHT RD, BARKER, NY, 14012","Match","Exact","8422 HAIGHT RD, BARKER, NY, 14012",48682237,"R"
301657,"8422 MASTERS COURT","ALEXANDRIA","VA",22308,38.7276268250001,-77.0666670529999,157,"8422 MASTERS COURT, ALEXANDRIA, VA, 22308","Match","Exact","8422 MASTERS CT, ALEXANDRIA, VA, 22308",75991241,"R"
301658,"8422 WEST 78TH CIRCLE","ARVADA","CO",80005,39.836697186,-105.09280037,158,"8422 WEST 78TH CIRCLE, ARVADA, CO, 80005","Match","Exact","8422 W 78TH CIR, ARVADA, CO, 80005",177282947,"R"
301659,"8423 EAST HATCHERY ROAD","SYRACUSE","IN",46567,41.375676378,-85.684188569,159,"8423 EAST HATCHERY ROAD, SYRACUSE, IN, 46567","Match","Exact","8423 E HATCHERY RD, SYRACUSE, IN, 46567",7915149,"L"
301660,"8423 HEARTH SUITE 31","HOUSTON","TX",77054,29.6816845810001,-95.419136556,160,"8423 HEARTH SUITE 31, HOUSTON, TX, 77054","Match","Non_Exact","8423 HEARTH DR, HOUSTON, TX, 77054",641840935,"L"
301661,"8423 LULLABY LANE","PANORAMA CITY","CA",91402,34.223713919,-118.445124397,161,"8423 LULLABY LANE, PANORAMA CITY, CA, 91402","Match","Exact","8423 LULLABY LN, PANORAMA CITY, CA, 91402",141550134,"L"
301662,"8423 NORWOOD PLACE","ROSEMEAD","CA",91770,34.0759487190001,-118.085984556,162,"8423 NORWOOD PLACE, ROSEMEAD, CA, 91770","Match","Exact","8423 NORWOOD PL, ROSEMEAD, CA, 91770",141640887,"L"
301663,"8423 TARAGLEN COURT","RICHMOND","TX",77407,29.682779833,-95.681611155,163,"8423 TARAGLEN COURT, RICHMOND, TX, 77407","Match","Exact","8423 TARAGLEN CT, RICHMOND, TX, 77407",623754330,"R"
301664,"8423 VICKSBURG RD","SPRING HILL","FL",34608,28.450590192,-82.577688172,164,"8423 VICKSBURG RD, SPRING HILL, FL, 34608","Match","Exact","8423 VICKSBURG RD, SPRING HILL, FL, 34608",85432878,"L"
301665,"8424 213TH PL NE","REDMOND","WA",98053,47.678181104,-122.055224427,165,"8424 213TH PL NE, REDMOND, WA, 98053","Match","Exact","8424 213TH PL NE, REDMOND, WA, 98053",186920867,"L"
301666,"8424 26TH AVE SW B","SEATTLE","WA",98106,47.5279514600001,-122.365824362,166,"8424 26TH AVE SW B, SEATTLE, WA, 98106","Match","Exact","8424 26TH AVE SW, SEATTLE, WA, 98106",186591127,"L"
301667,"8424 DUNPHY COURT","LAS VEGAS","NV",89145,36.1718537310001,-115.275635585,167,"8424 DUNPHY COURT, LAS VEGAS, NV, 89145","Match","Exact","8424 DUNPHY CT, LAS VEGAS, NV, 89145",201858131,"R"
301668,"8424 E MEADOW LAKE DRIVE","SNOHOMISH","WA",98290,47.920832902,-121.966515355,168,"8424 E MEADOW LAKE DRIVE, SNOHOMISH, WA, 98290","Match","Exact","8424 E MEADOW LAKE DR, SNOHOMISH, WA, 98290",633323174,"L"
301669,"8424 E OLD SPANISH TRAIL","TUCSON","AZ",85710,32.2201847870001,-110.812242886,169,"8424 E OLD SPANISH TRAIL, TUCSON, AZ, 85710","Match","Exact","8424 E OLD SPANISH TRL, TUCSON, AZ, 85710",648146762,"R"
301670,"8424 ETIENNE COVE","AUSTIN","TX",78759,30.375034586,-97.746539825,170,"8424 ETIENNE COVE, AUSTIN, TX, 78759","Match","Exact","8424 ETIENNE COVE, AUSTIN, TX, 78759",641872261,"L"
301671,"8424 HOOPER AVENUE","LOS ANGELES","CA",90001,33.9623281410001,-118.253962135,171,"8424 HOOPER AVENUE, LOS ANGELES, CA, 90001","Match","Exact","8424 HOOPER AVE, LOS ANGELES, CA, 90001",141671203,"L"
301672,"8424 MARTY","OVERLAND PARK","KS",66212,38.9762078960001,-94.670014635,172,"8424 MARTY, OVERLAND PARK, KS, 66212","Match","Non_Exact","8424 MARTY ST, OVERLAND PARK, KS, 66212",91276027,"R"
301673,"8424 OLDE STONEGATE LN","MINT HILL","NC",28227,35.1962474100001,-80.659481377,173,"8424 OLDE STONEGATE LN, MINT HILL, NC, 28227","Match","Exact","8424 OLDE STONEGATE LN, MINT HILL, NC, 28227",618152978,"R"
301674,"8424 OLIVET COURT","SACRAMENTO","CA",95826,38.5548298040001,-121.396119071,174,"8424 OLIVET COURT, SACRAMENTO, CA, 95826","Match","Exact","8424 OLIVET CT, SACRAMENTO, CA, 95826",133338516,"R"
301675,"8424 SANTA MONICA BOULEVARD A258","WEST HOLLYWOOD","CA",90069,34.090594595,-118.373468945,175,"8424 SANTA MONICA BOULEVARD A258, WEST HOLLYWOOD, CA, 90069","Match","Exact","8424 SANTA MONICA BLVD, W HOLLYWOOD, CA, 90069",640415822,"L"
301676,"8425 40TH ST W","UNIVERSITY PLACE","WA",98466,47.220718961,-122.548920421,176,"8425 40TH ST W, UNIVERSITY PLACE, WA, 98466","Match","Exact","8425 40TH ST W, UNIVERSITY PLACE, WA, 98466",638575298,"R"
301677,"8425 BAY CREST DRIVE","LAS VEGAS","NV",89128,36.2070455750001,-115.276224492,177,"8425 BAY CREST DRIVE, LAS VEGAS, NV, 89128","Match","Exact","8425 BAY CREST DR, LAS VEGAS, NV, 89128",201917329,"R"
301678,"8425 BRIDGEWAY DRIVE  APT 2D","FORT WAYNE","IN",46816,41.00713002,-85.121722334,178,"8425 BRIDGEWAY DRIVE  APT 2D, FORT WAYNE, IN, 46816","Match","Exact","8425 BRIDGEWAY DR, FORT WAYNE, IN, 46816",6398864,"R"
301679,"8425 KATIE ROAD","CLINTON","IL",61727,NA,NA,179,"8425 KATIE ROAD, CLINTON, IL, 61727","No_Match",NA,NA,NA,NA
301680,"8425 LEISHEAR RD","LAUREL","MD",20723,39.1394874110001,-76.8771484379999,180,"8425 LEISHEAR RD, LAUREL, MD, 20723","Match","Exact","8425 LEISHEAR RD, LAUREL, MD, 20723",619527204,"L"
301681,"8425 N 107TH STREET UNIT 307","MILWAUKEE","WI",53224,43.1707435540001,-88.044312732,181,"8425 N 107TH STREET UNIT 307, MILWAUKEE, WI, 53224","Match","Non_Exact","8425 N 107TH ST, MILWAUKEE, WI, 53224",650137271,"L"
301682,"8425 NW 31ST AVENUE","MIAMI","FL",33147,25.8508810170001,-80.248427701,182,"8425 NW 31ST AVENUE, MIAMI, FL, 33147","Match","Exact","8425 NW 31ST AVE, MIAMI, FL, 33147",116000745,"R"
301683,"8425 ROSEMONT CIRCLE","ALEXANDRIA","VA",22309,38.727574512,-77.124530753,183,"8425 ROSEMONT CIRCLE, ALEXANDRIA, VA, 22309","Match","Exact","8425 ROSEMONT CIR, ALEXANDRIA, VA, 22309",76022315,"L"
301684,"8425 STREAMVIEW DRIVE - APARTMENT E","HUNTERSVILLE","NC",28078,35.4417289200001,-80.885046093,184,"8425 STREAMVIEW DRIVE - APARTMENT E, HUNTERSVILLE, NC, 28078","Match","Exact","8425 STREAMVIEW DR, HUNTERSVILLE, NC, 28078",70559596,"L"
301685,"8425 WILLISTON ROAD","WILLISTON","VT",5495,44.4363094080001,-73.062512768,185,"8425 WILLISTON ROAD, WILLISTON, VT, 5495","Match","Exact","8425 WILLISTON RD, WILLISTON, VT, 05495",135830523,"R"
301686,"8426 E SHEA BLVD","SCOTTSDALE","AZ",85260,33.582032785,-111.899314224,186,"8426 E SHEA BLVD, SCOTTSDALE, AZ, 85260","Match","Exact","8426 E SHEA BLVD, SCOTTSDALE, AZ, 85260",642851241,"L"
301687,"8426 HILLS LANE","LAUREL","DE",19956,38.5212026720001,-75.602571767,187,"8426 HILLS LANE, LAUREL, DE, 19956","Match","Exact","8426 HILLS LN, LAUREL, DE, 19956",106135296,"L"
301688,"8426 ISLAND PALM CIRCLE","ORLANDO","FL",32835,28.5241363870001,-81.501432816,188,"8426 ISLAND PALM CIRCLE, ORLANDO, FL, 32835","Match","Exact","8426 ISLAND PALM CIR, ORLANDO, FL, 32835",94328025,"R"
301689,"8426 JACKSON CREEK BEND LANE","HUMBLE","TX",77396,29.9253588030001,-95.2603419499999,189,"8426 JACKSON CREEK BEND LANE, HUMBLE, TX, 77396","Match","Exact","8426 JACKSON CREEK BEND LN, HUMBLE, TX, 77396",627952321,"L"
301690,"8426 KERMIT LAFEVER RD","BAXTER","TN",38544,36.0740548150001,-85.568757375,190,"8426 KERMIT LAFEVER RD, BAXTER, TN, 38544","Match","Exact","8426 KERMIT LAFEVER RD, BAXTER, TN, 38544",606762030,"R"
301691,"8426 PICKERING STREET","PHILADELPHIA","PA",19150,40.080732901,-75.1730659359999,191,"8426 PICKERING STREET, PHILADELPHIA, PA, 19150","Match","Non_Exact","8426 PICKERING AVE, PHILADELPHIA, PA, 19150",131394890,"L"
301692,"8426 VERANO STREET","NAVARRE","FL",32566,30.4222118380001,-86.871979158,192,"8426 VERANO STREET, NAVARRE, FL, 32566","Match","Exact","8426 VERANO ST, NAVARRE, FL, 32566",74569472,"L"
301693,"8426 VINE MAPLE WAY","INDIANAPOLIS","IN",46278,39.8943295810001,-86.311829995,193,"8426 VINE MAPLE WAY, INDIANAPOLIS, IN, 46278","Match","Exact","8426 VINE MAPLE WAY, INDIANAPOLIS, IN, 46278",628835497,"R"
301694,"8427 BENELLI COURT","NAPLES","FL",34114,26.0771547910001,-81.68277955,194,"8427 BENELLI COURT, NAPLES, FL, 34114","Match","Exact","8427 BENELLI CT, NAPLES, FL, 34114",640855719,"R"
301695,"8427 BONNER DRIVE","HOUSTON","TX",77017,29.6854955520001,-95.2582179089999,195,"8427 BONNER DRIVE, HOUSTON, TX, 77017","Match","Exact","8427 BONNER DR, HOUSTON, TX, 77017",96092947,"L"
301696,"8427 CANDLEWOOD COVE TRAIL","JACKSONVILLE","FL",32244,30.197563583,-81.7599295369999,196,"8427 CANDLEWOOD COVE TRAIL, JACKSONVILLE, FL, 32244","Match","Exact","8427 CANDLEWOOD COVE TRL, JACKSONVILLE, FL, 32244",640963415,"R"
301697,"8427 KEMP CT","DUBUQUE","IA",52003,42.4289489880001,-90.65447951,197,"8427 KEMP CT, DUBUQUE, IA, 52003","Match","Exact","8427 KEMP CT, DUBUQUE, IA, 52003",650192794,"R"
301698,"8427 LAKE OTIS PARKWAY","ANCHORAGE","AK",99507,61.1444509,-149.834133505,198,"8427 LAKE OTIS PARKWAY, ANCHORAGE, AK, 99507","Match","Exact","8427 LAKE OTIS PKWY, ANCHORAGE, AK, 99507",647160855,"L"
301699,"8427 REDHEART ST","ARLINGTON","FL",76002,NA,NA,199,"8427 REDHEART ST, ARLINGTON, FL, 76002","No_Match",NA,NA,NA,NA
301700,"8427 TAYLOR STREET","ZEELAND","MI",49464,42.9288345240001,-85.9929161599999,200,"8427 TAYLOR STREET, ZEELAND, MI, 49464","Match","Exact","8427 TAYLOR ST, ZEELAND, MI, 49464",71104863,"R"
301701,"8428 ALAMEDA PARK DRIVE","ELK GROVE","CA",95624,38.4514290560001,-121.356740895,201,"8428 ALAMEDA PARK DRIVE, ELK GROVE, CA, 95624","Match","Exact","8428 ALAMEDA PARK DR, ELK GROVE, CA, 95624",133386962,"L"
301702,"8428 FORT HUNT ROAD","ALEXANDRIA","VA",22308,38.7274372690001,-77.058007814,202,"8428 FORT HUNT ROAD, ALEXANDRIA, VA, 22308","Match","Exact","8428 FORT HUNT RD, ALEXANDRIA, VA, 22308",76040455,"R"
301703,"8428 GLEN EAGLE DRIVE","MANLIUS","NY",13104,43.00505443,-75.9503505009999,203,"8428 GLEN EAGLE DRIVE, MANLIUS, NY, 13104","Match","Exact","8428 GLEN EAGLE DR, MANLIUS, NY, 13104",46587701,"R"
301704,"8428 HELMSLEY COURT","FISHERS","IN",46038,39.9961058700001,-86.0185780199999,204,"8428 HELMSLEY COURT, FISHERS, IN, 46038","Match","Exact","8428 HELMSLEY CT, FISHERS, IN, 46038",627833175,"L"
301705,"8428 LADINA PLACE","FORT WORTH","TX",76131,32.8904745940001,-97.3440663659999,205,"8428 LADINA PLACE, FORT WORTH, TX, 76131","Match","Exact","8428 LADINA PL, FORT WORTH, TX, 76131",102119370,"L"
301706,"8428 NEW KINGS ROAD SUITE 4","JACKSONVILLE","FL",32219,NA,NA,206,"8428 NEW KINGS ROAD SUITE 4, JACKSONVILLE, FL, 32219","Tie",NA,NA,NA,NA
301707,"8428 SOUTH ST LAWRENCE","CHICAGO","IL",60619,41.741248537,-87.609800605,207,"8428 SOUTH ST LAWRENCE, CHICAGO, IL, 60619","Match","Non_Exact","8428 S ST LAWRENCE AVE, CHICAGO, IL, 60619",111772946,"R"
301708,"8428 SPRINGWATER CT","CINCINNATI","OH",45247,39.2273130340001,-84.6302250379999,208,"8428 SPRINGWATER CT, CINCINNATI, OH, 45247","Match","Exact","8428 SPRINGWATER CT, CINCINNATI, OH, 45247",103957763,"L"
301709,"8428 TABOR CIR","ARVADA","CO",80005,39.849648653,-105.133505392,209,"8428 TABOR CIR, ARVADA, CO, 80005","Match","Exact","8428 TABOR CIR, ARVADA, CO, 80005",177756267,"L"
301710,"8428 W 13TH STREET N","WICHITA","KS",67212,37.7087833100001,-97.440166047,210,"8428 W 13TH STREET N, WICHITA, KS, 67212","Match","Exact","8428 W 13TH ST N, WICHITA, KS, 67212",115629096,"R"
301711,"8428 WHITAKER STREET","BUENA PARK","CA",90621,33.866307625,-117.986824606,211,"8428 WHITAKER STREET, BUENA PARK, CA, 90621","Match","Exact","8428 WHITAKER ST, BUENA PARK, CA, 90621",640187744,"R"
301712,"8429 AINSWORTH ST","CHARLOTTE","NC",28216,35.340216707,-80.8680983249999,212,"8429 AINSWORTH ST, CHARLOTTE, NC, 28216","Match","Exact","8429 AINSWORTH ST, CHARLOTTE, NC, 28216",70561694,"L"
301713,"843 CLEVELAND-MASSILLON RD","AKRON","OH",44333,NA,NA,213,"843 CLEVELAND-MASSILLON RD, AKRON, OH, 44333","Tie",NA,NA,NA,NA
301714,"843 CO RD 1","PALM HARBOR","FL",34683,28.0554824050001,-82.763793526,214,"843 CO RD 1, PALM HARBOR, FL, 34683","Match","Exact","843 CO RD 1, PALM HARBOR, FL, 34683",124729248,"R"
301715,"843 COTTON BAY DR E APT 2515","WEST PALM BEACH","FL",33406,26.6647186110001,-80.10543354,215,"843 COTTON BAY DR E APT 2515, WEST PALM BEACH, FL, 33406","Match","Exact","843 COTTON BAY DR E, WEST PALM BEACH, FL, 33406",625409331,"R"
301716,"843 DEER RUN DRIVE","AMHERST","OH",44001,41.397537018,-82.19410626,216,"843 DEER RUN DRIVE, AMHERST, OH, 44001","Match","Exact","843 DEER RUN DR, AMHERST, OH, 44001",55420688,"R"
301717,"843 EAGLEPOINTE DR","NORTH SALT LAKE","UT",84054,40.826415018,-111.899076222,217,"843 EAGLEPOINTE DR, NORTH SALT LAKE, UT, 84054","Match","Exact","843 EAGLEPOINTE DR, N SALT LAKE, UT, 84054",627331437,"L"
301718,"843 EMBER DR","DURHAM","NC",27703,35.9631613510001,-78.801940628,218,"843 EMBER DR, DURHAM, NC, 27703","Match","Exact","843 EMBER DR, DURHAM, NC, 27703",614674216,"L"
301719,"843 ERIE STATION ROAD","W HENRIETTA","NY",14586,NA,NA,219,"843 ERIE STATION ROAD, W HENRIETTA, NY, 14586","No_Match",NA,NA,NA,NA
301720,"843 FAIRVIEW SUITE A1","BOWLING GREEN","KY",42101,36.991302966,-86.4330590769999,220,"843 FAIRVIEW SUITE A1, BOWLING GREEN, KY, 42101","Match","Non_Exact","843 FAIRVIEW AVE, BOWLING GREEN, KY, 42101",28011550,"L"
301721,"843 FM 2200 S","D'HANIS","TX",78850,29.3191830150001,-99.2758887749999,221,"843 FM 2200 S, D'HANIS, TX, 78850","Match","Non_Exact","843 FM 2200, D HANIS, TX, 78850",102797576,"R"
301722,"843 GENEVA SE","GRAND RAPIDS","MI",49507,42.9472074720001,-85.6480070649999,222,"843 GENEVA SE, GRAND RAPIDS, MI, 49507","Match","Non_Exact","843 GENEVA AVE SE, GRAND RAPIDS, MI, 49507",12461371,"R"
301723,"843 GRIFFITH CUTOFF","MALVERN","AR",72104,34.3640036510001,-92.770459133,223,"843 GRIFFITH CUTOFF, MALVERN, AR, 72104","Match","Exact","843 GRIFFITH CUTOFF, MALVERN, AR, 72104",635844641,"L"
301724,"843 H STREET","SALIDA","CO",81201,38.5313600870001,-106.000052342,224,"843 H STREET, SALIDA, CO, 81201","Match","Exact","843 H ST, SALIDA, CO, 81201",108244603,"R"
301725,"843 HIAWATHA PL S APT 403","SEATTLE","WA",98144,47.5952328020001,-122.309741014,225,"843 HIAWATHA PL S APT 403, SEATTLE, WA, 98144","Match","Exact","843 HIAWATHA PL S, SEATTLE, WA, 98144",186592908,"R"
301726,"843 HIAWATHA PL SOUTH  APT 417","SEATTLE","WA",98144,47.5952328020001,-122.309741014,226,"843 HIAWATHA PL SOUTH  APT 417, SEATTLE, WA, 98144","Match","Exact","843 HIAWATHA PL S, SEATTLE, WA, 98144",186592908,"R"
301727,"843 HIAWATHA PLACE S SUITE 305","SEATTLE","WA",98144,47.5952328020001,-122.309741014,227,"843 HIAWATHA PLACE S SUITE 305, SEATTLE, WA, 98144","Match","Exact","843 HIAWATHA PL S, SEATTLE, WA, 98144",186592908,"R"
301728,"843 HOPE STREET UNIT 3","PROVIDENCE","RI",2906,41.8500896240001,-71.394492062,228,"843 HOPE STREET UNIT 3, PROVIDENCE, RI, 2906","Match","Exact","843 HOPE ST, PROVIDENCE, RI, 02906",47464942,"R"
301729,"843 JOES CREEK RD","COMFORT","WV",25049,38.128497022,-81.607590881,229,"843 JOES CREEK RD, COMFORT, WV, 25049","Match","Exact","843 JOES CREEK RD, COMFORT, WV, 25049",78560406,"L"
301730,"843 KENNEDY BOULEVARD","BAYONNE","NJ",7002,NA,NA,230,"843 KENNEDY BOULEVARD, BAYONNE, NJ, 7002","No_Match",NA,NA,NA,NA
301731,"843 KENTUCKY AVE","SIGNAL MOUNTAIN","TN",37377,35.125702544,-85.3437415499999,231,"843 KENTUCKY AVE, SIGNAL MOUNTAIN, TN, 37377","Match","Exact","843 KENTUCKY AVE, SIGNAL MOUNTAIN, TN, 37377",59301427,"L"
301732,"843 LA VISTA DR","LAGUNA BEACH","CA",92651,33.543499524,-117.775921925,232,"843 LA VISTA DR, LAGUNA BEACH, CA, 92651","Match","Exact","843 LA VISTA DR, LAGUNA BEACH, CA, 92651",144068504,"L"
301733,"843 LINDA DR","JACKSONVILLE","FL",32208,30.383390723,-81.66922503,233,"843 LINDA DR, JACKSONVILLE, FL, 32208","Match","Exact","843 LINDA DR, JACKSONVILLE, FL, 32208",83893121,"R"
301734,"843 MASSACHUSETTS","LAWRENCE","KS",66044,38.968569276,-95.235916592,234,"843 MASSACHUSETTS, LAWRENCE, KS, 66044","Match","Non_Exact","843 MASSACHUSETTS ST, LAWRENCE, KS, 66044",17684025,"R"
301735,"843 MEMORIAL DRIVE","GRIFFIN","GA",30224,33.2468541200001,-84.255265379,235,"843 MEMORIAL DRIVE, GRIFFIN, GA, 30224","Match","Non_Exact","843 MEMORIAL DR, GRIFFIN, GA, 30223",23761186,"R"
301736,"843 N BLUE MARLIN DR","GILBERT","AZ",85234,33.366969672,-111.760295391,236,"843 N BLUE MARLIN DR, GILBERT, AZ, 85234","Match","Exact","843 N BLUE MARLIN DR, GILBERT, AZ, 85234",128367554,"R"
301737,"843 N CALIFORNIA AVE","CHICAGO","IL",60622,41.8967371950001,-87.69672236,237,"843 N CALIFORNIA AVE, CHICAGO, IL, 60622","Match","Exact","843 N CALIFORNIA AVE, CHICAGO, IL, 60622",605064958,"R"
301738,"843 N TRIPP","CHICAGO","IL",60651,41.8964677170001,-87.7322705019999,238,"843 N TRIPP, CHICAGO, IL, 60651","Match","Non_Exact","843 N TRIPP AVE, CHICAGO, IL, 60651",111758417,"R"
301739,"843 NEEB RD APT6","CINCINNATI","OH",45233,39.1099920360001,-84.635917654,239,"843 NEEB RD APT6, CINCINNATI, OH, 45233","Match","Exact","843 NEEB RD, CINCINNATI, OH, 45233",103918313,"L"
301740,"843 NEW BRITTON ROAD","CAROL STREAM","IL",60188,41.923753973,-88.168552114,240,"843 NEW BRITTON ROAD, CAROL STREAM, IL, 60188","Match","Exact","843 NEW BRITTON RD, CAROL STREAM, IL, 60188",112569283,"L"
301741,"843 NORTH DETROIT STREET","LOS ANGELES","CA",90046,34.0860637870001,-118.345159146,241,"843 NORTH DETROIT STREET, LOS ANGELES, CA, 90046","Match","Exact","843 N DETROIT ST, LOS ANGELES, CA, 90046",141599438,"L"
301742,"843 PROSPECT MT VERNON RD W","PROSPECT","OH",43342,40.4514188310001,-83.104886988,242,"843 PROSPECT MT VERNON RD W, PROSPECT, OH, 43342","Match","Exact","843 PROSPECT MOUNT VERNON RD W, PROSPECT, OH, 43342",12705054,"L"
301743,"843 RAMBLEWOOD DRIVE","CORAL SPRINGS","FL",33071,26.2411369640001,-80.237712237,243,"843 RAMBLEWOOD DRIVE, CORAL SPRINGS, FL, 33071","Match","Exact","843 RAMBLEWOOD DR, CORAL SPRINGS, FL, 33071",114691401,"R"
301744,"843 ROCK PILLAR ROAD","CLAYTON","NC",27520,35.555137229,-78.402361389,244,"843 ROCK PILLAR ROAD, CLAYTON, NC, 27520","Match","Exact","843 ROCK PILLAR RD, CLAYTON, NC, 27520",647181635,"L"
301745,"843 ROOSEVELT AVENUE","SECAUCUS","NJ",7094,40.7899589410001,-74.054268104,245,"843 ROOSEVELT AVENUE, SECAUCUS, NJ, 7094","Match","Exact","843 ROOSEVELT AVE, SECAUCUS, NJ, 07094",59597191,"L"
301746,"843 S MILLON ST","GASTONIA","NC",28052,35.25340169,-81.204063253,246,"843 S MILLON ST, GASTONIA, NC, 28052","Match","Exact","843 MILLON ST, GASTONIA, NC, 28052",70377596,"R"
301747,"843 S SYCAMORE ST","OTTAWA","KS",66067,38.605790787,-95.260240489,247,"843 S SYCAMORE ST, OTTAWA, KS, 66067","Match","Exact","843 S SYCAMORE ST, OTTAWA, KS, 66067",10604004,"L"
301748,"843 SIDNEY BAKER ST/SUITE 102","KERRVILLE","TX",78028,30.052245719,-99.1350662409999,248,"843 SIDNEY BAKER ST/SUITE 102, KERRVILLE, TX, 78028","Match","Non_Exact","843 SIDNEY BAKER ST, KERRVILLE, TX, 78028",176887609,"R"
301749,"843 UNIVERSITY DRIVE","TORRINGTON","CT",6790,41.8397886770001,-73.158428374,249,"843 UNIVERSITY DRIVE, TORRINGTON, CT, 6790","Match","Exact","843 UNIVERSITY DR, TORRINGTON, CT, 06790",636083800,"L"
301750,"843 VIA SILVA AVE UNIT C","SPRINGDALE","AR",72762,NA,NA,250,"843 VIA SILVA AVE UNIT C, SPRINGDALE, AR, 72762","No_Match",NA,NA,NA,NA
301751,"843 W KRISTEN CT","FARMERSVILLE","CA",93223,36.3148633430001,-119.214423448,251,"843 W KRISTEN CT, FARMERSVILLE, CA, 93223","Match","Exact","843 W KRISTEN CT, FARMERSVILLE, CA, 93223",607538344,"R"
301752,"843 WAINEE STREET PMB 681","LAHAINA","HI",96761,20.8777375720001,-156.6789828,252,"843 WAINEE STREET PMB 681, LAHAINA, HI, 96761","Match","Exact","843 WAINEE ST, LAHAINA, HI, 96761",85058551,"L"
301753,"843 WEATHERLY HILLS BLVD","KNOXVILLE","TN",37934,35.8890274460001,-84.18891625,253,"843 WEATHERLY HILLS BLVD, KNOXVILLE, TN, 37934","Match","Exact","843 WEATHERLY HILLS BLVD, KNOXVILLE, TN, 37934",645248552,"L"
301754,"8430 BATTLE PARK DR","SPOTSYLVANIA","VA",22551,38.188694997,-77.5746987859999,254,"8430 BATTLE PARK DR, SPOTSYLVANIA, VA, 22551","Match","Exact","8430 BATTLE PARK DR, SPOTSYLVANIA, VA, 22551",228785114,"L"
301755,"8430 BLUE MOUNTAIN AVENUE","BOYNTON BEACH","FL",33473,NA,NA,255,"8430 BLUE MOUNTAIN AVENUE, BOYNTON BEACH, FL, 33473","No_Match",NA,NA,NA,NA
301756,"8430 FLINT ROCK DRIVE","BOERNE","TX",78006,29.6930527210001,-98.6496962689999,256,"8430 FLINT ROCK DRIVE, BOERNE, TX, 78006","Match","Exact","8430 FLINT ROCK DR, BOERNE, TX, 78006",638591020,"R"
301757,"8430 HAEG DR","BLOOMINGTON","MN",55431,44.850426337,-93.304778257,257,"8430 HAEG DR, BLOOMINGTON, MN, 55431","Match","Exact","8430 HAEG DR, BLOOMINGTON, MN, 55431",43811234,"R"
301758,"8430 HIGHWAY BB","HUNTSVILLE","MO",65259,NA,NA,258,"8430 HIGHWAY BB, HUNTSVILLE, MO, 65259","No_Match",NA,NA,NA,NA
301759,"8430 HOLLOPETER ROAD","LEO","IN",46765,41.244532469,-85.0398109929999,259,"8430 HOLLOPETER ROAD, LEO, IN, 46765","Match","Exact","8430 HOLLOPETER RD, LEO, IN, 46765",647261615,"R"
301760,"8430 LOCKERBIE DR","BROWNSBURG","IN",46112,39.8868527110001,-86.3867005129999,260,"8430 LOCKERBIE DR, BROWNSBURG, IN, 46112","Match","Exact","8430 LOCKERBIE DR, BROWNSBURG, IN, 46112",625194569,"R"
301761,"8430 NEWBYS MILL DRIVE","CHESTERFIELD","VA",23832,37.4361928700001,-77.547991075,261,"8430 NEWBYS MILL DRIVE, CHESTERFIELD, VA, 23832","Match","Exact","8430 NEWBYS MILL DR, CHESTERFIELD, VA, 23832",616579543,"R"
301762,"8430 STACEY CIRCLE","ANCHORAGE","AK",99507,61.144567355,-149.81277466,262,"8430 STACEY CIRCLE, ANCHORAGE, AK, 99507","Match","Exact","8430 STACEY CIR, ANCHORAGE, AK, 99507",190800567,"R"
301763,"8430 STONE CHASE","SAN ANTONIO","TX",78254,29.5188720680001,-98.729343394,263,"8430 STONE CHASE, SAN ANTONIO, TX, 78254","Match","Exact","8430 STONE CHASE, SAN ANTONIO, TX, 78254",651692746,"R"
301764,"8430 VICKSBURG AVENUE","LOS ANGELES","CA",90045,33.9618174180001,-118.394457948,264,"8430 VICKSBURG AVENUE, LOS ANGELES, CA, 90045","Match","Exact","8430 VICKSBURG AVE, LOS ANGELES, CA, 90045",141579355,"L"
301765,"8430 WOODBURY CROSSING","WOODBURY","MN",55125,44.9131193740001,-92.934226678,265,"8430 WOODBURY CROSSING, WOODBURY, MN, 55125","Match","Exact","8430 WOODBURY CROSSING, WOODBURY, MN, 55125",97807255,"R"
301766,"8431 215TH AVE","BLAKESBURG","IA",52536,41.008862477,-92.572123429,266,"8431 215TH AVE, BLAKESBURG, IA, 52536","Match","Exact","8431 215TH AVE, BLAKESBURG, IA, 52536",89628526,"R"
301767,"8431 BLACKTIP AVE","LAS VEGAS","NV",89117,36.1372025220001,-115.275390572,267,"8431 BLACKTIP AVE, LAS VEGAS, NV, 89117","Match","Exact","8431 BLACKTIP AVE, LAS VEGAS, NV, 89117",641478707,"R"
301768,"8431 COMMONWEALTH AVE","BUENA PARK","CA",90621,33.8699514520001,-117.986436088,268,"8431 COMMONWEALTH AVE, BUENA PARK, CA, 90621","Match","Exact","8431 COMMONWEALTH AVE, BUENA PARK, CA, 90621",144010150,"L"
301769,"8431 E BROOKHILL DR","TUCSON","AZ",85750,32.2821014580001,-110.812732114,269,"8431 E BROOKHILL DR, TUCSON, AZ, 85750","Match","Exact","8431 E BROOKHILL DR, TUCSON, AZ, 85750",121179096,"L"
301770,"8431 HANNA ST","GILROY","CA",95020,37.019220692,-121.579702089,270,"8431 HANNA ST, GILROY, CA, 95020","Match","Exact","8431 HANNA ST, GILROY, CA, 95020",122931548,"L"
301771,"8431 KIRKVILLE DR","HOUSTON","TX",77089,29.5860002580001,-95.24736036,271,"8431 KIRKVILLE DR, HOUSTON, TX, 77089","Match","Exact","8431 KIRKVILLE DR, HOUSTON, TX, 77089",96567893,"R"
301772,"8431 MCVICKER AVE","MORTON GROVE","IL",60053,42.0342986700001,-87.777502147,272,"8431 MCVICKER AVE, MORTON GROVE, IL, 60053","Match","Exact","8431 MCVICKER AVE, MORTON GROVE, IL, 60053",639789414,"R"
301773,"8431 MOORCROFT DRIVE","DALLAS","TX",75228,32.8022833420001,-96.69772826,273,"8431 MOORCROFT DRIVE, DALLAS, TX, 75228","Match","Exact","8431 MOORCROFT DR, DALLAS, TX, 75228",102924057,"L"
301774,"8431 NEWBURGH STREET","RIVERSIDE","CA",92508,33.897970462,-117.322325021,274,"8431 NEWBURGH STREET, RIVERSIDE, CA, 92508","Match","Exact","8431 NEWBURGH ST, RIVERSIDE, CA, 92508",195083211,"R"
301775,"8431 PREAKNESS LANE","CINCINNATI","OH",45249,39.2813846880001,-84.3268839569999,275,"8431 PREAKNESS LANE, CINCINNATI, OH, 45249","Match","Exact","8431 PREAKNESS LN, CINCINNATI, OH, 45249",103950853,"L"
301776,"8432 AZUREWOOD DR","OKLAHOMA CITY","OK",73135,35.382164871,-97.4269625159999,276,"8432 AZUREWOOD DR, OKLAHOMA CITY, OK, 73135","Match","Exact","8432 AZUREWOOD DR, OKLAHOMA CITY, OK, 73135",100437505,"L"
301777,"8432 KIRKWOOD DR","LOS ANGELES","CA",90046,34.103497454,-118.374229342,277,"8432 KIRKWOOD DR, LOS ANGELES, CA, 90046","Match","Exact","8432 KIRKWOOD DR, LOS ANGELES, CA, 90046",142717061,"L"
301778,"8432 NW 107 CT APT 6","DORAL","FL",33178,25.8505587720001,-80.371071925,278,"8432 NW 107 CT APT 6, DORAL, FL, 33178","Match","Non_Exact","8432 NW 107TH CT, DORAL, FL, 33178",624614735,"L"
301779,"8432 OHARA LANE","FORT WORTH","TX",76123,32.6196549380001,-97.366063635,279,"8432 OHARA LANE, FORT WORTH, TX, 76123","Match","Exact","8432 OHARA LN, FORT WORTH, TX, 76123",647888412,"R"
301780,"8432 ROXY CIRCLE","RIVERSIDE","CA",92508,33.897545671,-117.309380576,280,"8432 ROXY CIRCLE, RIVERSIDE, CA, 92508","Match","Exact","8432 ROXY CIR, RIVERSIDE, CA, 92508",608992759,"L"
301781,"8433 9TH AVENUE SOUTH","BIRMINGHAM","AL",35206,33.566820684,-86.706677832,281,"8433 9TH AVENUE SOUTH, BIRMINGHAM, AL, 35206","Match","Exact","8433 9TH AVE S, BIRMINGHAM, AL, 35206",81586873,"R"
301782,"8433 ABBOTSBURY DRIVE","WINDERMERE","FL",34786,28.4428619610001,-81.5827207089999,282,"8433 ABBOTSBURY DRIVE, WINDERMERE, FL, 34786","Match","Exact","8433 ABBOTSBURY DR, WINDERMERE, FL, 34786",94414754,"R"
301783,"8433 FALCONE POINT WAY","VIENNA","VA",22182,NA,NA,283,"8433 FALCONE POINT WAY, VIENNA, VA, 22182","No_Match",NA,NA,NA,NA
301784,"8433 FM 1464 SUITE L 81","RICH","TX",77407,NA,NA,284,"8433 FM 1464 SUITE L 81, RICH, TX, 77407","No_Match",NA,NA,NA,NA
301785,"8433 GEORGIA AVE","SILVER SPRING","MD",20910,38.9937797900001,-77.026680139,285,"8433 GEORGIA AVE, SILVER SPRING, MD, 20910","Match","Exact","8433 GEORGIA AVE, SILVER SPRING, MD, 20910",62068138,"R"
301786,"8433 KENTON ROAD","PASADENA","MD",21122,39.1570886810001,-76.523188128,286,"8433 KENTON ROAD, PASADENA, MD, 21122","Match","Exact","8433 KENTON RD, PASADENA, MD, 21122",68165413,"L"
301787,"8433 ROSEMARY DR","RIVERSIDE","CA",92508,33.8978979070001,-117.297492053,287,"8433 ROSEMARY DR, RIVERSIDE, CA, 92508","Match","Exact","8433 ROSEMARY DR, RIVERSIDE, CA, 92508",194852807,"R"
301788,"8433 S 122ND STREET","SEATTLE","WA",98178,47.493975236,-122.226931055,288,"8433 S 122ND STREET, SEATTLE, WA, 98178","Match","Exact","8433 S 122ND ST, SEATTLE, WA, 98178",186630553,"R"
301789,"8433 SOUTHSIDE BLVD APT 901","JACKSONVILLE","FL",32256,30.2182897920001,-81.5519169729999,289,"8433 SOUTHSIDE BLVD APT 901, JACKSONVILLE, FL, 32256","Match","Exact","8433 SOUTHSIDE BLVD, JACKSONVILLE, FL, 32256",610507712,"R"
301790,"8433 SUMMERSPRINGS LN","RALEIGH","NC",27615,35.891844952,-78.6445769329999,290,"8433 SUMMERSPRINGS LN, RALEIGH, NC, 27615","Match","Non_Exact","8433 SUMMERSPRING LN, RALEIGH, NC, 27615",72564826,"L"
301791,"8433 US-12","ONSTED","MI",49265,NA,NA,291,"8433 US-12, ONSTED, MI, 49265","No_Match",NA,NA,NA,NA
301792,"8434 BOCOWOOD DR","DALLAS","TX",75228,32.802731696,-96.6986233279999,292,"8434 BOCOWOOD DR, DALLAS, TX, 75228","Match","Exact","8434 BOCOWOOD DR, DALLAS, TX, 75228",102924053,"R"
301793,"8434 BRADSHAW RD","ELK GROVE","CA",95624,38.4516887020001,-121.334703083,293,"8434 BRADSHAW RD, ELK GROVE, CA, 95624","Match","Exact","8434 BRADSHAW RD, ELK GROVE, CA, 95624",634220078,"R"
301794,"8434 CIMARRON WAY","MAPLE FALLS","WA",98266,NA,NA,294,"8434 CIMARRON WAY, MAPLE FALLS, WA, 98266","No_Match",NA,NA,NA,NA
301795,"8434 EAST VIA MONTOYA","SCOTTSDALE","AZ",85255,33.690612876,-111.897415326,295,"8434 EAST VIA MONTOYA, SCOTTSDALE, AZ, 85255","Match","Exact","8434 E VIA MONTOYA, SCOTTSDALE, AZ, 85255",128189105,"L"
301796,"8434 HIGWAY 20-26","NAMPA","ID",83687,NA,NA,296,"8434 HIGWAY 20-26, NAMPA, ID, 83687","No_Match",NA,NA,NA,NA
301797,"8434 PASEO","KANSAS CITY","MO",64131,38.973764621,-94.5673519169999,297,"8434 PASEO, KANSAS CITY, MO, 64131","Match","Non_Exact","8434 PASEO ST, KANSAS CITY, MO, 64131",91455486,"R"
301798,"8434 S KOSTNER AVE","CHICAGO","IL",60652,41.739492414,-87.731305935,298,"8434 S KOSTNER AVE, CHICAGO, IL, 60652","Match","Exact","8434 S KOSTNER AVE, CHICAGO, IL, 60652",111817135,"R"
301799,"8434 WALERGA ROAD  SUIT 1124","ANTELOPE","CA",95843,38.7219597860001,-121.3645371,299,"8434 WALERGA ROAD  SUIT 1124, ANTELOPE, CA, 95843","Match","Exact","8434 WALERGA RD, ANTELOPE, CA, 95843",133390293,"R"
301800,"8434 WYCOMBE LANE","RALEIGH","NC",27615,35.893992043,-78.638872598,300,"8434 WYCOMBE LANE, RALEIGH, NC, 27615","Match","Exact","8434 WYCOMBE LN, RALEIGH, NC, 27615",639377307,"L"
301801,"8435  REDHEART STREET","ARLINGTON","TX",76002,32.601059535,-97.087354228,301,"8435  REDHEART STREET, ARLINGTON, TX, 76002","Match","Exact","8435 REDHEART ST, ARLINGTON, TX, 76002",102188123,"L"
301802,"8435 252ND ST","BELLEROSE","NY",11426,NA,NA,302,"8435 252ND ST, BELLEROSE, NY, 11426","No_Match",NA,NA,NA,NA
301803,"8435 GEISEL LN","NASHVILL","IL",62263,38.3384524310001,-89.422472022,303,"8435 GEISEL LN, NASHVILL, IL, 62263","Match","Non_Exact","8435 GEISEL LN, NASHVILLE, IL, 62263",93157484,"L"
301804,"8435 MATEO ESCOBAR","MONTE ALTO","TX",78538,26.374760902,-97.9756483469999,304,"8435 MATEO ESCOBAR, MONTE ALTO, TX, 78538","Match","Non_Exact","8435 MATEO ESCOBAR ST, MONTE ALTO, TX, 78538",71479608,"L"
301805,"8435 PEEKSKILL LN","HOUSTON","TX",77075,29.616736873,-95.2682462,305,"8435 PEEKSKILL LN, HOUSTON, TX, 77075","Match","Exact","8435 PEEKSKILL LN, HOUSTON, TX, 77075",96094543,"L"
301806,"8435 S COTTAGE GROVE AVENUE","CHICAGO","IL",60619,41.741123224,-87.6049407529999,306,"8435 S COTTAGE GROVE AVENUE, CHICAGO, IL, 60619","Match","Exact","8435 S COTTAGE GROVE AVE, CHICAGO, IL, 60619",111773013,"L"
301807,"8435 VALLE VISTA PLACE","RANCHO CUCAMONGA","CA",91730,34.1085642630001,-117.621011106,307,"8435 VALLE VISTA PLACE, RANCHO CUCAMONGA, CA, 91730","Match","Exact","8435 VALLE VISTA PL, RANCHO CUCAMONGA, CA, 91730",144692248,"L"
301808,"8435 W HUGHES DR","TOLLESON","AZ",85353,33.425282629,-112.242554925,308,"8435 W HUGHES DR, TOLLESON, AZ, 85353","Match","Exact","8435 W HUGHES DR, TOLLESON, AZ, 85353",128863346,"L"
301809,"8435 YARROW LN","RIVERSIDE","CA",92508,33.89732438,-117.296714803,309,"8435 YARROW LN, RIVERSIDE, CA, 92508","Match","Exact","8435 YARROW LN, RIVERSIDE, CA, 92508",194837296,"R"
301810,"8436 HUNNICUT RD","DALLAS","TX",75228,32.803494673,-96.699150506,310,"8436 HUNNICUT RD, DALLAS, TX, 75228","Match","Exact","8436 HUNNICUT RD, DALLAS, TX, 75228",102924009,"R"
301811,"8436 KENBROOKE DRIVE APT 310","CHARLOTTE","NC",28262,35.3187053410001,-80.7710379219999,311,"8436 KENBROOKE DRIVE APT 310, CHARLOTTE, NC, 28262","Match","Exact","8436 KENBROOKE DR, CHARLOTTE, NC, 28262",618152556,"L"
301812,"8436 S MARYLAND","CHICAGO","IL",60619,41.741406942,-87.6037482959999,312,"8436 S MARYLAND, CHICAGO, IL, 60619","Match","Non_Exact","8436 S MARYLAND AVE, CHICAGO, IL, 60619",111773019,"R"
301813,"8436 WHITEHAVEN COURT","LORTON","VA",22079,38.694429959,-77.234380787,313,"8436 WHITEHAVEN COURT, LORTON, VA, 22079","Match","Exact","8436 WHITEHAVEN CT, LORTON, VA, 22079",619944520,"L"
301814,"8437 2ND AVE S","BIRMINGHAM","AL",35206,33.5716963470001,-86.717649662,314,"8437 2ND AVE S, BIRMINGHAM, AL, 35206","Match","Exact","8437 2ND AVE S, BIRMINGHAM, AL, 35206",81586126,"R"
301815,"8437 3R ROAD S","BEULAH","CO",81023,38.03191208,-104.945922056,315,"8437 3R ROAD S, BEULAH, CO, 81023","Match","Exact","8437 3R RD S, BEULAH, CO, 81023",105040601,"L"
301816,"8437 BELL OAKS DR UNIT 808","NEWBURGH","IN",47630,37.9759584170001,-87.403170421,316,"8437 BELL OAKS DR UNIT 808, NEWBURGH, IN, 47630","Match","Exact","8437 BELL OAKS DR, NEWBURGH, IN, 47630",617542297,"R"
301817,"8437 HOLLY LEAF DR","MCLEAN","VA",22102,38.9416135280001,-77.2383042659999,317,"8437 HOLLY LEAF DR, MCLEAN, VA, 22102","Match","Exact","8437 HOLLY LEAF DR, MCLEAN, VA, 22102",215922941,"R"
301818,"8437 LOVERS LANE","PORTAGE","MI",49002,42.1944003450001,-85.5746346019999,318,"8437 LOVERS LANE, PORTAGE, MI, 49002","Match","Exact","8437 LOVERS LN, PORTAGE, MI, 49002",12231237,"L"
301819,"8438 DIAMOND COVE CIR","ORLANDO","FL",32836,28.41609357,-81.495020256,319,"8438 DIAMOND COVE CIR, ORLANDO, FL, 32836","Match","Exact","8438 DIAMOND COVE CIR, ORLANDO, FL, 32836",94370184,"R"
301820,"8438 SANDREED CIRCLE","PARKER","CO",80134,39.563830087,-104.79643648,320,"8438 SANDREED CIRCLE, PARKER, CO, 80134","Match","Exact","8438 SANDREED CIR, PARKER, CO, 80134",130802907,"R"
301821,"8438","DOUGLASVILLE","GA",30134,NA,NA,321,"8438, DOUGLASVILLE, GA, 30134","No_Match",NA,NA,NA,NA
301822,"8439 ADELE ROAD","LAKELAND","FL",33810,28.1522309690001,-82.001953778,322,"8439 ADELE ROAD, LAKELAND, FL, 33810","Match","Exact","8439 ADELE RD, LAKELAND, FL, 33810",614458415,"L"
301823,"8439 ISLAND PINES PL","MAINEVILLE","OH",45039,39.3124920500001,-84.27054815,323,"8439 ISLAND PINES PL, MAINEVILLE, OH, 45039","Match","Exact","8439 ISLAND PINES PL, MAINEVILLE, OH, 45039",159048582,"R"
301824,"8439 JACQUELIN CT","JESSUP","MD",20794,NA,NA,324,"8439 JACQUELIN CT, JESSUP, MD, 20794","No_Match",NA,NA,NA,NA
301825,"8439 OAK BUSH TER","COLUMBIA","MD",21045,39.2066268930001,-76.804933637,325,"8439 OAK BUSH TER, COLUMBIA, MD, 21045","Match","Exact","8439 OAK BUSH TER, COLUMBIA, MD, 21045",158934459,"L"
301826,"8439 W CATHERINE AVE 311","CHICAGO","IL",60656,41.9774467350001,-87.8396815529999,326,"8439 W CATHERINE AVE 311, CHICAGO, IL, 60656","Match","Non_Exact","8439 W CATHERINE AVE, CHICAGO, IL, 60656",111746029,"R"
301827,"8439 WEST SAINT JOHN ROAD","PEORIA","AZ",85382,33.646047351,-112.241119582,327,"8439 WEST SAINT JOHN ROAD, PEORIA, AZ, 85382","Match","Exact","8439 W SAINT JOHN RD, PEORIA, AZ, 85382",128362426,"L"
301828,"844 BRIGHTVIEW DRIVE","LAKE MARY","FL",32746,28.776939498,-81.304867778,328,"844 BRIGHTVIEW DRIVE, LAKE MARY, FL, 32746","Match","Exact","844 BRIGHTVIEW DR, LAKE MARY, FL, 32746",93772363,"R"
301829,"844 CATHCART RD","DOWELLTOWN","TN",37059,35.9836417870001,-85.911574748,329,"844 CATHCART RD, DOWELLTOWN, TN, 37059","Match","Exact","844 CATHCART RD, DOWELLTOWN, TN, 37059",632189828,"R"
301830,"844 CATHCART","DOWELLTOWN","TN",37059,35.9836417870001,-85.911574748,330,"844 CATHCART, DOWELLTOWN, TN, 37059","Match","Non_Exact","844 CATHCART RD, DOWELLTOWN, TN, 37059",632189828,"R"
301831,"844 CHESTNUT HILL AVE","ATHOL","MA",1331,42.6053458800001,-72.216462092,331,"844 CHESTNUT HILL AVE, ATHOL, MA, 1331","Match","Exact","844 CHESTNUT HILL AVE, ATHOL, MA, 01331",40078802,"L"
301832,"844 COLE CT","COVINGTON","LA",70433,30.4740740080001,-90.156581046,332,"844 COLE CT, COVINGTON, LA, 70433","Match","Exact","844 COLE CT, COVINGTON, LA, 70433",616319253,"R"
301833,"844 E 100 S","PAYSON","UT",84651,40.042494709,-111.718605882,333,"844 E 100 S, PAYSON, UT, 84651","Match","Exact","844 E 100 S, PAYSON, UT, 84651",134199891,"L"
301834,"844 E WEEPING WILLOW DRIVE","AZUSA","CA",91702,34.142808013,-117.891286137,334,"844 E WEEPING WILLOW DRIVE, AZUSA, CA, 91702","Match","Exact","844 WEEPING WILLOW DR, AZUSA, CA, 91702",614306171,"R"
301835,"844 EAST 450 NORTH","AMERICAN FORK","UT",84003,40.385635624,-111.775212435,335,"844 EAST 450 NORTH, AMERICAN FORK, UT, 84003","Match","Non_Exact","844 E 450 NORTH CIR, AMERICAN FORK, UT, 84003",134214692,"R"
301836,"844 EDMONDSON AVENUE","BALTIMORE","MD",21201,39.296135597,-76.6317443469999,336,"844 EDMONDSON AVENUE, BALTIMORE, MD, 21201","Match","Exact","844 EDMONDSON AVE, BALTIMORE, MD, 21201",206418054,"R"
301837,"844 GEORGIA CLIFF ROAD","TRYON","NC",28782,35.2168399440001,-82.281987156,337,"844 GEORGIA CLIFF ROAD, TRYON, NC, 28782","Match","Exact","844 GEORGIA CLIFF RD, TRYON, NC, 28782",44318128,"R"
301838,"844 HERSHIRE DRIVE","BETHEL PARK","PA",15102,40.304245988,-80.051789908,338,"844 HERSHIRE DRIVE, BETHEL PARK, PA, 15102","Match","Exact","844 HERSHIRE DR, BETHEL PARK, PA, 15102",51924799,"R"
301839,"844 LAKESIDE DRIVE","BRIDGEPORT","CT",6606,41.2217737510001,-73.209201487,339,"844 LAKESIDE DRIVE, BRIDGEPORT, CT, 6606","Match","Exact","844 LAKESIDE DR, BRIDGEPORT, CT, 06606",3222193,"R"
301840,"844 MCENTIRE CIRCLE","CHATSWORTH","GA",30705,34.876271038,-84.7867552449999,340,"844 MCENTIRE CIRCLE, CHATSWORTH, GA, 30705","Match","Exact","844 MCENTIRE CIR, CHATSWORTH, GA, 30705",57116704,"R"
301841,"844 MERRIFIELD SE","GRAND RAPIDS","MI",49507,42.9248080740001,-85.646558455,341,"844 MERRIFIELD SE, GRAND RAPIDS, MI, 49507","Match","Non_Exact","844 MERRIFIELD ST SE, GRAND RAPIDS, MI, 49507",12462172,"R"
301842,"844 MIAMI PLACE","BIRMINGHAM","AL",35214,33.564098433,-86.877890485,342,"844 MIAMI PLACE, BIRMINGHAM, AL, 35214","Match","Exact","844 MIAMI PL, BIRMINGHAM, AL, 35214",81594696,"L"
301843,"844 MORISSETTE WAY","VACAVILLE","CA",95687,38.3248799250001,-121.961267601,343,"844 MORISSETTE WAY, VACAVILLE, CA, 95687","Match","Exact","844 MORISSETTE WAY, VACAVILLE, CA, 95687",192545698,"R"
301844,"844 N 15TH STREET","MANITOWOC","WI",54220,44.104013282,-87.6668885019999,344,"844 N 15TH STREET, MANITOWOC, WI, 54220","Match","Exact","844 N 15TH ST, MANITOWOC, WI, 54220",147949918,"L"
301845,"844 N 4TH AVENUE","PHOENIX","AZ",85003,33.457630683,-112.078927988,345,"844 N 4TH AVENUE, PHOENIX, AZ, 85003","Match","Exact","844 N 4TH AVE, PHOENIX, AZ, 85003",128211912,"L"
301846,"844 N 6TH STREET      PO BOX 543","ATHENA","OR",97813,45.818846326,-118.485986202,346,"844 N 6TH STREET      PO BOX 543, ATHENA, OR, 97813","Match","Non_Exact","844 N 6TH ST, ATHENA, OR, 97813",610905942,"L"
301847,"844 N RAINBOW BLVD 247","LAS VEGAS","NV",89107,36.18080847,-115.242287146,347,"844 N RAINBOW BLVD 247, LAS VEGAS, NV, 89107","Match","Non_Exact","844 N RAINBOW BLVD, LAS VEGAS, NV, 89107",638295847,"R"
301848,"844 NEVIN AVE REAR","SEWICKLEY","PA",15143,40.53926742,-80.172173723,348,"844 NEVIN AVE REAR, SEWICKLEY, PA, 15143","Match","Exact","844 NEVIN AVE, SEWICKLEY, PA, 15143",51612247,"R"
301849,"844 NEWARK AVE APT 403","JERSEY CITY","NJ",7306,40.735872339,-74.067008836,349,"844 NEWARK AVE APT 403, JERSEY CITY, NJ, 7306","Match","Exact","844 NEWARK AVE, JERSEY CITY, NJ, 07306",59603917,"R"
301850,"844 OCEAN POINT ROAD","EAST BOOTHBAY","ME",4544,43.8239813160001,-69.593243649,350,"844 OCEAN POINT ROAD, EAST BOOTHBAY, ME, 4544","Match","Exact","844 OCEAN POINT RD, EAST BOOTHBAY, ME, 04544",75310980,"R"
301851,"844 OGDEN ST APARTMENT 6","DENVER","CO",80218,39.729699597,-104.975244711,351,"844 OGDEN ST APARTMENT 6, DENVER, CO, 80218","Match","Exact","844 OGDEN ST, DENVER, CO, 80218",177331527,"R"
301852,"844 OLD IRONSIDE AVENUE","FORT KNOX","KY",40121,NA,NA,352,"844 OLD IRONSIDE AVENUE, FORT KNOX, KY, 40121","No_Match",NA,NA,NA,NA
301853,"844 OLDE HICKORY RD","LANCASTER","PA",17601,40.0842921870001,-76.281597919,353,"844 OLDE HICKORY RD, LANCASTER, PA, 17601","Match","Exact","844 OLDE HICKORY RD, LANCASTER, PA, 17601",179684013,"R"
301854,"844 PROSPERITY FARMS ROAD","NORTH PALM BEACH","FL",33408,26.824548996,-80.072954728,354,"844 PROSPERITY FARMS ROAD, NORTH PALM BEACH, FL, 33408","Match","Exact","844 PROSPERITY FARMS RD, NORTH PALM BEACH, FL, 33408",115275263,"R"
301855,"844 RATTLER ROAD","SARATOGA SPRINGS","UT",84045,40.379715823,-111.937175877,355,"844 RATTLER ROAD, SARATOGA SPRINGS, UT, 84045","Match","Exact","844 RATTLER RD, SARATOGA SPRINGS, UT, 84045",629753439,"L"
301856,"844 REECE RD","SEVERN","MD",21144,39.1371493670001,-76.690736671,356,"844 REECE RD, SEVERN, MD, 21144","Match","Exact","844 REECE RD, SEVERN, MD, 21144",617604678,"R"
301857,"844 REGULO PLACE  SUITE 2338","CHULA VISTA","CA",91910,32.6415126700001,-117.009325423,357,"844 REGULO PLACE  SUITE 2338, CHULA VISTA, CA, 91910","Match","Exact","844 REGULO PL, CHULA VISTA, CA, 91910",195749055,"L"
301858,"844 S LINCOLN STREET","ARLINGTON","VA",22204,38.863385835,-77.093729549,358,"844 S LINCOLN STREET, ARLINGTON, VA, 22204","Match","Exact","844 S LINCOLN ST, ARLINGTON, VA, 22204",76470541,"R"
301859,"844 S VIRGINIA AVE","MERCEDES","TX",78570,26.1433796100001,-97.915803113,359,"844 S VIRGINIA AVE, MERCEDES, TX, 78570","Match","Exact","844 SOUTH VIRGINIA AVE, MERCEDES, TX, 78570",71482791,"R"
301860,"844 SHEFFIELD ROAD","SHEFFIELD LAKE","OH",44054,41.4838625680001,-82.109182028,360,"844 SHEFFIELD ROAD, SHEFFIELD LAKE, OH, 44054","Match","Exact","844 SHEFFIELD RD, SHEFFIELD LK, OH, 44054",55407414,"R"
301861,"844 SHENANDOAN SHORES","FRONT ROYAL","VA",22630,NA,NA,361,"844 SHENANDOAN SHORES, FRONT ROYAL, VA, 22630","No_Match",NA,NA,NA,NA
301862,"844 SOUTH HUMPHREY AVENUE","OAK PARK","IL",60304,41.8737538070001,-87.775649782,362,"844 SOUTH HUMPHREY AVENUE, OAK PARK, IL, 60304","Match","Exact","844 S HUMPHREY AVE, OAK PARK, IL, 60304",111794897,"L"
301863,"844 TENDERFOOT DRIVE","LARKSPUR","CO",80118,39.2486120080001,-104.901869756,363,"844 TENDERFOOT DRIVE, LARKSPUR, CO, 80118","Match","Exact","844 TENDERFOOT DR, LARKSPUR, CO, 80118",130847202,"L"
301864,"844 TULIP AVE","EVANSVILLE","IN",47711,38.00612117,-87.550575131,364,"844 TULIP AVE, EVANSVILLE, IN, 47711","Match","Exact","844 TULIP AVE, EVANSVILLE, IN, 47711",39783891,"L"
301865,"844 VALE VIEW DRIVE","VISTA","CA",92081,33.185271071,-117.246057387,365,"844 VALE VIEW DRIVE, VISTA, CA, 92081","Match","Exact","844 VALE VIEW DR, VISTA, CA, 92081",651717211,"L"
301866,"844 W THIRD ST","SAN PEDRO","CA",90731,33.741508846,-118.295540194,366,"844 W THIRD ST, SAN PEDRO, CA, 90731","Match","Exact","844 W 3RD ST, SAN PEDRO, CA, 90731",141689652,"R"
301867,"844 WASHINGTON ST N 400","TWIN FALLS","ID",83301,42.576497336,-114.479853612,367,"844 WASHINGTON ST N 400, TWIN FALLS, ID, 83301","Match","Exact","844 WASHINGTON ST N, TWIN FALLS, ID, 83301",118789897,"R"
301868,"844 WHITLOCK AVENUE APT 105","JACKSONVILLE","FL",32211,30.32832975,-81.5956451229999,368,"844 WHITLOCK AVENUE APT 105, JACKSONVILLE, FL, 32211","Match","Exact","844 WHITLOCK AVE, JACKSONVILLE, FL, 32211",83903405,"L"
301869,"844 WINTON DRIVE","PETALUMA","CA",94954,38.2628345860001,-122.647182253,369,"844 WINTON DRIVE, PETALUMA, CA, 94954","Match","Exact","844 WINTON DR, PETALUMA, CA, 94954",636416016,"R"
301870,"844 WOODLAND AVENUE","CAMDEN","NJ",8104,39.915460868,-75.111491144,370,"844 WOODLAND AVENUE, CAMDEN, NJ, 8104","Match","Exact","844 WOODLAND AVE, CAMDEN, NJ, 08104",134346486,"R"
301871,"8440 FOUNTAIN AVENUE SUITE 204","WEST HOLLYWOOD","CA",90069,34.0931545190001,-118.374367392,371,"8440 FOUNTAIN AVENUE SUITE 204, WEST HOLLYWOOD, CA, 90069","Match","Non_Exact","8440 W FOUNTAIN AVE, W HOLLYWOOD, CA, 90069",141597944,"L"
301872,"8440 GRACE STREET","FRISCO","TX",75034,NA,NA,372,"8440 GRACE STREET, FRISCO, TX, 75034","No_Match",NA,NA,NA,NA
301873,"8440 HAMDEN RD","JACKSONVILLE","FL",32244,30.193371804,-81.791392561,373,"8440 HAMDEN RD, JACKSONVILLE, FL, 32244","Match","Exact","8440 HAMDEN RD, JACKSONVILLE, FL, 32244",83931736,"R"
301874,"8440 JEFFERSON HIGHWAY SUITE 301","BATON ROUGE","LA",70809,30.419192911,-91.097097802,374,"8440 JEFFERSON HIGHWAY SUITE 301, BATON ROUGE, LA, 70809","Match","Exact","8440 JEFFERSON HWY, BATON ROUGE, LA, 70809",92208020,"R"
301875,"8440 JEFFERSON HWY SUITE 100","BATON ROUGE","LA",70809,30.419192911,-91.097097802,375,"8440 JEFFERSON HWY SUITE 100, BATON ROUGE, LA, 70809","Match","Exact","8440 JEFFERSON HWY, BATON ROUGE, LA, 70809",92208020,"R"
301876,"8440 MIDLAN ROAD","COLUMBUS","GA",31820,NA,NA,376,"8440 MIDLAN ROAD, COLUMBUS, GA, 31820","No_Match",NA,NA,NA,NA
301877,"8440 N ROSALIND AVENUE","CAPE CANAVERAL","FL",32920,28.3936875630001,-80.599847842,377,"8440 N ROSALIND AVENUE, CAPE CANAVERAL, FL, 32920","Match","Exact","8440 ROSALIND AVE, CAPE CANAVERAL, FL, 32920",93931134,"R"
301878,"8440 N SAM HOUSTON PKWY E  APT 817","HUMBLE","TX",77396,29.936663869,-95.263785693,378,"8440 N SAM HOUSTON PKWY E  APT 817, HUMBLE, TX, 77396","Match","Non_Exact","8440 N SAM HOUSTON PKWY E, HUMBLE, TX, 77396",638182491,"R"
301879,"8440 OLD LEONARDTOWN ROAD STE 211","HUGHESVILLE","MD",20637,38.5316887380001,-76.783312864,379,"8440 OLD LEONARDTOWN ROAD STE 211, HUGHESVILLE, MD, 20637","Match","Non_Exact","8440 OLD LEONARDTOWN RD, HUGHESVILLE, MD, 20637",647428097,"R"
301880,"8440 SO MILITARY TRAIL  UNIT 217","BOYNTON BEACH","FL",33436,26.5522866950001,-80.1209016339999,380,"8440 SO MILITARY TRAIL  UNIT 217, BOYNTON BEACH, FL, 33436","Match","Non_Exact","8440 S MILITARY TRL, BOYNTON BEACH, FL, 33436",640587933,"L"
301881,"8440 SOUTH PIONEER WAY","LAS VEGAS","NV",89113,36.034834609,-115.256442778,381,"8440 SOUTH PIONEER WAY, LAS VEGAS, NV, 89113","Match","Exact","8440 S PIONEER WAY, LAS VEGAS, NV, 89113",201922058,"R"
301882,"8441 60TH AVENUE","MIDDLE VILLAGE","NY",11379,NA,NA,382,"8441 60TH AVENUE, MIDDLE VILLAGE, NY, 11379","No_Match",NA,NA,NA,NA
301883,"8441 GEORGIAN COURT","MANASSAS","VA",20110,38.7714754880001,-77.483220826,383,"8441 GEORGIAN COURT, MANASSAS, VA, 20110","Match","Exact","8441 GEORGIAN CT, MANASSAS, VA, 20110",76515432,"L"
301884,"8441 HIGHWAY 41","CHARLESTON","AR",72933,NA,NA,384,"8441 HIGHWAY 41, CHARLESTON, AR, 72933","No_Match",NA,NA,NA,NA
301885,"8441 IVES ST","PARAMOUNT","CA",90723,33.8936917020001,-118.152720681,385,"8441 IVES ST, PARAMOUNT, CA, 90723","Match","Exact","8441 IVES ST, PARAMOUNT, CA, 90723",141698500,"L"
301886,"8441 LASALLE BLVD","DETROIT","MI",48206,NA,NA,386,"8441 LASALLE BLVD, DETROIT, MI, 48206","No_Match",NA,NA,NA,NA
301887,"8441 S SAINT LAWRENCE AVENUE","CHICAGO","IL",60619,41.740961079,-87.609781971,387,"8441 S SAINT LAWRENCE AVENUE, CHICAGO, IL, 60619","Match","Exact","8441 S ST LAWRENCE AVE, CHICAGO, IL, 60619",111772946,"L"
301888,"8441 SERENA CREEK AVENUE","BOYNTON BEACH","FL",33473,26.517894385,-80.179591381,388,"8441 SERENA CREEK AVENUE, BOYNTON BEACH, FL, 33473","Match","Exact","8441 SERENA CREEK AVE, BOYNTON BEACH, FL, 33473",647672261,"L"
301889,"8441 SW 114TH STREET","MIAMI","FL",33156,25.6642901640001,-80.331393135,389,"8441 SW 114TH STREET, MIAMI, FL, 33156","Match","Exact","8441 SW 114TH ST, MIAMI, FL, 33156",116057171,"R"
301890,"8442 BISHOP RD","TINLEY PARK","IL",60487,41.5704688750001,-87.825101691,390,"8442 BISHOP RD, TINLEY PARK, IL, 60487","Match","Exact","8442 BISHOP RD, TINLEY PARK, IL, 60487",112218699,"R"
301891,"8442 CLINT DRIVE","BELTON","MO",64012,38.8129639630001,-94.493975441,391,"8442 CLINT DRIVE, BELTON, MO, 64012","Match","Exact","8442 CLINT DR, BELTON, MO, 64012",100917275,"L"
301892,"8442 MAYFIELD ROAD","CHESTERLAND","OH",44026,41.52217096,-81.33999825,392,"8442 MAYFIELD ROAD, CHESTERLAND, OH, 44026","Match","Exact","8442 MAYFIELD RD, CHESTERLAND, OH, 44026",137433185,"L"
301893,"8442 SE 39TH ST","MERCER ISLAND","WA",98040,47.5757795110001,-122.226108971,393,"8442 SE 39TH ST, MERCER ISLAND, WA, 98040","Match","Exact","8442 SE 39TH ST, MERCER ISLAND, WA, 98040",239764047,"L"
301894,"8442 SW MAPLERIDGE DRIVE","PORTLAND","OR",97225,45.5166626480001,-122.763634318,394,"8442 SW MAPLERIDGE DRIVE, PORTLAND, OR, 97225","Match","Exact","8442 SW MAPLERIDGE DR, PORTLAND, OR, 97225",605206131,"R"
301895,"8443 CALIFORNIA CITY BLVD","CALIFORNIA CITY","CA",93505,35.125851819,-117.977884044,395,"8443 CALIFORNIA CITY BLVD, CALIFORNIA CITY, CA, 93505","Match","Exact","8443 CALIFORNIA CITY BLVD, CALIF CITY, CA, 93505",109017090,"L"
301896,"8443 E PLENTYWOOD ROAD","BENTONVILLE","AR",72712,36.4256640070001,-94.194535552,396,"8443 E PLENTYWOOD ROAD, BENTONVILLE, AR, 72712","Match","Exact","8443 E PLENTYWOOD RD, BENTONVILLE, AR, 72712",47896432,"R"
301897,"8443 NOTTINGHILL DRIVE","INDIANAPOLIS","IN",46234,39.769393914,-86.310793218,397,"8443 NOTTINGHILL DRIVE, INDIANAPOLIS, IN, 46234","Match","Exact","8443 NOTTINGHILL DR, INDIANAPOLIS, IN, 46234",108021332,"L"
301898,"8443 SWISS CHARD CIRCLE","LAND O LAKES","FL",34637,28.2823138430001,-82.459977486,398,"8443 SWISS CHARD CIRCLE, LAND O LAKES, FL, 34637","Match","Exact","8443 SWISS CHARD CIR, LAND O LAKES, FL, 34637",644563413,"L"
301899,"8443 W ROSEMONTE DR","PEORIA","AZ",85382,33.6556154580001,-112.241520302,399,"8443 W ROSEMONTE DR, PEORIA, AZ, 85382","Match","Exact","8443 W ROSEMONTE DR, PEORIA, AZ, 85382",128383812,"R"
301900,"8444 199TH AVE","BRISTOL","WI",53104,42.5552466030001,-88.049189941,400,"8444 199TH AVE, BRISTOL, WI, 53104","Match","Exact","8444 199TH AVE, BRISTOL, WI, 53104",79797665,"R"
301901,"8444 CYPRESS WOOD DR","COLORADO SPRINGS","CO",80927,38.9285031040001,-104.671591711,401,"8444 CYPRESS WOOD DR, COLORADO SPRINGS, CO, 80927","Match","Exact","8444 CYPRESS WOOD DR, COLORADO SPRINGS, CO, 80927",633406451,"L"
301902,"8444 HENSINGERSVILLE ROAD","ALBURTIS","PA",18011,40.4961364320001,-75.5992630059999,402,"8444 HENSINGERSVILLE ROAD, ALBURTIS, PA, 18011","Match","Exact","8444 HENSINGERSVILLE RD, ALBURTIS, PA, 18011",80776629,"R"
301903,"8444 SHADOW COURT","CORAL SPRINGS","FL",33071,26.2351180320001,-80.2387309119999,403,"8444 SHADOW COURT, CORAL SPRINGS, FL, 33071","Match","Exact","8444 SHADOW CT, CORAL SPRINGS, FL, 33071",114751092,"R"
301904,"8444 WEST CRABTREE ROAD","HIHSON","TN",37343,35.20445855,-85.1888072,404,"8444 WEST CRABTREE ROAD, HIHSON, TN, 37343","Match","Non_Exact","8444 W CRABTREE RD, HIXSON, TN, 37343",641165426,"R"
301905,"8444 WEST WILSON AVENUE UNIT 311","CHICAGO","IL",60656,41.9637328530001,-87.8392301809999,405,"8444 WEST WILSON AVENUE UNIT 311, CHICAGO, IL, 60656","Match","Exact","8444 W WILSON AVE, CHICAGO, IL, 60656",639813759,"R"
301906,"8445 ALISTER BLVD W","PALM BEACH GARDENS","FL",33418,26.807146366,-80.136857966,406,"8445 ALISTER BLVD W, PALM BEACH GARDENS, FL, 33418","Match","Exact","8445 ALISTER BLVD W, PALM BEACH GARDENS, FL, 33418",115546383,"R"
301907,"8445 ALLISON WAY","BEAUMONT","TX",77707,30.0727147420001,-94.189979576,407,"8445 ALLISON WAY, BEAUMONT, TX, 77707","Match","Exact","8445 ALLISON WAY, BEAUMONT, TX, 77707",73870535,"L"
301908,"8445 BROOK LAKE LN","DOUGLASVILLE","GA",30134,33.7471683200001,-84.764187578,408,"8445 BROOK LAKE LN, DOUGLASVILLE, GA, 30134","Match","Exact","8445 BROOK LAKE LN, DOUGLASVILLE, GA, 30134",618468316,"R"
301909,"8445 CAMBRILS AVE","LAS VEGAS","NV",89178,36.0112113970001,-115.2766281,409,"8445 CAMBRILS AVE, LAS VEGAS, NV, 89178","Match","Exact","8445 CAMBRILS AVE, LAS VEGAS, NV, 89178",627343381,"L"
301910,"8445 CORY CT","BOSIE","ID",83704,43.62788483,-116.287210294,410,"8445 CORY CT, BOSIE, ID, 83704","Match","Non_Exact","8445 W CORY CT, BOISE, ID, 83704",117857452,"L"
301911,"8445 LEES RIDGE ROAD","WARRENTON","VA",20186,38.687303424,-77.80534263,411,"8445 LEES RIDGE ROAD, WARRENTON, VA, 20186","Match","Exact","8445 LEES RIDGE RD, WARRENTON, VA, 20186",146297821,"R"
301912,"8445 MISTY OAK WAY","ANTELOPE","CA",95843,38.722905573,-121.357011259,412,"8445 MISTY OAK WAY, ANTELOPE, CA, 95843","Match","Exact","8445 MISTY OAK WAY, ANTELOPE, CA, 95843",133372410,"L"
301913,"8445 NW 62 PLACE","PARKLAND","FL",33067,26.3075354600001,-80.239938221,413,"8445 NW 62 PLACE, PARKLAND, FL, 33067","Match","Exact","8445 NW 62ND PL, PARKLAND, FL, 33067",114769066,"R"
301914,"8445 RAINIER AVE S","SEATTLE","WA",98118,47.527447082,-122.269992667,414,"8445 RAINIER AVE S, SEATTLE, WA, 98118","Match","Exact","8445 RAINIER AVE S, SEATTLE, WA, 98118",186597043,"R"
301915,"8445 SW 14813876 SW 56 STREET","MIAMI","FM",33175,NA,NA,415,"8445 SW 14813876 SW 56 STREET, MIAMI, FM, 33175","No_Match",NA,NA,NA,NA
301916,"8446 E 49TH PL","DENVER","CO",80238,39.7870088290001,-104.889860528,416,"8446 E 49TH PL, DENVER, CO, 80238","Match","Exact","8446 E 49TH PL, DENVER, CO, 80238",641514925,"R"
301917,"8446 MAURER ROAD  APT 928","LENEXA","KS",66219,38.9751171020001,-94.771486114,417,"8446 MAURER ROAD  APT 928, LENEXA, KS, 66219","Match","Exact","8446 MAURER RD, LENEXA, KS, 66219",91337152,"R"
301918,"8446 RUCKMAN AVENUE","JACKSONVILLE","FL",32221,30.297667722,-81.79094007,418,"8446 RUCKMAN AVENUE, JACKSONVILLE, FL, 32221","Match","Exact","8446 RUCKMAN AVE, JACKSONVILLE, FL, 32221",83908867,"L"
301919,"8446 SEVEN PATHS ROAD","SPRING HOPE","NC",27882,35.955248543,-78.134430693,419,"8446 SEVEN PATHS ROAD, SPRING HOPE, NC, 27882","Match","Exact","8446 SEVEN PATHS RD, SPRING HOPE, NC, 27882",90377125,"R"
301920,"8446 STAFFORD DR","STRONGSVILLE","OH",44149,41.347174787,-81.8316336399999,420,"8446 STAFFORD DR, STRONGSVILLE, OH, 44149","Match","Exact","8446 STAFFORD DR, STRONGSVILLE, OH, 44149",61158931,"L"
301921,"8447 2ND ST SW","HALLIDAY","ND",58636,47.386026325,-102.345231605,421,"8447 2ND ST SW, HALLIDAY, ND, 58636","Match","Exact","8447 2ND ST SW, HALLIDAY, ND, 58636",200430727,"R"
301922,"8447 BANDITS BLUFF AVENUE","LAS VEGAS","NV",89143,36.312533694,-115.280220917,422,"8447 BANDITS BLUFF AVENUE, LAS VEGAS, NV, 89143","Match","Exact","8447 BANDITS BLUFF AVE, LAS VEGAS, NV, 89143",201956081,"L"
301923,"8447 FAUST AVE","WEST HILLS","CA",91304,34.2239277090001,-118.620347396,423,"8447 FAUST AVE, WEST HILLS, CA, 91304","Match","Exact","8447 FAUST AVE, WEST HILLS, CA, 91304",141532425,"L"
301924,"8447 GALLIANO ROAD","LAS VEGAS","NV",89117,36.136268698,-115.275502949,424,"8447 GALLIANO ROAD, LAS VEGAS, NV, 89117","Match","Non_Exact","8447 GALLIANO AVE, LAS VEGAS, NV, 89117",201968053,"L"
301925,"8447 GALLIANO","LAS VEGAS","NV",89117,36.136268698,-115.275502949,425,"8447 GALLIANO, LAS VEGAS, NV, 89117","Match","Non_Exact","8447 GALLIANO AVE, LAS VEGAS, NV, 89117",201968053,"L"
301926,"8447 KINGS MEADE WAY","COLUMBIA","MD",21046,39.1727521890001,-76.871237965,426,"8447 KINGS MEADE WAY, COLUMBIA, MD, 21046","Match","Non_Exact","8447 KING'S MEADE WAY, COLUMBIA, MD, 21046",158924947,"L"
301927,"8447 S GREEN","CHICAGO","IL",60620,41.7406313880001,-87.644985257,427,"8447 S GREEN, CHICAGO, IL, 60620","Match","Non_Exact","8447 S GREEN ST, CHICAGO, IL, 60620",645569451,"L"
301928,"8447 SAN LEANDRO DR","DALLAS","TX",75218,32.8141585320001,-96.710077843,428,"8447 SAN LEANDRO DR, DALLAS, TX, 75218","Match","Exact","8447 SAN LEANDRO DR, DALLAS, TX, 75218",102923745,"L"
301929,"8447 W DESERT ELM LANE","PEORIA","AZ",85383,33.7236268340001,-112.242252693,429,"8447 W DESERT ELM LANE, PEORIA, AZ, 85383","Match","Exact","8447 DESERT ELM LN, PEORIA, AZ, 85383",128882042,"L"
301930,"8448 CROSSLAND LOOP SUITE 151","MONTGOMERY","AL",36117,NA,NA,430,"8448 CROSSLAND LOOP SUITE 151, MONTGOMERY, AL, 36117","No_Match",NA,NA,NA,NA
301931,"8448 FAIRVIEW WAY","LONE TREE","CO",80124,39.5418489050001,-104.891293562,431,"8448 FAIRVIEW WAY, LONE TREE, CO, 80124","Match","Exact","8448 FAIRVIEW WAY, LONE TREE, CO, 80124",130815368,"L"
301932,"8448 FAYETTE ST","PHILADELPHIA","PA",19150,40.078321293,-75.175842329,432,"8448 FAYETTE ST, PHILADELPHIA, PA, 19150","Match","Exact","8448 FAYETTE ST, PHILADELPHIA, PA, 19150",131394707,"L"
301933,"8448 HAINES CREEK LANE","RALEIGH","NC",27616,35.8912534610001,-78.550698645,433,"8448 HAINES CREEK LANE, RALEIGH, NC, 27616","Match","Exact","8448 HAINES CREEK LN, RALEIGH, NC, 27616",639844300,"R"
301934,"8448 RUTLEDGE ROAD","DITTMER","MO",63023,38.287038131,-90.723578203,434,"8448 RUTLEDGE ROAD, DITTMER, MO, 63023","Match","Exact","8448 RUTLEDGE RD, DITTMER, MO, 63023",607866723,"R"
301935,"8448 W BRODMAN AVE","CHICAGO","IL",60656,41.959865312,-87.838096881,435,"8448 W BRODMAN AVE, CHICAGO, IL, 60656","Match","Exact","8448 W BRODMAN AVE, CHICAGO, IL, 60656",111848186,"L"
301936,"8449 168TH STREET","JAMAICA HILLS","NY",11432,NA,NA,436,"8449 168TH STREET, JAMAICA HILLS, NY, 11432","No_Match",NA,NA,NA,NA
301937,"8449 E 163RD CT","BRIGHTON","CO",80602,39.993077886,-104.888586825,437,"8449 E 163RD CT, BRIGHTON, CO, 80602","Match","Exact","8449 E 163RD CT, BRIGHTON, CO, 80602",177458238,"L"
301938,"8449 FM 471 SOUTH","LACOSTE","TX",78039,NA,NA,438,"8449 FM 471 SOUTH, LACOSTE, TX, 78039","No_Match",NA,NA,NA,NA
301939,"8449 RIVERSIDE DRIVE","POWELL","OH",43065,40.183402512,-83.1271649719999,439,"8449 RIVERSIDE DRIVE, POWELL, OH, 43065","Match","Exact","8449 RIVERSIDE DR, POWELL, OH, 43065",213002617,"R"
301940,"8449 S 21ST PLACE","PHOENIX","AZ",85042,33.3691008530001,-112.036973202,440,"8449 S 21ST PLACE, PHOENIX, AZ, 85042","Match","Exact","8449 S 21ST PL, PHOENIX, AZ, 85042",243999928,"R"
301941,"8449 S PEORIA","CHICAGO","IL",60620,41.7405831660001,-87.646169965,441,"8449 S PEORIA, CHICAGO, IL, 60620","Match","Non_Exact","8449 S PEORIA ST, CHICAGO, IL, 60620",111831559,"L"
301942,"845 3RD AVE 21 FLOOR","NEW YORK","NY",10022,40.7566779100001,-73.970137344,442,"845 3RD AVE 21 FLOOR, NEW YORK, NY, 10022","Match","Exact","845 3RD AVE, NEW YORK, NY, 10022",59657497,"R"
301943,"845 3RD AVE 21FLOOR","NEW YORK","NY",10022,40.7566779100001,-73.970137344,443,"845 3RD AVE 21FLOOR, NEW YORK, NY, 10022","Match","Exact","845 3RD AVE, NEW YORK, NY, 10022",59657497,"R"
301944,"845 3RD AVE FL-21","NEW YORK","NY",10022,40.7566779100001,-73.970137344,444,"845 3RD AVE FL-21, NEW YORK, NY, 10022","Match","Exact","845 3RD AVE, NEW YORK, NY, 10022",59657497,"R"
301945,"845 6TH ST","BOULDER","CO",80302,40.002684344,-105.286672434,445,"845 6TH ST, BOULDER, CO, 80302","Match","Exact","845 6TH ST, BOULDER, CO, 80302",188160043,"L"
301946,"845 6TH STREET","BOULDER","CO",80302,40.002684344,-105.286672434,446,"845 6TH STREET, BOULDER, CO, 80302","Match","Exact","845 6TH ST, BOULDER, CO, 80302",188160043,"L"
301947,"845 A PHILLIP RANDOLPH BLVD","JACKSONVILLE","FL",32206,30.332275743,-81.642501483,447,"845 A PHILLIP RANDOLPH BLVD, JACKSONVILLE, FL, 32206","Match","Non_Exact","845 A PHILIP RANDOLPH BLVD, JACKSONVILLE, FL, 32206",83900386,"R"
301948,"845 BRUCE DRIVE","BERTHOUD","CO",80513,40.31034207,-105.085937216,448,"845 BRUCE DRIVE, BERTHOUD, CO, 80513","Match","Exact","845 BRUCE DR, BERTHOUD, CO, 80513",188501806,"L"
301949,"845 CAMELIA ST NW","HARTVILL","OH",44632,40.9628298850001,-81.356553296,449,"845 CAMELIA ST NW, HARTVILL, OH, 44632","Match","Non_Exact","845 CAMELIA ST NW, HARTVILLE, OH, 44632",64691140,"R"
301950,"845 DIVERSEY DRIVE","ST LOUIS","MO",63126,38.5712234800001,-90.381041989,450,"845 DIVERSEY DRIVE, ST LOUIS, MO, 63126","Match","Exact","845 DIVERSEY DR, SAINT LOUIS, MO, 63126",628738812,"R"
301951,"845 E  LOS ANGELES AVENUE","SIMI VALLEY","CA",93065,34.271724229,-118.781900805,451,"845 E  LOS ANGELES AVENUE, SIMI VALLEY, CA, 93065","Match","Non_Exact","845 E LOS ANGELES AVE, SIMI VALLEY, CA, 93063",109970472,"L"
301952,"845 E 22ND ST UNIT 103","LOMBARD","IL",60148,41.845958141,-87.9955128989999,452,"845 E 22ND ST UNIT 103, LOMBARD, IL, 60148","Match","Exact","845 22ND ST, LOMBARD, IL, 60148",112689236,"L"
301953,"845 EAST 119TH STREET","LOS ANGELES","CA",90059,33.9245863690001,-118.259718563,453,"845 EAST 119TH STREET, LOS ANGELES, CA, 90059","Match","Exact","845 E 119TH ST, LOS ANGELES, CA, 90059",141673222,"L"
301954,"845 EAST 155TH STREET SUITE 2D","BRONX","NY",10455,40.816432698,-73.903543709,454,"845 EAST 155TH STREET SUITE 2D, BRONX, NY, 10455","Match","Exact","845 E 155TH ST, BRONX, NY, 10455",80302165,"L"
301955,"845 FOREST HOLLOW DR","HURST","TX",76053,32.810383401,-97.1536571519999,455,"845 FOREST HOLLOW DR, HURST, TX, 76053","Match","Exact","845 FOREST HOLLOW DR, HURST, TX, 76053",647904117,"L"
301956,"845 FOREST HOLLOW DRIVE","HURST","TX",76053,32.810383401,-97.1536571519999,456,"845 FOREST HOLLOW DRIVE, HURST, TX, 76053","Match","Exact","845 FOREST HOLLOW DR, HURST, TX, 76053",647904117,"L"
301957,"845 FOUR SEASONS BLVD","AURORA","IL",60504,41.739643125,-88.278232035,457,"845 FOUR SEASONS BLVD, AURORA, IL, 60504","Match","Exact","845 FOUR SEASONS BLVD, AURORA, IL, 60504",119589745,"L"
301958,"845 FULTON MALL","FRESNO","CA",93721,NA,NA,458,"845 FULTON MALL, FRESNO, CA, 93721","No_Match",NA,NA,NA,NA
301959,"845 GALLOWAY LANE","LIVINGSTON","TX",77351,30.6646332510001,-94.903793133,459,"845 GALLOWAY LANE, LIVINGSTON, TX, 77351","Match","Exact","845 GALLOWAY LN, LIVINGSTON, TX, 77351",23221244,"R"
301960,"845 GOLF VIEW CT","DACULA","GA",30019,34.0233439100001,-83.904086881,460,"845 GOLF VIEW CT, DACULA, GA, 30019","Match","Exact","845 GOLF VIEW CT, DACULA, GA, 30019",623857686,"R"
301961,"845 IONIA RD","PORTLAND","MI",48875,NA,NA,461,"845 IONIA RD, PORTLAND, MI, 48875","No_Match",NA,NA,NA,NA
301962,"845 JOHN ANDERSON DRIVE","ORMOND BEACH","FL",32176,29.310271201,-81.057423952,462,"845 JOHN ANDERSON DRIVE, ORMOND BEACH, FL, 32176","Match","Exact","845 JOHN ANDERSON DR, ORMOND BEACH, FL, 32176",94520656,"R"
301963,"845 KILKENNY CIRCLE","LITHONIA","GA",30058,33.7698921510001,-84.0845378989999,463,"845 KILKENNY CIRCLE, LITHONIA, GA, 30058","Match","Exact","845 KILKENNY CIR, LITHONIA, GA, 30058",647250936,"R"
301964,"845 KING ROAD","WINLOCK","WA",98596,NA,NA,464,"845 KING ROAD, WINLOCK, WA, 98596","Tie",NA,NA,NA,NA
301965,"845 LANE ALLEN ROAD  SUITE B-6","LEXINGTON","KY",40504,38.03007168,-84.541175197,465,"845 LANE ALLEN ROAD  SUITE B-6, LEXINGTON, KY, 40504","Match","Exact","845 LANE ALLEN RD, LEXINGTON, KY, 40504",618013797,"R"
301966,"845 LESLIE LANE","GARDENDALE","AL",35071,33.6307978470001,-86.7967432889999,466,"845 LESLIE LANE, GARDENDALE, AL, 35071","Match","Exact","845 LESLIE LN, GARDENDALE, AL, 35071",81691220,"L"
301967,"845 LYNN LN","CHICO","CA",95926,39.7481692750001,-121.820937099,467,"845 LYNN LN, CHICO, CA, 95926","Match","Exact","845 LYNN LN, CHICO, CA, 95926",68427633,"L"
301968,"845 MAGO VISTA RD","ARNOLD","MD",21012,39.06290555,-76.5042036409999,468,"845 MAGO VISTA RD, ARNOLD, MD, 21012","Match","Exact","845 MAGO VISTA RD, ARNOLD, MD, 21012",68170026,"L"
301969,"845 MAIN STREET","STONE MOUNTAIN","GA",30083,33.803902888,-84.1699700309999,469,"845 MAIN STREET, STONE MOUNTAIN, GA, 30083","Match","Exact","845 MAIN ST, STONE MOUNTAIN, GA, 30083",23405569,"R"
301970,"845 MILTON OAKS DRIVE","JOHNS CREEK","GA",30022,34.058377335,-84.224650153,470,"845 MILTON OAKS DRIVE, JOHNS CREEK, GA, 30022","Match","Exact","845 MILTON OAKS DR, JOHNS CREEK, GA, 30022",17393210,"L"
301971,"845 MINERS AVE","LEAD","SD",57754,44.351874153,-103.773415687,471,"845 MINERS AVE, LEAD, SD, 57754","Match","Exact","845 MINERS AVE, LEAD, SD, 57754",639936164,"R"
301972,"845 N HOWARD STREET","BALTIMORE","MD",21201,39.2995307850001,-76.620083472,472,"845 N HOWARD STREET, BALTIMORE, MD, 21201","Match","Exact","845 N HOWARD ST, BALTIMORE, MD, 21201",206419297,"R"
301973,"845 N KINGSBURY ST UNIT 617","CHICAGO","IL",60610,41.8978409950001,-87.643109797,473,"845 N KINGSBURY ST UNIT 617, CHICAGO, IL, 60610","Match","Non_Exact","845 N KINGSBURY ST, CHICAGO, IL, 60610",641806681,"R"
301974,"845 N KINGSBURY ST","CHICAGO","IL",60610,41.8978409950001,-87.643109797,474,"845 N KINGSBURY ST, CHICAGO, IL, 60610","Match","Exact","845 N KINGSBURY ST, CHICAGO, IL, 60610",641806681,"R"
301975,"845 N LECLAIRE","CHICAGO","IL",60651,41.8960662650001,-87.753170497,475,"845 N LECLAIRE, CHICAGO, IL, 60651","Match","Non_Exact","845 N LECLAIRE AVE, CHICAGO, IL, 60651",605050157,"R"
301976,"845 N MOTEL BLVD","LAS CRUCES","NM",88007,32.306715248,-106.814691585,476,"845 N MOTEL BLVD, LAS CRUCES, NM, 88007","Match","Exact","845 N MOTEL BLVD, LAS CRUCES, NM, 88007",189571465,"L"
301977,"845 NORTH 20TH STREET","PHILADELPHIA","PA",19130,39.970403155,-75.1694823989999,477,"845 NORTH 20TH STREET, PHILADELPHIA, PA, 19130","Match","Exact","845 N 20TH ST, PHILADELPHIA, PA, 19130",131406058,"R"
301978,"845 NORTH BECKLEY ROAD","DESOTO","TX",75115,32.603082337,-96.823109502,478,"845 NORTH BECKLEY ROAD, DESOTO, TX, 75115","Match","Non_Exact","845 N BECKLEY AVE, DESOTO, TX, 75115",641271873,"L"
301979,"845 OAK STREET","ALAMEDA","CA",94501,37.7592216420001,-122.248005244,479,"845 OAK STREET, ALAMEDA, CA, 94501","Match","Exact","845 OAK ST, ALAMEDA, CA, 94501",125005414,"L"
301980,"845 PALM BEACH RD","SOUTH BAY","FL",33496,NA,NA,480,"845 PALM BEACH RD, SOUTH BAY, FL, 33496","No_Match",NA,NA,NA,NA
301981,"845 PARKER DR","MESQUITE","TX",75181,32.7582815540001,-96.565479829,481,"845 PARKER DR, MESQUITE, TX, 75181","Match","Exact","845 PARKER DR, MESQUITE, TX, 75181",103168937,"L"
301982,"845 PRESIDENT STREET APT 8","BROOKLYN","NY",11215,40.6734780840001,-73.974965105,482,"845 PRESIDENT STREET APT 8, BROOKLYN, NY, 11215","Match","Exact","845 PRESIDENT ST, BROOKLYN, NY, 11215",59078185,"L"
301983,"845 PROTON ROAD","SAN ANTONIO","TX",78258,29.612017608,-98.4814215599999,483,"845 PROTON ROAD, SAN ANTONIO, TX, 78258","Match","Exact","845 PROTON RD, SAN ANTONIO, TX, 78258",101725087,"L"
301984,"845 S COOPER STREET","MEMPHIS","TN",38104,35.122598861,-89.99090792,484,"845 S COOPER STREET, MEMPHIS, TN, 38104","Match","Exact","845 S COOPER ST, MEMPHIS, TN, 38104",72917146,"R"
301985,"845 S CRESTLINE DRIVE","WALDPORT","OR",97394,44.420439463,-124.063586754,485,"845 S CRESTLINE DRIVE, WALDPORT, OR, 97394","Match","Exact","845 S CRESTLINE DR, WALDPORT, OR, 97394",155933495,"R"
301986,"845 SE HIGHLAND AVE","TOPEKA","KS",66607,39.0398666930001,-95.64246331,486,"845 SE HIGHLAND AVE, TOPEKA, KS, 66607","Match","Exact","845 SE HIGHLAND AVE, TOPEKA, KS, 66607",17890546,"R"
301987,"845 SECOND STREET NE","HICKORY","NC",28601,35.7439920520001,-81.335278038,487,"845 SECOND STREET NE, HICKORY, NC, 28601","Match","Exact","845 2ND ST NE, HICKORY, NC, 28601",45904397,"L"
301988,"845 SPRING STREET NW UNIT 416","ATLANTA","GA",30308,33.7779178640001,-84.388769865,488,"845 SPRING STREET NW UNIT 416, ATLANTA, GA, 30308","Match","Exact","845 SPRING ST NW, ATLANTA, GA, 30308",618351318,"R"
301989,"845 THIRD AVENUE","NY","NY",10022,40.7566779100001,-73.970137344,489,"845 THIRD AVENUE, NY, NY, 10022","Match","Exact","845 3RD AVE, NEW YORK, NY, 10022",59657497,"R"
301990,"845 UNITED NATIONS PLAZA APT 58C","NEW YORK","NY",10017,NA,NA,490,"845 UNITED NATIONS PLAZA APT 58C, NEW YORK, NY, 10017","No_Match",NA,NA,NA,NA
301991,"845 US HIGHWAY 641 SPUR","BENTON","KY",42025,NA,NA,491,"845 US HIGHWAY 641 SPUR, BENTON, KY, 42025","No_Match",NA,NA,NA,NA
301992,"845 W CARMEL DR","CARMEL","IN",46032,39.9652418680001,-86.139844311,492,"845 W CARMEL DR, CARMEL, IN, 46032","Match","Exact","845 W CARMEL DR, CARMEL, IN, 46032",646568182,"L"
301993,"845 W FULTON MARKET SUITE 208","CHICAGO","IL",60607,41.886777658,-87.6489744689999,493,"845 W FULTON MARKET SUITE 208, CHICAGO, IL, 60607","Match","Non_Exact","845 W FULTON MARKET, CHICAGO, IL, 60607",111767942,"L"
301994,"845 WAKEFIELD ST APT 601","WEST WARWICK","RI",2893,41.7249313080001,-71.4927255869999,494,"845 WAKEFIELD ST APT 601, WEST WARWICK, RI, 2893","Match","Exact","845 WAKEFIELD ST, WEST WARWICK, RI, 02893",159162915,"R"
301995,"845 WALTER MORRIS ROAD","LEBANON","TN",37087,36.2653365030001,-86.1145128489999,495,"845 WALTER MORRIS ROAD, LEBANON, TN, 37087","Match","Exact","845 WALTER MORRIS RD, LEBANON, TN, 37087",627381078,"L"
301996,"845 WEST MACARTHUR BOULEVARD UNIT 5","OAKLAND","CA",94608,37.827736504,-122.273045099,496,"845 WEST MACARTHUR BOULEVARD UNIT 5, OAKLAND, CA, 94608","Match","Exact","845 W MACARTHUR BLVD, OAKLAND, CA, 94608",606810678,"L"
301997,"845 WILDER ST","PHILADELPHIA","PA",19147,39.930905275,-75.158748568,497,"845 WILDER ST, PHILADELPHIA, PA, 19147","Match","Exact","845 WILDER ST, PHILADELPHIA, PA, 19147",639163987,"R"
301998,"845 WISCONSIN AVENUE","RACINE","WI",53403,42.723788631,-87.783724879,498,"845 WISCONSIN AVENUE, RACINE, WI, 53403","Match","Exact","845 WISCONSIN AVE, RACINE, WI, 53403",77911013,"L"
301999,"845 WOODCREST AVE","BREA","CA",92821,33.9451763930001,-117.910443628,499,"845 WOODCREST AVE, BREA, CA, 92821","Match","Exact","845 WOODCREST AVE, BREA, CA, 92821",144414981,"R"
302000,"8450 257TH ST","FLORAL PARK","NY",11001,NA,NA,500,"8450 257TH ST, FLORAL PARK, NY, 11001","No_Match",NA,NA,NA,NA
