"ID","Address","City","State","Zip","lat","long","id","input_address","match_indicator","match_type","matched_address","tiger_line_id","tiger_side"
154501,"290 MORTON MANOR CT","ALPHARETTA","GA",30022,34.036616983,-84.198457627,1,"290 MORTON MANOR CT, ALPHARETTA, GA, 30022","Match","Exact","290 MORTON MANOR CT, ALPHARETTA, GA, 30022",636785774,"L"
154502,"290 MURRAY ROAD","CARMEL","ME",4419,44.7620405210001,-69.007305709,2,"290 MURRAY ROAD, CARMEL, ME, 4419","Match","Exact","290 MURRAY RD, CARMEL, ME, 04419",123653566,"R"
154503,"290 NE 5TH AVE 19","DELRAY BEACH","FL",33483,NA,NA,3,"290 NE 5TH AVE 19, DELRAY BEACH, FL, 33483","Tie",NA,NA,NA,NA
154504,"290 NORMAN DR NE","CEDAR RAPIDS","IA",52402,42.0448155820001,-91.633265353,4,"290 NORMAN DR NE, CEDAR RAPIDS, IA, 52402","Match","Exact","290 NORMAN DR NE, CEDAR RAPIDS, IA, 52402",17021170,"R"
154505,"290 OAK RIDGE DRIVE","LAKE OZARK","MO",65049,NA,NA,5,"290 OAK RIDGE DRIVE, LAKE OZARK, MO, 65049","Tie",NA,NA,NA,NA
154506,"290 OLIVE STREET","INDIANA","PA",15701,40.6278623260001,-79.141774205,6,"290 OLIVE STREET, INDIANA, PA, 15701","Match","Non_Exact","290 E OLIVE ST, INDIANA, PA, 15701",66285628,"R"
154507,"290 OTTER POND TRAIL","HOLLY RIDGE","NC",28445,34.5200739470001,-77.491542742,7,"290 OTTER POND TRAIL, HOLLY RIDGE, NC, 28445","Match","Exact","290 OTTER POND TRL, HOLLY RIDGE, NC, 28445",636139772,"L"
154508,"290 PARDEE STREET","SAN DIEGO","CA",92102,32.7083883180001,-117.117879101,8,"290 PARDEE STREET, SAN DIEGO, CA, 92102","Match","Exact","290 PARDEE ST, SAN DIEGO, CA, 92102",195348605,"L"
154509,"290 PUBLIC STREET","PROVIDENCE","RI",2905,41.8065215600001,-71.410623425,9,"290 PUBLIC STREET, PROVIDENCE, RI, 2905","Match","Exact","290 PUBLIC ST, PROVIDENCE, RI, 02905",647218595,"L"
154510,"290 QUINMORE AVE N","LAKELAND","MN",55043,44.953043414,-92.765777209,10,"290 QUINMORE AVE N, LAKELAND, MN, 55043","Match","Exact","290 QUINMORE AVE N, LAKELAND, MN, 55043",97795353,"R"
154511,"290 REEVESVILLE RD","GRANTSBURG","IL",62943,37.394747409,-88.778948325,11,"290 REEVESVILLE RD, GRANTSBURG, IL, 62943","Match","Exact","290 REEVESVILLE RD, GRANTSBURG, IL, 62943",5688714,"L"
154512,"290 RESTFUL RIDGE CIRCLE","HOT SPRINGS","AR",71913,NA,NA,12,"290 RESTFUL RIDGE CIRCLE, HOT SPRINGS, AR, 71913","No_Match",NA,NA,NA,NA
154513,"290 RIDGE LANE","DOYLINE","LA",71023,32.429873517,-93.390161459,13,"290 RIDGE LANE, DOYLINE, LA, 71023","Match","Exact","290 RIDGE LN, DOYLINE, LA, 71023",73387019,"L"
154514,"290 ROBINSON ROAD","PLATTSBURGH","NY",12901,44.7184260450001,-73.5491098319999,14,"290 ROBINSON ROAD, PLATTSBURGH, NY, 12901","Match","Exact","290 ROBINSON RD, PLATTSBURGH, NY, 12901",136097887,"R"
154515,"290 ROGER DRIVE","SALISBURY","NC",28147,35.6556033700001,-80.5520706569999,15,"290 ROGER DRIVE, SALISBURY, NC, 28147","Match","Exact","290 ROGER DR, SALISBURY, NC, 28147",25277290,"L"
154516,"290 ROUNDUP TRL","ELLENWOOD","GA",30294,33.6100275790001,-84.25744392,16,"290 ROUNDUP TRL, ELLENWOOD, GA, 30294","Match","Exact","290 ROUNDUP TRL, ELLENWOOD, GA, 30294",23192549,"L"
154517,"290 RYERSON AVENUE","PATERSON","NJ",7502,40.9241637270001,-74.195554445,17,"290 RYERSON AVENUE, PATERSON, NJ, 7502","Match","Exact","290 RYERSON AVE, PATERSON, NJ, 07502",65260513,"R"
154518,"290 S DUFFY ROAD","BUTLER","PA",16001,40.8623745830001,-79.939635122,18,"290 S DUFFY ROAD, BUTLER, PA, 16001","Match","Exact","290 S DUFFY RD, BUTLER, PA, 16001",52689407,"L"
154519,"290 S GORDON RD SW","MABLETON","GA",30126,33.790722213,-84.5631562199999,19,"290 S GORDON RD SW, MABLETON, GA, 30126","Match","Exact","290 S GORDON RD SW, MABLETON, GA, 30126",17180659,"R"
154520,"290 S LEMON STREET STE 406","ANAHEIM","CA",92805,NA,NA,20,"290 S LEMON STREET STE 406, ANAHEIM, CA, 92805","Tie",NA,NA,NA,NA
154521,"290 S SCHOOL AVE","COLBY","KS",67701,39.3925502110001,-101.049463416,21,"290 S SCHOOL AVE, COLBY, KS, 67701","Match","Exact","290 S SCHOOL AVE, COLBY, KS, 67701",196539955,"L"
154522,"290 SAINT MARKS PL","STATEN ISLAND","NY",10301,40.642726915,-74.0786718099999,22,"290 SAINT MARKS PL, STATEN ISLAND, NY, 10301","Match","Exact","290 ST MARKS PL, STATEN ISLAND, NY, 10301",59878890,"R"
154523,"290 SALINEVILLE RD NE","CARROLLTON","OH",44615,40.5736611190001,-81.076657457,23,"290 SALINEVILLE RD NE, CARROLLTON, OH, 44615","Match","Exact","290 SALINEVILLE RD NE, CARROLLTON, OH, 44615",44181637,"R"
154524,"290 SCHILLING PARK BLVD","COLLIERVILLE","TN",38017,35.037274444,-89.7031088849999,24,"290 SCHILLING PARK BLVD, COLLIERVILLE, TN, 38017","Match","Non_Exact","290 SCHILLING BLVD, COLLIERVILLE, TN, 38017",607500233,"L"
154525,"290 SENECA TRAIL WEST","LAKE QUIVIRA","KS",66217,39.037536437,-94.779223356,25,"290 SENECA TRAIL WEST, LAKE QUIVIRA, KS, 66217","Match","Exact","290 SENECA TRL W, LAKE QUIVIRA, KS, 66217",91322633,"R"
154526,"290 SEQUOIA DR","PASADENA","CA",91105,34.1362705350001,-118.179179236,26,"290 SEQUOIA DR, PASADENA, CA, 91105","Match","Exact","290 SEQUOIA DR, PASADENA, CA, 91105",141614710,"L"
154527,"290 SISSON AVE NE","ATLANTA","GA",30317,33.7617626380001,-84.314727139,27,"290 SISSON AVE NE, ATLANTA, GA, 30317","Match","Exact","290 SISSON AVE NE, ATLANTA, GA, 30317",23366584,"L"
154528,"290 SONORA DRIVE","ELGIN","IL",60124,42.0238534550001,-88.373353242,28,"290 SONORA DRIVE, ELGIN, IL, 60124","Match","Exact","290 SONORA DR, ELGIN, IL, 60124",119589393,"L"
154529,"290 SOUTH DUFFY RD","BUTLER","PA",16001,40.8623796110001,-79.9396354689999,29,"290 SOUTH DUFFY RD, BUTLER, PA, 16001","Match","Exact","290 S DUFFY RD, BUTLER, PA, 16001",52689407,"L"
154530,"290 SOUTH LINE STREET","GRENADA","MS",38901,33.782532803,-89.804537785,30,"290 SOUTH LINE STREET, GRENADA, MS, 38901","Match","Exact","290 S LINE ST, GRENADA, MS, 38901",7555339,"R"
154531,"290 SOUTHBANK DRIVE","AIKEN","SC",29803,33.5239820580001,-81.706165405,31,"290 SOUTHBANK DRIVE, AIKEN, SC, 29803","Match","Exact","290 SOUTHBANK DR, AIKEN, SC, 29803",65007631,"R"
154532,"290 SPRINGVIEW COMMERCE DR UNIT 2","DEBARY","FL",32713,28.8689704870001,-81.327189483,32,"290 SPRINGVIEW COMMERCE DR UNIT 2, DEBARY, FL, 32713","Match","Exact","290 SPRINGVIEW COMMERCE DR, DEBARY, FL, 32713",94601577,"R"
154533,"290 SUNRIDGE WAY","VACAVILLE","CA",95688,38.3787064320001,-121.976758689,33,"290 SUNRIDGE WAY, VACAVILLE, CA, 95688","Match","Exact","290 SUNRIDGE WAY, VACAVILLE, CA, 95688",192557372,"R"
154534,"290 SYCAMORE DRIVE","LINN VALLEY","KS",66040,38.372626901,-94.7085521289999,34,"290 SYCAMORE DRIVE, LINN VALLEY, KS, 66040","Match","Exact","290 SYCAMORE DR, LINN VALLEY, KS, 66040",85180056,"L"
154535,"290 TELFORD NEW VICTORY RD","TELFORD","TN",37690,36.239320993,-82.539371438,35,"290 TELFORD NEW VICTORY RD, TELFORD, TN, 37690","Match","Exact","290 TELFORD NEW VICTORY RD, TELFORD, TN, 37690",127930595,"R"
154536,"290 TURNPIKE RD STE 150 BOX 159","WESTBOROUGH","MA",1581,42.2830130670001,-71.644583654,36,"290 TURNPIKE RD STE 150 BOX 159, WESTBOROUGH, MA, 1581","Match","Exact","290 TURNPIKE RD, WESTBOROUGH, MA, 01581",40133715,"R"
154537,"290 TURNPIKE ROAD - 5-130","WESTBOROUGH","MA",1581,42.2830130670001,-71.644583654,37,"290 TURNPIKE ROAD - 5-130, WESTBOROUGH, MA, 1581","Match","Exact","290 TURNPIKE RD, WESTBOROUGH, MA, 01581",40133715,"R"
154538,"290 VALLEY AVENUE","ALTOONA","PA",16601,40.4868501940001,-78.44023135,38,"290 VALLEY AVENUE, ALTOONA, PA, 16601","Match","Exact","290 VALLEY AVE, ALTOONA, PA, 16601",49708960,"R"
154539,"290 VERNMONT STREET","WEST ROXBURY","MA",2132,NA,NA,39,"290 VERNMONT STREET, WEST ROXBURY, MA, 2132","No_Match",NA,NA,NA,NA
154540,"290 VILLAGE DR","BEREA","KY",40403,37.5924051590001,-84.318603399,40,"290 VILLAGE DR, BEREA, KY, 40403","Match","Exact","290 VILLAGE DR, BEREA, KY, 40403",638555908,"R"
154541,"290 WALLABOUT STREET APT 6B","BROOKLYN","NY",11206,40.700333329,-73.9517612459999,41,"290 WALLABOUT STREET APT 6B, BROOKLYN, NY, 11206","Match","Exact","290 WALLABOUT ST, BROOKLYN, NY, 11206",59078682,"R"
154542,"290 WEBSTER AVE","ROCHESTER","NY",14609,43.1673018440001,-77.5762309099999,42,"290 WEBSTER AVE, ROCHESTER, NY, 14609","Match","Exact","290 WEBSTER AVE, ROCHESTER, NY, 14609",14539526,"R"
154543,"290 WEST NINE MILE ROAD","FERNDALE","MI",48220,42.4605242740001,-83.137678466,43,"290 WEST NINE MILE ROAD, FERNDALE, MI, 48220","Match","Exact","290 W 9 MILE RD, FERNDALE, MI, 48220",69816041,"R"
154544,"290 WESTWOOD CIRCLE","MACON","GA",32106,32.7937259670001,-83.7273180559999,44,"290 WESTWOOD CIRCLE, MACON, GA, 32106","Match","Non_Exact","290 WESTWOOD CIR, MACON, GA, 31206",81081404,"L"
154545,"290 WHISPERING WOODS LANE APT 5","ST AUGUSTINE","FL",32084,29.870883792,-81.342753463,45,"290 WHISPERING WOODS LANE APT 5, ST AUGUSTINE, FL, 32084","Match","Exact","290 WHISPERING WOODS LN, SAINT AUGUSTINE, FL, 32084",639678333,"R"
154546,"290 WOODY DR","JACKSON","MS",39212,32.2574189760001,-90.228944794,46,"290 WOODY DR, JACKSON, MS, 39212","Match","Exact","290 WOODY DR, JACKSON, MS, 39212",65375380,"R"
154547,"290","PASADENA","CA",91101,NA,NA,47,"290, PASADENA, CA, 91101","No_Match",NA,NA,NA,NA
154548,"2900 100TH ST STE 207","URBANDALE","IA",50322,41.627797861,-93.755891795,48,"2900 100TH ST STE 207, URBANDALE, IA, 50322","Match","Exact","2900 100TH ST, URBANDALE, IA, 50322",640784079,"R"
154549,"2900 13TH AVE S","MINNEAPOLIS","MN",55407,44.9498935020001,-93.2563015709999,49,"2900 13TH AVE S, MINNEAPOLIS, MN, 55407","Match","Exact","2900 13TH AVE S, MINNEAPOLIS, MN, 55407",43634671,"R"
154550,"2900 1ST AVENUE SOUTH","SAINT PETERSBURG","FL",33712,27.7701018290001,-82.672721328,50,"2900 1ST AVENUE SOUTH, SAINT PETERSBURG, FL, 33712","Match","Exact","2900 1ST AVE S, SAINT PETERSBURG, FL, 33712",124705808,"L"
154551,"2900 A602","DETROIT","MI",48207,NA,NA,51,"2900 A602, DETROIT, MI, 48207","No_Match",NA,NA,NA,NA
154552,"2900 ADAMS ST A4","RIVERSIDE","CA",92504,33.9208566900001,-117.414331229,52,"2900 ADAMS ST A4, RIVERSIDE, CA, 92504","Match","Exact","2900 ADAMS ST, RIVERSIDE, CA, 92504",194740686,"L"
154553,"2900 ADAMS STREET C130","RIVERSIDE","CA",92504,33.9208566900001,-117.414331229,53,"2900 ADAMS STREET C130, RIVERSIDE, CA, 92504","Match","Exact","2900 ADAMS ST, RIVERSIDE, CA, 92504",194740686,"L"
154554,"2900 ADAMS STREET STE C130","RIVERSIDE","CA",92504,33.9208566900001,-117.414331229,54,"2900 ADAMS STREET STE C130, RIVERSIDE, CA, 92504","Match","Exact","2900 ADAMS ST, RIVERSIDE, CA, 92504",194740686,"L"
154555,"2900 ADAMS STREET UNITE B3","RIVERSIDE","CA",92504,33.9208566900001,-117.414331229,55,"2900 ADAMS STREET UNITE B3, RIVERSIDE, CA, 92504","Match","Exact","2900 ADAMS ST, RIVERSIDE, CA, 92504",194740686,"L"
154556,"2900 ADIE ROAD","ST ANN","MO",63074,38.71250479,-90.406198968,56,"2900 ADIE ROAD, ST ANN, MO, 63074","Match","Exact","2900 ADIE RD, SAINT ANN, MO, 63074",604465364,"R"
154557,"2900 ANA DR","GREAT FALLS","MT",59404,47.4772274270001,-111.332328753,57,"2900 ANA DR, GREAT FALLS, MT, 59404","Match","Exact","2900 ANA DR, GREAT FALLS, MT, 59404",202225362,"R"
154558,"2900 ANITA LANE","MONROE","LA",71201,32.535932471,-92.09129021,58,"2900 ANITA LANE, MONROE, LA, 71201","Match","Exact","2900 ANITA LN, MONROE, LA, 71201",161086064,"R"
154559,"2900 BARBERRY AVE","COLUMBIA","MO",65202,38.9764338960001,-92.380760692,59,"2900 BARBERRY AVE, COLUMBIA, MO, 65202","Match","Exact","2900 BARBERRY AVE, COLUMBIA, MO, 65202",643135284,"L"
154560,"2900 BARCELONA DR","DOUGLAS","AZ",85607,31.345849221,-109.516707766,60,"2900 BARCELONA DR, DOUGLAS, AZ, 85607","Match","Exact","2900 BARCELONA DR, DOUGLAS, AZ, 85607",120911431,"R"
154561,"2900 BRISTOL STREET SUITE C-203","COSTA MESA","CA",92626,33.682518723,-117.885536459,61,"2900 BRISTOL STREET SUITE C-203, COSTA MESA, CA, 92626","Match","Exact","2900 BRISTOL ST, COSTA MESA, CA, 92626",631727229,"R"
154562,"2900 BROAD AVENUE  SUITE 103","MEMPHIS","TN",38112,35.147410859,-89.964202552,62,"2900 BROAD AVENUE  SUITE 103, MEMPHIS, TN, 38112","Match","Exact","2900 BROAD AVE, MEMPHIS, TN, 38112",72913663,"L"
154563,"2900 BURLINGAME","DETROIT","MI",48206,42.3809298360001,-83.117543112,63,"2900 BURLINGAME, DETROIT, MI, 48206","Match","Non_Exact","2900 BURLINGAME ST, DETROIT, MI, 48206",95471422,"R"
154564,"2900 CAPSTAN DR","ANCHORAGE","AK",99516,61.095672005,-149.828613233,64,"2900 CAPSTAN DR, ANCHORAGE, AK, 99516","Match","Exact","2900 CAPSTAN DR, ANCHORAGE, AK, 99516",190801331,"R"
154565,"2900 CHAMBLEE TUCKER RD B5 STE 220","ATLANTA","GA",30341,33.877605483,-84.2698272219999,65,"2900 CHAMBLEE TUCKER RD B5 STE 220, ATLANTA, GA, 30341","Match","Exact","2900 CHAMBLEE TUCKER RD, ATLANTA, GA, 30341",23406783,"L"
154566,"2900 CHAMBLEE TUCKER RD BUILDING 6","ATLANTA","GA",30341,33.877605483,-84.2698272219999,66,"2900 CHAMBLEE TUCKER RD BUILDING 6, ATLANTA, GA, 30341","Match","Exact","2900 CHAMBLEE TUCKER RD, ATLANTA, GA, 30341",23406783,"L"
154567,"2900 CHAMBLEE TUCKER ROAD BLDG 1","ATLANTA","GA",30341,33.877605483,-84.2698272219999,67,"2900 CHAMBLEE TUCKER ROAD BLDG 1, ATLANTA, GA, 30341","Match","Exact","2900 CHAMBLEE TUCKER RD, ATLANTA, GA, 30341",23406783,"L"
154568,"2900 CLIFF AVENUE","SIOUX FALLS","SD",57105,43.5189070970001,-96.71121871,68,"2900 CLIFF AVENUE, SIOUX FALLS, SD, 57105","Match","Non_Exact","2900 S CLIFF AVE, SIOUX FALLS, SD, 57105",34975581,"L"
154569,"2900 COLONIAL AVE","KETTERING","OH",45419,39.7051657530001,-84.152240126,69,"2900 COLONIAL AVE, KETTERING, OH, 45419","Match","Exact","2900 COLONIAL AVE, KETTERING, OH, 45419",143582271,"L"
154570,"2900 COMMUNITY AVE","LA CRESCENTA-MONTROS","CA",91214,34.2237919,-118.242281312,70,"2900 COMMUNITY AVE, LA CRESCENTA-MONTROS, CA, 91214","Match","Non_Exact","2900 COMMUNITY AVE, LA CRESCENTA, CA, 91214",640107698,"R"
154571,"2900 CONNECTICUT AVE NW 105","WASHINGTON","DC",20008,38.9291569430001,-77.054791899,71,"2900 CONNECTICUT AVE NW 105, WASHINGTON, DC, 20008","Match","Exact","2900 CONNECTICUT AVE NW, WASHINGTON, DC, 20008",620617019,"L"
154572,"2900 CORKWOOD CIRCLE","FLOWER MOUND","TX",75028,33.0273755740001,-97.109947048,72,"2900 CORKWOOD CIRCLE, FLOWER MOUND, TX, 75028","Match","Non_Exact","2900 CORKWOOD CIR, FLOWER MOUND, TX, 75022",103379878,"L"
154573,"2900 COUNTY BARN ROAD","NAPLES","FL",34112,26.126664394,-81.7301782329999,73,"2900 COUNTY BARN ROAD, NAPLES, FL, 34112","Match","Exact","2900 COUNTY BARN RD, NAPLES, FL, 34112",115154492,"L"
154574,"2900 COVINGTON ROAD","SILVER SPRING","MD",20910,39.010790925,-77.059948783,74,"2900 COVINGTON ROAD, SILVER SPRING, MD, 20910","Match","Exact","2900 COVINGTON RD, SILVER SPRING, MD, 20910",62066592,"L"
154575,"2900 CR 59","MANVEL","TX",77578,NA,NA,75,"2900 CR 59, MANVEL, TX, 77578","No_Match",NA,NA,NA,NA
154576,"2900 CROSSWAY ROAD","BURLINGTON","WI",53105,42.6890883950001,-88.2033173739999,76,"2900 CROSSWAY ROAD, BURLINGTON, WI, 53105","Match","Exact","2900 CROSSWAY RD, BURLINGTON, WI, 53105",77920964,"R"
154577,"2900 DELK RD 700158","MARIETTA","GA",30067,33.923873459,-84.468360881,77,"2900 DELK RD 700158, MARIETTA, GA, 30067","Match","Exact","2900 DELK RD, MARIETTA, GA, 30067",17210824,"R"
154578,"2900 DELK RD SE STE 700 PMB 257","MARIETTA","GA",30067,33.923873459,-84.468360881,78,"2900 DELK RD SE STE 700 PMB 257, MARIETTA, GA, 30067","Match","Non_Exact","2900 DELK RD, MARIETTA, GA, 30067",17210824,"R"
154579,"2900 DELK RD STE 700 PMB 12","MARIETTA","GA",30067,33.923873459,-84.468360881,79,"2900 DELK RD STE 700 PMB 12, MARIETTA, GA, 30067","Match","Exact","2900 DELK RD, MARIETTA, GA, 30067",17210824,"R"
154580,"2900 DELK ROAD - SUITE 700 - NO 48","MARIETTA","GA",30067,33.923873459,-84.468360881,80,"2900 DELK ROAD - SUITE 700 - NO 48, MARIETTA, GA, 30067","Match","Exact","2900 DELK RD, MARIETTA, GA, 30067",17210824,"R"
154581,"2900 DELK ROAD SE SUITE 700 PMB 148","MARIETTA","GA",30067,33.923873459,-84.468360881,81,"2900 DELK ROAD SE SUITE 700 PMB 148, MARIETTA, GA, 30067","Match","Non_Exact","2900 DELK RD, MARIETTA, GA, 30067",17210824,"R"
154582,"2900 DELK ROAD STE 700 PMB 186","MARIETTA","GA",30067,33.923873459,-84.468360881,82,"2900 DELK ROAD STE 700 PMB 186, MARIETTA, GA, 30067","Match","Exact","2900 DELK RD, MARIETTA, GA, 30067",17210824,"R"
154583,"2900 DELK ROAD SUITE 700 PMB 63","MARIETTA","GA",30067,33.923873459,-84.468360881,83,"2900 DELK ROAD SUITE 700 PMB 63, MARIETTA, GA, 30067","Match","Exact","2900 DELK RD, MARIETTA, GA, 30067",17210824,"R"
154584,"2900 DETROIT AVENUE FIRST FLOOR B","CLEVELAND","OH",44113,41.4897512320001,-81.711213135,84,"2900 DETROIT AVENUE FIRST FLOOR B, CLEVELAND, OH, 44113","Match","Non_Exact","2900 DETROIT RD, CLEVELAND, OH, 44113",61109198,"R"
154585,"2900 DILLIDO RD 624","DALLAS","TX",75228,32.809834688,-96.6893606629999,85,"2900 DILLIDO RD 624, DALLAS, TX, 75228","Match","Non_Exact","2900 DILIDO RD, DALLAS, TX, 75228",102924636,"L"
154586,"2900 DREHER SHOALS RD","IRMA","SC",29212,34.102409757,-81.223763337,86,"2900 DREHER SHOALS RD, IRMA, SC, 29212","Match","Non_Exact","2900 DREHER SHOALS RD, COLUMBIA, SC, 29212",622161464,"R"
154587,"2900 E 1ST AVENUE","SPOKANE","WA",99202,47.656285966,-117.369150889,87,"2900 E 1ST AVENUE, SPOKANE, WA, 99202","Match","Exact","2900 E 1ST AVE, SPOKANE, WA, 99202",189881871,"R"
154588,"2900 E JEFFERSON AVE SUITE C4","DETROIT","MI",48207,42.3395475240001,-83.019592282,88,"2900 E JEFFERSON AVE SUITE C4, DETROIT, MI, 48207","Match","Non_Exact","2900 E JEFFERSON AVE, DETROIT, MI, 48207",95484624,"R"
154589,"2900 EAST HIBBARD ROAD","CORUNNA","MI",48817,42.954574216,-84.109701392,89,"2900 EAST HIBBARD ROAD, CORUNNA, MI, 48817","Match","Exact","2900 E HIBBARD RD, CORUNNA, MI, 48817",23660360,"R"
154590,"2900 EAST OLIVER STREET","BALTIMORE","MD",21213,39.308190112,-76.576729929,90,"2900 EAST OLIVER STREET, BALTIMORE, MD, 21213","Match","Exact","2900 E OLIVER ST, BALTIMORE, MD, 21213",206438999,"L"
154591,"2900 EL CAMINO AVE APT 231","LAS VEGAS","NV",89102,NA,NA,91,"2900 EL CAMINO AVE APT 231, LAS VEGAS, NV, 89102","No_Match",NA,NA,NA,NA
154592,"2900 ELKMONT COURT","LITTLE ROCK","AR",72204,34.7270473080001,-92.364574169,92,"2900 ELKMONT COURT, LITTLE ROCK, AR, 72204","Match","Exact","2900 ELKMONT CT, LITTLE ROCK, AR, 72204",83504796,"R"
154593,"2900 FIORE WAY","DELRAY BEACH","FL",33445,26.44787447,-80.104456785,93,"2900 FIORE WAY, DELRAY BEACH, FL, 33445","Match","Exact","2900 FIORE WAY, DELRAY BEACH, FL, 33445",115290416,"R"
154594,"2900 FIRE ROAD SUITE 101","EGG HARBOR TOWNSHIP","NJ",8234,39.399812061,-74.552541434,94,"2900 FIRE ROAD SUITE 101, EGG HARBOR TOWNSHIP, NJ, 8234","Match","Exact","2900 FIRE RD, EGG HARBOR TOWNSHIP, NJ, 08234",202482823,"R"
154595,"2900 FRITZ COVE RD","JUNEAU","AK",99801,58.374704658,-134.642820845,95,"2900 FRITZ COVE RD, JUNEAU, AK, 99801","Match","Exact","2900 FRITZ COVE RD, JUNEAU, AK, 99801",609362782,"R"
154596,"2900 GATEHOUSE ROAD","NORFOLK","VA",23504,36.849665927,-76.2525882899999,96,"2900 GATEHOUSE ROAD, NORFOLK, VA, 23504","Match","Non_Exact","2900 GATE HOUSE RD, NORFOLK, VA, 23504",122137967,"L"
154597,"2900 GATEWAY DRIVE","POMPANO BEACH","FL",33069,26.212958294,-80.162179295,97,"2900 GATEWAY DRIVE, POMPANO BEACH, FL, 33069","Match","Exact","2900 GATEWAY DR, POMPANO BEACH, FL, 33069",114717787,"L"
154598,"2900 GATTIS SCHOOL ROAD","ROUND ROCK","TX",78664,30.496406855,-97.6347846579999,98,"2900 GATTIS SCHOOL ROAD, ROUND ROCK, TX, 78664","Match","Exact","2900 GATTIS SCHOOL RD, ROUND ROCK, TX, 78664",126432867,"L"
154599,"2900 GENERAL ANDERSON APT N-137","VANCOUVER","WA",98661,45.6404688430001,-122.620611619,99,"2900 GENERAL ANDERSON APT N-137, VANCOUVER, WA, 98661","Match","Non_Exact","2900 GENERAL ANDERSON RD, VANCOUVER, WA, 98661",636507366,"L"
154600,"2900 GLASGOW DRIVE","NORMAN","OK",73072,35.254053221,-97.502620296,100,"2900 GLASGOW DRIVE, NORMAN, OK, 73072","Match","Exact","2900 GLASGOW DR, NORMAN, OK, 73072",99935046,"L"
154601,"2900 GOLDBRIDGE DR","AUSTIN","TX",78745,30.2005322750001,-97.824138648,101,"2900 GOLDBRIDGE DR, AUSTIN, TX, 78745","Match","Exact","2900 GOLDBRIDGE DR, AUSTIN, TX, 78745",63939887,"R"
154602,"2900 HERBERTSVILLE ROAD","POINT PLEASANT BORO","NJ",8742,40.084622241,-74.0788411089999,102,"2900 HERBERTSVILLE ROAD, POINT PLEASANT BORO, NJ, 8742","Match","Exact","2900 HERBERTSVILLE RD, POINT PLEASANT BORO, NJ, 08742",203734773,"R"
154603,"2900 HICKORY RD","AUBURNDALE","FL",33823,28.0766033080001,-81.8339084799999,103,"2900 HICKORY RD, AUBURNDALE, FL, 33823","Match","Exact","2900 HICKORY RD, AUBURNDALE, FL, 33823",651855444,"L"
154604,"2900 HIGH PLAINS ROAD","VALIER","MT",59486,NA,NA,104,"2900 HIGH PLAINS ROAD, VALIER, MT, 59486","No_Match",NA,NA,NA,NA
154605,"2900 HORIZON DRIVE STE 18","BRYANT","AR",72022,34.6210096300001,-92.497414094,105,"2900 HORIZON DRIVE STE 18, BRYANT, AR, 72022","Match","Exact","2900 HORIZON DR, BRYANT, AR, 72022",24214214,"L"
154606,"2900 IRVING AVE SOUTH APARTMENT 501","MINNEAPOLIS","MN",55408,44.949188054,-93.3021186399999,106,"2900 IRVING AVE SOUTH APARTMENT 501, MINNEAPOLIS, MN, 55408","Match","Exact","2900 IRVING AVE S, MINNEAPOLIS, MN, 55408",43628449,"R"
154607,"2900 JENNIFER DRIVE","COLLEGE STATION","TX",77845,30.5881022400001,-96.297404477,107,"2900 JENNIFER DRIVE, COLLEGE STATION, TX, 77845","Match","Exact","2900 JENNIFER DR, COLLEGE STATION, TX, 77845",21818559,"R"
154608,"2900 KLOCKNER ROAD","HAMILTON SQUARE","NJ",8690,40.2149985500001,-74.6623375149999,108,"2900 KLOCKNER ROAD, HAMILTON SQUARE, NJ, 8690","Match","Exact","2900 KLOCKNER RD, HAMILTON SQUARE, NJ, 08690",629173863,"L"
154609,"2900 KLOCKNER ROAD","HAMILTON","NJ",8690,40.2149985500001,-74.6623375149999,109,"2900 KLOCKNER ROAD, HAMILTON, NJ, 8690","Match","Exact","2900 KLOCKNER RD, HAMILTON, NJ, 08690",629173863,"L"
154610,"2900 LAUREL RIDGE WAY","ATLANTA","GA",30344,33.6492499570001,-84.493580041,110,"2900 LAUREL RIDGE WAY, ATLANTA, GA, 30344","Match","Non_Exact","2900 LAUREL RIDGE CIR, ATLANTA, GA, 30344",623761849,"R"
154611,"2900 LEMON STREET UNIT B","RIVERSIDE","CA",92501,33.9892251160001,-117.36653694,111,"2900 LEMON STREET UNIT B, RIVERSIDE, CA, 92501","Match","Exact","2900 LEMON ST, RIVERSIDE, CA, 92501",194742045,"L"
154612,"2900 LIVE OAK STREET","BAY CITY","TX",77414,28.974438127,-95.9583103099999,112,"2900 LIVE OAK STREET, BAY CITY, TX, 77414","Match","Non_Exact","2900 LIVE OAK AVE, BAY CITY, TX, 77414",83279278,"L"
154613,"2900 LONG ACRE DR","EVANSVILLE","IN",47711,38.0182753190001,-87.513675413,113,"2900 LONG ACRE DR, EVANSVILLE, IN, 47711","Match","Non_Exact","2900 LONGACRE DR, EVANSVILLE, IN, 47711",39784336,"R"
154614,"2900 MAIN LINE BLVD APT 216","ALEXANDRIA","VA",22301,NA,NA,114,"2900 MAIN LINE BLVD APT 216, ALEXANDRIA, VA, 22301","No_Match",NA,NA,NA,NA
154615,"2900 MANOR ROAD APT 1310","AUSTIN","TX",78722,30.2855578780001,-97.711068532,115,"2900 MANOR ROAD APT 1310, AUSTIN, TX, 78722","Match","Exact","2900 MANOR RD, AUSTIN, TX, 78722",63947473,"L"
154616,"2900 MCKINNON ST - UNIT 2406","DALLAS","TX",75201,32.795476024,-96.8086158469999,116,"2900 MCKINNON ST - UNIT 2406, DALLAS, TX, 75201","Match","Exact","2900 MCKINNON ST, DALLAS, TX, 75201",102908801,"R"
154617,"2900 MIDDLETOWN RD","PITTSBURGH","PA",15204,40.4486174040001,-80.062936564,117,"2900 MIDDLETOWN RD, PITTSBURGH, PA, 15204","Match","Exact","2900 MIDDLETOWN RD, PITTSBURGH, PA, 15204",641813676,"R"
154618,"2900 MONROE STREET","LA PORTE","IN",46350,41.600773056,-86.691952005,118,"2900 MONROE STREET, LA PORTE, IN, 46350","Match","Exact","2900 MONROE ST, LA PORTE, IN, 46350",637361710,"L"
154619,"2900 MONTICELLO PLACE UNIT 305","ORLANDO","FL",32835,28.5125035,-81.473137838,119,"2900 MONTICELLO PLACE UNIT 305, ORLANDO, FL, 32835","Match","Exact","2900 MONTICELLO PL, ORLANDO, FL, 32835",634029063,"R"
154620,"2900 MUNCIE ROAD","RICHMOND","VA",23223,37.5660192350001,-77.3884410809999,120,"2900 MUNCIE ROAD, RICHMOND, VA, 23223","Match","Exact","2900 MUNCIE RD, RICHMOND, VA, 23223",106650130,"R"
154621,"2900 N 32ND ST","BOISE","ID",83073,43.6465181350001,-116.22833257,121,"2900 N 32ND ST, BOISE, ID, 83073","Match","Non_Exact","2900 N 32ND ST, BOISE, ID, 83703",117858792,"R"
154622,"2900 N BAYSHORE DRIVE","SENECA","SC",29672,34.7240497060001,-82.8718385509999,122,"2900 N BAYSHORE DRIVE, SENECA, SC, 29672","Match","Exact","2900 N BAYSHORE DR, SENECA, SC, 29672",640618492,"R"
154623,"2900 N COLLEGE ROAD","WILMINGTON","NC",28405,34.300579053,-77.8757562659999,123,"2900 N COLLEGE ROAD, WILMINGTON, NC, 28405","Match","Exact","2900 N COLLEGE RD, WILMINGTON, NC, 28405",152742349,"R"
154624,"2900 N COUNCIL RD","BETHANY","OK",73008,35.498323009,-97.6542667149999,124,"2900 N COUNCIL RD, BETHANY, OK, 73008","Match","Exact","2900 N COUNCIL RD, BETHANY, OK, 73008",606157624,"R"
154625,"2900 N GOVERNMENT WAY NUMBER 111","COEUR D ALENE","ID",83815,47.703535339,-116.786330152,125,"2900 N GOVERNMENT WAY NUMBER 111, COEUR D ALENE, ID, 83815","Match","Non_Exact","2900 N GOVERNMENT WAY, COEUR D ALENE, ID, 83815",192904828,"R"
154626,"2900 N MILITARY TRAIL - SUITE 107","BOCA RATON","FL",33431,26.374534843,-80.120998349,126,"2900 N MILITARY TRAIL - SUITE 107, BOCA RATON, FL, 33431","Match","Non_Exact","2900 N MILITARY TRL, BOCA RATON, FL, 33431",646937322,"L"
154627,"2900 N QUINLAN PARK ROAD","AUSTIN","TX",78732,NA,NA,127,"2900 N QUINLAN PARK ROAD, AUSTIN, TX, 78732","No_Match",NA,NA,NA,NA
154628,"2900 N UNIVERSITY DRIVE","CORAL SPRINGS","FL",33065,26.266369561,-80.250149823,128,"2900 N UNIVERSITY DRIVE, CORAL SPRINGS, FL, 33065","Match","Exact","2900 N UNIVERSITY DR, CORAL SPRINGS, FL, 33065",636775542,"L"
154629,"2900 N WOODARD ST","CHICAGO","IL",60618,41.9341888180001,-87.710750036,129,"2900 N WOODARD ST, CHICAGO, IL, 60618","Match","Exact","2900 N WOODARD ST, CHICAGO, IL, 60618",605225205,"L"
154630,"2900 NARANJA DR","MISSION","TX",78574,26.29491173,-98.35166015,130,"2900 NARANJA DR, MISSION, TX, 78574","Match","Non_Exact","2900 NARANJA ST, MISSION, TX, 78574",627624738,"R"
154631,"2900 NE 86TH AVE","VANCOUVER","WA",98665,NA,NA,131,"2900 NE 86TH AVE, VANCOUVER, WA, 98665","No_Match",NA,NA,NA,NA
154632,"2900 NE 9TH TERRACE","POMPANO BEACH","FL",33064,26.2668174090001,-80.11004769,132,"2900 NE 9TH TERRACE, POMPANO BEACH, FL, 33064","Match","Non_Exact","2900 NE 9TH TER, POMPANO BEACH, FL, 33064",114742804,"R"
154633,"2900 NEW YORK AVENUE PBM 234","UNION CITY","NJ",7087,40.7703044680001,-74.0292396299999,133,"2900 NEW YORK AVENUE PBM 234, UNION CITY, NJ, 7087","Match","Non_Exact","2900 NEW YORK AVE, UNION CITY, NJ, 07087",59599106,"R"
154634,"2900 NORMANDY DRIVE","ELLICOTT CITY","MD",21043,39.2906651550001,-76.80430711,134,"2900 NORMANDY DRIVE, ELLICOTT CITY, MD, 21043","Match","Exact","2900 NORMANDY DR, ELLICOTT CITY, MD, 21043",158923494,"R"
154635,"2900 NORTH BRAESWOOD APT 4310","HOUSTON","TX",77025,29.697101391,-95.422547927,135,"2900 NORTH BRAESWOOD APT 4310, HOUSTON, TX, 77025","Match","Non_Exact","2900 N BRAESWOOD BLVD, HOUSTON, TX, 77025",96609885,"R"
154636,"2900 NORTH GOVERNEMNT WAY NMBR 109","COEUR D'ALENE","ID",83815,47.703535339,-116.786330152,136,"2900 NORTH GOVERNEMNT WAY NMBR 109, COEUR D'ALENE, ID, 83815","Match","Non_Exact","2900 N GOVERNMENT WAY, COEUR D ALENE, ID, 83815",192904828,"R"
154637,"2900 NORTH STREET","NEW HAVEN","VT",5472,44.165132504,-73.152265621,137,"2900 NORTH STREET, NEW HAVEN, VT, 5472","Match","Exact","2900 NORTH ST, NEW HAVEN, VT, 05472",652765890,"R"
154638,"2900 NORTH VAN BUREN STREET","WILMINGTON","DE",19802,39.762113135,-75.537856559,138,"2900 NORTH VAN BUREN STREET, WILMINGTON, DE, 19802","Match","Exact","2900 N VAN BUREN ST, WILMINGTON, DE, 19802",187258393,"R"
154639,"2900 NW 42ND AVE APT 103","COCONUT CREEK","FL",33066,26.272158302,-80.1818501609999,139,"2900 NW 42ND AVE APT 103, COCONUT CREEK, FL, 33066","Match","Non_Exact","2900 NW 42ND AVE, COCONUT CREEK, FL, 33066",114751350,"R"
154640,"2900 NW 48TH ST","MIAMI","FL",33142,25.8179258660001,-80.242775995,140,"2900 NW 48TH ST, MIAMI, FL, 33142","Match","Exact","2900 NW 48TH ST, MIAMI, FL, 33142",116002204,"L"
154641,"2900 NW BUTTON ROAD -  SUITE A-7","TOPEKA","KS",66618,39.1042441380001,-95.706184434,141,"2900 NW BUTTON ROAD -  SUITE A-7, TOPEKA, KS, 66618","Match","Non_Exact","2900 NW BUTTON RD, TOPEKA, KS, 66618",17885649,"R"
154642,"2900 NW CHELSEA PL","BLUE SPRINGS","MO",64015,39.0254099950001,-94.297430363,142,"2900 NW CHELSEA PL, BLUE SPRINGS, MO, 64015","Match","Exact","2900 NW CHELSEA PL, BLUE SPRINGS, MO, 64015",91473862,"L"
154643,"2900 PARK AVENUE WEST","MANSFIELD","OH",44906,40.760114339,-82.6206193789999,143,"2900 PARK AVENUE WEST, MANSFIELD, OH, 44906","Match","Exact","2900 PARK AVE W, MANSFIELD, OH, 44906",207224578,"R"
154644,"2900 PARRISH RD","TITUSVILLE","FL",32796,28.651897594,-80.8391378059999,144,"2900 PARRISH RD, TITUSVILLE, FL, 32796","Match","Non_Exact","2900 E PARRISH RD, TITUSVILLE, FL, 32796",639870930,"R"
154645,"2900 PAVING STONE COURT","EFFINGHAM","SC",29541,34.15327784,-79.8256046,145,"2900 PAVING STONE COURT, EFFINGHAM, SC, 29541","Match","Non_Exact","2900 W PAVING STONE CT, EFFINGHAM, SC, 29541",624758263,"R"
154646,"2900 PELHAM ROAD NORTH","ST PETERSBURG","FL",33710,27.798319904,-82.75626454,146,"2900 PELHAM ROAD NORTH, ST PETERSBURG, FL, 33710","Match","Exact","2900 PELHAM RD N, SAINT PETERSBURG, FL, 33710",124693686,"L"
154647,"2900 PLAINVIEW DR SE","MANDAN","ND",58554,46.798923652,-100.876395744,147,"2900 PLAINVIEW DR SE, MANDAN, ND, 58554","Match","Non_Exact","2900 PLAINVIEW DR, MANDAN, ND, 58554",647626579,"L"
154648,"2900 PRYTANIA STREET","NEW ORLEANS","LA",70115,29.9289342480001,-90.086485741,148,"2900 PRYTANIA STREET, NEW ORLEANS, LA, 70115","Match","Exact","2900 PRYTANIA ST, NEW ORLEANS, LA, 70115",191712766,"L"
154649,"2900 RIVER RD","GRANVILLE","OH",43023,40.046145998,-82.485565419,149,"2900 RIVER RD, GRANVILLE, OH, 43023","Match","Exact","2900 RIVER RD, GRANVILLE, OH, 43023",645403801,"R"
154650,"2900 ROCKFALLS LANE","HENDERSON","NV",89074,36.0081498230001,-115.113926706,150,"2900 ROCKFALLS LANE, HENDERSON, NV, 89074","Match","Exact","2900 ROCKFALLS LN, HENDERSON, NV, 89074",201929801,"R"
154651,"2900 RODD STREET  PO BOX 1163","MIDLAND","MI",48640,43.623392632,-84.226885255,151,"2900 RODD STREET  PO BOX 1163, MIDLAND, MI, 48640","Match","Exact","2900 RODD ST, MIDLAND, MI, 48640",81196100,"R"
154652,"2900 ROYAL CREST DRIVE","MIDLOTHIAN","VA",23113,37.54172558,-77.665122293,152,"2900 ROYAL CREST DRIVE, MIDLOTHIAN, VA, 23113","Match","Exact","2900 ROYAL CREST DR, MIDLOTHIAN, VA, 23113",641683126,"L"
154653,"2900 S QUINCY ST SUITE 330","ARLINGTON","VA",22206,38.840342396,-77.08682764,153,"2900 S QUINCY ST SUITE 330, ARLINGTON, VA, 22206","Match","Non_Exact","2900 S QUINCY ST, ARLINGTON, VA, 22206",635443891,"R"
154654,"2900 S SHOSHONE ST","ENGLEWOOD","CO",80110,39.664020963,-105.009875497,154,"2900 S SHOSHONE ST, ENGLEWOOD, CO, 80110","Match","Exact","2900 S SHOSHONE ST, ENGLEWOOD, CO, 80110",177332754,"L"
154655,"2900 SE CORNELIUS PASS RD STE 111","HILLSBORO","OR",97123,45.4997471450001,-122.902121164,155,"2900 SE CORNELIUS PASS RD STE 111, HILLSBORO, OR, 97123","Match","Non_Exact","2900 SW CORNELIUS PASS RD, HILLSBORO, OR, 97123",638413939,"L"
154656,"2900 SOUTH CLIFF AVENUE","SIOUX FALLS","SD",57105,43.5189070970001,-96.71121871,156,"2900 SOUTH CLIFF AVENUE, SIOUX FALLS, SD, 57105","Match","Exact","2900 S CLIFF AVE, SIOUX FALLS, SD, 57105",34975581,"L"
154657,"2900 SOUTH GILBERT ROAD SUITE 4","CHANDLER","AZ",85286,NA,NA,157,"2900 SOUTH GILBERT ROAD SUITE 4, CHANDLER, AZ, 85286","No_Match",NA,NA,NA,NA
154658,"2900 SPRUCE CIRCLE","SNELLVILLE","GA",30078,33.8483612150001,-84.036252147,158,"2900 SPRUCE CIRCLE, SNELLVILLE, GA, 30078","Match","Non_Exact","2900 SPRUCE CIR SW, SNELLVILLE, GA, 30078",88901197,"L"
154659,"2900 STANDIFORD AVE 16B   PMB251","MODESTO","CA",95350,37.685263983,-121.04816733,159,"2900 STANDIFORD AVE 16B   PMB251, MODESTO, CA, 95350","Match","Exact","2900 STANDIFORD AVE, MODESTO, CA, 95350",640535353,"L"
154660,"2900 STANDIFORD AVE 16B PMB 344","MODESTO","CA",95350,37.685263983,-121.04816733,160,"2900 STANDIFORD AVE 16B PMB 344, MODESTO, CA, 95350","Match","Exact","2900 STANDIFORD AVE, MODESTO, CA, 95350",640535353,"L"
154661,"2900 STANDIFORD AVE SUITE 16B-278","MODESTO","CA",95350,37.685263983,-121.04816733,161,"2900 STANDIFORD AVE SUITE 16B-278, MODESTO, CA, 95350","Match","Exact","2900 STANDIFORD AVE, MODESTO, CA, 95350",640535353,"L"
154662,"2900 STATE HIGHWAY 156","COLDSPRING","TX",77331,30.715572314,-95.188968007,162,"2900 STATE HIGHWAY 156, COLDSPRING, TX, 77331","Match","Exact","2900 STATE HWY 156, COLDSPRING, TX, 77331",24268814,"L"
154663,"2900 STATE ROUTE 43","MOGADORE","OH",44260,41.0684937250001,-81.347137287,163,"2900 STATE ROUTE 43, MOGADORE, OH, 44260","Match","Exact","2900 STATE RTE 43, MOGADORE, OH, 44260",612608866,"R"
154664,"2900 SUNFLOWER RD","CHEYENNE","WY",82009,41.167652332,-104.775961846,164,"2900 SUNFLOWER RD, CHEYENNE, WY, 82009","Match","Exact","2900 SUNFLOWER RD, CHEYENNE, WY, 82009",160148165,"L"
154665,"2900 SUTTON RD","OAKTON","VA",22181,38.8765427270001,-77.279826092,165,"2900 SUTTON RD, OAKTON, VA, 22181","Match","Non_Exact","2900 SUTTON RD, VIENNA, VA, 22181",642593449,"R"
154666,"2900 SUTTON ROAD","VIENNA","VA",22181,38.8765427270001,-77.279826092,166,"2900 SUTTON ROAD, VIENNA, VA, 22181","Match","Exact","2900 SUTTON RD, VIENNA, VA, 22181",642593449,"R"
154667,"2900 SW 116TH AVE UNIT 105","MIRAMAR","FL",33025,25.9820096670001,-80.3014951769999,167,"2900 SW 116TH AVE UNIT 105, MIRAMAR, FL, 33025","Match","Non_Exact","2900 SW 116TH AVE, MIRAMAR, FL, 33025",637528526,"L"
154668,"2900 SW 18 ST","DES MOINES","IA",50315,41.5582524370001,-93.640016004,168,"2900 SW 18 ST, DES MOINES, IA, 50315","Match","Exact","2900 SW 18TH ST, DES MOINES, IA, 50315",65785756,"R"
154669,"2900 SW 30TH STREET","DES MOINES","IA",50321,41.557707888,-93.6578132879999,169,"2900 SW 30TH STREET, DES MOINES, IA, 50321","Match","Exact","2900 SW 30TH ST, DES MOINES, IA, 50321",638738842,"R"
154670,"2900 SW PLASS COURT","TOPEKA","KS",66611,39.0150834140001,-95.704489847,170,"2900 SW PLASS COURT, TOPEKA, KS, 66611","Match","Exact","2900 SW PLASS CT, TOPEKA, KS, 66611",17887766,"L"
154671,"2900 SWEITZER ROAD","UNIONTOWN","OH",44685,40.9854578280001,-81.418254466,171,"2900 SWEITZER ROAD, UNIONTOWN, OH, 44685","Match","Exact","2900 SWEITZER RD, UNIONTOWN, OH, 44685",61358815,"R"
154672,"2900 THOMAS AVE S APARTEMENT 2302","MINNEAPOLIS","MN",55416,44.9499236460001,-93.3138735919999,172,"2900 THOMAS AVE S APARTEMENT 2302, MINNEAPOLIS, MN, 55416","Match","Exact","2900 THOMAS AVE S, MINNEAPOLIS, MN, 55416",43627758,"R"
154673,"2900 THOMAS AVE S APT 2210","MINNEAPOLIS","MN",55416,44.9499236460001,-93.3138735919999,173,"2900 THOMAS AVE S APT 2210, MINNEAPOLIS, MN, 55416","Match","Exact","2900 THOMAS AVE S, MINNEAPOLIS, MN, 55416",43627758,"R"
154674,"2900 UNIVERSAL DRIVE","SAGINAW","MI",48603,43.4588695470001,-83.973405522,174,"2900 UNIVERSAL DRIVE, SAGINAW, MI, 48603","Match","Exact","2900 UNIVERSAL DR, SAGINAW, MI, 48603",80225123,"R"
154675,"2900 UNIVERSITY AVENUE","CROOKSTON","MN",56716,NA,NA,175,"2900 UNIVERSITY AVENUE, CROOKSTON, MN, 56716","No_Match",NA,NA,NA,NA
154676,"2900 W GLENLAKE AVE UNIT G","CHICAGO","IL",60659,41.9921751570001,-87.701929773,176,"2900 W GLENLAKE AVE UNIT G, CHICAGO, IL, 60659","Match","Non_Exact","2900 W GLENLAKE AVE, CHICAGO, IL, 60659",605169430,"R"
154677,"2900 W LEHMAN AVENUE 214","WEST VALLEY CITY","UT",84119,40.694428223,-111.96233026,177,"2900 W LEHMAN AVENUE 214, WEST VALLEY CITY, UT, 84119","Match","Exact","2900 LEHMAN AVE, WEST VALLEY CITY, UT, 84119",650214359,"R"
154678,"2900 W ROYAL LANE APT 1006","IRVING","TX",75063,32.911148301,-96.9837089059999,178,"2900 W ROYAL LANE APT 1006, IRVING, TX, 75063","Match","Non_Exact","2900 W ROYAL LN, IRVING, TX, 75063",650492337,"L"
154679,"2900 W SLAUSON AVE","LOS ANGELES","CA",90043,NA,NA,179,"2900 W SLAUSON AVE, LOS ANGELES, CA, 90043","No_Match",NA,NA,NA,NA
154680,"2900 W SOUTHLAKE BLVD SUITE 170","SOUTHLAKE","TX",76092,NA,NA,180,"2900 W SOUTHLAKE BLVD SUITE 170, SOUTHLAKE, TX, 76092","Tie",NA,NA,NA,NA
154681,"2900 WASHINGTON AVE NORTH","MINNEAPOLIS","MN",55411,45.009619942,-93.281833902,181,"2900 WASHINGTON AVE NORTH, MINNEAPOLIS, MN, 55411","Match","Exact","2900 WASHINGTON AVE N, MINNEAPOLIS, MN, 55411",43630601,"R"
154682,"2900 WEST 15TH AVENUE","GARY","IN",46404,41.587879329,-87.37324992,182,"2900 WEST 15TH AVENUE, GARY, IN, 46404","Match","Exact","2900 W 15TH AVE, GARY, IN, 46404",98425279,"R"
154683,"2900 WEST 30TH AVE","EMPORIA","KS",66801,38.4339035310001,-96.2188113029999,183,"2900 WEST 30TH AVE, EMPORIA, KS, 66801","Match","Exact","2900 W 30TH AVE, EMPORIA, KS, 66801",639972330,"L"
154684,"2900 WESTFORK DRIVE","BATON","LA",70827,NA,NA,184,"2900 WESTFORK DRIVE, BATON, LA, 70827","No_Match",NA,NA,NA,NA
154685,"2900 WILSON AVE SW STE 110","GRANDVILLE","MI",49418,42.9116796230001,-85.763217776,185,"2900 WILSON AVE SW STE 110, GRANDVILLE, MI, 49418","Match","Exact","2900 WILSON AVE SW, GRANDVILLE, MI, 49418",12452850,"L"
154686,"2900 WINDING PATHWAY","FLOWER MOUND","TX",75022,NA,NA,186,"2900 WINDING PATHWAY, FLOWER MOUND, TX, 75022","No_Match",NA,NA,NA,NA
154687,"2900 WOODFERN CT","WOODBRIDGE","VA",22192,38.688513002,-77.2991951229999,187,"2900 WOODFERN CT, WOODBRIDGE, VA, 22192","Match","Exact","2900 WOODFERN CT, WOODBRIDGE, VA, 22192",76510435,"R"
154688,"29000 INFORMATION LANE  UNIT 406","EASTON","MD",21601,38.812683959,-76.070401976,188,"29000 INFORMATION LANE  UNIT 406, EASTON, MD, 21601","Match","Exact","29000 INFORMATION LN, EASTON, MD, 21601",68383813,"L"
154689,"29000 US HIGHWAY 98 SUITE 203-B","DAPHNE","AL",36526,30.6478981330001,-87.912507746,189,"29000 US HIGHWAY 98 SUITE 203-B, DAPHNE, AL, 36526","Match","Non_Exact","29000 US HWY 98, DAPHNE, AL, 36526",649106568,"R"
154690,"29005 GOLDEN LAKE CIRCLE","MENIFEE","CA",92585,33.7111403640001,-117.153006229,190,"29005 GOLDEN LAKE CIRCLE, MENIFEE, CA, 92585","Match","Exact","29005 GOLDEN LAKE CIR, MENIFEE, CA, 92585",646197888,"L"
154691,"29005 SEBRING CT","HAYWARD","CA",94544,37.619433927,-122.071544372,191,"29005 SEBRING CT, HAYWARD, CA, 94544","Match","Exact","29005 SEBRING CT, HAYWARD, CA, 94544",125055821,"R"
154692,"29006 FOREST HILL DRIVE","FARMINGTON HILLS","MI",48331,42.506653494,-83.409109872,192,"29006 FOREST HILL DRIVE, FARMINGTON HILLS, MI, 48331","Match","Exact","29006 FOREST HILL DR, FARMINGTON HILLS, MI, 48331",69721274,"R"
154693,"2900LANDRUM DR  SW APT 71","ATLANTA","GA",30311,NA,NA,193,"2900LANDRUM DR  SW APT 71, ATLANTA, GA, 30311","No_Match",NA,NA,NA,NA
154694,"2901  JAKES ALY","FAYETTEVILLE","NC",28306,34.973766622,-79.0196743769999,194,"2901  JAKES ALY, FAYETTEVILLE, NC, 28306","Match","Exact","2901 JAKES ALY, FAYETTEVILLE, NC, 28306",627145956,"R"
154695,"2901 225TH STREET","SAUK VILLAGE","IL",60411,41.481506843,-87.5506468139999,195,"2901 225TH STREET, SAUK VILLAGE, IL, 60411","Match","Exact","2901 225TH ST, SAUK VILLAGE, IL, 60411",111787199,"L"
154696,"2901 ANNA J DR","ROSWELL","NM",88201,33.430833976,-104.541888163,196,"2901 ANNA J DR, ROSWELL, NM, 88201","Match","Exact","2901 ANNA J DR, ROSWELL, NM, 88201",131766051,"R"
154697,"2901 BARTON SKYWAY APT 2212","AUSTIN","TX",78746,30.259985747,-97.7887557339999,197,"2901 BARTON SKYWAY APT 2212, AUSTIN, TX, 78746","Match","Exact","2901 BARTON SKWY, AUSTIN, TX, 78746",64003233,"L"
154698,"2901 BEACON AVE","COLUMBUS","GA",31904,32.4903888310001,-84.97914868,198,"2901 BEACON AVE, COLUMBUS, GA, 31904","Match","Exact","2901 BEACON AVE, COLUMBUS, GA, 31904",98937406,"L"
154699,"2901 BLEDSOE APT 1329","FORT WORTH","TX",76107,32.74832759,-97.358539798,199,"2901 BLEDSOE APT 1329, FORT WORTH, TX, 76107","Match","Non_Exact","2901 BLEDSOE ST, FORT WORTH, TX, 76107",101883933,"L"
154700,"2901 BOREN","WICHITA FALLS","TX",76308,NA,NA,200,"2901 BOREN, WICHITA FALLS, TX, 76308","No_Match",NA,NA,NA,NA
154701,"2901 BOSTON STREET UNIT 412","BALTIMORE","MD",21224,39.2781890540001,-76.5752026119999,201,"2901 BOSTON STREET UNIT 412, BALTIMORE, MD, 21224","Match","Exact","2901 BOSTON ST, BALTIMORE, MD, 21224",206425473,"R"
154702,"2901 BRAXTON ROAD","DRAKES BRANCH","VA",23937,36.960933498,-78.444061542,202,"2901 BRAXTON ROAD, DRAKES BRANCH, VA, 23937","Match","Exact","2901 BRAXTON RD, DRAKES BRANCH, VA, 23937",54279367,"L"
154703,"2901 BROCK WAY","BAKERSFIELD","CA",93306,35.399941638,-118.93967508,203,"2901 BROCK WAY, BAKERSFIELD, CA, 93306","Match","Exact","2901 BROCK WAY, BAKERSFIELD, CA, 93306",645296203,"R"
154704,"2901 BROKEN BOW WAY","PLANO","TX",75093,33.0382100050001,-96.788797539,204,"2901 BROKEN BOW WAY, PLANO, TX, 75093","Match","Exact","2901 BROKEN BOW WAY, PLANO, TX, 75093",210523162,"L"
154705,"2901 BRYCE ST","SACRAMENTO","CA",95821,38.6181497760001,-121.409505382,205,"2901 BRYCE ST, SACRAMENTO, CA, 95821","Match","Exact","2901 BRYCE ST, SACRAMENTO, CA, 95821",133330836,"L"
154706,"2901 CALLE DEL SOL WAY","RANCHO CORDOVA","CA",65670,38.5929506190001,-121.292417294,206,"2901 CALLE DEL SOL WAY, RANCHO CORDOVA, CA, 65670","Match","Non_Exact","2901 CALLE DEL SOL WAY, RANCHO CORDOVA, CA, 95670",133348945,"L"
154707,"2901 CENTRAL ROAD","ROLLING MEADOWS","IL",60008,42.0666983790001,-88.0173335979999,207,"2901 CENTRAL ROAD, ROLLING MEADOWS, IL, 60008","Match","Exact","2901 CENTRAL RD, ROLLING MDWS, IL, 60008",605597702,"L"
154708,"2901 CHEYENNE BLVD","SIOUX CITY","IA",51104,42.5206971580001,-96.390831009,208,"2901 CHEYENNE BLVD, SIOUX CITY, IA, 51104","Match","Exact","2901 CHEYENNE BLVD, SIOUX CITY, IA, 51104",93445068,"L"
154709,"2901 CLIFFVIEW COURT","GRANBURY","TX",76048,32.5249468640001,-97.8388447299999,209,"2901 CLIFFVIEW COURT, GRANBURY, TX, 76048","Match","Exact","2901 CLIFFVIEW CT, GRANBURY, TX, 76048",633527959,"R"
154710,"2901 CLINTMOORE ROAD 326","BOCA RATON","FL",33496,NA,NA,210,"2901 CLINTMOORE ROAD 326, BOCA RATON, FL, 33496","No_Match",NA,NA,NA,NA
154711,"2901 CURRY FORD ROAD SUITE 211-B","ORLANDO","FL",32806,28.5241481250001,-81.346406424,211,"2901 CURRY FORD ROAD SUITE 211-B, ORLANDO, FL, 32806","Match","Exact","2901 CURRY FORD RD, ORLANDO, FL, 32806",647491113,"L"
154712,"2901 DEVONDALE PLACE","SAINT LOUIS","MO",63131,38.6333773980001,-90.429817149,212,"2901 DEVONDALE PLACE, SAINT LOUIS, MO, 63131","Match","Exact","2901 DEVONDALE PL, SAINT LOUIS, MO, 63131",100125881,"L"
154713,"2901 DOUGLAS BLVD STE 290","ROSEVILLE","CA",95661,38.7442768000001,-121.246493024,213,"2901 DOUGLAS BLVD STE 290, ROSEVILLE, CA, 95661","Match","Exact","2901 DOUGLAS BLVD, ROSEVILLE, CA, 95661",639851323,"L"
154714,"2901 DRUID PARK DRIVE    SUITE A100","BALTIMORE","MD",21215,NA,NA,214,"2901 DRUID PARK DRIVE    SUITE A100, BALTIMORE, MD, 21215","No_Match",NA,NA,NA,NA
154715,"2901 DUNBARTON AVE NW","CANTON","OH",44708,40.8236300560001,-81.45131091,215,"2901 DUNBARTON AVE NW, CANTON, OH, 44708","Match","Non_Exact","2901 DUNBARTON DR NW, CANTON, OH, 44708",64674025,"L"
154716,"2901 E 23RD ST","ALVA","FL",33920,26.683567995,-81.5903840299999,216,"2901 E 23RD ST, ALVA, FL, 33920","Match","Exact","2901 E 23RD ST, ALVA, FL, 33920",117985256,"R"
154717,"2901 EARLHAM DR","DAYTON","OH",45406,39.7747297610001,-84.2369607639999,217,"2901 EARLHAM DR, DAYTON, OH, 45406","Match","Exact","2901 EARLHAM DR, DAYTON, OH, 45406",143567051,"R"
154718,"2901 EISSLER STREET","BAKERSFIELD","CA",93306,35.3998348050001,-118.938714327,218,"2901 EISSLER STREET, BAKERSFIELD, CA, 93306","Match","Exact","2901 EISSLER ST, BAKERSFIELD, CA, 93306",647349646,"R"
154719,"2901 FAIRVIEW","RALEIGH","NC",27608,35.809725153,-78.6624862319999,219,"2901 FAIRVIEW, RALEIGH, NC, 27608","Match","Non_Exact","2901 FAIRVIEW RD, RALEIGH, NC, 27608",72502336,"L"
154720,"2901 FALK RD","VANCOUVER","WA",98661,45.642544048,-122.628598365,220,"2901 FALK RD, VANCOUVER, WA, 98661","Match","Exact","2901 FALK RD, VANCOUVER, WA, 98661",649872767,"R"
154721,"2901 FALLSTAFF ROAD APT 203","BALTIMORE","MD",21209,39.3719847180001,-76.6854693129999,221,"2901 FALLSTAFF ROAD APT 203, BALTIMORE, MD, 21209","Match","Exact","2901 FALLSTAFF RD, BALTIMORE, MD, 21209",206404444,"L"
154722,"2901 FAUBOROUGH CT","FORT COLLINS","CO",80525,40.5485143120001,-105.055046674,222,"2901 FAUBOROUGH CT, FORT COLLINS, CO, 80525","Match","Exact","2901 FAUBOROUGH CT, FORT COLLINS, CO, 80525",188494376,"L"
154723,"2901 FOX LAIR DR APT 104","WOODBRIDGE","VA",22191,38.594481038,-77.301073018,223,"2901 FOX LAIR DR APT 104, WOODBRIDGE, VA, 22191","Match","Exact","2901 FOX LAIR DR, WOODBRIDGE, VA, 22191",207161922,"L"
154724,"2901 GA HWY 90 W","REBECCA","GA",31783,NA,NA,224,"2901 GA HWY 90 W, REBECCA, GA, 31783","No_Match",NA,NA,NA,NA
154725,"2901 GEORGETOWN DR","MIDLAND","MI",48642,43.6356615230001,-84.1917705289999,225,"2901 GEORGETOWN DR, MIDLAND, MI, 48642","Match","Exact","2901 GEORGETOWN DR, MIDLAND, MI, 48642",81193109,"L"
154726,"2901 GUN CLUB ROAD","AUGUSTA","GA",30907,33.528042059,-82.031142405,226,"2901 GUN CLUB ROAD, AUGUSTA, GA, 30907","Match","Non_Exact","2901 GUNCLUB RD, AUGUSTA, GA, 30907",619727898,"R"
154727,"2901 HALLWELL DR","PLANO","TX",75093,33.0401424820001,-96.836900536,227,"2901 HALLWELL DR, PLANO, TX, 75093","Match","Exact","2901 HALLWELL DR, PLANO, TX, 75093",123531305,"R"
154728,"2901 HOLLY BERRY COURT","KISSIMMEE","FL",34744,28.3339705560001,-81.277698317,228,"2901 HOLLY BERRY COURT, KISSIMMEE, FL, 34744","Match","Exact","2901 HOLLY BERRY CT, KISSIMMEE, FL, 34744",176697586,"L"
154729,"2901 INDIANA BLVD STE 227","DALLAS","TX",75226,32.7855737030001,-96.782592017,229,"2901 INDIANA BLVD STE 227, DALLAS, TX, 75226","Match","Exact","2901 INDIANA BLVD, DALLAS, TX, 75226",102911625,"L"
154730,"2901 LEON C SIMON BLVD","NEW ORLEANS","LA",70126,NA,NA,230,"2901 LEON C SIMON BLVD, NEW ORLEANS, LA, 70126","No_Match",NA,NA,NA,NA
154731,"2901 LEXHAM RD","LOUISVILLE","KY",40220,38.2064235830001,-85.617776949,231,"2901 LEXHAM RD, LOUISVILLE, KY, 40220","Match","Exact","2901 LEXHAM RD, LOUISVILLE, KY, 40220",96857522,"R"
154732,"2901 LOXDALE FARMS DRIVE","MONROE","NC",28110,35.0942744450001,-80.49850837,232,"2901 LOXDALE FARMS DRIVE, MONROE, NC, 28110","Match","Exact","2901 LOXDALE FARMS DR, MONROE, NC, 28110",641583079,"R"
154733,"2901 LUXFORD CT","CHESAPEAKE","VA",23321,36.83880442,-76.39353943,233,"2901 LUXFORD CT, CHESAPEAKE, VA, 23321","Match","Exact","2901 LUXFORD CT, CHESAPEAKE, VA, 23321",121768183,"L"
154734,"2901 MAIN ST DEPT OF BIO SCIENCE","LUBBOCK","TX",79409,33.585406613,-101.881344449,234,"2901 MAIN ST DEPT OF BIO SCIENCE, LUBBOCK, TX, 79409","Match","Non_Exact","2901 MAIN ST, LUBBOCK, TX, 79406",185253153,"R"
154735,"2901 MAIN STREET M-S 43131","LUBBOCK","TX",79409,33.585406613,-101.881344449,235,"2901 MAIN STREET M-S 43131, LUBBOCK, TX, 79409","Match","Non_Exact","2901 MAIN ST, LUBBOCK, TX, 79406",185253153,"R"
154736,"2901 MARIPOSA STREET SUITE 3","SAN FRANCISCO","CA",94110,37.762909548,-122.412226712,236,"2901 MARIPOSA STREET SUITE 3, SAN FRANCISCO, CA, 94110","Match","Exact","2901 MARIPOSA ST, SAN FRANCISCO, CA, 94110",192287652,"L"
154737,"2901 MEREDITH PL","BENSALEM","PA",19020,40.1405849340001,-74.924246234,237,"2901 MEREDITH PL, BENSALEM, PA, 19020","Match","Exact","2901 MEREDITH PL, BENSALEM, PA, 19020",134780706,"R"
154738,"2901 MOORE LANE","FORT COLLINS","CO",80526,40.546716744,-105.122365328,238,"2901 MOORE LANE, FORT COLLINS, CO, 80526","Match","Exact","2901 MOORE LN, FORT COLLINS, CO, 80526",188493169,"R"
154739,"2901 MOUNDS VIEW BVD 118","MOUNDS VIEW","MN",55112,NA,NA,239,"2901 MOUNDS VIEW BVD 118, MOUNDS VIEW, MN, 55112","No_Match",NA,NA,NA,NA
154740,"2901 N 89TH STREET","CASEYVILLE","IL",62232,38.6197904800001,-90.0396048809999,240,"2901 N 89TH STREET, CASEYVILLE, IL, 62232","Match","Exact","2901 N 89TH ST, CASEYVILLE, IL, 62232",107835865,"L"
154741,"2901 N AGUSTA NATIONAL DRIVE","HARLINGEN","TX",78550,26.1812015790001,-97.6489966779999,241,"2901 N AGUSTA NATIONAL DRIVE, HARLINGEN, TX, 78550","Match","Non_Exact","2901 N AUGUSTA NATIONAL DR, HARLINGEN, TX, 78550",653230636,"R"
154742,"2901 N SONCY RD","AMARILLO","TX",79124,35.183274134,-101.937878706,242,"2901 N SONCY RD, AMARILLO, TX, 79124","Match","Exact","2901 N SONCY RD, AMARILLO, TX, 79124",182486708,"L"
154743,"2901 N WOLCOTT AVE UNIT C","CHICAGO","IL",60657,41.9341754170001,-87.675741864,243,"2901 N WOLCOTT AVE UNIT C, CHICAGO, IL, 60657","Match","Non_Exact","2901 N WOLCOTT AVE, CHICAGO, IL, 60657",605237030,"R"
154744,"2901 NE 24TH PLACE","OCALA","FL",34470,29.2121920290001,-82.096936122,244,"2901 NE 24TH PLACE, OCALA, FL, 34470","Match","Exact","2901 NE 24TH PL, OCALA, FL, 34470",607457882,"L"
154745,"2901 NE BLAKELEY ST APT 407","SEATTLE","WA",98105,47.665995068,-122.296924981,245,"2901 NE BLAKELEY ST APT 407, SEATTLE, WA, 98105","Match","Non_Exact","2901 NE BLAKELEY ST, SEATTLE, WA, 98105",186587156,"R"
154746,"2901 NORTH CAPITOL ST NE","WASHINGTON","DC",20002,38.925906873,-77.0089551619999,246,"2901 NORTH CAPITOL ST NE, WASHINGTON, DC, 20002","Match","Exact","2901 N CAPITOL ST NE, WASHINGTON, DC, 20002",640276171,"R"
154747,"2901 ORLEANS AVE","NEW ORLEANS","LA",70119,29.9723705690001,-90.085070092,247,"2901 ORLEANS AVE, NEW ORLEANS, LA, 70119","Match","Exact","2901 ORLEANS AVE, NEW ORLEANS, LA, 70119",191709377,"R"
154748,"2901 PALM BEACH BLVD","FT MYERS","MI",33916,NA,NA,248,"2901 PALM BEACH BLVD, FT MYERS, MI, 33916","No_Match",NA,NA,NA,NA
154749,"2901 RED BLUFF RD 200","PASADENA","TX",77503,NA,NA,249,"2901 RED BLUFF RD 200, PASADENA, TX, 77503","No_Match",NA,NA,NA,NA
154750,"2901 RICHMOND RD SUITE 140-186","LEXINGTON","KY",40509,NA,NA,250,"2901 RICHMOND RD SUITE 140-186, LEXINGTON, KY, 40509","No_Match",NA,NA,NA,NA
154751,"2901 S 4J RD","GILLETTE","WY",82718,44.2571965430001,-105.539813456,251,"2901 S 4J RD, GILLETTE, WY, 82718","Match","Exact","2901 S 4J RD, GILLETTE, WY, 82718",652184570,"R"
154752,"2901 S JACKSON ST NUM 501","SEATTLE","WA",98144,47.599190864,-122.294969058,252,"2901 S JACKSON ST NUM 501, SEATTLE, WA, 98144","Match","Non_Exact","2901 S JACKSON ST, SEATTLE, WA, 98144",186993698,"R"
154753,"2901 S SANTA FE AVE","MOORE","OK",73160,NA,NA,253,"2901 S SANTA FE AVE, MOORE, OK, 73160","No_Match",NA,NA,NA,NA
154754,"2901 S SANTA FE","MOORE","OK",73160,NA,NA,254,"2901 S SANTA FE, MOORE, OK, 73160","No_Match",NA,NA,NA,NA
154755,"2901 SALTWELL ROAD","HUNTINGTON","WV",25705,38.4073944690001,-82.390072226,255,"2901 SALTWELL ROAD, HUNTINGTON, WV, 25705","Match","Exact","2901 SALTWELL RD, HUNTINGTON, WV, 25705",101319573,"R"
154756,"2901 SE 52ND AVE","PORTLAND","OR",97206,45.501405441,-122.609031063,256,"2901 SE 52ND AVE, PORTLAND, OR, 97206","Match","Exact","2901 SE 52ND AVE, PORTLAND, OR, 97206",157514890,"R"
154757,"2901 SEMINARY DRIVE","GREENSBURG","PA",15601,40.2959248500001,-79.4709633639999,257,"2901 SEMINARY DRIVE, GREENSBURG, PA, 15601","Match","Exact","2901 SEMINARY DR, GREENSBURG, PA, 15601",53028073,"R"
154758,"2901 SHATTUCK AVENUE","BERKELEY","CA",94705,37.856642133,-122.266651853,258,"2901 SHATTUCK AVENUE, BERKELEY, CA, 94705","Match","Exact","2901 SHATTUCK AVE, BERKELEY, CA, 94705",605994569,"L"
154759,"2901 SHERIDAN BLVD","WHEATRIDGE","CO",80214,39.7586207310001,-105.05324536,259,"2901 SHERIDAN BLVD, WHEATRIDGE, CO, 80214","Match","Non_Exact","2901 SHERIDAN BLVD, WHEAT RIDGE, CO, 80214",177622969,"L"
154760,"2901 SIR THOMAS DR","CHESAPEAKE","VA",23321,36.8383526640001,-76.3975166929999,260,"2901 SIR THOMAS DR, CHESAPEAKE, VA, 23321","Match","Exact","2901 SIR THOMAS DR, CHESAPEAKE, VA, 23321",632009921,"R"
154761,"2901 SKOVE GADE NO 1","ST THOMAS","VI",802,NA,NA,261,"2901 SKOVE GADE NO 1, ST THOMAS, VI, 802","No_Match",NA,NA,NA,NA
154762,"2901 SMALLMAN ST APT 2G","PITTSBURGH","PA",15201,40.458616938,-79.974913583,262,"2901 SMALLMAN ST APT 2G, PITTSBURGH, PA, 15201","Match","Exact","2901 SMALLMAN ST, PITTSBURGH, PA, 15201",51642419,"L"
154763,"2901 SMITHFIELD CHURCH ROAD","CHARLOTTE","NC",28210,35.1124692540001,-80.8534135689999,263,"2901 SMITHFIELD CHURCH ROAD, CHARLOTTE, NC, 28210","Match","Exact","2901 SMITHFIELD CHURCH RD, CHARLOTTE, NC, 28210",647271796,"L"
154764,"2901 SONTERRA DR","CEDAR HILL","TX",75104,NA,NA,264,"2901 SONTERRA DR, CEDAR HILL, TX, 75104","No_Match",NA,NA,NA,NA
154765,"2901 SOUTH BAYSHORE DR  APT 12B","MIAMI","FL",33133,25.727563479,-80.23882156,265,"2901 SOUTH BAYSHORE DR  APT 12B, MIAMI, FL, 33133","Match","Exact","2901 S BAYSHORE DR, MIAMI, FL, 33133",650094993,"R"
154766,"2901 SOUTH BAYSHORE DR UNIT 3G","MIAMI","FL",33133,25.727563479,-80.23882156,266,"2901 SOUTH BAYSHORE DR UNIT 3G, MIAMI, FL, 33133","Match","Exact","2901 S BAYSHORE DR, MIAMI, FL, 33133",650094993,"R"
154767,"2901 SOUTH MCCLELLAND BLVD","JOPLIN","MO",64804,37.059758034,-94.532151673,267,"2901 SOUTH MCCLELLAND BLVD, JOPLIN, MO, 64804","Match","Non_Exact","2901 MC CLELLAND BLVD, JOPLIN, MO, 64804",640636742,"L"
154768,"2901 SOUTH SANTA FE","MOORE","OK",73170,NA,NA,268,"2901 SOUTH SANTA FE, MOORE, OK, 73170","No_Match",NA,NA,NA,NA
154769,"2901 SOUTH WASHINGTON AVE","MARSHALL","TX",75672,32.519274292,-94.3660718,269,"2901 SOUTH WASHINGTON AVE, MARSHALL, TX, 75672","Match","Exact","2901 S WASHINGTON AVE, MARSHALL, TX, 75672",141175070,"L"
154770,"2901 SOUTHWEST BLVD  APT 207","CHARLOTTE","NC",28216,35.2645515770001,-80.8652128099999,270,"2901 SOUTHWEST BLVD  APT 207, CHARLOTTE, NC, 28216","Match","Exact","2901 SOUTHWEST BLVD, CHARLOTTE, NC, 28216",70477015,"L"
154771,"2901 STADIUM DRIVE","FORT WORTH","TX",76129,32.7095109090001,-97.365185923,271,"2901 STADIUM DRIVE, FORT WORTH, TX, 76129","Match","Non_Exact","2901 STADIUM DR, FT WORTH, TX, 76109",102134004,"L"
154772,"2901 VIRGINA AVE  APT 48","BAKERSFIELD","CA",93307,35.361408569,-118.953011401,272,"2901 VIRGINA AVE  APT 48, BAKERSFIELD, CA, 93307","Match","Non_Exact","2901 VIRGINIA AVE, BAKERSFIELD, CA, 93307",109096767,"R"
154773,"2901 VIRGINIA AVENUE 48","BAKERSFIELD","CA",93307,35.361408569,-118.953011401,273,"2901 VIRGINIA AVENUE 48, BAKERSFIELD, CA, 93307","Match","Exact","2901 VIRGINIA AVE, BAKERSFIELD, CA, 93307",109096767,"R"
154774,"2901 W 11TH ST","PANAMA CITY","FL",32401,30.1681603210001,-85.700624541,274,"2901 W 11TH ST, PANAMA CITY, FL, 32401","Match","Exact","2901 W 11TH ST, PANAMA CITY, FL, 32401",7054195,"L"
154775,"2901 W BELTLINE HWY SUITE 201","MADISON","WI",53713,NA,NA,275,"2901 W BELTLINE HWY SUITE 201, MADISON, WI, 53713","No_Match",NA,NA,NA,NA
154776,"2901 W COAST HWY STE 200","NEWPORT BEACH","CA",92663,33.6194426810001,-117.922589525,276,"2901 W COAST HWY STE 200, NEWPORT BEACH, CA, 92663","Match","Non_Exact","2901 W COAST HWY, NEWPORT BEACH, CA, 92663",653218853,"R"
154777,"2901 W OAKLAND PARK BLVD","OAKLAND PARK","FL",33311,26.165433116,-80.18322201,277,"2901 W OAKLAND PARK BLVD, OAKLAND PARK, FL, 33311","Match","Exact","2901 W OAKLAND PARK BLVD, OAKLAND PARK, FL, 33311",647885908,"R"
154778,"2901 W OWENS WAY","ANTHEM","AZ",85086,33.849736776,-112.121199579,278,"2901 W OWENS WAY, ANTHEM, AZ, 85086","Match","Exact","2901 W OWENS WAY, ANTHEM, AZ, 85086",128856664,"L"
154779,"2901 WAYZATA BLVD STE 200","MIINNEAPOLIS","MN",55405,44.9699447190001,-93.31684332,279,"2901 WAYZATA BLVD STE 200, MIINNEAPOLIS, MN, 55405","Match","Non_Exact","2901 WAYZATA BLVD, MINNEAPOLIS, MN, 55405",640440567,"L"
154780,"2901 WEST MOUNT HOPE AVENUE","LANSING","MI",48910,42.7121030540001,-84.588891358,280,"2901 WEST MOUNT HOPE AVENUE, LANSING, MI, 48910","Match","Non_Exact","2901 W MOUNT HOPE AVE, LANSING, MI, 48911",17496720,"L"
154781,"2901 WEST PARKER ROAD NUMBER 866261","PLANO","TX",75086,33.0411281740001,-96.7511055799999,281,"2901 WEST PARKER ROAD NUMBER 866261, PLANO, TX, 75086","Match","Non_Exact","2901 W PARKER RD, PLANO, TX, 75023",210489191,"R"
154782,"2901 WILCREST DR STE 225","HOUSTON","TX",77042,29.732998771,-95.571696156,282,"2901 WILCREST DR STE 225, HOUSTON, TX, 77042","Match","Exact","2901 WILCREST DR, HOUSTON, TX, 77042",96613143,"R"
154783,"2901 WOODS WALK WAY","ROCKY MOUNT","NC",27804,36.0206793180001,-77.7786149459999,283,"2901 WOODS WALK WAY, ROCKY MOUNT, NC, 27804","Match","Exact","2901 WOODS WALK WAY, ROCKY MOUNT, NC, 27804",90401924,"L"
154784,"2901 WOODSTREAM DRIVE","WILSON","NC",27896,35.761266031,-77.925818761,284,"2901 WOODSTREAM DRIVE, WILSON, NC, 27896","Match","Non_Exact","2901 WOODSTREAM DR N, WILSON, NC, 27896",26712212,"L"
154785,"2901 YOSEMITE DR","LAKE ORION","MI",48360,42.7649303700001,-83.310434947,285,"2901 YOSEMITE DR, LAKE ORION, MI, 48360","Match","Exact","2901 YOSEMITE DR, LAKE ORION, MI, 48360",69797717,"L"
154786,"290167","YIGO","GU",96926,NA,NA,286,"290167, YIGO, GU, 96926","No_Match",NA,NA,NA,NA
154787,"2902  DARLINGTON RD  APT    303","BEAVER FALLS","PA",15010,40.782946306,-80.399125861,287,"2902  DARLINGTON RD  APT    303, BEAVER FALLS, PA, 15010","Match","Exact","2902 DARLINGTON RD, BEAVER FALLS, PA, 15010",52555199,"R"
154788,"2902 APPLEBY DRIVE","OCEAN","NJ",7712,40.232026026,-74.033439728,288,"2902 APPLEBY DRIVE, OCEAN, NJ, 7712","Match","Exact","2902 APPLEBY DR, OCEAN, NJ, 07712",90491926,"L"
154789,"2902 CENTRAL AVE","TAMPA","FL",33602,27.9698199590001,-82.45529944,289,"2902 CENTRAL AVE, TAMPA, FL, 33602","Match","Non_Exact","2902 N CENTRAL AVE, TAMPA, FL, 33602",642585512,"L"
154790,"2902 E 6TH ST","LEHIGH ACRES","FL",33972,26.621699715,-81.58994989,290,"2902 E 6TH ST, LEHIGH ACRES, FL, 33972","Match","Non_Exact","2902 E 6TH ST, LEHIGH ACRES, FL, 33972",117989397,"L"
154791,"2902 E NORMAN PL","BROKEN ARROW","OK",74014,36.065884371,-95.754991418,291,"2902 E NORMAN PL, BROKEN ARROW, OK, 74014","Match","Exact","2902 E NORMAN PL, BROKEN ARROW, OK, 74014",83149596,"L"
154792,"2902 E NORTHDALE AVENUE","FRESNO","CA",93726,36.7990867290001,-119.776617126,292,"2902 E NORTHDALE AVENUE, FRESNO, CA, 93726","Match","Exact","2902 E NORTHDALE AVE, FRESNO, CA, 93726",197575270,"R"
154793,"2902 E SHEA BLVD","PHOENIX","AZ",85028,33.5823851110001,-112.019534026,293,"2902 E SHEA BLVD, PHOENIX, AZ, 85028","Match","Exact","2902 E SHEA BLVD, PHOENIX, AZ, 85028",128218199,"L"
154794,"2902 EAST SHEA BLVD","PHOENIX","AZ",85028,33.5823847360001,-112.019553212,294,"2902 EAST SHEA BLVD, PHOENIX, AZ, 85028","Match","Exact","2902 E SHEA BLVD, PHOENIX, AZ, 85028",128218199,"L"
154795,"2902 HARRINGTON PLACE","WAXHAW","NC",28173,34.93856838,-80.703168455,295,"2902 HARRINGTON PLACE, WAXHAW, NC, 28173","Match","Exact","2902 HARRINGTON PL, WAXHAW, NC, 28173",618497213,"R"
154796,"2902 JONES FARM CT","EXPORT","PA",15632,40.4194646030001,-79.6164458229999,296,"2902 JONES FARM CT, EXPORT, PA, 15632","Match","Non_Exact","2902 JONES FARM RD, EXPORT, PA, 15632",52970615,"L"
154797,"2902 LASALLE ST","MONROE","LA",71201,32.535185568,-92.091396797,297,"2902 LASALLE ST, MONROE, LA, 71201","Match","Exact","2902 LASALLE ST, MONROE, LA, 71201",161086066,"R"
154798,"2902 LUMAR DRIVE","FORT WASHINGTON","MD",30744,38.7891089570001,-76.9577393439999,298,"2902 LUMAR DRIVE, FORT WASHINGTON, MD, 30744","Match","Non_Exact","2902 LUMAR DR, FT WASHINGTON, MD, 20744",76315657,"L"
154799,"2902 MARY DRIVE","PINE BLUFF","AR",71603,34.2013849420001,-92.085853495,299,"2902 MARY DRIVE, PINE BLUFF, AR, 71603","Match","Exact","2902 MARY DR, PINE BLUFF, AR, 71603",2557934,"L"
154800,"2902 MCFARLAND ROAD SUITE 400","ROCKFORD","IL",61107,42.303830329,-88.976618699,300,"2902 MCFARLAND ROAD SUITE 400, ROCKFORD, IL, 61107","Match","Exact","2902 MCFARLAND RD, ROCKFORD, IL, 61107",49286138,"R"
154801,"2902 MONTEBELLO TERRACE","BATIMORE","MD",21214,39.341009199,-76.574121669,301,"2902 MONTEBELLO TERRACE, BATIMORE, MD, 21214","Match","Non_Exact","2902 MONTEBELLO TER, BALTIMORE, MD, 21214",206410273,"L"
154802,"2902 NORTHWESTERN AVENUE","WAUSAU","WI",54403,44.9283474310001,-89.587584234,302,"2902 NORTHWESTERN AVENUE, WAUSAU, WI, 54403","Match","Exact","2902 NORTHWESTERN AVE, WAUSAU, WI, 54403",645204871,"R"
154803,"2902 ROAD E NE","MOSES LAKE","WA",98837,47.129376619,-119.384564539,303,"2902 ROAD E NE, MOSES LAKE, WA, 98837","Match","Exact","2902 RD E NE, MOSES LAKE, WA, 98837",157092601,"L"
154804,"2902 S 18TH ST","TACOMA","WA",98405,47.243820693,-122.473843593,304,"2902 S 18TH ST, TACOMA, WA, 98405","Match","Exact","2902 S 18TH ST, TACOMA, WA, 98405",184620259,"L"
154805,"2902 THOUSAND OAKS DRIVE","AUSTIN","TX",78746,30.2659980830001,-97.795467655,305,"2902 THOUSAND OAKS DRIVE, AUSTIN, TX, 78746","Match","Exact","2902 THOUSAND OAKS DR, AUSTIN, TX, 78746",63938449,"R"
154806,"2902 TUGGLE AVE","NASHVILLE","AL",37211,NA,NA,306,"2902 TUGGLE AVE, NASHVILLE, AL, 37211","No_Match",NA,NA,NA,NA
154807,"2902 VIRGINIA AVE","CHARLOTTE","NC",28205,35.236712669,-80.799654727,307,"2902 VIRGINIA AVE, CHARLOTTE, NC, 28205","Match","Exact","2902 VIRGINIA AVE, CHARLOTTE, NC, 28205",70480368,"R"
154808,"2902 W SWEETWATER AVE APT 2007","PHOENIX","AZ",85029,33.6036390510001,-112.121192842,308,"2902 W SWEETWATER AVE APT 2007, PHOENIX, AZ, 85029","Match","Non_Exact","2902 W SWEETWATER AVE, PHOENIX, AZ, 85029",639813484,"R"
154809,"2902 WATERSTONE LOOP","HIGH POINT","NC",27265,35.9892148060001,-79.978344911,309,"2902 WATERSTONE LOOP, HIGH POINT, NC, 27265","Match","Exact","2902 WATERSTONE LOOP, HIGH POINT, NC, 27265",637701046,"L"
154810,"2902 WEST ORIOLE","VISALIA","CA",93291,36.3547463520001,-119.3233971,310,"2902 WEST ORIOLE, VISALIA, CA, 93291","Match","Non_Exact","2902 W ORIOLE AVE, VISALIA, CA, 93291",617654602,"R"
154811,"2902 WINCHESTER STREET","RICHMOND","VA",23231,37.523863351,-77.3745430819999,311,"2902 WINCHESTER STREET, RICHMOND, VA, 23231","Match","Exact","2902 WINCHESTER ST, RICHMOND, VA, 23231",106650801,"L"
154812,"29020 1ST AVE S UNIT 18","DES MOINES","WA",98198,47.340659454,-122.334176387,312,"29020 1ST AVE S UNIT 18, DES MOINES, WA, 98198","Match","Exact","29020 1ST AVE S, DES MOINES, WA, 98198",623738660,"L"
154813,"29021 BOUQUET CANYON RD SPC 360","SANTA CLARITA","CA",91390,34.4646384710001,-118.479942668,313,"29021 BOUQUET CANYON RD SPC 360, SANTA CLARITA, CA, 91390","Match","Exact","29021 BOUQUET CANYON RD, SANTA CLARITA, CA, 91390",639059222,"L"
154814,"29021 ORVYLLE DR","WARREN","MI",48092,42.506119088,-83.062467673,314,"29021 ORVYLLE DR, WARREN, MI, 48092","Match","Exact","29021 ORVYLLE DR, WARREN, MI, 48092",110669344,"L"
154815,"29022 DANIELSON DRIVE","ELKHART","IN",46514,41.6865348750001,-86.023534825,315,"29022 DANIELSON DRIVE, ELKHART, IN, 46514","Match","Exact","29022 DANIELSON DR, ELKHART, IN, 46514",7757757,"L"
154816,"29023 TORCH RD","COOLVILLE","WV",45723,NA,NA,316,"29023 TORCH RD, COOLVILLE, WV, 45723","No_Match",NA,NA,NA,NA
154817,"29028 VAGABOND LANE","HAYWARD","CA",94544,37.626816664,-122.063279894,317,"29028 VAGABOND LANE, HAYWARD, CA, 94544","Match","Exact","29028 VAGABOND LN, HAYWARD, CA, 94544",125083799,"L"
154818,"2903 A CANON ST","SAN DIEGO","CA",92106,32.7209246790001,-117.230917444,318,"2903 A CANON ST, SAN DIEGO, CA, 92106","Match","Exact","2903 CANON ST, SAN DIEGO, CA, 92106",195340421,"L"
154819,"2903 BAYSWATER AVENUE","BROOKLYN","NY",11691,NA,NA,319,"2903 BAYSWATER AVENUE, BROOKLYN, NY, 11691","No_Match",NA,NA,NA,NA
154820,"2903 BAYSWATER AVENUE","QUEENS","NY",11691,NA,NA,320,"2903 BAYSWATER AVENUE, QUEENS, NY, 11691","No_Match",NA,NA,NA,NA
154821,"2903 BROWNS BRIDGE ROAD","PARRISH","AL",35580,33.736982514,-87.329787596,321,"2903 BROWNS BRIDGE ROAD, PARRISH, AL, 35580","Match","Exact","2903 BROWNS BRIDGE RD, PARRISH, AL, 35580",120551642,"R"
154822,"2903 COLT DR APT 123","SAN ANTONIO","TX",78227,29.4017613780001,-98.6414157469999,322,"2903 COLT DR APT 123, SAN ANTONIO, TX, 78227","Match","Exact","2903 COLT DR, SAN ANTONIO, TX, 78227",101507086,"R"
154823,"2903 CRYSTAL WAY","GRAND PRAIRIE","TX",75052,32.62720073,-97.054548755,323,"2903 CRYSTAL WAY, GRAND PRAIRIE, TX, 75052","Match","Exact","2903 CRYSTAL WAY, GRAND PRAIRIE, TX, 75052",617671320,"L"
154824,"2903 DARNLEY PL","VIENNA","VA",22181,38.8797107010001,-77.291274169,324,"2903 DARNLEY PL, VIENNA, VA, 22181","Match","Exact","2903 DARNLEY PL, VIENNA, VA, 22181",76040599,"L"
154825,"2903 DUNBAR CT","CEDAR PARK","TX",78613,30.46189078,-97.852017813,325,"2903 DUNBAR CT, CEDAR PARK, TX, 78613","Match","Exact","2903 DUNBAR CT, CEDAR PARK, TX, 78613",617950549,"R"
154826,"2903 DUNCAN AVE","PASCAGOULA","MS",39581,30.370919396,-88.532600219,326,"2903 DUNCAN AVE, PASCAGOULA, MS, 39581","Match","Exact","2903 DUNCAN AVE, PASCAGOULA, MS, 39581",89253154,"L"
154827,"2903 EAGLE DRIVE","MOORHEAD","MN",56560,46.8727633830001,-96.734670463,327,"2903 EAGLE DRIVE, MOORHEAD, MN, 56560","Match","Exact","2903 EAGLE DR, MOORHEAD, MN, 56560",168033981,"L"
154828,"2903 EAST 37TH STREET","CHATTANOOGA","TN",37407,34.998520419,-85.281186242,328,"2903 EAST 37TH STREET, CHATTANOOGA, TN, 37407","Match","Exact","2903 E 37TH ST, CHATTANOOGA, TN, 37407",605456804,"L"
154829,"2903 ESTRIBO","SAN CLEMENTE","CA",92673,33.4743085330001,-117.629647158,329,"2903 ESTRIBO, SAN CLEMENTE, CA, 92673","Match","Exact","2903 ESTRIBO, SAN CLEMENTE, CA, 92673",144091818,"R"
154830,"2903 FAIRWAY VIEW COURT","CASTLE ROCK","CO",80108,39.4448429720001,-104.902633895,330,"2903 FAIRWAY VIEW COURT, CASTLE ROCK, CO, 80108","Match","Exact","2903 FAIRWAY VIEW CT, CASTLE ROCK, CO, 80108",604917498,"L"
154831,"2903 FELIX AVENUE","MEMPHIS","TN",38111,35.117539347,-89.9656734499999,331,"2903 FELIX AVENUE, MEMPHIS, TN, 38111","Match","Exact","2903 FELIX AVE, MEMPHIS, TN, 38111",72918169,"R"
154832,"2903 GRAND AVENUE","DALLAS","TX",75215,32.7729616610001,-96.7701805739999,332,"2903 GRAND AVENUE, DALLAS, TX, 75215","Match","Exact","2903 GRAND AVE, DALLAS, TX, 75215",102912634,"L"
154833,"2903 HANNA LANE","BENTONVILLE","AR",72712,36.4021029400001,-94.22361097,333,"2903 HANNA LANE, BENTONVILLE, AR, 72712","Match","Exact","2903 HANNA LN, BENTONVILLE, AR, 72712",47848780,"L"
154834,"2903 MARTIN LUTHER KING JR WAY","BERKELEY","CA",94703,37.8559745270001,-122.271253718,334,"2903 MARTIN LUTHER KING JR WAY, BERKELEY, CA, 94703","Match","Exact","2903 MARTIN LUTHER KING JR WAY, BERKELEY, CA, 94703",606400730,"L"
154835,"2903 NICHOLS BLVD","LONGVIEW","WA",98632,46.138283589,-122.953515214,335,"2903 NICHOLS BLVD, LONGVIEW, WA, 98632","Match","Exact","2903 NICHOLS BLVD, LONGVIEW, WA, 98632",184513615,"L"
154836,"2903 NORTH ROGERS AVENUE","BALTIMORE","MD",20716,39.3262237100001,-76.706750717,336,"2903 NORTH ROGERS AVENUE, BALTIMORE, MD, 20716","Match","Non_Exact","2903 N ROGERS AVE, BALTIMORE, MD, 21207",206404298,"R"
154837,"2903 ROCKY RIDGE ROAD","BARTONSVILLE","PA",18321,41.0063386420001,-75.297587365,337,"2903 ROCKY RIDGE ROAD, BARTONSVILLE, PA, 18321","Match","Exact","2903 ROCKY RIDGE RD, BARTONSVILLE, PA, 18321",136759284,"L"
154838,"2903 SE LEWELLYN AVE","TROUTDALE","OR",97060,45.5202539690001,-122.376701264,338,"2903 SE LEWELLYN AVE, TROUTDALE, OR, 97060","Match","Exact","2903 SE LEWELLYN AVE, TROUTDALE, OR, 97060",157530148,"R"
154839,"2903 STRAIGHT ELM","FRESNO","TX",77545,29.5436096220001,-95.492599866,339,"2903 STRAIGHT ELM, FRESNO, TX, 77545","Match","Non_Exact","2903 STRAIGHT ELM ST, FRESNO, TX, 77545",635210554,"R"
154840,"2903 SUNSET AVENUE","FLOSSMOOR","IL",60422,41.541145849,-87.686762283,340,"2903 SUNSET AVENUE, FLOSSMOOR, IL, 60422","Match","Exact","2903 SUNSET AVE, FLOSSMOOR, IL, 60422",111709253,"R"
154841,"2903 TRENGATE WAY","BAKERSFIELD","CA",93311,35.329008753,-119.123998388,341,"2903 TRENGATE WAY, BAKERSFIELD, CA, 93311","Match","Exact","2903 TRENGATE WAY, BAKERSFIELD, CA, 93311",642916119,"R"
154842,"2903 WATERSIDE TRL","PEARLAND","TX",77584,29.554261254,-95.286009147,342,"2903 WATERSIDE TRL, PEARLAND, TX, 77584","Match","Exact","2903 WATERSIDE TRL, PEARLAND, TX, 77584",632058298,"L"
154843,"2903 WINDYSAGE CT","MISSOURI CITY","TX",77459,29.5761843660001,-95.566579952,343,"2903 WINDYSAGE CT, MISSOURI CITY, TX, 77459","Match","Exact","2903 WINDYSAGE CT, MISSOURI CITY, TX, 77459",637045300,"R"
154844,"2903 WOODRICH DRIVE APT D","TALLAHASSEE","FL",32301,30.4300091710001,-84.236330158,344,"2903 WOODRICH DRIVE APT D, TALLAHASSEE, FL, 32301","Match","Exact","2903 WOODRICH DR, TALLAHASSEE, FL, 32301",82854843,"L"
154845,"29030 FIRTHRIDGE ROAD","RANCHO PALOS VERDES","CA",90275,33.769256393,-118.387686075,345,"29030 FIRTHRIDGE ROAD, RANCHO PALOS VERDES, CA, 90275","Match","Exact","29030 FIRTHRIDGE RD, RANCHO PALOS VERDES, CA, 90275",141585483,"L"
154846,"29030 RHEAULT RD","LAKE LINDEN","MI",49945,47.177188153,-88.3858533919999,346,"29030 RHEAULT RD, LAKE LINDEN, MI, 49945","Match","Exact","29030 RHEAULT RD, LAKE LINDEN, MI, 49945",184109079,"R"
154847,"29030 SAN BERNARD RIVER LOOP","SPRING","TX",77386,30.127144216,-95.36966854,347,"29030 SAN BERNARD RIVER LOOP, SPRING, TX, 77386","Match","Exact","29030 SAN BERNARD RIVER LOOP, SPRING, TX, 77386",641271135,"R"
154848,"29030 SW TOWN CTR LP EAST STE 202","WILSONVILLE","OR",97070,45.309437895,-122.762216981,348,"29030 SW TOWN CTR LP EAST STE 202, WILSONVILLE, OR, 97070","Match","Non_Exact","29030 SW TOWN CENTER LOOP E, WILSONVILLE, OR, 97070",157978902,"R"
154849,"29031 WILPAYNE ROAD","BROOKSVILLE","FL",34602,NA,NA,349,"29031 WILPAYNE ROAD, BROOKSVILLE, FL, 34602","No_Match",NA,NA,NA,NA
154850,"29032 EAST ROAD 78 UNIT 1","OKEECHOBEE","FL",34974,NA,NA,350,"29032 EAST ROAD 78 UNIT 1, OKEECHOBEE, FL, 34974","No_Match",NA,NA,NA,NA
154851,"29032 SAN REMO PL","CASTAIC","CA",91384,34.470625478,-118.643132225,351,"29032 SAN REMO PL, CASTAIC, CA, 91384","Match","Exact","29032 SAN REMO PL, CASTAIC, CA, 91384",142832143,"L"
154852,"29033 SUPERIOR CIRCLE","EASTON","MD",21601,38.7415578280001,-76.067489619,352,"29033 SUPERIOR CIRCLE, EASTON, MD, 21601","Match","Exact","29033 SUPERIOR CR, EASTON, MD, 21601",637313295,"R"
154853,"29037 TAMARACK ST NW","ISANTI","MN",55040,45.4957649150001,-93.291741208,353,"29037 TAMARACK ST NW, ISANTI, MN, 55040","Match","Exact","29037 TAMARACK ST NW, ISANTI, MN, 55040",648833357,"R"
154854,"29039 S WARNER BRIDGE ROAD","MANHATTAN","IL",60442,41.358983503,-88.017426175,354,"29039 S WARNER BRIDGE ROAD, MANHATTAN, IL, 60442","Match","Exact","29039 S WARNER BRIDGE RD, MANHATTAN, IL, 60442",111531327,"R"
154855,"29039 THOUSAND OAKS BLVD","AGOURA HILLS","CA",91301,34.1542618130001,-118.757882878,355,"29039 THOUSAND OAKS BLVD, AGOURA HILLS, CA, 91301","Match","Exact","29039 THOUSAND OAKS BLVD, AGOURA HILLS, CA, 91301",241257578,"L"
154856,"2904 100TH STREET","FREDERIC","WI",54837,45.626904933,-92.3655626619999,356,"2904 100TH STREET, FREDERIC, WI, 54837","Match","Exact","2904 100TH ST, FREDERIC, WI, 54837",110833969,"R"
154857,"2904 266TH AVE NE","REDMOND","WA",98053,47.6342570950001,-121.98378115,357,"2904 266TH AVE NE, REDMOND, WA, 98053","Match","Exact","2904 266TH AVE NE, REDMOND, WA, 98053",187022151,"R"
154858,"2904 2ND ST SE  3","WASHINGTON","DC",20032,38.847654666,-77.0055282869999,358,"2904 2ND ST SE  3, WASHINGTON, DC, 20032","Match","Exact","2904 2ND ST SE, WASHINGTON, DC, 20032",76227535,"L"
154859,"2904 3RD AVE","ALTOONA","PA",16602,40.4956565370001,-78.407251866,359,"2904 3RD AVE, ALTOONA, PA, 16602","Match","Exact","2904 3RD AVE, ALTOONA, PA, 16602",49712314,"R"
154860,"2904 ASPEN LAKE DR NE","BLAINE","MN",55449,45.1776739150001,-93.195248351,360,"2904 ASPEN LAKE DR NE, BLAINE, MN, 55449","Match","Exact","2904 ASPEN LAKE DR NE, BLAINE, MN, 55449",614458597,"R"
154861,"2904 CHESHIRE DR","BRYAN","TX",77803,30.6837467170001,-96.350244792,361,"2904 CHESHIRE DR, BRYAN, TX, 77803","Match","Exact","2904 CHESHIRE DR, BRYAN, TX, 77803",21815084,"R"
154862,"2904 CIMARRON DRIVE","KINGMAN","AZ",86401,35.2080187510001,-113.973891209,362,"2904 CIMARRON DRIVE, KINGMAN, AZ, 86401","Match","Non_Exact","2904 CIMMARON DR, KINGMAN, AZ, 86401",190372237,"L"
154863,"2904 CREEKSIDE COURT","CARROLLTON","TX",75007,32.99456788,-96.897479548,363,"2904 CREEKSIDE COURT, CARROLLTON, TX, 75007","Match","Exact","2904 CREEKSIDE CT, CARROLLTON, TX, 75007",103382913,"R"
154864,"2904 E 99TH AVENUE","TAMPA","FL",33612,28.0391662650001,-82.426914713,364,"2904 E 99TH AVENUE, TAMPA, FL, 33612","Match","Exact","2904 99TH AVE, TAMPA, FL, 33612",104612605,"L"
154865,"2904 E STAN SCHLUETER LP/  64","KILLEEN","TX",76542,NA,NA,365,"2904 E STAN SCHLUETER LP/  64, KILLEEN, TX, 76542","No_Match",NA,NA,NA,NA
154866,"2904 EL CAMINO REAL","SANTA CLARA","CA",95051,37.352277557,-121.979169425,366,"2904 EL CAMINO REAL, SANTA CLARA, CA, 95051","Match","Exact","2904 EL CAMINO REAL, SANTA CLARA, CA, 95051",638613820,"L"
154867,"2904 ELMGATE WAY","RALEIGH","NC",27614,35.9527987600001,-78.553724551,367,"2904 ELMGATE WAY, RALEIGH, NC, 27614","Match","Exact","2904 ELMGATE WAY, RALEIGH, NC, 27614",208352178,"R"
154868,"2904 GARBETT STREET","MCKEESPORT","PA",15132,40.34218937,-79.843406871,368,"2904 GARBETT STREET, MCKEESPORT, PA, 15132","Match","Exact","2904 GARBETT ST, MCKEESPORT, PA, 15132",51678283,"R"
154869,"2904 IVYDALE ST","SILVER SPRING","MD",20902,39.0477485960001,-77.059048096,369,"2904 IVYDALE ST, SILVER SPRING, MD, 20902","Match","Exact","2904 IVYDALE ST, SILVER SPRING, MD, 20902",62062212,"L"
154870,"2904 JIMAMIE LANE","BIRMINGHAM","AL",35243,33.425608654,-86.729923242,370,"2904 JIMAMIE LANE, BIRMINGHAM, AL, 35243","Match","Exact","2904 JIMAMIE LN, BIRMINGHAM, AL, 35243",617259200,"L"
154871,"2904 KINCADE WAY SE","OWENS CROSS ROADS","AL",35763,34.670735091,-86.4558061979999,371,"2904 KINCADE WAY SE, OWENS CROSS ROADS, AL, 35763","Match","Exact","2904 KINCADE WAY SE, OWENS CROSS ROADS, AL, 35763",58150202,"L"
154872,"2904 LAGUNA SHORES LN","LEAGUE CITY","TX",77573,29.5075693860001,-95.048602791,372,"2904 LAGUNA SHORES LN, LEAGUE CITY, TX, 77573","Match","Exact","2904 LAGUNA SHORES LN, LEAGUE CITY, TX, 77573",637783309,"R"
154873,"2904 LIGHTHOUSE DR","DENTON","TX",76210,33.1435626690001,-97.105052214,373,"2904 LIGHTHOUSE DR, DENTON, TX, 76210","Match","Exact","2904 LIGHTHOUSE DR, DENTON, TX, 76210",614645564,"R"
154874,"2904 MAIN DRIVE","JOHNSON","AR",72741,NA,NA,374,"2904 MAIN DRIVE, JOHNSON, AR, 72741","No_Match",NA,NA,NA,NA
154875,"2904 MORGANTON BLVD","LENOIR","NC",28645,35.8668527290001,-81.598110759,375,"2904 MORGANTON BLVD, LENOIR, NC, 28645","Match","Non_Exact","2904 MORGANTON BLVD SW, LENOIR, NC, 28645",45846691,"L"
154876,"2904 MORRISON STREET","HOUSTON","TX",77009,29.785039924,-95.3730965079999,376,"2904 MORRISON STREET, HOUSTON, TX, 77009","Match","Exact","2904 MORRISON ST, HOUSTON, TX, 77009",96065654,"R"
154877,"2904 NW APPLE HARVEST","BENTONVILLE","AR",72712,36.3749537480001,-94.2443381369999,377,"2904 NW APPLE HARVEST, BENTONVILLE, AR, 72712","Match","Exact","2904 NW APPLE HARVEST, BENTONVILLE, AR, 72712",47864599,"L"
154878,"2904 OLIVE","KANSAS CITY","MO",64109,39.0733516240001,-94.554982366,378,"2904 OLIVE, KANSAS CITY, MO, 64109","Match","Non_Exact","2904 OLIVE ST, KANSAS CITY, MO, 64109",91449860,"R"
154879,"2904 PERRY STREET","TUSKEGEE INSTITUTE","AL",36088,32.402379238,-85.7202829779999,379,"2904 PERRY STREET, TUSKEGEE INSTITUTE, AL, 36088","Match","Exact","2904 PERRY ST, TUSKEGEE INSTITUTE, AL, 36088",69141147,"L"
154880,"2904 PEYTON RANDOLPH DR 201","FALLS CHURCH","VA",22044,38.8728013,-77.149851266,380,"2904 PEYTON RANDOLPH DR 201, FALLS CHURCH, VA, 22044","Match","Exact","2904 PEYTON RANDOLPH DR, FALLS CHURCH, VA, 22044",215920056,"R"
154881,"2904 REGALIA DRIVE","PINE BLUFF","AR",71603,34.1022409010001,-92.030647756,381,"2904 REGALIA DRIVE, PINE BLUFF, AR, 71603","Match","Non_Exact","2904 REGALIA, PINE BLUFF, AR, 71603",2563575,"R"
154882,"2904 ROSEMARY ST","SAGINAW","MI",48602,43.4290788260001,-83.987308264,382,"2904 ROSEMARY ST, SAGINAW, MI, 48602","Match","Exact","2904 ROSEMARY ST, SAGINAW, MI, 48602",80209392,"R"
154883,"2904 S 13TH ROAD","ARLINGTON","VA",22204,38.8592267290001,-77.086461066,383,"2904 S 13TH ROAD, ARLINGTON, VA, 22204","Match","Non_Exact","2904 13TH RD S, ARLINGTON, VA, 22204",76471651,"R"
154884,"2904 S CHICAGO AVE","SOUTH MILWAUKEE","WI",53172,42.902581421,-87.865582205,384,"2904 S CHICAGO AVE, SOUTH MILWAUKEE, WI, 53172","Match","Exact","2904 S CHICAGO AVE, S MILWAUKEE, WI, 53172",77756095,"R"
154885,"2904 SHACKELFORD FARMS COURT","FLORISSANT","MO",63031,38.8326780200001,-90.331540732,385,"2904 SHACKELFORD FARMS COURT, FLORISSANT, MO, 63031","Match","Exact","2904 SHACKELFORD FARMS CT, FLORISSANT, MO, 63031",100198076,"L"
154886,"2904 SIZERVILLE RD","EMPORIUM","PA",15834,41.548427578,-78.209311988,386,"2904 SIZERVILLE RD, EMPORIUM, PA, 15834","Match","Exact","2904 SIZERVILLE RD, EMPORIUM, PA, 15834",126270717,"R"
154887,"2904 SOUTH ORANGE BLOSSOM TRAIL","ORLANDO","FL",32805,28.512714768,-81.397027469,387,"2904 SOUTH ORANGE BLOSSOM TRAIL, ORLANDO, FL, 32805","Match","Exact","2904 S ORANGE BLOSSOM TRL, ORLANDO, FL, 32805",94356343,"R"
154888,"2904 STERLING COVE DR","LAS VEGAS","NV",89128,36.212823493,-115.272737506,388,"2904 STERLING COVE DR, LAS VEGAS, NV, 89128","Match","Exact","2904 STERLING COVE DR, LAS VEGAS, NV, 89128",201904819,"R"
154889,"2904 W 3600 N","FARR WEST","UT",84404,NA,NA,389,"2904 W 3600 N, FARR WEST, UT, 84404","No_Match",NA,NA,NA,NA
154890,"2904 WAKE ISLAND DRIVE","JOLIET","IL",60435,41.552329285,-88.154179612,390,"2904 WAKE ISLAND DRIVE, JOLIET, IL, 60435","Match","Exact","2904 WAKE ISLAND DR, JOLIET, IL, 60435",111580970,"L"
154891,"2904 WOODFERN COURT","WOODBRIDGE","VA",22192,38.6885314950001,-77.299235325,391,"2904 WOODFERN COURT, WOODBRIDGE, VA, 22192","Match","Exact","2904 WOODFERN CT, WOODBRIDGE, VA, 22192",76510435,"R"
154892,"2904 ZEKE BND","AUSTIN","TX",78745,30.191031911,-97.8305313389999,392,"2904 ZEKE BND, AUSTIN, TX, 78745","Match","Exact","2904 ZEKE BEND, AUSTIN, TX, 78745",63965556,"R"
154893,"29043 WESTFIELD","LIVONIA","MI",48150,42.3595876160001,-83.3294031739999,393,"29043 WESTFIELD, LIVONIA, MI, 48150","Match","Non_Exact","29043 WESTFIELD ST, LIVONIA, MI, 48150",95427590,"L"
154894,"290432","CHARLESTOWN","MA",2129,NA,NA,394,"290432, CHARLESTOWN, MA, 2129","No_Match",NA,NA,NA,NA
154895,"2905 12TH AVENUE SOUTH 107","NASHVILLE","TN",37204,36.1211505320001,-86.7905057519999,395,"2905 12TH AVENUE SOUTH 107, NASHVILLE, TN, 37204","Match","Exact","2905 12TH AVE S, NASHVILLE, TN, 37204",97191051,"R"
154896,"2905 160TH STREET / ATTN J BALDEA","FLUSHING","NY",11358,NA,NA,396,"2905 160TH STREET / ATTN J BALDEA, FLUSHING, NY, 11358","No_Match",NA,NA,NA,NA
154897,"2905 16TH ST SE","PUYALLUP","WA",98374,47.16334771,-122.272610839,397,"2905 16TH ST SE, PUYALLUP, WA, 98374","Match","Exact","2905 16TH ST SE, PUYALLUP, WA, 98374",184694389,"R"
154898,"2905 170TH ST SW","LYNNWOOD","WA",98037,47.844169546,-122.272217943,398,"2905 170TH ST SW, LYNNWOOD, WA, 98037","Match","Exact","2905 170TH ST SW, LYNNWOOD, WA, 98037",187754459,"L"
154899,"2905 38TH STREET NW","WASHINGTON","DC",20016,38.9276282500001,-77.07461825,399,"2905 38TH STREET NW, WASHINGTON, DC, 20016","Match","Exact","2905 38TH ST NW, WASHINGTON, DC, 20016",652614618,"R"
154900,"2905 AUTUMN COURT","PROSPECT","KY",40059,38.380868107,-85.574734103,400,"2905 AUTUMN COURT, PROSPECT, KY, 40059","Match","Exact","2905 AUTUMN CT, PROSPECT, KY, 40059",130922749,"R"
154901,"2905 AVENUE R - REAR","GALVESTON","TX",77550,29.28681327,-94.795190878,401,"2905 AVENUE R - REAR, GALVESTON, TX, 77550","Match","Non_Exact","2905 AVE R REAR, GALVESTON, TX, 77550",96680261,"L"
154902,"2905 BAMBERG PLACE","VIRGINIA BEACH","VA",23453,36.80841215,-76.067976914,402,"2905 BAMBERG PLACE, VIRGINIA BEACH, VA, 23453","Match","Exact","2905 BAMBERG PL, VIRGINIA BCH, VA, 23453",122301229,"L"
154903,"2905 BRAHMAN MEADOWS LN","CHARLOTTE","NC",28273,35.1600471520001,-80.933118467,403,"2905 BRAHMAN MEADOWS LN, CHARLOTTE, NC, 28273","Match","Exact","2905 BRAHMAN MEADOWS LN, CHARLOTTE, NC, 28273",70548752,"L"
154904,"2905 BULL STREET","SAVANNAH","GA",31405,32.050778633,-81.102701237,404,"2905 BULL STREET, SAVANNAH, GA, 31405","Match","Exact","2905 BULL ST, SAVANNAH, GA, 31405",6173068,"R"
154905,"2905 CAMERON MILLS RD","ALEXANDRIA","VA",22302,38.8311664670001,-77.074805995,405,"2905 CAMERON MILLS RD, ALEXANDRIA, VA, 22302","Match","Exact","2905 CAMERON MILLS RD, ALEXANDRIA, VA, 22302",75987473,"R"
154906,"2905 CANDLELIGHT WAY","LEXINGTON","KY",40502,38.0072090350001,-84.4912047889999,406,"2905 CANDLELIGHT WAY, LEXINGTON, KY, 40502","Match","Exact","2905 CANDLELIGHT WAY, LEXINGTON, KY, 40502",653247206,"R"
154907,"2905 DOVE CANYON DR","OXNARD","CA",93036,34.222507438,-119.207970017,407,"2905 DOVE CANYON DR, OXNARD, CA, 93036","Match","Exact","2905 DOVE CANYON DR, OXNARD, CA, 93036",110121741,"L"
154908,"2905 DURIN COURT","CASSELBERRY","FL",32707,28.6533128410001,-81.29444517,408,"2905 DURIN COURT, CASSELBERRY, FL, 32707","Match","Exact","2905 DURIN CT, CASSELBERRY, FL, 32707",93772910,"R"
154909,"2905 E NORTH STREET","GREENVILLE","SC",29615,34.870747904,-82.3447537489999,409,"2905 E NORTH STREET, GREENVILLE, SC, 29615","Match","Exact","2905 E NORTH ST, GREENVILLE, SC, 29615",650445281,"L"
154910,"2905 EAST 100 NORTH","PRINCETON","IN",47670,NA,NA,410,"2905 EAST 100 NORTH, PRINCETON, IN, 47670","No_Match",NA,NA,NA,NA
154911,"2905 EAST POINT BLVD STE 91559","ATLANTA","GA",30364,NA,NA,411,"2905 EAST POINT BLVD STE 91559, ATLANTA, GA, 30364","No_Match",NA,NA,NA,NA
154912,"2905 EAST TRAVIS STREET","MARSHALL","TX",75672,32.538826844,-94.3358245059999,412,"2905 EAST TRAVIS STREET, MARSHALL, TX, 75672","Match","Exact","2905 E TRAVIS ST, MARSHALL, TX, 75672",141174555,"R"
154913,"2905 EGRET WALK TERRACE S","JACKSONVILLE","FL",32226,30.507518212,-81.563192994,413,"2905 EGRET WALK TERRACE S, JACKSONVILLE, FL, 32226","Match","Exact","2905 EGRET WALK TER S, JACKSONVILLE, FL, 32226",625272082,"L"
154914,"2905 ENGLEFIELD DRIVE","RALEIGH","NC",27615,35.9005346920001,-78.590158622,414,"2905 ENGLEFIELD DRIVE, RALEIGH, NC, 27615","Match","Exact","2905 ENGLEFIELD DR, RALEIGH, NC, 27615",208361045,"L"
154915,"2905 GARFIELD AVENUE","MINNEAPOLIS","MN",55408,44.9500930680001,-93.2868042969999,415,"2905 GARFIELD AVENUE, MINNEAPOLIS, MN, 55408","Match","Exact","2905 GARFIELD AVE, MINNEAPOLIS, MN, 55408",636265291,"L"
154916,"2905 GATEWAY DRIVE","TEMPLE HILLS","MD",20748,38.8247490740001,-76.957531591,416,"2905 GATEWAY DRIVE, TEMPLE HILLS, MD, 20748","Match","Exact","2905 GATEWAY DR, TEMPLE HILLS, MD, 20748",76341299,"R"
154917,"2905 GREENBRIAR DRIVE","COLUMBIA","MO",65203,38.9190636490001,-92.342709586,417,"2905 GREENBRIAR DRIVE, COLUMBIA, MO, 65203","Match","Exact","2905 GREENBRIAR DR, COLUMBIA, MO, 65203",23480794,"L"
154918,"2905 GREENVIEW ROAD","SOUTH CHARLESTON","WV",25309,38.31616397,-81.797153532,418,"2905 GREENVIEW ROAD, SOUTH CHARLESTON, WV, 25309","Match","Exact","2905 GREENVIEW RD, S CHARLESTON, WV, 25309",78707690,"L"
154919,"2905 HARR DRIVE SUITE 103","MIDWEST CITY","OK",73110,NA,NA,419,"2905 HARR DRIVE SUITE 103, MIDWEST CITY, OK, 73110","No_Match",NA,NA,NA,NA
154920,"2905 HARRIET AVE APT 216","MINNEAPOLIS","MN",55408,44.9500926160001,-93.285533699,420,"2905 HARRIET AVE APT 216, MINNEAPOLIS, MN, 55408","Match","Non_Exact","2905 HARRIET AVE S, MINNEAPOLIS, MN, 55408",636264384,"L"
154921,"2905 HOMESTEAD RD STE C","SANTA CLARA","CA",95051,37.3379455640001,-121.978871288,421,"2905 HOMESTEAD RD STE C, SANTA CLARA, CA, 95051","Match","Exact","2905 HOMESTEAD RD, SANTA CLARA, CA, 95051",638614312,"R"
154922,"2905 HOOPER STREET","NEWPORT","AR",72112,35.639428869,-91.246821971,422,"2905 HOOPER STREET, NEWPORT, AR, 72112","Match","Exact","2905 HOOPER ST, NEWPORT, AR, 72112",69432678,"L"
154923,"2905 HWY D","PHILDELPHIA","MO",63463,39.8420707230001,-91.741313336,423,"2905 HWY D, PHILDELPHIA, MO, 63463","Match","Non_Exact","2905 HWY D, PHILADELPHIA, MO, 63463",648837621,"R"
154924,"2905 INCA STREET UNIT 5101","DENVER","CO",80202,39.758651984,-104.998446876,424,"2905 INCA STREET UNIT 5101, DENVER, CO, 80202","Match","Exact","2905 INCA ST, DENVER, CO, 80202",650097111,"L"
154925,"2905 LAKE EAST DRIVE SUITE 150","LAS VEGAS","NV",89117,36.139401192,-115.283936382,425,"2905 LAKE EAST DRIVE SUITE 150, LAS VEGAS, NV, 89117","Match","Exact","2905 LAKE EAST DR, LAS VEGAS, NV, 89117",201897333,"L"
154926,"2905 LOFTSMOOR LANE","PLANO","TX",75025,33.091047901,-96.748015163,426,"2905 LOFTSMOOR LANE, PLANO, TX, 75025","Match","Exact","2905 LOFTSMOOR LN, PLANO, TX, 75025",210475787,"L"
154927,"2905 MADISON GROVE ROAD","GREENVILLE","NC",27858,35.5682064280001,-77.272611933,427,"2905 MADISON GROVE ROAD, GREENVILLE, NC, 27858","Match","Exact","2905 MADISON GROVE RD, GREENVILLE, NC, 27858",617979400,"L"
154928,"2905 MITCHELLVILLE RD 207","BOWIE","MD",20715,38.9286248920001,-76.734202588,428,"2905 MITCHELLVILLE RD 207, BOWIE, MD, 20715","Match","Non_Exact","2905 MITCHELLVILLE RD, BOWIE, MD, 20716",76328297,"R"
154929,"2905 MONTICELLO LN","LANCASTER","TX",75134,32.623784399,-96.8021445589999,429,"2905 MONTICELLO LN, LANCASTER, TX, 75134","Match","Exact","2905 MONTICELLO LN, LANCASTER, TX, 75134",627209842,"L"
154930,"2905 N BELMONT LN","COOPER CITY","FL",33026,26.033359121,-80.2997687119999,430,"2905 N BELMONT LN, COOPER CITY, FL, 33026","Match","Non_Exact","2905 BELMONT LN, HOLLYWOOD, FL, 33026",114752690,"L"
154931,"2905 N SHERMAN DR","INDIANAPOLIS","IN",46218,39.8089111080001,-86.102536577,431,"2905 N SHERMAN DR, INDIANAPOLIS, IN, 46218","Match","Exact","2905 N SHERMAN DR, INDIANAPOLIS, IN, 46218",107998584,"R"
154932,"2905 NE 46TH AVE","DES MOINES","IN",50317,NA,NA,432,"2905 NE 46TH AVE, DES MOINES, IN, 50317","No_Match",NA,NA,NA,NA
154933,"2905 NORTHWEST BLVD SUITE 150","PLYMOUTH","MN",55441,45.0104879680001,-93.449277934,433,"2905 NORTHWEST BLVD SUITE 150, PLYMOUTH, MN, 55441","Match","Exact","2905 NORTHWEST BLVD, PLYMOUTH, MN, 55441",43822226,"R"
154934,"2905 OAKSIDE","BRYAN","TX",77802,30.6495890360001,-96.321892857,434,"2905 OAKSIDE, BRYAN, TX, 77802","Match","Non_Exact","2905 OAKSIDE DR, BRYAN, TX, 77802",21833026,"L"
154935,"2905 OLD COLUMBUS RD","TUSKEGEE","AL",36083,32.4142142950001,-85.656922556,435,"2905 OLD COLUMBUS RD, TUSKEGEE, AL, 36083","Match","Exact","2905 OLD COLUMBUS RD, TUSKEGEE, AL, 36083",69134335,"L"
154936,"2905 PERCEVAL LN","AUSTIN","TX",78748,30.1689007960001,-97.842386682,436,"2905 PERCEVAL LN, AUSTIN, TX, 78748","Match","Exact","2905 PERCEVAL LN, AUSTIN, TX, 78748",64047148,"L"
154937,"2905 ROBBINS ST","PHILADELPHIA","PA",19149,40.030220839,-75.0642617949999,437,"2905 ROBBINS ST, PHILADELPHIA, PA, 19149","Match","Non_Exact","2905 ROBBINS AVE, PHILADELPHIA, PA, 19149",641949479,"L"
154938,"2905 ROSE ACRES LN","MARYLAND HEIGHTS","MO",63043,38.735097029,-90.4563331319999,438,"2905 ROSE ACRES LN, MARYLAND HEIGHTS, MO, 63043","Match","Exact","2905 ROSE ACRES LN, MARYLAND HEIGHTS, MO, 63043",100124865,"L"
154939,"2905 SARATOGA DR","WINCHESTER","VA",22601,39.1480692530001,-78.1918859099999,439,"2905 SARATOGA DR, WINCHESTER, VA, 22601","Match","Exact","2905 SARATOGA DR, WINCHESTER, VA, 22601",55608911,"R"
154940,"2905 STENDER WAY SUITE 72","SANTA CLARA","CA",95054,37.37531734,-121.970167607,440,"2905 STENDER WAY SUITE 72, SANTA CLARA, CA, 95054","Match","Exact","2905 STENDER WAY, SANTA CLARA, CA, 95054",614033214,"R"
154941,"2905 SUESAND DR","MEMPHIS","TN",38128,35.2049486770001,-89.906672768,441,"2905 SUESAND DR, MEMPHIS, TN, 38128","Match","Exact","2905 SUESAND DR, MEMPHIS, TN, 38128",72923524,"L"
154942,"2905 UNIVERSAL STREET SUITE 2","OSHKOSH","WI",54904,43.984470135,-88.5912750909999,442,"2905 UNIVERSAL STREET SUITE 2, OSHKOSH, WI, 54904","Match","Exact","2905 UNIVERSAL ST, OSHKOSH, WI, 54904",74501767,"R"
154943,"2905 VINAN DR","MELROSE PARK","IL",60164,41.9308219490001,-87.899647957,443,"2905 VINAN DR, MELROSE PARK, IL, 60164","Match","Exact","2905 VINAN DR, MELROSE PARK, IL, 60164",111848744,"R"
154944,"2905 WADSWORTH AVENUE","DURHAM","NC",27707,35.9613115590001,-78.9224949709999,444,"2905 WADSWORTH AVENUE, DURHAM, NC, 27707","Match","Exact","2905 WADSWORTH AVE, DURHAM, NC, 27707",71740891,"L"
154945,"2905 WEST AVE","DISTRICT HEIGHTS","MD",20747,38.8494839730001,-76.911424817,445,"2905 WEST AVE, DISTRICT HEIGHTS, MD, 20747","Match","Exact","2905 WEST AVE, DISTRICT HEIGHTS, MD, 20747",76314628,"R"
154946,"2905 WESTCORP BLVD SUITE 118","HUNTSVILLE","AL",35805,34.711278905,-86.602870555,446,"2905 WESTCORP BLVD SUITE 118, HUNTSVILLE, AL, 35805","Match","Non_Exact","2905 WESTCORP BLVD SW, HUNTSVILLE, AL, 35805",58138382,"L"
154947,"29053 1500 EAST ST","WALNUT","IL",61376,41.5692281410001,-89.569978819,447,"29053 1500 EAST ST, WALNUT, IL, 61376","Match","Exact","29053 1500 EAST ST, WALNUT, IL, 61376",8472992,"L"
154948,"29059 FOX HOLLOW ROAD","EUGENE","OR",97405,43.939132982,-123.196678646,448,"29059 FOX HOLLOW ROAD, EUGENE, OR, 97405","Match","Exact","29059 FOX HOLLOW RD, EUGENE, OR, 97405",178167927,"L"
154949,"2906 14TH AVE S","MOORHEAD","MN",56560,46.8604295600001,-96.735028696,449,"2906 14TH AVE S, MOORHEAD, MN, 56560","Match","Exact","2906 14TH AVE S, MOORHEAD, MN, 56560",168030549,"L"
154950,"2906 17TH STREET","SAINT CLOUD","FL",34769,28.2424321890001,-81.302126668,450,"2906 17TH STREET, SAINT CLOUD, FL, 34769","Match","Exact","2906 17TH ST, SAINT CLOUD, FL, 34769",612234907,"R"
154951,"2906 96TH STREET","STURTEVANT","WI",53177,42.699522921,-87.9021776499999,451,"2906 96TH STREET, STURTEVANT, WI, 53177","Match","Exact","2906 96TH ST, STURTEVANT, WI, 53177",77908283,"R"
154952,"2906 ALMEDA PLAZA DR","HOUSTON","TX",77045,29.6363789160001,-95.41839874,452,"2906 ALMEDA PLAZA DR, HOUSTON, TX, 77045","Match","Exact","2906 ALMEDA PLAZA DR, HOUSTON, TX, 77045",96595716,"R"
154953,"2906 BROOKSTONE DR","ROCKINGHAM","VA",22801,38.3963997970001,-78.8533604249999,453,"2906 BROOKSTONE DR, ROCKINGHAM, VA, 22801","Match","Exact","2906 BROOKSTONE DR, ROCKINGHAM, VA, 22801",215300246,"R"
154954,"2906 CENTRAL ST    155","EVANSTON","IL",60201,42.064462502,-87.714884038,454,"2906 CENTRAL ST    155, EVANSTON, IL, 60201","Match","Exact","2906 CENTRAL ST, EVANSTON, IL, 60201",112367087,"L"
154955,"2906 CRESTWOOD COURT","BURLINGTON","NC",27215,36.0757514800001,-79.475491286,455,"2906 CRESTWOOD COURT, BURLINGTON, NC, 27215","Match","Exact","2906 CRESTWOOD CT, BURLINGTON, NC, 27215",71661990,"L"
154956,"2906 E 46TH STREET","TEXARKANA","AR",71854,33.467067333,-94.0114527439999,456,"2906 E 46TH STREET, TEXARKANA, AR, 71854","Match","Exact","2906 E 46TH ST, TEXARKANA, AR, 71854",639014655,"R"
154957,"2906 FORK RD","GAINESVILLE","GA",30506,34.3271943300001,-83.907523757,457,"2906 FORK RD, GAINESVILLE, GA, 30506","Match","Exact","2906 FORK RD, GAINESVILLE, GA, 30506",98247191,"L"
154958,"2906 GREGG DRIVE","MCHENRY","IL",60050,42.3207458530001,-88.254924406,458,"2906 GREGG DRIVE, MCHENRY, IL, 60050","Match","Exact","2906 GREGG DR, MCHENRY, IL, 60050",119822352,"L"
154959,"2906 LANCASTER DR","BLACKSBURG","VA",24060,37.2098941630001,-80.453335502,459,"2906 LANCASTER DR, BLACKSBURG, VA, 24060","Match","Non_Exact","2906 LANCASTER DR NW, BLACKSBURG, VA, 24060",73618386,"L"
154960,"2906 LEEK STREET","HOUSTON","TX",77004,29.7289552330001,-95.344156278,460,"2906 LEEK STREET, HOUSTON, TX, 77004","Match","Exact","2906 LEEK ST, HOUSTON, TX, 77004",96073810,"R"
154961,"2906 LICHEN LN UNIT C","CLEARWATER","FL",33760,27.9279507700001,-82.717448184,461,"2906 LICHEN LN UNIT C, CLEARWATER, FL, 33760","Match","Exact","2906 LICHEN LN, CLEARWATER, FL, 33760",124798487,"L"
154962,"2906 NORTH ELMORE AVENUE","TAMPA","FL",33602,27.969792682,-82.45393252,462,"2906 NORTH ELMORE AVENUE, TAMPA, FL, 33602","Match","Exact","2906 N ELMORE AVE, TAMPA, FL, 33602",104523090,"L"
154963,"2906 NW 5TH AVE","WILTON MANORS","FL",33311,26.162944607,-80.149790035,463,"2906 NW 5TH AVE, WILTON MANORS, FL, 33311","Match","Exact","2906 NW 5TH AVE, WILTON MANORS, FL, 33311",114719476,"R"
154964,"2906 OSSENFORT RD","WILDWOOD","MO",63038,38.576543471,-90.7216038449999,464,"2906 OSSENFORT RD, WILDWOOD, MO, 63038","Match","Exact","2906 OSSENFORT RD, WILDWOOD, MO, 63038",629470366,"R"
154965,"2906 PAGE STREET","TEXARKANA","TX",75501,33.399955054,-94.077233126,465,"2906 PAGE STREET, TEXARKANA, TX, 75501","Match","Exact","2906 PAGE ST, TEXARKANA, TX, 75501",57678901,"R"
154966,"2906 PEARSON ROAD","HURDLE MILLS","NC",27541,36.1754639150001,-79.0728368329999,466,"2906 PEARSON ROAD, HURDLE MILLS, NC, 27541","Match","Exact","2906 PEARSON RD, HURDLE MILLS, NC, 27541",72381187,"R"
154967,"2906 PLYMOUTH AVENUE","LINCOLN","NE",68502,40.7880690270001,-96.679849398,467,"2906 PLYMOUTH AVENUE, LINCOLN, NE, 68502","Match","Exact","2906 PLYMOUTH AVE, LINCOLN, NE, 68502",28255909,"L"
154968,"2906 QUENTIN TRL","LOGAN","IA",51546,41.5863742940001,-95.7245999039999,468,"2906 QUENTIN TRL, LOGAN, IA, 51546","Match","Exact","2906 QUENTIN TRL, LOGAN, IA, 51546",130982132,"L"
154969,"2906 S DEVON ST","CHARLOTTE","NC",28213,35.2765646010001,-80.7312084339999,469,"2906 S DEVON ST, CHARLOTTE, NC, 28213","Match","Exact","2906 S DEVON ST, CHARLOTTE, NC, 28213",618145828,"R"
154970,"2906 S LA BREA AVE","LOS ANGELES","CA",90016,34.028562333,-118.352712992,470,"2906 S LA BREA AVE, LOS ANGELES, CA, 90016","Match","Exact","2906 S LA BREA AVE, LOS ANGELES, CA, 90016",141601284,"L"
154971,"2906 SANDCOVE CT","LEAGUE CITY","TX",77573,29.506893507,-95.048096661,471,"2906 SANDCOVE CT, LEAGUE CITY, TX, 77573","Match","Exact","2906 SANDCOVE CT, LEAGUE CITY, TX, 77573",96742708,"L"
154972,"2906 SENTRY OAK WAY","SUGAR LAND","TX",77479,29.5720451720001,-95.640881421,472,"2906 SENTRY OAK WAY, SUGAR LAND, TX, 77479","Match","Exact","2906 SENTRY OAK WAY, SUGAR LAND, TX, 77479",641152279,"L"
154973,"2906 SUNDROP AVE","MISSION","TX",78574,26.2357297890001,-98.295445577,473,"2906 SUNDROP AVE, MISSION, TX, 78574","Match","Exact","2906 SUNDROP AVE, MISSION, TX, 78574",624902503,"R"
154974,"2906 W MAIN ST","VISALIA","CA",93291,36.3295399570001,-119.322494643,474,"2906 W MAIN ST, VISALIA, CA, 93291","Match","Exact","2906 W MAIN ST, VISALIA, CA, 93291",202779812,"R"
154975,"2906 WINDY CROSSING LN","DICKINSON","TX",77539,29.4479681170001,-95.100874889,475,"2906 WINDY CROSSING LN, DICKINSON, TX, 77539","Match","Exact","2906 WINDY CROSSING LN, DICKINSON, TX, 77539",96744249,"R"
154976,"29060 ABELIA GLEN ST","MENIFEE","CA",92584,33.700088792,-117.151760011,476,"29060 ABELIA GLEN ST, MENIFEE, CA, 92584","Match","Exact","29060 ABELIA GLEN ST, MENIFEE, CA, 92584",646089385,"L"
154977,"29062 PROMENADE RD","MENIFEE","CA",92584,33.6963806950001,-117.146718707,477,"29062 PROMENADE RD, MENIFEE, CA, 92584","Match","Exact","29062 PROMENADE RD, MENIFEE, CA, 92584",633952012,"L"
154978,"29065 POPPY MEADOW ST","CANYON COUNTRY","CA",91387,34.4335934980001,-118.400622487,478,"29065 POPPY MEADOW ST, CANYON COUNTRY, CA, 91387","Match","Exact","29065 POPPY MEADOW ST, CANYON COUNTRY, CA, 91387",142808423,"L"
154979,"2907 15TH ST","LUBBOCK","TX",79409,NA,NA,479,"2907 15TH ST, LUBBOCK, TX, 79409","No_Match",NA,NA,NA,NA
154980,"2907 ADAMS DRIVE","MELISSA","TX",75454,33.290925653,-96.556173655,480,"2907 ADAMS DRIVE, MELISSA, TX, 75454","Match","Exact","2907 ADAMS DR, MELISSA, TX, 75454",616832741,"L"
154981,"2907 ASHBROOK LN","PEARLAND","TX",77584,29.5577057410001,-95.409959402,481,"2907 ASHBROOK LN, PEARLAND, TX, 77584","Match","Exact","2907 ASHBROOK LN, PEARLAND, TX, 77584",627643114,"L"
154982,"2907 CHANDLER HWY","TYLER","TX",75702,32.348635406,-95.331472191,482,"2907 CHANDLER HWY, TYLER, TX, 75702","Match","Exact","2907 CHANDLER HWY, TYLER, TX, 75702",141269802,"R"
154983,"2907 CORTEZ COURT","COLLEGE STATION","TX",77845,30.580387042,-96.314137068,483,"2907 CORTEZ COURT, COLLEGE STATION, TX, 77845","Match","Exact","2907 CORTEZ CT, COLLEGE STATION, TX, 77845",21834009,"R"
154984,"2907 COYOTE TRAIL DR","MISSOURI CITY","TX",77459,29.5435844630001,-95.505921934,484,"2907 COYOTE TRAIL DR, MISSOURI CITY, TX, 77459","Match","Exact","2907 COYOTE TRAIL DR, MISSOURI CITY, TX, 77459",635387780,"R"
154985,"2907 FIREWHEEL STREET","HEARTLAND","TX",75126,NA,NA,485,"2907 FIREWHEEL STREET, HEARTLAND, TX, 75126","No_Match",NA,NA,NA,NA
154986,"2907 FIRTH ROAD","DURHAM","NC",27704,36.0288104520001,-78.881509192,486,"2907 FIRTH ROAD, DURHAM, NC, 27704","Match","Exact","2907 FIRTH RD, DURHAM, NC, 27704",648027069,"R"
154987,"2907 FIVE OAKS DRIVE","MISSOURI CITY","TX",77459,29.491185699,-95.5056018669999,487,"2907 FIVE OAKS DRIVE, MISSOURI CITY, TX, 77459","Match","Exact","2907 FIVE OAKS DR, MISSOURI CITY, TX, 77459",635249567,"R"
154988,"2907 FOURTH STREET","BEAUFORT","SC",29902,32.443902301,-80.701960507,488,"2907 FOURTH STREET, BEAUFORT, SC, 29902","Match","Exact","2907 4TH ST, BEAUFORT, SC, 29902",87605753,"R"
154989,"2907 GRAYSBY AVE","SAN PEDRO","CA",90732,NA,NA,489,"2907 GRAYSBY AVE, SAN PEDRO, CA, 90732","No_Match",NA,NA,NA,NA
154990,"2907 HENDERSON LANE","MURFREESBORO","TN",37130,35.8998189810001,-86.3531866659999,490,"2907 HENDERSON LANE, MURFREESBORO, TN, 37130","Match","Exact","2907 HENDERSON LN, MURFREESBORO, TN, 37130",59036402,"L"
154991,"2907 HUNGARY ROAD","HENRICO","VA",23228,37.6431894770001,-77.509651992,491,"2907 HUNGARY ROAD, HENRICO, VA, 23228","Match","Exact","2907 HUNGARY RD, HENRICO, VA, 23228",106664017,"L"
154992,"2907 KEVIN LANE","JONESBORO","GA",30236,33.5455727670001,-84.29744454,492,"2907 KEVIN LANE, JONESBORO, GA, 30236","Match","Exact","2907 KEVIN LN, JONESBORO, GA, 30236",23318037,"R"
154993,"2907 LOCH LOMOND DR","CONYERS","GA",30094,33.6330788060001,-84.059655533,493,"2907 LOCH LOMOND DR, CONYERS, GA, 30094","Match","Exact","2907 LOCH LOMOND DR, CONYERS, GA, 30094",653442014,"L"
154994,"2907 LOCUST ST","ELDORADO","IL",62930,37.8072979900001,-88.457410395,494,"2907 LOCUST ST, ELDORADO, IL, 62930","Match","Exact","2907 LOCUST ST, ELDORADO, IL, 62930",104102257,"R"
154995,"2907 LOEHRS LANDING DR","HASTINGS","MI",49058,42.6108890570001,-85.354726899,495,"2907 LOEHRS LANDING DR, HASTINGS, MI, 49058","Match","Exact","2907 LOEHRS LANDING DR, HASTINGS, MI, 49058",10507795,"R"
154996,"2907 LOG CABIN DRIVE","ATLANTA","GA",30339,33.838710212,-84.472952651,496,"2907 LOG CABIN DRIVE, ATLANTA, GA, 30339","Match","Exact","2907 LOG CABIN DR, ATLANTA, GA, 30339",647786583,"L"
154997,"2907 MAGNOLIA AVE","SAINT LOUIS","MO",63118,38.604474511,-90.230287797,497,"2907 MAGNOLIA AVE, SAINT LOUIS, MO, 63118","Match","Exact","2907 MAGNOLIA AVE, SAINT LOUIS, MO, 63118",107598464,"R"
154998,"2907 MARSHALL STREET","FALLS CHURCH","VA",22042,38.872393801,-77.183921023,498,"2907 MARSHALL STREET, FALLS CHURCH, VA, 22042","Match","Exact","2907 MARSHALL ST, FALLS CHURCH, VA, 22042",75978931,"L"
154999,"2907 MYRTLE STREET","OAKLAND","CA",94608,37.8202444510001,-122.277752248,499,"2907 MYRTLE STREET, OAKLAND, CA, 94608","Match","Exact","2907 MYRTLE ST, OAKLAND, CA, 94608",124996357,"L"
155000,"2907 N 9TH STREET","CARTER LAKE","IA",51510,41.2850662210001,-95.918005836,500,"2907 N 9TH STREET, CARTER LAKE, IA, 51510","Match","Exact","2907 N 9TH ST, CARTER LAKE, IA, 51510",43898767,"R"
