"ID","Address","City","State","Zip","lat","long","id","input_address","match_indicator","match_type","matched_address","tiger_line_id","tiger_side"
176501,"33251 US HIGHWAY 71","MARYVILLE","MO",64468,40.241891878,-94.867701779,1,"33251 US HIGHWAY 71, MARYVILLE, MO, 64468","Match","Exact","33251 US HWY 71, MARYVILLE, MO, 64468",608413007,"R"
176502,"33252 CORTE YACA","TEMECULA","CA",92592,33.492291204,-117.079304847,2,"33252 CORTE YACA, TEMECULA, CA, 92592","Match","Exact","33252 CORTE YACA, TEMECULA, CA, 92592",194823857,"L"
176503,"33256 BREIGHTON WOOD ST","MENIFEE","CA",92584,33.638680912,-117.147999852,3,"33256 BREIGHTON WOOD ST, MENIFEE, CA, 92584","Match","Exact","33256 BREIGHTON WOOD ST, MENIFEE, CA, 92584",608999944,"R"
176504,"33258 E 240TH AVE","BETHANY","MO",64424,40.2305974440001,-93.973401344,4,"33258 E 240TH AVE, BETHANY, MO, 64424","Match","Exact","33258 E 240TH AVE, BETHANY, MO, 64424",17997520,"R"
176505,"33259 VIA ALVARO","TEMECULA","CA",92592,33.493443401,-117.078877558,5,"33259 VIA ALVARO, TEMECULA, CA, 92592","Match","Exact","33259 VIA ALVARO, TEMECULA, CA, 92592",194823849,"L"
176506,"3326 103RD AVE SE","LAKE STEVENS","WA",98258,47.965449558,-122.093220863,6,"3326 103RD AVE SE, LAKE STEVENS, WA, 98258","Match","Exact","3326 103RD AVE SE, LAKE STEVENS, WA, 98258",187777052,"L"
176507,"3326 3RD ST","BERWICK","LA",70342,29.694103011,-91.2187819069999,7,"3326 3RD ST, BERWICK, LA, 70342","Match","Exact","3326 3RD ST, BERWICK, LA, 70342",85904997,"L"
176508,"3326 BELMONT ST","BELLAIRE","OH",43906,40.0153662120001,-80.742616888,8,"3326 BELMONT ST, BELLAIRE, OH, 43906","Match","Exact","3326 BELMONT ST, BELLAIRE, OH, 43906",36217304,"L"
176509,"3326 CLASSIC DR","SNELLVILLE","GA",30078,33.8501751840001,-83.9587482599999,9,"3326 CLASSIC DR, SNELLVILLE, GA, 30078","Match","Exact","3326 CLASSIC DR, SNELLVILLE, GA, 30078",88904798,"L"
176510,"3326 COMMON WAY","MADERA","CA",93637,36.97373171,-120.101594502,10,"3326 COMMON WAY, MADERA, CA, 93637","Match","Exact","3326 COMMON WAY, MADERA, CA, 93637",614682201,"R"
176511,"3326 COUNTY RD 73","CROWN CITY","OH",45623,38.576031405,-82.32662174,11,"3326 COUNTY RD 73, CROWN CITY, OH, 45623","Match","Exact","3326 CO RD 73, CROWN CITY, OH, 45623",55008503,"R"
176512,"3326 DENTON WAY","SAN JOSE","CA",95121,37.309929502,-121.796893695,12,"3326 DENTON WAY, SAN JOSE, CA, 95121","Match","Exact","3326 DENTON WAY, SAN JOSE, CA, 95121",122917992,"L"
176513,"3326 DURHAM CHAPEL HILL BLVD STE D","DURHAM","NC",27707,35.9714994620001,-78.9482121779999,13,"3326 DURHAM CHAPEL HILL BLVD STE D, DURHAM, NC, 27707","Match","Non_Exact","3326 DURHAM-CHAPEL HILL BLVD, DURHAM, NC, 27707",609079431,"R"
176514,"3326 E 60TH STREET","KANSAS CITY","MO",64130,39.017332665,-94.547400959,14,"3326 E 60TH STREET, KANSAS CITY, MO, 64130","Match","Exact","3326 E 60TH ST, KANSAS CITY, MO, 64130",91452795,"L"
176515,"3326 E KINGBIRD DRIVE","GILBERT","AZ",85297,33.2739527430001,-111.71798935,15,"3326 E KINGBIRD DRIVE, GILBERT, AZ, 85297","Match","Exact","3326 E KINGBIRD DR, GILBERT, AZ, 85297",128852550,"L"
176516,"3326 HARRISON PIKE","CLEVELAND","TN",37311,35.1880677570001,-84.9400315729999,16,"3326 HARRISON PIKE, CLEVELAND, TN, 37311","Match","Exact","3326 HARRISON PIKE, CLEVELAND, TN, 37311",57571156,"L"
176517,"3326 J ST","SAN ANTONIO","TX",78220,29.404489572,-98.435585854,17,"3326 J ST, SAN ANTONIO, TX, 78220","Match","Exact","3326 J ST, SAN ANTONIO, TX, 78220",101531872,"R"
176518,"3326 KAYFORD CIRCLE","PHILADELPHIA","PA",19114,40.075586322,-74.9917535,18,"3326 KAYFORD CIRCLE, PHILADELPHIA, PA, 19114","Match","Exact","3326 KAYFORD CIR, PHILADELPHIA, PA, 19114",131441499,"R"
176519,"3326 LOS FLORES BLVD","LYNWOOD","CA",90262,33.9320017490001,-118.210988108,19,"3326 LOS FLORES BLVD, LYNWOOD, CA, 90262","Match","Exact","3326 LOS FLORES BLVD, LYNWOOD, CA, 90262",142764503,"R"
176520,"3326 N DODGE BLVD","TUCSON","AZ",85716,32.2668739440001,-110.914307695,20,"3326 N DODGE BLVD, TUCSON, AZ, 85716","Match","Exact","3326 N DODGE BLVD, TUCSON, AZ, 85716",121168764,"R"
176521,"3326 OCMULGEE EAST BOULEVARD","MACON","GA",31217,32.831683318,-83.574195098,21,"3326 OCMULGEE EAST BOULEVARD, MACON, GA, 31217","Match","Exact","3326 OCMULGEE EAST BLVD, MACON, GA, 31217",640442090,"L"
176522,"3326 OYSTER BAY AVE","DAVIS","CA",95616,38.5579013280001,-121.793150785,22,"3326 OYSTER BAY AVE, DAVIS, CA, 95616","Match","Exact","3326 OYSTER BAY AVE, DAVIS, CA, 95616",67705869,"L"
176523,"3326 PROSPECT STREET NW","WASHINGTON","DC",20057,38.905935238,-77.066935598,23,"3326 PROSPECT STREET NW, WASHINGTON, DC, 20057","Match","Non_Exact","3326 PROSPECT ST NW, WASHINGTON, DC, 20007",76224879,"L"
176524,"3326 ROSE TRACE DR","SPRING","WA",77386,NA,NA,24,"3326 ROSE TRACE DR, SPRING, WA, 77386","No_Match",NA,NA,NA,NA
176525,"3326 S RAINBURST PLACE","TUCSON","AZ",85713,32.1828828160001,-111.083117156,25,"3326 S RAINBURST PLACE, TUCSON, AZ, 85713","Match","Exact","3326 S RAINBURST PL, TUCSON, AZ, 85713",606814744,"R"
176526,"3326 SAM RAYBURN RUN","CARROLLTON","TX",75007,NA,NA,26,"3326 SAM RAYBURN RUN, CARROLLTON, TX, 75007","No_Match",NA,NA,NA,NA
176527,"3326 SPURLOCK ST","DALLAS","TX",75223,32.785498295,-96.73839013,27,"3326 SPURLOCK ST, DALLAS, TX, 75223","Match","Exact","3326 SPURLOCK ST, DALLAS, TX, 75223",102921563,"R"
176528,"3326 STARLITE CIR","ANCHORAGE","AK",99517,61.190577068,-149.962606434,28,"3326 STARLITE CIR, ANCHORAGE, AK, 99517","Match","Exact","3326 STARLITE CIR, ANCHORAGE, AK, 99517",190807378,"R"
176529,"3326 THEODORE","WIXOM","MI",48393,42.52812362,-83.536761342,29,"3326 THEODORE, WIXOM, MI, 48393","Match","Exact","3326 THEODORE, WIXOM, MI, 48393",69717196,"R"
176530,"3326 WOOD VALLEY CT","LEXINGTON","KY",40502,37.995941219,-84.490471489,30,"3326 WOOD VALLEY CT, LEXINGTON, KY, 40502","Match","Exact","3326 WOOD VALLEY CT, LEXINGTON, KY, 40502",31924123,"L"
176531,"3327 CALLE DE LUZ","SAN ANTONIO","TX",78226,NA,NA,31,"3327 CALLE DE LUZ, SAN ANTONIO, TX, 78226","No_Match",NA,NA,NA,NA
176532,"3327 CHAMBLEE DUNWOODY RD","ATLANTA","GA",30341,33.89181368,-84.2955765,32,"3327 CHAMBLEE DUNWOODY RD, ATLANTA, GA, 30341","Match","Exact","3327 CHAMBLEE DUNWOODY RD, ATLANTA, GA, 30341",23359166,"L"
176533,"3327 CHAUNCEY PLACE STE 301","MOUNT RAINIER","MD",20712,38.9509403600001,-76.962515034,33,"3327 CHAUNCEY PLACE STE 301, MOUNT RAINIER, MD, 20712","Match","Exact","3327 CHAUNCEY PL, MOUNT RAINIER, MD, 20712",644932006,"R"
176534,"3327 DUKE LN","FRIENDSWOOD","TX",77546,29.5076204870001,-95.158802534,34,"3327 DUKE LN, FRIENDSWOOD, TX, 77546","Match","Exact","3327 DUKE LN, FRIENDSWOOD, TX, 77546",96571678,"R"
176535,"3327 E 7TH STREET","LONG BEACH","CA",90804,33.775340499,-118.153159822,35,"3327 E 7TH STREET, LONG BEACH, CA, 90804","Match","Exact","3327 E 7TH ST, LONG BEACH, CA, 90804",141701711,"L"
176536,"3327 E BELLAIRE CT","WICHITA","KS",67218,37.654424362,-97.297577576,36,"3327 E BELLAIRE CT, WICHITA, KS, 67218","Match","Exact","3327 BELLAIRE CT, WICHITA, KS, 67218",115648613,"R"
176537,"3327 FARNSWORTH","DETROIT","MI",48211,42.3697002480001,-83.03470655,37,"3327 FARNSWORTH, DETROIT, MI, 48211","Match","Non_Exact","3327 FARNSWORTH ST, DETROIT, MI, 48211",95481939,"L"
176538,"3327 GARFIELD RD","EAU CLAIRE","WI",54701,44.736046452,-91.453290732,38,"3327 GARFIELD RD, EAU CLAIRE, WI, 54701","Match","Exact","3327 GARFIELD RD, EAU CLAIRE, WI, 54701",46062255,"L"
176539,"3327 HAMPTON WAY","EUGENE","OR",97401,44.081173752,-123.054560285,39,"3327 HAMPTON WAY, EUGENE, OR, 97401","Match","Exact","3327 HAMPTON WAY, EUGENE, OR, 97401",178216448,"L"
176540,"3327 MACEO STREET","LOS ANGELES","CA",90065,34.0934170890001,-118.224760612,40,"3327 MACEO STREET, LOS ANGELES, CA, 90065","Match","Exact","3327 MACEO ST, LOS ANGELES, CA, 90065",141617619,"L"
176541,"3327 NE 125TH STREET STE 104","SEATTLE","WA",98125,47.7192552070001,-122.292359959,41,"3327 NE 125TH STREET STE 104, SEATTLE, WA, 98125","Match","Non_Exact","3327 NE 125TH ST, SEATTLE, WA, 98125",186577123,"R"
176542,"3327 NORTH O STREET","FORT SMITH","AR",72904,NA,NA,42,"3327 NORTH O STREET, FORT SMITH, AR, 72904","No_Match",NA,NA,NA,NA
176543,"3327 PONOKA RD","PITTBURGH","PA",15241,40.3328759570001,-80.06387376,43,"3327 PONOKA RD, PITTBURGH, PA, 15241","Match","Non_Exact","3327 PONOKA RD, PITTSBURGH, PA, 15241",639086339,"L"
176544,"3327 RAHN BLVD","BELLEVUE","NE",68123,41.099727312,-95.962426775,44,"3327 RAHN BLVD, BELLEVUE, NE, 68123","Match","Exact","3327 RAHN BLVD, BELLEVUE, NE, 68123",28495190,"R"
176545,"3327 S GREENBRIAR AVENUE","SPRINGFIELD","MO",65804,37.1536222330001,-93.258765797,45,"3327 S GREENBRIAR AVENUE, SPRINGFIELD, MO, 65804","Match","Non_Exact","3327 S GREENBRIER AVE, SPRINGFIELD, MO, 65804",76695366,"L"
176546,"3327 TOWNE HOUSE DR NE","CEDAR RAPIDS","IA",52402,42.026904519,-91.6885417619999,46,"3327 TOWNE HOUSE DR NE, CEDAR RAPIDS, IA, 52402","Match","Exact","3327 TOWNE HOUSE DR NE, CEDAR RAPIDS, IA, 52402",17019530,"L"
176547,"3327 W EARLL DR","PHOENIX","AZ",85017,33.4831947430001,-112.129745252,47,"3327 W EARLL DR, PHOENIX, AZ, 85017","Match","Exact","3327 W EARLL DR, PHOENIX, AZ, 85017",128201752,"L"
176548,"3327 WALDROP FARMS WAY","DECATUR","GA",30034,33.6771973290001,-84.260721094,48,"3327 WALDROP FARMS WAY, DECATUR, GA, 30034","Match","Exact","3327 WALDROP FARMS WAY, DECATUR, GA, 30034",23400093,"L"
176549,"3327 WOODSFIELD DRIVE NE","MARIETTA","GA",30062,34.0056883440001,-84.450565088,49,"3327 WOODSFIELD DRIVE NE, MARIETTA, GA, 30062","Match","Exact","3327 WOODSFIELD DR NE, MARIETTA, GA, 30062",17210467,"L"
176550,"33271 JENNY LANE","SCAPPOOSE","OR",97056,45.7448015430001,-122.882405581,50,"33271 JENNY LANE, SCAPPOOSE, OR, 97056","Match","Non_Exact","33271 SW JENNY LN, SCAPPOOSE, OR, 97056",606155071,"L"
176551,"33275 KARLI LANE","ALBANY","LA",70711,30.551824443,-90.594567244,51,"33275 KARLI LANE, ALBANY, LA, 70711","Match","Exact","33275 KARLI LN, ALBANY, LA, 70711",653313697,"L"
176552,"3328 AVE B","FT WORTH","TX",76105,32.734223091,-97.277540443,52,"3328 AVE B, FT WORTH, TX, 76105","Match","Exact","3328 AVE B, FORT WORTH, TX, 76105",101896724,"R"
176553,"3328 AVENUE B","FORT WORTH","TX",76105,32.734223091,-97.277540443,53,"3328 AVENUE B, FORT WORTH, TX, 76105","Match","Exact","3328 AVE B, FORT WORTH, TX, 76105",101896724,"R"
176554,"3328 BLASIDELL AVENUE APT 3","MINNEAPOLIS","MN",55408,NA,NA,54,"3328 BLASIDELL AVENUE APT 3, MINNEAPOLIS, MN, 55408","No_Match",NA,NA,NA,NA
176555,"3328 CEDAR CREEK RUN","LITTLE RIVER","SC",29566,33.881938259,-78.64096541,55,"3328 CEDAR CREEK RUN, LITTLE RIVER, SC, 29566","Match","Exact","3328 CEDAR CREEK RUN, LITTLE RIVER, SC, 29566",29073986,"R"
176556,"3328 CLOVER PLACE","ONTARIO","CA",91761,34.0132520400001,-117.581745198,56,"3328 CLOVER PLACE, ONTARIO, CA, 91761","Match","Exact","3328 CLOVER PL, ONTARIO, CA, 91761",144990237,"L"
176557,"3328 E 55TH","CLEVELAND","OH",44106,NA,NA,57,"3328 E 55TH, CLEVELAND, OH, 44106","No_Match",NA,NA,NA,NA
176558,"3328 E PONCE DE LEON AVE 272","SCOTTDALE","GA",30079,33.7916580460001,-84.264656789,58,"3328 E PONCE DE LEON AVE 272, SCOTTDALE, GA, 30079","Match","Non_Exact","3328 E PONCE DE LEON AVE, SCOTTDALE, GA, 30079",23362500,"L"
176559,"3328 E PONCE DE LEON AVE UNIT 851","SCOTTDALE","GA",30359,NA,NA,59,"3328 E PONCE DE LEON AVE UNIT 851, SCOTTDALE, GA, 30359","No_Match",NA,NA,NA,NA
176560,"3328 EAST 24TH AVE","SPOKANE","WA",99223,47.6327243970001,-117.361496432,60,"3328 EAST 24TH AVE, SPOKANE, WA, 99223","Match","Exact","3328 E 24TH AVE, SPOKANE, WA, 99223",189882688,"R"
176561,"3328 FLEMON RD","JONESBORO","AR",72404,35.7854148230001,-90.768710889,61,"3328 FLEMON RD, JONESBORO, AR, 72404","Match","Exact","3328 FLEMON RD, JONESBORO, AR, 72404",46908505,"R"
176562,"3328 GLENROSE TRAIL","CHAMBLEE","GA",30341,33.8626629170001,-84.250875349,62,"3328 GLENROSE TRAIL, CHAMBLEE, GA, 30341","Match","Exact","3328 GLENROSE TRL, CHAMBLEE, GA, 30341",23390526,"L"
176563,"3328 GRANTSBURG DR","LANSING","MI",48911,42.695488067,-84.595178537,63,"3328 GRANTSBURG DR, LANSING, MI, 48911","Match","Exact","3328 GRANTSBURG DR, LANSING, MI, 48911",17496856,"R"
176564,"3328 MARSHLANE WAY","RALEIGH","NC",27610,35.7355322400001,-78.54122362,64,"3328 MARSHLANE WAY, RALEIGH, NC, 27610","Match","Exact","3328 MARSHLANE WAY, RALEIGH, NC, 27610",619835387,"R"
176565,"3328 MORNING WIND LANE","LAS VEGAS","NV",89129,36.220676321,-115.268088289,65,"3328 MORNING WIND LANE, LAS VEGAS, NV, 89129","Match","Exact","3328 MORNING WIND LN, LAS VEGAS, NV, 89129",201923251,"R"
176566,"3328 N DANTE AVENUE","FRESNO","CA",93722,36.783983703,-119.883858062,66,"3328 N DANTE AVENUE, FRESNO, CA, 93722","Match","Exact","3328 N DANTE AVE, FRESNO, CA, 93722",197615259,"R"
176567,"3328 NORTH CLARK ST","CHICAGO","IL",60657,41.9424312030001,-87.652685397,67,"3328 NORTH CLARK ST, CHICAGO, IL, 60657","Match","Exact","3328 N CLARK ST, CHICAGO, IL, 60657",111766702,"L"
176568,"3328 PARKWOOD DR","HOUSTON","TX",77021,29.7076479580001,-95.3703729439999,68,"3328 PARKWOOD DR, HOUSTON, TX, 77021","Match","Exact","3328 PARKWOOD DR, HOUSTON, TX, 77021",96072520,"R"
176569,"3328 PROSPECT","HOUSTON","TX",77004,29.7136060650001,-95.3656005139999,69,"3328 PROSPECT, HOUSTON, TX, 77004","Match","Non_Exact","3328 PROSPECT ST, HOUSTON, TX, 77004",96072495,"R"
176570,"3328 REYNOLDS ST","BRUNSWICK","GA",31520,31.1736929910001,-81.5030134469999,70,"3328 REYNOLDS ST, BRUNSWICK, GA, 31520","Match","Exact","3328 REYNOLDS ST, BRUNSWICK, GA, 31520",9131717,"R"
176571,"3328 REYNOLDS STREET","BRUNSWICK","GA",31520,31.1736929910001,-81.5030134469999,71,"3328 REYNOLDS STREET, BRUNSWICK, GA, 31520","Match","Exact","3328 REYNOLDS ST, BRUNSWICK, GA, 31520",9131717,"R"
176572,"3328 SW 16TH ST","OKEECHOBEE","FL",34974,27.229018411,-80.862368469,72,"3328 SW 16TH ST, OKEECHOBEE, FL, 34974","Match","Exact","3328 SW 16TH ST, OKEECHOBEE, FL, 34974",4925613,"L"
176573,"3328 VILLA FIORI AVE","LAS VEGAS","NV",89141,35.9932065830001,-115.184901942,73,"3328 VILLA FIORI AVE, LAS VEGAS, NV, 89141","Match","Exact","3328 VILLA FIORI AVE, LAS VEGAS, NV, 89141",612692404,"R"
176574,"3328 WASHINGTON ROAD","MCMURRAY","PA",15317,40.288819754,-80.114217143,74,"3328 WASHINGTON ROAD, MCMURRAY, PA, 15317","Match","Exact","3328 WASHINGTON RD, MCMURRAY, PA, 15317",52828154,"R"
176575,"3328 WHITLOCK DR APT A","WILSON","NC",27896,35.766697343,-77.9329747309999,75,"3328 WHITLOCK DR APT A, WILSON, NC, 27896","Match","Exact","3328 WHITLOCK DR, WILSON, NC, 27896",26730951,"R"
176576,"3328 WHITMORE CT","ACWORTH","GA",30101,34.05664818,-84.64375689,76,"3328 WHITMORE CT, ACWORTH, GA, 30101","Match","Exact","3328 WHITMORE CT, ACWORTH, GA, 30101",635536965,"R"
176577,"3328 WILCOX AVE","MUSKEGON","MI",49441,43.220211955,-86.325826617,77,"3328 WILCOX AVE, MUSKEGON, MI, 49441","Match","Exact","3328 WILCOX AVE, MUSKEGON, MI, 49441",77648765,"R"
176578,"3328A ELLSWORTH DR","GREENVILLE","NC",27834,35.593740353,-77.419440255,78,"3328A ELLSWORTH DR, GREENVILLE, NC, 27834","Match","Exact","3328 ELLSWORTH DR, GREENVILLE, NC, 27834",641632701,"R"
176579,"3329 20TH ROAD NORTH","ARLINGTON","VA",22207,38.8954951360001,-77.1011133009999,79,"3329 20TH ROAD NORTH, ARLINGTON, VA, 22207","Match","Exact","3329 20TH RD N, ARLINGTON, VA, 22207",76476881,"R"
176580,"3329 BELL STREET","NEW ORLEANS","LA",70119,29.978253856,-90.08694232,80,"3329 BELL STREET, NEW ORLEANS, LA, 70119","Match","Exact","3329 BELL ST, NEW ORLEANS, LA, 70119",191706466,"R"
176581,"3329 BROAD STREET","PARKERSBURG","WV",26104,39.2837457480001,-81.5275759419999,81,"3329 BROAD STREET, PARKERSBURG, WV, 26104","Match","Exact","3329 BROAD ST, PARKERSBURG, WV, 26104",90876002,"L"
176582,"3329 DONCASTER COURT","VIRGINIA BEACH","VA",23452,36.8577733980001,-76.0863078259999,82,"3329 DONCASTER COURT, VIRGINIA BEACH, VA, 23452","Match","Exact","3329 DONCASTER CT, VA BCH, VA, 23452",122266793,"L"
176583,"3329 DUMAINE","NEW ORLEANS","LA",70119,29.976754713,-90.088290746,83,"3329 DUMAINE, NEW ORLEANS, LA, 70119","Match","Non_Exact","3329 DUMAINE ST, NEW ORLEANS, LA, 70119",191707741,"R"
176584,"3329 ESTACADO DRIVE","DENTON","TX",76210,33.172721159,-97.103496983,84,"3329 ESTACADO DRIVE, DENTON, TX, 76210","Match","Exact","3329 ESTACADO DR, DENTON, TX, 76210",640685823,"R"
176585,"3329 HANOVER DR","ROCKFORD","IL",61101,42.308661703,-89.098798034,85,"3329 HANOVER DR, ROCKFORD, IL, 61101","Match","Exact","3329 HANOVER DR, ROCKFORD, IL, 61101",49250888,"R"
176586,"3329 HARBOURTOWN DRIVE","GRAND PRAIRIE","TX",75052,32.6897878240001,-97.056029259,86,"3329 HARBOURTOWN DRIVE, GRAND PRAIRIE, TX, 75052","Match","Non_Exact","3329 HARBOURTOWN, GRAND PRAIRIE, TX, 75052",101963145,"R"
176587,"3329 MARSROW AVE","TOLEDO","OH",43615,41.679630386,-83.686719734,87,"3329 MARSROW AVE, TOLEDO, OH, 43615","Match","Exact","3329 MARSROW AVE, TOLEDO, OH, 43615",33927735,"L"
176588,"3329 MARTIN LUTHER KING JR AVE SE","WASHINGTON","DC",20032,NA,NA,88,"3329 MARTIN LUTHER KING JR AVE SE, WASHINGTON, DC, 20032","No_Match",NA,NA,NA,NA
176589,"3329 MILLER ROAD","KALAMAZOO","MI",49001,42.2668143430001,-85.538403472,89,"3329 MILLER ROAD, KALAMAZOO, MI, 49001","Match","Exact","3329 MILLER RD, KALAMAZOO, MI, 49001",12241347,"L"
176590,"3329 OLIVE CHAPEL RD","APEX","NC",25702,35.7308515,-78.939807141,90,"3329 OLIVE CHAPEL RD, APEX, NC, 25702","Match","Non_Exact","3329 OLIVE CHAPEL RD, APEX, NC, 27502",650968493,"R"
176591,"3329 RANKIN STREET","DALLAS","TX",75205,32.84933771,-96.785556674,91,"3329 RANKIN STREET, DALLAS, TX, 75205","Match","Exact","3329 RANKIN ST, DALLAS, TX, 75205",102907313,"L"
176592,"3329 ROYAL PALM DRIVE","EDGEWATER","FL",32141,28.937974855,-80.89891482,92,"3329 ROYAL PALM DRIVE, EDGEWATER, FL, 32141","Match","Exact","3329 ROYAL PALM DR, EDGEWATER, FL, 32141",647929733,"L"
176593,"3329 SUPERIOR LANE","BOWIE","MD",20715,38.9789865320001,-76.732923613,93,"3329 SUPERIOR LANE, BOWIE, MD, 20715","Match","Exact","3329 SUPERIOR LN, BOWIE, MD, 20715",645468865,"R"
176594,"3329 SWANN ROAD","SUITLAND","MD",20746,38.843463381,-76.921693605,94,"3329 SWANN ROAD, SUITLAND, MD, 20746","Match","Exact","3329 SWANN RD, SUITLAND, MD, 20746",76411773,"R"
176595,"3329 TILLER COURT","PENSACOLA","FL",32507,30.3377886750001,-87.359740787,95,"3329 TILLER COURT, PENSACOLA, FL, 32507","Match","Exact","3329 TILLER CT, PENSACOLA, FL, 32507",93292512,"L"
176596,"3329 WINTERHAVEN STREET","LAS VEGAS","NV",89108,36.2208249620001,-115.245211668,96,"3329 WINTERHAVEN STREET, LAS VEGAS, NV, 89108","Match","Exact","3329 WINTERHAVEN ST, LAS VEGAS, NV, 89108",201935945,"R"
176597,"3329 YEMANS STREET","HAMTRAMCK","MI",48212,42.3996674960001,-83.053392238,97,"3329 YEMANS STREET, HAMTRAMCK, MI, 48212","Match","Exact","3329 YEMANS ST, HAMTRAMCK, MI, 48212",95465274,"L"
176598,"333  SW 9TH ST STE J","DES MOINES","IA",50309,41.585459535,-93.6284154639999,98,"333  SW 9TH ST STE J, DES MOINES, IA, 50309","Match","Non_Exact","333 9TH ST, DES MOINES, IA, 50314",65782931,"R"
176599,"333 1/2 STATE STREET","HUDSON","NY",12534,42.253547724,-73.788641734,99,"333 1/2 STATE STREET, HUDSON, NY, 12534","Match","Exact","333 STATE ST, HUDSON, NY, 12534",640427671,"L"
176600,"333 14TH ST","TOLEDO","OH",43604,41.6561084100001,-83.543469441,100,"333 14TH ST, TOLEDO, OH, 43604","Match","Exact","333 14TH ST, TOLEDO, OH, 43604",33943716,"L"
176601,"333 17TH STREET STE J","VERO BEACH","FL",32960,27.6323566900001,-80.379621745,101,"333 17TH STREET STE J, VERO BEACH, FL, 32960","Match","Exact","333 17TH ST, VERO BEACH, FL, 32960",637826944,"R"
176602,"333 17TH STREET SUITE Q","VERO BEACH","FL",32960,27.6323566900001,-80.379621745,102,"333 17TH STREET SUITE Q, VERO BEACH, FL, 32960","Match","Exact","333 17TH ST, VERO BEACH, FL, 32960",637826944,"R"
176603,"333 1ST ST H210","SEAL BEACH","CA",90740,NA,NA,103,"333 1ST ST H210, SEAL BEACH, CA, 90740","No_Match",NA,NA,NA,NA
176604,"333 2ND ST","SILAS","AL",36919,31.756903107,-88.328542783,104,"333 2ND ST, SILAS, AL, 36919","Match","Exact","333 2ND ST, SILAS, AL, 36919",102430,"R"
176605,"333 31ST STREET NORTH","ST PETERSBURG","FL",33713,27.7749765500001,-82.675344151,105,"333 31ST STREET NORTH, ST PETERSBURG, FL, 33713","Match","Exact","333 31ST ST N, SAINT PETERSBURG, FL, 33713",124705453,"R"
176606,"333 38TH ST","PITTSBURGH","PA",15201,40.463272841,-79.9611147689999,106,"333 38TH ST, PITTSBURGH, PA, 15201","Match","Exact","333 38TH ST, PITTSBURGH, PA, 15201",51642841,"L"
176607,"333 3RD AVE N STE 200","SAINT PETERSBURG","FL",33701,27.7749554010001,-82.6376026249999,107,"333 3RD AVE N STE 200, SAINT PETERSBURG, FL, 33701","Match","Exact","333 3RD AVE N, SAINT PETERSBURG, FL, 33701",124708204,"R"
176608,"333 4TH ST","BARABOO","WI",53913,43.470854188,-89.7371860969999,108,"333 4TH ST, BARABOO, WI, 53913","Match","Exact","333 4TH ST, BARABOO, WI, 53913",86534379,"R"
176609,"333 4TH ST","WAUKEGAN","IL",60085,42.3697944620001,-87.8331465479999,109,"333 4TH ST, WAUKEGAN, IL, 60085","Match","Exact","333 4TH ST, WAUKEGAN, IL, 60085",119644865,"L"
176610,"333 58TH STREET","SPRINGFIELD","OR",97478,44.0490742100001,-122.92630098,110,"333 58TH STREET, SPRINGFIELD, OR, 97478","Match","Exact","333 58TH ST, SPRINGFIELD, OR, 97478",178174685,"R"
176611,"333 6TH STREET","CARLSTADT","NJ",7072,40.8363901640001,-74.090848788,111,"333 6TH STREET, CARLSTADT, NJ, 7072","Match","Exact","333 SIXTH ST, CARLSTADT, NJ, 07072",64395359,"R"
176612,"333 7TH STREET","TELL CITY","IN",47586,NA,NA,112,"333 7TH STREET, TELL CITY, IN, 47586","No_Match",NA,NA,NA,NA
176613,"333 9TH STREET","PLEASANT GROVE","AL",35127,33.487058389,-86.964554664,113,"333 9TH STREET, PLEASANT GROVE, AL, 35127","Match","Exact","333 9TH ST, PLEASANT GROVE, AL, 35127",81545522,"L"
176614,"333 ALCOVY ST SUITE 7Q","MONROE","GA",30655,33.7854143650001,-83.716271815,114,"333 ALCOVY ST SUITE 7Q, MONROE, GA, 30655","Match","Exact","333 ALCOVY ST, MONROE, GA, 30655",639523344,"R"
176615,"333 ARENA AVENUE","NASHVILLE","TN",37203,36.156570861,-86.8042009929999,115,"333 ARENA AVENUE, NASHVILLE, TN, 37203","Match","Exact","333 ARENA AVE, NASHVILLE, TN, 37203",97185872,"L"
176616,"333 AVENUE I SE","WINTER HAVEN","FL",33880,28.0131346000001,-81.7234224429999,116,"333 AVENUE I SE, WINTER HAVEN, FL, 33880","Match","Exact","333 AVE I SE, WINTER HAVEN, FL, 33880",104824247,"L"
176617,"333 BAKER ST APT 313","SANFRANCISCO","CA",94117,37.773965117,-122.440993055,117,"333 BAKER ST APT 313, SANFRANCISCO, CA, 94117","Match","Non_Exact","333 BAKER ST, SAN FRANCISCO, CA, 94117",192283306,"L"
176618,"333 BAYSIDE DRIVE SUITE 104","NEWPORT BEACH","CA",92660,33.615710499,-117.900625745,118,"333 BAYSIDE DRIVE SUITE 104, NEWPORT BEACH, CA, 92660","Match","Exact","333 BAYSIDE DR, NEWPORT BEACH, CA, 92660",629617205,"R"
176619,"333 BEALE STREET","MEMPHIS","TN",38103,35.1393693640001,-90.0501766579999,119,"333 BEALE STREET, MEMPHIS, TN, 38103","Match","Exact","333 BEALE ST, MEMPHIS, TN, 38103",72903405,"R"
176620,"333 BEAVERDAM ROAD","ISLIP TERRACE","NY",11752,40.750742336,-73.196269859,120,"333 BEAVERDAM ROAD, ISLIP TERRACE, NY, 11752","Match","Non_Exact","333 BEAVER DAM RD, ISLIP TERRACE, NY, 11752",113998107,"R"
176621,"333 BECKER AVE","BELEN","NM",87002,34.6599550110001,-106.771054479,121,"333 BECKER AVE, BELEN, NM, 87002","Match","Exact","333 BECKER AVE, BELEN, NM, 87002",179196159,"L"
176622,"333 BRIDGE STREET NW SUITE 1125","GRAND RAPIDS","MI",49504,42.9705210270001,-85.67677445,122,"333 BRIDGE STREET NW SUITE 1125, GRAND RAPIDS, MI, 49504","Match","Exact","333 BRIDGE ST NW, GRAND RAPIDS, MI, 49504",12498372,"R"
176623,"333 BROADWAY STREET - SUITE 804","PADCUAH","KY",42001,37.0870594420001,-88.597241918,123,"333 BROADWAY STREET - SUITE 804, PADCUAH, KY, 42001","Match","Non_Exact","333 BROADWAY ST, PADUCAH, KY, 42001",8396821,"L"
176624,"333 BUSH STREET - 3801","SAN FRANCISCO","CA",94104,37.790868018,-122.403141737,124,"333 BUSH STREET - 3801, SAN FRANCISCO, CA, 94104","Match","Exact","333 BUSH ST, SAN FRANCISCO, CA, 94104",192281382,"L"
176625,"333 CARNEGIE PLACE","UNION","NJ",7083,NA,NA,125,"333 CARNEGIE PLACE, UNION, NJ, 7083","No_Match",NA,NA,NA,NA
176626,"333 CENTENNIAL RD","WARMINSTER","PA",18974,40.184257958,-75.074400262,126,"333 CENTENNIAL RD, WARMINSTER, PA, 18974","Match","Exact","333 CENTENNIAL RD, WARMINSTER, PA, 18974",134803943,"R"
176627,"333 CENTENNIAL ROAD","WARMINSTER","PA",18974,40.184257958,-75.074400262,127,"333 CENTENNIAL ROAD, WARMINSTER, PA, 18974","Match","Exact","333 CENTENNIAL RD, WARMINSTER, PA, 18974",134803943,"R"
176628,"333 CENTER STREET","PHILLIPSBURG","NJ",8865,40.6865146220001,-75.178407557,128,"333 CENTER STREET, PHILLIPSBURG, NJ, 8865","Match","Exact","333 CENTER ST, PHILLIPSBURG, NJ, 08865",98087449,"L"
176629,"333 CHEATHAM ST","SAN MARCOS","TX",78666,29.8769351760001,-97.93719301,129,"333 CHEATHAM ST, SAN MARCOS, TX, 78666","Match","Exact","333 CHEATHAM ST, SAN MARCOS, TX, 78666",649012604,"L"
176630,"333 CLAY STREET SUITE 2400","HOUSTON","TX",77002,29.7576138160001,-95.372680809,130,"333 CLAY STREET SUITE 2400, HOUSTON, TX, 77002","Match","Exact","333 CLAY ST, HOUSTON, TX, 77002",96625092,"L"
176631,"333 CLAY STREET SUITE 4800","HOUSTON","TX",77002,29.7576138160001,-95.372680809,131,"333 CLAY STREET SUITE 4800, HOUSTON, TX, 77002","Match","Exact","333 CLAY ST, HOUSTON, TX, 77002",96625092,"L"
176632,"333 COLEMAN STREET","SAVANNAH","GA",31405,32.0389032950001,-81.1227355349999,132,"333 COLEMAN STREET, SAVANNAH, GA, 31405","Match","Exact","333 COLEMAN ST, SAVANNAH, GA, 31405",641743658,"R"
176633,"333 CONSTITUTION AVE","RIDLEY PARK","PA",19078,39.8770995950001,-75.3295905689999,133,"333 CONSTITUTION AVE, RIDLEY PARK, PA, 19078","Match","Non_Exact","333 CONSTITUTION TER, RIDLEY PARK, PA, 19078",134882352,"L"
176634,"333 CORONADO STREET","FRITCH","TX",79036,35.6423563760001,-101.593235129,134,"333 CORONADO STREET, FRITCH, TX, 79036","Match","Exact","333 CORONADO ST, FRITCH, TX, 79036",185354534,"R"
176635,"333 COUNTY ROAD 1100 N","SEYMOUR","IL",61875,40.0402470330001,-88.400621039,135,"333 COUNTY ROAD 1100 N, SEYMOUR, IL, 61875","Match","Exact","333 CO RD 1100 N, SEYMOUR, IL, 61875",8808130,"R"
176636,"333 COUNTY ROAD 251","DURANGO","CO",81301,37.298519571,-107.856516754,136,"333 COUNTY ROAD 251, DURANGO, CO, 81301","Match","Exact","333 CO RD 251, DURANGO, CO, 81301",648960823,"L"
176637,"333 CUMMINGS","UVALDE","TX",78801,29.217990883,-99.796481387,137,"333 CUMMINGS, UVALDE, TX, 78801","Match","Non_Exact","333 CUMMINGS ST, UVALDE, TX, 78801",183444779,"R"
176638,"333 E 181 ST / APT 16W","BRONX","NY",10457,NA,NA,138,"333 E 181 ST / APT 16W, BRONX, NY, 10457","No_Match",NA,NA,NA,NA
176639,"333 E ALBERT AVE","EAST LANSING","MI",48823,42.7353812430001,-84.480465693,139,"333 E ALBERT AVE, EAST LANSING, MI, 48823","Match","Exact","333 ALBERT AVE, EAST LANSING, MI, 48823",17502034,"L"
176640,"333 E ALBERTONI ST STE 200","CARSON","CA",90746,33.871425661,-118.271492057,140,"333 E ALBERTONI ST STE 200, CARSON, CA, 90746","Match","Non_Exact","333 E ALBERTONI ST, CARSON, CA, 90746",142766173,"L"
176641,"333 E AMADO RD  BOX 1314","PALM SPRINGS","CA",92262,33.8267488290001,-116.544394788,141,"333 E AMADO RD  BOX 1314, PALM SPRINGS, CA, 92262","Match","Non_Exact","333 E AMADO RD, PALM SPRINGS, CA, 92262",194761725,"R"
176642,"333 E CITY AVE STE PL14","BALA CYNWYD","PA",19004,40.005945281,-75.216746148,142,"333 E CITY AVE STE PL14, BALA CYNWYD, PA, 19004","Match","Non_Exact","333 E CITY AVE, BALA CYNWYD, PA, 19004",634819627,"L"
176643,"333 E JOHN ST","SPRINGFIELD","OH",45505,NA,NA,143,"333 E JOHN ST, SPRINGFIELD, OH, 45505","Tie",NA,NA,NA,NA
176644,"333 E MAGNOLIA BLVD UNIT 203","BURBANK","CA",91502,34.1846384580001,-118.310023929,144,"333 E MAGNOLIA BLVD UNIT 203, BURBANK, CA, 91502","Match","Non_Exact","333 E MAGNOLIA BLVD, BURBANK, CA, 91502",241240081,"L"
176645,"333 E PETERS RD","WEST BRANCH","MI",48661,44.3349217210001,-84.1124226759999,145,"333 E PETERS RD, WEST BRANCH, MI, 48661","Match","Exact","333 E PETERS RD, WEST BRANCH, MI, 48661",635489748,"L"
176646,"333 E SHERMAN ST","MARION","IN",46952,40.565340371,-85.656654455,146,"333 E SHERMAN ST, MARION, IN, 46952","Match","Exact","333 E SHERMAN ST, MARION, IN, 46952",95008496,"L"
176647,"333 E WATER ST STE 200","ELMIRA","NY",14901,42.0882544140001,-76.8020081729999,147,"333 E WATER ST STE 200, ELMIRA, NY, 14901","Match","Non_Exact","333 E WATER ST, ELMIRA, NY, 14901",18533963,"L"
176648,"333 E102ND STREET APT 809","NEW YORK","NY",10029,NA,NA,148,"333 E102ND STREET APT 809, NEW YORK, NY, 10029","No_Match",NA,NA,NA,NA
176649,"333 EARL GARRETT ST","KERRVILLE","TX",78028,30.0473483370001,-99.138526156,149,"333 EARL GARRETT ST, KERRVILLE, TX, 78028","Match","Exact","333 EARL GARRETT ST, KERRVILLE, TX, 78028",176887686,"R"
176650,"333 EARLE OVINGTON BLVD STE 402","UNIONDALE","NY",11553,40.728503624,-73.5941831759999,150,"333 EARLE OVINGTON BLVD STE 402, UNIONDALE, NY, 11553","Match","Exact","333 EARLE OVINGTON BLVD, UNIONDALE, NY, 11553",147628270,"R"
176651,"333 EAST 10TH STREET NUMBER 3","INDIANAPOLIS","IN",46202,39.7810733950001,-86.1507472489999,151,"333 EAST 10TH STREET NUMBER 3, INDIANAPOLIS, IN, 46202","Match","Exact","333 E 10TH ST, INDIANAPOLIS, IN, 46202",107991775,"R"
176652,"333 EAST 162ND STREET","SOUTH HOLLAND","IL",60473,41.600818803,-87.609166049,152,"333 EAST 162ND STREET, SOUTH HOLLAND, IL, 60473","Match","Exact","333 E 162ND ST, SOUTH HOLLAND, IL, 60473",605705235,"R"
176653,"333 EAST 66 STREET APT 2M","NEW YORK","NY",10065,40.7646421170001,-73.960303803,153,"333 EAST 66 STREET APT 2M, NEW YORK, NY, 10065","Match","Exact","333 E 66TH ST, NEW YORK, NY, 10065",59657564,"L"
176654,"333 EAST 66TH STREET 2M","NEW YORK","NY",10065,40.7646421170001,-73.960303803,154,"333 EAST 66TH STREET 2M, NEW YORK, NY, 10065","Match","Exact","333 E 66TH ST, NEW YORK, NY, 10065",59657564,"L"
176655,"333 EAST CAMPUS MALL MAILBOX 79","MADISON","WI",53715,43.07248128,-89.399038076,155,"333 EAST CAMPUS MALL MAILBOX 79, MADISON, WI, 53715","Match","Exact","333 E CAMPUS MALL, MADISON, WI, 53715",647227495,"R"
176656,"333 EAST CITY AVE STE PL14","BALA CYNWYD","PA",19004,40.0059165050001,-75.216808005,156,"333 EAST CITY AVE STE PL14, BALA CYNWYD, PA, 19004","Match","Exact","333 E CITY AVE, BALA CYNWYD, PA, 19004",634819627,"L"
176657,"333 EAST CITY AVE SUITE PL14","BALA CYNWYD","PA",19004,40.0059165050001,-75.216808005,157,"333 EAST CITY AVE SUITE PL14, BALA CYNWYD, PA, 19004","Match","Exact","333 E CITY AVE, BALA CYNWYD, PA, 19004",634819627,"L"
176658,"333 EAST GRAND APT 508","DES MOINES","IA",50309,41.590202984,-93.6136935009999,158,"333 EAST GRAND APT 508, DES MOINES, IA, 50309","Match","Non_Exact","333 E GRAND AVE, DES MOINES, IA, 50309",65853295,"R"
176659,"333 FAYETTEVILLE STREET SUITE 1504","RALEIGH","NC",27601,NA,NA,159,"333 FAYETTEVILLE STREET SUITE 1504, RALEIGH, NC, 27601","No_Match",NA,NA,NA,NA
176660,"333 FREEPORT STREET STE 201","NEW KENSINGTON","PA",15068,40.556126739,-79.760014344,160,"333 FREEPORT STREET STE 201, NEW KENSINGTON, PA, 15068","Match","Exact","333 FREEPORT ST, NEW KENSINGTON, PA, 15068",635889490,"L"
176661,"333 GARRISON STREET","OCEANSIDE","CA",92054,33.208210249,-117.33416053,161,"333 GARRISON STREET, OCEANSIDE, CA, 92054","Match","Exact","333 GARRISON ST, OCEANSIDE, CA, 92054",195723470,"L"
176662,"333 GENOA STREET UNIT 11","ARCADIA","CA",91006,34.1324440560001,-118.022811882,162,"333 GENOA STREET UNIT 11, ARCADIA, CA, 91006","Match","Exact","333 GENOA ST, ARCADIA, CA, 91006",642866140,"L"
176663,"333 GOSHEN AVENUE","NORTH LITTLE ROCK","AR",72116,34.7841877990001,-92.2517840639999,163,"333 GOSHEN AVENUE, NORTH LITTLE ROCK, AR, 72116","Match","Exact","333 GOSHEN AVE, N LITTLE ROCK, AR, 72116",83514433,"L"
176664,"333 GRANT AVE APT 506","SAN FRANCISCO","CA",94108,37.7901562120001,-122.405518058,164,"333 GRANT AVE APT 506, SAN FRANCISCO, CA, 94108","Match","Exact","333 GRANT AVE, SAN FRANCISCO, CA, 94108",192281335,"L"
176665,"333 GREENLEAF LAKES AVE","PONTE VEDRA","FL",32081,30.102080378,-81.44931687,165,"333 GREENLEAF LAKES AVE, PONTE VEDRA, FL, 32081","Match","Exact","333 GREENLEAF LAKES AVE, PONTE VEDRA, FL, 32081",647340869,"L"
176666,"333 HAMPTON ROAD","POMFRET CENTER","CT",6259,41.871094956,-72.0015412079999,166,"333 HAMPTON ROAD, POMFRET CENTER, CT, 6259","Match","Exact","333 HAMPTON RD, POMFRET CENTER, CT, 06259",56458830,"L"
176667,"333 HANDY STREET - 5765","BRUNSWICK","NJ",8901,40.490740149,-74.453364297,167,"333 HANDY STREET - 5765, BRUNSWICK, NJ, 8901","Match","Non_Exact","333 HANDY ST, NEW BRUNSWICK, NJ, 08901",60263843,"R"
176668,"333 HARRIS ST","MINERAL POINT","WI",53565,42.8666498440001,-90.173244843,168,"333 HARRIS ST, MINERAL POINT, WI, 53565","Match","Exact","333 HARRIS ST, MINERAL POINT, WI, 53565",49798178,"R"
176669,"333 HARVARD STREET UNIT 3","CAMBRIDGE","MA",2139,42.370583674,-71.108829795,169,"333 HARVARD STREET UNIT 3, CAMBRIDGE, MA, 2139","Match","Exact","333 HARVARD ST, CAMBRIDGE, MA, 02139",86868754,"R"
176670,"333 HEATHER ST  FAIRFIELD TX 75840","FAIRFIELD","TX",75840,NA,NA,170,"333 HEATHER ST  FAIRFIELD TX 75840, FAIRFIELD, TX, 75840","No_Match",NA,NA,NA,NA
176671,"333 HILLWOOD DR","BOWLING GREEN","KY",42101,36.9400336260001,-86.538901147,171,"333 HILLWOOD DR, BOWLING GREEN, KY, 42101","Match","Exact","333 HILLWOOD DR, BOWLING GREEN, KY, 42101",28004796,"L"
176672,"333 HUDSON DRIVE","BRICK","NJ",8723,40.04270675,-74.14931037,172,"333 HUDSON DRIVE, BRICK, NJ, 8723","Match","Exact","333 HUDSON DR, BRICK, NJ, 08723",203725397,"L"
176673,"333 HURLBUTT STREET","WILTON","CT",6897,41.2123035880001,-73.4143175359999,173,"333 HURLBUTT STREET, WILTON, CT, 6897","Match","Exact","333 HURLBUTT ST, WILTON, CT, 06897",3259880,"L"
176674,"333 J ST SUITE 1105","SACRAMENTO","CA",95814,38.5826323570001,-121.502119446,174,"333 J ST SUITE 1105, SACRAMENTO, CA, 95814","Match","Exact","333 J ST, SACRAMENTO, CA, 95814",133321569,"L"
176675,"333 JEREMIAH BLVD","CHARLOTTE","NC",28262,35.2844174740001,-80.784835299,175,"333 JEREMIAH BLVD, CHARLOTTE, NC, 28262","Match","Exact","333 JEREMIAH BLVD, CHARLOTTE, NC, 28262",642170245,"L"
176676,"333 JOSIE DRIVE","BENSON","NC",27504,35.465327658,-78.603019333,176,"333 JOSIE DRIVE, BENSON, NC, 27504","Match","Exact","333 JOSIE DR, BENSON, NC, 27504",26555931,"L"
176677,"333 JULIA STREET APT 309","NEW ORLEANS","LA",70130,29.9447706600001,-90.0666896829999,177,"333 JULIA STREET APT 309, NEW ORLEANS, LA, 70130","Match","Exact","333 JULIA ST, NEW ORLEANS, LA, 70130",191714443,"R"
176678,"333 LANCASTER AVENUE NO 121","MALVERN","PA",19355,40.0388049640001,-75.5512846999999,178,"333 LANCASTER AVENUE NO 121, MALVERN, PA, 19355","Match","Non_Exact","333 LANCASTER AVE, MALVERN, PA, 19355",626993138,"R"
176679,"333 LAS OLAS WAY APT 2603","FORT LAUDERDALE","FL",33301,26.1185570280001,-80.141301114,179,"333 LAS OLAS WAY APT 2603, FORT LAUDERDALE, FL, 33301","Match","Exact","333 LAS OLAS WAY, FORT LAUDERDALE, FL, 33301",645574517,"R"
176680,"333 LAS OLAS WAY CU4","FORT LAUDER DALE","FL",33301,26.1185570280001,-80.141301114,180,"333 LAS OLAS WAY CU4, FORT LAUDER DALE, FL, 33301","Match","Non_Exact","333 LAS OLAS WAY, FORT LAUDERDALE, FL, 33301",645574517,"R"
176681,"333 LAS OLAS WAY UNIT 2601","FORT LAUDERDALE","FL",33301,26.1185570280001,-80.141301114,181,"333 LAS OLAS WAY UNIT 2601, FORT LAUDERDALE, FL, 33301","Match","Exact","333 LAS OLAS WAY, FORT LAUDERDALE, FL, 33301",645574517,"R"
176682,"333 LAURINA ST APT 218","JACKSONVILLE","FL",32216,30.3087977210001,-81.589687565,182,"333 LAURINA ST APT 218, JACKSONVILLE, FL, 32216","Match","Exact","333 LAURINA ST, JACKSONVILLE, FL, 32216",83968622,"L"
176683,"333 LIVINGSTON ROAD","LINDEN","NJ",7036,40.6398399010001,-74.2805530329999,183,"333 LIVINGSTON ROAD, LINDEN, NJ, 7036","Match","Exact","333 LIVINGSTON RD, LINDEN, NJ, 07036",60575155,"L"
176684,"333 LUDWELL DRIVE","LANCASTER","PA",17601,40.1013451250001,-76.320227887,184,"333 LUDWELL DRIVE, LANCASTER, PA, 17601","Match","Exact","333 LUDWELL DR, LANCASTER, PA, 17601",179676468,"R"
176685,"333 LUPFER AVENUE","WHITEFISH","MT",59937,48.4092825220001,-114.339596635,185,"333 LUPFER AVENUE, WHITEFISH, MT, 59937","Match","Exact","333 LUPFER AVE, WHITEFISH, MT, 59937",204077034,"R"
176686,"333 MADISION AVE","COVINGTON","KY",41011,39.0872297610001,-84.5110967049999,186,"333 MADISION AVE, COVINGTON, KY, 41011","Match","Non_Exact","333 MADISON AVE, COVINGTON, KY, 41011",103876103,"R"
176687,"333 MAIN STREET E","MENOMONIE","WI",54751,44.876512383,-91.926752016,187,"333 MAIN STREET E, MENOMONIE, WI, 54751","Match","Exact","333 MAIN ST E, MENOMONIE, WI, 54751",648674333,"L"
176688,"333 MAIN STREET N SUITE 202","STILLWATER","MN",55082,45.0589577710001,-92.8071404949999,188,"333 MAIN STREET N SUITE 202, STILLWATER, MN, 55082","Match","Exact","333 MAIN ST N, STILLWATER, MN, 55082",97832146,"L"
176689,"333 MAIN STREET SPRING MOUNT","SCHWENKSVILLE","PA",19473,NA,NA,189,"333 MAIN STREET SPRING MOUNT, SCHWENKSVILLE, PA, 19473","No_Match",NA,NA,NA,NA
176690,"333 MAMARONECK AVENUE 340","WHITE PLAINS","NY",10605,41.0240806800001,-73.7628896689999,190,"333 MAMARONECK AVENUE 340, WHITE PLAINS, NY, 10605","Match","Exact","333 MAMARONECK AVE, WHITE PLAINS, NY, 10605",139741921,"L"
176691,"333 MAMARONECK AVENUE PMB 435","WHITE PLAINS","NY",10605,41.0240806800001,-73.7628896689999,191,"333 MAMARONECK AVENUE PMB 435, WHITE PLAINS, NY, 10605","Match","Exact","333 MAMARONECK AVE, WHITE PLAINS, NY, 10605",139741921,"L"
176692,"333 MAMARONECK AVENUE","WHITE PLAINS","NY",10605,41.0240806800001,-73.7628896689999,192,"333 MAMARONECK AVENUE, WHITE PLAINS, NY, 10605","Match","Exact","333 MAMARONECK AVE, WHITE PLAINS, NY, 10605",139741921,"L"
176693,"333 MAPLE AVE E NUM 3040","VIENNA","VA",22180,38.905720999,-77.260000248,193,"333 MAPLE AVE E NUM 3040, VIENNA, VA, 22180","Match","Exact","333 MAPLE AVE E, VIENNA, VA, 22180",75970634,"R"
176694,"333 MAPLE AVENUE EAST","VIENNA","VA",22180,38.905720999,-77.260000248,194,"333 MAPLE AVENUE EAST, VIENNA, VA, 22180","Match","Exact","333 MAPLE AVE E, VIENNA, VA, 22180",75970634,"R"
176695,"333 MARTIN LUTHER KING DR","SAN ANTONIO","TX",78203,29.413312497,-98.474204657,195,"333 MARTIN LUTHER KING DR, SAN ANTONIO, TX, 78203","Match","Exact","333 MARTIN LUTHER KING DR, SAN ANTONIO, TX, 78203",101528871,"L"
176696,"333 MARTIN LUTHER KING DRIVE","SAN ANTONIO","TX",78203,29.413312497,-98.474204657,196,"333 MARTIN LUTHER KING DRIVE, SAN ANTONIO, TX, 78203","Match","Exact","333 MARTIN LUTHER KING DR, SAN ANTONIO, TX, 78203",101528871,"L"
176697,"333 MERCHANT STREET","VACAVILLE","CA",95688,38.354976972,-121.989963498,197,"333 MERCHANT STREET, VACAVILLE, CA, 95688","Match","Exact","333 MERCHANT ST, VACAVILLE, CA, 95688",192534484,"L"
176698,"333 METRO PARK","ROCHESTER","NY",14623,43.0957768060001,-77.622884616,198,"333 METRO PARK, ROCHESTER, NY, 14623","Match","Exact","333 METRO PARK, ROCHESTER, NY, 14623",14535124,"L"
176699,"333 MILAM STREET  PO BOX 764","SHREVEPORT","LA",71162,32.5131479400001,-93.7472475229999,199,"333 MILAM STREET  PO BOX 764, SHREVEPORT, LA, 71162","Match","Non_Exact","333 MILAM ST, SHREVEPORT, LA, 71101",57437275,"L"
176700,"333 MILFORD STREET SUITE 302","GLENDALE","CA",91203,34.1527355630001,-118.259168967,200,"333 MILFORD STREET SUITE 302, GLENDALE, CA, 91203","Match","Non_Exact","333 W MILFORD ST, GLENDALE, CA, 91203",142730040,"R"
176701,"333 MONCRIEF AVENUE","GOODLETTSVILLE","TN",37072,36.3243625440001,-86.721873596,201,"333 MONCRIEF AVENUE, GOODLETTSVILLE, TN, 37072","Match","Exact","333 MONCRIEF AVE, GOODLETTSVILLE, TN, 37072",97182242,"R"
176702,"333 MONTGOMERY ST","TROY","AL",36081,31.804618329,-85.9831443319999,202,"333 MONTGOMERY ST, TROY, AL, 36081","Match","Exact","333 MONTGOMERY ST, TROY, AL, 36081",636439072,"R"
176703,"333 MOORE HALL","MT. PLEASANT","MI",48859,NA,NA,203,"333 MOORE HALL, MT. PLEASANT, MI, 48859","No_Match",NA,NA,NA,NA
176704,"333 MORRIS WILL 1538","SAN ANTONIO","TX",78226,NA,NA,204,"333 MORRIS WILL 1538, SAN ANTONIO, TX, 78226","No_Match",NA,NA,NA,NA
176705,"333 MORRIS WITT","SAN ANTONIO","TX",78226,29.392762267,-98.564170989,205,"333 MORRIS WITT, SAN ANTONIO, TX, 78226","Match","Non_Exact","333 MORRIS WITT ST, SAN ANTONIO, TX, 78226",101736246,"L"
176706,"333 MOUNTAIN CREEK DR","DENISON","TX",75021,33.7122863710001,-96.489309138,206,"333 MOUNTAIN CREEK DR, DENISON, TX, 75021","Match","Exact","333 MOUNTAIN CREEK DR, DENISON, TX, 75021",63350098,"R"
176707,"333 N  PENNINGTON DR  UNIT 57","CHANDLER","AZ",85224,NA,NA,207,"333 N  PENNINGTON DR  UNIT 57, CHANDLER, AZ, 85224","Tie",NA,NA,NA,NA
176708,"333 N ALABAMA ST SUITE 350","INDIANAPOLIS","IN",46204,NA,NA,208,"333 N ALABAMA ST SUITE 350, INDIANAPOLIS, IN, 46204","Tie",NA,NA,NA,NA
176709,"333 N ALABAMA STREET STE 350","INDIANAPOLIS","IN",46204,NA,NA,209,"333 N ALABAMA STREET STE 350, INDIANAPOLIS, IN, 46204","Tie",NA,NA,NA,NA
176710,"333 N COLLEGE WAY","CLAREMONT","CA",91711,34.0970101350001,-117.71270517,210,"333 N COLLEGE WAY, CLAREMONT, CA, 91711","Match","Exact","333 N COLLEGE WAY, CLAREMONT, CA, 91711",142244367,"R"
176711,"333 N GLENOAKS BLVD 201","BURBANK","CA",91502,NA,NA,211,"333 N GLENOAKS BLVD 201, BURBANK, CA, 91502","Tie",NA,NA,NA,NA
176712,"333 N HIGH STREET FLOOR 2","MOUNT VERNON","NY",10550,40.9175065310001,-73.842482938,212,"333 N HIGH STREET FLOOR 2, MOUNT VERNON, NY, 10550","Match","Non_Exact","333 N HIGH ST, MOUNT VERNON, NY, 10550",139746968,"R"
176713,"333 N MARK STALL PLACE","BOISE","ID",83704,NA,NA,213,"333 N MARK STALL PLACE, BOISE, ID, 83704","No_Match",NA,NA,NA,NA
176714,"333 N MICHIGAN AVE SUITE 1801","CHICAGO","IL",60601,41.8873219290001,-87.624539001,214,"333 N MICHIGAN AVE SUITE 1801, CHICAGO, IL, 60601","Match","Non_Exact","333 N MICHIGAN AVE, CHICAGO, IL, 60601",112050024,"R"
176715,"333 N NEW RIVER DR EAST STE 3000","FT LAUDERDALE","FL",33301,NA,NA,215,"333 N NEW RIVER DR EAST STE 3000, FT LAUDERDALE, FL, 33301","No_Match",NA,NA,NA,NA
176716,"333 N PALISADES DR","OREM","UT",84097,40.3027762830001,-111.666241056,216,"333 N PALISADES DR, OREM, UT, 84097","Match","Exact","333 N PALISADES DR, OREM, UT, 84097",134207374,"L"
176717,"333 N PATRICK STREET","ALEXANDRIA","VA",22314,38.808170854,-77.049700683,217,"333 N PATRICK STREET, ALEXANDRIA, VA, 22314","Match","Exact","333 N PATRICK ST, ALEXANDRIA, VA, 22314",76022150,"R"
176718,"333 N PENNINGTON DR UNIT 28","CHANDLER","AZ",85224,NA,NA,218,"333 N PENNINGTON DR UNIT 28, CHANDLER, AZ, 85224","Tie",NA,NA,NA,NA
176719,"333 N SANTA ANITA AVE","ARCADIA","CA",91006,34.1446159430001,-118.031522608,219,"333 N SANTA ANITA AVE, ARCADIA, CA, 91006","Match","Exact","333 N SANTA ANITA AVE, ARCADIA, CA, 91006",141644973,"L"
176720,"333 N WILMOT ROAD STE 340","TUCSON","AZ",85722,NA,NA,220,"333 N WILMOT ROAD STE 340, TUCSON, AZ, 85722","No_Match",NA,NA,NA,NA
176721,"333 NE FETZNER","GRANTS PASS","OR",97526,42.446657513,-123.318896523,221,"333 NE FETZNER, GRANTS PASS, OR, 97526","Match","Non_Exact","333 NE FETZNER ST, GRANTS PASS, OR, 97526",156572673,"R"
176722,"333 NE RUSSELL ST APT 211","PORTLAND","OR",97212,45.540921789,-122.662277835,222,"333 NE RUSSELL ST APT 211, PORTLAND, OR, 97212","Match","Non_Exact","333 NE RUSSELL ST, PORTLAND, OR, 97212",157504883,"L"
176723,"333 NEW BETHEL CHURCH RD","KEMPTON","PA",19529,40.642909924,-75.8979323839999,223,"333 NEW BETHEL CHURCH RD, KEMPTON, PA, 19529","Match","Exact","333 NEW BETHEL CHURCH RD, KEMPTON, PA, 19529",632848675,"R"
176724,"333 NORMANDY ST APT 1307","HOUSTON","TX",77015,29.7943521990001,-95.2018529549999,224,"333 NORMANDY ST APT 1307, HOUSTON, TX, 77015","Match","Exact","333 NORMANDY ST, HOUSTON, TX, 77015",233347283,"R"
176725,"333 NORTH ALABAMA STREET SUITE 350","INDIANAPOLIS","IN",46204,39.7716894220001,-86.1524686389999,225,"333 NORTH ALABAMA STREET SUITE 350, INDIANAPOLIS, IN, 46204","Match","Exact","333 N ALABAMA ST, INDIANAPOLIS, IN, 46204",107991858,"R"
176726,"333 NORTH CANAL 1906","CHICAGO","IL",60606,41.8873969000001,-87.639928434,226,"333 NORTH CANAL 1906, CHICAGO, IL, 60606","Match","Non_Exact","333 N CANAL ST, CHICAGO, IL, 60606",111768555,"R"
176727,"333 NORTH CANAL ST APT 3601","CHICAGO","IL",60606,41.8873969000001,-87.639928434,227,"333 NORTH CANAL ST APT 3601, CHICAGO, IL, 60606","Match","Exact","333 N CANAL ST, CHICAGO, IL, 60606",111768555,"R"
176728,"333 NORTH HILL AVE SUITE 101","PASADENA","CA",91106,34.1515814690001,-118.121393961,228,"333 NORTH HILL AVE SUITE 101, PASADENA, CA, 91106","Match","Exact","333 N HILL AVE, PASADENA, CA, 91106",141629126,"L"
176729,"333 NORTH PARK AVENUE","INDIANAPOLIS","IN",46202,39.7722168610001,-86.1471079579999,229,"333 NORTH PARK AVENUE, INDIANAPOLIS, IN, 46202","Match","Exact","333 N PARK AVE, INDIANAPOLIS, IN, 46202",108037769,"R"
176730,"333 NORTH WASHINGTON AVE SUITE 300","MINNEAPOLIS","MN",55401,NA,NA,230,"333 NORTH WASHINGTON AVE SUITE 300, MINNEAPOLIS, MN, 55401","No_Match",NA,NA,NA,NA
176731,"333 NW 2ND AVE APT 4","HALLANDALE","FL",33009,NA,NA,231,"333 NW 2ND AVE APT 4, HALLANDALE, FL, 33009","Tie",NA,NA,NA,NA
176732,"333 OAK STREET WEST","RAINELLE","WV",25962,37.970260534,-80.782035147,232,"333 OAK STREET WEST, RAINELLE, WV, 25962","Match","Non_Exact","333 OAK ST, RAINELLE, WV, 25962",246582162,"L"
176733,"333 OAKWOOD DRIVE","MOUNT HOLLY","NC",28120,35.3229500190001,-81.053431718,233,"333 OAKWOOD DRIVE, MOUNT HOLLY, NC, 28120","Match","Exact","333 OAKWOOD DR, MOUNT HOLLY, NC, 28120",70457343,"L"
176734,"333 OUACHITA 210","CAMDEN","AR",71701,NA,NA,234,"333 OUACHITA 210, CAMDEN, AR, 71701","No_Match",NA,NA,NA,NA
176735,"333 OVERBROOK ROAD","HAGERSTOWN","MD",21742,39.6581667400001,-77.6937976679999,235,"333 OVERBROOK ROAD, HAGERSTOWN, MD, 21742","Match","Exact","333 OVERBROOK RD, HAGERSTOWN, MD, 21742",60808510,"R"
176736,"333 PANORA WAY","UPPERMARLBORO","MD",20774,38.8918238790001,-76.764941176,236,"333 PANORA WAY, UPPERMARLBORO, MD, 20774","Match","Non_Exact","333 PANORA WAY, UPPER MARLBORO, MD, 20774",633421746,"L"
176737,"333 PARADISE LAKE LANE","HOOVER","AL",35244,33.366708869,-86.827823272,237,"333 PARADISE LAKE LANE, HOOVER, AL, 35244","Match","Exact","333 PARADISE LAKE LN, HOOVER, AL, 35244",81696896,"R"
176738,"333 PEACHTREE ROAD","CHARLOTTE","NC",28216,35.291470013,-80.893796419,238,"333 PEACHTREE ROAD, CHARLOTTE, NC, 28216","Match","Exact","333 PEACHTREE RD, CHARLOTTE, NC, 28216",70600784,"L"
176739,"333 PITT STREET","PITTSBURGH","PA",15221,40.4394265450001,-79.89019487,239,"333 PITT STREET, PITTSBURGH, PA, 15221","Match","Exact","333 PITT ST, PITTSBURGH, PA, 15221",51813788,"R"
176740,"333 PORT PROVIDENCE ROAD","PHOENIXVILLE","PA",19460,40.1311392040001,-75.4982270799999,240,"333 PORT PROVIDENCE ROAD, PHOENIXVILLE, PA, 19460","Match","Exact","333 PORT PROVIDENCE RD, PHOENIXVILLE, PA, 19460",652467325,"L"
176741,"333 POTOCKI AVE","GRENVILLE","SD",57239,45.471816286,-97.392684742,241,"333 POTOCKI AVE, GRENVILLE, SD, 57239","Match","Exact","333 POTOCKI AVE, GRENVILLE, SD, 57239",201275500,"R"
176742,"333 PRESTONWOOD DRIVE APT 2310","RICHARDSON","TX",75081,32.936838617,-96.744393985,242,"333 PRESTONWOOD DRIVE APT 2310, RICHARDSON, TX, 75081","Match","Exact","333 PRESTONWOOD DR, RICHARDSON, TX, 75081",103210097,"L"
176743,"333 QUAKER MEETINGHOUSE ROAD","EAST SANDWICH","MA",2537,41.7279005520001,-70.458146852,243,"333 QUAKER MEETINGHOUSE ROAD, EAST SANDWICH, MA, 2537","Match","Non_Exact","333 QUAKER MEETING HOUSE RD, EAST SANDWICH, MA, 02537",121626534,"L"
176744,"333 RAMPART AVE","AKRON","OH",44313,41.1187301940001,-81.566748809,244,"333 RAMPART AVE, AKRON, OH, 44313","Match","Exact","333 RAMPART AVE, AKRON, OH, 44313",61337637,"R"
176745,"333 RECTOR PL APT 303","NEW YORK","NY",10280,40.709431065,-74.017180576,245,"333 RECTOR PL APT 303, NEW YORK, NY, 10280","Match","Exact","333 RECTOR PL, NEW YORK, NY, 10280",610200411,"L"
176746,"333 RECTOR PL APT 806","NEW YORK","NY",10280,40.709431065,-74.017180576,246,"333 RECTOR PL APT 806, NEW YORK, NY, 10280","Match","Exact","333 RECTOR PL, NEW YORK, NY, 10280",610200411,"L"
176747,"333 RECTOR STREET  - SUITE 1005","NEW YORK","NY",10280,40.709431065,-74.017180576,247,"333 RECTOR STREET  - SUITE 1005, NEW YORK, NY, 10280","Match","Non_Exact","333 RECTOR PL, NEW YORK, NY, 10280",610200411,"L"
176748,"333 RED SUMMIT DR","CROSBY","TX",77532,NA,NA,248,"333 RED SUMMIT DR, CROSBY, TX, 77532","No_Match",NA,NA,NA,NA
176749,"333 RED SUMMMIT DR","CROSBY","TX",77532,NA,NA,249,"333 RED SUMMMIT DR, CROSBY, TX, 77532","No_Match",NA,NA,NA,NA
176750,"333 REVOLUTIONARY TRAIL","FAIRFAX","SC",29827,NA,NA,250,"333 REVOLUTIONARY TRAIL, FAIRFAX, SC, 29827","No_Match",NA,NA,NA,NA
176751,"333 RICE RANCH ROAD","SANTA MARIA","CA",93455,NA,NA,251,"333 RICE RANCH ROAD, SANTA MARIA, CA, 93455","Tie",NA,NA,NA,NA
176752,"333 RIG STREET","PETERSBURG","WV",26847,39.000215482,-79.117173866,252,"333 RIG STREET, PETERSBURG, WV, 26847","Match","Exact","333 RIG ST, PETERSBURG, WV, 26847",56029697,"R"
176753,"333 RIVER OAKS DRIVE","DESTREHAN","LA",70047,29.9540527770001,-90.378789415,253,"333 RIVER OAKS DRIVE, DESTREHAN, LA, 70047","Match","Exact","333 RIVER OAKS DR, DESTREHAN, LA, 70047",649868522,"L"
176754,"333 RIVERSIDE DRIVE 1ST FL","JOHNSON CITY","NY",13790,42.1021570510001,-75.961292715,254,"333 RIVERSIDE DRIVE 1ST FL, JOHNSON CITY, NY, 13790","Match","Exact","333 RIVERSIDE DR, JOHNSON CITY, NY, 13790",639295896,"R"
176755,"333 RIVERSIDE DRIVE","NEW YORK","NY",10025,40.8017847740001,-73.970393786,255,"333 RIVERSIDE DRIVE, NEW YORK, NY, 10025","Match","Exact","333 RIVERSIDE DR, NEW YORK, NY, 10025",59656780,"R"
176756,"333 ROCK  HILL DRIVE","CROWLEY","TX",76036,32.573100246,-97.346484416,256,"333 ROCK  HILL DRIVE, CROWLEY, TX, 76036","Match","Exact","333 ROCK HILL DR, CROWLEY, TX, 76036",634991313,"L"
176757,"333 ROSE DRIVE","SANFORD","FL",32773,28.76571778,-81.265307112,257,"333 ROSE DRIVE, SANFORD, FL, 32773","Match","Exact","333 ROSE DR, SANFORD, FL, 32773",646959898,"R"
176758,"333 ROUNDABOUT RD","HUNTSVILLE","TX",77320,30.727830956,-95.5649489639999,258,"333 ROUNDABOUT RD, HUNTSVILLE, TX, 77320","Match","Exact","333 ROUNDABOUT RD, HUNTSVILLE, TX, 77320",22196380,"R"
176759,"333 ROUP AVE","PITTSBURGH","PA",15232,40.460803662,-79.935210279,259,"333 ROUP AVE, PITTSBURGH, PA, 15232","Match","Exact","333 ROUP AVE, PITTSBURGH, PA, 15232",635648530,"L"
176760,"333 ROYAL STREET","NEW ORLEANS","LA",70130,29.955134522,-90.067270658,260,"333 ROYAL STREET, NEW ORLEANS, LA, 70130","Match","Exact","333 ROYAL ST, NEW ORLEANS, LA, 70130",191710964,"L"
176761,"333 S ALLISON PKWY SUITE 201","DENVER","CO",80226,NA,NA,261,"333 S ALLISON PKWY SUITE 201, DENVER, CO, 80226","Tie",NA,NA,NA,NA
176762,"333 S D ST","EXETER","CA",93221,36.2939229340001,-119.138095429,262,"333 S D ST, EXETER, CA, 93221","Match","Exact","333 S D ST, EXETER, CA, 93221",202764499,"R"
176763,"333 S DORCHESTER","GLENWOOD","IL",60425,41.5396773790001,-87.586551722,263,"333 S DORCHESTER, GLENWOOD, IL, 60425","Match","Non_Exact","333 DORCHESTER AVE, GLENWOOD, IL, 60425",111784988,"L"
176764,"333 S GRAND AVE SUITE 3310","LOS ANGELES","CA",90071,34.0528202620001,-118.251434568,264,"333 S GRAND AVE SUITE 3310, LOS ANGELES, CA, 90071","Match","Non_Exact","333 S GRAND AVE, LOS ANGELES, CA, 90071",241132966,"R"
176765,"333 S GRAND AVE UNIT 3310","LOS ANGELES","CA",90071,34.0528202620001,-118.251434568,265,"333 S GRAND AVE UNIT 3310, LOS ANGELES, CA, 90071","Match","Non_Exact","333 S GRAND AVE, LOS ANGELES, CA, 90071",241132966,"R"
176766,"333 S RENO STREET SUITE 1","LOS ANGELES","CA",90057,34.0677155290001,-118.283652367,266,"333 S RENO STREET SUITE 1, LOS ANGELES, CA, 90057","Match","Non_Exact","333 S RENO ST, LOS ANGELES, CA, 90057",141605188,"R"
176767,"333 S STATE STREET STE V311","LAKE OSWEGO","OR",97034,NA,NA,267,"333 S STATE STREET STE V311, LAKE OSWEGO, OR, 97034","Tie",NA,NA,NA,NA
176768,"333 S STATE STREET","LAKE OSWEGO","OR",97034,45.4137429250001,-122.66408595,268,"333 S STATE STREET, LAKE OSWEGO, OR, 97034","Match","Exact","333 S STATE ST, LAKE OSWEGO, OR, 97034",642613941,"L"
176769,"333 S WESTERN AVENUE SUITE A","LOS ANGELES","CA",90020,34.0683095420001,-118.309115387,269,"333 S WESTERN AVENUE SUITE A, LOS ANGELES, CA, 90020","Match","Non_Exact","333 S WESTERN AVE, LOS ANGELES, CA, 90020",141603791,"R"
176770,"333 S WESTERN SUITE A","LOS ANGELES","CA",90020,NA,NA,270,"333 S WESTERN SUITE A, LOS ANGELES, CA, 90020","No_Match",NA,NA,NA,NA
176771,"333 SAINT MATTHEW STREET","GREENFIELD","CA",93927,36.315103573,-121.236461988,271,"333 SAINT MATTHEW STREET, GREENFIELD, CA, 93927","Match","Non_Exact","333 SAINT MATTHEWS ST, GREENFIELD, CA, 93927",601462578,"R"
176772,"333 SAINT MATTHEWS STREET","GREENFIELD","CA",93927,36.315103573,-121.236461988,272,"333 SAINT MATTHEWS STREET, GREENFIELD, CA, 93927","Match","Exact","333 SAINT MATTHEWS ST, GREENFIELD, CA, 93927",601462578,"R"
176773,"333 SANTANA ROW APT 344","SAN JOSE","CA",95128,37.3217616110001,-121.947900444,273,"333 SANTANA ROW APT 344, SAN JOSE, CA, 95128","Match","Exact","333 SANTANA ROW, SAN JOSE, CA, 95128",615525876,"R"
176774,"333 SE 2ND AVE STE 2066","MIAMI","FL",33131,25.771552113,-80.190105688,274,"333 SE 2ND AVE STE 2066, MIAMI, FL, 33131","Match","Non_Exact","333 SE 2ND AVE, MIAMI, FL, 33131",116018795,"L"
176775,"333 SE 2ND AVE SUITE 4400","MIAMI","FL",33131,25.771552113,-80.190105688,275,"333 SE 2ND AVE SUITE 4400, MIAMI, FL, 33131","Match","Non_Exact","333 SE 2ND AVE, MIAMI, FL, 33131",116018795,"L"
176776,"333 SE TRESSLER DRIVE","STUART","FL",34994,27.1861481070001,-80.24781446,276,"333 SE TRESSLER DRIVE, STUART, FL, 34994","Match","Exact","333 SE TRESSLER DR, STUART, FL, 34994",646890084,"R"
176777,"333 SOUTH 43RD STREET","LOUISVILLE","KY",40212,38.2607613820001,-85.820918149,277,"333 SOUTH 43RD STREET, LOUISVILLE, KY, 40212","Match","Exact","333 S 43RD ST, LOUISVILLE, KY, 40212",96836038,"L"
176778,"333 SOUTH COLUMBUS STREET","RUSSELLVILLE","OH",45168,38.861561264,-83.786996963,278,"333 SOUTH COLUMBUS STREET, RUSSELLVILLE, OH, 45168","Match","Exact","333 S COLUMBUS ST, RUSSELLVILLE, OH, 45168",606304637,"L"
176779,"333 SOUTH GRAND AVE SUITE 3310","LOS ANGELES","CA",90071,34.052823754,-118.251431306,279,"333 SOUTH GRAND AVE SUITE 3310, LOS ANGELES, CA, 90071","Match","Exact","333 S GRAND AVE, LOS ANGELES, CA, 90071",241132966,"R"
176780,"333 SOUTH GREEN STREET","MCHENRY","IL",60050,42.3241364630001,-88.267460861,280,"333 SOUTH GREEN STREET, MCHENRY, IL, 60050","Match","Exact","333 S GREEN ST, MCHENRY, IL, 60050",608777433,"L"
176781,"333 SOUTH HARKNESS STREET","JACKSON","GA",30233,NA,NA,281,"333 SOUTH HARKNESS STREET, JACKSON, GA, 30233","No_Match",NA,NA,NA,NA
176782,"333 SOUTH JEFFERSON STREET 1A","BATAVIA","IL",60510,41.844670502,-88.3155334909999,282,"333 SOUTH JEFFERSON STREET 1A, BATAVIA, IL, 60510","Match","Exact","333 S JEFFERSON ST, BATAVIA, IL, 60510",119573493,"R"
176783,"333 SOUTH MAIN STREET","ALPINE","UT",84004,40.4486163240001,-111.777903251,283,"333 SOUTH MAIN STREET, ALPINE, UT, 84004","Match","Exact","333 S MAIN ST, ALPINE, UT, 84004",134235995,"R"
176784,"333 SOUTH MONROE STREET  SUITE 508","DENVER","CO",80209,39.710885094,-104.944982775,284,"333 SOUTH MONROE STREET  SUITE 508, DENVER, CO, 80209","Match","Exact","333 S MONROE ST, DENVER, CO, 80209",177338660,"R"
176785,"333 SOUTH THIRD STREET","PERKASIE","PA",18944,40.369143808,-75.297007337,285,"333 SOUTH THIRD STREET, PERKASIE, PA, 18944","Match","Exact","333 S 3RD ST, PERKASIE, PA, 18944",134763812,"L"
176786,"333 SOUTH WABASH SUITE 2700","CHICAGO","IL",60608,NA,NA,286,"333 SOUTH WABASH SUITE 2700, CHICAGO, IL, 60608","No_Match",NA,NA,NA,NA
176787,"333 SPRINGFILED AVE UNIT 303","NEWARK","NJ",7103,40.7335045500001,-74.194163349,287,"333 SPRINGFILED AVE UNIT 303, NEWARK, NJ, 7103","Match","Non_Exact","333 SPRINGFIELD AVE, NEWARK, NJ, 07103",63465882,"L"
176788,"333 STATE STREET APT 406","BRIDGEPORT","CT",6604,41.1761301500001,-73.191027347,288,"333 STATE STREET APT 406, BRIDGEPORT, CT, 6604","Match","Exact","333 STATE ST, BRIDGEPORT, CT, 06604",3224384,"L"
176789,"333 STATE STREET","PERTH AMBOY","NJ",8861,40.5096456650001,-74.267219487,289,"333 STATE STREET, PERTH AMBOY, NJ, 8861","Match","Exact","333 STATE ST, PERTH AMBOY, NJ, 08861",60281245,"L"
176790,"333 STILLCREEK DRIVE","FRANKLIN","TN",37064,35.8901380510001,-86.857841158,290,"333 STILLCREEK DRIVE, FRANKLIN, TN, 37064","Match","Exact","333 STILLCREEK DR, FRANKLIN, TN, 37064",619118242,"R"
176791,"333 SW 140TH TERRACE","JONESVILLE","FL",32669,29.6511135320001,-82.4925544339999,291,"333 SW 140TH TERRACE, JONESVILLE, FL, 32669","Match","Exact","333 SW 140 TER, JONESVILLE, FL, 32669",646102110,"L"
176792,"333 SW 5TH AVENUE SUITE 350","PORTLAND","OR",97204,45.52123407,-122.676266416,292,"333 SW 5TH AVENUE SUITE 350, PORTLAND, OR, 97204","Match","Non_Exact","333 SW 5TH AVE, PORTLAND, OR, 97204",157504635,"R"
176793,"333 SW 5TH AVENUE SUITE 525","PORTLAND","OR",97204,45.52123407,-122.676266416,293,"333 SW 5TH AVENUE SUITE 525, PORTLAND, OR, 97204","Match","Non_Exact","333 SW 5TH AVE, PORTLAND, OR, 97204",157504635,"R"
176794,"333 SWANSON DR   SUITE 124","LAWRENCEVILLE","GA",30043,33.987670275,-83.9881544309999,294,"333 SWANSON DR   SUITE 124, LAWRENCEVILLE, GA, 30043","Match","Exact","333 SWANSON DR, LAWRENCEVILLE, GA, 30043",645845792,"L"
176795,"333 SYLVAN AVENUE SUITE 218","ENGLEWOOD CLIFFS","NJ",7632,40.8736388200001,-73.953137596,295,"333 SYLVAN AVENUE SUITE 218, ENGLEWOOD CLIFFS, NJ, 7632","Match","Exact","333 SYLVAN AVE, ENGLEWOOD CLIFFS, NJ, 07632",64412857,"R"
176796,"333 TACOMA ROAD","GREENWICH","CT",6831,NA,NA,296,"333 TACOMA ROAD, GREENWICH, CT, 6831","No_Match",NA,NA,NA,NA
176797,"333 TAMIAMI TRAIL S STE 219","VENICE","FL",34285,NA,NA,297,"333 TAMIAMI TRAIL S STE 219, VENICE, FL, 34285","No_Match",NA,NA,NA,NA
176798,"333 TEXAS ST SUITE 1300","SHREVEPORT","LA",71101,32.5139921090001,-93.7480931329999,298,"333 TEXAS ST SUITE 1300, SHREVEPORT, LA, 71101","Match","Exact","333 TEXAS ST, SHREVEPORT, LA, 71101",57434621,"L"
176799,"333 TEXAS STREET STE 620","SHREVEPORT","LA",71101,32.5139921090001,-93.7480931329999,299,"333 TEXAS STREET STE 620, SHREVEPORT, LA, 71101","Match","Exact","333 TEXAS ST, SHREVEPORT, LA, 71101",57434621,"L"
176800,"333 TEXAS STREET SUITE 1300","SHREVEPORT","LA",71101,32.5139921090001,-93.7480931329999,300,"333 TEXAS STREET SUITE 1300, SHREVEPORT, LA, 71101","Match","Exact","333 TEXAS ST, SHREVEPORT, LA, 71101",57434621,"L"
176801,"333 UNIVERSITY AVENUE","SACRAMENTO","CA",95825,38.5706890370001,-121.416411671,301,"333 UNIVERSITY AVENUE, SACRAMENTO, CA, 95825","Match","Exact","333 UNIVERSITY AVE, SACRAMENTO, CA, 95825",133335743,"R"
176802,"333 UPPER ROAD","KOHLER","WI",53044,43.7406494250001,-87.784905276,302,"333 UPPER ROAD, KOHLER, WI, 53044","Match","Exact","333 UPPER RD, KOHLER, WI, 53044",79494960,"L"
176803,"333 VILLA AVE","BUFFALO","NY",14216,42.957865919,-78.857886298,303,"333 VILLA AVE, BUFFALO, NY, 14216","Match","Exact","333 VILLA AVE, BUFFALO, NY, 14216",48288290,"R"
176804,"333 W 100 N","LOGAN","UT",84321,41.733445551,-111.843512096,304,"333 W 100 N, LOGAN, UT, 84321","Match","Exact","333 W 100 N, LOGAN, UT, 84321",155094057,"R"
176805,"333 W 39TH ST RM 402","NEW YORK","NY",10018,40.7557667790001,-73.9921943479999,305,"333 W 39TH ST RM 402, NEW YORK, NY, 10018","Match","Non_Exact","333 W 39TH ST, NEW YORK, NY, 10018",59655212,"R"
176806,"333 W 4TH ST STE 269","TULSA","OK",74101,NA,NA,306,"333 W 4TH ST STE 269, TULSA, OK, 74101","No_Match",NA,NA,NA,NA
176807,"333 W 8TH STREET","LONG BEACH","CA",90813,33.776550485,-118.195813336,307,"333 W 8TH STREET, LONG BEACH, CA, 90813","Match","Exact","333 W 8TH ST, LONG BEACH, CA, 90813",141693202,"R"
176808,"333 W BETHALTO DR NUM 46","BETHALTO","IL",62010,38.9009647680001,-90.059206151,308,"333 W BETHALTO DR NUM 46, BETHALTO, IL, 62010","Match","Non_Exact","333 W BETHALTO DR, BETHALTO, IL, 62010",107686637,"L"
176809,"333 W BROOKS RD","MEMPHIS","TN",38109,35.0633344140001,-90.075127099,309,"333 W BROOKS RD, MEMPHIS, TN, 38109","Match","Exact","333 W BROOKS RD, MEMPHIS, TN, 38109",72906773,"L"
176810,"333 W BROWN DEER RD UNIT G-663","MILWAUKEE","WI",53217,NA,NA,310,"333 W BROWN DEER RD UNIT G-663, MILWAUKEE, WI, 53217","Tie",NA,NA,NA,NA
176811,"333 W FT LOWELL RD SUITE 211","TUCSON","AZ",85705,NA,NA,311,"333 W FT LOWELL RD SUITE 211, TUCSON, AZ, 85705","Tie",NA,NA,NA,NA
176812,"333 W HAMPDEN AVE SUITE 710","ENGLEWOOD","CO",80110,39.65330018,-104.991704631,312,"333 W HAMPDEN AVE SUITE 710, ENGLEWOOD, CO, 80110","Match","Non_Exact","333 W HAMPDEN AVE, ENGLEWOOD, CO, 80110",647267501,"R"
176813,"333 W HUBBARD ST APT 1001","CHICAGO","IL",60654,41.889947282,-87.6363443659999,313,"333 W HUBBARD ST APT 1001, CHICAGO, IL, 60654","Match","Non_Exact","333 W HUBBARD ST, CHICAGO, IL, 60654",605013221,"L"
176814,"333 W MAIN STREET","MADISON","WI",53703,43.0713451780001,-89.386580878,314,"333 W MAIN STREET, MADISON, WI, 53703","Match","Exact","333 W MAIN ST, MADISON, WI, 53703",625153264,"L"
176815,"333 W MISSION BLVD","POMONA","CA",91766,34.0550556750001,-117.752601374,315,"333 W MISSION BLVD, POMONA, CA, 91766","Match","Exact","333 W MISSION BLVD, POMONA, CA, 91766",141733884,"R"
176816,"333 W PROSPECT ST","RHINELANDER","WI",54501,45.6307299700001,-89.4191186319999,316,"333 W PROSPECT ST, RHINELANDER, WI, 54501","Match","Exact","333 W PROSPECT ST, RHINELANDER, WI, 54501",196610564,"L"
176817,"333 W ROSE LANE","PHOENIX","AZ",85013,33.527491522,-112.078727581,317,"333 W ROSE LANE, PHOENIX, AZ, 85013","Match","Exact","333 W ROSE LN, PHOENIX, AZ, 85013",128205651,"L"
176818,"333 W SOUTH AVENUE","TAMPA","FL",33603,27.991430746,-82.4631646029999,318,"333 W SOUTH AVENUE, TAMPA, FL, 33603","Match","Exact","333 W SOUTH AVE, TAMPA, FL, 33603",104520770,"R"
176819,"333 W TRADE ST STE 350","CHARLOTTE","NC",28202,NA,NA,319,"333 W TRADE ST STE 350, CHARLOTTE, NC, 28202","Tie",NA,NA,NA,NA
176820,"333 W TRADE ST SUITE 100","CHARLOTTE","NC",28202,NA,NA,320,"333 W TRADE ST SUITE 100, CHARLOTTE, NC, 28202","Tie",NA,NA,NA,NA
176821,"333 W TRADE ST SUITE 360","CHARLOTTE","NC",28202,NA,NA,321,"333 W TRADE ST SUITE 360, CHARLOTTE, NC, 28202","Tie",NA,NA,NA,NA
176822,"333 W TRADE ST UNIT 100","CHARLOTTE","NC",28202,NA,NA,322,"333 W TRADE ST UNIT 100, CHARLOTTE, NC, 28202","Tie",NA,NA,NA,NA
176823,"333 W TRADE ST UNIT 1501","CHARLOTTE","NC",28202,NA,NA,323,"333 W TRADE ST UNIT 1501, CHARLOTTE, NC, 28202","Tie",NA,NA,NA,NA
176824,"333 W WACKER DRIVE  STE2000","CHICAGO","IL",60606,NA,NA,324,"333 W WACKER DRIVE  STE2000, CHICAGO, IL, 60606","Tie",NA,NA,NA,NA
176825,"333 W WACKER DRIVE SUITE 2000","CHICAGO","IL",60606,NA,NA,325,"333 W WACKER DRIVE SUITE 2000, CHICAGO, IL, 60606","Tie",NA,NA,NA,NA
176826,"333 WALLER AV SUITE 209D","LEXINGTON","KY",40504,38.0296977790001,-84.5176002599999,326,"333 WALLER AV SUITE 209D, LEXINGTON, KY, 40504","Match","Exact","333 WALLER AVE, LEXINGTON, KY, 40504",31946780,"R"
176827,"333 WANAQUE AVE","POMPTON LAKES","NJ",7442,41.0024362070001,-74.291068477,327,"333 WANAQUE AVE, POMPTON LAKES, NJ, 7442","Match","Exact","333 WANAQUE AVE, POMPTON LAKES, NJ, 07442",65255938,"L"
176828,"333 WARREN AVENUE","HO HO KUS","NJ",7423,40.998689685,-74.1094286749999,328,"333 WARREN AVENUE, HO HO KUS, NJ, 7423","Match","Exact","333 WARREN AVE, HO HO KUS, NJ, 07423",641256838,"L"
176829,"333 WARREN AVENUE","HO-HO-KUS","NJ",7423,40.998689685,-74.1094286749999,329,"333 WARREN AVENUE, HO-HO-KUS, NJ, 7423","Match","Exact","333 WARREN AVE, HO HO KUS, NJ, 07423",641256838,"L"
176830,"333 WASHINGTON AVE N SUITE 300","MINNEAPOLIS","MN",55401,44.9849435950001,-93.273133553,330,"333 WASHINGTON AVE N SUITE 300, MINNEAPOLIS, MN, 55401","Match","Exact","333 WASHINGTON AVE N, MINNEAPOLIS, MN, 55401",640648201,"L"
176831,"333 WASHINGTON BLVD STE 460","MARINA DEL REY","CA",90292,33.980698326,-118.464045725,331,"333 WASHINGTON BLVD STE 460, MARINA DEL REY, CA, 90292","Match","Exact","333 WASHINGTON BLVD, MARINA DEL REY, CA, 90292",141576793,"L"
176832,"333 WASHINGTON BLVD STE330","MARINA DEL REY","CA",90292,33.980698326,-118.464045725,332,"333 WASHINGTON BLVD STE330, MARINA DEL REY, CA, 90292","Match","Exact","333 WASHINGTON BLVD, MARINA DEL REY, CA, 90292",141576793,"L"
176833,"333 WASHINGTON BLVD SUITE 256","MARINA DEL REY","CA",90292,33.980698326,-118.464045725,333,"333 WASHINGTON BLVD SUITE 256, MARINA DEL REY, CA, 90292","Match","Exact","333 WASHINGTON BLVD, MARINA DEL REY, CA, 90292",141576793,"L"
176834,"333 WASHINGTON BOULEVARD PMB 250","MARINA DEL REY","CA",90292,33.980698326,-118.464045725,334,"333 WASHINGTON BOULEVARD PMB 250, MARINA DEL REY, CA, 90292","Match","Exact","333 WASHINGTON BLVD, MARINA DEL REY, CA, 90292",141576793,"L"
176835,"333 WASHINGTON BOULEVARD SUITE 300","MARINA DEL REY","CA",90292,33.980698326,-118.464045725,335,"333 WASHINGTON BOULEVARD SUITE 300, MARINA DEL REY, CA, 90292","Match","Exact","333 WASHINGTON BLVD, MARINA DEL REY, CA, 90292",141576793,"L"
176836,"333 WELLWOOD ST SW","PALM BAY","FL",32908,27.994803162,-80.678059114,336,"333 WELLWOOD ST SW, PALM BAY, FL, 32908","Match","Exact","333 WELLWOOD ST SW, PALM BAY, FL, 32908",93907747,"L"
176837,"333 WEST 20TH STREET","NEW YORK","NY",10001,40.7439814640001,-74.001148143,337,"333 WEST 20TH STREET, NEW YORK, NY, 10001","Match","Non_Exact","333 W 20TH ST, NEW YORK, NY, 10011",639434583,"R"
176838,"333 WEST 4TH AVENUE SUITE 302","ANCHORAGE","AK",99501,61.218556693,-149.888075114,338,"333 WEST 4TH AVENUE SUITE 302, ANCHORAGE, AK, 99501","Match","Exact","333 W 4TH AVE, ANCHORAGE, AK, 99501",190797330,"R"
176839,"333 WEST 4TH STREET SUITE 1631","TULSA","OK",74101,36.15101825,-95.9946340549999,339,"333 WEST 4TH STREET SUITE 1631, TULSA, OK, 74101","Match","Non_Exact","333 W 4TH ST, TULSA, OK, 74103",166437552,"R"
176840,"333 WEST 86TH ST 204","NEW YORK","NY",10024,40.788982984,-73.9780739939999,340,"333 WEST 86TH ST 204, NEW YORK, NY, 10024","Match","Exact","333 W 86TH ST, NEW YORK, NY, 10024",59656600,"R"
176841,"333 WEST BROWN DEER ROAD UNIT G 330","BAYSIDE","WI",53217,43.176724623,-87.9115389199999,341,"333 WEST BROWN DEER ROAD UNIT G 330, BAYSIDE, WI, 53217","Match","Exact","333 W BROWN DEER RD, BAYSIDE, WI, 53217",77735076,"L"
176842,"333 WEST BROWN DEER ROAD UNIT G","MILWAUKEE","WI",53217,43.176724623,-87.9115389199999,342,"333 WEST BROWN DEER ROAD UNIT G, MILWAUKEE, WI, 53217","Match","Exact","333 W BROWN DEER RD, MILWAUKEE, WI, 53217",77735076,"L"
176843,"333 WEST FLORENCE AVENUE","INGLEWOOD","CA",90301,33.9656010680001,-118.361536147,343,"333 WEST FLORENCE AVENUE, INGLEWOOD, CA, 90301","Match","Exact","333 W FLORENCE AVE, INGLEWOOD, CA, 90301",142749994,"R"
176844,"333 WEST NORTH AVE / SUITE 330","CHICAGO","IL",60610,41.9110705030001,-87.636998349,344,"333 WEST NORTH AVE / SUITE 330, CHICAGO, IL, 60610","Match","Non_Exact","333 NORTH AVE, CHICAGO, IL, 60610",605266954,"R"
176845,"333 WEST NORTH AVENUE STE127","CHICAGO","IL",60610,41.9110705030001,-87.636998349,345,"333 WEST NORTH AVENUE STE127, CHICAGO, IL, 60610","Match","Non_Exact","333 NORTH AVE, CHICAGO, IL, 60610",605266954,"R"
176846,"333 WEST PASEO DE CRISTOBAL","SAN CLEMENTE","CA",92672,33.4158620790001,-117.615477873,346,"333 WEST PASEO DE CRISTOBAL, SAN CLEMENTE, CA, 92672","Match","Non_Exact","333 W PSO DE CRISTOBAL, SAN CLEMENTE, CA, 92672",144076178,"L"
176847,"333 WEST WACKER DRIVE SUITE 2600","CHICAGO","IL",60606,41.8864473300001,-87.635927338,347,"333 WEST WACKER DRIVE SUITE 2600, CHICAGO, IL, 60606","Match","Exact","333 W WACKER DR, CHICAGO, IL, 60606",645568998,"L"
176848,"333 WEST WACKER DRIVE SUITE 500","CHICAGO","IL",60606,41.8864473300001,-87.635927338,348,"333 WEST WACKER DRIVE SUITE 500, CHICAGO, IL, 60606","Match","Exact","333 W WACKER DR, CHICAGO, IL, 60606",645568998,"L"
176849,"333 WEST WACKER DRIVE","CHICAGO","IL",60606,41.8864473300001,-87.635927338,349,"333 WEST WACKER DRIVE, CHICAGO, IL, 60606","Match","Exact","333 W WACKER DR, CHICAGO, IL, 60606",645568998,"L"
176850,"333 WESTBROOK DRIVE","OFALLON","MO",63366,NA,NA,350,"333 WESTBROOK DRIVE, OFALLON, MO, 63366","No_Match",NA,NA,NA,NA
176851,"333 WILLIAMS STREET","HURON","OK",44839,NA,NA,351,"333 WILLIAMS STREET, HURON, OK, 44839","No_Match",NA,NA,NA,NA
176852,"333 WILLOW HEIGHTS","CLARKSVILLE","TN",37040,36.518913035,-87.330700856,352,"333 WILLOW HEIGHTS, CLARKSVILLE, TN, 37040","Match","Exact","333 WILLOW HTS, CLARKSVILLE, TN, 37040",31816445,"L"
176853,"3330 ARBOR RUN PLACE","ATLANTA","GA",30349,33.66519255,-84.5876265639999,353,"3330 ARBOR RUN PLACE, ATLANTA, GA, 30349","Match","Exact","3330 ARBOR RUN PL, ATLANTA, GA, 30349",627745314,"L"
176854,"3330 AUBURN BLVD SPACE 25","SACRAMENTO","CA",95821,38.635908542,-121.386168097,354,"3330 AUBURN BLVD SPACE 25, SACRAMENTO, CA, 95821","Match","Exact","3330 AUBURN BLVD, SACRAMENTO, CA, 95821",133445538,"R"
176855,"3330 AVE A","SANTA FE","TX",77510,29.394045131,-95.055928674,355,"3330 AVE A, SANTA FE, TX, 77510","Match","Exact","3330 AVE A, SANTA FE, TX, 77510",96709332,"L"
176856,"3330 AVENUE A","SANTA FE","TX",77510,29.394045131,-95.055928674,356,"3330 AVENUE A, SANTA FE, TX, 77510","Match","Exact","3330 AVE A, SANTA FE, TX, 77510",96709332,"L"
176857,"3330 CALIFORNIA STREET","OMAHA","NE",68131,41.264793943,-95.962118195,357,"3330 CALIFORNIA STREET, OMAHA, NE, 68131","Match","Exact","3330 CALIFORNIA ST, OMAHA, NE, 68131",647727057,"R"
176858,"3330 CAMBRIA ROAD","CHARLOTTE","NC",28210,35.1384617800001,-80.822381148,358,"3330 CAMBRIA ROAD, CHARLOTTE, NC, 28210","Match","Exact","3330 CAMBRIA RD, CHARLOTTE, NC, 28210",70489537,"R"
176859,"3330 CAPE MAY COURT","DUMFRIES","VA",22026,38.5889190670001,-77.31264466,359,"3330 CAPE MAY COURT, DUMFRIES, VA, 22026","Match","Exact","3330 CAPE MAY CT, DUMFRIES, VA, 22026",207144256,"R"
176860,"3330 CHIPPEWA ST","COLUMBUS","OH",43204,39.985723459,-83.0922249989999,360,"3330 CHIPPEWA ST, COLUMBUS, OH, 43204","Match","Exact","3330 CHIPPEWA ST, COLUMBUS, OH, 43204",637447461,"R"
176861,"3330 CHIPPEWA STREET","COLUMBUS","OH",43204,39.985723459,-83.0922249989999,361,"3330 CHIPPEWA STREET, COLUMBUS, OH, 43204","Match","Exact","3330 CHIPPEWA ST, COLUMBUS, OH, 43204",637447461,"R"
176862,"3330 COBB PARKWAY NW SUITE 324-251","ACWORTH","GA",30101,34.035215592,-84.678586927,362,"3330 COBB PARKWAY NW SUITE 324-251, ACWORTH, GA, 30101","Match","Exact","3330 COBB PKWY NW, ACWORTH, GA, 30101",648437083,"R"
176863,"3330 COBB PARKWAY NW SUITE 324","ACWORTH","GA",30101,34.035215592,-84.678586927,363,"3330 COBB PARKWAY NW SUITE 324, ACWORTH, GA, 30101","Match","Exact","3330 COBB PKWY NW, ACWORTH, GA, 30101",648437083,"R"
176864,"3330 COBB PARKWAY SUITE 324 103","ACWORTH","GA",30101,34.035215592,-84.678586927,364,"3330 COBB PARKWAY SUITE 324 103, ACWORTH, GA, 30101","Match","Non_Exact","3330 COBB PKWY NW, ACWORTH, GA, 30101",648437083,"R"
176865,"3330 COBB PARKWAY SUITE 324-356","ACWORTH","GA",30101,34.035215592,-84.678586927,365,"3330 COBB PARKWAY SUITE 324-356, ACWORTH, GA, 30101","Match","Non_Exact","3330 COBB PKWY NW, ACWORTH, GA, 30101",648437083,"R"
176866,"3330 COBB PKWY STE 324","ACWORTH","GA",30101,34.035215592,-84.678586927,366,"3330 COBB PKWY STE 324, ACWORTH, GA, 30101","Match","Non_Exact","3330 COBB PKWY NW, ACWORTH, GA, 30101",648437083,"R"
176867,"3330 COBB PKWY SUITE 324-193","ACWORTH","GA",30101,34.035215592,-84.678586927,367,"3330 COBB PKWY SUITE 324-193, ACWORTH, GA, 30101","Match","Non_Exact","3330 COBB PKWY NW, ACWORTH, GA, 30101",648437083,"R"
176868,"3330 COX MILL ROAD","HOPKINSVILLE","KY",42240,36.8393255660001,-87.522926417,368,"3330 COX MILL ROAD, HOPKINSVILLE, KY, 42240","Match","Exact","3330 COX MILL RD, HOPKINSVILLE, KY, 42240",647810028,"L"
176869,"3330 CROSSINGS CT 301","BONITA SPRINGS","FL",34134,26.34769328,-81.812595303,369,"3330 CROSSINGS CT 301, BONITA SPRINGS, FL, 34134","Match","Exact","3330 CROSSINGS CT, BONITA SPGS, FL, 34134",650143980,"R"
176870,"3330 CUMBERLAND BLVD STE 500","ATLANTA","GA",30339,NA,NA,370,"3330 CUMBERLAND BLVD STE 500, ATLANTA, GA, 30339","Tie",NA,NA,NA,NA
176871,"3330 CUMBERLAND BOULEVARD V500","ATLANTA","GA",30339,NA,NA,371,"3330 CUMBERLAND BOULEVARD V500, ATLANTA, GA, 30339","Tie",NA,NA,NA,NA
176872,"3330 E LIVINGSTON AVENUE","COLUMBUS","OH",43227,39.9464815060001,-82.9078551329999,372,"3330 E LIVINGSTON AVENUE, COLUMBUS, OH, 43227","Match","Exact","3330 E LIVINGSTON AVE, COLUMBUS, OH, 43227",135591841,"L"
176873,"3330 E LOUISE DR STE 300","MERIDIAN","ID",83642,NA,NA,373,"3330 E LOUISE DR STE 300, MERIDIAN, ID, 83642","No_Match",NA,NA,NA,NA
176874,"3330 FAIRCHILD GARDEN AVE UNT 30372","PALM BEACH GARDENS","FL",30372,NA,NA,374,"3330 FAIRCHILD GARDEN AVE UNT 30372, PALM BEACH GARDENS, FL, 30372","No_Match",NA,NA,NA,NA
176875,"3330 FAIRCHILD GARDENS DRIVE  30681","PALM BEACH GARDENS","FL",33410,26.8486388160001,-80.0895936429999,375,"3330 FAIRCHILD GARDENS DRIVE  30681, PALM BEACH GARDENS, FL, 33410","Match","Non_Exact","3330 FAIRCHILD GARDENS AVE, PALM BEACH GARDENS, FL, 33410",115352267,"R"
176876,"3330 FOGGY RIDGE COVE","MEMPHIS","TN",38115,35.0583503280001,-89.855072392,376,"3330 FOGGY RIDGE COVE, MEMPHIS, TN, 38115","Match","Exact","3330 FOGGY RIDGE COVE, MEMPHIS, TN, 38115",72930208,"L"
176877,"3330 GEORGIA AVE NW SUITE 100","WASHINGTON","DC",20010,38.9314795510001,-77.02358627,377,"3330 GEORGIA AVE NW SUITE 100, WASHINGTON, DC, 20010","Match","Exact","3330 GEORGIA AVE NW, WASHINGTON, DC, 20010",76224087,"L"
176878,"3330 GREENFIELD APT7","ROYAL OAK","MI",48073,NA,NA,378,"3330 GREENFIELD APT7, ROYAL OAK, MI, 48073","No_Match",NA,NA,NA,NA
176879,"3330 HIXSON PIKE","CHATTANOOGA","TN",37415,35.101906845,-85.2752059699999,379,"3330 HIXSON PIKE, CHATTANOOGA, TN, 37415","Match","Exact","3330 HIXSON PIKE, CHATTANOOGA, TN, 37415",635649081,"R"
176880,"3330 HOLLAND CLIFFS RD","HUNTINGTOWN","MD",20639,38.6043066170001,-76.6658889829999,380,"3330 HOLLAND CLIFFS RD, HUNTINGTOWN, MD, 20639","Match","Exact","3330 HOLLAND CLIFFS RD, HUNTINGTOWN, MD, 20639",78178951,"R"
176881,"3330 KING ST","ALEXANDRIA","VA",22302,38.8253445940001,-77.0851935379999,381,"3330 KING ST, ALEXANDRIA, VA, 22302","Match","Exact","3330 KING ST, ALEXANDRIA, VA, 22302",75987061,"L"
176882,"3330 LAKE STREAM DRIVE","KINGWOOD","TX",77339,30.0756432090001,-95.193061585,382,"3330 LAKE STREAM DRIVE, KINGWOOD, TX, 77339","Match","Exact","3330 LAKE STREAM DR, KINGWOOD, TX, 77339",96155348,"R"
176883,"3330 LAKE TAHOE BL 10","SOUTH LAKE TAHOE","CA",96150,38.945813065,-119.970055527,383,"3330 LAKE TAHOE BL 10, SOUTH LAKE TAHOE, CA, 96150","Match","Exact","3330 LAKE TAHOE BLVD, SOUTH LAKE TAHOE, CA, 96150",133035939,"L"
176884,"3330 LAKE TAHOE BLVD STE 10","S LAKE TAHOE","CA",96150,38.945813065,-119.970055527,384,"3330 LAKE TAHOE BLVD STE 10, S LAKE TAHOE, CA, 96150","Match","Exact","3330 LAKE TAHOE BLVD, SOUTH LAKE TAHOE, CA, 96150",133035939,"L"
176885,"3330 MADISON STREET","ATLANTA","GA",30337,33.6647585490001,-84.439177555,385,"3330 MADISON STREET, ATLANTA, GA, 30337","Match","Exact","3330 MADISON ST, ATLANTA, GA, 30337",17348259,"L"
176886,"3330 MADISON STREET","COLLEGE PARK","GA",30337,33.6647585490001,-84.439177555,386,"3330 MADISON STREET, COLLEGE PARK, GA, 30337","Match","Exact","3330 MADISON ST, COLLEGE PARK, GA, 30337",17348259,"L"
176887,"3330 MAKALA DR","MIDLOTHIAN","TX",76065,32.3965558400001,-97.032154622,387,"3330 MAKALA DR, MIDLOTHIAN, TX, 76065","Match","Exact","3330 MAKALA DR, MIDLOTHIAN, TX, 76065",648648164,"L"
176888,"3330 MCKINLEY BLVD","SACRAMENTO","CA",95816,38.5771806860001,-121.458900602,388,"3330 MCKINLEY BLVD, SACRAMENTO, CA, 95816","Match","Non_Exact","3330 MC KINLEY BLVD, SACRAMENTO, CA, 95816",133325366,"R"
176889,"3330 MERIWEATHER ROAD","SHREVEPORT","LA",71108,32.4232058040001,-93.8222660499999,389,"3330 MERIWEATHER ROAD, SHREVEPORT, LA, 71108","Match","Non_Exact","3330 MERIWETHER RD, SHREVEPORT, LA, 71108",57454332,"R"
176890,"3330 N CAUSEWAY BLVD SUITE 326","METAIRIE","LA",70002,30.010087997,-90.15514447,390,"3330 N CAUSEWAY BLVD SUITE 326, METAIRIE, LA, 70002","Match","Non_Exact","3330 N CAUSEWAY BLVD, METAIRIE, LA, 70002",93498207,"L"
176891,"3330 N LEISURE WORLD BLVD APT 1018","SILVER SPRING","MD",20906,NA,NA,391,"3330 N LEISURE WORLD BLVD APT 1018, SILVER SPRING, MD, 20906","Tie",NA,NA,NA,NA
176892,"3330 NE 15TH CT","FORT LAUDERDALE","FL",33304,26.1473830910001,-80.1024651929999,392,"3330 NE 15TH CT, FORT LAUDERDALE, FL, 33304","Match","Exact","3330 NE 15TH CT, FORT LAUDERDALE, FL, 33304",114726573,"R"
176893,"3330 NE 190TH ST SUITE 315","AVENTURA","FL",33180,25.951658449,-80.137784547,393,"3330 NE 190TH ST SUITE 315, AVENTURA, FL, 33180","Match","Non_Exact","3330 NE 190TH ST, AVENTURA, FL, 33180",647879347,"R"
176894,"3330 NORTH WHITNEY AVENUE","HAPEVILLE","GA",30354,33.663327371,-84.410854242,394,"3330 NORTH WHITNEY AVENUE, HAPEVILLE, GA, 30354","Match","Exact","3330 N WHITNEY AVE, HAPEVILLE, GA, 30354",17349468,"L"
176895,"3330 REYNARD WAY APT 5","SAN DIEGO","CA",92103,32.739963764,-117.169149274,395,"3330 REYNARD WAY APT 5, SAN DIEGO, CA, 92103","Match","Exact","3330 REYNARD WAY, SAN DIEGO, CA, 92103",195659794,"L"
176896,"3330 ROYAL ASCOT RUN","GOTHA","FL",34734,28.5384499410001,-81.531216211,396,"3330 ROYAL ASCOT RUN, GOTHA, FL, 34734","Match","Exact","3330 ROYAL ASCOT RUN, GOTHA, FL, 34734",94367506,"L"
176897,"3330 S 16TH ST","MILWAUKEE","WI",53215,42.984110979,-87.933854732,397,"3330 S 16TH ST, MILWAUKEE, WI, 53215","Match","Exact","3330 S 16TH ST, MILWAUKEE, WI, 53215",77751670,"L"
176898,"3330 S 700 E STE A","SOUTH SALT LAKE","UT",84106,40.699245137,-111.871333742,398,"3330 S 700 E STE A, SOUTH SALT LAKE, UT, 84106","Match","Non_Exact","3330 S 700 E, S SALT LAKE, UT, 84106",638236954,"R"
176899,"3330 S ELM ST","DENVER","CO",80222,39.6560909570001,-104.929310962,399,"3330 S ELM ST, DENVER, CO, 80222","Match","Exact","3330 S ELM ST, DENVER, CO, 80222",177341531,"L"
176900,"3330 S GILBERT RD UNIT  2039","CHANDLER","AZ",85286,33.2605812510001,-111.789521974,400,"3330 S GILBERT RD UNIT  2039, CHANDLER, AZ, 85286","Match","Non_Exact","3330 S GILBERT RD, CHANDLER, AZ, 85286",646720328,"R"
176901,"3330 SOUTH SEPULVEDA BLVD APT9","LOS ANGELES","CA",90034,34.0217470440001,-118.42418018,401,"3330 SOUTH SEPULVEDA BLVD APT9, LOS ANGELES, CA, 90034","Match","Exact","3330 S SEPULVEDA BLVD, LOS ANGELES, CA, 90034",141573747,"L"
176902,"3330 SOUTH WESTERN COUNTRY ROAD 222","MANVEL","TX",77578,29.5318103550001,-95.3696911599999,402,"3330 SOUTH WESTERN COUNTRY ROAD 222, MANVEL, TX, 77578","Match","Non_Exact","3330 SOUTHWESTERN, MANVEL, TX, 77578",621932294,"R"
176903,"3330 SPANISH MOSS TERR 111","LAUDERHILL","FL",33319,26.167662465,-80.232709728,403,"3330 SPANISH MOSS TERR 111, LAUDERHILL, FL, 33319","Match","Exact","3330 SPANISH MOSS TER, LAUDERHILL, FL, 33319",114817326,"L"
176904,"3330 W COLONIAL DR APT 235","ORLANDO","FL",32808,28.5526558330001,-81.4169725369999,404,"3330 W COLONIAL DR APT 235, ORLANDO, FL, 32808","Match","Non_Exact","3330 W COLONIAL DR, ORLANDO, FL, 32808",647013121,"L"
176905,"3330 W LEHMAN RD","DEWITT","MI",48820,42.885607534,-84.5882461259999,405,"3330 W LEHMAN RD, DEWITT, MI, 48820","Match","Exact","3330 LEHMAN RD, DEWITT, MI, 48820",17307545,"R"
176906,"3330 WEST 147TH STREET","HAWTHORNE","CA",90250,33.898293869,-118.331722692,406,"3330 WEST 147TH STREET, HAWTHORNE, CA, 90250","Match","Exact","3330 W 147TH ST, HAWTHORNE, CA, 90250",635584931,"L"
176907,"3330 WOODBURN AVENUE SUITE 101","CINCINNATI","OH",45207,39.138810522,-84.4756545659999,407,"3330 WOODBURN AVENUE SUITE 101, CINCINNATI, OH, 45207","Match","Exact","3330 WOODBURN AVE, CINCINNATI, OH, 45207",103930065,"R"
176908,"33300 EGYPT LANE SUITE A200","MAGNOLIA","TX",77354,30.221101699,-95.5625026289999,408,"33300 EGYPT LANE SUITE A200, MAGNOLIA, TX, 77354","Match","Exact","33300 EGYPT LN, MAGNOLIA, TX, 77354",79280092,"R"
176909,"33300 FIVE MILE ROAD SUITE 101","LIVONIA","MI",48154,42.397314142,-83.372526995,409,"33300 FIVE MILE ROAD SUITE 101, LIVONIA, MI, 48154","Match","Exact","33300 5 MILE RD, LIVONIA, MI, 48154",95739184,"R"
176910,"33300 MERRITT RD","MENIFEE","CA",92584,33.6378548770001,-117.12548398,410,"33300 MERRITT RD, MENIFEE, CA, 92584","Match","Exact","33300 MERRITT RD, MENIFEE, CA, 92584",195094152,"R"
176911,"33300 US HWY 281 N LOT 70","BULVERDE","CA",78163,NA,NA,411,"33300 US HWY 281 N LOT 70, BULVERDE, CA, 78163","No_Match",NA,NA,NA,NA
176912,"33301 AGUA DULCE CANYON BLVD","SANTA CLARITA","CA",91390,34.494641357,-118.326210688,412,"33301 AGUA DULCE CANYON BLVD, SANTA CLARITA, CA, 91390","Match","Non_Exact","33301 AGUA DULCE CANYON RD, SANTA CLARITA, CA, 91390",241238509,"L"
176913,"33303 SUNRISE LANE","MOTLEY","MN",56466,46.3231198510001,-94.67025196,413,"33303 SUNRISE LANE, MOTLEY, MN, 56466","Match","Exact","33303 SUNRISE LN, MOTLEY, MN, 56466",201417133,"R"
176914,"33309 ROAD 212","WOODLAKE","CA",93286,36.394207592,-119.098754769,414,"33309 ROAD 212, WOODLAKE, CA, 93286","Match","Exact","33309 RD 212, WOODLAKE, CA, 93286",202809443,"L"
176915,"3330N GALLOWAY AVE 304-03","MESQUITE","TX",75150,NA,NA,415,"3330N GALLOWAY AVE 304-03, MESQUITE, TX, 75150","No_Match",NA,NA,NA,NA
176916,"3331  HEALY DRIVE UNIT 25942","WINSTON SALEM","NC",27114,36.0755826880001,-80.3093480329999,416,"3331  HEALY DRIVE UNIT 25942, WINSTON SALEM, NC, 27114","Match","Non_Exact","3331 HEALY DR, WINSTON SALEM, NC, 27103",84679392,"R"
176917,"3331 204TH ST SW       B301","LYNWOOD","WA",98036,47.813609141,-122.279349039,417,"3331 204TH ST SW       B301, LYNWOOD, WA, 98036","Match","Non_Exact","3331 204TH ST SW, LYNNWOOD, WA, 98036",608924707,"R"
176918,"3331 BELL AVE","ELKO","NV",89801,40.8455767340001,-115.789405189,418,"3331 BELL AVE, ELKO, NV, 89801","Match","Exact","3331 BELL AVE, ELKO, NV, 89801",154550225,"R"
176919,"3331 BLOOMFIELD SHORE DR","WEST BLOOMFIELD","MI",48323,42.5717731440001,-83.349496469,419,"3331 BLOOMFIELD SHORE DR, WEST BLOOMFIELD, MI, 48323","Match","Exact","3331 BLOOMFIELD SHORE DR, W BLOOMFIELD, MI, 48323",69726089,"L"
176920,"3331 CARTWRIGHT ROAD - SUITE 125","MISSOURI CITY","TX",77489,29.582711514,-95.5559931619999,420,"3331 CARTWRIGHT ROAD - SUITE 125, MISSOURI CITY, TX, 77489","Match","Non_Exact","3331 CARTWRIGHT RD, MISSOURI CITY, TX, 77459",227758598,"R"
176921,"3331 COLLIER CT","ATLANTA","GA",30331,33.767407807,-84.4970245499999,421,"3331 COLLIER CT, ATLANTA, GA, 30331","Match","Non_Exact","3331 COLLIER CT NW, ATLANTA, GA, 30331",17336752,"R"
176922,"3331 COLUMBIA DR NE","ALBUQUERQUE","NM",87107,35.118196502,-106.621777472,422,"3331 COLUMBIA DR NE, ALBUQUERQUE, NM, 87107","Match","Exact","3331 COLUMBIA DR NE, ALBUQUERQUE, NM, 87107",206709381,"L"
176923,"3331 DENALI DRIVE","IRVING","TX",75063,32.898902719,-96.9892847099999,423,"3331 DENALI DRIVE, IRVING, TX, 75063","Match","Non_Exact","3331 DENAIL DR, IRVING, TX, 75063",646741904,"L"
176924,"3331 DESERT DRIVE","EAST POINT","GA",30344,33.653060189,-84.4958519099999,424,"3331 DESERT DRIVE, EAST POINT, GA, 30344","Match","Non_Exact","3331 DESERT CIR, EAST POINT, GA, 30344",17411782,"R"
176925,"3331 EAST RIVERSIDE DR","FORT MYERS","FL",33916,26.6602340540001,-81.848297325,425,"3331 EAST RIVERSIDE DR, FORT MYERS, FL, 33916","Match","Exact","3331 E RIVERSIDE DR, FORT MYERS, FL, 33916",118021233,"L"
176926,"3331 FARRAGUT STREET APT 8E","HOLLYWOOD","FL",33021,26.0351673910001,-80.1766313589999,426,"3331 FARRAGUT STREET APT 8E, HOLLYWOOD, FL, 33021","Match","Exact","3331 FARRAGUT ST, HOLLYWOOD, FL, 33021",114786202,"R"
176927,"3331 GREYSOLON PLACE","DULUTH","MN",55804,46.8187533220001,-92.054146777,427,"3331 GREYSOLON PLACE, DULUTH, MN, 55804","Match","Exact","3331 GREYSOLON PL, DULUTH, MN, 55804",163215378,"L"
176928,"3331 GROVE PARK TERRACE NW","ACWORTH","GA",30101,34.065745264,-84.6535129919999,428,"3331 GROVE PARK TERRACE NW, ACWORTH, GA, 30101","Match","Non_Exact","3331 GROVE PARK TER, ACWORTH, GA, 30101",17267257,"L"
176929,"3331 HERITAGE LN  NV 89121","LAS VEGAS","NV",89121,36.1425036150001,-115.103635076,429,"3331 HERITAGE LN  NV 89121, LAS VEGAS, NV, 89121","Match","Exact","3331 HERITAGE LN, LAS VEGAS, NV, 89121",201871714,"R"
176930,"3331 HEWITT CRESCENT STREET","CINCINNATI","OH",45207,39.1372971640001,-84.462669599,430,"3331 HEWITT CRESCENT STREET, CINCINNATI, OH, 45207","Match","Exact","3331 HEWITT CRESCENT ST, CINCINNATI, OH, 45207",103930286,"L"
176931,"3331 IDALIA AVE","EL PASO","TX",79930,31.804032584,-106.454809028,431,"3331 IDALIA AVE, EL PASO, TX, 79930","Match","Exact","3331 IDALIA AVE, EL PASO, TX, 79930",189340790,"L"
176932,"3331 LINE JUDGE CT","JACKSONVILLE","FL",32277,30.3600248500001,-81.569472064,432,"3331 LINE JUDGE CT, JACKSONVILLE, FL, 32277","Match","Exact","3331 LINE JUDGE CT, JACKSONVILLE, FL, 32277",83959729,"L"
176933,"3331 LONGRIDGE TERRACE","SHERMAN OAKS","CA",91423,34.130913837,-118.41878416,433,"3331 LONGRIDGE TERRACE, SHERMAN OAKS, CA, 91423","Match","Exact","3331 LONGRIDGE TER, SHERMAN OAKS, CA, 91423",142815993,"L"
176934,"3331 MCKINLEY AVE","DES MOINES","IA",50321,41.5451329750001,-93.663540524,434,"3331 MCKINLEY AVE, DES MOINES, IA, 50321","Match","Exact","3331 MCKINLEY AVE, DES MOINES, IA, 50321",651711697,"L"
176935,"3331 NW 214TH ST","MIAMI","FL",33056,25.970716441,-80.257140221,435,"3331 NW 214TH ST, MIAMI, FL, 33056","Match","Non_Exact","3331 NW 214TH ST, MIAMI GARDENS, FL, 33056",116025932,"R"
176936,"3331 OCEAN PARK BLVD SUITE 201","SANTA MONICA","CA",90405,34.021858969,-118.450516895,436,"3331 OCEAN PARK BLVD SUITE 201, SANTA MONICA, CA, 90405","Match","Exact","3331 OCEAN PARK BLVD, SANTA MONICA, CA, 90405",653224526,"L"
176937,"3331 PARK RIDGE DRIVE","RICHMOND","CA",94806,37.9830312890001,-122.347323076,437,"3331 PARK RIDGE DRIVE, RICHMOND, CA, 94806","Match","Exact","3331 PARK RIDGE DR, RICHMOND, CA, 94806",627829633,"R"
176938,"3331 PIKES PEAK DRIVE","GASTONIA","NC",28052,35.245394662,-81.244203983,438,"3331 PIKES PEAK DRIVE, GASTONIA, NC, 28052","Match","Exact","3331 PIKES PEAK DR, GASTONIA, NC, 28052",617957111,"L"
176939,"3331 RESERVOIR ROAD NW","WASHINGTON","DC",20007,38.912734938,-77.066753004,439,"3331 RESERVOIR ROAD NW, WASHINGTON, DC, 20007","Match","Exact","3331 RESERVOIR RD NW, WASHINGTON, DC, 20007",76221235,"R"
176940,"3331 ROBERTS RD","MOAB","UT",84532,38.5231860530001,-109.502861739,440,"3331 ROBERTS RD, MOAB, UT, 84532","Match","Exact","3331 ROBERTS RD, MOAB, UT, 84532",126075501,"R"
176941,"3331 S 900 W","JAMESTOWN","IN",46147,39.991303117,-86.638732427,441,"3331 S 900 W, JAMESTOWN, IN, 46147","Match","Exact","3331 S 900 W, JAMESTOWN, IN, 46147",610980620,"R"
176942,"3331 STREET RD     SUITE 445","BENSALEM","PA",19020,40.1191920850001,-74.960417008,442,"3331 STREET RD     SUITE 445, BENSALEM, PA, 19020","Match","Non_Exact","3331 E STREET RD, BENSALEM, PA, 19020",134787412,"R"
176943,"3331 SW REDFERN PLACE","GRESHAM","OR",97080,45.472756229,-122.465597026,443,"3331 SW REDFERN PLACE, GRESHAM, OR, 97080","Match","Exact","3331 SW REDFERN PL, GRESHAM, OR, 97080",157552569,"R"
176944,"3331 TAMIAMI TR E","NAPLES","FL",34114,26.1257552600001,-81.764736636,444,"3331 TAMIAMI TR E, NAPLES, FL, 34114","Match","Non_Exact","3331 TAMIAMI TRL E, NAPLES, FL, 34112",640844929,"R"
176945,"3331 YELLOW FLOWER RD","LAUREL","MD",20724,39.1019741280001,-76.8174435019999,445,"3331 YELLOW FLOWER RD, LAUREL, MD, 20724","Match","Exact","3331 YELLOW FLOWER RD, LAUREL, MD, 20724",68216324,"L"
176946,"33315 CHATHAM DRIVE","AVON LAKE","OH",44012,41.495030667,-82.0460743799999,446,"33315 CHATHAM DRIVE, AVON LAKE, OH, 44012","Match","Exact","33315 CHATHAM DR, AVON LAKE, OH, 44012",55417931,"R"
176947,"33318 WHITE OAK CT","MAGNOLIA","TX",77354,30.2158061010001,-95.6606141509999,447,"33318 WHITE OAK CT, MAGNOLIA, TX, 77354","Match","Exact","33318 WHITE OAK CT, MAGNOLIA, TX, 77354",79333200,"L"
176948,"3332 - 112TH PL SE","EVERETT","WA",98208,NA,NA,448,"3332 - 112TH PL SE, EVERETT, WA, 98208","No_Match",NA,NA,NA,NA
176949,"3332 34TH STREET","BOULDER","CO",80301,40.0353107720001,-105.248932494,449,"3332 34TH STREET, BOULDER, CO, 80301","Match","Exact","3332 34TH ST, BOULDER, CO, 80301",220751721,"R"
176950,"3332 BARADA HEIGHTS AVENUE","LAS VEGAS","NV",89081,36.2710612540001,-115.101812578,450,"3332 BARADA HEIGHTS AVENUE, LAS VEGAS, NV, 89081","Match","Non_Exact","3332 BARADA HEIGHTS AVE, N LAS VEGAS, NV, 89081",612691322,"L"
176951,"3332 CAMINO CIELO VISTA","SANTA FE","NM",87507,35.641015791,-106.003110325,451,"3332 CAMINO CIELO VISTA, SANTA FE, NM, 87507","Match","Exact","3332 CAMINO CIELO VIS, SANTA FE, NM, 87507",638543493,"L"
176952,"3332 CAROL COURT","BLASDELL","NY",14219,42.7948923750001,-78.807654283,452,"3332 CAROL COURT, BLASDELL, NY, 14219","Match","Exact","3332 CAROL CT, BLASDELL, NY, 14219",48309470,"R"
176953,"3332 CLEMENT AVE","STOCKTON","CA",95204,37.968125356,-121.348796427,453,"3332 CLEMENT AVE, STOCKTON, CA, 95204","Match","Exact","3332 CLEMENT AVE, STOCKTON, CA, 95204",133843287,"L"
176954,"3332 CUDAHY STREET","HUNTINGTON PARK","CA",90255,33.964055914,-118.207971568,454,"3332 CUDAHY STREET, HUNTINGTON PARK, CA, 90255","Match","Exact","3332 CUDAHY ST, HUNTINGTON PARK, CA, 90255",241243982,"R"
176955,"3332 DELTA ROAD","SAN JOSE","CA",95135,37.3078534220001,-121.76410104,455,"3332 DELTA ROAD, SAN JOSE, CA, 95135","Match","Exact","3332 DELTA RD, SAN JOSE, CA, 95135",636426446,"R"
176956,"3332 FISHINGER RD","COLUMBUS","OH",43221,40.0283615880001,-83.103713738,456,"3332 FISHINGER RD, COLUMBUS, OH, 43221","Match","Exact","3332 FISHINGER RD, COLUMBUS, OH, 43221",637576815,"R"
176957,"3332 HIGHWAY 31W","WHITE HOUSE","TN",37188,36.487542681,-86.6450945729999,457,"3332 HIGHWAY 31W, WHITE HOUSE, TN, 37188","Match","Non_Exact","3332 US HWY 31W, WHITE HOUSE, TN, 37188",29773740,"R"
176958,"3332 ORANGE BLOSSUM COURT","PAL BEACH GARDENS","FL",33410,26.851533993,-80.092224765,458,"3332 ORANGE BLOSSUM COURT, PAL BEACH GARDENS, FL, 33410","Match","Non_Exact","3332 ORANGE BLOSSOM CT, PALM BEACH GARDENS, FL, 33410",115570298,"L"
176959,"3332 PICKWICK LN","WOODBRIDGE","VA",22192,38.662549717,-77.310455597,459,"3332 PICKWICK LN, WOODBRIDGE, VA, 22192","Match","Exact","3332 PICKWICK LN, WOODBRIDGE, VA, 22192",76508633,"L"
176960,"3332 SAWGRASS DR","FLORENCE","SC",29505,34.143825845,-79.696282689,460,"3332 SAWGRASS DR, FLORENCE, SC, 29505","Match","Non_Exact","3332 SAWGRASS RD, FLORENCE, SC, 29505",28899231,"R"
176961,"3332 SE ALDER ST","PORTLAND","OR",97214,45.5178677980001,-122.630105898,461,"3332 SE ALDER ST, PORTLAND, OR, 97214","Match","Exact","3332 SE ALDER ST, PORTLAND, OR, 97214",157556846,"R"
176962,"3332 SWAN DR","VINELAND","NJ",8361,39.44557021,-74.967242566,462,"3332 SWAN DR, VINELAND, NJ, 8361","Match","Exact","3332 SWAN DR, VINELAND, NJ, 08361",174115896,"L"
176963,"3332 TOURMALINE DR","MURFREESBORO","TN",37128,35.8292070960001,-86.457468397,463,"3332 TOURMALINE DR, MURFREESBORO, TN, 37128","Match","Exact","3332 TOURMALINE DR, MURFREESBORO, TN, 37128",651833037,"R"
176964,"3332 W  APOLLO RD","PHOENIX","AZ",85041,33.386219424,-112.130048162,464,"3332 W  APOLLO RD, PHOENIX, AZ, 85041","Match","Exact","3332 W APOLLO RD, PHOENIX, AZ, 85041",244015191,"L"
176965,"3332 WAUKEGAN RD","MCHENRY","IL",60050,42.3422868700001,-88.2645439519999,465,"3332 WAUKEGAN RD, MCHENRY, IL, 60050","Match","Exact","3332 WAUKEGAN RD, MCHENRY, IL, 60050",119821967,"L"
176966,"3332 WEST ROBERTS","FRESNO","CA",93711,36.8198184660001,-119.852408657,466,"3332 WEST ROBERTS, FRESNO, CA, 93711","Match","Non_Exact","3332 W ROBERTS AVE, FRESNO, CA, 93711",197566483,"R"
176967,"3333  164TH ST SW  APT 1734","LYNNWOOD","WA",98087,47.8500237550001,-122.279856626,467,"3333  164TH ST SW  APT 1734, LYNNWOOD, WA, 98087","Match","Exact","3333 164TH ST SW, LYNNWOOD, WA, 98087",608931708,"R"
176968,"3333 154 STREET","FLUSHING","NY",11354,NA,NA,468,"3333 154 STREET, FLUSHING, NY, 11354","No_Match",NA,NA,NA,NA
176969,"3333 154TH STTEET","FLUSHING","NY",11354,NA,NA,469,"3333 154TH STTEET, FLUSHING, NY, 11354","No_Match",NA,NA,NA,NA
176970,"3333 4TH ST N","MINNEAPOLIS","MN",55412,NA,NA,470,"3333 4TH ST N, MINNEAPOLIS, MN, 55412","No_Match",NA,NA,NA,NA
176971,"3333 ALLEN PARKWAY     APT 509","HOUSTON","TX",77019,29.7604957230001,-95.401389545,471,"3333 ALLEN PARKWAY     APT 509, HOUSTON, TX, 77019","Match","Exact","3333 ALLEN PKWY, HOUSTON, TX, 77019",653285781,"L"
176972,"3333 ALLEN PARKWAY  APT 509","HOUSTON","TX",77019,29.7604957230001,-95.401389545,472,"3333 ALLEN PARKWAY  APT 509, HOUSTON, TX, 77019","Match","Exact","3333 ALLEN PKWY, HOUSTON, TX, 77019",653285781,"L"
176973,"3333 ALLEN PARKWAY UNIT 509","HOUSTON","TX",77019,29.7604957230001,-95.401389545,473,"3333 ALLEN PARKWAY UNIT 509, HOUSTON, TX, 77019","Match","Exact","3333 ALLEN PKWY, HOUSTON, TX, 77019",653285781,"L"
176974,"3333 ASPEN GROVE DRIVE SUITE 150","FRANKLIN","TN",37067,35.9437547680001,-86.8269809129999,474,"3333 ASPEN GROVE DRIVE SUITE 150, FRANKLIN, TN, 37067","Match","Exact","3333 ASPEN GROVE DR, FRANKLIN, TN, 37067",638709668,"L"
176975,"3333 BEVERLY DRIVE","KLAMATH FALLS","OR",97603,42.2261295340001,-121.74308182,475,"3333 BEVERLY DRIVE, KLAMATH FALLS, OR, 97603","Match","Exact","3333 BEVERLY DR, KLAMATH FALLS, OR, 97603",156703715,"L"
176976,"3333 BLEECKER STREET","COPPELL","TX",75019,NA,NA,476,"3333 BLEECKER STREET, COPPELL, TX, 75019","No_Match",NA,NA,NA,NA
176977,"3333 BROADWAY E25B","NEW YORK","NY",10031,40.8192606640001,-73.955577153,477,"3333 BROADWAY E25B, NEW YORK, NY, 10031","Match","Exact","3333 BROADWAY, NEW YORK, NY, 10031",59655872,"L"
176978,"3333 CAMINO DEL RIO SOUTH SUITE 21","SAN DIEGO","CA",92108,NA,NA,478,"3333 CAMINO DEL RIO SOUTH SUITE 21, SAN DIEGO, CA, 92108","No_Match",NA,NA,NA,NA
176979,"3333 CARRIGAN RD","FORT GRATIOT","MI",48059,43.0537865570001,-82.470256405,479,"3333 CARRIGAN RD, FORT GRATIOT, MI, 48059","Match","Exact","3333 CARRIGAN RD, FORT GRATIOT, MI, 48059",647674694,"R"
176980,"3333 CHARLES STREET","CUYAHOGA FALLS","OH",44221,41.159398358,-81.471482362,480,"3333 CHARLES STREET, CUYAHOGA FALLS, OH, 44221","Match","Exact","3333 CHARLES ST, CUYAHOGA FALLS, OH, 44221",61390784,"R"
176981,"3333 CHICHESTER AVENUE","BOOTHWYN","PA",19061,39.8376522610001,-75.442462113,481,"3333 CHICHESTER AVENUE, BOOTHWYN, PA, 19061","Match","Exact","3333 CHICHESTER AVE, BOOTHWYN, PA, 19061",647659262,"R"
176982,"3333 CONCOURS ST BLDG 4 SUITE 4100","ONTARIO","CA",91764,34.0746186060001,-117.579054373,482,"3333 CONCOURS ST BLDG 4 SUITE 4100, ONTARIO, CA, 91764","Match","Non_Exact","3333 E CONCOURS ST, ONTARIO, CA, 91764",636517536,"L"
176983,"3333 DENALI STREET SUITE 200","ANCHORAGE","AK",99503,61.190313868,-149.876659157,483,"3333 DENALI STREET SUITE 200, ANCHORAGE, AK, 99503","Match","Exact","3333 DENALI ST, ANCHORAGE, AK, 99503",190797885,"L"
176984,"3333 E BAYAUD AVE 710","DENVER","CO",80209,39.7146637600001,-104.947170767,484,"3333 E BAYAUD AVE 710, DENVER, CO, 80209","Match","Non_Exact","3333 E BAYAUD AVE, DENVER, CO, 80209",612833833,"L"
176985,"3333 E BAYAUD AVE NUMBER 604","DENVER","CO",80209,39.7146637600001,-104.947170767,485,"3333 E BAYAUD AVE NUMBER 604, DENVER, CO, 80209","Match","Non_Exact","3333 E BAYAUD AVE, DENVER, CO, 80209",612833833,"L"
176986,"3333 E SERENE AVE STE 200","HENDERSON","NV",89074,NA,NA,486,"3333 E SERENE AVE STE 200, HENDERSON, NV, 89074","No_Match",NA,NA,NA,NA
176987,"3333 ELMWOOD AVE","KENMORE","NY",14217,42.9885013270001,-78.878646768,487,"3333 ELMWOOD AVE, KENMORE, NY, 14217","Match","Exact","3333 ELMWOOD AVE, KENMORE, NY, 14217",48287132,"R"
176988,"3333 FANNIN STREET STE 111","HOUSTON","TX",77004,29.740200068,-95.3768727889999,488,"3333 FANNIN STREET STE 111, HOUSTON, TX, 77004","Match","Exact","3333 FANNIN ST, HOUSTON, TX, 77004",96070989,"L"
176989,"3333 FIFTH AVENUE","PITTSBURGH","PA",15226,40.438663336,-79.9627111739999,489,"3333 FIFTH AVENUE, PITTSBURGH, PA, 15226","Match","Non_Exact","3333 5TH AVE, PITTSBURGH, PA, 15213",51648676,"L"
176990,"3333 HENRY HUDSON PKWY APT 22K","BRONX","NY",10463,40.8850906050001,-73.9143389709999,490,"3333 HENRY HUDSON PKWY APT 22K, BRONX, NY, 10463","Match","Non_Exact","3333 HENRY HUDSON PKWY W, BRONX, NY, 10463",638742438,"L"
176991,"3333 HOLAND STREET","ERIE","PA",16504,42.106733402,-80.065449012,491,"3333 HOLAND STREET, ERIE, PA, 16504","Match","Non_Exact","3333 HOLLAND ST, ERIE, PA, 16504",117497831,"L"
176992,"3333 HURRICANE LANE","MISSOURI CITY","TX",77459,29.5300980960001,-95.501270279,492,"3333 HURRICANE LANE, MISSOURI CITY, TX, 77459","Match","Exact","3333 HURRICANE LN, MISSOURI CITY, TX, 77459",637984249,"L"
176993,"3333 HYDE PLACE CIR","WINSTON-SALEM","NC",27103,36.044530729,-80.305061586,493,"3333 HYDE PLACE CIR, WINSTON-SALEM, NC, 27103","Match","Exact","3333 HYDE PLACE CIR, WINSTON SALEM, NC, 27103",634549227,"R"
176994,"3333 I-10 EAST","BAYTOWN","TX",77521,NA,NA,494,"3333 I-10 EAST, BAYTOWN, TX, 77521","No_Match",NA,NA,NA,NA
176995,"3333 LEE PKWY STE 600","DALLAS","TX",75219,NA,NA,495,"3333 LEE PKWY STE 600, DALLAS, TX, 75219","No_Match",NA,NA,NA,NA
176996,"3333 LOWLAND DRIVE","DOUGLASVILLE","GA",30135,33.6887289360001,-84.68227533,496,"3333 LOWLAND DRIVE, DOUGLASVILLE, GA, 30135","Match","Exact","3333 LOWLAND DR, DOUGLASVILLE, GA, 30135",618463213,"R"
176997,"3333 MONROE STREET","MANDEVILLE","LA",70448,30.3683940820001,-90.085464088,497,"3333 MONROE STREET, MANDEVILLE, LA, 70448","Match","Exact","3333 MONROE ST, MANDEVILLE, LA, 70448",111311281,"R"
176998,"3333 N CENTRAL AVE","PHOENIX","AZ",85012,33.4867185360001,-112.073773404,498,"3333 N CENTRAL AVE, PHOENIX, AZ, 85012","Match","Exact","3333 N CENTRAL AVE, PHOENIX, AZ, 85012",128208786,"R"
176999,"3333 N ILLINOIS STREET","INDIANAPOLIS","IN",46218,39.8161738250001,-86.15911656,499,"3333 N ILLINOIS STREET, INDIANAPOLIS, IN, 46218","Match","Non_Exact","3333 N ILLINOIS ST, INDIANAPOLIS, IN, 46208",107988927,"R"
177000,"3333 N MAIN ST SUITE 4","INDIANAPOLIS","IN",46208,NA,NA,500,"3333 N MAIN ST SUITE 4, INDIANAPOLIS, IN, 46208","No_Match",NA,NA,NA,NA
