"ID","Address","City","State","Zip","lat","long","id","input_address","match_indicator","match_type","matched_address","tiger_line_id","tiger_side"
265001,"641 LEWIS RD","PORT ANGELES","WA",98362,48.101548258,-123.271678086,1,"641 LEWIS RD, PORT ANGELES, WA, 98362","Match","Exact","641 LEWIS RD, PORT ANGELES, WA, 98362",150878148,"L"
265002,"641 LEXINGTON AVE","STOCKTON","CA",95204,37.969631883,-121.304059434,2,"641 LEXINGTON AVE, STOCKTON, CA, 95204","Match","Exact","641 LEXINGTON AVE, STOCKTON, CA, 95204",133848516,"R"
265003,"641 LEXINGTON AVENUE SUITE 1533","NEW YORK","NY",10022,40.7591684170001,-73.970405136,3,"641 LEXINGTON AVENUE SUITE 1533, NEW YORK, NY, 10022","Match","Exact","641 LEXINGTON AVE, NEW YORK, NY, 10022",59657483,"R"
265004,"641 LITTLE TONY AVENUE","MURRELLS INLET","SC",29576,33.54961286,-79.046339361,4,"641 LITTLE TONY AVENUE, MURRELLS INLET, SC, 29576","Match","Exact","641 LITTLE TONY AVE, MURRELLS INLET, SC, 29576",29002256,"L"
265005,"641 MAIN STREET SUITE 223","PAWTUCKET","RI",2860,41.8737826500001,-71.393508595,5,"641 MAIN STREET SUITE 223, PAWTUCKET, RI, 2860","Match","Exact","641 MAIN ST, PAWTUCKET, RI, 02860",47464078,"R"
265006,"641 MARKET STREET","BANGOR","PA",18013,40.86736467,-75.212997647,6,"641 MARKET STREET, BANGOR, PA, 18013","Match","Exact","641 MARKET ST, BANGOR, PA, 18013",136917749,"R"
265007,"641 MARKET STREET","ST AUGUSTINE","FL",32095,30.0256186890001,-81.386593628,7,"641 MARKET STREET, ST AUGUSTINE, FL, 32095","Match","Exact","641 MARKET ST, SAINT AUGUSTINE, FL, 32095",625035419,"R"
265008,"641 MARSHA DRIVE","ANDOVER","KS",67002,37.7172867260001,-97.141486174,8,"641 MARSHA DRIVE, ANDOVER, KS, 67002","Match","Exact","641 MARSHA DR, ANDOVER, KS, 67002",32276030,"L"
265009,"641 MCAFEE LANE","AMARILLO","TX",79118,35.057079722,-101.823580354,9,"641 MCAFEE LANE, AMARILLO, TX, 79118","Match","Exact","641 MCAFEE LN, AMARILLO, TX, 79118",653224461,"R"
265010,"641 MCLEARY SQ SE","LEESBURG","VA",20175,39.086281834,-77.545234799,10,"641 MCLEARY SQ SE, LEESBURG, VA, 20175","Match","Exact","641 MCLEARY SQ SE, LEESBURG, VA, 20175",642574153,"R"
265011,"641 MORRISON AVE","SACRAMENTO","CA",95838,38.637667761,-121.451612871,11,"641 MORRISON AVE, SACRAMENTO, CA, 95838","Match","Exact","641 MORRISON AVE, SACRAMENTO, CA, 95838",133320880,"L"
265012,"641 MOUNT VERNON RD","BUFFALO","NY",14215,42.946923719,-78.786917825,12,"641 MOUNT VERNON RD, BUFFALO, NY, 14215","Match","Exact","641 MOUNT VERNON RD, BUFFALO, NY, 14215",48298791,"R"
265013,"641 N WALNUT AVE","NEW BRAUNFELS","TX",78130,29.7132284470001,-98.154375734,13,"641 N WALNUT AVE, NEW BRAUNFELS, TX, 78130","Match","Exact","641 N WALNUT AVE, NEW BRAUNFELS, TX, 78130",72244691,"R"
265014,"641 N WESTERN AVE","CHICAGO","IL",60612,41.893211611,-87.686758969,14,"641 N WESTERN AVE, CHICAGO, IL, 60612","Match","Exact","641 N WESTERN AVE, CHICAGO, IL, 60612",111763792,"R"
265015,"641 NE 8TH COURT","POMPANO BEACH","FL",33060,26.2394661000001,-80.117221811,15,"641 NE 8TH COURT, POMPANO BEACH, FL, 33060","Match","Exact","641 NE 8TH CT, POMPANO BEACH, FL, 33060",114695140,"L"
265016,"641 NW 175TH STREET","SHORELINE","WA",98177,47.7559727010001,-122.365204194,16,"641 NW 175TH STREET, SHORELINE, WA, 98177","Match","Exact","641 NW 175TH ST, SHORELINE, WA, 98177",239760878,"L"
265017,"641 PARK ST","TURLOCK","CA",95380,37.4965954420001,-120.856100001,17,"641 PARK ST, TURLOCK, CA, 95380","Match","Exact","641 PARK ST, TURLOCK, CA, 95380",102594542,"R"
265018,"641 POPLAR GROVE LN","COLUMBIA","SC",29203,34.114775754,-80.951307906,18,"641 POPLAR GROVE LN, COLUMBIA, SC, 29203","Match","Exact","641 POPLAR GROVE LN, COLUMBIA, SC, 29203",645312790,"L"
265019,"641 PREVATT ROAD","DOTHAN","AL",36301,31.193807797,-85.3615874,19,"641 PREVATT ROAD, DOTHAN, AL, 36301","Match","Exact","641 PREVATT RD, DOTHAN, AL, 36301",101227094,"L"
265020,"641 REFLECTION COVE RD","JACKSONVILLE","FL",32218,30.4926519810001,-81.60672934,20,"641 REFLECTION COVE RD, JACKSONVILLE, FL, 32218","Match","Exact","641 REFLECTION COVE RD, JACKSONVILLE, FL, 32218",614094181,"R"
265021,"641 RIDGE RD","BIRMINGHAM","AL",35206,33.5775352840001,-86.6991892409999,21,"641 RIDGE RD, BIRMINGHAM, AL, 35206","Match","Exact","641 RIDGE RD, BIRMINGHAM, AL, 35206",81586829,"L"
265022,"641 S COLEMAN RD","SHEPHERD","MI",48883,43.5943527810001,-84.588263731,22,"641 S COLEMAN RD, SHEPHERD, MI, 48883","Match","Exact","641 S COLEMAN RD, SHEPHERD, MI, 48883",81206836,"R"
265023,"641 S STREET NW SUITE 202","WASHINGTON","DC",20001,38.914095155,-77.0211014619999,23,"641 S STREET NW SUITE 202, WASHINGTON, DC, 20001","Match","Exact","641 S ST NW, WASHINGTON, DC, 20001",76224419,"R"
265024,"641 S STREET NW","WASHINGTON","DC",20001,38.914095155,-77.0211014619999,24,"641 S STREET NW, WASHINGTON, DC, 20001","Match","Exact","641 S ST NW, WASHINGTON, DC, 20001",76224419,"R"
265025,"641 SOUTH 150 WEST","OREM","UT",84058,40.285861815,-111.698986887,25,"641 SOUTH 150 WEST, OREM, UT, 84058","Match","Exact","641 S 150 W, OREM, UT, 84058",134233018,"L"
265026,"641 SOUTHWEST 8TH AVENUE","DELRAY BEACH","FL",33444,26.451742896,-80.081070784,26,"641 SOUTHWEST 8TH AVENUE, DELRAY BEACH, FL, 33444","Match","Exact","641 SW 8TH AVE, DELRAY BEACH, FL, 33444",115291151,"L"
265027,"641 TOMAHAWK PLACE","AUSTELL","GA",30168,33.782140328,-84.577174353,27,"641 TOMAHAWK PLACE, AUSTELL, GA, 30168","Match","Exact","641 TOMAHAWK PL, AUSTELL, GA, 30168",647808201,"R"
265028,"641 TOMAHAWK","AUSTELL","GA",30168,33.782140328,-84.577174353,28,"641 TOMAHAWK, AUSTELL, GA, 30168","Match","Non_Exact","641 TOMAHAWK PL, AUSTELL, GA, 30168",647808201,"R"
265029,"641 TREATY WAY","GREENVILLE","OH",45331,40.1126745220001,-84.644526328,29,"641 TREATY WAY, GREENVILLE, OH, 45331","Match","Exact","641 TREATY WAY, GREENVILLE, OH, 45331",54545186,"L"
265030,"641 UNIVERSITY WAY DEPT OF RELIG","TALLAHASSEE","FL",32306,NA,NA,30,"641 UNIVERSITY WAY DEPT OF RELIG, TALLAHASSEE, FL, 32306","No_Match",NA,NA,NA,NA
265031,"641 US 221 HWY NORTH","RUTHERFORDTON","NC",28139,NA,NA,31,"641 US 221 HWY NORTH, RUTHERFORDTON, NC, 28139","No_Match",NA,NA,NA,NA
265032,"641 W 123RD STREET APT 2","CHICAGO","IL",60628,41.670569185,-87.6383326599999,32,"641 W 123RD STREET APT 2, CHICAGO, IL, 60628","Match","Non_Exact","641 W 123RD ST, CHICAGO, IL, 60628",605514772,"L"
265033,"641 W 1450 S","SPRINGVILLE","UT",84663,40.1468251360001,-111.622602633,33,"641 W 1450 S, SPRINGVILLE, UT, 84663","Match","Exact","641 W 1450 S, SPRINGVILLE, UT, 84663",617495060,"L"
265034,"641 W BRIARKNOLL CT","SAUKVILLE","WI",53080,43.372104995,-87.952531366,34,"641 W BRIARKNOLL CT, SAUKVILLE, WI, 53080","Match","Exact","641 W BRIARKNOLL CT, SAUKVILLE, WI, 53080",95909763,"R"
265035,"641 W MAIN STREET SUITE 302","MADISON","WI",53703,NA,NA,35,"641 W MAIN STREET SUITE 302, MADISON, WI, 53703","Tie",NA,NA,NA,NA
265036,"641 W MAIN STREET","DANVILLE","VA",24541,NA,NA,36,"641 W MAIN STREET, DANVILLE, VA, 24541","Tie",NA,NA,NA,NA
265037,"641 W WALNUT","NEW BRAUNFELS","TX",78130,NA,NA,37,"641 W WALNUT, NEW BRAUNFELS, TX, 78130","No_Match",NA,NA,NA,NA
265038,"641 WAINWRIGHT ROAD","FAIRBANKS","AK",99701,NA,NA,38,"641 WAINWRIGHT ROAD, FAIRBANKS, AK, 99701","No_Match",NA,NA,NA,NA
265039,"641 WASHINGTON","OCONTO","WI",54153,44.889045185,-87.858444422,39,"641 WASHINGTON, OCONTO, WI, 54153","Match","Non_Exact","641 WASHINGTON ST, OCONTO, WI, 54153",170313740,"R"
265040,"641 WEST LAKE STREET SUITE 200","CHICAGO","IL",60661,41.8856934560001,-87.644392394,40,"641 WEST LAKE STREET SUITE 200, CHICAGO, IL, 60661","Match","Exact","641 W LAKE ST, CHICAGO, IL, 60661",111768119,"L"
265041,"641 WEST TALLAHATCHIE ST","CLARKSDALE","MS",38614,34.1961544500001,-90.568731809,41,"641 WEST TALLAHATCHIE ST, CLARKSDALE, MS, 38614","Match","Exact","641 W TALLAHATCHIE ST, CLARKSDALE, MS, 38614",951455,"L"
265042,"641 WEST WILLOW STREET UNIT 1","CHICAGO","IL",60614,41.9138803660001,-87.644528155,42,"641 WEST WILLOW STREET UNIT 1, CHICAGO, IL, 60614","Match","Exact","641 W WILLOW ST, CHICAGO, IL, 60614",111767222,"L"
265043,"641 WYOMING DR","TOMS RIVER","NJ",8753,39.960550115,-74.148026537,43,"641 WYOMING DR, TOMS RIVER, NJ, 8753","Match","Exact","641 WYOMING DR, TOMS RIVER, NJ, 08753",203729533,"R"
265044,"641 WYOMING DRIVE","MURPHY","TX",75094,33.0393311290001,-96.59741381,44,"641 WYOMING DRIVE, MURPHY, TX, 75094","Match","Exact","641 WYOMING DR, MURPHY, TX, 75094",646839765,"R"
265045,"641","CLIFTON PARK","NY",12065,NA,NA,45,"641, CLIFTON PARK, NY, 12065","No_Match",NA,NA,NA,NA
265046,"641","HILO","HI",96721,NA,NA,46,"641, HILO, HI, 96721","No_Match",NA,NA,NA,NA
265047,"6410 ALAMANCE COUNTY LINE RD","LIBERTY","NC",27298,35.945597305,-79.54073829,47,"6410 ALAMANCE COUNTY LINE RD, LIBERTY, NC, 27298","Match","Exact","6410 ALAMANCE COUNTY LINE RD, LIBERTY, NC, 27298",642809257,"L"
265048,"6410 ALBANY POND","NEW ALBANY","OH",43054,40.086888258,-82.8430290599999,48,"6410 ALBANY POND, NEW ALBANY, OH, 43054","Match","Exact","6410 ALBANY POND, NEW ALBANY, OH, 43054",218570075,"R"
265049,"6410 AMELIA SPRINGS DR","SPRING","TX",77379,30.031379601,-95.513721969,49,"6410 AMELIA SPRINGS DR, SPRING, TX, 77379","Match","Exact","6410 AMELIA SPRINGS DR, SPRING, TX, 77379",627306370,"L"
265050,"6410 APPOMATTOX RD","DAVENPORT","IA",52806,41.586284135,-90.5823144679999,50,"6410 APPOMATTOX RD, DAVENPORT, IA, 52806","Match","Exact","6410 APPOMATTOX RD, DAVENPORT, IA, 52806",122730406,"R"
265051,"6410 CERRITOS AVENUE","LONG BEACH","CA",90805,33.871272622,-118.178270339,51,"6410 CERRITOS AVENUE, LONG BEACH, CA, 90805","Match","Exact","6410 CERRITOS AVE, LONG BEACH, CA, 90805",141683986,"R"
265052,"6410 CHARLOTTE PIKE SUITE 107","NASHVILLE","TN",37209,36.1436509060001,-86.873670784,52,"6410 CHARLOTTE PIKE SUITE 107, NASHVILLE, TN, 37209","Match","Exact","6410 CHARLOTTE PIKE, NASHVILLE, TN, 37209",639903399,"R"
265053,"6410 CROFTON DR","ALPHARETTA","GA",30005,34.120011404,-84.1925692199999,53,"6410 CROFTON DR, ALPHARETTA, GA, 30005","Match","Exact","6410 CROFTON DR, ALPHARETTA, GA, 30005",628065516,"R"
265054,"6410 DARWIN RD","LAUREL","MD",20707,39.103704549,-76.895754811,54,"6410 DARWIN RD, LAUREL, MD, 20707","Match","Exact","6410 DARWIN RD, LAUREL, MD, 20707",76325150,"L"
265055,"6410 DEL MONTE DR 84","HOUSTON","TX",77057,29.7457020260001,-95.497898149,55,"6410 DEL MONTE DR 84, HOUSTON, TX, 77057","Match","Non_Exact","6410 DEL MONTE DR, HOUSTON, TX, 77057",649846343,"R"
265056,"6410 DUNBAR RD","PENSACOLA","FL",32505,30.4929942380001,-87.269530538,56,"6410 DUNBAR RD, PENSACOLA, FL, 32505","Match","Exact","6410 DUNBAR RD, PENSACOLA, FL, 32505",93249580,"R"
265057,"6410 GREBE COURT","LAKE WORTH","FL",33463,26.56935493,-80.143492191,57,"6410 GREBE COURT, LAKE WORTH, FL, 33463","Match","Exact","6410 GREBE CT, LAKE WORTH, FL, 33463",646618943,"L"
265058,"6410 GROVEWOOD LN","HOUSTON","TX",77008,29.793371414,-95.427887749,58,"6410 GROVEWOOD LN, HOUSTON, TX, 77008","Match","Exact","6410 GROVEWOOD LN, HOUSTON, TX, 77008",96059762,"R"
265059,"6410 HAZELWOOD","ORANGE","TX",77632,30.158744986,-93.749480582,59,"6410 HAZELWOOD, ORANGE, TX, 77632","Match","Non_Exact","6410 HAZELWOOD DR, ORANGE, TX, 77632",74013684,"R"
265060,"6410 LEDGEWOOD DRIVE","INDEPENDENCE","OH",44131,41.388285674,-81.6615702129999,60,"6410 LEDGEWOOD DRIVE, INDEPENDENCE, OH, 44131","Match","Exact","6410 LEDGEWOOD DR, INDEPENDENCE, OH, 44131",61158621,"R"
265061,"6410 METROWEST BLVD","ORLANDO","FL",32835,28.517507655,-81.471224772,61,"6410 METROWEST BLVD, ORLANDO, FL, 32835","Match","Exact","6410 METROWEST BLVD, ORLANDO, FL, 32835",94314695,"R"
265062,"6410 NORTH CAMAC STREET","PHILADELPHIA","PA",19126,40.0503463480001,-75.13919294,62,"6410 NORTH CAMAC STREET, PHILADELPHIA, PA, 19126","Match","Exact","6410 N CAMAC ST, PHILADELPHIA, PA, 19126",131413834,"L"
265063,"6410 NW 28 STREET","SUNRISE","FL",33313,26.161137909,-80.2354742209999,63,"6410 NW 28 STREET, SUNRISE, FL, 33313","Match","Exact","6410 NW 28TH ST, SUNRISE, FL, 33313",114785324,"L"
265064,"6410 OLDE BULLOCKS CIR","SUFFOLK","VA",23435,36.8839506050001,-76.406056266,64,"6410 OLDE BULLOCKS CIR, SUFFOLK, VA, 23435","Match","Non_Exact","6410 OLDE BULLOCK'S CIR, SUFFOLK, VA, 23435",122240371,"R"
265065,"6410 RIDGE DR","BETHESDA","MD",20816,38.9429243970001,-77.121734048,65,"6410 RIDGE DR, BETHESDA, MD, 20816","Match","Exact","6410 RIDGE DR, BETHESDA, MD, 20816",62059130,"L"
265066,"6410 ROUNDTREE ST","SHAWNEE","KS",66226,39.012968931,-94.842794452,66,"6410 ROUNDTREE ST, SHAWNEE, KS, 66226","Match","Exact","6410 ROUNDTREE ST, SHAWNEE, KS, 66226",91308439,"L"
265067,"6410 S NEW BRAUNFELS AVE","SAN ANTONIO","TX",78223,NA,NA,67,"6410 S NEW BRAUNFELS AVE, SAN ANTONIO, TX, 78223","No_Match",NA,NA,NA,NA
265068,"6410 S RYAN ST","SEATTLE","WA",98178,47.509715758,-122.253342975,68,"6410 S RYAN ST, SEATTLE, WA, 98178","Match","Exact","6410 S RYAN ST, SEATTLE, WA, 98178",186629669,"L"
265069,"6410 SE FORBES AVENUE","TOPEKA","KS",66619,NA,NA,69,"6410 SE FORBES AVENUE, TOPEKA, KS, 66619","No_Match",NA,NA,NA,NA
265070,"6410 TRALEE DR","OLYMPIA","WA",98502,47.1243650530001,-122.932107995,70,"6410 TRALEE DR, OLYMPIA, WA, 98502","Match","Non_Exact","6410 TRALEE DR NW, OLYMPIA, WA, 98502",180941906,"R"
265071,"6410 VANDERBILT STREET","HOUSTON","TX",77005,29.712512851,-95.426041168,71,"6410 VANDERBILT STREET, HOUSTON, TX, 77005","Match","Exact","6410 VANDERBILT ST, HOUSTON, TX, 77005",96063529,"R"
265072,"6410 WOODROW STREET","TEXAS CITY","TX",77591,29.3871750650001,-94.983704216,72,"6410 WOODROW STREET, TEXAS CITY, TX, 77591","Match","Exact","6410 WOODROW ST, TEXAS CITY, TX, 77591",96707547,"R"
265073,"6411 157ST","SAVAGE","MN",55379,NA,NA,73,"6411 157ST, SAVAGE, MN, 55379","No_Match",NA,NA,NA,NA
265074,"6411 AIR GUARD RD","ANCHORAGE","AK",99502,61.1629584470001,-149.965914448,74,"6411 AIR GUARD RD, ANCHORAGE, AK, 99502","Match","Exact","6411 AIR GUARD RD, ANCHORAGE, AK, 99502",190795102,"L"
265075,"6411 APACHE DR","INDIANAPOLIS","IN",46254,39.843180353,-86.272345391,75,"6411 APACHE DR, INDIANAPOLIS, IN, 46254","Match","Exact","6411 APACHE DR, INDIANAPOLIS, IN, 46254",107975395,"L"
265076,"6411 AVALON RD NW","ALBUQUERQUE","NM",87105,35.08339971,-106.709552324,76,"6411 AVALON RD NW, ALBUQUERQUE, NM, 87105","Match","Exact","6411 AVALON RD NW, ALBUQUERQUE, NM, 87105",206699806,"R"
265077,"6411 BALTIMORE AVE SUITE 3C","RIVERDALE","MD",20814,38.9659954420001,-76.938788448,77,"6411 BALTIMORE AVE SUITE 3C, RIVERDALE, MD, 20814","Match","Non_Exact","6411 BALTIMORE AVE, RIVERDALE, MD, 20737",636219028,"L"
265078,"6411 E CAMINO SANTO","SCOTTSDALE","AZ",85254,NA,NA,78,"6411 E CAMINO SANTO, SCOTTSDALE, AZ, 85254","No_Match",NA,NA,NA,NA
265079,"6411 FONTAINBLEAU DRIVE","NEW ORLEANS","LA",70125,29.9522979390001,-90.111969012,79,"6411 FONTAINBLEAU DRIVE, NEW ORLEANS, LA, 70125","Match","Non_Exact","6411 FONTAINEBLEAU DR, NEW ORLEANS, LA, 70125",191701271,"R"
265080,"6411 KENTUCKY AVENUE","PITTSBURGH","PA",15206,40.45390409,-79.9196894309999,80,"6411 KENTUCKY AVENUE, PITTSBURGH, PA, 15206","Match","Exact","6411 KENTUCKY AVE, PITTSBURGH, PA, 15206",51646700,"L"
265081,"6411 LAREDO ST","HOUSTON","TX",77020,29.7808505240001,-95.306135123,81,"6411 LAREDO ST, HOUSTON, TX, 77020","Match","Exact","6411 LAREDO ST, HOUSTON, TX, 77020",96080467,"L"
265082,"6411 MAIN ST","STAFFORDSVILLE","KY",41260,37.830458224,-82.760117894,82,"6411 MAIN ST, STAFFORDSVILLE, KY, 41260","Match","Non_Exact","6411 MAIN ST, THELMA, KY, 41260",33673182,"L"
265083,"6411 MEADOWFIELD BLVD","INDIANAPOLIS","IN",46235,39.875049931,-85.948703283,83,"6411 MEADOWFIELD BLVD, INDIANAPOLIS, IN, 46235","Match","Exact","6411 MEADOWFIELD BLVD, INDIANAPOLIS, IN, 46235",108031622,"R"
265084,"6411 N AUBREY L WHITE PARKWAY","SPOKANE","WA",99208,47.7089978880001,-117.499075459,84,"6411 N AUBREY L WHITE PARKWAY, SPOKANE, WA, 99208","Match","Exact","6411 N AUBREY L WHITE PKWY, SPOKANE, WA, 99208",635491739,"L"
265085,"6411 N MAIZE RD","MAIZE","KS",67101,37.799637966,-97.463476756,85,"6411 N MAIZE RD, MAIZE, KS, 67101","Match","Exact","6411 N MAIZE RD, MAIZE, KS, 67101",646298986,"R"
265086,"6411 NORTH ROBERT ROAD","PRESCOTT VALLEY","AZ",86314,NA,NA,86,"6411 NORTH ROBERT ROAD, PRESCOTT VALLEY, AZ, 86314","No_Match",NA,NA,NA,NA
265087,"6411 PIRTLEWOOD CIRCLE","HOUSTON","TX",77088,29.87708258,-95.485771848,87,"6411 PIRTLEWOOD CIRCLE, HOUSTON, TX, 77088","Match","Exact","6411 PIRTLEWOOD CIR, HOUSTON, TX, 77088",96026678,"L"
265088,"6411 PLANK ROAD","FREDERICKSBURG","VA",22407,38.3021687900001,-77.6163388159999,88,"6411 PLANK ROAD, FREDERICKSBURG, VA, 22407","Match","Exact","6411 PLANK RD, FREDERICKSBURG, VA, 22407",228785270,"R"
265089,"6411 SE THORBURN ST","PORTLAND","OR",97215,45.520322406,-122.597238907,89,"6411 SE THORBURN ST, PORTLAND, OR, 97215","Match","Exact","6411 SE THORBURN ST, PORTLAND, OR, 97215",157513531,"L"
265090,"6411 W 38TH AVE","KENNEWICK","WA",99338,NA,NA,90,"6411 W 38TH AVE, KENNEWICK, WA, 99338","No_Match",NA,NA,NA,NA
265091,"6411 WIDLIFE TRAIL","GARLAND","TX",75044,NA,NA,91,"6411 WIDLIFE TRAIL, GARLAND, TX, 75044","No_Match",NA,NA,NA,NA
265092,"6411 WINDMIST CIRCLE","HOUSTON","TX",77084,29.870087755,-95.665426415,92,"6411 WINDMIST CIRCLE, HOUSTON, TX, 77084","Match","Exact","6411 WINDMIST CIR, HOUSTON, TX, 77084",96557583,"R"
265093,"6412 ALAMEDA DRIVE","DARMSTADT","IN",47711,38.036840742,-87.5617818869999,93,"6412 ALAMEDA DRIVE, DARMSTADT, IN, 47711","Match","Exact","6412 ALAMEDA DR, DARMSTADT, IN, 47711",39780029,"L"
265094,"6412 BRIGHTON DRIVE","NORTH OLMSTED","OH",44070,41.3975374250001,-81.951472939,94,"6412 BRIGHTON DRIVE, NORTH OLMSTED, OH, 44070","Match","Exact","6412 BRIGHTON DR, NORTH OLMSTED, OH, 44070",61138248,"R"
265095,"6412 COLUMBIA CIRCLE","FISHERS","IN",46038,39.9456171150001,-86.056769491,95,"6412 COLUMBIA CIRCLE, FISHERS, IN, 46038","Match","Exact","6412 COLUMBIA CIR, FISHERS, IN, 46038",29305840,"R"
265096,"6412 DEWEY AVENUE","WEST NEW YORK","NJ",7093,40.7904784130001,-74.0091990619999,96,"6412 DEWEY AVENUE, WEST NEW YORK, NJ, 7093","Match","Exact","6412 DEWEY AVE, WEST NEW YORK, NJ, 07093",59599833,"R"
265097,"6412 EAST 16TH AVE","ANCHORAGE","AK",99504,61.206104177,-149.760903824,97,"6412 EAST 16TH AVE, ANCHORAGE, AK, 99504","Match","Exact","6412 E 16TH AVE, ANCHORAGE, AK, 99504",190802918,"R"
265098,"6412 EDMOND STREET","SAN DIEGO","CA",92114,NA,NA,98,"6412 EDMOND STREET, SAN DIEGO, CA, 92114","No_Match",NA,NA,NA,NA
265099,"6412 LITTLE MURRAY LN","SUGAR LAND","TX",77479,29.5362815010001,-95.613094786,99,"6412 LITTLE MURRAY LN, SUGAR LAND, TX, 77479","Match","Exact","6412 LITTLE MURRAY LN, SUGAR LAND, TX, 77479",648706616,"R"
265100,"6412 MEADOWBURM DRIVE","NORTH CHESTERFIELD","VA",23234,37.430838394,-77.4662028449999,100,"6412 MEADOWBURM DRIVE, NORTH CHESTERFIELD, VA, 23234","Match","Exact","6412 MEADOWBURM DR, NORTH CHESTERFIELD, VA, 23234",201545886,"R"
265101,"6412 N UNIVERSITY DRIVE","TAMARAC","FL",33321,26.2010477970001,-80.2521262499999,101,"6412 N UNIVERSITY DRIVE, TAMARAC, FL, 33321","Match","Exact","6412 N UNIVERSITY DR, TAMARAC, FL, 33321",631843162,"R"
265102,"6412 OLD STAGE RD","CENTRAL POINT","OR",97502,42.3953531340001,-123.001426321,102,"6412 OLD STAGE RD, CENTRAL POINT, OR, 97502","Match","Non_Exact","6412 OLD STAGE RD, CENTRAL POINT, OR, 97502",649909496,"L"
265103,"6412 PILGRIM","METAIRIE","LA",70003,29.9941161290001,-90.207110673,103,"6412 PILGRIM, METAIRIE, LA, 70003","Match","Non_Exact","6412 PILGRIM ST, METAIRIE, LA, 70003",93498932,"L"
265104,"6412 ROYAL TERN CROSSING","COLUMBUS","OH",43230,40.059760741,-82.8481288359999,104,"6412 ROYAL TERN CROSSING, COLUMBUS, OH, 43230","Match","Exact","6412 ROYAL TERN CROSSING, COLUMBUS, OH, 43230",630277829,"R"
265105,"6412 SHAWNEE PLACE","LAS VEGAS","NV",89107,36.167197276,-115.233202425,105,"6412 SHAWNEE PLACE, LAS VEGAS, NV, 89107","Match","Exact","6412 SHAWNEE PL, LAS VEGAS, NV, 89107",201860283,"R"
265106,"6412 STATE RD 25 S","WESTPOINT","IN",47992,40.3250953840001,-87.059575798,106,"6412 STATE RD 25 S, WESTPOINT, IN, 47992","Match","Non_Exact","6412 STATE RD 25, WESTPOINT, IN, 47992",27300945,"L"
265107,"6412 SWANSON ST","WINDERMERE","FL",34786,28.4626646630001,-81.554163783,107,"6412 SWANSON ST, WINDERMERE, FL, 34786","Match","Exact","6412 SWANSON ST, WINDERMERE, FL, 34786",645099625,"R"
265108,"6412 TIGER RD","PIERCE CITY","MO",65723,36.9705440760001,-94.170823056,108,"6412 TIGER RD, PIERCE CITY, MO, 65723","Match","Exact","6412 TIGER RD, PIERCE CITY, MO, 65723",648849985,"L"
265109,"6412 W WILLAMETTE AVE","KENNEWICK","WA",99336,46.228601779,-119.208206926,109,"6412 W WILLAMETTE AVE, KENNEWICK, WA, 99336","Match","Exact","6412 W WILLAMETTE AVE, KENNEWICK, WA, 99336",174989863,"R"
265110,"6413 AUTUMN OAK WAY","LOUISVILLE","KY",40272,38.096331241,-85.882977656,110,"6413 AUTUMN OAK WAY, LOUISVILLE, KY, 40272","Match","Exact","6413 AUTUMN OAK WAY, LOUISVILLE, KY, 40272",96892088,"L"
265111,"6413 CLOVERBROOK DR","BRENTWOOD","TN",32027,36.028721772,-86.762403112,111,"6413 CLOVERBROOK DR, BRENTWOOD, TN, 32027","Match","Non_Exact","6413 CLOVERBROOK DR, BRENTWOOD, TN, 37027",97200641,"R"
265112,"6413 EAGLECREST ROAD","CHARLOTTE","ND",28212,NA,NA,112,"6413 EAGLECREST ROAD, CHARLOTTE, ND, 28212","No_Match",NA,NA,NA,NA
265113,"6413 G AND H ROAD","MCCALLA","AL",35111,33.320502644,-87.005090348,113,"6413 G AND H ROAD, MCCALLA, AL, 35111","Match","Non_Exact","6413 G AND H RD, MC CALLA, AL, 35111",650103339,"L"
265114,"6413 HARBOR OAKS DR","JOHNSTON","IA",50131,41.707498893,-93.708630945,114,"6413 HARBOR OAKS DR, JOHNSTON, IA, 50131","Match","Exact","6413 HARBOR OAKS DR, JOHNSTON, IA, 50131",65774193,"L"
265115,"6413 HARDWICK ST","CORPUS CHRISTI","TX",78412,27.693720559,-97.359165355,115,"6413 HARDWICK ST, CORPUS CHRISTI, TX, 78412","Match","Non_Exact","6413 HARDWICK DR, CORPUS CHRISTI, TX, 78412",630362307,"L"
265116,"6413 HAWKSMOOR DRIVE","ORLANDO","FL",32818,28.6265018030001,-81.4771318969999,116,"6413 HAWKSMOOR DRIVE, ORLANDO, FL, 32818","Match","Exact","6413 HAWKSMOOR DR, ORLANDO, FL, 32818",94390582,"L"
265117,"6413 MOATS DRIVE","KANSAS CITY","MO",64133,39.005951505,-94.4401463999999,117,"6413 MOATS DRIVE, KANSAS CITY, MO, 64133","Match","Exact","6413 MOATS DR, KANSAS CITY, MO, 64133",636511723,"L"
265118,"6413 OGLETHORPE MILL DR","BRANDYWINE","MD",20613,38.7110424520001,-76.89651485,118,"6413 OGLETHORPE MILL DR, BRANDYWINE, MD, 20613","Match","Exact","6413 OGLETHORPE MILL DR, BRANDYWINE, MD, 20613",648245184,"L"
265119,"6413 OGLETHORPE MILL DRIVE","BRANDYWINE","MD",20613,38.7110424520001,-76.89651485,119,"6413 OGLETHORPE MILL DRIVE, BRANDYWINE, MD, 20613","Match","Exact","6413 OGLETHORPE MILL DR, BRANDYWINE, MD, 20613",648245184,"L"
265120,"6413 REDMONT COURT","LIBERTY TWP","OH",45044,39.4034050600001,-84.4051690219999,120,"6413 REDMONT COURT, LIBERTY TWP, OH, 45044","Match","Non_Exact","6413 REDMONT, LIBERTY TOWNSHIP, OH, 45044",637578206,"R"
265121,"6413 SHADOW CREEK VILLAGE CIR","LAKE WORTH","FL",33463,26.5833452640001,-80.127940539,121,"6413 SHADOW CREEK VILLAGE CIR, LAKE WORTH, FL, 33463","Match","Non_Exact","6413 SHADOW CREEK VILLAGE LN, LAKE WORTH, FL, 33463",115570670,"L"
265122,"6413 WELANNEE BLVD","LAUREL HILL","FL",32567,30.8339980010001,-86.566527677,122,"6413 WELANNEE BLVD, LAUREL HILL, FL, 32567","Match","Exact","6413 WELANNEE BLVD, LAUREL HILL, FL, 32567",640817266,"L"
265123,"6414 41ST STREET 7A","WOODSIDE","NY",11377,NA,NA,123,"6414 41ST STREET 7A, WOODSIDE, NY, 11377","No_Match",NA,NA,NA,NA
265124,"6414 BEACH FRONT RD","ARVERNE","NY",11692,40.5883767380001,-73.7917535839999,124,"6414 BEACH FRONT RD, ARVERNE, NY, 11692","Match","Exact","6414 BEACH FRONT RD, ARVERNE, NY, 11692",640987744,"L"
265125,"6414 BRACE RD","LOOMIS","CA",95650,38.8105727600001,-121.184073618,125,"6414 BRACE RD, LOOMIS, CA, 95650","Match","Exact","6414 BRACE RD, LOOMIS, CA, 95650",106769236,"R"
265126,"6414 GRAY RIDGE","SAN ANTONIO","TX",78233,29.579941562,-98.367018334,126,"6414 GRAY RIDGE, SAN ANTONIO, TX, 78233","Match","Non_Exact","6414 GRAY RIDGE DR, SAN ANTONIO, TX, 78233",101555481,"R"
265127,"6414 HAMILTON BRIDGE RD","MILTON","FL",32570,30.6233434640001,-87.0559612759999,127,"6414 HAMILTON BRIDGE RD, MILTON, FL, 32570","Match","Exact","6414 HAMILTON BRIDGE RD, MILTON, FL, 32570",74557498,"L"
265128,"6414 KASLO STREET","NEW CARROLLTON","MD",20784,38.9716586760001,-76.883924043,128,"6414 KASLO STREET, NEW CARROLLTON, MD, 20784","Match","Exact","6414 KASLO ST, NEW CARROLLTON, MD, 20784",76308161,"L"
265129,"6414 MERCATOR DRIVE","HUNTSVILLE","AL",35810,34.8038871750001,-86.612297057,129,"6414 MERCATOR DRIVE, HUNTSVILLE, AL, 35810","Match","Exact","6414 MERCATOR DR, HUNTSVILLE, AL, 35810",58136281,"L"
265130,"6414 N DAMEN AVE","CHICAGO","IL",60645,41.998432925,-87.680160579,130,"6414 N DAMEN AVE, CHICAGO, IL, 60645","Match","Exact","6414 N DAMEN AVE, CHICAGO, IL, 60645",605169382,"L"
265131,"6414 N UNIVERSITY DRIVE","TAMARAC","FL",33321,26.2010676780001,-80.252126658,131,"6414 N UNIVERSITY DRIVE, TAMARAC, FL, 33321","Match","Exact","6414 N UNIVERSITY DR, TAMARAC, FL, 33321",631843162,"R"
265132,"6414 NICOLLET AVENUE SUITE H","RICHFIELD","MN",55423,44.8867804230001,-93.278128426,132,"6414 NICOLLET AVENUE SUITE H, RICHFIELD, MN, 55423","Match","Non_Exact","6414 NICOLLET AVE S, RICHFIELD, MN, 55423",43649802,"R"
265133,"6414 RENWICK CIRCLE","TAMPA","FL",33647,28.0917652840001,-82.377657894,133,"6414 RENWICK CIRCLE, TAMPA, FL, 33647","Match","Exact","6414 RENWICK CIR, TAMPA, FL, 33647",636366833,"L"
265134,"6414 RICHLAND AVENUE","KANSAS CITY","KS",66111,39.0913207310001,-94.726361632,134,"6414 RICHLAND AVENUE, KANSAS CITY, KS, 66111","Match","Exact","6414 RICHLAND AVE, KANSAS CITY, KS, 66111",91137908,"R"
265135,"6414 S COTTAGE GROVE AVENUE","CHICAGO","IL",60637,41.7782290980001,-87.605885243,135,"6414 S COTTAGE GROVE AVENUE, CHICAGO, IL, 60637","Match","Exact","6414 S COTTAGE GROVE AVE, CHICAGO, IL, 60637",111772487,"R"
265136,"6414 W PIONEER STREET","PHOENIX","AZ",85043,33.4178054760001,-112.19789003,136,"6414 W PIONEER STREET, PHOENIX, AZ, 85043","Match","Exact","6414 W PIONEER ST, PHOENIX, AZ, 85043",128844398,"R"
265137,"6415 4TH AVE","TAKOMA PARK","MD",20912,38.968700106,-77.0042063129999,137,"6415 4TH AVE, TAKOMA PARK, MD, 20912","Match","Exact","6415 4TH AVE, TAKOMA PARK, MD, 20912",76303094,"R"
265138,"6415 AMERICAN WAY","DALLAS","TX",75237,32.6719466540001,-96.884233074,138,"6415 AMERICAN WAY, DALLAS, TX, 75237","Match","Exact","6415 AMERICAN WAY, DALLAS, TX, 75237",619130404,"R"
265139,"6415 ANDERSON ROAD","ATHENS","AL",35614,34.9259962,-87.20469163,139,"6415 ANDERSON ROAD, ATHENS, AL, 35614","Match","Exact","6415 ANDERSON RD, ATHENS, AL, 35614",95250109,"R"
265140,"6415 ESCENA BLVD APT 3007","IRVING","TX",75039,32.895881409,-96.942740358,140,"6415 ESCENA BLVD APT 3007, IRVING, TX, 75039","Match","Exact","6415 ESCENA BLVD, IRVING, TX, 75039",624607920,"L"
265141,"6415 KILMER STREET","CHEVERLY","MD",20785,38.9312384340001,-76.904866705,141,"6415 KILMER STREET, CHEVERLY, MD, 20785","Match","Exact","6415 KILMER ST, CHEVERLY, MD, 20785",76307733,"R"
265142,"6415 KINGSDALE BLVD","PARMA HEIGHTS","OH",44130,41.386339036,-81.765194062,142,"6415 KINGSDALE BLVD, PARMA HEIGHTS, OH, 44130","Match","Exact","6415 KINGSDALE BLVD, PARMA HEIGHTS, OH, 44130",61104317,"L"
265143,"6415 LIBERTY RD","GWYNN OAK","MD",21207,39.339552084,-76.719621315,143,"6415 LIBERTY RD, GWYNN OAK, MD, 21207","Match","Exact","6415 LIBERTY RD, GWYNN OAK, MD, 21207",191469269,"L"
265144,"6415 MARK LEBLEU RD","LAKE CHARLES","LA",70615,30.261645763,-93.086900645,144,"6415 MARK LEBLEU RD, LAKE CHARLES, LA, 70615","Match","Exact","6415 MARK LEBLEU RD, LAKE CHARLES, LA, 70615",88457770,"R"
265145,"6415 PINEWOOD HEIGHTS DRIVE","SPRING","TX",77389,NA,NA,145,"6415 PINEWOOD HEIGHTS DRIVE, SPRING, TX, 77389","No_Match",NA,NA,NA,NA
265146,"6415 ROBINSON ROAD","WAXHAW","NC",28173,34.918998184,-80.684821668,146,"6415 ROBINSON ROAD, WAXHAW, NC, 28173","Match","Exact","6415 ROBINSON RD, WAXHAW, NC, 28173",14172693,"R"
265147,"6415 SADIE LN","BELLEVILLE","MI",48111,NA,NA,147,"6415 SADIE LN, BELLEVILLE, MI, 48111","No_Match",NA,NA,NA,NA
265148,"6415 SOUTH WOODLAWN AVENUE","CHICAGO","IL",60637,41.778347937,-87.5961424609999,148,"6415 SOUTH WOODLAWN AVENUE, CHICAGO, IL, 60637","Match","Exact","6415 S WOODLAWN AVE, CHICAGO, IL, 60637",111774201,"L"
265149,"6415 SQUIRESVILLE ROAD","OWENTON","KY",40359,38.5455782600001,-84.9957734769999,149,"6415 SQUIRESVILLE ROAD, OWENTON, KY, 40359","Match","Exact","6415 SQUIRESVILLE RD, OWENTON, KY, 40359",95321417,"L"
265150,"6415 STEEPLE CHASE LANE","MANASSAS","VA",20111,38.7368349400001,-77.396588164,150,"6415 STEEPLE CHASE LANE, MANASSAS, VA, 20111","Match","Exact","6415 STEEPLE CHASE LN, MANASSAS, VA, 20111",207151804,"L"
265151,"6415 STUART PL SE","AUBURN","WA",98092,47.25031033,-122.204572587,151,"6415 STUART PL SE, AUBURN, WA, 98092","Match","Exact","6415 STUART PL SE, AUBURN, WA, 98092",641040079,"R"
265152,"6416 24TH AVE","BROOKLYN","NY",11204,40.6116459080001,-73.9765138819999,152,"6416 24TH AVE, BROOKLYN, NY, 11204","Match","Exact","6416 24TH AVE, BROOKLYN, NY, 11204",59089489,"R"
265153,"6416 ALGON AVENUE","PHILADELPHIA","PA",19111,40.0442106950001,-75.084534149,153,"6416 ALGON AVENUE, PHILADELPHIA, PA, 19111","Match","Exact","6416 ALGON AVE, PHILADELPHIA, PA, 19111",131415977,"L"
265154,"6416 BRADFORD HILL CT","WESLEY CHAPEL","FL",33545,28.2508697320001,-82.249903305,154,"6416 BRADFORD HILL CT, WESLEY CHAPEL, FL, 33545","Match","Exact","6416 BRADFORD HILL CT, WESLEY CHAPEL, FL, 33545",618494593,"L"
265155,"6416 BRADLEY PARK DRIVE","COLUMBUS","GA",31904,32.5381328870001,-84.961400602,155,"6416 BRADLEY PARK DRIVE, COLUMBUS, GA, 31904","Match","Exact","6416 BRADLEY PARK DR, COLUMBUS, GA, 31904",98948379,"R"
265156,"6416 BROMFIELD TRACE","CENTREVILLE","VA",20120,38.836010125,-77.470041795,156,"6416 BROMFIELD TRACE, CENTREVILLE, VA, 20120","Match","Exact","6416 BROMFIELD TRCE, CENTREVILLE, VA, 20120",76059987,"L"
265157,"6416 CORONA AVE","BELL","CA",90201,33.9789077520001,-118.196309941,157,"6416 CORONA AVE, BELL, CA, 90201","Match","Exact","6416 CORONA AVE, BELL, CA, 90201",142763183,"L"
265158,"6416 E MARILYN RD","SCOTTSDALE","AZ",85254,33.6214004920001,-111.942431633,158,"6416 E MARILYN RD, SCOTTSDALE, AZ, 85254","Match","Exact","6416 E MARILYN RD, SCOTTSDALE, AZ, 85254",128373865,"L"
265159,"6416 EXPEDITION AVE","SEBRING","FL",33875,NA,NA,159,"6416 EXPEDITION AVE, SEBRING, FL, 33875","No_Match",NA,NA,NA,NA
265160,"6416 HOLCOMB WAY","NORCROSS","GA",30092,33.9532204720001,-84.246886508,160,"6416 HOLCOMB WAY, NORCROSS, GA, 30092","Match","Exact","6416 HOLCOMB WAY, NORCROSS, GA, 30092",88893129,"L"
265161,"6416 KOME DR","DIAMONDHEAD","MS",39525,30.3871044810001,-89.3779197009999,161,"6416 KOME DR, DIAMONDHEAD, MS, 39525","Match","Exact","6416 KOME DR, DIAMONDHEAD, MS, 39525",111149850,"L"
265162,"6416 LAKE MEADOW DRIVE","BURKE","VA",22015,38.773656771,-77.2902768129999,162,"6416 LAKE MEADOW DRIVE, BURKE, VA, 22015","Match","Exact","6416 LAKE MEADOW DR, BURKE, VA, 22015",76056178,"R"
265163,"6416 MUIR ST","BATON ROUGE","LA",70817,30.3913148280001,-90.9989307879999,163,"6416 MUIR ST, BATON ROUGE, LA, 70817","Match","Exact","6416 MUIR ST, BATON ROUGE, LA, 70817",628618061,"R"
265164,"6416 ROCK SPRINGS RD","GREENSBORO","NC",27410,36.1463388710001,-79.934533,164,"6416 ROCK SPRINGS RD, GREENSBORO, NC, 27410","Match","Exact","6416 ROCK SPRINGS RD, GREENSBORO, NC, 27410",637548584,"R"
265165,"6416 S CENTRAL","CHICAGO","IL",60638,NA,NA,165,"6416 S CENTRAL, CHICAGO, IL, 60638","No_Match",NA,NA,NA,NA
265166,"6416 SADDLE DRIVE","COLUMBIA","MD",21045,39.194831596,-76.795851353,166,"6416 SADDLE DRIVE, COLUMBIA, MD, 21045","Match","Exact","6416 SADDLE DR, COLUMBIA, MD, 21045",158943921,"R"
265167,"6416 SOUTH MINERVA","CHICAGO","IL",60637,41.7782205710001,-87.59671869,167,"6416 SOUTH MINERVA, CHICAGO, IL, 60637","Match","Non_Exact","6416 S MINERVA AVE, CHICAGO, IL, 60637",616887791,"R"
265168,"6416 WHITEHAVEN RD APT 1125","INDIANAPOLIS","IN",46254,39.8385223560001,-86.272848467,168,"6416 WHITEHAVEN RD APT 1125, INDIANAPOLIS, IN, 46254","Match","Exact","6416 WHITEHAVEN RD, INDIANAPOLIS, IN, 46254",107975417,"L"
265169,"6416 WILDWOOD CIR S 601","FORT WORTH","TX",76132,32.657444796,-97.405399277,169,"6416 WILDWOOD CIR S 601, FORT WORTH, TX, 76132","Match","Exact","6416 WILDWOOD CIR S, FORT WORTH, TX, 76132",101920616,"L"
265170,"6417 99TH STREET EAST","BRADENTON","FL",34202,27.4265609660001,-82.442567707,170,"6417 99TH STREET EAST, BRADENTON, FL, 34202","Match","Exact","6417 99TH ST E, BRADENTON, FL, 34202",16269447,"L"
265171,"6417 BASSWOOD LN","AMARILLO","TX",79124,35.24435312,-101.909668962,171,"6417 BASSWOOD LN, AMARILLO, TX, 79124","Match","Exact","6417 BASSWOOD LN, AMARILLO, TX, 79124",648819203,"L"
265172,"6417 CAMDEN AVE N APT 103","BROOKLYN CENTER","MN",55430,45.0719405400001,-93.2891979509999,172,"6417 CAMDEN AVE N APT 103, BROOKLYN CENTER, MN, 55430","Match","Exact","6417 CAMDEN AVE N, BROOKLYN CENTER, MN, 55430",43616745,"L"
265173,"6417 CARTER AVE","BAKERSFIELD","CA",93308,35.415544943,-119.073201934,173,"6417 CARTER AVE, BAKERSFIELD, CA, 93308","Match","Exact","6417 CARTER AVE, BAKERSFIELD, CA, 93308",109083882,"L"
265174,"6417 COLUMBINE DRIVE","INDIANAPOLIS","IN",46224,39.8119710890001,-86.272424096,174,"6417 COLUMBINE DRIVE, INDIANAPOLIS, IN, 46224","Match","Exact","6417 COLUMBINE DR, INDIANAPOLIS, IN, 46224",107976815,"L"
265175,"6417 E COMMERCIAL ST","BROKEN ARROW","OK",74014,36.0523545250001,-95.70952687,175,"6417 E COMMERCIAL ST, BROKEN ARROW, OK, 74014","Match","Exact","6417 E COMMERCIAL ST, BROKEN ARROW, OK, 74014",83171376,"R"
265176,"6417 E SCARLETT STREET","TUCSON","AZ",85710,32.2173130260001,-110.855577038,176,"6417 E SCARLETT STREET, TUCSON, AZ, 85710","Match","Exact","6417 E SCARLETT ST, TUCSON, AZ, 85710",121181056,"L"
265177,"6417 ELK ROAD","RICHMOND","VA",23224,37.478543797,-77.5123052499999,177,"6417 ELK ROAD, RICHMOND, VA, 23224","Match","Exact","6417 ELK RD, RICHMOND, VA, 23224",201536976,"L"
265178,"6417 LEXINGTON AVE","LOS ANGELES","CA",90038,34.09255383,-118.329505678,178,"6417 LEXINGTON AVE, LOS ANGELES, CA, 90038","Match","Exact","6417 LEXINGTON AVE, LOS ANGELES, CA, 90038",141599843,"R"
265179,"6417 MOTT AVE","WINDSOR HEIGHTS","IA",50324,41.59813374,-93.705593442,179,"6417 MOTT AVE, WINDSOR HEIGHTS, IA, 50324","Match","Exact","6417 MOTT AVE, WINDSOR HEIGHTS, IA, 50324",65838787,"L"
265180,"6417 N STATE HWY 16","LLANO","TX",78643,30.830776798,-98.654143604,180,"6417 N STATE HWY 16, LLANO, TX, 78643","Match","Non_Exact","6417 N STATE HWY 16, LLANO, TX, 78643",182260029,"L"
265181,"6417 NORMANDY LANE SUITE 205","MADISON","WI",53719,43.0567863850001,-89.489614962,181,"6417 NORMANDY LANE SUITE 205, MADISON, WI, 53719","Match","Exact","6417 NORMANDY LN, MADISON, WI, 53719",49558031,"R"
265182,"6417 PENN AVENUE S STE 8 NO 90","MINNEAPOLIS","MN",55423,44.8867389660001,-93.308637425,182,"6417 PENN AVENUE S STE 8 NO 90, MINNEAPOLIS, MN, 55423","Match","Exact","6417 PENN AVE S, MINNEAPOLIS, MN, 55423",43629880,"L"
265183,"6417 S KENWOOD AVENUE","CHICAGO","IL",60637,41.778204643,-87.593011109,183,"6417 S KENWOOD AVENUE, CHICAGO, IL, 60637","Match","Exact","6417 S KENWOOD AVE, CHICAGO, IL, 60637",111774215,"L"
265184,"6417 S MARYLAND AVE","CHICAGO","IL",60637,41.778102769,-87.604641237,184,"6417 S MARYLAND AVE, CHICAGO, IL, 60637","Match","Exact","6417 S MARYLAND AVE, CHICAGO, IL, 60637",112383791,"L"
265185,"6417 VIRGINIA COURT","HOUSTON","TX",77005,29.7124738150001,-95.433049174,185,"6417 VIRGINIA COURT, HOUSTON, TX, 77005","Match","Exact","6417 VIRGINIA CT, HOUSTON, TX, 77005",96063411,"L"
265186,"6417 W 56TH ST","SIOUX FALLS","SD",57106,43.500910564,-96.804308113,186,"6417 W 56TH ST, SIOUX FALLS, SD, 57106","Match","Exact","6417 W 56TH ST, SIOUX FALLS, SD, 57106",35011127,"L"
265187,"6417 W STATE RD 44","SHELBYVILLE","IN",46176,NA,NA,187,"6417 W STATE RD 44, SHELBYVILLE, IN, 46176","Tie",NA,NA,NA,NA
265188,"6417 WILLARD RD","FORT WORTH","TX",76119,32.71949698,-97.220741467,188,"6417 WILLARD RD, FORT WORTH, TX, 76119","Match","Exact","6417 WILLARD RD, FORT WORTH, TX, 76119",102175924,"L"
265189,"6418 DORSET LANE","SOLON","OH",44139,41.3849083580001,-81.3951394489999,189,"6418 DORSET LANE, SOLON, OH, 44139","Match","Exact","6418 DORSET LN, SOLON, OH, 44139",638411326,"R"
265190,"6418 E LINPAR COURT","HOUSTON","TX",77040,29.8555748590001,-95.505901165,190,"6418 E LINPAR COURT, HOUSTON, TX, 77040","Match","Exact","6418 E LINPAR CT, HOUSTON, TX, 77040",96574647,"R"
265191,"6418 EMERALD DUNES DRIVE APT 203","WEST PALM BEACH","FL",33411,26.7108437540001,-80.1429092979999,191,"6418 EMERALD DUNES DRIVE APT 203, WEST PALM BEACH, FL, 33411","Match","Exact","6418 EMERALD DUNES DR, WEST PALM BEACH, FL, 33411",625220701,"R"
265192,"6418 ORANGE BLOSSOM WAY","AUSTIN","TX",78744,30.166541722,-97.739758142,192,"6418 ORANGE BLOSSOM WAY, AUSTIN, TX, 78744","Match","Exact","6418 ORANGE BLOSSOM WAY, AUSTIN, TX, 78744",63967678,"R"
265193,"6418 PAPAYA BEND DRIVE","KATY","TX",77494,29.699785885,-95.841525038,193,"6418 PAPAYA BEND DRIVE, KATY, TX, 77494","Match","Exact","6418 PAPAYA BEND DR, KATY, TX, 77494",627556806,"L"
265194,"6418 PORT ISABEL DR","ROWLETT","TX",75089,32.917574873,-96.548677733,194,"6418 PORT ISABEL DR, ROWLETT, TX, 75089","Match","Exact","6418 PORT ISABEL DR, ROWLETT, TX, 75089",103208984,"R"
265195,"6418 S 124 TH ST","SEATLE","WA",98178,47.4920724730001,-122.254667521,195,"6418 S 124 TH ST, SEATLE, WA, 98178","Match","Non_Exact","6418 S 124TH ST, SEATTLE, WA, 98178",239766103,"L"
265196,"6418 S 124TH ST","SEATTLE","WA",98178,47.4920724730001,-122.254666153,196,"6418 S 124TH ST, SEATTLE, WA, 98178","Match","Exact","6418 S 124TH ST, SEATTLE, WA, 98178",239766103,"L"
265197,"6418 S MAPLEWOOD  FLR 2","CHICAGO","IL",60629,NA,NA,197,"6418 S MAPLEWOOD  FLR 2, CHICAGO, IL, 60629","No_Match",NA,NA,NA,NA
265198,"6418 S NORMANDIE AVE","LOS ANGELES","CA",90044,33.9812316370001,-118.300251813,198,"6418 S NORMANDIE AVE, LOS ANGELES, CA, 90044","Match","Exact","6418 S NORMANDIE AVE, LOS ANGELES, CA, 90044",141658447,"L"
265199,"6418 SPRINGPARK AVENUE","LOS ANGELES","CA",90056,33.982147813,-118.377027771,199,"6418 SPRINGPARK AVENUE, LOS ANGELES, CA, 90056","Match","Non_Exact","6418 S SPRINGPARK AVE, LOS ANGELES, CA, 90056",141579236,"L"
265200,"6418 STOVER AVENUE","CINCINNATI","OH",45237,39.189106746,-84.4508777679999,200,"6418 STOVER AVENUE, CINCINNATI, OH, 45237","Match","Exact","6418 STOVER AVE, CINCINNATI, OH, 45237",103929094,"R"
265201,"6419 BAYARD PARK DR","EVANSVILLE","IN",47715,37.966182802,-87.4731190959999,201,"6419 BAYARD PARK DR, EVANSVILLE, IN, 47715","Match","Exact","6419 BAYARD PARK DR, EVANSVILLE, IN, 47715",39789233,"R"
265202,"6419 BEECHER RD","FLINT","MI",48532,43.0309340750001,-83.8076394079999,202,"6419 BEECHER RD, FLINT, MI, 48532","Match","Exact","6419 BEECHER RD, FLINT, MI, 48532",69600054,"L"
265203,"6419 BIRD ROAD","MIAMI","FL",33155,NA,NA,203,"6419 BIRD ROAD, MIAMI, FL, 33155","No_Match",NA,NA,NA,NA
265204,"6419 BRITTANY PARK LN","HOUSTON","TX",77066,29.9516084810001,-95.509045048,204,"6419 BRITTANY PARK LN, HOUSTON, TX, 77066","Match","Exact","6419 BRITTANY PARK LN, HOUSTON, TX, 77066",96010242,"R"
265205,"6419 CHAPEL PINES BLVD","WESLEY CHAPEL","FL",33545,28.250261317,-82.306810366,205,"6419 CHAPEL PINES BLVD, WESLEY CHAPEL, FL, 33545","Match","Exact","6419 CHAPEL PINES BLVD, WESLEY CHAPEL, FL, 33545",627992796,"R"
265206,"6419 FALCON RIDGE CT","FORT COLLINS","CO",80525,40.4972075200001,-105.050558807,206,"6419 FALCON RIDGE CT, FORT COLLINS, CO, 80525","Match","Exact","6419 FALCON RIDGE CT, FORT COLLINS, CO, 80525",188519254,"R"
265207,"6419 HEG PARK RD","WIND LAKE","WI",53185,42.8042832510001,-88.1716892009999,207,"6419 HEG PARK RD, WIND LAKE, WI, 53185","Match","Exact","6419 HEG PARK RD, WIND LAKE, WI, 53185",77914858,"R"
265208,"6419 HIDDEN DALE AVENUE","ORLANDO","FL",32819,28.4692317280001,-81.500288778,208,"6419 HIDDEN DALE AVENUE, ORLANDO, FL, 32819","Match","Exact","6419 HIDDEN DALE AVE, ORLANDO, FL, 32819",94272066,"R"
265209,"6419 NICKELBACK","KILLEEN","TX",76542,31.0540225510001,-97.677085118,209,"6419 NICKELBACK, KILLEEN, TX, 76542","Match","Non_Exact","6419 NICKELBACK DR, KILLEEN, TX, 76542",638270564,"R"
265210,"6419 S ENGLEWOOD AVE","TAMPA","FL",33611,27.8750117500001,-82.50131134,210,"6419 S ENGLEWOOD AVE, TAMPA, FL, 33611","Match","Exact","6419 S ENGLEWOOD AVE, TAMPA, FL, 33611",104529311,"R"
265211,"6419 SW 145TH LANE","OCALA","FL",34471,29.0103545010001,-82.2261867399999,211,"6419 SW 145TH LANE, OCALA, FL, 34471","Match","Non_Exact","6419 145TH LN, OCALA, FL, 34473",116773170,"L"
265212,"642 CALHOUN STREET","BAMBERG","SC",29003,33.2875386260001,-81.041369004,212,"642 CALHOUN STREET, BAMBERG, SC, 29003","Match","Exact","642 CALHOUN ST, BAMBERG, SC, 29003",18960708,"L"
265213,"642 CANTBURY DRIVE","AUGUSTA","GA",30909,NA,NA,213,"642 CANTBURY DRIVE, AUGUSTA, GA, 30909","No_Match",NA,NA,NA,NA
265214,"642 CONEY ISLAND AVENUE SUITE A 555","BROOKLYN","NY",11218,40.641744702,-73.969506536,214,"642 CONEY ISLAND AVENUE SUITE A 555, BROOKLYN, NY, 11218","Match","Exact","642 CONEY ISLAND AVE, BROOKLYN, NY, 11218",59080910,"R"
265215,"642 COTTONWOOD AVENUE","LITCHFIELD","MN",55355,45.131520181,-94.507260168,215,"642 COTTONWOOD AVENUE, LITCHFIELD, MN, 55355","Match","Exact","642 COTTONWOOD AVE, LITCHFIELD, MN, 55355",36988756,"R"
265216,"642 COUNTY ROUTE 37","CENTRAL SQUARE","NY",13036,43.2435391400001,-76.155843835,216,"642 COUNTY ROUTE 37, CENTRAL SQUARE, NY, 13036","Match","Exact","642 CO RTE 37, CENTRAL SQUARE, NY, 13036",57816794,"R"
265217,"642 DEPERE ST","MENASHA","WI",54952,44.2096859000001,-88.440073475,217,"642 DEPERE ST, MENASHA, WI, 54952","Match","Exact","642 DEPERE ST, MENASHA, WI, 54952",74492720,"L"
265218,"642 DIDGERI DOO TRAIL","NEW BRAUNFELS","TX",78130,29.7212005010001,-98.196172369,218,"642 DIDGERI DOO TRAIL, NEW BRAUNFELS, TX, 78130","Match","Non_Exact","642 DIDGERIDOO TRL, NEW BRAUNFELS, TX, 78132",641470165,"L"
265219,"642 DROMANA CT","SAN RAMON","CA",94582,37.761153972,-121.896826358,219,"642 DROMANA CT, SAN RAMON, CA, 94582","Match","Exact","642 DROMANA CT, SAN RAMON, CA, 94582",192115741,"R"
265220,"642 E 79TH ST","CHICAGO","IL",60619,41.7512314850001,-87.608612468,220,"642 E 79TH ST, CHICAGO, IL, 60619","Match","Non_Exact","642 E 79TH ST, CHICAGO, IL, 60619",111772950,"L"
265221,"642 EAST 81 STREET","BROOKLYN","NY",11236,40.6384345010001,-73.915219328,221,"642 EAST 81 STREET, BROOKLYN, NY, 11236","Match","Exact","642 E 81ST ST, BROOKLYN, NY, 11236",59086401,"R"
265222,"642 GEORGIA AVE","PALO ALTO","CA",94306,37.4054531840001,-122.131884522,222,"642 GEORGIA AVE, PALO ALTO, CA, 94306","Match","Exact","642 GEORGIA AVE, PALO ALTO, CA, 94306",122952472,"R"
265223,"642 GOLFO DE ALASKA   LOS CORALES 1","DORADO","PR",646,NA,NA,223,"642 GOLFO DE ALASKA   LOS CORALES 1, DORADO, PR, 646","No_Match",NA,NA,NA,NA
265224,"642 GRIFFIN OAKS DRIVE","CENTRAL POINT","OR",97502,42.3773653800001,-122.927363739,224,"642 GRIFFIN OAKS DRIVE, CENTRAL POINT, OR, 97502","Match","Exact","642 GRIFFIN OAKS DR, CENTRAL POINT, OR, 97502",155562970,"L"
265225,"642 HAMPTON AVENUE","TOLEDO","OH",43609,41.6283463940001,-83.582576999,225,"642 HAMPTON AVENUE, TOLEDO, OH, 43609","Match","Exact","642 HAMPTON AVE, TOLEDO, OH, 43609",33938821,"R"
265226,"642 HANOVER CENTER ROAD","HANOVER","NH",3755,43.7565269620001,-72.164116008,226,"642 HANOVER CENTER ROAD, HANOVER, NH, 3755","Match","Exact","642 HANOVER CENTER RD, HANOVER, NH, 03755",145679329,"L"
265227,"642 HERITAGE DR","STILLMAN VALLEY","IL",61084,42.1043944800001,-89.1883844819999,227,"642 HERITAGE DR, STILLMAN VALLEY, IL, 61084","Match","Exact","642 HERITAGE DR, STILLMAN VALLEY, IL, 61084",633772404,"L"
265228,"642 IRVING STREET","NW","DC",20010,NA,NA,228,"642 IRVING STREET, NW, DC, 20010","No_Match",NA,NA,NA,NA
265229,"642 KENMORE ST","EUGENE","OR",97402,44.067779199,-123.161063112,229,"642 KENMORE ST, EUGENE, OR, 97402","Match","Exact","642 KENMORE ST, EUGENE, OR, 97402",178164000,"L"
265230,"642 N 14TH ST UNIT 8","OXFORD","MS",38655,NA,NA,230,"642 N 14TH ST UNIT 8, OXFORD, MS, 38655","Tie",NA,NA,NA,NA
265231,"642 N 7TH ST","EAST ST LOUIS","IL",62201,38.6301939000001,-90.148602807,231,"642 N 7TH ST, EAST ST LOUIS, IL, 62201","Match","Exact","642 N 7TH ST, E SAINT LOUIS, IL, 62201",107829535,"R"
265232,"642 N MADISON STREET","BLOOMINGTON","IN",47402,NA,NA,232,"642 N MADISON STREET, BLOOMINGTON, IN, 47402","No_Match",NA,NA,NA,NA
265233,"642 N WESTERN ST","NOGALES","AZ",85621,NA,NA,233,"642 N WESTERN ST, NOGALES, AZ, 85621","Tie",NA,NA,NA,NA
265234,"642 NORTH JEFFERSON AVE","SARASOTA","FL",34237,27.341828994,-82.520111286,234,"642 NORTH JEFFERSON AVE, SARASOTA, FL, 34237","Match","Exact","642 N JEFFERSON AVE, SARASOTA, FL, 34237",16384065,"R"
265235,"642 NORTH MASONIC STREET","MILLEN","GA",30442,32.8096438600001,-81.936759681,235,"642 NORTH MASONIC STREET, MILLEN, GA, 30442","Match","Exact","642 N MASONIC ST, MILLEN, GA, 30442",17965899,"R"
265236,"642 NORTHFIELD ROAD","LITITZ","PA",17543,40.1230078880001,-76.347456907,236,"642 NORTHFIELD ROAD, LITITZ, PA, 17543","Match","Exact","642 NORTHFIELD RD, LITITZ, PA, 17543",179688877,"R"
265237,"642 OGLETHORPE STREET NW","WASHINGTON","DC",20011,38.961307027,-77.021731672,237,"642 OGLETHORPE STREET NW, WASHINGTON, DC, 20011","Match","Exact","642 OGLETHORPE ST NW, WASHINGTON, DC, 20011",76223331,"L"
265238,"642 OLD LIVERPOOL ROAD","LIVERPOOL","NY",13088,43.092240143,-76.193130316,238,"642 OLD LIVERPOOL ROAD, LIVERPOOL, NY, 13088","Match","Exact","642 OLD LIVERPOOL RD, LIVERPOOL, NY, 13088",46564601,"R"
265239,"642 POTOMAC AVE","PORTSMOUTH","VA",23707,36.8434040230001,-76.3418027389999,239,"642 POTOMAC AVE, PORTSMOUTH, VA, 23707","Match","Exact","642 POTOMAC AVE, PORTSMOUTH, VA, 23707",122191833,"R"
265240,"642 RIEGART SQ","FAIRFIELD","OH",45014,39.341123877,-84.558957544,240,"642 RIEGART SQ, FAIRFIELD, OH, 45014","Match","Exact","642 RIEGART SQ, FAIRFIELD, OH, 45014",113797636,"R"
265241,"642 S CLARK ST APT 1301","CHICAGO","IL",60605,41.874072014,-87.6306673719999,241,"642 S CLARK ST APT 1301, CHICAGO, IL, 60605","Match","Non_Exact","642 S CLARK ST, CHICAGO, IL, 60605",638169576,"R"
265242,"642 S COMMERCE AVE","SEBRING","FL",33870,27.4910772370001,-81.435558548,242,"642 S COMMERCE AVE, SEBRING, FL, 33870","Match","Exact","642 S COMMERCE AVE, SEBRING, FL, 33870",4668339,"R"
265243,"642 SHANNON BRIDGE","DYER","IN",46311,41.52055433,-87.504339644,243,"642 SHANNON BRIDGE, DYER, IN, 46311","Match","Exact","642 SHANNON BRIDGE, DYER, IN, 46311",641208096,"L"
265244,"642 SO JUANITA ST","HEMET","CA",92543,33.7378395330001,-116.96833379,244,"642 SO JUANITA ST, HEMET, CA, 92543","Match","Exact","642 S JUANITA ST, HEMET, CA, 92543",194757039,"L"
265245,"642 SOUTH 2ND STREET STE 1007","LOUISVILLE","KY",40202,38.2473756200001,-85.7547814599999,245,"642 SOUTH 2ND STREET STE 1007, LOUISVILLE, KY, 40202","Match","Exact","642 S 2ND ST, LOUISVILLE, KY, 40202",640117837,"R"
265246,"642 SOUTH ROOSEVELT ROAD U","PORTALES","NM",88130,34.1565003200001,-103.387812277,246,"642 SOUTH ROOSEVELT ROAD U, PORTALES, NM, 88130","Match","Exact","642 S ROOSEVELT ROAD U, PORTALES, NM, 88130",163933381,"L"
265247,"642 STEINER ST","SAN FRANCISCO","CA",94117,37.7751083090001,-122.432716496,247,"642 STEINER ST, SAN FRANCISCO, CA, 94117","Match","Exact","642 STEINER ST, SAN FRANCISCO, CA, 94117",192283728,"R"
265248,"642 SUGAR CREEK TRAIL","CONYERS","GA",30094,33.5856844960001,-84.023651231,248,"642 SUGAR CREEK TRAIL, CONYERS, GA, 30094","Match","Non_Exact","642 SUGAR CREEK TRL SE, CONYERS, GA, 30094",23746936,"L"
265249,"642 W GARFIELD AVE","MILWAUKEE","WI",53212,43.0591232670001,-87.919157081,249,"642 W GARFIELD AVE, MILWAUKEE, WI, 53212","Match","Exact","642 W GARFIELD AVE, MILWAUKEE, WI, 53212",77739632,"R"
265250,"642 W PINE RD","MELBOURNE VILLAGE","FL",32904,28.0899397110001,-80.6701369319999,250,"642 W PINE RD, MELBOURNE VILLAGE, FL, 32904","Match","Exact","642 W PINE RD, MELBOURNE VILLAGE, FL, 32904",646888399,"R"
265251,"642 W SCHUBERT AVE UNIT A","CHICAGO","IL",60614,41.9316176290001,-87.646022535,251,"642 W SCHUBERT AVE UNIT A, CHICAGO, IL, 60614","Match","Non_Exact","642 W SCHUBERT AVE, CHICAGO, IL, 60614",605242383,"R"
265252,"642 WATER TOWER ROAD","WASHINGTON","LA",70589,30.654683467,-92.17342826,252,"642 WATER TOWER ROAD, WASHINGTON, LA, 70589","Match","Exact","642 WATER TOWER RD, WASHINGTON, LA, 70589",106430856,"L"
265253,"642 WEST GREGORY STREET","PENSACOLA","FL",32501,30.413849154,-87.225314041,253,"642 WEST GREGORY STREET, PENSACOLA, FL, 32501","Match","Non_Exact","642 W GREGORY ST, PENSACOLA, FL, 32502",93220321,"R"
265254,"642 YATES RD","NEWPORT","WA",99156,48.2613176140001,-117.139019033,254,"642 YATES RD, NEWPORT, WA, 99156","Match","Exact","642 YATES RD, NEWPORT, WA, 99156",169916025,"R"
265255,"6420 CLUB LANE","WEST CHESTER","OH",45069,39.3528772700001,-84.409826126,255,"6420 CLUB LANE, WEST CHESTER, OH, 45069","Match","Exact","6420 CLUB LN, WEST CHESTER, OH, 45069",113810326,"R"
265256,"6420 COLBY STREET","OAKLAND","CA",94618,37.851138657,-122.256818313,256,"6420 COLBY STREET, OAKLAND, CA, 94618","Match","Exact","6420 COLBY ST, OAKLAND, CA, 94618",634222180,"R"
265257,"6420 COUNTRY FAIR CIR","BOYNTON BEACH","FL",33437,26.5320059800001,-80.1452706649999,257,"6420 COUNTRY FAIR CIR, BOYNTON BEACH, FL, 33437","Match","Exact","6420 COUNTRY FAIR CIR, BOYNTON BEACH, FL, 33437",115577302,"R"
265258,"6420 COUNTRY FAIR CIRCLE","BOYNTON BEACH","FL",33437,26.5320059800001,-80.1452706649999,258,"6420 COUNTRY FAIR CIRCLE, BOYNTON BEACH, FL, 33437","Match","Exact","6420 COUNTRY FAIR CIR, BOYNTON BEACH, FL, 33437",115577302,"R"
265259,"6420 COUNTY RD 335 UNIT B2","NEW CASTLE","CO",81647,39.566401349,-107.522329658,259,"6420 COUNTY RD 335 UNIT B2, NEW CASTLE, CO, 81647","Match","Exact","6420 CO RD 335, NEW CASTLE, CO, 81647",639740188,"R"
265260,"6420 CRAIGMONT RD","BALTIMORE","MD",21207,39.302861212,-76.741114668,260,"6420 CRAIGMONT RD, BALTIMORE, MD, 21207","Match","Exact","6420 CRAIGMONT RD, BALTIMORE, MD, 21207",191483648,"R"
265261,"6420 DUTCHMANS PARKWAY STE 380","LOUISVILLE","KY",40205,38.2301671370001,-85.641253643,261,"6420 DUTCHMANS PARKWAY STE 380, LOUISVILLE, KY, 40205","Match","Exact","6420 DUTCHMANS PKWY, LOUISVILLE, KY, 40205",640117917,"R"
265262,"6420 E HILLS CT","CUMMING","GA",30041,34.2973018430001,-84.058268327,262,"6420 E HILLS CT, CUMMING, GA, 30041","Match","Exact","6420 E HILLS CT, CUMMING, GA, 30041",629548344,"R"
265263,"6420 E RIVER ROAD","TUCSON","AZ",85750,32.273070111,-110.854630555,263,"6420 E RIVER ROAD, TUCSON, AZ, 85750","Match","Exact","6420 E RIVER RD, TUCSON, AZ, 85750",121178217,"R"
265264,"6420 FAIRMEAD LANE","COLUMBIA","MD",21045,39.1975914810001,-76.838403953,264,"6420 FAIRMEAD LANE, COLUMBIA, MD, 21045","Match","Exact","6420 FAIRMEAD LN, COLUMBIA, MD, 21045",158925763,"R"
265265,"6420 FIESTA DRIVE","COLUMBUS","OH",43235,40.087491824,-83.0648941429999,265,"6420 FIESTA DRIVE, COLUMBUS, OH, 43235","Match","Exact","6420 FIESTA DR, COLUMBUS, OH, 43235",642843213,"R"
265266,"6420 GILMORE GROVE","COLORADO SPRINGS","CO",80918,38.925284069,-104.782453259,266,"6420 GILMORE GROVE, COLORADO SPRINGS, CO, 80918","Match","Exact","6420 GILMORE GRV, COLORADO SPRINGS, CO, 80918",105549969,"R"
265267,"6420 HAVERFORD AVE","PHILADELPHIA","PA",19151,39.9721912040001,-75.247618371,267,"6420 HAVERFORD AVE, PHILADELPHIA, PA, 19151","Match","Exact","6420 HAVERFORD AVE, PHILADELPHIA, PA, 19151",131397309,"L"
265268,"6420 HILLCROFT NUMBER 404","HOUSTON","TX",77081,29.712828572,-95.4946727129999,268,"6420 HILLCROFT NUMBER 404, HOUSTON, TX, 77081","Match","Non_Exact","6420 HILLCROFT ST, HOUSTON, TX, 77081",96614702,"R"
265269,"6420 HILLCROFT ST STE 307","HOUSTON","TX",77081,29.712828572,-95.4946727129999,269,"6420 HILLCROFT ST STE 307, HOUSTON, TX, 77081","Match","Exact","6420 HILLCROFT ST, HOUSTON, TX, 77081",96614702,"R"
265270,"6420 HUNTERS GREEN CT","INDIANAPOLIS","IN",46278,39.872306022,-86.280038227,270,"6420 HUNTERS GREEN CT, INDIANAPOLIS, IN, 46278","Match","Exact","6420 HUNTERS GREEN CT, INDIANAPOLIS, IN, 46278",108027982,"L"
265271,"6420 LINDERA CT","MANASSAS","VA",20112,38.650059523,-77.3988849689999,271,"6420 LINDERA CT, MANASSAS, VA, 20112","Match","Exact","6420 LINDERA CT, MANASSAS, VA, 20112",207160921,"R"
265272,"6420 MOUNTAIN LAUREL ROAD","KNOXVILLE","TN",37924,36.0132632510001,-83.814377141,272,"6420 MOUNTAIN LAUREL ROAD, KNOXVILLE, TN, 37924","Match","Exact","6420 MOUNTAIN LAUREL RD, KNOXVILLE, TN, 37924",42679363,"R"
265273,"6420 REA RD STE A1-272","CHARLOTTE","NC",28277,35.079586303,-80.81653557,273,"6420 REA RD STE A1-272, CHARLOTTE, NC, 28277","Match","Exact","6420 REA RD, CHARLOTTE, NC, 28277",70526292,"R"
265274,"6420 RICHMOND STE 135","HOUSTON","TX",77057,29.7317134370001,-95.498754267,274,"6420 RICHMOND STE 135, HOUSTON, TX, 77057","Match","Non_Exact","6420 RICHMOND AVE, HOUSTON, TX, 77057",96620090,"R"
265275,"6420 SE 15TH STREET","MIDWEST CITY","OK",73110,35.449642392,-97.4134815799999,275,"6420 SE 15TH STREET, MIDWEST CITY, OK, 73110","Match","Exact","6420 SE 15TH ST, MIDWEST CITY, OK, 73110",606183293,"R"
265276,"6420 SYKES GLEN TRAIL","MEBANE","NC",27302,35.997944691,-79.2251065299999,276,"6420 SYKES GLEN TRAIL, MEBANE, NC, 27302","Match","Exact","6420 SYKES GLEN TRL, MEBANE, NC, 27302",72385930,"L"
265277,"6420 TRAJAN DR","ORANGEVALE","CA",95662,38.683164618,-121.248953241,277,"6420 TRAJAN DR, ORANGEVALE, CA, 95662","Match","Exact","6420 TRAJAN DR, ORANGEVALE, CA, 95662",133345356,"R"
265278,"6420 WEST 127TH STREET 106","PALOS HEIGHTS","IL",60463,41.661066465,-87.778038798,278,"6420 WEST 127TH STREET 106, PALOS HEIGHTS, IL, 60463","Match","Exact","6420 W 127TH ST, PALOS HEIGHTS, IL, 60463",111860887,"R"
265279,"6420 WEST PINNACLE PEAK RD","GLENDALE","AZ",85310,33.697787131,-112.197998986,279,"6420 WEST PINNACLE PEAK RD, GLENDALE, AZ, 85310","Match","Exact","6420 W PINNACLE PEAK RD, GLENDALE, AZ, 85310",642857074,"R"
265280,"6420 WILSHIRE BLVD 17TH B SULLIVAN","LOS ANGELES","CA",90048,34.063800729,-118.368775985,280,"6420 WILSHIRE BLVD 17TH B SULLIVAN, LOS ANGELES, CA, 90048","Match","Exact","6420 WILSHIRE BLVD, LOS ANGELES, CA, 90048",141598739,"L"
265281,"6420 WILSHIRE BOULEVARD 17TH FLOOR","LOS ANGELES","CA",90048,34.063800729,-118.368775985,281,"6420 WILSHIRE BOULEVARD 17TH FLOOR, LOS ANGELES, CA, 90048","Match","Exact","6420 WILSHIRE BLVD, LOS ANGELES, CA, 90048",141598739,"L"
265282,"6420 WOODCREST AVE","PHILADELPHIA","PA",19151,39.982450224,-75.252480302,282,"6420 WOODCREST AVE, PHILADELPHIA, PA, 19151","Match","Exact","6420 WOODCREST AVE, PHILADELPHIA, PA, 19151",131396932,"L"
265283,"6420 YINGER AVE","DEARBORN","MI",48126,42.3369129590001,-83.194860311,283,"6420 YINGER AVE, DEARBORN, MI, 48126","Match","Exact","6420 YINGER AVE, DEARBORN, MI, 48126",95443619,"R"
265284,"6420M GARNERS FERRY ROAD","COLUMBIA","SC",29209,33.9801667580001,-80.9619978269999,284,"6420M GARNERS FERRY ROAD, COLUMBIA, SC, 29209","Match","Exact","6420 GARNERS FERRY RD, COLUMBIA, SC, 29209",71829450,"R"
265285,"6421 144TH AVENUE","HOLLAND","MI",49423,42.739563876,-86.1791348039999,285,"6421 144TH AVENUE, HOLLAND, MI, 49423","Match","Exact","6421 144TH AVE, HOLLAND, MI, 49423",11436755,"R"
265286,"6421 45TH AVE N","CRYSTAL","MN",55428,45.036403093,-93.361620188,286,"6421 45TH AVE N, CRYSTAL, MN, 55428","Match","Exact","6421 45TH AVE N, CRYSTAL, MN, 55428",639210415,"L"
265287,"6421 AUTUMN GOLD COURT","COLUMBIA","MD",21045,39.196063898,-76.834236172,287,"6421 AUTUMN GOLD COURT, COLUMBIA, MD, 21045","Match","Exact","6421 AUTUMN GOLD CT, COLUMBIA, MD, 21045",628192388,"R"
265288,"6421 CATES AVE UNIT 1","UNIVERSITY CITY","MO",63130,38.659708962,-90.303004498,288,"6421 CATES AVE UNIT 1, UNIVERSITY CITY, MO, 63130","Match","Exact","6421 CATES AVE, UNIVERSITY CITY, MO, 63130",100152357,"R"
265289,"6421 CATTAIL RD","CHARLES CITY","VA",23030,37.4016197990001,-77.156994488,289,"6421 CATTAIL RD, CHARLES CITY, VA, 23030","Match","Exact","6421 CATTAIL RD, CHARLES CITY, VA, 23030",199507165,"R"
265290,"6421 CENTRALIA ROAD","CHESTERFIELD","VA",23832,37.3736898330001,-77.4994437949999,290,"6421 CENTRALIA ROAD, CHESTERFIELD, VA, 23832","Match","Exact","6421 CENTRALIA RD, CHESTERFIELD, VA, 23832",201580494,"R"
265291,"6421 CHALK BLUFF RD","CHEYENNE","WY",82007,41.0440898410001,-104.731175149,291,"6421 CHALK BLUFF RD, CHEYENNE, WY, 82007","Match","Exact","6421 CHALK BLUFF RD, CHEYENNE, WY, 82007",160160153,"L"
265292,"6421 COWMAN ROAD","HUBBARDSTON","MI",48845,43.081975766,-84.85675513,292,"6421 COWMAN ROAD, HUBBARDSTON, MI, 48845","Match","Exact","6421 COWMAN RD, HUBBARDSTON, MI, 48845",12151601,"L"
265293,"6421 FALCONSGATE AVE","DAVIE","FL",33331,26.0394803070001,-80.346370092,293,"6421 FALCONSGATE AVE, DAVIE, FL, 33331","Match","Exact","6421 FALCONSGATE AVE, DAVIE, FL, 33331",114776454,"L"
265294,"6421 HAZELTINE BLVD","EXCELSIOR","MN",55331,44.887439973,-93.5816835479999,294,"6421 HAZELTINE BLVD, EXCELSIOR, MN, 55331","Match","Exact","6421 HAZELTINE BLVD, EXCELSIOR, MN, 55331",43514641,"L"
265295,"6421 HILLGATE ROAD","ARBUCKLE","CA",95912,39.012594775,-122.090573721,295,"6421 HILLGATE ROAD, ARBUCKLE, CA, 95912","Match","Exact","6421 HILLGATE RD, ARBUCKLE, CA, 95912",67121500,"R"
265296,"6421 KADEN DR N","JACKSONVILLE","FL",32277,30.3723993190001,-81.5918759209999,296,"6421 KADEN DR N, JACKSONVILLE, FL, 32277","Match","Exact","6421 KADEN DR N, JACKSONVILLE, FL, 32277",83902325,"L"
265297,"6421 LAKEWOOD DRIVE UNIT E","OCALA","FL",34472,29.171286256,-82.043921886,297,"6421 LAKEWOOD DRIVE UNIT E, OCALA, FL, 34472","Match","Exact","6421 LAKEWOOD DR, OCALA, FL, 34472",116744135,"L"
265298,"6421 MOUNTAIN PEAK COURT","MIDLOTHIAN","TX",76065,32.4136759350001,-97.0091189,298,"6421 MOUNTAIN PEAK COURT, MIDLOTHIAN, TX, 76065","Match","Exact","6421 MOUNTAIN PEAK CT, MIDLOTHIAN, TX, 76065",627722601,"R"
265299,"6421 N HAMLIN AVENUE","LINCOLNWOOD","IL",60712,41.9980576520001,-87.724028458,299,"6421 N HAMLIN AVENUE, LINCOLNWOOD, IL, 60712","Match","Exact","6421 HAMLIN AVE, LINCOLNWOOD, IL, 60712",605244488,"R"
265300,"6421 OAKTREE COURT","TAMPA","FL",33610,28.006099068,-82.428191472,300,"6421 OAKTREE COURT, TAMPA, FL, 33610","Match","Exact","6421 OAKTREE CT, TAMPA, FL, 33610",104531741,"R"
265301,"6421 OLDE BULLOCKS CIR","SUFFOLK","VA",23435,36.88510505,-76.4068920999999,301,"6421 OLDE BULLOCKS CIR, SUFFOLK, VA, 23435","Match","Non_Exact","6421 OLDE BULLOCK'S CIR, SUFFOLK, VA, 23435",122240374,"L"
265302,"6421 SARATOGA BLDG 101","CORPUS CHRISTI","TX",78414,27.67767752,-97.36811819,302,"6421 SARATOGA BLDG 101, CORPUS CHRISTI, TX, 78414","Match","Non_Exact","6421 SARATOGA BLVD, CORPUS CHRISTI, TX, 78414",178522333,"R"
265303,"6421 SE WINGED FOOT DRIVE","STUART","FL",34997,27.125856619,-80.169999473,303,"6421 SE WINGED FOOT DRIVE, STUART, FL, 34997","Match","Exact","6421 SE WINGED FOOT DR, STUART, FL, 34997",120420133,"R"
265304,"6421 SECREST CT","ARVADA","CO",80007,39.8134173600001,-105.190794135,304,"6421 SECREST CT, ARVADA, CO, 80007","Match","Exact","6421 SECREST CT, ARVADA, CO, 80007",177747608,"L"
265305,"64217 VIRGINIA DR","PEARL RIVER","LA",70452,NA,NA,305,"64217 VIRGINIA DR, PEARL RIVER, LA, 70452","No_Match",NA,NA,NA,NA
265306,"6422 10TH ST","ALEXANDRIA","VA",22307,38.7775023200001,-77.054043414,306,"6422 10TH ST, ALEXANDRIA, VA, 22307","Match","Exact","6422 10TH ST, ALEXANDRIA, VA, 22307",75991902,"R"
265307,"6422 BANYAN WAY","CANAL WINCHESTER","OH",43110,NA,NA,307,"6422 BANYAN WAY, CANAL WINCHESTER, OH, 43110","No_Match",NA,NA,NA,NA
265308,"6422 BLUEBIRD AVE","LONGMONT","CO",80503,40.1061737900001,-105.20396218,308,"6422 BLUEBIRD AVE, LONGMONT, CO, 80503","Match","Exact","6422 BLUEBIRD AVE, LONGMONT, CO, 80503",188161169,"R"
265309,"6422 DAYSBROOK DRIVE UNIT 105","ORLANDO","FL",32835,28.5055705780001,-81.4685795239999,309,"6422 DAYSBROOK DRIVE UNIT 105, ORLANDO, FL, 32835","Match","Exact","6422 DAYSBROOK DR, ORLANDO, FL, 32835",94420225,"L"
265310,"6422 HORSESHOE RD","CLINTON","MD",20735,38.763994595,-76.896157484,310,"6422 HORSESHOE RD, CLINTON, MD, 20735","Match","Exact","6422 HORSESHOE RD, CLINTON, MD, 20735",76370525,"L"
265311,"6422 NW 5TH WAY","FT LAUDERDALE","FL",33309,26.2063437620001,-80.1504650429999,311,"6422 NW 5TH WAY, FT LAUDERDALE, FL, 33309","Match","Non_Exact","6422 NW 5TH WAY, FORT LAUDERDALE, FL, 33309",114766642,"L"
265312,"6422 OLYMPIA DRIVE","HOUSTON","TX",77057,29.7438126590001,-95.498496909,312,"6422 OLYMPIA DRIVE, HOUSTON, TX, 77057","Match","Exact","6422 OLYMPIA DR, HOUSTON, TX, 77057",96620170,"L"
265313,"6422 OXBOW CT","WOODBRIDGE","VA",22193,38.6668419160001,-77.3981317399999,313,"6422 OXBOW CT, WOODBRIDGE, VA, 22193","Match","Exact","6422 OXBOW CT, WOODBRIDGE, VA, 22193",76531637,"R"
265314,"6422 RALSTON AVENUE","INDIANAPOLIS","IN",46220,39.8748352810001,-86.1309327439999,314,"6422 RALSTON AVENUE, INDIANAPOLIS, IN, 46220","Match","Exact","6422 RALSTON AVE, INDIANAPOLIS, IN, 46220",108018687,"R"
265315,"6422 ROCK CANYON CIRCLE","DALLAS","TX",75232,32.6702313660001,-96.839088351,315,"6422 ROCK CANYON CIRCLE, DALLAS, TX, 75232","Match","Non_Exact","6422 ROCK CANYON TRL, DALLAS, TX, 75232",102948326,"L"
265316,"6422 SEVENTH STREET RD","LUMBERTON","NC",28358,34.6194614980001,-78.898151141,316,"6422 SEVENTH STREET RD, LUMBERTON, NC, 28358","Match","Exact","6422 7TH STREET RD, LUMBERTON, NC, 28358",636565193,"L"
265317,"6422 SOUTH 48TH LANE","LAVEEN","AZ",85339,33.3878953390001,-112.16352878,317,"6422 SOUTH 48TH LANE, LAVEEN, AZ, 85339","Match","Exact","6422 S 48TH LN, LAVEEN, AZ, 85339",608956977,"L"
265318,"6422 VERACRUSE DRIVE","MORROW","GA",30260,33.579611496,-84.308577095,318,"6422 VERACRUSE DRIVE, MORROW, GA, 30260","Match","Exact","6422 VERACRUSE DR, MORROW, GA, 30260",23317607,"L"
265319,"6423 47TH AVE E","BRADENTON","FL",34203,27.458593653,-82.4792633449999,319,"6423 47TH AVE E, BRADENTON, FL, 34203","Match","Exact","6423 47TH AVE E, BRADENTON, FL, 34203",16238530,"L"
265320,"6423 83RD STREET","MIDDLE VILLAGE","NY",11379,NA,NA,320,"6423 83RD STREET, MIDDLE VILLAGE, NY, 11379","No_Match",NA,NA,NA,NA
265321,"6423 BISSONNET ST","HOUSTON","TX",77074,29.6935876580001,-95.495379369,321,"6423 BISSONNET ST, HOUSTON, TX, 77074","Match","Exact","6423 BISSONNET ST, HOUSTON, TX, 77074",96037684,"L"
265322,"6423 E THOMAS RD","SCOTTSDALE","AZ",85251,33.4802002110001,-111.942403351,322,"6423 E THOMAS RD, SCOTTSDALE, AZ, 85251","Match","Exact","6423 E THOMAS RD, SCOTTSDALE, AZ, 85251",128921538,"R"
265323,"6423 MONTICELLO RD","COLUMBIA","SC",29203,34.070047044,-81.057512152,323,"6423 MONTICELLO RD, COLUMBIA, SC, 29203","Match","Exact","6423 MONTICELLO RD, COLUMBIA, SC, 29203",604797274,"L"
265324,"6423 N DAMEN AVE APT 2E","CHICAGO","IL",60645,41.9987784910001,-87.680156072,324,"6423 N DAMEN AVE APT 2E, CHICAGO, IL, 60645","Match","Non_Exact","6423 N DAMEN AVE, CHICAGO, IL, 60645",605169382,"R"
265325,"6423 RIDGE CREST DR","PORT RICHEY","FL",34668,28.284520173,-82.708720651,325,"6423 RIDGE CREST DR, PORT RICHEY, FL, 34668","Match","Exact","6423 RIDGE CREST DR, PORT RICHEY, FL, 34668",641442746,"L"
265326,"6423 RIVERVIEW LN","DALLAS","TX",75248,32.973539386,-96.800200763,326,"6423 RIVERVIEW LN, DALLAS, TX, 75248","Match","Exact","6423 RIVERVIEW LN, DALLAS, TX, 75248",102968511,"R"
265327,"6423 S FLORENCE WAY","ENGLEWOOD","CO",80111,39.599419663,-104.871385197,327,"6423 S FLORENCE WAY, ENGLEWOOD, CO, 80111","Match","Exact","6423 S FLORENCE WAY, ENGLEWOOD, CO, 80111",177347433,"R"
265328,"6423 TALL TIMBERS COURT","MASON","OH",45040,39.3598329070001,-84.335915884,328,"6423 TALL TIMBERS COURT, MASON, OH, 45040","Match","Exact","6423 TALL TIMBERS CT, MASON, OH, 45040",653011253,"L"
265329,"6423 W TETHER TRAIL","PHOENIX","AZ",85083,33.723879923,-112.198750311,329,"6423 W TETHER TRAIL, PHOENIX, AZ, 85083","Match","Exact","6423 W TETHER TRL, PHOENIX, AZ, 85083",128430167,"L"
265330,"6423 WALNUT HILL LANE","DALLAS","TX",75230,32.879877364,-96.7927929579999,330,"6423 WALNUT HILL LANE, DALLAS, TX, 75230","Match","Exact","6423 WALNUT HILL LN, DALLAS, TX, 75230",103240812,"L"
265331,"6424 AZUR MEADOWS DR","JOSHUA","TX",76058,32.4700406330001,-97.412165859,331,"6424 AZUR MEADOWS DR, JOSHUA, TX, 76058","Match","Exact","6424 AZUR MEADOWS DR, JOSHUA, TX, 76058",614151146,"R"
265332,"6424 BANBURY CT","MABLETON","GA",30126,NA,NA,332,"6424 BANBURY CT, MABLETON, GA, 30126","No_Match",NA,NA,NA,NA
265333,"6424 BRADLEY PARK DRIVE","COLUMBUS","GA",31904,32.538251018,-84.961412141,333,"6424 BRADLEY PARK DRIVE, COLUMBUS, GA, 31904","Match","Exact","6424 BRADLEY PARK DR, COLUMBUS, GA, 31904",98948379,"R"
265334,"6424 BRAZOS CIRCLE","THE COLONY","TX",75056,33.0877719870001,-96.865793517,334,"6424 BRAZOS CIRCLE, THE COLONY, TX, 75056","Match","Exact","6424 BRAZOS CIR, THE COLONY, TX, 75056",103401028,"L"
265335,"6424 BROAD STREET","BETHESDA","MD",20816,38.943219153,-77.120724428,335,"6424 BROAD STREET, BETHESDA, MD, 20816","Match","Exact","6424 BROAD ST, BETHESDA, MD, 20816",62059115,"L"
265336,"6424 E GREENWAY PARKWAY 100-383","SCOTTSDALE","AZ",85254,33.6259485150001,-111.942147791,336,"6424 E GREENWAY PARKWAY 100-383, SCOTTSDALE, AZ, 85254","Match","Non_Exact","6424 E GREENWAY PKWY, SCOTTSDALE, AZ, 85254",128373839,"L"
265337,"6424 E GREENWAY PARKWAY SUITE 100","SCOTTSDALE","AZ",85254,33.6259485150001,-111.942147791,337,"6424 E GREENWAY PARKWAY SUITE 100, SCOTTSDALE, AZ, 85254","Match","Non_Exact","6424 E GREENWAY PKWY, SCOTTSDALE, AZ, 85254",128373839,"L"
265338,"6424 FINISHLINE TRAIL","BREWERTON","NY",13029,43.1935845570001,-76.088416969,338,"6424 FINISHLINE TRAIL, BREWERTON, NY, 13029","Match","Non_Exact","6424 FINISH LINE TRL, BREWERTON, NY, 13029",628430381,"L"
265339,"6424 GAMBLE RD","BIRCHWOOD","TN",37308,35.266194291,-85.0417334969999,339,"6424 GAMBLE RD, BIRCHWOOD, TN, 37308","Match","Exact","6424 GAMBLE RD, BIRCHWOOD, TN, 37308",652879950,"L"
265340,"6424 HIGH KNOLL ROAD","SAN DIEGO","CA",92111,32.7968852990001,-117.179108127,340,"6424 HIGH KNOLL ROAD, SAN DIEGO, CA, 92111","Match","Exact","6424 HIGH KNOLL RD, SAN DIEGO, CA, 92111",195305613,"L"
265341,"6424 HILL VIEW AVENUE","LAS VEGAS","NV",89107,36.177812042,-115.234803624,341,"6424 HILL VIEW AVENUE, LAS VEGAS, NV, 89107","Match","Exact","6424 HILL VIEW AVE, LAS VEGAS, NV, 89107",201859877,"R"
265342,"6424 LINEBORO ROAD","GLEN ROCK","PA",17327,39.7345470280001,-76.824183109,342,"6424 LINEBORO ROAD, GLEN ROCK, PA, 17327","Match","Exact","6424 LINEBORO RD, GLEN ROCK, PA, 17327",88740841,"L"
265343,"6424 N ARTESIAN AVENUE","CHICAGO","IL",60645,41.998551784,-87.6911321649999,343,"6424 N ARTESIAN AVENUE, CHICAGO, IL, 60645","Match","Exact","6424 N ARTESIAN AVE, CHICAGO, IL, 60645",605168633,"L"
265344,"6424 N FAIRFIELD AVEENUE","CHICAGO","IL",60645,NA,NA,344,"6424 N FAIRFIELD AVEENUE, CHICAGO, IL, 60645","No_Match",NA,NA,NA,NA
265345,"6424 RANCHO SANTA FE DR","LAS VEGAS","NV",89130,36.255952037,-115.235496883,345,"6424 RANCHO SANTA FE DR, LAS VEGAS, NV, 89130","Match","Exact","6424 RANCHO SANTA FE DR, LAS VEGAS, NV, 89130",201916727,"L"
265346,"6424 SPRINGTIME COURT","BAKERSFIELD","CA",93313,35.297593965,-119.067513824,346,"6424 SPRINGTIME COURT, BAKERSFIELD, CA, 93313","Match","Exact","6424 SPRINGTIME CT, BAKERSFIELD, CA, 93313",109135978,"L"
265347,"6424 W CHEYENNE AVE","LAS VEGAS","NV",89108,36.2176299010001,-115.235187683,347,"6424 W CHEYENNE AVE, LAS VEGAS, NV, 89108","Match","Exact","6424 W CHEYENNE AVE, LAS VEGAS, NV, 89108",201887967,"R"
265348,"6424 WAKEFIELD ROAD","NORTH RICHLAND HILLS","TX",76182,32.8620429480001,-97.2323760469999,348,"6424 WAKEFIELD ROAD, NORTH RICHLAND HILLS, TX, 76182","Match","Exact","6424 WAKEFIELD RD, NORTH RICHLAND HILLS, TX, 76182",101862769,"R"
265349,"6424 WAVERLY GREEN WAY","NAPLES","FL",34110,26.284822149,-81.7522662709999,349,"6424 WAVERLY GREEN WAY, NAPLES, FL, 34110","Match","Exact","6424 WAVERLY GREEN WAY, NAPLES, FL, 34110",115227800,"R"
265350,"6424 WHISPERING LANE S APT 112","MEMPHIS","TN",38115,35.062063251,-89.849303413,350,"6424 WHISPERING LANE S APT 112, MEMPHIS, TN, 38115","Match","Exact","6424 WHISPERING LN S, MEMPHIS, TN, 38115",607459446,"L"
265351,"6424 YORK ROAD","SPRING GROVE","PA",17362,39.8367993960001,-76.911751887,351,"6424 YORK ROAD, SPRING GROVE, PA, 17362","Match","Exact","6424 YORK RD, SPRING GROVE, PA, 17362",88711266,"R"
265352,"6424 YUCCA STREET APARTMENT 201","LOS ANGELES","CA",90028,34.103920869,-118.330074456,352,"6424 YUCCA STREET APARTMENT 201, LOS ANGELES, CA, 90028","Match","Exact","6424 YUCCA ST, LOS ANGELES, CA, 90028",141594811,"L"
265353,"6424 ZEBULON ROAD","WAKE FOREST","NC",27587,35.942988551,-78.418401161,353,"6424 ZEBULON ROAD, WAKE FOREST, NC, 27587","Match","Exact","6424 ZEBULON RD, WAKE FOREST, NC, 27587",646933623,"R"
265354,"6425 14TH ST NW APT 104","WASHINGTON","DC",20012,38.9683789270001,-77.033410381,354,"6425 14TH ST NW APT 104, WASHINGTON, DC, 20012","Match","Exact","6425 14TH ST NW, WASHINGTON, DC, 20012",76221648,"R"
265355,"6425 B STREET","BEALE AFB","CA",95903,NA,NA,355,"6425 B STREET, BEALE AFB, CA, 95903","No_Match",NA,NA,NA,NA
265356,"6425 BAYFIELD DRIVE","JACKSONVILLE","FL",32277,30.3638539460001,-81.590579251,356,"6425 BAYFIELD DRIVE, JACKSONVILLE, FL, 32277","Match","Exact","6425 BAYFIELD DR, JACKSONVILLE, FL, 32277",83902368,"L"
265357,"6425 BIRCHVIEW DRIVE SOUTH","REYNOLDSBURG","OH",43068,39.9347650990001,-82.822357634,357,"6425 BIRCHVIEW DRIVE SOUTH, REYNOLDSBURG, OH, 43068","Match","Exact","6425 BIRCHVIEW DR S, REYNOLDSBURG, OH, 43068",135597622,"R"
265358,"6425 DARTMOUTH AVE N","ST PETERSBURG","FL",33710,27.7763276530001,-82.724922705,358,"6425 DARTMOUTH AVE N, ST PETERSBURG, FL, 33710","Match","Exact","6425 DARTMOUTH AVE N, SAINT PETERSBURG, FL, 33710",124698208,"R"
265359,"6425 E 2300 STREET","KEWANEE","IL",61443,NA,NA,359,"6425 E 2300 STREET, KEWANEE, IL, 61443","No_Match",NA,NA,NA,NA
265360,"6425 E WISTER STREET","PHILADELPHIA","PA",19138,40.05279718,-75.1577107479999,360,"6425 E WISTER STREET, PHILADELPHIA, PA, 19138","Match","Exact","6425 WISTER ST, PHILADELPHIA, PA, 19138",131413203,"R"
265361,"6425 EDGEWATER COVE","FAIRBURN","GA",30213,33.585318914,-84.639367017,361,"6425 EDGEWATER COVE, FAIRBURN, GA, 30213","Match","Exact","6425 EDGEWATER COVE, FAIRBURN, GA, 30213",634083526,"R"
265362,"6425 ELGIN ST","LOS ANGELES","CA",90042,34.118010181,-118.178933308,362,"6425 ELGIN ST, LOS ANGELES, CA, 90042","Match","Exact","6425 ELGIN ST, LOS ANGELES, CA, 90042",141615392,"L"
265363,"6425 LIVING PLACE SUITE 200","PITTSBURGH","PA",15206,40.4568330340001,-79.917678038,363,"6425 LIVING PLACE SUITE 200, PITTSBURGH, PA, 15206","Match","Exact","6425 LIVING PL, PITTSBURGH, PA, 15206",646569380,"R"
265364,"6425 MAYWOOD AVENUE","MIDDLETON","WI",53562,43.1000614450001,-89.491246916,364,"6425 MAYWOOD AVENUE, MIDDLETON, WI, 53562","Match","Exact","6425 MAYWOOD AVE, MIDDLETON, WI, 53562",49466524,"L"
265365,"6425 PATRICK DR","DALLAS","TX",75214,32.843048165,-96.752078583,365,"6425 PATRICK DR, DALLAS, TX, 75214","Match","Exact","6425 PATRICK DR, DALLAS, TX, 75214",619125573,"L"
265366,"6425 SODOM HUTCHINGS RD","GIRARD","OH",44420,41.1925284880001,-80.6461342379999,366,"6425 SODOM HUTCHINGS RD, GIRARD, OH, 44420","Match","Non_Exact","6425 SODOM HUTCHINGS RD SE, GIRARD, OH, 44420",117412456,"L"
265367,"6425 TAYLOR PARK DR","LINCOLN","NE",68510,40.8118264930001,-96.63252701,367,"6425 TAYLOR PARK DR, LINCOLN, NE, 68510","Match","Exact","6425 TAYLOR PARK DR, LINCOLN, NE, 68510",28259703,"R"
265368,"6425 THWING RD","LE ROY","NY",14482,43.022894609,-78.05522307,368,"6425 THWING RD, LE ROY, NY, 14482","Match","Exact","6425 THWING RD, LE ROY, NY, 14482",48160919,"L"
265369,"6425 US 231 S","CRAWFORDSVILLE","IN",47933,39.9472062040001,-86.902891213,369,"6425 US 231 S, CRAWFORDSVILLE, IN, 47933","Match","Non_Exact","6425 US HWY 231 S, CRAWFORDSVILLE, IN, 47933",29348562,"L"
265370,"6425 WESTHEIMER RD 1106","HOUSTON","TX",77057,29.737556969,-95.497269973,370,"6425 WESTHEIMER RD 1106, HOUSTON, TX, 77057","Match","Exact","6425 WESTHEIMER RD, HOUSTON, TX, 77057",96620076,"L"
265371,"6425 WINDAM AVE","ALEXANDRIA","VA",22315,NA,NA,371,"6425 WINDAM AVE, ALEXANDRIA, VA, 22315","No_Match",NA,NA,NA,NA
265372,"6425 WORLINGTON ROAD","BLOOMFIELD HILLS","MI",18301,42.54557952,-83.291829859,372,"6425 WORLINGTON ROAD, BLOOMFIELD HILLS, MI, 18301","Match","Non_Exact","6425 WORLINGTON RD, BLOOMFIELD HILLS, MI, 48301",69729432,"L"
265373,"64253 SOLARI LN","COOS BAY","OR",97420,43.3735903780001,-124.097488514,373,"64253 SOLARI LN, COOS BAY, OR, 97420","Match","Non_Exact","64253 SOLARI RD, COOS BAY, OR, 97420",651809235,"R"
265374,"6425A MALVERN AVE","PHILADELPHIA","PA",19151,39.9811498770001,-75.251966076,374,"6425A MALVERN AVE, PHILADELPHIA, PA, 19151","Match","Exact","6425 MALVERN AVE, PHILADELPHIA, PA, 19151",131396934,"R"
265375,"6426 BOWDEN ROAD SUITE 201","JACKSONVILLE","FL",32216,30.2643479120001,-81.5972115279999,375,"6426 BOWDEN ROAD SUITE 201, JACKSONVILLE, FL, 32216","Match","Exact","6426 BOWDEN RD, JACKSONVILLE, FL, 32216",83919106,"R"
265376,"6426 EMERALD DUNES DRIVE","WEST PALM BEACH","FL",33411,26.7108177530001,-80.1429253379999,376,"6426 EMERALD DUNES DRIVE, WEST PALM BEACH, FL, 33411","Match","Exact","6426 EMERALD DUNES DR, WEST PALM BEACH, FL, 33411",625220701,"R"
265377,"6426 FIREHOUSE RD","ALMA","AR",72921,35.546697753,-94.1824452499999,377,"6426 FIREHOUSE RD, ALMA, AR, 72921","Match","Exact","6426 FIREHOUSE RD, ALMA, AR, 72921",53498348,"R"
265378,"6426 JOE KLUTSCH DRIVE","FORT WASHINGTON","MD",20744,38.80372613,-76.957468338,378,"6426 JOE KLUTSCH DRIVE, FORT WASHINGTON, MD, 20744","Match","Exact","6426 JOE KLUTSCH DR, FT WASHINGTON, MD, 20744",76391946,"L"
265379,"6426 PADDINGTON CT APT 202","CENTREVILLE","VA",20121,38.829823145,-77.458275466,379,"6426 PADDINGTON CT APT 202, CENTREVILLE, VA, 20121","Match","Exact","6426 PADDINGTON CT, CENTREVILLE, VA, 20121",618765498,"L"
265380,"6426 RENWICK CIRCLE","TAMPA","FL",33647,28.0924700840001,-82.376193927,380,"6426 RENWICK CIRCLE, TAMPA, FL, 33647","Match","Exact","6426 RENWICK CIR, TAMPA, FL, 33647",104579895,"L"
265381,"6426 SE 129TH PL","PORTLAND","OR",97236,45.4765208000001,-122.529985739,381,"6426 SE 129TH PL, PORTLAND, OR, 97236","Match","Exact","6426 SE 129TH PL, PORTLAND, OR, 97236",157610405,"L"
265382,"6426 SW ONASSIS PL","BEAVERTON","OR",97007,45.4735049070001,-122.861218814,382,"6426 SW ONASSIS PL, BEAVERTON, OR, 97007","Match","Exact","6426 SW ONASSIS PL, BEAVERTON, OR, 97007",624845301,"L"
265383,"6426 VICTORIA AVE SE","AUBURN","WA",98092,47.250278085,-122.201071794,383,"6426 VICTORIA AVE SE, AUBURN, WA, 98092","Match","Exact","6426 VICTORIA AVE SE, AUBURN, WA, 98092",641040257,"L"
265384,"6426 W WATKINS ST","PHOENIX","AZ",85043,33.4264762450001,-112.198474604,384,"6426 W WATKINS ST, PHOENIX, AZ, 85043","Match","Exact","6426 W WATKINS ST, PHOENIX, AZ, 85043",128844197,"R"
265385,"6427 8TH ST NW","WASHINGTON","DC",20012,38.968060386,-77.024196799,385,"6427 8TH ST NW, WASHINGTON, DC, 20012","Match","Exact","6427 8TH ST NW, WASHINGTON, DC, 20012",76221877,"R"
265386,"6427 CANYON LAKE DRIVE","DALLAS","TX",75249,32.644477619,-96.968835274,386,"6427 CANYON LAKE DRIVE, DALLAS, TX, 75249","Match","Exact","6427 CANYON LAKE DR, DALLAS, TX, 75249",102978840,"L"
265387,"6427 COTTONWOOD PARK LN","HOUSTON","TX",77041,29.865807155,-95.596161624,387,"6427 COTTONWOOD PARK LN, HOUSTON, TX, 77041","Match","Exact","6427 COTTONWOOD PARK LN, HOUSTON, TX, 77041",96567591,"R"
265388,"6427 CRYSTAL PT","MISSOURI CITY","TX",77459,29.562128323,-95.5734854139999,388,"6427 CRYSTAL PT, MISSOURI CITY, TX, 77459","Match","Exact","6427 CRYSTAL PT, MISSOURI CITY, TX, 77459",636818661,"R"
265389,"6427 FRANCONIA RD","SPRINGFIELD","VA",22150,38.778624302,-77.164218208,389,"6427 FRANCONIA RD, SPRINGFIELD, VA, 22150","Match","Exact","6427 FRANCONIA RD, SPRINGFIELD, VA, 22150",615662840,"L"
265390,"6427 GRELOT RD APT 205","MOBILE","AL",36695,30.6611213570001,-88.195465471,390,"6427 GRELOT RD APT 205, MOBILE, AL, 36695","Match","Exact","6427 GRELOT RD, MOBILE, AL, 36695",61943780,"L"
265391,"6427 GRELOT RD STE 1006","MOBILE","AL",36695,30.6611213570001,-88.195465471,391,"6427 GRELOT RD STE 1006, MOBILE, AL, 36695","Match","Exact","6427 GRELOT RD, MOBILE, AL, 36695",61943780,"L"
265392,"6427 HUNTERS CREEK BLVD","LOUISVILLE","KY",40258,38.163305302,-85.8703545129999,392,"6427 HUNTERS CREEK BLVD, LOUISVILLE, KY, 40258","Match","Exact","6427 HUNTERS CREEK BLVD, LOUISVILLE, KY, 40258",96922206,"R"
265393,"6427 JUNIPER SPRINGS DRIVE","HUMBLE","TX",77338,NA,NA,393,"6427 JUNIPER SPRINGS DRIVE, HUMBLE, TX, 77338","No_Match",NA,NA,NA,NA
265394,"6427 KLUMP AVE","N HOLLYWOOD","CA",91606,34.1869097850001,-118.375793236,394,"6427 KLUMP AVE, N HOLLYWOOD, CA, 91606","Match","Exact","6427 KLUMP AVE, N HOLLYWOOD, CA, 91606",141564454,"L"
265395,"6427 N LEAVITT ST APT 3","CHICAGO","IL",60645,41.9983959780001,-87.685019311,395,"6427 N LEAVITT ST APT 3, CHICAGO, IL, 60645","Match","Non_Exact","6427 N LEAVITT ST, CHICAGO, IL, 60645",605152623,"R"
265396,"6427 PEMBROKE ROAD","HOLLYWOOD","FL",33023,25.9954318740001,-80.215961733,396,"6427 PEMBROKE ROAD, HOLLYWOOD, FL, 33023","Match","Exact","6427 PEMBROKE RD, HOLLYWOOD, FL, 33023",114734490,"R"
265397,"6427 S BLAKE CT","GILBERT","AZ",85298,33.2331131540001,-111.705608319,397,"6427 S BLAKE CT, GILBERT, AZ, 85298","Match","Exact","6427 S BLAKE CT, GILBERT, AZ, 85298",128852797,"L"
265398,"6427 S TIBET STREET","AURORA","CO",80016,39.6003257180001,-104.725275632,398,"6427 S TIBET STREET, AURORA, CO, 80016","Match","Exact","6427 S TIBET ST, AURORA, CO, 80016",177523257,"L"
265399,"6427 SIENNA RANCH RD SUITE 303","MISSOURI CITY","TX",77459,29.5384298440001,-95.551495979,399,"6427 SIENNA RANCH RD SUITE 303, MISSOURI CITY, TX, 77459","Match","Exact","6427 SIENNA RANCH RD, MISSOURI CITY, TX, 77459",637958338,"L"
265400,"6427 W EDISON STREET","TULSA","OK",74127,36.160945537,-96.0631409109999,400,"6427 W EDISON STREET, TULSA, OK, 74127","Match","Exact","6427 W EDISON ST, TULSA, OK, 74127",635522207,"R"
265401,"6427 WITTENHAM WAY","ORANGEVALE","CA",95662,38.683110648,-121.254608273,401,"6427 WITTENHAM WAY, ORANGEVALE, CA, 95662","Match","Exact","6427 WITTENHAM WAY, ORANGEVALE, CA, 95662",133345145,"R"
265402,"6428 CROSS RIDGE DR","HOLLY SPRINGS","NC",27540,NA,NA,402,"6428 CROSS RIDGE DR, HOLLY SPRINGS, NC, 27540","No_Match",NA,NA,NA,NA
265403,"6428 KENMORE","EL PASO","TX",79932,31.8872960800001,-106.584861322,403,"6428 KENMORE, EL PASO, TX, 79932","Match","Non_Exact","6428 KENMORE ST, EL PASO, TX, 79932",618930404,"R"
265404,"6428 MARGARETS LANE","EDINA","MN",55439,44.8863599360001,-93.397576568,404,"6428 MARGARETS LANE, EDINA, MN, 55439","Match","Exact","6428 MARGARETS LN, EDINA, MN, 55439",641230974,"L"
265405,"6428 PADDINGTON WAY","ANTIOCH","TN",37013,36.0722361960001,-86.581858497,405,"6428 PADDINGTON WAY, ANTIOCH, TN, 37013","Match","Exact","6428 PADDINGTON WAY, ANTIOCH, TN, 37013",97220929,"R"
265406,"6428 PLANK","COTTRELLVILLE","MI",48039,42.7186442730001,-82.563486726,406,"6428 PLANK, COTTRELLVILLE, MI, 48039","Match","Non_Exact","6428 PLANK RD, COTTRELLVILLE, MI, 48039",110961378,"L"
265407,"6428 W WILKINSON BLVD SUITE 257","BELMONT","NC",28012,35.252033307,-81.046303901,407,"6428 W WILKINSON BLVD SUITE 257, BELMONT, NC, 28012","Match","Exact","6428 WILKINSON BLVD, BELMONT, NC, 28012",615731745,"R"
265408,"6428 WAVERLY GREEN WAY","NAPLES","FL",34110,26.284857973,-81.752208402,408,"6428 WAVERLY GREEN WAY, NAPLES, FL, 34110","Match","Exact","6428 WAVERLY GREEN WAY, NAPLES, FL, 34110",115227800,"R"
265409,"6428 WILDHAVEN WAY","CINCINNATI","OH",45230,39.098645123,-84.380376009,409,"6428 WILDHAVEN WAY, CINCINNATI, OH, 45230","Match","Exact","6428 WILDHAVEN WAY, CINCINNATI, OH, 45230",103962055,"L"
265410,"64280 N HWY 97","BEND","OR",97701,44.1369950820001,-121.27529365,410,"64280 N HWY 97, BEND, OR, 97701","Match","Exact","64280 N HWY 97, BEND, OR, 97701",152550560,"R"
265411,"6429 ALDER CT","CHARLOTTE","NC",28215,35.2367646820001,-80.6863472169999,411,"6429 ALDER CT, CHARLOTTE, NC, 28215","Match","Exact","6429 ALDER CT, CHARLOTTE, NC, 28215",70562027,"L"
265412,"6429 CITY WEST PKWY APT 4105","EDEN PRAIRIE","MN",55344,44.8861686000001,-93.41294007,412,"6429 CITY WEST PKWY APT 4105, EDEN PRAIRIE, MN, 55344","Match","Exact","6429 CITY WEST PKWY, EDEN PRAIRIE, MN, 55344",645343489,"R"
265413,"6429 E JUNE STREET","MESA","AZ",85205,33.4499987840001,-111.692015525,413,"6429 E JUNE STREET, MESA, AZ, 85205","Match","Exact","6429 E JUNE ST, MESA, AZ, 85205",128377746,"R"
265414,"6429 EMS ROAD W","FORT WORTH","TX",76116,NA,NA,414,"6429 EMS ROAD W, FORT WORTH, TX, 76116","No_Match",NA,NA,NA,NA
265415,"6429 GARFIELD","DETROIT","MI",48213,NA,NA,415,"6429 GARFIELD, DETROIT, MI, 48213","No_Match",NA,NA,NA,NA
265416,"6429 LOUISE PL NE","ALBUQUERQUE","NM",87109,35.149175578,-106.577806175,416,"6429 LOUISE PL NE, ALBUQUERQUE, NM, 87109","Match","Exact","6429 LOUISE PL NE, ALBUQUERQUE, NM, 87109",206712338,"L"
265417,"6429 MCREE","FORT WORTH","TX",76179,32.949565562,-97.5039135169999,417,"6429 MCREE, FORT WORTH, TX, 76179","Match","Non_Exact","6429 MCREE ST, FORT WORTH, TX, 76179",625207805,"R"
265418,"6429 NW 93RD ST","JOHNSTON","IA",50131,41.6779034950001,-93.7467479919999,418,"6429 NW 93RD ST, JOHNSTON, IA, 50131","Match","Exact","6429 NW 93RD ST, JOHNSTON, IA, 50131",65813284,"R"
265419,"6429 SOUTH LANGSTON ROAD","SEATTLE","WA",98178,47.487190587,-122.253323501,419,"6429 SOUTH LANGSTON ROAD, SEATTLE, WA, 98178","Match","Exact","6429 S LANGSTON RD, SEATTLE, WA, 98178",186629649,"R"
265420,"6429 STONE TERRACE","MORROW","GA",30260,33.5797174520001,-84.3456400969999,420,"6429 STONE TERRACE, MORROW, GA, 30260","Match","Exact","6429 STONE TER, MORROW, GA, 30260",23327477,"R"
265421,"6429 WOODROCK DR","FORT WAYNE","IN",46835,41.126703019,-85.0600975569999,421,"6429 WOODROCK DR, FORT WAYNE, IN, 46835","Match","Exact","6429 WOODROCK DR, FORT WAYNE, IN, 46835",6394964,"R"
265422,"6429 WOODVALE PLACE","ELKRIDGE","MD",21075,39.201789411,-76.77581513,422,"6429 WOODVALE PLACE, ELKRIDGE, MD, 21075","Match","Exact","6429 WOODVALE PL, ELKRIDGE, MD, 21075",158933727,"L"
265423,"643 ALHAMBRA CT","EAST ST LOUIS","IL",62205,38.611903457,-90.1173130719999,423,"643 ALHAMBRA CT, EAST ST LOUIS, IL, 62205","Match","Exact","643 ALHAMBRA CT, E SAINT LOUIS, IL, 62205",107831204,"L"
265424,"643 ANTIGUA TERRACE","MOUNTAIN HOUSE","CA",95391,37.7929543660001,-121.548845545,424,"643 ANTIGUA TERRACE, MOUNTAIN HOUSE, CA, 95391","Match","Non_Exact","643 W ANTIGUA TER, MOUNTAIN HOUSE, CA, 95391",649717090,"L"
265425,"643 AUTUMNWOOD DR","HOUSTON","TX",77013,29.7773773530001,-95.230121006,425,"643 AUTUMNWOOD DR, HOUSTON, TX, 77013","Match","Exact","643 AUTUMNWOOD DR, HOUSTON, TX, 77013",96096208,"L"
265426,"643 BETHLEHEM RD","LOCUST GROVE","GA",30248,NA,NA,426,"643 BETHLEHEM RD, LOCUST GROVE, GA, 30248","No_Match",NA,NA,NA,NA
265427,"643 BLACK DIAMOND STREET","PITTSBURG","CA",94565,38.0311527330001,-121.885326187,427,"643 BLACK DIAMOND STREET, PITTSBURG, CA, 94565","Match","Exact","643 BLACK DIAMOND ST, PITTSBURG, CA, 94565",192060613,"L"
265428,"643 BRIDIER STREET","JACKSONVILLE","FL",32202,30.329191789,-81.637731795,428,"643 BRIDIER STREET, JACKSONVILLE, FL, 32202","Match","Exact","643 BRIDIER ST, JACKSONVILLE, FL, 32202",83901121,"R"
265429,"643 CANYON CREST RD","BEAUMONT","CA",92223,33.952441751,-116.971902375,429,"643 CANYON CREST RD, BEAUMONT, CA, 92223","Match","Exact","643 CANYON CREST RD, BEAUMONT, CA, 92223",608989307,"R"
265430,"643 CARDINAL DRIVE","JAMESTOWN","IN",46147,39.9240165690001,-86.637171847,430,"643 CARDINAL DRIVE, JAMESTOWN, IN, 46147","Match","Exact","643 CARDINAL DR, JAMESTOWN, IN, 46147",610969512,"L"
265431,"643 CEDAR BLUFF DR","PENSACOLA","FL",32506,30.4058990930001,-87.365577676,431,"643 CEDAR BLUFF DR, PENSACOLA, FL, 32506","Match","Exact","643 CEDAR BLUFF DR, PENSACOLA, FL, 32506",93250403,"R"
265432,"643 CORAL HARBOR","SAN ANTONIO","TX",78251,29.439594374,-98.696228092,432,"643 CORAL HARBOR, SAN ANTONIO, TX, 78251","Match","Exact","643 CORAL HARBOR, SAN ANTONIO, TX, 78251",101749447,"L"
265433,"643 E MARYLAND ST","EVANSVILLE","IN",47711,37.9856125640001,-87.55535133,433,"643 E MARYLAND ST, EVANSVILLE, IN, 47711","Match","Exact","643 E MARYLAND ST, EVANSVILLE, IN, 47711",39782801,"R"
265434,"643 EAST WILSON STREET","OCONOMOWOC","WI",53066,43.1170831210001,-88.4893448829999,434,"643 EAST WILSON STREET, OCONOMOWOC, WI, 53066","Match","Exact","643 E WILSON ST, OCONOMOWOC, WI, 53066",53805202,"R"
265435,"643 FERNDALE AVENUE NE",NA,"WA",98056,47.4930998030001,-122.184556338,435,"643 FERNDALE AVENUE NE, , WA, 98056","Match","Exact","643 FERNDALE AVE NE, NEWCASTLE, WA, 98056",186632384,"L"
265436,"643 FLORENCE AVENUE","FORT WAYNE","IN",46808,41.0950616480001,-85.1500571569999,436,"643 FLORENCE AVENUE, FORT WAYNE, IN, 46808","Match","Exact","643 FLORENCE AVE, FORT WAYNE, IN, 46808",6377239,"L"
265437,"643 FOXTAIL ST","FORT COLLINS","CO",80524,40.606572005,-105.064996349,437,"643 FOXTAIL ST, FORT COLLINS, CO, 80524","Match","Exact","643 FOXTAIL ST, FORT COLLINS, CO, 80524",188548408,"L"
265438,"643 GARFIELD AVENUE","GLENSIDE","PA",19038,40.1203902830001,-75.1600608049999,438,"643 GARFIELD AVENUE, GLENSIDE, PA, 19038","Match","Exact","643 GARFIELD AVE, GLENSIDE, PA, 19038",135091911,"R"
265439,"643 GARY LANE","NORRISTOWN","PA",19401,40.1216176070001,-75.323308901,439,"643 GARY LANE, NORRISTOWN, PA, 19401","Match","Exact","643 GARY LN, NORRISTOWN, PA, 19401",135083134,"L"
265440,"643 GRAND VIEW RIDGE CT","EUREKA","MO",63025,38.494429365,-90.655093294,440,"643 GRAND VIEW RIDGE CT, EUREKA, MO, 63025","Match","Exact","643 GRAND VIEW RIDGE CT, EUREKA, MO, 63025",100185264,"L"
265441,"643 HIDDEN LAKES DR","MARTINEZ","CA",94553,37.9802761080001,-122.08174744,441,"643 HIDDEN LAKES DR, MARTINEZ, CA, 94553","Match","Exact","643 HIDDEN LAKES DR, MARTINEZ, CA, 94553",192088968,"R"
265442,"643 HIGHWAY FF","JONESBURG","MO",63351,NA,NA,442,"643 HIGHWAY FF, JONESBURG, MO, 63351","No_Match",NA,NA,NA,NA
265443,"643 LAKEWOOD ROAD","WATERBURY","CT",6704,41.5732107860001,-73.0106024469999,443,"643 LAKEWOOD ROAD, WATERBURY, CT, 6704","Match","Exact","643 LAKEWOOD RD, WATERBURY, CT, 06704",3730240,"L"
265444,"643 LIBERTY LAKES DRIVE","VALPARAISO","IN",46385,41.4439927830001,-87.186813448,444,"643 LIBERTY LAKES DRIVE, VALPARAISO, IN, 46385","Match","Exact","643 LIBERTY LAKES DR, VALPARAISO, IN, 46385",633704415,"L"
265445,"643 LIVINSTON NE APT 1","GRAND RAPIDS","MI",49503,NA,NA,445,"643 LIVINSTON NE APT 1, GRAND RAPIDS, MI, 49503","No_Match",NA,NA,NA,NA
265446,"643 MAGAZINE ST","NEW ORLEANS","LA",70130,29.9475176560001,-90.068564012,446,"643 MAGAZINE ST, NEW ORLEANS, LA, 70130","Match","Exact","643 MAGAZINE ST, NEW ORLEANS, LA, 70130",191714352,"R"
265447,"643 MAIN AVENUE","VINELAND","NJ",8360,39.4739557410001,-74.879783056,447,"643 MAIN AVENUE, VINELAND, NJ, 8360","Match","Exact","643 MAIN AVE, VINELAND, NJ, 08360",202500983,"L"
265448,"643 MEAD ST","ATLANTA","GA",30312,33.727563284,-84.3664975839999,448,"643 MEAD ST, ATLANTA, GA, 30312","Match","Non_Exact","643 MEAD ST SE, ATLANTA, GA, 30312",17358277,"R"
265449,"643 MOUNTAIN QUAIL DRIVE","CHARLOTTE","NC",28216,35.2905532230001,-80.895896013,449,"643 MOUNTAIN QUAIL DRIVE, CHARLOTTE, NC, 28216","Match","Exact","643 MOUNTAIN QUAIL DR, CHARLOTTE, NC, 28216",619683653,"R"
265450,"643 MUSKINGUM AVENUE","PACIFIC PALISADES","CA",90272,34.045951098,-118.537576057,450,"643 MUSKINGUM AVENUE, PACIFIC PALISADES, CA, 90272","Match","Exact","643 MUSKINGUM AVE, PACIFIC PALISADES, CA, 90272",141557636,"L"
265451,"643 N CAREY STREET","BALTIMORE","MD",21217,39.296004425,-76.638573642,451,"643 N CAREY STREET, BALTIMORE, MD, 21217","Match","Exact","643 N CAREY ST, BALTIMORE, MD, 21217",206416613,"R"
265452,"643 N STARR DR","FAYETTEVILLE","AR",72701,36.0703265110001,-94.1040101469999,452,"643 N STARR DR, FAYETTEVILLE, AR, 72701","Match","Exact","643 N STARR DR, FAYETTEVILLE, AR, 72701",49077305,"R"
265453,"643 NEWBERRY STREET","BOWLING GREEN","KY",42103,36.9794707340001,-86.418541792,453,"643 NEWBERRY STREET, BOWLING GREEN, KY, 42103","Match","Exact","643 NEWBERRY ST, BOWLING GREEN, KY, 42103",28011666,"R"
265454,"643 NORTH KENWOOD AVE","BALTIMORE","MD",21205,39.298420289,-76.578037197,454,"643 NORTH KENWOOD AVE, BALTIMORE, MD, 21205","Match","Exact","643 N KENWOOD AVE, BALTIMORE, MD, 21205",206424321,"R"
265455,"643 PARK AVENUE","NEW YORK","NY",10065,40.7674719460001,-73.966465953,455,"643 PARK AVENUE, NEW YORK, NY, 10065","Match","Exact","643 PARK AVE, NEW YORK, NY, 10065",59657451,"R"
265456,"643 QUINCE STREET","MENDOTA","CA",93640,36.7542126010001,-120.382694778,456,"643 QUINCE STREET, MENDOTA, CA, 93640","Match","Exact","643 QUINCE ST, MENDOTA, CA, 93640",197551051,"R"
265457,"643 RALSTON ST","RENO","NV",89503,39.5321575140001,-119.821880429,457,"643 RALSTON ST, RENO, NV, 89503","Match","Exact","643 RALSTON ST, RENO, NV, 89503",640022127,"L"
265458,"643 RIVERLAND DRIVE","CHARLESTON","SC",29412,32.7456307190001,-79.986317352,458,"643 RIVERLAND DRIVE, CHARLESTON, SC, 29412","Match","Exact","643 RIVERLAND DR, CHARLESTON, SC, 29412",647125631,"R"
265459,"643 ROCKBOROUGH DRIVE","STONE MOUNTAIN","GA",30083,33.794281219,-84.1771466929999,459,"643 ROCKBOROUGH DRIVE, STONE MOUNTAIN, GA, 30083","Match","Exact","643 ROCKBOROUGH DR, STONE MOUNTAIN, GA, 30083",23364812,"R"
265460,"643 S 150TH ST","BURIEN","WA",98148,47.4687253110001,-122.325410244,460,"643 S 150TH ST, BURIEN, WA, 98148","Match","Exact","643 S 150TH ST, BURIEN, WA, 98148",239765540,"R"
265461,"643 S 8TH AVE","WEST BEND","WI",53095,43.4159854050001,-88.18617062,461,"643 S 8TH AVE, WEST BEND, WI, 53095","Match","Exact","643 S 8TH AVE, WEST BEND, WI, 53095",79557941,"R"
265462,"643 S LYNHURST DR","INDIANAPOLIS","IN",46241,39.7571821920001,-86.2501862989999,462,"643 S LYNHURST DR, INDIANAPOLIS, IN, 46241","Match","Exact","643 S LYNHURST DR, INDIANAPOLIS, IN, 46241",107979638,"L"
265463,"643 SIMBURY STREET","COLUMBUS","OH",43228,39.9352926340001,-83.144672095,463,"643 SIMBURY STREET, COLUMBUS, OH, 43228","Match","Exact","643 SIMBURY ST, COLUMBUS, OH, 43228",218677347,"R"
265464,"643 SOUTH OLIVE STREET SUITE 530","LOS ANGELES","CA",90014,34.0474102950001,-118.254774453,464,"643 SOUTH OLIVE STREET SUITE 530, LOS ANGELES, CA, 90014","Match","Exact","643 S OLIVE ST, LOS ANGELES, CA, 90014",141617213,"R"
265465,"643 STEWART CT","GURNEE","IL",60031,42.351729898,-87.942668177,465,"643 STEWART CT, GURNEE, IL, 60031","Match","Exact","643 STEWART CT, GURNEE, IL, 60031",119639879,"R"
265466,"643 SURREY LN","MARTINEZ","GA",30907,33.55907697,-82.075642008,466,"643 SURREY LN, MARTINEZ, GA, 30907","Match","Exact","643 SURREY LN, MARTINEZ, GA, 30907",629836808,"L"
265467,"643 THIEROT AVE APT 1","BRONX","NY",10473,40.8181945700001,-73.861266341,467,"643 THIEROT AVE APT 1, BRONX, NY, 10473","Match","Non_Exact","643 THIERIOT AVE, BRONX, NY, 10473",80305133,"L"
265468,"643 W 131ST ST","COMPTON","CA",90222,33.913324216,-118.236412709,468,"643 W 131ST ST, COMPTON, CA, 90222","Match","Exact","643 W 131ST ST, COMPTON, CA, 90222",141674788,"R"
265469,"643 W LUMSDEN ROAD","BRANDON","FL",33511,27.9231938040001,-82.296936735,469,"643 W LUMSDEN ROAD, BRANDON, FL, 33511","Match","Exact","643 W LUMSDEN RD, BRANDON, FL, 33511",104615085,"R"
265470,"643 WEST FIRST STREET","RIALTO","CA",92376,34.100569744,-117.380551906,470,"643 WEST FIRST STREET, RIALTO, CA, 92376","Match","Exact","643 W 1ST ST, RIALTO, CA, 92376",144644090,"L"
265471,"643 WEST NOCTURNE DRIVE","NASHVILLE","TN",37207,36.2108174900001,-86.801657742,471,"643 WEST NOCTURNE DRIVE, NASHVILLE, TN, 37207","Match","Exact","643 W NOCTURNE DR, NASHVILLE, TN, 37207",97184321,"L"
265472,"643 WESTSHIRE CT NW","COMSTOCK PARK","MI",49321,43.048548383,-85.686251795,472,"643 WESTSHIRE CT NW, COMSTOCK PARK, MI, 49321","Match","Exact","643 WESTSHIRE CT NW, COMSTOCK PARK, MI, 49321",12450701,"R"
265473,"643 ZUNI CIRCLE","FORT COLLINS","CO",80526,40.544960528,-105.087509863,473,"643 ZUNI CIRCLE, FORT COLLINS, CO, 80526","Match","Exact","643 ZUNI CIR, FORT COLLINS, CO, 80526",188538023,"L"
265474,"6430 BELLEVUE PL","FREDERICK","MD",21701,39.4091284240001,-77.333965329,474,"6430 BELLEVUE PL, FREDERICK, MD, 21701","Match","Exact","6430 BELLEVUE PL, FREDERICK, MD, 21701",608291731,"R"
265475,"6430 BLENHEIM RD","POWHATAN","VA",23139,37.523556893,-78.103533559,475,"6430 BLENHEIM RD, POWHATAN, VA, 23139","Match","Exact","6430 BLENHEIM RD, POWHATAN, VA, 23139",73826733,"R"
265476,"6430 CASCADE DRIVE","LINCOLN","NE",68504,40.8751569680001,-96.6724530709999,476,"6430 CASCADE DRIVE, LINCOLN, NE, 68504","Match","Exact","6430 CASCADE DR, LINCOLN, NE, 68504",28281658,"R"
265477,"6430 CRESTVIEW AVE","CINCINNATI","OH",45213,39.19303089,-84.419681069,477,"6430 CRESTVIEW AVE, CINCINNATI, OH, 45213","Match","Exact","6430 CRESTVIEW AVE, CINCINNATI, OH, 45213",103931731,"R"
265478,"6430 E MULBERRY ST","EVANSVILLE","IN",47715,37.9685573520001,-87.4729209449999,478,"6430 E MULBERRY ST, EVANSVILLE, IN, 47715","Match","Exact","6430 E MULBERRY ST, EVANSVILLE, IN, 47715",39787700,"R"
265479,"6430 ELLISON AVE","OMAHA","NE",68104,41.309459071,-96.011647146,479,"6430 ELLISON AVE, OMAHA, NE, 68104","Match","Exact","6430 ELLISON AVE, OMAHA, NE, 68104",116975798,"R"
265480,"6430 FAIRBORN TERRACE","NEW CARROLLTON","MD",20784,38.972817901,-76.879336957,480,"6430 FAIRBORN TERRACE, NEW CARROLLTON, MD, 20784","Match","Exact","6430 FAIRBORN TER, NEW CARROLLTON, MD, 20784",76308217,"L"
265481,"6430 GASTON AVE","DALLAS","TX",75214,32.8149153790001,-96.751754336,481,"6430 GASTON AVE, DALLAS, TX, 75214","Match","Exact","6430 GASTON AVE, DALLAS, TX, 75214",103233080,"R"
265482,"6430 HARBOR MIST","MISSOURI CITY","TX",77459,29.5626817260001,-95.575110498,482,"6430 HARBOR MIST, MISSOURI CITY, TX, 77459","Match","Non_Exact","6430 HARBOURMIST DR, MISSOURI CITY, TX, 77459",638590916,"R"
265483,"6430 LAUREN COURT","ORLANDDO","FL",32818,28.564940802,-81.47015701,483,"6430 LAUREN COURT, ORLANDDO, FL, 32818","Match","Non_Exact","6430 LAUREN CT, ORLANDO, FL, 32818",94271351,"L"
265484,"6430 LAUREN CT","ORLANDO","FL",32818,28.564940802,-81.47015701,484,"6430 LAUREN CT, ORLANDO, FL, 32818","Match","Exact","6430 LAUREN CT, ORLANDO, FL, 32818",94271351,"L"
265485,"6430 MARKET STREET","UPPER DARBY","PA",19082,39.9627636760001,-75.251520703,485,"6430 MARKET STREET, UPPER DARBY, PA, 19082","Match","Exact","6430 MARKET ST, UPPER DARBY, PA, 19082",636399573,"L"
265486,"6430 MILLER","ARVADA","CO",80001,NA,NA,486,"6430 MILLER, ARVADA, CO, 80001","No_Match",NA,NA,NA,NA
265487,"6430 N BOOMER RD","ENID","OK",73703,36.460193556,-97.997025911,487,"6430 N BOOMER RD, ENID, OK, 73703","Match","Exact","6430 BOOMER RD, ENID, OK, 73703",606368189,"L"
265488,"6430 N HAYWOOD DR","HOUSTON","TX",77061,29.671205749,-95.293326248,488,"6430 N HAYWOOD DR, HOUSTON, TX, 77061","Match","Exact","6430 N HAYWOOD DR, HOUSTON, TX, 77061",96092101,"R"
265489,"6430 N SMEDLEY ST","PHILADELPHIA","PA",19126,40.051599557,-75.146105259,489,"6430 N SMEDLEY ST, PHILADELPHIA, PA, 19126","Match","Exact","6430 N SMEDLEY ST, PHILADELPHIA, PA, 19126",131413718,"L"
265490,"6430 RANDY ST","RIO LINDA","CA",95673,38.684900315,-121.464323855,490,"6430 RANDY ST, RIO LINDA, CA, 95673","Match","Exact","6430 RANDY ST, RIO LINDA, CA, 95673",133319648,"R"
265491,"6430 READ STREET","OMAHA","TX",68152,NA,NA,491,"6430 READ STREET, OMAHA, TX, 68152","No_Match",NA,NA,NA,NA
265492,"6430 ROSEMOOR STREET","PITTSBURGH","PA",15217,40.4225839110001,-79.9244084429999,492,"6430 ROSEMOOR STREET, PITTSBURGH, PA, 15217","Match","Exact","6430 ROSEMOOR ST, PITTSBURGH, PA, 15217",639675848,"R"
265493,"6430 S ASHLAND AVE","CHICAGO","IL",60636,41.777032639,-87.664158979,493,"6430 S ASHLAND AVE, CHICAGO, IL, 60636","Match","Exact","6430 S ASHLAND AVE, CHICAGO, IL, 60636",111820745,"R"
265494,"6430 S UNION RD","MANITOWOC","WI",54220,44.020606936,-87.781661967,494,"6430 S UNION RD, MANITOWOC, WI, 54220","Match","Exact","6430 S UNION RD, MANITOWOC, WI, 54220",147959450,"L"
265495,"6430 STONEY ISLAND AVENUE 2208","CHICAGO","IL",60637,41.7781665050001,-87.586399161,495,"6430 STONEY ISLAND AVENUE 2208, CHICAGO, IL, 60637","Match","Non_Exact","6430 S STONY ISLAND AVE, CHICAGO, IL, 60637",111774528,"R"
265496,"6430 VICKSBURG","NEW ORLEANS","LA",70124,30.0073197080001,-90.106471918,496,"6430 VICKSBURG, NEW ORLEANS, LA, 70124","Match","Non_Exact","6430 VICKSBURG ST, NEW ORLEANS, LA, 70124",191702955,"L"
265497,"6430 WHEELER ROAD","FAYETTEVILLE","AR",72704,36.108233727,-94.2536183289999,497,"6430 WHEELER ROAD, FAYETTEVILLE, AR, 72704","Match","Exact","6430 WHEELER RD, FAYETTEVILLE, AR, 72704",637578227,"R"
265498,"6431 41ST AVE N","SAINT PETERSBURG","FL",33709,27.8091071320001,-82.7253719989999,498,"6431 41ST AVE N, SAINT PETERSBURG, FL, 33709","Match","Exact","6431 41ST AVE N, SAINT PETERSBURG, FL, 33709",124695981,"R"
265499,"6431 BONNIE CHASE LANE","KATY","TX",77449,29.86881736,-95.689547052,499,"6431 BONNIE CHASE LANE, KATY, TX, 77449","Match","Exact","6431 BONNIE CHASE LN, KATY, TX, 77449",624621553,"R"
265500,"6431 E PRESIDIO STREET","MESA","AZ",85215,33.4736540970001,-111.691554831,500,"6431 E PRESIDIO STREET, MESA, AZ, 85215","Match","Exact","6431 E PRESIDIO ST, MESA, AZ, 85215",128377250,"L"
