"ID","Address","City","State","Zip","lat","long","id","input_address","match_indicator","match_type","matched_address","tiger_line_id","tiger_side"
312501,"9150 ACADEMY ROAD","PHILADELPHIA","PA",19114,40.0569396070001,-75.0084428659999,1,"9150 ACADEMY ROAD, PHILADELPHIA, PA, 19114","Match","Exact","9150 ACADEMY RD, PHILADELPHIA, PA, 19114",131433040,"L"
312502,"9150 DAUCHY AVENUE","RIVERSIDE","CA",92508,33.8844551550001,-117.340075946,2,"9150 DAUCHY AVENUE, RIVERSIDE, CA, 92508","Match","Exact","9150 DAUCHY AVE, RIVERSIDE, CA, 92508",633957471,"L"
312503,"9150 E CENTER AVE 4A","DENVER","CO",80247,NA,NA,3,"9150 E CENTER AVE 4A, DENVER, CO, 80247","No_Match",NA,NA,NA,NA
312504,"9150 HIGHWAY 6 N APT 1104","HOUSTON","TX",77095,29.9104319360001,-95.627986418,4,"9150 HIGHWAY 6 N APT 1104, HOUSTON, TX, 77095","Match","Exact","9150 HWY 6 N, HOUSTON, TX, 77095",642107240,"R"
312505,"9150 HWY 6E","KELLOGG","IA",50135,NA,NA,5,"9150 HWY 6E, KELLOGG, IA, 50135","No_Match",NA,NA,NA,NA
312506,"9150 LANDON HOUSE LANE","FREDERICK","MD",21704,39.3269733540001,-77.348832063,6,"9150 LANDON HOUSE LANE, FREDERICK, MD, 21704","Match","Non_Exact","9150 LANDONHOUSE LN, FREDERICK, MD, 21704",649783065,"R"
312507,"9150 MARSHALL STREET - SUITE 11","PHILADELPHIA","PA",19114,40.072237633,-75.032218938,7,"9150 MARSHALL STREET - SUITE 11, PHILADELPHIA, PA, 19114","Match","Exact","9150 MARSHALL ST, PHILADELPHIA, PA, 19114",131450325,"R"
312508,"9150 NW 38TH DRIVE APT 108","CORAL SPRINGS","FL",33065,26.2772114430001,-80.2476125699999,8,"9150 NW 38TH DRIVE APT 108, CORAL SPRINGS, FL, 33065","Match","Non_Exact","9150 NW 38TH DR, CORAL SPRINGS, FL, 33065",114763185,"L"
312509,"9150 S COULTER ST","AMARILLO","TX",79119,35.115307317,-101.919816032,9,"9150 S COULTER ST, AMARILLO, TX, 79119","Match","Exact","9150 S COULTER ST, AMARILLO, TX, 79119",640801261,"L"
312510,"9150 SEA VIEW CT","NEW HAVEN","IN",46774,41.049683884,-85.021887527,10,"9150 SEA VIEW CT, NEW HAVEN, IN, 46774","Match","Non_Exact","9150 SEAVIEW CT, NEW HAVEN, IN, 46774",6407790,"R"
312511,"9150 STATE ROAD 64","GEORGETOWN","IN",47122,38.2944992280001,-85.9781651,11,"9150 STATE ROAD 64, GEORGETOWN, IN, 47122","Match","Exact","9150 STATE RD 64, GEORGETOWN, IN, 47122",89545651,"L"
312512,"9150 W ATLANTIC BLVD APT 1727","CORAL SPRINGS","FL",33071,26.2388145670001,-80.248671917,12,"9150 W ATLANTIC BLVD APT 1727, CORAL SPRINGS, FL, 33071","Match","Non_Exact","9150 W ATLANTIC BLVD, CORAL SPRINGS, FL, 33071",653165195,"R"
312513,"9150 WILSHIRE BOULEVARD - 203","BEVERLY HILLS","CA",90212,34.0670517630001,-118.391140415,13,"9150 WILSHIRE BOULEVARD - 203, BEVERLY HILLS, CA, 90212","Match","Exact","9150 WILSHIRE BLVD, BEVERLY HILLS, CA, 90212",141572576,"L"
312514,"9151 ATLANTA AVE 5363","HUNTINGTON BEACH","CA",92646,NA,NA,14,"9151 ATLANTA AVE 5363, HUNTINGTON BEACH, CA, 92646","No_Match",NA,NA,NA,NA
312515,"9151 ATLANTA AVE NUM 8384","HUNTINGTON BEACH","CA",92615,NA,NA,15,"9151 ATLANTA AVE NUM 8384, HUNTINGTON BEACH, CA, 92615","No_Match",NA,NA,NA,NA
312516,"9151 ATLANTA AVE UNIT 5700","HUNTINGTON BEACH","CA",92615,NA,NA,16,"9151 ATLANTA AVE UNIT 5700, HUNTINGTON BEACH, CA, 92615","No_Match",NA,NA,NA,NA
312517,"9151 ATLANTA AVE UNIT 8206","HUNTINGTON BEACH","CA",92615,NA,NA,17,"9151 ATLANTA AVE UNIT 8206, HUNTINGTON BEACH, CA, 92615","No_Match",NA,NA,NA,NA
312518,"9151 ATLANTA AVENUE 6429","HUNTINGTON BEACH","CA",92615,NA,NA,18,"9151 ATLANTA AVENUE 6429, HUNTINGTON BEACH, CA, 92615","No_Match",NA,NA,NA,NA
312519,"9151 E HARVARD AVE","DENVER","CO",80231,39.6693424580001,-104.882020139,19,"9151 E HARVARD AVE, DENVER, CO, 80231","Match","Exact","9151 E HARVARD AVE, DENVER, CO, 80231",177557425,"L"
312520,"9151 NORTH SWAN CIRCLE","BRENTWOOD","MO",63144,38.627507264,-90.354950302,20,"9151 NORTH SWAN CIRCLE, BRENTWOOD, MO, 63144","Match","Exact","9151 N SWAN CIR, BRENTWOOD, MO, 63144",100135122,"R"
312521,"9151 OAK AVE","ORANGEVALE","CA",95662,38.7001111230001,-121.213126098,21,"9151 OAK AVE, ORANGEVALE, CA, 95662","Match","Exact","9151 OAK AVE, ORANGEVALE, CA, 95662",133428011,"L"
312522,"9151 SUN COUNTRY DR","ELIZABETH","CO",80107,39.5220043960001,-104.493293071,22,"9151 SUN COUNTRY DR, ELIZABETH, CO, 80107","Match","Exact","9151 SUN COUNTRY DR, ELIZABETH, CO, 80107",636168830,"L"
312523,"9151 TARA BLVD SUITE 3CA01","JONESBORO","GA",30236,33.512659849,-84.360262894,23,"9151 TARA BLVD SUITE 3CA01, JONESBORO, GA, 30236","Match","Exact","9151 TARA BLVD, JONESBORO, GA, 30236",638102045,"R"
312524,"9152 BIRMINGHAM DRIVE","PALM BEACH GARDENS","FL",33410,26.8114938620001,-80.098996524,24,"9152 BIRMINGHAM DRIVE, PALM BEACH GARDENS, FL, 33410","Match","Exact","9152 BIRMINGHAM DR, PALM BEACH GARDENS, FL, 33410",115267204,"R"
312525,"9152 POINT CYPRESS DRIVE","ORLANDO","FL",32836,28.440376992,-81.5144681259999,25,"9152 POINT CYPRESS DRIVE, ORLANDO, FL, 32836","Match","Exact","9152 POINT CYPRESS DR, ORLANDO, FL, 32836",94337235,"L"
312526,"9152 W VAN BUREN","TOLLESON","AZ",85353,33.4503799080001,-112.256517854,26,"9152 W VAN BUREN, TOLLESON, AZ, 85353","Match","Non_Exact","9152 W VAN BUREN ST, TOLLESON, AZ, 85353",128171747,"R"
312527,"9153 KANAWAHA CT","DENHAM SPRINGS","LA",70726,30.481037116,-90.9351275719999,27,"9153 KANAWAHA CT, DENHAM SPRINGS, LA, 70726","Match","Non_Exact","9153 KANAWHA CT, DENHAM SPRINGS, LA, 70726",612911777,"R"
312528,"9153 OVERTON AVE","SAN DIEGO","CA",92123,32.7941775460001,-117.129260283,28,"9153 OVERTON AVE, SAN DIEGO, CA, 92123","Match","Exact","9153 OVERTON AVE, SAN DIEGO, CA, 92123",195321443,"R"
312529,"9153 SW 142 PL","MIAMI","FL",33186,25.6811338740001,-80.4238138599999,29,"9153 SW 142 PL, MIAMI, FL, 33186","Match","Exact","9153 SW 142ND PL, MIAMI, FL, 33186",116090937,"R"
312530,"9153 W RICE AVE","LITTLETON","CO",80123,39.637980161,-105.09943738,30,"9153 W RICE AVE, LITTLETON, CO, 80123","Match","Exact","9153 W RICE AVE, LITTLETON, CO, 80123",177321508,"R"
312531,"9154 DELEMAR CT","WELLINGTON","FL",33414,26.639052495,-80.1879731,31,"9154 DELEMAR CT, WELLINGTON, FL, 33414","Match","Exact","9154 DELEMAR CT, WELLINGTON, FL, 33414",115583955,"R"
312532,"9154 MARLOVE OAKS LN","OWINGS MILLS","MD",21117,39.3893385550001,-76.789229443,32,"9154 MARLOVE OAKS LN, OWINGS MILLS, MD, 21117","Match","Exact","9154 MARLOVE OAKS LN, OWINGS MILLS, MD, 21117",635368558,"R"
312533,"9154 MAYTIDE ST","WALDORF","MD",20603,38.6159388360001,-77.0011523219999,33,"9154 MAYTIDE ST, WALDORF, MD, 20603","Match","Exact","9154 MAYTIDE ST, WALDORF, MD, 20603",650904064,"R"
312534,"9155 CHAMBERLIN RD","TWINSBURG","OH",44087,41.3187647230001,-81.4727097159999,34,"9155 CHAMBERLIN RD, TWINSBURG, OH, 44087","Match","Exact","9155 CHAMBERLIN RD, TWINSBURG, OH, 44087",625720629,"R"
312535,"9155 KEATING AVE","SKOKIE","IL",60076,42.047587364,-87.745734496,35,"9155 KEATING AVE, SKOKIE, IL, 60076","Match","Exact","9155 KEATING AVE, SKOKIE, IL, 60076",605247891,"R"
312536,"9155 NESBIT FERRY RD UNIT 55","ALPHARETTA","GA",30022,NA,NA,36,"9155 NESBIT FERRY RD UNIT 55, ALPHARETTA, GA, 30022","No_Match",NA,NA,NA,NA
312537,"9155 OGDEN PARK COURT","BRISTOW","VA",20136,38.7634267270001,-77.564385457,37,"9155 OGDEN PARK COURT, BRISTOW, VA, 20136","Match","Exact","9155 OGDEN PARK CT, BRISTOW, VA, 20136",619921676,"R"
312538,"9155 PACIFIC AVENUE NUMBER 219","ANAHEIM","CA",92804,33.807690021,-117.972813754,38,"9155 PACIFIC AVENUE NUMBER 219, ANAHEIM, CA, 92804","Match","Exact","9155 PACIFIC AVE, ANAHEIM, CA, 92804",640485157,"L"
312539,"9155 SOUTH DADELAND BLVD SUITE 1218","MIAMI","FL",33156,25.6884233500001,-80.313489892,39,"9155 SOUTH DADELAND BLVD SUITE 1218, MIAMI, FL, 33156","Match","Non_Exact","9155 DADELAND BLVD, MIAMI, FL, 33156",642228392,"L"
312540,"9155 SWINTON AVE","NORTH HILLS","CA",91343,34.2374105820001,-118.486145834,40,"9155 SWINTON AVE, NORTH HILLS, CA, 91343","Match","Exact","9155 SWINTON AVE, NORTH HILLS, CA, 91343",141544748,"L"
312541,"9156 BERNARDO LAKES DR","SAN DIEGO","CA",92127,33.0239129720001,-117.131952549,41,"9156 BERNARDO LAKES DR, SAN DIEGO, CA, 92127","Match","Exact","9156 BERNARDO LAKES DR, SAN DIEGO, CA, 92127",195730013,"L"
312542,"9156 NW 38 PLACE","SUNRISE","FL",33351,26.172309607,-80.2726618579999,42,"9156 NW 38 PLACE, SUNRISE, FL, 33351","Match","Exact","9156 NW 38TH PL, SUNRISE, FL, 33351",645584663,"L"
312543,"9156 SUGARSTONE CIRCLE","HIGHLANDS RANCH","CO",80130,39.5475356810001,-104.924585032,43,"9156 SUGARSTONE CIRCLE, HIGHLANDS RANCH, CO, 80130","Match","Non_Exact","9156 S SUGARSTONE CIR, HIGHLANDS RANCH, CO, 80130",645009722,"R"
312544,"9157 A 45TH AVE SW APT A","SEATTLE","WA",98136,47.521920461,-122.390213374,44,"9157 A 45TH AVE SW APT A, SEATTLE, WA, 98136","Match","Exact","9157 45TH AVE SW, SEATTLE, WA, 98136",629680658,"R"
312545,"9157 STOAKES AVE","DOWNEY","CA",90240,33.9591395300001,-118.115985904,45,"9157 STOAKES AVE, DOWNEY, CA, 90240","Match","Exact","9157 STOAKES AVE, DOWNEY, CA, 90240",141737968,"R"
312546,"9158 NEWTON FALLS ROAD","RAVENNA","OH",44266,41.1662653700001,-81.06079548,46,"9158 NEWTON FALLS ROAD, RAVENNA, OH, 44266","Match","Exact","9158 NEWTON FALLS RD, RAVENNA, OH, 44266",137548470,"R"
312547,"9159 FAWN GROVE DRIVE","LAS VEGAS","NV",89147,36.1208011470001,-115.291335824,47,"9159 FAWN GROVE DRIVE, LAS VEGAS, NV, 89147","Match","Exact","9159 FAWN GROVE DR, LAS VEGAS, NV, 89147",201901158,"L"
312548,"9159 HIGHLAND RIDGE WAY","TAMPA","FL",33647,28.1369905010001,-82.339465757,48,"9159 HIGHLAND RIDGE WAY, TAMPA, FL, 33647","Match","Exact","9159 HIGHLAND RIDGE WAY, TAMPA, FL, 33647",104581989,"R"
312549,"9159 MAIN ST","CLARENCE","NY",14031,42.969307745,-78.649619015,49,"9159 MAIN ST, CLARENCE, NY, 14031","Match","Exact","9159 MAIN ST, CLARENCE, NY, 14031",638085187,"R"
312550,"9159 MAPLELEAF CT","HESPERIA","CA",92344,34.4164257780001,-117.35111783,50,"9159 MAPLELEAF CT, HESPERIA, CA, 92344","Match","Exact","9159 MAPLELEAF CT, HESPERIA, CA, 92344",144747189,"R"
312551,"915A CARMANS RD-PMB NO 242","MASSAPEQUA","NY",11758,40.697310929,-73.4328927619999,51,"915A CARMANS RD-PMB NO 242, MASSAPEQUA, NY, 11758","Match","Non_Exact","915 CARMANS RD, MASSAPEQUA, NY, 11758",147652779,"R"
312552,"915B PINER RD","SANTA ROSA","CA",95403,38.472009492,-122.737647279,52,"915B PINER RD, SANTA ROSA, CA, 95403","Match","Exact","915 PINER RD, SANTA ROSA, CA, 95403",67467150,"R"
312553,"916 12TH AVE N","ST CLOUD","MN",56303,45.5664094540001,-94.1736636159999,53,"916 12TH AVE N, ST CLOUD, MN, 56303","Match","Exact","916 12TH AVE N, SAINT CLOUD, MN, 56303",107414877,"R"
312554,"916 22ND ST APT 6","SACRAMENTO","CA",95816,NA,NA,54,"916 22ND ST APT 6, SACRAMENTO, CA, 95816","No_Match",NA,NA,NA,NA
312555,"916 5TH AVE STE 400","HUNTINGTON","WV",25701,38.419449027,-82.4431543219999,55,"916 5TH AVE STE 400, HUNTINGTON, WV, 25701","Match","Exact","916 5TH AVE, HUNTINGTON, WV, 25701",101317605,"L"
312556,"916 6TH STREET NE","WASHINGTON","DC",20002,38.901584115,-76.998451457,56,"916 6TH STREET NE, WASHINGTON, DC, 20002","Match","Exact","916 6TH ST NE, WASHINGTON, DC, 20002",76229737,"L"
312557,"916 9TH AVENUE","NEW BRIGHTON","PA",15066,40.7360724970001,-80.3094724859999,57,"916 9TH AVENUE, NEW BRIGHTON, PA, 15066","Match","Exact","916 9TH AVE, NEW BRIGHTON, PA, 15066",52559967,"R"
312558,"916 ACAPULCO ST","LAGUNA BEACH","CA",92651,33.528436663,-117.756469626,58,"916 ACAPULCO ST, LAGUNA BEACH, CA, 92651","Match","Exact","916 ACAPULCO ST, LAGUNA BEACH, CA, 92651",144069453,"R"
312559,"916 ALBERT AVE","SYCAMORE","IL",60178,41.985094954,-88.700683206,59,"916 ALBERT AVE, SYCAMORE, IL, 60178","Match","Exact","916 ALBERT AVE, SYCAMORE, IL, 60178",52258687,"L"
312560,"916 ANDOVER COURT","WOODSTOCK","GA",30188,34.1231023400001,-84.463462103,60,"916 ANDOVER COURT, WOODSTOCK, GA, 30188","Match","Exact","916 ANDOVER CT, WOODSTOCK, GA, 30188",68829263,"R"
312561,"916 ARBERDEEN DR","GREENSBURG","PA",15601,40.2937876440001,-79.583247974,61,"916 ARBERDEEN DR, GREENSBURG, PA, 15601","Match","Exact","916 ARBERDEEN DR, GREENSBURG, PA, 15601",649961419,"R"
312562,"916 ARNOLD AVE","POINT PLEASANT","NJ",8742,40.0881906270001,-74.0604091,62,"916 ARNOLD AVE, POINT PLEASANT, NJ, 8742","Match","Exact","916 ARNOLD AVE, PT PLEASANT, NJ, 08742",203735553,"L"
312563,"916 BAYRIDGE TERRACE","GAITHERSBURG","MD",20878,39.1309798990001,-77.2347902669999,63,"916 BAYRIDGE TERRACE, GAITHERSBURG, MD, 20878","Match","Exact","916 BAYRIDGE TER, GAITHERSBURG, MD, 20878",62087205,"L"
312564,"916 BELLSTONE RD","ST LOUIS","MO",63119,38.574716778,-90.335296478,64,"916 BELLSTONE RD, ST LOUIS, MO, 63119","Match","Exact","916 BELLSTONE RD, SAINT LOUIS, MO, 63119",100174889,"L"
312565,"916 CASEY CREEK LA","GREENVILLE","WV",24945,NA,NA,65,"916 CASEY CREEK LA, GREENVILLE, WV, 24945","No_Match",NA,NA,NA,NA
312566,"916 CEDAR RIDGE DR","CEDAR HILL","TX",75104,32.5731222090001,-96.957161978,66,"916 CEDAR RIDGE DR, CEDAR HILL, TX, 75104","Match","Exact","916 CEDAR RIDGE DR, CEDAR HILL, TX, 75104",102993523,"R"
312567,"916 CENTRAL AVENUE WEST","SAINT PAUL","MN",55104,NA,NA,67,"916 CENTRAL AVENUE WEST, SAINT PAUL, MN, 55104","No_Match",NA,NA,NA,NA
312568,"916 CHARTRES STREET","LAKE CHARLES","LA",70605,30.18079341,-93.2347931529999,68,"916 CHARTRES STREET, LAKE CHARLES, LA, 70605","Match","Non_Exact","916 CHARTRES, LAKE CHARLES, LA, 70605",600630135,"L"
312569,"916 COOPER STREET","SALINE","LA",71070,32.1639433720001,-92.974343473,69,"916 COOPER STREET, SALINE, LA, 71070","Match","Exact","916 COOPER ST, SALINE, LA, 71070",114410798,"L"
312570,"916 COUNTY ROAD 610","ROGERSVILLE","AL",35652,34.8113107830001,-87.2970622399999,70,"916 COUNTY ROAD 610, ROGERSVILLE, AL, 35652","Match","Exact","916 CO RD 610, ROGERSVILLE, AL, 35652",41318042,"L"
312571,"916 CROWN POINT CT","EVANSVILLE","IN",47710,38.036106707,-87.5751559729999,71,"916 CROWN POINT CT, EVANSVILLE, IN, 47710","Match","Exact","916 CROWN POINT CT, EVANSVILLE, IN, 47710",39790571,"R"
312572,"916 CYPRESS RUN CV","JONESBORO","AR",72401,35.8523423600001,-90.641598173,72,"916 CYPRESS RUN CV, JONESBORO, AR, 72401","Match","Non_Exact","916 CYPRESS RUN COVE, JONESBORO, AR, 72405",641805566,"L"
312573,"916 CYPRESS ST","IRWIN","PA",15642,40.322359313,-79.692486265,73,"916 CYPRESS ST, IRWIN, PA, 15642","Match","Exact","916 CYPRESS ST, IRWIN, PA, 15642",52996787,"R"
312574,"916 CYPRESS TRIAL","OFALLON","MO",63368,38.7632797840001,-90.746624592,74,"916 CYPRESS TRIAL, OFALLON, MO, 63368","Match","Non_Exact","916 CYPRESS TRAIL DR, O FALLON, MO, 63368",605580842,"L"
312575,"916 DUNN HILL ROAD","MONROETON","PA",18832,41.7168702430001,-76.5161219569999,75,"916 DUNN HILL ROAD, MONROETON, PA, 18832","Match","Exact","916 DUNN HILL RD, MONROETON, PA, 18832",648170139,"L"
312576,"916 E 101 ST","BROOKLYN","NY",11236,40.645265011,-73.897216341,76,"916 E 101 ST, BROOKLYN, NY, 11236","Match","Exact","916 E 101ST ST, BROOKLYN, NY, 11236",59086736,"R"
312577,"916 E BASELINE ROAD SUITE 130","MESA","AZ",85204,33.37891964,-111.811772346,77,"916 E BASELINE ROAD SUITE 130, MESA, AZ, 85204","Match","Non_Exact","916 E BASELINE RD, MESA, AZ, 85204",128254428,"L"
312578,"916 E BUTLER STREET","RAYNE","LA",70578,30.2288334240001,-92.260500021,78,"916 E BUTLER STREET, RAYNE, LA, 70578","Match","Exact","916 E BUTLER ST, RAYNE, LA, 70578",88303678,"R"
312579,"916 E GEORGIA ROAD","SIMPSONVILLE","SC",29681,34.7405037230001,-82.2364725799999,79,"916 E GEORGIA ROAD, SIMPSONVILLE, SC, 29681","Match","Exact","916 E GEORGIA RD, SIMPSONVILLE, SC, 29681",38317909,"R"
312580,"916 E GUSTAVUS ST","LAREDO","TX",78040,27.515736733,-99.487328172,80,"916 E GUSTAVUS ST, LAREDO, TX, 78040","Match","Exact","916 E GUSTAVUS ST, LAREDO, TX, 78040",21672315,"L"
312581,"916 E MICHIGAN RD","INDIANAPOLIS","IN",46202,39.7737652980001,-86.141570045,81,"916 E MICHIGAN RD, INDIANAPOLIS, IN, 46202","Match","Non_Exact","916 E MICHIGAN ST, INDIANAPOLIS, IN, 46202",108052030,"L"
312582,"916 EAST CONVENT STREET","VICTORIA","TX",77901,28.792932814,-96.9991365229999,82,"916 EAST CONVENT STREET, VICTORIA, TX, 77901","Match","Exact","916 E CONVENT ST, VICTORIA, TX, 77901",649639950,"L"
312583,"916 EAST LAKE AVE","WATSONVILLE","CA",95076,36.9237253050001,-121.746498096,83,"916 EAST LAKE AVE, WATSONVILLE, CA, 95076","Match","Exact","916 E LAKE AVE, WATSONVILLE, CA, 95076",125514161,"R"
312584,"916 ESPLANADE APT 404","REDONDO BEACH","CA",90277,33.8273790920001,-118.390013767,84,"916 ESPLANADE APT 404, REDONDO BEACH, CA, 90277","Match","Exact","916 ESPLANADE, REDONDO BEACH, CA, 90277",141584005,"L"
312585,"916 F MCALWAY ROAD","CHARLOTTE","NC",28211,35.1902069930001,-80.7937007949999,85,"916 F MCALWAY ROAD, CHARLOTTE, NC, 28211","Match","Exact","916 MCALWAY RD, CHARLOTTE, NC, 28211",70488989,"R"
312586,"916 FLEET STREET","CHILLICOTHE","OH",45601,39.3351402870001,-82.954590189,86,"916 FLEET STREET, CHILLICOTHE, OH, 45601","Match","Exact","916 FLEET ST, CHILLICOTHE, OH, 45601",37481912,"R"
312587,"916 G ST NW","WASHINGTON","DC",20001,38.898317713,-77.0243534589999,87,"916 G ST NW, WASHINGTON, DC, 20001","Match","Exact","916 G ST NW, WASHINGTON, DC, 20001",76226326,"L"
312588,"916 GRATIOT AVE","SAGINAW","MI",48602,43.4149726840001,-83.974011079,88,"916 GRATIOT AVE, SAGINAW, MI, 48602","Match","Exact","916 GRATIOT AVE, SAGINAW, MI, 48602",80214693,"R"
312589,"916 GREYSTONE DR","WEST CHESTER","PA",19380,39.978413693,-75.596926002,89,"916 GREYSTONE DR, WEST CHESTER, PA, 19380","Match","Exact","916 GREYSTONE DR, WEST CHESTER, PA, 19380",179519319,"L"
312590,"916 HEMLOCK","CHEYENNE","WY",82009,41.1826231840001,-104.846167094,90,"916 HEMLOCK, CHEYENNE, WY, 82009","Match","Non_Exact","916 HEMLOCK AVE, CHEYENNE, WY, 82009",160147112,"R"
312591,"916 HIGHLAND CIRCLE","MAGNOLIA","AR",71753,33.277065276,-93.230752437,91,"916 HIGHLAND CIRCLE, MAGNOLIA, AR, 71753","Match","Exact","916 HIGHLAND CIR, MAGNOLIA, AR, 71753",10674627,"R"
312592,"916 HUNTERS GLEN","MURPHY","TX",75094,33.029541915,-96.5955961779999,92,"916 HUNTERS GLEN, MURPHY, TX, 75094","Match","Exact","916 HUNTERS GLEN, MURPHY, TX, 75094",210508833,"L"
312593,"916 LAMOND AVE","DURHAM","NC",27701,36.002282575,-78.9084758669999,93,"916 LAMOND AVE, DURHAM, NC, 27701","Match","Exact","916 LAMOND AVE, DURHAM, NC, 27701",71739460,"R"
312594,"916 LOCHMOORE DRIVE","WAUNAKEE","WI",53597,43.2019280310001,-89.46083329,94,"916 LOCHMOORE DRIVE, WAUNAKEE, WI, 53597","Match","Exact","916 LOCHMOORE DR, WAUNAKEE, WI, 53597",49509556,"L"
312595,"916 LOWER RIVER RD","COVINGTON","GA",30016,33.527785013,-83.8966013799999,95,"916 LOWER RIVER RD, COVINGTON, GA, 30016","Match","Exact","916 LOWER RIVER RD, COVINGTON, GA, 30016",644922658,"L"
312596,"916 MAIN STREET","BUFFALO","NY",14202,42.8987663250001,-78.8701029489999,96,"916 MAIN STREET, BUFFALO, NY, 14202","Match","Exact","916 MAIN ST, BUFFALO, NY, 14202",48290857,"L"
312597,"916 MAIN STREET","LYNCHBURG","VA",24504,37.4146724560001,-79.1421288459999,97,"916 MAIN STREET, LYNCHBURG, VA, 24504","Match","Exact","916 MAIN ST, LYNCHBURG, VA, 24504",62626718,"L"
312598,"916 MANVEL AVE","CHANDLER","OK",74834,35.701331344,-96.880697379,98,"916 MANVEL AVE, CHANDLER, OK, 74834","Match","Exact","916 MANVEL AVE, CHANDLER, OK, 74834",143028540,"R"
312599,"916 MARGUERITE LN","CARLSBAD","CA",92011,33.1042907030001,-117.303717478,99,"916 MARGUERITE LN, CARLSBAD, CA, 92011","Match","Exact","916 MARGUERITE LN, CARLSBAD, CA, 92011",195291565,"L"
312600,"916 MELLON STREET","LITTLE ROCK","AR",72207,34.760296241,-92.3519372229999,100,"916 MELLON STREET, LITTLE ROCK, AR, 72207","Match","Exact","916 MELLON ST, LITTLE ROCK, AR, 72207",83504521,"L"
312601,"916 MICHIGAN AVE","PALM HARBOR","FL",34683,28.0762323210001,-82.7686145489999,101,"916 MICHIGAN AVE, PALM HARBOR, FL, 34683","Match","Exact","916 MICHIGAN AVE, PALM HARBOR, FL, 34683",124831417,"R"
312602,"916 MONTEVIDEO DRIVE SUITE D","LANSING","MI",48917,42.7240409570001,-84.633094329,102,"916 MONTEVIDEO DRIVE SUITE D, LANSING, MI, 48917","Match","Exact","916 MONTEVIDEO DR, LANSING, MI, 48917",12034738,"R"
312603,"916 MOORE LAKE DRIVE WEST","FRIDLEY","MN",55432,45.0808252590001,-93.24752126,103,"916 MOORE LAKE DRIVE WEST, FRIDLEY, MN, 55432","Match","Exact","916 MOORE LAKE DR W, FRIDLEY, MN, 55432",97490322,"R"
312604,"916 MT VERNON CHURCH ROAD","CHAPIN","SC",29036,NA,NA,104,"916 MT VERNON CHURCH ROAD, CHAPIN, SC, 29036","No_Match",NA,NA,NA,NA
312605,"916 N FULTON AVE","EVANSVILLE","IN",47710,37.986211934,-87.5810237869999,105,"916 N FULTON AVE, EVANSVILLE, IN, 47710","Match","Exact","916 N FULTON AVE, EVANSVILLE, IN, 47710",39781987,"L"
312606,"916 N MARKET STREET APT 3","INGLEWOOD","CA",90302,33.9749296470001,-118.356546316,106,"916 N MARKET STREET APT 3, INGLEWOOD, CA, 90302","Match","Non_Exact","916 N MARKET ST, INGLEWOOD, CA, 90302",141653902,"R"
312607,"916 N MLK BLVD LOT 15","AMERICUS","GA",31719,NA,NA,107,"916 N MLK BLVD LOT 15, AMERICUS, GA, 31719","No_Match",NA,NA,NA,NA
312608,"916 N SETON","MESA","AZ",85205,33.4324053450001,-111.71806023,108,"916 N SETON, MESA, AZ, 85205","Match","Exact","916 N SETON, MESA, AZ, 85205",128379521,"R"
312609,"916 OLD VILLAGE ROAD","GREENVILLE","NC",27834,35.6545811840001,-77.385876549,109,"916 OLD VILLAGE ROAD, GREENVILLE, NC, 27834","Match","Exact","916 OLD VILLAGE RD, GREENVILLE, NC, 27834",80042024,"L"
312610,"916 OXBOW LANE","DALLAS","TX",75241,32.67687848,-96.811386586,110,"916 OXBOW LANE, DALLAS, TX, 75241","Match","Exact","916 OXBOW LN, DALLAS, TX, 75241",102951680,"R"
312611,"916 PALM BOULEVARD","ISLE OF PALMS","SC",29451,32.7856451490001,-79.793286859,111,"916 PALM BOULEVARD, ISLE OF PALMS, SC, 29451","Match","Exact","916 PALM BLVD, ISLE OF PALMS, SC, 29451",108810275,"R"
312612,"916 PENDLETON DRIVE","MEDFORD","OR",97501,42.3468100160001,-122.902418737,112,"916 PENDLETON DRIVE, MEDFORD, OR, 97501","Match","Exact","916 PENDLETON DR, MEDFORD, OR, 97501",624463281,"R"
312613,"916 PENNSYLVANIA AVENUE SE","WASHINGTON","DC",20003,38.883630489,-76.993305194,113,"916 PENNSYLVANIA AVENUE SE, WASHINGTON, DC, 20003","Match","Exact","916 PENNSYLVANIA AVE SE, WASHINGTON, DC, 20003",76230690,"L"
312614,"916 PLANTATION PINE CIRCLE","GARNER","NC",27529,35.687525629,-78.5732600869999,114,"916 PLANTATION PINE CIRCLE, GARNER, NC, 27529","Match","Exact","916 PLANTATION PINE CIR, GARNER, NC, 27529",634095761,"L"
312615,"916 PLYMOUTH ROAD","NORTH BRUNSWICK","NJ",8902,NA,NA,115,"916 PLYMOUTH ROAD, NORTH BRUNSWICK, NJ, 8902","No_Match",NA,NA,NA,NA
312616,"916 ROBERTS RD","DELRAY BEACH","FL",33483,26.4931766920001,-80.060026512,116,"916 ROBERTS RD, DELRAY BEACH, FL, 33483","Match","Exact","916 ROBERTS RD, DELRAY BEACH, FL, 33483",115297867,"R"
312617,"916 ROBINSON ST","FREDONIA","KS",66736,37.528772114,-95.8233678139999,117,"916 ROBINSON ST, FREDONIA, KS, 66736","Match","Exact","916 ROBINSON ST, FREDONIA, KS, 66736",18497641,"L"
312618,"916 RUSSO ST","NEW IBERIA","LA",70563,30.0292322780001,-91.810487289,118,"916 RUSSO ST, NEW IBERIA, LA, 70563","Match","Non_Exact","916 RUSSO RD, NEW IBERIA, LA, 70563",624971804,"L"
312619,"916 S 20TH STREET UNIT A","PHILADELPHIA","PA",19146,39.940639731,-75.175971682,119,"916 S 20TH STREET UNIT A, PHILADELPHIA, PA, 19146","Match","Non_Exact","916 S 20TH ST, PHILADELPHIA, PA, 19146",131407266,"R"
312620,"916 S ELM ST","CELINA","OH",45822,40.539535438,-84.580095216,120,"916 S ELM ST, CELINA, OH, 45822","Match","Exact","916 ELM ST, CELINA, OH, 45822",43084468,"R"
312621,"916 S LAKESHORE DRIVE","LAKE VILLAGE","AR",71653,33.324157471,-91.2828674249999,121,"916 S LAKESHORE DRIVE, LAKE VILLAGE, AR, 71653","Match","Exact","916 S LAKESHORE DR, LAKE VILLAGE, AR, 71653",605659857,"L"
312622,"916 S SHERBOURNE APT 303","LOS ANGELES","CA",90035,NA,NA,122,"916 S SHERBOURNE APT 303, LOS ANGELES, CA, 90035","No_Match",NA,NA,NA,NA
312623,"916 S VINE AVENUE","PARK RIDGE","IL",60068,41.999966172,-87.8279035849999,123,"916 S VINE AVENUE, PARK RIDGE, IL, 60068","Match","Exact","916 VINE AVE, PARK RIDGE, IL, 60068",111733431,"R"
312624,"916 S WILLOWCREST WAY","LAGRANGE","GA",30240,33.053339678,-85.0927028629999,124,"916 S WILLOWCREST WAY, LAGRANGE, GA, 30240","Match","Exact","916 S WILLOWCREST WAY, LAGRANGE, GA, 30240",1761426,"L"
312625,"916 SE 164TH AVE STE 300","VANCOUVER","WA",98683,45.614589741,-122.504258313,125,"916 SE 164TH AVE STE 300, VANCOUVER, WA, 98683","Match","Non_Exact","916 SE 164TH AVE, VANCOUVER, WA, 98683",158368605,"R"
312626,"916 SEABROOK CT","LEXINGTON","SC",29072,34.021258645,-81.281986966,126,"916 SEABROOK CT, LEXINGTON, SC, 29072","Match","Exact","916 SEABROOK CT, LEXINGTON, SC, 29072",640908479,"R"
312627,"916 SMITH AVE","DEXTER","MO",63841,36.8039564790001,-89.980435523,127,"916 SMITH AVE, DEXTER, MO, 63841","Match","Exact","916 SMITH AVE, DEXTER, MO, 63841",35388652,"R"
312628,"916 SMITH AVE","MARSHFIELD","MO",65706,37.343431185,-92.920915637,128,"916 SMITH AVE, MARSHFIELD, MO, 65706","Match","Exact","916 SMITH AVE, MARSHFIELD, MO, 65706",26608825,"R"
312629,"916 SOUTH 6TH AVENUE WEST","NEWTON","IA",50208,41.6946446680001,-93.0642621219999,129,"916 SOUTH 6TH AVENUE WEST, NEWTON, IA, 50208","Match","Exact","916 S 6TH AVE W, NEWTON, IA, 50208",89425020,"L"
312630,"916 SPRINGDALE RD BLDG 1 UNIT 218","AUSTIN","TX",78702,30.26240662,-97.6975936009999,130,"916 SPRINGDALE RD BLDG 1 UNIT 218, AUSTIN, TX, 78702","Match","Exact","916 SPRINGDALE RD, AUSTIN, TX, 78702",63948122,"L"
312631,"916 SPRINGDALE ROAD BLDG 4  ST 102","AUSTIN","TX",78702,30.26240662,-97.6975936009999,131,"916 SPRINGDALE ROAD BLDG 4  ST 102, AUSTIN, TX, 78702","Match","Exact","916 SPRINGDALE RD, AUSTIN, TX, 78702",63948122,"L"
312632,"916 THIRD STREET","SPENCER","NC",28159,35.6998395260001,-80.434790124,132,"916 THIRD STREET, SPENCER, NC, 28159","Match","Exact","916 3RD ST, SPENCER, NC, 28159",25290405,"R"
312633,"916 VERDE DRIVE","SIERRA VISTA","AZ",85635,31.545011994,-110.265470798,133,"916 VERDE DRIVE, SIERRA VISTA, AZ, 85635","Match","Exact","916 VERDE DR, SIERRA VISTA, AZ, 85635",120949281,"L"
312634,"916 VOLUNTEER BOULEVARD SMC 435","KNOXVILLE","TN",37996,35.9564310800001,-83.9297780699999,134,"916 VOLUNTEER BOULEVARD SMC 435, KNOXVILLE, TN, 37996","Match","Non_Exact","916 VOLUNTEER BLVD, KNOXVILLE, TN, 37916",42620253,"L"
312635,"916 W 34TH STREET","LITTLE ROCK","AR",72206,34.7154605010001,-92.285633698,135,"916 W 34TH STREET, LITTLE ROCK, AR, 72206","Match","Exact","916 W 34TH ST, LITTLE ROCK, AR, 72206",83511331,"R"
312636,"916 W DAKIN APT 119","CHICAGO","IL",60613,NA,NA,136,"916 W DAKIN APT 119, CHICAGO, IL, 60613","No_Match",NA,NA,NA,NA
312637,"916 W UNIVERSITY PARKWAY","BALTIMORE","MD",21210,39.340724848,-76.63281311,137,"916 W UNIVERSITY PARKWAY, BALTIMORE, MD, 21210","Match","Exact","916 W UNIVERSITY PKWY, BALTIMORE, MD, 21210",206407329,"R"
312638,"916 WALNUT DRIVE","JEFFERSON","NC",28640,NA,NA,138,"916 WALNUT DRIVE, JEFFERSON, NC, 28640","No_Match",NA,NA,NA,NA
312639,"916 WEST 30TH STREET","ERIE","PA",16508,42.101745683,-80.090297909,139,"916 WEST 30TH STREET, ERIE, PA, 16508","Match","Exact","916 W 30TH ST, ERIE, PA, 16508",117494661,"R"
312640,"916 WEST AVE","PORT READING","NJ",7064,40.56518405,-74.252204201,140,"916 WEST AVE, PORT READING, NJ, 7064","Match","Exact","916 WEST AVE, PORT READING, NJ, 07064",60276334,"L"
312641,"916 WEST AVENUE","PORT READING","NJ",7064,40.56518405,-74.252204201,141,"916 WEST AVENUE, PORT READING, NJ, 7064","Match","Exact","916 WEST AVE, PORT READING, NJ, 07064",60276334,"L"
312642,"916 WILLIAMS","GREAT BEND","KS",67530,38.3604087740001,-98.7664923579999,142,"916 WILLIAMS, GREAT BEND, KS, 67530","Match","Non_Exact","916 WILLIAMS ST, GREAT BEND, KS, 67530",132559367,"R"
312643,"916 WINALL DOWN ROAD","ATLANTA","GA",30319,33.8642334410001,-84.357336362,143,"916 WINALL DOWN ROAD, ATLANTA, GA, 30319","Match","Non_Exact","916 WINALL DOWN RD NE, ATLANTA, GA, 30319",17355604,"L"
312644,"916 WINDERMERE LANE","WAKE FOREST","NC",27587,NA,NA,144,"916 WINDERMERE LANE, WAKE FOREST, NC, 27587","No_Match",NA,NA,NA,NA
312645,"916 WOODLAND DRIVE","WHEELING","IL",60090,42.1415975030001,-87.939353277,145,"916 WOODLAND DRIVE, WHEELING, IL, 60090","Match","Exact","916 WOODLAND DR, WHEELING, IL, 60090",111837953,"R"
312646,"916","REEVESVILLE","SC",29471,NA,NA,146,"916, REEVESVILLE, SC, 29471","No_Match",NA,NA,NA,NA
312647,"9160 AQUA DRIVE","BOERNE","TX",78006,29.714148247,-98.667469612,147,"9160 AQUA DRIVE, BOERNE, TX, 78006","Match","Exact","9160 AQUA DR, BOERNE, TX, 78006",101481902,"L"
312648,"9160 E SHEA BLVD SUITE 107","SCOTTSDALE","AZ",85260,33.58255231,-111.883349494,148,"9160 E SHEA BLVD SUITE 107, SCOTTSDALE, AZ, 85260","Match","Non_Exact","9160 E SHEA BLVD, SCOTTSDALE, AZ, 85260",128922153,"L"
312649,"9160 ESTATE THOMAS 214","ST THOMAS","VI",802,NA,NA,149,"9160 ESTATE THOMAS 214, ST THOMAS, VI, 802","No_Match",NA,NA,NA,NA
312650,"9160 HWY 64 STE 12 NO339","LAKELAND","TN",38002,NA,NA,150,"9160 HWY 64 STE 12 NO339, LAKELAND, TN, 38002","No_Match",NA,NA,NA,NA
312651,"9160 SW 55 ST","COOPER CITY","FL",33328,26.0495175340001,-80.2726733599999,151,"9160 SW 55 ST, COOPER CITY, FL, 33328","Match","Exact","9160 SW 55TH ST, COOPER CITY, FL, 33328",114820650,"L"
312652,"9160 WEST BAY HARBOR DR A1","BAY HARBOR ISLANDS","FL",33154,25.882350085,-80.131255643,152,"9160 WEST BAY HARBOR DR A1, BAY HARBOR ISLANDS, FL, 33154","Match","Exact","9160 W BAY HARBOR DR, BAY HARBOR ISLANDS, FL, 33154",609013099,"L"
312653,"9160 WHITEWATER CANYON ROAD","WHITE WATER","CA",92282,33.986783646,-116.654270959,153,"9160 WHITEWATER CANYON ROAD, WHITE WATER, CA, 92282","Match","Non_Exact","9160 WHITEWATER CANYON RD, WHITEWATER, CA, 92282",653241210,"R"
312654,"9160 YORKSHIRE RD","DETROIT","MI",48224,42.4149615910001,-82.9417650299999,154,"9160 YORKSHIRE RD, DETROIT, MI, 48224","Match","Exact","9160 YORKSHIRE RD, DETROIT, MI, 48224",95487004,"R"
312655,"9161 RANDALL DRIVE","SAINT JOHN","IN",46373,41.4528810320001,-87.496947069,155,"9161 RANDALL DRIVE, SAINT JOHN, IN, 46373","Match","Exact","9161 RANDALL DR, SAINT JOHN, IN, 46373",98457439,"L"
312656,"9161 SPARTA AVE NW STE E","SPARTA","MI",49345,43.142941039,-85.710046279,156,"9161 SPARTA AVE NW STE E, SPARTA, MI, 49345","Match","Exact","9161 SPARTA AVE NW, SPARTA, MI, 49345",12498017,"L"
312657,"9161 SW 55TH STREET","COOPER CITY","FL",33328,26.049530202,-80.272606336,157,"9161 SW 55TH STREET, COOPER CITY, FL, 33328","Match","Exact","9161 SW 55TH ST, COOPER CITY, FL, 33328",114820650,"R"
312658,"9161 SW LIPE RD","ARCADIA","FL",34269,27.130726048,-81.9930733699999,158,"9161 SW LIPE RD, ARCADIA, FL, 34269","Match","Exact","9161 SW LIPE RD, ARCADIA, FL, 34269",606243078,"L"
312659,"9161 SYDNEY LANE","BRENTWOOD","TN",37027,35.9421285,-86.765129057,159,"9161 SYDNEY LANE, BRENTWOOD, TN, 37027","Match","Exact","9161 SYDNEY LN, BRENTWOOD, TN, 37027",629164736,"L"
312660,"9161 TRYON COVE","CORDOVA","TN",38018,NA,NA,160,"9161 TRYON COVE, CORDOVA, TN, 38018","No_Match",NA,NA,NA,NA
312661,"9162 LANE 9 NORTH","MOSCA","CO",81142,NA,NA,161,"9162 LANE 9 NORTH, MOSCA, CO, 81142","No_Match",NA,NA,NA,NA
312662,"9162 STONEGATE CIRCLE","NORTH RIDGEVILLE","OH",44039,41.357118793,-82.0366755329999,162,"9162 STONEGATE CIRCLE, NORTH RIDGEVILLE, OH, 44039","Match","Non_Exact","9162 STONEGATE LN, N RIDGEVILLE, OH, 44039",635885988,"L"
312663,"9163 MAIN STREET","WHITMORE LAKE","MI",48189,42.417638362,-83.76060725,163,"9163 MAIN STREET, WHITMORE LAKE, MI, 48189","Match","Exact","9163 MAIN ST, WHITMORE LAKE, MI, 48189",26012954,"L"
312664,"9163 STONEGARDEN DR","LORTON","VA",22079,38.708027886,-77.213508729,164,"9163 STONEGARDEN DR, LORTON, VA, 22079","Match","Exact","9163 STONEGARDEN DR, LORTON, VA, 22079",76047816,"L"
312665,"9163 TESSE COURT","FENWICK","MI",48834,43.1609374920001,-85.0397165369999,165,"9163 TESSE COURT, FENWICK, MI, 48834","Match","Non_Exact","9163 TESSIE CT, FENWICK, MI, 48834",623880132,"L"
312666,"9164 EAST CHASE PKWY 168","MONTGOMERY","AL",36117,32.362275722,-86.137583778,166,"9164 EAST CHASE PKWY 168, MONTGOMERY, AL, 36117","Match","Non_Exact","9164 EASTCHASE PKWY, MONTGOMERY, AL, 36117",1547527,"R"
312667,"9164 N 43RD AVENUE SUITE-3","GLENDALE","AZ",85302,33.569762037,-112.151742094,167,"9164 N 43RD AVENUE SUITE-3, GLENDALE, AZ, 85302","Match","Non_Exact","9164 N 43RD AVE, GLENDALE, AZ, 85302",244037047,"R"
312668,"9165 CORLETT DRIVE","BATON ROUGE","LA",70811,30.530940587,-91.1253699279999,168,"9165 CORLETT DRIVE, BATON ROUGE, LA, 70811","Match","Exact","9165 CORLETT DR, BATON ROUGE, LA, 70811",92186453,"L"
312669,"9165 GORRION WAY","ATASCADERO","CA",93422,35.4505900460001,-120.637055415,169,"9165 GORRION WAY, ATASCADERO, CA, 93422","Match","Exact","9165 GORRION WAY, ATASCADERO, CA, 93422",627522350,"L"
312670,"9165 OTIS AVE STE 269","INDIANAPOLIS","IL",46216,NA,NA,170,"9165 OTIS AVE STE 269, INDIANAPOLIS, IL, 46216","No_Match",NA,NA,NA,NA
312671,"9165 OTIS AVE STE 271","INDIANAPOLIS","IN",46216,39.8566185390001,-86.008088512,171,"9165 OTIS AVE STE 271, INDIANAPOLIS, IN, 46216","Match","Exact","9165 OTIS AVE, INDIANAPOLIS, IN, 46216",647254907,"R"
312672,"9165 OTIS AVENUE SUITE 202","INDIANAPOLIS","IN",46216,39.8566185390001,-86.008088512,172,"9165 OTIS AVENUE SUITE 202, INDIANAPOLIS, IN, 46216","Match","Exact","9165 OTIS AVE, INDIANAPOLIS, IN, 46216",647254907,"R"
312673,"9165 OTIS AVENUE SUITE 230","INDIANAPOLIS","IN",46216,39.8566185390001,-86.008088512,173,"9165 OTIS AVENUE SUITE 230, INDIANAPOLIS, IN, 46216","Match","Exact","9165 OTIS AVE, INDIANAPOLIS, IN, 46216",647254907,"R"
312674,"9165 OTIS AVENUE","INDIANAPOLIS","IN",46216,39.8566185390001,-86.008088512,174,"9165 OTIS AVENUE, INDIANAPOLIS, IN, 46216","Match","Exact","9165 OTIS AVE, INDIANAPOLIS, IN, 46216",647254907,"R"
312675,"9165 S 46TH PL","TULSA","OK",74145,36.0964337550001,-95.87315062,175,"9165 S 46TH PL, TULSA, OK, 74145","Match","Non_Exact","9165 E 46TH PL, TULSA, OK, 74145",166453583,"L"
312676,"9166 N OAK CREEK DRIVE","MOORESVILLE","IN",46158,NA,NA,176,"9166 N OAK CREEK DRIVE, MOORESVILLE, IN, 46158","Tie",NA,NA,NA,NA
312677,"9168 MCBRIDE AVE","FOUNTAIN VALLEY","CA",92708,NA,NA,177,"9168 MCBRIDE AVE, FOUNTAIN VALLEY, CA, 92708","No_Match",NA,NA,NA,NA
312678,"91685 SUNNYSIDE ROAD","WARRENTON","OR",97146,46.1274760680001,-123.923736871,178,"91685 SUNNYSIDE ROAD, WARRENTON, OR, 97146","Match","Exact","91685 SUNNYSIDE RD, WARRENTON, OR, 97146",159231186,"L"
312679,"9169 AFTON GROVE RD","CORDOVA","TN",38018,35.1544987010001,-89.7571633969999,179,"9169 AFTON GROVE RD, CORDOVA, TN, 38018","Match","Exact","9169 AFTON GROVE RD, CORDOVA, TN, 38018",611498144,"L"
312680,"9169 N WATERFRONT WAY","MCCORDSVILLE","IN",46055,39.9154905070001,-85.921252743,180,"9169 N WATERFRONT WAY, MCCORDSVILLE, IN, 46055","Match","Exact","9169 WATERFRONT WAY, MCCORDSVILLE, IN, 46055",31087911,"L"
312681,"9169 VILLEDGE DRIVE NW","COVINGTON","GA",30014,33.6147768640001,-83.879168036,181,"9169 VILLEDGE DRIVE NW, COVINGTON, GA, 30014","Match","Exact","9169 VILLEDGE DR NW, COVINGTON, GA, 30014",23615391,"L"
312682,"9169 W STATE ST 3347","GARDEN CITY","IN",83714,NA,NA,182,"9169 W STATE ST 3347, GARDEN CITY, IN, 83714","No_Match",NA,NA,NA,NA
312683,"917 118TH LANE NE","BLAINE","MN",55434,45.1858244370001,-93.24679652,183,"917 118TH LANE NE, BLAINE, MN, 55434","Match","Exact","917 118TH LN NE, BLAINE, MN, 55434",97518515,"R"
312684,"917 14TH AVE NW","LARGO","FL",33770,27.929205961,-82.7972413109999,184,"917 14TH AVE NW, LARGO, FL, 33770","Match","Exact","917 14TH AVE NW, LARGO, FL, 33770",124671606,"L"
312685,"917 17TH STREET","CHARLESTON","IL",61920,39.4891673330001,-88.1636417409999,185,"917 17TH STREET, CHARLESTON, IL, 61920","Match","Exact","917 17TH ST, CHARLESTON, IL, 61920",5452807,"R"
312686,"917 4TH ST SE","WASHINGTON","DC",20003,38.879094325,-77.000586015,186,"917 4TH ST SE, WASHINGTON, DC, 20003","Match","Exact","917 4TH ST SE, WASHINGTON, DC, 20003",76230630,"R"
312687,"917 AARON DRIVE","COLUMBIA","SC",29203,NA,NA,187,"917 AARON DRIVE, COLUMBIA, SC, 29203","No_Match",NA,NA,NA,NA
312688,"917 APACHE LANE","LAS VEGAS","NV",89110,36.1761998050001,-115.054548431,188,"917 APACHE LANE, LAS VEGAS, NV, 89110","Match","Exact","917 APACHE LN, LAS VEGAS, NV, 89110",201875498,"L"
312689,"917 APPLE GROVE LANE","RICHMOND","VA",23223,37.542473219,-77.3531059159999,189,"917 APPLE GROVE LANE, RICHMOND, VA, 23223","Match","Exact","917 APPLE GROVE LN, RICHMOND, VA, 23223",106683594,"R"
312690,"917 ARCH STREET STE 102","PHILADELPHIA","PA",19107,39.953475874,-75.155653604,190,"917 ARCH STREET STE 102, PHILADELPHIA, PA, 19107","Match","Exact","917 ARCH ST, PHILADELPHIA, PA, 19107",131423483,"R"
312691,"917 ARDMORE DRIVE","DURHAM","NC",27713,35.9517869520001,-78.919341101,191,"917 ARDMORE DRIVE, DURHAM, NC, 27713","Match","Exact","917 ARDMORE DR, DURHAM, NC, 27713",71773128,"L"
312692,"917 BLUE QUAIL RUN","GLENN HEIGHTS","TX",75154,32.564598668,-96.8337630189999,192,"917 BLUE QUAIL RUN, GLENN HEIGHTS, TX, 75154","Match","Exact","917 BLUE QUAIL RUN, GLENN HEIGHTS, TX, 75154",103278116,"L"
312693,"917 BRIDGEPORT AVENUE","SHELTON","CT",6484,41.2606639480001,-73.138920849,193,"917 BRIDGEPORT AVENUE, SHELTON, CT, 6484","Match","Exact","917 BRIDGEPORT AVE, SHELTON, CT, 06484",636467529,"R"
312694,"917 CENTRAL AVENUE","SALEM","VA",24153,37.281681264,-80.064515593,194,"917 CENTRAL AVENUE, SALEM, VA, 24153","Match","Exact","917 CENTRAL AVE, SALEM, VA, 24153",62901050,"R"
312695,"917 CHESTNUT LOOP","MOUNT VERNON","WA",98274,48.4154612570001,-122.286023069,195,"917 CHESTNUT LOOP, MOUNT VERNON, WA, 98274","Match","Exact","917 CHESTNUT LOOP, MOUNT VERNON, WA, 98274",633814791,"R"
312696,"917 CLEVELAND STREET","WEST HEMPSTEAD","NY",11552,40.684271525,-73.659617593,196,"917 CLEVELAND STREET, WEST HEMPSTEAD, NY, 11552","Match","Exact","917 CLEVELAND ST, W HEMPSTEAD, NY, 11552",147674640,"L"
312697,"917 CLINTON STREET","HOBOKEN","NJ",7030,40.7483572830001,-74.0323364929999,197,"917 CLINTON STREET, HOBOKEN, NJ, 7030","Match","Exact","917 CLINTON ST, HOBOKEN, NJ, 07030",59606832,"R"
312698,"917 COLLEGE AVE","MORGANTOWN","WV",26505,39.637464574,-79.950428781,198,"917 COLLEGE AVE, MORGANTOWN, WV, 26505","Match","Exact","917 COLLEGE AVE, MORGANTOWN, WV, 26505",50753995,"L"
312699,"917 COLUMBIA ST","STATESVILLE","NC",28677,35.774068771,-80.905128506,199,"917 COLUMBIA ST, STATESVILLE, NC, 28677","Match","Exact","917 COLUMBIA ST, STATESVILLE, NC, 28677",45984157,"L"
312700,"917 CORAL BELL DRIVE","WAKE FOREST","NC",27587,35.9588621660001,-78.5065146759999,200,"917 CORAL BELL DRIVE, WAKE FOREST, NC, 27587","Match","Exact","917 CORAL BELL DR, WAKE FOREST, NC, 27587",612814375,"L"
312701,"917 CRESTED HAWK TRAIL","SUGAR HILL","GA",30518,34.0930454840001,-84.036017908,201,"917 CRESTED HAWK TRAIL, SUGAR HILL, GA, 30518","Match","Exact","917 CRESTED HAWK TRL, SUGAR HILL, GA, 30518",634064994,"R"
312702,"917 E KNOX ST","GALESBURG","IL",61401,40.940068282,-90.3563020559999,202,"917 E KNOX ST, GALESBURG, IL, 61401","Match","Exact","917 E KNOX ST, GALESBURG, IL, 61401",9040068,"R"
312703,"917 E YESLER WAY","SEATTLE","WA",98122,47.601690992,-122.320482924,203,"917 E YESLER WAY, SEATTLE, WA, 98122","Match","Exact","917 E YESLER WAY, SEATTLE, WA, 98122",186590257,"R"
312704,"917 EAST 9TH ST","STUART","FL",34994,27.191664195,-80.2385046759999,204,"917 EAST 9TH ST, STUART, FL, 34994","Match","Non_Exact","917 SE 9TH ST, STUART, FL, 34994",120423474,"L"
312705,"917 FRANKLIN FOURTH FLOOR","HOUSTON","TX",77002,29.7634168880001,-95.360817979,205,"917 FRANKLIN FOURTH FLOOR, HOUSTON, TX, 77002","Match","Non_Exact","917 FRANKLIN ST, HOUSTON, TX, 77002",96067489,"L"
312706,"917 FREMONT AVE STE 151","SOUTH PASADENA","CA",91030,34.1155487730001,-118.153098125,206,"917 FREMONT AVE STE 151, SOUTH PASADENA, CA, 91030","Match","Exact","917 FREMONT AVE, SOUTH PASADENA, CA, 91030",141630225,"R"
312707,"917 GRAY FOX CT","HOWELL","MI",48843,42.555169516,-83.943106897,207,"917 GRAY FOX CT, HOWELL, MI, 48843","Match","Exact","917 GRAY FOX CT, HOWELL, MI, 48843",614123187,"R"
312708,"917 HARBOR HOUSE DR","MADISON","WI",53719,43.0485392260001,-89.508134893,208,"917 HARBOR HOUSE DR, MADISON, WI, 53719","Match","Exact","917 HARBOR HOUSE DR, MADISON, WI, 53719",49506316,"L"
312709,"917 HARRISON ST","OAKLAND","CA",94607,37.79964614,-122.26969499,209,"917 HARRISON ST, OAKLAND, CA, 94607","Match","Exact","917 HARRISON ST, OAKLAND, CA, 94607",124997236,"L"
312710,"917 HOGAN DRIVE","MURFREESBORO","TN",37128,35.7959232920001,-86.418066841,210,"917 HOGAN DRIVE, MURFREESBORO, TN, 37128","Match","Exact","917 HOGAN DR, MURFREESBORO, TN, 37128",59043995,"L"
312711,"917 IVY ST","PITTSBURGH","PA",15232,40.4506536380001,-79.931626545,211,"917 IVY ST, PITTSBURGH, PA, 15232","Match","Exact","917 IVY ST, PITTSBURGH, PA, 15232",51645148,"L"
312712,"917 KILLIAN HILL ROAD SW","LILBURN","GA",30047,33.869077847,-84.09785349,212,"917 KILLIAN HILL ROAD SW, LILBURN, GA, 30047","Match","Exact","917 KILLIAN HILL RD SW, LILBURN, GA, 30047",636428739,"R"
312713,"917 LAKEVIEW DRIVE","JOSHUA","TX",76058,32.4726987130001,-97.36441967,213,"917 LAKEVIEW DRIVE, JOSHUA, TX, 76058","Match","Exact","917 LAKEVIEW DR, JOSHUA, TX, 76058",103517131,"L"
312714,"917 LOCUST STREET  204","ST LOUIS","MO",63101,38.6297105130001,-90.193367651,214,"917 LOCUST STREET  204, ST LOUIS, MO, 63101","Match","Exact","917 LOCUST ST, SAINT LOUIS, MO, 63101",107605736,"R"
312715,"917 LUSK STREET","BOISE","ID",83706,43.6093506770001,-116.21130936,215,"917 LUSK STREET, BOISE, ID, 83706","Match","Exact","917 LUSK ST, BOISE, ID, 83706",117903270,"R"
312716,"917 MAIN STREET SUITE 200","SANFORD","ME",4073,43.438753601,-70.775026231,216,"917 MAIN STREET SUITE 200, SANFORD, ME, 4073","Match","Exact","917 MAIN ST, SANFORD, ME, 04073",92738099,"L"
312717,"917 MANOR DR","MILLERSBURG","PA",17061,40.5419522400001,-76.9458174809999,217,"917 MANOR DR, MILLERSBURG, PA, 17061","Match","Exact","917 MANOR DR, MILLERSBURG, PA, 17061",636361232,"R"
312718,"917 MEADOW ACRES","SAINT LOUIS","MI",63125,NA,NA,218,"917 MEADOW ACRES, SAINT LOUIS, MI, 63125","No_Match",NA,NA,NA,NA
312719,"917 MEIZNER REAL AVE 302","BRANDON","FL",33511,27.922816938,-82.301006306,219,"917 MEIZNER REAL AVE 302, BRANDON, FL, 33511","Match","Exact","917 MEIZNER REAL AVE, BRANDON, FL, 33511",104615102,"L"
312720,"917 MITCHELL ROAD","NASHVILLE","TN",37206,36.1818200710001,-86.715187859,220,"917 MITCHELL ROAD, NASHVILLE, TN, 37206","Match","Exact","917 MITCHELL RD, NASHVILLE, TN, 37206",97194970,"R"
312721,"917 MOUNT ELAM CHURCH ROAD","PEARL","MS",39208,32.2530853100001,-90.108502715,221,"917 MOUNT ELAM CHURCH ROAD, PEARL, MS, 39208","Match","Exact","917 MOUNT ELAM CHURCH RD, PEARL, MS, 39208",605236027,"R"
312722,"917 MT PISGAH ROAD","SEARCH","AR",72143,NA,NA,222,"917 MT PISGAH ROAD, SEARCH, AR, 72143","Tie",NA,NA,NA,NA
312723,"917 N 6TH AVE","WAUSAU","WI",54401,44.973925808,-89.642698189,223,"917 N 6TH AVE, WAUSAU, WI, 54401","Match","Exact","917 N 6TH AVE, WAUSAU, WI, 54401",117136150,"R"
312724,"917 N AMERICAN ST","VISALIA","CA",93291,NA,NA,224,"917 N AMERICAN ST, VISALIA, CA, 93291","No_Match",NA,NA,NA,NA
312725,"917 N MAIN ST","GUYMON","OK",73942,36.687088594,-101.481564572,225,"917 N MAIN ST, GUYMON, OK, 73942","Match","Exact","917 N MAIN ST, GUYMON, OK, 73942",189760533,"L"
312726,"917 N SKIPTON DRIVE","NORTH SALT LAKE","UT",84054,40.8578908970001,-111.941764829,226,"917 N SKIPTON DRIVE, NORTH SALT LAKE, UT, 84054","Match","Exact","917 SKIPTON DR, N SALT LAKE, UT, 84054",640992586,"R"
312727,"917 N SPOKANE STREET","POST FALLS","ID",83854,47.7171715330001,-116.948060002,227,"917 N SPOKANE STREET, POST FALLS, ID, 83854","Match","Exact","917 N SPOKANE ST, POST FALLS, ID, 83854",192899827,"L"
312728,"917 N WILKINSON ST","MILLEDGEVILLE","GA",31061,33.092402679,-83.2319603829999,228,"917 N WILKINSON ST, MILLEDGEVILLE, GA, 31061","Match","Exact","917 N WILKINSON ST, MILLEDGEVILLE, GA, 31061",16582654,"R"
312729,"917 NANDINA DR","WESTON","FL",33327,26.108486918,-80.4156749479999,229,"917 NANDINA DR, WESTON, FL, 33327","Match","Exact","917 NANDINA DR, WESTON, FL, 33327",114814223,"L"
312730,"917 NORTH WALNUT STREET","DANVILLE","IL",61832,40.1396429050001,-87.6315340359999,230,"917 NORTH WALNUT STREET, DANVILLE, IL, 61832","Match","Exact","917 N WALNUT ST, DANVILLE, IL, 61832",611996396,"R"
312731,"917 NORTH WALNUT","DANVILLE","IL",61832,40.1396429050001,-87.6315340359999,231,"917 NORTH WALNUT, DANVILLE, IL, 61832","Match","Non_Exact","917 N WALNUT ST, DANVILLE, IL, 61832",611996396,"R"
312732,"917 NORTHERN BLVD","GREAT NECK","NY",11021,40.785532226,-73.706538403,232,"917 NORTHERN BLVD, GREAT NECK, NY, 11021","Match","Exact","917 NORTHERN BLVD, GREAT NECK, NY, 11021",638497139,"L"
312733,"917 NW 19TH ST","OKLAHOMA CITY","OK",73106,35.4891430930001,-97.527485099,233,"917 NW 19TH ST, OKLAHOMA CITY, OK, 73106","Match","Exact","917 NW 19TH ST, OKLAHOMA CITY, OK, 73106",100400473,"R"
312734,"917 OLD OGLESBY RD","MCGREGOR","TX",76657,31.4360753780001,-97.4384891129999,234,"917 OLD OGLESBY RD, MCGREGOR, TX, 76657","Match","Non_Exact","917 OLD OGLESBY RD, MC GREGOR, TX, 76657",146755109,"L"
312735,"917 OREGON AVENUE","PALO ALTO","CA",94303,37.441424125,-122.127646123,235,"917 OREGON AVENUE, PALO ALTO, CA, 94303","Match","Exact","917 OREGON AVE, PALO ALTO, CA, 94303",123176140,"R"
312736,"917 PANAMA ROAD","WEST HELENA","AZ",72390,NA,NA,236,"917 PANAMA ROAD, WEST HELENA, AZ, 72390","No_Match",NA,NA,NA,NA
312737,"917 PARSONS RD","ABILENE","TX",79602,32.4395448540001,-99.69780845,237,"917 PARSONS RD, ABILENE, TX, 79602","Match","Non_Exact","917 PARSON'S RD, ABILENE, TX, 79602",129971575,"R"
312738,"917 PATRICIA COURTT","OJAI","CA",93023,34.46143727,-119.235667123,238,"917 PATRICIA COURTT, OJAI, CA, 93023","Match","Non_Exact","917 PATRICIA CT, OJAI, CA, 93023",109983862,"L"
312739,"917 PIEDMONT AVENUE","ATLANTA","GA",30309,33.779842955,-84.380992017,239,"917 PIEDMONT AVENUE, ATLANTA, GA, 30309","Match","Non_Exact","917 PIEDMONT AVE NE, ATLANTA, GA, 30309",17343559,"R"
312740,"917 QUINCY NE SUITE 1","WASHINGTON","DC",20017,38.937973809,-76.9940645679999,240,"917 QUINCY NE SUITE 1, WASHINGTON, DC, 20017","Match","Non_Exact","917 QUINCY ST NE, WASHINGTON, DC, 20017",76228210,"R"
312741,"917 RAMBLING TRAIL","CEDAR PARK","TX",78613,30.494530947,-97.8297451079999,241,"917 RAMBLING TRAIL, CEDAR PARK, TX, 78613","Match","Exact","917 RAMBLING TRL, CEDAR PARK, TX, 78613",126475998,"L"
312742,"917 RAUHUT STREET","BURLINGTON","NC",27217,36.1072496730001,-79.43410955,242,"917 RAUHUT STREET, BURLINGTON, NC, 27217","Match","Exact","917 RAUHUT ST, BURLINGTON, NC, 27217",71662951,"R"
312743,"917 ROSEMONT AVE","DANVILLE","KY",40422,37.6532547470001,-84.7834437609999,243,"917 ROSEMONT AVE, DANVILLE, KY, 40422","Match","Exact","917 ROSEMONT AVE, DANVILLE, KY, 40422",639729284,"L"
312744,"917 S GENESEE AVENUE","LOS ANGELES","CA",90036,34.059112784,-118.360155563,244,"917 S GENESEE AVENUE, LOS ANGELES, CA, 90036","Match","Exact","917 S GENESEE AVE, LOS ANGELES, CA, 90036",653250139,"R"
312745,"917 S ROBB WAY","LAKEWOOD","CO",80226,39.7002560990001,-105.125528693,245,"917 S ROBB WAY, LAKEWOOD, CO, 80226","Match","Exact","917 S ROBB WAY, LAKEWOOD, CO, 80226",177317704,"R"
312746,"917 S WALNUT","OTTAWA","KS",66067,38.6043385150001,-95.269928464,246,"917 S WALNUT, OTTAWA, KS, 66067","Match","Non_Exact","917 S WALNUT ST, OTTAWA, KS, 66067",10625472,"L"
312747,"917 SADDLE CREEK RUN","TALLAHASSEE","FM",32301,NA,NA,247,"917 SADDLE CREEK RUN, TALLAHASSEE, FM, 32301","No_Match",NA,NA,NA,NA
312748,"917 SAINT ANN DRIVE","PASO ROBLES","CA",93446,35.605780655,-120.665243127,248,"917 SAINT ANN DRIVE, PASO ROBLES, CA, 93446","Match","Exact","917 SAINT ANN DR, PASO ROBLES, CA, 93446",639575177,"L"
312749,"917 SHAW RD","PUYALLUP","WA",98372,47.183951887,-122.256189126,249,"917 SHAW RD, PUYALLUP, WA, 98372","Match","Non_Exact","917 SHAW RD E, PUYALLUP, WA, 98372",184636588,"L"
312750,"917 SHIPPEN LN","WEST CHESTER","PA",19382,39.9517850230001,-75.5544282289999,250,"917 SHIPPEN LN, WEST CHESTER, PA, 19382","Match","Exact","917 SHIPPEN LN, WEST CHESTER, PA, 19382",179497123,"L"
312751,"917 SOUTH 32ND ST","LINCOLN","NE",68510,40.8043325190001,-96.675245489,251,"917 SOUTH 32ND ST, LINCOLN, NE, 68510","Match","Exact","917 S 32ND ST, LINCOLN, NE, 68510",28255773,"R"
312752,"917 SOUTH 6TH STREET","MONMOUTH","IL",61462,40.9025627730001,-90.641211245,252,"917 SOUTH 6TH STREET, MONMOUTH, IL, 61462","Match","Exact","917 S 6TH ST, MONMOUTH, IL, 61462",5502325,"R"
312753,"917 SOUTH MAIN ST","HAVANA","FL",32333,30.611651732,-84.4151054389999,253,"917 SOUTH MAIN ST, HAVANA, FL, 32333","Match","Exact","917 S MAIN ST, HAVANA, FL, 32333",87818891,"L"
312754,"917 SPRING LANE","BLANCHARD","OK",73010,35.129695224,-97.675984853,254,"917 SPRING LANE, BLANCHARD, OK, 73010","Match","Exact","917 SPRING LN, BLANCHARD, OK, 73010",15232491,"R"
312755,"917 STERLING HEIGHTS DRIVE","ANTIOCH","IL",60002,42.453584162,-88.048820596,255,"917 STERLING HEIGHTS DRIVE, ANTIOCH, IL, 60002","Match","Exact","917 STERLING HEIGHTS DR, ANTIOCH, IL, 60002",640096031,"R"
312756,"917 SURREY TRACE SE","TUMWATER","WA",98501,47.00065971,-122.887096369,256,"917 SURREY TRACE SE, TUMWATER, WA, 98501","Match","Exact","917 SURREY TRCE SE, TUMWATER, WA, 98501",624724178,"L"
312757,"917 SW GEORGETOWN DR","LEES SUMMIT","MO",64082,38.84093706,-94.3967284719999,257,"917 SW GEORGETOWN DR, LEES SUMMIT, MO, 64082","Match","Exact","917 SW GEORGETOWN DR, LEES SUMMIT, MO, 64082",91478766,"R"
312758,"917 VALLEY ROAD","GILLETTE","NJ",7933,40.670211044,-74.478531931,258,"917 VALLEY ROAD, GILLETTE, NJ, 7933","Match","Exact","917 VALLEY RD, GILLETTE, NJ, 07933",60514229,"L"
312759,"917 VENTURES WAY","CHESAPEAKE","VA",23320,36.76529478,-76.2302843909999,259,"917 VENTURES WAY, CHESAPEAKE, VA, 23320","Match","Exact","917 VENTURES WAY, CHESAPEAKE, VA, 23320",121776597,"L"
312760,"917 W  BROADWAY","MUSKOGEE","OK",74401,35.7524921730001,-95.379237406,260,"917 W  BROADWAY, MUSKOGEE, OK, 74401","Match","Non_Exact","917 W BROADWAY AVE, MUSKOGEE, OK, 74401",91926954,"L"
312761,"917 W BEVERLY BLVD SUITE A","MONTEBELLO","CA",90640,34.017506874,-118.107808109,261,"917 W BEVERLY BLVD SUITE A, MONTEBELLO, CA, 90640","Match","Non_Exact","917 W BEVERLY BLVD, MONTEBELLO, CA, 90640",241241144,"L"
312762,"917 W MOHAWK TRL","DEFOREST","WI",53532,43.2450454460001,-89.362339848,262,"917 W MOHAWK TRL, DEFOREST, WI, 53532","Match","Exact","917 W MOHAWK TRL, DEFOREST, WI, 53532",49504517,"L"
312763,"917 WALNUT AVENUE","HULMEVILLE","PA",19047,40.160606323,-74.934343191,263,"917 WALNUT AVENUE, HULMEVILLE, PA, 19047","Match","Exact","917 WALNUT AVE, HULMEVILLE, PA, 19047",134764440,"L"
312764,"917 WALNUT STREET","HULMEVILLE","PA",19047,40.1472248420001,-74.913777121,264,"917 WALNUT STREET, HULMEVILLE, PA, 19047","Match","Exact","917 WALNUT ST, HULMEVILLE, PA, 19047",134712403,"L"
312765,"917 WARREN WAY","RICHARDSON","TX",75080,32.9656386020001,-96.7526345159999,265,"917 WARREN WAY, RICHARDSON, TX, 75080","Match","Exact","917 WARREN WAY, RICHARDSON, TX, 75080",103211446,"L"
312766,"917 WAYNE ST","WAYNESBORO","MS",39367,31.676566934,-88.637748604,266,"917 WAYNE ST, WAYNESBORO, MS, 39367","Match","Exact","917 WAYNE ST, WAYNESBORO, MS, 39367",278152,"R"
312767,"917 WELLMAN AVENUE","NORTH CHELMSFORD","MA",1863,42.6450475450001,-71.390391385,267,"917 WELLMAN AVENUE, NORTH CHELMSFORD, MA, 1863","Match","Exact","917 WELLMAN AVE, N CHELMSFORD, MA, 01863",86837716,"L"
312768,"917 WEST 21ST STREET","CHEYENNE","WY",82001,41.1341489970001,-104.826254467,268,"917 WEST 21ST STREET, CHEYENNE, WY, 82001","Match","Exact","917 W 21ST ST, CHEYENNE, WY, 82001",160149514,"L"
312769,"917 WEST COLORADO AVENUE","COLORADO SPRINGS","CO",80905,38.834528418,-104.840872033,269,"917 WEST COLORADO AVENUE, COLORADO SPRINGS, CO, 80905","Match","Exact","917 W COLORADO AVE, COLORADO SPRINGS, CO, 80905",105513718,"L"
312770,"917 WEST GRAND AVE","GROVER BEACH","CA",93483,NA,NA,270,"917 WEST GRAND AVE, GROVER BEACH, CA, 93483","No_Match",NA,NA,NA,NA
312771,"917 WHITSON","BAY CITY","TX",77414,28.9693553720001,-95.978127237,271,"917 WHITSON, BAY CITY, TX, 77414","Match","Non_Exact","917 WHITSON ST, BAY CITY, TX, 77414",83292579,"L"
312772,"917","MONTGOMERYVILLE","PA",18936,NA,NA,272,"917, MONTGOMERYVILLE, PA, 18936","No_Match",NA,NA,NA,NA
312773,"9170 MARTIN LUTHER KING BLVD","DENVER","CO",80238,39.7599695490001,-104.879909407,273,"9170 MARTIN LUTHER KING BLVD, DENVER, CO, 80238","Match","Non_Exact","9170 E MARTIN LUTHER KING BLVD, DENVER, CO, 80238",606110997,"R"
312774,"9170 PRINCE WILLIAM STREET","MANASSAS","VA",20110,38.749363379,-77.47427713,274,"9170 PRINCE WILLIAM STREET, MANASSAS, VA, 20110","Match","Exact","9170 PRINCE WILLIAM ST, MANASSAS, VA, 20110",76505376,"R"
312775,"9170 TOWER BRIDGE RD APT F","INDIANAPOLIS","IN",46240,39.9210774150001,-86.0916149189999,275,"9170 TOWER BRIDGE RD APT F, INDIANAPOLIS, IN, 46240","Match","Exact","9170 TOWER BRIDGE RD, INDIANAPOLIS, IN, 46240",108033766,"L"
312776,"9171 CENTRAL AVENUE SUITE 300","CAPITOL HEIGHTS","MD",20743,38.8912154660001,-76.849959551,276,"9171 CENTRAL AVENUE SUITE 300, CAPITOL HEIGHTS, MD, 20743","Match","Exact","9171 CENTRAL AVE, CAPITOL HEIGHTS, MD, 20743",647306115,"L"
312777,"9171 CENTRAL AVENUE","CAPITOL HEIGHTS","MD",20743,38.8912154660001,-76.849959551,277,"9171 CENTRAL AVENUE, CAPITOL HEIGHTS, MD, 20743","Match","Exact","9171 CENTRAL AVE, CAPITOL HEIGHTS, MD, 20743",647306115,"L"
312778,"9171 DUPONT PL","WELLINGTON","FL",33414,26.644631153,-80.185723756,278,"9171 DUPONT PL, WELLINGTON, FL, 33414","Match","Exact","9171 DUPONT PL, WELLINGTON, FL, 33414",115583932,"L"
312779,"9171 RAVEN CREST LANE","BYRON","IL",61010,42.1470696540001,-89.249627812,279,"9171 RAVEN CREST LANE, BYRON, IL, 61010","Match","Non_Exact","9171 N RAVEN CREST LN, BYRON, IL, 61010",52329282,"R"
312780,"9171 SCARLETT DR","COVINGTON","GA",30014,33.595938663,-83.8869328389999,280,"9171 SCARLETT DR, COVINGTON, GA, 30014","Match","Non_Exact","9171 SCARLETT DR SW, COVINGTON, GA, 30014",23621675,"R"
312781,"9171 WILSHIRE BLVD 680","BEVERLY HILLS","CA",90210,34.0670629890001,-118.391929441,281,"9171 WILSHIRE BLVD 680, BEVERLY HILLS, CA, 90210","Match","Exact","9171 WILSHIRE BLVD, BEVERLY HILLS, CA, 90210",141572574,"R"
312782,"9172 COLLINS AVE 316","SURFSIDE","FL",33154,25.8793137930001,-80.1220044519999,282,"9172 COLLINS AVE 316, SURFSIDE, FL, 33154","Match","Exact","9172 COLLINS AVE, SURFSIDE, FL, 33154",116043615,"L"
312783,"9172 DICKENS AVE","SURFSIDE","FL",33154,25.8791304870001,-80.126304149,283,"9172 DICKENS AVE, SURFSIDE, FL, 33154","Match","Exact","9172 DICKENS AVE, SURFSIDE, FL, 33154",116043624,"L"
312784,"9172 EAST KAYENTA DRIVE","TUCSON","AZ",85749,32.2826576190001,-110.796065734,284,"9172 EAST KAYENTA DRIVE, TUCSON, AZ, 85749","Match","Exact","9172 E KAYENTA DR, TUCSON, AZ, 85749",121187211,"R"
312785,"9172 PIEDRA AVE","HESPERIA","CA",92345,34.4175200760001,-117.250259157,285,"9172 PIEDRA AVE, HESPERIA, CA, 92345","Match","Exact","9172 PIEDRA AVE, HESPERIA, CA, 92345",144594145,"L"
312786,"9172 S 256TH E AVE","BROKEN ARROW","OK",74014,36.030703213,-95.690945501,286,"9172 S 256TH E AVE, BROKEN ARROW, OK, 74014","Match","Exact","9172 S 256TH E AVE, BROKEN ARROW, OK, 74014",652134750,"R"
312787,"9173 PECAN AVE","HESPERIA","CA",92345,34.418363851,-117.265832224,287,"9173 PECAN AVE, HESPERIA, CA, 92345","Match","Exact","9173 PECAN AVE, HESPERIA, CA, 92345",144589802,"R"
312788,"9173 WILLIAMSPORT PIKE","FALLING WATERS","WV",25419,39.5838771250001,-77.86669769,288,"9173 WILLIAMSPORT PIKE, FALLING WATERS, WV, 25419","Match","Exact","9173 WILLIAMSPORT PIKE, FALLING WATERS, WV, 25419",607662739,"L"
312789,"9174 BUCKINGHAM CT","HUNTLEY","IL",60142,42.1959178380001,-88.4155386589999,289,"9174 BUCKINGHAM CT, HUNTLEY, IL, 60142","Match","Exact","9174 BUCKINGHAM CT, HUNTLEY, IL, 60142",119873486,"R"
312790,"9174 HARTS MILL ROAD","WARRENTON","VA",20186,38.686975927,-77.8867209919999,290,"9174 HARTS MILL ROAD, WARRENTON, VA, 20186","Match","Exact","9174 HARTS MILL RD, WARRENTON, VA, 20186",146306457,"R"
312791,"9174 HUNTINGTON AVE","San Diego","CA",92123,32.7956061790001,-117.129553184,291,"9174 HUNTINGTON AVE, San Diego, CA, 92123","Match","Exact","9174 HUNTINGTON AVE, SAN DIEGO, CA, 92123",195321407,"L"
312792,"9174 VALLEY OAK PL","JUPITER","FL",33478,26.949153214,-80.177498153,292,"9174 VALLEY OAK PL, JUPITER, FL, 33478","Match","Exact","9174 VALLEY OAK PL, JUPITER, FL, 33478",115259591,"L"
312793,"9174","BENTON HARBOR","MI",49023,NA,NA,293,"9174, BENTON HARBOR, MI, 49023","No_Match",NA,NA,NA,NA
312794,"91741","RALEIGH","NC",27675,NA,NA,294,"91741, RALEIGH, NC, 27675","No_Match",NA,NA,NA,NA
312795,"9175 BOURBON ST APT Q","LAUREL","MD",20723,39.121466899,-76.842809688,295,"9175 BOURBON ST APT Q, LAUREL, MD, 20723","Match","Exact","9175 BOURBON ST, LAUREL, MD, 20723",158941924,"L"
312796,"9175 COUNTY ROAD 166","SALIDA","CO",81201,38.5622222430001,-106.045161567,296,"9175 COUNTY ROAD 166, SALIDA, CO, 81201","Match","Exact","9175 CO RD 166, SALIDA, CO, 81201",649040930,"L"
312797,"9175 JACKSON STREET","MENTOR","OH",44060,41.6882897300001,-81.310128794,297,"9175 JACKSON STREET, MENTOR, OH, 44060","Match","Exact","9175 JACKSON ST, MENTOR, OH, 44060",635645565,"L"
312798,"9175 LAS VEGAS BLVD STE 128","LAS VEGAS","NV",89123,36.023197495,-115.17233561,298,"9175 LAS VEGAS BLVD STE 128, LAS VEGAS, NV, 89123","Match","Non_Exact","9175 LAS VEGAS BLVD S, LAS VEGAS, NV, 89123",650065557,"R"
312799,"9175 LAS VEGAS STE 128","LAS VEGAS","NV",89123,NA,NA,299,"9175 LAS VEGAS STE 128, LAS VEGAS, NV, 89123","No_Match",NA,NA,NA,NA
312800,"9175 MCKENDREE RD","WESLEY CHAPEL","FL",33545,28.2889406690001,-82.316793719,300,"9175 MCKENDREE RD, WESLEY CHAPEL, FL, 33545","Match","Exact","9175 MCKENDREE RD, WESLEY CHAPEL, FL, 33545",636387509,"L"
312801,"9175 OAK VALE DRIVE","CORDOVA","TN",38016,35.188387714,-89.756744891,301,"9175 OAK VALE DRIVE, CORDOVA, TN, 38016","Match","Non_Exact","9175 OAKVALE DR, CORDOVA, TN, 38016",618372328,"R"
312802,"9175 S YALE AVE STE 280A","TULSA","OK",74137,36.0307226240001,-95.922143525,302,"9175 S YALE AVE STE 280A, TULSA, OK, 74137","Match","Non_Exact","9175 S YALE AVE, TULSA, OK, 74137",166494890,"L"
312803,"9175 WHITETAIL DR","CONROE","TX",77303,30.3564626190001,-95.3667946589999,303,"9175 WHITETAIL DR, CONROE, TX, 77303","Match","Non_Exact","9175 WHITE TAIL DR, CONROE, TX, 77303",651096899,"R"
312804,"91750 OVERSEAS HIGHWAY","TAVERNIER","FL",33070,25.0085666950001,-80.5181051,304,"91750 OVERSEAS HIGHWAY, TAVERNIER, FL, 33070","Match","Exact","91750 OVERSEAS HWY, TAVERNIER, FL, 33070",116464953,"L"
312805,"9176 ASHDOWN AVE","WHTIE LAKE","MI",48386,42.6258121760001,-83.466433691,305,"9176 ASHDOWN AVE, WHTIE LAKE, MI, 48386","Match","Non_Exact","9176 ASHDOWN ST, WHITE LAKE, MI, 48386",69691724,"R"
312806,"9176 EVERTS","DETROIT","MI",48224,42.4138072900001,-82.943318814,306,"9176 EVERTS, DETROIT, MI, 48224","Match","Non_Exact","9176 EVERTS ST, DETROIT, MI, 48224",95469910,"R"
312807,"9176 WEST SPRINGHILL DR","SAINT JOHN","IN",46373,41.4514382290001,-87.459251133,307,"9176 WEST SPRINGHILL DR, SAINT JOHN, IN, 46373","Match","Exact","9176 W SPRINGHILL DR, SAINT JOHN, IN, 46373",98456049,"L"
312808,"9177 COOKSVILLE RD","VALE","NC",28168,35.5917474680001,-81.492955891,308,"9177 COOKSVILLE RD, VALE, NC, 28168","Match","Exact","9177 COOKSVILLE RD, VALE, NC, 28168",45900201,"R"
312809,"9177 ONEIDA AVENUE","SUN VALLEY","CA",91352,34.2361953550001,-118.40087035,309,"9177 ONEIDA AVENUE, SUN VALLEY, CA, 91352","Match","Exact","9177 ONEIDA AVE, SUN VALLEY, CA, 91352",141552166,"L"
312810,"9179 AVENUE A","ORLANDO","FL",32834,28.43302813,-81.370396208,310,"9179 AVENUE A, ORLANDO, FL, 32834","Match","Non_Exact","9179 AVE A, ORLANDO, FL, 32824",94291101,"L"
312811,"9179 LEW JONES RD","RAWLINGS","VA",23876,36.9758873430001,-77.826100491,311,"9179 LEW JONES RD, RAWLINGS, VA, 23876","Match","Exact","9179 LEW JONES RD, RAWLINGS, VA, 23876",54041049,"R"
312812,"91792 DEADWOOD CREEK RD","DEADWOOD","OR",97430,44.139815479,-123.729143991,312,"91792 DEADWOOD CREEK RD, DEADWOOD, OR, 97430","Match","Exact","91792 DEADWOOD CREEK RD, DEADWOOD, OR, 97430",178179863,"L"
312813,"918  AVE  M","BROOKLYN","NY",11230,40.6173993250001,-73.965518263,313,"918  AVE  M, BROOKLYN, NY, 11230","Match","Exact","918 AVE M, BROOKLYN, NY, 11230",59089641,"R"
312814,"918 10TH STREET","HUNTINGTON","WV",25701,38.4135365290001,-82.440074204,314,"918 10TH STREET, HUNTINGTON, WV, 25701","Match","Exact","918 10TH ST, HUNTINGTON, WV, 25701",101335997,"L"
312815,"918 20TH ST S","GREAT FALLS","MT",59405,47.495022227,-111.273045407,315,"918 20TH ST S, GREAT FALLS, MT, 59405","Match","Exact","918 20TH ST S, GREAT FALLS, MT, 59405",202226703,"R"
312816,"918 24TH AVE N","ST PETERSBURG","FL",33704,27.7938956690001,-82.6470303839999,316,"918 24TH AVE N, ST PETERSBURG, FL, 33704","Match","Exact","918 24TH AVE N, SAINT PETERSBURG, FL, 33704",124706893,"L"
312817,"918 28TH ST S","LA CROSSE","WI",54601,43.8021244710001,-91.214951738,317,"918 28TH ST S, LA CROSSE, WI, 54601","Match","Exact","918 28TH ST S, LA CROSSE, WI, 54601",51013149,"R"
312818,"918 9TH AVE NE","ROCHESTER","MN",55906,44.033284779,-92.4512696689999,318,"918 9TH AVE NE, ROCHESTER, MN, 55906","Match","Exact","918 9TH AVE NE, ROCHESTER, MN, 55906",30551783,"R"
312819,"918 9TH ST NW APT A","PUYALLUP","WA",98371,47.199288445,-122.305585568,319,"918 9TH ST NW APT A, PUYALLUP, WA, 98371","Match","Exact","918 9TH ST NW, PUYALLUP, WA, 98371",184634395,"L"
312820,"918 ALLENDALE STREET","BALTIMORE","MD",21229,39.2981646920001,-76.678631313,320,"918 ALLENDALE STREET, BALTIMORE, MD, 21229","Match","Exact","918 ALLENDALE ST, BALTIMORE, MD, 21229",206413319,"L"
312821,"918 ANTARES RD","HELENA","MT",59602,46.7275906830001,-112.02718439,321,"918 ANTARES RD, HELENA, MT, 59602","Match","Exact","918 ANTARES RD, HELENA, MT, 59602",634739491,"L"
312822,"918 AVE M","BROOKLYN","NY",11230,40.6173993250001,-73.965518263,322,"918 AVE M, BROOKLYN, NY, 11230","Match","Exact","918 AVE M, BROOKLYN, NY, 11230",59089641,"R"
312823,"918 AVERY AVE","SYRACUSE","NY",13204,43.054567159,-76.1962541139999,323,"918 AVERY AVE, SYRACUSE, NY, 13204","Match","Exact","918 AVERY AVE, SYRACUSE, NY, 13204",46565455,"R"
312824,"918 BRANNIGAN VILLAGE DR","WINSTON-SALEM","NC",27127,36.015836762,-80.265550397,324,"918 BRANNIGAN VILLAGE DR, WINSTON-SALEM, NC, 27127","Match","Exact","918 BRANNIGAN VILLAGE DR, WINSTON SALEM, NC, 27127",635546809,"L"
312825,"918 BRIDGE STREET NORTHWEST","WINSTON-SALEM","NC",27101,36.1038346010001,-80.259708809,325,"918 BRIDGE STREET NORTHWEST, WINSTON-SALEM, NC, 27101","Match","Exact","918 BRIDGE ST NW, WINSTON SALEM, NC, 27101",636640577,"L"
312826,"918 BUFORD HIGHWAY","SUGAR HILL","GA",30518,34.0843290990001,-84.0314544029999,326,"918 BUFORD HIGHWAY, SUGAR HILL, GA, 30518","Match","Exact","918 BUFORD HWY, SUGAR HILL, GA, 30518",641929548,"L"
312827,"918 BUFORD HWY","SUGAR HILL","GA",30518,34.0843290990001,-84.0314544029999,327,"918 BUFORD HWY, SUGAR HILL, GA, 30518","Match","Exact","918 BUFORD HWY, SUGAR HILL, GA, 30518",641929548,"L"
312828,"918 BUTTERFLY GARDEN TRAIL","RICHMOND","TX",77406,29.6416600530001,-95.721059213,328,"918 BUTTERFLY GARDEN TRAIL, RICHMOND, TX, 77406","Match","Exact","918 BUTTERFLY GARDEN TRL, RICHMOND, TX, 77406",648704907,"R"
312829,"918 CASSEQUE PROVINCE","MOUNT PLEASANT","SC",29464,32.840930127,-79.8295392369999,329,"918 CASSEQUE PROVINCE, MOUNT PLEASANT, SC, 29464","Match","Exact","918 CASSEQUE PROVINCE, MOUNT PLEASANT, SC, 29464",635601979,"L"
312830,"918 CHEHALEM ST","NEWBERG","OR",97132,45.2926281680001,-122.967552429,330,"918 CHEHALEM ST, NEWBERG, OR, 97132","Match","Non_Exact","918 S CHEHALEM ST, NEWBERG, OR, 97132",156499877,"R"
312831,"918 COLORADO AVE","STRATTON","CO",80836,39.297214884,-102.605020304,331,"918 COLORADO AVE, STRATTON, CO, 80836","Match","Exact","918 COLORADO AVE, STRATTON, CO, 80836",639830324,"L"
312832,"918 COLUMBUS STREET","EL GRANADA","CA",94018,37.507379885,-122.468732449,332,"918 COLUMBUS STREET, EL GRANADA, CA, 94018","Match","Exact","918 COLUMBUS ST, EL GRANADA, CA, 94018",192387099,"L"
312833,"918 CONGRESS AVE SUITE 100","AUSTIN","TX",78701,30.27107821,-97.741687204,333,"918 CONGRESS AVE SUITE 100, AUSTIN, TX, 78701","Match","Exact","918 CONGRESS AVE, AUSTIN, TX, 78701",63943447,"L"
312834,"918 COUNTY ROAD 462","BLESSING","TX",77419,NA,NA,334,"918 COUNTY ROAD 462, BLESSING, TX, 77419","No_Match",NA,NA,NA,NA
312835,"918 D ST","DAVIS","CA",95616,38.552471881,-121.744178228,335,"918 D ST, DAVIS, CA, 95616","Match","Exact","918 D ST, DAVIS, CA, 95616",67691455,"R"
312836,"918 DIEDRICH DRIVE","FLATWOODS","KY",41139,38.523347335,-82.715836038,336,"918 DIEDRICH DRIVE, FLATWOODS, KY, 41139","Match","Exact","918 DIEDRICH DR, FLATWOODS, KY, 41139",639998630,"L"
312837,"918 DONNELLY PLACE","MCHENRY","IL",60050,42.3162284910001,-88.268352657,337,"918 DONNELLY PLACE, MCHENRY, IL, 60050","Match","Exact","918 DONNELLY PL, MCHENRY, IL, 60050",119845616,"L"
312838,"918 E 106TH STREET","BROOKLYN","NY",11236,40.6475796880001,-73.8935532039999,338,"918 E 106TH STREET, BROOKLYN, NY, 11236","Match","Exact","918 E 106TH ST, BROOKLYN, NY, 11236",59086718,"R"
312839,"918 E 40TH AVE APT 1A","GRIFFITH","IL",46319,NA,NA,339,"918 E 40TH AVE APT 1A, GRIFFITH, IL, 46319","No_Match",NA,NA,NA,NA
312840,"918 E CALHOUN ST","SPRINGFIELD","MO",65802,37.2220854660001,-93.280509831,340,"918 E CALHOUN ST, SPRINGFIELD, MO, 65802","Match","Exact","918 E CALHOUN ST, SPRINGFIELD, MO, 65802",647737093,"R"
312841,"918 E CALHOUN","SPRINGFIELD","MO",65801,NA,NA,341,"918 E CALHOUN, SPRINGFIELD, MO, 65801","No_Match",NA,NA,NA,NA
312842,"918 E DENWALL DR","CARSON","CA",90746,33.8474400150001,-118.258083156,342,"918 E DENWALL DR, CARSON, CA, 90746","Match","Exact","918 E DENWALL DR, CARSON, CA, 90746",141680629,"R"
312843,"918 EAGLE POINT DRIVE","MATTESON","IL",60443,41.5091339850001,-87.7678969949999,343,"918 EAGLE POINT DRIVE, MATTESON, IL, 60443","Match","Exact","918 EAGLE POINT DR, MATTESON, IL, 60443",637498243,"R"
312844,"918 EAST 100 SOUTH","SALT LAKE CITY","UT",84102,40.76717806,-111.864618807,344,"918 EAST 100 SOUTH, SALT LAKE CITY, UT, 84102","Match","Exact","918 E 100 S, SALT LAKE CITY, UT, 84102",176068099,"R"
312845,"918 FILLY LN","TEMPLE","TX",76504,31.099852196,-97.388843821,345,"918 FILLY LN, TEMPLE, TX, 76504","Match","Exact","918 FILLY LN, TEMPLE, TX, 76504",146227808,"R"
312846,"918 FRAZIER RD","RYDAL","PA",19046,40.1010626510001,-75.112239664,346,"918 FRAZIER RD, RYDAL, PA, 19046","Match","Exact","918 FRAZIER RD, RYDAL, PA, 19046",135106366,"L"
312847,"918 GEORGE ALLEN DRIVE","SOUTH VIENNA","OH",45369,39.9379391080001,-83.5960062839999,347,"918 GEORGE ALLEN DRIVE, SOUTH VIENNA, OH, 45369","Match","Exact","918 GEORGE ALLEN DR, SOUTH VIENNA, OH, 45369",629968216,"L"
312848,"918 GROUSE RD","GLENN HEIGHTS","TX",75154,32.565333266,-96.8347348629999,348,"918 GROUSE RD, GLENN HEIGHTS, TX, 75154","Match","Exact","918 GROUSE RD, GLENN HEIGHTS, TX, 75154",103278109,"R"
312849,"918 HAMPTON AVENUE","BROOKLYN","NY",11235,40.580113925,-73.9456035119999,349,"918 HAMPTON AVENUE, BROOKLYN, NY, 11235","Match","Exact","918 HAMPTON AVE, BROOKLYN, NY, 11235",59091934,"R"
312850,"918 HOPE MILLS ROAD","FAYETTEVILLE","NC",28304,35.0319868060001,-78.9609828339999,350,"918 HOPE MILLS ROAD, FAYETTEVILLE, NC, 28304","Match","Exact","918 HOPE MILLS RD, FAYETTEVILLE, NC, 28304",613204914,"R"
312851,"918 HUNTINGDON PIKE","HUNTINGDON VALLEY","PA",19006,40.0929592190001,-75.0928634049999,351,"918 HUNTINGDON PIKE, HUNTINGDON VALLEY, PA, 19006","Match","Exact","918 HUNTINGDON PIKE, HUNTINGDON VALLEY, PA, 19006",135095454,"L"
312852,"918 JOE FRANK HARRIS PKWY- 200191","CARTERSVILLE","GA",30120,NA,NA,352,"918 JOE FRANK HARRIS PKWY- 200191, CARTERSVILLE, GA, 30120","No_Match",NA,NA,NA,NA
312853,"918 JORDACHE DRIVE","LOVELAND","CO",80538,40.439776189,-105.089223348,353,"918 JORDACHE DRIVE, LOVELAND, CO, 80538","Match","Exact","918 JORDACHE DR, LOVELAND, CO, 80538",636176819,"R"
312854,"918 KENSINGTON DRIVE","CENTERTON","AR",72719,36.359387376,-94.269732569,354,"918 KENSINGTON DRIVE, CENTERTON, AR, 72719","Match","Exact","918 KENSINGTON DR, CENTERTON, AR, 72719",47885530,"L"
312855,"918 LAMONTE LN","HOUSTON","TX",77018,29.8270599350001,-95.420795158,355,"918 LAMONTE LN, HOUSTON, TX, 77018","Match","Exact","918 LAMONTE LN, HOUSTON, TX, 77018",96054224,"R"
312856,"918 LOGGERS CIRCLE","ROCHESTER","MI",48307,42.6923679860001,-83.101303784,356,"918 LOGGERS CIRCLE, ROCHESTER, MI, 48307","Match","Exact","918 LOGGERS CIR, ROCHESTER, MI, 48307",69792856,"L"
312857,"918 LOONEY AVE","MEMPHIS","TN",38107,35.1606002460001,-90.0275032339999,357,"918 LOONEY AVE, MEMPHIS, TN, 38107","Match","Exact","918 LOONEY AVE, MEMPHIS, TN, 38107",72904293,"L"
312858,"918 MAGNOLIA CIRCLE","JONESBORO","GA",30236,33.5365180420001,-84.37200441,358,"918 MAGNOLIA CIRCLE, JONESBORO, GA, 30236","Match","Exact","918 MAGNOLIA CIR, JONESBORO, GA, 30236",23326399,"R"
312859,"918 MAIN STREET","CLINTON","MA",1510,42.428922153,-71.687981354,359,"918 MAIN STREET, CLINTON, MA, 1510","Match","Exact","918 MAIN ST, CLINTON, MA, 01510",40035275,"R"
312860,"918 MIDWAY AVE","DURHAM","NC",27703,35.966622165,-78.857505508,360,"918 MIDWAY AVE, DURHAM, NC, 27703","Match","Exact","918 MIDWAY AVE, DURHAM, NC, 27703",71773740,"R"
312861,"918 MISSION AVE","OCEANSIDE","CA",92054,33.197797834,-117.376320974,361,"918 MISSION AVE, OCEANSIDE, CA, 92054","Match","Exact","918 MISSION AVE, OCEANSIDE, CA, 92054",195280602,"L"
312862,"918 MISSION WAY","SACRAMENTO","CA",95819,38.5695944390001,-121.449632946,362,"918 MISSION WAY, SACRAMENTO, CA, 95819","Match","Exact","918 MISSION WAY, SACRAMENTO, CA, 95819",133420669,"R"
312863,"918 MONTROSE PKWY","NORCROSS","GA",30092,33.9710043440001,-84.206068525,363,"918 MONTROSE PKWY, NORCROSS, GA, 30092","Match","Exact","918 MONTROSE PKWY, NORCROSS, GA, 30092",88951609,"R"
312864,"918 N 17TH STREET","MANHATTAN","KS",66506,39.1876451250001,-96.583195191,364,"918 N 17TH STREET, MANHATTAN, KS, 66506","Match","Non_Exact","918 N 17TH ST, MANHATTAN, KS, 66502",647245355,"R"
312865,"918 N 23RD AVENUE","MELROSE PARK","IL",60160,41.8951242740001,-87.861595385,365,"918 N 23RD AVENUE, MELROSE PARK, IL, 60160","Match","Exact","918 23RD AVE, MELROSE PARK, IL, 60160",111727663,"L"
312866,"918 N 66TH ST","PHILA","PA",19151,39.9772464540001,-75.252415745,366,"918 N 66TH ST, PHILA, PA, 19151","Match","Exact","918 N 66TH ST, PHILA, PA, 19151",131396970,"L"
312867,"918 N BRIDGE ST","CHIPPEWA FALLS","WI",54729,44.9413302820001,-91.3983826899999,367,"918 N BRIDGE ST, CHIPPEWA FALLS, WI, 54729","Match","Exact","918 N BRIDGE ST, CHIPPEWA FALLS, WI, 54729",78924194,"L"
312868,"918 NE 18TH STREET","GAINESVILLE","FL",32641,29.659399153,-82.30160539,368,"918 NE 18TH STREET, GAINESVILLE, FL, 32641","Match","Exact","918 NE 18TH ST, GAINESVILLE, FL, 32641",6809618,"L"
312869,"918 NORTH 59TH AVE","PENSACOLA","FL",32506,30.421568501,-87.294024157,369,"918 NORTH 59TH AVE, PENSACOLA, FL, 32506","Match","Exact","918 N 59TH AVE, PENSACOLA, FL, 32506",93282137,"R"
312870,"918 NW MOSSY OAK WAY","JENSEN BEACH","FL",34957,27.2509504820001,-80.2606636089999,370,"918 NW MOSSY OAK WAY, JENSEN BEACH, FL, 34957","Match","Exact","918 NW MOSSY OAK WAY, JENSEN BEACH, FL, 34957",120452975,"R"
312871,"918 OAKLAND AVENUE","FLORENCE","SC",29506,34.208527514,-79.7570003339999,371,"918 OAKLAND AVENUE, FLORENCE, SC, 29506","Match","Exact","918 OAKLAND AVE, FLORENCE, SC, 29506",28876538,"R"
312872,"918 OBISPO STREET","GUADALUPE","CA",93434,34.969326304,-120.569608769,372,"918 OBISPO STREET, GUADALUPE, CA, 93434","Match","Exact","918 OBISPO ST, GUADALUPE, CA, 93434",108578419,"R"
312873,"918 PEACOCK RD","RICHMOND","IN",47374,39.832746684,-84.914808936,373,"918 PEACOCK RD, RICHMOND, IN, 47374","Match","Exact","918 PEACOCK RD, RICHMOND, IN, 47374",31324054,"L"
312874,"918 PENISTON ST","NEW ORLEANS","LA",70115,29.9216895770001,-90.094157237,374,"918 PENISTON ST, NEW ORLEANS, LA, 70115","Match","Exact","918 PENISTON ST, NEW ORLEANS, LA, 70115",191713187,"L"
312875,"918 PERSON ST","FAYETTEVILLE","NC",28301,35.047616544,-78.8621542989999,375,"918 PERSON ST, FAYETTEVILLE, NC, 28301","Match","Exact","918 PERSON ST, FAYETTEVILLE, NC, 28301",64202511,"R"
312876,"918 REMSEN AVE","BROOKLYN","NY",11236,40.6459341930001,-73.9123220119999,376,"918 REMSEN AVE, BROOKLYN, NY, 11236","Match","Exact","918 REMSEN AVE, BROOKLYN, NY, 11236",59086317,"R"
312877,"918 RIVER ROAD","CANNON FALLS","MN",55009,NA,NA,377,"918 RIVER ROAD, CANNON FALLS, MN, 55009","No_Match",NA,NA,NA,NA
312878,"918 S  230 W","PRINCETON","IN",47670,NA,NA,378,"918 S  230 W, PRINCETON, IN, 47670","No_Match",NA,NA,NA,NA
312879,"918 S HORTON ST SUITE 914","SEATTLE","WA",98134,47.574226911,-122.32136772,379,"918 S HORTON ST SUITE 914, SEATTLE, WA, 98134","Match","Non_Exact","918 S HORTON ST, SEATTLE, WA, 98134",186992816,"L"
312880,"918 S MARENGO AVE STE 2","PASADENA","CA",91106,34.13003508,-118.145791094,380,"918 S MARENGO AVE STE 2, PASADENA, CA, 91106","Match","Non_Exact","918 S MARENGO AVE, PASADENA, CA, 91106",141629731,"L"
312881,"918 SPRING KNOL","SAN ANTONIO","TX",78258,29.627256932,-98.488835807,381,"918 SPRING KNOL, SAN ANTONIO, TX, 78258","Match","Exact","918 SPRING KNOLL, SAN ANTONIO, TX, 78258",101556143,"L"
312882,"918 SPRING KNOLL","SAN ANTONIO","TX",78258,29.627256932,-98.488835807,382,"918 SPRING KNOLL, SAN ANTONIO, TX, 78258","Match","Exact","918 SPRING KNOLL, SAN ANTONIO, TX, 78258",101556143,"L"
312883,"918 SPRING PARK LOOP APT B","CELEBRATION","FL",34747,28.3126320270001,-81.555608083,383,"918 SPRING PARK LOOP APT B, CELEBRATION, FL, 34747","Match","Exact","918 SPRING PARK LOOP, CELEBRATION, FL, 34747",176694722,"R"
312884,"918 STILL SPRING RUN","INMAN","SC",29349,35.099218104,-82.0422092759999,384,"918 STILL SPRING RUN, INMAN, SC, 29349","Match","Exact","918 STILL SPRING RUN, INMAN, SC, 29349",632226966,"L"
312885,"918 SW 11TH TERRACE","DELRAY BEACH","FL",33444,26.4478547000001,-80.085079553,385,"918 SW 11TH TERRACE, DELRAY BEACH, FL, 33444","Match","Exact","918 SW 11TH TER, DELRAY BEACH, FL, 33444",115291123,"R"
312886,"918 THIRD STREET","NATCHITOCHES","LA",71457,31.7656769980001,-93.08859413,386,"918 THIRD STREET, NATCHITOCHES, LA, 71457","Match","Exact","918 3RD ST, NATCHITOCHES, LA, 71457",13349498,"L"
312887,"918 W 1ST NORTH STREET","MORRISTOWN","TN",37814,36.2096896460001,-83.3027530369999,387,"918 W 1ST NORTH STREET, MORRISTOWN, TN, 37814","Match","Exact","918 W 1ST NORTH ST, MORRISTOWN, TN, 37814",42215424,"L"
312888,"918 W BLVD","RACINE","WI",53405,42.7222115120001,-87.81622348,388,"918 W BLVD, RACINE, WI, 53405","Match","Exact","918 WEST BLVD, RACINE, WI, 53405",77909463,"R"
312889,"918 W CANAL DR","KENNEWICK","WA",99336,46.210778487,-119.130375144,389,"918 W CANAL DR, KENNEWICK, WA, 99336","Match","Exact","918 W CANAL DR, KENNEWICK, WA, 99336",174987437,"R"
312890,"918 W COLLEGE ST","LOS ANGELES","CA",90012,34.0665876830001,-118.24490535,390,"918 W COLLEGE ST, LOS ANGELES, CA, 90012","Match","Exact","918 W COLLEGE ST, LOS ANGELES, CA, 90012",141617904,"L"
312891,"918 W FALCON","SPOKANE","WA",99218,47.7591606440001,-117.424644491,391,"918 W FALCON, SPOKANE, WA, 99218","Match","Non_Exact","918 W FALCON AVE, SPOKANE, WA, 99218",189868194,"R"
312892,"918 W SLIGH AVE","TAMPA","FL",33604,28.010735647,-82.4682145519999,392,"918 W SLIGH AVE, TAMPA, FL, 33604","Match","Exact","918 W SLIGH AVE, TAMPA, FL, 33604",104518016,"L"
312893,"918 W SPRINGFIELD AVE","CHAMPAIGN","IL",61821,40.1126666760001,-88.259271771,393,"918 W SPRINGFIELD AVE, CHAMPAIGN, IL, 61821","Match","Exact","918 W SPRINGFIELD AVE, CHAMPAIGN, IL, 61821",8810505,"R"
312894,"918 WEST FOOTHILL BLVD","AZUSA","CA",91702,34.133542462,-117.918478286,394,"918 WEST FOOTHILL BLVD, AZUSA, CA, 91702","Match","Exact","918 W FOOTHILL BLVD, AZUSA, CA, 91702",142779121,"L"
312895,"918 WEST SUMMIT AVENUE","FERGUS FALLS","MN",56537,46.2855776480001,-96.0911299649999,395,"918 WEST SUMMIT AVENUE, FERGUS FALLS, MN, 56537","Match","Exact","918 W SUMMIT AVE, FERGUS FALLS, MN, 56537",168288770,"R"
312896,"918 WESTMINISTER LN","DUNCANVILLE","TX",75137,32.643353045,-96.934892871,396,"918 WESTMINISTER LN, DUNCANVILLE, TX, 75137","Match","Exact","918 WESTMINISTER LN, DUNCANVILLE, TX, 75137",102989642,"L"
312897,"918 WILLOW AVE 5R","HOBOKEN","NJ",7030,40.7482265510001,-74.0314349609999,397,"918 WILLOW AVE 5R, HOBOKEN, NJ, 7030","Match","Exact","918 WILLOW AVE, HOBOKEN, NJ, 07030",59606834,"L"
312898,"9180 BROWN DEER RD","SAN DIEGO","CA",92121,32.889195902,-117.180069416,398,"9180 BROWN DEER RD, SAN DIEGO, CA, 92121","Match","Exact","9180 BROWN DEER RD, SAN DIEGO, CA, 92121",195666741,"L"
312899,"9180 CIRCLE DRIVE NW","ALEXANDRIA","MN",56308,45.9877177720001,-95.427889485,399,"9180 CIRCLE DRIVE NW, ALEXANDRIA, MN, 56308","Match","Exact","9180 CIRCLE DR NW, ALEXANDRIA, MN, 56308",204664482,"L"
312900,"9180 TOWN SQUARE BLVD SUITE 1141","AMARILLO","TX",79119,35.150057555,-101.944392954,400,"9180 TOWN SQUARE BLVD SUITE 1141, AMARILLO, TX, 79119","Match","Exact","9180 TOWN SQUARE BLVD, AMARILLO, TX, 79119",641816138,"R"
312901,"9181 DRAYTON LANE","FORT MILL","SC",29707,34.9743678450001,-80.867370189,401,"9181 DRAYTON LANE, FORT MILL, SC, 29707","Match","Exact","9181 DRAYTON LN, FORT MILL, SC, 29707",627972622,"R"
312902,"9181 US HWY 277 SOUTH","HAWLEY","TX",79525,NA,NA,402,"9181 US HWY 277 SOUTH, HAWLEY, TX, 79525","No_Match",NA,NA,NA,NA
312903,"9182 CEDAR RIDGE DRIVE","GRANITE BAY","CA",95746,38.7345124180001,-121.217743077,403,"9182 CEDAR RIDGE DRIVE, GRANITE BAY, CA, 95746","Match","Exact","9182 CEDAR RIDGE DR, GRANITE BAY, CA, 95746",608080262,"R"
312904,"9183 HECTOR AVE","SAN DIEGO","CA",92123,32.791978219,-117.128731277,404,"9183 HECTOR AVE, SAN DIEGO, CA, 92123","Match","Exact","9183 HECTOR AVE, SAN DIEGO, CA, 92123",195321600,"R"
312905,"9183 SOUTH JEFFERSON PLACE","SANDY","UM",84070,NA,NA,405,"9183 SOUTH JEFFERSON PLACE, SANDY, UM, 84070","No_Match",NA,NA,NA,NA
312906,"91832 HIGHWAY 104","WARRENTON","OR",97146,46.136011582,-123.930099981,406,"91832 HIGHWAY 104, WARRENTON, OR, 97146","Match","Non_Exact","91832 STATE RTE 104, WARRENTON, OR, 97146",159243367,"L"
312907,"9184 MONTORO DRIVE","CINCINNATI","OH",45321,39.236568639,-84.5638446,407,"9184 MONTORO DRIVE, CINCINNATI, OH, 45321","Match","Non_Exact","9184 MONTORO DR, CINCINNATI, OH, 45231",103919486,"R"
312908,"9185 SW BURNHAM STREET","TIGARD","OR",97223,45.4291363950001,-122.77103809,408,"9185 SW BURNHAM STREET, TIGARD, OR, 97223","Match","Exact","9185 SW BURNHAM ST, TIGARD, OR, 97223",158196253,"R"
312909,"9186 WILDERIDGE LN","CORDOVA","TN",38018,35.131365514,-89.7566531639999,409,"9186 WILDERIDGE LN, CORDOVA, TN, 38018","Match","Exact","9186 WILDERIDGE LN, CORDOVA, TN, 38018",607428438,"L"
312910,"91868 YOUNGS RIVER ROAD","ASTORIA","OR",97103,46.144559696,-123.829095131,410,"91868 YOUNGS RIVER ROAD, ASTORIA, OR, 97103","Match","Exact","91868 YOUNGS RIVER RD, ASTORIA, OR, 97103",159222168,"L"
312911,"9187 PYRITE CIRCLE","MOSCA","CO",81146,37.708300265,-105.869525458,411,"9187 PYRITE CIRCLE, MOSCA, CO, 81146","Match","Exact","9187 PYRITE CIR, MOSCA, CO, 81146",104178702,"R"
312912,"9187 S 700 E","SANDY","UT",84070,40.584597338,-111.872186021,412,"9187 S 700 E, SANDY, UT, 84070","Match","Exact","9187 S 700 E, SANDY, UT, 84070",636801206,"L"
312913,"9187 W FLAMINGO RD SUITE 110","LAS VEGAS","NV",89147,36.114907992,-115.291729787,413,"9187 W FLAMINGO RD SUITE 110, LAS VEGAS, NV, 89147","Match","Non_Exact","9187 W FLAMINGO RD, LAS VEGAS, NV, 89147",201957152,"L"
312914,"9188 PAMPAS CT","COVINGTON","KY",41015,38.9817574740001,-84.5036590889999,414,"9188 PAMPAS CT, COVINGTON, KY, 41015","Match","Exact","9188 PAMPAS CT, COVINGTON, KY, 41015",103896987,"L"
312915,"9188 PINEWOOD COURT","ATASCADERO","CA",93422,35.4605245710001,-120.645505135,415,"9188 PINEWOOD COURT, ATASCADERO, CA, 93422","Match","Exact","9188 PINEWOOD CT, ATASCADERO, CA, 93422",109797072,"R"
312916,"9188 SW PLATINUM PLACE","BEAVERTON","OR",97007,45.4534071900001,-122.835704957,416,"9188 SW PLATINUM PLACE, BEAVERTON, OR, 97007","Match","Exact","9188 SW PLATINUM PL, BEAVERTON, OR, 97007",605207756,"L"
312917,"9189 CRESCENT LN","LAPLATA","MD",20646,38.5788618290001,-76.9971265619999,417,"9189 CRESCENT LN, LAPLATA, MD, 20646","Match","Non_Exact","9189 CRESCENT LN, LA PLATA, MD, 20646",649956212,"L"
312918,"9189 GALE BLVD 2311","THORNTON","CO",80260,39.861195702,-105.000112821,418,"9189 GALE BLVD 2311, THORNTON, CO, 80260","Match","Exact","9189 GALE BLVD, THORNTON, CO, 80260",177370966,"L"
312919,"918A NORTH POINDEXTER STREET","ELIZABETH CITY","NC",27909,36.3052553520001,-76.215499145,419,"918A NORTH POINDEXTER STREET, ELIZABETH CITY, NC, 27909","Match","Exact","918 N POINDEXTER ST, ELIZABETH CITY, NC, 27909",18592391,"R"
312920,"919  MAGNOLIA LN","LANCASTER","TX",75146,32.6033260880001,-96.7754137159999,420,"919  MAGNOLIA LN, LANCASTER, TX, 75146","Match","Exact","919 MAGNOLIA LN, LANCASTER, TX, 75146",102955141,"R"
312921,"919 13TH AVE SOUTH","NAMPA","ID",83651,43.5718281960001,-116.566794563,421,"919 13TH AVE SOUTH, NAMPA, ID, 83651","Match","Exact","919 13TH AVE S, NAMPA, ID, 83651",122787216,"L"
312922,"919 20TH STREET","ZION","IL",60099,42.4588610010001,-87.820768007,422,"919 20TH STREET, ZION, IL, 60099","Match","Exact","919 20TH ST, ZION, IL, 60099",119628202,"L"
312923,"919 39TH ST SW","ROCHESTER","MN",55902,43.9658350180001,-92.476978308,423,"919 39TH ST SW, ROCHESTER, MN, 55902","Match","Exact","919 39TH ST SW, ROCHESTER, MN, 55902",30559301,"L"
312924,"919 4TH STREET","MIAMI BEACH","FL",33139,25.773601533,-80.137413199,424,"919 4TH STREET, MIAMI BEACH, FL, 33139","Match","Exact","919 4TH ST, MIAMI BEACH, FL, 33139",116020732,"R"
312925,"919 53RD AVENUE","OAKLAND","CA",94601,37.76501726,-122.209994499,425,"919 53RD AVENUE, OAKLAND, CA, 94601","Match","Exact","919 53RD AVE, OAKLAND, CA, 94601",125007593,"L"
312926,"919 7TH STREET","PORTSMOUTH","OH",45662,38.7355221460001,-82.99367834,426,"919 7TH STREET, PORTSMOUTH, OH, 45662","Match","Exact","919 7TH ST, PORTSMOUTH, OH, 45662",55113663,"R"
312927,"919 BARRETT AVENUE SUITE 2","LOUISVILLE","KY",40204,38.2396068990001,-85.730665613,427,"919 BARRETT AVENUE SUITE 2, LOUISVILLE, KY, 40204","Match","Non_Exact","919 BARRET AVE, LOUISVILLE, KY, 40204",96847057,"L"
312928,"919 BERRYHILL ROAD","CHARLOTTE","NC",28036,35.239425624,-80.871926876,428,"919 BERRYHILL ROAD, CHARLOTTE, NC, 28036","Match","Non_Exact","919 BERRYHILL RD, CHARLOTTE, NC, 28208",70476893,"L"
312929,"919 BERT","ARLINGTON","TX",76012,32.7734521260001,-97.116761755,429,"919 BERT, ARLINGTON, TX, 76012","Match","Non_Exact","919 BERT DR, ARLINGTON, TX, 76012",101873350,"R"
312930,"919 BIRCH AVE","UNION","NJ",7083,40.677114691,-74.238238656,430,"919 BIRCH AVE, UNION, NJ, 7083","Match","Exact","919 BIRCH AVE, UNION, NJ, 07083",639002627,"R"
312931,"919 BIRCH AVENUE","UNION","NJ",7083,40.677114691,-74.238238656,431,"919 BIRCH AVENUE, UNION, NJ, 7083","Match","Exact","919 BIRCH AVE, UNION, NJ, 07083",639002627,"R"
312932,"919 BRINTON AVE","PITCAIRN","PA",15140,40.406656765,-79.773507998,432,"919 BRINTON AVE, PITCAIRN, PA, 15140","Match","Exact","919 BRINTON AVE, PITCAIRN, PA, 15140",51674686,"R"
312933,"919 BRYANT ST","CALIMESA","CA",92320,34.004165141,-117.034470684,433,"919 BRYANT ST, CALIMESA, CA, 92320","Match","Exact","919 BRYANT ST, CALIMESA, CA, 92320",195064384,"L"
312934,"919 CAMBRIDGE DR","DUNCANVILLE","TX",75137,32.623057439,-96.889944712,434,"919 CAMBRIDGE DR, DUNCANVILLE, TX, 75137","Match","Exact","919 CAMBRIDGE DR, DUNCANVILLE, TX, 75137",640539714,"L"
312935,"919 CLERMONT ST","BAKER","LA",70714,30.5803489580001,-91.13359794,435,"919 CLERMONT ST, BAKER, LA, 70714","Match","Exact","919 CLERMONT ST, BAKER, LA, 70714",92208876,"L"
312936,"919 CONFERENCE DR 4-315","GOODLETTSVILLE","TN",37072,36.3239300340001,-86.701070869,436,"919 CONFERENCE DR 4-315, GOODLETTSVILLE, TN, 37072","Match","Exact","919 CONFERENCE DR, GOODLETTSVILLE, TN, 37072",97182408,"L"
312937,"919 CONGRESS STE 1425","AUSTIN","TX",78701,30.271075212,-97.7416749929999,437,"919 CONGRESS STE 1425, AUSTIN, TX, 78701","Match","Non_Exact","919 CONGRESS AVE, AUSTIN, TX, 78701",63943447,"R"
312938,"919 DELAWARE AVE","AMES","IA",50014,42.0308855910001,-93.679862747,438,"919 DELAWARE AVE, AMES, IA, 50014","Match","Exact","919 DELAWARE AVE, AMES, IA, 50014",635853788,"L"
312939,"919 DUNHILL WAY","NEWPORT NEWS","VA",23602,37.1135795770001,-76.476116556,439,"919 DUNHILL WAY, NEWPORT NEWS, VA, 23602","Match","Exact","919 DUNHILL WAY, NEWPORT NEWS, VA, 23602",103812664,"R"
312940,"919 E 15TH STREET","RICHMOND","VA",23224,37.51298139,-77.4406206469999,440,"919 E 15TH STREET, RICHMOND, VA, 23224","Match","Exact","919 E 15TH ST, RICHMOND, VA, 23224",201542162,"R"
312941,"919 E CREOLE HWY","CREOLE","LA",70632,29.8190447590001,-93.0620189209999,441,"919 E CREOLE HWY, CREOLE, LA, 70632","Match","Non_Exact","919 E CREOLE RD, CREOLE, LA, 70632",88661825,"L"
312942,"919 EAST CHICAGO AVE  PO BOX 6","YALE","OK",74085,NA,NA,442,"919 EAST CHICAGO AVE  PO BOX 6, YALE, OK, 74085","No_Match",NA,NA,NA,NA
312943,"919 EAST MAIN STREET 24TH FLOOR","RICHMOND","VA",23219,37.538088482,-77.436100557,443,"919 EAST MAIN STREET 24TH FLOOR, RICHMOND, VA, 23219","Match","Exact","919 E MAIN ST, RICHMOND, VA, 23219",201540587,"R"
312944,"919 EMERALD DRIVE","DESOTO","TX",75115,32.6106467130001,-96.879964306,444,"919 EMERALD DRIVE, DESOTO, TX, 75115","Match","Exact","919 EMERALD DR, DESOTO, TX, 75115",623861467,"L"
312945,"919 FIRST STREET","MANHATTAN BEACH","CA",90266,33.8793863020001,-118.399813745,445,"919 FIRST STREET, MANHATTAN BEACH, CA, 90266","Match","Exact","919 1ST ST, MANHATTAN BEACH, CA, 90266",141582519,"L"
312946,"919 FLORENCE AVE","FORT WAYNE","IN",46808,41.0949980880001,-85.1540087829999,446,"919 FLORENCE AVE, FORT WAYNE, IN, 46808","Match","Exact","919 FLORENCE AVE, FORT WAYNE, IN, 46808",6377169,"L"
312947,"919 FOXPOINTE CIR","DELRAY BEACH","FL",33445,26.4481986650001,-80.121318177,447,"919 FOXPOINTE CIR, DELRAY BEACH, FL, 33445","Match","Exact","919 FOXPOINTE CIR, DELRAY BEACH, FL, 33445",644044429,"R"
312948,"919 FRANKLIN STREET","BURKE","SD",57523,43.181214035,-99.28791752,448,"919 FRANKLIN STREET, BURKE, SD, 57523","Match","Exact","919 FRANKLIN ST, BURKE, SD, 57523",174562660,"L"
312949,"919 GEORGIAN POINT DRIVE","LAWRENCEVILLE","GA",30045,33.953009002,-83.94004362,449,"919 GEORGIAN POINT DRIVE, LAWRENCEVILLE, GA, 30045","Match","Exact","919 GEORGIAN POINT DR, LAWRENCEVILLE, GA, 30045",88964201,"L"
312950,"919 GILDER DRIVE","NEW CASTLE","DE",19720,39.6210594090001,-75.6496552789999,450,"919 GILDER DRIVE, NEW CASTLE, DE, 19720","Match","Exact","919 GILDER DR, NEW CASTLE, DE, 19720",187281651,"L"
312951,"919 GLENWOOD AVE","SYRACUSE","NY",13207,43.019416404,-76.174287926,451,"919 GLENWOOD AVE, SYRACUSE, NY, 13207","Match","Exact","919 GLENWOOD AVE, SYRACUSE, NY, 13207",46622737,"L"
312952,"919 GRANDON AVE","BEXLEY","OH",43209,39.951004315,-82.926742716,452,"919 GRANDON AVE, BEXLEY, OH, 43209","Match","Exact","919 GRANDON AVE, BEXLEY, OH, 43209",135591111,"R"
312953,"919 HARRIS AVE","OKLAHOMA CITY","OK",73107,35.4757153690001,-97.599987904,453,"919 HARRIS AVE, OKLAHOMA CITY, OK, 73107","Match","Exact","919 HARRIS AVE, OKLAHOMA CITY, OK, 73107",100392033,"L"
312954,"919 HCR 3266","MOUNT CALM","TX",76673,NA,NA,454,"919 HCR 3266, MOUNT CALM, TX, 76673","No_Match",NA,NA,NA,NA
312955,"919 KOSCIUSZKO AVENUE","GLEN BURNIE","MD",21060,39.151755435,-76.54724794,455,"919 KOSCIUSZKO AVENUE, GLEN BURNIE, MD, 21060","Match","Exact","919 KOSCIUSZKO AVE, GLEN BURNIE, MD, 21060",617914042,"R"
312956,"919 LESLIE RD","CHARLESTON","WV",25314,38.34639889,-81.6640229879999,456,"919 LESLIE RD, CHARLESTON, WV, 25314","Match","Exact","919 LESLIE RD, CHARLESTON, WV, 25314",78593022,"R"
312957,"919 LILAC DRIVE NORTH","GOLDEN VALLEY","MN",55422,44.989199609,-93.3498167119999,457,"919 LILAC DRIVE NORTH, GOLDEN VALLEY, MN, 55422","Match","Exact","919 LILAC DR N, GOLDEN VALLEY, MN, 55422",640760035,"L"
312958,"919 MACLAY DR","SAN JOSE","CA",95123,37.2396793240001,-121.857169967,458,"919 MACLAY DR, SAN JOSE, CA, 95123","Match","Exact","919 MACLAY DR, SAN JOSE, CA, 95123",122922898,"R"
312959,"919 MANSARD DR APT 107","BIRMINGHAM","AL",35209,33.4791458890001,-86.811061399,459,"919 MANSARD DR APT 107, BIRMINGHAM, AL, 35209","Match","Exact","919 MANSARD DR, BIRMINGHAM, AL, 35209",81581431,"R"
312960,"919 MIAMI CHAPEL ROAD","DAYTON","OH",45417,39.738125473,-84.210210182,460,"919 MIAMI CHAPEL ROAD, DAYTON, OH, 45417","Match","Exact","919 MIAMI CHAPEL RD, DAYTON, OH, 45417",143570984,"R"
312961,"919 N DYSART ROAD SUITE W","AVONDALE","AZ",85323,33.4455752860001,-112.341086429,461,"919 N DYSART ROAD SUITE W, AVONDALE, AZ, 85323","Match","Non_Exact","919 N DYSART RD, AVONDALE, AZ, 85323",647766269,"R"
312962,"919 N NAID ST","GRAND SALINE","TX",75140,32.681007607,-95.711587545,462,"919 N NAID ST, GRAND SALINE, TX, 75140","Match","Exact","919 N NAID ST, GRAND SALINE, TX, 75140",42917312,"L"
312963,"919 N PEAK","DALLAS","TX",75204,32.795431883,-96.775371977,463,"919 N PEAK, DALLAS, TX, 75204","Match","Non_Exact","919 N PEAK ST, DALLAS, TX, 75204",652308272,"L"
312964,"919 NEW YORK AVE","ALAMOGORDO","NM",88310,32.8989852870001,-105.959226869,464,"919 NEW YORK AVE, ALAMOGORDO, NM, 88310","Match","Exact","919 NEW YORK AVE, ALAMOGORDO, NM, 88310",132290499,"L"
312965,"919 NORTH BROAD STREET","ELIZABETH","NJ",7208,40.686054332,-74.2146241089999,465,"919 NORTH BROAD STREET, ELIZABETH, NJ, 7208","Match","Exact","919 N BROAD ST, ELIZABETH, NJ, 07208",60577818,"R"
312966,"919 NORTH MARKET STREET  SUITE 950","WILMINGTON","DE",19801,39.744883015,-75.548268407,466,"919 NORTH MARKET STREET  SUITE 950, WILMINGTON, DE, 19801","Match","Exact","919 N MARKET ST, WILMINGTON, DE, 19801",187257882,"L"
312967,"919 NORTH MARKET STREET SUITE 425","WILMINGTON","DE",19801,39.744883015,-75.548268407,467,"919 NORTH MARKET STREET SUITE 425, WILMINGTON, DE, 19801","Match","Exact","919 N MARKET ST, WILMINGTON, DE, 19801",187257882,"L"
312968,"919 NORTH MARKET STREET SUITE 950","WILMINGTON","DE",19801,39.744883015,-75.548268407,468,"919 NORTH MARKET STREET SUITE 950, WILMINGTON, DE, 19801","Match","Exact","919 N MARKET ST, WILMINGTON, DE, 19801",187257882,"L"
312969,"919 NORTH PRAIRIE AVE","JOLIET","IL",60435,41.5400423130001,-88.1025671789999,469,"919 NORTH PRAIRIE AVE, JOLIET, IL, 60435","Match","Exact","919 N PRAIRIE AVE, JOLIET, IL, 60435",111540655,"L"
312970,"919 NORTHWIND DRIVE","WINSTON-SALEM","NC",27127,35.9886238620001,-80.238660194,470,"919 NORTHWIND DRIVE, WINSTON-SALEM, NC, 27127","Match","Exact","919 NORTHWIND DR, WINSTON SALEM, NC, 27127",20221923,"L"
312971,"919 OAK PARK BLVD","CEDAR FALLS","IA",50613,42.5453766300001,-92.4716163959999,471,"919 OAK PARK BLVD, CEDAR FALLS, IA, 50613","Match","Exact","919 OAK PARK BLVD, CEDAR FALLS, IA, 50613",212733005,"R"
312972,"919 OAK ST","HOUSTON","TX",77018,29.835589021,-95.414590613,472,"919 OAK ST, HOUSTON, TX, 77018","Match","Exact","919 OAK ST, HOUSTON, TX, 77018",96054756,"L"
312973,"919 PINE STREET","BOULDER","CO",80302,40.0191873250001,-105.284071441,473,"919 PINE STREET, BOULDER, CO, 80302","Match","Exact","919 PINE ST, BOULDER, CO, 80302",188159477,"L"
312974,"919 POWELL DR","GARNER","NC",27529,35.7151820660001,-78.614723431,474,"919 POWELL DR, GARNER, NC, 27529","Match","Exact","919 POWELL DR, GARNER, NC, 27529",72511643,"L"
312975,"919 POWERS STREET","OSHKOSH","WI",54901,44.0284015870001,-88.529451604,475,"919 POWERS STREET, OSHKOSH, WI, 54901","Match","Exact","919 POWERS ST, OSHKOSH, WI, 54901",74490608,"L"
312976,"919 PRAIRIE SMOKE LN","DUNCANVILLE","TX",75137,32.642567892,-96.917768601,476,"919 PRAIRIE SMOKE LN, DUNCANVILLE, TX, 75137","Match","Exact","919 PRAIRIE SMOKE LN, DUNCANVILLE, TX, 75137",103179141,"L"
312977,"919 RAMOS DRIVE","LADY LAKE","FL",32159,28.9363722640001,-81.962534783,477,"919 RAMOS DRIVE, LADY LAKE, FL, 32159","Match","Exact","919 RAMOS DR, LADY LAKE, FL, 32159",618384296,"L"
312978,"919 ROAMING ROAD","ALLEN","TX",75002,33.097112462,-96.6479358829999,478,"919 ROAMING ROAD, ALLEN, TX, 75002","Match","Non_Exact","919 ROAMING ROAD DR, ALLEN, TX, 75002",123495294,"L"
312979,"919 RT 10","MARLOW","NH",3456,43.134281591,-72.199757801,479,"919 RT 10, MARLOW, NH, 3456","Match","Non_Exact","919 STATE RTE 10, MARLOW, NH, 03456",124084545,"L"
312980,"919 S 37TH ST","MANITOWOC","WI",54220,44.0901647760001,-87.692926676,480,"919 S 37TH ST, MANITOWOC, WI, 54220","Match","Exact","919 S 37TH ST, MANITOWOC, WI, 54220",147949123,"L"
312981,"919 S CARROLL BLVD","DENTON","TX",76201,33.2061376980001,-97.136489519,481,"919 S CARROLL BLVD, DENTON, TX, 76201","Match","Exact","919 CARROLL BLVD, DENTON, TX, 76201",103339101,"L"
312982,"919 S CENTRAL AVE","FAIRBORN","OH",45324,39.8116183810001,-84.022343211,482,"919 S CENTRAL AVE, FAIRBORN, OH, 45324","Match","Exact","919 S CENTRAL AVE, FAIRBORN, OH, 45324",143384147,"R"
312983,"919 S HARRISON ST SUITE 210","FORT WAYNE","IN",46802,41.0777776640001,-85.140809342,483,"919 S HARRISON ST SUITE 210, FORT WAYNE, IN, 46802","Match","Non_Exact","919 S HARRISON ST, FORT WAYNE, IN, 46802",6379266,"L"
312984,"919 S MATTHEW ST","PEORIA","IL",61605,40.679001204,-89.619547037,484,"919 S MATTHEW ST, PEORIA, IL, 61605","Match","Exact","919 S MATTHEW ST, PEORIA, IL, 61605",8716848,"R"
312985,"919 S UTAH ST","ARLINGTON","VA",22204,38.8595725490001,-77.105973805,485,"919 S UTAH ST, ARLINGTON, VA, 22204","Match","Exact","919 S UTAH ST, ARLINGTON, VA, 22204",76471302,"L"
312986,"919 SANDCHERRY WAY","JACKSON","WY",83001,NA,NA,486,"919 SANDCHERRY WAY, JACKSON, WY, 83001","No_Match",NA,NA,NA,NA
312987,"919 SHARIT AVE STE 101","GARDENDALE","AL",35071,33.649053092,-86.815275932,487,"919 SHARIT AVE STE 101, GARDENDALE, AL, 35071","Match","Exact","919 SHARIT AVE, GARDENDALE, AL, 35071",81563562,"R"
312988,"919 SHARON NEW CASTLE RD","FARRELL","PA",16121,41.213667071,-80.482137202,488,"919 SHARON NEW CASTLE RD, FARRELL, PA, 16121","Match","Exact","919 SHARON NEW CASTLE RD, FARRELL, PA, 16121",70654736,"R"
312989,"919 SHARP DRIVE","CEDAR HILL","TX",75104,32.575585034,-96.92888557,489,"919 SHARP DRIVE, CEDAR HILL, TX, 75104","Match","Non_Exact","919 SHARP, CEDAR HILL, TX, 75104",102981867,"R"
312990,"919 SHEPHARD STREET NW","WASHINGTON","DC",20011,38.939746201,-77.0252968899999,490,"919 SHEPHARD STREET NW, WASHINGTON, DC, 20011","Match","Non_Exact","919 SHEPHERD ST NW, WASHINGTON, DC, 20011",76223545,"R"
312991,"919 STERLING PL","BROOKLYN","NY",11216,40.6724272100001,-73.9482283629999,491,"919 STERLING PL, BROOKLYN, NY, 11216","Match","Exact","919 STERLING PL, BROOKLYN, NY, 11216",59079423,"L"
312992,"919 STONEYS LN","EL CAJON","CA",92021,32.8084579900001,-116.950655371,492,"919 STONEYS LN, EL CAJON, CA, 92021","Match","Non_Exact","919 STONEY'S LN, EL CAJON, CA, 92021",612880502,"L"
312993,"919 THE ALAMEDA","SAN JOSE","CA",95126,37.331717371,-121.907701489,493,"919 THE ALAMEDA, SAN JOSE, CA, 95126","Match","Exact","919 THE ALAMEDA, SAN JOSE, CA, 95126",638207857,"L"
312994,"919 THIRD AVENUE","NEW YORK","NY",10022,40.75910552,-73.9683584589999,494,"919 THIRD AVENUE, NEW YORK, NY, 10022","Match","Exact","919 3RD AVE, NEW YORK, NY, 10022",59657495,"R"
312995,"919 TIMBER TRAIL","CEDAR PARK","TX",78613,30.5036502680001,-97.834025316,495,"919 TIMBER TRAIL, CEDAR PARK, TX, 78613","Match","Exact","919 TIMBER TRL, CEDAR PARK, TX, 78613",126470786,"R"
312996,"919 UNIVERSITY BLVD W","SILVER SPRING","MD",20901,39.034061546,-77.024066983,496,"919 UNIVERSITY BLVD W, SILVER SPRING, MD, 20901","Match","Exact","919 UNIVERSITY BLVD W, SILVER SPRING, MD, 20901",640175903,"R"
312997,"919 W PINE STREET APARTMENT A","UPLAND","CA",91786,NA,NA,497,"919 W PINE STREET APARTMENT A, UPLAND, CA, 91786","No_Match",NA,NA,NA,NA
312998,"919 WEST MINNEHAHA PARKWAY","MINNEAPOLIS","MN",55419,44.9077612090001,-93.291218476,498,"919 WEST MINNEHAHA PARKWAY, MINNEAPOLIS, MN, 55419","Match","Exact","919 W MINNEHAHA PKWY, MINNEAPOLIS, MN, 55419",43835235,"L"
312999,"9190 CAMPBELL CREEK DR","COMMERCE TOWNSHIP","MI",48390,42.560183571,-83.458763243,499,"9190 CAMPBELL CREEK DR, COMMERCE TOWNSHIP, MI, 48390","Match","Exact","9190 CAMPBELL CREEK DR, COMMERCE TOWNSHIP, MI, 48390",69759455,"L"
313000,"9190 COUNTY ROAD 9","FINDLAY","OH",45840,41.0343500130001,-83.698626337,500,"9190 COUNTY ROAD 9, FINDLAY, OH, 45840","Match","Exact","9190 CO RD 9, FINDLAY, OH, 45840",36480671,"L"
