"ID","Address","City","State","Zip","lat","long","id","input_address","match_indicator","match_type","matched_address","tiger_line_id","tiger_side"
356001,"PO BOX 691","MOULTRIE","GA",31776,NA,NA,1,"PO BOX 691, MOULTRIE, GA, 31776","No_Match",NA,NA,NA,NA
356002,"PO BOX 691","MUSKEGON","MI",49443,NA,NA,2,"PO BOX 691, MUSKEGON, MI, 49443","No_Match",NA,NA,NA,NA
356003,"PO BOX 691","PHOENIX","OR",97535,NA,NA,3,"PO BOX 691, PHOENIX, OR, 97535","No_Match",NA,NA,NA,NA
356004,"PO BOX 691","PISMO BEACH","CA",93448,NA,NA,4,"PO BOX 691, PISMO BEACH, CA, 93448","No_Match",NA,NA,NA,NA
356005,"PO BOX 691","POTTSVILLE","PA",17901,NA,NA,5,"PO BOX 691, POTTSVILLE, PA, 17901","No_Match",NA,NA,NA,NA
356006,"PO BOX 691","REXBURG","ID",83440,NA,NA,6,"PO BOX 691, REXBURG, ID, 83440","No_Match",NA,NA,NA,NA
356007,"PO BOX 691031","KILLEEN","TX",76549,NA,NA,7,"PO BOX 691031, KILLEEN, TX, 76549","No_Match",NA,NA,NA,NA
356008,"PO BOX 69104","SEATAC","WA",98168,NA,NA,8,"PO BOX 69104, SEATAC, WA, 98168","No_Match",NA,NA,NA,NA
356009,"PO BOX 691177","STOCKTON","CA",95269,NA,NA,9,"PO BOX 691177, STOCKTON, CA, 95269","No_Match",NA,NA,NA,NA
356010,"PO BOX 6913","RENO","NV",89513,NA,NA,10,"PO BOX 6913, RENO, NV, 89513","No_Match",NA,NA,NA,NA
356011,"PO BOX 691301","MINT HILL","NC",28227,NA,NA,11,"PO BOX 691301, MINT HILL, NC, 28227","No_Match",NA,NA,NA,NA
356012,"PO BOX 691403","WEST HOLLYWOOD","CA",90069,NA,NA,12,"PO BOX 691403, WEST HOLLYWOOD, CA, 90069","No_Match",NA,NA,NA,NA
356013,"PO BOX 691424","SAN ANTONIO","TX",78269,NA,NA,13,"PO BOX 691424, SAN ANTONIO, TX, 78269","No_Match",NA,NA,NA,NA
356014,"PO BOX 691486","WEST HOLLYWOOD","CA",90069,NA,NA,14,"PO BOX 691486, WEST HOLLYWOOD, CA, 90069","No_Match",NA,NA,NA,NA
356015,"PO BOX 6917","HUNTSVILLE","TX",77342,NA,NA,15,"PO BOX 6917, HUNTSVILLE, TX, 77342","No_Match",NA,NA,NA,NA
356016,"PO BOX 691750","STOCKTON","CA",95269,NA,NA,16,"PO BOX 691750, STOCKTON, CA, 95269","No_Match",NA,NA,NA,NA
356017,"PO BOX 691766","HOUSTON","TX",77269,NA,NA,17,"PO BOX 691766, HOUSTON, TX, 77269","No_Match",NA,NA,NA,NA
356018,"PO BOX 691803","HOUSTON","TX",77269,NA,NA,18,"PO BOX 691803, HOUSTON, TX, 77269","No_Match",NA,NA,NA,NA
356019,"PO BOX 691871","FLORIDA","FL",32869,NA,NA,19,"PO BOX 691871, FLORIDA, FL, 32869","No_Match",NA,NA,NA,NA
356020,"PO BOX 692","BEAVER DAM","WI",53916,NA,NA,20,"PO BOX 692, BEAVER DAM, WI, 53916","No_Match",NA,NA,NA,NA
356021,"PO BOX 692","BOYLSTON","MA",1505,NA,NA,21,"PO BOX 692, BOYLSTON, MA, 1505","No_Match",NA,NA,NA,NA
356022,"PO BOX 692","BUCHANAN","VA",24066,NA,NA,22,"PO BOX 692, BUCHANAN, VA, 24066","No_Match",NA,NA,NA,NA
356023,"PO BOX 692","CONCHO","AZ",85924,NA,NA,23,"PO BOX 692, CONCHO, AZ, 85924","No_Match",NA,NA,NA,NA
356024,"PO BOX 692","FLORENCE","OR",97439,NA,NA,24,"PO BOX 692, FLORENCE, OR, 97439","No_Match",NA,NA,NA,NA
356025,"PO BOX 692","FRANKFORT","IN",46041,NA,NA,25,"PO BOX 692, FRANKFORT, IN, 46041","No_Match",NA,NA,NA,NA
356026,"PO BOX 692","GOLD BAR","WA",98251,NA,NA,26,"PO BOX 692, GOLD BAR, WA, 98251","No_Match",NA,NA,NA,NA
356027,"PO BOX 692","GREENBRIER","AR",72058,NA,NA,27,"PO BOX 692, GREENBRIER, AR, 72058","No_Match",NA,NA,NA,NA
356028,"PO BOX 692","GREENCASTLE","PA",17225,NA,NA,28,"PO BOX 692, GREENCASTLE, PA, 17225","No_Match",NA,NA,NA,NA
356029,"PO BOX 692","HANOVER","PA",17331,NA,NA,29,"PO BOX 692, HANOVER, PA, 17331","No_Match",NA,NA,NA,NA
356030,"PO BOX 692","ITHACA","NY",14851,NA,NA,30,"PO BOX 692, ITHACA, NY, 14851","No_Match",NA,NA,NA,NA
356031,"PO BOX 692","OAKLAND","CA",94604,NA,NA,31,"PO BOX 692, OAKLAND, CA, 94604","No_Match",NA,NA,NA,NA
356032,"PO BOX 692","PATILAS","PR",723,NA,NA,32,"PO BOX 692, PATILAS, PR, 723","No_Match",NA,NA,NA,NA
356033,"PO BOX 692","PORT ANGELES","WA",98362,NA,NA,33,"PO BOX 692, PORT ANGELES, WA, 98362","No_Match",NA,NA,NA,NA
356034,"PO BOX 692","SAINT PAULS","NC",28384,NA,NA,34,"PO BOX 692, SAINT PAULS, NC, 28384","No_Match",NA,NA,NA,NA
356035,"PO BOX 692","WALDOBORO","ME",4572,NA,NA,35,"PO BOX 692, WALDOBORO, ME, 4572","No_Match",NA,NA,NA,NA
356036,"PO BOX 692122","STOCKTON","CA",95269,NA,NA,36,"PO BOX 692122, STOCKTON, CA, 95269","No_Match",NA,NA,NA,NA
356037,"PO BOX 692193","SAN ANTONIO","TX",78269,NA,NA,37,"PO BOX 692193, SAN ANTONIO, TX, 78269","No_Match",NA,NA,NA,NA
356038,"PO BOX 6922","WYOMISSING","PA",19610,NA,NA,38,"PO BOX 6922, WYOMISSING, PA, 19610","No_Match",NA,NA,NA,NA
356039,"PO BOX 692381","HOUSTON","TX",77070,NA,NA,39,"PO BOX 692381, HOUSTON, TX, 77070","No_Match",NA,NA,NA,NA
356040,"PO BOX 692763","STOCKTON","CA",95269,NA,NA,40,"PO BOX 692763, STOCKTON, CA, 95269","No_Match",NA,NA,NA,NA
356041,"PO BOX 6929","KATY","TX",77491,NA,NA,41,"PO BOX 6929, KATY, TX, 77491","No_Match",NA,NA,NA,NA
356042,"PO BOX 693","BAYVIEW","ID",83803,NA,NA,42,"PO BOX 693, BAYVIEW, ID, 83803","No_Match",NA,NA,NA,NA
356043,"PO BOX 693","CENTURY","FL",32535,NA,NA,43,"PO BOX 693, CENTURY, FL, 32535","No_Match",NA,NA,NA,NA
356044,"PO BOX 693","FALLBROOK","CA",92088,NA,NA,44,"PO BOX 693, FALLBROOK, CA, 92088","No_Match",NA,NA,NA,NA
356045,"PO BOX 693","GARNER","NC",27529,NA,NA,45,"PO BOX 693, GARNER, NC, 27529","No_Match",NA,NA,NA,NA
356046,"PO BOX 693","JASPER","AR",72641,NA,NA,46,"PO BOX 693, JASPER, AR, 72641","No_Match",NA,NA,NA,NA
356047,"PO BOX 693","MEXICO","MO",65265,NA,NA,47,"PO BOX 693, MEXICO, MO, 65265","No_Match",NA,NA,NA,NA
356048,"PO BOX 693","MURCHISON","TX",75578,NA,NA,48,"PO BOX 693, MURCHISON, TX, 75578","No_Match",NA,NA,NA,NA
356049,"PO BOX 693","SARASOTA","FL",34230,NA,NA,49,"PO BOX 693, SARASOTA, FL, 34230","No_Match",NA,NA,NA,NA
356050,"PO BOX 693","WINTER HAVEN","FL",33882,NA,NA,50,"PO BOX 693, WINTER HAVEN, FL, 33882","No_Match",NA,NA,NA,NA
356051,"PO BOX 6930","ALEXANDRIA","VA",22301,NA,NA,51,"PO BOX 6930, ALEXANDRIA, VA, 22301","No_Match",NA,NA,NA,NA
356052,"PO BOX 693022","MIAMI","FL",33269,NA,NA,52,"PO BOX 693022, MIAMI, FL, 33269","No_Match",NA,NA,NA,NA
356053,"PO BOX 693034","STOCKTON","CA",95269,NA,NA,53,"PO BOX 693034, STOCKTON, CA, 95269","No_Match",NA,NA,NA,NA
356054,"PO BOX 6933","HOLLISTON","MA",1746,NA,NA,54,"PO BOX 6933, HOLLISTON, MA, 1746","No_Match",NA,NA,NA,NA
356055,"PO BOX 6933","SANTA MARIA","CA",93456,NA,NA,55,"PO BOX 6933, SANTA MARIA, CA, 93456","No_Match",NA,NA,NA,NA
356056,"PO BOX 6933","TOLEDO","OH",43612,NA,NA,56,"PO BOX 6933, TOLEDO, OH, 43612","No_Match",NA,NA,NA,NA
356057,"PO BOX 6933","WARWICK","RI",2886,NA,NA,57,"PO BOX 6933, WARWICK, RI, 2886","No_Match",NA,NA,NA,NA
356058,"PO BOX 693467","MIAMI GARDENS","FL",33269,NA,NA,58,"PO BOX 693467, MIAMI GARDENS, FL, 33269","No_Match",NA,NA,NA,NA
356059,"PO BOX 693475","STOCKTON","CA",95269,NA,NA,59,"PO BOX 693475, STOCKTON, CA, 95269","No_Match",NA,NA,NA,NA
356060,"PO BOX 6935","BOISE","ID",83702,NA,NA,60,"PO BOX 6935, BOISE, ID, 83702","No_Match",NA,NA,NA,NA
356061,"PO BOX 6935","OXNARD","CA",93031,NA,NA,61,"PO BOX 6935, OXNARD, CA, 93031","No_Match",NA,NA,NA,NA
356062,"PO BOX 693764","STOCKTON","CA",95269,NA,NA,62,"PO BOX 693764, STOCKTON, CA, 95269","No_Match",NA,NA,NA,NA
356063,"PO BOX 6939","COLORADO SPRINGS","CO",80934,NA,NA,63,"PO BOX 6939, COLORADO SPRINGS, CO, 80934","No_Match",NA,NA,NA,NA
356064,"PO BOX 694","BASALT","CO",81621,NA,NA,64,"PO BOX 694, BASALT, CO, 81621","No_Match",NA,NA,NA,NA
356065,"PO BOX 694","BRADFORD","VT",5033,NA,NA,65,"PO BOX 694, BRADFORD, VT, 5033","No_Match",NA,NA,NA,NA
356066,"PO BOX 694","BURNSVILLE","NC",28714,NA,NA,66,"PO BOX 694, BURNSVILLE, NC, 28714","No_Match",NA,NA,NA,NA
356067,"PO BOX 694","COLUMBIA","TN",38402,NA,NA,67,"PO BOX 694, COLUMBIA, TN, 38402","No_Match",NA,NA,NA,NA
356068,"PO BOX 694","DENVER","NC",28037,NA,NA,68,"PO BOX 694, DENVER, NC, 28037","No_Match",NA,NA,NA,NA
356069,"PO BOX 694","DRIPPING SPRINGS","TX",78620,NA,NA,69,"PO BOX 694, DRIPPING SPRINGS, TX, 78620","No_Match",NA,NA,NA,NA
356070,"PO BOX 694","FARMINGDALE","NJ",7727,NA,NA,70,"PO BOX 694, FARMINGDALE, NJ, 7727","No_Match",NA,NA,NA,NA
356071,"PO BOX 694","FLORENCE","OR",97439,NA,NA,71,"PO BOX 694, FLORENCE, OR, 97439","No_Match",NA,NA,NA,NA
356072,"PO BOX 694","MARANA","AZ",85653,NA,NA,72,"PO BOX 694, MARANA, AZ, 85653","No_Match",NA,NA,NA,NA
356073,"PO BOX 694","PEKIN","IL",61555,NA,NA,73,"PO BOX 694, PEKIN, IL, 61555","No_Match",NA,NA,NA,NA
356074,"PO BOX 694","SAN JOAQUIN","CA",93660,NA,NA,74,"PO BOX 694, SAN JOAQUIN, CA, 93660","No_Match",NA,NA,NA,NA
356075,"PO BOX 694","SNELLVILLE","GA",30078,NA,NA,75,"PO BOX 694, SNELLVILLE, GA, 30078","No_Match",NA,NA,NA,NA
356076,"PO BOX 6942","HILO","HI",96720,NA,NA,76,"PO BOX 6942, HILO, HI, 96720","No_Match",NA,NA,NA,NA
356077,"PO BOX 6944","SLIDELL","LA",70469,NA,NA,77,"PO BOX 6944, SLIDELL, LA, 70469","No_Match",NA,NA,NA,NA
356078,"PO BOX 694501","MIAMI GARDENS","FL",33269,NA,NA,78,"PO BOX 694501, MIAMI GARDENS, FL, 33269","No_Match",NA,NA,NA,NA
356079,"PO BOX 6946","SOUTH BEND","IN",46660,NA,NA,79,"PO BOX 6946, SOUTH BEND, IN, 46660","No_Match",NA,NA,NA,NA
356080,"PO BOX 6948","COLUMBUS","OH",43205,NA,NA,80,"PO BOX 6948, COLUMBUS, OH, 43205","No_Match",NA,NA,NA,NA
356081,"PO BOX 694873","MIAMI","FL",33269,NA,NA,81,"PO BOX 694873, MIAMI, FL, 33269","No_Match",NA,NA,NA,NA
356082,"PO BOX 695","DEER PARK","WA",99006,NA,NA,82,"PO BOX 695, DEER PARK, WA, 99006","No_Match",NA,NA,NA,NA
356083,"PO BOX 695","DELHI","LA",71232,NA,NA,83,"PO BOX 695, DELHI, LA, 71232","No_Match",NA,NA,NA,NA
356084,"PO BOX 695","DOWAGIAC","MI",49047,NA,NA,84,"PO BOX 695, DOWAGIAC, MI, 49047","No_Match",NA,NA,NA,NA
356085,"PO BOX 695","FERRON","UT",84523,NA,NA,85,"PO BOX 695, FERRON, UT, 84523","No_Match",NA,NA,NA,NA
356086,"PO BOX 695","HOLLY SPRINGS","NC",27540,NA,NA,86,"PO BOX 695, HOLLY SPRINGS, NC, 27540","No_Match",NA,NA,NA,NA
356087,"PO BOX 695","MANTEO","NC",27954,NA,NA,87,"PO BOX 695, MANTEO, NC, 27954","No_Match",NA,NA,NA,NA
356088,"PO BOX 695","MINEOLA","NY",11501,NA,NA,88,"PO BOX 695, MINEOLA, NY, 11501","No_Match",NA,NA,NA,NA
356089,"PO BOX 695","MORRISVILLE","NC",27560,NA,NA,89,"PO BOX 695, MORRISVILLE, NC, 27560","No_Match",NA,NA,NA,NA
356090,"PO BOX 695","TABERNASH","CO",80478,NA,NA,90,"PO BOX 695, TABERNASH, CO, 80478","No_Match",NA,NA,NA,NA
356091,"PO BOX 695","UNION","MO",63084,NA,NA,91,"PO BOX 695, UNION, MO, 63084","No_Match",NA,NA,NA,NA
356092,"PO BOX 695","WEST YELLOWSTONE","MT",59758,NA,NA,92,"PO BOX 695, WEST YELLOWSTONE, MT, 59758","No_Match",NA,NA,NA,NA
356093,"PO BOX 6952","ELLICOTT","MD",21042,NA,NA,93,"PO BOX 6952, ELLICOTT, MD, 21042","No_Match",NA,NA,NA,NA
356094,"PO BOX 6952","LAS CRUCES","NM",88001,NA,NA,94,"PO BOX 6952, LAS CRUCES, NM, 88001","No_Match",NA,NA,NA,NA
356095,"PO BOX 69521","ORO VALLEY","AZ",85737,NA,NA,95,"PO BOX 69521, ORO VALLEY, AZ, 85737","No_Match",NA,NA,NA,NA
356096,"PO BOX 6956","LAGUNA NIGUEL","CA",92607,NA,NA,96,"PO BOX 6956, LAGUNA NIGUEL, CA, 92607","No_Match",NA,NA,NA,NA
356097,"PO BOX 6957","SCARBOROUGH","ME",4070,NA,NA,97,"PO BOX 6957, SCARBOROUGH, ME, 4070","No_Match",NA,NA,NA,NA
356098,"PO BOX 696","CASTLE HAYNE","NC",28429,NA,NA,98,"PO BOX 696, CASTLE HAYNE, NC, 28429","No_Match",NA,NA,NA,NA
356099,"PO BOX 696","MACOMB","IL",61455,NA,NA,99,"PO BOX 696, MACOMB, IL, 61455","No_Match",NA,NA,NA,NA
356100,"PO BOX 696","MISSOULA","MT",59806,NA,NA,100,"PO BOX 696, MISSOULA, MT, 59806","No_Match",NA,NA,NA,NA
356101,"PO BOX 696","MOOREFIELD","WV",26836,NA,NA,101,"PO BOX 696, MOOREFIELD, WV, 26836","No_Match",NA,NA,NA,NA
356102,"PO BOX 696","NAMPA","ID",83653,NA,NA,102,"PO BOX 696, NAMPA, ID, 83653","No_Match",NA,NA,NA,NA
356103,"PO BOX 696","NORTH SAN JUAN","CA",95960,NA,NA,103,"PO BOX 696, NORTH SAN JUAN, CA, 95960","No_Match",NA,NA,NA,NA
356104,"PO BOX 696","PIKEVILLE","NC",27863,NA,NA,104,"PO BOX 696, PIKEVILLE, NC, 27863","No_Match",NA,NA,NA,NA
356105,"PO BOX 696","SOUTH BEND","IN",46624,NA,NA,105,"PO BOX 696, SOUTH BEND, IN, 46624","No_Match",NA,NA,NA,NA
356106,"PO BOX 696","STRATFORD","OK",74872,NA,NA,106,"PO BOX 696, STRATFORD, OK, 74872","No_Match",NA,NA,NA,NA
356107,"PO BOX 696","WILSON","WY",83014,NA,NA,107,"PO BOX 696, WILSON, WY, 83014","No_Match",NA,NA,NA,NA
356108,"PO BOX 6965","KAMUELA","HI",96743,NA,NA,108,"PO BOX 6965, KAMUELA, HI, 96743","No_Match",NA,NA,NA,NA
356109,"PO BOX 69665","ORO VALLEY","AZ",85737,NA,NA,109,"PO BOX 69665, ORO VALLEY, AZ, 85737","No_Match",NA,NA,NA,NA
356110,"PO BOX 697","BALDWIN","LA",70514,NA,NA,110,"PO BOX 697, BALDWIN, LA, 70514","No_Match",NA,NA,NA,NA
356111,"PO BOX 697","CARSON CITY","NV",89702,NA,NA,111,"PO BOX 697, CARSON CITY, NV, 89702","No_Match",NA,NA,NA,NA
356112,"PO BOX 697","CHICAGO PARK","CA",95712,NA,NA,112,"PO BOX 697, CHICAGO PARK, CA, 95712","No_Match",NA,NA,NA,NA
356113,"PO BOX 697","GRETNA","FL",32332,NA,NA,113,"PO BOX 697, GRETNA, FL, 32332","No_Match",NA,NA,NA,NA
356114,"PO BOX 697","HUDSON","OH",44236,NA,NA,114,"PO BOX 697, HUDSON, OH, 44236","No_Match",NA,NA,NA,NA
356115,"PO BOX 697","KINGSTON","WA",98346,NA,NA,115,"PO BOX 697, KINGSTON, WA, 98346","No_Match",NA,NA,NA,NA
356116,"PO BOX 697","LEBANON","VA",24266,NA,NA,116,"PO BOX 697, LEBANON, VA, 24266","No_Match",NA,NA,NA,NA
356117,"PO BOX 697","MURRIETA","CA",92564,NA,NA,117,"PO BOX 697, MURRIETA, CA, 92564","No_Match",NA,NA,NA,NA
356118,"PO BOX 697","NEWARK","NJ",7101,NA,NA,118,"PO BOX 697, NEWARK, NJ, 7101","No_Match",NA,NA,NA,NA
356119,"PO BOX 697","POCOMOKE CITY","MD",21851,NA,NA,119,"PO BOX 697, POCOMOKE CITY, MD, 21851","No_Match",NA,NA,NA,NA
356120,"PO BOX 697","POUGHQUAG","NY",12570,NA,NA,120,"PO BOX 697, POUGHQUAG, NY, 12570","No_Match",NA,NA,NA,NA
356121,"PO BOX 697","ROCK HALL","MD",21661,NA,NA,121,"PO BOX 697, ROCK HALL, MD, 21661","No_Match",NA,NA,NA,NA
356122,"PO BOX 6976","KINGWOOD","TX",77325,NA,NA,122,"PO BOX 6976, KINGWOOD, TX, 77325","No_Match",NA,NA,NA,NA
356123,"PO BOX 6976","PATERSON","NJ",7509,NA,NA,123,"PO BOX 6976, PATERSON, NJ, 7509","No_Match",NA,NA,NA,NA
356124,"PO BOX 698","COOS BAY","OR",97420,NA,NA,124,"PO BOX 698, COOS BAY, OR, 97420","No_Match",NA,NA,NA,NA
356125,"PO BOX 698","GRANBY","CO",80446,NA,NA,125,"PO BOX 698, GRANBY, CO, 80446","No_Match",NA,NA,NA,NA
356126,"PO BOX 698","LINDEN","CA",95236,NA,NA,126,"PO BOX 698, LINDEN, CA, 95236","No_Match",NA,NA,NA,NA
356127,"PO BOX 698","REDAN","GA",30074,NA,NA,127,"PO BOX 698, REDAN, GA, 30074","No_Match",NA,NA,NA,NA
356128,"PO BOX 698","RICHLANDS","VA",24641,NA,NA,128,"PO BOX 698, RICHLANDS, VA, 24641","No_Match",NA,NA,NA,NA
356129,"PO BOX 6980","HILO","HI",96720,NA,NA,129,"PO BOX 6980, HILO, HI, 96720","No_Match",NA,NA,NA,NA
356130,"PO BOX 6982","BEND","OR",97708,NA,NA,130,"PO BOX 6982, BEND, OR, 97708","No_Match",NA,NA,NA,NA
356131,"PO BOX 699","DOWNINGTOWN","PA",19335,NA,NA,131,"PO BOX 699, DOWNINGTOWN, PA, 19335","No_Match",NA,NA,NA,NA
356132,"PO BOX 699","LANSING","IL",60438,NA,NA,132,"PO BOX 699, LANSING, IL, 60438","No_Match",NA,NA,NA,NA
356133,"PO BOX 699","NEW PORT RICHEY","FL",34656,NA,NA,133,"PO BOX 699, NEW PORT RICHEY, FL, 34656","No_Match",NA,NA,NA,NA
356134,"PO BOX 699","VESTAL","NY",13850,NA,NA,134,"PO BOX 699, VESTAL, NY, 13850","No_Match",NA,NA,NA,NA
356135,"PO BOX 699","VESTAL","NY",13851,NA,NA,135,"PO BOX 699, VESTAL, NY, 13851","No_Match",NA,NA,NA,NA
356136,"PO BOX 699","WARSAW","MO",65355,NA,NA,136,"PO BOX 699, WARSAW, MO, 65355","No_Match",NA,NA,NA,NA
356137,"PO BOX 699","WEAVERVILLE","CA",96093,NA,NA,137,"PO BOX 699, WEAVERVILLE, CA, 96093","No_Match",NA,NA,NA,NA
356138,"PO BOX 6991","CHESTERFIELD","MO",63006,NA,NA,138,"PO BOX 6991, CHESTERFIELD, MO, 63006","No_Match",NA,NA,NA,NA
356139,"PO BOX 699612","MARIETTA","GA",30066,NA,NA,139,"PO BOX 699612, MARIETTA, GA, 30066","No_Match",NA,NA,NA,NA
356140,"PO BOX 6999","BROOKINGS","OR",97415,NA,NA,140,"PO BOX 6999, BROOKINGS, OR, 97415","No_Match",NA,NA,NA,NA
356141,"PO BOX 6999","WARWICK","RI",2886,NA,NA,141,"PO BOX 6999, WARWICK, RI, 2886","No_Match",NA,NA,NA,NA
356142,"PO BOX 7 CARE OF COMPUCOUNT","RANDOLPH","VT",5060,NA,NA,142,"PO BOX 7 CARE OF COMPUCOUNT, RANDOLPH, VT, 5060","No_Match",NA,NA,NA,NA
356143,"PO BOX 7","ADELPHIA","NJ",7710,NA,NA,143,"PO BOX 7, ADELPHIA, NJ, 7710","No_Match",NA,NA,NA,NA
356144,"PO BOX 7","AMANDA PARK","WA",98526,NA,NA,144,"PO BOX 7, AMANDA PARK, WA, 98526","No_Match",NA,NA,NA,NA
356145,"PO BOX 7","BEAR LAKE","MI",49614,NA,NA,145,"PO BOX 7, BEAR LAKE, MI, 49614","No_Match",NA,NA,NA,NA
356146,"PO BOX 7","BERKELEY HEIGHTS","NJ",7922,NA,NA,146,"PO BOX 7, BERKELEY HEIGHTS, NJ, 7922","No_Match",NA,NA,NA,NA
356147,"PO BOX 7","BIXBY","OK",74008,NA,NA,147,"PO BOX 7, BIXBY, OK, 74008","No_Match",NA,NA,NA,NA
356148,"PO BOX 7","BLUE RIDGE","GA",30513,NA,NA,148,"PO BOX 7, BLUE RIDGE, GA, 30513","No_Match",NA,NA,NA,NA
356149,"PO BOX 7","BOSQUE","NM",87006,NA,NA,149,"PO BOX 7, BOSQUE, NM, 87006","No_Match",NA,NA,NA,NA
356150,"PO BOX 7","COALMONT","TN",37313,NA,NA,150,"PO BOX 7, COALMONT, TN, 37313","No_Match",NA,NA,NA,NA
356151,"PO BOX 7","DADEVILLE","AL",36853,NA,NA,151,"PO BOX 7, DADEVILLE, AL, 36853","No_Match",NA,NA,NA,NA
356152,"PO BOX 7","DEWITT","MI",48820,NA,NA,152,"PO BOX 7, DEWITT, MI, 48820","No_Match",NA,NA,NA,NA
356153,"PO BOX 7","ELKO-NEW MARKET","MI",55020,NA,NA,153,"PO BOX 7, ELKO-NEW MARKET, MI, 55020","No_Match",NA,NA,NA,NA
356154,"PO BOX 7","FRIENDSHIP","OH",45630,NA,NA,154,"PO BOX 7, FRIENDSHIP, OH, 45630","No_Match",NA,NA,NA,NA
356155,"PO BOX 7","GILMER","TX",75644,NA,NA,155,"PO BOX 7, GILMER, TX, 75644","No_Match",NA,NA,NA,NA
356156,"PO BOX 7","GLENOLDEN","PA",19036,NA,NA,156,"PO BOX 7, GLENOLDEN, PA, 19036","No_Match",NA,NA,NA,NA
356157,"PO BOX 7","GRAND BLANC","MI",48439,NA,NA,157,"PO BOX 7, GRAND BLANC, MI, 48439","No_Match",NA,NA,NA,NA
356158,"PO BOX 7","HALBUR","IA",51444,NA,NA,158,"PO BOX 7, HALBUR, IA, 51444","No_Match",NA,NA,NA,NA
356159,"PO BOX 7","HANSON","MA",2341,NA,NA,159,"PO BOX 7, HANSON, MA, 2341","No_Match",NA,NA,NA,NA
356160,"PO BOX 7","HARRISON","AR",72602,NA,NA,160,"PO BOX 7, HARRISON, AR, 72602","No_Match",NA,NA,NA,NA
356161,"PO BOX 7","INGLESIDE","TX",78362,NA,NA,161,"PO BOX 7, INGLESIDE, TX, 78362","No_Match",NA,NA,NA,NA
356162,"PO BOX 7","INVERNESS","FL",34451,NA,NA,162,"PO BOX 7, INVERNESS, FL, 34451","No_Match",NA,NA,NA,NA
356163,"PO BOX 7","JAMESTOWN","OH",45335,NA,NA,163,"PO BOX 7, JAMESTOWN, OH, 45335","No_Match",NA,NA,NA,NA
356164,"PO BOX 7","JENISON","MI",49429,NA,NA,164,"PO BOX 7, JENISON, MI, 49429","No_Match",NA,NA,NA,NA
356165,"PO BOX 7","JET","OK",73749,NA,NA,165,"PO BOX 7, JET, OK, 73749","No_Match",NA,NA,NA,NA
356166,"PO BOX 7","JORDAN VALLEY","OR",97910,NA,NA,166,"PO BOX 7, JORDAN VALLEY, OR, 97910","No_Match",NA,NA,NA,NA
356167,"PO BOX 7","LANGSTON","OK",73050,NA,NA,167,"PO BOX 7, LANGSTON, OK, 73050","No_Match",NA,NA,NA,NA
356168,"PO BOX 7","MONTGOMERY","MN",56069,NA,NA,168,"PO BOX 7, MONTGOMERY, MN, 56069","No_Match",NA,NA,NA,NA
356169,"PO BOX 7","NEW SHARON","IA",50207,NA,NA,169,"PO BOX 7, NEW SHARON, IA, 50207","No_Match",NA,NA,NA,NA
356170,"PO BOX 7","NORTH ANSON","ME",4958,NA,NA,170,"PO BOX 7, NORTH ANSON, ME, 4958","No_Match",NA,NA,NA,NA
356171,"PO BOX 7","NOTRE DAME","IN",46556,NA,NA,171,"PO BOX 7, NOTRE DAME, IN, 46556","No_Match",NA,NA,NA,NA
356172,"PO BOX 7","QUEEN CITY","TX",75572,NA,NA,172,"PO BOX 7, QUEEN CITY, TX, 75572","No_Match",NA,NA,NA,NA
356173,"PO BOX 7","SAUK CENTRE","MN",56378,NA,NA,173,"PO BOX 7, SAUK CENTRE, MN, 56378","No_Match",NA,NA,NA,NA
356174,"PO BOX 7","SEYMOUR","TX",76380,NA,NA,174,"PO BOX 7, SEYMOUR, TX, 76380","No_Match",NA,NA,NA,NA
356175,"PO BOX 7","SOUTHAVEN","MS",38671,NA,NA,175,"PO BOX 7, SOUTHAVEN, MS, 38671","No_Match",NA,NA,NA,NA
356176,"PO BOX 7","SPANISHBURG","WV",25922,NA,NA,176,"PO BOX 7, SPANISHBURG, WV, 25922","No_Match",NA,NA,NA,NA
356177,"PO BOX 7","STAATSBURG","NY",12580,NA,NA,177,"PO BOX 7, STAATSBURG, NY, 12580","No_Match",NA,NA,NA,NA
356178,"PO BOX 7","STEWART","MS",39767,NA,NA,178,"PO BOX 7, STEWART, MS, 39767","No_Match",NA,NA,NA,NA
356179,"PO BOX 7","STRATFORD","WI",54484,NA,NA,179,"PO BOX 7, STRATFORD, WI, 54484","No_Match",NA,NA,NA,NA
356180,"PO BOX 7","TAUNTON","MA",2780,NA,NA,180,"PO BOX 7, TAUNTON, MA, 2780","No_Match",NA,NA,NA,NA
356181,"PO BOX 7","TENNYSON","IN",47637,NA,NA,181,"PO BOX 7, TENNYSON, IN, 47637","No_Match",NA,NA,NA,NA
356182,"PO BOX 7","UNIONVILLE","PA",19375,NA,NA,182,"PO BOX 7, UNIONVILLE, PA, 19375","No_Match",NA,NA,NA,NA
356183,"PO BOX 7","WAKE FOREST","NC",27588,NA,NA,183,"PO BOX 7, WAKE FOREST, NC, 27588","No_Match",NA,NA,NA,NA
356184,"PO BOX 7","WASHINGTON","VT",5675,NA,NA,184,"PO BOX 7, WASHINGTON, VT, 5675","No_Match",NA,NA,NA,NA
356185,"PO BOX 7","WAVERLY","NE",68462,NA,NA,185,"PO BOX 7, WAVERLY, NE, 68462","No_Match",NA,NA,NA,NA
356186,"PO BOX 7","WICKATUNK","NJ",7765,NA,NA,186,"PO BOX 7, WICKATUNK, NJ, 7765","No_Match",NA,NA,NA,NA
356187,"PO BOX 70-1841","TULSA","OK",74170,NA,NA,187,"PO BOX 70-1841, TULSA, OK, 74170","No_Match",NA,NA,NA,NA
356188,"PO BOX 70","AGOURA HILLS","CA",91376,NA,NA,188,"PO BOX 70, AGOURA HILLS, CA, 91376","No_Match",NA,NA,NA,NA
356189,"PO BOX 70","ALBERS","IL",62215,NA,NA,189,"PO BOX 70, ALBERS, IL, 62215","No_Match",NA,NA,NA,NA
356190,"PO BOX 70","ANDOVER","NJ",7821,NA,NA,190,"PO BOX 70, ANDOVER, NJ, 7821","No_Match",NA,NA,NA,NA
356191,"PO BOX 70","AUBURN","WY",83111,NA,NA,191,"PO BOX 70, AUBURN, WY, 83111","No_Match",NA,NA,NA,NA
356192,"PO BOX 70","BARLOW","OH",45712,NA,NA,192,"PO BOX 70, BARLOW, OH, 45712","No_Match",NA,NA,NA,NA
356193,"PO BOX 70","BIG BEND","WI",53103,NA,NA,193,"PO BOX 70, BIG BEND, WI, 53103","No_Match",NA,NA,NA,NA
356194,"PO BOX 70","BLACK EAGLE","MT",59414,NA,NA,194,"PO BOX 70, BLACK EAGLE, MT, 59414","No_Match",NA,NA,NA,NA
356195,"PO BOX 70","CARTHAGE","TX",75633,NA,NA,195,"PO BOX 70, CARTHAGE, TX, 75633","No_Match",NA,NA,NA,NA
356196,"PO BOX 70","EAGLE","CO",81631,NA,NA,196,"PO BOX 70, EAGLE, CO, 81631","No_Match",NA,NA,NA,NA
356197,"PO BOX 70","ELWOOD","NJ",8217,NA,NA,197,"PO BOX 70, ELWOOD, NJ, 8217","No_Match",NA,NA,NA,NA
356198,"PO BOX 70","FAIR PLAY","MO",65649,NA,NA,198,"PO BOX 70, FAIR PLAY, MO, 65649","No_Match",NA,NA,NA,NA
356199,"PO BOX 70","FATE","TX",75132,NA,NA,199,"PO BOX 70, FATE, TX, 75132","No_Match",NA,NA,NA,NA
356200,"PO BOX 70","GUALALA","CA",95445,NA,NA,200,"PO BOX 70, GUALALA, CA, 95445","No_Match",NA,NA,NA,NA
356201,"PO BOX 70","KEKAHA","HI",96752,NA,NA,201,"PO BOX 70, KEKAHA, HI, 96752","No_Match",NA,NA,NA,NA
356202,"PO BOX 70","LEWELLEN","NE",69147,NA,NA,202,"PO BOX 70, LEWELLEN, NE, 69147","No_Match",NA,NA,NA,NA
356203,"PO BOX 70","MARLTON","NJ",8053,NA,NA,203,"PO BOX 70, MARLTON, NJ, 8053","No_Match",NA,NA,NA,NA
356204,"PO BOX 70","MARSHALL","MI",49068,NA,NA,204,"PO BOX 70, MARSHALL, MI, 49068","No_Match",NA,NA,NA,NA
356205,"PO BOX 70","MONKTON","VT",5469,NA,NA,205,"PO BOX 70, MONKTON, VT, 5469","No_Match",NA,NA,NA,NA
356206,"PO BOX 70","OCONTO FALLS","WI",54154,NA,NA,206,"PO BOX 70, OCONTO FALLS, WI, 54154","No_Match",NA,NA,NA,NA
356207,"PO BOX 70","PORT RICHEY","FL",34673,NA,NA,207,"PO BOX 70, PORT RICHEY, FL, 34673","No_Match",NA,NA,NA,NA
356208,"PO BOX 70","POTTSVILLE","AR",72858,NA,NA,208,"PO BOX 70, POTTSVILLE, AR, 72858","No_Match",NA,NA,NA,NA
356209,"PO BOX 70","SANTA MONICA","CA",90406,NA,NA,209,"PO BOX 70, SANTA MONICA, CA, 90406","No_Match",NA,NA,NA,NA
356210,"PO BOX 70","SHELTER ISLAND","NY",11965,NA,NA,210,"PO BOX 70, SHELTER ISLAND, NY, 11965","No_Match",NA,NA,NA,NA
356211,"PO BOX 70","STERLING","CO",80751,NA,NA,211,"PO BOX 70, STERLING, CO, 80751","No_Match",NA,NA,NA,NA
356212,"PO BOX 70","WAYNE","PA",19087,NA,NA,212,"PO BOX 70, WAYNE, PA, 19087","No_Match",NA,NA,NA,NA
356213,"PO BOX 70","WELTON","IA",52774,NA,NA,213,"PO BOX 70, WELTON, IA, 52774","No_Match",NA,NA,NA,NA
356214,"PO BOX 700","ARTHURDALE","WV",26520,NA,NA,214,"PO BOX 700, ARTHURDALE, WV, 26520","No_Match",NA,NA,NA,NA
356215,"PO BOX 700","BOISE","ID",83701,NA,NA,215,"PO BOX 700, BOISE, ID, 83701","No_Match",NA,NA,NA,NA
356216,"PO BOX 700","CORVALLIS","MT",59828,NA,NA,216,"PO BOX 700, CORVALLIS, MT, 59828","No_Match",NA,NA,NA,NA
356217,"PO BOX 700","COTTONWOOD","AZ",86326,NA,NA,217,"PO BOX 700, COTTONWOOD, AZ, 86326","No_Match",NA,NA,NA,NA
356218,"PO BOX 700","KINGSVILLE","TX",78364,NA,NA,218,"PO BOX 700, KINGSVILLE, TX, 78364","No_Match",NA,NA,NA,NA
356219,"PO BOX 700","MARKESAN","WI",53946,NA,NA,219,"PO BOX 700, MARKESAN, WI, 53946","No_Match",NA,NA,NA,NA
356220,"PO BOX 700","ODESSA","DE",19730,NA,NA,220,"PO BOX 700, ODESSA, DE, 19730","No_Match",NA,NA,NA,NA
356221,"PO BOX 700","SCHOOLCRAFT","MI",49087,NA,NA,221,"PO BOX 700, SCHOOLCRAFT, MI, 49087","No_Match",NA,NA,NA,NA
356222,"PO BOX 7000-820","REDONDO BEACH","CA",90277,NA,NA,222,"PO BOX 7000-820, REDONDO BEACH, CA, 90277","No_Match",NA,NA,NA,NA
356223,"PO BOX 70010","SAN ANTONIO","TX",78270,NA,NA,223,"PO BOX 70010, SAN ANTONIO, TX, 78270","No_Match",NA,NA,NA,NA
356224,"PO BOX 700100","OOSTBURG","WI",53070,NA,NA,224,"PO BOX 700100, OOSTBURG, WI, 53070","No_Match",NA,NA,NA,NA
356225,"PO BOX 700101","TULSA","OK",74170,NA,NA,225,"PO BOX 700101, TULSA, OK, 74170","No_Match",NA,NA,NA,NA
356226,"PO BOX 70021","LANSING","MI",48908,NA,NA,226,"PO BOX 70021, LANSING, MI, 48908","No_Match",NA,NA,NA,NA
356227,"PO BOX 700217","TULSA","OK",74133,NA,NA,227,"PO BOX 700217, TULSA, OK, 74133","No_Match",NA,NA,NA,NA
356228,"PO BOX 7003","PASCAGOULA","MS",39568,NA,NA,228,"PO BOX 7003, PASCAGOULA, MS, 39568","No_Match",NA,NA,NA,NA
356229,"PO BOX 7003","SOMERSET","MA",2726,NA,NA,229,"PO BOX 7003, SOMERSET, MA, 2726","No_Match",NA,NA,NA,NA
356230,"PO BOX 700334","DALLAS","TX",75370,NA,NA,230,"PO BOX 700334, DALLAS, TX, 75370","No_Match",NA,NA,NA,NA
356231,"PO BOX 70035","ALBANY","GA",31708,NA,NA,231,"PO BOX 70035, ALBANY, GA, 31708","No_Match",NA,NA,NA,NA
356232,"PO BOX 700390","SAN ANTONIO","TX",78270,NA,NA,232,"PO BOX 700390, SAN ANTONIO, TX, 78270","No_Match",NA,NA,NA,NA
356233,"PO BOX 7004","SAN SEBASTIAN","PR",685,NA,NA,233,"PO BOX 7004, SAN SEBASTIAN, PR, 685","No_Match",NA,NA,NA,NA
356234,"PO BOX 70041","SAN DIEGO","CA",92167,NA,NA,234,"PO BOX 70041, SAN DIEGO, CA, 92167","No_Match",NA,NA,NA,NA
356235,"PO BOX 700443","HONOLULU","HI",96709,NA,NA,235,"PO BOX 700443, HONOLULU, HI, 96709","No_Match",NA,NA,NA,NA
356236,"PO BOX 700466","SAN ANTONIO","TX",78270,NA,NA,236,"PO BOX 700466, SAN ANTONIO, TX, 78270","No_Match",NA,NA,NA,NA
356237,"PO BOX 70048","BALTIMORE","MD",21237,NA,NA,237,"PO BOX 70048, BALTIMORE, MD, 21237","No_Match",NA,NA,NA,NA
356238,"PO BOX 700489","KAPOLEI","HI",96709,NA,NA,238,"PO BOX 700489, KAPOLEI, HI, 96709","No_Match",NA,NA,NA,NA
356239,"PO BOX 7005","WOODLAND PARK","CO",80863,NA,NA,239,"PO BOX 7005, WOODLAND PARK, CO, 80863","No_Match",NA,NA,NA,NA
356240,"PO BOX 700521","SAN JOSE","CA",95170,NA,NA,240,"PO BOX 700521, SAN JOSE, CA, 95170","No_Match",NA,NA,NA,NA
356241,"PO BOX 7006","COLUMBIA","MO",65205,NA,NA,241,"PO BOX 7006, COLUMBIA, MO, 65205","No_Match",NA,NA,NA,NA
356242,"PO BOX 700664","TULSA","OK",74170,NA,NA,242,"PO BOX 700664, TULSA, OK, 74170","No_Match",NA,NA,NA,NA
356243,"PO BOX 7007","EVANSTON","IL",60204,NA,NA,243,"PO BOX 7007, EVANSTON, IL, 60204","No_Match",NA,NA,NA,NA
356244,"PO BOX 70075","ODESSA","TX",79769,NA,NA,244,"PO BOX 70075, ODESSA, TX, 79769","No_Match",NA,NA,NA,NA
356245,"PO BOX 7008","NOVI","MI",48376,NA,NA,245,"PO BOX 7008, NOVI, MI, 48376","No_Match",NA,NA,NA,NA
356246,"PO BOX 700801","KAPOLEI","HI",96709,NA,NA,246,"PO BOX 700801, KAPOLEI, HI, 96709","No_Match",NA,NA,NA,NA
356247,"PO BOX 700801","PLYMOUTH","MI",48170,NA,NA,247,"PO BOX 700801, PLYMOUTH, MI, 48170","No_Match",NA,NA,NA,NA
356248,"PO BOX 70092","HENRICO","VA",23255,NA,NA,248,"PO BOX 70092, HENRICO, VA, 23255","No_Match",NA,NA,NA,NA
356249,"PO BOX 701","ANNANDALE","VA",22003,NA,NA,249,"PO BOX 701, ANNANDALE, VA, 22003","No_Match",NA,NA,NA,NA
356250,"PO BOX 701","CHAMBERSBURG","PA",17201,NA,NA,250,"PO BOX 701, CHAMBERSBURG, PA, 17201","No_Match",NA,NA,NA,NA
356251,"PO BOX 701","CLAYTON","NC",27528,NA,NA,251,"PO BOX 701, CLAYTON, NC, 27528","No_Match",NA,NA,NA,NA
356252,"PO BOX 701","EDMONDS","WA",98020,NA,NA,252,"PO BOX 701, EDMONDS, WA, 98020","No_Match",NA,NA,NA,NA
356253,"PO BOX 701","KEENE","NH",3431,NA,NA,253,"PO BOX 701, KEENE, NH, 3431","No_Match",NA,NA,NA,NA
356254,"PO BOX 701","OLIVE BRANCH","MS",38654,NA,NA,254,"PO BOX 701, OLIVE BRANCH, MS, 38654","No_Match",NA,NA,NA,NA
356255,"PO BOX 701","PARIS","TN",38242,NA,NA,255,"PO BOX 701, PARIS, TN, 38242","No_Match",NA,NA,NA,NA
356256,"PO BOX 701","PENFIELD","NY",14526,NA,NA,256,"PO BOX 701, PENFIELD, NY, 14526","No_Match",NA,NA,NA,NA
356257,"PO BOX 701","SMYRNA","GA",30080,NA,NA,257,"PO BOX 701, SMYRNA, GA, 30080","No_Match",NA,NA,NA,NA
356258,"PO BOX 701","TUNKHANNOCK","PA",18657,NA,NA,258,"PO BOX 701, TUNKHANNOCK, PA, 18657","No_Match",NA,NA,NA,NA
356259,"PO BOX 701","VAUGHN","WA",98394,NA,NA,259,"PO BOX 701, VAUGHN, WA, 98394","No_Match",NA,NA,NA,NA
356260,"PO BOX 701","WAITSBURG","WA",99361,NA,NA,260,"PO BOX 701, WAITSBURG, WA, 99361","No_Match",NA,NA,NA,NA
356261,"PO BOX 701066","SALT LAKE CITY","UT",84170,NA,NA,261,"PO BOX 701066, SALT LAKE CITY, UT, 84170","No_Match",NA,NA,NA,NA
356262,"PO BOX 701087","SAINT CLOUD","FL",34770,NA,NA,262,"PO BOX 701087, SAINT CLOUD, FL, 34770","No_Match",NA,NA,NA,NA
356263,"PO BOX 7011","LA QUINTA","CA",92248,NA,NA,263,"PO BOX 7011, LA QUINTA, CA, 92248","No_Match",NA,NA,NA,NA
356264,"PO BOX 701143","LOUISVILLE","KY",40270,NA,NA,264,"PO BOX 701143, LOUISVILLE, KY, 40270","No_Match",NA,NA,NA,NA
356265,"PO BOX 701173","LOUISVILLE","KY",40270,NA,NA,265,"PO BOX 701173, LOUISVILLE, KY, 40270","No_Match",NA,NA,NA,NA
356266,"PO BOX 7012","AGAT","GU",96928,NA,NA,266,"PO BOX 7012, AGAT, GU, 96928","No_Match",NA,NA,NA,NA
356267,"PO BOX 7012","WESLEY CHAPEL","FL",33545,NA,NA,267,"PO BOX 7012, WESLEY CHAPEL, FL, 33545","No_Match",NA,NA,NA,NA
356268,"PO BOX 70126 UNIVERSITY STATION","LAS VEGAS","NV",89170,NA,NA,268,"PO BOX 70126 UNIVERSITY STATION, LAS VEGAS, NV, 89170","No_Match",NA,NA,NA,NA
356269,"PO BOX 7013","DENVER","CO",80207,NA,NA,269,"PO BOX 7013, DENVER, CO, 80207","No_Match",NA,NA,NA,NA
356270,"PO BOX 701361","SAINT CLOUD","FL",34770,NA,NA,270,"PO BOX 701361, SAINT CLOUD, FL, 34770","No_Match",NA,NA,NA,NA
356271,"PO BOX 7014","GREENSBORO","NC",27407,NA,NA,271,"PO BOX 7014, GREENSBORO, NC, 27407","No_Match",NA,NA,NA,NA
356272,"PO BOX 7014","GREENSBORO","NC",27417,NA,NA,272,"PO BOX 7014, GREENSBORO, NC, 27417","No_Match",NA,NA,NA,NA
356273,"PO BOX 7014","RANCHO SANTA FE","CA",92067,NA,NA,273,"PO BOX 7014, RANCHO SANTA FE, CA, 92067","No_Match",NA,NA,NA,NA
356274,"PO BOX 70145","LOS ANGELES","CA",90070,NA,NA,274,"PO BOX 70145, LOS ANGELES, CA, 90070","No_Match",NA,NA,NA,NA
356275,"PO BOX 701492","TULSA","OK",74170,NA,NA,275,"PO BOX 701492, TULSA, OK, 74170","No_Match",NA,NA,NA,NA
356276,"PO BOX 7015","MYRTLE BEACH","SC",29572,NA,NA,276,"PO BOX 7015, MYRTLE BEACH, SC, 29572","No_Match",NA,NA,NA,NA
356277,"PO BOX 701735","TULSA","OK",74170,NA,NA,277,"PO BOX 701735, TULSA, OK, 74170","No_Match",NA,NA,NA,NA
356278,"PO BOX 701756","PLYMOUTH","MI",48170,NA,NA,278,"PO BOX 701756, PLYMOUTH, MI, 48170","No_Match",NA,NA,NA,NA
356279,"PO BOX 7018","BRANDON","FL",33508,NA,NA,279,"PO BOX 7018, BRANDON, FL, 33508","No_Match",NA,NA,NA,NA
356280,"PO BOX 701811","DALLAS","TX",75370,NA,NA,280,"PO BOX 701811, DALLAS, TX, 75370","No_Match",NA,NA,NA,NA
356281,"PO BOX 70190","TUSCALOOSA","AL",35407,NA,NA,281,"PO BOX 70190, TUSCALOOSA, AL, 35407","No_Match",NA,NA,NA,NA
356282,"PO BOX 702","DAYTON","OH",45401,NA,NA,282,"PO BOX 702, DAYTON, OH, 45401","No_Match",NA,NA,NA,NA
356283,"PO BOX 702","EDISTO ISLAND","SC",29438,NA,NA,283,"PO BOX 702, EDISTO ISLAND, SC, 29438","No_Match",NA,NA,NA,NA
356284,"PO BOX 702","JACKSON","NH",3846,NA,NA,284,"PO BOX 702, JACKSON, NH, 3846","No_Match",NA,NA,NA,NA
356285,"PO BOX 702","KEIZER","OR",97127,NA,NA,285,"PO BOX 702, KEIZER, OR, 97127","No_Match",NA,NA,NA,NA
356286,"PO BOX 702","LEMON GROVE","CA",91945,NA,NA,286,"PO BOX 702, LEMON GROVE, CA, 91945","No_Match",NA,NA,NA,NA
356287,"PO BOX 702","MELROSE","FL",32666,NA,NA,287,"PO BOX 702, MELROSE, FL, 32666","No_Match",NA,NA,NA,NA
356288,"PO BOX 702","MONTGOMERYVILLE","PA",18936,NA,NA,288,"PO BOX 702, MONTGOMERYVILLE, PA, 18936","No_Match",NA,NA,NA,NA
356289,"PO BOX 702","MOSES LAKE","WA",98837,NA,NA,289,"PO BOX 702, MOSES LAKE, WA, 98837","No_Match",NA,NA,NA,NA
356290,"PO BOX 702","PORT ORCHARD","WA",98366,NA,NA,290,"PO BOX 702, PORT ORCHARD, WA, 98366","No_Match",NA,NA,NA,NA
356291,"PO BOX 702","PUERTO REAL","PR",740,NA,NA,291,"PO BOX 702, PUERTO REAL, PR, 740","No_Match",NA,NA,NA,NA
356292,"PO BOX 702","RALSTON","WY",82440,NA,NA,292,"PO BOX 702, RALSTON, WY, 82440","No_Match",NA,NA,NA,NA
356293,"PO BOX 702","ROSELLE","NJ",7203,NA,NA,293,"PO BOX 702, ROSELLE, NJ, 7203","No_Match",NA,NA,NA,NA
356294,"PO BOX 702","ROYSE CITY","TX",75189,NA,NA,294,"PO BOX 702, ROYSE CITY, TX, 75189","No_Match",NA,NA,NA,NA
356295,"PO BOX 702","SEARCY","AR",72145,NA,NA,295,"PO BOX 702, SEARCY, AR, 72145","No_Match",NA,NA,NA,NA
356296,"PO BOX 702","TAYLOR","MI",48180,NA,NA,296,"PO BOX 702, TAYLOR, MI, 48180","No_Match",NA,NA,NA,NA
356297,"PO BOX 702","TROUTDALE","OR",97060,NA,NA,297,"PO BOX 702, TROUTDALE, OR, 97060","No_Match",NA,NA,NA,NA
356298,"PO BOX 702","TWINSBURG","OH",44087,NA,NA,298,"PO BOX 702, TWINSBURG, OH, 44087","No_Match",NA,NA,NA,NA
356299,"PO BOX 702","WEBSTER","MA",1570,NA,NA,299,"PO BOX 702, WEBSTER, MA, 1570","No_Match",NA,NA,NA,NA
356300,"PO BOX 7022","WYOMISSING","PA",19610,NA,NA,300,"PO BOX 7022, WYOMISSING, PA, 19610","No_Match",NA,NA,NA,NA
356301,"PO BOX 7023","CUT SHOOT","TX",77303,NA,NA,301,"PO BOX 7023, CUT SHOOT, TX, 77303","No_Match",NA,NA,NA,NA
356302,"PO BOX 702406","WEST VALLEY CITY","UT",84170,NA,NA,302,"PO BOX 702406, WEST VALLEY CITY, UT, 84170","No_Match",NA,NA,NA,NA
356303,"PO BOX 702436","TULSA","OK",74170,NA,NA,303,"PO BOX 702436, TULSA, OK, 74170","No_Match",NA,NA,NA,NA
356304,"PO BOX 7025","LOUDON","NH",3307,NA,NA,304,"PO BOX 7025, LOUDON, NH, 3307","No_Match",NA,NA,NA,NA
356305,"PO BOX 7025","MISSOULA","MT",59807,NA,NA,305,"PO BOX 7025, MISSOULA, MT, 59807","No_Match",NA,NA,NA,NA
356306,"PO BOX 7025","WHITEMAN AFB","MO",65305,NA,NA,306,"PO BOX 7025, WHITEMAN AFB, MO, 65305","No_Match",NA,NA,NA,NA
356307,"PO BOX 70281","ROSEDALE","MD",21237,NA,NA,307,"PO BOX 70281, ROSEDALE, MD, 21237","No_Match",NA,NA,NA,NA
356308,"PO BOX 7029","GRANBURY","TX",76049,NA,NA,308,"PO BOX 7029, GRANBURY, TX, 76049","No_Match",NA,NA,NA,NA
356309,"PO BOX 7029","YANKTON","SD",57078,NA,NA,309,"PO BOX 7029, YANKTON, SD, 57078","No_Match",NA,NA,NA,NA
356310,"PO BOX 703","COLUMBIA","SC",29202,NA,NA,310,"PO BOX 703, COLUMBIA, SC, 29202","No_Match",NA,NA,NA,NA
356311,"PO BOX 703","ELKTON","OR",97436,NA,NA,311,"PO BOX 703, ELKTON, OR, 97436","No_Match",NA,NA,NA,NA
356312,"PO BOX 703","HARDINSBURG","KY",40143,NA,NA,312,"PO BOX 703, HARDINSBURG, KY, 40143","No_Match",NA,NA,NA,NA
356313,"PO BOX 703","HURST","TX",76053,NA,NA,313,"PO BOX 703, HURST, TX, 76053","No_Match",NA,NA,NA,NA
356314,"PO BOX 703","LYDIA","LA",70569,NA,NA,314,"PO BOX 703, LYDIA, LA, 70569","No_Match",NA,NA,NA,NA
356315,"PO BOX 703","RONAN","MT",59864,NA,NA,315,"PO BOX 703, RONAN, MT, 59864","No_Match",NA,NA,NA,NA
356316,"PO BOX 703","SHERIDAN","WY",82801,NA,NA,316,"PO BOX 703, SHERIDAN, WY, 82801","No_Match",NA,NA,NA,NA
356317,"PO BOX 703","WINDHAM","NH",3087,NA,NA,317,"PO BOX 703, WINDHAM, NH, 3087","No_Match",NA,NA,NA,NA
356318,"PO BOX 7030","FORT GORDON","GA",30905,NA,NA,318,"PO BOX 7030, FORT GORDON, GA, 30905","No_Match",NA,NA,NA,NA
356319,"PO BOX 70309","LOUISVILLE","KY",40270,NA,NA,319,"PO BOX 70309, LOUISVILLE, KY, 40270","No_Match",NA,NA,NA,NA
356320,"PO BOX 7031","TUCSON","AZ",85725,NA,NA,320,"PO BOX 7031, TUCSON, AZ, 85725","No_Match",NA,NA,NA,NA
356321,"PO BOX 703154","TULSA","OK",74170,NA,NA,321,"PO BOX 703154, TULSA, OK, 74170","No_Match",NA,NA,NA,NA
356322,"PO BOX 7033","LOS ANGELES","CA",90007,NA,NA,322,"PO BOX 7033, LOS ANGELES, CA, 90007","No_Match",NA,NA,NA,NA
356323,"PO BOX 70333","LOUISVILLE","KY",40270,NA,NA,323,"PO BOX 70333, LOUISVILLE, KY, 40270","No_Match",NA,NA,NA,NA
356324,"PO BOX 703381","DALLAS","TX",75370,NA,NA,324,"PO BOX 703381, DALLAS, TX, 75370","No_Match",NA,NA,NA,NA
356325,"PO BOX 7035","FULLERTON","CA",92834,NA,NA,325,"PO BOX 7035, FULLERTON, CA, 92834","No_Match",NA,NA,NA,NA
356326,"PO BOX 7036","MARYVILLE","TN",37802,NA,NA,326,"PO BOX 7036, MARYVILLE, TN, 37802","No_Match",NA,NA,NA,NA
356327,"PO BOX 7039","MORENO VALLEY","CA",92552,NA,NA,327,"PO BOX 7039, MORENO VALLEY, CA, 92552","No_Match",NA,NA,NA,NA
356328,"PO BOX 70394","FORT LAUDERDALE","FL",33307,NA,NA,328,"PO BOX 70394, FORT LAUDERDALE, FL, 33307","No_Match",NA,NA,NA,NA
356329,"PO BOX 704","ANAHOLA","HI",96703,NA,NA,329,"PO BOX 704, ANAHOLA, HI, 96703","No_Match",NA,NA,NA,NA
356330,"PO BOX 704","BUNNELL","FL",32110,NA,NA,330,"PO BOX 704, BUNNELL, FL, 32110","No_Match",NA,NA,NA,NA
356331,"PO BOX 704","CROSS CITY","FL",32628,NA,NA,331,"PO BOX 704, CROSS CITY, FL, 32628","No_Match",NA,NA,NA,NA
356332,"PO BOX 704","DAVIS","WV",26260,NA,NA,332,"PO BOX 704, DAVIS, WV, 26260","No_Match",NA,NA,NA,NA
356333,"PO BOX 704","EPHRATA","WA",98823,NA,NA,333,"PO BOX 704, EPHRATA, WA, 98823","No_Match",NA,NA,NA,NA
356334,"PO BOX 704","GREEN","OH",44232,NA,NA,334,"PO BOX 704, GREEN, OH, 44232","No_Match",NA,NA,NA,NA
356335,"PO BOX 704","JONES","OK",73049,NA,NA,335,"PO BOX 704, JONES, OK, 73049","No_Match",NA,NA,NA,NA
356336,"PO BOX 704","LAFAYETTE","OR",97127,NA,NA,336,"PO BOX 704, LAFAYETTE, OR, 97127","No_Match",NA,NA,NA,NA
356337,"PO BOX 704","PENRYN","CA",95663,NA,NA,337,"PO BOX 704, PENRYN, CA, 95663","No_Match",NA,NA,NA,NA
356338,"PO BOX 704","STATE COLLEGE","PA",16804,NA,NA,338,"PO BOX 704, STATE COLLEGE, PA, 16804","No_Match",NA,NA,NA,NA
356339,"PO BOX 704","WYNNEWOOD","PA",19096,NA,NA,339,"PO BOX 704, WYNNEWOOD, PA, 19096","No_Match",NA,NA,NA,NA
356340,"PO BOX 704001","DALLAS","TX",75370,NA,NA,340,"PO BOX 704001, DALLAS, TX, 75370","No_Match",NA,NA,NA,NA
356341,"PO BOX 70401","OAKLAND","CA",94612,NA,NA,341,"PO BOX 70401, OAKLAND, CA, 94612","No_Match",NA,NA,NA,NA
356342,"PO BOX 7044","GRANTS","NM",87020,NA,NA,342,"PO BOX 7044, GRANTS, NM, 87020","No_Match",NA,NA,NA,NA
356343,"PO BOX 70443","TUSCALOOSA","AL",35407,NA,NA,343,"PO BOX 70443, TUSCALOOSA, AL, 35407","No_Match",NA,NA,NA,NA
356344,"PO BOX 7045","NEWARK","DE",19714,NA,NA,344,"PO BOX 7045, NEWARK, DE, 19714","No_Match",NA,NA,NA,NA
356345,"PO BOX 70473","LOUISVILLE","KY",40270,NA,NA,345,"PO BOX 70473, LOUISVILLE, KY, 40270","No_Match",NA,NA,NA,NA
356346,"PO BOX 7048 SVRB","SAIPAN","MP",96950,NA,NA,346,"PO BOX 7048 SVRB, SAIPAN, MP, 96950","No_Match",NA,NA,NA,NA
356347,"PO BOX 7049","LOS ANGELES","CA",90007,NA,NA,347,"PO BOX 7049, LOS ANGELES, CA, 90007","No_Match",NA,NA,NA,NA
356348,"PO BOX 705","ALTHEIMER","AR",72004,NA,NA,348,"PO BOX 705, ALTHEIMER, AR, 72004","No_Match",NA,NA,NA,NA
356349,"PO BOX 705","BENTON","LA",71006,NA,NA,349,"PO BOX 705, BENTON, LA, 71006","No_Match",NA,NA,NA,NA
356350,"PO BOX 705","DAYTON","NV",89403,NA,NA,350,"PO BOX 705, DAYTON, NV, 89403","No_Match",NA,NA,NA,NA
356351,"PO BOX 705","FAIRMONT","MN",56301,NA,NA,351,"PO BOX 705, FAIRMONT, MN, 56301","No_Match",NA,NA,NA,NA
356352,"PO BOX 705","LUDINGTON","MI",49431,NA,NA,352,"PO BOX 705, LUDINGTON, MI, 49431","No_Match",NA,NA,NA,NA
356353,"PO BOX 705","MADISON","OH",44057,NA,NA,353,"PO BOX 705, MADISON, OH, 44057","No_Match",NA,NA,NA,NA
356354,"PO BOX 705","O FALLON","IL",62269,NA,NA,354,"PO BOX 705, O FALLON, IL, 62269","No_Match",NA,NA,NA,NA
356355,"PO BOX 705","PORTAGE","IN",46368,NA,NA,355,"PO BOX 705, PORTAGE, IN, 46368","No_Match",NA,NA,NA,NA
356356,"PO BOX 705","RIO VISTA","TX",76093,NA,NA,356,"PO BOX 705, RIO VISTA, TX, 76093","No_Match",NA,NA,NA,NA
356357,"PO BOX 7051","MISSOULA","MT",59807,NA,NA,357,"PO BOX 7051, MISSOULA, MT, 59807","No_Match",NA,NA,NA,NA
356358,"PO BOX 7052","LOUISVILLE","KY",40206,NA,NA,358,"PO BOX 7052, LOUISVILLE, KY, 40206","No_Match",NA,NA,NA,NA
356359,"PO BOX 7052","WAYNE","PA",19087,NA,NA,359,"PO BOX 7052, WAYNE, PA, 19087","No_Match",NA,NA,NA,NA
356360,"PO BOX 70523","HOUSTON","TX",77270,NA,NA,360,"PO BOX 70523, HOUSTON, TX, 77270","No_Match",NA,NA,NA,NA
356361,"PO BOX 70552","KNOXVILLE","TN",37938,NA,NA,361,"PO BOX 70552, KNOXVILLE, TN, 37938","No_Match",NA,NA,NA,NA
356362,"PO BOX 70555","PASADENA","CA",91117,NA,NA,362,"PO BOX 70555, PASADENA, CA, 91117","No_Match",NA,NA,NA,NA
356363,"PO BOX 7056","GOODYEAR","AZ",85338,NA,NA,363,"PO BOX 7056, GOODYEAR, AZ, 85338","No_Match",NA,NA,NA,NA
356364,"PO BOX 7056","HACKETTSTOWN","NJ",7840,NA,NA,364,"PO BOX 7056, HACKETTSTOWN, NJ, 7840","No_Match",NA,NA,NA,NA
356365,"PO BOX 70572","RIVERSIDE","CA",92513,NA,NA,365,"PO BOX 70572, RIVERSIDE, CA, 92513","No_Match",NA,NA,NA,NA
356366,"PO BOX 70577","BROOKLYN","NY",11207,NA,NA,366,"PO BOX 70577, BROOKLYN, NY, 11207","No_Match",NA,NA,NA,NA
356367,"PO BOX 70577","MYRTLE BEACH","SC",29572,NA,NA,367,"PO BOX 70577, MYRTLE BEACH, SC, 29572","No_Match",NA,NA,NA,NA
356368,"PO BOX 7058","RANCHO SANTA FE","CA",92067,NA,NA,368,"PO BOX 7058, RANCHO SANTA FE, CA, 92067","No_Match",NA,NA,NA,NA
356369,"PO BOX 706","CHARLESTON","WV",25323,NA,NA,369,"PO BOX 706, CHARLESTON, WV, 25323","No_Match",NA,NA,NA,NA
356370,"PO BOX 706","GUILDERLAND","NY",12084,NA,NA,370,"PO BOX 706, GUILDERLAND, NY, 12084","No_Match",NA,NA,NA,NA
356371,"PO BOX 706","MCCALL","ID",83638,NA,NA,371,"PO BOX 706, MCCALL, ID, 83638","No_Match",NA,NA,NA,NA
356372,"PO BOX 706","NEPTUNE","NJ",7754,NA,NA,372,"PO BOX 706, NEPTUNE, NJ, 7754","No_Match",NA,NA,NA,NA
356373,"PO BOX 706","NEW YORK","NY",10037,NA,NA,373,"PO BOX 706, NEW YORK, NY, 10037","No_Match",NA,NA,NA,NA
356374,"PO BOX 706","PORT ANGELES","WA",98362,NA,NA,374,"PO BOX 706, PORT ANGELES, WA, 98362","No_Match",NA,NA,NA,NA
356375,"PO BOX 706","TAYLOR","AZ",85939,NA,NA,375,"PO BOX 706, TAYLOR, AZ, 85939","No_Match",NA,NA,NA,NA
356376,"PO BOX 706","TEXARKANA","TX",75504,NA,NA,376,"PO BOX 706, TEXARKANA, TX, 75504","No_Match",NA,NA,NA,NA
356377,"PO BOX 706","VOLCANO","HI",96785,NA,NA,377,"PO BOX 706, VOLCANO, HI, 96785","No_Match",NA,NA,NA,NA
356378,"PO BOX 706","WOODINVILLE","WA",98072,NA,NA,378,"PO BOX 706, WOODINVILLE, WA, 98072","No_Match",NA,NA,NA,NA
356379,"PO BOX 7061","MISSOULA","MT",59807,NA,NA,379,"PO BOX 7061, MISSOULA, MT, 59807","No_Match",NA,NA,NA,NA
356380,"PO BOX 70626","FORT BRAGG","NC",28307,NA,NA,380,"PO BOX 70626, FORT BRAGG, NC, 28307","No_Match",NA,NA,NA,NA
356381,"PO BOX 7064","ROUND ROCK","TX",78683,NA,NA,381,"PO BOX 7064, ROUND ROCK, TX, 78683","No_Match",NA,NA,NA,NA
356382,"PO BOX 7065","DESTIN","FL",32540,NA,NA,382,"PO BOX 7065, DESTIN, FL, 32540","No_Match",NA,NA,NA,NA
356383,"PO BOX 707 307 SOUTH WAYNE STREET","WATERLOO","IN",46793,41.4298437200001,-85.019943215,383,"PO BOX 707 307 SOUTH WAYNE STREET, WATERLOO, IN, 46793","Match","Exact","307 S WAYNE ST, WATERLOO, IN, 46793",617389416,"L"
356384,"PO BOX 707 375 CARLLS PATH","DEER PARK","NY",11729,40.760125289,-73.3206909309999,384,"PO BOX 707 375 CARLLS PATH, DEER PARK, NY, 11729","Match","Exact","375 CARLLS PATH, DEER PARK, NY, 11729",113970336,"R"
356385,"PO BOX 707","FREDERICKSBURG","TX",78624,NA,NA,385,"PO BOX 707, FREDERICKSBURG, TX, 78624","No_Match",NA,NA,NA,NA
356386,"PO BOX 707","FRISCO","CO",80443,NA,NA,386,"PO BOX 707, FRISCO, CO, 80443","No_Match",NA,NA,NA,NA
356387,"PO BOX 707","KENNEBUNK","ME",4043,NA,NA,387,"PO BOX 707, KENNEBUNK, ME, 4043","No_Match",NA,NA,NA,NA
356388,"PO BOX 707","SPRING","TX",77383,NA,NA,388,"PO BOX 707, SPRING, TX, 77383","No_Match",NA,NA,NA,NA
356389,"PO BOX 707","WILLISTON","NC",28589,NA,NA,389,"PO BOX 707, WILLISTON, NC, 28589","No_Match",NA,NA,NA,NA
356390,"PO BOX 707","WINTERS","CA",95694,NA,NA,390,"PO BOX 707, WINTERS, CA, 95694","No_Match",NA,NA,NA,NA
356391,"PO BOX 7071","SAN JUAN","PR",916,NA,NA,391,"PO BOX 7071, SAN JUAN, PR, 916","No_Match",NA,NA,NA,NA
356392,"PO BOX 7072","COLORADO SPRINGS","CO",80933,NA,NA,392,"PO BOX 7072, COLORADO SPRINGS, CO, 80933","No_Match",NA,NA,NA,NA
356393,"PO BOX 70731","MILWAUKEE","WV",53207,NA,NA,393,"PO BOX 70731, MILWAUKEE, WV, 53207","No_Match",NA,NA,NA,NA
356394,"PO BOX 7074","WASHINGTON","DC",20032,NA,NA,394,"PO BOX 7074, WASHINGTON, DC, 20032","No_Match",NA,NA,NA,NA
356395,"PO BOX 70754","SPRINGFIELD","OR",97475,NA,NA,395,"PO BOX 70754, SPRINGFIELD, OR, 97475","No_Match",NA,NA,NA,NA
356396,"PO BOX 7077","ST THOMAS","VI",801,NA,NA,396,"PO BOX 7077, ST THOMAS, VI, 801","No_Match",NA,NA,NA,NA
356397,"PO BOX 70789","KNOXVILLE","TN",37938,NA,NA,397,"PO BOX 70789, KNOXVILLE, TN, 37938","No_Match",NA,NA,NA,NA
356398,"PO BOX 70795","MADISON","WI",53707,NA,NA,398,"PO BOX 70795, MADISON, WI, 53707","No_Match",NA,NA,NA,NA
356399,"PO BOX 708","BRICK","NJ",8723,NA,NA,399,"PO BOX 708, BRICK, NJ, 8723","No_Match",NA,NA,NA,NA
356400,"PO BOX 708","EVANS","GA",30809,NA,NA,400,"PO BOX 708, EVANS, GA, 30809","No_Match",NA,NA,NA,NA
356401,"PO BOX 708","MABLETON","GA",30126,NA,NA,401,"PO BOX 708, MABLETON, GA, 30126","No_Match",NA,NA,NA,NA
356402,"PO BOX 708","PORTSMOUTH","RI",2871,NA,NA,402,"PO BOX 708, PORTSMOUTH, RI, 2871","No_Match",NA,NA,NA,NA
356403,"PO BOX 708","TOMAH","WI",54660,NA,NA,403,"PO BOX 708, TOMAH, WI, 54660","No_Match",NA,NA,NA,NA
356404,"PO BOX 7080","KAMUELA","HI",96743,NA,NA,404,"PO BOX 7080, KAMUELA, HI, 96743","No_Match",NA,NA,NA,NA
356405,"PO BOX 7080","KENNEWICK","WA",99336,NA,NA,405,"PO BOX 7080, KENNEWICK, WA, 99336","No_Match",NA,NA,NA,NA
356406,"PO BOX 7080","NIKISKI","AK",99635,NA,NA,406,"PO BOX 7080, NIKISKI, AK, 99635","No_Match",NA,NA,NA,NA
356407,"PO BOX 708008","SANDY","UT",84070,NA,NA,407,"PO BOX 708008, SANDY, UT, 84070","No_Match",NA,NA,NA,NA
356408,"PO BOX 70803","TUSCALOOSA","AL",35407,NA,NA,408,"PO BOX 70803, TUSCALOOSA, AL, 35407","No_Match",NA,NA,NA,NA
356409,"PO BOX 70806","AUSTIN","TX",78717,NA,NA,409,"PO BOX 70806, AUSTIN, TX, 78717","No_Match",NA,NA,NA,NA
356410,"PO BOX 70812","KNOXVILLE","TN",37938,NA,NA,410,"PO BOX 70812, KNOXVILLE, TN, 37938","No_Match",NA,NA,NA,NA
356411,"PO BOX 70817","MADISON","WI",53707,NA,NA,411,"PO BOX 70817, MADISON, WI, 53707","No_Match",NA,NA,NA,NA
356412,"PO BOX 708192","SANDY","UT",84070,NA,NA,412,"PO BOX 708192, SANDY, UT, 84070","No_Match",NA,NA,NA,NA
356413,"PO BOX 7084","ASHEVILLE","NC",28802,NA,NA,413,"PO BOX 7084, ASHEVILLE, NC, 28802","No_Match",NA,NA,NA,NA
356414,"PO BOX 70848","FAIRBANKS","AK",99707,NA,NA,414,"PO BOX 70848, FAIRBANKS, AK, 99707","No_Match",NA,NA,NA,NA
356415,"PO BOX 7085","ALEXANDRIA","VA",22307,NA,NA,415,"PO BOX 7085, ALEXANDRIA, VA, 22307","No_Match",NA,NA,NA,NA
356416,"PO BOX 7085","RICHMOND","VA",23221,NA,NA,416,"PO BOX 7085, RICHMOND, VA, 23221","No_Match",NA,NA,NA,NA
356417,"PO BOX 70852","HOUSTON","TX",77270,NA,NA,417,"PO BOX 70852, HOUSTON, TX, 77270","No_Match",NA,NA,NA,NA
356418,"PO BOX 70866","MYRTLE BEACH","SC",29572,NA,NA,418,"PO BOX 70866, MYRTLE BEACH, SC, 29572","No_Match",NA,NA,NA,NA
356419,"PO BOX 70881","HOUSTON","TX",77270,NA,NA,419,"PO BOX 70881, HOUSTON, TX, 77270","No_Match",NA,NA,NA,NA
356420,"PO BOX 7089","SPRING","TX",77387,NA,NA,420,"PO BOX 7089, SPRING, TX, 77387","No_Match",NA,NA,NA,NA
356421,"PO BOX 70892","KNOXVILLE","TN",37938,NA,NA,421,"PO BOX 70892, KNOXVILLE, TN, 37938","No_Match",NA,NA,NA,NA
356422,"PO BOX 709","CAPITAN","NM",88316,NA,NA,422,"PO BOX 709, CAPITAN, NM, 88316","No_Match",NA,NA,NA,NA
356423,"PO BOX 709","LINCOLN CITY","OR",97367,NA,NA,423,"PO BOX 709, LINCOLN CITY, OR, 97367","No_Match",NA,NA,NA,NA
356424,"PO BOX 70901","ROCHESTER HILLS","MI",48307,NA,NA,424,"PO BOX 70901, ROCHESTER HILLS, MI, 48307","No_Match",NA,NA,NA,NA
356425,"PO BOX 70902","POINT RICHMOND","CA",94807,NA,NA,425,"PO BOX 70902, POINT RICHMOND, CA, 94807","No_Match",NA,NA,NA,NA
356426,"PO BOX 7091","BILLINGS","MT",59103,NA,NA,426,"PO BOX 7091, BILLINGS, MT, 59103","No_Match",NA,NA,NA,NA
356427,"PO BOX 70911","CHEVY CHASE","MD",20813,NA,NA,427,"PO BOX 70911, CHEVY CHASE, MD, 20813","No_Match",NA,NA,NA,NA
356428,"PO BOX 709376","SANDY","UT",84070,NA,NA,428,"PO BOX 709376, SANDY, UT, 84070","No_Match",NA,NA,NA,NA
356429,"PO BOX 7094","MISSOULA","MT",59807,NA,NA,429,"PO BOX 7094, MISSOULA, MT, 59807","No_Match",NA,NA,NA,NA
356430,"PO BOX 70948","NORTH CHARLESTON","SC",29415,NA,NA,430,"PO BOX 70948, NORTH CHARLESTON, SC, 29415","No_Match",NA,NA,NA,NA
356431,"PO BOX 7095","MISSOULA","MT",59807,NA,NA,431,"PO BOX 7095, MISSOULA, MT, 59807","No_Match",NA,NA,NA,NA
356432,"PO BOX 7098","SPRING","TX",77387,NA,NA,432,"PO BOX 7098, SPRING, TX, 77387","No_Match",NA,NA,NA,NA
356433,"PO BOX 7099","JACKSONVILLE","FL",32238,NA,NA,433,"PO BOX 7099, JACKSONVILLE, FL, 32238","No_Match",NA,NA,NA,NA
356434,"PO BOX 7099","SANTA CRUZ","CA",95062,NA,NA,434,"PO BOX 7099, SANTA CRUZ, CA, 95062","No_Match",NA,NA,NA,NA
356435,"PO BOX 70994","RIVERSIDE","CA",92505,NA,NA,435,"PO BOX 70994, RIVERSIDE, CA, 92505","No_Match",NA,NA,NA,NA
356436,"PO BOX 70A         360 SOUTH MAIN","BANCROFT","ID",83217,NA,NA,436,"PO BOX 70A         360 SOUTH MAIN, BANCROFT, ID, 83217","No_Match",NA,NA,NA,NA
356437,"PO BOX 71","AIKEN","SC",29802,NA,NA,437,"PO BOX 71, AIKEN, SC, 29802","No_Match",NA,NA,NA,NA
356438,"PO BOX 71","BAGLEY","IA",50026,NA,NA,438,"PO BOX 71, BAGLEY, IA, 50026","No_Match",NA,NA,NA,NA
356439,"PO BOX 71","BATSON","TX",77519,NA,NA,439,"PO BOX 71, BATSON, TX, 77519","No_Match",NA,NA,NA,NA
356440,"PO BOX 71","BEULAVILLE","NC",28518,NA,NA,440,"PO BOX 71, BEULAVILLE, NC, 28518","No_Match",NA,NA,NA,NA
356441,"PO BOX 71","BONDURANT","WY",82922,NA,NA,441,"PO BOX 71, BONDURANT, WY, 82922","No_Match",NA,NA,NA,NA
356442,"PO BOX 71","BOUTTE","LA",70039,NA,NA,442,"PO BOX 71, BOUTTE, LA, 70039","No_Match",NA,NA,NA,NA
356443,"PO BOX 71","CENTER HARBOR","NH",3226,NA,NA,443,"PO BOX 71, CENTER HARBOR, NH, 3226","No_Match",NA,NA,NA,NA
356444,"PO BOX 71","CHOKIO","MN",56221,NA,NA,444,"PO BOX 71, CHOKIO, MN, 56221","No_Match",NA,NA,NA,NA
356445,"PO BOX 71","CIRCLE","MT",59215,NA,NA,445,"PO BOX 71, CIRCLE, MT, 59215","No_Match",NA,NA,NA,NA
356446,"PO BOX 71","CLARKRANGE","TN",38553,NA,NA,446,"PO BOX 71, CLARKRANGE, TN, 38553","No_Match",NA,NA,NA,NA
356447,"PO BOX 71","CLIFTON","NJ",7015,NA,NA,447,"PO BOX 71, CLIFTON, NJ, 7015","No_Match",NA,NA,NA,NA
356448,"PO BOX 71","COOPERSBURG","PA",18036,NA,NA,448,"PO BOX 71, COOPERSBURG, PA, 18036","No_Match",NA,NA,NA,NA
356449,"PO BOX 71","CUBA","NY",14727,NA,NA,449,"PO BOX 71, CUBA, NY, 14727","No_Match",NA,NA,NA,NA
356450,"PO BOX 71","DENALI PARK","AK",99755,NA,NA,450,"PO BOX 71, DENALI PARK, AK, 99755","No_Match",NA,NA,NA,NA
356451,"PO BOX 71","DRIPPING SPRINGS","TX",78620,NA,NA,451,"PO BOX 71, DRIPPING SPRINGS, TX, 78620","No_Match",NA,NA,NA,NA
356452,"PO BOX 71","HAMPSHIRE","IL",60140,NA,NA,452,"PO BOX 71, HAMPSHIRE, IL, 60140","No_Match",NA,NA,NA,NA
356453,"PO BOX 71","HUNTERTOWN","IN",46748,NA,NA,453,"PO BOX 71, HUNTERTOWN, IN, 46748","No_Match",NA,NA,NA,NA
356454,"PO BOX 71","LODI","OH",44254,NA,NA,454,"PO BOX 71, LODI, OH, 44254","No_Match",NA,NA,NA,NA
356455,"PO BOX 71","MADISONVILLE","KY",42431,NA,NA,455,"PO BOX 71, MADISONVILLE, KY, 42431","No_Match",NA,NA,NA,NA
356456,"PO BOX 71","MEDORA","IN",47260,NA,NA,456,"PO BOX 71, MEDORA, IN, 47260","No_Match",NA,NA,NA,NA
356457,"PO BOX 71","MIFFLINTOWN","PA",17059,NA,NA,457,"PO BOX 71, MIFFLINTOWN, PA, 17059","No_Match",NA,NA,NA,NA
356458,"PO BOX 71","NORTHPORT","NY",11768,NA,NA,458,"PO BOX 71, NORTHPORT, NY, 11768","No_Match",NA,NA,NA,NA
356459,"PO BOX 71","OLD HICKORY","TN",37138,NA,NA,459,"PO BOX 71, OLD HICKORY, TN, 37138","No_Match",NA,NA,NA,NA
356460,"PO BOX 71","PEARL RIVER","LA",70452,NA,NA,460,"PO BOX 71, PEARL RIVER, LA, 70452","No_Match",NA,NA,NA,NA
356461,"PO BOX 71","QUITMAN","TX",75783,NA,NA,461,"PO BOX 71, QUITMAN, TX, 75783","No_Match",NA,NA,NA,NA
356462,"PO BOX 71","REIDSVILLE","GA",30453,NA,NA,462,"PO BOX 71, REIDSVILLE, GA, 30453","No_Match",NA,NA,NA,NA
356463,"PO BOX 71","RINCON","PR",677,NA,NA,463,"PO BOX 71, RINCON, PR, 677","No_Match",NA,NA,NA,NA
356464,"PO BOX 71","SAINT HELENA","CA",94574,NA,NA,464,"PO BOX 71, SAINT HELENA, CA, 94574","No_Match",NA,NA,NA,NA
356465,"PO BOX 71","SCOTTSVILLE","KY",42164,NA,NA,465,"PO BOX 71, SCOTTSVILLE, KY, 42164","No_Match",NA,NA,NA,NA
356466,"PO BOX 71","SPRINGFIELD","WV",26763,NA,NA,466,"PO BOX 71, SPRINGFIELD, WV, 26763","No_Match",NA,NA,NA,NA
356467,"PO BOX 71","STOCKBRIDGE","GA",30281,NA,NA,467,"PO BOX 71, STOCKBRIDGE, GA, 30281","No_Match",NA,NA,NA,NA
356468,"PO BOX 71","STONEVILLE","NC",27048,NA,NA,468,"PO BOX 71, STONEVILLE, NC, 27048","No_Match",NA,NA,NA,NA
356469,"PO BOX 71","SUBLIMITY","OR",97385,NA,NA,469,"PO BOX 71, SUBLIMITY, OR, 97385","No_Match",NA,NA,NA,NA
356470,"PO BOX 71","SUMMERTOWN","TN",38483,NA,NA,470,"PO BOX 71, SUMMERTOWN, TN, 38483","No_Match",NA,NA,NA,NA
356471,"PO BOX 71","WARSAW","OH",43844,NA,NA,471,"PO BOX 71, WARSAW, OH, 43844","No_Match",NA,NA,NA,NA
356472,"PO BOX 71","WESTFIELD","ME",4787,NA,NA,472,"PO BOX 71, WESTFIELD, ME, 4787","No_Match",NA,NA,NA,NA
356473,"PO BOX 710","BETHLEHEM","CT",6751,NA,NA,473,"PO BOX 710, BETHLEHEM, CT, 6751","No_Match",NA,NA,NA,NA
356474,"PO BOX 710","DELTA JUNCTION","AK",99737,NA,NA,474,"PO BOX 710, DELTA JUNCTION, AK, 99737","No_Match",NA,NA,NA,NA
356475,"PO BOX 710","DILLSBURG","PA",17019,NA,NA,475,"PO BOX 710, DILLSBURG, PA, 17019","No_Match",NA,NA,NA,NA
356476,"PO BOX 710","GLADWYNE","PA",19035,NA,NA,476,"PO BOX 710, GLADWYNE, PA, 19035","No_Match",NA,NA,NA,NA
356477,"PO BOX 710","SPRINGTOWN","PA",18081,NA,NA,477,"PO BOX 710, SPRINGTOWN, PA, 18081","No_Match",NA,NA,NA,NA
356478,"PO BOX 710","SUISUN CITY","CA",94585,NA,NA,478,"PO BOX 710, SUISUN CITY, CA, 94585","No_Match",NA,NA,NA,NA
356479,"PO BOX 710","ZACHARY","LA",70791,NA,NA,479,"PO BOX 710, ZACHARY, LA, 70791","No_Match",NA,NA,NA,NA
356480,"PO BOX 7100","HOUSTON","TX",77248,NA,NA,480,"PO BOX 7100, HOUSTON, TX, 77248","No_Match",NA,NA,NA,NA
356481,"PO BOX 7100","RANCHO SANTA FE","CA",92067,NA,NA,481,"PO BOX 7100, RANCHO SANTA FE, CA, 92067","No_Match",NA,NA,NA,NA
356482,"PO BOX 710002","MAXEYS","GA",30671,NA,NA,482,"PO BOX 710002, MAXEYS, GA, 30671","No_Match",NA,NA,NA,NA
356483,"PO BOX 710031","HOUSTON","TX",77271,NA,NA,483,"PO BOX 710031, HOUSTON, TX, 77271","No_Match",NA,NA,NA,NA
356484,"PO BOX 710045","HOUSTON","TX",77271,NA,NA,484,"PO BOX 710045, HOUSTON, TX, 77271","No_Match",NA,NA,NA,NA
356485,"PO BOX 710138","HOUSTON","TX",77271,NA,NA,485,"PO BOX 710138, HOUSTON, TX, 77271","No_Match",NA,NA,NA,NA
356486,"PO BOX 710146","HERNDON","VA",20171,NA,NA,486,"PO BOX 710146, HERNDON, VA, 20171","No_Match",NA,NA,NA,NA
356487,"PO BOX 710322","HOUSTON","TX",77271,NA,NA,487,"PO BOX 710322, HOUSTON, TX, 77271","No_Match",NA,NA,NA,NA
356488,"PO BOX 710336","HOUSTON","TX",77271,NA,NA,488,"PO BOX 710336, HOUSTON, TX, 77271","No_Match",NA,NA,NA,NA
356489,"PO BOX 7104","THOUSAND OAKS","CA",91359,NA,NA,489,"PO BOX 7104, THOUSAND OAKS, CA, 91359","No_Match",NA,NA,NA,NA
356490,"PO BOX 710423","SANTEE","CA",92072,NA,NA,490,"PO BOX 710423, SANTEE, CA, 92072","No_Match",NA,NA,NA,NA
356491,"PO BOX 7107","HUNTINGTON WOODS","MI",48070,NA,NA,491,"PO BOX 7107, HUNTINGTON WOODS, MI, 48070","No_Match",NA,NA,NA,NA
356492,"PO BOX 71073","OAKLAND","CA",94612,NA,NA,492,"PO BOX 71073, OAKLAND, CA, 94612","No_Match",NA,NA,NA,NA
356493,"PO BOX 710775","HOUSTON","TX",77271,NA,NA,493,"PO BOX 710775, HOUSTON, TX, 77271","No_Match",NA,NA,NA,NA
356494,"PO BOX 710846","HOUSTON","TX",77271,NA,NA,494,"PO BOX 710846, HOUSTON, TX, 77271","No_Match",NA,NA,NA,NA
356495,"PO BOX 71093","HENRICO","VA",23229,NA,NA,495,"PO BOX 71093, HENRICO, VA, 23229","No_Match",NA,NA,NA,NA
356496,"PO BOX 711 BELDEN AVE STATION","NORWALK","CT",6854,NA,NA,496,"PO BOX 711 BELDEN AVE STATION, NORWALK, CT, 6854","No_Match",NA,NA,NA,NA
356497,"PO BOX 711","ATKINSON","NE",68713,NA,NA,497,"PO BOX 711, ATKINSON, NE, 68713","No_Match",NA,NA,NA,NA
356498,"PO BOX 711","BATTLE GROUND","WA",98604,NA,NA,498,"PO BOX 711, BATTLE GROUND, WA, 98604","No_Match",NA,NA,NA,NA
356499,"PO BOX 711","BETHEL","CT",6801,NA,NA,499,"PO BOX 711, BETHEL, CT, 6801","No_Match",NA,NA,NA,NA
356500,"PO BOX 711","CARLSBAD","CA",92018,NA,NA,500,"PO BOX 711, CARLSBAD, CA, 92018","No_Match",NA,NA,NA,NA
