"ID","Address","City","State","Zip","lat","long","id","input_address","match_indicator","match_type","matched_address","tiger_line_id","tiger_side"
293001,"80 MILLS LANDING","COVINGTON","GA",30016,33.5582378770001,-83.960708369,1,"80 MILLS LANDING, COVINGTON, GA, 30016","Match","Exact","80 MILLS LNDG, COVINGTON, GA, 30016",23626310,"R"
293002,"80 MITCHELL STREET","PROVIDENCE","RI",2907,41.8007232910001,-71.4214254669999,2,"80 MITCHELL STREET, PROVIDENCE, RI, 2907","Match","Exact","80 MITCHELL ST, PROVIDENCE, RI, 02907",47466871,"L"
293003,"80 MONROE AVE STE 405","MEMPHIS","TN",38103,35.1443441280001,-90.05374375,3,"80 MONROE AVE STE 405, MEMPHIS, TN, 38103","Match","Exact","80 MONROE AVE, MEMPHIS, TN, 38103",72903275,"L"
293004,"80 MONTVALE ROAD","WESTON","MA",2493,42.380435447,-71.298094259,4,"80 MONTVALE ROAD, WESTON, MA, 2493","Match","Exact","80 MONTVALE RD, WESTON, MA, 02493",86852853,"L"
293005,"80 MORGAN CO DRIVE","OTTERVILLE","MO",65348,NA,NA,5,"80 MORGAN CO DRIVE, OTTERVILLE, MO, 65348","No_Match",NA,NA,NA,NA
293006,"80 MORNINGSIDE AVENUE","LAURENCE HARBOR","NJ",8879,40.4548478880001,-74.2454688349999,6,"80 MORNINGSIDE AVENUE, LAURENCE HARBOR, NJ, 8879","Match","Exact","80 MORNINGSIDE AVE, LAURENCE HARBOR, NJ, 08879",60334785,"R"
293007,"80 MULLIS CREEK","PIKE ROAD","AL",36064,32.3505264180001,-86.1166689889999,7,"80 MULLIS CREEK, PIKE ROAD, AL, 36064","Match","Exact","80 MULLIS CREEK, PIKE ROAD, AL, 36064",653611338,"R"
293008,"80 N CABRILLO HWY STE Q 330","HALF MOON BAY","CA",94019,37.473174548,-122.436142231,8,"80 N CABRILLO HWY STE Q 330, HALF MOON BAY, CA, 94019","Match","Exact","80 CABRILLO HWY, HALF MOON BAY, CA, 94019",604983514,"L"
293009,"80 N LAKE DR 9","ORCHARD PARK","NY",14127,42.757430422,-78.7470396269999,9,"80 N LAKE DR 9, ORCHARD PARK, NY, 14127","Match","Non_Exact","80 N LAKE DR, ORCHARD PARK, NY, 14127",48331591,"R"
293010,"80 N STATE STREET","ANSONIA","CT",6401,NA,NA,10,"80 N STATE STREET, ANSONIA, CT, 6401","Tie",NA,NA,NA,NA
293011,"80 NASHUA","LONDONDERRY","NH",3053,42.863065594,-71.350496278,11,"80 NASHUA, LONDONDERRY, NH, 3053","Match","Non_Exact","80 NASHUA RD, LONDONDERRY, NH, 03053",639629207,"L"
293012,"80 NONANTUM ST APT 2","BRIGHTON","MA",2135,42.3495164080001,-71.170614804,12,"80 NONANTUM ST APT 2, BRIGHTON, MA, 2135","Match","Exact","80 NONANTUM ST, BRIGHTON, MA, 02135",85694398,"L"
293013,"80 NORTH 4TH STREET","ALLEGANY","NY",14706,42.0933358830001,-78.495351552,13,"80 NORTH 4TH STREET, ALLEGANY, NY, 14706","Match","Exact","80 N 4TH ST, ALLEGANY, NY, 14706",122031297,"R"
293014,"80 NORTH BERWICK LANE","CHUCKEY","TN",37641,36.312743405,-82.7162136219999,14,"80 NORTH BERWICK LANE, CHUCKEY, TN, 37641","Match","Exact","80 N BERWICK LN, CHUCKEY, TN, 37641",127765818,"R"
293015,"80 NORTH CENTER STREET","FERNLEY","CA",89408,NA,NA,15,"80 NORTH CENTER STREET, FERNLEY, CA, 89408","No_Match",NA,NA,NA,NA
293016,"80 NORTH EUCLID AVENUE  SUITE 602","PASADENA","CA",91101,34.1475253420001,-118.142926445,16,"80 NORTH EUCLID AVENUE  SUITE 602, PASADENA, CA, 91101","Match","Exact","80 N EUCLID AVE, PASADENA, CA, 91101",141630568,"R"
293017,"80 OAK CREEK LANE","PONTAIC","MI",48340,42.674154021,-83.254058995,17,"80 OAK CREEK LANE, PONTAIC, MI, 48340","Match","Non_Exact","80 OAK CREEK LN, PONTIAC, MI, 48340",69705220,"R"
293018,"80 OAK POINT","WRENTHAM","MA",2093,42.0700693730001,-71.340435971,18,"80 OAK POINT, WRENTHAM, MA, 2093","Match","Exact","80 OAK PT, WRENTHAM, MA, 02093",87277627,"R"
293019,"80 OAK RIDGE DR","SHARPSBURG","GA",30277,33.35883499,-84.6678505529999,19,"80 OAK RIDGE DR, SHARPSBURG, GA, 30277","Match","Exact","80 OAK RIDGE DR, SHARPSBURG, GA, 30277",9343215,"L"
293020,"80 OAK STREET","WILKES BARRE","PA",18702,41.23831597,-75.917050187,20,"80 OAK STREET, WILKES BARRE, PA, 18702","Match","Exact","80 OAK ST, WILKES BARRE, PA, 18702",80913221,"L"
293021,"80 OAKVIEW TERRACE","SHORT HILLS","NJ",7078,40.722337155,-74.326416771,21,"80 OAKVIEW TERRACE, SHORT HILLS, NJ, 7078","Match","Exact","80 OAKVIEW TER, SHORT HILLS, NJ, 07078",63461522,"R"
293022,"80 OAKWOOD LANE","SCOTTSVILLE","NY",14546,43.0259048560001,-77.743416708,22,"80 OAKWOOD LANE, SCOTTSVILLE, NY, 14546","Match","Exact","80 OAKWOOD LN, SCOTTSVILLE, NY, 14546",14579605,"R"
293023,"80 OLD GATE ROAD","PENN RUN","PA",15765,40.60719462,-78.992565391,23,"80 OLD GATE ROAD, PENN RUN, PA, 15765","Match","Exact","80 OLD GATE RD, PENN RUN, PA, 15765",66304323,"R"
293024,"80 ORVILLE DR SUITE 100","BOHEMIA","NY",11716,40.7756949120001,-73.101839414,24,"80 ORVILLE DR SUITE 100, BOHEMIA, NY, 11716","Match","Exact","80 ORVILLE DR, BOHEMIA, NY, 11716",114244441,"L"
293025,"80 OTTAWA AVE NW STE 408","GRAND RAPIDS","MI",49503,42.964833604,-85.6704659489999,25,"80 OTTAWA AVE NW STE 408, GRAND RAPIDS, MI, 49503","Match","Exact","80 OTTAWA AVE NW, GRAND RAPIDS, MI, 49503",12457339,"R"
293026,"80 OVERLOOK AVE  1ST FLOOR-REAR","BELLEVILLE","NJ",7109,40.799715027,-74.151096701,26,"80 OVERLOOK AVE  1ST FLOOR-REAR, BELLEVILLE, NJ, 7109","Match","Exact","80 OVERLOOK AVE, BELLEVILLE, NJ, 07109",63455394,"R"
293027,"80 PARK AVENUE","MAPLEWOOD","NJ",7040,40.7212089670001,-74.272216909,27,"80 PARK AVENUE, MAPLEWOOD, NJ, 7040","Match","Exact","80 PARK AVE, MAPLEWOOD, NJ, 07040",63495809,"R"
293028,"80 PARK PLAZA","NEWARK","NJ",7102,40.738202265,-74.169763877,28,"80 PARK PLAZA, NEWARK, NJ, 7102","Match","Non_Exact","80 PARK PL, NEWARK, NJ, 07102",63467460,"L"
293029,"80 PAUAHI STREET SUITE 203","HILO","HI",96720,19.7221105840001,-155.078578515,29,"80 PAUAHI STREET SUITE 203, HILO, HI, 96720","Match","Exact","80 PAUAHI ST, HILO, HI, 96720",614311378,"R"
293030,"80 PEQUOT DR APT 305","STAMFORD","CT",6902,41.041986712,-73.555985342,30,"80 PEQUOT DR APT 305, STAMFORD, CT, 6902","Match","Exact","80 PEQUOT DR, STAMFORD, CT, 06902",639764106,"L"
293031,"80 PHILLIPS LANE UNIT 3","HODGENVILLE","KY",42748,37.581559617,-85.7354522969999,31,"80 PHILLIPS LANE UNIT 3, HODGENVILLE, KY, 42748","Match","Exact","80 PHILLIPS LN, HODGENVILLE, KY, 42748",35045789,"R"
293032,"80 PINE GROVE STREET","SPRINGFIELD","MA",1119,42.141562025,-72.506942179,32,"80 PINE GROVE STREET, SPRINGFIELD, MA, 1119","Match","Exact","80 PINE GROVE ST, SPRINGFIELD, MA, 01119",4024810,"L"
293033,"80 POND ST","RANDOLPH","MA",2368,42.193574083,-71.056626643,33,"80 POND ST, RANDOLPH, MA, 2368","Match","Exact","80 POND ST, RANDOLPH, MA, 02368",639004250,"L"
293034,"80 POOL ROAD 7","RUSSELLVILLE","KY",42276,36.8352466110001,-86.80171618,34,"80 POOL ROAD 7, RUSSELLVILLE, KY, 42276","Match","Exact","80 POOL RD, RUSSELLVILLE, KY, 42276",15847823,"R"
293035,"80 POWHATTAN DRIVE","EAST TAUNTON","MA",2718,41.8607193380001,-71.02350368,35,"80 POWHATTAN DRIVE, EAST TAUNTON, MA, 2718","Match","Exact","80 POWHATTAN DR, EAST TAUNTON, MA, 02718",636983672,"R"
293036,"80 PROFIO ROAD","MCDONALD","PA",15057,40.342078648,-80.224513083,36,"80 PROFIO ROAD, MCDONALD, PA, 15057","Match","Non_Exact","80 PROFIO RD, MC DONALD, PA, 15057",623591036,"L"
293037,"80 PUSH CART LANE","HANOVER","MA",2339,42.1504371410001,-70.872880588,37,"80 PUSH CART LANE, HANOVER, MA, 2339","Match","Exact","80 PUSH CART LN, HANOVER, MA, 02339",87463947,"L"
293038,"80 RADCLIFFE ROAD","BUFFALO","NY",14214,42.957116387,-78.825811215,38,"80 RADCLIFFE ROAD, BUFFALO, NY, 14214","Match","Exact","80 RADCLIFFE RD, BUFFALO, NY, 14214",48295190,"L"
293039,"80 RIDGE RD","LANSING","NY",14882,42.539408961,-76.5130827519999,39,"80 RIDGE RD, LANSING, NY, 14882","Match","Exact","80 RIDGE RD, LANSING, NY, 14882",651296034,"R"
293040,"80 RIDGEVIEW DRIVE","PLEASANTVILLE","NY",10570,41.1336513260001,-73.765479044,40,"80 RIDGEVIEW DRIVE, PLEASANTVILLE, NY, 10570","Match","Exact","80 RIDGEVIEW DR, PLEASANTVILLE, NY, 10570",139736757,"L"
293041,"80 RIVER STREET SUITE 2223","HOBOKEN","NJ",7030,40.736415165,-74.029045663,41,"80 RIVER STREET SUITE 2223, HOBOKEN, NJ, 7030","Match","Exact","80 RIVER ST, HOBOKEN, NJ, 07030",59607040,"L"
293042,"80 RIVERDALE AVE 9D","YONKERS","NY",10701,40.930514911,-73.9003991019999,42,"80 RIVERDALE AVE 9D, YONKERS, NY, 10701","Match","Exact","80 RIVERDALE AVE, YONKERS, NY, 10701",139849524,"L"
293043,"80 RIVERMIST DR","COVINGTON","GA",30014,33.6450982710001,-83.787460615,43,"80 RIVERMIST DR, COVINGTON, GA, 30014","Match","Exact","80 RIVERMIST DR, COVINGTON, GA, 30014",23620457,"R"
293044,"80 RIVERSIDE BLVD APT 3K","NEW YORK","NY",10069,40.7753664780001,-73.990614297,44,"80 RIVERSIDE BLVD APT 3K, NEW YORK, NY, 10069","Match","Exact","80 RIVERSIDE BLVD, NEW YORK, NY, 10069",639393758,"L"
293045,"80 RIVERWOOD RD","SWANNANOA","NC",28778,35.6043218080001,-82.407801648,45,"80 RIVERWOOD RD, SWANNANOA, NC, 28778","Match","Exact","80 RIVERWOOD RD, SWANNANOA, NC, 28778",645537180,"L"
293046,"80 ROAD 4992","BLOOMFIELD","NM",87413,NA,NA,46,"80 ROAD 4992, BLOOMFIELD, NM, 87413","No_Match",NA,NA,NA,NA
293047,"80 ROGERS STREET UNIT 12C PRELUDE","CLEARWATER","FL",33756,27.9605091290001,-82.8036569499999,47,"80 ROGERS STREET UNIT 12C PRELUDE, CLEARWATER, FL, 33756","Match","Exact","80 ROGERS ST, CLEARWATER, FL, 33756",124791386,"L"
293048,"80 ROSEWOOD ROAD","SOMERSET","MA",2726,41.7733466340001,-71.140269825,48,"80 ROSEWOOD ROAD, SOMERSET, MA, 2726","Match","Exact","80 ROSEWOOD RD, SOMERSET, MA, 02726",46791426,"L"
293049,"80 RT 46","DELWARE","NJ",7883,NA,NA,49,"80 RT 46, DELWARE, NJ, 7883","No_Match",NA,NA,NA,NA
293050,"80 RUGBY ROAD","BROOKLYN","NY",11226,40.6478235800001,-73.966629073,50,"80 RUGBY ROAD, BROOKLYN, NY, 11226","Match","Exact","80 RUGBY RD, BROOKLYN, NY, 11226",59080873,"R"
293051,"80 RUSSE ST","CRANSTON","RI",2910,41.791746919,-71.438615919,51,"80 RUSSE ST, CRANSTON, RI, 2910","Match","Exact","80 RUSSE ST, CRANSTON, RI, 02910",47479995,"R"
293052,"80 RUTLAND STREET","DOVER","NH",3820,43.184359113,-70.880581052,52,"80 RUTLAND STREET, DOVER, NH, 3820","Match","Exact","80 RUTLAND ST, DOVER, NH, 03820",117809476,"L"
293053,"80 RUTLEDGE AVE","CHARLESTON","SC",29401,32.7798696040001,-79.941867578,53,"80 RUTLEDGE AVE, CHARLESTON, SC, 29401","Match","Exact","80 RUTLEDGE AVE, CHARLESTON, SC, 29401",108807505,"R"
293054,"80 S EVERETT ST","LAKEWOOD","CO",80226,NA,NA,54,"80 S EVERETT ST, LAKEWOOD, CO, 80226","Tie",NA,NA,NA,NA
293055,"80 S HIGHWAY UU","COLUMBIA","MO",65203,NA,NA,55,"80 S HIGHWAY UU, COLUMBIA, MO, 65203","No_Match",NA,NA,NA,NA
293056,"80 S PROSPECT AVE","BERGENFIELD","NJ",7621,40.9259410430001,-74.005518181,56,"80 S PROSPECT AVE, BERGENFIELD, NJ, 7621","Match","Exact","80 S PROSPECT AVE, BERGENFIELD, NJ, 07621",64388196,"R"
293057,"80 SAINT NICHOLAS PLACE  UNIT 3J","NEW YORK","NY",10032,40.8297078570001,-73.940625779,57,"80 SAINT NICHOLAS PLACE  UNIT 3J, NEW YORK, NY, 10032","Match","Exact","80 ST NICHOLAS PL, NEW YORK, NY, 10032",642471984,"R"
293058,"80 SANDY BEND RD","ROCKY POINT","NC",28457,34.449376225,-77.8256240549999,58,"80 SANDY BEND RD, ROCKY POINT, NC, 28457","Match","Exact","80 SANDY BEND RD, ROCKY POINT, NC, 28457",14137605,"R"
293059,"80 SAW MILL RIVER RD","DANBURY","CT",6810,NA,NA,59,"80 SAW MILL RIVER RD, DANBURY, CT, 6810","No_Match",NA,NA,NA,NA
293060,"80 SCHNAITER LN","MARTINSVILLE","IN",46151,39.437299152,-86.4606090249999,60,"80 SCHNAITER LN, MARTINSVILLE, IN, 46151","Match","Exact","80 SCHNAITER LN, MARTINSVILLE, IN, 46151",641434328,"R"
293061,"80 SCHOOL STREET","NORTH KINGSTOWN","RI",2852,41.6220774440001,-71.461536036,61,"80 SCHOOL STREET, NORTH KINGSTOWN, RI, 2852","Match","Exact","80 SCHOOL ST, NORTH KINGSTOWN, RI, 02852",58904193,"R"
293062,"80 SCHUYLER STREET","BELMONT","NY",14813,42.2247409300001,-78.030335102,62,"80 SCHUYLER STREET, BELMONT, NY, 14813","Match","Exact","80 SCHUYLER ST, BELMONT, NY, 14813",82626259,"L"
293063,"80 SCITUATE AVENUE","HOPE","RI",2831,41.7623275930001,-71.568927569,63,"80 SCITUATE AVENUE, HOPE, RI, 2831","Match","Non_Exact","80 OLD SCITUATE AVE, HOPE, RI, 02831",47469472,"R"
293064,"80 SE OCEAN BLVD","STUART","FL",34994,27.197527565,-80.251439573,64,"80 SE OCEAN BLVD, STUART, FL, 34994","Match","Exact","80 SE OCEAN BLVD, STUART, FL, 34994",120415712,"R"
293065,"80 SEABURY POINT RD","DUXBURY","MA",2332,42.0102970180001,-70.704525126,65,"80 SEABURY POINT RD, DUXBURY, MA, 2332","Match","Exact","80 SEABURY POINT RD, DUXBURY, MA, 02332",87436705,"R"
293066,"80 SHAWSHEEN ROAD","ANDOVER","MA",1810,42.6593483080001,-71.150569183,66,"80 SHAWSHEEN ROAD, ANDOVER, MA, 1810","Match","Exact","80 SHAWSHEEN RD, ANDOVER, MA, 01810",86629413,"L"
293067,"80 SHERMAN PLACE","JERSEY CITY","NJ",7307,40.745163231,-74.0543765199999,67,"80 SHERMAN PLACE, JERSEY CITY, NJ, 7307","Match","Exact","80 SHERMAN PL, JERSEY CITY, NJ, 07307",59604937,"R"
293068,"80 SKILLINGS RD","WINCHESTER","MA",1890,42.4560360520001,-71.135808223,68,"80 SKILLINGS RD, WINCHESTER, MA, 1890","Match","Exact","80 SKILLINGS RD, WINCHESTER, MA, 01890",86887337,"L"
293069,"80 SKOOKUM TOM ROAD","FRIDAY HARBOR","WA",98250,48.5638410890001,-123.173345616,69,"80 SKOOKUM TOM ROAD, FRIDAY HARBOR, WA, 98250","Match","Non_Exact","80 SKOOKUM TOM RD N, FRIDAY HARBOR, WA, 98250",152174796,"R"
293070,"80 SKY RIDGE RD NW","ISSAQUAH","WA",98027,47.531375645,-122.068306056,70,"80 SKY RIDGE RD NW, ISSAQUAH, WA, 98027","Match","Exact","80 SKY RIDGE RD NW, ISSAQUAH, WA, 98027",627315762,"L"
293071,"80 STATE HIGHWAY 310 SUITE 2","CANTON","NY",13617,44.604320812,-75.168151129,71,"80 STATE HIGHWAY 310 SUITE 2, CANTON, NY, 13617","Match","Non_Exact","80 STATE ST, CANTON, NY, 13617",155181514,"R"
293072,"80 SW 8TH ST STE 3303","MIAMI","FL",33130,NA,NA,72,"80 SW 8TH ST STE 3303, MIAMI, FL, 33130","No_Match",NA,NA,NA,NA
293073,"80 SW 8TH STREET","MIAMI","FL",33130,NA,NA,73,"80 SW 8TH STREET, MIAMI, FL, 33130","No_Match",NA,NA,NA,NA
293074,"80 SWAN WAY SUITE 102","OAKLAND","CA",94621,37.7309410610001,-122.20653223,74,"80 SWAN WAY SUITE 102, OAKLAND, CA, 94621","Match","Exact","80 SWAN WAY, OAKLAND, CA, 94621",606256959,"L"
293075,"80 SWAN WAY","OAKLAND","CA",94621,37.7309410610001,-122.20653223,75,"80 SWAN WAY, OAKLAND, CA, 94621","Match","Exact","80 SWAN WAY, OAKLAND, CA, 94621",606256959,"L"
293076,"80 UPPER BRIAR ROAD","KENTFIELD","CA",94904,37.9439823720001,-122.549014677,76,"80 UPPER BRIAR ROAD, KENTFIELD, CA, 94904","Match","Exact","80 UPPER BRIAR RD, KENTFIELD, CA, 94904",192764173,"R"
293077,"80 VALLEY VIEW ROAD","LONG LAKE","MN",55356,44.97983019,-93.571550983,77,"80 VALLEY VIEW ROAD, LONG LAKE, MN, 55356","Match","Non_Exact","80 VALLEYVIEW RD, LONG LAKE, MN, 55356",43818665,"L"
293078,"80 VAN COURTLANDT PARK SOUTH","BRONX","NY",10463,40.8846961720001,-73.88992376,78,"80 VAN COURTLANDT PARK SOUTH, BRONX, NY, 10463","Match","Non_Exact","80 VAN CORTLANDT PARK S, BRONX, NY, 10463",80296523,"L"
293079,"80 VANDENBURGH AVENUE","TROY","NY",12180,42.696459143,-73.6880413659999,79,"80 VANDENBURGH AVENUE, TROY, NY, 12180","Match","Exact","80 VANDENBURGH AVE, TROY, NY, 12180",642836152,"L"
293080,"80 VILLA AVENUE","VINELAND","NJ",8360,39.4739729510001,-75.028613799,80,"80 VILLA AVENUE, VINELAND, NJ, 8360","Match","Exact","80 VILLA AVE, VINELAND, NJ, 08360",636220734,"R"
293081,"80 VILLAMERE DR","COLUMBUS","OH",43213,39.979641708,-82.8262100279999,81,"80 VILLAMERE DR, COLUMBUS, OH, 43213","Match","Exact","80 VILLAMERE DR, COLUMBUS, OH, 43213",623837360,"L"
293082,"80 VILLAMERE DRIVE","COLUMBUS","OH",43213,39.979641708,-82.8262100279999,82,"80 VILLAMERE DRIVE, COLUMBUS, OH, 43213","Match","Exact","80 VILLAMERE DR, COLUMBUS, OH, 43213",623837360,"L"
293083,"80 VINCELLETTE STREET","BRIDGEPORT","CT",6606,41.2183870640001,-73.2172621879999,83,"80 VINCELLETTE STREET, BRIDGEPORT, CT, 6606","Match","Exact","80 VINCELLETTE ST, BRIDGEPORT, CT, 06606",3220460,"R"
293084,"80 W BALTIMORE AVE APT 510 B","LANSDOWNE","PA",19050,NA,NA,84,"80 W BALTIMORE AVE APT 510 B, LANSDOWNE, PA, 19050","Tie",NA,NA,NA,NA
293085,"80 W GIRARD AVE","SALT LAKE CITY","UT",84103,40.78128861,-111.893009128,85,"80 W GIRARD AVE, SALT LAKE CITY, UT, 84103","Match","Exact","80 W GIRARD AVE, SALT LAKE CITY, UT, 84103",176067121,"R"
293086,"80 W HACKBERRY DRIVE","CHANDLER","AZ",85248,33.2569653150001,-111.842735136,86,"80 W HACKBERRY DRIVE, CHANDLER, AZ, 85248","Match","Exact","80 W HACKBERRY DR, CHANDLER, AZ, 85248",633355014,"L"
293087,"80 W HOUSATONIC STREET","PITTSFIELD","MA",1201,42.444737924,-73.259294988,87,"80 W HOUSATONIC STREET, PITTSFIELD, MA, 1201","Match","Exact","80 W HOUSATONIC ST, PITTSFIELD, MA, 01201",613058557,"R"
293088,"80 W INEZ ST","WEED","CA",96094,41.424072317,-122.385450116,88,"80 W INEZ ST, WEED, CA, 96094","Match","Exact","80 W INEZ ST, WEED, CA, 96094",639680190,"L"
293089,"80 W LANCASTER AVENUE","DEVON","PA",19333,40.048363624,-75.416204737,89,"80 W LANCASTER AVENUE, DEVON, PA, 19333","Match","Exact","80 LANCASTER AVE, DEVON, PA, 19333",636456848,"L"
293090,"80 W SAINT MARYS RD","HANOVER TOWNSHIP","PA",18706,41.2259142120001,-75.922355297,90,"80 W SAINT MARYS RD, HANOVER TOWNSHIP, PA, 18706","Match","Exact","80 W SAINT MARYS RD, HANOVER TOWNSHIP, PA, 18706",80913317,"R"
293091,"80 W SIERRA MADRE BLVD 104","SIERRA MADRE","CA",91024,NA,NA,91,"80 W SIERRA MADRE BLVD 104, SIERRA MADRE, CA, 91024","Tie",NA,NA,NA,NA
293092,"80 W SIERRA MADRE BLVD 340","SIERRA MADRE","CA",91024,NA,NA,92,"80 W SIERRA MADRE BLVD 340, SIERRA MADRE, CA, 91024","Tie",NA,NA,NA,NA
293093,"80 W SIERRA MADRE BLVD STE 265","SIERRA MADRE","CA",91024,NA,NA,93,"80 W SIERRA MADRE BLVD STE 265, SIERRA MADRE, CA, 91024","Tie",NA,NA,NA,NA
293094,"80 W SIERRA MADRE BLVD","SIERRA MADRE","CA",91024,34.161869842,-118.055369942,94,"80 W SIERRA MADRE BLVD, SIERRA MADRE, CA, 91024","Match","Exact","80 W SIERRA MADRE BLVD, SIERRA MADRE, CA, 91024",142740943,"L"
293095,"80 W TOWN ST","NORWICH","CT",6360,NA,NA,95,"80 W TOWN ST, NORWICH, CT, 6360","Tie",NA,NA,NA,NA
293096,"80 WALL STREET","NEW HAVEN","CT",6511,41.3100281380001,-72.92460568,96,"80 WALL STREET, NEW HAVEN, CT, 6511","Match","Exact","80 WALL ST, NEW HAVEN, CT, 06511",3701183,"L"
293097,"80 WASHINGTON ST STE L03","POUGHKEEPSIE","NY",12601,41.708506458,-73.9290502329999,97,"80 WASHINGTON ST STE L03, POUGHKEEPSIE, NY, 12601","Match","Exact","80 WASHINGTON ST, POUGHKEEPSIE, NY, 12601",613153479,"L"
293098,"80 WATER STREET","CUMBOLA","PA",17930,NA,NA,98,"80 WATER STREET, CUMBOLA, PA, 17930","No_Match",NA,NA,NA,NA
293099,"80 WAUMSETT AVE","CUMBERLAND","RI",2886,NA,NA,99,"80 WAUMSETT AVE, CUMBERLAND, RI, 2886","No_Match",NA,NA,NA,NA
293100,"80 WELLINGTON TRAIL","COVINGTON","GA",30016,33.52871642,-83.9155281499999,100,"80 WELLINGTON TRAIL, COVINGTON, GA, 30016","Match","Exact","80 WELLINGTON TRL, COVINGTON, GA, 30016",23638614,"R"
293101,"80 WEST CENTRAL AVENUE","MORGAN HILL","CA",95037,37.1316384,-121.658158481,101,"80 WEST CENTRAL AVENUE, MORGAN HILL, CA, 95037","Match","Exact","80 W CENTRAL AVE, MORGAN HILL, CA, 95037",122929106,"L"
293102,"80 WEST CENTURY ROAD SUITE 107","PARAMUS","NJ",7652,40.9324954690001,-74.07704144,102,"80 WEST CENTURY ROAD SUITE 107, PARAMUS, NJ, 7652","Match","Exact","80 W CENTURY RD, PARAMUS, NJ, 07652",64383164,"L"
293103,"80 WEST FRONT STREET","KEYPORT","NJ",7735,40.43655721,-74.204610868,103,"80 WEST FRONT STREET, KEYPORT, NJ, 7735","Match","Exact","80 W FRONT ST, KEYPORT, NJ, 07735",90480550,"L"
293104,"80 WEST MAIN STREET","RIVERHEAD","NY",11901,40.916944395,-72.66299915,104,"80 WEST MAIN STREET, RIVERHEAD, NY, 11901","Match","Exact","80 W MAIN ST, RIVERHEAD, NY, 11901",114024195,"L"
293105,"80 WESTON DRIVE","DALY CITY","CA",94015,37.7018221440001,-122.492377943,105,"80 WESTON DRIVE, DALY CITY, CA, 94015","Match","Exact","80 WESTON DR, DALY CITY, CA, 94015",192366911,"L"
293106,"80 WESTWOOD PL   UNIT C","DURANGO","CO",81301,37.271481275,-107.900858841,106,"80 WESTWOOD PL   UNIT C, DURANGO, CO, 81301","Match","Exact","80 WESTWOOD PL, DURANGO, CO, 81301",642545133,"R"
293107,"80 WILDER ST","BROCKTON","MA",2301,42.114841783,-71.030267199,107,"80 WILDER ST, BROCKTON, MA, 2301","Match","Exact","80 WILDER ST, BROCKTON, MA, 02301",87441695,"L"
293108,"80 WILDWOOD RD","NEWVILLE","PA",17241,40.2397396280001,-77.354546106,108,"80 WILDWOOD RD, NEWVILLE, PA, 17241","Match","Exact","80 WILDWOOD RD, NEWVILLE, PA, 17241",647950437,"L"
293109,"80 WOLFE CREEK ROAD","WALTERBORO","SC",29488,32.9625975180001,-80.725207445,109,"80 WOLFE CREEK ROAD, WALTERBORO, SC, 29488","Match","Exact","80 WOLFE CREEK RD, WALTERBORO, SC, 29488",19155201,"R"
293110,"80 WOOD ROAD    SUITE 206","CAMARILLO","CA",93010,34.2200279640001,-119.096037955,110,"80 WOOD ROAD    SUITE 206, CAMARILLO, CA, 93010","Match","Exact","80 WOOD RD, CAMARILLO, CA, 93010",109959382,"R"
293111,"80 WOODSIDE DRIVE","PRESCOTT","AZ",86305,34.582745978,-112.520071392,111,"80 WOODSIDE DRIVE, PRESCOTT, AZ, 86305","Match","Exact","80 WOODSIDE DR, PRESCOTT, AZ, 86305",159455665,"R"
293112,"80-03 259TH ST","FLORAL PARK","NY",11004,40.744487946,-73.711942366,112,"80-03 259TH ST, FLORAL PARK, NY, 11004","Match","Exact","80-3 259TH ST, FLORAL PARK, NY, 11004",59724492,"L"
293113,"80-15 CROSS ISLAND PARKWAY","BELLEROSE","NY",11426,40.740183888,-73.725597675,113,"80-15 CROSS ISLAND PARKWAY, BELLEROSE, NY, 11426","Match","Exact","80-15 CROSS ISLAND PKWY, BELLEROSE, NY, 11426",640945580,"L"
293114,"80-20 233RD STREET","QUEENS VILLAGE","NY",11427,40.7369755180001,-73.7384150999999,114,"80-20 233RD STREET, QUEENS VILLAGE, NY, 11427","Match","Exact","80-20 233RD ST, QUEENS VILLAGE, NY, 11427",59717490,"R"
293115,"80-22 162NS STREET","HILLCREST","NY",11432,NA,NA,115,"80-22 162NS STREET, HILLCREST, NY, 11432","No_Match",NA,NA,NA,NA
293116,"80-37 255TH ST","FLORAL PARK","NY",11004,40.743159043,-73.715347212,116,"80-37 255TH ST, FLORAL PARK, NY, 11004","Match","Exact","80-37 255TH ST, FLORAL PARK, NY, 11004",59724208,"L"
293117,"80-37 266 STREET","FLORAL PARK","NY",11004,40.745309675,-73.705347291,117,"80-37 266 STREET, FLORAL PARK, NY, 11004","Match","Exact","80-37 266TH ST, FLORAL PARK, NY, 11004",59724594,"L"
293118,"80-40 LEFFERTS BLVD APT 6B","KEW GARDENS","NY",11415,40.7097376130001,-73.829090293,118,"80-40 LEFFERTS BLVD APT 6B, KEW GARDENS, NY, 11415","Match","Exact","80-40 LEFFERTS BLVD, KEW GARDENS, NY, 11415",59710414,"R"
293119,"80-43 UTOPIA PARKWAY","JAMAICA","NY",11432,40.7245555740001,-73.7910948479999,119,"80-43 UTOPIA PARKWAY, JAMAICA, NY, 11432","Match","Exact","80-43 UTOPIA PKWY, JAMAICA, NY, 11432",59730394,"L"
293120,"80-66 CYPRESS AVE STE 3","RIDGEWOOD","NY",11385,40.6930727720001,-73.895534218,120,"80-66 CYPRESS AVE STE 3, RIDGEWOOD, NY, 11385","Match","Exact","80-66 CYPRESS AVE, RIDGEWOOD, NY, 11385",636430313,"L"
293121,"80-82 HOLSMAN STREET","PATERSON","NJ",7522,40.926988351,-74.168498094,121,"80-82 HOLSMAN STREET, PATERSON, NJ, 7522","Match","Exact","80 HOLSMAN ST, PATERSON, NJ, 07522",65263173,"R"
293122,"80-88 MONTICELLO","JERSEY CITY","NJ",7305,NA,NA,122,"80-88 MONTICELLO, JERSEY CITY, NJ, 7305","No_Match",NA,NA,NA,NA
293123,"80-B BURNETT AVE","MAPLEWOOD","NJ",7040,40.7201626660001,-74.260346055,123,"80-B BURNETT AVE, MAPLEWOOD, NJ, 7040","Match","Exact","80 BURNETT AVE, MAPLEWOOD, NJ, 07040",63495861,"L"
293124,"80","BRAINTREE","MA",2184,NA,NA,124,"80, BRAINTREE, MA, 2184","No_Match",NA,NA,NA,NA
293125,"800  30TH STREET","MONROE","WI",53566,42.5847756650001,-89.649841034,125,"800  30TH STREET, MONROE, WI, 53566","Match","Exact","800 30TH ST, MONROE, WI, 53566",640809868,"L"
293126,"800  S FIGUEROA ST  SUITE  650","LOS ANGELES","CA",90017,34.0478620260001,-118.261255771,126,"800  S FIGUEROA ST  SUITE  650, LOS ANGELES, CA, 90017","Match","Non_Exact","800 S FIGUEROA ST, LOS ANGELES, CA, 90017",141618894,"L"
293127,"800 106TH ST","ARLINGTON","TX",76011,32.755134535,-97.059984807,127,"800 106TH ST, ARLINGTON, TX, 76011","Match","Exact","800 106TH ST, ARLINGTON, TX, 76011",101935281,"L"
293128,"800 15TH ST 2W","NORTH CHICAGO","IL",60064,42.3323266080001,-87.8409618589999,128,"800 15TH ST 2W, NORTH CHICAGO, IL, 60064","Match","Exact","800 15TH ST, NORTH CHICAGO, IL, 60064",119645950,"R"
293129,"800 25TH STREET NW SUITE 504","WASHINGTON","DC",20037,38.899748731,-77.053318809,129,"800 25TH STREET NW SUITE 504, WASHINGTON, DC, 20037","Match","Exact","800 25TH ST NW, WASHINGTON, DC, 20037",76225224,"L"
293130,"800 2ND STREET","MOUNDSVILLE","WV",26041,39.923667498,-80.7437840429999,130,"800 2ND STREET, MOUNDSVILLE, WV, 26041","Match","Exact","800 2ND ST, MOUNDSVILLE, WV, 26041",38072417,"R"
293131,"800 3RD AVE STE 2800","NEW YORK","NY",10022,40.755247217,-73.9711857459999,131,"800 3RD AVE STE 2800, NEW YORK, NY, 10022","Match","Exact","800 3RD AVE, NEW YORK, NY, 10022",642471554,"L"
293132,"800 5TH AVE 101240","SEATTLE","WA",98104,47.6051821030001,-122.330538143,132,"800 5TH AVE 101240, SEATTLE, WA, 98104","Match","Exact","800 5TH AVE, SEATTLE, WA, 98104",186589603,"R"
293133,"800 5TH AVENUE   APT  28A","NEW YORK","NY",10065,40.765568364,-73.972053972,133,"800 5TH AVENUE   APT  28A, NEW YORK, NY, 10065","Match","Exact","800 5TH AVE, NEW YORK, NY, 10065",59657183,"R"
293134,"800 5TH AVENUE APT 28A","NEW YORK","NY",10065,40.765568364,-73.972053972,134,"800 5TH AVENUE APT 28A, NEW YORK, NY, 10065","Match","Exact","800 5TH AVE, NEW YORK, NY, 10065",59657183,"R"
293135,"800 5TH ST SW","WASECA","MN",56093,44.0721558490001,-93.5136046229999,135,"800 5TH ST SW, WASECA, MN, 56093","Match","Exact","800 5TH ST SW, WASECA, MN, 56093",28722608,"L"
293136,"800 8TH AVE STE 528","FORTH WORTH","TX",75052,32.7364491590001,-97.3436756519999,136,"800 8TH AVE STE 528, FORTH WORTH, TX, 75052","Match","Non_Exact","800 8TH AVE, FT WORTH, TX, 76104",101885462,"R"
293137,"800 8TH STREET","RED BAY","AL",35582,34.4355674920001,-88.1374884479999,137,"800 8TH STREET, RED BAY, AL, 35582","Match","Non_Exact","800 8TH ST SE, RED BAY, AL, 35582",41257979,"R"
293138,"800 ALL AMERICA CITY BLVD","ROSEVILLE","CA",95678,38.7569637030001,-121.29094652,138,"800 ALL AMERICA CITY BLVD, ROSEVILLE, CA, 95678","Match","Exact","800 ALL AMERICA CITY BLVD, ROSEVILLE, CA, 95678",106764482,"R"
293139,"800 AMSTERDAM RD","BRIDGEWATER","NJ",8807,40.6210580740001,-74.65788933,139,"800 AMSTERDAM RD, BRIDGEWATER, NJ, 8807","Match","Exact","800 AMSTERDAM RD, BRIDGEWATER, NJ, 08807",60001683,"L"
293140,"800 AURORA STREET","HOUSTON","TX",77009,29.8098180010001,-95.3892862009999,140,"800 AURORA STREET, HOUSTON, TX, 77009","Match","Exact","800 AURORA ST, HOUSTON, TX, 77009",96055770,"R"
293141,"800 AUSTIN STREET","CLUTE","TX",77531,29.014410479,-95.4166039679999,141,"800 AUSTIN STREET, CLUTE, TX, 77531","Match","Exact","800 AUSTIN ST, CLUTE, TX, 77531",116646475,"L"
293142,"800 BANNOCK TER","PALM BEACH GARDENS","FL",33418,26.829530909,-80.1316740239999,142,"800 BANNOCK TER, PALM BEACH GARDENS, FL, 33418","Match","Exact","800 BANNOCK TER, PALM BEACH GARDENS, FL, 33418",115315358,"R"
293143,"800 BARONNE STREET","NEW ORLEANS","LA",70130,29.946348834,-90.074186997,143,"800 BARONNE STREET, NEW ORLEANS, LA, 70130","Match","Non_Exact","800 BARONNE ST, NEW ORLEANS, LA, 70113",191713761,"L"
293144,"800 BATTERY AVE SE  STE 100","ATLANTA","GA",30339,NA,NA,144,"800 BATTERY AVE SE  STE 100, ATLANTA, GA, 30339","No_Match",NA,NA,NA,NA
293145,"800 BATTERY AVE SE SUITE 100","ATLANTA","GA",30339,NA,NA,145,"800 BATTERY AVE SE SUITE 100, ATLANTA, GA, 30339","No_Match",NA,NA,NA,NA
293146,"800 BAY ROAD SUITE 2","DOVER","DE",19901,39.155866964,-75.5088701509999,146,"800 BAY ROAD SUITE 2, DOVER, DE, 19901","Match","Non_Exact","800 S BAY RD, DOVER, DE, 19901",635724225,"L"
293147,"800 BEGNAUD STREET","BREAUX BRIDGE","LA",70517,30.2697229930001,-91.907009714,147,"800 BEGNAUD STREET, BREAUX BRIDGE, LA, 70517","Match","Exact","800 BEGNAUD ST, BREAUX BRIDGE, LA, 70517",85816774,"L"
293148,"800 BELLE TERRE PARKWAY 200-130","PALM COAST","FL",32164,29.4881345970001,-81.22178309,148,"800 BELLE TERRE PARKWAY 200-130, PALM COAST, FL, 32164","Match","Exact","800 BELLE TERRE PKWY, PALM COAST, FL, 32164",619193440,"R"
293149,"800 BELLE TERRE PARKWAY 200-302","PALM COAST","FL",32164,29.4881345970001,-81.22178309,149,"800 BELLE TERRE PARKWAY 200-302, PALM COAST, FL, 32164","Match","Exact","800 BELLE TERRE PKWY, PALM COAST, FL, 32164",619193440,"R"
293150,"800 BELLE TERRE PARKWAY STE 200-207","PALM COAST","FL",32164,29.4881345970001,-81.22178309,150,"800 BELLE TERRE PARKWAY STE 200-207, PALM COAST, FL, 32164","Match","Exact","800 BELLE TERRE PKWY, PALM COAST, FL, 32164",619193440,"R"
293151,"800 BERING DRIVE STE 220","HOUSTON","TX",77057,29.7579223540001,-95.4796671559999,151,"800 BERING DRIVE STE 220, HOUSTON, TX, 77057","Match","Exact","800 BERING DR, HOUSTON, TX, 77057",96624541,"R"
293152,"800 BLOSSOM HILL RD UNIT 326","LOS GATOS","CA",95032,NA,NA,152,"800 BLOSSOM HILL RD UNIT 326, LOS GATOS, CA, 95032","No_Match",NA,NA,NA,NA
293153,"800 BOCKMAN RD","SAN LORENZO","CA",94580,37.6710834520001,-122.125598806,153,"800 BOCKMAN RD, SAN LORENZO, CA, 94580","Match","Exact","800 BOCKMAN RD, SAN LORENZO, CA, 94580",645547010,"L"
293154,"800 BOCKMAN ROAD","SAN LORENZO","CA",94580,37.6710834520001,-122.125598806,154,"800 BOCKMAN ROAD, SAN LORENZO, CA, 94580","Match","Exact","800 BOCKMAN RD, SAN LORENZO, CA, 94580",645547010,"L"
293155,"800 BOUNDARY ST","CLARION","PA",16214,41.206043187,-79.385188797,155,"800 BOUNDARY ST, CLARION, PA, 16214","Match","Exact","800 BOUNDARY ST, CLARION, PA, 16214",66230584,"L"
293156,"800 BRAZOS ST","AUSTIN","TX",78701,30.2696116110001,-97.740755461,156,"800 BRAZOS ST, AUSTIN, TX, 78701","Match","Exact","800 BRAZOS ST, AUSTIN, TX, 78701",63946472,"L"
293157,"800 BROADWAY ST E","MONTICELLO","MN",55362,45.296661101,-93.774745847,157,"800 BROADWAY ST E, MONTICELLO, MN, 55362","Match","Exact","800 BROADWAY ST E, MONTICELLO, MN, 55362",44019876,"L"
293158,"800 BUCKHORN SPRINGS RD","ASHLAND","OR",97520,42.126806727,-122.557164284,158,"800 BUCKHORN SPRINGS RD, ASHLAND, OR, 97520","Match","Exact","800 BUCKHORN SPRINGS RD, ASHLAND, OR, 97520",155569883,"L"
293159,"800 CALDWELL STREET","PADUCAH","KY",42003,37.0741736890001,-88.596559734,159,"800 CALDWELL STREET, PADUCAH, KY, 42003","Match","Exact","800 CALDWELL ST, PADUCAH, KY, 42003",8397200,"R"
293160,"800 CALLE MARTI APT 12","SAN JUAN","PR",907,NA,NA,160,"800 CALLE MARTI APT 12, SAN JUAN, PR, 907","No_Match",NA,NA,NA,NA
293161,"800 CASCARA COURT","EL DORADO HILLS","CA",95762,38.6475151990001,-121.080654394,161,"800 CASCARA COURT, EL DORADO HILLS, CA, 95762","Match","Exact","800 CASCARA CT, EL DORADO HILLS, CA, 95762",607156708,"R"
293162,"800 CATALPA ST","DONALDSONVILLE","LA",70346,30.106030311,-91.000205718,162,"800 CATALPA ST, DONALDSONVILLE, LA, 70346","Match","Exact","800 CATALPA ST, DONALDSONVILLE, LA, 70346",115048420,"L"
293163,"800 CESAR CHAVEZ AVE","PONTIAC","MI",48340,NA,NA,163,"800 CESAR CHAVEZ AVE, PONTIAC, MI, 48340","No_Match",NA,NA,NA,NA
293164,"800 CHANNEL PL","CHESAPEAKE","VA",23320,36.7571066030001,-76.2804583669999,164,"800 CHANNEL PL, CHESAPEAKE, VA, 23320","Match","Exact","800 CHANNEL PL, CHESAPEAKE, VA, 23320",121777810,"R"
293165,"800 CLAUGHTON ISLAND DR STE 2705","MIAMI","FL",33131,NA,NA,165,"800 CLAUGHTON ISLAND DR STE 2705, MIAMI, FL, 33131","No_Match",NA,NA,NA,NA
293166,"800 CLINTON ST","HOBOKEN","NJ",7030,40.7468963370001,-74.0328040049999,166,"800 CLINTON ST, HOBOKEN, NJ, 7030","Match","Exact","800 CLINTON ST, HOBOKEN, NJ, 07030",59606853,"L"
293167,"800 COLLEGE DR","HENDERSON","NV",89002,NA,NA,167,"800 COLLEGE DR, HENDERSON, NV, 89002","No_Match",NA,NA,NA,NA
293168,"800 COLUMBIA DRIVE LOT 34","MYRTLE BEACH","SC",29577,33.688996005,-78.899006871,168,"800 COLUMBIA DRIVE LOT 34, MYRTLE BEACH, SC, 29577","Match","Exact","800 COLUMBIA DR, MYRTLE BEACH, SC, 29577",29065530,"L"
293169,"800 COMMERCE STREET","HOUSTON","TX",77002,29.764758343,-95.361198035,169,"800 COMMERCE STREET, HOUSTON, TX, 77002","Match","Exact","800 COMMERCE ST, HOUSTON, TX, 77002",96625222,"R"
293170,"800 COMPTON RD SUITE 27","CINCINNATI","OH",45231,39.233770721,-84.5114364469999,170,"800 COMPTON RD SUITE 27, CINCINNATI, OH, 45231","Match","Exact","800 COMPTON RD, CINCINNATI, OH, 45231",103960783,"R"
293171,"800 COMPTON ROAD SUITE 17","CINCINNATI","OH",45211,39.233770721,-84.5114364469999,171,"800 COMPTON ROAD SUITE 17, CINCINNATI, OH, 45211","Match","Non_Exact","800 COMPTON RD, CINCINNATI, OH, 45231",103960783,"R"
293172,"800 CONIFER DRIVE NW","GRAND RAPIDS","MN",55744,NA,NA,172,"800 CONIFER DRIVE NW, GRAND RAPIDS, MN, 55744","No_Match",NA,NA,NA,NA
293173,"800 COOPERTOWN ROAD","BRYN MAWR","PA",19010,40.0082851780001,-75.326017753,173,"800 COOPERTOWN ROAD, BRYN MAWR, PA, 19010","Match","Exact","800 COOPERTOWN RD, BRYN MAWR, PA, 19010",652291572,"L"
293174,"800 COPPER CANYON DRIVE","PROSPER","TX",75078,NA,NA,174,"800 COPPER CANYON DRIVE, PROSPER, TX, 75078","No_Match",NA,NA,NA,NA
293175,"800 CORPORATE DRIVE SUITE 301","STAFFORD","VA",22554,38.5153294350001,-77.367968773,175,"800 CORPORATE DRIVE SUITE 301, STAFFORD, VA, 22554","Match","Exact","800 CORPORATE DR, STAFFORD, VA, 22554",638900090,"R"
293176,"800 CORRIANDER DRIVE F","TORRANCE","CA",90502,33.812534471,-118.288799798,176,"800 CORRIANDER DRIVE F, TORRANCE, CA, 90502","Match","Non_Exact","800 CORIANDER DR, TORRANCE, CA, 90502",241243697,"L"
293177,"800 COTTAGEVIEW DRIVE SUITE 304","TRAVERSE CITY","MI",49684,44.7584272330001,-85.644623087,177,"800 COTTAGEVIEW DRIVE SUITE 304, TRAVERSE CITY, MI, 49684","Match","Exact","800 COTTAGEVIEW DR, TRAVERSE CITY, MI, 49684",651750250,"L"
293178,"800 COTTON DEPOT LN APT 14","FORT WORTH","TX",76102,32.7565962580001,-97.325769645,178,"800 COTTON DEPOT LN APT 14, FORT WORTH, TX, 76102","Match","Exact","800 COTTON DEPOT LN, FORT WORTH, TX, 76102",639255766,"R"
293179,"800 COUNTY ROAD 125","SIDNEY","TX",76474,NA,NA,179,"800 COUNTY ROAD 125, SIDNEY, TX, 76474","No_Match",NA,NA,NA,NA
293180,"800 COUNTY ROAD 4120","MERIDIAN","TX",76665,31.8314291510001,-97.8115350579999,180,"800 COUNTY ROAD 4120, MERIDIAN, TX, 76665","Match","Exact","800 CO RD 4120, MERIDIAN, TX, 76665",158594038,"R"
293181,"800 CRANDON BOULEVARD","KEY BISCAYNE","FL",33149,25.6864485680001,-80.162905463,181,"800 CRANDON BOULEVARD, KEY BISCAYNE, FL, 33149","Match","Exact","800 CRANDON BLVD, KEY BISCAYNE, FL, 33149",116021375,"R"
293182,"800 CULP ROAD","PINEVILLE","NC",28134,35.1092545820001,-80.903967396,182,"800 CULP ROAD, PINEVILLE, NC, 28134","Match","Exact","800 CULP RD, PINEVILLE, NC, 28134",70565612,"L"
293183,"800 CUNNINGHAM ROAD","INDIANA","PA",15701,40.6277631130001,-79.260579664,183,"800 CUNNINGHAM ROAD, INDIANA, PA, 15701","Match","Exact","800 CUNNINGHAM RD, INDIANA, PA, 15701",66313003,"L"
293184,"800 CUSTER RD APT 224","RICHARDSON","TX",75080,32.9586530550001,-96.735179328,184,"800 CUSTER RD APT 224, RICHARDSON, TX, 75080","Match","Exact","800 CUSTER RD, RICHARDSON, TX, 75080",102913576,"R"
293185,"800 DANA DR","YUKON","OK",73099,35.476138228,-97.7272593609999,185,"800 DANA DR, YUKON, OK, 73099","Match","Exact","800 DANA DR, YUKON, OK, 73099",614102027,"L"
293186,"800 DANMEAD AVE","AKRON","OH",44305,41.086790647,-81.477658155,186,"800 DANMEAD AVE, AKRON, OH, 44305","Match","Exact","800 DANMEAD AVE, AKRON, OH, 44305",61381841,"L"
293187,"800 DELTONA BOULEVARD","DELTONA","FL",32725,28.8870546260001,-81.276958119,187,"800 DELTONA BOULEVARD, DELTONA, FL, 32725","Match","Exact","800 DELTONA BLVD, DELTONA, FL, 32725",94519106,"L"
293188,"800 DENOW ROAD SUITE C 374","PENNINGTON","NJ",8534,NA,NA,188,"800 DENOW ROAD SUITE C 374, PENNINGTON, NJ, 8534","No_Match",NA,NA,NA,NA
293189,"800 DENOW ROAD SUITE C 388","PENNINGTON","NJ",8534,NA,NA,189,"800 DENOW ROAD SUITE C 388, PENNINGTON, NJ, 8534","No_Match",NA,NA,NA,NA
293190,"800 DOLOROSA - SUITE 204","SAN ANTONIO","TX",78207,29.424299574,-98.4982993469999,190,"800 DOLOROSA - SUITE 204, SAN ANTONIO, TX, 78207","Match","Exact","800 DOLOROSA, SAN ANTONIO, TX, 78207",101525895,"L"
293191,"800 DOWLIN FORGE RD","DOWNINGTOWN","PA",19335,40.055563492,-75.6885736259999,191,"800 DOWLIN FORGE RD, DOWNINGTOWN, PA, 19335","Match","Exact","800 DOWLIN FORGE RD, DOWNINGTOWN, PA, 19335",653370580,"R"
293192,"800 DRAPER ROAD","BLACKSBURG","VA",24060,37.22317178,-80.409019826,192,"800 DRAPER ROAD, BLACKSBURG, VA, 24060","Match","Non_Exact","800 DRAPER RD SW, BLACKSBURG, VA, 24060",73616450,"L"
293193,"800 E 149TH 1B","BRONX","NY",10455,NA,NA,193,"800 E 149TH 1B, BRONX, NY, 10455","No_Match",NA,NA,NA,NA
293194,"800 E 3RD ST","PLANKINTON","SD",57368,43.7160009720001,-98.474041144,194,"800 E 3RD ST, PLANKINTON, SD, 57368","Match","Exact","800 E 3RD ST, PLANKINTON, SD, 57368",199170783,"L"
293195,"800 E 40TH ST","VANCOUVER","WA",98663,45.651093561,-122.666605669,195,"800 E 40TH ST, VANCOUVER, WA, 98663","Match","Exact","800 E 40TH ST, VANCOUVER, WA, 98663",158324999,"L"
293196,"800 E 4TH ST S","NEWTON","IA",50208,41.6926906140001,-93.049701377,196,"800 E 4TH ST S, NEWTON, IA, 50208","Match","Exact","800 E 4TH ST S, NEWTON, IA, 50208",89425108,"R"
293197,"800 E 96TH STREET","BLOOMINGTON","MN",55420,44.8298940350001,-93.2630863099999,197,"800 E 96TH STREET, BLOOMINGTON, MN, 55420","Match","Exact","800 E 96TH ST, BLOOMINGTON, MN, 55420",43596423,"L"
293198,"800 E ABRAMS ST","ARLINGTON","TX",76018,NA,NA,198,"800 E ABRAMS ST, ARLINGTON, TX, 76018","No_Match",NA,NA,NA,NA
293199,"800 E CLINTON AVE","ATWATER","CA",95301,37.344443794,-120.586630615,199,"800 E CLINTON AVE, ATWATER, CA, 95301","Match","Exact","800 E CLINTON AVE, ATWATER, CA, 95301",125314427,"R"
293200,"800 E HALL OF FAME AVE APT 511","STILLWATER","OK",74075,NA,NA,200,"800 E HALL OF FAME AVE APT 511, STILLWATER, OK, 74075","Tie",NA,NA,NA,NA
293201,"800 E JEFFERSON ST","FRANKLIN","IN",46131,39.481040717,-86.045422397,201,"800 E JEFFERSON ST, FRANKLIN, IN, 46131","Match","Exact","800 E JEFFERSON ST, FRANKLIN, IN, 46131",114638443,"L"
293202,"800 E JOHN ROWAN BLVD","BARDSTOWN","KY",40004,37.8254209180001,-85.457812217,202,"800 E JOHN ROWAN BLVD, BARDSTOWN, KY, 40004","Match","Exact","800 E JOHN ROWAN BLVD, BARDSTOWN, KY, 40004",35151234,"R"
293203,"800 E KIRKWOOD AVE","BLOOMINGTON","IN",47405,39.166537136,-86.5275795909999,203,"800 E KIRKWOOD AVE, BLOOMINGTON, IN, 47405","Match","Non_Exact","800 E KIRKWOOD AVE, BLOOMINGTON, IN, 47408",42323814,"R"
293204,"800 E NORTHWEST HIGHWAY SUITE 109","MOUNT PROSPECT","IL",60056,42.058626981,-87.92578287,204,"800 E NORTHWEST HIGHWAY SUITE 109, MOUNT PROSPECT, IL, 60056","Match","Non_Exact","800 E NORTHWEST HWY, MOUNT PROSPECT, IL, 60056",111720836,"L"
293205,"800 E NORTHWEST HWY  STE 109","MOUNT PROSPECT","IL",60056,42.058626981,-87.92578287,205,"800 E NORTHWEST HWY  STE 109, MOUNT PROSPECT, IL, 60056","Match","Non_Exact","800 E NORTHWEST HWY, MOUNT PROSPECT, IL, 60056",111720836,"L"
293206,"800 E NORTHWEST HWY STE 100","MOUNT PROSPECT","IL",60056,42.058626981,-87.92578287,206,"800 E NORTHWEST HWY STE 100, MOUNT PROSPECT, IL, 60056","Match","Non_Exact","800 E NORTHWEST HWY, MOUNT PROSPECT, IL, 60056",111720836,"L"
293207,"800 E UNAKA AVE","JOHNSON CITY","TN",37601,36.3297959710001,-82.3492319549999,207,"800 E UNAKA AVE, JOHNSON CITY, TN, 37601","Match","Exact","800 E UNAKA AVE, JOHNSON CITY, TN, 37601",127924046,"R"
293208,"800 E WASHINGTON STREET STE F","GREENVILLE","SC",29601,NA,NA,208,"800 E WASHINGTON STREET STE F, GREENVILLE, SC, 29601","Tie",NA,NA,NA,NA
293209,"800 E WILSON STREET","BATAVIA","IL",60510,41.851320468,-88.2931003739999,209,"800 E WILSON STREET, BATAVIA, IL, 60510","Match","Exact","800 E WILSON ST, BATAVIA, IL, 60510",119512209,"R"
293210,"800 EAST 138TH STREET","BRONX","NY",10454,40.803959648,-73.910737669,210,"800 EAST 138TH STREET, BRONX, NY, 10454","Match","Exact","800 E 138TH ST, BRONX, NY, 10454",80302867,"R"
293211,"800 EAST 21ST STREET NORTH","WICHITA","KS",67214,37.7226019980001,-97.335475047,211,"800 EAST 21ST STREET NORTH, WICHITA, KS, 67214","Match","Exact","800 E 21ST ST N, WICHITA, KS, 67214",115634456,"L"
293212,"800 EAST 21ST STREET","HIBBING","MN",55746,47.426229795,-92.933129405,212,"800 EAST 21ST STREET, HIBBING, MN, 55746","Match","Exact","800 E 21ST ST, HIBBING, MN, 55746",163166583,"R"
293213,"800 EAST 21ST STREET/  PO BOX 262","HIBBING","MN",55746,47.426229795,-92.933129405,213,"800 EAST 21ST STREET/  PO BOX 262, HIBBING, MN, 55746","Match","Non_Exact","800 E 21ST ST, HIBBING, MN, 55746",163166583,"R"
293214,"800 EAST 7TH STREET","WAYNE","NE",68787,42.235523379,-97.007058365,214,"800 EAST 7TH STREET, WAYNE, NE, 68787","Match","Exact","800 E 7TH ST, WAYNE, NE, 68787",163740318,"L"
293215,"800 EAST ASH LANE UNIT 1221","EULESS","TX",76039,32.8595938880001,-97.069405177,215,"800 EAST ASH LANE UNIT 1221, EULESS, TX, 76039","Match","Exact","800 E ASH LN, EULESS, TX, 76039",102143798,"R"
293216,"800 EAST COMPTON BOULEVARD","E RANCHO DOMINGUEZ","CA",90221,33.896018934,-118.214739955,216,"800 EAST COMPTON BOULEVARD, E RANCHO DOMINGUEZ, CA, 90221","Match","Exact","800 E COMPTON BLVD, EAST RANCHO DOMINGUEZ, CA, 90221",141678422,"R"
293217,"800 EAST COURT STREET 325","FLINT","MI",48503,43.0165205070001,-83.6790587949999,217,"800 EAST COURT STREET 325, FLINT, MI, 48503","Match","Exact","800 E COURT ST, FLINT, MI, 48503",69569003,"R"
293218,"800 EAST HOWARD BAKER JUNIOR AVENUE","KNOXVILLE","TN",37917,NA,NA,218,"800 EAST HOWARD BAKER JUNIOR AVENUE, KNOXVILLE, TN, 37917","No_Match",NA,NA,NA,NA
293219,"800 EAST MAIN STREET","HOGANSVILLE","GA",30230,33.1701004620001,-84.9065542009999,219,"800 EAST MAIN STREET, HOGANSVILLE, GA, 30230","Match","Exact","800 E MAIN ST, HOGANSVILLE, GA, 30230",1765373,"R"
293220,"800 EAST NORTHWEST HWY RM 713","PALATINE","IL",60074,42.1024408870001,-88.024053006,220,"800 EAST NORTHWEST HWY RM 713, PALATINE, IL, 60074","Match","Exact","800 E NORTHWEST HWY, PALATINE, IL, 60074",111696855,"L"
293221,"800 EDGEHILL DRIVE","BRIGHAM CITY","UT",84302,41.526236856,-112.005865048,221,"800 EDGEHILL DRIVE, BRIGHAM CITY, UT, 84302","Match","Exact","800 EDGEHILL DR, BRIGHAM CITY, UT, 84302",153905678,"R"
293222,"800 ELGIN RD APT 1401","EVANSTON","IL",60201,42.0510853710001,-87.6826153919999,222,"800 ELGIN RD APT 1401, EVANSTON, IL, 60201","Match","Exact","800 ELGIN RD, EVANSTON, IL, 60201",637908535,"L"
293223,"800 ELLIS RD","MUSKEGON","MI",49441,43.161946297,-86.23528505,223,"800 ELLIS RD, MUSKEGON, MI, 49441","Match","Non_Exact","800 E ELLIS RD, MUSKEGON, MI, 49441",77672174,"L"
293224,"800 ELMIRA AVENUE","DURHAM","NC",27707,35.9629137210001,-78.9006910959999,224,"800 ELMIRA AVENUE, DURHAM, NC, 27707","Match","Exact","800 ELMIRA AVE, DURHAM, NC, 27707",71741026,"R"
293225,"800 ENERGY CENTER BLVD 117","NORTHPORT","AL",35473,NA,NA,225,"800 ENERGY CENTER BLVD 117, NORTHPORT, AL, 35473","No_Match",NA,NA,NA,NA
293226,"800 EUCLID STREE NW","WASHINGTON","DC",20001,NA,NA,226,"800 EUCLID STREE NW, WASHINGTON, DC, 20001","No_Match",NA,NA,NA,NA
293227,"800 FALLS AVE SUITE 900","TWIN FALLS","ID",83301,42.577717702,-114.462581919,227,"800 FALLS AVE SUITE 900, TWIN FALLS, ID, 83301","Match","Exact","800 FALLS AVE, TWIN FALLS, ID, 83301",118789841,"L"
293228,"800 FALLS CHURCH RD","CHARLOTTE","NC",28270,35.1407709650001,-80.751228757,228,"800 FALLS CHURCH RD, CHARLOTTE, NC, 28270","Match","Exact","800 FALLS CHURCH RD, CHARLOTTE, NC, 28270",70523596,"R"
293229,"800 FELLOWSHIP ROAD","CHESTER SPRINGS","PA",19425,40.114633682,-75.677080167,229,"800 FELLOWSHIP ROAD, CHESTER SPRINGS, PA, 19425","Match","Exact","800 FELLOWSHIP RD, CHESTER SPRINGS, PA, 19425",179550676,"R"
293230,"800 FIFTH AVE STE 101","SEATTLE","WA",98104,47.6051821030001,-122.330538143,230,"800 FIFTH AVE STE 101, SEATTLE, WA, 98104","Match","Exact","800 5TH AVE, SEATTLE, WA, 98104",186589603,"R"
293231,"800 FLETCHER RD","ANDALUSIA","AL",36421,31.33164229,-86.5015614169999,231,"800 FLETCHER RD, ANDALUSIA, AL, 36421","Match","Exact","800 FLETCHER RD, ANDALUSIA, AL, 36421",1869683,"R"
293232,"800 FLORIDA AVE NE","WASHINGTON","DC",20002,38.905040167,-76.99552855,232,"800 FLORIDA AVE NE, WASHINGTON, DC, 20002","Match","Exact","800 FLORIDA AVE NE, WASHINGTON, DC, 20002",76229752,"L"
293233,"800 FLORIDA AVENUE","BRISTOL","TN",37620,36.5888108660001,-82.166216398,233,"800 FLORIDA AVENUE, BRISTOL, TN, 37620","Match","Exact","800 FLORIDA AVE, BRISTOL, TN, 37620",127838642,"L"
293234,"800 FLORIDA BLVD","NEPTUNE BEACH","FL",32266,30.3142115530001,-81.404432865,234,"800 FLORIDA BLVD, NEPTUNE BEACH, FL, 32266","Match","Exact","800 FLORIDA BLVD, NEPTUNE BEACH, FL, 32266",83907763,"R"
293235,"800 FOREST AVENUE","WESTFIELD","NJ",7090,40.65305062,-74.367233453,235,"800 FOREST AVENUE, WESTFIELD, NJ, 7090","Match","Exact","800 FOREST AVE, WESTFIELD, NJ, 07090",60603427,"R"
293236,"800 FORREST STREET NW","ATLANTA","GA",30318,33.796143042,-84.4141073279999,236,"800 FORREST STREET NW, ATLANTA, GA, 30318","Match","Exact","800 FORREST ST NW, ATLANTA, GA, 30318",17401564,"L"
293237,"800 FORT NEGLEY BLVD","NASHVILLE","TN",37203,36.1469105680001,-86.7762689799999,237,"800 FORT NEGLEY BLVD, NASHVILLE, TN, 37203","Match","Exact","800 FORT NEGLEY BLVD, NASHVILLE, TN, 37203",97223125,"R"
293238,"800 FOURTH STREET","LIVERPOOL","NY",13088,43.1071314970001,-76.214427582,238,"800 FOURTH STREET, LIVERPOOL, NY, 13088","Match","Exact","800 4TH ST, LIVERPOOL, NY, 13088",46564116,"R"
293239,"800 FRUTA RD","RIO RANCHO","NM",87124,35.2711242560001,-106.68164622,239,"800 FRUTA RD, RIO RANCHO, NM, 87124","Match","Non_Exact","800 FRUTA RD NE, RIO RANCHO, NM, 87124",193996139,"R"
293240,"800 GESSNER SUITE 110","HOUSTON","TX",77024,29.775823168,-95.5444478479999,240,"800 GESSNER SUITE 110, HOUSTON, TX, 77024","Match","Non_Exact","800 GESSNER DR, HOUSTON, TX, 77024",96552937,"R"
293241,"800 GIBSON DRIVE APT 918","ROSEVILLE","CA",95678,38.7800180450001,-121.283187471,241,"800 GIBSON DRIVE APT 918, ROSEVILLE, CA, 95678","Match","Exact","800 GIBSON DR, ROSEVILLE, CA, 95678",106814433,"L"
293242,"800 GIBSON DRIVE STE 924","ROSEVILLE","CA",95678,38.7800180450001,-121.283187471,242,"800 GIBSON DRIVE STE 924, ROSEVILLE, CA, 95678","Match","Exact","800 GIBSON DR, ROSEVILLE, CA, 95678",106814433,"L"
293243,"800 GRANITE FALLS BLVD","ROLESVILLE","NC",27517,35.9281027210001,-78.4630758879999,243,"800 GRANITE FALLS BLVD, ROLESVILLE, NC, 27517","Match","Non_Exact","800 GRANITE FALLS BLVD, ROLESVILLE, NC, 27571",639839033,"R"
293244,"800 GRAYSIDE AVENUE","MAUSTON","WI",53948,43.789094037,-90.0867390349999,244,"800 GRAYSIDE AVENUE, MAUSTON, WI, 53948","Match","Exact","800 GRAYSIDE AVE, MAUSTON, WI, 53948",635334676,"L"
293245,"800 GREEN BROOK DR","ALLEN","TX",75002,33.1045207610001,-96.652288507,245,"800 GREEN BROOK DR, ALLEN, TX, 75002","Match","Exact","800 GREEN BROOK DR, ALLEN, TX, 75002",123495034,"R"
293246,"800 GREEN LEAF CIRCLE","WAUSAU","WI",54401,44.9727556170001,-89.688293329,246,"800 GREEN LEAF CIRCLE, WAUSAU, WI, 54401","Match","Exact","800 GREEN LEAF CIR, WAUSAU, WI, 54401",117143192,"R"
293247,"800 GREENWAY ROAD","MONONA","WI",53716,43.065873051,-89.338546568,247,"800 GREENWAY ROAD, MONONA, WI, 53716","Match","Exact","800 GREENWAY RD, MONONA, WI, 53716",49474588,"L"
293248,"800 HALL STREET","ELY","NV",89301,39.2433913040001,-114.893552786,248,"800 HALL STREET, ELY, NV, 89301","Match","Exact","800 HALL ST, ELY, NV, 89301",188266128,"R"
293249,"800 HAMMOND BLVD","JACKSONVILLE","FL",32221,30.311031045,-81.793488939,249,"800 HAMMOND BLVD, JACKSONVILLE, FL, 32221","Match","Exact","800 HAMMOND BLVD, JACKSONVILLE, FL, 32221",83886848,"R"
293250,"800 HERITAGE OAKS DR","ANGLETON","TX",77515,29.171006683,-95.451474407,250,"800 HERITAGE OAKS DR, ANGLETON, TX, 77515","Match","Exact","800 HERITAGE OAKS DR, ANGLETON, TX, 77515",116626764,"R"
293251,"800 HILLCREST RD BUILDING 6","MOBILE","AL",36696,NA,NA,251,"800 HILLCREST RD BUILDING 6, MOBILE, AL, 36696","No_Match",NA,NA,NA,NA
293252,"800 HISTORIC GLODSBORO BLVD","SANFORD","FL",32771,NA,NA,252,"800 HISTORIC GLODSBORO BLVD, SANFORD, FL, 32771","No_Match",NA,NA,NA,NA
293253,"800 HWY 184","EARLE","AR",72331,35.2941439840001,-90.517732779,253,"800 HWY 184, EARLE, AR, 72331","Match","Non_Exact","800 STATE HWY 184, EARLE, AR, 72331",607587506,"L"
293254,"800 J STREET SUITE 534","SACRAMENTO","CA",95814,38.580992759,-121.496018553,254,"800 J STREET SUITE 534, SACRAMENTO, CA, 95814","Match","Exact","800 J ST, SACRAMENTO, CA, 95814",133323345,"R"
293255,"800 JACKSON ST UNIT 608","HOBOKEN","NJ",7030,40.745853846,-74.03901952,255,"800 JACKSON ST UNIT 608, HOBOKEN, NJ, 7030","Match","Exact","800 JACKSON ST, HOBOKEN, NJ, 07030",59605363,"L"
293256,"800 JACKSON STREET","MADISON","IL",62060,38.682322668,-90.171206238,256,"800 JACKSON STREET, MADISON, IL, 62060","Match","Exact","800 JACKSON ST, MADISON, IL, 62060",107682538,"R"
293257,"800 JAMAICA AVE APT 1","RENO","NV",89502,39.47750726,-119.781030142,257,"800 JAMAICA AVE APT 1, RENO, NV, 89502","Match","Exact","800 JAMAICA AVE, RENO, NV, 89502",107108297,"R"
293258,"800 JEREMIAH LN","OTTAWA","IL",61350,41.3175571130001,-88.846933752,258,"800 JEREMIAH LN, OTTAWA, IL, 61350","Match","Exact","800 JEREMIAH LN, OTTAWA, IL, 61350",8621562,"L"
293259,"800 JOHN CARLYLE STREET APT 218","ALEXANDRIA","VA",22314,38.799129599,-77.0622189159999,259,"800 JOHN CARLYLE STREET APT 218, ALEXANDRIA, VA, 22314","Match","Exact","800 JOHN CARLYLE ST, ALEXANDRIA, VA, 22314",641049266,"L"
293260,"800 KEARNY AVE 2R","KEARNY","NJ",7032,40.7793914170001,-74.140433518,260,"800 KEARNY AVE 2R, KEARNY, NJ, 7032","Match","Exact","800 KEARNY AVE, KEARNY, NJ, 07032",59600682,"R"
293261,"800 KING FARM BLVD STE 500","ROCKVILLE","MD",20850,NA,NA,261,"800 KING FARM BLVD STE 500, ROCKVILLE, MD, 20850","No_Match",NA,NA,NA,NA
293262,"800 KINGS HIGHWAY N - STE 307","CHERRY HILL","NJ",8034,NA,NA,262,"800 KINGS HIGHWAY N - STE 307, CHERRY HILL, NJ, 8034","Tie",NA,NA,NA,NA
293263,"800 LAKESHORE DRIVE PO BOX  292572","BIRMINGHAM","AL",35229,33.461402075,-86.793961092,263,"800 LAKESHORE DRIVE PO BOX  292572, BIRMINGHAM, AL, 35229","Match","Non_Exact","800 LAKESHORE DR, BIRMINGHAM, AL, 35209",638589353,"L"
293264,"800 LANCER LANE STE E128","GRAYSLAKE","IL",60030,42.3567561840001,-88.0115625989999,264,"800 LANCER LANE STE E128, GRAYSLAKE, IL, 60030","Match","Exact","800 LANCER LN, GRAYSLAKE, IL, 60030",624645307,"R"
293265,"800 LANGLEY AVE","PENSACOLA","FL",32504,30.4880723430001,-87.221925772,265,"800 LANGLEY AVE, PENSACOLA, FL, 32504","Match","Exact","800 LANGLEY AVE, PENSACOLA, FL, 32504",93274173,"L"
293266,"800 LEBLANC RD","DUSON","LA",70529,30.1231792080001,-92.142241438,266,"800 LEBLANC RD, DUSON, LA, 70529","Match","Exact","800 LEBLANC RD, DUSON, LA, 70529",85608886,"L"
293267,"800 LEBLANC ROAD","DUSON","LA",70529,30.1231792080001,-92.142241438,267,"800 LEBLANC ROAD, DUSON, LA, 70529","Match","Exact","800 LEBLANC RD, DUSON, LA, 70529",85608886,"L"
293268,"800 LEE ROAD 621","OPELIKA","AL",36804,32.595824587,-85.3498744089999,268,"800 LEE ROAD 621, OPELIKA, AL, 36804","Match","Exact","800 LEE ROAD 621, OPELIKA, AL, 36804",1583321,"R"
293269,"800 LEWIS STREET","OXFORD","NC",27565,36.291157802,-78.604109643,269,"800 LEWIS STREET, OXFORD, NC, 27565","Match","Exact","800 LEWIS ST, OXFORD, NC, 27565",77111618,"L"
293270,"800 LIVINGSTON BLVD SUITE 2B","GAYLORD","MI",49735,NA,NA,270,"800 LIVINGSTON BLVD SUITE 2B, GAYLORD, MI, 49735","No_Match",NA,NA,NA,NA
293271,"800 LOCH ALSH AVENUE","FORT WASHINGTON","PA",19034,40.153101555,-75.201152065,271,"800 LOCH ALSH AVENUE, FORT WASHINGTON, PA, 19034","Match","Exact","800 LOCH ALSH AVE, FORT WASHINGTON, PA, 19034",645857366,"L"
293272,"800 MAC LN SE","OLYMPIA","WA",98513,47.048720588,-122.749532301,272,"800 MAC LN SE, OLYMPIA, WA, 98513","Match","Exact","800 MAC LN SE, OLYMPIA, WA, 98513",624520381,"L"
293273,"800 MAGEE DR 212","BROOKHAVEN","MS",39601,31.576324302,-90.4707005019999,273,"800 MAGEE DR 212, BROOKHAVEN, MS, 39601","Match","Exact","800 MAGEE DR, BROOKHAVEN, MS, 39601",612485825,"R"
293274,"800 MAIN ST SUITE 164","HOLDEN","MA",1520,42.342323353,-71.8452601989999,274,"800 MAIN ST SUITE 164, HOLDEN, MA, 1520","Match","Exact","800 MAIN ST, HOLDEN, MA, 01520",40005072,"R"
293275,"800 MAIN ST","VANCOUVER","WA",98660,45.627282603,-122.671648497,275,"800 MAIN ST, VANCOUVER, WA, 98660","Match","Exact","800 MAIN ST, VANCOUVER, WA, 98660",158325718,"L"
293276,"800 MAIN STREET","PELLA","IA",50219,41.4068218420001,-92.916460215,276,"800 MAIN STREET, PELLA, IA, 50219","Match","Exact","800 MAIN ST, PELLA, IA, 50219",89472623,"R"
293277,"800 MAIN STREET","WESTBROOK","ME",4092,43.6763555140001,-70.363801951,277,"800 MAIN STREET, WESTBROOK, ME, 4092","Match","Exact","800 MAIN ST, WESTBROOK, ME, 04092",78023533,"L"
293278,"800 MAINE AVE SW STE 200","WASHINGTON","DC",20024,NA,NA,278,"800 MAINE AVE SW STE 200, WASHINGTON, DC, 20024","No_Match",NA,NA,NA,NA
293279,"800 MARION PUGH DRIVE SUITE 2324","COLLEGE STATION","TX",77840,30.5978616680001,-96.337336165,279,"800 MARION PUGH DRIVE SUITE 2324, COLLEGE STATION, TX, 77840","Match","Exact","800 MARION PUGH DR, COLLEGE STATION, TX, 77840",21845505,"L"
293280,"800 MARKET ST SUITE 500","ST LOUIS","MO",63101,38.6262545070001,-90.19339772,280,"800 MARKET ST SUITE 500, ST LOUIS, MO, 63101","Match","Exact","800 MARKET ST, SAINT LOUIS, MO, 63101",107605756,"L"
293281,"800 MARKET ST","AUDUBON","IA",50025,41.7149122170001,-94.9304813369999,281,"800 MARKET ST, AUDUBON, IA, 50025","Match","Exact","800 MARKET ST, AUDUBON, IA, 50025",61725145,"R"
293282,"800 MARYLIN AVE","LIVERMORE","CA",94551,37.683866891,-121.787167285,282,"800 MARYLIN AVE, LIVERMORE, CA, 94551","Match","Exact","800 MARYLIN AVE, LIVERMORE, CA, 94551",125018369,"L"
293283,"800 MEDFRA STREET","ANCHORAGE","AK",99501,61.214520872,-149.8587693,283,"800 MEDFRA STREET, ANCHORAGE, AK, 99501","Match","Exact","800 MEDFRA ST, ANCHORAGE, AK, 99501",190815646,"R"
293284,"800 MEMORIAL BLVD","TOBYHANNA","PA",18466,41.149108552,-75.3758092149999,284,"800 MEMORIAL BLVD, TOBYHANNA, PA, 18466","Match","Exact","800 MEMORIAL BLVD, TOBYHANNA, PA, 18466",136772921,"L"
293285,"800 MERCEDES ST","BENBROOK","TX",76126,32.678940756,-97.457044603,285,"800 MERCEDES ST, BENBROOK, TX, 76126","Match","Exact","800 MERCEDES ST, BENBROOK, TX, 76126",101879205,"R"
293286,"800 MEYER LANE APT 28","REDONDO BEACH","CA",90278,33.86054669,-118.369863401,286,"800 MEYER LANE APT 28, REDONDO BEACH, CA, 90278","Match","Exact","800 MEYER LN, REDONDO BEACH, CA, 90278",142665751,"R"
293287,"800 MIAMI AVENUE","BURLINGTON","NC",27215,36.080553708,-79.4353910889999,287,"800 MIAMI AVENUE, BURLINGTON, NC, 27215","Match","Exact","800 MIAMI AVE, BURLINGTON, NC, 27215",71670571,"R"
293288,"800 MIDDLEFIELD HILL COURT","CARY","NC",27519,35.8183233780001,-78.890650594,288,"800 MIDDLEFIELD HILL COURT, CARY, NC, 27519","Match","Exact","800 MIDDLEFIELD HILL CT, CARY, NC, 27519",612813402,"R"
293289,"800 MIMOSA DRIVE","ADAMSVILLE","AL",35005,33.596003045,-86.9240043899999,289,"800 MIMOSA DRIVE, ADAMSVILLE, AL, 35005","Match","Exact","800 MIMOSA DR, ADAMSVILLE, AL, 35005",81620293,"L"
293290,"800 MINNEHAHA AVE E SUITE 370","ST PAUL","MN",55106,44.963038785,-93.067498289,290,"800 MINNEHAHA AVE E SUITE 370, ST PAUL, MN, 55106","Match","Exact","800 MINNEHAHA AVE E, SAINT PAUL, MN, 55106",97650902,"R"
293291,"800 MORNINGSIDE DRIVE","FULLERTON","CA",92835,33.8989821340001,-117.913640435,291,"800 MORNINGSIDE DRIVE, FULLERTON, CA, 92835","Match","Exact","800 MORNINGSIDE DR, FULLERTON, CA, 92835",144124204,"L"
293292,"800 MOSELEY DRIVE","STOCKBRIDGE","GA",30281,33.5590589080001,-84.154176664,292,"800 MOSELEY DRIVE, STOCKBRIDGE, GA, 30281","Match","Exact","800 MOSELEY DR, STOCKBRIDGE, GA, 30281",23211917,"L"
293293,"800 MOUNT AUBURN STREET","WATERTOWN","MA",2472,42.3741602110001,-71.1513290569999,293,"800 MOUNT AUBURN STREET, WATERTOWN, MA, 2472","Match","Exact","800 MOUNT AUBURN ST, WATERTOWN, MA, 02472",623836272,"L"
293294,"800 MUSTANG WAY","CALIMESA","CA",92320,NA,NA,294,"800 MUSTANG WAY, CALIMESA, CA, 92320","No_Match",NA,NA,NA,NA
293295,"800 N 2ND ST PMB 143","PHILADELPHIA","PA",19123,39.9630467000001,-75.140942089,295,"800 N 2ND ST PMB 143, PHILADELPHIA, PA, 19123","Match","Non_Exact","800 N 2ND ST, PHILADELPHIA, PA, 19123",131423124,"L"
293296,"800 N 2ND STREET","NASHVILLE","TN",37207,36.184485744,-86.7712507209999,296,"800 N 2ND STREET, NASHVILLE, TN, 37207","Match","Exact","800 N 2ND ST, NASHVILLE, TN, 37207",97187626,"L"
293297,"800 N 8TH STREET","LOUP CITY","NE",68853,41.2826435740001,-98.968664384,297,"800 N 8TH STREET, LOUP CITY, NE, 68853","Match","Exact","800 N 8TH ST, LOUP CITY, NE, 68853",198272318,"R"
293298,"800 N AUBURN AVE","FARMINGTON","NM",87401,36.7366283160001,-108.210274765,298,"800 N AUBURN AVE, FARMINGTON, NM, 87401","Match","Exact","800 N AUBURN AVE, FARMINGTON, NM, 87401",127413409,"R"
293299,"800 N BLUE MOUND ROAD","SAGINAW","TX",76131,32.8692182020001,-97.342398628,299,"800 N BLUE MOUND ROAD, SAGINAW, TX, 76131","Match","Exact","800 N BLUE MOUND RD, SAGINAW, TX, 76131",642822636,"R"
293300,"800 N DOWNING ST","PIQUA","OH",45356,40.1539446150001,-84.242516887,300,"800 N DOWNING ST, PIQUA, OH, 45356","Match","Exact","800 N DOWNING ST, PIQUA, OH, 45356",135303968,"R"
293301,"800 N EAST ST","EATON RAPIDS","MI",48827,42.520864117,-84.645894649,301,"800 N EAST ST, EATON RAPIDS, MI, 48827","Match","Exact","800 N EAST ST, EATON RAPIDS, MI, 48827",12036395,"R"
293302,"800 N HIGHWAY D","WEBB CITY","MO",64870,NA,NA,302,"800 N HIGHWAY D, WEBB CITY, MO, 64870","No_Match",NA,NA,NA,NA
293303,"800 N HILL AVE","DELAND","FL",32720,NA,NA,303,"800 N HILL AVE, DELAND, FL, 32720","No_Match",NA,NA,NA,NA
293304,"800 N HILL AVE","DELAND","FL",32724,29.016836616,-81.282510985,304,"800 N HILL AVE, DELAND, FL, 32724","Match","Non_Exact","800 S HILL AVE, DELAND, FL, 32724",94591161,"L"
293305,"800 N HOUSTON LEVEE RD","CORDOVA","TX",38018,NA,NA,305,"800 N HOUSTON LEVEE RD, CORDOVA, TX, 38018","No_Match",NA,NA,NA,NA
293306,"800 N MAIN STREET","DERMOTT","AR",71638,33.516826097,-91.436330886,306,"800 N MAIN STREET, DERMOTT, AR, 71638","Match","Non_Exact","800 S MAIN ST, DERMOTT, AR, 71638",69037704,"L"
293307,"800 N MOSLEY DR","STOCKBRIDGE","GA",30281,33.5590589080001,-84.154176664,307,"800 N MOSLEY DR, STOCKBRIDGE, GA, 30281","Match","Non_Exact","800 MOSELEY DR, STOCKBRIDGE, GA, 30281",23211917,"L"
293308,"800 N PRAIRIE STREET","BATAVIA","IL",60510,41.859326626,-88.301534435,308,"800 N PRAIRIE STREET, BATAVIA, IL, 60510","Match","Exact","800 N PRAIRIE ST, BATAVIA, IL, 60510",119532915,"R"
293309,"800 N RAINBOW BLVD SUITE 208-14","LAS VEGAS","NV",89107,36.180508339,-115.242287146,309,"800 N RAINBOW BLVD SUITE 208-14, LAS VEGAS, NV, 89107","Match","Non_Exact","800 N RAINBOW BLVD, LAS VEGAS, NV, 89107",638295847,"R"
293310,"800 N RAINBOW STE 201","LAS VEGAS","NV",89107,NA,NA,310,"800 N RAINBOW STE 201, LAS VEGAS, NV, 89107","No_Match",NA,NA,NA,NA
293311,"800 N SHORELINE BLVD STE 800S","CORPUS CHRISTI","TX",78401,NA,NA,311,"800 N SHORELINE BLVD STE 800S, CORPUS CHRISTI, TX, 78401","No_Match",NA,NA,NA,NA
293312,"800 N TAMIAMI TRAIL UNIT 1104","SARASOTA","FL",34236,NA,NA,312,"800 N TAMIAMI TRAIL UNIT 1104, SARASOTA, FL, 34236","Tie",NA,NA,NA,NA
293313,"800 N WALNUT STREET","WILMINGTON","DE",19801,39.742404568,-75.546492319,313,"800 N WALNUT STREET, WILMINGTON, DE, 19801","Match","Exact","800 N WALNUT ST, WILMINGTON, DE, 19801",187258106,"R"
293314,"800 NAVARRO ST STE 200","SAN ANTONIO","TX",78205,29.4286809930001,-98.489740763,314,"800 NAVARRO ST STE 200, SAN ANTONIO, TX, 78205","Match","Exact","800 NAVARRO ST, SAN ANTONIO, TX, 78205",101526183,"R"
293315,"800 NE 18TH ST","OKLAHOMA CITY","OK",73105,35.488423427,-97.497994223,315,"800 NE 18TH ST, OKLAHOMA CITY, OK, 73105","Match","Exact","800 NE 18TH ST, OKLAHOMA CITY, OK, 73105",100401427,"R"
293316,"800 NE QUINCE AVE","REDMOND","OR",97756,44.29857128,-121.160300083,316,"800 NE QUINCE AVE, REDMOND, OR, 97756","Match","Exact","800 NE QUINCE AVE, REDMOND, OR, 97756",627476891,"R"
293317,"800 NE TENNEY ROAD SUITE 110-558","VANCOUVER","WA",98685,NA,NA,317,"800 NE TENNEY ROAD SUITE 110-558, VANCOUVER, WA, 98685","No_Match",NA,NA,NA,NA
293318,"800 NE VANDERBILT LANE","LEES SUMMIT","MO",64064,NA,NA,318,"800 NE VANDERBILT LANE, LEES SUMMIT, MO, 64064","No_Match",NA,NA,NA,NA
293319,"800 NIAGARA AVE  APT 320","NIAGARA FALLS","NY",14305,43.1072371010001,-79.055106957,319,"800 NIAGARA AVE  APT 320, NIAGARA FALLS, NY, 14305","Match","Exact","800 NIAGARA AVE, NIAGARA FALLS, NY, 14305",48683557,"L"
293320,"800 NORTH  BROAD ST BLK 1 APT 2","ELIZABETH","NJ",7208,40.682384788,-74.214294821,320,"800 NORTH  BROAD ST BLK 1 APT 2, ELIZABETH, NJ, 7208","Match","Exact","800 N BROAD ST, ELIZABETH, NJ, 07208",641743006,"L"
293321,"800 NORTH CHESTNUT STREET","LITCHFIELD","IL",62056,39.1810800040001,-89.648246826,321,"800 NORTH CHESTNUT STREET, LITCHFIELD, IL, 62056","Match","Exact","800 N CHESTNUT ST, LITCHFIELD, IL, 62056",99438512,"R"
293322,"800 NORTH FARISH STREET","JACKSON","MS",39207,32.308580379,-90.188638625,322,"800 NORTH FARISH STREET, JACKSON, MS, 39207","Match","Non_Exact","800 N FARISH ST, JACKSON, MS, 39202",65371039,"R"
293323,"800 NORTH MAGNOLIA AVENUE STE 1500","ORLANDO","FM",32803,NA,NA,323,"800 NORTH MAGNOLIA AVENUE STE 1500, ORLANDO, FM, 32803","No_Match",NA,NA,NA,NA
293324,"800 NORTH MAIN STREET","TARBORO","NC",27886,35.900550202,-77.536729247,324,"800 NORTH MAIN STREET, TARBORO, NC, 27886","Match","Exact","800 N MAIN ST, TARBORO, NC, 27886",90178759,"L"
293325,"800 NORTH RAINBOW  SUITE 204","LAS VEGAS","NH",89107,NA,NA,325,"800 NORTH RAINBOW  SUITE 204, LAS VEGAS, NH, 89107","No_Match",NA,NA,NA,NA
293326,"800 NORTH RAINBOW STE 100","LAS VEGAS","NV",89107,36.180503378,-115.242287146,326,"800 NORTH RAINBOW STE 100, LAS VEGAS, NV, 89107","Match","Non_Exact","800 N RAINBOW BLVD, LAS VEGAS, NV, 89107",638295847,"R"
293327,"800 NORTH STATE COLLEGE BLVD","FULLERTON","CA",92834,NA,NA,327,"800 NORTH STATE COLLEGE BLVD, FULLERTON, CA, 92834","No_Match",NA,NA,NA,NA
293328,"800 NORTH STATE STREET SUITE 402","DOVER","DE",19901,NA,NA,328,"800 NORTH STATE STREET SUITE 402, DOVER, DE, 19901","No_Match",NA,NA,NA,NA
293329,"800 NW 16TH STREET","POMPANO BEACH","FL",33060,26.249175613,-80.132117304,329,"800 NW 16TH STREET, POMPANO BEACH, FL, 33060","Match","Exact","800 NW 16TH ST, POMPANO BEACH, FL, 33060",114694281,"L"
293330,"800 NW 28 CT","WILTON MANORS","FL",33311,26.1618818150001,-80.1536941859999,330,"800 NW 28 CT, WILTON MANORS, FL, 33311","Match","Exact","800 NW 28TH CT, WILTON MANORS, FL, 33311",114720395,"L"
293331,"800 NW 99TH ST","VANCOUVER","WA",98665,45.6928874720001,-122.678473711,331,"800 NW 99TH ST, VANCOUVER, WA, 98665","Match","Exact","800 NW 99TH ST, VANCOUVER, WA, 98665",158321159,"R"
293332,"800 NW EDEN STREET","ROSEBURG","OR",97470,NA,NA,332,"800 NW EDEN STREET, ROSEBURG, OR, 97470","No_Match",NA,NA,NA,NA
293333,"800 OCALA ROAD SUITE 300 - 215","TALLAHASSEE","FL",32304,30.4490551010001,-84.317169592,333,"800 OCALA ROAD SUITE 300 - 215, TALLAHASSEE, FL, 32304","Match","Non_Exact","800 N OCALA RD, TALLAHASSEE, FL, 32304",82886955,"R"
293334,"800 OCALA ROAD SUITE 300-109","TALLAHASSEE","FL",32304,30.4490551010001,-84.317169592,334,"800 OCALA ROAD SUITE 300-109, TALLAHASSEE, FL, 32304","Match","Non_Exact","800 N OCALA RD, TALLAHASSEE, FL, 32304",82886955,"R"
293335,"800 OHIO PIKE","CINCINNATI","OH",45245,39.064821357,-84.282298065,335,"800 OHIO PIKE, CINCINNATI, OH, 45245","Match","Exact","800 OHIO PIKE, CINCINNATI, OH, 45245",118446371,"L"
293336,"800 OLD COLCHESTER ROAD","OAKDALE","CT",6370,41.4596356280001,-72.164265359,336,"800 OLD COLCHESTER ROAD, OAKDALE, CT, 6370","Match","Exact","800 OLD COLCHESTER RD, OAKDALE, CT, 06370",56840421,"R"
293337,"800 OLD ROSWELL LAKES PKWY STE 300","ROSWELL","GA",30076,34.033794427,-84.337019878,337,"800 OLD ROSWELL LAKES PKWY STE 300, ROSWELL, GA, 30076","Match","Non_Exact","800 OLD ROSWELL LAKES PKWY, ROSWELL, GA, 30076",17386838,"R"
293338,"800 OLIVE DRIVE","SILVER SPRING","MD",20905,39.110619893,-76.993671789,338,"800 OLIVE DRIVE, SILVER SPRING, MD, 20905","Match","Exact","800 OLIVE DR, SILVER SPRING, MD, 20905",62072391,"L"
293339,"800 OLIVE STREET APT 615","SAINT LOUIS","MO",63101,38.628549175,-90.1924676689999,339,"800 OLIVE STREET APT 615, SAINT LOUIS, MO, 63101","Match","Exact","800 OLIVE ST, SAINT LOUIS, MO, 63101",653883975,"L"
293340,"800 ONEIDA ST SUITE C","STORM LAKE","IA",50588,42.6468208200001,-95.1954632489999,340,"800 ONEIDA ST SUITE C, STORM LAKE, IA, 50588","Match","Exact","800 ONEIDA ST, STORM LAKE, IA, 50588",77378465,"L"
293341,"800 OSPREY LN","CLARKDALE","AZ",86324,34.761681824,-112.034785747,341,"800 OSPREY LN, CLARKDALE, AZ, 86324","Match","Exact","800 OSPREY LN, CLARKDALE, AZ, 86324",159503173,"R"
293342,"800 PALISADE AVE 22D/SAIBLE","FORT LEE","NJ",7024,40.8297579750001,-73.979846905,342,"800 PALISADE AVE 22D/SAIBLE, FORT LEE, NJ, 7024","Match","Exact","800 PALISADE AVE, FORT LEE, NJ, 07024",64392383,"R"
293343,"800 PARK AVE","LAKE PARK","FM",33403,NA,NA,343,"800 PARK AVE, LAKE PARK, FM, 33403","No_Match",NA,NA,NA,NA
293344,"800 PARK AVENUE SUITE P","MURFREESBORO","TN",37129,35.8386637770001,-86.3979338569999,344,"800 PARK AVENUE SUITE P, MURFREESBORO, TN, 37129","Match","Exact","800 PARK AVE, MURFREESBORO, TN, 37129",59030517,"L"
293345,"800 PARK OFFICES DRIVE SUITE 3119","DURHAM","NC",27703,NA,NA,345,"800 PARK OFFICES DRIVE SUITE 3119, DURHAM, NC, 27703","No_Match",NA,NA,NA,NA
293346,"800 PARKER AVE","FALLS CHURCH","VA",22046,38.8877931010001,-77.1858779459999,346,"800 PARKER AVE, FALLS CHURCH, VA, 22046","Match","Exact","800 PARKER AVE, FALLS CHURCH, VA, 22046",75978509,"R"
293347,"800 PARKER SQUARE SUITE 215E","FLOWER MOUND","TX",75028,NA,NA,347,"800 PARKER SQUARE SUITE 215E, FLOWER MOUND, TX, 75028","No_Match",NA,NA,NA,NA
293348,"800 PARKER SQUARE SUITE 275","FLOWER MOUND","TX",75208,NA,NA,348,"800 PARKER SQUARE SUITE 275, FLOWER MOUND, TX, 75208","No_Match",NA,NA,NA,NA
293349,"800 PINE ST","EMMAUS","PA",18049,NA,NA,349,"800 PINE ST, EMMAUS, PA, 18049","No_Match",NA,NA,NA,NA
293350,"800 PLEASANT VIEW RD","CHANHASSEN","MN",55317,44.8881377230001,-93.542777958,350,"800 PLEASANT VIEW RD, CHANHASSEN, MN, 55317","Match","Exact","800 PLEASANT VIEW RD, CHANHASSEN, MN, 55317",235839724,"R"
293351,"800 POINT VISTA DRIVE STE 518","HICKORY CREEK","TX",75065,NA,NA,351,"800 POINT VISTA DRIVE STE 518, HICKORY CREEK, TX, 75065","No_Match",NA,NA,NA,NA
293352,"800 POLY PLACE ROOM 5-218","BROOKLYN","NY",11209,NA,NA,352,"800 POLY PLACE ROOM 5-218, BROOKLYN, NY, 11209","No_Match",NA,NA,NA,NA
293353,"800 POYNTZ AVE","MANHATTAN","KS",66502,39.1794238000001,-96.568576498,353,"800 POYNTZ AVE, MANHATTAN, KS, 66502","Match","Exact","800 POYNTZ AVE, MANHATTAN, KS, 66502",27794611,"R"
293354,"800 PRIVATE ROAD 1485","HICO","TX",76457,32.0333242670001,-97.993798774,354,"800 PRIVATE ROAD 1485, HICO, TX, 76457","Match","Non_Exact","800 PVT RD 1485, HICO, TX, 76457",642857685,"R"
293355,"800 PROPRIETORS ROAD","WORTHINGTON","OH",43085,40.0900358640001,-83.004019791,355,"800 PROPRIETORS ROAD, WORTHINGTON, OH, 43085","Match","Exact","800 PROPRIETORS RD, WORTHINGTON, OH, 43085",218686159,"R"
293356,"800 PRUDENTIAL DRIVE HOWARD 211","JACKSONVILLE","FL",32207,30.31627902,-81.664236557,356,"800 PRUDENTIAL DRIVE HOWARD 211, JACKSONVILLE, FL, 32207","Match","Exact","800 PRUDENTIAL DR, JACKSONVILLE, FL, 32207",83899929,"R"
293357,"800 RAHWAY AVENUE","WESTFIELD","NJ",7090,40.6386097600001,-74.341572121,357,"800 RAHWAY AVENUE, WESTFIELD, NJ, 7090","Match","Exact","800 RAHWAY AVE, WESTFIELD, NJ, 07090",60573807,"R"
293358,"800 RAINBOW BLVD/SUITE 208","LAS  VEGAS","NV",89107,NA,NA,358,"800 RAINBOW BLVD/SUITE 208, LAS  VEGAS, NV, 89107","No_Match",NA,NA,NA,NA
293359,"800 RAVEN HILL DRIVE","ATCHISON","KS",66002,NA,NA,359,"800 RAVEN HILL DRIVE, ATCHISON, KS, 66002","No_Match",NA,NA,NA,NA
293360,"800 REDWOOD HIGHWAY SUITE 136","MILL VALLEY","CA",94941,NA,NA,360,"800 REDWOOD HIGHWAY SUITE 136, MILL VALLEY, CA, 94941","No_Match",NA,NA,NA,NA
293361,"800 RESEARCH PARKWAY","OKLAHOMA CITY","OK",73104,NA,NA,361,"800 RESEARCH PARKWAY, OKLAHOMA CITY, OK, 73104","No_Match",NA,NA,NA,NA
293362,"800 REVOLUTION MILL DRIVE  APT 206","GREENSBORO","NC",27405,36.099755691,-79.7787498769999,362,"800 REVOLUTION MILL DRIVE  APT 206, GREENSBORO, NC, 27405","Match","Exact","800 REVOLUTION MILL DR, GREENSBORO, NC, 27405",131114869,"R"
293363,"800 RIO BRAVO DR","76052","TX",76052,32.9878476170001,-97.3750359649999,363,"800 RIO BRAVO DR, 76052, TX, 76052","Match","Non_Exact","800 RIO BRAVO DR, HASLET, TX, 76052",619873716,"R"
293364,"800 RIVANNA RIVER REACH","CHESAPEAKE","VA",23320,36.7452358030001,-76.2690589919999,364,"800 RIVANNA RIVER REACH, CHESAPEAKE, VA, 23320","Match","Exact","800 RIVANNA RIVER REACH, CHESAPEAKE, VA, 23320",644734037,"L"
293365,"800 RIVERSIDE STREET","MORA","MN",55051,45.872698755,-93.304886713,365,"800 RIVERSIDE STREET, MORA, MN, 55051","Match","Exact","800 RIVERSIDE ST, MORA, MN, 55051",163036753,"R"
293366,"800 ROCKWOOD LN","ESTES PARK","CO",80517,40.3304780650001,-105.512220481,366,"800 ROCKWOOD LN, ESTES PARK, CO, 80517","Match","Exact","800 ROCKWOOD LN, ESTES PARK, CO, 80517",188541689,"R"
293367,"800 ROCKY BAYOU DR","PINEVILLE","LA",71360,31.352340505,-92.425487016,367,"800 ROCKY BAYOU DR, PINEVILLE, LA, 71360","Match","Exact","800 ROCKY BAYOU DR, PINEVILLE, LA, 71360",612139593,"R"
293368,"800 ROOSEVELT ROAD BLDG C SUITE 100","GLEN ELLYN","IL",60137,41.8594149640001,-88.051885235,368,"800 ROOSEVELT ROAD BLDG C SUITE 100, GLEN ELLYN, IL, 60137","Match","Non_Exact","800 E ROOSEVELT RD, GLEN ELLYN, IL, 60137",636318504,"L"
293369,"800 ROOSEVELT","IRVINE","CA",92620,NA,NA,369,"800 ROOSEVELT, IRVINE, CA, 92620","No_Match",NA,NA,NA,NA
293370,"800 ROSS AVE 3107","DALLAS","TX",75202,32.7815730940001,-96.8059313269999,370,"800 ROSS AVE 3107, DALLAS, TX, 75202","Match","Exact","800 ROSS AVE, DALLAS, TX, 75202",647957154,"L"
293371,"800 ROSS AVE APT 5139","DALLAS","TX",75202,32.7815730940001,-96.8059313269999,371,"800 ROSS AVE APT 5139, DALLAS, TX, 75202","Match","Exact","800 ROSS AVE, DALLAS, TX, 75202",647957154,"L"
293372,"800 ROSS AVENUE 5103","DALLAS","TX",75202,32.7815730940001,-96.8059313269999,372,"800 ROSS AVENUE 5103, DALLAS, TX, 75202","Match","Exact","800 ROSS AVE, DALLAS, TX, 75202",647957154,"L"
293373,"800 ROYAL COURT","MANSFIELD","TX",76063,NA,NA,373,"800 ROYAL COURT, MANSFIELD, TX, 76063","No_Match",NA,NA,NA,NA
293374,"800 S 15TH STREET","HENDERSON","NE",68371,40.7772949500001,-97.809921211,374,"800 S 15TH STREET, HENDERSON, NE, 68371","Match","Exact","800 S 15TH ST, HENDERSON, NE, 68371",636315673,"R"
293375,"800 S 1ST AVE","COATESVILLE","PA",19320,39.9736123370001,-75.8195105739999,375,"800 S 1ST AVE, COATESVILLE, PA, 19320","Match","Exact","800 S 1ST AVE, COATESVILLE, PA, 19320",653370314,"R"
293376,"800 S 4TH STREET 1205","LOUISVILLE","KY",40203,38.244056761,-85.7587423099999,376,"800 S 4TH STREET 1205, LOUISVILLE, KY, 40203","Match","Non_Exact","800 S 4TH ST, LOUISVILLE, KY, 40203",96845718,"R"
293377,"800 S 4TH STREET 1801","LOUSIVILLE","KY",40203,38.244056761,-85.7587423099999,377,"800 S 4TH STREET 1801, LOUSIVILLE, KY, 40203","Match","Non_Exact","800 S 4TH ST, LOUISVILLE, KY, 40203",96845718,"R"
293378,"800 S AIRPORT BLVD","SAN FRANCISCO","CA",94128,37.636210347,-122.399532116,378,"800 S AIRPORT BLVD, SAN FRANCISCO, CA, 94128","Match","Non_Exact","800 S AIRPORT BLVD, S SAN FRAN, CA, 94080",611512381,"R"
293379,"800 S BLACKSTONE ST","TULARE","CA",93274,NA,NA,379,"800 S BLACKSTONE ST, TULARE, CA, 93274","No_Match",NA,NA,NA,NA
293380,"800 S BROADWAY STE 103","WALNUT CREEK","CA",94596,37.8959128830001,-122.056312655,380,"800 S BROADWAY STE 103, WALNUT CREEK, CA, 94596","Match","Exact","800 BROADWAY, WALNUT CREEK, CA, 94596",192056420,"L"
293381,"800 S CATALPA ST","PINE BLUFF","AR",71603,34.221936972,-92.033632744,381,"800 S CATALPA ST, PINE BLUFF, AR, 71603","Match","Exact","800 S CATALPA ST, PINE BLUFF, AR, 71603",2549689,"R"
293382,"800 S FIR AVENUE - 6","INGLEWOOD","CA",90301,33.953921581,-118.35785246,382,"800 S FIR AVENUE - 6, INGLEWOOD, CA, 90301","Match","Non_Exact","800 S FIR AVE, INGLEWOOD, CA, 90301",141654517,"L"
293383,"800 S GAY ST 5TH FLOOR","KNOXVILLE","TN",37929,35.9625632400001,-83.916703223,383,"800 S GAY ST 5TH FLOOR, KNOXVILLE, TN, 37929","Match","Non_Exact","800 S GAY ST, KNOXVILLE, TN, 37929",42620644,"L"
293384,"800 S HENRIETTA ST","EFFINGHAM","IL",62401,39.115473271,-88.556152143,384,"800 S HENRIETTA ST, EFFINGHAM, IL, 62401","Match","Exact","800 S HENRIETTA ST, EFFINGHAM, IL, 62401",94773813,"R"
293385,"800 S LOOMIS ST","CHICAGO","IL",60607,41.8717139620001,-87.661716422,385,"800 S LOOMIS ST, CHICAGO, IL, 60607","Match","Non_Exact","800 S LOOMIS ST, CHICAGO, IL, 60607",618343616,"R"
293386,"800 S MAIN ST","ARCADIA","MO",63621,37.5782632,-90.633948902,386,"800 S MAIN ST, ARCADIA, MO, 63621","Match","Exact","800 MAIN ST, ARCADIA, MO, 63621",62589356,"R"
293387,"800 S MAIN STREET SUITE F","NICHOLASVILLE","KY",40356,NA,NA,387,"800 S MAIN STREET SUITE F, NICHOLASVILLE, KY, 40356","Tie",NA,NA,NA,NA
293388,"800 S MAIN STREET","FUQUAY-VARINA","NC",27526,35.574517443,-78.800604021,388,"800 S MAIN STREET, FUQUAY-VARINA, NC, 27526","Match","Exact","800 S MAIN ST, FUQUAY VARINA, NC, 27526",208359846,"L"
293389,"800 S OAK ST","EFFINGHAM","IL",62401,39.115950625,-88.554068136,389,"800 S OAK ST, EFFINGHAM, IL, 62401","Match","Exact","800 S OAK ST, EFFINGHAM, IL, 62401",94762531,"R"
293390,"800 S PARSONAGE ST","WINTERS","TX",79567,31.9591467110001,-99.970713677,390,"800 S PARSONAGE ST, WINTERS, TX, 79567","Match","Non_Exact","800 W PARSONAGE ST, WINTERS, TX, 79567",129885525,"R"
293391,"800 S RAINBOW STE 210","LAS VEGAS","NV",89107,NA,NA,391,"800 S RAINBOW STE 210, LAS VEGAS, NV, 89107","No_Match",NA,NA,NA,NA
293392,"800 S SAGE HILL TRAIL","GARDEN CITY","KS",67846,37.9494105480001,-100.917243959,392,"800 S SAGE HILL TRAIL, GARDEN CITY, KS, 67846","Match","Exact","800 S SAGE HILL TRL, GARDEN CITY, KS, 67846",145431896,"L"
293393,"800 S VICTORIA AVE STE 314","VENTURA","CA",93009,34.267864468,-119.212866966,393,"800 S VICTORIA AVE STE 314, VENTURA, CA, 93009","Match","Non_Exact","800 S VICTORIA AVE, VENTURA, CA, 93009",109953588,"L"
293394,"800 S WELLS ST STE 90","CHICAGO","IL",60617,NA,NA,394,"800 S WELLS ST STE 90, CHICAGO, IL, 60617","No_Match",NA,NA,NA,NA
293395,"800 S WELLS ST UNIT 1324","CHICAGO","IL",60607,41.872039897,-87.633575332,395,"800 S WELLS ST UNIT 1324, CHICAGO, IL, 60607","Match","Non_Exact","800 S WELLS ST, CHICAGO, IL, 60607",650509274,"R"
293396,"800 SCHOOL STREET","BAUXITE","AR",72011,NA,NA,396,"800 SCHOOL STREET, BAUXITE, AR, 72011","No_Match",NA,NA,NA,NA
293397,"800 SE 10TH AVE","PORTLAND","OR",97214,45.517151606,-122.655662512,397,"800 SE 10TH AVE, PORTLAND, OR, 97214","Match","Exact","800 SE 10TH AVE, PORTLAND, OR, 97214",157505544,"L"
293398,"800 SE 10TH TER","DEERFIELD BEACH","FL",33441,26.30674895,-80.088995037,398,"800 SE 10TH TER, DEERFIELD BEACH, FL, 33441","Match","Exact","800 SE 10TH TER, DEERFIELD BEACH, FL, 33441",114743368,"L"
293399,"800 SE MONTEREY ROAD","STUART","FL",34994,27.175581756,-80.2415402199999,399,"800 SE MONTEREY ROAD, STUART, FL, 34994","Match","Exact","800 SE MONTEREY RD, STUART, FL, 34994",638492658,"L"
293400,"800 SEAL BEACH BLVD BUILDING 226","SEAL BEACH","CA",90740,33.742224127,-118.09436342,400,"800 SEAL BEACH BLVD BUILDING 226, SEAL BEACH, CA, 90740","Match","Exact","800 SEAL BEACH BLVD, SEAL BEACH, CA, 90740",144012828,"R"
293401,"800 SECOND AVENUE  SUITE300","NEW YORK","NY",10017,40.7498745410001,-73.972155292,401,"800 SECOND AVENUE  SUITE300, NEW YORK, NY, 10017","Match","Exact","800 2ND AVE, NEW YORK, NY, 10017",59662085,"R"
293402,"800 SECURITY ROW SUITE 2","RICHARDSON","TX",75081,32.9642244830001,-96.713610664,402,"800 SECURITY ROW SUITE 2, RICHARDSON, TX, 75081","Match","Exact","800 SECURITY ROW, RICHARDSON, TX, 75081",102915377,"R"
293403,"800 SENECA STREET APT 1910","SEATTLE","WA",98101,47.6094092650001,-122.329692635,403,"800 SENECA STREET APT 1910, SEATTLE, WA, 98101","Match","Exact","800 SENECA ST, SEATTLE, WA, 98101",186589789,"L"
293404,"800 SHALLCROSS LAKE ROAD","MIDDLETOWN","DE",19709,39.4931272050001,-75.6611083879999,404,"800 SHALLCROSS LAKE ROAD, MIDDLETOWN, DE, 19709","Match","Exact","800 SHALLCROSS LAKE RD, MIDDLETOWN, DE, 19709",187285990,"R"
293405,"800 SHANNON BRADLEY ROAD","GASTONIA","NC",28052,35.265201845,-81.238735311,405,"800 SHANNON BRADLEY ROAD, GASTONIA, NC, 28052","Match","Exact","800 SHANNON BRADLEY RD, GASTONIA, NC, 28052",70376982,"R"
293406,"800 SHERBOURNE CIRCLE","LAKE MARY","FL",32746,28.782759818,-81.365149515,406,"800 SHERBOURNE CIRCLE, LAKE MARY, FL, 32746","Match","Exact","800 SHERBOURNE CIR, LAKE MARY, FL, 32746",649128130,"L"
293407,"800 SIXTH STREET SUITE 2723","PASO ROBLES","CA",93447,NA,NA,407,"800 SIXTH STREET SUITE 2723, PASO ROBLES, CA, 93447","No_Match",NA,NA,NA,NA
293408,"800 SOUTH 5TH STREET","MONROE","LA",71202,32.49270592,-92.1034975159999,408,"800 SOUTH 5TH STREET, MONROE, LA, 71202","Match","Exact","800 S 5TH ST, MONROE, LA, 71202",161087354,"R"
293409,"800 SOUTH BARRANCA AVENUE  SUITE328","COVINA","CA",91723,34.07721414,-117.881301372,409,"800 SOUTH BARRANCA AVENUE  SUITE328, COVINA, CA, 91723","Match","Exact","800 S BARRANCA AVE, COVINA, CA, 91723",142253888,"L"
293410,"800 SOUTH BAY DRIVE","BAY","AR",72411,35.7343654760001,-90.561375248,410,"800 SOUTH BAY DRIVE, BAY, AR, 72411","Match","Exact","800 S BAY DR, BAY, AR, 72411",46916719,"R"
293411,"800 SOUTH GAY STREET SUITE 700","KNOXVILLE","TN",37929,35.9625632400001,-83.916703223,411,"800 SOUTH GAY STREET SUITE 700, KNOXVILLE, TN, 37929","Match","Exact","800 S GAY ST, KNOXVILLE, TN, 37929",42620644,"L"
293412,"800 SOUTH IOWA AVE APT 10","WESLACO","TX",78596,26.1518299520001,-97.987430452,412,"800 SOUTH IOWA AVE APT 10, WESLACO, TX, 78596","Match","Exact","800 S IOWA AVE, WESLACO, TX, 78596",71482492,"L"
293413,"800 SOUTH MAIN STREET SUITE 9002","HARRISONBURG","VA",22807,38.441356123,-78.8742101889999,413,"800 SOUTH MAIN STREET SUITE 9002, HARRISONBURG, VA, 22807","Match","Non_Exact","800 S MAIN ST, HARRISONBURG, VA, 22801",636660821,"R"
293414,"800 SOUTH MAIN STREET","FINDLAY","OH",45840,41.0329830680001,-83.6502919339999,414,"800 SOUTH MAIN STREET, FINDLAY, OH, 45840","Match","Exact","800 S MAIN ST, FINDLAY, OH, 45840",36473313,"L"
293415,"800 SOUTH SHOSHONE STREET","DENVER","CO",80223,39.702271614,-105.009778384,415,"800 SOUTH SHOSHONE STREET, DENVER, CO, 80223","Match","Exact","800 S SHOSHONE ST, DENVER, CO, 80223",177330936,"L"
293416,"800 SOUTH STOCKTON AVE SUITE 3","RIPON","CA",95366,37.732112902,-121.123874551,416,"800 SOUTH STOCKTON AVE SUITE 3, RIPON, CA, 95366","Match","Exact","800 S STOCKTON AVE, RIPON, CA, 95366",133894938,"R"
293417,"800 SOUTH US 27 SUITE 228","ST JOHNS","MI",48879,NA,NA,417,"800 SOUTH US 27 SUITE 228, ST JOHNS, MI, 48879","No_Match",NA,NA,NA,NA
293418,"800 SOUTHERN AVE SE APARTMENT 418","WASHINGTON","DC",20032,38.825601561,-76.995673294,418,"800 SOUTHERN AVE SE APARTMENT 418, WASHINGTON, DC, 20032","Match","Exact","800 SOUTHERN AVE SE, WASHINGTON, DC, 20032",647299617,"L"
293419,"800 SOUTHERN DR","CATAWISSA","PA",17820,40.9038957380001,-76.494566903,419,"800 SOUTHERN DR, CATAWISSA, PA, 17820","Match","Exact","800 SOUTHERN DR, CATAWISSA, PA, 17820",612645410,"L"
293420,"800 SPRUCE ST","WHITEVILLE","NC",28472,34.3377481250001,-78.724080445,420,"800 SPRUCE ST, WHITEVILLE, NC, 28472","Match","Exact","800 SPRUCE ST, WHITEVILLE, NC, 28472",647041765,"R"
293421,"800 STAGECOACH RD","GUFFEY","CO",80820,38.7851521600001,-105.433583057,421,"800 STAGECOACH RD, GUFFEY, CO, 80820","Match","Exact","800 STAGECOACH RD, GUFFEY, CO, 80820",635476954,"L"
293422,"800 STOCKTRAIL AVE","GILLETTE","WY",82716,44.2874362950001,-105.514617089,422,"800 STOCKTRAIL AVE, GILLETTE, WY, 82716","Match","Exact","800 STOCKTRAIL AVE, GILLETTE, WY, 82716",146323015,"L"
293423,"800 SUMMER AVE APT 5B","NEWARK","NJ",7104,40.779354105,-74.161239028,423,"800 SUMMER AVE APT 5B, NEWARK, NJ, 7104","Match","Exact","800 SUMMER AVE, NEWARK, NJ, 07104",63455777,"L"
293424,"800 SW 167TH AVE","BEAVERTON","OR",97006,45.5140760900001,-122.849295036,424,"800 SW 167TH AVE, BEAVERTON, OR, 97006","Match","Exact","800 SW 167TH AVE, BEAVERTON, OR, 97006",158183694,"L"
293425,"800 SW JACKSON SUITE 1120","TOPEKA","KS",66612,NA,NA,425,"800 SW JACKSON SUITE 1120, TOPEKA, KS, 66612","No_Match",NA,NA,NA,NA
293426,"800 SWAN CREEK RD","FT WASHINGTON","MD",20744,38.7251674600001,-77.018043287,426,"800 SWAN CREEK RD, FT WASHINGTON, MD, 20744","Match","Exact","800 SWAN CREEK RD, FT WASHINGTON, MD, 20744",76302367,"L"
293427,"800 SYCAMORE 329","EVANSVILLE","HI",47708,NA,NA,427,"800 SYCAMORE 329, EVANSVILLE, HI, 47708","No_Match",NA,NA,NA,NA
293428,"800 SYCAMORE 329","EVANSVILLE","IN",47708,37.9746084860001,-87.567473913,428,"800 SYCAMORE 329, EVANSVILLE, IN, 47708","Match","Non_Exact","800 SYCAMORE ST, EVANSVILLE, IN, 47708",635872587,"L"
293429,"800 SYCAMORE NO 329-PMB 3983","EVANSVILLE","IN",47708,NA,NA,429,"800 SYCAMORE NO 329-PMB 3983, EVANSVILLE, IN, 47708","No_Match",NA,NA,NA,NA
293430,"800 SYCAMORE ST -329","EVANSVILLE","IN",47708,37.9746084860001,-87.567473913,430,"800 SYCAMORE ST -329, EVANSVILLE, IN, 47708","Match","Exact","800 SYCAMORE ST, EVANSVILLE, IN, 47708",635872587,"L"
293431,"800 SYCAMORE ST","EVANSVILLE","IN",47708,37.9746084860001,-87.567473913,431,"800 SYCAMORE ST, EVANSVILLE, IN, 47708","Match","Exact","800 SYCAMORE ST, EVANSVILLE, IN, 47708",635872587,"L"
293432,"800 TENNY ROAD BOX 518","VANCOUVER","WA",98685,NA,NA,432,"800 TENNY ROAD BOX 518, VANCOUVER, WA, 98685","No_Match",NA,NA,NA,NA
293433,"800 TENTH STREET SUITE 300","BALDWIN","MI",49304,43.899315835,-85.8501394099999,433,"800 TENTH STREET SUITE 300, BALDWIN, MI, 49304","Match","Non_Exact","800 E 10TH ST, BALDWIN, MI, 49304",150181164,"R"
293434,"800 TERRAPIN LANE","BRANDON","MS",39047,32.3662250950001,-90.032731407,434,"800 TERRAPIN LANE, BRANDON, MS, 39047","Match","Exact","800 TERRAPIN LN, BRANDON, MS, 39047",624521295,"R"
293435,"800 THE MARK LN UNIT 1103","SAN DIEGO","CA",92101,NA,NA,435,"800 THE MARK LN UNIT 1103, SAN DIEGO, CA, 92101","No_Match",NA,NA,NA,NA
293436,"800 THOMPSON STREET","ASHLAND","VA",23005,37.7656253210001,-77.495295519,436,"800 THOMPSON STREET, ASHLAND, VA, 23005","Match","Exact","800 THOMPSON ST, ASHLAND, VA, 23005",84957435,"R"
293437,"800 THUNDERBIRD ROAD","CHANDLER","OK",74834,35.716070748,-96.890626675,437,"800 THUNDERBIRD ROAD, CHANDLER, OK, 74834","Match","Non_Exact","800 W THUNDERBIRD RD, CHANDLER, OK, 74834",143093105,"L"
293438,"800 TIMBER TRAIL DR APT 813","LAFAYETTE","IN",47905,40.4207971720001,-86.819420107,438,"800 TIMBER TRAIL DR APT 813, LAFAYETTE, IN, 47905","Match","Exact","800 TIMBER TRAIL DR, LAFAYETTE, IN, 47905",649917266,"L"
293439,"800 TRANSFER ROAD SUITE 34","SAINT PAUL","MN",55114,44.966286767,-93.185719922,439,"800 TRANSFER ROAD SUITE 34, SAINT PAUL, MN, 55114","Match","Exact","800 TRANSFER RD, SAINT PAUL, MN, 55114",97666735,"L"
293440,"800 TRAVIS ST","LOCKHART","TX",78644,29.8715306290001,-97.682244111,440,"800 TRAVIS ST, LOCKHART, TX, 78644","Match","Exact","800 TRAVIS ST, LOCKHART, TX, 78644",45542184,"R"
293441,"800 TREASURE HILLS DRIVE","MADERA","CA",93636,NA,NA,441,"800 TREASURE HILLS DRIVE, MADERA, CA, 93636","No_Match",NA,NA,NA,NA
293442,"800 TUCKER","SAINT LOUIS","MO",63101,NA,NA,442,"800 TUCKER, SAINT LOUIS, MO, 63101","No_Match",NA,NA,NA,NA
293443,"800 TUNNEL MOUNTAIN ROAD","PELL CITY","AL",35125,33.5869425500001,-86.3827914889999,443,"800 TUNNEL MOUNTAIN ROAD, PELL CITY, AL, 35125","Match","Exact","800 TUNNEL MT RD, PELL CITY, AL, 35125",66873554,"R"
293444,"800 TWIN ACORN CT","BLACKLICK","OH",43004,40.002966185,-82.7781165379999,444,"800 TWIN ACORN CT, BLACKLICK, OH, 43004","Match","Exact","800 TWIN ACORN CT, BLACKLICK, OH, 43004",218700248,"R"
293445,"800 TWIN CREEK DR","DESOTO","TX",75115,32.5870106350001,-96.874142272,445,"800 TWIN CREEK DR, DESOTO, TX, 75115","Match","Exact","800 TWIN CREEK DR, DESOTO, TX, 75115",103186095,"R"
293446,"800 UNIVERSITY DR     OL 113","MARYVILLE","MO",64468,40.354458707,-94.882781691,446,"800 UNIVERSITY DR     OL 113, MARYVILLE, MO, 64468","Match","Exact","800 UNIVERSITY DR, MARYVILLE, MO, 64468",38559947,"L"
293447,"800 UNIVERSITY DRIVE","MARYVILLE","MO",64468,40.354458707,-94.882781691,447,"800 UNIVERSITY DRIVE, MARYVILLE, MO, 64468","Match","Exact","800 UNIVERSITY DR, MARYVILLE, MO, 64468",38559947,"L"
293448,"800 UNIVERSITY WAY","SPARTANBURG","SC",29303,34.9949218630001,-81.972633526,448,"800 UNIVERSITY WAY, SPARTANBURG, SC, 29303","Match","Exact","800 UNIVERSITY WAY, SPARTANBURG, SC, 29303",640660864,"L"
293449,"800 VANDEVER AVENUE","WILMINGTON","DE",19802,39.7481179010001,-75.5348954409999,449,"800 VANDEVER AVENUE, WILMINGTON, DE, 19802","Match","Exact","800 VANDEVER AVE, WILMINGTON, DE, 19802",187259131,"R"
293450,"800 VARDAMAN ST","RALEIGH","NC",27610,35.7694325090001,-78.619955548,450,"800 VARDAMAN ST, RALEIGH, NC, 27610","Match","Exact","800 VARDAMAN ST, RALEIGH, NC, 27610",72509213,"R"
293451,"800 VETERANS MEMORIAL SW STE 9","MABLETON","GA",30126,33.8186512680001,-84.57796974,451,"800 VETERANS MEMORIAL SW STE 9, MABLETON, GA, 30126","Match","Non_Exact","800 VETERANS MEMORIAL PKWY SW, MABLETON, GA, 30126",17258462,"R"
293452,"800 VIA LUGANO CIRCLE APT 206","BOYNTON BEACH","FL",33436,NA,NA,452,"800 VIA LUGANO CIRCLE APT 206, BOYNTON BEACH, FL, 33436","No_Match",NA,NA,NA,NA
293453,"800 VILLAGE WALK SUITE 192","GUILFORD","CT",6437,41.2880782230001,-72.67483326,453,"800 VILLAGE WALK SUITE 192, GUILFORD, CT, 6437","Match","Exact","800 VILLAGE WALK, GUILFORD, CT, 06437",3746206,"L"
293454,"800 VILLAGE WALK SUITE 208","GUILFORD","CT",6437,41.2880782230001,-72.67483326,454,"800 VILLAGE WALK SUITE 208, GUILFORD, CT, 6437","Match","Exact","800 VILLAGE WALK, GUILFORD, CT, 06437",3746206,"L"
293455,"800 VILLAGE WALK UNIT 171","GUILFORD","CT",6437,41.2880782230001,-72.67483326,455,"800 VILLAGE WALK UNIT 171, GUILFORD, CT, 6437","Match","Exact","800 VILLAGE WALK, GUILFORD, CT, 06437",3746206,"L"
293456,"800 VISTA VALET APT 1835","SAN ANTONIO","FL",78216,NA,NA,456,"800 VISTA VALET APT 1835, SAN ANTONIO, FL, 78216","No_Match",NA,NA,NA,NA
293457,"800 W 1ST ST","TIPTON","IA",52772,41.7658394870001,-91.1373659229999,457,"800 W 1ST ST, TIPTON, IA, 52772","Match","Exact","800 W 1ST ST, TIPTON, IA, 52772",16707152,"L"
293458,"800 W 6TH STREET  STE 1700","LOS ANGELES","CA",90017,34.050157863,-118.257465025,458,"800 W 6TH STREET  STE 1700, LOS ANGELES, CA, 90017","Match","Non_Exact","800 W 6TH ST, LOS ANGELES, CA, 90017",141617183,"L"
293459,"800 W 6TH STREET","RIVIERA BEACH","FL",33404,26.7678897490001,-80.065434408,459,"800 W 6TH STREET, RIVIERA BEACH, FL, 33404","Match","Exact","800 W 6TH ST, RIVIERA BEACH, FL, 33404",115276668,"R"
293460,"800 W AIRPORT FRWY STE 1100","IRVING","TX",75062,NA,NA,460,"800 W AIRPORT FRWY STE 1100, IRVING, TX, 75062","Tie",NA,NA,NA,NA
293461,"800 W CAMPBELL RD STE 21","RICHARDSON","TX",75080,32.978278361,-96.7456283019999,461,"800 W CAMPBELL RD STE 21, RICHARDSON, TX, 75080","Match","Non_Exact","800 W CAMPBELL RD, RICHARDSON, TX, 75080",103274625,"R"
293462,"800 W CAMPBELL RD","RICHARDSON","TX",75080,32.978278361,-96.7456283019999,462,"800 W CAMPBELL RD, RICHARDSON, TX, 75080","Match","Exact","800 W CAMPBELL RD, RICHARDSON, TX, 75080",103274625,"R"
293463,"800 W CHAPEL LN","MIDLAND","MI",48640,43.647963503,-84.2323969669999,463,"800 W CHAPEL LN, MIDLAND, MI, 48640","Match","Exact","800 W CHAPEL LN, MIDLAND, MI, 48640",81193741,"R"
293464,"800 W CHERRY LANE","STATE COLLEGE","PA",16803,40.8001260890001,-77.884510058,464,"800 W CHERRY LANE, STATE COLLEGE, PA, 16803","Match","Exact","800 W CHERRY LN, STATE COLLEGE, PA, 16803",621939703,"L"
293465,"800 W CONGRESS ST STE B","LAFAYETTE","LA",70501,30.2271732610001,-92.0239638909999,465,"800 W CONGRESS ST STE B, LAFAYETTE, LA, 70501","Match","Non_Exact","800 W CONGRESS ST, LAFAYETTE, LA, 70501",85615627,"R"
293466,"800 W FIFTH STREET STE 1","GREENVILLE","NC",27834,35.6123461940001,-77.382080086,466,"800 W FIFTH STREET STE 1, GREENVILLE, NC, 27834","Match","Non_Exact","800 W 5TH ST, GREENVILLE, NC, 27834",80008999,"R"
293467,"800 W FRONTIER LANE","OLATHE","KS",66061,NA,NA,467,"800 W FRONTIER LANE, OLATHE, KS, 66061","No_Match",NA,NA,NA,NA
293468,"800 W HOVEY ST","SPRINGFIELD","MO",65802,37.225097072,-93.2994389,468,"800 W HOVEY ST, SPRINGFIELD, MO, 65802","Match","Exact","800 W HOVEY ST, SPRINGFIELD, MO, 65802",605873370,"L"
293469,"800 W MAIN ST SUITE 1460 A 88","BOISE","ID",83702,43.6156773870001,-116.203570725,469,"800 W MAIN ST SUITE 1460 A 88, BOISE, ID, 83702","Match","Exact","800 MAIN ST, BOISE, ID, 83702",117864721,"R"
293470,"800 W OVERLAND RD","MERIDIAN","ID",83642,43.5901251700001,-116.412605976,470,"800 W OVERLAND RD, MERIDIAN, ID, 83642","Match","Exact","800 W OVERLAND RD, MERIDIAN, ID, 83642",650514538,"L"
293471,"800 W PLILER PRECISE RD","LONGVIEW","TX",75605,32.5699844100001,-94.7659569639999,471,"800 W PLILER PRECISE RD, LONGVIEW, TX, 75605","Match","Exact","800 W PLILER PRECISE RD, LONGVIEW, TX, 75605",647924385,"R"
293472,"800 W UNIVERSITY PKWY","OREM","UT",84058,NA,NA,472,"800 W UNIVERSITY PKWY, OREM, UT, 84058","No_Match",NA,NA,NA,NA
293473,"800 W WILLIS RD SUITE 1053","CHANDLER","AZ",85286,NA,NA,473,"800 W WILLIS RD SUITE 1053, CHANDLER, AZ, 85286","Tie",NA,NA,NA,NA
293474,"800 WALKER STREET","CENTERTON","AR",72719,36.3698614890001,-94.2900938779999,474,"800 WALKER STREET, CENTERTON, AR, 72719","Match","Exact","800 WALKER ST, CENTERTON, AR, 72719",619905419,"R"
293475,"800 WARBLER LANE","AUBREY","TX",76227,33.2225956070001,-96.940174724,475,"800 WARBLER LANE, AUBREY, TX, 76227","Match","Exact","800 WARBLER LN, AUBREY, TX, 76227",218073777,"R"
293476,"800 WASHINGTON AVE N SUITE 315","MINNEAPOLIS","MN",55401,44.9889277010001,-93.2787111229999,476,"800 WASHINGTON AVE N SUITE 315, MINNEAPOLIS, MN, 55401","Match","Exact","800 WASHINGTON AVE N, MINNEAPOLIS, MN, 55401",43631521,"R"
293477,"800 WASHINGTON ST UNIT 1102","DENVER","CO",80203,39.72918528,-104.978757059,477,"800 WASHINGTON ST UNIT 1102, DENVER, CO, 80203","Match","Exact","800 WASHINGTON ST, DENVER, CO, 80203",177331503,"R"
293478,"800 WATERLOO ROAD","WARRENTON","VA",20186,38.719461864,-77.820121968,478,"800 WATERLOO ROAD, WARRENTON, VA, 20186","Match","Non_Exact","800 OLD WATERLOO RD, WARRENTON, VA, 20186",146258341,"R"
293479,"800 WESLEY AVENUE","GREENEVILLE","TN",37743,36.1606178530001,-82.841655814,479,"800 WESLEY AVENUE, GREENEVILLE, TN, 37743","Match","Exact","800 WESLEY AVE, GREENEVILLE, TN, 37743",127753942,"L"
293480,"800 WEST AVE PH 32","MIAMI BEACH","FL",33139,NA,NA,480,"800 WEST AVE PH 32, MIAMI BEACH, FL, 33139","No_Match",NA,NA,NA,NA
293481,"800 WEST AVON ROAD","ROCHESTER HILLS","MI",48307,42.666016358,-83.145505965,481,"800 WEST AVON ROAD, ROCHESTER HILLS, MI, 48307","Match","Exact","800 W AVON RD, ROCHESTER HILLS, MI, 48307",69713521,"R"
293482,"800 WEST BEACH BLVD","GULF SHORES","AL",36542,30.246113871,-87.702214656,482,"800 WEST BEACH BLVD, GULF SHORES, AL, 36542","Match","Non_Exact","800 E BEACH BLVD, GULF SHORES, AL, 36542",131644244,"L"
293483,"800 WEST CAMPBELL RD","RICHARDSON","TX",75082,32.978278361,-96.7456283019999,483,"800 WEST CAMPBELL RD, RICHARDSON, TX, 75082","Match","Non_Exact","800 W CAMPBELL RD, RICHARDSON, TX, 75080",103274625,"R"
293484,"800 WEST CAMPBELL ROAD SG 10","RICHARDSON","TX",75080,32.978278361,-96.7456283019999,484,"800 WEST CAMPBELL ROAD SG 10, RICHARDSON, TX, 75080","Match","Exact","800 W CAMPBELL RD, RICHARDSON, TX, 75080",103274625,"R"
293485,"800 WEST CUMMINGS PARK SUITE 4975","WOBURN","MA",1801,NA,NA,485,"800 WEST CUMMINGS PARK SUITE 4975, WOBURN, MA, 1801","No_Match",NA,NA,NA,NA
293486,"800 WEST ESCALANTE DR   7","VERNAL","UT",84078,40.445613773,-109.542684979,486,"800 WEST ESCALANTE DR   7, VERNAL, UT, 84078","Match","Non_Exact","800 ESCALANTE DR, VERNAL, UT, 84078",640896294,"R"
293487,"800 WEST RENNER RD APARTMENT 3527","RICHARDSON","TX",75080,NA,NA,487,"800 WEST RENNER RD APARTMENT 3527, RICHARDSON, TX, 75080","No_Match",NA,NA,NA,NA
293488,"800 WESTCHESTER AVE N-405","RYE BROOK","NY",10573,41.0080481850001,-73.689357287,488,"800 WESTCHESTER AVE N-405, RYE BROOK, NY, 10573","Match","Non_Exact","800 WESTCHESTER AVE, RYE BROOK, NY, 10573",139812973,"R"
293489,"800 WESTPORT ROAD","KANSAS CITY","MO",64111,39.0512516970001,-94.595575922,489,"800 WESTPORT ROAD, KANSAS CITY, MO, 64111","Match","Exact","800 WESTPORT RD, KANSAS CITY, MO, 64111",91446863,"R"
293490,"800 WESTWOOD DRIVE","GLENWOOD","IL",60425,41.5507228110001,-87.631046398,490,"800 WESTWOOD DRIVE, GLENWOOD, IL, 60425","Match","Exact","800 WESTWOOD DR, GLENWOOD, IL, 60425",111712920,"L"
293491,"800 WILBURN RD","SUN PRAIRIE","WI",53590,NA,NA,491,"800 WILBURN RD, SUN PRAIRIE, WI, 53590","No_Match",NA,NA,NA,NA
293492,"800 WILLIAMS RIVER ROAD","COWEN","WV",26206,38.3917681040001,-80.516645688,492,"800 WILLIAMS RIVER ROAD, COWEN, WV, 26206","Match","Exact","800 WILLIAMS RIVER RD, COWEN, WV, 26206",652042677,"L"
293493,"800 WINDSOR RIDGE","CANTON","GA",30115,34.2383984000001,-84.357263829,493,"800 WINDSOR RIDGE, CANTON, GA, 30115","Match","Exact","800 WINDSOR RIDGE, CANTON, GA, 30115",625713808,"R"
293494,"800 WINSLOW STREET","CROCKETT","CA",94525,38.055385302,-122.21816726,494,"800 WINSLOW STREET, CROCKETT, CA, 94525","Match","Exact","800 WINSLOW ST, CROCKETT, CA, 94525",192034540,"R"
293495,"800-D CENTRAL AVENUE SW","ALBUQUERQUE","NM",87102,NA,NA,495,"800-D CENTRAL AVENUE SW, ALBUQUERQUE, NM, 87102","Tie",NA,NA,NA,NA
293496,"800-U CLANTON RD","CHARLOTTE","NC",28217,35.1983586360001,-80.884108473,496,"800-U CLANTON RD, CHARLOTTE, NC, 28217","Match","Exact","800 CLANTON RD, CHARLOTTE, NC, 28217",70577220,"R"
293497,"800","BURLINGTON","IA",52601,NA,NA,497,"800, BURLINGTON, IA, 52601","No_Match",NA,NA,NA,NA
293498,"800","GREEN BAY","WI",54301,NA,NA,498,"800, GREEN BAY, WI, 54301","No_Match",NA,NA,NA,NA
293499,"800","PENNSAUKEN","NJ",8110,NA,NA,499,"800, PENNSAUKEN, NJ, 8110","No_Match",NA,NA,NA,NA
293500,"8000 75TH STREET NORTH","MAHTOMEDI","MN",55115,NA,NA,500,"8000 75TH STREET NORTH, MAHTOMEDI, MN, 55115","No_Match",NA,NA,NA,NA
