"ID","Address","City","State","Zip"
317001,"947 - 27TH","SEATTLE","WA","98122"
317002,"947 109TH LANE","COON RAPIDS","MN","55448"
317003,"947 27TH AVE","SEATTLE","WA","98122"
317004,"947 39TH COURT","WEST PALM BEACH","FL","33407"
317005,"947 AZALEA ST","LAFAYETTE","LA","70506"
317006,"947 AZURE WAY","LOUISVILLE","CO","80027"
317007,"947 CLEAR CREEK CANYON DRIVE","DIAMOND BAR","CA","91765"
317008,"947 E 223RD STREET","BRONX","NY","10466"
317009,"947 E 80TH ST APT 3","CHICAGO","IL","60619"
317010,"947 E ERMINA AVE","SPOKANE","WA","99207"
317011,"947 E JOHNSTOWN RD UNIT 143","GAHANNA","OH","43230"
317012,"947 E JOHNSTOWN RD/ SUITE 292","GAHANNA","OH","43230"
317013,"947 EAST JOHNSTOWN RD","GAHANNA","OH","43230"
317014,"947 GOSS AVE","LOUISVILLE","KY","40217"
317015,"947 HEMINGWAY DR","CORONA","CA","92880"
317016,"947 JOHNSTOWN ROAD  STE187","COLUMBUS","OH","43230"
317017,"947 LENOX AVENUE UNIT 503","MIAMI BEACH","FL","33139"
317018,"947 LONG IRON DRIVE","CHESTER","CA","96020"
317019,"947 LOTUS TRAIL","MENASHA","WI","53904"
317020,"947 MARCELLA ST","HOUSTON","TX","77091"
317021,"947 N LAFAYETTE ST","DENVER","CO","80218"
317022,"947 N PLUM GROVE RD","SCHAUMBURG","IL","60173"
317023,"947 NORDICA DRIVE","LOS ANGELES","CA","90065"
317024,"947 OLD BAILEY RD","RIDGELAND","SC","29936"
317025,"947 OTTO STATION RD","HERNDON","PA","17830"
317026,"947 S 1000 E","SALT LAKE CITY","UT","84105"
317027,"947 SIERRA PLACE NE","PALM BAY","CA","32907"
317028,"947 SOUT MCCLELLAND STREET","SLC","UT","84105"
317029,"947 SOUTH 1480 WEST","SYRACUSE","UT","84075"
317030,"947 SOUTH BALTIMORE AVENUE","HASTINGS","NE","68901"
317031,"947 SOUTH HOOVER ST STE 408","LOS ANGELES","CA","90006"
317032,"947 SPRINGDALE ST","VIDOR","TX","77662"
317033,"947 W GLADE ROAD","HURST","TX","76054"
317034,"947 WASHINGTON AVE","ORANGE PARK","FL","32065"
317035,"9470 GRIFFIN ROAD","COOPER CITY","FL","33328"
317036,"9470 MICRON  AVENUE","SACRAMENTO","CA","95827"
317037,"9471 BAYMEADOWS RD STE 406","JACKSONVILLE","FL","32256"
317038,"9471 HAVEN AVE SUITE 130","RANCHO CUCAMONGA","CA","91739"
317039,"9471 IRVING AVE N","BROOKLYN PARK","MN","55444"
317040,"9471 PLUM HARBOR CIR","TAMARAC","FL","33321"
317041,"9471 WINLIN DR","ORANGE","TX","77632"
317042,"9472 E COLDWATER RD","DAVISON","MI","48423"
317043,"9472 S MARL LAKE ROAD","POUND","WI","54161"
317044,"9473 E BELLEVUE HWY","EATON RAPIDS","MI","48827"
317045,"9473 KAPLAN AVE","BRENTWOOD","TN","37027"
317046,"9475 ANNAPOLIS ROAD","LANHAM","MD","20706"
317047,"9475 BREWING CLOUD","LAS VEGAS","NV","89148"
317048,"9475 COMPASS POINT DRIVE SOUTH","SAN DIEGO","CA","92126"
317049,"9475 COUNTY ROAD 175","CELINA","TX","75009"
317050,"9475 FENS HOLLOW","LAUREL","MD","20723"
317051,"9475 LA SALLE AVE","LOS ANGELES","CA","90047"
317052,"9475 SE HUNTERS BLUFF AVENUE","HAPPY VALLEY","OR","97086"
317053,"9475 W SAM HOUSTON PKWY S APT 464","HOUSTON","TX","77099"
317054,"9476 LAKEWIND LANE-NEW ADDRESS","ELK GROVE","CA","95758"
317055,"9476 SHORTLEAF COURT","APOPKA","FL","32703"
317056,"9477 SW 226TH TER","CUTLER BAY","FL","33190"
317057,"9478 ABINGDON CT","MANASSAS","VA","20109"
317058,"9478 BOCA GARDENS PKWY APT C","BOCA RATON","FL","33496"
317059,"9478 BRETHREN HEIGHTS ROAD","RODNEY","MI","49342"
317060,"9478 W OLYMPIC BLVD STE 308","BEVERLY HILLS","CA","90212"
317061,"9478 WEST OLYMPIC BOULEVARD","BEVERLY HILLS","CA","90212"
317062,"9478 WINDING WAY","JONESBORO","GA","30238"
317063,"9479 ALCOSTA WAY","SACRAMENTO","CA","95827"
317064,"9479 HADWAY DRIVE","INDIANAPOLIS","IN","46256"
317065,"9479 OWL HILL DRIVE","LAKELAND","TN","38002"
317066,"9479 WILSON BRIDGE DRIVE","SAINT LOUIS","MO","63136"
317067,"948 4 MILE RD APT 3 C","GRAND RAPIDS","MI","49544"
317068,"948 BAKER ST","BAKERSFIELD","CA","93305"
317069,"948 CAMBRIDGE DRIVE","LA PLACE","LA","70068"
317070,"948 CEDAR ST APT C","EL SEGUNDO","CA","90245"
317071,"948 CREEK VIEW LANE","REDLANDS","CA","92373"
317072,"948 E 103RD ST","BROOKLYN","NY","11236"
317073,"948 E 950 N","WHEATFIELD","IN","46392"
317074,"948 EAST UNION STREET","MORGANTON","NC","28655"
317075,"948 EQUESTRIAN DRIVE","MT. PLEASANT","SC","29464"
317076,"948 GOLDENROD DRIVE","LUANA","IA","52156"
317077,"948 LOMA VISTA ST","EL SEGUNDO","CA","90245"
317078,"948 MORGAN TRAIL","VIRGINIA BEACH","VA","23464"
317079,"948 MORPHUS BRIDGE ROAD","WENDELL","NC","27591"
317080,"948 PEARL ST","BOULDER","CO","80302"
317081,"948 REBECCA COVE","SUMTER","SC","29153"
317082,"948 RIVERVIEW DR","FRANKLIN","TN","37064"
317083,"948 SLIVERWOOD DR","COLLEGE PARK","GA","30349"
317084,"948 SPOON AVENUE","LANDISVILLE","PA","17538"
317085,"948 SPRINGBROOK DRIVE","CINCINNATI","OH","45224"
317086,"948 STONE AVENUE","WALDORF","MD","20602"
317087,"948 SUN VALLEY DR","CHEYENNE","WY","82001"
317088,"948 TAYLOR DRIVE","FOLCROFT","PA","19032"
317089,"948 VINERIDGE RUN APT 212","ALTAMONTE SPRINGS","FL","32714"
317090,"948 W 30TH ST","INDIANAPOLIS","IN","46208"
317091,"948 W 59TH PLACE","LOS ANGELES","CA","90044"
317092,"948 W VILLAGE GREEN DR","AVON PARK","FL","33825"
317093,"948 WEST HUNTINGTON DR","ARCADIA","CA","91007"
317094,"9480 HUEBNER RD","SAN ANTONIO","TX","78240"
317095,"9480 HUNTERS CREEK DR","CINCINNATI","OH","45242"
317096,"9480 MAINLANDS BLVD","PINELLAS PARK","FL","33782"
317097,"9480 NE 2ND AVE SUITE 52","MIAMI SHORES","FL","33138"
317098,"9480 SOUTH OLD STATE ROAD","LEWIS CENTER","OH","43035"
317099,"9480 SUNRISE LAKE BLVD   303","SUNRISE","FL","33322"
317100,"9480 W CORCORAN WAY SUITE 200","WASILLA","AK","99623"
317101,"9481 COLLIER AVE","LIVE OAK","CA","95953"
317102,"9481 ENCINO STREET","MIRAMAR","FL","33025"
317103,"9481 EVERGREEN PLACE APT 106","DAVIE","FL","33324"
317104,"9481 GLENN RD","GRASS LAKE","MI","49240"
317105,"9481 HIGHLAND OAK DR UNIT 1213","TAMPA","FL","33647"
317106,"9481 MEADOW WOODS LANE","CENTERVILLE","OH","45458"
317107,"9481 MUROC ST","BELLFLOWER","CA","90706"
317108,"9481 W ATLANTIC AVENUE","DELRAY BEACH","FL","33446"
317109,"9482 HITO CT","SAN DIEGO","CA","92129"
317110,"9482 SHORTLEAF CT","APOPKA","FL","32703"
317111,"9482 VIA ELEGANTE","WELLINGTON","FL","33411"
317112,"9483 E HARBOR HILLS DRIVE","TRAVERSE CITY","MI","49684"
317113,"9483 MULBERRY ROAD","CHESTERLAND","OH","44026"
317114,"9483 PENNYWOOD ROAD","SANTEE","CA","92071"
317115,"9484 BLACK MTN RD STE F","SAN DIEGO","CA","92126"
317116,"9484 LAKEVIEW RD","UNION CITY","GA","30291"
317117,"9484 W FLAMINGO RD 205","LAS VEGAS","NV","89147"
317118,"9485 BARROW CT","COLLEGE STATION","TX","77845"
317119,"9485 LONGSTONE DRIVE","PARKER","CO","80134"
317120,"9485 SANDLER RD","JACKSONVILLE","FL","32222"
317121,"9485 SW 72ND STREET SUITE A270","MIAMI","FL","33173"
317122,"9486 VIRGINIA CENTER BLVD SUITE 106","VIENNA","VA","22181"
317123,"9487 WHITE OAKS CT N","CHAMPLIN","MN","55316"
317124,"9488 ROAD O NW","QUINCY","WA","98848"
317125,"9488 TUNIS DRIVE","HARRISON","OH","45030"
317126,"9489 BYGONE DRIVE89 BYGONE DRIVE","BREWERTON","NY","13029"
317127,"9489 E EATON HWY","MULLIKEN","MI","48861"
317128,"9489 KIRKLEIGH WAY","ELK GROVE","CA","95624"
317129,"949 30TH AVE","SEATTLE","WA","98122"
317130,"949 4TH AVENUE APT 1","BROOKLYN","NY","11232"
317131,"949 ACEQUIA MADRE","SANTA FE","NM","87505"
317132,"949 ASCAN STREET","VALLEY STREAM","NY","11580"
317133,"949 BRIARLEIGH COURT","LAWRENCEVILLE","GA","30044"
317134,"949 BRYANT WAY APT P4","BOWLING GREEN","KY","42103"
317135,"949 CHILTERN ROAD","HILLSBOROUGH","CA","94010"
317136,"949 CHURCH LANE","YEADON","PA","19050"
317137,"949 CLARKE COURT","E PALO ALTO","CA","94303"
317138,"949 COOPER CT","BUFFALO GROVE","IL","60089"
317139,"949 COUNTY ROAD 42","HELENA","OH","43435"
317140,"949 COUNTY ROUTE 53","OSWEGO","NY","13126"
317141,"949 E 1300 NORTH RD","TOWER HILL","IL","62571"
317142,"949 E NOLEMAN","CENTRALIA","IL","62801"
317143,"949 E WESTBROOK STREET","WEST POINT","MS","39773"
317144,"949 EAST 78TH STREET","BROOKLYN","NY","11236"
317145,"949 HILLTOP PARK CT","APOPKA","FL","32703"
317146,"949 HUTTON ST","WINSTON SALEM","NC","27101"
317147,"949 LEYDEN STREET","DENVER","CO","80220"
317148,"949 LYM DRIVE","VIRGINIA BEACH","VA","23464"
317149,"949 MORNING SIDE ST","JACKSON","MS","39202"
317150,"949 N 6TH STREET","GROVER BEACH","CA","93433"
317151,"949 N KINGS RD UNIT 212","WEST HOLLYWOOD","CA","90069"
317152,"949 NEW BEDFORD DR","MARIETTA","GA","30068"
317153,"949 PENNSYLVANIA AVE - 401","MIAMI BEACH","FL","33139"
317154,"949 ROUTE 100B","MORETOWN","VT","05660"
317155,"949 SEQUOIA STREET","YORK","PA","17404"
317156,"949 SETON DRIVE APT 3","CUMBERLAND","MD","21502"
317157,"949 TERRA VILLA ROAD","DOVER","AR","72837"
317158,"949 TRAIL COURT","EAGAN","MN","55123"
317159,"949 VIRGINIA CIR NE","ATLANTA","GA","30306"
317160,"949 WALNUT GROVE RD","ESSEX","MD","21221"
317161,"949 WALNUTWOOD ROAD","COCKEYSVILLE","MD","21030"
317162,"949 WINDMILL PKWY","EVANS","GA","30809"
317163,"9490 BANKHEAD DR","MANASSAS","VA","20110"
317164,"9490 CARNES CROSSING CIRCLE","JONESBORO","GA","30236"
317165,"9490 FM 1960 BYPASS W STE 200-165","HUMBLE","TX","77338"
317166,"9490 LAKE CREST DR","WHITMORE LAKE","MI","48189"
317167,"9490 ST RT 170","ROGERS","OH","44455"
317168,"94907 OLD FARM LANE","NORTH BEND","OR","97459"
317169,"9491 RIDGESIDE DR","MENTOR","OH","44060"
317170,"9491 W DELPHI PIKE","CONVERSE","IN","46919"
317171,"9492 DEER RIDGE","MENTOR","OH","44060"
317172,"9492 FM 51","ERA","TX","76238"
317173,"9493 E TRAILSIDE VW","SCOTTSDALE","AZ","85255"
317174,"9494 39TH ST SW","TAYLOR","ND","58656"
317175,"9494 CARROLL CANYON RD 27","SAN DIEGO","CA","92126"
317176,"9494 E REDFIELD ROAD 1088","SCOTTSDALE","AZ","85260"
317177,"9494 HUMBLE WESTFIELD ROAD 2411","HUMBLE","TX","77338"
317178,"9494 LOBELIA RD","HILLSBORO","WV","24946"
317179,"9494 SOUTHWEST FREEWAY","HOUSTON","TX","77074"
317180,"9494 SOUTHWEST FWY STE 500","HOUSTON","TX","77074"
317181,"9494 TURTLE RD","ORANGE","TX","77632"
317182,"9495 HEMINGWAY HWY","KINGSTREE","SC","30319"
317183,"9495 PERIDOT AVE","HESPERIA","CA","92344"
317184,"9495 STRAIGHT FORK ROAD","WEST HAMLIN","WV","25571"
317185,"9495 SW 72 STREET STE B230","MIAMI","FL","33173"
317186,"9495 THUNDER RIDGE","CENTERVILLE","OH","45458"
317187,"9496 WATERFALL RD","BRENTWOOD","TN","37027"
317188,"94968 OAKLEA DR","JUNCTION CITY","OR","97448"
317189,"9497 READING RD APT 9","CINCINNATI","OH","45215"
317190,"9498 ALTERNATE A1A","LAKE PARK","FL","33403"
317191,"9498 CARPERS PIKE","YELLOW SPRING","WV","26865"
317192,"9498 LANTERN WAY","DAYTON","OH","45458"
317193,"9498 W TITAN ROAD","LITTLETON","CO","80125"
317194,"9499 BLUFF LAKE ST","ZEELAND","MI","49464"
317195,"9499 COLLINS AVE APT 706","SURFSIDE","FL","33154"
317196,"9499 COLUMBIA ROAD","LOVELAND","OH","45140"
317197,"95  ADELPHI ST","BROOKLYN","NY","11205"
317198,"95 1ST AVENUE","MILNOR","ND","58060"
317199,"95 7TH STREET SUITE 243","SAN FRANCISCO","CA","94103"
317200,"95 8TH APT 1106","ATLANTA","GA","30309"
317201,"95 8TH STREET","MAYSVILLE","NC","28555"
317202,"95 ABERDEEN COURT","HALEDON","NJ","07508"
317203,"95 ALLENS CREEK ROAD SUITE 110","ROCHESTER","NY","14618"
317204,"95 ALTAIR DRIVE","TURNERSVILLE","NJ","08012"
317205,"95 ARCHAMBAULT AVE","WEST WARWICK","RI","02893"
317206,"95 ASHLEY ST","SPARTANBURG","SC","29303"
317207,"95 AUBURN OAK RD WEST","JACKSONVILLE","FL","32218"
317208,"95 AUTUMN ROAD","WRENTHAM","MA","02093"
317209,"95 AVIATION WAY","FREDERICKSBURG","VA","22406"
317210,"95 BACHELOR ROAD","COVINGTON","GA","30016"
317211,"95 BEACH STREET","SHARON","MA","02067"
317212,"95 BEECH STREET","TEWKSBURY","MA","01876"
317213,"95 BELMONT DRIVE","CHRISTIANSBURG","VA","24073"
317214,"95 BERGEN AVE","KEARNY","NJ","07032"
317215,"95 BLISS PLACE","CORINTH","VT","05039"
317216,"95 BLUEBERRY RIDGE","PITTSBORO","NC","27312"
317217,"95 BRAYER STREET","ROCHESTER","NY","14606"
317218,"95 BRIANS WAY","SOMERSET","KY","42501"
317219,"95 BURWELL ROAD","NEW HARTFORD","CT","06057"
317220,"95 CALDWELL AVE","SADDLE BROOK","NJ","07663"
317221,"95 CAPTAIN ANTHONY WHITE LANE","GEORGETOWN","SC","29440"
317222,"95 CHAPEL ROAD","MAHWAH","NJ","07430"
317223,"95 CHERRY STREET","GLOUCESTER","MA","01930"
317224,"95 CHESTATEE SPRINGS RIDGE","DAHLONEGA","GA","30533"
317225,"95 CHESTER AVENUE","WATERBURY","CT","06704"
317226,"95 CHRISTOPHER ST 9N","NEW YORK","NY","10014"
317227,"95 CHRISTOPHER STREET - 4G","NEW YORK","NY","10014"
317228,"95 CLEARFALLS CT","NEW HOPE","PA","18938"
317229,"95 CLINTON AE","ASHEVILLE","NC","28806"
317230,"95 COLLINWOOD ROAD","MAPLEWOOD","NJ","07040"
317231,"95 CONNARD DRIVE","EASTON","PA","18042"
317232,"95 COUNTRY CLUB RD","NEW CANAAN","CT","06840"
317233,"95 COUNTY ROAD 2201","BOONEVILLE","MS","38829"
317234,"95 CRABTREE LANE","JACKSON","WY","83001"
317235,"95 CROSSWYNDS DRIVE","SAUNDERSTOWN","RI","02874"
317236,"95 CROTON AVENUE","OSSINING","NY","10562"
317237,"95 DALLAS 227","SPARKMAN","AR","71763"
317238,"95 DENVER AVE","BRIDGEPORT","CT","06605"
317239,"95 DORSEY CT","RIVERDALE","GA","30274"
317240,"95 DOSS SHAVER ROAD","UNION","WV","24983"
317241,"95 DOUBLOON DR","CAPE HAZE","FL","33946"
317242,"95 DOYLE AVE","PROVIDENCE","RI","02906"
317243,"95 E 900 S","KAYSVILLE","UT","84037"
317244,"95 E MAIN STREET SUITE 4","LEAD","SD","57754"
317245,"95 EAST 7720 SOUTH","MIDVALE","UT","84047"
317246,"95 EASTERN PKWY APT 5D","BROOKLYN","NY","11238"
317247,"95 EVANS ST","BINGHAMTON","NY","13903"
317248,"95 EVERGLADES","HATTIESBURG","MS","39402"
317249,"95 FAIRLAND DRIVE","FAIRFIELD","CT","06825"
317250,"95 FIR ST","PARK FOREST","IL","60466"
317251,"95 FITCH STREET","NORTH HAVEN","CT","06473"
317252,"95 FLORA CIRCLE","LEHIGHTON","PA","18235"
317253,"95 FOUNTAIN STREET  PO BOX 3049","NEW HAVEN","CT","06515"
317254,"95 FRANKLIN AVENUE","STATEN ISLAND","NY","10301"
317255,"95 FRANKLIN HEIGHTS","ROYSTON","GA","30662"
317256,"95 GROVER STREET","FRIDAY HARBOR","WA","98250"
317257,"95 HALE STREET","BEVERLY","MA","01915"
317258,"95 HIGHWOOD DRIVE","LIBBY","MT","59923"
317259,"95 HOLLOW RD","REINHOLDS","PA","17569"
317260,"95 HORATIO STREET 412","NEW YORK","NY","10014"
317261,"95 HUBBARD LANE","HAWTHORN WOODS","IL","60047"
317262,"95 KENNETH STREET","MATTESON","IL","60443"
317263,"95 KEY WEST LOOP","CHICO","CA","95973"
317264,"95 KIRCHENBERG RD","FREDERICKSBURG","TX","78624"
317265,"95 KNOLLWOOD RD","RHINEBECK","NY","12572"
317266,"95 KUBOL DRIVE","LAWRENCEVILLE","GA","30046"
317267,"95 LAKESHORE BLVD","PORTWENTWORTH","GA","31407"
317268,"95 LAMBERTA FARM DR","SMYRNA","DE","19977"
317269,"95 LANE 200A LAKE CHARLES W","ANGOLA","IN","46703"
317270,"95 LAWRENCEVILLE-PENNINGTON RD","LAWRENCEVILLE","NJ","08648"
317271,"95 LIBERTY STREET","COLUMBUS","OH","43215"
317272,"95 LITTLE BARLEY LN","GRAYSON","GA","30017"
317273,"95 LYNN ST","MECHANICSBURG","OH","43044"
317274,"95 LYNN STREET","PEABODY","MA","01960"
317275,"95 MAHALANI ST STE 22A","WAILUKU","HI","96793"
317276,"95 MAHAREEN DRIVE","MEHERRIN","VA","23954"
317277,"95 MARCO LN","DAYTON","OH","45458"
317278,"95 MARY LANE STE 301","GLEN BURNIE","MD","21061"
317279,"95 MERRICK WAY THIRD FLOOR","CORAL GABLES","FL","33134"
317280,"95 MILL ST UNIT 77","SPRINGFIELD","MA","01108"
317281,"95 MITCHELL HAMMOCK ROAD","OVIEDO","FL","32765"
317282,"95 MONTAGUE ROAD","LEVERETT","MA","01054"
317283,"95 MULBERRY DR APT 212","N KINGSTOWN","RI","02852"
317284,"95 N 2ND AVE","BEECH GROVE","IN","46107"
317285,"95 N HIGHLAND DR","CEDAR CITY","UT","84721"
317286,"95 N MEREDITH AVE STE 1","PASADENA","CA","91106"
317287,"95 N MERKLE ROAD","COLUMBUS","OH","43209"
317288,"95 N OAKS PLAZA","SAINT LOUIS","MO","63121"
317289,"95 NEEDHAM ROAD","HYDE PARK","MA","02136"
317290,"95 NORTH MAIN STREET SUITE 405","HARRISONBURG","VA","22802"
317291,"95 NORTH RIDGE ROAD","THOMASVILLE","PA","17364"
317292,"95 NORTHDALE CT","LOUISBURG","NC","27549"
317293,"95 OAK","RIVER ROUGE","MI","48218"
317294,"95 OAKRIDGE DRIVE","PARKERSBURG","WV","26104"
317295,"95 OLIVE CIR","LEBANON","TN","37087"
317296,"95 ORCHARD MEADOWS DR","SMITHFIELD","RI","02917"
317297,"95 ORENSE WAY","OVIEDO","FL","32765"
317298,"95 OXFORD AVENUE","JERSEY CITY","NJ","07304"
317299,"95 PARK AVENUE","NEW LONDON","OH","44851"
317300,"95 PARK AVENUE","PORT WASHINGTON","NY","11050"
317301,"95 PARKVIEW DRIVE","AVON","CT","06001"
317302,"95 PIPETOWN HILL RD","NANUET","NY","10954"
317303,"95 PRESCOTT ST C1","WORCESTER","MA","01605"
317304,"95 PROSPECT ROAD","EAST HAVEN","CT","06512"
317305,"95 PROSPECT STREET","MIDLAND PARK","NJ","07432"
317306,"95 PULASKI STREET 3RD FLOOR","BROOKLYN","NY","11206"
317307,"95 RAMONCITA RD","LOS LUNAS","NM","87031"
317308,"95 RANCHO MANOR DR","RENO","NV","89509"
317309,"95 RD 20","CODY","WY","82414"
317310,"95 RIVER RD","MASHPEE","MA","02649"
317311,"95 ROGER ROAD","HAMDEN","CT","06517"
317312,"95 ROSLYN FOREST LN","CHARLOTTESVILLE","VA","22901"
317313,"95 S  ESSEX AVENUE","ORANGE","NJ","07050"
317314,"95 S MAIN ST","ANNABELLA","UT","84711"
317315,"95 S MAIN ST","BRIGHAM CITY","UT","84302"
317316,"95 S MAIN ST","WILKES BARRE","PA","18707"
317317,"95 S PERRY STREET","MEDORA","IN","47260"
317318,"95 SAGINAW CIR","CHEROKEE VILLAGE","AR","72529"
317319,"95 SAINT JOHNS PLACE","BROOKLYN","NY","11217"
317320,"95 SAVANNAH RD","RICHMOND HILL","GA","31324"
317321,"95 SCHUYLER AVENUE  PO BOX 336","CRAGSMOOR","NY","12420"
317322,"95 SENIOR CENTER DRIVE","BLAIRSVILLE","GA","30512"
317323,"95 SKILLMAN STREET APT 5C","BROOKLYN","NY","11205"
317324,"95 SOUTH 7TH STREET","NEWARK","NJ","07107"
317325,"95 SOUTH ESSEX AVENUE APT 205","ORANGE","NJ","07050"
317326,"95 STARBOARD DR","KIMBERLING CITY","MO","65686"
317327,"95 STRAW AVENUE","FLORENCE","MA","01062"
317328,"95 SUTHERLAND RD APT 2B","BRIGHTON","MA","02135"
317329,"95 TAUNTON ROAD","MEDFORD","NJ","08055"
317330,"95 THREE RIVERS DRIVE","BRIDGEWATER","MA","02324"
317331,"95 TREE RD","CENTEREACH","NY","11720"
317332,"95 UNDERPASS ROAD","SUTTON","VT","05867"
317333,"95 UNION BRICK RD","BLAIRSTOWN","NJ","07825"
317334,"95 UNIVERSITY AVE APT 2116","WESTWOOD","MA","02090"
317335,"95 VICTORIA LN","FROSTBURG","MD","21532"
317336,"95 W 100 S STE 340","LOGAN","UT","84321"
317337,"95 W MAIN ST SUITE 5-293","CHESTER","NJ","07930"
317338,"95 WAIHEE VALLEY ROAD","WAILUKU","HI","96793"
317339,"95 WALL STREET  APT 2206","NEW YORK","NY","10005"
317340,"95 WEST MAIN ST","CHESTER","NJ","07930"
317341,"95 WESTERN AVE","COLDWATER","MI","49036"
317342,"95 WHEELER HILL DR","DURHAM","CT","06422"
317343,"95 WHIRLAWAY DRIVE","ELLENWOOD","GA","30294"
317344,"95 WHITE BRIDGE RD        SUITE 207","NASHVILLE","TN","37205"
317345,"95 WILLOW STREET","NEW BEDFORD","MA","02740"
317346,"95 WOMPATUCK RD","HINGHAM","MA","02043"
317347,"95 WORK ST APT 4J","NEW YORK","NY","10013"
317348,"95-082 WAIPUKA STREET","MILILANI","HI","96789"
317349,"95-1016 MELEKAI STREET","MILILANI","HI","96789"
317350,"95-1039 KAMALINO STREET","MILILANI","HI","96789"
317351,"95-1042 PUNEKI ST","MILILANI","HI","96789"
317352,"95-1059 HOALIA STREET","MILILANI","HI","96789"
317353,"95-1107 KOOLANI DRIVE APT 228","MILILANI","HI","96789"
317354,"95-117 RAVINE AVE APT 3C/VC","YONKERS","NY","10701"
317355,"95-117 RAVINE AVE STE 3C/VC","YONKERS","NY","10701"
317356,"95-117 RAVINE AVENUE SUITE 15 4C","YONKERS","NY","10701"
317357,"95-1200 MEHEULA PARKWAY","MILILANI","HI","96789"
317358,"95-1319 WIKAO STREET","MILILANI","HI","96789"
317359,"95-17 67TH AVENUE","REGO PARK","NY","11374"
317360,"95-203 HALOKU PL","MILILANI","HI","96789"
317361,"95-2039 WAIKALANI PLACE C-103","MILILANI","HI","96789"
317362,"95-205 HULUMOA PLACE","MILILANI","HI","96789"
317363,"95-227 WAIKALANI DR APT 804","MILILANI","HI","96789"
317364,"95-230 AUHAELE LOOP","MILILANI","HI","96789"
317365,"95-313 WAIANUHEA PLACE","MILILANI","HI","96789"
317366,"95-40 150TH STREET","JAMAICA","NY","11435"
317367,"95-441 KUAHELANI AVENUE  APT 411","MILILANI","HI","96789"
317368,"95-6363 MAKAI STREET","NAALEHU","HI","96772"
317369,"95-814 PAIKAUHALE ST","MILILANI","HI","96789"
317370,"95","WOLCOTT","CT","06716"
317371,"950 10TH STREET","BERTHOUD","CO","80513"
317372,"950 1ST AVENUE","CUMBERLAND","WI","54829"
317373,"950 22ND STREET NORTH SUITE 715","BIRMINGHAM","AL","35203"
317374,"950 28TH ST SE STE 105 E","GRAND RAPIDS","MI","49508"
317375,"950 28TH STREET APT 223","BOULDER","CO","80303"
317376,"950 3RD AVENUE 25TH FLOOR","NEW YORK","NY","10022"
317377,"950 5TH AVE","NEW KENSINGTON","PA","15068"
317378,"950 61ST ST   STUDIO B","OAKLAND","CA","94608"
317379,"950 ALYSHEBA RD 208","SHAKOPEE","MN","55379"
317380,"950 BAYHILL WAY","SPARKS","NV","89436"
317381,"950 BEAUMONT AVE 204","BEAUMONT","CA","92223"
317382,"950 BOYLSTON STREET SUITE 104","NEWTON","MA","02461"
317383,"950 BRICKELL BAY DR APT 4500","MIAMI","FL","33131"
317384,"950 BRICKELL BAY DR APT 5011","MIAMI","FL","33131"
317385,"950 BRICKELL BAY DR","MIAMI","FL","33131"
317386,"950 BRITTANY PARK DR APT 320","ANTIOCH","TN","37013"
317387,"950 CAMPBELL DR","NORTH JUDSON","IN","46366"
317388,"950 CARTER OAK DR","CALABASAS","CA","91302"
317389,"950 CHIPETA AVENUE","GRAND JUNCTION","CO","81501"
317390,"950 COBBLESTONE LANE","GARNER","IA","50438"
317391,"950 COMMERCE ST","FORT WORTH","TX","76102"
317392,"950 CORBETT AVENUE UNIT 1","SAN FRANCISCO","CA","94131"
317393,"950 COUNTRY CHARM CIRCLE","OVIEDO","FL","32765"
317394,"950 COUNTY ROAD 10 SUITE 206","SPRING LAKE PARK","MN","55432"
317395,"950 CR 459","TROY","TX","76579"
317396,"950 DANNON VW SW STE 4201","ATLANTA","GA","30331"
317397,"950 DUNCAN RD","SOUTH DAYTONA","FL","32119"
317398,"950 E 1ST STREET","DOUGLASS","KS","67039"
317399,"950 E BENNETT AVE","GLENDORA","CA","91741"
317400,"950 E CIRCLE DR","WHITEFISH BAY","WI","53217"
317401,"950 E GLENGARRY CIRCLE","BLOOMFIELD HILLS","MI","48301"
317402,"950 E PACES FERRY RD NE  STE 1625","ATLANTA","GA","30326"
317403,"950 E PALMDALE BLVD STE B","PALMDALE","CA","93550"
317404,"950 EAGLES LANDING PARKWAY 188","STOCKBRIDGE","GA","30281"
317405,"950 EAGLES LANDING PARKWAY 271","STOCKBRIDGE","GA","30281"
317406,"950 EAGLES LANDING PARKWAY 611","STOCKBRIDGE","GA","30281"
317407,"950 EAGLES LANDING PARKWAY NUM 476","STOCKBRIDGE","GA","30281"
317408,"950 EAGLES LANDING PARKWAY NUM 787","STOCKBRIDGE","GA","30281"
317409,"950 EAGLES LANDING PARKWAY STE 462","STOCKBRIDGE","GA","30281"
317410,"950 EAGLES LANDING PARKWAY STE 637","STOCKBRIDGE","GA","30281"
317411,"950 EAGLES LANDING PARKWAY SUITE558","STOCKBRIDGE","GA","30281"
317412,"950 EAGLES LANDING PARKWAY","STOCKBRIDGE","GA","30281"
317413,"950 EAGLES LANDING PKWY 196","STOCKBRIDGE","GA","30281"
317414,"950 EAGLES LANDING PKWY PMB 347","STOCKBRIDGE","GA","30281"
317415,"950 EAGLES LANDING PKWY STE 485","STOCKBRIDGE","GA","30281"
317416,"950 EAGLES LANDING PKWY STE 701","STOCKBRIDGE","GA","30281"
317417,"950 EAGLES LANDING PKWY SUITE 142","STOCKBRIDGE","GA","30281"
317418,"950 EAGLES LANDING PKWY SUITE 203","STOCKBRIDGE","GA","30281"
317419,"950 EAGLES LANDING PKWY SUITE 219","STOCKBRIDGE","GA","30281"
317420,"950 EAGLES LANDING PKWY SUITE 247","STOCKBRIDGE","GA","30281"
317421,"950 EAGLES LANDING PKWY SUITE 315","STOCKBRIDGE","GA","30281"
317422,"950 EAGLES LANDING PKWY SUITE 327","STOCKBRIDGE","GA","30281"
317423,"950 EAGLES LANDING PKWY SUITE 551","STOCKBRIDGE","GA","30281"
317424,"950 EAGLES LANDING PKWY SUITE 578","STOCKBRIDGE","GA","30281"
317425,"950 EAGLES LANDING PKWY SUITE 603","STOCKBRIDGE","GA","30281"
317426,"950 EAGLES LANDING PKWY SUITE 617","STOCKBRIDGE","GA","30281"
317427,"950 EAGLES LANDING PKWY SUITE 618","STOCKBRIDGE","GA","30281"
317428,"950 EAGLES LANDING PKWY UNIT 881","STOCKBRIDGE","GA","30281"
317429,"950 EAGLES LANDING SUITE 471","STOCKBRIDGE","GA","30218"
317430,"950 EAST 4TH WALK 11B","NEW YORK","NY","10009"
317431,"950 EAST LUGONIA AVE","REDLANDS","CA","92374"
317432,"950 ELKINS LAKE","HUNTSVILLE","TX","77340"
317433,"950 ELM AVE","DICKINSON","ND","58601"
317434,"950 EVENING ST","WORTHINGTON","OH","43085"
317435,"950 FIXLER RD","WADSWORTH","OH","44281"
317436,"950 FLOWER ST APT 414","LOS ANGELES","CA","90015"
317437,"950 GRAYBAR LANE","NASHVILLE","TN","37204"
317438,"950 HERRINGTON ROAD STE C-191","LAWRENCEVILLE","GA","30044"
317439,"950 HERRINGTON SUITE C UNIT 108","LAWRENCEVILLE","GA","30044"
317440,"950 HIGHLAND CIRCLE","NOKOMIS","FL","34275"
317441,"950 HILLTOP DRIVE","WEATHERFORD","TX","76086"
317442,"950 HOLMES ST   APT210","KANSAS CITY","MO","64106"
317443,"950 HOMER AVENUE","KANSAS CITY","KS","66101"
317444,"950 HOPE STREET","VALE","OR","97918"
317445,"950 HOPEWELL LN","APPLE VALLEY","MN","55124"
317446,"950 HOSPITAL WAY SUITE B","POCATELLO","ID","83201"
317447,"950 IDAHO STREET","ELKO","NV","89801"
317448,"950 KEYNOTE CIRCLE - SUITE 10","CLEVELAND","OH","44131"
317449,"950 LIBERTY CHURCH ROAD","LORIS","SC","29569"
317450,"950 MAIN ST","COVENTRY","CT","06238"
317451,"950 MANOR LANE","BAY SHORE","NY","11706"
317452,"950 MASSACHUSETTES AVE","BERTHOUD","CO","80513"
317453,"950 MISSOURI AVENUE 2199","EAST SAINT LOUIS","IL","62201"
317454,"950 MONTEREY WAY APT A1","LAWRENCE","KS","66049"
317455,"950 MORRIS RD","KENT","OH","44240"
317456,"950 MT MORIAH","MEMPHIS","TN","38117"
317457,"950 N DUESENBERG DR 6214","ONTARIO","CA","91764"
317458,"950 N GREENFIELD ROAD","GILBERT","AZ","85234"
317459,"950 N KINGS RD UNIT 139","WEST HOLLYWOOD","CA","90069"
317460,"950 N MERIDIAN ST SUITE 500","INDIANAPOLIS","IN","46204"
317461,"950 N SAINT LOUIS AVENUE","CHICAGO","IL","60651"
317462,"950 N SPRING ST","INDEPENDENCE","MO","64050"
317463,"950 N WASHINGTON ST","ALEXANDRIA","VA","22314"
317464,"950 N WASHINGTON STREET","ALEXANDRIA","VA","22314"
317465,"950 NORTH WASHINGTON STREET STE 321","ALEXANDRIA","VA","22314"
317466,"950 NORTH WASHINGTON STREET","ALEXANDRIA","VA","22314"
317467,"950 ORANGE AVE","DAYTONA","FL","32129"
317468,"950 PACIFIC AVE SUITE 300","TACOMA","WA","98402"
317469,"950 PARK TERRACE","LAKEWOOD","NJ","08701"
317470,"950 PENINSULA CORPORATE CIR  2000","BOCA RATON","FL","33487"
317471,"950 PINOAK LANE","CANTONMENT","FL","32533"
317472,"950 PUNCHEON BRANCH RD","MINOR HILL","TN","38473"
317473,"950 QUAIL KNOLL ROAD","FALLBROOK","CA","92028"
317474,"950 REUNION PLACE","ATLANTA","GA","30331"
317475,"950 RYANWOOD DR","WEST PLAM BEACH","FL","33413"
317476,"950 S BASCOM AVE SUITE 1113","SAN JOSE","CA","95128"
317477,"950 S BOWSHIER","DECATUR","IL","62522"
317478,"950 S CHERRY ST SUITE 300","DENVER","CO","80246"
317479,"950 S CIMARRON WAY APT NUM I-204","AURORA","CO","80012"
317480,"950 S PINE ISLAND ROAD SUITE A150","PLANTATION","FL","33324"
317481,"950 S TAMIAMI TRAIL","SARASOTA","FL","34236"
317482,"950 S WALNUT ST","LAS CRUCES","NM","88001"
317483,"950 SAINT HILAIRE RD","YAKIMA","WA","98901"
317484,"950 SALEM AVENUE","HILLSIDE","NJ","07205"
317485,"950 SE 3RD STREET APT 4","BEND","OR","97702"
317486,"950 SE OAK AVE","ROSEBURG","OR","97470"
317487,"950 SE THIRD ST STE 4","BEND","OR","97702"
317488,"950 SEVENTH STREET","PORT ALLEN","LA","70767"
317489,"950 SLOW CREEK CT","BOILING SPRINGS","SC","29316"
317490,"950 SOUTH COAST DRIVE SUITE 204","COSTA MESA","CA","92626"
317491,"950 SOUTH FAIRFAX AVE","LOS ANGELES","CA","90036"
317492,"950 SOUTH FAIRFAX AVENUE UNIT 215","LOS ANGELES","CA","90036"
317493,"950 STEEPLE RUN","LAWRENCEVILLE","GA","30043"
317494,"950 SUSSEX ST","BRIDGEWATER","NJ","08807"
317495,"950 THARP ROAD SUITE 1000","YUBA CITY","CA","95993"
317496,"950 THIRD AVENUE 32ND FLOOR","NEW YORK","NY","10022"
317497,"950 TOMATO SPRINGS","IRVINE","CA","92618"
317498,"950 TOWNSHIP RD 1172","TIFFIN","OH","44883"
317499,"950 TRUMBLE ST","CHASKA","MN","55318"
317500,"950 UPPER GULPH ROAD","WAYNE","PA","19087"
