"ID","Address","City","State","Zip"
253001,"5991 NW 15TH ST APT 1","SUNRISE","FL","33313"
253002,"5991 SHORT STREET","YOBA LINDA","CA","92886"
253003,"5991 SPRING MEADOW LANE","SEYMOR","IN","47274"
253004,"5992 JAKE SEARS CIRCLE","VIRGINIA BEACH","VA","23464"
253005,"5992 ROUTE 378","CENTER VALLEY","PA","18034"
253006,"5992 WOODVIEW LANE","MILFORD","OH","45150"
253007,"5993 BRIERLY RIDGE DRIVE","CINCINNATI","OH","45257"
253008,"5993 NW 57TH CT APT 106","TAMARAC","FL","33319"
253009,"5994 DAYBREAK DR","BARTLETT","TN","38135"
253010,"5994 MARIAVILLE RD","SCHENECTADY","NY","12306"
253011,"5994 MONT BLANC PL NW","ISSAQUAH","WA","98027"
253012,"5994 WHITE PINE","BEDFORD HTS","OH","44146"
253013,"59940 ONAGA TRAIL","JOSHUA TREE","CA","92252"
253014,"5995 28TH AVE N","ST PETERSBURG","FL","33710"
253015,"5995 E ILIFF APT 202","DENVER","CO","80222"
253016,"5995 EBERLY DRIVE","MECHANICSBURG","PA","17050"
253017,"5995 FAIRFIELD RD SUITE 5","OXFORD","OH","45056"
253018,"5995 N 78TH ST UNIT 2031","SCOTTSDALE","AZ","85250"
253019,"5995 ROLLING RIDGE DR","KANNAPOLIS","NC","28081"
253020,"5995 SUMMERSIDE DR 797306","DALLAS","TX","75248"
253021,"5995 SUMMERSIDE DR 797306","DALLAS","TX","75379"
253022,"5995 SUNSET DR","SOUTH MIAMI","FL","33143"
253023,"5995 WANDERLING LANE","CINCINNATI","OH","45237"
253024,"5996 OLD TULLAHOMA RD","WINCHESTER","TN","37398"
253025,"5996 RICHMAN ROAD","SPENCER","OH","44275"
253026,"5997 LAKE O SPRINGS AVENUE NW","CANTON","OH","44718"
253027,"5997 MOUNT LEWIS LANE","FONTANA","CA","92336"
253028,"5997 NW 56TH PL","TAMARAC","FL","33319"
253029,"5997 TAHITI DRIVE","CINCINNATI","OH","45224"
253030,"5998 ELMORE RD","SOUTHAVEN","MS","38671"
253031,"5998 LOMA PRIETA DRIVE","SAN JOSE","CA","95123"
253032,"5999 BEAR CREEK APT 311","BEDFORD HEIGHTS","OH","44146"
253033,"5999 CUSTER ROAD STE 110-353","FRISCO","TX","75035"
253034,"5999 CUSTER ROAD STE 110-521","FRISCO","TX","75035"
253035,"5999 CUSTER ROAD SUITE 100","FRISCO","TX","75035"
253036,"5999 EAGLE POINT","PORTSMOUTH","VA","23703"
253037,"5999 MEDORA DR","INDIANAPOLIS","IN","46228"
253038,"5999 SOUTH PARK AVENUE SUITE 146","HAMBURG","NY","14075"
253039,"5999 WATSON DRIVE","FORT COLLINS","CO","80528"
253040,"5999 WOODVIEW WAY","HILLIARD","OH","43026"
253041,"59990 279TH ST","LITCHFIELD","MN","55355"
253042,"59999 PATTON HOLLOW RD","CAMBRIDGE","OH","43725"
253043,"5A ADAMS CT","SOUTH DEERFIELD","MA","01373"
253044,"5A AMATO DRIVE","SOUTH WINDSOR","CT","06074"
253045,"5A CAMBRIDGE DRIVE","MONROE","NJ","08831"
253046,"5A GRAVES STREET","SOUTH DEERFIELD","MA","01373"
253047,"5A HILLTOP DRIVE","JERICHO","VT","05465"
253048,"5A WHEELER PLACE","PALM COAST","FL","32164"
253049,"5C NICOLE CIRCLE","SMITHFIELD","RI","02917"
253050,"5F TANGLEWOOD DRIVE","READING","PA","19607"
253051,"5N REGENT STREET SUITE 502","LIVINGSTON","NJ","07039"
253052,"5N494 HAZELWOOD TRAIL","SAINT CHARLES","IL","60175"
253053,"5N791 ROCHEFORT LN","WAYNE","IL","60184"
253054,"5N996 DUNHAM ROAD","WAYNE","IL","60184"
253055,"5O25 SHADOW LAKE DR","BAKERSFIELD","CA","93313"
253056,"6 01 SW 10TH AVE","AMARILLO","TX","79101"
253057,"6 2ND STREET SW","WEDOWEE","AL","36278"
253058,"6 32ND AVE","ISLE OF PALMS","SC","29451"
253059,"6 6HELEN STREET","STANHOPE","NJ","07874"
253060,"6 76 E TUCMAN ST","KUNA","ID","83634"
253061,"6 A DOCK","SAUSALITO","CA","94965"
253062,"6 ABBOTT ROAD","WELLESLEY HILLS","MA","02481"
253063,"6 ABILENE LANE","MANALAPAN","NJ","07726"
253064,"6 ALDEN PLACE APT 3","BRONXVILLE","NY","10708"
253065,"6 ALDGATE DRIVE WEST","MANHASSET","NY","11030"
253066,"6 ALEXIS LANE","EDISON","NJ","08820"
253067,"6 ALVIN COURT","EAST BRUNSWICK","NJ","08816"
253068,"6 AMSTERDAM RD","YARDVILLE","NJ","08620"
253069,"6 ANNABELLA AVE","HAVERTOWN","PA","19083"
253070,"6 APPLE HILL RD","STURBRIDGE","MA","01566"
253071,"6 APPLE TREE LANE","WARREN","NJ","07059"
253072,"6 ARABIAN COURT","MANSFIELD","TX","76063"
253073,"6 ARLINGTON STREET NUMBER 12","CAMBRIDGE","MA","02140"
253074,"6 ASH ST","HOLLIS","NH","03049"
253075,"6 ASHBOURNE WAY","ST. CHARLES","MO","63301"
253076,"6 ASPEN COURT","SOUTH BRUNSWICK","NJ","08852"
253077,"6 AVALON AVENUE","PINE BLUFF","AR","71601"
253078,"6 AVERY STREET APT 2R","MYSTIC","CT","06355"
253079,"6 AVON COURT","ALISO VIEJO","CA","92656"
253080,"6 AZALEA DRIVE","WINDSOR","PA","17366"
253081,"6 BABLER MEADOWS COURT","WILDWOOD","MO","63038"
253082,"6 BALDWIN LANE","WILLINGBORO","NJ","08046"
253083,"6 BALLYMENA CT","CATONSVILLE","MD","21228"
253084,"6 BANE LANE","NEW EGYPT","NJ","08533"
253085,"6 BANE LN","NEW EGYPT","NJ","08533"
253086,"6 BARBARA ELLEN PL","LOVETTSVILLE","VA","20180"
253087,"6 BARLOVENTO COURT","NEWPORT BEACH","CA","92663"
253088,"6 BARRETT RD","LEXINGTON","MA","02421"
253089,"6 BARRINGTON DRIVE","WEST WINDSOR","NJ","08550"
253090,"6 BARRINGTON PLACE","DURHAM","NC","27705"
253091,"6 BAYSHORE DR","BATTLE CREEK","MI","49015"
253092,"6 BAYVIEW TERRACE","NEW FAIRFIELD","CT","06812"
253093,"6 BEAS LANE","HYDE PARK","NY","12538"
253094,"6 BEDFORD GREEN","SOUTH BURLINGTON","VT","05403"
253095,"6 BEECH CT","EAST BRUNSWICK","NJ","08816"
253096,"6 BEECHWOOD CIRCLE","CHADDS","PA","19317"
253097,"6 BEL AIRE DRIVE","SPRINGFIELD","IL","62703"
253098,"6 BELLE OAKS COURT","ELGIN","SC","29045"
253099,"6 BELLMORE CT","DURHAM","NC","27703"
253100,"6 BELLWOOD DR","HOLLAND","MI","49423"
253101,"6 BELNEL RD","HYDE PARK","MA","02136"
253102,"6 BENTON BROOK PLACE","DENMARK","ME","04022"
253103,"6 BERKLEY COURT","NORTH AUGUSTA","SC","29841"
253104,"6 BERWICK PLACE","MELROSE","MA","02176"
253105,"6 BICENTENNIAL COURT","SICKLERVILLE","NJ","08081"
253106,"6 BIGELOW STREET-SUITE 202","CAMBRIDGE","MA","02139"
253107,"6 BILLS WAY","LANDENBERG","PA","19350"
253108,"6 BIRCH LN","IPSWICH","MA","01938"
253109,"6 BIRCHKILL LANE","TROY","NY","12180"
253110,"6 BIRNAM WOOD","SAN ANTONIO","TX","78248"
253111,"6 BLESSED CT","STAFFORD","VA","22554"
253112,"6 BOBWHITE TRAIL","GALES FERRY","CT","06335"
253113,"6 BORDEAUX LANE","HOLMDEL","NJ","07733"
253114,"6 BOW CREEK DR","MOUNTAIN TOP","PA","18707"
253115,"6 BOWERY 6TH FLOOR","NEW YORK","NY","10013"
253116,"6 BRAUN COURT","VILLA HILLS","KY","41017"
253117,"6 BRENT POINT ROAD","STAFFORD","VA","22554"
253118,"6 BRIARWOOD ST","SHAWNEE","OK","74804"
253119,"6 BRIARWOOD WAY","BELMONT","CA","94002"
253120,"6 BRISTOL RD","PEABODY","MA","01960"
253121,"6 BRITTANY COURT","OWINGS MILLS","MD","21117"
253122,"6 BROOK LANE","PALOS PARK","IL","60464"
253123,"6 BROOKDALE GARDENS APT 6","BLOOMFIELD","NJ","07003"
253124,"6 BROOKSIDE AVE","BRIDGEPORT","OH","43912"
253125,"6 BROOKVIEW CIRCLE","RANDOLPH","NJ","07869"
253126,"6 BROOKVIEW RD","BOONTON  TWP","NJ","07005"
253127,"6 BRYAN AVE","NAPA","CA","94558"
253128,"6 BURGUNDY CIR","BOILING SPRINGS","PA","17007"
253129,"6 BURTONS DRIVE","SOUTHAMPTON","NJ","08088"
253130,"6 BYRD ROAD","NORWALK","CT","06850"
253131,"6 CABOT DRIVE","CHESTERBROOK","PA","19087"
253132,"6 CALLE CUMBRE","PLACITAS","NM","87043"
253133,"6 CALLE HATILLO","SAN JUAN","PR","00918"
253134,"6 CANDON COURT","COLUMBIA","SC","29229"
253135,"6 CANESSA STREET","RANDOLPH","MA","02368"
253136,"6 CANOBIEOLA ROAD","METHUEN","MA","01844"
253137,"6 CANTERBURY ROAD","RINGWOOD","NJ","07456"
253138,"6 CAPE COD CT","LITTLE ROCK","AR","72212"
253139,"6 CAPITOL AVE","DELMAR","NY","12054"
253140,"6 CAPTAIN STANLEY RD","SOUTH YARMOUTH","MA","02664"
253141,"6 CAPTAIN THEALE RD","BEDFORD","NY","10506"
253142,"6 CAPTAINS COURT UNIT 3","MADISON","WI","53719"
253143,"6 CARI CT","DEKALB","IL","60115"
253144,"6 CARMEL WOODS","LAGUNA NIGUEL","CA","92677"
253145,"6 CARRIAGE DRIVE","EAST GREENBUSH","NY","12061"
253146,"6 CARRIAGE DRIVE","NORWALK","CT","06850"
253147,"6 CARRIAGE HILL CIRCLE","CASSELBERRY","FL","32707"
253148,"6 CASSANDRA LANE","MILFORD","MA","01757"
253149,"6 CATALPA CT","MARRERO","LA","70072"
253150,"6 CEDAR RIDGE ROAD","EAST LYME","CT","06333"
253151,"6 CENTERPOINTE DRIVE SUITE 700","LA PALMA","CA","90623"
253152,"6 CHARLES PLACE","BAYVILLE","NY","11709"
253153,"6 CHRISTIE COURT SE","MARIETTA","GA","30060"
253154,"6 CHRISTIE CT SE","MARIETTA","GA","30060"
253155,"6 CHURCH RD","ARDMORE","PA","19003"
253156,"6 CIDER MILL COURT","PLEASANT VALLEY","NY","12569"
253157,"6 CLARION AVENUE","PITTSBURGH","PA","15202"
253158,"6 CLARK AVENUE","THURMONT","MD","21788"
253159,"6 CLARK FORK CT","PLAINS","MT","59859"
253160,"6 CLASON POINT LANE APT 6B","BRONX","NY","10473"
253161,"6 CLAUROME PLACE","FREEPORT","NY","11520"
253162,"6 CLEARVIEW XING","TAMAQUA","PA","18252"
253163,"6 CLIFTWOOD PLACE","KINGS PARK","NY","11754"
253164,"6 CLOVER COURT","SAINT CLOUD","MN","56301"
253165,"6 CLOVERDALE BOULEVARD","SEARCY","AR","72143"
253166,"6 CLUB DRIVE","NEW ROCHELLE","NY","10805"
253167,"6 CLYDE CT","BERGENFIELD","NJ","07621"
253168,"6 COACH LANE","WESTPORT","CT","06880"
253169,"6 COLEBROOK BLVD UNIT 5","WHITMAN","MA","02382"
253170,"6 COLLINS HILL RD","LYTLE","TX","78052"
253171,"6 COLONIAL SPRINGS RD  938","WYANDANCH","NY","11798"
253172,"6 COLTS RUN ROAD","PRINCETON","NJ","08540"
253173,"6 COLUMBUS ROAD","MOUNT VERNON","OH","43050"
253174,"6 COMMONWEALTH AVENUE","MIDDLETOWN","NY","10940"
253175,"6 CONCOURSE PARKWAY STE 600","ATLANTA","GA","30328"
253176,"6 CONCOURSE PKWY","ATLANTA","GA","30328"
253177,"6 CONNOR CT","HAMILTON","NJ","08690"
253178,"6 CONRAD COURT","GALES FERRY","CT","06335"
253179,"6 COOK STREET NUM 9","BILLERICA","MA","01821"
253180,"6 COPPERHILL COURT","COLUMBIA","SC","29229"
253181,"6 COPPERSMITH WAY","BOSTON","MA","02128"
253182,"6 COPSEWOOD AVE","BUFFALO","NY","14215"
253183,"6 CORAL COURT","LITTLE ROCK","AR","72212"
253184,"6 CORONA","IRVINE","CA","92603"
253185,"6 COUNTRY KNOLL","CLINTONDALE","NY","12515"
253186,"6 COUNTRYSIDE DRIVE","GREENWICH","OH","44837"
253187,"6 COURTHOUSE BUTTE RD","SEDONA","AZ","86351"
253188,"6 COURTHOUSE WAY","JONESBORO","GA","30236"
253189,"6 CREEK HILL LANE","ROCHESTER","NY","14625"
253190,"6 CREEKSIDE DRIVE","ENOLA","PA","17025"
253191,"6 CREST ROAD","SAN ANSELMO","CA","94960"
253192,"6 CRESTED CLOUD CT","THE WOODLANDS","TX","77380"
253193,"6 CRICKET LANE","DOBBS FERRY","NY","10522"
253194,"6 CUMBERLAND AVENUE","PORTLAND","ME","04101"
253195,"6 CUNNINGHAM CIRCLE","RANDOLPH","MA","02368"
253196,"6 CYCLAMEN COURT WEST","HOMOSASSA","FL","34446"
253197,"6 DALE AVE","SYOSSET","NY","11791"
253198,"6 DANIELLE COURT","MAYS LANDING","NJ","08330"
253199,"6 DANIELLE LANE","MONROE TOWNSHIP","NJ","08831"
253200,"6 DANIELLE LANE","MONROE","NJ","08831"
253201,"6 DARBY RD","HATTIESBURG","MS","39402"
253202,"6 DARBY TERRACE","LIVINGSTON","NJ","07039"
253203,"6 DAVID PATTERSON RD","MOSELLE","MS","39459"
253204,"6 DAVIS DRIVE","DURHAM","NC","27709"
253205,"6 DE FOREST","IRVINE","CA","92620"
253206,"6 DEER RUN DR","BIDDEFORD","ME","04005"
253207,"6 DEER RUN TRAIL NW","ROME","GA","30165"
253208,"6 DEL PRETE DRIVE","HINGHAM","MA","02043"
253209,"6 DELGREEN CT","NOTTINGHAM","MD","21236"
253210,"6 DELORES DRIVE","FENTON","MO","63026"
253211,"6 DENNY ROAD","WILMINGTON","DE","19809"
253212,"6 DENTON ROAD","WELLESLEY","MA","02482"
253213,"6 DEODAR","IRVINE","CA","92604"
253214,"6 DICKINSON DR STE 110","CHADDS FORD","PA","19317"
253215,"6 DOLBOW AVENUE","PENNSVILLE","NJ","08070"
253216,"6 DOMBIE CIRCLE","THOUSAND OAKS","CA","91360"
253217,"6 DONELLAN RD","SCARSDALE","NY","10583"
253218,"6 DRAPER ROAD","WAYLAND","MA","01778"
253219,"6 DUNNERDALE ROAD","MORRIS PLAINS","NJ","07950"
253220,"6 DUNSTON LANE","BELLA VISTA","AR","72714"
253221,"6 DUSTY LANE","ORANGE","MA","01364"
253222,"6 DUSTY TRAIL","SARATOGA SPRINGS","NY","12866"
253223,"6 DUVAL ROAD","DUDLEY","MA","01571"
253224,"6 E EAGER ST","BALTIMORE","MD","21202"
253225,"6 E MAPLE ST","STOCKTON","CA","95204"
253226,"6 EAST EAGER STREET","BALTIMORE","MD","21202"
253227,"6 EAST JEFFERSON RD","PITTSFORD","NY","14534"
253228,"6 EAST LAFAYETTE AVENUE","BALTIMORE","MD","21202"
253229,"6 EAST MAIN STREET","DANVILLE","OH","43014"
253230,"6 EAST MAIN STREET","RICHWOOD","WV","26261"
253231,"6 EAST SECOND STREET","NEW YORK","NY","10003"
253232,"6 EASTERN AVENUE","ANNAPOLIS","MD","21403"
253233,"6 EDEN AVE","OAKLYN","NJ","08107"
253234,"6 EFSTIS CT","WEST ORANGE","NJ","07052"
253235,"6 EGRET LN","MARLBORO","NJ","07746"
253236,"6 ELIJAH STREET","WOBURN","MA","01801"
253237,"6 ELIOT RD","NORTHBOROUGH","MA","01532"
253238,"6 ELLINGWOOD STREET","BOSTON","MA","02120"
253239,"6 ELM AVE","SAN DIEGO","CA","91932"
253240,"6 ELM STREEY","WINDSOR","CO","80550"
253241,"6 EMERSON ROAD","SEVERNA PARK","MD","21146"
253242,"6 EN PROVENCE","CHERRY HILL","NJ","08003"
253243,"6 ESTATE CARLTON","FREDERIKSTED","VI","00840"
253244,"6 EVERGREEN LANE","PALMYRA","VA","22963"
253245,"6 EXECUTIVE DRIVE STE 120","FARMINGTON","CT","06032"
253246,"6 EYNSFORD ROAD","LIVERPOOL","NY","13088"
253247,"6 FAIRFAX COURT","FLEMINGTON","NJ","08822"
253248,"6 FAIRLAND FARMS ROAD","KINDERHOOK","NY","12106"
253249,"6 FAIRWAY DRIVE","MAUMELLE","AR","72113"
253250,"6 FAIRWAY ROAD","JACKSONVILLE BEACH","FL","32250"
253251,"6 FALCONBRIDGE CT","NORTH POTOMAC","MD","20878"
253252,"6 FAREWAY DRIVE","NORTHFIELD","MN","55057"
253253,"6 FARWELL  ST APPT 1","WORCESTER","MA","01605"
253254,"6 FAWN VIEW LN","FLORENCE","OR","97439"
253255,"6 FENCE ROW DRIVE","FAIRFIELD","CT","06824"
253256,"6 FENNO ST","ROXBURY","MA","02119"
253257,"6 FENTON STREET","RYE","NY","10580"
253258,"6 FERGUSON COURT","MARLTON","NJ","08053"
253259,"6 FERNLY PARK","FAIRPORT","NY","14450"
253260,"6 FIREBRICK ROAD","SHARON","MA","02067"
253261,"6 FLORAL AVENUE","DOVER","NH","03820"
253262,"6 FLORENCE RD","ROCHESTER","IL","62563"
253263,"6 FORBELL DRIVE","NORWALK","CT","06850"
253264,"6 FORBES RD","HUDSON","MA","01749"
253265,"6 FORDHAM HILL OVAL - APT 14B","BRONX","NY","10468"
253266,"6 FOREST FERN COURT","COLUMBIA","SC","29212"
253267,"6 FOREST HILL RD","NORTH SMITHFIELD","RI","02896"
253268,"6 FORTUNE DRIVE STUITE 103","BILLERICA","MA","01821"
253269,"6 FOSTER STREET","WAKEFIELD","MA","01880"
253270,"6 FOWLER STREET","PROVIDENCE","RI","02909"
253271,"6 FOWLES POINT ROAD","WESTPORT ISLAND","ME","04578"
253272,"6 FRANCES STREET","PORTLAND","ME","04102"
253273,"6 FRANCONIA STREET","WORCESTER","MA","01602"
253274,"6 FRENCH LANE","GREENVILLE","SC","29605"
253275,"6 FROST STREET","GREENVILLE","SC","29611"
253276,"6 FULLER DRIVE","NORWALK","OH","44857"
253277,"6 FULTON STREET","NEWBURYPORT","MA","01950"
253278,"6 GALLOPING BROOK RD","ALLENTOWN","NJ","08501"
253279,"6 GARRISON CIRCLE","NORTHBOROUGH","MA","01532"
253280,"6 GASKIN DR","BURLINGTON TWP","NJ","08016"
253281,"6 GAZELLE PLACE","NEW CASTLE","DE","19720"
253282,"6 GILMORE DR","CHEEKTOWAGA","NY","14225"
253283,"6 GLEN ORA DR","BEDFORD","MA","01730"
253284,"6 GLOEDE CT","PARSIPPANY","NJ","07064"
253285,"6 GOODYEAR STREET","BEVERLY","MA","01915"
253286,"6 GRAND PARK AVE","SCARSDALE","NY","10583"
253287,"6 GRAND STREET","HIGHLAND LAKES","NJ","07422"
253288,"6 GRANITE ROAD","EAST WINDSOR","NJ","08520"
253289,"6 GREENWAY CIRCLE","SACRAMENTO","CA","95831"
253290,"6 GREENWOOD DR","EAST GREENBUSH","NY","12061"
253291,"6 GROVE STREET","WANAQUE","NJ","07465"
253292,"6 GULICK RD","WHITEHOUSE STATION","NJ","08889"
253293,"6 GUNNER LN","WILLINGBORO","NJ","08046"
253294,"6 HABITAT WAY","LOS LUNAS","NM","87031"
253295,"6 HALF MILE COMMON","WESTPORT","CT","06880"
253296,"6 HAMPSHIRE PLACE","CLIFTON PARK","NY","12065"
253297,"6 HANDEL ROAD","WESTERLY","RI","02891"
253298,"6 HARDY ST","WILLIAMSTON","SC","29697"
253299,"6 HARRIMAN RD","PLAINFIELD","NH","03781"
253300,"6 HARTLEY AVENUE","MOUNT VERMON","NY","10550"
253301,"6 HATHAWAY SHORE ESTATES","ST ALBANS","VT","05478"
253302,"6 HAWLEY TERRACE","YONKERS","NY","10701"
253303,"6 HAZELNUT ROAD","WESTPORT","CT","06880"
253304,"6 HEATHER HILL WAY","BRIDGEWATER","NJ","08807"
253305,"6 HELEN CT","VALLEY STREAM","NY","11581"
253306,"6 HENRY CLAY CT","WEST GREENWICH","RI","02817"
253307,"6 HERON CIRCLE","POQUOSON","VA","23662"
253308,"6 HIDDEN VALLEY ROAD","POMONA","CA","91766"
253309,"6 HIGH KNOLL DRIVE","SOUTH BERWICK","ME","03908"
253310,"6 HIGH STREET","TURNERS FALLS","MA","01376"
253311,"6 HIGHLAND RIDGE ROAD","BARRINGTON","NH","03825"
253312,"6 HIGHPOINT CIR UNIT 706","QUICY","MA","02169"
253313,"6 HOLIDAY ROAD","WAYLAND","MA","01778"
253314,"6 HOLSTONE LANE","WILLINGBORO","NJ","08046"
253315,"6 HOLT STREET","CONCORD","NH","03301"
253316,"6 HOLYOKE AVENUE","RUMFORD","ME","04276"
253317,"6 HOMESTEAD DR APT H","OWINGS MILLS","MD","21117"
253318,"6 HONEYSUCKLE DRIVE","MECHANICSBURG","PA","17050"
253319,"6 HOWARD IRELAND DRIVE","ATTLEBORO","MA","02703"
253320,"6 HUNTINGTON RIDGE ROAD","WALLINGFORD","CT","06492"
253321,"6 HUNTLY DRIVE","WEST WINDSOR","NJ","08550"
253322,"6 IRISH SETTLEMENT ROAD","UNDERHILL","VT","05489"
253323,"6 IROQUOIS RD","MIDDLEFIELD","CT","06455"
253324,"6 ISABELLA LANE","SACO","ME","04072"
253325,"6 IVORYTON CT","MONTGOMERY VILLAGE","MD","20886"
253326,"6 JAIMIE ANN DRIVE","RUTLAND","MA","01543"
253327,"6 JAMES ST","MALDEN","MA","02148"
253328,"6 JASON LANE","MAMARONECK","NY","10543"
253329,"6 JEAN COURT","WEST WINDSOR","NJ","08550"
253330,"6 JEAN ROAD","MANSFIELD","MA","02048"
253331,"6 JERUSALEM MILL COURT","KINGSVILLE","MD","21087"
253332,"6 JESSICA LANE","DERRY","NH","03038"
253333,"6 JESSIE ROAD","EASTPORT","NY","11941"
253334,"6 JESSIE ST","NEW FAIRFIELD","CT","06812"
253335,"6 JOHN ST APT B","NORTH CHELMSFORD","MA","01863"
253336,"6 JOHN STREET","WEST HURLEY","NY","12491"
253337,"6 JOHNATHAN DRIVE","LAFAYETTE","NJ","07848"
253338,"6 JOYCE ROAD","WAYLAND","MA","01778"
253339,"6 JUNIPER DRIVE","WHITEHOUSE STATION","NJ","08889"
253340,"6 KANSAS DR","AFTON","OK","74331"
253341,"6 KATES GLEN","PAOLI","PA","19301"
253342,"6 KAYAJAN AVE","BUZZARDS BAY","MA","02532"
253343,"6 KEARNEY CT","IOWA CITY","IA","52246"
253344,"6 KEMPTON STREET","BOSTON","MA","02115"
253345,"6 KENILWORTH LANE","RYE","NY","10580"
253346,"6 KENILWORTH LN","ALISO VIEJO","CA","92656"
253347,"6 KILBURN LANE","DURHAM","NC","27704"
253348,"6 KING CT","NEWFIELD","NJ","08344"
253349,"6 KINGMAKER COURT","COLUMBIA","SC","29223"
253350,"6 KINN STREET","BLUE POINT","NY","11715"
253351,"6 KIRBY ROAD","ASHEVILLE","NC","28806"
253352,"6 KNOLLWOOD AVENUE","MADISON","NJ","07940"
253353,"6 LACIE COURT","SAVANNAH","GA","31410"
253354,"6 LAGOON COURT","COPIAGUE","NY","11726"
253355,"6 LAKE DRIVE","BROOKLYN","NY","10511"
253356,"6 LAKE FOREST DR","MORGANS POINT RESORT","TX","76513"
253357,"6 LAKE ROAD","NEWTON","NJ","07860"
253358,"6 LAKE STREET BOX 184","OWEGO","NY","13827"
253359,"6 LAKEVIEW CIRCLE","BERWYN","PA","19312"
253360,"6 LAKEVIEW DR","CHERRY HILL","NJ","08003"
253361,"6 LAKEVIEW DRIVE W","EGG HARBOR TWP","NJ","08234"
253362,"6 LANG STREET","LAKEVILLE","MA","02347"
253363,"6 LARCHWOOD CT","NEWTON","IA","50208"
253364,"6 LEAWOOD AVE","WHEELING","WV","26003"
253365,"6 LEE LANE","WELDON","NC","27890"
253366,"6 LELIA STREET","PITTSBURGH","PA","15211"
253367,"6 LEONARD LANE","HOLBROOK","MA","02343"
253368,"6 LETCHWORTH LANE","AVONDALE","PA","19311"
253369,"6 LETTS POINT LANDING","POQUOSON","VA","23662"
253370,"6 LEVERIDGE LANE","POMPTON PLAINS","NJ","07444"
253371,"6 LEWIN AVENUE","LAKEWOOD","NJ","08701"
253372,"6 LEXINGTON COURT","OCEAN VIEW","NJ","08230"
253373,"6 LIBERTY SQUARE 2270","BOSTON","MA","02109"
253374,"6 LIBERTY SQUARE NUMBER 2133","BOSTON","MA","02109"
253375,"6 LIBERTY SQUARE PMB 409","BOSTON","MA","02109"
253376,"6 LIBERTY SQUARE STE 292","BOSTON","MA","02109"
253377,"6 LIBERTY SQUARE-6119","BOSTON","MA","02109"
253378,"6 LIBERTY SQUARE","BOSTON","MA","02109"
253379,"6 LILAC LANE","BORDENTOWN","NJ","08505"
253380,"6 LILAC PLACE","HOWELL","NJ","07702"
253381,"6 LINCOLN AVE","WEST ORANGE","NJ","07052"
253382,"6 LINCOLN DR","ACTON","MA","01720"
253383,"6 LINCOLN STREET","PLYMOUTH","MA","02360"
253384,"6 LINDA WAY","CASTLETON-ON-HUDSON","NY","12033"
253385,"6 LIPPINCOTT DRIVE","BURLINGTON","NJ","08016"
253386,"6 LITCHULT LANE","MAHWAH","NJ","07430"
253387,"6 LITTLE FORK LANE","JEANNETTE","PA","15644"
253388,"6 LOCH LANE","GREENWICH","CT","06830"
253389,"6 LOCKSLEY AVE APT 2C","SAN FRANCISCO","CA","94122"
253390,"6 LONDONDERRY","WYNNE","AR","72396"
253391,"6 LONG BRANCH AVENUE","OCEANPORT","NJ","07757"
253392,"6 LOS CRUCES TRAIL","BIG SPRING","TX","79720"
253393,"6 LOUIS WIDES DRIVE","MURPHYSBORO","IL","62966"
253394,"6 LUDLOW CT","HILLSBOROUGH","NJ","08844"
253395,"6 LYNAM ROAD","SUMTER","SC","29154"
253396,"6 LYNDE STREET  D-LL","SALEM","MA","01970"
253397,"6 LYNN DRIVE","BEDFORD","NH","03110"
253398,"6 MADISON ST","EVERETT","WA","98203"
253399,"6 MAGNOLIA LANE","SMITHTOWN","NY","11787"
253400,"6 MAHLERT COURT","AUBURN","MA","01501"
253401,"6 MAIN STREET SOUTH","ASHLAND","MS","38603"
253402,"6 MAIN STREET","MIDDLEBURY","VT","05753"
253403,"6 MAIN STREET","NEW DURHAM","NH","03855"
253404,"6 MALLORYS COURT","SAVANNAH","GA","31419"
253405,"6 MANNER PLACE","HUNTINGTON STATION","NY","11746"
253406,"6 MAOLIS ROAD","NAHANT","MA","01908"
253407,"6 MAPLE AVENUE","ANDREWS","SC","29510"
253408,"6 MARKET SQUARE","PITTSBURGH","PA","15222"
253409,"6 MARQUIS COURT","STAFFORD","VA","22554"
253410,"6 MARY ROSE WAY","PEABODY","MA","01960"
253411,"6 MASSASOIT AVENUE","NORTON","MA","02766"
253412,"6 MAYFAIR DR","RUMFORD","RI","02916"
253413,"6 MEADOW BROOK PL","THE WOODLANDS","TX","77382"
253414,"6 MECO CIRCLE","WILMINGTON","DE","19804"
253415,"6 MELIA WAY","HUNTINGTON STATION","NY","11746"
253416,"6 MELODY LANE","AMITYVILLE","NY","11701"
253417,"6 MERIDAN COURT","PRINCETON JUNCTION","NJ","08550"
253418,"6 MERRILL CORNER ROAD","BROWNFIELD","ME","04010"
253419,"6 MERRY RD","NEWARK","DE","19713"
253420,"6 MIKE CIRCLE","MILFORD","MA","01757"
253421,"6 MILL CREEK DRIVE","HATTIESBURG","MS","39401"
253422,"6 MILLINGTON ROAD","PLEASANT BRIDGE","MI","48069"
253423,"6 MISTLETOE CT","SAVANNAH","GA","31419"
253424,"6 MISTY LAKE CT","EGG HARBOR TOWNSHIP","NJ","08234"
253425,"6 MOLOKAI LANE","FAIRHOPE","AL","36532"
253426,"6 MONROE ROAD","WELLESLEY","MA","02481"
253427,"6 MONTE ALTO PL","SANTA FE","NM","87508"
253428,"6 MONTERREY COURT","NERLIN","NJ","08009"
253429,"6 MONTGOMERY VILLAGE AVE STE 200","GAITHERSBURG","MD","20879"
253430,"6 MOORE CIR","DANVERS","MA","01923"
253431,"6 MOOSE LANE","HALLOWELL","ME","04347"
253432,"6 MORGAN DRIVE","HUDSON FALLS","NY","12839"
253433,"6 MORNINGVIEW CIRCLE","LAKE OSWEGO","OR","97035"
253434,"6 MORRO BAY DR","MANVEL","TX","77578"
253435,"6 MOUNTAIN RD UNIT 204","MONROE","NY","10950"
253436,"6 MOUNTAIN WAY SOUTH","WEST ORANGE","NJ","07052"
253437,"6 MOUNTAINVIEW DR","ORONO","ME","04473"
253438,"6 MULBERRY STREET","RIDGEFIELD","CT","06877"
253439,"6 MURRAY HILL RD","SCARSDALE","NY","10583"
253440,"6 MYRTLE WALK","SAVANNAH","GA","31419"
253441,"6 N ACACIA DR","HAWTHORN WDS","IL","60047"
253442,"6 N INDEPENDENCE BLVD","NEW CASTLE","DE","19720"
253443,"6 N MAIN","COLMAN","SD","57017"
253444,"6 N PARK AVENUE","NORRISTOWN","PA","19403"
253445,"6 N RIDGE ROAD","DENVILLE","NJ","07834"
253446,"6 N SCHOOL ST","LODI","CA","95240"
253447,"6 NANCY DRIVE","BRICK","NJ","08723"
253448,"6 NATHAN ST","WAYNESVILLE","MO","65583"
253449,"6 NE 101ST PL","KANSAS CITY","MO","64155"
253450,"6 NEWBURY DRIVE","PEMBROKE","MA","02359"
253451,"6 NORMANDY WAY","NASHUA","NH","03063"
253452,"6 NORTH STAR DRIVE","SEYMOUR","CT","06483"
253453,"6 NORTH STREET","GOSHEN","CT","06756"
253454,"6 NORTH TRACE COURT","COLUMBIA","SC","29223"
253455,"6 NORTH WASHINGTON STREET","ATHENS","NY","12015"
253456,"6 NOTTINGHAM WAY","RANDOLPH","NJ","07869"
253457,"6 NURKO ROAD","ROOSEVELT","NJ","08555"
253458,"6 OAK AVE","ASHBURNHAM","MA","01430"
253459,"6 OAK COVE COURT","COLUMBIA","SC","29229"
253460,"6 OAKTREE ROAD","HUMMELSTOWN","PA","17036"
253461,"6 OAKWOOD COURT","LEWES","DE","19958"
253462,"6 OCEAN VIEW CIRCLE","SACO","ME","04072"
253463,"6 OFFICE PARK CIRCLE SUITE 309","BIRMINGHAM","AL","35223"
253464,"6 OKESON STREET","PLAINSBORO","NJ","08536"
253465,"6 OLD BRIDGE PLAZA","OLD BRIDGE","NJ","08857"
253466,"6 OLD FARM RD","GREAT NECK","NY","11020"
253467,"6 OLD MARLBORO RD","EAST HAMPTON","CT","06424"
253468,"6 OLD STATE RD","JONESTOWN","PA","17038"
253469,"6 OLD TRAIL RAOD","HUNTINGTON","WV","25704"
253470,"6 OLNEY AVE","SPRINGFIELD","MA","01119"
253471,"6 ORANGEWOOD DRIVE","STOUGHTON","MA","02072"
253472,"6 ORCHARD HILL DRIVE","WOOD RIVER","IL","62095"
253473,"6 OREGON ST","ROCHESTER","NY","14605"
253474,"6 OVERHILL DRIVE","NORTH BRUNSWICK","NJ","08902"
253475,"6 OVERLOOK DRIVE","CHILLICOTHE","OH","45601"
253476,"6 OVERLOOK DRIVE","MANSFIELD CENTER","CT","06250"
253477,"6 OXFORD CIRCLE","TROY","NY","12180"
253478,"6 OXFORD PLACE","UPPER CHICHESTER","PA","19014"
253479,"6 OXFORD","CLARENDON HILLS","IL","60514"
253480,"6 PARK DR","SHAMONG","NJ","08088"
253481,"6 PARK DRIVE","HOLDREGE","NE","68949"
253482,"6 PARKER AVENUE","MAPLEWOOD","NJ","07040"
253483,"6 PARTRIDGE DRIVE","WOLFEBORO","NH","03894"
253484,"6 PATCH RD","BINGHATON","NY","13905"
253485,"6 PEARL STREET APT 201","BIDDEFORD","ME","04005"
253486,"6 PENNOCK DRIVE","GARNET VALLEY","PA","19060"
253487,"6 PEPPER CREEK DRIVE","NOVATO","CA","94947"
253488,"6 PERCIVAL STREET","BOSTON","MA","02122"
253489,"6 PERKINS STREET","WORCESTER","MA","01605"
253490,"6 PETTICOAT LANE","TROY","NY","12180"
253491,"6 PHILIPS MANOR ROAD","TOWACO","NJ","07082"
253492,"6 PINE COURT","HILTON HEAD ISLAND","SC","29928"
253493,"6 PINE HILL BLVD","MASHPEE","MA","02649"
253494,"6 PINE STREET","MIDDLETOWN","CT","06457"
253495,"6 PINE TREE VLG APT 201","PAINTED POST","NY","14870"
253496,"6 PINELEA COURT","PIKESVILLE","MD","21208"
253497,"6 PINNACLE AT","TICONDEROGA","NY","12883"
253498,"6 PINZKA PLACE","MULLICA HILL","NJ","08062"
253499,"6 PLAYA VERDE","TIBURON","CA","94920"
253500,"6 PLEASANT COVE ROAD","PHIPPSBURG","ME","04562"
