"ID","Address","City","State","Zip"
149501,"276 NORTH EL CAMINO REAL  98","OCEANSIDE","CA","92058"
149502,"276 NORTHWEST ROAD","WESTFIELD","MA","01085"
149503,"276 NW 79 TH TERR","MARGATE","FL","33063"
149504,"276 PARK AVENUE SOUTH 3RD FLOOR","NEW YORK","NY","10010"
149505,"276 PEAK PL","SOMERSET","NJ","08873"
149506,"276 QUAIL RANCH DRIVE","HENDERSON","NV","89015"
149507,"276 RADER RD","LONGVIEW","TX","75603"
149508,"276 RICHMOND HILL DRIVE","WEST HELENA","AK","72342"
149509,"276 RIDGEWOOD AVENUE","PATERSON","NJ","07504"
149510,"276 ROBINSON AVENUE","BRONX","NY","10465"
149511,"276 S RAMPART BLVD","LOS ANGELES","CA","90057"
149512,"276 S SHIRLEY STREET","PONTIAC","MI","48342"
149513,"276 SADDLE DRIVE","BETHLEHEM","PA","18020"
149514,"276 SHANKLIN ROAD","BEAUFORT","SC","29906"
149515,"276 SPRINGFIELD ROAD","NATCHEZ","MS","39120"
149516,"276 SPRUCE DRIVE","CHATHAM","LA","71226"
149517,"276 STARK STREET","CINCINNATI","OH","45214"
149518,"276 STOVER AVE","NORTH ARLINGTON","NJ","07031"
149519,"276 SUNRISE DRIVE","MOSCOW","ID","83843"
149520,"276 SW 128 TERRACE","NEWBERRY","FL","32669"
149521,"276 SW WILSHIRE DRIVE","LAKE CITY","FL","32024"
149522,"276 VINCENT CIRCLE","MIDDLETOWN","DE","19709"
149523,"276 W CHERRY LANE","SOUDERTON","PA","18964"
149524,"276 WESTBROOK DR-","BUFFALO","NY","14225"
149525,"276 WESTMINSTER STREET","PROVIDENCE","RI","02903"
149526,"2760 200TH STREET","AINSWORTH","IA","52201"
149527,"2760 76TH ST NW","GLENBURN","ND","58740"
149528,"2760 BISMARK STREET","WALDORF","MD","20603"
149529,"2760 BRONX PARK EAST E32","BRONX","NY","10467"
149530,"2760 COMET ST","MILTON","WA","98354"
149531,"2760 E MILITARY RD","ZANESVILLE","OH","43701"
149532,"2760 FORTUNE CIRCLE DRIVE E 421983","INDIANAPOLIS","IN","46242"
149533,"2760 FORTUNE CIRCLE EAST  421424","INDIANAPOLIS","IA","46241"
149534,"2760 HAMPSHIRE ROAD - APT 13","CLEVELAND HEIGHTS","OH","44106"
149535,"2760 JONROSE AVENUE","CINCINNATI","OH","45239"
149536,"2760 KREBS STATION ROAD","PADUCAH","KY","42003"
149537,"2760 MONFORT DR APT J","FLORISSANT","MO","63033"
149538,"2760 N BAY ROAD","MIAMI BEACH","FL","33140"
149539,"2760 N HARTUNG AVE","MILWAUKEE","WI","53210"
149540,"2760 NELSON WAY","SPARKS","NV","89431"
149541,"2760 NW 9TH PL","FORT LAUDERDALE","FL","33311"
149542,"2760 PEACHLEAF DRIVE","WEST LAFAYETTE","IN","47906"
149543,"2760 PINEWOOD DRIVE","WALDORF","MD","20601"
149544,"2760 ROFF AVENUE","MACON","GA","31204"
149545,"2760 S OCEAN BLVD 107","PALM BEACH","FL","33480"
149546,"2760 SAN DOMINGO LN","LAS VEGAS","NV","89115"
149547,"2760 SOMERSET DRIVE APT S10","FORT LAUDERDALE","FL","33311"
149548,"2760 SUMMER DRIVE","ASBURY","IA","52002"
149549,"2760 SW 92ND AVE","MIAMI","FL","33165"
149550,"27600 BOUQUET CANYON RD STE 208","SANTA CLARITA","CA","91350"
149551,"27600 CHARDON ROAD APT 587","WILLOUGHBY HILLS","OH","44092"
149552,"27600 CLYDESDALE AVENUE","CONGRESS","AZ","85332"
149553,"27600 FRANKLIN RD APT 218","SOUTHFIELD","MI","48034"
149554,"27601 DENN RD","MONTGOMERY","TX","77356"
149555,"27601 N 195TH AVE","WITTMANN","AZ","85361"
149556,"27604 PLEASURE RIDE LOOP","WESLEY CHAPEL","FL","33544"
149557,"27605A SELFRIDGE LANE","CARMEL","CA","93923"
149558,"2761 ABBAPOOLA ROAD","JOHNS ISLAND","SC","29455"
149559,"2761 JOHNSTOWN RD","CHERRYVILLE","NC","28021"
149560,"2761 LONGPINE ROAD","BURLINGTON","NC","27215"
149561,"2761 N 17TH STREET","MILWAUKEE","WI","53206"
149562,"2761 N 920 E","NORTH LOGAN","UT","84341"
149563,"2761 OLD CEDAR FALLS ROAD","ASHEBORO","NC","27203"
149564,"2761 PEASE DR","FORNEY","TX","75126"
149565,"2761 RUSSELL LANE","MONTGOMERY","AL","36117"
149566,"2761 TREMONT RD","COLUMBUS","OH","43221"
149567,"2761 WARWICK DRIVE","OKLAHOMA CITY","OK","73116"
149568,"2761 WEST BEAVER STREET","JACKSONVILLE","FL","32254"
149569,"27610 MAVERICK RUN LN","FULSHEAR","TX","77441"
149570,"27610 SW 153RD CT","HOMESTEAD","FL","33032"
149571,"27612 DURAZNO","MISSION VIEJO","CA","92692"
149572,"27614 ISABELLA MEADOW WAY","KATY","TX","77494"
149573,"27615 MANDARIN AVE","HAYWARD","CA","94544"
149574,"27615 US HWY 27 SUITE 109 NO 232","LEESBURG","FL","34748"
149575,"27616 NE 145TH PLACE","DUVALL","WA","98019"
149576,"27618 42ND AVE SOUTH","AUBURN","WA","98001"
149577,"27618 CROOKED OAK LANE","SALISBURY","MD","21801"
149578,"2762 BELLA VISTA DRIVE","DAVENPORT","FL","33897"
149579,"2762 IRONDALE ST","DELTONA","FL","32738"
149580,"2762 N 31 PLACE","SHEBOYGAN","WI","53083"
149581,"2762 SANTA CLARA WAY","SACRAMENTO","CA","95817"
149582,"2762 SECRETARIAT AVE","SPRINGDALE","AR","72762"
149583,"2762 WEST VALLEY ROAD","SMETHPORT","PA","16749"
149584,"2762","SPRINGFIELD","OH","45505"
149585,"27622 COUNTY 119","NEVIS","MN","56467"
149586,"27622 GABLES RD","WEBSTER","WI","54893"
149587,"27625 239TH PL SE","MAPLE VALLEY","WA","98038"
149588,"27626 HARPER AVE","ST CLAIR SHORES","MI","48081"
149589,"27626 LEXINGTON PARKWAY","SOUTHFIELD","MI","48076"
149590,"27627 NORTH 168TH STREET","SCOTTSDALE","AZ","85263"
149591,"27627 SUNNYRIDGE RD","PALOSVERDESPENINSULA","CA","90274"
149592,"2763 ARKLOW WAY","BROWNSBURG","IN","46112"
149593,"2763 DUNN AVENUE","JACKSONVILLE","FL","32218"
149594,"2763 FOXTAIL CREEK AVENUE","HENDERSON","NV","89052"
149595,"2763 GEORGE BLAUER PLACE","SAN JOSE","CA","95135"
149596,"2763 GREEN OAKS DRIVE","MONTGOMERY","AL","36107"
149597,"2763 HIGHWAY 138 E SUITE B","JONESBORO","GA","30236"
149598,"2763 HUNTERS COURT","HAMPTON","GA","30228"
149599,"2763 XANADU WAY","AURORA","CO","80014"
149600,"27631 BELMONTE","MISSION VIEJO","CA","92692"
149601,"27631 MICHIGAN - 794","INKSTER","MI","48141"
149602,"27632 HYSSOP LANE","SANTA CLARITA","CA","91350"
149603,"27635 ROSA LANE 202","SANTA CLARITA","CA","91387"
149604,"27636 SOLANA WAY","SANTA CLARITA","CA","91350"
149605,"27636 YNEZ ROAD L-7 BOX 304","TEMECULA","CA","92591"
149606,"2764 ACTON STREET","BERKELEY","CA","94702"
149607,"2764 BROWNS GAP TRNPK","CHARLOTTESVILLE","VA","22901"
149608,"2764 COMPASS DRIVE SUITE 217-2","GRAND JUNCTION","CO","81506"
149609,"2764 N GREEN VALLEY PKWY STE 540","LAS VEGAS","NV","89104"
149610,"2764 NORTH TUPELO DRIVE","MIDLAND","MI","48642"
149611,"2764 PLEASANT RD STE A800","FORT MILL","SC","29708"
149612,"2764 PLEASANT RD SUITE A PMB 614","FORT MILL","SC","29708"
149613,"2764 PLEASANT RD SUITE A PMB 869","FORT MILL","SC","29708"
149614,"2764 PLEASANT ROAD NUM 10803","FORT MILL","SC","29708"
149615,"2764 PLEASANT ROAD PMB 10917","FORT MILL","SC","29708"
149616,"2764 PLEASANT ROAD STE A PMB 10407","FORT MILL","SC","29708"
149617,"2764 PLEASANT ROAD SUITE 10437","FORT MILL","SC","29708"
149618,"2764 PLEASANT ROAD SUITE A 10230","FORT MILL","SC","29708"
149619,"2764 PLEASANT ROAD SUITE A PMB 629","FORT MILL","SC","29708"
149620,"2764 SANDSTONE COURT","PALMDALE","CA","93551"
149621,"2764 SOUTHLAWN DRIVE","MAPLEWOOD","MN","55109"
149622,"2764 STAUNTON ROAD","TROY","IL","62294"
149623,"27645 BARRINGTON ST","MADISON HEIGHTS","MI","48071"
149624,"27646 GIBRALTER LOOP","EUGENE OR","OR","97405"
149625,"2765 ALTRURIA RD","BARTLETT","TN","38134"
149626,"2765 CROCKETT RD","ST FRANCISVILLE","IL","62460"
149627,"2765 CROCKETT ROAD","ST FRANCISVILLE","IL","62460"
149628,"2765 JEREMY CT NW","SWISHER","IA","52338"
149629,"2765 MAHONING CT","CINCINNATI","OH","45233"
149630,"2765 MANSWAY DRIVE","HERNDON","VA","20171"
149631,"2765 MOONLIGHT SHADOW DR","OLIVE BRANCH","MS","38654"
149632,"2765 N VALENCIA AVENUE","FAYETTEVILLE","AR","72703"
149633,"2765 NESTORVILLE RD","PHILIPPI","WV","26416"
149634,"2765 NW 155TH STREET","EDMOND","OK","73013"
149635,"2765 NW 79 AVE","MARGATE","FL","33063"
149636,"2765 PENBROOKE LANE","ST. CHARLES","MO","63301"
149637,"2765 SOUTH PARK RD SUITE 13","BETHEL PARK","PA","15102"
149638,"2765 ST ANDREWS SQ APT 1831","ALLISON PARK","PA","15101"
149639,"2765 SUMMIT DRIVE","HILLSBOROUGH","CA","94010"
149640,"2765 W AVE L","LANCASTER","CA","93536"
149641,"2765 WALLACE HILLS CT NW","SALEM","OR","97304"
149642,"27650B VALLEY ROAD","LIMA","MT","59739"
149643,"27654 N 65TH WAY","SCOTTSDALE","AZ","85266"
149644,"27655 IRONSTONE DRIVE UNIT 1","CANYON COUNTRY","CA","91387"
149645,"27655 TINKERS VALLEY DR","SOLON","OH","44139"
149646,"27656 ABERDEEN RD","SOUTHFIELD","MI","48076"
149647,"27656 GRETTA CIRCLE","ARDMORE","AL","35739"
149648,"27656 MORNINGSTAR LANE","SAN JUAN CAPISTRANO","CA","92675"
149649,"2766 A STREET","SAN DIEGO","CA","92102"
149650,"2766 DUNIVEN CIRCLE","AMARILLO","TX","79109"
149651,"2766 GRAY FOX LN","ORLANDO","FL","32826"
149652,"2766 HOLLYWOOD ROAD","SALUDA","SC","29138"
149653,"2766 INDUSTRIAL AVE","EIELSON AFB","AK","99702"
149654,"2766 MCVAY RD","MEMPHIS","TN","38119"
149655,"2766 QUANTUM LAKES DRIVE","BOYNTON BEACH","FL","33426"
149656,"2766 SAM HARDWICK BLVD","JACKSONVILLE","FL","32246"
149657,"2766 WHITE OAK DRIVE","DECATUR","GA","30032"
149658,"27660 SKYLARK LANE","SANTA CLARITA","CA","91350"
149659,"27662 ALISO CREEK RD APT 10111","ALISO VIEJO","CA","92656"
149660,"27662 NUGGET DRIVE UNIT 2","CANYON COUNTRY","CA","91387"
149661,"27669 E BROADVIEW DRIVE","KIOWA","CO","80117"
149662,"2767 GRIFFIN DR","LEWIS CENTER","OH","43035"
149663,"2767 NW 196TH STREET","MIAMI GARDENS","FL","33056"
149664,"2767 WAGONWHEEL DRIVE","TROY","MI","48085"
149665,"2767 WELLS COURT","KISSIMMEE","FL","34744"
149666,"27671 CHAPALA","MISSION VIEJO","CA","92692"
149667,"27671 W ECHO VALLEY 208","FARMINGTON HILLS","MI","48334"
149668,"27676 SEQUOIA GLEN DR","VALENCIA","CA","91354"
149669,"27676 SEQUOIA GLEN DRIVE","VALENCIA","CA","91354"
149670,"2768 BELLEVUE LAKES","PAULINA","LA","70763"
149671,"2768 CASTY CT","SANGER","CA","93657"
149672,"2768 EVANS DALE CIRCLE","ATLANTA","GA","30340"
149673,"2768 FLORENCE ST","DENVER","CO","80238"
149674,"2768 GLENLOCKE CIRCLE","ATLANTA","GA","30318"
149675,"2768 GRIDLEY PAIGE ROAD","DEANSBORO","NY","13328"
149676,"2768 MAJESTIC AVE","MELBOURNE","FL","32934"
149677,"2768 MILL CREEK RD","PORT CHARLOTTE","FL","33953"
149678,"2768 SAN LUIS COURT","SACRAMENTO","CA","95818"
149679,"2768 WOODMONT DRIVE","YORK","PA","17404"
149680,"27680 DICKASON DRIVE","VALENCIA","CA","91355"
149681,"27681 FERN GULCH DRIVE","EVERGREEN","CO","80439"
149682,"27685 COMMERCE CENTER DR","TEMECULA","CA","92590"
149683,"27688 AVONDALE ST","INKSTER","MI","48141"
149684,"2769 CLOISTERS DR","COLLEGE STATION","TX","77845"
149685,"2769 JEFFERSON DAVIS HIGHWAY","STAFFORD","VA","22554"
149686,"2769 JEFFERSON DAVIS HWY STE 111-20","STAFFORD","VA","22554"
149687,"2769 JEFFERSON DAVIS HWY STE 111-26","STAFFORD","VA","22554"
149688,"2769 JEFFERSON DAVIS HWY SUITE 111","STAFFORD","VA","22554"
149689,"2769 JEFFERSON DAVIS HWY SUITE 1172","STAFFORD","VA","22554"
149690,"2769 LITTLE JOHN ROAD","WINTER PARK","FL","32792"
149691,"2769 NATALIA DR","COLUMBUS","OH","43232"
149692,"2769 NW 36TH AVENUE","LAUDERDALE LAKES","FL","33311"
149693,"2769 S LARK CT","WICHITA","KS","67215"
149694,"27691 E LAKEVIEW DR","AURORA","CO","80016"
149695,"277 ADAMS ROAD","CEDARTOWN","GA","30125"
149696,"277 AMISTAD RD","SAN ANGELO","TX","76901"
149697,"277 BELLEVUE WAY NE BOX 933","BELLEVUE","WA","98004"
149698,"277 BROADWAY SUITE 801","NEW YORK","NY","10007"
149699,"277 BRONX RIVER ROAD APARTMENT 6H","YONKERS","NY","10704"
149700,"277 CAPITOL DRIVE UNIT C","SUGAR GROVE","IL","60554"
149701,"277 CLIFF STREET","ST JOHNSBURY","VT","05819"
149702,"277 COACH RD","TOBYHANNA","PA","18466"
149703,"277 COTTONWOOD DRIVE","RIDGELAND","MS","39157"
149704,"277 CULLEN RD","OXFORD","PA","19363"
149705,"277 DELWARE AVE","ALBANY","NY","12209"
149706,"277 E 2ND STREET","ROCHESTER","MI","48307"
149707,"277 E 4600 S","OGDEN","UT","84405"
149708,"277 GALEON COURT","CORAL GABLES","FL","33143"
149709,"277 GATES AVENUE 2C","BROOKLYN","NY","11216"
149710,"277 GRANDDADDY HOLLOW ROAD","LOUISA","KY","41230"
149711,"277 GRATIOT  SECOND FLOOR","DETROIT","MI","48226"
149712,"277 GRATIOT AVENUE SUITE 700","DETROIT","MI","48226"
149713,"277 GRATIOT AVENUE SUITE A1629","DETROIT","MI","48226"
149714,"277 GROVE STREET","MONTCLAIR","NJ","07042"
149715,"277 HAMILTON STREET","HARRISBURG","PA","17102"
149716,"277 HANS AVE","MOUNTAIN VIEW","CA","94040"
149717,"277 HIGHWAY 74 N SUITE 306","PEACHTREE CITY","GA","30269"
149718,"277 HILLTOP DR","ENNIS","TX","75119"
149719,"277 HUDSON LANDING ROAD","WATSONVILLE","CA","95076"
149720,"277 LOUIS AVE","FLORAL PARK","NY","11001"
149721,"277 MAPLE STREET","BROOKLYN","NY","11225"
149722,"277 MARK TWAIN LANE","ROTONDA WEST","FL","33947"
149723,"277 MARTINVALE LANE","SAN JOSE","CA","95119"
149724,"277 MARTINVALE LN","SAN JOSE","CA","95119"
149725,"277 MESA DR","ROCK SPRINGS","WY","82901"
149726,"277 MONROE RD","HAMPDEN","ME","04444"
149727,"277 MOONLIGHT ROAD","EMPORIA","VA","23847"
149728,"277 N COLONIAL HOMES CIR NW","ATLANTA","GA","30309"
149729,"277 NELSONS COURT","HARDEEVILLE","SC","29927"
149730,"277 NOVINA PLACE","CAMARILLO","CA","93012"
149731,"277 NW 84TH WAY","CORAL SPRINGS","FL","33071"
149732,"277 OTTOVILLE","PAGO PAGO","AS","96799"
149733,"277 ROYAL POINCIANA WAY STE 188","PALM BEACH","FL","33480"
149734,"277 ROYAL POINCIANA WAY SUITE 134","PALM BEACH","FL","33480"
149735,"277 SIOUX DRIVE","BOLINGBROOK","IL","60440"
149736,"277 SKEENAH SPRINGS ROAD","BLAIRSVILLE","GA","30512"
149737,"277 STATE ROUTE 1340","DIXON","KY","42409"
149738,"277 STONEHILL LN","SCHAUMBURG","IL","60193"
149739,"277 SUGARLOAF ROAD","ELIZABETHTOWN","NC","28337"
149740,"277 SUNDERLAND WOODS RD","COLCHESTER","VT","05446"
149741,"277 VIA DE LA REINA","MERRITT ISLAND","FL","32953"
149742,"277 W GREEN ST UNIT 404","PASADENA","CA","91105"
149743,"277 W MAIN ST","WAUKESHA","WI","53186"
149744,"277 W SAN ANTONIO ST","NEW BRAUNFELS","TN","38313"
149745,"277 WEST END AVENUE APT 1D","NEW YORK","NY","10023"
149746,"277 WEST END AVENUE SUITE 11A","NEW YORK","NY","10023"
149747,"277 WEST ESSEX AVENUE","MEMPHIS","TN","38109"
149748,"277 WEST LINCOLN ROAD","ALCOA","TN","37701"
149749,"277 WEST LINWOOD AVENUE","MAPLE SHADE","NJ","08052"
149750,"277 WEST MILL STREET","PATASKALA","OH","43062"
149751,"2770 ARAPAHOE ROAD STE 132-539","LAFAYETTE","CO","80026"
149752,"2770 BARDIN RD APT 9214","GRAND PRAIRIE","TX","75052"
149753,"2770 BARDIN ROAD 6210","GRAND PRAIRIE","TX","75052"
149754,"2770 DAGNY WAY SUITE 212","LAFAYETTE","CO","80026"
149755,"2770 DUBLIN GRANVILLE RD SUITE 200","COLUMBUS","OH","43231"
149756,"2770 FM 163","CLEVELAND","TX","77327"
149757,"2770 MAIN ST  SUITE 158","FRISCO","TX","75033"
149758,"2770 MAIN STREET  SUITE 106","FRISCO","TX","75033"
149759,"2770 MAIN STREET  SUITE 231","FRISCO","TX","75033"
149760,"2770 MAIN STREET SUITE 237","FRISCO","TX","75033"
149761,"2770 N FM 565","MONT BELVIEU","TX","77523"
149762,"2770 N STATE HIGHWAY 360 SUITE 2014","GRAND PRAIRE","TX","75050"
149763,"2770 NEWHALL ST 33","SANTA CLARA","CA","95050"
149764,"2770 OVERLOOK DR","BROOMFIELD","CO","80020"
149765,"2770 POWHATAN DRIVE","SUMTER","SC","29150"
149766,"2770 S HARBOR BOULEVARD SUITE E","SANTA ANA","CA","92704"
149767,"2770 SAINT CHQARLES STREET","FORT MYERS","FL","33916"
149768,"2770 SOMERSET DRIVE R401","LAUDERDALE LAKES","TX","33311"
149769,"2770 SOUTH HILLS","RIVERDALE","GA","30296"
149770,"2770 VALLEY BROOK DR","FLORISSANT","MO","63031"
149771,"2770 W CALLE VISTA DRIVE","RIALTO","CA","92377"
149772,"2770 WOOLSEY RD","WINDSOR","CA","95492"
149773,"27700 GRATIOT AVE RM 307","ROSEVILLE","MI","48066"
149774,"27700 GRATIOT AVE STE 202","ROSEVILLE","MI","48066"
149775,"27700 S FAIROAKS RD","TRACY","CA","95304"
149776,"27701 73RD AVE E","MYAKKA","FL","34251"
149777,"27701 MURIETTA RD 216","MENIFEE","CA","92586"
149778,"27702 CROWN VALLEY PARKWAY SUITE D4","LADERA RANCH","CA","92694"
149779,"27705 LUCKY LAKE COURT","LAKE FOREST","IL","60045"
149780,"27707 LA VISTA DRIVE","MUNDELEIN","IL","60060"
149781,"27707 NATIVE DR","LORANE","OR","97451"
149782,"27708 TOMBALL PKWY - 1027","TOMBALL","TX","77375"
149783,"2771  ATHENS DR","LEESBURG","FL","34748"
149784,"2771 150TH ST","50674","IA","50674"
149785,"2771 COLUMBUS STREET","OTTAWA","IL","61350"
149786,"2771 E 9TH ST SUITE D","NEWBERG","OR","97132"
149787,"2771 FORDHAM RD","DALLAS","TX","75216"
149788,"2771 OAKDALE BLVD STE 8","CORALVILLE","IA","52241"
149789,"2771 RIVERSIDE DR APT 108","CORAL SPRINGS","FL","33065"
149790,"2771 S INDUSTRIAL RD","LAS VEGAS","NV","89109"
149791,"2771 SARGENT AVE","SAN PABLO","CA","94806"
149792,"2771 SW 86TH WAY","DAVIE","FL","33328"
149793,"2771 VISTA PARKWAY F-6","WEST PALM BEACH","FL","33411"
149794,"2771 WILLIAMSWOOD ROAD","NORTH CHESTERFIELD","VA","23235"
149795,"2771-29 MONUMENT RD BOX 172","JACKSONVILLE","FL","32225"
149796,"2771-29 MONUMENT ROAD  SUITE 177","JACKSONVILLE","FL","32225"
149797,"27710 JEFFERSON AVE SUITE 302","TEMECULA","CA","92590"
149798,"27712 BUCKSKIN DR","CASTAIC","CA","91384"
149799,"27712 WEST DRAKE DR APT 48","CHANNAHON","IL","60410"
149800,"27714 WINCHESTER TERRACE","BROWNSTOWN","MI","48183"
149801,"27715 E TRAIL RIDGE WAY APT 1087","MORENO VALLEY","CA","92555"
149802,"27716 FRAME AVE","BOUSE","AZ","85325"
149803,"27717 CARLYSLE","INKSTER","MI","48141"
149804,"27718 AUTUMN TER","BOERNE","TX","78006"
149805,"27719 LIMESTONE POINTE CT","FULSHEAR","TX","77441"
149806,"2772 AHEAHE STREET","LIHUE","HI","96766"
149807,"2772 BLACK ROAD","OAKESDALE","WA","99158"
149808,"2772 BRYANT STREET","SAN FRANCISCO","CA","94110"
149809,"2772 BUENA POINT CT","SAN JOSE","CA","95121"
149810,"2772 DANSBY RD","BUTLER","AL","36904"
149811,"2772 HICKORY NUT LN","KALAMAZOO","MI","49004"
149812,"2772 JOSEPH AVE 4","CAMPBELL","CA","95008"
149813,"2772 N DR MARTIN LUTHER KING DRIVE","MILWAUKEE","WI","53212"
149814,"2772 OLSEN RD","RIO VISTA","CA","94571"
149815,"2772 PONKAN SUMMIT DR","APOPKA","FL","32712"
149816,"2772 RED LANE RD","POWHATAN","VA","23139"
149817,"2772 ROOSEVELT PO BOX 2377","CARLSBAD","CA","92018"
149818,"2772 ROOSEVELT STREET BOX 1881","CARLSBAD","CA","92018"
149819,"2772 SSE LOOP 323","TYLER","TX","75701"
149820,"2772","DESOTO","TX","75123"
149821,"27720 72ND ST","COVERT","MI","49053"
149822,"27720 OLD COLONY","FARMINGTON HILLS","MI","48334"
149823,"27722 CO RD 424","DEFIANCE","OH","43512"
149824,"27723 KIWI PLACE","PALMDALE","CA","93515"
149825,"2773 BAY DRIVE","PORT AUSTIN","MI","48467"
149826,"2773 BONNYBROOK CIRCLE","ROCK HILL","SC","29732"
149827,"2773 BROCK CT","WEST SACRAMENTO","CA","95691"
149828,"2773 DENACRE DRIVE","SAINT LOUIS","MO","63129"
149829,"2773 JAMES M WOOD BLVD","LOS ANGELES","CA","90006"
149830,"2773 LOFTVIEW SQ","ATLANTA","GA","30339"
149831,"2773 LYNCHBURG STREET","MEMPHIS","TN","38134"
149832,"27730 NE CR 67","HOSFORD","FL","32334"
149833,"2774 BUCKLEY HALL RD","DUTTON","VA","23050"
149834,"2774 COBB PKWY STE 109-120","KENNESAW","GA","30152"
149835,"2774 E COLONIAL DR STE 1037","ORLANDO","FL","32803"
149836,"2774 ELECTRIC ROAD SUITE A","ROANOKE","VA","24018"
149837,"2774 FIRST STREET","FORT MYERS","FL","33916"
149838,"2774 N COBB PKWY SUITE 109-314","KENNESAW","GA","30152"
149839,"2774 N MLK DR","MILWAUKEE","WI","53212"
149840,"2774 S OCEAN BLVD","PALM BEACH","FL","33480"
149841,"2774 WELLS FARGO RD","GYPSUM","KS","67448"
149842,"2774 WHITLOCK DRIVE","DARIEN","IL","60561"
149843,"27740 FRANKLIN RD","SOUTHFIELD","MI","48034"
149844,"27740 N 4020 RD","RAMONA","OK","74061"
149845,"27744 AUTUMN BREEZE CIRCLE","WASLEY CHAPEL","FL","33544"
149846,"27744 ELKWOOD LANE","CASTAIC","CA","91384"
149847,"27748 PISTACHIO COURT","HAYWARD","CA","94544"
149848,"2775 150TH STREET","LAWLER","IA","52154"
149849,"2775 BAKER BLVD","EUGENE","OR","97403"
149850,"2775 BOBCAT BLVD","TROPHY CLUB","TX","76262"
149851,"2775 CITATION DRIVE","DEL VALLE","TX","78617"
149852,"2775 CUMBERLAND ST","SANTA ROSA","CA","95407"
149853,"2775 CUMBERLAND STREET","SANTA ROSA","CA","95407"
149854,"2775 E SOUTH RANGE RD","NEW SPRINGFIELD","OH","44443"
149855,"2775 HELEN STREET","PHILADELPHIA","PA","19134"
149856,"2775 HOLLY POINT BLVD","CHESAPEAKE","VA","23325"
149857,"2775 KURTZ STREET SUITE 6","SAN DIEGO","CA","92110"
149858,"2775 LAWRENCE MILL RUN","MARIETTA","GA","30068"
149859,"2775 MESA VERDE DR E APT F108","COSTA MESA","CA","92626"
149860,"2775 N STATE HIGHWAY 360 APT 735","GRAND PRARIE","TX","75050"
149861,"2775 NW 212TH STREET","MIAMI GARDENS","FL","33056"
149862,"2775 ROUTE 9","MALTA","NY","12020"
149863,"2775 S 26TH STREET","KALAMAZOO","MI","49048"
149864,"2775 S JONES BLVD 100-B","LAS VEGAS","NV","89103"
149865,"2775 SE 73RD AVE","HILLSBORO","OR","97123"
149866,"2775 SHALIMAR TERRACE","NORTH PORT","FL","34286"
149867,"2775 SW 14TH STREET","BOYNTON BEACH","FL","33426"
149868,"2775 W NAVIGATOR DRIVE SUITE 220","MERIDIAN","ID","83642"
149869,"27750 ENTERTAINMENT DRIVE","VALENCIA","CA","91355"
149870,"27758 SANTA MARGARITA PKWY NUM 171","MISSION VIEJO","CA","92691"
149871,"27758 SANTA MARGARITA PKWY STE 126","MISSION VIEJO","CA","92691"
149872,"27758 SANTA MARGARITA PKWY STE162","MISSION VIEJO","CA","92691"
149873,"2776 BRENTNELL AVE","COLUMBUS","OH","43211"
149874,"2776 GATEWAY ROAD","CARLSBAD","CA","92009"
149875,"2776 HOLLY GROVE ROAD","COVINGTON","TN","38019"
149876,"2776 JOYCE AVENUE","DECATUR","GA","30032"
149877,"2776 MCLEAN CHAPEL CHURCH ROAD 114","BUNNLEVEL","NC","28323"
149878,"2776 MONTEREY ROAD APT 56","SAN JOSE","CA","95111"
149879,"2776 NW UPSHUR STREET","PORTLAND","OR","97210"
149880,"2776 OAKGROVE AVENUE","ST AUGUSTINE","FL","32095"
149881,"2776 PARK PLACE","GRAND PRAIRIE","TX","75052"
149882,"2776 PEACH STREET","PORTSMOUTH","VA","23704"
149883,"2776 PIEDMONT DRIVE","HELENA","AL","35022"
149884,"2776 REX ROAD","ELLENWOOD","GA","30294"
149885,"2776 S  ARLINGTON MILL DR SUITE 215","ARLINGTON","VA","22206"
149886,"2776 S ARLINGTON MILL DR SUITE 539","ARLINGTON","VA","22206"
149887,"2776 S ARLINGTON MILL DRIVE 175","ARLINGTON","VA","22206"
149888,"2776 SO ARLINGTON MILL DR NO 150","ARLINGTON","VA","22206"
149889,"2776 WORDEN ST","SAN DIEGO","CA","92110"
149890,"2776 WYNTERCREST LANE","DURHAM","NC","27713"
149891,"27760 FRANKLIN ROAD","SOUTHFIELD","MI","48034"
149892,"27760 PALAMOS PLACE","MISSION VIEJO","CA","92692"
149893,"27762 ANTONIO PKWY L1-487","LADERA RANCH","CA","92694"
149894,"27762 ANTONIO PKWY SUITE L-1 337","LADERA RANCH","CA","92694"
149895,"27766 NORRIS RD","BOZEMAN","MT","59718"
149896,"27768 POSSUM POINT RD","MILLSBORO","DE","19966"
149897,"2777 ALTON PARKWAY  UNIT 231","IRVINE","CA","92606"
149898,"2777 BRENTWOID ROAD PO BOX 40412","RALEIGH","NC","27629"
149899,"2777 COLD PLAINS DR","HACIENDA HEIGHTS","CA","91745"
149900,"2777 DULLES AVE","MISSOURI CITY","TX","77459"
149901,"2777 E BRESSINGHAM WAY","BLOOMINGTON","IN","47401"
149902,"2777 JEFFERSON STREET  SUITE 5","AUSTELL","GA","30168"
149903,"2777 LOGAN AVE 13504","SAN DIEGO","CA","92170"
149904,"2777 NIMITZ BLVD APT 20","SAN DIEGO","CA","92106"
149905,"2777 S OAKLAND FOREST DR APT 101","OAKLAND PARK","FL","33309"
149906,"2777 SAINT GEORGE ROAD","WILLISTON","VT","05495"
149907,"27777 FRANKLIN ROAD SUITE 2500","SOUTHFIELD","MI","48034"
149908,"27777 PISTACHIO CT","HAYWARD","CA","94544"
149909,"277797 HIGHWAY 15","FERRIDAY","LA","71334"
149910,"2778 DAYBREAK LN","POMONA","CA","91767"
149911,"2778 N TREATY LINE RD","CAMBRIDGE CITY","IN","47327"
149912,"2778 PELHAM CIRCLE","DELTONA","FL","32738"
149913,"27780 WHITTINGTON ROAD","MENIFEE","CA","92584"
149914,"27782 E BROADVIEW DRIVE","KIOWA","CO","80117"
149915,"27782 VISTA DEL LAGO STE C28","MISSION VIEJO","CA","92692"
149916,"2779  84TH ST SW","BYRON CENTER","MI","49315"
149917,"2779 COUNTRY CLUB DRIVE","HAYNESVILLE","LA","71038"
149918,"2779 E LOUISE AVE","SALT LAKE CITY","UT","84109"
149919,"2779 LAKE PARK RIDGE","ACWORTH","GA","30101"
149920,"2779 MAIN STREET","MORGANTOWN","PA","19543"
149921,"2779 MEADOWLAKE DR E","MEMPHIS","TN","38115"
149922,"2779 NW 28TH ST","HIALEAH","FL","33142"
149923,"2779 SPENCER PLANTATION BLVD","ORANGE PARK","FL","32073"
149924,"2779 SW 17TH PL","GRESHAM","OR","97080"
149925,"27792 EL LAZO SUITE A","LAGUNA NIGUEL","CA","92677"
149926,"278 ALDINE STREET","ROCHESTER","NY","14619"
149927,"278 BETHEL","MEMPHIS","TN","38107"
149928,"278 CAMERTON LN","TOWNSEND","DE","19734"
149929,"278 CARROLL STREET NW","WASHINGTON","DC","20012"
149930,"278 CEDARBRIDGE AVE","LAKEWOOD","NJ","08701"
149931,"278 CLINTON AVENUE","BROOKLYN","NY","11205"
149932,"278 DINKINS RD","PICKENS","MS","39146"
149933,"278 DINKINS RD","PICKINS","MS","39146"
149934,"278 DOUG WARPOOLE RD SUITE 301-A","SMYRNA","TN","37167"
149935,"278 ELKHORN STREET","BOX ELDER","MT","59521"
149936,"278 FRANKLIN ROAD","DENVILLE","NJ","07834"
149937,"278 GREAVES AVENUE","STATEN ISLAND","NY","10308"
149938,"278 HIDE AWAY LANE","WEATHERFORD","TX","76088"
149939,"278 HOLCOMBE WAY","LAMBERTVILLE","NJ","08530"
149940,"278 IDAHO ST APT 23","ASHLAND","OR","97520"
149941,"278 IGLESIA CIRCLE","DEDEDO","GU","96929"
149942,"278 JACK TATE RD","MACON","MS","39341"
149943,"278 JORDAN DRIVE SUITE A-1","DOVER","DE","19904"
149944,"278 KAHA STREET","KAILUA","HI","96734"
149945,"278 LAKE RD","COUNCIL GROVE","KS","66846"
149946,"278 LAKE WALLKILL ROAD","SUSSEX","NJ","07461"
149947,"278 LUELLA APT 2","CALUMET CITY","IL","60409"
149948,"278 MAIN STREET","OXFORD","MA","01540"
149949,"278 MARY STREET","WINNETKA","IL","60093"
149950,"278 MASSAPOAG AVENUE","NORTH EASTON","MA","02356"
149951,"278 MEADOW OAKS DRIVE SE","CONCORD","NC","28025"
149952,"278 MEGILL DR","PELION","SC","29123"
149953,"278 MONMOUTH ST APT 4R","JERSEY CITY","NJ","07302"
149954,"278 MOUNTAIN RD","WINDSOR","CT","06095"
149955,"278 N 2340 W","LEHI","UT","84043"
149956,"278 N MARIETTA PKWY","MARIETTA","GA","30060"
149957,"278 N RENGSTORFF AVE","MOUNTAIN VIEW","CA","94043"
149958,"278 NEEDLES TRAIL","LONGWOOD","FL","32779"
149959,"278 NORTH FRONT STREET","HOYLETON","IL","62803"
149960,"278 OAK RIDGE DR","GUYTON","GA","31312"
149961,"278 OCEAN AVENUE","LAGUNA BEACH","CA","92651"
149962,"278 ORANGE AVE","IRVINGTON","NJ","07111"
149963,"278 PARK AVE","WILLISTON PARK","NY","11596"
149964,"278 PARK AVENUE","WILLISTON PARK","NY","11596"
149965,"278 PLEASANT BAY RD","HARWICH","MA","02645"
149966,"278 PR 1519","BRIDGEPORT","TX","76426"
149967,"278 PRIVATE ROAD 1519","BRIDGEPORT","TX","76426"
149968,"278 RIDGEFIELD CIRCLE","EASLEY","SC","29640"
149969,"278 RIFE RD","MILLERSBURG","PA","17061"
149970,"278 RIVERSIDE DR  - C/O JAMES STURM","PRINCETON","NJ","08540"
149971,"278 S MAIN ST","INDEPENDENCE","OR","97351"
149972,"278 SAWGRASS WAY","FAYETTEVILLE","GA","30215"
149973,"278 SEYMOUR AVENUE FLOOR 1","NEWARK","NJ","07112"
149974,"278 SKYY LN","AKRON","AL","35441"
149975,"278 TOWN CENTER PKWY UNIT 204","SANTEE","CA","92071"
149976,"278 W 875 N","VALPARAISO","IN","46385"
149977,"278 W HAROLD GRISWOLD WAY","HANFORD","CA","93230"
149978,"278 W MANGRUM DR","PUEBLO WEST","CO","81007"
149979,"278 WINTHROP MAIL CENTER","CAMBRIDGE","MA","02138"
149980,"2780 AIRPORT DRIVE","COLUMBUS","OH","43219"
149981,"2780 BUFORD HIGHWAY","DULUTH","GA","30096"
149982,"2780 BUFORD HWY","DULUTH","GA","30096"
149983,"2780 CLEVELAND AVENUE SUITE 459","FORT MYERS","FL","33901"
149984,"2780 CRAIN HIGHWAY","WALDORF","MD","20601"
149985,"2780 E FLAMINGO RD APT 114","LAS VEGAS","NV","89121"
149986,"2780 E PINETREE BLVD  SUITE 104","THOMASVILLE","GA","31792"
149987,"2780 E SKYLINE CIRCLE","MEMPHIS","TN","38127"
149988,"2780 EAST FOWLER AVE SUITE 233","TAMPA","FL","33612"
149989,"2780 EAST FOWLER AVENUE 429","TAMPA","FL","33612"
149990,"2780 FLAT SHOALS ROAD","DECATUR","GA","30034"
149991,"2780 GARDENWOOD CT SW","LILBURN","GA","30047"
149992,"2780 JEPPESEN ACRES RD","EUGENE","OR","97401"
149993,"2780 MILANO DRIVE","EASTON","PA","18040"
149994,"2780 N 4TH ST E","ELY","NV","89301"
149995,"2780 N RIVERSIDE DRIVE 503","TAMPA","FL","33602"
149996,"2780 NE 183RD STREET - C2006","AVENTURA","FL","33160"
149997,"2780 NE 183RD STREET C2117","AVENTURA","FL","33160"
149998,"2780 PAJARO PL","RENO","NV","89502"
149999,"2780 PARKVIEW DRIVE NE","ATLANTA","GA","30345"
150000,"2780 SCENIC HILLS DR","CLARKSTON","WA","99403"
