"ID","Address","City","State","Zip"
188001,"3660 OLD STILESBORO ROAD","KENNESAW","GA","30152"
188002,"3660 OXFORD AVENUE APT 10G","BRONX","NY","10463"
188003,"3660 S NASH WAY","CHANDLER","AZ","85286"
188004,"3660 SUTTON AVENUE","TRUSSVILLE","AL","35173"
188005,"3660 W HIAWATHA DR","OKEMOS","MI","48864"
188006,"3660 WASHINGTON AVENUE","CINCINNATI","OH","45219"
188007,"3660 WASHINGTON AVENUE","CINCINNATI","OH","45229"
188008,"3660 WILSHIRE BLVD STE 808","LOS ANGELES","CA","90010"
188009,"3660 WILSHIRE BLVD SUIE 518","LOS ANGELES","CA","90010"
188010,"36605 E 71ST ST S","BROKEN ARROW","OK","74014"
188011,"36605 OLD SALISBURY ROAD","NEW LONDON","NC","28127"
188012,"3661 AIRPORT BLVD   SUITE 264","MOBILE","AL","36608"
188013,"3661 COPLEY RD","COPLEY","OH","44321"
188014,"3661 EMBRY DR","FAYETTEVILLE","AR","72764"
188015,"3661 HERON CIRCLE SE","SOUTHPORT","NC","28461"
188016,"3661 MELROSE COTTAGE DR","MATTHEWS","NC","28105"
188017,"3661 N CAMPBELL AVE NUM 358","TUCSON","AZ","85719"
188018,"3661 N LENA AVE","BOISE","ID","83713"
188019,"3661 SUNSET AVENUE SUITE 414","ROCKY MOUNT","NC","27804"
188020,"3661 WASHINGTON AVE","CINCINNATI","OH","45229"
188021,"3661 WEST CHAPMAN LANE","INGLEWOOD","CA","90305"
188022,"36615 VINE STREET SUITE 102","WILLOUGHBY","OH","44094"
188023,"3662 ASPEN CT SW","GRANDVILLE","MI","49418"
188024,"3662 AVALON PARK E BLVD STE 201","ORLANDO","FL","32828"
188025,"3662 BRANCH CREEK DR","SARASOTA","FL","34235"
188026,"3662 BUSINESS 27","BUCHANAN","GA","30113"
188027,"3662 DALLY RD","COVINGTON","GA","30014"
188028,"3662 E BELLSHIRE PLACE","INVERNESS","FL","34453"
188029,"3662 HEIRLOOM COURT","TURLOCK","CA","95382"
188030,"3662 NOYAC RD","SAG HARBOR","NY","11963"
188031,"3662 NOYAC ROAD","SAG HARBOR","NY","11963"
188032,"3662 SOUTH 4000 WEST","WEST VALLEY CITY","UT","84120"
188033,"3662 STONEBRIDGE DR APT E","CINCINNATI","OH","45209"
188034,"3662 SUNSET RIDGE ROAD","ALTADENA","CA","91001"
188035,"3662 TRUESDELL ROAD","WARSAW","NY","14569"
188036,"3662 W CAMP WISDOM RD","DALLAS","TX","75237"
188037,"36621 JEFFERSON COURT 817","FARMINGTON HILLS","MI","48335"
188038,"36623 IROQUOIS DR","STERLING HEIGHTS","MI","48310"
188039,"36627 225TH AVENUE","BAGLEY","MN","56621"
188040,"3663 ACE DRIVE","AKRON","OH","44319"
188041,"3663 ALLENE ST BRUSLY LA 70719","BRUSLY","LA","70719"
188042,"3663 E JOSEPHINE CT","COMPTON","CA","90221"
188043,"3663 EURO LANE","DE PERE","WI","54115"
188044,"3663 FLAT RUN DR","BETHLEHEM","GA","30620"
188045,"3663 GATEWAY DRIVE APT 1B","PORTSMOUTH","VA","23703"
188046,"3663 GRAND AVE UNIT 903","DES MOINES","IA","50312"
188047,"3663 MAHAN ROAD","SUMMERVILLE","GA","30747"
188048,"3663 N SAM HOUSTON PARKWAY E","HOUSTON","TX","77032"
188049,"3663 PARK CENTER BLVD APT 313","MINNEAPOLIS","MN","55416"
188050,"3663 RIVERVAIL DR","COLUMBUS","OH","43221"
188051,"3663 W CACTUS  1076","LAS VEGAS","NV","89141"
188052,"36633 37TH STREET EAST","PALMDALE","CA","93550"
188053,"36635 LITTLE SYCAMORE ST","PALMDALE","CA","93552"
188054,"36635 SUMMER DAIN LANE","WILDOMAR","CA","92595"
188055,"36638 NASHUA BLVD","SORRENTO","FL","32776"
188056,"3664 ARSENAL STREET","SAINT LOUIS","MO","63116"
188057,"3664 BALMONT STREET","LANCASTER","CA","93536"
188058,"3664 CLAIREMOUNT DR UNIT 3D","SAN DIEGO","CA","92117"
188059,"3664 CLUB DR ST 201","LAWRENCEVILLE","GA","30044"
188060,"3664 E FOOTHILLS DRIVE","SIERRA VISTA","AZ","85635"
188061,"3664 GLENEAGLES DRIVE","TARZANA","CA","91356"
188062,"3664 HOMEWAY DRIVE","LOS ANGELES","CA","90008"
188063,"3664 INVERNESS DR","HOUSTON","TX","77019"
188064,"3664 LAKEVIEW RD","MEMPHIS","TN","38116"
188065,"3664 MADISON AVE","KANSAS CITY","MO","64111"
188066,"3664 MAGNOLIA STREET","DENVER","CO","80207"
188067,"3664 RAMSEY CLOSE","ATLANTA","GA","30331"
188068,"3664 RIMROCK DR NE","CEDAR RAPIDS","IA","52402"
188069,"36644 HASTINGS ST NE","STANCHFIELD","MN","55080"
188070,"3665 BEE RIDGE ROAD STE 306","SARASOTA","FL","34233"
188071,"3665 BLECKELY STREET ST 101","MATHER","CA","95655"
188072,"3665 CHARLESTON HIGHWAY","WEST COLUMBIA","SC","29172"
188073,"3665 DOUBLE ROCK LANE","PARKVILLE","MD","21234"
188074,"3665 EAST BAY DRIVE 204 23","LARGO","FM","33771"
188075,"3665 EAST THOUSAND OAKS BLVD","WESTLAKE VILLAGE","CA","91362"
188076,"3665 HUGHES AVE APT 103","LOS ANGELES","CA","90034"
188077,"3665 MARY LOU LANE","NORTH ONTARIO","OH","44906"
188078,"3665 NORFOLK RD","FREMONT","CA","94538"
188079,"3665 SMUGGLER PLACE","BOULDER","CO","80305"
188080,"3665 SOUTH JAY STREET","DENVER","CO","80235"
188081,"3665 SUMMERTIME CT","MONUMENT","CO","80132"
188082,"3665 VILLAGE SPRINGS DRIVE","HIGH POINT","NC","27265"
188083,"3665 W GAILEY DRIVE","TUCSON","AZ","85741"
188084,"3665 WEST BATH ROAD","AKRON","OH","44333"
188085,"3665 WINDJAMMER DR","COLORADO SPRINGS","CO","80920"
188086,"36652 SULPHUR SPRINGS RD","PALMDALE","CA","93552"
188087,"36654 DOWLING ST","LIVONIA","MI","48150"
188088,"3666 HOLLANSBURG-ARCANUM RD","GREENVILLE","OH","45331"
188089,"3666 NORTH STREET","MADISON","NY","13402"
188090,"3666 STOCKDALE AVE","PENSACOLA","FL","32514"
188091,"3666 TORREY VIEW CT","SAN DIEGO","CA","92130"
188092,"3666 VAN BUREN AVE","OGDEN","UT","84403"
188093,"36660 REYNOLDS DRIVE","FREMONT","CA","94536"
188094,"3667 AQUETONG RD","CARVERSVILLE","PA","18913"
188095,"3667 BUSINESS 220","BEDFORD","PA","15522"
188096,"3667 GRAPE AVE NE","GRAND RAPIDS","MI","49525"
188097,"3667 HIGHLAND GREEN","CINCINNATI","OH","45245"
188098,"3667 LALANI WAY","SARASOTA","FL","34232"
188099,"3667 MONTECITO HEIGHTS","SANTA ROSA","CA","95404"
188100,"3667 OALAND SPRINGS CT","SNELLVILEE","GA","30039"
188101,"3668 CANTON","DETROIT","MI","48207"
188102,"3668 CEDAR DRAW LANE","FILER","ID","83328"
188103,"3668 CO HWY 3280","FREEPORT","FL","32439"
188104,"3668 CONCORD FAIRHAVEN ROAD","EATON","OH","45320"
188105,"3668 CORTLAND DR","DAVENPORT","FL","33837"
188106,"3668 CRISTOM DR","RANCHO CORDOVA","CA","95670"
188107,"3668 MUIRFIELD DRIVE","SARASOTA","FL","34238"
188108,"3668 ROBIN LN","EAGAN","MN","55122"
188109,"3668 SOUTH LIBERTY AVENUE","TUCSON","AZ","85713"
188110,"36683 FORE ROAD","DENHAM SPRINGS","LA","70706"
188111,"36687 KOST TRAIL","NORTH BRANCH","MN","55056"
188112,"3669   STEWART LN","DUMFRIES","VA","22026"
188113,"3669 22ND ST S","FARGO","ND","58104"
188114,"3669 ALLA DR","SEVEN HILLS","OH","44131"
188115,"3669 B AVENUE","ARLINGTON","IA","50606"
188116,"3669 BELMONT ABBEY DRIVE","DECATUR","GA","30034"
188117,"3669 CAROL PARK ROAD","HOUSE SPRINGS","MO","63051"
188118,"3669 GAMBRELL LN NE","BROOKHAVEN","GA","30319"
188119,"3669 GRIFFITH","BERKLEY","MI","48072"
188120,"3669 KAWELOLANI PL","HONOLULU","HI","96816"
188121,"3669 MALIN COURT","CHANTILLY","VA","20151"
188122,"3669 OLINVILLE AVE","BRONX","NY","10467"
188123,"3669 TAYLOR ROAD UNIT 1789","LOOMIS","CA","95650"
188124,"3669 TILDEN TRAIL","NEW BRAUNFELS","TX","78132"
188125,"3669 WESTWOOD BLVD APT 212","LOS ANGELES","CA","90034"
188126,"3669 WINDING WOOD LANE","LEXINGTON","KY","40515"
188127,"367 5TH STREET","BROOKLYN","NY","11215"
188128,"367 ATHENS HWY SUITE 100 A","LOGANVILLE","GA","30052"
188129,"367 AYERS ROAD","FORT MILL","SC","29715"
188130,"367 BEDFORD AVE BSMT","BROOKLYN","NY","11211"
188131,"367 BROOKFIELD RD","BRIMFIELD","MA","01010"
188132,"367 BURNCOAT STREET","WORCESTER","MA","01606"
188133,"367 CARLYLE CIR","KETTERING","OH","45429"
188134,"367 COG HILL DRIVE","FAIRBURN","GA","30213"
188135,"367 DEERWOOD VILLAGE DRIVE","WOODBINE","GA","31569"
188136,"367 E 11TH ST","UPLAND","CA","91786"
188137,"367 E 120TH ST","LOS ANGELES","CA","90061"
188138,"367 E BEAUMONT RD","COLUMBUS","OH","43214"
188139,"367 E UNIVERSITY ST","HENDERSON","TN","38340"
188140,"367 EDGECOMBE AVENUE APARTMENT 41","NEW YORK","NY","10031"
188141,"367 FORESTA TERRACE","WEST PALM BEACH","FL","33415"
188142,"367 GARDEN RD","VENICE","FL","34293"
188143,"367 GRACIE ROAD","NEVADA CITY","CA","95959"
188144,"367 GRAND AVENUE","BROOKLYN","NY","11238"
188145,"367 GROVE ST","ST PAUL","MN","55101"
188146,"367 HALDEIGH LANE","NORTH BRUNSWICK","NJ","08902"
188147,"367 HIGHLAND AVE","CARNEYS POINT","NJ","08069"
188148,"367 HIGHWAY 165","EUFAULA","AL","36027"
188149,"367 LAKE DOUGLAS ROAD","WHIGHAM","GA","39897"
188150,"367 MAGNOLIA DR","BARBERTON","OH","44203"
188151,"367 MAIN STREET","WELLSVILLE","PA","17365"
188152,"367 MAPLE STREET","DANVERS","MA","01923"
188153,"367 MARDELLA DRIVE","CAMDEN WYOMING","DE","19934"
188154,"367 MCNABB RD","INKOM","ID","83245"
188155,"367 MONTGOMERY STREET NE","MARIETTA","GA","30060"
188156,"367 MUSTANG DRIVE","RED SPRINGS","NC","28377"
188157,"367 NE BAKER RD","STUART","FL","34994"
188158,"367 NORTH ROYAL STREET","JACKSON","TN","38301"
188159,"367 OLD PLANK ROAD","DEPOSIT","NY","13754"
188160,"367 PARKWOOD DR     APT 6","BUCKHANNON","WV","26201"
188161,"367 PINE SHADOW LANE","AUBURNDALE","FL","33823"
188162,"367 S ST ANDREWS ST","DOTHAN","AL","36301"
188163,"367 SANDY CREEK DRIVE","SUNNYVALE","TX","75182"
188164,"367 SANTANA HEIGHTS UNIT 3081","SAN JOSE","CA","95128"
188165,"367 SHEPPARD RD","JACKSON","MS","39206"
188166,"367 SNYDER LANE","MOUNTAIN VIEW","CA","94043"
188167,"367 TURNERVILLE RD","VICKSBURG","MS","39183"
188168,"367 W MOUNT MARIA RD","SPRUCE","MI","48762"
188169,"367 WEST COUGAR LANE","CHINA SPRING","TX","76633"
188170,"3670 360TH AVENUE","RUTHVEN","IA","51358"
188171,"3670 AVENIDA CALLADA","CALABASAS","CA","91302"
188172,"3670 BILTMORE OAKS DRIVE","BETHLEHEM","GA","30620"
188173,"3670 BOONESBORO ROAD","WINCHESTER","KY","40391"
188174,"3670 CONRAD LANDING ROAD","PULASKI","VA","24301"
188175,"3670 DEMOCRAT RD","MEMPHIS","TN","38118"
188176,"3670 GLENDON AVE APT327","LOS ANGELES","CA","90034"
188177,"3670 GRAYHAWK DRIVE","ALGONQUIN","IL","60102"
188178,"3670 IRWIN BRIDGE RD NW","CONYERS","GA","30012"
188179,"3670 LINDSY BROOKE CT","DOUGLASVILLE","GA","30135"
188180,"3670 MOSSY CREEK LN","TALLAHASSEE","FL","32311"
188181,"3670 MT READ BLVD","ROCHESTER","NY","14616"
188182,"3670 TAMPA DRIVE","NASHVILLE","TN","37211"
188183,"36700 PARKCREST CIRCLE APT 202","WESTLAND","MI","48185"
188184,"36701 FORD RD","WESTLAND","MI","48185"
188185,"36702 CHERRY OAK DRIVE","WESTLAND","MI","48186"
188186,"36703 SE SUNSET VIEW RD","WASHOUGAL","WA","98671"
188187,"3671 APACHE TRAIL","SPRINGFIELD","TN","37172"
188188,"3671 BURNAGE HALL RD","HARRISBURG","NC","28075"
188189,"3671 EAST LINCOLN AVE","SACRAMENTO","CA","95818"
188190,"3671 FIRETOWER RD","WETUMPKA","AL","36093"
188191,"3671 FOREST PEAK LNDG","MARIETTA","GA","30066"
188192,"3671 LAKE ROAD","SHEFFIELD LAKE","OH","44054"
188193,"3671 LEMAY WOODS DRIVE","SAINT LOUIS","MO","63129"
188194,"3671 N LAVERNE AVE","FRESNO","CA","93727"
188195,"3671 S  HURON SUITE 302","ENGLEWOOD","CO","80110"
188196,"3671 S HURON ST 302","DENVER","CO","80110"
188197,"3671 SOUTH SAINT ANDREWS PLACE","LOS ANGELES","CA","90018"
188198,"36712 653RD AVE","WATKINS","MN","55389"
188199,"3672 AVIATOR CT","CHEYENNE","WY","82009"
188200,"3672 FERNWAY DR","MONTGOMERY","AL","36111"
188201,"3672 FM 132","CROCKETT","TX","75835"
188202,"3672 N RANCHO DRIVE","LAS VEGAS","NV","89130"
188203,"3672 NORTH RANCHO DR","LAS VEGAS","NV","89130"
188204,"3672 POINTE PASS NW","PRIOR LAKE","MN","55372"
188205,"36725 DIVISION","RICHMOND","MI","48062"
188206,"36727 BLANTON ROAD","DADE CITY","FL","33523"
188207,"3673 CR 34","MERINO","CO","80741"
188208,"3673 ELIZABETH ST","LAKE WORTH","FL","33461"
188209,"3673 GAMBRELL LN NE","BROOKHAVEN","GA","30319"
188210,"3673 IAN THOMAS ST SUITE 203","LAS VEGAS","NV","89129"
188211,"3673 LEXINGTON AVE N / H-2 / 341","ARDEN HILLS","MN","55126"
188212,"3673 MOUNT JOY ROAD","MOUNT JOY","PA","17552"
188213,"3673 RIDGECREST DR","CASPER","WY","82604"
188214,"3673-A MAYBANK HIGHWAY","JOHNS ISLAND","SC","29455"
188215,"36730 E HIGHWAY 2","MULLEN","NE","69152"
188216,"36732 GROVE ST","LIVONIA","MI","48154"
188217,"36737 DOVE SPRINGS DRIVE","PALMDALE","CA","93550"
188218,"36737 N STONEWARE DRIVE","QUEEN CREEK","AZ","85140"
188219,"3674 BLAINE AVENUE","ST LOUIS","MO","63110"
188220,"3674 CAMELOT DR SE 2B","GRAND RAPIDS","MI","49546"
188221,"3674 EAST LAZY RIVER DR","DUNNELLON","FL","34434"
188222,"3674 EDGE RD","KINGSTON","OK","73439"
188223,"3674 MOUNT ACOMITA AVE","SAN DIEGO","CA","92111"
188224,"3674 MURDOCKSVILLE RD","WEST END","NC","27376"
188225,"3674 S 580 E","SOUH SALT LAKE","UT","84106"
188226,"3674 SHADY CREEK COURT","FRISCO","TX","75033"
188227,"3674 TORRINGFORD STREET","TORRINGTON","CT","06790"
188228,"3674 WILLOW TREE CIR","DOUGLASVILLE","GA","30135"
188229,"36745 GROESBECK HWY","CLINTON TOWNSHIP","MI","48035"
188230,"36746 ACORN CT","PALMDALE","CA","93550"
188231,"36748 BRAKEN WAY","LAKE ELSINORE","CA","92532"
188232,"36748 TANGLEWOOD LN","FARMINGTON HILLS","MI","48331"
188233,"3675 12TH AVE SE","NAPLES","FL","34117"
188234,"3675 BAY POINT","MARTINEZ","GA","30907"
188235,"3675 BROADWAY APT D1","FORT MYERS","FL","33901"
188236,"3675 CHARLTON IVES DRIVE NW","LILBURN","GA","30047"
188237,"3675 CRESTWOOD PARKWAY NW  STE 400","DULUTH","GA","30096"
188238,"3675 E 600 S","LAFAYETTE","IN","47909"
188239,"3675 E LEXUS DRIVE","FAYETTEVILLE","AR","72764"
188240,"3675 GREEN HILL AVE","CINCINNATI","OH","45220"
188241,"3675 JULLION ST","BOISE","ID","83704"
188242,"3675 MARKET STREET SUITE 200","PHILADELPHIA","PA","19104"
188243,"3675 N 124TH ST","BROOKFIELD","WI","53005"
188244,"3675 SIMIS DR","DECATUR","IL","62526"
188245,"3675 W 90TH PL","WESTMINSTER","CO","80031"
188246,"3675","SILVER LAKE","OH","44224"
188247,"36750 S CEDAR CREEK ROAD","ARIVACA","AZ","85601"
188248,"36750 US HIGHWAY 19 N","PALM HARBOR","FL","34684"
188249,"36751 EUCLID AVENUE","WILLOUGHBY","OH","44094"
188250,"3676 COUNTY ROAD P","CROSS PLAINS","WI","53528"
188251,"3676 HIDDEN BEACH COURT","LAS VEGAS","NV","89115"
188252,"3676 KEE WAD NOONG CIRCLE","HARBOR SPRINGS","MI","49740"
188253,"3676 LEGENDS DRIVE","SIMI VALLEY","CA","93065"
188254,"3676 LOWRY ROAD","LOS ANGELES","CA","90027"
188255,"3676 N WASHINGTON BLVD","INDIANAPOLIS","IN","46205"
188256,"3676 PINEDALE ST","BOULDER","CO","80301"
188257,"3676 TRAYNHAM ROAD","SHAKER HEIGHTS","OH","44122"
188258,"3677 CNETRAL AVE UNIT E","FORT MYERS","FL","33901"
188259,"3677 CORAL SPRINGS DRIVE","CORAL SPRINGS","FL","33065"
188260,"3677 PEEL RD","RADNOR","OH","43066"
188261,"3677 SOUTH HURON STREET","DENVER","CO","80110"
188262,"36774 FORAKER COURT","STERLING","TX","99672"
188263,"36777 SHADY CREEK CIRCLE","NEW BALTIMORE","MI","48047"
188264,"36778 BOXWOOD COURT","PALMDALE","CA","93550"
188265,"3678 EAST 49TH ST","TULSA","OK","74135"
188266,"3678 NORTH 1400 WEST","MEDARYVILLE","IN","47957"
188267,"36785 NW LONG RD","CORNELIUS","OR","97113"
188268,"3679 G ROAD","PALISADE","CO","81526"
188269,"3679 HWY 277 E","TILLAR","AR","71670"
188270,"3679 N 900 E","GREENTOWN","IN","46936"
188271,"3679 SHAWNEE ROAD","LIMA","OH","45806"
188272,"368  CARL SANDERS DRIVE","ACWORTH","GA","30101"
188273,"368 1ST AVE","DAYTON","TN","37321"
188274,"368 28TH ST SUITE B","OAKLAND","CA","94609"
188275,"368 63RD STREET  2F","BROOKLYN","NY","11220"
188276,"368 ABELLO ROAD SE","PALM BAY","FL","32909"
188277,"368 BROAD STREET APT 202","NEWARK","NJ","07104"
188278,"368 BROOKS ROAD","SUMMERVILLE","GA","30747"
188279,"368 BUNTYN","MEMPHIS","TN","38141"
188280,"368 CALLE LOMA NORTE","SANTA FE","NM","87501"
188281,"368 CO RD 322","TRINITY","AL","35673"
188282,"368 DARWIN DRIVE","AMHERST","NY","14226"
188283,"368 ECHOLS LANE","LEWISBURG","WV","24901"
188284,"368 EGS BLVD","BATESVILLE","IN","47006"
188285,"368 GREENCREST DRIVE","ATHENS","GA","30605"
188286,"368 HALLMAN MILL ROAD","PHOENIXVILLE","PA","19460"
188287,"368 HILLTOP DR","CLARKSVILLE","TN","37040"
188288,"368 HONDURAS RD","MEMPHIS","TN","38109"
188289,"368 KINGSTON ST","AURORA","CO","80010"
188290,"368 KINGSTON STREET","AURORA","CO","80010"
188291,"368 LAKE AVE","SARATOGA SPRINGS","NY","12866"
188292,"368 LAKE DRIVE","SMYRNA","DE","19977"
188293,"368 LONGVIEW DR","DESTREHAN","LA","70047"
188294,"368 LORLITA LANE","PITTSBURGH","PA","15241"
188295,"368 LOS BRONCOS","WHITEWATER","CO","81527"
188296,"368 MACARTHUR AVE","LONG BRANCH","NJ","07740"
188297,"368 MAIN STREET","NORWICH","VT","05055"
188298,"368 MARTHA DR","CANONSBURG","PA","15317"
188299,"368 MINKLER LAKE DRIVE","ALLEGAN","MI","49010"
188300,"368 N B ST","CENTERTON","AR","72719"
188301,"368 N JEFFERSON AVE","PORT ALLEN","LA","70767"
188302,"368 NEW HEMPSTEAD ROAD   SUITE 248","NEW CITY","NY","10956"
188303,"368 NEW HEMPSTEAD ROAD - SUITE 248","NEW CITY","NY","10956"
188304,"368 NEW HEMPSTEAD ROAD SUITE 261","NEW CITY","NY","10956"
188305,"368 NH RTE 11 NUMBER 110","FARMINGTON","NH","03835"
188306,"368 PINE LOG ROAD","BEECH ISLAND","SC","29842"
188307,"368 RIVERCHASE BLVD","CRESTVIEW","FL","32536"
188308,"368 SAWMILL LANE","PONTE VEDRA BEACH","FL","32082"
188309,"368 SIMMENTAL MEADOWS DR","GATE CITY","VA","24251"
188310,"368 SLOCOMB ROAD","FAYETTEVILLE","NC","28311"
188311,"368 W BON AIR DRIVE","PALM SPRINGS","CA","92262"
188312,"368 WASHINGTON AVE","VALPARAISO","FL","32580"
188313,"368 WASHINTON AVE","VALPARAISO","FL","32580"
188314,"368 WENDELL SCOTT DRIVE","DANVILLE","VA","24540"
188315,"368 WEST DORAN ST  SUITE D","GLENDALE","CA","91203"
188316,"368 WINDING LANE","BREA","CA","92821"
188317,"368","DECATUR","GA","30034"
188318,"368","DELMAR","DE","19940"
188319,"3680 AVALON PARK E BLVD STE 300","ORLANDO","FL","32828"
188320,"3680 BILLY LN","MCKINNEY","TX","75071"
188321,"3680 HONEYCREEPER DRIVE","TURLOCK","CA","95382"
188322,"3680 HORNADAY RD","BROWNSBURG","IN","46112"
188323,"3680 HORNADAY ROAD","BROWNSBURG","IN","46112"
188324,"3680 MAGNOLIA STREET","ST. GABRIEL","LA","70776"
188325,"3680 NORWOOD ROAD","SHAKER HEIGHTS","OH","44122"
188326,"3680 PALO VERDE AVE","LONG BEACH","CA","90808"
188327,"3680 RENAISSANCE CIRCLE","ATLANTA","GA","30349"
188328,"3680 SOUTHPOINT COURT","MARIETTA","GA","30062"
188329,"3680 SOUTHPOINT CT","MARIETTA","GA","30062"
188330,"3680 STONELEIGH RD","CLEVELAND HEIGHTS","OH","44121"
188331,"3680 THOMAS AVENUE","MIAMI","FL","33133"
188332,"3680 WILKESBORO BLVD","LENOIR","NC","28645"
188333,"3680 WILSHIRE BLVD P04-1300","LOS ANGELES","CA","90010"
188334,"3680 WILSHIRE BLVD STE P04 - 1011","LOS ANGELES","CA","90010"
188335,"3680 WILSHIRE BLVD STE P04-1132","LOS ANGELES","CA","90010"
188336,"3680 WILSHIRE BLVD STE P041173","LOS ANGELES","CA","90010"
188337,"3680 WILSHIRE BLVD/ STE P04 - 1693","LOS ANGELES","CA","90010"
188338,"36805 HILLVIEW RD","HINKLEY","CA","92347"
188339,"3681 CHERRY RD","MEMPHIS","MS","38118"
188340,"3681 CHERRY RD","MEMPHIS","TN","38118"
188341,"3681 HAPPY VALLEY CIRCLE","NEWNAN","GA","30263"
188342,"3681 NW 33RD STREET","LAUDERDALE LAKES","FL","33309"
188343,"3681 SUNNYSIDE DRIVE 2704","RIVERSIDE","CA","92516"
188344,"3681 TAVERN WAY","TRIANGLE","VA","22172"
188345,"3681 WELLHAUN RD","DECATUR","GA","30034"
188346,"36811 ALLDER SCHOOL ROAD","PURCELLVILLE","VA","20132"
188347,"36815 LESLYE LN","EUSTIS","FL","32736"
188348,"36815 PACIFIC HWY S","FEDERAL WAY","WA","98003"
188349,"36817 50TH ST","JANESVILLE","MN","56048"
188350,"3682 CEDAR CORNERS PLACE","PEACHTREE CORNERS","GA","30092"
188351,"3682 KING STREET UNIT 17321","ALEXANDRIA","VA","22302"
188352,"36825 FOOTHILL RD","SOLEDAD","CA","93960"
188353,"36825 RED BERRY ROAD","DELMAR","DE","19940"
188354,"36826 MYRA CT","STERLING HEIGHTS","MI","48312"
188355,"3683 EDGEBROOKE DR APT 208","BRUNSWICK","OH","44212"
188356,"3683 LONGFELLOW ROAD","TALLAHASSEE","FL","32311"
188357,"3683 W GRAND AVE","CHICAGO","IL","60651"
188358,"3683 WHITWORTH DRIVE","DUBLIN","CA","94568"
188359,"3683 WILD ROSE LOOP","WEST LYNN","OR","97068"
188360,"36835 DESERT WILLOW DR","PALMDALE","CA","93550"
188361,"36839 JUSTIN COURT","PALMDALE","CA","93550"
188362,"3684 ANDERSON ROAD","BELLVILLE","OH","44813"
188363,"3684 BLUEBIRD LN","KINGMAN","AZ","86409"
188364,"3684 BROADWAY","NEW YORK","NY","10031"
188365,"3684 KINGSBORO RD NE","ATLANTA","GA","30319"
188366,"3684 KINGSBORO RD","ATLANTA","GA","30319"
188367,"3684 W KY 10","TOLLESBORO","KY","41189"
188368,"3684 WINDBER BLVD","PALM HARBOR","FL","34685"
188369,"3685 45TH ST","SAN DIEGO","CA","92105"
188370,"3685 KLINE ST          3","WHEATRIDGE","CO","80033"
188371,"3685 LEE RD","SHAKER HTS","OH","44120"
188372,"3685 LOCKS HILL","MARTINEZ","GA","30907"
188373,"3685 S LA CIENEGA BLVD","LOS ANGELES","CA","90016"
188374,"3685 STILLWATER DRIVE","BILLINGS","MT","59102"
188375,"3685 VOLTAIRE STREET","SAN DIEGO","CA","92106"
188376,"36851 AMATEUR WAY","BEAUMONT","CA","92223"
188377,"36853 BLANC COURT","WINCHESTER","CA","92596"
188378,"36855 HAFNER ST","NEWARK","CA","94560"
188379,"3686 CORAL TREE CIRCLE","COCONUT CREEK","FL","33073"
188380,"3686 E FALL CREEK PARKWAY N DRIVE","INDIANAPOLIS","IN","46205"
188381,"3686 EDGEMONT DR","BATON ROUGE","LA","70814"
188382,"3686 GRANDVIEW PARKWAY SUITE 720","BIRMINGHAM","AL","35243"
188383,"3686 LINDSEY ROAD","VINELAND","NJ","08361"
188384,"3686 MCKEEVER SCHOOLHOUSE RD","WILLIAMSBURG","OH","45176"
188385,"3686 S LAKEVIEW LOOP 11","WASILLA","AK","99623"
188386,"3686 S QUATAR WAY","AURORA","CO","80018"
188387,"3687 COVE POINT DR","SALT LAKE CITY","UT","84109"
188388,"3687 RIMINI LANE","DUBLIN","CA","94568"
188389,"3687 S BUCKSKIN TRAIL","ELIDA","OH","45807"
188390,"3687 S WEST TEMPLE APT 20","SALT LAKE CITY","UT","84115"
188391,"3687 SUMMER AVENUE","MEMPHIS","TN","38122"
188392,"3687 VERONA CANEY RD","LEWISBURG","TN","37091"
188393,"36875 REYNOLDS DR","FREMONT","CA","94536"
188394,"3688 18TH STREET - APT 2","SAN FRANCISCO","CA","94110"
188395,"3688 CHAMBLEE DUNWOODY RD","ATLANTA","GA","30341"
188396,"3688 CHAMBLEE DUNWOODY RD","CHAMBLEE","GA","30341"
188397,"3688 CHAMBLEE DUNWOODY ROAD","CHAMBLEE","GA","30341"
188398,"3688 CHAMBLEE-DUNWOODY ROAD","CHAMBLEE","GA","30341"
188399,"3688 CLEARVIEW AVE SE 130","ATLANTA","GA","30340"
188400,"3688 LAKE ELEANOR DRIVE","MOUNT DORA","FL","32757"
188401,"3688 N ELKRIDGE TRL","EDEN","UT","84310"
188402,"3688 W PENSACOLA CIR","WEST JORDAN","UT","84084"
188403,"36880 MATTOLE ROAD","PETROLIA","CA","95558"
188404,"3689 CASSIA DR","ORLANDO","FL","32828"
188405,"3689 FIELDCREST ROAD","FLOWER MOUND","TX","75022"
188406,"3689 LAKE END DR","LOGANVILLE","GA","30052"
188407,"3689 SNOWDROP ROAD","BALDWINSVILLE","NY","13027"
188408,"3689 VERMONT ROUTE 14","EAST CALAIS","VT","05650"
188409,"3689 VERMONT RTE 14","EAST CALAIS","VT","05650"
188410,"369 13TH STREET","OAKLAND","CA","94612"
188411,"369 16TH STREET","KERMAN","CA","93630"
188412,"369 1ST STREET","HOBOKEN","NJ","07030"
188413,"369 AIR HARBOR ROAD","GREENSBORO","NC","27455"
188414,"369 ASHFORD AVENUE - SUITE N","DOBBS FERRY","NY","10522"
188415,"369 AUTUMN LANE","ATLANTA","GA","30310"
188416,"369 BALDWIN RD","RICHMOND","CA","40475"
188417,"369 BARTLETT LN","GRANTS PASS","OR","97527"
188418,"369 BEAR CREEK LAKE DRIVE","JIM THORPE","PA","18229"
188419,"369 BLACKLEY CREEK RD","LIMESTONE","TN","37681"
188420,"369 BLEECKER STREET FL 3","NEW YORK","NY","10014"
188421,"369 BRETHERN CHURCH DRIVE","JONESBOROUGH","TN","37604"
188422,"369 BROADWAY","STATEN ISLAND","NY","10310"
188423,"369 CHURCH STREET","RAYNHAM","MA","02767"
188424,"369 COUNTY ROAD 1835","TALCO","TX","75487"
188425,"369 COUNTY ROAD 3309","CLARKSVILLE","AR","72830"
188426,"369 DISTRIBUTION PARKWAY","COLLIERVILLE","TN","38017"
188427,"369 E 270TH STREET","EUCLID","OH","44132"
188428,"369 EAST 194TH STREET APT 2","BRONX","NY","10458"
188429,"369 EAST 28TH STREET","BROOKLYN","NY","11226"
188430,"369 ELDORADO BLVD UNIT B232","BROOMFIELD","CO","80021"
188431,"369 FARMSTEAD LANE","ORANGEBURG","SC","29116"
188432,"369 FARMSTEAD ROAD","WINSTON SALEM","NC","27107"
188433,"369 FARMSTEAD ROAD","WINSTON-SALEM","NC","27107"
188434,"369 FM1346","LA VERNIA","TX","78121"
188435,"369 HAPPY VALLEY RD","MIDDLEBURY","VT","05753"
188436,"369 HODGE RD","PERRY","GA","31069"
188437,"369 IRVING AVE","SAN JOSE","CA","95128"
188438,"369 KEYSTONE AVE","YOUNGSTOWN","OH","44505"
188439,"369 MARVIN STALVEY RD","HOMERVILLE","GA","31634"
188440,"369 MCDONOUGH PARKWAY","MCDONOUGH","GA","30253"
188441,"369 MONACO AVE","UNION CITY","CA","94587"
188442,"369 MONTEZUMA  APT 112","SANTA FE","NM","87501"
188443,"369 MONTEZUMA 112","SANTA FE","NM","87501"
188444,"369 MONTEZUMA AVE 369","SANTA FE","NM","87501"
188445,"369 MONTEZUMA AVE STE 124","SANTA FE","NM","87501"
188446,"369 MONTEZUMA AVE STE 369","SANTA FE","NM","87501"
188447,"369 MONTEZUMA AVE STE 416","SANTA FE","NM","87501"
188448,"369 MONTEZUMA AVE","SANTA FE","NM","87501"
188449,"369 MONTFORD AVE","ASHEVILLE","NC","28801"
188450,"369 N BIERMANN AVE","VILLA PARK","IL","60181"
188451,"369 N MAIN ST","CRESTVIEW","FL","32536"
188452,"369 PLEASANT GROVE ROAD","CAPON  BRIDGE","WV","26711"
188453,"369 PORT AU PECK AVE","OCEANPORT","NJ","07757"
188454,"369 RAVENELLE RD","N GROSVENORDALE","CT","06255"
188455,"369 S DOHENY DR 197","BEVERLY HILLS","CA","90211"
188456,"369 S DOHENY DR APT 148","BEVERLY HILLS","CA","90211"
188457,"369 S DOHENY DR STE 135","BEVERLY HILLS","CA","90211"
188458,"369 S DOHENY DRIVE SUITE 1317","BEVERLY HILLS","CA","90211"
188459,"369 SAM HOUSTON CIRCLE","CLARKSVILLE","TN","37040"
188460,"369 SHORESIDE DR","LEXINGTON","KY","40515"
188461,"369 VIRGINIA LANE","KULPMONT","PA","17834"
188462,"369 WILLSHIRE CT NE","CEDAR RAPIDS","IA","52402"
188463,"369-B 3RD STREET BOX 647","SAN RAFAEL","CA","94901"
188464,"369","WILSON","KS","67490"
188465,"3690 AUTUMN VIEW DRIVE NW","ACWORTH","GA","30101"
188466,"3690 BARHAM BLVD APT G-107","LOS ANGELES","CA","90068"
188467,"3690 CUMBERLAND DRIVE","MOSS POINT","MS","39563"
188468,"3690 IRIS AVE A","BOULDER","CO","80301"
188469,"3690 NE 195TH LN","AVENTURA","FL","33180"
188470,"3690 NORTH US HIGHWAY 1","FORT PIERCE","FL","34946"
188471,"3690 OBELISK COURT","PERRIS","CA","92570"
188472,"3690 RADIO RD - SUITE 204","NAPLES","FL","34120"
188473,"3690 SOUTH HAMPTON DRIVE","BETTENDORF","IA","52722"
188474,"3690 SOUTH HOLCOMB ROAD","BOISE","ID","83706"
188475,"3690 W GANDY BLVD 204","TAMPA","FL","33611"
188476,"36901 SPRUCE STREET","NEWARK","CA","94560"
188477,"3691 DEVON PARK LN NW","KENNESAW","GA","30144"
188478,"3691 FLOYD ROAD BUILDING 300 ST 182","AUSTELL","GA","30106"
188479,"3691 PORTLAND TRAIL DR","SUWANEE","GA","30024"
188480,"3691 SILVER OAK CT","BELLINGHAM","WA","98226"
188481,"3691 TAMPA TRAIL SW","ATLANTA","GA","30331"
188482,"3691 WINGED FOOT CIRCLE","GREEN COVE SPRINGS","FL","32043"
188483,"3691 WINKLER AVE EXT APT 813","FORT MYERS","FL","33916"
188484,"3692 E MOHAWK DR","SIERRA VISTA","AZ","85650"
188485,"3692 KATELLA AVE STE B","LOS ALAMITOS","CA","90720"
188486,"3692 N GARDNER AVE","MERCED","CA","95340"
188487,"3692 PADDINGTON TRL","REX","GA","30273"
188488,"3692 SEMINOLE DR","ORLANDO","FL","32812"
188489,"3692 TROUT LILY COURT","ATLANTA","GA","30349"
188490,"36922 BILLIARD DRIVE 283","ZE","FL","33541"
188491,"36922 MONTECITO DRIVE","FREMONT","CA","94536"
188492,"3693 5TH AVE","SACRAMENTO","CA","95817"
188493,"3693 BANCROFT ST","SAN DIEGO","CA","92104"
188494,"3693 COMMERCIAL AVE","NORTHBROOK","IL","60062"
188495,"3693 HIGHWAY 185","NEW HAVEN","MO","63069"
188496,"3693 PREAKNESS CIRCLE","COLLEGE STATION","TX","77845"
188497,"3693 RUSSEL ROAD","WOODBRIDGE","VA","22192"
188498,"36932 SILICATO DRIVE STE 10","MILLSBORO","DE","19966"
188499,"36933 FREDS LANE","PURCELLVILLE","VA","20132"
188500,"36939 CENTER ST","DADE CITY","FL","33525"
