"ID","Address","City","State","Zip"
201501,"4059 HICKORY FAIRWAY DRIVE","WOODSTOCK","GA","30188"
201502,"4059 HWY 63","CLINTON","LA","70722"
201503,"4059 N 25TH STREET","MILWAUKEE","WI","53209"
201504,"4059 NOBLEMAN POINT","PEACHTREE CORNERS","GA","30097"
201505,"4059 SKYRON DR","DOYLESTOWN","PA","18902"
201506,"4059 VT RTE 22A","ADDISON","VT","05491"
201507,"405A EAST FIRST AVENUE","EASLEY","SC","29640"
201508,"405B OMEGA STREET","BELLE CHASSE","LA","70037"
201509,"406  NECK ROAD","BURLINGTON TOWNSHIP","NJ","08016"
201510,"406 1/2 MAIN ST","VICTORIA","TX","77901"
201511,"406 11TH AVE N","NASHVILLE","TN","37203"
201512,"406 14TH ST NW","CHARLOTTESVILLE","VA","22903"
201513,"406 14TH STREET","OAKLAND","CA","94612"
201514,"406 161 STREET APT 8D","BRONX","NY","10451"
201515,"406 19TH AVENUE SW  OR P O BOX 33","LANETT","AL","36863"
201516,"406 25TH AVE","MERIDIAN","MS","39301"
201517,"406 2ND AVE N","SARTELL","MN","56377"
201518,"406 4TH AVE","MASON","OH","45040"
201519,"406 5TH ST NW","BONDURANT","IA","50035"
201520,"406 5TH ST","RAPID CITY","SD","57701"
201521,"406 5TH STREET","RAPID CITY","SD","57701"
201522,"406 9TH AVENUE SUITE 311","SAN DIEGO","CA","92101"
201523,"406 ALBERT WAY","APPLETON","WI","54915"
201524,"406 ALISON AVE","MECHANICSBURG","PA","17055"
201525,"406 ANDERAON ROAD","LINDEN","NC","28356"
201526,"406 AVENUE E","WEST POINT","IA","52656"
201527,"406 AVENUE S WEST","FORT DODGE","IA","50501"
201528,"406 B CONCHO STREET","LOCKHEART","TX","78644"
201529,"406 B VIA ROSA","SANTA BARBARA","CA","93110"
201530,"406 BARRON STREET","BENSENVILLE","IL","60106"
201531,"406 BARTH AVE SE","GRAND RAPIDS","MI","49506"
201532,"406 BILTMORE WAY","LAFAYETTE","LA","70508"
201533,"406 BLANCHE STREET","MONTICELLO","GA","31064"
201534,"406 BLUE JAY DR","HEWITT","TX","76643"
201535,"406 BOBWHITE COURT","STATESBORO","GA","30458"
201536,"406 BROADWAY  SUITE 182","SANTA MONICA","CA","90401"
201537,"406 BROADWAY ST","ROCK SPRINGS","WY","82901"
201538,"406 BROADWAY STREET","MYRTLE BEACH","SC","29577"
201539,"406 BROOK AVE","BAY SHORE","NY","11706"
201540,"406 BROWN STREET","WAXAHACHIE","TX","75165"
201541,"406 BROWN STREET","WEST COLUMBIA","SC","29169"
201542,"406 BRYANT ST","PETAL","MS","39465"
201543,"406 BUCHANAN AVE","CAPE CANAVERAL","FL","32920"
201544,"406 BURRELL AVE N14","LEWISTON","ID","83501"
201545,"406 CEDAR LN","SHOREWOOD","IL","60404"
201546,"406 CHARLES STREET","LEBANON","PA","17042"
201547,"406 CHURCH HILL DR","FINDLAY","OH","45840"
201548,"406 COAL TRAIN COURT","DELAWARE","OH","43015"
201549,"406 CONNELLY ST","DOTHAN","AL","36301"
201550,"406 COUNTRY CLUB DRIVE","ELLWOOD CITY","PA","16117"
201551,"406 CROSS STREET","NORTH MANKATO","MN","56003"
201552,"406 CYPRESS ST","VALDOSTA","GA","31601"
201553,"406 DAVIS STREET","CLARKSBURG","WV","26301"
201554,"406 DEXTER PL","MONROE","NC","28110"
201555,"406 DOMINION DR","EULESS","TX","76039"
201556,"406 E 11TH ST","PORT ANGELES","WA","98362"
201557,"406 E 14TH STREET","FREMONT","NE","68025"
201558,"406 E 7TH ST","LEHIGH ACRES","FL","33972"
201559,"406 E CONVERSE ST","WEIMAR","TX","78962"
201560,"406 E DIANE DRIVE","PALATINE","IL","60074"
201561,"406 E ELM","FAIRBURY","IL","61739"
201562,"406 E LOCUST","SAN ANTONIO","TX","78212"
201563,"406 E SEYMOUR ST","KENTLAND","IN","47951"
201564,"406 E SOUTH ST","COLDWATER","OH","45828"
201565,"406 E VANDERBILT WAY","SAN BERNARDINO","CA","92408"
201566,"406 EAST 21ST STREET","SIOUX FALLS","SD","57105"
201567,"406 EAST 300 SOUTH  265","SALT LAKE CITY","UT","84111"
201568,"406 EAST BODENHAMER ST","KERNERSVILLE","NC","27284"
201569,"406 EAST CHELTEN AVE 1ST FLOOR","PHILADELPHIA","PA","19144"
201570,"406 EAST DAVIS STREET","SMITHFIELD","NC","27577"
201571,"406 EAST POINTE DRIVE","ITHACA","NY","14850"
201572,"406 ESSEX ROAD","EAST MEADOW","NY","11544"
201573,"406 FIRESIDE DRIVE","COLUMBIA","SC","29212"
201574,"406 FISHEL AVENUE EXTENSION","RIVERHEAD","NY","11901"
201575,"406 GHENT ST","WINDSOR","NC","27983"
201576,"406 GLENBURNIE DR","HOUSTON","TX","77022"
201577,"406 HANNAH MCKENZIE DRIVE","GREENSBORO","NC","27455"
201578,"406 HANOVER AVE","ALLENTOWN","PA","18109"
201579,"406 HAZLETT AVE","WHEELING","WV","26003"
201580,"406 HERRICKS RD","MINEOLA","NY","11501"
201581,"406 HOPSON STREET","TUTWILER","MS","38963"
201582,"406 HUNTOON RD","ST. JOSEPH","MO","64505"
201583,"406 INTERN WAY","DURHAM","NC","27713"
201584,"406 JEFF DAVIS AVE","WAVELAND","MS","39576"
201585,"406 JEFFERSON ST","LIVINGSTON","AL","35470"
201586,"406 JEFFERSON STREET","STERLING","CO","80751"
201587,"406 JIPSON STREET","BLISSFIELD","MI","49228"
201588,"406 JUNIPER CT","SOMERSET","NJ","08873"
201589,"406 KASKASKIA RD","MARQUETTE HEIGHTS","IL","61554"
201590,"406 LAKE AVE","WORCESTER","MA","01604"
201591,"406 LAKE MONTEREY CIRCLE","BOYNTON BEACH","FL","33426"
201592,"406 LAMONT LANE","HAMPTON","GA","30228"
201593,"406 LAUREL STREET","LAMARQUE","TX","77568"
201594,"406 LEAWOOD DRIVE","FRANKFORT","KY","40601"
201595,"406 LEIGH COURT","HIGHLAND VILLAGE","TX","75077"
201596,"406 LINCOLN PARK BLVD","ROCKFORD","IL","61102"
201597,"406 MADERA ST","BRENTWOOD","CA","94513"
201598,"406 MADISON STREET","JOLIET","IL","60435"
201599,"406 MAIN STREET - SUITE D","VACAVILLE","CA","95688"
201600,"406 MAIN STREET","HENRIETTA","MO","64036"
201601,"406 MAIN STREET","PLEASANT PLAINS","AR","72568"
201602,"406 MALDEN ROAD","COAL CENTER","PA","15423"
201603,"406 MARCUS GARVEY BLVD 2F","BROOKLYN","NY","11216"
201604,"406 MASSACHUSETTS AVENUE SUITE 3","ARLINGTON","MA","02474"
201605,"406 MCGILL PLACE NE","ATLANTA","GA","30312"
201606,"406 MEMORIAL AVE","WESTMONT","NJ","08108"
201607,"406 MERRIMAC TRAIL/ APT 14","WILLIAMSBURG","VA","23185"
201608,"406 MONCLA AVE","BELLE CHASSE","LA","70037"
201609,"406 MULBERRY ROW","ATLANTA","GA","30354"
201610,"406 N  SPRAIN STREET","BELLVILLE","TX","77418"
201611,"406 N 3RD STREET","MILLVILLE","NJ","08332"
201612,"406 N 4TH ST PO BOX 53","CUBA","IL","61427"
201613,"406 N MAIN ST","COUPEVILLE","WA","98239"
201614,"406 N PARK ST","MORAN","KS","66755"
201615,"406 NE 4TH STREET","MILFORD","DE","19963"
201616,"406 NEWBERRY STREET","GRAND PRAIRIE","TX","75052"
201617,"406 NORTH 4TH STREET","BATON ROUGE","LA","70802"
201618,"406 NORTH CASWELL STREET","GLENNVILLE","GA","30427"
201619,"406 NORTH CHEYENNE","HARDIN","MT","59034"
201620,"406 NORTH FOURTH STREET","BATON ROUGE","LA","70802"
201621,"406 NORTH FULTON AVENUE","MOUNT VERNON","NY","10552"
201622,"406 NORTH OAKHURST DRIVE SUITE 301","BEVERLY HILLS","CA","90210"
201623,"406 NW 7TH CT","NORTH HALLENDALE BEA","FL","33009"
201624,"406 NW CANTERBURY CT","PORT ST LUCIE","FL","34983"
201625,"406 OAK BROOK DRIVE","SALISBURY","NC","28146"
201626,"406 OAK STREET","WINDSOR","CO","80550"
201627,"406 OAKWOOD CIR NE","CLEVELAND","TN","37312"
201628,"406 OLD FORT RD","ROCKY MOUNT","VA","24151"
201629,"406 OLIVER STREET","ST MARYS","OH","45885"
201630,"406 OSPREY DRIVE","BAREFOOT BAY","FL","32976"
201631,"406 PARKINSON ST","MONONGAHELA","PA","15063"
201632,"406 PENHALE LANE","HELENA","AL","35080"
201633,"406 POLARIS STREET","SAN ANTONIO","TX","78203"
201634,"406 POLK ROAD 78","MENA","AR","71953"
201635,"406 RAILROAD STREET","MARKED TREE","AR","72365"
201636,"406 REMINGTON DR","MURPHY","TX","75094"
201637,"406 RIVER STREET","MINNEAPOLIS","MN","55401"
201638,"406 RUGBY ROAD","SALISBURY","NC","28144"
201639,"406 S  6 TH ST","ELKVILLE","IL","62932"
201640,"406 S BLACKSTONE","JACKSON","MI","49201"
201641,"406 S BLOUNT STREET","MADISON","WI","53703"
201642,"406 S CARROLL SUITE 1000","DENTON","TX","76201"
201643,"406 S COLUMBUS AVE","MT VERNON","NY","10552"
201644,"406 S MAPLE ST","SEARCY","AR","72143"
201645,"406 S MIDDLECREEK DR","NAMPA","ID","83686"
201646,"406 S STARGLEN DR","COVINA","CA","91724"
201647,"406 S WALNUT ST","HOPE","AR","71801"
201648,"406 SANTORINI CT","EL PASO","TX","79927"
201649,"406 SAVANNAH AVE","STATESBORO","GA","30458"
201650,"406 SCANDIA AVE","DES MOINES","IA","50315"
201651,"406 SHAFER ST APT 414","RICHMOND","VA","23220"
201652,"406 SIERRA VISTA WAY","GUNNISON","CO","81230"
201653,"406 SILVERCREST TERRACE","BEAVERCREEK","OH","45440"
201654,"406 SOUTH CLAYMONT ST","WILMINGTON","DE","19801"
201655,"406 SOUTH LAKE DRIVE","FARELY","IA","52046"
201656,"406 SOUTH LAKE DRIVE","FARLEY","IA","52046"
201657,"406 SOUTH NC 111 HWY","CHINQUAPIN","NC","28521"
201658,"406 SPRUCE ALY","TULLAHOMA","TN","37388"
201659,"406 STATE HIGHWAY 25","HOLCOMB","MO","63852"
201660,"406 STRONG ST","THOMASVILLE","GA","31792"
201661,"406 SUBURBAN DRIVE  149","NEWARK","DE","19711"
201662,"406 SUNNYVIEW DRIVE","RILEYVILLE","VA","22650"
201663,"406 SW HORRY AVE","MADISON","FL","32340"
201664,"406 SW SCHOOL STREET SUITE 310","ANKENY","IA","50023"
201665,"406 SW SCHOOL STREET","ANKENY","IA","50023"
201666,"406 TANNER TRCE","STOCKBRIDGE","GA","30281"
201667,"406 TARTAN WAY","ENTERPRISE","AL","36330"
201668,"406 TEXAS OAK DRIVE","ALPINE","TX","79830"
201669,"406 TROPIC CIRCLE","FRUITLAND PARK","FL","34731"
201670,"406 TURTLE CREEK DRIVE","SHREVEPORT","LA","71115"
201671,"406 TUSCANY VALLEY DR","LAFAYETTE","LA","70506"
201672,"406 VAN DREFF ST","SALMON","ID","83467"
201673,"406 VILLAGE PL","WEXFORD","PA","15090"
201674,"406 W 36TH ST","LUMBERTON","NC","28358"
201675,"406 W 7TH STREET","JASPER","IN","47546"
201676,"406 W BEACON STREET","PHILADELPHIA","MS","39350"
201677,"406 W CARTER ST","CLINTON","NC","28328"
201678,"406 W FIFTH ST APT 16","BRENHAM","TX","77833"
201679,"406 W JOHNSON STREET","SPRING HILL","KS","66083"
201680,"406 W MINNESOTA RD","PHARR","TX","78577"
201681,"406 W PULASKI HIGHWAY","ELKTON","MD","21921"
201682,"406 W SOUTH ST","GREENVILLE","MI","48838"
201683,"406 W SOUTH STREET","GREENVILLE","MI","48838"
201684,"406 W TROUTMAN PKWY","FORT COLLINS","CO","80526"
201685,"406 WALNUT STREET","YORKVILLE","IL","60560"
201686,"406 WASHINGTON AVE","ROANOKE","VA","24016"
201687,"406 WASHINGTON AVE","WEST PLAINS","MO","65775"
201688,"406 WAVELAND ROAD","CATONSILLE","MD","21228"
201689,"406 WAVELAND ROAD","CATONSVILLE","MD","21228"
201690,"406 WELLESLEY DRIVE SE","ALBUQUERQUE","NM","87106"
201691,"406 WEST 145 STREET","NEW YORK","NY","10031"
201692,"406 WEST 2ND STREET","MERRILL","OR","97633"
201693,"406 WEST 34TH B","AUSTIN","TX","78705"
201694,"406 WEST AVENUE","NORTH AUGUSTA","SC","29841"
201695,"406 WEST BEND DR","LEAGUE CITY","TX","77573"
201696,"406 WEST BROADWAY STREET","LAWRENCEBURG","KY","40342"
201697,"406 WEST MOUNTAIN STREET","KERNERSVILLE","NC","27284"
201698,"406 WEST SOUTH STREET","BENTON","AR","72015"
201699,"406 WEST STREET","PITTSFIELD","MA","01201"
201700,"406 WEST ZIMMERMAN STREET","FOREST","OH","45843"
201701,"406 WILDWOOD AVENUE","RIO DELL","CA","95562"
201702,"406 WILLOW WOOD DR","PFLUGERVILLE","TX","78660"
201703,"406 WISTFUL VISTA COURT","GLEN BURNIE","MD","21061"
201704,"406 YORKTOWN BLVD","LOCUST GROVE","VA","22508"
201705,"406 ZINNIA COURT","BRICK","NJ","08724"
201706,"406","VALRICO","FL","33594"
201707,"4060 40TH CIRCLE SOUTH","SAINT PETERSBURG","FL","33711"
201708,"4060 BLUE IRIS HOLLOW","NORCROSS","GA","30092"
201709,"4060 BROWNS BRIDGE ROAD","CUMMING","GA","30041"
201710,"4060 CASA LOMA DRIVE","DECATUR","GA","30034"
201711,"4060 DON JULIO BLVD","SACRAMENTO","CA","95842"
201712,"4060 KATHLEEN CT","SUAMICO","WI","54313"
201713,"4060 KITTERY POINT","SNELLVILLE","GA","30039"
201714,"4060 LONE OAK ROAD SE","SALEM","OR","97302"
201715,"4060 NE 95TH RD","WILDWOOD","FL","34785"
201716,"4060 PEACHTREE ROAD NE D255","BROOKHAVEN","GA","30319"
201717,"4060 TRAVIS STREET  17","DALLAS","TX","75204"
201718,"4060 W WILDCAT BLVD","CHARLESTON","SC","29414"
201719,"40600 ANN ARBOR ROAD EAST SUITE 201","PLYMOUTH","MI","48170"
201720,"40600 SCHOOLCRAFT RD","PLYMOUTH","MI","48170"
201721,"40600 VALLEY OF THE FALLS","FOREST FALLS","CA","92339"
201722,"4061 CHESTNUT STREEET","EMMAUS","PA","18049"
201723,"4061 CREEK RD","YOUNGSTOWN","NY","14174"
201724,"4061 CREEK ROAD","YOUNGSTOWN","NY","14174"
201725,"4061 DRUSILLA DRIVE","BATON ROUGE","LA","70809"
201726,"4061 E CASTRO VALLEY BLVD BOX 503","CASTRO VALLEY","CA","94552"
201727,"4061 E CASTRO VALLEY BLVD STE 231","CASTRO VALLEY","CA","94552"
201728,"4061 E CASTRO VALLEY BLVD UNIT 333","CASTRO VALLEY","CA","94552"
201729,"4061 E LOUISIANA STATE DRIVE","KENNER","LA","70065"
201730,"4061 EAST CASTRO VALLEY BLVD 204","CASTRO VALLEY","CA","94552"
201731,"4061 EAST CASTRO VALLEY BLVD 79","CASTRO VALLEY","CA","94552"
201732,"4061 ELIZA AVE","BELLINGHAM","WA","98226"
201733,"4061 KENESAW DRIVE","LEXINGTON","KY","40515"
201734,"4061 MONTE VERDE DRIVE","EL DORADO HILLS","CA","95762"
201735,"4061 PATTERSON ROAD","ALIQUIPPA","PA","15001"
201736,"4061 PRINCETON LAKES WAY SW","ATLANTA","GA","30331"
201737,"4061 PULLMAN CIRCLE","AUGUSTA","GA","30909"
201738,"4061 SANDVIEW DR","MEDINA","OH","44256"
201739,"40610 KAVANAGH ROAD","MECHANICSVILLE","MD","20659"
201740,"40619 ITHACA LANE","MAGNOLIA","TX","77354"
201741,"4062 DUPLIN CLOSE","PITTSBORO","NC","27312"
201742,"4062 E ASTER DR","PHOENIX","AZ","85032"
201743,"4062 EVELYN DRIVE","SALT LAKE CITY","UT","84124"
201744,"4062 KENNIBEC COVE","MEMPHIS","TN","38125"
201745,"4062 PEACHTREE ROAD A 151","BROOKHAVEN","GA","30319"
201746,"4063 - 148TH AVE NE","BELLEVUE","WA","98007"
201747,"4063 ELROY ANSONIA ROAD","ANSONIA","OH","45303"
201748,"4063 FIR HILL DR E","LAKELAND","TN","38002"
201749,"4063 LINCOLN AVE","OAKLAND","CA","94602"
201750,"4063 N GOLDENROD RD STE 1","WINTER PARK","FL","32792"
201751,"4063 N JENNINGS RD","HAINES CITY","FL","33844"
201752,"4063 S W LIDO DR","LEES SUMMIT","MO","64082"
201753,"4063 SILVER PARK TER","SUITLAND","MD","20746"
201754,"4063 TEMPLE CITY BLVD","EL MONTE","CA","91731"
201755,"4063 US HWY 13 SOUTH","GOLDSBORO","NC","27530"
201756,"4063 WEST PIERSON RD","FLINT","MI","48504"
201757,"40633 CALLE LEONORA","INDIO","CA","92203"
201758,"40636 174THST E","LANCASTER","CA","93535"
201759,"40636 ROBIN STREET","FREMONT","CA","94538"
201760,"40639 ROSALIE AVENUE","HEMET","CA","92544"
201761,"4064 E 22ND ST","TUCSON","AZ","85711"
201762,"4064 E FIR HILL DRIVE","LAKELAND","TN","38002"
201763,"4064 GLENALBYN DRIVE","LOS ANGELES","CA","90065"
201764,"4064 PRINCETON BLVD","SOUTH EUCLID","OH","44121"
201765,"4064 WILKINSON AVE","STUDIO CITY","CA","91604"
201766,"40642 CAMINO NORO ESTE","MURRIETA","CA","92562"
201767,"40643 N EAGLE ST","SAN TAN","AZ","85140"
201768,"40648 US BUSINESS 290","WALLER","TX","77484"
201769,"4065 15TH STREET","BOULDER","CO","80304"
201770,"4065 25TH STREET","SAN FRANCISCO","CA","94114"
201771,"4065 BARN HALLOW WAY","ANTIOCH","CA","94509"
201772,"4065 CARMEL BROOKS WAY","SAN DIEGO","CA","92130"
201773,"4065 CODY ST","WHEAT RIDGE","CO","80033"
201774,"4065 COUNTY CIRCLE DR STE 205","RIVERSIDE","CA","92503"
201775,"4065 COUNTY CIRCLE DRIVE","RIVERSIDE","CA","92503"
201776,"4065 CROYDON DR NW","CANTON","OH","44718"
201777,"4065 HIGHWAY 69 S","MOUNT VERNON","IN","47620"
201778,"4065 LB MCLEOD RD","ORLANDO","FL","32811"
201779,"4065 MAY APPLE COURT","DECATUR","GA","30034"
201780,"4065 NORRIS RD","PACE","GA","32571"
201781,"4065 NORRIS ROAD","PACE","FL","32571"
201782,"4065 PREMIER DR","HIGH POINT","NC","27265"
201783,"4065 S VIRGINIA ST STE 101","RENO","NV","89502"
201784,"4065 SW 40TH AVENUE","PEMBROKE PARK","FL","33023"
201785,"4065 SW PENDANT DR","LEES SUMMIT","MO","64082"
201786,"4065 W ARDSLEY LANE","BLOOMINGTON","IN","47404"
201787,"4065 W FAIRMOUNT AVE","PHOENIX","AZ","85019"
201788,"40652","HOUSTON","TX","77240"
201789,"40656 AETNA SPRINGS RD","INDIO","CA","92203"
201790,"4066 ALBATROSS ST 7","SAN DIEGO","CA","92103"
201791,"4066 ATTALA ROAD 1110","KOSCIUSKO","MS","39090"
201792,"4066 BENITEAU","DETROIT","MI","48214"
201793,"4066 GLENCOE STREET","CHATTANOOGA","TN","37406"
201794,"4066 MARISA COURT","MELBOURNE","FL","32904"
201795,"4066 WHISTLER DRIVE","DOUGLASVILLE","GA","30135"
201796,"40667 SYMPHONY PARK LANE","MURRIETA","CA","92562"
201797,"4067  HARDWICK  ST   SUITE 485","LAKEWOOD","CA","90712"
201798,"4067 44TH STREET UNIT 6","SAN DIEGO","CA","92105"
201799,"4067 BEULAH ROAD","NATHALIE","VA","24577"
201800,"4067 ENTERPRISE WAY","SIERRA VISTA","AZ","85635"
201801,"4067 HARDWICK ST 123","LAKEWOOD","CA","90712"
201802,"4067 HARDWICK ST BOX 191","LAKEWOOD","CA","90712"
201803,"4067 HARDWICK ST NUM 240","LAKEWOOD","CA","90712"
201804,"4067 HARDWICK ST STE 244","LAKEWOOD","CA","90712"
201805,"4067 HARDWICK ST STE 539","LAKEWOOD","CA","90712"
201806,"4067 HARDWICK ST UNIT 413","LAKEWOOD","CA","90712"
201807,"4067 HARDWICK STREET  STE 527","LAKEWOOD","CA","90712"
201808,"4067 HARDWICK STREET SUITE 372","LAKEWOOD","CA","90712"
201809,"4067 LINCOLN AVENUE","SAINT LOUIS","MO","63113"
201810,"4067 N HARDWICK ST STE 409","LAKEWOOD","CA","90712"
201811,"4067 S FOUR MILE RUN DR","ARLINGTON","VA","22204"
201812,"4067 S FOUR MILE RUN DRIVE /301","ARLINGTON","VA","22204"
201813,"40670 COUNTY 12","LANESBORO","MN","55949"
201814,"40673 N 3967 LANE","SKIATOOK","OK","74070"
201815,"4067B S TAMIAMI TRL","SARASOTA","FL","34231"
201816,"4068 26TH ST","SAN FRANCISCO","CA","94131"
201817,"4068 CAMPBELLSVILLE PIKE","COLUMBIA","TN","38401"
201818,"4068 DELSA CIRCLE","MEMPHIS","TN","38116"
201819,"4068 E PECOS RD","GILBERT","AZ","85295"
201820,"4068 E PECOS RD","GILBERT","AZ","85297"
201821,"4068 EAST PECOS ROAD","Gilbert","AZ","85295"
201822,"4068 EAST PECOS ROAD","GILBERT","AZ","85295"
201823,"4068 EAST SPRING MEADOW DR","ACWORTH","GA","30101"
201824,"4068 FOREST RUN CIRCLE","MEDINA","OH","44256"
201825,"4068 GOLDEN HILL RD","CHURCH CREEK","MD","21622"
201826,"4068 HUGH DAVIS ROAD","YOUNGSVILLE","NC","27596"
201827,"4068 MAFFITT AVE","SAINT LOUIS","MO","63113"
201828,"4068 NOAH STREET","BATON ROUGE","LA","70802"
201829,"4068 STATE RTE 257","OIL CITY","PA","16301"
201830,"4068 SW HEWETT BLVD","PORTLAND","OR","97221"
201831,"40680 HIGHWAY 41 SUITE D","OAKHURST","CA","93644"
201832,"40681 VERA CT","HEMET","CA","92544"
201833,"4069 34TH ST","SAN DIEGO","CA","92104"
201834,"4069 ATLANTIC BLVD","JACKSONVILLE","FL","32207"
201835,"4069 BLOSSOM HILL DRIVE","WEDDINGTON","NC","28104"
201836,"4069 MADISON ACRES DRIVE","LOCUST GROVE","GA","30248"
201837,"4069 MARVIN ST","OCEANSIDE","CA","92056"
201838,"4069 SHERMAN OAKS AVE","VIRGINIA BEACH","VA","23456"
201839,"4069 SPRING MEADOW RD","TUCKER","GA","30084"
201840,"40695 PARK RD","SHADE","OH","45776"
201841,"407  N ROSEMARY AVENUE","WEST PALM BEACH","FL","33401"
201842,"407 1ST AVE","AUDUBON","IA","50025"
201843,"407 2ND ST W APT 3","POLSON","MT","59860"
201844,"407 37TH PL SE APT 201","WASHINGTON","DC","20019"
201845,"407 7TH AVENUE SE","ROSEAU","MN","56751"
201846,"407 AND ONE HALF BRONCO RD NUMBER 3","RANGLEY","CO","81648"
201847,"407 BELINDA PKWY","MOUNT JULIET","TN","37122"
201848,"407 BELLARMINE DRIVE WEST","JOLIET","IL","60436"
201849,"407 BELTLINE ROAD PMB 260","COLLINSVILLE","IL","62234"
201850,"407 BLUEFIELD DRIVE","OAKDALE","PA","15071"
201851,"407 BOSTON RD","SUTTON","MA","01590"
201852,"407 BRIERHILL RD","DEERFIELD","IL","60015"
201853,"407 BROOKSIDE AVE","AMBLER","PA","19002"
201854,"407 BROOKVIEW DRIVE","MONTGOMERY","AL","36110"
201855,"407 BUFFALO DRIVE","INDIANAPOLIS","IN","46217"
201856,"407 BYRNE STREET","BAY MINETTE","AL","36507"
201857,"407 C STREET STE 2173","MARYSVIILLE","CA","95901"
201858,"407 CHARITY STREET","ABBEVILLE","LA","70510"
201859,"407 COMPETITION RD","RALEIGH","NC","27603"
201860,"407 CONCORD AVE","MONROVIA","CA","91016"
201861,"407 COPPER OAKS PLACE","WOODSBORO","MD","21798"
201862,"407 COUNTY ROAD 155","STRINGER","MS","39481"
201863,"407 COVINGTON ST","WILLARD","MO","65781"
201864,"407 COYOTE CANYON DR","GALLUP","NM","87301"
201865,"407 CUMMINGS LN","TEXARKANA","TX","75501"
201866,"407 DE SOTO DR","UNIVERSAL CITY","TX","78148"
201867,"407 DEVONSHIRE RD","TOWER LAKES","IL","60010"
201868,"407 DOE MEADOW DRIVE","OWINGS MILLS","MD","21117"
201869,"407 DONALD STREET","NEW IBERIA","LA","70563"
201870,"407 DURHAM AVE","EDISON","NJ","08817"
201871,"407 E 59TH PLACE","LOS ANGELES","CA","90003"
201872,"407 E 5TH ST APT B","CHATTANOOGA","TN","37403"
201873,"407 E 5TH ST","NEWPORT","OH","41071"
201874,"407 E MAHONING ST APT 727","PUNXSUTAWNEY","PA","15767"
201875,"407 E MAIN ST","MONTPELIER","OH","43543"
201876,"407 E NORTH STREET","PERRYVILLE","MO","63775"
201877,"407 E OLIVE STREET","LAMAR","CO","81052"
201878,"407 E PLAINSMEN RD","PRAIRIE CITY","IA","50228"
201879,"407 E WADLEY AVE","MIDLAND","TX","79705"
201880,"407 EAST 77TH STREET APT 5W","NEW YORK","NY","10075"
201881,"407 EAST AVE","LEWISTON","ME","04240"
201882,"407 EAST CHURCH STREET","MARTINSVILLE","VA","24112"
201883,"407 EAST GRAND RIVER","HOWELL","MI","48843"
201884,"407 EAST MAIN STREET","LAGRANGE","OH","44050"
201885,"407 EAST PENNSYLVANIA BLVD","FEASTERVILLE","PA","19053"
201886,"407 EAST VANDALIA STREET","GREENSBORO","NC","27406"
201887,"407 EAST WALKER ST","JEFFERSON","TX","75657"
201888,"407 ELIZABETH AVENUE","ALBANY","GA","31705"
201889,"407 FIRST AVENUE  SUITE 105","FAIRBANKS","AK","99701"
201890,"407 FORREST AVENUE","WOODSTOCK","IL","60098"
201891,"407 FORTRESS WAY","OCCOQUAN","VA","22125"
201892,"407 FREDRICKSON RD","TOUCHET","WA","99360"
201893,"407 GLENN ST","WALL","SD","57790"
201894,"407 GOR-AN FARM ROAD","SELMA","NC","27576"
201895,"407 GRANT LANE","CLAYTON","NC","27520"
201896,"407 GROVE STREET","LOUDON","TN","37774"
201897,"407 GUNTER STREET","UTICA","IN","47130"
201898,"407 HABITAT COVE PO BOX 1244","COVINGTON","TN","38019"
201899,"407 HAMILTON STREET","ALBANY","NY","12210"
201900,"407 HAZEL AVENUE","YEADON","PA","19050"
201901,"407 HIAWATHA ST","SOMERVILLE","TN","38068"
201902,"407 INDEPENDANCE","ROCK SPRINGS","WY","82901"
201903,"407 KAMBER LANE","WYLIE","TX","75098"
201904,"407 KAUMANA DRIVE","HILO","HI","96720"
201905,"407 KELLER ST","CHINA GROVE","NC","28023"
201906,"407 KLINEWOODS RD","ITHACA","NY","14850"
201907,"407 LAKESHORE DRIVE","CRAIG","MO","64437"
201908,"407 LAMBETH LANE","ST LOUIS","MO","63125"
201909,"407 LAVERNE","SAN ANTONIO","TX","78237"
201910,"407 LINCOLN ROAD SUITE 12D","MIAMI BEACH","FL","33139"
201911,"407 LOVERS LANE","CARRIZO SPRINGS","TX","78834"
201912,"407 MACY ROAD","ISLIP","NY","11757"
201913,"407 MAIN STREET PO BOX 3","WEST NEWBURY","MA","01985"
201914,"407 MALONE ST","HOUSTON","TX","77007"
201915,"407 MAPLEBROOKE LN","CADILLAC","MI","49601"
201916,"407 MCARTHUR DR","KILLEEN","TX","76541"
201917,"407 MCREYNOLDS STREET","CARTHAGE","NC","28327"
201918,"407 MIRROR LAKE PLACE","FAYETTEVILLE","NC","28303"
201919,"407 MOUNT KEMBLE AVENUE","MORRISTOWN","NJ","07960"
201920,"407 N APPLEKNOCKER ST","COBDEN","IL","62920"
201921,"407 N BROADWAY","BURNS","OR","97720"
201922,"407 N FRONT STREET","STEELTON","PA","17113"
201923,"407 N STREEPER STREET","BALTIMORE","MD","21224"
201924,"407 NEWELL AVENUE","DALLAS","TX","75223"
201925,"407 NEWTOWN ROAD","LITTLETON","MA","01460"
201926,"407 NORTH FRONT STREET","HARRISBURG","PA","17110"
201927,"407 OCEAN FRONT WALK 6","VENICE","CA","90291"
201928,"407 OLYMPIC WAY SW","OLYMPIA","WA","98502"
201929,"407 ORLEANS LANE","SCHAUMBURG","IL","60193"
201930,"407 PARK AVENUE","MUSCLE SHOALS","AL","35661"
201931,"407 PATTY DR","BRADFORD","OH","45308"
201932,"407 PEACE STREET","PELLA","IA","50219"
201933,"407 PEBBLE BROOK DRIVE","CLINTON","MS","39056"
201934,"407 PEE DEE CHURCH ROAD","DILLON","SC","29536"
201935,"407 PINE MEADOWS LOOP","HOT SPRINGS","AR","71901"
201936,"407 PULASKI ST","SOUTH PLAINFIELD","NJ","07080"
201937,"407 RANCH RD","PORTLAND","TN","37148"
201938,"407 REDBUD COURT","HARRISBURG","PA","17110"
201939,"407 REGALWOOD DR","JACKSONVILLE","NC","28546"
201940,"407 RIDGE STREET APT B","CHARLOTTESVILLE","VA","22902"
201941,"407 RIDGELAND TER","LEONIA","NJ","07605"
201942,"407 RIGGSBEE FARM DRIVE","CARY","NC","27519"
201943,"407 RIVER BEND RD","FORT WASHINGTON","MD","20744"
201944,"407 RIVER DOWN RD","GEORGETOWN TEXAS","TX","78628"
201945,"407 RIVERDALE DRIVE","EASTLAKE","OH","44095"
201946,"407 S 10TH STREET","PHILADELPHIA","PA","19147"
201947,"407 S 6TH STREET","MITCHELL","IN","47446"
201948,"407 S BERRY PINE RD","RAPID CITY","SD","57702"
201949,"407 S BROADWAY","LEROY","MN","55951"
201950,"407 S EDWARDS ST","ALTAMONT","IL","62411"
201951,"407 S HOWARD STREET","WITTENBERG","WA","54499"
201952,"407 S LINCOLN","CORYDON","IA","50060"
201953,"407 S MAIN STREET","GENEVA","NY","14456"
201954,"407 S MT VERNON AVE EXT","UNIONTOWN","PA","15401"
201955,"407 S PENNSLYVANIA","JOPLIN","CO","64801"
201956,"407 S PENNSYLVANIA AVE SUITE 130","JOPLIN","MO","64801"
201957,"407 S RICE","HAMILTON","TX","76531"
201958,"407 S VINE ST","DENVER","CO","80209"
201959,"407 SAGAMORE AVENUE","TEANECK","NJ","07666"
201960,"407 SAINT MARTIN LANE","JUPITER","FL","33458"
201961,"407 SALUDA ROAD","WILLIAMSTON","SC","29697"
201962,"407 SE 7TH STREET APT D208","GRAND RAPIDS","MN","55744"
201963,"407 SETTE DRIVE UNIT S4","PARAMUS","NJ","07652"
201964,"407 SHIRLEY PLACE","BEVERLY HILLS","CA","90212"
201965,"407 SLUSHER STORE RD NE","FLOYD","VA","24091"
201966,"407 SMITH STREET","CUTHBERT","GA","39840"
201967,"407 SO LEXINGTON AVE","WHITE PLAINS","NY","10606"
201968,"407 SONHATSETT DR","WESTFIELD","IN","46074"
201969,"407 SONHATSETT DRIVE","WESTFIELD","IN","46074"
201970,"407 SOUTH 14TH STREET  R-2","NEWARK","NJ","07103"
201971,"407 SOUTH ADAMS ST APT 2","GLENDALE","CA","91205"
201972,"407 SOUTH BROADWAY","GEORGETOWN","KY","40324"
201973,"407 SOUTH JEFFERSON STREET","PENSACOLA","FL","32502"
201974,"407 SOUTH X RD","AURORA","NE","68818"
201975,"407 SPRING STREET","SANDERSVILLE","GA","31082"
201976,"407 TRAFFIC WAY","ARROYO GRANDE","CA","93420"
201977,"407 TRAIL ST","GASTON","OR","97119"
201978,"407 TULIP AVE","TAKOMA PARK","MD","20912"
201979,"407 TULIP AVENUE - APT 301","TAKOMA PARK","MD","20912"
201980,"407 VINE STREET 211","CINCINNATI","OH","45202"
201981,"407 W 26TH ST UNIT J","HOUSTON","TX","77008"
201982,"407 W 280 N","BLACKFOOT","ID","83221"
201983,"407 W 9TH ST","DORCHESTER","NE","68343"
201984,"407 W GREEN ST APT 6","URBANA","IL","61801"
201985,"407 W IMPERIAL HWY STE H227","BREA","CA","92821"
201986,"407 W LAS TUNAS DR","SAN GABRIEL","CA","91776"
201987,"407 W MAIN 702","Huntsville","AR","72740"
201988,"407 W STATE ST","TRENTON","NJ","08618"
201989,"407 W VALLEY BLVD UNIT 3","ALHAMBRA","CA","91803"
201990,"407 W WARREN ST","BUNKER HILL","IL","62014"
201991,"407 WABAN AVENUE","WABAN","MA","02468"
201992,"407 WASHINGTON STREET","WAPELLO","IA","52653"
201993,"407 WATER ST","CAHOKIA","IL","62206"
201994,"407 WEST CHARLES","GRAND ISLAND","NE","68801"
201995,"407 WEST HIGHTOWER TRAIL","SOCIAL CIRCLE","GA","30025"
201996,"407 WEST STATE STREET","TRENTON","NJ","08618"
201997,"407 WEST STREET","WILKINSBURG","PA","15221"
201998,"407 WHITWORTH AVENUE SOUTH","RENTON","WA","98057"
201999,"407 WILLOW HILL PL","HYATTSVILLE","MD","20785"
202000,"407 WINDERMERE CIRCLE","TARBORO","NC","27886"
