"ID","Address","City","State","Zip"
338001,"PO BOX 1931","LAS VEGAS","NV","89125"
338002,"PO BOX 1931","LINDALE","TX","75771"
338003,"PO BOX 19315","ROCHESTER","NY","14619"
338004,"PO BOX 19316","ARLINGTON","NJ","76016"
338005,"PO BOX 19316","ARLINGTON","TX","76019"
338006,"PO BOX 1932","ALLYN","WA","98524"
338007,"PO BOX 1932","KILL DEVIL HILLS","NC","27949"
338008,"PO BOX 1932","MAPLE GROVE","MN","55311"
338009,"PO BOX 1932","TUALATIN","OR","97062"
338010,"PO BOX 19322","ALBUQUERQUE","NM","87119"
338011,"PO BOX 19324","CHATTANOOGA","TN","37416"
338012,"PO BOX 1933","LEMON GROVE","CA","91946"
338013,"PO BOX 193341","SAN FRANCISCO","CA","94119"
338014,"PO BOX 1934","BLOOMINGTON","IL","61701"
338015,"PO BOX 1934","FORT OGLETHORPE","GA","30742"
338016,"PO BOX 1934","HALLANDALE","FL","33008"
338017,"PO BOX 1934","LOS GATOS","CA","95031"
338018,"PO BOX 193446","SAN FRANCISCO","CA","94119"
338019,"PO BOX 19345","CINCINNATI","OH","45219"
338020,"PO BOX 1935 97 MAIN STREET W202","EDWARDS","CO","81632"
338021,"PO BOX 1935","NEWNAN","GA","30263"
338022,"PO BOX 19353","DURHAM","NC","27707"
338023,"PO BOX 19358","CINCINNATI","OH","45219"
338024,"PO BOX 1936","SOUTHAVEN","MS","38671"
338025,"PO BOX 19363","CLEVELAND","MP","44119"
338026,"PO BOX 193643","SAN JUAN","PR","00919"
338027,"PO BOX 19366","COLORADO CITY","CO","81019"
338028,"PO BOX 19373","CHARLOTTE","NC","28219"
338029,"PO BOX 1938","EULESS","TX","76039"
338030,"PO BOX 19388","CLEVELAND","OH","44119"
338031,"PO BOX 1939","ALICE","TX","78333"
338032,"PO BOX 19390","LAS VEGAS","NV","89132"
338033,"PO BOX 19393","BOULDER","CO","80308"
338034,"PO BOX 194","ABINGDON","MD","21009"
338035,"PO BOX 194","AVON LAKE","OH","44012"
338036,"PO BOX 194","CAMDEN","OH","45311"
338037,"PO BOX 194","FARMERS","KY","40319"
338038,"PO BOX 194","FAYETTEVILLE","PA","17222"
338039,"PO BOX 194","FLAT ROCK","MI","48134"
338040,"PO BOX 194","HIGGANUM","CT","06441"
338041,"PO BOX 194","HORSEHEADS","NY","14845"
338042,"PO BOX 194","JOHN DAY","OR","97845"
338043,"PO BOX 194","KIEL","WI","53042"
338044,"PO BOX 194","KUNA","ID","83634"
338045,"PO BOX 194","LA VETA","CO","81055"
338046,"PO BOX 194","MANLIUS","NY","13104"
338047,"PO BOX 194","MARENGO","OH","43334"
338048,"PO BOX 194","NEW MILFORD","PA","18834"
338049,"PO BOX 194","PAINESVILLE","OH","44077"
338050,"PO BOX 194","PICKENS","SC","29671"
338051,"PO BOX 194","RICHMOND","IN","47375"
338052,"PO BOX 194","RIGBY","ID","83442"
338053,"PO BOX 194","SIMSBURY","CT","06070"
338054,"PO BOX 194","SUFFOLK","VA","23434"
338055,"PO BOX 1941","ELKTON","MD","21922"
338056,"PO BOX 1942","EDWARDS","CO","81632"
338057,"PO BOX 1942","POMONA","CA","91769"
338058,"PO BOX 1942","SPRINGERVILLE","AZ","85938"
338059,"PO BOX 1942","THE DALLES","OR","97058"
338060,"PO BOX 1943","ALEXANDRIA","VA","22314"
338061,"PO BOX 1943","BOULDER","CO","80306"
338062,"PO BOX 1943","HUNTINGTON","WV","25720"
338063,"PO BOX 1943","PAHOA","HI","96778"
338064,"PO BOX 19432","JOHNSTON","RI","02919"
338065,"PO BOX 1944","FREDERIKSTED","VI","00841"
338066,"PO BOX 1944","MILWAUKEE","WI","53201"
338067,"PO BOX 1945","BROOKINGS","OR","97415"
338068,"PO BOX 1945","FAYETTEVILLE","GA","30214"
338069,"PO BOX 1945","QUARTZSITE","AZ","85346"
338070,"PO BOX 1946","JACKSON","WY","83001"
338071,"PO BOX 1946","SEDALIA","MO","65302"
338072,"PO BOX 1946","WINDHAM","ME","04062"
338073,"PO BOX 1947","TAHLEQUAH","OK","74464"
338074,"PO BOX 1948","ALAMOSA","CO","81101"
338075,"PO BOX 1948","STEPHENVILLE","TX","76401"
338076,"PO BOX 19487","DETROIT","MI","48219"
338077,"PO BOX 19490","PALO ALTO","CA","94309"
338078,"PO BOX 195","ALGONAC","MI","48001"
338079,"PO BOX 195","ARMADA","MI","48005"
338080,"PO BOX 195","CEREDO","WV","25507"
338081,"PO BOX 195","DAYTON","MT","59914"
338082,"PO BOX 195","EAST BURKE","VT","05832"
338083,"PO BOX 195","EAST JORDAN","MI","49727"
338084,"PO BOX 195","ELGIN","IA","52141"
338085,"PO BOX 195","FAIRFIELD","CT","06824"
338086,"PO BOX 195","HILLSBOROUGH","NC","27278"
338087,"PO BOX 195","JERMYN","PA","18433"
338088,"PO BOX 195","LA VERNIA","TX","78121"
338089,"PO BOX 195","LONG LAKE","MN","55356"
338090,"PO BOX 195","MAYVILLE","MI","48744"
338091,"PO BOX 195","MOODUS","CT","06469"
338092,"PO BOX 195","OCOEE","FL","34761"
338093,"PO BOX 195","ORANGE","MA","01364"
338094,"PO BOX 195","RENVILLE","MN","56284"
338095,"PO BOX 195","WEST JEFFERSON","NC","28694"
338096,"PO BOX 195","WOODSTOWN","NJ","08098"
338097,"PO BOX 1950","MIDDLEBURG","VA","20118"
338098,"PO BOX 195011","LITTLE ROCK","AR","72219"
338099,"PO BOX 19502","MINNEAPOLIS","MN","55419"
338100,"PO BOX 19506","LOS ANGELES","CA","90019"
338101,"PO BOX 1951","BUCKLEY","WA","98321"
338102,"PO BOX 1951","FRANKFORT","IL","60423"
338103,"PO BOX 1951","POULSBO","WA","98370"
338104,"PO BOX 19511","PORTLAND","OR","97280"
338105,"PO BOX 195169","SAN JUAN","PR","00919"
338106,"PO BOX 19517","SOUTH LAKE TAHOE","CA","96151"
338107,"PO BOX 1952","BUFFALO","NY","14240"
338108,"PO BOX 19521  1635 HARRISON ST","PHILADELPHIA","PA","19124"
338109,"PO BOX 19522","JOHNSTON","RI","02919"
338110,"PO BOX 1953","CAMDEN","NJ","08101"
338111,"PO BOX 1953","HOUSTON","TX","77532"
338112,"PO BOX 1953","HUNTINGTON BEACH","CA","92647"
338113,"PO BOX 1953","LAKEVILLE","CT","06039"
338114,"PO BOX 19533","DENVER","CO","80219"
338115,"PO BOX 19538","THORNE BAY","AK","99919"
338116,"PO BOX 195381","DALLAS","TX","75219"
338117,"PO BOX 1954","EUREKA","MT","59917"
338118,"PO BOX 1954","FRESNO","TX","77545"
338119,"PO BOX 19543","PORTLAND","OR","97280"
338120,"PO BOX 1955","CAPITOLA","CA","95010"
338121,"PO BOX 1955","DEER PARK","WA","99006"
338122,"PO BOX 1955","PICAYUNE","MS","39466"
338123,"PO BOX 1956","METAIRIE","LA","70004"
338124,"PO BOX 195655","LITTLE ROCK","AR","72219"
338125,"PO BOX 1957","PHOENIX","AZ","85001"
338126,"PO BOX 195762","WINTER SPRINGS","FL","32791"
338127,"PO BOX 1959","AIEA","HI","96701"
338128,"PO BOX 1959","CLEVELAND","TX","77328"
338129,"PO BOX 1959","TURLOCK","CA","95381"
338130,"PO BOX 196","BIG FORK","MN","55628"
338131,"PO BOX 196","CALIFON","NJ","07830"
338132,"PO BOX 196","CLAFLIN","KS","67525"
338133,"PO BOX 196","CORBETT","OR","97019"
338134,"PO BOX 196","DECATUR","MI","49045"
338135,"PO BOX 196","ESTHERVILLE","IA","51334"
338136,"PO BOX 196","FOLEY","AL","36536"
338137,"PO BOX 196","GORHAM","ME","04038"
338138,"PO BOX 196","JAFFREY","NH","03452"
338139,"PO BOX 196","MENDON","MA","01756"
338140,"PO BOX 196","NORMANNA","TX","78142"
338141,"PO BOX 196","PAW CREEK","NC","28139"
338142,"PO BOX 196","RAMONA","OK","74061"
338143,"PO BOX 196","RIDERWOOD","MD","21139"
338144,"PO BOX 196","SEIBERT","CO","80834"
338145,"PO BOX 196","SMELTERVILLE","ID","83868"
338146,"PO BOX 196","SWITZ CITY","IN","47465"
338147,"PO BOX 196","TROY","TN","38260"
338148,"PO BOX 196","WATERFLOW","NM","87421"
338149,"PO BOX 196","WENATCHEE","WA","98807"
338150,"PO BOX 1960","LEESBURG","VA","20177"
338151,"PO BOX 1960","LITCHFIELD PARK","AZ","85340"
338152,"PO BOX 19602","HOUSTON","TX","77224"
338153,"PO BOX 196043","DALLAS","TX","75219"
338154,"PO BOX 1961","BOZEMAN","MT","59771"
338155,"PO BOX 1961","MONAHANS","TX","79756"
338156,"PO BOX 1962","BRACKETTVILLE","TX","78832"
338157,"PO BOX 19622","BROOKLYN","MD","21225"
338158,"PO BOX 19623","CHICAGO","IL","60619"
338159,"PO BOX 1963","ANGLETON","TX","77516"
338160,"PO BOX 1963","ELYRIA","OH","44036"
338161,"PO BOX 1963","FAIR OAKS","CA","95628"
338162,"PO BOX 1963","SITKA","AK","99835"
338163,"PO BOX 1963","SUSANVILLE","CA","96130"
338164,"PO BOX 1964","LAKESIDE","CA","92040"
338165,"PO BOX 1964","LAS CRUCES","NM","88004"
338166,"PO BOX 1964","SAN JUAN","TX","78589"
338167,"PO BOX 1965","LOGANVILLE","GA","30052"
338168,"PO BOX 1965","PRINCE FREDERICK","MD","20678"
338169,"PO BOX 1965","RICHMOND","CA","94804"
338170,"PO BOX 1965","STAFFORD","TX","77497"
338171,"PO BOX 1966","EAGAR","AZ","85925"
338172,"PO BOX 1966","PARIS","TX","75461"
338173,"PO BOX 1967","CHEYENNE","WY","82003"
338174,"PO BOX 1967","MIDDLEBURG","VA","20118"
338175,"PO BOX 19673","HOUSTON","TX","77224"
338176,"PO BOX 19684","DENVER","CO","80219"
338177,"PO BOX 19689","CHICAGO","IL","60619"
338178,"PO BOX 19692","BIRMINGHAM","AL","35219"
338179,"PO BOX 197","ASSUMPTION","IL","62510"
338180,"PO BOX 197","BOULDER JUNCTION","WI","54512"
338181,"PO BOX 197","DIXON","KY","42409"
338182,"PO BOX 197","HULL","MA","02045"
338183,"PO BOX 197","LANGLEY","WA","98260"
338184,"PO BOX 197","RINDGE","NH","03461"
338185,"PO BOX 197","STORRS","CT","06268"
338186,"PO BOX 197","UNION CITY","GA","30291"
338187,"PO BOX 197006","LOUISVILLE","KY","40259"
338188,"PO BOX 19701","AUSTIN","TX","78760"
338189,"PO BOX 19701","JACKSONVILLE","FL","32245"
338190,"PO BOX 1971","BATON ROUGE","LA","70821"
338191,"PO BOX 1971","BELLEVILLE","MI","48111"
338192,"PO BOX 1971","BLUE RIDGE","GA","30513"
338193,"PO BOX 1971","CROSBY","TX","77532"
338194,"PO BOX 1971","CRYSTAL RIVER","FL","34423"
338195,"PO BOX 1971","DUMAS","TX","79029"
338196,"PO BOX 1971","GEORGETOWN","KY","40324"
338197,"PO BOX 1971","MESQUITE","NV","89024"
338198,"PO BOX 1971","TUALATIN","OR","97062"
338199,"PO BOX 19714","ASHEVILLE","NC","28815"
338200,"PO BOX 1972","COLUMBIA","MO","65205"
338201,"PO BOX 1972","ELKO","NV","89803"
338202,"PO BOX 1972","GILLETTE","WY","82717"
338203,"PO BOX 1972","PLAINS","PA","18705"
338204,"PO BOX 1972","POWELL","TN","37849"
338205,"PO BOX 1972","ROSWELL","NM","88202"
338206,"PO BOX 1972","SAN MARCOS","CA","92079"
338207,"PO BOX 1973","BISMARCK","ND","58504"
338208,"PO BOX 1973","KNOXVILLE","TN","37901"
338209,"PO BOX 1973","LEANDER","TX","78646"
338210,"PO BOX 1973","RIDGELAND","SC","29936"
338211,"PO BOX 19732","DENVER","CO","80219"
338212,"PO BOX 197325","LOUISVILLE","KY","40259"
338213,"PO BOX 1974","CARY","NC","27512"
338214,"PO BOX 1974","COUNCIL BLUFFS","IA","51502"
338215,"PO BOX 1974","GALLATIN","TN","37066"
338216,"PO BOX 1975","BALTIMORE","MD","21203"
338217,"PO BOX 1975","BRANSON","MO","65615"
338218,"PO BOX 1975","MILTON","WA","98354"
338219,"PO BOX 1975","QUOGUE","NY","11959"
338220,"PO BOX 1975","WRIGHTWOOD","CA","92397"
338221,"PO BOX 19752","RENO","NV","89511"
338222,"PO BOX 1977  515 E IVINSON APT 205","LARAMIE","WY","82073"
338223,"PO BOX 1977","CUMMING","GA","30028"
338224,"PO BOX 19771","CINCINNATI","OH","45219"
338225,"PO BOX 1978","MOUNT VERNON","WA","98273"
338226,"PO BOX 1978","ST FRANCISVILLE","LA","70775"
338227,"PO BOX 19791","BOULDER","CO","80308"
338228,"PO BOX 198   - 818 RICHARDS STREET","SUMMERSVILLE","MO","65571"
338229,"PO BOX 198","CANANDAIGUA","NY","14424"
338230,"PO BOX 198","FULTON","MD","20759"
338231,"PO BOX 198","PRESQUE ISLE","MI","49777"
338232,"PO BOX 198","SAN QUENTIN","CA","94964"
338233,"PO BOX 198","SNELLVILLE","GA","30078"
338234,"PO BOX 1980","PORT ISABEL","TX","78578"
338235,"PO BOX 1981","CAMARILLO","CA","93011"
338236,"PO BOX 1981","COLLIERVILLE","TN","39022"
338237,"PO BOX 1981","KAMUELA","HI","96743"
338238,"PO BOX 1981","SNOWFLAKE","AZ","85937"
338239,"PO BOX 19813","STANFORD","CA","94309"
338240,"PO BOX 19817","AUSTIN","TX","78760"
338241,"PO BOX 1982","BOONE","NC","28607"
338242,"PO BOX 1982","CEDAR HILL","TX","75106"
338243,"PO BOX 1983","ATHENS","GA","30603"
338244,"PO BOX 1984","LARGO","FL","33779"
338245,"PO BOX 1985","BOOTHWYN","PA","19061"
338246,"PO BOX 1985","TURLOCK","CA","95381"
338247,"PO BOX 19852","SUGAR LAND","TX","77496"
338248,"PO BOX 1986","DELEON SPRINGS","FL","32130"
338249,"PO BOX 1986","VILLA RICA","GA","30180"
338250,"PO BOX 198662","CHICAGO","IL","60619"
338251,"PO BOX 1987","PINE RIDGE","SD","57770"
338252,"PO BOX 1989","EUREKA","MT","59917"
338253,"PO BOX 1989","FUQUAY-VARINA","NC","27526"
338254,"PO BOX 198900 PMB 307","HAWI","HI","96719"
338255,"PO BOX 198963","CHICAGO","IL","60619"
338256,"PO BOX 199","BOERNE","TX","78006"
338257,"PO BOX 199","BULVERDE","TX","78163"
338258,"PO BOX 199","HANCOCK","WI","54943"
338259,"PO BOX 199","HO'OLEHUA","HI","96729"
338260,"PO BOX 199","NOVI","MI","48376"
338261,"PO BOX 199","Telluride","CO","81435"
338262,"PO BOX 1991","BIGFORK","MT","59911"
338263,"PO BOX 1991","CYPRESS","TX","77410"
338264,"PO BOX 1991","OCEAN SPRINGS","MS","39564"
338265,"PO BOX 1991","PINEDALE","WY","82941"
338266,"PO BOX 1991","REDMOND","OR","97756"
338267,"PO BOX 19911","PORTLAND","OR","97280"
338268,"PO BOX 199142","INDIANAPOLIS","IN","46219"
338269,"PO BOX 1992","ELLIJAY","GA","30540"
338270,"PO BOX 1992","TARPON SPRINGS","FL","34688"
338271,"PO BOX 1992","TEXAS CITY","TX","77592"
338272,"PO BOX 19921","BALTIMORE","MD","21211"
338273,"PO BOX 1993","BELEN","NM","87002"
338274,"PO BOX 1993","BELLEVUE","WA","98009"
338275,"PO BOX 1993","BUFORD","GA","30515"
338276,"PO BOX 1993","DES MOINES","IA","50305"
338277,"PO BOX 1993","NORWALK","CA","90650"
338278,"PO BOX 1994","ARANSAS PASS","TX","78335"
338279,"PO BOX 1994","LARGO","FL","33779"
338280,"PO BOX 19944","BOULDER","CO","80308"
338281,"PO BOX 1995","BRATTLEBORO","VT","05302"
338282,"PO BOX 1995","FAIRFIELD","IA","52256"
338283,"PO BOX 1995","LAGRANGE","GA","30241"
338284,"PO BOX 1995","LITHONIA","GA","30058"
338285,"PO BOX 1995","MADISON","MS","39130"
338286,"PO BOX 19957","RENO","NV","89511"
338287,"PO BOX 1996","JONESBORO","GA","30237"
338288,"PO BOX 1996","PORT ORCHARD","WA","98366"
338289,"PO BOX 19962","COLORADO CITY","CO","81019"
338290,"PO BOX 1997","KAMUELA","HI","96743"
338291,"PO BOX 19987","NEW ORLEANS","LA","70179"
338292,"PO BOX 1O7","LISMAN","AL","36912"
338293,"PO BOX 2","ALTADENA","CA","91003"
338294,"PO BOX 2","APACHE JUNCTION","AZ","85117"
338295,"PO BOX 2","BALDWIN","MI","49304"
338296,"PO BOX 2","BENNINGTON","NH","03442"
338297,"PO BOX 2","BLACKSTONE","MA","01504"
338298,"PO BOX 2","BROWNSVILLE","VT","05037"
338299,"PO BOX 2","COTULLA","TX","78014"
338300,"PO BOX 2","DORR","MI","49323"
338301,"PO BOX 2","EAU CLAIRE","WI","54702"
338302,"PO BOX 2","ELLINGTON","CT","06029"
338303,"PO BOX 2","EMORY","TX","75440"
338304,"PO BOX 2","FREDERICKTOWN","MO","63645"
338305,"PO BOX 2","FRIONA","TX","79035"
338306,"PO BOX 2","FRONTIER","MI","49239"
338307,"PO BOX 2","GALESVILLE","WI","54630"
338308,"PO BOX 2","GILBERT","PA","18331"
338309,"PO BOX 2","GILBERTSVILLE","PA","19525"
338310,"PO BOX 2","HOLBROOK","NY","11741"
338311,"PO BOX 2","HUGO","MN","55038"
338312,"PO BOX 2","INDEPENDENCE","KS","67301"
338313,"PO BOX 2","LAS VEGAS","NM","87701"
338314,"PO BOX 2","LINDEN","MI","48451"
338315,"PO BOX 2","MEDFORD","WI","54451"
338316,"PO BOX 2","MELVIN","MI","48454"
338317,"PO BOX 2","MILLVILLE","MN","55957"
338318,"PO BOX 2","MONDOVI","WI","54755"
338319,"PO BOX 2","MOUNT EATON","OH","44659"
338320,"PO BOX 2","MOUNT SINAI","NY","11766"
338321,"PO BOX 2","MT STERLING","OH","43143"
338322,"PO BOX 2","OAKFIELD","NY","14125"
338323,"PO BOX 2","REDDICK","FL","32686"
338324,"PO BOX 2","RIVER GROVE","IL","60171"
338325,"PO BOX 2","SHERIDAN","MT","59749"
338326,"PO BOX 2","SODUS POINT","NY","14555"
338327,"PO BOX 2","SUTTER CREEK","CA","95685"
338328,"PO BOX 2","SWANVILLE","MN","56382"
338329,"PO BOX 2","SWANVILLE","MN","56385"
338330,"PO BOX 2","TYRONE","GA","30290"
338331,"PO BOX 2","WASCO","OR","97065"
338332,"PO BOX 2","WESTBY","WI","54667"
338333,"PO BOX 2","WHELEN SPRINGS","AR","71772"
338334,"PO BOX 2","WHITELAND","IN","46184"
338335,"PO BOX 2","WHITEVILLE","NC","28472"
338336,"PO BOX 2","WRANGELL","AK","99929"
338337,"PO BOX 20   605 AIRPORT RD","BELLE VERNON","PA","15012"
338338,"PO BOX 20","EARLEVILLE","MD","21919"
338339,"PO BOX 20","JEMEZ SPRINGS","NM","87025"
338340,"PO BOX 20","MARION","MS","39342"
338341,"PO BOX 20","MARLBORO","VT","05344"
338342,"PO BOX 20","MILFORD","VA","22514"
338343,"PO BOX 20","SLIDELL","LA","70459"
338344,"PO BOX 20","WEST COLUMBIA","TX","77486"
338345,"PO BOX 200","BATTLE GROUND","WA","98604"
338346,"PO BOX 200","BISHOPVILLE","MD","21813"
338347,"PO BOX 200","CALHAN","CO","80808"
338348,"PO BOX 200","CHARLESTOWN","MD","21914"
338349,"PO BOX 200","COOKSTOWN","NJ","08511"
338350,"PO BOX 200","CROOKSVILLE","OH","43731"
338351,"PO BOX 200","GOLIAD","TX","77963"
338352,"PO BOX 200","GRAND ISLE","LA","70358"
338353,"PO BOX 200","KUALAPUU","HI","96747"
338354,"PO BOX 200","MADISON","IL","62060"
338355,"PO BOX 200","MEDICAL LAKE","WA","99022"
338356,"PO BOX 200","MIDDLE HADDAM","CT","06456"
338357,"PO BOX 200","NOVATO","CA","94948"
338358,"PO BOX 200","PARKSTON","SD","57366"
338359,"PO BOX 200","WALNUT","CA","91708"
338360,"PO BOX 2000 324 HEWES AVENUE","CLARKSBURG","WV","26302"
338361,"PO BOX 2000","HARRISON","AR","72601"
338362,"PO BOX 2000","SPRING CITY","TN","37381"
338363,"PO BOX 20000 PMB 399","CANOVANAS","PR","00729"
338364,"PO BOX 20001","TUSCALOOSA","AL","35402"
338365,"PO BOX 200040","BOSTON","MA","02120"
338366,"PO BOX 200054","DENVER","CO","80220"
338367,"PO BOX 20008","CRANSTON","RI","02920"
338368,"PO BOX 20008","SCRANTON","PA","18502"
338369,"PO BOX 200084","DENVER","CO","80220"
338370,"PO BOX 2001","BUFORD","GA","30515"
338371,"PO BOX 2001","CANUTILLO","TX","79835"
338372,"PO BOX 2001","MAYAGUEZ","PR","00681"
338373,"PO BOX 2001","MIDDLETOWN","NY","10940"
338374,"PO BOX 2001","MONTGOMERY","TX","77356"
338375,"PO BOX 2001","NEDERLAND","CO","80466"
338376,"PO BOX 2001","PFLUGERVILLE","TX","78691"
338377,"PO BOX 2001","UPPER MARLBORO","MD","20773"
338378,"PO BOX 2001","WEST LAFAYETTE","IN","47996"
338379,"PO BOX 20018","AUSTIN","TX","78720"
338380,"PO BOX 200192","SAN ANTONIO","TX","78220"
338381,"PO BOX 2002","BRENTWOOD","CA","94513"
338382,"PO BOX 2002","ELKO","NV","89803"
338383,"PO BOX 2002","GREENEVILLE","TN","37744"
338384,"PO BOX 2002","ROANOKE","VA","24009"
338385,"PO BOX 2002","ROCKINGHAM","NC","28380"
338386,"PO BOX 2002","SANTA ROSA","CA","95405"
338387,"PO BOX 2002","SOUTH PADRE ISLAND","TX","78597"
338388,"PO BOX 2002","WAYNE","NJ","07474"
338389,"PO BOX 200201","AUSTIN","TX","78720"
338390,"PO BOX 200204","DENVER","CO","80220"
338391,"PO BOX 20022","KANSAS CITY","MO","64195"
338392,"PO BOX 20024","HUNTINGTON STATION","NY","11746"
338393,"PO BOX 20027","KEIZER","OR","97307"
338394,"PO BOX 200275","AUSTIN","TX","78720"
338395,"PO BOX 2003","ABERDEEN","WA","98520"
338396,"PO BOX 2003","AIKEN","SC","29802"
338397,"PO BOX 2003","DENNEHOTSO","AZ","86535"
338398,"PO BOX 2003","GLENROCK","WY","82637"
338399,"PO BOX 2003","ISABELA","PR","00662"
338400,"PO BOX 2003","SAINT LOUIS","MO","63158"
338401,"PO BOX 2003","STILLWATER","MN","55082"
338402,"PO BOX 200306","DENVER","CO","80220"
338403,"PO BOX 20031","COLUMBUS","OH","43220"
338404,"PO BOX 200376","ANCHORAGE","AK","99520"
338405,"PO BOX 20039","NEW YORK","NY","10023"
338406,"PO BOX 200392","DENVER","CO","80220"
338407,"PO BOX 2004","ELK GROVE","CA","95759"
338408,"PO BOX 2004","FLAGSTAFF","AZ","86003"
338409,"PO BOX 2004","LAS VEGAS","NM","87701"
338410,"PO BOX 2004","SOUTH LONDONDERRY","VT","05155"
338411,"PO BOX 2004","WALNUT","CA","91788"
338412,"PO BOX 2004","WEATHERFORD","OK","73096"
338413,"PO BOX 20040","SANTA BARBARA","CA","93120"
338414,"PO BOX 20041","WICHITA","KS","67208"
338415,"PO BOX 200436","NEW HAVEN","CT","06520"
338416,"PO BOX 2005","BRENHAM","TX","77834"
338417,"PO BOX 2005","RUIDOSO","NM","88355"
338418,"PO BOX 2005","SEBASTOPOL","CA","95473"
338419,"PO BOX 2005","SIKESTON","MO","63801"
338420,"PO BOX 200543","EVANS","CO","80620"
338421,"PO BOX 20055","CINCINNATI","OH","45220"
338422,"PO BOX 20056","CRANSTON","RI","02920"
338423,"PO BOX 200575","SOUTH OZONE PARK","NY","11420"
338424,"PO BOX 200592","ROXBURY","MA","02120"
338425,"PO BOX 2006","BOYD","TX","76023"
338426,"PO BOX 2006","FULLERTON","CA","92837"
338427,"PO BOX 2006","MONT BELVIEU","TX","77580"
338428,"PO BOX 2006","PRINCETON","WV","24740"
338429,"PO BOX 20062","WEST PALM BEACH","FL","33416"
338430,"PO BOX 20066","WEST PALM BEACH","FL","33416"
338431,"PO BOX 20068","HUNTINGTON STATION","NY","11746"
338432,"PO BOX 2007","CONNELLSVILLE","PA","15425"
338433,"PO BOX 2007","EL PRADO","NM","87529"
338434,"PO BOX 2007","OGUNQUIT","ME","03907"
338435,"PO BOX 2007","PEARLAND","TX","77581"
338436,"PO BOX 20070","CANTON","OH","44701"
338437,"PO BOX 20074","HOT SPRINGS","AR","71903"
338438,"PO BOX 20075","CINCINNATI","OH","45220"
338439,"PO BOX 2008","NEVADA CITY","CA","95959"
338440,"PO BOX 2009","TYLER","TX","75710"
338441,"PO BOX 201","ANTLERS","OK","74523"
338442,"PO BOX 201","ARNOLDS PARK","IA","51331"
338443,"PO BOX 201","BELLWOOD","NE","68624"
338444,"PO BOX 201","BENNINGTON","NE","68007"
338445,"PO BOX 201","BRONX","NY","10468"
338446,"PO BOX 201","CABOT","VT","05647"
338447,"PO BOX 201","CERESCO","NE","68017"
338448,"PO BOX 201","CONWAY","AR","72033"
338449,"PO BOX 201","CORY","CO","81414"
338450,"PO BOX 201","DETOUR VILLAGE","MI","49725"
338451,"PO BOX 201","EAST BRADY","PA","16028"
338452,"PO BOX 201","EUDORA","KS","66025"
338453,"PO BOX 201","HAPPY CAMP","CA","96039"
338454,"PO BOX 201","JEFFERSON CITY","MO","65102"
338455,"PO BOX 201","LAWRENCEBURG","KY","40342"
338456,"PO BOX 201","LEESBURG","GA","31763"
338457,"PO BOX 201","LITTLEFIELD","TX","79339"
338458,"PO BOX 201","MAYS LANDING","NJ","08330"
338459,"PO BOX 201","MCKEE","KY","40447"
338460,"PO BOX 201","MIDDLEPORT","NY","14105"
338461,"PO BOX 201","MILLERSVILLE","PA","17551"
338462,"PO BOX 201","MONROETON","PA","18832"
338463,"PO BOX 201","MONTEVIDEO","MN","56265"
338464,"PO BOX 201","NEW ULM","MN","56073"
338465,"PO BOX 201","NORTH HERO","VT","05474"
338466,"PO BOX 201","NUMIDIA","PA","17858"
338467,"PO BOX 201","PARLIN","NJ","08859"
338468,"PO BOX 201","PORTAGE","MI","49081"
338469,"PO BOX 201","ROCK CREEK","OH","44084"
338470,"PO BOX 201","ROSE HILL","NC","28458"
338471,"PO BOX 201","SAN ANGELO","TX","76902"
338472,"PO BOX 201","SARANAC","MI","48881"
338473,"PO BOX 201","SEWAREN","NJ","07077"
338474,"PO BOX 201","STATE PARK","SC","29147"
338475,"PO BOX 201","THIENSVILLE","WI","53092"
338476,"PO BOX 201","TITUSVILLE","NJ","08560"
338477,"PO BOX 201","VERONA","NJ","07044"
338478,"PO BOX 201","WALTON","KY","41094"
338479,"PO BOX 201","WILLIAMSON","GA","30292"
338480,"PO BOX 201","WOODLAND PARK","CO","80866"
338481,"PO BOX 2010","PIKEVILLE","KY","41502"
338482,"PO BOX 201002","SHAKER HEIGHTS","OH","44120"
338483,"PO BOX 201008","ANCHORAGE","AK","99520"
338484,"PO BOX 20101","ALBUQUERQUE","NM","87154"
338485,"PO BOX 201032","AUSTIN","TX","78720"
338486,"PO BOX 201045","MISSION HILL STATION","MA","02120"
338487,"PO BOX 20105","CINCINNATI","OH","45220"
338488,"PO BOX 20106","CHARLOTTE","NC","28202"
338489,"PO BOX 2011","AIEA","HI","96701"
338490,"PO BOX 2011","AVON PARK","FL","33826"
338491,"PO BOX 2011","CHESTER","VA","23831"
338492,"PO BOX 2011","ELIZABETHTOWN","KY","42702"
338493,"PO BOX 2011","GOLDSBORO","NC","27533"
338494,"PO BOX 2011","MANDEVILLE","LA","70470"
338495,"PO BOX 2011","NEWPORT","OR","97365"
338496,"PO BOX 2011","RICHMOND","KY","40475"
338497,"PO BOX 201123","AUSTIN","TX","78720"
338498,"PO BOX 20116","PHILADELPHIA","PA","19145"
338499,"PO BOX 2012","BERKELEY","CA","94702"
338500,"PO BOX 2012","CROSSETT","AR","71635"
