"ID","Address","City","State","Zip"
4501,"1005 MAGNOLIA BLVD","SAVANNAH","TX","76227"
4502,"1005 MAIN STREET SUITE 8233A","PAWTUCKET","RI","02860"
4503,"1005 MAIN STREET UNIT 2","HAVERHILL","MA","01830"
4504,"1005 MAIN STREET","PAWTUCKET","RI","02860"
4505,"1005 MARINA MILE BOULEVARD 290","FORT LAUDERDALE","FL","33315"
4506,"1005 MCKAY DRIVE SE","ATLANTA","GA","30315"
4507,"1005 MIDWAY SCHOOL ROAD","WINSTON-SALEM","NC","27107"
4508,"1005 MILLER ST","UTICA","NY","13501"
4509,"1005 MISSOURI AVE","KANSAS CITY","MO","64106"
4510,"1005 MITMAN ROAD","EASTON","PA","18040"
4511,"1005 MOHICAN BLVD","JUPITER","FL","33458"
4512,"1005 MORTON ROAD","LENOIR CITY","TN","37772"
4513,"1005 N 3RD ST","LANSING","KS","66043"
4514,"1005 N 77TH STREET","OMAHA","NE","68114"
4515,"1005 N BROADWAY","ABERDEEN","WA","98520"
4516,"1005 N CENTER AVE APT 9203","ONTARIO","CA","91764"
4517,"1005 N CHESTNUT ST  PO BOX 75","HUNTINGBURG","IN","47542"
4518,"1005 N MAIN","CLEBURNE","TX","76033"
4519,"1005 N MONROE ST","DECATUR","IL","62522"
4520,"1005 N SYCAMORE ST","FALLS CHURCH","VA","22040"
4521,"1005 N WILLOW ST","PAULS VALLEY","OK","73075"
4522,"1005 NE 5TH AVE","GAINESVILLE","FL","32601"
4523,"1005 NOMAD WAY BLDG 1312 RM 112","EGLIN AFB","FL","32542"
4524,"1005 NORTH LAMAR BLVD","OXFORD","MS","38655"
4525,"1005 NORTHGATE CIRCLE","BAINBRIDGE","GA","39817"
4526,"1005 NOVA AVE","CAPITOL HEIGHTS","MD","20743"
4527,"1005 NW 15TH STREET","MOORE","OK","73160"
4528,"1005 OAK CREEK DRIVE","HUTCHINS","TX","75141"
4529,"1005 OAKWOOD DRIVE","KEYSER","WV","26726"
4530,"1005 ODELLE CIRCLE","MCDONOUGH","GA","30253"
4531,"1005 PETER ROAD","SCHENECTADY","NY","12303"
4532,"1005 PHILLIPS","ENNIS","TX","75119"
4533,"1005 PINE GLADE ROAD","RURAL RETREAT","VA","24368"
4534,"1005 PO BOX","WESTCLIFFE","CO","81252"
4535,"1005 PONTIAC ROAD NUM 395","DREXEL HILL","PA","19026"
4536,"1005 PORTSMOUTH PL","CROWLEY","TX","76036"
4537,"1005 PRATT STREET","LONGMONT","CO","80501"
4538,"1005 REGAS DRIVE SOUTH","JACKSONVILLE","FL","32233"
4539,"1005 ROBERT E LEE RD","AUSTIN","TX","78704"
4540,"1005 ROYAL FERN CT","WAXHEW","NC","28173"
4541,"1005 S 9TH ST","PRINCETON","WV","24740"
4542,"1005 S MAIN STREET","CORBIN","KY","40701"
4543,"1005 S SILVERBROOK DRIVE","WEST BEND","WI","53095"
4544,"1005 SAYERS DRIVE","TALLAHASSEE","FL","32305"
4545,"1005 SCHUYLER","WHITE LAKE","MI","48383"
4546,"1005 SE 38TH AVE","OKEECHOBEE","FL","34974"
4547,"1005 SECRET COVE DRIVE","SUGAR HILL","GA","30518"
4548,"1005 SEYMOUR AVENUE","UTICA","NY","13501"
4549,"1005 SHANKS CHURCH ROAD","GREENCASTLE","PA","17225"
4550,"1005 SILVERWOOD CT","KELLER","TX","76248"
4551,"1005 SOUTH ANZA","EL CAJON","CA","92020"
4552,"1005 SOUTH CLINTON AVE","TRENTON","NJ","08610"
4553,"1005 SOUTH COURT STREET","ROCKFORD","IN","61104"
4554,"1005 SOUTH HAWTHORNE STREET","BLOOMINGTON","IN","47401"
4555,"1005 SOUTH LORRAINE ROAD  APT 1B","WHEATON","IL","60189"
4556,"1005 SOUTH Y STREET","INDIANOLA","IA","50125"
4557,"1005 SPRUCE DR","HUDSON","WI","54016"
4558,"1005 SPRUCE ST","HICKORY FLAT","MS","38633"
4559,"1005 STEVENS PL","WILMINGTON","DE","19810"
4560,"1005 STINE RD","BAKERSFIELD","CA","93309"
4561,"1005 STONE GATE DR","IRVING","TX","75063"
4562,"1005 SUMMERCHASE DRIVE","DULUTH","GA","30096"
4563,"1005 SUMMIT DR","ALBANY","GA","31707"
4564,"1005 SW 10TH ST UNIT 101","OCALA","FL","34471"
4565,"1005 SW HILLCREST DRIVE","BLUE SPRINGS","MO","64015"
4566,"1005 TALBOT AVE","ALBANY","CA","94706"
4567,"1005 THICKET DRIVE","CARSON","CA","90746"
4568,"1005 THOMAS ST","CENTRAL CITY","IA","52214"
4569,"1005 TRAPELO RD","WALTHAM","MA","01867"
4570,"1005 VICKIE DR","CARY","NC","27511"
4571,"1005 VICKIE DRIVE","CARY","NC","27511"
4572,"1005 VINE STREET","SCRANTON","PA","18510"
4573,"1005 VIRGINIA AVE STE 215","HAPEVILLE","GA","30354"
4574,"1005 W 2ND STREET","ZUMBROTA","MN","55992"
4575,"1005 W 3RD AVE APT 73","INDIANOLA","IA","50125"
4576,"1005 W 64TH STREET","LOS ANGELES","CA","90044"
4577,"1005 W BEAVER AVE","STATE COLLEGE","PA","16801"
4578,"1005 W FRANKLIN ST","MONROE","NC","28112"
4579,"1005 W HOOVER AVE","ORANGE","CA","92867"
4580,"1005 W JEFFERSON BLVD SUITE 306","DALLAS","TX","75208"
4581,"1005 W MADRONA ST","RIALTO","CA","92376"
4582,"1005 W MAIN STREET","CROWLEY","TX","76036"
4583,"1005 W STATE ROAD 45","MORGANTOWN","IN","46160"
4584,"1005 WAITS AVE","CARYVILLE","FL","32427"
4585,"1005 WATERS AVE","DEL RIO","TX","78840"
4586,"1005 WEST BUENA AVE APT 3W","CHICAGO","IL","60613"
4587,"1005 WHITEWATER TRAIL","DESOTO","TX","75115"
4588,"1005 WILLOW VIEW DR","ORONO","MN","55356"
4589,"1005 WOODRIDGE COURT","CARMEL","IN","46032"
4590,"1005 WRIGHT COURT","FREDERICKSBURG","VA","22401"
4591,"1005 YORK CT","FORNEY","TX","75126"
4592,"1005","GLADSTONE","MO","64118"
4593,"1005","WASHINGTON","DC","20002"
4594,"10050 ALTA DRIVE","LAS VEGAS","NV","89145"
4595,"10050 GREAT HILLS TRAIL 1310","AUSTIN","TX","78759"
4596,"10050 INNOVATION DRIVE","MIAMISBURG","OH","45342"
4597,"10050 JUNIPER AVE UNIT 56","FONTANA","CA","92335"
4598,"10050 N SYRACUSE STREET","PORTLAND","OR","97203"
4599,"10050 NE UNIVERSITY AVE","RUNNELLS","IA","50237"
4600,"10050","MESA","AZ","85212"
4601,"10051 191ST AVE NW","ELK RIVER","MN","55330"
4602,"10051 BUFFALO RD","OAK HILLS","CA","92344"
4603,"10051 BUFFALO ROAD","OAK HILLS","CA","92344"
4604,"10051 PERIMETER STATION DRIVE 227","CHARLOTTE","NC","28216"
4605,"10051 PLANTATION RD","FORT MYERS","FL","33906"
4606,"10051 W CAVE LOOP","DRIPPING SPRINGS","TX","78620"
4607,"10052 BOCA CIRCLE","NAPLES","FL","34109"
4608,"10053 56TH AVE NE","MARYSVILLE","WA","98270"
4609,"10053 E CAPRI AVENUE","MESA","AZ","85208"
4610,"10053 MONARCH DRIVE","SAINT LOUIS","MO","63136"
4611,"10053 S PRINCETON AVE","CHICAGO","IL","60628"
4612,"10053 SOUTH 9 RD","CADILLAC","MI","49601"
4613,"10053 WHITTWOOD DR PO BOX 11411","WHITTIER","CA","90603"
4614,"10054 WESTERN HILLS DR","FRISCO","TX","75033"
4615,"10054 WESTERN HILLS DRIVE","FRISCO","TX","75033"
4616,"10054 WYSTONE AVE","NORTHRIDGE","CA","91324"
4617,"10055 COMMERCE AVE","TUJUNGA","CA","91042"
4618,"10055 COUNTY RD 8170","NEWBURG","MO","65550"
4619,"10055 E MOUNTAIN VIEW LAKE DR 1075","SCOTTSDALE","AZ","85258"
4620,"10055 E MOUNTAINVIEW LAKE 2048","SCOTTSDALE","AZ","85258"
4621,"10055 S BENSLEY","CHICAGO","IL","60617"
4622,"10055 SW 180TH AVENUE RD","DUNNELLON","FL","34432"
4623,"10058 ARROWSMITH AVE S","SEATTLE","WA","98178"
4624,"10058 E  INDEPENDENCE BLVD","MATTHEWS","NC","28105"
4625,"10058 FM 105","ORANGE","TX","77630"
4626,"10058 INDEPENDENCE BLVD","MATTHEWS","NC","28105"
4627,"10058 IRVING RD","CADET","MO","63630"
4628,"10058 KING ROAD","DAVISBURG","MI","48350"
4629,"10059 8TH AVE SW","SEATTLE","WA","98146"
4630,"10059 OAK CREEK CANYON AVENUE","LAS VEGAS","NV","89147"
4631,"10059 S OAK LEAF WY","HIGHLANDS RANCH","CO","80129"
4632,"10059 S ROBERTS ROAD STE 1A","PALOS HILLS","IL","60465"
4633,"1006 35TH ST","NEWPORT NEWS","VA","23607"
4634,"1006 36TH AVE NE","GREAT FALLS","MT","59404"
4635,"1006 57TH ST E","BRADENTON","FL","34208"
4636,"1006 APACHE OAKS DR","ROUND ROCK","TX","78665"
4637,"1006 ARENDELL STREET","MOREHEAD CITY","NC","28557"
4638,"1006 ARROYO LINDA CT","NAPA","CA","94558"
4639,"1006 AUTUMN LAKES CIRCLE/APT 2B","MISHAWAKA","IN","46544"
4640,"1006 BALSAM WOOD TRAIL","VILLA RICA","GA","30180"
4641,"1006 BARTRAM LANE","QUAKERTOWN","PA","18951"
4642,"1006 BARTRAM LN","QUAKERTOWN","PA","18951"
4643,"1006 C ST","WOODBINE","IA","51579"
4644,"1006 CANE VALLEY LANE","CHAPEL HILL","NC","27516"
4645,"1006 CHARLESTON PLACE","VALDOSTA","GA","31602"
4646,"1006 CHESTNUT ST","WILMINGTON","DE","19805"
4647,"1006 CHURCH STREET","SCOTLAND NECK","NC","27874"
4648,"1006 COCONUT DRIVE","TAMPA","FL","33619"
4649,"1006 COLGATE RD","MEMPHIS","TN","38106"
4650,"1006 COUNTRY GLEN","MADISONVILLE","KY","42431"
4651,"1006 CRAGMONT AVE","BEREKLEY","CA","94708"
4652,"1006 CRESTHAVEN LANE","FORT MILL","SC","29715"
4653,"1006 CRYSTAL LAKE DR","LAKE CRYSTAL","MN","56055"
4654,"1006 DEER CREEK CIR","LITHONIA","GA","30038"
4655,"1006 DOC MELTON SR DRIVE","TIFTON","GA","31794"
4656,"1006 E  BRAZOS ST","PEARSALL","TX","78061"
4657,"1006 E DE SOTO STREET","PENSACOLA","FL","32501"
4658,"1006 E JESSAMINE ST","FORT WORTH","TX","76104"
4659,"1006 ELM STREET","MARYSVILLE","KS","66508"
4660,"1006 EMERSON STREET","MONROE","LA","71201"
4661,"1006 FAYETTEVILLE RD SE","ATLANTA","GA","30316"
4662,"1006 FROMHART STREET","ORANGE PARK","FL","32073"
4663,"1006 GATEWAY DRIVE","VALLEJO","CA","94589"
4664,"1006 GLENBROOK WAY STE 140","HENDERSONVILLE","TN","37075"
4665,"1006 GRANITE COURT","SALISBURY","MD","21804"
4666,"1006 GREEN OAK DR UNIT 11","NOVATO","CA","94949"
4667,"1006 GREEN VALLEY COVE","ROUND ROCK","TX","78664"
4668,"1006 HERTFORD STREET","HERNDON","VA","20170"
4669,"1006 INDIGO STREET","GRUNDY CENTER","IA","50638"
4670,"1006 KENSINGTON COURT","INDIANOLA","IA","50125"
4671,"1006 LAKEVIEW CT","KING OF PRUSSIA","PA","19406"
4672,"1006 LANG AVE","WOODBINE","GA","31569"
4673,"1006 LORNABERRY LANE","COLUMBUS","OH","43213"
4674,"1006 LOUDOUN RD","INDIAN TRAIL","NC","28079"
4675,"1006 MAIN STREET","WEST POINT","KY","40177"
4676,"1006 MARQUARDT RD","WAUSAU","WI","54403"
4677,"1006 MEEHAN WAY","PENDLETON","SC","29670"
4678,"1006 MOKUHANO ST","HONOLULU","HI","96825"
4679,"1006 N SHERIDAN AVE","PITTSBURGH","PA","15206"
4680,"1006 NE EMERSON STREET UNIT B","PORTLAND","OR","97211"
4681,"1006 NORTH 1ST STREET","JUDSONIA","AR","72081"
4682,"1006 NORTH MALLARD LANE","ROGERS","AR","72756"
4683,"1006 NW 120TH ST","NORTH MIAMI","FL","33168"
4684,"1006 ORCA COURT","HOLIDAY","FL","34691"
4685,"1006 PADDINGTON PL","ANNAPOLIS","MD","21403"
4686,"1006 PATHFINDER WAY","ROCKLEDGE","FL","32955"
4687,"1006 QUEEN STREET","TITUSVILLE","FL","32780"
4688,"1006 RANDOLPH STREET","SAINT JOSEPH","MO","64505"
4689,"1006 RAYS SIDING ROAD","WAITEVILLE","WV","24984"
4690,"1006 REINHART AVE","SUGAR LAND","TX","77479"
4691,"1006 RICHMOND DR","ENNIS","TX","75119"
4692,"1006 ROSE WAY","NAPLES","FL","34104"
4693,"1006 S 6TH ST","FAIRFIELD","IA","52556"
4694,"1006 S 6TH STREET","FAIRFIELD","IA","52556"
4695,"1006 S COLLEGE STREET","GREENCASTLE","IN","46135"
4696,"1006 SAYWORD COURT","BAKERSFIELD","CA","93312"
4697,"1006 SHENANDOAH RIDGE ROAD","WAUSAU","WI","54403"
4698,"1006 SOUTH END","WOODMERE","NY","11598"
4699,"1006 SOUTH ROAD","FOX RIVER GROVE","IL","60021"
4700,"1006 SOUTHWEST DRIVE","BAKER","LA","70714"
4701,"1006 STATE ROUTE 6","RAYMOND","WA","98577"
4702,"1006 SUSAN PL","SANTA MARIA","CA","93455"
4703,"1006 THIRD ST","STILLWATER","MN","55082"
4704,"1006 THISTLEWOOD DR","KATHLEEN","GA","31047"
4705,"1006 TWIN RIDGE RD","LINCOLN","NE","68510"
4706,"1006 VIA CARINA","SAN DIEGO","CA","92081"
4707,"1006 W 25TH STREET","SANFORD","FL","32771"
4708,"1006 W 43RD ST","HOUSTON","TX","77018"
4709,"1006 W LAKE STREET APT 319","MINNEAPOLIS","MN","55408"
4710,"1006 W LEHIGH AVE 200","PHILADELPHIA","PA","19133"
4711,"1006 WALSH STREET 2E","SAINT LOUIS","MO","63114"
4712,"1006 WASHINGTON AVENUE","EUSTIS","FL","32726"
4713,"1006 WASHINGTON ST SW","ATLANTA","GA","30315"
4714,"1006 WATER AVE","SELMA","AL","36701"
4715,"1006 WELLINGTON AVE","INDIAN LAND","SC","29707"
4716,"1006 WEST THIRD STREET","JAMESTOWN","NY","14701"
4717,"1006 WESTMONT","ATLANTA","GA","30311"
4718,"1006 WILLIAMSBURG  LN","NORCROSS","GA","30093"
4719,"1006 WOODLAND DR","KENDALLVILLE","IN","46755"
4720,"1006 WOODLAWN PARK DR","MCDONOUGH","GA","30253"
4721,"1006 WURSTER ROAD","JERSEY SHORE","PA","17740"
4722,"1006 WYOMING STREET","SAN ANTONIO","TX","78203"
4723,"1006-A WATER AVENUE","SELMA","AL","36701"
4724,"10060 E JIBBOOM","TRUCKEE","CA","96161"
4725,"10060 PONDS WAY","ELKO","MN","55020"
4726,"10060 SUEZ DRIVE","EL PASO","TX","79925"
4727,"10060 SW 222ND ST","CUTLER BAY","FL","33190"
4728,"10061 53RD WAY S SUITE 1004","BOYNTON BEACH","FL","33437"
4729,"10061 RIVERSIDE DR STE 171","TOLUCA LAKE","CA","91602"
4730,"10061 RIVERSIDE DRIVE  411","Toluca Lake","CA","91602"
4731,"10061 TALBERT AVE STE 202","FOUNTAIN VALLEY","CA","92708"
4732,"10061 TALBERT AVE STE 210","FOUNTAIN VALLEY","CA","92708"
4733,"10061 TALBERT AVE SUITE 325","FOUNTAIN VALLEY","CA","92708"
4734,"10062 E FOSTER CT","VILLA RICA","GA","30180"
4735,"10062 HARMON SPRINGS DR","VILLA RICA","GA","30180"
4736,"10062 HARMON SPRINGS","VILLA RICA","GA","30180"
4737,"10063 SPOTTED HORSE DR","HOUSTON","TX","77064"
4738,"10064 BUSINESS HIGHWAY 34 SOUTH","QUINLAN","TX","75474"
4739,"10064 BUSINESS HWY 34 SOUTH","QUINLAN","TX","75474"
4740,"10064 COMMERCE AVE","TUJUNGA","CA","91042"
4741,"10065 E ESTATES DR","CUPERTINO","CA","95014"
4742,"10065 GRANDVIEW SQ","DULUTH","GA","30097"
4743,"10065 SW CLARK HILL ROAD","BEAVERTON","OR","97007"
4744,"10065 US HIGHWAY 99 W STE A101","MIRAMAR BEACH","FL","32550"
4745,"10066 E 10TH ST","INDIANAPOLIS","IN","46229"
4746,"10066 ORANGELAWN","DETROIT","MI","48204"
4747,"10067 RIDGELINE DRIVE","MONTGOMERY VILLAGE","MD","20886"
4748,"10068 WAGER ROAD","SPRINGDALE","AR","72762"
4749,"10069 WEST RIVER STREET SUITE 6C","TRUCKEE","CA","96161"
4750,"1007 13TH AVE NE","ROCHESTER","MN","55906"
4751,"1007 27TH ST SW","AUSTIN","MN","55912"
4752,"1007 29TH STREET SUITE 202","DES MOINES","IA","50311"
4753,"1007 64TH STREET","WINDSOR HEIGHTS","IA","50324"
4754,"1007 ACRE DRIVE","CARLISLE","PA","17013"
4755,"1007 ARLINGTON AVE N APT 8","SAINT PETERSBURG","FL","33705"
4756,"1007 B WEST COLLEGE AVENUE","SANTA ROSA","CA","95401"
4757,"1007 BIGLEY AVENUE","CHARLESTON","WV","25302"
4758,"1007 BILTMORE BLVD","SOUTH ROXANA","IL","62087"
4759,"1007 BLUEBIRD DR","IRVING","TX","75061"
4760,"1007 BROAD ST","LAGRANGE","GA","30240"
4761,"1007 BRYAN WOODS LOOP","SAVANNAH","GA","31410"
4762,"1007 CAMPBELL STREET","WILMINGTON","NC","28401"
4763,"1007 CHOKECHERRY LN","LONGMONT","CO","80501"
4764,"1007 CLAYTON AVENUE","NASHVILLE","TN","37204"
4765,"1007 COPELAND ST","LUFKIN","TX","75904"
4766,"1007 CUTOFF BRANCH","OVIEDO","FL","32765"
4767,"1007 DELAFIELD RD","PITTSBURGH","PA","15215"
4768,"1007 DENNISE CT","MISSION","TX","78572"
4769,"1007 DILLINGHAM BLVD SUITE 114","HONOLULU","HI","96817"
4770,"1007 DOUGHERTY CT","GRAND JUNCTION","CO","81505"
4771,"1007 DOUGLAS AVE","YANKTON","SD","57078"
4772,"1007 E 11TH STREET","DELL RAPIDS","SD","57022"
4773,"1007 E 2200 NORTH ROAD","EDINBERG","IL","62531"
4774,"1007 E MELBOURNE AVE","PEORIA","IL","61603"
4775,"1007 E PRAIRIE ST","OLATHE","KS","66061"
4776,"1007 E VINE STREET","KISSIMMEE","FL","34744"
4777,"1007 E WASHINGTON ST","GREENVILLE","SC","29601"
4778,"1007 EAST 162ND STREET","SOUTH HOLLAND","IL","60473"
4779,"1007 EAST FRANKLIN AVENUE","MINNEAPOLIS","MN","55404"
4780,"1007 EDWARDS LN","BLACKSBURG","VA","24060"
4781,"1007 FORESTWOOD DRIVE","FERGUSON","MO","63135"
4782,"1007 FORREST","BASTROP","LA","71220"
4783,"1007 FULTON ST","DENTON","TX","76201"
4784,"1007 FULTON STREET","DENTON","TX","76201"
4785,"1007 GOLDEN OAK COURT","ORLANDO","FL","32806"
4786,"1007 GOLFVIEW AVE","STATE COLLEGE","PA","16801"
4787,"1007 GRAND AVENUE","PITTSBURGH","PA","15212"
4788,"1007 GREEN ST UNIT 1762","CONYERS","GA","30012"
4789,"1007 GREEN STREET SE 1212","CONYERS","GA","30012"
4790,"1007 HANNAH CIRCLE","POTTSBORO","TX","75076"
4791,"1007 HUTCHINS RD","DALLAS","TX","75203"
4792,"1007 HWY 18","LAKE CITY","AR","72437"
4793,"1007 INDUSTRY DRIVE BUILDING 33","TUKWILA","WA","98188"
4794,"1007 JIM BROWN PARKWAY","COUNCIL BLUFFS","IA","51503"
4795,"1007 KILLINGSWORTH LANE","WESSON","MS","39191"
4796,"1007 KING LANE","COLUMBIA","TN","38401"
4797,"1007 KINGSBURY STREET","BELLE FOURCHE","SD","57717"
4798,"1007 KINGSGATE CIRCLE","KATY","TX","77494"
4799,"1007 LAUREL OAK TRAIL","PFLUGERVILLE","TX","78660"
4800,"1007 LEXINGTON AVE","LAKEWOOD","NJ","08701"
4801,"1007 LINDEN ST","WILMINGTON","DE","19805"
4802,"1007 MADRID ST","CORAL GABLES","FL","33134"
4803,"1007 MESA DR","CHATHAM","IL","62629"
4804,"1007 MONTPIER DRIVE","FRANKLIN","TN","37069"
4805,"1007 MORNINGSIDE DRIVE","FAYETTEVILLE","AR","72701"
4806,"1007 N 16TH STREET","HARRISBUR","PA","17103"
4807,"1007 N 28TH STREET","BOISE","ID","83702"
4808,"1007 N FEDERAL HIGHWAY","FORT LAUDERDALE","FL","33304"
4809,"1007 N FEDERAL HWY 7","FT LAUDERDALE","FL","33304"
4810,"1007 N ORANGE STREET","WILMINGTON","DE","19801"
4811,"1007 N SEVEN MILE RD","STANFORD","MT","59479"
4812,"1007 N WALNUT STREET","HUTCHINSON","KS","67501"
4813,"1007 N WOODINGTON RD","BALTIMORE","MD","21229"
4814,"1007 NORTH FEDERAL HIGHWAY STE 2040","FT LAUDERDALE","FL","33304"
4815,"1007 NORTH SEPULVEDA BOULEVARD 247","MANHATTAN BEACH","CA","90267"
4816,"1007 NW 14TH CT","FORT LAUDERDALE","FL","33311"
4817,"1007 OLD HEARTHSTONE CIRCLE WEST","COLLIERVILLE","TN","38017"
4818,"1007 ORANGE ST","BEAR","DE","19801"
4819,"1007 ORCHARD CIR","MONROE","GA","30656"
4820,"1007 OSGOOD ST","HAVERHILL","MA","01845"
4821,"1007 PARK STREET","ELIZABETH CITY","NC","27909"
4822,"1007 PATIO DRIVE","NASHVILLE","TN","37214"
4823,"1007 PINERIDGE DRIVE","ROCKINGHAM","NC","28379"
4824,"1007 POPLAR STREET","ATLANTIC","IA","50022"
4825,"1007 RALEIGH ST UNIT 209","GLENDALE","CA","91205"
4826,"1007 ROUNDHOUSE COURT","WEST CHESTER","PA","19380"
4827,"1007 S 3RD ST","AVONDALE","AZ","85323"
4828,"1007 S HIGH STREET","COLUMBIA","TN","38401"
4829,"1007 S MARJAN ST","ANAHEIM","CA","92806"
4830,"1007 SE 6TH STREET","DEERFIELD BEACH","FL","33441"
4831,"1007 SE 7TH STREET","LEES SUMMIT","MO","64063"
4832,"1007 SHERYL DR","CLEVELAND","OH","44109"
4833,"1007 SOUTH MASON RD SUITE 2707","KATY","TX","77450"
4834,"1007 SOUTH RIVER ST","FRANKLIN","OH","45005"
4835,"1007 SOUTHERNVIEW ST","ADA","OH","45810"
4836,"1007 SPRING HILL DR","NORTHBROOK","IL","60062"
4837,"1007 SPRINGHILL AVE","MOBILE","AL","36604"
4838,"1007 ST ANDREWS DRIVE","MANSFIELD","TX","76063"
4839,"1007 STRAWBERRY LANE","ELLENWOOD","GA","30294"
4840,"1007 SUNSHINE LANE","ALTAMONTE SPRINGS","FL","32714"
4841,"1007 SUPERIOR","SANDPOINT","ID","83864"
4842,"1007 TOWNSHIP ROAD 217","BLOOMINGDALE","OH","43910"
4843,"1007 TURTLE ROCK LANE","WINSTON SALEM","NC","27104"
4844,"1007 US HIGHWAY 20","MICHIGAN CITY","IN","46360"
4845,"1007 VIA COMO PLACE","LAKE MARY","FL","32746"
4846,"1007 VIA PALO LINDA","FAIRFIELD","CA","94534"
4847,"1007 VICTORY AVE","BILLINGS","MT","59105"
4848,"1007 W 4TH AVE","ALBANY","GA","31701"
4849,"1007 W LANCASTER AVE","BRYN MAWR","PA","19010"
4850,"1007 W NEWELL STREET","SEATTLE","WA","98119"
4851,"1007 W PINE STREET","RIVER FALLS","WI","54022"
4852,"1007 WASHINGTON AVE","CORNING","IA","50841"
4853,"1007 WEST BROADWAY AVE NORTH","MINNEAPOLIS","MN","55411"
4854,"1007 WEST COLLEGE AVENUE 205","SANTA ROSA","CA","95401"
4855,"1007 WEST COLLEGE AVENUE 457","SANTA ROSA","CA","95401"
4856,"1007 WEST KAWEAH AVENUE","VISALIA","CA","93277"
4857,"1007 WOODEN GATE DR","FRANKLIN","TN","37064"
4858,"1007 WOODLAND DR","SEABROOK","TX","77586"
4859,"1007","MISSOURI CITY","TX","77459"
4860,"10070 BEULAH ROAD","PENSACOLA","FL","32526"
4861,"10070 DORCHESTER ROAD PO BOX 50182","SUMMERVILLE","SC","29485"
4862,"10070 MAHOGANY RD","POTOSI","MO","63664"
4863,"10070 ROCHESTER ROAD","MINERVA","OH","44657"
4864,"10070 SPRING HILL NEWTOWN ROAD","LA PLATA","MD","20646"
4865,"10070 US HIGHWAY 2","RAPID RIVER","MI","49878"
4866,"10070 YACHT CLUB DRIVE SOUTH","TREASURE ISLAND","FL","33706"
4867,"10071 MELODY DR","NORTHGLENN","CO","80260"
4868,"10072 W SURREY PLACE","LITTLETON","CO","80127"
4869,"10073 RD 101","BRIDGEPORT","NE","69336"
4870,"10073 SUMMITSIDE LANE","SPRING VALLEY","CA","91977"
4871,"10074 BLACKBIRD PLACE","LITTLETON","CO","80130"
4872,"10074 CODY DRISKELL ROAD LOT 2","GRAND BAY","AL","36541"
4873,"10075 67TH LANE NORTH","STILLWATER","MN","55082"
4874,"10075 GATE PARKWAY NORTH 1710","JACKSONVILLE","FL","32246"
4875,"10075 HART BRANCH CIRCLE","ORLANDO","FL","32832"
4876,"10075 N STATE HWY 16","POTEET","TX","78065"
4877,"10075 NW BEAVER DR","JOHNSTON","IA","50131"
4878,"10075 RAVENNA RD","TWINSBURG","OH","44087"
4879,"10075 RAVENNA ROAD","TWINSBURG","OH","44087"
4880,"10075 RUE CHANTEMAR","SAN DIEGO","CA","92131"
4881,"10075 UMBERLAND PLACE","BOCA RATON","FL","33428"
4882,"10076 DEEPWATER MOUNTAIN ROAD","KINCAID","WV","25119"
4883,"10076 LIGHTHOUSE AVENUE","GRAND BAY","AL","36541"
4884,"10076 MAYA LINDA 1105","SAN DIEGO","CA","92126"
4885,"10076 SILVER LAUREL WAY","ORLANDO","FL","32832"
4886,"10076 WOLFRIVER DR","PLYMOUTH","MI","48170"
4887,"10077 ACME RD","RITTMAN","OH","44270"
4888,"10077 FRONTAGE RD UNIT C","SKOKIE","IL","60077"
4889,"10077 GOLD HILL RD","BOULDER","CO","80302"
4890,"100779 BEAR RD","NIPTON","CA","92364"
4891,"10078 W VERONA CIR","VERO BEACH","FL","32966"
4892,"10079 E PEAKVIEW AVE","ENGLEWOOD","CO","80111"
4893,"10079 STEDWICK RD SUITE 2275","MONTGOMERY VILLAGE","MD","20886"
4894,"10079 VALLE VISTA ROAD","PHELAN","CA","92371"
4895,"1008 103RD AVE","OAKLAND","CA","94603"
4896,"1008 17TH AVENUE SOUTH","NASHVILLE","TN","37212"
4897,"1008 1ST ST W","WEST FARGO","ND","58078"
4898,"1008 2ND STREET","KIEL","WI","53042"
4899,"1008 35 AVE E","BRADENTON","FL","34208"
4900,"1008 45TH STREET NE","WASHINGTON","DC","20019"
4901,"1008 4TH AVE SE 103","WATFORD CITY","ND","58854"
4902,"1008 5TH AVENUE SOUTH","LEWISTOWN","MT","59457"
4903,"1008 ABERNATHY STREET","FORDYCE","AR","71742"
4904,"1008 AINSWORTH CIRCLE","ANTIOCH","TN","37013"
4905,"1008 ALLENWHITE DR","RICHLAND","WA","99352"
4906,"1008 ALMA DRIVE","LAWRENCE","KS","66049"
4907,"1008 ANDERSON STREET","NORFOLK","VA","23504"
4908,"1008 APPLEWOOD DR","CLEARWATER","FL","33759"
4909,"1008 ARBOR PARK PLACE","MITCHELLVILLE","MD","20721"
4910,"1008 BANYON ST","AUSTIN","TX","78757"
4911,"1008 BARKDULL STREET","HOUSTON","TX","77006"
4912,"1008 BIG CANYON DRIVE","FLOWER MOUND","TX","75028"
4913,"1008 BOOTEN CREEK ROAD","BARBOURSVILLE","WV","25504"
4914,"1008 BROWN DR","WAKE VILLAGE","TX","75501"
4915,"1008 BRYCE POINT","LEXINGTON","KY","40509"
4916,"1008 BUNGALOW DRIVE","MATTHEWS","NC","28104"
4917,"1008 C MCALWAY RD","CHARLOTTE","NC","28211"
4918,"1008 CANVASBACK CT","CARLSBAD","CA","92011"
4919,"1008 CARDINAL CIR","HUDSON","WI","54016"
4920,"1008 CIRCLE M DR APT D","KILLEEN","TX","76549"
4921,"1008 COTTONWOOD STREET","LEESBURG","FL","32748"
4922,"1008 COUNTRY LN","LOGANVILLE","GA","30052"
4923,"1008 COUNTY RD 414","CLEBURNE","TX","76031"
4924,"1008 CR 339","NEW ALBANY","MS","38652"
4925,"1008 DANTE CIRCLE","ROSEVILLE","CA","95678"
4926,"1008 DELWOOD AVENUE","BAKERSFIELD","CA","93307"
4927,"1008 DESHIRE LANE","MORRISVILLE","NC","27560"
4928,"1008 E 2ND AVE APT 9","INDIANOLA","IA","50125"
4929,"1008 E BUSTAMANTE ST","LAREDO","TX","78041"
4930,"1008 E HAY ST","SUDAN","TX","79371"
4931,"1008 ERB FARM CT","NAPERVILLE","IL","60563"
4932,"1008 ESTATE DRIVE","JOHNSON CITY","TN","37601"
4933,"1008 GLORIA AVENUE","FORT WALTON BEACH","FL","32547"
4934,"1008 GOLDENROD LANE","SAN LUIS OBISPO","CA","93401"
4935,"1008 GREEN WOOD CIR","HAUGHTON","LA","71037"
4936,"1008 HARPER VALLEY RD","LURAY","VA","22835"
4937,"1008 HARRIS RD","GRAYSLAKE","IL","60030"
4938,"1008 HAVENCREST ST","ROCKVILLE","MD","20850"
4939,"1008 HEMLOCK COURT","COPPELL","TX","75019"
4940,"1008 JEFFERSON AVE SUITE 203","MIAMI BEACH","FL","33139"
4941,"1008 KILLIAN DRIVE","MANSFIELD","TX","76063"
4942,"1008 LEE AVENUE","BRANSON","MO","65616"
4943,"1008 LESTER HARRIS ROAD","JOHNSON CITY","TN","37601"
4944,"1008 LEWIS AVENUE","BOWLING GREEN","KY","42101"
4945,"1008 LINCOLN RD","JAMESTOWN","TN","38556"
4946,"1008 LOUIS DRIVE","MILLVILLE","NJ","08332"
4947,"1008 LUNAAI PL","KAILUA","HI","96734"
4948,"1008 MAGNOLIA AVE","NORFOLK","VA","23508"
4949,"1008 MASSACHUSETTS AVE APT 706","CAMBRIDGE","MA","02138"
4950,"1008 MEADOW DRIVE","NORWALK","IA","50211"
4951,"1008 MEREDITH ST","HIGH POINT","NC","27260"
4952,"1008 MERGANSER CT","UPPER MARLBORO","MD","20774"
4953,"1008 MONROE BAY AVENUE","COLONIAL BEACH","VA","22443"
4954,"1008 MOUNT OLIVE LN","FORNEY","TX","75126"
4955,"1008 N 65TH STREET","PHILADELPHIA","PA","19151"
4956,"1008 N AVIATION BL NO 1022","WILMINGTON","CA","90744"
4957,"1008 N BEELINE HWY","PAYSON","AZ","85541"
4958,"1008 N CARRIER PKWY","GRAND PRAIRIE","TX","75050"
4959,"1008 N CEDAR RD","DEER PARK","WA","99006"
4960,"1008 N LECLAIRE","CHICAGO","IL","60651"
4961,"1008 N MONTEREY ST STE 202","ALHAMBRA","CA","91801"
4962,"1008 N PARSONS AVE","SEFFNER","FL","33584"
4963,"1008 NORTH DONALD AVENUE","PHILADELPHIA","MS","39350"
4964,"1008 NORTH PEAR STREET","CROCKETT","TX","75835"
4965,"1008 OLD SANTA FE TRAIL","SANTA FE","NM","87505"
4966,"1008 OMAR DRIVE","CROWNSVILLE","MD","21032"
4967,"1008 ORONOCO ST","ALEXANDRIA","VA","22314"
4968,"1008 PENNSYLVANIA AVE","ST CLOUD","FL","34769"
4969,"1008 PERRY TAYLOR RD","LEESVILLE","SC","29070"
4970,"1008 PINE BLOOM DR","LEXINGTON","KY","40504"
4971,"1008 QUARTER HORSE LANE","SUFFOLK","VA","23434"
4972,"1008 RIDGE TRAIL","GOODLETTSVILLE","TN","38072"
4973,"1008 RINGWOOD AVENUE","HASKELL","NJ","07420"
4974,"1008 ROANOKE AVE","ROANOKOE RAPIDS","NC","27870"
4975,"1008 ROWANSHYRE CIR","MCDONOUGH","GA","30253"
4976,"1008 ROYAL MILE","BIRMINGHAM","AL","35242"
4977,"1008 S BALDWIN AVE STE E","ARCADIA","CA","91007"
4978,"1008 S LEWIS AVE","LOMBARD","IL","60148"
4979,"1008 S NEPTUNE RD","EDMOND","OK","73003"
4980,"1008 S QUINCY AVE APT 3","TULSA","OK","74120"
4981,"1008 SE CLAREMONT ST","LEES SUMMIT","MO","64081"
4982,"1008 SO 50TH AVE","YAKIMA","WA","98908"
4983,"1008 SOMERSET AVENUE","WINDBER","PA","15963"
4984,"1008 SOUTH 46TH STREET","PHILADELPHIA","PA","19143"
4985,"1008 SOUTH 9TH STREET","NOBLESVILLE","IN","46060"
4986,"1008 SOUTH CENTER STREET UNIT 3","FLANDREAU","SD","57028"
4987,"1008 SOUTH MARGUERITA AVE UNIT G","ALHAMBRA","CA","91803"
4988,"1008 SOUTH SCHODACK ROAD","CASTLETON","NY","12033"
4989,"1008 SUMMER STREET - PO BOX 281","VAN HORN","TX","79855"
4990,"1008 SUNSET RIDGE","BRIDGEWATER","NJ","08807"
4991,"1008 SW 7TH ST","DUNDEE","OR","97115"
4992,"1008 SYCAMORE DRIVE","LAWRENCEBURG","KY","40342"
4993,"1008 TANLEY RD","SILVER SPRING","MD","20904"
4994,"1008 VANDERPLOERG DR","CHESAPEAKE","VA","23320"
4995,"1008 VENICE AVE","HAMMOND","LA","70403"
4996,"1008 VINEYARD DR","GURNEE","IL","60031"
4997,"1008 VINEYARD DRIVE","GURNEE","IL","60031"
4998,"1008 W AVE M14 STE A-D180","PALMDALE","CA","93551"
4999,"1008 W AVENUE M14 SUITE A-D180","PALMDALE","CA","93551"
5000,"1008 WARWICK DRIVE","MATTESON","IL","60443"
