"ID","Address","City","State","Zip"
127501,"2304 LOQUAT LN","ROUND ROCK","TX","78664"
127502,"2304 LOVE PLACE","WALDORF","MD","20601"
127503,"2304 MILLER AVE    UNIT A","CHESAPEAKE","VA","23320"
127504,"2304 MONARCH DR 908","FORT WORTH","NY","76119"
127505,"2304 MOUNTAIN VIEW DRIVE","LOVELAND","CO","80538"
127506,"2304 N ASH ST","PONCA CITY","OK","74601"
127507,"2304 ODIN STREET","NEW ORLEANS","LA","70122"
127508,"2304 OHIO STREET","PADUCAH","KY","42003"
127509,"2304 PANORAMA COURT","ARLINGTON","TX","76016"
127510,"2304 RIVERVIEW TERRACE","ALEXANDRIA","VA","22303"
127511,"2304 ROAD 226","CHEYENNE","WY","82009"
127512,"2304 S 16TH STREET","TACOMA","WA","98405"
127513,"2304 S 31ST STREET","OMAHA","NE","68105"
127514,"2304 S SAMUEL LN","BLOOMINGTON","IN","47403"
127515,"2304 SAINT JOHNS BLUFF RD S","JACKSONVILLE","FL","32246"
127516,"2304 SILVER VIEW DRIVE","LAKELAND","FL","33815"
127517,"2304 SOUTHERN AVENUE","BALTIMORE","MD","21214"
127518,"2304 SUMMIT DRIVE","EDMOND","OK","73034"
127519,"2304 SUNFLOWER CT","HEBRON","KY","41048"
127520,"2304 SW 41ST STREET","OKLAHOMA CITY","OK","73119"
127521,"2304 THERRELL WAY","MCKINNEY","TX","75072"
127522,"2304 W ASPEN COVE DR","MERIDIAN","ID","83642"
127523,"2304 W BOGART ROAD","SANDUSKY","OH","44870"
127524,"2304 WALNUT STREET","MCKEESPORT","PA","15132"
127525,"2304 WEST 118TH STREET","LEAWOOD","KS","66211"
127526,"2304 WESTCHESTER LANE NE","ATLANTA","GA","30345"
127527,"2304 WHEELER ST APT 3","HOUSTON","TX","77004"
127528,"2304 WOODY DR","BILLINGS","MT","59102"
127529,"23040 GOVERNORS HWY","MATTESON","IL","60443"
127530,"23044 CHERRY HILL","DEARBORN","MI","48124"
127531,"23046 AVENIDA DE LA CARLOTA STE 600","LAGUNA HILLS","CA","92653"
127532,"23046 AVENIDA DE LA CARLOTA","LAGUNA HILLS","CA","92653"
127533,"2305 1ST AVE S","IRONDALE","AL","35210"
127534,"2305 30TH AVE WEST","BRADENTON","FL","34205"
127535,"2305 36TH AVENUE","KENOSHA","WI","53144"
127536,"2305 ARRINGTON ROAD","HENRICO","VA","23294"
127537,"2305 ASHLAND ST C350","ASHLAND","OR","97520"
127538,"2305 ASHLAND ST STE C PMB 447","ASHLAND","OR","97520"
127539,"2305 ASHLAND ST SUITE C PMB406","ASHLAND","OR","97520"
127540,"2305 ASHLAND STREET STE C PMB 454","ASHLAND","OR","97520"
127541,"2305 AVENUE D NW","WINTER HAVEN","FL","33880"
127542,"2305 BRAGG COURT","VIRGINIA BEACH","VA","23454"
127543,"2305 BROADWAY","RIVIERA BEACH","FL","33404"
127544,"2305 BUTTERNUT CT","AUGUSTA","GA","30909"
127545,"2305 CAMELIA COURT","SAVANNAH","GA","31404"
127546,"2305 CARMEN ROAD","BARKER","NY","14012"
127547,"2305 CHESTNUT ST","WILMINGTON","NC","28405"
127548,"2305 CHRISTINE STREET","SPRINGDALE","AR","72762"
127549,"2305 COMMERCIAL ST NE","SALEM","OR","97301"
127550,"2305 CORONADO ST APT C","AUSTIN","TX","78702"
127551,"2305 CURDES AVE","FORT WAYNE","IN","46805"
127552,"2305 DON ONOFRE TRAIL NW","ALBUQUERQUE","NM","87107"
127553,"2305 DORRINGTON DRIVE","DALLAS","TX","75228"
127554,"2305 DOVEWOOD ESTATES COURT","VALRICO","FL","33594"
127555,"2305 E 95TH","CHICAGO","IL","60617"
127556,"2305 E HARRIET LEA","SIOUX FALLS","SD","57103"
127557,"2305 E PENTAGON PKWY","DALLAS","TX","75241"
127558,"2305 EAGLES LANDING AVE","HENRICO","VA","23231"
127559,"2305 EAST TULIP TREE DRIVE","CLINTON","IN","47842"
127560,"2305 EAST WHISPERING OAKS LANE","FAYETTEVILLE","AR","72701"
127561,"2305 EISENHOWER DR","M0","TX","75071"
127562,"2305 EL SOL","ALTADENA","CA","91001"
127563,"2305 ELBON DRIVE","WINSTON-SALEM","NC","27105"
127564,"2305 ELIZA COURT APARTMENT 106","JESSUP","MD","20794"
127565,"2305 ESTUARY COURT","VIRGINIA BEACH","VA","23451"
127566,"2305 EVERGREEN DRIVE","ALBANY","GA","31721"
127567,"2305 FAMILY DR","AUTAUGAVILLE","AL","36003"
127568,"2305 FOUNTAIN DRIVE","BARNHART","MO","63012"
127569,"2305 HERITAGE GREEN TRAIL","MARIETTA","GA","30064"
127570,"2305 HERMITAGE AVENUE","SILVER SPRING","MD","20902"
127571,"2305 HERMOSA AVE","DURANGO","CO","81301"
127572,"2305 HIGHWAY 6 S  STE  B","HOUSTON","TX","77077"
127573,"2305 HISTORIC DECATUR RD STE 100","SAN DIEGO","CA","92106"
127574,"2305 HISTORIC DECATUR ROA SUITE 100","SAN DIEGO","CA","92106"
127575,"2305 HOVIS COURT","RALEIGH","NC","27615"
127576,"2305 HUBBARD ST","JACKSONVILLE","FL","32206"
127577,"2305 HUNTINGTON DR STE 210","SAN MARINO","CA","91108"
127578,"2305 HURON AVERY RD","HURON","OH","44839"
127579,"2305 IVY WOOD ROAD","EDMOND","OK","73013"
127580,"2305 KILLEARN CENTER BLVD APT G 149","TALLAHASSEE","FL","32309"
127581,"2305 KILLERAN CENTER BLVD C58","TALLAHASSEE","FL","32309"
127582,"2305 KIRK ROAD","FAIRVIEW","MI","48621"
127583,"2305 LORITA WAY","COTTONWOOD HEIGHTS","UT","84093"
127584,"2305 LUTZ AVE","PITTSBURGH","PA","15210"
127585,"2305 LYNWOOD DR","SALT LAKE CITY","UT","84109"
127586,"2305 MARION MASHORE STREET","RICHMOND","VA","23224"
127587,"2305 MOUNT VERNON CHURCH RD","RALEIGH","NC","27614"
127588,"2305 N BRECKENRIDGE STREET","ENNIS","TX","75119"
127589,"2305 N COMMONWEALTH AVE 3N","CHICAGO","IL","60614"
127590,"2305 NE 12TH ST","MOORE","OK","73160"
127591,"2305 NEUSE BLVD","NEW BERN","NC","28561"
127592,"2305 NEWFOUND HARBOR DRIVE","MERRITT ISLAND","FL","32952"
127593,"2305 NW 95TH ST","MIAMI","FL","33142"
127594,"2305 PARK","DETROIT","MI","48201"
127595,"2305 RAPIDES AVENUE","ALEXANDRIA","ME","71301"
127596,"2305 RED LICK ROAD","IIRVINE","KY","40336"
127597,"2305 ROOSEVELT DRIVE SUITE C","ARLINGTON","TX","76016"
127598,"2305 ROUND RD","BALTIMORE","MD","21225"
127599,"2305 S COLEMAN ROAD","SHEPHERD","MI","48883"
127600,"2305 S CUSTER RD APT 1907","MCKINNEY","TX","75070"
127601,"2305 SEGOVIA AVE","JACKSONVILLE","FL","32217"
127602,"2305 SOUTH 25TH TERRACE","SAINT JOSEPH","MO","64503"
127603,"2305 SOUTH EL DORADO ST SUITE 208","STOCKTON","CA","95206"
127604,"2305 SUMMERHILL DR","ENCINITAS","CA","92024"
127605,"2305 SW 35TH AVENUE","DELRAY BEACH","FL","33445"
127606,"2305 TORO CT","LAS VEGAS","NV","89117"
127607,"2305 VALLEY FALLS AVENUE","MESQUITE","TX","75181"
127608,"2305 VIDA SHAW RD","NEW IBERIA","LA","70563"
127609,"2305 VILLAGE CIRCLE","BEDFORD","TX","76022"
127610,"2305 VIRTUOSO","IRVINE","CA","92620"
127611,"2305 W 12TH ST APT 2","WILMINGTON","DE","19805"
127612,"2305 W 180TH ST","TORRANCE","CA","90504"
127613,"2305 W 47TH AVE","ANCHORAGE","AK","99517"
127614,"2305 W 6TH COURT","HIALEAH","FL","33010"
127615,"2305 WEST SHERWAY ST","WEST COVINA","CA","91790"
127616,"2305 WESTBROOD DR","FORT WAYNE","IN","46805"
127617,"2305 WESTBROOK DR","FORT WAYNE","IN","46805"
127618,"2305 WHEATLEY DRIVE  APT 303","GWYNN OAK","MD","21207"
127619,"2305 WHEELER ST","77004","TX","77004"
127620,"2305 WHISPER WAY","STOCKBRIDGE","GA","30281"
127621,"2305 WOOD POINTE DRIVE","HOLIDAY","FL","34691"
127622,"2305 WOOTEN PL","PLANO","TX","75025"
127623,"23050 CLEAR CREEK RD NW","POULSBO","WA","98370"
127624,"23050 US HWY 98","FAIRHOPE","AL","36532"
127625,"23051 MARLBORO","DEARBORN","MI","48128"
127626,"23051 PLUMBROOKE DRIVE","SOUTHFIELD","MI","48075"
127627,"23052 ALCALDE DRIVE SUITE F","LAGUNA HILLS","CA","92653"
127628,"23055 NEWTOWNE NECK ROAD","LEONARDTOWN","MD","20650"
127629,"23058 ISOLETA RD","INDIAN HILLS","CO","80454"
127630,"2305C ASHLAND STREET 420","ASHLAND","OR","97520"
127631,"2305C ASHLAND STREET NUMBER 169","ASHLAND","OR","97520"
127632,"2306 1/2 DUANE ST","LOS ANGELES","CA","90039"
127633,"2306 ARBOR GATES DR","ATLANTA","GA","30324"
127634,"2306 AUSTIN HWY","SAN ANTONIO","TX","78218"
127635,"2306 AUTUMN BLAZE COURT","WAXHAW","NC","28173"
127636,"2306 AVENUE N","FORT PIERCE","FL","34950"
127637,"2306 BRIARGROVE COUT","HENRICO","VA","23238"
127638,"2306 CARRAMORE AVE","CARY","NC","27519"
127639,"2306 CLARK DRIVE","LAMARQUE","TX","77568"
127640,"2306 COTSWOLD CT","FORT COLLINS","CO","80526"
127641,"2306 CROOKED CREEK ROAD","GREENVILLE","NC","27858"
127642,"2306 DEVONSHIRE STREET","BRYAN","TX","77802"
127643,"2306 DWAIN DRIVE","KILGORE","TX","75662"
127644,"2306 EVERGREEN RD","LOUISVILLE","KY","40223"
127645,"2306 GUNSTON COURT","FAYETTEVILLE","NC","28303"
127646,"2306 JASPER HILL DRIVE","SAN RAMON","CA","94582"
127647,"2306 KALANIANAOLE AVENUE","HILO","HI","96720"
127648,"2306 LAMBETH DRIVE","PITTSBURGH","PA","15241"
127649,"2306 LONGEST DRIVE","WENTZVILLE","MO","63385"
127650,"2306 MCINTOSH CT","LANCASTER","TX","75134"
127651,"2306 MG SIVELY WAY","HARTSELLE","AL","35640"
127652,"2306 MINNESOTA AVE SE","WASHINGTON","DC","20020"
127653,"2306 N HOWARD AVE","TAMPA","FL","33607"
127654,"2306 OAK CREEK DRIVE","BLANCHARD","OK","73010"
127655,"2306 OAK LN STE 202","GRAND PRAIRIE","TX","75051"
127656,"2306 PEMBERTON ROAD","ATLANTA","GA","30331"
127657,"2306 QUINCETREE DR","CLARKSVILLE","IN","47129"
127658,"2306 RIDGEWOOD DR","BRIDGEPORT","TX","76426"
127659,"2306 RUSKIN AVENUE","BALTIMORE","MD","21217"
127660,"2306 SAN DIEGO AVE","FORT PIERCE","FL","34946"
127661,"2306 SNOWDON DRIVE","ARLINGTON","TX","76018"
127662,"2306 SOUTH BABCOCK STREET","MELBOURNE","FL","32901"
127663,"2306 SPENROCK CT","LEWISVILLE","TX","75077"
127664,"2306 W 17TH STREET UNIT 508","CLEVELAND","OH","44113"
127665,"2306 W KACHINA TRAIL","PHOENIX","AZ","85041"
127666,"2306 W SPENCER RUN","PHOENIX","AZ","85041"
127667,"2306 WEBSTER ST","LIBERTY","TX","77575"
127668,"2306 WHISPERING PINES DR","PINCKNEY","MI","48169"
127669,"2306 WHITETAIL COURT","RESTON","VA","20191"
127670,"2306 WHITSON CIRCLE","URBANA","IL","61801"
127671,"2306 WINTON TERRACE CT","GRANBURY","TX","76048"
127672,"23062 MADDENS TAVERN RD","STEVENSBURG","VA","22741"
127673,"23064 EAST MAIN ST","ARMADA","MI","48005"
127674,"230666 VILLAGE DR APT D","LAKE FOREST","CA","92630"
127675,"23068 NAVAJO STREET NW","SAINT FRANCIS","MN","55070"
127676,"2307 1ST AVENUE","SEATTLE","WA","98101"
127677,"2307 3RD STREET/PO BOX 351","MALIN","OR","97632"
127678,"2307 7TH AVE 3RD FLR","NEW YORK","NY","10030"
127679,"2307 A STREET","BELLINGHAM","WA","98225"
127680,"2307 ADAM CLAYTON POWELL JR  BLVD","NEW YORK","NY","10030"
127681,"2307 ARBOR STREET","HOUSTON","TX","77004"
127682,"2307 ATLANTIC AVENUE","SULLIVANS ISLAND","SC","29482"
127683,"2307 BAYNARD BLVD","WILMINGTON","DE","19802"
127684,"2307 BEDFORD OAKS STREET","FRESNO","TX","77545"
127685,"2307 BRITTON DR","DALLAS","TX","75216"
127686,"2307 COUNTRY SPRINGS DR","JOHNSBURG","IL","60051"
127687,"2307 COUNTY ROAD 46","MONTEVALLO","AL","35115"
127688,"2307 DEAR LODGE PLACE","FORT WAYNE","IN","46818"
127689,"2307 DOUBLE OAKS RD","CHARLOTTE","NC","28206"
127690,"2307 E CAULDER CT","DES MOINES","IA","50320"
127691,"2307 FENTON PARKWAY 107135","SAN DIEGO","CA","92108"
127692,"2307 FENTON PARKWAY 10721","SAN DIEGO","CA","92108"
127693,"2307 FOREST KNOLL DRIVE","PINE BLUFF","AR","71603"
127694,"2307 FREMONT AVENUE NORTH","MINNEAPOLIS","MN","55411"
127695,"2307 GENESEE STREET","UTICA","NY","13501"
127696,"2307 GREENWICH ROAD","WINSTON SALEM","NC","27104"
127697,"2307 GREENWILLOW DR","ORLANDO","FL","32825"
127698,"2307 MAIN STREET","DAPHNE","AL","36526"
127699,"2307 MALLORY LANE","LANCASTER","TX","75134"
127700,"2307 MANDARIN WAY","ANTIOCH","CA","94509"
127701,"2307 MARTIN LUTHER KING DRIVE","JACKSON","MS","39213"
127702,"2307 MARTIN LUTHER KING JR AVE SE","WASHINGTON","DC","20020"
127703,"2307 N 95TH AVE","PHOENIX","AZ","85037"
127704,"2307 NE 154TH CIRCLE","VANCOUVER","WA","98686"
127705,"2307 NORTH STREET SUITE 108","BEAUMONT","TX","77702"
127706,"2307 NORWOOD AVE SUITE C","GOLDSBORO","NC","27534"
127707,"2307 OAK LANE SUITE 119","GRAND PRAIRIE","TX","75051"
127708,"2307 OXFORD WAY","LODICA","CA","95242"
127709,"2307 PENN PLACE","BOWIE","MD","20716"
127710,"2307 POPPY LANE","GLENVIEW","IL","60026"
127711,"2307 PORTER DR","WAXHAW","NC","28173"
127712,"2307 QUANAH PARKER TRAIL","AUSTIN","TX","78734"
127713,"2307 REYNOLDSTON LANE","DALLAS","TX","75232"
127714,"2307 RICHWOD PIKE DR","RUSKIN","FL","33570"
127715,"2307 RIDGESIDE RD","APOPKA","FL","32712"
127716,"2307 RIVER LODGE LANE","SUGAR LAND","TX","77479"
127717,"2307 ROCKSRAM CT","BUFORD","GA","30519"
127718,"2307 S 49TH LN","MCALLEN","TX","78503"
127719,"2307 S KIRKLAND AVE NUM 2","CHICAGO","IL","60623"
127720,"2307 S RURAL RD","TEMPE","AZ","85282"
127721,"2307 S RURAL ROAD","TEMPE","AZ","85282"
127722,"2307 SEBASTIAN COURT","GAMBRILLS","MD","21054"
127723,"2307 SOUTH 184TH CIRCLE","OMAHA","NE","68130"
127724,"2307 SOUTH 60 EAST","IDAHO FALLS","ID","83406"
127725,"2307 SPRING BRIAR CT","SPRING","TX","77373"
127726,"2307 SW 37TH AVENUE SUITE 204","MIAMI","FL","33145"
127727,"2307 TENAKILL PARK EAST","CRESSKILL","NJ","07626"
127728,"2307 W OLIVE AVE","BURBANK","CA","91506"
127729,"2307 WATSON BLVD","ENDWELL","NY","13760"
127730,"2307 WEATHERBY DR","MESQUITE","TX","75181"
127731,"2307 WESTSIDE DRIVE","STANTON","TX","79782"
127732,"2307 WINFIELD AVE","SCRANTON","PA","18505"
127733,"2307 WOODRIDGE DRIVE","LAWTON","OK","73507"
127734,"2307-A NORWOOD AVENUE","GOLDSBORO","NC","27534"
127735,"23070 LEARNING CIRCLE","ASHBURN","VA","20148"
127736,"23071 E LA PALMIA AVE","YORBA LINDA","CA","92887"
127737,"23077 E CAMINA PLATA","QUEEN CREEK","AZ","85142"
127738,"23077 RED ADMIRAL PLACE","ASHBURN","VA","20148"
127739,"2307A RIDGE ROAD","REISTERSTOWN","MD","21136"
127740,"2308 1ST AVE","NEW YORK","NY","10035"
127741,"2308 24TH ST SW","AKRON","OH","44314"
127742,"2308 24TH STREET SW","AKRON","OH","44314"
127743,"2308 7TH AVENUE SUITE D3","NEW YORK","NY","10030"
127744,"2308 BANCROFT ST","OMAHA","NE","68108"
127745,"2308 CAMAS AVE NE","RENTON","WA","98056"
127746,"2308 CAMDEN VIEW DR 304","BRANDON","FL","33510"
127747,"2308 CARRETERA DRIVE","LEANDER","TX","78641"
127748,"2308 COLGATE DRIVE","FAYETTEVILLE","NC","28304"
127749,"2308 COLLINS DRIVE - PO BOX 24","LAS VEGAS","NM","87701"
127750,"2308 CR 260","MOULTON","TX","77975"
127751,"2308 CR 429","STEPHENVILLE","TX","76401"
127752,"2308 CROWN COLONY DR","ARLINGTON","TX","76011"
127753,"2308 DELTA BRIDGE DRIVE","PEARLAND","TX","77584"
127754,"2308 DORI AVE","LAS VEGAS","NV","89101"
127755,"2308 DRUMMOND AVE","PANAMA CITY","FL","32405"
127756,"2308 E LINCOLWAY","STERLING","IL","61081"
127757,"2308 E SOUTH REDWOOD DRIVE","ANAHEIM","CA","92806"
127758,"2308 EVERGREEN AVE","WEST SACRAMENTO","CA","95691"
127759,"2308 FIVE OAKS WAY","TUCKER","GA","30084"
127760,"2308 FLORIDA KEYS AVE","TAMPA","FM","33621"
127761,"2308 FREDERICK AVE","NEW ALBANY","IN","47150"
127762,"2308 FULTON WAY","LARGO","FL","33774"
127763,"2308 GAYLORD DR","SUITLAND","MD","20746"
127764,"2308 GINNY AVE","COLUMBUS","GA","31903"
127765,"2308 HENDRICKS ST","ANDERSON","IN","46016"
127766,"2308 HENSON FARMS LANE","FAYETTEVILLE","AR","72701"
127767,"2308 HIGHLAND PARK DR","CHARLOTTE","NC","28269"
127768,"2308 HWY 80/ PO BOX 1337","MANCHESTER","KY","40962"
127769,"2308 LAKEVIEW DRIVE","SANTA ROSA","CA","95405"
127770,"2308 LONDON LANE","GREENBRIER","TN","37073"
127771,"2308 MARGARET STREET","PITTSBURGH","PA","15235"
127772,"2308 MARKET STREET STE 1","YOUNGSTOWN","OH","44507"
127773,"2308 MAYA ROAD","LAREDO","TX","78041"
127774,"2308 MILAN RD","SANDUSKY","OH","44870"
127775,"2308 MOUNT VERNON AVE  SUITE 732","ALEXANDRIA","VA","22301"
127776,"2308 MOUNT VERNON AVENUE SUITE 401","ALEXANDRIA","VA","22301"
127777,"2308 MT VERNON AVE STE 219","ALEXANDRIA","VA","22301"
127778,"2308 N COLE ROAD STE E","BOISE","ID","83704"
127779,"2308 NAYLOR RD SE","WASHINGTON","DC","20020"
127780,"2308 NORTH SANTA ANNA COURT","CHANDLER","AZ","85224"
127781,"2308 OLD SPANISH TRAIL","LAREDO","TX","78046"
127782,"2308 OLD WILLIAMS RD","RALEIGH","NC","27610"
127783,"2308 PRICE AVE","WHEATON","MD","20902"
127784,"2308 SOUTHWAY","DENTON","TX","76207"
127785,"2308 SPRING HILL DRIVE","SOUTH BEND","IN","46628"
127786,"2308 SPRUCE ST","SEAFORD","NY","11783"
127787,"2308 UNIVERSITY AVE APT 76","MADISON","WI","53726"
127788,"2308 V STREET","SACRAMENTO","CA","95818"
127789,"2308 W 127 STREET","LEAWOOD","FL","66209"
127790,"2308 W 5TH ST","PLAINVIEW","TX","79072"
127791,"2308 W PURDUE AVE","MUNCIE","IN","47304"
127792,"2308 WEST HARRISON 2ND FLOOR","CHICAGO","IL","60612"
127793,"2308 WESTLAKE CIRCLE","BELLEVILLE","MI","48111"
127794,"2308 WESTOAK DR","AUSTIN","TX","78704"
127795,"23086 CO RD 18","ROCKY FORD","CO","81067"
127796,"23087 DUCATO CT","ASHBURN","VA","20148"
127797,"2309 15TH STREET","GULFPORT","MS","39501"
127798,"2309 24TH STREET","BAKERSFIELD","CA","93301"
127799,"2309 AMHERST AVE","ORLANDO","FL","32804"
127800,"2309 B ENCINAL AVE","ALAMEDA","CA","94501"
127801,"2309 BAHAMA POINT AVE","NORTH LAS VEGAS","NV","89031"
127802,"2309 BUCHANAN STREET","NASHVILLE","TN","37208"
127803,"2309 CROCUS DRIVE","BAKERSFIELD","CA","93311"
127804,"2309 DICKERSON PIKE","NASHVILLE","TN","37207"
127805,"2309 EAST 9TH ST","TEXARKANA","AR","71854"
127806,"2309 EAST BEAUTIFUL LANE","PHOENIX","AZ","85042"
127807,"2309 EAST VAN BUREN AVE","HARLINGEN","TX","78550"
127808,"2309 EMILY STREET","FAYETTEVILLE","NC","28301"
127809,"2309 EVERSTONE ROAD","WAKE FOREST","NC","27587"
127810,"2309 FOREST AVE","NORTH RIVERSIDE","IL","60546"
127811,"2309 GOOD HOPE CT SE APT104","WASHINGTON","DC","20020"
127812,"2309 GRASSMERE CT","SANFORD","NC","27330"
127813,"2309 GREENGOLD ST","CREST HILL","IL","60403"
127814,"2309 HEATHER GLENN DRIVE","COLLEYVILLE","TX","76034"
127815,"2309 KIDDS DAIRY ROAD","SCOTTSVILLE","VA","24590"
127816,"2309 KIRK CIRCLE","KILLEEN","TX","76543"
127817,"2309 MAIN STREET","MELROSE PARK","IL","60160"
127818,"2309 MARGUERITE STREET","CORPUS CHRISTI","TX","78405"
127819,"2309 MARTIN LURTHER KING AVE","KNOXVILLE","TN","37915"
127820,"2309 MARYLAND AVENUE","BALTIMORE","MD","21218"
127821,"2309 MEADOW LAKE DRIVE","GRAND PRAIRIE","TX","75050"
127822,"2309 N 37TH ST","GALESBURG","MI","49053"
127823,"2309 N DIXIE HIGHWAY","WEST PALM BEACH","FL","33407"
127824,"2309 N PARC GREEN STREET","HARVEY","LA","70058"
127825,"2309 N RIDGE RD","MCKINNEY","TX","75072"
127826,"2309 N SAWYER AVE 2ND FLOOR","CHICAGO","IL","60647"
127827,"2309 NE 22ND AVE","CAPE CORAL","FL","33909"
127828,"2309 NORTH 24TH STREET","PHOENIX","AZ","85008"
127829,"2309 OLD HICKS RD","LONG GROVE","IL","60047"
127830,"2309 PACIFIC COAST HIGHWAY SUITE 2","HERMOSA BEACH","CA","09254"
127831,"2309 PEACHTREE CREEK CIRCLE","ATLANTA","GA","30341"
127832,"2309 PRIVATE ROAD","NEWPORT BEACH","CA","92660"
127833,"2309 RIMROCK DR","AUSTIN","TX","78738"
127834,"2309 S MARTIN AVE","TUCSON","AZ","85713"
127835,"2309 SANTA MONICA BL 417","SANTA MONICA","CA","90404"
127836,"2309 SHINNERY OAK DR","PLANO","TX","75074"
127837,"2309 SPARROW LANE","NORTH HUNTINGDON","PA","15642"
127838,"2309 STAGECOACH ST","FORT WORTH","TX","76133"
127839,"2309 TEASDALE LANE","SANTA ROSA","CA","95401"
127840,"2309 TORRANCE BL 205","TORRANCE","CA","90501"
127841,"2309 VISTA HUERTA","NEWPORT BEACH","CA","92660"
127842,"2309 W CONE BOULEVARD STE 144","GREENSBORO","NC","27408"
127843,"2309 WALCOT WAY","LEXINGTON","KY","40511"
127844,"2309 WESTWOOD DR","HILLSIDE","IL","60162"
127845,"2309 WINDSOR CASTLE DRIVE","IMPERIAL","MO","63052"
127846,"23091 AVE A","ALVA","FL","33920"
127847,"23091 GENEVA","OAK PARK","MI","48237"
127848,"231 1/2 N BRAND BLVD","GLENDALE","CA","91203"
127849,"231 15TH ST APT 6B","BROOKLYN","NY","11215"
127850,"231 18TH STREET NW UNIT 7324","ATLANTA","GA","30363"
127851,"231 AIRPORT WAY","LIBBY","MT","59923"
127852,"231 ALLRED ROAD","HAZEL GREEN","AL","35750"
127853,"231 AND 227 CENTER STREET","MOUNT OLIVE","NC","28365"
127854,"231 ATLANTIC AVE P O BOX 493","COLUMBUS","NJ","08022"
127855,"231 AUTUMN LANE","ROYERSFORD","PA","19468"
127856,"231 BALLAST POINT ROAD","HAMPSTEAD","NC","28443"
127857,"231 BEASLEY RD","LUFKIN","TX","75904"
127858,"231 BERRYWOOD COURT","VACAVILLE","CA","95688"
127859,"231 BETSY ROSS DR","ORANGEBURG","NY","10962"
127860,"231 BIG OAK DRIVE","GLENCOE","AL","35905"
127861,"231 BIZERTE ST","HOUSTON","TX","77022"
127862,"231 BLOSSOM STREET","GOOSE CREEK","SC","29445"
127863,"231 BOHRS LANE","TOWER CITY","PA","17980"
127864,"231 BOYKIN LAKES LOOP","PIKE ROAD","AL","36064"
127865,"231 BRAINARDS ROAD","PHILLIPSBURG","NJ","08865"
127866,"231 BROOKSIDE CIRCLE","HARLEYSVILLE","PA","19438"
127867,"231 BUMPUS COVE RD","ERWIN","TN","37650"
127868,"231 BUSSEY STREET","DEDHAM","MA","02026"
127869,"231 CAPITOL AVENUE","HARTFORD","CT","06106"
127870,"231 CARO LANE","CHAPIN","SC","29036"
127871,"231 CENTER ST","PRINCETON","KY","42445"
127872,"231 CHENAL WOODS DR","LITTLE ROCK","AR","72223"
127873,"231 CHERRY MT TRAIL","POINTS","WV","25437"
127874,"231 COLCHESTER AVE","BURLINGTON","VT","05401"
127875,"231 COLONY RD","NEW HAVEN","CT","06511"
127876,"231 COUNTY ROAD 705","WEST COLUMBIA","TX","77486"
127877,"231 CRESCENT RIDGE DRIVE","SEVEN HILLS","OH","44131"
127878,"231 CYPRESS STREET","GATE CITY","VA","24251"
127879,"231 DEL PRADO BLVD S SUITE 6","CAPE CORAL","FL","33990"
127880,"231 DELAWARE AVE","DELMAR","NY","12054"
127881,"231 DETROIT AVE","BALTIMORE","MD","21222"
127882,"231 E 105TH STREET","LOS ANGELES","CA","90003"
127883,"231 E 34TH ST        STE 5A","NEW YORK","NY","10016"
127884,"231 E 75TH ST","CHICAGO","IL","60619"
127885,"231 E ALESSANDRO BLVD UNIT A451","RIVERSIDE","CA","92508"
127886,"231 E CENTER STREET","BELLEVUE","OH","44811"
127887,"231 E PICCADILLY ST","WINCHESTER","VA","22601"
127888,"231 E PICCADILLY STREET","WINCHESTER","VA","22601"
127889,"231 E SOUTHLAKE BLVD  STE 160","SOUTHLAKE","TX","76092"
127890,"231 E111TH STREET APT 5B","NEW YORK","NY","10029"
127891,"231 EAST 2ND STREET","CHILLICOTHE","OH","45601"
127892,"231 EAST 31ST STREET - RM 1A","NEW YORK","NY","10016"
127893,"231 EAST ALESSANDRO BLVD SUITE A317","RIVERSIDE","CA","92508"
127894,"231 EAST KING STREET","CHAMBERSBURG","PA","17201"
127895,"231 EAST MAIN STREET","MORRISTOWN","IN","46161"
127896,"231 EAST SIERRA MADRE","GLENDORA","CA","91741"
127897,"231 EAST WASHINGTON ST","CHAMBERSBURG","PA","17201"
127898,"231 EAST WINDING WAY","WALLACE","NC","28466"
127899,"231 EDENBERRY AVE","JUPITER","FL","33458"
127900,"231 EMERSON DRIVE","ROCKY MOUNT","NC","27803"
127901,"231 ENGLEWOOD AVENUE","BUFFALO","NY","14214"
127902,"231 FAFNIR DR","KIMBERLY","ID","83341"
127903,"231 FOREST ST CAMPUS BOX 1575","BABSON PARK","MA","02457"
127904,"231 FOREST STREET","BABSON PARK","MA","02457"
127905,"231 FREDERICK ST  SUITE 3","SAN FRANCISCO","CA","94117"
127906,"231 GARDEN STREET","WETHERSFIELD","CT","06109"
127907,"231 GOLIAD DR","NEW BRAUNFELS","TX","78130"
127908,"231 GREENMEADOWS RD","wilmer","TX","75172"
127909,"231 GUN BARREL LANE","WINCHESTER","VA","22603"
127910,"231 GUNGYWAMP ROAD","GROTON","CT","06430"
127911,"231 HARRISON AVE UNIT 12","BOSTON","MA","02111"
127912,"231 HEATHER ST","CRANSTON","RI","02920"
127913,"231 HEBRARD BLVD ROOM 106","LAFAYETTE","LA","70504"
127914,"231 KENT AVENUE","ORLANDO","FL","32805"
127915,"231 LEADOFF DRIVE","MYRTLE BEACH","SC","29588"
127916,"231 LENNOX AVENUE","SYRACUSE","NY","13210"
127917,"231 LENOX AVENUE","NEW YORK","NY","10027"
127918,"231 LEXINGTON AVENUE","LEXINGTON","KY","40508"
127919,"231 LINCOLN AVENUE","BRIDGEPORT","CT","06606"
127920,"231 LONG JOHN SILVER DRIVE","WILMINGTON","NC","28411"
127921,"231 MADDOX CIRCLE","JACKSON","GA","30233"
127922,"231 MADELIA PLACE","MOORESVILLE","NC","23115"
127923,"231 MADISON ST","JEFFERSON CITY","MO","65101"
127924,"231 MANSION ROAD","WALLINGFORD","CT","06492"
127925,"231 MARGUERITE AVE","SYRACUSE","NY","13207"
127926,"231 MARKET PLACE      SUITE 173","SAN RAMON","CA","94583"
127927,"231 MARKET PLACE 171","SAN RAMON","CA","94583"
127928,"231 MORGAN STREET","OBERLIN","OH","44074"
127929,"231 MURDOCK ROAD","BALTIMORE","MD","21212"
127930,"231 N CORDOVA ST","BURBANK","CA","91505"
127931,"231 N FORREST AVE","LA PORTE","TX","77571"
127932,"231 N KENTUCKY AVE STE 200","LAKELAND","FL","33801"
127933,"231 N KENTUCKY AVE STE 209","LAKELAND","FL","33801"
127934,"231 N SYCAMORE ST","SANTA ANA","CA","92701"
127935,"231 NAJOLES ROAD STE 100","MILLERSVILLE","MD","21108"
127936,"231 NE 19TH STREET APT 102","MIAMI","FL","33132"
127937,"231 NORTH 6TH STREET","ALLENTOWN","PA","18102"
127938,"231 NORTH LIBERTY STREET","OPELOUSAS","LA","70570"
127939,"231 NORTH RUTLAND STREET","WATERTOWN","NY","13601"
127940,"231 NW 131 AVENUE","PLANTATION","FL","33325"
127941,"231 NW 146 STREET","MIAMI","FL","33168"
127942,"231 OAK STREET","UXBRIDGE","MA","01569"
127943,"231 ORANGE POND COURT","LEXINGTON","SC","29073"
127944,"231 OVERLOOK LANE","LOUDON","TN","37774"
127945,"231 PEBBLESTONE DRIVE","HUNTSVILLE","AL","35806"
127946,"231 PENNSYLVANIA AVE SE","WASHINGTON","DC","20003"
127947,"231 PEPPERMILL ROAD","WEST BERLIN","NJ","08091"
127948,"231 PHILADELPHIA AVE","EGG HARBOR CITY","NJ","08215"
127949,"231 PUTNAM COURT","VACAVILLE","CA","95687"
127950,"231 RANDEL AVENUE","AKRON","OH","44313"
127951,"231 RIVER STREET","CAMBRIDGE","MA","02139"
127952,"231 ROBINSON ST -336","BASALT","CO","81621"
127953,"231 ROCKHILL DR","SAN ANTONIO","TX","78209"
127954,"231 ROSEMONT DRIVE","ALLOUEZ","WI","54301"
127955,"231 S ADAMS STREET","GREEN BAY","WI","54301"
127956,"231 S BEMISON AVENUE STE 800","CLAYTON","MO","63105"
127957,"231 S DIXIE HIGHWAY","POMPANO BEACH","FL","33060"
127958,"231 S HALSTED STREET STE 201","CHICAGO","IL","60661"
127959,"231 S LASALLE ST STE 1400","CHICAGO","IL","60604"
127960,"231 S MAIN ST","MAQUOKETA","IA","52060"
127961,"231 SAN JUAN AVENUE","SANTA ROSA BEACH","FL","32459"
127962,"231 SCOTTS MILL CT","DANVILLE","CA","94526"
127963,"231 SEAHORSE CIR SE","PALM BAY","FL","32909"
127964,"231 SHARPS LANE","TRENTON","NJ","08610"
127965,"231 SILVA AVE","MARYSVILLE","CA","95901"
127966,"231 SOUTH BINKLEY STREET","SOLDOTNA","AK","99669"
127967,"231 SOUTH CENTER ST","ORANGE","CA","92866"
127968,"231 SOUTH EASTON ROAD","GLENSIDE","PA","19038"
127969,"231 SOUTHRIVER DR","WIMBERLEY","TX","78676"
127970,"231 STERLING RIDGE DR","RIVERDALE","GA","30274"
127971,"231 STEUBEN STREET APT 1G","STATEN ISLAND","NY","10304"
127972,"231 STODDARD RD","WOLFEBORO","NH","03894"
127973,"231 STODDARD ROAD","WOLFEBORO","NH","03894"
127974,"231 SUGAR HILL ROAD","LISBON","NH","03585"
127975,"231 SW RED MAPLE WAY","LAKE CITY","FL","32024"
127976,"231 TENNESSEE AVENUE","ATLANTA","GA","30315"
127977,"231 TERRACE ROAD NE","SAINT MICHAEL","MN","55376"
127978,"231 THOMPSON AVENUE","WATERFORD WORKS","NJ","08089"
127979,"231 TWIN LAKES DRIVE","NEW MARKET","AL","35761"
127980,"231 UTAH ST","GREENVILLE","MS","38703"
127981,"231 VERNON STREET STE 302","ROSEVILLE","CA","95678"
127982,"231 VIOLA STREET","HOUMA","LA","70360"
127983,"231 W 148TH STREET APT 1L","NEW YORK","NY","10039"
127984,"231 W 6TH AVE","ROSELLE","NJ","97203"
127985,"231 W 6TH AVENUE","ROSELLE","NJ","07203"
127986,"231 W CEDAR ST","BIRMINGHAM","IA","52535"
127987,"231 W COMMERCE STREET","SAN ANTONIO","TX","78205"
127988,"231 W FRANKLIN STREET","APPLETON","WI","54911"
127989,"231 W GLENCOVE AVE","NORTHFIELD","NJ","08225"
127990,"231 W JEFFERSON BOULEVARD","DALLAS","TX","75208"
127991,"231 W MAIN ST","BARRINGTON","IL","60010"
127992,"231 W MAIN ST","LEAGUE CITY","TX","77573"
127993,"231 W OAK STREET","MAXWELL","CA","95955"
127994,"231 W WILLOW ST","CHICAGO","IL","60614"
127995,"231 WASHINGTON AVENUE","HAWTHORNE","NJ","07506"
127996,"231 WEST MAIN STREET UNIT A","HILLSBORO","OH","45133"
127997,"231 WEST MATSON AVENUE","SYRACUSE","NY","13205"
127998,"231 WESTON RD","WELLESLEY","MA","02482"
127999,"231 WESTON WOODS ROAD","INEZ","TX","77968"
128000,"231 WOLFE STREET","WINCHESTER","VA","22601"
