"ID","Address","City","State","Zip"
344501,"PO BOX 310774","TAMPA","FL","33680"
344502,"PO BOX 3108","FORT PIERCE","FL","34948"
344503,"PO BOX 3108","MCCALL","ID","83638"
344504,"PO BOX 310812","ATLANTA","GA","30331"
344505,"PO BOX 31088","CHARLESTON","SC","29417"
344506,"PO BOX 3109","SPRING HILL","FL","34611"
344507,"PO BOX 31094","PORTLAND","OR","97231"
344508,"PO BOX 31094","SAVANNAH","GA","31410"
344509,"PO BOX 310987","FONTANA","CA","92331"
344510,"PO BOX 311","APALACHICOLA","FL","32320"
344511,"PO BOX 311","BLOOMINGTON","TX","77951"
344512,"PO BOX 311","ELK CITY","ID","83525"
344513,"PO BOX 311","ELSIE","MI","48831"
344514,"PO BOX 311","ESPARTO","CA","95627"
344515,"PO BOX 311","FARWELL","MI","48622"
344516,"PO BOX 311","FORDLAND","MO","65652"
344517,"PO BOX 311","FRANKFORT","KY","40602"
344518,"PO BOX 311","GASTON","IN","47342"
344519,"PO BOX 311","HOWELL","NJ","07731"
344520,"PO BOX 311","HUNTINGBURG","IN","47542"
344521,"PO BOX 311","KALISPELL","MT","59903"
344522,"PO BOX 311","LAKE PLACID","NY","12946"
344523,"PO BOX 311","LANSDOWNE","PA","19050"
344524,"PO BOX 311","MONMOUTH BEACH","NJ","07750"
344525,"PO BOX 311","NAPPANEE","IN","46550"
344526,"PO BOX 311","NEWPORT NEWS","VA","23607"
344527,"PO BOX 311","PRINEVILLE","OR","97754"
344528,"PO BOX 311","SAINT MARYS","OH","45885"
344529,"PO BOX 311","SCHURZ","NV","89427"
344530,"PO BOX 311","SHOSHNE","ID","83352"
344531,"PO BOX 311","ST STEPHENS CHURCH","VA","23148"
344532,"PO BOX 311","SUMMIT","MS","39666"
344533,"PO BOX 311","WASHINGTON","IA","52353"
344534,"PO BOX 311","WYANDOTTE","MI","48192"
344535,"PO BOX 311011","MIAMI","FL","33231"
344536,"PO BOX 311014","INDEPENDENCE","OH","44131"
344537,"PO BOX 311059","NEW BRAUNFELS","TX","78131"
344538,"PO BOX 3111","CANYON LAKE","TX","78133"
344539,"PO BOX 3111","LAKE CITY","FL","32056"
344540,"PO BOX 311132","NEW BRAUNFELS","TX","78131"
344541,"PO BOX 31117","SEATTLE","WA","98103"
344542,"PO BOX 311192","HOUSTON","TX","77231"
344543,"PO BOX 3112","VIRGINIA BEACH","VA","23451"
344544,"PO BOX 311201","FONTANA","CA","92331"
344545,"PO BOX 311207","DETROIT","MI","48231"
344546,"PO BOX 3113","CATONSVILLE","MD","21228"
344547,"PO BOX 3113","KILGORE","TX","75662"
344548,"PO BOX 3113","RICHMOND HIL","GA","31324"
344549,"PO BOX 311369","ATLANTA","GA","31131"
344550,"PO BOX 311375","ATLANTA","GA","31131"
344551,"PO BOX 3114","GLEN ROSE","TX","76043"
344552,"PO BOX 3114","RADFORD","VA","24143"
344553,"PO BOX 31145","LAS VEGAS","NV","89173"
344554,"PO BOX 311464","ATLANTA","GA","31131"
344555,"PO BOX 31148","FORT GREELY","AK","99731"
344556,"PO BOX 311618","ATLANTA","GA","31131"
344557,"PO BOX 311623","ENTERPRISE","AL","36331"
344558,"PO BOX 3117","GETTYSBURG","PA","17325"
344559,"PO BOX 3117","SAAN LUIS OBISPO","CA","93403"
344560,"PO BOX 3117","SAN BERNADINO","CA","92413"
344561,"PO BOX 31172","CHARLOTTE","NC","28231"
344562,"PO BOX 311731","NEW BRAUNFELS","TX","78131"
344563,"PO BOX 31174","HOUSTON","TX","77231"
344564,"PO BOX 311740","ATLANTA","GA","31131"
344565,"PO BOX 31185","CINCINNATI","OH","45231"
344566,"PO BOX 3119","FORT PIERCE","FL","34948"
344567,"PO BOX 3119","FORT STEWART","GA","31315"
344568,"PO BOX 31191","OMAHA","NE","68131"
344569,"PO BOX 312 173 RAILROAD STREET","CAIRO","WV","26337"
344570,"PO BOX 312","BELLEFONTE","PA","16823"
344571,"PO BOX 312","BETHEL","CT","06801"
344572,"PO BOX 312","BLACKSHEAR","GA","31516"
344573,"PO BOX 312","BRONX","NY","10473"
344574,"PO BOX 312","BUFFALO","NY","14213"
344575,"PO BOX 312","CAPTAIN COOK","HI","96704"
344576,"PO BOX 312","CEDARTOWN","GA","30125"
344577,"PO BOX 312","CHARLESTON","SC","29402"
344578,"PO BOX 312","DEXTER","NM","88230"
344579,"PO BOX 312","DIABLO","CA","94582"
344580,"PO BOX 312","DREXEL HILL","PA","19026"
344581,"PO BOX 312","ELKHART","IN","46515"
344582,"PO BOX 312","ELKHORN","WI","53121"
344583,"PO BOX 312","ESCALON","CA","95320"
344584,"PO BOX 312","GUNTERSVILLE","AL","35976"
344585,"PO BOX 312","HEMLOCK","MI","48626"
344586,"PO BOX 312","HIRAM","GA","30141"
344587,"PO BOX 312","HOOSICK FALLS","NY","12090"
344588,"PO BOX 312","KULM","ND","58456"
344589,"PO BOX 312","KULPSVILLE","PA","19443"
344590,"PO BOX 312","LIBERTY HILL","TX","78642"
344591,"PO BOX 312","LORMAN","MS","39096"
344592,"PO BOX 312","MARICAO","PR","00606"
344593,"PO BOX 312","MOHAWK","NY","13407"
344594,"PO BOX 312","NANTICOKE","PA","18634"
344595,"PO BOX 312","NEW HAVEN","IN","46774"
344596,"PO BOX 312","PLEASANT VALLEY","CT","06063"
344597,"PO BOX 312","SAFETY HARBOR","FL","34695"
344598,"PO BOX 312","SAINT JOHNSBURY","VT","05819"
344599,"PO BOX 312","SELAH","WA","98942"
344600,"PO BOX 312","SPOTSYLVANIA","VA","22553"
344601,"PO BOX 312","STRAFFORD","NH","03851"
344602,"PO BOX 312","UNCASVILLE","CT","06382"
344603,"PO BOX 31201","KNOXVILLE","TN","37930"
344604,"PO BOX 312096","ATLANTA","GA","31131"
344605,"PO BOX 3121","BATTLE GROUND","WA","98604"
344606,"PO BOX 3121","MINOT","ND","58702"
344607,"PO BOX 3121","SANTA ROSA","CA","95402"
344608,"PO BOX 31211","ST LOUIS","MO","63131"
344609,"PO BOX 3122","CHESAPEAKE","VA","23327"
344610,"PO BOX 3122","GRAND CANYON","AZ","86023"
344611,"PO BOX 3122","SECAUCUS","NJ","07096"
344612,"PO BOX 31225","LOS ANGELES","CA","90031"
344613,"PO BOX 3123","OSWEGO","NY","13126"
344614,"PO BOX 3123","OVERGAARD","AZ","85933"
344615,"PO BOX 31231","GREENVILLE","SC","29608"
344616,"PO BOX 312311","JAMAICA","NY","11432"
344617,"PO BOX 31235","CHARLESTON","SC","29417"
344618,"PO BOX 31238","GREENVILLE","NC","27833"
344619,"PO BOX 31245","PHILADELPHIA","PA","19147"
344620,"PO BOX 3125","DESOTO","TX","75123"
344621,"PO BOX 3125","LONDON","KY","40743"
344622,"PO BOX 31256","CHARLESTON","SC","29417"
344623,"PO BOX 31262","CINCINNATI","OH","45231"
344624,"PO BOX 31264","CHICAGO","IL","60631"
344625,"PO BOX 31273","SEATTLE","WA","98103"
344626,"PO BOX 31275","INDEPENDENCE","OH","44131"
344627,"PO BOX 31291","CHARLESTON","SC","29407"
344628,"PO BOX 313","ACTON","CA","93510"
344629,"PO BOX 313","ADAIR","IA","50002"
344630,"PO BOX 313","ASHDOWN","AR","71822"
344631,"PO BOX 313","BEAVERTON","OR","97140"
344632,"PO BOX 313","DAMASCUS","OH","44619"
344633,"PO BOX 313","DUNCANNON","PA","17020"
344634,"PO BOX 313","EDEN","GA","31307"
344635,"PO BOX 313","EDGECOMB","ME","04556"
344636,"PO BOX 313","EPPING","NH","03042"
344637,"PO BOX 313","FAITH","SD","57626"
344638,"PO BOX 313","JEFFERSON","OR","97352"
344639,"PO BOX 313","LEWISBERRY","PA","17339"
344640,"PO BOX 313","LITHOPOLIS","OH","43136"
344641,"PO BOX 313","MANILLA","IA","51454"
344642,"PO BOX 313","NORTH BRANCH","MI","48461"
344643,"PO BOX 313","ROSEMOUNT","MN","55068"
344644,"PO BOX 313","SOUTH HADLEY","MA","01075"
344645,"PO BOX 313","STAPLES","MN","56479"
344646,"PO BOX 313","STEVINSON","CA","95374"
344647,"PO BOX 313","VINITA","OK","74301"
344648,"PO BOX 313","WESTON","MO","64098"
344649,"PO BOX 313","WHEATON","IL","60187"
344650,"PO BOX 3130","LAWRENCE","MA","01842"
344651,"PO BOX 3130","NEDERLAND","CO","80466"
344652,"PO BOX 31301","COLORADO SPRINGS","CO","80931"
344653,"PO BOX 31304","HONOLULU","HI","96820"
344654,"PO BOX 3131","HAYWARD","CA","94540"
344655,"PO BOX 31317","CHICAGO","IL","60631"
344656,"PO BOX 3132","CRESTLINE","CA","92325"
344657,"PO BOX 3133","BAY CITY","OR","97107"
344658,"PO BOX 3133","PINEHURST","NC","28374"
344659,"PO BOX 31332","HONOLULU","HI","96820"
344660,"PO BOX 313368","JAMAICA","NY","11431"
344661,"PO BOX 31345","CINCINNATI","OH","45201"
344662,"PO BOX 3135","FAYETTEVILLE","NC","28302"
344663,"PO BOX 3135","WALLA WALLA","WA","99362"
344664,"PO BOX 3136","WINTER PARK","CO","80482"
344665,"PO BOX 3137","SAG HARBOR","NY","11963"
344666,"PO BOX 3139","BAYONNE","NJ","07002"
344667,"PO BOX 3139","OAKHURST","CA","93644"
344668,"PO BOX 31393","HOUSTON","TX","77035"
344669,"PO BOX 314","AGUADILLA","PR","00605"
344670,"PO BOX 314","ANKENY","IA","50021"
344671,"PO BOX 314","BARGERSVILLE","IN","46106"
344672,"PO BOX 314","BUFFALO","WY","82834"
344673,"PO BOX 314","CAMPBELLSVILLE","KY","42719"
344674,"PO BOX 314","CASCADE","MT","59421"
344675,"PO BOX 314","CLARKSVILLE","MO","63336"
344676,"PO BOX 314","CLAYPOOL","AZ","85532"
344677,"PO BOX 314","GOODMAN","MO","64843"
344678,"PO BOX 314","HARMONY","NC","28634"
344679,"PO BOX 314","HYDESVILLE","CA","95547"
344680,"PO BOX 314","INGLIS","FL","34449"
344681,"PO BOX 314","ISLAND PARK","ID","83429"
344682,"PO BOX 314","KENNEBUNK","ME","04043"
344683,"PO BOX 314","KINGSTON","NJ","08528"
344684,"PO BOX 314","KLAMATH FALLS","OR","97601"
344685,"PO BOX 314","LAKEVILLE","MN","55044"
344686,"PO BOX 314","MAUSTON","WI","53948"
344687,"PO BOX 314","MCELHATTAN","PA","17748"
344688,"PO BOX 314","MUNCY","PA","17756"
344689,"PO BOX 314","PEPEEKEO","HI","96783"
344690,"PO BOX 314","SCHNECKSVILLE","PA","18078"
344691,"PO BOX 314","SCITUATE","MA","02060"
344692,"PO BOX 314","STINNETT","TX","79083"
344693,"PO BOX 314","STROUD","OK","74079"
344694,"PO BOX 314","SUMMERVILLE","PA","15864"
344695,"PO BOX 314","UTICA","NY","13503"
344696,"PO BOX 314","WILLIAMS BAY","WI","53191"
344697,"PO BOX 314","WOODLAND","NC","27897"
344698,"PO BOX 314","WOODVILLE","TX","75979"
344699,"PO BOX 314","YACHATS","OR","97498"
344700,"PO BOX 31401","SAVANNAH","GA","31410"
344701,"PO BOX 3141","SPRINGFIELD","MO","65804"
344702,"PO BOX 3142","FLAGSTAFF","AZ","86003"
344703,"PO BOX 3142","LEBANON","TN","37088"
344704,"PO BOX 3142","PONTE VEDRA BEACH","FL","32004"
344705,"PO BOX 3142","SAN JOSE","CA","95156"
344706,"PO BOX 3144","APPLE VALLEY","CA","92307"
344707,"PO BOX 3144","OSHKOSH","WI","54902"
344708,"PO BOX 3145","BLOOMINGTON","IN","47402"
344709,"PO BOX 3145","EASTON","MD","21601"
344710,"PO BOX 3146","APPLE VALLEY","CA","92307"
344711,"PO BOX 3146","ZANESVILLE","OH","43702"
344712,"PO BOX 3148","PALMER","AK","99645"
344713,"PO BOX 31484","CLARKSVILLE","TN","37040"
344714,"PO BOX 31494","INDEPENDENCE","OH","44131"
344715,"PO BOX 315","BASEHOR","KS","66007"
344716,"PO BOX 315","BOLIVAR","MO","65613"
344717,"PO BOX 315","DAMARISCOTTA","ME","04543"
344718,"PO BOX 315","DUMONT","CO","80436"
344719,"PO BOX 315","FAIRFAX","MO","64446"
344720,"PO BOX 315","FOUNTAIN INN","SC","29644"
344721,"PO BOX 315","JACKSON","MS","39205"
344722,"PO BOX 315","OLYMPIA","WA","98507"
344723,"PO BOX 315","ONTARIO","NY","14519"
344724,"PO BOX 315","PAWNEE","OK","74058"
344725,"PO BOX 315","ST JOHN","WA","99171"
344726,"PO BOX 315","TRAVELERS REST","SC","29690"
344727,"PO BOX 315","UNDERWOOD","ND","58576"
344728,"PO BOX 315","WOODLEAF","NC","27054"
344729,"PO BOX 3150","ORANGE BEACH","AL","36561"
344730,"PO BOX 3151","BIG SPRING","TX","79721"
344731,"PO BOX 3151","LAJAS","PR","00667"
344732,"PO BOX 3151","LOVELAND","CO","80539"
344733,"PO BOX 31513","LOS ANGELES","CA","90031"
344734,"PO BOX 3152-3152","CEDAR CITY","UT","84721"
344735,"PO BOX 3152","ELIZABETH CITY","NC","27906"
344736,"PO BOX 3152","TULSA","OK","74101"
344737,"PO BOX 3153","COTTONWOOD","AZ","86326"
344738,"PO BOX 3153","DURANGO","CO","81302"
344739,"PO BOX 3153","MIDLAND","TX","79702"
344740,"PO BOX 3153","SOUTH AMBOY","NJ","08879"
344741,"PO BOX 3153","VALDEZ","AK","99686"
344742,"PO BOX 31532","SEA ISLAND","GA","31561"
344743,"PO BOX 3154","CINNAMINSON","NJ","08077"
344744,"PO BOX 3154","TOLEDO","OH","43607"
344745,"PO BOX 31544","BALTIMORE","MD","21207"
344746,"PO BOX 31544","WASHINGTON","DC","20030"
344747,"PO BOX 3155","ANN ARBOR","MI","48106"
344748,"PO BOX 31551","SPOKANE","WA","99223"
344749,"PO BOX 3156","ALTOONA","PA","16601"
344750,"PO BOX 3156","HENRICO","VA","23228"
344751,"PO BOX 3156","LONDON","KY","40743"
344752,"PO BOX 3156","SPRING","TX","77373"
344753,"PO BOX 31565","BELLINGHAM","WA","98228"
344754,"PO BOX 31575","CHARLESTON","SC","29405"
344755,"PO BOX 31582","RALEIGH","NC","27622"
344756,"PO BOX 31585","GWYNN OAK","MD","21207"
344757,"PO BOX 316","AURORA","MN","55705"
344758,"PO BOX 316","DAVIS","CA","95617"
344759,"PO BOX 316","FAIRDALE","KY","40118"
344760,"PO BOX 316","FAIRFIELD","CA","94533"
344761,"PO BOX 316","FAIRMONT","WV","26555"
344762,"PO BOX 316","FLEETWOOD","NY","10552"
344763,"PO BOX 316","HOLTS SUMMIT","MO","65043"
344764,"PO BOX 316","MALVERNE","NY","11565"
344765,"PO BOX 316","MCCLEARY","WA","98557"
344766,"PO BOX 316","PETALUMA","CA","94953"
344767,"PO BOX 316","SARDINIA","OH","45171"
344768,"PO BOX 316","SAUNDERSTOWN","RI","02874"
344769,"PO BOX 316","STOUGHTON","WI","53589"
344770,"PO BOX 316","SUGAR LOAF","NY","10981"
344771,"PO BOX 316","USAF ACADEMY","CO","80840"
344772,"PO BOX 3161","DULUTH","MN","55803"
344773,"PO BOX 3161","HILLSBORO","OR","97123"
344774,"PO BOX 3161","SALINAS","CA","93912"
344775,"PO BOX 3161","SAN DIMAS","CA","91773"
344776,"PO BOX 3161","STOWE","VT","05672"
344777,"PO BOX 3163","FAYETTEVILLE","NC","28302"
344778,"PO BOX 3163","IDAHO FALLS","ID","83403"
344779,"PO BOX 3163","JACKSON","WY","83001"
344780,"PO BOX 3163","PEACHTREE CITY","GA","30269"
344781,"PO BOX 3163","SANTA BARBARA","CA","93130"
344782,"PO BOX 3163","SIOUX CITY","IA","51102"
344783,"PO BOX 3164","CHEYENNE","WY","82003"
344784,"PO BOX 3164","MONTICELLO","AR","71655"
344785,"PO BOX 3164","PORTLAND","ME","04103"
344786,"PO BOX 3164","RANCHO CORDOVA","CA","95741"
344787,"PO BOX 31645","ROCHESTER","NY","14603"
344788,"PO BOX 3165","OLATHE","KS","66062"
344789,"PO BOX 31655","CHARLESTON","SC","29417"
344790,"PO BOX 3166","EDMOND","OK","73083"
344791,"PO BOX 3166","PORT ANGELES","WA","98362"
344792,"PO BOX 3166","RENTON","WA","98056"
344793,"PO BOX 31696","GREENVILLE","SC","29608"
344794,"PO BOX 317","CRANE","MO","65633"
344795,"PO BOX 317","HARLAN","IN","46743"
344796,"PO BOX 317","KIMBALL","WV","24853"
344797,"PO BOX 317","MASTIC BEACH","NY","11951"
344798,"PO BOX 317","MOODUS","CT","06469"
344799,"PO BOX 317","NEW BOSTON","MI","48164"
344800,"PO BOX 317","REX","GA","30273"
344801,"PO BOX 3170    200 PINE AVE","ALBANY","GA","31701"
344802,"PO BOX 3171","AMARILLO","TX","79116"
344803,"PO BOX 3171","AUBURN","ME","04212"
344804,"PO BOX 3171","DENVER","CO","80201"
344805,"PO BOX 3171","FAIRVIEW HEIGHTS","IL","62208"
344806,"PO BOX 3172","ALPINE","WY","83128"
344807,"PO BOX 3172","PFLUGERVILLE","TX","78691"
344808,"PO BOX 3174","PINEVILLE","LA","71361"
344809,"PO BOX 3174","RIO GRANDE3","PR","00745"
344810,"PO BOX 3174","WEEHAWKEN","NJ","07087"
344811,"PO BOX 3174","WINNETKA","CA","91396"
344812,"PO BOX 3175","DUBUQUE","IA","52001"
344813,"PO BOX 3175","SUMMERVILLE","SC","29483"
344814,"PO BOX 31753","INDEPENDENCE","OH","44131"
344815,"PO BOX 3176","APACHE JUNCTION","AZ","85117"
344816,"PO BOX 3178","KAILUA-KONA","HI","96745"
344817,"PO BOX 31786","SEATTLE","WA","98103"
344818,"PO BOX 3179","NEW YORK","NY","10163"
344819,"PO BOX 3179","SUMTER","SC","29151"
344820,"PO BOX 318","BROWNSVILLE","PA","15417"
344821,"PO BOX 318","COLBY","WI","54421"
344822,"PO BOX 318","COLEBROOK","NH","03576"
344823,"PO BOX 318","CONYNGHAM","PA","18219"
344824,"PO BOX 318","FORT KNOX","KY","40121"
344825,"PO BOX 318","GOLD RUN","CA","95717"
344826,"PO BOX 318","HUSUM","WA","98623"
344827,"PO BOX 318","MARATHON","WI","54448"
344828,"PO BOX 318","NEW CARLISLE","OH","45344"
344829,"PO BOX 3180","ASHEVILLE","NC","28802"
344830,"PO BOX 318052","SAN FRANCISCO","CA","94131"
344831,"PO BOX 3181","BAY CITY","OR","97107"
344832,"PO BOX 3181","CAGUAS","PR","00726"
344833,"PO BOX 3182","CARY","NC","27519"
344834,"PO BOX 3182","LEESBURG","VA","20177"
344835,"PO BOX 31824","BALTIMORE","MD","21207"
344836,"PO BOX 3183","COLUMBUS","OH","43210"
344837,"PO BOX 3184","SEWANEE","TN","37375"
344838,"PO BOX 3185","GLENWOOD SPRINGS","CO","81602"
344839,"PO BOX 3185","GRAND RAPIDS","MI","49501"
344840,"PO BOX 3185","PINEDALE","CA","93650"
344841,"PO BOX 31867","MESA","AZ","85275"
344842,"PO BOX 3188","GLENWOOD SPRINGS","CO","81602"
344843,"PO BOX 3188","NAMPA","ID","83653"
344844,"PO BOX 3189","OAKTON","VA","22124"
344845,"PO BOX 319","HARTLAND","WI","53029"
344846,"PO BOX 319","HAWLEY","TX","79525"
344847,"PO BOX 319","MAMMOTH LAKES","CA","93546"
344848,"PO BOX 319","MOUNTAINAIR","NM","87036"
344849,"PO BOX 319","PROSPECT","KY","40059"
344850,"PO BOX 319","WASHOUGAL","WA","98671"
344851,"PO BOX 3190","CEDAR HILL","TX","75106"
344852,"PO BOX 31901","CHARLESTON","SC","29417"
344853,"PO BOX 3191","LA MESA","CA","91944"
344854,"PO BOX 3191","POST FALLS","ID","83877"
344855,"PO BOX 3191","SILVERDALE","WA","98383"
344856,"PO BOX 3192","ASHLAND","OR","97520"
344857,"PO BOX 3193","AUGUSTA","GA","30914"
344858,"PO BOX 3193","CLARKSVILLE","TN","37043"
344859,"PO BOX 3193","DULUTH","GA","30096"
344860,"PO BOX 3193","NEDERLAND","CO","80466"
344861,"PO BOX 3193","PORTLAND","OR","97208"
344862,"PO BOX 3194","ATLANTA","GA","30302"
344863,"PO BOX 3194","DULUTH","MN","55803"
344864,"PO BOX 3194","LAGRANGE","GA","30241"
344865,"PO BOX 3195","CONCORD","NH","03302"
344866,"PO BOX 31951","EDMOND","OK","73003"
344867,"PO BOX 3198","FRAMINGHAM","MA","01705"
344868,"PO BOX 32-113","LOS ANGELES","CA","90032"
344869,"PO BOX 32","ALLENTOWN","NJ","08501"
344870,"PO BOX 32","ANNAPOLIS JCT","MD","20701"
344871,"PO BOX 32","BRONX","NY","10468"
344872,"PO BOX 32","BRONX","NY","10469"
344873,"PO BOX 32","BURNSIDE","KY","42519"
344874,"PO BOX 32","CASTINE","ME","04421"
344875,"PO BOX 32","CHALFONT","PA","18914"
344876,"PO BOX 32","COLUMBUS","NC","28722"
344877,"PO BOX 32","COWAN","TN","37318"
344878,"PO BOX 32","CRAWFORDVILLE","GA","30631"
344879,"PO BOX 32","DOWNINGTOWN","PA","19335"
344880,"PO BOX 32","ELSA","TX","78543"
344881,"PO BOX 32","GOLDFIELD","IA","50542"
344882,"PO BOX 32","GUILFORD","CO","06437"
344883,"PO BOX 32","HOHENWALD","TN","38462"
344884,"PO BOX 32","LYONS","OH","43533"
344885,"PO BOX 32","MAINESBURG","PA","16932"
344886,"PO BOX 32","MAYLENE","AL","35114"
344887,"PO BOX 32","MENDHAM","NJ","07945"
344888,"PO BOX 32","NEW HAVEN","CT","06501"
344889,"PO BOX 32","NEW ULM","MN","56073"
344890,"PO BOX 32","NORMAN","AR","71960"
344891,"PO BOX 32","NORTH QUINCY","MA","02171"
344892,"PO BOX 32","PORTERDALE","GA","30070"
344893,"PO BOX 32","READINGTON","NJ","08870"
344894,"PO BOX 32","ROCKVILLE","IN","47872"
344895,"PO BOX 32","SHERRILLS FORD","NC","28673"
344896,"PO BOX 32","SIX MILE","SC","29682"
344897,"PO BOX 32","SONOMA","CA","95476"
344898,"PO BOX 32","TEMPLE HILLS","MD","20748"
344899,"PO BOX 32","UNIONVILLE","TN","37180"
344900,"PO BOX 32","WOODLAND","CA","95776"
344901,"PO BOX 320","ELEELE","HI","96705"
344902,"PO BOX 320","EUREKA","CA","95502"
344903,"PO BOX 320","PALM SPRINGS","CA","92263"
344904,"PO BOX 320","PEMBROKE","NC","28372"
344905,"PO BOX 3200","TELLURIDE","CO","81435"
344906,"PO BOX 3201","OSHKOSH","WI","54903"
344907,"PO BOX 320100","FLINT","MI","48532"
344908,"PO BOX 32017","MYRTLE BEACH","SC","29588"
344909,"PO BOX 320192","FLINT","MI","48532"
344910,"PO BOX 3202","ALPINE","WY","83128"
344911,"PO BOX 3202","MERIDIAN","MS","39303"
344912,"PO BOX 3202","WHEELING","WV","26003"
344913,"PO BOX 320235","HARTFORD","CT","06132"
344914,"PO BOX 3203","OKLAHOMA CITY","OK","73101"
344915,"PO BOX 320344","FLOWOOD","MS","39232"
344916,"PO BOX 32036","DETROIT","MI","48232"
344917,"PO BOX 320397","BIRMINGHAM","AL","35232"
344918,"PO BOX 3204","CLARKSVILLE","TN","37043"
344919,"PO BOX 3204","GRAND JUNCTION","CO","81502"
344920,"PO BOX 3204","ROUND ROCK","TX","78691"
344921,"PO BOX 320405","BIRMINGHAM","AL","35232"
344922,"PO BOX 320439","BROOKLYN","NY","11232"
344923,"PO BOX 320485","BIRMINGHAM","AL","35232"
344924,"PO BOX 320572","TAMPA","FL","33679"
344925,"PO BOX 320691","FRANKLIN","WI","53132"
344926,"PO BOX 32083 1401 W FORT ST","DETROIT","MI","48233"
344927,"PO BOX 32088","COLUMBUS","OH","43232"
344928,"PO BOX 320919","FLINT","MI","48532"
344929,"PO BOX 32092","COLUMBUS","OH","43232"
344930,"PO BOX 320943","COCOA BEACH","FL","32932"
344931,"PO BOX 321","AURORA","IN","47001"
344932,"PO BOX 321","BASKING RIDGE","NJ","07920"
344933,"PO BOX 321","BENTON","MS","39039"
344934,"PO BOX 321","CASCADE LOCKS","OR","97014"
344935,"PO BOX 321","CENTERVILLE","UT","84017"
344936,"PO BOX 321","DANIELSVILLE","GA","30633"
344937,"PO BOX 321","DECATUR","GA","30031"
344938,"PO BOX 321","EAGLE GROVE","IA","50533"
344939,"PO BOX 321","EAST BARRE","VT","05649"
344940,"PO BOX 321","FALL RIVER MILLS","CA","96028"
344941,"PO BOX 321","FARMINGTON","MN","55024"
344942,"PO BOX 321","HARRISVILLE","PA","16038"
344943,"PO BOX 321","HERNANDO","MS","38632"
344944,"PO BOX 321","HOWE","TX","75459"
344945,"PO BOX 321","INDIO","CA","92202"
344946,"PO BOX 321","ISLAND PARK","ID","83429"
344947,"PO BOX 321","JESUP","IA","50648"
344948,"PO BOX 321","LAVON","TX","75166"
344949,"PO BOX 321","MASONVILLE","CO","80541"
344950,"PO BOX 321","MEADE","KS","67864"
344951,"PO BOX 321","MONUMENT","OR","97864"
344952,"PO BOX 321","MORICHES","NY","11955"
344953,"PO BOX 321","PAINTED POST","NY","14870"
344954,"PO BOX 321","PINE RIDGE","SD","57770"
344955,"PO BOX 321","RIVERSIDE","CA","92052"
344956,"PO BOX 321","ROCHESTER","MA","02770"
344957,"PO BOX 321","SEWANEE","TN","37375"
344958,"PO BOX 321","SIMPSONVILLE","KY","40067"
344959,"PO BOX 321","SKIPPERVILLE","AL","36374"
344960,"PO BOX 321","STRONGHURST","IL","61480"
344961,"PO BOX 321","TARRYTOWN","NY","10591"
344962,"PO BOX 321","TRIBES HILL","NY","12177"
344963,"PO BOX 321","TROY","TN","38260"
344964,"PO BOX 321011","FLOWOOD","MS","39232"
344965,"PO BOX 3211","DENVER","CO","80201"
344966,"PO BOX 3211","STUART","FL","34995"
344967,"PO BOX 321116","COCOA BEACH","FL","32932"
344968,"PO BOX 321134","FLOWOOD","MS","39232"
344969,"PO BOX 3212","BARTLESVILLE","OK","74006"
344970,"PO BOX 3212","FLAGSTAFF","AZ","86003"
344971,"PO BOX 32123","JUNEAU","AK","99803"
344972,"PO BOX 321326","HOUSTON","TX","77221"
344973,"PO BOX 32134","KANSAS CITY","MO","64171"
344974,"PO BOX 321487","BIRMINGHAM","AL","35126"
344975,"PO BOX 32157","DETROIT","MI","48233"
344976,"PO BOX 321577","COCOA BEACH","FL","32932"
344977,"PO BOX 3216","EVERETT","WA","98213"
344978,"PO BOX 32162","DETROIT","MI","48232"
344979,"PO BOX 32164","LOS ANGELES","CA","90032"
344980,"PO BOX 32165","RALEIGH","NC","27622"
344981,"PO BOX 3217","MADISON","WI","53704"
344982,"PO BOX 32173","PALM BEACH GARDENS","FL","33420"
344983,"PO BOX 3218 - 8480 PHILLIPS 300 RD","WEST HELENA","AR","72390"
344984,"PO BOX 321815","NEW YORK","NY","10032"
344985,"PO BOX 32183","LOUISVILLE","KY","40232"
344986,"PO BOX 32184","NEWARK","NJ","07102"
344987,"PO BOX 322","ALBA","TX","75410"
344988,"PO BOX 322","CHICKAMAUGA","GA","30707"
344989,"PO BOX 322","EAST CLARIDON","OH","44033"
344990,"PO BOX 322","ETTRICK","WI","54627"
344991,"PO BOX 322","FORT BELVOIR","VA","22060"
344992,"PO BOX 322","GOLDENDALE","WA","98620"
344993,"PO BOX 322","GRAND MARAIS","MI","49839"
344994,"PO BOX 322","GRAND RAPIDS","MN","55744"
344995,"PO BOX 322","HINTON","OK","73047"
344996,"PO BOX 322","INTERCOURSE","PA","17534"
344997,"PO BOX 322","LESLIE","MI","49251"
344998,"PO BOX 322","LITCHFIELD","IL","62056"
344999,"PO BOX 322","LOCKWOOD","CA","93932"
345000,"PO BOX 322","LOUISVILLE","NE","68037"
