"ID","Address","City","State","Zip"
133501,"2410 GROVE AVENUE","SAN DIEGO","CA","92154"
133502,"2410 HARRIET STREET","RACINE","WI","53404"
133503,"2410 LA LUNA DR","HENDERSON","NV","89014"
133504,"2410 LANGSTRATH LANE","CUMMING","GA","30041"
133505,"2410 LONG MEADOW DR","MURFEESBORO","TN","37129"
133506,"2410 MARTIN STREET","CROSS PLAINS","WI","53528"
133507,"2410 N BOLTON AVE","INDIANAPOLIS","IN","46218"
133508,"2410 N FOREST ROAD THIRD FLOOR","GETZVILLE","NY","14068"
133509,"2410 N MISSISSIPPI AVE","PORTLAND","OR","97227"
133510,"2410 N PEORIA AVE","PEORIA","IL","61603"
133511,"2410 NORTHSIDE DR","CLEARWATER","FL","33761"
133512,"2410 NW 64TH PLACE","GAINESVILLE","FL","32653"
133513,"2410 ODESSA AVE","FREDERICKSBURG","IA","50630"
133514,"2410 OLD COACH TRL","CLEARWATER","FL","33765"
133515,"2410 QUINCY LOOP","FAIRBURN","GA","30213"
133516,"2410 RAMBLEWOOD DRIVE","DISTRICT HEIGHTS","MD","20747"
133517,"2410 RIPPLEMEADE CT","HERNDON","VA","20171"
133518,"2410 S 9TH STREET","LAFAYETTE","IN","47909"
133519,"2410 S GLENCOE ROAD","NEW SMYRNA BEACH","FL","32168"
133520,"2410 S KIRKWOOD APT 299","HOUSTON","TX","77077"
133521,"2410 S WHIPPLE ST","CHICAGO","IL","60623"
133522,"2410 SEMORAN DR","PENSACOLA","FL","32503"
133523,"2410 SHEA BLVD","MASSAPEQUA","NY","11758"
133524,"2410 SOUTH 4TH AVENUE","CHEYENNE","WY","82007"
133525,"2410 SOUTH KIRKWOOD ROAD SUITE 260","HOUSTON","TX","77077"
133526,"2410 STANTON DR","PIERRE","SD","57501"
133527,"2410 STRAWBERRY ROAD","LONGS","SC","29568"
133528,"2410 SW 10TH AVENUE","TOPEKA","KS","66604"
133529,"2410 TUNNEL BLVD","CHATTANOOGA","TN","37406"
133530,"2410 W AZEELE ST UNIT 217","TAMPA","FL","33609"
133531,"2410 W GROUSE AVE","NAMPA","ID","83651"
133532,"2410 W NIGHT OWL LN","PHOENIX","AZ","85085"
133533,"2410 W ROGERS AVE","BALTIMORE","MD","21209"
133534,"2410 W ROHMANN AVE","WEST PEORIA","IL","61604"
133535,"2410 WALHALA DRIVE","RICHMOND","VA","23236"
133536,"2410 WALNUT ST","RENO","NV","89502"
133537,"2410 WARRIOR CRICLE 927","FORT WORTH","TX","76119"
133538,"2410 WEST MARKS PLACE","DUNLAP","IL","61525"
133539,"2410 WSC BYU","PROVO","UT","84602"
133540,"2410 YELLOW MAPLE LANE","FRESNO","TX","77545"
133541,"24100 CALABASAS RD 100","CALABASAS","CA","91302"
133542,"24100 SOUTHFIELD RD SUITE 216","SOUTHFIELD","MI","48075"
133543,"24100 SOUTHFIELD ROAD","SOUTHFIELD","MI","48207"
133544,"24101 RIDGE ROAD","GERMANTOWN","MD","24101"
133545,"24102 HOLLYOAK E","ALISO VIEJO","CA","92656"
133546,"24102 SPRING TOWNE DRIVE","SPRING","TX","77373"
133547,"24103 BANKER STREET","STURGIS","MI","49091"
133548,"24105 W HADLEY STREET","BUCKEYE","AZ","85326"
133549,"241081 PO BOX","ANCHORAGE","AK","99524"
133550,"24109 RAVENNA AVE","CARSON","CA","90745"
133551,"2411 15TH AVE","MILTON","WA","98354"
133552,"2411 ACADEMY CIRCLE SUITE E","KISSIMMEE","FL","34744"
133553,"2411 ANDREWS BLVD","HAMPTON","VA","23663"
133554,"2411 ARROW STREET","RAPID CITY","SD","57702"
133555,"2411 BLUEBONNET DRIVE","RICHARDSON","TX","75082"
133556,"2411 BOSWELL ROAD","CHULA VISTA","CA","91914"
133557,"2411 BROOK MILLS CT","KATY","TX","77494"
133558,"2411 CALCUTTA DR","SALINA","KS","67401"
133559,"2411 CEDAR STREET","EVERETT","WA","98201"
133560,"2411 DE LEE ST 3","BRYAN","TX","77802"
133561,"2411 DIVISION STREET UNIT A","HOUSTON","TX","77004"
133562,"2411 DUNCAN DRIVE","NICEVILLE","FL","32578"
133563,"2411 DUNN AVE ROOM 135E","RALEIGH","NC","27695"
133564,"2411 E 9TH STREET","DOUGLAS","AZ","85607"
133565,"2411 E RIVERSIDE DRIVE Q301","EAGLE","ID","83616"
133566,"2411 FENTON STREET SUITE 102","CHULA VISTA","CA","91914"
133567,"2411 FOXGLOVE","HIGHLANDS","TX","77562"
133568,"2411 GARFIELD AVENUE","ALTOONA","WI","54720"
133569,"2411 GLOBE AVENUE","LUBBOCK","TX","79404"
133570,"2411 HOLLYOAK APT F","ALISO VIEJO","CA","92656"
133571,"2411 KID CURRY DRIVE","BOZEMAN","MT","59718"
133572,"2411 LINCOLN STREET","EVANSTON","IL","60201"
133573,"2411 LINDEN AVE","LONG BEACH","CA","90806"
133574,"2411 MONTANA AVE APT 3","CINCINNATI","OH","45211"
133575,"2411 NW 7TH ST SUITE 613","FORT LAUDERDALE","FL","33311"
133576,"2411 NW 98TH LANE","SUNRISE","FL","33322"
133577,"2411 OLD CROW CANYON","SAN RAMON","CA","94583"
133578,"2411 PARKLAND BLVD APT 11","SHILOH","IL","62269"
133579,"2411 POINCIANA PLACE","DALLAS","TX","75212"
133580,"2411 PRINCESS PLACE DR","WILMINGTON","NC","28405"
133581,"2411 S 12TH ST","MANITOWOC","WI","54220"
133582,"2411 S ATLANTIC STREET","BOISE","ID","83705"
133583,"2411 S CAROL AVE","YUMA","AZ","85365"
133584,"2411 S JENKINS ROAD","FORT PIERCE","FL","34947"
133585,"2411 SAHALEE DR E","SAMMAMISH","WA","98074"
133586,"2411 SHAWNEE DR","COLORADO SPRINGS","CO","80915"
133587,"2411 SOUTH CAROL AVE","YUMA","AZ","85364"
133588,"2411 SUTTON COURT","LAREDO","TX","78045"
133589,"2411 TERMINAL AVE","GRANITE CITY","IL","62040"
133590,"2411 TULIP STREET","PHILADELPHIA","PA","19125"
133591,"2411 W OKMULGEE","MUSKOGEE","OK","74401"
133592,"2411 W STREET","SACRAMENTO","CA","95818"
133593,"2411 WASHINGTON AVE UNIT 419","HOUSTON","TX","77007"
133594,"2411 WEST 14TH","PINE BLUFF","AR","71603"
133595,"2411 WINEWOOD DR","ARLINGTON","TX","76013"
133596,"2411 WYCKCHESTER DRIVE","PEARLAND","TX","77584"
133597,"2411","MYRTLE BEACH","SC","29577"
133598,"24110 OUTER DRIVE","MELVIDALE","MI","48122"
133599,"24111 445TH PLACE","AITKIN","MN","56431"
133600,"24111 FORESTCREST DRIVE","SPRING","TX","77389"
133601,"24111 PINHOOK ROAD","MENDON","MI","49072"
133602,"24112 GRASS LAKE ROAD","WINSTED","MN","55395"
133603,"24113 EAST SILSBY ROAD","BEACHWOOD","OH","44122"
133604,"24113 W 103RD ST","NAPERVILLE","IL","60564"
133605,"24114 VECCHIO","SAN ANTONIO","TN","78260"
133606,"24116 MEADOWCREEK CIR E","SOUTH LYON","MI","48178"
133607,"241163 JOANNE AVE","WARREN","MI","48091"
133608,"24118 CEDAR CREEK LANE","PLAINFIELD","IL","60586"
133609,"24119 LOTUS DRIVE","KANSASVILLE","WI","53139"
133610,"2412 61ST STREET","GALVESTON","TX","77551"
133611,"2412 AZALEA GARDEN RD APT 105","NORFOLK","VA","23513"
133612,"2412 BANDY ROAD","ASHLAND CITY","TN","37015"
133613,"2412 BLINK BONNIE ROAD","RIDGEWAY","SC","29130"
133614,"2412 BOOTH ROAD","HONOLULU","HI","96813"
133615,"2412 BRYAN GLEN ST","WICHITA FALLS","TX","76308"
133616,"2412 CHESTNUT STREET","HARRISBURG","PA","17104"
133617,"2412 DALEFORD AVE NE","CANTON","OH","44705"
133618,"2412 DAMASCUS DR","MONROE","NC","28110"
133619,"2412 DANA LANE","MODESTO","CA","95350"
133620,"2412 DEERFIELD RD","FAR ROCKAWAY","NY","11691"
133621,"2412 DESERT WILLOW TERRACE","NORMAN","OK","73071"
133622,"2412 DILLOWAY DR","MIDLAND","MI","48640"
133623,"2412 DOVE TERRACE","GREAT BEND","KS","67530"
133624,"2412 E 32ND ST","LORAIN","OH","44055"
133625,"2412 FAWNLAKE TRAIL","ORLANDO","FL","32828"
133626,"2412 FORUM BLVD SUITE 101","COLUMBIA","MO","65203"
133627,"2412 HAMMOCK LAKE DRIVE","LITTLE ELM","TX","75068"
133628,"2412 HASKELL BLVD","MUSKOGEE","OK","74403"
133629,"2412 IRIS AVE","BOULDER","CO","80304"
133630,"2412 IRWIN STREET","MELBOURNE","FL","32901"
133631,"2412 KINGS RIVER ROAD","PAWLEYS ISLAND","SC","29585"
133632,"2412 LOW GROUND RD","GUYTON","GA","31312"
133633,"2412 N QUANTICO ST","ARLINGTON","VA","22207"
133634,"2412 NETTLETON CT","MATTHEWS","NC","28105"
133635,"2412 NORTH CEDAR ROAD","FOWLERVILLE","MI","48836"
133636,"2412 REDWOOD CT","LONGMONT","CO","80503"
133637,"2412 RICHMOND DRIVE","PLANO","TX","75074"
133638,"2412 S 8TH STREET","ROGERS","AR","72758"
133639,"2412 S ANDOVER ST","WEST HAVEN","UT","84401"
133640,"2412 SE 152ND AVE","PORTLAND","OR","97233"
133641,"2412 SE 7 TH CIR","LEES SUMMIT","MO","64063"
133642,"2412 SMYRNA CHURCH RD","CHATSWORTH","GA","30705"
133643,"2412 SPRING STREET","WEST LAWN","PA","19609"
133644,"2412 SW WHISPERING CREEK CT","BLUE SPRINGS","MO","64015"
133645,"2412 TERESA CIRCLE APT H","TAMPA","FL","33629"
133646,"2412 TIOGA TRAIL","WINTER PARK","FL","32789"
133647,"2412 TOMOKA FARMS RD","PORT ORANGE","FL","32128"
133648,"2412 TRIVACA LANE","NOLENSVILLE","TN","37135"
133649,"2412 TRIVACA LN","NOLENSVILLE","TN","37135"
133650,"2412 VILLAGE GREEN COURT","TOMS RIVER","NJ","08755"
133651,"2412 VIOLET AVE","MCALLEN","TX","78504"
133652,"2412 W12TH ST","AUSTIN","TX","78703"
133653,"2412 WATERS EDGE TRAIL","ROSWELL","GA","30075"
133654,"24120 COOLIDGE HWY","OAK PARK","MI","48237"
133655,"24120 N CHRYSLER DRIVE","HAZEL PARK","MI","48030"
133656,"24120 W FORT BEGGS DRIVE","PLAINFIELD","IL","60544"
133657,"24121 NE 128TH ST","BRUSH PRAIRIE","WA","98606"
133658,"24121 NE 96TH PL","REDMOND","WA","98053"
133659,"24121 SE 21ST ST","SAMMAMISH","WA","98075"
133660,"24122 PALMEK CIRCLE","LAKE FOREST","CA","92630"
133661,"24123 CONCORD POND ROAD","SEAFORD","DE","19973"
133662,"24123 PEACHLAND BLVD STE C-4  332","PORT CHARLOTTE","FL","33954"
133663,"24124 BIG BASIN WAY","SARATOGA","CA","95070"
133664,"24125 26 MILE ROAD","RAY","MI","48096"
133665,"24125 MOBILE STREET","WEST HILLS","CA","91307"
133666,"24127 CRYSTAL LAKE ROAD","WOODINVILLE","WA","98077"
133667,"24127 ROCKVIEW DR / P O BOX 4169","CRESTLINE","CA","92325"
133668,"2413 14TH STREET NE 3","WASHINGTON","DC","20018"
133669,"2413 14TH STREET NE STE 3","WASHINGTON","DC","20018"
133670,"2413 1ST AVENUE NORTH","BIRMINGHAM","AL","35203"
133671,"2413 ADDISON LANE","ALPHARETTA","GA","30005"
133672,"2413 BAYSHORE BLVD UNIT 805","TAMPA","FL","33629"
133673,"2413 BERRY THICKET CT","WALDROF","MD","20603"
133674,"2413 BLODGETT STREET","HOUSTON","TX","77004"
133675,"2413 BLUE STONE COURT","VALRICO","FL","33594"
133676,"2413 BOARDWALK PLACE","ST. LOUIS","MO","63129"
133677,"2413 BODETTE AVE","TOLEDO","OH","43613"
133678,"2413 CAMRYNS XING","PANAMA CITY","FL","32405"
133679,"2413 CHURCHILL ROAD","SILVER SPRING","MD","20902"
133680,"2413 CURDES AVE","FORT WAYNE","IN","46805"
133681,"2413 DUNBARTON DRIVE","CHESAPEAKE","VA","23325"
133682,"2413 E 28TH ST","MISSION","TX","78574"
133683,"2413 EDGEMORE AVE","EASTON","PA","18045"
133684,"2413 ELLIS CT","PLANO","TX","75075"
133685,"2413 EVERGLADES ROAD","NORFOLK","VA","23518"
133686,"2413 GEORGIA AVE","DEER PARK","TX","77536"
133687,"2413 GROVEVIEW CT","RICHMOND","CA","94806"
133688,"2413 HOLMAN STREET","HOUSTON","TX","77004"
133689,"2413 JAY AVE","SIOUX CITY","IA","51106"
133690,"2413 LANTER LANE","CHESTER","VA","23836"
133691,"2413 MAGIC VALLEY LN","CEDAR HILL","TX","75104"
133692,"2413 MAIN STREET  224","MIRAMAR","FL","33025"
133693,"2413 MAIN STREET 339","MIRAMAR","FL","33025"
133694,"2413 MAIN STREET NO  294","MIRAMAR","FL","33025"
133695,"2413 MAIN STREET PMB 221","MIRAMAR","FL","33025"
133696,"2413 MAIN STREET SUITE 151","MIRAMAR","FL","33025"
133697,"2413 MAIN STREET UNIT 162","MIRAMAR","FL","33025"
133698,"2413 MAIN STREET UNIT 164","MIRAMAR","FL","33025"
133699,"2413 MARTIN LUTHER KING JR BLVD","DALLAS","TX","75215"
133700,"2413 MARTIN LUTHER KING JR DRIVE","DALLAS","TX","75215"
133701,"2413 N UNIVERSITY AVE","LAFAYETTE","LA","70507"
133702,"2413 PEABODY AVE","DALLAS","TX","75215"
133703,"2413 PELITERE DRIVE","CHALMETTE","LA","70043"
133704,"2413 PINEHURST DRIVE","FLOWER MOUND","TX","75028"
133705,"2413 RING ROAD SUITE 117","ELIZABETHTOWN","KY","42701"
133706,"2413 ROSEWOOD LANE","EDMOND","OK","73013"
133707,"2413 RYAN DR","COPPERAS COVE","TX","76522"
133708,"2413 S LILLIAN AVENUE","SIOUX FALLS","SD","57106"
133709,"2413 SAN GABRIEL DRIVE","PLANO","TX","75074"
133710,"2413 SHENANDOAH TRAIL","DENTON","TX","76210"
133711,"2413 SUMMERWOOD DR","HENRICO","VA","23233"
133712,"2413 SW RUSTIC RD","LEES SUMMIT","MO","64082"
133713,"2413 TALBOT CREST DR S","RENTON","WA","98055"
133714,"2413 TALBOT CREST DR SO","RENTON","WA","98055"
133715,"2413 TRANQUILITY LN","VIRGINIA BEACH","VA","23455"
133716,"2413 VILLAGE GREEN PLACE","CHAMPAIGN","IL","61822"
133717,"2413 W ALGONQUIN RD SUITE 152","ALGONQUIN","IL","60102"
133718,"2413 W IMPERIAL HIGHWAY 5","INGLEWOOD","CA","90303"
133719,"2413 WELLS LN","MCKINNEY","TX","75072"
133720,"2413 WEST MAPLE AVENUE","FLINT","MI","48507"
133721,"2413 WINDMILL DR","MCKINNEY","TX","75071"
133722,"2413 WINNING COLORS WAY","OWENSBORO","KY","42301"
133723,"2413 WOODCREST DRIVE","EAST STROUDSBURG","PA","18302"
133724,"2413 WYNCREEK DRIVE","ATLANTA","GA","30331"
133725,"24130 E 145TH ST S","COWETA","OK","74429"
133726,"24130 MEADOWVIEW COURT","CLAREMORE","OK","74019"
133727,"241301","LITTLE ROCK","AR","72223"
133728,"24138 LAVENDAR DR","LAKE ELSINORE","CA","92532"
133729,"24139 210TH AVENUE","ELDRIDGE","IA","52748"
133730,"24139 SHERBECK","CLINTON TWP","MI","48036"
133731,"2414 117TH ST","BURNSVILLE","MN","55337"
133732,"2414 16TH ST STE 12","SACRAMENTO","CA","95818"
133733,"2414 1ST AVENUE NORTH","BILLINGS","MT","59101"
133734,"2414 36TH PL","MERIDIAN","MS","39307"
133735,"2414 51ST AVE","GREELEY","CO","80634"
133736,"2414 BALLENTINE BLVD","NORFOLK","VA","23509"
133737,"2414 BLUE RIDGE DRIVE","SODDY DAISY","TN","37379"
133738,"2414 BONICA CIRCLE","ERIE","PA","16506"
133739,"2414 BRIARHURST DRIVE","HIGHLANDS RANCH","CO","80126"
133740,"2414 BRITTANY DR","ROWLETT","TX","75088"
133741,"2414 CENTERBROOK LN","KATY","TX","77450"
133742,"2414 CENTERBROOKE LN","KATY","TX","77450"
133743,"2414 DALLAS HIGHWAY SUITE 100","MARIETTA","GA","30064"
133744,"2414 E 31ST AVE","TAMPA","FL","33610"
133745,"2414 E TYLER AVE","FRESNO","CA","93701"
133746,"2414 E US HIGHWAY 80 SUITE 200","MESQUITE","TX","75149"
133747,"2414 FAIR DRIVE","KNOXVILLE","TN","37918"
133748,"2414 HEMLOCK CT","LAKEWOOD","NJ","08701"
133749,"2414 HENDOLA DRIVE NE","ALBUQUERQUE","NM","87110"
133750,"2414 HERRING RD SW - UNIT 42366","ATLANTA","GA","30311"
133751,"2414 HIRST TERRACE","HAVETOWN","PA","19083"
133752,"2414 JOHNSON ST 8","HOLLYWOOD","FL","33020"
133753,"2414 KILBURN AVE","DALLAS","TX","75216"
133754,"2414 LAKE PARK RD 2306","LEXINGTON","KY","40507"
133755,"2414 LANGSTON ST","HOUSTON","TX","77007"
133756,"2414 LEGION STREET","BELLMORE","NY","11710"
133757,"2414 LESLIE BROOK DRIVE","DECATUR","GA","30035"
133758,"2414 N MONTICELLO AVE","CHICAGO","IL","60647"
133759,"2414 N NEWCASTLE AVENUE","CHICAGO","IL","60707"
133760,"2414 NORTH L STREET","PENSACOLA","FL","32501"
133761,"2414 PALUMBO DRIVE SUITE 175","LEXINGTON","KY","40509"
133762,"2414 PINE RUN ROAD","SIGEL","PA","15860"
133763,"2414 PINEFIELD ROAD","WALDORF","MD","20601"
133764,"2414 SAN GABRIEL ST 515","AUSTIN","TX","78705"
133765,"2414 SKYLINE MOUNTAIN RESORT","FAIRVIEW","UT","84629"
133766,"2414 SOUTH WAYNE AVE","FORT WAYNE","IN","46807"
133767,"2414 SQUIRREL DRIVE","BEAR","DE","19701"
133768,"2414 W 48TH STREET","LOS ANGELES","CA","90043"
133769,"2414 W HOOD AVE","SANTA ANA","CA","92704"
133770,"2414 WHITE RIDGE LANE","WASHINGTON","IN","47501"
133771,"24141 HIGHWAY 59 SUITE D","PORTER","TX","77365"
133772,"24142 S VOLBRECHT ROAD","CRETE","IL","60417"
133773,"24144 POCKET RD","BATESVILLE","IN","47006"
133774,"24146 CORNELL ROAD","NOBLESVILLE","IN","46060"
133775,"24148 EAST GREYSTONE LANE","WOODWAY","WA","98020"
133776,"24149 WILLOWBROOKE CT","VALENCIA","CA","91354"
133777,"2414A PAUL REVERE ST","TEMPLE","TX","76504"
133778,"2415 13TH AVENUE","FOREST GROVE","OR","97116"
133779,"2415 3RD ST STE 232","SAN FRANCISCO","CA","94107"
133780,"2415 62ND ST","DES MOINES","IA","50322"
133781,"2415 ALA WAI BOULEVARD APT 1901","HONOLULU","HI","96815"
133782,"2415 ANNAPOLIS LANE SUITE 110","MINNEAPOLIS","MN","55451"
133783,"2415 APPLEGROVE ST NE","CANTON","OH","44721"
133784,"2415 ASHBURY CIRCLE","CAPE CORAL","FL","33991"
133785,"2415 AURELIUS RD   APT 34","HOLT","MI","48842"
133786,"2415 AVENUE U SUITE 2R","BROOKLYN","NY","11229"
133787,"2415 BANKS AVENUE","COLUMBUS","GA","31903"
133788,"2415 BASSFORD LANE","ALBANY","GA","31707"
133789,"2415 BIRCH ST","EASTON","PA","18042"
133790,"2415 BOULDER SPRINGS DR","ELLENWOOD","GA","30294"
133791,"2415 BRIDLE GATE TRL SW","ALBUQUERQUE","NM","87121"
133792,"2415 BUCKINGHAM AVENUE","HENRICO","VA","23228"
133793,"2415 CENTERGATE DRIVE 101","MIRAMAR","FL","33025"
133794,"2415 CHERRY AVE NE","SALEM","OR","97301"
133795,"2415 CHERRY BLOSSOM DR","SUFFOLK","VA","23434"
133796,"2415 COUNTY ROAD Z","BLUE MOUNDS","WI","53517"
133797,"2415 CUMBERLAND STREET","KALAMAZOO","MI","49006"
133798,"2415 DRAKE HILL ROAD","FORTUNA","CA","95540"
133799,"2415 E CAMELBACK RD STE 700","PHOENIX","AZ","85016"
133800,"2415 E DECATUR ST","SPOKANE","WA","99205"
133801,"2415 E SAN RAMON AVE M/S AS72","FRESNO","CA","93740"
133802,"2415 E SOUTH BLVD STE E","MONTGOMERY","AL","36116"
133803,"2415 EAST DERENNE AVENUE","SAVANNAH","GA","31406"
133804,"2415 ESPANOLA ST NE SUITE B 87110","ALBUQUERQUE","NM","87110"
133805,"2415 FERRY PARK","DETROIT","MI","48208"
133806,"2415 GELDING LN","FRISCO","TX","75036"
133807,"2415 HAMPTON TRAIL","CUMMING","GA","30041"
133808,"2415 HARTFORD DRIVE","JEFFERSON CITY","MO","65109"
133809,"2415 HARTFORD DRIVE","JEFFERSON CTY","MO","65109"
133810,"2415 INDEPENDENCE AVENUE","KANSAS CITY","MO","64124"
133811,"2415 LAWTON AVENUE","SAN LUIS OBISPO","CA","93401"
133812,"2415 LINCOLN ST","EVANSTON","IL","60201"
133813,"2415 MARSHALL DRIVE","QUAKERTOWN","PA","18951"
133814,"2415 MCHENRY DRIVE","MOUNT AIRY","MD","21771"
133815,"2415 MORNINGSIDE STREET","SAN DIEGO","CA","92139"
133816,"2415 MT VERNON AVENUE","RIVERSIDE","CA","92507"
133817,"2415 N BUTRICK","WAUKEGAN","IL","60087"
133818,"2415 N MONROE ST","TALLAHASSEE","FM","32303"
133819,"2415 N RIM DR","HOUSTON","TX","77067"
133820,"2415 N RIVERSIDE DRIVE","TAMPA","FL","33602"
133821,"2415 NE 24TH AVE","PORTLAND","OR","97212"
133822,"2415 NISSI DRIVE","COLUMBUS","OH","43219"
133823,"2415 NORTH CARLISLE STREET","PHILADELPHIA","PA","19132"
133824,"2415 NORTH MONROE STREET SUITE 2700","TALLAHASSEE","FL","32303"
133825,"2415 OLAR CT","SPRING HILL","FL","34608"
133826,"2415 OVERBROOK DRIVE","ARLINGTON","TX","76014"
133827,"2415 PLEASANT GROVE RD SW","MAUCKPORT","IN","47142"
133828,"2415 PORTLAND AVE","LOUISVILLE","KY","40212"
133829,"2415 ROUTE 89","SAVANNAH","NY","13146"
133830,"2415 SAN PABLO DAM ROAD STE 106 322","SAN PABLO","CA","94806"
133831,"2415 SAN RAMON BLVD STE 4416","SAN RAMON","CA","94583"
133832,"2415 SAN RAMON VALLEY BLVD 4188","SAN RAMON","CA","94583"
133833,"2415 SAN RAMON VALLEY BLVD STE 4386","SAN RAMON","CA","94583"
133834,"2415 SAND HILL ROAD","ELLICOTT CITY","MD","21042"
133835,"2415 SHAKESPEARE STREET 5","HOUSTON","TX","77030"
133836,"2415 SPRINGMONTE PL","CUMMING","GA","30041"
133837,"2415 SPRINGWOOD GLEN LN","CONROE","TX","77304"
133838,"2415 STATE ROUTE 603","ASHLAND","OH","44805"
133839,"2415 W COLLEGE CT","VISALIA","CA","93277"
133840,"2415 W LINCOLN AVE SUITE B","ANAHEIM","CA","92801"
133841,"2415 WAKULLA WAY","ORLANDO","FL","32839"
133842,"2415 WEST 10TH STREET","OWENSBORO","KY","42301"
133843,"2415 WESTDALE DR SW","CEDAR RAPIDS","IA","52404"
133844,"2415 WOODSTREAM BLVD","SUGAR LAND","TX","77479"
133845,"24150 WILLOWBROOK STREET","NOVI","MI","48375"
133846,"24151 BELLA DOLCE LANE APT 23008","KATY","TX","77494"
133847,"24155 THOMAS DR","WARREN","MI","48091"
133848,"24159 EAGLES ROOST RD","LAKEHEAD","CA","96051"
133849,"2416 11TH AVE EAST","NORTH ST. PAUL","MN","55109"
133850,"2416 1ST AVE N UNIT 3","BIRMINGHAM","AL","35203"
133851,"2416 201ST AVE SE","SAMMAMISH","WA","98075"
133852,"2416 38TH AVENUE APT NO 5I","LONG ISLAND CITY","NY","11101"
133853,"2416 6TH ST","CUYAHOGA FALLS","OH","44221"
133854,"2416 ADIRONDACK ROW UNIT 3","SAN DIEGO","CA","92139"
133855,"2416 ARROWWOOD TRAIL","ANN ARBOR","MI","48105"
133856,"2416 BANNER STREET","DEARBORN","MI","48124"
133857,"2416 BUR OAK ST NE","CANTON","OH","44705"
133858,"2416 C AVE NE","CEDAR RAPIDS","IA","52402"
133859,"2416 CEDAR CREEK DRIVE","CHATTANOOGA","TN","37421"
133860,"2416 CLYDESDALE RD","FINKSBURG","MD","21048"
133861,"2416 COLONIAL AVE STE 14","WACO","TX","76707"
133862,"2416 DOTY LANE","BALCH SPRINGS","TX","75180"
133863,"2416 E WASHINGTON SUITE B-2","BLOOMINGTON","IL","61704"
133864,"2416 KENTUCKY AVE","BALTIMORE","MD","21213"
133865,"2416 LIPSCOMB STREET","MELBOURNE","FL","32901"
133866,"2416 MANOR WAY","LOGANVILLE","GA","30052"
133867,"2416 MUSIC VALLEY DR SUITE 134","NASHVILLE","TN","37214"
133868,"2416 N DIAMOND LAKE DRIVE","TUCSON","AZ","85749"
133869,"2416 N STREET","BAKERSFIELD","CA","93301"
133870,"2416 N THOROUGHBRED DR","VINCENNES","IN","47591"
133871,"2416 NE 130TH AVE","VANCOUVER","WA","98684"
133872,"2416 NEWKIRK AVENUE   SUITE 5F","BROOKLYN","NY","11226"
133873,"2416 NW 100 ST","MIAMI","FL","33147"
133874,"2416 OUR COUNTRY ROAD","SAN DIEGO","CA","92029"
133875,"2416 PALMDALE STREET","JACKSONVILLE","FL","32208"
133876,"2416 PLENTYWOOD DR","PLANO","TX","75025"
133877,"2416 QUILTING BEE RD","CATONSVILLE","MD","21228"
133878,"2416 RIVIERA DR","SAN DIEGO","CA","91915"
133879,"2416 ROSECREST ST","GROVE CITY","OH","43123"
133880,"2416 SCHLEY AVE","ALBANY","GA","31701"
133881,"2416 SEWELL STREET","LINCOLN","NE","68502"
133882,"2416 SHADOW LANE APT 75","ANTIOCH","CA","94509"
133883,"2416 SOUTH DERBIGNY STREET","NEW ORLEANS","LA","70125"
133884,"2416 SOUTH MEMPHIS WAY","AURORA","CO","80013"
133885,"2416 SOUTH MYRTLE AVE","SANFORD","FL","32771"
133886,"2416 STATE ROUTE 243","IRONTON","OH","45638"
133887,"2416 SUMMIT DR","HILLSBOROUGH","NC","27278"
133888,"2416 W SHAW AVE STE 106","FRESNO","CA","93711"
133889,"2416 WEST CLOVERDALE PARK","MONTGOMERY","AL","36106"
133890,"2416 WEST VICTORY BLVD SUITE 618","BURBANK","CA","91506"
133891,"2416 WOODROW DR","TOLEDO","OH","43611"
133892,"2416 XAVIER","MCALLEN","TX","78504"
133893,"2416 YORKTOWN ST APT454","HOUSTON","TX","77056"
133894,"2416 YOSEMITE AVE","ESCALON","CA","95320"
133895,"2416","BLOOMFIELD","NM","87413"
133896,"24161 BRIAR BERRY LN","PORTER","TX","77365"
133897,"24165 IH10 W SUITE 217 286","SAN ANTONIO","TX","78257"
133898,"24165 PLEASANT RUN ROAD","MORENO VALLEY","CA","92557"
133899,"24165 W IH 10 STE 217-202","SAN ANTONIO","TX","78257"
133900,"24168 BAY SHORE DRIVE","DAPHNE","AL","36526"
133901,"2417 21ST ST","SACRAMENTO","CA","95818"
133902,"2417 BRISTOW AVE","ST LOUIS","MO","63114"
133903,"2417 CALLE LINARES","SANTA BARBARA","CA","93109"
133904,"2417 CANTON ROAD","MARIETTA","GA","30066"
133905,"2417 CINDY LN","DENISON","TX","75020"
133906,"2417 E SANTO STEFANO DR","MERIDIAN","ID","83642"
133907,"2417 ESTHER AVE","HUNTSVILLE","AL","35816"
133908,"2417 GENEVA LN","MONTGOMERY","IL","60538"
133909,"2417 GRANT STREET","OMAHA","NE","68111"
133910,"2417 HIAWATHA DR NE","ALBUQUERQUE","NM","87112"
133911,"2417 HIGHWAY 32","OAKLAND","NE","68045"
133912,"2417 HUNTINGTON ROAD","CHARLOTTESVILLE","VA","22901"
133913,"2417 JERICHO TURNPIKE 115","NEW HYDE PARK","NY","11040"
133914,"2417 LA BRUCHERIE ROAD- SUITE C","IMPERIAL","CA","92251"
133915,"2417 LILY LOCH COURT","VIRGINIA BEACH","VA","23456"
133916,"2417 MARY JEWETT CIRCLE","WINTER HAVEN","FL","33881"
133917,"2417 MEDLIN DR SUITE 19","ARLINGTON","TX","76015"
133918,"2417 MT VERNON AVENUE","ALEXANDRIA","VA","22301"
133919,"2417 N 11TH AVE","HANFORD","CA","93230"
133920,"2417 NW 159TH TERRACE","EDMOND","OK","73013"
133921,"2417 OAKFORD STREET","PHILADELPHIA","PA","19146"
133922,"2417 PLEASANT VALLEY DR","ST. CHARLES","MO","63303"
133923,"2417 PORTER AVE","SUITLAND","MD","20746"
133924,"2417 RAINBOW DR","CEDAR FALLS","IA","50613"
133925,"2417 ROOSEVELT AVENUE","FORT WORTH","TX","76164"
133926,"2417 RUTH LANE","KISSIMMEE","FL","34744"
133927,"2417 S GRAHAM STREET STE 1","SEATTLE","WA","98108"
133928,"2417 S SAGINAW ST","FLINT","MI","48503"
133929,"2417 SARBONNE DRIVE","OCEANSIDE","CA","92054"
133930,"2417 SW WARWICK ST","PORT SAINT LUCIE","FL","34984"
133931,"2417 SYMONDS DR  5376","PINE MOUNTAIN CLUB","CA","93222"
133932,"2417 W BANK DRIVE","BOISE","ID","83705"
133933,"2417 W LAWRENCE","CHICAGO","IL","60625"
133934,"2417 WINWOOD STREET","LAS VEGAS","NV","89108"
133935,"2417 WOODMERE DR","VESTAVIA HILLS","AL","35226"
133936,"2417 WOOLERY MILL DR","BLOOMINGTON","IN","47403"
133937,"24170 DENISE BLVD  APT 53C","CLINTON TWP","MI","48036"
133938,"24179 AMBOUR DRIVE","NORTH OLMSTED","OH","44070"
133939,"2418 23","WYANDOTTE","MI","48192"
133940,"2418 44TH AVE","MERIDIAN","MS","39307"
133941,"2418 94TH STREET 2ND FL","EAST EMHURST","NY","11369"
133942,"2418 BROOKDALE","KINGWOOD","TX","77339"
133943,"2418 CR 220","DURANGO","CO","81303"
133944,"2418 E 9TH ST N","WICHITA","KS","67214"
133945,"2418 E HWY 66 PMB 190","GALLUP","NM","87301"
133946,"2418 EAST NINTH STREET SUITE 13","WICHITA","KS","67214"
133947,"2418 FAIRWINDS DR","HOUSTON","TX","77062"
133948,"2418 FM 895","COOPER","TX","75432"
133949,"2418 GLENBROOK DRIVE","DURHAM","NC","27704"
133950,"2418 GRAND PRIZE AVE","NORTH LAS VEGAS","NV","89032"
133951,"2418 HENDERSON MILL CT NE","ATLANTA","GA","30345"
133952,"2418 HIGHWAY 441 SOUTH","DUBLIN","GA","31040"
133953,"2418 HUNTINGTON GLEN DRIVE","BIRMINGHAM","AL","35226"
133954,"2418 KEN OAK ROAD","BALTIMORE","MD","21209"
133955,"2418 LAKELAND DRIVE","ALMA","AR","72921"
133956,"2418 N WHEELER ST","JASPER","TX","75951"
133957,"2418 NORTH FRAZIER STE 108","CONROE","TX","77303"
133958,"2418 NW 11TH ST","OKLAHOMA CITY","OK","73107"
133959,"2418 O STREET","SACRAMENTO","CA","95816"
133960,"2418 OAKLAND BLVD NW","ROANOKE","VA","24012"
133961,"2418 PENDLETON STREET","BOISE","ID","83705"
133962,"2418 PROFESSOR AVE","CLEVELAND","OH","44113"
133963,"2418 RAVENWOOD CT","MANSFIELD","TX","76063"
133964,"2418 RICHFIELD DRIVE","GARLAND","TX","75040"
133965,"2418 ROCKY SHORES DR","NICEVILLE","FL","32578"
133966,"2418 S GRIFFITH AVENUE","OWENSBORO","KY","42301"
133967,"2418 SANDLEWOOD TRAIL LN","HOUSTON","TX","77014"
133968,"2418 SAWGRASS CT","LEAGUE CITY","TX","77573"
133969,"2418 VESTA DRIVE","JOLIET","IL","60431"
133970,"2418 WEST BANK EXPRESSWAY","HARVEY","LA","70058"
133971,"2418 WOOD TRAIL LANE","DECATUR","GA","30033"
133972,"24180 WINTERGREEN CIRCLE","NOVI","MI","48374"
133973,"24186 SW 113TH PASSAGE","HOMESTEAD","FL","33032"
133974,"24189 AVIATION AVENUE","DAVIS","CA","95616"
133975,"2419 12TH AVENUE SOUTH SUITE 4","MOORHEAD","MN","56560"
133976,"2419 ALLUVIAL AVENUE STE 170","CLOVIS","CA","93611"
133977,"2419 BOSTON AVE","NEDERLAND","TX","77627"
133978,"2419 BROOK DR SE","KENTWOOD","MI","49512"
133979,"2419 COIT RD SUITE B","PLANO","TX","75075"
133980,"2419 COUNTRY PLACE","MARYLAND HEIGHTS","MO","63043"
133981,"2419 DENNYWOOD DR","NASHVILLE","TN","37214"
133982,"2419 ELKHORN DRIVE","DECATUR","GA","30034"
133983,"2419 GARDEN FARMS","LATHROP","CA","95330"
133984,"2419 HOLLYWOOD BLVD","HOLLYWOOD","FL","33020"
133985,"2419 HONEY HAVEN FARM RD","SHELBY","NC","28056"
133986,"2419 JEFFERSON AVENUE","BERKELEY","CA","94703"
133987,"2419 LAGUNA LANE","ARLINGTON","TX","76012"
133988,"2419 LITTLE CURRENT DR  APT 1911","HERNDON","VA","20171"
133989,"2419 N 52ND ST APT 3","MILWAUKEE","WI","53210"
133990,"2419 N DIXIE HWY","WILTON MANORS","FL","33305"
133991,"2419 NORTH 73 STREET","KANSAS CITY","KS","66109"
133992,"2419 OLD THOMPSON BRIDGE RD APT L3","GAINESVILLE","GA","30501"
133993,"2419 RANCH HOLLOW","KATY","TX","77494"
133994,"2419 S ROSELLA ST","PHILADELPHIA","PA","19153"
133995,"2419 SHARON OAKS DR","MENLO PARK","CA","94025"
133996,"2419 SMALLMAN ST","PITTSBURGH","PA","15222"
133997,"2419 TOTTINGHAM RD","HENDERSON","NV","89074"
133998,"2419 W LELAND AVE","CHICAGO","IL","60625"
133999,"2419 WAR ADMIRAL DRIVE","STAFFORD","TX","77496"
134000,"2419","FORT KNOX","KY","40121"
