"ID","Address","City","State","Zip"
216501,"45 SAGAMORE ROAD","MILLBURN","NJ","07041"
216502,"45 SAN DIEGO DR","MAGNOLIA","NJ","08049"
216503,"45 SAW MILL DR UNIT 205","N KINGSTOWN","RI","02852"
216504,"45 SAWYER HIGHWAY PO BOX 204","NORTH WOODSTOCK","NH","03262"
216505,"45 SCARLET WAY","BIGLERVILLE","PA","17307"
216506,"45 SCHOLAR BLVD","WHITEFISH","MT","59937"
216507,"45 SCHOOL ST","BROCKTON","MA","02301"
216508,"45 SCHOOLHOUSE ROAD","AMHERST","MA","01002"
216509,"45 SEATON VALLEY PATH","PALM COAST","FL","32164"
216510,"45 SEAVER AVENUE APT 4E","STATEN ISLAND","NY","10306"
216511,"45 SELLS AVE","STRUTHERS","OH","44471"
216512,"45 SEMINOLE CT E","ROYAL PALM BEACH","FL","33411"
216513,"45 SHINGLE MILL ROAD","HARWINTON","CT","06791"
216514,"45 SHORT HILLS DRIVE","HILTON","NY","14468"
216515,"45 SILO POINTE","CONVINGTON","GA","30016"
216516,"45 SKYLARK LN","JONESBORO","GA","30238"
216517,"45 SKYLINE DR 1001","LAKE MARY","FL","32746"
216518,"45 SOUNDVIEW ROAD","HUNTINGTON","NY","11743"
216519,"45 SOUTH BROADWAY APT LL2","YONKERS","NY","10701"
216520,"45 SOUTH GOODWIN AVENUE","ELMSFORD","NY","10523"
216521,"45 SOUTH MAIN STREET 2ND FL","UNIONVILLE","CT","06085"
216522,"45 SOUTH MONASTERY AVENUE","BALTIMORE","MD","21229"
216523,"45 SOUTH ROSSLER AVENUE","BUFFALO","NY","14206"
216524,"45 SOUTH WASHINGTON STREET","NORTH ATTLEBORO","MA","02760"
216525,"45 SPINNAKER DRIVE","MOUNT LAUREL","NJ","08054"
216526,"45 STANBRO STREET","HYDE PARK","MA","02136"
216527,"45 STEINWEHR AVENUE","GETTYSBURG","PA","17325"
216528,"45 STRATFORD PLACE","CARMEL","IN","46033"
216529,"45 STRATHMORE DRIVE","CHERRY HILL","NJ","08003"
216530,"45 SUNRISE DR","RANCHO MIRAGE","CA","92270"
216531,"45 SUTTON PLACE SOUTH - 18C","NEW YORK","NY","10022"
216532,"45 SYCAMORE AVENUE APARTMENT 1314","CHARLESTON","SC","29407"
216533,"45 TEHAN ROAD","FREEVILLE","NY","13068"
216534,"45 TESLA","IRVINE","CA","92618"
216535,"45 THAYER STREET APARTMENT 3I","NEW YORK","NY","10040"
216536,"45 THE OVAL ST","SUGAR LAND","TX","77479"
216537,"45 THORNHILL LN","WILLINGBORO","NJ","08046"
216538,"45 TIOGA AVENUE","SAN FRANCISCO","CA","94134"
216539,"45 TOPANGA","IRVINE","CA","92602"
216540,"45 TOWER RD","PLYMOUTH","MA","02360"
216541,"45 TOWN FARM ROAD","IPSWICH","MA","01938"
216542,"45 TREMONT STREET","ALBANY","NY","12205"
216543,"45 TREVERS CT","COVINGTON","GA","30016"
216544,"45 TRINIDAD AVE","HERSHEY","PA","17033"
216545,"45 TUDOR CITY PL SUITE 1818","NEW YORK","NY","10017"
216546,"45 TYLER WOODS DRIVE","SHARPSBURG","GA","30277"
216547,"45 UNIT 6122","APO","AE","09604"
216548,"45 VAN RD","NORTH AUGUSTA","SC","29860"
216549,"45 VINCE DRIVE","BENNET","NE","68317"
216550,"45 W 015 WELTER ROAD","MAPLE PARK","IL","60151"
216551,"45 W 10TH STREET","TRACY","CA","95376"
216552,"45 W 59TH ST APT 204","WESTMONT","IL","60559"
216553,"45 W 60TH STREET 14A","NEW YORK","NY","10023"
216554,"45 W JEFFERSON ST STE 501","PHOENIX","AZ","85003"
216555,"45 W MAIN ST","WESTERVILLE","OH","43081"
216556,"45 WALKER AVE","BRADFORD","PA","16701"
216557,"45 WEEPING WILLOW CIRCLE","EGG HARBOR TOWNSHIP","NJ","08234"
216558,"45 WEST 132 STREET","NY","NY","10037"
216559,"45 WEST 132ND STREET APT 12D","NEW YORK","NY","10037"
216560,"45 WEST 54TH STREET SUITE 3C","NEW YORK","NY","10019"
216561,"45 WEST 60TH STREET APT 27F","NEW YORK","MA","10023"
216562,"45 WEST 75TH STREET","NEW YORK","NY","10023"
216563,"45 WEST 7TH STREET","LOVELL","WY","82431"
216564,"45 WEST 86TH STREET STE 5","NEW YORK","NY","10024"
216565,"45 WEST THIRD STREET APT 506","BOSTON","MA","02127"
216566,"45 WESTFORD STREET","ALBANY","NY","12208"
216567,"45 WESTMINSTER RD","CANTERBURY","CT","06331"
216568,"45 WESTMINSTER ROAD","CANTERURY","CT","06331"
216569,"45 WHALEN DR","MONTGOMERY","NY","12549"
216570,"45 WHIPPOORWILL LN","SPARTA","NJ","07871"
216571,"45 WHISPERING PINES LANE","LAKEWOOD","NJ","08701"
216572,"45 WHITNEY DRIVE","WOODSTOCK","NY","12498"
216573,"45 WILTSHIRE RD","SCARSDALE","NY","10583"
216574,"45 WINDSOR LANE","RAMSEY","NJ","07446"
216575,"45 WINONA STREET","HIGHLAND PARK","MI","48203"
216576,"45 WINTER STREET","BELMONT","MA","02478"
216577,"45 WOOD FARM ESTATES RD","HUNTSVILLE","TX","77320"
216578,"45 WOODLAWN AVE","PITTSFIELD","MA","01201"
216579,"45 WOODSIDE RD","HARVARD","MA","01451"
216580,"45-02 DITMARS BLVD STE 1000","ASTORIA","NY","11105"
216581,"45-02 DITMARS BOULEVARD SUITE 1000","ASTORIA","NY","11105"
216582,"45-033 LILIPUNA RD","KANEOHE","HI","96744"
216583,"45-04 162ND STREET SUITE 203","FLUSHING","NY","11358"
216584,"45-042 KANEOHE BAY DRIVE","KANEOHE","HI","96744"
216585,"45-1126 GROTE ROAD","KANEOHE","HI","96744"
216586,"45-116 MOKULELE DRIVE","KANEOHE","HI","96744"
216587,"45-125 ALINA PLACE","KANEOHE","HI","96744"
216588,"45-15 28TH AVE","ASTORIA","NY","11103"
216589,"45-15 44TH ST PO BOX 4074","SUNNYSIDE","NY","11104"
216590,"45-19 ROCKAWAY BEACH BLVD APT 619","FAR ROCKAWAY","NY","11691"
216591,"45-227 MAHALANI CIRCLE","KANEOHE","HI","96744"
216592,"45-265 WILLIAM HENRY RD APT G-15","KANEOHE","HI","96744"
216593,"45-285 KANEOHE BAY DRIVE UNIT 107","HONOLULU","HI","96744"
216594,"45-3380 MAMANE ST BLDG 3","HONOKAA","HI","96727"
216595,"45-359 AKIMALA STREET","KANEOHE","HI","96744"
216596,"45-470 MAKALANI ST","KANEOHE","HI","96744"
216597,"45-49 40TH ST  APT 1R","SUNNYSIDE","NY","11104"
216598,"45-49 MAIN STREET","STANHOPE","NJ","07874"
216599,"45-535 LULUKU ROAD APT B71","KANEOHE","HI","96744"
216600,"45-560 KEAAHALA RD","KANEOHE","HI","96744"
216601,"45-585 AWANENE WAY","KANEOHE","HI","96744"
216602,"45-623 PAHOLEI STREET","KANEOHE","HI","96744"
216603,"45-709 KENEKE STREET","KANEOHE","HI","96744"
216604,"45-796 NANIHOKU WAY","KANEOHE","HI","96744"
216605,"45","TOWNSEND","MT","59644"
216606,"450 4TH AVENUE","GALLIPOLIS","OH","45631"
216607,"450 4TH ST SW","PARIS","TX","75460"
216608,"450 4TH STREET SW SUITE 100","PARIS","TX","75460"
216609,"450 52ND PLACE","WEST DES MOINES","IA","50265"
216610,"450 7TH AVENUE","NEW YORK","NY","10123"
216611,"450 AIRTECH PKWY","PLAINFIELD","IN","46168"
216612,"450 AL HENDERSON BLVD UNIT 205","SAVANNAH","GA","31419"
216613,"450 ALLISHA LANE","TRACY","CA","95376"
216614,"450 ALTON ROAD APT 2010","MIAMI BEACH","FL","33139"
216615,"450 ATLANTIC AVENUE","ABERDEEN","NJ","07747"
216616,"450 ATLANTIC AVENUE","MATAWAN","NJ","07747"
216617,"450 BALDWIN AVENUE","BALDWIN","NY","11510"
216618,"450 BATH CLUB BLVD SOUTH","ST PETERSBURG","FL","33708"
216619,"450 BAYVIEW AVE","AMITYVILLE","NY","11701"
216620,"450 BENNERT DRIVE","VANDALIA","OH","45377"
216621,"450 BEVERLY DRIVE","GROVELAND","FL","34736"
216622,"450 BEVERLY ISLAND DR","WATERFORD","MI","48328"
216623,"450 BIBEY ROAD","CARTHAGE","NC","28327"
216624,"450 BRISTOL RD","MARTINEZ","GA","30907"
216625,"450 BRITTEN DR","KISSIMME","FL","34758"
216626,"450 BROWNLEE RD SW","ATLANTA","GA","30311"
216627,"450 BULLIS ROAD","WEST SENECA","NY","14224"
216628,"450 CAMBRIDGE AVE","PALO ALTO","CA","94306"
216629,"450 CANDLEWYCK RD","LANCASTER","PA","17601"
216630,"450 CENTRAL WAY UNIT 4409","KIRKLAND","WA","98033"
216631,"450 CHAUCER RD","DAYTON","OH","45431"
216632,"450 CHESTERVILLE RD","BELDEN","MS","38826"
216633,"450 CHICKADEE LANE","STRATFORD","CT","06614"
216634,"450 CLAIR DRIVE","UPPER ST. CLAIR","PA","15241"
216635,"450 CLARK STATE ROAD","GAHANNA","OH","43230"
216636,"450 CLARKSON AVE MSC 1289","BROOKLYN","NY","11203"
216637,"450 CLIFF NELSON RD","TAYLORSVILLE","GA","30178"
216638,"450 COMMON STREET","BELMONT","MA","02478"
216639,"450 COMMONWEALTH AVENUE 1A","BRONX","NY","10473"
216640,"450 COUNTRY CLUB ROAD","LUCAS","TX","75002"
216641,"450 COUNTY ROAD 61","CLANTON","AL","35046"
216642,"450 COW PALACE RD","LEXINGTON","NC","27295"
216643,"450 CR 130","BONO","AR","72416"
216644,"450 CREEK RD","BENTON","AR","72015"
216645,"450 DAVENPORT DR","WAXAHACHIE","TX","75167"
216646,"450 DISSTON AVE","CLERMONT","FL","34711"
216647,"450 E 20TH ST 10A","NEW YORK","NY","10009"
216648,"450 E 22ND STREET  SUITE 150","LOMBARD","IL","60148"
216649,"450 E 4TH AVENUE","ROSELLE","NJ","07203"
216650,"450 E 96TH STREET SUITE 500","INDIANAPOLIS","IN","46240"
216651,"450 E FITZGERALD","GERALD","MO","63037"
216652,"450 E GARDEN LN","CAMP VERDE","AZ","86322"
216653,"450 E GRANT ST","BRONSON","MI","49028"
216654,"450 E GRANT STREET","BRONSON","MI","49028"
216655,"450 E LATHAM AVE","HEMET","CA","92543"
216656,"450 E NORTH ST","INDIANAPOLIS","IN","46202"
216657,"450 E RED ARROW HWY","WATERVLIET","MI","49098"
216658,"450 EAST  UTAH AVE","HILDALE","AZ","84784"
216659,"450 EAST 34TH STREET APT 6H","BROOKLYN","NY","11203"
216660,"450 EAST 83RD STREET APARTMENT 20B","NEW YORK","NY","10028"
216661,"450 EAST ROGERS STREET APT 3304","HOUSTON","TX","77022"
216662,"450 EAST SILVERADO RANCH BLVD 358","LAS VEGAS","NV","89183"
216663,"450 EDGEWOOD DRIVE","FAIRVIEW","PA","16415"
216664,"450 EDGEWOOD DRIVE","GLENCOE","MN","55336"
216665,"450 EGGLESTON RD","AURORA","OH","44202"
216666,"450 ELM STREET","SOUTH DARTMOUTH","MA","02748"
216667,"450 ENTRADA DRIVE 54","NOVATO","CA","94949"
216668,"450 ERIAL ROAD","BLACKWOOD","NJ","08012"
216669,"450 ESTUDILLO AVE","SAN LEANDRO","CA","94577"
216670,"450 FAIRWAY DR","PALMDALE","CA","93551"
216671,"450 FISCHER STORE RD POB 75","FISCHER","TX","78623"
216672,"450 FLANDERS AVE","SCOTCH PLAINS","NJ","07076"
216673,"450 FLIER DR","PACIFIC","MO","63069"
216674,"450 FOOT OF TEN ROAD","DUNCANSVILLE","PA","16635"
216675,"450 FREEMONT STREET 171","LAS VEGAS","NV","89101"
216676,"450 GLADYCON RD SPACE 82","COLFAX","CA","95713"
216677,"450 GLEN COVE AVENUE","GLEN HEAD","NY","11545"
216678,"450 GRANADA TERRACE","WARNER ROBINS","GA","31088"
216679,"450 HARDING RD","YUBA CITY","CA","95993"
216680,"450 HAWKINS LANE","SALVISA","KY","40372"
216681,"450 HIDDEN VALLEY PAKWAY","CORONA","CA","92879"
216682,"450 HOLLYDALE ROAD","FAIRFIELD","CT","06824"
216683,"450 HUALANI ST","KAILUA","HI","96734"
216684,"450 HUMBLE TANK ROAD","CONROE","TX","77304"
216685,"450 J STREET UNIT 3271","SAN DIEGO","CA","92101"
216686,"450 JACKSON STREET PO BOX 2079","COLUMBUS","IN","47201"
216687,"450 JACKSON STREET PO BOX 2561","COLUMBUS","IN","47201"
216688,"450 JUNIOR DRIVE","COVINGTON","TN","38019"
216689,"450 KATHLEEN ST","AKRON","OH","44303"
216690,"450 KINGSDEER PT E","MONUMENT","CO","80132"
216691,"450 LAURIAN VIEW COURT","ROSWELL","GA","30075"
216692,"450 LEXINGTON AVE PO BOX 2953","NEW YORK","NY","10163"
216693,"450 LINNIE CANAL","VENICE","CA","90291"
216694,"450 LITTLE JOHN ROAD","WILLIAMS","AZ","86046"
216695,"450 LODE ST","MANTECA","CA","95336"
216696,"450 MALLARD CIRCLE","WINTER PARK","CO","32789"
216697,"450 MASSACHUSETTS AVE NW APT 1213","WASHINGTON","DC","20001"
216698,"450 MASSACHUSETTS AVENUE","CAMBRIDGE","MA","02139"
216699,"450 MEADOWOOD DRIVE","TROY","OH","45373"
216700,"450 MICHIGAN AVE","KLAMATH FALLS","OR","97601"
216701,"450 MICHIGAN","STURGEON BAY","WI","54235"
216702,"450 N 2ND RM 320","LANDER","WY","82520"
216703,"450 N BRICE RD UNIT 383","BLACKLICK","OH","43004"
216704,"450 N BROADWAY","EAST PROVIDENCE","RI","02914"
216705,"450 N CAUSEWAY BLVD SUITE D","MANDEVILLE","LA","70448"
216706,"450 N FEDERAL HIGHWAY UNIT 714N","BOYNTON BEACH","FL","33435"
216707,"450 N LAWNDALE AVE","CHICAGO","IL","60624"
216708,"450 N WALL STREET","DENMARK","WI","54208"
216709,"450 NAUMANN ROAD","SEGUIN","TX","78155"
216710,"450 NORTH ROXBURY DRIVE 8TH FLOOR","BEVERLY HILLS","CA","90210"
216711,"450 NORTH THIRD STREET","HAMMONTON","NJ","08037"
216712,"450 NW PACIFIC AVE","CHEHALIS","WA","98532"
216713,"450 OAK TERRACE DRIVE","COVINGTON","GA","30016"
216714,"450 OHAYO MOUNTAIN ROAD","WOODSTOCK","NY","12498"
216715,"450 OHIO STREET SUITE 1","BANGOR","ME","04401"
216716,"450 OLD MONTGOMERY HWY LOT 3","SELMA","AL","36701"
216717,"450 OLD VINE STREET FL 3","LEXINGTON","KY","40507"
216718,"450 OLD VINE STREET THIRD FLOOR","LEXINGTON","KY","40507"
216719,"450 ORANGE ROAD 2ND FLOOR","ORANGE","NJ","07050"
216720,"450 PAISANO STREET NE SUITE 205","ALBUQUERQUE","NM","87123"
216721,"450 PIEDMONT AVE NE 509","ATLANTA","GA","30308"
216722,"450 PIEDMONT AVE NE UNIT 738","ATLANTA","GA","30308"
216723,"450 PLAZA DRIVE","VESTAL","NY","13850"
216724,"450 PLEASANT GROVE ROAD","INVERNESS","FL","34452"
216725,"450 PONCE DE LEON BLVD","CORAL GABLES","FL","33134"
216726,"450 POPLAR ST","ROSLINDALE","MA","02131"
216727,"450 REGENCY PARKWAY STE 120","OMAHA","NE","68114"
216728,"450 RIDGE ROAD CB 3106 0119 SASB N","CHAPEL HILL","NC","27599"
216729,"450 RIVERSIDE DRIVE APT 51","NEW YORK","NY","10027"
216730,"450 ROCK RUN ROAD","NEWVILLE","PA","17241"
216731,"450 ROOSEVELT AVE E","ENUMCLAW","WA","98022"
216732,"450 ROUTE 25A UNIT 782","EAST SETAUKET","NY","11733"
216733,"450 RUGGER ST","BAKERSFIELD","CA","93314"
216734,"450 S 13TH STREET","HAMILTON","OH","45011"
216735,"450 S 1ST STREET","SAN JOSE","CA","95113"
216736,"450 S 600 W","HEBER CITY","UT","84032"
216737,"450 S 9TH ST","LANDER","WY","82520"
216738,"450 S DENTON TAP RD UNIT 756","COPPELL,","TX","75019"
216739,"450 S LAFAYETTE PARK PL APT 307","LOS ANGELES","CA","90057"
216740,"450 S MAIN ST","FONTANA","WI","53125"
216741,"450 S MELROSE DRIVE","VISTA","CA","92081"
216742,"450 S ORANGE AVE - 650","ORLANDO","FL","32801"
216743,"450 SE 10TH ST","HERMISTON","OR","97838"
216744,"450 SERRA MALL  MAIN QUAD BLDG 90","STANFORD","CA","94305"
216745,"450 SEVENTH AVENUE SUITE 2000","NEW YORK","NY","10123"
216746,"450 SEVENTH AVENUE SUITE 2104","NEW YORK","NY","10123"
216747,"450 SEVENTH AVENUE SUITE 2111","NEW YORK","NY","10123"
216748,"450 SLUMBER LANE","CASSELBERRY","FL","32707"
216749,"450 SPRING GARDEN AVE","BAKER CITY","OR","97814"
216750,"450 SPRUCE ST","CHADRON","NE","69337"
216751,"450 STATE ROAD 13 NORTH SUITE 106","SAINT JOHNS","FL","32259"
216752,"450 STONE ROAD","KIMBERLING CITY","MO","65686"
216753,"450 STUYVESANT AVE","TRENTON","NJ","08618"
216754,"450 SYNDICATE ST NORTH SUITE 380","SAINT PAUL","MN","55104"
216755,"450 THAMES STREET","GROTON","CT","06340"
216756,"450 THORNTON AVE","SAN FRANCISCO","CA","94124"
216757,"450 VENTRIS LANE","MAITLAND","FL","32751"
216758,"450 VETERANS MEMORIAL PKWY SUTE 7A","EAST PROVIDENCE","RI","02914"
216759,"450 W 14TH AVE 40537","DENVER","CO","80223"
216760,"450 W 17TH ST APT 619","NEW YORK","NY","10011"
216761,"450 W 910 S 201","HEBER CITY","UT","84032"
216762,"450 W COOL DR 114","ORO VALLEY","AZ","85704"
216763,"450 W FOURTH ST","ROYAL OAK","MI","48067"
216764,"450 W GREENBRIAR","DALLAS","TX","75208"
216765,"450 W ISLAND CT","NAMPA","ID","83686"
216766,"450 W JACKSON STREET","YORK","PA","17401"
216767,"450 W MAIN STREET SUITE 200","COVINGTON","VA","24426"
216768,"450 W MAIN STREET","BARTOW","FL","33830"
216769,"450 W TAFT UNIT B","SOUTH HOLLAND","IL","60473"
216770,"450 WALKER ST NE","CLEVELAND","TN","37311"
216771,"450 WALNUT ST","LEETONIA","OH","44431"
216772,"450 WALNUT STREET","LEETONIA","OH","44431"
216773,"450 WASHINGTON STREET","AMHERST","OH","44001"
216774,"450 WEST 147TH STREET APT 1","NEW YORK","NY","10031"
216775,"450 WEST 42ND STREET APT 30-H","NEW YORK CITY","NY","10036"
216776,"450 WEST 42ND STREET SUITE 47F","NEW YORK","NY","10036"
216777,"450 WEST 50TH STREET","MARION","IN","46953"
216778,"450 WEST AVENUE  SUITE 101","RIFLE","CO","81650"
216779,"450 WEST EL CAMINO AVE","SACRAMENTO","CA","95833"
216780,"450 WEST KENNEDY BLVD","LAKEWOOD","NJ","08701"
216781,"450 WEST SIXTH STREET","YUMA","AZ","85364"
216782,"450 WESTFIELD ROAD","ALPINE","UT","84004"
216783,"450 WILLIAMS AVE","HAMILTON","OH","45015"
216784,"450 WOODRIDGE COURT","CHIPPEWA FALLS","WI","54729"
216785,"450-106 SR 13 NORTH NUMBER 121","SAINT JOHNS","FL","32259"
216786,"450-106 STATE ROAD 13N NUMBER 444","ST JOHNS","FL","32259"
216787,"4500 140TH AVE N   STE 101","CLEARWATER","FL","33762"
216788,"4500 3RD AVE SW","NAPLES","FL","34119"
216789,"4500 5TH AVE SOUTH BLDG C","BIRMINGHAM","AL","35222"
216790,"4500 9TH AVE NE SUITE 300","SEATTLE","WA","98105"
216791,"4500 9TH AVENUE NE SUITE 300","SEATTLE","WA","98105"
216792,"4500 ALAMOSA ST","PORT ARTHUR","TX","77642"
216793,"4500 BELVEDERE ROAD SUITE B","WEST PALM BEACH","FL","33415"
216794,"4500 BERNAL DRIVE","DALLAS","TX","75212"
216795,"4500 BEVERLY DR","SANTA MARIA","CA","93455"
216796,"4500 BOLES ROAD","LABADIE","MO","63055"
216797,"4500 BOWLING BLVD SUITE 100","LOUISVILLE","KY","40207"
216798,"4500 BRENTWOOD STAIR RD 2104","FORT WORTH","TX","76103"
216799,"4500 BUENA VISTA ROAD","BAKERSFIELD","CA","93311"
216800,"4500 CHAPEL HILL ROAD","DALLAS","TX","75214"
216801,"4500 CLEARVIEW PKWY SUITE 201","METAIRIE","LA","70006"
216802,"4500 CLIPPER BAY RD","DULUTH","GA","30096"
216803,"4500 CLUB DRIVE","BRIGHTON","MI","48116"
216804,"4500 COLUMBIA STREET","ORLANDO","FL","32811"
216805,"4500 DEEPWOOD DRIVE","LOUISVILLE","KY","40241"
216806,"4500 DIXIE HILL ROAD","FAIRFAX","VA","22030"
216807,"4500 DUE WEST RD","KENNESAW","GA","30152"
216808,"4500 E ALLEN RD","HOWELL","MI","48855"
216809,"4500 EAST OLTORF STREET UNIT 409","AUSTIN","TX","78741"
216810,"4500 EAST SUNRISE DRIVE - APT J12","TUCSON","AZ","85718"
216811,"4500 FILER COVE ROAD","BIG TORCH KEY","FL","33042"
216812,"4500 FOX HUNT CT NE","ADA","MI","49301"
216813,"4500 GARFIELD STREET NW","WASHINGTON","DC","20007"
216814,"4500 GOSEY HILL RD","FRANKLIN","TN","37064"
216815,"4500 GREAT AMERICA PKWY STE 100","SANTA CLARA","CA","95054"
216816,"4500 HALLANDALE BEACH BLVD","WEST PARK","FL","33023"
216817,"4500 HAPPY JACK ROAD","CHEYENNE","WY","82001"
216818,"4500 HIGHWAY 52 E","ELLIJAY","GA","30536"
216819,"4500 HIGHWAY 79S BOX 553","AGUANGA","CA","92536"
216820,"4500 INKSTER ROAD","INKSTER","MI","48141"
216821,"4500 JD MOUSER PARKWAY  SUITE 400","ALVARADO","TX","76009"
216822,"4500 KELLEY HWY","FORT SMITH","AR","72904"
216823,"4500 KING PALM DRIVE","TAMARAC","FL","33319"
216824,"4500 KRUSE WAY  SUITE 130","LAKE OSWEGO","OR","97035"
216825,"4500 LAKESHORE DR","NORTHPORT","AL","35473"
216826,"4500 LAMBERT RANCH TRAIL","SEDALIA","CO","80135"
216827,"4500 LEE ROAD SUITE 204","CLEVELAND","OH","44128"
216828,"4500 MASSACHUSETTS AVE BOX 204","WASHINGTON","DC","20016"
216829,"4500 MASSACHUSETTS AVE NW APT NRH 4","WASHINGTON","DC","20016"
216830,"4500 MERCANTILE PLAZA DR SUITE 300","FORT WORTH","TX","76137"
216831,"4500 MERCANTILE PLAZA DR SUITE 300","FORT WORTH","TX","77014"
216832,"4500 MERCANTILE PLAZA STE 300","FORT WORTH","TX","76137"
216833,"4500 MULTNOMAH ST","LOS ANGELES","CA","90032"
216834,"4500 N ORACLE RD 100","TUCSON","AZ","85705"
216835,"4500 N ROCKWELL AVE","BETHANY","OK","73008"
216836,"4500 NORTH BOUDOIN ROAD","SULPHUR","LA","70665"
216837,"4500 NW 15TH STREET","LAUDERHILL","FL","33313"
216838,"4500 OPEN FORK RD","MOREHEAD","KY","40351"
216839,"4500 ORANGEBERRY DR","GROVE CITY","OH","43123"
216840,"4500 POND WAY SUITE 270","WOODBRIDGE","VA","22192"
216841,"4500 RING NECK RD","ORLANDO","FL","32808"
216842,"4500 S FOUR MILE RUN DRIVE APT 432","ARLINGTON","VA","22204"
216843,"4500 S FOUR MILE RUN DRIVE APT 905","ARLINGTON","VA","22204"
216844,"4500 S FOUR MILE RUN DRIVE UNIT 615","ARLINTON","VA","22204"
216845,"4500 S FRONTAGE RD","HILLSIDE","IL","60162"
216846,"4500 S KATHY RD","FLAGSTAFF","AZ","86005"
216847,"4500 S LINCOLN ST","ENGLEWOOD","CO","80113"
216848,"4500 S LOWE AVENUE","CHICAGO","IL","60609"
216849,"4500 S MARION RD","SIOUX FALLS","SD","57106"
216850,"4500 SATELLITE BLVD STE 2260","DULUTH","GA","30096"
216851,"4500 SATELLITE BLVD STE 2280","DULUTH","GA","30096"
216852,"4500 SHERWOOD COMMON BLVD APT 703","BATON ROUGE","LA","70816"
216853,"4500 SHERWOOD COMMONS BLVD APT 413","BATON ROUGUE","LA","70816"
216854,"4500 SJOLANDER RD UNIT 13","BAYTOWN","TX","77521"
216855,"4500 SOUTH FOUR MILE RUN DR UNIT734","ARLINGTON","VA","22204"
216856,"4500 SOUTH HIGHLAND AVENUE","SIOUX FALLS","SD","57103"
216857,"4500 STAFFORD DRIVE","COLLEYVILLE","TX","76034"
216858,"4500 STATE ROUTE 1389","HAWESVILLE","KY","42348"
216859,"4500 STUART ST","DENVER","CO","80212"
216860,"4500 SUNNY ISLE SIPB SUITE 3","CHRISTIANSTED","VI","00820"
216861,"4500 THORNBERRY DR SE","GRAND RAPIDS","MI","49546"
216862,"4500 TRUXEL ROAD NO 1337","SACRAMENTO","CA","95834"
216863,"4500 TYNEBOURNE STREET F203","SACRAMENTO","CA","95834"
216864,"4500 UNIVERSITY DR","HOUSTON","TX","77004"
216865,"4500 UNIVERSITY DRIVE","HOUSTON","TX","77204"
216866,"4500 VIA MARINA APT 314","MARINA DEL REY","CA","90292"
216867,"4500 W 173 STREET","LAWNDALE","CA","90260"
216868,"4500 W ELDORADO PKWY STE 2000","MCKINNEY","TX","75070"
216869,"4500 WEAVERPIKE","BLUFF CITY","TN","37618"
216870,"4500 WEST 76TH STREET","PRAIRIE VILLAGE","KS","66208"
216871,"4500 WEST SHANNON LAKES SUITE 12","TALLAHASSEE","FL","32309"
216872,"4500 WEST VILLAGE PL 1201","SMYRNA","GA","30080"
216873,"4500 WILLIAM PENN HIGHWAY","EASTON","PA","18045"
216874,"4500 WILLIAMS DR STE 212-183","GEORGETOWN","TX","78633"
216875,"4500 WILLIAMS DR STE 212-246","GEORGETOWN","TX","78633"
216876,"4500 WILLIAMS DR STE 212","GEORGETOWN","TX","78633"
216877,"4500 WILLIAMS DR SUITE 212-113","GEORGETOWN","TX","78633"
216878,"4500 WILLIAMS DRIVE SUITE 212-142","GEORGETOWN","TX","78633"
216879,"4500 WILLIAMS DRIVE SUITE 212-516","GEORGETOWN","TX","78633"
216880,"4500 WINTERS CHAPEL ROAD","ATLANTA","GA","30360"
216881,"45001 160TH STREET  PO BOX 233","MABEL","MN","55954"
216882,"45005 THALIA LANE","LAKE ELSINORE","CA","92532"
216883,"45006 N 30TH STREET EAST","LANCASTER","CA","93535"
216884,"4501 138TH AVE SE","BELLEVUE","WA","98006"
216885,"4501 15TH AVE S STE102","SEATTLE","WA","98108"
216886,"4501 6TH ST S","SAINT PETERSBURG","FL","33705"
216887,"4501 BENTLEY DRIVE","COLUMBIA","SC","29210"
216888,"4501 CHARLOTTE PIKE P O BOX 90716","NASHVILLE","TN","37209"
216889,"4501 COMMERCIAL PLACE","LEAVENWORTH","KS","66048"
216890,"4501 DON TIMOTEO DR","LOS ANGELES","CA","90008"
216891,"4501 DRUMMOND AVE","CHEVY CHASE","MD","20815"
216892,"4501 E RIVERSIDE DRIVE APT 2112","AUSTIN","TX","78741"
216893,"4501 GRACELAND BLVD","RACINE","WI","53405"
216894,"4501 GRANT STREET     NE","WASHINGTON","DC","20019"
216895,"4501 HIGHWOODS PARKWAY   SUITE 210","GLEN ALLEN","VA","23060"
216896,"4501 HOLLOWAY CIRCLE SE","OWENS CROSS ROADS","AL","35763"
216897,"4501 INDIAN TREE CT","FORT WORTH","TX","76126"
216898,"4501 JACKSON ROAD","FREDERICKSBURG","VA","22407"
216899,"4501 LAYFAYETTE AVENUE SUITE 007","OMAHA","NE","68132"
216900,"4501 LEGEND HOLLOW LANE","POWDER SPRINGS","GA","30127"
216901,"4501 LOWELL ST NW","WASHINGTON","DC","20016"
216902,"4501 MANATEE AVENUE WEST NUM 248","BRADENTON","FL","34209"
216903,"4501 MARQUE DRIVE","NEW ORLEANS","LA","70127"
216904,"4501 MORNINGWOOD DR","OLNEY","MD","20832"
216905,"4501 N CHARLES ST","BALTIMORE","MD","21210"
216906,"4501 N POST RD","INDIANAPOLIS","IN","46226"
216907,"4501 NE MINNEHAHA STREET","VANCOUVER","WA","98661"
216908,"4501 NEW BERN AVE STE 130 -122","RALEIGH","NC","27610"
216909,"4501 NORTH CLARENDON AVENUE","CHICAGO","IL","60640"
216910,"4501 NW 11 TERRACE","FORT LAUDERDALE","FL","33309"
216911,"4501 NW 185TH STREET","MIAMI","FL","33055"
216912,"4501 PERDITA LANE","LUTZ","FL","33558"
216913,"4501 PLEASANT GARDEN ROAD","GREENSBORO","NC","27406"
216914,"4501 POLK STREET","HOLLYWOOD","FL","33021"
216915,"4501 SARATOGA COURT","MANCHESTER","MD","21102"
216916,"4501 SCOTT STREET","TORRANCE","CA","90503"
216917,"4501 SEA SPARROW LN","GARLAND","TX","75043"
216918,"4501 SHERATON DRIVE 134","MACON","GA","31210"
216919,"4501 SOUTHERN HILLS DRIVE SUITE 18","SIOUX CITY","IA","51106"
216920,"4501 TEN-TEN ROAD","APEX","NC","27539"
216921,"4501 TRANSMITTER ROAD","PANAMA CITY","FL","32404"
216922,"4501 TROOST AVENUE","KANSAS CITY","MO","64110"
216923,"4501 TWEEDSMUIR TURN","MOSELEY","VA","23120"
216924,"4501 TYNECASTLE HWY STE 2","BANNER ELK","NC","28604"
216925,"4501 W AZEELE ST","TAMPA","FL","33609"
216926,"4501 W FREEWAY","FORT WORTH","TX","76107"
216927,"4501 WEDDINGTON ROAD NW","CONCORD","NC","28027"
216928,"4501 WEST 20TH STREET","YUMA","AZ","85364"
216929,"4501 WILLIAMSBURG RD STE F","RICHMOND","VA","23231"
216930,"4501 WOODWARD AVENUE APT 315","DETROIT","MI","48201"
216931,"45016 TAYLOR RD","ALEXANDRIA BAY","NY","13607"
216932,"4502 ANTELOPE LN","CHARLOTTE","NC","28269"
216933,"4502 CARLEVIEW RD","BALTIMORE","MD","21207"
216934,"4502 CASEY ROAD","BRAWLEY","CA","92227"
216935,"4502 CONCORD STREET","MIDLAND","MI","48642"
216936,"4502 CR 4600","ATHENS","TX","75752"
216937,"4502 CREEKSIDE CIR","RENO","NV","89502"
216938,"4502 DYER STREET STE 201-B","LA CRESCENTA","CA","91214"
216939,"4502 GAGE PL","COLUMBIA","MO","65203"
216940,"4502 HODGES RUN LANE","HUMBLE","TX","77396"
216941,"4502 ILLINOIS STREET UNIT B","SAN DIEGO","CA","92116"
216942,"4502 INDIAN HILLS ROAD","DECATUR","AL","35603"
216943,"4502 JOE PATCH RD","BAYTOWN","TX","77523"
216944,"4502 JOHNSON CIRCLE","AYDEN","NC","28513"
216945,"4502 KILCHURN CIRCLE","VALPARAISO","IN","46383"
216946,"4502 LINCOLNSHIRE DR","GARLAND","TX","75043"
216947,"4502 MAGNET AVE","ROCKLAND","WI","54653"
216948,"4502 MAPLE DR","SAND SPRINGS","OK","74063"
216949,"4502 MARQUIS PLACE","WOODBRIDGE","VA","22192"
216950,"4502 N 19TH STREET - REAR","TERRE HAUTE","IN","47805"
216951,"4502 OAKCLIFFE RD","GREENSBORO","NC","27406"
216952,"4502 RIVERSTONE BLVD STE 1102","MISSOURI CITY","TX","77459"
216953,"4502 RIVERSTONE BOULEVARD SUITE 650","MISSOURI CITY","TX","77459"
216954,"4502 RUSTON PL UNIT C","WALDORF","MD","20602"
216955,"4502 S 19TH STREET","PHOENIX","AZ","85040"
216956,"4502 SHADYWOOD LANE","COLLEYVILLE","TX","76034"
216957,"4502 SUNFLOWER LANE","TEMPLE","TX","76502"
216958,"4502 TANGLEWOOD CIR","KILLEEN","TX","76543"
216959,"4502 W ANGUS DRIVE","BEVERLY HILLS","FL","34465"
216960,"4503 110TH PL NE","MARYSVILLE","WA","98271"
216961,"4503 18TH STREET","SAN FRANCISCO","CA","94114"
216962,"4503 33RD ST","SAN DIEGO","CA","92116"
216963,"4503 3RD STREET CIR W APT 263","BRADENTON","FL","34207"
216964,"4503 54TH ST","LUBBOCK","TX","79414"
216965,"4503 ALLENDALE DRIVE","WHITE BEAR LAKE","MN","55127"
216966,"4503 BANNER STREET","NORTH BRENTWOOD","MD","20722"
216967,"4503 CADES COVE DR","CHARLOTTE","NC","28273"
216968,"4503 COUNTRY GATE CT","VALRICO","FL","33596"
216969,"4503 ELLIS LANE UNIT 1","TEMPLE CITY","CA","91780"
216970,"4503 HARVEST LN","WILSON","NC","27520"
216971,"4503 MAYBROOK WOODS","SAN ANTONIO","TX","78249"
216972,"4503 MOBILE DRIVE","COLUMBUS","OH","43220"
216973,"4503 PENHURST AVENUE","BALTIMORE","MD","21215"
216974,"4503 S RIDGE WAY","BOISE","ID","83709"
216975,"4503 SE 164TH AVE","VANCOUVER","WA","98683"
216976,"4503 SHAMROCK AVENUE","BALTIMORE","MD","21206"
216977,"4503 TERRY LN","WILMINGTON","NC","28405"
216978,"4503 TWIN ELM DR","FRESNO","TX","77545"
216979,"4503 W 122ND ST APT 926","OVERLAND PARK","KS","66209"
216980,"45034 RIVERWOODS DR","MACOMB","MI","48044"
216981,"4504 162ND ST STE 203","FLUSHING","NY","11358"
216982,"4504 162ND STREET SUITE 203","FLUSHING","NY","11358"
216983,"4504 20TH ST NE","TUSCALOOSA","AL","35404"
216984,"4504 BIGHAM RD","WAXHAW","NC","28173"
216985,"4504 BRANCHVIEW DRIVE","ARLINGTON","TX","76017"
216986,"4504 BRITTANY TRAIL DRIVE","CHAMPAIGN","IL","61822"
216987,"4504 BURROW DRIVE","NORTH LITTLE ROCK","AR","72116"
216988,"4504 CENTER ST","DEER PARK","TX","77536"
216989,"4504 CISCO VALLEY DR","AUSTIN","TX","78664"
216990,"4504 CRYSTAL BEACH RD","MULBERRY","FL","33880"
216991,"4504 CYPRESS ST","EVANS","CO","80620"
216992,"4504 DAWSON DRIVE","NORTH LITTLE ROCK","AR","72116"
216993,"4504 DRESDEN ROAD","BALTIMORE","MD","21208"
216994,"4504 E 114TH TERRACE","KANSAS CITY","MO","64137"
216995,"4504 E WOOD ST","PHOENIX","AZ","85040"
216996,"4504 EPINAY CT","LOUISVILLE","KY","40272"
216997,"4504 FIELDVIEW CIR","WESLEY CHAPEL","FL","33545"
216998,"4504 FOREST GLEN RD","GREENSBORO","NC","27410"
216999,"4504 FOREST GLEN ROAD","GREENSBORO","NC","27410"
217000,"4504 FREMONT AVE N UNIT A","SEATTLE","WA","98103"
