"ID","Address","City","State","Zip"
142501,"260 RIDGEPOINTE DRIVE","COLD SPRING","KY","41076"
142502,"260 RIVERSIDE DR APT 2F","NEW YORK","NY","10025"
142503,"260 RIVERSIDE DRIVE APARMENT 3C","NEW YORK","NY","10025"
142504,"260 ROLLINGWOOD TRAIL","ALTAMONTE SPRINGS","FL","32714"
142505,"260 ROMA AVE","SAN MARCOS","CA","92069"
142506,"260 ROUND SWAMP ROAD","MELVILLE","NY","11747"
142507,"260 RUGGLES ST","ROXBURY","MA","02120"
142508,"260 S 2500 W STE 102","PLEASANT GROVE","UT","84062"
142509,"260 S CLINTON ST","EAST ORANGE","NJ","07018"
142510,"260 S FRANKLIN ST","DENVER","CO","80209"
142511,"260 S REYNOLDS ST","ALEXANDRIA","VA","22304"
142512,"260 S STATE STREET 12","WESTERVILLE","OH","43086"
142513,"260 S TEXAS BLVD STE 400","WESLACO","TX","78596"
142514,"260 SEALE LANE","ALPHARETTA","GA","30022"
142515,"260 SEMINOLE DR","ORANGEBURG","SC","29115"
142516,"260 SHANKS RD","BLOUNTVILLE","TN","37617"
142517,"260 SHERWOOD FARM RD","FAIRFIELD","CT","06824"
142518,"260 SICKLES AVENUE","NEW ROCHELLE","NY","10801"
142519,"260 SILVER LANE","OLD BRIDGE","NJ","08857"
142520,"260 SO DOHENY DRIVE NO 7","BEVERLY HILLS","CA","90211"
142521,"260 SOUTH 20TH STREET","NEWARK","NJ","07103"
142522,"260 SPENCER DRIVE","BRANSON","MO","65616"
142523,"260 ST HWY JJ","LILBOURN","MO","63862"
142524,"260 STATE HIGHWAY 3","BAR HARBOR","ME","04609"
142525,"260 STATE STREET","BATAVIA","NY","14020"
142526,"260 STETSON ST SUITE E","CINCINNATI","OH","45219"
142527,"260 STRESE LN","APPLE VALLEY","MN","55124"
142528,"260 SW CENTRAL AVENUE","GRANTS PASS","OR","97526"
142529,"260 SWISS COLONY LN","LONDON","KY","40741"
142530,"260 TALL TREE LANE","WALTERBORO","SC","29488"
142531,"260 TERRACE VIEW WAY","SENECA","SC","29678"
142532,"260 TILLICUM DR","SILVERTON","OR","97381"
142533,"260 TWIN CREEKS DRIVE","SENECA","SC","29678"
142534,"260 VICTORIA STREET","SALISBURY","NC","28147"
142535,"260 VISTA WOOD DRIVE","DADEVILLE","AL","36853"
142536,"260 W MASHTA DR","KEY BISCAYNE","FL","33149"
142537,"260 WARD KOEBEL RD","OREGONIA","OH","45054"
142538,"260 WELLS STREET","MANCHESTER","NH","03104"
142539,"260 WES ASHLEY DRIVE","MERIDIANVILLE","AL","35759"
142540,"260 WEST 54TH STREET   UNIT 22A","NEW YORK","NY","10019"
142541,"260 WEST 54TH STREET - SUITE 16I","NEW YORK","NY","10019"
142542,"260 WEST EXCHANGE STREET SUITE 101","PROVIDENCE","RI","02903"
142543,"260 WEST HICKORY STREET","CHICAGO HEIGHTS","IL","60411"
142544,"260 WEST OLD COUNTRY ROAD","HICKSVILLE","NY","11801"
142545,"260 WEST ST","MANDEVILLE","LA","70448"
142546,"260 WINDSOR DRIVE","SAN CARLOS","CA","94070"
142547,"260 YELLOWSTONE CIRCLE POB 356","WRIGHT","WY","82732"
142548,"260-C TOWN HALL DR","MORRISVILLE","NC","27560"
142549,"2600 12TH SQ SW","VERO BEACH","FL","32968"
142550,"2600 16TH ST S UNIT702","ARLINGTON","VA","22204"
142551,"2600 25TH STREET NE","CANTON","OH","44705"
142552,"2600 8TH AVE 11641","FORTH WORTH","TX","76110"
142553,"2600 8TH AVE PO BOX 11661","FORT WORTH","TX","76110"
142554,"2600 8TH ST","CUMBERLAND","WI","54829"
142555,"2600 ADAMS STREET   APT 2","GREAT BEND","KS","67530"
142556,"2600 AVE K","PLANO","TX","75074"
142557,"2600 BELLS FERRY ROAD NE","MARIETTA","GA","30066"
142558,"2600 BENNET RD","OKEMOS","MI","48864"
142559,"2600 BENTLEY RD STE 608","MARIETTA","GA","30067"
142560,"2600 BERKLEY AVE","CHESAPEAKE","VA","23325"
142561,"2600 BLUE COVE","AUSTIN","TX","78745"
142562,"2600 BRADSHAW TERRACE","SILVER SPRING","MD","20905"
142563,"2600 BRINKLEY ROAD","FORT WASHINGTON","MD","20744"
142564,"2600 CAMPUS ROAD QLCSS ROOM 407","HONOLULU","HI","96822"
142565,"2600 CASHWELL DR APT A","GOLDSBORO","NC","27534"
142566,"2600 CELEBRATION COVE 1004","SHREVEPORT","LA","71107"
142567,"2600 CENTRAL AVE","HOMEWOOD","AL","35209"
142568,"2600 CONNECTICUT CT","UNIONTOWN","OH","44685"
142569,"2600 CRANBROOK DRIVE","HEPHZIBAH","GA","30815"
142570,"2600 CUMBERLAND DR","FRANKLIN","IN","46131"
142571,"2600 DODGE RD","EAST AMHERST","NY","14051"
142572,"2600 DODSON STREET SUITE 3","PORT HUENEME","CA","93043"
142573,"2600 DOUGLAS ROAD SUITE 800","CORAL GABLES","FL","33134"
142574,"2600 DOVEHILL WAY","OVIEDO","FL","32766"
142575,"2600 DOW RD","PIFFARD","NY","14533"
142576,"2600 E 26TH STREET","MINNEAPOLIS","MN","55406"
142577,"2600 E ALLRED AVE LOT B22","MESA","AZ","85204"
142578,"2600 E FENWAY DRIVE","OAK CREEK","WI","53154"
142579,"2600 E LONGHILLS RD APT 305","BENTON","AR","72019"
142580,"2600 E SOUTHLAKE BLVD STE 120 PB101","SOUTHLAKE","TX","76092"
142581,"2600 E SOUTHLAKE BLVD SUITE 120 135","SOUTHLAKE","TX","76092"
142582,"2600 E SOUTHLAKE BLVD SUITE 120","SOUTHLAKE","TX","76092"
142583,"2600 E TACOMA ST","SIERRA VISTA","AZ","85635"
142584,"2600 E WISCONSIN RD","EDINBURG","TX","78542"
142585,"2600 EAGAN WOODS DRIVE SUITE 200","EAGAN","MN","55121"
142586,"2600 EAST CARY STREET APT 3103","RICHMOND","VA","23223"
142587,"2600 EAST PECAN","MADERA","CA","93638"
142588,"2600 EASTON ST NE","CANTON","OH","44721"
142589,"2600 FLATROCK TRAIL","JONESBORO","AR","72404"
142590,"2600 FORD DRIVE PO BOX 180","NEW HOLSTEIN","WI","53061"
142591,"2600 FOREST GLEN TRAIL","RIVERWOODS","IL","60015"
142592,"2600 FORMAN RD","AUSTINBURG","OH","44010"
142593,"2600 FOURTH AVENUE","CANYON","TX","79015"
142594,"2600 GESSNER RD  STE 190","HOUSTON","TX","77080"
142595,"2600 GLADES CIRCLE STE 700","WESTON","FL","33327"
142596,"2600 GORDON AVENUE","LA HABRA","CA","90631"
142597,"2600 GRAND BOULEVARD SUITE 1100","KANSAS CITY","MO","64108"
142598,"2600 HARRISON","TRENTON","MI","48183"
142599,"2600 HF SHEPHERD DRIVE","ATLANTA","GA","30034"
142600,"2600 HF SHEPHERD DRIVE","DECATUR","GA","30034"
142601,"2600 HIGHLAND RD APT 104","DALLAS","TX","75228"
142602,"2600 HILLSBORO PIKE - STE 153","NASHVILLE","TN","37212"
142603,"2600 HOFFMAN ROAD","MANKATO","MN","56001"
142604,"2600 HOLLYWOOD BLVD","HOLLYWOOD","FL","33020"
142605,"2600 HOLMAN","HOUSTON","TX","77004"
142606,"2600 JAPONICA DRIVE","COLUMBUS","GA","31907"
142607,"2600 JFK BLVD UNIT 3K","JERSEY CITY","NJ","07306"
142608,"2600 JONESBORO ROAD","FAIRBURN","GA","30213"
142609,"2600 LAKE RIDGE RD 4311","LEWISVILLE","TX","75056"
142610,"2600 LAKE RIDGE RD APT 5210","LEWSIVILLE","TX","75056"
142611,"2600 LEADERSHIP LANE","MANHATTAN","KS","66502"
142612,"2600 LOCH WAY","SNELLVILLE","GA","30039"
142613,"2600 LONGSTONE LANE","MARRIOTTSVILLE","MD","21104"
142614,"2600 MAIN STREET SUITE 575","PORTERDALE","GA","30070"
142615,"2600 MAYPORT RD","ATLANTIC BEACH","FL","32233"
142616,"2600 MCCULLOUGH AVENUE","SAN ANTONIO","TX","78212"
142617,"2600 MCHALE COURT SUITE 180","AUSTIN","TX","78758"
142618,"2600 MILSCOTT DRIVE APT 2204","DECATUR","GA","30033"
142619,"2600 MISSION STREET SUITE 200","SAN MARINO","CA","91108"
142620,"2600 N HILLFIELD TRL 25","LAYTON","UT","84041"
142621,"2600 N SHADOW CREST DRIVE","FAYETTEVILLE","AR","72704"
142622,"2600 NE CECILIA LN","BREMERTON","WA","98310"
142623,"2600 NETWORK BLVD SUITE 400","FRISCO","TX","75034"
142624,"2600 NICASIO VALLEY ROAD","NICASIO","CA","94946"
142625,"2600 NORTH  WOOSTER AVE","DOVER","OH","44622"
142626,"2600 NORTH 70TH STREET","LINCOLN","NE","68507"
142627,"2600 NOTTINGHAM DRIVE","VALPARAISO","IN","46383"
142628,"2600 OAK SPRINGS DR","CHULA VISTA","CA","91915"
142629,"2600 OAK ST STE 589","ST CHARLES","IL","60175"
142630,"2600 OAK STREET   BOX 391","ST CHARLES","IL","60175"
142631,"2600 OAK STREET UNIT 462","SAINT CHARLES","IL","60174"
142632,"2600 OLD COURTRIGHT ROAD","COLUMBUS","OH","43232"
142633,"2600 PARKSIDE DR","GRAND PRAIRIE","TX","75052"
142634,"2600 PLANK ROAD","DUNDEE","MI","48131"
142635,"2600 POPLAR TENT RD","CONCORD","NC","28027"
142636,"2600 PUALANI WAY 3601","HONOLULU","HI","96815"
142637,"2600 PUALANI WAY UNIT 802","HONOLULU","HI","96815"
142638,"2600 RED HAWK RIDGE DR","AURORA","IL","60503"
142639,"2600 RIVER STREET","CARTHAGE","MO","64836"
142640,"2600 RIVERWOOD SPRING","ELLENWOOD","GA","30294"
142641,"2600 ROCK QUARRY RD","RALEIGH","NC","27610"
142642,"2600 ROCK QUARRY ROAD","RALEIGH","NC","27610"
142643,"2600 ROOSEVELT AVENUE","ASHLAND","KY","41102"
142644,"2600 S GESSNER RD SUITE 504","HOUSTON","TX","77063"
142645,"2600 S HUB DR","INDEPENDENCE","MO","64055"
142646,"2600 S LABREA AVE","LOS ANGELES","CA","90016"
142647,"2600 S LOOP W - SUITE 100","HOUSTON","TX","77054"
142648,"2600 S MICHIGAN AVE SUITE 309","CHICAGO","IL","60616"
142649,"2600 S PALM CANYON DRIVE - 61","PALM SPRINGS","CA","92264"
142650,"2600 S RIVER ST","CARTHAGE","MO","64836"
142651,"2600 SOFKEE CIR","LIZELLA","GA","31052"
142652,"2600 SOLONA STREET","HALTOM CITY","TX","76117"
142653,"2600 SOUTH LOOP WEST STE 435","HOUSTON","TX","77054"
142654,"2600 SOUTH LOOP WEST SUITE 562","HOUSTON","TX","77054"
142655,"2600 SOUTH LOOP WEST SUITE 580","HOUSTON","TX","77054"
142656,"2600 SOUTH MAIN ROAD","LEBANON","OR","97355"
142657,"2600 SPRUCE STREET","LITTLE CANADA","MN","55117"
142658,"2600 STANBRIDGE AVE","LONG BEACH","CA","90815"
142659,"2600 STANLEY LUCIA ROAD","MT. HOLLY","NC","28120"
142660,"2600 STATE STREET","PALATKA","FL","32177"
142661,"2600 STEDMAN DR NW","WILSON","NC","27896"
142662,"2600 SW  33RD ST","TOPEKA","KS","66611"
142663,"2600 SW THISTLE STREET","SEATTLE","WA","98126"
142664,"2600 TASKER STREET","PHILADELPHIA","PA","19145"
142665,"2600 US 1 S SUITE 3","ST AUGUSTINE","FL","32086"
142666,"2600 VANCE DRIVE","EAST POINT","GA","30344"
142667,"2600 W 16TH STREET","WILMINGTON","DE","19806"
142668,"2600 W 3500 N","FARR WEST","UT","84404"
142669,"2600 W 6TH ST APT J2","LAWRENCE","KS","66049"
142670,"2600 W 7TH ST -  UNIT 1439","FT WORTH","TX","76107"
142671,"2600 W BANNOCK ST","BOISE","ID","83702"
142672,"2600 W BIG BEAVER  SUITE 550","TROY","MI","48084"
142673,"2600 W BIG BEAVER RD STE 300","TROY","MI","48084"
142674,"2600 W OLIVE AVE 5TH FLR PMB 5335","BURBANK","CA","91505"
142675,"2600 WADE HAMPTON BLVD","GREENVILLE","SC","29615"
142676,"2600 WASHINGTON AVENUE - 5TH FLOOR","NEWPORT NEWS","VA","23607"
142677,"2600 WEST OLIVE AVE 5TH FLOOR","BURBANK","CA","91505"
142678,"2600 WEST OLIVE AVE","BURBANK","CA","91505"
142679,"2600 WEST OLIVE ST   5TH FLOOR","BURBANK","CA","91505"
142680,"26000 CYPRESSWOOD DR","SPRING","TX","77373"
142681,"26000 EVERGREEN","SOUTHFIELD","MI","48076"
142682,"26000 ISLAND LAKE DRIVE","NOVI","MI","48374"
142683,"26000 LORAIN ROAD","NORTH OLMSTED","OH","44070"
142684,"26000 SHADOW GLEN DRIVE","OLATHE","KS","66061"
142685,"26000 SIYAYA AVE NE","KINGSTON","WA","98346"
142686,"26001 STANLEY HILLS WAY","DAMASCUS","MD","20872"
142687,"26004 E JOY AVE","BROKEN ARROW","OK","74014"
142688,"26005 SE 23RD PL","SAMMAMISH","WA","98075"
142689,"26008 E 99TH ST","LEES SUMMIT","MO","64086"
142690,"26009 BUDDE RD","THE WOODLANDS","TX","77380"
142691,"26009 BUDDE ROAD / SUITE A200","THE WOODLANDS","TX","77380"
142692,"26009 SINGING LARK CT","LEESBURG","FL","34748"
142693,"26009","EUGENE","OR","97402"
142694,"2600A BARHAMVILLE RD","COLUMBIA","SC","29204"
142695,"2601 1/2 MAIN ST","LANSING","MI","48917"
142696,"2601 43RD AVENUE WEST","SEATTLE","WA","98199"
142697,"2601 8TH AVENUE 6B","NEW YORK","NY","10030"
142698,"2601 AMELIA ST APT 204","NEW ORLEANS","LA","70115"
142699,"2601 AVENUE OF THE STARS","FRISCO","TX","75034"
142700,"2601 B RICHARD DR","GREENVILLE","NC","27834"
142701,"2601 BELIZE DRIVE","EVANSVILLE","IN","47725"
142702,"2601 BLANDING AVE   C369","ALAMEDA","CA","94501"
142703,"2601 BLANDING AVE SUITE C-504","ALAMEDA","CA","94501"
142704,"2601 BLOOMINGTON AVE S","MINNEAPOLIS","MN","55407"
142705,"2601 BRANSFORD AVENUE","NASHVILLE","TN","37204"
142706,"2601 BRIAR TRAIL 204","SCHAUMBURG","IL","60173"
142707,"2601 BROWNSTONE DRIVE","DOVER","PA","17315"
142708,"2601 BURGAW HWY","JACKSONVILLE","NC","28540"
142709,"2601 CAMBRIDGE COURT   SUITE 210","AUBURN HILLS","MI","48326"
142710,"2601 CANTERBURY ROAD","MUSCATINE","IA","52761"
142711,"2601 CANYON COURT","MAYS LANDING","NJ","08330"
142712,"2601 CARDINAL DR","MANCHACA","TX","78652"
142713,"2601 CARTWRIGHT RD - D-PO BOX  133","MISSOURI CITY","TX","77459"
142714,"2601 CARTWRIGHT RD SUITE D 403","MISSOURI CITY","TX","77459"
142715,"2601 CARTWRIGHT RD UNIT D233","MISSOURI CITY","TX","77459"
142716,"2601 CARTWRIGHT ROAD SUITE D - 384","MISSOURI CITY","TX","77459"
142717,"2601 CHAPMAN BLVD","PUNTA GORDA","FL","33950"
142718,"2601 CLINTON ST","RIVER GROVE","IL","60171"
142719,"2601 COLT DR","EAST HELENA","MT","59635"
142720,"2601 CONNECTICUT","JOPLIN","MO","64804"
142721,"2601 CREEK MANOR DR","WAXHAW","NC","28173"
142722,"2601 CROSS POINT CIRCLE APT 25","MATTHEWS","NC","28105"
142723,"2601 DENNY RD","BEAR","DE","19701"
142724,"2601 E 5TH PLACE","TULSA","OK","74104"
142725,"2601 E 7TH AVE","TAMPA","FL","33605"
142726,"2601 E BROAD ST","COLUMBUS","OH","43209"
142727,"2601 E DESERT COVE AVE","PHOENIX","AZ","85028"
142728,"2601 E IRLO BRONSON MEMORIAL HWY","KISSIMMEE","FL","34744"
142729,"2601 E MCKELLIPS RD SUITE 1114","MESA","AZ","85213"
142730,"2601 E OCEAN BLVD 201","LONG BEACH","CA","90803"
142731,"2601 E WINDSOR","PHOENIX","AZ","85008"
142732,"2601 EAST CHAPMAN AVENUE SUITE 111","FULLERTON","CA","92831"
142733,"2601 EAST DESERT COVE AVENUE","PHOENIX","AZ","85028"
142734,"2601 EAST MCCARTY LANE","SAN MARCOS","TX","78666"
142735,"2601 EAST MICHIGAN BLVD","MICHIGAN CITY","IN","46360"
142736,"2601 EAST THUNDERHILL PLACE","PHOENIX","AZ","85048"
142737,"2601 EMOGENE ST","MOBILE","AL","36606"
142738,"2601 EVANS AVE","FORT WORTH","TX","76104"
142739,"2601 EVERS COURT","CHESAPEAKE","VA","23324"
142740,"2601 FARGO DR","BIRMINGHAM","AL","35226"
142741,"2601 FERDINAND AVE","HONOLULU","HI","96822"
142742,"2601 GHOLSON ROAD","WACO","TX","76704"
142743,"2601 GULF DRIVE NORTH STE 617","BRADENTON BEACH","FL","34217"
142744,"2601 HARPER ST","LAWRENCE","KS","66046"
142745,"2601 HIGHFIELD DRIVE","W","NC","27893"
142746,"2601 HUTH ROAD","RICHMOND","VA","23224"
142747,"2601 JESS NEELY DRIVE","NASHVILLE","TN","37212"
142748,"2601 KATHARINE STINSON DR STE 3229","RALEIGH","NC","27695"
142749,"2601 LA FRONTERA BLVD  STE 1114","ROUND ROCK","TX","78681"
142750,"2601 LAPEER RD","AUBURN HILLS","MI","48326"
142751,"2601 LEPAGE STREET  SUITE 201","NEW ORLEANS","LA","70119"
142752,"2601 MAIN ST 1100","IRVINE","CA","92614"
142753,"2601 MAIN STREET SUITE 560","IRVINE","CA","92614"
142754,"2601 MANASSAS WAY","COLORADO SPRINGS","CO","80922"
142755,"2601 MESA DRIVE","MARRERO","LA","70072"
142756,"2601 MICHAELSON WAY","JACKSONVILLE","FL","32223"
142757,"2601 MILAM BLVD","WEST ORANGE","TX","77630"
142758,"2601 MORNINGSIDE DR","EAU CLAIRE","WI","54703"
142759,"2601 N 41ST ST","FAIRMONT CITY","IL","62201"
142760,"2601 N CRESTHAVEN AVE H404","SPRINGFIELD","MO","65803"
142761,"2601 N FREMONT BLVD","FLAGSTAFF","AZ","86001"
142762,"2601 N GRAND AVE APT 116","SANTA ANA","CA","92705"
142763,"2601 N MORRISON ST","APPLETON","WI","54911"
142764,"2601 N REPSDORPH RD APT 802","SEABROOK","TX","77586"
142765,"2601 NE FIRST AVENUE","POMPANO BEACH","FL","33064"
142766,"2601 NE MADISON AVE","PEORIA","IL","61603"
142767,"2601 NOBLEWOOD CIRCLE / APT 1404","RALEIGH","NC","27604"
142768,"2601 NORTH CANYON ROAD","PROVO","UM","84604"
142769,"2601 NORTHWEST 65 STREET","MIAMI","FL","33147"
142770,"2601 NUESTRA CASTILLO COURT 3305","SAN JOSE","CA","95127"
142771,"2601 NW 23RD BLVD APT 301","GAINESVILLE","FL","32605"
142772,"2601 NW 48 TERRACE","LAUFERDALE LAKES","FL","33313"
142773,"2601 OAKDALE RD H2107","MODESTO","CA","95355"
142774,"2601 OAKDALE ROAD STE H2-152","MODESTO","CA","95355"
142775,"2601 OAKDALE ROAD SUITE 154","MODESTO","CA","95355"
142776,"2601 OZARK ST","MENA","AR","71953"
142777,"2601 PACES RIDGE","ATLANTA","GA","30031"
142778,"2601 PADDOCK GATE COURT","HERNDON","VA","20171"
142779,"2601 PARKLAWN DR","KETTERING","OH","45440"
142780,"2601 PENNSYLVANIA AVENUE","BALTIMORE","MD","21217"
142781,"2601 PIEDMONT AVE","BERKELEY","CA","94704"
142782,"2601 PLUMCREEK CIRCLE","AUSTIN","TX","78703"
142783,"2601 POWELL AVENUE","MONROE","LA","71203"
142784,"2601 PRAIRIE ROAD","MADISON","WI","53711"
142785,"2601 QUEEN ELIZABETH BLVD","LEWISVILLE","TX","75056"
142786,"2601 RATTLER RD","SAN MARCOS","TX","78666"
142787,"2601 RATTLER ROAD","SAN MARCOS","TX","78666"
142788,"2601 READ STREET SUITE I-4 OFFICE A","COLUMBIA","SC","29204"
142789,"2601 RIVERSIDE DR SUITE 6","HOUSTON","TX","77004"
142790,"2601 ROSE AVE","CERES","CA","95357"
142791,"2601 ROSEMOUNT ROAD","SYLVA","NC","28779"
142792,"2601 S DAWSON ST","SEATTLE","WA","98108"
142793,"2601 S EVANSTON AVE","INDEPENDENCE","MO","64052"
142794,"2601 S MINNESOTA AVE STE 105-307","SIOUX FALLS","SD","57105"
142795,"2601 S MINNESOTA AVENUE STE 105-310","SIOUX FALLS","SD","57105"
142796,"2601 S PAVILLON CTR DR  UNIT 1112","LAS VEGAS","NV","89135"
142797,"2601 S PONTE VEDRA BLVD","PONTE VEDRA BEACH","FL","32082"
142798,"2601 SATURN DRIVE","INDIANAPOLIS","IN","46229"
142799,"2601 SATURN ST SUITE 210","BREA","CA","92821"
142800,"2601 SHALLOWFORD RD","MARIETTA","GA","30066"
142801,"2601 SHALLOWFORD ROAD","MARIETTA","GA","30066"
142802,"2601 SIMPSON ST","EVANSTON","IL","60201"
142803,"2601 SOUTH MILITARY TRAIL SUITE 12","WEST PALM BEACH","FL","33415"
142804,"2601 SOUTH PAVILION CTR DR- 1106","LAS VEGAS","NV","89135"
142805,"2601 SOUTH PONTE VEDRA BLVD","PONTE VEDRA BEACH","FL","32082"
142806,"2601 SULLIVAN AVE","KAUKAUNA","WI","54130"
142807,"2601 UNIVERSITY DR S","FARGO","ND","58103"
142808,"2601 W 12TH ST","LITTLE ROCK","AR","72202"
142809,"2601 W 63RD STREET","CHICAGO","IL","60629"
142810,"2601 W 9TH STREET","CHESTER","PA","19013"
142811,"2601 W AVENUE N ASU STATION 11038","SAN ANGELO","TX","76909"
142812,"2601 W LAKE AVE","PEORIA","IL","61615"
142813,"2601 W MARINA PL","SEATTLE","WA","98199"
142814,"2601 W TICONDEROGA DRIVE","MARION","IN","46952"
142815,"2601 W WELLSTON RD","AVON PARK","FL","33825"
142816,"2601 WHEATLAND WOODS DRIVE","FREDERICKBURG","VT","22408"
142817,"2601 WOODLAND PARK DRIVE APT 5314","HOUSTON","TX","77077"
142818,"2601","SAN ANGELO","TX","76901"
142819,"26010 HIGHWAY 189","TWIN PEAKS","CA","92391"
142820,"26010 HOPE","REDFORD","MI","48239"
142821,"26010 S WARNOCK RD","ESTACADA","OR","97023"
142822,"26011 LATHRUP BVD","LATHRUP VILLAGE","MI","48076"
142823,"2602 2ND AVE W","PALMETTO","FL","34221"
142824,"2602 ABEDUL ST","CARLSBAD","CA","92009"
142825,"2602 ALDEN CT","COVINGTON","KY","41011"
142826,"2602 ALIA CIRCLE","LOUISVILLE","KY","40222"
142827,"2602 ASPEN TREE CT","HOUSTON","TX","77014"
142828,"2602 AVENUE U STE 254","BROOKLYN","NY","11229"
142829,"2602 BALLSTON COURT","BOWIE","MD","20721"
142830,"2602 BALLSTON CT","BOWIE","MD","20721"
142831,"2602 BERMUDA LAKE DR APT 102","BRANDON","FL","33510"
142832,"2602 CONCORD ST","FLINT","MI","48504"
142833,"2602 DE SOTO DRIVE","AUSTIN","TX","78733"
142834,"2602 DORA STREET","FORT MYERS","FL","33901"
142835,"2602 E 137TH AVE","THORNTON","CO","80602"
142836,"2602 E 20TH ST UNIT 204","SIGNAL HILL","CA","90755"
142837,"2602 E 9TH AVE","TAMPA","FL","33605"
142838,"2602 E POWERS AVENUE","FRESNO","CA","93720"
142839,"2602 E PRYOR DR","FRESNO","CA","93720"
142840,"2602 E SAHUARO DR","PHOENIX","AZ","85028"
142841,"2602 HAMPTON STREET","HOUSTON","TX","77088"
142842,"2602 HOLLYWOOD DR","ARLINGTON","TX","76013"
142843,"2602 HUGHES RD","ADELPHI","MD","20783"
142844,"2602 JOHNSWOOD VILLAGE DR","BRYANT","AR","72022"
142845,"2602 LEJUENE RD","WAYCROSS","GA","31501"
142846,"2602 MARLING DRIVE","COLUMBIA","SC","29204"
142847,"2602 MEADOW LANE","LA MARQUE","TX","77568"
142848,"2602 MEADOW LANE","LAMARQUE","TX","77568"
142849,"2602 MONTE GRANDE DR","SAN JUAN","TX","78589"
142850,"2602 N 24TH ST","OMAHA","NE","68110"
142851,"2602 N 26TH STREET","PHILADELPHIA","PA","19132"
142852,"2602 N LOOP 1604 W SUITE 111","SAN ANTONIO","TX","78248"
142853,"2602 N ROAD 72","PASCO","WA","99301"
142854,"2602 NEBRASKA AVE","TOLEDO","OH","43607"
142855,"2602 OAKSTONE DR","COLUMBUS","OH","43231"
142856,"2602 PARK PLACE","BURLINGTON","IA","52601"
142857,"2602 POTOMAC DRIVE","EULESS","TX","76040"
142858,"2602 QUENTIN ROAD","BROOKLYN","NY","11229"
142859,"2602 REDFIELD COURT","OWENS CROSS ROADS","AL","35763"
142860,"2602 ROSEWAE DR","YOUNGSTOWN","OH","44511"
142861,"2602 SE 7TH COURT","BENTONVILLE","AR","72712"
142862,"2602 SOUTH 99TH AVENUE","OMAHA","NE","68124"
142863,"2602 STATE ROUTE 39 NW","DOVER","OH","44622"
142864,"2602 SUGAR MAPLE COURT","MONMOUTH JUNCTION","NJ","08852"
142865,"2602 SW RACQUET CLUB DRIVE","PALM CITY","FL","34990"
142866,"2602 TANTELON PLACE","WINSTON-SALEM","NC","27127"
142867,"2602 TORREY PINES DRIVE","BRENTWOOD","CA","94513"
142868,"2602 US HIGHWAY 2 EAST","KALISPELL","MT","59901"
142869,"2602 W AUER AVE","MILWAUKEE","WI","53206"
142870,"2602 W PARK STREET","PHOENIX","AZ","85041"
142871,"2602 W VERNON AVENUE","KINSTON","NC","28504"
142872,"2602 WEST STATE BLVD","FORT WAYNE","IN","46808"
142873,"2602 WHITE BLUFF LANE","HOUSTON","TX","77038"
142874,"2602 WOODLAND AVE","BALTIMORE","MD","21215"
142875,"26020 ALIZIA CANYON DRIVE UNIT D","CALABASAS","CA","91302"
142876,"26020 BELLE PORTE AVE","HARBOR CITY","CA","90710"
142877,"26020 PEAR ORCHARD RD","MOSELEY","VA","23102"
142878,"26020 WOODVILLA","SOUTHFIELD","MI","48076"
142879,"26023 REGENCY CLUB LN APT 18","WARREN","MI","48089"
142880,"26025 GRASSLAND AVENUE","TOMAH","WI","54660"
142881,"26025 NEWPORT ROAD STE A152","MENIFEE","CA","92584"
142882,"26026 PATRIOTS WAY","GEORGETOWN","DE","19947"
142883,"26026 PATRIUT WAY","GEORGTWON","DE","19947"
142884,"26027 E 731 RD","WAGONER","OK","74467"
142885,"2603 39TH AVE NE D202","ST ANTHONY","MN","55421"
142886,"2603 74TH PLACE","LUBBOCK","TX","79423"
142887,"2603 ACE ROAD","ORLANDO","FL","32804"
142888,"2603 ADDISON AVE","AUSTIN","TX","78757"
142889,"2603 ANGIER AVE","DURHAM","NC","27703"
142890,"2603 AVALON DRIVE","COLUMBUS","GA","43219"
142891,"2603 BANKS CIRCLE","VALDOSTA","GA","31602"
142892,"2603 DOUGLAS PLACE SE APT 302","WASHINGTON","DC","20020"
142893,"2603 E SOUTH STREET","ORLANDO","FL","32803"
142894,"2603 FAIRVIEW STREET","BELLEVUE","NE","68147"
142895,"2603 GAMBLIN DR","SANTA CLARA","CA","95051"
142896,"2603 KENHILL DRIVE","BOWIE","MD","20715"
142897,"2603 LANGDON FARM RD","CINCINNATI","OH","45212"
142898,"2603 MAGGIORE CIR","KISSIMMEE","FL","34746"
142899,"2603 MAITLAND CENTER PKWY","MAITLAND","FL","32751"
142900,"2603 MAITLAND CROSSING WAY 10203","ORLANDO","FL","32810"
142901,"2603 MANFORD STREET","FORT WAYNE","IN","46806"
142902,"2603 MICHAEL WAYNE RD","ROSAHRON","TX","77583"
142903,"2603 NOEL AVE","MIDLAND","TX","79705"
142904,"2603 NORTH COLLEGE STREET","AUBURN","AL","36830"
142905,"2603 NW 13 STREET 412","GAINESVILLE","FL","32609"
142906,"2603 NW 13TH STREET NUM 164","GAINESVILLE","FL","32609"
142907,"2603 NW 13TH STREET SUITE 327","GAINESVILLE","FL","32609"
142908,"2603 ROLLING BROAK DR","ORLANDO","FL","32837"
142909,"2603 SANDALWOOD DR","ATLANTA","GA","30350"
142910,"2603 SILVERDALE DRIVE","SILVER SPRING","MD","20906"
142911,"2603 SOUTH DARIEN STREET","PHILADELPHIA","PA","19148"
142912,"2603 STOWELL CIRCLE","HONOLULU","HI","96818"
142913,"2603 SW 121 TERRACE","MIRAMAR","FL","33025"
142914,"2603 THOREAU DR","MAGNA","UT","84044"
142915,"2603 US HIGHWAY 6","PORTAGE","IN","46368"
142916,"2603 W GLASS AVE","SPOKANE","WA","99205"
142917,"2603 WOODHILL CIR","EAST POINT","GA","30344"
142918,"26030 GUYS MILLS ROAD","MEADVILLE","PA","16335"
142919,"26030 ROSALIE","HARRISON TOWNSHIP","MI","48045"
142920,"26035 MOULTON PKWY   SUITE 24","LAGUNA HILLS","CA","92653"
142921,"26035 SILVER TIMBERS LANE","KATY","TX","77494"
142922,"26036 FAISON LANE","JOPLIN","MO","64801"
142923,"26038 N 17TH AVENUE","PHOENIX","AZ","85085"
142924,"2604 AGA DRIVE","ALEXANDRIA","MN","56308"
142925,"2604 ARIZONA AVE","EL PASO","TX","79930"
142926,"2604 AVIATION BOULEVARD APARTMENT B","REDONDO BEACH","CA","90278"
142927,"2604 B EL CAMINO REAL - SUITE 256","CARLSBAD","CA","92008"
142928,"2604 BAINBRIDGE AVE SUITE 1A","BRONX","NY","10458"
142929,"2604 BENTLEY DRIVE","PALM HARBOR","FL","34684"
142930,"2604 BOMBING RANGE RD","WEST RICHLAND","WA","99353"
142931,"2604 CAMPOBELLO AVENUE","NORTH LAS VEGAS","NV","89081"
142932,"2604 CATSKILL ST","TEMPLE HILLS","MD","20748"
142933,"2604 COX ROAD","MARENGO","IL","60152"
142934,"2604 DERING GATE DRIVE","MARRIETA","GA","30066"
142935,"2604 DUMBARTON ROAD","FAYETTEVILLE","NC","28306"
142936,"2604 E CAPITOL DRIVE","SHOREWOOD","WI","53211"
142937,"2604 E NICHOLS CIRCLE","CENTENNIAL","CO","80122"
142938,"2604 EASTON SPRINGS CT","PEARLAND","TX","77584"
142939,"2604 EMERSON FOREST PKWY","SOUTH BEND","IN","46614"
142940,"2604 FAIRWAY DRIVE","BELLEVILLE","IL","62220"
142941,"2604 FEDERAL STREET","PHILADELPHIA","PA","19146"
142942,"2604 FLAT ROCK ROAD","LOUISVILLE","KY","40245"
142943,"2604 FOXRUN","MAGNOLIA","AR","71753"
142944,"2604 GILBERTE COURT","TRACY","CA","95304"
142945,"2604 GRANT AVE","EL PASO","TX","79930"
142946,"2604 HEARTLAND DR NW","ROCHESTER","MN","55901"
142947,"2604 HIGHLAND DR NE","CLEVELAND","TN","37312"
142948,"2604 HUNTERS POND RUN 32","CHAMPAIGN","IL","61820"
142949,"2604 JEFFERSON AVENUE","OGDEN","UT","84401"
142950,"2604 LUCAS DRIVE","FORT WORTH","TX","76119"
142951,"2604 MANGO TREE DRIVE","EDGEWATER","FL","32141"
142952,"2604 MARIA STREET","PLEASANTON","CA","94588"
142953,"2604 N GREENWOOD ST","LA GRANDE","OR","97850"
142954,"2604 NOTTINGHAM DRIVE","DENTON","TX","76209"
142955,"2604 PAIGE CIRCLE","PANAMA CITY","FL","32405"
142956,"2604 PISGAH ROAD","FLORENCE","SC","29501"
142957,"2604 SE 93RD STREET","MOORE","OK","73160"
142958,"2604 SELLERS LANE","WILMINGTON","DE","19802"
142959,"2604 SINGAPORE DR","BIRMINGHAM","AL","35211"
142960,"2604 SLAGLE ROAD","LEESVILLE","LA","71446"
142961,"2604 SPRINGHILL DRIVE NW","ROANOKE","VA","24017"
142962,"2604 SR 60E 1074","VALRICO","FL","33595"
142963,"2604 TEESIDE CT","KISSIMMEE","FL","34746"
142964,"2604 W GARY ST","BROKEN ARROW","OK","74012"
142965,"2604 W PALMER DR","PAYSON","AZ","85541"
142966,"2604 ZODIAC DRIVE","GARLAND","TX","75044"
142967,"2604-B EL CAMINO REAL  NO 381","CARLSBAD","CA","92008"
142968,"2604-B EL CAMINO REAL SUITE 385","CARLSBAD","CA","92008"
142969,"26040 MARLOWE PLACE","OAK PARK","MI","48237"
142970,"26041 AURORA ROAD TRLR 87","BEDFORD HEIGHTS","OH","44146"
142971,"26045 RED CORRAL ROAD","LAGUNA HILLS","CA","92653"
142972,"26047 JEFFERSON AVE SUITE B","MURRIETA","CA","92562"
142973,"2605 19TH ST","ALAMOGORDO","NM","88310"
142974,"2605 3RD ST","WASHINGTON DC","DC","20002"
142975,"2605 4TH ST NE 2","WASHINGTON","DC","20002"
142976,"2605 ADAMS RD","NILES","MI","49120"
142977,"2605 ADCOX PLACE","RALEIGH","NC","27610"
142978,"2605 ARBOR STREET","HOUSTON","TX","77004"
142979,"2605 ARBOR","HOUSTON","TX","77004"
142980,"2605 BAILEY RD","FOREST HILL","MD","21050"
142981,"2605 BEN HILL RD","ATLANTA","GA","30344"
142982,"2605 BENTLEY RD APT  3208","MARIETTA","GA","30067"
142983,"2605 BRIDLEWOOD LANE SE","ATLANTA","GA","30339"
142984,"2605 BROAD AVE NW","CANTON","OH","44718"
142985,"2605 BROADMOOR BLVD","MONROE","LA","71201"
142986,"2605 BROOKSIDE DRIVE","BAKERSFIELD","CA","93311"
142987,"2605 CAMINO TASSAJARA UNIT 2483","DANVILLE","CA","94526"
142988,"2605 COCHISE TRAIL","WINTER PARK","FL","32789"
142989,"2605 COX DISTRICT ROAD","WOODSTOCK","VT","05091"
142990,"2605 E 8TH STREET","GREELEY","CO","80631"
142991,"2605 ELMS PLANTATION BLVD APT 935","NORTH CHARLESTON","SC","29406"
142992,"2605 EVERETT ST","LINCOLN","NE","68502"
142993,"2605 EVERGREEN CR","BEATRICE","NE","68310"
142994,"2605 EVERGREEN RD","TOLEDO","OH","43606"
142995,"2605 FIRESIDE TRL SW","CONYERS","GA","30094"
142996,"2605 FRANCES LN","LITTLE ELM","TX","75068"
142997,"2605 HIGHLAND AVE 25","NATIONAL CITY","CA","91950"
142998,"2605 K ST APT 5","LINCOLN","NE","68510"
142999,"2605 K ST APT 9","LINCOLN","NE","68510"
143000,"2605 KELLEYTOWN RD","MCDONOUGH","GA","30252"
