"ID","Address","City","State","Zip"
69001,"1511 W COUNTY RD 525 S","OAKLAND CITY","IN","47660"
69002,"1511 W LUDINGTON ST","IRON MOUNTAIN","MI","49801"
69003,"1511 W ROAD 5 N","CHINO VALLEY","AZ","86323"
69004,"1511 W US HWY 70","PLAINVIEW","TX","79072"
69005,"1511 WHITE POST RD","CEDAR PARK","TX","78613"
69006,"1511 WHITEWATER FALLS DR","ORLANDO","FL","32824"
69007,"1511 WOODLAND TERRACE","PITTSBURG","KS","66762"
69008,"15110 BANKFIELD DRIVE","WATERFORD","VA","20197"
69009,"15110 LEEWARD DR APT 102","CORPUS CHRISTI","TX","78418"
69010,"15110 MACADAM ROAD SOUTH A103","TUKWILA","WA","98188"
69011,"15110 NASHUA LANE","BOWIE","MD","20716"
69012,"15111 CEDAR ST","SANTA FE","TX","77517"
69013,"15111 E SPRAGUE AVE","SPOKANE VALLEY","WA","99037"
69014,"15111 MILES AVE","CLEVELAND","OH","44128"
69015,"15111 TRAIL RIDGE ROAD","CUMBERLAND","MD","21502"
69016,"15112 MARTHA ST","VAN NUYS","CA","91411"
69017,"15112 S EVERS","DOLTON","IL","60409"
69018,"15112 SAPLING LANE","FONTANA","CA","92336"
69019,"15114 HONSENA DRIVE","CENTREVILLE","VA","20120"
69020,"15114 NW 134TH TERR","ALACHUA","FL","32615"
69021,"15114 RIPPLEWIND LANE","HOUSTON","TX","77068"
69022,"15114 WOODSTONE DRIVE","PRAIRIEVILLE","LA","70769"
69023,"15115 CAROLINA DOVE RD","WEEKI WACHEE","FL","34614"
69024,"15115 CAVE CREEK DR","HUMBLE","TX","77346"
69025,"15115 DURMAST COURT","MINT HILL","NC","28227"
69026,"15115 FOWLER AVENUE","OMAHA","NE","68116"
69027,"15115 NW GILLIHAN RD","PORTLAND","OR","97231"
69028,"15115 PEAIRS RD","PRIDE","LA","70770"
69029,"15115 ROXFORD ST UNIT 104","SYLMAR","CA","91342"
69030,"15115 ROXFORD ST UNIT 113","SYLMAR","CA","91342"
69031,"15115 ROXFORD STREET UNIT 104","SYLMAR","CA","91342"
69032,"15115 ROXFORD STREET UNIT 129","SYLMAR","CA","91342"
69033,"15115 SW SEQUOIA PKWY SUITE 170","PORTLAND","OR","97224"
69034,"15116 GRASSINGTON DR","CHANNELVIEW","TX","77530"
69035,"15116 WATERMILL LAKE TRAIL","MIDLOTHIAN","VA","23112"
69036,"15117 INDUSTRIAL ROAD","OMAHA","NE","68144"
69037,"15118 119TH AVE NE","KIRKLAND","WA","98034"
69038,"15118 DAVIS TRACE DRIVE","MINT HILL","NC","28227"
69039,"15118 E PURDUE AVE APT E","AURORA","CO","80014"
69040,"15118 FOUR WINDS DRIVE","MISSOURI CITY","TX","77489"
69041,"15118 PENDIO DR","BELLA COLLINA","FL","34756"
69042,"15119 PARALLEL RD","BASEHOR","KS","66007"
69043,"15119 SALEM CT","REDFORD","MI","48239"
69044,"1512 1/4 HI POINT STREET","LOS ANGELES","CA","90035"
69045,"1512 1ST AVE 101A","CORALVILLE","IA","52241"
69046,"1512 1ST AVENUE SOUTHEAST","QUINCY","WA","98848"
69047,"1512 27TH STREET SOUTH","HONDO","TX","78861"
69048,"1512 4TH STREET","GOLDTHWAITE","TX","76844"
69049,"1512 5TH ST NE","MINNEAPOLIS","MN","55413"
69050,"1512 7TH AVENUE FL 2","BEAVER FALLS","PA","15010"
69051,"1512 BAPTIST RIDGE RD","HILHAM","TN","38568"
69052,"1512 BIDWELL RD","MUSCATINE","IA","52761"
69053,"1512 BLANDFORD CT","SCHAUMBURG","IL","60173"
69054,"1512 BROWNSTONE COURT","TARENTUM","PA","15084"
69055,"1512 BURLINGAME AVENUE","BURLINGAME","CA","94010"
69056,"1512 CEDAR BROOK CT","ALLEN","TX","75002"
69057,"1512 CLYDESDALE DR SE","SALEM","OR","97317"
69058,"1512 COUNTRY CLUB RD","COLUMBUS","OH","43227"
69059,"1512 COUNTY ROAD I","OSHKOSH","WI","54902"
69060,"1512 D ST","FLORESVILLE","TX","78114"
69061,"1512 DEBORAH ROAD SE 184","RIO RANCHO","NM","87124"
69062,"1512 E 12TH AVENUE  UNIT 108","TAMPA","FL","33605"
69063,"1512 E 97TH STREET APT D","KANSAS CITY","MO","64131"
69064,"1512 EAST 12 AVENUE 351","TAMPA","FL","33605"
69065,"1512 EKIN AVENUE","NEW ALBANY","IN","47150"
69066,"1512 ELEANOR DRIVE","HASLET","TX","76052"
69067,"1512 GRANT STREET","ST PAUL","NE","68873"
69068,"1512 IRALOU RD","JACKSONVILLE","FL","32254"
69069,"1512 ISLAND BLVD","AVENTURA","FL","33160"
69070,"1512 JACKSON ST","PORT LAVACA","TX","77979"
69071,"1512 JACKSON STREET","PORT LAVACA","TX","77979"
69072,"1512 JESSE LANE","GOLDEN","CO","80403"
69073,"1512 KINGSMILL CT","COPPELL","TX","75019"
69074,"1512 LARIMER ST  UNIT 17","DENVER","CO","80202"
69075,"1512 LARIMER ST UNIT 6","DENVER","CO","80202"
69076,"1512 LARIMER STREET    SUITE 100","DENVER","CO","80202"
69077,"1512 LARIMER STREET  SUITE 100","DENVER","CO","80202"
69078,"1512 LAUREL STREET","COLUMBIA","SC","29201"
69079,"1512 LYNCREST AVE","JACKSON","MS","39202"
69080,"1512 LYNDALE AVE","EAU CLAIRE","WI","54701"
69081,"1512 MATCHPOINT LANE","PANAMA CITY BEACH","FL","32413"
69082,"1512 MCBRIEN ROAD","EAST RIDGE","TN","37412"
69083,"1512 MT EPHRAIM AVENUE","CAMDEN","NJ","08104"
69084,"1512 N 11TH ST","ST JOSEPH","MO","64501"
69085,"1512 N BARKER RD","SPOKANE VALLEY","WA","99016"
69086,"1512 N GRANDVIEW STE A","ODESSA","TX","79761"
69087,"1512 N WILLOW ST","AVOCA","IA","51521"
69088,"1512 NW 25 AVENUE","MIAMI","FL","33125"
69089,"1512 NW 7 TERRACE","FORT LAUDERDALE","FL","33311"
69090,"1512 NW 7TH ST","POMPANO BEACH","FL","33069"
69091,"1512 PALISADE AVE 15H","FORT LEE","NJ","07024"
69092,"1512 PALISADE AVENUE APT 20N","FORT LEE","NJ","07024"
69093,"1512 PANTHER LOOP","PFLUGERVILLE","TX","78660"
69094,"1512 PORTLAND AVE  NUMBER 1","LOUISVILLE","KY","40203"
69095,"1512 RABY AVE","SHELBYVILLE","TN","37160"
69096,"1512 RISING RIDGE RD","MOUNT AIRY","MD","21771"
69097,"1512 ROSS AVENUE","SCRANTON","PA","18509"
69098,"1512 RUNNYMEDE LN","CHARLOTTE","NC","28211"
69099,"1512 SANDBRIDGE RD","VIRGINIA BEACH","VA","23456"
69100,"1512 SCHLEY STREET APT 1","HILLSIDE","NJ","07205"
69101,"1512 SILVERLEAF DRIVE","CARROLLTON","TX","75007"
69102,"1512 SOUTH EUCLID STREET","ANAHEIM","CA","92802"
69103,"1512 SOUTH HOMAN AVE","CHICAGO","IL","60623"
69104,"1512 SWEET BRANCH TRL","GRAYSON","GA","30017"
69105,"1512 TALLWOOD CIRCLE","CHESAPEAKE","VA","23320"
69106,"1512 TARKLIN ROAD","HARRISVILLE","RI","02916"
69107,"1512 TINA LANE","KISSIMMEE","FL","34744"
69108,"1512 TRULY STREET","CEDAR HILL","TX","75104"
69109,"1512 TYNE BLVD","NASHVILLE","TN","37215"
69110,"1512 VAUGINE","PINE BLUFF","AR","71601"
69111,"1512 W 16TH STREET","RIVIERA BEACH","FL","33404"
69112,"1512 W COBBLESTONE CT","ANDOVER","KS","67002"
69113,"1512 W FAIRWAY DRIVE","SPOKANE","WA","99218"
69114,"1512 W NICHOLS ST","SPRINGFIELD","MO","65802"
69115,"1512 WALPOLE DRIVE","CHESTERFIELD","MO","63017"
69116,"1512 WALTHAM WAY","CHESAPEAKE","VA","23320"
69117,"1512 WATERSIDE DRIVE N","CHESAPEAKE","VA","23320"
69118,"1512 WEST 525 SOUTH","OREM","UT","84058"
69119,"1512 WEST AVENUE","RICHMOND","VA","23220"
69120,"1512 WEST MOLINE STREET","MALVERN","AR","72104"
69121,"1512 WHISPERING PINES DRIVE","KATY","TX","77493"
69122,"1512 WILDWOOD CT","FORT COLLINS","CO","80521"
69123,"1512 WOODHILL ROAD","BURNSVILLE","MN","55337"
69124,"15120  CHRISTOPHER ST","ADELANTO","CA","92301"
69125,"15120 CHRISTOPHER ST","ADELANTO","CA","92301"
69126,"15120 CRISTOPHER ST","ADELANTO","CA","92301"
69127,"15120 ENTERPRISE CT STE 101","CHANTILLY","VA","20151"
69128,"15120 PALOMINO VALLEY PL","SAN DIEGO","CA","92127"
69129,"15120 WRIGHT COURT","FONTANA","CA","92336"
69130,"15121 NE 201 ST","WOODINVILLE","WA","98072"
69131,"15121 SW 147 PLACE","MIAMI","FL","33196"
69132,"15121 W 156TH TER","OLATHE","KS","66062"
69133,"15123 COPELAND WAY","BROOKSVILLE","FL","34604"
69134,"15123 N LEGION LN","BLUFORD","IL","62814"
69135,"15123 NW 128TH STREET","ALACHUA","FL","32615"
69136,"15123 OLDTOWN BRIDGE COURT","SUGARLAND","TX","77498"
69137,"15123 WINTER MEADOW CT","HUMBLE","TX","77396"
69138,"15124 BAREBACK DRIVE","JACKSONVILLE","FL","32234"
69139,"15124 MIDDLEGATE RD","SILVER SPRING","MD","20905"
69140,"15124 NANCY GIBBONS TERR","UPPER MARLBORO","MD","20774"
69141,"15124 W 63RD AVE","ARVADA","CO","80403"
69142,"15125 BRADDOCK ROAD","CENTREVILLE","VA","20120"
69143,"15125 LORTIE ROAD","MONROEVILLE","IN","46773"
69144,"15125 TAMPA ROAD","SAINT ROBERT","MO","65584"
69145,"15125 US HWY 19 SOUTH PMB 379","THOMASVILLE","GA","31792"
69146,"15127 HERONGLEN DR","LITHIA","FL","33547"
69147,"15127 MAIN ST E STE 104 PMB 405","SUMNER","WA","98390"
69148,"15127 MAIN ST E SUITE 104 PMB 432","SUMNER","WA","98390"
69149,"15127 NE 24TH ST 106","REDMOND","WA","98052"
69150,"15127 NE 24TH ST STE 571","REDMOND","WA","98052"
69151,"15127 NE 24TH ST STE 766","REDMOND","WA","98052"
69152,"15127 NE 24TH STREET - 301","REDMOND","WA","98052"
69153,"15127 NE 24TH STREET 411","REDMOND","WA","98052"
69154,"15127 NE 24TH STREET SUITE 301","REDMOND","WA","98052"
69155,"15127 SNOWHILL COURT","SUGARLAND","TX","77498"
69156,"15127 STILLFIELD PL","CENTREVILLE","VA","20120"
69157,"15127 WYNDHAM OAKS DRIVE","CHARLOTTE","NC","28277"
69158,"15128 E VERMILLION DRIVE","FOUNTAIN HILLS","AZ","85268"
69159,"15128 GOODTIME CT","CARMEL","IN","46032"
69160,"15128 SUNSET DRIVE","NORTHPORT","AL","35475"
69161,"15129 CROSS STONE DR","SAN DIEGO","CA","92127"
69162,"15129 GLENWOOD AVE","OVERLAND PARK","KS","66223"
69163,"1513 2ND AVE N","GREAT FALLS","MT","59401"
69164,"1513 5TH AVENUE NORTH","BIRMINGHAM","AL","35203"
69165,"1513 BETHLEHEM RD","ALLEN","TX","75002"
69166,"1513 BORDEAUX LANE","CONYERS","GA","30094"
69167,"1513 BOSTWYCK PLACE APT 104","CHESAPEAKE","VA","23320"
69168,"1513 BYRD AVENUE","BOGALUSA","LA","70427"
69169,"1513 CAMARGO LANE","RALEIGH","NC","27604"
69170,"1513 CAROL CIRCLE","MIDFIELD","AL","35228"
69171,"1513 CONCEPTS 21 DR","NORCROSS","GA","30092"
69172,"1513 CRAWFORD WOOD DRIVE","MIDLOTHIAN","VA","23114"
69173,"1513 CROSSTIMBERS DR","LOUISVILLE","KY","40245"
69174,"1513 DALEWOOD DRIVE","JACKSONVILLE","FL","32211"
69175,"1513 DIAMOND CREEK LN","KENNEDALE","TX","76060"
69176,"1513 DUKE VALENTINE WYNNE ROAD","LOUISBURG","NC","27549"
69177,"1513 DUNSTER ROAD","ROCKVILLE","MD","20854"
69178,"1513 E FIFTH ST","DAYTON","OH","45403"
69179,"1513 E KALEY STREET","ORLANDO","FL","32806"
69180,"1513 EAST ELM STREET","ANAHEIM","CA","92805"
69181,"1513 EAST SECOND STREET","LUBBOCK","TX","79403"
69182,"1513 FAIRWAY DRIVE","LOS ALTOS","CA","94024"
69183,"1513 FALMOUTH DR","PLANO","TX","75025"
69184,"1513 FLORENCE AVE FLR 1","EVANSTON","IL","60201"
69185,"1513 FM 371","GAINESVILLE","TX","76240"
69186,"1513 FRANKLIN STREET","HILLSIDE","NJ","07205"
69187,"1513 HANCOCK STREET","PHILADELPHIA","PA","19122"
69188,"1513 HENDOLA DR NE","ALBUQUERQUE","NM","87110"
69189,"1513 JAMES LANDING","CHESAPEAKE","VA","23321"
69190,"1513 KENT STREET","FLINT","MI","48503"
69191,"1513 LOWER RICHLAND BLVD","HOPKINS","SC","29061"
69192,"1513 MADISON AVE","CINCINNATI","OH","45231"
69193,"1513 MONTROSE LANE","DESOTO","TX","75115"
69194,"1513 N LATROBE","CHICAGO","IL","60651"
69195,"1513 NE 23RD TERRACE","CAPE CORAL","FL","33909"
69196,"1513 NEWELL STREET","EVANSDALE","IA","50707"
69197,"1513 NORTH CENTRAL AVE","BURLINGTON","IA","52601"
69198,"1513 NORTHWOOD ROAD","AUSTIN","TX","78703"
69199,"1513 OAKVIEW DRIVE","LOGAN","UT","84321"
69200,"1513 PARK AVE","ASBURY PARK","NJ","07712"
69201,"1513 PEBBLE BAY COVE","ORLANDO","FL","32828"
69202,"1513 PLANK ST","THE VILLAGES","FL","32163"
69203,"1513 RAINY BRK","SCHERTZ","TX","78154"
69204,"1513 REDWOOD DR","WEST COLUMBIA","SC","29169"
69205,"1513 S FAIRLAWN AVE","EVANSVILLLE","IN","47714"
69206,"1513 S POINTE DRIVE","SIOUX FALLS","SD","57103"
69207,"1513 SALEM ROAD","SALEM TWP","ME","04983"
69208,"1513 SOUTH AVE P O BOX 1 COLVIN STA","SYRACUSE","NY","13207"
69209,"1513 SOUTH NEARGLEN AVE","GLENDORA","CA","91740"
69210,"1513 SOUTH TOWERS STREET","ANDERSON","SC","29624"
69211,"1513 SW 6TH STREET","BATTLE GROUND","OR","98604"
69212,"1513 SYDNEY LN","LYNN HAVEN","FL","32444"
69213,"1513 TAUROMEE AVENUE","KANSAS CITY","KS","66102"
69214,"1513 TIDEWATER DRIVE","MONROE","LA","71203"
69215,"1513 TOMAHAWK ROAD","BIRMINGHAM","AL","35214"
69216,"1513 W BRYN MAWR AVE","CHICAGO","IL","60660"
69217,"1513 W MONTANA","CHICAGO","IL","60614"
69218,"1513 W STOCKWELL ST","COMPTON","CA","90222"
69219,"1513 W STOCKWELL","COMPTON","CA","90220"
69220,"1513 WAVERLY AVENUE","TOLEDO","OH","43607"
69221,"1513 WILLOW OAK DRIVE","COLUMBIA","SC","29223"
69222,"15130 MARSH LANE","ADDISON","TX","75001"
69223,"15130 S UNION AVENUE","AYR","NE","68925"
69224,"15130 TIMBER FOREST DRIVE","HOUSTON","TX","77044"
69225,"15130 VERSAILLES ST","LAKE ELSINORE","CA","92530"
69226,"15131 CLEMENTE STREET","WESTMINSTER","CA","92683"
69227,"15131 ECHO CANYON ROAD","ANCHORAGE","AK","99516"
69228,"15131 FINTRY PLACE","MIAMI LAKES","FL","33016"
69229,"15131 HELIUM STREET NW","RAMSEY","MN","55303"
69230,"15132 E AUGUSTA DR","AUGUSTA","MI","49012"
69231,"15132 RANCHO OBISPO RD","PARAMOUNT","CA","90723"
69232,"15134 29 MILE RD","WASHINGTON","MI","48094"
69233,"15134 BLUEBIRD ST NW","ANDOVER","MN","55304"
69234,"15134 INDIANA AVE 43","PARAMOUNT","CA","90723"
69235,"15134 INDIANA AVENUE APT 40","PARAMOUNT","CA","90723"
69236,"15135 FAIRGROVE AVE","LA PUENTE","CA","91744"
69237,"15135 GARNET STREET NW","RAMSEY","MN","55303"
69238,"15135 GREEN WHISPER DRIVE","CYPRESS","TX","77433"
69239,"15135 MEMORIAL DRIVE APT 2107","HOUSTON","TX","77079"
69240,"15135 MEMORIAL DRIVE NUMBER 2310","HOUSTON","TX","77079"
69241,"15136 BURGESS COURT","BROOKSVILLE","FL","34604"
69242,"15136 CASTLEBRIDGE LANE","MATTHEWS","NC","28104"
69243,"15136 GRAND AVE 14","LAKE ELSINORE","CA","92530"
69244,"15136 PALMER LAKE CIRCLE 102","NAPLES","FL","34109"
69245,"15136 WHEELER RD BLDG","BEEKMAN","LA","71220"
69246,"15137 LA MAIDA ST","SHERMAN OAKS","CA","91403"
69247,"15138 CALLOW FOREST DRIVE","CHARLOTTE","NC","28273"
69248,"15138 LONG HOLE RIDGE","BRISTOL","VA","24202"
69249,"15139 RANCHO CENTINA ROAD","PARAMOUNT","CA","90723"
69250,"1513O WILDFIELD DR","SPRING LAKE","MI","49456"
69251,"1514 12TH STREET SOUTH","BROOKINGS","SD","57006"
69252,"1514 42ND STREET NE","AUBURN","WA","98002"
69253,"1514 ALDRA DR","FORT WORTH","TX","76120"
69254,"1514 ALGONQUIN DR","CEDAR FALLS","IA","50613"
69255,"1514 ALTA GLEN DRIVE - APT 13","SAN JOSE","CA","95125"
69256,"1514 AMBROSDEN LN","CHANNELVIEW","TX","77530"
69257,"1514 ANDREW DR","SAINT LOUIS","MO","63122"
69258,"1514 ARCH ST 2","NORRISTOWN","PA","19401"
69259,"1514 ARNOLD ST","LARAMIE","WY","82070"
69260,"1514 AUGUSTA DRIVE","ADA","OK","74820"
69261,"1514 AVENUE N 1/2","GALVESTON","TX","77550"
69262,"1514 BELMONT AVE","HOOD RIVER","OR","97031"
69263,"1514 BEVERLY ROAD","PHILADELPHIA","PA","19138"
69264,"1514 BLUE SKYE LN","RAYMORE","MO","64083"
69265,"1514 BROOKLAND PKWY","RICHMOND","VA","23227"
69266,"1514 CAMPBELL RD UNIT C","HOUSTON","TX","77055"
69267,"1514 CASCADE AVE","HOOD RIVER","OR","97031"
69268,"1514 CECILIA DR SE","ATLANTA","GA","30316"
69269,"1514 COYOTE CIR","CORONA","CA","92882"
69270,"1514 DAHILL ROAD","BROOKLYN","NY","11204"
69271,"1514 DEARING PL","TUSCALOOSA","AL","35401"
69272,"1514 E 12TH AVE","SPOKANE","WA","99202"
69273,"1514 E 63RD ST","CHICAGO","IL","60637"
69274,"1514 E 9TH AVE","SPOKANE","WA","99202"
69275,"1514 E CLEVELAND AVENUE SUITE 109","EAST POINT","GA","30344"
69276,"1514 E ZION ST","TULSA","OK","74106"
69277,"1514 EDGEWATER CIRCLE 4","FORT MYERS","FL","33919"
69278,"1514 FERNWOOD GLENDALE RD","SPARTANBURG","SC","29307"
69279,"1514 FLORENCE AVENUE","JACKSON","MS","39204"
69280,"1514 FOREST AVE APT 25","COLUMBUS","GA","31906"
69281,"1514 FRANKLIN ST UNIT 7","SANTA MONICA","CA","90404"
69282,"1514 GALLATIN PLACE NE","WASHINGTON","DC","20017"
69283,"1514 HACIENDA DRIVE","AMARILLO","TX","79111"
69284,"1514 HARDSCRABBLE RD","COLUMBIA","SC","29203"
69285,"1514 HARLEQUIN DR","LONGMONT","CO","80504"
69286,"1514 HODIAMONT AVE","ST LOUIS","MO","63112"
69287,"1514 HOLIDAY PL","NEW ORLEANS","LA","70114"
69288,"1514 HOLLY SWAMP ROAD","POCOMOKE CITY","MD","21851"
69289,"1514 HWY 43","ENTERPRISE","KS","67441"
69290,"1514 INDIANA ST","ORLANDO","FL","32805"
69291,"1514 JAMES STREET","PLATTSMOUTH","NE","68048"
69292,"1514 JUNCTION CITY RD","EL DORADO","AR","71730"
69293,"1514 JUNIOR COURT","LEHIGH ACRES","FL","33397"
69294,"1514 K ST","ORD","NE","68862"
69295,"1514 KANSAS  SUITE A","EAST ST LOUIS","IL","62201"
69296,"1514 KANSAS AVENUE","EAST ST LOUIS","IL","62201"
69297,"1514 KINGSLEY CIR N","SANDUSKY","OH","44870"
69298,"1514 LAKESHORE DR","SAINT CHARLES","MO","63303"
69299,"1514 LAKESHORE DRIVE","SAINT CHARLES","MO","63303"
69300,"1514 LYNNVIEW DR","HOUSTON","TX","77055"
69301,"1514 MARIGOLD","PERRIS","CA","92571"
69302,"1514 MCKEE STREET","COLUMBIA","MO","65202"
69303,"1514 MONTAUK HWY","WATER MILL","NY","11976"
69304,"1514 MOUNT EPHRAIM AVE","CAMDEN","NJ","08104"
69305,"1514 N 9TH ST","BELLEVUE","NE","68005"
69306,"1514 N CHURCH STREET","GREENSBORO","NC","27405"
69307,"1514 N WREN LN","BIRCHWOOD","WI","54817"
69308,"1514 NE DYSART WOODS LANE","BENTONVILLE","AR","72712"
69309,"1514 NORTH CAROLINE STREET UNIT B","BALTIMORE","MD","21213"
69310,"1514 NORTH EASY STREET","PAYSON","AZ","85541"
69311,"1514 NORTHWEST DR NW APT 8","ATLANTA","GA","30318"
69312,"1514 NW 183RD TERRACE","PEMBROKE PINES","FL","33029"
69313,"1514 ONSLOW PINES RD","JACKSONVILLE","NC","28540"
69314,"1514 OXFORD DR","MANSFIELD","TX","76063"
69315,"1514 PARKER ROAD","HIGHLAND PARK","NJ","08904"
69316,"1514 ROSE AVENUE","KILLEEN","TX","76543"
69317,"1514 S 48TH CT","CICERO","IL","60804"
69318,"1514 S VIRGINIA ST","AMARILLO","TX","79102"
69319,"1514 SEMINOLE ST 2 FL","BRONX","NY","10461"
69320,"1514 SILVER MORNING DR","KATY","TX","77540"
69321,"1514 SOUTH CURTIS DRIVE","URBANA","IL","61802"
69322,"1514 SOUTH LAVENTURE RD","MOUNT VERNON","WA","98274"
69323,"1514 SUMMER LANE","MIDLOTHIAN","TX","76065"
69324,"1514 SW RIMROCK WAY","REDMOND","OR","97756"
69325,"1514 SWEETGUM STREET","CONROE","TX","77385"
69326,"1514 SYLVAN WAY","LOUISVILLE","KY","40205"
69327,"1514 TOWNE DRIVE","ELLISVILLE","MO","63011"
69328,"1514 VENETIAN WAY DRIVE","WAXHAW","NC","28173"
69329,"1514 WASHINGTON BOULEVARD SUITE 507","DETROIT","MI","48226"
69330,"1514 WESCOTT LOOP","WINTER SPRINGS","FL","32708"
69331,"1514 WEST JONQUIL TERRACE 2W","CHICAGO","IL","60626"
69332,"1514","SPOKANE","WA","99205"
69333,"15140 MARTIN LUTHER KING BLVD","DOVER","FL","33527"
69334,"15140 OAK PARK BLVD","OAK PARK","MI","48237"
69335,"15140 RAYNETTE COURT","VISALIA","CA","93292"
69336,"15141 NW 6TH CT","PEMBROKE PINES","FL","33028"
69337,"15141 OAKS WEST DR","TYLER","TX","75704"
69338,"15141 SW 23RD LN","MIAMI","FL","33185"
69339,"15141 WHITTIER BLVD SUITE 530","WHITTIER","CA","90603"
69340,"15142 MASTHEAD LANDING CIR","WINTERGARDEN","FL","34787"
69341,"15143 LORD FAIRFAX HWY","WHITE POST","VA","22663"
69342,"15144 LOS ROBLES AVENUE","HACIENDA HEIGHTS","CA","91745"
69343,"15144 STATE HIGHWAY 20","SKIATOOK","OK","74070"
69344,"15144 WOODLORE DR","BATON ROUGE","LA","70816"
69345,"15147 BRYN MAWR DR","CLIVE","IA","50325"
69346,"15147 KEYES MEADOW WAY","HUNTERSVILLE","NC","28078"
69347,"15148 DURANT DR SE","YELM","WA","98597"
69348,"1515 - 12TH AVENUE","SEATTLE","WA","98122"
69349,"1515 11TH ST NW APT 2-2","WASHINGTON","DC","20001"
69350,"1515 11TH STREET","INTL FALLS","MN","56649"
69351,"1515 12TH AVE C/O RITA MEHER","SEATTLE","WA","98122"
69352,"1515 12TH ST","OROVILLE","CA","95965"
69353,"1515 7TH AVE SE","CEDAR RAPIDS","IA","52410"
69354,"1515 7TH ST NUM 341","SANTA MONICA","CA","90401"
69355,"1515 7TH ST PO BOX 310","SANTA MONICA","CA","90401"
69356,"1515 7TH STREET  156","SANTA MONICA","CA","90401"
69357,"1515 7TH STREET 62","SANTA MONICA","CA","90401"
69358,"1515 7TH STREET SUITE 234","SANTA MONICA","CA","90401"
69359,"1515 8TH AVE","FORT WORTH","TX","76104"
69360,"1515 ALLEN RD","KIMBALL","MI","48074"
69361,"1515 ARAPAHOE ST STE 500","DENVER","CO","80202"
69362,"1515 ARIA CT","WEST RICHLAND","WA","99353"
69363,"1515 BRIGHTON AVE","OKLAHOMA CITY","OK","73120"
69364,"1515 BRITTANY HILLS DR","DAYTON","OH","45459"
69365,"1515 BRODERICK ST 241","SAN FRANCISCO","CA","94115"
69366,"1515 BROOK MEADOW DR","LA PORTE","TX","77571"
69367,"1515 BURNT BOAT DR","BISMARCK","ND","58503"
69368,"1515 BURNT BOAT DRIVE- SUITE C 268","BISMARCK","ND","58503"
69369,"1515 BUSBEE RD LOT 22","GASTON","SC","29053"
69370,"1515 CALIFORNIA AVENUE","WAHIAWA","HI","96786"
69371,"1515 CAPALINA ROAD SPC 32","SAN MARCOS","CA","92069"
69372,"1515 CARRIAGE LANE","JONESBORO","GA","30238"
69373,"1515 CENTRAL AVENUE","FORT DODGE","IA","50501"
69374,"1515 CHAPEL STREET","DAYTON","OH","45404"
69375,"1515 CHERRYBROOK","PASADENA","TX","77502"
69376,"1515 COAST WALK","LA JOLLA","CA","92037"
69377,"1515 CROSSCREEK BLVD","PICKERINGTON","OH","43147"
69378,"1515 DEMONBREUN ST APT 814","NASHVILLE","TN","37203"
69379,"1515 DEVORE RD","DEVORE HEIGHTS","CA","92407"
69380,"1515 E 14TH STREET","FALLS CITY","NE","68355"
69381,"1515 E 25TH ST","HIBBING","MN","55746"
69382,"1515 E 54TH ST APT 1","CHICAGO","IL","60615"
69383,"1515 E 66TH ST","MINNEAPOLIS","MN","55423"
69384,"1515 E DANA PLACE","ORANGE","CA","92866"
69385,"1515 E DIVISADERO STREET SUITE 108","FRESNO","CA","93721"
69386,"1515 E KATELLA AVENUE UNIT 4138","ANAHEIM","CA","92805"
69387,"1515 E TIERRA BUENA LN","PHOENIX","AZ","85022"
69388,"1515 EAGLE BLUFF DRIVE","BOURBONNAIS","IL","60914"
69389,"1515 EAST 14TH ST","FALLS CITY","NE","68355"
69390,"1515 EAST 24TH AVE","COLUMBUS","OH","43211"
69391,"1515 EAST 3300 SOUTH","SALT LAKE CITY","UT","84106"
69392,"1515 EAST 46TH STREET","ASHTABULA","OH","44004"
69393,"1515 EAST KATELLA AVE UNIT 3101","ANAHEIM","CA","92805"
69394,"1515 EAST URSULINE","LUBBOCK","TX","79403"
69395,"1515 EAST WOODFIELD ROAD SUITE 880","SCHAUMBURG","IL","60173"
69396,"1515 EMERALD PLAZA","COLLEGE STATION","TX","77845"
69397,"1515 EUBANK BLVD MS-1082","ALBUQUERQUE","NM","87123"
69398,"1515 FORT STREET  UNIT 423","LINCOLN PARK","MI","48146"
69399,"1515 FORT STREET","LINCOLN PARK","MI","48146"
69400,"1515 FOXRIDGE CIRCLE","AUBURN","CA","95603"
69401,"1515 GORDY DR","SAN JOSE","CA","95131"
69402,"1515 HARMONY HILL DR","LUFKIN","TX","75901"
69403,"1515 HERITAGE DRIVE","HASTINGS","NE","68901"
69404,"1515 HERITAGE LN","FLORENCE","SC","29505"
69405,"1515 HOLCOMBE BLVD UNIT 097","HOUSTON","TX","77030"
69406,"1515 HWY 1194","MARKSVILLE","LA","71351"
69407,"1515 INTERNATIONAL PKWY STE 1001","LAKE MARY","FL","32746"
69408,"1515 KIRKWOOD AVENUE","NASHVILLE","TN","37212"
69409,"1515 KNOX RD 1550 N","DAHINDA","IL","61428"
69410,"1515 KOWALIGA ROAD","ECLECTIC","AL","36024"
69411,"1515 LAKE SHORE DRIVE","COLUMBUS","OH","43204"
69412,"1515 LATOUCHE STREET UNIT 3","ANCHORAGE","AK","99501"
69413,"1515 LINCOLN AVENUE UNIT D17","MT. DORA","FL","32757"
69414,"1515 LLOYD STREET","CUMBERLAND","WI","54829"
69415,"1515 LOCH LOMOND TRAIL","ATLANTA","GA","30331"
69416,"1515 LOPEZ LANDRON","SAN JUAN","PR","00911"
69417,"1515 MARKET ST STE 1200","PHILADELPHIA","PA","19102"
69418,"1515 MARKET STREET SUITE 1200","PHILADELPHIA","PA","19102"
69419,"1515 MARKET STREET","PHILADELPHIA","PA","19102"
69420,"1515 MATAGORDA DRIVE","DALLAS","TX","75232"
69421,"1515 MID-MEADOW LANE","FESTUS","MO","63028"
69422,"1515 MILLHOUS DRIVE","CARY","NC","27513"
69423,"1515 MOHAWK ST","WHEELING","IL","60090"
69424,"1515 MOULTON STREET WEST","DECATUR","AL","35601"
69425,"1515 N FLORENCE","CLAREMORE","OK","74017"
69426,"1515 N HARVARD AVE STE E","TULSA","OK","74115"
69427,"1515 N INTERSTATE 35 E","DESOTO","TX","75115"
69428,"1515 N KINGSHIGHWAY BLVD","ST LOUIS","MO","63113"
69429,"1515 N LAKE HAVASU AVE","LAKE HAVASU CITY","AZ","86403"
69430,"1515 N MCDIVITT","COMPTON","CA","90221"
69431,"1515 N MOHAWK ST UNIT 2","CHICAGO","IL","60610"
69432,"1515 N TOWN EAST BLVD  STE 138-621","MESQUITE","TX","75150"
69433,"1515 N TOWN EAST BLVD STE 138-346","MESQUITE","TX","75150"
69434,"1515 N TOWN EAST BLVD STE 138-414","MESQUITE","TX","75150"
69435,"1515 N WARSON ROAD STE 122","SAINT LOUIS","MO","63132"
69436,"1515 N WEBSTER AVE","DUNMORE","PA","18509"
69437,"1515 NE 22ND AVENUE","OCALA","FL","34470"
69438,"1515 NEWPORT DR","LAKEWOOD","NJ","08701"
69439,"1515 NORTH MARKET STREET","SAINT LOUIS","MO","63106"
69440,"1515 NORTH WARSON SUITE 209","ST. LOUS","MO","63132"
69441,"1515 NORTH WILLOW BEND COURT","CLARKSVILLE","TN","37043"
69442,"1515 NORTHVIEW ROAD","ROCKY RIVER","OH","44116"
69443,"1515 O STREET NW STE 106","WASHINGTON DC","DC","20005"
69444,"1515 OAK STREET","BRAINERD","MN","56401"
69445,"1515 PADRES CT","SAN JOSE","CA","95125"
69446,"1515 PENNSYLVANIA AVE 17H","BROOKLYN","NY","11239"
69447,"1515 POPLAR STREET","GREENSBURG","PA","15601"
69448,"1515 QUENDO AVENUE","UNIVERSITY CITY","MO","63130"
69449,"1515 RAYMOND STREET","SOUTH ELGIN","IL","60177"
69450,"1515 REISTERSTOWN RD FL 2ND","PIKESVILLE","MD","21208"
69451,"1515 REISTERSTOWN ROAD STE 200","PIKESVILLE","MD","21208"
69452,"1515 RINGLING BOULEVARD 10TH FL","SARASOTA","FL","34236"
69453,"1515 RIO GRANDE DRIVE  APT 111","PLANO","TX","75075"
69454,"1515 ROBERTS AVE","CLOVIS","CA","93611"
69455,"1515 ROSE ST","REDLANDS","CA","92374"
69456,"1515 S CENTER AVE","COMPTON","CA","90220"
69457,"1515 S CENTER AVENUE","COMPTON","CA","90220"
69458,"1515 S EXTENSION RD APARTMENT 3134","MESA","AZ","85210"
69459,"1515 S FEDERAL HWY","BOCA RATON","FL","33432"
69460,"1515 S NATIONAL","SPRINGFIELD","MO","65804"
69461,"1515 SCOTT ROAD","FORT WAYNE","IN","46814"
69462,"1515 SE RHONE ST","PORTLAND","OR","97202"
69463,"1515 SECRETARIAT DRIVE","COLUMBIA","MO","65202"
69464,"1515 SHAMROCK AVE","CAPITOL HEIGHTS","MD","20743"
69465,"1515 SHERWOOD AVE","EAST LANSING","MI","48823"
69466,"1515 SHORELANDS DR E","VERO BEACH","FL","32963"
69467,"1515 SLATER ST","TOLEDO","OH","43612"
69468,"1515 STATE ST","WASHINGTON","IN","47501"
69469,"1515 STORY AVANUE","LOUISVILLE","KY","40206"
69470,"1515 SW 10TH STREET","MIAMI","FL","33135"
69471,"1515 SW MULVANE STREET","TOPEKA","KS","66604"
69472,"1515 SYDNOR ST","HOUSTON","TX","77020"
69473,"1515 TAMIAMI TRAIL","PUNTA GORDA","FL","33950"
69474,"1515 VILLAGE WALK DR","ZIONSVILLE","IN","46077"
69475,"1515 VOORHEES AVE","MANHATTAN BEACH","CA","90266"
69476,"1515 VRAIN STREET APT 216","DENVER","CO","80204"
69477,"1515 W FAYETTE AVE","SPRINGFIELD","IL","62704"
69478,"1515 W MAIN ST","NORMAN","OK","73069"
69479,"1515 W WHITTIER BLVD","LA HABRA","CA","90631"
69480,"1515 WEST CORNWALLIS DRIVE STE 207","GREENSBORO","NC","27408"
69481,"1515 WEST MISSION ROAD","ALHAMBRA","CA","91803"
69482,"1515 WILLOW TRACE DRIVE APT A","FLORENCE","SC","29501"
69483,"1515 WINDCHIME DR","DALLAS","TX","75224"
69484,"1515 WOODVINE DR","HOUSTON","TX","77055"
69485,"1515 WYNKOOP STREET SUITE 360","DENVER","CO","80202"
69486,"1515 YOUNG ST","RICHMOND","VA","23222"
69487,"1515","JACKSONVILLE","IL","62651"
69488,"15150 AVENUE OF SCIENCE SUITE 200","SAN DIEGO","CA","92128"
69489,"15150 BLANCO RD STE 17206","SAN ANTONIO","TX","78232"
69490,"15150 E OAKLAND AVENUE","OAKLAND","FL","34787"
69491,"15150 E PRINCETON PLACE","AURORA","CO","80014"
69492,"15150 HIGHCROFT DR","CHESTERFIELD","MO","63017"
69493,"15150 PICOU RD","MAUREPAS","LA","70449"
69494,"15150 PRESTON ROAD STE 300","DALLAS","TX","75248"
69495,"15151 E ALAMEDA PARKWAY","AURORA","CO","80012"
69496,"15151 SE RUPERT DR","MILWAUKIE","OR","97267"
69497,"15151 WEST DIXIE HWY","NORTH MIAMI BEACH","FL","33162"
69498,"15152 FORESTVIEW LANE","SOUTH HOLLAND","IL","60473"
69499,"15153 MONTEREY AVE UNIT A","CHINO HILLS","CA","91709"
69500,"15154 BETTON PLACE","FISHERS","IN","46037"
