"ID","Address","City","State","Zip"
248001,"570 GUARD STREET","FRIDAY HARBOR","WA","98250"
248002,"570 HAMILTON STREET","SOMERSET","NJ","08873"
248003,"570 HAMLITON CHASE DRIVE","MOORE","SC","29369"
248004,"570 HOLMDEL ROAD","HAZLET","NJ","07730"
248005,"570 HOPE STREET","BRISTOL","RI","02809"
248006,"570 JACKSON AVE","ELIZABETH","NJ","07201"
248007,"570 JAMISON ROAD","LIBERTY","SC","29667"
248008,"570 JEPTHA KNOB ROAD","SHELBYVILLE","KY","40065"
248009,"570 JERSEY AVENUE","JERSEY CITY","NJ","07302"
248010,"570 LAKE COOK ROAD STE 400","DEERFIELD","IL","60015"
248011,"570 LEESBURG RD","JONESBOROUGH","TN","37659"
248012,"570 LIBERTY ST SE    SUITE 200","SALEM","OR","97301"
248013,"570 LOWE RD","MADISON","NC","27025"
248014,"570 MARTINEZ DR","LA HABRA","CA","90631"
248015,"570 MILLER AVENUE","COLUMBUS","OH","43205"
248016,"570 N ROSSMORE AVENUE APT 411","LOS ANGELES","CA","90004"
248017,"570 NORTH CARPENTER ROAD","TITUSVILLE","FL","32796"
248018,"570 NW 26TH STREET","MIAMI","FL","33127"
248019,"570 OAK ST","ASHDOWN","AR","71822"
248020,"570 OCEAN AVE - APT 6G","BROOKLYN","NY","11226"
248021,"570 OXBO ROAD","ROSWELL","GA","30075"
248022,"570 PIEDMONT AVE NE  STE 54915","ATLANTA","GA","30308"
248023,"570 PIEDMONT AVE NE 54521","ATLANTA","GA","30308"
248024,"570 PIEDMONT AVE NE SUITE 54095","ATLANTA","GA","30308"
248025,"570 PIEDMONT AVE PO BOX 54874","ATLANTA","GA","30308"
248026,"570 PIEDMONT AVENUE NE UNIT 54990","ATLANTA","GA","30308"
248027,"570 PLANTATION DRIVE","NORTH AUGUSTA","SC","29841"
248028,"570 READ SCHOOL HOUSE RD","COVENTRY","RI","02893"
248029,"570 RICHLAND AVE","POCATELLO","ID","83201"
248030,"570 ROOSEVELT AVE","TOMS RIVER","NJ","08753"
248031,"570 SE WESTGATE DR","WAUKEE","IA","50263"
248032,"570 SEMINOLE ROAD","MUSKEGON","MI","49444"
248033,"570 TRUMAN ST SW","PALM BAY","FL","32908"
248034,"570 TUSCAN COVE","FAIRBURN","GA","30213"
248035,"570 VISTA RIDGE DR","RUSKIN","FL","33570"
248036,"570 W 2ND ST","RIVIERA BEACH","FL","33496"
248037,"570 W 4TH STREET SUITE 107","SAN BERNARDINO","CA","92401"
248038,"570 W 4TH STREET","SAN BERNARDINO","CA","92401"
248039,"570 WEST LAKE SAMISH DRIVE","BELLINGHAM","WA","98229"
248040,"570 WINDSOR PKWY","ATLANTA","GA","30342"
248041,"570 YONKERS AVENUE GROUND FLR","YONKERS","NY","10704"
248042,"570","BROOKLYN","NY","11249"
248043,"5700 102ND AVE N","BROOKLYN PARK","MN","55443"
248044,"5700 85TH AVE N","BROOKLYN PARK","MN","55443"
248045,"5700 ARLINGTON AVE APT 11J","BRONX","NY","10471"
248046,"5700 BERWYN ROAD","BERWYN HEIGHTS","MD","20740"
248047,"5700 CAPISTRANO WAY","FREDERICK","CO","80504"
248048,"5700 CASTLEBRIDGE RD APT 201","FREDERICKSBURG","VA","22407"
248049,"5700 CHATHAM CIRCLE NW","NORCROSS","GA","30071"
248050,"5700 COLLEGE BLVD","FARMINGTON","NM","87402"
248051,"5700 CRESTHAVEN LN","TOLEDO","OH","43614"
248052,"5700 DARROW ROAD SUITE 106","HUDSON","OH","44236"
248053,"5700 DEERFIELD RD","ORLANDO","FL","32808"
248054,"5700 DOGWOOD BLVD","LOUISVILLE","KY","40299"
248055,"5700 E 18TH STREET","VANCOUVER","WA","98661"
248056,"5700 E STATE ROUTE 106","UNION","WA","98592"
248057,"5700 EAST 191ST STREET","BELTON","MO","64012"
248058,"5700 EAST FRANKLIN RD STE 200","NAMPA","ID","83687"
248059,"5700 EXECUTIVE CENTER DRIVE/STE 100","CHARLOTTE","NC","28212"
248060,"5700 FLORIDA BLVD","BATON ROUGE","LA","70806"
248061,"5700 HEATHWOOD COURT","COVINGTON","KY","41015"
248062,"5700 HOLLOMAN ROAD","POWDER SPRINGS","GA","30127"
248063,"5700 JAYCOX ROAD","NORTH RIDGEVILLE","OH","44039"
248064,"5700 KIRKWOOD HWY SUITE 204","WILMINGTON","DE","19808"
248065,"5700 KOWETA ROAD","COLLEGE PARK","GA","30349"
248066,"5700 KROGER DRIVE","KELLER","TX","76244"
248067,"5700 LEMON STREET","EAST PETERSBURG","PA","17520"
248068,"5700 MARK LANE","ROWLETT","TX","75089"
248069,"5700 MULDOON CT","DUBLIN","OH","43016"
248070,"5700 N NATOMA AVE","CHICAGO","IL","60631"
248071,"5700 NW CENTER DR STE 210","HOUSTON","TX","77092"
248072,"5700 OLD SEWARD HIGHWAY STE 101","EAGLE RIVER","AK","99518"
248073,"5700 OLDE MILL COURT UNIT 154","ALEXANDRIA","VA","22309"
248074,"5700 PEARL ROAD","CLEVELAND","OH","44129"
248075,"5700 PEARL ROAD","PARMA","OH","44129"
248076,"5700 PRINCE LANE","NEW ORLEANS","LA","70126"
248077,"5700 RALSTON STREET SUITE 102","VENTURA","CA","93003"
248078,"5700 S 24TH ST","QUINCY","IL","62305"
248079,"5700 SCOTLAND STREET","INDIANAPOLIS","IN","46234"
248080,"5700 SE INDIGO AVE","STUART","FL","34997"
248081,"5700 SELLERS AVE","OAKLEY","CA","94561"
248082,"5700 SIEBERT ST","MIDLAND","MI","48640"
248083,"5700 STONERIDGE MALL RD STE 325","PLEASANTON","CA","94588"
248084,"5700 SUTHERLIN RD","TRAVIS","TX","78723"
248085,"5700 TRAILSIDE DR","PARK CITY","UT","84098"
248086,"5700 TYLER STREET","CONWAY","AR","72034"
248087,"5700 URSA LANE APT 12107","FORT WORTH","TX","76137"
248088,"5700 VOLSER AVE UNIT A","JBER","AK","99506"
248089,"5700 W 12TH AVENUE","HIALEAH","FL","33012"
248090,"5700 WEST 12TH AVENUE","HIALEAH","FL","33012"
248091,"5700 WEST STREET","SANBORN","NY","14132"
248092,"5700 WILSHIRE BLVD SUITE 355","LOS ANGELES","CA","90036"
248093,"5700-5719 OSPREY WATCH COURT","CHARLOTTE","NC","28227"
248094,"5701 9TH AVENUE","PORT ARTHUR","TX","77642"
248095,"5701 ALDER RIDGE DRIVE","LA CANADA FLINTRIDGE","CA","91011"
248096,"5701 BARLOW ROAD","RIVERTON","IL","62561"
248097,"5701 BATTERY DRIVE UNIT F","GREENSBORO","NC","27409"
248098,"5701 DELROSE DRIVE 36609","MOBILE","AL","36609"
248099,"5701 E GLENN ST APT 33","TUCSON","AZ","85712"
248100,"5701 E RED OAK DR","SIOUX FALLS","SD","57110"
248101,"5701 EUGENIA CT","ORANGEVALE","CA","95662"
248102,"5701 EXECUTIVE CENTER DR  101","CHARLOTTE","NC","28212"
248103,"5701 FAULCONBRIDGE RD","CHARLOTTE","NC","28227"
248104,"5701 GARFIELD AVE SOUTH","MINNEAPOLIS","MN","55419"
248105,"5701 HWY 531","DUBBERLY","LA","71024"
248106,"5701 JOHNNY MORRIS RD 327","AUSTIN","TX","78724"
248107,"5701 LEIDEN ROAD","BALTIMORE","MD","21206"
248108,"5701 LEWOOD DRIVE","AUSTIN","TX","78745"
248109,"5701 LONETREE BLVD","ROCKLIN","CA","95765"
248110,"5701 MARTIN STREET NO 46","FORT WORTH","TX","76119"
248111,"5701 MEMORIAL","ARLINGTON","TX","76017"
248112,"5701 N PINE ISLAND ROAD STE 370","TAMARAC","FL","33321"
248113,"5701 N SHERIDAN RD APT 20B","CHICAGO","IL","60660"
248114,"5701 NW 36 ST","MIAMI","FL","33166"
248115,"5701 OAKTON STREET","SKOKIE","IL","60077"
248116,"5701 OLD HWY 52","LEXINGTON","NC","27295"
248117,"5701 PARKWAY DR","LAUREL","MD","20707"
248118,"5701 PELTIER TRACE","NORCROSS","GA","30093"
248119,"5701 RIDGEVIEW DR","HARRISBURG","PA","17112"
248120,"5701 S PROCTOR RD","MUNCIE","IN","47302"
248121,"5701 S WINCHESTER AVE APT 2","CHICAGO","IL","60622"
248122,"5701 SANTA CATALINA AVE","GARDEN GROVE","CA","92845"
248123,"5701 SANTA FE RD","FORT BENNING","GA","31095"
248124,"5701 SE 66TH ST","OCALA","FL","34480"
248125,"5701 SHINGLE CREEK PARKWAY STE 500P","BROOKLYN CENTER","MN","55430"
248126,"5701 SHINGLE CREEK PARKWAY STE 631","BROOKLYN CENTER","MN","55430"
248127,"5701 SHINGLE CREEK PKWY STE 500 M","BROOKLYN CENTER","MN","55430"
248128,"5701 SHINGLE CREEK PKWY STE 500F","BROOKLYN CTR","MN","55430"
248129,"5701 SHINGLE CREEK PKWY SUITE 350J","BROOKLYN CENTER","MN","55430"
248130,"5701 SHINGLE CREEK PKWY SUITE 545","BROOKLYN CENTER","MN","55430"
248131,"5701 STEWARTSVILLE ROAD","POSEYVILLE","IN","47633"
248132,"5701 TELEGRAPH AVENUE","OAKLAND","CA","94609"
248133,"5701 THISTLETON LANE","RALEIGH","NC","27606"
248134,"5701 TYNECASTLE LOOP","DUBLIN","OH","43016"
248135,"5701 W 34TH STREET","INDIANAPOLIS","IN","46224"
248136,"5701 W BROWARD BLVD","PLANTATION","FL","33317"
248137,"5701 W HWY 326","OCALA","FL","34482"
248138,"5701 W OAKTON STREET","SKOKIE","IL","60077"
248139,"5701 W SLAUGHTER LN  A130-247","AUSTIN","TX","78749"
248140,"5701 WEST 24TH AVENUE","HIALEAH","FL","33016"
248141,"5701 WEST COLLEGE AVENUE","GREENDALE","WI","53129"
248142,"5701 WHEELWRIGHT WAY","HAYMARKET","VA","20169"
248143,"5701 WHISKEY RIVER DR","COLORADO SPRINGS","CO","80923"
248144,"5701 WHITE ST","BUZZARDS BAY","MA","02542"
248145,"5702 16TH STREET NW","WASHINGTON","DC","20011"
248146,"5702 ANGOLA ROAD LOT 253","TOLEDO","OH","43615"
248147,"5702 ANNUNCIATION CIRCLE SUITE 326","AVE MARIA","FL","34142"
248148,"5702 BASSWOOD COURT","FORT MYERS","FL","33919"
248149,"5702 BITTERBUSH WAY","LOVELAND","CO","80537"
248150,"5702 BROOKSIDE RD","BETONVILLE","AR","72719"
248151,"5702 BURROUGH DR","AUSTIN","TX","78745"
248152,"5702 CAMBRIDGE LANE UNIT 5","RACINE","WI","53406"
248153,"5702 DAINTY COURT","RIVERBANK","CA","95367"
248154,"5702 EAST RIO VERDE VISTA DRIVE","TUCSON","AZ","85750"
248155,"5702 FARRAGUT RD","BROOKLYN","NY","11234"
248156,"5702 FEDERAL COURT","UPPER MARLBORO","MD","20772"
248157,"5702 MANOR RIDGE TRAIL","GREENSBORO","NC","27407"
248158,"5702 NORMAN COURT","DISTRICT HEIGHTS","MD","20747"
248159,"5702 ROSARIO WAY","ANACORTES","WA","98221"
248160,"5702 S CAMPBELL AVE","TUCSON","AZ","85706"
248161,"5702 S SILVER SPUR ST","BOISE","ID","83709"
248162,"5702 SKY COUNTRY ST","SAN ANTONIO","TX","78247"
248163,"5702 TIMBERGATE DRIVE APT 420","CORPUS CHRISTI","TX","78414"
248164,"5702 W 111TH ST","CHICAGO RIDGE","IL","60415"
248165,"57027 NAVAJO TRAIL","YUCCA VALLEY","CA","92284"
248166,"5703 COBALT LANE","KILLEEN","TX","76542"
248167,"5703 EDSALL ROAD","ALEXANDRIA","VA","22304"
248168,"5703 EMERALD LAKE DRIVE","MEDINA","OH","44256"
248169,"5703 FALKIRK LANE","MATTHEWS","NC","28104"
248170,"5703 JACKSON STREET 127","ALEXANDRIA","LA","71303"
248171,"5703 OBERLIN DRIVE STE 203","SAN DIEGO","CA","92121"
248172,"5703 RED BUG LAKE ROAD BOX 306","WINTER SPRINGS","FL","32708"
248173,"5703 RED BUG LAKE ROAD UNIT 190","WINTER SPRINGS","FL","32708"
248174,"5703 RED BUG LAKE ROAD","WINTER SPRINGS","FL","32708"
248175,"5703 S 159TH AVE","OMAHA","NE","68135"
248176,"5703 SAN DELL WAY","RACINE","WI","53402"
248177,"5703 SOUTH MAGAZINE CIR","HOUSTON","TX","77084"
248178,"5703 STEDMAN RD","IONIA","MI","48846"
248179,"5703 WOODGATE DR","MATTESON","IL","60443"
248180,"5704 77TH STREET","LUBBOCK","TX","79424"
248181,"5704 AVENUE F","AUSTIN","TX","78752"
248182,"5704 AVERY ROAD","DUBLIN","OH","43016"
248183,"5704 BEAR STONE RUN","OVIEDO","FL","32765"
248184,"5704 BREWSTER LANE","ERIE","PA","16505"
248185,"5704 CHAPEL DRIVE","PARADISE","CA","95969"
248186,"5704 CHAPMAN MILL DRIVE SUITE 130","ROCKVILLE","MD","20852"
248187,"5704 CROYDEN CIR","WICHITA","KS","67220"
248188,"5704 DARLENE DR","CLINTON","MD","20735"
248189,"5704 E AIRE LIBRE AVE UNIT 1108","SCOTTSDALE","AZ","85254"
248190,"5704 E GRANT ROAD","TUCSON","AZ","85712"
248191,"5704 GREEN PINE ROAD","CEDAR GROVE","NC","27231"
248192,"5704 HARRODS GLEN DRIVE","PROSPECT","KY","40059"
248193,"5704 HIBERNIA DR STE C","COLUMBUS","OH","43232"
248194,"5704 MILLER ROAD","ROME","OH","44085"
248195,"5704 MITCHELL RD","RIDGEWAY","VA","24148"
248196,"5704 ORANGE AVE","LONG BEACH","CA","90805"
248197,"5704 SILVER SPUR","MCKINNEY","TX","75070"
248198,"5704 TIERRA VIVA PLACE NW","ALBUQUERQUE","NM","87107"
248199,"5704 WEST MARKET STREET UNIT 19928","GREENSBORO","NC","27419"
248200,"5705 31ST PLACE","HYATTSVILLE","MD","20782"
248201,"5705 47TH ST NE","MARYSVILLE","WA","98270"
248202,"5705 64TH PL","RIVERDALE","MD","20737"
248203,"5705 BROADWAY ST","WEST LINN","OR","97068"
248204,"5705 GARFIELD STREET","HOLLYWOOD","FL","33021"
248205,"5705 GLEN AVENUE","MINNETONKA","MN","55345"
248206,"5705 GRANT CREEK RD","MISSOULA","MT","59808"
248207,"5705 JACKSON DRIVE","LA MESA","CA","91942"
248208,"5705 LAKEMOORE DR","AUSTIN","TX","78731"
248209,"5705 LOWER WYANDOTTE ROAD","OROVILLE","CA","95966"
248210,"5705 LYNNHAVEN PKWY STE 104 MB1081","VIRGINIA BEACH","VA","23464"
248211,"5705 MARCONI AVE SUITE C","CARMICHAEL","CA","95608"
248212,"5705 MCKINLEY STREET","BETHESDA","MD","20817"
248213,"5705 MEMORIAL DRIVE - PO BOX 870068","STONE MOUNTAIN","GA","30083"
248214,"5705 N E ST","SAN BERNARDINO","CA","92407"
248215,"5705 NE QUARTZ CIR","LEES SUMMIT","MO","64064"
248216,"5705 SIDNEY LANE","MCKINNEY","TX","75070"
248217,"5705 STEEPLE CHASE ROAD","SYKESVILLE","MD","21784"
248218,"5705 TIVOLI CIR APT 102","RICHMOND","VA","23227"
248219,"5705 TURNER RD","BROAD RUN","VA","20137"
248220,"5705 WILDCAT ROAD","MISSOULA","MT","59802"
248221,"5705 YUKON STREET","ARVADA","CO","80002"
248222,"57057 BEAVER DRIVE","BEND","OR","97707"
248223,"5706 17TH AVE NW POB 17482","SEATTLE","WA","98107"
248224,"5706 1ST ST S","ARLINGTON","VA","22204"
248225,"5706 BARRINGTON RUN","UNION CITY","GA","30291"
248226,"5706 BELLONA AVE","BALTIMORE","MD","21212"
248227,"5706 CAHALAN AVENUE STE 23634","SAN JOSE","CA","95153"
248228,"5706 CALAIS COURT","CALABASAS","CA","91302"
248229,"5706 E MOCKINGBIRD LANE 115-25","DALLAS","TX","75206"
248230,"5706 E MOCKINGBIRD LANE 115-39","DALLAS","TX","75206"
248231,"5706 E MOCKINGBIRD LN 115-51","DALLAS","TX","75206"
248232,"5706 EAST MOCKINGBIRD LN 115-187","DALLAS","TX","75206"
248233,"5706 EAST MOCKINGBIRD LN SUITE 115","DALLAS","TX","75206"
248234,"5706 GOVERNORS POND CIR","ALEXANDRIA","VA","22310"
248235,"5706 HEBRON LN","LAKELAND","FL","33812"
248236,"5706 HWY 154","BUTLER","KY","41006"
248237,"5706 LONG CREEK LANE","HOUSTON","TX","77088"
248238,"5706 MAGNUM DRIVE","ARLINGTON","TX","76018"
248239,"5706 MAPLEBROOK LANE","FLINT","MI","48507"
248240,"5706 N 18TH ST","TAMPA","FL","33610"
248241,"5706 RAINIER AVE S","SEATTLE","WA","98118"
248242,"5706 REEF LANDING WAY","WILMINGTON","NC","28409"
248243,"5706 ROAD 60","PASCO","WA","99301"
248244,"5706 SAN CORDOBA PLAZA","TAMPA","FL","33617"
248245,"5706 SAN JOSE AVENUE","RICHMOND","CA","94804"
248246,"5706 SKYDALE LN","RICHMOND","TX","77469"
248247,"5706 STARFISH COURT","DISCOVERY BAY","CA","94505"
248248,"5706 STONINGTON AVE","GWYNN OAK","MD","21207"
248249,"5706 TRAFALGAR","HOUSTON","TX","77085"
248250,"5706 W LAKE STREET 3W","CHICAGO","IL","60644"
248251,"5707 5TH STREET NE","WASHINGTON","DC","20011"
248252,"5707 ARABELLE LAKE STREET","HOUSTON","TX","77007"
248253,"5707 BEACONSFIELD ROAD","CHARLOTTE","NC","28214"
248254,"5707 COQUYT DR","MOUNT DORA","FL","32757"
248255,"5707 CREEK DALE DR","ORLANDO","FL","32810"
248256,"5707 E BALCH AVE","FRESNO","CA","93727"
248257,"5707 HUXLEY AVE APT 2","BRONX","NY","10471"
248258,"5707 KINGWOOD DRIVE","KINGWOOD","TX","77345"
248259,"5707 LYCOMB DR","HOUSTON","TX","77053"
248260,"5707 MARCONI AVENUE UNIT A","CARMICHAEL","CA","95608"
248261,"5707 MORRIS RD","FLOWER MOUND","TX","75028"
248262,"5707 MORRISS RD","FLOWER MOUND","TX","75028"
248263,"5707 MORRISS RD","FLOWER MOUND","TX","75077"
248264,"5707 MORRISS ROAD","FLOWER MOUND","TX","75028"
248265,"5707 PRINCESTON DR","PENSACOLA","FL","32526"
248266,"5707 REDWOOD RD","OAKLAND","CA","94619"
248267,"5707 RICHARDS CIRCLE","SHAWNEE","KS","66216"
248268,"5707 ROCK SHOALS WAY","COLLEGE PARK","GA","30349"
248269,"5707 ROCKAWAY DRIVE","UNION CITY","GA","30291"
248270,"5707 S CASS AVE SUITE 704","WESTMONT","IL","60559"
248271,"5707 S CASS AVE UNIT 628","WESTMONT","IL","60559"
248272,"5707 S WOODLAWN AVENUE","CHICAGO","IL","60637"
248273,"5707 SHROPSHIRE COURT","ALEXANDRIA","VA","22315"
248274,"5707 SOUTHWEST PARKWAY","AUSTIN","TX","78735"
248275,"5707 TPC PARKWAY APT 717","SAN ANTONIO","TX","78261"
248276,"5707 W HIDDEN SPRINGS DR","BOISE","ID","83714"
248277,"5707 WILLIAMS ROAD","NEWPORT","MI","48166"
248278,"5707 YUCATAN DR","INDIANAPOLIS","IN","46237"
248279,"5708 151ST ST SE","EVERETT","WA","98208"
248280,"5708 BRANDON BOULEVARD","VIRGINIA BEACH","VA","23464"
248281,"5708 DUNHAM RD","MAPLE HEIGHTS","OH","44137"
248282,"5708 EISENHOWER DRIVE","FORT WORTH","TX","76112"
248283,"5708 FALLS RIDGE LANE","CHARLOTTE","NC","28269"
248284,"5708 FOX TRAIL","FLORENCE","MT","59833"
248285,"5708 FREDRICK COURT","PLANO","TX","75093"
248286,"5708 HEYWOOD ROAD","RICHMOND","VA","23224"
248287,"5708 HIGHBLUFF TERRACE","PLEASANTON","CA","94588"
248288,"5708 HUCKBURN COURT","LAUREL","MD","20707"
248289,"5708 LAKE WEST TERRACE","GLEN ALLEN","VA","23059"
248290,"5708 LAWTON DRIVE","SARASOTA","FL","34233"
248291,"5708 LINDENHURST AVE","LOS ANGELES","CA","90036"
248292,"5708 NFIELD ST","FARMINGTON","WV","26571"
248293,"5708 PENNY CREEK DR","AUSTIN","TX","78759"
248294,"5708 RFD","LONG GROVE","IL","60047"
248295,"5708 S RIMPAU BLVD","LOS ANGELES","CA","90043"
248296,"5708 VERNON WAY","SUITLAND","MD","20746"
248297,"5708 WINDLESTRAW DRIVE APT 36","DURHAM","NC","27713"
248298,"5709 E 102ND ST","KANSAS CITY","MO","64137"
248299,"5709 GEORGIA LN","LOUISVILLE","KY","40219"
248300,"5709 MARBLE ARCH WAY","ALEXANDRIA","VA","22315"
248301,"5709 N SAPULPA AVE","OKLAHOMA CITY","OK","73112"
248302,"5709 OLDE SOUTH ROAD","RALEIGH","NC","27606"
248303,"5709 PATE RD","HOUSTON","TX","77016"
248304,"5709 SAWYER RIIDGE","PUEBLO","CO","81008"
248305,"5709 SMITH ROAD/ SUITE C","CLEVELAND","OH","44142"
248306,"5709 STANDING OAK ROAD","MIDLOTHIAN","VA","23112"
248307,"5709 WALTMAR DR","VIRGINIA BEACH","VA","23464"
248308,"5709 WEDGEWOOD DR","FT WORTH","TX","76133"
248309,"5709 WINDSOR GATE LANE","FAIRFAX","VA","22030"
248310,"5709 WINDY DRIVE SUITE D","STEVENS POINT","WI","54482"
248311,"57093 US HWY 285","BAILEY","CO","80421"
248312,"570A MACON ST","BROOKLYN","NY","11233"
248313,"571 2ND AVE 3C","NEW YORK","LA","10016"
248314,"571 BALD EAGLE DRIVE","MARCO ISLAND","FL","34145"
248315,"571 BOSTON MILLS RD STE 500","HUDSON","OH","44236"
248316,"571 BOSTON MILLS ROAD STE 100","HUDSON","OH","44236"
248317,"571 BUENA PKWY","BRIDGEWATER","NJ","08807"
248318,"571 COLLINGSWORTH LANE","LAWRENCEVILLE","GA","30043"
248319,"571 COUNTY ROAD A","GREEN LAKE","WI","54941"
248320,"571 CRYSTAL WAY","ORANGE PARK","FL","32065"
248321,"571 CYPRESS STREET","SAINT PAUL","MN","55106"
248322,"571 DANBURY RD","NEW MILFORD","CT","06776"
248323,"571 DECATUR STREET","BROOKLYN","NY","11233"
248324,"571 DUQUESNE BLVD","BRICK","NJ","08723"
248325,"571 E HOLMES RD","MEMPHIS","TN","38109"
248326,"571 FREEDOM TRAIL","BRUNSWICK","GA","31525"
248327,"571 GATES ROAD","ELIZABETHTOWN","KY","42701"
248328,"571 HOLLIS AVE","YPSLIANTI","MI","48198"
248329,"571 KEATON RD","LENOIR CITY","TN","37772"
248330,"571 LEONARD FARM RD","LOUISBURG","NC","27549"
248331,"571 LEONARD FARM ROAD","LOUISBURG","NC","27549"
248332,"571 MERIDIAN DRIVE","BOWLING GREEN","KY","42101"
248333,"571 N SERENITY HILL CIRCLE","CHAPEL HILL","NC","27516"
248334,"571 NORTH STREET","TEANECK","NJ","07666"
248335,"571 OCEAN PARKWAY","BROOKLYN","NY","11218"
248336,"571 PAUL FRANK ROAD","OBERLIN","LA","70655"
248337,"571 S TRAFFIC WAY EXT","ARROYO GRANDE","CA","93420"
248338,"571 S WASHINGTON ST","AFTON","WY","83110"
248339,"571 SECOR ROAD","HARTSDALE","NY","10530"
248340,"571 SOUTH 200 WEST","PROVIDENCE","UT","84332"
248341,"571 TOWNESIDE LN NW","MARIETTA","GA","30064"
248342,"571 TUDOR BRANCH","GROVETOWN","GA","30813"
248343,"571 VALLEY CLUB CIR","LITTLE ROCK","AR","72212"
248344,"571 VELOCE TRAIL","FORT MILL","SC","29715"
248345,"571 W 1800 N","CLINTON","UT","84015"
248346,"571 W CLIFFSIDE AVE","AMARILLO","TX","79108"
248347,"571 WINDERMERE WAY","LAKE IN THE HILLS","IL","60156"
248348,"571 WOODVIEW LANE","HARLEYSVILLE","PA","19438"
248349,"571","AKRON","OH","44310"
248350,"5710 138TH PL NE","MARYSVILLE","WA","98271"
248351,"5710 18 MILE RD","BARRYTON","MI","49305"
248352,"5710 ARRINGDON PARK DR 1033","MORRISVILLE","NC","27560"
248353,"5710 BARTLETT STREET-  COACH HOUSE","PITTSBURGH","PA","15217"
248354,"5710 BELLONA AVE STE 202","BALTIMORE","MD","21212"
248355,"5710 BELMONT ROAD","RICHMOND","VA","23234"
248356,"5710 BROADWAY TERRACE","INDIANAPOLIS","IN","46220"
248357,"5710 CRAINDALE DR","ORLANDO","FL","32819"
248358,"5710 CRESCENT PARK E 305","PLAYA VISTA","CA","90094"
248359,"5710 CRESCENT PARK E APT 348","PLAYA VISTA","CA","90094"
248360,"5710 CRESCENT PARK EAST NO 336","PLAYA VISTA","CA","90094"
248361,"5710 DELANO LANE","ORLANDO","FL","32821"
248362,"5710 E 2ND AVE","HIALEAH","FL","33013"
248363,"5710 EAST R L THORNTON FREEWAY","DALLAS","TX","75233"
248364,"5710 EAST R L THORNTON FRWY","DALLAS","TX","75223"
248365,"5710 FAIRMEADOW CT","CLARENCE CENTER","NY","14032"
248366,"5710 GREENBRIER DRIVE","DALLAS","TX","75209"
248367,"5710 HIDDEN LAKE DRIVE BROWNS","SUMMIT","NC","27214"
248368,"5710 HOLLISTER AVE NUM 246","GOLETA","CA","93117"
248369,"5710 HOLLISTER SUITE 128","GOLETA","CA","93117"
248370,"5710 JUNCTION BLVD APT 3L","ELMHURST","NY","11373"
248371,"5710 KELVIN PARK CIRCLE","CHARLOTTE","NC","28216"
248372,"5710 KNOBBY KNOLL DRIVE","HOUSTON","TX","77092"
248373,"5710 LAKE SIDE DR","BOSSIER CITY","LA","71111"
248374,"5710 LENOX AVE  APT 1313","JACKSONVILLE","FL","32205"
248375,"5710 LENOX AVE UNIT 302","JACKSONVILLE","FL","32205"
248376,"5710 LONGLEAF DR","MYRTLE BEAC","SC","29577"
248377,"5710 N MIAMI AVE","MIAMI","FL","33127"
248378,"5710 N PROMISING LN","MILTON","WI","53563"
248379,"5710 OGEECHEE ROAD SUITE 200 - 260","SAVANNAH","GA","31405"
248380,"5710 PASINETTI ST E","FIFE","WA","98424"
248381,"5710 SNAPFINGER WOODS DR","LITHONIA","GA","30058"
248382,"5710 SWIFT CREEK CT","SUWANEE","GA","30024"
248383,"5710 VANDIVER ROAD","ATLANTA","GA","30331"
248384,"5710 W GATE CITY BLVD STE K","GREENSBORO","NC","27407"
248385,"5710 W NETTLE CREEK CT","DUNLAP","IL","61525"
248386,"5711 110TH AVENUE EAST","PARRISH","FL","34219"
248387,"5711 BARON DRIVE","CHESTERFIELD","VA","23832"
248388,"5711 BEXLEY CT","AUSTIN","TX","78739"
248389,"5711 CANDINGTON COURT","CHARLOTTE","NC","28216"
248390,"5711 CANOE CT","BAKERSFIELD","CA","33312"
248391,"5711 E FT LOWELL RD","TUCSON","AZ","85712"
248392,"5711 EVENING SHADOWS LN","SPRING","TX","77373"
248393,"5711 GREENDALE RD","RICHMOND","VA","23228"
248394,"5711 KATHRYN LANE","MATTESON","IL","60443"
248395,"5711 MEDINAH DR","NEWBURGH","IN","47630"
248396,"5711 MOBJACK ROAD","GLOUCESTER","VA","23061"
248397,"5711 MOBUD STREET","SAN ANTONIO","TX","78238"
248398,"5711 MOUNT HOLLY ROAD","EAST NEW MARKET","MD","21631"
248399,"5711 N PASEO NIQUEL","TUCSON","AZ","85718"
248400,"5711 PINETREE SE","KENTWOOD","MI","49508"
248401,"5711 S 100 W","PONETO","IN","46781"
248402,"5711 S ST ANDREWS PL","LOS ANGELES","CA","90062"
248403,"5711 SACRAMENTO AVENUE","DUNSMUIR","CA","96025"
248404,"5711 SHARP MILLS RUN","CANAL WINCHESTER","OH","43110"
248405,"5711 SHULL ROAD","HUBER HEIGHTS","OH","45424"
248406,"5711 SW 20TH STREET","WEST PARK","FL","33023"
248407,"5711 W TROPICANA AVENUE APT 213","LAS VEGAS","NV","89103"
248408,"5712 15TH AVE","BROOKLYN","NY","11219"
248409,"5712 BIRCH RUN CT","PERRY","MI","48872"
248410,"5712 BUNN SIMPSON ROAD","MARSHVILLE","NC","28103"
248411,"5712 CAMELLIA AVE APT 105","NORTH HOLLYWOOD","CA","91601"
248412,"5712 CAPESWOOD DR","RANCHO PALOS VERDES","CA","90275"
248413,"5712 CRUTCHFIELD ROAD","RALEIGH","NC","27606"
248414,"5712 DARBY RUSSELL RD","MURPHYS","CA","95247"
248415,"5712 EAST CT","BARTLESVILLE","OK","74006"
248416,"5712 FLATLANDS AVENUE 1ST FL","BROOKLYN","NY","11234"
248417,"5712 HILL ROAD","BERLIN HEIGHTS","OH","44814"
248418,"5712 ICARUS COURT","FAYETTEVILLE","NC","28304"
248419,"5712 JUNE AVE N","BROOKLYN CENTER","MN","55429"
248420,"5712 PIPER","LANSING","MI","48911"
248421,"5712 PLEASANT WOODS DR","FLOWERY BRANCH","GA","30542"
248422,"5712 SOUTHERN HILLS DRIVE","NORTH RICHLAND HILLS","TX","76180"
248423,"5712 WARREN AVE","EAST ST. LOUIS","IL","62204"
248424,"57124 COUNTY ROAD","NORTHOME","MN","56661"
248425,"5713 10TH AVE S","BIRMINGHAM","AL","35222"
248426,"5713 AVERY PARK DR","ROCKVILLE","MD","20855"
248427,"5713 CALLOWHILL STREET APT 3","PITTSBURGH","PA","15206"
248428,"5713 E HOMECOMING CIR UNIT D","EASTVALE","CA","91752"
248429,"5713 GULF DRIVE","NEW PORT RICHEY","FL","34652"
248430,"5713 JOHNSON ST","BALTIMORE","MD","21225"
248431,"5713 LEGACY CRESCENT PL UNIT 304","RIVERVIEW","FL","33578"
248432,"5713 NW 113TH STREET","OKLAHOMA CITY","OK","73162"
248433,"5713 SECREST CT","GOLDEN","CO","80403"
248434,"5713 W CREEDY RD","BELOIT","WI","53511"
248435,"5714  A MOORE ST","BROOKLYN","MD","21225"
248436,"5714 134TH PL SE SUITE A18 PMB 9","EVERETT","WA","98208"
248437,"5714 29TH STREET NE","TACOMA","WA","98422"
248438,"5714 ASHLEY SPRING CT","KATY","TX","77494"
248439,"5714 BITTERSWEET PL","MADISON","WI","53705"
248440,"5714 BYRON COURT","ROCKLIN","CA","95765"
248441,"5714 CEDAR SPRINGS DRIVE","SAN ANTONIO","TX","78244"
248442,"5714 CHIMNEY ROCK RD","HOUSTON","TX","77081"
248443,"5714 CIMARRON","LOS ANGELES","CA","90062"
248444,"5714 CUCULLU ST","NEW ORLEANS","LA","70115"
248445,"5714 EVERGREEN KNOLL CT","ALEXANDRIA","VA","22303"
248446,"5714 FEARNLEY RD","LAKE WORTH","FL","33467"
248447,"5714 GENTRY COURT","LONG GROVE","IL","60407"
248448,"5714 HYDE PARK AVE","KALAMAZOO","MI","49009"
248449,"5714 MEAD DRIVE","INDIANAPOLIS","IN","46220"
248450,"5714 N RIVER FOREST DR","GLENDALE","WI","53209"
248451,"5714 NW 19TH STREET","LAUDERHILL","FL","33313"
248452,"5714 OLD CARRIAGE DRIVE","COLLEGE PARK","GA","30349"
248453,"5714 OUTHWAITE AVE 1","CLEVELAND","OH","44104"
248454,"5714 S GRANT ST","HINSDALE","IL","60521"
248455,"5714 SOUTH 161ST STREET","OMAHA","NE","68135"
248456,"5714 SPICEWOOD","HARLINGEN","TX","78552"
248457,"5714 VAN LANEN ROAD","NEW FRANKEN","WI","54229"
248458,"5714 W BELLFORT","HOUSTON","TX","77035"
248459,"571492","WINNETKA","CA","91357"
248460,"5715 BALTIMORE DR UNIT 28","LA MESA","CA","91942"
248461,"5715 BROADWAY SUITE 2","SAN ANTONIO","TX","78209"
248462,"5715 BUFORD HWY NE STE 105 UNIT 22","ATLANTA","GA","30340"
248463,"5715 CASTLE AVE","DUNSMUIR","CA","96025"
248464,"5715 CORSA AVENUE SUITE 110","WESTLAKE VILLAGE","CA","91362"
248465,"5715 E BRAMBLEGATE RD","GREENSBORO","NC","27409"
248466,"5715 E CO RD 325 N","SULLIVAN","IN","47882"
248467,"5715 JAMERSON DRIVE","ATLANTA","GA","30349"
248468,"5715 LONG ARBOR LANE","KATY","TX","77449"
248469,"5715 MARY DELL DR","AMARILLO","TX","79109"
248470,"5715 MATLOCK RD","GRANBURY","TX","76049"
248471,"5715 N AFTON PKWY","BATON ROUGE","LA","70806"
248472,"5715 N ORANGE AVE","CHICAGO","IL","60631"
248473,"5715 NORTH COMMERCE COURT","ALPHARETTA","GA","30004"
248474,"5715 NORTHWEST  2ND AVE APT 606","MIAMI","FL","33127"
248475,"5715 SATEL DRIVE","ORLANDO","FL","32810"
248476,"5715 SOUTH RIMPAU BLVD","LOS ANGELES","CA","90043"
248477,"5715 W ROBB LANE","GLENDALE","AZ","85310"
248478,"5715 WALTON AVE","PHILADELPHIA","PA","19143"
248479,"5715 WATERS RD","LITTLE ROCK","AR","72206"
248480,"5715 WILLOWTON AVENUE","BALTIMORE","MD","21239"
248481,"5715 WOODLAND AVENUE","CLEVELAND","OH","44104"
248482,"5716  WILLOWTON AVE","BALTIMORE","MD","21239"
248483,"5716 154TH PL SW","EDMONDS","WA","98026"
248484,"5716 ALLENSTOWN DR","CHARLOTTE","NC","28215"
248485,"5716 ARLENE STREET","METAIRIE","LA","70003"
248486,"5716 CORSA AVE  SUITE 110","WESTLAKE","CA","91362"
248487,"5716 CORSA AVE 202","WESTLAKE VILLAGE","CA","91362"
248488,"5716 CORSA AVE SUITE 110","WESTLAKE VILLAGE","CA","91362"
248489,"5716 COSA AVE STE 110","WESTLAKE VILLAGE","CA","91362"
248490,"5716 DEBBIE LANE","WEST BEND","WI","53095"
248491,"5716 FARRAGUT RD  APT 1A","BROOKLYN","NY","11234"
248492,"5716 FOLSOM BLVD STE 219","SACRAMENTO","CA","95819"
248493,"5716 FOLSOM BLVD SUITE 301","SACRAMENTO","CA","95819"
248494,"5716 FOLSOM BLVD UNIT 279","SACRAMENTO","CA","95819"
248495,"5716 HIGHWAY 58","HARRISON","TN","37341"
248496,"5716 MEADOW BREEZE LN","ROSHARON","TX","77583"
248497,"5716 NE MISTY MEADOW WAY","LEES SUMMIT","MO","64064"
248498,"5716 NW 135TH ST","OKLAHOMA CITY","OK","73142"
248499,"5716 PEPPERTREE PL NE","ALBUQUERQUE","NM","87111"
248500,"5716 SOUTH BAYBERRY LANE","TAMARAC","FL","33319"
