"ID","Address","City","State","Zip"
209501,"4255 CHESTNUT LAKE AVENUE","LITHONIA","GA","30038"
209502,"4255 ELBERTON HIGHWAY","HARTWELL","GA","30643"
209503,"4255 HARBOUR ISLAND LANE","OXNARD","CA","93035"
209504,"4255 KITTREDGE STREET UNIT 2022","DENVER","CO","80239"
209505,"4255 N NELLIS BLVD APT 207","LAS VEGAS","NV","89115"
209506,"4255 ROSEWOOD LANE NORTH","MINNEAPOLIS","MN","55442"
209507,"4255 SMOKE CREEK PARKWAY D08","SNELLVILLE","GA","30093"
209508,"4255 SMOKE CREEK PKWY  LOT 93A","SNELLVILLE","GA","30039"
209509,"4255 TURNER DRIVE","CUMMING","GA","30040"
209510,"4255 US HWY 1 SOUTH","SAINT AUGUSTINE","FL","32086"
209511,"4255 WESTSHORE WAY APT M40","FORT COLLINS","CO","80525"
209512,"4255 WILL LEE RD","COLLEGE PARK","GA","30349"
209513,"42555 DEVANT CIRCLE","TEMECULA","CA","92592"
209514,"42558 LUINIU LANE","AHWAHNEE","CA","93601"
209515,"4256 3RD STREET NE","COLUMBIA HEIGHTS","MN","55421"
209516,"4256 E MAHALASVILLE RD","MORGANTOWN","IN","46160"
209517,"4256 LA MAURICIE LOOP","DUMFRIES","VA","22025"
209518,"4256 MITCHELL","DETROIT","MI","48207"
209519,"4256 N NC 903 HIGHWAY","ALBERTSON","NC","28508"
209520,"4256 STANDING ROCK RD","JAMESTOWN","TN","38556"
209521,"4256 TEAKWOOD CT","GREENDALE","WI","53129"
209522,"4256 THORNVIEW DR","MORROW","OH","45152"
209523,"4256 W CALLE DON CLEMENTE","TUCSON","AZ","85746"
209524,"4256 YEATON GLEN CIRCLE","WINSTON SALEM","NC","27107"
209525,"42562 W HALL DR","MARICOPA","AZ","85138"
209526,"42563 W COLBY DR","MARICOPA","AZ","85138"
209527,"4257 BELLE MEADE CIRCLE","BELMONT","NC","28012"
209528,"4257 COUNTY ROAD 741","BERNIE","MO","63822"
209529,"4257 N 140TH ST","OMAHA","NE","68164"
209530,"4257 PINCUSHION ST","NORTH PORT","FL","34286"
209531,"4257 S TACOMA TRAIL","GOLD CANYON","AZ","85118"
209532,"4257 STATE ROUTE 38B","NEWARK VALLEY","NY","13811"
209533,"4257 WAYNE ROAD","GREENSBORO","NC","27407"
209534,"42572 SHERRY LANE","MURRIETA","CA","92562"
209535,"42577 W CAPISTRANO DR","MARICOPA","AZ","85138"
209536,"4258 2ND AVENUE","MARIANNA","FL","32446"
209537,"4258 D J DRIVE","MISSOULA","MT","59803"
209538,"4258 HOLLIDAY ROAD","ATLANTA","GA","30349"
209539,"4258 IDLEBROOK DR","AKRON","OH","44333"
209540,"4258 KINSMAN","DETROIT","MI","48210"
209541,"4258 N GREENVIEW AVE STE 1E","CHICAGO","IL","60613"
209542,"4258 NCHIGHWAY 49 S 494","HARRISBURG","NC","28075"
209543,"4259 BOULDER HIGHWAY","LAS VEGAS","NV","89121"
209544,"4259 DANE  AVE","CINCINNATI","OH","45223"
209545,"4259 LAS VIRGENES RD UNIT 1","CALABASAS","CA","91302"
209546,"4259 WEST HIRSCH","CHICAGO","IL","60651"
209547,"4259 WESTERN DRIVE","FREMONT","NE","68025"
209548,"426 22ND AVE","SEATTE","WA","98122"
209549,"426 ACER DRIVE","BLANDON","PA","19510"
209550,"426 AMELIA STREET","GRETNA","LA","70053"
209551,"426 BEAUMONT CIRCLE","WEST CHESTER","PA","19380"
209552,"426 BOND ST","HILLSBORO","TX","76645"
209553,"426 BOND STREET","HILLSBORO","TX","76645"
209554,"426 BRIDGE STREET","WESTBROOK","ME","04092"
209555,"426 C ONEAWA STREET","KAILUA","HI","96734"
209556,"426 CASE BOULEVARD","FLEMINGTON","NJ","08822"
209557,"426 CASTROVILLE RD STE 5","SAN ANTONIO","TX","78207"
209558,"426 COUNSELORS WAY APT 204","FORT MILL","SC","29708"
209559,"426 COUNTY ROAD 57 WEST","BELLEFONTAINE","OH","43331"
209560,"426 CRANBROOK LN","LEAGUE CITY","TX","77573"
209561,"426 DONNER TRAIL","EDMOND","OK","73003"
209562,"426 DRUMMOND ST","MORGANTOWN","WV","26505"
209563,"426 DRUMMOND STREET","MORGANTOWN","WV","26505"
209564,"426 DUFOUR STREET","SANTA CRUZ","CA","95060"
209565,"426 E 4TH ST","HUNTINGBURG","IN","47542"
209566,"426 E 57TH STREET","BROOKLYN","NY","11203"
209567,"426 E FREEMAN ST","DUNCANVILLE","TX","75116"
209568,"426 E HUGHES ST","HIGHLANDS RANCH","CO","80126"
209569,"426 EAST LAURELTON AVE","MAPLE SHADE","NJ","08052"
209570,"426 ELDER ST","FAIRBURN","GA","30213"
209571,"426 ENID VIEW DRIVE","POPE","MS","38658"
209572,"426 FAIRWAY DR","YONA","GU","96915"
209573,"426 FERNDALE ROAD SOUTH","WAYZATA","MN","55391"
209574,"426 FIR RD BOX 128","CARTHAGE","MO","64836"
209575,"426 FULTON ST","ELMIRA","NY","14904"
209576,"426 GARFIELD AVE","MINEOLA","NY","11501"
209577,"426 GLENVIEW ROAD","TROTWOOD","OH","45426"
209578,"426 GREENSBURG PIKE","WEST NEWTON","PA","15089"
209579,"426 GUERRERO ST","SAN FRANCISCO","MI","94110"
209580,"426 HANOVER STREET 4","BOSTON","MA","02113"
209581,"426 HARRISON ROAD","MONROE","GA","30655"
209582,"426 HARVARD AVE","SOUTH PLAINFIELD","NJ","07080"
209583,"426 HAYNES ST","LEWISBURG","TN","37091"
209584,"426 HIGHLAND DR","OLD HICKORY","TN","37138"
209585,"426 HUNT RD","JAMESTOWN","NY","14701"
209586,"426 HUNT ROAD","JAMESTOWN","NY","14701"
209587,"426 JACKSON STREET","CAMDEN","NJ","08104"
209588,"426 JEFFERSON STREET NE","WASHINGTON","DC","20011"
209589,"426 JORDAN STREET","NEVADA CITY","CA","95959"
209590,"426 JUNIPERO AVE","LONG BEACH","CA","90814"
209591,"426 KENILWORTH BOULEVARD","KENILWORTH","NJ","07033"
209592,"426 LONGVIEW DRIVE","SUGAR LAND","TX","77478"
209593,"426 MADISON 5244","HUNTSVILLE","AR","72740"
209594,"426 MAIN ST NUMBER 309","SPOTSWOOD","NJ","08884"
209595,"426 MARIETTA ST STE 100A","ATLANTA","GA","30314"
209596,"426 MEDIA ROAD","OXFORD","PA","19363"
209597,"426 N 500 E APT 2","LOGAN","UT","84321"
209598,"426 N BELMONT AVENUE","WICHITA","KS","67208"
209599,"426 N DELMAR AVENUE","RULEVILLE","MS","38771"
209600,"426 N RALEIGH ST","HELENA","MT","59601"
209601,"426 N SAN FELIPE AVE","SAN ANTONIO","TX","78228"
209602,"426 N SAN FELIPE STREET","SAN ANTONIO","TX","78228"
209603,"426 NATALIE CR","SEARCY","AR","72143"
209604,"426 NORTH LAFONTAIN","HUNTINGTON","IN","46750"
209605,"426 NORTH MAPLE STREET","CENTRALIA","IL","62801"
209606,"426 NORTHERN AVENUE","CINCINNATI","OH","45229"
209607,"426 NOTTINGHAM DRIVE","CABOT","AR","72023"
209608,"426 NW 143RD ST","MIAMI","FL","33168"
209609,"426 OHIO STREET","NEW MARTINSVILLE","WV","26155"
209610,"426 OLD PENLLYN PIKE","PENLLYN","PA","19422"
209611,"426 OSCEOLA AVENUE SOUTH","ST. PAUL","MN","55102"
209612,"426 PORT REGGIO ST","LAS VEGAS","NV","89138"
209613,"426 RIVER MILL ROAD EXT","JERSEY SHORE","PA","17740"
209614,"426 ROYAL TERN ROAD","S JACKSONVILLE BEACH","FL","32250"
209615,"426 S CHURCH ST","JACKSONVILLE","IL","62650"
209616,"426 S CURTIS STREET","MERIDEN","CT","06010"
209617,"426 S FAIRFAX ST","ALEXANDRIA","VA","22314"
209618,"426 S GEORGE STREET","YORK","PA","17401"
209619,"426 S PALMERS CHAPEL RD","COTTONTOWN","TN","37048"
209620,"426 S QUEEN ST","LANCASTER","PA","17603"
209621,"426 S SHERMAN ST","BOISE","ID","83702"
209622,"426 S WILDWOOD AVENUE","KANKAKEE","IL","60901"
209623,"426 SAINT EMILION CT","MOUNTAIN VIEW","CA","94043"
209624,"426 SCHOOL ST","SEBRING","FL","33870"
209625,"426 SOUTH FLETCHER AVE","FERNANDINA BEACH","FL","32034"
209626,"426 STONER AVE","SHREVEPORT","IA","71101"
209627,"426 STRAWBERRY HILL RD","CONCORD","MA","01742"
209628,"426 TIMBERLEAF DR","BEAVERCREEK","OH","45430"
209629,"426 W 10TH ST","NEWPORT","KY","41071"
209630,"426 W 3RD ST","WINTHROP","MN","55396"
209631,"426 W 4TH ST","HOMER","LA","71040"
209632,"426 W FRONT STREET","BURLINGTON","NC","27215"
209633,"426 WEST MAIN STREET","MERIDEN","CT","06451"
209634,"426 WHITTLE AVE SUITE C","OLNEY","IL","62450"
209635,"4260 44TH ST 331","SAN DIEGO","CA","92115"
209636,"4260 APPLECREST DR","PALM BEACH GARDENS","FL","33410"
209637,"4260 COMMUNICATIONS DRIVE","NORCROSS","GA","30093"
209638,"4260 CROSSLAND DRIVE","CUMMING","GA","30040"
209639,"4260 E UNIVERSITY AVE","GEORGETOWN","TX","78626"
209640,"4260 FM 967","BUDA","TX","78610"
209641,"4260 FRANCIS WAY","LA MESA","CA","91942"
209642,"4260 HWY 95","FORT MOHAVE","AZ","86426"
209643,"4260 LITTLE YORK ROAD SUITE 280243","HOUSTON","TX","77228"
209644,"4260 LONGSHORE WAY S","NAPLES","FL","34119"
209645,"4260 NE 35TH STREET","OCALA","FL","34479"
209646,"4260 RANCH RD 967","BUDA","TX","78610"
209647,"4260 ROOKWOOD AVE","INDIANAPOLIS","IN","46208"
209648,"4260 WEISE ROAD","CARSON CITY","NV","89703"
209649,"4260 WESTBROOK DRIVE SUITE 123","AURORA","IL","60504"
209650,"42600 CATTLE DR     48","ASH FORK","AZ","86320"
209651,"42605 HIGHWAY 27","DAVENPORT","FL","33897"
209652,"42607 STRINGTOWN LN","ASTORIA","OR","97103"
209653,"42607 SUNY BAY COURT","CHANTILLY","VA","20152"
209654,"42608 BUCKEYE ROAD","OAKHURST","CA","93644"
209655,"4261 ABBOTT AVE N","ROBBINSDALE","MN","55422"
209656,"4261 BELLE MEADE CIR","BELMONT","NC","28012"
209657,"4261 BEVERLY LN NE","ATLANTA","GA","30342"
209658,"4261 COUNTY ROAD 15","WADLEY","AL","36276"
209659,"4261 DEWEY AVENUE","ROCHESTER","NY","14616"
209660,"4261 DONNA WAY","LITHONIA","GA","30038"
209661,"4261 E UNIVERSITY DR  STE 30-239","PROSPER","TX","75078"
209662,"4261 E UNIVERSITY DRIVE STE 30-334","PROSPER","TX","75078"
209663,"4261 EAST AVENUE R13","PALMDALE","CA","93552"
209664,"4261 HAMPTON MILL PKWY","DOUGLASVILLE","GA","30135"
209665,"4261 LEIMERT BLVD","LOS ANGELES","CA","90008"
209666,"4261 LOCUST STREET","RIVERSIDE","CA","92501"
209667,"4261 LUSK DRIVE","SACRAMENTO","CA","95864"
209668,"4261 NW 115TH AVE","CORAL SPRINGS","FL","33065"
209669,"4261 S RATCLIFF RD","KINGMAN","IN","47952"
209670,"4261 TAYLOR ST","SACRAMENTO","CA","95838"
209671,"4261 UNION STREET","LEVANT","ME","04456"
209672,"4261 W MCNAB -14","POMPANO BEACH","FL","33069"
209673,"4261 W WOODHAVEN LOOP","COEUR D'ALENE","ID","83814"
209674,"42615 MIDKIFF ROAD","POMEROY","OH","45769"
209675,"4262 6TH AVE","SAN DIEGO","CA","92103"
209676,"4262 ANDERSON RIDGE WAY","AUSTELL","GA","30106"
209677,"4262 BLUE DIAMOND RD NO 102-335","LAS VEGAS","NV","89139"
209678,"4262 CORINTH BLVD","DAYTON","OH","45410"
209679,"4262 E ALLISON RD","CAMBY","IN","46113"
209680,"4262 MADEIRA CT","SARASOTA","FL","34233"
209681,"4262 REGENCY COURT NW","ATLANTA","GA","30327"
209682,"4262 REGENCY CT NW","ATLANTA","GA","30327"
209683,"4262 W 38TH STREET","INDIANAPOLIS","IN","46254"
209684,"42620 CAROLINE CT STE 103","PALM DESERT","CA","92211"
209685,"42621 N RIDGE RD","ELYRIA","OH","44035"
209686,"42622 SUNY BAY CT","CHANTILLY","VA","20152"
209687,"42624 ALBRAE STREET","FREMONT","CA","94538"
209688,"42626 GARFIELD RD STE 101B","CLINTON TWP","MI","48038"
209689,"4263 CARATOKE HWY","BARCO","NC","27917"
209690,"4263 MARIETTA ST","POWDER SPRINGS","GA","30127"
209691,"4263 NAMBE CT","LAS CRUCES","NM","88011"
209692,"4263 SUNRISE DR","SELLERSBURG","IN","47172"
209693,"4263 SW 10TH COURT","DEERFIELD BEACH","FL","33442"
209694,"4263 WATER OAK LN","SMITHTON","IL","62285"
209695,"42631 COUNTY HIGHWAY 19","SEBEKA","MN","56477"
209696,"42633 GARFIELD ROAD STE 314","CLINTON TOWNSHIP","MI","48038"
209697,"42636 8TH STREET WEST","LANCASTER","CA","93534"
209698,"42638 NW CEDAR CANYON ROAD","BANKS","OR","97106"
209699,"4264 AUSTIN HILLS DR","SUWANEE","GA","30024"
209700,"4264 E RIVER ROAD","BUCHANAN","MI","49107"
209701,"4264 GEMINI PATH","LIVERPOOL","NY","13090"
209702,"4264 LADY BURTON ST","LAS VEGAS","NV","89129"
209703,"4264 MEETING STREET RD  2","NORTH CHARLESTON","SC","29405"
209704,"4264 N HIGH ST","COLUMBUS","OH","43214"
209705,"4264 OVERLAND AVENUE","CULVER CITY","CA","90230"
209706,"4264 PIGGOTT","CENTREVILLE","IL","62207"
209707,"4264 SANDSTONE DR","ANTIOCH","TN","37013"
209708,"4264 W PIONEER DR APT 2037","IRVING","TX","75061"
209709,"42640 10TH STREET W","LANCASTER","CA","93534"
209710,"42643 FREEDOM ST","CHANTILLY","VA","20152"
209711,"42649 BRADFORDS TELEGRAPH CT","CHANTILLY","VA","20152"
209712,"4265 13TH AVE N","ST PETERSBURG","FL","33713"
209713,"4265 148TH AVENUE NE APT C208","BELLEVUE","WA","98007"
209714,"4265 ARROW CT","SARASOTA","FL","34232"
209715,"4265 BRAEMERE DR","SPRING HILL","FL","34609"
209716,"4265 DAUNTLESS DRIVE","RANCHO PALOS VERDES","CA","90275"
209717,"4265 FAIRMOUNT AVE 200","SAN DIEGO","CA","92105"
209718,"4265 FAIRMOUNT AVENUE STE 140","SAN DIEGO","CA","92105"
209719,"4265 FOXGLOVE TRACE","INDIANAPOLIS","IN","46237"
209720,"4265 KISSENA BLVD 205","FLUSHING","NY","11355"
209721,"4265 NW 65TH RD","BOCA RATON","FL","33496"
209722,"4265 REDMONT AVENUE","DEER PARK","OH","45236"
209723,"4265 RICE STREET","LIHUE","HI","96766"
209724,"4265 S WILSHIRE DR","NEW BERLIN","WI","53151"
209725,"4265 SAN FELIPE ST   STE 110","HOUSTON","TX","77027"
209726,"4265 SHARP LN","COLUMBUS","IN","47201"
209727,"4265 SW 102 COURT","MIAMI","FL","33165"
209728,"4265 WETZLER ROAD","FULTS","IL","62244"
209729,"42657 LOBELIA PLACE","CHANTILLY","VA","20152"
209730,"4266 MONTICELLO BLVD","SOUTH EUCLID","OH","44121"
209731,"4266 NEWBERRY CT","PALO ALTO","CA","94306"
209732,"4266 ROSWELL ROAD NE APT H2","ATLANTA","GA","30342"
209733,"4266 TULLER ROAD","DUBLIN","OH","43017"
209734,"4266 WEST 58TH PLACE","LOS ANGELES","CA","90043"
209735,"42660 NICHOLSVILLE ROAD","BAY MINETTE","AL","36507"
209736,"42660 PARADISE SPRING CT","ASHBURN","VA","20148"
209737,"4266841436781973","OWINGS MILLS","MD","21117"
209738,"4267 CENTRAL PIKE","HERMITAGE","TN","37076"
209739,"4267 CORAL SPRINGS DR","CORAL SPRINGS","FL","33065"
209740,"4267 CORTE DE SAUSALITO","SAN DIEGO","CA","92130"
209741,"4267 EAST WYNDEMERE CIRCLE","SCHNECKSVILLE","PA","18078"
209742,"4267 MARINA CITY DRIVE UNIT 514","MARINA DEL REY","CA","90292"
209743,"4267 N 3150 E","LIBERTY","UT","84310"
209744,"4267 OLD FOREST RD","MEMPHIS","TN","38125"
209745,"4267 TYNDALL AVE BLDG 283","NELLIS AFB","NV","89191"
209746,"4267 WOOD RIDE  APT B","BOYNTON BEACH","FL","33436"
209747,"42670 FRONTIER DRIVE","ASHBURN","VA","20148"
209748,"4268 BASS PRO DR 302","GARLAND","TX","75043"
209749,"4268 BASS PRO DR APT 302","GARLAND","TX","75043"
209750,"4268 CATHEDRAL CAVERNS ROAD","WOODVILLE","AL","35776"
209751,"4268 COLERAIN AVENUE","COLUMBUS","OH","43214"
209752,"4268 LAS FELIZ CT","UNION CITY","CA","94587"
209753,"4268 LIME ST","RIVERSIDE","CA","92501"
209754,"4268 MOUNT  ENRON DRIVE","VIEW PARK","CA","90008"
209755,"42687 SANDMAN TER","CHANTILLY","VA","20152"
209756,"4269 LIKINI ST","HONOLULU","HI","96818"
209757,"4269 NE SIMPSON COURT","PORTLAND","OR","97218"
209758,"4269 THOMPSON MILL ROAD","BUFORD","GA","30519"
209759,"4269 WESLEY HALL DRIVE","DECATUR","GA","30035"
209760,"426A BEECHER ROAD","GAHANNA","OH","43230"
209761,"427 11TH AVENUE","PLEASANT GROVE","AL","35127"
209762,"427 11TH STREET","WILLIAMS","CA","95987"
209763,"427 16TH ST","PORT HURON","MI","48060"
209764,"427 38TH STREET","BROOKLYN","NY","11232"
209765,"427 3RD AVE NE","FAYETTE","AL","35555"
209766,"427 44TH ST","WEST PALM BEACH","FL","33407"
209767,"427 AMERICAN BLVD","BRENTWOOD","NY","11717"
209768,"427 BRADFORD LANE","COLUMBIA","SC","29223"
209769,"427 BRADY ST APT 4","DAVENPORT","IA","52801"
209770,"427 BREGANTE DR","DIAMOND BAR","CA","91765"
209771,"427 BRISTOL AVE","CARDIFF","CA","92007"
209772,"427 BROADWAY APT 4","PASSAIC","NJ","07055"
209773,"427 CADENCE HILL ROAD","SAN ANTONIO","TX","78260"
209774,"427 CARMEL HILL RD N","BETHLEHEM","CT","06751"
209775,"427 CASCADE DR","LILBURN","GA","30047"
209776,"427 CEDAR PLACE","MAPLE LAKE","MN","55358"
209777,"427 CHAPLIN STREET SE","WASHINGTON","DC","20019"
209778,"427 CHERRY STREET","HELENA","AR","72342"
209779,"427 CLOVER STREET","DAYTON","OH","45410"
209780,"427 CLUBHOUSE DRIVE","SANTA MARIA","CA","93455"
209781,"427 COLLEGE ST","SPENCER","TN","38585"
209782,"427 CORONADO TERRACE UNIT 7","LOS ANGELES","CA","90026"
209783,"427 COUNTRY COURT","MOUNT LAUREL","NJ","08054"
209784,"427 CROOKS AVE  APT B3","PATERSON","NJ","07503"
209785,"427 D STREET","ANCHORAGE","AK","99501"
209786,"427 DUNMORE ROAD","FAYETTEVILLE","NC","28303"
209787,"427 DUSSEL DRIVE PMB 139","MAUMEE","OH","43551"
209788,"427 E 4TH ST","HUNTINGBURG","IN","47542"
209789,"427 E 6TH STREET NUM 5EW","NEW YORK","NY","10009"
209790,"427 E 9TH ST","MICHIGAN CITY","IN","46360"
209791,"427 E COLORADO AVENUE","COLORADO SPRINGS","CO","80903"
209792,"427 EAST 4TH STREET","BETHLEHEM","PA","18015"
209793,"427 EAST THOMAS STREET","DANVILLE","VA","24540"
209794,"427 EAST TYLER MALL - LSA 181","TEMPE","AZ","85287"
209795,"427 EVANS AVE","SAN ANTONIO","TX","78209"
209796,"427 EVANS AVE","SANANTONIO","TX","78209"
209797,"427 FRANKLIN AVENUE","BROOKLYN","NY","11238"
209798,"427 HAMBRICK RD","DALLAS","TX","75218"
209799,"427 HARDING AVE","MONTEREY PARK","CA","91754"
209800,"427 HARRISON ST","ALLENTOWN","PA","18103"
209801,"427 HEATHERTON HILL DRIVE","ROSENBERG","TX","77469"
209802,"427 HIGHLAND AVE","NEW ABLANY","IN","47150"
209803,"427 HWY 315W","SLEDGE","MS","38670"
209804,"427 IRVINE TURNER BLVD","NEWARK","NJ","07108"
209805,"427 IRVINGTON STREET","DALY CITY","CA","94014"
209806,"427 JACKSON AVE SUITE 301","NEW ORLEANS","LA","70130"
209807,"427 JEFFREYS DR","ELIZABETH","PA","15037"
209808,"427 KEIFFER DRIVE","RINCON","GA","31326"
209809,"427 KING ARNOLD STREET","HAPEVILLE","GA","30354"
209810,"427 LEDGEVIEW DRIVE","ROCHESTER","NH","03839"
209811,"427 LINKS DR","ROSLYN","NY","11576"
209812,"427 MAIN PO BOX 154","ST PAUL","KS","66771"
209813,"427 MAIN PO BOX 154","ST. PAUL","KS","66771"
209814,"427 MASSACHUSETTS AVENUE","BOXBOROUGH","MA","01719"
209815,"427 MEADOWBRANCH AVE","WINCHESTER","VA","22601"
209816,"427 MIDDLE ST","DAYTON","OH","45402"
209817,"427 MONROE ST APT  B","BROOKLYN","NY","11221"
209818,"427 N 37TH PL","ROGERS","AR","72756"
209819,"427 N 6TH AVE","POCATELLO","ID","83201"
209820,"427 N MINNESOTA AVE STE 101","SIOUX FALLS","SD","57104"
209821,"427 N TATNALL ST 41011","WILMINGTON","DE","19801"
209822,"427 N TATNALL ST 93511","WILMINGTON","DE","19801"
209823,"427 N TATNALL ST SUITE 23114","WILMINGTON","DE","19801"
209824,"427 N TATNALL ST","WILMINGTON","DE","19801"
209825,"427 N TATNALL STREET NUM 34539","WILMINTON","DE","19801"
209826,"427 N THEARD ST SUITE 142","COVINGTON","LA","70433"
209827,"427 N THEARD ST UNIT 296","COVINGTON","LA","70433"
209828,"427 N UNION ST","PHILADELPHIA","PA","19104"
209829,"427 NAPLES RD","JACKSON","MS","39206"
209830,"427 NORTH HAYDEN BAY DRIVE","PORTLAND","OR","97217"
209831,"427 NORTH HERNANDEZ COURT","TAMPA","FL","33603"
209832,"427 NW 1ST TERRACE / UNIT  A","DEERFIELD BEACH","FL","33441"
209833,"427 NW 7TH ST","CORVALLIS","OR","97330"
209834,"427 OAKLAND AVENUE","EGG HARBOR TOWNSHIP","NJ","08234"
209835,"427 OLD HOUSE RD","ATHOL","ID","83801"
209836,"427 OLD OTIS ROAD","DANBY","VT","05739"
209837,"427 PANOLA COURT","INDIANAPOLIS","IN","46239"
209838,"427 PAU STREET","HONOLULU","HI","96815"
209839,"427 PEARL STREET","BROWNSVILLE","PA","15417"
209840,"427 PINE AVE","ALTOONA","PA","16601"
209841,"427 PROMENADE ESTATES LN","STAFFORD","TX","77477"
209842,"427 RICE AVE","ARCOLA","TX","77583"
209843,"427 RIGG STREET","SANTA CRUZ","CA","95060"
209844,"427 RT 17M","MONROE","NY","10950"
209845,"427 RUNNING CREEK LN","SUMMERVILLE","SC","29435"
209846,"427 S BAIRD ST","GREEN BAY","WI","54301"
209847,"427 S MAIN ST","MECHANICVILLE","NY","12118"
209848,"427 SAINT CHARLES ST","ELGIN","IL","60120"
209849,"427 SEABREEZE DRIVE","RINCON","GA","31326"
209850,"427 SHERWOOD DRIVE","SAUSALITO","CA","94965"
209851,"427 SHERWOOD STREET","TOCCOA","GA","30577"
209852,"427 SOUTH 14TH STREET","LA CROSSE","WI","54601"
209853,"427 SOUTH FOSTER DRIVE","BATON ROUGE","LA","70806"
209854,"427 SOUTHLAKE DRIVE","FORNEY","TX","75126"
209855,"427 ST ANNS AVENUE APT 1B","BRONX","NY","10454"
209856,"427 TUSCULUM AVENUE","CINCINNATI","OH","45226"
209857,"427 W ARMY TRAIL RD","BLOOMINGDALE","IL","60108"
209858,"427 W DUSSEL DR PMB 157","MAUMEE","OH","43537"
209859,"427 W DUSSEL DR SUITE 167","MAUMEE","OH","43537"
209860,"427 W DUSSEL DRIVE NO 3808","MAUMEE","OH","43537"
209861,"427 W GOLDENGATE","HIGHLAND PARK","MI","48203"
209862,"427 W LANDIS AVENUE","VINELAND","NJ","08360"
209863,"427 WATER STREET","SUMMERSVILLE","WV","26651"
209864,"427 WEST DUSSEL DRIVE 194","MAUMEE","OH","43537"
209865,"427 WEST MAIN STREET","BRIGHTON","MI","48116"
209866,"427 WESTPORT ROAD","KANSAS CITY","MO","64111"
209867,"427 WHITNEY STREET","CEDAR HILL","TX","75104"
209868,"427","VIRGINIA BEACH","VA","23454"
209869,"4270 39TH AVE S","FARGO","ND","58104"
209870,"4270 BOURBON ST - APT 101","FRISCO","TX","75034"
209871,"4270 CORTE FAVOR","SAN DIEGO","CA","92130"
209872,"4270 E MERCER LN","PHOENIX","AZ","85028"
209873,"4270 E MERCER LN","SCOTTSDALE","AZ","85258"
209874,"4270 GENYTH AVENUE","MEMPHIS","TN","38128"
209875,"4270 GREEN VALLEY RD","CIBOLO","TX","78108"
209876,"4270 IVY RUN","ELLENWOOD","GA","30294"
209877,"4270 N BLACKSTONE AVENUE SUITE 212","FRESNO","CA","93726"
209878,"4270 N HAMMOCK DR","COLORADO SPRINGS","CO","80917"
209879,"4270 NATURE TRAIL DR SE APT 3A","KENTWOOD","MI","49512"
209880,"4270 NE 1ST TERRACE","OAKLAND PARK","FL","33334"
209881,"4270 NEPAL DR","HERMITAGE","TN","37076"
209882,"4270 OAKWOOD AVE","LA CANADA FLINTRIDGE","CA","91011"
209883,"4270 PEARL AVENUE","SAN JOSE","CA","95123"
209884,"4270 S DECATUR BLVD SUITE A8","LAS VEGAS","NV","89103"
209885,"4270 SLEEPY LAKE DRIVE","FAIRFAX","VA","22033"
209886,"4270 SW 70 TERRACE","DAVIE","FL","33314"
209887,"4270 TAMIAMI TRAIL E SUITE 13","NAPLES","FL","34112"
209888,"4270 W 6TH ST","LOS ANGELES","CA","90020"
209889,"42700 ST JOHN ROAD","HOLLYWOOD","MD","20636"
209890,"42705 GRAND RIVER AVE 201","NOVI","MI","48375"
209891,"42709 W BRAVO","DR","AZ","85138"
209892,"4271 60TH STREET","HOLLAND","MI","49423"
209893,"4271 ALTOONA DRIVE APT 423E","DALLAS","TX","75233"
209894,"4271 CHELSEA HARBOR DRIVE W","JACKSONVILLE","FL","32224"
209895,"4271 DELOR ST","SAINT LOUIS","MO","63116"
209896,"4271 HEMPSTEAD TURNPIKE","BETHPAGE","NY","11714"
209897,"4271 HWY 212","COVINGTON","GA","30016"
209898,"4271 MOON STATION LANE","ACWORTH","GA","30101"
209899,"4271 W 21ST STREET","CLEVELAND","OH","44109"
209900,"42712 ALBRAE ST","FREMONT","CA","94538"
209901,"4272 BUCKSKIN WOOD DRIVE","ELLICOTT CITY","MD","21042"
209902,"4272 FREMONT AVE N","SEATTLE","WA","98103"
209903,"4272 JAMESBOROUGH PLACE","NASHVILLE","TN","37215"
209904,"4272 LANGLEY CT SE","GRAND RAPIDS","MI","49508"
209905,"4272 VIOLET WAY COURT","LOGANVILLE","GA","30052"
209906,"4272 W 1700 S","SYRACUSE","UT","84075"
209907,"42724 KEILLER TERRACE","ASHBURN","VA","20147"
209908,"42726 N COURAGE TRL","ANTHEM","AZ","85086"
209909,"4273 CARTER COURT","CONCORD","CA","94521"
209910,"4273 HIGHWAY E","NEW HAVEN","MO","63068"
209911,"4273 MC CLUNG DRIVE","LOS ANGELES","CA","90008"
209912,"4273 MOHAVE CT SW","GRANDVILLE","MI","49418"
209913,"4273 NW 5TH AVE","BOCA RATON","FL","33431"
209914,"4273 VIOLET WAY COURT","LOGANVILLE","GA","30052"
209915,"4273 WAYNE AVE","AMMON","ID","83406"
209916,"4273 WENDELL DR SW","ATLANTA","GA","30336"
209917,"42736 D ROAD","CRAWFORD","CO","81415"
209918,"427377 E 270 RD","CHELSEA","OK","74016"
209919,"4274 AUSTIN CT","LAPEER","MI","48446"
209920,"4274 COLBY ROAD","WINCHESTER","KY","40391"
209921,"4274 HARBOR PARK","CROWN POINT","IN","46307"
209922,"4274 N BLACKSTONE AVE STE 103","FRESNO","CA","93726"
209923,"4274 N BLACKSTONE AVE SUITE 103","FRESNO","CA","93726"
209924,"4274 SIR DIXON DRIVE","FAIRBURN","GA","30213"
209925,"427424 E 1060 RD","CHECOTAH","OK","74426"
209926,"42743 MIRROR POND PLACE","ASHBURN","VI","20148"
209927,"42743 ROBERTS AVE","FREMONT","CA","94538"
209928,"42743 SCARLETT CIRCLE","HAMMOND","LA","70403"
209929,"42743 ST LAWRENCE AVE","THOUSAND ISLAND PARK","NY","13692"
209930,"427486 E 1060 RD","CHECOTAH","OK","74426"
209931,"4275 COUNTY ROAD LM","TEKAMAH","NE","68061"
209932,"4275 D INDEPENDENCE LOOP","KAPOLEI","HI","96707"
209933,"4275 FM 2135","CLEBURNE","TX","76031"
209934,"4275 HARLAN ST WHEAT RIDGE","WHEAT RIDGE","CO","80033"
209935,"4275 INDIAN HILLS RD","NASHVILLE","IN","47448"
209936,"4275 MARTIN LUTHER KING JR","LYNWOOD","CA","90262"
209937,"4275 NAPOLI CT","INDIANAPOLIS","IN","46235"
209938,"4275 REDSTAR CT","CALIFORNIA","CA","92505"
209939,"4275 SEDWICK ROAD","MARTINSVILLE","IN","46151"
209940,"4275 YOUNGSTOWN DR","GREENSBORO","NC","27405"
209941,"4275","FLINT","MI","48504"
209942,"42754 HAMILTON WAY","FREMONT","CA","94538"
209943,"4276 CASCADE SKY DRIVE","ARLINGTON","TX","76005"
209944,"4276 CHAMBLEE DUNWOODY RD","ATLANTA","GA","30341"
209945,"4276 GREEN AVENUE","LOS ALAMITOS","CA","90720"
209946,"4276 PINE HOLLOW CIR","GREENA","FL","33463"
209947,"4276 PINE HOLLOW CIR","GREENACRES","FL","33463"
209948,"4276 S CENTINELA AVE APT 106","LOS ANGELES","CA","90066"
209949,"4276 TRADEWINDS DRIVE","JACKSONVILLE BEACH","FL","32250"
209950,"42763 CONQUEST CIRCLE","ASHBURN","VA","20148"
209951,"4277 CENTERVILLE DR","COLORADO SPRINGS","CO","80922"
209952,"4277 E LK SAMM SHORE LN SE","SAMMAMISH","WA","98075"
209953,"4277 PINECROFT COURT","WEST BLOOMFIELD","MI","48322"
209954,"4277 RIVER OAKS RD","CLOVER","SC","29710"
209955,"4277 ROYAL WOODS LN","BELLBROOK","OH","45305"
209956,"4277 W 1200 S","DALE","IN","47523"
209957,"42770 CALLE ORTEGA","MURRIETA","CA","92562"
209958,"4278 APPALACHIAN HIGHWAY","ROCK VIEW","WV","24880"
209959,"4278 CORINNE CUTOFF","CORINNE","UT","84307"
209960,"4278 FOX HOLLOW CIRCLE","CASSELBERRY","FL","32707"
209961,"4278 GRISCOM ST","PHILADLEPHIA","PA","19124"
209962,"4278 HAMILTON AVE","CINCINNATI","OH","45223"
209963,"4279 BRIDLE TRAIL","AKRON","OH","44333"
209964,"4279 BROWN FARM DRIVE","HAMILTON","OH","45013"
209965,"4279 CEDAR HILLS RD","MEMPHIS","TN","38135"
209966,"4279 COMMERCE CIRCLE","IDAHO FALLS","ID","83401"
209967,"4279 CURVE RD","DELAWARE","OH","43015"
209968,"4279 HIDDEN VALLEY RD","DECATUR","GA","30035"
209969,"4279 LINECREST LANE","ELLENWOOD","GA","30294"
209970,"4279 S STATE HWY 19","PALESTINE","TX","75801"
209971,"4279 W OAK AVENUE","FULLERTON","CA","92833"
209972,"42795 JOLLE COURT","TEMECULA","CA","92593"
209973,"427B LILIHA COURT LN","HONOLULU","HI","96817"
209974,"428 1ST ST PO BOX 152","MESERVEY","IA","50457"
209975,"428 5TH STREET","COLUMBUS","IN","47201"
209976,"428 ANN STREET","CARY","NC","27511"
209977,"428 AVALON TRL","HEDGESVILLE","WV","25427"
209978,"428 BARBEY STREET","BROOKLYN","NY","11207"
209979,"428 BELLISSIMO PLACE","HOWEY IN THE HILLS","FL","34737"
209980,"428 BENNETT MOUNTAIN TRACE","CHAPEL HILL","NC","27516"
209981,"428 BERCKMAN DR NW","LILBURN","GA","30047"
209982,"428 BREEZEWOOD DRIVE","CHARLOTTE","NC","28262"
209983,"428 BRIAN AVE","VIRGINIA BEACH","VA","23462"
209984,"428 CHAROLAIS LAKE DR","BIDWELL","OH","45614"
209985,"428 CHEROKEE AVENUE","SAINT PAUL","MN","55107"
209986,"428 CHILDERS STREET","PENSACOLA","FL","32534"
209987,"428 CIRCLE DRIVE","ABINGDON","VA","24210"
209988,"428 CLAIRCREST DR","ANTIOCH","TN","37013"
209989,"428 DENVER ST","STERLING","CO","80751"
209990,"428 DOROTHY AVE","VENTURA","CA","93003"
209991,"428 DOWNING DRIVE","DANVILLE","VA","24541"
209992,"428 E 10TH STREET","NEW YORK","NY","10009"
209993,"428 E 6TH STREET","ANNISTON","AL","36207"
209994,"428 E FARLOW RD","RICHMOND","IN","47374"
209995,"428 E MAGNOLIA AVE","ALDAN","PA","19018"
209996,"428 E MCKINLEY ST","TEMPE","AZ","85281"
209997,"428 E THUNDERBIRD ROAD  BOX 539","PHOENIX","AZ","85023"
209998,"428 E THUNDERBIRD ROAD - UNIT 537","PHOENIX","AZ","85022"
209999,"428 E THUNDERBIRD ROAD NO 632","PHOENIX","AZ","85022"
210000,"428 EARL SMITH ROAD","MONTICELLO","KY","42633"
