"ID","Address","City","State","Zip"
164501,"308 SW 25TH ST","OKLAHOMA CITY","OK","73109"
164502,"308 SW E ST","BENTONVILLE","AR","72712"
164503,"308 TEMPRANILLO WAY","LAKEWAY","TX","78738"
164504,"308 THROOP AVENUE","BROOKLYN","NY","11206"
164505,"308 TIGERS EYE RUN","DUNCAN","SC","29334"
164506,"308 TIMBERLINE PLACE","BRICK","NJ","08723"
164507,"308 TORONTO DRIVE","LAFAYETTE","LA","70507"
164508,"308 TOWNSEND AVENUE","ADAIRVILLE","KY","42202"
164509,"308 TRAFALGAR LANE","CARY","NC","27513"
164510,"308 TURNER ROAD SUITE J","RICHMOND","VA","23225"
164511,"308 VICTORIA DRIVE","NORMAL","IL","61761"
164512,"308 W 10TH STREET","SCHUYLER","NE","68661"
164513,"308 W 12TH ST","FERRIS","TX","75125"
164514,"308 W 3RD ST","CHESTER","PA","19013"
164515,"308 W 46TH ST","NEW YORK","NY","10036"
164516,"308 W 8TH ST APT 604","KANSAS CITY","MO","64105"
164517,"308 W 8TH ST","GRAND ISLAND","NE","68801"
164518,"308 W ATLANTA  AVE","VIVIAN","LA","71082"
164519,"308 W AUSTIN ST","BROKEN ARROW","OK","74011"
164520,"308 W CHELTEN AVE","PHILADELPHIA","PA","19144"
164521,"308 W CRESCENT DRIVE","LAKELAND","FL","33805"
164522,"308 W ELIZABETH ST","CLINTON","NC","28328"
164523,"308 W JEFFERSON ST","PITTSFIELD","IL","62363"
164524,"308 W KIBBY ST","LIMA","OH","45804"
164525,"308 W ROBINSON ST","GOODFIELD","IL","61742"
164526,"308 W TIFT AVE","ALBANY","GA","31701"
164527,"308 W WILSON AVE","GLENDALE","CA","91203"
164528,"308 WALKER STREET","WINCHESTER","VA","22601"
164529,"308 WEST ANTELOPE DRIVE APT G","LAYTON","UT","84041"
164530,"308 WEST GIBBONS STREET","LINDEN","NJ","07036"
164531,"308 WEST MAIN ST","MONTPELIER","OH","43543"
164532,"308 WEST MAIN STREET","DURAND","IL","61024"
164533,"308 WEST PALMYRA DRIVE","VIRGINIA BEACH","VA","23462"
164534,"308 WHITNEY CHASE","STONE MOUNTAIN","GA","30088"
164535,"308 WILLIAMS PLACE","EAST DUNDEE","IL","60118"
164536,"308 WILLIAMS ST","WILLIAMSTON","SC","29697"
164537,"308 WOLFE STREET","ALEXANDRIA","VA","22314"
164538,"308 WOODFERN COURT","MOUNT JULIET","TN","37122"
164539,"308 WOODS RD","RUSTON","LA","71270"
164540,"308-L POMONA DRIVE","GREENSBORO","NC","27407"
164541,"3080 DREWERSBURG ROAD","WEST HARRISON","IN","47060"
164542,"3080 E PICKERING RD","SHELTON","WA","98584"
164543,"3080 FISHTRAP","PROSPER","TX","75078"
164544,"3080 GRASSLAND LANE","KYLE","TX","78640"
164545,"3080 MAIN HWY","BREAUX BRIDGE","LA","70517"
164546,"3080 MCCALL DR STE 6","ATLANTA","GA","30340"
164547,"3080 MOCKINGBIRD WAY","OSHKOSH","WI","54904"
164548,"3080 N CR 275 W","NORTH VERNON","IN","47265"
164549,"3080 NW PARK VIEW LANE","PORTLAND","OR","97229"
164550,"3080 REUBEN DRIVE","RENO","NV","89502"
164551,"3080 S FORT AVE","SPRINGFIELD","MO","65807"
164552,"3080 ST ROSE PKWY 1157","HENDERSON","NV","89052"
164553,"3080 WHITNEY AVENUE","MEMPHIS","TN","38128"
164554,"30803 DUNN RD","DENHAM SPRINGS","LA","70726"
164555,"30806 BOW BRIDGE DR","MURRIETA","CA","92563"
164556,"30807 UNION CITY BLVD","UNION CITY","CA","94587"
164557,"3081 COLUMBUS PIKE","DELAWARE","OH","43015"
164558,"3081 COYOTE POINT PLACE","EL PASO","TX","79938"
164559,"3081 FOUST DR","SPRING HILL","TN","37174"
164560,"3081 N MAIN ST APT 30","WALNUT CREEK","CA","94597"
164561,"3081 ROUNDWAY DOWN LN","LEXINGTON","KY","40509"
164562,"3081 W OLD ANDREW JOHNSON HWY","STRAWBERRY PLAINS","TN","37871"
164563,"30812 NEECE RD","MIDDLEPORT","OH","45760"
164564,"30812 SOUTH COAST HIGHWAY","LAGUNA BEACH","CA","92651"
164565,"3082 BUTTERFIELD AVENUE","LA VERNE","CA","91750"
164566,"3082 KIRKWOOD DRIVE","KENNESAW","GA","30144"
164567,"3082 ROWLAND AVE","OSKALOOSA","IA","52577"
164568,"3082 WINNIPEG ST","MENASHA","WI","54952"
164569,"30826 PRESTWICK AVE","SORRENTO","FL","32776"
164570,"30828 W 174TH ST","LAWSON","MO","64062"
164571,"3083 BRANDI LANE","BETHEL","OH","45106"
164572,"3083 COOSA COUNTY RD 150","SYLACAUGA","AL","35150"
164573,"3083 COVENTRY DR","BAY CITY","MI","48706"
164574,"3083 CRAWFORDVILLE HWY","CRAWFORDVILLE","FL","32327"
164575,"3083 FRAMINGHAM CIRCLE","COLUMBUS","OH","43224"
164576,"3083 HERSCHEL AVE APT 304","DALLAS","TX","75219"
164577,"3083 RASMUS CIRCLE","SAN JOSE","CA","95148"
164578,"3083 TRAILS END","AUBREY","TX","76227"
164579,"3083 WOOD ROAD","OCONTO","WI","54153"
164580,"30830 CALLE JESSICA","THOUSAND PALMS","CA","92276"
164581,"30835 COUNTY ROAD 15","LAS ANIMAS","CO","81054"
164582,"30835 STONE RIDGE DRIVE APT 5101","WIXOM","MI","48393"
164583,"30838 VINES CREEK RD UNIT 3","DAGSBORO","DE","19939"
164584,"30839 SILVER PALM DR","HOMELAND","CA","92548"
164585,"3084 BICENTENNIAL PARKWAY","HENDERSON","NV","89044"
164586,"3084 CALAVO DRIVE","SPRING VALLEY","CA","91978"
164587,"3084 DEES CIR","SEALY","TX","77474"
164588,"3084 FOREST STREET","DENVER","CO","80207"
164589,"3084 RHODODENDRON PLACE","LAKE WYLIE","SC","29710"
164590,"3084 SHORELINE DR","LEWIS CENTER","OH","43035"
164591,"3084 SOUTHCREEK DRIVE","LINCOLN","CA","95648"
164592,"3084 STOUT ROAD","LUCAS","OH","44843"
164593,"30844 WESTRIDGE TERRACE","SORRENTO","FL","32776"
164594,"3085 ARTHUR COURT","SANTA CLARA","CA","95051"
164595,"3085 BUTLER RIDGE ROAD","DELTONA","FL","32738"
164596,"3085 E WALTON BLVD","AUBURN HILLS","MI","48326"
164597,"3085 ECLIPSE RIDGE LANE","LAS CRUCES","NM","88011"
164598,"3085 EL PORVENIR WAY","SAN YSIDRO","CA","92173"
164599,"3085 ENGLISH OAK CIRCLE","STOCKTON","CA","95209"
164600,"3085 GREENVIEW DR","CASTRO VALLEY","CA","94546"
164601,"3085 INGRAHAM STREET - UNIT 308","SAN DIEGO","CA","92109"
164602,"3085 KNOX MCRAE DRIVE","TITUSVILLE","FL","32780"
164603,"3085 LISMORE CT","SANTA ROSA","CA","95135"
164604,"3085 PINE ALLEE COVE","MEMPHIS","TN","38115"
164605,"3085 POWELL ST","EUGENE","OR","97405"
164606,"3085 S HOBART WAY","DENVER","CO","80227"
164607,"3085 SOUTH JONES BLVD SUITE B","LAS VEGAS","NV","89146"
164608,"3085 SOUTHFIELD DRIVE","COLUMBUS","OH","43207"
164609,"3085 WEST 116TH STREET","CARMEL","IN","46032"
164610,"30850 MURRIETA ROAD","MENIFEE","CA","92584"
164611,"30850 TELEGRAPH RD STE 250","BINGHAM FARMS","MI","48025"
164612,"3086 ABERDEEN CT","MARIETTA","GA","30062"
164613,"3086 BAKER AVE","WELLFLEET","MA","02667"
164614,"3086 BRAY RD","VIRGINIA BEACH","VA","23452"
164615,"3086 FARMALL STREET","BOZEMAN","MT","59718"
164616,"3086 HIGHWAY 26","DERIDDER","LA","70634"
164617,"3086 N FM 373","MUENSTER","TX","76252"
164618,"3086 PERRIWINKLE CIRCLE","DAVIE","FL","33328"
164619,"3086 PROCIOUS MAYSEL RD","MAYSEL","WV","25133"
164620,"3086 STONEBRIDGE DRIVE","STATE COLLEGE","PA","16801"
164621,"30860 COUNTY 37","LAPORTE","MN","56461"
164622,"30865 KELMIN TERRACE","WESLEY CHAPEL","FL","33543"
164623,"3087 COUNTY ROAD 331","CHEROKEE","TX","76832"
164624,"3087 DIAMOND HEAD DRIVE E","CLEARWATER","FL","33761"
164625,"3087 GLAZIER WAY","ANN ARBOR","MI","48105"
164626,"3087 N 2250 E","LAYTON","UT","84040"
164627,"3087 N COUNTY ROAD 53","MAYO","FL","32066"
164628,"3087 SW CIRCLE STREET","PORT SAINT LUCIE","FL","34953"
164629,"3087 WASHINGTON ROAD APT 4","EAST POINT","GA","30344"
164630,"3087 WESTWOOD ROAD","AUGUSTA","GA","30909"
164631,"30871 PASEO EL MARMOL","SAN JUAN CAPISTRANO","CA","92675"
164632,"30871 SAWGRASS LANE","WESTLAKE","OH","44145"
164633,"3088 FLORA ROAD","BELVIDERE","IL","61008"
164634,"3088 FUJI ISLAND STREET","WEST SACRAMENTO","CA","95691"
164635,"3088 LAWTON","DETROIT","MI","48216"
164636,"3088 MARTIN AVE","OMAHA","NE","68112"
164637,"3088 NEWCASTLE RD","MARION","IA","52302"
164638,"3088 S OLD CLIFTY ROAD","BLOOMFIELD","IN","47424"
164639,"3088 SPRING HILL PARKWAY SE UNIT C","SMYRNA","GA","30080"
164640,"3088 SW FAIRMOUNT BLVD","PORTLAND","OR","97239"
164641,"3088 WEST 1750 SOUTH","VERNAL","UT","84078"
164642,"30882 HWY NN","BLACKBURN","MO","65321"
164643,"30885 PARMA RD","PARMA","ID","83660"
164644,"3089 BECKET ROAD","CLEVELAND","OH","44120"
164645,"3089 COUNTY ROAD 37 NW","MAPLE LAKE","MN","55358"
164646,"3089 GREENLAKE DR","DECATUR","IL","62521"
164647,"3089 HULL ST","RICHMOND","VA","23224"
164648,"3089 PUHALA RISE","HONOLULU","HI","96822"
164649,"3089 WOODSTONE DRIVE","LEWIS CENTER","OH","43035"
164650,"30890 LYNDON ST","LIVONIA","MI","48154"
164651,"30893 BLANTON RD","EUGENE","OR","97405"
164652,"30895 CREPE MYRTLE DRIVE UNIT 66","MILLSBORO","DE","19966"
164653,"30896 HUNTSMAN DR E","FARMINGTON HILLS","MI","48331"
164654,"309  D CHAVARRIA RD","EAGLE PASS","TX","78852"
164655,"309 1/2 4TH AVENUE SW","CAMBRIDGE","MN","55008"
164656,"309 10TH ST NE","WASHINGTON","DC","20002"
164657,"309 10TH STREET S APT 304","ARLINGTON","VA","22202"
164658,"309 111TH STREET OCEAN","MARATHON","FL","33050"
164659,"309 11TH STREET  D4","UNION CITY","NJ","07087"
164660,"309 37TH AVE NE","GREAT FALLS","MT","59404"
164661,"309 3RD AVENUE","HAMPTON","IL","61256"
164662,"309 5TH STREET","ELLWOOD CITY","PA","16117"
164663,"309 5TH STREET","WARETOWN","NJ","08758"
164664,"309 A MONTEREY ROAD","RICHLAND","MS","39218"
164665,"309 ALEXANDER AVENUE","BRONX","NY","10454"
164666,"309 ALLEN ST","CLINTON","WI","53525"
164667,"309 ALWOODLEY CT","ROSEVILLE","CA","95678"
164668,"309 AMARILLO STREET","DENTON","TX","76201"
164669,"309 ANGELETTA WAY","LOUISVILLE","KY","40214"
164670,"309 ANGUS BLVD","WARNER ROBINS","GA","31088"
164671,"309 ARDENWOOD DR","LAFAYETTE","LA","70508"
164672,"309 ARMORY STREET","GREENSBORO","AL","36744"
164673,"309 ARMY BLVD","SAN ANTONIO","TX","78215"
164674,"309 ASHBURY SQUARE","MEBANE","NC","27302"
164675,"309 ASHMORE DRIVE","CARL JUNCTION","MO","64834"
164676,"309 AVALON DRIVE","ASHLAND","OR","97520"
164677,"309 AVENUE C APT 8B","NEW YORK","NY","10009"
164678,"309 BAFFLE CT","SWANSBORO","NC","28584"
164679,"309 BANYON TREE LANE","CARY","NC","27513"
164680,"309 BAY DRIVE","STEVENSVILLE","MD","21666"
164681,"309 BELMONT COURT","MULLICA HILL","NJ","08062"
164682,"309 BENTON STREET","PORT TOWNSEND","WA","98368"
164683,"309 BLOOM PLACE","PRESCOTT","AZ","86303"
164684,"309 BLOOMFIELD AVENUE STE 2","CALDWELL","NJ","07006"
164685,"309 BLOOMFIELD AVENUE SUITE 2","CALDWELL","NJ","07006"
164686,"309 BLUFF AVE","LA GRANGE","IL","60525"
164687,"309 BLUFF ST","WINNEBAGO","NE","68071"
164688,"309 BONNEWITZ AVE","VAN WERT","OH","45891"
164689,"309 BORDEAUX LANE","CARY","NC","27511"
164690,"309 BOTANY ROAD","GREENVILLE","SC","29615"
164691,"309 BRENTWOOD AVENUE","TRUSSVILLE","AL","35173"
164692,"309 BROADMOOR DRIVE","NASHVILLE","TN","37216"
164693,"309 BROOKWOOD DR","DUBLIN","GA","31021"
164694,"309 BRUSHWOOD DR","OWINGS MILLS","MD","21117"
164695,"309 BUCKNER CLARK ROAD","PITTSBORO","NC","27312"
164696,"309 CAMPBELL AVE","ROANOKE","VA","24016"
164697,"309 CAPITOL ST","FORT GIBSON","OK","74434"
164698,"309 CARAWAY DRIVE","BEAR","DE","19701"
164699,"309 CEDAR CT","WINLOCK","WA","98596"
164700,"309 CENTRAL HEIGHTS DR","CONCORD","NC","28025"
164701,"309 CHERRY LANE","MANTECA","CA","95337"
164702,"309 CHERRY WAY","BOWLING GREEN","KY","42101"
164703,"309 CHURCH STREET APT 107","NASHVILLE","TN","37201"
164704,"309 CHURCH STREET","BETHEL PARK","PA","15102"
164705,"309 CINDY DRIVE","BUFFALO","NY","14221"
164706,"309 CLAIBORNE WAY","MONROE","GA","30655"
164707,"309 COACH HILL DRIVE","GAFFNEY","SC","29340"
164708,"309 COMMERCE AVE","MOREHEAD CITY","NC","28562"
164709,"309 COPLEY ROAD","UPPER DARBY","PA","19082"
164710,"309 COURT AVENUE STE 811","DES MOINES","IA","50309"
164711,"309 COURT AVENUE","DES MOINES","IA","50309"
164712,"309 COURTNEY CIR","BLACKSBURG","VA","24060"
164713,"309 D STREET","CENTRAL CITY","NE","68826"
164714,"309 DANNY LANE","NORTHVALE","NJ","07647"
164715,"309 DEEP SPRINGS DR","CHITTENANGO","NY","13037"
164716,"309 DEER LANE","GREENSBURG","PA","15601"
164717,"309 DEMOPOLIS HWY","EUTAW","AL","35462"
164718,"309 DETROIT AVENUE","MONROE","MI","48162"
164719,"309 DOBY ST","CAMDEN","SC","29020"
164720,"309 E 20TH ST","FARMINGTON","NM","87401"
164721,"309 E 4TH STREET","BERWICK","PA","18603"
164722,"309 E ALMOND DRIVE","WASHINGTON","IL","61571"
164723,"309 E CENTERVIEW DR","CARSON","CA","90746"
164724,"309 E COLUMBIA ST","EVANSVILLE","IN","47711"
164725,"309 E GARRETT RUN","AUSTIN","TX","78753"
164726,"309 E HAWTHORNE ST","DALTON","GA","30721"
164727,"309 E HILCREST UNIT 246","INGLEWOOD","CA","90301"
164728,"309 E HILLCREST        325","INGLEWOOD","CA","90301"
164729,"309 E HILLCREST AVE SUITE 566","INGLEWOOD","CA","90301"
164730,"309 E HILLCREST BLVD  274","INGLEWOOD","CA","90301"
164731,"309 E HILLCREST BLVD 282","INGLEWOOD","CA","90301"
164732,"309 E HILLCREST BLVD 303","INGLEWOOD","CA","90301"
164733,"309 E HILLCREST BLVD 587","INGLEWOOD","CA","90301"
164734,"309 E HILLCREST BOULEVARD SUITE 562","INGLEWOOD","CA","90301"
164735,"309 E LAKE ST","MINNEAPOLIS","MN","55408"
164736,"309 E LINCOLNWAY","VALPARAISO","IN","46383"
164737,"309 E MAIN ST","SALISBURY","MD","21801"
164738,"309 E MAIN STREET","KINGSTREE","SC","29556"
164739,"309 E MANSION STREET","MARSHALL","MI","49068"
164740,"309 E MARKET STREET","WOLCOTT","IN","47995"
164741,"309 E MOBILE TERRACE","MUSTANG","OK","73064"
164742,"309 E MOREHEAD ST APT 601","CHARLOTTE","NC","28202"
164743,"309 E NAVASOTA","GROESBECK","TX","76642"
164744,"309 E PLAINSMEN RD","PRAIRIE CITY","IA","50228"
164745,"309 E RAND ROAD","ARLINGTON HEIGHTS","IL","60004"
164746,"309 E RENNESOY DRIVE","NEWARK","IL","60541"
164747,"309 E YELM AVE","YELM","WA","98597"
164748,"309 EAST 100 SOUTH APT 515","SALT LAKE CITY","UT","84111"
164749,"309 EAST 26TH STREET","HIBBING","MN","55746"
164750,"309 EAST 4TH STREET  SUITE  1C","NEW YORK","NY","10009"
164751,"309 EAST GRAND RIVER","WEBBERVILLE","MI","48892"
164752,"309 EAST HACKBERRY","FAYETTE","MO","65248"
164753,"309 EAST HILLCREST BOULEVARD 102","INGLEWOOD","CA","90301"
164754,"309 EAST LINN STREET UNIT 1794","MARSHALLTOWN","IA","50158"
164755,"309 EAST MAIN STREET","SALISBURY","MD","21801"
164756,"309 EAST MOSHOLU PKWY NORTH APT2F","BRONX","NY","10467"
164757,"309 EAST RAND ROAD  SUITE 191","ARLINTGON HEIGHTS","IL","60004"
164758,"309 EAST RAND ROAD SUITE 146","ARLINGTON HTS","IL","60004"
164759,"309 ELDRIDGE ST","CLEARWATER","FL","33755"
164760,"309 ELM ST","MANSFIELD","TX","76063"
164761,"309 FIRST STREET","VINE GROVE","KY","40175"
164762,"309 FLEMING RD","CINCINNATI","OH","45215"
164763,"309 FRANKLIN AVE","BERLIN","MD","21811"
164764,"309 FULLER STREET","PHILADELPHIA","PA","19111"
164765,"309 GAELIC CIRCLE","MCDONOUGH","GA","30253"
164766,"309 GAYLENE CIRCLE","ANCHORAGE","AK","99504"
164767,"309 GEORGE WALTONS ROAD","MOUNT SOLON","VA","22843"
164768,"309 GLENMORE DR","PASADENA","TX","77503"
164769,"309 GOLD STREET APT 9E","BROOKLYN","NY","11201"
164770,"309 GRAVES DRIVE","FOREST","VA","24551"
164771,"309 GREENHOUSE ROW","SUMMERVILLE","SC","29485"
164772,"309 HARBOR POINT DRIVE APARTMENT 6","MT PLEASANT","SC","29464"
164773,"309 HERMITAGE RD","GAHANNA","OH","43230"
164774,"309 HEYBERT DR","BLAIRSVILLE","PA","15717"
164775,"309 HIGH STREET","NORWOOD","NJ","07648"
164776,"309 HIGHLAND STREET","LINDEN","AL","36748"
164777,"309 HIGHWAY","RIVERTON","NJ","08077"
164778,"309 HILLCREST ROAD","RALEIGH","NC","27605"
164779,"309 HILLMAN DRIVE","CLARKSVILLE","TN","37040"
164780,"309 HOLLAND LANE","ALEXANDRIA","VA","22314"
164781,"309 HOVEY ST","LONE WOLF","OK","73655"
164782,"309 HULETT ST","SCHENECTADY","NY","12307"
164783,"309 HUMPHREY DR","SEYMOUR","TN","37865"
164784,"309 INTERAMERICANA UNIVERSITY GDNS","SAN JUAN","PR","00927"
164785,"309 JACKSON ST","YREKA","CA","96097"
164786,"309 JEFFERSON STREET 1R","BROOKLYN","NY","11237"
164787,"309 JEFFERSON STREET","DAYTONA BEACH","FL","32114"
164788,"309 JOSHUA TREE CT","BLYTHEWOOD","SC","29016"
164789,"309 KATEY ROSE LANE","EUCLID","OH","44143"
164790,"309 KELL AVENUE","STATEN ISLAND","NY","10314"
164791,"309 KELLY DR","BRANCHBURG","NJ","08853"
164792,"309 KIRBY CT","MOUNT HOLLY","NJ","08060"
164793,"309 LAKE STREET","PENN YAN","NY","14527"
164794,"309 LAUREN DRIVE","FAIRBURN","GA","30213"
164795,"309 LINDPOINT LANE","MONROE","NC","28110"
164796,"309 MAIN ST","YODER","WY","82244"
164797,"309 MAIN STREET  PO BOX 105","SURING","WI","54174"
164798,"309 MAIN STREET","MAXWELL","IA","50161"
164799,"309 MALLARD CT","HORICON","WI","53032"
164800,"309 MAPLE ROAD","STORRS MANSFIELD","CT","06268"
164801,"309 MARK PO BOX 23","PERRIN","TX","76486"
164802,"309 MEADOWCREST DRIVE","TRUCKSVILLE","PA","18708"
164803,"309 MENGER SPGS","BOERNE","TX","78006"
164804,"309 MISTY WOODS","BERTRAM","TX","78605"
164805,"309 MITCHELL ST N","BRADDOCK","ND","58524"
164806,"309 MORNINGSIDE DR","BRYANT","AR","72022"
164807,"309 MORTON STREET","STOUGHTON","MA","02072"
164808,"309 MOURNING DOVE","FLORESVILLE","TX","78114"
164809,"309 N 11TH AVE","PARAGOULD","AR","72450"
164810,"309 N 2ND AVE","HUXLEY","IA","50124"
164811,"309 N 4TH ST","MURRAY","KY","42071"
164812,"309 N ALP","BAY CITY","MI","48706"
164813,"309 N BIRCH STREET","KALKASKA","MI","49646"
164814,"309 N CHURCH AVE UNIT 331","DYERSBURG","TN","38025"
164815,"309 N FIRST AVE","LAGRANGE","KY","40031"
164816,"309 N FISK","BROWNWOOD","TX","76801"
164817,"309 N FORREST AVE","LOOKOUT MOUNTAIN","TN","37350"
164818,"309 N HIGH STREET SUITE 12","MUNCIE","IN","47305"
164819,"309 N HIGH STREET","CANAL WINCHESTER","OH","43110"
164820,"309 N HILLCREST BLVD STE 274","INGLEWOOD","CA","90301"
164821,"309 N JEFFERSON/POB 1814","AVA","MO","65608"
164822,"309 N MAIN STREET SUITE 2","CLOVIS","NM","88101"
164823,"309 N PARK AVE","WARREN","OH","44481"
164824,"309 N SUMNEYTOWN PIKE","NORTH WALES","PA","19454"
164825,"309 NE 1ST ST","WASHINGTON","IN","47501"
164826,"309 NE 208 TER","MIAMI","FL","33179"
164827,"309 NORTH 6TH AVENUE","PENSACOLA","FL","32501"
164828,"309 NORTH 6TH STREET SUITE 6","WEST MEMPHIS","AR","73201"
164829,"309 NORTH HIGH STREET SUITE 12","MUNCIE","IN","47305"
164830,"309 NORTH HOUSTON STREET","SCOTTSBORO","AL","35768"
164831,"309 NORTH MAIN STREET","ANDERSON","SC","29621"
164832,"309 NORTH MAIN STREET","SHERBURN","MN","56171"
164833,"309 NORTH SHORE DRIVE","SUNSET BEACH","NC","28468"
164834,"309 NW 25TH ST","GRESHAM","OR","97030"
164835,"309 OAK KNOLL TERRACE","ROCKVILLE","MD","20850"
164836,"309 ODOMS MILL BLVD","PONTE VEDRA BEACH","FL","32082"
164837,"309 OFFICE PLAZA DR","TALLAHASSEE","FL","32301"
164838,"309 PALMDALE CT","HOLLY SPRINGS","NC","27540"
164839,"309 PARKWAY CIR","NORTH SALT LAKE","UT","84054"
164840,"309 PLEASANT STREET NE","PRESTON","MN","55965"
164841,"309 PLUM STREET","ELKHART","IN","46514"
164842,"309 POINT AUX CHENES","LAFAYETTE","LA","70507"
164843,"309 PONTIAC AVENUE","BROOKLYN","MD","21225"
164844,"309 PRESCOTT AVENUE","EL CAJON","CA","90202"
164845,"309 PRESCOTT AVENUE","EL CAJON","CA","92020"
164846,"309 PROSPECT STREET","LA JOLLA","CA","92037"
164847,"309 PURPLE PASSION AVENUE","NO. LAS VEGAS","NV","89032"
164848,"309 RAILROAD STREET","ARGOS","IN","46501"
164849,"309 RAYON DRIVE","OLD HICKORY","TN","37138"
164850,"309 RINGLING POINT DRIVE","SARASOTA","FL","34234"
164851,"309 RIVERCLIFF DRIVE","MT WASHINGTON","KY","40047"
164852,"309 ROCK CRYSTAL LANE","LAKESIDE PARK","KY","41017"
164853,"309 ROOSEVELT DRIVE","CHERRY HILL","NJ","08002"
164854,"309 ROSE HALL LN","DALLAS","GA","30132"
164855,"309 ROUNDSTONE ROCK","TYRONE","GA","30290"
164856,"309 ROUTE 35 APT 4H","POINT PLEASANT BEACH","NJ","08742"
164857,"309 RYE ST","ROUND ROCK","TX","78664"
164858,"309 S 105TH EAST PLACE","TULSA","OK","74128"
164859,"309 S 1ST AVE","MOUNT VERNON","NY","10550"
164860,"309 S 3RD ST","YAKIMA","WA","98901"
164861,"309 S 4TH STREET SUITE 101","LARAMIE","WY","82070"
164862,"309 S BAY BLVD","ANNA MARIA","FL","34216"
164863,"309 S CRESTWAY ST","WICHITA","KS","67218"
164864,"309 S EDGEMON AVE","WINTER SPRINGS","FL","32708"
164865,"309 S GALENA AVE","DIXON","IL","61021"
164866,"309 S GROVE AVE","BARRINGTON","IL","60010"
164867,"309 S KENTUCKY","ROSWELL","NM","88203"
164868,"309 S MAIN STREET","DORRIS","CA","96023"
164869,"309 S MAIN STREET","JEFFERSON","WI","53549"
164870,"309 S OAK ST","TRINIDAD","CO","81082"
164871,"309 S OLD MIDDLETOWN ROAD","MEDIA","PA","19063"
164872,"309 S WEST AVENUE SUITE 2","CROOKS","SD","57020"
164873,"309 SAWGRASS COURT","NAPLES","FL","34110"
164874,"309 SCALES ROAD","PHILIPPI","WV","26416"
164875,"309 SECOND STREET","MARIETTA","OH","45750"
164876,"309 SHELDON STREET","HUDSON","NC","28638"
164877,"309 SMOKEHOUSE LANE","ALBEMARLE","NC","28001"
164878,"309 SNOW CREST TRAIL","DURHAM","NC","27707"
164879,"309 SOUTH 11TH STREET","NEWARK","NJ","07103"
164880,"309 SOUTH OAK STREET","LA VETA","CO","81055"
164881,"309 SOUTH VALLEY VIEW BLVD","LAS VEGAS","NV","89107"
164882,"309 SOUTHMOOR OAKS CT","CARY","NC","27518"
164883,"309 SQUANKUM AVE","LAKEWOOD","NJ","08701"
164884,"309 ST PAULS AVE","STATEN ISLAND","NY","10304"
164885,"309 STOCKADE","NEWCASTLE","WY","82701"
164886,"309 SUMMERVILLE DRIVE","MADISON","MS","39110"
164887,"309 SUNRISE DRIVE","WEIRTON","WV","26062"
164888,"309 SUSAN DRIVE","DWIGHT","IL","60420"
164889,"309 SW 185TH WAY","PEMBROKE PINES","FL","33029"
164890,"309 TARKIO ST","CRAIG","MO","64437"
164891,"309 TEQUESTA DR","DESTIN","FL","32541"
164892,"309 THIRD STREET","BROWNWOOD","TX","76801"
164893,"309 TRINITY STREET","SILER CITY","NC","27344"
164894,"309 TUCCI STREET","MCCLOUD","CA","96057"
164895,"309 TULLULAH AVENUE","RIVER RIDGE","LA","70123"
164896,"309 US RTE 1","FRENCHVILLE","ME","04745"
164897,"309 VICTORY ROAD","EDMOND","OK","73003"
164898,"309 VIEW CT","APOPKA","FL","32703"
164899,"309 VT ROUTE 15","JERICHO","VT","05465"
164900,"309 W 53RD ST APT G","DAVENPOORT","MD","52806"
164901,"309 W AVENUE G","TEMPLE","TX","76504"
164902,"309 W CHURCH STREET","SANDERSVILLE","GA","31082"
164903,"309 W JEFFERSON","FRESNO","CA","93606"
164904,"309 W JOHNSON ST APT 333","MADISON","WI","53703"
164905,"309 W JOHNSON STREET APT 302","MADISON","WI","53703"
164906,"309 W MAIN ST SUITE 104","VISALIA","CA","93291"
164907,"309 W MAIN ST","KNOXVILLE","IA","50138"
164908,"309 W MARTIN LUTHER KING JR BLVD","TYLER","TX","75702"
164909,"309 W MCDOWELL ROAD","JACKSON","MS","39204"
164910,"309 W PINEHURST TRAIL","DAKOTA DUNES","SD","57049"
164911,"309 W REED","MOBERLY","MO","65270"
164912,"309 W UNION ST","MORGANTON","NC","28655"
164913,"309 W VAN DORN STREET","POLK CITY","IA","50226"
164914,"309 W VAN HOESEN BLVD","PORTAGE","MI","49024"
164915,"309 WANONDOGER TRL","BATTLE CREEK","MI","49017"
164916,"309 WATER ST STE 114","BOERNE","TX","78006"
164917,"309 WAVERLY DR","MIDLAND","TX","79703"
164918,"309 WAYNE CIRCLE","DURHAM","NC","27707"
164919,"309 WEST 10TH ST","ROME","GA","30165"
164920,"309 WEST 30TH STREET - APT 2E","NEW YORK","NY","10001"
164921,"309 WEST HOMES STREET","NORMAN","OK","73069"
164922,"309 WEST MAIN STREET","KNOXVILLE","IA","50138"
164923,"309 WEST MAIN STREET","LEBANON","IL","62254"
164924,"309 WEST MOUNTAIN DRIVE","GREENSBORO","NC","27406"
164925,"309 WEST OPP STREET","WILMINGTON","CA","90744"
164926,"309 WEST PULASKI ROAD","HUNTINGTON","NY","11743"
164927,"309 WEST THIRD STREET","WILLIAMSPORT","PA","17701"
164928,"309 WILLOWBROOKE DR","BROCKPORT","NY","14420"
164929,"309 WILLOWDELL DRIVE","TOCCOA","GA","30577"
164930,"309 WILSON AVE","BROOKLYN","NY","11237"
164931,"309 WINDSOR CT UNIT A","SOUTH ELGIN","IL","60177"
164932,"309 WINROW DRIVE","JAMESTOWN","NC","27282"
164933,"309 WOOD STREET","PATOKA","IN","47666"
164934,"309 WOODLAKE DRIVE","BRIGHTON","MI","48116"
164935,"309 YARMOUTH DR","COLUMBIA","SC","29210"
164936,"309 YOAKUM PARKWAY-706","ALEXANDRIA","VA","22304"
164937,"309 YOAKUM PKWY APT 1014","ALEXANDRIA","VA","22304"
164938,"309-13 ARCH STREET 305","PHILADELPHIA","PA","11906"
164939,"309-311 SOUTH 43RD STREET","PHILADELPHIA","PA","19104"
164940,"309","MONROEVILLE","PA","15146"
164941,"3090 42ND TERRACE SOUTHWEST","NAPLES","FL","34116"
164942,"3090 ADMIRAL AVE","SAN DIEGO","CA","92123"
164943,"3090 ALT 19 N","PALM HARBOR","FL","34683"
164944,"3090 CALVERT COURT","CAMARILLO","CA","93012"
164945,"3090 EL CERRITO PLAZA SUITE 199","EL CERRITO","CA","94530"
164946,"3090 FOLSOM RD","MIMS","FM","32754"
164947,"3090 GLASCOCK ST APT 303","OAKLAND","CA","94601"
164948,"3090 GLASCOCK STREET APT 210","OAKLAND","CA","94601"
164949,"3090 HICKORY HILL WAY","LOMA LINDA","MO","64804"
164950,"3090 HOOPERS DELIGHT RD","NEW WINDSOR","MD","21776"
164951,"3090 LAKE PARK DR","JONESBORO","GA","30236"
164952,"3090 LAKE PARK DRIVE","JONESBORO","GA","30236"
164953,"3090 N HWY 17","MOUNT PLEASANT","SC","29466"
164954,"3090 PAYSON WAY","WELLINGTON","FL","33414"
164955,"3090 RAILROAD ST SE","ALBANY","OR","97322"
164956,"3090 S DECATUR ST","DENVER","CO","80237"
164957,"3090 SOUTH JAMAICA COURT SUITE 302","AURORA","CO","80014"
164958,"3090 STATE ROUTE 59","RAVENNA","OH","44266"
164959,"3090 VOORHIES AVE 4L","BROOKLYN","NY","11235"
164960,"30900 RANCHO VIEJO ROAD SUITE 200","SAN JUAN CAPISTRANO","CA","92675"
164961,"30900 THE HORSESHOE","WINTERS","CA","95694"
164962,"30901 BURNUP RD","BLACK RIVER","NY","13612"
164963,"30901 SMITHSON VALLEY ROAD","BULVERDE","TX","78163"
164964,"30901 WIEGMAN ROAD","HAYWARD","CA","94544"
164965,"30902 BUCK LN","BULVERDE","TX","78163"
164966,"30902 S CREEK WAY","FULSHEAR","TX","77441"
164967,"3091 100 AVE SW","GLADSTONE","ND","58630"
164968,"3091 BRICKLER ROAD","SPRINGFIELD","IL","62707"
164969,"3091 COLLEG PARK DRIVE SUITE 204-23","WOODLANDS","TX","77384"
164970,"3091 COLLEGE PARK DRIVE STE 190","THE WOODLANDS","TX","77384"
164971,"3091 COLONIAL WAY- UNIT C2","ATLANTA","GA","30341"
164972,"3091 DECATUR AVENUE","BRONX","NY","10467"
164973,"3091 ESPERANZA ST","RIVERSIDE","CA","92504"
164974,"3091 GREYFIELD TRACE","MARIETTA","NC","30067"
164975,"3091 HWY 11 NORTH","LAUREL","MS","39443"
164976,"3091 JONES ROAD","ERIEVILLE","NY","13061"
164977,"3091 MEYERS DR","MUSKEGON","MI","49442"
164978,"3091 NOBLE AVE","SARASOTA","FL","34234"
164979,"3091 NORTHRIDE LN","BONIFAY","FL","32425"
164980,"3091 PLUTO CIRCLE","NORTH FORT MYERS","FL","33903"
164981,"3091 PUHALA RISE","HONOLULU","HI","96822"
164982,"3091 SOUTH HARMONY RD","OREGON","IL","61061"
164983,"30910 NORTH 26TH AVENUE","PHOENIX","AZ","85085"
164984,"30911 BEL AIRE CIRCLE","WESTLAKE","OH","44145"
164985,"30911 HIGH MEADOW CIRCLE","MAGNOLIA","TX","77355"
164986,"3092 AVE EMILIO FAGOT","PONCE","PR","00716"
164987,"3092 COVERED BRIDGE LANE","DEKALB","IL","60115"
164988,"3092 EUCLID HEIGHTS BLVD","CLEVELAND HEIGHTS","OH","44118"
164989,"3092 MAPLE LEAF COURT","LITTLE CANADA","MN","55109"
164990,"3092 MONARCH PINE DR","PEACHTREE CORNERS","GA","30071"
164991,"3093 CHERRY STREET","BLACKSHEAR","GA","31516"
164992,"3093 EMERSON STREET SUITE A","PALO ALTO","CA","94306"
164993,"3093 HEATHSTONE COVE","GERMANTOWN","TN","38138"
164994,"3093 LAKELAND COURT","ARNOLD","MO","63010"
164995,"3093 LASSEN STREET","WEST SACRAMENTO","CA","95691"
164996,"3093 MEADOW VIEW AVE","LARGO","FL","33771"
164997,"3093 RAINTREE DRIVE","GIBSONIA","PA","15044"
164998,"3093 SOUTHWEST BLVD","GROVE CITY","OH","43123"
164999,"3093 WASHINGTON RD UNIT 16","ATLANTA","GA","30344"
165000,"30937 RIVERTON LN","TEMECULA","CA","92591"
