"ID","Address","City","State","Zip"
347001,"PO BOX 373","ALLENDALE","SC","29810"
347002,"PO BOX 373","ALLENHURST","NJ","07711"
347003,"PO BOX 373","APPOMATTOX","VA","24522"
347004,"PO BOX 373","ARLINGTON","TX","76004"
347005,"PO BOX 373","ATMORE","AL","36504"
347006,"PO BOX 373","BOSTON","GA","31626"
347007,"PO BOX 373","CARO","MI","48723"
347008,"PO BOX 373","COLLINSVILLE","IL","62234"
347009,"PO BOX 373","DOBBINS","CA","95935"
347010,"PO BOX 373","DRIPPING SPRINGS","TX","78620"
347011,"PO BOX 373","ELBA","AL","36323"
347012,"PO BOX 373","EVANS CITY","PA","16033"
347013,"PO BOX 373","LACKAWANNA","NY","14218"
347014,"PO BOX 373","LITTLE COMPTON","RI","02837"
347015,"PO BOX 373","LONDON","KY","40743"
347016,"PO BOX 373","NEW YORK","NY","10150"
347017,"PO BOX 373","OSCEOLA","WI","54020"
347018,"PO BOX 373","PALMYRA","MO","63461"
347019,"PO BOX 373","PLENTYWOOD","MT","59254"
347020,"PO BOX 373","PRINCETON","WV","24740"
347021,"PO BOX 373","REX","GA","30273"
347022,"PO BOX 373","ROME","GA","30162"
347023,"PO BOX 373","SHIP BOTTOM","NJ","08008"
347024,"PO BOX 373","VALLEY STREAM","NY","11582"
347025,"PO BOX 373","WARRENTON","VA","20188"
347026,"PO BOX 373","WINONA","MN","55987"
347027,"PO BOX 373","WRANGELL","AK","99929"
347028,"PO BOX 373","WRIGHTSVILLE BEACH","NC","28480"
347029,"PO BOX 373005","DECATUR","GA","30037"
347030,"PO BOX 3732","BLUFFTON","SC","29910"
347031,"PO BOX 37333","HOUSTON","TX","77237"
347032,"PO BOX 37343","HOUSTON","TX","77237"
347033,"PO BOX 3736","FARMINGTON","NM","87499"
347034,"PO BOX 3737","BLUFFTON","SC","29910"
347035,"PO BOX 3737","NEW YORK","NY","10163"
347036,"PO BOX 3738","LA HABRA","CA","90632"
347037,"PO BOX 374","BETHESDA","OH","43719"
347038,"PO BOX 374","CENTREVILLE","MD","21617"
347039,"PO BOX 374","COPPER CENTER","AK","99573"
347040,"PO BOX 374","DONIPHAN","MO","63935"
347041,"PO BOX 374","EPHRATA","WA","98823"
347042,"PO BOX 374","FLORENCE","NJ","08518"
347043,"PO BOX 374","GRASS LAKE","MI","49240"
347044,"PO BOX 374","GRINNELL","IA","50112"
347045,"PO BOX 374","HARRISON CITY","PA","15636"
347046,"PO BOX 374","HEIDRICK","KY","40949"
347047,"PO BOX 374","HENDERSON","CO","80640"
347048,"PO BOX 374","HONDO","TX","78861"
347049,"PO BOX 374","LAKE VILLAGE","AR","71653"
347050,"PO BOX 374","LIBERTY HILL","TX","78642"
347051,"PO BOX 374","LUMBERTON","NC","28359"
347052,"PO BOX 374","MORGANFIELD","KY","42437"
347053,"PO BOX 374","OXFORD","MI","48371"
347054,"PO BOX 374","PATEROS","WA","98846"
347055,"PO BOX 374","PENN YAN","NY","14527"
347056,"PO BOX 374","RANCHO CORDOVA","CA","95741"
347057,"PO BOX 374","THE DALLES","OR","97058"
347058,"PO BOX 374","WALDOBORO","ME","04572"
347059,"PO BOX 374","WILLIAMS BAY","WI","53191"
347060,"PO BOX 374","WILLIAMSTON","NC","27892"
347061,"PO BOX 374","YONKERS","NY","10703"
347062,"PO BOX 374035","DECATUR","GA","30037"
347063,"PO BOX 3741  126 ATLANTIC ST","NORFOLK","VA","23514"
347064,"PO BOX 3742","KINGSPORT","TN","37664"
347065,"PO BOX 37422","CINCINNATI","OH","45222"
347066,"PO BOX 3743","OAK BROOK","IL","60522"
347067,"PO BOX 3744","NEW YORK","NY","10163"
347068,"PO BOX 3744","PEACHTREE CITY","GA","30269"
347069,"PO BOX 37465","HOUSTON","TX","77237"
347070,"PO BOX 375","CLARKSVILLE","VA","23927"
347071,"PO BOX 375","COBDEN","IL","62920"
347072,"PO BOX 375","COLCHESTER","CT","06415"
347073,"PO BOX 375","COLDWATER","MS","38618"
347074,"PO BOX 375","EAST PALATKA","FL","32131"
347075,"PO BOX 375","Hot Springs","MT","59845"
347076,"PO BOX 375","HYDE PARK","VT","05655"
347077,"PO BOX 375","JACKSON","MO","63755"
347078,"PO BOX 375","JACKSON","WI","53037"
347079,"PO BOX 375","LESLIE","MI","49251"
347080,"PO BOX 375","LEXINGTON","SC","29071"
347081,"PO BOX 375","PICKERINGTON","OH","43147"
347082,"PO BOX 375","PLYMOUTH","NH","03264"
347083,"PO BOX 375","ROSCOMMON","MI","48653"
347084,"PO BOX 375","RUIDOSO","NM","88355"
347085,"PO BOX 3751","SHREVEPORT","LA","71133"
347086,"PO BOX 375107","CAYEY","PR","00737"
347087,"PO BOX 3752","SANTA MONICA","CA","90408"
347088,"PO BOX 3753","ANN ARBOR","MI","48106"
347089,"PO BOX 3753","BUTTE","MT","59702"
347090,"PO BOX 3753","SILVERDALE","WA","98383"
347091,"PO BOX 37531","NORTH CHESTERFIELD","VA","23234"
347092,"PO BOX 37545","HONOLULU","HI","96837"
347093,"PO BOX 3756","GREENWOOD VILLAGE","CO","80155"
347094,"PO BOX 3757","ALLENTOWN","PA","18106"
347095,"PO BOX 37574","RALEIGH","NC","27606"
347096,"PO BOX 37586","HONOLULU","HI","96837"
347097,"PO BOX 3759","LACEY","WA","98509"
347098,"PO BOX 376 3333 HIGHWAY 60 EAST","MITCHELL","IN","47446"
347099,"PO BOX 376","BERKELEY","CA","94701"
347100,"PO BOX 376","GREAT NECK","NY","11022"
347101,"PO BOX 376","LAONA","WI","54541"
347102,"PO BOX 376","LEDGEWOOD","NJ","07852"
347103,"PO BOX 376","MOUNTLAKE TERRACE","WA","98043"
347104,"PO BOX 376","PITSBURG","OH","45358"
347105,"PO BOX 376","RENSSELAER","NY","12144"
347106,"PO BOX 3761","PENSACOLA","FL","32516"
347107,"PO BOX 3761","ST AUGUSTINE","FL","32085"
347108,"PO BOX 37618","OAK PARK","MI","48237"
347109,"PO BOX 3762","SHAWNEE","OK","74802"
347110,"PO BOX 37624","HONOLULU","HI","96837"
347111,"PO BOX 3763","WAYNE","NJ","07474"
347112,"PO BOX 37647","SHREVEPORT","LA","71133"
347113,"PO BOX 3765","JERSEY CITY","NJ","07303"
347114,"PO BOX 3768","BOULDER","CO","80307"
347115,"PO BOX 377","ANDERSON","SC","29622"
347116,"PO BOX 377","ANNANDALE","NJ","08801"
347117,"PO BOX 377","AROMAS","CA","95004"
347118,"PO BOX 377","DORRIS","CA","96023"
347119,"PO BOX 377","HARRELLS","NC","28444"
347120,"PO BOX 377","HARRINGTON","WA","99134"
347121,"PO BOX 377","HERSCHER","IL","60941"
347122,"PO BOX 377","LUMBERTON","NJ","08048"
347123,"PO BOX 377","OPP","AL","36467"
347124,"PO BOX 377","VON ORMY","TX","78073"
347125,"PO BOX 3771","FEDERAL WAY","WA","98063"
347126,"PO BOX 3771","MORGANTON","NC","28680"
347127,"PO BOX 3771","RENO","NV","89505"
347128,"PO BOX 3772","CRESTED BUTTE","CO","81224"
347129,"PO BOX 3773","CUYAHOGA FALLS","OH","44223"
347130,"PO BOX 3774","HOUSTON","TX","77253"
347131,"PO BOX 377445","OCEAN VIEW","HI","96737"
347132,"PO BOX 3776","SANTA CRUZ","CA","95063"
347133,"PO BOX 377623","GREELEY","CO","80633"
347134,"PO BOX 3777","BRECKENRIDGE","CO","80424"
347135,"PO BOX 378","CHEWELAH","WA","99109"
347136,"PO BOX 378","ELMER","NJ","08318"
347137,"PO BOX 378","FORT DAVIS","TX","79734"
347138,"PO BOX 378","FREMONT","OH","43420"
347139,"PO BOX 378","PLAINFIELD","VT","05667"
347140,"PO BOX 3782","VISTA","CA","92085"
347141,"PO BOX 3783","HITCHCOCK","TX","77563"
347142,"PO BOX 3784","UNION","NJ","07083"
347143,"PO BOX 378593","CHICAGO","IL","60637"
347144,"PO BOX 37874","RALEIGH","NC","27627"
347145,"PO BOX 37875","CINCINNATI","OH","45222"
347146,"PO BOX 37883","CINCINNATI","OH","45222"
347147,"PO BOX 3789","CARTERSVILLE","GA","30120"
347148,"PO BOX 379","ANKENY","IA","50021"
347149,"PO BOX 379","BELLE","WV","25015"
347150,"PO BOX 379","CHALLIS","ID","83226"
347151,"PO BOX 379","ELGIN","NE","68636"
347152,"PO BOX 379","GASPORT","NY","14067"
347153,"PO BOX 379","NEW YORK CITY","NY","10014"
347154,"PO BOX 379","NORTH HIGHLANDS","CA","95842"
347155,"PO BOX 379","PECK","MI","48466"
347156,"PO BOX 3791","ROSWELL","NM","88202"
347157,"PO BOX 3792","TAOS","NM","87571"
347158,"PO BOX 3793","BOARDMAN","OH","44513"
347159,"PO BOX 3793","DECATUR","GA","30031"
347160,"PO BOX 3795","URBANDALE","IA","50323"
347161,"PO BOX 3796","SAGINAW","MI","48605"
347162,"PO BOX 3797","DICKINSON","ND","58601"
347163,"PO BOX 37970","HONOLULU","HI","96837"
347164,"PO BOX 38  9 JEWEL ROAD","HOLBROOK","MA","02343"
347165,"PO BOX 38 8900 NC HWY 35","SEVERN","NC","27877"
347166,"PO BOX 38","AMBER","OK","73004"
347167,"PO BOX 38","ATLANTIC BEACH","NY","11509"
347168,"PO BOX 38","BUNKER HILL","WV","25413"
347169,"PO BOX 38","CARTERSVILLE","VA","23027"
347170,"PO BOX 38","CHARDON","OH","44024"
347171,"PO BOX 38","COLDWATER","MI","49036"
347172,"PO BOX 38","EASTVILLE","VA","23347"
347173,"PO BOX 38","ESSEX","NY","12936"
347174,"PO BOX 38","FLETCHER","NC","28732"
347175,"PO BOX 38","GAINESVILLE","TX","76241"
347176,"PO BOX 38","GAS","VA","23857"
347177,"PO BOX 38","GASBURG","VA","23857"
347178,"PO BOX 38","GILSUM","NH","03448"
347179,"PO BOX 38","HARLAN","IN","46743"
347180,"PO BOX 38","HARRINGTON","WA","99134"
347181,"PO BOX 38","HONAUNAU","HI","96726"
347182,"PO BOX 38","LENNOX","SD","57039"
347183,"PO BOX 38","LOUISBURG","MO","65685"
347184,"PO BOX 38","NEW BOSTON","MI","48164"
347185,"PO BOX 38","NEW FREEDOM","PA","17349"
347186,"PO BOX 38","ONA","WV","25545"
347187,"PO BOX 38","OSCODA","MI","48750"
347188,"PO BOX 38","PAINTSVILLE","KY","41240"
347189,"PO BOX 38","PELHAM","NH","03076"
347190,"PO BOX 38","PLAINFIELD","IN","46168"
347191,"PO BOX 38","POTSDAM","OH","45361"
347192,"PO BOX 38","SELMA","CA","93662"
347193,"PO BOX 38","ST FRANCISVILLE","LA","70775"
347194,"PO BOX 38","SUBLIMITY","OR","97385"
347195,"PO BOX 38","VENICE","IL","62060"
347196,"PO BOX 38","VESTAL","NY","13850"
347197,"PO BOX 380 ATTN SUSAN BARNES","EAST BARRE","VT","05649"
347198,"PO BOX 380","JERSEY CITY","NJ","07303"
347199,"PO BOX 380","RINCON","PR","00677"
347200,"PO BOX 380","VICTOR","NY","14564"
347201,"PO BOX 380020","CAMBRIDGE","MA","02238"
347202,"PO BOX 380071","DUNCANVILLE","TX","75183"
347203,"PO BOX 3801","CRESTED BUTTE","CO","81224"
347204,"PO BOX 380156","MURDOCK","FL","33938"
347205,"PO BOX 3802","EASTON","PA","18043"
347206,"PO BOX 3802","ERIE","PA","16508"
347207,"PO BOX 380204","BIRMINGHAM","AL","35238"
347208,"PO BOX 38023","CHARLOTTE","NC","28278"
347209,"PO BOX 380230","CAMBRIDGE","MA","02238"
347210,"PO BOX 380252","MIAMI","FL","33238"
347211,"PO BOX 380266","CLINTON TOWNSHIP","MI","48038"
347212,"PO BOX 38028","GERMANTOWN","TN","38183"
347213,"PO BOX 3803","MILTON","FL","32572"
347214,"PO BOX 380314","MIAMI","FL","33238"
347215,"PO BOX 380336","CAMBRIDGE","MA","02238"
347216,"PO BOX 3804","HONOLULU","HI","96812"
347217,"PO BOX 380411","CAMBRIDGE","MA","02138"
347218,"PO BOX 38052","CHARLOTTE","NC","28278"
347219,"PO BOX 3806","OMAK","WA","98841"
347220,"PO BOX 380624","MURDOCK","FL","33938"
347221,"PO BOX 38069","CHARLOTTE","NC","28278"
347222,"PO BOX 38070","TALLAHASSEE","FL","32315"
347223,"PO BOX 380714","BIRMINGHAM","AL","35238"
347224,"PO BOX 38073","RICHMOND","VA","23231"
347225,"PO BOX 380754","MURDOCK","FL","33938"
347226,"PO BOX 380871","MIAMI","FL","33238"
347227,"PO BOX 380875","CAMBRIDGE","MA","02238"
347228,"PO BOX 3809","S PASADENA","CA","91031"
347229,"PO BOX 38091","CHARLOTTE","NC","28278"
347230,"PO BOX 380982","BROOKLYN","NY","11238"
347231,"PO BOX 380988","DUNCANVILLE","TX","75138"
347232,"PO BOX 381 FOR 136 HEMINGWAY ROAD","BRANT LAKE","NY","12815"
347233,"PO BOX 381","BARNEGAT","NJ","08005"
347234,"PO BOX 381","BELFRY","KY","41514"
347235,"PO BOX 381","BELMONT","NC","28012"
347236,"PO BOX 381","BUFFALO","NY","14205"
347237,"PO BOX 381","CHARLESTON","MS","38921"
347238,"PO BOX 381","CHEHALIS","WA","98532"
347239,"PO BOX 381","CHRISTOVAL","TX","76935"
347240,"PO BOX 381","COULEE CITY","WA","99115"
347241,"PO BOX 381","DECATUR","AL","35602"
347242,"PO BOX 381","DILLSBORO","IN","47018"
347243,"PO BOX 381","ELLISVILLE","MS","39437"
347244,"PO BOX 381","FAIRFAX","VT","05454"
347245,"PO BOX 381","GOLDEN","CO","80402"
347246,"PO BOX 381","HENRICO","VA","23075"
347247,"PO BOX 381","HODGENVILLE","KY","42748"
347248,"PO BOX 381","HYNDMAN","PA","15545"
347249,"PO BOX 381","IDYLLWILD","CA","92549"
347250,"PO BOX 381","ITHACA","NY","14851"
347251,"PO BOX 381","LULING","TX","78648"
347252,"PO BOX 381","N CLARENDON","VT","05759"
347253,"PO BOX 381","NEHALEM","OR","97131"
347254,"PO BOX 381","PURCELLVILLE","VA","20134"
347255,"PO BOX 381","STACY","MN","55079"
347256,"PO BOX 381","SYCAMORE","OH","44882"
347257,"PO BOX 381","TICKFAW","LA","70466"
347258,"PO BOX 381","VASS","NC","28394"
347259,"PO BOX 381","YOUNGSTOWN","NY","14174"
347260,"PO BOX 38100","PHOENIX","AZ","85069"
347261,"PO BOX 381002","BROOKLYN","NY","11238"
347262,"PO BOX 381030","CAMBRIDGE","MA","02238"
347263,"PO BOX 381094","CLINTON TOWNSHIP","MI","48038"
347264,"PO BOX 381164","CLINTON TWP","MI","48038"
347265,"PO BOX 3812","MISSISSIPPI STATE","MS","39762"
347266,"PO BOX 3812","OAKLAND","CA","94609"
347267,"PO BOX 3812","TONOPAH","NV","89049"
347268,"PO BOX 381232","DUNCANVILLE","TX","75148"
347269,"PO BOX 381247","CAMBRIDGE","MA","02238"
347270,"PO BOX 3813","ERIE","PA","16508"
347271,"PO BOX 3813","SUMTER","SC","29151"
347272,"PO BOX 381373","DUNCANVILLE","TX","75138"
347273,"PO BOX 3814","CHERRY HILL","NJ","08034"
347274,"PO BOX 3814","VALDOSTA","GA","31604"
347275,"PO BOX 38141","HONOLULU","HI","96837"
347276,"PO BOX 381467","GERMANTOWN","TN","38183"
347277,"PO BOX 3815","PIKEVILLE","KY","41502"
347278,"PO BOX 3816","DECATUR","IL","62524"
347279,"PO BOX 3816","OAK PARK","IL","60301"
347280,"PO BOX 381713","MIAMI","FL","33238"
347281,"PO BOX 381715","BIRMINGHAM","AL","35238"
347282,"PO BOX 381754","DUNCANVILLE","TX","75138"
347283,"PO BOX 381808","DUNCANVILLE","TX","75138"
347284,"PO BOX 382","ATCO","NJ","08004"
347285,"PO BOX 382","BOONE","NC","28607"
347286,"PO BOX 382","BRIDGEHAMPTON","NY","11932"
347287,"PO BOX 382","CAMILLA","GA","31730"
347288,"PO BOX 382","COLOMA","MI","49038"
347289,"PO BOX 382","DIVIDE","CO","80814"
347290,"PO BOX 382","EAST HADDAM","CT","06423"
347291,"PO BOX 382","EAST TEXAS","PA","18046"
347292,"PO BOX 382","ELVERSON","PA","19520"
347293,"PO BOX 382","FAIRPLAY","CO","80440"
347294,"PO BOX 382","GAINESVILLE","TX","76241"
347295,"PO BOX 382","GREEN COVE SPRINGS","FL","32043"
347296,"PO BOX 382","HAYS","KS","67601"
347297,"PO BOX 382","HENDERSONVILLE","TN","37075"
347298,"PO BOX 382","MARSHALL","VA","20116"
347299,"PO BOX 382","MULLAN","ID","83846"
347300,"PO BOX 382","NEWTON FALLS","OH","44444"
347301,"PO BOX 382","OSCODA","MI","48750"
347302,"PO BOX 382","PERHAM","MN","56573"
347303,"PO BOX 382","PLYMOUTH","FL","32768"
347304,"PO BOX 382","REDMOND","OR","97756"
347305,"PO BOX 382","SAINT PETER","MN","56082"
347306,"PO BOX 382","TIPTON","IA","52772"
347307,"PO BOX 382","VICTORIA","KS","67671"
347308,"PO BOX 382","WAUKEE","IA","50263"
347309,"PO BOX 382","WAWARSING","NY","12489"
347310,"PO BOX 382","WELLINGTON","CO","80549"
347311,"PO BOX 382","WILLISTON","FL","32696"
347312,"PO BOX 382034","BIRMINGHAM","AL","35238"
347313,"PO BOX 38207","HOUSTON","TX","77238"
347314,"PO BOX 3821","BUTTE","MT","59702"
347315,"PO BOX 3821","KANSAS CITY","KS","66103"
347316,"PO BOX 382207","MIAMI","FM","33238"
347317,"PO BOX 382221","GERMANTOWN","TN","38183"
347318,"PO BOX 382252","GERMANTOWN","TN","38183"
347319,"PO BOX 3823","BRYAN","TX","77805"
347320,"PO BOX 3823","CARY","NC","27519"
347321,"PO BOX 382362","GERMANTOWN","TN","38183"
347322,"PO BOX 382436","BIRMINGHAM","AL","35238"
347323,"PO BOX 3826","SHAWNEE","KS","66203"
347324,"PO BOX 3826","VIRGINIA BEACH","VA","23454"
347325,"PO BOX 382621","DUNCANVILLE","TX","75138"
347326,"PO BOX 382641","GERMANTOWN","TN","38138"
347327,"PO BOX 382852","DUNCANVILLE","TX","75138"
347328,"PO BOX 382886","DUNCANVILLE","TX","75138"
347329,"PO BOX 3829","PHILADELPHIA","PA","19146"
347330,"PO BOX 382904","DUNCANVILLE","TX","75138"
347331,"PO BOX 38291","BALTIMORE","MD","21231"
347332,"PO BOX 383","BATAVIA","IL","60510"
347333,"PO BOX 383","BIRMINGHAM","MI","48012"
347334,"PO BOX 383","CHAPEL HILL","NC","27514"
347335,"PO BOX 383","CHARLTON CITY","MA","01508"
347336,"PO BOX 383","JOHNSON","VT","05656"
347337,"PO BOX 383","LITCHFIELD PARK","AZ","85340"
347338,"PO BOX 383","LITTLESTOWN","PA","17340"
347339,"PO BOX 383","MORRISON","CO","80465"
347340,"PO BOX 383","OLATHE","KS","66051"
347341,"PO BOX 383","RONAN","MT","59864"
347342,"PO BOX 383","ROSCOMMON","MI","48653"
347343,"PO BOX 383","WEST HURLEY","NY","12491"
347344,"PO BOX 383","WILLMAR","MN","56201"
347345,"PO BOX 383002","WAIKOLOA","HI","96738"
347346,"PO BOX 383005","WAIKOLOA","HI","96738"
347347,"PO BOX 38301","ALBANY","NY","12203"
347348,"PO BOX 383027","DUNCANVILLE","TX","75138"
347349,"PO BOX 383102","DUNCANVILLE","TX","75138"
347350,"PO BOX 383234","BIRMINGHAM","AL","35238"
347351,"PO BOX 3834","MANSFIELD","OH","44907"
347352,"PO BOX 38340","ALDEN MANOR","NY","11003"
347353,"PO BOX 3836","SIERRA VISTA","AZ","85636"
347354,"PO BOX 3837","COEUR D ALENE","ID","83816"
347355,"PO BOX 38381","DALLAS","TX","75218"
347356,"PO BOX 38381","RICHMOND","VA","23231"
347357,"PO BOX 38383","PHILADELPHIA","PA","19140"
347358,"PO BOX 384","COOPER","TX","75432"
347359,"PO BOX 384","GILMER","TX","75644"
347360,"PO BOX 384","GRANGER","IA","50109"
347361,"PO BOX 384","GRAYSON","GA","30017"
347362,"PO BOX 384","HOLLY SPRINGS","NC","27540"
347363,"PO BOX 384","LEONIA","NJ","07605"
347364,"PO BOX 384","LEWISBURG","PA","17837"
347365,"PO BOX 384","LONOKE","AR","72086"
347366,"PO BOX 384","MAPLEWOOD","NJ","07040"
347367,"PO BOX 384","PARSHALL","ND","58770"
347368,"PO BOX 384","PAYSON","UT","84651"
347369,"PO BOX 384","POST FALLS","ID","83877"
347370,"PO BOX 384","RAVENNA","MI","49451"
347371,"PO BOX 384","RIDGEWOOD","NJ","07450"
347372,"PO BOX 384","RINGLING","OK","73456"
347373,"PO BOX 384","ROUNDUP","MT","59072"
347374,"PO BOX 384","SMYRNA","TN","37167"
347375,"PO BOX 384","ST JOSEPH","MN","56374"
347376,"PO BOX 384","SUMMERTON","SC","29148"
347377,"PO BOX 384","SUMTER","SC","29151"
347378,"PO BOX 384","TAZEWELL","TN","37879"
347379,"PO BOX 384","TRAVERSE CITY","MI","49685"
347380,"PO BOX 384","WELLSTON","OH","45692"
347381,"PO BOX 384","WINTERS","TX","79567"
347382,"PO BOX 3840","SAN ANGELO","TX","76902"
347383,"PO BOX 38412","DALLAS","TX","75238"
347384,"PO BOX 38412","SAINT LOUIS","MO","63138"
347385,"PO BOX 38414","GREENSBORO","NC","27438"
347386,"PO BOX 3842","ALBANY","NY","12203"
347387,"PO BOX 38426","DETROIT","MI","48238"
347388,"PO BOX 3843","SAN CLEMENTE","CA","92674"
347389,"PO BOX 3844","AKRON","OH","44314"
347390,"PO BOX 3845","GULFPORT","MS","39505"
347391,"PO BOX 38451","SHREVEPORT","LA","71133"
347392,"PO BOX 3848","CARMEL","IN","46082"
347393,"PO BOX 3848","SANTA ROSA","CA","95402"
347394,"PO BOX 385","ADAMS","MA","01220"
347395,"PO BOX 385","BAKER","MT","59313"
347396,"PO BOX 385","CARNATION","WA","98014"
347397,"PO BOX 385","GRAY","KY","40734"
347398,"PO BOX 385","HALLOCK","MN","56728"
347399,"PO BOX 385","HALLOWELL","ME","04344"
347400,"PO BOX 385","HANCOCK","MI","49930"
347401,"PO BOX 385","HOPKINTON","NH","03229"
347402,"PO BOX 385","IRVINGTON","VA","22480"
347403,"PO BOX 385","JOPLIN","MO","64802"
347404,"PO BOX 385","KINGWOOD","WV","26537"
347405,"PO BOX 385","LAWRENCEBURG","KY","40342"
347406,"PO BOX 385","LIVELY","VA","22507"
347407,"PO BOX 385","MC CALLA","AL","35111"
347408,"PO BOX 385","MOUNT VERNON","MO","65712"
347409,"PO BOX 385","NEWCASTLE","ME","04553"
347410,"PO BOX 385","OKEENE","OK","73763"
347411,"PO BOX 385","ROCKWALL","TX","75087"
347412,"PO BOX 385","TALENT","OR","97540"
347413,"PO BOX 385","WYCKOFF","NJ","07481"
347414,"PO BOX 38504","DALLAS","TX","75238"
347415,"PO BOX 3851","GALVESTON","TX","77552"
347416,"PO BOX 38512","HENRICO","VA","23231"
347417,"PO BOX 3852","LISLE","IL","60532"
347418,"PO BOX 38522","CHARLOTTE","NC","28278"
347419,"PO BOX 385225","BLOOMINGTON","MN","55438"
347420,"PO BOX 38535","PHILADELPHIA","PA","19194"
347421,"PO BOX 38552","DALLAS","TX","75238"
347422,"PO BOX 385528","WAIKOLOA","HI","96738"
347423,"PO BOX 3856","LUMBERTON","NC","28359"
347424,"PO BOX 3856","WINTER PARK","FL","32790"
347425,"PO BOX 386","ABERDEEN","MS","39730"
347426,"PO BOX 386","BETHLEHEM","PA","18016"
347427,"PO BOX 386","CHESTERTOWN","NY","12817"
347428,"PO BOX 386","COLUMBUS","GA","31902"
347429,"PO BOX 386","DECATUR","IL","62525"
347430,"PO BOX 386","ELK RAPIDS","MI","49629"
347431,"PO BOX 386","GROVEPORT","OH","43125"
347432,"PO BOX 386","HARLETON","TX","75651"
347433,"PO BOX 386","LOGAN","WV","25601"
347434,"PO BOX 386","MONROVAI","MD","21770"
347435,"PO BOX 386","MUKILTEO","WA","98275"
347436,"PO BOX 386","NEWTOWN","PA","18940"
347437,"PO BOX 386","PORTERDALE","GA","30070"
347438,"PO BOX 386","PRINCETON","MN","55371"
347439,"PO BOX 386","RYE BROOK","NY","10579"
347440,"PO BOX 386","SCOTLAND","PA","17254"
347441,"PO BOX 386","TIPP CITY","OH","45371"
347442,"PO BOX 386","WATERFORD","NY","12188"
347443,"PO BOX 386","WESTON","WV","26452"
347444,"PO BOX 3860","SCHENECTADY","NY","12303"
347445,"PO BOX 38614","CHARLOTTE","NC","28278"
347446,"PO BOX 3862","ALBANY","NY","12203"
347447,"PO BOX 3862","EDINBURG","TX","78540"
347448,"PO BOX 3862","SALEM","OR","97302"
347449,"PO BOX 3863","ITHACA","NY","14850"
347450,"PO BOX 38635","DETROIT","MI","48238"
347451,"PO BOX 3864","MANHATTAN BEACH","CA","90266"
347452,"PO BOX 3865","SEDONA","AZ","86340"
347453,"PO BOX 3866","NAMPA","ID","83653"
347454,"PO BOX 38682","PHOENIX","AZ","85069"
347455,"PO BOX 387","BROOKHAVEN","NY","11719"
347456,"PO BOX 387","EAST AURORA","NY","14052"
347457,"PO BOX 387","loganville","GA","30047"
347458,"PO BOX 387","MENOMONEE FALLS","WI","53052"
347459,"PO BOX 387","MT PLEASANT","TN","38474"
347460,"PO BOX 387","OKANOGAN","WA","98840"
347461,"PO BOX 387","RONAN","MT","59864"
347462,"PO BOX 387","SELINSGROVE","PA","17870"
347463,"PO BOX 387","SPRING","TX","77383"
347464,"PO BOX 387","TILLSON","NY","12486"
347465,"PO BOX 387","TREZEVANT","TN","38258"
347466,"PO BOX 387","TRUMANSBURG","NY","14886"
347467,"PO BOX 387","WINDOW ROCK","AZ","86515"
347468,"PO BOX 3871","CHERRY HILL","NJ","08034"
347469,"PO BOX 3872","ESPANOLA","NM","87533"
347470,"PO BOX 3872","JERSEY CITY","NJ","07302"
347471,"PO BOX 3873","SARASOTA","FL","34230"
347472,"PO BOX 3875","EDINBURG","TX","78540"
347473,"PO BOX 3876","BIRMINGHAM","AL","35208"
347474,"PO BOX 38772","HENRICO","VI","23231"
347475,"PO BOX 3878","MOSCOW","ID","83843"
347476,"PO BOX 3879","PENSACOLA","FL","32516"
347477,"PO BOX 388","ARTESIA","NM","88211"
347478,"PO BOX 388","CORRIGAN","TX","75939"
347479,"PO BOX 388","GHENT","WV","25843"
347480,"PO BOX 388","GOTHA","FM","34734"
347481,"PO BOX 388","HAGAMAN","NY","12086"
347482,"PO BOX 388","HAMBURG","PA","19526"
347483,"PO BOX 388","JOLIET","MT","59041"
347484,"PO BOX 388","LEWES","DE","19958"
347485,"PO BOX 388","MOBILE","AL","36601"
347486,"PO BOX 388","SANDWICH","IL","60548"
347487,"PO BOX 388","SOMERVILLE","TX","77879"
347488,"PO BOX 388","WILSON","KS","67490"
347489,"PO BOX 3880","BRANDON","FL","33509"
347490,"PO BOX 38802","COLORADO SPRINGS","CO","80937"
347491,"PO BOX 388148","CHICAGO","IL","60638"
347492,"PO BOX 3882","BLUFFTON","SC","29910"
347493,"PO BOX 3882","FREDERICKSBURG","VA","22402"
347494,"PO BOX 3883","SALEM","OR","97302"
347495,"PO BOX 3884","SHREVEPORT","LA","71133"
347496,"PO BOX 38843","CHARLOTTE","NC","28278"
347497,"PO BOX 38844","CHARLOTTE","NC","28278"
347498,"PO BOX 38862","CHARLOTTE","NC","28278"
347499,"PO BOX 3887","BATESVILLE","AR","72501"
347500,"PO BOX 38890","DETROIT","MI","48238"
