"ID","Address","City","State","Zip"
345501,"PO BOX 3332","MINOT","ND","58702"
345502,"PO BOX 3333","ANN ARBOR","MI","48106"
345503,"PO BOX 3333","MONTROSE","CO","81402"
345504,"PO BOX 33332","PALM BEACH GARDENS","FL","33420"
345505,"PO BOX 3335","CLOVIS","CA","93613"
345506,"PO BOX 3335","LA CROSSE","WI","54601"
345507,"PO BOX 3336","DULUTH","MN","55803"
345508,"PO BOX 3336","KALAMAZOO","MI","49003"
345509,"PO BOX 33391","FORT WORTH","TX","76162"
345510,"PO BOX 334","BOONE","IA","50036"
345511,"PO BOX 334","DANBURY","IA","51019"
345512,"PO BOX 334","EAST BURKE","VT","05832"
345513,"PO BOX 334","ENOSBURG FALLS","VT","05450"
345514,"PO BOX 334","GERING","NE","69341"
345515,"PO BOX 334","GUALALA","CA","95445"
345516,"PO BOX 334","HARRISON CITY","PA","15636"
345517,"PO BOX 334","HUNTINGTON","OR","97907"
345518,"PO BOX 334","IPSWICH","SD","57451"
345519,"PO BOX 334","MANNINGTON","WV","26582"
345520,"PO BOX 334","MILO","ME","04463"
345521,"PO BOX 334","NEWPORT","PA","17074"
345522,"PO BOX 334","NICHOLS","NY","13812"
345523,"PO BOX 334","NORTH PLAINS","OR","97133"
345524,"PO BOX 334","PITMAN","NJ","08071"
345525,"PO BOX 334","PRINCETON","NJ","08542"
345526,"PO BOX 334","ROSEBUD","MO","63091"
345527,"PO BOX 334","SAINT JOSEPH","MI","49085"
345528,"PO BOX 334","SANTA CLARA","CA","95052"
345529,"PO BOX 334","SOPER","OK","74759"
345530,"PO BOX 334","TULAROSA","NM","88352"
345531,"PO BOX 334","WALDO","OH","43356"
345532,"PO BOX 334","WATKINS GLEN","NY","14891"
345533,"PO BOX 334","WHITE HOUSE","TN","37188"
345534,"PO BOX 3341","BELLAIRE","TX","77402"
345535,"PO BOX 3341","REDMOND","WA","98073"
345536,"PO BOX 334128","PONCE","PR","00733"
345537,"PO BOX 3343","OSHKOSH","WI","54903"
345538,"PO BOX 3344","ALLIANCE","OH","44601"
345539,"PO BOX 3344","CAMDEN","NJ","08101"
345540,"PO BOX 3344","FARMINGTON","NM","87499"
345541,"PO BOX 33444","INDIANAPOLIS","IN","46203"
345542,"PO BOX 3345","LAWTON","OK","73502"
345543,"PO BOX 3346","BROKEN ARROW","OK","74013"
345544,"PO BOX 3346","ROSWELL","NM","88202"
345545,"PO BOX 3347","FORNEY","TX","75126"
345546,"PO BOX 3347","GRASS VALLEY","CA","95945"
345547,"PO BOX 3349","PALMER","AK","99645"
345548,"PO BOX 33494","TULSA","OK","74153"
345549,"PO BOX 335       507 CENTER STREET","ORANGE COVE","CA","93646"
345550,"PO BOX 335","AGOURA HILLS","CA","91376"
345551,"PO BOX 335","BAXTER","TN","38544"
345552,"PO BOX 335","CARRIZOZO","NM","88301"
345553,"PO BOX 335","CYPRESS","TX","77410"
345554,"PO BOX 335","DURAND","IL","61024"
345555,"PO BOX 335","EASTPOINT","FL","32328"
345556,"PO BOX 335","FORTINE","MT","59918"
345557,"PO BOX 335","FRIENDSWOOD","TX","77546"
345558,"PO BOX 335","HALEIWA","HI","96712"
345559,"PO BOX 335","HAMILTON","MT","59840"
345560,"PO BOX 335","KIELER","WI","53812"
345561,"PO BOX 335","MANTI","UT","84642"
345562,"PO BOX 335","MAYWOOD","IL","60153"
345563,"PO BOX 335","MCMINNVILLE","OR","97128"
345564,"PO BOX 335","MEDFORD","OR","97501"
345565,"PO BOX 335","MONT VERNON","NH","03057"
345566,"PO BOX 335","NORTH LAUDERDALE","FL","33068"
345567,"PO BOX 335","ORANGE COVE","CA","93646"
345568,"PO BOX 335","PATASKALA","OH","43062"
345569,"PO BOX 335","RISING SUN","IN","47040"
345570,"PO BOX 335","SAINT MARYS","WV","26170"
345571,"PO BOX 335","SALEM","WI","53168"
345572,"PO BOX 335","SOUTHFIELD","MI","48037"
345573,"PO BOX 335","STAR CITY","AR","71667"
345574,"PO BOX 335","THOMASVILLE","GA","31799"
345575,"PO BOX 335","WEST SAND LAKE","NY","12196"
345576,"PO BOX 33511","TULSA","OK","74153"
345577,"PO BOX 33515","INDIANAPOLIS","IN","46203"
345578,"PO BOX 3352","BLOOMINGTON","IL","61702"
345579,"PO BOX 3352","DURHAM","NC","27702"
345580,"PO BOX 335268","NORTH LAS VEGAS","NV","89033"
345581,"PO BOX 3354","APACHE JUNCTION","AZ","85117"
345582,"PO BOX 3354","BELLA VISTA","AR","72715"
345583,"PO BOX 3354","BREWER","ME","04412"
345584,"PO BOX 3354","YUBA CITY","CA","95992"
345585,"PO BOX 3356","CHERRY HILL","NJ","08034"
345586,"PO BOX 3356","FREEPORT","TX","77542"
345587,"PO BOX 33561","TULSA","OK","74153"
345588,"PO BOX 3357","MAYAGUEZ","PR","00681"
345589,"PO BOX 33571","WASHINGTON","DC","20036"
345590,"PO BOX 33571","WRIGHT-PATTERSON AFB","OH","45433"
345591,"PO BOX 3358","ALBANY","OR","97321"
345592,"PO BOX 3358","HUEYTOWN","AL","35023"
345593,"PO BOX 33580","SEATTLE","WA","98133"
345594,"PO BOX 335842","NORTH LAS VEGAS","NV","89033"
345595,"PO BOX 3359","WESTPORT","MA","02790"
345596,"PO BOX 33596","PORTLAND","OR","97292"
345597,"PO BOX 336","ANKENY","IA","50023"
345598,"PO BOX 336","BAYAMON","PR","00960"
345599,"PO BOX 336","BLACKSBURG","SC","29702"
345600,"PO BOX 336","CAMDEN","AL","36726"
345601,"PO BOX 336","CANAL WINCHESTER","OH","43110"
345602,"PO BOX 336","DAYTON","IA","50530"
345603,"PO BOX 336","ELBERTON","GA","30635"
345604,"PO BOX 336","FRANKLIN SPRINGS","GA","30639"
345605,"PO BOX 336","HOBART","WA","98025"
345606,"PO BOX 336","KUTTAWA","KY","42038"
345607,"PO BOX 336","LEWES","DE","19958"
345608,"PO BOX 336","MONTEAGLE","TN","37356"
345609,"PO BOX 336","OREGON CITY","OR","97045"
345610,"PO BOX 336","PFLUGERVILLE","TX","78660"
345611,"PO BOX 336","ROSEBURG","OR","97470"
345612,"PO BOX 336","SEYMOUR","CT","06483"
345613,"PO BOX 336","TOMALES","CA","94971"
345614,"PO BOX 336","TOWNSHEND","VT","05353"
345615,"PO BOX 336","WILLISTON PARK","NY","11596"
345616,"PO BOX 336","WINN","MI","48896"
345617,"PO BOX 336","WOLSEY","SD","57384"
345618,"PO BOX 3362","CHINLE","AZ","86503"
345619,"PO BOX 3362","RAPID CITY","SD","57709"
345620,"PO BOX 3363","CHAPEL HILL","NC","27515"
345621,"PO BOX 3363","NAPA","CA","94558"
345622,"PO BOX 3363","PAGO PAGO","AS","96799"
345623,"PO BOX 336325","GREELEY","CO","80633"
345624,"PO BOX 336391","GREELEY","CO","80633"
345625,"PO BOX 3364","FAIRFIELD","CA","94533"
345626,"PO BOX 3364","FORNEY","TX","75126"
345627,"PO BOX 3364","RAPID CITY","SD","57702"
345628,"PO BOX 3366","BRECKENRIDGE","CO","80424"
345629,"PO BOX 33662","RENO","NV","89533"
345630,"PO BOX 336743","NORTH LAS VEGAS","NV","89033"
345631,"PO BOX 336771","GREELEY","CO","80633"
345632,"PO BOX 33686","RENO","NV","89533"
345633,"PO BOX 336942","GREELEY","CO","80633"
345634,"PO BOX 337","ARROYO HONDO","NM","87513"
345635,"PO BOX 337","CHESWOLD","DE","19936"
345636,"PO BOX 337","ELIZABETHTON","TN","37644"
345637,"PO BOX 337","NOTI","OR","97461"
345638,"PO BOX 337","PACIFIC JUNCTION","IA","51561"
345639,"PO BOX 337","PEBBLE BEACH","CA","93953"
345640,"PO BOX 337","SILOAM SPRINGS","AR","72761"
345641,"PO BOX 337","SLIPPERY ROCK","PA","16057"
345642,"PO BOX 337","UNIONTOWN","OH","44685"
345643,"PO BOX 337","WALKER","IA","52352"
345644,"PO BOX 33708","NORTHGLENN","CO","80233"
345645,"PO BOX 3371","MULDROW","AR","74948"
345646,"PO BOX 3372","CORDOVA","TN","38088"
345647,"PO BOX 3372","LOUISVILLE","KY","40201"
345648,"PO BOX 3372","SOUTHFIELD","MI","48223"
345649,"PO BOX 3372","THOUSAND OAKS","CA","91359"
345650,"PO BOX 33727","FORT SILL","OK","73503"
345651,"PO BOX 3373 - 336 MOWETZA DR","ASHLAND","OR","97520"
345652,"PO BOX 3373","CHESTER","VA","23831"
345653,"PO BOX 3373","FORT PIERCE","FL","34948"
345654,"PO BOX 337361","GREELEY","CO","80633"
345655,"PO BOX 3374","SOUTHFIELD","MI","48037"
345656,"PO BOX 3375","BROOKHAVEN","MS","39603"
345657,"PO BOX 3375","MINOT","ND","58702"
345658,"PO BOX 3375","PEACHTREE CITY","GA","30269"
345659,"PO BOX 337514","GREELEY","CO","80633"
345660,"PO BOX 33755","DECATUR","GA","30033"
345661,"PO BOX 3376","FREDERICKSBURG","TX","78624"
345662,"PO BOX 3376","MONTGOMERY","AL","36109"
345663,"PO BOX 33788","TACOMA","WA","98433"
345664,"PO BOX 3379","CHICO","CA","95927"
345665,"PO BOX 338  538 MILLER STREET","BEECHER","IL","60401"
345666,"PO BOX 338","CAPON BRIDGE","WV","26711"
345667,"PO BOX 338","DAYTON","VA","22821"
345668,"PO BOX 338","ENGLEWOOD","OH","45322"
345669,"PO BOX 338","HEDGESVILLE","WV","25427"
345670,"PO BOX 338","LOCUST GROVE","GA","30248"
345671,"PO BOX 338","MIDDLETOWN","PA","17057"
345672,"PO BOX 338","NESBIT","MS","38651"
345673,"PO BOX 338","ROME CITY","IN","46784"
345674,"PO BOX 338","ST MARIES","ID","83861"
345675,"PO BOX 338","VIRGINIA CITY","MT","59755"
345676,"PO BOX 338","WELLS","NV","89835"
345677,"PO BOX 3381","ALPHARETTA","GA","30004"
345678,"PO BOX 3381","BLOOMINGTON","IN","47402"
345679,"PO BOX 33814","DAYTON","OH","45433"
345680,"PO BOX 3382","GUAYNABO","PR","00970"
345681,"PO BOX 3386","HAMPTON","VA","23663"
345682,"PO BOX 3386","MEMPHIS","TN","38173"
345683,"PO BOX 3388","HICKORY","NC","28603"
345684,"PO BOX 3388","KINGSHILL","VI","00851"
345685,"PO BOX 339","ESPANOLA","NM","87532"
345686,"PO BOX 339","FA","IL","62821"
345687,"PO BOX 339","HURRICANE","UT","84737"
345688,"PO BOX 339","KIMBERTON","PA","19442"
345689,"PO BOX 339","MASON CITY","IA","50402"
345690,"PO BOX 339","OAK GROVE","LA","71263"
345691,"PO BOX 339","OMAR","WV","25638"
345692,"PO BOX 339","PENFIELD","NY","14526"
345693,"PO BOX 339","TUCKAHOE","NY","10707"
345694,"PO BOX 3390","SAN ANGELO","TX","76902"
345695,"PO BOX 3392","SHIPROCK","NM","87420"
345696,"PO BOX 3393","OAKTON","VA","22124"
345697,"PO BOX 3393","UNION","NJ","07083"
345698,"PO BOX 33955","SEATTLE","WA","98133"
345699,"PO BOX 3397","CHAPEL HILL","NC","27515"
345700,"PO BOX 3397","SANTA MONICA","CA","90408"
345701,"PO BOX 33981","INDIALANTIC","FL","32903"
345702,"PO BOX 33991","RENO","NV","89533"
345703,"PO BOX 34","ANTWERP","OH","45813"
345704,"PO BOX 34","BELLE PLAINE","KS","67013"
345705,"PO BOX 34","BELLE PLAINE","MN","56011"
345706,"PO BOX 34","BETHANY","OK","73008"
345707,"PO BOX 34","BOALSBURG","PA","16827"
345708,"PO BOX 34","BODEGA","CA","94922"
345709,"PO BOX 34","BREESE","IL","62230"
345710,"PO BOX 34","CLIFF ISLAND","ME","04019"
345711,"PO BOX 34","DELTA JUNCTION","AK","99737"
345712,"PO BOX 34","DOVER","NH","03821"
345713,"PO BOX 34","DOYLESTOWN",NA,"18901"
345714,"PO BOX 34","EASTHAMPTON","MA","01027"
345715,"PO BOX 34","FRANCESTOWN","NH","03043"
345716,"PO BOX 34","GAINESBORO","TN","38562"
345717,"PO BOX 34","HASTINGS","MN","55033"
345718,"PO BOX 34","JEFFERSON","NC","28640"
345719,"PO BOX 34","KINDRED","ND","58051"
345720,"PO BOX 34","KURTEN","TX","77862"
345721,"PO BOX 34","LAKE BLUFF","IL","60044"
345722,"PO BOX 34","MORGANZA","MD","20660"
345723,"PO BOX 34","MT CORY","OH","45868"
345724,"PO BOX 34","OAKRIDGE","OR","97463"
345725,"PO BOX 34","OLD MISSION","MI","49673"
345726,"PO BOX 34","OSHTEMO","MI","49077"
345727,"PO BOX 34","PALMER","AK","99645"
345728,"PO BOX 34","POTTERSVILLE","MO","65790"
345729,"PO BOX 34","RED HILL","PA","18076"
345730,"PO BOX 34","ROCHESTER","MN","55901"
345731,"PO BOX 34","SANDYVILLE","WV","25275"
345732,"PO BOX 34","SIDE LAKE","MN","55781"
345733,"PO BOX 34","SOUTH BOSTON","VA","24592"
345734,"PO BOX 34","SUMMER LAKE","OR","97640"
345735,"PO BOX 34","THORP","WA","98946"
345736,"PO BOX 34","TIFFIN","OH","44883"
345737,"PO BOX 34","TOMBALL","TX","77377"
345738,"PO BOX 34","WATERFORD","VA","20197"
345739,"PO BOX 34","WESTMINSTER","MD","21158"
345740,"PO BOX 340 103 SCHOOL ST","BELGRADE","MN","56312"
345741,"PO BOX 340","CHARLESTON","SC","29402"
345742,"PO BOX 340","COLFAX","LA","71417"
345743,"PO BOX 340","CROWNSVILLE","MD","21032"
345744,"PO BOX 340","DIBOLL","TX","75941"
345745,"PO BOX 340","EAST AURORA","NY","14052"
345746,"PO BOX 340","EMERSON","NJ","07630"
345747,"PO BOX 340","FALL CITY","WA","98024"
345748,"PO BOX 340","IRVINGTON","VA","22480"
345749,"PO BOX 340","KIELER","WI","53812"
345750,"PO BOX 340","LAKE DALLAS","TX","75065"
345751,"PO BOX 340","LANSFORD","PA","18232"
345752,"PO BOX 340","LAVON","TX","75166"
345753,"PO BOX 340","MEDICAL LAKE","WA","99022"
345754,"PO BOX 340","MOHALL","ND","58761"
345755,"PO BOX 340","MONTCLEIR","NJ","07042"
345756,"PO BOX 340","OKANOGAN","WA","98840"
345757,"PO BOX 340","PHARR","TX","78577"
345758,"PO BOX 340","RICHLAND","MO","65556"
345759,"PO BOX 340","SHOW LOW","AZ","85902"
345760,"PO BOX 340008","TAMPA","FL","33694"
345761,"PO BOX 340055","JAMAICA","NY","11434"
345762,"PO BOX 3401","FLAGSTAFF","AZ","86003"
345763,"PO BOX 3401","PENSACOLA","FL","32504"
345764,"PO BOX 34016","WASHINGTON","DC","20043"
345765,"PO BOX 340175","TAMPA","FL","33694"
345766,"PO BOX 340181","COLUMBUS","OH","43234"
345767,"PO BOX 340192","MILWAUKEE","WI","53215"
345768,"PO BOX 3402","TALLAHASSEE","FL","32315"
345769,"PO BOX 34025","KNOXVILLE","TN","37930"
345770,"PO BOX 34027","BETHESDA","MD","20827"
345771,"PO BOX 3403","KALISPELL","MT","59903"
345772,"PO BOX 3403","SEAL BEACH","CA","90740"
345773,"PO BOX 340346","LAKEWAY","TX","78734"
345774,"PO BOX 340357","FORT SAM HOUSTON","TX","78234"
345775,"PO BOX 340395","COLUMBUS","OH","43234"
345776,"PO BOX 3404","BALD HEAD ISLAND","NC","28461"
345777,"PO BOX 340461","BROOKLYN","NY","11234"
345778,"PO BOX 3405","VALDEZ","AK","99686"
345779,"PO BOX 3406","BELLEVUE","WA","98009"
345780,"PO BOX 3406","PARKER","CO","80134"
345781,"PO BOX 340652","LAKEWAY","TX","78734"
345782,"PO BOX 340685","AUSTIN","TX","78734"
345783,"PO BOX 340722","BROOKLYN","NY","11234"
345784,"PO BOX 340734","COLUMBUS","OH","43234"
345785,"PO BOX 340736","TAMPA","FL","33694"
345786,"PO BOX 3408","WICHITA FALLS","TX","76301"
345787,"PO BOX 340801","BROOKLYN","NY","11234"
345788,"PO BOX 340807","SACRAMENTO","CA","95834"
345789,"PO BOX 340848","ROCHDALE","NY","11434"
345790,"PO BOX 3409","HAMPTON","VA","23663"
345791,"PO BOX 3409","PAHRUMP","NV","89041"
345792,"PO BOX 34098","INDIALANTIC","FL","32903"
345793,"PO BOX 341","APALACHIN","NY","13732"
345794,"PO BOX 341","BELLS","TX","75414"
345795,"PO BOX 341","BRICE","OH","43109"
345796,"PO BOX 341","CIRCLE PINES","MN","55014"
345797,"PO BOX 341","CLARKDALE","AZ","86324"
345798,"PO BOX 341","ITTA BENA","MS","38941"
345799,"PO BOX 341","LAKE PLACID","FL","33862"
345800,"PO BOX 341","LIBERTYTOWN","MD","21762"
345801,"PO BOX 341","LILESVILLE","NC","28091"
345802,"PO BOX 341","MARIETTA","GA","30061"
345803,"PO BOX 341","MENDOCINO","CA","95460"
345804,"PO BOX 341","MOUNT HOREB","WI","53572"
345805,"PO BOX 341","MOUNTAIN LAKES","NJ","07046"
345806,"PO BOX 341","OSTERVILLE","MA","02655"
345807,"PO BOX 341","RENOVO","PA","17764"
345808,"PO BOX 341","RIDGELAND","SC","29936"
345809,"PO BOX 341","TEMPLETON","CA","93465"
345810,"PO BOX 341","WATERBURY CENTER","VT","05677"
345811,"PO BOX 341","WINONA LAKE","IN","46590"
345812,"PO BOX 341","WOLSEY","SD","57384"
345813,"PO BOX 341041","MEMPHIS","TN","38184"
345814,"PO BOX 341054","BEAVERCREEK","OH","45434"
345815,"PO BOX 3411","HARLINGEN","TX","78551"
345816,"PO BOX 3411","WALLINGTON","NJ","07057"
345817,"PO BOX 341123","FORT SAM HOUSTON","TX","78234"
345818,"PO BOX 341135","AUSTIN","TX","78734"
345819,"PO BOX 3412","NEWARK","NJ","07103"
345820,"PO BOX 341292","ROCHDALE VILLAGE","NY","11434"
345821,"PO BOX 3413","MANHATTAN BEACH","CA","90266"
345822,"PO BOX 341325","MILWAUKEE","WI","53234"
345823,"PO BOX 3414","CHAMPAIGN","IL","61826"
345824,"PO BOX 341430","JAMAICA","NY","11434"
345825,"PO BOX 3415","BIG BEAR CITY","CA","92314"
345826,"PO BOX 3415","QUARTZ HILL","CA","93586"
345827,"PO BOX 34152","LITTLE ROCK","AR","72203"
345828,"PO BOX 341582","BETHESDA","MD","20827"
345829,"PO BOX 341631","LAKEWAY","TX","78734"
345830,"PO BOX 3417","NEW BERN","NC","28564"
345831,"PO BOX 3419","ALEXANDRIA","VA","22302"
345832,"PO BOX 34190","WASHINGTON","DC","20043"
345833,"PO BOX 34196","SAN DIEGO","CA","92163"
345834,"PO BOX 342","ALMA","MI","48801"
345835,"PO BOX 342","AMANA","IA","52203"
345836,"PO BOX 342","ASHLAND","KY","41105"
345837,"PO BOX 342","BENTON CITY","WA","99320"
345838,"PO BOX 342","BULLVILLE","NY","10915"
345839,"PO BOX 342","CAVE JUNCTION","OR","97523"
345840,"PO BOX 342","DANVILLE","IL","61834"
345841,"PO BOX 342","DENAIR","CA","95316"
345842,"PO BOX 342","DODGE","TX","77334"
345843,"PO BOX 342","GLENROCK","WY","82637"
345844,"PO BOX 342","GRANT","MI","49327"
345845,"PO BOX 342","GROVER","MO","63040"
345846,"PO BOX 342","INDIANAPOLIS","IN","46206"
345847,"PO BOX 342","LAMPETER","PA","17537"
345848,"PO BOX 342","MANISTEE","MI","49660"
345849,"PO BOX 342","MEBANE","NC","27302"
345850,"PO BOX 342","MILLIS","MA","02054"
345851,"PO BOX 342","MONROE","NC","28110"
345852,"PO BOX 342","MUNROE FALLS","OH","44262"
345853,"PO BOX 342","NARROWSBURG","NY","12764"
345854,"PO BOX 342","OFALLON","MO","63366"
345855,"PO BOX 342","OREGON CITY","OR","97045"
345856,"PO BOX 342","PEORIA","AZ","85380"
345857,"PO BOX 342","POND CREEK","OK","73766"
345858,"PO BOX 342","PRAIRIE DU ROCHER","IL","62277"
345859,"PO BOX 342","RIDGEWAY","WI","53582"
345860,"PO BOX 342","SANDUSKY","MI","48471"
345861,"PO BOX 342","SCHOHARIE","NY","12157"
345862,"PO BOX 342","SHANNON","GA","30172"
345863,"PO BOX 342","SLIDELL","LA","70459"
345864,"PO BOX 342","SOUTH ORANGE","NJ","07079"
345865,"PO BOX 342","SPEARMAN","TX","79081"
345866,"PO BOX 342","SPEARVILLE","KS","67876"
345867,"PO BOX 342","SPOKANE","WA","99210"
345868,"PO BOX 342","SPRINGFIELD","VT","05156"
345869,"PO BOX 342","SUMMERVILLE","GA","30747"
345870,"PO BOX 342","TENINO","WA","98589"
345871,"PO BOX 342","TITUSVILLE","NJ","08560"
345872,"PO BOX 342","TRIANGLE","VA","22172"
345873,"PO BOX 342","WAYMART","PA","18472"
345874,"PO BOX 342","WELLBORN","TX","77881"
345875,"PO BOX 342","WELLSVILLE","OH","43968"
345876,"PO BOX 342","WESTMINSTER","CA","92684"
345877,"PO BOX 342","WILSONVILLE","OR","97070"
345878,"PO BOX 3420","EL PASO","TX","79930"
345879,"PO BOX 3421","BROOKHAVEN","MS","39603"
345880,"PO BOX 3421","CEDAR HILL","TX","75106"
345881,"PO BOX 3421","SONORA","CA","95370"
345882,"PO BOX 342127","KAILUA","HI","96734"
345883,"PO BOX 3422","ANN ARBOR","MI","48106"
345884,"PO BOX 3422","CHAPEL HILL","NC","27515"
345885,"PO BOX 3422","MCDONOUGH","GA","30253"
345886,"PO BOX 34223","OMAHA","NE","68134"
345887,"PO BOX 34223","PARMA","OH","44134"
345888,"PO BOX 34229","DETROIT","MI","48234"
345889,"PO BOX 3423","ARIZONA CITY","AZ","85123"
345890,"PO BOX 3423","TERRE HAUTE","IN","47803"
345891,"PO BOX 342328","MEMPHIS","TN","38184"
345892,"PO BOX 34233","OMAHA","NE","68134"
345893,"PO BOX 342386","MILWAUKEE","WI","53234"
345894,"PO BOX 342435","MILWAUKEE","WI","53234"
345895,"PO BOX 3425","CORPUS CHRISTI","TX","78463"
345896,"PO BOX 3425","LA PINE","OR","97739"
345897,"PO BOX 342691","BARTLETT","TN","38184"
345898,"PO BOX 3427","HICKORY","NC","28603"
345899,"PO BOX 3427","LARGO","FL","33773"
345900,"PO BOX 3427","RENTON","WA","98056"
345901,"PO BOX 3428","MURRELLS INLET","SC","29576"
345902,"PO BOX 34280","MEMPHIS","TN","38184"
345903,"PO BOX 342855","MEMPHIS","TN","38184"
345904,"PO BOX 343","BARRE","VT","05461"
345905,"PO BOX 343","BOALSBURG","PA","16827"
345906,"PO BOX 343","CHISAGO CITY","MN","55013"
345907,"PO BOX 343","COLON","MI","49040"
345908,"PO BOX 343","CUMBERLAND","VA","23040"
345909,"PO BOX 343","DAVIS","CA","95617"
345910,"PO BOX 343","DOUGLASS","TX","75943"
345911,"PO BOX 343","EAGLE LAKE","TX","77434"
345912,"PO BOX 343","EAST DURHAM","NY","12423"
345913,"PO BOX 343","GLENDIVE","MT","59330"
345914,"PO BOX 343","GRAFORD","TX","76449"
345915,"PO BOX 343","ISSAQUAH","WA","98027"
345916,"PO BOX 343","JOHANNESBURG","MI","49751"
345917,"PO BOX 343","LAPEER","MI","48446"
345918,"PO BOX 343","LE ROY","MN","55951"
345919,"PO BOX 343","LEAGUE CITY","TX","77574"
345920,"PO BOX 343","LIVINGSTON","NJ","07039"
345921,"PO BOX 343","NEZPERCE","ID","83543"
345922,"PO BOX 343","ONEONTA","NY","13820"
345923,"PO BOX 343","PARSONSFIELD","ME","04047"
345924,"PO BOX 343","PETERBOROUGH","NH","03458"
345925,"PO BOX 343","PFAFFTOWN","NC","27040"
345926,"PO BOX 343","SNOW HILL","NC","28580"
345927,"PO BOX 343","TONAWANDA","NY","14150"
345928,"PO BOX 343","YONKERS","NY","10710"
345929,"PO BOX 34302","LOS ANGELES","CA","90034"
345930,"PO BOX 34308","N CHESTERFIELD","VA","23234"
345931,"PO BOX 34309","OMAHA","NE","68134"
345932,"PO BOX 3431","SUFFOLK","VA","23439"
345933,"PO BOX 3431","UNION","NJ","07083"
345934,"PO BOX 3432","DUBLIN","OH","43016"
345935,"PO BOX 3432","SPARTANBURG","SC","29304"
345936,"PO BOX 3432","TEXARKANA","TX","75504"
345937,"PO BOX 343255","MEMPHIS","TN","38184"
345938,"PO BOX 34334","BARTLETT","TN","38184"
345939,"PO BOX 34338","PHOENIX","AZ","85067"
345940,"PO BOX 3434","PAGO PAGO","AS","96799"
345941,"PO BOX 3434","POUGHKEEPSIE","NY","12601"
345942,"PO BOX 34356","MEMPHIS","TN","38184"
345943,"PO BOX 34357","PHILADELPHIA","PA","19101"
345944,"PO BOX 3436","MORRISTOWN","TN","37813"
345945,"PO BOX 344","BAY PINES","FL","33744"
345946,"PO BOX 344","BLAIR","OK","73526"
345947,"PO BOX 344","CENTRAL","AZ","85531"
345948,"PO BOX 344","COLUMBUS","WI","53925"
345949,"PO BOX 344","DOUGLASS","TX","75943"
345950,"PO BOX 344","ELIZABETH CITY","NC","27909"
345951,"PO BOX 344","ELKINS","WV","26241"
345952,"PO BOX 344","ESSEX","CT","06426"
345953,"PO BOX 344","FAIRBANK","IA","50629"
345954,"PO BOX 344","FAYETTEVILLE","WV","25840"
345955,"PO BOX 344","FLORENCE","MT","59833"
345956,"PO BOX 344","FREDERICKSBURG","TX","78624"
345957,"PO BOX 344","HAYS","NC","28635"
345958,"PO BOX 344","HICKORY","NC","28603"
345959,"PO BOX 344","HIGHLAND SPRINGS","VA","23075"
345960,"PO BOX 344","MADISON","NJ","07940"
345961,"PO BOX 344","MANDAN","ND","58554"
345962,"PO BOX 344","MEDICAL LAKE","WA","99022"
345963,"PO BOX 344","MILTON","WA","98354"
345964,"PO BOX 344","NEWBURG","MD","20664"
345965,"PO BOX 344","OSKALOOSA","KS","66066"
345966,"PO BOX 344","PETERSBURG","IN","47567"
345967,"PO BOX 344","RITZVILLE","WA","99169"
345968,"PO BOX 344","ROSE HILL","KS","67133"
345969,"PO BOX 344","ST PAUL","NE","68873"
345970,"PO BOX 344","STEPHENTOWN","NY","12168"
345971,"PO BOX 344","SUMMERVILLE","SC","29484"
345972,"PO BOX 344","TUNKHANNOCK","PA","18657"
345973,"PO BOX 344","WARRENTON","MO","63383"
345974,"PO BOX 34404","CHICAGO","IL","60634"
345975,"PO BOX 34409","PENSACOLA","FL","32507"
345976,"PO BOX 3441","BARTLESVILLE","OK","74005"
345977,"PO BOX 3441","PHOENIX","AZ","85030"
345978,"PO BOX 3441","SAN LUIS","AZ","85349"
345979,"PO BOX 3441","SCHENECTADY","NY","12303"
345980,"PO BOX 3441","TAOS","NM","87571"
345981,"PO BOX 3442","ROCK HILL","SC","29732"
345982,"PO BOX 3443","HUNTSVILLE","AL","35806"
345983,"PO BOX 3444","SAN DIMAS","CA","91733"
345984,"PO BOX 3444","SAN DIMAS","CA","91773"
345985,"PO BOX 3445","BALTIMORE","MD","21225"
345986,"PO BOX 3445","SPRINGFIELD","MO","65808"
345987,"PO BOX 34485","INDIANAPOLIS","IN","46234"
345988,"PO BOX 34492","LOUISVILLE","KY","40232"
345989,"PO BOX 345","BELLEVILLE","KS","66935"
345990,"PO BOX 345","BRANDON","VT","05733"
345991,"PO BOX 345","CHESTERTOWN","MD","21620"
345992,"PO BOX 345","CONROE","TX","77305"
345993,"PO BOX 345","DAYTON","NJ","08810"
345994,"PO BOX 345","EAST LANSING","MI","48826"
345995,"PO BOX 345","FAYETTEVILLE","GA","30214"
345996,"PO BOX 345","GREENVILLE","IL","62246"
345997,"PO BOX 345","GUNTER","TX","75058"
345998,"PO BOX 345","KEYSER","WV","26726"
345999,"PO BOX 345","LEOTI","KS","67861"
346000,"PO BOX 345","MILLBROOK","NY","12545"
