"ID","Address","City","State","Zip"
301501,"8412 INDIAN MOUND DRIVE","DAYTON","OH","45424"
301502,"8412 N GOMEZ AVE","TAMPA","FL","33614"
301503,"8412 OLD COLONY DRIVE SOUTH","UPPER MARLBORO","MD","20772"
301504,"8412 PRESTINE LOOP  203","CORDOVA","TN","38018"
301505,"8412 RAM RIDGE ROAD","FORT WORTH","TX","76137"
301506,"8412 SAINT MORITZ DR","SPRING GROVE","IL","60081"
301507,"8413 CASE RIDGE DR","OAK RIDGE","NC","27310"
301508,"8413 CHAPEL RD","NILES","MI","49120"
301509,"8413 EAST 55TH STREET","KANSAS CITY","MO","64129"
301510,"8413 KESTREL CT","MCKINNEY","TX","75072"
301511,"8413 KITTYHAWK AVE","LOS ANGELES","CA","90045"
301512,"8413 LITTLETON ROAD SUITE A","NORTH FORT MYERS","FL","33903"
301513,"8413 SARATOGA AVE","LUBBOCK","TX","79424"
301514,"8413 SENTINEL RIDGE","NORRISTOWN","PA","19403"
301515,"8413 SPINNAKER COVE","ROWLETT","TX","75089"
301516,"8413 SWANANOAH RD","DALLAS","TX","75209"
301517,"8413 TERRA COTTA DRIVE","CHARLOTTE","NC","28215"
301518,"84136 AVENUE 44","INDIO","CA","92203"
301519,"8414 APPLETON TRAIL","COLORADO SPRINGS","CO","80925"
301520,"8414 E VISTA DRIVE","SCOTTSDALE","AZ","85250"
301521,"8414 FARM RD STE 180 PMB 310","LAS VEGAS","NV","89131"
301522,"8414 FARM RD STE 180-215","LAS VEGAS","NV","89131"
301523,"8414 FARM RD","LAS VEGAS","NV","89134"
301524,"8414 HARTFORD AVENUE","SILVER SPRING","MD","20910"
301525,"8414 MADISON PLACE","PHILADELPHIA","PA","19153"
301526,"8414 MAY ST","TAMPA","FL","33614"
301527,"8414 MOSSHANG COURT","HOUSTON","TX","77040"
301528,"8414 N GREENSFERRY RD","POST FALLS","ID","83854"
301529,"8414 PANOLA ST","NEW ORLEANS","LA","70118"
301530,"8414 S HERMITAGE AVE","CHICAGO","IL","60620"
301531,"8414 WESTERBROOK LN","HUMBLE","TX","77396"
301532,"841428","PEARLAND","TX","77584"
301533,"8415 45TH ST","LYONS","IL","60534"
301534,"8415 BELLONA LANE   SUITE 1012","BALTIMORE","MD","21204"
301535,"8415 BRANDERMILL LN","CHATTANOOGA","TN","37421"
301536,"8415 BRIARMONT LANE","MANASSAS","VA","20112"
301537,"8415 BROOKSEDGE DRIVE APT 207","CHARLOTTE","NC","28216"
301538,"8415 CANTON CENTER ROAD","CANTON","MI","48187"
301539,"8415 DEL RIO WAY APT 510","TEMPLE TERRACE","FL","33617"
301540,"8415 E 21ST STREET N STE 100","WICHITA","KS","67206"
301541,"8415 HOGAN DRIVE","HUNTSVILLE","AL","35802"
301542,"8415 LYONS PLACE","PHILADELPHIA","PA","19153"
301543,"8415 MACKENZIE AVE NW","NORTH CANTON","OH","44720"
301544,"8415 MALTBY RD","BRIGHTON","MI","48116"
301545,"8415 NE MILTON STREET","PORTLAND","OR","97220"
301546,"8415 PLANTATION ROAD","MACCLENNY","FL","32063"
301547,"8415 S HARVARD BLVD","LOS ANGELES","CA","90047"
301548,"8415 SW 19TH STREET","NORTH LAUDERDALE","FL","33068"
301549,"8416 27TH AVE NE","TULALIP","WA","98271"
301550,"8416 ANTERO DR","AUSTIN","TX","78759"
301551,"8416 BECKET COVE","CORDOVA","TN","38016"
301552,"8416 CONCORD BLVD W","JACKSONVILLE","FL","32208"
301553,"8416 CORD DR","PASCO","WA","99301"
301554,"8416 LITTLE NECK PKWAY 2ND FL","FLORAL PARK","NY","11001"
301555,"8416 LORRAINE DRIVE","STRONGSVILLE","OH","44149"
301556,"8416 N JONES AVENUE UNIT 3","TAMPA","FL","33604"
301557,"841617","PEARLAND","TX","77584"
301558,"8417 78TH AVE","SEMINOLE","FL","33777"
301559,"8417 BILLSON RD","RANDALLSTOWN","MD","21133"
301560,"8417 BUFFALO AVENUE","PANORAMA CITY","CA","91402"
301561,"8417 CAMELLIA STREET","RALEIGH","NC","27603"
301562,"8417 CEDARCREST LN","FORT WORTH","TX","76123"
301563,"8417 KENTON CT","COLUMBIA","MD","21046"
301564,"8417 LANDER ST APT 4A","BRIARWOOD","NY","11435"
301565,"8417 MIGUEL WAY","ELVERTA","CA","95626"
301566,"8417 MIRAMAR RD","PASADENA","MD","21122"
301567,"8417 OSWEGO RD 129","BALDWINSVILLE","NY","13027"
301568,"8417 OSWEGO RD UNIT 193","BALDWINSVILLE","NY","13027"
301569,"8417 REGENT AVE N NO 103","BROOKLYN PARK","MN","55443"
301570,"8417 REGENT AVENUE NORTH APT 3","MINNEAPOLIS","MN","55443"
301571,"8417 SOUTH AVENUE 4 AND A HALF E","YUMA","AZ","85365"
301572,"8417 STABLE LANE","KNOXVILLE","TN","37938"
301573,"8418 BANYAN BLVD","ORLANDO","FL","32819"
301574,"8418 COUNTY ROAD D","WINNECONNE","WI","54986"
301575,"8418 CRUIT ISLE","MISSOURI CITY","TX","77459"
301576,"8418 E SANDLEWOOD LN","SPOKANE","WA","99217"
301577,"8418 EAST BAY BLVD","NAVARRE","FL","32566"
301578,"8418 GREENWOOD RD","HEBRON","IL","60034"
301579,"8418 LARGE STREET","PHILADELPHIA","PA","19152"
301580,"8418 NAYLOR AVENUE","LOS ANGELES","CA","90045"
301581,"8418 SOUTHGATE COMMONS DRIVE","CHARLOTTE","NC","28277"
301582,"8418 WINNCREST LN","COLORADO SPRINGS","CO","80920"
301583,"8419 BERGENLINE AVE 1ST FLOOR","NORTH BERGEN","NJ","07047"
301584,"8419 BRIGHTON LAKE LN","HOUSTON","TX","77095"
301585,"8419 CASA MORENA CT NW","ALBUQUERQUE","NM","87120"
301586,"8419 CREIGER","CHICAGO","IL","60617"
301587,"8419 E SIENNA COVE LANE","HOUSTON","TX","77083"
301588,"8419 GLENEAGLES COURT","DUBLIN","OH","43017"
301589,"8419 GRAND CARRIAGE GROVE","COLORADO SPRINGS","CO","80920"
301590,"8419 LORRIE DRIVE","HOUSTON","TX","77025"
301591,"8419 NANDINA WAY","ANTELOPE","CA","95843"
301592,"8419 ROMANA RED LANE","CHARLOTTE","NC","28213"
301593,"8419 S CALUMET","CHICAGO","IL","60619"
301594,"8419 SAILING LOOP","BRADENTON","FL","34202"
301595,"8419 WILLIAMS ROAD","CHARDON","OH","44024"
301596,"842 2ND AVE","GEORGETOWN","SC","29440"
301597,"842 7TH ST","NORCO","CA","92860"
301598,"842 BEST ROAD","WEST SAND LAKE","NY","12196"
301599,"842 BROOKLINE DR","SUNNYVALE","CA","94087"
301600,"842 CHESTNUT RD 369 S CASE HALL","EAST LANSING","MI","48825"
301601,"842 CHIPPENDALE DRIVE","BOWLING GREEN","KY","42103"
301602,"842 CLARK ST","PAGELAND","SC","29728"
301603,"842 COUNTY ROAD 3150","KEMPNER","TX","76539"
301604,"842 FRONT STREET","SANTA CRUZ","CA","95060"
301605,"842 HART STREET 1R","BROOKLYN","NY","11237"
301606,"842 LOMBRANO ST","SAN ANTONIO","TX","78207"
301607,"842 LYNWOOD LANE","BROKEN ARROW","OK","74011"
301608,"842 N HAMILTON AVE","INDIANAPOLIS","IN","46203"
301609,"842 PULASKI MERCER ROAD","NEW WILMINGTON","PA","16142"
301610,"842 RAYMOND AVENUE SUITE 200","ST PAUL","MN","55114"
301611,"842 S BROOK TROUT WAY","MERIDIAN","ID","83642"
301612,"842 S DESHON ROAD","LITHONIA","GA","30058"
301613,"842 S SCOVILLE AVE 3","OAK PARK","IL","60304"
301614,"842 SW 14TH AVENUE APT 1","MIAMI","FL","33135"
301615,"842 VAN BRIGGLE PATH","SUGAR HILL","GA","30518"
301616,"842 W GRAND AVE","CHICAGO","IL","60642"
301617,"842 WATERFORD DR","DELRAN","NJ","08075"
301618,"842 WILLIAM STREET","RIVER FOREST","IL","60305"
301619,"8420 183RD AVE SW","ROCHESTER","WA","98579"
301620,"8420 75TH ST NE","MARYSVILLE","WA","98270"
301621,"8420 AUTUMN CREEK TRAIL","FORT WORTH","TX","76134"
301622,"8420 CLOVER HILL LOOP","HUDSON","FL","34667"
301623,"8420 GAS HOUSE PIKE STE Z","FREDERICK","MD","21701"
301624,"8420 GOVERNOR BRADFORD LANE","ELLICOTT CITY","MD","21043"
301625,"8420 GREENBRIER DR","SAN ANTONIO","TX","78209"
301626,"8420 KAWALA DR","LAS VEGAS","NV","89128"
301627,"8420 MANUEL CIA PL NE","ALBUQUERQUE","NM","87122"
301628,"8420 MAYMEADOW CT","BALTIMORE","MD","21244"
301629,"8420 MUNDY DR","RICHMOND","VA","23228"
301630,"8420 MUNDY DRIVE","RICHMOND","VA","23228"
301631,"8420 NEW HARRISON-BRADFORD RD","BRADFORD","OH","45308"
301632,"8420 PERRY PINES ROAD - 201","RALEIGH","NC","27626"
301633,"8420 S HERMITAGE","CHICAGO","IL","60620"
301634,"8420 SUMMER BREEZE PLACE","MANASSAS","VA","20112"
301635,"8420 SW 133 AVE ROAD APT 111","MIAMI","FL","33183"
301636,"8420","LENEXA","KS","66227"
301637,"8421 169TH ST","JAMAICA","NY","11432"
301638,"8421 ABERDEEN RD","NEW ORLEANS","LA","70127"
301639,"8421 AMINO DR","SANTEE","CA","92071"
301640,"8421 AUBURN BLVD SUITE 248","CITRUS HEIGHTS","CA","95610"
301641,"8421 BAYMEADOWS WAY SUITE 4A","JACKSONVILLE","FL","32256"
301642,"8421 BULAVILLE PIKE","GALLIPOLIS","OH","45631"
301643,"8421 CEDAR LANE","KING GEORGE","VA","22485"
301644,"8421 DORCHESTER RD  STE109/158","NORTH CHARLESTON","SC","29420"
301645,"8421 DORCHESTER RD STE 109/158","NORTH CHARLESTON","SC","29420"
301646,"8421 DORCHESTER RD SUITE 109-334","NORTH CHARLESTON","SC","29420"
301647,"8421 E MAIN ST LOT 146","MESA","AZ","85207"
301648,"8421 N HENPECK ROAD","QUINTON","VA","23141"
301649,"8421 NW 38 STREET","COOPER CITY","FL","33024"
301650,"8421 PLEASANT HILL ROAD","LITHONIA","GA","30058"
301651,"8421 S ORANGE BLOSSOM TRAIL STE 235","ORLANDO","FL","32809"
301652,"8421 SOUTHWEST 33 TERRACE","MIAMI","FL","33155"
301653,"8421 SW 56TH AVE","PORTLAND","OR","97219"
301654,"8422 ANDROMEDA LANE","BAKERSFIELD","CA","93306"
301655,"8422 CLARKDALE DRIVE","HUNTINGTON BEACH","CA","92646"
301656,"8422 HAIGHT RD","BARKER","NY","14012"
301657,"8422 MASTERS COURT","ALEXANDRIA","VA","22308"
301658,"8422 WEST 78TH CIRCLE","ARVADA","CO","80005"
301659,"8423 EAST HATCHERY ROAD","SYRACUSE","IN","46567"
301660,"8423 HEARTH SUITE 31","HOUSTON","TX","77054"
301661,"8423 LULLABY LANE","PANORAMA CITY","CA","91402"
301662,"8423 NORWOOD PLACE","ROSEMEAD","CA","91770"
301663,"8423 TARAGLEN COURT","RICHMOND","TX","77407"
301664,"8423 VICKSBURG RD","SPRING HILL","FL","34608"
301665,"8424 213TH PL NE","REDMOND","WA","98053"
301666,"8424 26TH AVE SW B","SEATTLE","WA","98106"
301667,"8424 DUNPHY COURT","LAS VEGAS","NV","89145"
301668,"8424 E MEADOW LAKE DRIVE","SNOHOMISH","WA","98290"
301669,"8424 E OLD SPANISH TRAIL","TUCSON","AZ","85710"
301670,"8424 ETIENNE COVE","AUSTIN","TX","78759"
301671,"8424 HOOPER AVENUE","LOS ANGELES","CA","90001"
301672,"8424 MARTY","OVERLAND PARK","KS","66212"
301673,"8424 OLDE STONEGATE LN","MINT HILL","NC","28227"
301674,"8424 OLIVET COURT","SACRAMENTO","CA","95826"
301675,"8424 SANTA MONICA BOULEVARD A258","WEST HOLLYWOOD","CA","90069"
301676,"8425 40TH ST W","UNIVERSITY PLACE","WA","98466"
301677,"8425 BAY CREST DRIVE","LAS VEGAS","NV","89128"
301678,"8425 BRIDGEWAY DRIVE  APT 2D","FORT WAYNE","IN","46816"
301679,"8425 KATIE ROAD","CLINTON","IL","61727"
301680,"8425 LEISHEAR RD","LAUREL","MD","20723"
301681,"8425 N 107TH STREET UNIT 307","MILWAUKEE","WI","53224"
301682,"8425 NW 31ST AVENUE","MIAMI","FL","33147"
301683,"8425 ROSEMONT CIRCLE","ALEXANDRIA","VA","22309"
301684,"8425 STREAMVIEW DRIVE - APARTMENT E","HUNTERSVILLE","NC","28078"
301685,"8425 WILLISTON ROAD","WILLISTON","VT","05495"
301686,"8426 E SHEA BLVD","SCOTTSDALE","AZ","85260"
301687,"8426 HILLS LANE","LAUREL","DE","19956"
301688,"8426 ISLAND PALM CIRCLE","ORLANDO","FL","32835"
301689,"8426 JACKSON CREEK BEND LANE","HUMBLE","TX","77396"
301690,"8426 KERMIT LAFEVER RD","BAXTER","TN","38544"
301691,"8426 PICKERING STREET","PHILADELPHIA","PA","19150"
301692,"8426 VERANO STREET","NAVARRE","FL","32566"
301693,"8426 VINE MAPLE WAY","INDIANAPOLIS","IN","46278"
301694,"8427 BENELLI COURT","NAPLES","FL","34114"
301695,"8427 BONNER DRIVE","HOUSTON","TX","77017"
301696,"8427 CANDLEWOOD COVE TRAIL","JACKSONVILLE","FL","32244"
301697,"8427 KEMP CT","DUBUQUE","IA","52003"
301698,"8427 LAKE OTIS PARKWAY","ANCHORAGE","AK","99507"
301699,"8427 REDHEART ST","ARLINGTON","FL","76002"
301700,"8427 TAYLOR STREET","ZEELAND","MI","49464"
301701,"8428 ALAMEDA PARK DRIVE","ELK GROVE","CA","95624"
301702,"8428 FORT HUNT ROAD","ALEXANDRIA","VA","22308"
301703,"8428 GLEN EAGLE DRIVE","MANLIUS","NY","13104"
301704,"8428 HELMSLEY COURT","FISHERS","IN","46038"
301705,"8428 LADINA PLACE","FORT WORTH","TX","76131"
301706,"8428 NEW KINGS ROAD SUITE 4","JACKSONVILLE","FL","32219"
301707,"8428 SOUTH ST LAWRENCE","CHICAGO","IL","60619"
301708,"8428 SPRINGWATER CT","CINCINNATI","OH","45247"
301709,"8428 TABOR CIR","ARVADA","CO","80005"
301710,"8428 W 13TH STREET N","WICHITA","KS","67212"
301711,"8428 WHITAKER STREET","BUENA PARK","CA","90621"
301712,"8429 AINSWORTH ST","CHARLOTTE","NC","28216"
301713,"843 CLEVELAND-MASSILLON RD","AKRON","OH","44333"
301714,"843 CO RD 1","PALM HARBOR","FL","34683"
301715,"843 COTTON BAY DR E APT 2515","WEST PALM BEACH","FL","33406"
301716,"843 DEER RUN DRIVE","AMHERST","OH","44001"
301717,"843 EAGLEPOINTE DR","NORTH SALT LAKE","UT","84054"
301718,"843 EMBER DR","DURHAM","NC","27703"
301719,"843 ERIE STATION ROAD","W HENRIETTA","NY","14586"
301720,"843 FAIRVIEW SUITE A1","BOWLING GREEN","KY","42101"
301721,"843 FM 2200 S","D'HANIS","TX","78850"
301722,"843 GENEVA SE","GRAND RAPIDS","MI","49507"
301723,"843 GRIFFITH CUTOFF","MALVERN","AR","72104"
301724,"843 H STREET","SALIDA","CO","81201"
301725,"843 HIAWATHA PL S APT 403","SEATTLE","WA","98144"
301726,"843 HIAWATHA PL SOUTH  APT 417","SEATTLE","WA","98144"
301727,"843 HIAWATHA PLACE S SUITE 305","SEATTLE","WA","98144"
301728,"843 HOPE STREET UNIT 3","PROVIDENCE","RI","02906"
301729,"843 JOES CREEK RD","COMFORT","WV","25049"
301730,"843 KENNEDY BOULEVARD","BAYONNE","NJ","07002"
301731,"843 KENTUCKY AVE","SIGNAL MOUNTAIN","TN","37377"
301732,"843 LA VISTA DR","LAGUNA BEACH","CA","92651"
301733,"843 LINDA DR","JACKSONVILLE","FL","32208"
301734,"843 MASSACHUSETTS","LAWRENCE","KS","66044"
301735,"843 MEMORIAL DRIVE","GRIFFIN","GA","30224"
301736,"843 N BLUE MARLIN DR","GILBERT","AZ","85234"
301737,"843 N CALIFORNIA AVE","CHICAGO","IL","60622"
301738,"843 N TRIPP","CHICAGO","IL","60651"
301739,"843 NEEB RD APT6","CINCINNATI","OH","45233"
301740,"843 NEW BRITTON ROAD","CAROL STREAM","IL","60188"
301741,"843 NORTH DETROIT STREET","LOS ANGELES","CA","90046"
301742,"843 PROSPECT MT VERNON RD W","PROSPECT","OH","43342"
301743,"843 RAMBLEWOOD DRIVE","CORAL SPRINGS","FL","33071"
301744,"843 ROCK PILLAR ROAD","CLAYTON","NC","27520"
301745,"843 ROOSEVELT AVENUE","SECAUCUS","NJ","07094"
301746,"843 S MILLON ST","GASTONIA","NC","28052"
301747,"843 S SYCAMORE ST","OTTAWA","KS","66067"
301748,"843 SIDNEY BAKER ST/SUITE 102","KERRVILLE","TX","78028"
301749,"843 UNIVERSITY DRIVE","TORRINGTON","CT","06790"
301750,"843 VIA SILVA AVE UNIT C","SPRINGDALE","AR","72762"
301751,"843 W KRISTEN CT","FARMERSVILLE","CA","93223"
301752,"843 WAINEE STREET PMB 681","LAHAINA","HI","96761"
301753,"843 WEATHERLY HILLS BLVD","KNOXVILLE","TN","37934"
301754,"8430 BATTLE PARK DR","SPOTSYLVANIA","VA","22551"
301755,"8430 BLUE MOUNTAIN AVENUE","BOYNTON BEACH","FL","33473"
301756,"8430 FLINT ROCK DRIVE","BOERNE","TX","78006"
301757,"8430 HAEG DR","BLOOMINGTON","MN","55431"
301758,"8430 HIGHWAY BB","HUNTSVILLE","MO","65259"
301759,"8430 HOLLOPETER ROAD","LEO","IN","46765"
301760,"8430 LOCKERBIE DR","BROWNSBURG","IN","46112"
301761,"8430 NEWBYS MILL DRIVE","CHESTERFIELD","VA","23832"
301762,"8430 STACEY CIRCLE","ANCHORAGE","AK","99507"
301763,"8430 STONE CHASE","SAN ANTONIO","TX","78254"
301764,"8430 VICKSBURG AVENUE","LOS ANGELES","CA","90045"
301765,"8430 WOODBURY CROSSING","WOODBURY","MN","55125"
301766,"8431 215TH AVE","BLAKESBURG","IA","52536"
301767,"8431 BLACKTIP AVE","LAS VEGAS","NV","89117"
301768,"8431 COMMONWEALTH AVE","BUENA PARK","CA","90621"
301769,"8431 E BROOKHILL DR","TUCSON","AZ","85750"
301770,"8431 HANNA ST","GILROY","CA","95020"
301771,"8431 KIRKVILLE DR","HOUSTON","TX","77089"
301772,"8431 MCVICKER AVE","MORTON GROVE","IL","60053"
301773,"8431 MOORCROFT DRIVE","DALLAS","TX","75228"
301774,"8431 NEWBURGH STREET","RIVERSIDE","CA","92508"
301775,"8431 PREAKNESS LANE","CINCINNATI","OH","45249"
301776,"8432 AZUREWOOD DR","OKLAHOMA CITY","OK","73135"
301777,"8432 KIRKWOOD DR","LOS ANGELES","CA","90046"
301778,"8432 NW 107 CT APT 6","DORAL","FL","33178"
301779,"8432 OHARA LANE","FORT WORTH","TX","76123"
301780,"8432 ROXY CIRCLE","RIVERSIDE","CA","92508"
301781,"8433 9TH AVENUE SOUTH","BIRMINGHAM","AL","35206"
301782,"8433 ABBOTSBURY DRIVE","WINDERMERE","FL","34786"
301783,"8433 FALCONE POINT WAY","VIENNA","VA","22182"
301784,"8433 FM 1464 SUITE L 81","RICH","TX","77407"
301785,"8433 GEORGIA AVE","SILVER SPRING","MD","20910"
301786,"8433 KENTON ROAD","PASADENA","MD","21122"
301787,"8433 ROSEMARY DR","RIVERSIDE","CA","92508"
301788,"8433 S 122ND STREET","SEATTLE","WA","98178"
301789,"8433 SOUTHSIDE BLVD APT 901","JACKSONVILLE","FL","32256"
301790,"8433 SUMMERSPRINGS LN","RALEIGH","NC","27615"
301791,"8433 US-12","ONSTED","MI","49265"
301792,"8434 BOCOWOOD DR","DALLAS","TX","75228"
301793,"8434 BRADSHAW RD","ELK GROVE","CA","95624"
301794,"8434 CIMARRON WAY","MAPLE FALLS","WA","98266"
301795,"8434 EAST VIA MONTOYA","SCOTTSDALE","AZ","85255"
301796,"8434 HIGWAY 20-26","NAMPA","ID","83687"
301797,"8434 PASEO","KANSAS CITY","MO","64131"
301798,"8434 S KOSTNER AVE","CHICAGO","IL","60652"
301799,"8434 WALERGA ROAD  SUIT 1124","ANTELOPE","CA","95843"
301800,"8434 WYCOMBE LANE","RALEIGH","NC","27615"
301801,"8435  REDHEART STREET","ARLINGTON","TX","76002"
301802,"8435 252ND ST","BELLEROSE","NY","11426"
301803,"8435 GEISEL LN","NASHVILL","IL","62263"
301804,"8435 MATEO ESCOBAR","MONTE ALTO","TX","78538"
301805,"8435 PEEKSKILL LN","HOUSTON","TX","77075"
301806,"8435 S COTTAGE GROVE AVENUE","CHICAGO","IL","60619"
301807,"8435 VALLE VISTA PLACE","RANCHO CUCAMONGA","CA","91730"
301808,"8435 W HUGHES DR","TOLLESON","AZ","85353"
301809,"8435 YARROW LN","RIVERSIDE","CA","92508"
301810,"8436 HUNNICUT RD","DALLAS","TX","75228"
301811,"8436 KENBROOKE DRIVE APT 310","CHARLOTTE","NC","28262"
301812,"8436 S MARYLAND","CHICAGO","IL","60619"
301813,"8436 WHITEHAVEN COURT","LORTON","VA","22079"
301814,"8437 2ND AVE S","BIRMINGHAM","AL","35206"
301815,"8437 3R ROAD S","BEULAH","CO","81023"
301816,"8437 BELL OAKS DR UNIT 808","NEWBURGH","IN","47630"
301817,"8437 HOLLY LEAF DR","MCLEAN","VA","22102"
301818,"8437 LOVERS LANE","PORTAGE","MI","49002"
301819,"8438 DIAMOND COVE CIR","ORLANDO","FL","32836"
301820,"8438 SANDREED CIRCLE","PARKER","CO","80134"
301821,"8438","DOUGLASVILLE","GA","30134"
301822,"8439 ADELE ROAD","LAKELAND","FL","33810"
301823,"8439 ISLAND PINES PL","MAINEVILLE","OH","45039"
301824,"8439 JACQUELIN CT","JESSUP","MD","20794"
301825,"8439 OAK BUSH TER","COLUMBIA","MD","21045"
301826,"8439 W CATHERINE AVE 311","CHICAGO","IL","60656"
301827,"8439 WEST SAINT JOHN ROAD","PEORIA","AZ","85382"
301828,"844 BRIGHTVIEW DRIVE","LAKE MARY","FL","32746"
301829,"844 CATHCART RD","DOWELLTOWN","TN","37059"
301830,"844 CATHCART","DOWELLTOWN","TN","37059"
301831,"844 CHESTNUT HILL AVE","ATHOL","MA","01331"
301832,"844 COLE CT","COVINGTON","LA","70433"
301833,"844 E 100 S","PAYSON","UT","84651"
301834,"844 E WEEPING WILLOW DRIVE","AZUSA","CA","91702"
301835,"844 EAST 450 NORTH","AMERICAN FORK","UT","84003"
301836,"844 EDMONDSON AVENUE","BALTIMORE","MD","21201"
301837,"844 GEORGIA CLIFF ROAD","TRYON","NC","28782"
301838,"844 HERSHIRE DRIVE","BETHEL PARK","PA","15102"
301839,"844 LAKESIDE DRIVE","BRIDGEPORT","CT","06606"
301840,"844 MCENTIRE CIRCLE","CHATSWORTH","GA","30705"
301841,"844 MERRIFIELD SE","GRAND RAPIDS","MI","49507"
301842,"844 MIAMI PLACE","BIRMINGHAM","AL","35214"
301843,"844 MORISSETTE WAY","VACAVILLE","CA","95687"
301844,"844 N 15TH STREET","MANITOWOC","WI","54220"
301845,"844 N 4TH AVENUE","PHOENIX","AZ","85003"
301846,"844 N 6TH STREET      PO BOX 543","ATHENA","OR","97813"
301847,"844 N RAINBOW BLVD 247","LAS VEGAS","NV","89107"
301848,"844 NEVIN AVE REAR","SEWICKLEY","PA","15143"
301849,"844 NEWARK AVE APT 403","JERSEY CITY","NJ","07306"
301850,"844 OCEAN POINT ROAD","EAST BOOTHBAY","ME","04544"
301851,"844 OGDEN ST APARTMENT 6","DENVER","CO","80218"
301852,"844 OLD IRONSIDE AVENUE","FORT KNOX","KY","40121"
301853,"844 OLDE HICKORY RD","LANCASTER","PA","17601"
301854,"844 PROSPERITY FARMS ROAD","NORTH PALM BEACH","FL","33408"
301855,"844 RATTLER ROAD","SARATOGA SPRINGS","UT","84045"
301856,"844 REECE RD","SEVERN","MD","21144"
301857,"844 REGULO PLACE  SUITE 2338","CHULA VISTA","CA","91910"
301858,"844 S LINCOLN STREET","ARLINGTON","VA","22204"
301859,"844 S VIRGINIA AVE","MERCEDES","TX","78570"
301860,"844 SHEFFIELD ROAD","SHEFFIELD LAKE","OH","44054"
301861,"844 SHENANDOAN SHORES","FRONT ROYAL","VA","22630"
301862,"844 SOUTH HUMPHREY AVENUE","OAK PARK","IL","60304"
301863,"844 TENDERFOOT DRIVE","LARKSPUR","CO","80118"
301864,"844 TULIP AVE","EVANSVILLE","IN","47711"
301865,"844 VALE VIEW DRIVE","VISTA","CA","92081"
301866,"844 W THIRD ST","SAN PEDRO","CA","90731"
301867,"844 WASHINGTON ST N 400","TWIN FALLS","ID","83301"
301868,"844 WHITLOCK AVENUE APT 105","JACKSONVILLE","FL","32211"
301869,"844 WINTON DRIVE","PETALUMA","CA","94954"
301870,"844 WOODLAND AVENUE","CAMDEN","NJ","08104"
301871,"8440 FOUNTAIN AVENUE SUITE 204","WEST HOLLYWOOD","CA","90069"
301872,"8440 GRACE STREET","FRISCO","TX","75034"
301873,"8440 HAMDEN RD","JACKSONVILLE","FL","32244"
301874,"8440 JEFFERSON HIGHWAY SUITE 301","BATON ROUGE","LA","70809"
301875,"8440 JEFFERSON HWY SUITE 100","BATON ROUGE","LA","70809"
301876,"8440 MIDLAN ROAD","COLUMBUS","GA","31820"
301877,"8440 N ROSALIND AVENUE","CAPE CANAVERAL","FL","32920"
301878,"8440 N SAM HOUSTON PKWY E  APT 817","HUMBLE","TX","77396"
301879,"8440 OLD LEONARDTOWN ROAD STE 211","HUGHESVILLE","MD","20637"
301880,"8440 SO MILITARY TRAIL  UNIT 217","BOYNTON BEACH","FL","33436"
301881,"8440 SOUTH PIONEER WAY","LAS VEGAS","NV","89113"
301882,"8441 60TH AVENUE","MIDDLE VILLAGE","NY","11379"
301883,"8441 GEORGIAN COURT","MANASSAS","VA","20110"
301884,"8441 HIGHWAY 41","CHARLESTON","AR","72933"
301885,"8441 IVES ST","PARAMOUNT","CA","90723"
301886,"8441 LASALLE BLVD","DETROIT","MI","48206"
301887,"8441 S SAINT LAWRENCE AVENUE","CHICAGO","IL","60619"
301888,"8441 SERENA CREEK AVENUE","BOYNTON BEACH","FL","33473"
301889,"8441 SW 114TH STREET","MIAMI","FL","33156"
301890,"8442 BISHOP RD","TINLEY PARK","IL","60487"
301891,"8442 CLINT DRIVE","BELTON","MO","64012"
301892,"8442 MAYFIELD ROAD","CHESTERLAND","OH","44026"
301893,"8442 SE 39TH ST","MERCER ISLAND","WA","98040"
301894,"8442 SW MAPLERIDGE DRIVE","PORTLAND","OR","97225"
301895,"8443 CALIFORNIA CITY BLVD","CALIFORNIA CITY","CA","93505"
301896,"8443 E PLENTYWOOD ROAD","BENTONVILLE","AR","72712"
301897,"8443 NOTTINGHILL DRIVE","INDIANAPOLIS","IN","46234"
301898,"8443 SWISS CHARD CIRCLE","LAND O LAKES","FL","34637"
301899,"8443 W ROSEMONTE DR","PEORIA","AZ","85382"
301900,"8444 199TH AVE","BRISTOL","WI","53104"
301901,"8444 CYPRESS WOOD DR","COLORADO SPRINGS","CO","80927"
301902,"8444 HENSINGERSVILLE ROAD","ALBURTIS","PA","18011"
301903,"8444 SHADOW COURT","CORAL SPRINGS","FL","33071"
301904,"8444 WEST CRABTREE ROAD","HIHSON","TN","37343"
301905,"8444 WEST WILSON AVENUE UNIT 311","CHICAGO","IL","60656"
301906,"8445 ALISTER BLVD W","PALM BEACH GARDENS","FL","33418"
301907,"8445 ALLISON WAY","BEAUMONT","TX","77707"
301908,"8445 BROOK LAKE LN","DOUGLASVILLE","GA","30134"
301909,"8445 CAMBRILS AVE","LAS VEGAS","NV","89178"
301910,"8445 CORY CT","BOSIE","ID","83704"
301911,"8445 LEES RIDGE ROAD","WARRENTON","VA","20186"
301912,"8445 MISTY OAK WAY","ANTELOPE","CA","95843"
301913,"8445 NW 62 PLACE","PARKLAND","FL","33067"
301914,"8445 RAINIER AVE S","SEATTLE","WA","98118"
301915,"8445 SW 14813876 SW 56 STREET","MIAMI","FM","33175"
301916,"8446 E 49TH PL","DENVER","CO","80238"
301917,"8446 MAURER ROAD  APT 928","LENEXA","KS","66219"
301918,"8446 RUCKMAN AVENUE","JACKSONVILLE","FL","32221"
301919,"8446 SEVEN PATHS ROAD","SPRING HOPE","NC","27882"
301920,"8446 STAFFORD DR","STRONGSVILLE","OH","44149"
301921,"8447 2ND ST SW","HALLIDAY","ND","58636"
301922,"8447 BANDITS BLUFF AVENUE","LAS VEGAS","NV","89143"
301923,"8447 FAUST AVE","WEST HILLS","CA","91304"
301924,"8447 GALLIANO ROAD","LAS VEGAS","NV","89117"
301925,"8447 GALLIANO","LAS VEGAS","NV","89117"
301926,"8447 KINGS MEADE WAY","COLUMBIA","MD","21046"
301927,"8447 S GREEN","CHICAGO","IL","60620"
301928,"8447 SAN LEANDRO DR","DALLAS","TX","75218"
301929,"8447 W DESERT ELM LANE","PEORIA","AZ","85383"
301930,"8448 CROSSLAND LOOP SUITE 151","MONTGOMERY","AL","36117"
301931,"8448 FAIRVIEW WAY","LONE TREE","CO","80124"
301932,"8448 FAYETTE ST","PHILADELPHIA","PA","19150"
301933,"8448 HAINES CREEK LANE","RALEIGH","NC","27616"
301934,"8448 RUTLEDGE ROAD","DITTMER","MO","63023"
301935,"8448 W BRODMAN AVE","CHICAGO","IL","60656"
301936,"8449 168TH STREET","JAMAICA HILLS","NY","11432"
301937,"8449 E 163RD CT","BRIGHTON","CO","80602"
301938,"8449 FM 471 SOUTH","LACOSTE","TX","78039"
301939,"8449 RIVERSIDE DRIVE","POWELL","OH","43065"
301940,"8449 S 21ST PLACE","PHOENIX","AZ","85042"
301941,"8449 S PEORIA","CHICAGO","IL","60620"
301942,"845 3RD AVE 21 FLOOR","NEW YORK","NY","10022"
301943,"845 3RD AVE 21FLOOR","NEW YORK","NY","10022"
301944,"845 3RD AVE FL-21","NEW YORK","NY","10022"
301945,"845 6TH ST","BOULDER","CO","80302"
301946,"845 6TH STREET","BOULDER","CO","80302"
301947,"845 A PHILLIP RANDOLPH BLVD","JACKSONVILLE","FL","32206"
301948,"845 BRUCE DRIVE","BERTHOUD","CO","80513"
301949,"845 CAMELIA ST NW","HARTVILL","OH","44632"
301950,"845 DIVERSEY DRIVE","ST LOUIS","MO","63126"
301951,"845 E  LOS ANGELES AVENUE","SIMI VALLEY","CA","93065"
301952,"845 E 22ND ST UNIT 103","LOMBARD","IL","60148"
301953,"845 EAST 119TH STREET","LOS ANGELES","CA","90059"
301954,"845 EAST 155TH STREET SUITE 2D","BRONX","NY","10455"
301955,"845 FOREST HOLLOW DR","HURST","TX","76053"
301956,"845 FOREST HOLLOW DRIVE","HURST","TX","76053"
301957,"845 FOUR SEASONS BLVD","AURORA","IL","60504"
301958,"845 FULTON MALL","FRESNO","CA","93721"
301959,"845 GALLOWAY LANE","LIVINGSTON","TX","77351"
301960,"845 GOLF VIEW CT","DACULA","GA","30019"
301961,"845 IONIA RD","PORTLAND","MI","48875"
301962,"845 JOHN ANDERSON DRIVE","ORMOND BEACH","FL","32176"
301963,"845 KILKENNY CIRCLE","LITHONIA","GA","30058"
301964,"845 KING ROAD","WINLOCK","WA","98596"
301965,"845 LANE ALLEN ROAD  SUITE B-6","LEXINGTON","KY","40504"
301966,"845 LESLIE LANE","GARDENDALE","AL","35071"
301967,"845 LYNN LN","CHICO","CA","95926"
301968,"845 MAGO VISTA RD","ARNOLD","MD","21012"
301969,"845 MAIN STREET","STONE MOUNTAIN","GA","30083"
301970,"845 MILTON OAKS DRIVE","JOHNS CREEK","GA","30022"
301971,"845 MINERS AVE","LEAD","SD","57754"
301972,"845 N HOWARD STREET","BALTIMORE","MD","21201"
301973,"845 N KINGSBURY ST UNIT 617","CHICAGO","IL","60610"
301974,"845 N KINGSBURY ST","CHICAGO","IL","60610"
301975,"845 N LECLAIRE","CHICAGO","IL","60651"
301976,"845 N MOTEL BLVD","LAS CRUCES","NM","88007"
301977,"845 NORTH 20TH STREET","PHILADELPHIA","PA","19130"
301978,"845 NORTH BECKLEY ROAD","DESOTO","TX","75115"
301979,"845 OAK STREET","ALAMEDA","CA","94501"
301980,"845 PALM BEACH RD","SOUTH BAY","FL","33496"
301981,"845 PARKER DR","MESQUITE","TX","75181"
301982,"845 PRESIDENT STREET APT 8","BROOKLYN","NY","11215"
301983,"845 PROTON ROAD","SAN ANTONIO","TX","78258"
301984,"845 S COOPER STREET","MEMPHIS","TN","38104"
301985,"845 S CRESTLINE DRIVE","WALDPORT","OR","97394"
301986,"845 SE HIGHLAND AVE","TOPEKA","KS","66607"
301987,"845 SECOND STREET NE","HICKORY","NC","28601"
301988,"845 SPRING STREET NW UNIT 416","ATLANTA","GA","30308"
301989,"845 THIRD AVENUE","NY","NY","10022"
301990,"845 UNITED NATIONS PLAZA APT 58C","NEW YORK","NY","10017"
301991,"845 US HIGHWAY 641 SPUR","BENTON","KY","42025"
301992,"845 W CARMEL DR","CARMEL","IN","46032"
301993,"845 W FULTON MARKET SUITE 208","CHICAGO","IL","60607"
301994,"845 WAKEFIELD ST APT 601","WEST WARWICK","RI","02893"
301995,"845 WALTER MORRIS ROAD","LEBANON","TN","37087"
301996,"845 WEST MACARTHUR BOULEVARD UNIT 5","OAKLAND","CA","94608"
301997,"845 WILDER ST","PHILADELPHIA","PA","19147"
301998,"845 WISCONSIN AVENUE","RACINE","WI","53403"
301999,"845 WOODCREST AVE","BREA","CA","92821"
302000,"8450 257TH ST","FLORAL PARK","NY","11001"
