"ID","Address","City","State","Zip"
320501,"980 WASHINGTON STREET","STOUGHTON","MA","02072"
320502,"980 WASHINGTON","STOUGHTON","MA","02072"
320503,"980 WEST CLEVELAND STREET  APT 3","FAYETTEVILLE","AR","72701"
320504,"980 WINDING OAK TRAIL","LEXINGTON","KY","40511"
320505,"9800 - 208TH AVE NE","REDMOND","WI","98053"
320506,"9800 99TH AVE N","MAPLE GROVE","MN","55369"
320507,"9800 AIRLINE HIGHWAY SUITE 235","BATON ROUGE","LA","70816"
320508,"9800 AIRLINE HIGHWAY SUITE 265","BATON ROUGE","LA","70816"
320509,"9800 AIRLINE HWY  SUITE 430","BATON ROUGE","LA","70816"
320510,"9800 AIRLINE HWY STE 221","BATON ROUGE","LA","70816"
320511,"9800 AIRLINE HWY","BATON ROUGE","LA","70816"
320512,"9800 BUCCANEER MALL  BLDG 2  STE  6","ST THOMAS","VI","00802"
320513,"9800 BURKE LAKE RD","BURKE","VA","22015"
320514,"9800 CENTRE PKWY 636","HOUSTON","TX","77036"
320515,"9800 CLUB CREEK DRIVE","HOUSTON","TX","77036"
320516,"9800 CORIANDER COURT","CHARLOTTE","NC","28215"
320517,"9800 DARTMOUTH PLACE","LAKEWOOD","CO","80227"
320518,"9800 DELEMAR HIGHWAY","SUMMERVILLE","SC","29485"
320519,"9800 DELEMAR HWY","SUMMERVILLE","SC","29485"
320520,"9800 DERECHO DR","AUSTIN","TX","78737"
320521,"9800 ELK GROVE BLVD","ELK GROVE","CA","95624"
320522,"9800 FLINGRIDGE COURT","FAIRFAX","VA","22032"
320523,"9800 GLACIER DRIVE","MIRAMAR","FL","33025"
320524,"9800 GRAND SANDESTIN BLVD UNIT 5312","MIRAMAR BEACH","FL","32550"
320525,"9800 HEMINGWAY AVENUE SOUTH","COTTAGE GROVE","MN","55016"
320526,"9800 JUG ST NW","PATASKALA","OH","43062"
320527,"9800 LOGAN AVE S SUITE 17","BLOOMINGTON","MN","55431"
320528,"9800 METRIC BLVD STE 300","AUSTIN","TX","78758"
320529,"9800 MILLS AVE","WHITTIER","CA","90604"
320530,"9800 NE 104TH CT","VANCOUVER","WA","98662"
320531,"9800 NORTHWEST FWY  SUITE 300","HOUSTON","TX","77092"
320532,"9800 NW POLO","KANSAS CITY","MO","64153"
320533,"9800 RICHMOND AVE SUITE 340","HOUSTON","TX","77042"
320534,"9800 S LA CIENEGA BLVD SUITE 310","LOS ANGELES","CA","90301"
320535,"9800 S PALMER ROAD","NEW CARLISLE","OH","45344"
320536,"9800 SAVAGE RD","FORT MEADE","MD","20755"
320537,"9800 SPECTRUM DRIVE","AUSTIN","TX","78717"
320538,"9800 TOUCHTON ROAD APT 317","JACKSONVILLE","FL","32246"
320539,"9800 US HIGHWAY 22 E","STOUTSVILLE","OH","43154"
320540,"9800 W SKYCLIFFE AVE","BOISE","ID","83704"
320541,"9800 WEST DARTMOUTH PLACE","LAKEWOOD","CO","80227"
320542,"9800 WESTWARD DRIVE","AUSTIN","TX","78733"
320543,"9801 185TH ST E","PRIOR LAKE","MN","55372"
320544,"9801 AMANITA AVE","TUJUNGA","CA","91042"
320545,"9801 APOLLO DR UNIT 6792","LARGO","MD","20792"
320546,"9801 APOLLO DR UNIT 7755","LARGO","MD","20792"
320547,"9801 APOLLO DRIVE 7312","LARGO","MD","20792"
320548,"9801 APOLLO DRIVE PO BOX 6394","UPPER MARLBORO","MD","20792"
320549,"9801 APOLLO DRIVE UNIT 7794","UPPER MARLBORO","MD","20774"
320550,"9801 BLUE LICK ROAD","LOUISVILLE","KY","40229"
320551,"9801 CHALMERS","DETROIT","MI","48213"
320552,"9801 DUPONT AVENUE SOUTH  SUITE 250","BLOOMINGTON","MN","55431"
320553,"9801 E 118TH ST S","BIXBY","OK","74008"
320554,"9801 EAST 59TH STREET","INDIANAPOLIS","IN","46216"
320555,"9801 FALL CREEK RD BOX 183","INDIANAPOLIS","IN","46236"
320556,"9801 FALL CREEK RD","INDIANAPOLIS","IN","46256"
320557,"9801 FALL CREEK ROAD - SUITE 325","INDIANAPOLIS","IN","46256"
320558,"9801 FALLCREEK RD 250","INDIANAPOLIS","IN","46256"
320559,"9801 FLINT ROCK RD","MANASSAS","VA","20112"
320560,"9801 FRANKFORD AVENUE","PHILADELPHIA","PA","19114"
320561,"9801 FRONT ST","PINCKNEY","MI","48169"
320562,"9801 GREENBELT RD","LANHAM","MD","20706"
320563,"9801 HEALY COURT","UPPER MARLBORO","MD","20772"
320564,"9801 KINCEY AVE   STE 187","HUNTERSVILLE","NC","28078"
320565,"9801 LA VONDA ST","RIVERVIEW","FL","33569"
320566,"9801 N  KELLEY","OKLAHOMA CITY","OK","73131"
320567,"9801 N KELLEY","OKLAHOMA CITY","OK","73131"
320568,"9801 N LITCHFIELD RD","EL MIRAGE","AZ","85335"
320569,"9801 NE 366TH ST","LA CENTER","WA","98629"
320570,"9801 S FOX RUN","OAK CREEK","WI","53154"
320571,"9801 S HOUSTON","JENKS","OK","74037"
320572,"9801 SALISBURY","LUBBOCK","TX","79424"
320573,"9801 SHADOW WOOD DR","VERONA","WI","53593"
320574,"9801 SHOUP AVE","CHATSWORTH","CA","91311"
320575,"9801 STELLAR VIEW AVE","LAS VEGAS","NV","89117"
320576,"9801 SW 60TH STREET","MIAMI","FL","33173"
320577,"9801 WESTHEIMER ROAD SUITE 302","HOUSTON","TX","77042"
320578,"9802 BAYMEADOWS RD STE 12 PMB 154","JACKSONVILLE","FL","32256"
320579,"9802 HOLIDAY DRIVE","LOUISVILLE","KY","40272"
320580,"9802 HUNTERS RUN ST","GREENVILLE","TX","75402"
320581,"9802 LIBERTY HILLS DRIVE","LIBERTY","MO","64068"
320582,"9802 STELLA LINK RD","HOUSTON","TX","77025"
320583,"9802 STOCKPORT CIRCLE","SUMMERVILLE","SC","29485"
320584,"9802-12 BAYMEADOWS RD STE 190","JACKSONVILLE","FL","32256"
320585,"9803 BLAINE LAKE DRIVE","HOUSTON","TX","77086"
320586,"9803 COLDWATER CIRCLE","DALLAS","TX","75228"
320587,"9803 HALDAMEN AVE B 103","PHILADELPHIA","PA","19115"
320588,"9803 OLD ST AUGUSTINE RD","JACKSONVILLE","FL","32257"
320589,"9803 STONEHAVEN DR","SHREVEPORT","LA","71118"
320590,"9803 WOODLAND HILLS ROAD","TALLAHASSEE","FL","32309"
320591,"980311","WEST SACRAMENTO","CA","95798"
320592,"9804 BIGGS RD","MIDDLE RIVER","MD","21220"
320593,"9804 LAKE POINT COURT UNIT 203","UPPER MARLBORO","MD","20774"
320594,"9804 MANCHESTER ROAD SUITE D","SAINT LOUIS","MO","63119"
320595,"9804 MCDOUGALD RD","SANFORD","NC","27330"
320596,"9804 OLD WARSON ROAD","LADUE","MO","63124"
320597,"9804 OLIPHANT RD","BATON ROUGE","LA","70809"
320598,"9804 PALMETTO DUNES CT","ORLANDO","FL","32832"
320599,"9804 PALOMINO DRIVE","ROGERS","AR","72758"
320600,"9804 PENBRIDGE DRIVE","GRANITE BAY","CA","95746"
320601,"9804 SUMMER GLEN WAY","ELK GROVE","CA","95757"
320602,"9804 TULLAMOOR DRIVE","SAINT LOUIS","MO","63136"
320603,"9804 WAVERLY DR","SNOHOMISH","WA","99826"
320604,"9805 116TH ST SUITE 74","KIRKLAND","WA","98034"
320605,"9805 B YORK ROAD SUITE 293","COCKEYSVILLE","MD","21030"
320606,"9805 BYWARD BLVD","BOWIE","MD","20721"
320607,"9805 CAMPO ROAD 180","CASA DE ORO","CA","91977"
320608,"9805 IL ROUTE 173","HEBRON","IL","60034"
320609,"9805 LOVE ROAD - SUITE 207B","FT. MEADE","MD","20755"
320610,"9805 MISTYMORN LANE","CINCINNATI","OH","45242"
320611,"9805 MORELAND STREET","FORT WASHINGTON","MD","20744"
320612,"9805 MORNING CHOICE CT","ELLICOTT CITY","MD","21043"
320613,"9805 N3 116TH ST PMB 7104","KIRKLAND","WA","98034"
320614,"9805 NE 116TH STREET NO 7329","KIRKLAND","WA","98034"
320615,"9805 OLD REDWOOD HWY","WINDSOR","CA","95492"
320616,"9805 PROUD CLARION CT","WAXHAW","NC","28173"
320617,"9805 S DOBSON","CHICAGO","IL","60628"
320618,"9805 STATESVILLE ROAD  UNIT 6149","CHAROTTE","NC","28269"
320619,"9805 STATESVILLE ROAD SUITE 6204","CHARLOTTE","NC","28269"
320620,"9805B YORK ROAD 128","COCKEYSVILLE","MD","21030"
320621,"9806 BRIERHILL DR","DALLAS","TX","75217"
320622,"9806 E 80TH TERRACE","RAYTOWN","MO","64138"
320623,"9806 E LOUISIANA DR APT 101","AURORA","CO","80247"
320624,"9806 TREE BEND DR","AUSTIN","TX","78750"
320625,"98069 W BENHAM LN","HARBOR","OR","97415"
320626,"9807 62ND TERRACE SOUTH D","BOYNTON BEACH","FL","33437"
320627,"9807 E ABERDEEN AVE","ENGLEWOOD","CO","80111"
320628,"9807 N BANK WAY","MISSOURI CITY","TX","77459"
320629,"9807 RIVER BIRCH COURT","LOUISVILLE","KY","40291"
320630,"9807 S 11TH AVE","INGLEWOOD","CA","90303"
320631,"9807 TAILSPIN LANE APT I","MIDDLE RIVER","MD","21220"
320632,"9807 VERTAIN CT","FAIRFAX","VA","22032"
320633,"9807A WASHINGTON","LEO","IN","46765"
320634,"9808 CABERNET AVE","SEFFNER","FL","33584"
320635,"9808 CLAGETT FARM DRIVE","POTOMAC","MD","20854"
320636,"9808 E 9TH AVENUE","SPOKANE VALLEY","WA","99206"
320637,"9808 INDIAN KEY TRAIL","SEMINOLE","FL","33776"
320638,"9808 LARITA PLACE","RIVERVIEW","FL","33569"
320639,"9808 ROYAL PALM BLVD","CORAL SPRINGS","FL","33065"
320640,"9808 SOUTH 600 WEST","UNION MILLS","IN","46382"
320641,"9808 WILDEN LN","POTOMAC","MD","20854"
320642,"9809 HIGHWAY 371","MARIETTA","MS","38856"
320643,"9809 MAPLE LEAF DRIVE","MONTGOMERY VILLAGE","MD","20886"
320644,"9809 RICHMOND AVE UNIT J-11","HOUSTON","TX","77042"
320645,"9809 TALL GRASS TRAIL","ST JOHN","IN","46373"
320646,"9809 WILLITS RD","MAYVILLE","MI","48744"
320647,"980A KING RUSS RD","HARRISBURG","PA","17109"
320648,"981 1/2 HANCOCK AVE","WEST HOLLYWOOD","CA","90069"
320649,"981 8TH STREET BLDG 520","HOLLOMAN AFB","NM","88330"
320650,"981 B STREET","ASHLAND","OK","97520"
320651,"981 BRECKEN LANE","LITHONIA","GA","30058"
320652,"981 CAT BRIAR COURT","LONGS","SC","29568"
320653,"981 COWEN DRIVE UNIT B LL","CARBONDALE","CO","81623"
320654,"981 CRANSTO STREET","CRANSTON","RI","02902"
320655,"981 INDUSTRIAL RD STE E","SAN CARLOS","CA","94070"
320656,"981 JAMISON LOOP APT 209","KISSIMMEE","FL","34744"
320657,"981 LAFAYETTE AVE","BROOKLYN","NY","11221"
320658,"981 MAIL AVENUE","DEPTFORD","NJ","08096"
320659,"981 N POINT HIGGINS RD","KETCHIKAN","AK","99901"
320660,"981 N WESTERN RIDGE TRL","TUCSON","AZ","85748"
320661,"981 NEW CUT RD","LEXINGTON","NC","27292"
320662,"981 NORTH CHESTNUT STREET EXTENSION","DERRY","PA","15627"
320663,"981 OAK ARBOR CIRCLE","SAINT AUGUSTINE","FL","32084"
320664,"981 S WESTERN AVE ROOM 300A","LOS ANGELES","CA","90006"
320665,"981 S WESTERN AVE STE 207","LOS ANGELES","CA","90006"
320666,"981 S WESTERN AVE SUITE 300A","LOS ANGELES","CA","90006"
320667,"981 SOUTHWICK LN","ALLEN","TX","75013"
320668,"981 STUBBS VINSON ROAD","MONROE","LA","71203"
320669,"981 VALLEY WAY DR","APOPKA","FL","32712"
320670,"981 W ARROW HIGHWAY   SUITE 116","SAN DIMAS","CA","91773"
320671,"981 W ARROW HWY STE 221","SAN DIMAS","CA","91773"
320672,"981 WALTERS MILL RD","SOMERSET","PA","15501"
320673,"981 WERMELING LANE","ELSMERE","KY","41019"
320674,"981 WHITNEY RANCH DRIVE  711","HENDERSON","NV","89014"
320675,"981 WOOTEN RD","RINGGOLD","GA","30736"
320676,"9810 162ND AVE NE","REDMOND","WA","98052"
320677,"9810 17TH AVENUE L-4","TACOMA","WA","98444"
320678,"9810 BLUE SAPPHIRE","ROSHARON","TX","77583"
320679,"9810 BROADMOOR LN","ROWLETT","TX","75089"
320680,"9810 COPPER ELM DR","CONVERSE","TX","78109"
320681,"9810 E MARIPOSA RD","STOCKTON","CA","95215"
320682,"9810 KIRKSTONE TERRACE DRIVE","SPRING","TX","77379"
320683,"9810 MAGNOLIA STREET NW","COON RAPIDS","MN","55433"
320684,"9810 PRAIRIE CREEK RD","LENEXA","KS","66220"
320685,"9810 S KING DRIVE","CHICAGO","IL","60628"
320686,"9810 SHERWOOD FARM ROAD","OWINGS MILLS","MD","21117"
320687,"9810 SOUTH 2465 EAST","SANDY","UT","84092"
320688,"9810 WILDERNESS LANE","LAUREL","MD","20723"
320689,"98106 OLSEN LN","BROOKINGS","OR","97415"
320690,"9811 BISCOTTI AVE","ORLANDO","FL","32829"
320691,"9811 EMMET STREET","OMAHA","NE","68134"
320692,"9811 FERNLEIGH DRIVE","RICHMOND","VA","23235"
320693,"9811 HOOD ROAD","JACKSONVILLE","FL","32257"
320694,"9811 N 151ST STREET","WAVERLY","NE","68462"
320695,"9811 W 18TH ST NO","WICHITA","KS","67212"
320696,"9811 W CHARLESTON BLVD 2262","LAS VEGAS","NV","89117"
320697,"9811 W CHARLESTON BLVD STE 2-524","LAS VEGAS","NV","89117"
320698,"9811 W CHARLESTON BLVD STE 2-858","LAS VEGAS","NV","89117"
320699,"9811 WEST CHARLESTON BLVD 2-858","LAS VEGAS","NV","89117"
320700,"9811 WEST CHARLESTON BLVD STE 2-735","LAS VEGAS","NV","89117"
320701,"9811 WEST CHARLESTON SUITE 840","LAS VEGAS","NV","89117"
320702,"9812 BEAU LANE","CINCINNATI","OH","45231"
320703,"9812 BERRYWOOD COURT","SPRINGDALE","MD","20774"
320704,"9812 BOLTON VILLAGE CT","FAIRFAX","VA","22032"
320705,"9812 FALLS ROAD SUITE 114-214","POTOMAC","MD","20854"
320706,"9812 HAMILTON AVENUE","HUNTINGTON BEACH","CA","92646"
320707,"9812 PEMBROKE DR","HAGERSTOWN","MD","21740"
320708,"9812 THUNDERHILL CT","GREAT FALLS","VA","22066"
320709,"9812 W PROGRESS PL","LITTLETON","CO","80123"
320710,"9813 CRESTLINE DRIVE","KNOXVILLE","TN","37922"
320711,"9813 IDORA ST","LA VISTA","NE","68128"
320712,"9813 PATRIOT RIDGE DRIVE","JACKSONVILLE","FL","32221"
320713,"9813 POOLE ROAD","WENDELL","NC","27591"
320714,"9813 SANDHILL UNIT 13","LAREDO","TX","78045"
320715,"9813 SANDPIPER DRIVE","UPPER MARLBORO","MD","20772"
320716,"9813 US HIGHWAY 79","BETHANY","LA","71007"
320717,"9814 BAYBORO BRIDGE DRIVE","TAMPA","FL","33626"
320718,"9814 CYNTHIA ANN CT","HOUSTON","TX","77025"
320719,"9814 FERNDALE LANE","FREDERICKSBURG","VA","22408"
320720,"9814 FIRESIDE DRIVE","LOUISVILLE","KY","40272"
320721,"9814 GALWAY DRIVE","DALLAS","TX","75218"
320722,"9814 JUNIPER HILL ROAD","ROCKVILLE","MD","20850"
320723,"9814 NOBLE RD","JACKSONVILLE","AR","72076"
320724,"9814 S PROTECTION RD","HOLLAND","NY","14080"
320725,"9815 52ND AVE N","ST PETERSBURG","FL","33708"
320726,"9815 CHINA GROVE CHURCH ROAD","PINEVILLE","NC","28134"
320727,"9815 ELK ST","AUMSVILLE","OR","97325"
320728,"9815 GRANT RD","HOUSTON","TX","77070"
320729,"9815 HEDDON OAKS CT","SPRING","TX","77379"
320730,"9815 KITLINA CIRCLE","EAGLE RIVER","AK","99577"
320731,"9815 LAKE POINTE COURT  304","UPPER MARLBORO","MD","20774"
320732,"9815 NE 69TH STREET","VANCOUVER","WA","98662"
320733,"9815 NE 75TH CIRCLE","VANCOUVER","WA","98662"
320734,"9815 RITCHIE COURT","IJAMSVILLE","MD","21754"
320735,"9815 SOMERSET WIND DRIVE - APT 103","RIVERVIEW","FL","33578"
320736,"9815 SW 168 TER","MIAMI","FL","33157"
320737,"9815 TAMALPAIS ST","DALLAS","TX","75217"
320738,"9816 BRANCHLEIGH ROAD","RANDALLSTOWN","MD","21133"
320739,"9816 DECATUR ROAD","MIDDLE RIVER","MD","21220"
320740,"9816 DRURY AVENUE","KANSAS CITY","MO","64137"
320741,"9816 MADISON AVENUE","SAINT LOUIS","MO","63119"
320742,"9816 W 99TH PL","WESTMINSTER","CO","80021"
320743,"9817 CHATHAM OAKS TRAIL","CHARLOTTE","NC","28210"
320744,"9817 HERON LANE","CONROE","TX","77385"
320745,"9817 HORACE HARDING EXPY APT 8C","CORONA","NY","11368"
320746,"9817 KENTSDALE DRIVE","POTOMAC","MD","20854"
320747,"9817 KODAK ROAD","KODAK","TN","37764"
320748,"9817 PRESIDENTIAL DRIVE  SUITE 204","ALLISON PARK","PA","15101"
320749,"9817 ROLLING GREEN DR","PINCKNEY","MI","48169"
320750,"9817 SHORTLINE HIGHWAY","READER","WV","26167"
320751,"9817 SHORTLINE HWY","READER","WV","26167"
320752,"9818 BROCKBANK DRIVE","DALLAS","TX","75220"
320753,"9818 LONGWOOD CIRCLE","LOUISVILLE","KY","40223"
320754,"9819 ASTORIA BLVD","EAST ELMHURST","NY","11369"
320755,"9819 EDINBURGH LANE","CHARLOTTE","NC","28269"
320756,"9819 SINGLETON DR","BETHESDA","MD","20817"
320757,"9819 SOUTH BLVD","CLEVELAND","OH","44108"
320758,"9819 TALISMAN DR","JOHNS CREEK","GA","30022"
320759,"982 CENTRAL AVE","HOLLAND","MI","49423"
320760,"982 CRAWFORD ROAD","LUMBERTON","NC","28358"
320761,"982 E COLORADO BLVD UNIT 105B","PASADENA","CA","91107"
320762,"982 E OMAHA AVE","FRESNO","CA","93720"
320763,"982 EAST SIDE DRIVE","LAYTON","UT","84040"
320764,"982 JAKES MOUNTAIN ROAD","DEEP GAP","NC","28618"
320765,"982 JESSAMINE AVE E","SAINT PAUL","MN","55106"
320766,"982 JORDAN STREET","SHREVEPORT","LA","71101"
320767,"982 LOCKWOOD LN","BATAVIA","IL","60510"
320768,"982 MARBLE AVE","MEMPHIS","TN","38107"
320769,"982 N VALLEY HILLS BLVD","HEBER CITY","UT","84032"
320770,"982 NE 4 AVENUE","HOMESTEAD","FL","33030"
320771,"982 OAK GLEN DR","WILLIS","TX","77378"
320772,"982 PALMER FIRETOWER RD","PALMER","TN","37365"
320773,"982 REDWOOD DRIVE","NORCROSS","GA","30093"
320774,"982 SOUTH ST","FITCHBURG","MA","01420"
320775,"982 TANNERS POINTE DRIVE","LAWRENCEVILLE","GA","30044"
320776,"982 W LAUREL RIVER DR","SHEPHERDSVILLE","KY","40165"
320777,"9820 227TH PL SW","EDMONDS","WA","98020"
320778,"9820 CASTOR RD","SALISBURY","NC","28146"
320779,"9820 GENTIAN LANE","KNOXVILLE","TN","37922"
320780,"9820 HERON POINT DRIVE","ORLANDO","FL","32832"
320781,"9820 KELLER HILL RD","CUBA","NY","14727"
320782,"9820 LOBLOLLY LANE","ROSWELL","GA","30075"
320783,"9820 NW 16TH CT","PEMBROKE PINES","FL","33024"
320784,"9820 RAYTOWN RD","KANSAS CITY","MO","64134"
320785,"9820 RAYTOWN ROAD","KANSAS CITY","MO","64134"
320786,"9820 S PULASKI ROAD UNIT 102","OAK LAWN","IL","60453"
320787,"9820 SELTZER","LIVONIA","MI","48150"
320788,"9820 SW 142ND DR","MIAMI","FL","33176"
320789,"9821 CANTEBURY ROSE LANE","LAS VEGAS","NV","89134"
320790,"9821 DELHI DRIVE","SAINT  LOUIS","MO","63137"
320791,"9821 DUNMORE CIRCLE","JOHNSTON","IA","50131"
320792,"9821 LAKEPOINTE DRIVE","BURKE","VA","22015"
320793,"9821 OAK RIDGE ROAD","NEW LOTHROP","MI","48460"
320794,"9821 SW 1ST STREET","PLANTATION","FL","33324"
320795,"9821 VALLE VISTA RD","PHELAN","CA","92371"
320796,"9822 AL HWY 71","PISGAH","AL","35765"
320797,"9822 BELLA MARCHE DRIVE","CHARLOTTE","NC","28227"
320798,"9822 FALLARD COURT","UPPER MARLBORO","MD","20772"
320799,"9822 FALLARD CT","UPPER MARLBORO","MD","20772"
320800,"9822 NE HWY 121","CAMERON","MO","64429"
320801,"9822 NOBHILL COURT","SUNRISE","FL","33351"
320802,"9822 S NORMAL AVE","CHICAGO","IL","60628"
320803,"9822 STANFORD AVENUE","GARDEN GROVE","CA","92841"
320804,"9822 STRUTHERS RD","NEW MIDDLETOW","OH","44442"
320805,"9822 TAPESTRY PARK CIRCLE SUITE 205","JACKSONVILLE","FL","32246"
320806,"9822 WINDSONG DRIVE","EMPIRE","MI","49630"
320807,"9823 BLACK HORSE RUN ROAD","INDAIN LAND","SC","29707"
320808,"9823 HORACE HARDING EXPY APT 4J","CORONA","NY","11368"
320809,"9823 LAS TUNAS DR","TEMPLE CITY","CA","91780"
320810,"9823 LILAC DR  J","SAINT LOUIS","MO","63137"
320811,"9823 OXBRIDGE WAY","BOWIE","MD","20721"
320812,"9823 THISTLEBERRY LN","TOMBALL","TX","77375"
320813,"9824 121 AVE SE","RENTON","WA","98056"
320814,"9824 BRADYSVILLE RD","ABERDEEN","OH","45101"
320815,"9824 DOGWOOD","BROOKLYN PARK","MN","55443"
320816,"9824 E CLEMENTS CIR","LIVONIA","MI","48150"
320817,"9824 MARINE CT","JACKSONVILLE","FL","32221"
320818,"9824 RAIL ROAD","MIDWEST CITY","OK","73130"
320819,"9824 ROSENSTEEL AVENUE","SILVER SPRING","MD","20910"
320820,"9824 US HIGHWAY 25E","PINEVILLE","KY","40977"
320821,"9825 BRANDT AVE","OAK LAWN","IL","60453"
320822,"9825 CENTENNIAL PLZ","LA VISTA","NE","68128"
320823,"9825 N 35TH PLACE","PHOENIX","AZ","85028"
320824,"9825 NE 2ND AVE UNIT 530471","MIAMI SHORES","FL","33153"
320825,"9825 NE 2ND AVENUE UNIT 530778","MIAMI","FL","33153"
320826,"9825 PERRIN AVENUE","ST LOUIS","MO","63125"
320827,"9825 SIDEWINDER ST","EL PASO","TX","79924"
320828,"9826 CASCADE ST","FIRESTONE","CO","80504"
320829,"9826 MARLINK LANE","HOUSTON","TX","77025"
320830,"9826 N LAKE CREEK PARKWAY STE 11309","AUSTIN","TX","78717"
320831,"9827 51ST AVE N","ST PETERSBURG","FL","33708"
320832,"9827 ASHBURN LAKE DR","TAMPA","FL","33610"
320833,"9827 DOMINION FOREST CIRCLE","FREDERICKSBURG","VA","22408"
320834,"9827 ERINS GROVE CT","LAS VEGAS","NV","89147"
320835,"9827 S LASALLE AVE","LOS ANGELES","CA","90047"
320836,"9827 US HWY 522 S","LEWISTOWN","PA","17044"
320837,"98273","RALEIGH","NC","27624"
320838,"9828 BRANCHWATER AVE","CHARLOTTE","NC","28277"
320839,"9828 CUMMINGS STREET","HUNTLEY","IL","60142"
320840,"9828 GARDEN GROVE BLVD STE 106","GARDEN GROVE","CA","92844"
320841,"9828 N FORKER ROAD","SPOKANE","WA","99217"
320842,"9828 SNOW POINTE DRIVE SE","KENT","MI","49302"
320843,"9829 BUCKHEAD CT","WINDERMERE","FL","34786"
320844,"9829 CASH MOUNTAIN RD","HELOTES","TX","78023"
320845,"9829 NW 1ST CT","PLANTATION","FL","33324"
320846,"98296 S 4652 ROAD","SALLISAW","OK","74955"
320847,"9829A LOVE RD","FT MEADE","MD","20755"
320848,"9829A LOVE ROAD STE 5260","FORT MEADE","MD","20755"
320849,"983  PARK ST APT 203","CLEARWATER","FL","33755"
320850,"983 46TH ST APT B","BROOKLYN","NY","11219"
320851,"983 AVENUE H","TALLADEGA","AL","35160"
320852,"983 BELLAIRE LN","ROCKLEDGE","FL","32955"
320853,"983 COX ROAD","NORTH BRUNSWICK","NJ","08902"
320854,"983 KING WAY","BREINIGSVILLE","PA","18031"
320855,"983 LURLINE DR","FOSTER CITY","CA","94404"
320856,"983 MILITARY TURNPIKE","PLATTSBURGH","NY","12901"
320857,"983 NW  111 STREET","MIAMI","FL","33168"
320858,"983 ROSEBERRY DRIVE","LAS VEGAS","NV","89138"
320859,"983 S INTERMEDIATE LAKE RD","CENTRAL LAKE","MI","49622"
320860,"983 W TENNYSON RD APT 308","HAYWARD","CA","94544"
320861,"983 WATERVLIET SHAKER ROAD","ALBANY","NY","12205"
320862,"983 WEST GRINDELWALD LANE","MIDWAY","UT","84049"
320863,"9830 ALDEA AVE","NORTHRIDGE","CA","91325"
320864,"9830 AUTUMN VALLEY","CONVERSE","TX","78109"
320865,"9830 JOOR ROAD","BATON ROUGE","LA","70818"
320866,"9830 LORI ROAD","CHESTERFIELD","VA","23832"
320867,"9830 MEMORIAL CROSSING DR","TOMBALL","TX","77375"
320868,"9830 WOODSBORO RD","FREDERICK","MD","21701"
320869,"9831 10TH AVENUE SOUTH","BLOOMINGTON","MN","55420"
320870,"9831 DARBY CREEK AVE NW","CONCORD","NC","28027"
320871,"9831 FOX DEN DR","LITTLETON","CO","80125"
320872,"9831 GLADE AVE","CHATSWORTH","CA","91311"
320873,"9831 S 51ST STREET  E126","PHOENIX","AZ","85044"
320874,"9831 S AVENUE M","CHICAGO","IL","60617"
320875,"9831 S DAMEN AVE","CHICAGO","IL","60643"
320876,"9831 S NOTTINGHAM AVE APT 14","CHICAGO RIDGE","IL","60415"
320877,"9831 SEPULVEDA BLVD UNIT 18","NORTH HILLS","CA","91343"
320878,"9831 SHEPARDS CIR","KANSAS CITY","MO","64131"
320879,"9831 WHITE BLOSSOM BLVD","LOUISVILLE","KY","40241"
320880,"9832 A MAGLEDT RD","BALTIMORE","MD","21234"
320881,"9832 KALE STREET","SOUTH EL MONTE","CA","91733"
320882,"9832 MILAN DR","STOCKTON","CA","95212"
320883,"9833 GREENSIDE DR","COCKEYSVILLE","MD","21030"
320884,"9833 HALLS FERRY ROAD","SAINT LOUIS","MO","63136"
320885,"9833 LIBERTY ROAD","RANDALLSTOWN","MD","21133"
320886,"9833 N MCKINLEY RD","CAMPBELLSBURG","IN","47108"
320887,"9833 NORTH RIDGE SHADOW PLACE","ORO VALLEY","AZ","85704"
320888,"9834 JENO ROAD","MILTON","FL","32583"
320889,"9834 LAKEPOINTE DRIVE","BURKE","VA","22015"
320890,"9834 N JAGGED CIRCLE","FOUNTAIN HILLS","AZ","85268"
320891,"9834 PARK ST APT C","BELLFLOWER","CA","90706"
320892,"9835 AUBURN ROAD","FORT WAYNE","IN","46825"
320893,"9835 FLOWER ST 1666","BELLFLOWER","CA","90706"
320894,"9835 FLOWER STREET  UNIT 893","BELLFLOWER","CA","90706"
320895,"9835 FLOWER STREET UNIT 575","BELLFLOWER","CA","90706"
320896,"9835 NORTH SAM HOUSTON PKWY E 7103","HUMBLE","TX","77396"
320897,"9835 SW IOWA DRIVE","TUALATIN","OR","97062"
320898,"9836 NW 48 COURT","CORAL SPRINGS","FL","33076"
320899,"9836 SOUTH DAMEN AVE","CHICAGO","IL","60643"
320900,"9836 TROY LANE N","MAPLE GROVE","MN","55311"
320901,"9836 W FREIBURG DR 4G","LITTLETON","CO","80127"
320902,"9837 GUIDE MERIDIAN RD","LYNDEN","WA","98264"
320903,"9837 LACKMAN RD","LENEXA","KS","66219"
320904,"9837 WILLOW CREEK ROAD","KIMBALL","MN","55353"
320905,"9838 NEVADA AVENUE","CHATSWORTH","CA","91311"
320906,"9838 OLD BAYMEADOWS RD STE 283","JACKSONVILLE","FL","32256"
320907,"9838 WANDA PARK DRIVE","BEVERLY HILLS","CA","90210"
320908,"9839 CHIPPEWA HTS NW","BRANDON","MN","56315"
320909,"9839 EMORY RD","FORT GEORGE G MEADE","MD","20755"
320910,"9839 JOSEPH CAMAU ST","HAMTRAMCK","MI","48212"
320911,"9839 NW 28TH COURT","CORAL SPRINGS","FL","33050"
320912,"9839 TOLWORTH CIRCLE","RANDALLSTOWN","MD","21133"
320913,"984 CHAMBERS BLVD","BARDSTOWN","KY","40004"
320914,"984 CHARLES ST","NORTH PROVIDENCE","RI","02904"
320915,"984 DUMONT AVE 2R","BROOKLYN","NY","11208"
320916,"984 EAST APRICOT AVENUE","TULARE","CA","93274"
320917,"984 EDWARDS LAKE ROAD","BIRMINGHAM","AL","35235"
320918,"984 FIRST COLONIAL RD SUITE 305","VIRGINIA BEACH","VA","23454"
320919,"984 HOMEWOOD AVENUE","SALEM","OH","44460"
320920,"984 KEMPTON ST","NEW BEDFORD","MA","02740"
320921,"984 LAFAYETTE LANDING COURT","SAINT CHARLES","MO","63303"
320922,"984 LONDON RD","WEST JEFFERSON","OH","43162"
320923,"984 MAIN STREET","ASHBY","MA","01431"
320924,"984 MAPLEWOOD AVENUE","BRIDGEPORT","CT","06605"
320925,"984 ROXBURY ROAD","SOUTHBURY","CT","06488"
320926,"984 S WESTERN SKIES DR","GILBERT","AZ","85296"
320927,"984 SANFORD AVENUE","IRVINGTON","NJ","07111"
320928,"984 SAVANNAH WAY SW","CORYDON","IN","47112"
320929,"984 SHAW CIRCLE","MELBOURNE","FL","32940"
320930,"984 SPRUCE CREEK LANE","LAWRENCEVILLE","GA","30045"
320931,"984 THOMAS STREET","MEMPHIS","TN","38107"
320932,"984 TUCKERTON ROAD","EVESHAM","NJ","08053"
320933,"984 TUCKERTON ROAD","MARLTON","NJ","08053"
320934,"984 W CAROLYN CT","COLTON","CA","92324"
320935,"9840 1/2 BRYSON AVE","SOUTH GATE","CA","90280"
320936,"9840 ALTERNATE A1A SUITE 402","PALM BEACH GARDENS","FL","33410"
320937,"9840 PINEAPPLE TR DR STE 105","BOYNTON BEACH","FL","33436"
320938,"9840 PINEAPPLE TRAIL DRIVE  STE 105","BOYNTON BEACH","FL","33436"
320939,"9840 VIA MONTARA","MORENO VALLEY","CA","92557"
320940,"9841 64TH ROAD 8C","REGO PARK","NY","11374"
320941,"9841 FRIESIAN STREET","LAS VEGAS","NV","89143"
320942,"9841 SOUTH INTERSTATE 35 W","GRANDVIEW","TX","76050"
320943,"9841 VIEW HIGH DRIVE","KANSAS CITY","MO","64134"
320944,"9841 WASHINGTONIAN BLVD","GAITHERSBURG","VA","20878"
320945,"9841 YORK ALPHA DR UNIT K","NORTH ROYALTON","OH","44133"
320946,"98413 HWY 100","GORE","OK","74435"
320947,"9842 BAYVIEW PARKWAY","CHARLOTTE","NC","28216"
320948,"9842 BOLSA AVE STE B106","WESTMINSTER","CA","92683"
320949,"9842 NEWPORT WAY","CYPRESS","CA","90630"
320950,"9843 BRIGHT ST","SPRING VALLEY","CA","91977"
320951,"9843 E IDAHO STREET","AURORA","CO","80247"
320952,"9843 RAMONA STREET","BELLFLOWER","CA","90706"
320953,"9843 SVL BOX","VICTORVILLE","CA","92395"
320954,"9844 KARLOV","SKOKIE","IL","60076"
320955,"9844 SINGLETON COURT","BETHESDA","MD","20817"
320956,"9845 HORN ROAD SUITE 100","SACRAMENTO","CA","95827"
320957,"9845 W 200 S","RUSSIAVILLE","IN","46979"
320958,"9845 W ST RD 45","BLOOMINGTON","IN","47403"
320959,"9846 ASHLEY CREEK RD","RAYMONDVILLE","MO","65555"
320960,"9846 EST THOMAS","ST THOMAS","VI","00802"
320961,"9846 HAMMOCKS BLVD STE 107","MIAMI","FL","33196"
320962,"9846 N CENTRAL ST","PORTLAND","OR","97203"
320963,"9846 ROSEHILL RD APT 11","BERRRIEN SPRINGS","MI","49103"
320964,"9847 CLANCY DRIVE","FRISCO","TX","75035"
320965,"9847 COSTA MESA LANE UNIT 208","BONITA SPRINGS","FL","34135"
320966,"9847 FM 1783","GATESVILLE","TX","76528"
320967,"9847 SNOW BIRD LANE","LAUREL","MD","20723"
320968,"9848 APPLEGATE LN","BRIGHTON","MI","48114"
320969,"9848 NW 5TH COURT","PLANTATION","FL","33324"
320970,"9848 OLYMPIC AVENUE","BATON ROUGE","LA","70814"
320971,"9848 US HIGHWAY 22 AND 3","CLARKSVILLE","OH","45113"
320972,"9848 VIDOR DRIVE 201","LOS ANGELES","CA","90035"
320973,"9849 17TH AVE SW  STE 351","SEATTLE","WA","98106"
320974,"9849 KENWORTHY STREET","EL PASO","TX","79924"
320975,"9849 TANGLEWOOD LANE","AURORA","IN","47001"
320976,"985 BROOKMONT DR SW","MARIETTA","GA","30064"
320977,"985 CHESTNUT STREET","FREELAND","PA","18224"
320978,"985 CO ROAD 20","COLBY","KS","67701"
320979,"985 COUNTY ROAD 100","ATHENS","TN","37303"
320980,"985 ELO RD","MCCALL","ID","83638"
320981,"985 JOHNSON NURSERY ROAD","WILLARD","NC","28478"
320982,"985 KENDALL DR SUITE A 298","SAN BERNARDINO","CA","92407"
320983,"985 KENDALL DRIVE  SUITE A-233","SAN BERNARDINO","CA","92407"
320984,"985 LINCOLN ROAD SUITE 224","BETTENDORF","IA","52722"
320985,"985 LOMA VERDE","EL PASO","TX","79936"
320986,"985 MANOR DRIVE","SMYRNA","GA","30080"
320987,"985 MARTIN LUTHER KING JR DR NW","ATLANTA","GA","30314"
320988,"985 MILL POND RD/PO BOX 156","NEWBORN","GA","30056"
320989,"985 MIMOSA LN","FRANKLIN","TX","77856"
320990,"985 NESTINGWOOD CIRCLE WEST","CORDOVA","TN","38018"
320991,"985 PEACHLAND AVE NE","PALM BAY","FL","32907"
320992,"985 POQUOSON AVE","POQUOSON","VA","23662"
320993,"985 PRIVATE ROAD 5980","YANTIS","TX","75497"
320994,"985 ROBERTS LANE","BESSEMER","AL","35023"
320995,"985 ROUTE 68","NEW BRIGHTON","PA","15066"
320996,"985 S ORANGE STREET","NEWARK","NJ","07106"
320997,"985 SOUTH ORANGE AVE","NEWARK","NJ","07106"
320998,"985 TUSCARAWAS RD","BEAVER","PA","15009"
320999,"9850 BOLTON AVE","RIVERSIDE","CA","92503"
321000,"9850 COPPER EDGE ROAD","LAS VEGAS","NV","89148"
