"ID","Address","City","State","Zip"
277501,"709 1ST AVE SE","RONAN","MT","59864"
277502,"709 23RD AVE S","MINNEAPOLIS","MN","55454"
277503,"709 3RD AVE SW","CEDAR RAPIDS","IA","52404"
277504,"709 91ST STREET","NIAGARA FALLS","NY","14304"
277505,"709 9TH STREET","BAY CITY","MI","48708"
277506,"709 AL HWY 205","BOAZ","AL","35956"
277507,"709 ANDREWS DRIVE","LONGWOOD","FL","32750"
277508,"709 ARENDELL STREET","MOREHEAD CITY","NC","28557"
277509,"709 ASHFORD LANE","WYLIE","TX","75098"
277510,"709 AVENUE I","GREENWOOD","MS","38930"
277511,"709 AVON ST","BURLINGTON","NC","27215"
277512,"709 AZTEC PLACE","BOULDER CITY","NV","89005"
277513,"709 BALBOA AVENUE","CAPITOL HEIGHTS","MD","20743"
277514,"709 BALTIMORE BLVD","SEA GIRT","NJ","08750"
277515,"709 BAYBERRY LN","NASHVILLE","NC","27856"
277516,"709 BOB WHITE CIRCLE","EUDORA","KS","66025"
277517,"709 BODEGA BAY DR","KELLER","TX","76248"
277518,"709 BRIGHT MEADOW WAY","GAITHERSBURG","MD","20878"
277519,"709 BRISTLEWOOD DR","MCKINNEY","TX","75070"
277520,"709 BROOK MEADOW CT","VIRGINIA BEACH","VA","23462"
277521,"709 BRUTON DRIVE","GIBSONIA","PA","15044"
277522,"709 BURNS ST","MANSFIELD","OH","44903"
277523,"709 CASTLE OAK COURT","ARLINGTON","TX","76012"
277524,"709 CENTRAL AVE NW","ALBUQUERQUE","NM","87102"
277525,"709 CIRCLE TRACE ROAD","MONROE","NC","28110"
277526,"709 CLEMONS ST","BELLMORE","NY","11710"
277527,"709 COLONIAL PARK BLVD","AUSTIN","TX","78745"
277528,"709 CONCORD ROAD","TALLAHASSEE","FL","32308"
277529,"709 CONKLIN ROAD","BINGHAMTON","NY","13903"
277530,"709 COURTENAY DR NE","ATLANTA","GA","30306"
277531,"709 COVE PLACE","LONGVIEW","TX","75604"
277532,"709 CR 3673","QUEEN CITY","TX","75572"
277533,"709 CREEK RD","MEHOOPANY","PA","18629"
277534,"709 CRESTMONT TRAIL DR","MISSOURI CITY","TX","77489"
277535,"709 CROWNE DRIVE","BIRMINGHAM","AL","35224"
277536,"709 DEBRA COURT","GREENVILLE","NC","27858"
277537,"709 DRYDEN DRIVE","BALTIMORE","MD","21229"
277538,"709 E 660 S","FERDINAND","IN","47532"
277539,"709 E 7TH STREET","YORK","NE","68467"
277540,"709 E DEKALB RD","DEKALB JUNCTION","NY","13630"
277541,"709 E HALE LAKE RD","WARRENSBURG","MO","64093"
277542,"709 E IVINSON STREET APT 31","LARAMIE","WY","82070"
277543,"709 E KREZDORN STREET","SEGUIN","TX","78155"
277544,"709 E SUMMIT AV","FERGUS FALLS","MN","56537"
277545,"709 E WILKINS ST","LEAGUE CITY","TX","77573"
277546,"709 E WILLIAMSBURG MNR","ARLINGTON","TX","76014"
277547,"709 EAST 52 STREET","BROOKLYN","NY","11203"
277548,"709 EAST 7TH STREET","YORK","NE","68467"
277549,"709 EAST NAVARRO","DELEON","TX","76444"
277550,"709 EMERALD WOOD DR","AUSTIN","TX","78745"
277551,"709 EMERSON ST NE","WASHINGTON","DC","20017"
277552,"709 ERIN CRESCENT STREET","RICHMOND","VA","23231"
277553,"709 FANNIN LANE","MANSFIELD","TX","76063"
277554,"709 FDR DR SUITE 1C","NEW YORK","NY","10009"
277555,"709 FLINTRIDGE DRIVE","SANTA ANA","CA","92704"
277556,"709 FLOWING MEADOW DRIVE","HENDERSON","NV","89014"
277557,"709 FOX RIDGE DRIVE","BRENTWOOD","TN","37027"
277558,"709 FRANKLIN STREET","CLARKSVILLE","TN","37040"
277559,"709 FRISCO AVE","CLINTON","OK","73601"
277560,"709 GAZELLE WAY","KISSIMMEE","FL","34759"
277561,"709 GORSUCH AVE","BALTIMORE","MD","21211"
277562,"709 GRACE ST","ELGIN","IL","60120"
277563,"709 HIGH STREET","FARMVILLE","VA","23901"
277564,"709 HIGHSPIRE ROAD","GLENMOORE","PA","19343"
277565,"709 HOLDING RIDGE COURT","WAKE FOREST","NC","27587"
277566,"709 HOLLAND SQUARE","WEST READING","PA","19611"
277567,"709 JACKSON AVE","MAGNOLIA","NJ","08049"
277568,"709 JACKSON HOLLOW RD","MOUNT JULIET","TN","37122"
277569,"709 KAYLORS MDW","LOCUST GROVE","GA","30248"
277570,"709 KENMORE AVENUE","SOUTH ORANGE","NJ","07079"
277571,"709 KRAMER ROAD","LILLINGTON","NC","27546"
277572,"709 LAKECREST DRIVE","MOORE","OK","73170"
277573,"709 LOMAS BLVD NW","ALBUQUERQUE","NM","87102"
277574,"709 LORILLARD AVE","UNION BEACH","NJ","07735"
277575,"709 LOVELADY ROAD NE","VALDESE","NC","28690"
277576,"709 MACDONALD AVE","BELLPORT","NY","11713"
277577,"709 MADISON AVE SUITE 307","TOLEDO","OH","43604"
277578,"709 MAIN ST","TABOR","IA","51653"
277579,"709 MAIN STREET","HUNTLAND","TN","37345"
277580,"709 MAPLE STREET","TYNDALL","SD","57066"
277581,"709 MARKET STREET STE 1","KNOXVILLE","TN","37902"
277582,"709 MATCH POINT DRIVE APT 201","VIRGINIA","VA","23462"
277583,"709 MAYFAIR PLACE","ROCK HILL","SC","29730"
277584,"709 MCLEAN AVENUE","PT PLEASANT BEACH","NJ","08742"
277585,"709 MEADOWS DRIVE","KEESLER AFB","MS","39534"
277586,"709 N 17TH AVE","ARCADIA","FL","34266"
277587,"709 N 74TH TERRACE","KANSAS CITY","KS","66112"
277588,"709 N HILL STREET SUITE 18","LOS ANGELES","CA","90012"
277589,"709 N KNISS","LUVERNE","MN","56156"
277590,"709 N LEE AVE","ODESSA","TX","79761"
277591,"709 N POWERLINE RD","POMPANO BEACH","FL","33069"
277592,"709 NE 20TH","OKLAHOMA CITY","OK","73105"
277593,"709 NEAPOLITAN WAY","NAPLES","FL","34103"
277594,"709 OLD FIELDS ARCH","CHESAPEAKE","VA","23320"
277595,"709 PADDINGTON PLACE","BRANDON","FL","33510"
277596,"709 PALMER COURT 2","MAMARONECK","NY","10543"
277597,"709 PARK AVE","SPRING LAKE HEIGHTS","NJ","07762"
277598,"709 PARK FOREST DRIVE","GERLAND","TX","75042"
277599,"709 PEARL STREET","BIRDSBORO","PA","19508"
277600,"709 PINE","PLEASANT HILL","MO","64080"
277601,"709 RANTOUL LANE","LAKE MARY","FL","32746"
277602,"709 RED DEVIL LANE","RUSSELL","KY","41169"
277603,"709 REDEVIL LANE","RUSSELL","KY","41169"
277604,"709 RISDON DRIVE","FERGUSON","MO","63135"
277605,"709 RIVER FORK RD","WETUMPKA","AL","36092"
277606,"709 RODEO DRIVE","CHEYENNE","WY","82009"
277607,"709 S 123RD DR","AVONDALE","AZ","85323"
277608,"709 S AMERICAN ST APT 2F","PHILADELPHIA","PA","19147"
277609,"709 S HILLPARK DRIVE","HOLLAND","OH","43528"
277610,"709 S ORLANDO AVE  UNIT A","COCOA BEACH","FL","32931"
277611,"709 S SPRING VALLEY RD","JUNCTION CITY","KS","66441"
277612,"709 S TAFT ST","KENNEWICK","WA","99336"
277613,"709 SANFORD AVENUE","NEWARK","NJ","07106"
277614,"709 SE 5TH CT","ANKENY","IA","50021"
277615,"709 SHADOWFIELD CT","CHEASAPEAKE","VA","23322"
277616,"709 SHAMROCK LANE","PISMO BEACH","CA","93449"
277617,"709 SHARPSTONE BEND ROAD","STOCKBRIDGE","GA","30281"
277618,"709 SMITH ST","AMORY","MS","38821"
277619,"709 SOUTH ADAMS STREET","QUINCY","FL","32351"
277620,"709 SOUTH CLYMAR AVE","COMPTON","CA","90220"
277621,"709 SOUTH CLYMAR","COMPTON","CA","90220"
277622,"709 SOUTH NEBRASKA","SAN JUAN","TX","78577"
277623,"709 SOUTH WEST STREET","KEMPTON","IN","46049"
277624,"709 SPELLMAN DR","FLINT","MI","48503"
277625,"709 STILLMEADOW LANE","MIDLAND","MI","48642"
277626,"709 TERRY DRIVE","WINCHESTER","KY","40391"
277627,"709 TOLA COURT","HYATTSVILLE","MD","20785"
277628,"709 W BRIARCLIFF RD","BOLINGBROOK","IL","60440"
277629,"709 W COLLEGE ST","FALLBROOK","CA","92028"
277630,"709 W LARKIN","ATHENS","TX","75751"
277631,"709 W SACRAMENTO ST","ALTADENA","CA","91001"
277632,"709 WASHINGTON AVE","LORAIN","OH","44052"
277633,"709 WELLS AVE","ATHENS","PA","18810"
277634,"709 WEST COUNTRY CLUB ROAD","CHICKASHA","OK","73018"
277635,"709 WESTSIDE DRIVE","NEWTON","NC","28658"
277636,"709 WINDY WAY UNIT 107","NEWPORT NEWS","VA","23602"
277637,"709 WOODROW STREET PMB 205","COLUMBIA","CA","29205"
277638,"709 WOODSTONE CT FAYETTEVILLE NC","FAYETTEVILLE","NC","28311"
277639,"709-26 STREET","VIRGINIA BEACH","VA","23451"
277640,"7090 77TH STREET","VERO BEACH","FL","32967"
277641,"7090 ARBOR PKWY  APT 1430","DOUGLASVILLE","GA","30135"
277642,"7090 FIELDING STREET","YPSILANTI","MI","48197"
277643,"7090 HAWAII KAI DR 77","HONOLULU","HI","96825"
277644,"7090 MARSH WREN STREET","CARLSBAD","CA","92011"
277645,"7090 N ORACLE RD STE 178-203","TUCSON","AZ","85704"
277646,"7090 RIMROCK","IDAHO FALLS","ID","83401"
277647,"7090 STATE ROUTE 514","BIG PRAIRIE","OH","44611"
277648,"7090 VIDA LANE","JACKSONVILLE","FL","32222"
277649,"7091 GRESHAM CT W","FREDERICK","MD","21703"
277650,"7091 JUANA DR","MILLINGTON","TN","38053"
277651,"7091 MAPLEWOOD COVE","OLIVE BRANCH","MS","38654"
277652,"7091 SOUTHFACE WAY","AUSTELL","GA","30168"
277653,"7091 W CRAIG RD 104","LAS VEGAS","NV","89129"
277654,"7091","COLORADO SPRINGS","CO","80923"
277655,"7092 LARKSPUR LANE","MIDDLETOWN","OH","45044"
277656,"7092 NAILS FERRY RD","BAXLEY","GA","31513"
277657,"7092 ORCHARD PATH DRIVE","CLEMMONS","NC","27012"
277658,"7092 PLACIDA ROAD","CAPE HAZE","FL","33946"
277659,"7092 RIVER ROAD","FLUSHING","MI","48433"
277660,"7092 SCHMEID ROAD","LAKEVIEW","MI","48850"
277661,"7092 STRATH RD","RICHMOND","VA","23231"
277662,"7092 STRATH ROAD","RICHMOND","VA","23231"
277663,"7093 FORREST AVENUE","PHILADELPHIA","PA","19138"
277664,"7093 HAMPTON WAY","STANTON","CA","90680"
277665,"7094 PTREE IND BLVD BLDG 1 STE 140","PEACHTREE CORNERS","GA","30071"
277666,"70946 W HIGHWAY 198","COALINGA","CA","93210"
277667,"7095 GLENRISGE DRIVE NE","ATLANTA","GA","30328"
277668,"7095 HOLLYWOOD BLVD SUITE 634","LOS ANGELES","CA","90028"
277669,"7095 PRADO DRIVE APT 1","FOUNTAIN","CO","80817"
277670,"7095 ROLLING HILLS DRIVE","HUDSONVILLE","MI","49426"
277671,"7095 WINDING WAY","CINCINNATI","OH","45236"
277672,"7096 BIG STONE BEACH ROAD","MILFORD","DE","19963"
277673,"7096 ELLIOTT ROAD","LAKE CHARLES","LA","70605"
277674,"7096 SAINT IVES CT","JACKSONVILLE","FL","32244"
277675,"7096 SUNDANCE LOOP","CHEYENNE","WY","82009"
277676,"7096 WAKEFIELD RD P O BOX 254","HIRAM","OH","44234"
277677,"7097 GEORGES WAY","MORROW","GA","30260"
277678,"7097 LANCELEAF DRIVE","COLLEGE GROVE","TN","37406"
277679,"7097 SAINT VRAIN RD","LONGMONT","CO","80503"
277680,"7098 INDIAN COVE ROAD","TWENTYNINE PALMS","CA","92277"
277681,"7099 BLUEBIRD DRIVE","GARDEN CITY","ID","83714"
277682,"7099 E MORNING DOVE LANE","SAN TAN VALLEY","AZ","85143"
277683,"7099 LOCUST STREET","UPPER DARBY","PA","19082"
277684,"7099 N HUALAPAI WAY 1193","LAS VEGAS","NV","89166"
277685,"7099 SALLIER ROAD","SULPHUR","LA","70665"
277686,"7099 SPRING MILL ROAD","INDIANAPOLIS","IN","46260"
277687,"7099 TOWN FOREST AVE","LAS VEGAS","NV","89179"
277688,"709A S 2ND AVE","GALLOWAY","NJ","08205"
277689,"709B E 119TH AVE","TAMPA","FL","33612"
277690,"70A GREENWICH AVENUE SUITE 373","NEW YORK","NY","10011"
277691,"70A MANOR DRIVE","GREAT NECK","NY","11020"
277692,"71 A CAMBRIDGE TERRACE","HACKEN","IN","46229"
277693,"71 ALLEN STREET SUITE 401","RUTLAND","VT","05701"
277694,"71 AMHERST STREET","NASHUA","NH","03064"
277695,"71 ASHLAND AVENUE","CARLISLE","PA","17013"
277696,"71 AUDUBON LN","SHELTON","CT","06484"
277697,"71 BALLENGER LN","PALMYRA","VA","22963"
277698,"71 BENMORE DRIVE","HAYWARD","CA","94542"
277699,"71 BENTWOOD DR UNIT 8","WATERBURY","CT","06705"
277700,"71 BLAKE AVE","WATSONVILLE","CA","95076"
277701,"71 BLOSSOM RD","WINDHAM","NH","03087"
277702,"71 BRIDGE STREET","MEDFIELD","MA","02052"
277703,"71 BRISTOL OAK CIR","THE WOODLANDS","TX","77382"
277704,"71 BROADWAY   SUITE 184","NEW YORK","NY","10006"
277705,"71 BROADWAY 19I","NEW YORK","NY","10006"
277706,"71 BROADWAY","DOBBS FERRY","NY","10522"
277707,"71 BRUNSWICK STREET VOORHEES HALL","NEW BRUNSWICK","NJ","08901"
277708,"71 CALLOWHILL ROAD","CHALFONT","PA","18914"
277709,"71 CARRIAGE HIGHLANDS CT","HENDERSONVILLE","NC","28791"
277710,"71 CASTLEGATE DRIVE","SEYMOUR","MO","65746"
277711,"71 CHANNING ROAD","BELMONT","MA","02478"
277712,"71 CHURCH ST APT 2A","LENOX","MA","01240"
277713,"71 CHURCH ST","MANASQUAN","NJ","08736"
277714,"71 CLARK ST UNIT 329","TRENTON","NJ","08611"
277715,"71 COLONIAL DRIVE","FAIRFIELD","CT","06824"
277716,"71 COLUMBIA PL","MOUNT VERNON","NY","10552"
277717,"71 COLUMBIA ST APT 14D","NEW YORK","NY","10002"
277718,"71 COMMERCIAL STREET - 190","BOSTON","MA","02109"
277719,"71 CONVENT AVENUE","NEW YORK","NY","10027"
277720,"71 COUNTY ROAD 645","SANDYSTON","NJ","07826"
277721,"71 COWARDLY LION DRIVE SUITE B","HEDGESVILLE","WV","25427"
277722,"71 DALE DR","PORTSMOUTH","VA","23704"
277723,"71 DENNA PL","ALPHARETTA","GA","30009"
277724,"71 DEWEY AVENUE","MECHANICVILLE","NY","12118"
277725,"71 DORSET STREET","SPRINGFIELD","MA","01108"
277726,"71 DULAMO ROAD","SAINT HELENA ISLAND","SC","29920"
277727,"71 DUTCH HOLLOW DRIVE","ORANGEBURG","NY","10962"
277728,"71 E COMMERCIAL ST POBOX 503","WILLITS","CA","95490"
277729,"71 E MAIN STREET","ARCADE","NY","14009"
277730,"71 EAST HITE COURT","SCHENECTADY","NY","12303"
277731,"71 EMERSON AVENUE","BEREA","OH","44017"
277732,"71 EVERGREEN LANE","MAPLECREST","NY","12454"
277733,"71 FAIRFIELD ROAD","GREENWICH","CT","06830"
277734,"71 FIREHOUSE LANE  -  PO BOX 123","RED FEATHER LAKES","CO","80545"
277735,"71 FORGE HILL RD","GLEN GARDNER","NJ","08826"
277736,"71 FULLER STREET","MIDDLEBORO","MA","02346"
277737,"71 GLENDALE PARK","ROCHESTER","NY","14613"
277738,"71 GOLDEN SCROLL CIR","SPRING","TX","77382"
277739,"71 GOLDFINCE CIR","PHOENIXVILLE","PA","19460"
277740,"71 GOSHEN ROAD","WINTERPORT","ME","04496"
277741,"71 GREEN STREET","BRATTLEBORO","VT","05301"
277742,"71 GROVEVIEW AVE","BLUFFTON","SC","29910"
277743,"71 HACKENSACK STREET","WOOD RIDGE","NJ","07075"
277744,"71 HAWKS VW","DAHLONEGA","GA","30533"
277745,"71 HICKORY POINTE DR","ACWORTH","GA","30101"
277746,"71 HILLCREST AVENUE","TRENTON","NJ","08618"
277747,"71 HOPE ROAD","NEW BLOOMFIELD","PA","17068"
277748,"71 HOWARD ST APT 5312","ATLANTA","GA","30317"
277749,"71 HUDSON STREET","NEW YORK","NY","10013"
277750,"71 INDIGO LANE","SPERRYVILLE","VA","22740"
277751,"71 ISLAND RD","MILLIS","MA","02054"
277752,"71 JENNIFER DRIVE","MOUNT UNION","PA","17066"
277753,"71 KRESTVIEW LANE","GOLDEN","CO","80401"
277754,"71 LANCASTER COURT","RICHMOND HILL","GA","31324"
277755,"71 LEGION PARKWAY  SUITE 3","BROCKTON","MA","02301"
277756,"71 LEGION PARKWAY STE 26","BROCKTON","MA","02301"
277757,"71 LEGION PARKWAY SUITE 15","BROCKTON","MA","02301"
277758,"71 LEGION PARKWAY SUITE 16","BROCKTON","MA","02301"
277759,"71 LEGION PARKWAY SUITE 20","BROCKTON","MA","02301"
277760,"71 LINCOLN AVE","NEW ROCHELLE","NY","10801"
277761,"71 LINDEN ST STE 202B","LYNN","MA","01905"
277762,"71 LIVINGSTON RD","FLETCHER","NC","28732"
277763,"71 LORNA LANE","TONAWANDA","NY","14150"
277764,"71 LYELL AVENUE","SPENCERPORT","NY","14559"
277765,"71 MACEY LANE","PLATTSBURGH","NY","12901"
277766,"71 MAIN STREET","PEABODY","MA","01960"
277767,"71 MANOR DRIVE","RAMSEY","NJ","07446"
277768,"71 MCKENNEY ROAD","CLINTON","ME","04927"
277769,"71 MIANTONOMI AVE","MIDDLETOWN","RI","02842"
277770,"71 MIDDLESEX ROAD APT 2","WALTHAM","MA","02452"
277771,"71 MILDRED LANE","FORD","NJ","08863"
277772,"71 MITCHELL DRIVE","OAKLAND","MD","21550"
277773,"71 MONMOUTH ST","BROOKLINE","MA","02446"
277774,"71 N EDGEMON AVE","WINTER SPRINGS","FL","32708"
277775,"71 N HANOVER ST","POTTSTOWN","PA","19464"
277776,"71 N INDUSTRIAL PARK DRIVE","COALMONT","TN","37301"
277777,"71 NE 183RD TERRACE","MIAMI","FL","33179"
277778,"71 NIMS ROAD","KEENE","NH","03431"
277779,"71 NORSEMAN DRIVE","SOUTH DENNIS","MA","02660"
277780,"71 NORTH 4TH STREET","HAMBURG","PA","19526"
277781,"71 NORTH CHESTNUT","JEFFERSON","OH","44047"
277782,"71 NORTH UNION STREET","SPARTA","ME","49345"
277783,"71 NW 130TH ST","TRENTON","FL","32693"
277784,"71 OAKTON DRIVE","ATCO","NJ","08004"
277785,"71 OAKWOOD BLVD","POUGHKEEPSIE","NY","12603"
277786,"71 OLD NECK ROAD SOUTH","CENTER MORICHES","NY","11934"
277787,"71 OLD SCHUYLERVILLE ROAD","SARATOGA SPRINGS","NY","12866"
277788,"71 OLIVE STREET","ASHLAND","MA","01721"
277789,"71 PALISADE ROAD","ELIZABETH","NJ","07208"
277790,"71 PALOMA HEIGHTS APT 102","COLORADO SPRINGS","CO","80921"
277791,"71 PARKER LANE","RICHMOND HILL","GA","31324"
277792,"71 PARTRIDGE DRIVE","ESSEX","VT","05452"
277793,"71 PETER PARLEY ROAD","BOSTON","MA","02130"
277794,"71 PINE LN","WATCHUNG","NJ","07069"
277795,"71 PORTLAND STREET","NEW BEDFORD","MA","02744"
277796,"71 PROSPECT ST","BLOOMFIELD","NJ","07003"
277797,"71 REHDER ROAD","ROUNDUP","MT","59072"
277798,"71 REUNION","IRVINE","CA","92603"
277799,"71 S BRISTOL OAK CIRCLE","THE WOODLANDS","TX","77382"
277800,"71 S CENTRAL AVE","OVIEDO","FL","32765"
277801,"71 S LA SENDA","LAGUNA BEACH","CA","92651"
277802,"71 S MAIN ST","PITTSTON","PA","18640"
277803,"71 S WINSOME PATH CIRCLE","THE WOODLANDS","TX","77382"
277804,"71 SAN JUAN AVE","ALAMOSA","CO","81101"
277805,"71 SCHULMAN VESELAK RD","EAST HADDAM","CT","06423"
277806,"71 SCHUYLKILL STREET","CRESSONA","PA","17929"
277807,"71 SE CLEMATIS AVE","SHELTON","WA","98584"
277808,"71 SEQUATCHEE RD","PIKEVILLE","TN","37367"
277809,"71 SHAWSWICK SCHOOL ROAD","BEDFORD","IN","47421"
277810,"71 SINCLAIR AVE","MANCHESTER","NH","03104"
277811,"71 SMULL AVE","CALDWELL","NJ","07006"
277812,"71 SMYRNA CENTER ROAD","SMYRNA","ME","04780"
277813,"71 SNYDER AVENUE","TOWER CITY","PA","17980"
277814,"71 SOLDIERS LN","BERRYVILLE","VA","22611"
277815,"71 SONNETTE ROAD BOX 121","BROADUS","MT","59317"
277816,"71 SOUND VIEW LANE","NEW CANAAN","CT","06840"
277817,"71 SOUTH ROAD","WHITE PLAINS","NY","10603"
277818,"71 SPRUCE STREET","WATERTOWN","MA","02472"
277819,"71 SPRUCEWOOD","ALISO VIEJO","CA","92656"
277820,"71 STONECUTTER ROAD","LEVITTOWN","NY","11756"
277821,"71 SULLIVAN STREET APT 3-D","NEW YORK","NY","10012"
277822,"71 SULLIVAN STREET","BROOKLYN","NY","11231"
277823,"71 SUNSET COVE","IRVINE","CA","92602"
277824,"71 TABB AVE","PISCATAWAY","NJ","08854"
277825,"71 TANGLEWOOD DR","LAKE OSWEGO","OR","97035"
277826,"71 TANNER STREET APARTMENT 3","PROVIDENCE","RI","02907"
277827,"71 THIRD AVENUE","BURLINGTON","MA","01803"
277828,"71 TREMONT STREET","CAMBRIDGE","MA","02139"
277829,"71 UNION PLACE","LYNBROOK","NY","11563"
277830,"71 VANDERWATER AVENUE","FLORAL PARK","NY","11001"
277831,"71 VINEYARD PLACE","GRIFFIN","GA","30224"
277832,"71 VIRGINIA AVENUE","LONG BEACH","NY","11561"
277833,"71 W 23RD ST BOX H5","NEW YORK","NY","10010"
277834,"71 W FIFTH ST","NEW CASTLE","DE","19720"
277835,"71 W HUBBARD ST APT 3109","CHICAGO","IL","60654"
277836,"71 W PLAZA DEL LAGO","ISLAMORADA","FL","33036"
277837,"71 WALNUT STE 110","ROCHESTER","MI","48307"
277838,"71 WALNUT STREET","UNIONVILLE","CT","06085"
277839,"71 WALPOLE STREET","DOVER","MA","02030"
277840,"71 WASHIINGTON STREET","RENO","NV","89503"
277841,"71 WASHINGTON STREET SUITE 33A","SALEM","MA","01907"
277842,"71 WASHINGTON STREET","SALEM","MA","01970"
277843,"71 WEST 23RD ST NUM4K","NEW YORK","NY","10010"
277844,"71 WEST 23RD ST SUITE 1628","NEW YORK","NY","10010"
277845,"71 WESTMONT ST","WEST HARTFORD","CT","06117"
277846,"71 WHIPPLE AVE","LACONIA","NH","03246"
277847,"71 WHITE TAIL LN","LANCASTER","MA","01523"
277848,"71 WINDMILL TRAIL","DEL RIO","TX","78840"
277849,"71 WINNER AVE","COLUMBUS","OH","43203"
277850,"71 WOOD GREEN DRIVE","WENDELL","NC","27591"
277851,"71 YALE ST","SPRINGFIELD","MA","01109"
277852,"71-13 MANSE STREET","FOREST HILLS","NY","11375"
277853,"71-35 SUTTON  PL  3FL","FRESH MEADOWS","NY","11365"
277854,"71-40 112ST APT 406","FOREST HILLS","NY","11375"
277855,"71-45 160TH STREET 5A","FRESH MEADOWS","NY","11365"
277856,"71","ROYAL OAK","MI","48073"
277857,"710  E MAIN STREET","ENDA","TX","77957"
277858,"710 12TH STREET SOURTH","ARLINGTON","VA","22202"
277859,"710 34TH AVE S","SAINT PETERSBURG","FL","33705"
277860,"710 3RD ST","BROOKINGS","OR","97415"
277861,"710 4-H ROAD","LANSING","KS","66043"
277862,"710 40TH AVE NE","COLUMBIA HEIGHT","MN","55421"
277863,"710 5TH ST N","ST PETERSBURG","FL","33701"
277864,"710 6TH STREET","RUPERT","ID","83350"
277865,"710 7TH STREET","BALDWIN","MI","49304"
277866,"710 AEROVISTA PLACE SUITE B","SAN LUIS OBISPO","CA","93401"
277867,"710 ALMONASTER RD","YOUNGSVILLE","LA","70592"
277868,"710 ARGYLE AVE","FLOSSMOOR","IL","60422"
277869,"710 ARTHUR WOLFE RD","DUBLIN","GA","31021"
277870,"710 BALSAM ST","POCATELLO","ID","83201"
277871,"710 BARD DR","GARLAND","TX","75040"
277872,"710 BENNETT ST","SANFORD","NC","27330"
277873,"710 BENTON RD","BOSSIER CITY","LA","71111"
277874,"710 BIG BEND RD","BARBOURSVILLE","WV","25504"
277875,"710 BLUE RIDGE WAY","DAVIE","FL","33325"
277876,"710 BRAINERD ROAD","EXTON","PA","19341"
277877,"710 BROADWAY","VINELAND","NJ","08360"
277878,"710 BROOK VALLEY LANE","DALLAS","TX","75232"
277879,"710 BROOKSIDE AVENUE STE 7","REDLANDS","CA","92373"
277880,"710 BROWN STREET","LAFAYETTE","IN","47901"
277881,"710 BRUCE CT","MADISON","WI","53705"
277882,"710 BURNS AVENUE","FLOSSMOOR","IL","60422"
277883,"710 CARLTON POINTE WAY","PALMETTO","GA","30268"
277884,"710 CARRIAGE HILL APT 6","IOWA CITY","IA","52246"
277885,"710 CHESTNUT RIDGE RD","SPRING VALLEY","NY","10977"
277886,"710 CHURCH STREET SUITE B","LOCKPORT","LA","70374"
277887,"710 CR 1350 N","SULLIVAN","IL","61951"
277888,"710 CREEKWOOD DR","WEST BEND","WI","53095"
277889,"710 DACULA RD UNIT 4A-220","DACULA","GA","30019"
277890,"710 DACULA ROAD STE 4A","DACULA","GA","30019"
277891,"710 DAKOTA STREET","BENKELMAN","NE","69021"
277892,"710 DAVIS AVENUE","CORNING","IA","50841"
277893,"710 DEAD CAT ALLEY","WOODLAND","CA","95695"
277894,"710 DELANEY WAY","VERSAILLES","KY","40383"
277895,"710 DELEAN WAY","FRUITA","CO","81521"
277896,"710 DORCHESTER ROAD","BALTIMORE","MD","21229"
277897,"710 DUNCANVILLE CT","CAMPBELL","CA","95008"
277898,"710 E 19TH AVE","CORDELE","GA","31015"
277899,"710 E 47TH ST STE 203W","CHICAGO","IL","60653"
277900,"710 E 83RD STREET","CHICAGO","IL","60619"
277901,"710 E COMMERCIAL AVE","MONTEREY","TN","38574"
277902,"710 E CYPRESS STREET","COMPTON","CA","90221"
277903,"710 E GARFIELD ST ROOM 278","LARAMIE","WY","82070"
277904,"710 E GOLDEN AVENUE","PLACENTIA","CA","92870"
277905,"710 E GRAND RIVER AVENUE","HOWELL","MI","48843"
277906,"710 E HARVARD ROAD","BURBANK","CA","91501"
277907,"710 E MADISON ST","PLATTEVILLE","WI","53818"
277908,"710 E MAIN AVENUE STE 1","ROBSTOWN","TX","78380"
277909,"710 E MAIN ST STE A","BARTOW","FL","33830"
277910,"710 E MAIN STREET","CARBONDALE","IL","62901"
277911,"710 E MARKET ST","SALINAS","CA","93905"
277912,"710 E OGDEN AVE  SUITE 360","NAPERVILLE","IL","60563"
277913,"710 E ST SUITE 100","EUREKA","CA","95501"
277914,"710 EAST 6TH STREET","ERIE","PA","16507"
277915,"710 EAST FRANKLIN STREET","LIMA","OH","45804"
277916,"710 FAIRVIEW AVE","SUNNYSIDE","WA","98944"
277917,"710 FIELDSTONE CT","INVERNESS","IL","60010"
277918,"710 FIRST AVENUE","ROCK RAPIDS","IA","51246"
277919,"710 FLOOD ST","WICHITA FALLS","TX","76301"
277920,"710 FOX RIDGE DRIVE","BRENTWOOD","TN","37027"
277921,"710 GEORGE STREET","PEN ARGYL","PA","18072"
277922,"710 GEORGIA AVE UNIT 21","STATESBORO","GA","30458"
277923,"710 GIUFFRIAS AVE","METAIRIE","LA","70001"
277924,"710 GREEN ACRES DRIVE","WIMBERLEY","TX","78676"
277925,"710 GREENVILLE PIKE","HAZEL GREEN","AL","35750"
277926,"710 HAMILTON STREET","REDWOOD CITY","CA","94063"
277927,"710 HARPER RD","KERRVILLE","TX","78028"
277928,"710 HART LN","NASHVILLE","TN","37216"
277929,"710 HARVEST BLUFF DRIVE","ROSHARON","TX","77583"
277930,"710 HARWICK ROAD","WAYNE","PA","19087"
277931,"710 HATTON HILL COURT","AUSTIN","TX","78725"
277932,"710 HEIDT STREET","COLUMBIA","SC","29205"
277933,"710 HERMANN ROAD","NORTH BRUNSWICK","NJ","08902"
277934,"710 HICKORY CREEK CT","METAMORA","IL","61548"
277935,"710 HIGHWAY 58 SOUTH","SNOW HILL","NC","28580"
277936,"710 HOLDER RD","FARMERVILLE","LA","71241"
277937,"710 HOMOCHITTO CAMPOUT ROAD SE","MEADVILLE","MS","39653"
277938,"710 HOWARD AVE","CARSON","CA","90746"
277939,"710 HUEY ST","ABBEVILLE","LA","70510"
277940,"710 HWY 35 SO","ST CROIX FALL","WI","54024"
277941,"710 HWY 51 BYPASS WEST PMB 555","DYERSBURG","TN","38024"
277942,"710 INDIGO STREET","SAN ANTONIO","TX","78216"
277943,"710 IONA TERRACE","CAPITOL HEIGHTS","MD","20743"
277944,"710 ISSAC STREET","COLUMBIA","SC","29203"
277945,"710 KATHRON AVE","CUYAHOGA FALLS","OH","44221"
277946,"710 KENNOLIA DRIVE DR SW","ATLANTA","GA","30310"
277947,"710 KINGSBRIDGE WAY","BUFFALO GROVE","IL","60089"
277948,"710 KIRKPATRICK ST","SYRACUSE","NY","13208"
277949,"710 LAMAR ST SUITE 440","WICHTA FALLS","TX","76301"
277950,"710 LAWRENCE EXPRESSWAY 148","SANTA CLARA","CA","95051"
277951,"710 LITTLE RABBIT","AZTEC","NM","87410"
277952,"710 LONE PINE WAY","VERONA","WI","53593"
277953,"710 MABRY RD","ATLANTA","GA","30328"
277954,"710 MADISON AVE","REDWOOD CITY","CA","94061"
277955,"710 MAIN ST","MURRAY","KY","42071"
277956,"710 MAIN STREET","MURRAY","KY","42071"
277957,"710 MAIN STREET","PALACIOS","TX","77465"
277958,"710 MARKET STREET","POCOMOKE CITY","MD","21851"
277959,"710 MARTHA STREET","MANTECA","CA","95337"
277960,"710 MARTIN LUTHER KING AVE","CAIRO","IL","62914"
277961,"710 MEADOWSONG CIRCLE","LAWRENCEVILLE","GA","30043"
277962,"710 MEARS ST","CHADRON","NE","69337"
277963,"710 MICHIGAN AVENUE SUITE 9","MIAMI BEACH","FL","33139"
277964,"710 MILITARY CUTOFF ROAD SUITE 250","WILMINGTON","NC","28405"
277965,"710 MINNEQUA AVE","PUEBLO","CO","81004"
277966,"710 N 5TH ST","READING","PA","19601"
277967,"710 N 9TH ST","ELGIN","OR","97827"
277968,"710 N CLAIBORNE STREET","CHALMETTE","LA","70043"
277969,"710 NE 3RD ST","NEWPORT","OR","97365"
277970,"710 NEPTUNE AVE","OXON HILL","MD","20745"
277971,"710 NEW YORK AVE","ABSECON","NJ","08201"
277972,"710 NORTH AVENUE","PITTSBURGH","PA","15221"
277973,"710 NORTH D STREET","SAN BERNARDINO","CA","92401"
277974,"710 NORTH EXPRESS STREET","PARIS","AR","72855"
277975,"710 NORTH WASHINGTON STREET","AFTON","WY","83110"
277976,"710 OLD HOLLOW ROAD","NORTH FERRISBURGH","VT","05473"
277977,"710 PARK AVE","HAINSPORT","NJ","08036"
277978,"710 PARK LANE","DECATUR","GA","30033"
277979,"710 PARKER PLACE","ATLANTA","GA","30349"
277980,"710 PARKSIDE AVENUE","BUFFALO","NY","14216"
277981,"710 PEACHTREE STREET NE 1103","ATLANTA","GA","30308"
277982,"710 PEACHTREE STREET NE 1731","ATLANTA","GA","30308"
277983,"710 PROSPECT AVENUE NORTH","KENT","WA","98031"
277984,"710 RED DEVIL LANE","RUSSELL","KY","41169"
277985,"710 RENSSELAER AVENUE","OGDENSBURG","NY","13669"
277986,"710 RIDGE RD","WILMETTE","IL","60091"
277987,"710 RIDGECREST LANE","ROCKY POINT","NC","28457"
277988,"710 ROLLING DUNES","HUTCHINSON","KS","67502"
277989,"710 ROY ST","HOUSTON","TX","77007"
277990,"710 S 17TH ST","NEWARK","NJ","07103"
277991,"710 S 3RD ST APT 210","MILWAUKEE","WI","53204"
277992,"710 S CLINTON STREET 3B","DENVER","CO","80247"
277993,"710 S EARLING AVE","MILES CITY","MT","59301"
277994,"710 S EDGEFIELD AVENUE","DALLAS","TX","75208"
277995,"710 S FM 55","ITALY","TX","76651"
277996,"710 S IDAHO ROAD","LIBERTY LAKE","WA","99019"
277997,"710 S MAIN ST RM 649","HARRISON","VA","22801"
277998,"710 S MYRTLE AVE STE 645","MONROVIA","CA","91016"
277999,"710 S MYRTLE AVENUE - UNIT 284","MONROVIA","CA","91016"
278000,"710 S SAN PEDRO","LAS CRUCES","NM","88001"
