"ID","Address","City","State","Zip"
341501,"PO BOX 24832","SPEEDWAY","IN","46224"
341502,"PO BOX 2484","CORODOVA","TN","38088"
341503,"PO BOX 2484","MANDEVILLE","LA","70470"
341504,"PO BOX 2485","WINCHESTER","VA","22604"
341505,"PO BOX 24858","ROCHESTER","NY","14608"
341506,"PO BOX 24863","CHATTANOOGA","TN","37422"
341507,"PO BOX 24863","OAKLAND PARK","FL","33307"
341508,"PO BOX 2487","HUTCHINSON","KS","67504"
341509,"PO BOX 2488","PRESCOTT","AZ","86302"
341510,"PO BOX 248977","CORAL GABLES","FL","33124"
341511,"PO BOX 249","CHELSEA","AL","35043"
341512,"PO BOX 249","COLONIAL BEACH","VA","22443"
341513,"PO BOX 249","CORTEZ","FL","34215"
341514,"PO BOX 249","DALTON","GA","30722"
341515,"PO BOX 249","DEKALB","IL","60115"
341516,"PO BOX 249","HAYES","VA","23072"
341517,"PO BOX 249","LAGUNA BEACH","CA","92652"
341518,"PO BOX 249","MACCLENNY","FL","32063"
341519,"PO BOX 249","MADISONVILLE","TN","37354"
341520,"PO BOX 249","MARYSVILLE","CA","95901"
341521,"PO BOX 249","NEWBURYPORT","MA","01950"
341522,"PO BOX 249","PAULDING","OH","45879"
341523,"PO BOX 249","PEQUANNOCK","NJ","07440"
341524,"PO BOX 249","TOLEDO","IL","62468"
341525,"PO BOX 249","TRMBULL","CT","06611"
341526,"PO BOX 249","VERNON","AZ","85940"
341527,"PO BOX 2490","DENHAM SPRINGS","LA","70726"
341528,"PO BOX 2490","GLEN ALLEN","VA","23058"
341529,"PO BOX 24901","EUGENE","OR","97402"
341530,"PO BOX 2491","PAGOSA SPRINGS","CO","81147"
341531,"PO BOX 2491","PENSACOLA","FL","32513"
341532,"PO BOX 2492","GREENVILLE","NC","27836"
341533,"PO BOX 2492","SAG HARBOR","NY","11963"
341534,"PO BOX 2493","DULUTH","GA","30096"
341535,"PO BOX 2493","WILDWOOD","NJ","08260"
341536,"PO BOX 2494","CEDAR PARK","TX","78613"
341537,"PO BOX 2494","OXFORD","MS","38655"
341538,"PO BOX 24940","OMAHA","NE","68124"
341539,"PO BOX 2495","BLUE RIDGE","GA","30513"
341540,"PO BOX 2495","SANTA CLARA","CA","95055"
341541,"PO BOX 2496","GASTONIA","NC","28053"
341542,"PO BOX 2498","HONOLULU","HI","96804"
341543,"PO BOX 2498","SOUTH BEND","IN","46680"
341544,"PO BOX 25    204 W 5TH AVE","BELLE PLAINE","KS","67013"
341545,"PO BOX 25  463 PIETSCH ROAD","RINGGOLD","LA","71068"
341546,"PO BOX 25","ADAIR","OK","74330"
341547,"PO BOX 25","ANDERSON","IN","46015"
341548,"PO BOX 25","BADEN","PA","15005"
341549,"PO BOX 25","BRICE","OH","43109"
341550,"PO BOX 25","BRILLION","WI","54110"
341551,"PO BOX 25","BROWNSVILLE","TN","38012"
341552,"PO BOX 25","BUTTE","MT","59703"
341553,"PO BOX 25","CARDIFF","CA","92007"
341554,"PO BOX 25","CEDAR HILL","TX","75106"
341555,"PO BOX 25","CHARDON","OH","44024"
341556,"PO BOX 25","COLGATE","WI","53017"
341557,"PO BOX 25","COMMERCE","GA","30529"
341558,"PO BOX 25","EAST GREENBUSH","NY","12061"
341559,"PO BOX 25","GOSHEN","NY","10924"
341560,"PO BOX 25","HARTWICK","NY","13348"
341561,"PO BOX 25","HOPATCONG","NJ","07843"
341562,"PO BOX 25","JEFFERSON","OH","44047"
341563,"PO BOX 25","JUNCTION","TX","76849"
341564,"PO BOX 25","KENDRICK","ID","83537"
341565,"PO BOX 25","MACON","GA","31202"
341566,"PO BOX 25","MARYSVILLE","PA","17053"
341567,"PO BOX 25","MONTGOMERYVILLE","PA","18936"
341568,"PO BOX 25","MORRIS","NY","13808"
341569,"PO BOX 25","NEILLSVILLE","WI","54456"
341570,"PO BOX 25","NEW KENT","VA","23124"
341571,"PO BOX 25","NORCO","CA","92860"
341572,"PO BOX 25","ORANGE COVE","CA","93646"
341573,"PO BOX 25","OSHTEMO","MI","49077"
341574,"PO BOX 25","PHILIPSBURG","MT","59858"
341575,"PO BOX 25","POMPTON PLAINS","NJ","07444"
341576,"PO BOX 25","POUNDING MILL","VA","24637"
341577,"PO BOX 25","RANDOLPH","OH","44265"
341578,"PO BOX 25","REIDSVILLE","GA","30453"
341579,"PO BOX 25","RICE","MN","56367"
341580,"PO BOX 25","RICHWOOD","OH","43344"
341581,"PO BOX 25","RICO","CO","81332"
341582,"PO BOX 25","ROGERS","MN","55374"
341583,"PO BOX 25","SAINT GEROGE","KS","66535"
341584,"PO BOX 25","SHILOH","NJ","08353"
341585,"PO BOX 25","SIOUX FALLS","SD","57101"
341586,"PO BOX 25","STEPHENSON","MI","49887"
341587,"PO BOX 25","STONE MOUNTAIN","GA","30086"
341588,"PO BOX 25","STRAFFORD","NH","03815"
341589,"PO BOX 25","SULTANA","CA","93666"
341590,"PO BOX 25","VERMILLION","SD","57069"
341591,"PO BOX 25","WILLIAMSBURG","PA","16693"
341592,"PO BOX 25","WINTER PARK","CO","80482"
341593,"PO BOX 250-330","BROOKLYN","NY","11225"
341594,"PO BOX 250","CHUNCHULA","AL","36521"
341595,"PO BOX 250","DEL NORTE","CO","81132"
341596,"PO BOX 250","DELBARTON","WV","25670"
341597,"PO BOX 250","HARTSEL","CO","80449"
341598,"PO BOX 250","HAWTHORN","PA","16230"
341599,"PO BOX 250","ODESSA","WA","99159"
341600,"PO BOX 250","PALOS PARK","IL","60464"
341601,"PO BOX 250","PARKERSBURG","IA","50665"
341602,"PO BOX 250","RICHMOND","KY","40476"
341603,"PO BOX 250","ROGERS","TX","76569"
341604,"PO BOX 250","SANIBEL","FL","33957"
341605,"PO BOX 250","TORRINGTON","WY","82240"
341606,"PO BOX 250","UNION GROVE","NC","28689"
341607,"PO BOX 250","WHITEWATER","CO","81527"
341608,"PO BOX 250","YACHATS","OR","97498"
341609,"PO BOX 2500","MENLO PARK","CA","94026"
341610,"PO BOX 2500","SHOW LOW","AZ","85902"
341611,"PO BOX 250014","WEST BLOOMFIELD","MI","48325"
341612,"PO BOX 250021","ATLANTA","GA","30325"
341613,"PO BOX 250028","ATLANTA","GA","30325"
341614,"PO BOX 250037","LITTLE ROCK","AR","72205"
341615,"PO BOX 25004","HOUSTON","TX","77265"
341616,"PO BOX 250091","WEST BLOOMFIELD","MI","48325"
341617,"PO BOX 250096","LITTLE ROCK","AR","72225"
341618,"PO BOX 2501","JULIAN","CA","92036"
341619,"PO BOX 2501","LAND O LAKES","FL","34639"
341620,"PO BOX 2501","NEW HYDE PARK","NY","11040"
341621,"PO BOX 25011","CHARLOTTE","NC","28229"
341622,"PO BOX 25011","COLORADO SPRINGS","CO","80936"
341623,"PO BOX 25012","BALTIMORE","MD","21229"
341624,"PO BOX 25014","SCOTT AFB","IL","62225"
341625,"PO BOX 250179","BROOKLYN","NY","11225"
341626,"PO BOX 2502","OCEANSIDE","CA","92051"
341627,"PO BOX 2502","STOW","OH","44224"
341628,"PO BOX 250290","NEW YORK","NY","10025"
341629,"PO BOX 2503","BUFFALO","NY","14240"
341630,"PO BOX 2503","CHARLOTTESVILLE","VA","22902"
341631,"PO BOX 2503","LAKE OZARK","MO","65049"
341632,"PO BOX 2503","SACRAMENTO","CA","95812"
341633,"PO BOX 2503","STOW","OH","44224"
341634,"PO BOX 250311","FRANKLIN","MI","48025"
341635,"PO BOX 250398","LITTLE ROCK","AR","72225"
341636,"PO BOX 2504","KEALAKEKUA","HI","96750"
341637,"PO BOX 2504","MONUMENT","CO","80132"
341638,"PO BOX 2504","WLIMINGTON","NC","28402"
341639,"PO BOX 250405 - COLUMBIA STATION","NY","NY","10025"
341640,"PO BOX 250455","PLANO","TX","75025"
341641,"PO BOX 250485","PLANO","TX","75025"
341642,"PO BOX 2505","RIVERVIEW","MI","48193"
341643,"PO BOX 25065","PROVIDENCE","RI","02905"
341644,"PO BOX 250666","MILWAUKEE","WI","53225"
341645,"PO BOX 250671","ATLANTA","GA","30325"
341646,"PO BOX 250688","BROOKLYN","NY","11225"
341647,"PO BOX 2507","PETALUMA","CA","94953"
341648,"PO BOX 2507","SEBASTOPOL","CA","95472"
341649,"PO BOX 250722","NEW YORK","NY","10025"
341650,"PO BOX 25073","SAN BERNARDINO","CA","92406"
341651,"PO BOX 250747","PLANO","TX","75025"
341652,"PO BOX 250768","MILWAUKEE","WI","53225"
341653,"PO BOX 25080","SCOTT AIR FORCE BASE","IL","62225"
341654,"PO BOX 250827","BROOKLYN","NY","11225"
341655,"PO BOX 25086","HONOLULU","HI","96825"
341656,"PO BOX 250914","LITTLE ROCK","AR","72225"
341657,"PO BOX 250953","LITTLE ROCK","AR","72225"
341658,"PO BOX 251","BLOOMINGTON","WI","53804"
341659,"PO BOX 251","CAMILLUS","NY","13031"
341660,"PO BOX 251","CAMPTONVILLE","CA","95922"
341661,"PO BOX 251","CHAMBERSBURG","PA","17201"
341662,"PO BOX 251","CLIO","SC","29525"
341663,"PO BOX 251","EL GRANADA","CA","94018"
341664,"PO BOX 251","FOND DU LAC","WI","54936"
341665,"PO BOX 251","HAWKINS","TX","75765"
341666,"PO BOX 251","HOOSICK FALLS","NY","12090"
341667,"PO BOX 251","JUSTIN","TX","76247"
341668,"PO BOX 251","KINGSTON","ID","83839"
341669,"PO BOX 251","LOXAHATCHEE","FL","33470"
341670,"PO BOX 251","NEW LONDON","NH","03257"
341671,"PO BOX 251","NUNDA","NY","14517"
341672,"PO BOX 251","PECOS","TX","79772"
341673,"PO BOX 251","PINE RIVER","MN","56474"
341674,"PO BOX 251","RAYMOND","NE","68425"
341675,"PO BOX 251","RICHLAND CENTER","WI","53581"
341676,"PO BOX 251","ROCKFORD","MI","49341"
341677,"PO BOX 251","SHABBONA","IL","60550"
341678,"PO BOX 251","SILVER LAKE","NY","14549"
341679,"PO BOX 251","SPRING VALLEY","IL","61362"
341680,"PO BOX 251","TUCUMCARI","NM","88401"
341681,"PO BOX 251","WATERFORD","VA","20197"
341682,"PO BOX 251","WHITE SALMON","WA","98672"
341683,"PO BOX 251","WILLOWS","CA","95988"
341684,"PO BOX 251","YONKERS","NY","10704"
341685,"PO BOX 2511","CHESTERTON","IN","46304"
341686,"PO BOX 2511","FRISCO","TX","75034"
341687,"PO BOX 251141","WOODBURY","MN","55125"
341688,"PO BOX 2512","AMARILLO","TX","79105"
341689,"PO BOX 2512","MONTEREY","CA","93942"
341690,"PO BOX 25120","LOS ANGELES","CA","90025"
341691,"PO BOX 25123","CHARLOTTE","NC","28229"
341692,"PO BOX 251291","PLANO","TX","75025"
341693,"PO BOX 25131","PHOENIX","AZ","85002"
341694,"PO BOX 251365","WOODBURY","MN","55125"
341695,"PO BOX 25138","DURHAM","NC","27702"
341696,"PO BOX 2514","CHINO HILLS","CA","91709"
341697,"PO BOX 2514","ROANOKE","VA","24010"
341698,"PO BOX 25143","ST. LOUIS","MO","63125"
341699,"PO BOX 251431","WEST BLOOMFIELD","MI","48325"
341700,"PO BOX 2515","ORANGEBURG","SC","29116"
341701,"PO BOX 25151","LAKELAND","FL","33802"
341702,"PO BOX 25153","RICHMOND","VA","23260"
341703,"PO BOX 25156","RICHMOND","VA","23260"
341704,"PO BOX 2516","GOLDENROD","FL","32733"
341705,"PO BOX 2516","MCKINNEY","TX","75070"
341706,"PO BOX 251611","WEST BLOOMFIELD","MI","48322"
341707,"PO BOX 25163","CHATTANOOGA","TN","37422"
341708,"PO BOX 2517","CINNAMINSON","NJ","08077"
341709,"PO BOX 2517","PALATKA","FL","32178"
341710,"PO BOX 2517","VASHON","WA","98070"
341711,"PO BOX 25172","FORT WORTH","TX","76124"
341712,"PO BOX 2518","CAVE JUNCTION","OR","97523"
341713,"PO BOX 2518","PLAINFIELD","NJ","07060"
341714,"PO BOX 251903","LITTLE ROCK","AR","72225"
341715,"PO BOX 251912","LOS ANGELES","CA","90025"
341716,"PO BOX 252","ANOKA","MN","55303"
341717,"PO BOX 252","BILOXI","MS","39533"
341718,"PO BOX 252","CAMERON","NC","28326"
341719,"PO BOX 252","CASON","TX","75636"
341720,"PO BOX 252","CLARKSDALE","MS","38614"
341721,"PO BOX 252","COLLBRAN","CO","81624"
341722,"PO BOX 252","DANFORTH","ME","04424"
341723,"PO BOX 252","EAST LIVERPOL","OH","43920"
341724,"PO BOX 252","ELKADER","IA","52043"
341725,"PO BOX 252","EVERGREEN","CO","80437"
341726,"PO BOX 252","FORTVILLE","IN","46040"
341727,"PO BOX 252","GLENDIVE","MT","59330"
341728,"PO BOX 252","HANNA","WY","82327"
341729,"PO BOX 252","HASKELL","OK","74436"
341730,"PO BOX 252","HERSHEY","NE","69143"
341731,"PO BOX 252","HILLSIDE","NJ","07205"
341732,"PO BOX 252","IDAHO CITY","ID","83631"
341733,"PO BOX 252","IOWA FALLS","IA","50126"
341734,"PO BOX 252","LANGLEY","WA","98260"
341735,"PO BOX 252","LEICESTER","MA","01524"
341736,"PO BOX 252","MANSFIELD","PA","16933"
341737,"PO BOX 252","MARLOW","NH","03456"
341738,"PO BOX 252","MASSILLON","OH","44646"
341739,"PO BOX 252","MOOREFIELD","WV","26836"
341740,"PO BOX 252","NEW HAMPTON","MO","64471"
341741,"PO BOX 252","OAKWOOD","TX","75855"
341742,"PO BOX 252","PHILOMONT","VA","20131"
341743,"PO BOX 252","ROCHESTER","IN","46975"
341744,"PO BOX 252","SALTILLO","MS","38866"
341745,"PO BOX 252","SANDYVILLE","OH","44671"
341746,"PO BOX 252","SHELTON","CT","06484"
341747,"PO BOX 252","TILDEN","IL","62292"
341748,"PO BOX 252","VALLEY PARK","MO","63088"
341749,"PO BOX 252","WETUMPKA","AL","36092"
341750,"PO BOX 252","WHEELING","IL","60090"
341751,"PO BOX 252","WINDOR","MO","65360"
341752,"PO BOX 252","WYOMING","DE","19934"
341753,"PO BOX 2521","BENTONVILLE","AR","72712"
341754,"PO BOX 252176","LOS ANGELES","CA","90025"
341755,"PO BOX 2522","FREEPORT","TX","77542"
341756,"PO BOX 2522","SPRINGFIELD","VA","22152"
341757,"PO BOX 2523","WICHITA FALLS","TX","76307"
341758,"PO BOX 2524","COLUMBUS","IN","47202"
341759,"PO BOX 2524","LAPLACE","LA","70068"
341760,"PO BOX 2524","SANDPONT","ID","83864"
341761,"PO BOX 25240","SAN MATEO","CA","94402"
341762,"PO BOX 252443","WEST BLOOMFIELD","MI","48325"
341763,"PO BOX 2525","WOBURN","MA","01888"
341764,"PO BOX 25255","TAMARAC","FL","33320"
341765,"PO BOX 2527","COLUMBIA","SC","29202"
341766,"PO BOX 2527","SOUTHERN PINES","NC","28388"
341767,"PO BOX 25271","RICHMOND","VA","23260"
341768,"PO BOX 25275","COLUMBIA","SC","29224"
341769,"PO BOX 2528","BUSHNELL","FL","33513"
341770,"PO BOX 25281","OVERLAND PARK","KS","66225"
341771,"PO BOX 25283","SILVERTHORNE","CO","80498"
341772,"PO BOX 25284","PORTLAND","OR","97298"
341773,"PO BOX 252863","WEST BLOOMFIELD","MI","48322"
341774,"PO BOX 2529","GULFPORT","MS","39505"
341775,"PO BOX 25293","RICHMOND","VA","23260"
341776,"PO BOX 252H","SCARSDALE","NY","10583"
341777,"PO BOX 253","ANDOVER","NH","03216"
341778,"PO BOX 253","ANNISTON","AL","36202"
341779,"PO BOX 253","BELMONT","CA","94002"
341780,"PO BOX 253","BETHEL","CT","06801"
341781,"PO BOX 253","CAREY","ID","83320"
341782,"PO BOX 253","CHOWCHILLA","CA","93610"
341783,"PO BOX 253","CORNERSVILLE","TN","37047"
341784,"PO BOX 253","CORVALLIS","OR","97339"
341785,"PO BOX 253","DAMARISCOTTA","ME","04543"
341786,"PO BOX 253","EDGERTON","WI","53534"
341787,"PO BOX 253","ENGLEWOOD","TN","37329"
341788,"PO BOX 253","EVERETT","PA","15537"
341789,"PO BOX 253","HARVEST","AL","35749"
341790,"PO BOX 253","HARWICH","MA","02645"
341791,"PO BOX 253","HOPKINS PARK","IL","60944"
341792,"PO BOX 253","JENKS","OK","74037"
341793,"PO BOX 253","LACROSSE","WA","99143"
341794,"PO BOX 253","LITCHFIELD","MN","55355"
341795,"PO BOX 253","LORDSBURG","NM","88045"
341796,"PO BOX 253","LYME","NH","03768"
341797,"PO BOX 253","MIDDLETOWN","IN","47356"
341798,"PO BOX 253","MONTPELIER","VT","05601"
341799,"PO BOX 253","NEWTON","MS","39345"
341800,"PO BOX 253","NORTH ZULCH","TX","77872"
341801,"PO BOX 253","OCONOMOWOC","WI","53066"
341802,"PO BOX 253","SAN GABRIEL","CA","91778"
341803,"PO BOX 253","SEASIDE","CA","93955"
341804,"PO BOX 253","SIMMS","TX","75574"
341805,"PO BOX 253","TOLEDO","IL","62468"
341806,"PO BOX 253","WINONA LAKE","IN","46590"
341807,"PO BOX 2530","SOUTHFIELD","MI","48037"
341808,"PO BOX 2531","KALAMAZOO","MI","49003"
341809,"PO BOX 2531","PASCO","WA","99302"
341810,"PO BOX 2531","WALLA WALLA","WA","99362"
341811,"PO BOX 25310","HONOLULU","HI","96825"
341812,"PO BOX 2532","BUCKHANNON","WV","26201"
341813,"PO BOX 2532","PALATKA","FL","32177"
341814,"PO BOX 2532","VACAVILLE","CA","95696"
341815,"PO BOX 25325","FRESNO","CA","93729"
341816,"PO BOX 2533","BREMERTON","WA","98310"
341817,"PO BOX 2533","WYLIE","TX","75098"
341818,"PO BOX 2534","CLEVELAND","TN","37320"
341819,"PO BOX 2535","CULVER CITY","CA","90231"
341820,"PO BOX 2535","LONGMONT","CO","80501"
341821,"PO BOX 2536","ORLAND PARK","IL","60462"
341822,"PO BOX 2536","SOUTH PORTLAND","ME","04116"
341823,"PO BOX 2536","STANWOOD","WA","98292"
341824,"PO BOX 25361","FRESNO","CA","93729"
341825,"PO BOX 25364","SEATTLE","WA","98165"
341826,"PO BOX 2537","WATFORD CITY","ND","58854"
341827,"PO BOX 2539","BANNER ELK","NC","28604"
341828,"PO BOX 25395","FRESNO","CA","93729"
341829,"PO BOX 254","BIG BAY","MI","49808"
341830,"PO BOX 254","CHINOOK","WA","98614"
341831,"PO BOX 254","COEUR D ALENE","ID","83816"
341832,"PO BOX 254","GRABILL","IN","46741"
341833,"PO BOX 254","GUTHRIE","OK","73044"
341834,"PO BOX 254","HUGO","MN","55038"
341835,"PO BOX 254","MISSOURI CITY","TX","77489"
341836,"PO BOX 254","NEWBURGH","NY","12551"
341837,"PO BOX 254","OAKLYN","NJ","08107"
341838,"PO BOX 254","PENNSVILLE","NJ","08070"
341839,"PO BOX 254","PLATTSMOUTH","NE","68048"
341840,"PO BOX 254","PRINCESS ANNE","MD","21853"
341841,"PO BOX 254","SIDNEY","IL","61877"
341842,"PO BOX 254","SMITHFIELD","PA","15478"
341843,"PO BOX 254","SOLON SPRINGS","WI","54873"
341844,"PO BOX 254","STANHOPE","NJ","07874"
341845,"PO BOX 254","TENAFLY","NJ","07670"
341846,"PO BOX 254","TILTON","NH","03276"
341847,"PO BOX 254","UNDERHILL","VT","05489"
341848,"PO BOX 2540","EL CENTRO","CA","92244"
341849,"PO BOX 25405","PRESCOTT VALLEY","AZ","86312"
341850,"PO BOX 2541","MURRELLS INLET","SC","29576"
341851,"PO BOX 2541","SANDPOINT","ID","83864"
341852,"PO BOX 2542","ROUND ROCK","TX","78680"
341853,"PO BOX 2543","ARLINGTON","VA","22202"
341854,"PO BOX 2543","INDIAN TRAIL","NC","28079"
341855,"PO BOX 2543","WATERVILLE","ME","04963"
341856,"PO BOX 25463","SCOTTSDALE","AZ","85255"
341857,"PO BOX 25476","RICHMOND","VA","23260"
341858,"PO BOX 2548","POULSBO","WA","98370"
341859,"PO BOX 25483","ALEXANDRIA","VA","22313"
341860,"PO BOX 25484","CHRISTIANSTED","VI","00824"
341861,"PO BOX 255  503 MAIN STREET","MIDLAND","SD","57552"
341862,"PO BOX 255","ARMONA","CA","93202"
341863,"PO BOX 255","BEAVERCREEK","OR","97004"
341864,"PO BOX 255","BLADENSBURG","MD","20710"
341865,"PO BOX 255","BONHAM","TX","75418"
341866,"PO BOX 255","BRIDGETON","NJ","08302"
341867,"PO BOX 255","COAL CITY","WV","25823"
341868,"PO BOX 255","EPHRATA","PA","17522"
341869,"PO BOX 255","FLORENCE","MT","59833"
341870,"PO BOX 255","GILBERTOWN","AL","36908"
341871,"PO BOX 255","GOBELS","MI","49055"
341872,"PO BOX 255","GOBLES","MI","49055"
341873,"PO BOX 255","HERMISTON","OR","97838"
341874,"PO BOX 255","HITCHCOCK","TX","77563"
341875,"PO BOX 255","JACKSONVILLE","NC","28540"
341876,"PO BOX 255","MILTON","WA","98354"
341877,"PO BOX 255","NOWATA","OK","74048"
341878,"PO BOX 255","OXON HILL","MD","20750"
341879,"PO BOX 255","PARSIPPANY","NJ","07054"
341880,"PO BOX 255","REMSEN","IA","51050"
341881,"PO BOX 255","RIDGWAY","CO","81432"
341882,"PO BOX 255","SAN JOSE","CA","95103"
341883,"PO BOX 255","THERESA","NY","13691"
341884,"PO BOX 255095","SACRAMENTO","CA","95865"
341885,"PO BOX 2551","GLENVILLE","NY","12325"
341886,"PO BOX 2551","WAXAHACHIE","TX","75165"
341887,"PO BOX 2552","WEAVERVILLE","CA","96093"
341888,"PO BOX 2553","MORGAN HILL","CA","95037"
341889,"PO BOX 2554","LARGO","FL","33779"
341890,"PO BOX 2554","ROCKVILLE","MD","20852"
341891,"PO BOX 2555","LEBANON","OR","97355"
341892,"PO BOX 2555","ONALASKA","TX","77360"
341893,"PO BOX 2555","WOODBRIDGE","VA","22195"
341894,"PO BOX 25552","FORT WAYNE","IN","46825"
341895,"PO BOX 25553","RICHMOND","VA","23260"
341896,"PO BOX 2556","GULF SHORES","AL","36547"
341897,"PO BOX 2556","SPRING","TX","77383"
341898,"PO BOX 25563","SALT LAKE CITY","UT","84125"
341899,"PO BOX 25567","RICHMOND","VA","23260"
341900,"PO BOX 2557","AUBURN","AL","36831"
341901,"PO BOX 25576","SCOTTSDALE","AZ","85255"
341902,"PO BOX 2558","MERCED","CA","95344"
341903,"PO BOX 2558","PHILADELPHIA","PA","19147"
341904,"PO BOX 256","BOTKINS","OH","45306"
341905,"PO BOX 256","BUCKEYSTOWN","MD","21717"
341906,"PO BOX 256","CHESTERFIELD","VA","23832"
341907,"PO BOX 256","GREENFIELD","NH","03047"
341908,"PO BOX 256","ISANTI","MN","55040"
341909,"PO BOX 256","KECHI","KS","67067"
341910,"PO BOX 256","LA FOLLETTE","TN","37766"
341911,"PO BOX 256","LAUREL","DE","19956"
341912,"PO BOX 256","LEXINGTON","KY","40588"
341913,"PO BOX 256","PALO CEDRO","CA","96073"
341914,"PO BOX 256","POWELL","WY","82435"
341915,"PO BOX 256","RICHLAND","OR","97870"
341916,"PO BOX 256","ROCHESTER","VT","05767"
341917,"PO BOX 256","ROCK HILL","SC","29731"
341918,"PO BOX 256","SAN CARLOS","CA","94070"
341919,"PO BOX 256","SHEPHERD","MT","59079"
341920,"PO BOX 256","SUMMIT","NY","12175"
341921,"PO BOX 256","WHITEHALL","MT","59759"
341922,"PO BOX 25601","COLUMBIA","SC","29224"
341923,"PO BOX 2561","CLARKSVILLE","IN","47129"
341924,"PO BOX 2561","DEARBORN","MI","48123"
341925,"PO BOX 2561","PALM SPRINGS","CA","92263"
341926,"PO BOX 2562","ABILENE","TX","79604"
341927,"PO BOX 2562","CUPERTINO","CA","95015"
341928,"PO BOX 2562","PLATTE CITY","MO","64079"
341929,"PO BOX 25620","GARFIELD HEIGHTS","OH","44125"
341930,"PO BOX 2563","JACKSONVILLE","FL","32203"
341931,"PO BOX 25635","FAYETTEVILLE","NC","28314"
341932,"PO BOX 2565","COLUMBUS","GA","31902"
341933,"PO BOX 25652","CHARLOTTE","NC","28229"
341934,"PO BOX 25653","CHICAGO","IL","60625"
341935,"PO BOX 25657","RICHMOND","VA","23260"
341936,"PO BOX 2566","ELIZABETH","CO","80107"
341937,"PO BOX 25682","CHATTANOOGA","TN","37422"
341938,"PO BOX 25688","SEATTLE","WA","98165"
341939,"PO BOX 257","ACCORD","NY","12404"
341940,"PO BOX 257","BULL SHOALS","AR","72619"
341941,"PO BOX 257","CHESTERFIELD","VA","23832"
341942,"PO BOX 257","COWLEY","WY","82420"
341943,"PO BOX 257","DELAWARE","OH","43015"
341944,"PO BOX 257","JACKSONVILLE","NY","14854"
341945,"PO BOX 257","KING SALMON","AK","99613"
341946,"PO BOX 257","MORLEY","MI","49336"
341947,"PO BOX 257","NEW SPRINGFIELD","OH","44443"
341948,"PO BOX 257","OLYMPIA","WA","98507"
341949,"PO BOX 257","WEST SALEM","OH","44287"
341950,"PO BOX 2570","BRANCHVILLE","NJ","07826"
341951,"PO BOX 2570","DEL MAR","CA","92014"
341952,"PO BOX 2570","IOWA CITY","IA","52244"
341953,"PO BOX 25701","CHRISTIANSTED","VI","00824"
341954,"PO BOX 25705","LITTLE ROCK","AR","72221"
341955,"PO BOX 2572","DESOTO","TX","75123"
341956,"PO BOX 25721","GARFIELD","OH","44125"
341957,"PO BOX 2573","ELIZABETHTOWN","KY","42702"
341958,"PO BOX 25735","RICHMOND","VA","23260"
341959,"PO BOX 2574","INGLEWOOD","CA","90305"
341960,"PO BOX 25749","SILVERTHORNE","CO","80498"
341961,"PO BOX 25749","YUMA","AZ","85367"
341962,"PO BOX 2575","BELLINGHAM","WA","98227"
341963,"PO BOX 2575","KELLER","TX","76244"
341964,"PO BOX 2575","VISALIA","CA","93277"
341965,"PO BOX 25752","SARASOTA","FL","34277"
341966,"PO BOX 257526","CHICAGO","IL","60625"
341967,"PO BOX 25769","WOODBURY","MN","55126"
341968,"PO BOX 2577","AUBURN","AL","36831"
341969,"PO BOX 2577","IDAHO FALLS","ID","83403"
341970,"PO BOX 25772","GARFIELD HEIGHTS","OH","44125"
341971,"PO BOX 25775","TAMARAC","FL","33320"
341972,"PO BOX 2578","LOS LUNAS","NM","87031"
341973,"PO BOX 2578","SOLDOTNA","AK","99669"
341974,"PO BOX 2578","TURLOCK","CA","95381"
341975,"PO BOX 25798","WASHINGTON","DC","20027"
341976,"PO BOX 258","GALLIPOLIS","OH","45631"
341977,"PO BOX 258","GRANVILLE","WV","26534"
341978,"PO BOX 258","SOUTH SHORE","KY","41175"
341979,"PO BOX 258","SOUTH WHITLEY","IN","46787"
341980,"PO BOX 258","SPRINGVILLE","NY","14141"
341981,"PO BOX 258","VIAN","OK","74948"
341982,"PO BOX 258","WAUSAUKEE","WI","54177"
341983,"PO BOX 258078","MADISON","WI","53725"
341984,"PO BOX 2581","COLUMBIA FALLS","MT","59912"
341985,"PO BOX 2581","INVERNESS","FL","34451"
341986,"PO BOX 2581","PAGE","AZ","86040"
341987,"PO BOX 258106","MADISON","WI","53725"
341988,"PO BOX 25811","ALBUQUERQUE","NM","87125"
341989,"PO BOX 25811","COLUMBIA","SC","29223"
341990,"PO BOX 25811","OVERLAND PARK","KS","66225"
341991,"PO BOX 25814","COLUMBIA","SC","29224"
341992,"PO BOX 25816","FRESNO","CA","93729"
341993,"PO BOX 2582","BENTONVILLE","AR","72712"
341994,"PO BOX 2582","HAMILTON","NJ","08619"
341995,"PO BOX 2582","LEESBURG","VA","20177"
341996,"PO BOX 2583","NEW ORLEANS","LA","70176"
341997,"PO BOX 2583","SIOUX FALLS","SD","57101"
341998,"PO BOX 2584","GIG HARBOR","WA","98335"
341999,"PO BOX 2584","MOUNT VERNON","WA","98273"
342000,"PO BOX 25848","TARAMAC","FL","33320"
