"ID","Address","City","State","Zip"
203001,"410 CENTRAL AVENUE SUITE 414","GREAT FALLS","MT","59401"
203002,"410 CLARENDON","EAST LANSING","MI","48823"
203003,"410 COFFMAN LN","OLATHE","CO","81425"
203004,"410 COLLEGE ROAD","BLACKSTONE","VA","23824"
203005,"410 COLORADO AVE","LAUREL","MT","59044"
203006,"410 COTTONWOOD DRIVE","ELKO","NV","89801"
203007,"410 COVINGTON ST","MADISONVILLE","LA","70447"
203008,"410 DAKOTA DR NW","GRAND RAPIDS","MI","49544"
203009,"410 DEER LAKE DRIVE WEST","CARBONDALE","IL","62901"
203010,"410 DEL NORTE AVENUE","YUBA CITY","CA","95991"
203011,"410 DEVON DRIVE","WARRENTON","VA","20186"
203012,"410 DIAMOND ALY","CARNEGIE","PA","15106"
203013,"410 DR MLK JR DRIVE SOUTH","AHOSKIE","NC","27910"
203014,"410 DUSON AVENUE","IOTA","LA","70543"
203015,"410 E 264TH ST","EUCLID","OH","44132"
203016,"410 E BROADWAY 5C","LONG BEACH","NY","11561"
203017,"410 E BUTLER STREET","LEXINGTON","SC","29072"
203018,"410 E DENNY WAY BOX 110","SEATTLE","WA","98122"
203019,"410 E DEPUE AVENUE  STE 210","OLIVIA","MN","56277"
203020,"410 E ELM ST","OFALLON","MO","63366"
203021,"410 E GRAND AVE STE 313","LARAMIE","WY","82070"
203022,"410 E HARRISON AVE","HARLINGEN","TX","78550"
203023,"410 E HEYWOOD STREET","SAN BENITO","TX","78586"
203024,"410 E KENNEDY ST","LEXINGTON","OK","73051"
203025,"410 E MAIN ST","EAST BROOKFIELD","MA","01515"
203026,"410 E MAIN ST","GRANTS PASS","OR","97537"
203027,"410 E MEADOW RD","MURRAY","UT","84107"
203028,"410 E MERRIMAN","WYNNE","AR","72396"
203029,"410 E MONTCASTLE DRIVE APT H","GREENSBORO","NC","27406"
203030,"410 E NORTH STREET","APPLETON","WI","54911"
203031,"410 E ORCHID WAY","HOWEY IN THE HILLS","FL","34737"
203032,"410 E PRINCETON AVE","GILBERT","AZ","85234"
203033,"410 E SANTA CLARA STREET SUITE 111","SAN JOSE","CA","95113"
203034,"410 E SANTA CLARA STREET UNIT 903","SAN JOSE","CA","94113"
203035,"410 E SPRING ST STE B2","COOKEVILLE","TN","38501"
203036,"410 E UNIVERSITY AVE","LAFAYETTE","LA","70503"
203037,"410 EAST 25 STREET   6 J","BROOKLYN","NY","11226"
203038,"410 EAST 54TH STREET","KANSAS CITY","MO","64110"
203039,"410 EAST 57TH STREET APT 3A","NEW YORK","NY","10022"
203040,"410 EAST 9TH STREET APT 2","NEW YORK","NY","10009"
203041,"410 EAST IOWA STREET","HIAWATHA","KS","66434"
203042,"410 EAST MAIN STREET SUITE 202","ELIZABETH CITY","NC","27909"
203043,"410 EAST POPLAR STREET","HAVILAND","KS","67059"
203044,"410 EAST SUTHERLAND","MCPHERSON","KS","67460"
203045,"410 EAST VIRGINIA LANE","MACON","GA","31217"
203046,"410 EASTBURN CT","DARLINGTON","SC","29532"
203047,"410 EASTERN PKWY SUITE 5 A","BROOKLYN","NY","11225"
203048,"410 EDGEWOOD DRIVE","EXTON","PA","19341"
203049,"410 EG RANCH RD","LAREDO","TX","78046"
203050,"410 ETOWAH VALLEY WAY","WOODSTOCK","GA","30189"
203051,"410 EUGENE AVE","RADCLIFFE","IA","50230"
203052,"410 EVA STREET","MONKS CORNER","SC","29461"
203053,"410 EXCHANGE STREET","MILLIS","MA","02054"
203054,"410 FAIRWAY BLUFF DRIVE","WYLIE","TX","75098"
203055,"410 FEMRITE DR","MONONA","WI","53716"
203056,"410 FERNHURST LANE","EVANS","GA","30809"
203057,"410 FIELDSTONE","WINDSOR","CO","80550"
203058,"410 FIFTH AVENUE","HAVRE","MT","59501"
203059,"410 FOREST DRIVE","MAIDEN","NC","28650"
203060,"410 FRANK HALL DR","ALBERT LEA","MN","56007"
203061,"410 GARDENA ST","MICHIGAN CITY","IN","46360"
203062,"410 GATEWOOD ROAD","CHERRY HILL","NJ","08003"
203063,"410 GIBBS LN","GALLATIN","TN","37066"
203064,"410 GRAFTON CT","GREER","SC","29650"
203065,"410 GRAND CYPRESS AVENUE SUITE 203","PALMDALE","CA","93551"
203066,"410 GRANT ST APT D","OCEANSIDE","CA","92054"
203067,"410 GRAY LANE","MOUNT PLEASANT","TN","38474"
203068,"410 HANCOCK AVE","VANDERGRIFT","PA","15690"
203069,"410 HAZEL GROVE LANE","CROZET","VA","22932"
203070,"410 HICKORY ST","BUFFALO","NY","14204"
203071,"410 HIDDEN VALLEY RD","MEDIA","PA","19063"
203072,"410 HOLLOW CREEK ROAD   43","LEXINGTON","KY","40511"
203073,"410 HOLLOW CREEK ROAD 43","LEXINGTON","KY","40511"
203074,"410 HOPKINS STREET","RIO RICO","AZ","85648"
203075,"410 HUNGRY HARBOR ROAD","VALLEY STREAM","NY","11581"
203076,"410 HUSTINGS LANE UNIT E","NEWPORT NEWS","VA","23608"
203077,"410 ICE POND RD","PATTERSON","NY","12563"
203078,"410 JACOLYN DR SW APT 4","CEDAR RAPIDS","IA","52404"
203079,"410 JANE DRIVE","WINDSOR","CA","95492"
203080,"410 JEFFERSON ST","MOAB","UT","84532"
203081,"410 JOSLYN WAY","BATAVIA","IL","60510"
203082,"410 KELSEY ANN COURT","WENTZVILLE","MO","63385"
203083,"410 KERBY STREET APT 234","ARLINGTON","TX","76013"
203084,"410 KUDER ST","EDEN","NC","27288"
203085,"410 KUEHU STREET","KAPOLEI","HI","96707"
203086,"410 LA MIRADA AVENUE","SAN MARINO","CA","91108"
203087,"410 LA POSTA RD","TAO","NJ","87571"
203088,"410 LEXINGTON AVE N","NEW PRAGUE","MN","56071"
203089,"410 LIBERTY STREET","DURHAM","NC","27701"
203090,"410 LINDEN ST","CINCINNATI","OH","45216"
203091,"410 LONGFIELD RD","NEWARK","DE","19713"
203092,"410 LOOP ROAD","REFORM","AL","35481"
203093,"410 MACGREGOR RD","BELGRADER","MT","59714"
203094,"410 MAIN STREET","LONGMONT","CO","80501"
203095,"410 MAIN STREET","RIDGEFIELD","CT","06877"
203096,"410 MANOR DR APT A1","LAWRENCEBURG","TN","38464"
203097,"410 MAPLE RUN DRIVE","ROUND ROCK","TX","78664"
203098,"410 MARBLE CREEK LANE","NICHOLASVILLE","KY","40356"
203099,"410 MARBLE CREEK LN","NICHOLASVILLE","KY","40356"
203100,"410 MARTIN LUTHER KING STREET","SELMA","AL","36701"
203101,"410 MEADOW LANE","PEEBLES","OH","45660"
203102,"410 MEADOWLARK PL","GADSDEN","AL","35903"
203103,"410 MELANIE WAY","MAITLAND","FL","32751"
203104,"410 MELVIN AVE","BALTIMORE","MD","21228"
203105,"410 MERRIMACK STREET APT 1","MANCHESTER","NH","03103"
203106,"410 MESA LILA ROAD","GLENDALE","CA","91208"
203107,"410 MILAN DRIVE UNIT 117","SAN JOSE","CA","95134"
203108,"410 MIRAMAR AVENUE","SAN FRANCISCO","CA","94112"
203109,"410 MISSOURI AVE N","LARGO","FL","33770"
203110,"410 MOLYNEUX STREET","ROCKWOOD","TN","37854"
203111,"410 N 3RD ST","CRAWFORDSVILLE","IN","47933"
203112,"410 N 44TH STREET SUITE 700","PHOENIX","AZ","85008"
203113,"410 N BALL ST SUITE 107","OWOSSO","MI","48867"
203114,"410 N BRATTON ST","DECHERD","TN","37324"
203115,"410 N CLARK ST","OLEAN","NY","14760"
203116,"410 N COURT STREET","CIRCLEVILLE","OH","43113"
203117,"410 N DIVISION STREET","WAUNAKEE","WI","53597"
203118,"410 N FIRST STREET","ARGOS","IN","46501"
203119,"410 N FRANK LUKE DRIVE","SAN ANTONIO","TX","78236"
203120,"410 N GREENWOOD AVE","FORT SMITH","AR","72901"
203121,"410 N MISSOURI AVE","LARGO","FL","33770"
203122,"410 N PARK BOULEVARD","GLEN ELLYN","IL","60137"
203123,"410 N PARK DRIVE","DALTON","GA","30720"
203124,"410 N RAMUNNO DR UNIT 412","MIDDLETOWN","DE","19709"
203125,"410 N RIVER PARK DR","GUTTENBERG","IA","52052"
203126,"410 NACE ROAD","TROUTVILLE","VA","24175"
203127,"410 NATALEN","SAN ANTONIO","TX","78209"
203128,"410 NATURES WAY SW","HUNTSVILLE","AL","35824"
203129,"410 NAVAJO SPRINGS RD","DIAMOND BAR","CA","91765"
203130,"410 NE 28TH TER","MIAMI","FL","33179"
203131,"410 NEFF AVENUE","HARRISONBURG","VA","22801"
203132,"410 NORTH 12TH STREET","RICHMOND","VA","23298"
203133,"410 NORTH 15TH ST","WILMINGTON","NC","28401"
203134,"410 NORTH 18TH STREET","SELINSGROVE","PA","17870"
203135,"410 NORTH A STREET","LAKE WORTH","FL","33460"
203136,"410 NORTH JEFFERSON","MOUNT PLEASANT","TX","75455"
203137,"410 NORTH LOSEY BOULEVARD","LA CROSSE","WI","54601"
203138,"410 NORTH OLIVER AVE","FAYETTEVILLE","AR","72701"
203139,"410 NORTH SAHUARA AVENUE","TUCSON","AZ","85711"
203140,"410 NORTH SARGENT AVENUE APT 3","GLENDIVE","MT","59330"
203141,"410 NORTHWOOD ROAD","WEST PALM BEACH","FL","33407"
203142,"410 NW 11TH ST SUITE 107","GRAND PRAIRIE","TX","75050"
203143,"410 NW 14TH STREET","POMPANO","FL","33060"
203144,"410 OGDEN AVE SUITE 3B","JERSEY CITY","NJ","07307"
203145,"410 OLD COORS DR SW","ALBUQUERQUE","NM","87121"
203146,"410 PARKER KNIGHT ROAD","MIDWAY","FL","32343"
203147,"410 PASTELL LANE","CONSHOHOCKEN","PA","19428"
203148,"410 PATUXENT CT","LAPLATA","MD","20602"
203149,"410 PEACHTREE PARKWAY SUITE 4245","CUMMING","GA","30041"
203150,"410 PEASHWAY","SOUTH BEND","IN","46617"
203151,"410 PENDLETON WAY SUITE 2","OAKLAND","CA","94621"
203152,"410 PETER PAN RD STE B","INDEPENDENCE","KS","67301"
203153,"410 PICKFORD DRIVE","KATY","TX","77450"
203154,"410 PINE ST SE STE 320","VIENNA","VA","22180"
203155,"410 PINEWOOD AVE","KANNAPOLIS","NC","28081"
203156,"410 PRIMROSE LANE","MONETT","MO","65708"
203157,"410 PROFT PLACE","COLUMBIA HEIGHTS","MN","55421"
203158,"410 PROSPECT AVE","MT VERNON","NY","10553"
203159,"410 QUAIL RIDGE DRIVE","PLAINSBORO","NJ","08536"
203160,"410 QUAIL RIDGE LN","DICKINSON","TX","77539"
203161,"410 QUARRY PLACE","QUARRYVILLE","PA","17566"
203162,"410 RANGER DR SE","LACEY","WA","98503"
203163,"410 REEDSIDE DR","FANCY GAP","VA","24328"
203164,"410 RICHMOND HILL ROAD APT 3A","STATEN ISLAND","NY","10314"
203165,"410 RIDGE DR","VICTORIA","TX","77904"
203166,"410 RIVER RD","DECATUR","TN","37322"
203167,"410 ROSEDALE COURT SUITE 190","WARRENTON","VA","20186"
203168,"410 ROSEDALE COURT","WARRENTON","VA","20187"
203169,"410 RUSSELL PL","ELIZABETH","NJ","07202"
203170,"410 S 20TH STREET","COLLINSVILLE","OK","74021"
203171,"410 S 2ND AVE W","NEWTON","IA","50208"
203172,"410 S 300 E","AMERICAN FORK","UT","84003"
203173,"410 S BIBB AVE STE 1453","EAGLE PASSS","TX","78853"
203174,"410 S CEDAR AVENUE","TAMPA","FL","33606"
203175,"410 S CEDAR ST STE A","LANSING","MI","48912"
203176,"410 S DEEPWOOD DR","RADCLIFF","KY","40160"
203177,"410 S FAIRVIEW AVENUE","PARK RIDGE","IL","60068"
203178,"410 S JACKSON STREET","JACKSON","MI","49201"
203179,"410 S MAIN ST","LOMBARD","IL","60148"
203180,"410 S MAIN ST","WAYLAND","MI","49348"
203181,"410 S MCKINLEY","ALBANY","GA","31701"
203182,"410 S MICHIGAN AVE STE 727","CHICAGO","IL","60605"
203183,"410 S ORCHARD ST SUITE 164","BOISE","ID","83705"
203184,"410 S ORCHARD ST","BOISE","ID","83705"
203185,"410 S PHILADELPHIA ST","AMARILLO","TX","79104"
203186,"410 S PROCTOR KNOTT AVE","LEBANON","KY","40033"
203187,"410 S RAMPART BLVD STE 390","LAS VEGAS","NV","89145"
203188,"410 S SUNRISE DR","GILBERT","AZ","85233"
203189,"410 S WEST DR","LEANDER","TX","78641"
203190,"410 S WEST ST","ODON","IN","47562"
203191,"410 SABAL PALM LN","PEARLAND","TX","77584"
203192,"410 SAINT NICHOLAS AVE APT 9F","NEW YORK","NY","10027"
203193,"410 SAINT PHILIP STREET SUITE A","THIBODAUX","LA","70301"
203194,"410 SE 3RD ST","HALLANDALE BCH","FL","33009"
203195,"410 SE ARTER ST","TOPEKA","KS","66612"
203196,"410 SE BRENTWOOD DR","LEES SUMMIT","MO","64063"
203197,"410 SE C ST APT B","BENTONVILLE","AR","72712"
203198,"410 SE THIRD STREET PO BOX 126","EAGLE GROVE","IA","50533"
203199,"410 SHORT AVE","SUN VALLEY","NV","89433"
203200,"410 SIBLEY PARKWAY APT 313","MANKATO","MN","56001"
203201,"410 SILK COURT","AKRON","OH","44319"
203202,"410 SOLOMON STREET","GREENVILLE","MS","38703"
203203,"410 SOMERSET DR","MONROE","LA","71203"
203204,"410 SOUTH 16 STREET","WILMINGTON","NC","28401"
203205,"410 SOUTH 21ST STREET","TERRE HAUTE","IN","47803"
203206,"410 SOUTH AUSTIN STREET","ROCKPORT","TX","78382"
203207,"410 SOUTH BROADWAY","GLASGOW","KY","42141"
203208,"410 SOUTH GOLDSBORO STREET","FREMONT","NC","27530"
203209,"410 SOUTH HICKORY","OTTAWA","KS","66067"
203210,"410 SOUTH ORCHARD AVE STE 128","BOISE","ID","83705"
203211,"410 SOUTH RAMPART BLVD SUITE 390","LAS VEGAS","NV","89145"
203212,"410 SOUTHWEST 18TH STREET","FORT LAUDERDALE","FL","33315"
203213,"410 SPYGLASS","MCQUEENEY","TX","78123"
203214,"410 STABLEFORD COURT","ATHENS","GA","30607"
203215,"410 STATE ST","MANTON","MA","49663"
203216,"410 STATE STREET SUITE 7","NORTH HAVEN","CT","06473"
203217,"410 STONE ROAD","ROCHESTER","NY","14616"
203218,"410 STONEHEDGE DR","GRAHAM","NC","27253"
203219,"410 SUMMERHAVEN DR","DEBARY","FL","32713"
203220,"410 SUSSEX AVENUE","SEAFORD","DE","19973"
203221,"410 SW RYDER RD","PORT ST LUCIE","FL","34953"
203222,"410 TENNYSON ROAD","WILMER","TX","75172"
203223,"410 THORNTON AVENUE","SAN FRANCISCO","CA","94124"
203224,"410 THUNDER SWAMP ROAD","MOUNT OLIVE","NC","28365"
203225,"410 TIFFT AVE","HORSEHEADS","NY","14845"
203226,"410 TITUS AVENUE","ROCHESTER","NY","14617"
203227,"410 TRIPLE CREEK TRAIL","FAYETTEVILLE","GA","30214"
203228,"410 VIA MESA GRANDE","REDONDO BEACH","CA","90277"
203229,"410 W 7TH ST - SUITE 1425","TULSA","OK","74119"
203230,"410 W AUSTIN","JEFFERSON","TX","75657"
203231,"410 W COAL AVENUE","MCALESTER","OK","74501"
203232,"410 W COUNTY ROAD B","ROSEVILLE","MN","55113"
203233,"410 W HANSSLER PL","PEORIA","IL","61604"
203234,"410 W LAKE ST APT 212","MINNEAPOLIS","MN","55408"
203235,"410 W LEHIGH STREET APT 10","BETHLEHEM","PA","18018"
203236,"410 W MAIN STREET STE C","LAKE BUTLER","FL","32054"
203237,"410 W MUIR AVE","HAZEL PARK","MI","48030"
203238,"410 W UNION AVENUE","CEDAR GROVE","WI","53013"
203239,"410 W UNIVERSITY DR    SUITE 200","ROCHESTER","MI","48307"
203240,"410 W UNIVERSITY DR SUITE 200","ROCHESTER","MI","48307"
203241,"410 WASHINGTON BLVD","MONTEBELLO","CA","90640"
203242,"410 WASSERGASS RD","HELLERTOWN","PA","18055"
203243,"410 WEST  ROOSEVELT AVE","ALBANY","GA","31701"
203244,"410 WEST 149TH STREET","NEW YORK","NY","10031"
203245,"410 WEST 23RD STREET 6F","NEW YORK","NY","10011"
203246,"410 WEST 24TH STREET","RIVIERA BEACH","FL","33404"
203247,"410 WEST GRANT ST","CARLTON","OR","97111"
203248,"410 WEST JEFFERSON STREET","LAGRANGE","KY","40031"
203249,"410 WEST MAIN","IONIA","MI","48846"
203250,"410 WEST PROVIDENCE ROAD","ALDAN","PA","19018"
203251,"410 WEST RIDGEWAY AVENUE","FLINT","MI","48505"
203252,"410 WEST WOOD ST","VINELAND","NJ","08360"
203253,"410 WESTWOOD DR","COFFEYVILLE","KS","67337"
203254,"410 WHISTLER COVE","FRANKLIN","TN","37067"
203255,"410 WILMA CIRCLE","RIVIERA BEACH","FL","33404"
203256,"410 WILTON ROAD WEST","RIDGEFIELD","CT","06877"
203257,"410 WYNFIELD DRIVE","TYRONE","GA","30290"
203258,"410","BATLIC","SD","57003"
203259,"4100 14TH AVE SOUTH","SAINT PETERSBURG","FL","33711"
203260,"4100 15TH AVENUE WYLAM","BIRMINGHAM","AL","35224"
203261,"4100 AGUA VISTA CT","BOWIE","MD","20721"
203262,"4100 ALTON ROAD","LOUISVILLE","KY","40207"
203263,"4100 BAYPORT PL SE","MANDAN","ND","58554"
203264,"4100 BRIARCLIFF RD","KANSAS CITY","MO","64116"
203265,"4100 BRIGHTMORE DRIVE","AUSTELL","GA","30106"
203266,"4100 BRONCO LANE","ZACHARY","LA","70791"
203267,"4100 CARL STREET","DALLAS","TX","75210"
203268,"4100 CARMEL RD SUITE B313","CHARLOTTE","NC","28226"
203269,"4100 CARMEL ROAD - SUITE 135B","CHARLOTTE","NC","28226"
203270,"4100 CENTRAL PIKE - UNIT 1015","HERMITAGE","TN","37076"
203271,"4100 CLARKSVILLE HWY","NASHVILLE","TN","37218"
203272,"4100 CORPORATE SQ STE 135","NAPLES","FL","34104"
203273,"4100 CORPORATE SQ STE 172","NAPLES","FL","34104"
203274,"4100 CORTO ST","HOUSTON","TX","77016"
203275,"4100 EAST CAPITOL ST NE APT D-44","WASHINGTON","DC","20019"
203276,"4100 EDISON LAKES PKWY STE 300","MISHAWAKA","IN","46545"
203277,"4100 ELDORADO PARKWAY UNIT 100346","MCKINNEY","TX","75070"
203278,"4100 ELDORADO PARKWAY","MCKINNEY","TX","75070"
203279,"4100 ELDORADO PKWY STE 100 BOX 218","MCKINNEY","TX","75070"
203280,"4100 ELDORADO PKWY SUITE 100","MCKINNEY","TX","75070"
203281,"4100 EMILIO LANE","JACKSONVILLE","FL","32226"
203282,"4100 ESTEY AVE","NAPLES","FL","34104"
203283,"4100 EVANS AVE SUITE 16","FORT  MYERS","FL","33901"
203284,"4100 EVANS AVE UNIT 2","FORT MYERS","FL","33901"
203285,"4100 EVANS AVE","FORT MYERS","FL","33916"
203286,"4100 FIELD OAK DRIVE","WAKE FOREST","NC","27587"
203287,"4100 FIVE OAKS DRIVE UNIT 31","DURHAM","NC","27707"
203288,"4100 FIVE OAKS DRIVE UNIT 6","DURHAM","NC","27707"
203289,"4100 GALLATREE LANE","RALEIGH","NC","27616"
203290,"4100 GREYSTONE DR","BIRMINGHAM","AL","35242"
203291,"4100 HOPE VALLEY LN","GREENSBORO","NC","27401"
203292,"4100 INTERNATIONAL PLAZA STE 750","FORT WORTH","TX","76109"
203293,"4100 ISLAND BLVD APT 2304","AVENTURA","FL","33160"
203294,"4100 JULIANTOWN ROAD","LETOHATCHEE","AL","36047"
203295,"4100 LOSTON CT UNIT 304","FAIRFAX","VA","22033"
203296,"4100 MAIN ST","ANDERSON","IN","46013"
203297,"4100 MAXWELL RD","ANTIOCH","TN","37013"
203298,"4100 MCCOMAS ROAD","HALTOM CITY","TX","76117"
203299,"4100 MCNIEL AVE","WICHITA FALLS","TX","76308"
203300,"4100 MIDDLE ROAD","ALLISON PARK","PA","15101"
203301,"4100 MONUMENT CORNER DRIVE","FAIRFAX","VA","22030"
203302,"4100 N 34TH ST","MCALLEN","TX","78504"
203303,"4100 N GRANTLAND AVE","FRESNO","CA","93722"
203304,"4100 N MAIN STREET STE 103","COLUMBIA","SC","29203"
203305,"4100 N PRIEUR ST","NEW ORLEANS","LA","70117"
203306,"4100 N WICKHAM RD UNIT 107A PMB 181","PALM BAY","FL","32935"
203307,"4100 NC HIGHWAY 212","MARSHALL","NC","28753"
203308,"4100 NEBRASKA AVE NORTH","NASHVILLE","TN","37209"
203309,"4100 NEWPORT PLACE DR SUITE 770","NEWPORT BEACH","CA","92660"
203310,"4100 NORTH MAIN SUITE 203","COLUMBIA","SC","29203"
203311,"4100 OLD GETTYSBURG RD","CAMP HILL","PA","17011"
203312,"4100 PAYNE AVE","CLEVELAND","OH","44103"
203313,"4100 PENHURST AVE","BALTIMORE","MD","21215"
203314,"4100 PETTER RAINOSEK LOOP","LA GRANGE","TX","78945"
203315,"4100 POMPANO DRIVE SOUTHEAST","ST. PETERSBURG","FL","33705"
203316,"4100 POPLAR BRIDGE ROAD","BLOOMINGTON","MN","55437"
203317,"4100 REDWOOD RD 10-402","OAKLAND","CA","94619"
203318,"4100 REDWOOD ROAD 20A-616","OAKLAND","CA","94619"
203319,"4100 REDWOOD ROAD-202","OAKLAND","CA","94619"
203320,"4100 RIVER WOODS DRIVE","AUBURN","CA","95602"
203321,"4100 S THIRD AVE UNIT A","EVERETT","WA","98203"
203322,"4100 SAGE MEADOWS BLVD","JONESBORO","AR","72401"
203323,"4100 SALZEDO ST UNIT 1","CORAL GABLES","FL","33146"
203324,"4100 SARDIS ROAD","MURRYSVILLE","PA","15668"
203325,"4100 SOMERSET ROAD","LONDON","KY","40741"
203326,"4100 Spring Valley Road Suite 162","Dallas","TX","75244"
203327,"4100 SPRING VALLEY ROAD SUITE 162","DALLAS","TX","75244"
203328,"4100 SULLIVANT AVE","COLUMBUS","OH","43228"
203329,"4100 TESS LANE","YPSILANTI","MI","48197"
203330,"4100 THOMPSONDALE RD","COOPERSBURG","PA","18036"
203331,"4100 UNIVERSITY DR MAILBOX NO 124","HOUSTON","TX","77204"
203332,"4100 UNIVERSITY DRIVE CA BOX 100","HOUSTON","TX","77204"
203333,"4100 UNIVERSITY DRIVE","HOUSTON","TX","77204"
203334,"4100 W 1ST  STREET APT 207","LOS ANGELES","CA","90004"
203335,"4100 W 6TH STREET","LAWRENCE","KS","66049"
203336,"4100 W ELDORADO PKWY SUITE 100","MCKINNEY","TX","75070"
203337,"4100 W MADISON","CHICAGO","IL","60624"
203338,"4100 W OGDEN","CHICAGO","IL","60623"
203339,"4100 WAGON WHEEL ROAD","SPRINGDALE","AR","72762"
203340,"4100 WALLACESHIRE","COLLEGE STATION","TX","77845"
203341,"4100 WEDDINGTON RD","CONCORD","NC","28027"
203342,"4100 WEDDINGTON ROAD","CONCORD","NC","28027"
203343,"4100 WEST ELY RD","HANNIBAL","MO","63401"
203344,"4100 WEST FLAMINGO RD 2750","LAS VEGAS","NV","89107"
203345,"4100 WEST GRACE STREET","RICHMOND","VA","23230"
203346,"4100 WEST KENNEDY BLVD SUITE 326","TAMPA","FL","33609"
203347,"4100 WEST ODGEN AVENUE","CHICAGO","IL","60623"
203348,"4100 WESTBANK DR","AUSTIN","TX","78746"
203349,"4100 WOODWARD AVE STE 4","DETROIT","MI","48201"
203350,"4100 WOODWILLOW LANE","ELK GROVE","CA","95758"
203351,"4100 XAVIER STREET","DENVER","CO","80212"
203352,"4100","WESTON","FL","33331"
203353,"41000 WOODWARD AVE 350","BLOOMFIELD HILLS","MI","48304"
203354,"41000 WOODWARD AVE STE 201","BLOOMFIELD HILLS","MI","48304"
203355,"41000 WOODWARD AVENUE SUITE 350","BLOOMFIELD HILLS","MI","48304"
203356,"41008 43RD ST W","PALDALE","CA","93551"
203357,"4101 1/2 AVENUE H","AUSTIN","TX","78751"
203358,"4101 1/2 AVENUE H","TEXAS","TX","78751"
203359,"4101 178TH STREET","COUNTRY CLUB HILLS","IL","60478"
203360,"4101 27TH AVE","MERIDIAN","MS","39305"
203361,"4101 ALTON STREET","CAPITOL HEIGHTS","MD","20743"
203362,"4101 AMHERST ST","DES MOINES","IA","50310"
203363,"4101 BAYARD","CLEVELAND","OH","44121"
203364,"4101 BEACON AVE SOUTH","SEATTLE","WA","98108"
203365,"4101 BENNINGTON ST","HOUSTON","TX","77016"
203366,"4101 BIG FISH LAKE RD","ORTONVILLE","MI","48462"
203367,"4101 BROWNDS POINT BLVD","TACOMA","WA","98422"
203368,"4101 CADILLAC CT","LOUISVILLE","KY","40213"
203369,"4101 CLIFFS EDGE LANE","LOUISVILLE","KY","40241"
203370,"4101 COLONY DR","HATBORO","PA","19040"
203371,"4101 COVE POINT DRIVE","MORGANTOWN","WV","26508"
203372,"4101 CRESSIDA PLACE","WOODBRIDGE","VA","22192"
203373,"4101 CUSTER RD 12210","MCKINNEY","TX","75070"
203374,"4101 DAVIE ROAD EXTENSION","HOLLYWOOD","FL","33024"
203375,"4101 DEEP STONE CT","COLLEGE STATION","TX","77845"
203376,"4101 DOWDELL STREET","FORT WORTH","TX","76119"
203377,"4101 DUBLIN BLVD   SUITE F BOX 505","DUBLIN","CA","94568"
203378,"4101 DUBLIN BLVD STE F 213","DUBLIN","CA","94568"
203379,"4101 DUBLIN BLVD SUITE F","DUBLIN","CA","94568"
203380,"4101 E MARIETTA ST","DECATUR","IL","62526"
203381,"4101 E SHEENA DR","PHOENIX","AZ","85032"
203382,"4101 E VALENCIA ROAD","TUCSON","AZ","85706"
203383,"4101 EAST ALAN LANE","PHOENIX","AZ","85028"
203384,"4101 FIVE OAKS WAY","TUCKER","GA","30084"
203385,"4101 FM 744","CORSICANA","TX","75110"
203386,"4101 FOREST DRIVE","WESTON","FL","33332"
203387,"4101 GULF SHORE BLVD N PH 5","NAPLES","FL","34103"
203388,"4101 HENDERSON ROAD","BYRAM","MS","39272"
203389,"4101 HOLSTON DR","KNOXVILLE","TN","37914"
203390,"4101 HOOVER AVE","PLOVER","WI","54467"
203391,"4101 INNOVATOR DRIVE APT 1421","SACRAMENTO","CA","95834"
203392,"4101 LACLEDE AVENUE 511","SAINT LOUIS","MO","63108"
203393,"4101 LAS POSAS  ROAD","CAMARILLO","CA","93010"
203394,"4101 LLOYD NOLAND PARKWAY","FAIRFIELD","AL","35064"
203395,"4101 LOWER BEAVER ROAD","DES MOINES","IA","50310"
203396,"4101 MARICITE ST SE","LACEY","WA","98503"
203397,"4101 MARISSA LANE","PLANO","TX","75024"
203398,"4101 MATTHEW DRIVE","RACINE","WI","53402"
203399,"4101 MCEWEN DRIVE STE 439","DALLAS","TX","75287"
203400,"4101 MEADOWRIDGE DR","CHARLOTTE","NC","28226"
203401,"4101 N 4TH STREET APT 4","ARLINGTON","VA","22203"
203402,"4101 N 50TH STREET","SHEBOYGAN","WI","53083"
203403,"4101 N 6TH STREET","HARRISBURG","PA","17001"
203404,"4101 N CLASSEN BLVD STE B","OKLAHOMA CITY","OK","73118"
203405,"4101 N GRAND BLVD","PEORIA","IL","61614"
203406,"4101 NE 26 AVENUE","LIGHTHOUSE POINT","FL","33064"
203407,"4101 NE TERRACE DRIVE","NEWBERG","OR","97132"
203408,"4101 NORBECK ROAD","ROCKVILLE","MD","20853"
203409,"4101 NW EXPRESSWAY 16156","OKLAHOMA CITY","OK","73116"
203410,"4101 OHIO AVE","TAMPA","FL","33616"
203411,"4101 OLD MANCHESTER CT","MASON","OH","45040"
203412,"4101 PARK LAKE ST","ORLANDO","FL","32803"
203413,"4101 ROCKFORD LANE SUITE C","AUSTIN","TX","78759"
203414,"4101 ROSEMEAD BLVD","PICO RIVEA","CA","90660"
203415,"4101 S MICHIGAN AVE U-307","CHICAGO","IL","60653"
203416,"4101 SENECA","FORT COLLINS","CO","80526"
203417,"4101 SEQUOIA TRL W","GEORGETOWN","TX","78628"
203418,"4101 SHADY BROOK PASS","COLLEGE STATION","TX","77845"
203419,"4101 SNEED ROAD","NASHVILLE","TN","37215"
203420,"4101 SOUTH CUSTER ROAD APT 132","MCKINNEY","TX","75070"
203421,"4101 SPRING GROVE AVE UNIT 105","CINCINNATI","OH","45223"
203422,"4101 TATES CREEK CENTRE DRIVE","LEXINGTON","KY","40517"
203423,"4101 THOMPSON ROAD","FORT WORTH","TX","76137"
203424,"4101 THOMPSON ROAD","FORT WORTH","TX","76244"
203425,"4101 TUMBLEWEED TRAIL","LOVES PARK","IL","61111"
203426,"4101 W ALAMEDA AVENUE","BURBANK","CA","91505"
203427,"4101 W GREEN OAKS 3-5-449","ARLINGTON","TX","76016"
203428,"4101 W GREEN OAKS 305-124","ARLINGTON","TX","76016"
203429,"4101 W GREEN OAKS BLVD STE 305-482","ARLINGTON","TX","76016"
203430,"4101 W GREEN OAKS BLVD","ARLINGTON","TX","76016"
203431,"4101 W GREEN OAKS NUMBER 305-223","ARLINGTON","TX","76016"
203432,"4101 W HARDY RD","TUCSON","AZ","85742"
203433,"4101 W SPRING CREEK PKWY SUITE 200","PLANO","TX","75024"
203434,"4101 WALDERBROOK CT","NORTH CHESTERFIELD","VA","23234"
203435,"4101 WEYMOUTH DRIVE SE","GRAND RAPIDS","MI","49508"
203436,"41011 CHAMBORD DRIVE","LAKE ELSINORE","CA","92532"
203437,"41012 SUNSPRITE ST","LAKE ELSINORE","CA","92532"
203438,"41019 HALO DR","UMATILLA","FL","32784"
203439,"4102 33RD STREET","MT. RAINIER","MD","20712"
203440,"4102 CHARTER OAK COURT APT 105","TAMPA","FL","33610"
203441,"4102 CHINKAPIN OAK","SAN ANTONIO","TX","78223"
203442,"4102 COLONEL VANDERHORST CIRCLE","MOUNT PLEASANT","SC","29466"
203443,"4102 CYNTHIA LN","WICHITA FALLS","TX","76032"
203444,"4102 DORCHESTER ROAD","BALTIMORE","MD","21207"
203445,"4102 E TREMONT AVE","BRONX","NY","10465"
203446,"4102 EDWARDS WAY","NEW BERN","NC","28562"
203447,"4102 EMERALD LN","FRESNO","TX","77545"
203448,"4102 GERMANTOWN AVENUE","PHILADELPHIA","PA","19140"
203449,"4102 ILLINOIS AVENUE NW","WASHINGTON","MD","20011"
203450,"4102 MARTINA DRIVE","ROCKFORD","IL","61114"
203451,"4102 NORTH 42ND STREET","MILWAUKEE","WI","53216"
203452,"4102 PINION DRIVE SUITE 4030","USAF ACADEMY","CO","80840"
203453,"4102 RIVER FOREST DRIVE","RICHMOND","TX","77406"
203454,"4102 RIVULET CT","LOUISVILLE","KY","40299"
203455,"4102 S NEW BRAUNFELS STE 110 174","SAN ANTONIO","TX","78223"
203456,"4102 SKYLINE DR","FARMINGTON","NM","87401"
203457,"4102 STAGHORN CORAL","HOUSTON","TX","77045"
203458,"4102 SW 99TH AVE","JASPER","FL","32052"
203459,"4102 TRENTON WAY","MARTINEZ","GA","30907"
203460,"4102 VETERANS DR","PEARLAND","TX","77584"
203461,"4102 W OSBORN RD","PHOENIX","AZ","85019"
203462,"4102 W WOODSIDE AVE","SPOKANE","WA","99208"
203463,"4102 WALNUT RD","TEMPLE","TX","76502"
203464,"4102 WEST FAIRMONT AVE  APT 6","MILWAUKEE","WI","53209"
203465,"4103 18TH STREET NW","WASHINGTON","DC","20011"
203466,"4103 54 STREET","BLADENSBURG","MD","20710"
203467,"4103 BREAKWOOD DRIVE","HOUSTON","TX","77025"
203468,"4103 CACTUS OAK ROAD","SAN ANTONIO","TX","78251"
203469,"4103 CEDAR CIRCLE","TAMPA","FL","33620"
203470,"4103 CHESTER BAY LN","MISSOURI CITY","TX","77459"
203471,"4103 COLONY DRIVE","HATBORO","PA","19040"
203472,"4103 EAST MONTGOMERY ROAD","CAVE CREEK","AZ","85331"
203473,"4103 FISHER LAKE DRIVE","RICHMOND","TX","77406"
203474,"4103 GLASS LANTERN DRIVE","N. LAS VEGAS","NV","89032"
203475,"4103 LEDGESTONE DRIVE","TROY","MI","48098"
203476,"4103 MERRICK STREET","HOUSTON","TX","77025"
203477,"4103 MINERS WAY","SELLERSBURG","IN","47172"
203478,"4103 OAKFORD AVENUE","BALTIMORE","MD","21215"
203479,"4103 PRICES DISTILLERY RD","IJAMSVILLE","MD","21754"
203480,"4103 PRIMROSE AVE","GREENSBORO","NC","27455"
203481,"4103 SPRINGOAK LN","POWDER SPRINGS","GA","30127"
203482,"4103 TARA AVE APT 1","LAS VEGAS","NV","89102"
203483,"4103 VERBENA DRIVE","MOODY","AL","35004"
203484,"4103 VINESHIRE DRIVE","COLUMBUS","OH","43227"
203485,"4103 W SLAUGHTER LANE","AUSTIN","TX","78749"
203486,"4103 WINDER HWY UNIT 7178","CHESTNUT MTN","GA","30502"
203487,"4104 25TH AVE","TEMPLE HILLS","MD","20748"
203488,"4104 4TH ST N APT 4","ARLINGTON","VA","22203"
203489,"4104 BARNETT DRIVE","PLANO","TX","75024"
203490,"4104 BEECH STREET APT 206","LARAMIE","WY","82072"
203491,"4104 BIRCHWOOD COURT","NORTH BRUNSWICK","NJ","08902"
203492,"4104 CORONET LANE","ARLINGTON","TX","76017"
203493,"4104 E 4TH PLACE","TULSA","OK","74112"
203494,"4104 E ELLICOTT STREET","TAMPA","FL","33610"
203495,"4104 HALTON RD","HALTON CITY","TX","76117"
203496,"4104 JUNIPER CT","RALEIGH","NC","27612"
203497,"4104 N HIGHLAND AVE","ARLINGTON HEIGHTS","IL","60004"
203498,"4104 N MURRAY DRIVE","OTIS ORCHARDS","WA","99027"
203499,"4104 OAKLEY PEBBLE RD","OWINGSVILLE","KY","40360"
203500,"4104 ORANGE ST","NORTH LITTLE ROCK","AR","72118"
