"ID","Address","City","State","Zip"
348501,"PO BOX 418","SOUTH BOSTON","VA","24592"
348502,"PO BOX 418","TRACY CITY","TN","37387"
348503,"PO BOX 418","VICTOR","CA","95253"
348504,"PO BOX 418","VINE GROVE","KY","40175"
348505,"PO BOX 418","WAXHAW","NC","28173"
348506,"PO BOX 418","WEST SPRINGFIELD","MA","01090"
348507,"PO BOX 418","WESTFIELD","IN","46074"
348508,"PO BOX 4181","HAMDEN","CT","06514"
348509,"PO BOX 4182","CLIFTON PARK","NY","12065"
348510,"PO BOX 41826","NASHVILLE","TN","37204"
348511,"PO BOX 4183","SUNNYSIDE","NY","11104"
348512,"PO BOX 41831","SACRAMENTO","CA","95841"
348513,"PO BOX 418340","SACRAMENTO","CA","95841"
348514,"PO BOX 4184","DALLAS","TX","75208"
348515,"PO BOX 4184","ENGLEWOOD","CO","80155"
348516,"PO BOX 4185","GALLUP","NM","87305"
348517,"PO BOX 4185","WHITEFISH","MT","59937"
348518,"PO BOX 4186","BERKELEY","CA","94704"
348519,"PO BOX 41862","TUCSON","AZ","85717"
348520,"PO BOX 41866","NASHVILLE","TN","37204"
348521,"PO BOX 419","FILLMORE","CA","93016"
348522,"PO BOX 419","LISLE","IL","60532"
348523,"PO BOX 419","MORRILTON","AR","72110"
348524,"PO BOX 419","OAKDALE","NY","11769"
348525,"PO BOX 419","PALMER","AK","99645"
348526,"PO BOX 419","ROSELAND","NJ","07068"
348527,"PO BOX 419","WESTFIELD","IN","46074"
348528,"PO BOX 4191","BRANDON","FL","33509"
348529,"PO BOX 4191","DEDHAM","MA","02027"
348530,"PO BOX 4191","PENSACOLA","FL","32507"
348531,"PO BOX 4191","TELLURIDE","CO","81435"
348532,"PO BOX 4192","GLEN ALLEN","VA","23058"
348533,"PO BOX 4193","ATLANTA","GA","30302"
348534,"PO BOX 4193","AUBURN","CA","95604"
348535,"PO BOX 4194","KANEOHE","HI","96744"
348536,"PO BOX 4195","NEW YORK","NY","10163"
348537,"PO BOX 4196","CHESTER","NC","23831"
348538,"PO BOX 41987","FREDERICKSBURG","VA","22404"
348539,"PO BOX 41990","BATON ROUGE","LA","70835"
348540,"PO BOX 42","ALVIN","TX","77512"
348541,"PO BOX 42","BOILING SPRINGS","PA","17007"
348542,"PO BOX 42","BORON","CA","93516"
348543,"PO BOX 42","CONLEY","GA","30288"
348544,"PO BOX 42","DALEVILLE","VA","24083"
348545,"PO BOX 42","DANBURY","NC","27016"
348546,"PO BOX 42","ELMHURST","IL","60126"
348547,"PO BOX 42","FARWELL","TX","79325"
348548,"PO BOX 42","FREWSBURG","NY","14738"
348549,"PO BOX 42","GARY","SD","57237"
348550,"PO BOX 42","GLOUCESTER CITY","NJ","08030"
348551,"PO BOX 42","HARDIN","MT","59034"
348552,"PO BOX 42","HIBBING","MN","55746"
348553,"PO BOX 42","HONEY GROVE","TX","75446"
348554,"PO BOX 42","ITHACA","MI","48847"
348555,"PO BOX 42","JEFFERSON CITY","MT","59638"
348556,"PO BOX 42","KIPLING","NC","27543"
348557,"PO BOX 42","LADYSMITH","WI","54848"
348558,"PO BOX 42","LATHROP","MO","64465"
348559,"PO BOX 42","LITTLETON","CO","80160"
348560,"PO BOX 42","LUBEC","ME","04652"
348561,"PO BOX 42","MARENGO","IL","60152"
348562,"PO BOX 42","MERTZON","TX","76941"
348563,"PO BOX 42","MILL CITY","OR","97360"
348564,"PO BOX 42","MILTON","NY","12547"
348565,"PO BOX 42","MONKTON","MD","21111"
348566,"PO BOX 42","MOUNT MORRIS","NY","14510"
348567,"PO BOX 42","NEW BREMEN","OH","45869"
348568,"PO BOX 42","NUTLEY","NJ","07110"
348569,"PO BOX 42","OAKLAND CITY","IN","47660"
348570,"PO BOX 42","PLYMPTON","MA","02367"
348571,"PO BOX 42","POINT ROBERTS","WA","98281"
348572,"PO BOX 42","PRATHER","CA","93651"
348573,"PO BOX 42","PUTNAM VALLEY","NY","10579"
348574,"PO BOX 42","TABOR","IA","51653"
348575,"PO BOX 42","TIMBERLAKE","NC","27583"
348576,"PO BOX 42","WARRENTON","NC","27589"
348577,"PO BOX 42","WATERFORD","CT","06385"
348578,"PO BOX 42","WYLIE","TX","75098"
348579,"PO BOX 42","WYOMING","RI","02898"
348580,"PO BOX 420","CHEROKEE VILLAGE","AR","72525"
348581,"PO BOX 420","PLEASENT PLAINS","AR","72568"
348582,"PO BOX 420","POWDER SPRINGS","GA","30127"
348583,"PO BOX 420","SEBAGO","ME","04029"
348584,"PO BOX 4200","KANEOHE","HI","96744"
348585,"PO BOX 42001","CHARLOTTE","NC","28215"
348586,"PO BOX 42006","MIDDLEBURG HTS","OH","44142"
348587,"PO BOX 42031-179","LUBBOCK","TX","79409"
348588,"PO BOX 4204","CANTON","GA","30114"
348589,"PO BOX 4204","WOODBRIDGE","VA","22194"
348590,"PO BOX 42051 - 135","LUBBOCK","TX","79409"
348591,"PO BOX 42051","EUGENE","OR","97404"
348592,"PO BOX 420566","MIAMI","FL","33242"
348593,"PO BOX 42066","MESA","AZ","85274"
348594,"PO BOX 420665","KISSIMMEE","FL","34742"
348595,"PO BOX 42071","CINCINNATI","OH","45242"
348596,"PO BOX 420831","DEL RIO","TX","78842"
348597,"PO BOX 421","ABILENE","KS","67410"
348598,"PO BOX 421","ANDERSON","MO","64831"
348599,"PO BOX 421","ARAPAHO","OK","73620"
348600,"PO BOX 421","ASHLAND","MA","01721"
348601,"PO BOX 421","EUREKA","MT","59917"
348602,"PO BOX 421","FAIRPORT","NY","14450"
348603,"PO BOX 421","GARRISON","ND","58540"
348604,"PO BOX 421","GILBERT","MN","55741"
348605,"PO BOX 421","GREENLAND","AR","72737"
348606,"PO BOX 421","HELOTES","TX","78023"
348607,"PO BOX 421","LA VETA","CO","81055"
348608,"PO BOX 421","LAKE CITY","MI","49651"
348609,"PO BOX 421","PATTISON","TX","77466"
348610,"PO BOX 421","SPICELAND","IN","47385"
348611,"PO BOX 421","TRAVERSE CITY","MI","49685"
348612,"PO BOX 421","TROY","MT","59935"
348613,"PO BOX 421","TUBA CITY","AZ","86045"
348614,"PO BOX 421","WEST BEND","WI","53095"
348615,"PO BOX 4211","MARIETTA","GA","30061"
348616,"PO BOX 42122","LUBBOCK","TX","79409"
348617,"PO BOX 42123","CLEVELAND","OH","44142"
348618,"PO BOX 42129","CINCINNATI","OH","45242"
348619,"PO BOX 4213","MIDDLETOWN","RI","02842"
348620,"PO BOX 4213","MODESTO","CA","95352"
348621,"PO BOX 42131","ARLINGTON","VA","22204"
348622,"PO BOX 421328","KISSIMMEE","FL","34742"
348623,"PO BOX 42136","MEMPHIS","TN","38174"
348624,"PO BOX 4214","GRANBY","CO","80446"
348625,"PO BOX 421515","SAN DIEGO","CA","92142"
348626,"PO BOX 421555","DEL RIO","TX","78842"
348627,"PO BOX 42163","CINCINNATI","OH","45242"
348628,"PO BOX 42168","ATLANTA","GA","30311"
348629,"PO BOX 421696","MIDDLETOWN","OH","45042"
348630,"PO BOX 421817","INDIANAPOLIS","IN","46242"
348631,"PO BOX 421848","HOUSTON","TX","77242"
348632,"PO BOX 422","BELLPORT","NY","11713"
348633,"PO BOX 422","CEDAR GROVE","NJ","07009"
348634,"PO BOX 422","CLARKSTON","MI","48347"
348635,"PO BOX 422","CRESCENT CITY","CA","95531"
348636,"PO BOX 422","DALLAS","GA","30132"
348637,"PO BOX 422","FAYETTEVILLE","TX","78940"
348638,"PO BOX 422","GENESEO","NY","14454"
348639,"PO BOX 422","GRESHAM","OR","97030"
348640,"PO BOX 422","HAMMONTON","NJ","08037"
348641,"PO BOX 422","HASKELL","OK","74436"
348642,"PO BOX 422","KEY LARGO","FL","33037"
348643,"PO BOX 422","MOUNTAIN LAKES","NJ","07046"
348644,"PO BOX 422","ORRVILLE","OH","44667"
348645,"PO BOX 422","PRYOR","OK","74362"
348646,"PO BOX 422","ROSELAND","FL","32957"
348647,"PO BOX 422","SAN DIMAS","CA","91773"
348648,"PO BOX 422","ST PETER","MN","56082"
348649,"PO BOX 422","ST. JOHN","WA","99171"
348650,"PO BOX 422","STILLWATER","OK","74076"
348651,"PO BOX 422","SWANSEA","MA","02777"
348652,"PO BOX 422","THOMPSON FALLS","MT","59873"
348653,"PO BOX 422","TOMBALL","TX","77377"
348654,"PO BOX 422","WELDON","NC","27890"
348655,"PO BOX 422","WINNECONNE","WI","54986"
348656,"PO BOX 422","WINTER PARK","FL","32789"
348657,"PO BOX 42214","CINCINNATI","OH","45242"
348658,"PO BOX 42215","CINCINNATI","OH","45242"
348659,"PO BOX 422186","SAN FRANCISCO","CA","94142"
348660,"PO BOX 422271","ATLANTA","GA","30342"
348661,"PO BOX 4223","CHARLOTTESVILLE","VA","22905"
348662,"PO BOX 4223","FONTANA","CA","92334"
348663,"PO BOX 42236","HOUSTON","TX","77242"
348664,"PO BOX 4224","FORT LAUDERDALE","FL","33338"
348665,"PO BOX 4224","VISALIA","CA","93278"
348666,"PO BOX 4228","PITTSBURGH","PA","15203"
348667,"PO BOX 42282","CLEVELAND","OH","44142"
348668,"PO BOX 423","ATOKA","TN","38004"
348669,"PO BOX 423","BABYLON","NY","11702"
348670,"PO BOX 423","BEAVER","PA","15009"
348671,"PO BOX 423","BIDDEFORD","ME","04072"
348672,"PO BOX 423","CARPINTERIA","CA","93014"
348673,"PO BOX 423","CHESTERFIELD","VA","23112"
348674,"PO BOX 423","COBLESKILL","NY","12043"
348675,"PO BOX 423","COLUMBIA STATION","OH","44028"
348676,"PO BOX 423","CRESCENT CITY","CA","95531"
348677,"PO BOX 423","HANOVER","PA","17331"
348678,"PO BOX 423","HARDIN","TX","77561"
348679,"PO BOX 423","HUNTSVILLE","AL","35804"
348680,"PO BOX 423","IMPERIAL","CA","92251"
348681,"PO BOX 423","MADISON","MS","39130"
348682,"PO BOX 423","MARIETTA","PA","17547"
348683,"PO BOX 423","PLOVER","WI","54455"
348684,"PO BOX 423","SAN ELIZARIO","TX","79849"
348685,"PO BOX 423","SIDNEY","NY","13838"
348686,"PO BOX 423","WELLSVILLE","NY","14895"
348687,"PO BOX 4231","LEXINGTON","KY","40544"
348688,"PO BOX 4231","PANORAMA CITY","CA","91412"
348689,"PO BOX 423111","SAN FRANCISCO","CA","94142"
348690,"PO BOX 4232","EL PASO","TX","79924"
348691,"PO BOX 423206","KISSIMMEE","FL","34742"
348692,"PO BOX 42326","WASHINGTON","DC","20015"
348693,"PO BOX 4233","HAILEY","ID","83333"
348694,"PO BOX 4234","CEDAR PARK","TX","78630"
348695,"PO BOX 4234","WATERBURY","CT","06704"
348696,"PO BOX 42343","PORTLAND","OR","97242"
348697,"PO BOX 4235","BREMERTON","WA","98412"
348698,"PO BOX 4235","COVINA","CA","91723"
348699,"PO BOX 4235","VALLEY VILLAGE","CA","91617"
348700,"PO BOX 4236","STOCKTON","CA","95204"
348701,"PO BOX 4238","LAKE CHARLES","LA","70606"
348702,"PO BOX 4238","MIDDLETOWN","RI","02842"
348703,"PO BOX 42383","ATLANTA","GA","30311"
348704,"PO BOX 424","ALTOONA","FL","32702"
348705,"PO BOX 424","BERKELEY","CA","94701"
348706,"PO BOX 424","BINGHAMTON","NY","13902"
348707,"PO BOX 424","BRANDYWINE","MD","20613"
348708,"PO BOX 424","CANTON","NY","13617"
348709,"PO BOX 424","CASTLE ROCK","MN","55010"
348710,"PO BOX 424","COLLBRAN","CO","81624"
348711,"PO BOX 424","FREWSBURG","NY","14738"
348712,"PO BOX 424","GLIDE","OR","97443"
348713,"PO BOX 424","HAMPTON","VA","23669"
348714,"PO BOX 424","HANSVILLE","WA","98340"
348715,"PO BOX 424","MT HOLLY","NJ","08060"
348716,"PO BOX 424","OLNEY","TX","76374"
348717,"PO BOX 424","PEYTON","CO","80831"
348718,"PO BOX 424","RIPON","WI","54971"
348719,"PO BOX 424","SANDWICH","MA","02563"
348720,"PO BOX 424","SYLVANIA","OH","43560"
348721,"PO BOX 424","WAHOO","NE","68066"
348722,"PO BOX 424","WALBRIDGE","OH","43465"
348723,"PO BOX 424","WAXAHACHIE","TX","75168"
348724,"PO BOX 424","WEST UNION","WV","26456"
348725,"PO BOX 4240","TAMPA","FL","33677"
348726,"PO BOX 42406","BALTIMORE","MD","21284"
348727,"PO BOX 4241","PIKEVILLE","KY","41502"
348728,"PO BOX 4242","SARGENT","TX","77404"
348729,"PO BOX 4242","SILVER SPRING","MD","20914"
348730,"PO BOX 4243","MISSOULA","MT","59806"
348731,"PO BOX 4243","PAHRUMP","NV","89041"
348732,"PO BOX 4244","FRISCO","CO","80443"
348733,"PO BOX 4244","HILLSBORO","OR","97123"
348734,"PO BOX 4244","SANTA FE","NM","87502"
348735,"PO BOX 4245","IDYLLWILD","CA","92549"
348736,"PO BOX 424533","SAN FRANCISCO","CA","94142"
348737,"PO BOX 4246","FORT SMITH","AR","72914"
348738,"PO BOX 4247","FORT WORTH","TX","76164"
348739,"PO BOX 425","AVONDALE","AZ","85323"
348740,"PO BOX 425","BLACK EARTH","WI","53515"
348741,"PO BOX 425","CAMDEN","NY","13316"
348742,"PO BOX 425","CARLISLE","IN","47838"
348743,"PO BOX 425","CARTHAGE","IN","46115"
348744,"PO BOX 425","DIABLO","CA","94528"
348745,"PO BOX 425","ENUMCLAW","WA","98022"
348746,"PO BOX 425","FOWLER","CA","93625"
348747,"PO BOX 425","FRESNO","TX","77545"
348748,"PO BOX 425","GREAT FALLS","VA","22066"
348749,"PO BOX 425","HALIFAX","PA","17032"
348750,"PO BOX 425","ITASCA","IL","60143"
348751,"PO BOX 425","JACKSBORO","TX","76458"
348752,"PO BOX 425","LEAVENWORTH","KS","66048"
348753,"PO BOX 425","LONGVIEW","WA","98632"
348754,"PO BOX 425","MANASQUAN","NJ","08736"
348755,"PO BOX 425","MANHATTAN","MT","59741"
348756,"PO BOX 425","MATTITUCK","NY","11952"
348757,"PO BOX 425","NEW CASTLE","DE","19720"
348758,"PO BOX 425","PENROSE","NC","28766"
348759,"PO BOX 425","RICHMOND","IN","47375"
348760,"PO BOX 425","RICHMOND","VT","05477"
348761,"PO BOX 425","SOUTH BEND","WA","98586"
348762,"PO BOX 425","WAUKEE","IA","50263"
348763,"PO BOX 425","WEEPING WATER","NE","68463"
348764,"PO BOX 425","WESTCLIFFE","CO","81252"
348765,"PO BOX 4252","NEWARK","MI","07112"
348766,"PO BOX 4252","NEWARK","NJ","07112"
348767,"PO BOX 4252","QUEENSBURY","NY","12804"
348768,"PO BOX 42522","CINCINNATI","OH","45242"
348769,"PO BOX 4253 7 MOUNT BETHEL ROAD","WARREN","NJ","07059"
348770,"PO BOX 4253","BELLINGHAM","WA","98227"
348771,"PO BOX 4255","GREENVILLE","MS","38703"
348772,"PO BOX 4256","BROCKTON","MA","02301"
348773,"PO BOX 42560","ATLANTA","GA","30311"
348774,"PO BOX 425769","DENTON","TX","76204"
348775,"PO BOX 42586","PORTLAND","OR","97242"
348776,"PO BOX 4259","DEL RIO","TX","78840"
348777,"PO BOX 426","DEWEY","OK","74029"
348778,"PO BOX 426","DIMONDALE","MI","48821"
348779,"PO BOX 426","EAST SETAUKET","NY","11733"
348780,"PO BOX 426","FLORENCE","TX","76527"
348781,"PO BOX 426","GLOUCESTER","MA","01930"
348782,"PO BOX 426","HARLOWTON","MT","59036"
348783,"PO BOX 426","HARPER","TX","78631"
348784,"PO BOX 426","LA CROSSE","FL","32658"
348785,"PO BOX 426","MAYFIELD","MI","49666"
348786,"PO BOX 426","NEW ROCHELLE","NY","10801"
348787,"PO BOX 426","NOTRE DAME","IN","46556"
348788,"PO BOX 426","SHADY COVE","OR","97539"
348789,"PO BOX 426","SHAWSVILLE","VA","24162"
348790,"PO BOX 426","STEPHENSON","MI","49887"
348791,"PO BOX 426","WEST UNION","WV","26456"
348792,"PO BOX 426","WEYMOUTH","MA","02188"
348793,"PO BOX 426","WOODINVILLE","WA","98072"
348794,"PO BOX 426004","SAN FRANCISCO","CA","94142"
348795,"PO BOX 42616","HOUSTON","TX","77077"
348796,"PO BOX 4262","RANCHO CUCAMONGA","CA","91729"
348797,"PO BOX 4262","WEST PALM BEACH","FL","33402"
348798,"PO BOX 4263","BILOXI","MS","39535"
348799,"PO BOX 4263","BOULDER","CO","80306"
348800,"PO BOX 4263","NEWARK","OH","43058"
348801,"PO BOX 4263","TRAVERSE CITY","MI","49685"
348802,"PO BOX 42636","SAN FRANCISCO","CA","94142"
348803,"PO BOX 4264","BREMERTON","WA","98312"
348804,"PO BOX 4264","CARMEL","IN","46082"
348805,"PO BOX 4265","ATLANTA","GA","30302"
348806,"PO BOX 4265","MORGANTOWN","WV","26504"
348807,"PO BOX 4266","CHAPEL HILL","NC","27515"
348808,"PO BOX 42668","PHILADELPHIA","PA","19101"
348809,"PO BOX 427 - 4195 DOUGLAS AVE","SEDALIA","CO","80135"
348810,"PO BOX 427","ALMA","CO","80420"
348811,"PO BOX 427","CONDON","OR","97823"
348812,"PO BOX 427","COUDERSPORT","PA","16915"
348813,"PO BOX 427","FAIR HAVEN","NY","13064"
348814,"PO BOX 427","ITTA BENA","MS","38941"
348815,"PO BOX 427","KINGWOOD","WV","26537"
348816,"PO BOX 427","LAKE OSWEGO","OR","97034"
348817,"PO BOX 427","POMEROY","OH","45769"
348818,"PO BOX 427","SHELBYVILLE","TN","37162"
348819,"PO BOX 427","SOUTH LYON","MI","48178"
348820,"PO BOX 427","ST JOSEPH","LA","71366"
348821,"PO BOX 427","STANDARD","CA","95373"
348822,"PO BOX 427","TWAIN HARTE","CA","95383"
348823,"PO BOX 427","WEAVERVILLE","CA","96093"
348824,"PO BOX 4271","AUSTINTOWN","OH","44515"
348825,"PO BOX 4271","LONGVIEW","TX","75606"
348826,"PO BOX 42741","OKLAHOMA CITY","OK","73123"
348827,"PO BOX 42747","ATLANTA","GA","30311"
348828,"PO BOX 42752","TUCSON","AZ","85733"
348829,"PO BOX 4277","WILMINGTON","DE","19807"
348830,"PO BOX 4278","READING","PA","19606"
348831,"PO BOX 4279","MIDDLETOWN","NJ","07748"
348832,"PO BOX 428","AUGUSTA","NJ","07822"
348833,"PO BOX 428","ELLOREE","SC","29047"
348834,"PO BOX 428","HARVARD","MA","01451"
348835,"PO BOX 428","HASLETT","MI","48840"
348836,"PO BOX 428","LAKESIDE","MT","59922"
348837,"PO BOX 428","LLANO","CA","78643"
348838,"PO BOX 428","MIFFLINVILLE","PA","18631"
348839,"PO BOX 428","NEW YORK","NY","10272"
348840,"PO BOX 428","OAKHURST","NJ","07755"
348841,"PO BOX 428","OKANOGAN","WA","98840"
348842,"PO BOX 428","SILVER GROVE","KY","41085"
348843,"PO BOX 428","TEMPLE","TX","76503"
348844,"PO BOX 428","WHEATLAND","PA","16161"
348845,"PO BOX 428","WILLISTON","SC","29853"
348846,"PO BOX 428","WINTERVILLE","NC","28590"
348847,"PO BOX 42817","PHILADELPHIA","PA","19101"
348848,"PO BOX 4282","CARSON CITY","NV","89702"
348849,"PO BOX 42827","CHARLOTTE","NC","28215"
348850,"PO BOX 42828","ATLANTA","GA","30311"
348851,"PO BOX 42828","ATLANTA","VA","30311"
348852,"PO BOX 4284","DURANGO","CO","81302"
348853,"PO BOX 42848","ATLANTA","GA","30311"
348854,"PO BOX 42852","TUCSON","AZ","85733"
348855,"PO BOX 4288","GREENSBORO","NC","27404"
348856,"PO BOX 429","BLOOMFIELD","NY","14469"
348857,"PO BOX 429","CONCORD","NH","03302"
348858,"PO BOX 429","DRAKE","CO","80515"
348859,"PO BOX 429","DUSON","LA","70529"
348860,"PO BOX 429","EXPERIMENT","GA","30212"
348861,"PO BOX 429","FAIRFIELD","IL","62837"
348862,"PO BOX 429","OSCODA","MI","48750"
348863,"PO BOX 429","PINE","CO","80470"
348864,"PO BOX 429","SALEM","IL","62881"
348865,"PO BOX 429","SHELL LAKE","WI","54871"
348866,"PO BOX 429","SIMPSONVILLE","SC","29681"
348867,"PO BOX 429","SOMERVILLE","TX","77879"
348868,"PO BOX 429","ST JOHNS","AZ","85936"
348869,"PO BOX 429","WYNANTSKILL","NY","12198"
348870,"PO BOX 4290","TULSA","OK","74159"
348871,"PO BOX 4291","FRISCO","CO","80443"
348872,"PO BOX 4291","PRESCOTT","AZ","86302"
348873,"PO BOX 4292","EVERGREEN","CO","80437"
348874,"PO BOX 4293","SAN LUIS","AZ","85349"
348875,"PO BOX 42952","FAYETTEVILLE","NC","28309"
348876,"PO BOX 42962","ATLANTA","GA","30311"
348877,"PO BOX 4299","PRESCOTT","AZ","86302"
348878,"PO BOX 42H","SCARSDALE","NY","10583"
348879,"PO BOX 43","AMLIN","OH","43002"
348880,"PO BOX 43","ANAHEIM","CA","92815"
348881,"PO BOX 43","BRADFORD","RI","02808"
348882,"PO BOX 43","BRIDGEVILLE","PA","15017"
348883,"PO BOX 43","BURTON","OH","44021"
348884,"PO BOX 43","CEDAR GROVE","TN","38321"
348885,"PO BOX 43","CHINA GROVE","NC","28023"
348886,"PO BOX 43","CHIPPEWA BAY","NY","13623"
348887,"PO BOX 43","COTTONWOOD","ID","83522"
348888,"PO BOX 43","CUT BANK","MT","59427"
348889,"PO BOX 43","DEWITTVILLE","NY","14728"
348890,"PO BOX 43","EUREKA","NV","89316"
348891,"PO BOX 43","FALLON","NV","89407"
348892,"PO BOX 43","FREDERICKSBURG","OH","44627"
348893,"PO BOX 43","GALION","OH","44833"
348894,"PO BOX 43","GRAHAMSVILLE","NY","12740"
348895,"PO BOX 43","LA CRESCENT","MN","55947"
348896,"PO BOX 43","LAKELAND","MN","55001"
348897,"PO BOX 43","LEAVENWORTH","WA","98826"
348898,"PO BOX 43","LEMOORE","CA","93245"
348899,"PO BOX 43","MCCLAVE","CO","81057"
348900,"PO BOX 43","MUSKEGO","WI","53150"
348901,"PO BOX 43","PARK FOREST","IL","60466"
348902,"PO BOX 43","PARK RAPIDS","MN","56470"
348903,"PO BOX 43","PILOT","VA","24138"
348904,"PO BOX 43","POMEROY","OH","45769"
348905,"PO BOX 43","PONCE DE LEON","FL","32455"
348906,"PO BOX 43","POWELL","OH","43065"
348907,"PO BOX 43","RAWLINS","WY","82301"
348908,"PO BOX 43","RINGOES","NJ","08551"
348909,"PO BOX 43","ROCKLAND","MI","49960"
348910,"PO BOX 43","ROSE HILL","KS","67133"
348911,"PO BOX 43","SIERRA BLANCA","TX","79851"
348912,"PO BOX 43","SOMERS POINT","NJ","08244"
348913,"PO BOX 43","STRATFORD","NJ","08084"
348914,"PO BOX 43","THOMPSONS STATION","TN","37179"
348915,"PO BOX 43","TRYON","NC","28782"
348916,"PO BOX 43","WILLIAMSBURG","KY","40769"
348917,"PO BOX 43","WOODSTOCK","VT","05091"
348918,"PO BOX 430","AWENDAW","SC","29429"
348919,"PO BOX 430","CLAYTON","CA","94517"
348920,"PO BOX 430","GERMANTOWN","WI","53022"
348921,"PO BOX 430","LA CONNER","WA","98257"
348922,"PO BOX 430","LAYTONVILLE","CA","95454"
348923,"PO BOX 430","MERKEL","TX","79536"
348924,"PO BOX 430","MONTCLAIR","NJ","07042"
348925,"PO BOX 430","NORTH ROYALTON","OH","44130"
348926,"PO BOX 430","SCHOHARIE","NY","12157"
348927,"PO BOX 430","TONOPAH","AZ","85354"
348928,"PO BOX 430","WHITESBURG","GA","30185"
348929,"PO BOX 43008","BALTIMORE","MD","21236"
348930,"PO BOX 430090","HOUSTON","TX","77243"
348931,"PO BOX 430099","BIG PINE KEY","FL","33043"
348932,"PO BOX 4301","GREENSBORO","NC","27404"
348933,"PO BOX 430115","SOUTH MIAMI","FL","33243"
348934,"PO BOX 4303","LITTLE ROCK","AR","72214"
348935,"PO BOX 4303","WICHITA FALLS","TX","76308"
348936,"PO BOX 4304","GREENVILLE","SC","29608"
348937,"PO BOX 4304","SUWANEE","GA","30024"
348938,"PO BOX 4305","HAMDEN","CT","06514"
348939,"PO BOX 4305","MIDDLETOWN","NJ","07748"
348940,"PO BOX 4306","CASPER","WY","82604"
348941,"PO BOX 4306","LAFAYETTE","LA","70502"
348942,"PO BOX 430662","PONTIAC","MI","48343"
348943,"PO BOX 43071","ATLANTA","GA","30336"
348944,"PO BOX 43072","ATLANTA","GA","30336"
348945,"PO BOX 4308","PASO ROBLES","CA","93447"
348946,"PO BOX 4308","STAMFORD","CT","06907"
348947,"PO BOX 43083","UPPER MONTCLAIR","NJ","07043"
348948,"PO BOX 430914","PONTIAC","MI","48343"
348949,"PO BOX 431","ALDIE","VA","20105"
348950,"PO BOX 431","BELMONT","NC","28012"
348951,"PO BOX 431","BENTONVILLE","AR","72712"
348952,"PO BOX 431","BLOCK ISLAND","RI","02807"
348953,"PO BOX 431","CLOVIS","NM","88101"
348954,"PO BOX 431","FLINT","MI","48501"
348955,"PO BOX 431","FLORENCE","AL","35631"
348956,"PO BOX 431","GREENVILLE","WI","54942"
348957,"PO BOX 431","HUNTINGTOWN","MD","20639"
348958,"PO BOX 431","JUNCTION CITY","KS","66441"
348959,"PO BOX 431","NEW BERLIN","IL","62670"
348960,"PO BOX 431","RINGWOOD","NJ","07456"
348961,"PO BOX 431","SPRINGTOWN","PA","18081"
348962,"PO BOX 431","TOWNSHEND","VT","05353"
348963,"PO BOX 431","TRYON","NC","28782"
348964,"PO BOX 431","UPTON","WY","83720"
348965,"PO BOX 431","WHITESBORO","NY","13492"
348966,"PO BOX 431002","BROOKLYN PARK","MN","55443"
348967,"PO BOX 4311","NACOGDOCHES","TX","75963"
348968,"PO BOX 43112","DETROIT","MI","48243"
348969,"PO BOX 431152","LOS ANGELES","CA","90043"
348970,"PO BOX 4312","PALESTINE","TX","75802"
348971,"PO BOX 4313","OLATHE","KS","66063"
348972,"PO BOX 431403","MIAMI","FL","33243"
348973,"PO BOX 431433","BROOKLYN PARK","MN","55443"
348974,"PO BOX 431444","LOS ANGELES","CA","90043"
348975,"PO BOX 43145","BROOKLYN PARK","MN","55443"
348976,"PO BOX 43151","BAKERSFIELD","CA","93384"
348977,"PO BOX 43157","WASHINGTON","DC","20010"
348978,"PO BOX 431751","BIG PINE KEY","FM","33043"
348979,"PO BOX 432","BERLIN","NJ","08009"
348980,"PO BOX 432","BYRON","CA","94514"
348981,"PO BOX 432","CHILHOWIE","VA","24319"
348982,"PO BOX 432","CLARKSTON","GA","30021"
348983,"PO BOX 432","COWETA","OK","74429"
348984,"PO BOX 432","CRAB ORCHARD","WV","25827"
348985,"PO BOX 432","DUE WEST","SC","29639"
348986,"PO BOX 432","ELKHART LAKE","WI","53020"
348987,"PO BOX 432","IDAHO SPRINGS","CO","80452"
348988,"PO BOX 432","IONIA","MI","48846"
348989,"PO BOX 432","LA CENTER","WA","98629"
348990,"PO BOX 432","LAND O LAKES","WI","54540"
348991,"PO BOX 432","MABELVALE","AR","72103"
348992,"PO BOX 432","MIRANDA","CA","95553"
348993,"PO BOX 432","TILTON","NH","03276"
348994,"PO BOX 432","WAUPACA","WI","54981"
348995,"PO BOX 432","YORKTOWN HEIGHTS","NY","10598"
348996,"PO BOX 43201","CHARLOTTE","NC","28215"
348997,"PO BOX 432052","PONTIAC","MI","48343"
348998,"PO BOX 4321","ALPHARETTA","GA","30023"
348999,"PO BOX 4321","SCRANTON","PA","18505"
349000,"PO BOX 4323","OCALA","FL","34478"
