"ID","Address","City","State","Zip"
148001,"272 VAN BUREN","BROOKLYN","NY","11221"
148002,"272 VASSER DRIVE","PISCATAWAY","NJ","08854"
148003,"272 VIOLET DR","ROMEOVILLE","IL","60446"
148004,"272 VISALIA ROAD","ALEXANDRIA","KY","41001"
148005,"272 W 139TH STREET APT 2A","NEW YORK","NY","10030"
148006,"272 WOODLAND RD","MADISON","NJ","07940"
148007,"272","CAPSHAW","AL","35742"
148008,"2720 11TH ST","PORT ARTHUR","TX","77640"
148009,"2720 147TH ST  UNIT 153","POSEN","IL","60469"
148010,"2720 28TH AVENUE SW","TUMWATER","WA","98512"
148011,"2720 4TH AVENUE SOUTH","BIRMINGHAM","AL","35233"
148012,"2720 ALEXANDER CLUB DRIVE","PALM SPRINGS","CA","92262"
148013,"2720 ALPINE ROAD","MENLO PARK","CA","94028"
148014,"2720 BOLTON ABBEY DRIVE SW","MARIETTA","GA","30064"
148015,"2720 BRETTON WOOD DR","FORT WORTH","TX","76244"
148016,"2720 CARRICK CT","POWDER SPRINGS","GA","30127"
148017,"2720 CLEMENT STREET","SAN FRANCISCO","CA","94121"
148018,"2720 COLUMBUS AVENUE","COLUMBUS","OH","43209"
148019,"2720 COUNCIL TREE AVE STE 242","FORT COLLINS","CO","80525"
148020,"2720 DEERPARK DR","SAN DIEGO","CA","92110"
148021,"2720 DUNDEE RD  226","NORTHBROOK","IL","60062"
148022,"2720 E 8TH STREET","PUEBLO","CO","81001"
148023,"2720 E LIBERTY LANE","PHOENIX","AZ","85048"
148024,"2720 EAST SOUTHERN AVE","PHOENIX","AZ","85040"
148025,"2720 FOSTER AVE APT 1G","BROOKLYN","NY","11210"
148026,"2720 GEORGE ST","ANDERSON","IN","46016"
148027,"2720 GOLFVIEW DRIVE","MCKINNEY","TX","75069"
148028,"2720 GOOSEBERRY DRIVE","PLANO","TX","75074"
148029,"2720 GRAND CONCOURSE SUITE 401","BRONX","NY","10458"
148030,"2720 HARDSCRABBLE RD","COLUMBIA","SC","29223"
148031,"2720 HOYT AVE APT 208","EVERETT","WA","98201"
148032,"2720 HUGO AVENUE","BALTIMORE","MD","21218"
148033,"2720 HUNTINGTON RD","CHARLOTTESVILLE","VA","22901"
148034,"2720 KILGORE ROAD","RANCHO CORDOVA","CA","95670"
148035,"2720 KINGSLEY DRIVE","PEARLAND","TX","77584"
148036,"2720 LIBERTY ROAD NW","ROANOKE","VA","24012"
148037,"2720 LIBERTY ROAD","ROANOKE","VA","24012"
148038,"2720 LISBURN ROAD","CAMP HILL","PA","17011"
148039,"2720 MAC ST NW","CLEVELAND","TN","37312"
148040,"2720 MALCORE DR","GREEN BAY","WI","54302"
148041,"2720 MAPLE AVENUE","ZANESVILLE","OH","43701"
148042,"2720 MISHAWAKA AVE","SOUTH BEND","IN","46615"
148043,"2720 MISHWAKA AVE","SOUTH BEND","IN","46615"
148044,"2720 N FRITZ DRIVE","TUCSON","AZ","85705"
148045,"2720 NE 1ST TER","POMPANO BEACH","FL","33064"
148046,"2720 NE 85TH CIRCLE","VANCOUVER","WA","98665"
148047,"2720 NEILSON WAY UNIT 5313","SANTA MONICA","CA","90409"
148048,"2720 NORTH ST PAUL ST","DENVER","CO","80205"
148049,"2720 NW 167TH ST","MIAMI","FL","33054"
148050,"2720 PARKHOUSE CT","SANDY HOOK","VA","23153"
148051,"2720 PAXTON PLACE","SPENCER","OK","73084"
148052,"2720 PEABODY AVENUE","DALLAS","TX","75215"
148053,"2720 QUEENSLAND LANE N","PLYMOUTH","MN","55447"
148054,"2720 S BALBOA DR","GILBERT","AZ","85295"
148055,"2720 S CLINTON AVE","HAMILTON","NJ","08610"
148056,"2720 S CLINTON AVENUE","HAMILTON","NJ","08620"
148057,"2720 S HOWELL AVE","MILWAUKEE","WI","53207"
148058,"2720 SHANANDOAH CT","MOBILE","AL","36695"
148059,"2720 SIXTH STREET","TUSCALOOSA","AL","35401"
148060,"2720 SOUTH BLVD APT 160","CHARLOTTE","NC","28209"
148061,"2720 SOUTH CLINTON AVE","HAMILTON","NJ","08610"
148062,"2720 SOUTH CLINTON AVENUE","HAMILTON","NJ","08610"
148063,"2720 SOUTH STREET","TITUSVILLE","FL","32780"
148064,"2720 SW 123RD STREET","OKLAHOMA CITY","OK","73170"
148065,"2720 TIDESWELL LANE","VIRGINIA BEACH","VA","23456"
148066,"2720 TOLL GATE ROAD","PETERSBURG","TN","37144"
148067,"2720 W DILL DR","BOISE","ID","83704"
148068,"2720 W KEWANEE ST","TUCSON","AZ","85742"
148069,"2720 W NATAL CIR","MESA","AZ","85202"
148070,"2720 W SERENE AVE 2035","LAS VEGAS","NV","89123"
148071,"2720 W TICHENOR ST","RANCHO DOMINGUEZ","CA","90220"
148072,"2720 WASHINGTON DRIVE STE 110","NORMAN","OK","73069"
148073,"2720 WEST PULLMAN ROAD","MOSCOW","ID","83843"
148074,"2720 WEST RED ROBIN COURT","LEHI","UT","84043"
148075,"2720 WEST SERENE AVE    STE 2059","LV","NV","89123"
148076,"2720 WYOMING STREET","SAINT LOUIS","MO","63118"
148077,"27200 FRANKLIN ROAD A120","SOUTHFIELD","MI","48334"
148078,"27200 LAHSER RD","SOUTHFIELD","MI","48034"
148079,"27200 S FAMULINER RD","HARRISONVILLE","MO","64701"
148080,"27200 SE 175TH STREET","UMATILLA","FL","32784"
148081,"27201 FIREBUSH DR","WESLEY CHAPEL","FL","33544"
148082,"27201 PICO CANYON ROAD","STEVENSON RANCH","CA","91381"
148083,"27201 RYAN ROAD","WARREN","MI","48092"
148084,"27201 TOURNEY ROAD SUITE 201G","VALENCIA","CA","91355"
148085,"27202 EAST 1650 STREET","GENESEO","IL","61254"
148086,"27203 SABLE OAK LANE","CYPRESS","TX","77433"
148087,"27206 SAXON MEADOW LANE","CYPRESS","TX","77433"
148088,"2721 ADAMS MILL RD NW - 201","WASHINGTON","DC","20009"
148089,"2721 BEDDARD ROAD","GRIMESLAND","NC","27837"
148090,"2721 BENT BROOK DRIVE","MESUITE","TX","75181"
148091,"2721 DALE ST","SAN DIEGO","CA","92104"
148092,"2721 DECKER BLVD","COLUMBIA","SC","29206"
148093,"2721 EAST 16TH STREET","DES MOINES","IA","50316"
148094,"2721 EL OESTE DR","HERMOSA BEACH","CA","90254"
148095,"2721 FOREST CLUB DR","PLANT CITY","FL","33566"
148096,"2721 FORSYTH RD SUITE 361","WINTER PARK","FL","32792"
148097,"2721 FOUNDERS DR / CAMPUS BOX 7609","RALEIGH","NC","27695"
148098,"2721 FOUNDERS DRIVE CAMPUS BOX 7609","RALEIGH","NC","27695"
148099,"2721 FOUNTAIN PLAZA BLVD STE D","EDINBURG","TX","78539"
148100,"2721 FRANKLIN AVE NE","CEDAR RAPIDS","IA","52402"
148101,"2721 HANOVER CIRCLE","BILLINGS","MT","59106"
148102,"2721 HIBISCUS STREET","SARASOTA","FL","34239"
148103,"2721 HIGHLAWN TERRACE","FORT WORTH","TX","76133"
148104,"2721 HOG MOUNTAIN RD","WATKINSVILLE","GA","30677"
148105,"2721 HOLLYVIEW CT","LOS ANGELES","CA","90068"
148106,"2721 JIMMIE DEAN DR","MARRERO","LA","70072"
148107,"2721 LANDINGS POINT LOOP UNIT 104","WOODBRIDGE","VA","22191"
148108,"2721 LINCOLN WAY D305","LYNNWOOD","WA","98087"
148109,"2721 MARSH DRIVE","SAN RAMON","CA","94583"
148110,"2721 MILLERS WAY DRIVE","ELLICOTT CITY","MD","21207"
148111,"2721 NATALIA DR","COLUMBUS","OH","43232"
148112,"2721 OCEAN VALLEY RD","ATLANTA","GA","30349"
148113,"2721 PARKWAY TRAIL","LITHONIA","GA","30058"
148114,"2721 PASTEL","HENDERSON","NV","89074"
148115,"2721 PINEBROOK ROAD","HYATTSVILLE","MD","20785"
148116,"2721 RAINFORD CT","RALEIGH","NC","27603"
148117,"2721 RUTGERS AVE","LONG BEACH","CA","90815"
148118,"2721 S 269TH ST","KENT","WA","98032"
148119,"2721 SAINT JOSEPH STREET","WEST BLOOMFIELD","MI","48324"
148120,"2721 SAWYERS ARCH","CHESAPEAKE","VA","23323"
148121,"2721 SHATTUCK AVE -NUMBER 323","Berkeley","CA","94705"
148122,"2721 SHATTUCK AVE NUM 274","BERKELEY","CA","94704"
148123,"2721 STAPLES AVENUE","KEY WEST","FL","33040"
148124,"2721 STAR AVE","GLENN HEIGHTS","TX","75154"
148125,"2721 SW 3RD PLACE","GAINESVILLE","FL","32607"
148126,"2721 TALASK ST","ROSENBERG","TX","77471"
148127,"2721 TANGLEWOOD DRIVE","LANCASTER","TX","75134"
148128,"2721 US HIGHWAY 101","HOQUIAM","WA","98550"
148129,"2721 WEST 15TH STREET","GREELEY","CO","80634"
148130,"2721 WEST PARK DRIVE","PADUCAH","KY","42001"
148131,"2721 WET STONE WAY UNIT 306","CHARLOTTE","NC","28208"
148132,"2721 WILD PLUM STREET","WOODRIDGE","IL","60517"
148133,"2721 WOOSTER DR","ALLISON PARK","PA","15101"
148134,"27210 N 81ST AVE","PEORIA","AZ","85383"
148135,"27210 OAKLAND CLIFF COURT","KATY","TX","77494"
148136,"27211 LAHSER ROAD SUITE 203","SOUTHFIELD","MI","48034"
148137,"27212 HEDGE RD","ALBEMARLE","NC","28001"
148138,"27215 CROSBY RD","MYAKKA CITY","FL","34251"
148139,"27218 WOODLAND RD","STANWOOD","WA","98292"
148140,"27219 CAMP COMFORT HTS","ABINGDON","VA","24211"
148141,"2722 BAYBERRY WAY","FULLERTON","CA","92833"
148142,"2722 CHAPEL COVE CT","FLORISSANT","MO","63031"
148143,"2722 COVENTRY LANE","OCOEE","FL","34761"
148144,"2722 CRESCENT OAK DR","STERLING HEIGHTS","MI","48314"
148145,"2722 DARBY BROOK DR","FRESNO","TX","77545"
148146,"2722 DAWSON ROAD STE 1","ALBANY","GA","31707"
148147,"2722 DAYBREAK DR","ORLANDO","FL","32825"
148148,"2722 E 53RD ST APT 2","DAVENPORT","IA","52807"
148149,"2722 EDISON ST","PITTSBURGH","PA","15212"
148150,"2722 FACET CREEK DR","FRESNO","TX","77545"
148151,"2722 FORT BRAGG ROAD","FAYETTEVILLE","NC","28303"
148152,"2722 GEEVA PL","LONGMONT","CO","80503"
148153,"2722 GENEVA PL","LONGMONT","CO","80503"
148154,"2722 GREEN VALLEY PARKWAY STE50065","HENDERSON","NV","89014"
148155,"2722 HOFFMAN DRIVE","ORLANDO","FL","32837"
148156,"2722 MANATEE AVE W","BRADENTON","FL","34205"
148157,"2722 N CAMINO VISTA DEL CIELO","NOGALES","AZ","85621"
148158,"2722 N GREEN VALLEY PARKWAY","HENDERSON","NV","89016"
148159,"2722 NE 109 ST","VANCOUVER","WA","98686"
148160,"2722 OLDE MILL ROAD","FLORENCE","SC","29505"
148161,"2722 PARK AVE S SUITE 100A","MINNEAPOLIS","MN","55407"
148162,"2722 S BUCKNER BLVD APT 120","DALLAS","TX","75227"
148163,"2722 SKYLINE BLVD","CAPE CORAL","FL","33914"
148164,"2722 SKYVIEW CREST CT","HOUSTON","TX","77047"
148165,"2722 SOUTH MEDFORD","LUFKIN","TX","75901"
148166,"2722 TUCKER DR","SOUTH BEND","IN","46619"
148167,"27220 BIG SUR DR","WESLEY CHAPEL","FL","33544"
148168,"27221 STATE ROAD 56 SUITE 187","WESLEY CHAPEL","FL","33544"
148169,"27222 OLIVER DR","BONITA SPGS","FL","34135"
148170,"27223 HELTEMES LANE","LACOMBE","LA","70445"
148171,"27223 PATRIOT DR","SALISBURY","MD","21801"
148172,"27225 WEST OUTER DRIVE","ECORSE","MI","48229"
148173,"27226 387TH AVE","CORSICA","SD","57328"
148174,"2723 27TH AVE W 112","WILLISTON","ND","58801"
148175,"2723 29TH AVE SOUTH","MOORHEAD","MN","56560"
148176,"2723 99TH AVENUE","OAKLAND","CA","94605"
148177,"2723 ARTHUR AVE","CAMDEN","NJ","08105"
148178,"2723 BRIGHTON AVENUE","LOS ANGELES","CA","90018"
148179,"2723 CECILE DRIVE","YORKTOWN HEIGHTS","NY","10598"
148180,"2723 CHRYSLER DR","ROSWELL","NM","88201"
148181,"2723 CO RD 24","GIBSONBURG","OH","43431"
148182,"2723 COLONIAL LAKES DR STE 100","MISSOURI CITY","TX","77459"
148183,"2723 COLONIAL LAKES DR","MISSOURI CITY","TX","77459"
148184,"2723 DURANT TRAILS BLVD","DOVER","FL","33527"
148185,"2723 E 14TH PL","TULSA","OK","74104"
148186,"2723 GLENSHIRE DRIVE","COLUMBUS","OH","43219"
148187,"2723 GRUBB ROAD","WILMINGTON","DE","19810"
148188,"2723 GUILFORD AVENUE","BALTIMORE","MD","21218"
148189,"2723 HOSEA WILLIAMS DR","ATLANTA","GA","30317"
148190,"2723 JACKI DR","ROUND ROCK","TX","78665"
148191,"2723 LIBERTY LANDING CT","FLORISSANT","MO","63033"
148192,"2723 MARLO WAY","Lakeside Park","KY","41017"
148193,"2723 MERCER STREET","PHILADELPHIA","PA","19134"
148194,"2723 OSPREY LANE","PEARLAND","TX","77581"
148195,"2723 S CHILTON AVE","TYLER","TX","75701"
148196,"2723 S PIONEER TRAIL","STILLWATER","OK","74074"
148197,"2723 S STATE ST SUITE 150","ANN ARBOR","MI","48104"
148198,"2723 SAINT JAMES RD","BELMONT","CA","94002"
148199,"2723 VIA CAPRI  UNIT 823","CLEARWATER","FL","33764"
148200,"2723 W 54TH ST","LOS ANGELES","CA","90043"
148201,"27230 LAHSER ROAD","SOUTHFIELD","MI","48034"
148202,"27230 SOUTH DIXIE HIGHWAY","NARANJA","FL","33032"
148203,"27231 BIXBY ROAD","LA FERIA","TX","78559"
148204,"27232 BIG H RANCH RD","CULPEPER","VA","22701"
148205,"27232 RIVERSIDE DRIVE EXT","SALISBURY","MD","21801"
148206,"27234 NANTUCKET DRIVE","SOUTHFIELD","MI","48076"
148207,"27235 MADISON AVENUE","TEMECULA","CA","92590"
148208,"27235 NE 31ST PL","REDMOND","WA","98053"
148209,"2724 1/2 E CESAR CHAVEZ BLVD","LOS ANGELES","CA","90033"
148210,"2724 109TH STREET","LUBBOCK","TX","79423"
148211,"2724 1ST AVE S SUITE C","SEATTLE","WA","98134"
148212,"2724 8TH AVE","MOLINE","IL","61265"
148213,"2724 BIRDS CREEK ROAD","TUNNELTON","WV","26444"
148214,"2724 BRAGG BOULEVARD","FAYETTEVILLE","NC","28303"
148215,"2724 DEER BERRY CT","LONGWOOD","FL","32779"
148216,"2724 ESMOND AVENUE","RICHMOND","CA","94804"
148217,"2724 GAINESBOROUGH DR","DALLAS","TX","75287"
148218,"2724 GRIFFITH PARK BLVD","LOS ANGELES","CA","90027"
148219,"2724 GUBSER MILL ROAD","CALIFORNIA","KY","41007"
148220,"2724 HIGHWAY B","DOE RUN","MO","63637"
148221,"2724 KOZY COURT NE","MARIETTA","GA","30066"
148222,"2724 LORRAINE PLACE","SIMI VALLEY","CA","93065"
148223,"2724 MISTY OAKS CIRCLE","ROYAL PALM BEACH","FL","33411"
148224,"2724 N 24TH STREET","OMAHA","NE","68110"
148225,"2724 N BEGLIS PARKWAY","SULPHUR","LA","70663"
148226,"2724 NW 25TH STREET","OKLAHOMA CITY","OK","73107"
148227,"2724 RIO GRANDE RD","CHATTANOOGA","TN","37421"
148228,"2724 RUSHMORE RD","HASTINGS","MN","55033"
148229,"2724 S 163RD","NEW BERLIN","WI","53151"
148230,"2724 SNOW CAP CIR","LAS VEGAS","NV","89117"
148231,"2724 SYDENHAM STREET","PHILADELPHIA","PA","19132"
148232,"2724 UHLER AVENUE","BALTIMORE","MD","21215"
148233,"2724 W PRINDIVILLE","CHICAGO","IL","60657"
148234,"2724 WESLEY CHAPEL RD 360668","DECATUR","GA","30036"
148235,"2724 WESLEY CHAPEL RD UNIT 361182","DECATUR","GA","30036"
148236,"2724 WESLEY CHAPEL ROAD  BOX 361825","DECATUR","GA","30034"
148237,"2724 WINGDALE DRIVE","CHARLOTTE","NC","28213"
148238,"27240 ALABAMA ST","REDLANDS","CA","92373"
148239,"27247 FLAGLER STREET","SUN CITY","CA","92586"
148240,"2725 10TH ST NE","WASHINGTON","DC","20018"
148241,"2725 21ST ST APT 3","SACRAMENTO","CA","95818"
148242,"2725 4TH STREET UNIT 5","SANTA MONICA","CA","90405"
148243,"2725 BERWYCK ROAD","EAST GRAND RAPIDS","MI","49506"
148244,"2725 BROOKWOOD DRIVE","ORANGE PARK","FL","32073"
148245,"2725 CAMBRIDGE AVE","LAKELAND","FL","33803"
148246,"2725 CENTURY DRIVE","EDMOND","OK","73013"
148247,"2725 CONGRESS STREET - 2G","SAN DIEGO","CA","92110"
148248,"2725 CONGRESS STREET SUITE 2-B","SAN DIEGO","CA","92110"
148249,"2725 COPILICO TERRACE","HENDERSON","NV","89052"
148250,"2725 DORIS COURT","CARMICHAEL","CA","95608"
148251,"2725 DOUGLAS AVE","DES MOINES","IA","50310"
148252,"2725 ELLICOTT DRIVE","BALTIMORE","MD","21216"
148253,"2725 EVANSMILL DRIVE","LITHONIA","GA","30058"
148254,"2725 GRADUATE COURT","ORLANDO","FL","32826"
148255,"2725 GREEN VALLEY RD","SAINT JOSEPH","MO","64505"
148256,"2725 HAMILTON AVE","EL PASO","TX","79930"
148257,"2725 HAMILTON MILL DR SUITE 500-236","BUFORD","GA","30519"
148258,"2725 HAMILTON MILL RD STE500 BOX239","BUFORD","GA","30519"
148259,"2725 IROQUOIS AVE","LONG BEACH","CA","90815"
148260,"2725 ISLAND HOME BLVD","KNOXVILLE","TN","37920"
148261,"2725 KENHILL DRIVE","CHARLOTTE","NC","28208"
148262,"2725 LEXINGTON STREET","HARRISBURG","PA","17110"
148263,"2725 MAGNOLIA STREET","OAKLAND","CA","94607"
148264,"2725 MAIN STREET","STRATFORD","CT","06615"
148265,"2725 MERCHANTS DRIVE SUITE B","JEFFERSON CITY","MO","65109"
148266,"2725 MERCURY AVE","EAU CLAIRE","WI","54703"
148267,"2725 MILL FLUME DRIVE","MIDLOTHIAN","VA","23112"
148268,"2725 MILLERS WAY DRIVE","ELLICOTT CITY","MD","21042"
148269,"2725 MONK CT NW","ALBUQUERQUE","NM","87107"
148270,"2725 N CHAUTAUQUA","WICHITA","KS","67219"
148271,"2725 NORTH NARCOOSSEE ROAD","SAINT CLOUD","FL","34771"
148272,"2725 NW THOREAU DR","LEES SUMMIT","MO","64081"
148273,"2725 OAK LOG WAY","BUFORD","GA","30619"
148274,"2725 PINE PLAIN RD","SWANSEA","SC","29160"
148275,"2725 PLEASANT RUN DRIVE","HENRICO","VA","23233"
148276,"2725 RAYMOND DR","RAPID CITY","SD","57702"
148277,"2725 RIDGE AVE","CHARLOTTE","NC","28208"
148278,"2725 RIVER TREE DRIVE","DECATUR","GA","30034"
148279,"2725 ROBALEED WAY","HERNDON","VA","20171"
148280,"2725 S 2ND STREET","MILLVILLE","NJ","08332"
148281,"2725 S GLEN HAVEN BLVD","HOUSTON","TX","77025"
148282,"2725 SHADY WELL LANE","CORDOVA","TN","38016"
148283,"2725 STERLING CREEK POINTE","SNELLVILLE","GA","30078"
148284,"2725 SW 91ST ST - 110 PMB 55","GAINESVILLE","FL","32608"
148285,"2725 W RIVERVIEW PKWY","CHICAGO","IL","60618"
148286,"27250 MN HWY 4","GROVE CITY","MN","56243"
148287,"27250 PITTS CREEK RD","NEW CHURCH","VA","23415"
148288,"27251 WESLEY CHAPEL BLVD STE 222","WESLEY CHAPEL","FL","33544"
148289,"27251 WESLEY CHAPEL BLVD STE B14","WESLEY CHAPEL","FL","33544"
148290,"27251 WESLEY CHAPEL BLVD SUITE 1068","WESLEY CHAPEL","FL","33544"
148291,"27251 WESLEY CHAPEL BLVD SUITE 309","WESLEY CHAPEL","FL","33544"
148292,"27251 WINCHESTER COURT","FARMINGTON HILLS","MI","48331"
148293,"27255 CHILLICOTHE PIKE","WILLIAMSPORT","OH","43164"
148294,"27259 PEMBRIDGE LN","FARMINGTON HILLS","MI","48331"
148295,"2726 23RD ST APT 1R","ASTORIA","NY","11102"
148296,"2726 ACCOMAC STREET","SAINT LOUIS","MO","63104"
148297,"2726 BARTLETT BLVD","BARTLETT","TN","38134"
148298,"2726 BISSONNET ROAD 240","HOUSTON","TX","77005"
148299,"2726 BISSONNET ST 240-398","HOUSTON","TX","77005"
148300,"2726 BISSONNET STREET SUITE 240-133","HOUSTON","TX","77005"
148301,"2726 BRIARPATCH DRIVE","VALRICO","FL","33596"
148302,"2726 CARTER FARM COURT","ALEXANDRIA","VA","22306"
148303,"2726 FAIRGROUND RD MAILBOX 22","GOOCHLAND","VA","23063"
148304,"2726 FOREST AVENUE","KANSAS CITY","MO","64109"
148305,"2726 GILBERT RD","LANSING","MI","48911"
148306,"2726 INGRA STREET","ANCHORAGE","AK","99508"
148307,"2726 JASMINE DRIVE","FITCHBURG","WI","53711"
148308,"2726 LEHIGH ST","LOWER BURRELL","PA","15068"
148309,"2726 NE WINTERS RD","BREMERTON","WA","98311"
148310,"2726 OWENS AVE SW","MARIETTA","GA","30064"
148311,"2726 P","CEDAR HILL","TX","75104"
148312,"2726 PRICHARD CT","MISSOURI CITY","TX","77459"
148313,"2726 QUAIL VALLEY DR","WILDWOOD","MO","63005"
148314,"2726 QUAIL VALLEY DRIVE","CHESTERFIELD","MO","63005"
148315,"2726 RIVIERA DRIVE","GARLAND","TX","75040"
148316,"2726 THISTLE BROOK DRIVE","CONCORD","NC","28027"
148317,"2726 VAN HISE AVE","MADISON","WI","53705"
148318,"2726 W PRINDIVILLE STREET UNIT 1","CHICAGO","IL","60647"
148319,"2727 10TH ST N","SAINT PETERSBURG","FL","33704"
148320,"2727 24TH AVENUE NORTH","SAINT PETERSBURG","FL","33713"
148321,"2727 2ND AVE STE 109","DETROIT","MI","48201"
148322,"2727 3RD SREET","CERES","CA","95307"
148323,"2727 5TH STREET","OMAHA","NE","68108"
148324,"2727 ALHAMBRA AVENUE SUITE 5","MARTINEZ","CA","94553"
148325,"2727 ALLEN PARKWAY 1300","HOUSTON","TX","77019"
148326,"2727 ALLEN PARKWAY SUITE 1100","HOUSTON","TX","77019"
148327,"2727 ALLEN PKWY STE 1300","HOUSTON","TX","77019"
148328,"2727 ARIANE DR 165","SAN DIEGO","CA","92117"
148329,"2727 CALIFORNIA ST","BERKELEY","CA","94703"
148330,"2727 CAMBRIDGE STREET","PHILADELPHIA","PA","19130"
148331,"2727 CAMINO DEL RIO S STE 248","SAN DIEGO","CA","92108"
148332,"2727 CHESLEY AVENUE","PARKVILLE","MD","21234"
148333,"2727 CHOICE STREET","DALLAS","TX","75215"
148334,"2727 CHURCHVIEW AVE","PITTSBURGH","PA","15227"
148335,"2727 COLLEGE AVE","DES MOINES","IA","50311"
148336,"2727 COUNCIL STREET","DALLAS","TX","75215"
148337,"2727 E 201ST STREET","MOUNDS","OK","74047"
148338,"2727 E 21 ST STE 200","TULSA","OK","74114"
148339,"2727 E 53RD AVE A107","SPOKANE","WA","99223"
148340,"2727 E 55TH STREET","INDIANAPOLIS","IN","46220"
148341,"2727 E ANAHEIM ST UNIT 4364","LONG BEACH","CA","90804"
148342,"2727 E PORTICO CT","SPOKANE","WA","99223"
148343,"2727 E SIESTA LN","PHOENIX","AZ","85050"
148344,"2727 EAST  55TH ST- NUMBER 20086","INDIANAPOLIS","IN","46220"
148345,"2727 EAST POINT STREET","EAST POINT","GA","30344"
148346,"2727 ELMSIDE DR UNIT 204","HOUSTON","TX","77042"
148347,"2727 ENTERPRISE PARKWAY SUITE 105","HENRICO","VA","23294"
148348,"2727 ENTERPRISE PARKWAY","HENRICO","VA","23294"
148349,"2727 FULLER ROAD","ANN ARBOR","MI","48105"
148350,"2727 GEORGIA AVENUE","WEST PALM BEACH","FL","33405"
148351,"2727 HIGHLAND AVENUE","NATIONAL CITY","CA","91950"
148352,"2727 JEFFERSON AVENUE SUITE 207-209","SAINT LOUIS","MO","63118"
148353,"2727 KALISTE SALOOM RD","LAFAYETTE","LA","70508"
148354,"2727 KIRBY DRIVE 21E","HOUSTON","TX","77098"
148355,"2727 KIRBY DRIVE 23D","HOUSTON","TX","77098"
148356,"2727 LINCOLN LN","WILMETTE","IL","60091"
148357,"2727 LIZZIE COVE","SOUTHAVEN","MS","38671"
148358,"2727 MICHIGAN","GRANITE CITY","IL","62040"
148359,"2727 MIDTOWN CT APT 34","PALO ALTO","CA","94303"
148360,"2727 N 38TH ST","FAIRMONT CITY","IL","62201"
148361,"2727 N BRISTOL ST","SANTA ANA","CA","92706"
148362,"2727 N MAYVIEW RD","RALEIGH","NC","27507"
148363,"2727 N MAYVIEW RD","RALEIGH","NC","27607"
148364,"2727 NASA PKWY 1511","SEABROOK","TX","77586"
148365,"2727 NICOLLET AVENUE  SUITE 207","MINNEAPOLIS","MN","55408"
148366,"2727 NW 17TH TERRACE 205","MIAMI","FL","33125"
148367,"2727 PACES FERRY RD SUITE 750","ATLANTA","GA","30339"
148368,"2727 PACES FERRY ROAD SE SUITE 750","ATLANTA","GA","30339"
148369,"2727 PACES FERRY ROAD SUITE 750","ATLANTA","GA","30339"
148370,"2727 PACES FERRY SE BLDG 1 STE 750","ATLANTA","GA","30339"
148371,"2727 PALISADE AVENUE  APT 10-J","BRONX","NY","10463"
148372,"2727 PIERCE STREET","SAN FRANCISCO","CA","94123"
148373,"2727 QUAIL LN","NORTHBROOK","IL","60062"
148374,"2727 RAPIDS WAY","AKRON","OH","44312"
148375,"2727 S 625 W APT H101","BOUNTIFUL","UT","84010"
148376,"2727 S INGRAM MILL ROAD","SPRINGFIELD","MO","65804"
148377,"2727 S QUINCY STREET APT 601","ARLINGTON","VA","22205"
148378,"2727 SECOND AVE STE 126","DETROIT","MI","48201"
148379,"2727 SHEPHERD ROAD","LAKELAND","FL","33811"
148380,"2727 SKYVIEW DRIVE  NUMBER 1033","LITHIA SPRINGS","GA","30122"
148381,"2727 SKYVIEW DRIVE SUITE 1474","LITHIA SPRINGS","GA","30122"
148382,"2727 SOUTH BROAD STREET SUITE 101","NEW ORLEANS","LA","70125"
148383,"2727 SOUTH JEFFERSON AVENUE STE 207","SAINT LOUIS","MO","63118"
148384,"2727 SYNOTT ROAD 110","HOUSTON","TX","77082"
148385,"2727 W 154TH ST","COMPTON","CA","90220"
148386,"2727 W 6TH STREET","LOS ANGELES","CA","90057"
148387,"2727 W BLUFF AVE APT 128","FRESNO","CA","93711"
148388,"2727 W BROOKLYN AVE","DALLAS","TX","75211"
148389,"2727 W HWY 52","EMMETT","ID","83617"
148390,"2727 WEST 6TH STREET","LOS ANGELES","CA","90057"
148391,"2727 WEST WINNEMAC AVENUE","CHICAGO","IL","60625"
148392,"2727 WESTERN AVENUE","DAVENPORT","IA","52803"
148393,"2727 WOLF TRAIL","ATLANTA","GA","30349"
148394,"27272 HARNESS DRIVE","TEHACHAPI","CA","93561"
148395,"27279 BURMASTER RD","SEDRO WOOLLEY","WA","98284"
148396,"2727A N 56TH ST","MILWAUKEE","WI","53210"
148397,"2728 BEDDINGTON WAY","SUWANEE","GA","30024"
148398,"2728 CLOCHESTER CRES","NORFOLK","VA","23504"
148399,"2728 COLLEGE AVE","DES MOINES","IA","50311"
148400,"2728 ELAINE CT","LITHIA SPRINGS","GA","30122"
148401,"2728 EMERALD RIDGE DR","COLORADO SPRINGS","CO","80920"
148402,"2728 ESAW","MINDEN","NV","89423"
148403,"2728 EWING AVE SOUTH","MINNEAPOLIS","MN","55416"
148404,"2728 FAIRLANE AVE","WATERLOO","IA","50702"
148405,"2728 GASTON GATE","MOUNT PLEASANT","SC","29466"
148406,"2728 MCKINNON ST APT 1506","DALLAS","TX","75201"
148407,"2728 MILE HILL RD","SUNBURY","PA","17801"
148408,"2728 MIRANDA DR","MURFREESBORO","TN","37128"
148409,"2728 N FRATNEY ST","MILWAUKEE","WI","53212"
148410,"2728 NATURE TRAIL ROAD","GLEN ALLEN","VA","23060"
148411,"2728 NORTH MALLARD LANE","ROUND LAKE BEACH","IL","60073"
148412,"2728 REAGAN STREET UNIT 201","DALLAS","TX","75219"
148413,"2728 REED CREEK DRIVE","DRAPER","VA","24324"
148414,"2728 RENO DRIVE","SAN JOSE","CA","95148"
148415,"2728 S PARTRIDGE CIRCLE","HOPKINS","SC","29061"
148416,"2728 S SULELY DR UNIT 103","GILBERT","AZ","85925"
148417,"2728 S SULLEY DRIVE UNIT 103","GILBERT","AZ","85295"
148418,"2728 W POLK ST","CHICAGO","IL","60612"
148419,"2728 WASHINGTON BLVD","BALTIMORE","MD","21230"
148420,"27287 PATRICK AVENUE","HAYWARD","CA","94544"
148421,"27288 S 1625 RD","SHELDON","MO","64784"
148422,"27289 LOUISVILLE ROAD","CAVE CITY","KY","42127"
148423,"27289 SLEEPY HOLLOW AVE APT 204","HAYWARD","CA","94545"
148424,"2729 18TH STREET","SAN PABLO","CA","94806"
148425,"2729 ALPINA COURT","PLEASANTON","CA","94588"
148426,"2729 BM MONTGOMERY STREET","BIRMINGHAM","AL","35209"
148427,"2729 BOWDENS FERRY RD","NORFOLK","VA","23508"
148428,"2729 BRENTWOOD BLVD","GRAND ISLAND","NE","68801"
148429,"2729 CANNON AVE APT B","CHATTANOOGA","TN","37404"
148430,"2729 CENTER ROAD","POLAND","OH","44514"
148431,"2729 COTTAGE PL","GREENSBORO","NC","27455"
148432,"2729 E LEHIGH AVE","PHILADELPHIA","PA","19125"
148433,"2729 ENOCH AVENUE","ZION","IL","60099"
148434,"2729 FORT SCOTT DRIVE","ARLINGTON","VA","22202"
148435,"2729 JEFFERSON AVENUE","KNOXVILLE","TN","37914"
148436,"2729 NEW PORT ROYAL ROAD","THOMPSONS STATION","TN","37179"
148437,"2729 NORTH OSPREY AVENUE","SARASOTA","FL","34234"
148438,"2729 NW 6 STREET","POMPANO BEACH","FL","33069"
148439,"2729 PORTER AVE SUITE C","EL PASO","TX","79930"
148440,"2729 PORTER AVENUE SUITE 254","EL PASO","TX","79930"
148441,"2729 PORTER AVENUE SUITE B","EL PASO","TX","79930"
148442,"2729 PROSPECT PARK DRIVE STE 117","RANCHO CORDOVA","CA","95670"
148443,"2729 RUDY RD","VAN BUREN","AR","72956"
148444,"2729 RUTLEDGE WAY","STOCKTON","CA","95207"
148445,"2729 SPRINGHILL DR","GRAPEVINE","TX","76051"
148446,"2729 SPYGLASS DR","CARROLLTON","TX","75007"
148447,"2729 SR 580 SUITE C","CLEARWATER","FL","33761"
148448,"2729 STATE RD 580","CLEARWATER","FL","33761"
148449,"2729 TAFT STREET","SACRAMENTO","CA","95815"
148450,"2729 TERRACE ROAD SE APT 342","WASHINGTON","DC","20020"
148451,"2729 W GRIFFITH WAY","FRESNO","CA","93705"
148452,"2729 W JARVIS AVE UNIT 1","CHICAGO","IL","60645"
148453,"27290 WOODBURN HILL ROAD","MECHANICSVILLE","MD","20659"
148454,"27294 COUNTY ROAD 2240 NORTH","TOPEKA","IL","61567"
148455,"27295 EASTVALE ROAD","PALOS VERDES PENINSU","CA","90274"
148456,"273 ABBOTT AVENUE","ELMSFORD","NY","10523"
148457,"273 APPLEWOOD CTR PLACE SUITE 218","GREENVILLE","SC","29607"
148458,"273 AYLESBURY BLVD","MCDONOUGH","GA","30252"
148459,"273 BAHAMA LANE","PALM BEACH","FL","33480"
148460,"273 BLACKSMITH ROAD","OLEY","PA","19547"
148461,"273 BRENTWOOD DRIVE","HOUMA","LA","70360"
148462,"273 BUCKTAIL DR","MIDDLETOWN","DE","19709"
148463,"273 CASCADING ST","HENDERSON","NV","89074"
148464,"273 CHAPEL TERRACE APARTMENT 5","BURLINGTON","WI","53105"
148465,"273 CHURCH STREET","LODI","NJ","07644"
148466,"273 CIDER HILL RD","YORK","ME","03909"
148467,"273 CLERMONT AVE","BROOKLYN","NY","11205"
148468,"273 CONGERS RD","NEW CITY","NY","10956"
148469,"273 CORPORATE DRIVE","PORTSMOUTH","NH","03801"
148470,"273 DRAKE AVE","MARIN CITY","CA","94965"
148471,"273 E BROADWAY ST","LOVELAND","OH","45140"
148472,"273 EAST 68TH AVE","MERRILLVILLE","IN","46410"
148473,"273 EAST ROCKAWAY ROAD","HEWLETT","NY","11557"
148474,"273 EUSKADI LANE P O BOX 89","GOODNG","ID","83330"
148475,"273 FIRESIDE TRAIL","DOUGLASVILLE","GA","30134"
148476,"273 GEORGE CLYDE LANE","HIGH POINT","NC","27262"
148477,"273 GRAND AVENUE","BELGIUM","WI","53004"
148478,"273 HIBISCUS AVE","SAN JACINTO","CA","92582"
148479,"273 HILDAGO RD","ST AUGUSTINE","FL","32080"
148480,"273 JAY BIRD LANE","HEDGESVILLE","WV","25427"
148481,"273 KEYSTONE DR APT 5","RANTOUL","IL","61866"
148482,"273 KIPP STREET 2ND FLOOR","HACKENSACK","NJ","07601"
148483,"273 KITE LAKE ROAD","FAYETTEVILLE","GA","30214"
148484,"273 LA VALLE STRADA","POCATELLO","ID","83201"
148485,"273 LAKE VALLEY DRIVE","MAUMELLE","AR","72113"
148486,"273 LAKE VALLEY DRIVE","MAUMELLLE","AR","72113"
148487,"273 LENOX AVENUE","NEW YORK","NY","10027"
148488,"273 LYNDSIE DRIVE","COPPELL","TX","75019"
148489,"273 MAIN ST","WAREHAM","MA","02571"
148490,"273 MIDDLESEX AVENUE","MEDFORD","MA","02155"
148491,"273 MIRTH DR","VALLEY COTTAGE","NY","10989"
148492,"273 MURRAY HILL TERRACE","BERGENFIELD","NJ","07621"
148493,"273 N 2ND ST","RALSTON","OK","74650"
148494,"273 NORTH HOLMES AVE","INDIANAPOLIS","IN","46222"
148495,"273 NORTH PEACHTREE STREET","NORCROSS","GA","30071"
148496,"273 NORTH STARK HIGHWAY","WEARE","NH","03281"
148497,"273 OCEAN PALM DRIVE","FLAGLER BEACH","FL","32136"
148498,"273 OLD LAURINBURG ROAD","HAMLET","NC","28345"
148499,"273 OLD STAGE ROAD","LATTA","SC","29565"
148500,"273 OLIVIA LANE","MORETOWN","VA","05660"
