"ID","Address","City","State","Zip"
17501,"10852 GULFDALE","SAN ANTONIO","TX","78216"
17502,"10852 INDIGO SKY WAY","SOUTH JORDAN","UT","84009"
17503,"10852 LEM TURNER ROAD","JACKSONVILLE","FL","32218"
17504,"10853 ACADEMY ROAD","PHILADELPHIA","PA","19154"
17505,"10853 ARROWTREE BLVD","CLERMONT","FL","34715"
17506,"10853 LAKESIDE DR","ROGERS","AR","72756"
17507,"10853 RED BADGE AVENUE","LAS VEGAS","NV","89166"
17508,"10854 N 60TH AVE STE 2124","GLENDALE","AZ","85304"
17509,"10854 US HIGHWAY 42","UNION","KY","41091"
17510,"10855 CYPRESS GLEN DR","CORAL SPRINGS","FL","33071"
17511,"10855 E ANDREW JOHNSON HWY","LIMESTONE","TN","37681"
17512,"10855 ELDERWOOD ROAD","SAN DIEGO","CA","92131"
17513,"10855 N GLEN ABBEY DRIVE","ORO VALLEY","AZ","85737"
17514,"10855 PICADILLY SQUARE DRIVE","CHESTERFIELD","MO","63017"
17515,"10855 QUAIL ROOST RD","BAHAMA","NC","27503"
17516,"10855 US HW 69 N","TYLER","TX","75706"
17517,"10856","PARKER","CO","80138"
17518,"10857 SHARONDALE RD APT F101","CINCINNATI","OH","45241"
17519,"10857 STATE HIGHWAY 154","MARSHALL","TX","75670"
17520,"10857 WASHINGTON BAY DRIVE","FISHERS","IN","46037"
17521,"10857 WOODCHUCK LANE SE","PORT ORCHARD","WA","98367"
17522,"10858 NYS RTE 9N","KEENE","NY","12942"
17523,"10858 S MICHIGAN AVE","CHICAGO","IL","60628"
17524,"10858 SUNSET RIDGE DRIVE","SAN DIEGO","CA","92131"
17525,"1086 ADDISON RD UPSTAIRS","CLEVELAND","OH","44103"
17526,"1086 AVENIDA SEVILLE","RIO RICO","AZ","85648"
17527,"1086 BROADWAY","BUFFALO","NY","14212"
17528,"1086 E 2ND STREET APT 1","JAMESTOWN","NY","14701"
17529,"1086 EDENBOWER LANE","REDWOOD CITY","CA","94601"
17530,"1086 HIGHVIEW RD","LANTANA","FL","33462"
17531,"1086 INKSTER RD","INKSTER","MI","48141"
17532,"1086 JACKSON DITCH ROAD","HARRINGTON","DE","19952"
17533,"1086 JEFFERSON RD","PENN HILLS","PA","15235"
17534,"1086 LONGWOOD DRIVE","WOODSTOCK","GA","30189"
17535,"1086 MISTY MEADOWS CROSSING","HAMPTON","GA","30228"
17536,"1086 MONTCLAIR CIRCLE","WESTLAKE","OH","44145"
17537,"1086 MOSSWOOD ROAD","CHOUDRANT","LA","71227"
17538,"1086 NORWAY ROAD","KENDALL","NY","14476"
17539,"1086 PEMBROKE STREET","TEANECK","NJ","07666"
17540,"1086 TANGLEWOOD ROAD","JONESBORO","GA","30236"
17541,"1086 W 4150 N","PLEASANT VIEW","UT","84414"
17542,"1086 W YALE","FLINT","MI","48505"
17543,"1086 WILMA RUDOLPH BLVD","CLARKSVILLE","TN","37040"
17544,"10860 20 1/2 ST SE","ROGERS","ND","58479"
17545,"10860 CARLOWAY HILLS DRIVE","WIMAUMA","FL","33598"
17546,"10860 CARRISSA TRL","ALPHARETTA","GA","30022"
17547,"10860 PINE CONE CT","WEST OLIVE","MI","49460"
17548,"10861 EL NOPAL","SANTEE","CA","92071"
17549,"10862 DE FOE AVENUE","PACOIMA","CA","91331"
17550,"10862 DEPOT DR","BEALETON","VA","22712"
17551,"10862 FITE HAUCK RD","SARDINIA","OH","45171"
17552,"10862 TWO NOTCH ROAD APT 7309","ELGIN","SC","29045"
17553,"10862 WINESAP AVE","CHERRY VALLEY","CA","92223"
17554,"10863 SOUTHSHORE COURT","HAMPTON","GA","30228"
17555,"10863 STANDING STONE DRIVE","WIMAUMA","FL","33598"
17556,"10864 4TH PLACE SW","SEATTLE","WA","98146"
17557,"10864 ANGELINE DRIVE","LITTLE FALLS","MN","56345"
17558,"10864 M-43","RICHLAND","MI","49083"
17559,"10864 ROGALLA DRIVE","CHARLOTTE","NC","28277"
17560,"10864 STEEDING HORSE DRIVE","JACKSONVILLE","FL","32257"
17561,"10865  GABLE STREET","BOCA RATON","FL","33428"
17562,"10865 N RAMSEY RD","HAYDEN","ID","83835"
17563,"10865 N TARTAN COURT","MEQUON","WI","53097"
17564,"10866 210 ST","BLANCHARD","OK","73010"
17565,"10866 CAMPAIN CT","MANASSAS","VA","20109"
17566,"10866 WASHINGTON BLVD   STE 757","CULVER CITY","CA","90232"
17567,"10866 WASHINGTON BLVD 1010","CULVER CITY","CA","90323"
17568,"10866 WASHINGTON BLVD 870","CULVER CITY","CA","90232"
17569,"10866 WASHINGTON BLVD NUM 38","CULVER CITY","CA","90230"
17570,"10866 WASHINGTON BLVD STE - 186","CULVER CITY","CA","90232"
17571,"10866 WASHINGTON BLVD STE 220","CULVER CITY","CA","90232"
17572,"10866 WASHINGTON BLVD SUITE 833","CULVER CITY","CA","90232"
17573,"10866 WASHINGTON BLVD SUITE 927","CULVER CITY","CA","90232"
17574,"10866 WASHINGTON BLVD","CULVER CITY","CA","90232"
17575,"10866 WASHINGTON BOULEVARD","CULVER CITY","CA","90232"
17576,"10866 WILSHIRE BLVD","LOS ANGELES","CA","90024"
17577,"10868 E KALIL DR","SCOTTSDALE","AZ","85259"
17578,"10868 GROVEHAMPTON CT","RESTON","VA","20194"
17579,"10868 SOUTH MILLBROOK LANE","OLATHE","KS","66061"
17580,"10869 N SCOTTSDALE RD 103-148","SCOTTSDALE","AZ","85254"
17581,"10869 N SCOTTSDALE RD 103-262","SCOTTSDALE","AZ","85254"
17582,"10869 N SCOTTSDALE ROAD 103-222","SCOTTSDALE","AZ","85254"
17583,"10869 W PARKER AVE","BOISE","ID","83709"
17584,"1087  COUNTY RD 1383","CHICKASHA","OK","73018"
17585,"1087 BEACON ST SUITE 303","NEWTON","MA","02459"
17586,"1087 BRADFORD CROSSING PL","GOODE","VA","24556"
17587,"1087 BROAD STREET 1ST FLOOR","BRIDGEPORT","CT","06604"
17588,"1087 BROAD STREET","BRIDGEPORT","CT","06604"
17589,"1087 EAST 43 STREET","BROOKLYN","NY","11210"
17590,"1087 FARM RD 2216","SUMNER","TX","75486"
17591,"1087 FORT HILL STREET","MACON","GA","31217"
17592,"1087 GOLF COURSE ROAD","SOUTH BOSTON","VA","24592"
17593,"1087 KENSINGTON DR","ROSEVILLE","CA","95661"
17594,"1087 KENYON AVENUE","PLAINFIELD","NJ","07060"
17595,"1087 LAKESIDE DRIVE","NEW SHOREHAM","RI","02807"
17596,"1087 MILLER AVE","COLUMBUS","OH","43206"
17597,"1087 NORTH HORSEPOUND ROAD","CARMEL","NY","10512"
17598,"1087 ORANGE GROVE ROAD","CHARLESTON","SC","29407"
17599,"1087 PALMS BLVD","LOS ANGELES","CA","90034"
17600,"1087 SATINLEAF STREET","HOLLYWOOD","FL","33019"
17601,"1087 SEEGARS MILL RD","CAMDEN","SC","29020"
17602,"1087 SOUTH KIHEI ROAD","KIHEI","HI","96753"
17603,"1087 SOUTH SACRAMENTO PLACE","CHANDLER","AL","85286"
17604,"1087 SWEET AVE","SAN JOSE","CA","95129"
17605,"1087 TAZLINA CT","FAIRBANKS","AK","99701"
17606,"1087 THUNDERBIRD DRIVE","EL PASO","TX","79912"
17607,"1087 WOODLAND AVE SE","ATLANTA","GA","30316"
17608,"10870 BREAKING ROCKS DR","TAMPA","FL","33647"
17609,"10870 EAST BUTHERUS DRIVE","SCOTTSDALE","AZ","85255"
17610,"10870 N CO RD 500 W","BRAZIL","IN","47834"
17611,"10870 SE STEVENS WAY","HAPPY VALLEY","OR","97086"
17612,"10871 BUSTLETON AVE UNIT 265","PHILADELPHIA","PA","19116"
17613,"10871 S DURAND RD","DURAND","MI","48429"
17614,"10872 FM 1303","FLORESVILLE","TX","78114"
17615,"10872 WESTMINSTER AVENUE SUITE 105","GARDEN GROVE","CA","92843"
17616,"10872 WESTMINSTER AVENUE SUITE 206","GARDEN GROVE","CA","92843"
17617,"10872 WITCHER MOUNTAIN ROAD","GUFFEY","CO","80820"
17618,"10873 BRIXTON LN","FISHERS","IN","46037"
17619,"10873 MOSSY ROCK DR","FISHERS","IN","46038"
17620,"10874 WHITE STAR DR","BASTROP","LA","71220"
17621,"10875 ABERCORN ST UNIT 626","SAVANNAH","GA","31419"
17622,"10875 PLANO ROAD STE 101","DALLAS","TX","75238"
17623,"10875 S GREAT HORNED OWL WAY","VAIL","AZ","85641"
17624,"10876 CALLE VERDE 150","LA MESA","CA","91941"
17625,"10876 SW 53RD CIRCLE","OCALA","FL","34476"
17626,"10877 COPPER HILL DRIVE","JACKSONVILLE","FL","32218"
17627,"10878 NW 83 STREET  UNIT 3","DORAL","FL","33178"
17628,"10878 WESTHEIMER RD NUMBER 210","HOUSTON","TX","77042"
17629,"10879 N 200 W","FOUNTAINTOWN","IN","46130"
17630,"10879 VEREDA SOL DEL DIOS","SAN DIEGO","CA","92130"
17631,"1088 20TH ST N","JACKSONVILLE BEACH","FL","32250"
17632,"1088 220TH ST","WINTERSET","IA","50273"
17633,"1088 ANDERSON COUNTY ROAD 430","PALESTINE","TX","75802"
17634,"1088 BEACONSFIELD AVE APT 1N","GROSSE POINTE PARK","MI","48230"
17635,"1088 BISHOP STREET SUITE 2009","HONOLULU","HI","96813"
17636,"1088 CASCADE PLACE","CLAREMONT","CA","91711"
17637,"1088 CHURCHILL DR","FRISCO","TX","75034"
17638,"1088 KLEIHEGE ROAD","NEW ULM","TX","78950"
17639,"1088 LEISURE LANE","VILLEPLATTE","TX","79762"
17640,"1088 LEJACK CIRCLE","FOREST","VA","24551"
17641,"1088 MADISON 206","FREDERICKTOWN","MO","63645"
17642,"1088 MADISON 288","FREDERICKTOWN","MO","63645"
17643,"1088 PINE VALLEY DRIVE","CALERA","AL","35040"
17644,"1088 RUCKERSVILLE RD","ELBERTON","GA","30635"
17645,"1088 RUCKERSVILLE ROAD","ELBERTON","GA","30635"
17646,"1088 S AVE 31E","WELLTON","AZ","85356"
17647,"1088 S HEMLOCK ST","CANNON BEACH","OR","97110"
17648,"1088 SADDLE RIDGE WEST","PORTAGE","WI","53901"
17649,"1088 SAGEHILL DRIVE","SALT LAKE CITY","UT","84124"
17650,"1088 W BEARKAT DRIVE","CUSHING","TX","75760"
17651,"1088 WHITEHAVEN LANE","MEMPHIS","TN","38116"
17652,"10880 BARKER CYPRESS RD","CYPRESS","TX","77433"
17653,"10880 CAMINITO ARCADA","SAN DIEGO","CA","92131"
17654,"10880 DYER","EL PASO","TX","79934"
17655,"10880 HWY 322 BELLVIEW RD","CLARKSDALE","MS","38614"
17656,"10880 JOHN EDWARD DRIVE","MANTUA","OH","44255"
17657,"10880 KINGS POND DR","PROVIDENCE FRG","VA","23140"
17658,"10880 NE 9TH AV","BISCAYNE PARK","FL","33161"
17659,"10880 SW 220 STREET","MIAMI","FL","33170"
17660,"10880 WILSHIRE BLVD SUITE 1101","LOS ANGELES","CA","90024"
17661,"10880 WILSHIRE BOULEVARD SUITE 1101","LOS ANGELES","CA","90024"
17662,"10881 POPLAR STREET","LOMA LINDA","CA","92354"
17663,"10881 W OLD ROCHEPORT RD","ROCHEPORT","MO","65279"
17664,"10883 HOLLY RIDGE BLVD","CHARLOTTE","NC","28216"
17665,"10883 MILLER DRIVE","INDIANAPOLIS","IN","46231"
17666,"10883 PONDS LANE","CINCINNATI","OH","45242"
17667,"10884 SE LENORE ST","HAPPY VALLEY","OR","97086"
17668,"10885 NE 4TH STREET STE 700","BELLEVUE","WA","98004"
17669,"10885 ROGERS CIRCLE","JOHNS CREEK","GA","30097"
17670,"10886 TREE TOP LANE","LOWELL","MI","49331"
17671,"10886 US HWY 12","RANDLE","WA","98377"
17672,"10887 GARDEN OAKS LANE","CHARLOTTE","NC","28273"
17673,"10888 CORP RANCH ROAD","ASHLAND","OR","97520"
17674,"10888 ROUTE 116","HINESBURG","VT","05461"
17675,"10889 E 950TH ST","MACOMB","IL","61455"
17676,"10889 YORK LANE","ELBERTA","AL","36530"
17677,"1089 ARCHER ROAD","BEDFORD","OH","44146"
17678,"1089 CALLE YUCCA","THOUSAND OAKS","CA","91360"
17679,"1089 CYPRESS ST","ST PAUL","MN","55106"
17680,"1089 FINLEY RD","ROCK HILL","SC","29730"
17681,"1089 HARBOR POINT DR","SODDY DAISY","TN","37379"
17682,"1089 JW DRIVE","CARBNDALE","CO","81623"
17683,"1089 JW DRIVE","CARBONDALE","CO","81623"
17684,"1089 KINKEAD AVE SUTIE B201","NORTH TONAWANDA","NY","14120"
17685,"1089 MASSACHUSETTS AVE","ARLINGTON","MA","02476"
17686,"1089 MEADOWLANDS DRIVE","WINSTON SALEM","NC","27107"
17687,"1089 MOORESVILLE PIKE","COLUMBIA","TN","38401"
17688,"1089 NOBLE ROAD","CHRISTIANA","PA","17509"
17689,"1089 OLD NORTHERN BOULEVARD","ROSLYN","NY","11576"
17690,"1089 SOUTH WALDEN WAY UNIT 111","AURORA","CO","80017"
17691,"1089 TUOLUMNE ST","PARLIER","CA","93648"
17692,"1089 W EXCHANGE PKWY APT 6101","ALLEN","TX","75013"
17693,"1089 WABASH AVENUE","CINCINNATI","OH","45215"
17694,"10890 E SAN SALVADOR DR","SCOTTSDALE","AZ","85259"
17695,"10890 LEITNER CREEK DR  APT 147","BONITA SPRINGS","FL","34135"
17696,"10890 SAND HOLLOW CT","RENO","NV","89521"
17697,"10890 SKYWAY DRIVE","JOHNS CREEK","GA","30097"
17698,"10890 THORNMINT RD","SAN DIEGO","CA","92127"
17699,"10891 SCOTTY DRIVE","SOUTH JORDAN","UT","84095"
17700,"10891 TENNYSON STREET","WESTMINSTER","CO","80031"
17701,"10892 PAWNEE AVE","WRIGHT","KS","67882"
17702,"10893 TORREY PINE RD","TRUCKEE","CA","96161"
17703,"10894 GREENVALE DRIVE","HARRISBURG","NC","28075"
17704,"10894 OLD TRAIL ROAD","NORTH HUNTINGDON","PA","15642"
17705,"10895 N POINT HAYDEN DRIVE","HAYDEN LAKE","ID","83835"
17706,"10895 SE 131ST LANE","OCKLAWAHA","FL","32179"
17707,"10896 MONTEGO DR","SAN DIEGO","CA","92124"
17708,"10898 ADERMAN AVE","SAN DIEGO","CA","92126"
17709,"10898 MORNING DOVE DR","HAMPTON","GA","30228"
17710,"10898 PINE BLUFF DR","FISHERS","IN","46037"
17711,"109  E 8TH AVENUE","YORK","PA","17356"
17712,"109 16 176TH STREET","JAMAICA","NY","11433"
17713,"109 35TH STREET","SNYDER","TX","79549"
17714,"109 5TH AVENUE","BARABOO","WI","53913"
17715,"109 9TH STREET","HONESDALE","PA","18431"
17716,"109 A LONGLEAF DRIVE","PETAL","MS","39465"
17717,"109 AARON DRIVE","BELLEVILLE","IL","62220"
17718,"109 ACHSAH DR","OWINGS MILLS","MD","21117"
17719,"109 ALICIA DR","CRESTVIEW","FL","32536"
17720,"109 ALLEN ST","DAWSONVILLE","GA","30534"
17721,"109 AMBERSWEET WAY PMB 355","DAVENPORT","FL","33897"
17722,"109 AMBROSIA PL","POQUOSON","VA","23662"
17723,"109 AMHURST LN","BRISTOL","TN","37620"
17724,"109 ANTIQUE COURT","FAYETEVILE","NC","28312"
17725,"109 ARCHDALE DR","JACKSONVILLE","NC","28546"
17726,"109 ARNELL COURT","NEW CASTLE","DE","19720"
17727,"109 ASCENSION DRIVE","WILMINGTON","DE","19808"
17728,"109 ASHBURY HILLS DR","HENRICO","VA","23227"
17729,"109 ASHLAND AVE APT5","BUFFALO","NY","14222"
17730,"109 ASPEN GROVE LANE","WAUSAU","WI","54403"
17731,"109 ASPEN WAY","NOBLESVILLE","IN","46062"
17732,"109 ASTERBROOKE DR","DELAND","FL","32724"
17733,"109 AUSTIN ST","VERMILLION","SD","57069"
17734,"109 AUTUMN POINTE DRIVE","MADISON","AL","35757"
17735,"109 AUTUMNWOOD DRIVE","MANSFIELD","TX","76063"
17736,"109 BEACH 60TH STREET 1ST FLOOR","ARVERNE","NY","11692"
17737,"109 BEAR CREEK ROAD","SARVER","PA","16055"
17738,"109 BEERS STREET","NEW HAVEN","CT","06511"
17739,"109 BELMAR AVE","NEPTUNE","NJ","07753"
17740,"109 BERMUDA LANE","PALESTINE","TX","75803"
17741,"109 BIG PINE ROAD","BATESVILLE","AR","72501"
17742,"109 BILLINGS STREET","NORTH QUINCY","MA","02171"
17743,"109 BLAINE STREET","PASSAIC","NJ","07055"
17744,"109 BLENDEN","NORTH LITTLE ROCK","AR","72117"
17745,"109 BOOTHBAY STREET","BLOOMFIELD","CT","06002"
17746,"109 BOWERS LANE","CARY","NC","27519"
17747,"109 BRACKETT STREET   APT  2","PORTLAND","ME","04102"
17748,"109 BRANDON AVENUE","HUBERT","NC","28539"
17749,"109 BREAKERS DRIVE/ UNIT 403","MYRTLE BEACH","SC","29579"
17750,"109 BRIDGEPORT DR","SMITHVILLE","MO","64089"
17751,"109 BROAD STREET","KEYPORT","NJ","07735"
17752,"109 BROAD STREET","SELMA","AL","36701"
17753,"109 BROOKS AVE","LOOGOOTEE","IN","47553"
17754,"109 BROOKVIEW CT","SPRINGFIELD","TN","37172"
17755,"109 BRUNNER CT","PITTSBURGH","PA","15214"
17756,"109 BUCKLIN ST","PROVIDENCE","RI","02907"
17757,"109 BURNLEY LN","MOUNT AIRY","NC","27030"
17758,"109 CALLE FELIX","DELANO","CA","93215"
17759,"109 CALLOWAY COURT","COLUMBIA","SC","29223"
17760,"109 CANFIELD ROAD","HONEA PATH","SC","29654"
17761,"109 CARICO RDG","COEBURN","VA","24230"
17762,"109 CAROLINE STREET","ORANGE","VA","22960"
17763,"109 CARRINGTON AVENUE","LOWELL","AR","72745"
17764,"109 CARTER RD","MONROE","NC","28110"
17765,"109 CASCADE MEADOW CT","HENDERSON","NV","89011"
17766,"109 CHALKLEY CT","KNIGHTDALE","NC","27545"
17767,"109 CHASE AVE","WATERBURY","CT","06704"
17768,"109 CHELL RD","JOPPA","MD","21089"
17769,"109 CHRISTOPHER COURT","WARNER ROBINS","GA","31098"
17770,"109 CIMERRON DR","MYRTLE BEACH","SC","29588"
17771,"109 CLAIRE STREET","BELLE CHASSE","LA","70037"
17772,"109 CLEAR CREEK DRIVE SUITE 101","ASHLAND","OR","97520"
17773,"109 CLOVER STREET","BELLEVUE","ID","83313"
17774,"109 CLOVERDALE CT","ROSEVILLE","CA","95661"
17775,"109 COLTON STREET","WINDSOR","CT","06095"
17776,"109 COMMONS WAY","GREENVILLE","SC","29611"
17777,"109 COOPERS HAWK CIRCLE","IRMO","SC","29063"
17778,"109 COPPERLEAF ROAD","LAKEWAY","TX","78734"
17779,"109 CORNELIA ST","EAST RUTHERFORD","NJ","07073"
17780,"109 CORTONA DR","SAN RAMON","CA","94582"
17781,"109 COUNTY ROAD 59","UNION SPRINGS","AL","36089"
17782,"109 COVERLY PLACE","MELVILLE","NY","11747"
17783,"109 CRAWFORD STREET NORTH","REED POINT","MT","59069"
17784,"109 CREEKSIDE TRAIL","ARNOLD","MO","63010"
17785,"109 CYRUS POINT","CHARLESTON","WV","25314"
17786,"109 D REGENCY COMMONS DRIVE","GREER","SC","29650"
17787,"109 DAFFODIL LANE","MADISON","WI","53714"
17788,"109 DANIEL DRIVE","CLEMSON","SC","29631"
17789,"109 DAVIS ROAD","SEWICKLEY","PA","15143"
17790,"109 DOROTHY DRIVE","JAMESTOWN","TN","38556"
17791,"109 DUBE RANCH ROAD","MCDADE","TX","78650"
17792,"109 E 14 AVE","KENNEWICK","WA","99337"
17793,"109 E 17TH STREET SUITE 460","CHEYENNE","WY","82001"
17794,"109 E 17TH STREET SUITE 5487","CHEYENNE","WY","82001"
17795,"109 E 41ST ST","GARDEN CITY","ID","83714"
17796,"109 E 43RD ST","CHICAGO","IL","60653"
17797,"109 E 53RD STREET","CHICAGO","IL","60615"
17798,"109 E BADGER STREET","SHANNON","IL","61078"
17799,"109 E BROADWAY ST","LENOIR CITY","TN","37771"
17800,"109 E D STREET","BUTNER","NC","27509"
17801,"109 E EIGHTH STREET","DELL RAPIDS","SD","57022"
17802,"109 E EUREKA AVENUE","EUREKA","IL","61530"
17803,"109 E JACKSON STREET","EAST SPENCER","NC","28039"
17804,"109 E MAIN STREET SUITE 412","NORFOLK","VA","23510"
17805,"109 E MARIGOLD AVE","MCALLEN","TX","78501"
17806,"109 E MITHOFF","COLUMBUS","OH","43206"
17807,"109 E PINE ST","MERIDIAN","ID","83642"
17808,"109 E PRICE STREET","PHILADELPHIA","PA","19144"
17809,"109 E WASHINGTON","MCALESTER","OK","74501"
17810,"109 E WOOSTER STREET","BOWLING GREEN","OH","43402"
17811,"109 EAGLE PARK DRIVE","COLUMBIA","SC","29206"
17812,"109 EAST 8TH STREET","DULUTH","MN","55805"
17813,"109 EAST CANAL ROAD","DOVER","PA","17315"
17814,"109 EAST DRIVE","N. MASSAPEQUA","NY","11758"
17815,"109 EAST FRANKLIN STREET","KENTON","OH","43326"
17816,"109 EAST HOWARD STREET","HIBBING","MN","55746"
17817,"109 EAST JARRETTSVILLE ROAD UNIT H","FOREST HILL","MD","21050"
17818,"109 EAST MAIN STREET  PO BOX 116","RICEVILLE","IA","50466"
17819,"109 EAST MAIN STREET SUITE 412","NORFOLK","VA","23510"
17820,"109 EAST MAIN STREET","MARYVILLE","MO","64468"
17821,"109 EAST MAIN STREET","UNION","SC","29379"
17822,"109 EAST RAILROAD STREET","FREDRICKSBURG","IA","50630"
17823,"109 EL CERRITO DR","BELLEVILLE","IL","62221"
17824,"109 ELDRIDGE DRIVE","LAFAYETTE","LA","70508"
17825,"109 ELIZABETH POINTE DRIVE","GERMANTOWN HILLS","IL","61548"
17826,"109 ELLICE COURT","WARNER ROBINS","GA","31088"
17827,"109 EXETER STREET","MANTEO","NC","27954"
17828,"109 FAIRVIEW RD","DOVER","TN","37058"
17829,"109 FALLINGROCK WAY","BEREA","OH","44017"
17830,"109 FAY ST","EDNA","TX","77957"
17831,"109 FE RODGERS BLVD SOUTH","HARRISON","NJ","07029"
17832,"109 FELLS AVE","MEDFORD","MA","02155"
17833,"109 FELTON AVE","COLLINGDALE","PA","19023"
17834,"109 FILBERT AVENUE APT B","SAUSALITO","CA","94965"
17835,"109 FIRST AVE W STE A","CARTHAGE","TN","37030"
17836,"109 FIRST STREET","DONNYBROOK","ND","58734"
17837,"109 FISHERS WOOD DRIVE","COLUMBIA","SC","29223"
17838,"109 FISHERY LOOP ROAD","ERWIN","TN","37650"
17839,"109 FLORENCE STREET","HENDERSONVILLE","NC","28792"
17840,"109 FORELOCK COURT","WEST CHESTER","PA","19382"
17841,"109 FORSYTH ST","BARNESVILLE","GA","30204"
17842,"109 FOSTERVILLE ROAD","GREENSBURG","PA","15601"
17843,"109 FOXWOOD DRIVE","ODUM","GA","31555"
17844,"109 FRASIER BAY RD","COLUMBIA","SC","29229"
17845,"109 FREEMANS TRACE","YORKTOWN","VA","23693"
17846,"109 FURMAN VIEW DRIVE","GREENVILLE","SC","29609"
17847,"109 GABRIELLE DRIVE","GUYTON","GA","31312"
17848,"109 GALLIVAN DRIVE","COLUMBIA","SC","29229"
17849,"109 GARDENIA WAY","NIPOMO","CA","93444"
17850,"109 GENEVA BLVD","BURNSVILLE","MN","55306"
17851,"109 GLADESDOWN CT","DELAND","FL","32724"
17852,"109 GLENWOOD ST","FAIRMONT","WV","26554"
17853,"109 GLORY RIDGE PLACE","ENNICE","NC","28623"
17854,"109 GOLDEN GATE PARKWAY","WENTZVILLE","MO","63385"
17855,"109 GRAPE STREET  APT H","CHICOPEE","MA","01013"
17856,"109 GRAYLING AVE 1ST FLOOR","NARBETH","PA","19072"
17857,"109 GREEN BROOK ROAD","GREEN BROOK","NJ","08812"
17858,"109 GREEN STREET SUITE 307","FAYETTEVILLE","NC","28301"
17859,"109 GREENE AVENUE APT 2E","BROOKLYN","NY","11238"
17860,"109 GREENVALE AVE","WEYMOUTH","MA","02188"
17861,"109 GREY WIDGEON CT","DAYTONA BEACH","FL","32119"
17862,"109 HARRIS AVENUE  SOUTH","PARK RIVER","ND","58270"
17863,"109 HAVEN STREET","FORREST CITY","AR","72335"
17864,"109 HAYDEN HILL RD","HADDAM","CT","06438"
17865,"109 HERNDON STREET","BEREA","KY","40403"
17866,"109 HIGH MOUNTAIN ROAD","SHIPPENSBURG","PA","17257"
17867,"109 HIGH STREET","GERMANTOWN HILLS","IL","61548"
17868,"109 HILL DRIVE","CASTLE ROCK","CO","80104"
17869,"109 HILLCREST DRIVE","CAMBRIA","WI","53923"
17870,"109 HILLSIDE DRIVE","HARMONY","PA","16037"
17871,"109 HIXSON ROAD","FLEMINGTON","NJ","08822"
17872,"109 HOBART DRIVE","LAUREL SPRINGS","NJ","08021"
17873,"109 HOCKENBURY DR","GLEN GARDNER","NJ","08826"
17874,"109 HOLIDAY ST","MOUNT LAUREL","NJ","08054"
17875,"109 HOLLETT STREET","SCITUATE","MA","02066"
17876,"109 HOLLY DRIVE","SWEDESBORO","NJ","08085"
17877,"109 HOWARD TER","LEONIA","NJ","07605"
17878,"109 HUGHES STREET NE","FORT WALTON BEACH","FL","32548"
17879,"109 HUNDRED OAKS LN","HOLLY SPRINGS","NC","27540"
17880,"109 HWY 53 WEST","DAWSONVILLE","GA","30534"
17881,"109 INDIAN RIDGE TERRACE","WESTFORD","MA","01886"
17882,"109 INVERNESS RD","WETUMPKA","AL","36092"
17883,"109 JANIE LANE","GRIFFIN","GA","30223"
17884,"109 JAY LN","BURLESON","TX","76028"
17885,"109 KAITLYN LANE","NEW BERN","NC","28562"
17886,"109 KALVESTA DRIVE","MORRISVILLE","NC","27560"
17887,"109 KASBERG DRIVE","TEMPLE","TX","76502"
17888,"109 KATY VIEW RIDGE CT","SAINT CHARLES","MO","63303"
17889,"109 KAUFMAN STREET NORTH","MOUNT VERNON","TX","75457"
17890,"109 KEEPSAKE","IRVINE","CA","92618"
17891,"109 KENNER AVENUE STE 100","NASHVILLE","TN","37205"
17892,"109 KENT DRIVE","NORTH WALES","PA","19454"
17893,"109 KERSEY ROAD","WAKEFIELD","RI","02879"
17894,"109 KETCHAM ROAD","BELLE MEAD","NJ","08502"
17895,"109 KIMBERLY DRIVE","EDENTON","NC","27932"
17896,"109 KING CHARLES CIRCLE","BALTIMORE","MD","21237"
17897,"109 KING STREET","ALIQUIPPA","PA","15001"
17898,"109 KINGSBORO AVE","GLOVERSVILLE","NY","12078"
17899,"109 KNOXLYN FARM DRIVE","KENNETT SQ","PA","19348"
17900,"109 L ST","ROCK SPRINGS","WY","82901"
17901,"109 LAFAYETTE STREET SUITE 705","NEW YORK","NY","10013"
17902,"109 LAKEVIEW DRIVE","GEORGETOWN","KY","40324"
17903,"109 LAKEWOOD CIRCLE","SAN MATEO","CA","94402"
17904,"109 LAMAR STREET","ROXBORO","NC","27573"
17905,"109 LANCASHIRE DR","BRANSON","MO","65616"
17906,"109 LANGLEY ROAD","AMSTERDAM","NY","12010"
17907,"109 LANGSTON RD","DARLINGTON","SC","29532"
17908,"109 LAUGHING GULL LANE","HAMPSTEAD","NC","28443"
17909,"109 LAUGHING GULL LN","HAMPSTEAD","NC","28443"
17910,"109 LAWRENCE AVENUE","LAWRENCE","NY","11559"
17911,"109 LAZARUS DRIVE","LEDGEWOOD","NJ","07042"
17912,"109 LEBANON CHURCH ROAD","STAUNTON","VA","24401"
17913,"109 LEE STREET","B","TN","38011"
17914,"109 LIBERTY TORCH CT","BELLEVILLE","IL","62220"
17915,"109 LIMOUSINE DRIVE","TUPELO","MS","38804"
17916,"109 LINDEN STREET APT 21","WALTHAM","MA","02452"
17917,"109 LIVE OAKS BOULEVARD SUITE 18113","CASSELBERRY","FM","32718"
17918,"109 LOCKHARTS LANE","COATESVILLE","PA","19320"
17919,"109 LOWRY HALL","CLEMSON","SC","29634"
17920,"109 MADRID WAY","SONOMA","CA","95476"
17921,"109 MAIN ST","HOULTON","ME","04730"
17922,"109 MAIN ST","RICHFORD","VT","05476"
17923,"109 MAIN STREET","MILFORD","TX","76670"
17924,"109 MANCHESTER DR","PATASKALA","OH","43062"
17925,"109 MANGROVE LANE","TAVERNER","FL","33070"
17926,"109 MAPLE ST","SOUTH PEKIN","IL","61564"
17927,"109 MAPLE STREET APT C","BURLINGTON","VT","05401"
17928,"109 MARBLE DRIVE","MCMURRAY","PA","15317"
17929,"109 MARIN DRIVE","PANAMA CITY","FL","32405"
17930,"109 MARTELE BLVD","LAFAYETTE","LA","70508"
17931,"109 MARTIN LUTHER KING DR","AHOSKIE","NC","27910"
17932,"109 MATILDA PLACE","FAIRFIELD","CT","06824"
17933,"109 MATTAPAN STREET","MATTAPAN","MA","02126"
17934,"109 MAXWELL AVE","GREENVILLE","SC","29605"
17935,"109 MEADOW LN","DENTON","TX","76207"
17936,"109 MEMORIAL DR","NEW CASTLE","DE","19720"
17937,"109 MERCER STREET","HIGHSTOWN","NJ","08520"
17938,"109 MIDDLESEX ST","GLOUCESTER CITY","NJ","08030"
17939,"109 MIDLAND AVE","KEARNY","NJ","07032"
17940,"109 MONOPONSAN DRIVE","STEVENSVILLE","MD","21666"
17941,"109 MORGAN LANE","ITTA BENA","MS","38941"
17942,"109 MORTON AVE","PALACIOS","TX","77465"
17943,"109 MOUNT CARMEL DRIVE","NATCHEZ","MS","39120"
17944,"109 MOUNTAIN AVE NO 568","MALDEN","MA","02148"
17945,"109 MT VERNON AVENUE","HUNTINGDON","PA","16652"
17946,"109 N 22ND AVE","YAKIMA","WA","98902"
17947,"109 N 4TH ST SUITE 200","BISMARCK","ND","58501"
17948,"109 N 5TH ST","SEYMOUR","IA","52590"
17949,"109 N 5TH STREET","ELGIN","NE","68636"
17950,"109 N 6TH ST","ALPINE","TX","79830"
17951,"109 N ADAMS ST","GLENDALE","CA","91345"
17952,"109 N ALMANSOR ST UNIT 15","ALHAMBRA","CA","91801"
17953,"109 N BEAUMONT AVE","KISSIMMEE","FL","34741"
17954,"109 N BOULEVARD","GUNNISON","CO","81230"
17955,"109 N DOHENY DR","BEVERLY HILLS","CA","90211"
17956,"109 N ENNIS ST","FUQUAY-VARINA","NC","27526"
17957,"109 N EXENE ST","GETTYSBURG","SD","57442"
17958,"109 N EXENE STREET","GETTYSBURG","SD","57442"
17959,"109 N FREEMAN","LUVERNE","MN","56156"
17960,"109 N JACKSON ST","HARTWELL","GA","30643"
17961,"109 N KEENE ST 9","COLUMBIA","MO","65201"
17962,"109 N KENTUCKY AVENUE 3RD FLOOR KNB","LAKELAND","FL","33801"
17963,"109 N MILL STREET","BELOIT","KS","67420"
17964,"109 N SAGINAW","DURAND","MI","48429"
17965,"109 N SHERIDAN ST","LOSTANT","IL","61334"
17966,"109 N WASHINGTON STREET","PAPILLION","NE","68046"
17967,"109 N WASHINGTON","DRAKESVILLE","IA","52552"
17968,"109 NANSEMOND TURN","YORKTOWN","VA","23693"
17969,"109 NAZARETH DRIVE","FORT VALLEY","VA","22652"
17970,"109 NE 23RD STREET","MOORE","OK","73160"
17971,"109 NELSON CIR","OLATHE","KS","66061"
17972,"109 NEWPORT AVENUE","TAPPAN","NY","10983"
17973,"109 NOONS QUARRY RD","MILFORD","NH","03055"
17974,"109 NORMA LANE","ASHLAND","MO","65010"
17975,"109 NORTH 33RD STREET","SAN JOSE","CA","95116"
17976,"109 NORTH 8TH","QUINCY","IL","62301"
17977,"109 NORTH BIRCH STREET","KALKASKA","MI","49646"
17978,"109 NORTH BLACK HORSE PIKE","RUNNEMEDE","NJ","08078"
17979,"109 NORTH EVERGREEN","MEMPHIS","TN","38107"
17980,"109 NORTH HAMPTON ROAD","DESOTO","TX","75115"
17981,"109 NORTH HILL STREET","LONDON","KY","40741"
17982,"109 NORTH KAUFMAN STREET","MOUNT VERNON","TX","75457"
17983,"109 NORTH MAIN STREET","CORBIN","KY","40701"
17984,"109 NORTH MAPLE STREET","OSCEOLA","AR","72370"
17985,"109 NORTH POST OAK LANE SUITE 410","HOUSTON","TX","77024"
17986,"109 NORTH POST OAK OAK LANE STE 410","HOUSTON","TX","77024"
17987,"109 NORTH STATE STREET","JACKSON","MS","39201"
17988,"109 NORTH STREET PO BOX 314","CHICORA","PA","16025"
17989,"109 NORTH STREET","WAVELAND","MS","39576"
17990,"109 NORWOOD COURT","FLORENCE","AL","35630"
17991,"109 NW 5TH ST","FORT LAUDERDALE","FL","33301"
17992,"109 NW 5TH STREET","FORT LAUDERDALE","FL","33301"
17993,"109 OAK PLAZA DR","GEORGETOWN","TX","78628"
17994,"109 OAK STREET SUITE 101","NEWTON UPPER FALLS","MA","02464"
17995,"109 OGDEN BLVD","DAYTONA BEACH","FL","32118"
17996,"109 OHIO AVE","EGG HARBOR TOWNSHIP","NJ","08234"
17997,"109 OLD HUMBOLDT RD","JACKSON","TN","38305"
17998,"109 OLD ROCK QUARRY RD","MORGANTON","NC","28655"
17999,"109 OSCAR STEVENS ROAD","WHITEVILLE","NC","28472"
18000,"109 OSPREY NEST CT","BLYTHEWOOD","SC","29016"
