"ID","Address","City","State","Zip"
267001,"6511 OAKMAN BLVD","DETROIT","MI","48228"
267002,"6511 PEBBLE DR","PENSACOLA","FL","32505"
267003,"6511 PIERCE ST","HOLLYWOOD","FL","33024"
267004,"6511 RIDGEWOOD LAKES DR","PARMA","OH","44129"
267005,"6511 S UNIVERSITY DRIVE SUITE 332","DAVIE","FL","33314"
267006,"6511 S YALE","CHICAGO","IL","60621"
267007,"6511 SURFSIDE BLVD","APOLLO BEACH","FL","33572"
267008,"6511 VANADA ROAD","NEWBURGH","IN","47630"
267009,"6511 WEDRON CT","CHARLOTTE","NC","28216"
267010,"6511 WILDLIFE WAY","BAYTOWN","TX","77523"
267011,"6511 WINDMILL DRIVE","ALVARADO","TX","76009"
267012,"65112 CR 665","PAW PAW","MI","49079"
267013,"651158 MAMALAHOA HWY STE 8A PMB 136","KAMUELA","HI","96743"
267014,"6512 38TH AVE NE","SEATTLE","WA","98115"
267015,"6512 ALLEGHENY AVENUE","TAKOMA PARK","MD","20912"
267016,"6512 DERBY DRIE","BAKERSFIELD","CA","93306"
267017,"6512 EAGLE RIDGE","EL PASO","TX","79912"
267018,"6512 ECTOR WAY","STOCKTON","CA","95210"
267019,"6512 FRANKS ROAD","BYRNES MILL","MO","63051"
267020,"6512 GENTLE RIVER DR","DALLAS","TX","75241"
267021,"6512 KAUFFMAN AVE","ARCADIA","CA","91007"
267022,"6512 N CANTON CENTER RD STE B","CANTON","MI","48187"
267023,"6512 N DECATUR SUITE 130-291","LAS VEGAS","NV","89131"
267024,"6512 NW 135TH ST","OKLAHOMA CITY","OK","73142"
267025,"6512 OVERHEART LANE","COLUMBIA","MD","21045"
267026,"6512 RUGBY AVE NUM 212","HUNTINGTON PARK","CA","90255"
267027,"65120 OLD REDMOND HWY","BEND","OR","97703"
267028,"65128 HWY 1058","ROSELAND","LA","70456"
267029,"6513 156TH AVENUE SE","BELLEVUE","WA","98006"
267030,"6513 BIMINI COURT","APOLLO BEACH","FL","33572"
267031,"6513 BOAT RACE RD","PANAMA CITY","FL","32403"
267032,"6513 CRESCENT VIEW DRIVE","SAINT LOUIS","MO","63129"
267033,"6513 DEER HORN DR","FORT WORTH","TX","76179"
267034,"6513 DI CARLO PL","RANCHO CUCAMONGA","CA","91739"
267035,"6513 GOLF VLG UNIT 8","ST THOMAS","VI","00802"
267036,"6513 HIGH POINT RUN","FORT WAYNE","IN","46825"
267037,"6513 JACKWOOD ST","HOUSTON","TX","77074"
267038,"6513 N BEACH ST","FORT WORTH","TX","76137"
267039,"6513 OLDE KNIGHT PKWY","COLUMBIA","SC","29209"
267040,"6513 REFLECTION DR 208","SAN DIEGO","CA","92124"
267041,"6513 SPARKLING DEW LANE","HUNTSVILLE","AL","35810"
267042,"6513 TIDWELL RD - D","HOUSTON","TX","77016"
267043,"65135 OLD BEND REDMOND HWY","BEND","OR","97703"
267044,"6514 CENTRAL AVENUE","ST PETERSBURG","FL","33707"
267045,"6514 E FARMVIEW ST","WICHITA","KS","67206"
267046,"6514 HYDE PARK DRIVE","ZIONSVILLE","IN","46077"
267047,"6514 MARLBORO PIKE UNIT 47766","DISTRICT HEIGHTS","MD","20753"
267048,"6514 MARLBORO PIKE","DISTRICT HEIGHTS","MD","20753"
267049,"6514 MERIDIAN STREET","LOS ANGELES","CA","90042"
267050,"6514 PARSONS BLVD APT 7A","FLUSHING","NY","11365"
267051,"6514 SID RD","LUCAMA","NC","27851"
267052,"6514 SILVER LANE","PLANO","TX","75023"
267053,"6514 WASHINGTON STREET","YOUNTVILLE","CA","94599"
267054,"6514 WILLOW SPRINGS BLVD","HUNTSVILLE","AL","35806"
267055,"6515 15TH STREET EAST UNIT K28","SARASOTA","FL","34243"
267056,"6515 5TH AVENUE NW","SEATTLE","WA","98117"
267057,"6515 ALFORD WAY","LITHONIA","GA","30058"
267058,"6515 AZELEA LEAF CT","KATY","TX","77449"
267059,"6515 BELCREST RD 1614D","HYATTSVILLE","MD","20782"
267060,"6515 BELCREST RD","HYATTSVILLE","MD","20782"
267061,"6515 BONIFAS CT","COLORADO SPRINGS","CO","80919"
267062,"6515 CLINTON HIGHWAY SUITE 210","KNOXVILLE","TN","37912"
267063,"6515 CLINTON HWY STE 216","KNOXVILLE","TN","37912"
267064,"6515 CORPORATE DR SUITE M-1","HOUSTON","TX","77036"
267065,"6515 DUPONT DR APT 3G","CHARLOTTE","NC","28217"
267066,"6515 DUPONT DRIVE APT 2G","CHARLOTTE","NC","28217"
267067,"6515 E LIVINGSTON AVE SUITE B5","REYNOLDSBURG","OH","43068"
267068,"6515 ERIC ST","SALCHA","AK","99714"
267069,"6515 GOLDLEAF DRIVE","BETHESDA","MD","20817"
267070,"6515 GOODMAN RD NUM 218","OLIVE BRANCH","MS","38654"
267071,"6515 GOODMAN ROAD SUITE 4 BOX 280","OLIVE BRANCH","MS","38654"
267072,"6515 HEFFERNAN","HOUSTON","TX","77087"
267073,"6515 HIDDEN RIDGE CT","SUGAR LAND","TX","77479"
267074,"6515 HILLMEAD ROAD","BETHESDA","MD","20817"
267075,"6515 HOOCHANEETSA BLVD UNIT A","COCHITI LAKE","NM","87083"
267076,"6515 JONES AVENUE NW","SEATTLE","WA","98117"
267077,"6515 LIGHTHOUSE DRIVE SUITE 204","PORTAGE","IN","46368"
267078,"6515 MILNE BOULEVARD","NEW ORLEANS","LA","70124"
267079,"6515 MISSION RIDGE","TRAVERSE CITY","MI","49686"
267080,"6515 N CRAWFORD AVE","LINCOLNWOOD","IL","60172"
267081,"6515 NORTH TRENHOLM RD","COLUMBIA","SC","29206"
267082,"6515 RED AOK DRIVE","CORONA","CA","92880"
267083,"6515 SANCTUARY TRL","SAUGATUCK","MI","49453"
267084,"6515 SANGER AVE SUITE 2","WACO","TX","76710"
267085,"6515 SE 137TH AVE","PORTLAND","OR","97236"
267086,"6515 SPRING STREET","TRUSSVILLE","AL","35173"
267087,"6515 TACOMA AVE S","TACOMA","WA","98408"
267088,"6515 TRUAX ROAD","CENTRAL POINT","OR","97502"
267089,"6515 W IL ROUTE 120","MCHENRY","IL","60097"
267090,"6515 WYDOWN BLVD","SAINT LOUIS","MO","63105"
267091,"6515 YALE ST APT 715","WESTLAND","MI","48185"
267092,"6515C HOOCHANEETSA BLVD","COCHITI LAKE","NM","87083"
267093,"6516 ELMORE RD","LITTLE ROCK","AR","72209"
267094,"6516 FAIRFIELD ST","LOS ANGELES","CA","90022"
267095,"6516 FEE ROAD","ROME","OH","44085"
267096,"6516 INDIAN HILLS ROAD","EDINA","MN","55439"
267097,"6516 MONONA DRIVE 174","MONONA","WI","53716"
267098,"6516 N 7TH STREET","PHOENIX","AZ","85014"
267099,"6516 N CAMPBELL AVE","CHICAGO","IL","60645"
267100,"6516 OLD DAVIS RD","SIMS","NC","27880"
267101,"6516 ROSECOMMON DR","PEACHTREE CORNERS","GA","30092"
267102,"6516 S HOLT AVENUE","LOS ANGELES","CA","90056"
267103,"6516 SANTIAGO CT","APOLLO BEACH","FL","33572"
267104,"6516 SE 87TH AVE","PORTLAND","OR","97266"
267105,"6516 VALLEY VIEW DRIVE","NORTH RICHLAND HILLS","TX","76182"
267106,"6516 W MAIN APT 24","LAFAYETTE","LA","70507"
267107,"6516 WICKVILLE DR","CHARLOTTE","NC","28215"
267108,"6517 76TH AVE N","BROOKLYN PARK","MN","55428"
267109,"6517 ALEXANDER RD","CHARLOTTE","NC","28270"
267110,"6517 BRENTWOOD STAIR RD","FORT WORTH","TX","76112"
267111,"6517 CAMPANA ST","FORT WORTH","TX","76133"
267112,"6517 CHINA GROVE COURT","ALEXANDRIA","VA","22310"
267113,"6517 DEARY STREET","PITTSBURGH","PA","15206"
267114,"6517 E LINCOLN DR","PARADISE VALLEY","AZ","85253"
267115,"6517 KABLETOWN RD","CHARLES TOWN","WV","25414"
267116,"6517 LYNCH CANYON DRIVE","LAKE ISABELLA","CA","93240"
267117,"6517 MIMOSA LN","DALLAS",NA,"75230"
267118,"6517 NAVAHO TRAIL","EDINA","MN","55439"
267119,"6517 PERSIMMON TREE ROAD","CABIN JOHN","MD","20818"
267120,"6517 PHILMONT LAKE DR","CORPUS CHRISTI","TX","78414"
267121,"6517 S BRIAR BAYOU DR","HOUSTON","TX","77072"
267122,"6517 S GALLUP ST","LITTLETON","CO","80120"
267123,"6517 SOUTH CAMPBELL","CHICAGO","IL","60629"
267124,"6517 STORM RIDER WAY","COLORADO SPRINGS","CO","80923"
267125,"6517 SUMMERFIELD DR","FLORENCE","KY","41051"
267126,"6517 VILLAGE SPRINGS DR","PLANO","TX","75024"
267127,"6517 W ALYSSUM ST","SIOUX FALLS","SD","57107"
267128,"6517 YATESWOOD DRIVE APARTMENT P","CHARLOTTE","NC","28212"
267129,"6518 BYRNES DRIVE","MCLEAN","VA","22101"
267130,"6518 CABOT CT","DUBLIN","OH","43017"
267131,"6518 E 52ND PLACE","INDIANAPOLIS","IN","46226"
267132,"6518 FRIENDS AVE","WHITTIER","CA","90601"
267133,"6518 REGATTA LN","CHARLOTTE","NC","28227"
267134,"6518 ROSE WILLOW LN","SPRING","TX","77379"
267135,"6518 S 64TH AVE","LAVEEN","AZ","85339"
267136,"6518 S CHUMANI RD","CHENEY","WA","99004"
267137,"6518 SHERWOOD RD","BALTIMORE","MD","21239"
267138,"6518 SOUTH KIMBARK AVE","CHICAGO","IL","60637"
267139,"6518 US HWY 19 N","NEW PORT RICHEY","FL","34655"
267140,"6518 VISTA DR","SHAWNEE","KS","66216"
267141,"6518 WILSHIRE FERN","HOUSTON","TX","77040"
267142,"6518-B REISTERSTOWN RD","BALTIMORE","MD","21215"
267143,"65182 HOT LAKE LANE","LA GRANDE","OR","97850"
267144,"6519 AUBURN ASH CIR","KINGWOOD","TX","77346"
267145,"6519 CALAMONDIN DRIVE","WINTER GARDEN","FL","34787"
267146,"6519 DONNEGAL FARM RD","CHARLOTTE","NC","28270"
267147,"6519 E 86TH ST","TULSA","OK","74133"
267148,"6519 ITHACA FALLS","SAN ANTONIO","TX","78239"
267149,"6519 WALNUT VALLEY LANE","HIGH RIDGE","MO","63049"
267150,"6519 WOODBRIDGE CIRCLE","CATONSVILLE","MD","21228"
267151,"6519 WOODLAKE VILLAGE COURT APT H","MIDLOTHIAN","VA","23112"
267152,"65195 NEARLY LEVEL DRIVE","HOMER","AK","99603"
267153,"6519B 34TH AVE SW","SEATTLE","WA","98126"
267154,"652 4TH AVENUE","BROOKLYN","NY","11232"
267155,"652 ADAMS LANDING COURT","LAWRENCEVILLE","GA","30046"
267156,"652 BUDLONG STREET","ADRIAN","MI","49221"
267157,"652 CEDAR GROVE RD","LEESVILLE","SC","29070"
267158,"652 CHESTNUT ST","SAN CARLOS","CA","94070"
267159,"652 CHESTNUT STREET","WABAN","MA","02468"
267160,"652 COSTER STREET","BRONX","NY","02138"
267161,"652 ELM STREET","ENGLEWOOD","FL","34223"
267162,"652 HENDRICKS","MONTEBELLO","CA","90640"
267163,"652 KIRKSVILLE ROAD","RICHMOND","KY","40475"
267164,"652 MONTGOMERY CIR APT D","CLAREMONT","CA","91711"
267165,"652 MONTGOMERY SCHOOL LANE","WYNNEWOOD","PA","19096"
267166,"652 N BUCKTON RD","MIDDLETOWN","VA","22645"
267167,"652 N NOBLE 2R","CHICAGO","IL","60642"
267168,"652 N WESTMORELAND AVE","LOS ANGELES","CA","90004"
267169,"652 PARK EDGE CIRCLE","WINDSOR","CO","80550"
267170,"652 PARKSIDE DR","AVON LAKE","OH","44012"
267171,"652 PLEASANT STREET","BLUE HILL","ME","04614"
267172,"652 S PINECREST ST","WICHITA","KS","67218"
267173,"652 SHERRY DRIVE","TROTWOOD","OH","45426"
267174,"652 ST ROAD 73","EDGERTON","WI","53534"
267175,"652 SUNRISE LAKE PL","HENDERSON","NV","89002"
267176,"652 W CANTON AVENUE","WINTER PARK","FM","32789"
267177,"652 YOUNG STREET","GRAND JUNCTION","CO","81505"
267178,"652-2 N STATE ROAD 149","VALPARASIO","IN","46385"
267179,"6520 212TH ST SW SUITE 204","LYNNWOOD","WA","98036"
267180,"6520 67TH STREET","KENOSHA","WI","53142"
267181,"6520 AINTREE TERRACE","INDIANAPOLIS","IN","46250"
267182,"6520 BOOTH STREET APT 3A","REGO PARK","NY","11374"
267183,"6520 DELIA DRIVE","ALEXANDRIA","VA","22310"
267184,"6520 DOGWOOD VIEW PKWY","JACKSON","MS","39213"
267185,"6520 GARFIELD DRIVE","KANSAS CITY","KS","66102"
267186,"6520 GEORGETOWN PIKE","MCLEAN","VA","22101"
267187,"6520 GLEN ECHO AVE APT A","GLADSTONE","OR","97027"
267188,"6520 GREEN MEADOW ROAD NW","HUNTSVILLE","AL","35810"
267189,"6520 IRVING RD","GALESBURG","KS","66740"
267190,"6520 N 7TH STREET SUITE 200","PHOENIX","AZ","85014"
267191,"6520 N IRWINDALE AVENUE SUITE 201","IRWINDALE","CA","91702"
267192,"6520 N SAINT LOUIS AVE","LINCOLNWOOD","IL","60712"
267193,"6520 N SUFFOLK DR","PEORIA","IL","61615"
267194,"6520 NORTH SUFFOLK DRIVE","PEORIA","IL","61615"
267195,"6520 PLATT AVE NUM 386","WEST HILLS","CA","91307"
267196,"6520 PLATT AVENUE  NUMBER 146","WEST HILLS","CA","91307"
267197,"6520 PORT SHELDON","HUDSONVILLE","MI","49426"
267198,"6520 RED FERN PLACE","COLUMBUS","OH","43229"
267199,"6520 SCOTTEN","DETROIT","MI","48210"
267200,"6520 SE FORBES AVE","TOPEKA","KS","66619"
267201,"6520 THEODORE STREET","PHILADELPHIA","PA","19142"
267202,"6521 127TH AVE SE","BELLEVUE","WA","98006"
267203,"6521 ARLINGTON BLVD STE 101","FALLS CHURCH","VA","22042"
267204,"6521 BARRINGTON DRIVE","CHARLOTTE","NC","28215"
267205,"6521 BAYWOOD LN","CINCINNATI","OH","45224"
267206,"6521 BRIGHTON RD","PITTSBURGH","PA","15202"
267207,"6521 CARRINGTON SKY DR","APOLLO BEACH","FL","33572"
267208,"6521 CENTRAL AVENUE","NORTH RICHLAND HILLS","TX","76182"
267209,"6521 DANBROOKE PARK DR","MINT HILL","NC","28227"
267210,"6521 GOLD WAGON LANE","MINT HILL","NC","28227"
267211,"6521 GRAY HAWK DR","MATTESON","IL","60443"
267212,"6521 LA MIRADA AVE","LOS ANGELES","CA","90038"
267213,"6521 MAIN STREET NUM R0","FLUSHING","NY","11367"
267214,"6521 MANSION BLVD","PENNSAUKEN TOWNSHIP","NJ","08109"
267215,"6521 ORANGE DR","DAVIE","FL","33314"
267216,"6521 PINE HOLLOW RD","CARPENTERSVILLE","IL","60110"
267217,"6521 PULLEY TOWN ROAD","WAKE FOREST","NC","27587"
267218,"6521 RILEY HILL RD","WENDELL","NC","27591"
267219,"6521 ROWLAND RD","EDEN PRAIRIE","MN","55344"
267220,"6521 WASHINGTON STREET","CORNING","KS","66417"
267221,"6521","ELK","CA","95757"
267222,"65215 W 8 MILE RD","SOUTH LYON","MI","48178"
267223,"6522 E CALLE LUNA","TUCSON","AZ","85710"
267224,"6522 HANNAH STABLES DR","JACKSONVILLE","FL","32244"
267225,"6522 MCABEE ROAD","SAN JOSE","CA","95120"
267226,"6522 N SACRAMENTO AVE","CHICAGO","IL","60645"
267227,"6522 S ALBION WAY","CENTENNIAL","CO","80121"
267228,"6522 SLIGO PARKWAY STE 101","HYATTSVILLE","MD","20782"
267229,"6522 VANDIKE ST","PHILADELPHIA","PA","19135"
267230,"6522 WEST AVE L-7","LANCASTER","CA","93536"
267231,"6522","APO","AE","09096"
267232,"6523 1/2 WHITTIER BLVD","LOS ANGELES","CA","90022"
267233,"6523 83RD AVE W","UNIVERSITY PLACE","WA","98467"
267234,"6523 ALTER ROAD","HUBER HEIGHTS","OH","45424"
267235,"6523 ANNUNCIATION","HOUSTON","TX","77016"
267236,"6523 BELMAR STREET","PHILADELPHIA","PA","19142"
267237,"6523 CALIFORNIA AVE SW STE 320","SEATTLE","WA","98136"
267238,"6523 CANTERLEA DRIVE","ORLANDO","FL","32818"
267239,"6523 COMMERCE STREET","JACKSONVILLE","FL","32211"
267240,"6523 N PLEASANT","FRESNO","CA","93711"
267241,"6523 PARISH GLEBE LANE","ALEXANDRIA","VA","22315"
267242,"6523 PINO REAL DR","EL PASO","TX","79912"
267243,"6523 POINT HOLLOW LN","RICHMOND","TX","77469"
267244,"6523 WICKERWOOD DRIVE","DALLAS","TX","75248"
267245,"65232 FAIR ROAD","STURGIS","MI","49091"
267246,"6524 1/2 MARLOW AVENUE","BELL GARDENS","CA","90201"
267247,"6524 BARBER DR","PINEVILLE","LA","71360"
267248,"6524 CHOWEN AVE N","MINNEAPOLIS","MN","55429"
267249,"6524 COMPASS ROSE COURT","WEST PALM BEACH","FL","33411"
267250,"6524 DOLPHIN CIRCLE EAST","FLORISSANT","MO","63033"
267251,"6524 DUNEDEN AVENUE","SOLON","OH","44139"
267252,"6524 MOKELUMNE AVE","OAKLAND","CA","94605"
267253,"6524 PREMIER DR","NASHVILLE","TN","37209"
267254,"6524 SW 26TH COURT","TOPEKA","KS","66614"
267255,"6524 URBAN STREET","ARVADA","CO","80004"
267256,"6524 WESTMORE CT","SPRINGFIELD","VA","22150"
267257,"6524 WEXFORD AVE SW","PORT ORCHARD","WA","98367"
267258,"6525 BAKER ROAD","ATHENS","OH","45701"
267259,"6525 BEADNELL WAY  SUITE 12","SAN DIEGO","CA","92117"
267260,"6525 BELLE COTE CIRCLE","ARGYLE","TX","76226"
267261,"6525 COLLINGSWORTH ST","LAS VEGAS","NV","89131"
267262,"6525 CROCKETT CT","PLANO","TX","75023"
267263,"6525 CROSSBOW TRAIL","CHEYENNE","WY","82001"
267264,"6525 DELMAR BLVD","UNIVERSITY CITY","MO","63130"
267265,"6525 DRAKE ROAD","INDIAN HILL","OH","45243"
267266,"6525 FULTON AVENUE - 4","VAN NUYS","CA","91401"
267267,"6525 GUNPARK DRIVE STE 370/126","BOULDER","CO","80301"
267268,"6525 GUNPARK DRIVE SUITE 370 236","BOULDER","CO","80301"
267269,"6525 GUNPARK DRIVE SUITE 370-415","BOULDER","CO","80301"
267270,"6525 HILLCROFT ST 303","HOUSTON","TX","77081"
267271,"6525 HILLCROFT STREET APT 303","HOUSTON","TX","77081"
267272,"6525 HUMBOLDT AVE N","BROOKLYN CENTER","MN","55430"
267273,"6525 HUNT RD","PLEASANT GARDEN","NC","27313"
267274,"6525 KRISTINE DR","6525 KRISTINE DR","OH","45011"
267275,"6525 KRISTINE DR","FAIRFIELD TOWNSHIP","OH","45011"
267276,"6525 LINMORE AVE","PHILADELPHIA","PA","19142"
267277,"6525 N 17TH STREET","PHILADELPHIA","PA","19126"
267278,"6525 N 64TH AVE 1","OMAHA","NE","68152"
267279,"6525 N CICERO AVE","CHICAGO","IL","60712"
267280,"6525 N CLARK ST","CHICAGO","IL","60626"
267281,"6525 N CLARK","CHICAGO","IL","60626"
267282,"6525 N WHIPPLE STREET","CHICAGO","IL","60645"
267283,"6525 NE 23RD AVE","PORTLAND","OR","97211"
267284,"6525 NW 135TH ST","OKLAHOMA CITY","OK","73142"
267285,"6525 S 19TH STREET","MILWAUKEE","WI","53221"
267286,"6525 SRL THORNTON FWY","DALLAS","TX","75232"
267287,"6525 THOMAS AVE S","RICHFIELD","MN","55423"
267288,"6525 US 27 NORTH","SEBRING","FL","33870"
267289,"6525 VETERANS BLVD","METAIRIE","LA","70003"
267290,"6526 BAYOU GRANDE BLVD NE","ST PETERSBURG","FL","33702"
267291,"6526 BRYNHURST AVE","LOS ANGELES","CA","90043"
267292,"6526 BUTTERCUP LANE","LORAIN","OH","44053"
267293,"6526 CHIASSON RD","ABBEVILLE","LA","70511"
267294,"6526 DREAMCATCHER LN","DICKINSON","TX","77539"
267295,"6526 FULLERTON AVENUE","CLEVELAND","OH","44105"
267296,"6526 GRAYMONT DR","COLORADO SPRINGS","CO","80922"
267297,"6526 LONG BEACH BLVD","LONG BEACH","CA","90805"
267298,"6526 MILL CREEK ROAD","MEMPHIS","TN","38134"
267299,"6526 N PARK AVENUE APT 1A","PHILADELPHIA","PA","19126"
267300,"6526 NE MALLORY AVE","PORTLAND","OR","97211"
267301,"6526 NW 12CT","MIAMI","FL","33147"
267302,"6526 PLOWMAN RIDGE","HARRISBURG","PA","17112"
267303,"6526 S 172 AVE","OMAHA","NE","68135"
267304,"6526 S WOODLAWN AVENUE","CHICAGO","IL","60637"
267305,"6527 BLVD OF CHAMPIONS","NORTH LAUDERDALE","FL","33068"
267306,"6527 BROWN THRUSH TRAIL","EDEN PRAIRIE","MN","55346"
267307,"6527 DANCING COURT","SAN ANTONIO","TX","78244"
267308,"6527 MYRTLE STREET","HOUSTON","TX","77087"
267309,"6527 SORBY COURT","NORFOLK","VA","23513"
267310,"6527 SOUTH DREXEL AVE","CHICAGO","IL","60637"
267311,"6528 BOSE LN","SAN JOSE","CA","95120"
267312,"6528 CONVEYOR DRIVE","CLEBURNE","TX","76031"
267313,"6528 E 101ST ST NUM D1 NUM 386","TULSA","OK","74133"
267314,"6528 E 101ST ST STE D-1 PMB 308","TULSA","OK","74133"
267315,"6528 E 101ST ST STE D1-272","TULSA","OK","74133"
267316,"6528 EASTBOURNE LN","OKLAHOMA CITY","OK","73132"
267317,"6528 MCCRACKEN RD","COCHRANTON","PA","16314"
267318,"6528 S DILLON ROAD","AUSTELL","GA","30168"
267319,"6528 S LAVERGNE","BEDFORD PARK","IL","60638"
267320,"6528 US HIGHWAY 301 S STE 111","RIVERVIEW","FL","33578"
267321,"6528 W 3820 S","WEST VALLEY CITY","UT","84128"
267322,"6529 208TH ST SW F111","LYNNWOOD","WA","98036"
267323,"6529 CONGRESS DR","NEW ORLEANS","LA","70126"
267324,"6529 E HEARN RD","SCOTTSDALE","AZ","85254"
267325,"6529 GENTRY AVENUE","NORTH HOLLYWOOD","CA","91606"
267326,"6529 GRASSELLI RD","FAIRFIELD","AL","35064"
267327,"6529 KAUFFMAN AVENUE","ARCADIA","CA","91007"
267328,"6529 KNOX AVE S","MINNEAPOLIS","MN","55423"
267329,"6529 N 20TH STREET","PHILADELPHIA","PA","19138"
267330,"6529 N CEDARBROOK LANE","PEORIA","IL","61614"
267331,"6529 ORIENT RD","TAMPA","FL","33610"
267332,"6529 PRESTON RD STE 100","PLANO","TX","75024"
267333,"6529 RACQUET CLUB DRIVE","LAUDERHILL","FL","33319"
267334,"6529 RIDGE RD","PARKVILLE","MO","64152"
267335,"6529 W ALAMOS AVE","FRESNO","CA","93723"
267336,"652N NOBLE 4R","CHICAGO","IL","60642"
267337,"653 4TH STREET","HERMOSA BEACH","CA","90254"
267338,"653 52 ST","BROOKLYN","NY","11220"
267339,"653 8TH AVE NE","HICKORY","SC","28601"
267340,"653 9TH ST","HERMOSA BEACH","CA","90254"
267341,"653 BITTERSWEET PLACE","CHICAGO","IL","60613"
267342,"653 BRANDERMILL RD UNIT 203","FAYETTEVILLE","NC","28314"
267343,"653 CARRINGTON ROAD","BETHANY","CT","06524"
267344,"653 CEDARCREST DR","DUNCANSVILLE","PA","16635"
267345,"653 COCKERHAM RD","ROARING RIVER","NC","28669"
267346,"653 E 143RD ST","BURNSVILLE","MN","55337"
267347,"653 E MADISON AVE","KIRKWOOD","MO","63122"
267348,"653 EAST 14TH ST   7D","NEW YORK","NY","10009"
267349,"653 EAST CAPITOL STREET SE  309","WASHINGTON","DC","20003"
267350,"653 FERNWOOD RD","KNOXVILLE","TN","37923"
267351,"653 GAINESVILLE HIGHWAY","WINDER","GA","30680"
267352,"653 GARDEN ROAD","GLENSIDE","PA","19038"
267353,"653 GOLF COURSE DRIVE","ELIZABETHTON","TN","37643"
267354,"653 GREENWAY PLACE","RIVER VALE","NJ","07675"
267355,"653 HAYES LEONARD ROAD","VALPARAISO","IN","46385"
267356,"653 JEFFERSON AVENUE","BROOKLYN","NY","11221"
267357,"653 KLEINART DRIVE","LEHIGH ACRES","FL","33972"
267358,"653 LANDWEHR ROAD","NORTHBROOK","IL","60062"
267359,"653 LONGVIEW RD","SWAINSBORO","GA","30401"
267360,"653 MAIN STREET SUITE 104","BUFFALO","NY","14203"
267361,"653 NORTHAMPTON STREET","HOLYOKE","MA","01040"
267362,"653 OAK RUN TRAIL SUITE 107","OAK PARK","CA","91377"
267363,"653 PONDEROSA","HURST","TX","76053"
267364,"653 PORTILLO DR","EL PASO","TX","79932"
267365,"653 PUSAN DR","OCEANSIDE","CA","92058"
267366,"653 REBECCA DRIVE","BOULDER CREEK","CA","95006"
267367,"653 S BALTIMORE STREET","DILLSBURG","PA","17019"
267368,"653 SHERBOURNE","DEARBORN HEIGHTS","MI","48127"
267369,"653 SHERIDAN AVE","PLAINFIELD","NJ","07060"
267370,"653 SPRUCE STREET","BRISTOL","PA","19007"
267371,"653 SUTALLEE RIDGE TRAIL NE","WHITE","GA","30184"
267372,"653 W 23RD ST PMB 304","PANAMA CITY","FL","32405"
267373,"653 W 23RD ST","PANAMA CITY","FL","32405"
267374,"653 W FREMONT AVE","SUNNYVALE","CA","94087"
267375,"653 WATERLOO COURT","GALT","CA","95632"
267376,"653 WELLS AVENUE","MEMPHIS","TN","38107"
267377,"653 WHITE ROAD","JULIAN","WV","25529"
267378,"653 WINANS AVE","AKRON","OH","44306"
267379,"6530 BRANFORD","HOUSTON","TX","77091"
267380,"6530 BRISTOL OAKS DRIVE","LAKELAND","FL","33811"
267381,"6530 BROOKSHIRE ST","FAYETTEVILE","NC","28314"
267382,"6530 EXECUTIVE AIRPORT RD","TAMPA","FL","33610"
267383,"6530 HAMPSTEAD DR APPT 56","ANCHORAGE","AK","99518"
267384,"6530 IRIS AVE","CINCINNATI","OH","45213"
267385,"6530 KOKI LANE","EL DORADO","CA","95623"
267386,"6530 LAKE DRIVE","MAYS LANDING","NJ","08330"
267387,"6530 MEIS AVE","CINCINNATI","OH","45224"
267388,"6530 N 12TH ST","PHILADELPHIA","PA","19126"
267389,"6530 NORTH RIVER ROAD","WATERVILLE","OH","43566"
267390,"6530 SAULSBURY CT","ARVADA","CO","80003"
267391,"6530 SEPULVEDA BLVD UNIT 214","VAN NUYS","CA","91411"
267392,"6530 SOUTHSHORE DR","MIDLOTHIAN","VA","23112"
267393,"6530 TAMPA EXEC AIRPORT RD STE 223","TAMPA","FL","33610"
267394,"6530 TAMPA EXECUTIVE AIRPORT RD","TAMPA","FL","33610"
267395,"6530 VIRGINIA PARKWAY 222","MCKINNEY","TX","75071"
267396,"6530 W 16TH STREET","GREELEY","CO","80634"
267397,"6530 W BRYN MAWR AVE","CHICAGO","IL","60631"
267398,"6531 117TH AVE SE","BELLEVUE","WA","98006"
267399,"6531 EMERALD CANYON ROAD","KATY","TX","77450"
267400,"6531 FM 78 STE 110 NO 480","SAN ANTONIO","TX","78244"
267401,"6531 FM78 SUITE 110 476","SAN ANTONIO","TX","78244"
267402,"6531 GLENMOOR DR","CHARLOTTE","NC","28214"
267403,"6531 S TEMPE ST","AURORA","CO","80016"
267404,"6532 24TH AVENUE","LEMOORE","CA","93245"
267405,"6532 CASTLEGATE DR","CHARLOTTE","NC","28226"
267406,"6532 CASTOR AVE","PHILADELPHIA","PA","19149"
267407,"6532 ELIZABETH LAKE ROAD","WATERFORD","MI","48327"
267408,"6532 FOXBERRY RD","FAYETTEVILLE","NC","28314"
267409,"6532 N 16TH DR","PHOENIX","AZ","85015"
267410,"6532 PRAIRIE FLOWER TRAIL","DALLAS","TX","75227"
267411,"6532 RADCLIFF DRIVE","NASHVILLE","TN","37221"
267412,"6532 REFLECTION DRIVE SUITE 2145","SAN DIEGO","CA","92124"
267413,"6532 S WINCHESTER","CHICAGO","IL","60636"
267414,"6532 SHAMEL DR","INDIANAPOLIS","IN","46278"
267415,"6532 TRAPPERS TRAIL AVE","PARKER","CO","80134"
267416,"6532 TURNSTONE WAY","ROCKLIN","CA","95765"
267417,"6532 WALCOTT LANE","FREDERICK","MD","21703"
267418,"6533 BANTRY BAY ST","DUBLIN","CA","94568"
267419,"6533 BEECHWOOD DR","TEMPLE HILLS","MD","20748"
267420,"6533 FIESTA STREET","INDIANAPOLIS","IN","46237"
267421,"6533 FLYING CLOUD DRIVE SUITE 1200","EDEN PRAIRIE","MN","55344"
267422,"6533 NE SANDY BLVD","PORTLAND","OR","97213"
267423,"6533 PARKWOOD PLACE","ST LOUIS","MO","63116"
267424,"6533 PASTURESIDE TRL","MATTESON","IL","60443"
267425,"6533 PATTI DR 403","CORPUS CHRISTIE","TX","78414"
267426,"6533 ROUNDS ROAD","NEWFANE","NY","14108"
267427,"6533 WYNCOTE AVENUE","PHILADELPHIA","PA","19139"
267428,"65330 BARKCAMP PARK ROAD","BELMONT","OH","43718"
267429,"6534 29TH WAY NORTH","ST PETERSBURG","FL","33702"
267430,"6534 AYLESWORTH DR","PARMA HEIGHTS","OH","44130"
267431,"6534 BING ST","SAN DIEGO","CA","92115"
267432,"6534 CHARTWELL DRIVE","VIRGINIA BEACH","VA","23464"
267433,"6534 DIAMONDBACK ROAD","EASTVALE","CA","92880"
267434,"6534 FORD STREET","BATON ROUGE","LA","70811"
267435,"6534 FRENCHLINE RD","MARLETTE","MI","48453"
267436,"6534 HEATHERBROOK AVE","CHARLOTTE","NC","28213"
267437,"6534 IVY WALK","BESSEMER","AL","35022"
267438,"6534 N KEATING","LINCOLNWOOD","IL","60712"
267439,"6534 S LAVERGNE AVENUE","BEDFORD PARK","IL","60638"
267440,"6534 WARE RD","LINO LAKES","MN","55014"
267441,"6535 72ND STREET 6","PARAMOUNT","CA","90723"
267442,"6535 CLUBHOUSE DRIVE","PLACERVILLE","CA","95667"
267443,"6535 GUNTON WAY","STOCKTON","CA","95207"
267444,"6535 HARVEST RIDGE LANE","HUGHESVILLE","MD","20637"
267445,"6535 LUXURY COVE","BARTLETT","TN","38135"
267446,"6535 NORTHWESTERN AVE","RACINE","WI","53406"
267447,"6535 NW 84 AVENUE UNIT A","MIAMI","FL","33166"
267448,"6535 ROCKVILLE RD","INDIANAPOLIS","IN","46214"
267449,"6535 VENTURA CANYON AVE","VALLEY GLEN","CA","91401"
267450,"6535 VICTORIA DRIVE","OAK FOREST","IL","60452"
267451,"6535 W DICKENS AVE APT 3E","CHICAGO","IL","60707"
267452,"6535 WATKINS DRIVE","JACKSON","MS","39213"
267453,"6536 CHATHAM CIR","ROCHESTER HILLS","MI","48306"
267454,"6536 FISHER HILL ROAD","CANANDAIGUA","NY","14424"
267455,"6536 GRANDE BAY","LAREDO","TX","78041"
267456,"6536 MOOSE DRIVE","GLOUCESTER","VA","23061"
267457,"6536 N VISTA AVE","FRESNO","CA","93722"
267458,"6536 ORCHARD CREEK LANE","KNOXVILLE","TN","37918"
267459,"6536 TURNERGROVE DR","LAKEWOOD","CA","90713"
267460,"6536 W WATKINS ST","PHOENIX","AZ","85043"
267461,"6536 WALNUT GROVE LANE N","MAPLE GROVE","MN","55311"
267462,"6536 WILLIAM PENN HIGHWAY SUITE 202","DELMONT","PA","15626"
267463,"65365 LENNY LN","MANDEVILLE","LA","70448"
267464,"6537 32ND AVE SW","SEATTLE","WA","98126"
267465,"6537 37TH STREET","BERWYN","IL","60402"
267466,"6537 CROWN DR","BROWNSBURG","IN","46112"
267467,"6537 N COLLEGE AVE APT 23","INDIANAPOLIS","IN","46220"
267468,"6537 S STAPLES ST STE 125-117","CORPUS CHRISTI","TX","78413"
267469,"6537 STAPLES STREET SUITE 125-354","CORPUS CHRISTI","TX","78413"
267470,"6538 COLLINS AVE NUMBER 459","MIAMI BEACH","FL","33141"
267471,"6538 COLLINS AVE SUITE 620","MIAMI BEACH","FL","33141"
267472,"6538 COLLINS AVE SUITE 80","MIAMI BEACH","FL","33141"
267473,"6538 COLLINS AVE UNIT 313","MIAMI BEACH","FL","33141"
267474,"6538 COLLINS AVE UNIT 604","MIAMI BEACH","FL","33141"
267475,"6538 MILLSTREAM LOOP SE","CALEDONIA","MI","49316"
267476,"6538 N ASHLAND AVE APT2","CHICAGO","IL","60626"
267477,"6538 RAWSONVILLE RD","BELLEVILLE","MI","48111"
267478,"6538 S EASTERN AVENUE","HOMOSASSA","FL","34446"
267479,"6538 W 27TH STREET","BERWYN","IL","60804"
267480,"6539 ADAMSON CT","INDIANAPOLIS","IN","46268"
267481,"6539 BIRCHBROOK LANE APT 6","MEMPHIS","TN","38134"
267482,"6539 COBBLERS TRAIL","LIBERTY TOWNSHIP","OH","45044"
267483,"6539 E LITTLE JOE RD","COEUR D ALENE","ID","83814"
267484,"6539 HARRISION AVE SUITE 1200","CINCINNATI","OH","45247"
267485,"6539 HARRISON AVE   UNIT 137","CINCINNATI","OH","45247"
267486,"6539 HARRISON AVE 1032","CINCINNATI","OH","45247"
267487,"6539 HARRISON AVENUE 1175","CINCINNATI","OH","45247"
267488,"6539 HARRISON AVENUE SUITE 1104","CINCINNATI","OH","45247"
267489,"6539 PECAN GROVE CT","LAS VEGAS","NV","89142"
267490,"6539 RICKI CT","CLARKSTON","MI","48346"
267491,"6539 TOWNSEND RD","JACKSONVILLE","FL","32244"
267492,"65394 430TH AVE","MAZEPPA","MN","55956"
267493,"65395 HIGHLAND ROAD","ASHLAND","WI","54806"
267494,"654 208TH STREET","PASADENA","MD","21122"
267495,"654 BENNING ROAD","JACKSON","MS","39206"
267496,"654 BINNS BLVD","COLUMBUS","OH","43204"
267497,"654 CANNON ROAD","SHARPSBURG","GA","30277"
267498,"654 DRY PRONG ROAD","WILLIAMSPORT","TN","38487"
267499,"654 E 103RD ST","BLOOMINGTON","MN","55420"
267500,"654 E CANYON CREEK LN","WEATHERFORD","TX","76087"
