"ID","Address","City","State","Zip"
8001,"102 RAYMOND ST PO BOX 138","GLENBURN","ND","58740"
8002,"102 REBECCA LN","PALATKAA","FL","32177"
8003,"102 RED BIRD DRIVE","DURHAM","NC","27704"
8004,"102 REEF LANE VILLA 2","KEY BISCAYNE","FL","33149"
8005,"102 RENAISSANCE RUN CT","NICHOLASVILLE","KY","40356"
8006,"102 REVELLE ROAD","WARSAW","NC","28398"
8007,"102 RIBERBEND CLUB POINTE","GRANITE FALLS","NC","28630"
8008,"102 RIDGECREST AVENUE","BECKLEY","WV","25801"
8009,"102 RIDGEVIEW DR","SCRANTON","PA","18504"
8010,"102 RIDLEY STREET","SMYRNA","TN","37167"
8011,"102 RIGHT FORK LAUREL CREEK","LENORE","WV","25676"
8012,"102 RILLA VISTA","SAN ANTONIO","TX","78216"
8013,"102 RIVERWOODS RD","IOWA FALLS","IA","50126"
8014,"102 ROSEBUD LANE","COUNCIL BLUFFS","IA","51503"
8015,"102 ROSEDALE AVE","COVINGTON","VA","24426"
8016,"102 ROYAL OAKS DR","DOUBLE OAK","TX","75077"
8017,"102 RUE CHAPPELLE","WEST MONROE","LA","71291"
8018,"102 RUE FELICITE","LAFAYETTE","LA","70507"
8019,"102 RUSTIC LIVE OAK TRAIL","BONAIRE","GA","31005"
8020,"102 S 1ST ST","VINCENT","IA","50594"
8021,"102 S BEATTIE ST","HELENA","MT","59601"
8022,"102 S CHEROKEE AVE","CLAREMORE","OK","74017"
8023,"102 S EAST STREET","ODON","IN","47562"
8024,"102 S HICKORY STREET","MOUNT VERNON","MO","65712"
8025,"102 S HIGH STREET","WEST CHESTER","PA","19382"
8026,"102 S LAKESHORE DRIVE","LAKE CITY","MN","55041"
8027,"102 S MAIN STREET","PROSPER","TX","75078"
8028,"102 S MAIN","BENTON","AR","72015"
8029,"102 S MAIN","SHARON","OK","73857"
8030,"102 S MARGARET","KIRBYVILLE","TX","75956"
8031,"102 S PLATEAU ST","MARFA","TX","79843"
8032,"102 S RIDGEWOOD DR","SEBRING","FL","33870"
8033,"102 S SAINT LOUIS AVE","LOVELAND","CO","80537"
8034,"102 S TEJON STREET SUITE 1100","COLORADO SPRINGS","CO","80903"
8035,"102 S WASHINGTON STREET","OCONTO FALLS","WI","54154"
8036,"102 S WINDWOOD","CARL JUNCTION","MO","64834"
8037,"102 S ZEUS ST","MOXEE","WA","98936"
8038,"102 SAINT CLAIRE AVENUE","WYOMING","OH","45215"
8039,"102 SCHAEFFER AVENUE PO BOX 397","CENTRE HALL","PA","16828"
8040,"102 SCHOFIELD DRIVE","EAST BERLIN","PA","17316"
8041,"102 SERENITY CT","DOUGLASSVILLE","PA","19518"
8042,"102 SHADOWBROOK DR","TUNKHANNOCK","PA","18657"
8043,"102 SHARON STREET","MORGANTON","NC","28655"
8044,"102 SHAW LANE","WILSONVILLE","AL","35186"
8045,"102 SHEPHERD STREET","SUFFOLK","VA","23434"
8046,"102 SHIPPY LANE","PACOLET","SC","29372"
8047,"102 SILVER CREEK CIRCLE","MADISON","AL","35758"
8048,"102 SILVER FOX","IRVINE","CA","92620"
8049,"102 SILVER LACE ST","LAKE JACKSON","TX","77566"
8050,"102 SIMS LN","TULLAHOMA","TN","37388"
8051,"102 SKYLINE DRIVE","DUNCANSVILLE","PA","16635"
8052,"102 SLUYTER ST SE","KENTWOOD","MI","49548"
8053,"102 SOLDIER SQUARE","CASSELBERRY","FL","32707"
8054,"102 SOUTH 4TH AVENUE APT 240","AVONDALE","AZ","85323"
8055,"102 SOUTH ARDMORE AVENUE","LOS ANGELES","CA","90004"
8056,"102 SOUTH BURNT MILL ROAD","VOORHEES","NJ","08043"
8057,"102 SOUTH CAPITOL PARKWAY","MONTGOMERY","AL","36107"
8058,"102 SOUTH CENTRAL STREET","ARMSTRONG","MO","65230"
8059,"102 SOUTH MAIN ST  634","POCATELLO","ID","83204"
8060,"102 SOUTH MAIN STREET UNIT 634","POCATELLO","ID","83204"
8061,"102 SOUTH MAIN STREET","CREEDE","CO","81130"
8062,"102 SOUTH MAIN STREET","GREER","SC","29650"
8063,"102 SOUTH MAIN STREET","STATESBORO","GA","30458"
8064,"102 SOUTH MAIN","WAGNER","SD","57380"
8065,"102 SOUTH NATIONAL AVENUE","FORT SCOTT","KS","66701"
8066,"102 SOUTH RAIL STREET EAST","SHOSHONE","ID","83352"
8067,"102 SOUTH STREET APT 2","BIDDEFORD","ME","04005"
8068,"102 SPRIGG STREET","FRANKFORT","KY","40601"
8069,"102 SPRINGVALE DR","SAN ANTONIO","TX","78227"
8070,"102 STATE RT 5 WEST PO BOX 217","ELBRIDGE","NY","13060"
8071,"102 STATE STREET","HACKENSACK","NJ","07601"
8072,"102 STRAW FLOWER PATH","PEACHTREE CITY","GA","30269"
8073,"102 SUMMIT STREET","DARBY","PA","19023"
8074,"102 SUNMAR CT APT 1A","GWYNN OAK","MD","21207"
8075,"102 SUNRISE COVE","BATESVILLE","MS","38606"
8076,"102 SUNRISE DRIVE","SUNRISE BEACH","TX","78643"
8077,"102 SUNSET DR","ITHACA","NY","14850"
8078,"102 SUSAN CONSTANT COURT","LA PLATA","MD","20646"
8079,"102 SW 6 AVE APT 402","MIAMI","FL","33130"
8080,"102 SWIFT WIND PL","APEX","NC","27539"
8081,"102 SYCAMORE CIRCLE","JONESBOROUGH","TN","37659"
8082,"102 TALL OAKS TRL","WEST MONROE","LA","71291"
8083,"102 TANGLEWOOD DRIVE","GREENTOWN","PA","18426"
8084,"102 TANGLEWYLDE AVENUE","BRONXVILLE","NY","10708"
8085,"102 TATE STUDENT CENTER","ATHENS","GA","30602"
8086,"102 TAYLORS MILLS RD","MANALAPAN","NJ","07726"
8087,"102 TIMBER LANE","JACKSONVILLE","NC","28540"
8088,"102 TOURNAMENT DRIVE EAST","HAWTHORN WOODS","IL","60047"
8089,"102 TRACIER CREST","CLINTON","MS","39056"
8090,"102 TRAPPER TRL","BASTROP","TX","78602"
8091,"102 TRICKUM CT","WARNER ROBINS","GA","31088"
8092,"102 TUFTS ROAD","BELFAST","ME","04915"
8093,"102 TWO MOONS LN","JUDSONIA","AR","72081"
8094,"102 W 10TH ST","LAMAR","MO","64759"
8095,"102 W FERRY ST PO BOX 422","SALINA","OK","74365"
8096,"102 W LOSEY ST","SCOTT AFB","IL","62225"
8097,"102 W MAIN ST 102","NEW ALBANY","OH","43054"
8098,"102 W MAIN ST SUITE 201","AUBURN","WA","98001"
8099,"102 W MAIN STREET BOX 503","NEW ALBANY","OH","43054"
8100,"102 W MAIN STREET PO BOX 367","ELK POINT","SD","57025"
8101,"102 W MORLATTON RD","DOUGLASSVILLE","PA","19518"
8102,"102 W SOUTH ST","ARCANUM","OH","45304"
8103,"102 W VANCE ST","FUQUAY VARINA","NC","27526"
8104,"102 W VIRGINIA AVE","TEMPLE","TX","76501"
8105,"102 WALLIS DRIVE","AUSTIN","TX","78746"
8106,"102 WASHBURN","DALHART","TX","79022"
8107,"102 WASHINGTON BLVD","BIG SPRING","TX","79720"
8108,"102 WATER OAK LN","WEATHERFORD","TX","76086"
8109,"102 WAVERLY RD","WAVERLY","PA","18471"
8110,"102 WEBER COURT","FRANKLIN","IN","46131"
8111,"102 WEBER CT","FRANKLIN","IN","46131"
8112,"102 WESRT CHURCH STREET","FREDERICK","MD","21701"
8113,"102 WEST 2ND STREET","WESTON","WV","26452"
8114,"102 WEST 5 STREET","HIALEAH","FL","33010"
8115,"102 WEST 80TH STREET NO 51","NEW YORK","NY","10024"
8116,"102 WEST BRANNON ROAD","NICHOLASVILLE","KY","40356"
8117,"102 WEST HIGH STREET","SPRINGFIELD","OH","45502"
8118,"102 WEST IDAHO AVENUE","HOMEDALE","ID","83628"
8119,"102 WEST JEFFERSON STREET SUITE A","CULVER","IN","46511"
8120,"102 WEST MAIN RD","MIDDLETOWN","RI","02842"
8121,"102 WEST MAIN STREET UNIT 221","NEW ALBANY","OH","43054"
8122,"102 WEST RIVER AVENUE","BRUCE","WI","54819"
8123,"102 WESTCHESTER LANE","HINESVILLE","GA","31313"
8124,"102 WHETSTONE COURT","DURHAM","NC","27703"
8125,"102 WHITE OAK CT","VICTORIA","TX","77901"
8126,"102 WILLOW STREET","NEW RICHMOND","OH","45157"
8127,"102 WINDRIDGE DR","SANDY SPRINGS","GA","30350"
8128,"102 WINTERGREEN PL","GOLDSBORO","NC","27534"
8129,"102 WONDER WORLD DR STE 304-126","SAN MARCOS","TX","78666"
8130,"102 WOODFIELD DR","WARNER ROBINS","GA","31088"
8131,"102 WOODMONT BOULEVARD SUITE 510","NASHVILLE","TN","37205"
8132,"102 WOODYSIDE DRIVE","HENDERSONVILLE","TN","37075"
8133,"102 YAUPON COURT","RAEFORD","NC","28376"
8134,"102 ZIEGLERVILLE RD   BOX 128","ZIEGLERVILLE","PA","19492"
8135,"102 ZIMMER RD","DALEVILLE","AL","36322"
8136,"102-30 215 STREET","QUEENS VILLAGE","NY","11429"
8137,"102-35 64TH RD APT 5E","FOREST HILLS","NY","11375"
8138,"102-50 187 STREET","HOLLIS","NY","11423"
8139,"102","ADRIAN","MI","49221"
8140,"102","OCEANPORT","NJ","07757"
8141,"1020 10TH AVE W SUITE 65","PALMETTO","FL","34221"
8142,"1020 10TH AVE W","PALMETTO","FL","34221"
8143,"1020 12TH STREET NORTH","BIRMINGHAM","AL","35204"
8144,"1020 16TH STREET NW SUITE 204","WASHINGTON","DC","20036"
8145,"1020 59TH STREET WEST","BRADENTON","FL","34209"
8146,"1020 6TH AVE SE STE 1-117","ABERDEEN","SD","57401"
8147,"1020 6TH STREET","CEDAR RAPIDS","IA","52401"
8148,"1020 9TH AVENUE SW","BESSEMER","AL","35022"
8149,"1020 A STREET","FRESNO","CA","93706"
8150,"1020 ALABAMA STREET","SACRAMENTO","CA","94590"
8151,"1020 ANASTASIA BLVD","SAINT AUGUSTINE","FL","32080"
8152,"1020 AOLOA PL APT 311B","KAILUA","HI","96734"
8153,"1020 ARROWHEAD LN","FALLON","NV","89406"
8154,"1020 AUBURN AVE","LAFAYETTE","LA","70503"
8155,"1020 BANNISTER PL","CHARLOTTE","NC","28213"
8156,"1020 BARNETT ROAD SUITE B","COLUMBUS","OH","43227"
8157,"1020 BELL ST","EDMONDS","WA","98020"
8158,"1020 BLACK OAK DR","ROSEBURG","OR","97471"
8159,"1020 BLUE SPRUCE RIDGE WAY","TILLAMOOK","OR","97141"
8160,"1020 BLUEFIELD ROAD","LEXINGTON","SC","29073"
8161,"1020 BRAND 738","STAFFORD","TX","77477"
8162,"1020 BRAND LANE APT 415","STAFFORD","TX","77477"
8163,"1020 BRIAR ROSE LANE","LADSON","SC","29456"
8164,"1020 BROMPTON PL","MENDOTA HTS","MN","55118"
8165,"1020 CAPTAINS TABLE RD APT 3","SACRAMENTO","CA","95822"
8166,"1020 CAROLINE ST","NANTY GLO","PA","15943"
8167,"1020 CAVE SPRING BLVD","SAINT PETERS","MO","63376"
8168,"1020 CEDAR GLEN SOUTH DR","PLAINFIELD","IN","46168"
8169,"1020 CENTER RIDGE RD","COLLIERVILLE","TN","38017"
8170,"1020 CHARLES DUPUIS RD","BREAUX BRIDGE","LA","70517"
8171,"1020 CHICKADEE LOOP","FAIRBANKS","AK","99712"
8172,"1020 CHIPPEWA STREET","GRAFTON","OH","44044"
8173,"1020 COMMERCE BLVD","PELHAM","AL","35124"
8174,"1020 COMMERCE PARK DRIVE SUITE L","OAK RIDGE","TN","37830"
8175,"1020 D AWAWAMALU ST","HONOLULU","HI","96825"
8176,"1020 DARLINGTON AVE","EAST LANSING","MI","48823"
8177,"1020 DARROW AVE","EVANSTON","IL","60202"
8178,"1020 DEWEY AVENUE","EVANSTON","IL","60201"
8179,"1020 DONNA LANE","HUNTINGTOWN","MD","20639"
8180,"1020 E 135TH PLACE","GLENPOOL","OK","74033"
8181,"1020 E 15TH STREET","PLANO","TX","75074"
8182,"1020 E 3RD AVE","BROOMFIELD","CO","80020"
8183,"1020 E ADAMS AVE","FOWLER","CA","93625"
8184,"1020 E BRADBURY AVE","INDIANAPOLIS","IN","46203"
8185,"1020 E CENTER ST","KINGSPORT","TN","37660"
8186,"1020 E COMMERCIAL AVE","ANACONDA","MT","59711"
8187,"1020 E PALMER ST","INDIANAPOLIS","IN","46203"
8188,"1020 E SAGINAW ST","LANSING","MI","48906"
8189,"1020 EAST RAY ROAD  7","CHANDLER","AZ","85225"
8190,"1020 EAST RIVER DRIVE","DEFIANCE","OH","43512"
8191,"1020 EAST SQUARE LAKE ROAD","BLOOMFIELD HILLS","MI","48304"
8192,"1020 EL SUR AVE","ARCADIA","CA","91006"
8193,"1020 EPHESUS SCHOOL ROAD","WAYNESBURG","KY","40489"
8194,"1020 ETHELDORE STREET","MOSS BEACH","CA","94038"
8195,"1020 FARMINGTON ROAD","MADISON","GA","30650"
8196,"1020 FILLMORE STREET APT 305","SAN FRANCISCO","CA","94115"
8197,"1020 FRONT ST","SACRAMENTO","CA","95814"
8198,"1020 FRONT STREET","EVANSTON","WY","82930"
8199,"1020 GLENHURST WAY","CLARKSVILLE","TN","37040"
8200,"1020 GOWDY AVENUE","POINT PLEASANT BEACH","NJ","08742"
8201,"1020 GRAND AVE","LARAMIE","WY","82070"
8202,"1020 GRAND CONCOURSE    SUITE 15-X","BRONX","NY","10451"
8203,"1020 GRAND CONCOURSE   17F","BRONX","NY","10451"
8204,"1020 GRAND CONCOURSE  STE 22U","BRONX","NY","10451"
8205,"1020 GRAND CONCOURSE 17F","BRONX","NY","10451"
8206,"1020 GRAND CONCOURSE APT 19P","BRONX","NY","10451"
8207,"1020 GRANT STREET","BUFFALO","NY","14207"
8208,"1020 HILLANDALE DR","FAIRFIELD","AL","35064"
8209,"1020 HUNTINGTON ROAD","KANSAS CITY","MO","64113"
8210,"1020 IVY WOODS DR","FOREST","VA","24551"
8211,"1020 JARDIN CT","BURLINGTON","NJ","08016"
8212,"1020 KENTUCKY AVE","LAKELAND","FL","33805"
8213,"1020 LAFAYETTE DR NE","ALBUQUERQUE","NM","87106"
8214,"1020 LEMANS RD","SAINT MARYS","PA","15857"
8215,"1020 LINCOLN STREET NW","MAPLE LAKDE","MN","55358"
8216,"1020 LONGMEADOW LANE","WESTERN SPRINGS","IL","60558"
8217,"1020 LYBARGER ST NE","OLYMPIA","WA","98506"
8218,"1020 MINNESOTA ST E","CANNON FALLS","MN","55009"
8219,"1020 N BLACKSTONE ST","JACKSON","MI","49202"
8220,"1020 N COLUMBIA AVE","EDINBURG","TX","78541"
8221,"1020 N LOVEKIN BLVD UNIT 35","BLYTHE","CA","92225"
8222,"1020 N M 30","GLADWIN","MI","48624"
8223,"1020 N MAIN STREET","COLUMBIA","IL","62236"
8224,"1020 N PARKER AVE","INDIANAPOLIS","IN","46201"
8225,"1020 N TAYLOR","ST LOUIS","MO","63113"
8226,"1020 N TWYCKENHAM DR","SOUTH BEND","IN","46617"
8227,"1020 N WOOD STREET APT 2","CHICAGO","IL","60622"
8228,"1020 NE 117TH ST","SEATTLE","WA","98125"
8229,"1020 NE 16TH ST","OCALA","FL","34470"
8230,"1020 NE 176TH STREET","NORTH MIAMI BEACH","FL","33162"
8231,"1020 NE 68TH ST","VANCOUVER","WA","98665"
8232,"1020 NE BRISTOL DRIVE","LEES SUMMIT","MO","64086"
8233,"1020 NEW HOLLAND AVENUE","LANCASTER","PA","17601"
8234,"1020 NORTH GLOSTER ST BOX 170","TUPELO","MS","38804"
8235,"1020 NORTH HIGHLAND ST UNIT 307","ARLINGTON","VA","22201"
8236,"1020 NORTH KINGSHIGHWAY SUITE D","CAPE GIRARDEAU","MO","63701"
8237,"1020 NORTH MAIN ST","COLUMBIA","IL","62236"
8238,"1020 NORTH QUINCY STREET APT 1009","ARLINGTON","VA","22201"
8239,"1020 NORTH RODNEY STREET","WILMINGTON","DE","19806"
8240,"1020 NW 22ND AVE","DELRAY BEACH","FL","33445"
8241,"1020 OH 222","BETHEL","OH","45106"
8242,"1020 OLD DANIEL BOONE RD APT 0","RICHMOND","KY","40475"
8243,"1020 OLD SPRINGFIELD PIKE","XENIA","OH","45385"
8244,"1020 PALM STREET","SAN LUIS OBISPO","CA","93401"
8245,"1020 PAR VIEW CIRCLE","CEDAR HILL","TX","75104"
8246,"1020 PARK DR 841","FLOSSMOOR","IL","60422"
8247,"1020 PARK DRIVE SUITE 690","FLOSSMOOR","IL","60422"
8248,"1020 PARK DRIVE","FLOSSMOOR","IL","60422"
8249,"1020 PLAIN STREET STE 110","MARSHFIELD","MA","02050"
8250,"1020 POPLAR STREET","EAST POINT","GA","30344"
8251,"1020 PROGRESS ST APT M606","PITTSBURGH","PA","15212"
8252,"1020 PROSPECT STREET     SUITE 311","LA JOLLA","CA","92037"
8253,"1020 RN WHITFIELD STREET","FLORENCE","MS","39073"
8254,"1020 ROOSEVELT AVE","SAN ANTONIO","TX","78210"
8255,"1020 ROSEWALD STREET","BURLINGTON","NC","27217"
8256,"1020 S WILLIAMS ST APT C11","WESTMONT","IL","60559"
8257,"1020 S ZENO WAY","AURORA","CO","80017"
8258,"1020 SCOTLAND DR","DESOTO","TX","75115"
8259,"1020 SCOTLAND DRIVE APT 1505","DESOTO","TX","75115"
8260,"1020 SE MARKET ST","PORTLAND","OR","97214"
8261,"1020 SHERI LANE","CARLISLE","OH","45005"
8262,"1020 SHILOH CROSSING BLVD STE 3","BILLINGS","MT","59102"
8263,"1020 SNOWY ROCK RIDGE DR","SHOW LOW","AZ","85901"
8264,"1020 SOUTH 4TH STREET","ATCHISON","KS","66002"
8265,"1020 SOUTH 57TH STREET","WEST ALLIS","WI","53214"
8266,"1020 SOUTH BETHANY ROAD","MCDONOUGH","GA","30252"
8267,"1020 SOUTH GARNETT","TULSA","OK","74128"
8268,"1020 SOUTH SAPPINGTON RD","CRESTWOOD","MO","63126"
8269,"1020 SOUTH SAPPINGTON RD","SAINT LOUIS","MO","63126"
8270,"1020 SOUTH SCENIC HIGHWAY","LAKE WALES","FL","33853"
8271,"1020 SOUTH WASHINGTON STREET","OWOSSO","MI","48867"
8272,"1020 STURBRIDGE DRIVE","MEDINA","OH","44256"
8273,"1020 SUNSET DR","BOUNTIFUL","UT","84010"
8274,"1020 SUNSET DRIVE","CLARKSVILLE","TN","37040"
8275,"1020 SW 10 AVE","MIAMI","FL","33130"
8276,"1020 SW 130TH","OKLAHOMA CITY","OK","73170"
8277,"1020 SWALLOW DRIVE","CHERRY HILL","NJ","08003"
8278,"1020 THIRD AVENUE SW","CARMEL","IN","46032"
8279,"1020 TRAVITINE TRAIL","LOGANVILLE","GA","30052"
8280,"1020 UPNOR ROAD","BALTIMORE","MD","21212"
8281,"1020 VENETIAN CT","CARY","NC","27518"
8282,"1020 VETERANS MEMORIAL DR","CARLISLE","IA","50047"
8283,"1020 VINCENNES STREET","NEW ALBANY","IN","47150"
8284,"1020 W GATE CITY BLVD","GREENSBORO","NC","27403"
8285,"1020 W GREENWAY DR","TEMPE","AZ","85282"
8286,"1020 W LAWRENCE AVE APT 508","CHICAGO","IL","60640"
8287,"1020 W LAWRENCE AVE UNIT 501","CHICAGO","IL","60640"
8288,"1020 W LOOP N FWY FRONTAGE RD 280","HOUSTON","TX","77055"
8289,"1020 W MCDOWELL RD","JACKSON","MS","39204"
8290,"1020 W MEDICINE LAKE DR UNIT 332","PLYMOUTH","MN","55441"
8291,"1020 WAHLER PL SE","WASHINGTON","DC","20032"
8292,"1020 WALDEN LANE","LAKE FOREST","IL","60045"
8293,"1020 WASHINGTON AVENUE","EAST POINT","GA","30344"
8294,"1020 WASHINGTON ROAD","RYE","NH","03870"
8295,"1020 WEDGEWOOD RD","BETHLEHEM","PA","18017"
8296,"1020 WEST ATHERTON DRIVE SUITE 220","TAYLORSVILLE","UT","84123"
8297,"1020 WEST BRYN MAWR AVE SUITE 401","CHICAGO","IL","60660"
8298,"1020 WEST STREET","PANAMA CITY","FL","32404"
8299,"1020 WHITLOW BLVD","SUMMERVILLE","SC","29483"
8300,"1020 WILDWOOD ST","WHITE HOUSE","TN","37188"
8301,"1020 WOODFIELD CIRCLE","PALM BEACH GARDENS","FL","33418"
8302,"1020-30 MICHEL STREET","MILWAUKEE","WI","53204"
8303,"1020","CHARLOTTESVILLE","VA","22901"
8304,"1020","FLOSSMOOR","IL","60443"
8305,"10200 BELLE RIVE BLVD APT 23","JACKSONVILLE","FL","32256"
8306,"10200 BOLSA AVE SPC 64","WESTMINSTER","CA","92683"
8307,"10200 CAVE AVE","BAKERSFIELD","CA","93312"
8308,"10200 CITY WALK DRIVE APT 341","WOODBURY","MN","55129"
8309,"10200 DIXIE HWY","LOUISVILLE","KY","40272"
8310,"10200 DWELL COURT NUM 214","ORLANDO","FL","32832"
8311,"10200 E DRY CREEK RD UNIT 2-102","ENGLEWOOD","CO","80112"
8312,"10200 E GIRARD AVE STE C204","DENVER","CO","80231"
8313,"10200 E GIRARD AVE STE C370","DENVER","CO","80231"
8314,"10200 FIRWOOD DRIVE","CUPERTINO","CA","95014"
8315,"10200 HEMLOCK WAY","JONESBORO","GA","30238"
8316,"10200 HERTZFELD ROAD","WATERVILLE","OH","43566"
8317,"10200 INDEPENDENCE PKWY 612","PLANO","TX","75025"
8318,"10200 INDEPENDENCE PKWY APT 701","PLANO","TX","75025"
8319,"10200 MEMPHIS AVE","BROOKLYN","OH","44144"
8320,"10200 MILLER AVE APT 401","CUPERTINO","CA","95014"
8321,"10200 NORTH MCALISTER ROAD","ISLAND CITY","OR","97850"
8322,"10200 RAMSEY WAY","DICKSON","TN","37055"
8323,"10200 S MCALISTER RD","ISLAND CITY","OR","97850"
8324,"10200 SLATER AVENUE","FOUNTAIN VALLEY","CA","92708"
8325,"10200 SW 107TH AVE","MIAMI","FL","33176"
8326,"10200 SW 49TH AVE","OCALA","FL","34476"
8327,"10200 US HWY 290 W STE 301","AUSTIN","TX","78736"
8328,"10200 W 100TH AVE","WESTMINSTER","CO","80021"
8329,"10200 W 44TH AVE STE 115","WHEAT RIDGE","CO","80033"
8330,"10201 AQUA AZUL CT","AUSTIN","TX","78733"
8331,"10201 BALTIMORE AVENUE UNIT 5110","COLLEGE PARK","MD","20740"
8332,"10201 BARCELONA RD P O BOX 518","UNIONTOWN","AR","72955"
8333,"10201 BUFFALO RIDGE ROAD","EDMOND","OK","73025"
8334,"10201 BUFFALO SPEEDWAY APT 5212","HOUSTON","TX","77054"
8335,"10201 EXPLORER COURT","TAMPA","FL","33615"
8336,"10201 FALCON PINE BLVD APT 108","ORLANDO","FL","32829"
8337,"10201 FLATLAND AVENUE UNIT 360572","BROOKLYN","NY","11236"
8338,"10201 GREEN CLOVER DRIVE","ELLIOTT CITY","MD","21042"
8339,"10201 GROSVENOR PL APT 1010","ROCKVILLE","MD","20852"
8340,"10201 GROSVENOR PLACE  APT 420","ROCKVILLE","MD","20852"
8341,"10201 GROSVENOR PLACE APT 1221","ROCKVILLE","MD","20852"
8342,"10201 GROSVENOR PLACE SUITE 507","ROCKVILLE","MD","20852"
8343,"10201 LINDLEY AVE APT 198","NORTHRIDGE","CA","91325"
8344,"10201 LINDLEY AVE NUM 151","NORTHRIDGE","CA","91325"
8345,"10201 MARTIN LUTHER KING JR HWY 220","BOWIE","MD","20720"
8346,"10201 MAVERICK DRIVE","FORT WORTH","TX","76108"
8347,"10201 MCINTYRE ROAD","OWENSBORO","KY","42301"
8348,"10201 MEREDITH AVENUE","SILVER SPRING","MD","20910"
8349,"10201 N 99TH AVE - 7C","PEORIA","AZ","85345"
8350,"10201 OLIVEWOOD WAY 158","ESTERO","FL","33928"
8351,"10201 S HOPI LN","GOODYEAR","AZ","85338"
8352,"10201 S PRAIRIE AVE","INGLEWOOD","CA","90303"
8353,"10201 SOUTH 51ST ST SUITE 240","PHOENIX","AZ","85044"
8354,"10201 SOUTH INDIANA AVENUE","CHICAGO","IL","60628"
8355,"10201 SOUTH PEEBLY ROAD","NEWALLA","OK","74857"
8356,"10201 SPRING CYPRESS RD","HOUSTON","TX","77070"
8357,"10201 SPRINGMERE DRIVE UNIT 302","LOUISVILLE","KY","40242"
8358,"10201 STAR LANDING RD","LK CORMORANT","MS","38641"
8359,"10201 STAR LANDING RD","WALLS","MS","38680"
8360,"10201 UNIVERSITY AVE  SUITE A15-101","CLIVE","IA","50325"
8361,"10201 W 89TH TERRACE","OVERLAND PARK","KS","66212"
8362,"10201 W LINCOLN AVE SUITE 107","WEST ALLIS","WI","53227"
8363,"10201","FRANKLIN PARK","IL","60131"
8364,"10202 34TH AVE E","TACOMA","WA","98446"
8365,"10202 TIMBERWOOD CIRCLE","LOUISVILLE","KY","40223"
8366,"10202","ZEPHYR COVE","NV","89448"
8367,"10203 GREENFIELD PARK ROAD","LOUISVILLE","KY","40258"
8368,"10203 SPICEWOOD MESA","AUSTIN","TX","78759"
8369,"10203 W MELVINA STREET","WAUWATOSA","WI","53222"
8370,"10203 WELLHOUSE CT","JACKSONVILLE","FL","32220"
8371,"10204 BEVANS LANE","MIDDLE RIVER","MD","21220"
8372,"10204 E ISLETA AVE","MESA","AZ","85209"
8373,"10204 PRINCE PLACE UNIT 308","UPPER MARLBORO","MD","20774"
8374,"10204 RIDGELINE DRIVE","MONTGOMERY VILLAGE","MD","20886"
8375,"10204 S WILTON PL","LOS ANGELES","CA","90047"
8376,"10205 COURTNEY PALMS BLVD A104","TAMPA","FL","33619"
8377,"10205 DOGWOOD ST","FIRESTONE","CO","80504"
8378,"10205 E ELM LAKE DR","FORBES","ND","58439"
8379,"10205 JOLIET STREET","SAINT JOHN","IN","46373"
8380,"10205 MADISON GROVE AVENUE","LAS VEGAS","NV","89166"
8381,"10205 NAPOLEAN STREET","FREDERICKSBURG","VA","22408"
8382,"10205 PINTAIL PLACE APT 103","CHARLOTTE","NC","28269"
8383,"10206 CRESTED IRIS DRIVE","MONTGOMERY VILLAGE","MD","20886"
8384,"10206 GRETCHEN COURT","MANASSAS","VA","20110"
8385,"10206 MOSSY ROCK CIRCLE","LOS ANGELES","CA","90077"
8386,"10206 PRISM DRIVE","AUSTIN","TX","78726"
8387,"10206 SOUTH DENKER AVENUE","LOS ANGELES","CA","90047"
8388,"10206 STATE ROUTE 249","BRYAN","OH","43506"
8389,"10206 TOSCANA DRIVE","BAKERSFIELD","CA","93306"
8390,"10206 WALKERTON LANE","OAKTON","VA","22124"
8391,"10206 ZENOBIA CIRCE","WESTMINSTER","CO","80031"
8392,"10207 AVIGNON WAY","BAKERSFIELD","CA","93306"
8393,"10207 BIGNONIA DRIVE","LAUREL","MD","20708"
8394,"10207 CAMDEN GARDEN LANE","KATY","TX","77494"
8395,"10207 COLLETT AVENUE","NORTH HILLS","CA","91343"
8396,"10207 KASHMERE LANE","ESCONDIDO","CA","92029"
8397,"10207 LAND O LAKES BLVD","LAND O LAKES","FL","34638"
8398,"10207 NAVARRE CT","HENRICO","VA","23238"
8399,"10207 STATE ROUTE 88","GARRETTSVILLE","OH","44231"
8400,"10207 WREN LN","EAGLE RIVER","AK","99577"
8401,"10208 BLANSFORD WAY","MIDDLE RIVER","MD","21220"
8402,"10208 CARLTON RD","PORT ST LUCIE","FL","34987"
8403,"10208 DEERCLIFF DR","TAMPA","FL","33647"
8404,"10208 DUNSFORD DRIVE","LONE TREE","CO","80124"
8405,"10208 E 7TH ST","TULSA","OK","74128"
8406,"10208 GOLD DR","GRASS VALLEY","CA","95945"
8407,"10208 NW 63RD DR","PARKLAND","FL","33076"
8408,"10208 S INDIANAPOLIS AVE 301","CHICAGO","IL","60617"
8409,"10208 S INDIANAPOLIS AVE SUITE 400","CHICAGO","IL","60617"
8410,"10208 SUMATRA ST","EL PASO","TX","79925"
8411,"10208 SUMMERVIEW CIRCLE","RIVERVIEW","FL","33578"
8412,"10209 CHESTNUT RIDGE RD","AUSTIN","TX","78726"
8413,"10209 E LINCOLN","WICHITA","KS","67207"
8414,"10209 GOLDEN LIGHT CT","RIVERVIEW","FL","33578"
8415,"10209 GOVENORS DRIVE","CHAPEL HILL","NC","27517"
8416,"10209 N 57TH STREET","PARADISE VALLEY","AZ","85253"
8417,"10209 WASHBURN CIRCLE","BLOOMINGTON","MN","55431"
8418,"10209 WEST ROAD","HARRISON","OH","45030"
8419,"1020A AUBURN AVE","LAFAYETTE","LA","70503"
8420,"1020NBALLARD WAY","KIMBERLY","ID","83341"
8421,"1021 11TH ST NORTH","WAHPETON","ND","58075"
8422,"1021 32ND AVENUE SOUTH 103","MOOREHEAD","MN","56560"
8423,"1021 34TH PL","FOREST GROVE","OR","97116"
8424,"1021 5TH ST BLDG 318","HOLLOMAN AFB","NM","88330"
8425,"1021 6TH AVENUE","AUGUSTA","GA","30901"
8426,"1021 ABBIE GLENN LN","SHREVEPORT","LA","71106"
8427,"1021 ALDEN CIR","DEKALB","IL","60115"
8428,"1021 AQUA LANE","MADISON","GA","30650"
8429,"1021 ARLINGTON BLVD APT 730","ARLINGTON","VA","22209"
8430,"1021 ASH ST","CROSSETT","AR","71635"
8431,"1021 AUDREY WAY","ALLEN","TX","75013"
8432,"1021 AVONDALE AVENUE","COLUMBUS","OH","43212"
8433,"1021 BARCLAY ROAD","CHESTER SPRINGS","PA","19425"
8434,"1021 BAYWOOD DRIVE","WILLIAMTSOWN","NJ","08094"
8435,"1021 BROOKS LANE","DELRAY BEACH","FL","33483"
8436,"1021 BROOKSTONE CT","GEORGETOWN","IN","47122"
8437,"1021 BURLINGAME AVE","BURLINGAME","CA","94010"
8438,"1021 BURLINGAME AVENUE","BURLINGAME","CA","94010"
8439,"1021 CAMDEN HILL COURT","LAWRENCEVILLE","GA","30046"
8440,"1021 CANNONBALL RUN A201","KNIGHTDALE","NC","27545"
8441,"1021 CARLISLE AVE SUITE H","RICHMOND","VA","23231"
8442,"1021 CARRINGTON RIDGE","STOCKBRIDGE","GA","30281"
8443,"1021 CHERRY STREET 3-R","PHILADELPHIA","PA","19107"
8444,"1021 CHIEFTAIN LOOKOUT","MADISON","WI","53711"
8445,"1021 CRAGMONT AVE","BERKELEY","CA","94708"
8446,"1021 CTY RD 315","ASPERMONT","TX","79502"
8447,"1021 DELMAS AVE","NASHVILLE","TN","37216"
8448,"1021 DIAMOND WAY","BOGART","GA","30622"
8449,"1021 DIXIE STREET","FLORENCE","SC","29501"
8450,"1021 DODGE AVE UNIT B","EVANSTON","IL","60202"
8451,"1021 E 170TH PLACE","SOUTH HOLLAND","IL","60473"
8452,"1021 EAST 2ND AVE","PINE BLUFF","AR","71601"
8453,"1021 EAST BROAD STREET","COLUMBUS","OH","43205"
8454,"1021 EMBER CREST DRIVE","ROCKWALL","TX","75087"
8455,"1021 F AVE","VIRGINIA BEACH","VA","23454"
8456,"1021 FLAGTREE LANE","PIKESVILLE","MD","21208"
8457,"1021 FLORIDA STREET","ORLANDO","FL","32810"
8458,"1021 GERMAN SCHOOL RD","RICHMOND","VA","23225"
8459,"1021 HALIFAX STREET","PETERSBURG","VA","23803"
8460,"1021 HIGHLAND RIDGE DRIVE","MANHATTAN","KS","66503"
8461,"1021 HWY 71 S","OKOBOJI","IA","51355"
8462,"1021 JOBS RUN ROAD","KERENS","WV","26276"
8463,"1021 JUNEAU ST","KEWAUNEE","WI","54216"
8464,"1021 KINGSWAY DR STE 3","CAPE GIRARDEAU","MO","63701"
8465,"1021 LAKELAND HILLS BLVD","LAKELAND","FL","33803"
8466,"1021 LYNDA LANE","ARLINGTON","TX","76013"
8467,"1021 MARGARET DRIVE","LADSON","SC","29456"
8468,"1021 MARIE DRIVE","WARRENVILLE","SC","29851"
8469,"1021 MARTEX DRIVE","APOPKA","FL","32703"
8470,"1021 MAYBERRY COURT","COPPER CANYON","TX","75077"
8471,"1021 MICHIGAN AVENUE","ADRIAN","MI","49221"
8472,"1021 MOCHA MATTARI ST","HENDERSON","NV","89052"
8473,"1021 MONTGOMERY BELL RD","WESLEY CHAPEL","FL","33543"
8474,"1021 N AVON ST","BURBANK","CA","91505"
8475,"1021 N BOWMAN SPRINGS RD","KENNEDALE","TX","76060"
8476,"1021 N DARLENE DR","VAIL","AZ","85641"
8477,"1021 N MARKET PLAZA SUITE 107","PUEBLO WEST","CO","81007"
8478,"1021 N ONTARIO ST","BURBANK","CA","91505"
8479,"1021 NE 182ND ST","SHORELINE","WA","98155"
8480,"1021 NORTH MCKNIGHT ROAD 1K","SAINT LOUIS","MO","63132"
8481,"1021 NORTH ROSE STREET","KALAMAZOO","MI","49007"
8482,"1021 OLD BATES PIKE","CLEVELAND","TN","37311"
8483,"1021 PALAMINO LN","ELGIN","SC","29045"
8484,"1021 PARKWOOD AVENUE","GROVELAND","FL","34736"
8485,"1021 PECAN AVE","SANFORD","FM","32771"
8486,"1021 PEGRAM STREET","CHARLOTTE","NC","28205"
8487,"1021 PICO BLVD","SANTA MONICA","CA","90405"
8488,"1021 PORTAGE AVENUE","SOUTH BEND","IN","46616"
8489,"1021 QUASH STREET","HAMPTON","VA","23669"
8490,"1021 RECREO RD","LOS LUNAS","NM","87031"
8491,"1021 RIVER RD","BINGHAMTON","NY","13901"
8492,"1021 RIVER ROAD","BINGHAMTON","NY","13901"
8493,"1021 RIVIERA DR","VIRGINIA BEACH","VA","23464"
8494,"1021 ROLLING MEADOWS DR","LITTLE CHUTE","WI","54140"
8495,"1021 ROMAN KNOLL COURT APARTMENT A","HARRISBURG","PA","17109"
8496,"1021 S 37TH STREET","SAN DIEGO","CA","92113"
8497,"1021 S AVENUE L","CROWLEY","LA","70526"
8498,"1021 S GROVE AVE","OAK PARK","IL","60304"
8499,"1021 S PARK AVE","TITUSVILLE","FL","32780"
8500,"1021 S SOTO STREET APT 107","LOS ANGELES","CA","90023"
