"ID","Address","City","State","Zip"
113001,"210 E MONTICELLO DR","KAYSVILLE","UT","84037"
113002,"210 E ROCKLAND ST","PHILADELPHIA","PA","19120"
113003,"210 E TAYLOR ST","KOKOMO","IN","46903"
113004,"210 E UNION CITY RD","COLDWATER","MI","49036"
113005,"210 E WATER ST","FARMERVILLE","LA","71241"
113006,"210 EAST 2ND STREET","FRONT ROYAL","VA","22630"
113007,"210 EAST 4TH AVENUE","FRIENDSVILLE","TN","37737"
113008,"210 EAST 83RD STREET APT 2A","NEW YORK","NY","10028"
113009,"210 EAST 86TH STREET SUITE 202A","NEW YORK","NY","10028"
113010,"210 EAST CHARLESTON AVE","WILDWOOD CREST","NJ","08260"
113011,"210 EAST DYER STREET","BRECKENRIDGE","TX","76424"
113012,"210 EAST HALL STREET","CARTERVILLE","MO","64835"
113013,"210 EAST HEYWOOD STREET","SAN BENITO","TX","78586"
113014,"210 EAST LIBERTY STREET","CHARLES TOWN","WV","25414"
113015,"210 EAST MAIN 593","ROSEBUD","TX","76570"
113016,"210 EAST MAIN STREET","AMSTERDAM","NY","12010"
113017,"210 EAST MAIN STREET","BATAVIA","NY","14020"
113018,"210 EAST ROAD","WEST BROOKFIELD","MA","01585"
113019,"210 EASTWOOD","HIGBEE","MO","65257"
113020,"210 ECTOR DR SUIT 152","EULESS","TX","76039"
113021,"210 EDWARDS RD","LYMAN","SC","29365"
113022,"210 EIGHTH ST","LAFAYETTE","LA","70501"
113023,"210 ELM ST","ROME","NY","13440"
113024,"210 ELM STREET","GROTON","NY","13073"
113025,"210 ELMWOOD DR","PITTSBURG","KS","66762"
113026,"210 EMANUEL CLEAVER II BLVD APT 3E","KANSAS CITY","MO","64112"
113027,"210 ENCHANTMENT RD","RAPID CITY","SD","57701"
113028,"210 ENID LANE","NORTHFIELD","IL","60093"
113029,"210 ERIE STREET","EDINBORO","PA","16412"
113030,"210 ERNIE PYLE STREET","GALAX","VA","24333"
113031,"210 FAIRFIELD DRIVE","ELLENWOOD","GA","30294"
113032,"210 FERDINAND STREET - SUITE 2","FREDERICKSBURG","VA","22401"
113033,"210 FERNDALE STREET NORTH","MAPLEWOOD","MN","55119"
113034,"210 FIR AVE APT 304","FORKS","WA","98331"
113035,"210 FIRE STATION DRIVE","ALBION","IN","46701"
113036,"210 FIRETREE LANE","CARY","NC","27513"
113037,"210 FLOWER HILL RD","SMITHVILLE","TX","78957"
113038,"210 FOUNTAIN ST","MANDEVILLE","LA","70448"
113039,"210 FOUNTAYNE LN","LAWRENCE","NJ","08648"
113040,"210 FOXTAIL LN","JANE LEW","WV","26378"
113041,"210 FOXTROT LANE","ABILENE","TX","79602"
113042,"210 FRISCO STREET","WILLOW SPRINGS","MO","65793"
113043,"210 FULLERTON AVENUE","WHITEHALL","PA","18052"
113044,"210 FULTON STREET","HANCOCK","MD","21750"
113045,"210 GIBSON CIR","DERMOTT","AR","71638"
113046,"210 GRAY FOX COURT","EDGEWATER","MD","21037"
113047,"210 GREEN ST","SYRACUSE","NY","13203"
113048,"210 HARRISON AVENUE","CLIFTON HEIGHTS","PA","19018"
113049,"210 HAYDEN AVE","EVANSTON","WY","82930"
113050,"210 HAZELWOOD COURT","GROVETOWN","GA","30813"
113051,"210 HENDRIX AVE","ATLANTA","GA","30315"
113052,"210 HERITAGE MILL DR","MADISON","AL","35758"
113053,"210 HERMOSA DRIVE NE","ALBUQUERQUE","NM","87108"
113054,"210 HERRICK ROAD","NEWTON CENTRE","MA","02459"
113055,"210 HIGH STREET EXT","LANCASTER","MA","01523"
113056,"210 HOBBS STREET BOX 210","CONWAY","NH","03818"
113057,"210 HODGES LANE","TAKOMA PARK","MD","20912"
113058,"210 HULIHEN DRIVE","NEWARK","DE","19709"
113059,"210 HURST POINT","COLLEGE PARK","GA","30349"
113060,"210 ILLINOIS STREET","PARK FOREST","IL","60466"
113061,"210 INGLEWOOD DR","ENTERPRISE","AL","36330"
113062,"210 ISLAND ST","CHIPPEWA FALLS","WI","54729"
113063,"210 JACKSON ST","WEST MONROE","LA","71291"
113064,"210 JAMESTOWN PARK DRIVE SUITE 200","BRENTWOOD","TN","37027"
113065,"210 JEWEL STREET","SAN RAFAEL","CA","94901"
113066,"210 JOHNS ST NE","ORTING","WA","98360"
113067,"210 JOHNSON AVE N","FOSSTON","MN","56542"
113068,"210 JOSEPH POND LANE","CARY","NC","27519"
113069,"210 K ST","HOQUIAM","WA","98550"
113070,"210 KENSINGTON DR","YOUNGSVILLE","NC","27596"
113071,"210 KERRIGAN BLVD","NEWARK","NJ","07106"
113072,"210 KINGFISHER LANE","FRIDAY HARBOR","WA","98250"
113073,"210 KINGS CREEK DR APT 302","FAYETTEVILLE","NC","28311"
113074,"210 LAKESHORE WAY","LAGRANGE","GA","30240"
113075,"210 LAKESIDE DRIVE","NEWNAN","GA","30263"
113076,"210 LAKEVIEW DR","NICHOLASVILLE","KY","40356"
113077,"210 LAMBS LANE","CHARLOTTESVILLE","VA","22901"
113078,"210 LANDFALL RD","ATLANTA","GA","30328"
113079,"210 LANDMARK DR","NORMAL","IL","61761"
113080,"210 LARCH COURT","MIDDLETOWN","MD","21769"
113081,"210 LAUREL AVE","TILLAMOOK","OR","97141"
113082,"210 LEAH LANE","DAVIS","OK","73030"
113083,"210 LEE AVENUE","ELAINE","AR","72333"
113084,"210 LEE STREET","COLUMBIA","AL","31324"
113085,"210 LINCOLN AVENUE","HAVERTOWN","PA","19083"
113086,"210 LINDEN AVE APT 4","ITHACA","NY","14850"
113087,"210 LINDIN ST","APPOMATTOX","VA","24522"
113088,"210 LOCKAMY ROAD","CLINTON","NC","28328"
113089,"210 LOCUST AVE","LOCUST","NC","28097"
113090,"210 LOCUST LN","ALEXANDRIA","VA","22302"
113091,"210 LOCUST STREET APT 8F","PHILADELPHIA","PA","19106"
113092,"210 LONDONDERRY DRIVE","NEW BRIGHTON","PA","15066"
113093,"210 LONG RD","TULLY","NY","13159"
113094,"210 LOTTIE ST","BELLINGHAM","WA","98225"
113095,"210 MAGNOLIA AVENUE","CHARLOTTE","NC","28203"
113096,"210 MAIN ST","SCALES MOUND","IL","61075"
113097,"210 MAIN STREET","BIWABIK","MN","55708"
113098,"210 MAIN STREET","MAURICE","IA","51036"
113099,"210 MAIN STREET","SMITHFIELD","VA","23430"
113100,"210 MARKET ST","YORKVILLE","OH","43971"
113101,"210 MCFARLIN ST","KINGSTREE","SC","29556"
113102,"210 MCKINLEY STREET","MIDDLETOWN","OH","45042"
113103,"210 MCKOY STREET","CLINTON","NC","28328"
113104,"210 MCLEOD STREET","MERRITT ISLAND","FL","32953"
113105,"210 MEADOW DRIVE","CARY","NC","27511"
113106,"210 MEADOWLARK DR","JEFFERSON","TX","75657"
113107,"210 MELBOURNE","DETROIT","MI","48202"
113108,"210 MERWOOD STREET","BELLEVUE","NE","68005"
113109,"210 MILL STREET","NEVADA CITY","CA","95959"
113110,"210 N  RUBY STREET","ELLENSBURG","WA","98926"
113111,"210 N 17TH STREET SUITE 105","63103","MO","63103"
113112,"210 N 24TH STREET","PHOENIX","AZ","85034"
113113,"210 N 2ND ST APT 208","MINNEAPOLIS","MN","55401"
113114,"210 N 4TH STREET SUITE 100","SAN JOSE","CA","95112"
113115,"210 N 5TH STREET","LEWISTON","NY","14092"
113116,"210 N 6TH ST","BYESVILLE","OH","43723"
113117,"210 N AGNES AVE","BEVERLY","KS","67423"
113118,"210 N BRIDGE STREET BOX 270","SMITHVILLE","MO","64089"
113119,"210 N CARTER SCHOOL ROAD","KNOXVILLE","TN","37871"
113120,"210 N CHURCH ST APT 2011","CHARLOTTE","NC","28202"
113121,"210 N ELIDA STREET","WINNEBAGO","IL","61088"
113122,"210 N FREDERICK","CAPE GIRARDEAU","MO","63701"
113123,"210 N KANSAS AVE STE 1","ELLSWORTH","KS","67439"
113124,"210 N MAIN ST PO BOX 558","PONTIAC","IL","61764"
113125,"210 N MASON ST","BOWIE","TX","76230"
113126,"210 N MOCK RD","ALBANY","GA","31705"
113127,"210 N PINE DRIVE","MONTGOMERY","TX","77356"
113128,"210 N RIVER ST","EAST DUNDEE","IL","60118"
113129,"210 N RUBY ST","ELLENSBURG","WA","98926"
113130,"210 N SAINT ANDREWS ST","DOTHAN","AL","36303"
113131,"210 N UNION RD","WILLIAMSVILLE","NY","14221"
113132,"210 NANTUCKET DR","SUMMERVILLE","SC","29485"
113133,"210 NE 18TH ST","MOORE","OK","73160"
113134,"210 NE DELAWARE AVE STE 200","ANKENY","IA","50021"
113135,"210 NEFF STREET","POWHATAN POINT","OH","43942"
113136,"210 NEFF STREET","POWHATAN PT","OH","43942"
113137,"210 NINA LANE","STAFFORD","TX","77477"
113138,"210 NORTH 17TH STREET SUITE 102","ST LOUIS","MO","63102"
113139,"210 NORTH 9TH STREET","BOISE","ID","83702"
113140,"210 NORTH BROADWAY STREET","OWENSVILLE","OH","45160"
113141,"210 NORTH BROADWAY","SLEEPY HOLLOW","NY","10591"
113142,"210 NORTH BROBST STREET","SHILLINGTON","PA","19607"
113143,"210 NORTH HIGGINS SUITE 222","MISSOULA","MT","59801"
113144,"210 NORTH MAIN STREET","OAKBORO","NC","28129"
113145,"210 NORTH Q AVENUE","NATIONAL CITY","CA","91950"
113146,"210 NORTH WILLOW","PAULS VALLEY","OK","73075"
113147,"210 NW 17TH COURT UNIT 2","FORT LAUDERDALE","FL","33306"
113148,"210 NW 29TH ST","GAINESVILLE","FL","32607"
113149,"210 O STREET","LINCOLN","NE","68508"
113150,"210 OAK HILL ROAD","SWANVILLE","ME","04915"
113151,"210 OAKWOOD ST","HIGH POINT","NC","27262"
113152,"210 OGLE AVE","KNOXVILLE","TN","37920"
113153,"210 OLD COUNTY ROAD","SEVERNA PARK","MD","21146"
113154,"210 OLD STEELE CREEK CT","AZLE","TX","76020"
113155,"210 OLEAN AVENUE","JERSEY CITY","NJ","07306"
113156,"210 ORCHARD LANE","GLASSBORO","NJ","08028"
113157,"210 ORCHARD STREET","WESTFIELD","NJ","07090"
113158,"210 OREGON TRAIL","LINCOLN","NE","68521"
113159,"210 OSBORNE ROAD","ALBANY","NY","12205"
113160,"210 PARK AVENUE  SUITE 143","WORCESTER","MA","01609"
113161,"210 PARK CIRCLE","ATTLEBORO","MA","02703"
113162,"210 PARK LOOP","CALHOUN","KY","42327"
113163,"210 PARKWAY","DEL RIO","TX","78840"
113164,"210 PAWLEYS DRIVE","SIMPSONVILLE","SC","29681"
113165,"210 PEARL STREET","JACKSON","OH","45640"
113166,"210 PEBBLE BROOKE COURT","COVINGTON","GA","30016"
113167,"210 PELHAM RD UNIT 218A","FT. WALTON BEACH","FL","32547"
113168,"210 PEONY LANE","SEWELL","NJ","08080"
113169,"210 PEYTON RD","YORK","PA","17403"
113170,"210 PINE SHADOWS DR","HOUSTON","TX","77586"
113171,"210 PINE STREET","MINERAL SPRINGS","AR","71851"
113172,"210 PLUM","NORTH LITTLE ROCK","AR","72114"
113173,"210 POLK STREET","HUNTSVILLE","AR","72740"
113174,"210 POPLAR ST","EL PASO","TX","79901"
113175,"210 POTOMAC RIDGE DRIVE","FORT WASHINGTON","MD","20744"
113176,"210 RAVENSAIDE DRIVE","HOUMA","LA","70360"
113177,"210 REFLECTIONS DRIVE APT 23","SAN RAMON","CA","94583"
113178,"210 RICHARDSON ROAD","LANSDALE","PA","19446"
113179,"210 RIDGE RD","LAKE MARY","FL","32746"
113180,"210 RIVERSIDE DRIVE 6A","NEW YORK","NY","10025"
113181,"210 RIVERVIEW PLACE","LILLINGTON","NC","27546"
113182,"210 ROGER RD","LAFAYETTE","LA","70507"
113183,"210 ROLLING CREEK CIRCLE","IRMO","SC","29063"
113184,"210 ROSE DRIVE","ENGLEWOOD","TN","37329"
113185,"210 RUCKER STREET","AMERICUS","GA","31719"
113186,"210 RUCKER STREET","PARIS","KY","40361"
113187,"210 RUTLAND CT","ATLANTA","GA","30350"
113188,"210 S 2ND STREET","COLWICH","KS","67030"
113189,"210 S 45 TH","PHILADELPHIA","PA","19104"
113190,"210 S 4TH STREET","CLEAR LAKE","IA","50428"
113191,"210 S ACADEMY","SANGER","CA","93657"
113192,"210 S BLAIRSFERRY CROSING","HIAWATHA","IA","52233"
113193,"210 S CENTRAL AVE","BALTIMORE","MD","21202"
113194,"210 S COTTA CT","VISALIA","CA","93292"
113195,"210 S HAYWARD ST","WOODSTOCK","IL","60098"
113196,"210 S HENNEPIN AVE","DIXON","IL","61021"
113197,"210 S HILLCREST DR","GOLDSBORO","NC","27534"
113198,"210 S HIMES AVE","TAMPA","FL","33609"
113199,"210 S HOLLY ST","SILOAM SPGS","AR","72761"
113200,"210 S HUDSON STREET SUITE 375","SEATTLE","WA","98134"
113201,"210 S LAFAYETTE PK PLACE APT 306","LOS ANGELES","CA","90057"
113202,"210 S LOPEZ STREET","CLEWISTON","FL","33440"
113203,"210 S MAIN STREET","EDWARDSVILLE","IL","62025"
113204,"210 S MAPLE AVE","EATON","CO","80615"
113205,"210 S MARKET STREET","MARTINGSBURG","PA","16662"
113206,"210 S ORCHARD DR","PURCELLVILLE","VA","20132"
113207,"210 S PULASKI ST","LITTLE ROCK","AR","72201"
113208,"210 S RANDOLPH STREET","GARRETT","IN","46738"
113209,"210 S VILLAGE DRUNIT 201","ST PETERSBURG","FL","33716"
113210,"210 S WASHINGTON ST","TAYLORVILLE","IL","62568"
113211,"210 S WASHINGTON","LOUISVILLE","CO","80027"
113212,"210 S WATER STREET","OWOSSO","MI","48867"
113213,"210 SABAL PALMS ROW","YOUNGSVILLE","LA","70592"
113214,"210 SAWTOOTH COURT","CANTON","GA","30114"
113215,"210 SE MADISON ST STE 15","PORTLAND","OR","97214"
113216,"210 SECOND AVENUE APARTMENT 309","LONG BEACH","MS","39560"
113217,"210 SEYE WAILO TRAIL","CLARKESVILLE","GA","30523"
113218,"210 SHADOWLEDGE LANE","ROSWELL","GA","30076"
113219,"210 SHADY HILL LN","DOUBLE OAK","TX","75077"
113220,"210 SHERIDAN ST","BLAIR","NE","68008"
113221,"210 SHORE DRIVE","RIVIERA BEACH","FL","33404"
113222,"210 SHORT SPRINGS","TULLAHOMA","TN","37388"
113223,"210 SILVER DR","DECATUR","IL","62521"
113224,"210 SILVERBROOK ROAD P O BOX 373","RANDLE","WA","98377"
113225,"210 SKYLANE BLVD","MADISON","AL","35757"
113226,"210 SMALLWOOD DR","MICKLETON","NJ","08056"
113227,"210 SMALLWOOD DRIVE","MICKLETON","NJ","08056"
113228,"210 SOUTH 16TH STREET","EMMAUS","PA","18049"
113229,"210 SOUTH 25TH AVENUE","HATTIESBURG","MS","39401"
113230,"210 SOUTH 25TH STREET","DENISON","IA","51442"
113231,"210 SOUTH CHERRY STREET","WINSTON SALEM","NC","27101"
113232,"210 SOUTH CLAYBORN AVE","PARKERS PRAIRIE","MN","56361"
113233,"210 SOUTH ELIZABETH STREET","KIRBYVILLE","TX","75956"
113234,"210 SOUTH KALAMAZOO","WHITE PIGEON","MI","49099"
113235,"210 SOUTH KINGS AVENUE SUITE D","BRANDON","FL","33511"
113236,"210 SOUTH MICHIGAN ST/200","SOUTH BEND","IN","46601"
113237,"210 SOUTH PRINCE STREET","LANCASTER","PA","17603"
113238,"210 SOUTH SCIENTIFIC STREET APT C","HIGH POINT","NC","27260"
113239,"210 SOUTH VALENTINE STREET","ABBEVILLE","LA","70510"
113240,"210 SOUTH WABASH STREET","WABASH","IN","46992"
113241,"210 SPACE PARK NORTH","GOODLETTSVILLE","TN","37072"
113242,"210 SPENCE ST","KERRVILLE","TX","78028"
113243,"210 SPRING HILL DR SUITE 155","SPRING","TX","77386"
113244,"210 SQUIRREL HOLLOW","ENTERPRISE","AL","36330"
113245,"210 STATE STREET","SAINT JOSEPH","MI","49085"
113246,"210 STEVEN TAYLOR ROAD","WAKE FOREST","NC","27587"
113247,"210 STONEBURY COURT","LEXINGTON","SC","29073"
113248,"210 STONEBURY CT","LEXINGTON","SC","29073"
113249,"210 SUMNER STREET","STOUGHTON","MA","02072"
113250,"210 SUNDERLAND DRIVE","SAVANNAH","GA","31406"
113251,"210 SUNNYVIEW LANE SUITE 101","KALISPELL","MT","59901"
113252,"210 SUNSET STREET","ORWELL","OH","44076"
113253,"210 SW 24TH STREET","OAK GROVE","MO","64075"
113254,"210 SW 3RD STREET","BRYANT","AR","72022"
113255,"210 SW CLAY ST","TOPEKA","KS","66606"
113256,"210 SW MARKET STREET","LEES SUMMIT","MO","64063"
113257,"210 SYCAMORE AVENUE","SHREWSBURY","NJ","07702"
113258,"210 TALO VERDE DR","TAMUNING","GU","96913"
113259,"210 TAOS DRIVE","WOODWAY","TX","76712"
113260,"210 THOMAS ROAD","MENDHAM","NJ","07945"
113261,"210 TIMBER VIEW COURT","FREDERICK","MD","21702"
113262,"210 TINDALL STREET","SPARTANBURG","SC","29301"
113263,"210 TOWN CENTRE DRIVE","LATHROP","CA","95330"
113264,"210 TOWNE CENTRE DR","LATHROP","CA","95330"
113265,"210 TOWNE CENTRE DRIVE","LATHROP","CA","95330"
113266,"210 TOWNEPARK CIR STE 200","LOUISVILLE","KY","40243"
113267,"210 UNCAS POINT ROAD","GUILFORD","CT","06437"
113268,"210 UNION WHARF STE 210","BOSTON","MA","02109"
113269,"210 VAN NUYS BLVD","SAVANNAH","GA","31419"
113270,"210 VENTURA DR","WEST MONROE","LA","71292"
113271,"210 VERDAN DRIVE NORTH","YORK","PA","17403"
113272,"210 VILLAGE DRIVE","LEXINGTON","NC","27292"
113273,"210 VILLAGE GATE BLVD","DELAWARE","OH","43015"
113274,"210 W 140TH STREET APT 3B","NEW YORK","NY","10030"
113275,"210 W 150TH ST APT 2D","NEW YORK","NY","10039"
113276,"210 W 16 ST STE 6H","NEW YORK","NY","10011"
113277,"210 W 24TH ST","AUSTIN","TX","78712"
113278,"210 W CONTINENTAL RD STE 216B","GREEN VALLEY","AZ","85622"
113279,"210 W COVENTRY PL","MT PROSPECT","IL","60056"
113280,"210 W DEPOT ST","HUNTSVILLE","MO","65259"
113281,"210 W ELM ST","LODI","CA","95240"
113282,"210 W HAMILTON AVE 116","STATE COLLEGE","PA","16801"
113283,"210 W HAMILTON AVE NUM 171","STATE COLLEGE","PA","16801"
113284,"210 W HAMILTON","STATE COLLEGE","PA","16801"
113285,"210 W HOLLAND DR","IRVING","TX","75062"
113286,"210 W LOS OLIVOS ST","SANTA BARBARA","CA","93105"
113287,"210 W MAIN STREET","EMMETT","ID","83617"
113288,"210 W MALLARD DR SUITE A","BOISE","ID","83706"
113289,"210 W MONROE ST","KOKOMO","IN","46901"
113290,"210 W OKLAHOMA AVE","GUTHRIE","OK","73044"
113291,"210 W PATTON","STURGEON","MO","65284"
113292,"210 W RITTENHOUSE SQ ST  STE1804","PHILADELPHIA","PA","19103"
113293,"210 W SAMANO ST","EDIBURG","TX","78539"
113294,"210 W THIRD ST","LEXINGTON","KY","40508"
113295,"210 W WM J BRYAN PKWY NUM 2102","BRYAN","TX","77803"
113296,"210 WALKER ST  UNIT 13","ATLANTA","GA","30313"
113297,"210 WALNUT ST ROOM 559","DES MOINES","IA","50309"
113298,"210 WALNUT","MARYNEAL","TX","79535"
113299,"210 WARD AVE 219B","HONOLULU","HI","96814"
113300,"210 WARREN ST","SCOTTSVILLE","VA","24590"
113301,"210 WATER STREET","MENASHA","WI","54952"
113302,"210 WEST 18TH STREET B","GEORGETOWN","TX","78626"
113303,"210 WEST 61 STREET","NEW YORK","NY","10023"
113304,"210 WEST 7TH STREET","JACKSONVILLE","FM","32206"
113305,"210 WEST AVE","PAWTUCKET","RI","02860"
113306,"210 WEST BAY PLAZA","PLATTSBURGH","NY","12901"
113307,"210 WEST BLUE STREET","SAINT PAULS","NC","28384"
113308,"210 WEST CAMERON AVENUE","CHAPEL HILL","NC","27516"
113309,"210 WEST CANTON STREET","BOSTON","MA","02116"
113310,"210 WEST CULVER RD","KNOX","IN","46534"
113311,"210 WEST F STREET","ENCINITAS","CA","92024"
113312,"210 WEST FRONT STREET  P O BOX5867","MONROE","MI","48161"
113313,"210 WEST FRONT STREET-STEPHYS PLACE","RED BANK","NJ","07701"
113314,"210 WEST FRONT STREET","RED BANK","NJ","07704"
113315,"210 WEST GRANT STREET SUITE 208","LANCASTER","PA","17603"
113316,"210 WEST HAMILTON AVENUE 139","STATE COLLEGE","PA","16801"
113317,"210 WEST JACKSON STREET","MEXICO","MO","65265"
113318,"210 WEST KANSAS AVE","BONIFAY","FL","32425"
113319,"210 WEST LAS CRUCES","LAS CRUCESN","NM","88011"
113320,"210 WEST MAIN ST","AYER","MA","01432"
113321,"210 WEST MAIN STREET APT E","CRAWFORDSVILLE","IN","47933"
113322,"210 WEST MAIN","CENTER","ND","58530"
113323,"210 WEST NESHANNOCK AVE","NEW WILMINGTON","PA","16142"
113324,"210 WEST OAK ST","PALESTINE","TX","75801"
113325,"210 WEST ROBERT STREET APT 20","HAMMOND","LA","70401"
113326,"210 WEST SCENIC DRIVE","NORTH LITTLE ROCK","AR","72118"
113327,"210 WESTSIDE AVENUE","FREEPORT","NY","11520"
113328,"210 WESTWOOD PL STE 110","BRENTWOOD","TN","37027"
113329,"210 WEXFORD CT","COLUMBIA","SC","29212"
113330,"210 WILFORD LANE","COTATI","CA","94931"
113331,"210 WILLARD STREET","BERLINE","NH","03570"
113332,"210 WILLETT AVE","DIXON","IL","61021"
113333,"210 WILLIAMS ST","LAKEWOOD","NJ","08701"
113334,"210 WILLOW LEAF DRIVE","SENECA","SC","29672"
113335,"210 WILSHIRE BLVD","CASSELBERRY","FL","32707"
113336,"210 WINCHESTER RD A203","HUNTSVILLE","AL","35811"
113337,"210 WORRELL RD","ANTIOCH","CA","94509"
113338,"2100  N HWY 360 SUITE 1102","GRAND PRAIRIE","TX","75050"
113339,"2100 141ST AVENUE N","ROGERS","MN","55374"
113340,"2100 19TH STREET NW APT 806","WASHINGTON","DC","20009"
113341,"2100 23RD AVENUE","OAKLAND","CA","94606"
113342,"2100 45TH ST STE A1A","WEST PALM BEACH","FL","33407"
113343,"2100 4TH AVE","SAN DIEGO","CA","92101"
113344,"2100 51ST AVE APT 101","OAKLAND","CA","94601"
113345,"2100 ARBOR CIRCLE EAST APT 202","YPSILANTI","MI","48197"
113346,"2100 ARCH STREET 7TH FLOOR","PHILADELPHIA","PA","19103"
113347,"2100 AVE DE LAS FLORES","THOUSAND OAKS","CA","91362"
113348,"2100 AVIATIOIN WAY","BRIDGEPORT","WV","26330"
113349,"2100 AZTEC RD NE STE A","ALBUQUERQUE","NM","87107"
113350,"2100 BALTIMORE ROAD","ROCKVILLE","MD","20851"
113351,"2100 BARRITT ST","LANSING","MI","48912"
113352,"2100 BARSHAM CT","CEDAR PARK","TX","78613"
113353,"2100 BATTLEFIELD ROAD","PERRYVILLE","KY","40468"
113354,"2100 BEEKMAN PLACE 3O","BROOKLYN","NY","11225"
113355,"2100 BENT CREEK DRIVE","SAN RAMON","CA","94582"
113356,"2100 BIRCHCREST DR","CHARLOTTE","NC","28205"
113357,"2100 BRADYVILLE HILL ROAD","BRADYVILLE","TN","37026"
113358,"2100 BRIARCLIFF DR","HIGH POINT","NC","27265"
113359,"2100 BRISTOL ST","MIDDLETON","WI","53562"
113360,"2100 BROOKS DR","DISTRICT HEIGHTS","MD","20747"
113361,"2100 CALLISON HIGHWAY","GREENWOOD","SC","29646"
113362,"2100 CAMPUS DRIVE","ROCHESTER","MN","55904"
113363,"2100 CANAL STREET","JEANERETTE","LA","70544"
113364,"2100 CENTURY CIRCLE","IRVING","TX","75062"
113365,"2100 COLLEGE STREET","NEWBBERRY","SC","29108"
113366,"2100 COWAN BOULEVARD","FREDERICKSBURG","VA","22401"
113367,"2100 CRICKET LN","COLUMBIANA","OH","44408"
113368,"2100 CYPRESS CLUB 9220","ARLINGTON","TX","76010"
113369,"2100 DALLAS PARKWAY SUITE 106","PLANO","TX","75093"
113370,"2100 DR MARTIN LUTHER KING JR ST S0","ST PETERSBURG","FL","33705"
113371,"2100 E 53RD ST NORTH","PARK CITY","KS","67219"
113372,"2100 E GANS RD","COLUMBIA","MO","65201"
113373,"2100 E KATELLA AVENUE APT 414","ANAHEIM","CA","92806"
113374,"2100 EAST FAIR AVE","SAINT LOUIS","MO","63107"
113375,"2100 EAST FRONTIER ROAD","FLAGSTAFF","AZ","86005"
113376,"2100 EAST PARHAM ROAD UNIT 3181","HENRICO","VA","23228"
113377,"2100 EAST TAHQUITZ CANYON WAY","PALM SPRINGS","CA","92662"
113378,"2100 EAST TREMONT AVE  -   APT 2F","BRONX","NY","10462"
113379,"2100 ELLISON LAKES DR NW 322","KENNESAW","GA","30152"
113380,"2100 ELLISON LAKES DRIVE NW APT 725","KENNESAW","GA","30152"
113381,"2100 EVERGREEN PARKWAY","LEBANON","MO","65536"
113382,"2100 FLETCHER AVENUE SUITE 105","LINCOLN","NE","68521"
113383,"2100 FONTAINE ROAD","LEXINGTON","KY","40502"
113384,"2100 FOURTH STREET C353","SAN RAFAEL","CA","94901"
113385,"2100 FRED BROWN DR","LAS VEGAS","NV","89106"
113386,"2100 GANG ROAD SUITE 210","PALO ALTO","CA","94303"
113387,"2100 GODDARD WAY","WAXHAW","NC","28173"
113388,"2100 GRANVILLE TOWERS LANE CB5100","CHAPEL HILL","NC","27599"
113389,"2100 HAMILTON ROAD","COLUMBUS","GA","31904"
113390,"2100 HIGHWAY 16","SEARCY","AR","72143"
113391,"2100 HIGHWAY 64","EADS","TN","38028"
113392,"2100 HUNTINGTON DRIVE SUITE 8","SAN MARINO","CA","91108"
113393,"2100 KENNICOTT ROAD","WINDSOR MILL","MD","21244"
113394,"2100 KEY WEST CV","AUSTIN","TX","78746"
113395,"2100 LAUREL LANE","STREETSBORO","OH","44241"
113396,"2100 LEE HWY UNIT 116","ARLINGTON","VA","22201"
113397,"2100 LEWIS STREET","LAKEWOOD","CO","80215"
113398,"2100 LITTLE COYOTE ROAD","BIG SKY","MT","59716"
113399,"2100 LOWDEN STREET","FORT WORTH","TX","76110"
113400,"2100 LYNDORA ROAD","VIRGINIA BEACH","VA","23464"
113401,"2100 M ST NW 170-307","WASHINGTON","DC","20037"
113402,"2100 M ST NW STE 170-404","WASHINGTON","DC","20037"
113403,"2100 M STREET NW SUITE 170","WASHINGTON","DC","20037"
113404,"2100 MAGIC VALLEY COURT","COOL","CA","95614"
113405,"2100 MARCONI AVE","SACRAMENTO","CA","95821"
113406,"2100 MERRICK DRIVE","PEACHTREE CITY","GA","30269"
113407,"2100 N 145TH AVE APT 1092","GOODYEAR","AZ","85395"
113408,"2100 N BASS DRIVE","MOUNT JULIET","TN","37122"
113409,"2100 N BROADWAY SUITE 209","SANTA ANA","CA","92706"
113410,"2100 N CENTRAL PARK AVE APT 3","CHICAGO","IL","60647"
113411,"2100 N FLORIDA MANGO RD","WEST PALM BEACH","FL","33409"
113412,"2100 N GRANT AVE","WILMINGTON","DE","19806"
113413,"2100 N HAMPTON ROAD","DESOTO","TX","75115"
113414,"2100 N SPRING ST","NEW ULM","MN","56073"
113415,"2100 NE 3RD CT","BOYNTON BEACH","FL","33435"
113416,"2100 NE 65TH STREET","GLADSTONE","MO","64118"
113417,"2100 NORTH ALAFAYA TRAIL SUITE 500","ORLANDO","FL","32826"
113418,"2100 NORTH BROADWAY","ADA","OK","74820"
113419,"2100 NORTH RIDGE RD","ELYRIA","OH","44035"
113420,"2100 NORTH SHEFFIELD AVENUE UNIT 1","CHICAGO","IL","60614"
113421,"2100 NW 51ST STREET","BOCA RATON","FL","33431"
113422,"2100 NW 62ND AVE","MARGATE","FL","33063"
113423,"2100 NW 70TH AVENUE","SUNRISE","FL","33313"
113424,"2100 ORETHA C HALEY BLVD","NEW ORLEANS","LA","70113"
113425,"2100 PARKE AVE","BURLEY","ID","83318"
113426,"2100 PARKE AVENUE","BURLEY","ID","83318"
113427,"2100 PLEASANT HILL RD","DULUTH","GA","30096"
113428,"2100 QUINCY STREET","SALINA","KS","67401"
113429,"2100 READING PLAZA","ELKHORN","NE","68022"
113430,"2100 REDONDO BEACH BLVD  STE 403-C","TORRANCE","CA","90504"
113431,"2100 REV RICHARD WILSON DR  SUITE 6","KENNER","LA","70062"
113432,"2100 RIDING SPUR DR","SAINT LOUIS","MO","63146"
113433,"2100 RIVERSIDE PARKWAY 128 147","LAWRENCEVILLE","GA","30043"
113434,"2100 RIVERSIDE PKWAY  SUITE 128-139","LAWRENCEVILLE","GA","30043"
113435,"2100 RIVERSIDE PKWY ST 128 B 129","LAWRENCEVILLE","GA","30043"
113436,"2100 RIVERSIDE PKWY STE 128-174","LAWRENCEVILLE","GA","30043"
113437,"2100 RIVERSIDE PKWY STE 128","LAWRENCEVILLE","GA","30043"
113438,"2100 ROLLA ST","JOPLIN","MO","64801"
113439,"2100 ROLLA STREET","JOPLIN","MO","64801"
113440,"2100 ROLLING GREEN LANE","NORTH MANKATO","MN","56003"
113441,"2100 ROSWELL RD NE STE 200C-1111","MARIETTA","GA","30062"
113442,"2100 S  FLOYD STREET  SUITE W310","LOUIUSVILLE","KY","40208"
113443,"2100 S 12TH AVENUE","OZARK","MO","65721"
113444,"2100 S FLOYD STREET W310","LOUISVILLE","KY","40208"
113445,"2100 S GREAT SOUTHWEST PKWY STE 601","GRAND PRAIRIE","TX","75051"
113446,"2100 S HOMAN AVENUE","CHICAGO","IL","60623"
113447,"2100 S MOBBERLY","LONGVIEW","TX","75602"
113448,"2100 SAN DIEGO STREET","EL PASO","TX","79930"
113449,"2100 SANDERS SUITE 200","NORTHBROOK","IL","60062"
113450,"2100 SANDY LANE","BELLEVUE","TX","76228"
113451,"2100 SANS SOUCI BLVD -602","MIAMI","FL","33181"
113452,"2100 SE 164TH AVENUE SUITE D111","VANCOUVER","WA","98683"
113453,"2100 SOUTH BRIDGE PKWY STE 6050","BIRMINGHAM","AL","35209"
113454,"2100 SOUTH FLOYD STREET ROOM W310","LOUISIVLLE","KY","40208"
113455,"2100 SOUTH MOBBERLY AVE","LONGVIEW","TX","75602"
113456,"2100 SOUTH OCEAN LANE APT 1009","FT LAUDERDALE","FL","33316"
113457,"2100 SOUTH PALM CIRCLE","NORTH PALM BEACH","FL","33408"
113458,"2100 SOUTHBRIDGE PARKWAY SUITE 460","BIRMINGHAM","AL","35209"
113459,"2100 STATE HIGHWAY M28 E","MARQUETTE","MI","49855"
113460,"2100 STELLA COURT C/O APRIL STEFFY","COLUMBUS","OH","43215"
113461,"2100 SW 251","ANDREWS","TX","79714"
113462,"2100 SW WALDEN DR","LEE'S SUMMIT","MO","64081"
113463,"2100 TEVIS AVENUE","SACRAMENTO","CA","95825"
113464,"2100 THIRD AVENUE SUITE 500","ANOKA","MN","55303"
113465,"2100 TILTON RD","PORT ST LUCIE","FL","34952"
113466,"2100 TULANE STREET","GAUTIER","MS","39553"
113467,"2100 US RT 60","CULLODEN","WV","25510"
113468,"2100 VALLEY VIEW PARKWAY UNIT 1227","EL DORADO HILLS","CA","95762"
113469,"2100 VAN BUREN STREET 301","HOLLYWOOD","FL","33020"
113470,"2100 W HIGHWAY 90","ALPINE","TX","79830"
113471,"2100 W LEMON TREE PLACE 41","CHANDLER","AZ","85224"
113472,"2100 W MT PLEASANT BLVD","MUNCIE","IN","47302"
113473,"2100 W MUHAMMAD ALI BLVD","LOUISVILLE","KY","40212"
113474,"2100 WASHINGTON STREET","GARY","IN","46407"
113475,"2100 WAVERLY STREET","COLUMBIA","SC","29204"
113476,"2100 WEBSTER STREET  SUITE 332","SAN FRANCISCO","CA","94115"
113477,"2100 WELLMAN RD","LAWRENCE","KS","66044"
113478,"2100 WEST 93RD STREET","LOS ANGELES","CA","90047"
113479,"2100 WEST DECORAH RD","WEST BEND","WI","53095"
113480,"2100 WEST LOOP SOUTH SUITE 1602","HOUSTON","TX","77027"
113481,"2100 WEST LOOP SOUTH SUITE 900","HOUSTON","TX","77024"
113482,"2100 WHITE OAKS CIRCLE NE","ALEXANDRIA","MN","56308"
113483,"2100 WHITESTONE CT SE","SMYRNA","GA","30080"
113484,"2100 WOOD DUCK LN","GRANBURY","TX","76049"
113485,"2100 WORDSWORTH CT APT 401","HERNDON","VA","20170"
113486,"21000 141ST AVENUE","ROGERS","MN","55374"
113487,"21000 DEVONSHIRE STREET SUITE 111","CHATSWORTH","CA","91311"
113488,"21000 FRANZ ROAD","KATY","TX","77449"
113489,"21000 MARIPOSA ROAD APT B","LAKE ELSINORE","CA","92350"
113490,"21000 MIDDLEBELT ROAD","FARMINGTON HILLS","MI","48336"
113491,"21000 SLAB BRIDGE RD","FREELAND","MD","21053"
113492,"21000 STATE HWY 16 S UNIT A","VON ORMY","TX","78073"
113493,"21000 WEST TEN MILE RD","SOUTHFIELD","MI","48075"
113494,"21001 HORACE HARDING EXPRESSWAY","OAKLAND GARDENS","NY","11364"
113495,"21001 N TATUM BLVD SUITE 1630-500","PHOENIX","AZ","85050"
113496,"21001 SAN SIMEON WAY APT 209","MIAMI","FL","33179"
113497,"21001 SAN SIMEON WAY APT 303","NORTH MIAMI BEACH","FL","33179"
113498,"21002 NE 44TH ST","SAMMAMISH","WA","98074"
113499,"21002 ROYAL VILLA DR","KATY","TX","77449"
113500,"21003 ANGUS DRIVE","CLEVELAND","TX","77328"
