"ID","Address","City","State","Zip"
354001,"PO BOX 6074","PORTSMOUTH","VA","23703"
354002,"PO BOX 6074","PORTSMOUTH","VA","23704"
354003,"PO BOX 6075","PARIS","TX","75461"
354004,"PO BOX 60753","OKLAHOMA CITY","OK","73146"
354005,"PO BOX 607713","ORLANDO","FL","32860"
354006,"PO BOX 607721","ORLANDO","FL","32804"
354007,"PO BOX 60782","LAFAYETTE","LA","70596"
354008,"PO BOX 6079","ELGIN","IL","60121"
354009,"PO BOX 6079","FALL RIVER","MA","02724"
354010,"PO BOX 608","ANCHOR POINT","AK","99556"
354011,"PO BOX 608","AQUEBOGUE","NY","11951"
354012,"PO BOX 608","DURHAM","NC","27702"
354013,"PO BOX 608","ESTACADA","OR","97023"
354014,"PO BOX 608","JONESVILLE","VA","24263"
354015,"PO BOX 608","MOUND","MN","55364"
354016,"PO BOX 608","MOUNTAIN VIEW","OK","73062"
354017,"PO BOX 608","ORCHARD PARK","NY","14127"
354018,"PO BOX 608","VALDOSTA","GA","31603"
354019,"PO BOX 608","WASHBURN","ND","58577"
354020,"PO BOX 60801","SAVANNAH","GA","31420"
354021,"PO BOX 6081","LINCOLN","NE","68506"
354022,"PO BOX 6081","SCOTTSDALE","AZ","85261"
354023,"PO BOX 6081","TYLER","TX","75711"
354024,"PO BOX 608174","ORLANDO","FL","32860"
354025,"PO BOX 6083","EDMONDS","WA","98026"
354026,"PO BOX 608383","ORLANDO","FL","32860"
354027,"PO BOX 6085","WOODBRIDGE","VA","22195"
354028,"PO BOX 608582","CLEVELAND","OH","44108"
354029,"PO BOX 608593","CLEVELAND","OH","44108"
354030,"PO BOX 6087","ANNAPOLIS","MD","21401"
354031,"PO BOX 6089","MCKINNEY","TX","75071"
354032,"PO BOX 609","BUCKLEY","WA","98321"
354033,"PO BOX 609","DREW","MS","38737"
354034,"PO BOX 609","HAMILTON","MA","01936"
354035,"PO BOX 609","NORTH BERWICK","ME","03906"
354036,"PO BOX 609","PORT ORFORD","OR","97465"
354037,"PO BOX 609","RESERVE","NM","87830"
354038,"PO BOX 609","SHAWANO","WI","54166"
354039,"PO BOX 609","SHOSHONE","ID","83352"
354040,"PO BOX 609","TANNERSVILLE","NY","12485"
354041,"PO BOX 609","TEHACHAPI","CA","93581"
354042,"PO BOX 609","TIVERTON","MA","02878"
354043,"PO BOX 609","TOLAR","TX","76476"
354044,"PO BOX 609","WORLAND","WY","82401"
354045,"PO BOX 6091","BLOOMINGTON","IL","61702"
354046,"PO BOX 6091","BRANSON","MO","65615"
354047,"PO BOX 6092","PARIS","TX","75461"
354048,"PO BOX 60923","NASHVILLE","TN","37206"
354049,"PO BOX 6093","CHESTERFIELD","MO","63006"
354050,"PO BOX 6093","WOODLAND HILLS","CA","91365"
354051,"PO BOX 6094","TERRE HAUTE","IN","47802"
354052,"PO BOX 6095","GARDNERVILLE","NV","89460"
354053,"PO BOX 6095","TAMPA","FL","33608"
354054,"PO BOX 6096","KAMUELA","HI","96743"
354055,"PO BOX 609602","CLEVELAND","OH","44109"
354056,"PO BOX 60963","PALO ALTO","CA","94306"
354057,"PO BOX 60963","PASADENA","CA","91116"
354058,"PO BOX 6097","SANTA FE","NM","87502"
354059,"PO BOX 6097","ST THOMAS","VI","00804"
354060,"PO BOX 60990","PHILADELPHIA","PA","19133"
354061,"PO BOX 61","BATON ROUGE","LA","70821"
354062,"PO BOX 61","BROOKLYN","IA","52211"
354063,"PO BOX 61","CALHOUN","TN","37309"
354064,"PO BOX 61","CARROLL","IA","51401"
354065,"PO BOX 61","CHESANING","MI","48616"
354066,"PO BOX 61","CLIFTY","KY","42216"
354067,"PO BOX 61","CRISFIELD","MD","21817"
354068,"PO BOX 61","DOVER","MA","02030"
354069,"PO BOX 61","ECTOR","TX","75439"
354070,"PO BOX 61","HAMPTON","VA","23669"
354071,"PO BOX 61","HIBBING","MN","55746"
354072,"PO BOX 61","HOUSTON","MS","38851"
354073,"PO BOX 61","JACKSON","MI","49204"
354074,"PO BOX 61","KALAHEO","HI","96741"
354075,"PO BOX 61","KLAWOCK","AK","99925"
354076,"PO BOX 61","LUCAS","KS","67648"
354077,"PO BOX 61","NEW CASTLE","PA","16103"
354078,"PO BOX 61","NICOLAUS","CA","95659"
354079,"PO BOX 61","NORTH EASTON","MA","02356"
354080,"PO BOX 61","OREGON","WI","53575"
354081,"PO BOX 61","PHILIPPI","WV","26416"
354082,"PO BOX 61","SAINT IGNACE","MI","49781"
354083,"PO BOX 61","SEWAREN","NJ","07077"
354084,"PO BOX 61","SIGEL","IL","62462"
354085,"PO BOX 61","SIMSBURY","CT","06070"
354086,"PO BOX 61","SUGAR LAND","TX","77487"
354087,"PO BOX 61","WATKINS GLEN","NY","14891"
354088,"PO BOX 610","BAGDAD","FL","32530"
354089,"PO BOX 610","BRYSON CITY","NC","28713"
354090,"PO BOX 610","COEUR D'ALENE","WA","83816"
354091,"PO BOX 610","EAST ORANGE","NJ","07019"
354092,"PO BOX 610","EASTMAN","GA","31023"
354093,"PO BOX 610","GRAHAM","WA","98338"
354094,"PO BOX 610","GUTTENBERG","IA","52052"
354095,"PO BOX 610","NOME","AK","99762"
354096,"PO BOX 610","PECATONICA","IL","61063"
354097,"PO BOX 610","PITTSBURG","KS","66762"
354098,"PO BOX 610","STOCKTON","MO","65785"
354099,"PO BOX 6101","LONGMONT","CO","80501"
354100,"PO BOX 61014","SAVANNAH","GA","31420"
354101,"PO BOX 610192","NEWTON","MA","02461"
354102,"PO BOX 61021","VIRGINIA BEACH","VA","23466"
354103,"PO BOX 610251","BAYSIDE","NY","11361"
354104,"PO BOX 6103","PARIS","TX","75461"
354105,"PO BOX 6103","ST CHARLES","MO","63302"
354106,"PO BOX 610306","BAYSIDE","NY","11361"
354107,"PO BOX 61042","SANTA BARBARA","CA","93160"
354108,"PO BOX 610505","SAN JOSE","CA","95161"
354109,"PO BOX 61065","SEATTLE","WA","98141"
354110,"PO BOX 6107","HUNTSVILLE","TX","77342"
354111,"PO BOX 61085","DURHAM","NC","27715"
354112,"PO BOX 611","BRUNSWICK","ME","04611"
354113,"PO BOX 611","CALDWELL","TX","77836"
354114,"PO BOX 611","CALVERT","TX","77837"
354115,"PO BOX 611","CENTERTON","AR","72719"
354116,"PO BOX 611","CLEMSON","SC","29633"
354117,"PO BOX 611","ESSEX","CT","06426"
354118,"PO BOX 611","FAIRFIELD","PA","17320"
354119,"PO BOX 611","GARDEN CITY","MO","64747"
354120,"PO BOX 611","GOLIAD","TX","77963"
354121,"PO BOX 611","HOOD RIVER","OR","97031"
354122,"PO BOX 611","JEFFERSON CITY","MO","65102"
354123,"PO BOX 611","LAKEMORE","OH","44250"
354124,"PO BOX 611","PATTON","CA","92369"
354125,"PO BOX 611","ROCKSPRINGS","TX","78880"
354126,"PO BOX 611","WALLINGFORD","CT","06492"
354127,"PO BOX 611","WILKESBORO","NC","28697"
354128,"PO BOX 611","WINNSBORO","SC","29180"
354129,"PO BOX 6111","KAMUELA","HI","96743"
354130,"PO BOX 6111","SPARTANBURG","SC","29304"
354131,"PO BOX 611128","PORT HURON","MI","48060"
354132,"PO BOX 611133","PORT HURON","MI","48060"
354133,"PO BOX 611145","NORTH MIAMI","FL","33261"
354134,"PO BOX 6112","GAINESVILLE","FL","32627"
354135,"PO BOX 611243","LOS ANGELES","CA","90061"
354136,"PO BOX 611272","SAN JOSE","CA","95161"
354137,"PO BOX 6113","ENID","OK","73702"
354138,"PO BOX 6115","ERIE","PA","16512"
354139,"PO BOX 6116","BEND","OR","97708"
354140,"PO BOX 6116","MCKINNEY","TX","75071"
354141,"PO BOX 61164","NEW BEDFORD","MA","02746"
354142,"PO BOX 61166","HARRISBURG","PA","17106"
354143,"PO BOX 6117","OAKLAND","CA","94603"
354144,"PO BOX 61182","POTOMAC","MD","20854"
354145,"PO BOX 612","ALEXANDER","AR","72002"
354146,"PO BOX 612","CLEMSON","SC","29633"
354147,"PO BOX 612","CONROE","TX","77301"
354148,"PO BOX 612","CRIVITZ","WI","54114"
354149,"PO BOX 612","FOREST LAKE","MN","55025"
354150,"PO BOX 612","HILO","HI","96721"
354151,"PO BOX 612","JACKSON","MI","49204"
354152,"PO BOX 612","JJEFFERSONVILLE","IN","47131"
354153,"PO BOX 612","LIBERTY","MO","64069"
354154,"PO BOX 612","LINDSTROM","MN","55045"
354155,"PO BOX 612","LOUDON","TN","37774"
354156,"PO BOX 612","LOWELL","NC","28098"
354157,"PO BOX 612","MIDDLE ISLAND","NY","11953"
354158,"PO BOX 612","MONTVALE","NJ","07645"
354159,"PO BOX 612","NORWOOD","MA","02062"
354160,"PO BOX 612","PALATKA","FL","32177"
354161,"PO BOX 612","PAYNE","OH","45880"
354162,"PO BOX 612","RICHTON PARK","IL","60471"
354163,"PO BOX 612","WAYNESBORO","VA","22980"
354164,"PO BOX 61202","HOUSTON","TX","77208"
354165,"PO BOX 612062","SAN JOSE","CA","95161"
354166,"PO BOX 6121","SANTA FE","NM","87502"
354167,"PO BOX 61228","CORPUS CHRISTI","TX","78466"
354168,"PO BOX 612345","NORTH MIAMI","FL","33261"
354169,"PO BOX 6125","ALBANY","NY","12206"
354170,"PO BOX 6125","BROOKINGS","OR","97415"
354171,"PO BOX 6125","YUMA","AZ","85366"
354172,"PO BOX 61293","PALM BAY","FL","32905"
354173,"PO BOX 612965","MIAMI","FL","33261"
354174,"PO BOX 613","APG","MD","21005"
354175,"PO BOX 613","BARBERTON","OH","44203"
354176,"PO BOX 613","BLYTHEWOOD","SC","29016"
354177,"PO BOX 613","FLEMINGTON","NJ","08822"
354178,"PO BOX 613","FULTON","MO","65251"
354179,"PO BOX 613","GREENVILLE","OH","45331"
354180,"PO BOX 613","GRISWOLD","CT","06351"
354181,"PO BOX 613","HARVARD","MA","01451"
354182,"PO BOX 613","LAHAINA","HI","96767"
354183,"PO BOX 613","LYONS","CO","80540"
354184,"PO BOX 613","MEADVIEW","AZ","86444"
354185,"PO BOX 613","MECHANICSVILLE","MD","20659"
354186,"PO BOX 613","NEW YORK","NY","10113"
354187,"PO BOX 613","NORWAY","ME","04268"
354188,"PO BOX 613","PITTSBORO","NC","27312"
354189,"PO BOX 613","POINT COMFORT","TX","77978"
354190,"PO BOX 613","PUTNEY","VT","05346"
354191,"PO BOX 613","REIDSVILLE","NC","27323"
354192,"PO BOX 613","SANDUSKY","OH","44870"
354193,"PO BOX 613","SLATON","TX","79364"
354194,"PO BOX 613","STONEWALL","LA","71078"
354195,"PO BOX 613","WILSONVILLE","OR","97070"
354196,"PO BOX 613","WORTHINGTON","OH","43085"
354197,"PO BOX 61301","JACKSONVILLE","FL","32236"
354198,"PO BOX 6131","SAN JUAN","PR","00914"
354199,"PO BOX 613105","SAN JOSE","CA","95161"
354200,"PO BOX 613116","MEMPHIS","TN","38101"
354201,"PO BOX 6132","WYOMISSING","PA","19607"
354202,"PO BOX 61322","IRVINE","CA","92620"
354203,"PO BOX 6133","BOZEMAN","MT","59771"
354204,"PO BOX 6133","BRIDGEWATER","NJ","08807"
354205,"PO BOX 61342","JACKSONVILLE","FL","32236"
354206,"PO BOX 6135 1155 SEMINOLE TRAIL","CHARLOTTESVILLE","VA","22906"
354207,"PO BOX 61363","SEATTLE","WA","98141"
354208,"PO BOX 61382","MIDLAND","TX","79711"
354209,"PO BOX 614 RADIO CITY STATION","NEW YORK","NY","10101"
354210,"PO BOX 614","BELLEVUE","WA","98009"
354211,"PO BOX 614","BOWMANSVILLE","PA","17507"
354212,"PO BOX 614","COTTER","AR","72626"
354213,"PO BOX 614","CUYAHOGA FALLS","OH","44222"
354214,"PO BOX 614","FRISCO","CO","80443"
354215,"PO BOX 614","HEBRON","IN","46341"
354216,"PO BOX 614","KANE","PA","16735"
354217,"PO BOX 614","LAKE CITY","MI","49651"
354218,"PO BOX 614","MADISON","MS","39130"
354219,"PO BOX 614","SARATOGA SPRINGS","NY","12866"
354220,"PO BOX 614","ZIONSVILLE","IN","46077"
354221,"PO BOX 614053","NORTH MIAMI","FL","33261"
354222,"PO BOX 6141","CLEVELAND","OH","44101"
354223,"PO BOX 6141","THOUSAND OAKS","CA","91359"
354224,"PO BOX 6142","DOUGLASVILLE","GA","30154"
354225,"PO BOX 6142","PEARL","MS","39288"
354226,"PO BOX 6144","SPARTA","TN","38583"
354227,"PO BOX 61443","JACKSONVILLE","FL","32219"
354228,"PO BOX 61474","POTOMAC","MD","20859"
354229,"PO BOX 6148","FRISCO","TX","75035"
354230,"PO BOX 61481","BOULDER CITY","NV","89006"
354231,"PO BOX 615","ALAMOSA","CO","81101"
354232,"PO BOX 615","ANTWERP","OH","45813"
354233,"PO BOX 615","CLAYTON","DE","19938"
354234,"PO BOX 615","COROZAL","PR","00783"
354235,"PO BOX 615","DUMAS","TX","79029"
354236,"PO BOX 615","EAGAR","AZ","85925"
354237,"PO BOX 615","FRIENDSWOOD","TX","77549"
354238,"PO BOX 615","TAYLORVILLE","IL","62568"
354239,"PO BOX 615","WOLFFORTH","TX","79382"
354240,"PO BOX 615","WYANDOTTE","MI","48192"
354241,"PO BOX 6151","KAMUELA","HI","96743"
354242,"PO BOX 61518","HARRISBURG","PA","17106"
354243,"PO BOX 6152","BRANDON","FL","33508"
354244,"PO BOX 61521","SAN ANGELO","TX","76906"
354245,"PO BOX 61568","SAVANNAH","GA","31418"
354246,"PO BOX 6157","TORRANCE","CA","90504"
354247,"PO BOX 6158","EDMONDS","WA","98026"
354248,"PO BOX 616 HAMILTON GRANGE STATION","NEW YORK","NY","10031"
354249,"PO BOX 616","ARMUCHEE","GA","30105"
354250,"PO BOX 616","AURORA","IN","47001"
354251,"PO BOX 616","BIG PINE","CA","93513"
354252,"PO BOX 616","BUFFALO","IA","52728"
354253,"PO BOX 616","CAMDEN","ME","04843"
354254,"PO BOX 616","COVINGTON","TN","38019"
354255,"PO BOX 616","DOWAGIAC","MI","49047"
354256,"PO BOX 616","KUNA","ID","83634"
354257,"PO BOX 616","LA CONNER","WA","98257"
354258,"PO BOX 616","LA PINE","OR","97739"
354259,"PO BOX 616","PIERRE PART","LA","70339"
354260,"PO BOX 616","ROUND HILL","VA","20142"
354261,"PO BOX 616","SAUSALITO","CA","94965"
354262,"PO BOX 616","SIMI VALLEY","CA","93062"
354263,"PO BOX 616","SMITHVILLE","OH","44677"
354264,"PO BOX 616","VALLEY VIEW","TX","76272"
354265,"PO BOX 616","VAN VLECK","TX","77482"
354266,"PO BOX 6160","WEST COLUMBIA","SC","29171"
354267,"PO BOX 6161","CHICO","CA","95927"
354268,"PO BOX 6163","BELLEVUE","WA","98008"
354269,"PO BOX 61630","HONOLULU","HI","96839"
354270,"PO BOX 61635","FORT MYERS","FL","33906"
354271,"PO BOX 61638","VANCOUVER","WA","98666"
354272,"PO BOX 6164","COLUMBUS","GA","31917"
354273,"PO BOX 6164","SCOTTSDALE","AZ","85261"
354274,"PO BOX 61641","SANTA BARBARA","CA","93160"
354275,"PO BOX 61681","HONOLULU","HI","96839"
354276,"PO BOX 61692","SAN ANGELO","TX","76906"
354277,"PO BOX 617","BALLINGER","TX","76821"
354278,"PO BOX 617","MONTVALE","NJ","07645"
354279,"PO BOX 617","NEW PALESTINE","IN","46163"
354280,"PO BOX 617","RICHLANDS","NC","28574"
354281,"PO BOX 617","WINDHAM","ME","04062"
354282,"PO BOX 617","WISCASSET","ME","04578"
354283,"PO BOX 617","YONKERS","NY","10701"
354284,"PO BOX 61713","SUNNYVALE","CA","94088"
354285,"PO BOX 6172","BROOKINGS","OR","97415"
354286,"PO BOX 61720","HONOLULU","HI","96839"
354287,"PO BOX 6173","SYRACUSE","NY","13217"
354288,"PO BOX 6174","WOODLAND HILLS","CA","91365"
354289,"PO BOX 617497","ORLANDO","FL","32861"
354290,"PO BOX 6175","HUNTINGTON BEACH","CA","92615"
354291,"PO BOX 617584","ORLANDO","FL","32861"
354292,"PO BOX 6177","KANEOHE","HI","96744"
354293,"PO BOX 6178","NORMAN","OK","73070"
354294,"PO BOX 617875","CHICAGO","IL","60661"
354295,"PO BOX 6182","CAPITOL HEIGHTS","MD","20791"
354296,"PO BOX 6182","KINGMAN","AZ","86402"
354297,"PO BOX 6182","SOMERSET","NJ","08875"
354298,"PO BOX 6183","WARNER ROBINS","GA","31095"
354299,"PO BOX 6183","WHITNEYVILLE","CT","06517"
354300,"PO BOX 61837","HONOLULU","HI","96839"
354301,"PO BOX 6185","DOTHAN","AL","36302"
354302,"PO BOX 618593","ORLANDO","FL","32861"
354303,"PO BOX 6186","BLOOMINGTON","IL","61702"
354304,"PO BOX 6186","KANEOHE","HI","96744"
354305,"PO BOX 6187","SPRINGDALE","AR","72766"
354306,"PO BOX 6188","CHINA VILLAGE","ME","04926"
354307,"PO BOX 619","BAUDETTE","MN","56623"
354308,"PO BOX 619","EATON","OH","45320"
354309,"PO BOX 619","KILAUEA","HI","96754"
354310,"PO BOX 619","MOUNTAIN GROVE","MO","65711"
354311,"PO BOX 619","MT ANGEL","OR","97362"
354312,"PO BOX 619","SYLVAN BEACH","NY","13157"
354313,"PO BOX 6192","COLORADO SPRINGS","CO","80904"
354314,"PO BOX 61922","BOULDER CITY","NV","89005"
354315,"PO BOX 6195","GOODYEAR","AZ","85338"
354316,"PO BOX 6197","KANEOHE","HI","96744"
354317,"PO BOX 61979 1104 ENDORA WAY","BOULDER CITY","NV","89006"
354318,"PO BOX 6198","LA QUINTA","CA","92248"
354319,"PO BOX 61995","VIRGINIA BEACH","VA","23466"
354320,"PO BOX 62","ALTAMAHAW","NC","27202"
354321,"PO BOX 62","AMANDA","OH","43102"
354322,"PO BOX 62","BRULE","WI","54820"
354323,"PO BOX 62","BUFFALO","WV","25033"
354324,"PO BOX 62","CAMDEN","OH","45311"
354325,"PO BOX 62","COLLINSVILLE","TX","76233"
354326,"PO BOX 62","EASTON","CT","06612"
354327,"PO BOX 62","FORT MYERS","FL","33902"
354328,"PO BOX 62","GLENS FALLS","NY","12801"
354329,"PO BOX 62","HERMANN","MO","65041"
354330,"PO BOX 62","INDEPENDENCE","KS","67301"
354331,"PO BOX 62","KERHONKSON","NY","12446"
354332,"PO BOX 62","LAFAYETTE","MN","56054"
354333,"PO BOX 62","MONKTON","VT","05469"
354334,"PO BOX 62","MONROE","OH","45050"
354335,"PO BOX 62","NEWEARK","CA","94560"
354336,"PO BOX 62","PRIOR LAKE","MN","55372"
354337,"PO BOX 62","PUEBLO","CO","81002"
354338,"PO BOX 62","RINEYVILLE","KY","40162"
354339,"PO BOX 62","RIPLEY","WV","25271"
354340,"PO BOX 62","ROBERTS","MT","59070"
354341,"PO BOX 62","SABETHA","KS","66534"
354342,"PO BOX 62","SAVAGE","MT","59262"
354343,"PO BOX 62","SPRUCE PINE","NC","28777"
354344,"PO BOX 62","TAHOE CITY","CA","96145"
354345,"PO BOX 62","TROUTDALE","OR","97060"
354346,"PO BOX 62","TUCKAHOE","NY","10707"
354347,"PO BOX 62","WABAN","MA","02468"
354348,"PO BOX 62","YORKSHIRE","NY","14173"
354349,"PO BOX 620","CLAYTON","DE","19734"
354350,"PO BOX 620","MOUNT SUNAPEE","NH","03255"
354351,"PO BOX 620","RINGOES","NJ","08551"
354352,"PO BOX 620","SUMMERSVILLE","WV","26651"
354353,"PO BOX 620057","OVIEDO","FL","32825"
354354,"PO BOX 620061","CHARLOTTE","NC","28262"
354355,"PO BOX 620061","LITTLETON","CO","80162"
354356,"PO BOX 6201","GULFPORT","MS","39506"
354357,"PO BOX 62018","NORTH CHARLESTON","SC","29419"
354358,"PO BOX 620214","MIDDLETON","WI","53562"
354359,"PO BOX 62023","HARRISBURG","PA","17106"
354360,"PO BOX 620239","WOODSIDE","CA","94062"
354361,"PO BOX 620352","MIDDLETON","WI","53562"
354362,"PO BOX 6204","SAN JUAN","PW","00914"
354363,"PO BOX 62043","FORT MYERS","FL","33906"
354364,"PO BOX 620453","NEWTON","MA","02462"
354365,"PO BOX 62046","SUNNYVALE","CA","94088"
354366,"PO BOX 620495","MIDDLETON","WI","53562"
354367,"PO BOX 620650","REDWOOD CITY","CA","94062"
354368,"PO BOX 620694","NEWTON LOWER FALLS","MA","02462"
354369,"PO BOX 620715","FORT RUCKER","AL","36362"
354370,"PO BOX 620732","CHARLOTTE","NC","28262"
354371,"PO BOX 620789","OVIEDO","FL","32762"
354372,"PO BOX 620793","MIDDLETON","WI","53562"
354373,"PO BOX 620871","CHARLOTTE","NC","28262"
354374,"PO BOX 62088","CINCINNATI","OH","45262"
354375,"PO BOX 620909","LITTLETON","CO","80162"
354376,"PO BOX 620932","ORLANDO","FL","32862"
354377,"PO BOX 621","BATH","ME","04530"
354378,"PO BOX 621","BAXTER","IA","50028"
354379,"PO BOX 621","BRYSON CITY","NC","28713"
354380,"PO BOX 621","CAMBRIDGE","WI","53523"
354381,"PO BOX 621","CHESTER","IL","62233"
354382,"PO BOX 621","DAYTON","OH","45405"
354383,"PO BOX 621","ERIE","CO","80516"
354384,"PO BOX 621","GILMANTON","NH","03237"
354385,"PO BOX 621","HORN LAKE","MS","38637"
354386,"PO BOX 621","HUNTLEY","IL","60142"
354387,"PO BOX 621","LABELLE","FL","33935"
354388,"PO BOX 621","LIBERAL","KS","67905"
354389,"PO BOX 621","VASHON","WA","98070"
354390,"PO BOX 621","WASHINGTON","IA","52353"
354391,"PO BOX 621","WEST BRANCH","MI","48661"
354392,"PO BOX 621","WILSON","WY","83014"
354393,"PO BOX 621003","LOS ANGELES","CA","90062"
354394,"PO BOX 621022","SHARONVILLE","OH","45241"
354395,"PO BOX 62104","HOUSTON","TX","77205"
354396,"PO BOX 621060","LITTLETON","CO","80162"
354397,"PO BOX 621123","OVIEDO","FL","32762"
354398,"PO BOX 621174","LITTLETON","CO","80162"
354399,"PO BOX 6213","BLOOMINGTON","IL","61702"
354400,"PO BOX 6213","LOS OSOS","CA","93412"
354401,"PO BOX 621404","CHARLOTTE","NC","28262"
354402,"PO BOX 621433","ORLANDO","FL","32862"
354403,"PO BOX 621472","CHARLOTTE","NC","28262"
354404,"PO BOX 6215","GRAND RAPIDS","MI","49516"
354405,"PO BOX 621521","LAS VEGAS","NV","89162"
354406,"PO BOX 621568","CHARLOTTE","NC","28262"
354407,"PO BOX 6216","BOISE","ID","83707"
354408,"PO BOX 62171","VIRGINIA BEACH","VA","23466"
354409,"PO BOX 62173","COLORADO SPRINGS","CO","80962"
354410,"PO BOX 62181","HOUSTON","TX","77205"
354411,"PO BOX 621896","orlando","FL","32862"
354412,"PO BOX 621922","CHARLOTTE","NC","28262"
354413,"PO BOX 622","ALBEMARLE","NC","28002"
354414,"PO BOX 622","BELMONT","NC","28012"
354415,"PO BOX 622","BIG LAKE","MN","55309"
354416,"PO BOX 622","BRONSTON","KY","42518"
354417,"PO BOX 622","CABLE","WI","54821"
354418,"PO BOX 622","FORKED RIVER","NJ","08731"
354419,"PO BOX 622","KENLY","NC","27542"
354420,"PO BOX 622","LEAVENWORTH","KS","66048"
354421,"PO BOX 622","LILBURN","GA","30048"
354422,"PO BOX 622","PEARL CITY","HI","96786"
354423,"PO BOX 622","POND CREEK","OK","73766"
354424,"PO BOX 622","PONTIAC","IL","61764"
354425,"PO BOX 622","SAMSON","AL","36477"
354426,"PO BOX 622","SNEAD","AL","35952"
354427,"PO BOX 622","SOMERSWORTH","NH","03878"
354428,"PO BOX 622","TRINIDAD","CA","95570"
354429,"PO BOX 622","WAPPINGERS FALLS","NY","12590"
354430,"PO BOX 622","WARREN","PA","16365"
354431,"PO BOX 622","WESTTOWN","PA","19395"
354432,"PO BOX 622054","OVIEDO","FL","32762"
354433,"PO BOX 62207","COLORADO SPRINGS","CO","80962"
354434,"PO BOX 622091","OVIEDO","FL","32762"
354435,"PO BOX 6221","BRYAN","TX","77805"
354436,"PO BOX 622248","OVIEDO","FL","32762"
354437,"PO BOX 6223","EVANSTON","IL","60204"
354438,"PO BOX 6224","TRAVERSE CITY","MI","49696"
354439,"PO BOX 622451","OVIEDO","FL","32762"
354440,"PO BOX 622491","BRONX","NY","10462"
354441,"PO BOX 6225","CAGUAS","PR","00725"
354442,"PO BOX 6225","MCALLEN","TX","78502"
354443,"PO BOX 62254","LAFAYETTE","LA","70596"
354444,"PO BOX 6226","WAUSAU","WI","54402"
354445,"PO BOX 622621","OVIEDO","FL","32762"
354446,"PO BOX 623","CROWNSVILLE","MD","21032"
354447,"PO BOX 623","DALEVILLE","VA","24083"
354448,"PO BOX 623","EXETER","NH","03833"
354449,"PO BOX 623","HAYWARD","WI","54843"
354450,"PO BOX 623","LAMAR","CO","81052"
354451,"PO BOX 623","LIVERPOOL","TX","77577"
354452,"PO BOX 623","LOPEZ","WA","98261"
354453,"PO BOX 623","NEW YORK","NY","10002"
354454,"PO BOX 623","PITTSTOWN","NJ","08867"
354455,"PO BOX 623","RUSSELL","KS","67665"
354456,"PO BOX 623","SILVERDALE","WA","98383"
354457,"PO BOX 623","ST JOSEPH","MI","49085"
354458,"PO BOX 62303","FORT MYERS","FL","33906"
354459,"PO BOX 6233","AUSTIN","TX","78762"
354460,"PO BOX 6233","PEORIA","AZ","85385"
354461,"PO BOX 6234","CLEVELAND","OH","44101"
354462,"PO BOX 62345","TAMPA","FL","62345"
354463,"PO BOX 6236","RUTLAND","VT","05702"
354464,"PO BOX 6238","CAGUAS","PR","00726"
354465,"PO BOX 624","COOS BAY","OR","97420"
354466,"PO BOX 624","GREENBRIER","AR","72058"
354467,"PO BOX 624","GREENWOOD","IN","46142"
354468,"PO BOX 624","PICKERINGTON","OH","43147"
354469,"PO BOX 624","ST CLAIRSVILLE","OH","43950"
354470,"PO BOX 624","STERLINGTON","LA","71280"
354471,"PO BOX 624","WHEATON","IL","60189"
354472,"PO BOX 624","WILTON","CA","95693"
354473,"PO BOX 6240","ALAMEDA","CA","94501"
354474,"PO BOX 6242","CHARLOTTE AMALIE","VI","00802"
354475,"PO BOX 6244","OCEAN ISLE BEACH","NC","28469"
354476,"PO BOX 6245","WASHINGTON","DC","20015"
354477,"PO BOX 625","ANACORTES","WA","98221"
354478,"PO BOX 625","BONNERS FERRY","ID","83805"
354479,"PO BOX 625","BOURBONNAIS","IL","60914"
354480,"PO BOX 625","BRECKENRIDGE","CO","80424"
354481,"PO BOX 625","CARRBORO","NC","27510"
354482,"PO BOX 625","CHICO","CA","95927"
354483,"PO BOX 625","CORDOVA","TN","38088"
354484,"PO BOX 625","HEALDSBURG","CA","95448"
354485,"PO BOX 625","MYAKKA CITY","FL","34251"
354486,"PO BOX 625","OJAI","CA","93024"
354487,"PO BOX 625","OPELOUSAS","LA","70571"
354488,"PO BOX 625","ROSEVILLE","CA","95678"
354489,"PO BOX 625","SPRINGFIELD","OR","97477"
354490,"PO BOX 625","TROY","IL","62294"
354491,"PO BOX 625","VIEQUES","PR","00765"
354492,"PO BOX 625","VISALIA","CA","93279"
354493,"PO BOX 625","WHITE ROCK","SC","29177"
354494,"PO BOX 625","WOODLAND","CA","95776"
354495,"PO BOX 6251","KEY WEST","FL","33041"
354496,"PO BOX 6251","LOUISVILLE","KY","40206"
354497,"PO BOX 6251","SHREVEPORT","LA","71136"
354498,"PO BOX 62512","DURHAM","NC","27715"
354499,"PO BOX 6253","ST. LOUIS","MO","63106"
354500,"PO BOX 6254","ROCHESTER","MN","55903"
