"ID","Address","City","State","Zip"
355001,"PO BOX 647","LIBBY","MT","59923"
355002,"PO BOX 647","NENANA","AK","99760"
355003,"PO BOX 647","PORT TOWNSEND","WA","98368"
355004,"PO BOX 647","ROUND O","SC","29474"
355005,"PO BOX 647","SALINE","MI","48176"
355006,"PO BOX 647","SIDNEY","NE","69162"
355007,"PO BOX 647","ST MARIES","ID","83861"
355008,"PO BOX 6471","KENT","WA","98064"
355009,"PO BOX 6472","COLUMBIA","MD","21045"
355010,"PO BOX 6472","SPRINGFIELD","VA","22150"
355011,"PO BOX 64727","TUCSON","AZ","85728"
355012,"PO BOX 6473","LUBBOCK","TX","79493"
355013,"PO BOX 6475","BRECKENRIDGE","CO","80424"
355014,"PO BOX 6475","PHILADELPHIA","PA","19145"
355015,"PO BOX 64781","FORT WORTH","TX","76164"
355016,"PO BOX 648","AU GRES","MI","48703"
355017,"PO BOX 648","BELLVILLE","OH","44813"
355018,"PO BOX 648","COAHOMA","TX","79511"
355019,"PO BOX 648","POPLAR BLUFF","MO","63902"
355020,"PO BOX 648","RED LODGE","MT","59068"
355021,"PO BOX 648","RIVERHEAD","NY","11901"
355022,"PO BOX 648","VALRICO","FL","33595"
355023,"PO BOX 6480","GLEN ALLEN","VA","23058"
355024,"PO BOX 6482","HAMDEN","CT","06517"
355025,"PO BOX 6486","ANAHEIM","CA","92816"
355026,"PO BOX 649 7751 WATERS EDGE LANE","GLOUCESTER POINT","VA","23062"
355027,"PO BOX 649","BRENTWWOD","NY","11717"
355028,"PO BOX 649","CHESTERFIELD","MO","63006"
355029,"PO BOX 649","CORNWALL","NY","12518"
355030,"PO BOX 649","HUBERT","NC","28539"
355031,"PO BOX 649","SAN MATEO","CA","94401"
355032,"PO BOX 649","TERRE HILL","PA","17581"
355033,"PO BOX 64905","VIRGINIA BEACH","VA","23646"
355034,"PO BOX 6492","LINCOLN","NE","68506"
355035,"PO BOX 6492","SAN JOSE","CA","95150"
355036,"PO BOX 6494","ANAHEIM","CA","92816"
355037,"PO BOX 64979","GARY","IN","46401"
355038,"PO BOX 65 /138 COLD STREAM FARM RD","MADISONVILLE","TN","37354"
355039,"PO BOX 65","BALDWIN","MD","21013"
355040,"PO BOX 65","BODEGA","CA","94922"
355041,"PO BOX 65","CALIFORNIA","MO","65018"
355042,"PO BOX 65","CAMPBELLTON","TX","78008"
355043,"PO BOX 65","CENTERVILLE","MA","02632"
355044,"PO BOX 65","COGGON","IA","52218"
355045,"PO BOX 65","COLUMBIANA","OH","44408"
355046,"PO BOX 65","DARLINGTON","WI","53530"
355047,"PO BOX 65","DUNDEE","NY","14837"
355048,"PO BOX 65","FARSON","WY","82932"
355049,"PO BOX 65","FAYETTEVILLE","AR","72702"
355050,"PO BOX 65","GETZVILLE","NY","14068"
355051,"PO BOX 65","GOWRIE","IA","50543"
355052,"PO BOX 65","GUYTON","SC","31312"
355053,"PO BOX 65","JEFFERSONVILLE","GA","31044"
355054,"PO BOX 65","LAMPETER","PA","17537"
355055,"PO BOX 65","LARGO","FL","33779"
355056,"PO BOX 65","LITTLE FALLS","NY","13365"
355057,"PO BOX 65","MAGDALENA","NM","87825"
355058,"PO BOX 65","MARLBORO","NJ","07746"
355059,"PO BOX 65","MONTCLAIR","NJ","07042"
355060,"PO BOX 65","OLNEY","TX","76374"
355061,"PO BOX 65","OWEGO","NY","13827"
355062,"PO BOX 65","PHENIX CITY","AL","36868"
355063,"PO BOX 65","PINSON","TN","38366"
355064,"PO BOX 65","PORTLAND","TN","37148"
355065,"PO BOX 65","RENVILLE","MN","56284"
355066,"PO BOX 65","ROSEDALE","MS","38769"
355067,"PO BOX 65","SOUTH HERO","VT","05486"
355068,"PO BOX 65","SPOTSWOOD","NJ","08884"
355069,"PO BOX 65","THOROFARE","NJ","08086"
355070,"PO BOX 65","TROY","IN","47588"
355071,"PO BOX 65","VAN BUREN","IN","46991"
355072,"PO BOX 650","DIXON","MO","65459"
355073,"PO BOX 650","GRAND COULEE","WA","99133"
355074,"PO BOX 650","JAMESTOWN","KY","42629"
355075,"PO BOX 650","KAPAA","HI","96746"
355076,"PO BOX 650","OXFORD","GA","30054"
355077,"PO BOX 650","RIDGETOP","TN","37152"
355078,"PO BOX 650","SPENCER","IN","47460"
355079,"PO BOX 650047","AUSTIN","TX","78765"
355080,"PO BOX 650075","AUSTIN","TX","78765"
355081,"PO BOX 650164","VERO BEACH","FL","32965"
355082,"PO BOX 6502","LACONIA","NH","03247"
355083,"PO BOX 65046","WASHINGTON","DC","20035"
355084,"PO BOX 650593","STERLING","VA","20165"
355085,"PO BOX 650655","STERLING","VA","20165"
355086,"PO BOX 650663","POTOMAC FALLS","VA","20165"
355087,"PO BOX 650795","VERO BEACH","FL","32965"
355088,"PO BOX 65096","PORT LUDLOW","WA","98365"
355089,"PO BOX 651","CHALMETTE","LA","70044"
355090,"PO BOX 651","DEVON","PA","19333"
355091,"PO BOX 651","LISBON","MD","21797"
355092,"PO BOX 651","MANCHACA","TX","78652"
355093,"PO BOX 651","MILFORD","MA","01757"
355094,"PO BOX 651","OCEANVILLE","NJ","08231"
355095,"PO BOX 651","SOUTHERN PINES","NC","28388"
355096,"PO BOX 651","WADESBORO","NC","28170"
355097,"PO BOX 651","WINNSBORO","TX","75494"
355098,"PO BOX 65100","ORANGE PARK","FL","32065"
355099,"PO BOX 651022","MIAMI","FL","33265"
355100,"PO BOX 651055","STERLING","VA","20164"
355101,"PO BOX 6511","RICHMOND","VA","23230"
355102,"PO BOX 65122","VANCOUVER","WA","98665"
355103,"PO BOX 651252","STERLING","VA","20165"
355104,"PO BOX 65126","UNIVERSITY PLACE","WA","98464"
355105,"PO BOX 651483","VERO BEACH","FL","32965"
355106,"PO BOX 6515","ATLANTA","GA","30315"
355107,"PO BOX 65151","BALTIMORE","MD","21209"
355108,"PO BOX 65157","WASHINGTON","DC","20036"
355109,"PO BOX 65158","VANCOUVER","WA","98665"
355110,"PO BOX 6516","GREAT FALLS","MT","59406"
355111,"PO BOX 6518","BRANDON","FL","33508"
355112,"PO BOX 652","ADELANTO","CA","92301"
355113,"PO BOX 652","ATOKA","TN","38004"
355114,"PO BOX 652","BEDFORD HILLS","NY","10507"
355115,"PO BOX 652","BURLINGTON","WI","53105"
355116,"PO BOX 652","COLUMBIA CITY","IN","46725"
355117,"PO BOX 652","COPPERAS COVE","TX","76522"
355118,"PO BOX 652","CRANE","TX","79731"
355119,"PO BOX 652","DORRIS","CA","96023"
355120,"PO BOX 652","MADISON","NJ","07940"
355121,"PO BOX 652","MANASSAS","VA","20013"
355122,"PO BOX 652","ROYSE CITY","TX","75189"
355123,"PO BOX 652","WILSONVILLE","OR","97070"
355124,"PO BOX 652","WYALUSING","PA","18853"
355125,"PO BOX 65205","TUCSON","AZ","85728"
355126,"PO BOX 652102","MIAMI","FL","33265"
355127,"PO BOX 65214","WEST DES MOINES","IA","50265"
355128,"PO BOX 65217","TACOMA","WA","98464"
355129,"PO BOX 65217","VIRGINIA BEACH","VA","23467"
355130,"PO BOX 65220 1050 CONNECTICUT AVE","WASHINGTON DC","DC","20036"
355131,"PO BOX 65220-1050 CONNECTICUT AVE","WASHINGTON","DC","20036"
355132,"PO BOX 65222","VIRGINIA BEACH","VA","23467"
355133,"PO BOX 65223","WEST DES MOINES","IA","50265"
355134,"PO BOX 6526","LA QUINTA","CA","92248"
355135,"PO BOX 6527","LEAWOOD","KS","66206"
355136,"PO BOX 65284","LUBBOCK","TX","79464"
355137,"PO BOX 653","BEATTYVILLE","KY","41311"
355138,"PO BOX 653","BELLINGHAM","WA","98227"
355139,"PO BOX 653","BLACK RIVER FALLS","WI","54615"
355140,"PO BOX 653","BOZEMAN","MT","59771"
355141,"PO BOX 653","BRIDGTON","ME","04009"
355142,"PO BOX 653","EDMONDS","WA","98020"
355143,"PO BOX 653","FARMERSBURG","IN","47850"
355144,"PO BOX 653","GARDEN CITY","MI","48135"
355145,"PO BOX 653","GARDEN CITY","MI","48136"
355146,"PO BOX 653","HERSHEY","PA","17033"
355147,"PO BOX 653","MARIETTA","OH","45750"
355148,"PO BOX 653","METROPOLIS","IL","62960"
355149,"PO BOX 653","MOUNT DESERT","ME","04660"
355150,"PO BOX 653","NINE MILE FALLS","WA","99026"
355151,"PO BOX 653","OZONA","FL","34660"
355152,"PO BOX 653","PENDLETON","OR","97801"
355153,"PO BOX 653","RAWLINS","WY","82301"
355154,"PO BOX 653","SAINT PAULS","NC","28384"
355155,"PO BOX 653","SOUTH PRAIRIE","WA","98385"
355156,"PO BOX 653","SUFFOLK","VA","23439"
355157,"PO BOX 653","TOMAHAWK","WI","54487"
355158,"PO BOX 65307","BALTIMORE","MD","21209"
355159,"PO BOX 6531","ROUND ROCK","TX","78683"
355160,"PO BOX 6532","VENTURA","CA","93006"
355161,"PO BOX 6534","COLORADO SPRINGS","CO","80904"
355162,"PO BOX 6535","LOUISVILLE","KY","40207"
355163,"PO BOX 65357","ALBUQUERQUE","NM","87193"
355164,"PO BOX 65385","VANCOUVER","WA","98665"
355165,"PO BOX 65395","BATON ROUGE","LA","70896"
355166,"PO BOX 654","CHIPPEWA FALLS","WI","54729"
355167,"PO BOX 654","ELYRIA","OH","44036"
355168,"PO BOX 654","FARMINGTON","NH","03835"
355169,"PO BOX 654","GARRETSON","SD","57030"
355170,"PO BOX 654","HILO","HI","96720"
355171,"PO BOX 654","HUDSON","WI","54016"
355172,"PO BOX 654","HURTSBORO","AL","36860"
355173,"PO BOX 654","LAWRENCE","KS","66044"
355174,"PO BOX 654","MINERAL","VA","23117"
355175,"PO BOX 654","MOORESVILLE","NC","28115"
355176,"PO BOX 654","PAINESVILLE","OH","44077"
355177,"PO BOX 654","POYNETTE","WI","53955"
355178,"PO BOX 6541","CONCORD","CA","94524"
355179,"PO BOX 6541","PAGO PAGO","AS","96799"
355180,"PO BOX 6542","LACONIA","NH","03247"
355181,"PO BOX 6542","WHEELING","WV","26003"
355182,"PO BOX 65428","LUBBOCK","TX","79646"
355183,"PO BOX 6543","ELGIN","IL","60121"
355184,"PO BOX 65453","LANGLEY AFB","VA","23665"
355185,"PO BOX 65473","ORANGE PARK","FL","32065"
355186,"PO BOX 655","CONCORD","MA","01742"
355187,"PO BOX 655","CONNEAUT","OH","44030"
355188,"PO BOX 655","CROMPOND","NY","10517"
355189,"PO BOX 655","DIERKS","AR","71833"
355190,"PO BOX 655","EAST ORANGE","NJ","07019"
355191,"PO BOX 655","GWINN","MI","49841"
355192,"PO BOX 655","HEMPHILL","TX","75948"
355193,"PO BOX 655","JEFFERSONVILLE","IN","47131"
355194,"PO BOX 655","KANSASVILLE","WI","53139"
355195,"PO BOX 655","MONROE","NC","28111"
355196,"PO BOX 655","MONTICELLO","GA","31064"
355197,"PO BOX 655","NORTHFORK","WV","24868"
355198,"PO BOX 655","SEWELL","NJ","08080"
355199,"PO BOX 655","ST IGNATIUS","MT","59865"
355200,"PO BOX 655","WINCHESTER","CA","92596"
355201,"PO BOX 6550","CHARLOTTESVILLE","VA","22906"
355202,"PO BOX 6553","SAINT LOUIS","MO","63125"
355203,"PO BOX 655352","MIAMI","FL","33265"
355204,"PO BOX 6554","FARGO","ND","58109"
355205,"PO BOX 65543","VIRGINIA BEACH","VA","23467"
355206,"PO BOX 6557","KINGWOOD","TX","77325"
355207,"PO BOX 656","BELLEVUE","NE","68005"
355208,"PO BOX 656","CIRCLE PINES","MN","55014"
355209,"PO BOX 656","COLLEGEVILLE","PA","19426"
355210,"PO BOX 656","CONDON","OR","97823"
355211,"PO BOX 656","DAMASCUS","VA","24236"
355212,"PO BOX 656","FARMERVILLE","LA","71241"
355213,"PO BOX 656","HINESVILLE","GA","31310"
355214,"PO BOX 656","HYDESVILLE","CA","95547"
355215,"PO BOX 656","KEENE","TX","76059"
355216,"PO BOX 656","MANGO","FL","33550"
355217,"PO BOX 656","MORRISVILLE","NY","13408"
355218,"PO BOX 656","NORWALK","OH","44857"
355219,"PO BOX 656","STOCKTON","CA","95201"
355220,"PO BOX 656","SUGAR GROVE","IL","60554"
355221,"PO BOX 65601","LUBBOCK","TX","79464"
355222,"PO BOX 6562","MILWAUKEE","WI","53206"
355223,"PO BOX 6564","ASHEVILLE","NC","28816"
355224,"PO BOX 6564","JACKSONVILLE","FL","32236"
355225,"PO BOX 6565","SAN ANTONIO","TX","78209"
355226,"PO BOX 6566","BOSSIER CITY","LA","71171"
355227,"PO BOX 6566","PORTLAND","OR","97228"
355228,"PO BOX 6568","PEORIA","AZ","85385"
355229,"PO BOX 6569","CONCORD","NC","28027"
355230,"PO BOX 657","AUBERRY","CA","93602"
355231,"PO BOX 657","ELLENSBURG","WA","98926"
355232,"PO BOX 657","HINCKLEY","IL","60520"
355233,"PO BOX 657","KINGSHILL","VI","00851"
355234,"PO BOX 657","NATALBANY","LA","70451"
355235,"PO BOX 657","SCOTTSMOOR","FL","32775"
355236,"PO BOX 657","WEST JEFFERSON","NC","28694"
355237,"PO BOX 6571","GLENDALE","AZ","85312"
355238,"PO BOX 6572","LAKELAND","FL","33807"
355239,"PO BOX 65727","LUBBOCK","TX","79464"
355240,"PO BOX 65752","WEST DES MOINES","IA","50265"
355241,"PO BOX 65763","LUBBOCK","TX","79464"
355242,"PO BOX 6577","KATY","TX","77491"
355243,"PO BOX 658","BRISTOW","OK","74010"
355244,"PO BOX 658","EDISTO ISLAND","SC","29438"
355245,"PO BOX 658","KINGFISHER","OK","73750"
355246,"PO BOX 658","MAYFLOWER","AR","72106"
355247,"PO BOX 658","MOKENA","IL","60448"
355248,"PO BOX 658","SEVERN","MD","21144"
355249,"PO BOX 658","TELLICO PLAINS","TN","37385"
355250,"PO BOX 65816","LUBBOCK","TX","79464"
355251,"PO BOX 65817","ORANGE PARK","FL","32065"
355252,"PO BOX 65838","TUCSON","AZ","85728"
355253,"PO BOX 6584","EVANSVILLE","IN","47719"
355254,"PO BOX 6584","SAN PEDRO","CA","90734"
355255,"PO BOX 6584","TAMPA","FL","33608"
355256,"PO BOX 65853","VANCOUVER","WA","98665"
355257,"PO BOX 65882","ORANGE PARK","FL","32065"
355258,"PO BOX 659","BRUNSWICK","ME","04011"
355259,"PO BOX 659","CHESTERFIELD","MO","63017"
355260,"PO BOX 659","ELKHART","KS","67950"
355261,"PO BOX 659","GODLEY","TX","76044"
355262,"PO BOX 659","GRANBURY","TX","76048"
355263,"PO BOX 659","LONDONDERRY","VT","05148"
355264,"PO BOX 659","SEMMES","AL","36575"
355265,"PO BOX 659","SHASTA","CA","96087"
355266,"PO BOX 6591","EUREKA","CA","95502"
355267,"PO BOX 6593","SAINT LOUIS","MO","63125"
355268,"PO BOX 6595","IRVINE","CA","92616"
355269,"PO BOX 6595","LAFAYETTE","IN","47903"
355270,"PO BOX 65957","TUCSON","AZ","85728"
355271,"PO BOX 6598","CHARLESTON","WV","25362"
355272,"PO BOX 66 12950 OATMAN HIGHWAY","TOPOCK","AZ","86436"
355273,"PO BOX 66","ALANSON","MI","49706"
355274,"PO BOX 66","ANDOVER","NY","14806"
355275,"PO BOX 66","ARKANSAS CITY","AR","71630"
355276,"PO BOX 66","BAKER CITY","OR","97814"
355277,"PO BOX 66","BOLTON","MA","01740"
355278,"PO BOX 66","CHESWOLD","DE","19934"
355279,"PO BOX 66","COLOGNE","MN","55322"
355280,"PO BOX 66","COLONY","OK","73021"
355281,"PO BOX 66","CONVERSE","TX","78109"
355282,"PO BOX 66","CRESTONE","CO","81131"
355283,"PO BOX 66","EL PRADO","NM","87529"
355284,"PO BOX 66","ELLOREE","SC","29047"
355285,"PO BOX 66","ENTERPRISE","OR","97828"
355286,"PO BOX 66","FLORENCE","MT","59833"
355287,"PO BOX 66","GENEVA","NY","14456"
355288,"PO BOX 66","GEORGETOWN","IL","61846"
355289,"PO BOX 66","HAMBURG","PA","19526"
355290,"PO BOX 66","KINGSVILLE","TX","78363"
355291,"PO BOX 66","LAFAYETTE","IN","47902"
355292,"PO BOX 66","LEBANON","MO","65536"
355293,"PO BOX 66","LEMONT","PA","16851"
355294,"PO BOX 66","LUDINGTON","MI","49431"
355295,"PO BOX 66","MIDDLE RIVER","MN","56737"
355296,"PO BOX 66","MOSCOW","PA","18444"
355297,"PO BOX 66","OGLESBY","TX","76561"
355298,"PO BOX 66","PLYMOUTH","CA","95669"
355299,"PO BOX 66","PORTAGE","PA","15946"
355300,"PO BOX 66","SAN JACINTO","CA","92581"
355301,"PO BOX 66","SEAL BEACH","CA","90740"
355302,"PO BOX 66","SHEPHERD","MT","59079"
355303,"PO BOX 66","STATE PARK","SC","29147"
355304,"PO BOX 66","STURGIS","SD","57785"
355305,"PO BOX 66","SWEDESBORO","NJ","08085"
355306,"PO BOX 66","TUCUMCARI","NM","88401"
355307,"PO BOX 66","WAPPAPELLO","MO","63966"
355308,"PO BOX 66","WELLSVILLE","NY","14895"
355309,"PO BOX 66","WHITE MARSH","MD","21162"
355310,"PO BOX 66","WILLOW RIVER","MN","55795"
355311,"PO BOX 660","ASHLAND","NH","03217"
355312,"PO BOX 660","AZLE","TX","76020"
355313,"PO BOX 660","BELLEVUE","ID","83313"
355314,"PO BOX 660","CLINTON","CT","06413"
355315,"PO BOX 660","CUERO","TX","77954"
355316,"PO BOX 660","CUYAHOGA FALLS","OH","44222"
355317,"PO BOX 660","NAPA","CA","94559"
355318,"PO BOX 660","WALDPORT","OR","97394"
355319,"PO BOX 660012","AUSTIN","TX","78766"
355320,"PO BOX 66002","VIRGINIA BEACH","VA","23466"
355321,"PO BOX 660038","FLUSHING","NY","11366"
355322,"PO BOX 6601","HUNTSVILLE","AL","35813"
355323,"PO BOX 660186","BIRMINGHAM","AL","35266"
355324,"PO BOX 66026","WEST DES MOINES","IA","50265"
355325,"PO BOX 66028","ALBANY","NY","12206"
355326,"PO BOX 66036","VIRGINIA BEACH","VA","23466"
355327,"PO BOX 660362","VESTAVIA HILLS","AL","35266"
355328,"PO BOX 660384","AUSTIN","TX","78766"
355329,"PO BOX 6604","MARIETTA","GA","30065"
355330,"PO BOX 660421","CHAMBLEE","GA","30366"
355331,"PO BOX 660512","ATLANTA","GA","30366"
355332,"PO BOX 660574 - WAKEFIELD STATION","BRONX","NY","10466"
355333,"PO BOX 6606","MARYVILLE","TN","37802"
355334,"PO BOX 66071","BALTIMORE","MD","21239"
355335,"PO BOX 660802","SACRAMENTO","CA","95866"
355336,"PO BOX 6609- 540 2ND AVE N STE 202","KETCHUM","ID","83340"
355337,"PO BOX 661","BLOCK ISLAND","RI","02807"
355338,"PO BOX 661","BRONX","NY","10451"
355339,"PO BOX 661","COPPELL","TX","75019"
355340,"PO BOX 661","LAME DEER","MT","59043"
355341,"PO BOX 661","RICHMOND","MN","56368"
355342,"PO BOX 661","RUPERT","ID","83350"
355343,"PO BOX 661","STIGLER","OK","74462"
355344,"PO BOX 661","STURGIS","SD","57785"
355345,"PO BOX 661","SYOSSET","NY","11791"
355346,"PO BOX 661","TALENT","OR","97540"
355347,"PO BOX 661","TOK","AK","99780"
355348,"PO BOX 661","WAVERLY","NY","14892"
355349,"PO BOX 661","WEST TISBURY","MA","02575"
355350,"PO BOX 661","WHEAT RIDGE","CO","80034"
355351,"PO BOX 661063","MIAMI SRPINGS","FL","33266"
355352,"PO BOX 6611","HOUSTON","TX","77265"
355353,"PO BOX 6611","SCOTTSDALE","AZ","85261"
355354,"PO BOX 66122","PORTLAND","OR","97290"
355355,"PO BOX 661272","VESTAVIA","AL","35266"
355356,"PO BOX 6613","ASHEVILLE","NC","28816"
355357,"PO BOX 6613","EVANSVILLE","IN","47719"
355358,"PO BOX 661438","MIAMI","FL","33266"
355359,"PO BOX 66146","HOUSTON","TX","77266"
355360,"PO BOX 661473","SACRAMENTO","CA","95866"
355361,"PO BOX 6615","SAN ANTONIO","TX","78209"
355362,"PO BOX 661533","ARCADIA","CA","91066"
355363,"PO BOX 66154","MOBILE","AL","36606"
355364,"PO BOX 66185","BURIEN","WA","98166"
355365,"PO BOX 662","ARKANSAS CITY","KS","67005"
355366,"PO BOX 662","HAMSHIRE","TX","77622"
355367,"PO BOX 662","KALONA","IA","52247"
355368,"PO BOX 662","LAKE GENEVA","WI","53125"
355369,"PO BOX 662","MARSHALLTOWN","IA","50158"
355370,"PO BOX 662","MIRANDA","CA","95553"
355371,"PO BOX 662","MUKILTEO","WA","98275"
355372,"PO BOX 662","ROCKY HILL","CT","06067"
355373,"PO BOX 662","SAN ANDREAS","CA","95249"
355374,"PO BOX 6622","KATY","TX","77491"
355375,"PO BOX 6623","CHAMPAIGN","IL","61826"
355376,"PO BOX 6623","EVANSVILLE","IN","47719"
355377,"PO BOX 6623","SOUTH BEND","IN","46660"
355378,"PO BOX 66234","HOUSTON","TX","77266"
355379,"PO BOX 6624","CHRISTIANSBURG","VA","24068"
355380,"PO BOX 6628","LARGO","MD","20792"
355381,"PO BOX 66284","VIRGINIA BEACH","VA","23466"
355382,"PO BOX 663","AUSTIN","TX","78767"
355383,"PO BOX 663","BERKELEY","CA","94701"
355384,"PO BOX 663","COTTONDALE","FL","32431"
355385,"PO BOX 663","COVINGTON","LA","70434"
355386,"PO BOX 663","EXCELSIOR","MN","55331"
355387,"PO BOX 663","FORRESTON","IL","61030"
355388,"PO BOX 663","GOLD BAR","WV","98251"
355389,"PO BOX 663","HOCKLEY","TX","77447"
355390,"PO BOX 663","JACKSON","AL","36545"
355391,"PO BOX 663","LAVEEN","AZ","85339"
355392,"PO BOX 663","MANCHESTER","KY","40962"
355393,"PO BOX 663","MARS","PA","16046"
355394,"PO BOX 663","RAVENSWOOD","WV","26164"
355395,"PO BOX 663","ROCHESTER","MN","55903"
355396,"PO BOX 663","SHAFTER","CA","93263"
355397,"PO BOX 663","YARMOUTH","ME","04096"
355398,"PO BOX 66304","BALTIMORE","MD","21239"
355399,"PO BOX 6631","FOLSOM","CA","95763"
355400,"PO BOX 6631","PORTSMOUTH","NH","03802"
355401,"PO BOX 66311","MOBILE","AL","36660"
355402,"PO BOX 6632","BEND","OR","97708"
355403,"PO BOX 6633","SAN ANTONIO","TX","78209"
355404,"PO BOX 66351","ORANGE PARK","FL","32065"
355405,"PO BOX 664","BANKS","OR","97106"
355406,"PO BOX 664","BRIGHTON","IL","62012"
355407,"PO BOX 664","EAGLE BUTTE","SD","57625"
355408,"PO BOX 664","ENUMCLAW","WA","98022"
355409,"PO BOX 664","HADLEY","MA","01035"
355410,"PO BOX 664","HEMPSTEAD","TX","77445"
355411,"PO BOX 664","LOGANSPORT","IN","46947"
355412,"PO BOX 664","NACHES","WA","98937"
355413,"PO BOX 664","OKANOGAN","WA","98840"
355414,"PO BOX 664","REIDSVILLE","GA","30453"
355415,"PO BOX 664","ROCKLAND","ME","04841"
355416,"PO BOX 664","ROSEVILLE","CA","95661"
355417,"PO BOX 664","SICKLERVILLE","NJ","08081"
355418,"PO BOX 664","SOLEDAD","CA","93960"
355419,"PO BOX 664","ST CLAIR SHORES","MI","48080"
355420,"PO BOX 664","WEST MEMPHIS","AR","72303"
355421,"PO BOX 6645","FLORENCE","SC","29502"
355422,"PO BOX 6647","KATY","TX","77491"
355423,"PO BOX 6649","ALBUQUERQUE","NM","87197"
355424,"PO BOX 665","ANDOVER","KS","67002"
355425,"PO BOX 665","BUFFALO GAP","TX","79508"
355426,"PO BOX 665","CARIBOU","ME","04736"
355427,"PO BOX 665","DOVER","AR","72837"
355428,"PO BOX 665","GLADSTONE","OR","97027"
355429,"PO BOX 665","HAWTHORNE","FL","32640"
355430,"PO BOX 665","MANORVILLE","NY","11949"
355431,"PO BOX 665","MONROE","GA","30655"
355432,"PO BOX 665","NEW ALBANY","IN","47151"
355433,"PO BOX 665","PALMER","AK","99645"
355434,"PO BOX 665","PLEASANT GARDEN","NC","27313"
355435,"PO BOX 665","RUCKERSVILLE","VA","22968"
355436,"PO BOX 6652","TYLER","TX","75711"
355437,"PO BOX 66539","BURIEN","WA","98166"
355438,"PO BOX 6655","CHESAPEAKE","VA","23323"
355439,"PO BOX 6655","HILTON HEAD ISLAND","SC","29938"
355440,"PO BOX 6655","KINGWOOD","TX","77325"
355441,"PO BOX 6655","PEORIA","AZ","85385"
355442,"PO BOX 6656","HIGH POINT","NC","27262"
355443,"PO BOX 6657","CLEVELAND","OH","44101"
355444,"PO BOX 66573","CHICAGO","IL","60666"
355445,"PO BOX 666","BRISTOL","VA","24203"
355446,"PO BOX 666","CHILOQUIN","OR","97624"
355447,"PO BOX 666","ENKA","NC","28728"
355448,"PO BOX 666","HURT","VA","24563"
355449,"PO BOX 666","NEW CITY","NY","10956"
355450,"PO BOX 6660","KANSAS CITY","MO","64123"
355451,"PO BOX 6661","MACON","GA","31208"
355452,"PO BOX 6666","ITHACA","NY","14851"
355453,"PO BOX 66674","HOUSTON","TX","77266"
355454,"PO BOX 667","DOVE CREEK","CO","81324"
355455,"PO BOX 667","JERICHO","NY","11753"
355456,"PO BOX 667","MEADVIEW","AZ","86444"
355457,"PO BOX 667","MERIDIANVILLE","AL","35759"
355458,"PO BOX 667","WEST LIBERTY","OH","43357"
355459,"PO BOX 667019","HOUSTON","TX","77266"
355460,"PO BOX 667041","HOUSTON","TX","77266"
355461,"PO BOX 667062","POMPANO BEACH","FL","33066"
355462,"PO BOX 667114","HOUSTON","TX","77266"
355463,"PO BOX 667133","HOUSTON","TX","77266"
355464,"PO BOX 667136","POMPANO BEACH","FL","33066"
355465,"PO BOX 6672","CHESAPEAKE","VA","23323"
355466,"PO BOX 6673","CLEVELAND","OH","44101"
355467,"PO BOX 667341","HOUSTON","TX","77266"
355468,"PO BOX 6674","PARIS","TX","75461"
355469,"PO BOX 667452","HOUSTON","TX","77266"
355470,"PO BOX 6675","TYLER","TX","75711"
355471,"PO BOX 66761","WASHINGTON","DC","20035"
355472,"PO BOX 66765","ALBUQUERQUE","NM","87193"
355473,"PO BOX 66775","BURIEN","WA","98166"
355474,"PO BOX 6678","ATLANTA","GA","30315"
355475,"PO BOX 667812","CHARLOTTE","NC","28266"
355476,"PO BOX 66790","LOS ANGELES","CA","90066"
355477,"PO BOX 66792","SEATTLE","WA","98166"
355478,"PO BOX 668","HUTCHINSON","MN","55350"
355479,"PO BOX 668","KASILOF","AK","99610"
355480,"PO BOX 668","LAKE CRYSTAL","MN","56055"
355481,"PO BOX 668","LOCKHART","TX","78644"
355482,"PO BOX 668","MARYSVILLE","WA","98270"
355483,"PO BOX 668","MORRIS","IL","60450"
355484,"PO BOX 668","SOMERS POINT","NJ","08244"
355485,"PO BOX 668","TAOS","NM","87571"
355486,"PO BOX 668","WAKE FOREST","NC","27588"
355487,"PO BOX 668175","POMPANO BEACH","FL","33066"
355488,"PO BOX 6682","JACKSON","MS","39282"
355489,"PO BOX 6682","VIRGINIA BEACH","VA","23456"
355490,"PO BOX 668421","POMPANO BEACH","FL","33066"
355491,"PO BOX 6687","KINGWOOD","TX","77325"
355492,"PO BOX 66872","SCOTTS VALLEY","CA","95067"
355493,"PO BOX 668847","CHARLOTTE","NC","28266"
355494,"PO BOX 669 - 30 TWIN PINES ROAD","MILLINOCKET","ME","04462"
355495,"PO BOX 669 - 417 WYOMING AVE","CRESTON","IA","50801"
355496,"PO BOX 669","AUSTIN","TX","78701"
355497,"PO BOX 669","HINDMAN","KY","41822"
355498,"PO BOX 669","HUMBOLDT","IA","50548"
355499,"PO BOX 669","JACKSON","WY","83001"
355500,"PO BOX 669","LEESBURG","GA","31763"
