"ID","Address","City","State","Zip"
226001,"490141","BLAINE","MN","55449"
226002,"4902 20TH AVENUE","BROOKLYN","NY","11204"
226003,"4902 AVE R 1/2","GALVESTON","TX","77551"
226004,"4902 DAMUELY DRIVE","HILLIARD","OH","43206"
226005,"4902 EISENHOWER BLVD STE 295","TAMPA","FL","33634"
226006,"4902 GARRISON FRONTAGE ROAD","GARRISON","MT","59731"
226007,"4902 GENERAUX ROAD","IONIA","MI","48846"
226008,"4902 GINGHAM CHECK CT","KATY","TX","77449"
226009,"4902 LANDON LANE","BAYTOWN","TX","77523"
226010,"4902 MC KINLEY AVENUE","TACOMA","WA","98404"
226011,"4902 N 18TH ST","SHEBOYGAN","WI","53083"
226012,"4902 OAKWOOD CT","MIDLAND","TX","79707"
226013,"4902 QUEENSBURY CIRCLE","FREDERICKSBURG","VA","22408"
226014,"4902 RUDGATE BLVD","TOLEDO","OH","43623"
226015,"4902 S OLD BASTROP HWY","SAN MARCOS","TX","78666"
226016,"4902 S XENIA ST","DENVER","CO","80237"
226017,"4902 SOUTH HOGAN","SPOKANE","WA","99223"
226018,"4902 WEST FAIRVIEW AVENUE APT 14","BOISE","ID","83706"
226019,"4903 BARN OWL TRAIL","GRAND PRAIRIE","TX","75052"
226020,"4903 CHALET DRIVE UNIT 6","CINCINNATI","OH","45217"
226021,"4903 CHRITIEN POINT CT","SUGAR LAND","TX","77478"
226022,"4903 EHRLICH RD","TAMPA","FL","33624"
226023,"4903 ENDOLWOOD DR  SUITE H","CHARLOTTE","NC","28215"
226024,"4903 KINGS COURT","RICHTON PARK","IL","60471"
226025,"4903 LAYTHAN JACE CT","SNELLVILLE","GA","30039"
226026,"4903 LEE FARM CT","ELLICOTT CITY","MD","21043"
226027,"4903 MAYFIELD ROAD","PADUCAH","KY","42003"
226028,"4903 NOTTINGHAMSHIRE DRIVE","JEFFERSONTOWN","KY","40299"
226029,"4903 OFLAHERTY CT","MABLETON","GA","30126"
226030,"4903 S SWENSON RD","DEER PARK","WA","99009"
226031,"4903 SANBURNE PARKWAY","SANDSTON","VA","23150"
226032,"4903 TREELODGE PARKWAY","ATLANTA","GA","30350"
226033,"4903 WELLINGTON WAY","HOUSTON","TX","77069"
226034,"4903 WYMOSA STREET","BOISE","ID","83703"
226035,"4904 114TH AVENUE NE","KIRKLAND","WA","98033"
226036,"4904 28TH AVENUE APT 2","LOS ANGELES","CA","90034"
226037,"4904 CAMINO AL NORTE   335178","NORTH LAS VEGAS","NV","89031"
226038,"4904 CAMINO AL NORTE 335432","NORTH LAS VEGAS","NV","89031"
226039,"4904 CAMINO AL NORTE 335432","NORTH LAS VEGAS","NV","89033"
226040,"4904 CAMINO AL NORTE 337372","N LAS VEGAS","NV","89031"
226041,"4904 CAMINO AL NORTE UNIT 335812","NORTH LAS VEGAS","NV","89033"
226042,"4904 CAMINO EL NORTE","N LAS VEGAS","NV","89031"
226043,"4904 CRENSHAW BLVD","LOS ANGELES","CA","90043"
226044,"4904 DARYL CT","SAINT CLOUD","FL","34771"
226045,"4904 FALKIRK MEWS","WILLIAMSBURG","VA","23188"
226046,"4904 FOXMOORE COURT NE","RIO RANCHO","NM","87144"
226047,"4904 GLEN SPRINGS TRAIL","FORT WORTH","TX","76137"
226048,"4904 JASMINE AVE","SAVANNAH","GA","31404"
226049,"4904 LOCH RAVEN BLVD","BALTIMORE","CA","21239"
226050,"4904 MARTIN DR SE","EAST SPARTA","OH","44626"
226051,"4904 MEADOWBROOK CIRCLE","SUWANEE","GA","30024"
226052,"4904 MONROE STREET","BLADENSBURG","MD","20710"
226053,"4904 N 29TH ST","TAMPA","FL","33610"
226054,"4904 PERRIER STREET","NO","LA","70115"
226055,"4904 POPLAR RIDGE ROAD","TRINITY","NC","27370"
226056,"4904 RANDOLPH RD","NORTH LITTLE ROCK","AR","72116"
226057,"4904 S KLEIN AVE","SIOUX FALLS","SD","57106"
226058,"4904 S MERRIMAN","WAYNE","MI","48184"
226059,"4904 SOUTH POWER RD 103-203","MESA","AZ","85212"
226060,"4904 STONE SHOP CIRCLE","OWINGS MILLS","MD","21117"
226061,"4904 STONY FALLS WAY","KNIGHTDALE","NC","27545"
226062,"4904 W 123RD PLACE","HAWTHORNE","CA","90250"
226063,"4904 WALLACE AVE","SACRAMENTO","CA","95838"
226064,"4904 WATERVISTA DRIVE","ORLANDO","FL","32821"
226065,"4904 WUNNENBERG WAY","WEST CHESTER","OH","45069"
226066,"4904 YORK RD UNIT 4562","BALTIMORE","MD","21212"
226067,"4905  34TH STREET SO  SUITE 107","ST PETERSBURG","FL","33711"
226068,"4905 34TH ST S  UNIT 108","ST PETE","FL","33711"
226069,"4905 34TH STREET S STE 349","ST PETERSBURG","FL","33711"
226070,"4905 34TH STREET SOUTH 154","ST PETERSBURG","FL","33711"
226071,"4905 34TH STREET SOUTH 310","ST PETERSBURG","FL","33711"
226072,"4905 34TH STREET SOUTH SUITE 146","ST PETERSBURG","FL","63113"
226073,"4905 42ND AVENUE","HYATTSVILLE","MD","20781"
226074,"4905 AUSTELL POWDER SPRINGS ROAD","AUSTELL","GA","30106"
226075,"4905 BECK ROAD","EMMAUS","PA","18049"
226076,"4905 CHENNAULT STREET","PAPILLION","NE","68133"
226077,"4905 COLONEL CONTEE PLACE","UPPER MARLBORO","MD","20772"
226078,"4905 DOUGLASTON PARKWAY","DOUGLASTON","NY","11362"
226079,"4905 FLORENCE STREET","BELLAIRE","TX","77401"
226080,"4905 GRAND AVE","DES MOINES","IA","50312"
226081,"4905 GREENWOOD DR SW","OLYMPIA","WA","98502"
226082,"4905 HOLIDAY LANE","NORTH RICHLAND HILLS","TX","76180"
226083,"4905 LASALLE AVE","BELLINGHAM","WA","98229"
226084,"4905 LEWISTON DR","INDIANAPOLIS","IN","46254"
226085,"4905 MANILA AVE","OAKLAND","CA","94609"
226086,"4905 MARTHA LANE","SCHWENKSVILLE","PA","19473"
226087,"4905 MOUNTAIN SPRINGS COURT","RAPID CITY","SD","57702"
226088,"4905 N 108TH AVE","PHOENIX","AZ","85037"
226089,"4905 N WILLOW AVE","BETHANY","OK","73008"
226090,"4905 NE 2ND LOOP","OCALA","FL","34470"
226091,"4905 NE 47TH AVE","VANCOUVER","WA","98661"
226092,"4905 NETTIE AVE","LAS VEGAS","NV","89110"
226093,"4905 NORTHLAKE DRIVE","EVANSVILLE","IN","47715"
226094,"4905 NW 59TH STREET","TAMARAC","FL","33319"
226095,"4905 OLD PASS ROAD","GULFPORT","MS","39501"
226096,"4905 OLIVE OAK WAY","CARMICHAEL","CA","95608"
226097,"4905 RAINTREE DR","WEST DES MOINES","IA","50265"
226098,"4905 S 131 ST","OMAHA","NE","68137"
226099,"4905 S 5TH AVE","PHOENIX","AZ","85041"
226100,"4905 S QUINTERO CIR","AURORA","CO","80015"
226101,"4905 S REDBUD AVE","BROKEN ARROW","OK","74011"
226102,"4905 SADDLECREEK ROAD","LAKELAND","FL","33801"
226103,"4905 SW 10TH STREET","MARGATE","FL","33068"
226104,"4905 TIMBERLAN ST","TAMPA","FL","33624"
226105,"4905 TUDOR DRIVE","POMPTON PLAINS","NJ","07444"
226106,"4905 US HIGHWAY 36","ESTES PARK","CO","80517"
226107,"4905 W 60TH AVE","ARVADA","CO","80003"
226108,"4905 W KAMERLING","CHICAGO","IL","60651"
226109,"4905 W ORIOLE AVE","VISALIA","CA","93291"
226110,"4905 WATSON MILL CT","LOGANVILLE","GA","30052"
226111,"4905 YORK AVENUE SOUTH","MINNEAPOLIS","MN","55410"
226112,"4906 BROOKLYN AVE","KANSAS CITY","MO","64130"
226113,"4906 COLORADO AVENUE","NASHVILLE","TN","37209"
226114,"4906 CRITTENDEN AVE","INDIANAPOLIS","IN","46205"
226115,"4906 ELENOR DRIVE","FREDERICK","MD","21703"
226116,"4906 FOREST HURST GLEN","SPRING","TX","77373"
226117,"4906 GRANNY TRAIL","GASTONIA","NC","28056"
226118,"4906 LADY OF THE LAKE DR","RALEIGH","NC","27612"
226119,"4906 LENHARD LN","DEER PARK","WA","99006"
226120,"4906 LINDY LANE","RICHMOND","VA","23224"
226121,"4906 MALLARD COVE","WOOLFORD","MD","21677"
226122,"4906 MICHIGAN AVE","KANSAS CITY","MO","64130"
226123,"4906 MILLER DR","DURHAM","NC","27704"
226124,"4906 N 85TH STREET","MILWAUKEE","WI","53225"
226125,"4906 OLD LEEDS RD","BIRMINGHAM","AL","35213"
226126,"4906 ROYAL STABLE","SAN ANTONIO","TX","78238"
226127,"4906 S BLACKSTONE AVE UNIT E","CHICAGO","IL","60615"
226128,"4906 SOUTH COUNTRY LANE","FREMONT","MI","49412"
226129,"4906 VALLEY CREST DRIVE APT 403","MIDLOTHIAN","VA","23112"
226130,"49061 CAVIN LANE","COARSEGOLD","CA","93614"
226131,"4907 136TH PL SE","BELLEVUE","WA","98006"
226132,"4907 5TH STREET","MERIDIAN","MS","39307"
226133,"4907 ANNLYN DR","SANDSTON","VA","23150"
226134,"4907 BROOKVIEW DRIVE","JEFFERSON CITY","MO","65109"
226135,"4907 COTTER LAKE DRIVE","MISSOURI CITY","TX","77459"
226136,"4907 DEWARS CIRCLE","WILINGTON","NC","28409"
226137,"4907 DUNBAR VALLEY ROAD","FISHERVILLE","KY","40023"
226138,"4907 E 46 ROAD","CADILLAC","MI","49601"
226139,"4907 E WINCHCOMB DRIVE","SCOTTSDALE","AZ","85254"
226140,"4907 FOSTER AVE","BROOKLYN","NY","11203"
226141,"4907 MAGNOLIA AVE","FEASTERVILLE-TREVOSE","PA","19053"
226142,"4907 MAID MARION DRIVE","PASCAGOULA","MS","39581"
226143,"4907 MORENA BLVD STE 1415","SAN DIEGO","CA","92117"
226144,"4907 N 9TH STREET","OZARK","MO","65721"
226145,"4907 N ARTHUR AVENUE APT 104","FRESNO","CA","93705"
226146,"4907 N WOLCOTT AVE UNIT 1A","CHICAGO","IL","60640"
226147,"4907 ROGER DRIVE","ANCHORAGE","AK","99507"
226148,"4907 SANDERSON LANE","TEXARKANA","AR","71854"
226149,"4907 SAVOY PLACE UNIT B","WALDORF","MD","20602"
226150,"4907 TOOLEY DRIVE","CHESTER","VA","23831"
226151,"4907 W 63RD AVENUE","ARVADA","CO","80003"
226152,"4907 WEST CENTER ST","MILWAUKEE","WI","53210"
226153,"4907 WHITNER DRIVE","WILMINGTON","NC","28409"
226154,"4907 WOODHAVEN DR","LINCOLN","NE","68516"
226155,"4908 BENNINGTON DR","SCHWENKSVILLE","PA","19473"
226156,"4908 BOULDER FALLS CT","KNIGHTDALE","NC","27545"
226157,"4908 CHARLOTTE PIKE","NASHVILLE","TN","37209"
226158,"4908 COGSWELL AVE","PELL CITY","AL","35125"
226159,"4908 COLLINGTONS BOUNTY DR","BOWIE","MD","20720"
226160,"4908 E JUDGE PEREZ DRIVE","VIOLET","LA","70092"
226161,"4908 FAUNA DRIVE","MELBOURNE","FL","32934"
226162,"4908 GLEN COVE PKWY","BETHESDA","MD","20816"
226163,"4908 GRANBY STREET","DENVER","CO","80239"
226164,"4908 IVEY LANE","DOUGLASVILLE","GA","30135"
226165,"4908 LIGHTWOOD COURT","ACWORTH","GA","30101"
226166,"4908 LYNNDALE DR","AUSTIN","TX","78756"
226167,"4908 MARSHALL DRIVE","OMAHA","NE","68137"
226168,"4908 NE 54TH AVENUE","VANCOUVER","WA","98661"
226169,"4908 NW 34TH BLVD  SUITE 6","GAINESVILLE","FL","32605"
226170,"4908 ORANGE BLOSSOM CT","HAZELWOOD","MO","63042"
226171,"4908 ORLEANS STREET","LAKE CHARLES","LA","70607"
226172,"4908 REDWOOD ROAD","SAN MARCOS","TX","78666"
226173,"4908 S ALMA SCHOOL RD STE A2-309","CHANDLER","AZ","85248"
226174,"4908 W 77TH ST","PRAIRIE VILLAGE","KS","66208"
226175,"4908 WEST FRANCES PLACE","AUSTIN","TX","78731"
226176,"4909 16TH ROAD N","ARLINGTON","VA","22207"
226177,"4909 37TH ST E","BRADENTON","NY","34203"
226178,"4909 6TH PLACE","MERIDIAN","MS","39305"
226179,"4909 BRIGHTSTAR LANE","COLUMBUS","GA","31907"
226180,"4909 DEVERS ROAD","SOUTHSIDE","TN","37171"
226181,"4909 DREW AVENUE SOUTH","MINNEAPOLIS","MN","55410"
226182,"4909 EAST 18TH STREET","INDIANAPOLIS","IN","46218"
226183,"4909 EAST UNIVERSITY BLVD","ODESSA","TX","79762"
226184,"4909 KNIGHTS WAY","ROCKLIN","CA","95765"
226185,"4909 LACLEDE AVE UNIT 1806 DEPT TMB","ST LOUIS","MO","63108"
226186,"4909 LACLEDE AVE UNIT 2501","SAINT LOUIS","MO","63108"
226187,"4909 LIBERTY HEIGHTS AVE","BALTIMORE","MD","21207"
226188,"4909 LINDY LANE","RICHMOND","VA","23224"
226189,"4909 LOUISE DRIVE SUITE 102","MECHANICSBURG","PA","17055"
226190,"4909 N 42ND ST","OMAHA","NE","68111"
226191,"4909 OLD REDWOOD HWY","SANTA ROSA","CA","95403"
226192,"4909 PENN AVE","PITTSBURGH","PA","15224"
226193,"4909 QUESADA AVE","CEDAR FALLS","IA","50613"
226194,"4909 REIGER AVE","DALLAS","TX","75214"
226195,"4909 S 84TH STREET","TAMPA","FL","33619"
226196,"4909 S NETHERLAND WAY","AURORA","CO","80015"
226197,"4909 SEINER COURT","HERMITAGE","TN","37076"
226198,"4909 SHADY TRAIL STREET","SIMI VALLEY","CA","93063"
226199,"4909 SUN LAKE CT","HOLLY SPRINGS","NC","27540"
226200,"4909 W KATHLEEN LN","MEQUON","WI","53092"
226201,"4909 W MONROE","CHICAGO","IL","60644"
226202,"4909 WANBLI COURT","SPARKS","NV","89436"
226203,"4909 WATERS EDGE DRIVE SUITE 208","RALEIGH","NC","27606"
226204,"491 98TH AVE NE","BLAINE","MN","55434"
226205,"491 AIRPORT ROAD","WINCHESTER","VA","22602"
226206,"491 ALLIED DRIVE","NASHVILLE","TN","37211"
226207,"491 BALTIMORE PIKE 619","SPRINGFIELD","PA","19064"
226208,"491 BALTIMORE PIKE SUITE 1043","SPRINGFIELD","PA","19064"
226209,"491 BERKSHIRE SCHOOL ROAD","SHEFFIELD","MA","01257"
226210,"491 BREVATOR RD","OLD MONROE","MO","63369"
226211,"491 COUNTRY CLUB ROAD","LAKE OSWEGO","OR","97034"
226212,"491 CR 4200","WINNSBORO","TX","75494"
226213,"491 D FLAT SHOALS AVE SE","ATLANTA","GA","30316"
226214,"491 DUTTON STREET UNIT 404","LOWELL","MA","01854"
226215,"491 E BLACK DIAMOND DR","CASA GRANDE","AZ","85128"
226216,"491 EAST 124TH ST","CLEVELAND","OH","44108"
226217,"491 EAST MAIN STREET","PAHOKEE","FL","33476"
226218,"491 ELDER LANE","WINNETKA","IL","60093"
226219,"491 FOX TROT DRIVE","COLUMBIA","SC","29229"
226220,"491 GERMAN RD","MUNGER","MI","48747"
226221,"491 HANSEN HILL RD","ARROYO GRANDE","CA","93420"
226222,"491 HEMPSTEAD TURNPIKE","WEST HEMPSTEAD","NY","11552"
226223,"491 KING ST","CHAPPAQUA","NY","10514"
226224,"491 LEAHY STREET","REDWOOD CITY","CA","94107"
226225,"491 LINWOOD AVE","STONEWALL","LA","71078"
226226,"491 LYNDALE AVE","SAN JOSE","CA","95127"
226227,"491 MADISON STREET","BUFFALO","NY","14211"
226228,"491 MARION AVENUE","MANSFIELD","OH","44903"
226229,"491 MILLBRAE AVE","SANTA ROSA","CA","95407"
226230,"491 N 6TH ST","TECUMSEH","NE","68450"
226231,"491 NORTH MAGEE STREET","SOUTHAMPTON","NY","11968"
226232,"491 NW 191ST STREET","MIAMI","FL","33169"
226233,"491 PELICAN LANE SOUTH","JUPITER","FL","33458"
226234,"491 PEREGRINE CT","WINFIELD","MO","63389"
226235,"491 QUINCY STREET  APT 3","BROOKLYN","NY","11221"
226236,"491 REEDER BRANCH DRIVE","CLAYTON","NC","27520"
226237,"491 ROCKBRIDGE TRAIL","STONE MOUNTAIN","GA","30083"
226238,"491 ROWLAND DR","MONROE","LA","71203"
226239,"491 SOUTH POINT CT","ALEDO","TX","76008"
226240,"491 SR 111","LA MADERA","NM","87539"
226241,"491 SULPHUR SPRING ROAD","CHILLICOTHE","OH","45601"
226242,"491 SW 88TH COURT","MIAMI","FL","33174"
226243,"491 W ENGLEWOOD AVENUE","TEANECK","NJ","07666"
226244,"491 WITCHES ROCK ROAD","BRISTOL","CT","06010"
226245,"491 WYNFIELD CIRCLE","ROCKLEDGE","FL","32955"
226246,"491","NEW BUFFALO","MI","49117"
226247,"4910 21 AVENUE","EAST ELMHURST","NY","11370"
226248,"4910 A STREET SE","AUBURN","WA","98092"
226249,"4910 ARROWOOD LANE N","PLYMOUTH","MN","55442"
226250,"4910 BENDING ELMS","SAN ANTONIO","TX","78247"
226251,"4910 BROADHILL DRIVE","AUSTIN","TX","78723"
226252,"4910 BURNT HICKORY ROAD","KENNESAW","GA","30152"
226253,"4910 CELTIC DRIVE APT 103","ALEXANDRIA","VA","22310"
226254,"4910 CRESTLINE ROAD","FORT WORTH","TX","76107"
226255,"4910 DANCER RD","HORTON","MI","49246"
226256,"4910 DELPHINA CT","KEYES","CA","95328"
226257,"4910 DYER BLVD SUITE 1","RIVIERA BEACH","FL","33407"
226258,"4910 FAIRFORD DR","SAN ANTONIO","TX","78228"
226259,"4910 FALCON CREEK WAY APT 108","HAMPTON","VA","23666"
226260,"4910 JONESBORO RD BLDG 300 STE 303","UNION CITY","GA","30291"
226261,"4910 JONESBORO ROAD SUITE 602B","UNION CITY","GA","30291"
226262,"4910 KESSLER DRIVE","ARLINGTON","TX","76010"
226263,"4910 KILAUEA AVE APT 3","HONOLULU","HI","96816"
226264,"4910 LAKE PARK LANE","ACWORTH","GA","30101"
226265,"4910 LESTER AVE","FREMONT","MI","49412"
226266,"4910 LITTLE NECK PKWY","LITTLE NECK","NY","11362"
226267,"4910 N CORNWALL DRIVE","MUNCIE","IN","47304"
226268,"4910 NORTH 177TH STREET","OMAHA","NE","68116"
226269,"4910 PAGELAND HWY","MONROE","NC","28112"
226270,"4910 RED ROCK AVE","OMAHA","NE","68157"
226271,"4910 S C STREET","VENTURA","CA","93033"
226272,"4910 SAN PALERMO DR","BRADENTON","FL","34208"
226273,"4910 SHOEMAKER RD","CENTERVILLE","IN","47330"
226274,"4910 SHOEMAKER ROAD","CENTERVILLE","IN","47330"
226275,"4910 SW 5TH AVENUE","CAMAS","WA","98607"
226276,"4910 TILDEN ROAD","BLADENSBURG","MD","20710"
226277,"4910 URBANDALE AVE","DES MOINES","IA","50310"
226278,"4910 VALLEY RIDGE DRIVE STE 1029","IRVING","TX","75062"
226279,"4910 W GRAND AVE STE 200","CHICAGO","IL","60639"
226280,"4910 WALL FLOWER WAY","OXON HILL","MD","20745"
226281,"49103 NORTHAMPTON CT","CANTON","MI","48187"
226282,"4911 7TH PL NE","WASHINGTON","DC","20017"
226283,"4911 ALTON TUCKER BOULEVARD","SUGAR HILL","GA","30518"
226284,"4911 ANDREA STREET","HOUSTON","TX","77021"
226285,"4911 BUTTERWICK LANE","CHARLOTTE","NC","28212"
226286,"4911 CLEVELAND STREET","SIOUX CITY","IA","51108"
226287,"4911 CONCHO DRIVE","MIDLAND","TX","79707"
226288,"4911 HAVERWOOD LANE APT 2437","DALLAS","TX","75287"
226289,"4911 HAZELWOOD AVE","BALTIMORE","MD","21206"
226290,"4911 LARCHWOOD AVENUE","PHILADELPHIA","PA","19143"
226291,"4911 LYONS TECHNOLOGY PARKWAY NO 29","COCONUT CREEK","FL","33073"
226292,"4911 MONTGOMERY ST STE 1A","SAVANNAH","GA","31405"
226293,"4911 MOUNTAIN VIEW DR","PALMDALE","CA","93552"
226294,"4911 N KNOXVILLE AVE","PEORIA","IL","61614"
226295,"4911 PONY PASS CIR","SAN JOSE","CA","95136"
226296,"4911 ROMAN DRIVE","LOUISVILLE","KY","40291"
226297,"4911 RUTH AVE APT 201","LONG BEACH","CA","90805"
226298,"4911 SIGNAL CT  SW","LILBURN","GA","30047"
226299,"4911 SPRINGWOOD CR","COLUMBUS","GA","31909"
226300,"4911 SW ENERGY AVENUE","BENTONVILLE","AR","72712"
226301,"4911 TRAILS EDGE DRIVE","ARLINGTON","TX","76017"
226302,"4911 W WASHINGTON","CHICAGO","IL","60644"
226303,"4911 WEATHERSTONE LN SE","GRAND RAPIDS","MI","49508"
226304,"49113 ROSE TERRACE","FREMONT","CA","94539"
226305,"49114 DRIFTWOOD DR","SHELBY TOWNSHIP","MI","48317"
226306,"4912 3RD STREET","SAN FRANCISCO","CA","94124"
226307,"4912 53RD AVENUE N","CRYSTAL","MN","55429"
226308,"4912 BARRETT WAY","PANAMA CITY","FL","32404"
226309,"4912 BERGENLINE AVENUE","WEST NEW YORK","NJ","07093"
226310,"4912 CAMBRIDGE DRIVE","N RICHLAND HILLS","TX","76180"
226311,"4912 CROOKED OAK LN","CHARLOTTE","NC","28226"
226312,"4912 CRYSTAL SPRING","RACINE","WI","53406"
226313,"4912 FALL RIVER DRIVE","FORT WORTH","TX","76103"
226314,"4912 FOX RIDGE LN","MCKINNEY","TX","75071"
226315,"4912 HARTLEY LN","ERIE","PA","16407"
226316,"4912 LEBARON ST","CHARLOTTE","NC","28270"
226317,"4912 MANDERSON ST","OMAHA","NE","68104"
226318,"4912 MOKUPEA PLACE UNIT C","EWA BEACH","HI","96706"
226319,"4912 N PAULINA STREET","CHICAGO","IL","60640"
226320,"4912 PLAZA WAY","RICHMOND","CA","94804"
226321,"4912 S 4700 W","HOOPER","UT","84015"
226322,"4912 S CUSHMAN AVE","TACOMA","WA","98408"
226323,"4912 TANGIER PLACE","SUMMERVILLE","SC","29485"
226324,"4912 TERRAPIN BLVD","SAINT CLOUD","FL","34771"
226325,"4912 VIVALDI DRIVE","LAS VEGAS","NV","89146"
226326,"4912 W 84TH PL","BURBANK","IL","60459"
226327,"4912 WAGON MOUND TRL NW","ALBUQUERQUE","NM","87120"
226328,"4913 5TH ST S","SAINT PETERSBURG","FL","33705"
226329,"4913 BENNINGTON DRIVE","SCHWENSVILLE","PA","19473"
226330,"4913 BLANTON ST","LAS VEGAS","NV","89121"
226331,"4913 BRIDGES STREET EXT BLDG B","MOREHEAD CITY","NC","28557"
226332,"4913 CORINNE STREET","NEW ORLEANS","LA","70127"
226333,"4913 DEICHELMANN LOOP","LAS VEGAS","NV","89115"
226334,"4913 DOWER DRIVE","LA PLATA","MD","20646"
226335,"4913 LOGAN FERRY RD","MURRYSVILLE","PA","15668"
226336,"4913 LOOK KINNEY CIRCLE","LIVERPOOL","NY","13088"
226337,"4913 N IDLEWILD AVE","WHITEFISH BAY","WI","53217"
226338,"4913 ORCHARD SKY AVENUE","LAS VEGAS","NV","89131"
226339,"4913 SAGEWOOD DRIVE","MEMPHIS","TN","38116"
226340,"4913 W RICHARDSON RD","PASCO","WA","99301"
226341,"4913 WILKENS AVE","CATONSVILLE","MD","21228"
226342,"4914 BERRYHILL CIRCLE","PERRY HALL","MD","21128"
226343,"4914 BUTTERFLY LANE","STURGEON BAY","WI","54235"
226344,"4914 CARTERET DRIVE","RALEIGH","NC","27612"
226345,"4914 FITZHUGH AVENUE     STE 214","RICHMOND","VA","23230"
226346,"4914 GAMMAGE STREET","HOUSTON","TX","77021"
226347,"4914 GROUSE WOODS DRIVE","WILMINGTON","NC","28411"
226348,"4914 KIRK STREET UNIT 101","SKOKIE","IL","60077"
226349,"4914 MCKENNA COURT","COLUMBUS","OH","43221"
226350,"4914 MT CLINTON PIKE","ROCKINGHAM","VA","22802"
226351,"4914 N HAPPY HOLLOW BLVD","OMAHA","NE","68104"
226352,"4914 N MAIN ST","JACKSONVILLE","FL","32206"
226353,"4914 N MAIN STREET","JACKSONVILLE","FL","32206"
226354,"4914 NELSON STREET","FREMONT","CA","94538"
226355,"4914 NORTH MAIN STREET","JACKSONVILLE","FL","32206"
226356,"4914 OAK LEAF AVE","CARMICHAEL","CA","95608"
226357,"4914 PRAIRIERIDGE ST","COLUMBIA","MO","65202"
226358,"4914 TERRAPIN BLVD","SAINT CLOUD","FL","34771"
226359,"4915  42ND  AV  N","ROBBINSDALE","MN","55422"
226360,"4915 135TH PLACE","CRESTWOOD","IL","60418"
226361,"4915 28TH AVENUE S APT 101","F","ND","58104"
226362,"4915 56TH AVENUE","HYATTSVILLE","MD","20781"
226363,"4915 ARENDELL STREET","MOREHEAD CITY","NC","28557"
226364,"4915 ATLANTA HWY UNIT 1421","FLOWERY BRANCH","GA","30542"
226365,"4915 BARKSDALE BLVD SUITE 114","BOSSIER CITY","LA","71112"
226366,"4915 BELLA VISTA DRIVE","LONGMONT","CO","80503"
226367,"4915 BROADWAY 4L","NEW YORK","NY","10034"
226368,"4915 BROADWAY 6L","NEW YORK","NY","10034"
226369,"4915 BROADWAY APT 4O","NEW YORK","NY","10034"
226370,"4915 E PASEO WAY","PHOENIX","AZ","85044"
226371,"4915 EAST SPEEDWAY","TUCSON","AZ","85712"
226372,"4915 FOX HILL LN","DALLAS","TX","75232"
226373,"4915 HAMILTON ROAD","COLUMBUS","GA","31904"
226374,"4915 HARTE WAY","SACRAMENTO","CA","95822"
226375,"4915 JAY STREET NE APT 11","WASHINGTON","DC","20019"
226376,"4915 NANNIE HELEN BURROUGHS AVE NE","WASHINGTON","DC","20019"
226377,"4915 NOTTINGHAM AVENUE","LA CROSSE","WI","54601"
226378,"4915 OLD LA 25","NEW IBERIA","LA","70560"
226379,"4915 POLARIS STREET","ORLANDO","FL","32819"
226380,"4915 RED BIRCH DR","ARLINGTON","TX","76018"
226381,"4915 SCHERRER RD","GRANITE FALLS","WA","98252"
226382,"4915 SCRUGGS STATION ROAD","JEFFERSON CITY","MO","65109"
226383,"4915 ST ELMO AVENUE SUITE 506","BETHESDA","MD","20814"
226384,"4915 SW 13TH STREET","DES MOINES","IA","50315"
226385,"4915 SW 165TH AVE","MIRAMAR","FL","33027"
226386,"4915 TAMPICO WAY","FARMINGTON","NM","87402"
226387,"4915 TYRONE AVE 223","SHERMAN OAKS","CA","91423"
226388,"4915 WALNUT GROVE AVE","SAN GABRIEL","CA","91776"
226389,"4916 ALLENCREST LN","DALLAS","TX","75244"
226390,"4916 BEXLEY LANE","FAIRFAX","VA","22032"
226391,"4916 COOLRIDGE CT APT F","RALEIGH","NC","27616"
226392,"4916 EL DON DR","ROCKLIN","CA","95677"
226393,"4916 GUADALUPE DRIVE","EL PASO","TX","79904"
226394,"4916 HIGH STREET","FORT SMITH","AR","72904"
226395,"4916 OREGON TRAIL","AMARILLO","TX","79109"
226396,"4916 PASCHALL AVENUE","PHILADELPHIA","PA","19143"
226397,"4916 SILVER PINE DR","CASTLE ROCK","CO","80108"
226398,"4916 SIPPO RESERVES DR N W","MASSILLON","OH","44647"
226399,"4916 TANGLEWOOD LANE","MANLIUS","NY","13104"
226400,"4916 W NATIONAL RD","CLAYTON","OH","45315"
226401,"4916 WEST NATIONAL RD","CLAYTON","OH","45315"
226402,"4916 WOODSONIA DR","SHAWNEE","KS","66226"
226403,"4916 YOAKUM BLVD","HOUSTON","TX","77006"
226404,"49160 851ST RD","CHAMBERS","NE","68735"
226405,"4917 154TH AVE CT E","SUMNER","WA","98390"
226406,"4917 ALEXIS ROAD","SYLVANIA","OH","43560"
226407,"4917 ANNUNCIATION STREET","NEW ORLEANS","LA","70115"
226408,"4917 ARBOL CT","BENBROOK","TX","76126"
226409,"4917 ASHFORD DRIVE","UPPER MARLBORO","MD","20772"
226410,"4917 BRUFF ROAD","FOWLERVILLE","MI","48836"
226411,"4917 COACH HORSE CT","SAN DIEGO","CA","92130"
226412,"4917 E 27TH PL","TULSA","OK","74114"
226413,"4917 IRONWOOD TRAIL","BARTOW","FL","33830"
226414,"4917 JONESBORO RD","FOREST PARK","GA","30297"
226415,"4917 MARYANN LANE","BETHLEHEM","PA","18017"
226416,"4917 MCFARLAND ROAD","INDIANAPOLIS","IN","46227"
226417,"4917 N 28TH ST","TACOMA","WA","98407"
226418,"4917 N CEDAR ST","SPOKANE","WA","99205"
226419,"4917 NORTH CANYON TRAIL APT 2303","EULESS","TX","76040"
226420,"4917 PIEDMONT PARKWAY STE 103D","JAMESTOWN","NC","27282"
226421,"4917 PIEDMONT PARKWAY STE 104","JAMESTOWN","NC","27282"
226422,"4917 PIEDMONT PKWY STE 103","JAMESTOWN","NC","27282"
226423,"4917 PROFESSIONAL CT SUITE 203-B","RALEIGH","NC","27609"
226424,"4917 REFUGIO AVENUE","CARLSBAD","CA","92009"
226425,"4917 S DREXEL BLVD APT 206","CHICAGO","IL","60615"
226426,"4918 ASHFORD DR","UPPER MARLBORO","MD","20772"
226427,"4918 E BROOKSIDE AVE","ORANGE","CA","92867"
226428,"4918 FLORAMAR TERRACE","NEW PORT RICHEY","FL","34652"
226429,"4918 FONTANA ST SE","SALEM","OR","97317"
226430,"4918 GAMI WAY","COLORADO SPRINGS","CO","80911"
226431,"4918 HIGHWAY 50","WHITEWATER","CO","81527"
226432,"4918 LOWELL ROAD","TAMPA","FL","33624"
226433,"4918 ROSEBUD CHURCH RD","ELM CITY","NC","27822"
226434,"4918 ROSEDALE CIRCLE ST","HOUSTON","TX","77009"
226435,"4918 SANDY BROOK CIRCLE","WIMAUMA","FL","33598"
226436,"4918 VALLEY BIRCH DRIVE","ARLINGTON","TN","38002"
226437,"4918 W MERRELL STREET","PHOENIX","AZ","85031"
226438,"4918 WEST HAWTHORNE AVE","HILLSIDE","IL","60162"
226439,"4919 29TH AVE S","SEATTLE","WA","98108"
226440,"4919 43RD PL NW","WASHINGTON","DC","20016"
226441,"4919 E DAKOTA AVENUE","FRESNO","CA","93727"
226442,"4919 IMPERIAL DRIVE","RICHTON PARK","IL","60471"
226443,"4919 JAMESTOWN AVE STE 204-F","BATON ROUGE","LA","70808"
226444,"4919 N MAROA","FRESNO","CA","93704"
226445,"4919 OAKLAWN DRIVE","NORTH LITTLE ROCK","AR","72116"
226446,"4919 PENTRIDGE ST","PHILADELPHIA","PA","19131"
226447,"4919 SW JOHN DANIELS ROAD","KINARD","FL","32449"
226448,"4919 VERGANO VILLA DR","KATY","TX","77493"
226449,"49191 HWY 101","BANDON","OR","97411"
226450,"492  BRAMHALL AVE","JERSEY CITY","NJ","07304"
226451,"492 3RD ST","WILLOWS","CA","95988"
226452,"492 ARLINGTON AVENUE","ELMHURST","IL","60126"
226453,"492 BRAMHALL AVE","JERSEY CITY","NJ","07304"
226454,"492 CASCADE CIRCLE","SILVERTHORNE","CO","80497"
226455,"492 CEDAR LANE","TEANECK","NJ","07666"
226456,"492 COLUSA WAY","LIVERMORE","CA","94551"
226457,"492 E NAPA ST","SONOMA","CA","95476"
226458,"492 GLENWYTH RD","STRATFORD","PA","19087"
226459,"492 GLENWYTH ROAD","WAYE","PA","19087"
226460,"492 HIGHWAY 25N","GUY","AR","72061"
226461,"492 LEFFERTS AVE APT 1A","BROOKLYN","NY","11225"
226462,"492 LETORT RD","MILLERSVILLE","PA","17551"
226463,"492 LOBLOLLY BAY DRIVE","SANTA ROSA BEACH","FL","32459"
226464,"492 MARLBORO ROAD","OLD BRIDGE","NJ","08857"
226465,"492 MORNING GLORY LANE","GRAND JUNCTION","CO","81504"
226466,"492 MUSE ST","ATLANTA","GA","30310"
226467,"492 N MARIETTA PARKWAY","MARIETTA","GA","30060"
226468,"492 NW 165 STREET RS","MIAMI","FL","33169"
226469,"492 PAVONIA AVE","JERSEY CITY","NJ","07306"
226470,"492 PRATT ROAD","ALSTEAD","NH","03602"
226471,"492 RIDGE ROAD","FREDON","NJ","07860"
226472,"492 ROUTE 63","CHESTERFIELD","NH","03443"
226473,"492 SOUTH HIGH STREET","COLUMBUS","OH","43215"
226474,"492 TIMBER VILLAGE RD","GROVELAND","FL","34736"
226475,"492 VIEWTOWN ROAD","AMISSVILLE","VA","20106"
226476,"492 W SYCAMORE RD","SNOW SHOE","PA","16874"
226477,"492 WASHINGTON CT","TIBURON","CA","94920"
226478,"492 WISCONSIN AVE","MORGANTOWN","WV","26501"
226479,"4920 179TH STREET","COUNTRY CLUB HILLS","IL","60478"
226480,"4920 ATLANTA HIGHWAY BOX 423","ALPHARETTA","GA","30004"
226481,"4920 ATLANTA HIGHWAY SUITE 132","ALPHARETTA","GA","30004"
226482,"4920 BLACK ROAD","MONCLOVA","OH","43542"
226483,"4920 CHIMNEY OAKS DRIVE","MABLETON","GA","30126"
226484,"4920 CHINA GARDEN DR","AUSTIN","TX","78730"
226485,"4920 HARDSCRABBLE RD APT 617","COLUMBIA","SC","29229"
226486,"4920 LEWIS AVE STE 3","TOLEDO","OH","43612"
226487,"4920 N 68TH STREET","MILWAUKEE","WI","53218"
226488,"4920 NAIGARA RD","COLLEGE PARK","MD","20740"
226489,"4920 NE 47TH AVENUE","PORTLAND","OR","97218"
226490,"4920 NW 196TH TERRACE","MIAMI","FL","33055"
226491,"4920 OLD MISSOURI RD","ALORTON","IL","62207"
226492,"4920 PENNELL RD SUITE 314","ASTON","PA","19014"
226493,"4920 PENNELL ROAD SUITE 250","ASTON","PA","19014"
226494,"4920 PLATT SPRINGS ROAD","WEST COLUMBIA","SC","29170"
226495,"4920 RACCOON VALLEY ROAD","KNOXVILLE","TN","37938"
226496,"4920 S 283RD PL","AUBURN","WA","98001"
226497,"4920 S OAK AVE","BROKEN ARROW","OK","74011"
226498,"4920 S PENNSYLVANIA ST","ENGLEWOOD","CO","80113"
226499,"4920 S STERLING RD","BAKERSFIELD","CA","93307"
226500,"4920 SANDIA DR","LOS ALAMOS","NM","87544"
