"ID","Address","City","State","Zip"
233501,"5109 LITCHFIELD RD","FORT WAYNE","IN","46835"
233502,"5109 MAGNOLIA TREE LANE","CHARLOTTE","NC","28215"
233503,"5109 MONTVILLE TRAILS DR","MEDINA","OH","44256"
233504,"5109 PROVENCIAL DR","AUSTIN","TX","78724"
233505,"5109 ROCK WATER DR","LOUISVILLE","KY","40241"
233506,"5109 SE 104TH AVE","PORTLAND","OR","97266"
233507,"5109 SOUTH LINKS CIRCLE","SUFFOLK","VA","23435"
233508,"5109 SUMMERBROOK DRIVE","COLLEYVILLE","TX","76034"
233509,"5109 SW 139TH AVENUE","MIRAMAR","FL","33027"
233510,"5109 TEN TEN ROAD","APEX","NC","27539"
233511,"5109 TYLER ST","SACRAMENTO","CA","95841"
233512,"5109 WEEPING CHERRY DR","BROWNS SUMMIT","NC","27401"
233513,"5109 WINDMILL PL","EVANS","GA","30809"
233514,"5109 WINTON ROAD UNIT A","FAIRFIELD","OH","45014"
233515,"5109-B WEST ENTERPRISE ST","N CHAS","SC","29405"
233516,"510A WEST BANKHEAD STREET","NEW ALBANY","MS","38652"
233517,"511 14 STREET NE","NAPLES","FL","34120"
233518,"511 15TH ST","SPIRIT LAKE","IA","51360"
233519,"511 1ST AVENUE","ELIZABETH","NJ","07206"
233520,"511 1ST ST S","MONTGOMERY","MN","56069"
233521,"511 4TH AVE 1","ASBURY PARK","NJ","07712"
233522,"511 5TH ST NE","CLARA CITY","MN","56222"
233523,"511 6TH AVE SUITE 122","NEW YORK","NY","10011"
233524,"511 ALANDELE AVE","LOS ANGELES","CA","90036"
233525,"511 ALCOTT DR APT 26A","COLUMBIA","SC","29203"
233526,"511 ALEXANDER PL","GARRETT","IN","46738"
233527,"511 AUTUMN RIDGE RD UNIT 202","LAKE IN THE HILLS","IL","60156"
233528,"511 AVENUE OF THE AMERICA","NEW YORK","NY","10011"
233529,"511 AVENUE OF THE AMERICAS    4030","NEW YORK","NY","10011"
233530,"511 AVENUE OF THE AMERICAS BOX 304","NEW YORK","NY","10011"
233531,"511 AVENUE OF THE AMERICAS UNIT 341","NEW YORK","NY","10011"
233532,"511 AVENUE OF THE AMERICAS","NEW YORK","NY","10011"
233533,"511 BALDWIN STREET","JENISON","MI","49428"
233534,"511 BARRON STREET","WINONA","MS","38967"
233535,"511 BENT OAK DR","GUYTON","GA","31312"
233536,"511 BLYTHE AVENUE","DREXEL HILL","PA","19026"
233537,"511 BRULE GUILLOT RD","THIBODAUX","LA","70301"
233538,"511 BUTTERMILK LANE","BRADFORDWOODS","PA","15015"
233539,"511 CALEDONIA STREET","SAUSALITO","CA","94965"
233540,"511 CARDINAL AVE","OSWEGO","IL","60543"
233541,"511 CASTLEMAN ROAD","VESTAL","NY","13850"
233542,"511 CHURCH ST","SUMMERSVILLE","WV","26651"
233543,"511 COLFELT COURT","EXTON","PA","19341"
233544,"511 COMMERCE RD STE D","PINE BLUFF","AR","71601"
233545,"511 CREEKSIDE COURT","HELENA","AL","35080"
233546,"511 DAHILA ST APT 2","PRAIRIE VIEW","TX","77446"
233547,"511 DELAWARE","KANSAS CITY","MO","64105"
233548,"511 DIVISION ST","MUKWONAGO","WI","53149"
233549,"511 DIXIE STREET","PARMA","MO","63870"
233550,"511 DOVECOFT LN","ROSENBERG","TX","77469"
233551,"511 DOVER RD","TOMS RIVER","NJ","08757"
233552,"511 DRAPER RD SW","BLACKSBURG","VA","24060"
233553,"511 DUNAD AVENUE","OPA LOCKA","FL","33054"
233554,"511 E 99TH ST  203","INGLEWOOD","CA","90301"
233555,"511 E CHANNEL ROAD","BENICIA","CA","94510"
233556,"511 E MAIN ST","CASEY","IL","62420"
233557,"511 E MAIN STREET","CASEY","IL","62420"
233558,"511 E MAIN","CASEY","IL","62420"
233559,"511 E NORTH ST","NEW BRAUNFELS","TX","78130"
233560,"511 E PATAPSCO AVE","BALTIMORE","MD","21225"
233561,"511 E SAHARA AVE APT C201","LAS VEGAS","NV","89104"
233562,"511 E SAN YSIDRO BLVD 4325","SAN YSIDRO","CA","92173"
233563,"511 E STONEWAY DRIVE","SANDUSKY","OH","44870"
233564,"511 E VAN BUREN AVE","MCALESTER","OK","74501"
233565,"511 E WALNUT BOX 535","COLUMBIA","MO","65201"
233566,"511 E WALNUT ST 10135","COLUMBIA","MO","65201"
233567,"511 EAST 15TH STREET","MISSION","TX","78572"
233568,"511 EAST 37TH STREET","SAVANNAH","GA","31401"
233569,"511 EAST 9TH STREET","THE DALLES","OR","97058"
233570,"511 EAST BURNETT AVENUE","LOUISVILLE","KY","40217"
233571,"511 EAST PATAPSCO AVE","BALTIMORE","MD","21225"
233572,"511 EAST WALNUT 8067","COLUMBIA","MO","65201"
233573,"511 EAST WALNUT STREET 42","COLUMBIA","MO","65205"
233574,"511 EASTERN BLVD STE A","BALTIMORE","MD","21221"
233575,"511 EASTSIDE HIGHWAY","CORVALLIS","MT","59828"
233576,"511 EDGEWOOD AVENUE SE","ATLANTA","GA","30312"
233577,"511 ELBETHEL ROAD","SHELBYVILLE","TN","37160"
233578,"511 ELSTON DR","ANNISTON","AL","36201"
233579,"511 EUCLID AVE","SHELTON","WA","98584"
233580,"511 FIRST STREET NORTH NO 401","CHARLOTTESVILLE","VA","22902"
233581,"511 FOUR MILE ROAD APT 601","ALEXANDRIA","VA","22305"
233582,"511 FRANCES STREET","ROTHSCHILD","WI","54474"
233583,"511 FRANKLIN ST","PENDLETON","IN","46064"
233584,"511 FREMONT AVENUE","DAYTONA BEACH","FL","32114"
233585,"511 FURMAN CREEK COURT","MOORE","SC","29369"
233586,"511 GRAISBURY AVENUE","HADDONFIELD","NJ","08033"
233587,"511 GRANT PL","FREDERICK","MD","21702"
233588,"511 HANCOCK ST","RICHMOND","VA","23220"
233589,"511 HARRIET STREET","DAYTON","OH","45417"
233590,"511 HARRIMAN","JACKSON","MI","49203"
233591,"511 HARRISON STREET","KALAMAZOO","MI","49007"
233592,"511 HILLCREST AVENUE","GLENSIDE","PA","19038"
233593,"511 JANEWAY DRIVE APT 118","NORRISTOWN","PA","19401"
233594,"511 JONES PLACE","WALNUT CREEK","CA","94597"
233595,"511 KEN DRIVE","SAN ANTONIO","TX","78258"
233596,"511 KUNEHI ST","KAPOLEI","HI","96707"
233597,"511 LAWN DR","TIPTON","MO","65081"
233598,"511 LAZY LANE","ABSECON","NJ","08201"
233599,"511 LEAVENWORTH STREET SUITE 104","SAN FRANCISCO","CA","94109"
233600,"511 LEE STREET","SANDERSVILLE","GA","31082"
233601,"511 LIST AVENUE","ROCHESTER","NY","14617"
233602,"511 LONG CREEK PARKWAY","CHARLOTTE","NC","28214"
233603,"511 MAINE ST","STONEHAM","ME","04231"
233604,"511 MARIA LLOVET URB LOS MAESTROS","SAN JUAN","PR","00918"
233605,"511 MAURY STREET","LEXINGTON","VA","24450"
233606,"511 MCZILKEY DRIVE","APPLING","GA","30802"
233607,"511 MEETING STREET","WEST COLUMBIA","SC","29169"
233608,"511 MELROSE AVE","IOWA CITY","IA","52246"
233609,"511 MILLBROOK AVE","RANDOLPH","NJ","07869"
233610,"511 MILLBROOK AVENUE","RANDOLPH","NJ","07869"
233611,"511 MITCHELL RYAN","WAKE VILLAGE","TX","75501"
233612,"511 MOLLOHAN DRIVE","MT ZION","WV","26151"
233613,"511 MULBERRY LANE","DAVIE","FL","33325"
233614,"511 N 4TH STREET SUITE C","STEUBENILLE","OH","43952"
233615,"511 N AKARD ST APT 1005","DALLAS","TX","75201"
233616,"511 N ELLIS AVENUE","DUNN","NC","28334"
233617,"511 N HIGHLAND ST","SEMINOLE","OK","74868"
233618,"511 N PAGEANT DRIVE UNIT B","ORANGE","CA","92689"
233619,"511 N PROGRESS RD","SPOKANE VALLEY","WA","99037"
233620,"511 N RANGE LINE ROAD","MORRISTOWN","IN","46161"
233621,"511 N VIRGINIA","TERRELL","TX","75160"
233622,"511 NEW HANOVER TRAIL","JACKSONVILLE","NC","28546"
233623,"511 NICOLET DR","GODFREY","IL","62035"
233624,"511 NORTH JEAN STREET","LONGVIEW","TX","75602"
233625,"511 NW 21ST TERRACE","FORT LAUDERDALE","FL","33311"
233626,"511 OBERELE STREET","NOKOMIS","IL","62075"
233627,"511 OLD FALL RIVER RD","DARTMOUTH","MA","02747"
233628,"511 OLD MILL ROAD","CASTLE HAYNE","NC","28429"
233629,"511 OLDE ROSE CT","RIVERDALE","GA","30274"
233630,"511 OLDE TOWNE RD UNIT 82317","ROCHESTER","MI","48308"
233631,"511 ORCHARD RD","PERKSIE","PA","18944"
233632,"511 OSBORNE STREET","SAINT MARYS","GA","31558"
233633,"511 PATTON STREET","DANVILLE","VA","24541"
233634,"511 PEPPERTREE DRIVE","ALCOA","TN","37701"
233635,"511 PETERS ST APT 208","CALHOUN","GA","30701"
233636,"511 PINNACLE LANE","MIFFLINBURG","PA","17844"
233637,"511 REMINGTON TRL","HUFFMAN","TX","77336"
233638,"511 RICHLAND AVENUE","WHEELING","WV","26003"
233639,"511 RIDGECLIFF COURT","NORTH AUGUSTA","SC","29841"
233640,"511 RIDGEWAY ROAD","LAKE OSWEGO","OK","97034"
233641,"511 RONALD REAGAN PARKWAY UNIT 139","LOUGHMAN","FL","33858"
233642,"511 ROSEBANK AVENUE","NASHVILLE","TN","37206"
233643,"511 RUSSELL TAVERN RD","GETTYSBURG","PA","17325"
233644,"511 S 6TH STREET","CHAMBERSBURG","PA","17201"
233645,"511 S ATLANTIC BLVD STE C","MONTEREY PARK","CA","91754"
233646,"511 S CLEVELAND AVE","BELTON","MO","64012"
233647,"511 S COLUMBIA ST","ALBANY","KY","42602"
233648,"511 S HANCOCK AVE","COLORADO SPRINGS","CO","80903"
233649,"511 S HWY 71","WEWAHITCHKA","FL","32465"
233650,"511 S PELHAM","RHINELANDER","WI","54501"
233651,"511 S RETREAT RD","WESTMINSTER","SC","29693"
233652,"511 S SANFORD ST","PONTIAC","MI","48341"
233653,"511 SALEM STREET","RISINGSUN","OH","43457"
233654,"511 SCHUMACHER BLVD","DENVER","IA","50622"
233655,"511 SE 86TH AVE","PORTLAND","OR","97216"
233656,"511 SHADOWLAWN DR","ALBANY","GA","31707"
233657,"511 SORRENTO DR","CENTERTON","AR","72719"
233658,"511 SOUTH M ST APT 2","OXNARD","CA","93030"
233659,"511 SOUTH MAIN STREET","CROWN POINT","IN","46307"
233660,"511 SOUTH SIXTH STREET","CHAMBERSBURG","PA","17201"
233661,"511 SOUTH STATE STREET","SYRACUSE","NY","13202"
233662,"511 SPANISH ACRES DRIVE","BAY ST. LOUIS","MS","39520"
233663,"511 SPRUCE DRIVE","NORWOOD","CO","81423"
233664,"511 SUMMERWIND PLANTATION DRIVE","GARNER","NC","27529"
233665,"511 SUMTER AVE","DAVIE","FL","33325"
233666,"511 SUNLIGHT LN UNIT 2","BERLIN","MD","21811"
233667,"511 SURREY LANE","LUTZ","FM","33549"
233668,"511 TERRANOVA CIR","WINTER HAVEN","FL","33884"
233669,"511 TURQUOISE ST","NEW ORLEANS","LA","70124"
233670,"511 TURQUOISE STREET","NEW ORLEANS","LA","70124"
233671,"511 UNION ST SUITE 2700","NASHVILLE","TN","37219"
233672,"511 UNION ST","PERKASIE","PA","18944"
233673,"511 UNIVERSITY AVENUE WEST","SAINT PAUL","MN","55103"
233674,"511 UNIVERSITY DRIVE","SOMERSET","KY","42501"
233675,"511 UPTAIN RD","QUINCY","FL","32352"
233676,"511 US HIGHWAY 60","IRVINGTON","KY","40144"
233677,"511 VALLEY STREET","LEWISTOWN","PA","17044"
233678,"511 VELIE DR","VISALIA","CA","93292"
233679,"511 W 125TH STREET","CHICAGO","IL","60628"
233680,"511 W 177TH ST APT 1G","NEW YORK","NY","10033"
233681,"511 W 2ND NORTH ST","MORRISTOWN","TN","37814"
233682,"511 W 44TH APT 4K","NEW YORK","NY","10036"
233683,"511 W BEECHER AVE","JACKSONVILLE","IL","62650"
233684,"511 W FELIX ST","FORT WORTH","TX","76115"
233685,"511 W GUADALUPE RD STE 12","GILBERT","AZ","85233"
233686,"511 W MAIN STREET","CALEDONIA","MN","55921"
233687,"511 W MARKET ST","STEAMBOAT ROCK","IA","50672"
233688,"511 W RICHMOND HILL ROAD UNIT I","AUGUSTA","GA","30906"
233689,"511 W SOUTH ST SUITE 145","ORLANDO","FM","32806"
233690,"511 W THOUSAND OAKS DR","PEORIA","IL","61615"
233691,"511 WALNUT STREET SUITE 1900","CINCINNATI","OH","45202"
233692,"511 WASHINGTON ST STE 102","THE DALLES","OR","97058"
233693,"511 WASHINGTON STREET STE102","THE DALLES","OR","97058"
233694,"511 WASHINGTON STREET","PARKER","PA","16049"
233695,"511 WEST 152ND STREET","NEW YORK","NY","10031"
233696,"511 WEST MAIN STREET","TRAPPE","PA","19426"
233697,"511 WEST SECOND NORTH STREET","MORRISTOWN","TN","37814"
233698,"511 WEST TERMINAL BLVD","ATLANTIC BEACH","NC","28512"
233699,"511 WEST UNIVERSITY AVENUE SUITE 12","CHAMPAIGN","IL","61820"
233700,"511 WHETSTONE ROAD","BROCKPORT","PA","15823"
233701,"511 WITTS DR","SHERWOOD","AR","72120"
233702,"511","ARRINGTON","TN","37014"
233703,"5110 11TH AVENUE A","MOLINE","IL","61265"
233704,"5110 29TH AV N","SAINT PETERSBURG","FL","33710"
233705,"5110 AUTUMN COURT","GROVETOWN","GA","30813"
233706,"5110 AZALEA TRACE DR  2513","HOUSTON","TX","77066"
233707,"5110 BLANCO DRIVE","PEARLAND","TX","77584"
233708,"5110 CLEAR HAVEN DRIVE","THOMPSONS STATION","TN","37179"
233709,"5110 DRIFTWOOD TRAIL COURT","KERNERSVILLE","NC","27284"
233710,"5110 E THUNDERBIRD ROAD","PHOENIX","AZ","85032"
233711,"5110 ELMHURST RD  B","WEST PALM BEACH","FL","33417"
233712,"5110 FORESTWOOD ROAD","ADAMSVILLE","AL","35005"
233713,"5110 HIGHLAND LAKE DRIVE","ATLANTA","GA","30349"
233714,"5110 LINDA LEE DRIVE","YUCCA VALLEY","CA","92284"
233715,"5110 N INSPIRATION RD","MISSION","TX","78573"
233716,"5110 NE 24TH AVE","VANCOUVER","WA","98663"
233717,"5110 OAKLAND WAY","SUITLAND","MD","20746"
233718,"5110 OLD CHAPEL HILL RD UNIT 101","DURHAM","NC","27707"
233719,"5110 OLD OAK LN","COLLEYVILLE","TX","76034"
233720,"5110 PANOLA VALLEY DR","LITHONIA","GA","30038"
233721,"5110 PINE STREET","BELLAIRE","TX","77401"
233722,"5110 RIVERTHUR PLACE","DULUTH","GA","30096"
233723,"5110 SANTA ROSA DRIVE","ARLINGTON","TX","76001"
233724,"5110 SPRING OAKS LANE","ELLICOTT CITY","MD","21043"
233725,"5110 STARDUST DRIVE","DURHAM","NC","27712"
233726,"5110 STONEHAVEN DRIVE","MADISON","WI","53716"
233727,"5110 W 38TH AVE","DENVER","CO","80212"
233728,"5110 WALZAN ROAD","SAN ANTONIO","TX","78218"
233729,"5110 WASHINGTON ST NUMBER 9","BOSTON","MA","02132"
233730,"5110 WESTMINSTER BLVD STE H","SANTA ANA","CA","92703"
233731,"5110 WINCHESTER DR","TITUSVILLE","FL","32780"
233732,"5110 WINSTON DRIVE","INDIANAPOLIS","IN","46226"
233733,"5110 WYNDANCE DR","MEMPHIS","TN","38135"
233734,"51101 307TH AVE","CASS LAKE","MN","56633"
233735,"51101 CHERRY ROAD","GRANGER","IN","46530"
233736,"51102 WINDING WATERS LANE","ELKHART","IN","46514"
233737,"5111 9TH ST W","BRADENTON","FL","34207"
233738,"5111 CANTEBURY COURT","CENTER POINT","AL","35215"
233739,"5111 E ORANGETHORPE AVE UNIT C","ANAHEIM","CA","92807"
233740,"5111 FINNHORSE DR","GRAND PRAIRIE","TX","75052"
233741,"5111 FLEMINGTON DRIVE","FRISCO","TX","75036"
233742,"5111 GLENWOOD AVENUE","PITTSBURGH","PA","15207"
233743,"5111 HAYBRIDGE ROAD","CHARLOTTE","NC","28269"
233744,"5111 HILL SPRINGS CT","LAWRENCEBURG","IN","47025"
233745,"5111 KINGMAN DR","INDIANAPOLIS","IN","46226"
233746,"5111 N 10TH STREET NUM 238","MCALLEN","TX","78504"
233747,"5111 N 18TH STREET","PHOENIX","AZ","85016"
233748,"5111 N PAWNEE TRAIL","LA PORTE","IN","46350"
233749,"5111 N WOLCOTT","CHICAGO","IL","60640"
233750,"5111 NORTH 10TH STREET NUMBER 312","MCALLEN","TX","78504"
233751,"5111 NW 159 ST UNIT F","MIAMI GARDENS","FL","33014"
233752,"5111 RALEIGH RD","RICHMOND","VA","23231"
233753,"5111 ROGERS AVE      STE 535","FORT SMITH","AR","72903"
233754,"5111 ROGERS AVENUE  SUITE 620","FORT SMITH","AR","72903"
233755,"5111 ROGERS AVENUE SUITE 531","FORT SMITH","AR","72903"
233756,"5111 S RIDGEWOOD AVE STE 301","PORT ORANGE","FL","32127"
233757,"5111 S RIDGEWOOD AVENUE SUITE 201","PORT ORANGE","FL","32127"
233758,"5111 SAUK TRAIL","CHICAGO","IL","60429"
233759,"5111 SKILLMAN ST APT 227","DALLAS","TX","75206"
233760,"5111 TELEGRAPH AVE 132","OAKLAND","CA","94609"
233761,"5111 TELEGRAPH AVE NO 206","OAKLAND","CA","94609"
233762,"5111 TELEGRAPH AVENUE/ NUMBER 312","OAKLAND","CA","94609"
233763,"5111 UTICA RIDGE RD","DAVENPORT","IA","52807"
233764,"5111 W DIVISION ST","CHICAGO","IL","60651"
233765,"5111 WHEELER ROAD","OXON HILL","MD","20745"
233766,"51110 OLSON ROAD","BOONE","CO","81025"
233767,"51111 WASHINGTON STREET","NEW BALTIMORE","MI","48047"
233768,"5112 20TH STREET NORTH","SAINT PETERSBURG","FL","33714"
233769,"5112 ARMSTRONG PL","SHREVEPORT","LA","71109"
233770,"5112 CANTEBURY CT","BIRMINGHAM","AL","35215"
233771,"5112 CASLAND DRIVE","RALEIGH","NC","27604"
233772,"5112 FORT BUCKNER DR","MCKINNEY","TX","75070"
233773,"5112 HORSESHOE TRAIL","DALLAS","TX","75209"
233774,"5112 HWY 81 EAST","MCDONOUGH","GA","30252"
233775,"5112 LAWNDALE AVENUE","ORANGE","TX","77630"
233776,"5112 MARY ANN LN","OKLAHOMA CITY","OK","73150"
233777,"5112 MYRTLE DRIVE","FORT PIERCE","FL","34982"
233778,"5112 POLO GATE BLVD","CHARLOTTE","NC","28216"
233779,"5112 POLO GATE BOULEVARD","CHARLOTTE","NC","28216"
233780,"5112 SIGNAL CORPS DR","FREDERICKSBURG","VA","22408"
233781,"5112 SWEETGUM CT","MCKINNEY","TX","75071"
233782,"5112 TABOR ROAD","RACINE","WI","53402"
233783,"5112 TIMBERLAND DRIVE","LITTLE ROCK","AR","72204"
233784,"5112 WOOLVERTON AVE","BALTIMORE","MD","21215"
233785,"5113 3RD PARKWAY","SACRAMENTO","CA","95823"
233786,"5113 EDINBURGH WAYE","JEFFERSON CITY","MO","65101"
233787,"5113 GUMWOOD AVE","MCALLEN","TX","78501"
233788,"5113 HAWKS CRESCENT COURT","INDIANAPOLIS","IN","46228"
233789,"5113 JOHNSON CREEK DR","JACKSONVILLE","FL","32218"
233790,"5113 MARSHALL CREEK","FLOWER MOUND","TX","75028"
233791,"5113 N HIGHWAY 17","AWENDAW","SC","29429"
233792,"5113 S HARPER AVE","CHICAGO","IL","60615"
233793,"5113 SAINT GEORGES AVENUE","BALTIMORE","MD","21212"
233794,"5113 SE 15TH SUITE D","DEL CITY","OK","73115"
233795,"5113 SOUTH LAKE ROAD","VIRGINIA BEACH","VA","23455"
233796,"5113 TARAWA RD","HOUSTON","TX","77033"
233797,"5113 WYANDOTTE ST UNIT 3N","KANSAS CITY","MO","64112"
233798,"51138 ROMEO PLANK ROAD","MACOMB","MI","48042"
233799,"5114 3RD STREET","WHITEHALL","PA","18052"
233800,"5114 54TH AVE SOUTH","SEATTLE","WA","98118"
233801,"5114 AZUSA CANYON RD","IRWINDALE","CA","91706"
233802,"5114 BALCONES WOODS DR STE 307-193","AUSTIN","TX","78759"
233803,"5114 BALCONES WOODS DR STE 307-331","AUSTIN","TX","78759"
233804,"5114 BALCONES WOODS STE 307 345","AUSTIN","TX","78759"
233805,"5114 BILBAO DR","PASCO","WA","99301"
233806,"5114 BIRCHMERE TERRACE","BOWIE","MD","20720"
233807,"5114 CROWN RIDGE DRIVE","WICHITA FALLS","TX","76310"
233808,"5114 EAST CRESCENT DRIVE","ANAHEIM","CA","92807"
233809,"5114 INGLEWOOD ROAD","LYNCHBURG","VA","24503"
233810,"5114 LOCUST STREET","LINCOLN","NE","68516"
233811,"5114 MEDICAL DR","SAN ANTONIO","TX","78229"
233812,"5114 NEW HAMPSHIRE AVE NW","WASHINGTON","DC","20011"
233813,"5114 S 27TH PO BOX 211012","MILWAUKEE","WI","53221"
233814,"5114 S OTHELLO STREET","SEATTLE","WA","98118"
233815,"5114 SHORTHORN WAY","GREENSBORO","NC","27405"
233816,"5114 SOUTH CRESTON STREET","SEATTLE","WA","98178"
233817,"5114 ST THOMAS SANCTUARY DRIVE","BOWIE","MD","20720"
233818,"5114 STAN CIRCLE","TEMPLE","TX","76502"
233819,"5114 W CORRINE DR","GLENDALE","AZ","85304"
233820,"5114 WASHINGTON STREET","DENVER","CO","80216"
233821,"51145 CLAY STREET","NEW BALTIMORE","MI","48047"
233822,"5115  45TH AVE N","ST PETERSBURG","FL","33709"
233823,"5115 31ST AVENUE NORTH","ST. PETERSBURG","FL","33710"
233824,"5115 BELLERIVE BEND DRIVE","COLLEGE STATION","TX","77845"
233825,"5115 BUFFALO SPEEDWAY SUITE 200","HOUSTON","TX","77005"
233826,"5115 CLAUSEN AVENUE","WESTERN SPRINGS","IL","60558"
233827,"5115 E 9 MILE RD","WARREN","MI","48091"
233828,"5115 E CREEK RD","BELOIT","WI","53511"
233829,"5115 EVERETT AVE","FLOYD KNOBS","IN","47119"
233830,"5115 EXCELSIOR BLVD 315","MINNEAPOLIS","MN","55416"
233831,"5115 EXCELSIOR BLVD NUM 405","MINNEAPOLIS","MN","55416"
233832,"5115 EXCELSIOR BLVD","MINNEAPOLIS","MN","55416"
233833,"5115 GOODSON LANE","TEXARKANA","AR","71854"
233834,"5115 KING ARTHUR LANE","ELLENWOOD","GA","30294"
233835,"5115 KINGS HWY","DOUGLASVILLE","GA","30135"
233836,"5115 LIBERTY HEIGHTS AVE","BALTIMORE","MD","21207"
233837,"5115 MAIN ST","HOUSTON","TX","77002"
233838,"5115 MINNIEC RD","LAS CRUCES","NM","88011"
233839,"5115 MINTVALE DRIVE","CHARLOTTE","NC","28269"
233840,"5115 MOUNT MORIAH ROAD","DURHAM","NC","27707"
233841,"5115 MUIRWOOD DRIVE","PLEASANTON","CA","94588"
233842,"5115 MUIRWOOD DRIVE","PLEASONTON","CA","94588"
233843,"5115 N 208TH ST","ELKHORN","NE","68022"
233844,"5115 N 208TH STREET","ELKHORN","NE","68022"
233845,"5115 N 27TH AVE","PHOENIX","AZ","85017"
233846,"5115 N BRIDGES DRIVE","ALPHARETTA","GA","30022"
233847,"5115 N CENTRAL PA","CHICAGO","IL","60625"
233848,"5115 N DYSART RD 202-188","LITCHFIELD PARK","AZ","85340"
233849,"5115 N DYSART RD STE 202","LITCHFIELD PARK","AZ","85340"
233850,"5115 N DYSART ROAD STE 202-300","LITCHFIELD PARK","AZ","85340"
233851,"5115 N DYSART ROAD SUITE 202-171","LITCHFIELD PARK","AZ","85340"
233852,"5115 N MARVINE STREET","PHILADELPHIA","PA","19141"
233853,"5115 N SOCRUM LOOP RD 463","LAKELAND","FL","33809"
233854,"5115 NORTH SOCRUM LOOP RD APT  66","LAKELAND","FL","33809"
233855,"5115 OLD CANTON RD APT G2","JACKSON","MS","39211"
233856,"5115 OLD CHAPEL HILL RD APT603","DURHAM","NC","27707"
233857,"5115 PEGASUS CT STE A","FREDERICK","MD","21704"
233858,"5115 S MCVICKER AVENU","CHICAGO","IL","60638"
233859,"5115 S UNIVERSITY AVE","CHICAGO","IL","60615"
233860,"5115 S VERDUN AVENUE","LOS ANGELES","CA","90043"
233861,"5115 SECOND AVE","PITTSBURGH","PA","15207"
233862,"5115 SILVERADO TRAIL","NAPA","CA","94558"
233863,"5115 SPEYSIDE COURT","CHARLOTTE","NC","28215"
233864,"5115 SPRING MOUNTAIN RD STE 201G","LAS VEGAS","NV","89146"
233865,"5115 SPRING MOUNTAIN RD STE 302","LAS VEGAS","NV","89146"
233866,"5115 SPRING MTN RD STE 201K","LAS VEGAS","NV","89146"
233867,"5115 SPRINGFIELD AVENUE","PHILADELPHIA","PA","19143"
233868,"5115 W FAIRVIEW AVE STE 101","BOISE","ID","83716"
233869,"5115 WILD CREEK FALLS WAY","LAS VEGAS","NV","89141"
233870,"5115 WINCHESTER AVE","VENTNOR CITY","NJ","08406"
233871,"5115 WINDWOOD CT","PINCKNEY","MI","48169"
233872,"5116 37TH AVE NW","MANDAN","ND","58554"
233873,"5116 BILLINGS DRIVE","HOLIDAY","FL","34690"
233874,"5116 BRANDEIS CIRCLE SOUTH","SARASOTA","FL","34243"
233875,"5116 DATEWOOD LANE","MCKINNEY","TX","75071"
233876,"5116 EAST LAKE PARKWAY SUITE 189","MCDONOUGH","GA","30253"
233877,"5116 FORREST VIEW DRIVE","CLARKSTON","MI","48346"
233878,"5116 GLENHURST LN","NEW PORT RICHEY","FL","34653"
233879,"5116 JEWELFLOWER RD","CHARLOTTE","NC","28227"
233880,"5116 KEMMONT DRIVE","DURHAM","NC","27713"
233881,"5116 N KENNEDY RD","MILTON","WI","53563"
233882,"5116 NORMA CT SE","SALEM","OR","97306"
233883,"5116 NW 66TH ST","KANSAS CITY","MO","64151"
233884,"5116 S DEERFIELD AVE","MECHANICSBURG","PA","17050"
233885,"5116 SAN ANTONIO","MIDLAND","TX","79707"
233886,"5116 VINCITOR STREET","LAS VEGAS","NV","89135"
233887,"5116 WEMBERLEY DRIVE","MEMPHIS","TN","38125"
233888,"51160 LEEWARD POINT","GRANGER","IN","46530"
233889,"5117 17TH ST CT E","BRADENTON","FL","34203"
233890,"5117 52ND STREET NW","WASHINGTON","DC","20016"
233891,"5117 BROMPTON CT","JACKSONVILLE","FL","32217"
233892,"5117 BROOKLINE SUITE 131","OKLAHOMA CITY","OK","73117"
233893,"5117 CHARLES EWELL LANE","WOODBRIDGE","VA","22193"
233894,"5117 CREST HAVEN WAY","PERRY HALL","MD","21128"
233895,"5117 DEVON LANE","AUGUSTA","GA","30909"
233896,"5117 GOODEN LANE","HIXSON","TN","37343"
233897,"5117 GREENBROOK DR","PORTSMOUTH","VA","23703"
233898,"5117 JAMES AVE S","MINNEAPOLIS","MN","55419"
233899,"5117 LOST DUTCHMAN DRIVE","LITHONIA","GA","30038"
233900,"5117 MEADOWS LAKE DR","POWDER SPRINGS","GA","30127"
233901,"5117 NESTLE AVE","TARZANA","CA","91356"
233902,"5117 OLYMPIC LANE","N. DINWIDDIE","VA","23803"
233903,"5117 PEMBURY LANE","WEST BLOOMFIELD","MI","48322"
233904,"5117 SOUTH HILL DR","MADISON","WI","53705"
233905,"5117 WATERS EDGE CV S","MEMPHIS","TN","38141"
233906,"5117 WEST MONROE ST","CHICAGO",NA,"60644"
233907,"5117 WILLOW LEAF DRIVE","SARASOTA","FL","34241"
233908,"5117 WINCHESTER AVE","VENTNOR","NJ","08406"
233909,"5117","ST.MARYS","GA","31558"
233910,"5118 APALA DRIVE","HOUSTON","TX","77032"
233911,"5118 BIRCHMERE TER","BOWIE","MD","20720"
233912,"5118 BRIARCREEK DR","STILLWATER","OK","74074"
233913,"5118 CADEN DRIVE","SAN ANTONIO","TX","78214"
233914,"5118 CHAMBERLAIN DR","NEW ORLEANS","LA","70122"
233915,"5118 DOWNING DRIVE","FORT MILL","SC","29708"
233916,"5118 E 113TH ST","GARFIELD HEIGHTS","OH","44125"
233917,"5118 E 26TH ST","TUCSON","AZ","85711"
233918,"5118 EAST VIOLA AVE","AUSTINTOWN","OH","44515"
233919,"5118 GABLE LN","HOUSTON","TX","77066"
233920,"5118 MOSS GARDEN LANE","KATY","TX","77494"
233921,"5118 NORTH AUSTIN","CHICAGO","IL","60630"
233922,"5118 OCEAN DR S","BRIGANTINE","NJ","08203"
233923,"5118 OCEAN DRIVE SOUTH","BRIGANTINE","NJ","08203"
233924,"5118 OTSEGO CT","ENCINO","CA","91436"
233925,"5118 PARKWOOD OAKS LANE","MABLETON","GA","30126"
233926,"5118 RACQUET CLUB DRIVE","ARLINGTON","TX","76017"
233927,"5118 RED BURR OAK","KATY","TX","77494"
233928,"5118 RIVERBIRCH DRIVE N","COLUMBUS","OH","43229"
233929,"5118 SO 57TH ST","OMAHA","NE","68117"
233930,"5118 STOKELY RD","KNOXVILLE","TN","37918"
233931,"5118 VICTORIA AVENUE","NORTH CHARLESTON","SC","29405"
233932,"5118 W VAN BUREN","CHICAGO","IL","60644"
233933,"5118 WILLOWGLEN DR","HOUSTON","TX","77033"
233934,"5118 WINNEQUAH RD","MONONA","WI","53716"
233935,"5118 WINTERGREEN DR","MADISON","WI","53704"
233936,"5118","BALTIMORE","MD","21236"
233937,"51181 ENCHANTED OAK CT","SOUTH BEND","IN","46628"
233938,"51187 BLUE RIVER DR","FINN ROCK","OR","97488"
233939,"5119 13TH AVENUE","EASTMAN","GA","31023"
233940,"5119 2ND STREET NW","WASHINGTON","NY","20011"
233941,"5119 63RD STREET","WOODSIDE","NY","11377"
233942,"5119 AMBERGATE LANE","DALLAS","TX","75287"
233943,"5119 BRIARWOOD RD","WOODSTOCK","IL","60098"
233944,"5119 DUNCAN RD","MONROE","NC","28110"
233945,"5119 E 22ND STREET","SIOUX FALLS","SD","57110"
233946,"5119 GLENMEADOW DR","HOUSTON","TX","77096"
233947,"5119 GRASSY KNOLL DRIVE","TAVARES","FL","32778"
233948,"5119 HIGHLAND RD SUITE 275","WATERFORD","MI","48329"
233949,"5119 KELLER RIDGE DRIVE","CLAYTON","CA","94517"
233950,"5119 LAKE IN THE WOODS BLVD","LAKELAND","FL","33813"
233951,"5119 LIVE OAK ST STE 216","DALLAS","TX","75206"
233952,"5119 LORRAINE DR","FRISCO","TX","75034"
233953,"5119 MAPLEWOOD AVE 318","LOS ANGELES","CA","90004"
233954,"5119 MOORE STREET","SAINT CLOUD","FL","34771"
233955,"5119 N 19TH AVE SUITE B","PHOENIX","AZ","85015"
233956,"5119 NE 188TH STREET","LAKE FOREST PARK","WA","98155"
233957,"5119 PATONIA AVE","DALLAS","TX","75241"
233958,"5119 SPRINGFIELD AVE","PHILADELPHIA","PA","19143"
233959,"5119 STUYVESANT LANE","HOUSTON","TX","77021"
233960,"5119 SUMMIT HILL DR","DALLAS","TX","75287"
233961,"5119 TIMBERHURST","SAN ANTONIO","TX","78250"
233962,"5119 VANSANT TRAIL","POWDER SPRINGS","GA","30127"
233963,"51195 SCHOENHERR","SHELBY TOWNSHIP","MI","48315"
233964,"511A WOODLAND DR","PENSACOLA","FL","32503"
233965,"511S PRAIRIE ST","BROOKSTON","IN","47923"
233966,"511W 182ND STREET","NEW YORK","NY","10033"
233967,"512  N MAPLE STREET","FRUITA","CO","81521"
233968,"512 1/2 EAST GRAND AVE SUITE 200","DES MOINES","IA","50309"
233969,"512 290TH ST","WEST BRANCH","IA","52358"
233970,"512 2ND AVENUE NORTH APARTMENT 301","GREAT FALLS","MT","59401"
233971,"512 30TH AVENUE EAST","ALEXANDRIA","MN","56308"
233972,"512 36TH ST","WEST DES MOINES","IA","50265"
233973,"512 3RD AVENUE SOUTHWEST APT 13","ROCHESTER","MN","55902"
233974,"512 45TH AVE SO ST","ST  PETERSBURG","FL","33705"
233975,"512 4TH ST SW","MEDFORD","MN","55049"
233976,"512 5TH ST NW","CANTON","OH","44703"
233977,"512 6TH STREET","CALUMET","MI","49913"
233978,"512 77TH ST W","EAGAN","MN","55121"
233979,"512 8TH AVENUE SOUTH SUITE 103","NASHVILLE","TN","37203"
233980,"512 BAY MEADOW LANE","LAFAYETTE","LA","70507"
233981,"512 BLACK BEAR COURT","CHESAPEAKE","VA","23323"
233982,"512 BOOTH ROAD","CHAPEL HILL","NC","27516"
233983,"512 BOWIE DRIVE","UNIVERSAL CITY","TX","78148"
233984,"512 BROADWAY STREET","MYRTLE BEACH","SC","29577"
233985,"512 BROCKWAY ROAD","CHEHALIS","WA","98532"
233986,"512 BROWN DRIVE","NEW BERN","NC","28560"
233987,"512 BUTTONWOOD DRIVE","DOWNINGTOWN","PA","19335"
233988,"512 CANEBRAKE DRIVE","ANDERSON","SC","29621"
233989,"512 CANTERBURY DR","SALINE","MI","48176"
233990,"512 CAPITAL AVENUE","FRANKFORT","KY","40601"
233991,"512 CASTLE DRIVE","EDGARD","LA","70049"
233992,"512 CASTLEBURY CT","FRANKLIN","TN","37064"
233993,"512 CENTER DR","LUXEMBURG","WI","54217"
233994,"512 CHAMPIONSHIP DRIVE","HARLEYSVILLE","GA","19438"
233995,"512 CHESTNUT STREET - BOX 558","WINNETKA","IL","60093"
233996,"512 CHURCH STREET","ATHENS","PA","18810"
233997,"512 CIRCLE TRACE RD","MONROE","NC","28110"
233998,"512 COAKE ST","DANVILLE","IL","61834"
233999,"512 COLLEGE STREET","BOWLING GREEN","KY","42101"
234000,"512 COLLINS AVENUE","PENNSBORO","WV","26415"
