"ID","Address","City","State","Zip"
151001,"2801 LAS VEGAS TRAIL SUITE 101","FORT WORTH","TX","76116"
151002,"2801 LEVICK ST","PHILA","PA","19149"
151003,"2801 LEXINGTON DRIVE","BISMARCK","ND","58503"
151004,"2801 MAIN ST 427","IRVINE","CA","92614"
151005,"2801 MARGOTS AVE","WAKE FOREST","NC","27587"
151006,"2801 MCCANLESS RD","NOLENSVILLE","TN","37135"
151007,"2801 MELINA DR","YUKON","OK","73099"
151008,"2801 MILLBROOK RD","LITTLE ROCK","AR","72227"
151009,"2801 MILTON AVE","DALLAS","TX","75205"
151010,"2801 MILWAUKEE ST","DENVER","CO","80205"
151011,"2801 MISSOURI AVENUE SUITE 7 E","LAS CRUCES","NM","88011"
151012,"2801 MISSOURI AVENUE SUITE 7","LAS CRUCES","NM","88011"
151013,"2801 MONTEREY SALINAS HIGHWAY","MONTEREY","CA","93940"
151014,"2801 MORTON ROAD","RALEIGH","NC","27604"
151015,"2801 N IZABEL STREET","FLAGSTAFF","AZ","86004"
151016,"2801 N RAINBOW BLVD APT 250","LAS VEGAS","NV","89108"
151017,"2801 N ROCK RD NO 2106","WICHITA","KS","67226"
151018,"2801 N TOWNE AVE UNIT A","POMONA","CA","91767"
151019,"2801 NESMITH ESTATES LANE","PLANT CITY","FL","33566"
151020,"2801 NORTH IZABEL","FLAGSTAFF","AZ","86004"
151021,"2801 NORTH VINE","MCALESTER","OK","74501"
151022,"2801 NW 23RD BLVD APT J66","GAINESVILLE","FL","32605"
151023,"2801 NW 23RD BLVD L 77","GAINESVILLE","FL","32605"
151024,"2801 OCEAN PARK BLVD 191","SANTA MONICA","CA","90405"
151025,"2801 OCEAN PARK BLVD SUITE 331","SANTA MONICA","CA","90405"
151026,"2801 OLIVIA ST","ALBANY","GA","31705"
151027,"2801 OSLER DRIVE SUITE 120","GRAND PRAIRIE","TX","75051"
151028,"2801 PARK COLONY DRIVE","NORCROSS","GA","30093"
151029,"2801 POWELL CREEK DRIVE","CHARLOTTESVILLE","VA","22911"
151030,"2801 PRESCOTT LANE","SEAGOVILLE","TX","75159"
151031,"2801 QUEBEC STREET NW","WASHINGTON","DC","20008"
151032,"2801 RACE ST","FORT WORTH","TX","76111"
151033,"2801 RANDOLPH ROAD SUITE 200","CHARLOTTE","NC","28211"
151034,"2801 RICHMOND RD   STE 132","TEXARKANA","TX","75503"
151035,"2801 RICHMOND RD 190","TEXARKANA","TX","75503"
151036,"2801 RICHMOND ROAD SUITE 29","TEXARKANA","TX","75503"
151037,"2801 RIVERVIEW ROAD APT 2111","BIRMINGHAM","AL","35242"
151038,"2801 S 29TH ST","ST JOSEPH","MO","64503"
151039,"2801 S 65TH STREET","PHILADELPHIA","PA","19142"
151040,"2801 S BAY ST","EUSTIS","FL","32726"
151041,"2801 S KANNER HIGHWAY","STUART","FL","34994"
151042,"2801 S KING DR APT 118","CHICAGO","IL","60616"
151043,"2801 S KING DRIVE     APARTMENT 802","CHICAGO","NY","60616"
151044,"2801 S RANKIN ST","EDMOND","OK","73013"
151045,"2801 S UNIVERSITY AVE","LITTLE ROCK","AR","72204"
151046,"2801 S VALLEY VIEW BLVD STE 16","LAS VEGAS","NV","89102"
151047,"2801 SALZEDO STREET","CORAL GABLES","FL","33134"
151048,"2801 SAWGRASS LP","RICHLAND","WA","99354"
151049,"2801 SOUTHFIELD DR","QUINCY","IL","62301"
151050,"2801 STERLING ROAD","OMER","MI","48749"
151051,"2801 SW 15TH ST","OCALA","FL","34474"
151052,"2801 SW 31ST AVENUE SUITE 2B","MIAMI","FL","33133"
151053,"2801 SW COLLEGE ROAD SUITE 4","OCALA","FL","34474"
151054,"2801 TAMARA CT","MINDEN","NV","89423"
151055,"2801 TONBRIDGE DRIVE","WILMINGTON","DE","19810"
151056,"2801 UNIONTOWN ROAD","JAMESVILLE","NC","27962"
151057,"2801 VIRGINIA AVENUE SOUTH","SAINT LOUIS PARK","MN","55426"
151058,"2801 W BANCROFT MS 461","TOLEDO","OH","43606"
151059,"2801 W BANCROFT ST MS 601 WO4276A","TOLEDO","OH","43606"
151060,"2801 W BANCROFT ST","TOLEDO","OH","43606"
151061,"2801 W BANCROFT STREET","TOLEDO","OH","43606"
151062,"2801 W PLEASANT RIDGE ROAD","DALWORTHINGTON GARDE","TX","76016"
151063,"2801 WADE HAMPTON BLVD STE 115-127","TAYLORS","SC","29687"
151064,"2801 WADE HAMPTON BLVD STE 201","TAYLORS","SC","29687"
151065,"2801 WASHINGTON RD STE 107 RM 312","AUGUSTA","GA","30909"
151066,"2801 WASHINGTON ROAD","AUGUSTA","GA","30909"
151067,"2801 WATERWALL DR APT 730","HOUSTON","TX","77056"
151068,"2801 WEDGEDALE AVE","DURHAM","NC","27703"
151069,"2801 WEST 4OTH","PINE BLUFF","AR","71603"
151070,"2801 WEST MAIN STREET","RUSSELLVILLE","AR","72801"
151071,"2801 WESTERN AVE APT 103","SEATTLE","WA","98121"
151072,"2801 WINGREN ROAD","IRVING","TX","75062"
151073,"28010 39TH AVE S","AUBURN","WA","98001"
151074,"28010 W CURRY DRIVE APT 624","KILLEEN","TX","76542"
151075,"28012 LINDA LANE","SANTA CLARITA","CA","91350"
151076,"28012 NORTH 33RD AVENUE","PHOENIX","AZ","85083"
151077,"28016 185 PL SE","KENT","WA","98042"
151078,"28019 NE 177TH ST","LAWSON","MO","64062"
151079,"2802  N WILD ROSE ST","WICHITA","KS","67205"
151080,"2802  WEDGEWOOD DRIVE","NPAERVILLE","IL","60565"
151081,"2802 13TH STREET WEST","BILLINGS","MT","59102"
151082,"2802 2ND AVE W","HIBBING","MN","55746"
151083,"2802 53RD ST","MOLINE","IL","61265"
151084,"2802 84TH AVE NE","NORMAN","OK","73026"
151085,"2802 ALDERMAN CT","GREENSBORO","NC","27408"
151086,"2802 ALTAMA AVENUE","BRUNSWICK","GA","31525"
151087,"2802 ARGENTINA PLACE","BOWIE","MD","20716"
151088,"2802 BELLE CHASSE HWY","GRETNA","LA","70053"
151089,"2802 BENJAMIN E MAYS DRIVE","ATLANTA","GA","30311"
151090,"2802 CAMULOS PL","LOS ANGELES","CA","90023"
151091,"2802 CONWAY WALLROSE RD","BADEN","PA","15005"
151092,"2802 DESERT CANDLE","ROUND ROCK","TX","78681"
151093,"2802 EAST 1ST STREET APT B","TUCSON","AZ","85716"
151094,"2802 EDGEWICK ELM ST","FRESNO","TX","77545"
151095,"2802 ELLENDALE PLACE","LOS ANGELES","CA","90007"
151096,"2802 ENNIS RD","NASHVILLE","TN","37210"
151097,"2802 N 18TH ST","ABILENE","TX","79603"
151098,"2802 N 37TH AVE SUITE 10","PHENIX","AZ","85009"
151099,"2802 N MILLBROOK DR","PEORIA","IL","61604"
151100,"2802 N STREET SE APT 301","WASHINGTON","DC","20019"
151101,"2802 N WILD ROSE ST","WICHIT","KS","67205"
151102,"2802 NW 132ND STREET SUITE 833","MIAMI","FL","33054"
151103,"2802 PLAZA CT APT F","MARIOIN","SC","29571"
151104,"2802 POPLAR CIRCLE","DOTHAN","AL","36301"
151105,"2802 SARATOGA AVE APT 2","CLEVELAND","OH","44109"
151106,"2802 SILVERBEND LN","ROSHARON","TX","77583"
151107,"2802 SOUTHBRIDGE COURT","BOWIE","MD","20721"
151108,"2802 SUMMER LAKE DRIVE","ATLANTA","GA","30350"
151109,"2802 SUSQUEHANNA AVE","PHILADELPHIA","PA","19121"
151110,"2802 VILLAGE DRIVE","FARIBAULT","MN","55021"
151111,"2802 W 42ND STREET","LOS ANGELES","CA","90008"
151112,"2802 WINTERBOURNE DRIVE","UPPER MARLBORO","MD","20774"
151113,"28022 CARPENTER ROAD","MILTON","DE","19968"
151114,"28025 STURBRIDGE DRIVE","CASTAIC","CA","91384"
151115,"28026 N BRUCE RD","CHATTAROY","WA","99003"
151116,"28026 OAKLAR DR","SANTA CLARITA","CA","91350"
151117,"28026 RIVER ROAD","MT HERMON","LA","70450"
151118,"28027 LINDA LN","SANTA CLARITA","CA","91350"
151119,"2803 31ST STREET","OAK BROOK","IL","60523"
151120,"2803 53RD STREET","GALVESTON","TX","77551"
151121,"2803 AVENUE D","COUNCIL BLUFFS","IA","51501"
151122,"2803 B PHILADELPHIA PIKE 112","CLAYMONT","DE","19703"
151123,"2803 BUTTERFIELD RD STE 200","OAK BROOK","IL","60523"
151124,"2803 CHESTERFIELD AVE","BALTIMORE","MD","21213"
151125,"2803 EMMORTON ROAD","ABINGDON","MD","21009"
151126,"2803 GULF TO BAY BLVD UNIT 428","CLEARWATER","FL","33759"
151127,"2803 GULF TO BAY BOULEVARD","CLEARWATER","FL","33759"
151128,"2803 HATBORO PLACE","UPPER MARLBORO","MD","20774"
151129,"2803 HEATHER GREEN BLVD",":AGRANGE","KY","40031"
151130,"2803 IDAHO TERRACE","OTTAWA","KS","66067"
151131,"2803 JEFF ROAD","HARVEST","AL","35749"
151132,"2803 MARYLAND CIRCLE WEST","MEMPHIS","TN","38133"
151133,"2803 OAK AVENUE","NEWPORT NEWS","VA","23607"
151134,"2803 OXFORD LANE","CHENEY","WA","99004"
151135,"2803 PHILADELPHIA PIKE SUITE B-1288","CLAYMONT","DE","19703"
151136,"2803 ROLLING MEADOWS DR","NAPERVILLE","IL","60564"
151137,"2803 SPIRIT FALLS CT","BRASELTON","GA","30517"
151138,"2803 SUNSET AVENUE","ROCKY MOUNT","NC","27804"
151139,"2803 SUNSET STRIP STREET","TUSKEGEE","AL","36088"
151140,"2803 TAYLORSVILLE ROAD","LOUISVILLE","KY","40205"
151141,"2803 TEXAS LAUREL DRIVE","KATY","TX","77494"
151142,"2803 W ESTRELLA STREET  UNIT 1","TAMPA","FL","33629"
151143,"2803 WINDRIDGE CIRCLE","HIGHLANDS RANCH","CO","80126"
151144,"2803 ZACH SCOTT STREET","AUSTIN","TX","78723"
151145,"28030 SE 440TH ST","ENUMCLAW","WA","98022"
151146,"28037 EVERTON CREEK RD NE","BLACKDUCK","MN","56630"
151147,"28039 W NORTHPOINTE PARKWAY","LAKE BARRINGTON","IL","60010"
151148,"2804 1/2 S NORTON AVE","LOS ANGELES","CA","90018"
151149,"2804 BARTLETT ROAD SUITE 2","MEMPHIS","TN","38134"
151150,"2804 BEVIS LN","WAXHAW","NC","28173"
151151,"2804 BROOKHAVEN DRIVE","KINSTON","NC","28504"
151152,"2804 CAMERON WAY","MESQUITE","TX","75181"
151153,"2804 CAMPAGNA DR","CHALMETTE","LA","70043"
151154,"2804 CASEY KEY RD","NOKOMIS","FL","34275"
151155,"2804 COLE CASTLE DRIVE","LEWISVILLE","TX","75056"
151156,"2804 COPE LANE","HUEYTOWN","AL","35023"
151157,"2804 CREEKSIDE DRIVE","LOUISVILLE","KY","40241"
151158,"2804 CRESCENT AVENUE","HOMEWOOD","AL","35209"
151159,"2804 DAVID DRIVE  APT B","METAIRIE","LA","70003"
151160,"2804 DUMESNIL STREET","LOUISVILLE","KY","40211"
151161,"2804 EAST MANOA ROAD","HONOLULU","HI","96822"
151162,"2804 FOREST CREEK LN","PEARLAND","TX","77584"
151163,"2804 GATEWAY OAKS DR STE 200","SACRAMENTO","CA","95833"
151164,"2804 GATEWAY OAKS DRIVE","SACRAMENTO","CA","95833"
151165,"2804 GREEN TEE DRIVE","PEARLAND","TX","77581"
151166,"2804 GREENVILLE AVE","DALLAS","TX","75206"
151167,"2804 HAMPSHIRE AVENUE SOUTH","SAINT LOUIS PARK","MN","55426"
151168,"2804 HUTCHISON STREET","VISTA","CA","92084"
151169,"2804 LEXINGTON DRIVE","HAZEL CREST","IL","60429"
151170,"2804 MARTIN BRANCH RD","MCEWEN","TN","37101"
151171,"2804 MT MCKINLEY WAY","LEXINGTON","KY","40517"
151172,"2804 MUMPHREY ROAD","CHALMETTE","LA","70043"
151173,"2804 N WALROND AVE","KANSAS CITY","MO","64117"
151174,"2804 NORTH CITY PARK BLVD","ALEXANDRIA","LA","71301"
151175,"2804 NORTH HIGHVIEW AVENUE","ALTADENA","CA","91001"
151176,"2804 NW LOIS LANE","ANKENY","IA","50023"
151177,"2804 OSAGE STREET","SAINT LOUIS","MO","63118"
151178,"2804 PATTEM HILL DRIVE","MATTHEWS","NC","28105"
151179,"2804 RANDLEMAN RD STE G","GREENSBORO","NC","27406"
151180,"2804 RICHMOND RD","BEACHWOOD","OH","44122"
151181,"2804 ROLLING HILLS LANE","GRAND PRAIRIE","TX","75052"
151182,"2804 ROLLING HILLS LN","GRAND PRAIRIE","TX","75052"
151183,"2804 S JALEE CT","WALNUT","CA","91789"
151184,"2804 S SAWYER AVE","CHICAGO","IL","60623"
151185,"2804 SAINT PAUL STREET APT 3","BALTIMORE","MD","21218"
151186,"2804 SARATOGA AVE","LAKE HAVASU CITY","AZ","86406"
151187,"2804 ST HWY 12","OXFORD","NY","13830"
151188,"2804 SUNBERRY WAY","YUKON","OK","73099"
151189,"2804 SW 12 TERRACE","LEES SUMMIT","MO","64081"
151190,"2804 TEMPLE CREST DR","BIRMINGHAM","AL","35209"
151191,"2804 THOMAS TOLBERT AVE","DALLAS","TX","75215"
151192,"2804 WADE DRIVE","HATTIESBURG","MS","39401"
151193,"2804 WALKER COURT SE","SMYRNA","GA","30080"
151194,"2804 WEST STATE STREET","MILWAUKEE","WI","53208"
151195,"2804 WHITE BIRCH CT","WOODBRIDGE","VA","22192"
151196,"2804 WILLIAMSBURG ST","SARASOTA","FL","34231"
151197,"2804 WILLOW LANE","MELISSA","TX","75454"
151198,"28043 MAGNUM DRIVE","HILLIARD","FL","32046"
151199,"28045 COUNTY RD 66 N","LOXLEY","AL","36551"
151200,"28046 CO RD 16","ELKHART","IN","46516"
151201,"2805 107TH STREET","LUBBOCK","TX","79423"
151202,"2805 9TH STREET NORTH","SAINT CLOUD","MN","56303"
151203,"2805 APACHE LANE","PROVO","UT","84604"
151204,"2805 AVENUE U APT 304","HONDO","TX","78861"
151205,"2805 BLAINE STREET 120","CALDWELL","ID","83605"
151206,"2805 BLUESTEM DRIVE","LAWRENCE","KS","66047"
151207,"2805 BOWERS AVE","SANTA CLARA","CA","95051"
151208,"2805 BRITE COURT","CROFTON","MD","21114"
151209,"2805 CAMELLIA STREET","TUSKEGEE","AL","36088"
151210,"2805 CAMINO DEL MAR 36","DEL MAR","CA","92014"
151211,"2805 CANTABRIAN DR","KILLEEN","TX","76542"
151212,"2805 CHENEY RD","SCHERTZ","TX","78108"
151213,"2805 COLE CASTLE DR","LEWISVILLE","FL","75056"
151214,"2805 COLONY PARK DRIVE","PEARL","MS","39208"
151215,"2805 COPPER RIDGE CT","LAKE MARY","FL","34746"
151216,"2805 COUNTRY CLUB PARKWAY","GARLAND","TX","75043"
151217,"2805 COUNTY ROAD 179","ALVIN","TX","77511"
151218,"2805 D MEADOW PARK DRIVE","BEDFORD","TX","76021"
151219,"2805 E 62ND STREET","KANSAS CITY","MO","64130"
151220,"2805 E OAKLAND PARK BLVD STE 600","FORT LAUDERDALE","FL","33306"
151221,"2805 EAST 5TH STREET","LEHIGH ACRES","FL","33972"
151222,"2805 EASTERN AVENUE","DAVENPORT","IA","52803"
151223,"2805 ERINRIDGE ROAD","RALEIGH","NC","27610"
151224,"2805 FALLING TREE CIRCLE","ORLANDO","FL","32837"
151225,"2805 FOX CREEK TRL","ARLINGTON","TX","76017"
151226,"2805 GARROW","HOUSTON","TX","77003"
151227,"2805 GEMSTONE CIRCLE","PACE","FL","32571"
151228,"2805 HARD ROCK CIR","BRYAN","TX","77807"
151229,"2805 HAVERHILL ROAD","SPRINGFIELD","IL","62711"
151230,"2805 HIDDEN FALLS COVE","CORDOVA","TN","38016"
151231,"2805 HOLMES AVE","DAYTON","OH","45406"
151232,"2805 HUBBARD CIRCLE","AUSTIN","TX","78746"
151233,"2805 JENNA REST","LEXINGTON","KY","40511"
151234,"2805 KERNVILLE DRIVE","WYLIE","TX","75098"
151235,"2805 KLEIN CT","CROFTON","MD","21114"
151236,"2805 LONGBRANCH ROAD","UNION","KY","41091"
151237,"2805 MCRAE ROAD SUITE 3A","N CHESTERFIELD","VA","23235"
151238,"2805 MEADOWLARK DRIVE","MESQUITE","TX","75149"
151239,"2805 MILLBROOK ROAD","LITTLE ROCK","AR","72227"
151240,"2805 MILLWOOD AVENUE SUITE E","COLUMBIA","SC","29205"
151241,"2805 MOUNT OLIVET CHURCH RD","FLEMING","GA","31309"
151242,"2805 MURRAY HILL RD","KINSTON","NC","28504"
151243,"2805 N ARABIAN VIEW DR","JANESVILLE","WI","53545"
151244,"2805 N BELL AVE","DENTON","TX","76209"
151245,"2805 N COMMERCE PARKWAY","MIRAMAR","FL","33025"
151246,"2805 NE 184TH AVE","VANCOUVER","WA","98682"
151247,"2805 NOLINA LN","ROUND ROCK","TX","78681"
151248,"2805 NW ASHWOOD DR","CORVALLIS","OR","97330"
151249,"2805 PEACOCK DRIVE","YOUNGSTOWN","OH","44511"
151250,"2805 POLK AVE","OGDEN","UT","84403"
151251,"2805 QUAIL RUN DRIVE","ROUND ROCK","TX","78681"
151252,"2805 RIES LN","AMARILLO","TX","79118"
151253,"2805 SHEARER ROAD","BUCYRUS","OH","44820"
151254,"2805 SHOREWOOD DR","SHREVEPORT","LA","71119"
151255,"2805 SONORA DRIVE SUITE 3","MEMPHIS","TN","38115"
151256,"2805 STATE HIGHWAY 67","JOHNSTOWN","NY","12095"
151257,"2805 STEARNS HILL ROAD","WALTHAM","MA","02451"
151258,"2805 US 27 S APT 16","SEBRING","FL","33870"
151259,"2805 WEBER STREET","FORT WORTH","TX","76106"
151260,"2805 WELLS ROAD","IRVING","TX","75061"
151261,"2805 WEST AVE","DISTRICT HEIGHTS","MD","20747"
151262,"2805 WEST ONA STREET","BOISE","ID","83705"
151263,"2805 WEST SUMMIT BOULEVARD","SPOKANE","WA","99201"
151264,"2805 WHITE OAK DR","DECATUR","GA","30032"
151265,"2805 WOODMERE DRIVE","DALLAS","TX","75233"
151266,"2805 WOODSDALE BLVD","LINCOLN","NE","68502"
151267,"2805 YELLOW ROSE LN","LANCASTER","TX","75134"
151268,"28050 LIANA LN","VALENCIA","CA","91354"
151269,"28050 POWERS STREET","WESTLAND","MI","41816"
151270,"28051 US HIGHWAY 19 NORTH SUITE 106","CLEARWATER","FL","33761"
151271,"28055 GROSSE POINT DR","MENIFEE","CA","92586"
151272,"28055 SHENANDOAH ST","SOUTHFIELD","MI","48076"
151273,"28057 BRADLEY RD","MENIFEE","CA","92586"
151274,"28057 CALLE CASERA","TEMECULA","CA","92592"
151275,"280581","NORTHRIDGE","CA","91328"
151276,"28059 LAKES EDGE ROAD / PO BOX 2489","LAKE ARROWHEAD","CA","92352"
151277,"2806 BOARDWALK","FLORENCE","SC","29505"
151278,"2806 CALIFORNIA ROAD","ELKHART","IN","46514"
151279,"2806 CASCADE MIST","SAN ANTONIO","TX","78261"
151280,"2806 COURTOUSE ROAD","HOPEWELL","VA","23860"
151281,"2806 DENISON AVENUE","SNYDER","TX","79549"
151282,"2806 E NORMAN DR","VISALIA","CA","93292"
151283,"2806 EDGEWATER DR","AUSTIN","TX","78733"
151284,"2806 FLEUR DR APT 213","DES MOINES","IA","50321"
151285,"2806 FRASIER KNOLLS CT","KATY","TX","77494"
151286,"2806 GRESHAM LAKE RD","RALEIGH","NC","27615"
151287,"2806 GRESHAM LAKE ROAD","RALEIGH","NC","27615"
151288,"2806 LEONARD RD","LEXINGTON","NC","27295"
151289,"2806 LIBERTY STREET","EASTON","PA","18045"
151290,"2806 MEYER AVENUE","GLENSIDE","PA","19038"
151291,"2806 NEW HANOVER DR","GREENSBORO","NC","27408"
151292,"2806 NW 52ND CT","FORT LAUDERDALE","FL","33309"
151293,"2806 PAGE RD","MORRISVILLE","NC","27560"
151294,"2806 PEACOCK GROVE LANE","PLANT CITY","FL","33566"
151295,"2806 REID MEADOWS DRIVE","CHARLOTTE","NC","28208"
151296,"2806 REYNOLDA RD MB129","WINSTON-SALEM","NC","27106"
151297,"2806 S KINGSWAY RD","SEFFNER","FL","33584"
151298,"2806 STRAWBERRY COVE","DANVILLE","IL","61832"
151299,"2806 TARTARY DRIVE","TALLAHASSEE","FL","32301"
151300,"2806 TIMBER RIDGE DRIVE","DUNCAN","OK","73533"
151301,"2806 TOPAZ WAY","TALLAHASSEE","FM","32309"
151302,"2806 TROPHY CLUB DRIVE","TROPHY CLUB","TX","76262"
151303,"2806 TROTTER PARK LANE","GLENARDEN","MD","20706"
151304,"2806 W FAIRVIEW DRIVE","RIALTO","CA","92377"
151305,"2806 WEST AVENUE","DISTRICT HEIGHTS","MD","20747"
151306,"28062 FALLBROOK DR","HAYWARD","CA","94542"
151307,"28068 BRAIDWOOD DR","RCH PALOS VRD","CA","90275"
151308,"2807 ALLEN ST  STE 735","DALLAS","TX","75204"
151309,"2807 ALLEN ST NUMBER 425","DALLAS","TX","75204"
151310,"2807 ALLEN STE 352","DALLAS","TX","75204"
151311,"2807 DUETTE ROAD","MYAKKA CITY","FL","34251"
151312,"2807 EMERALD COURT","ATLANTA","GA","30311"
151313,"2807 FOREST HOLLOW LN APT 3324","ARLINGTON","TX","76006"
151314,"2807 GLENLOCH ROAD","FRANKLIN","GA","30217"
151315,"2807 GRENNOCK DR","AUSTIN","TX","78745"
151316,"2807 HOSPITAL BOULEVARD","GRAND PRAIRIE","TX","75051"
151317,"2807 MAGNA VISTA DR","DALLAS","TX","75216"
151318,"2807 MORGENSEN DR","HOUSTON","TX","77088"
151319,"2807 MULBERRY COURT","POUGHKEEPSIE","NY","12603"
151320,"2807 NW 30TH TERRACE","GAINESVILLE","FL","32605"
151321,"2807 OAKDALE","TEMPLE","TX","76502"
151322,"2807 PEARL STREET APT 327","NACOGDOCHES","TX","75965"
151323,"2807 PEMBROKE LN C8","SAINT JOSEPH","MO","64506"
151324,"2807 PEPPER OAKS DR","SACRAMENTO","CA","95827"
151325,"2807 PRINCETON ST NUM 5","SARASOTA","FL","34237"
151326,"2807 RAVEN RIDGE DR","PEARLAND","TX","77584"
151327,"2807 SELBY AVE","LOS ANGELES","CA","90064"
151328,"2807 SHADY GROVE COURT","BALDWIN","MD","21013"
151329,"2807 SW 39TH TER","CAPE CORAL","FL","33914"
151330,"2807 TRACE AVE","KANSAS CITY","MO","64109"
151331,"2807 W 7TH ST STE 2","PLAINVIEW","TX","79072"
151332,"2807 WASHINGTON RD 123","AUGUSTA","GA","30909"
151333,"2807 WASHINGTON ROAD STE B-259","AUGUSTA","GA","30909"
151334,"2807 WESLEYAN DRIVE","PALM HARBOR","FL","34684"
151335,"2807 WOODS ESTATES","KINGWOOD","TX","77339"
151336,"28075 DIAZ ROAD UNIT B","TEMECULA","CA","92590"
151337,"28075 LOGAN HORNSMILL ROAD","SUGAR GROVE","OH","43155"
151338,"280765 E 1790 ROAD","COMANCHE","OK","73529"
151339,"2808 ARSENAL STREET","SAINT LOUIS","MO","63118"
151340,"2808 ASTON WOODS","THOMPSON STATION","TN","37179"
151341,"2808 BEECH HILL RD","WELLSVILLE","NY","14895"
151342,"2808 BEVIS LANE","WAXHAW","NC","28173"
151343,"2808 BLIDGEN ROAD","JOHNS ISLAND","SC","29455"
151344,"2808 BOSTON AVENUE","DES MOINES","IA","50310"
151345,"2808 BROOKSHIRE DRIVE","SOUTHLAKE","TX","76092"
151346,"2808 DARWIN DRIVE","RIVERSIDE","CA","92504"
151347,"2808 E COUNTY LINE ROAD","LITHIA SPRINGS","GA","30122"
151348,"2808 E JOPPA RD LOWER LEVEL","PARKVILLE","MD","21234"
151349,"2808 E JOPPA RD","PARKVILLE","MD","21234"
151350,"2808 E RENO STREET","BROKEN ARROW","OK","74014"
151351,"2808 ELM AVENUE","BOULDER","CO","80305"
151352,"2808 ELMWOOD AVENUE","MACKSBURG","IA","50155"
151353,"2808 GILEAD AVENUE","ZION","IL","60099"
151354,"2808 HATHBORO PLACE","UPPER MARLBORO","MD","20774"
151355,"2808 KINGSLAND AVENUE","BRONX","NY","10469"
151356,"2808 LADDIE WAY","GRAND JUNCTION","CO","81506"
151357,"2808 LINDIN WAY","BALTIMORE","MD","21163"
151358,"2808 MAYFIELD ROAD APT 305","CLEVELAND HEIGHTS","OH","44118"
151359,"2808 MEADOW DRIVE","LAWRENCE","KS","66047"
151360,"2808 MORNINGSIDE DR","TALLAHASSEE","FL","32301"
151361,"2808 N NARRAGANSETT AVE","CHICAGO","IL","60634"
151362,"2808 NE MLK JR BLVD 31","PORTLAND","OR","97212"
151363,"2808 NORTHWESTERN AVENUE","RACINE","WI","53404"
151364,"2808 PRAIRIE VIEW DRIVE","NORTHLAKE","TX","76226"
151365,"2808 RIDGE VIEW CT","XENIA","OH","45385"
151366,"2808 RIVERPLACE DR 3060","ARLINGTON","TX","76006"
151367,"2808 S 36TH ST","FORT SMITH","AR","72903"
151368,"2808 S MILL IRON ROAD","MUSKEGON","MI","49444"
151369,"2808 SHADOW LANE","NASHVILLE","TN","37216"
151370,"2808 SOMOOTH STONE TRL","RALEIGH","NC","27610"
151371,"2808 SOUTHAMPTON RD","PHILADELPHIA","PA","19154"
151372,"2808 SOUTHAMPTON ROAD","PHILADELPHIA","PA","19154"
151373,"2808 SPRINGDALE RD","BRNSWICK","GA","31520"
151374,"2808 STANTONSBURG RD 2D","GREENVILLE","NC","27834"
151375,"2808 US HIGHWAY 41","ELKO","GA","31025"
151376,"2808 VENETO COURT","LEAGUE CITY","TX","77573"
151377,"2808 W 85TH STREET","INGLEWOO","CA","90305"
151378,"2808 W SOUTHPOINTE RD","SOUTH JORDAN","UT","84095"
151379,"2808 WEST CROOKED STICK COURT","EAGLE","ID","83616"
151380,"2808 WHITE AVE","JACKSONVILLE","FL","32207"
151381,"2808 WHITE AVENUE","JACKSONVILLE","FL","32207"
151382,"2808 WHITE ISLE LANE","ORLANDO","FL","32825"
151383,"2808 WICKHAM AVE","BRONX","NY","10469"
151384,"2808 YANCEYVILLE STREET","GREENSBORO","NC","27405"
151385,"28080 PIERCE STREET","SOUTHFIELD","MI","48076"
151386,"28083 PROMONTORY LANE","VALENCIA","CA","91354"
151387,"2809 BALLIETT COURT","VIENNA","VA","22180"
151388,"2809 BUD MCKEY CIR","VALDOSTA","GA","31602"
151389,"2809 CHARTRES ST","HOUSTON","TX","77019"
151390,"2809 COLUMBIA DR","ALTOONA","PA","16602"
151391,"2809 CONNERY WAY","MISSOULA","MT","59808"
151392,"2809 DUBERRY STREET","BAY CITY","TX","77414"
151393,"2809 E HAMILTON AVENUE PO BOX 177","EAU CLAIRE","WI","54701"
151394,"2809 E RAYMOND ST","INDIANAPOLIS","IN","46203"
151395,"2809 EAST PAWHUSKA ST","BROKEN ARROW","OK","74014"
151396,"2809 ELM STREET","HERNANDO","MS","38632"
151397,"2809 FEDERAL LANE","BOWIE","MD","20715"
151398,"2809 FORT ST","CHARTLOTTE","NC","28205"
151399,"2809 FRANCIS AVE","LEVENWORTH","IL","66048"
151400,"2809 GETTYSBURG DR","ALTUS","OK","73521"
151401,"2809 HERSHEY RD","ELIZABETHTOWN","PA","17022"
151402,"2809 HUGUENOT TRAIL","POWHATAN","VA","23139"
151403,"2809 HWY 69 N","NEDERLAND","TX","77627"
151404,"2809 KIRBY PKWY SUITE 116-154","MEMPHIS","TN","38119"
151405,"2809 KIRBY ROAD SUITE 116 POB 208","MEMPHIS","TN","38119"
151406,"2809 MARS HILL STREET","INDIANAPOLIS","IN","46241"
151407,"2809 MURPHY DR","LANCASTER","TX","75134"
151408,"2809 N ELM LANE","ARLINGTON HEIGHTS","IL","60004"
151409,"2809 N GREGG DR","FLAGSTAFF","AZ","86001"
151410,"2809 N MAPLE ST UNIT A","LA GRANDE","OR","97850"
151411,"2809 N MISSOURI","OKLAHOMA CITY","OK","73111"
151412,"2809 N NORTH COOLIDGE AVENUE","LOS ANGELES","CA","90039"
151413,"2809 NE 16TH TERRACE","GAINESVILLE","FL","32609"
151414,"2809 NE THOMPSON STREET","PORTLAND","OR","97212"
151415,"2809 NORTHLAND DRIVE","AUSTIN","TX","78757"
151416,"2809 PINE VALLEY CIRCLE","EAST POINT","GA","30344"
151417,"2809 PYLE LANE E","WEST FARGO","ND","58078"
151418,"2809 RYAN PLACE DRIVE","FORT WORTH","TX","76110"
151419,"2809 SE CLINTON","PORTLAND","OR","97202"
151420,"2809 STARDUST DRIVE","SANTA MARIA","CA","93455"
151421,"2809 TANEY ROAD","BALTIMORE","MD","21209"
151422,"2809 UNION CHURCH ROAD","STOCKBRIDGE","GA","30281"
151423,"2809 VALLEY OAK DRIVE","LOVELAND","CO","80538"
151424,"2809 W GODMAN AVE","MUNCIE","IN","47304"
151425,"2809 WESLEYAN LANE","WINSTON-SALEM","NC","27106"
151426,"28091 DEQUINDRE ROAD SUITE 104","MADISON HEIGHTS","MI","48071"
151427,"28095 W SHORE RD  PO BOX  3764","LAKE ARROWHEAD","CA","92352"
151428,"280B ROUTE 120 SUITE 2 NUMBER 159","FORESTDALE","MA","02644"
151429,"280C QUARRY ROAD","MILFORD","CT","06460"
151430,"281 AINSLIE STREET","BROOKLYN","NY","11211"
151431,"281 ALBEE RD","UXBRIDGE","MA","01569"
151432,"281 ANDES DRIVE","GLEN CARBON","IL","62034"
151433,"281 BEGONIA BLVD","FAIRFIELD","CA","94533"
151434,"281 CARLA DRIVE","SOUTH ELGIN","IL","60177"
151435,"281 CEDAR RIDGE DR","GLASTONBURY","CT","06033"
151436,"281 CHESSIE LN","HEDGESVILLE","WV","25427"
151437,"281 CLARK CT","WINDSOR","CO","80550"
151438,"281 COAL HILL RD","GREENVILLE","PA","16125"
151439,"281 COFFEY KNOB RD","BOONE","NC","28607"
151440,"281 CR 5005","BLUE RIDGE","TX","75424"
151441,"281 CREEKSIDE DRIVE","PALO ALTO","CA","94306"
151442,"281 DAVIS AVE APT H 7","CLIFTON HEIGHTS","PA","19018"
151443,"281 DR MARTIN LUTHER KING JR BLVD","NEWARK","NJ","07102"
151444,"281 E 204TH STREET 2ND FLOOR","BRONX","NY","10468"
151445,"281 E 204TH STREET","BRONX","NY","10467"
151446,"281 E 47TH STREET","LOS ANGELES","CA","90011"
151447,"281 E COLORADO BLVD UNIT 93","PASADENA","CA","91102"
151448,"281 E SOUTH STREET SUITE B","BISHOP","CA","93514"
151449,"281 EAST 53RD STREET APT 3C","BROOKLYN","NY","11203"
151450,"281 EAST KINGSBRIDGE RD","BRONX","NY","10458"
151451,"281 ELM STREET","AGAWAM","MA","01001"
151452,"281 ELTON ADELPHIA ROAD","FREEHOLD","NJ","07728"
151453,"281 FOREST HILLS ST","BOSTON","MA","02130"
151454,"281 GARDENIA AVENUE","CLEVELAND","TN","37312"
151455,"281 GRALAKE AVE","ANN ARBOR","MI","48103"
151456,"281 GULCH ROAD","DURANGO","CO","81303"
151457,"281 HEPBURN STREET","MILTON","PA","17847"
151458,"281 HUMMINGBIRD LANE","RUTLEDGE","TN","37861"
151459,"281 IVY LN","AUBURN","AL","36830"
151460,"281 LOMBARDI CIRCLE","WALNUT CREEK","CA","94598"
151461,"281 MAIN STREET","RUTLAND","MA","01543"
151462,"281 N 2ND STREET","SURF CITY","NJ","08008"
151463,"281 NORTH PLEASANT STREET","OBERLIN","OH","44074"
151464,"281 NORWICH AVE APT A","TAFTVILLE","CT","06380"
151465,"281 ODELL HILL ROAD","CENTER CONWAY","NH","03813"
151466,"281 PARK AVENUE","HARRISON","NY","10528"
151467,"281 PARK FOREST BLVD","ENGLEWOOD","FL","34223"
151468,"281 POND ROAD","FREEHOLD","NJ","07728"
151469,"281 PRINCE STREET","NEWARK","NJ","07208"
151470,"281 RIVERBROOK AVENUE","LINCROFT","NJ","07738"
151471,"281 S MAIN BLVD","MOUNTAIN TOP","PA","18707"
151472,"281 S MAIN STREET","YUMA","AZ","85364"
151473,"281 S MOUNTAIN BLVD","MOUNTAIN TOP","PA","18707"
151474,"281 SERVICE RD","LAUREL","MS","39443"
151475,"281 SIMSTOWN RD","EVENING SHADE","AR","72532"
151476,"281 SKIP RD","BUXTON","ME","04093"
151477,"281 SOUTH JACKSON ROAD","PECATONICA","IL","61063"
151478,"281 SPRING STREET","ROCKVILLE","RI","02873"
151479,"281 SPRINGS MEADOW ROAD","QUINCY","FL","32351"
151480,"281 SUMMER STREET 6TH FLOOR","BOSTON","MA","02210"
151481,"281 VALLEY DRIVE","RICHLANDS","VA","24641"
151482,"281 VARICK STREET","JERSEY","NJ","07302"
151483,"281 W END RD","SOUTH ORANGE","NJ","07079"
151484,"281 WEST 119TH STREET SUITE 5A","NEW YORK","NY","10026"
151485,"281 WHITE STREET","UNADILA","GA","31091"
151486,"281 WOODHAMS ROAD","SANTA CLARA","CA","95051"
151487,"2810 35TH STREET APT 212","SACRAMENTO","CA","95817"
151488,"2810 ASHCROFT DR","FT WAYNE","IN","46806"
151489,"2810 AVE W","BROOKLYN","NY","11229"
151490,"2810 CLEARWATER TER","CONYERS","GA","30013"
151491,"2810 CLEARWATER TERRACE","CONYERS","GA","30013"
151492,"2810 COLLEGE VIEW DRIVE","CHURCHVILLE","MD","21028"
151493,"2810 CROSSROADS DR STE 4000","MADISON","WI","53718"
151494,"2810 E DEL MAR BOULEVARD STE 11A","PASADENA","CA","91107"
151495,"2810 E HIGHLAND DR STE P","JONESBORO","AR","72401"
151496,"2810 EARTHHAVEN DR","LAREDO","TX","78046"
151497,"2810 EDWARDS STREET","HATTIESBURG","MS","39401"
151498,"2810 FAIRWAY DRIVE","HOLLYWOOD","FL","33021"
151499,"2810 HAMMOCK DR","PLANT CITY","FL","33566"
151500,"2810 INTERLAKEN DRIVE","MARIETTA","GA","30062"
