"ID","Address","City","State","Zip"
41501,"1245 S MICHIGAN AVE 184","CHICAGO","IL","60605"
41502,"1245 S MICHIGAN AVENUE UNIT 234","CHICAGO","IL","60605"
41503,"1245 SOUTH SUNBURY RD SUITE 102","WESTERVILLE","OH","43081"
41504,"1245 STANFORD AVE","ST PAUL","MN","55105"
41505,"1245 STARCROSS DRIVE","INDIANAPOLIS","IN","46239"
41506,"1245 STONEFIELD CROSSING COURT","WINSTON SALEM","NC","27107"
41507,"1245 SWAINSON ROAD","EATON","CO","80615"
41508,"1245 THRUSH AVENUE","MIAMI SPRINGS","FL","33166"
41509,"1245 TILIA ST","SAN MATEO","CA","94402"
41510,"1245 TOTTEN DRIVE","NEW ALBANY","OH","43054"
41511,"1245 US HWY 27 S","SEBRING","FL","33825"
41512,"1245 VAN NESS  AVENUE  PO BOX1438","FERNDALE","CA","95536"
41513,"1245 W HAMILTON STREET","ALLENTOWN","PA","18102"
41514,"1245 W PRINCESS STREET","YORK","PA","17404"
41515,"1245 WEBB CIRCLE","CORONA","CA","92879"
41516,"1245 WESTOVER AVE C4","NORFOLK","VA","23507"
41517,"12450 GLEN OAK ROAD","POWAY","CA","92064"
41518,"12450 HEATHGAGTE CT","JACKSONVILLE","FL","32225"
41519,"12450 HEATHGATE CT","JACKSONVILLE","FL","32225"
41520,"12450 HWY 205","LAVON","TX","75166"
41521,"12450 JULIA ST","SEMINOLE","FL","33772"
41522,"12450 LAKEVIEW DRIVE","DADE CITY","FL","33525"
41523,"12450 PERRY HIGHWAY","WEXFORD","PA","15090"
41524,"12451 CLARKSVILLE PIKE","CLARKSVILLE","MD","21029"
41525,"12452 HICKORY FOREST ROAD","JACKSONVILLE","FL","32226"
41526,"12452 RUSSELL CIR","GARDEN GROVE","CA","92843"
41527,"12453 STAMPEDE RD","MOODY","TX","76557"
41528,"12453 W BRIARWOOD DR","BOISE","ID","83713"
41529,"12454 MOSS HOLLOW RD","MARKHAM","VA","22643"
41530,"12454 PLAZA DRIVE","PARMA","OH","44130"
41531,"12455 MYERS RD PO BOX 892","DALLAS","OR","97338"
41532,"12456 KIBBIE LAKE WY","RANCHO CORDOVA","CA","95742"
41533,"12456 LAKESIDE DRIVE","CONNEAUT LAKE","PA","16316"
41534,"12456 SHADY BRIDGE TRAIL","JACKSONVILLE","FL","32258"
41535,"12456 VIA DIEGO","LAKESIDE","CA","92040"
41536,"12456 WEEPING BRANCH CIRCLE","JACKSONVILLE","FL","32218"
41537,"12457 E VIA HERMOSA","YUMA","AZ","85367"
41538,"12457 OSPREY LANE UNIT 1","PLAYA VISTA","CA","90094"
41539,"12459 MANCHESTER WAY","WOODBRIDGE","VA","22192"
41540,"12459 S LOWE AVE","CHICAGO","IL","60628"
41541,"1245B EDWARD L GRANT HIGHWAY","BRONX","NY","10452"
41542,"1246 14TH ROAD","ELLSWORTH","KS","67439"
41543,"1246 BANNON AVENUE","LA PUENTE","CA","91744"
41544,"1246 BAYOU LACARPE ROAD","HOUMA","LA","70363"
41545,"1246 DEDI AVE","SOUTH LAKE TAHOE","CA","96150"
41546,"1246 DOUGLAS MACARTHUR STREET","ORANGEBURG","SC","29115"
41547,"1246 E CHARLESTON AVE","PHOENIX","AZ","85022"
41548,"1246 E GILMER DRIVE","SALT LAKE CITY","UT","84105"
41549,"1246 EAST 72ND STREET APT B","BROOKLYN","NY","11234"
41550,"1246 EAST 72ND STREET","BROOKLYN","NY","11234"
41551,"1246 HINES ROAD","LAGRANGE","GA","30241"
41552,"1246 KEIGER FARM ROAD","TOBACCOVILLE","NC","27050"
41553,"1246 LIBERTY BELL DRIVE","CHERRY HILL","NJ","08003"
41554,"1246 LOTTIE LN NW","SALEM","OR","97304"
41555,"1246 LOWER MAIN ST","WAILUKU","HI","96793"
41556,"1246 N ARDEN CIRCLE","MESA","AZ","85205"
41557,"1246 NE 12TH STREET","BEND","OR","97701"
41558,"1246 NORTH 25TH STREET","PHILADELPHIA","PA","19121"
41559,"1246 P STREET","SACRAMENTO","CA","95814"
41560,"1246 RIVERVIEW DR","ALMA","WI","54610"
41561,"1246 SILVER VALLEY ROAD","OSBURN","ID","83849"
41562,"1246 VANE AVENUE","AKRON","OH","44310"
41563,"1246","TOLEDO","OH","43607"
41564,"12460 CRABAPPLE RD SUITE 202-150","ALPHARETTA","GA","30004"
41565,"12460 CRABAPPLE RD SUITE 202-316","ALPHARETTA","GA","30004"
41566,"12460 CRABAPPLE ROAD STE 202 503","ALPHARETTA","GA","30004"
41567,"12460 SILVER BAY CIRCLE","INDIANAPOLIS","IN","46236"
41568,"12460 SW 8 ST UNIT 204","MIAMI","FL","33184"
41569,"12461 MCGREGOR PALMS DRIVE","FORT MYERS","FL","33908"
41570,"12461 PENDRAGON WAY","MANASSAS","VA","20112"
41571,"12461 VETERANS MEMORIAL HWY STE 307","DOUGLASVILLE","GA","30134"
41572,"12461 VETERANS MEMORIAL HWY STE 566","DOUGLASSVILLE","GA","30134"
41573,"12461 VETERANS MEMORIAL HWY","DOUGLASVILLE","GA","30134"
41574,"12463 RANCHO BERNARDO RD 523","SAN DIEGO","CA","92128"
41575,"12463 RANCHO BERNARDO RD STE 555","SAN DIEGO","CA","92128"
41576,"12463 S WABASH AVE","CHICAGO","IL","60628"
41577,"12465 N OWL HEAD CANYON RD","MARANA","AZ","85658"
41578,"12465 S FORT STREET SUITE 240","DRAPER","UT","84020"
41579,"12465 US HIGHWAY 64","SOMERVILLE","TN","38068"
41580,"12466 BALSTON ROAD","PHILADELPHIA","PA","19154"
41581,"12466 BROAD OAKS DRIVE","COLORADO SPRINGS","CO","80921"
41582,"12466 LOS INDIOS TRL STE 200","AUSTIN","TX","78729"
41583,"12466 SCENIC VIEW COURT","MILFORD","MI","48380"
41584,"12466 SILVERLAKES CT","MIRA LOMA","CA","91752"
41585,"12469 WEST HALL PLACE","WELLINGTON","FL","33414"
41586,"1247 33RD ST","DES MOINES","IA","50311"
41587,"1247 35TH STREET NW","WASHINGTON","DC","20007"
41588,"1247 BALSAM ROAD","WELLSBORO","PA","16901"
41589,"1247 BEACON ST APT 3","BROOKLINE","MA","02446"
41590,"1247 BLACKBERRY RIDGE RD","HIGH POINT","NC","27265"
41591,"1247 CAMINO DEL LAGO","SAN MARCOS","CA","92078"
41592,"1247 CHESTERFIELD LN","GRAYSLAKE","IL","60030"
41593,"1247 CROSS STREET","OGDEN","UT","84404"
41594,"1247 E COLUMBIA AVE APT 4","PHILADELPHIA","PA","19125"
41595,"1247 E SHADY LANE","NEENAH","WI","54956"
41596,"1247 EAST STATE ST","TRENTON","NJ","08609"
41597,"1247 GASKINS RD APT M","HENRICO","VA","23228"
41598,"1247 GATEMOUTH MOORE RD","YAZOO CITY","MS","39194"
41599,"1247 MARA COURT","ATLANTIC BEACH","NY","11509"
41600,"1247 NW 95TH ST","MIAMI","FL","33147"
41601,"1247 REDWOOD TERRACE - PO BOX 267","POCONO PINES","PA","18350"
41602,"1247 RETURN CHURCH ROAD","SENECA","SC","29678"
41603,"1247 ROCKY RD","MECHANICSBURG","PA","17055"
41604,"1247 ROYAL OAK DR","DUNEDIN","FL","34698"
41605,"1247 RUSSELL AVE","LOS ALTOS","CA","94024"
41606,"1247 S ARKANSAS AVE","VAN BUREN","AR","72956"
41607,"1247 S CEDAR CREST BLVD STE 100","ALLENTOWN","PA","18103"
41608,"1247 TOM HUNTER ROAD","CHARLOTTE","NC","28213"
41609,"1247 WAGON WHEEL RD","DEL NORTE","CO","81132"
41610,"1247 WEST MAN OF WAR COVE","SOUTH JORDAN","UT","84095"
41611,"12470 OLD CEDAR POINT ROAD","CODEN","AL","36523"
41612,"12470 SW 185TH ST","MIAMI","FL","33177"
41613,"12471 BULLIS ROAD","EAST AURORA","NY","14052"
41614,"12471 LARIMER AVE","NORTH HUNTINGDON","PA","15642"
41615,"12471 LITTLE MORONGO RD","DESERT HOT SPRINGS","CA","92240"
41616,"12471 PASEO CERRO","SARATOGA","CA","95070"
41617,"12472 CLINTON ROAD","DOYLESTOWN","OH","44230"
41618,"12472 E CAMINO AMBATO","VAIL","AZ","85641"
41619,"12472 HAND ST","CARLETON","MI","48117"
41620,"12472 LAKE UNDERHILL RD  SUITE 504","ORLANDO","FL","32828"
41621,"12472 LAKE UNDERHILL RD 417","ORLANDO","FL","32828"
41622,"12472 LAKE UNDERHILL RD SUITE 314","ORLANDO","FL","32828"
41623,"12472 LAKE UNDERHILL ROAD 454","ORLANDO","FL","32828"
41624,"12473 E NUNN RD","ATHOL","ID","83801"
41625,"12473 PENDRAGON WAY","MANASSAS","VA","20112"
41626,"12474 BRANTLEY COMMONS COURT","FORT MYERS","FL","33907"
41627,"12474 TIPPERARY ST","BUFFALO","SD","57720"
41628,"12474 TURTLE DOVE PLACE","WALDORF","MD","20602"
41629,"12475 COCKSPUR COURT","EDEN PRAIRIE","MN","55347"
41630,"12476 NORMA LANE","ST LOUIS","MO","63138"
41631,"12477 SCENIC VIEW CT","MILFORD","MI","48380"
41632,"12478 COUNTY ROAD 29","DOLORES","CO","81323"
41633,"12478 E COUNTY ROAD 700 S","SHERIDAN","IN","46069"
41634,"1248 BANCROFT RD","KELLER","TX","76248"
41635,"1248 BOOTH BRANCH RD","GRUNDY","VA","24614"
41636,"1248 BURNETT ST","BERKELEY","CA","94702"
41637,"1248 CANVASBACK","AUBREY","TX","76227"
41638,"1248 CHALLEN AVENUE","JACKSONVILLE","FL","32205"
41639,"1248 CRESTFIELD DRIVE","WILLIAMSPORT","PA","17701"
41640,"1248 CULLIGAN LANE","MENDOTA HEIGHTS","MN","55118"
41641,"1248 E HILLSBOROUGH AVE","TAMPA","FL","33604"
41642,"1248 EAST 2000 NORTH","VERNAL","UT","84078"
41643,"1248 FOX CREST WAY","CHARLOTTESVILLE","VA","22902"
41644,"1248 HAYNES ROAD","MEMPHIS","TN","38114"
41645,"1248 HERON LAKES CIRCLE","MOBILE","AL","36693"
41646,"1248 HIGHBRIDGE ROAD","SCHENECTADY","NY","12303"
41647,"1248 IRVING ST NW","WASHINGTON","DC","20010"
41648,"1248 KENESAW VILLAGE DRIVE","LEXINGTON","KY","40515"
41649,"1248 KONDOS AVENUE","SACRAMENTO","CA","95814"
41650,"1248 LAWRY AVENUE","LAS VEGAS","NV","89106"
41651,"1248 LINCOLN AVENUE","SHEBOYGAN","WI","53081"
41652,"1248 LOUISE STREET","PINCKNEY","MI","48169"
41653,"1248 LOWELL STREET","SEASIDE","CA","93955"
41654,"1248 N SCARLET DR","ADDISON","IL","60101"
41655,"1248 S 19TH STREET","PHILADELPHIA","PA","19146"
41656,"1248 SALEM STREET","NORTH ANDOVER","MA","01845"
41657,"1248 SECOND NH TPKE","WINDSOR","NH","03244"
41658,"1248 URSULA ST","AURORA","CO","80011"
41659,"1248 VALERIAN COURT APT 1","SUNNYVALE","CA","94086"
41660,"1248 W FOUNTAIN WAY","FRESNO","CA","93705"
41661,"1248 W LEXINGTON STREET UPPR","CHICAGO","IL","60607"
41662,"1248 W ROAD 2 SOUTH","CHINO VALLEY","AZ","86323"
41663,"1248 WATERVIEW STREET","FAR ROCKAWAY","NY","11691"
41664,"1248 WHITE PLAINS RD","BRONX","NY","10472"
41665,"1248 WINDFALL FARM LANE","HARTSVILLE","SC","29550"
41666,"12480 SW 58TH STREET","MARTELL","NE","68404"
41667,"12481 JARVIS AVE NW","ANNANDALE","MN","55302"
41668,"12481 PORT REPUBLIC RD","GROTTOES","VA","24441"
41669,"12481 W FIELDING CIRCLE  SUITE 314","PLAYA VISTA","CA","90094"
41670,"12483 ALFA ROMEO WAY SUITE","FRISCO","TX","75033"
41671,"12484 ABRAMS ROAD SUITE 2202","DALLAS","TX","75243"
41672,"12484 OLD MILL DRIVE","GEISMAR","LA","70734"
41673,"12484 SW BROADWAY ST","BEAVERTON","OR","97005"
41674,"12485 QUEENSBURY AVENUE","BATON ROUGE","LA","70815"
41675,"12485 SOUTH CONNECTOR BLVD","LUSBY","MD","20657"
41676,"12485 SOUTHERN CONNECTOR BLVD","LUSBY","MD","20657"
41677,"12485 SW 137TH AVE   STE 212","MIAMI","FL","33186"
41678,"12488 HEATHERSTONE PLACE","CARMEL","IN","46033"
41679,"12489 OLIVE LN","SANTA FE SPRINGS","CA","90670"
41680,"12489 TROPIC DR E","JACKSONVILLE","FL","32225"
41681,"1249 26TH ST","SANTA MONICA","CA","90404"
41682,"1249 BLALOCK RD SUITE E","HOUSTON","TX","77055"
41683,"1249 CARBON LOOP","VILLE PLATTE","LA","70586"
41684,"1249 CELEBRATION BLVD","FLORENCE","SC","29501"
41685,"1249 CENTER ST","WAVERLY","FL","33877"
41686,"1249 E CARLA VISTA COURT","GILBERT","AZ","85295"
41687,"1249 E OCEAN BLVD 2","LONG BEACH","CA","90802"
41688,"1249 E VERNON AVE","LOS ANGELES","CA","90011"
41689,"1249 EAST JOHN STREET","EVANSVILLE","IN","47714"
41690,"1249 ELDEN ST SUITE 304","HERNDON","VA","20170"
41691,"1249 ELLSWORTH DRIVE NW SUITE 118","ATLANTA","GA","30318"
41692,"1249 FLAGSTONE WAY","NORCROSS","GA","30093"
41693,"1249 HIGHVIEW DRIVE","CEDAR HILL","TX","75104"
41694,"1249 LYDAY LANE","WALLA WALLA","WA","99362"
41695,"1249 NORTH STATE ROUTE 2","NEW MARTINSVILLE","WV","26155"
41696,"1249 PEBBLE BEACH DR","CASEYVILLE","IL","62232"
41697,"1249 REMSEN AVE","BROOKLYN","NY","11236"
41698,"1249 ROUTE 590","HAWLEY","PA","18428"
41699,"1249 S DIAMOND BAR BLVD SUITE 244","DIAMOND BAR","CA","91765"
41700,"1249 S DIAMOND BAR BLVD","DIAMOND  BAR","CA","91765"
41701,"1249 US 31-W BYPASS","BOWLING GREEN","KY","42101"
41702,"1249 W LASALLE","SPRINGFIELD","MO","65807"
41703,"1249 W MADISON ST APT 203","CHICAGO","IL","60607"
41704,"1249 WEST WASHINGTON ST","BROWNSVILLE","TX","78520"
41705,"1249 WILHELMINA RISE","HONOLULU","HI","96816"
41706,"12490 SCHOOL CREEK RD","SAINT GEORGE","KS","66535"
41707,"12490 SE VERLIE ST","HAPPY VALLEY","OR","97086"
41708,"12490 SW 95TH TERRACE","MIAMI","FL","33186"
41709,"12491 HAYES CT 101","FAIRFAX","VA","22033"
41710,"12491 SW 134 COURTS SUITE 19","MIAMI","FL","33186"
41711,"12491 WEST CANCER DR","ELOY","AZ","85131"
41712,"12492 FRIENDSVILLE ROAD","BURBANK","OH","44214"
41713,"12492 GRAINDWOOD WAY","SAN DIEGO","CA","92131"
41714,"12492","TOLEDO","OH","43606"
41715,"12494 OAKWOOD DR","WOODBRIDGE","VA","22192"
41716,"12495 NE 8 AVENUE","MIAMI","FL","33161"
41717,"12495 QUERCUS LANE","WELLINGTON","FL","33414"
41718,"12496 PINTAIL COURT","POWAY","CA","92064"
41719,"12496 SARSI PLACE","APPLE VALLEY","CA","92308"
41720,"12496 US HIGHWAY 20 W","LENA","IL","61048"
41721,"12496 WINTER RIDGE DR","WALKER","LA","70785"
41722,"12497 CEDAR ROAD  APT 8A","CLEVELAND HEIGHTS","OH","44106"
41723,"12498 BROAD OAKS DRIVE","COLORADO SPRINGS","CO","80921"
41724,"12498 EQUINE LANE","WELLINGTON","FL","33414"
41725,"12498 W HIGHWAY 318","WILLISTON","FL","32696"
41726,"12499 ANESWORTH CT","JACKSONVILLE","FL","32225"
41727,"12499 INDEPENDENCE PKWY","FRISCO","TX","75035"
41728,"12499 PASEO FLORES","SARATOGA","CA","95070"
41729,"12499 TAYLORSTOWN RD","LOVETTSVILLE","VA","20180"
41730,"12499 UNIVERSITY AVE STE 200","CLIVE","IA","50325"
41731,"1249M BLALOCK RD","HOUSTON","TX","77055"
41732,"124A CASTLERIDGE DRIVE","LITTLE ELM","TX","75068"
41733,"125 126TH AVE","TREASURE ISLAND","FL","33706"
41734,"125 12TH ST SUITE 100","OAKLAND","CA","94607"
41735,"125 184TH PL SW","BOTHELL","WA","98012"
41736,"125 18TH AVE SOUTH","SAINT PETERSBURG","FL","33705"
41737,"125 18TH ST NE","OWATONNA","MN","55060"
41738,"125 1ST ST UNIT 103","LA CONNER","WA","98257"
41739,"125 2ND ST","EMBDEN","ND","58079"
41740,"125 42ND STREET GULF SUITE B","MARATHON","FM","33050"
41741,"125 6TH ST APT 205","SAN FRANCISCO","CA","94103"
41742,"125 ADAMS STREET","ROYERSFORD","PA","19468"
41743,"125 AIRPORT ROAD","CONCORD","NH","03301"
41744,"125 ALMOND LANE","WILKES-BARRE","PA","18702"
41745,"125 ANDRES RD","SCOTT","LA","70583"
41746,"125 ARENAS VALLEY ROAD","ARENAS VALLEY","NM","88022"
41747,"125 ASHEVILLE COMMERCE PKWY","CANDLER","NC","28715"
41748,"125 AUTRY AVE","MOORESVILLE","NC","28117"
41749,"125 BARBERRY LN","LEXINGTON","KY","40503"
41750,"125 BARROW STREET APT 4B","NEW YORK","NY","10014"
41751,"125 BEACH 91ST STREET","ROCKAWAY BEACH","NY","11693"
41752,"125 BEEHCMONT DR NE","CORYDON","IN","47112"
41753,"125 BEHLMAN MEADOWS WAY","FLORISSANT","MO","63033"
41754,"125 BELMONT DRIVE","BOOTHWYN","PA","19061"
41755,"125 BETHANY DRIVE","SCOTTS VALLEY","CA","95066"
41756,"125 BLOUNT LANE","ROSE HILL","NC","28458"
41757,"125 BOND STREET","BROOKLYN","NY","11217"
41758,"125 BORINQUEN PL APT 504","BROOKLYN","NY","11211"
41759,"125 BRADSHAW CROSSING","CANTON","MS","39046"
41760,"125 BRIARCLIFF RD","CENTRAL","SC","29630"
41761,"125 BRIDGEVIEW DR","BLOOMFIELD HILLS","MI","48304"
41762,"125 BROAD STREET 12TH FLOOR","NEW YORK","NY","10004"
41763,"125 BROOKFIELD LANE","ROANOKE","VA","24012"
41764,"125 BROOKWOOD DR","SENECA","SC","29678"
41765,"125 CALHOUN ROAD","MONTGOMERY","AL","36109"
41766,"125 CALVES PASTURE LANE","BARNSTABLE","MA","02630"
41767,"125 CAMBON DRIVE APT 6H","SAN FRANCISCO","CA","94123"
41768,"125 CANDLEWOOD LAKE RD","BROOKFIELD","CT","06804"
41769,"125 CARLEY AVE","HUNTINGTON","NY","11743"
41770,"125 CARRIAGE HILL ROAD","GLENSHAW","PA","15116"
41771,"125 CARTER LANE","TROY","VA","22974"
41772,"125 CASCADE COURT","RIVER FALLS","WI","54022"
41773,"125 CASTLEFERN DRIVE","CARY","NC","27513"
41774,"125 CAVE CIRCLE","BOERNE","TX","78006"
41775,"125 CEDAR STREET APT 7N","NEW YORK","NY","10006"
41776,"125 CHAMALE DR","SLIDELL","LA","70460"
41777,"125 CHERRY LAUREL DRIVE","LEXINGTON","SC","29073"
41778,"125 CHESTNUT STREET","BOONTON","NJ","07005"
41779,"125 CHOPIN ST","TROY","MI","48083"
41780,"125 CHURCHILL HUBBARD ROAD","YOUNGSTOWN","OH","44505"
41781,"125 CLAURA DR","SCOTT","LA","70583"
41782,"125 CLAY DRIVE STE 125","BEREA","KY","40403"
41783,"125 CLINTON STREET","HICKMAN","KY","42050"
41784,"125 COLLEGE STREET","BUTLER","OH","44822"
41785,"125 COLONIAL DRIVE","ST SIMONS ISLAND","GA","31522"
41786,"125 COMMERCE CIRCLE","FAYETTEVILLE","GA","30214"
41787,"125 COMMERCE DR STE J","FAYETTEVILLE","GA","30214"
41788,"125 COMMERCE DRIVE SUITE J","FAYETTEVILLE","GA","30214"
41789,"125 COMMUNITY DRIVE","AUGUSTA","ME","04330"
41790,"125 CONNEMARA WAY UNIT 143","SUNNYVALE","CA","94087"
41791,"125 CONNEMARA WAY UNIT 66","SUNNYVALE","CA","94087"
41792,"125 COOLIDGE AVENUE APT 809","WATERTOWN","MA","02472"
41793,"125 COOPER RIDGE RD","CRUMPLER","NC","28617"
41794,"125 COUNTESS COURT","WHISPERING PINES","NC","28327"
41795,"125 COWAN DRIVE","STOCKBRIDGE","GA","30281"
41796,"125 CRESTVIEW DR","VALPARAISO","IN","46383"
41797,"125 CRESTWAY LANE","PONTE VEDRA","FL","32081"
41798,"125 CROLLS MILL ROAD","SLIPPERY ROCK","PA","16057"
41799,"125 CROSSWINDS","IRVINE","CA","92602"
41800,"125 CROSWELL ROAD","COLUMBUS","OH","43214"
41801,"125 CROWN OAKS DRIVE","STOCKBRIDGE","GA","30281"
41802,"125 CYPRESS STREET","MILLBURN","NJ","07041"
41803,"125 DALTON ROAD","GEORGETOWN","KY","40324"
41804,"125 DEERFIELD CIR","BRYAN","OH","43506"
41805,"125 DIBBLE LANE","COLUMBIA","SC","29223"
41806,"125 DICKIE AVENUE","STATEN ISLAND","NY","10314"
41807,"125 DILLMONT DR","COLUMBUS","OH","43235"
41808,"125 DILLMONT DRIVE","COLUMBUS","OH","43235"
41809,"125 DIXIE BLVD","DELRAY BEACH","FL","33444"
41810,"125 DODBROOK CT","ROSEVILLE","CA","95747"
41811,"125 DOGWOOD","MANNFORD","OK","74044"
41812,"125 DORY DRIVE","SALVISA","KY","40372"
41813,"125 DOUBLE EAGLE COURT","FREEPORT","FL","32439"
41814,"125 DURHAM STREET","HOLDEN BEACH","NC","28462"
41815,"125 E 153RD STREET","HARVEY","IL","60426"
41816,"125 E 37TH ST","LOVELAND","CO","80538"
41817,"125 E 3RD STREET PMB 4","CALEXICO","CA","92231"
41818,"125 E 7TH ST","PUEBLO","CO","81003"
41819,"125 E 8TH AVE","EUGENE","OR","97401"
41820,"125 E 8TH AVENUE","EUGENE","OR","97401"
41821,"125 E ACORN HILL DR","OLYPHANT","PA","18447"
41822,"125 E BUFFALO ST","KELLYVILLE","OK","74039"
41823,"125 E CHEVES ST","FLORENCE","SC","29506"
41824,"125 E GRANGEVILLE BLVD","HANFORD","CA","93230"
41825,"125 E IDAHO","BOISE","ID","83712"
41826,"125 E LIME STREET","TARPON SPRINGS","FL","34689"
41827,"125 E PASEO AVE","VISALIA","CA","93277"
41828,"125 E PLEASANT AVE","COVINGTON","TN","38019"
41829,"125 E POKAGON","SOUTH BEND","IN","46617"
41830,"125 E TOWNSHIP ST SUITE 16","FAYETTEVILLE","AR","72703"
41831,"125 E WELLS ST APT 207","MILWAUKEE","WI","53202"
41832,"125 EAST 3RD STREET","MT VERNON","NY","10550"
41833,"125 EAST 87TH STREET 2G","NEW YORK","NY","10128"
41834,"125 EAST 8TH AVENUE","EUGENE","OR","97401"
41835,"125 EAST COMMERCIAL ST - STE 150","WILLITS","CA","95490"
41836,"125 EAST RD","ST JOHNSVILLE","NY","13452"
41837,"125 ELM HILL AVE APT 17","DORCHESTER","MA","02121"
41838,"125 ELMORE TOWN ROAD","BAXTER","TN","38544"
41839,"125 EMERYVILLE DRIVE STE 230","CRANBERRY TWP","PA","16066"
41840,"125 ERRIN DR","SOMERSET","KY","42503"
41841,"125 EUCLID DRIVE","FAYETTEVILLE","NY","13066"
41842,"125 EVANS ROAD","LAFAYETTE","TN","37083"
41843,"125 FAWLEY ST","WARSAW","IN","46580"
41844,"125 FERNWOOD TERRACE","LINDEN","NJ","07036"
41845,"125 FIELDCREST ST","ANN ARBOR","MI","48103"
41846,"125 FLOYD SMITH OFFICE PARK DR S 45","CHARLOTTE","NC","28262"
41847,"125 FOREST AVE","WYOMING","OH","45215"
41848,"125 FOREST PARK DR","WAYNESVILLE","NC","28785"
41849,"125 FORREST AVENUE","SHIRLEY","NY","11967"
41850,"125 FOUNTAIN CT 223","FAIRVIEW","TX","75069"
41851,"125 FREDERICK ST","MARIETTA","OH","45750"
41852,"125 FRUITWOOD TRCE APT B","RIVERDALE","GA","30296"
41853,"125 FURLONG DR","UNIVERSAL CITY","TX","78148"
41854,"125 G WAPPOO CREEK DRIVE","CHARLESTON","SC","29412"
41855,"125 GALWAY PL","TEANECK","NJ","07666"
41856,"125 GERALD AVE","CLAWSON","MI","48017"
41857,"125 GLEN RIDGE ROAD","HAMDEN","CT","06815"
41858,"125 GLENRIDGE AVE 906","MONTCLAIR","NJ","07003"
41859,"125 GOODALL WOODS DRIVE","MACON","GA","31216"
41860,"125 GRACE ST","JERSEY CITY","NJ","07307"
41861,"125 GRAMPIAN CT","MARIETTA","GA","30008"
41862,"125 GREAT CIRCLE RD","WEST HAVEN","CT","06516"
41863,"125 GREAT ROAD","MAPLE SHADE","NJ","08052"
41864,"125 GREENWOOD AVE","NASHUA","IA","50658"
41865,"125 GREYLAWN AVENUE","WARWICK","RI","02889"
41866,"125 HABERSHAM DRIVE SUITE B","FAYETTEVILLE","GA","30214"
41867,"125 HANES PLACE","VISTA","CA","92084"
41868,"125 HANNA ST","CARRBORO","NC","27510"
41869,"125 HARBOR ROAD","SWANS ISLAND","ME","04685"
41870,"125 HARINGEY DR","RALEIGH","NC","27615"
41871,"125 HARMON ROAD","BRIDGTON","ME","04009"
41872,"125 HARVEY AVENUE","OAK PARK","IL","60302"
41873,"125 HEATHER DRIVE","ATHERTON","CA","94027"
41874,"125 HEDGEROW TRCE","DULUTH","GA","30097"
41875,"125 HERITAGE CIR","FARMINGTON","ME","04938"
41876,"125 HIGH HILL ROAD","MERIDEN","CT","06450"
41877,"125 HIGHLAND DRIVE","COUNCIL BLUFFS","IA","51503"
41878,"125 HIGHLAND VIEW DRIVE","RIVERSIDE","AL","35135"
41879,"125 HILLTOP DRIVE","MORGANTOWN","KY","42661"
41880,"125 HIRST ROAD STE 6C","PURCELLVILLE","VA","20132"
41881,"125 HOBBS LN","MOORESVILLE","NC","28115"
41882,"125 HOE CREEK ROAD","GILLETTE","WY","82718"
41883,"125 HOOPER  RD","WYLIE","TX","75098"
41884,"125 HUNTINGTON PLACE","MACON","GA","31210"
41885,"125 HWY 138 SE","RIVERDALE","GA","30274"
41886,"125 HWY A1A","SATELLITE BEACH","FL","32937"
41887,"125 ISABELLA CT","LOVELAND","OH","45140"
41888,"125 ISLAND LAKE WAY","ROCKWOOD","TN","37854"
41889,"125 JERICHO TURNPIKE STE 200","JERICHO","NY","11753"
41890,"125 JEROME STREET UNIT G","ROSELLE PARK","NJ","07204"
41891,"125 JOHN J KOLDUS BUILDING","COLLEGE STATION","TX","77840"
41892,"125 JONATHAN CT","BRANSON","MO","65616"
41893,"125 KELLERTON CT","WINNABOW","NC","28479"
41894,"125 KEYSTONE AVE","BARDSTOWN","KY","40004"
41895,"125 KILLIS BLVD","RICHLANDS","NC","28574"
41896,"125 KINGS HIGHWAY","NORTH HAVEN","CT","06473"
41897,"125 KINGSTON RD","EXETER","NH","03833"
41898,"125 LAKEFOREST TRAIL","SANFORD","NC","27332"
41899,"125 LANCASTER BLVD","MECHANICSBURG","PA","17055"
41900,"125 LANCASTER STREET","COHOES","NY","12047"
41901,"125 LARK STREET","COBLESKILL","NY","12043"
41902,"125 LEONE DRIVE","BRICK","NJ","08724"
41903,"125 LINCOLN STREET","JEFFERSON","WI","53038"
41904,"125 LINCOLN STREET","JOHNSON CREEK","WI","53038"
41905,"125 LITTTLE ROCK ROAD","DEKALB","MS","39328"
41906,"125 LOCHWEED DRIVE","COLUMBIA","SC","29212"
41907,"125 LOCUST AVENU","OAKDALE","NY","11769"
41908,"125 LOCUST STREET","HARRISBURG","PA","17101"
41909,"125 LOWER RED ROCK ROAD","BASTROP","TX","78602"
41910,"125 LUNDY STREET","COLUMBUS","OH","43215"
41911,"125 MAIN ROAD NE","HUNTSVILLE","AL","35811"
41912,"125 MAIN ST 845","SOUTHINGTON","CT","06489"
41913,"125 MAIN ST PO BOX 488","BRIDGEPORT","NJ","08014"
41914,"125 MAIN ST STE 500-204","BLACKSBURG","VA","24060"
41915,"125 MAIN ST","COLESBURG","IA","52035"
41916,"125 MAPLE AVE EXT","BLAIRSVILLE","PA","15717"
41917,"125 MAPLE AVENUE EXTENSION","BLAIRSVILLE","PA","15717"
41918,"125 MAPLE JONES DRIVE","CANYON LAKE","TX","78133"
41919,"125 MARIA BLVD","ARCHBALD","PA","18403"
41920,"125 MARIA BOULEVARD","ARCHBALD","PA","18403"
41921,"125 MARINERS COVE ROAD UNIT A","HAMPTON","VA","23669"
41922,"125 MASON ST","OSHKOSH","WI","54902"
41923,"125 MCKAIG RD","MURFREESBORO","TN","37129"
41924,"125 MCLAUGHLIN DRIVE","MAHOPAC","NY","10541"
41925,"125 MEADOWVIEW CT","SEVEN DEVILS","NC","28604"
41926,"125 MERCURY DRIVE","ARAB","AL","35016"
41927,"125 MIDDLETOWN ROAD","WATERFORD","NY","12188"
41928,"125 MILES ST","HARRIMAN","TN","37748"
41929,"125 MILL ROCK ROAD","HAMDEN","CT","06517"
41930,"125 MILLER DRIVE","SEBASTIAN","FL","32958"
41931,"125 MILTON AVENUE","ALPHARETTA","GA","30009"
41932,"125 MORROW ROAD","SPARTANBURG","SC","29303"
41933,"125 MORSE ST","WATERTOWN","MA","02472"
41934,"125 MOUNTAIN LAUREL LANE","ABINGTON","MA","02351"
41935,"125 MUNICIPAL DRIVE","SUGAR GROVE","IL","60554"
41936,"125 N 12TH ST","COLORADO SPRINGS","CO","80904"
41937,"125 N 27TH STREET","FORT DODGE","IA","50501"
41938,"125 N 2ND ST STE 110-543","PHOENIX","AZ","85004"
41939,"125 N 2ND ST STE 110","PHOENIX","AZ","85004"
41940,"125 N 380 E PO BOX 744","MILLVILLE","UT","84326"
41941,"125 N BROADNAX STREET ROOM 23","DADEVILLE","AL","36853"
41942,"125 N CEDAR STREET NO 5","TRUTH OR CONSEQUENCE","NM","87901"
41943,"125 N COUNTY ROAD 425E","ARCOLA","IL","61910"
41944,"125 N EXECUTIVE DR  STE100","BROOKFIELD","WI","53005"
41945,"125 N HAMILTON ST UNIT 406","MADISON","WI","53703"
41946,"125 N JACKSON AVENUE SUITE 104","SAN JOSE","CA","95116"
41947,"125 N KALAMAZOO STREET SUITE 538","PAW PAW","MI","49079"
41948,"125 N LAKE SILVER DR NW","WINTER HAVEN","FL","33881"
41949,"125 N LEE STREET APT 503","ALEXANDRIA","VA","22314"
41950,"125 N LIBERTY ST","ORWIGSBURG","PA","17961"
41951,"125 N MAIN AVENUE","HARTFORD","SD","57033"
41952,"125 N MAIN ST","BLUE EARTH","MN","56013"
41953,"125 N MARKET ST SUITE 1603","WICHITA","KS","67202"
41954,"125 N RURAL ST","HARTFORD","WI","53027"
41955,"125 N SANDUSKY ST","DELAWARE","OH","43015"
41956,"125 N SCHOOL ST","MANCHESTER","CT","06042"
41957,"125 N SHADOWHAVEN WAY","HENDERSONVILLE","TN","37075"
41958,"125 N WILLOW ST STE B","KENAI","AK","99611"
41959,"125 NATCHES LN","ROYAL","AR","71968"
41960,"125 NEAL STREET","GRASS VALLEY","CA","95945"
41961,"125 NELSON ST","BARRE","VT","05641"
41962,"125 NICKAJACK NORTH","SANTA ROSA BEACH","FL","32459"
41963,"125 NORMANDY AVE","ROCHESTER","NY","14619"
41964,"125 NORTH 11TH ST POB 631","PONCHATOULA","LA","70454"
41965,"125 NORTH 16TH STREET","MAMMOTH SPRING","AR","72554"
41966,"125 NORTH BROAD STREET","KLAMATH FALLS","OR","97601"
41967,"125 NORTH PALM AVENUE","VIRGINIA BEACH","VA","23452"
41968,"125 NORTH WATER STREET","PAULDING","OH","45879"
41969,"125 NORTH WEST STREET","CARLINVILLE","IL","62626"
41970,"125 NUNNERY LANE","CATONSVILLE","MD","21228"
41971,"125 OAKRIDGE WAY","RIO VISTA","CA","94571"
41972,"125 OLD ALICE RD","BROWNSVILLE","TX","78520"
41973,"125 OLD LITCHFIELD ROAD","WASHINGTON DEPOT","CT","06794"
41974,"125 OLD SONORA ROAD","SONORA","KY","42776"
41975,"125 OLDE GREENWICH DRIVE SUITE 160","FREDERICKSBURG","VA","22408"
41976,"125 OLDE GREENWICH SUITE 240","FREDERICKSBURG","VA","22408"
41977,"125 ORIOLE DR","ANNA","TX","75409"
41978,"125 PALISADES DRIVE","SANTA BARBARA","CA","93109"
41979,"125 PALMER LN","POTTSBORO","TX","75076"
41980,"125 PARK AVENUE- 25TH FLOOR","NEW YORK","NY","10017"
41981,"125 PARK PLACE BLVD","WAXAHACHIE","TX","75165"
41982,"125 PASEO JOSE A POCHO MARTINEZ","MANATI","PR","00674"
41983,"125 PAUWELA RD","HAIKU","HI","96708"
41984,"125 PAWNEE DR","OLD FORGE","NY","13420"
41985,"125 PEBBLE CREEK HEIGHTS","MESQUITE","NV","89027"
41986,"125 PHEASANT RUN","KALISPELL","MT","59901"
41987,"125 PICKWICK STREET","SAVANNAH","TN","38372"
41988,"125 PIN OAK DR","FLORENCE","AL","35633"
41989,"125 PINE TREE AVE","BOALSBURG","PA","16827"
41990,"125 PINELAND DRIVE","COPLEY","OH","44321"
41991,"125 PINEVIEW RD","MONTEVALLO","AL","35115"
41992,"125 PINEVIEW WAY SE","CALHOUN","GA","30701"
41993,"125 PINEWOOD PLACE","EMERALD ISLE","NC","28594"
41994,"125 PIPER LANE","MERIDIANVILLE","AL","35759"
41995,"125 PLAIN STREET","HOPEDALE","MA","01747"
41996,"125 PONDS VIEW DR","OXFORD","PA","19363"
41997,"125 PRAIRIE VIEW DR","PRINCETON","TX","75407"
41998,"125 PROSPERITY DRIVE  SUITE 500","WINCHESTER","VA","22602"
41999,"125 QUANTUM STREET","HOLLY SPRINGS","NC","27540"
42000,"125 RAILROAD AVE SUITE 2","HIGHTSTOWN","NJ","08520"
