"ID","Address","City","State","Zip"
70501,"1526 CYPRESS AVE","CLOVIS","CA","93611"
70502,"1526 DENNISTON ST","PITTSBURGH","PA","15217"
70503,"1526 DUNCAN CIR","LIBERTY","MO","64068"
70504,"1526 E 11TH AVE","SPOKANE","WA","99202"
70505,"1526 E CALIMYRNA AVE","FRESNO","CA","93710"
70506,"1526 E KING RD","TOMAHAWK","WI","54487"
70507,"1526 GLASHOLM DR","HOUSTON","TX","77073"
70508,"1526 HARVEST AVE SE","OLYMPIA","WA","98501"
70509,"1526 INNES AVE","SAN FRANCISCO","CA","94124"
70510,"1526 LOCUST ROAD NW","WASHINGTON","DC","20012"
70511,"1526 LOWER ROAD","PLAINFIELD","VT","05667"
70512,"1526 MANDEVILLE STREET","NEW ORLEANS","LA","70117"
70513,"1526 NE 92ND ST","SEATTLE","WA","98115"
70514,"1526 NE FRANKLIN ST","CAMAS","WA","98607"
70515,"1526 NORTH WALLER","CHICAGO","IL","60651"
70516,"1526 NORTHEAST 14TH TERRACE","GAINESVILLE","FL","32601"
70517,"1526 PICKWICK LN","DENTON","TX","76209"
70518,"1526 PINE BLUFF DRIVE","ALLEN","TX","75002"
70519,"1526 PLANTATION LAKES CIRCLE","CHESAPEAKE","VA","23320"
70520,"1526 PRESTON PARK DR","DULUTH","GA","30096"
70521,"1526 RAIDER WAY","LEANDER","TX","78641"
70522,"1526 RUTH DRIVE","INDIANAPOLIS","IN","46240"
70523,"1526 S 19TH ST","CORPUS CHRISTI","TX","78404"
70524,"1526 S GREENSTONE LN","DUNCANVILLE","TX","75137"
70525,"1526 SANGAREE CIR","VIRGINIA BEACH","VA","23464"
70526,"1526 SO 19TH ST","CORPUS CHRISTI","TX","78404"
70527,"1526 TENNYSON ST","DENVER","CO","80204"
70528,"1526 TERRA VERDE WAY","OCOEE","FL","34761"
70529,"1526 VINTAGE WAY","NEW BRAUNFELS","TX","78132"
70530,"1526 W THOME AVE UNIT 2","CHICAGO","IL","60660"
70531,"1526 W UTE BLVD STE 203","PARK CITY","UT","84098"
70532,"1526 WEST 65TH PLACE","LOS ANGELES","CA","90047"
70533,"1526 WOOLSEY STREET","BERKELEY","CA","94703"
70534,"1526 YORK RD","LUTHERVILLE","MD","21093"
70535,"15260 LANDMARK CIRCLE N","JACKSONVILLE","FL","32226"
70536,"15260 TORBAY WAY","WOODBRIDGE","VA","22191"
70537,"15260 VENTURA BLVD NO 610","SHERMAN OAKS","CA","91403"
70538,"15260 VENTURA BLVD STE 1430","SHERMAN OAKS","CA","91403"
70539,"15260 VENTURA BLVD SUITE 2100","SHERMAN OAKS","CA","91403"
70540,"15261 BARNWALL STREET","LA MIRADA","CA","90638"
70541,"15261 CORBETT CT","SAN LEANDRO","CA","94578"
70542,"15262 SW 167 TER","MIAMI","FL","33187"
70543,"15263 HOOK BLVD  B5","VICTORVILLE","CA","92394"
70544,"15263 LAWSON VALLEY RD","JAMUL","CA","91935"
70545,"15263 SUMMER LAKE DRIVE","DELRAY BEACH","FL","33446"
70546,"15264 DUGGAN RD","DADE CITY","FL","33523"
70547,"15265 ALTON PARKWAY SUITE 400","IRVINE","CA","92618"
70548,"15266 CAMPINA LANE","LA MIRADA","CA","90638"
70549,"15267 MINCING LN","C HANNELVIEW","TX","77530"
70550,"15267 MINCING LN","CHANNELVIEW","TX","77530"
70551,"15269 AUTUMN WYNDS","MOUNT ORAB","OH","45154"
70552,"15269 ESTES ROAD","BOW","WA","98232"
70553,"15269 LA PALMA WAY","MORENO VALLEY","CA","92555"
70554,"1527 18TH STREET","CODY","WY","82414"
70555,"1527 1ST STREET APT W302","CORONADO","CA","92118"
70556,"1527 21STREET","MANHATTAN BEACH","CA","90266"
70557,"1527 30TH AVE S","SEATTLE","WA","98144"
70558,"1527 34TH ST","OAKLAND","CA","94608"
70559,"1527 5TH AVE","SAN RAFAEL","CA","94901"
70560,"1527 5TH STREET WEST","PALMETTO","FL","34221"
70561,"1527 ARCADIA STREET","MEXICO","MO","65265"
70562,"1527 BAYBERRY VIEW LANE","SAN RAMON","CA","94582"
70563,"1527 BUCHANAN ST","RACINE","WI","53402"
70564,"1527 BURGIE STREE","ELIZABETHTON","TN","37643"
70565,"1527 COLE BLVD STE 100","LAKEWOOD","CO","80401"
70566,"1527 COLEMAN ROAD APT A","KNOXVILLE","TN","37909"
70567,"1527 COLUMBINE DR","TUPELO","MS","38801"
70568,"1527 COOLIDGE STREET","SAN DIEGO","CA","92111"
70569,"1527 DEL CREST PLACE","LAKELAND","FL","33803"
70570,"1527 E 220TH STREET","CARSON","CA","90745"
70571,"1527 ESSEX STREET","RAHWAY","NJ","07065"
70572,"1527 FRANKLIN ROAD","HEFLIN","LA","71039"
70573,"1527 FRONT STREET","GEORGETOWN","SC","29440"
70574,"1527 GAUSE BLVD  17","SLIDELL","LA","70458"
70575,"1527 GAUSE BLVD PMB 156","SLIDELL","LA","70458"
70576,"1527 GAUSE BLVD STE 111","SLIDELL","LA","70458"
70577,"1527 GLADE GULCH ROAD","CASTLE ROCK","CO","80104"
70578,"1527 GRANVILLE AVE 6","LOS ANGELES","CA","90025"
70579,"1527 HENNESSEY DR","ALLEN","TX","75013"
70580,"1527 HWY 114 SUITE 500","GRAPEVINE","TX","76051"
70581,"1527 KENWOOD AVE","PLYMOUTH","IN","46563"
70582,"1527 LAUREL VALLEY DRIVE","MOUNT VERNON","OH","43050"
70583,"1527 MANZANA WAY","SAN DIEGO","CA","92139"
70584,"1527 MEADOW LANE","ELKHORN","WI","53121"
70585,"1527 MORGAN AVENUE NORTH","MINNEAPOLIS","MN","55411"
70586,"1527 N ASTOR ST","MILWAUKEE","WI","53202"
70587,"1527 N MARSHALL ST APT 16","MILWAUKEE","WI","53202"
70588,"1527 N WICKER PARK AVE APT 103","CHICAGO","IL","60622"
70589,"1527 NOBLE AVE","COLUMBIA","SC","29203"
70590,"1527 NW 80TH AVE  APT J","MARGATE","FL","33063"
70591,"1527 PARKFIELD CT","NAPERVILLE","IL","60540"
70592,"1527 PEBBLESTONE CT","ALLEN","TX","75002"
70593,"1527 PENINSULA CIRCLE","CASTLE ROCK","CO","80104"
70594,"1527 POLK ST","NAPA","CA","94559"
70595,"1527 PORTERFIELD RD","PHILIPPI","WV","26416"
70596,"1527 ROCKY SPRINGS ROAD","SPRING CITY","TN","37381"
70597,"1527 S GATEWAY BLVD","RIDGECREST","CA","93555"
70598,"1527 S PENNINGTON DRIVE","CHANDLER","AZ","85286"
70599,"1527 SABRA DR","BROOKSVILLE","FL","34601"
70600,"1527 SANDI DR","INDIANAPOLIS","IN","46260"
70601,"1527 SARATOGA DRIVE","ALPHARETTA","GA","30022"
70602,"1527 TAYLOR AVE APT 11","BRONX","NY","10460"
70603,"1527 THRUSH AVE","HAMPTON","IA","50441"
70604,"1527 TRIGGER WAY","LAS VEGAS","NV","89032"
70605,"1527 W CAYUGA ST","PHILADELPHIA","PA","19140"
70606,"1527 W STATE HIGHWAY 114","GRAPEVINE","TX","76051"
70607,"1527 W STATE HWY 114 STE 500-276","GRAPEVINE","OK","76051"
70608,"1527 W STATE HWY 114 STE 500-276","GRAPEVINE","TX","76051"
70609,"1527 W STATE HWY 114 SUITE 500","GRAPEVINE","TX","76051"
70610,"1527 WESTLAWN DR","MEMPHIS","TN","38114"
70611,"1527 WYNTHROPE COVE","RIVERDALE","GA","30274"
70612,"15270 N ORACLE ROAD","TUCSON","AZ","85739"
70613,"15270 PEAR VALLEY LANE","AUBURN","CA","95603"
70614,"15271 KINGSMAN CIRCLE","CHESTERFIELD","MO","63017"
70615,"15271 NW 150TH AVE","ALACHUA","FL","32615"
70616,"15271 NW 150TH AVENUE APT 2037","ALACHUA","FL","32615"
70617,"15271 WILLIAMSPORT PIKE","GREENCASTLE","PA","17225"
70618,"15272 NOONING TREE CT","CHESTERFIELD","MO","63017"
70619,"15272 SW 104TH STREET SUITE 6-110","MIAMI","FL","33196"
70620,"15273 ORCHARD HILL LANE","HELENDALE","CA","92342"
70621,"15274 HORGER AVE","ALLEN PARK","MI","48101"
70622,"15274 SALANO CREEK DRIVE","FRISCO","TX","75035"
70623,"15275 COLLIER BLVD SUITE 201-222","NAPLES","FL","34119"
70624,"15276 PULLIAM LANE","CULPEPER","VA","22701"
70625,"15277 SW 175 ST","MIAMI","FL","33187"
70626,"1528 12TH STREET","SANTA MONICA","CA","90406"
70627,"1528 25TH ST","DETROIT","MI","48216"
70628,"1528 BARDWELL WEST ROAD","WILLIAMSBURG","OH","45176"
70629,"1528 CAP RIDGE PEAK","NEW BRAUNFELS","TX","78130"
70630,"1528 CLAY STREET","SHREVEPORT","LA","71101"
70631,"1528 CLIFTON AVE","SPRINGFIELD","OH","45505"
70632,"1528 COMANCHE CT","GRANBURY","TX","76048"
70633,"1528 DELANE AVE APT 6","CHARLOTTE","NC","28211"
70634,"1528 DOGWOOD ROAD","CHARLESTON","WV","25314"
70635,"1528 FERRY ROAD","SOMERSET","KY","42503"
70636,"1528 FORRESTER AVE","SHARON HILL","PA","19079"
70637,"1528 GLASS AVE NE","OLYMPIA","WA","98506"
70638,"1528 HIGHLAND AVE","KNOXVILLE","TN","37916"
70639,"1528 HWY 66","PINEVILLE","KY","40977"
70640,"1528 IVER STREET","COLORADO SPRINGS","CO","80910"
70641,"1528 KENNELLWORTH PLACE","BRONX","NY","10465"
70642,"1528 MAYO STREET","HOLLYWOOD","FL","33020"
70643,"1528 N LEE BLVD","BERKELEY","IL","60163"
70644,"1528 N PRAIRIE STREET","GALESBURG","IL","61401"
70645,"1528 NORTH 57TH STREET","PHILADELPHIA","PA","19131"
70646,"1528 NW 119TH STREET","MIAMI","FL","33167"
70647,"1528 OLD TAMAH ROAD","IRMO","SC","29063"
70648,"1528 PALERMO AVENUE","CORAL GABLES","FL","33134"
70649,"1528 PAULA STREET","NEW ORLEAS","LA","70122"
70650,"1528 PENSACOLA ST 2","HONOLULU","HI","96822"
70651,"1528 PICARD RD","COLUMBUS","OH","43227"
70652,"1528 RUSTIN AVENUE","CAPITOL HEIGHTS","MD","20743"
70653,"1528 SHEPHERD LN","CARROLLTON","TX","75007"
70654,"1528 SIR HENRYS TRAIL","LAKELAND","FL","33809"
70655,"1528 TAMM AVENUE","SAINT LOUIS","MO","63139"
70656,"1528 TOMMYS RD","GOLDSBORO","NC","27534"
70657,"1528 WEST CONTOUR DRIVE","SAN ANTONIO","TX","78212"
70658,"1528 WESTSHIRE LANE","HENRICO","VA","23238"
70659,"1528 WINSTON LN","FLEMING ISLE","FL","32003"
70660,"15281 N HAUSER LAKE RD","HAUER","ID","83854"
70661,"15282 ALICE LN","MOUNTAIN","WI","54149"
70662,"15283 CAVALIERI","SONORA","CA","95370"
70663,"15283 SUNSET RD","BOW","WA","98232"
70664,"15284 76TH ST","OTSEGO","MN","55330"
70665,"15285 DONNINGTON LANE","TRUCKEE","CA","96161"
70666,"15286 CANTERBURY LN","GRAND HAVEN","MI","49417"
70667,"15286 CATALINA ROAD","ELMO","MO","64445"
70668,"15286 ROSEMONT MANOR DRIVE","HAYMARKET","VA","20169"
70669,"1529 1/2 SEVENTH STREET","NEW ORLEANS","LA","70115"
70670,"1529 140TH LANE NW","ANDOVER","MN","55304"
70671,"1529 1ST AVE","YORK","PA","17403"
70672,"1529 29TH AVE SE","PUYALLUP","WA","98374"
70673,"1529 44TH STREET","WEST PALM BEACH FLOR","FL","33407"
70674,"1529 ALBEMARLE WAY","BURLINGAME","CA","94010"
70675,"1529 BIRMINGHAM FOREST DRIVE","FRISCO","TX","75034"
70676,"1529 CUSTER DRIVE","SAINT CHARLES","MO","63303"
70677,"1529 E 40TH AVE","SPOKANE","WA","99203"
70678,"1529 ELEGANTE COURT","CORONA","CA","92882"
70679,"1529 ELM - 208 HILLCREST PLACE","CANON CITY","CO","81212"
70680,"1529 FRANKLIN ST","ANN ARBOR","MI","48103"
70681,"1529 FRIENDLY WOODS ROAD","BLYTHEWOOD","SC","29016"
70682,"1529 GUILFORD RD","COLUMBUS","OH","43221"
70683,"1529 HUDGENS AVE","KATY","TX","77493"
70684,"1529 HURST DR","DAYTON","OH","45414"
70685,"1529 JUNIPER HILLS","POCATELLO","ID","83204"
70686,"1529 KELLY STREET","OCEANSIDE","CA","92054"
70687,"1529 LAKE FOREST DRIVE","CHARLOTTESVILLE","VA","22901"
70688,"1529 MEADOW LN","BURLINGAME","CA","94010"
70689,"1529 N PHILIP ST UNIT 11","PHILADELPHIA","PA","19122"
70690,"1529 NORTH LARAMIE AVENUE","CHICAGO","IL","60651"
70691,"1529 OAK STREET  NUMBER 20","FLOWOOD","MS","39232"
70692,"1529 ORMSBY DRIVE","SOUTH LAKE TAHOE","CA","96150"
70693,"1529 PENNSYLVANIA AVENUE SE","WASHINGTON","DC","20011"
70694,"1529 PINE KNOLL LANE","MAMARONECK","NY","10543"
70695,"1529 PLYMOUTH STREET","BRIDGEWATER","MA","02324"
70696,"1529 RIDGELAND DRIVE","BATON ROUGE","LA","70810"
70697,"1529 RUSTICWOOD DR","DESOTO","TX","75115"
70698,"1529 S STATE STREET","CHICAGO","IL","60605"
70699,"1529 SAINT CHARLES STREET","WAUWATOSA","WI","53213"
70700,"1529 SAN ANGELO","SAN ANTONIO","TX","78201"
70701,"1529 SANDY COURT","ANTIOCH","CA","94509"
70702,"1529 SESSOM DR","MESQUITE","TX","75149"
70703,"1529 SICILY DR","LONGMONT","CO","80503"
70704,"1529 STAMPMILL WAY","LAWRENCEVILLE","GA","30043"
70705,"1529 STONELEIGH CT APT 1112","ARLINGTON","TX","76011"
70706,"1529 TAYLOR RD","BULLHEAD CITY","AZ","86442"
70707,"1529 VALLEY VIEW DRIVE","CEDAR HILL","TX","75104"
70708,"1529 W 16TH ST","DAVENPORT","IA","52804"
70709,"1529 W HOLT AVE","MILWAUKEE","WI","53215"
70710,"1529 WALTHOUR ROAD","SAVANNAH","GA","31410"
70711,"1529 WEST 365 NORTH","HURRICANE","UT","84737"
70712,"1529 WILLIS ROAD","MADISON","VA","22727"
70713,"1529 WOODBOURNE AVENUE","BALTIMORE","MD","21239"
70714,"1529 YORK ST SUITE 1","DENVER","CO","80206"
70715,"1529","MONTGOMERY","TX","77356"
70716,"15290 E 6TH AVENUE SUITE 225","AURORA","CO","80011"
70717,"15290 N 63RD DRIVE","GLENDALE","AZ","85306"
70718,"15290 NORTH 78TH WAY B202","SCOTTSDALE","AZ","85260"
70719,"15291 SW HWY 97","CULVER","OR","97734"
70720,"15292 SLATEFORD RD","NOBLESVILLE","IN","46062"
70721,"15293 FALCON CREST CR","DRAPER","UT","84020"
70722,"15293 VAN BUREN ST","GULFPORT","MS","39501"
70723,"15294 SW 21ST STREET","MIRAMAR","FL","33027"
70724,"15295 MIDDLETOWN AVE","NOBLESVILLE","IN","46060"
70725,"15297 HIGHWAY 151","MADISON","MO","65263"
70726,"15298 A LICK RUN LYRA ROAD","SOUTH WEBSTER","OH","45682"
70727,"15299 LAGUNA HILLS DRIVE","FORT MYERS","FL","33908"
70728,"15299 W ROMA AVE","GOODYEAR","AZ","85395"
70729,"152A DELMAR STREET","SAN FRANCISCO","CA","94117"
70730,"152B LOVERS LANE","BOWLING GREEN","KY","42103"
70731,"153 4TH AVE","EAST ORANGE","NJ","07017"
70732,"153 ARDWICK TERRACE","LANSDALE","PA","19446"
70733,"153 ASHBY RD","UPPER DARBY","PA","19082"
70734,"153 AUGUST WEST WAY","LAWRENCEVILLE","GA","30046"
70735,"153 B TIERNEY DRIVE","CEDAR GROVE","NJ","07009"
70736,"153 BAKER POND ROAD","DUDLEY","MA","01571"
70737,"153 BEACH ROAD","POUGHQUAG","NY","12570"
70738,"153 BERRYWOOD CT","MCDONOUGH","GA","30253"
70739,"153 BOCA RATON WAY","LANCASTER","TX","75146"
70740,"153 BOSTON POST RD NUM 411","EAST LIME","CT","06333"
70741,"153 BRIARWOOD CIR","RUTHERFORDTON","NC","28139"
70742,"153 BROOKHAVEN DRIVE","WILLIAMSBURG","VA","23188"
70743,"153 BYERLY BLVD","RADCLIFF","KY","40160"
70744,"153 CASUDA CANYON DRIVE APT B","MONTEREY PARK","CA","91754"
70745,"153 CEDAR VALLEY RD","ROGERSVILLE","TN","37857"
70746,"153 CENTRAL STREET","EAST BRIDGEWATER","MA","02333"
70747,"153 CENTRE ST STE 203","NEW YORK","NY","10013"
70748,"153 CHADD LANE","GRETNA","FL","32332"
70749,"153 CHERRY ST","MALDEN","MA","02148"
70750,"153 CHESTERFIELD BUSINESS PARKWAY","CHESTERFIELD","MO","63005"
70751,"153 CHESTERFIELD DRIVE","ROCHESTER","NY","14612"
70752,"153 CHESTNUT STREET","SOUTHBRIDGE","MA","01550"
70753,"153 CHILDS RD","TROUT CREEK","MT","59874"
70754,"153 CHURCH ST","DOYLESTOWN","OH","44230"
70755,"153 CHURCH STREET","DOYLESTOWN","OH","44230"
70756,"153 COLLEGE STREET","BUFFALO","NY","14201"
70757,"153 COTTONWOOD LANE","LITTLE ELM","TX","75068"
70758,"153 COVE LANE","GREAT FALLS","MT","59404"
70759,"153 CROW FARM ROAD","JACKSONVILLE","AL","36265"
70760,"153 CYPRESS LAKE BLVD","MADISON","MS","39110"
70761,"153 DALTON ROAD","CHELMSFORD","MA","01824"
70762,"153 DIAMOND ST UNIT A","ARCADIA","CA","91006"
70763,"153 DONAHUE STREET - 34","MARIN CITY","CA","94965"
70764,"153 DOROTHY DRIVE","PITTSBURGH","PA","15235"
70765,"153 E 110TH ST","LOS ANGELES","CA","90061"
70766,"153 E FLAGLER STREET PMB 139","MIAMI","FL","33131"
70767,"153 E KAMEHAMEHA AVE 456 STE 104","KAHULUI","HI","96732"
70768,"153 E KAMEHAMEIKI AVE SUITE 234","KAHULUI","HI","96732"
70769,"153 E MAIN ST","LAKELAND","GA","31635"
70770,"153 EAST 600 NORTH","PROVO","UT","84606"
70771,"153 EAST 60TH STREET","LOS ANGELES","CA","90003"
70772,"153 EAST 96TH STREET APT5C","NEW YORK","NY","10128"
70773,"153 EAST 96TH STREET","NEW YORK","NY","10128"
70774,"153 ELAINE DRIVE","OCEANSIDE","NY","11572"
70775,"153 FIFTH STREET","CAMBRIDGE","MA","02141"
70776,"153 FIRST AVENUE","HAINES","AK","99827"
70777,"153 FORBES STREET","RIVERSIDE","RI","02915"
70778,"153 GOLDEN LANE","DOUGLAS","GA","31535"
70779,"153 GRAND AVE  APT 3","ATLANTIC HIGHLANDS","NJ","07716"
70780,"153 GREENFIELD CRESCENT","SUFFOLK","VA","23434"
70781,"153 GREENWOOD STREET","NEW HAVEN","CT","06511"
70782,"153 HANOVER STREET","ASHEVILLE","NC","28806"
70783,"153 HARBOR LAKE CIRCLE","GREENACRES","FL","33413"
70784,"153 HOLLOW CREEK FARM ROAD","AIKEN","SC","29803"
70785,"153 ILEX DRIVE","CANTON","GA","30114"
70786,"153 LAS PALMAS BLVD","N. FORT MYERS","FL","33903"
70787,"153 LEXINGTON STREET","BOSTON","MA","02128"
70788,"153 LOGAN AVE","STEAMBOAT SPRINGS","CO","80487"
70789,"153 LT VANWINKLE DRIVE","BINGHAMTON","NY","13905"
70790,"153 MAIN ST","EAST HAMPTON","NY","11937"
70791,"153 MAIN ST","ROWLEY","MA","01969"
70792,"153 MARIPOSA LN","TELLURIDE","CO","81435"
70793,"153 MARY CIRCLE","NORTH MANKATO","MN","56003"
70794,"153 MILLAUDON ST","NEW ORLEANS","LA","70118"
70795,"153 MOHAWK DRIVE","RICHBORO","PA","18954"
70796,"153 MONTICELLO AVE FLOOR 1","JERSEY CITY","NJ","07304"
70797,"153 MONTICELLO AVENUE 2ND FLOOR","JERSEY CITY","NJ","07304"
70798,"153 MOONRAKER DR","SLIDELL","LA","70458"
70799,"153 MOUNT VERNON ROAD","AMHERST","NY","14226"
70800,"153 N KETCH DRIVE","SUNRISE","FL","33326"
70801,"153 N UNION ST","GRASS LAKE","MI","49240"
70802,"153 NAVARRE DR","MIAMI SPRINGS","FL","33166"
70803,"153 NE 97TH STREET","MIAMI","FL","33138"
70804,"153 NORFOLK ST 5B","NEW YORK","NY","10002"
70805,"153 NORTH HERRING ROAD","OPELIKA","AL","36804"
70806,"153 NORTH TAMIAMI TRAIL","OSPREY","FL","34229"
70807,"153 PANTHER WAY","BLAIRSVILLE","GA","30512"
70808,"153 PENMOKEN PARK","LEXINGTON","KY","40503"
70809,"153 PHOEBE ST","ENCINITAS","CA","92024"
70810,"153 PINEWOOD CIRCLE","KISSIMMEE","FL","34743"
70811,"153 PLYMOUTH DR","VISTA","CA","92083"
70812,"153 PRINCESS DR","MADISON","CT","06443"
70813,"153 REGIS ROAD","EAST FALMOUTH","MA","02536"
70814,"153 RICHARDS STREET APT 3B","BROOKLYN","NY","11231"
70815,"153 RIDGE ST N","MONROEVILLE","OH","44847"
70816,"153 RIVERSVILLE RD","GREENWICH","CT","06831"
70817,"153 S 160TH ST APT 57","BURIEN","WA","98148"
70818,"153 S MAIN ST  PO BOX 272","PORT ALLEGANY","PW","16743"
70819,"153 S MAIN ST","HELPER","UT","84526"
70820,"153 SAN VINCENTE BLVD 4E","SANTA MONICA","CA","90402"
70821,"153 SANDRA WAY","FRANKLINVILLE","NJ","08322"
70822,"153 SCOUT ROAD","LEXINGTON","NC","27292"
70823,"153 SEA GIRT AVENUE","MANASQUAN","NJ","08736"
70824,"153 SOUTH FRANKLIN ST","HOLBROOK","MA","02434"
70825,"153 SOUTH MAIN STREET","NEWTOWN","CT","06470"
70826,"153 SOUTH SIERRA - 165","SOLANA BEACH","CA","92075"
70827,"153 SOUTH WASHINGTON ST","CAMPTON","KY","41301"
70828,"153 SOUTHFORK DRIVE","MACON","GA","31220"
70829,"153 SPRINGS LANE","IVANHOE","NC","28447"
70830,"153 SUN VALLEY WAY","MORRIS PLAINS","NJ","07950"
70831,"153 SYCAMORE AVE","NORTH PLAINFIELD","NJ","07060"
70832,"153 TAMARACK LANE","BOXBOROUGH","MA","01719"
70833,"153 TAMMY DR","LA PLACE","LA","70068"
70834,"153 TED LOTT LANE","CRAWFORDVILLE","FL","32327"
70835,"153 THOMPSON ROAD","DELTA","PA","17314"
70836,"153 ULMUS RD","FREDERICKSBURG","TX","78624"
70837,"153 VENTURE DRIVE","BRUNSWICK","GA","31525"
70838,"153 VIVIAN ST","WEST END","NC","27376"
70839,"153 W 18TH ST FL 1","BAYONNE","NJ","07002"
70840,"153 W GARFIELD BLVD APT 2W","CHICAGO","IL","60621"
70841,"153 W LAKE MEAD PKWY SUITE 2100","HENDERSON","NV","89015"
70842,"153 W ROSECRANS AVE","GARDENA","CA","90248"
70843,"153 WALNUT STREET","CENTREVILLE","AL","35042"
70844,"153 WALNUT WAY","PINEVILLE","SC","29468"
70845,"153 WARM SUNDAY WAY","MECHANICSBURG","PA","17050"
70846,"153 WEST 5TH ST","LAPLACE","LA","70068"
70847,"153 WEST WALNUT STREET","KUTZTOWN","PA","19530"
70848,"153 WINTHROP ST","MEDFORD","MA","02155"
70849,"153-12 132ND AVE","JAMAICA","NY","11434"
70850,"153-30 89TH AVENUE NUMBER 637","JAMAICA","NY","11432"
70851,"153","ARCHIE","MO","64725"
70852,"1530 1/2 BURRELL AVE","LEWISTON","ID","83501"
70853,"1530 261ST STREET UNIT 306","HARBOR CITY","CA","90710"
70854,"1530 4TH STREET 38","SACRAMENTO","CA","95814"
70855,"1530 7TH STREET","GERING","NE","69341"
70856,"1530 9TH AVE","LONGMONT","CO","80501"
70857,"1530 A STREET NE","WASHINGTON","DC","20002"
70858,"1530 ANN ST","BEAUFORT","NC","28516"
70859,"1530 BETHAVEN ROAD","RIVERDALE","GA","30296"
70860,"1530 BISHOPS LODGE ROAD","SANTA FE","NM","87506"
70861,"1530 BOUNDARY RD","ELMA","WA","98541"
70862,"1530 BROOKHAVEN ROAD","WYNNEWOOD","PA","19096"
70863,"1530 CONSTITUTION BLVD APT 211","SALINAS","CA","93905"
70864,"1530 CORINTH RD","LAWRENCEBURG","KY","40342"
70865,"1530 DEKALB AVE NE STE A","ATLANTA","GA","30307"
70866,"1530 DEKALB AVE NE","ATLANTA","GA","30307"
70867,"1530 DEKALB AVENUE NE","ATLANTA","GA","30307"
70868,"1530 E 14TH AVENUE","SPOKANE","WA","99202"
70869,"1530 E 1ST ST","NEWBERG","OR","97132"
70870,"1530 E 6TH ST","RENO","NV","89512"
70871,"1530 E BRILL ST","PHOENIX","AZ","85006"
70872,"1530 E CHARLESTON  BLVD STE 5","LAS VEGAS","NV","89104"
70873,"1530 E WILLIAMS FIELD RD STE 201","GILBERT","AZ","85295"
70874,"1530 EAST 8TH ST APT 4G","BROOKLYN","NY","11230"
70875,"1530 EAST BROADWAY SUITE 105","GLENDALE","CA","91205"
70876,"1530 ELLIOTTS CREEK LN","CAPE CHARLES","VA","23310"
70877,"1530 FIFTH AVENUE","MOLINE","IL","61265"
70878,"1530 GREENSMARK DR UNIT 671192","HOUSTON","TX","77067"
70879,"1530 GREENVIEW DR SW SUITE 212 C","ROCHESTER","MN","55902"
70880,"1530 GREENVIEW DRIVE SW SUITE 120","ROCHESTER","MN","55902"
70881,"1530 GROTON RD","BLOOMFIELD HILLS","MI","48302"
70882,"1530 HATTER CREEK ROAD","PRINCETON","ID","83857"
70883,"1530 JOHNS RD","NEW FRANKLIN","OH","44216"
70884,"1530 LAKE VILLA CIRCLE","COOKEVILLE","TN","38506"
70885,"1530 LANE 27","PUEBLO","CO","81006"
70886,"1530 MALLARD CIR","SHREVEPORT","LA","71106"
70887,"1530 MARTIN STREET SUITE 204","WINSTON SALEM","NC","27103"
70888,"1530 MARTIN STREET SUITE 205A","WINSTON-SALEM","NC","27103"
70889,"1530 MORGAN LANE","CHESTERBROOK","PA","19087"
70890,"1530 N 2ND AVE","HAILEY","ID","83333"
70891,"1530 N BLUE RIDGE ROAD","TUCSON","AZ","85745"
70892,"1530 NORTH DEARBORN PARKWAY APT 19","CHICAGO","IL","60610"
70893,"1530 NORTH MCCARTHY ROAD SUITE 6","APPLETON","WI","54913"
70894,"1530 NW 128TH DR APT 104","SUNRISE","FL","33323"
70895,"1530 OAK HAVEN RD","JACKSONVILLE","FL","32207"
70896,"1530 P B LN   SUITE  G4795","WICHITA FALLS","TX","76302"
70897,"1530 P B LN  G4795","WICHITA FALLS","FL","76302"
70898,"1530 P STREET NW","WASHINGTON","DC","20005"
70899,"1530 PACIFIC GROVE LN","KATY","TX","77494"
70900,"1530 PLEASANT CREST LANE","LA HABRA HEIGHTS","CA","90631"
70901,"1530 POLE LANE RD","MARION","OH","43302"
70902,"1530 POPE AVEUNE","SPRINGFIELD","IL","62703"
70903,"1530 PRESSTMAN STREET","BALTIMORE","MD","21217"
70904,"1530 S 12TH ST","SHEBOYGAN","WI","53081"
70905,"1530 S 6TH ST STE C-1702","MINNEAPOLIS","MN","55454"
70906,"1530 S BARCLAY ST","MILWAUKEE","WI","53204"
70907,"1530 S FLORAL AVENUE","BARTOW","FL","33830"
70908,"1530 S GREEN STREET","GLASGOW","KY","42141"
70909,"1530 S STATE ST UNIT 1006","CHICAGO","IL","60605"
70910,"1530 SABRA DRIVE","BROOKSVILLE","FL","34601"
70911,"1530 SILO ROAD","LANGHORNE","PA","19067"
70912,"1530 SOUTH CAMAC STREET","PHILADELPHIA","PA","19147"
70913,"1530 SOUTH STATE APT 510","CHICAGO","IL","60605"
70914,"1530 SUN CITY BLVD STE 120 PMB 127","GEORGETOWN","TX","78633"
70915,"1530 SW 154 AVE","MIAMI","FL","33194"
70916,"1530 SYCAMORE LANE","AURORA","IL","60504"
70917,"1530 UPPER PALMER RD","SALISBURY","NC","28146"
70918,"1530 VILLAGE CENTER DR APT 107","LAKELAND","FL","33803"
70919,"1530 W BOYNTON BEACH BLVD  STE 3155","BOYNTON BEACH","FL","33424"
70920,"1530 W COULTER DRIVE","DE QUEEN","AR","71832"
70921,"1530 WHEAT ST","COLUMBIA","SC","29201"
70922,"1530-A COLLEGE PARK DRIVE","COLUMBIA","TN","38401"
70923,"15300 BELLAIRE BLVD","HOUSTON","TX","77083"
70924,"15300 BEXLEY PLACE","MINT HILL","NC","28227"
70925,"15300 BOND ST","OVERLAND PARK","KS","66221"
70926,"15300 CHICOPEE TRAIL","LITTLE ROCK","AR","72210"
70927,"15300 E 10 MILE ROAD","EASTPOINTE","MI","48021"
70928,"15300 N FOUNTAIN HILLS BLVD","FOUNTAIN HILLS","AZ","85268"
70929,"15300 PALM DRIVE  SPC 199","DESERT HOT SPRINGS","CA","92240"
70930,"15300 ROBIEN DR","BOONVILLE","MO","65233"
70931,"15300 SW 103 PLACE","MIAMI","FL","33157"
70932,"15300 US HIGHWAY 33W","LINN","WV","26384"
70933,"15300 VENTURA BLVD STE 502","SHERMAN OAKS","CA","91403"
70934,"15300 WEST 8 MILE RD APT 2","OAK PARK","MI","48237"
70935,"15301 HENDRICKS DRIVE","ABINGDON","VA","24210"
70936,"15301 TAYLOR LANE","MACDOEL","CA","96058"
70937,"15301 VALLEY VISTA BLVD 213","SHERMAN OAKS","CA","91403"
70938,"15301 VENTURA BLVD B490","SHERMAN OAKS","CA","91403"
70939,"15302 CARROLLTON LANE","TAMPA","FL","33624"
70940,"15302 CENTRAL AVE","CHINO","CA","91710"
70941,"15302 DOROTHY DRIVE","AUSTIN","TX","78734"
70942,"15302 FORTE DE FRANCE LN","FLORISSANT","MO","63034"
70943,"15302 GLASTONBURY WAY","UPPER MARLBORO","MD","20774"
70944,"15302 LANDAUER STREET","BASEHOR","KS","66007"
70945,"15303 33RD DR SE","MILL CREEK","WA","98012"
70946,"15303 CAMBERLEY PLACE","UPPER MARLBORO","MD","20774"
70947,"15303 CORLISS PLACE N","SHORELINE","WA","98133"
70948,"15303 HUCKLEBERRY HARVEST TRAIL DRI","CYPRESS","TX","77429"
70949,"15303 SWEETRIDGE ROAD","SILVER SPRING","MD","20905"
70950,"15303 VENTURA BLVD STE 1040","SHERMAN OAKS","CA","91403"
70951,"15303 VENTURA BLVD SUITE 1040","SHERMAN OAKS","CA","91403"
70952,"15303 WESTOVER RD","KANSAS CITY","MO","64131"
70953,"15304 E MONTMOUTH PL","AURORA","CO","80015"
70954,"15304 KETTLEBASTON LN","UPPER MARLBORO","MD","20774"
70955,"15304 NE 181ST LOOP","BRUSH PRAIRIE","WA","98606"
70956,"15304 SW 88TH TER","MIAMI","FL","33196"
70957,"15304 TACUBA DRIVE","LA MIRADA","CA","90638"
70958,"15305 92 WAY N","JUPITER","FL","33478"
70959,"15305 DALLAS PARKWAY SUITE 300","ADDISON","TX","75001"
70960,"15305 FORTE DE FRANCE LN","FLORISSANT","MO","63034"
70961,"15305 ROCKWOOD ROAD","ESCONDIDO","CA","92027"
70962,"15305 SE 48TH DR","BELLEVUE","WA","98006"
70963,"15306 ALEXANDER RD","SCOTT","AR","72142"
70964,"15306 BIGLER ROAD","WAPAKONETA","OH","45895"
70965,"15306 STONEY OAKS LANE","PRATHER","CA","93651"
70966,"15307 E BENWOOD DR","MOORPARK","CA","93021"
70967,"15307 FALLEN GROVE","SAN ANTONIO","TX","78247"
70968,"15307 S CRENSHAW BLVD","GARDENA","CA","90247"
70969,"15308 JILLIAN COURT","ORLAND PARK","IL","60467"
70970,"15308 ROYAL GEORGIAN RD","ORLAND PARK","IL","60462"
70971,"15309 FAIRVIEW FARMS BLVD","EDMOND","OK","73013"
70972,"15309 HIGHWAY 62","CHARLESTOWN","IN","47111"
70973,"15309 NW 132ND TERR","ALACHUA","FL","32615"
70974,"15309 VIA VERITA AVE","HACIENDA HEIGHTS","CA","91745"
70975,"1531 15TH STREET APT 2","SANTA MONICA","CA","90404"
70976,"1531 4TH AVE W","COLUMBIA FALLS","MT","59912"
70977,"1531 8TH STREET NW","WASHINGTON DC","DC","20001"
70978,"1531 AKAHELE PL","KAILUA","HI","96734"
70979,"1531 BRADLEY AVENUE","CAMDEN","NJ","08103"
70980,"1531 CABRILLO AVE UNIT 4","VENICE","CA","90291"
70981,"1531 CAMBRIDGE ST","CAMBRIDGE","MA","02139"
70982,"1531 CAPER TREE DRIVE","CORDOVA","TN","38106"
70983,"1531 CHOICE JOHNSON ROAD","STATHAM","GA","30666"
70984,"1531 COUNTRY CLUB APT 827","LAKE CHARLES","LA","70605"
70985,"1531 CR 700","BLUE MOUNTAIN","MS","38610"
70986,"1531 DREAM CT","REYNOLDSBURG","OH","43068"
70987,"1531 E TAM O SHANTER","ONTARIO","CA","91761"
70988,"1531 FAIRMOUNT AVENUE UNIT 2F","PHILADELPHIA","PA","19130"
70989,"1531 FERN STREET SW","OLYMPIA","WA","98502"
70990,"1531 JAMES STREET","FAIRFIELD","CA","94533"
70991,"1531 KENNEWICK DR","SUNNYVALE","CA","94087"
70992,"1531 MALAGA COURT","YUBA CITY","CA","95993"
70993,"1531 MALTMAN AVE","LOS ANGELES","CA","90026"
70994,"1531 MASSACHUSETTS AVE","ARLINGTON","MA","02476"
70995,"1531 MASTERSON LANE","SAN DIEGO","CA","92154"
70996,"1531 MINNESOTA ROAD","CAMDEN","NJ","08104"
70997,"1531 N DENVER AVE","TULSA","OK","74106"
70998,"1531 N MORNINGSIDE DR NE","ATLANTA","GA","30306"
70999,"1531 N PIERCE STREET - APT 515","ARLINGTON","VA","22209"
71000,"1531 PECAN CROSSING AVE","ZACHARY","LA","70791"
