"ID","Address","City","State","Zip"
93001,"1829 TAFT ST","HOLLYWOOD","FL","33020"
93002,"1829 TUMBLEWEED CT","WESLEY CHAPEL","FL","33543"
93003,"1829 W 13TH ST N","WICHITA","KS","67203"
93004,"1829 WALNUT LANE","EAGAN","MN","55122"
93005,"18290 6TH AVENUE NE","POULSBO","WA","98370"
93006,"18290 COUNTY ROAD 1557","ADA","OK","74820"
93007,"18291 AVOLINDA DR","YORBA LINDA","CA","92886"
93008,"18291 CONCORD-SAPPONY RD","STONY CREEK","VA","23882"
93009,"18293 DEFIANCE-PAULDING CO LINE RD","DEFIANCE","OH","43512"
93010,"18294 E EUCLID PLACE","AURORA","CO","80016"
93011,"18294 WYOMING STREET","DETROIT","MI","48221"
93012,"18297 CO RD 451","BLOOMFIELD","MO","63825"
93013,"18299 5TH AVENUE","JAMESTOWN","CA","95327"
93014,"18299 KILLMONTOWN RD","MELFA","VA","23410"
93015,"183 ABBY LANE","STRASBURG","VA","22657"
93016,"183 BEACH 117TH STREET APT 2","ROCKAWAY PARK","NY","11694"
93017,"183 BEAVER DAM ROAD","SCITUATE","MA","02066"
93018,"183 BERGEN AVE","JERSEY CITY","NJ","07305"
93019,"183 BOG POND RD","BREWSTER","MA","02631"
93020,"183 BREWSTER ROAD","DINGMANS FERRY","PA","18328"
93021,"183 CHEROKEE DRIVE","WINCHESTER","KY","40391"
93022,"183 COLE STREET NE","MARIETTA","GA","30060"
93023,"183 CR 3298","DECATUR","TX","76234"
93024,"183 DEMOSS ROAD","PLAIN DEALING","LA","71064"
93025,"183 EARLE AVE","LYNBROOK","NY","11563"
93026,"183 EAST QUEEN STREET","PENDLETON","SC","29670"
93027,"183 ETHAN ALLEN COURT UNIT 101","WAHIAWA","HI","96786"
93028,"183 EVANS AVENUE","ELMONT","NY","11003"
93029,"183 FESPERMAN CIR","TROUTMAN","NC","28166"
93030,"183 FLORIDA STREET","BUFFALO","NY","14208"
93031,"183 FOX RIDGE LANE","WINFIELD","PA","17889"
93032,"183 FRIENDSHIP LANE","MATTAPONI","VA","23110"
93033,"183 GRANDVIEW DRIVE","HARRISONBURG","VA","22802"
93034,"183 HANK DRIVE","LEESBURG","GA","31763"
93035,"183 HERITAGE DRIVE","WATERBURY","CT","06708"
93036,"183 HIGHWAY 51 N","EDGERTON","WI","53534"
93037,"183 HILL ROAD","DOUGLASSVILLE","PA","19518"
93038,"183 IVYWOOD LANE","ROSWELL","GA","30076"
93039,"183 KING STREET","BREVARD","NC","28712"
93040,"183 LAFAYETTE CIRCLE","CINCINNATI","OH","45220"
93041,"183 LAKEWOOD POINT DRIVE","BOSSIER CITY","LA","71111"
93042,"183 LANGLEY ROAD","NEWTON","MA","02459"
93043,"183 LEGEND DRIVE","CHILLICOTHE","OH","45601"
93044,"183 LOVELAND WAY","GOLDEN","CO","80401"
93045,"183 LUCINA DR","HYPOLUXO","FL","33462"
93046,"183 MADISON AVENUE","JOHNSTOWN","PA","15909"
93047,"183 MAIN STREET APT 1","EASTHAMPTON","MA","01027"
93048,"183 MANIS ROAD","ROGERSVILLE","TN","37857"
93049,"183 MAPLE STREET","JEFFERSON","OH","44047"
93050,"183 MASTEN AVE","BUFFALO","NY","14209"
93051,"183 MCLAIN STREET","BEDFORD CORNERS","NY","10549"
93052,"183 MESSER AVENUE","DEPEW","NY","14043"
93053,"183 MIDLAND AVE","MONTCLAIR","NJ","07042"
93054,"183 MONTGOMERY AVE - 2ND FLOOR","OXNARD","CA","93036"
93055,"183 MT ZION RD SE UNIT 3214","ATLANTA","GA","30354"
93056,"183 MT ZION ROAD SE APT 4111","ATLANTA","GA","30354"
93057,"183 N ARDMORE ROAD","BEXLEY","OH","43209"
93058,"183 N GRAND AVE","ORANGE","CA","92866"
93059,"183 N MAIN AVENUE APT 5","ALBANY","NY","12206"
93060,"183 OAKFIELD AVE","DIX HILLS","NY","11746"
93061,"183 OLD REESEDALE ROAD","ADRIAN","PA","16210"
93062,"183 PAXTON ROAD","EASTLAKE","OH","44095"
93063,"183 POCAHONTAS STREET","BUCKHANNON","WV","26201"
93064,"183 REITTER STREET","STRATFORD","CT","06614"
93065,"183 RIVERVIEW RD","LIVERPOOL","PA","17045"
93066,"183 SAN GERONIMO VALLEY DR STE 495","WOODACRE","CA","94973"
93067,"183 SAN JOSE AVE","PACIFICA","CA","94044"
93068,"183 SE WATERLEAF DR","LAKE CITY","FL","32024"
93069,"183 SEDONA COURT","RAEFORD","NC","28376"
93070,"183 SEIDMAN AVENUE","STATEN ISLAND","NY","10312"
93071,"183 SHELTON ROAD","MADISON","AL","35758"
93072,"183 SIDDINGTON WAY","LEXINGTON","SC","29073"
93073,"183 SOUTH BROAD ST","NAZARETH","PA","18064"
93074,"183 STATE STREET 6TH FLOOR","BOSTON","MA","02109"
93075,"183 STRIKE HOUND COURT","FISHERVILLE","KY","40023"
93076,"183 TERRENO DE FLORES CIRCLE","LOS GATOS","CA","95032"
93077,"183 TOWNESEND RD","SEGUIN","TX","78155"
93078,"183 TWIN PENINSULA AVE","SOUTH KINGSTOWN","RI","02879"
93079,"183 WEIRFIELD STREET","BROOKLYN","NY","11221"
93080,"183 WEST 10 STREET BASEMENT","NEW YORK","NY","10014"
93081,"183 WEST BERRY ROAD","WEST COLUMBA","SC","29172"
93082,"183 WEST MAIN STREET","CROOKSVILLE","OH","43731"
93083,"183 WESTMORELAND STREET","HARROGATE","TN","37752"
93084,"183 WILD ROSE DRIVE","ORANGE","CT","06477"
93085,"183 WILSON ST STE 412","BROOKLYN","NY","11211"
93086,"183 WILSON ST","BROOKLYN","NY","11211"
93087,"183 WILSON STREET UNIT 226","BROOKLYN","NY","11211"
93088,"183 WINTERGREEN LANE","FRANCONIA","NH","03580"
93089,"183","IRVINE","CA","92612"
93090,"183","RED ROCK","TX","78662"
93091,"1830 16TH STREET NW SUITE ONE","WASHINGTON","DC","20009"
93092,"1830 283RD ST","MT PLEASANT","IA","52641"
93093,"1830 74TH ST BMENT","BROOKLYN","NY","11204"
93094,"1830 ASHFORD DRIVE","PLOVER","WI","54467"
93095,"1830 ATLANTIC AVE","LONG BEACH BLVD","CA","90806"
93096,"1830 BERLIN STATION RD","DELAWARE","OH","43015"
93097,"1830 BONANZA DR","DELEON SPRINGS","FL","32130"
93098,"1830 BUNDT DRIVE","NORTON SHORES","MI","49441"
93099,"1830 COMPTON AVE","CORONA","CA","92881"
93100,"1830 CREEK RIDGE CT","IRVING","TX","75060"
93101,"1830 DEBANN PL","ROWLAND HEIGHTS","CA","91748"
93102,"1830 DUMAINE STREET","NEW ORLEANS","LA","70116"
93103,"1830 E BROADWAY PMB 124 120","TUCSON","AZ","85719"
93104,"1830 E KICKLIGHTER RD","LAKE HELEN","FL","32744"
93105,"1830 E MONUMENT ST SUITE 2-300","BALTIMORE","MD","21205"
93106,"1830 E SAHARA AVE SUITE 201","LAS VEGAS","NV","89104"
93107,"1830 EAST DEL RIO DRIVE","TEMPE","AZ","85282"
93108,"1830 FOX HILL DR","INDIANAPOLIS","IN","46228"
93109,"1830 HANLEY ROAD","HUDSON","WI","54016"
93110,"1830 HOWARD ST","BUTTE","MT","59701"
93111,"1830 HURON AVE","ATLANTIC CITY","NJ","08401"
93112,"1830 KK AVENUE","MARENGO","IA","52301"
93113,"1830 MARIGOLD LN","HANOVER PARK","IL","60133"
93114,"1830 MERIDIAN AVENUE  APT 1205","MIAMI BEACH","FL","33139"
93115,"1830 MLK STREET  UNIT 301","SAINT PETERSBURG","FL","33704"
93116,"1830 N KELLOGG DR","ANAHEIM","CA","92807"
93117,"1830 N MAIN STREET","JACKSONVILLE","FL","32206"
93118,"1830 N MARTIN L KING BLVD STE 109","LAS VEGAS","NV","89106"
93119,"1830 N UNIVERSITY DRIVE SUITE 378","PLANTATION","FL","33322"
93120,"1830 N UNIVERSITY DRIVE","PLANTATION","FL","33322"
93121,"1830 NORTH UNIVERSITY DRIVE STE 252","PLANTATION","FL","33322"
93122,"1830 NW 188TH TERRACE","MIAMI GARDENS","FL","33056"
93123,"1830 NW 201ST STREET","SHORELINE","WA","98177"
93124,"1830 NW 2ND AVE","POMPANO BEACH","FL","33060"
93125,"1830 NW 2ND AVENUE","POMPANO BEACH","FL","33060"
93126,"1830 OLD REX MORROW ROAD","MORROW","GA","30260"
93127,"1830 PORT ISABEL DR","ALLEN","TX","75013"
93128,"1830 RADIUS DR APT 1008","HOLLYWOOD","FL","33020"
93129,"1830 ROCHESTER ROAD APT 105","ROYAL OAK","MI","48078"
93130,"1830 S 6TH AVE","MAYWOOD","IL","60153"
93131,"1830 S LA CIENEGA BLVD","LOS ANGELES","CA","90035"
93132,"1830 S LENNOX","CASPER","WY","82601"
93133,"1830 S OCEAN DRIVE","HALLANDALE BEACH","FL","33009"
93134,"1830 S ONEIDA ST","APPLETON","WI","54915"
93135,"1830 S RIDGEWAY AVENUE","CHICAGO","IL","60623"
93136,"1830 SLIPPERY ROCK RD","OWENTON","KY","40359"
93137,"1830 SPRINGS RD PMB 248","VALLEJO","CA","94591"
93138,"1830 SPRINGS ROAD SUITE B","VALLEJO","CA","94591"
93139,"1830 ST HWY 166","COOPERSTOWN","NY","13326"
93140,"1830 SWEETWATER LN","PROSPER","TX","75078"
93141,"1830 TRUXTUN AVENUE SUITE 216","BAKERSFIELD","CA","93301"
93142,"1830 VT ROUTE 66","RANDOLPH","VT","05060"
93143,"1830 W GEORGIA RD BLDG 203","SIMPSONVILLE","SC","29680"
93144,"18300 71ST AVENUE WEST","LYNNWOOD","WA","98037"
93145,"18300 GRIDLEY ROAD SUITE 304","ARTESIA","CA","90702"
93146,"18300 GRIDLEY ROAD UNIT STE D1","ARTESIA","CA","90701"
93147,"18300 OLD PERKINS PLACE AVENUE","PRAIRIEVILLE","LA","70769"
93148,"18300 PRAIRIE STREET","DETROIT","MI","48221"
93149,"18300 S HALSTED STE B-148","GLENWOOD","IL","60425"
93150,"18300 WINDSONG WAY","JUPITER","FL","33478"
93151,"18301 E 8 MILE RD SUITE 213","EASTPOINTE","MI","48021"
93152,"18301 E EIGHT MILE STE 109","EASTPOINTE","MI","48021"
93153,"18301 KIOWA COVE","COLLEGE STATION","TX","77845"
93154,"18301 VON KARMAN AVE STE 430","IRVINE","CA","90802"
93155,"18301 VON KARMAN AVE STE 430","IRVINE","CA","92612"
93156,"18301 VON KARMAN AVE SUITE 430","IRVINE","CA","92612"
93157,"18302 CHIEF ROAD","CHARLESTON","IL","61920"
93158,"18302 INDIAN LAUREL","SAN ANTONIO","TX","78259"
93159,"18302 REDOAK MANOR LANE","CYPRESS","TX","77433"
93160,"18303 DOGWOOD PATH","SAN ANTONIO","TX","78259"
93161,"18303 EAST 43RD STREET","TULSA","OK","74134"
93162,"18303 KITTRIDGE ST APT 10","RESEDA","CA","91335"
93163,"18304 E 11TH AVE","GREENACRES","WA","99016"
93164,"18305 DEAD PAN DR","MANOR","TX","78653"
93165,"18305 EAST PARK DR","CLEVELAND","OH","44119"
93166,"18305 SHERMAN WAY STE 3","RESEDA","CA","91335"
93167,"18306 LIPPARDS HUNT CT","CHARLOTTE","NC","28277"
93168,"18306 NOBEL FOREST DRIVE","HUMBLE","TX","77346"
93169,"18306 SAN GABRIEL AVE","CERRITOS","CA","90703"
93170,"18306 SANDRIDGE RD","LONG BEACH","WA","98631"
93171,"18307 CATTAIL BRANCH COURT","LEESBURG","VA","20176"
93172,"18307 CIMMARON OAK LANE","RICHMOND","TX","77407"
93173,"18307 ORIOLE STREET","LUTZ","FL","33558"
93174,"18307 WILLOW MOSS","HOUSTON","TN","77449"
93175,"18308 ASHWORTH AVE N","SHORELINE","WA","98133"
93176,"18308 ELAINE CT SW","ROCHESTER","WA","98579"
93177,"1831 12 AVE SOUTH UNIT 132","NASHVILLE","TN","37203"
93178,"1831 12TH AVE SOUTH 114","NASHVILLE","TN","37203"
93179,"1831 8TH AVE  APT 402","SEATTLE","WA","98101"
93180,"1831 BENTLEY PLACE","CHARLOTTE","NC","28205"
93181,"1831 BRAMBLEWOOD DR","ORLANDO","FL","32818"
93182,"1831 CAMPAU FARMS CIRCLE","DETROIT","MI","48207"
93183,"1831 CANADA DRIVE","DALLAS","TX","75212"
93184,"1831 CHEVY CHASE WAY","BAKERSFIELD","CA","93306"
93185,"1831 COLLINGWOOD DR","AVON","IN","46123"
93186,"1831 COLUMBUS ROAD","CLEVELAND","OH","44113"
93187,"1831 COVE TRL SW","ATLANTA","GA","30331"
93188,"1831 DELAWARE STREET APT 2C","BERKELEY","CA","95703"
93189,"1831 DRIFTWOOD PLACE","SNELLVILLE","GA","30078"
93190,"1831 E 71ST ST","TULSA","OK","74136"
93191,"1831 E APACHE BLVD B2089","TEMPE","AZ","85281"
93192,"1831 EAST 19TH STREET","SANTA ANA","CA","92705"
93193,"1831 FINLAND AVE","COLUMBUS","OH","43223"
93194,"1831 FIRST STREET N","WINTER HAVEN","FL","33881"
93195,"1831 GRENDON COURT","LITHONIA","GA","30058"
93196,"1831 HANNAH PLACE","POWDER SPRINGS","GA","30127"
93197,"1831 HICKORY BLUFF RD","KISSIMMEE","FL","34744"
93198,"1831 KENSINGTON DR","DAYTON","OH","45406"
93199,"1831 MAIN STREET","MANSON","IA","50563"
93200,"1831 MAPLE AVENUE","CINCINNATI","OH","45212"
93201,"1831 MURRAY AVENUE SUITE 217","PITTSBURGH","PA","15217"
93202,"1831 N 105TH E AVENUE","TULSA","OK","74116"
93203,"1831 N WINSTEAD CT","WICHITA","KS","67206"
93204,"1831 NW 89 TERRACE","MIAMI","FL","33147"
93205,"1831 OAK ST","COLUMBUS","OH","43205"
93206,"1831 OCONNER COURT","AVON","IN","46123"
93207,"1831 QUEBEC CT","MIDDLEBURG","FL","32068"
93208,"1831 RADCLIFF AVE","BRONX","NY","10462"
93209,"1831 RIVER CHASE TRAIL","DULUTH","GA","30096"
93210,"1831 S KEDZIE AVE","CHICAGO","IL","60623"
93211,"1831 SE 4 STREET","POMPANO BEACH","FL","33060"
93212,"1831 SOLANO AVE","BERKELEY CA","CA","94707"
93213,"1831 STARR STREET SUITE 5","RIDGEWOOD","NY","11385"
93214,"1831 STATE RD","RICHMOND","MA","01254"
93215,"1831 W 32ND ST","LONG BEACH","CA","90810"
93216,"1831 W 5TH STREET","DAYTON","OH","45417"
93217,"1831 WEST EVANS STREET SUITE 315","FLORENCE","SC","29501"
93218,"1831 WHITE HERON BAY CIR","ORLANDO","FL","32824"
93219,"1831 WRENS NEST RD","N CHESTERFIELD","VA","23235"
93220,"18310 EASTWYCK DRIVE","TAMPA","FL","33647"
93221,"18310 W 187TH STREET","PAOLA","KS","66071"
93222,"18311 BUTH CASSIDY ROAD","YUCCA","AZ","86438"
93223,"18311 DOLLYBROOK LANE","LUTZ","FL","33549"
93224,"18311 NE 99TH WAY","REDMOND","WA","98052"
93225,"18311 RAINBOW DRIVE","LATHRUP VILLAGE","MI","48076"
93226,"18312 DANJA AVENUE","LAND O LAKES","FL","34638"
93227,"18312 DELANO ST","TARZANA","CA","91335"
93228,"18312 EWALD CIRCLE","DETROIT","MI","48238"
93229,"18312 MINNETONKA BOULEVARD STE 200","WAYZATA","MN","55391"
93230,"18312 WEST CREEK DRIVE SUITE A","TINLEY PARK","IL","60477"
93231,"18313 BLUE SPRINGS DRIVE","KANNAPOLIS","NC","28081"
93232,"18313 LEWIS DR","MAPLE HEIGHTS","OH","44137"
93233,"18314 72ND AVE W","EDMONDS","WA","98026"
93234,"18314 DONNELLY","BROWNSTOWN","MI","48193"
93235,"18314 FRANKLIN PARK COURT","SPRING","TX","77379"
93236,"18314 NINA STREET","OMAHA","NE","68130"
93237,"18315 BARKERS GREEN WAY","HOUSTON","TX","77084"
93238,"18315 E 42ND PL","TULSA","OK","74134"
93239,"18316 8TH AVE SE","BOTHELL","WA","98012"
93240,"18316 HANNA ST","MELVINDALE","MI","48122"
93241,"18317 DEAD PAN DRIVE","MANOR","TX","78653"
93242,"18318 PEARL ROAD","STRONGSVILLE","OH","44136"
93243,"18318 ST RD 101","SPENCERVILLE","IN","46788"
93244,"18318 SW FLORENDO LANE","BEAVERTON","OR","97007"
93245,"18319 N 2700 RD","OMEGA","OK","73764"
93246,"1832 183RD STREET","HOMEWOD","IL","60430"
93247,"1832 60TH STREET","BROOKLYN","NY","11204"
93248,"1832 BELLE ARBOR DR","NASHVILLE","TN","37207"
93249,"1832 BROOK TERRACE TRAIL","DALLAS","TX","75232"
93250,"1832 COTTONTAIL DRIVE","TRAVERSE CITY","MI","49685"
93251,"1832 CROSSWICK CT","REYNOLDSBURG","OH","43068"
93252,"1832 CURRY BRANCH DR","TIPP CITY","OH","45371"
93253,"1832 GREENACRE RD","POMONA","CA","91768"
93254,"1832 HECK YOUNG ROAD","BAKER","LA","70714"
93255,"1832 MADISON AVENUE","NEW YORK","NY","10035"
93256,"1832 NW 193RD STREET","MIAMI GARDENS","FL","33056"
93257,"1832 PENMAR AVENUE","VENICE","CA","90291"
93258,"1832 PERALTA STREET","OAKLAND","CA","94607"
93259,"1832 RED QUEEN CT","NORTH CHESTERFIELD","VA","23235"
93260,"1832 S 6TH AVENUE","MAYWOOD","IL","60153"
93261,"1832 S ARLINGTON AVE","LOS ANGELES","CA","90019"
93262,"1832 S GESSNER RD","HOUSTON","TX","77063"
93263,"1832 SAPLING CT","CASTLE ROCK","CO","80109"
93264,"1832 SEQUOYA WAY","SENECA","SC","29672"
93265,"1832 W TARO LANE","PHOENIX","AZ","85027"
93266,"1832 WHISPERING PINES CIRCLE","ENGLEWOOD","FL","34223"
93267,"1832 WINDMILL ROAD","LEESVILLE","SC","29070"
93268,"18320 FORESTON ROAD","PARKTON","MD","21120"
93269,"18320 HEATHERLEA DR","LIVONIA","MI","48152"
93270,"18320 SW 6TH STREET","PEMBROKE PINES","FL","33029"
93271,"18321 ALLENTON TRAIL TERRACE","WILDWOOD","MO","63069"
93272,"18321 S WESTERN AVENUE  SUITE E","GARDENA","CA","90248"
93273,"18321 SHADOW CREEK AVENUE","BATON ROUGE","LA","70816"
93274,"18323  DEMOCRACY AVE","RUTHER GLEN","VA","22546"
93275,"18323 BOTHELL EVERETT HWY STE 110","BOTHELL","WA","98012"
93276,"18323 CYPRESS HAVEN DRIVE","TAMPA","FL","33647"
93277,"18323 MINOREA LANE","LEHIGH ACRES","FL","33936"
93278,"18323 MUSCATELLI DR","RICHMOND","TX","77407"
93279,"18323 W MCNICHOLS","DETROIT","MI","48219"
93280,"18324 BUCKEYE PLACE","NAMPA","ID","83687"
93281,"18325 ALLENTON WOODS CT","WILDWOOD","MO","63069"
93282,"18325 GULF UNIT  APT 304","REDINGTON SHORES","FL","33708"
93283,"18325 ST RT 81","FOREST","OH","45843"
93284,"18326 MARLIN WATERS DR","HUMBLE","TX","77346"
93285,"18327 WEST HILLCREST DRIVE","NEW BERLIN","WI","53146"
93286,"18329 23RD DRIVE SE","BOTHELL","WA","98012"
93287,"18329 WISTERIA DRIVE","PONCHATOULA","LA","70454"
93288,"1833 186TH PLACE","HOMEWOOD","IL","60430"
93289,"1833 264TH AVE NE","REDMOND","WA","98053"
93290,"1833 51ST STREET","BROOKLYN","NY","11204"
93291,"1833 63RD STREET","BROOKLYN","NY","11204"
93292,"1833 7TH AVENUE - APT 2F","NEW YORK","NY","10026"
93293,"1833 7TH STR 1","SANTA MONICA","CA","90401"
93294,"1833 AMERICA STREET","BATON ROUGE","LA","70802"
93295,"1833 AUBURN WAY N STE T","AUBURN","WA","98002"
93296,"1833 BEAUMONT DR SUITE 106","BATON ROUGE","LA","70806"
93297,"1833 BEAUMONT DRIVE","BATON ROUGE","LA","70806"
93298,"1833 BRAWLEY SCHOOL ROAD","MOORESVILLE","NC","28117"
93299,"1833 BRITTAIN STREET","FORT WORTH","TX","76111"
93300,"1833 CENTRAL RD","WEATHERFORD","TX","76088"
93301,"1833 CLAUDINE DR","SAINT LOUIS","MO","63138"
93302,"1833 COUNTY ROAD 79","DOTHAN","AL","36303"
93303,"1833 E 37TH ST","VANCOUVER","WA","98663"
93304,"1833 E BENNETT AVE","MILWAUKEE","WI","53207"
93305,"1833 EASTERN HILLS DRIVE","GARLAND","TX","75043"
93306,"1833 FRANKLIN AVE SE","MINNEAPOLIS","MN","55414"
93307,"1833 FULTON AVENUE","CHARLOTTE","NC","28205"
93308,"1833 GREENFIELD AVE","FORT WORTH","TX","76102"
93309,"1833 HALSTEAD BLVD APT 1015","TALLAHASSEE","FL","32309"
93310,"1833 HARBOR AVE","LONG BEACH","CA","90812"
93311,"1833 HAYNES ST","NASHVILLE","TN","37207"
93312,"1833 HEMLOCK RD","LANCASTER","PA","17603"
93313,"1833 KALAKAUA AVE  SUITE 700","HONOLULU","HI","96815"
93314,"1833 KALAKAUA AVENUE STE 818","HONOLULU","HI","96815"
93315,"1833 LINDZLU STREET","WINTER GARDEN","FL","34787"
93316,"1833 MEADOWBROOK RD","FEASTERVILLE TREVOSE","PA","19053"
93317,"1833 MEADOWBROOK RD","FEASTERVILLE","PA","19053"
93318,"1833 MT LAUREL LANE","ALLEN","TX","75002"
93319,"1833 NEWTON ROAD","THOMASVILLE","GA","31792"
93320,"1833 PANNELL AVENUE","COLUMBUS","OH","43207"
93321,"1833 RICHLEN WAY","DESOTO","TX","75115"
93322,"1833 SPRING BEAUTY","FLORISSANT","MO","63031"
93323,"1833 STROUD PARK CT","CHARLOTTE","NC","28206"
93324,"1833 SW ATHENS AVENUE","PENDLETON","OR","97801"
93325,"1833 VALLE VISTA BLVD","PEKIN","IL","61554"
93326,"1833 VANCOUVER PL","HONOLULU","HI","96822"
93327,"1833 VARINA AVE","PETERSBURG","VA","23805"
93328,"1833","SAN FRANCISCO","CA","94123"
93329,"18330  SANDY DRIVE APT 205","CANYON COUNTRY","CA","91387"
93330,"18330 N FRUITPORT RD","SPRING LAKE","MI","49456"
93331,"18331 PINES BLVD NUMBER 304","PEMBROKE PINES","FL","33029"
93332,"18331 TURNBERRY DR","ROUND HILL","VA","20141"
93333,"18333 HAMPTON CT","PORTER RANCH","CA","91326"
93334,"18334 SOUTH HIGHWAY 59","EVANSVILLE","AR","72729"
93335,"18335 COUNTY ROAD 96B","WOODLAND","CA","95695"
93336,"18335 MONTEZUMA","ADELANTO","CA","92301"
93337,"18336 PIERCE","HOMEWOOD","IL","60430"
93338,"18336 SOLEDAD CANYON RD 1724","CA","CA","91386"
93339,"18339 MUSTANG VALLEY PL","GRASS VALLEY","CA","95949"
93340,"18339 SUGARBUSH COURT","HIDDEN VALLEY LAKE","CA","95467"
93341,"1834 11TH STREET NW","WASHINGTON","DC","20001"
93342,"1834 12TH STREET","SANTA MONICA","CA","90404"
93343,"1834 AVONLEA AVE","CINCINNATI","OH","45237"
93344,"1834 BERMUDA STONE RD","CHARLESTON","SC","29414"
93345,"1834 BROOKTREE WAY","PLEASANTON","CA","94566"
93346,"1834 EAST CAMPBELL AVENUE","GILBERT","AZ","85234"
93347,"1834 EMBERS AVE","FARMINGTON","MN","55024"
93348,"1834 ESPLANADE AVE","NEW ORLEANS","LA","70116"
93349,"1834 KEEL MOUNTAIN RD","GURLEY","AL","35748"
93350,"1834 KENNETT PLACE","SAINT LOUIS","MO","63104"
93351,"1834 LUMPKIN ROAD","OROVILLE","CA","95966"
93352,"1834 MORGANTON DRIVE","HENDERSON","NV","89052"
93353,"1834 MOUNTAIN ST","PHILADELPHIA","PA","19145"
93354,"1834 PEMPROKE ROAD STE 6","GREENSBORO","NC","27408"
93355,"1834 ROUTE 565","GLENWOOD","NJ","07428"
93356,"1834 TOMLINSON TRAIL","HOUSTON","TX","77067"
93357,"1834 TUCKAHOE DRIVE","RINER","VA","24149"
93358,"1834 TWIGGS FERRY RD","HARTFIELD","VA","23071"
93359,"1834 UNIVERSITY AVE","BERKELEY","CA","94703"
93360,"1834 W WALLEN RD","FORT WAYNE","IN","46818"
93361,"1834 W WILLOW LANE","MOUNT PROSPECT","IL","60056"
93362,"1834 WAKE FOREST RD","WINSTON-SALEM","RI","27106"
93363,"1834 WAKE FOREST ROAD BOX 8640","WINSTON-SALEM","NC","27109"
93364,"1834 WAKE FOREST ROAD","WINSTON-SALEM","NC","27109"
93365,"1834 WEBSTER PL SE","WASINGTON","DC","20020"
93366,"18340 LEHMAN","MANCHESTER","MI","48158"
93367,"18340 WEST 7 MILE ROAD","DETROIT","MI","48219"
93368,"18340 WHITACRE CIRCLE","HUDSON","FL","34667"
93369,"18340 YORBA LINDA BLVD STE 107-267","YORBA LINDA","AR","92886"
93370,"18340 YORBA LINDA BLVD SUITE 108","YORBA LINDA","CA","92886"
93371,"18341 VAN DYKE","DETROIT","MI","48234"
93372,"18344 CRACKLEWOOD DR","MACOMB","MI","48042"
93373,"18345 HIGHWAY 18 E","BERRY","AL","35546"
93374,"18345 W CHERYL DR","WADDELL","AZ","85355"
93375,"18348 BUCKEYE CIRCLE","HAGERSTOWN","MD","21740"
93376,"18348 NE 2ND AVENUE","MIAMI GARDENS","FL","33179"
93377,"18348 W AVENUE D SUITE 11","LANCASTER","CA","93536"
93378,"18349 NW 60 AVENUE","ORANGE LAKE","FL","32681"
93379,"1835 110TH STREET","NEW RICHMOND","WI","54017"
93380,"1835 2ND AVE SE","CEDAR RAPIDS","IA","52403"
93381,"1835 BRIDGE ST","SOUTHPORT","FL","32409"
93382,"1835 BUCKEYE STREET","HIGHLAND","CA","92346"
93383,"1835 CABRENA STREET","SAN DIEGO","CA","92154"
93384,"1835 CORDOVA DR","MESQUITE","TX","75150"
93385,"1835 DOVER ZOAR RD","BOLIVAR","OH","44612"
93386,"1835 E HALLANDALE BCH BLVD     861","HALLANDALE BCH","FL","33009"
93387,"1835 E HALLANDALE BEACH BLVD 527","HALLANDALE BEACH","FL","33009"
93388,"1835 E HALLANDALE BEACH BLVD S-527","HALLANDALE BEACH","FL","33009"
93389,"1835 E HALLANDALE BEACH BLVD ST210","HALLANDALE BEACH","FL","33009"
93390,"1835 E HALLANDALE BEACH BLVD STE563","HALLANDALE BEACH","FL","33009"
93391,"1835 EBENEZER ROAD","ROCK HILL","SC","29732"
93392,"1835 EDEN TERRACE","ROCK HILL","SC","29730"
93393,"1835 ERIN ISLE DRIVE","HOLLAND","MI","49424"
93394,"1835 FIRENZA DRIVE","APEX","NC","27502"
93395,"1835 FIRST STREET","HIGHLAND PARK","IL","60035"
93396,"1835 GRANT HILL ROAD","CHARLESTON","SC","29407"
93397,"1835 HALEKOA DR","HONOLULU","HI","96821"
93398,"1835 HARDIAL DR","YUBA CITY","CA","95993"
93399,"1835 HUNTINGWOOD LN","BLOOMFIELD HILLS","MI","48304"
93400,"1835 INDUSTRY DRIVE","CULPEPER","VA","22701"
93401,"1835 KNOLL DRIVE","VENTURA","CA","93003"
93402,"1835 LELAND AVE","EVANSTON","IL","60201"
93403,"1835 LIPPINCOTT RD","HUNTINGDON VALLEY","PA","19006"
93404,"1835 MACARTHUR BLVD","ATLANTA","GA","30318"
93405,"1835 MARKET STREET STE 625","PHILADELPHIA","PA","19103"
93406,"1835 MARKET","PHILADELPHIA","PA","19103"
93407,"1835 N 20TH ST","BISMARCK","ND","58501"
93408,"1835 N VEGA DRIVE","BATON ROUGE","LA","70815"
93409,"1835 N WABASH","WICHITA","WA","67214"
93410,"1835 NE 29TH CT","RENTON","WA","98056"
93411,"1835 NE MIAMI GARDENS DR  318","NORTH MIAMI BEACH","FL","33179"
93412,"1835 NICHOLS RD","KALAMAZOO","MI","40006"
93413,"1835 NOON RD","JACKSON","MI","49201"
93414,"1835 OSAUKA ROAD NE","SAUK RAPIDS","MN","56379"
93415,"1835 OSAUKA ROAD","SAUK RAPIDS","MN","56379"
93416,"1835 OTT MEMORIAL DR APT A5","CONWAY","AR","72032"
93417,"1835 PANDORA AVE UNIT 303","LOS ANGELES","CA","90025"
93418,"1835 PHEASANT TRAIL","MOUNT PROSPECT","IL","60056"
93419,"1835 RIVERSIDE AVE","CLARKSDALE","MS","39614"
93420,"1835 S 139TH ST","OMAHA","NE","68144"
93421,"1835 S 216TH ST STE G204","DES MOINES","WA","98198"
93422,"1835 S 23RD AVENUE","CHICAGO","IL","60153"
93423,"1835 S BRIDGE ST","WINNEMUCCA","NV","89445"
93424,"1835 SANTA MONICA STREET","FAIRFIELD","CA","94533"
93425,"1835 SAVOY DR STE 101B","ATLANTA","GA","30341"
93426,"1835 SOUTH WOOD STREET APARTMENT 2R","CHICAGO","IL","60608"
93427,"1835 SPRUCE STREET","PHILADELPHIA","PA","19103"
93428,"1835 SUNSET HARBOUR POINTE","GWINNETT","GA","30043"
93429,"1835 W DESERT WILLOW DR","COTTONWOOD","AZ","86326"
93430,"1835 WANNISH WAY - ROOM 210","TALLAHASSEE","FL","32307"
93431,"1835 WEST 41ST DRIVE","LOS ANGELES","CA","90062"
93432,"1835 WEST ASTRID PLACE","MONTGOMERY","AL","36117"
93433,"18350 S CONESTOGA AVE","BLADEN","NE","68928"
93434,"18350 SW 242ND ST","HOMESTEAD","FL","33031"
93435,"18351 BEACH BOULEVARD UNIT H","HUNTINGTON BEACH","CA","92648"
93436,"18351 COLIMA RD UNIT 305","ROWLAND HEIGHTS","CA","91748"
93437,"18351 COLIMA STREET    UNIT 987","ROWLAND HEIGHTS","CA","91748"
93438,"18352 WEST DESERT TRUMPET RD","GOODYEAR","AZ","85338"
93439,"18353 WILDWOOD AVE","LANSING","IL","60438"
93440,"18355 ABBOT CT","SOUTH BEND","IN","46637"
93441,"18355 BOWMAN ROAD","COTTONWOOD","CA","96022"
93442,"18355 BRUSHY CREEK ROAD","HOUSTON","MO","65483"
93443,"18358 DEMOCRACY AVE","RUTHER GLEN","VA","22546"
93444,"1835A S CENTER CITY PARKWAY  430","ESCONDIDO","CA","92025"
93445,"1835A S CENTRE CITY PKWY STE 419","ESCONDIDO","CA","92025"
93446,"1835A SOUTH CENTRE CITY PKWY - 435","ESCONDIDO","CA","92025"
93447,"1836 1/2 S ROBERTSON BLVD","LOS ANGELES","CA","90035"
93448,"1836 58TH STREET SOUTH","GULFPORT","FL","33707"
93449,"1836 AFSHIN CT","PORT ORANGE","FL","32128"
93450,"1836 ARTHUR ST SUITE 10","HOLLYWOOD","FL","33020"
93451,"1836 AUGUSTA DR UNIT 17","HOUSTON","TX","77057"
93452,"1836 BEACON HILL DRIVE","DRESHER","PA","19025"
93453,"1836 BRIAN LN","SPRINGFIELD","IL","62703"
93454,"1836 BUCKINGHAM DRIVE","SALINAS","CA","93906"
93455,"1836 BUCKINGTON DRIVE","CHESTERFIELD","MO","63017"
93456,"1836 CO RD 2117","GAINESVILLE","TX","76240"
93457,"1836 CONESTOGA","MERCED","CA","95348"
93458,"1836 CONTESSA","IRVINE","CA","92620"
93459,"1836 CROMWELL DRIVE","AKRON","OH","44313"
93460,"1836 DARROW AVENUE","EVANSTON","IL","60201"
93461,"1836 DOVE CT","SEVERN","MD","21144"
93462,"1836 DYER AVE","OVERLAND","MO","63114"
93463,"1836 E JENNER ST","LANCASTER","CA","93534"
93464,"1836 E STUDENT LIFE PKWY","SALT LAKE CITY","UT","84112"
93465,"1836 E STUDENT LIFE WAY","SALT LAKE CITY","UT","84112"
93466,"1836 E TOUHY","DES PLAINES","IL","60018"
93467,"1836 EAST DR","CLEARWATER","FL","33755"
93468,"1836 EDGEWOOD DR","FLOWER MOUND","TX","75028"
93469,"1836 HAMPTON DRIVE","HARVEY","LA","70058"
93470,"1836 HERMITAGE BLVD SUITE 200","TALLAHASSEE","FL","32308"
93471,"1836 LA VILLA DRIVE","NORTH LAS VEGAS","NV","89031"
93472,"1836 LEELA SPRINGS","CONROE","TX","77304"
93473,"1836 LINWOOD AV","ERIE","PA","16510"
93474,"1836 LOS FELIZ DR APT 14","THOUSAND OAKS","CA","91362"
93475,"1836 MILL STREAM DRIVE","FREDERICK","MD","21702"
93476,"1836 N 64TH PLACE","SCOTTSDALE","AZ","85257"
93477,"1836 N CLAIBORNE AVE","NEW ORLEANS","LA","70116"
93478,"1836 N WEDGEWOOD LANE 30","CEDAR CITY","UT","84721"
93479,"1836 OGDEN AVE","LISLE","IL","60532"
93480,"1836 OLIVER AVENUE 3","VALLEY STREAM","NY","11580"
93481,"1836 PALOMINO DR","WEST COVINA","CA","91791"
93482,"1836 RANGER DRIVE UNIT 624","CROSS","SC","29436"
93483,"1836 ROSWELL STREET SE STE 10604","SMYRNA","GA","30080"
93484,"1836 SABAL PALM DRIVE","BOCA RATON","FL","33432"
93485,"1836 STUDENT LIFE WAY","SALT LAKE CITY","UT","84112"
93486,"1836 THYME COURT","GILROY","CA","95020"
93487,"1836 W CHASE AVE","CHICAGO","IL","60626"
93488,"1836 W DOROTHEA AVE","VISALIA","CA","93277"
93489,"1836 WILLIAMSBRIDGE RD","BRONX","NY","10461"
93490,"1836","POST FALLS","ID","83877"
93491,"18361 WALNUT DR","STRONGSVILLE","OH","44149"
93492,"18363 COUNTY ROAD B","WAUSEON","OH","43567"
93493,"18363 HUNTER AVENUE","HAYWARD","CA","94541"
93494,"18364 W DEVONSHIRE AVE","GOODYEAR","AZ","85395"
93495,"18365 S GRASLE RD","OREGON CITY","OR","97045"
93496,"18366 HAWTHORNE AVENUE","BLOOMINGTON","CA","92316"
93497,"18366 I-12 SERVICE ROAD","PONCHATOULA","LA","70454"
93498,"18368 HARNEY STREET","ELKHORN","NE","68022"
93499,"1837  SOUTH MICHIGAN AVENUE","CHICAGO","IL","60616"
93500,"1837 16TH ST NW","WASHINGTON","DC","20009"
