"ID","Address","City","State","Zip"
76001,"1601 COUNTY ROAD 703A","ALVARADO","TX","76009"
76002,"1601 CYNTHIA STREET","FRANKLIN","LA","70538"
76003,"1601 DELAWARE AVENUE NE","SAINT PETERSBURG","FL","33703"
76004,"1601 E 8TH STREET APT 104","KANSAS CITY","MO","64106"
76005,"1601 E DUNN STREET","HOBBS","NM","88240"
76006,"1601 E LAMAR BLVD STE 103-C","ARLINGTON","TX","76011"
76007,"1601 E MAIN ST TRLR 9","DAVIS","OK","73030"
76008,"1601 E MARKET ST - FORT IRC ROOM219","GREENSBORO","NC","27411"
76009,"1601 E MARKET STREET -BARNES RM 215","GREENSBORO","NC","27411"
76010,"1601 E SLAUGHTER LANE APT 410","AUSTIN","TX","78747"
76011,"1601 E SLAUGHTER LN APT 292","AUSTIN","TX","78747"
76012,"1601 EAST DIVISION STREET","FORKS","WA","98331"
76013,"1601 EAST SAINT ANNE AVE","PHOENIX","AZ","85042"
76014,"1601 EAST TUCKER STREET","COMPTON","CA","90221"
76015,"1601 ELM STREET FLOOR 33","DALLAS","TX","75201"
76016,"1601 ELM STREET SUITE 3000","DALLAS","TX","75201"
76017,"1601 EVANS AVE","MIDLAND","TX","79701"
76018,"1601 EVERGREEN ST","TRENTON","MI","48183"
76019,"1601 FREDRICK DR","PEKIN","IL","61554"
76020,"1601 GAINESVILLE STREET SE APT 301","WASHINGTON","DC","20020"
76021,"1601 GLENN ROAD","LANCASTER","PA","17601"
76022,"1601 GOLD CAMP WAY","FRANKTOWN","CO","80116"
76023,"1601 GREEN BERRY ROAD","JEFFERSON CITY","MO","65101"
76024,"1601 GREEN LN","WEST CHESTER","PA","19380"
76025,"1601 GREENE ST ROOM 208","COLUMBIA","SC","29208"
76026,"1601 GREENE STREET","COLUMBIA","SC","29208"
76027,"1601 GREENWOOD ROAD","CHATTANOOGA","TN","37406"
76028,"1601 HAZEL AVENUE","NEW BERN","NC","28560"
76029,"1601 HIGHWAY 40E SUITE M158","KINGSLAND","GA","31548"
76030,"1601 HOLLAND CORNER ROAD","SUFFOLK","VA","23437"
76031,"1601 JACKSON STREET","FORT MYERS","FL","33901"
76032,"1601 JOHNS LAKE ROAD UNIT 834","CLERMONT","FL","34711"
76033,"1601 KELLY RD","ALEDO","TX","76008"
76034,"1601 KELTON ROAD","SAN DIEGO","CA","92114"
76035,"1601 KELVINGTON PLACE","APEX","NC","27502"
76036,"1601 KNAPP ST","MENOMONIE","WI","54751"
76037,"1601 KNOLLWOOD DRIVE  72","MOBILE","AL","36609"
76038,"1601 L STREET","SAN MIGUEL","CA","93451"
76039,"1601 LAKESHORE DR","HOT SPRINGS","AR","71913"
76040,"1601 LITTLE AVE","PADUCAH","KY","42001"
76041,"1601 LITTLE AVE","PADUCAH","KY","42003"
76042,"1601 LOIS COURT","GENEVA","IL","60134"
76043,"1601 LONGHORN DRIVE","VISTA","CA","92081"
76044,"1601 M AVE","LA GRANDE","OR","97850"
76045,"1601 MALL DRIVE","TEXARKANA","TX","75503"
76046,"1601 MANSFIELD ST","BRUNSWICK","GA","31520"
76047,"1601 MARKET STREET 19TH FLOOR","PHILADELPHIA","PA","19103"
76048,"1601 MCCARTHY BLVD SUITE 13","MILPITAS","CA","95035"
76049,"1601 MORNING BREEZE LANE","NATIONAL CITY","CA","91950"
76050,"1601 N 130TH STREET","KANSAS CITY","KS","66109"
76051,"1601 N BARKER STREET","LUMBERTON","NC","28358"
76052,"1601 N BLACKWELDER","OKLAHOMA CITY","OK","73106"
76053,"1601 N LARCHMONT DR","SANDUSKY","OH","44870"
76054,"1601 N MAIN STREET SUITE 106","WALNUT CREEK","CA","94596"
76055,"1601 N MLK BLVD STE 200","AMERICUS","GA","31719"
76056,"1601 N SEPULVEDA BLVD NUM 758","MANHATTAN BEACH","CA","90266"
76057,"1601 N SEPULVEDA BLVD STE 701","MANHATTAN BEACH","CA","90266"
76058,"1601 N SHACKLEFORD ROAD APT264","LITTLE ROCK","AR","72211"
76059,"1601 N TUCSON BLVD STE 17","TUCSON","AZ","85716"
76060,"1601 NE 3RD AVE","FORT LAUDERDALE","FL","33305"
76061,"1601 NE 3RD STREET","BOYNTON BEACH","FL","33435"
76062,"1601 NEWPORT AVE","BEND","OR","97703"
76063,"1601 NJ 35    69","MIDDLETOWN","NJ","07748"
76064,"1601 NORTH FRONTAGE RD SUITE A","VICKSBURG","MS","39180"
76065,"1601 NORTH OCEAN BLVD","GULFSTREAM","FL","33483"
76066,"1601 NOSTRAND AVENUE","BROOKLYN","NY","11226"
76067,"1601 NW 36TH STREET","OKLAHOMA CITY","OK","73118"
76068,"1601 OAKWOOD AVENUE","HIGHLAND PARK","IL","60035"
76069,"1601 OLD FOUNTAIN RD","LAWRENCEVILLE","GA","30043"
76070,"1601 OLIVE ST APT 1108","EUGENE","OR","97401"
76071,"1601 ORCHARD VILLAS AVE","APEX","NC","27502"
76072,"1601 OSPREY DR STE 205","DESOTO","TX","75115"
76073,"1601 PACIFIC COAST HWY SUITE 290","HERMOSA BEACH","CA","90254"
76074,"1601 PENFIELD RD","PENFIELD","NY","14526"
76075,"1601 PFENNIG LN","PFLUGERVILLE","TX","78660"
76076,"1601 PLANTATION DR","HARLINGEN","TX","78550"
76077,"1601 POINT WEST DR","LITTLE ROCK","AR","72211"
76078,"1601 PORTER CREEK COURT","MOUNT AIRY","MD","21771"
76079,"1601 QUAIL GROVE DRIVE","FORT WORTH","TX","76177"
76080,"1601 RICHARD TEMPLE BLVD","LAKE VIEW","SC","29563"
76081,"1601 RIO GRANDE STE 330","AUSTIN","TX","78701"
76082,"1601 ROOSEVELT AVE","NORTH BRUNSWICK","NJ","08902"
76083,"1601 S 13TH ROAD","ARLINGTON","VA","22204"
76084,"1601 S ARTHUR","AMARILLO","TX","79102"
76085,"1601 S CEDAR AVE","BROKEN ARROW","OK","74012"
76086,"1601 S DIRKSEN PARKWAY","SPRINFIELD","IL","62703"
76087,"1601 S DONAGHEY AVENUE","CONWAY","AR","72034"
76088,"1601 S GRANADA AVENUE","ALHAMBRA","CA","91801"
76089,"1601 S KIMBEOUGH AVE","SPRINGFIELD","MO","65807"
76090,"1601 S LINCOLN AVENUE","SPRINGFIELD","IL","62704"
76091,"1601 S PEARL STREET","DENVER","CO","80210"
76092,"1601 S STATE STREET 7W","CHICAGO","IL","60616"
76093,"1601 SAILMAKER WAY APT 308","KNOXVILLE","TN","37920"
76094,"1601 SE 10TH ST","TOPEKA","KS","66607"
76095,"1601 SEMINARY STREET","KEY WEST","FL","33040"
76096,"1601 SEPULVEDA BLVD STE 596","MANHATTAN BEACH","CA","90266"
76097,"1601 SHARON PLACE","CEDAR PARK","TX","78613"
76098,"1601 SHERIDAN PL","ESCONDIDO","CA","92027"
76099,"1601 SHERIDAN PLACE","ESCONDIDO","CA","92027"
76100,"1601 SIMMS STREET","CONWAY","AR","72034"
76101,"1601 SOUTH  MARKET STREET","CHATTANOOGA","TN","37408"
76102,"1601 SOUTH GAINES STREET","LITTLE ROCK","AR","72206"
76103,"1601 ST JOE RIVER DRIVE","FORT WAYNE","IN","46805"
76104,"1601 STANLEY AVE UNIT 6","LONG BEACH","CA","90804"
76105,"1601 STATE ROUTE 35 33","MIDDLETOWN","NJ","07748"
76106,"1601 STATE STREET","BELLEVUE","IA","52031"
76107,"1601 STOCKTON STREET","RICHMOND","VA","23224"
76108,"1601 STREAMWOOD DRIVE","POWDER SPRINGS","GA","30127"
76109,"1601 SUGGS ST","CONWAY","SC","29527"
76110,"1601 SUMMIT AVENUE","HILLSIDE","NJ","07205"
76111,"1601 SUNSET DR","LA CROSSE","WI","54601"
76112,"1601 SW 27TH ST","LINCOLN","NE","68522"
76113,"1601 SW 37TH AVE","OCALA","FL","34482"
76114,"1601 SW CRAWFORD AVE","PORT ST LUCIE","FL","34953"
76115,"1601 TEXAS HWY","ZWOLLE","LA","71449"
76116,"1601 TRAILER LANE -  LOT 183","IRONDALE","AL","35210"
76117,"1601 TUMBLEWEED DR","HENDERSON","NV","89002"
76118,"1601 TURPIN ST","ANCHORAGE","AK","99504"
76119,"1601 UNIVERSITY AVE ROOM 358A","MORGANTOWN","WV","26505"
76120,"1601 URSULINES AVENUE","NEW ORLEANS","LA","70116"
76121,"1601 VANCE STREET","GREENSBORO","NC","27406"
76122,"1601 VENDOME DR S","COLUMBUS","OH","43219"
76123,"1601 VIRGINIA ROAD","EDENTON","NC","27932"
76124,"1601 W 23RD ST","HAZLE TOWNSHIP","PA","18202"
76125,"1601 W 2ND STREET","DAYTON","OH","45402"
76126,"1601 W 5TH AVE 600","COLUMBUS","OH","43212"
76127,"1601 W AVENUE I","LOVINGTON","NM","88260"
76128,"1601 W BROADWAY","PRINCETON","IN","47670"
76129,"1601 W STONE AVE","FAIRFIELD","IA","52556"
76130,"1601 WALNUT AVENUE","BRUNSWICK","GA","31520"
76131,"1601 WASHINGTON BLVD","HUNTINGTON","WV","25701"
76132,"1601 WEST FLORIDA STREET","GREENSBORO","NC","27403"
76133,"1601 WEST MEIGHAN BLVD","GADSDEN","AL","35901"
76134,"1601 WEST RIVER DRIVE","STEVENS POINT","WI","54481"
76135,"1601 WEWATTA STREET SUITE 828","DENVER","CO","80202"
76136,"1601 WYNNTON ROAD","COLUMBUS","GA","31906"
76137,"1601-1 N MAIN ST 3159 SMB 13491","JACKSONVILLE","FL","32206"
76138,"1601-1 N MAIN ST 3159","JACKSONVILLE","FL","32206"
76139,"1601-1 N MAIN STREET UNIT 3159","JACKSONVILLE","FL","32206"
76140,"16010 89TH AVE APT 2B","JAMAICA","NY","11432"
76141,"16010 RAWLINGS HEIGHTS DR","RAWLINGS","MD","21557"
76142,"16010 UNIVERSITY OAK STE 104","SAN ANTONIO","TX","78249"
76143,"16011 FOREMAST PLACE","LAKEWOOD RANCH","FL","34202"
76144,"16011 N MAIN ST 3159 SMB 1999","JACKSONVILLE","FL","32206"
76145,"16011 SOUTH 108TH AVENUE","ORLAND PARK","IL","60467"
76146,"16011-A LANCASTER HWY SUITE 181","CHARLOTTE","NC","28277"
76147,"16011-A LANCASTER HWY UNIT 121","CHARLOTTE","NC","28277"
76148,"16012 IMPERIAL EAGLE CT","WOODBRIDGE","VA","22191"
76149,"16012 LEGACY RD APT405","TUSTIN","CA","92782"
76150,"16013 DUNBURY DRIVE","MAPLE HEIGHTS","OH","44137"
76151,"16013 E CRESTLINE DR","LA MIRADA","CA","90638"
76152,"16013 LONEOAK VIEW DR","LITHIA","FL","33547"
76153,"16013 PUESTA DEL SOL DR","VICTORVILLE","CA","92394"
76154,"16013 TERNGLADE DRIVE","LITHIA","FL","33547"
76155,"16014 WOODBURY AVE","CLEVELAND","OH","44135"
76156,"16015 ALLISON WAY","FONTANA","CA","92336"
76157,"16015 CASE RD SW","ROCHESTER","WA","98579"
76158,"16015 DUBUQUE RD","SNOHOMISH","WA","98290"
76159,"16015 IVY LAKE DR","ODESSA","FL","33556"
76160,"16015 S US HIGHWAY 385","ODESSA","TX","79766"
76161,"16016 95TH AVE SE","SNOHOMISH","WA","98296"
76162,"16016 BAKER CANYON RD","SANTA CLARITA","CA","91390"
76163,"16016 LEMOYNE BLVD APT 912","BILOXI","MS","39532"
76164,"16017 118TH PLACE NE","BOTHELL","WA","98011"
76165,"16017 DAYTON AVE N","SHORELINE","WA","98133"
76166,"16017 JOHNS LAKE RD","CLERMONT","FL","34711"
76167,"16017 JUANITA WOODINVILLE WAY NE","BOTHELL","WA","98011"
76168,"16017 SE 251ST STREET","COVINGTON","WA","98042"
76169,"16018 46TH AVE S","TUKWILA","WA","98188"
76170,"16018 S VERMONT AVE APT D","GARDENA","CA","90247"
76171,"16018 SADDLESTRING DRIVE","TAMPA","FL","33618"
76172,"16019 WATERLOO ROAD","CLEVELAND","OH","44110"
76173,"16019 WOLF CREEK","SAN ANTONIO","TX","78232"
76174,"1602 17TH STREET","EMMETSBURG","IA","50536"
76175,"1602 36TH STREET","OGDEN","UT","84403"
76176,"1602 ALLENDALE LAKE RD","GREENWOOD","MO","64034"
76177,"1602 ALTON ROAD SUITE 555","MIAMI BEACH","FL","33139"
76178,"1602 ANNA STREET","DENTON","TX","76201"
76179,"1602 BARRATT ST","LARAMIE","WY","82070"
76180,"1602 BELLE VIEW BLVD 1090","ALEXANDRIA","VA","22307"
76181,"1602 BELLE VIEW BLVD 3015","ALEXANDRIA","VA","22307"
76182,"1602 BELLE VIEW BLVD BOX 540","ALEXANDRIA","VA","22307"
76183,"1602 BELLE VIEW BLVD PMB 4067","ALEXANDRIA","VA","22307"
76184,"1602 BELLE VIEW BLVD STE 2005","ALEXANDRIA","VA","22307"
76185,"1602 BELLE VIEW BLVD STE 5080","ALEXANDRIA","VA","22307"
76186,"1602 BELLE VISTA BLVD - NUM 3134","ALEXANDRIA","VA","22307"
76187,"1602 BLUE HILL AVE 260547","MATTAPAN","MA","02126"
76188,"1602 BOWIE CT","ALLEN","TX","75013"
76189,"1602 BREN LEE COURT","ORLANDO","FL","32805"
76190,"1602 CLINTON DRIVE","DUBLIN","GA","31021"
76191,"1602 COUNTY ROUTE 23","CONSTANTIA","NY","13044"
76192,"1602 CRAZY HORSE CIR","EDWARDS","CO","81632"
76193,"1602 DIVISION ST","NEW LONDON","WI","54961"
76194,"1602 DONCASTLE COURT","CONCORD","NC","28025"
76195,"1602 E 167TH AVE","THORNTON","CO","80602"
76196,"1602 E 7TH ST","SUPERIOR","WI","54880"
76197,"1602 E ASPEN LOOP","PROVO","UT","84606"
76198,"1602 E CROCUS DR","PHOENIX","AZ","85022"
76199,"1602 E SOUTH ST","LONG BEACH","CA","90805"
76200,"1602 EAST DENMAN AVENUE","LUFKIN","TX","75901"
76201,"1602 ELBERTA ROAD","WARNER ROBINS","GA","31093"
76202,"1602 ENCLAVE PKWY  SUITE 1505","HOUSTON","TX","77077"
76203,"1602 GLASSON ST STE 3","BLOOMINGTON","IL","61704"
76204,"1602 GREENUP ST","COVINGTON","KY","41011"
76205,"1602 I STREET","BEDFORD","IN","47421"
76206,"1602 JACKSON KELLER RD APT 2202","SAN ANTONIO","TX","78213"
76207,"1602 JENNIFER RD 23","LEXINGTON","KY","40505"
76208,"1602 JESSI OURS RD","SCHERR","WV","26726"
76209,"1602 LINCOLN DRIVE EAST","AMBLER","PA","19002"
76210,"1602 MARK MORRIS CT","LONGVIEW","WA","98632"
76211,"1602 MATILDA ST","PEKIN","IL","61554"
76212,"1602 MEDIO CALLE","AUSTIN","TX","78733"
76213,"1602 N 21ST ST","TAMPA","FL","33605"
76214,"1602 N 8TH ST","MANITOWOC","WI","54220"
76215,"1602 N GRANT ST","KNOXVILLE","IA","50138"
76216,"1602 N TIMBER RIDGE LANE SUITE 1","WALNUT","CA","91789"
76217,"1602 OXLEYMARE DRIVE","RALEIGH","NC","27610"
76218,"1602 PARK CROSSING WAY","LILBURN","GA","30047"
76219,"1602 PEACOCK LANE","SILVER SPRING","MD","20904"
76220,"1602 PENA ST UNIT 2","CARRIZO SPRINGS","TX","78834"
76221,"1602 PLANTATION DR","RICHMOND","TX","77406"
76222,"1602 ROLLING HILLS DRIVE SUITE 203","HENRICO","VA","23229"
76223,"1602 RUNNYMEDE ROAD","NORFOLK","VA","23505"
76224,"1602 S ROCKY RIDGE DR","SPOKANE VALLEY","WA","99212"
76225,"1602 SAINT ANN STREET","SCOTCH PLAINS","NJ","07076"
76226,"1602 SANDBAG WAY","MIDLOTHIAN","VA","23113"
76227,"1602 SE SUNRISE STREET","BENTONVILLE","AR","72712"
76228,"1602 SHERWOOD DR","CONWAY","SC","29526"
76229,"1602 SOUTHCREST COURR","BRANDON","FL","33510"
76230,"1602 STRECKER WOODS COURT","WILDWOOD","MO","63011"
76231,"1602 TENNESSEE AVE","DALHART","TX","79022"
76232,"1602 UPLAND AVE","JENKINTOWN","PA","19046"
76233,"1602 UVALDE DR","HUTTO","TX","78634"
76234,"1602 W 34TH 1/2 ST","HOUSTON","TX","77018"
76235,"1602 WEBSTER STREET NW","WASHINGTON","DC","20011"
76236,"1602 WEST NORTHFIELD BLVD SUITE 501","MURFREESBORO","TN","37129"
76237,"1602 WILLOW STREET","HEARNE","TX","77859"
76238,"1602 WOODARD DR","CULLMAN","AL","35055"
76239,"1602 WRIGHTSON DRIVE","MCLEAN","VA","22101"
76240,"16020 58TH PLACE N","PLYMOUTH","MN","55446"
76241,"16020 CHURCH ST","AMELIA","VA","23002"
76242,"16020 CHURCH STREET","AMELIA COURT HOUSE","VA","23002"
76243,"16020 FOOTHILL BLVD","FONTANA","CA","92335"
76244,"16020 LAHEY ST","GRANADA HILLS","CA","91344"
76245,"16020 PROMONTORY RD","EDMOND","OK","73013"
76246,"16020 TERNGLADE DR","LITHIA","FL","33547"
76247,"16020 TIGER DRIVE","LOCKPORT","IL","60441"
76248,"16021 BILTMORE AVE APT 821","PFLUGERVILLE","TX","78660"
76249,"16021 E GEDDES DR","AURORA","CO","80016"
76250,"16021 ELEGANT COURT","BOWIE","MD","20716"
76251,"16021 ELIZABETH ST","ANCHORAGE","AK","99515"
76252,"16021 FENWAY DR","EVANVILLE","IN","47725"
76253,"16022 114TH AVE SE","RENTON","WA","98055"
76254,"16022 77TH RD","FRESH MEADOWS","NY","11366"
76255,"16023 SW 97TH TERRACE","MIAMI","FL","33196"
76256,"16023 WHITEHEAD DR","LINDEN","MI","48451"
76257,"16024 CENTRAL COMMERCE DR","PFLUGERVILLE","TX","78660"
76258,"16024 MADISON AVENUE","LAKEWOOD","OH","44107"
76259,"16024 SE KELLY ST","PORTLAND","OR","97236"
76260,"16024 SHELLCRACKER RD","JACKSONVILLE","FL","32226"
76261,"16025 S 50TH STREET APT 2066","PHOENIX","AZ","85048"
76262,"16025 TOM GILL ROAD","PENITAS","TX","78576"
76263,"16026 FLATFOOT ROAD","DINWIDDIE","VA","23872"
76264,"16027 BROOKHURST ST    SUITE I-503","FOUNTAIN VALLEY","CA","92708"
76265,"16027 BROOKHURST ST   I-503","FOUNTAIN VALLEY","CA","92708"
76266,"16027 BROOKHURST ST UNIT I438","FOUNTAIN VALLEY","CA","92708"
76267,"16027 BROOKHURST STREET I272","FOUNTAIN VALLEY","CA","92708"
76268,"16027 CARY STREET","OMAHA","NE","68136"
76269,"16027 VENTURA BOULEVARD SUITE 301","ENCINO","CA","91436"
76270,"16028 BUCKLAND RIVER RD","WAPAKONETA","OH","45895"
76271,"16029 DAN OCONNELL DR","PLAINFIELD","IL","60586"
76272,"16029 NE 95TH CT","REDMOND","WA","98052"
76273,"1603 149TH PL SE 3","BELLEVUE","WA","98007"
76274,"1603 15TH AVENUE","COLUMBUS","GA","31901"
76275,"1603 18TH ST WEST","BRADENTON","FL","34205"
76276,"1603 84TH STREET NW","BRADENTON","FL","34209"
76277,"1603 AMARILLO ST","WELLINGTON","TX","79095"
76278,"1603 AVIATION BLVD","REDONDO BEACH","CA","90277"
76279,"1603 BAYHOUSE POINT DRIVE BA 212","SARASTOA","FL","34231"
76280,"1603 BEAR PAW LANE","HANOVER","MD","21076"
76281,"1603 BOLTON ST","BALTIMORE","MD","21217"
76282,"1603 BRENTWOOD CROSSING","CONYERS","GA","30013"
76283,"1603 CANTERBURY LANE","FERNANDINA BEACH","FL","32034"
76284,"1603 CAPITOL AVE STE 314-727","CHEYENNE","WY","82001"
76285,"1603 CAPITOL AVE SUITE 310 A319","CHEYENNE","WY","82001"
76286,"1603 CAPITOL AVE SUITE 310","CHEYENNE","WY","82001"
76287,"1603 CAPSTAN ROAD","HOUSTON","TX","77062"
76288,"1603 CASTLE CREEK DRIVE","MISSOURI CITY","TX","77489"
76289,"1603 CHASE HIGH RD","FOREST CITY","NC","28043"
76290,"1603 E 19TH STREET SUITE 108","EDMOND","OK","73013"
76291,"1603 E GARALND AVE","SPOKANE","WA","99207"
76292,"1603 EAST 18TH STREET","BROOKLYN","NY","11230"
76293,"1603 EDGEWOOD DRIVE","ALTOONA","WI","54720"
76294,"1603 ESTES LANE","GILLETTE","WY","82716"
76295,"1603 FERRY CIRCLE","FOLSOM","CA","95762"
76296,"1603 FORT BRAGG ROAD","FAYETTEVILLE","NC","28305"
76297,"1603 HIGHGROVE COURT SOUTH","MYRTLE BEACH","SC","29575"
76298,"1603 LAGENIA COURT","DALTON","GA","30721"
76299,"1603 LARK AVE","REDWOOD CITY","CA","94061"
76300,"1603 LARK LN","BRANDON","FL","33510"
76301,"1603 LARRY AVE","PENSACOLA","FL","32505"
76302,"1603 LAUDERDALE DR","HENRICO","VA","23238"
76303,"1603 MAIN ST","WELLSVILLE","OH","43968"
76304,"1603 MINERVA AVE","JACKSONVILLE","FL","32207"
76305,"1603 MISTY BEND DRIVE","KATY","TX","77494"
76306,"1603 MORAN DRIVE","SHOREWOOD","IL","60404"
76307,"1603 MURFREESBORO ROAD","NASHVILLE","TN","37217"
76308,"1603 N 11TH ST","POPLAR BLUFF","MO","63901"
76309,"1603 N COLLEGE ST","NEWBERG","OR","97132"
76310,"1603 N V RD","HAMPTON","NE","68843"
76311,"1603 NORTH BENTON WAY","LOS ANGELES","CA","90026"
76312,"1603 NW SANTORINI LANE","BENTONVILLE","AR","72712"
76313,"1603 OLD MEMPHIS RD","TUSCUMBIA","AL","35674"
76314,"1603 OLD MEMPHIS ROAD","TUSCUMBIA","AL","35674"
76315,"1603 OLD YORK ROAD","ABINGTON","PA","19001"
76316,"1603 ORRINGTON AVENUE SUITE 450","EVANSTON","IL","60201"
76317,"1603 PENN AVE","NEW BRIGHTON","PA","15066"
76318,"1603 PLEASANT AVE","LOS ANGELES","CA","90033"
76319,"1603 RAINBOW STREET","SOUTHLAKE","TX","76092"
76320,"1603 RIDGE BEND DRIVE","WILDWOOD","MO","63038"
76321,"1603 ROCKHILL DRIVE","EAGLE PASS","TX","78852"
76322,"1603 RUSTLING PINES BLVD","MIDWAY","FL","32343"
76323,"1603 S BROAD ST","SCOTTSBORO","AL","35768"
76324,"1603 S LEWIS ST","KIRKSVILLE","MO","63501"
76325,"1603 SANDERLING DR","MOREHEAD CITY","NC","28557"
76326,"1603 STONEHENGE ROAD","CHARLESTON","WV","25314"
76327,"1603 SUMMER OAKS DR","ALLEN","TX","75013"
76328,"1603 SW 37TH ST","TOPEKA","KS","66611"
76329,"1603 TOMAHAWK RD","DODGE CITY","KS","67801"
76330,"1603 TYLER AVE UNIT A","PICKERINGTON","OH","43147"
76331,"1603 W NORRIS STREET","PHILADELPHIA","PA","19121"
76332,"1603 WATERFORD DR","KILLEEN","TX","76542"
76333,"1603 WAVERLY AVENUE","TOLEDO","OH","43607"
76334,"1603 WEST 29TH STREET","DAVENPORT","IA","52804"
76335,"16030 39TH AVE SE","BOTHELL","WA","98012"
76336,"16030 LUELLA DRIVE","BROOKFIELD","WI","53005"
76337,"16031 17 AVE","WHITESTONE","NY","11357"
76338,"16031 LAKE BLVD","CENTER CITY","MN","55012"
76339,"16031 MATILIJA DRIVE","LOS GATOS","CA","95030"
76340,"16031 SE 135TH STREET","RENTON","WA","98059"
76341,"16032 NORTH 23RD AVENUE","PHOENIX","AZ","85023"
76342,"16033 N 77TH ST STE B","SCOTTSDALE","AZ","85260"
76343,"16034 COLEMAN DRIVE","WESTFIELD","IN","46074"
76344,"16035 PORTMANSHIRE LANE","HOUSTON","TX","77084"
76345,"16035 QUANDARY LOOP","BROOMFIELD","CO","80023"
76346,"16035 SUMMIT CREST DR","RIVERSIDE","CA","92506"
76347,"16036 BIRWOOD AVE","BEVERLY HILLS","MI","48025"
76348,"16036 N 11TH AVENUE UNIT 1087","PHOENIX","AZ","85023"
76349,"16036 SUNSET RD","BOW","WA","98232"
76350,"16037 LORDS LAKE AVE SE","MONROE","WA","98272"
76351,"16038 CHIEF DR","HUDSON","FL","34667"
76352,"16038 COUNTY ROAD 4060","SCURRY","TX","75158"
76353,"16039 STONEHAM CIRCLE","PFUGERVILLE","TX","78660"
76354,"1604 1/2 11TH ST SUITE 1","MONROE","WI","53566"
76355,"1604 181ST ST E","SPANAWAY","WA","98387"
76356,"1604 188TH ST NW","ARLINGTON","WA","98223"
76357,"1604 19TH STREET","BAKERSFIELD","CA","93301"
76358,"1604 3RD ST CIR E","PALMETTO","FL","34221"
76359,"1604 ARAPAHO AVENUE","BOULDER","CO","80302"
76360,"1604 ARAPAHOE AVENUE","BOULDER","CO","80302"
76361,"1604 ASHLEY COURT","SUMMERVILLE","SC","29486"
76362,"1604 B AVE","WEST COLUMBIA","SC","29169"
76363,"1604 BANKS AVE","SUPERIOR","WI","54880"
76364,"1604 BENSON STREET","PHILADELPHIA","PA","19152"
76365,"1604 BIRCH DRIVE","BERKELEY","IL","60163"
76366,"1604 BRATTLEBORO DRIVE","WEBSTER","NY","14580"
76367,"1604 BREEZY BAY CT","WYLIE","TX","75098"
76368,"1604 BRUNSWICK DRIVE","DUNN","NC","28334"
76369,"1604 CALIFORNIA AVE","IOWA CITY","IA","52240"
76370,"1604 CAMPBELL DR","LAS VEGAS","NV","89102"
76371,"1604 CANAL STREET","NEW BERN","NC","28560"
76372,"1604 CEDAR RIDGE DR NE","ALBUQUERQUE","NM","87112"
76373,"1604 CEDAR RIDGE DR NE","ALBUQUERUQE","NM","87112"
76374,"1604 CHARLESTON CIRCLE","WAUNAKEE","WI","53597"
76375,"1604 COLUMBIA DR","FAIRMONT","WV","26554"
76376,"1604 CRITTENDEN LN","LAWRENCEVILLE","GA","30043"
76377,"1604 CROWN POINT DRIVE","FRISCO","TX","75034"
76378,"1604 E KILLEN PL","COMPTON","CA","90221"
76379,"1604 E LURAY ST","LONG BEACH","CA","90807"
76380,"1604 EAST 15TH STREET","JACKSONVILLE","FL","23306"
76381,"1604 ELKINS LN","CEDAR PARK","TX","78613"
76382,"1604 EUEL STREET","HOUSTON","TX","77009"
76383,"1604 FARINGDON DR","PLANO","TX","75075"
76384,"1604 GALLUP DR","STOCKBRIDGE","FL","30281"
76385,"1604 GASTON AVENUE","AUSTIN","TX","78703"
76386,"1604 GAULT STREET","VAN NUYS","CA","91406"
76387,"1604 GOLDEN SUN DR","RALEIGH","NC","27614"
76388,"1604 HAUENSTEIN DRIVE","NEW ULM","MN","56073"
76389,"1604 HILL ST","PLATTSMOUTH","NE","68048"
76390,"1604 HOLLOW DRIVE APT A","GREENVILLE","NC","27858"
76391,"1604 HORSESHOE ROAD","ENTERPRISE","FL","32725"
76392,"1604 JEFFERSON COURT","VALDOSTA","GA","31601"
76393,"1604 LAHAINA CT","GULF BREEZE","FL","32563"
76394,"1604 MARGARET STREET","JACKSONVILLE","FL","32204"
76395,"1604 MARS RD","FERRIS","TX","75125"
76396,"1604 MEADOWS LANE","VIDALIA","GA","30474"
76397,"1604 MOCKINGBIRD CT UNIT A","FLORENCE","AL","35630"
76398,"1604 N 23RD STREET","RICHMOND","VA","23223"
76399,"1604 N 2ND ST","HARRISBURG","PA","17102"
76400,"1604 N BROAD STREET NE","ROME","GA","30161"
76401,"1604 N COUNTRY CLUB ROAD","TUCSON","AZ","85716"
76402,"1604 N SUMNER ST","PORTLAND","OR","97217"
76403,"1604 N SWEETBRIAR LN","SPRINGFIELD","OH","45505"
76404,"1604 NE 75TH TERRACE","GLADSTONE","MO","64118"
76405,"1604 NORTHWOOD BLVD","CORSICANA","TX","75110"
76406,"1604 OLD BRIDGE LANE","BELLINGHAM","MA","02019"
76407,"1604 PACIFIC AVE","OAKLAND","CA","94501"
76408,"1604 PARHAM PL","SILVER SPRING","MD","20903"
76409,"1604 PRAIRIE RUN CIRCLE","MULVANE","KS","67110"
76410,"1604 RANIER DR","IOWA CITY","IA","52246"
76411,"1604 ROBERT D GRAY AVENUE","SHELBY","MS","38774"
76412,"1604 ROCK CREEK DRIVE","FREDERICK","MD","21702"
76413,"1604 S 154 ST","OMAHA","NE","68144"
76414,"1604 S CASCADE AVE","COLORADO SPRINGS","CO","80905"
76415,"1604 S CYPRESS AVE","BROKEN ARROW","OK","74012"
76416,"1604 SANDBAR CIRCLE","BELTON","TX","76513"
76417,"1604 SARSFIELD AVENUE","CAMDEN","SC","29020"
76418,"1604 SCHILLING AVE","FORT WAYNE","IN","46808"
76419,"1604 SE HARRIS","BARTLESVILLE","OK","74006"
76420,"1604 SECOND AVENUE","YORK","PA","17403"
76421,"1604 SPRING HILL RD STE 105","VIENNA","VA","22182"
76422,"1604 SPRING HILL RD STE 110","VIENNA","VA","22182"
76423,"1604 SPRING HILL RD SUITE 320","VIENNA","VA","22182"
76424,"1604 SPRING HILL ROAD STE 300","VIENNA","VA","22182"
76425,"1604 SWEETWATER DR","SAN LEANDRO","CA","94578"
76426,"1604 TREECREST PARKWAY","DECATUR","GA","30035"
76427,"1604 W 1ST ST","ANKENY","IA","50023"
76428,"1604 W 22ND STREET","LORAIN","OH","44052"
76429,"1604 W UNIVERSITY AVE","GAINESVILLE","FM","32603"
76430,"1604 WEST 630 NORTH","LINDON","UT","84042"
76431,"1604 ZAMIA AVE","BOULDER","CO","80304"
76432,"16040 HUDSON RD","MILTON","DE","19958"
76433,"16040 SW 140 COURT","MIAMI","FL","33177"
76434,"16042 DERBY AVE","BATON ROUGE","LA","70816"
76435,"16042 S HWY 11","FAIR PLAY","SC","29643"
76436,"16043 HIDDENRIDGE LN","LONG BEACHCERRITOS","CA","90703"
76437,"16044 CORAM","DETROIT","MI","48205"
76438,"16044 GRAFHAM CIRCLE","HUNTERSVILLE","NC","28078"
76439,"16045 25TH AVE NE","SHORELINE","WA","98155"
76440,"16045 COUNTY ROAD 1580","ADA","OK","74820"
76441,"16045 HIGHLAND BLUFF COURT","BATON ROUGE","LA","70810"
76442,"16046 PIERSIDE LANE","ELLISVILLE","MO","63021"
76443,"16046 UNIVERSITY AVE","SOUTH HOLLAND","IL","60473"
76444,"16048 FAIRWAY DRIVE","MONTCLAIR","VA","22025"
76445,"1605 23RD STREET","GALVESTON","TX","77550"
76446,"1605 2ND AVENUE APT 2N","NEW YORK","NY","10028"
76447,"1605 ADELA DR NE","ALBUQUERQUE","NM","87112"
76448,"1605 ARINGILL LANE","MATTHEWS","NC","28104"
76449,"1605 BELTLINE ROAD SW STE D8 336","DECATUR","AL","35601"
76450,"1605 BOHNHOFF DR","VIRGINIA BEACH","VA","23454"
76451,"1605 BROOKSIDE CIRCLE EAST","JACKSONVILLE","FL","32007"
76452,"1605 BUFFALO ROAD","ROCHESTER","NY","14624"
76453,"1605 CALIFORNIA AVE","LOUISVILLE","OH","44641"
76454,"1605 CARONDELET STREET","NEW ORLEANS","LA","70130"
76455,"1605 CARONDELET STREET","NEW ORLEANS","LA","70301"
76456,"1605 CASE AVE","ST PAUL","MN","55106"
76457,"1605 CENTRAL AVE STE 6 NUMBER 228","SUMMERVILLE","SC","29483"
76458,"1605 CHURCH STREET  APT 6043","DECATUR","GA","30033"
76459,"1605 CITY LIGHTS","SANTA FE","NM","87507"
76460,"1605 CLUGSTON ROAD","YORK","PA","17404"
76461,"1605 CONNECTICUT AVE NW 3FL","WASHINGTON","DC","20009"
76462,"1605 COOPER STREET 3","CINCINNATI","OH","45223"
76463,"1605 CORTELYOU ROAD APT 3","BROOKLYN","NY","11226"
76464,"1605 COUNTRY ACRES DRIVE","SAINT PETERS","MO","63376"
76465,"1605 CROW CREEK CT","GRANBURY","TX","76048"
76466,"1605 DORGAN STREET","JACKSON","MS","39204"
76467,"1605 E 50TH ST UNIT 6C","CHICAGO","IL","60615"
76468,"1605 E BURNETT STREET","STAYTON","OR","97383"
76469,"1605 E ELIZABETH ST","PASADENA","CA","91104"
76470,"1605 E TULPEHOCKEN ST","PHILADELPHIA","PA","19138"
76471,"1605 EAGLES ROOST CT","RICHMOND","VA","23223"
76472,"1605 EAST JUDAH DR  APT B","MARRERO","LA","70072"
76473,"1605 EAST PIKES PEAK AVENUE","COLORADO SPRINGS","CO","80909"
76474,"1605 ESSEXTOWNE CIRCLE","ESSEX","MD","21221"
76475,"1605 FAIRIDGE PLACE","KINGSPORT","TN","37664"
76476,"1605 FALLINGWATER TRL","HASLET","TX","76052"
76477,"1605 FARRINGTON ROAD","PHILADELPHIA","PA","19151"
76478,"1605 GASCONY RD","ENCINITAS","CA","92024"
76479,"1605 GRAHAM AVENUE","WINDBER","PA","15963"
76480,"1605 GRANT AVE","COLORADO SPRINGS","CO","80909"
76481,"1605 GREEN LN APT F2","LEBANON","PA","17042"
76482,"1605 GUNNISON CV","LOCKHART","TX","78644"
76483,"1605 HAMPDEN BLVD","READING","PA","19604"
76484,"1605 IBERIA STREET","NEW IBERIA","LA","70560"
76485,"1605 JAMESON DRIVE","BENTON","AR","72015"
76486,"1605 JOPLIN ST","SARCOXIE","MO","64862"
76487,"1605 KENILWORTH AVE","WASHINGTON","DC","20019"
76488,"1605 KINGS VALLEY DR","BOWIE","MD","20721"
76489,"1605 LACLEDE RD","SOUTH EUCLID","OH","44121"
76490,"1605 LADY BOWERS TRAIL","LAKELAND","FL","33809"
76491,"1605 LOCKHAVEN DR NE","KEIZER","OR","97303"
76492,"1605 LOCKSLEY LANE","MOUNT AIRY","MD","21771"
76493,"1605 LYTTLETON ST","CAMDEN","SC","29020"
76494,"1605 MAIN STREET SUITE 710","SARASOTA","FL","34236"
76495,"1605 MEADLAND ROAD","BRIDGEPORT","WV","26330"
76496,"1605 MERRYWOOD DRIVE","EDISON","NJ","08817"
76497,"1605 MILBY STREET B","HOUSTON","TX","77003"
76498,"1605 N 13TH STREET STE A","BOISE","ID","83702"
76499,"1605 N GILMOR STREET","BALTIMORE","MD","21217"
76500,"1605 N MINNESOTA ST","MITCHELL","SD","57301"
