"ID","Address","City","State","Zip"
26001,"1130 COPPERMILL LANE","INDIANAPOLIS","IN","46234"
26002,"1130 CORINTH GREENS DRIVE","SUN CITY CENTER","FL","33573"
26003,"1130 COUNTY ROAD 185","JEMISON","AL","35085"
26004,"1130 COUNTY ROAD 3182","JOAQUIN","TX","75954"
26005,"1130 CREEKSIDE PARKWAY SUITE 110835","NAPLES","FL","34108"
26006,"1130 CREEKSIDE WAY 111167","NAPLES","FL","34108"
26007,"1130 CREEKSIDE WAY BOX 0141","NAPLES","FL","34108"
26008,"1130 D ST STE 13","RAMONA","CA","92065"
26009,"1130 DAINES COURT UNIT A","LONDON","OH","43140"
26010,"1130 E 82ND STREET","BROOKLYN","NY","11236"
26011,"1130 E HAWKINS PKWY STE 4302","LONGVIEW","TX","75605"
26012,"1130 E HELEN ST STE 430","TUCSON","AZ","85721"
26013,"1130 E HIGHWAY 22","UNION CITY","TN","38261"
26014,"1130 E LINDEN ST","ROCKPORT","TX","78382"
26015,"1130 E MAIN ST STE 116","ASHLAND","OH","44805"
26016,"1130 E PONTIAC STREET","FORT WAYNE","IN","46814"
26017,"1130 EAST 2700 SOUTH K82","SALT LAKE CITY","UT","84106"
26018,"1130 EAST 82ND STREET","BROOKLYN","NY","11236"
26019,"1130 EAST MAIN ST","CLARION","PA","16214"
26020,"1130 EAST MAIN STREET","ASHLAND","OH","44805"
26021,"1130 EL SUR AVE","ARCADIA","CA","91006"
26022,"1130 ESSEX STREET","GLENDORA","CA","91740"
26023,"1130 FAIRMOUNT AVE APT 102","ELIZABETH","NJ","07201"
26024,"1130 FOREST GLEN","JONESBORO","GA","30238"
26025,"1130 FOSTER ROAD","NAPA","CA","94559"
26026,"1130 FROST HOLLOW DR","DESOTO","TX","75115"
26027,"1130 GLORY VINE RD","WHITSETT","NC","27377"
26028,"1130 GOLDFINCH LANE","ANTIOCH","IL","60002"
26029,"1130 JONATHON LANE 3","NEENAH","WI","54956"
26030,"1130 JORDAN COURT","BRENTWOOD","CA","94513"
26031,"1130 LATIMER ROAD","CALHOUN FALLS","SC","29628"
26032,"1130 LAURELWOOD","CARMEL","IN","46032"
26033,"1130 LAWRENCE RD","LAWRENCE","NJ","08648"
26034,"1130 MARGATE LANE","LIBERTYVILLE","IL","60048"
26035,"1130 MORTONS MEADOW RD","KNOXVILLE","TN","37932"
26036,"1130 N 79TH ST","LINCOLN","NE","68505"
26037,"1130 N CARDINAL CT","PALATINE","IL","60074"
26038,"1130 N DEARBORN  UNIT 610","CHICAGO","IL","60610"
26039,"1130 N DEARBORN SUITE 802","CHICAGO","IL","60610"
26040,"1130 N MELROSE DR STE 404","VISTA","CA","92083"
26041,"1130 N STATE HIGHWAY 123","SAN MA","TX","78666"
26042,"1130 N VIGO ST","GARY","IN","46403"
26043,"1130 NE 1ST AVE APT 206","PORTLAND","OR","97232"
26044,"1130 NORTH MARKET STREET","DUNCANNON","PA","17020"
26045,"1130 NORTH NIMITZ HIGHWAY   B224","HONOLULU","HI","96817"
26046,"1130 OAK CREEK RD","RED OAK","TX","75154"
26047,"1130 OLD LEXINGTON HWY","CHAPIN","SC","29036"
26048,"1130 PARK ROW","LAKE GENEVA","WI","53147"
26049,"1130 PASEO DE SU MAJESTAD","CALEXICO","CA","92231"
26050,"1130 PEPPER RIDGE DRIVE","LUGOFF","SC","29078"
26051,"1130 PIEDMONT AVE NE UNIT 403","ATLANTA","GA","30309"
26052,"1130 POINT VIEW ROAD","CHAPIN","SC","29036"
26053,"1130 REXFORD DRIVE SUITE 4","LOS ANGELES","CA","90035"
26054,"1130 RIVER OVERLOOK CT","LAWRENCEVILLE","GA","30043"
26055,"1130 RIVERSIDE DRIVE SE SUITE 2","SAINT CLOUD","MN","56304"
26056,"1130 S 45TH ST","CORSICANA","TX","75110"
26057,"1130 S ALPINE ROAD","ROCKFORD","IL","61108"
26058,"1130 S BROCKWAY ST","PALATINE","IL","60067"
26059,"1130 S FLOWER ST UNIT 106","LOS ANGELES","CA","90015"
26060,"1130 S MICHIGAN AVENUE UNIT 3816","CHICAGO","IL","60605"
26061,"1130 SALEM CHURCH RD","LINCOLNTON","NC","28092"
26062,"1130 SAN MARCO RD","MARCO ISLAND","FL","34145"
26063,"1130 SOTO PL","PLACENTIA","CA","92870"
26064,"1130 SOUTH JEFFERSON AVENUE","TUCSON","AZ","85711"
26065,"1130 SOUTH RAVENHILL","FORNEY","TX","75126"
26066,"1130 SOUTH STATE ROAD 66","MARENGO","IN","47140"
26067,"1130 SOUTH WABASH SUITE 302","CHICAGO","IL","60605"
26068,"1130 SOUTHFIELD FWY","DEARBORN","MI","48124"
26069,"1130 SPINNAKER CT","IRVING","TX","75063"
26070,"1130 SPRINKLE CREEK ROAD","MARS HILL","NC","28754"
26071,"1130 SR-66","MARENGO","IN","47140"
26072,"1130 SURREY STREET","CASPER","WY","82609"
26073,"1130 SW MORRISON STREET SUITE 250","PORTLAND","OR","97205"
26074,"1130 TEN ROD ROAD STE F103","NORTH KINGSTOWN","RI","02852"
26075,"1130 THREAENEEDLE ST","BEAUMONT","TX","77705"
26076,"1130 US HIGHWAY 46 SUITE 5","PARSIPPANY","NJ","07054"
26077,"1130 W 124TH AVE SUITE 900","WESTMINSTER","CO","80234"
26078,"1130 W LAKE COOK RD 202 C","BUFFALO GROVE","IL","60089"
26079,"1130 WABAN HILL","MADISON","WI","53711"
26080,"1130 WASHINGTON ROAD","THOMSON","GA","30824"
26081,"1130 WELLESLEY DR","MOUNT CLEMENS","MI","48043"
26082,"1130 WEST CHESTNUT STREET UNIT 451","UNION","NJ","07083"
26083,"1130 WINDHAVEN CIR","BROWNSBURG","IN","46112"
26084,"1130 WYNDEMERE CIR","LONGMONT","CO","80504"
26085,"11300 BRANT RD","SAINT CHARLES","MI","48655"
26086,"11300 BRIDGER CANYON RD","BOZEMAN","MT","59715"
26087,"11300 COLUMBIANA CANFIELD RD  STE M","CANFIELD","OH","44406"
26088,"11300 CORNERBROOK CT","RENO","NV","89511"
26089,"11300 CYPRESS AVE","KANSAS CITY","MO","64137"
26090,"11300 E MISSISSIPPI AVE","AURORA","CO","80012"
26091,"11300 EXPO BLVD 1009","SAN ANTONIO","TX","78230"
26092,"11300 GAINSBOROUGH ROAD","POTOMAC","MD","20854"
26093,"11300 NE 2ND AVE LANDON 202","MIAMI SHORES","FL","33161"
26094,"11300 POTOMAC OAKS DRIVE","ROCKVILLE","MD","20850"
26095,"11300 ROCKVILLE PIKE SUITE 405","ROCKVILLE","MD","20852"
26096,"11300 SORRENTO VALLEY RD STE 220","SAN DIEGO","CA","92121"
26097,"11301 BEDFORDSHIRE AVE","POTOMAC","MD","20854"
26098,"11301 BURRELL LANE","MANASSAS","VA","20109"
26099,"11301 CARMEL COMMONS BLVD  STE 116","CHARLOTTE","NC","28226"
26100,"11301 E 49TH STREET","KANSAS CITY","MO","64133"
26101,"11301 EUCLID ST UNIT 105","GARDEN GROVE","CA","92840"
26102,"11301 HERON BAY BLVD STE 2921","CORAL SPRINGS","FL","33076"
26103,"11301 HICKMAN MILLS DR","KANSAS CITY","MO","64134"
26104,"11301 MARKHAM CT","RICHMOND","VA","23233"
26105,"11301 OLYMPIC BLVD - 577","LOS ANGELES","CA","90064"
26106,"11301 S DIXIE HIGHWAY NMBR 565701","MIAMI","FL","33256"
26107,"11301 SW 61ST COURT","MIAMI","FL","33156"
26108,"11301 W OLYMPIC BLVD  452","LOS ANGELES","CA","90064"
26109,"11301 W OLYMPIC BLVD 333","LOS ANGELES","CA","90064"
26110,"11301 W OLYMPIC BLVD STE 121 442","LOS ANGELES","CA","90064"
26111,"11301 WEST LINCOLN AVENUE","WEST ALLIS","WI","53227"
26112,"11301 WESTBROOK MILL LANE  UNIT 302","FAIRFAX","VA","22030"
26113,"11301S BELL RIDGE DR","SANDTY","UT","84094"
26114,"11302 86TH AVE N","MAPLE GROVE","MN","55369"
26115,"11302 86TH AVENUE NORTH","MAPLE GROVE","MN","55369"
26116,"11302 CULLEN BLVD","HOUSTON","TX","77047"
26117,"11302 HILLTOP STREET","AUSTIN","TX","78753"
26118,"11302 HWY 84 / UNIT 77","SHALLOWATER","TX","79363"
26119,"11303 AMHERST AVE","SILVER SPRING","MD","20902"
26120,"11303 E STATE HWY 52","WEBB","AL","36376"
26121,"11303 EAST BROADWAY BOULEVARD","TUCSON","AZ","85748"
26122,"11303 FOREST NIGHT","LIVE OAK","TX","78233"
26123,"11303 S AVALON","LOS ANGELES","CA","90061"
26124,"11303 SANDHURST DR","HOUSTON","TX","77048"
26125,"11303 SOUTH CHAMPLAIN AVE","CHICAGO","IL","60628"
26126,"11303 WOOD RD","DEWITT","MI","48820"
26127,"11303E 300S","COLUMBUS","IN","47203"
26128,"11304 CHANDLER BLVD UNIT 603","NORTH HOLLYWOOD","CA","91603"
26129,"11304 E DREYFUS AVE","SCOTTSDALE","AZ","85259"
26130,"11304 OLD CISTERN LANE","LAUREL","MD","20708"
26131,"11304 SPRINGHOLLOW COURT","OKLAHOMA CITY","OK","73120"
26132,"11305 GILSAN STREEET","SILVER SPRING","MD","20902"
26133,"11305 HOOT OWL CT","RIVERVIEW","FL","33569"
26134,"11305 PANTHER CREEK PKWY","JACKSONVILLE","FL","32221"
26135,"11305 SOUTHERLAND DRIVE","DENTON","TX","76207"
26136,"11305 STONES THROW DRIVE","RESTON","VA","20194"
26137,"11305 TERWILLIGERSKNOLL CT","CINCINNATI","OH","45249"
26138,"11305 TWIN VIEW DR","KNOXVILLE","TN","37932"
26139,"11305 WADE PARK AVENUE","CLEVELAND","OH","44106"
26140,"11305 WEST MEINECKE AVE","WAUWATOSA","WI","53226"
26141,"11306 BIRCH PLAZA  APT 11","OMAHA","NE","68164"
26142,"11306 BRIDGETON VALLEY COURT","BRIDGETON","MO","63044"
26143,"11306 DAWNHEATH DR","CYPRESS","TX","77433"
26144,"11306 EVANS TRAIL T2","BELTSVILLE","MD","20705"
26145,"11306 S DOGWOOD LN","WOODWAY","WA","98020"
26146,"11306 SIERRA HWY","AGUA DULCE","CA","91390"
26147,"11306 YORKSHIRE OAKS DR","HOUSTON","TX","77065"
26148,"11307 BROOK RUN DRIVE","GERMANTOWN","MD","20876"
26149,"11307 FLORIDA SPRING DRIVE","TAMPA","FL","33579"
26150,"11307 GALLERIA DR","TAMPA","FL","33618"
26151,"11307 MESQUITE STONE LANE","RICHMOND","TX","77407"
26152,"11307 MINARET DR","TAMPA","FL","33626"
26153,"11307 MISTY ISLE LANE","RIVERVIEW","FL","33579"
26154,"11307 MORRISON 26","NORTH HOLLYWOOD","CA","91601"
26155,"11307 N BOOTH AVENUE","KANSAS CITY","MO","64157"
26156,"11307 PORT STREET","COOPER CITY","FL","33026"
26157,"11307 S HINDRY AVE","LOS ANGELES","CA","90045"
26158,"11307 VIA ANDIAMO","WINDERMERE","FL","34786"
26159,"11308 BLUE SPARROW COURT","FT WAYNE","IN","46845"
26160,"11308 CALICO DR","KANSAS CITY","MO","64137"
26161,"11308 DARLA COURT","WARREN","MI","48089"
26162,"11308 DEER CHASE LANE","CHARLOTTE","NC","28262"
26163,"11308 GEORGETOWN CIRCLE","TAMPA","FL","33635"
26164,"11308 HOLLISTER DRIVE","AUSTIN","TX","78739"
26165,"11308 LEMAY DRIVE","CLERMONT","FL","34711"
26166,"11308 NW 60TH STREET","KANSAS CITY","MO","64152"
26167,"11308 S WINSTON AVE","TULSA","OK","74137"
26168,"11309 72ND ST","BURR RIDGE","IL","60527"
26169,"11309 APPOMATTOX DRIVE","MABELVALE","AR","72103"
26170,"11309 BARNS TRAIL","AUSTIN","TX","78754"
26171,"11309 CLASSICAL LANE","SILVER SPRING","MD","20901"
26172,"11309 N HAM LN","LODI","CA","95242"
26173,"11309 SW 200 STREET C202","CUTLER BAY","FL","33157"
26174,"11309 W CAMPANA DRIVE","SURPRISE","AZ","85378"
26175,"113092 S 3980 RD","HENRYETTA","OK","74437"
26176,"1131 13TH ST","CODY","WY","82414"
26177,"1131 59TH ST","DES MOINES","IA","50311"
26178,"1131 ALTA LOMA ROAD UNIT 412","WEST HOLLYWOOD","CA","90069"
26179,"1131 ARLINGTON ROAD N","JACKSONVILLE","FL","32211"
26180,"1131 BARCELONA DRIVE","PACIFICA","CA","94044"
26181,"1131 BENFIELD DR","DAYTON","OH","45429"
26182,"1131 BRADSHAW DR APT C7","FLORENCE","AL","35630"
26183,"1131 BRIAR VISTA TER NE","ATLANTA","GA","30324"
26184,"1131 BROADWAY AVENUE","SEASIDE","OR","97138"
26185,"1131 CABERNET LANE","MANTECA","CA","95337"
26186,"1131 CHARLESTON DRIVE","WINSTON SALEM","NC","27107"
26187,"1131 CONEY ISLAND AVE","BROOKLYN","NY","11230"
26188,"1131 CR 215","CHEYENNE","WY","82009"
26189,"1131 DOVER DRIVE","PROVO","UT","84604"
26190,"1131 E 9TH STREET","EDMOND","OK","73034"
26191,"1131 E KARSCH BLVD","FARMINGTON","MO","63640"
26192,"1131 E OMAHA ST APT B5","BROKEN ARROW","OK","74012"
26193,"1131 EL TORO DRIVE","HOLLISTER","CA","95023"
26194,"1131 EUCLID AVE NE","ATLANTA","GA","30307"
26195,"1131 GUARNIERI DR NE","WARREN","OH","44483"
26196,"1131 HEMLOCK AVENUE","IMPERIAL BEACH","CA","91932"
26197,"1131 IVERLEIGH TRAIL","CHARLOTTE","NC","28270"
26198,"1131 JAMIE DR","GRAND PRAIRIE","TX","75052"
26199,"1131 KINGS CORNER ROAD","UNION SPRINGS","NY","13160"
26200,"1131 LARKIN WAY SUITE B","NAPA","CA","94558"
26201,"1131 LOURAY DRIVE","BATON ROUGE","LA","70808"
26202,"1131 MAPLE RIDGE CT NW","BEMIDJI","MN","56601"
26203,"1131 MAREED AVENUE","YAZOO CITY","MS","39194"
26204,"1131 N DRESDEN ST","ANAHEIM","CA","92801"
26205,"1131 N GLENMOOR COURT","WICHITA","KS","67206"
26206,"1131 NW 5TH STREET","MIAMI","FL","33127"
26207,"1131 PATRICIA DR","PAPILLION","NE","68046"
26208,"1131 ROCKHAVEN CT","SALINAS","CA","93906"
26209,"1131 ROUTE 55 SUITE 1","LAGRANGEVILLE","NY","12540"
26210,"1131 S COLLEGE ST 222","AUBURN","AL","36832"
26211,"1131 S COMMERCIAL ST","NEENAH","WI","54956"
26212,"1131 S H ST","BAKERSFIELD","CA","93304"
26213,"1131 SAPPHIRE DRIVE","GRANITEVILLE","SC","29829"
26214,"1131 SEA EAGLE AVENUE","GROVELAND","FL","34736"
26215,"1131 SHELL DR APT 20","SPRING LAKE","NC","28390"
26216,"1131 SKYLINE DRIVE","GRIFFIN","GA","30224"
26217,"1131 SOUTH RIDGE AVENUE","ARLINGTON HEIGHTS","IL","60005"
26218,"1131 STEUBENVILLE AVENUE","CAMBRIDGE","OH","43725"
26219,"1131 STRATFORD LN","LAKE ZURICH","IL","60047"
26220,"1131 STRATTON AVE","GROVELAND","FL","34736"
26221,"1131 SUMMIT DR","LAGUNA BEACH","CA","92651"
26222,"1131 SW 32ND STREET","PALM CITY","FL","34990"
26223,"1131 TERRY STREET","RACELAND","KY","41169"
26224,"1131 W 70TH STREET","LOS ANGELES","CA","90044"
26225,"1131 W 83RD STREET","LOS ANGELES","CA","90044"
26226,"1131 WAGNER AVE","FORT MILL","SC","29715"
26227,"1131 WELLINGTON DRIVE","HARRISONBURG","VA","22802"
26228,"1131 WEST ROSE ROAD","ASHLAND","KY","41102"
26229,"1131 WYNBROOK ROAD","GLEN BURNIE","MD","21060"
26230,"11310 ASHLEY DRIVE","ROCKVILLE","MD","20852"
26231,"11310 HWY F-48 W","COLFAX","IA","50054"
26232,"11310 MELODY DR 1-302","NORTHGLENN","CO","80234"
26233,"11310 S ORANGE BLOSSOM TRAIL PMB 2","ORLANDO","FL","32837"
26234,"11310 SADLER WALK LANE","GLEN ALLEN","VA","23060"
26235,"11310 SE 248TH ST","KENT","WA","98030"
26236,"11310 SOUTH ORANGE BLOSSOM TRL 182","ORLANDO","FL","32837"
26237,"11310 SW 17TH STREET RKL FIELDHOUSE","MIAMI","FL","33199"
26238,"11310 UNIVERSITY AVE","CEDAR FALLS","IA","50613"
26239,"11310 WHISPER DAWN STREET","SAN ANOTNIO","TX","78230"
26240,"11311 BOYETTE ROAD","RIVERVIEW","FL","33569"
26241,"11311 CHARNOCK RD - APT 8","LOS ANGELES","CA","90066"
26242,"11311 CORNELL PARK DR STE 205","BLUE ASH","OH","45242"
26243,"11311 LINDEN RD","LINDEN","MI","48451"
26244,"11311 OAK SPRING","HOUSTON","TX","77043"
26245,"11311 QUEENSBURY DRIVE","BAKERSFIELD","CA","93312"
26246,"11311 RICHMOND AVENUE L103","HOUSTON","TX","77082"
26247,"11311 SARDINIA DR","RICHMOND","TX","77406"
26248,"11311 SPRING","GRANDVIEW","MO","64030"
26249,"11311 YORKSHIRE COURT","FREDERICKSBURG","VA","22407"
26250,"11312 ABBITT TRAIL","ZIONSVILLE","IN","46077"
26251,"11312 BRENTLINGER LANE","LOUISVILLE","KY","40291"
26252,"11312 DAVIDS ROAD","SABINA","OH","45169"
26253,"11312 LBJ FRWY SUITE 100","DALLAS","TX","75238"
26254,"11312 S PALISADE RIM DR","SOUTH JORDAN","UT","84095"
26255,"11312 SANTA MONICA BLVD  5","LOS ANGELES","CA","90025"
26256,"11313 ATTINGHAM LANE","GLENN DALE","MD","20769"
26257,"11313 DISTINCTIVE DRIVE","ORLAND PARK","IL","60467"
26258,"11313 E 58TH ST","RAYTOWN","MO","64133"
26259,"11313 ERWIN RIDGE AVE","CHARLOTTE","NC","28213"
26260,"11313 MILLBROOK LANE","OKLAHOMA CITY","OK","73162"
26261,"11313 W WASHINGTON BLVD","LOS ANGELES","CA","90066"
26262,"11313 WALNUT CREEK COURT","OAKTON","VA","22124"
26263,"11314 4TH AVE W","EVERETT","WA","98204"
26264,"11314 86TH AVE N","MAPLE GROVE","MN","55369"
26265,"11314 S SPAULDING","CHICAGO","IL","60655"
26266,"11314 TIMBERLINE DR","OAKTON","VA","22124"
26267,"11314 VEIRS MILL RD","WHEATON","MD","20902"
26268,"11315 192ND ST","MOKENA","IL","60448"
26269,"11315 COUNTRY CLUB RD","NEW MARKET","MD","21774"
26270,"11315 FORREST VALLEY DRIVE","HOUSTON","TX","77065"
26271,"11315 MAIN ST UNIT 1302","HOUSTON","TX","77025"
26272,"11315 PALM BAY ST","PEARLAND","TX","77584"
26273,"11315 RANCHO BERNARDO RD STE 126","SAN DIEGO","CA","92127"
26274,"11315 SCRIBNER STATION LANE","LITHIA","FL","33547"
26275,"11315 WILLOW RIDGE LANE","ELLICOTT CITY","MD","21042"
26276,"11315 WINDERMERE RD","WINDERMERE","FL","34786"
26277,"11316 178TH ST W","LAKEVILLE","MN","55044"
26278,"11316 COLONY CIRCLE","BROOMFIELD","CO","80021"
26279,"11316 EVANS STREET APT 9","OMAHA","NE","68164"
26280,"11317 BIG HORN COURT","BELTSVILLE","MD","20705"
26281,"11317 HALETHORPE TER","GERMANTOWN","MD","20876"
26282,"11317 NW 8TH RD","GAINESVILLE","FL","32606"
26283,"11317 S WESTERN AVENUE STE 100-A","OKLAHOMA CITY","OK","73170"
26284,"11318 N STONE CREEK DR","DUNLAP","IL","61525"
26285,"11318 NELSON AVE","CLEVELAND","OH","44105"
26286,"11318 QUINTANA","EL PASO","TX","79936"
26287,"11318 WEST MURDOCK","WICHITA","KS","67212"
26288,"11319 FENIMORE CT","ORLANDO","FL","34786"
26289,"11319 TELECHRON AVENUE","WHITTIER","CA","90605"
26290,"11319 YOMAN ROAD","ANDERSON ISLAND","WA","98303"
26291,"1132 28TH AVE S SUITE 6","MOORHEAD","MN","56560"
26292,"1132 28TH AVENUE SOUTH 6","MOORHEAD","MN","56560"
26293,"1132 28TH AVENUE SUITE A","MOORHEAD","MN","56560"
26294,"1132 49TH AVE","GREELEY","CO","80634"
26295,"1132 ARCOLA AVENUE","SILVER SPRING","MD","20902"
26296,"1132 BARRINGTON AVE","ROSAMOND","CA","93560"
26297,"1132 BLUFFHAVEN WAY NE","BROOKHAVEN","GA","30319"
26298,"1132 CHINOOK CIR","CLARKSVILLE","TN","37042"
26299,"1132 COZY OAK AVE","CARY","NC","27519"
26300,"1132 EARLY RISE ST","RALEIGH","NC","27610"
26301,"1132 EAST 2925 NORTH","NORTH OGDEN","UT","84414"
26302,"1132 IVY BROOK WAY","CLARKSVILLE","TN","37043"
26303,"1132 KALISTE SALOOM RD LOT 8","LAFAYETTE","LA","70508"
26304,"1132 KILRUSH DRIVE","LEXINGTON","KY","40504"
26305,"1132 LAKE AVENUE","RACINE","WI","53403"
26306,"1132 MAIN STREET","BANDERA","TX","78003"
26307,"1132 MARIPOSA ST APT B","DENVER","CO","80204"
26308,"1132 N EUFAULA  AVENUE","EUFAULA","AL","36027"
26309,"1132 N EUFAULA AVE","EUFAULA","AL","36027"
26310,"1132 N EUFAULA AVENUE","EUFAULA","AL","36027"
26311,"1132 N SAINT CLAIR ST","PITTSBURGH","PA","15206"
26312,"1132 N SPAULDING AVE","CHICAGO","IL","60651"
26313,"1132 N SPAULDING","CHICAGO","IL","60651"
26314,"1132 N YUCCA AVE","RIALTO","CA","92376"
26315,"1132 NORTH EUFAULA AVENUE","EUFAULA","AL","36027"
26316,"1132 NORTH LOCKWOOD AVE SUITE 1","CHICAGO","IL","60651"
26317,"1132 NW 134TH AVE","SUNRISE","FL","33323"
26318,"1132 OAK ST","KANSAS CITY","MO","64106"
26319,"1132 OLYMPIC COURT","OXFORD","MI","48371"
26320,"1132 ORANGE ARBOUR TRL 609","OCOEE","FL","34761"
26321,"1132 ORKNEY DRIVE","VIRIGNIA BEACH","VA","23464"
26322,"1132 PALM DRIVE","HERMOSA BEACH","CA","90254"
26323,"1132 PARK CENTER ST","BENBROOK","TX","76126"
26324,"1132 PENNSYLVANIA AVE APT 3","MIAMI","FL","33139"
26325,"1132 POME AVE","SUNNYVALE","CA","94087"
26326,"1132 QUAIL RIDGE DRIVE","MCCOMB","MS","39648"
26327,"1132 RIVER ROCK DRIVE","FOLSOM","CA","95630"
26328,"1132 RUSH AVE","OSHKOSH","WI","54902"
26329,"1132 S WABASH AVE FLOOR 2","CHICAGO","IL","60605"
26330,"1132 SLOCUM STREET","PHILADELPHIA","PA","19150"
26331,"1132 STARATHDON AVENUE","FAYETTEVILLE","NC","28304"
26332,"1132 SW 19TH AVE UNIT 104","PORTLAND","OR","97205"
26333,"1132 TOWER LANE","BENSENVILLE","IL","60106"
26334,"1132 TREYMONT LANE","LAWRENCEVILLE","GA","30045"
26335,"1132 TROUTBROOK DR","WEST HARTFORD","CT","06119"
26336,"1132 UDALL ROAD","BAY SHORE","NY","11706"
26337,"1132 USHER ST  RM 199","COVINGTON","GA","30014"
26338,"1132 USHER ST","COVINGTON","GA","30014"
26339,"1132 W INDIANTOWN ROAD SUITE 201","JUPITER","FL","33458"
26340,"1132 W IRIS AVE","VISALIA","CA","93277"
26341,"1132 WILDCAT RD","LAWRENCEBURG","KY","40342"
26342,"1132","CAMILLA","GA","31730"
26343,"11320 E HULA CT","SPOKANE VALLEY","WA","99206"
26344,"11320 FERNALD AVE","DALLAS","TX","75218"
26345,"11320 HESSLER ROAD","CLEVELAND","OH","44106"
26346,"11320 KETTERING PLACE","UPPER MARLBORO","MD","20774"
26347,"11320 KILEY DRIVE","HUNTLEY","IL","60142"
26348,"11320 RANDOM HILLS RD SUITE 200","FAIRFAX","VA","22030"
26349,"11320 SHADDUCK ROAD","NORTH EAST","PA","16428"
26350,"11320 TERRACE MEADOW WAY","MANOR","TX","78653"
26351,"11321 BULLIS ROAD","LYNWOOD","CA","90262"
26352,"11321 IOWA AVE STE 2","LOS ANGELES","CA","90025"
26353,"11321 N FLORIDA","OKLAHOMA CITY","OK","73120"
26354,"11322 CARMEN HEIGHTS","SAN ANTONIO","TX","78230"
26355,"11322 FLAMINGO DR","BATON ROUGE","LA","70814"
26356,"11322 LEESBURG PL","LOUISVILLE","KY","40241"
26357,"11322 S HOMEWOOD AVE","CHICAGO","IL","60643"
26358,"11322 WHEAT RIDGE ROAD","CHARLOTTE","NC","28277"
26359,"11323 ARCADE DR STE C-120","LITTLE ROCK","AR","72212"
26360,"11323 BLUE BLOSSOM RD","CHARLOTTE","NC","28277"
26361,"11323 BORGEN LOOP","GIG HARBOR","WA","98332"
26362,"11325 FALL CREEK ROAD","INDIANAPOLIS","IN","46256"
26363,"11325 GOLD PAN ROAD","CHARLOTTE","NC","28215"
26364,"11325 GRAND LEDGE HIGHWAY","LAKE ODESSA","MI","48849"
26365,"11325 GREENBRIER STREET","OAKLAND","CA","94605"
26366,"11325 INGRAM","LIVONIA","MI","48150"
26367,"11325 MOUNTAIN WOODS DRIVE","THOMPSONVILLE","MI","49683"
26368,"11325 ROSECREEK DR","MOORPARK","CA","93021"
26369,"11325 S CHAMPLAIN AVE","CHICAGO","IL","60628"
26370,"11325 SEAVIEW AVENUE NUMBER 8B","BROOKLYN","NY","11239"
26371,"11325 WOODED BRANCH LANE","LOUISVILLE","KY","40291"
26372,"11326 CUSHMAN RD","ROCKVILLE","MD","20852"
26373,"11326 KELOWNA ST","LAKEVIEW TERRACE","CA","91342"
26374,"11326 MESA VERDE WAY","PARKER","CO","80138"
26375,"11326 RIVIERA PL NE","SEATTLE","WA","98125"
26376,"11327 22ND ST NE","MCVILLE","ND","58254"
26377,"11327 HERO WAY W","LEANDER","TX","78641"
26378,"11327 INDIANA AVENUE","KANSAS CITY","MO","64137"
26379,"11327 OLD 2243 WEST","LEANER","TX","78641"
26380,"11328 MAGNOLIA BLVD STE 1","N HOLLYWOOD","CA","91601"
26381,"11328 MAGNOLIA BLVD","NORTH HOLLYWOOD","CA","91601"
26382,"11328 NE 51ST CIR APT A1","VANCOUVER","WA","98682"
26383,"11328 NE 51ST CIRCLE A1","VANCOUVER","WA","98682"
26384,"11328 S PALOMINO LN","GOODYEAR","AZ","85338"
26385,"113288 KING STREET","OVERLAND PARK","KS","66210"
26386,"11329 CHARISMATIC","SAN ANTONIO","TX","78245"
26387,"1133 13TH STREET","COLUMBUS","GA","31901"
26388,"1133 14TH STREET","DENVER","CO","80202"
26389,"1133 15TH STREET NW FLOOR 12","WASHINGTON","DC","20005"
26390,"1133 ASHINGTON PLACE","DESOTO","TX","75115"
26391,"1133 AUDUBON RD","PARK HILLS","KY","41011"
26392,"1133 AVENUE OF THE AMERICAS","NEW YORK","NY","10036"
26393,"1133 BAL HARBOR BLVD STE 1139","PUNTA GORDA","FL","33950"
26394,"1133 BATTERY LANE","NASHVILLE","TN","37220"
26395,"1133 BOSTON RD STE 2","BRONX","NY","10456"
26396,"1133 BRENTWOOD WAY","KINGSTON","TN","37763"
26397,"1133 BROADWAY SUITE 1205","NEW YORK","NY","10010"
26398,"1133 BROADWAY SUITE 708","NEW YORK","NY","10010"
26399,"1133 CAMELBACK ST SUITE 12663","NEWPORT BEACH","CA","92658"
26400,"1133 CAMELBACK ST","NEWPORT BEACH","CA","92658"
26401,"1133 CANNON ROAD","MIFFLINBURG","PA","17844"
26402,"1133 DOTTERERS ROAD","MILL HALL","PA","17751"
26403,"1133 E 57TH STREET","LOS ANGELES","CA","90011"
26404,"1133 E 83RD ST UNIT 138","CHICAGO","IL","60619"
26405,"1133 E 83RD ST UNIT 208","CHICAGO","IL","60619"
26406,"1133 E 83RD UNIT 188","CHICAGO","IL","60619"
26407,"1133 E 84TH STREET1ST FLOOR","BROOKLYN","NY","11236"
26408,"1133 E COMPTON BLVD","COMPTON","CA","90220"
26409,"1133 E FLORA ST","STOCKTON","CA","95205"
26410,"1133 ELM STREET","PEEKSKILL","NY","10566"
26411,"1133 FERN AVENUE","BREA","CA","92821"
26412,"1133 GLENDALE DRIVE","SALT LAKE CITY","UT","84104"
26413,"1133 GRAYSTONE DRIVE","DAYTON","OH","45417"
26414,"1133 GREYMOOR ROAD","SHOAL CREEK","AL","35242"
26415,"1133 HENLEY COURT","AMBLER","PA","19002"
26416,"1133 JARECKI AVE","DAYTONA BEACH","FL","32117"
26417,"1133 KOLBE LANE","WEST CHESTER","PA","19382"
26418,"1133 KOOTENAI AVENUE","BILLINGS","MT","59105"
26419,"1133 LISA LANE","ENID","OK","73703"
26420,"1133 MAPLE STREET","HULL","IA","51239"
26421,"1133 MARY KAY DR","SEVIERVILLE","TN","37862"
26422,"1133 NE 181ST AVE","PORTLAND","OR","97230"
26423,"1133 NEUHAUS LANE","JACOB","IL","62950"
26424,"1133 OSAGE AVENUE","CHULA VISTA","CA","91911"
26425,"1133 PENN AVENUE 5TH FLOOR","PITTSBURGH","PA","15222"
26426,"1133 PETRA CT","DAVIS","CA","95618"
26427,"1133 PORTLAND PL  APT 115","BOULDER","CO","80304"
26428,"1133 S 400 W","NEW PALESTINE","IN","46163"
26429,"1133 S KINGS DR","CHARLOTTE","NC","28207"
26430,"1133 S PARKER RD","HOLLY RIDGE","NC","28445"
26431,"1133 SAN JOSE","DOS PALOS","CA","93620"
26432,"1133 SAYLOR ST","DOWNERS GROVE","IL","60516"
26433,"1133 SE 4TH AVE","FT LAUDERDALE","FL","33316"
26434,"1133 SERISSA COURT","ORLANDO","FL","32818"
26435,"1133 SOUTH BLVD APT 831","OAK PARK","IL","60302"
26436,"1133 SPLIT SILK STREET","VALRICO","FL","33594"
26437,"1133 TAYLOR STREET","WACO","TX","76704"
26438,"1133 TIDMORE BEND RD","GADSDEN","AL","35901"
26439,"1133 VARD LOOMIS LN","ARROYO GRANDE","CA","93420"
26440,"1133 W 104TH PLACE","CHICAGO","IL","60643"
26441,"1133 WARBURTON AVE 101S","YONKERS","NY","10701"
26442,"1133 WARBURTON AVE APT 9065","YONKERS","NY","10701"
26443,"1133 WESTCHESTER AVENUE SUITE N-202","WHITE PLAINS","NY","10604"
26444,"11330 AMANDA LANE","DALLAS","TX","75238"
26445,"11330 CROMWELL DRIVE","DALLAS","TX","75229"
26446,"11330 LEGACY DR STE 103","FRISCO","TX","75033"
26447,"11330 VANSTORY DRIVE","HUNTERSVILLE","NC","28078"
26448,"11330 WEST COUNTY ROAD 400 SOUTH","YORKTOWN","IN","47396"
26449,"11330 WILDHORSE DRIVE","BONANZA","OR","97623"
26450,"11330 WOODSONG LOOP S","JACKSONVILLE","FL","32225"
26451,"11331 183RD ST UNIT 1175","CERRITOS","CA","90703"
26452,"11331 183RD ST","CERRITOS","CA","90703"
26453,"11331 183RD STREET - 311","LAKEWOOD","CA","90712"
26454,"11331 KATHRYN DR","MERCERSBURG","PA","17236"
26455,"11331 NORTH LAMAR BLVD SUITE D2","AUSTIN","TX","78753"
26456,"11331 OSBORNE ROAD","ATCHISON","KS","66002"
26457,"11331 SAGE COUNTRY DR","HOUSTON","TX","77089"
26458,"11331-103 INVOLUTE PLACE","RALEIGH","NC","27617"
26459,"11332 CO RD 71","LEXINGTON","AL","35648"
26460,"11332 EDGEWATER CIRCLE","WELLINGTON","FL","33414"
26461,"11332 REFLECTION ISLES BLVD","FORT MYERS","FL","33912"
26462,"11332 S WASHTENAW AVE","CHICAGO","IL","60655"
26463,"11332 SOUTHERN HUNT ROAD","MARION","IL","62959"
26464,"11333 BIDDEFORD PLACE","NEW PORT RICHEY","FL","34654"
26465,"11333 N 78TH AVENUE","OMAHA","NE","68122"
26466,"11333 SUN VALLEY DR","OAKLAND","CA","94605"
26467,"11333 VALLEY BLVD","EL MONTE","CA","91731"
26468,"11334 BREMERTON CIRCLE","INDIANAPOLIS","IN","46229"
26469,"11334 FAIRWAY DR","COLUMBIA STATION","OH","44028"
26470,"11334 SMITHS CREEK","RILEY","MI","48041"
26471,"11335 ALAMEDA SANDRA DR","CLERMONT","FL","34711"
26472,"11335 COLUMBIA PIKE APT B11","SILVER SPRING","MD","20904"
26473,"11335 FARMERS BOULEVARD","ST. ALBANS","NY","11412"
26474,"11335 MOUNTAIN VIEW DRIVE 69","RANCHO CUCAMONGA","CA","91730"
26475,"11335 REED HARTMAN HIGHWAY STE 104","CINCINNATI","OH","45241"
26476,"11335 SHIMPSTOWN ROAD","MERCERSBURG","PA","17236"
26477,"11335 SW 87TH TERR","MIAMI","FL","33173"
26478,"11335 YOUNGSTOWN PITTSBURGH RD","NEW MIDDLETOWN","OH","44442"
26479,"11336 HAWKSTOWE LN","KNOXVILLE","TN","37934"
26480,"11336 LAKEVIEW DRIVE","NEW PORT RICHEY","FL","34654"
26481,"11336 LUXEMBOURG WAY","SAN DIEGO","CA","92131"
26482,"11336 N 150TH LANE","SURPRISE","AZ","85379"
26483,"11336 N VIA MILANO","FRESNO","CA","93730"
26484,"11336 NW 150TH STREET","NEWTON","KS","67114"
26485,"11336 S AVE J","CHICAGO","IL","60617"
26486,"11336 SW 75 TER","MIAMI","FL","33173"
26487,"11336 W 104TH AVE","WESTMINSTER","CO","80021"
26488,"11337 BLOSSOM AVENUE","PARMA HEIGHTS","OH","44130"
26489,"11337 BROOKDALE DRIVE","WAYNESBORO","PA","17268"
26490,"11337 CLASSICAL LANE","SILVER SPRING","MD","20901"
26491,"11337 KIOWA RD","APPLE VALLEY","CA","92308"
26492,"11337 PINE MOUNTAIN PL","INDIANAPOLIS","IN","46229"
26493,"11338 CALIENTE CREEK RD","CALIENTE","CA","93518"
26494,"11338 LUCKY DAN DRIVE","NOBLESVILLE","IN","46060"
26495,"11338 NORTHWOOD FOREST DR","CHARLOTTE","NC","28214"
26496,"11338 PALISADE RIM DRIVE","SOUTH JORDAN","UT","84095"
26497,"11339 SANDSTONE CANYON DRIVE","HUMBLE","TX","77396"
26498,"1133REDMOND RIDGE RD","GALLIPOLIS FERRY","WV","25515"
26499,"1134 43RD AVE NE","MINNEAPOLIS","MN","55421"
26500,"1134 BEDFORD STREET","FREMONT","CA","94539"
