"ID","Address","City","State","Zip"
93501,"1837 22ND ST APT 4","BOULDER","CO","80302"
93502,"1837 BEVERLY STREET","SYLVAN LAKE","MI","48320"
93503,"1837 CHURCH RD","ALLENTOWN","PA","18104"
93504,"1837 CHURCHILL AVE","TRENTON","MI","48183"
93505,"1837 COUNTY ROAD 27","PRAGUE","NE","68050"
93506,"1837 COUNTY ROAD 347 N","CLEVELAND","TX","77327"
93507,"1837 ELECTRIC","WYANDOTTE","MI","48192"
93508,"1837 GINTER RD","DEFIANCE","OH","43512"
93509,"1837 HIGHWAY 568","FERRIDAY","LA","71334"
93510,"1837 KALAKAUA AVE  APT 2102","HONOLULU","HI","96815"
93511,"1837 N 203RD ST","ELKHORN","NE","68022"
93512,"1837 N AVENUE 53","LOS ANGELES","CA","90042"
93513,"1837 N VALLEY LOOP  NUMBER 10","BISMARCK","ND","58503"
93514,"1837 NE BOULEVARD","VINELAND","NJ","08360"
93515,"1837 PARK AVENUE","MAHTOMEDI","MN","55115"
93516,"1837 PETERSON LANE","ALBANY","OH","45710"
93517,"1837 PROSPECT PLACE","NEW YORK","NY","11233"
93518,"1837 S NEVADA AVENUE STE 115","COLORADO SPRINGS","CO","80905"
93519,"1837 S NEVADE AVE SUITE 198","COLORADO SPRINGS","CO","80905"
93520,"1837 SELBY AVE","SAINT PAUL","MN","55104"
93521,"1837 SW COUNTY RD 769","ARCADIA","FL","34266"
93522,"1837 W MOORE ST","RICHMOND","VA","23220"
93523,"1837 WALNUT","LA VERNE","CA","91750"
93524,"1837 WEST 52ND ST UP","CLEVELAND","OH","44102"
93525,"1837 WEST GUADALUPE UNIT 103","MESA","AZ","85202"
93526,"18370 LIMESTONE CREEK ROAD","JUPITER","FL","33458"
93527,"18370 W MARCONI AVE","SURPRISE","AZ","85388"
93528,"18370 WEST SANTA ALBERTA LANE","GOODYEAR","AZ","85338"
93529,"18371 N BORGATA DR","SURPRISE","AZ","85374"
93530,"18371 N BORGATA DRIVE","SURPRISE","AZ","85374"
93531,"18371 NW 150TH LANE","ALACHUA","FL","32615"
93532,"18372 CLARK ST 218","TARZANA","CA","91356"
93533,"18372 CLARK ST STE 218","TARZANA","CA","91356"
93534,"18372 MUNICH PONDS DRIVE","SOUTH BEND","IN","46637"
93535,"18375 COLLINS STREET APT 126","TARZANA","CA","91356"
93536,"18375 TAMARACK DRIVE","MINNETONKA","MN","55345"
93537,"18375 VENTURA BLVD SUITE 445","TARZANA","CA","91356"
93538,"18375 VENTURA BLVD UNIT 636","TARZANA","CA","91356"
93539,"18375 W WEATHERBY DR","SURPRISE","AZ","85374"
93540,"18376 178TH ST NW","BIG LAKE","MN","55309"
93541,"18376 NW 61 PLACE","HIALEAH","FL","33015"
93542,"1838 8TH STREET NW","WASHINGTON","DC","20001"
93543,"1838 AARON AVE","EAST MEADOW","NY","11554"
93544,"1838 AUTUMN SAGE DRIVE","DACULA","GA","30019"
93545,"1838 BAYOU BREEZE DR","BAYTOWN","TX","77523"
93546,"1838 BROWER PLACE","SYCAMORE","IL","60178"
93547,"1838 E MOUNTAIN TRAIL","ST GEORGE","UT","84790"
93548,"1838 EAST THOMPSON BLVD","VENTURA","CA","93001"
93549,"1838 HAFLINGER DR","IRWIN","PA","15642"
93550,"1838 HWY 115","MANSURA","LA","71350"
93551,"1838 JULIA AVE","AVON","OH","44011"
93552,"1838 JULIA GOLDBACH AVENUE","RONKONKOMA","NY","11779"
93553,"1838 N COOPER DR","DELTONA","FL","32725"
93554,"1838 NORTH AVENUE NW","ATLATA","GA","30318"
93555,"1838 NW 57 ST","MIAMI","FL","33142"
93556,"1838 OLD NORCROSS ROAD","LAWRENCEVILLE","GA","30044"
93557,"1838 PASEO SAN LUIS","SIERRA VISTA","AZ","85635"
93558,"1838 PESCADERO DR","SALINAS","CA","93906"
93559,"1838 REYNOLDS ST","LANCASTER","TX","75134"
93560,"1838 SOUTH 9TH AVENUE","MAYWOOD","IL","60153"
93561,"1838 SOUTH COTNER BLVD","LINCOLN","NE","68506"
93562,"1838 THETFORD CIRCLE","ORLANDO","GA","32824"
93563,"1838 W ASPEN AVE","GILBERT","AZ","85233"
93564,"1838 WOOD RUN PLACE","ONALASKA","WI","54650"
93565,"18381 GOLDENWEST STREET","HUNTINGTON BEACH","CA","92648"
93566,"18381 LOST KNIFE CIRCLE APT 201","MONTGOMERY VILLAGE","MD","20886"
93567,"18381 PADUA COURT","MORGAN HILL","CA","95037"
93568,"18381 ZOLMAN ROAD","FREDERICKTOWN","OH","43019"
93569,"183852 N 2830 RD","COMANCHE","OK","73529"
93570,"18386 US HWY 6/19","SAEGERTOWN","PA","16433"
93571,"1839 BOLTON ST APT 1","BALTIMORE","MD","21217"
93572,"1839 DECATUR ST","RIDGEWOOD","NY","11385"
93573,"1839 E COUNTRY CREEK RD","MIDLAND","MI","48640"
93574,"1839 GRACE DRIVE","COLUMBIA","TN","38401"
93575,"1839 GROVE AVE","BERWYN","IL","60402"
93576,"1839 LAKEWOOD RD","JACKSONVILLE","FL","32207"
93577,"1839 LASALLE ST","RACINE","WI","53402"
93578,"1839 MAJESTIC DRIVE","OREFIELD","PA","18069"
93579,"1839 MORRISON CAMPGROUND RD NE","ROME","GA","30161"
93580,"1839 N CIRCLE DR","COLORADO SPRINGS","CO","80909"
93581,"1839 N ECHO AVENUE","FRESNO","CA","93704"
93582,"1839 NAUTS","HOUSTON","TX","77008"
93583,"1839 NORTH HARLEM AVE","CHICAGO","IL","60707"
93584,"1839 S GREENSFERRY ROAD","POST FALLS","ID","83854"
93585,"1839 SANTA YNEZ STREET","LOS ANGELES","CA","90026"
93586,"1839 VELVETLEAF LANE","SANTA ROSA","CA","95404"
93587,"1839 WYNNEWOOD ROAD","PHILADELPHIA","PA","19151"
93588,"1839 YGNACIO VALLEY ROAD 188","WALNUT CREEK","CA","94598"
93589,"1839 YGNACIO VALLEY ROAD SUITE 231","WALNUT CREEK","CA","94598"
93590,"18390 COUNTY ROAD 1","BERTHOUD","CO","80513"
93591,"18390 SW 84TH COURT","PALMETTO BAY","FL","33157"
93592,"18392 GRIFFIN GULTCH LANE","BAKER CITY","OR","97814"
93593,"18394 W PASEO WAY","GOODYEAR","AZ","85338"
93594,"18397 COLIMA RD","ROWLAND HEIGHTS","CA","91748"
93595,"18397 E ALABAMA PLACE UNIT A","AURORA","CO","80017"
93596,"183NE 166 STREET","MIAMI","FM","33162"
93597,"184  EAST CONESVILLE ROAD","GILBOA","NY","12076"
93598,"184  MARINA CT UNIT 77","DETROIT","MI","48214"
93599,"184 ACADEMY STREET","MADISON","GA","30650"
93600,"184 ALAMEDA PARK ROAD","BUTLER","PA","16001"
93601,"184 ALPINE DRIVE","LEESBURG","VA","20175"
93602,"184 BENZIGER AVE NO 2 STATEN ISLAND","NEW  YORK","NY","10304"
93603,"184 BEST STREET","BUFFALO","NY","14209"
93604,"184 BOWDOIN ST","SPRINGFIELD","MA","01109"
93605,"184 BRYNA LANE","CARNEGIE","PA","15106"
93606,"184 CANNONADE DR","LOVELAND","OH","45140"
93607,"184 CHAMBERLIN STREET","NASHVILLE","TN","37209"
93608,"184 CHARLESTON AVE","COLUMBUS","OH","43214"
93609,"184 CLUBHOUSE DRIVE","GEORGETOWN","KY","40324"
93610,"184 COLUMBA HEIGHTS","BROOKLYN","NY","11201"
93611,"184 COMPASS ROSE DRIVE","GROVELAND","FL","34736"
93612,"184 COUNTRY CLUB LANE","POMONA","NY","10970"
93613,"184 COUNTRY VIEW ROAD","TURRELL","AR","72384"
93614,"184 COVINGTON ROAD","GRIFFIN","GA","30223"
93615,"184 CR 3131","DECATUR","TX","76234"
93616,"184 CYCLE PLANT ROAD","BENTON","LA","71006"
93617,"184 CYPRESS FOREST DR","MONCKS CORNER","SC","29461"
93618,"184 CYPRESS FOREST DRIVE","MONCKS CORNER","SC","29461"
93619,"184 DORA ST","PAWTUCKET","RI","02860"
93620,"184 DRIGGS AVENUE APARTMENT 4L","BROOKLYN","NY","11222"
93621,"184 EAST SHORE ROAD","HUNTINGTON","NY","11743"
93622,"184 EXETER ROAD","NEWFIELDS","NH","03856"
93623,"184 FAIRWAY DR","NEWNAN","GA","30265"
93624,"184 FINLAY ST FL 2","STATEN ISLAND","NY","10307"
93625,"184 FRANK PARKER RD","ROCKINGHAM","NC","28379"
93626,"184 GREEN STREET SUITE 1","CAMBRIDGE","MA","02139"
93627,"184 GREENVILLE STREET","SPENCER","MA","01562"
93628,"184 JACKSON ST","EDWARDSVILLE","PA","18704"
93629,"184 KAHANA RIDGE DR","LAHAINA","HI","96761"
93630,"184 LAKEVIEW DRIVE","ROCKLAND","ME","04572"
93631,"184 LEE DRIVE","DALLAS","GA","30132"
93632,"184 LEE ROAD","LINCOLN","ME","04457"
93633,"184 LEONARD WOOD SOUTH 208","HIGHLAND PARK","IL","60035"
93634,"184 LOTA DRIVE","FAIRFIELD","CT","06825"
93635,"184 MARINA COURT UNIT 76","DETROIT","MI","48214"
93636,"184 MIDHURST ROAD","GAHANNA","OH","43230"
93637,"184 MITCHELL LANE","DESALLEMANDS","LA","70030"
93638,"184 MORGAN COVE RD","CANDLER","NC","28715"
93639,"184 NATHAN LADNER RD","DERIDDER","LA","70634"
93640,"184 NE 168TH ST","NORTH MIAMI BEACH","FL","33162"
93641,"184 NOTCH RD","JERICHO","VT","05465"
93642,"184 NW 58TH STREET    UNIT A","MIAMI","FL","33127"
93643,"184 OAK KNOLL CIRCLE","MILLRSVILLE","PA","17551"
93644,"184 OCEAN AVE","JERSEY CITY","NJ","07305"
93645,"184 OLD LITTLETON ROAD","HARVARD","MA","01451"
93646,"184 OLD PARK AVE APT 10","LEXINGTON","KY","40502"
93647,"184 OLD SWEETWATER ROAD","SWEETWATER","TN","37874"
93648,"184 OLIVETTE STREET","SAINT JOHNS","FL","32259"
93649,"184 ORCHARD ROAD","WAYNESBURG","PA","15370"
93650,"184 PEARL LANE","EL PASO","TX","79915"
93651,"184 PLANTATION DRIVE","MOORESVILLE","NC","28117"
93652,"184 PLEASANT VALLEY STREET ST 2-104","METHUEN","MA","01844"
93653,"184 PORTERS LANE ROAD","ROCKY POINT","NC","28457"
93654,"184 PURCHASE ST","MILFORD","MA","01757"
93655,"184 RAILROAD AVE","SAUNDERSTOWN","RI","02874"
93656,"184 RED CEDAR DRIVE","LEVITTOWN","PA","19055"
93657,"184 RIDGE STREET NUMBER A","GLENS FALLS","NY","12801"
93658,"184 ROCKINGHAM STREET","BELLOWS FALLS","VT","05101"
93659,"184 ROUTE 106","GREENFIELD TWP","PA","18407"
93660,"184 S LIVINGSTON AVE STE9-238","LIVINGSTON","NJ","07039"
93661,"184 SHERWOOD DRIVE","MONACA","PA","15061"
93662,"184 SIR SCOTT RD","ATHENS","GA","30607"
93663,"184 SOUTH LIVINGSTON AVE STE 9-301","LIVINGSTON","NJ","07039"
93664,"184 SOUTH LIVINGSTON AVE STE 9-369","LIVINGSTON","NJ","07039"
93665,"184 SPRING BRANCH DR","KYLE","TX","78640"
93666,"184 SUMMER POINTE DRIVE","BUDA","TX","78610"
93667,"184 SUMMERLIN RIDGE","OFALLON","IL","62269"
93668,"184 SW 185 WAY","PEMBROKE PINES","FL","33029"
93669,"184 THEOPHILE RD","VILLE PLATTE","LA","70586"
93670,"184 THIMBLEWEED LN","LILLINGTON","NC","27546"
93671,"184 THOMAS TRL","MEANSVILLE","GA","30256"
93672,"184 THOMPSON STREET APT 3S","NEW YORK","NY","10012"
93673,"184 TOWER STREET","SAN BENITO","TX","78586"
93674,"184 W OAK STREET","BASKING RIDGE","NJ","07920"
93675,"184 W THATCH PALM CIR","JUPITER","FL","33458"
93676,"184 WEST FIRST STREET","OSWEGO","NY","13126"
93677,"184 WEST GRAND AVENUE","TOWER CITY","PA","17980"
93678,"184 WEST SANTA CLAIR ST","JACKSON","MS","39212"
93679,"184 WHITE CEDAR DRIVE","SICKLERVILLE","NJ","08081"
93680,"184 YUMA DR","LAKE WAYNOKA","OH","45171"
93681,"184-10A HORACE HARDING EXPY","FRESH MEADOWS","NY","11365"
93682,"184","WEST ROCKPORT","ME","04865"
93683,"1840 15 AVENUE SOUTH","FARGO","ND","58103"
93684,"1840 41ST AVE UNIT 101-312","CAPITOLA","CA","95010"
93685,"1840 ARTEIQUE RD","TOPANGA","CA","90290"
93686,"1840 BALDRIDGE ROAD","COLUMBUS","OH","43221"
93687,"1840 BAYVIEW","HERMOSA BEACH","CA","90254"
93688,"1840 BRIARCLIFF CIRCLE NE APT B","ATLANTA","GA","30329"
93689,"1840 BRUBAKER RUN ROAD","LANCASTER","PA","17603"
93690,"1840 BUTLER MILL ROAD","MONTGOMERY","AL","36105"
93691,"1840 DELAWARE PL","LONGMONT","CO","80501"
93692,"1840 E 18TH ST","BROOKLYN","NY","11229"
93693,"1840 E HIGHWAY 163","COLUMBIA","MO","65201"
93694,"1840 EAST SHORE DRIVE","MARTINSVILLE","IN","46151"
93695,"1840 ENTERPRISE","ROCHESTER HILLS","MI","48309"
93696,"1840 FEDERAL AVE APT 1","LOS ANGELES","CA","90025"
93697,"1840 FOREST HILL BLVD  STE 2","EAST CLEVELAND","OH","44112"
93698,"1840 G ST NW CO WEWORK","WASHINGTON","DC","20036"
93699,"1840 GRISWOLD DRIVE","ELKO","NV","89801"
93700,"1840 ITASCA AVE","SACRAMENTO","CA","95835"
93701,"1840 JERRY AVENUE","SANFORD","FL","32771"
93702,"1840 KANAWHA DRIVE","STONE MOUNTAIN","GA","30083"
93703,"1840 LITTLES ROAD","ARCANUM","OH","45304"
93704,"1840 MALABAR RD","MALABAR","FL","32950"
93705,"1840 N 24TH ST","PHILADELPHIA","PA","19121"
93706,"1840 N BASE RD","NORTH VERNON","IN","47265"
93707,"1840 N CLAIBORNE AVE","NEW ORLEANS","LA","70116"
93708,"1840 N WILBUR CIR","MESA","AZ","85201"
93709,"1840 NARROWS COURT","OXNARD","CA","93035"
93710,"1840 NE 118TH AVE","PORTLAND","OR","97220"
93711,"1840 NEELY AVENUE","EAST POINT","GA","30344"
93712,"1840 NORTH 8TH","ABILENE","TX","79603"
93713,"1840 NW 23RD ST","GAINESVILLE","FL","32605"
93714,"1840 RICHMOND PARKWAY","RICHMOND","TX","77469"
93715,"1840 RINEHART RD APT 103","SANFORD","FL","32771"
93716,"1840 ROSALIND AVENUE","EAST CLEVELAND","OH","44112"
93717,"1840 S 4TH AVE STE 7","YUMA","AZ","85364"
93718,"1840 S 900 W","LEHI","UT","84043"
93719,"1840 S GILBERT","IOWA CITY","IA","52240"
93720,"1840 SE 164TH AVE","PORTLAND","OR","97233"
93721,"1840 SHAW AVE STE 105 83","CLOVIS","CA","93611"
93722,"1840 SHAW AVE STE 105-83","CLOVIS","CA","93611"
93723,"1840 SHAW AVE SUITE 153","CLOVIS","CA","93611"
93724,"1840 SHAW AVE SUITE105-99","CLOVIS","CA","93619"
93725,"1840 SOUTH ELENA AVENUE 106","REDONDO BEACH","CA","90277"
93726,"1840 SOUTH GAFFEY STREET SUITE 517","SAN PEDRO","CA","90731"
93727,"1840 TOWNPARK BLVD","UNIONTOWN","OH","44685"
93728,"1840 W COMMONWEALTH AVE APT 252","FULLERTON","CA","92833"
93729,"1840 W FIFTH ST","DAYTON","OH","45417"
93730,"1840 W OHIO STREET","CHICAGO","IL","60622"
93731,"1840 WALBURG ROAD","BURLINGTON","WI","53105"
93732,"1840 WANDA WAY","ELLENWOOD","GA","30294"
93733,"1840 WEST BROAD STREET - SUITE 200","RICHMOND","VA","23220"
93734,"1840 WEST SPRING CREEK PARKWAY","PLANO","TX","75023"
93735,"1840 WIDENER PLACE","PHILA","PA","19141"
93736,"1840 WOODLAND CIRCLE 108","VERO BEACH","FL","32967"
93737,"1840 WOODVALLEY DRIVE","COLUMBIA","SC","29212"
93738,"1840-46 SOUTH KEDZIE AVENUE","CHICAGO","IL","60623"
93739,"18400 E 19TH ST S","INDEPENDENCE","MO","64057"
93740,"18400 VALERIO STREET UNIT 54","RESEDA","CA","91335"
93741,"18401 CHAMPAIGN","ALLEN PARK","MI","48101"
93742,"18401 HURSHTOWN ROAD","GRABILL","IN","46741"
93743,"18401 N 25TH AVE SUITE 110A","PHOENIX","AZ","85023"
93744,"18402 HAMPTON CT","LIVONIA","MI","48152"
93745,"18403 PENNINGTON","DETROIT","MI","48221"
93746,"18403 SLOANE AVE","LAKEWOOD","OH","44107"
93747,"18404 OLYMPIC VIEW DRIVE","EDMONDS","WA","98020"
93748,"18404 SW 131 AVE","MIAMI","FL","33177"
93749,"18405 310TH AVE NW","WARREN","MN","56762"
93750,"18405 DARTRY DRIVE","COUNTRY CLUB HILLS","IL","60478"
93751,"18405 GUILDBERRY DR APT 303","GAITHERSBURG","MD","20879"
93752,"18405 TENAJA RD","MURRIETA","CA","92562"
93753,"18406 SIBERIA BAY CIRCLE","CYPRESS","TX","77429"
93754,"18406 WINTERSET DRIVE","SOUTHFIELD","MI","48076"
93755,"18407 CHIEFS HONOR COURT","CYPRESS","TX","77433"
93756,"18407 EDENBERRY DRIVE","CYPRESS","TX","77433"
93757,"18408 NORTHSIDE BLVD","NAMPA","ID","83687"
93758,"1841 126TH AVE","HOPKINS","MI","49328"
93759,"1841 AIRES STREET","SEBASTIAN","FL","32958"
93760,"1841 BEECH GRV","CHARLOTTESVILLE","VA","22911"
93761,"1841 BROADWAY  4TH FLOOR","NEW YORK","NY","10023"
93762,"1841 BROADWAY - 4TH FLOOR","NEW YORK","NY","10023"
93763,"1841 CAPULIN RD","FORT WORTH","TX","76131"
93764,"1841 CENTRAL PARK AVE","YONKERS","NY","10710"
93765,"1841 DANCY ST APT 2","JACKSONVILLE","FL","32205"
93766,"1841 E TREMONT AVE","BRONX","NY","10460"
93767,"1841 EAST KY 70","LIBERTY","KY","42539"
93768,"1841 EASTGATE ROAD","TOLEDO","OH","43614"
93769,"1841 FAIRVIEW RD","MARION","NC","28752"
93770,"1841 MUNSTER AVE","ST PAUL","MN","55116"
93771,"1841 N SPRINGFIELD","CHICAGO","IL","60647"
93772,"1841 NE 42ND STREET","POMPANO BEACH","FL","33064"
93773,"1841 NEW BETHEL CHURCH ROAD","GARNER","NC","27529"
93774,"1841 NEWTON DRIVE","CHEYENNE","WY","82001"
93775,"1841 NUGGET DR","LAKE HAVASU CITY","AZ","86404"
93776,"1841 NW 24TH TERRACE","FORT LAUDERDALE","FL","33311"
93777,"1841 OHIO AVE","AUGUSTA","GA","30904"
93778,"1841 PENRITH LOOP","ORLANDO","FL","32824"
93779,"1841 RIDGEBROOK CIRCLE","BEACHWOOD","OH","44122"
93780,"1841 S CALUMET AVE APT 602","CHICAGO","IL","60616"
93781,"1841 S LAKELINE BLVD STE 101-131","CEDAR PARK","TX","78613"
93782,"1841 SOUTH CALUMET AVENUE APT 2206","CHICAGO","IL","60616"
93783,"1841 STATE HIGHWAY 49","PLACERVILLE","CA","95667"
93784,"1841 SW STARMAN AVE","PORT ST LUCIE","FL","34953"
93785,"1841 W NORTHWEST HIGHWAY","DALLAS","TX","75220"
93786,"1841 WAVERLY AVENUE","MEMPHIS","TN","38114"
93787,"1841 WELLS RD","NORTH AUGUSTA","SC","29841"
93788,"1841 WEST MAIN STREET SUITE 305","TROY","OH","45373"
93789,"1841 WEST OAK PARKWAY SUITE F","MARIETTA","GA","30062"
93790,"18410 HEMINGTON CT","DALLAS","TX","75252"
93791,"18410 REIMAN ST","ADELANTO","CA","92301"
93792,"18411 BLUFFVIEW DR","CROSBY","TX","77532"
93793,"18411 CROSSPRAIRIE","SAN ANTONIO","TX","78258"
93794,"18411 KEYSTONE GROVE BLVD","ODESSA","FL","33556"
93795,"18411 PLUMMER STREET 22","NORTHRIDGE","CA","91325"
93796,"18411 SE 242ND CT","COVINGTON","WA","98042"
93797,"18412 WEST CARIBBEAN LANE","SURPRISE","AZ","85388"
93798,"18413 BUTTERNUT STREET","GARDNER","KS","66030"
93799,"18414 CHATHAM LANE","PORTER RANCH","CA","91326"
93800,"18414 POLYNESIAN LANE","BOYDS","MD","20841"
93801,"18414 RIVER ROAD","HAZEL CREST","IL","60429"
93802,"18414 STANDWICK DRIVE","LOUISVILLE","KY","40160"
93803,"18414 THUNDERCLOUD ROAD","BOYDS","MD","20841"
93804,"18415 - 101ST AVE NE","BOTHELL","WA","98011"
93805,"18415 101ST AVE NE","BOTHELL","WA","98011"
93806,"18415 JONATHAN ST APT B","ADELANTO","CA","92301"
93807,"18416 NORTH 46TH PLACE","PHOENIX","AZ","85032"
93808,"18417 DEER DRIVE","SAUCIER","MS","39574"
93809,"18417 MARSH PARKWAY","VANCE","AL","35490"
93810,"18418 AINTREE CT","TAMPA","FL","33647"
93811,"18418 CYPRESS LAKE VILLAGE DR","CYPRESS","TX","77429"
93812,"18418 GREENSTONE WAY","LAKEVILLE","MN","55044"
93813,"18418 S WENTWORTH","LANSING","IL","60438"
93814,"18419 79TH PL W","LYNNWOOD","WA","98036"
93815,"18419 FLINT HILL","KATY","TX","77449"
93816,"1841B OLD US HIGHWAY 66","EDGEWOOD","NM","87015"
93817,"1842 81 STREET FLOOR 1","BROOKLYN","NY","11214"
93818,"1842 9TH ST","BROOKLYN","NY","11223"
93819,"1842 ANDESRON ST","ABILENE","TX","79603"
93820,"1842 BEECH GRV","CHARLOTTESVILLE","VA","22911"
93821,"1842 BROOKTREE WAY","PLEASANTON","CA","94566"
93822,"1842 BUSSING AVE","BRONX","NY","10468"
93823,"1842 CHEROKEE RD","WAYNESBORO","VA","22980"
93824,"1842 DEL ROBLES DR","CLEARWATER","FL","33764"
93825,"1842 E EVA CIR","ROMA","TX","78584"
93826,"1842 E LAINIE STREET","WEST COVINA","CA","91792"
93827,"1842 FRANKLIN AVE SE APT 2","MINNEAPOLIS","MN","55414"
93828,"1842 LOCKHILL SELMA SUITE 102","SAN ANTONIO","TX","78213"
93829,"1842 MANOR HILL RD","ST LOUIS","MO","63131"
93830,"1842 MENTONE BLVD SUITE 653","MENTONE","CA","92359"
93831,"1842 N 77TH GLEN","PHOENIX","AZ","85035"
93832,"1842 N BULLIS RD STE Q","COMPTON","CA","90221"
93833,"1842 NORTH DECATUR BLVD UNIT 204","LAS VEGAS","NV","89108"
93834,"1842 NORWALK STREET","DELANO","CA","93215"
93835,"1842 PALISADES DR","WEST PALM BEACH","FL","33411"
93836,"1842 RUTH ST PMB NUM 97","SULPHUR","LA","70663"
93837,"1842 S GESSNER ROAD","HOUSTON","TX","77063"
93838,"1842 WILLOW BROOK CIRCLE","FLINT","MI","48507"
93839,"1842 WILSHIRE DR","CHARLESTON","SC","29407"
93840,"1842 WINTERS ROAD","WINDSOR","PA","17366"
93841,"18420 170TH ST E","BONNEY LAKE","WA","98391"
93842,"18420 FUCHSIA ROAD","FORT MYERS","FL","33967"
93843,"18420 SANTA BARBARA DR","DETROIT","MI","48221"
93844,"18421 SANDRINGHAM CT","PORTER RANCH","CA","91326"
93845,"18422 244TH AVE NE","WOODINVILLE","WA","98077"
93846,"18423 E RIVERWAY","SPOKANE VALLEY","WA","99016"
93847,"18424 BARBARA AVE","PORT CHARLOTTE","FL","33948"
93848,"18424 COWING COURT","HOMEWOOD","IL","60430"
93849,"18425 HICKORY","DETROIT","MI","48205"
93850,"18425 NALLE ROAD","NORTH FORT MYERS","FL","33917"
93851,"18425 NW 2ND AVE  5TH FLOOR  STE 3","MIAMI GARDENS","FL","33169"
93852,"18426 N 67TH AVENUE","GLENDALE","AZ","85308"
93853,"18426 VICKIE AVENUE","CERRITOS","CA","90703"
93854,"18427 MAGENTA BAY","EDEN PRAIRIE","MN","55347"
93855,"18427 W GOLDENROD STREET","GOODYEAR","AZ","85338"
93856,"18428 CHERRYLAWN STREET","DETROIT","MI","48221"
93857,"18428 N 42ND STREET","PHOENIX","AZ","85032"
93858,"18428 NEW LONDON AVE","LAND O LAKES","FL","34638"
93859,"18428 NEW LONDON AVENUE","LAND O LAKES","FL","34638"
93860,"18429 NE 196TH PL","WOODINVILLE","WA","98077"
93861,"1843 115TH AVE NE","BELLEVUE","WA","98004"
93862,"1843 24TH ST NE  APT T2","WAS","DC","20002"
93863,"1843 5TH STREET","MANHATTAN BEACH","CA","90266"
93864,"1843 BRACKENDALE RD NW","KENNESAW","GA","30152"
93865,"1843 CHURCH STREET","OAKLAND","CA","94621"
93866,"1843 COUNTY ROAD 132","ELIZABETH","CO","80107"
93867,"1843 FLOWERS DRIVE","LAUREL HILL","FL","32567"
93868,"1843 FOREMAN DRIVE","COOKEVILLE","TN","38501"
93869,"1843 LAZIO LANE","APEX","NC","27502"
93870,"1843 LIBBEY DRIVE","HOUSTON","TX","77018"
93871,"1843 LUTES ROAD","POULSBO","WA","98370"
93872,"1843 ORIOLE DRIVE","ELK GROVE VILLAGE","IL","60007"
93873,"1843 S BROADWAY AVE SUITE 101A","BOISE","ID","83706"
93874,"1843 S FAIRFAX ST","DENVER","CO","80222"
93875,"1843 S TAMIAMI TRAIL","VENICE","FL","34293"
93876,"1843 SADDLE CLUB RD","FORDLAND","MO","65652"
93877,"1843 SOUTH 22ND STREET","PHILADELPHIA","PA","19145"
93878,"1843 SOUTH 65TH STREET","PHILADELPHIA","PA","19142"
93879,"1843 TAMIAMI TR S","VENICE","FL","34293"
93880,"1843 W BRIAN AVE","PORTERVILLE","CA","93257"
93881,"1843 WALTER DRIVE","FLORENCE","SC","29505"
93882,"1843 WEST CHASE AVENUE","CHICAGO","IL","60626"
93883,"18430 BROOKHURST ST SUITE 202E","FOUNTAIN VALLEY","CA","92708"
93884,"18430 DEVLIN AVENUE","ARTESIA","CA","90701"
93885,"18430 JOHN R","DETROIT","MI","48203"
93886,"18432 126TH ST SE","SNOHOMISH","WA","98290"
93887,"18432 BILADEAU","PENN VALLEY","CA","95946"
93888,"18432 W DESERT VIEW LANE","GOODYEAR","AZ","85338"
93889,"18432 WHITETAIL LN","ATHENS","AL","35613"
93890,"18432 WILLOW SAGE LANE","ELGIN","TX","78621"
93891,"18436 KNOX LAKE ROAD","FREDERICKTOWN","OH","43109"
93892,"18436 SANTA ANA AVENUE","BLOOMINGTON","CA","92316"
93893,"18438 RANCHVIEW TRL","HOUSTON","TX","77033"
93894,"18438 RANCHVIEW TRL","HOUSTON","TX","77073"
93895,"18439 NW 11 STREET","PEMBROKE PINES","FL","33029"
93896,"1844 4TH STREET 1","SARASOTA","FL","34236"
93897,"1844 BROOKLYN AVENUE","BROOKLYN","NY","11210"
93898,"1844 CHESTNUT HILL DR","TEGA CAY","SC","29708"
93899,"1844 E 97TH ST","KANSAS CITY","MO","64131"
93900,"1844 FELL STREET","SAN FRANCISCO","CA","94117"
93901,"1844 LAKESIDE AVENUE","BELLINGHAM","WA","98229"
93902,"1844 LOCKHILL SELMA RD STE 102","SAN ANTONIO","TX","78213"
93903,"1844 MARY LOU LANE SE","ATLANTA","GA","30316"
93904,"1844 N LARRABEE","CHICAGO","IL","60614"
93905,"1844 NEW MARKET DR","GROVE CITY","OH","43123"
93906,"1844 NORTH 32ND STREET","PHILADELPHIA","PA","19121"
93907,"1844 NORTH DURHAM STREET","BALTIMORE","MD","21213"
93908,"1844 OLEANDER STREET","SARASOTA","FL","34239"
93909,"1844 OSCAR FRYE ROAD","PINNACLE","NC","27043"
93910,"1844 SHERIDAN WAY","SAN MARCOS","CA","92078"
93911,"1844 SOUTH 24TH STREET","PHILADELPHIA","PA","19145"
93912,"1844 SQUAW LAGOON DRIVE","OXFORD","MI","48371"
93913,"1844 THAYER AVENUE 301","LOS ANGELES","CA","90025"
93914,"1844 UNION STREET","NISKAYUNA","NY","12309"
93915,"1844 W 23RD STREET","CHICAGO","IL","60608"
93916,"1844 WAMPUM DR","YOUNGSTOWN","OH","44511"
93917,"1844 WINDERMERE STREET","EAST CLEVELAND","OH","44112"
93918,"18440 N 689TH ST APT 4085","PHOENIX","AZ","85054"
93919,"18441 NW 2ND AVENUE SUITE 300","MIAMI GARDENS","FL","33169"
93920,"18442 DEJONG LANE","LANSING","IL","60438"
93921,"18443 SE 279TH PL","KENT","WA","98042"
93922,"18443 W SUNRISE DR","GOODYEAR","AZ","85338"
93923,"18444 W NAMBE ST","GOODYEAR","AZ","85338"
93924,"184444 WEST 10 MILE ROAD SUITE 103","SOUTHFIELD","MI","48075"
93925,"18445 EAST CHANDLER HEIGHTS","QUEEN CREEK","AZ","85142"
93926,"18445 NE RAINBOW LN","NEWBERG","OR","97132"
93927,"18448 MAY ST","HOMEWOOD","IL","60430"
93928,"18449 8TH AVE SW","NORMANDY PARK","WA","98166"
93929,"1845 BROOKWOOD ROAD","NORFOLK","VA","23518"
93930,"1845 CASCADE STABLE DRIVE","RENO","NV","89521"
93931,"1845 CEDAR STREET","PHILADELPHIA","PA","19125"
93932,"1845 COMMUNITY DR","KNOXVILLE","TN","37909"
93933,"1845 CRAIG RD","AURORA","NE","68818"
93934,"1845 DOWNS ST","OCEANSIDE","CA","92054"
93935,"1845 E FERNROCK STREET","CARSON","CA","90746"
93936,"1845 EAST 52ND STREET","BROOKLYN","NY","11234"
93937,"1845 GRAYSON HWY","GRAYSON","GA","30017"
93938,"1845 HOPKINS AVENUE","NORWOOD","OH","45212"
93939,"1845 LAKE CHAPMAN DRIVE DRIVE  201","BRANDON","FL","33510"
93940,"1845 LARKSPUR WAY","TEGA CAY","SC","29708"
93941,"1845 MCCULLOCH BLVD N STE A6","LAKE HAVASU CITY","AZ","86403"
93942,"1845 MILLSTREAM DR","FREDERICK","MD","21702"
93943,"1845 MONROVIA AVE SPC4","COSTA MESA","CA","92627"
93944,"1845 MONROVIA AVENUE SPC4","COSTA MESA","CA","92627"
93945,"1845 N CANYON DR APARTMENT 10","LOS ANGELES","CA","90028"
93946,"1845 N FARWELL AVE SUITE 100","MILWAUKEE","WI","53202"
93947,"1845 N M L KING JR BLVD UNIT 3694","TALLAHASSEE","FL","32315"
93948,"1845 NOWELL AVE","ROWLAND HEIGHTS","CA","91748"
93949,"1845 NW 65TH STREET","MIAMI","FL","33147"
93950,"1845 OLIVER AVE","SAN DIEGO","CA","92109"
93951,"1845 PLYMOUTH STREET","BRIDGEWATER","MA","02324"
93952,"1845 RAINBOW DRIVE","KETTERING","OH","45420"
93953,"1845 S CLERMONT STREET","DENVER","CO","80222"
93954,"1845 SPAWS CREEK ROAD","WEST LIBERTY","KY","41472"
93955,"1845 SPOTTED OWL DRIVE","VERO BEACH","FL","32962"
93956,"1845 TOBIAS DRIVE SE","WASHINGTON","DC","20020"
93957,"1845 W ORANGE GROVE RD STE 125","TUCSON","AZ","85704"
93958,"1845 WESTOVER DR","JOINT BASE ANDREWS","MD","20762"
93959,"1845 WESTOVER DRIVE","JOINT BASE ANDREWS","MD","20762"
93960,"18450 PLEASANT PARK RD","CONIFER","CO","80433"
93961,"18451 STONEGATE LANE","ROWLAND HEIGHTS","CA","91748"
93962,"18451 WYOMING","DETROI","MI","48221"
93963,"18452 DEEP PASSAGE LANE","FORT MYERS BEACH","FL","33931"
93964,"18452 MONTE VISTA","DETROIT","MI","48221"
93965,"18452 W CREEK DRIVE","TINLEY PARK","IL","60477"
93966,"18453 EASTWYCK DRIVE","TAMPA","FL","33647"
93967,"18454 N M","BOISE","ID","83714"
93968,"18454 ORCHID DR","LEESBURG","VA","20176"
93969,"18455 211TH DRIVE","LIVE OAK","FL","32060"
93970,"18455 JAMES COUZENS","DETROIT","MI","48235"
93971,"18456 FAIRWAY OAKS COURT","BATON ROUGE","LA","70809"
93972,"18456 SHIPMAN ROAD","CARLINVILLE","IL","62626"
93973,"18457 NORTH DR APT 46","SOUTHFIELD","MI","48076"
93974,"18458 RIDGEWOOD AVE","LANSING","IL","60438"
93975,"18459 PINES BLVD  STE 488","PEMBROKE PINES","FL","33029"
93976,"18459 PINES BLVD 358","PEMBROKE PINES","FL","33029"
93977,"18459 PINES BLVD STE 358","PEMBROKE PINES","FL","33029"
93978,"18459 PINES BLVD STE 459","PEMBROKE PINES","FL","33029"
93979,"18459 PINES BLVD","PEMBROKE PINES","FL","33029"
93980,"18459 PINES BOULEVARD SUITE 118","PEMBROKE PINES","FL","33029"
93981,"18459 PINES BOULEVARD SUITE 139","PEMBROKE PINES","FL","33029"
93982,"1846 4TH ST","WPAFB","OH","45433"
93983,"1846 ADAMS WAY","JAMISON","PA","18929"
93984,"1846 ASTON MILL PLACE","CHARLOTTE","NC","28273"
93985,"1846 E INNOVATION PARK DR  100","ORO VALLEY","AZ","85755"
93986,"1846 E INNOVATION PARK DR  STE 100","ORO VALLEY","AZ","85755"
93987,"1846 E INNOVATION PARK DR 100","ORO VALLEY","AZ","85755"
93988,"1846 E INNOVATION PARK DR STE 100","ORO VALLEY","AZ","85755"
93989,"1846 E INNOVATION PARK DR STE 100","ORO VALLEY","CA","85755"
93990,"1846 E INNOVATION PARK DR SUITE 100","ORO VALLEY","AZ","85755"
93991,"1846 E INNOVATION PARK DRIVE","ORO VALLEY","AZ","85755"
93992,"1846 E INNOVATION PARK DRIVE","ORO VALLEY","AZ","85775"
93993,"1846 E INNOVATION PARK SUITE 100","ORO VALLEY","AZ","85755"
93994,"1846 E PATRICK ST","GILBERT","AZ","85295"
93995,"1846 E ROSEMEADE PARKWAY SUITE 224","CARROLLTON","TX","75007"
93996,"1846 E ROSEMEADE PKWY","CARROLLTON","TX","75007"
93997,"1846 HIGHLAND PARKWAY","ST PAUL","MN","55116"
93998,"1846 KINGSLEY AVENUE","AKRON","OH","44313"
93999,"1846 LAKOTA STREET","SIMI VALLEY","CA","93065"
94000,"1846 LEXINGTON PL","TARPON SPRINGS","FL","34688"
