"ID","Address","City","State","Zip"
270501,"6730 BIGHORN RIDGE","ARLINGTON","TX","76002"
270502,"6730 ELBROOK AVE","CINCINNATI","OH","45237"
270503,"6730 HWY 51","WILSONVILLE","AL","35186"
270504,"6730 IVANREST AVE SW","BYRON CENTER","MI","49315"
270505,"6730 MOCCASIN WALLOW ROAD","PALMETTO","FL","34221"
270506,"6730 MONROE STREET","SYLVANIA","OH","43560"
270507,"6730 ROOSEVELT AVE 312","MIDDLETOWN","OH","45044"
270508,"6730 ROOSEVELT AVE","ALLEN PARK","MI","48101"
270509,"6730 TAYLOR RIDGE RD","MONTGOMERY","AL","36116"
270510,"6730 WIREVINE DR","BROOKSVILLE","FL","34602"
270511,"6730 WORMWOOD LN","LAS VEGAS","NV","89148"
270512,"67305 QUIJO RD","CATHEDRAL CITY","CA","92234"
270513,"6731 ALDRICH AVE NORTH","BROOKLYN CENTER","MN","55430"
270514,"6731 BALL ROAD","KNOXVILLE","TN","37931"
270515,"6731 BRIDGE STREET SUITE 750","FORT WORTH","TX","76112"
270516,"6731 E 119TH APT 131","GRANDVIEW","MO","64030"
270517,"6731 EDISON","ST LOUIS","MO","63121"
270518,"6731 MAJESTIC OAKS DRIVE","HUDSON","OH","44236"
270519,"6731 NORTH MONTICELLO AVE","LINCOLNWOOD","IL","60712"
270520,"6731 OAKRIDGE RD","NEW MARKET","MD","21774"
270521,"6731 W ALEXANDER RD SUITE 103","LAS VEGAS","NV","89108"
270522,"6732 BLOSSOM VIEW DRIVE","FLORISSANT","MO","63033"
270523,"6732 CASSIDY CIR","LOUISVILLE","KY","40229"
270524,"6732 CHARITY AVE STE 1","BAKERSFIELD","CA","93308"
270525,"6732 CONEJO AVENUE","JOSHUA TREE","CA","92252"
270526,"6732 FLORENCE PL","BELL GARDENS","CA","90201"
270527,"6732 N 15TH STREET","PHILADELPHIA","PA","19126"
270528,"6732 RISING SUN AVE APT 4","PHILADELPHIA","PA","19111"
270529,"6732 SPRING STREET ST B","DOUGLASVILLE","GA","30134"
270530,"6732 SW 33 ST","MIRAMAR","FL","33023"
270531,"6732 WALROND AVENUE","KANSAS CITY","MO","64132"
270532,"6733 BALSAM DRIVE","BEDFORD HEIGHTS","OH","44146"
270533,"6733 E BUTTE ST","MESA","AZ","85205"
270534,"6733 FIR TREE RD SE","OLYMPIA","WA","98513"
270535,"6733 FIREBALL CT","NORTH LAS VEGAS","NV","89084"
270536,"6733 MADISON ST","NEW TRIPOLI","PA","18066"
270537,"6733 N CAMPBELL AVE","CHICAGO","IL","60645"
270538,"6733 PROSPECT AVE","KANSAS CITY","MO","64132"
270539,"6733 SE THORBURN STREET","PORTLAND","OR","97215"
270540,"6734 MATILIJA AVENUE","VAN NUYS","CA","91405"
270541,"6734 STUART AVE","RICHMOND","VA","23226"
270542,"6735 180TH STREET SUITE 6","TINLEY PARK","IL","60477"
270543,"6735 ANDRE LANE","SOLON","OH","44139"
270544,"6735 BLUFFVIEW DRIVE","FORT WORTH","TX","76132"
270545,"6735 CASTOR AVENUE UNIT B","PHILADELPHIA","PA","19149"
270546,"6735 CONROY RD ST 302","ORLANDO","FL","32835"
270547,"6735 CONROY RD STE 322","ORLANDO","FL","32835"
270548,"6735 CONROY RD UNIT 102 PMB 29","ORLANDO","FL","32835"
270549,"6735 CONROY ROAD SUITE 302","ORLANDO","FL","32835"
270550,"6735 CONROY WINDERMERE RD STE 313","ORLANDO","FL","32835"
270551,"6735 E GREENWAY PKWY  2130","SCOTTSDALE","AZ","85254"
270552,"6735 EAST BAY BLVD","NAVARRE","FL","32566"
270553,"6735 MCDONALD RD","OLIVET","MI","49076"
270554,"6735 N TOLEDO BLADE BLVD","NORTH PORT","FL","34286"
270555,"6735 PLEASANT BAY ST","SAN ANTONIO","TX","78244"
270556,"6735 PLUMBLEE COVE EAST","MEMPHIS","TN","38141"
270557,"6735 RUNNING HORSE RD","RACINE","WI","53402"
270558,"6735 SALT CEDAR WAY BUILDING 1 300","FRISCO","TX","75034"
270559,"6735 SALT CEDAR WAY STE 300-1043","FRISCO","TX","75034"
270560,"6735 SW CAPITOL HILL RD APT 2","PORTLAND","OR","97219"
270561,"6735 TED TROUT DRIVE","LUFKIN","TX","75904"
270562,"6735 TELEGRAPH RD SUITE 101","BLOOMFIELD HILLS","MI","48301"
270563,"6736 4TH AVENUE NORTH","SAINT PETERSBURG","FL","33710"
270564,"6736 ARABIAN TERRACE","LITHONIA","GA","30038"
270565,"6736 BILL CARRUTH PKWY SUITE 217","HIRAM","GA","30141"
270566,"6736 BURBAGE LAKE CIRCLE","SUFFOLK","VA","23435"
270567,"6736 CALTON LN","CHARLOTTE","NC","28214"
270568,"6736 DELAWARE BEND","FAIRBURN","GA","30213"
270569,"6736 GOLDENEYE DRIVE","ORLANDO","FL","32810"
270570,"6736 LONDON BRIDGE LANE","JACKSONVILLE","FL","32210"
270571,"6736 LONDON BRIDGE LN","JACKSONVILLE","FL","32210"
270572,"67365 OVANTE RD","CATHEDRAL CITY","CA","92234"
270573,"6737 ARBOR MEADOWS DRIVE","CHESTER","VA","23831"
270574,"6737 BARTMER","ST. LOUIS","MO","63130"
270575,"6737 DOVER ROAD","INDIANAPOLIS","IN","46220"
270576,"6737 HUMBOLDT AVENUE NORTH APT 4","BROOKLYN CENTER","MN","55430"
270577,"6737 LA TOUR CIRCLE","INDIANAPOLIS","IN","46278"
270578,"6737 N TEUTONIA AVENUE","MILWAUKEE","WI","53209"
270579,"6737 S PAXTON AVE 2ND FLOOR","CHICAGO","IL","60649"
270580,"6737 S PAXTON AVE APT 2","CHICAGO","IL","60649"
270581,"6738 LAKE ERIE LANE","FAIRBURN","GA","30213"
270582,"6738 PARK MEADOWS PLACE","HUNTERSVILLE","NC","28078"
270583,"6738 PEAR CIR","PRINCETON","TX","75407"
270584,"6738 S  112TH E AVE","TULSA","OK","74133"
270585,"6738 S HERMITAGE","CHICAGO","IL","60636"
270586,"6738 S LAFLIN STREET","CHICAGO","IL","60636"
270587,"6738A E CEDAR AVE","DENVER","CO","80224"
270588,"6739 ADAMS STREET","NEW PORT RICHEY","FL","34652"
270589,"6739 BALL MOUNTAIN LITTLE SHASTA RD","MONTAGUE","CA","96064"
270590,"6739 BURLINGTON RD","WHITSETT","NC","27377"
270591,"6739 CAMINITO DEL GRECO","SAN DIEGO","CA","92120"
270592,"6739 COURTLAND DRIVE NE SUITE 102","ROCKFORD","MI","49341"
270593,"6739 RANCHITOS DRIVE","ACTON","CA","93510"
270594,"6739 RIVER GLEN DR","RIVERDALE","GA","30296"
270595,"6739 SEECO DRIVE","KALAMAZOO","MI","49009"
270596,"6739 SOUTH BOULDER RD","BOULDER","CO","80303"
270597,"67398 NORTH BAY ROAD","NORTH BEND","OR","97459"
270598,"674 BAUER ST","ELMONT","NY","11003"
270599,"674 BAYWOOD ROAD","FAYETTEVILLE","NC","28312"
270600,"674 COUNTY SQUARE DR STE 307","VENTURA","CA","93003"
270601,"674 COUNTY SQUARE DRIVE SUITE 209C","VENTURA","CA","93003"
270602,"674 CR 514","NACOGDOCHES","TX","75961"
270603,"674 EAST 241ST STREET","BRONX","NY","10470"
270604,"674 EDGECREEK DR","MYRTLE BEACH","SC","29579"
270605,"674 FISHER SETTLEMENT RD","SPENCER","NY","14883"
270606,"674 MONTICELLO WAY SE","MARIETTA","GA","30067"
270607,"674 MORGANS FORK RD","PENHOOK","VA","24137"
270608,"674 SARAZIN ROAD","NYSSA","OR","97913"
270609,"674 SAW MILL BROOK PKWY","NEWTON","MA","02459"
270610,"674 SW TICHENOR STREET","CLATSKANIE","OR","97016"
270611,"674 TIFFANY DR","MERIDIAN","ID","83646"
270612,"674 VANDERBILT DRIVE","SUNNYVALE","CA","94087"
270613,"674 VIA DE LA VALLE   SUITE 214","SOLANA BEACH","CA","92075"
270614,"6740 17TH STREET NORTH","SAINT PETERSBURG","FL","33702"
270615,"6740 CHADBOURNE DRIVE","NORTH OLMSTED","OH","44070"
270616,"6740 CRYSTAL DOWNES DR SE","CALEDONIA","MI","49316"
270617,"6740 FAGAIMA ROAD","PAGO PAGO","AS","96799"
270618,"6740 FRIENDSHIP DR","NEW CONCORD","OH","43762"
270619,"6740 MARGUERITE ST","JUNEAU","AK","99801"
270620,"6740 N GARFIELD AVE","GLADSTONE","MO","64118"
270621,"6740 N PLACITA ARIEL","TUCSON","AZ","85741"
270622,"6740 N TRENHOLM RD","COLUMBIA","SC","29206"
270623,"6740 NEW CASTLE RD","MORRIS","AL","35116"
270624,"6740 S WOODGATE CT","BATON ROUGE","LA","70808"
270625,"6740 STIRLING RD","HOLLYWOOD","FL","33024"
270626,"6740 TAFUNA ROAD","PAGO PAGO","AS","96799"
270627,"6740 W DEER VALLEY RD STE D106","GLENDALE","AZ","85310"
270628,"6740 WEST FARM DRIVE","CINCINNATI","OH","45237"
270629,"6740 WESTDRUM ROAD","INDIANAPOLIS","IN","46241"
270630,"6740 WISHART ST","HUNTSVILLE","OH","43324"
270631,"6741 COUNTRY CLUB LANE","WEST BLOOMFIELD","MI","48322"
270632,"6741 MONUMENT DRIVE","GRANTS PASS","OR","97526"
270633,"6741 N MAPLEWOOD APT 2","CHICAGO","IL","60645"
270634,"6741 OAKCREST DRIVE WEST","FORT WORTH","TX","76140"
270635,"6741 PEMBROKE ROAD","PEMBROKE PINES","FL","33023"
270636,"6741 S SAINT LAWRENCE","CHICAGO","IL","60637"
270637,"6741 SEBASTOPOL AVE STE 160","SEBASTOPOL","CA","95472"
270638,"6741 STILLMEADOW DRIVE","CHARLOTTE","NC","28277"
270639,"6741 WEST BLVD","INGLEWOOD","CA","90302"
270640,"6742 BEDFORD AVENUE","LOS ANGELES","CA","90056"
270641,"6742 EAST 91ST PLACE APT 3","TULSA","OK","74133"
270642,"6742 FOREST HILL BLVD 297","WEST PALM BEACH","FL","33413"
270643,"6742 FOREST HILL BLVD SUITE 209","WEST PALM BEACH","FL","33431"
270644,"6742 GUYER AVENUE","PHILA","PA","19142"
270645,"6742 HYLA ROMAN AVE","LAS VEGAS","NV","89131"
270646,"6742 N WHIPPLE ST","CHICAGO","IL","60645"
270647,"6742 S ROCKFORD PL","TULSA","OK","74136"
270648,"6742 SOUTH CHAMPLAIN 1ST FLOOR","CHICAGO","IL","60637"
270649,"6742 WESTERN AVE / APT 4","BUENA PARK","CA","90621"
270650,"6743 AVRUM DRIVE","DENVER","CO","80221"
270651,"6743 SIGNAL PEAK COURT","STOCKTON","CA","95210"
270652,"6743 VICKSBORO ROAD","HENDERSON","NC","27537"
270653,"6743 WATERTON CIRCLE","MUKILTEO","WA","98275"
270654,"6743 WHITE OAKS DR","AVON","IN","46123"
270655,"6743 WHITE PINE CT","BLOOMFIELD HILLS","MI","48302"
270656,"6743-B HAMPTON ROAD PARKWAY","SUFFOLK","VA","23435"
270657,"6744 BIGHORN RIDGE","ARLINGTON","TX","76002"
270658,"6744 CAMPTON RD","STANTON","KY","40380"
270659,"6744 COLONIAL CT","COLUMBUS","OH","43229"
270660,"6744 CRESS ROAD","CONCORD","NC","28025"
270661,"6744 DRAKESTONE RD","CONCORD","NC","28027"
270662,"6744 DUME DR","MALIBU","CA","90265"
270663,"6744 FOCH ROAD","NEW ORLEANS","LA","70126"
270664,"6744 GROVERS AVENUE","PHILADELPHIA","PA","19142"
270665,"6744 SOUTH CARPENTER STREET","CHICAGO","IL","60619"
270666,"6744 VILLA DEL MAR","BAKERSFIELD","CA","93304"
270667,"67445 HESS ROAD","EDWARDSBURG","MI","49112"
270668,"6745 16TH AVE","RICHFIELD","MN","55423"
270669,"6745 2ND AVE CIR WEST","BRADENTON","FL","34209"
270670,"6745 2ND STREET","JUPITER","FL","33458"
270671,"6745 BRIDGE STREET","FORT WORTH","TX","76112"
270672,"6745 E ARIZONA AVENUE UNIT B","DENVER","CO","80224"
270673,"6745 NORTH 93RD AVENUE UNIT 1165","GLENDALE","AZ","85305"
270674,"6745 W 180TH STREET 1E","TINLEY PARK","IL","60477"
270675,"6745 W KEN CARYL AVE","LITTLETON","CO","80128"
270676,"6746 18TH AVE NW","SEATTLE","WA","98117"
270677,"6746 CARLISLE PIKE","MECHANICSBURG","PA","17050"
270678,"6746 DONAHUE DR","COLORADO SPRINGS","CO","80923"
270679,"6746 JEFFERSON ST NE","FRIDLEY","MN","55432"
270680,"6746 PLEASANT HILL RD","HACKETT","AR","72937"
270681,"6746 S 34TH STREET","FRANKLIN","WI","53132"
270682,"6746 SLATON FIELDS","CONVERSE","TX","78109"
270683,"6746 TRINITY TRAIL LN","ROSENBERG","TX","77469"
270684,"67462 KENSINGTON DR","GOSHEN","IN","46526"
270685,"6747 ALISO AVE","WEST PALM BEACH","FL","33413"
270686,"6747 CRANDON BLVD","KEY BISCAYNE","FL","33149"
270687,"6747 CRANDON BOULEVARD","KEY BISCAYNE","FL","33149"
270688,"6747 CROSS KEY DRIVE","INDIANAPOLIS","IN","46268"
270689,"6747 EDINBORO ST","CHINO","CA","91710"
270690,"6747 GARBER AVENUE","SAN DIEGO","CA","92139"
270691,"6747 GROVERS AVENUE","PHILADELPHIA","PA","19142"
270692,"6747 OMAN CT","ORLANDO","FL","32809"
270693,"6747 S OGLESBY AVENUE","CHICAGO","IL","60649"
270694,"6747 WESLEY CHAPEL ROAD","CHATHAM","IL","62629"
270695,"6748 AVALON AVE","DALLAS","TX","75214"
270696,"6748 BEAR RIDGE ROAD","LOCKPORT","NY","14094"
270697,"6748 CEDAR VIEW TRAIL","WATAUGA","TX","76137"
270698,"6748 DE MOSS DR APT 200","HOUSTON","TX","77074"
270699,"6748 E US HWY 36 SUITE C","AVON","IN","46123"
270700,"6748 EAST LOS ARCOS ST","LONG BEACH","CA","90815"
270701,"6748 LEAMEADOW DR","DALLAS","TX","75248"
270702,"6748 N 19TH ST","PHOENIX","AZ","85016"
270703,"6748 RUNWAY AVE","FONTANA","CA","92336"
270704,"6748 SWYERS RD","CASTILE","NY","14427"
270705,"6749 HIGHWAY 1401","GARFIELD","KY","40140"
270706,"6749 S CHAMPLAIN","CHICAGO","IL","60637"
270707,"675 16TH AVE S","NAPLES","FL","34102"
270708,"675 3RD AVENUE SUITE 2400","NEW YORK","NY","10017"
270709,"675 ACADEMY 2E","NEW YORK","NY","10034"
270710,"675 ALPHA DR STE G","HIGHLAND HEIGHTS","OH","44143"
270711,"675 AUAHI ST E205","HONOLULU","HI","96813"
270712,"675 BENT OAKS DRIVE - UNIT 354","EARLYSVILLE","VA","22936"
270713,"675 BERING DRIVE SUITE 105","HOUSTON","TX","77057"
270714,"675 BLACKSTONE DRIVE","MYRTLE BEACH","SC","29588"
270715,"675 BOELSEN DR","WESTBURY","NY","11590"
270716,"675 BORDER STATION RD","COALVILLE","UT","84017"
270717,"675 CALIFORNIA BLVD","SAN LUIS OBISPO","CA","93401"
270718,"675 CANDY CREEK RD","REIDSVILLE","NC","27320"
270719,"675 CARROLL DRIVE","MORAGA","CA","94556"
270720,"675 CHERRY BARK DR N","JACKSONVILLE","FL","32218"
270721,"675 COLD SPRINGS ROAD","SANTA BARBARA","CA","93108"
270722,"675 CONISBURGH CT","STONE MOUNTAIN","GA","30087"
270723,"675 DEIS DRIVE STE 140","FAIRFIELD","OH","45014"
270724,"675 DILWORTHTOWN RD","WEST CHESTER","PA","19382"
270725,"675 DORCHESTER","AKRON","OH","44320"
270726,"675 E DALE AVE","HENDERSON","NV","89044"
270727,"675 EAST AZURE AVE APT 2010","NORTH LAS VEGAS","NV","89081"
270728,"675 EMPIRE BLVD APT 1B","BROOKLYN","NY","11213"
270729,"675 GIULIO CESARE AVE","SIERRA VISTA","AZ","85635"
270730,"675 GRAND AVE","DEL NORTE","CO","81132"
270731,"675 GROVE AVE","WEST DEPTFORD","NJ","08066"
270732,"675 GUILFORD BLVD","MEDINA","OH","44256"
270733,"675 HARRIMAN AVE  S","AMERY","WI","54001"
270734,"675 HEGENBERGER ROAD STE 241","OAKLAND","CA","94621"
270735,"675 HUDSON STREET","NEW YORK","NY","10014"
270736,"675 IVES DAIRY ROAD 401","MIAMI","FL","33179"
270737,"675 KAUMAKANI ST","HONOLULU","HI","96825"
270738,"675 LAKE ST APT 113","OAK PARK","IL","60301"
270739,"675 LAKE ST","OAK PARK","IL","60301"
270740,"675 LAKE STREET SUITE 136","OAK PARK","IL","60301"
270741,"675 LAKE STREET UNIT 125","OAK PARK","IL","60301"
270742,"675 LAKE STREET UNIT 334","OAK PARK","IL","60301"
270743,"675 LIBERTY CHURCH ROAD","LORIS","SC","29569"
270744,"675 LINCOLN ST","GARY","IN","46402"
270745,"675 LOS ESTEROS ROAD","SAN JOSE","CA","95134"
270746,"675 MAIN STREET","SACRAMENTO","KY","42372"
270747,"675 MAPLE STREET","JESUP","GA","31546"
270748,"675 MARKERT ROAD","WILCOX","PA","15870"
270749,"675 METROPOLITAN PKWY SW SUITE 5079","ATLANTA","GA","30310"
270750,"675 MORRIS AVENUE 3A","BRONX","NY","10451"
270751,"675 N DEIS DRIVE - 33","FAIRFIELD","OH","45014"
270752,"675 N EUCLID AVE SUITE 291","ANAHEIM","CA","92801"
270753,"675 N EUCLID STREET","ANAHEIM","CA","92801"
270754,"675 N HULET LANE","FLAGSTAFF","AZ","86004"
270755,"675 NINTH AVE 3B","NEW YORK","NY","10036"
270756,"675 NORTH BARKER ROAD SUITE 300","BROOKFIELD","WI","53045"
270757,"675 NORTH MAIN ST STE 506","WINSTON-SALEM","NC","27101"
270758,"675 OCEAN AVE APT 2F","LONG BRANCH","NJ","07740"
270759,"675 PALOMAR STREET SUITE E","CHULA VISTA","CA","91911"
270760,"675 PLEASANT HILL RD","LILBURN","GA","30047"
270761,"675 PLEASANT HILL ROAD","LILBURN","GA","30047"
270762,"675 PONCE DE LEON AVE NE SUITE 850","ATLANTA","GA","30308"
270763,"675 PONCE DE LEON AVENUE","ATLANTA","GA","30308"
270764,"675 PRIMROSE LN","MATTESON","IL","60443"
270765,"675 ROSE ST DEPT OF BIOL UNIV OF KY","LEXINGTON","KY","40506"
270766,"675 ROSWELL STREET SUITE 101","MARIETTA","GA","30060"
270767,"675 ROWLAND DR","MONROE","LA","71203"
270768,"675 S PARK VIEW ST","LOS ANGELES","CA","90057"
270769,"675 S WAUKEENAH ST","MONTICELLO","FL","32344"
270770,"675 STATE ROUTE 258","NEWCOMERSTOWN","OH","43832"
270771,"675 SUN VALLEY ROAD STE J2 BOX 5378","KETCHUM","ID","83340"
270772,"675 SW WHITMORE DRIVE","PORT ST LUCIE","FL","34984"
270773,"675 THIRD AVENUE 31ST FLOOR","NEW YORK","NY","10017"
270774,"675 TOLIVER STREET","MARIETTA","GA","30060"
270775,"675 TOWN SQ BLVD B1A STE 200-370","GARLAND","TX","75040"
270776,"675 VFW PARKWAY SUITE 242","CHESTNUT HILL","MA","02467"
270777,"675 W 220 N","SMITHFIELD","UT","84335"
270778,"675 W OLIVE ST","SAN BERNARDINO","CA","92410"
270779,"675 W RANKIN RD","HOUSTON","TX","77067"
270780,"675 WALTON AVE APT 2B","BRONX","NY","10451"
270781,"675 WASHINGTON STREET","HAVERHILL","MA","01832"
270782,"675 WEST STR","STOUGHTON","MA","02072"
270783,"675 WOLF LEDGES PKWY RM 104 BOX 361","AKRON","OH","44309"
270784,"675 YGNACIO VALLEY RD","WALNUT CREEK","CA","94404"
270785,"675","MENTMORE","NM","87319"
270786,"6750 - 21ST","BERWYN","IL","60402"
270787,"6750 5TH AVE","LOS ANGELES","CA","90043"
270788,"6750 BOULDER HWY","LAS VEGAS","NV","89122"
270789,"6750 E UPLAND AVENUE","BATON ROUGE","LA","70812"
270790,"6750 EAST CEDAR AVENUE UNIT A","DENVER","CO","80224"
270791,"6750 GREEN HILL ROAD","LINVILLE","VA","22834"
270792,"6750 HARDING STREET","COLORADO SPRINGS","CO","80911"
270793,"6750 HAWAII KAI DRIVE 1407","HONOLULU","HI","96825"
270794,"6750 HWY F","HANNIBAL","MO","63401"
270795,"6750 LANKERSHIM BLVD","NORTH HOLLYWOOD","CA","91606"
270796,"6750 N ANDREWS AVE STE 200","FT LAUDERDALE","FL","33309"
270797,"6750 N ANDREWS AVE SUITE 200","FT LAUDERDALE","FL","33309"
270798,"6750 N WADE ROAD","TUCSON","AZ","85743"
270799,"6750 NORTH ANDREWS AVENUE SUITE 200","FORT LAUDERDALE","FL","33309"
270800,"6750 OLD BAYSIDE RD","CHESAPEAKE BEACH","MD","20732"
270801,"6750 PANTHER LANE","FORT MYERS","FL","33919"
270802,"6750 PEACHTREE IND BLVD UNIT 1106","ATLANTA","GA","30360"
270803,"6750 SE 60TH ST","TRENTON","FL","32693"
270804,"6750 SEWELLS ORCHARD DR","COLUMBIA","MD","21045"
270805,"6750 STATE ROAD","PARMA","OH","44134"
270806,"6750 SW 198TH AVENUE","BEAVERTON","OR","97007"
270807,"6750 SW 60TH ST","SOUTH MIAMI","FL","33143"
270808,"6750 SW DOVER ST","PORTLAND","OR","97225"
270809,"6750 WEST OUTER DRIVE","DETROIT","MI","48235"
270810,"6750 WESTOWN PARKWAY STE 200 - 157","WEST DES MOINES","IA","50266"
270811,"6750 WHITSETT AVE SUITE 283","NORTH HOLLYWOOD","CA","91601"
270812,"6751 BURNT KNOB RD","MURFREESBORO","TN","37129"
270813,"6751 COLUMBIA GATEWAY DR 3RD FLOOR","COLUMBIA","MD","21046"
270814,"6751 COLUMBIA GATEWAY DR STE 400","COLUMBIA","MD","21046"
270815,"6751 FAIRWOOD DRIVE","CLEMMONS","NC","27012"
270816,"6751 HUNTERDON RD","GLOUSTER","OH","45732"
270817,"6751 MACON RD UNIT 18","COLUMBUS","GA","31907"
270818,"6751 POT-OF-GOLD LANE","ORLANDO","FL","32809"
270819,"6751 SAINT ANDREWS PARKWAY","HIALEAH","FL","33015"
270820,"6751 WOODCLIFF CIRCLE","ZIONSVILLE","IN","46077"
270821,"6752 AUSTIN STREET","FOREST HILLS","NJ","11375"
270822,"6752 CEMETERY HWY","ST MARTINVILLE","LA","70582"
270823,"6752 GENERAL DIAZ","NEW ORLEANS","LA","70124"
270824,"6752 GORDON ROAD","WILMINGTON","NC","28411"
270825,"6752 HIGHWAY 1 SOUTH","MARIANNA","AR","72360"
270826,"6752 PASCHALL AVE","PHILADELPHIA","PA","19142"
270827,"6752 S 375 E","SOUTH WEBER","UT","84405"
270828,"6752 SOUTH ONEIDA CT","CENTENNIAL","CO","80112"
270829,"6753 BELLEVISTA PL NW","OLYMPIA","WA","98502"
270830,"6753 FLOPSY LANE","JACKSONVILLE","FL","32210"
270831,"6753 HIWASSEE RUN","AIKEN","SC","29803"
270832,"6753 KEN ARBRE DRIVE","CINCINNATI","OH","45236"
270833,"6753 THORMAN RD","PORT CHARLOTTE","FL","33981"
270834,"6753 VICKY AVE","WEST HILLS","CA","91307"
270835,"6753 WEST SOUTH STREET","WESTMORELAND","NY","13490"
270836,"6754 BERNAL AVE    STE 740-218","PLEASANTON","CA","94566"
270837,"6754 GREEN GABLES AVE","SAN DIEGO","CA","92119"
270838,"6754 S CONSTANCE","CHICAGO","IL","60649"
270839,"6754 STOW RD","HUDSON","OH","44236"
270840,"6754 WATERTON DRIVE","RIVERVIEW","FL","33569"
270841,"6754 YORK ST","WATERFORD","MI","48327"
270842,"6755 AMSEL AVE NE","CANTON","OH","44721"
270843,"6755 BRACE ST","DETROIT","MI","48228"
270844,"6755 BUSINESS PARKWAY SUITE 407","ELKRIDGE","MD","21075"
270845,"6755 COUNTRY CLUB DRIVE INC","COLUMBUS","NE","68601"
270846,"6755 DUBLIN CENTER DR","DUBLIN","OH","43017"
270847,"6755 MATT HAIR ROAD","FAYETTEVILLE","NC","28312"
270848,"6755 SW 73RD COURT","MIAMI","FL","33143"
270849,"6755 VESPER AVE","VAN NUYS","CA","91405"
270850,"67555 CLOVERDALE ROAD","SISTERS","OR","97759"
270851,"6756 CEDAR RIDGE CIRCLE","MILTON","FL","32570"
270852,"6756 FRUITLAND AVE","ATWATER","CA","95301"
270853,"6756 JASMINE CT","CHINO","CA","91710"
270854,"6756 NORTH KOSTNER","LINCOLNWOOD","IL","60712"
270855,"6756 STANHOPE DR","INDIANAPOLIS","IN","46254"
270856,"6756 STATE ROUTE 110","NAPOLEON","OH","43545"
270857,"6756 SUGAR HILL DR","NASHVILLE","TN","37211"
270858,"6757 CASCADE RD SE-PO BOX 76","GRAND RAPIDS","MI","49546"
270859,"6757 DAIBER","SAINT  LOUIS","MO","63121"
270860,"6757 GOSHEN ROAD","GOSHEN","OH","45122"
270861,"6757 SE 5TH STREET","RENTON","WA","98059"
270862,"6757 ST MORITZ PKWY","COLLEYVILLE","TX","76034"
270863,"6758 BAILEY ROAD","WOODBURY","MN","55129"
270864,"6758 NC 39 HIGHWAY","ZEBULON","NC","27597"
270865,"6758 NORTH MILITARY TRAIL STE 101","WEST PALM BEACH","FL","33409"
270866,"6758 NORTHSIDE HIGH SCHOOL ROAD","ROANOKE","VA","24019"
270867,"6758 POMEROY CIRCLE","ORLANDO","FL","32810"
270868,"6758 S CLYDE AVE UNIT 3","CHICAGO","IL","60649"
270869,"6758 SUMNER RD","RAVENNA","OH","44266"
270870,"6759 DAWN DRIVE","WINDSOR","WI","53598"
270871,"6759 THOROUGHBRED DRIVE","INDIANAPOLIS","IN","46278"
270872,"675N DEIS DRIVE","FAIRFIELD","OH","45014"
270873,"676 BARNARD RD","WOOSTER","OH","44691"
270874,"676 BLUEBONNET STREET","STEPHENVILLE","TX","76401"
270875,"676 BROOK HOLLOW","GAHANNA","OH","43230"
270876,"676 BURCH STREET","JASPER","TX","75951"
270877,"676 BUTTONWOOD DRIVE","BREA","CA","92821"
270878,"676 EAST BLUERIDGE DRIVE","EVANSVILLE","IN","47714"
270879,"676 EAST SPAYTH STREET","TIFFIN","OH","44883"
270880,"676 FULTON STREET","SAN FRANCISCO","CA","94102"
270881,"676 GEORGETOWN CT","JONESBORO","GA","30236"
270882,"676 GEORGETOWN LANE","JONESBORO","GA","30236"
270883,"676 GLENWOOD AVENUE SE","ATLANTA","GA","30312"
270884,"676 HOXIE AVE","CALUMET CITY","IL","60409"
270885,"676 LAKE HARDING DR","HAMILTON","GA","31811"
270886,"676 LAKEVIEW DRIVE","SHIPIMAN","IL","62685"
270887,"676 LOWER LEE SCHOOL ROAD","MAYESVILLE","SC","29104"
270888,"676 MILLER ROAD","SIGNAL MOUNTAIN","TN","37377"
270889,"676 N 300 E","KAYSVILLE","UT","84037"
270890,"676 PARK ROAD","MAYS LANDING","NJ","08330"
270891,"676 PENNSYLVANIA AVENUE","MARSHALL","TX","75672"
270892,"676 PLANTATION DRIVE","CAMERON","NC","28326"
270893,"676 REFLECTION COVE RD E","JACKSONVILLE BEACH","FL","32250"
270894,"676 RIVERSIDE DRIVE SUITE 9B","NEW YORK","NY","10031"
270895,"676 SANCTUARY GOLF PLACE","APOPKA","FL","32712"
270896,"676 SCANDIA PKWY","CAMANO ISLAND","WA","98282"
270897,"676 STOYSTOWN ROAD","SOMERSET","PA","15501"
270898,"676 SUNSET STREET","DELTA","UT","84624"
270899,"676 VARSITY DRIVE","ELGIN","IL","60120"
270900,"676 W RICO WAY","MOUNTAIN HOUSE","CA","95391"
270901,"676 WEST AVENUE NUM A","SANTA ROSA","CA","95407"
270902,"676","LAKEHEAD","CA","96051"
270903,"6760 6TH AVE","LOS ANGELES","CA","90043"
270904,"6760 99TH STREET SOUTH","COTTAGE GROVE","MN","55016"
270905,"6760 ANCESTRAL HILLS LANE","LAS VEGAS","NV","89110"
270906,"6760 EDNA AVE","LAS VEGAS","NV","89146"
270907,"6760 GREEN RIVER DRIVE UNIT B","HIGHLANDS RANCH","CO","80130"
270908,"6760 JULIANA DRIVE","FRANKLIN","WI","53132"
270909,"6760 N NANINI DR","TUCSON","AZ","85704"
270910,"6760 SPRING HILL ROAD","REMBERT","SC","29128"
270911,"6760 STANZ ROAD","ALMOND","NY","14804"
270912,"6760 STATE ROUTE 134","LYNCHBURG","OH","45142"
270913,"6760 TALBOT PKWY","DALLAS","TX","75232"
270914,"6760 UNIVERSITY AVENUE","SAN DIEGO","CA","92115"
270915,"6760 W 19TH PLACE BUILDING 8-204","LAKEWOOD","CO","80214"
270916,"6760 WHITTEN VIEW LN","MEMPHIS","TN","38134"
270917,"6760 WIND HAVEN PKWY","THE COLONY","TX","75056"
270918,"6760 YELLOWSTONE PARKWAY","INDIANAPOLIS","IN","46217"
270919,"6761 AMBERCREST DRIVE","ARLINGTON","TX","76002"
270920,"6761 INDIANWOOD WAY","BOYNTON BEACH","FL","33437"
270921,"6761 LEOPOLDS TRAIL","HAYMARKET","VA","20169"
270922,"6761 N GRAY ROAD","MOORESVILLE","IN","46158"
270923,"6761 STEVEN ST","WINDOSR","CO","80550"
270924,"6761 SUNDOWN DRIVE SOUTH","INDIANAPOLIS","IN","46254"
270925,"6762 DOMINION CT","LAS VEGAS","NV","89103"
270926,"6762 HAMPTON DR","SAN JOSE","CA","95120"
270927,"6762 RIVER WALK DR","VALLEY CITY","OH","44280"
270928,"6762 STATE ROUTE 134","LYNCHBURG","OH","45142"
270929,"6762 WARNER AVE S-3","HUNTINGTON BEACH","CA","92647"
270930,"6762 WEBER DR","MOUNTAIN GREEN","UT","84050"
270931,"6762 WRIGHT CT","ARVADA","CO","80004"
270932,"67624 EL SOMBRERO LN","DESERT HOT SPRINGS","CA","92241"
270933,"6763 HEATHERIDGE DRIVE","SALINE","MI","48176"
270934,"6763 KRENSON OAKS CIR","LAKELAND","FL","33810"
270935,"6763 S HWY 6 -- 1600","HOUSTON","TN","77083"
270936,"6763 SILVER RIDGE LANE","WEST PALM BEACH","FL","33413"
270937,"6763 WEST CHARLESTON BLVD","LAS VEGAS","NV","89146"
270938,"6764 CAMELIA DRIVE","MIRAMAR","FL","33023"
270939,"6764 FLEET ST","FOREST HILLS","NY","11375"
270940,"6764 HAMILTON MIDDLETOWN RD","MIDDLETOWN","OH","45044"
270941,"6764 M-33 HIGHWAY","CHEBOYGAN","MI","49721"
270942,"6765 CHARME ROAD","BON SECOUR","AL","36511"
270943,"6765 CHERRYWOOD DR","BEAUMONT","TX","77706"
270944,"6765 LANCASTER LANE","COLUMBUS","OH","43229"
270945,"6765 N US HIGHWAY 231","CRAWFORDSVILLE","IN","47933"
270946,"6765 SW 28TH STREET","MIAMI","FL","33155"
270947,"6765 WEST CHARLESTON BLVD SUITE 110","LAS VEGAS","NV","89146"
270948,"6766 LECONTE AVENUE","CINCINNATI","OH","45230"
270949,"6766 OUTER LINCOLN AVENUE","NEWBURGH","IN","47630"
270950,"6766 RACE TRACK ROAD SUITE 258","BOWIE","MD","20715"
270951,"6766 SUNSET DRIVE","SOUTH LYON","MI","48178"
270952,"6767 CLARCONA OCOEE ROAD","ORLANDO","FL","32810"
270953,"6767 COLLINS AVENUE SUITE 509","MIAMI BEACH","FL","33141"
270954,"6767 FOREST HILL AVENUE SUITE 234","RICHMOND","VA","23225"
270955,"6767 LONG DR 181","HOUSTON","TX","77087"
270956,"6767 MAHOGANY CT","LIBERTY TOWNSHIP","OH","45044"
270957,"6767 N WICKHAM ROAD","MELBOURNE","FL","32940"
270958,"6768 E CEDAR AVE UNIT A","DENVER","CO","80224"
270959,"6768 HALL ROAD","PLAINFIELD","IN","46168"
270960,"6768 LAKESHORE RD","DERBY","NY","14047"
270961,"6768 MINK HOLLOW ROAD","HIGHLAND","MD","20777"
270962,"6768 N IONIA AVE","CHICAGO","IL","60646"
270963,"6768 WEST MOELLER CIRCLE","NEW PALESTINE","IN","46163"
270964,"6769 E COSTILLA CIRCLE","CENTENNIAL","CO","80112"
270965,"6769 MAPLEWOOD AVE","SYLVANIA","OH","43560"
270966,"6769 W YALE AVE","FRESNO","CA","93723"
270967,"677 12TH STREET","BLAINE","WA","98230"
270968,"677 201ST MEMORIAL HIGHWAY","MORGANTOWN","WV","26505"
270969,"677 201ST MEMORIAL HWY","MORGANTOWN","WV","26505"
270970,"677 25 ROAD","GRAND JUNCTION","CO","81505"
270971,"677 ACCIPITER WAY","EAST LANSING","MI","48823"
270972,"677 BEACH BRIDGE ROAD","PAWLEYS ISLAND","SC","29585"
270973,"677 BROAD STREET","AKRON","PA","17501"
270974,"677 CAPPS RD","PISGAH FOREST","NC","28768"
270975,"677 CASAZZA ST","RENO","NV","89506"
270976,"677 CHEPSTOW AVE","LAS VEGAS","NV","89178"
270977,"677 CREEKSIDE WAY","NEW BRAUNFELS","TX","78130"
270978,"677 E 2ND ST","BROOKLYN","NY","11218"
270979,"677 EAGLE VIEW CIRCLE","TALLAHASSEE","FL","32311"
270980,"677 EAST KINGSLEY AVENUE","POMONA","CA","91767"
270981,"677 FAIRVIEW RD SUITE 80794","SIMPSONVILLE","SC","29680"
270982,"677 GUM CREEK ROAD","OXFORD","GA","30054"
270983,"677 HALE STREET","BEVERLY","MA","01915"
270984,"677 HIGH MEADOWS RD","EAST BURKE","VT","05832"
270985,"677 HINGHAM STREET","ROCKLAND","MA","02370"
270986,"677 INDIAN WELLS RD","BANNING","CA","92220"
270987,"677 INMAN ROAD","F","GA","30215"
270988,"677 JEWEL ROAD","SARCOXIE","MO","64862"
270989,"677 MAIN STREET","FORTUNA","CA","95540"
270990,"677 MEDFORD ST","EL CAJON","CA","92020"
270991,"677 NE 24TH ST APT 305","MIAMI","FL","33137"
270992,"677 NE 24TH ST APT 306","MIAMI","FL","33137"
270993,"677 NORTH WASHINGTON BLVD SUITE 57","SARASOTA","FL","34236"
270994,"677 NOTCHBROOK DRIVE","DELAWARE","OH","43015"
270995,"677 OAK GROVE ROAD","CHESAPEAKE","VA","23320"
270996,"677 PARK LANE","NORTH WOODMERE","NY","11581"
270997,"677 S PEAR ORCHARD RD","RIDGELAND","MS","39157"
270998,"677 SPRING BRANCH CHURCH RD","WAYNESBORO","GA","30830"
270999,"677 TELEGRAPH DRIVE","AIKEN","SC","29801"
271000,"677 W BASSWOOD AVE","SAN TAN VALLEY","AZ","85140"
