"ID","Address","City","State","Zip"
340001,"PO BOX 2222","STREETSBORO","OH","44241"
340002,"PO BOX 222204","DALLAS","TX","75222"
340003,"PO BOX 2223","BRYSON CITY","NC","28713"
340004,"PO BOX 2223","LA CROSSE","WI","54602"
340005,"PO BOX 2223","LAURINBURG","NC","28353"
340006,"PO BOX 2223","MEDFORD","NJ","08055"
340007,"PO BOX 2223","OLYMPIA","WA","98507"
340008,"PO BOX 2223","SAINT LOUIS","MO","63116"
340009,"PO BOX 22231","CHEYENNE","WY","82003"
340010,"PO BOX 22234","LANSING","MI","48909"
340011,"PO BOX 222365","WEST PALM BEACH","FL","33422"
340012,"PO BOX 22238","MILWAUKIE","OR","97222"
340013,"PO BOX 2224","MANITOWOC","WI","54221"
340014,"PO BOX 2225","MANITOWOC","WI","54221"
340015,"PO BOX 2225","PORTAGE","MI","49081"
340016,"PO BOX 2225","VICTORVILLE","CA","92393"
340017,"PO BOX 22251","NEWPORT NEWS","VA","23609"
340018,"PO BOX 22252","BEAUMONT","TX","77720"
340019,"PO BOX 2226","MARIPOSA","CA","95338"
340020,"PO BOX 2226","SEDONA","AZ","86339"
340021,"PO BOX 222696","CHANTILLY","VA","20153"
340022,"PO BOX 2227","AURORA","IL","60507"
340023,"PO BOX 2227","BRENHAM","TX","77834"
340024,"PO BOX 22271","PORTSMOUTH","NH","03802"
340025,"PO BOX 222720","CHRISTIANTED","VI","00822"
340026,"PO BOX 222744","OAKLAND","CA","94609"
340027,"PO BOX 2228","KEYSTONE HEIGHTS","FL","32656"
340028,"PO BOX 22281","OAKLAND","CA","94623"
340029,"PO BOX 22287","TAMPA","FL","33622"
340030,"PO BOX 2229","ABINGDON","VA","24212"
340031,"PO BOX 2229","TULARE","CA","93275"
340032,"PO BOX 223","ALBION","CA","95410"
340033,"PO BOX 223","BELLWOOD","PA","16617"
340034,"PO BOX 223","BEREA","OH","44017"
340035,"PO BOX 223","CAMDEN","ME","04843"
340036,"PO BOX 223","CHAPIN","SC","29036"
340037,"PO BOX 223","CLAREMONT","NC","28610"
340038,"PO BOX 223","COOPERS MILLS","ME","04341"
340039,"PO BOX 223","EASLEY","SC","29641"
340040,"PO BOX 223","ENFIELD","NC","27823"
340041,"PO BOX 223","FLORENCE","MT","59833"
340042,"PO BOX 223","GRAND BAY","AL","36541"
340043,"PO BOX 223","GREENVILLE","RI","02828"
340044,"PO BOX 223","HARTINGTON","NE","68739"
340045,"PO BOX 223","HYDE PARK","PA","15641"
340046,"PO BOX 223","LAKE JUNALUSKA","NC","28745"
340047,"PO BOX 223","LAPLACE","LA","70069"
340048,"PO BOX 223","LAUREL","MS","39441"
340049,"PO BOX 223","LITTLE COMPTON","RI","02837"
340050,"PO BOX 223","LOVETTSVILLE","VI","20185"
340051,"PO BOX 223","MARLBORO","NY","12542"
340052,"PO BOX 223","NELLIS","WV","25142"
340053,"PO BOX 223","NEWTON","IL","62448"
340054,"PO BOX 223","PINEHURST","MA","01866"
340055,"PO BOX 223","ROBINSON","IL","62454"
340056,"PO BOX 223","SASSER","GA","39885"
340057,"PO BOX 223","SHELBY","NC","28151"
340058,"PO BOX 223","WARM SPRINGS","MT","59756"
340059,"PO BOX 223","WOODSON","AR","72180"
340060,"PO BOX 2231","LAKE HAVASU CITY","AZ","86405"
340061,"PO BOX 2231","LAKE HAVASU","AZ","86405"
340062,"PO BOX 22315","BEACHWOOD","OH","44122"
340063,"PO BOX 22316","GREEN BAY","WI","54305"
340064,"PO BOX 22325","SEATTLE","WA","98122"
340065,"PO BOX 22328","PHILADELPHIA","PA","19110"
340066,"PO BOX 2233","BEAVERTON","OR","97075"
340067,"PO BOX 223302","CHRISTIANSTED","VI","00822"
340068,"PO BOX 22332","HUNTSVILLE","AL","35814"
340069,"PO BOX 223343","CHRISTIANSTED","VI","00822"
340070,"PO BOX 223363","PRINCEVILLE","HI","96722"
340071,"PO BOX 2234","JOSHUA TREE","CA","92252"
340072,"PO BOX 22343","TUCSON","AZ","85734"
340073,"PO BOX 2235 61 NW OREGON AVE","BEND","OR","97709"
340074,"PO BOX 2235","COEUR D'ALENE","ID","83816"
340075,"PO BOX 2235","TUSCALOOSA","AL","35403"
340076,"PO BOX 223519","CARMEL","CA","93922"
340077,"PO BOX 223581","DALLAS","TX","75222"
340078,"PO BOX 2236","SAINT JAMES","NY","11780"
340079,"PO BOX 2236","WOONSOCKET","RI","02895"
340080,"PO BOX 22363","HONOLULU","HI","96823"
340081,"PO BOX 223632","PRINCEVILLE","HI","96722"
340082,"PO BOX 2237","BARSTOW","CA","92312"
340083,"PO BOX 2238","HOMELAND","CA","92548"
340084,"PO BOX 2238","HONOLULU","HI","96804"
340085,"PO BOX 2238","LIVERPOOL","NY","13089"
340086,"PO BOX 2238","PLUGERVILLE","TX","78660"
340087,"PO BOX 22381","LEXINGTON","KY","40522"
340088,"PO BOX 223871","DALLAS","TX","75222"
340089,"PO BOX 223924","CHANTILLY","VA","20153"
340090,"PO BOX 224","ACKERLY","TX","79713"
340091,"PO BOX 224","BAINBRIDGE","NY","13733"
340092,"PO BOX 224","BROOKINGS","SD","57006"
340093,"PO BOX 224","BROOMFIELD","CO","80038"
340094,"PO BOX 224","BUFFALO","MN","55313"
340095,"PO BOX 224","CANADIAN","TX","79014"
340096,"PO BOX 224","DANBURY","CT","06813"
340097,"PO BOX 224","DIAMOND","OH","44412"
340098,"PO BOX 224","EAST PETERSBURG","PA","17520"
340099,"PO BOX 224","GRAND JUNCTION","IA","50107"
340100,"PO BOX 224","GREAT BEND","NY","13643"
340101,"PO BOX 224","HEPHZIBAH","GA","30815"
340102,"PO BOX 224","JAMESTOWN","ND","58402"
340103,"PO BOX 224","JOBSTOWN","NJ","08041"
340104,"PO BOX 224","LAFAYETTE","NJ","07848"
340105,"PO BOX 224","LANSIG","NC","28643"
340106,"PO BOX 224","LONGVIEW","TX","75606"
340107,"PO BOX 224","MARSHALLS CREEK","PA","18335"
340108,"PO BOX 224","MARTINSBURG","OH","43037"
340109,"PO BOX 224","MORNING SUN","IA","52640"
340110,"PO BOX 224","NORTH QUINCY","MA","02171"
340111,"PO BOX 224","ORRVILLE","OH","44667"
340112,"PO BOX 224","PRINCETON JUNCTION","NJ","08550"
340113,"PO BOX 224","RIGGINS","ID","83549"
340114,"PO BOX 224","SKILLMAN","NJ","08558"
340115,"PO BOX 224","THATCHER","AZ","85552"
340116,"PO BOX 224","WALLINGFORD","CT","06492"
340117,"PO BOX 224","WEST COLUMBIA","TX","77486"
340118,"PO BOX 224","WESTON","TX","75097"
340119,"PO BOX 22403","LINCOLN","NE","68542"
340120,"PO BOX 2241","HEMET","CA","92546"
340121,"PO BOX 2241","LEWISTON","ID","83501"
340122,"PO BOX 2241","SMYRNA","GA","30081"
340123,"PO BOX 2241","STONE MOUNTAIN","GA","30086"
340124,"PO BOX 2241","UNIONTOWN","PA","15401"
340125,"PO BOX 22415","SAVANNAH","GA","31403"
340126,"PO BOX 2242","APACHE JCT","AZ","85117"
340127,"PO BOX 2242","PEACHTREE CITY","GA","30269"
340128,"PO BOX 2242","POULSBO","WA","98370"
340129,"PO BOX 2242","ROCKVILLE","MD","20847"
340130,"PO BOX 2242","VASHON","WA","98070"
340131,"PO BOX 22424","PITTSBURGH","PA","15222"
340132,"PO BOX 224273","CHRISTIANSTED","VI","00822"
340133,"PO BOX 22428","LOUISVILLE","KY","40252"
340134,"PO BOX 2243","NEW YORK","NY","10108"
340135,"PO BOX 22431","BALTIMORE","NY","21203"
340136,"PO BOX 22432","SAVANNAH","GA","31403"
340137,"PO BOX 2244","BAKERSFIELD","CA","93303"
340138,"PO BOX 2244","FAYETTE","MS","39069"
340139,"PO BOX 2244","GLENDALE","AZ","85311"
340140,"PO BOX 2244","WOODBRIDGE","VA","22195"
340141,"PO BOX 22442","FORT WORTH","TX","76122"
340142,"PO BOX 22443","HOUSTON","TX","77227"
340143,"PO BOX 2245","ASHLAND","KY","41105"
340144,"PO BOX 2245","BIGFORK","MT","59911"
340145,"PO BOX 2245","CENTREVILLE","VA","20122"
340146,"PO BOX 22457","FREDERICK","MD","21701"
340147,"PO BOX 2246","MERCED","CA","95344"
340148,"PO BOX 2246","NEWBURGH","NY","12550"
340149,"PO BOX 2246","STUART","FL","34995"
340150,"PO BOX 2247","COAMO","PR","00769"
340151,"PO BOX 2247","MERCED","CA","95348"
340152,"PO BOX 22471","KNOXVILLE","TN","37933"
340153,"PO BOX 22480","BEACHWOOD","OH","44122"
340154,"PO BOX 224952","DALLAS","TX","75222"
340155,"PO BOX 224988","DALLAS","TX","75222"
340156,"PO BOX 225","ALTOONA","IA","50009"
340157,"PO BOX 225","AMAWALK","NY","10501"
340158,"PO BOX 225","ASHLAND","WI","54806"
340159,"PO BOX 225","BUCYRUS","OH","44820"
340160,"PO BOX 225","CHATHAM","NY","12037"
340161,"PO BOX 225","DOLGEVILLE","NY","13329"
340162,"PO BOX 225","DOVER","AR","72837"
340163,"PO BOX 225","ESTANCIA","NM","87016"
340164,"PO BOX 225","GOOSE CREEK","SC","29445"
340165,"PO BOX 225","HARRISVILLE","MI","48740"
340166,"PO BOX 225","INYOKERN","CA","93527"
340167,"PO BOX 225","IRONTON","OH","45638"
340168,"PO BOX 225","LEWISBURG","PA","17837"
340169,"PO BOX 225","LINCOLN","NH","03251"
340170,"PO BOX 225","LOMIRA","WI","53048"
340171,"PO BOX 225","MISHAWAKA","IN","46546"
340172,"PO BOX 225","NEWBURY","VT","05051"
340173,"PO BOX 225","NOBLESVILLE","IN","46061"
340174,"PO BOX 225","OSPREY","FL","34229"
340175,"PO BOX 225","WEAVERVILLE","CA","96093"
340176,"PO BOX 2250","FORT LEE","NJ","07024"
340177,"PO BOX 2250","HAWTHORNE","NV","89415"
340178,"PO BOX 225008","SAN FRANCISCO","CA","94122"
340179,"PO BOX 22501","NEWPORT NEWS","VA","23609"
340180,"PO BOX 22502","EAGAN","MN","55122"
340181,"PO BOX 22502","LITTLE ROCK","AR","72221"
340182,"PO BOX 22506","NASHVILLE","TN","37202"
340183,"PO BOX 2251","LAND O LAKES","FL","34639"
340184,"PO BOX 2251","PALM HARBOR","FL","34682"
340185,"PO BOX 2252","DAVIDSON","NC","28036"
340186,"PO BOX 22521","SANTA FE","NM","87502"
340187,"PO BOX 22522","LOUISVILLE","KY","40252"
340188,"PO BOX 2253","COVINGTON","GA","30015"
340189,"PO BOX 2253","DUNCAN","OK","73534"
340190,"PO BOX 2253","MANSFIELD","TX","76063"
340191,"PO BOX 2254","NORTH BEND","WA","98045"
340192,"PO BOX 2254","RED LODGE","MT","59068"
340193,"PO BOX 2254","WALDPORT","OR","97394"
340194,"PO BOX 225427","DALLAS","TX","75222"
340195,"PO BOX 22544","SAVANNAH","GA","31405"
340196,"PO BOX 22548","AKRON","OH","44302"
340197,"PO BOX 2255       15625 GRETA LANE","FONTANA","CA","92334"
340198,"PO BOX 2256","ALBEMARLE","NC","28002"
340199,"PO BOX 2256","CEDAR PARK","TX","78630"
340200,"PO BOX 2256","PINELLAS PARK","FL","33780"
340201,"PO BOX 22564","DENVER","CO","80222"
340202,"PO BOX 225647","DALLAS","TX","75222"
340203,"PO BOX 2257","HOBE SOUND","FL","33475"
340204,"PO BOX 22573","HUNTSVILLE","AL","35814"
340205,"PO BOX 2258","NEVADA CITY","CA","95959"
340206,"PO BOX 2258","TRAVERSE CITY","MI","49685"
340207,"PO BOX 225820","DALLAS","TX","75222"
340208,"PO BOX 2259","BEAVERTON","OR","97075"
340209,"PO BOX 22593","MILWAUKIE","OR","97269"
340210,"PO BOX 226 6932 SERENITY FARM ROAD","BENEDICT","MD","20612"
340211,"PO BOX 226","AVON","CT","06001"
340212,"PO BOX 226","CEDAR BLUFFS","NE","68015"
340213,"PO BOX 226","DELAWARE","OH","43035"
340214,"PO BOX 226","EAST ROCHESTER","NY","14445"
340215,"PO BOX 226","ELGIN","OK","73538"
340216,"PO BOX 226","GOLDENDALE","WA","98620"
340217,"PO BOX 226","HARBERT","MI","49115"
340218,"PO BOX 226","LEAVITTSBURG","OH","44430"
340219,"PO BOX 226","MARIETTA","GA","30061"
340220,"PO BOX 226","NEWARK","IL","60541"
340221,"PO BOX 226","ODESSA","FL","33556"
340222,"PO BOX 226","STOCKPORT","OH","43787"
340223,"PO BOX 226","STRATFORD","CT","06615"
340224,"PO BOX 226","WATSONVILLE","CA","95077"
340225,"PO BOX 2260","GONZALES","LA","70707"
340226,"PO BOX 226054","DALLAS","TX","75222"
340227,"PO BOX 2261","ALABASTER","AL","35007"
340228,"PO BOX 2261","ATHENS","OH","45701"
340229,"PO BOX 2261","OLYMPIA","WA","98507"
340230,"PO BOX 226126","DALLAS","TX","75222"
340231,"PO BOX 2262","CERES","CA","95307"
340232,"PO BOX 2262","LILBURN","GA","30048"
340233,"PO BOX 22623","KANSAS CITY","MO","64113"
340234,"PO BOX 22625","HUNTSVILLE","AL","35814"
340235,"PO BOX 22626","HUNTSVILLE","AL","35814"
340236,"PO BOX 2263","ALAMOGORDO","NM","88311"
340237,"PO BOX 2263","CARROLLTON","GA","30112"
340238,"PO BOX 2263","FALLS CHURCH","VA","22042"
340239,"PO BOX 2263","SEWARD","AK","99664"
340240,"PO BOX 2263","SOUTHAMPTON","NY","11969"
340241,"PO BOX 2264","ALBEMARLE","NC","28002"
340242,"PO BOX 2264","BEAUFORT","NC","28516"
340243,"PO BOX 2264","COVINGTON","GA","30015"
340244,"PO BOX 2264","REIDSVILLE","NC","27323"
340245,"PO BOX 2265","KINGSPORT","TN","37662"
340246,"PO BOX 2265","MIDLAND","MI","48641"
340247,"PO BOX 2265","NATCHEZ","MS","38121"
340248,"PO BOX 2265","WAYNE","NJ","07474"
340249,"PO BOX 2266","BRATTLEBORO","VT","05303"
340250,"PO BOX 22661","BALTIMORE","MD","21203"
340251,"PO BOX 2268","BELLINGHAM","WA","98227"
340252,"PO BOX 2268","COLUMBIA FALLS","MT","59912"
340253,"PO BOX 2268","LA PLATA","MD","20646"
340254,"PO BOX 2268","SILVERDALE","WA","98383"
340255,"PO BOX 22687","HONOLULU","HI","96823"
340256,"PO BOX 227","BELCAMP","MD","21017"
340257,"PO BOX 227","CHANDLER","AZ","85225"
340258,"PO BOX 227","CHESTER","PA","19016"
340259,"PO BOX 227","HELLERTOWN","PA","18055"
340260,"PO BOX 227","LAKE OSWEGO","OR","97034"
340261,"PO BOX 227","MILLWOOD","VA","22646"
340262,"PO BOX 227","MONTE VISTA","CO","81144"
340263,"PO BOX 227","MOUNT VICTORY","OH","43340"
340264,"PO BOX 227","NEW RICHMOND","WI","54017"
340265,"PO BOX 227","OLD WESTBURY","NY","11568"
340266,"PO BOX 227","OVERPECK","OH","45055"
340267,"PO BOX 227","POTEET","TX","78065"
340268,"PO BOX 227","WALLBURG","NC","27373"
340269,"PO BOX 2270","DAVIDSON","NC","28036"
340270,"PO BOX 2270","DOLORES","CO","81323"
340271,"PO BOX 22700","PHILADELPHIA","PA","19110"
340272,"PO BOX 2271","BURLESON","TX","76097"
340273,"PO BOX 2271","INDIANAPOLIS","IN","46206"
340274,"PO BOX 2271","JACKSONVILLE","TX","75766"
340275,"PO BOX 2271","ROCHESTER","NY","14692"
340276,"PO BOX 22711","BULLHEAD CITY","AZ","86439"
340277,"PO BOX 2272","BOOTHWYN","PA","19061"
340278,"PO BOX 2272","DUNN","NC","28335"
340279,"PO BOX 22723","SAVANNAH","GA","31403"
340280,"PO BOX 227231","DORAL","FL","33222"
340281,"PO BOX 2273","DALLAS","GA","30132"
340282,"PO BOX 2273","WHITE SALMON","WA","98672"
340283,"PO BOX 22730","SEATTLE","WA","98122"
340284,"PO BOX 227341","DALLAS","TX","75222"
340285,"PO BOX 2274","WEATHERFORD","TX","76086"
340286,"PO BOX 22743","SEATTLE","WA","98122"
340287,"PO BOX 22753","SEATTLE","WA","98122"
340288,"PO BOX 22754","HOT SPRINGS","AR","71903"
340289,"PO BOX 2276","AUBURN","WA","98071"
340290,"PO BOX 2276","HAWTHORNE","NV","89415"
340291,"PO BOX 2277","MISSION VIEJO","CA","92690"
340292,"PO BOX 22777","KANSAS CITY","MO","64113"
340293,"PO BOX 2278","KYLE","TX","78640"
340294,"PO BOX 2278","RIDGECREST","CA","93556"
340295,"PO BOX 22790","SACRAMENTO","CA","95822"
340296,"PO BOX 228","CHILLICOTHE","MO","64601"
340297,"PO BOX 228","CLAYTON","OH","45315"
340298,"PO BOX 228","DAYTON","TN","37321"
340299,"PO BOX 228","IOWA CITY","IA","52244"
340300,"PO BOX 228","MARBLEHEAD","MA","01945"
340301,"PO BOX 228","ORANGEFIELD","TX","77639"
340302,"PO BOX 228","OSBORNE","KS","67473"
340303,"PO BOX 228","PEABODY","MA","01960"
340304,"PO BOX 228","PENTWATER","MI","49449"
340305,"PO BOX 228","STANDISH","ME","04084"
340306,"PO BOX 228","STROUDSBURG","PA","18360"
340307,"PO BOX 2280","BOULDER","CO","80306"
340308,"PO BOX 2280","PINEDALE","WY","82941"
340309,"PO BOX 2280","STATESBORO","GA","30459"
340310,"PO BOX 22805","OAKLAND","CA","94609"
340311,"PO BOX 2281","STUART","FL","34995"
340312,"PO BOX 2282","DOVER","OH","44622"
340313,"PO BOX 2282","LAKE OSWEGO","OR","97035"
340314,"PO BOX 2282","LEES SUMMIT","MO","64063"
340315,"PO BOX 2282","MOREHEAD CITY","NC","28557"
340316,"PO BOX 2283","CEDAR HILL","TX","75106"
340317,"PO BOX 2283","OAK RIDGE","NJ","07438"
340318,"PO BOX 2283","WALTERBORO","SC","29488"
340319,"PO BOX 22833","ALEXANDRIA","VA","22304"
340320,"PO BOX 2284","MOREHEAD CITY","NC","28557"
340321,"PO BOX 2284","SHARON","PA","16146"
340322,"PO BOX 2285","EAGLE LAKE","FL","33839"
340323,"PO BOX 2286","CAMARILLO","CA","93011"
340324,"PO BOX 2286","GARDEN CITY","ID","83701"
340325,"PO BOX 2286","JACKSON","WY","83001"
340326,"PO BOX 2286","NEW YORK","NY","10027"
340327,"PO BOX 22866","SAVANNAH","GA","31403"
340328,"PO BOX 22867","BROOKLYN","NY","11201"
340329,"PO BOX 2287","LAKE HAVASU CITY","AZ","86405"
340330,"PO BOX 22872","LOUISVILLE","KY","40252"
340331,"PO BOX 2288","SUWANEE","GA","30024"
340332,"PO BOX 2288822","MIAMI","FL","33222"
340333,"PO BOX 2289","MCKINNEY","TX","75070"
340334,"PO BOX 22891","ALEXANDRIA","VA","22304"
340335,"PO BOX 229","BARABOO","WI","53913"
340336,"PO BOX 229","CRESTED BUTTE","CO","81224"
340337,"PO BOX 229","GREENVILLE","TX","75403"
340338,"PO BOX 229","HARRISON","NY","10528"
340339,"PO BOX 229","ST IGNATIUS","MT","59865"
340340,"PO BOX 229","VINEYARD HAVEN","MA","02568"
340341,"PO BOX 2290","BRANDON","FL","33509"
340342,"PO BOX 2291","GALLUP","NM","87305"
340343,"PO BOX 2292","BELLAIRE","TX","77402"
340344,"PO BOX 2292","MIDLAND","TX","79702"
340345,"PO BOX 2293","CHARLOTTESVILLE","VA","22902"
340346,"PO BOX 2293","GRAND RAPIDS","MI","49501"
340347,"PO BOX 2294","STAFFORD","VA","22555"
340348,"PO BOX 2294","VINELAND","NJ","08362"
340349,"PO BOX 2295","OTTAWA","IL","61350"
340350,"PO BOX 22959","HOUSTON","TX","77227"
340351,"PO BOX 2296","ANGLETON","TX","77516"
340352,"PO BOX 2296","ANTIOCH","TN","37013"
340353,"PO BOX 2296","CYPRESS","TX","77410"
340354,"PO BOX 2296","HONOLULU","HI","96804"
340355,"PO BOX 2297","EWA BEACH","HI","96706"
340356,"PO BOX 2297","HAGATNA","GU","96932"
340357,"PO BOX 2297","HARKER HEIGHTS","TX","76548"
340358,"PO BOX 22971","ALEXANDRIA","VA","22304"
340359,"PO BOX 2298","FLORISSANT","MO","63032"
340360,"PO BOX 2298","MUSKOGEE","OK","74402"
340361,"PO BOX 2298","PEEKSKILL","NY","10566"
340362,"PO BOX 22995","SEATTLE","WA","98122"
340363,"PO BOX 23    206 JOSEPHINE STREET","BERRYVILLE","VA","22611"
340364,"PO BOX 23","ALVARADO","TX","76009"
340365,"PO BOX 23","ARIVACA","AZ","85601"
340366,"PO BOX 23","BENSON","MN","56215"
340367,"PO BOX 23","BOMOSEEN","VT","05832"
340368,"PO BOX 23","BOUNTIFUL","UT","84011"
340369,"PO BOX 23","CHAMBERLAIN","ME","04541"
340370,"PO BOX 23","CHERRYVILLE","NC","28021"
340371,"PO BOX 23","COON VALLEY","WI","54623"
340372,"PO BOX 23","COTTEKILL","NY","12419"
340373,"PO BOX 23","DEWITT","NY","13214"
340374,"PO BOX 23","ELBRIDGE","NY","13060"
340375,"PO BOX 23","ELKHORN","WI","53121"
340376,"PO BOX 23","ENGLEWOOD","OH","45322"
340377,"PO BOX 23","FAYETTEVILLE","PA","17222"
340378,"PO BOX 23","FRUITLAND","IA","52749"
340379,"PO BOX 23","HADLYME","CT","06439"
340380,"PO BOX 23","HAGERSTOWN","IN","47346"
340381,"PO BOX 23","HEMPSTEAD","TX","77445"
340382,"PO BOX 23","HYDE PARK","NY","12538"
340383,"PO BOX 23","INDEPENDENCE","MS","38638"
340384,"PO BOX 23","INDIANA","PA","15701"
340385,"PO BOX 23","INTERLOCHEN","MI","49643"
340386,"PO BOX 23","KILLDEER","ND","58640"
340387,"PO BOX 23","KINGWOOD","WV","26537"
340388,"PO BOX 23","LIZELLA","GA","31052"
340389,"PO BOX 23","MANZANITA","OR","97130"
340390,"PO BOX 23","MARSHALL","TX","75671"
340391,"PO BOX 23","MERCEDES","TX","78570"
340392,"PO BOX 23","MOGADORE","OH","44260"
340393,"PO BOX 23","MT HOLLY","NC","28120"
340394,"PO BOX 23","NARBERTH","PA","19063"
340395,"PO BOX 23","NEWCASTLE","WY","82701"
340396,"PO BOX 23","NORTH EASTON","MA","02356"
340397,"PO BOX 23","NORTHWOOD","NH","03261"
340398,"PO BOX 23","ONSTED","MI","49265"
340399,"PO BOX 23","POMEROY","WA","99347"
340400,"PO BOX 23","PRAIRIE GROVE","AR","72753"
340401,"PO BOX 23","RED FEATHER LAKES","CO","80545"
340402,"PO BOX 23","SMITH","NV","89430"
340403,"PO BOX 23","UTE PARK","NM","87714"
340404,"PO BOX 23","WAKEFIELD","MI","49968"
340405,"PO BOX 23","WAKEFIELD","VA","23888"
340406,"PO BOX 23","WAYNESBORO","MS","39367"
340407,"PO BOX 23","WELLSBURG","NY","14894"
340408,"PO BOX 230","AMARILLO","TX","79105"
340409,"PO BOX 230","BAJADERO","PR","00616"
340410,"PO BOX 230","DENIO","NV","89404"
340411,"PO BOX 230","DOVER","DE","19903"
340412,"PO BOX 230","HARTLAND","WI","53029"
340413,"PO BOX 230","MARION","OH","43301"
340414,"PO BOX 230","NASHUA","NH","03061"
340415,"PO BOX 230","NORTHFIELD","VT","05663"
340416,"PO BOX 230","OAKDALE","CA","95361"
340417,"PO BOX 230","ORADELL","NJ","07649"
340418,"PO BOX 230","PADUCAH","TX","79248"
340419,"PO BOX 230","PERKINSVILLE","VT","05151"
340420,"PO BOX 230","PERU","ME","04290"
340421,"PO BOX 230013","HOLLIS","NY","11423"
340422,"PO BOX 230098","HOLLIS","NY","11423"
340423,"PO BOX 2301","NEVADA CITY","CA","95959"
340424,"PO BOX 2301","RIDGECREST","CA","93556"
340425,"PO BOX 230102","BOSTON","MA","02123"
340426,"PO BOX 230104","TIGARD","OR","97281"
340427,"PO BOX 230145","HOLLIS","NY","11423"
340428,"PO BOX 23016","BEAUMONT","TX","77720"
340429,"PO BOX 230194","TIGARD","OR","97281"
340430,"PO BOX 2302","BEAUMONT","TX","77704"
340431,"PO BOX 2302","LAKE PLACID","FL","33862"
340432,"PO BOX 2302","PRINCETON","NJ","08543"
340433,"PO BOX 2302","TUSCALOOSA","AL","35403"
340434,"PO BOX 23021","PROVIDENCE","RI","02903"
340435,"PO BOX 230211","TIGARD","OR","97281"
340436,"PO BOX 230213","CHANTILLY","VA","20120"
340437,"PO BOX 23022","SAN BERNARDINO","CA","92406"
340438,"PO BOX 230222","HOUSTON","TX","77223"
340439,"PO BOX 230256","HOLLIS","NY","11423"
340440,"PO BOX 230274","LAS VEGAS","NV","89105"
340441,"PO BOX 230276","ANCHORAGE","AK","99523"
340442,"PO BOX 2303","ALMA","AR","72921"
340443,"PO BOX 2303","LAWRENCE","KS","66044"
340444,"PO BOX 23030","LEXINGTON","KY","40523"
340445,"PO BOX 23030","PHILADELPHIA","PA","19124"
340446,"PO BOX 230315","LAS VEGAS","NV","89105"
340447,"PO BOX 230371","HOUSTON","TX","77223"
340448,"PO BOX 230393","ANCHORAGE","AK","99523"
340449,"PO BOX 2304","MORRISTOWN","NJ","07962"
340450,"PO BOX 23043","RICHFIELD","MN","55423"
340451,"PO BOX 230445","BROOKLYN","NY","11223"
340452,"PO BOX 230474","HOUSTON","TX","77023"
340453,"PO BOX 2305","BLOOMFIELD","NM","87413"
340454,"PO BOX 2305","BURLESON","TX","76097"
340455,"PO BOX 2305","MCKINNEY","TX","75070"
340456,"PO BOX 2305","TAYLOR","MI","48180"
340457,"PO BOX 23055","OVERLAND PARK","KS","66283"
340458,"PO BOX 23056","SAN ANTONIO","TX","78223"
340459,"PO BOX 2306","ALAMEDA","CA","94501"
340460,"PO BOX 2306","APTOS","CA","95001"
340461,"PO BOX 2306","BARTLESVILLE","OK","74005"
340462,"PO BOX 2306","KAILUA KONA","HI","96745"
340463,"PO BOX 2306","LAKESIDE AZ","AZ","85929"
340464,"PO BOX 23061","LITTLE ROCK","AR","72221"
340465,"PO BOX 230653","BOSTON","MA","02123"
340466,"PO BOX 230662","GRAND RAPIDS","MI","49523"
340467,"PO BOX 23067","TOLEDO","OH","43623"
340468,"PO BOX 230684","ANCHORAGE","AK","99523"
340469,"PO BOX 2307","EASTHAMPTON","NY","11937"
340470,"PO BOX 2307","GALLUP","NM","87305"
340471,"PO BOX 2308","LONGVIEW","WA","98632"
340472,"PO BOX 2308","STAUNTON","VA","24402"
340473,"PO BOX 2308","WAIANAE","HI","96792"
340474,"PO BOX 23083","LEXINGTON","KY","40523"
340475,"PO BOX 23083","RICHFIELD","MN","55423"
340476,"PO BOX 23087","JACKSONVILLE","FL","32241"
340477,"PO BOX 230884","LAS VEGAS","NV","89105"
340478,"PO BOX 230893","MONTGOMERY","AL","36123"
340479,"PO BOX 230898","LAS VEGAS","NV","89105"
340480,"PO BOX 2309","JOPLIN","MO","64803"
340481,"PO BOX 23090","RICHMOND","VA","23223"
340482,"PO BOX 23091","OAKLAND","CA","94623"
340483,"PO BOX 230917","BOSTON","MA","02123"
340484,"PO BOX 23095","COLUMBIA","SC","29224"
340485,"PO BOX 230951","ANCHORAGE","AK","99523"
340486,"PO BOX 23097","PROVIDENCE","RI","02903"
340487,"PO BOX 231","BENNINGTON","KS","67422"
340488,"PO BOX 231","BISHOPVILLE","SC","29010"
340489,"PO BOX 231","BUFFALO","WY","82834"
340490,"PO BOX 231","CAMARILLO","CA","93011"
340491,"PO BOX 231","CLEAR LAKE","IA","50428"
340492,"PO BOX 231","COLUMBUS JCT","IA","52738"
340493,"PO BOX 231","COLUMBUS JUNCTION","IA","52738"
340494,"PO BOX 231","CROTHERSVILLE","IN","47229"
340495,"PO BOX 231","DANSVILLE","MI","48819"
340496,"PO BOX 231","FAIRACRES","NM","88033"
340497,"PO BOX 231","FAIRHOPE","AL","36533"
340498,"PO BOX 231","FAYETTEVILLE","GA","30214"
340499,"PO BOX 231","LYNDEN","WA","98264"
340500,"PO BOX 231","MASON","MI","48854"
