"ID","Address","City","State","Zip"
349001,"PO BOX 43234","JACKSONVILLE","FL","32203"
349002,"PO BOX 4324","WALNUT CREEK","CA","94596"
349003,"PO BOX 4325","NORTH MYRTLE BEACH","SC","29597"
349004,"PO BOX 4327","GARDEN GROVE","CA","92842"
349005,"PO BOX 432960","SAN YSIDRO","CA","92143"
349006,"PO BOX 433","BEAVERTON","OR","97075"
349007,"PO BOX 433","CASPER","WY","82602"
349008,"PO BOX 433","COALMONT","TN","37313"
349009,"PO BOX 433","DANVILLE","IN","46122"
349010,"PO BOX 433","FORT PIERCE","FL","34954"
349011,"PO BOX 433","GOLD BAR","WA","98251"
349012,"PO BOX 433","GRAND LEDGE","MI","48837"
349013,"PO BOX 433","HERMISTON","OR","97838"
349014,"PO BOX 433","HINTON","OK","73047"
349015,"PO BOX 433","IRON RIVER","MI","49935"
349016,"PO BOX 433","LAKEVILLE","MN","55044"
349017,"PO BOX 433","LANCASTER","TX","75146"
349018,"PO BOX 433","MURCHISON","TX","75778"
349019,"PO BOX 433","NANUET","NY","10954"
349020,"PO BOX 433","SEDALIA","MO","65302"
349021,"PO BOX 433","SHAW ISLAND","WA","98286"
349022,"PO BOX 433","SOUTH SAINT PAUL","MN","55075"
349023,"PO BOX 433","STEPHEN","MN","56757"
349024,"PO BOX 433","THOMAS","OK","73669"
349025,"PO BOX 433","VICTORIA","KS","67671"
349026,"PO BOX 433","WAXHAW","NC","28173"
349027,"PO BOX 4332","ANDERSON","SC","29622"
349028,"PO BOX 4334","HOT SPRINGS","AR","71914"
349029,"PO BOX 4335","MARYVILLE","TN","37802"
349030,"PO BOX 4336","LYNCHBURG","VA","24502"
349031,"PO BOX 4337","ORLANDO","FL","32802"
349032,"PO BOX 4337","WILLISTON","ND","58802"
349033,"PO BOX 434","BEDFORD","MA","01730"
349034,"PO BOX 434","BLOOMINGTON","IL","61702"
349035,"PO BOX 434","BUTLER","AL","36904"
349036,"PO BOX 434","CLAY","KY","42404"
349037,"PO BOX 434","DELEON","TX","76444"
349038,"PO BOX 434","DEWITT","NY","13214"
349039,"PO BOX 434","ESCALON","CA","95320"
349040,"PO BOX 434","ETNA","CA","96027"
349041,"PO BOX 434","FORT MADISON","IA","52627"
349042,"PO BOX 434","GREENWOOD","IN","46142"
349043,"PO BOX 434","HERMITAGE","TN","37076"
349044,"PO BOX 434","LAKE ORION","MI","48361"
349045,"PO BOX 434","LITTLE ELM","TX","75068"
349046,"PO BOX 434","MALVERN","IA","51551"
349047,"PO BOX 434","MAPLETON","OR","97453"
349048,"PO BOX 434","MCCONNELSVILLE","OH","43756"
349049,"PO BOX 434","ORANGE CITY","IA","51041"
349050,"PO BOX 434","PALM SPRINGS","CA","92263"
349051,"PO BOX 434","PINEVILLE","NC","28134"
349052,"PO BOX 434","QUAKER CITY","OH","43773"
349053,"PO BOX 434","READING","PA","19607"
349054,"PO BOX 434","ROCKAWAY","NJ","07866"
349055,"PO BOX 434","TELLICO PLAINS","TN","37385"
349056,"PO BOX 434","TETONIA","ID","83452"
349057,"PO BOX 434","TOWANDA","KS","67144"
349058,"PO BOX 434","VERONA","MS","38879"
349059,"PO BOX 434","WEST ORANGE","NJ","07052"
349060,"PO BOX 434062","SAINT LOUIS","MO","63143"
349061,"PO BOX 4341","BEAUFORT","SC","29903"
349062,"PO BOX 4341","COSTA MESA","CA","92628"
349063,"PO BOX 4341","MORGANTOWN","WV","26504"
349064,"PO BOX 43411","BROOKLYN PARK","MN","55443"
349065,"PO BOX 43415","LOS ANGELE","CA","90047"
349066,"PO BOX 43418","LOS ANGELES","CA","90043"
349067,"PO BOX 4342","APOPKA","FL","32704"
349068,"PO BOX 4343","MODESTO","CA","95352"
349069,"PO BOX 4343","WHITE RIVER JUNCTION","VT","05001"
349070,"PO BOX 4344","BISBEE","AZ","85603"
349071,"PO BOX 43444","UPPER MONTCLAIR","NJ","07043"
349072,"PO BOX 4345","DUNELLEN","NJ","08812"
349073,"PO BOX 43450","LAFAYETTE","LA","70504"
349074,"PO BOX 4348","ORLANDO","FL","32802"
349075,"PO BOX 435","ANN ARBOR","MI","48106"
349076,"PO BOX 435","AVON PARK","FL","33826"
349077,"PO BOX 435","BYRON CENTER","MI","49315"
349078,"PO BOX 435","CHELSEA","OK","74016"
349079,"PO BOX 435","CORYDON","IA","50060"
349080,"PO BOX 435","DEWITT","IA","52742"
349081,"PO BOX 435","GOSHEN","IN","46527"
349082,"PO BOX 435","HOT SPRINGS NATIONAL","AR","71902"
349083,"PO BOX 435","MONTGOMERY CENTER","VT","05471"
349084,"PO BOX 435","NILES","MI","49120"
349085,"PO BOX 435","SOUTHPORT","CT","06890"
349086,"PO BOX 435","ST CLAIR","MI","48079"
349087,"PO BOX 435","WARRIOR","AL","35180"
349088,"PO BOX 435035","SAINT LOUIS","MO","63041"
349089,"PO BOX 4351","HARRISBURG","PA","17111"
349090,"PO BOX 4352","RIO RICO","AZ","85648"
349091,"PO BOX 4352","TUMWATER","WA","98501"
349092,"PO BOX 435232","SAN DIEGO","CA","92143"
349093,"PO BOX 4353","DAVENPORT","IA","52808"
349094,"PO BOX 4353","DILLON","CO","80435"
349095,"PO BOX 4353","MIDLOTHIAN","VA","23112"
349096,"PO BOX 43545","LOUISVILLE","KY","40243"
349097,"PO BOX 4355","PHILADELPHIA","PA","19118"
349098,"PO BOX 4359","GARY","IN","46406"
349099,"PO BOX 436 CROWLEY LA 70527","CROWLEY","LA","70526"
349100,"PO BOX 436","BLOSSOM","TX","75416"
349101,"PO BOX 436","BRIGHTWOOD","OR","97011"
349102,"PO BOX 436","CLARKSVILLE","TN","37041"
349103,"PO BOX 436","ESCALANTE","UT","84726"
349104,"PO BOX 436","FISHERSVILLE","VA","22939"
349105,"PO BOX 436","GLEN","NH","03838"
349106,"PO BOX 436","GUERNSEY","WY","82214"
349107,"PO BOX 436","LEDGEWOOD","NJ","07852"
349108,"PO BOX 436","METALINE FALLS","WA","99153"
349109,"PO BOX 436","MOUNT TABOR","NJ","07878"
349110,"PO BOX 436","PALMER","AK","99645"
349111,"PO BOX 436","PEA RIDGE","AR","72751"
349112,"PO BOX 436","PRINCETON","WI","54968"
349113,"PO BOX 436","SUAMICO","WI","54173"
349114,"PO BOX 4364","SAN CELEMNTE","CA","92674"
349115,"PO BOX 43647","CLEVELAND","OH","44143"
349116,"PO BOX 4365","ATLANTA","GA","30302"
349117,"PO BOX 43656","CHARLOTTE","NC","28215"
349118,"PO BOX 436789","MIDDLETOWN","KY","40253"
349119,"PO BOX 436885  IL 60643","CHICAGO","IL","60643"
349120,"PO BOX 4369","AUSTIN","TX","78765"
349121,"PO BOX 4369","CHARLOTTESVILLE","VA","22905"
349122,"PO BOX 437","BONNERS FERRY","ID","83805"
349123,"PO BOX 437","EASTPOINTE","MI","48021"
349124,"PO BOX 437","ESSEX","IA","51638"
349125,"PO BOX 437","GEORGETOWN","SC","29442"
349126,"PO BOX 437","HAYSI","VA","24256"
349127,"PO BOX 437","NEW MARKET","AL","35761"
349128,"PO BOX 437","NORTH LIBERY","IA","52317"
349129,"PO BOX 437","ROOSEVELT","NY","11575"
349130,"PO BOX 437","WAYNE","NJ","07474"
349131,"PO BOX 4370","TUMWATER","WA","98501"
349132,"PO BOX 437053","CHICAGO","IL","60643"
349133,"PO BOX 4371","LITTLE ROCK","AR","72214"
349134,"PO BOX 4371","TALLAHASSEE","FL","32315"
349135,"PO BOX 437147","KAMUELA","HI","96743"
349136,"PO BOX 43716","BALTIMORE","MD","21236"
349137,"PO BOX 437199","KAMUELA","HI","96743"
349138,"PO BOX 4372 757 WARREN ROAD","ITHACA","NY","14850"
349139,"PO BOX 437280","SAN YSIDRO","CA","92143"
349140,"PO BOX 437388","CHICAGO","IL","60643"
349141,"PO BOX 4374","HUNTSVILLE","AL","35815"
349142,"PO BOX 43753","LOUISVILLE","KY","40253"
349143,"PO BOX 43755","BROOKLYN PARK","MN","55443"
349144,"PO BOX 43767","BIRMINGHAM","AL","35243"
349145,"PO BOX 43777","CHARLOTTE","NC","28215"
349146,"PO BOX 43783","WASHINGTON","DC","20010"
349147,"PO BOX 43794","BIRMINGHAM","AL","35243"
349148,"PO BOX 438","COLUMBUS","NJ","08022"
349149,"PO BOX 438","GARDINER","MT","59030"
349150,"PO BOX 438","LAFAYETTE","GA","30728"
349151,"PO BOX 438","MAYNARD","MA","01754"
349152,"PO BOX 438","PRESTON","IA","52069"
349153,"PO BOX 438","SANTA CRUZ","NM","87567"
349154,"PO BOX 438","SHELDON","SC","29941"
349155,"PO BOX 43819","CLEVELAND","OH","44143"
349156,"PO BOX 4382","PAGO PAGO","AS","96799"
349157,"PO BOX 43824","LOUISVILLE","KY","40253"
349158,"PO BOX 4383","DAVENPORT","IA","52802"
349159,"PO BOX 438305","CHICAGO","IL","60643"
349160,"PO BOX 4384","LEXINGTON","KY","40544"
349161,"PO BOX 4384","MARYVILLE","TN","37802"
349162,"PO BOX 438493","CHICAGO","IL","60643"
349163,"PO BOX 4386","COMPTON","CA","90224"
349164,"PO BOX 438614","CHICAGO","IL","60643"
349165,"PO BOX 43862","ATLANTA","GA","30036"
349166,"PO BOX 438825","CHICAGO","IL","60643"
349167,"PO BOX 439","FOWLERVILLE","MI","48836"
349168,"PO BOX 439","HIGH FALLS","NY","12440"
349169,"PO BOX 439","KINGS PARK","NY","11754"
349170,"PO BOX 439","SADDLE BROOK","NJ","07663"
349171,"PO BOX 439","TRENTON","NJ","08603"
349172,"PO BOX 439030     PMB 153","SAN YSIDRO","CA","92143"
349173,"PO BOX 439030 PMB 168","SAN YSIDRO","CA","92143"
349174,"PO BOX 439060   PMB 421","SAN DIEGO","CA","92143"
349175,"PO BOX 4391","GARDEN GROVE","CA","92842"
349176,"PO BOX 4392","BUTTE","MT","59702"
349177,"PO BOX 4392","SANFORD","NC","27331"
349178,"PO BOX 439468","CHICAGO","IL","60643"
349179,"PO BOX 4395","ANN ARBOR","MI","48106"
349180,"PO BOX 4397","VESTAVIA","AL","35243"
349181,"PO BOX 44","BELMONT","NC","28012"
349182,"PO BOX 44","BODEGA","CA","94922"
349183,"PO BOX 44","BURLINGTON","CO","80807"
349184,"PO BOX 44","BUTNER","NC","27509"
349185,"PO BOX 44","CALAIS","VT","05648"
349186,"PO BOX 44","CASHTOWN","PA","17310"
349187,"PO BOX 44","CENTERTON","AR","72719"
349188,"PO BOX 44","CISSNA PARK","IL","60924"
349189,"PO BOX 44","CULLODEN","WV","25510"
349190,"PO BOX 44","DELLSLOW","WV","26531"
349191,"PO BOX 44","DELPHI","IN","46923"
349192,"PO BOX 44","ERIE","CO","80516"
349193,"PO BOX 44","GRANITE FALLS","WA","98252"
349194,"PO BOX 44","GRAYMONT","IL","61743"
349195,"PO BOX 44","GREENVILLE","MO","63944"
349196,"PO BOX 44","HENDERSONVILLE","TN","37077"
349197,"PO BOX 44","LAKE CHARLES","LA","70602"
349198,"PO BOX 44","LEBANON","OH","45036"
349199,"PO BOX 44","LEBANON","OR","97355"
349200,"PO BOX 44","LINCOLN","AR","72744"
349201,"PO BOX 44","LOUISBURG","NC","27549"
349202,"PO BOX 44","MARLBOROUGH","CT","06447"
349203,"PO BOX 44","MARSTONS MILLS","MA","02648"
349204,"PO BOX 44","MATTITUCK","NY","11952"
349205,"PO BOX 44","MEDINA","TN","38355"
349206,"PO BOX 44","MELBA","ID","83641"
349207,"PO BOX 44","METCALFE","MS","38760"
349208,"PO BOX 44","MILL SPRING","NC","28756"
349209,"PO BOX 44","MONGO","IN","46771"
349210,"PO BOX 44","NASHVILLE","IN","47448"
349211,"PO BOX 44","OILVILLE","VA","23129"
349212,"PO BOX 44","OREGON","MO","64473"
349213,"PO BOX 44","PHOENIX","NY","13135"
349214,"PO BOX 44","POMEROY","WA","99347"
349215,"PO BOX 44","PRESTO","PA","15142"
349216,"PO BOX 44","SANDWICH","IL","60548"
349217,"PO BOX 44","SAVOY","IL","61874"
349218,"PO BOX 44","SIMLA","CO","80835"
349219,"PO BOX 44","SPRING HOUSE","PA","19477"
349220,"PO BOX 44","STURGIS","SD","57785"
349221,"PO BOX 44","TEMECULA","CA","92593"
349222,"PO BOX 44","TRENTON","MO","64683"
349223,"PO BOX 44","WARWICK","NY","10990"
349224,"PO BOX 44","WELLSBURG","IA","50680"
349225,"PO BOX 44","WEST BOXFORD","MA","01885"
349226,"PO BOX 44","WILLCOX","AZ","85644"
349227,"PO BOX 44","YOUNTVILLE","CA","94599"
349228,"PO BOX 440","BELMONT","CA","94002"
349229,"PO BOX 440","COARSEGOLD","CA","93614"
349230,"PO BOX 440","PELHAM","NH","03076"
349231,"PO BOX 440","PITTSFORD","NY","14534"
349232,"PO BOX 440","WEST MILFORD","WV","26451"
349233,"PO BOX 4401","ATLANTA","GA","30302"
349234,"PO BOX 4401","BISBEE","AZ","85603"
349235,"PO BOX 4401","PENSACOLA","FL","32507"
349236,"PO BOX 440171","SAINT LOUIS","MO","63144"
349237,"PO BOX 4402","OMAHA","NE","68104"
349238,"PO BOX 440232","AURORA","CO","80044"
349239,"PO BOX 4403","PORTSMOUTH","NH","03802"
349240,"PO BOX 4403","SILVER SPRING","MD","20914"
349241,"PO BOX 440305","ST LOUIS","MO","63144"
349242,"PO BOX 440321","HOUSTON","TX","77244"
349243,"PO BOX 44034","BATON ROUGE","LA","70804"
349244,"PO BOX 44042","EDEN PRAIRIE","MN","55344"
349245,"PO BOX 4405 650 S GREENWOOD AVE","EASTON","PA","18043"
349246,"PO BOX 4405","DAVIS","CA","95617"
349247,"PO BOX 4405","PARKERSBURGER","WV","26101"
349248,"PO BOX 440548","HOUSTON","TX","77244"
349249,"PO BOX 44064","TACOMA","WA","98448"
349250,"PO BOX 440641","JACKSONVILLE","FL","32222"
349251,"PO BOX 440794","AURORA","CO","80044"
349252,"PO BOX 4408","SAN LUIS OBISPO","CA","93403"
349253,"PO BOX 4408","SCHENECTADY","NY","12304"
349254,"PO BOX 440846","JACKSONVILLE","FL","32222"
349255,"PO BOX 440973","KENNESAW","GA","30160"
349256,"PO BOX 441","CARMICHAELS","PA","15320"
349257,"PO BOX 441","CATLETTSBURG","KY","41129"
349258,"PO BOX 441","COLUMBIA","TN","38402"
349259,"PO BOX 441","CROSSVILLE","IL","62827"
349260,"PO BOX 441","EAST SCHODACK","NY","12063"
349261,"PO BOX 441","ELIZABETH","CO","80107"
349262,"PO BOX 441","FRIENDSHIP","WI","53934"
349263,"PO BOX 441","GLENS FALLS","NY","12801"
349264,"PO BOX 441","HARRAH","WA","98933"
349265,"PO BOX 441","HAWI","HI","96719"
349266,"PO BOX 441","JENKS","OK","74037"
349267,"PO BOX 441","LEAKEY","TX","78873"
349268,"PO BOX 441","MCDONALD","OH","44437"
349269,"PO BOX 441","MEDANALES","NM","87548"
349270,"PO BOX 441","MIDLAND PARK","NJ","07432"
349271,"PO BOX 441","MONTGOMERY","AL","36101"
349272,"PO BOX 441","NARBERTH","PA","19072"
349273,"PO BOX 441","NEW HOPE","AL","35760"
349274,"PO BOX 441","NOME","AK","99762"
349275,"PO BOX 441","PENNVILLE","IN","47369"
349276,"PO BOX 441","PERIDOT","AZ","85542"
349277,"PO BOX 441","PHOENIX","NY","13135"
349278,"PO BOX 441","ROYERSFORD","PA","19468"
349279,"PO BOX 441","SAINT CHARLES","MO","63302"
349280,"PO BOX 441","SAN FRANCISCO","CA","94104"
349281,"PO BOX 441","SINTON","TX","78387"
349282,"PO BOX 441","SOSO","MS","39480"
349283,"PO BOX 441","STAYTON","OR","97383"
349284,"PO BOX 441","WOODLAKE","CA","93286"
349285,"PO BOX 4410","ANTHONY","NM","88021"
349286,"PO BOX 441013","FORT WASHINGTON","MD","20749"
349287,"PO BOX 44103","DETROIT","MI","48226"
349288,"PO BOX 441034","KENNESAW","GA","30160"
349289,"PO BOX 44104","CHICAGO","IL","60644"
349290,"PO BOX 44105","DETROIT","MI","48244"
349291,"PO BOX 4411","JOPLIN","MO","64803"
349292,"PO BOX 441175","HOUSTON","TX","77244"
349293,"PO BOX 4412","ANNAPOLIS","MD","21403"
349294,"PO BOX 4412","BATON ROUGE","LA","70821"
349295,"PO BOX 44122","FAYETTEVILLE","NC","28309"
349296,"PO BOX 44123","DENVER","CO","80201"
349297,"PO BOX 441271","INDIANAPOLIS","IN","46244"
349298,"PO BOX 4413","COLUMBUS","GA","31914"
349299,"PO BOX 44146","DENVER","CO","80201"
349300,"PO BOX 441491","AURORA","CO","80044"
349301,"PO BOX 4415","BERKELEY","CA","94704"
349302,"PO BOX 44152","PHILADELPHIA","PA","19144"
349303,"PO BOX 441521","DETROIT","MI","48244"
349304,"PO BOX 4416","OMAHA","NE","68104"
349305,"PO BOX 44164","TACOMA","WA","98448"
349306,"PO BOX 44168","INDIANAPOLIS","IN","46244"
349307,"PO BOX 441701","DETROIT","MI","48224"
349308,"PO BOX 44172","DETROIT","MI","48244"
349309,"PO BOX 441729","AURORA","CO","80044"
349310,"PO BOX 441734","DETROIT","MI","48244"
349311,"PO BOX 44178","PITTSBURGH","PA","15205"
349312,"PO BOX 44199","GOODFELLOW AFB","TX","76908"
349313,"PO BOX 442","BURLINGTON","CO","80807"
349314,"PO BOX 442","CAMDEN","NJ","08101"
349315,"PO BOX 442","CARTHAGE","NY","13619"
349316,"PO BOX 442","CLINTON","SC","29325"
349317,"PO BOX 442","COTTONWOOD","AZ","86326"
349318,"PO BOX 442","DUVALL","WA","98019"
349319,"PO BOX 442","HERMITAGE","MO","65668"
349320,"PO BOX 442","LAKE CRYSTAL","MN","56055"
349321,"PO BOX 442","LANDENBERG","PA","19350"
349322,"PO BOX 442","LOVINGSTON","VA","22949"
349323,"PO BOX 442","MATHEWS","VA","23109"
349324,"PO BOX 442","MEDFORD","MA","02155"
349325,"PO BOX 442","MIDDLEBURG","VA","20118"
349326,"PO BOX 442","MILES CITY","MT","59301"
349327,"PO BOX 442","MONTPELIER","VT","05601"
349328,"PO BOX 442","MULLICA HILL","NJ","08062"
349329,"PO BOX 442","NORFOLK","VA","23501"
349330,"PO BOX 442","PONTIAC","IL","61764"
349331,"PO BOX 442","SOUTHAVEN","MS","38671"
349332,"PO BOX 442","SPRING VALLEY","NY","10977"
349333,"PO BOX 442","STRATFORD","NJ","08084"
349334,"PO BOX 442","TOMS RIVER","NJ","08754"
349335,"PO BOX 442","VIEQUES","PR","00765"
349336,"PO BOX 442","WESTFIELD","IN","46074"
349337,"PO BOX 44201","FT WASHINGTON","MD","20749"
349338,"PO BOX 44208","COLUMBUS","OH","43204"
349339,"PO BOX 4421","ROCHE HARBOR","WA","98250"
349340,"PO BOX 44214","FORT WASHINGTON","MD","20749"
349341,"PO BOX 442164","DETROIT","MI","48244"
349342,"PO BOX 442164","LAWRENCE","KS","66044"
349343,"PO BOX 4422","EDWARDS","CO","81632"
349344,"PO BOX 4422","GREENVILLE","NC","27836"
349345,"PO BOX 44221","ATLANTA","GA","30336"
349346,"PO BOX 44234","FORT WASHINGTON","MD","20749"
349347,"PO BOX 44246","MADISON","WI","53719"
349348,"PO BOX 4425","BRANDON","MS","39047"
349349,"PO BOX 4427","SEVIERVILLE","TN","37864"
349350,"PO BOX 44282","COLUMBUS","OH","43204"
349351,"PO BOX 443","AUBURN","AL","36831"
349352,"PO BOX 443","BALSAM","NC","28707"
349353,"PO BOX 443","BELT","MT","59412"
349354,"PO BOX 443","BREVARD","NC","28712"
349355,"PO BOX 443","BUNN","NC","27508"
349356,"PO BOX 443","COPALLIS","WA","98535"
349357,"PO BOX 443","DANVILLE","IN","46122"
349358,"PO BOX 443","DAPHNE","AL","36526"
349359,"PO BOX 443","DEXTER","MO","63841"
349360,"PO BOX 443","DUNN LORING","VA","22027"
349361,"PO BOX 443","ELKHORN","WI","53121"
349362,"PO BOX 443","ELYRIA","OH","44036"
349363,"PO BOX 443","ENNIS","MT","59729"
349364,"PO BOX 443","FINDLAY","OH","45839"
349365,"PO BOX 443","FOX LAKE","WI","53933"
349366,"PO BOX 443","FOXBOROUGH","MA","02035"
349367,"PO BOX 443","HERALD","CA","95638"
349368,"PO BOX 443","HOWARD","PA","16841"
349369,"PO BOX 443","HUNTINGTON STATION","NY","11746"
349370,"PO BOX 443","JUDSON","TX","75660"
349371,"PO BOX 443","MCDONALD","OH","44437"
349372,"PO BOX 443","MONETTE","AR","72447"
349373,"PO BOX 443","NEW MARTINSVILLE","WV","26155"
349374,"PO BOX 443","NEWBURGH","IN","47629"
349375,"PO BOX 443","OSCEOLA","AR","72370"
349376,"PO BOX 443","PETERSTOWN","WV","24963"
349377,"PO BOX 443","PHOENIX","NY","13135"
349378,"PO BOX 443","SAINT STEPHEN","SC","29479"
349379,"PO BOX 443","STAFFORD","TX","77497"
349380,"PO BOX 443","TAZEWELL","TN","37879"
349381,"PO BOX 443","TOWNSEND","MA","01469"
349382,"PO BOX 443","VOLGA","SD","57071"
349383,"PO BOX 443","WILLERNIE","MN","55090"
349384,"PO BOX 4431","CERRITOS","CA","90703"
349385,"PO BOX 44321","MADISON","WI","53744"
349386,"PO BOX 44324","TUCSON","AZ","85733"
349387,"PO BOX 44334","BOISE","ID","83711"
349388,"PO BOX 4434","BATON ROUGE","LA","70821"
349389,"PO BOX 4434","BUTTE","MT","59702"
349390,"PO BOX 4434","SONORA","CA","95370"
349391,"PO BOX 4435","CAPITOL HEIGHTS","MD","20791"
349392,"PO BOX 4436","DAYTON","OH","45401"
349393,"PO BOX 444         7 COWANESQUE ST","LAWRENCEVILLE","PA","16929"
349394,"PO BOX 444","ABERDEEN","WA","98520"
349395,"PO BOX 444","BISON","SD","57620"
349396,"PO BOX 444","BOHEMIA","NY","11716"
349397,"PO BOX 444","BURLINGTON","NJ","08016"
349398,"PO BOX 444","BUTNER","NC","27509"
349399,"PO BOX 444","CINCINNATI","OH","45201"
349400,"PO BOX 444","COLUMBIA","TN","38402"
349401,"PO BOX 444","COROLLA","NC","27927"
349402,"PO BOX 444","CROSS PLAINS","TX","76443"
349403,"PO BOX 444","FARMINGDALE","NJ","07727"
349404,"PO BOX 444","GRANTSVILLE","UT","84029"
349405,"PO BOX 444","HARTSEL","CO","80449"
349406,"PO BOX 444","HAYS","KS","67601"
349407,"PO BOX 444","HOLTON","KS","66436"
349408,"PO BOX 444","ISLIP","NY","11751"
349409,"PO BOX 444","KATY","TX","77492"
349410,"PO BOX 444","KINGSLEY","MI","49649"
349411,"PO BOX 444","LAUPAHOEHOE","HI","96764"
349412,"PO BOX 444","LEBANON","IN","46052"
349413,"PO BOX 444","LEOTI","KS","67861"
349414,"PO BOX 444","LITITZ","PA","17543"
349415,"PO BOX 444","MARSHALL","MI","49068"
349416,"PO BOX 444","MILLERSBURG","IN","46543"
349417,"PO BOX 444","MOMENCE","IL","60954"
349418,"PO BOX 444","MONTGOMERY","AL","36101"
349419,"PO BOX 444","MONTICELLO","NY","12701"
349420,"PO BOX 444","MOUNT HOLLY","NJ","08060"
349421,"PO BOX 444","NAHUNTA","GA","31553"
349422,"PO BOX 444","RAVENNA","OH","44266"
349423,"PO BOX 444","SENATOBIA","MS","38668"
349424,"PO BOX 444","SIOUX FALLS","SD","57005"
349425,"PO BOX 444","SPENCER","MA","01562"
349426,"PO BOX 444","SPICER","MN","56288"
349427,"PO BOX 444","SWEETWATER","TN","37874"
349428,"PO BOX 444","THREE FORKS","MT","59752"
349429,"PO BOX 444","TUOLUMNE","CA","95379"
349430,"PO BOX 444","WALNUT","IL","61376"
349431,"PO BOX 4440","BOZEMAN","MT","59772"
349432,"PO BOX 4441","EAST LANSING","MI","48826"
349433,"PO BOX 4441","TRAVERSE CITY","MI","49684"
349434,"PO BOX 4442","BRYAN","TX","77805"
349435,"PO BOX 44431","SHREVEPORT","LA","71134"
349436,"PO BOX 4444","ESTES PARK","CO","80517"
349437,"PO BOX 4446","APOPKA","FL","32704"
349438,"PO BOX 44460","EDEN PRAIRIE","MN","55344"
349439,"PO BOX 44474","DETROIT","MI","48244"
349440,"PO BOX 4449","ONTARIO","CA","91761"
349441,"PO BOX 445 - 1651 KINGSWAY CT","TRENTON","MI","48183"
349442,"PO BOX 445","BAYFIELD","WI","54814"
349443,"PO BOX 445","BELLE HAVEN","VA","23306"
349444,"PO BOX 445","BRIGHTON","CO","80601"
349445,"PO BOX 445","BRONX","NY","10475"
349446,"PO BOX 445","CHADRON","NE","69337"
349447,"PO BOX 445","CHEHALIS","WA","98532"
349448,"PO BOX 445","COVINGTON","TN","38019"
349449,"PO BOX 445","DUBOIS","WY","82513"
349450,"PO BOX 445","EAST STROUDSBURG","PA","18301"
349451,"PO BOX 445","GRAND LEDGE","MI","48837"
349452,"PO BOX 445","HARDEEVILLE","SC","29927"
349453,"PO BOX 445","LUXEMBURG","WI","54217"
349454,"PO BOX 445","PEORIA","AZ","85380"
349455,"PO BOX 445","STIGLER","OK","74462"
349456,"PO BOX 445","STONY CREEK","VA","23882"
349457,"PO BOX 445","TERRACE PARK","OH","45174"
349458,"PO BOX 445","TREGO","MT","59934"
349459,"PO BOX 445","WHITTEMORE","IA","50598"
349460,"PO BOX 445","WIMBERLEY","TX","78676"
349461,"PO BOX 4451","SONORA","CA","95370"
349462,"PO BOX 44526","FORT WASHINGTON","MD","20749"
349463,"PO BOX 44532","LOS ANGELES","CA","90044"
349464,"PO BOX 4454","WINTER HAVEN","FL","33885"
349465,"PO BOX 4455","LONG BEACH","CA","90804"
349466,"PO BOX 4455","MIDLAND","TX","79704"
349467,"PO BOX 4455","PALMER","AK","99645"
349468,"PO BOX 44582","ATLANTA","GA","30336"
349469,"PO BOX 44583","PHOENIX","AZ","85064"
349470,"PO BOX 446","CONCORD","NH","03302"
349471,"PO BOX 446","CONSHOHOCKEN","PA","19428"
349472,"PO BOX 446","ENDICOTT","NY","13761"
349473,"PO BOX 446","FRUITA","CO","81521"
349474,"PO BOX 446","GRASS LAKE","MI","49240"
349475,"PO BOX 446","GRAYSON","GA","30017"
349476,"PO BOX 446","GREAT BEND","KS","67530"
349477,"PO BOX 446","HARRISONBURG","VA","22803"
349478,"PO BOX 446","HELENA","MT","59624"
349479,"PO BOX 446","KANE","PA","16735"
349480,"PO BOX 446","NAALEHU","HI","96772"
349481,"PO BOX 446","NEAH BAY","WA","98357"
349482,"PO BOX 446","OJAI","CA","93024"
349483,"PO BOX 446","SOUTHEASTERN","PA","19399"
349484,"PO BOX 446","SUMMIT","MS","39666"
349485,"PO BOX 446","WALDPORT","OR","97394"
349486,"PO BOX 446","ZIMMERMAN","MN","55398"
349487,"PO BOX 4461","DUBLIN","GA","31040"
349488,"PO BOX 4462","BRANDON","MS","39047"
349489,"PO BOX 4463","KAILUA KONA","HI","96745"
349490,"PO BOX 4464","GREENSBORO","NC","27404"
349491,"PO BOX 4466","POCATELLO","ID","83205"
349492,"PO BOX 44671","COLUMBUS","OH","43204"
349493,"PO BOX 44671","KAMUELA","HI","96743"
349494,"PO BOX 4468","ONTARIO","CA","91761"
349495,"PO BOX 44693","Kamuela","HI","96743"
349496,"PO BOX 447","BYRON","MN","55920"
349497,"PO BOX 447","FARMINGDALE","NJ","07727"
349498,"PO BOX 447","FLORAL PARK","NY","11002"
349499,"PO BOX 447","FOLLETT","TX","79034"
349500,"PO BOX 447","HEMLOCK","MI","48626"
