"ID","Address","City","State","Zip"
293501,"8000 ALEXANDRIA PIKE","ALEXANDRIA","KY","41001"
293502,"8000 AVALON BLVD  SUITE 100","ALPHARETTA","GA","30009"
293503,"8000 BENNINGTON DRIVE","KNOXVILLE","TN","37909"
293504,"8000 CALLEGHAN","LITTLE ROCK","AR","72210"
293505,"8000 CAPPS FERRY ROAD","DOUGLASVILLE","GA","30135"
293506,"8000 CEDAR LAKE LN","FORT WORTH","TX","76123"
293507,"8000 CENTRE PARK DR STE 160","AUSTIN","TX","78754"
293508,"8000 E BELLEVIEW AVE STE 100","GREENWOOD VILLAGE","CO","80111"
293509,"8000 E JEFFERSON AVENUE","DETROIT","MI","48214"
293510,"8000 EAST 12TH AVENUE  APT 3-A2","DENVER","CO","80220"
293511,"8000 EAST DRIVE APT 203","NORTH BAY VILLAGE","FL","33141"
293512,"8000 EAST PRAIRIE AVE","SKOKIE","IL","60076"
293513,"8000 EDGEWATER DR","OAKLAND","CA","94621"
293514,"8000 IH-10 WEST STE 600/333","SAN ANTONIO","TX","78230"
293515,"8000 IH-10 WEST SUITE 600","SAN ANTONIO","TX","78230"
293516,"8000 INNOVATION PARK DR/ BLDG 3000","BATON ROUGE","LA","70820"
293517,"8000 JACKSON AVENUE","MUNSTER","IN","46321"
293518,"8000 LASALLE AVE","BATON ROUGE","LA","70806"
293519,"8000 MADISON BLVD SUITE D102-200","MADISON","AL","35758"
293520,"8000 MADISON BLVD SUITE D102-322","MADISON","AL","35758"
293521,"8000 MARINA BLVD STE 130","BRISBANE","CA","94005"
293522,"8000 MARTIN LUTHER KING BLVD","PARIS","KY","40361"
293523,"8000 MIDLANTIC DR    STE 200N","MT LAUREL","NJ","08054"
293524,"8000 MIDLANTIC DRIVE SUITE 300S","MOUNT LAUREL","NJ","08054"
293525,"8000 MINES RD SUITE 101","LAREDO","TX","78045"
293526,"8000 MOSS ROCK DRIVE","FORT WORTH","TX","76123"
293527,"8000 N RANGE LINE RD","RIVER HILLS","WI","53217"
293528,"8000 NE PARKWAY DRIVE  SUITE 350","VANCOUVER","WA","98662"
293529,"8000 NW 44TH ST","SUNRISE","FL","33322"
293530,"8000 NW 44TH STREET","SUNRISE","FL","33351"
293531,"8000 NW 7 ST STE 200","MIAMI","FL","33126"
293532,"8000 OAKDELL WAY 3062","SAN ANTONIO","TX","78240"
293533,"8000 OLD YORK ROAD","ELKINS PARK","PA","19027"
293534,"8000 RAVINES EDGE COURT SUITE 300","COLUMBUS","OH","43235"
293535,"8000 RIVER POINTE DRIVE APT 11A34","NORTH LITTLE ROCK","AR","72113"
293536,"8000 ROWLAND AVE","PHILADELPHIA","PA","19136"
293537,"8000 RUSSELL RD","ALEXANDRIA","VA","22309"
293538,"8000 S I-35 SERVICE ROAD","OKLAHOMA CITY","OK","73149"
293539,"8000 S LINCOLN ST UNIT 4","LITTLETON","CO","80122"
293540,"8000 TATUM WATERWAY DR APT 1","MIAMI BEACH","FM","33141"
293541,"8000 TOWERS CRESCENT DR","VIENNA","VA","22182"
293542,"8000 TUNA DR","MARATHON","FL","33050"
293543,"8000 W MANCHESTER AVENUE","PLAYA DEL REY","CA","90293"
293544,"8000 WADSWORTH","LOS ANGELES","CA","90001"
293545,"8000 WALTON PARKWAY SUITE  202E","NEW ALBANY","OH","43054"
293546,"8000 WEST DRIVE","NORTH BAY VILLAGE","FL","33141"
293547,"8000 WEST I H-10 SUITE 1500","SAN ANTONIO","TX","78258"
293548,"8000 WEST STANFORD AVENUE APT 6-108","LITTLETON","CO","80123"
293549,"8000 WESTPARK DR SUITE 400","MCLEAN","VA","22102"
293550,"8000 WICHITA 112","FORT WORTH","TX","76140"
293551,"8000 WOODGATE APT C","MILFORD MILL","MD","21244"
293552,"8000 YORK ROAD","TOWSON","MD","21252"
293553,"8000 ZANGLE RD","OLYMPIA","WA","98506"
293554,"8001 14TH AVE NE SUITE A","SEATTLE","WA","98115"
293555,"8001 BRIDGESTONE DRIVE","ORLANDO","FL","32835"
293556,"8001 CASTOR AVE","PHILADELPHIA","PA","19152"
293557,"8001 CASTOR AVENUE","PHILADELPHIA","PA","19152"
293558,"8001 CENTER PARK DRIVE ROOM 160","AUSTIN","TX","78754"
293559,"8001 CENTERVIEW PKWY STE 103","CORDOVA","TN","38018"
293560,"8001 CLARENDON DR","NEWPORT RICHEY","FL","34654"
293561,"8001 CLOUSE RD","NEW ALBANY","OH","43054"
293562,"8001 DENROCK AVENUE","LOS ANGELES","CA","90045"
293563,"8001 E 118TH TERR","KANSAS CITY","MO","64134"
293564,"8001 E 11TH AVE 2204","DENVER","CO","80220"
293565,"8001 E 11TH AVE APT 5308","DENVER","CO","80220"
293566,"8001 E FAIRMOUNT AVENUE","SCOTTSDALE","AZ","85251"
293567,"8001 EASTERN DRIVE SUITE 102","SILVER SPRING","MD","20910"
293568,"8001 FM 1850","BROWNWOOD","TX","76801"
293569,"8001 FOSTORIA RD","CLEVELAND","TX","77328"
293570,"8001 GEARY BLVD APT 4","SAN FRANCISCO","CA","94121"
293571,"8001 HANSOM DRIVE","OAKLAND","CA","94605"
293572,"8001 HARRODS LANDING DR","PROSPECT","KY","40059"
293573,"8001 IRVINE CENTER DRIVE STE 400","IRVINE","CA","92618"
293574,"8001 KLONDIKE ROAD","PENSACOLA","FL","32526"
293575,"8001 MABELVALE CUT OFF ROAD","MABELVALE","AR","72103"
293576,"8001 MIDCROWN DRIVE","SAN ANTONIO","TX","78218"
293577,"8001 MOUNTAIN RIDGE DRIVE","PLANO","TX","75025"
293578,"8001 N 36TH AVE","PHOENIX","AZ","85051"
293579,"8001 N DALE MABRY HWY/ SUITE 701","TAMPA","FL","33614"
293580,"8001 NEW ENGLAND PARKWAY","AMARILLO","TX","79119"
293581,"8001 NORTH MESA SUITE 261","EL PASO","TX","79932"
293582,"8001 NW 3RD PLACE","MARGATE","FL","33063"
293583,"8001 NW 50TH ST","OKLAHOMA CITY","OK","73132"
293584,"8001 NW 7TH STREET APT 4","MIAMI","FL","33126"
293585,"8001 OLD RIVER ROAD","BAKERSFIELD","CA","93311"
293586,"8001 PATS PLACE","FORT WASHINGTON","MD","20744"
293587,"8001 PIKEWOOD FIELD WAY","LOUISVILLE","KY","40219"
293588,"8001 S ARAGON BLVD UNIT 2","SUNRISE","FL","33322"
293589,"8001 S CAGE BLVD","PHARR","TX","78577"
293590,"8001 S CIMARRON RD","MUSTANG","OK","73064"
293591,"8001 S WOLCOTT AVENUE","CHICAGO","IL","60620"
293592,"8001 SAN MATEO CIRCLE","BUENA PARK","CA","90620"
293593,"8001 SAN MIGUEL CANYON RD NUM 151","SALINAS","CA","93907"
293594,"8001 SANDPOINT WAY NE C33","SEATTLE","WA","98115"
293595,"8001 SHIN OAK","LIVE OAK","TX","78233"
293596,"8001 SOMERSET BLVD STE 140","PARAMOUNT","CA","90723"
293597,"8001 TYLERTON DRIVE","RALEIGH","NC","27613"
293598,"8001 VINE CREST AVENUE SUITE 7","LOUISVILLE","KY","40222"
293599,"8001 W TIDWELL 1814","HOUSTON","TX","77040"
293600,"8001 WOODWAY OAK CIRCLE 411","MATTHEWS","NC","28105"
293601,"8001E N MESA ST - SUITE 252","EL PASO","TX","79932"
293602,"8002 165TH ST","JAMAICA","NY","11432"
293603,"8002 ASHBORO COURT","CHEVY CHASE","MD","20815"
293604,"8002 BELCHASE WAY","ARLINGTON","TX","76001"
293605,"8002 CARNATION DR","LOUISVILLE","KY","40258"
293606,"8002 CRESTWAY DRIVE","INDIANAPOLS","IN","46236"
293607,"8002 HAMMERLY BLVD","HOUSTON","TX","77055"
293608,"8002 IMPERIAL PLAZA DRIVE","FORT WAYNE","IN","46835"
293609,"8002 NE 151ST CT","VANCOUVER","WA","98682"
293610,"8002 RANCHVALE LANE","ARLINGTON","TX","76002"
293611,"8002 RAWLES AV","INDIANAPOLIS","IN","46219"
293612,"8002 SHADY LAKE CT","FORT WAYNE","IN","46804"
293613,"8002 TAMARRON DR","PLAINSBORO","NJ","08536"
293614,"8002 WATTS RD","MADISON","WI","53719"
293615,"8003 GAELIC DRIVE","FAYETTEVILLE","MD","28306"
293616,"8003 GALL RD","WATERLOO","IL","62298"
293617,"8003 HUNTSMAN TRAIL","LOUISVILLE","KY","40291"
293618,"8003 IVY BUSH BEND LN","RICHMOND","TX","77407"
293619,"8003 JONATHAN DR","OOLTEWAH","TN","37363"
293620,"8003 N 600 W","LAKE VILLAGE","IN","46349"
293621,"8003 OAT CHASE LANE","BOWIE","MD","20715"
293622,"8003 OLD HAGERSTOWN ROAD","MIDDLETOWN","MD","21769"
293623,"8003 STILLMIST DR","FAIRBURN","GA","30213"
293624,"8003 SW 120TH STREET","MIAMI","FL","33156"
293625,"8003","KANSAS CITY","MO","64134"
293626,"8004 ALAMOSA WOOD AVE","RUSKIN","FL","33573"
293627,"8004 ASHBY CT","PLANO","TX","75025"
293628,"8004 BORDEN SPRINGS COVE","AUSTIN","TX","78717"
293629,"8004 BROADLAWN DRIVE","PITTSBURGH","PA","15237"
293630,"8004 CASTLE PEAK TRAIL","AUSTIN","TX","78726"
293631,"8004 CHURCH STREET","NEEDVILLE","TX","77461"
293632,"8004 DENTON HIGHWAY STE 128","WATAUGA","TX","76148"
293633,"8004 EXPECTATION DR","SAN ANTONIO","TX","78254"
293634,"8004 GAELIC DR","FAYETTEVILLE","NC","28306"
293635,"8004 INDIANA AVE SUITE A-8","LUBBOCK","TX","79423"
293636,"8004 INDIGO CT","MOODY","AL","35004"
293637,"8004 MCGARRY TRL","CHARLOTTE","NC","28214"
293638,"8004 NW 154 ST","MIAMI LAKES","FL","33016"
293639,"8004 NW 154 STREET  NUM 157","MIAMI LAKES","FL","33016"
293640,"8004 NW 154TH STREET - SUITE 413","MIAMI LAKES","FL","33016"
293641,"8004 NW 154TH STREET SUITE 653","MIAMI LAKES","FL","33016"
293642,"8005 E SOARING EAGLE WAY","SCOTTSDALE","AZ","85266"
293643,"8005 EDENMORE LN","ROWLETT","TX","75089"
293644,"8005 EDGEMONT ROAD","GREERS FERRY","AR","72067"
293645,"8005 FLOWER AVENUE","SILVER SPRING","MD","20912"
293646,"8005 GREYSTONE GREEN","BIRMINGHAM","AL","35242"
293647,"8005 HARPER VALLEY ST","SAN ANTONIO","TX","78233"
293648,"8005 HOOPER AVE","BAKERSFIELD","CA","93308"
293649,"8005 KENTBURY DRIVE","BETHESDA","MD","20814"
293650,"8005 LAKENHEATH WAY","POTOMAC","MD","20854"
293651,"8005 LAKESIDE WAY","FORT PIERCE","FL","34951"
293652,"8005 MEADOWSWEET TRCE","ROSWELL","GA","30076"
293653,"8005 MILEY ST","HOUSTON","TX","77028"
293654,"8005 NW 18TH COURT","MIAMI","FL","33147"
293655,"8005 PARKLANE CT","SPRINGFIELD","VA","22153"
293656,"8005 S KIMBARK AVE","CHICAGO","IL","60619"
293657,"8005 SAWYER ROAD","DARIEN","IL","60561"
293658,"8005 SCOTTSDALE DRIVE","SACRAMENTO","CA","95828"
293659,"8005 SHARK DR","MARATHON","FL","33050"
293660,"8005 SLATE CREEK CT","AUSTIN","TX","78717"
293661,"8005 SW CEDAR ST  APT 65","PORTLAND","OR","97225"
293662,"8005 WALNUT KNOLL LANE","RICHMOND","VA","23229"
293663,"8005 WYNEWOOD DRIVE","RALEIGH","NC","27616"
293664,"8006 BLACK GUM COURT","CLINTON","MD","20748"
293665,"8006 EAST PARKSIDE COURT","BOARDMAN","OH","44512"
293666,"8006 ECLIPSE BEND","SAN ANTONIO","TX","78252"
293667,"8006 EYRE ST","PORT ARTHUR","TX","77642"
293668,"8006 GAMBOGE COURT","ORLANDO","FL","32822"
293669,"8006 GOSSAMER DR","FAIRBURN","GA","30213"
293670,"8006 JENNIFER RIDGE PLACE","LOUISVILLE","KY","40258"
293671,"8006 KARR STREET","CHATTANOOGA","TN","37421"
293672,"8006 LANHAM LN","HOUSTON","TX","77075"
293673,"8006 RANCHVALE LN","ARLINGTON","TX","76002"
293674,"8006 ROOS RD","HOUSTON","TX","77036"
293675,"8006 S AVENIDA DEL YAQUI","GUADALUPE","AZ","85283"
293676,"8006 S PHILLIPS AVE","CHICAGO","IL","60617"
293677,"8006 SINFONIA DRIVE","HOUSTON","TX","77040"
293678,"8006 W ENTIAT PLACE","KENNEWICK","WA","99336"
293679,"8007 BASS LAKE RD SUITE B302","NEW HOPE","MN","55428"
293680,"8007 BEACON AVE S","SEATTLE","WA","98118"
293681,"8007 BROADLEAF AVE","PANORAMA CITY","CA","91402"
293682,"8007 CLASSIC DR","JONESBORO","GA","30236"
293683,"8007 OLD MONTGOMERY RD","ELLICOTT CITY","MD","21043"
293684,"8007 RODNEY STREET","PHILADELPHIA","PA","19150"
293685,"8007 TEXRIDGE DR","DALLAS","TX","75232"
293686,"8007 WEEPING WILLOW PLACE","MISSOURI CITY","TX","77459"
293687,"8007 WINDSOR MILL ROAD","WINDSOR MILL","MD","21244"
293688,"800718","SANTA CLARITA","CA","91380"
293689,"800743","SANTA CLARITA","CA","91380"
293690,"8008 83RD ST NW","MAPLE LAKE","MN","55358"
293691,"8008 83RD STREET","MAPLE LAKE","MN","55358"
293692,"8008 BATTERSEA PLACE","SEVERN","MD","21144"
293693,"8008 CANTON AVE","ST. LOUIS","MO","63130"
293694,"8008 CHESTNUT AVE","KANSAS CITY","MO","64132"
293695,"8008 GOLDEN AVENUE","CLEVELAND","OH","44103"
293696,"8008 LONE OAK DR","NORTH RICHLAND HILLS","TX","76182"
293697,"8008 PEBBLE ROAD","NIWOT","CO","80503"
293698,"8008 ROUTE 130 STE 310","DELRAN","NJ","08075"
293699,"8008 SHIP ST","CHARLOTTE","NC","28269"
293700,"8008 W 34TH ST LOT 5","LUBBOCK","TX","79407"
293701,"8008 W STRONG STREET","NORRIDGE","IL","60706"
293702,"8008 WILDWOOD LN","WHITE LAKE","MI","48386"
293703,"8008 WOODBURY RD","LAINGSBURG","MI","48848"
293704,"8008 WOODBURY ROAD","LAINGSBURG","MI","48848"
293705,"80085 GALLATIN ROAD UNIT C","BOZEMAN","MT","59718"
293706,"80085","TOLEDO","OH","43608"
293707,"8009 16TH STREET NW","WASHINGTON","DC","20012"
293708,"8009 CRADDOCK ROAD","GREENBELT","MD","20770"
293709,"8009 GEORGIA HIGHWAY 208","WAVERLY HALL","GA","31831"
293710,"8009 GOLDEN OAKS RD","OKLAHOMA CITY","OK","73127"
293711,"8009 HUNLEY RIDGE ROAD","MATTHEWS","NC","28104"
293712,"8009 MAXINE ST","PICO RIVERA","CA","90660"
293713,"8009 MILLS ST","HOLTON","MI","49425"
293714,"8009 MINERAL SPRINGS CT","PLANO","TX","75025"
293715,"8009 N 56 DRIVE","GLENDALE","AZ","85302"
293716,"8009 N WILDWOOD CT","MUNCIE","IN","47303"
293717,"8009 RIDGEVIEW DRIVE","DES MOINES","IA","50320"
293718,"8009 S PEACH CIRCLE","BROKEN ARROW","OK","74011"
293719,"8009 SCHROERING DRIVE","LOUISVILLE","KY","40291"
293720,"8009 SOUTH RED HILL CIRCLE","SIOUX FALLS","SD","57108"
293721,"8009 STONEHAVEN LANE","ROWLETT","TX","75089"
293722,"8009 WOODRUFF RD","CINCINNATI","OH","45255"
293723,"801  BLAIR AVE","ALTON","IL","62002"
293724,"801 11TH AVE SW","MINOT","ND","58701"
293725,"801 12TH STREET","CLOQUET","MN","55720"
293726,"801 15TH ST S APT 311","ARLINGTON","VA","22202"
293727,"801 17TH AVE N","FARGO","ND","58102"
293728,"801 18TH AVE NORTH","JACKSONVILLE BEACH","FL","32250"
293729,"801 20TH STREET","PORT ST JOE","FL","32456"
293730,"801 228TH AVE SE","SAMMAMISH","WA","98075"
293731,"801 22ND AVE E","WEST FARGO","ND","58078"
293732,"801 22ND AVE NW","NEW BRIGHTON","MN","55112"
293733,"801 2ND AVE SUITE 800","SEATTLE","WA","98104"
293734,"801 6TH ST","CHARLESTON","WV","25302"
293735,"801 8TH STREET","WEST PALM BEACH","FL","33401"
293736,"801 ABERDEEN COVE","MADISON","MS","39110"
293737,"801 ADLAI STEVENSON DR","SPRINGFIELD","IL","62703"
293738,"801 ALLEN AVENUE   APARTMENT 3","ROANOKE RAPIDS","NC","27870"
293739,"801 ALMA STREET UNIT 313","PALO ALTO","CA","94301"
293740,"801 ASH AVENUE APT 1","LINDSAY","CA","93247"
293741,"801 ASHLAND","HICKMAN","TN","42050"
293742,"801 ASHWOOD DRIVE","VENETIA","PA","15367"
293743,"801 AVONDALE AVE APT 6","ORLANDO","FL","32805"
293744,"801 B SOUTH WARNOCK STREET","PHILADELPHIA","PA","19147"
293745,"801 BAILEY DR","SEBASTIAN","FL","32958"
293746,"801 BANTAM WAY","PETALUMA","CA","94952"
293747,"801 BB KING ROAD","INDIANOLA","MS","38751"
293748,"801 BENNETT AVE UNIT C","LONG BEACH","CA","90804"
293749,"801 BOBOLINK COURT","SLIDELL","LA","70461"
293750,"801 BRICKELL AVE SUITE1970","MIAMI","FL","33131"
293751,"801 BRICKELL AVENUE","MIAMI","FL","33131"
293752,"801 BRICKELL BAY DR 1867","MIAMI","FL","33131"
293753,"801 BRICKELL BAY DRIVE SUITE 1870","MIAMI","FL","33131"
293754,"801 BROAD STREET - 6TH FLOOR","CHATTANOOGA","TN","37402"
293755,"801 BUSSERON ST","VINCENNES","IN","47591"
293756,"801 CAMPUS DRIVE","FOND DU LAC","WI","54935"
293757,"801 CARLISLE ST","RALEIGH","NC","27610"
293758,"801 CARR AVENUE","HOMEWOOD","AL","35209"
293759,"801 CAUBLESTONE HILL DRIVE","ARGYLE","TX","76226"
293760,"801 CEDAR BLUFF ROAD BLDG A","CENTRE","AL","35960"
293761,"801 CHASE STREET BOX 8","ANNAPOLIS","MD","21401"
293762,"801 CLARERIDGE LN","CENTERVILLE","OH","45458"
293763,"801 CLEARVIEW AVENUE","PITTSBURGH","PA","15205"
293764,"801 CLEARWATER DRIVE","PAPILLION","NE","68046"
293765,"801 CLIPPER GAP ROAD","AUBURN","CA","95603"
293766,"801 COLBY AVE","TAKOMA PARK","MD","20912"
293767,"801 COMMERCE STREET","SINKING SPRING","PA","19608"
293768,"801 COONEY STREET","DUNMORE","PA","18512"
293769,"801 CORONADO","ODESSA","TX","79763"
293770,"801 CORPORATE CENTER DR STE 110","RALEIGH","NC","27607"
293771,"801 COUNTY ROAD 3530","CLIFTON","TX","76634"
293772,"801 COUNTY ROAD 605","JACKSON","MO","63755"
293773,"801 CRAWFORD RD","ROCK HILL","SC","29730"
293774,"801 CROCKETT ST","SHREVEPORT","LA","71101"
293775,"801 DALE DR","LINCOLN","NE","68510"
293776,"801 DANISH DR","GRAND PRAIRIE","TX","75050"
293777,"801 DARTMOUTH AVENUE","FIRCREST","WA","98466"
293778,"801 DEL RIO WAY STE 204","MERRITT ISLAND","FL","32953"
293779,"801 DELLWOOD ST STE 100 PMB 306","BRYAN","TX","77802"
293780,"801 DELLWOOD ST UNIT 337","BRYAN","TX","77802"
293781,"801 DISCOVERY BLVD","SHELBYVILLE","KY","40065"
293782,"801 DODDS AVENUE","CHATTANOOGA","TN","37404"
293783,"801 DOE RUN ROAD","EAST FALLOWFIELD","PA","19320"
293784,"801 DRIPPING SPRINGS RANCH ROAD","DRIPPING SPRINGS","TX","78620"
293785,"801 DUTCH ST","DOTHAN","AL","36301"
293786,"801 E 10TH STREET","EUDORA","KS","66025"
293787,"801 E 3RD","PORT CLINTON","OH","43452"
293788,"801 E CANTON RD","EDINBURG","TX","78539"
293789,"801 E CANTON ROAD","EDINBURG","TX","78539"
293790,"801 E CANTON","EDINBURG","TX","78539"
293791,"801 E CITRUS AVE","EUSTIS","FL","32726"
293792,"801 E DOUGLAS AVE","WICHITA","KS","67202"
293793,"801 E HIBISCUS BLVD SUITE 1","MELBOURNE","FL","32901"
293794,"801 E HOUSTON ST","GARRETT","IN","46738"
293795,"801 E JACKSON ST","EL CAMPO","TX","77437"
293796,"801 E JOE E BROWN AVENUE","HOLGATE","OH","43527"
293797,"801 E MAIN ST","MOLALLA","OR","97038"
293798,"801 E MOREHEAD ST STE 105 UNIT 3317","CHARLOTTE","NC","28202"
293799,"801 E MULBERRY ST","FORT BRANCH","IN","47648"
293800,"801 E WOODCROFT PARKWAY APT 1903","DURHAM","NC","27713"
293801,"801 E WOODCROFT PKWY APT 2232","DURHAM","NC","27713"
293802,"801 EAST 222ND STREET SUITE 1","BRONX","NY","10467"
293803,"801 EAST BEAVER AVENUE","FORT MORGAN","CO","80701"
293804,"801 EAST CANTON","EDINBURG","TX","78539"
293805,"801 EAST LA RUA ST","PENSACOLA","FL","32501"
293806,"801 EAST LINCOLN AVENUE - PO BOX 87","OLIVIA","MN","56277"
293807,"801 EAST MOREHEAD ST 108","CHARLOTTE","NC","28202"
293808,"801 EAST MOREHEAD ST SUITE 105-3141","CHARLOTTE","NC","28202"
293809,"801 EAST NAYLOR MILL ROAD","SALISBURY","MD","21804"
293810,"801 EAST WASHINGTON STREET UNIT 101","LOUISVILLE","KY","40206"
293811,"801 EL MARGARITA RD","YUBA CITY","CA","95993"
293812,"801 EL MARGARITA ROAD","YUBA CITY","CA","95993"
293813,"801 ELMWOOD ST","SHREVEPORT","LA","71104"
293814,"801 FARMCREST DR","CHARLOTTE","NC","28206"
293815,"801 FERNDALE BLVD","HIGH POINT","NC","27262"
293816,"801 FERRY STREET","DAYTON","OR","97114"
293817,"801 FIGUEROA ST","FOLSOM","CA","95630"
293818,"801 FM 1861","BEN WHEELER","TX","75754"
293819,"801 FOXHOLLOW ROAD","EASTLAND","TX","76448"
293820,"801 FOXPOINTE CIRCLE","DELRAY BEACH","FL","33445"
293821,"801 FRONTAGE RD APT 303","OXFORD","MS","38655"
293822,"801 GLENHAVEN ROAD","RICHMOND","VA","23236"
293823,"801 GRAND AVENUE SUITE 3700","DES MOINES","IA","50317"
293824,"801 GREY GOOSE LANE","WEST LAFAYETTE","IN","47906"
293825,"801 HALE ST","BEVERLY","MA","01915"
293826,"801 HALE STREET","BEVERLY","MA","01915"
293827,"801 HAMILTON ST","REDWOOD CITY","CA","94063"
293828,"801 HANGAR LANE","NASHVILLE","TN","37217"
293829,"801 HANNA ROAD","BALLWIN","MO","63021"
293830,"801 HANNA ROAD","MANCHESTER","MO","63011"
293831,"801 HARRISON AVE","LANCASTER","OH","43130"
293832,"801 HARSHMAN RD","RIVERSIDE","OH","45431"
293833,"801 HIGHLANDER AVE","LA HABRA","CA","90631"
293834,"801 HOLLY DRIVE","JONESBORO","LA","71251"
293835,"801 HOWARD STREET","BURLINGAME","CA","94010"
293836,"801 HOWARD STREET","SANDSTON","VA","23150"
293837,"801 JONES ST","EVELETH","MN","55734"
293838,"801 JONES STREET","EVELETH","MN","55734"
293839,"801 JORDAN LANE NW","HUNTSVILLE","AL","35816"
293840,"801 JORDAN STREET S","WILSON","NC","27893"
293841,"801 KAKALA ST APT 25","KAPOLEI","HI","96707"
293842,"801 KEY HIGHWAY - UNIT 233","BALTIMORE","MD","21230"
293843,"801 KEY HIGHWAY","BALTIMORE","MD","21230"
293844,"801 KEY HWY UNIT 433","BALTIMORE","MD","21230"
293845,"801 KOTTLE CIRCLE","DAYTONA BEACH","FL","32114"
293846,"801 LAURENCE DR","HEATH","TX","75032"
293847,"801 LEVERING AVE   UNIT 12","LOS ANGELES","CA","90024"
293848,"801 LINCOLN AVE","HARVEY","ND","58341"
293849,"801 LOCH ALSH AVENUE","FORT WASHINGTON","PA","19034"
293850,"801 LOCUST AVENUE","CONWAY","AR","72034"
293851,"801 MAIN STREET","ESSEXVILLE","MI","48732"
293852,"801 MAPLETON AVE","OAK PARK","IL","60302"
293853,"801 MAPLEWOOD DRIVE 22A","JUPITER","FL","33458"
293854,"801 MARTHA COURT","SLIDELL","LA","70458"
293855,"801 MARTIN LUTHER KING JR BLVD","FARRELL","PA","16121"
293856,"801 MCCULLOH STREET","BALTIMORE","MD","21202"
293857,"801 MELODY COURT LEESBURG VA 20175","LEESBURG","VA","20175"
293858,"801 MERE POINT RD","BRUNSWICK","ME","04011"
293859,"801 MINNETONKA MILLS ROAD","HOPKINS","MN","55343"
293860,"801 MONTEREY ST STE 204","CORAL GABLES","FL","33134"
293861,"801 MONTICELLO AVE","CHARLOTTESVILL","VA","22902"
293862,"801 N 14TH AVE","HOLLYWOOD","FL","33020"
293863,"801 N 1ST STREET","SELAH","WA","98942"
293864,"801 N 2ND AVE","PHOENIX","AZ","85003"
293865,"801 N BROADWAY ST","GREENFIELD","IN","46140"
293866,"801 N BRYAN RD","MISSION","TX","78572"
293867,"801 N CONGRESS AVE SUITE 377","BOYNTON BEACH","FL","33426"
293868,"801 N COUNTY ROAD 1450","LUBBOCK","TX","79416"
293869,"801 N CURTIS STREET","PEA RIDGE","AR","72751"
293870,"801 N FALLON CT","HAMPTON","VA","23661"
293871,"801 N FEDERAL STREET APT 2017","CHANDLER","AZ","85226"
293872,"801 N FOREST HILLS SCHOOL RD","MARSHVILLE","NC","28103"
293873,"801 N HOWARD STREET","BALTIMORE","MD","21201"
293874,"801 N JOHNSON ST","KENNEWICK","WA","99336"
293875,"801 N LINCOLN ST","WAMEGO","KS","66547"
293876,"801 N PARKVIEW CIR","MOORE","OK","73170"
293877,"801 N PERRYVILLE ROAD","ROCKFORD","IL","61107"
293878,"801 N PETERS AVE","NORMAN","OK","73069"
293879,"801 N RODNEY STREET","HELENA","MT","59601"
293880,"801 N TROOST ST","OLATHE","KS","66061"
293881,"801 N WAKEFIELD ST APT 418","ARLINGTON","VA","22203"
293882,"801 NAOMI STREET UNIT 611","WAYCROSS","GA","31501"
293883,"801 NATOMA ST","FOLSOM","CA","95630"
293884,"801 NICOLE COURT","WEST LINN","OR","97068"
293885,"801 NORTH 28TH AVENUE UNIT 37","HATTIESBURG","MS","39401"
293886,"801 NORTH 8TH ST","MILLVILLE","NJ","08332"
293887,"801 NORTH CLEVELAND AVE","LOVELAND","CO","80537"
293888,"801 NORTH FIFTEENTH STREET","ALLENTOWN","PA","18102"
293889,"801 NORTHPOINT PKWY SUITE 102","WEST PALM BEACH","FL","33407"
293890,"801 NORTHWAY DR 140382","ANCHORAGE","AK","99508"
293891,"801 NW 114TH ST","OKLAHOMA CITY","OK","73114"
293892,"801 NW 3RD AVE 302","MIAMI","FL","33136"
293893,"801 NW AVE M","ANDREWS","TX","79714"
293894,"801 NW WESTWOOD ST","ANKENY","IA","50023"
293895,"801 OATLAND RD","GEORGETOWN","SC","29440"
293896,"801 OHIO AVE","WICHITA FALLS","TX","76301"
293897,"801 OLIVE STREET SUITE 2112","LOS ANGELES","CA","90014"
293898,"801 PALMETTO STREET","SPARTANBURG","SC","29302"
293899,"801 PARK CENTRAL ST","RICHMOND","CA","94803"
293900,"801 PLEASANT VALLEY ROAD","WOODLAND","GA","31836"
293901,"801 PRIMROSE LANE","JEFFERSON CITY","MO","65109"
293902,"801 RAGLAND DR","CEDAR HILL","TX","75104"
293903,"801 RAINBOW RIDGE WAY","MADISON","AL","35758"
293904,"801 RANGE ROAD","MARYSVILLE","MI","48040"
293905,"801 READ SCHOOL HOUSE RD","COVENTRY","RI","02816"
293906,"801 REYNOLDS AVENUE","GREENWOOD","SC","29649"
293907,"801 RIDGE DRIVE","MCLEAN","VA","22101"
293908,"801 RIVER RD APT 274","SAN MARCOS","TX","78666"
293909,"801 RIVERFRONT PARKWAY","CHATTANOOGA","TN","37402"
293910,"801 RIVERSIDE BLVD","NORFOLK","NE","68701"
293911,"801 RIVERWOOD ROAD","CHARLOTTE","NC","28270"
293912,"801 ROSELD AVE","OCEAN","NJ","07712"
293913,"801 ROUTE 1","ISELIN","NJ","08830"
293914,"801 S 34TH AVE","YAKIMA","WA","98902"
293915,"801 S 3RD ST","HAMILTON","MT","59840"
293916,"801 S 48TH ST","PHILADELPHIA","PA","19143"
293917,"801 S BOWEN RD SUITE A","ARLINGTON","TX","76013"
293918,"801 S BRADDOCK AVE","PITTSBURGH","PA","15221"
293919,"801 S ELLIS ST","GROESBECK","TX","76642"
293920,"801 S ELM ST","SEARCY","AR","72143"
293921,"801 S F STREET","LAKE WORTH","FL","33460"
293922,"801 S FINANCIAL PLACE APT 1317","CHICAGO","IL","60605"
293923,"801 S FRONT ST","CATOOSA","OK","74015"
293924,"801 S GARFIELD NUMBER 129","TRAVERSE CITY","MI","49686"
293925,"801 S GRAND AVE UNIT 425","LOS ANGELES","CA","90017"
293926,"801 S GREENVILLE AVE STE 108","ALLEN","TX","75002"
293927,"801 S MAIN STREET APT 118","MOUNT HOLLY","NC","28120"
293928,"801 S MAIN STREET","LAMOILLE","IL","61330"
293929,"801 S POLK ST APT 918","DESOTO","TX","75115"
293930,"801 S RANCHO DRIVE STE A2 ROOM 3","LAS VEGAS","NV","89106"
293931,"801 S RAYMOND AVE","PASADENA","CA","91105"
293932,"801 S SAMPSON AVENUE","DUNN","NC","28334"
293933,"801 S VICTORIA AVE SUITE 100","VENTURA","CA","93003"
293934,"801 SAN ANGELO HWY","BRADY","TX","76825"
293935,"801 SANTA FE DRIVE","WEATHERFORD","TX","76086"
293936,"801 SE 35TH STREET","MOORE","OK","73160"
293937,"801 SEAFARER CIRCLE APT 106","JUPITER","FL","33477"
293938,"801 SECOND AVE C/O ZETLIN DE CHIARA","NEW YORK","NY","10017"
293939,"801 SHENANDOAH AVE","ROANOKE","VA","24016"
293940,"801 SIENA SPRINGS DRIVE","NORMAN","OK","73071"
293941,"801 SIENNA DRIVE","SCHAUMBURG","IL","60193"
293942,"801 SIR JAMES BRIDGE","LAS VEGAS","NV","89145"
293943,"801 SOUTH BRANCH STRETT","MONROE","NC","28112"
293944,"801 SOUTH BROADWAY","HICKSVILLE","NY","11801"
293945,"801 SOUTH CHURCH ST STE 12","MT LAUREL","NJ","08054"
293946,"801 SOUTH CLEVELAND","DAYTON","TX","77535"
293947,"801 SOUTH DRIVE","BALDWIN","NY","11510"
293948,"801 SOUTH FEDERAL HIGHWAY PH9","POMPANO BEACH","FL","33062"
293949,"801 SOUTH MAIN STREET","WILLISTON","FL","32696"
293950,"801 SOUTH MANFRED ST","DURAND","MI","48429"
293951,"801 SOUTH POLK STREET APT 721","DESOTO","TX","75115"
293952,"801 SOUTH POLK STREET","DESOTO","TX","75115"
293953,"801 SOUTH WOODLAWN STE 30","OFALLON","MO","63366"
293954,"801 SOUTHWEST  A  STREET","RICHMOND","IN","47374"
293955,"801 SPRING LAKE DR","BEDFORD","TX","76021"
293956,"801 STADIUM DR","DURHAM","NC","27704"
293957,"801 SURBAN DRIVE","BIRMINGHAM","AL","35214"
293958,"801 SW 14TH TERRACE APT 1","FORT LAUDERDALE","FL","33312"
293959,"801 TALBOT ST","KELLER","TX","76248"
293960,"801 TAWAKONI DRIVE","WILLS POINT","TX","75169"
293961,"801 TETON TRAIL","FRANKFORT","KY","40601"
293962,"801 TEXAS AVE 1ST FLOOR","EL PASO","TX","79901"
293963,"801 THOMAS RD","POTEET","TX","78065"
293964,"801 TITAN PEAK PL UNIT 206","LAS VEGAS","NV","89144"
293965,"801 TOLL HOUSE AVE D1","FREDERICK","MD","21701"
293966,"801 UNIVERSITY AVE","DES MOINES","IA","50314"
293967,"801 UNIVERSITY AVENUE UNIT 3","DES MOINES","IA","50314"
293968,"801 UNIVERSITY BLVD SE SUITE 307","ALBUQUERQUE","NM","87106"
293969,"801 VANCE STREET","TAYLOR","TX","76574"
293970,"801 VIA MANZANAS","SAN LORENZO","CA","94580"
293971,"801 W  GARNER ROAD","GARNER","NC","27529"
293972,"801 W 9TH ST APT 2","WILMINGTON","DE","19801"
293973,"801 W ARLINGTON STREET","BANGOR","MI","49013"
293974,"801 W AVENUE D","GARLAND","TX","75040"
293975,"801 W COVINA BLVD SPC 169","SAN DIMAS","CA","91773"
293976,"801 W GRAND AVE","OAKLAND","CA","94607"
293977,"801 W HIGHLANDER AVE","LA HABRA","CA","90631"
293978,"801 W KENSINGTON RD","MOUNT PROSPECT","IL","60056"
293979,"801 W MAIN ST","ODESSA","MO","64076"
293980,"801 W OREGON ST APT 9","URBANA","IL","61801"
293981,"801 W RIVERSIDE AVE","SPOKANE","WA","99201"
293982,"801 W STOUT STREET APT 8","CHETEK","WI","54728"
293983,"801 WALKER LANE","SPRINGFIELD","KY","40069"
293984,"801 WALLER STREET","PORTSMOUTH","OH","45662"
293985,"801 WASHINGTON AVENUE NORTH 100","MINNEAPOLIS","MN","55401"
293986,"801 WAYNE AVE SUITE 400","SILVER SPRING","MD","20910"
293987,"801 WAYNE AVENUE SUITE 202","SILVER SPRING","MD","20910"
293988,"801 WESLEY","KNOXVILLE","TN","37909"
293989,"801 WEST BAY DR SUITE 318","LARGO","FL","33770"
293990,"801 WEST BAY DRIVE","LARGO","FL","33770"
293991,"801 WEST EAGLE RIDGE STREET","SIOUX FALLS","SD","57108"
293992,"801 WEST KENSINGTON ROAD","MOUNT PROSPECT","IL","60056"
293993,"801 WEST MADISON STREET","WATERLOO","WI","53594"
293994,"801 WEST MAIN ST","ROCHESTER","IL","62563"
293995,"801 WEST MAIN STREET","HILL CITY","KS","67642"
293996,"801 WEST PINESTEAD ROAD","PENSACOLA","FL","32505"
293997,"801 WILLOWEDGE COURT","KNIGHTDALE","NC","27545"
293998,"801 WILLOWMIST CT","CARY","NC","27519"
293999,"801 WITHERSPOON CT","MCDONOUGH","GA","30253"
294000,"801 WOODS RD","SOLVAY","NY","13209"
