"ID","Address","City","State","Zip"
291501,"7916 14TH AVENUE SOUTHWEST","SEATTLE","WA","98106"
291502,"7916 ARBOR GLEN COURT","RICHMOND","VA","23227"
291503,"7916 CIRCLE ROAD","WHALEYVILLE","MD","21872"
291504,"7916 DAHLIA AVE","TAMPA","FL","33619"
291505,"7916 DUNHILL VILLAGE CIRCLE APT 203","WINDSOR MILL","MD","21244"
291506,"7916 IVORY LANE","DALLAS","TX","75216"
291507,"7916 LONG BEACH BLVD","SOUTH GATE","CA","90280"
291508,"7916 NORTH WOODLYNNE AVENUE","TAMPA","FL","33614"
291509,"7916 RIVER FORK DR","NASHVILLE","TN","37221"
291510,"7916 S IRVINGTON AVE","TULSA","OK","74136"
291511,"7916 STEEPLECHASE DR","PALM BEACH GARDENS","FL","33418"
291512,"79168 DAVIDSON ROAD","FOLSOM","LA","70437"
291513,"7917 BRIGHTON SUMMIT AVENUE","LAS VEGAS","NV","89131"
291514,"7917 CHESTNUT","WESTLAND","MI","48185"
291515,"7917 E SOFTWIND DR","SCOTTSDALE","AZ","85255"
291516,"7917 HOLLINGTON PLACE","FAIRFAX STATION","VA","22039"
291517,"7917 PARKE WEST DRIVE","GLEN BURNIE","MD","21061"
291518,"7917 S 92ND EAST PL","TULSA","OK","74133"
291519,"7917 S CHAMPLAIN AVE","CHICAGO","IL","60619"
291520,"7917 S HARVARD STE 2F","CHICAGO","IL","60620"
291521,"7917 SOUTH 80TH EAST AVENUE","TULSA","OK","74133"
291522,"7917 W 140TH TER","OVERLAND PARK","KS","66223"
291523,"7917 WATERFALLS AVE","LAS VEGAS","NV","89128"
291524,"7917 WOODYARD ROAD","CLINTON","MD","20735"
291525,"7918 172ND PL  NE","ARLINGTON","WA","98223"
291526,"7918 BASS ST","NEW ORLEANS","LA","70170"
291527,"7918 BEECHNUT RD","CAPITAL HEIGHTS","MD","20743"
291528,"7918 EL CAJON BLVD STE N244","LA MESA","CA","91942"
291529,"7918 FIGG LN","HOUSTON","TX","77044"
291530,"7918 IVY BUSH BEND LN","RICHMOND","TX","77407"
291531,"7918 LINDSAY LANE","EDMOND","OK","73025"
291532,"7918 ROLLING MEADOWS LANE","HUNTERSVILLE","NC","28078"
291533,"7918 SCENIC CANYON LANE","HOUSTON","TX","77095"
291534,"7919 AVON LAKE ROAD","LODI","OH","44254"
291535,"7919 BELINDA LANE","PLANO","TX","75024"
291536,"7919 DARBY LANE","SEVERN","MD","21144"
291537,"7919 FLORADORA DRIVE","NEW PORT RICHEY","FL","34654"
291538,"7919 MANDAN RD 304","GREENBELT","MD","20770"
291539,"7919 N GLEN DR  4209","IRVING","TX","75063"
291540,"7919 NW 62ND WAY","PARKLAND","FL","33067"
291541,"7919 PORT CHARLES COURT","LAS VEGAS","NV","89149"
291542,"7919 S MERRILL AVENUE SUITE 2","CHICAGO","IL","60617"
291543,"7919 S SACRAMENTO AVE","CHICAGO","IL","60652"
291544,"792 ALBERTA DR","MCDONOUGH","GA","30252"
291545,"792 COLUMBUS AVE 14D","New York","NY","10025"
291546,"792 CONCORD LANE","BARRINGTON","IL","60010"
291547,"792 DEKALB AVENUE SUITE 3","BROOKLYN","NY","11221"
291548,"792 EAST CARL AVENUE","BALDWIN","NY","11510"
291549,"792 FIVE FORKS TRICKUM RD","LAWRENCEVILLE","GA","30046"
291550,"792 HARWELL RD","ATLANTA","GA","30318"
291551,"792 KRISTIN LN","WILLIAMSTOWN","NJ","08094"
291552,"792 LAURIE AVE","SANTA CLARA","CA","95054"
291553,"792 MAIDSTONE COURT","CINCINNATI","OH","45230"
291554,"792 MASSACHUSETTS AVENUE","ARLINGTON","MA","02476"
291555,"792 MOUNT AVENUE","WYANDANCH","NY","11798"
291556,"792 MOUNT MORIAH CHURCH ROAD","CLINTON","NC","28328"
291557,"792 NANNY BERRY LANE","CONCORD","NC","28025"
291558,"792 NORTH RESERVATION ROAD","SKOKOMISH","WA","98584"
291559,"792 OLD BERLIN RD","MOULTRIE","GA","31788"
291560,"792 STERLING PLACE UNIT 4D","BROOKLYN","NY","11216"
291561,"792 TENNEY AVE","CAMPBELL","OH","44405"
291562,"792 THURMAN AVE","COLUMBUS","OH","43206"
291563,"792 WEBSTER RD","WEBSTER","NY","14580"
291564,"7920 ACC BLVD STE 210","RALEIGH","NC","27617"
291565,"7920 BELT LINE RD STE 650","DALLAS","TX","75254"
291566,"7920 CREEKSIDE DR","DUBLIN","CA","94568"
291567,"7920 EWING AVE N","BROOKLYN PARK","MN","55443"
291568,"7920 FALLMEADOW LANE","DALLAS","TX","75248"
291569,"7920 GRIMSBY LANE","NEW PORT RICHEY","FL","34655"
291570,"7920 GUNN HIGHWAY","TAMPA","FL","33626"
291571,"7920 LAKE VALLEY COURT","ROWLETT","TX","75089"
291572,"7920 LASLEY FOREST ROAD","LEWISVILLE","NC","27023"
291573,"7920 LONGRIDGE COURT","CABIN JOHN","MD","20818"
291574,"7920 MERRILL ROAD APT 1001","JACKSONVILLE","FL","32277"
291575,"7920 N FOSS AVE","PORTLAND","OR","97203"
291576,"7920 PRESTON RD - SUITE 200","PLANO","TX","75024"
291577,"7920 PRESTON ROAD","PLANO","TX","75024"
291578,"7920 S 41ST LANE","LAVEEN","AZ","85339"
291579,"7920 S COLFAX AVE","CHICAGO","IL","60617"
291580,"7920 SIMON AVENUE","CLEVELAND","OH","44103"
291581,"7920 STATE HIGHWAY 27","NEWVILLE","AL","36353"
291582,"7920 TROOST AVENUE","KANSAS CITY","MO","64131"
291583,"7920 W BREDESEN CT","CRYSTAL RIVER","FL","34428"
291584,"7920 W SUNSET","ELMWOOD PARK","IL","60707"
291585,"7921 119TH CT SE","NEW CASTLE","WA","98056"
291586,"7921 153RD STREET SUITE 5","ORLAND PARK","IL","60462"
291587,"7921 54TH ST N","PINELLAS PARK","FL","33781"
291588,"7921 6TH AVENUE SOUTH","BIRMINGHAM","AL","35206"
291589,"7921 BEECHNUT ROAD","CAPITOL HEIGHTS","MD","20743"
291590,"7921 CHINCHILLA LANE","FORT WAYNE","IN","46816"
291591,"7921 DOE TRAIL WAY","ANTELOPE","CA","95843"
291592,"7921 FLORIDA BLVD","BATON ROUGE","LA","70806"
291593,"7921 HOG MOUNTAIN RD","STATHAM","GA","30666"
291594,"7921 MEADOW VALE DR","MEMPHIS","TN","38125"
291595,"7921 PURPLE MOUNTAIN AVE","LAS VEGAS","NV","89131"
291596,"7921 S WHEELING AVE APT 51F","TULSA","OK","74136"
291597,"7922 BILL REED RD","CHATTANOOGA","TN","37421"
291598,"7922 CADILLAC LANE","PHILADELPHIA","PA","19128"
291599,"7922 JACKSON PARK BLVD","WAUWATOSA","WI","53213"
291600,"7922 PICARDY AVENUE","BATON ROUGE","LA","70809"
291601,"7922 RIDGEMONT DR","NEWBURGH","IN","47630"
291602,"7922 S LUELLA","CHICAGO","IL","60617"
291603,"7922 SOUTHERN MARYLAND BLVD","OWINGS","MD","20736"
291604,"7922 SUMMERFERN CT","CYPRESS","TX","77433"
291605,"7922 TURNCREST DR","POTOMAC","MD","20854"
291606,"7922 WEST GOLF ROAD","PALOS HEIGHTS","IL","60463"
291607,"7923 CHANCEL DR","HOUSTON","TX","77071"
291608,"7923 CHERRY TREE DRIVE","FREDERICKSBURG","VA","22407"
291609,"7923 FLOWER AVENUE","TAMPA","FL","33619"
291610,"7923 HARRINGTON WOODS ROAD","CHARLOTTE","NC","28269"
291611,"7923 S PAXTON AVENUE","CHICAGO","IL","60617"
291612,"7923 SEDGEWICK PL","FORT WAYNE","IN","46835"
291613,"7923 WALKERS CAY AVE","ORLANDO","FL","32822"
291614,"7923 WARNER AVE STE J","HUNTINGTON BEACH","CA","92647"
291615,"7923 WARNER AVE SUITE J","HUNTINGTON BEACH","CA","92647"
291616,"7924 DILLON PLACE","INDIANAPOLIS","IN","46236"
291617,"7924 HAMILTON AVE","HASTINGS","FL","32145"
291618,"7924 MCCARRON WAY","CHARLOTTE","NC","28215"
291619,"7924 N GRANVILLE RD","MILWAUKEE","WI","53224"
291620,"7924 S LANGLEY AVENUE","CHICAGO","IL","60619"
291621,"7924 S RHODES / 2","CHICAGO","IL","60619"
291622,"7924 SW KELSO CT","TIGARD","OR","97224"
291623,"7925 2ND STREET","MASURY","OH","44438"
291624,"7925 CHURCH RD","ST LOUIS","MO","63147"
291625,"7925 E ACORN CT","ANAHEIM","CA","92808"
291626,"7925 KENTWAL","SACRAMENTO","CA","95823"
291627,"7925 N ORACLE STE 181","TUCSON","AZ","85704"
291628,"7925 N TRYON STREET 210","CHARLOTTE","NC","28262"
291629,"7925 NORTH ORACLE ROAD - 255A","TUCSON","AZ","85704"
291630,"7925 NW 12TH STREET","DORAL","FL","33126"
291631,"7925 NW 20TH STREET","PEMBROKE PINES","FL","33024"
291632,"7925 PENDLETON PIKES","INDIANAPOLIS","IN","46226"
291633,"7925 S CHAMPLAIN APT 1","CHICAGO","IL","60619"
291634,"7925 STONE CREEK DRIVE","CHANHASSEN","MN","55317"
291635,"7925 W RUSSELL RD 401062","LAS VEGAS","NV","89140"
291636,"7925 WEST RUSSELL RD 400994","LAS VEGAS","NV","89113"
291637,"7926 ALEXANDRIA PIKE","ALEXANDRIA","KY","41001"
291638,"7926 DUKES DYNASTY DRIVE","RALEIGH","NC","27615"
291639,"7926 MALONE STREET","DOUGLASVILLE","GA","30134"
291640,"7926 NW 103 LN","GRIMES","IA","50111"
291641,"7926 S CAMPBELL","CHICAGO","IL","60652"
291642,"7926 WINDSOR CT","DARIEN","IL","60561"
291643,"7926 WOODGROVE CIRCLE","TAMPA","FL","33615"
291644,"7927 INGERSOL STREET SUITE 150","NORFOLK","VA","23551"
291645,"7927 JACKSON ROAD","ALEXANDRIA","VA","22308"
291646,"7927 KNIGHT ROAD","HOUSTON","TX","77054"
291647,"7927 MONROE DR","ST LOUIS","MO","63133"
291648,"7927 S COLFAX AVE","CHICAGO","IL","60617"
291649,"7927 THORNAPPLE CLUB DR SE","ADA","MI","49301"
291650,"79273 RIDGEHAVEN ROAD","LANCASTER","SC","29720"
291651,"7928 CHARTER OAK LANE","CHARLOTTE","NC","28226"
291652,"7928 COUNTY ROAD 305","GRANDVIEW","TX","76050"
291653,"7928 FOUNTAIN AVE","WEST HOLLYWOOD","CA","90046"
291654,"7928 MARBELLA CIRCLE","LAS VEGAS","NV","89128"
291655,"7928 N MACARTHUR BLVD APT 3094","IRVING","TX","75063"
291656,"7928 NORTH MCARTHUR BLVD  3098","IRVING","TX","75063"
291657,"7928 OAKFIELD GROVE","BRENTWOOD","TN","37027"
291658,"7928 PEA RIDGE ROAD","LULA","GA","30554"
291659,"7928 PINE CROSSING CIR 416","ORLANDO","FL","32807"
291660,"7928 S ESCANABA","CHICAGO","IL","60617"
291661,"7928 S KING DR","CHICAGO","IL","60619"
291662,"7928 SECOND STREET","MASURY","OH","44438"
291663,"7929 WEST CLOVERNOOK STREET","MILWAUKEE","WI","53223"
291664,"792A SEARLS AVENUE","NEVADA CITY","CA","95959"
291665,"793 BOWLES AVENUE","FENTON","MO","63026"
291666,"793 CENTRE STREET","LEWISTON","NY","14092"
291667,"793 CONSIBURGH COURT","STONE MOUNTAIN","GA","30087"
291668,"793 CRAIG PARKWAY","NEWARK","OH","43055"
291669,"793 EAST MAIN STREET","WHITE SULPHUR SPRING","WV","24986"
291670,"793 FOUR SEASONS BLVD","AURORA","IL","60504"
291671,"793 FOURTH AVENUE APT 3L","BROOKLYN","NY","11232"
291672,"793 FOX HILLS WAY","MESQUITE","NV","89027"
291673,"793 GOSS RD","BLUEFIELD","VA","24605"
291674,"793 MOUNTAIN VIEW RUN","STONE MOUNTAIN","GA","30087"
291675,"793 PLANTATION BLVD","GALLATIN","TN","37066"
291676,"793 S TRACY BLVD  STE 345","TRACY","CA","95376"
291677,"793 S TRACY BLVD 290","TRACY","CA","95376"
291678,"793 SILVER SANDS DRIVE","CORDOVA","TN","38018"
291679,"793 SIR PATRICK DR","SALT LAKE CITY","UT","84116"
291680,"793 SOUTH  TRACY BLVD  269","TRACY","CA","95376"
291681,"793 SOUTH TRACY BLVD PMB 319","TRACY","CA","95376"
291682,"793 SOUTH TRACY BLVD SUITE 200","TRACY","CA","95376"
291683,"793 SOUTH TRACY BLVD SUITE 267","TRACY","CA","95376"
291684,"793 SPRING VALLEY PARKWAY","SPRING CREEK","NV","89815"
291685,"793 SPRINGDALE DR","MILLERSVILLE","MD","21108"
291686,"793 W UNION ST","ATHENS","OH","45701"
291687,"793 WEST MAPLE","CLYDE","OH","43410"
291688,"793 WOODCREST LOOP","CULPEPER","VA","22701"
291689,"793","PARISHVILLE","NY","13672"
291690,"7930 CROW CUT ROAD","FAIRVIEW","TN","37062"
291691,"7930 DOWD FARM RD","SPOTSYLVANIA","VA","22551"
291692,"7930 E CAMELBACK RD UNIT 504","SCOTTSDALE","AZ","85251"
291693,"7930 FAYETTE STREET","PHILADELPHIA","PA","19150"
291694,"7930 GLENARDEN PARKWAY SUITE 533","GLENARDEN","MD","20706"
291695,"7930 MEADOWCREEK DRIVE","CINCINNATI","OH","45244"
291696,"7930 NANNESTAD ST","ROSEMEAD","CA","91770"
291697,"7930 OGDEN AVENUE","LYONS","IL","60534"
291698,"7930 ORANGE PLANK RD","SPRINGFIELD","VA","22153"
291699,"7930 POPLAR PIKE","GERMANTOWN","TN","38138"
291700,"7930 S CALUMET AVE","CHICAGO","IL","60619"
291701,"7930 SUITER WAY","LANDOVER","MD","20785"
291702,"7930 W 26TH AVE","LAKEWOOD","CO","80214"
291703,"7930 WEST LAKEVIEW COURT","PALOS HEIGHTS","IL","60463"
291704,"7930 WOLFIELD LANE","HOUSTON","TX","77071"
291705,"7931 CENOTE DR","SAN ANTONIO","TX","78254"
291706,"7931 E PECOS RD STE 110","MESA","AZ","85212"
291707,"7931 EAST PECOS ROAD SUITE 122","MESA","AZ","85212"
291708,"7931 ETHEL STREET SUITE B","HOUSTON","TX","77028"
291709,"7931 S BROADWAY  STE 177","LITTLETON","CO","80122"
291710,"7931 S BROADWAY 291","LITTLETON","CO","80122"
291711,"7931 S EBERHART","CHICAGO","IL","60619"
291712,"7931 S ESCANABA","CHICAGO","IL","60617"
291713,"7931 THORNHILL","SHREVEPORT","LA","71106"
291714,"7931 W 55TH AVE STE 108","ARVADA","CO","80002"
291715,"7932 EAST SOLANO DRIVE","SCOTTSDALE","AZ","85250"
291716,"7932 FALCON STREET","JACKSONVILLE","FL","32244"
291717,"7932 FINCASTLE CT","SACRAMENTO","CA","95829"
291718,"7932 GREEN LANE","WYNCOTE","PA","19095"
291719,"7932 PINES BLVD","PEMBROKE PINES","FL","33024"
291720,"7932 S SAGINAW","CHICAGO","IL","60617"
291721,"7932 WISTAR WOODS CT","HENRICO","VA","23228"
291722,"7933 CALLE SAN FELIPE","CARLSBAD","CA","92009"
291723,"7933 COOLIDGE ST","NORWALK","IA","50211"
291724,"7933 EAST FARM ROAD 156","ROGERSVILLE","MO","65742"
291725,"7933 KIMBERLY LANE N","MAPLE GROVE","MN","55311"
291726,"7933 MOSSYCUP DRIVE","CHARLOTTE","NC","28215"
291727,"7933 RIVER ROAD","WAGGAMAN","LA","70094"
291728,"7933 ROBISON RD","BETHESDA","MD","20817"
291729,"7933 ROD LAVER AVE","BATON ROUGE","LA","70806"
291730,"7933 RODGERS RD","LODI","OH","44254"
291731,"7933 SPLINTERED OAK","SAN ANTONIO","TX","78233"
291732,"7933 VANALDEN AVE","RESEDA","CA","91335"
291733,"7933 W N 00S","SWAYZEE","IN","46986"
291734,"7934 CHIPPEWA STREET","BAYTOWN","TX","77521"
291735,"7934 HAWKSNEST TRAIL","LITHIA SPRINGS","GA","30122"
291736,"7934 VISHAL DR","CORPUS CHRISTI","TX","78414"
291737,"7935 AVIARA PLACE","SACRAMENTO","CA","95829"
291738,"7935 GRACE COURT","ROSENBERG","TX","77469"
291739,"7935 MAINLAND DR","SAN ANTONIO","TX","78250"
291740,"7935 RHODE ISLAND CIRCLE","BLOOMINGTON","MN","55438"
291741,"7935 S KEELER","CHICAGO","IL","60652"
291742,"7935 SW 184TH AVENUE","BEAVERTON","OR","97007"
291743,"7935 THREE NOTCH ROAD","MOBILE","AL","36619"
291744,"7935 US 60 EAST","MOREHEAD","KY","40351"
291745,"7936 E SANDIA CIRCLE","MESA","AZ","85207"
291746,"7936 LESTER AVE STE A","LEMON GROVE","CA","91945"
291747,"7936 MORLEY RD","MENTOR","OH","44060"
291748,"7936 N  MACARTHUR BLVD APT 2136","IRVING","TX","75063"
291749,"7936 SANTA MONICA BLVD","W HOLLYWOOD","CA","90046"
291750,"7936 WYOMING DR","FORT WORTH","TX","76131"
291751,"79369 HWY 1129","COVINGTON","LA","70435"
291752,"7937 ARTESIAN ROAD","SAN DIEGO","CA","92127"
291753,"7937 COOK JONES ROAD","WAYNESVILLE","OH","45068"
291754,"7937 CORNELL AVENUE","ST LOUIS","MI","63130"
291755,"7937 DAETWYLER DR","ORLANDO","FL","32812"
291756,"7937 N BROADWAY ST","KANSAS CITY","MO","64118"
291757,"7937 ROUTE 208","KNOX","PA","16232"
291758,"7937 SEAVIEW AVENUE","BROOKLYN","NY","11236"
291759,"7938 ANDASOL AVE","NORTHRIDGE","CA","91325"
291760,"7938 BENJAMIN DRIVE","LAKELAND","FL","33805"
291761,"7938 BENJAMIN DRIVE","LAKELAND","FL","33810"
291762,"7938 BROADWAY UNIT 947","LEMON GROVE","CA","91946"
291763,"7938 DAVIS ST","MORTON GROVE","IL","60053"
291764,"7938 VANITY FAIR DRIVE","GREENBELT","MD","20770"
291765,"7938 W LYNCHBURG SALEM TURNPIKE","THAXTON","VA","24174"
291766,"7938 WINDERMERE DR","FAIR OAKS RANCH","TX","78015"
291767,"7939 4TH STREET NW","LOS RANCHOS","NM","87114"
291768,"7939 E GOLF AVE","MESA","AZ","85209"
291769,"7939 SW 56TH AVE","PORTLAND","OR","97219"
291770,"7939 TOWNSEND DRIVE","RIVERSIDE","CA","92509"
291771,"794 24TH AVENUE N","ST PETERSBURG","FL","33704"
291772,"794 BARTRAM AVENUE","CONCORD","NC","28025"
291773,"794 CAMINO LOS ABUELOS","GALISTEO","NM","87540"
291774,"794 DUFFIELD DR NW","ATLANTA","GA","30318"
291775,"794 E RAINES ROAD","MEMPHIS","TN","38166"
291776,"794 EASTLAND DR","TWIN FALLS","ID","83301"
291777,"794 GENERATIONS STE 100","NEW BRAUNFELS","TX","78130"
291778,"794 GLENDALE COURTY","CRESCENT SPRINGS","KY","41017"
291779,"794 HIGHLAND MANOR COURT","HOOVER","AL","35226"
291780,"794 JOHNSON CIR","WINSTON-SALEM","NC","27101"
291781,"794 LAFAYETTE AVENUE","HAWTHORNE","NJ","07506"
291782,"794 LAKE FLOYD CIRCLE","BRISTOL","WV","26426"
291783,"794 LAMOILLE HIGHWAY","LAMOILLE","NV","89828"
291784,"794 LIVINGSTON AVENUE","ALBANY","NY","12206"
291785,"794 MARTIN CREEK RD","WILLIFORD","AR","72482"
291786,"794 MONROE STREET","BROOKLYN","NY","11221"
291787,"794 MORGAN DRIVE","MORGANTOWN","WV","26505"
291788,"794 NAST CHAPEL LANE","MARTINSVILLE","IN","46151"
291789,"794 PAINTER RD","BRANSON","MO","65616"
291790,"794 PLEASANT GROVE DR SE","MONTCELLO","MS","39654"
291791,"794 REGENTS PARK AVENUE","MONROE","MI","48161"
291792,"794 ROBLE ROAD","ALLENTOWN","PA","18109"
291793,"794 S CLARK AVE","REPUBLIC","WA","99166"
291794,"794 WIGAN PIER DRIVE","HENDERSON","NV","89002"
291795,"7940 CORONADO ISLAND STREET","LAS VEGAS","NV","89139"
291796,"7940 COWBOY WAY","JACKSON","WY","83001"
291797,"7940 E RIVERDALE ST","MESA","AZ","85207"
291798,"7940 FLAGSTONE ST","FRISCO","TX","75034"
291799,"7940 FM 1885","WEATHERFORD","TX","76088"
291800,"7940 FRONT BEACH ROAD /128","PANAMA CITY BEACH","FL","32407"
291801,"7940 MARIPOSA AVENUE","CITRUS HEIGHTS","CA","95610"
291802,"7940 NORTH MAIN STREET","DAYTON","OH","45415"
291803,"7940 PARADISE COVE","LIBERTY TWP","OH","45044"
291804,"7940 PARALLEL PARKWAY SUITE 2","KANSAS CITY","KS","66112"
291805,"7940 RESEDA BLVD UNIT 206","RESEDA","CA","91335"
291806,"7940 SHOAL CREEK BLVD STE 205","AUSTIN","TX","78757"
291807,"7940 SIERRA PARKWAY","BROOKLYN PARK","MN","55444"
291808,"7940 SW 139 COURT","MIAMI","FL","33183"
291809,"7940 TWIN OAKS RD","LINCOLN","NE","68516"
291810,"7940 W GRAND AVE APT 202","ELMWOOD PARK","IL","60707"
291811,"79405 HISHWAY 111 STE 9-237","LA QUINTA","CA","92253"
291812,"79405 HWY 111 STE 9 - 138","LA QUINTA","CA","92253"
291813,"79405 HWY 111 STE 9433","LA QUINTA","CA","92253"
291814,"7940PARADISE CV","LIBERTY TWP","OH","45044"
291815,"7941 CHARLESMONT ROAD","DUNDALK","MD","21222"
291816,"7941 COLONY OAKS DRIVE","TOLEDO","OH","43617"
291817,"7941 E PRESIDIO RD","TUCSON","AZ","85750"
291818,"7941 ELIZABETH STREET","CINCINNATI","OH","45231"
291819,"7941 KATY FREEWAY 276","HOUSTON","TX","77024"
291820,"7941 KATY FREEWAY PMB 273","HOUSTON","TX","77024"
291821,"7941 KATY FREEWAY SUITE 103","HOUSTON","TX","77024"
291822,"7941 LONG AVE","BURBANK","IL","60459"
291823,"7941 N LANE AVE","KANSAS CITY","MO","64158"
291824,"7941 RAVENNA RD","HUDSON","OH","44236"
291825,"7941 RAVENNA ROAD","HUDSON","OH","44236"
291826,"7941 ROSWELL RD","SANDY SPRINGS","GA","30350"
291827,"7941 S WOODLAWN AVENUE APT 2","CHICAGO","IL","60619"
291828,"7941 SELMA AVE 102","LOS ANGELES","CA","90046"
291829,"7941 SW 103RD LOOP","OCALA","FL","34476"
291830,"7942 CAVALIER WAY","SACRAMENTO","CA","95832"
291831,"7942 E BELL RD  BOX 172 SUITE C5","GLENDALE","AZ","85308"
291832,"7942 GLEN ORCHARD","CINCINNATI","OH","45237"
291833,"7942 HAWKS NEST TRL","LITHIA SPRINGS","GA","30122"
291834,"7942 JUBILANT DR","DALLAS","TX","75237"
291835,"7942 W BELL RD STE C5 NO 460","GLENDALE","AZ","85308"
291836,"7943 22ND AVENUE","KENOSHA","WI","53143"
291837,"7943 FM 672","DALE","TX","78616"
291838,"79432 RIDGEHAVEN ROAD","LANCASTER","SC","29720"
291839,"7944 DORCHESTER RD SUITE 5","NORTH CHARLESTON","SC","29418"
291840,"7944 DRAKE ROAD","WOODBURY","MN","55125"
291841,"7944 LAMON AVE","BURBANK","IL","60459"
291842,"79440 CORPORATE CENTER DRIVE 113","LA QUINTA","CA","92252"
291843,"79442 REPSLEGER RD","COTTAGE GROVE","OR","97424"
291844,"7945 EDGEBROOK CIRCLE UNIT C","NORTH CHARLESTON","SC","29418"
291845,"7945 GILMAN ST","REDMOND","WA","98052"
291846,"7945 PINE LAKE ROAD","JACKSONVILLE","FL","32256"
291847,"7946 69TH AVE","MIDDLE VILLAGE","NY","11379"
291848,"7946 COUNTY ROAD 2584","ROYSE CITY","TX","75189"
291849,"7946 ESKDALE CT","SACRAMENTO","CA","95829"
291850,"7946 GREENGATE DRIVE","DALLAS","TX","75249"
291851,"7946 LAVENDER LANE","JACKSONVILLE","FL","32244"
291852,"7946 N MAPLE AVE SUITE 113","FRESNO","CA","93720"
291853,"7946 W ANDREA DR","PEORIA","AZ","85383"
291854,"7947 CEDAR POINT RD","OREGON","OH","43616"
291855,"7947 CHEYENNE PLACE","LARKSPUR","CO","80118"
291856,"7947 COLDSTONE LN","WEST JORDAN","UT","84081"
291857,"7947 SOUTH HARVARD AVENUE","CHICAGO","IL","60620"
291858,"7947 WAYSIDE TRAIL","SAN ANTOINIO","TX","78244"
291859,"7948 POCKET ROAD APT 30","SACRAMENTO","CA","95831"
291860,"79485 HWY 111 STE 3","LA QUINTA","CA","92253"
291861,"7949 CAPRICORN TERRACE","ROCKVILLE","MD","20855"
291862,"7949 CLARK STATION ROAD","SEVERN","MD","21144"
291863,"7949 E ACOMA DRIVE SUITE 207","SCOTTSDALE","AZ","85260"
291864,"7949 PALM COURT","ORLAND PARK","IL","60462"
291865,"7949 S CHICAGO AVE","CHICAGO","IL","60617"
291866,"7949 S DAMEN AVE","CHICAGO","IL","60620"
291867,"7949 TYSON OAKS CIR","VIENNA","VA","22182"
291868,"7949 WEATHER VANE DRIVE","JACKSONVILLE","FL","32244"
291869,"7949 WEST 97TH STREET","HICKORY HILLS","IL","60457"
291870,"794A INDUSTRIAL COURT","BLOOMFIELD HILLS","MI","48302"
291871,"795 ANDERSON ST","BARNET","VT","02821"
291872,"795 BEDFORD DR","SALINAS","CA","93901"
291873,"795 BONAIR PLACE","LA JOLLA","CA","92037"
291874,"795 BROWN AVE","CLEVELAND","TN","37311"
291875,"795 CLARK STREET","GALESBURG","IL","61401"
291876,"795 COUNTY RD 597","HANCEVILLE","AL","35077"
291877,"795 E AST DELAVAN AVENUE","BUFFALO","NY","14215"
291878,"795 FOLSOM AVE STE 600","CHARLOTTE","NC","28216"
291879,"795 HAMMOND DRIVE APT 310","ATLANTA","GA","30328"
291880,"795 HAMMOND DRIVE UNIT 206","ATLANTA","GA","30328"
291881,"795 HAYES CT","COLLEGE PARK","GA","30349"
291882,"795 MARCIA DRIVE","IDAHO FALLS","ID","83401"
291883,"795 MENOMINEE RD","PONTIAC","MI","48341"
291884,"795 MORGANTOWN RD","UNIONTOWN","PA","15401"
291885,"795 MORRIS LANE","WINDER","AL","30680"
291886,"795 N OLD CRYSTAL BAY ROAD","LONG LAKE","MN","55356"
291887,"795 NE 6TH AVE","HILLSBORO","OR","97124"
291888,"795 NEWTON BRIDGE ROAD","ATHENS","GA","30607"
291889,"795 NW 185 DR","MIAMI GARDENS","FL","33169"
291890,"795 OAK GROVE RD","NEW HOPE","AL","35760"
291891,"795 OLD CRYSTAL BAY ROAD N","LONG LAKE","MN","55356"
291892,"795 OLD CRYSTAL BAY ROAD NORTH","ORONO","MN","55356"
291893,"795 OLD CRYSTAL BAY ROAD","LONG LAKE","MN","55356"
291894,"795 OLD HWY 23","PAYNESVILLE","MN","56362"
291895,"795 SANFORD AVE","NEWARK","NJ","07106"
291896,"795 ST ANDREWS ROAD","STATESVILLE","NC","28625"
291897,"795 STATE ROUTE 210","SHELOCTA","PA","15774"
291898,"795 STILLROCK DR SW","ATLANTA","GA","30331"
291899,"795 W 9TH ST","SAN PEDRO","CA","90731"
291900,"795 W ORCHID LANE","CHANDLER","AZ","85225"
291901,"795 W QUINCY AVE","CLOVIS","CA","93619"
291902,"795 WARREN MASON BLVD UNIT 501","BRUNSWICK","GA","31520"
291903,"795 WEATHERSTONE DR","OSHKOSH","WI","54901"
291904,"7950 AMESTOY ROAD","OAK HILLS","CA","92344"
291905,"7950 BELLFORT ST APT 255","HOUSTON","TX","77061"
291906,"7950 COUNTY RD G","CORTEZ","CO","81321"
291907,"7950 DUBLIN BLVD STE 307","DUBLIN","CA","94568"
291908,"7950 EAST ST","ADAMSVILLE","OH","43802"
291909,"7950 GUNN HWY","TAMPA","FL","33626"
291910,"7950 HIGHLAND RANCH RD","CALDWELL","TX","77836"
291911,"7950 LEGACY DR 4TH FLOOR SUITE 1025","PLANO","TX","75024"
291912,"7950 LEGARE ROAD","EDISTO ISLAND","SC","29438"
291913,"7950 MANISTIQUE DR","COLORADO SPGS","CO","80923"
291914,"7950 N NOB HILL RD SUITE 305","TAMARAC","FL","33321"
291915,"7950 NE BAYSHORE COURT W 2012","MIAMI","FL","33138"
291916,"7950 NW 136TH ST","CHIEFLAND","FL","32626"
291917,"7950 NW 155 STREET SUITE 201","MIAMI LAKES","FL","33016"
291918,"7950 NW 155TH ST STE 203","MIAMI LAKES","FL","33016"
291919,"7950 NW 53 STREET SUITE 337","MIAMI","FL","33166"
291920,"7950 NW 53RD ST STE 337","MIAMI","FL","33166"
291921,"7950 NW 53RD STREET SUITE 209","MIAMI","FL","33166"
291922,"7950 NW 53RD STREET SUITE 337","DORAL","FL","33166"
291923,"7950 NW 53RD STREET SUITE 337","MIAMI","FL","33166"
291924,"7950 NW LONE PINE RD","TERREBONNE","OR","97760"
291925,"7950 PEBBLE CREEK CT","WALDORF","MD","20603"
291926,"7950 TINAJA LANE","SAN DIEGO","CA","92139"
291927,"7950 W PINNACLE PEAK ROAD","PEORIA","AZ","85383"
291928,"7950 WEST FLAGER ST SUITE 105","MIAMI","FL","33144"
291929,"7950 YATES AVENUE NORTH","BROOKLYN PARK","MN","55443"
291930,"7951 36TH AVE","KENOSHA","WI","53142"
291931,"7951 CALUMET AVE STE 1011","MUNSTER","IN","46321"
291932,"7951 COLLIN MCKINNEY PKWY APT 4039","MCKINNEY","TX","75070"
291933,"7951 COLLIN MCKINNEY PKWY APT 4802","MCKINNEY","TX","75070"
291934,"7951 COLLIN MCKINNEY PKWY APT 5065","MCKINNEY","TX","75070"
291935,"7951 DEER SPRINGS WAY","LAS VEGAS","NV","89131"
291936,"7951 EAST 59TH PLACE 46-101","TULSA","OK","74145"
291937,"7951 ETIWANDA AVENUE APT 12108","RANCHO CUCAMONGA","CA","91739"
291938,"7951 PIKE FARM TRAIL","FAIRBURN","GA","30213"
291939,"7951 S COLES AVE","CHICAGO","IL","60617"
291940,"7951 STATE ROUTE 115","CONTINENTAL","OH","45831"
291941,"7951 SUMMERDALE AVE","PHILADELPHIA","PA","19111"
291942,"7952 CREEKSTONE WAY","RIVERDALE","GA","30274"
291943,"7952 E LAKESIDE BLVD","OLMITO","TX","78575"
291944,"7952 S EVANS AVE APT 2","CHICAGO","IL","60619"
291945,"7952 TAYLOR CIRCLE","RIVERDALE","GA","30274"
291946,"7953 ADAMS CREEK ROAD","GLOUCESTER","VA","23061"
291947,"7953 FROSTWOOD LANE","OOLTEWAH","TN","37363"
291948,"7953 LIME AVE APT 5","FONTANA","CA","92336"
291949,"7953 ROY ANDREWS ROAD NW","SUGARCREEK","OH","44681"
291950,"7953 STAGE HILLS BLVD SUITE 101","BARTLETT","TN","38133"
291951,"7953 SUNSET COVE DR","INDIANAPOLIS","IN","46236"
291952,"7953A STATE ROUTE 139","MINFORD","OH","45653"
291953,"7954  SLATE RIDGE BLVD","REYNOLDSBURG","OH","43068"
291954,"7954 RIGGS RD","HYATTSVILLE","MD","20783"
291955,"7954 TRANSIT RD SUITE194","WILLIAMSVILLE","NY","14221"
291956,"7954 TRANSIT ROAD NUMBER 319","WILLIAMSVILLE","NY","14221"
291957,"7955 AIRPORT RD NORTH SUITE 202","NAPLES","FL","34109"
291958,"7955 CANDLE BEND","SAN ANTONIO","TX","78245"
291959,"7955 E CHAPARRAL RD UNIT 13","SCOTTSDALE","AZ","85250"
291960,"7955 EAST ARAPAHOE   STE 2400","CENTENNIAL","CO","80112"
291961,"7955 FM 796","TYNAN","TX","78391"
291962,"7955 HIGHWAY 29 SOUTH","ALEXANDRIA","MN","56308"
291963,"7955 S HIGHWAY A1A","MELBOURNE BEACH","FL","32951"
291964,"7955 S PAXTON AVE","CHICAGO","IL","60617"
291965,"7955 SW 152ND ST","MIAMI","FL","33157"
291966,"7955 WESTBEND PLACE","NANJEMOY","MD","20662"
291967,"7955 WOODLARK WAY","CUPERTINO","CA","95014"
291968,"7956 CEDARBROOK AVE","PHILADELPHIA","PA","19150"
291969,"7956 COTTONWOOD LANE","SACRAMENTO","CA","95828"
291970,"7956 LESTER AVENUE","LEMON GROVE","CA","91945"
291971,"7956 VAUGHN ROAD SUITE 166","MONTGOMERY","AL","36116"
291972,"7957 CARSON RD","BLAINE","WA","98230"
291973,"7957 CARSON ROAD","BLAINE","WA","98230"
291974,"7957 COLETTE LANE","CINCINNATI","OH","45224"
291975,"7957 E VIEWRIM DR","ANAHEIM","CA","92808"
291976,"7957 HOME LIGHT STREET","LAS VEGAS","NV","89139"
291977,"7957 MARKET ST","WILMINGTON","NC","28411"
291978,"7957 N UNIVERSITY DRIVE SUITE 154","PARKLAND","FL","33067"
291979,"7957 ORLEANS STREET","MIRAMAR","FL","33023"
291980,"7957 S HERMITAGE 2 SOUTH","CHICAGO","IL","60620"
291981,"7957 STANDISH AVENUE","RIVERSIDE","CA","92509"
291982,"7957 WEST TOWNSEND","MILWAUKEE","WI","53222"
291983,"7958 BATESVILLE ROAD","AFTON","VA","22920"
291984,"7958 PINES BLVD 461","PEMBROKE PINES","FL","33024"
291985,"7958 PINES BLVD UNIT 410","PEMBROKE PINES","FL","33024"
291986,"7959 S WINCHESTER AVE","CHICAGO","IL","60620"
291987,"7959 STATE ROUTE 124","LATHAM","OH","45646"
291988,"7959 SUNFLOWER WAY","FRISCO","TX","75033"
291989,"7959 THRAILKILLL ROAD","JONESBORO","GA","30236"
291990,"79590 RYNO ROAD","BROKEN BOW","NE","68822"
291991,"796 15TH STREET","BURLINGTON","CO","80807"
291992,"796 40TH AVENUE","PLEASANTVILLE","IA","50225"
291993,"796 5TH STREET","OXFORD","PA","19363"
291994,"796 CARY DRIVE","SAN LEANDRO","CA","94577"
291995,"796 CROSSWIND LN","LINDENHURST","IL","60046"
291996,"796 DENIER PLACE","CINCINNATI","OH","45224"
291997,"796 E 1150 S","ELSINORE","UT","84724"
291998,"796 E BROOKS RD","MEMPHIS","TN","38116"
291999,"796 ESTES PARK DRIVE","ST. PETERS","MO","63376"
292000,"796 HIGH BATTERY CIR","MOUNT PLEASANT","SC","29464"
