"ID","Address","City","State","Zip"
218001,"4540 PRINCESS ANNE RD STE 114/105","VIRGINIA BEACH","VA","23464"
218002,"4540 RED BUD AVE","ST LOUIS","MO","63115"
218003,"4540 SOUTHSIDE BLVD STE 202","JACKSONVILLE","FL","32216"
218004,"4540 US HIGHWAY 41 SOUTH","RUSKIN","FL","33570"
218005,"4540 W CHANDLER BOULEVARD BLDG F","CHANDLER","AZ","85226"
218006,"4540 W WASHINGTON BLVD STE 300","CHICAGO","IL","60624"
218007,"4540 WEST STONE DRIVE SUITE I","KINGSPORT","TN","37660"
218008,"45400 SAINT TISBURY","TEMECULA","CA","92592"
218009,"45400 VANKER AVE","UTICA","MI","48317"
218010,"45401 KENSINGTON ST","UTICA","MI","48317"
218011,"4540RIVERS AVENUE STE H","NORTH CHARLESTON","SC","29405"
218012,"4541 BAUER DRIVE  E1","LAWRENCE","KS","66049"
218013,"4541 BUTTERFIELD WAY","FORT WORTH","TX","76244"
218014,"4541 CR 2211","ODEM","TX","78370"
218015,"4541 DENBIGH ROAD","MOUND","MN","55364"
218016,"4541 E 58TH ST","MAYWOOD","CA","90270"
218017,"4541 HARGROVE ROAD UNIT D","RALEIGH","NC","27604"
218018,"4541 HARRISON","HILLSIDE","IL","60162"
218019,"4541 LENNOX BLVD","NEW ORLEANS","LA","70131"
218020,"4541 N 64TH STREET","SCOTTSDALE","AZ","85281"
218021,"4541 N PROSPECT ROAD SUITE 300B","PEORIA HEIGHTS","IL","61616"
218022,"4541 NORTH BAY ROAD","MIAMI BEACH","FL","33140"
218023,"4541 RAINBOW VIEW DR","INDIANAPOLIS","IN","46221"
218024,"4541 SOUTH GIBRALTAR STREET","CENTENNIAL","CO","80015"
218025,"4541 SUPERIOR DRIVE","CAMINO","CA","95709"
218026,"4541 SW TABOR ST","PORT ST LUCIE","FL","34953"
218027,"4541 WEST LANSING STREET","BROKEN ARROW","OK","74012"
218028,"45411 18TH STREET EAST","LANCASTER","CA","93535"
218029,"45415 HARMONY LANE","VAN BUREN","MI","48111"
218030,"4542 41ST STREET STE 2D","SUNNYSIDE","NY","11104"
218031,"4542 BRAZOS BEND DR","MISSOURI CITY","TX","77459"
218032,"4542 E CAMP LOWELL DR SUITE 200","TUCSON","AZ","85712"
218033,"4542 E VISTA GRANDE","HEREFORD","AZ","85615"
218034,"4542 EAGLE FALLS PLACE","TAMPA","FL","33619"
218035,"4542 FERNHILL ROAD","PHILADELPHIA","PA","19144"
218036,"4542 NORTH NEW HOPE ROAD","RALEIGH","NC","27604"
218037,"4542 S HOLLADAY BLVD","HOLLADAY","UT","84117"
218038,"4542 STANHOPE-KELLOGGSVILLE RD","ANDOVER","OH","44003"
218039,"4542 STONY CREEK DRIVE","CORPUS CHRIST","TX","78413"
218040,"4542 VILLAGE SPRINGS PL","ATLANTA","GA","30338"
218041,"4542 W UNIVERSITY STREET","SPRINGFIELD","MO","65802"
218042,"4542 WARRENSVILLE CENTER RD APT 11","NORTH RANDALL","OH","44128"
218043,"4542 WHISKEY LANE","MIMS","FL","32754"
218044,"4542 WILLIS AVE UNIT 207","SHERMAN OAKS","CA","91403"
218045,"45429 LONGSTREET","EL PASO","TX","79904"
218046,"45429 STADIUM LANE","LANCASTER","CA","93535"
218047,"4543 BUTTERFIELD TRAIL","FLORENCE","MO","65329"
218048,"4543 LISA CT","MONTGOMERY","AL","36106"
218049,"45432 ADDINGTON LANE","NOVI","MI","48374"
218050,"45433 W SANDHILL ROAD","MARICOPA","AZ","85139"
218051,"4544 177TH AVE SE","BELLEVUE","WA","98006"
218052,"4544 BROADALE RD","CLEVELAND","OH","44109"
218053,"4544 CORONADO PARKWAY","CAPE CORAL","FL","33904"
218054,"4544 HARTLAND PKWY","LEXINGTON","KY","40515"
218055,"4544 JOHN MARR DRIVE NUM B","ANNANDALE","VA","22003"
218056,"4544 MEADOWHILL DRIVE","JACKSON","MS","39206"
218057,"4544 N HIGHWAY 38","BRIGHAM CITY","UT","84302"
218058,"4544 N KILDARE AVE","CHICAGO","IL","60630"
218059,"4544 PAULA DRIVE","MEMPHIS","TN","38116"
218060,"4544 PLEASANT HILL RD","MERIDIAN","MS","39301"
218061,"4544 POST OAK PLACE DR SUITE 222","HOUSTON","TX","77429"
218062,"4544 S COURT STREET","MONTGOMERY","AL","36105"
218063,"4544 TEABURY SQ N","GROVE CITY","OH","43123"
218064,"4544 VERNON FARMS BLVD","KERNERSVILLE","NC","27284"
218065,"4544 WINDSOR LN","BETHESDA","MD","20814"
218066,"45445 600TH AVE","CORRELL","MN","56227"
218067,"45449 DATE AVE","LANCASTER","CA","93534"
218068,"45449 SEVERN WAY -101","STERLING","VA","20166"
218069,"4545 68TH AVE","KENOSHA","WI","53144"
218070,"4545 ARIZONA ST 202","SAN DIEGO","CA","92116"
218071,"4545 CARPINTERIA AVENUE","CARPINTERIA","CA","93013"
218072,"4545 CENTRAL SCHOOL ROAD","ST. CHARLES","MO","63304"
218073,"4545 CHA HA RD APT 204","GARLAND","TX","75043"
218074,"4545 DENNINGTON TRACE","CUMMING","GA","30028"
218075,"4545 DIXIE HWY","FAIRFIELD","OH","45014"
218076,"4545 E BELMONT AVE","FRESNO","CA","93702"
218077,"4545 E CAMPBELL CT","GILBERT","AZ","85234"
218078,"4545 E SOLANO DRIVE","PHOENIX","AZ","85018"
218079,"4545 FANUEL","SAN DIEGO","CA","92109"
218080,"4545 MANCHESTER DR","OMAHA","NE","68152"
218081,"4545 MARSHALL ROAD","KETTERING","OH","45429"
218082,"4545 N 36TH STREET SUITE 210","PHOENIX","AZ","85018"
218083,"4545 N GARLAND AVE APT 6314","GARLAND","TX","75040"
218084,"4545 N MARYVALE PKWY APT A214","PHOENIX","AZ","85031"
218085,"4545 OAKLAND AVE","MINNEAPOLIS","MN","55407"
218086,"4545 ROYAL LANE","DALLAS","TX","75229"
218087,"4545 RUSSWOOD AVE","STONE MOUNTAIN","GA","30083"
218088,"4545 S MINNESOTA AVE","SIOUX FALLS","SD","57105"
218089,"4545 S MONACO ST APT 348","DENVER","CO","80237"
218090,"4545 S MONACO ST UNIT 348","DENVER","CO","80237"
218091,"4545 S PANTHER CREEK DR","SPRING","TX","77381"
218092,"4545 SHIRLEY AVE","JACKSONVILLE","FL","32210"
218093,"4545 SW 60TH AVE UNIT 772544","OCALA","FL","34477"
218094,"4545 TRENTON DRIVE NORTH","JACKSONVILLE","FL","32209"
218095,"4545 VIEWRIDGE AVE STE 102","SAN DIEGO","CA","92123"
218096,"4545 W 30TH AVE","DENVER","CO","80212"
218097,"4545 W SAHARA AVE","LAS VEGAS","NV","89102"
218098,"4545 WEISS","SAGINAW","MI","48603"
218099,"4545 WILLIS AVENUE APT 5","SHERMAN OAKS","CA","91403"
218100,"4545 WOODLANDS VILLAGE DR","ORLANDO","FL","32835"
218101,"4546 E GRANDVIEW RD","PHOENIX","AZ","85032"
218102,"4546 E KENTUCKY CIR","DENVER","CO","80246"
218103,"4546 HIGHWAY 51 S","LULA","GA","30554"
218104,"4546 JIMMY CARTER BLVD STE 103","NORCROSS","GA","30093"
218105,"4546 LIBERTY AVE","VERMILION","OH","44089"
218106,"4546 PARK DR S","METAIRIE","LA","70001"
218107,"4546 PENNNIMAN AVE","OAKLAND","CA","94619"
218108,"4546 RESEARCH PARK BLVD","HUNTSVILLE","AL","35806"
218109,"4546 TRESIZE RD","RAYMOND","WA","98577"
218110,"4546 WINDSOR LANE","COUNTRY CLUB HILLS","IL","60478"
218111,"45461 BROWNELL","UTICA","MI","48317"
218112,"45461 EAGLE CREST LANE","TEMECULA","CA","92592"
218113,"45465 HWY 160","MANCOS","CO","81328"
218114,"45466 N FOOTHILLS DR","RONAN","MT","59864"
218115,"4547 EAGLE CREEK PARKWAY APT 102","INDIANAPOLIS","IN","46254"
218116,"4547 JARRELL","SAN ANTONIO","TX","78253"
218117,"4547 N ROCKWELL ST APT 3","CHICAGO","IL","60625"
218118,"4547 NW 1ST","DES MOINES","IA","50313"
218119,"4547 RAINIER AVE S 522","SEATTLE","WA","98118"
218120,"4547 RAINIER AVE S STE 505","SEATTLE","WA","98118"
218121,"4547 VALLEY STREAM DR","MEMPHIS","TN","38128"
218122,"45478 WICKLOW WAY","GREAT MILLS","MD","20634"
218123,"4548 BRISCOE ST","HOUSTON","TX","77051"
218124,"4548 MONARCH AVE","BATON ROUGE","LA","70811"
218125,"4548 OCEAN HEIGHTS AVENUE","MAYS LANDING","NJ","08330"
218126,"4548 WALLINGS ROAD","NORTH ROYALTON","OH","44133"
218127,"4549 DESLIN COURT","TALLAHASSEE","FL","32305"
218128,"4549 E MICHIGAN AVE","PHOENIX","AZ","85032"
218129,"4549 FRANCE AVE N","ROBBINSDALE","MN","55422"
218130,"4549 FRANCE AVENUE NORTH","ROBBINSDALE","MN","55422"
218131,"4549 S GREENWOOD AVE","CHICAGO","IL","60653"
218132,"4549 SOUTHERN PARKWAY","LOUISVILLE","KY","40214"
218133,"4549 WANDER LN","HOLLADAY","UT","84117"
218134,"4549 WEDGEWOOD COURT","TOLEDO","OH","43615"
218135,"454B JUNG JING RD","LOS ANGELES","CA","90012"
218136,"454B JUNG JING ROAD","LOS ANGELES","CA","90012"
218137,"455 8TH STREET","SAN FRANCISCO","CA","94103"
218138,"455 ADDISON AVENUE","TWIN FALLS","ID","83301"
218139,"455 BEECHWOOD RD","WHITEHALL","OH","43213"
218140,"455 BOOT ROAD","DOWNINGTOWN","PA","19335"
218141,"455 BRIER KNOB DR","FORT MILL","SC","29715"
218142,"455 CAPITOL MALL SUITE 500","SACRAMENTO","CA","95814"
218143,"455 CARLTON AVE 10A","BROOKLYN","NY","11238"
218144,"455 CARLTON AVE 6D","BROOKLYN","NY","11238"
218145,"455 CAROLINA AVENUE","WHITEHALL","PA","18052"
218146,"455 CATALPA CIRCLE","BOWLING GREEN","KY","42104"
218147,"455 CHERRY LANE STE A","MANTECA","CA","95337"
218148,"455 CLARA DR","RIVERDALE","GA","30274"
218149,"455 CLARK STATE ROAD","GAHANNA","OH","43230"
218150,"455 CLEAR RUN ROAD","DELAWARE","OH","43015"
218151,"455 CONCORD AVENUE","BELMONT","MA","02478"
218152,"455 CONCORD PARKWAY N UNIT 6184","CONCORD","NC","28027"
218153,"455 CONCORD PKWY N SUITE 7441","CONCORD","NC","28027"
218154,"455 CORAL SEA ST","HENDERSON","NV","89074"
218155,"455 CORDER HOLLOW RD","PIKEVILLE","TN","37367"
218156,"455 COUNTY ROAD 1869","ARAB","AL","35016"
218157,"455 COUNTY ROAD 2425 NORTH","MAHOMET","IL","61853"
218158,"455 DOUGLAS AVE STE 2155-4","ALTAMONTE SPRINGS","FL","32714"
218159,"455 DRAKE CT APT C","LAS CRUCES","NM","88005"
218160,"455 DREAMCATCHER TRAIL","YOUNGSVILLE","NC","27596"
218161,"455 E EAGLEWOODS LANE","EAGLE","ID","83616"
218162,"455 E EISENHOWER PARKWAY SUITE 300","ANN ARBOR","MI","48108"
218163,"455 E EISENHOWER PKWY SUITE 300","ANN ARBOR","MI","48108"
218164,"455 E FM 1382 BOX 3 200","CEDARHILL","TX","75104"
218165,"455 E FM 1382 SUITE 3 PMB 3646","CEDAR HILL","TX","75104"
218166,"455 E MAIN AVE","MORGAN HILL","CA","95037"
218167,"455 E PEBBLE RD UNIT 231593","LAS VEGAS","NV","89105"
218168,"455 EAST PACES FERRY RD NE STE 204","ATLANTA","GA","30305"
218169,"455 EAST STREET","DOYLESTOWN","PA","18901"
218170,"455 EDGEHILL PLACE","JOHNS CREEK","GA","30022"
218171,"455 ELIZABETH AVENUE APT 16B","NEWARK","NJ","07112"
218172,"455 FAUST LAND","HOUSTON","TX","77024"
218173,"455 FRANCESTOWN RD","NEW BOSTON","NH","03070"
218174,"455 GLEN IRIS DR NE","ATLANTA","GA","30308"
218175,"455 GRANT AVE APT 11","PALO ALTO","CA","94306"
218176,"455 HARLAN ST","LAKEWOOD","CO","80226"
218177,"455 HERKY STREET","NORTH LIBERTY","IA","52317"
218178,"455 HICKEY BLVD SUITE 320","DALY CITY","IN","94015"
218179,"455 HOPE STREET UNIT 3C","STAMFORD","CT","06906"
218180,"455 HUDSON STREET APARTMENT 32","NEW YORK","NY","10014"
218181,"455 HWY 138 SUITE H","JONESBORO","GA","30236"
218182,"455 HWY 138W STE C","JONESBORO","GA","30238"
218183,"455 IRONGATE RIDGE","SAN ANTONIO","TX","78253"
218184,"455 L STREET","IDAHO FALLS","ID","83402"
218185,"455 LEE LANE","VIDOR","TX","77662"
218186,"455 LOOKOUT CT","FT WRIGHT","KY","41011"
218187,"455 MAPLE STREET","HILLSBORO","MO","63050"
218188,"455 MASS AVE NW STE 150-502","WASHINGTON","DC","20001"
218189,"455 MASSACHUSETTS AVE    SUITE 257","WASHINGTON","DC","20001"
218190,"455 MASSACHUSETTS AVE NW 260","WASHINGTON","VA","20001"
218191,"455 MASSACHUSETTS AVE NW POB 252","WASHINGTON","DC","20001"
218192,"455 MASSACHUSETTS AVE NW SUITE 138","WASHINGTON","DC","20001"
218193,"455 MASSACHUSETTS AVE NW SUITE 215","WASHINGTON","DC","20001"
218194,"455 MASSACHUSETTS AVE NW SUITE 307","WASHINGTON","DC","20001"
218195,"455 MASSACHUSETTS AVE STE 215","WASHINGTON","DC","20001"
218196,"455 MCNAIR AVENUE","FORT SILL","OK","73503"
218197,"455 MILLER AVE","BROOKLYN","NY","11207"
218198,"455 MOHAWK LN","BOCA RATON","FL","33487"
218199,"455 N FEW ST","MADISON","WI","53703"
218200,"455 N LACEY ST","JACKSON","MO","63755"
218201,"455 NE 5TH AVE STE D-339","DELRAY BEACH","FL","33483"
218202,"455 NE 5TH AVE STE D414","DELRAY BEACH","FL","33483"
218203,"455 NE 5TH AVE SUITE D170 DELRAY","DELRAY BEACH","FL","33483"
218204,"455 NE 5TH AVENUE SUITE D-437","DELRAY BEACH","FL","33483"
218205,"455 NORMANDY RD","MOORESVILLE","NC","28117"
218206,"455 NORTH PERRY STREET","SAINT MARYS","OH","45885"
218207,"455 NW 60TH AVE","DES MOINES","IA","50313"
218208,"455 OLD WESTMINSTER RD","HANOVER","PA","17331"
218209,"455 RAMSEY STREET SUITE 203","FAYETTEVILLE","NC","28301"
218210,"455 ROBERTSON LANE","ROCKY MOUNT","VA","24151"
218211,"455 S BAKER","WINONA","MN","55987"
218212,"455 S WINTER LANE","SANTA CLAUS","IN","47579"
218213,"455 S YOUNGFIELD CT","LAKEWOOD","CO","80228"
218214,"455 SE 13TH STREET","GAINESVILLE","FL","32641"
218215,"455 SHEARWATER POINT DRIVE","BLUFFTON","SC","29909"
218216,"455 SHERMAN ST SE","DECATUR","AL","35601"
218217,"455 SNOW FARM RD","NEWBERN","TN","38059"
218218,"455 SOUTH 11TH STREET SUITE C","LINCOLN","NE","68508"
218219,"455 SOUTH LIVERNOIS SUITE B-22","ROCHESTER HILLS","MI","48307"
218220,"455 SOUTH RIDGE","SENOIA","GA","30276"
218221,"455 SOUTHAMELIA","RIDGWAY","CO","81432"
218222,"455 STOCKHOLM STREET","RIDGEWOOD","NY","11385"
218223,"455 SUNDALE DRIVE","YORK","PA","17402"
218224,"455 SUNNEHANNA DRIVE UNIT 431","MYRTLE BEACH","SC","29588"
218225,"455 SUYDAM STREET        NO 2","BROOKLYN","NY","11237"
218226,"455 SWIFTSIDE DRIVE SUITE 102","CARY","NC","27518"
218227,"455 TARRYTOWN RD STE 1340","WHITE PLAINS","NY","10607"
218228,"455 TARRYTOWN ROAD SUITE 1123","WHITE PLAINS","NY","10607"
218229,"455 W  SPRUCE ST","HARRISON","MI","48625"
218230,"455 W 200 N APT 206","SALT LAKE CITY","UT","84106"
218231,"455 W 34TH STREET APT 17","NEW YORK","NY","10001"
218232,"455 W 37TH ST APT 709","NEW YORK","NY","10018"
218233,"455 W MAIN ST","SAXONBURG","PA","16056"
218234,"455 W NORTON AVE","MUSKEGON","MI","49444"
218235,"455 WEAVER PARK RD STE 500","LONGMONT","CO","80501"
218236,"455 WEST 200 NORTH UNIT 419","SALT LAKE CITY","UT","84103"
218237,"455 WHITETAIL CIR","LAFAYETTE","CO","80026"
218238,"455 WICKENDEN ST","PROVIDENCE","RI","02903"
218239,"455","FLORENCE","TX","76527"
218240,"455","SEAL BEACH","CA","90740"
218241,"4550 11TH AVE NE","SEATTLE","WA","98105"
218242,"4550 39TH AVENUE","VERO BEACH","FL","32967"
218243,"4550 47TH STREET W 1932","BRADENTON","FL","34210"
218244,"4550 57TH AVE","VERO BEACH","FL","32967"
218245,"4550 BELLE TERRE PARKWAY","PALM COAST","FL","32164"
218246,"4550 BIRCH BAY LYNDEN RD 1182","BLAINE","WA","98230"
218247,"4550 DEL WEBB BLVD","SAN ANTONIO","TX","78253"
218248,"4550 E BROADWAY BLVD","TUCSON","AZ","85711"
218249,"4550 EAST PAULDING DR","DALLAS","GA","30157"
218250,"4550 EUBANK BLVD STE207","ALBUQUERQUE","NM","87020"
218251,"4550 GREENWOOD DRIVE","PORTSMOUTH","VA","23701"
218252,"4550 HELMO PLACE N","OAKDALE","MN","55128"
218253,"4550 HIGHWAY 57","STURGEON BAY","WI","54235"
218254,"4550 JONA FREE LN","KISSIMMEE","FL","34746"
218255,"4550 JONESBORO RD A2 PMB 149","UNION CITY","GA","30291"
218256,"4550 JONESBORO RD STE A2-126","UNION CITY","GA","30291"
218257,"4550 JONESBORO RD STE A2-176","UNION CITY","GA","30291"
218258,"4550 JONESBORO ROAD STE A2 141","UNION CITY","GA","30291"
218259,"4550 KELLY MILL ROAD","HOLT","FL","32564"
218260,"4550 KLAHANIE DR SE","ISSAQUAH","WA","98029"
218261,"4550 LEE ROAD","CLEVELAND","OH","44128"
218262,"4550 LEWIS ROAD SUITE 600","TUCKER","GA","30084"
218263,"4550 MCKNIGHT ROAD SUITE 202","PITTSBURGH","PA","15237"
218264,"4550 METRO COURT","ANNANDALE","VA","22003"
218265,"4550 N 70TH","MILWAUKEE","WI","53218"
218266,"4550 N BORTHWICK AVE","PORTLAND","OR","97217"
218267,"4550 N CLARENDON AVE - APT 2502N","CHICAGO","IL","60640"
218268,"4550 N CLARENDON AVE UNIT 2601N","CHICAGO","IL","60640"
218269,"4550 N CLARENDON ROOM 1306N","CHICAGO","IL","60640"
218270,"4550 N CLARENDON SUITE 1406N","CHICAGO","IL","60640"
218271,"4550 NW NEWBERRY HILL RD STE 102","SILVERDALE","WA","98383"
218272,"4550 NW NEWBERRY HILL ROAD STE 202","SILVERDALE","WA","98383"
218273,"4550 NW NEWBERRY HILL ROAD SUITE 2","SILVERDALE","WA","98383"
218274,"4550 PARADISE RANCHOS DRIVE","WINNEMUCCA","NV","89445"
218275,"4550 PGA BLVD STE 2017","PALM BEACH GARDENS","FL","33418"
218276,"4550 POST OAK PLACE DR SUITE 214","HOUSTON","TX","77027"
218277,"4550 SAWGRASS COVE","CONWAY","AR","72034"
218278,"4550 SHELLEY CT APT 58","STOCKTON","CA","95207"
218279,"4550 SW BETTS AVE","BEAVERTON","OR","97075"
218280,"4550 TRUE BLUE ROAD","CULPEPER","VA","22701"
218281,"4550 W 103RD STREET        SUITE 3B","OAK LAWN","IL","60453"
218282,"4550 W 1050 S","PENDLETON","IN","46064"
218283,"4550 W HUSKER HWY","GRAND ISLAND","NE","68803"
218284,"4550 W OLD HIGHWAY ROAD","MOUNTAIN GREEN","UT","84050"
218285,"4550 WYOGA LAKE ROAD","CUYAHOGA FALLS","OH","44224"
218286,"45500 CHEROKEE LANE","FREMONT","CA","94539"
218287,"45507 FM 1774","WALLER","TX","77363"
218288,"4551 COLDWATER CANYON  APT 305","STUDIO CITY","CA","91604"
218289,"4551 COVE DR APT 102","ORLANDO","FL","32812"
218290,"4551 E BALTIMORE AVENUE","LAS VEGAS","NV","89104"
218291,"4551 FORNI ROAD","EL DORADO","CA","95623"
218292,"4551 HIGHWAY 24/27 EAST","MIDLAND","NC","28107"
218293,"4551 KING EDWARD CT","ANNANDALE","VA","22003"
218294,"4551 NW 79 AVENUE","LAUDERHILL","FL","33351"
218295,"4551 STEIN AVE","MADISON","WI","53714"
218296,"4551 W MLK BLVD 355","LOS ANGELES","CA","90016"
218297,"4552 BELITA LN","LA CANADA","CA","91011"
218298,"4552 E DESERT COVE AVE","PHOENIX","AZ","85028"
218299,"4552 JACKYBELL TRL","DECATUR","GA","30034"
218300,"4552 S 2500 E","VERNAL","UT","84078"
218301,"4552 SARATOGA RD","RICHTON PARK","IL","60471"
218302,"4552 W 105TH WAY","WESTMINSTER","CO","80031"
218303,"4552 WALNUT AVE","IRVINE","CA","92604"
218304,"45521 SAIGON AVE","LANCASTER","CA","93534"
218305,"4553 207TH STREET","MATTESON","IL","60443"
218306,"4553 GLASTONBURY DRIVE","EVANS","GA","30809"
218307,"4553 GRAND BLVD","NEW PORT RICHEY","FL","34652"
218308,"4553 GREENE AVE NW","ALBUQUERQUE","NM","87114"
218309,"4553 MAGNOLIA MANOR WAY","ALEXANDRIA","VA","22312"
218310,"4553 WESTGROVE WAY","ORLANDO","FL","32808"
218311,"4553 WINFIELD DRIVE","NASHVILLE","TN","37211"
218312,"4554 BEACHCOMBER CT","BOULDER","CO","80303"
218313,"4554 CENTRAL AVE SUITE G-1","SAINT PETERSBURG","FL","33711"
218314,"4554 CENTRAL AVE UNIT F","ST PETERSBURG","FL","33711"
218315,"4554 HICKORY RIDGE BLVD","GREENWOOD","IN","46143"
218316,"4554 MYSTIC HILLS CT","MILFORD","MI","48380"
218317,"4554 N 85TH ST","MILWAUKEE","WI","53225"
218318,"4554 N BROADWAY ST SUITE 234","CHICAGO","IL","60640"
218319,"4554 N BROADWAY STREET","CHICAGO","IL","60640"
218320,"4554 N W 183TH STREET","MIAMI GARDENS","FL","33055"
218321,"4554 NORTH BROADWAY ST STE 234","CHICAGO","IL","60640"
218322,"4554 RIDGEWOOD ROAD","MEMPHIS","TN","38116"
218323,"4554 US HWY 64 W","MOCKSVILLE","NC","27028"
218324,"4554 W 17TH S","IDAHO FALLS","ID","83402"
218325,"4555  BIG BEN LANE","GREENACRES","FL","33463"
218326,"4555 20TH ST","ROCKFORD","IL","61109"
218327,"4555 AUBURN BLVD STE A","SACRAMENTO","CA","95841"
218328,"4555 BOBBY W HOGAN DR","HOPE HULL","AL","36043"
218329,"4555 BRITTANY LANE","GRAND PRAIRIE","TX","75052"
218330,"4555 CECELIA ST SPC 17","CUDAHY","CA","90201"
218331,"4555 HEARTWOOD WAY","CASTLE ROCK","CO","80109"
218332,"4555 HENRY HUDSON PARKWAY APT 510","BRONX","NY","10471"
218333,"4555 HERITAGE OAK DRIVE","ORLANDO","FL","32808"
218334,"4555 KENDALL DRIVE","WOODBRIDGE","VA","22193"
218335,"4555 KNOWLES RD","NORTH ADAMS","MI","49262"
218336,"4555 MALUS DRIVE","SALEM","VA","24153"
218337,"4555 MARLBOROUGH DRIVE","SAN DIEGO","CA","92116"
218338,"4555 MENEWA PATH","PENSACOLA","FL","32504"
218339,"4555 ODETTE COURT","TROY","MI","48098"
218340,"4555 S MISSION RD UNIT 722","TUCSON","AZ","85746"
218341,"4555 TEMPLETON PARK CIRCLE APT 424","COLORADO SPRINGS","CO","80917"
218342,"4555 VIRGINIA AVE","ST LOUIS","MO","63111"
218343,"4555 W YALE AVE","FRESNO","CA","93722"
218344,"4555 WASHINGTON RD STE 19G","COLLEGE PARK","GA","30349"
218345,"4555 WESTGATE DR","CUMMING","GA","30040"
218346,"4555 WORDSWORTH CIRCLE SOUTH","COLORADO SPRINGS","CO","80916"
218347,"45555 LAKEMONT SQUARE","STERLING","VA","20165"
218348,"4556 CORTEZ WAY SO","ST PETERSBURG","FL","33712"
218349,"4556 LANDING WAY","KALAMAZOO","MI","49048"
218350,"4556 MAIZE ROAD APT F","COLUMBUS","OH","43224"
218351,"4556 OAKTON ST SUITE 201","SKOKIE","IL","60076"
218352,"4556 PRINCETON RD","MEMPHIS","TN","38117"
218353,"4556 S REDWOOD ST","TERRE HAUTE","IN","47802"
218354,"4556 SATTLER BOTTOM ROAD","MINERAL CITY","OH","44656"
218355,"4556 SOUTH VINCENNES AVENUE APT 3","CHICAGO","IL","60653"
218356,"45564 4TH ST","BIG BEAR CITY","CA","92314"
218357,"45567 SOUTH OAKVIEW DRIVE","OAKHURST","CA","93644"
218358,"4557 13TH ST S","MOORHEAD","MN","56560"
218359,"4557 HILLVIEW DR","MOBILE","AL","36609"
218360,"4557 KIWANDA STREET","FLORENCE","OR","97439"
218361,"4557 LAIRD CIR","SANTA CLARA","CA","95054"
218362,"4557 MEADOW CREEK PATH","LITHONIA","GA","30038"
218363,"4557 NW 36TH STREET","OKLAHOMA","OK","73122"
218364,"4557 S 2ND STREET","LOUISVILLE","KY","40214"
218365,"4557 TECHNOLOGY DR STE 5","WILMINGTON","NC","28405"
218366,"4557 VERMILLION SKY DR","WESLEY CHAPEL","FL","33544"
218367,"45575 RUISLIP MANOR WAY","STERLING","VA","20166"
218368,"45579 CATALINA LANE","CALIFORNIA","MD","20619"
218369,"4558 ADKINS DR","CORPUS CHRISTI","TX","78411"
218370,"4558 DURANT","SAINT LOUIS","MO","63115"
218371,"4558 PALMDALE HILLS DRIVE","PALMDALE","CA","93551"
218372,"4558 PALMDALE HILLS DRIVE","PALMDALE","CA","93552"
218373,"4558 PRIVATE ROAD 1674","WILLOW SPRINGS","MO","65793"
218374,"4558 TWP RD 145","ZANESFIELD","OH","43360"
218375,"4559 BARRINGTON LANE","NICEVILLE","FL","32578"
218376,"4559 BUCKINGHAM LANE","HAMBURG","NY","14075"
218377,"4559 COPLAND BLVD","TOLEDO","OH","43614"
218378,"4559 DRY RIDGE ROAD","CINCINNATI","OH","45252"
218379,"4559 JUNIPER GRAND LOOP APT 105","CASSELBERRY","FL","32707"
218380,"4559 NW SILVERLEAF DR","PORTLAND","OR","97229"
218381,"4559 ROSSER LOOP DRIVE","BESSEMER","AL","35022"
218382,"45591 DULLES EASTERN PLZ  ST132 627","STERLING","VA","20166"
218383,"45593 BRISTOL CIRCLE","NOVI","MI","48377"
218384,"455MISSOURI AVENUE","LARGO","FL","33770"
218385,"456 79TH STREET APT 1","BROOKLYN","NY","11209"
218386,"456 ANTIQUE CT","CHELSEA","MI","48118"
218387,"456 APOSTLES WAY","SANTA ROSA BEACH","FL","32459"
218388,"456 BEL AIR DR NE","GRAND RAPIDS","MI","49503"
218389,"456 BELLEVUE RD","NEW HAVEN","CT","06511"
218390,"456 BONANZA DRIVE","ERIE","CO","80516"
218391,"456 BOUDINOT COURT","ESCONDIDO","CA","92027"
218392,"456 BRADY STREET EXT","RAMSEUR","NC","27316"
218393,"456 BROOKLYN AVE APT 5D","BROOKLYN","NY","11225"
218394,"456 CALLE SALDANA","SAN JUAN","PR","00909"
218395,"456 CO RD KB","MARQUETTE","MI","49855"
218396,"456 DAVIS AVE","STATEN ISLAND","NY","10310"
218397,"456 DICKEY ROAD","ALLAGASH","ME","04774"
218398,"456 DOC SMITH ROAD","ALTAMONT","TN","37301"
218399,"456 E NICOLET ST 607","BANNING","CA","92220"
218400,"456 EAST 38TH STREET","BROOKLYN","NY","11203"
218401,"456 EAST 79TH STREET","CHICAGO","IL","60619"
218402,"456 FULTON STREET SUITE 425","PEORIA","IL","61602"
218403,"456 FURRYS FERRY ROAD","AUGUSTA","GA","30907"
218404,"456 FURYS FERRY RD","AUGUSTA","GA","30907"
218405,"456 FURYS FERRY ROAD","AUGUSTA","GA","30907"
218406,"456 HARVARD ST UNIT 207","GLENDALE","CA","91204"
218407,"456 HILLTOP DR","CHULA VISTA","CA","91910"
218408,"456 INDUSTRIAL PARK DR","SELMER","TN","38375"
218409,"456 MAIN ST","AURORA","NY","13026"
218410,"456 N CALLE LARGO","MESA","AZ","85207"
218411,"456 N LOGAN ST UNIT 304","DENVER","CO","80203"
218412,"456 N MERIDIAN STREET STE 1517","INDIANAPOLIS","IN","46204"
218413,"456 N MERIDIAN STREET UNIT 441344","INDIANAPOLIS","IN","46204"
218414,"456 NEW JERSEY AVE SE UNIT 2","WASHINGTON","DC","20003"
218415,"456 NORTH MAIN ST APT 1","WILKES-BARRE","PA","18705"
218416,"456 NORTH REINO ROAD","NEWBURY PARK","CA","91320"
218417,"456 POPLAR","CANAL FULTON","OH","44614"
218418,"456 RESOLUTION DRIVE","LITITZ","PA","17543"
218419,"456 SAGAMORE AVENUE","EAST WILLISTON","NY","11596"
218420,"456 SHUMWAY RD","BROCKPORT","NY","14420"
218421,"456 SOUTH 4TH STREET","MAPLEWOOD","NJ","07040"
218422,"456 SOUTH VAN NESS AVE","SAN FRANCISCO","CA","94103"
218423,"456 SUTHERLAND RANCH LANE","ROSEVILLE","CA","95678"
218424,"456 VAN DUZER STREET","STATEN ISLAND","NY","10304"
218425,"456 W 104TH ST UNIT C","KANSAS CITY","MO","64114"
218426,"456 W 123RD ST","CHICAGO","IL","60628"
218427,"456 W PORTER ST","MARSHALL","MO","65340"
218428,"456 WASHINGTON STREET","NEWARK","NJ","07102"
218429,"456 WATERFORD DR","CARTERSVILLE","GA","30120"
218430,"456 WEST 6TH STREET","ERIE","PA","16507"
218431,"456 WEST OAKRIDGE ROAD APT 201","ORLANDO","FL","32809"
218432,"456 WEST PARKER ROAD - SUITE A100","HOUSTON","TX","77091"
218433,"456 WEST SPAULDING AVENUE NORTH","PUEBLO WEST","CO","81007"
218434,"456 YAMPA AVE","SEATTLE","CO","81625"
218435,"4560 310TH AVE","GRANITE FALLS","MN","56241"
218436,"4560 ADMIRALTY WAY SUITE 302","MARINA DEL REY","CA","90292"
218437,"4560 ARGYLE TERRACE NW","WASHINGTON","DC","20011"
218438,"4560 BONCREST DRIVE EAST","WILLIAMSVILLE","NY","14221"
218439,"4560 BROADWAY AVE","LOUISVILLE","OH","44641"
218440,"4560 CLIFTON LANE","STRAWBERRY PLAINS","TN","37871"
218441,"4560 COLLEGE AVE","SAN DIEGO","CA","92115"
218442,"4560 COUNTY ROAD 26","BELLEFONTAINE","OH","43311"
218443,"4560 E QUAIL TRACK DR","CAVE CREEK","AZ","85331"
218444,"4560 E SHIELDS AVE","FRESNO","CA","93726"
218445,"4560 EDISON AVENUE","JACKSONVILLE","FL","32254"
218446,"4560 FALCON DR","AUSTINTOWN","OH","44515"
218447,"4560 FALCON DRIVE","YOUNGSTOWN","OH","44515"
218448,"4560 HOPEWELL RD","COLLEGE PARK","GA","30337"
218449,"4560 HUBBELL AVE","DES MOINES","IA","50317"
218450,"4560 HUBBELL AVENUE E-207","DES MOINES","IA","50317"
218451,"4560 KEENELAND LN - 304","FORT WAYNE","IN","46845"
218452,"4560 MADISON SCHOOL DR","COLUMBUS","OH","43232"
218453,"4560 PACE PATRIOT BLVD","PACE","FL","32571"
218454,"4560 PINEWOOD AVENUE","JACKSONVILLE","FL","32207"
218455,"4560 POWERHORN PLACE DR","CLERMONT","FL","34711"
218456,"4560 RUBY STREET","SCHILLER PARK","IL","60176"
218457,"4560 S LAKE PARK AVENUE","CHICAGO","IL","60653"
218458,"4560 SHELDON TRAIL","FT WORTH","TX","76244"
218459,"4560 SHEPHERDS WAY","BATAVIA","OH","45103"
218460,"4560 SOUTH BLVD STE 300","VIRGINIA BEACH","VA","23452"
218461,"4560 SOUTH DECATUR BLVD SUITE 300","LAS VEGAS","NV","89103"
218462,"4560 STUART STREET","DENVER","CO","80212"
218463,"4560 SW 110TH AVE","BEAVERTON","OR","97005"
218464,"4560 TULIP BEND DRIVE","BARTLETT","TN","38135"
218465,"4560 VINEYARD ST","OCEANSIDE","CA","92057"
218466,"4560 WEST 34TH STREET SUITE C","HOUTONS","TX","77018"
218467,"45601 FOX LN W APT 106","SHELBY TOWNSHIP","MI","48317"
218468,"45607 CLUB DRIVE","INDIAN WELLS","CA","92210"
218469,"4561 BERKLEY STREET","HARRISBURG","PA","17109"
218470,"4561 FAIRWAY OAKS DRIVE","MULBERRY","FL","33860"
218471,"4561 HEIL AVE APT 22","HUNTINGTON BEACH","CA","92649"
218472,"4561 HIGHWAY 17 BYPASS SOUTH UNIT J","MYRTLE BEACH","SC","29577"
218473,"4561 MEDITERRANEAN CIR","PALM BEACH GARDENS","FL","33418"
218474,"4561 N COUNTRY CLUB LN","LONG BEACH","CA","90807"
218475,"4561 N JOSEY LN","CARROLLTON","TX","75010"
218476,"4561 NORTH COUNTRY CLUB LANE","LONG BEACH","CA","90807"
218477,"4561 NW 33 COURT","MIAMI","FL","33142"
218478,"4561 NW 4TH COURT","PLANTATION","FL","33317"
218479,"4561 NW 9TH AVENUE","DEERFIELD","FL","33064"
218480,"4561 OAK POINTE DRIVE","BRIGHTON","MI","48116"
218481,"4561 OLD PERIMETER WAY STE 1110","ATLANTA","GA","30346"
218482,"4561 PACIFIC STREET SUITE F","ROCKLIN","CA","95677"
218483,"4561 SCARLET OAK DRIVE","ROCK HILL","SC","29732"
218484,"4561 SE POMPANO TERRACE","STUART","FL","34997"
218485,"4561 TURNWORTH ARCH","VIRGINIA BEACH","VA","23456"
218486,"45611 260TH STREET EAST","LANCASTER","CA","93535"
218487,"45614 US HWY 95","LAPWAI","ID","83540"
218488,"4562 COLLEGE VIEW AVE","LOS ANGELES","CA","90047"
218489,"4562 E DESERT TRUMPET RD","PHOENIX","AZ","85044"
218490,"4562 MCCOLL DRIVE","SAVAGE","MN","55378"
218491,"4562 NEVIS DR APT 107","MEMPHIS","IL","38125"
218492,"4562 S FARM ROAD 189","ROGERSVILLE","MO","65742"
218493,"4562 S LACLEDE","WICHITA","KS","67217"
218494,"4562 SOUTH MAIN STREET","WINSTON SALEM","NC","27127"
218495,"4562 W 192ND ST","CLEVELAND","OH","44135"
218496,"45620 CORTE MONTRIL","TEMECULA","CA","92592"
218497,"45622 LONGFIELDS VILLAGE DR","GREAT MILLS","MD","20634"
218498,"4563 COYOTE RUN","LITTLETON","CO","80125"
218499,"4563 CUSHING DRIVE","LOVELAND","CO","80538"
218500,"4563 E 75 N","RIGBY","ID","83442"
