"ID","Address","City","State","Zip"
182001,"349 PAGODA COURT","PICKERINGTON","OH","43147"
182002,"349 PELHAM ROAD","PHILADELPHIA","PA","19119"
182003,"349 PENNSYLVANIA AVENUE SUITE 1","BROOKLYN","NY","11207"
182004,"349 PICEA VIEW CT","DERWOOD","MD","20855"
182005,"349 PIKE CIRCLE","VIRGINIA BEACH","VA","23456"
182006,"349 PLEASANT LANDING","BUMPASS","VA","23024"
182007,"349 PLEASANT STREET APTB1 6","MALDEN","MA","02148"
182008,"349 RIDGE POINT DR","CONWAY","SC","29526"
182009,"349 ROCKFIELD RD","PITTSBURGH","PA","15243"
182010,"349 S E 3RD STREET","BELLE GLADE","FL","33430"
182011,"349 S HENRY STREET","GARY","IN","46403"
182012,"349 S MAPLE AVENUE","RIALTO","CA","92376"
182013,"349 SOUTH ALLEGHENY STREET","BELLEFONTE","PA","16823"
182014,"349 SOUTH WHEELING WAY","AURORA","CO","80012"
182015,"349 SUMMER AVENUE","NEWARK","NJ","07104"
182016,"349 SW MILLARD DRIVE","PORT SAINT LUCIE","FL","34953"
182017,"349 VETERANS DRIVE","MORGANTON","GA","30560"
182018,"349 VETERANS LN","LEESEVILLE","LA","71446"
182019,"349 W BACALL DR","MERIDIAN","ID","83646"
182020,"349 WALTER ROAD","RIVER RIDGE","LA","70123"
182021,"349 WEST BUTE STREET APT A4","NORFOLK","VA","23510"
182022,"349 YORK ROAD STE 100","WILLOW GROVE","PA","19090"
182023,"349-L COPPERFIELD BLVD 314","CONCORD","NC","28025"
182024,"349-L COPPERFIELD BLVD STE 328","CONCORD","NC","28025"
182025,"3490 ADGATE DRIVE","IJAMSVILLE","MD","21754"
182026,"3490 AQUINAS DRIVE","ROCHESTER HILLS","MI","48309"
182027,"3490 BROWNBARK DR SUITE 107","MEMPHIS","TN","38115"
182028,"3490 CIRCLE COURT","TRINITY","NC","27370"
182029,"3490 CORNELL DR","ROCKY MOUNT","NC","27803"
182030,"3490 DALE LN","ATLANTA","GA","30331"
182031,"3490 ENNFIELD LANE","DULUTH","GA","30096"
182032,"3490 HONEYSUCKLE COURT","ANN ARBOR","MI","48103"
182033,"3490 LINDEN AVE","LONG BEACH","CA","90807"
182034,"3490 RIVERVIEW CHASE DRIVE","ELLENWOOD","GA","30294"
182035,"3490 S 4400 W UNIT 702375","SALT LAKE CITY","UT","84170"
182036,"3490 S FALCON DR","GILBERT","AZ","48297"
182037,"3490 VINSON RD","WYLIE","TX","75098"
182038,"3490 W 54TH AVE","DENVER","CO","80221"
182039,"3490 WATSON GATE ROAD","LOGANVILLE","GA","30052"
182040,"34902 ASHE ROAD","SIMONTON","TX","77476"
182041,"34905 641ST AVE","GIBBON","MN","55335"
182042,"34905 MCAFEE DR","SOLON","OH","44139"
182043,"34906 410TH ST SE","FOSSTON","MN","56542"
182044,"34907 E STRINGTOWN ROAD","LONE  JACK","MO","64070"
182045,"34907 N 30TH AVE","PHOENIX","AZ","85086"
182046,"3491 20TH STREET","SAN FRANCISCO","CA","94110"
182047,"3491 23RD AVE SW","NAPLES","FL","34117"
182048,"3491 ADAMS AVENUE","SAN DIEGO","CA","92116"
182049,"3491 E MESQUITE","GILBERT","AZ","85296"
182050,"3491 FREEGOLD DRIVE","CAMINO","CA","95709"
182051,"3491 HIGH RIDGE ROAD","BOYNTON BEACH","FL","33426"
182052,"3491 HYDE PARK WAY","TALLAHASSEE","FL","32309"
182053,"3491 MORGAN","GREENVILLE","MI","48838"
182054,"3491 N ARIZONA AVE UNIT 2","CHANDLER","AZ","85225"
182055,"3491 NW 4 ST","FORT LAUDERDALE","FL","33311"
182056,"34915 BLOCK ROAD","PAOLA","KS","66071"
182057,"3492 ESSEX PLACE","HEPHIZIBAH","GA","30815"
182058,"3492 HIGHWAY 5 UNIT 201","DOUGLASVILLE","GA","30135"
182059,"3492 KAUAI RD","WEST SACRAMENTO","CA","95691"
182060,"3492 VISTA RIDGE DR","WEST LINN","OR","97068"
182061,"3492 W 109TH CIRCLE","WESTMINSTER","CO","80031"
182062,"3493 CRAIG AVENUE","CINCINNATI","OH","45211"
182063,"3493 E EUCLID AVE","CENTENNIAL","CO","80121"
182064,"3493 FACULTY LANE","INTERLOCHEN","MI","49643"
182065,"3493 MONTE HERMOSO UNIT B","LAGUNA WOODS","CA","92637"
182066,"3493 MONTE HERMOSO UNIT N","LAGUNA WOODS","CA","92637"
182067,"3493 RAMSEUR JULIAN RD","LIBERTY","NC","27298"
182068,"3493 SHIRLEY RD","DE PERE","WI","54115"
182069,"3493 WEST DELHI","ANN ARBOR","MI","48103"
182070,"3494 CAMINO TASSAJARA 324","DANVILLE","CA","94506"
182071,"3494 CAMINO TASSAJARA SUITE 143","DANVILLE","CA","94506"
182072,"3494 COLONNADE DRIVE","TALLAHASSEE","FL","32309"
182073,"3494 ELM GROVE ROAD","BELTON","TX","76513"
182074,"3494 EVEREST AVE","RIVERSIDE","CA","92503"
182075,"3494 N STODGHILL RD","FATE","TX","75087"
182076,"3494 RIVER HEIGHTS CROSSING SE","MARIETTA","GA","30067"
182077,"3494 WEYRICK DRIVE","NORTON","OH","44203"
182078,"34941 WILLIAMS GAP RD","ROUND HILL","VA","20141"
182079,"34947 VILLAGE RD","CLINTON TOWNSHIP","MI","48035"
182080,"3495 CABRILLO AVE","SANTA CLARA","CA","95051"
182081,"3495 GARNERS CREEK RD","DICKSON","TN","37055"
182082,"3495 GENERAL HOOD TRAIL","NASHVILLE","TN","37204"
182083,"3495 HOMELAWN AVE APT 18","CHEVIOT","OH","45211"
182084,"3495 INDUSTRIAL DRIVE","YORK","PA","17402"
182085,"3495 LAKESIDE DRIVE - 1214","RENO","NV","89509"
182086,"3495 PIEDMONT RD - BLDG 11 STE 910","ATLANTA","GA","30305"
182087,"3495 RIDGEFORD DRIVE","WESTLAKE VILLAGE","CA","91361"
182088,"3495 ROCK BRIDGE DR NE","CONOVER","NC","28613"
182089,"3495 SW 73RD WAY","GAINESVILLE","FL","32608"
182090,"3495 UNION CHURCH ROAD","REGISTER","GA","30452"
182091,"3495 US HIGHWAY 27 441","FRUITLAND PARK","FL","34731"
182092,"3495 W MAYNARD CT","RIVERTON","UT","84065"
182093,"3495 WOLF CREEK ROAD","SPRING CITY","TN","37381"
182094,"3496 CENTRAL AVENUE","GROVE CITY","OH","43123"
182095,"3496 GETTYSBURG ROAD","ANN ARBOR","MI","48105"
182096,"3496 YALE DR","BROOMFIELD","CO","80023"
182097,"34961 SAN ROSEN CT","YUCAIPA","CA","92399"
182098,"34965 WINTERGREEN LOOP","NORTH FORK","CA","93643"
182099,"3497 ACAPULCO CIRCLE","CAPE CORAL","FL","33909"
182100,"3497 BROOKVIEW DRIVE","EUGENE","OR","97401"
182101,"3497 COQUINA KEY DRIVE SE","ST PETERSBURG","FL","33705"
182102,"3497 EAST RIVER ROAD","SHEFFIELD","OH","44054"
182103,"3497 MEADOWRIDGE DRIVE","ATLANTA","GA","30331"
182104,"3497 SOUTH BLACK HORSE PIKE","WILLIAMSTOWN","NJ","08094"
182105,"3497 VALERIE ARMS DR APT 725","DAYTON","OH","45405"
182106,"3497 WEST PASADENA AVE","FLINT","MI","48504"
182107,"3498 12TH ST SE","SAINT CLOUD","MN","56304"
182108,"3498 COUNTY HWY Q","WISCONSIN RAPIDS","WI","54494"
182109,"3498 CUMBY ROAD","COOKEVILLE","TN","38501"
182110,"3498 E PONCE DE LEON AVE","SCOTTDALE","GA","30079"
182111,"3498 GRAND AVENUE","PITTSBURGH","PA","15225"
182112,"3498 N 26TH SUITE A","KALAMAZOO","MI","49048"
182113,"3498 ROLLING WAY","ORLANDO","FL","32808"
182114,"3498 VALLEY VIEW AVE","NORCO","CA","92860"
182115,"3498 W FOXES DEN DRIVE","TUCSON","AZ","85745"
182116,"34980 CR 351","RIDGEWAY","OH","43345"
182117,"3499 BELL DRIVE","REX","GA","30273"
182118,"3499 BLAZER PARKWAY","LEXINGTON","KY","40509"
182119,"3499 KETTLE ROAD","ALTOONA","PA","16601"
182120,"3499 NORWALK PLACE","FAIRFIELD","CA","94534"
182121,"3499 PARKWAY DR","MEDFORD","OR","97504"
182122,"3499 STATE HWY EE PO BOX 40","HIGHLANDVILLE","MO","65669"
182123,"34R NORTH ST APT 14B","SOMERVILLE","MA","02144"
182124,"34W113 MONTGOMERY ROAD","AURORA","IL","60504"
182125,"35 11TH ST 130","STEAMBOAT SPRINGS","CO","80487"
182126,"35 ABBOTT ST","BEVERLY","MA","01915"
182127,"35 ACHATES DR","FLORENCE","KY","41042"
182128,"35 ADAMS ST","ABINGTON","MA","02351"
182129,"35 AMHERST DR","MANCHESTER","CT","06042"
182130,"35 ANDERSON AVENUE","FALCONER","NY","14733"
182131,"35 APPEAL LN","LUSBY","MD","20657"
182132,"35 ASHBROOK MEADOWS","FLETCHER","NC","28732"
182133,"35 ASHLEY AVENUE","CHARLESTON","SC","29401"
182134,"35 ASPEN RD","PORTAGE","IN","46368"
182135,"35 ATTERBURY AVE","TRENTON","NJ","08618"
182136,"35 AVERY CT","NESCONSET","NY","11767"
182137,"35 BATES ROAD","SWAMPSCOTT","MA","01907"
182138,"35 BATES STREET","DANVERS","MA","01923"
182139,"35 BAYRIDGE RD","HENDERSON","NV","89074"
182140,"35 BEMPSEY AVE/ SUITE A","JACKSON","GA","30233"
182141,"35 BENNETT PLACE","AMITYVILLE","NY","11701"
182142,"35 BENTLY LN","WILLINGBORO","NJ","08046"
182143,"35 BERLIN STREET","SPRINGFIELD","MA","01109"
182144,"35 BEVERLY DRIVE","RYE","NY","10580"
182145,"35 BIRCHWOOD PARK DR","JERICHO","NY","11753"
182146,"35 BISHOPSGSTE APT 1105","CINCINNATI","OH","45246"
182147,"35 BOSCOBEL RD","FREDERICKSBURG","VA","22405"
182148,"35 BOXWOOD LANE","WILLINGBORO","NJ","08046"
182149,"35 BRAESIDE LN","DOBBS FERRY","NY","10522"
182150,"35 BRAINTREE HILL OFFICE PK STE 401","BRAINTREE","MA","02184"
182151,"35 BRISTOL AVE","RIVERSIDE","RI","02915"
182152,"35 BROAD ST SUITE 202","PITTSTON","PA","18640"
182153,"35 BROADWAY","NEWPORT","RI","02840"
182154,"35 BROOKDALE AVENUE","NEW ROCHELLE","NY","10801"
182155,"35 BROWN ROAD","OXFORD","MA","01540"
182156,"35 BROWN ST","METHUEN","MA","01844"
182157,"35 BURROUGHS WAY","MAPLEWOOD","NJ","07040"
182158,"35 BUTTERNUT LANE","BOLTON","MA","01740"
182159,"35 C EXECUTIVE PARK DRIVE","HENDERSONVILLE","TN","37075"
182160,"35 CAMINO MARGARITA","NICASIO","CA","94946"
182161,"35 CAMP STREET","PROVIDENCE","RI","02906"
182162,"35 CARTER DR","WHITE HAVEN","PA","18661"
182163,"35 CASHMERE LN","IRONDEQUOIT","NY","14609"
182164,"35 CASTLE DRIVE","SHARON","MA","02067"
182165,"35 CASTLEROCK DR","SANFORD","NC","27332"
182166,"35 CEDARWOOD COURT","SAINT PETERS","MO","63376"
182167,"35 CHASE STREET","HEMPSTEAD","NY","11550"
182168,"35 CHATHAM RD","EVERETT","MA","02149"
182169,"35 CHELSEA RD","ROCHESTER","NY","14617"
182170,"35 CHERRY STREET  UNIT 701","BURLINGTON","VT","05401"
182171,"35 CHESTNUT DRIVE","MATAWAN","NJ","07747"
182172,"35 CHOCTAW ROAD","STARKVILLE","MS","39759"
182173,"35 CHRISTINA DR","BRIDGEWATER","MA","02324"
182174,"35 CHRISTOPHER DRIVE","ATTLEBORO","MA","02703"
182175,"35 CHURCH STREET","WATERTOWN","MA","02472"
182176,"35 CLEVELAND AVENUE","NEWARK","NJ","07106"
182177,"35 COLD SPRING ROAD SUITE 315","ROCKY HILL","CT","06067"
182178,"35 CONIFER RIDGE","CUMBERLAND FORESIDE","ME","04110"
182179,"35 CONWELL AVENUE","CHERRY HILL","NJ","08002"
182180,"35 COPELAND WAY   PO BOX 647","RANGELEY","ME","04970"
182181,"35 CORNELL DRIVE","EAST BRUNSWICK","NJ","08816"
182182,"35 COUNTRY CLUB LANE","EAST GRANBY","CT","06026"
182183,"35 CRESTVIEW AVE","VAUXHALL","NJ","07088"
182184,"35 CULLOWHEE STREET","ASHEVILLE","NC","28801"
182185,"35 CUMBERLAND DRIVE","LINCOLNSHIRE","IL","60069"
182186,"35 DANIELS RD","WEARE","NH","03281"
182187,"35 DARLINGTON AVE","RAMSEY","NJ","07446"
182188,"35 DARMOUTH AVE","BUFFALO","NY","14215"
182189,"35 DEANS MILL ROAD","STONINGTON","CT","06378"
182190,"35 DELAWARE AVENUE","PATERSON","NJ","07503"
182191,"35 DEWITT AVE","BELLEVILLE","NJ","07109"
182192,"35 DIAMOND STREET","PROVIDENCE","RI","02907"
182193,"35 DOGWOOD CIR","INDIANA","PA","15701"
182194,"35 DOLLY HARRIS","SENOIA","GA","30276"
182195,"35 DONAMOR LANE","EAST LONGMEADOW","MA","01028"
182196,"35 DONOVAN ROAD","NORTH BROOKFIELD","MA","01535"
182197,"35 DUKE COURT","FAIRBURN","GA","30213"
182198,"35 DUNE RIDGE LANE","GREAT FALLS","MT","59404"
182199,"35 DURHAM CT","BUFFALO","NY","14204"
182200,"35 E 100 S STE 1005","SALT LAKE CITY","UT","84111"
182201,"35 E 40TH AVENUE","EUGENE","OR","97405"
182202,"35 E GRASSY SPRAIN ROAD","YONKERS","NY","10710"
182203,"35 E LIVINGSTON AVE","COLUMBUS","OH","43215"
182204,"35 E MAIN ST STE 112","AVON","CT","06001"
182205,"35 E MAIN ST","WESTFIELD","NY","14787"
182206,"35 E MCCAULLEY CT","WILMINGTON","DE","19899"
182207,"35 E WACKER DR FLR 37","CHICAGO","IL","60601"
182208,"35 E WASHINGTON ST- APARTMENT 320","PETALUMA","CA","94952"
182209,"35 EARLINGTON DR","GREENEVILLE","TN","37743"
182210,"35 EAST 20TH STREET APT 2","NEW YORK","NY","10003"
182211,"35 EAST 4 STREET UNIT 1","BROOKLYN","NY","11218"
182212,"35 EAST 4 STREET","BROOKLYN","NY","11218"
182213,"35 EAST 40TH AVE","EUGENE","OR","97405"
182214,"35 EAST 4TH STREET       NUMBER 1","BROOKLYN","NY","11218"
182215,"35 EAST CHESTNUT STREET","COLUMBUS","OH","43215"
182216,"35 EAST GAY ST","COLUMBUS","OH","43229"
182217,"35 EAST GRASSY SPRAIN ROAD SUITE400","YONKERS","NY","10710"
182218,"35 ELDERT ST","NEW HAVEN","CT","06511"
182219,"35 ELMWOOD PLACE","MENLO PARK","CA","94025"
182220,"35 EVERGREEN CIRCLE","MANHASSET","NY","11030"
182221,"35 FAIRFAX COVE","JACKSON","TN","38305"
182222,"35 FARMINGTON BLVD","HAMPTON","VA","23666"
182223,"35 FAYWOOD AVENUE UNIT 2","BOSTON","MA","02128"
182224,"35 FIDELIS WAY SUIT 810","BRIGHTON","MA","02135"
182225,"35 FIELDSTONE LANE","SANFORD","ME","04073"
182226,"35 FIFTH STREET UNIT 310","STEAMBOAT SPRINGS","CO","80487"
182227,"35 FIRST ST","NORWALK","CT","06855"
182228,"35 FOLLY ROAD BLVD UNIT 351","CHARLESTON","SC","29407"
182229,"35 FORDHAM AVE","HICKSVILLE","NY","11801"
182230,"35 FOREST DRIVE","LYNCHBURG","VA","24502"
182231,"35 FOXCROFT COURT","NEWNAN","GA","30265"
182232,"35 GERRI ANN DRIVE","BELLEVILLE","IL","62220"
182233,"35 GIBSON ROAD","BRATTLEBORO","VT","05301"
182234,"35 GILBERT STREET","SAN FRANCISCO","CA","94103"
182235,"35 GILLIGAN ROAD","EAST GREENBUSH","NY","12061"
182236,"35 GLASGOW RD","DEFUNIAK SPRINGS","FL","32433"
182237,"35 GLEN EAGLES DR","SUGAR LAND","TX","77479"
182238,"35 GOLF COURSE RD","ELDON","MO","65026"
182239,"35 GOLF COURSE ROAD","ELDON","MO","65026"
182240,"35 GOODFELLOW ROAD","ELVERSON","PA","19520"
182241,"35 GOSHEN RD","DEDHAM","MA","02026"
182242,"35 GRAND AVENUE","ROCHESTER","NY","14609"
182243,"35 GREEN STREET","CONCORD","NH","03301"
182244,"35 GREEN STREET","NEW CANAAN","CT","06840"
182245,"35 GREENFIELD DR","MONROE","LA","71202"
182246,"35 GREENWAY N","FOREST HILLS","NY","11375"
182247,"35 GREENWOOD ST","LENOX","MA","01240"
182248,"35 GROTON LONG POINT RD","GROTON","CT","06340"
182249,"35 H ROAD","ACTON","ME","04001"
182250,"35 HADLEY RD APT 205","SUNDERLAND","MA","01375"
182251,"35 HALLAHAN ROAD","NORTH LAWRENCE","NY","12967"
182252,"35 HARDING STREET","WETHERSFIELD","CT","06109"
182253,"35 HARRISON DRIVE","FRENCHBURG","KY","40322"
182254,"35 HARVARD ST - WELD HALL - BPL","HYDE PARK","MA","02136"
182255,"35 HAVERHILL ST","NORTH READING","MA","01864"
182256,"35 HAVERHILL STREET","NORTH READING","MA","01864"
182257,"35 HAWKSIDE DRIVE","MARKLEEVILLE","CA","96120"
182258,"35 HEATH PLACE","HASTINGS ON HUDSON","NY","10706"
182259,"35 HIETT HOLLOW LANE","PLEASANT SHADE","TN","37145"
182260,"35 HIGH GARDEN TERRACE","NEWNAN","GA","30263"
182261,"35 HIGH ST","NEWTON","NJ","07860"
182262,"35 HIGHLAND CIRCLE SUITE 304","NEEDHAM","MA","02494"
182263,"35 HIGHLAND CIRCLE","PHOENIXVILLE","PA","19460"
182264,"35 HILARY DRIVE","BAYVILLE","NY","11709"
182265,"35 HOLLOWBROOK RD","WINDSOR","CT","06095"
182266,"35 HOLLY STREET","JERSEY CITY","NJ","07305"
182267,"35 HOPE DRIVE","PLAINVIEW","NY","11803"
182268,"35 HOWLAND AVE","EAST PROVIDENCE","RI","02914"
182269,"35 HOWLAND AVENUE","EAST PROVIDENCE","RI","02914"
182270,"35 HS HWY 20 E","TONASKET","WA","98855"
182271,"35 HUMMINGBIRD LANE","SOUTH BURLINGTON","VT","05403"
182272,"35 HUNNEWELL AVENUE","NEWTON","MA","02458"
182273,"35 INDEPENDENCE DRIVE","MANHASSET HILLS","NY","11040"
182274,"35 JEFFREY WAYNE DR","SAINT PETERS","MO","63376"
182275,"35 JUBREY DRIVE","WINDSOR","CT","06095"
182276,"35 KELLOGG STREET FL 2","WESTFIELD","MA","01085"
182277,"35 KENNETH ST APT C1","WEST HAVEN","CT","06516"
182278,"35 KENSINGTON ST","NEWTON","MA","02460"
182279,"35 KENSINGTON ST","NEWTONVILLE","MA","02460"
182280,"35 KIPP STREET","CHAPPAQUA","NY","10514"
182281,"35 LAKE ROAD","ANDOVER","CT","06232"
182282,"35 LANCASTER COUNTY ROAD 6C","HARVARD","MA","01451"
182283,"35 LAPHAM FARM ROAD","PASCOAG","RI","02859"
182284,"35 LAZY ACRES ROAD","NORTH CHITTENDEN","VT","05763"
182285,"35 LEADER ROAD SE","MARIETTA","GA","30008"
182286,"35 LEXINGTON RUN","HORSEHEADS","NY","14845"
182287,"35 LIBBY AVE","WESTBROOK","ME","04092"
182288,"35 LIBERTY ROAD","MARSHFIELD","MA","02050"
182289,"35 LIGHTHOUSE WAY DRIVE","SALEM","SC","29676"
182290,"35 LINCOLN AVE APT 231","METUCHEN","NJ","08840"
182291,"35 LINCOLN ST","MILLVILLE","MA","01529"
182292,"35 LINDEN BLVD SUITE F7","BROOKLYN","NY","11226"
182293,"35 LONGWORTH AVE","BROCKTON","MA","02301"
182294,"35 LOOKER ST","HILLSIDE","NJ","07205"
182295,"35 LOUISE DRIVE","SPRINGBORO","OH","45066"
182296,"35 LOWRY DR","WILMINGTON","DE","19805"
182297,"35 LOWRY RD","BYHALIA","MS","38611"
182298,"35 LYNN DR","HAWTHORN WOODS","IL","60047"
182299,"35 MAHOPAC DR","BEAR","DE","19701"
182300,"35 MAIN ST NUM 1501","BELCHERTOWN","MA","01007"
182301,"35 MAIN ST","CANISTEO","NY","14823"
182302,"35 MAIN STREET","MILFORD","MA","01757"
182303,"35 MANCHESTER RD STE 11A BOX 176","DERRY","NH","03038"
182304,"35 MAPLE DRIVE","LINDENHURST","NY","11757"
182305,"35 MARLIN ROAD","CENTEREACH","NY","11720"
182306,"35 MARSHALL AVE BOX 743","GREEN HARBOR","MA","02040"
182307,"35 MARTIN COVE","WEST POINT","MS","39773"
182308,"35 MCCABE STREET","DARTMOUTH","MA","02748"
182309,"35 MCNULTY DRIVE","NEW MILFORD","CT","06776"
182310,"35 MEADOW DRIVE","ELLAVILLE","GA","31806"
182311,"35 MEADOWLARK LANE","HIGHLAND","IL","62249"
182312,"35 MELROSE AVE","TRYON","NC","28782"
182313,"35 MIDPARK LANE","LADUE","MO","63124"
182314,"35 MIDPARK LANE","SAINT LOUIS","MO","63124"
182315,"35 MIDPARK LANE","ST LOUIS","MO","63124"
182316,"35 MITCHELL BLVD SUITE 6","SAN RAFAEL","CA","94903"
182317,"35 MONTE VISTA","SEDONA","AZ","86336"
182318,"35 MOUNTAIN ASH DRIVE","KINGSTON","MA","02364"
182319,"35 N 5TH ST FL2","NEWARK","NJ","07107"
182320,"35 N HIGHLAND AVENUE","LANSDOWNE","PA","19050"
182321,"35 N MAIN ST","FOND DU LAC","WI","54935"
182322,"35 N MOORE STREET APT 3B","NEW YORK","NY","10013"
182323,"35 N RAYMOND AVE 214","PASADENA","CA","91103"
182324,"35 NELSON ST","CAZENOVIA","NY","13035"
182325,"35 NEWELL COURT","AMHERST","MA","01002"
182326,"35 NOLAND RD","WHITESBORO","TX","76273"
182327,"35 NORTH FOURTH STREET SUITE 200","COLUMBUS","OH","43215"
182328,"35 NORTH HILLS DRIVE","RISING SUN","MD","21911"
182329,"35 NORTHAM AVE","SAN CARLOS","CA","94070"
182330,"35 NORWAY ROAD","BANGOR","ME","04401"
182331,"35 NORWICH ROAD","PLEASANT RIDGE","MI","48069"
182332,"35 NOYES STREET","WARWICK","RI","02886"
182333,"35 OAK STREET","INDIAN ORCHARD","MA","01151"
182334,"35 OAKLAND HILLS PL","ROTONDA WEST","FL","33947"
182335,"35 OAKWOOD DRIVE","MONROE","LA","71203"
182336,"35 ODO PO","SAN ILDEFONSO PUEBLO","NM","87506"
182337,"35 ODO PO","SANTA FE","NM","87506"
182338,"35 OLD MILL RD","KANE","PA","16735"
182339,"35 OLDFIELDS RD","SOUTH BERWICK","ME","03908"
182340,"35 OREGON AVE","MOUNT LAUREL","NJ","08054"
182341,"35 OSTILLA AVE","SPIRNG VALLEY","NY","10977"
182342,"35 OVERHILL ROAD","BALA CYNWYD","PA","19004"
182343,"35 PALM STREET","SPRINGFIELD","MA","01108"
182344,"35 PALOMA HTS 202","COLORADO SPRINGS","CO","80921"
182345,"35 PARK AVENUE SUITE 8C","NEW YORK","NY","10016"
182346,"35 PARRIS ISLAND GTWY UNIT 239","BEAUFORT","SC","29906"
182347,"35 PATTERSON RD SUITE 465045","LAWRENCEVILLE","GA","30044"
182348,"35 PATTERSON RD SUITE 465293","LAWRENCEVILLE","GA","30042"
182349,"35 PATTERSON RD UNIT 46441","LAWRENCEVILLE","GA","30042"
182350,"35 PATTERSON ROAD SUITE-461188","LAWRENCEVILLE","GA","30042"
182351,"35 PATTERSON ROAD UNIT 464065","LAWRENCEVILLE","GA","30042"
182352,"35 PATTON DRIVE","SOMERSET","NJ","08873"
182353,"35 PEEBLES AVE","MORGAN HILL","CA","95037"
182354,"35 PEMBROKE COURT","BAYSHORE","NY","11706"
182355,"35 PERRY RAOD","ORANGE","MA","01364"
182356,"35 PERRY ROAD","ORANGE","MA","01364"
182357,"35 PHIL COURT","MCDONOUGH","GA","30252"
182358,"35 PLUMB HILL ROAD","LITCHFIELD","CT","06759"
182359,"35 POND STREET","REHOBOTH","MA","02769"
182360,"35 POPLAR AVENUE","POMPTON PLAINSP","NJ","07444"
182361,"35 PRINCESS AVENUE","MARLTON","NJ","08053"
182362,"35 PULASKI ROAD","WHITEHOUSE STATION","NJ","08889"
182363,"35 QUAIL RUN","WARREN","NJ","07059"
182364,"35 QUINN STREET","PATERSON","NJ","07501"
182365,"35 RAMAPO ROAD","POMPTON PLAINS","NJ","07444"
182366,"35 RAYMOND AVE","RUTHERFORD","NJ","07070"
182367,"35 REGOLA DR","IRWIN","PA","15642"
182368,"35 RIDGEWAY BLVD","BAY SHORE","NY","11706"
182369,"35 RIPLEY ROAD","COHASSET","MA","02025"
182370,"35 RIVER STREET","BILLERICA","MA","01821"
182371,"35 ROAD 2965","AZTEC","NM","87410"
182372,"35 ROLLING HILLS CIRCLE","DENTON","TX","76205"
182373,"35 ROLPH ST","SAN FRANCISCO","CA","94112"
182374,"35 ROWE STREET APT 2","ROSLINDALE","MA","02131"
182375,"35 S 700 W","LEBANON","IN","46052"
182376,"35 S MAIN STREET","ALLENTOWN","NJ","08501"
182377,"35 S SAINT CLAIR ST APT 506","DAYTON","OH","45402"
182378,"35 SALFORD WAY","TELFORD","PA","18969"
182379,"35 SAN JACINTO DR","GALVESTON","TX","77550"
182380,"35 SAN JOAQUIN PLACE","NOVATO","CA","94947"
182381,"35 SAN JUAN AVENUE","SAN FRANCISCO","CA","94112"
182382,"35 SAND DUNE TRAIL","OCRACOKE","NC","27960"
182383,"35 SAND HILL RD","WEATOGUE","CT","06089"
182384,"35 SAUNDERS ROAD","NORWOOD","MA","02062"
182385,"35 SAWMILL RD","WALPOLE","MA","02081"
182386,"35 SCARLET DRIVE","FREEHOLD","NJ","07728"
182387,"35 SE 9TH STREET","MIAMI","FL","33131"
182388,"35 SE C STREET SUITE D","MADRAS","OR","97741"
182389,"35 SECOND ST","PEQUANNOCK","NJ","07440"
182390,"35 SHERIDAN STREET NW","WASHINGTON","DC","20011"
182391,"35 SILVERTON DR","COVINGTON","GA","30016"
182392,"35 SIMMONS DRIVE","DUXBURY","MA","02332"
182393,"35 SLOCUM ROAD","BEACON","NY","12508"
182394,"35 SMITH STREET","GLEN HEAD","NY","11545"
182395,"35 SO 7TH STREET","YOUNGWOOD","PA","15697"
182396,"35 SOUTH 31ST STREET","WYANDANCH","NY","11798"
182397,"35 SOUTH MAIN ST","MONTGOMERY","PA","17752"
182398,"35 SOUTH PLAZA","PARIS","TX","75460"
182399,"35 SOUTH POTOMAC STREET","BALTIMORE","MD","21224"
182400,"35 SOUTH STREET","BIDDEFORD","ME","04005"
182401,"35 SPYGLASS DRIVE","LITTLETON","CO","80123"
182402,"35 ST JOSEPHS WAY","SCHUYLKILL HAVEN","PA","17972"
182403,"35 STANDISH STREET","CAMBRIDGE","MA","02138"
182404,"35 STANWYCK ROAD","MOUNT LAUREL","NJ","08054"
182405,"35 STATE STREET  PO BOX 14113","ROCHESTER","NY","14614"
182406,"35 STOCKBRIDGE AVENUE","ATHERTON","CA","94027"
182407,"35 STONE CASTLE DRIVE","FOND DU LAC","WI","54935"
182408,"35 STONE CREEK DRIVE","LEMONT","IL","60439"
182409,"35 STONEWALL CIRCLE","WESTMORELAND","NH","03467"
182410,"35 SUGAR MAPLE LANE","LAFAYETTE HILL","PA","19444"
182411,"35 SUNSHINE POINTE","HIGDEN","AR","72067"
182412,"35 TAFT AVE","STATEN ISLAND","NY","10301"
182413,"35 TANAGER ROAD","MOUNT VERNON","KY","40456"
182414,"35 TANNER PARKWAY","CANON CITY","CO","81212"
182415,"35 THARP","WATSONVILLE","CA","95076"
182416,"35 THAYER AVENUE","BROCKTON","MA","02301"
182417,"35 THOMAS ROAD","BERKLEY","MA","02779"
182418,"35 THOMASTON ST","HARTFORD","CT","06112"
182419,"35 THREE POINT GARDEN ROAD","EAST STROUDSBURG","PA","18301"
182420,"35 TILFORD RD","SOMERDALE","NJ","08083"
182421,"35 TIMBERLINE DRIVE","WAYNE","NJ","07470"
182422,"35 TOWER BRIDGE ROAD PO BOX 1326","OAK BLUFFS","MA","02557"
182423,"35 TOWER LANE C/O WESTCOTT FINANCIA","AVON","CT","06001"
182424,"35 TOWER LANE C/O WESTCOTT PLAZA","AVON","CT","06001"
182425,"35 TOWNSEND PLACE","ST AUGUSTINE","FL","32092"
182426,"35 TRAILWOOD","IRVINE","CA","92620"
182427,"35 TRIUMPH LANE","NATCHEZ","MS","39120"
182428,"35 TULIP LANE","PALO ALTO","AR","94303"
182429,"35 ULSTER AVE","ULSTER PARK","NY","12487"
182430,"35 UNION STREET","LYME","NH","03768"
182431,"35 US ROUTE 202 BOX 212","FAR HILLS","NJ","07931"
182432,"35 VALLEY ROAD","COS COB","CT","06807"
182433,"35 VAN BUREN ST NW","WASHINGTON","DC","20012"
182434,"35 VEREDAS DE LOS FLAMBOYANES","GURABO","PR","00778"
182435,"35 VERNON STREET","WHITMAN","MA","02382"
182436,"35 VICTORIA LANE","OCEAN VIEW","NJ","08230"
182437,"35 VIRGINIA AVE","FORT LEE","NJ","07024"
182438,"35 W 69TH ST APT 3R","NEW YORK","NY","10023"
182439,"35 W 74TH ST 3F","NEW YORK","NY","10023"
182440,"35 W SUNRISE AVE","CORAL GABLES","FL","33133"
182441,"35 W VILLAGE LN","DEARBORN","MI","48124"
182442,"35 W WACKER","CHICAGO","IL","60601"
182443,"35 WALLACE ROAD","MOUNT HOLLY","NJ","08060"
182444,"35 WASHINGTON AVENUE","SUFFERN","NY","10901"
182445,"35 WASHINGTON STREET","BRISTOL","RI","02809"
182446,"35 WATERVIEW CT","BLUFFTON","SC","29910"
182447,"35 WATERWOOD","HUNTSVILLE","TX","77320"
182448,"35 WAYNE BLVD","MADISON","NJ","07940"
182449,"35 WEST 35TH ST SUITE 900","NY","NY","10001"
182450,"35 WEST ISLE PLACE","SPRING","TX","77381"
182451,"35 WEST MAIN STREET","BLOOMSBURG","PA","17815"
182452,"35 WEST MARKET ST SUITE 1","RED HOOK","NY","12571"
182453,"35 WHITE STREET","WESTFIELD","MA","01085"
182454,"35 WILLOW WAY","CLARK","NJ","07066"
182455,"35 WINCHESTER DRIVE","HOWELL","NJ","07731"
182456,"35 WOODBROOK DRIVE","MANTUA","NJ","08051"
182457,"35 WOODSIDE WAY","SAN RAFAEL","CA","94901"
182458,"35 WORCESTER AVE","HUDSON","MA","01749"
182459,"35 WORCESTER SQUARE","BOSTON","MA","02118"
182460,"35 WYLIE DRIVE","BRIGHTON","TN","38011"
182461,"35 YUKON AVE","WORCESTER","MA","01605"
182462,"35-03 CRESCENT STREET FLR 1","ASTORIA","NY","11106"
182463,"35-06 LEAVITT STREET","FLUSHING","NY","11354"
182464,"35-10 FARRINGTON STREET 3RD FL","FLUSHING","NY","11354"
182465,"35-20 24TH STREET STE 2E","ASTORIA","NY","11106"
182466,"35-20 73RD STREET APT 6N","JACKSON HEIGHTS","NY","11372"
182467,"35-22 150TH PLACE","FLUSHING","NY","11354"
182468,"35-27 80TH STREET APT 1","JACKSON HEIGHTS","NY","11372"
182469,"35-47 64TH STREET APT 4B","WOODSIDE","NY","11377"
182470,"35-50 34TH STREET  1ST FLOOR","ASTORIA","NY","11106"
182471,"35-58 65TH STREET SUITE 4E","WOODSIDE","NY","11377"
182472,"35-83 89TH STREET APT BSMT","JACKSON HEIGHTS","NY","11372"
182473,"350  NE  151 ST","MIAMI","FL","33162"
182474,"350 10TH AVE SUITE 1000","SAN DIEGO","CA","92101"
182475,"350 44TH AVENUE DR NW","HICKORY","NC","28601"
182476,"350 50TH ST SE SUITE 102","WASHINGTON","DC","20019"
182477,"350 5TH AVE 59TH FLOOR","NEW YORK","NY","10118"
182478,"350 5TH AVE SUITE 6540","NEW YORK","NY","10118"
182479,"350 65TH STREET","BROOKLYN","NY","11220"
182480,"350 A FIELDPOINTE BLVD","FREDERICK","MD","21701"
182481,"350 BEAVER LAKE DRIVE","SAINT CHARLES","MO","63303"
182482,"350 BEDFORD STREET SUITE 303","STAMFORD","CT","06901"
182483,"350 BLACKWOOD CLEMENTON RD APT 1108","PINE HILL","NJ","08021"
182484,"350 BLACKWOOD CLEMENTON RD STE 2206","PINE HILL","NJ","08021"
182485,"350 BONANZA AVENUE","HOMER","AK","99603"
182486,"350 BRADEN AVE","SARASOTA","FL","34243"
182487,"350 BRIDGEBORO RD","MOORESTOWN","NJ","08057"
182488,"350 BROADWAY SPC 10","CHULA VISTA","CA","91910"
182489,"350 BROADWAY SUITE 10","BOULDER","CO","80305"
182490,"350 BUCK SHOALS RD","GAFFNEY","SC","29341"
182491,"350 BUSINESS PARK DRIVE","SUN PRAIRIE","WI","53590"
182492,"350 BYRAM DRIVE   STE 614","BYRAM","MS","39272"
182493,"350 BYRAM DRIVE APT 1105","BYRAM","MS","39272"
182494,"350 CAMINO GARDENS BLVD SUITE 105","BOCA RATON","FL","33432"
182495,"350 CAMINO GARDENS BLVD","BOCA RATON","FL","33432"
182496,"350 CARLYN COURT","DOWNINGTOWN","PA","19335"
182497,"350 CASTLE VIEW LN","EUREKA","MT","59917"
182498,"350 CEDAR ST","EAST BRIDGEWATER","MA","02333"
182499,"350 CHAMPION WAY","GEORGETOWN","KY","40324"
182500,"350 CHERYL DRIVE","TOMS RIVER","NJ","08753"
