"ID","Address","City","State","Zip"
310001,"903 E 3RD ST","PECOS","TX","79772"
310002,"903 E 3RD ST","SAN BERNARDINO","CA","92410"
310003,"903 E BROADWAY","GOLDENDALE","WA","98620"
310004,"903 E CENTRAL","ANDOVER","KS","67002"
310005,"903 E CHURCH ST","SALISBURY","MD","21804"
310006,"903 E CONSTITUTION DRIVE","CHANDLER","AZ","85225"
310007,"903 E HISTORIC COLUMBIA RIVER HWY","TROUTDALE","OR","97060"
310008,"903 E MAIN ST","MARSHALLTOWN","IA","50158"
310009,"903 E MONARCH ST","EAGLE","ID","83616"
310010,"903 E ROUTE 66 STE D","GLENDORA","CA","91740"
310011,"903 E ROUTE 66 SUITE D","GLENDORA","CA","91740"
310012,"903 E WESTCREST RD","COLBERT","WA","99005"
310013,"903 EARLY STREET","SANTA FE","NM","87505"
310014,"903 EAST 37TH STREET","BROOKLYN","NY","11210"
310015,"903 EAST CAUSEWAY BLVD","VERO BEACH","FL","32963"
310016,"903 EMERALD DOVE AVE","COLLEGE STATION","TX","77845"
310017,"903 FENCE LINE RD  425","ARLINGTON","TX","76001"
310018,"903 FENCE LINE RD APT 433","ARLINGTON","TX","76001"
310019,"903 FLEETWOOD DR  UNIT A","TUSCOLA","IL","61953"
310020,"903 FOX CREEK DR UNTI 2","WATERTOWN","WI","53098"
310021,"903 FRANKLIN AVENUE","BROOKLYN","NY","11225"
310022,"903 GARDEN STREET","BRISTOL","PA","19007"
310023,"903 GEORGETOWN ST","MARION","SC","29571"
310024,"903 GLENDALE ROAD","GLENVIEW","IL","60025"
310025,"903 GRANDON AVENUE","COLUMBUS","OH","43209"
310026,"903 HARDAGE LANE","COLLEYVILLE","TX","76034"
310027,"903 HAYNES DRIVE","MURFREESBORO","TN","37129"
310028,"903 HAYS MILL RD APT 1309","CARROLLTON","GA","30117"
310029,"903 HOOVER DRIVE","NORTH BRUNSWICK","NJ","08902"
310030,"903 HOPETOWN ROAD","CHILLICOTHE","OH","45601"
310031,"903 HUEY STREET","WILDWOOD","FL","34785"
310032,"903 HUFF RD NW UNIT 4113","ATLANTA","GA","30318"
310033,"903 HUFF RD NW","ATLANTA","GA","30324"
310034,"903 JOSHUA ST","GREAT FALLS","MT","59405"
310035,"903 KEENELAND RD","FLORISSANT","MO","63034"
310036,"903 KING AVE","RAINIER","OR","97948"
310037,"903 LAKE LILY DRIVE APT A313","MAITLAND","FL","32751"
310038,"903 LOGWOOD ROAD","CAPITAL HEIGHTS","MD","20743"
310039,"903 MANISTIQUE","DETROIT","MI","48215"
310040,"903 MANNING ROAD","NEW BERN","NC","28562"
310041,"903 N 2ND ST","KILLEEN","TX","76541"
310042,"903 N CENTRAL AVE STE A","UPLAND","CA","91786"
310043,"903 N ELM ST","DENTON","TX","76201"
310044,"903 N NORTHWOOD AVE","COMPTON","CA","90220"
310045,"903 NANCY LANE","PLEASANTON","TX","78064"
310046,"903 NATIVE RYE WAY","LEXINGTON","SC","29073"
310047,"903 NEW CASTLE","MIDLOTHIAN","TX","76065"
310048,"903 NORTH SECOND STREET  - SUITE B","EDWARDSVILLE","IL","62025"
310049,"903 NORTH SECOND STREET - SUITE B","EDWARDSVILLE","IL","62025"
310050,"903 NW 122ND TERRACE","NEWBERRY","FL","32669"
310051,"903 NW 8TH AVE","GAINESVILLE","FL","32601"
310052,"903 NW 97 AVENUE APT 107","DORAL","FL","33172"
310053,"903 PACIFIC AVENUE","SANTA CRUZ","CA","95060"
310054,"903 PALMER RD","COLUMBUS","OH","43212"
310055,"903 PARK RIDGE RD APT A9","DURHAM","NC","27713"
310056,"903 PARK TERRACE","LAKEWOOD","NJ","08701"
310057,"903 PARROTT AVE","KINSTON","NC","28501"
310058,"903 PARTRIDGE DRIVE","REDDING","CA","96003"
310059,"903 PINE STREET APT 20","SAN FRANCISCO","CA","94108"
310060,"903 PROVIDENCE PL UNIT 234","PROVIDENCE","RI","02903"
310061,"903 REED AVE","AKRON","OH","44306"
310062,"903 RIGGINS STREET","PARIS","TN","38242"
310063,"903 ROCKING SPUR CV","PFLUGERVILLE","TX","78660"
310064,"903 ROSS ST","HEFLIN","AL","36264"
310065,"903 S ASHLAND AVE UNIT 1108","CHICAGO","IL","60607"
310066,"903 S FIRST ST APT 307","CHAMPAIGN","IL","61820"
310067,"903 SHELBY SPRINGS","SPRING HILL","TN","37174"
310068,"903 SOUTH HILL STREET  APT G4","GRIFFIN","GA","30224"
310069,"903 STODDARD CT","MONTICELLO","IL","61856"
310070,"903 SUMMIT DRIVE","ROCK SPRINGS","WY","82901"
310071,"903 TENTH AVE","REDWOOD CITY","CA","94063"
310072,"903 THISTLE GREEN LANE","DUNCANVILLE","TX","75137"
310073,"903 TREBBIANO CT","DANVILLE","CA","94506"
310074,"903 TRELLIS GATE COURT","COLLEGE STATION","TX","77845"
310075,"903 UNION STREET WEST","JACKSONVILLE","FL","32204"
310076,"903 VAIL STREET","NEW BERN","NC","28560"
310077,"903 VALLEY ST","ENOLA","PA","17025"
310078,"903 W 18TH ST N","WICHITA","KS","67203"
310079,"903 W 30TH ST","HOUSTON","TX","77018"
310080,"903 W 4TH STREET","PANAMA CITY","FL","32401"
310081,"903 W 9TH STREET","OXFORD","AL","36203"
310082,"903 W LUSHER AVE","ELKHART","IN","46517"
310083,"903 W NORTH STREET","PONTIAC","IL","61764"
310084,"903 W PARK BLVD","TAYLORVILLE","IL","62568"
310085,"903 W WRIGHTWOOD AVENUE APT 1F","CHICAGO","IL","60614"
310086,"903 WELLER AVE","LAPORTE","IN","46350"
310087,"903 WEST 70TH PLACE","MERRILLVILLE","IN","46410"
310088,"903 WEST UNION STREET","JACKSONVILLE","FL","32203"
310089,"903 WINHALL WAY","SILVER SPRING","MD","20904"
310090,"903 WINTERS COURT","BEL  AIR","MD","21014"
310091,"9030 E 26TH CT","TULSA","OK","74129"
310092,"9030 FLETCHER PARK CIR S","CORDOVA","TN","38016"
310093,"9030 HIGH DRIVE","LEAWOOD","KS","66206"
310094,"9030 LORTON STATION BLVD APT 462","LORTON","VA","22079"
310095,"9030 MILLER ROAD","PARKER","CO","80138"
310096,"9030 N FIELDING ROAD","BAYSIDE","WI","53217"
310097,"9030 NORTH FREEWAY  SUITE 104C","HOUSTON","TX","77037"
310098,"9030 NORTH FREEWAY SUITE 104C","HOUSTON","TX","77037"
310099,"9030 NORTH FREEWAY SUITE 104D","HOUSTON","TX","77037"
310100,"9030 NW 165 STREET","MIAMI LAKES","FM","33018"
310101,"9030 RANCHO HILLS DRIVE","GILROY","CA","95020"
310102,"9030 SLIGO CREEK PKWY  APT1216","SILVER SPRING","MD","20901"
310103,"9030 STONY POINT PARKWAY SUITE 160","RICHMOND","VA","23235"
310104,"9030 SUNDANCE CT","DEXTER","MI","48130"
310105,"9030 VERBENA ROAD","OAK HILLS","CA","92344"
310106,"9030 W SAHARA AVE 175","LAS VEGAS","NV","89117"
310107,"9030 WEST SAHARA AVENUE SUITE 255","LAS VEGAS","NV","89117"
310108,"9031 AYLESFORD LANE","STOCKTON","CA","95210"
310109,"9031 EAST AMHERST DRIVE UNIT E","DENVER","CO","80231"
310110,"9031 FARNSWORTH AVE N","MINNEAPOLIS","MN","55443"
310111,"9031 HERSHEY STREET","ROSEMEAD","CA","91770"
310112,"9031 MOLINERO COURT","ELK GROVE","CA","95758"
310113,"9031 SE 122ND AVENUE APT 307","MIAMI","FL","33186"
310114,"9031 SE 88TH STREET","OCALA","FL","34472"
310115,"9032 HIGHWAY 451","MOREAUVILLE","LA","71355"
310116,"9032 LETHA LN","SHREVEPORT","LA","71118"
310117,"9032 MAPLE GROVE ROAD","WINDHAM","OH","44288"
310118,"9032 ROSEWALL CT","SPRINGFIELD","VA","22152"
310119,"9032 S 77TH EAST AVENUE","TULSA","OK","74133"
310120,"9032 SW 152 STREET","PALMETTO BAY","FL","33157"
310121,"9032 TECHNOLOGY DR","FISHERS","IN","46038"
310122,"9033 COLERAIN AVE","CINCINNATI","OH","45251"
310123,"9033 COTTON ROSE WAY","LAS VEGAS","NV","89134"
310124,"9033 GUILFORD ROAD","SEVILLE","OH","44273"
310125,"9033 LAKE WASHINGTON BLVD NE","BELLEVUE","WA","98004"
310126,"9033 SAYERS RD","MUNITH","MI","49259"
310127,"9033 WILDBERRY COURT","BOONSBORO","MH","21713"
310128,"9033 WOODBINE ST","BATON ROUGE","LA","70815"
310129,"9034 DAYTONIA","DALLAS","TX","75218"
310130,"9034 E 49TH PL","DENVER","CO","80238"
310131,"9034 LITTLE PRINCESS","ST. CROIX","VI","00820"
310132,"9034 MAJESTY LN","RICHMOND","TX","77469"
310133,"9034 MOONLIT MEADOW LOOP","RIVERVIEW","FL","33578"
310134,"9034 N SEYMORE AVENUE","KANSAS CITY","MO","64153"
310135,"9034 TUMBLEWOOD DR","BAYTOWN","TX","77523"
310136,"9035 ALSANDAIR COURT","RENO","NV","89506"
310137,"9035 DEER RUN DR N","ALLENTON","WI","53002"
310138,"9035 GREENMEADOW DR","BROOKVILLE","IN","47012"
310139,"9035 PARKLAND DR","YPSILANTI","MI","48197"
310140,"9035 TELLURIDE COVE","GERMANTOWN","TN","38138"
310141,"9035 TWELVESTONES DR","ROSWELL","GA","30022"
310142,"9035 W CENTRAL AVE","WICHITA","KS","67212"
310143,"9035 W MORRIS ST","INDIANAPOLIS","IN","46231"
310144,"9035","BOISE","ID","83707"
310145,"9036 20TH STREET","STANLEY","IA","50671"
310146,"9036 BRONSON DRIVE","POTOMAC","MD","20854"
310147,"9036 CALVINE ROAD","SACRAMENTO","CA","95829"
310148,"9036 PARKWOOD","BELLEVILLE","MI","48111"
310149,"9036 PINEY BRANCH RD APT 102","SILVER SPRING","MD","20903"
310150,"9036 SUNNYVALE DRIVE","CHANHASSEN","MN","55317"
310151,"9036 W REMINGTON PL","LITTLETON","CO","80128"
310152,"9037 CASALS ST APT 1","SACRAMENTO","CA","95826"
310153,"9037 FIELDING ST","DETROIT","MI","48228"
310154,"9037 INDEPENDENCE AVE SUITE A2","DAPHNE","AL","36526"
310155,"9037 RON DEN LANE","WINDERMERE","FL","34786"
310156,"9037 WIND WARRIOR AVENUE","LAS VEGAS","NV","89143"
310157,"9038 DAWES XING","MCDONOUGH","GA","30252"
310158,"9038 GULF COVE DR","LAKE WORTH","FL","33467"
310159,"9038 JENNI CIRCLE","JONESBORO","GA","30238"
310160,"9038 N CUMBERLAND AVE","NILES","IL","60714"
310161,"9038 NE 141 ST","KIRKLAND","WA","98034"
310162,"9038 S  SHARTEL AVE  APT 204","OKLAHOMA CITY","OK","73139"
310163,"9038 S CLYDE AVE","CHICAGO","IL","60617"
310164,"9038 SOUTH UNIVERSITY AVENUE","CHICAGO","IL","60619"
310165,"9038 WONDERLAND PARK AVE","LOS ANGELES","CA","90046"
310166,"9039 BENNETT LAKE RD","FENTON","MI","48430"
310167,"9039 BROADMOOR BEND","SAN ANTONIO","TX","78251"
310168,"9039 KNIGHT AVE","DES PLAINES","IL","60016"
310169,"9039 QUAIL CREEK DRIVE","TAMPA","FL","33647"
310170,"9039 SLIGO CREEK PARKWAY APT 1709","SILVER SPRING","MD","20901"
310171,"903A SE 7TH ST","LEES SUMMIT","MO","64063"
310172,"904 6TH STREET","HOLLY HILL","FL","32117"
310173,"904 81ST STREET","LINO LAKES","MN","55014"
310174,"904 8TH AVE SE","AUSTIN","MN","55912"
310175,"904 9TH ST SE","WASECA","MN","56093"
310176,"904 AIRPORT RD S","JASPER","AL","35501"
310177,"904 ALTAVIA","HAZELWOOD","CA","63042"
310178,"904 AMARILLO STREET","PLAINVIEW","TX","79072"
310179,"904 ARBOR CREEK WAY","NASHVILLE","TN","37217"
310180,"904 ARTHUR AVE","PANAMA CITY","FL","32401"
310181,"904 AUTUMN ROAD SUITE 500","LITTLE ROCK","AR","72211"
310182,"904 BEGONIA DR","SAN LEANDRO","CA","94578"
310183,"904 BOWIE ST","AMARILLO","TX","79102"
310184,"904 CAPITAL AVE","BELLEVUE","MI","49021"
310185,"904 CHOCTAW DRIVE","VICKSBURG","MS","39180"
310186,"904 CLARA STREET","RULEVILLE","MS","38771"
310187,"904 COUNTRY PLACE ROAD","ASHEBORO","NC","27203"
310188,"904 COUNTY ROAD D WEST APT 225","NEW BRIGHTON","MN","55112"
310189,"904 CRISTANOS DRIVE","BERNALILLO","NM","87004"
310190,"904 CROFOOT AVENUE SW","BUFFALO","MN","55313"
310191,"904 DAWNLIGHT DRIVE","DENTON","TX","76210"
310192,"904 E 11TH AVE","POST FALLS","ID","83854"
310193,"904 E HAMLINE","GARDEN CITY","KS","67846"
310194,"904 E HOWE SPRINGS RD","FLORENCE","SC","29505"
310195,"904 E KINGS HIGHWAY","SHREVEPORT","LA","71118"
310196,"904 E MEADOWMERE LANE","AUSTIN","TX","78758"
310197,"904 EAST END RD","NEWTON","NJ","07860"
310198,"904 EAST LIVE OAK STREET","AUSTIN","TX","78704"
310199,"904 EMBER COURT","STOCKBRIDGE","GA","30281"
310200,"904 ERICH RD","RICHMOND","VA","23225"
310201,"904 FLOWER AVE","PANAMA CITY","FL","32401"
310202,"904 GLEN COVE","MADISON","MS","39110"
310203,"904 GOLDENROD STREET","ESCONDIDO","CA","92027"
310204,"904 HILLCREST DR","CHILDRESS","TX","79201"
310205,"904 LELA LANE","CHESAPEAKE","VA","23322"
310206,"904 LENAPE LAKE RAOD","LIVINGSTON MANOR","NY","12758"
310207,"904 LONGMEADOW LANE","DESOTO","TX","75115"
310208,"904 MABEL AVE","SALISBURY","MD","21804"
310209,"904 MAE WAY","BRENHAM","TX","77833"
310210,"904 MARLBOROUGH AVENUE","ABSECON","NJ","08201"
310211,"904 MASON TOWN ROAD","NEWPORT","NC","28570"
310212,"904 MATAGORDA LANE","LAS VEGAS","NV","89133"
310213,"904 MENUSA COURT","SANTA MARIA","CA","93458"
310214,"904 MERCHANTS WALK SW","HUNTSVILLE","AL","35801"
310215,"904 MICHIGAN AVENUE","EVANSTON","IL","60202"
310216,"904 MISTY GLEN LANE","DALLAS","TX","75232"
310217,"904 MLK BLVD SW","ATLANTA","GA","30314"
310218,"904 MORRIS AVENUE","BRONX","NY","10451"
310219,"904 N 26TH STREET","RICHMOND","VA","23223"
310220,"904 N 4TH ST","CLINTON","MO","64735"
310221,"904 N 4TH STREET","YAKIMA","WA","98901"
310222,"904 N FIRST ST","ENFIELD","IL","62835"
310223,"904 N LA BREA AVE SUITE 5","INGLEWOOD","CA","90302"
310224,"904 N MAIN ST","MISHAWAKA","IN","46545"
310225,"904 N MINNESOTA ST","NEW ULM","MN","56073"
310226,"904 N MURRAY 202","COLORADO SPRINGS","CO","80915"
310227,"904 N ROOSEVELT","BLOOMINGTON","IL","61701"
310228,"904 NORTH BARKSDALE STREET","MEMPHIS","TN","38107"
310229,"904 NORTH MAIN STREET","ANDERSON","SC","29621"
310230,"904 OAKLANE DRIVE","ORANGEBURG","SC","29115"
310231,"904 PEACH STREET","NEW BADEN","IL","62265"
310232,"904 PEMBROKE AVENUE","LANSDOWNE","PA","19050"
310233,"904 PIT ROAD","ANTIGO","WI","54409"
310234,"904 PLAYERS CIRCLE","SUMMERVILLE","SC","29485"
310235,"904 PRAIRIE PATH LN","JOLIET","IL","60436"
310236,"904 REVEILLE RD","FORT WORTH","TX","76108"
310237,"904 ROYAL AVE B","LEXINGTON","KY","40505"
310238,"904 S 102ND ST","SEATTLE","WA","98168"
310239,"904 S 10TH ST","GOSHEN","IN","46526"
310240,"904 S 12TH AVE","EDINBURG","TX","78539"
310241,"904 S 30TH AVE","YAKIMA","WA","98902"
310242,"904 SAINT CHARLES AVE APT 6","ATLANTA","GA","30306"
310243,"904 SCOTCH PINE CT","SANDSTON","VA","23150"
310244,"904 SEDGEFIELD ST","DURHAM","NC","27705"
310245,"904 SHETLAND COURT","CHADDS FORD","PA","19317"
310246,"904 SILVER SPUR ROAD - SUITE 220","ROLLING HILLS ESTATE","CA","90274"
310247,"904 SILVER SPUR ROAD NUM 655","ROLLING HILLS ESTATE","CA","90274"
310248,"904 SNOWFALL SPUR","AKRON","OH","44313"
310249,"904 SOUTH STREET","LAFAYETTE","IN","47901"
310250,"904 STONEHAM DR","WEST CHESTER","PA","19382"
310251,"904 SUSSEX COVE","CIBOLO","TX","78108"
310252,"904 SW 163RD STREET","LEE'S SUMMIT","MO","64082"
310253,"904 TARA DR","BURLESON","TX","76028"
310254,"904 UNION ST APT 4A","BROOKLYN","NY","11215"
310255,"904 W 11TH ST","YANKTON","SD","57078"
310256,"904 W KENOSHA ST","BROKEN ARROW","OK","74012"
310257,"904 WASHINGTON ST","LEAD","SD","57754"
310258,"904 WATERVIEW DRIVE","CEDAR HILL","TX","75104"
310259,"904 WEST 11TH AVENUE","STILLWATER","OK","74074"
310260,"904 WEST 730 NORTH CIRCLE","SAINT GEORGE","UT","84770"
310261,"904 WEST MAPLE STREET","CLYDE","OH","43410"
310262,"904 WHITMAN DR","TURNERSVILLE","NJ","08012"
310263,"904 WYNNDALE RD","TERRY","MS","39170"
310264,"904 YOUNGS FARM ROAD","CEDARTOWN","GA","30125"
310265,"904","MERCER ISLAND","WA","98040"
310266,"9040 40TH STREET NW","MILAN","MN","56262"
310267,"9040 BRELAND DR","TAMPA","FL","33626"
310268,"9040 BRENTWOOD BLVD STE B","BRENTWOOD","CA","94513"
310269,"9040 MARL BRANCH COURT","MECHANICSVILLE","VA","23116"
310270,"9040 N IROQUOIS RD","BAYSIDE","WI","53217"
310271,"9040 S VINCENNES AVE","CHICAGO","IL","60620"
310272,"9040 STINSON BEACH WAY","ELK GROVE","CA","95758"
310273,"9040 TOWN CENTER PARKWAY","BRADENTON","FL","34202"
310274,"9040 TOWN CENTER PARKWAY","LAKEWOOD RANCH","FL","34202"
310275,"9040 TURNBERRY CIRCLE","LINCOLN","NE","68526"
310276,"9041 152ND AVE","ELMHURST","NY","11373"
310277,"9041 COMMONWEALTH ROAD","BENTONVILLE","AR","72712"
310278,"9041 COVINA STREET","SAN DIEGO","CA","92126"
310279,"9041 RALPH STREET","ROSEMEAD","CA","91770"
310280,"9041 WEST MOUNT DRIVE","ROCKY MOUNT","NC","27803"
310281,"9042 ECHO STREET","EL PASO","TX","79904"
310282,"9042 SW 142ND AVE - SUITE 218","MIAMI","FL","33186"
310283,"9042 W COUNTY ROAD 350 N","MULBERRY","IN","46058"
310284,"9043 HOLLYBROOK LN S","GERMANTOWN","TN","38138"
310285,"9043 LONGMONT","DALLAS","TX","75238"
310286,"9044 CHURCH STREET","TWINSBURG","OH","44087"
310287,"9044 ESTATE STRAWBERRY","CHRISTIANSTED","VI","00820"
310288,"9044 HUNTWOOD LANE","RIVERDALE","GA","30274"
310289,"9044 SHADY VISTA COURT","ELK GROVE","CA","95624"
310290,"9044 SOUTHLAND RD","MANTECA","CA","95337"
310291,"9044 W 167TH STREET","ORLAND HILLS","IL","60487"
310292,"9045 ANCESTOR DR","ELK GROVE","CA","95758"
310293,"9045 JEFFERSON HWY","RIVER RIDGE","LA","70123"
310294,"9045 LA FORTANA BLVD STE 105","BOCA RATON","FL","33434"
310295,"9045 NW MURDOCK STREET","PORTLAND","OR","97229"
310296,"9045 S LOOMIS","CHICAGO","IL","60620"
310297,"9046 LANTANA DR","CORONA","CA","92883"
310298,"9046 S JUSTINE STREET UNIT 1","CHICAGO","IL","60620"
310299,"9047 51ST AVENUE 2FL","ELMHURST","NY","11373"
310300,"9047 S 220 EAST","SANDY","UT","84070"
310301,"9047 THE LANE","NAPLES","FL","34109"
310302,"9048 BELVOIR DRIVE","BIRMINGHAM","AL","35206"
310303,"9048 HERRING COVE AVE","LAS VEGAS","NV","89178"
310304,"9048 HOWELLS FERRY RD","SEMMES","AL","36575"
310305,"9048 ORCHARD VALLEY ROAD","WEST BEND","WI","53090"
310306,"9049 ANDROMEDA DR","BURKE","VA","22015"
310307,"9049 CRYSTAL LAKE DRIVE","INDIANAPOLIS","IN","46240"
310308,"9049 S ELIZABETH","CHICAGO","IL","60620"
310309,"905 1/2 CALUMET AVE","VALPARAISO","IN","46383"
310310,"905 10TH ST","MUKILTEO","WA","98275"
310311,"905 14TH STREET","LAKEWOOD","NJ","08701"
310312,"905 18TH STREET","SEAGRAVES","TX","79359"
310313,"905 25TH ST NE","CANTON","OH","44714"
310314,"905 4TH AVENUE EXT","FARMVILLE","VA","23901"
310315,"905 ALDEN ROAD","ABERDEEN","WA","98520"
310316,"905 AMBER DR","NORCROSS","GA","30071"
310317,"905 ANGELAS CT","CALIFORNIA","MO","65018"
310318,"905 ANN COURT","BELLEVILLE","WI","53508"
310319,"905 AUGUSTANA WAY","FAIRVIEW HEIGHTS","IL","62208"
310320,"905 AVE N NW","CHILDRESS","TX","79201"
310321,"905 AVIS DRAIVE","EL CERRITO","CA","94530"
310322,"905 AYERS","MEMPHIS","TN","38107"
310323,"905 BALFOUR ROAD","WEST MEMPHIS","AR","72301"
310324,"905 BARNES DRIVE","WATERFORD","WI","53185"
310325,"905 BASIL ROAD","SWANSEA","SC","29160"
310326,"905 BATTLEFIELD TRAIL","CHATTANOOGA","TN","37409"
310327,"905 BERKSHIRE ROAD","ANN ARBOR","MI","48104"
310328,"905 BEVERLY DRIVE","FLORENCE","SC","29501"
310329,"905 BLUE STORE RD","FORSYTH","GA","31029"
310330,"905 BLUFFVIEW ELEMENTARY","DUPO","IL","62239"
310331,"905 BRICKELL BAY DR 1831","MIAMI","FL","33131"
310332,"905 BROADWAY AVE","BREMERTON","WA","98337"
310333,"905 BUFFALO STREET","JOHNSON CITY","TN","37604"
310334,"905 CALLE LIMON","AUSTIN","TX","78702"
310335,"905 CARDENAS DR NE","ALBUQUERQUE","NM","87108"
310336,"905 CARLYON AVE SE","OLYMPIA","WA","98501"
310337,"905 CATERPILLAR LANE","CANTONMENT","FL","32533"
310338,"905 CATHERINE ST","RICHMOND","VA","23220"
310339,"905 CENTRAL AVE","UNION CITY","NJ","07087"
310340,"905 CHAMBERS ROAD","YORK","PA","17402"
310341,"905 CHARING CROSS","CAVE SPRINGS","AR","72718"
310342,"905 CHIPPEWA LANE","WILMETTE","IL","60091"
310343,"905 CHURCH ST","DECATUR","TX","76234"
310344,"905 CLEVELAND ST","DENTON","TX","76201"
310345,"905 COACHWAY","ANNAPOLIS","MD","21401"
310346,"905 COLUMBIA AVE","PALMYRA","NJ","08065"
310347,"905 COTATI TER UNIT 5","SUNNYVALE","CA","94085"
310348,"905 COUNTY ROAD 2311","TEXARKANA","TX","75503"
310349,"905 CRISTELLE JEAN DR","RUSKIN","FL","33570"
310350,"905 CYPRESS STATION I14","HOUSTON","TX","77090"
310351,"905 DAVIS AVE","CORNING","IA","50841"
310352,"905 DEAN WAY","FORT MYERS","FL","33919"
310353,"905 DOUGLAS STREET","SHELBY","MS","38774"
310354,"905 E 118TH TER","KANSAS CITY","MO","64131"
310355,"905 E 13TH AVE","DENVER","CO","80218"
310356,"905 E 90TH ST","LOS ANGELES","CA","90002"
310357,"905 E DANBURY DRIVE","DESOTO","TX","75115"
310358,"905 E JACKIE ROBINSON DRIVE","DURHAM","NC","27701"
310359,"905 E JACKIE ROBINSON DRIVE","DURHAM","NC","27707"
310360,"905 E RIVER ST","ANDERSON","SC","29624"
310361,"905 E SUMMERLINE STREET","BARTOW","FL","33830"
310362,"905 EAST 226TH STREET","BRONX","NY","10466"
310363,"905 EAST ANDRE AVE","MT PLEASANT","MI","48858"
310364,"905 EAST LAFAYETTE STREET","DOTHAN","AL","36301"
310365,"905 EASTERN AVE","ROCKY MOUNT","NC","27801"
310366,"905 EDENBRIDGE HALL","FLORENCE","SC","29501"
310367,"905 FAIRBANKS CIR","DUNCANVILLE","TX","75137"
310368,"905 FAIRWAY LANE SE","IOWA CITY","IA","52240"
310369,"905 FALLSCROFT WAY","LUTHERVILLE","MD","21093"
310370,"905 GARFIELD STREET","JACKSONVILLE","FL","32209"
310371,"905 HARBOR LANDING","ROSWELL","GA","30076"
310372,"905 HARRISON ST SUITE 101","ALLENTOWN","PA","18103"
310373,"905 HARRISON STREET","ALLENTOWN","PA","18103"
310374,"905 HOMEWOOD POINT APT 208","COLORADO SPRINGS","CO","80903"
310375,"905 INDIANA AVENUE","LEMOYNE","PA","17043"
310376,"905 JOLIET STREET SUITE 201","DYER","IN","46311"
310377,"905 KENT DRIVE","DOTHAN","AL","36303"
310378,"905 KESWICH COURT","MADISON","MS","39110"
310379,"905 LAKE LILY DRIVE C241","MAITLAND","FL","32751"
310380,"905 LASSEN STREET","VALLEJO","CA","94591"
310381,"905 LESSEL DRIVE","JACKSONVILLE","AR","72076"
310382,"905 LICHTE DRIVE","MAZOMANIE","WI","53560"
310383,"905 LINCOLN ST SE","BONDURANT","IA","50035"
310384,"905 LORELEI DRIVE","ZION","IL","60099"
310385,"905 LYNN ST","TIPTON","IA","52772"
310386,"905 MAIN STREET","WILLIMANTIC","CT","06226"
310387,"905 MOLINE ST","AURORA","CO","80010"
310388,"905 N BROADWAY","FERGUS FALLS","MN","56537"
310389,"905 N CONWAY AVE","MISSION","TX","78572"
310390,"905 N GRANITE DRIVE","PAYSON","AZ","85541"
310391,"905 N HAMPTON DR","DAVENPORT","FL","33897"
310392,"905 N HWY 69","HUXLEY","IA","50124"
310393,"905 N MAIN STREET","NAPERVILLE","IL","60563"
310394,"905 N OAKWOOD","ENID","OK","73703"
310395,"905 N PRICE LANE","CLINTON","MO","64735"
310396,"905 NC HWY 581 NORTH","GOLDSBORO","NC","27530"
310397,"905 NE 209 STREET APT 202","MIAMI","FL","33179"
310398,"905 NOLAN BLVD","MADISON","AL","35758"
310399,"905 NORTH CLAY AVENUE","JACKSONVILLE","IL","62650"
310400,"905 NUECES STREET","AUSTIN","TX","78701"
310401,"905 NW 192ND TERRACE","EDMOND","OK","73012"
310402,"905 OVILLA OAKS DRIVE","OVILLA","TX","75154"
310403,"905 PARK AVENUE EAST","LADYSMITH","WI","54848"
310404,"905 PARK AVENUE EAST","LADYSMTIH","WI","54848"
310405,"905 PAULETTE DR","DEERPARK","TX","77536"
310406,"905 PEBBLESTONE STONE DRIVE","DURHAM","NC","27703"
310407,"905 PENNSYLVANIA AVENUE","LYNN HAVEN","FL","32444"
310408,"905 PINKSTON STREET","GRANDVIEW","MO","64030"
310409,"905 POQUOSON CROSSING","CHESAPEAKE","VA","23320"
310410,"905 PRINCESS ANNE STREET","FREDERICKSBURG","VA","22401"
310411,"905 RED DEER DRIVE","EULESS","TX","76039"
310412,"905 ROBINBROOK LN","WAXHAW","NC","28173"
310413,"905 ROSEBUD AVE","TWIN LAKES","WI","53181"
310414,"905 ROWLEY ST","WALKER","IA","52352"
310415,"905 ROYAL OAK DRIVE","ST MARYS","OH","45885"
310416,"905 S BOSTWICK","CHARLOTTE","MI","48813"
310417,"905 S GOODWIN AVE 450 BEVIER HALL","URBANA","IL","61801"
310418,"905 S MELODY LANE","TEMPE","AZ","85281"
310419,"905 S PRAIRIE AVENUE SUITE B","INGLEWOOD","CA","90301"
310420,"905 SHAMROCK LANE","WATERTOWN","WI","53094"
310421,"905 SHEEHY DRIVE","HORSHAM","PA","19044"
310422,"905 SHELBY LANE","LEWISVILLE","TX","75056"
310423,"905 SHOO FLY RD","NEW BERN","NC","28560"
310424,"905 SOUTH PIKE STREET","SHELBYVILLE","IN","46176"
310425,"905 SOUTHWIND CT","MURRELLS INLET","SC","29576"
310426,"905 SPRING STREET - B","PLACERVILLE","CA","95667"
310427,"905 STEWART ST","ATLANTA","TX","75551"
310428,"905 SUBURBAN AVE","MADERA","CA","93637"
310429,"905 SUMMERCHASE DR","DULUTH","GA","30096"
310430,"905 SUNSET RD W","BRENTWOOD","TN","37027"
310431,"905 SUTHERLAND DR","SAINT ALBANS","WV","25177"
310432,"905 SW 11TH TERRACE","DELRAY BEACH","FL","33444"
310433,"905 SW 15 STREET","POMPANO BEACH","FL","33060"
310434,"905 SW 9TH TERRACE","FORT LAUDERDALE","FL","33315"
310435,"905 SWINGING BRIDGE ROAD","OLD HICKORY","TN","37138"
310436,"905 TINTON AVENUE APT 9E","BRONX","NY","10456"
310437,"905 TWIN HILLS DR","BANNING","CA","92220"
310438,"905 TWIN PINES DRIVE","MADISON","WI","53704"
310439,"905 UNIVERSITY DR","PONTIAC","MI","48342"
310440,"905 VANDERBILT DRIVE","NORMAL","IL","61761"
310441,"905 VENTURA WAY","MILL VALLEY","CA","94941"
310442,"905 VIA AVENIDA","MESQUITE","TX","75150"
310443,"905 VISTA VERDE WAY","BAKERSFIELD","CA","93309"
310444,"905 W 86TH STREET","CHICAGO","IL","60620"
310445,"905 W ACADEMY","MAIZE","KS","67101"
310446,"905 W BROADWAY ST","LOOGOOTEE","IN","47553"
310447,"905 W DECATUR STREET","BROKEN ARROW","OK","74011"
310448,"905 W EISENHOWER CIRCLE SUITE 108","ANN ARBOR","MI","48103"
310449,"905 W ELEVEN MILE","MADISON HEIGHTS","MI","48071"
310450,"905 W LILY CACHE LANE","BOLINGBROOK","IL","60440"
310451,"905 W MAIN STREET","GRAND LEDGE","MI","48837"
310452,"905 W MIDDLEFIELD RD APT 966","MOUNTAIN VIEW","CA","94043"
310453,"905 W PALMER ST","ABINGDON","IL","61410"
310454,"905 W POPLAR STREET","COMPTON","CA","90220"
310455,"905 WATERTON AVE","MYRTLE BEACH","SC","29579"
310456,"905 WEST 18TH STREET","PORTALES","NM","88130"
310457,"905 WEST 2325 SOUTH","PERRY","UT","84302"
310458,"905 WEST DADE 56","LOCKWOOD","MO","65682"
310459,"905 WEST EDGEWOOD DRIVE","FRIENDSWOOD","TX","77546"
310460,"905 WEST EISENHOWER SUITE 108","ANN ARBOR","MI","48103"
310461,"905 WEST THORNBURGH STREET","WEST PLAINS","MO","65775"
310462,"905 WHITE DOVE DRIVE","ARLINGTON","TX","76017"
310463,"905 WILDFLOWER RIDGE ROAD","WAKE FOREST","NC","27587"
310464,"905 WIND RIVER ST SE","ALBUQUERQUE","NM","87123"
310465,"905 WIND RIVER STREET SE","ALBUQUERQUE","NM","87123"
310466,"905 WREN SCHOOL RD","PIEDMONT","SC","29673"
310467,"9050 160TH LANE NW","RAMSEY","MN","55303"
310468,"9050 CHURCH STREET","TWINSBURG","OH","44087"
310469,"9050 IRON HORSE LANE 119","PIKESVILLE","MD","21208"
310470,"9050 KEATON CREEK DR","VILLA RICA","GA","30180"
310471,"9050 KRAFT AVE","CALEDONIA","MI","49316"
310472,"9050 MARKVILLE DR APT 434","DALLAS","TX","75243"
310473,"9050 MCNOUN RD","WINCHESTER","OH","45697"
310474,"9050 PINES BLVD SUITE 383","PEMBROKE PINES","FL","33029"
310475,"9050 S RICHMOND AVE","EVERGREEN PARK","IL","60805"
310476,"9050 SEWARD PARK AVE BOX 44","SEATTE","WA","98118"
310477,"9050 VICINO DRIVE","ELK GROVE","CA","95758"
310478,"9051 CATTARAUGUS AVENUE APT 3","LOS ANGELES","CA","90034"
310479,"9051 MANSFIELD RD BLD E STE 2","SHREVEPORT","LA","71118"
310480,"9051 MANSFIELD ROAD BLDG B SUITE 5","SHREVEPORT","LA","71118"
310481,"9051 N 72ND DR","PEORIA","AZ","85345"
310482,"9051 OASIS AVE","WESTMINSTER","CA","92683"
310483,"9051 RANDOLPH CIRCLE","BEALETON","VA","22712"
310484,"9051 RED BRANCH RD STE N","COLUMBIA","MD","21045"
310485,"9051 SHADY ELM LANE","OLMSTED TOWNSHIP","OH","44138"
310486,"9051 WATSON RD STE 331","SAINT LOUIS","MO","63126"
310487,"9052 140TH AVE SE","NEWCASTLE","WA","98059"
310488,"9052 BIG PLANTATION AVE","LAS VEGAS","NV","89143"
310489,"9053 ESTATE THOMAS STE 101","ST THOMAS","VI","00802"
310490,"9053 ESTATE THOMAS SUITE 101","ST THOMAS","VI","00802"
310491,"9053 ESTATE THOMAS SUITE 101","ST. THOMAS","VI","00802"
310492,"9053 ESTATE THOMAS SUITE 103","SAINT THOMAS","VI","00802"
310493,"9053 OLD HIGHWAY 52","WESTMORELANDT","TN","37186"
310494,"9053 STATE ROAD Y","DITTMER","MO","63023"
310495,"9054 TRUMPS HILL ROAD","UPPER MARLBORO","MD","20772"
310496,"9054 WILVERNE","WINDHAM","OH","44288"
310497,"9055 16TH PLACE  UNIT C","VERO BEACH","FL","32966"
310498,"9055 BABER DRIVE","MANASSAS","VA","20112"
310499,"9055 LAKEVIEW DRIVE","OLMSTED FALLS","OH","44138"
310500,"9055 NW 44TH COURT","CORAL SPRINGS","FL","33231"
