"ID","Address","City","State","Zip"
278501,"7113 SAMUEL DRIVE","INDIANAPOLIS","IN","46259"
278502,"7113 SAN PEDRO AVE NO 508","SAN ANTONIO","TX","78216"
278503,"7113 SAND LAKE RESERVE DRIVE 2302","ORLANDO","FL","32819"
278504,"71131 US HIGHWAY 131","WHITE PIGEON","MI","49099"
278505,"7114 BLAZEWOOD","SAN ANTONIO","TX","78250"
278506,"7114 DESTINY HILLS DR","AUSTIN","TX","78738"
278507,"7114 E STETSON DR SUITE 360","SCOTTSDALE","AZ","85251"
278508,"7114 ECKHERT RD","SAN ANTONIO","TX","78238"
278509,"7114 FENWICK ST","Graniteville","SC","29829"
278510,"7114 FIELDRIDGE COURT","LOUISVILLE","KY","40291"
278511,"7114 IMLAY CITY ROAD","NORTH STREET","MI","48049"
278512,"7114 LONGSTREET DR UNIT B","RALEIGH","NC","27615"
278513,"7114 NORTHAVEN ROAD","DALLAS","TX","75230"
278514,"7114 PRESTON COURT","CHARLOTTE","NC","28215"
278515,"7114 RIMWOOD ST","LIVE OAK","TX","78233"
278516,"7114 SEAWIND DR","LONG BEACH","CA","90803"
278517,"7114 SOUTH BOUNDARY BLVD","MACDILL AFB","FL","33621"
278518,"7114 TESSA LAKES COURT","SUGAR LAND","TX","77479"
278519,"7114 W MANCHESTER","LOS ANGELES","CA","90045"
278520,"7114 WEST HATCHER ROAD","PEORIA","AZ","85345"
278521,"7114 WEYBURN ST","HOUSTON","TX","77028"
278522,"7115 CROSS STREET","DISTRICT HEIGHTS","MD","20747"
278523,"7115 DILLON DR","DALLAS","TX","75227"
278524,"7115 E 80TH STREET","TULSA","OK","74133"
278525,"7115 EXCALIBUR COURT","HAMILTON","OH","45011"
278526,"7115 JOHNSON RD","GALLOWAY","OH","43119"
278527,"7115 LISA GAYLE LANE","CHATTANOOGA","TN","37421"
278528,"7115 N 54TH AVE","GLENDALE","AZ","85301"
278529,"7115 NORTH RIVER ROAD","RIVER HILLS","WI","53217"
278530,"7115 NORTHGREEN DR","ATLANTA","GA","30328"
278531,"7115 OAK RIDGE PARKWAY SUITE 110","AUSTELL","GA","30168"
278532,"7115 POPLAR AVE","TAKOMA PARK","MD","20912"
278533,"7115 REITE AVE","WINDSOR HTS","IA","50324"
278534,"7115 ROSEPARK BLVD","LEWIS CENTER","OH","43035"
278535,"7115 S 45TH ST","LINCOLN","NE","68516"
278536,"7115 SANDY FORKS RD APT 3B","RALEIGH","NC","27615"
278537,"7115 SANDY FORKS ROAD APT 3B","RALEIGH","NC","27615"
278538,"7115 SILVER MINE CROSSING","AUSTELL","GA","30168"
278539,"7115 TAYLOR RD","LYNCHBURG","VA","24502"
278540,"7115 VALLEY DR","LITTLE ROCK","AR","72209"
278541,"7115 W JOHN CABOT ROAD","GLENDALE","AZ","85308"
278542,"7115 WILLOW HILL DRIVE","CAPITAL HEIGHTS","MD","20743"
278543,"7115 WINDING CEDAR TRAIL 101","CHARLOTTE","NC","28212"
278544,"7116 2ND AVE","RUDOLPH","WI","54475"
278545,"7116 CHURCH LANE","EAST SAINT LOUIS","IL","62203"
278546,"7116 GREENWAY AVE","PHILADELPHIA","PA","19142"
278547,"7116 HILLSHIRE LANE","SACHSE","TX","75048"
278548,"7116 LIBBY RD","PLANO","TX","75024"
278549,"7116 S MORGAN","CHICAGO","IL","60621"
278550,"7116 SELLERS AVENUE","UPPER DARBY","PA","19082"
278551,"7116 TICKLEGRASS STREET","WINTER GARDEN","FL","34787"
278552,"7117 86TH ST SW","LAKEWOOD","WA","98499"
278553,"7117 CALMUTE CT","SAVAGE","MN","55378"
278554,"7117 CARRIAGE HILL DRIVE","LAUREL","MD","20707"
278555,"7117 CAVENDER DR","ATLANTA","GA","30331"
278556,"7117 CEDAR ST","PRAIRIE VILLAGE","KS","66208"
278557,"7117 E 48TH PL","TULSA","OK","74145"
278558,"7117 FLORIDA BLVD","BATON ROUGE","LA","70806"
278559,"7117 LONGO DRIVE","THE COLONY","TX","75056"
278560,"7117 MARILYN AVE NE","ALBUQUERQUE","NM","87109"
278561,"7117 S 68TH AVE","LAVEEN","AZ","85339"
278562,"7117 S 7TH LANE","PHOENIX","AZ","85041"
278563,"7117 SNOWY BIRCH WAY","SACRAMENTO","CA","95823"
278564,"7117 STINSON AVE STE C","GIG HARBOR","WA","98335"
278565,"7117 TURQUOISE LANE","ORLANDO","FL","32807"
278566,"7117 TUXEDO","DETROIT","MI","48204"
278567,"7117 US HIGHWAY 19","NEW PORT RICHEY","FL","34652"
278568,"7117 VENICE DR","PORTAGE","MI","49024"
278569,"7117 VENTNOR AVENUE","VENTNOR","NJ","08406"
278570,"7118 CEDAR AVE","TAKOMA PARK","MD","20912"
278571,"7118 FRONT RIVER ROAD","PITTSBURGH","PA","15225"
278572,"7118 HARTLAND STREET","HOUSTON","TX","77055"
278573,"7118 HAVEN CREEK DR","CYPRESS","TX","77433"
278574,"7118 HORTON AVE","URBANDALE","IA","50322"
278575,"7118 LONGVIEW DRIVE","SOLON","OH","44139"
278576,"7118 MELTON DR","ROWLETT","TX","75089"
278577,"7118 NAGLE AVENUE","NORTH HOLLYWOOD","CA","91605"
278578,"7118 S BELL AVE","CHICAGO","IL","60636"
278579,"7119 80TH ST STE 8213","GLENDALE","NY","11385"
278580,"7119 80TH STREET SUITE 8313","GLENDALE","NY","11385"
278581,"7119 BENNINGTON","DALLAS","TX","75214"
278582,"7119 BRANDY RUN DRIVE","MECHANICSVILLE","VA","23111"
278583,"7119 BRISTOL MEADOW LN","MEMPHIS","TN","38125"
278584,"7119 HIGH ROCK ROAD","EFLAND","NC","27243"
278585,"7119 LONE EAGLE LANE","COLORADO SPRINGS","CO","80925"
278586,"7119 MARINTHANA AVE","YOUNGSTOWN","OH","44512"
278587,"7119 NESBITT DRIVE","RICHMOND","VA","23225"
278588,"7119 PARKSIDE VILLAS DR N","SAINT PETERSBURG","FL","33709"
278589,"7119 WASHINTON AVENUE","WINDSOR HEIGHTS","IA","50324"
278590,"7119 WEST SUNSET BLVD 560","LOS ANGELES","CA","90046"
278591,"7119 WEST SUNSET BLVD NUM 560","LOS ANGELES","CA","90046"
278592,"7119 WEST SUNSET BOULEVARD/858","LOS ANGELES","CA","90046"
278593,"7119 YORKTOWN TERRACE APT 3","LOUISVILLE","KY","40214"
278594,"711B N BELL BLVD","CEDAR PARK","TX","78613"
278595,"711B SEAGIRT AVE APT 19L","FAR ROCKAWAY","NY","11691"
278596,"712 121ST AVE W","DULUTH","MN","55808"
278597,"712 27TH AVE","MIDDLE AMANA","IA","52307"
278598,"712 30TH STREET EAST","PALMETTO","FL","34221"
278599,"712 46TH PLACE","WEST DES MOINES","IA","50265"
278600,"712 ABREDEEN DRIVE","STONE MOUNTAIN","GA","30083"
278601,"712 ARCADIA DR APT 9","BLOOMINGTON","IL","61704"
278602,"712 ARDONIA TERRACE","UPPER MARLBORO","MD","20774"
278603,"712 BANCROFT RD  SUITE 870","WALNUT CREEK","CA","94598"
278604,"712 BANCROFT ROAD STE 718","WALNUT CREEK","CA","94598"
278605,"712 BANCROFT ROAD UNIT 278","WALNUT CREEK","CA","94598"
278606,"712 BEDFORD CT","WOODSTOCK","GA","30188"
278607,"712 BERKEY ROAD","WINDBER","PA","15963"
278608,"712 BEVERLY DRIVE","MUSCLE SHOALS","AL","35661"
278609,"712 BLACKHAWK LAND","BOLINGBROOK","IL","60440"
278610,"712 BOOKMAN POINT","PEACHTREE CITY","GA","30269"
278611,"712 BOWER ROAD","SHERMANS DALE","PA","17090"
278612,"712 BRADLEY DR STE A","MOUNTAIN HOME","AR","72653"
278613,"712 BRADLEY DR","MOUNTAIN HOME","AR","72653"
278614,"712 BRAXTON STREET","GASSAWAY","WV","26624"
278615,"712 BROADWAY DRIVE","OCOEE","FL","34761"
278616,"712 CADOGAN COURT","LOUISVILLE","KY","40222"
278617,"712 CAMELOT WAY","FORT WASHINGTON","MD","20744"
278618,"712 CARTERSVILLE HWY","DALLAS","GA","30132"
278619,"712 CHERRY STREET","NEW SMYRNA BEACH","FL","32168"
278620,"712 CHESTNUT STREET","KOKOMO","IN","46902"
278621,"712 CONCORD AVE SW","CANTON","OH","44710"
278622,"712 CRESTLAND DRIVE","BALLWIN","MO","63011"
278623,"712 CRESTON POINT CIRCLE","INDIANAPOLIS","IN","46239"
278624,"712 DIAMOND RIDGE DRIVE","CLEVELAND","TN","37312"
278625,"712 E 217TH STREET","BRONX","NY","10467"
278626,"712 E 3RD ST","RUSSELL","KS","67665"
278627,"712 E 79TH ST","CHICAGO","IL","60619"
278628,"712 E LOREN STREET","SPRINGFIELD","MO","65807"
278629,"712 E MISSOURI AVE","KANSAS CITY","MO","64106"
278630,"712 EAST BAY AVENUE","MANAHAWKIN","NJ","08050"
278631,"712 EDEN FARM CIRCLE","WESTMINSTER","MD","21157"
278632,"712 ELAINE DRIVE","MICKLETON","NJ","08056"
278633,"712 ERIN DRIVE","CHAMPAIGN","IL","61822"
278634,"712 FAYETTEVILLE ROAD SE","ATLANTA","GA","30316"
278635,"712 FLORENCE AVE","LEXINGTON","KY","40508"
278636,"712 G ST SE APT B","WASHINGTON","DC","20003"
278637,"712 GARTON ROAD","BRIDGETON","NJ","08302"
278638,"712 GOOSE CREEK DRIVE","INDIAN TRAIL","NC","28079"
278639,"712 GRAYSON STREET SUITE 1","NORFOLK","VA","23523"
278640,"712 GREENBRIAR AVENUE","STEVENS POINT","WI","54481"
278641,"712 H ST NE - UNIT 713","WASHINGTON","DC","20002"
278642,"712 H ST NE STE 1149","WASHINGTON","DC","20002"
278643,"712 H ST NE SUITE 1038","WASHINGTON","DC","20002"
278644,"712 H ST NE UNIT 5021","WASHINGTON","DC","20002"
278645,"712 H ST NE UNIT 779","WASHINGTON","DC","20002"
278646,"712 H STREET NE SUITE 1257","WASHINGTON","DC","20002"
278647,"712 H STREET NE SUITE 1527","WASHINGTON","DC","20002"
278648,"712 H STREET NE SUITE 1596","WASHINGTON","DC","20002"
278649,"712 H STREET NE SUITE 1851","WASHINGTON","DC","20002"
278650,"712 H STREET NE SUITE 541","WASHINGTON","VA","20002"
278651,"712 H STREET NE","WASHINGTON","DC","20002"
278652,"712 HARMON CIRCLE","MOORE","OK","73160"
278653,"712 HAVENS DRIVE","HUDSON","IL","61748"
278654,"712 HAWTHORN STREET","MONTEREY","CA","93940"
278655,"712 HOOPER RD","PINEVILLE","LA","71360"
278656,"712 HOWARD ST","GREEN BAY","WI","54303"
278657,"712 IROQUOIS CT","BARABOO","WI","53913"
278658,"712 JOY RANCH RD","WOODLAWN","VA","24381"
278659,"712 KASPER AVE","LAS VEGAS","NV","89106"
278660,"712 KNOLLWOOD DRIVE","GREENVILLE","SC","29607"
278661,"712 LAKE CAROLYN PKWY APT 117 W","IRVING","TX","75039"
278662,"712 LARKWOOD DR","HOLLAND","MI","49423"
278663,"712 LEONARDO COURT","KISSIMMEE","FL","34758"
278664,"712 LINDEN STREET","SCRANTON","PA","18510"
278665,"712 LOBELIA STREET","BRANDON","FL","33510"
278666,"712 MARY KNOLL DR","WATERTOWN","WI","53098"
278667,"712 MEGAN COURT","WESTMONT","IL","60559"
278668,"712 MEREDITH DRIVE","JONESBORO","AR","72405"
278669,"712 N 2ND STREET UNIT 12","PHILADELPHIA","PA","19123"
278670,"712 N 7TH STREET","FORT PIERCE","FL","34950"
278671,"712 N FRANKLIN ST","PHILADELPHIA","PA","19123"
278672,"712 N GONZALES BLVD APT 104","HUACHUCA CITY","AZ","85616"
278673,"712 N MAIN ST","NEWCASTLE","OK","73065"
278674,"712 N POLK ST","PAPILLION","NE","68046"
278675,"712 N WASHINGTON AVENUE","DUNELLEN","NJ","08812"
278676,"712 NEWCOMB DR","BENTON","AR","72015"
278677,"712 NORTH 9TH STREET","FORT PIERCE","FL","34954"
278678,"712 NORTH ASTER AVENUE","BROKEN ARROW","OK","74012"
278679,"712 NORTH BROAD STREET","PHILADELPHIA","PA","19130"
278680,"712 NORTHUMBERLAND AVE","BUFFALO","NY","14215"
278681,"712 ORANGE GROVE AVE","SOUTH PASADENA","CA","91030"
278682,"712 ORANGE GROVE AVENUE","SOUTH PASADENA","CA","91030"
278683,"712 OXFORD SQUARE DRIVE","SILVER SPRING","MD","20905"
278684,"712 PARK SUMMIT BLVD","APEX","NC","27523"
278685,"712 PELHAM DRIVE","WAYNESBORO","VA","22980"
278686,"712 PERRYMONT AVE","LYNCHBURG","VA","24502"
278687,"712 POLO ROAD","BRYN MAWR","PA","19010"
278688,"712 PRAIRIE AVENUE","NAPERVILLE","IL","60540"
278689,"712 Q ST NW","WASHINGTON","DC","20001"
278690,"712 RHINELANDER AVE","BRONX","NY","10462"
278691,"712 RILEY RD","DANDRIDGE","TN","37725"
278692,"712 ROCK HOLLOW RD","EDMOND","OK","73034"
278693,"712 RUSTY LN","CARTERVILLE, IL","IL","62918"
278694,"712 S 14TH STREET","LEESBURG","FL","34748"
278695,"712 S HOWARD AVE APT 125","TAMPA","FL","33606"
278696,"712 S TRENTON AVE APT 1","PITTSBURGH","PA","15221"
278697,"712 SANDY TRAIL","FORT WORTH","TX","76120"
278698,"712 SAWYER COURT","PEARL RIVER","LA","70452"
278699,"712 SCHILLING","BAYTOWN","TX","77520"
278700,"712 SESNON ST","BAKERSFIELD","CA","93309"
278701,"712 SOUTH CARPENTER STREET","CHICAGO","IL","60607"
278702,"712 SOUTH ELAM AVENUE","GREENSBORO","NC","27403"
278703,"712 SOUTH LIBERTY KEUTER ROAD","LEBANON","OH","45036"
278704,"712 STATE ROUTE 32","WALLKILL","NY","12589"
278705,"712 STILLWOOD CT","BRANDON","MS","39047"
278706,"712 STONERIDGE DR","HEWITT","TX","76643"
278707,"712 TAYLORS HILL COURT","MANAKIN SABOT","VA","23103"
278708,"712 THOMPSON FALLS DRIVE","CANTON","GA","30114"
278709,"712 TUCKER ST UNIT 426","RALEIGH","NC","27603"
278710,"712 US HIGHWAY ONE SUITE 400","NORTH PALM BEACH","FL","33408"
278711,"712 VILLAS CIRCLE","CINCINNAT","OH","45215"
278712,"712 VOURAY DR APT B","KENNER","LA","70065"
278713,"712 W 11TH ST","WILMINGTON","DE","19801"
278714,"712 W 175TH STREET 3H","NEW YORK","NY","10033"
278715,"712 W BENEDICT ST","SHAWNEE","OK","74801"
278716,"712 W HURON STREET APT 208","ANN ARBOR","MI","48103"
278717,"712 W MAXZIM AVE","FULLERTON","CA","92832"
278718,"712 WASHINGTON AVE","OCEAN SPRINGS","MS","39564"
278719,"712 WEST 66TH PL","MERRILLVILLE","IN","46410"
278720,"712 WESTCHESTER COURT","FOLSOM","CA","95630"
278721,"712 WHEATLAND CIRCLE","BRIDGEVILLE","PA","15017"
278722,"712 WHILDAM AVE","NORTH CAPE MAY","NJ","08204"
278723,"712 WHITE STREET SE","ARDMORE","OK","73401"
278724,"712 WHITEHALL ST","JACKSON","TN","38301"
278725,"712 WILLOW RUN LN","WINTER SPRINGS","FL","32708"
278726,"712 WINDLACH STREET","NEW GLARUS","WI","53574"
278727,"7120 34TH AVENUE 3B","JACKSON HEIGHTS","NY","11372"
278728,"7120 BELLE DR","KING GEORGE","VA","22485"
278729,"7120 CLAREWOOD DR","HOUSTON","TX","77036"
278730,"7120 COLONIAL LAKE DRIVE","RIVERVIEW","FL","33578"
278731,"7120 E HAMPDEN AVENUE SUITE B","DENVER","CO","80224"
278732,"7120 FAIRFIELD DR","LITTLE ROCK","AR","72209"
278733,"7120 HAYVENHURST AVENUE STE 114","VAN NUYS","CA","91406"
278734,"7120 HAYVENHURST AVENUE SUITE 317","VAN NUYS","CA","91406"
278735,"7120 NORTH BROAD STREET","PHILADELPHIA","PA","19126"
278736,"7120 OAKLAND MILLS ROAD","COLUMBIA","MD","21046"
278737,"7120 OLD SEWARD HIGHWAY","ANCHORAGE","AK","99518"
278738,"7120 WELLINGTON DRIVE","KNOXVILLE","TN","37919"
278739,"7120 WOODY CREEK LANE","LINCOLN","NE","68516"
278740,"7121 45TH AVE S","SEATTLE","WA","98118"
278741,"7121 65TH AVENUE N","BROOKLYN PARK","MN","55428"
278742,"7121 DEER CANYON ROAD","EASTVALE","CA","92880"
278743,"7121 DERICKSON NE","ALBUQUERQUE","NM","87109"
278744,"7121 DUNN DR","HOLLAND","OH","43528"
278745,"7121 HARRISBURY BLVD","HOUSTON","TX","77011"
278746,"7121 HART LANE 1091","AUSTIN","TX","78731"
278747,"7121 LAZY BROOKE DR","PINSON","AL","35126"
278748,"7121 MAGNOLIA AVENUE","RIVERSIDE","CA","92504"
278749,"7121 MUIRFIELD DR","DUBLIN","OH","43017"
278750,"7121 NATHAN COURT","WINTER PARK","FL","32792"
278751,"7121 SW WATTLING COURT","TOPEKA","KS","66614"
278752,"7121 US HWY 19","NEW PORT RICHEY","FL","34652"
278753,"7121 W 34TH ST APT 5","BERWYN","IL","60402"
278754,"7121 W BELL RD STE 210","GLENDALE","AZ","85308"
278755,"7121 W CRAIG RD STE 113-846","LAS VEGAS","NV","89129"
278756,"7122 BRETON WOODS COURT","KALAMAZOO","MI","49009"
278757,"7122 CADDO LAKE DR","SAN ANTONIO","TX","78244"
278758,"7122 GESSNER RD","HOUSTON","TX","77040"
278759,"7122 JEFFERSON AVENUE","HAMMOND","IN","46324"
278760,"7122 MECICO RD","CONCORD","NC","28025"
278761,"7122 MOURNING DOVE RD","LINO LAKES","MN","55014"
278762,"7122 RICO COVE","GERMANTOWN","TN","38138"
278763,"7122 ROYAL OAKLAND CT","INDIANAPOLIS","IN","46236"
278764,"7122 S SHERIDAN RD STE 2-533","TULSA","OK","74133"
278765,"7122 S SHERIDAN RD SUITE 2-416","TULSA","OK","74133"
278766,"7122 SHALIN DRIVE","MARRIOTTSVILLE","MD","21104"
278767,"7122 SOUTH SHERDIAN ROAD STE 2-122","TULSA","OK","74133"
278768,"7123 58TH TER E","PALMETTO","FL","34221"
278769,"7123 CROSSROADS BLVD","BRENTWOOD","TN","37027"
278770,"7123 DEWDROP WAY","CLINTON","MD","20735"
278771,"7123 GLORY ROAD","ZEPHYRHILLS","FL","33540"
278772,"7123 RAMSGATE AVE 102","LOS ANGELES","CA","90045"
278773,"7123 SOUTHWEST FREEWAY","HOUSTON","TX","77074"
278774,"7123 SOUTHWEST FWY","HOUSTON","TX","77074"
278775,"7123 SUITE 3A INTERSTATE 30","LITTLE ROCK","AR","72209"
278776,"7123 TREE LINE AVE","ALBUQUERQUE","NM","87114"
278777,"7123 W 9TH PLACE","KENNEWICK","WA","99336"
278778,"7124 BUENA VISTA","PRAIRIE VILLAGE","KS","66208"
278779,"7124 DARTMOUTH AVENUE","ST. LOUIS","MO","63130"
278780,"7124 E CARITA ST","LONG BEACH","CA","90808"
278781,"7124 LEESBURG PIKE","FALLS CHURCH","VA","22043"
278782,"7124 MCDERMOTT DR","SACRAMENTO","CA","95842"
278783,"7124 NW 106TH AVE","TAMARAC","FL","33321"
278784,"7124 POWHATAN DRIVE","HAYES","VA","23072"
278785,"7124 QUEEN STREET","MIDDLEWAY","WV","25430"
278786,"7124 S COLES AVENUE","CHICAGO","IL","60649"
278787,"7124 SALEM FIELDS BLVD NO 128","FREDERICKSBURG","VA","22407"
278788,"7124 SALEM FIELDS BLVD PMB 130","FREDERICKSBURG","VA","22401"
278789,"7124 SALEM FIELDS BOULEVARD 105","FREDERICKSBURG","VA","22407"
278790,"7124 SALEM FIELDS BOULEVARD PMB 121","FREDERICKSBURG","VA","22407"
278791,"7124 STONE DRIVE SUITE B","DAPHNE","AL","36526"
278792,"7125 AIRY VIEW DRIVE","LIBERTY TOWNSHIP","OH","45044"
278793,"7125 AIRY VIEW DRIVE","LIBERTY TOWNSHIPP","OH","45044"
278794,"7125 ALDERBROOK RD","TILLAMOOK","OR","97141"
278795,"7125 BENT MOUNTAIN RD","ROANOKE","VA","24018"
278796,"7125 BRACKLEIGH DRIVE","ST. LOUIS","MO","63042"
278797,"7125 DE LONGPRE AVE APT 210","LOS ANGELES","CA","90046"
278798,"7125 E LANDERSDALE RD","CAMBY","IN","46113"
278799,"7125 FOXVIEW DR","CINCINNATI","OH","45230"
278800,"7125 HARRISON AVE","ROCKFORD","IL","61112"
278801,"7125 IRVING BLVD NW","ALBUQUERQUE","NM","87114"
278802,"7125 IVEY RD","FAIRVIEW","TN","37062"
278803,"7125 MICHALA BARRETT CT","MANASSAS","VA","20112"
278804,"7125 NORTHWOOD COURT","CHANHASSEN","MN","55317"
278805,"7125 OLD BEULAH RD","LITHIA SPRINGS","GA","30122"
278806,"7125 ROLLING BEND ROAD APT D","BALTIMORE","MD","21244"
278807,"7125 SOUTH 1700 EAST","SALT LAKE CITY","UT","84121"
278808,"7125 TYNER CROSSING DRIVE","CHATTANOOGA","TN","37421"
278809,"7125 W ELLIS ST","LAVEEN","AZ","85339"
278810,"7126 BLUE CREEK DRIVE","FORT WAYNE","IN","46804"
278811,"7126 E BECKER LANE","SCOTTSDALE","AZ","85254"
278812,"7126 EAST LAMAR ALEXANDER PKWY","TOWNSEND","TN","37882"
278813,"7126 GOODMAN RIDGE RD","OLIVE BRANCH","MS","38654"
278814,"7126 INDIAN WELLS DRIVE","YPSILANTI","MI","48197"
278815,"7126 MELROSE CASTLE LANE","BOCA RATON","FL","33496"
278816,"7126 SOMERSET BLVD APT 120","PARAMOUNT","CA","90723"
278817,"7126 VANDEMAN ST","HOUSTON","TX","77087"
278818,"7126 W ARMITAGE AVE","CHICAGO","IL","60707"
278819,"7127 CARRINGTON COURT","MARTINEZ","GA","30907"
278820,"7127 E 9TH ST","TULSA","OK","74112"
278821,"7127 E DAY MT SPOKANE RD","MEAD","WA","99021"
278822,"7127 E EASTON PL","TULSA","OK","74115"
278823,"7127 FOREST AVE","HANOVER","MD","21076"
278824,"7127 GADSDEN HIGHWAY SUITE 207","TRUSSVILLE","AL","35173"
278825,"7127 GLENDALE AVENUE UNIT 4","YOUNGSTOWN","OH","44512"
278826,"7127 HOLLISTER AVE SUITE 25A - 207","GOLETA","CA","93117"
278827,"7127 N GREEN BAY AVENUE","MILWAUKEE","WI","53209"
278828,"7127 S MAY ST","CHICAGO","IL","60621"
278829,"7127 SUMMITROSE ST","TUJUNGA","CA","91042"
278830,"7127 YOUNGSTOWN-PITTSBURGH ROAD","POLAND","OH","44514"
278831,"7128 ESTERO BLVD","FT. MYERS BEACH","FL","33931"
278832,"7128 FOX HUNT ROAD","CHARLOTTE","NC","28212"
278833,"7128 GARFIELD RD","HARRISON","TN","37341"
278834,"7128 S LAFAYETTE WAY","CENTENNIAL","CO","80122"
278835,"7128 TREE LINE AVE NW","ALBUQUERQUE","NM","87114"
278836,"7128 WEST CHESTNUT DRIVE","LITTLETON","CO","80128"
278837,"7129 CORAL RIDGE RD","SEBRING","FL","33876"
278838,"7129 E MAIN ST","MESA","AZ","85207"
278839,"7129 EDEN COURT","RIVERDALE","GA","30296"
278840,"7129 GERALD DRIVE","LEXINGTON","KY","40511"
278841,"7129 HILLROSE ST","TUJUNGA","CA","91042"
278842,"7129 LORY LANE","LANHAM","MD","20706"
278843,"7129 MARSDEN STREET","PHILADELPHIA","PA","19135"
278844,"7129 MARVIN BROWN ST","FORT WORTH","TX","76179"
278845,"7129 PASEO BLVD","KANSAS CITY","MO","64132"
278846,"7129 PATTERSON HWY 32","PATTERSON","GA","31557"
278847,"7129 WHITNEY CAMP ROAD","BOSTON","GA","31626"
278848,"712N HAMILTON ROAD SUITE 210","DESOTO","TX","75115"
278849,"713 14TH ST SE","MANDAN","ND","58554"
278850,"713 29TH ST N","FARGO","ND","58102"
278851,"713 46TH STREET EAST","BRADENTON","FL","34208"
278852,"713 6TH AVE SW","PUYALLUP","WA","98371"
278853,"713 ALFONSO ST","PENSACOLA","FL","32505"
278854,"713 ARTHUR AVENUE","VIRGINIA BEACH","VA","23452"
278855,"713 BANGS AVENUE","ASBURY PARK","NJ","07712"
278856,"713 BATES ST","SAINT LOUIS","MO","63111"
278857,"713 BRIDLE DR","DESOTO","TX","75115"
278858,"713 BROOK STREET","BRYN MAWR","PA","19010"
278859,"713 BUNKER HILL AVE","LAWRENCEVILLE","NJ","08648"
278860,"713 CARLISLE STREET","RALEIGH","NC","27610"
278861,"713 COLEEN DRIVE","LEES SUMMIT","MO","64086"
278862,"713 CONEWANGO AVE","WARREN","PA","16365"
278863,"713 CROOKED OAK DR","PENSACOLA","FL","32514"
278864,"713 E BASIN RD","NEW CASTLE","DE","19720"
278865,"713 EAST 3RD STREET","SIOUX FALLS","SD","57103"
278866,"713 EAST MARKET ST  STE 100","LOUSVILLE","KY","40202"
278867,"713 EASTER AVE","FORT PIERCE","FL","34950"
278868,"713 EASTERN PARKWAY APT 2","BROOKLYN","NY","11213"
278869,"713 ESSEX WAY APT 101","BERKELEY","CA","94710"
278870,"713 FLORENCE DRIVE","PARK RIDGE","IL","60068"
278871,"713 FOURTH AVE","HOLDREGE","NE","68949"
278872,"713 GLENNA DRIVE","HUDSON","WI","54016"
278873,"713 GREGORY DRIVE","HORSHAM","PA","19044"
278874,"713 HAMLIN STREET NE APT 1","WASHINGTON","DC","20017"
278875,"713 HARRY S TRUMAN DRIVE 401","UPPER MARLBORO","MD","20774"
278876,"713 HIGHLAND AVE","FLATWOODS","KY","41139"
278877,"713 JERUSALEM ROAD","COHASETT","MA","02025"
278878,"713 KATIES LN","HOOD RIVER","OR","97031"
278879,"713 LARETTO RIDGE DRIVE","LABADIE","MO","63055"
278880,"713 MACARTHUR DRIVE","BUFFALO GROVE","IL","60089"
278881,"713 MAIN ST","SULTAN","WA","98294"
278882,"713 MAIN STREET","BEATTIE","KS","66406"
278883,"713 MAIN STREET","MARTINEZ","CA","94553"
278884,"713 MARTIN LUTHER KING JR DRIVE","BIRMINGHAM","AL","35211"
278885,"713 MILLER STREET","BRYN MAWR","PA","19010"
278886,"713 MINNEHAHA AVE E UNIT 217","SAINT PAUL","MN","55106"
278887,"713 MORGANS RUN","BROOKINGS","SD","57006"
278888,"713 N 120TH RD","GLASCO","KS","67445"
278889,"713 N 55TH PLACE","MESA","AZ","85205"
278890,"713 N 8TH STREET","WOLFFORTH","TX","79382"
278891,"713 N WALNUT","PRESCOTT","AZ","86301"
278892,"713 NATCHEZ DRIVE NE","BROOKHAVEN","MS","39601"
278893,"713 NORTH 8TH STREET","HAINES CITY","FL","33844"
278894,"713 NORTH WEST SECOND STREET","BOYNTON","FL","33435"
278895,"713 NTH 69TH STREET","EAST ST LOUIS","IL","62203"
278896,"713 NW 2ND TERRACE","DEERFIELD BEACH","FL","33441"
278897,"713 OAKMONT LANE NORTH","FORT WORTH","TX","76112"
278898,"713 ONEIDA STREET","BEAVER DAM","WI","53916"
278899,"713 PARK AVE APT B","LAKEWOOD","NJ","08701"
278900,"713 PARK DRIVE","BELPRE","OH","45714"
278901,"713 PARKLAND CIRCLE SE","ALBUQUERQUE","NM","87108"
278902,"713 PINEY GROVE DR","HARTSVILLE","SC","29551"
278903,"713 PIPE GATE","CIBOLO","TX","78108"
278904,"713 POPES CREEK RD","KERNERSVILLE","NC","27284"
278905,"713 QUEENS WAY","VIRGINIA BEACH","VA","23454"
278906,"713 RALPH DAVID ABERNATHY BLVD","ATLANTA","GA","30310"
278907,"713 REEF DRIVE","SAN DIEGO","CA","92154"
278908,"713 REEVES STREET","WOODSTOCK","GA","30188"
278909,"713 S CONCORD CT","STERLING","VA","20164"
278910,"713 S VERMONT ST","PALATINE","IL","60067"
278911,"713 SEDGEGRASS DRIVE","CHAMPAIGN","IL","61822"
278912,"713 SILVER LEAF LANE","SILOAM SPRINGS","AR","72761"
278913,"713 SIMPLICITY DR","ELLENDALE","MN","56026"
278914,"713 SOUTH 2ND STREET","DELAVAN","WI","53115"
278915,"713 SOUTH PINE STREET","STILLWATER","OK","74074"
278916,"713 ST AVE SE","CEDAR RAPIDS","IA","52401"
278917,"713 SUMMER LANE","PRATTVILLE","AL","36066"
278918,"713 SUNNYSIDE AVE","AURORA","IN","47001"
278919,"713 THAYER STREET","BUTTE","NE","68722"
278920,"713 THOMAS AVENUE","MONONGAH","WV","26554"
278921,"713 W 14TH ST","AUSTIN","TX","78701"
278922,"713 W COLLEGE ST","DICKSON","TN","37055"
278923,"713 W DUARTE RD UNIT G STE 266","ARCADIA","CA","91007"
278924,"713 W DUARTE RD UNIT G266","ARCADIA","CA","91007"
278925,"713 W DUARTE RD UNIT G749","ARCADIA","CA","91007"
278926,"713 W LIVE OAK ST","AUSTIN","TX","78704"
278927,"713 W PALM DR","FLORIDA CITY","FL","33034"
278928,"713 W PARISH ROAD","SULPHUR","LA","70663"
278929,"713 WATER OAK DR","PLANO","TX","75025"
278930,"713 WESTDALE AVENUE","ORLANDO","FL","32805"
278931,"713 WHITING AVENUE","IOWA CITY","IA","52245"
278932,"713 ZUNI DR","FARMINGTON","NM","87401"
278933,"713","HIDALGO","TX","78557"
278934,"713","WEATHERFORD","TX","76086"
278935,"7130 68 ST","GLENDALE","NY","11385"
278936,"7130 ARBOR VALLEY AVE","KALAMAZOO","MI","49009"
278937,"7130 ASH COURT","COOPERSBURG","PA","18036"
278938,"7130 BIRD CHERRY STREET","LAS VEGAS","NV","89148"
278939,"7130 CORNELL AVE","SAINT LOUIS","MO","63130"
278940,"7130 GEORGES WAY","MORROW","GA","30260"
278941,"7130 KENTWELL LN","LINCOLN","NE","68516"
278942,"7130 LINEWEAVER RD","WARRENTON","VA","20187"
278943,"7130 LIONS PARK LANE","ABERDEEN","WA","98520"
278944,"7130 NEWBURY AVE","SAN BERNARDINO","CA","92404"
278945,"7130 NO DRYDEN RD","CASHMERE","WA","98815"
278946,"7130 NORTH SHARON AVENUE  SUITE 101","FRESNO","CA","93720"
278947,"7130 OLD ORCHARD COURT","NEW TRIPOLI","PA","18066"
278948,"7130 PACIFIC BLVD SUITE D","HUNTINGTON PARK","CA","90255"
278949,"7130 SOUTH GODDARD ROAD","LITHONIA","GA","30038"
278950,"7130 TOPP CREEK COURT","INDIANAPOLIS","IN","46214"
278951,"7130 TOWNSHIP ROAD 604","MILLERSBURG","OH","44654"
278952,"7130 WEGMEYER RD","HERRON","MI","49744"
278953,"7130 WINDY CREEK CIRCLE","CHESTERFIELD","VA","23832"
278954,"7130 WOLFTEVER LANDING DRIVE","HARRISON","TN","37341"
278955,"7131 33RD AVENUE","ATKINS","IA","52206"
278956,"7131 BOWIE LAKE ROAD","FAIRVIEW","TN","37062"
278957,"7131 BREWSTER LANE","MISSOURI CITY","TX","77459"
278958,"7131 CATHER COURT","SAN DIEGO","CA","92122"
278959,"7131 CREEK DR","NEW PORT RICHEY","FL","34655"
278960,"7131 DARDENNE PRAIRIE DRIVE","OFALLON","MO","63368"
278961,"7131 KURTH LANE","LANHAM","MD","20706"
278962,"7131 S SOUTH CHICAGO AVE","CHICAGO","IL","60619"
278963,"7131 TUJUNGA AVE","NORTH HOLLYWOOD","CA","91605"
278964,"7131 W RAY ROAD STE 18","CHANDLER","AZ","85226"
278965,"7132 AYRSHIRE LANE","BOCA RATON","FL","33496"
278966,"7132 DOC WHITFIELD ROAD","WEWAHITCHKA","FL","32465"
278967,"7132 DUNDEE AVENUE","HIGHLAND","CA","92346"
278968,"7132 GLEN ALBIN ROAD","LA PLATA","MD","20646"
278969,"7132 LAIRD ROAD","KOUNTZE","TX","77625"
278970,"7132 PORTLAND AVE SOUTH","RICHFIELD","MN","55423"
278971,"71325 RANGE ROAD","ASHLAND","WI","54806"
278972,"7133 7TH ST NW","WASHINGTON","DC","20012"
278973,"7133 COVECREEK DRIVE","CHARLOTTE","NC","28215"
278974,"7133 GLENCOE LANE","ANACORTES","WA","98221"
278975,"7133 GREELEY AVE","KANSAS CITY","KS","66109"
278976,"7133 LA PRESA DRIVE","LOS ANGELES","CA","90068"
278977,"7133 MATHEW STREET",NA,"MD","20770"
278978,"7133 NORTH BLUE SAGE RD","PUNTA GORDA","FL","33955"
278979,"7133 PACIFIC BLVD STE A","HUNTINGTON PARK","CA","90255"
278980,"7133 S SHADY GROVE CT","AURORA","CO","80016"
278981,"7133 TOXAWAY LN","CHARLOTTE","NC","28269"
278982,"7134 OLD ENGLISH ROAD","LOCKPORT","NY","14094"
278983,"7134 ROLAND BLVD","SAINT LOUIS","MO","63121"
278984,"7134 SPIKERUSH CT","LAKEWOOD RANCH","FL","34202"
278985,"7134 STOCKLEY ROAD","UPPER DARBY","PA","19082"
278986,"7134 SW 13TH STREET","OKEECHOBEE","FL","34974"
278987,"7135 CLINTON ROAD","LOVES PARK","IL","61111"
278988,"7135 COLLINS AVE APT 1234","MIAMI BEACH","FL","33141"
278989,"7135 COUNTY ROAD 23","FORT LUPTON","CO","80621"
278990,"7135 E CAMELBACK RD STE230","SCOTTSDALE","AZ","85251"
278991,"7135 HOLLYWOODE BLVD 303","LOS ANGELES","CA","90046"
278992,"7135 N CHESTNUT AVE 102","FRESNO","CA","93720"
278993,"7135 PALISADES PT","SUWANEE","GA","30024"
278994,"7135 PARKSIDE CT","NEW ORLEANS","LA","70127"
278995,"7135 PEARSON RD UNIT 13","PENSACOLA","FL","32526"
278996,"7135 PRESTWICK CIRCLE N","JACKSONVILLE","FL","32244"
278997,"7135 S WOLCOTT","CHICAGO","IL","60636"
278998,"7135 TREETOP ROAD","MCCALLA","AL","35111"
278999,"7136 COHN ST","NEW ORLEANS","LA","70118"
279000,"7136 DUCKETTS LANE APT 104","ELKRIDGE","MD","21075"
