"ID","Address","City","State","Zip"
27001,"114 COPPERFIELD DR","DEPTFORD","NJ","08096"
27002,"114 COUNTY ROAD 66","WESTCLIFFE","CO","81252"
27003,"114 COURTHOUSE ROAD SW","VIENNA","VA","22180"
27004,"114 COVENTRY COURT","DOVER","DE","19901"
27005,"114 COVINGTON COVE","BYRON","GA","31008"
27006,"114 CREEK LANE","RUSSELLVILLE","AR","72802"
27007,"114 CREST DRIVE","GUTTENBERG","IA","52052"
27008,"114 CRISPIN DRIVE","SOUTH BURLINGTON","VT","05403"
27009,"114 CYPRESS MEADOWS DR","WENTZVILLE","MO","63385"
27010,"114 DAVID STREET","STATEN ISLAND","NY","10308"
27011,"114 DAVIS STREET","NEW HAVEN","CT","06515"
27012,"114 DEWEY STREET","JERICHO","NY","11753"
27013,"114 DOGWOOD DR","DOVER","PA","17315"
27014,"114 DOGWOOD ST NORTH","OCEANSIDE","CA","92058"
27015,"114 E 26TH ST","HOLLAND","MI","49423"
27016,"114 E 31 STREET","RICHMOND","VA","23224"
27017,"114 E 7TH AVE","FORT MORGAN","CO","80701"
27018,"114 E AMBERWAY LANE","GARLAND","TX","75040"
27019,"114 E BALTIMORE ST","HAGERSTOWN","MD","21740"
27020,"114 E CHIPPENDALE DRIVE","MILLS RIVER","NC","28759"
27021,"114 E FRONT ST","OVID","MI","48866"
27022,"114 E GERALD AVE","SAN ANTONIO","TX","78214"
27023,"114 E HIGH ST","MILTON","WI","53563"
27024,"114 E LAS VEGAS STREET","COLORADO SPRINGS","CO","80903"
27025,"114 E MAIN STREET","CROTHERSVILLE","IN","47229"
27026,"114 E MAIN STREET","DELPHI","IN","46923"
27027,"114 E PARKWAY AVE","CHESTER","PA","19013"
27028,"114 E STAFF SGT PENDLETON WAY","YAKIMA","WA","98901"
27029,"114 EAST 56TH STREET","WESTMONT","IL","60559"
27030,"114 EAST JEFFERSON STREET","OTTAWA","IL","61350"
27031,"114 EAST MCKINLEY WAY","POLAND","OH","44514"
27032,"114 EAST NAVAJO DRIVE","PRESCOTT","AZ","86301"
27033,"114 ECHO ROAD","WILMINGTON","DE","19810"
27034,"114 EDWARDS AVE SUITE C","MOUND BAYOU","MS","38762"
27035,"114 ELIE DRIVE","YOUNGSVILLE","LA","70592"
27036,"114 ELMWOOD AVENUE","BUFFALO","NY","14201"
27037,"114 EMERALD DR","BRANDON","MS","39047"
27038,"114 ERSKINE STREET","DETROIT","MI","48201"
27039,"114 ERSKINE STREET","DETROIT","MI","48226"
27040,"114 ERSKINE","DETROIT","MI","48201"
27041,"114 FENIMORE STREET 3D","BROOKLYN","NY","11225"
27042,"114 FERNDALE DRIVE","TALLAHASSEE","FL","32301"
27043,"114 FETTERBUSH RD","ELGIN","SC","29045"
27044,"114 FIELD AVE","TAFT","TX","78390"
27045,"114 FINN ST","AMERICUS","GA","31709"
27046,"114 FOREST AVENUE","COHASSET","MA","02025"
27047,"114 FOREST PLACE CIRCLE","NASHVILLE","TN","37215"
27048,"114 FOUNTAIN VALLEY COURT","LONGVIEW","TX","75605"
27049,"114 FOX RUN ROAD","BOLTON","MA","01740"
27050,"114 FRANKLIN AVENUE","NEW ROCHELLE","NY","10805"
27051,"114 GALLUP STREET","PROVIDENCE","PA","02905"
27052,"114 GARDEN STREET","BEDFORD","OH","44146"
27053,"114 GARDENIA STREET","MOUNT PLEASANT","TN","38474"
27054,"114 GARFIELD PLACE","BROOKLYN","NY","11215"
27055,"114 GENESEE STREET","UTICA","NY","13502"
27056,"114 GIRARD AVENUE","TRENTON","NJ","08638"
27057,"114 GLENDALE RD","WINONA","MN","55987"
27058,"114 GLORIA RUSH CIRCLE","GLOVERVILLE","SC","29828"
27059,"114 GONZALEZ ST NUM 97","PAIGE","TX","78659"
27060,"114 GRAMBY ST","EDENTON","NC","27932"
27061,"114 GRAND OLE OAKS DR APT 5","BELDEN","MS","38826"
27062,"114 GRATIOT DR","MORRISVILLE","NC","27560"
27063,"114 GREENBRIAR LANE","JACKSON","TN","38305"
27064,"114 GREENBRIER DRIVE","BEAR","DE","19701"
27065,"114 GREENE STREET   5TH FLOOR","NEW YORK","NY","10012"
27066,"114 GRILLEYTOWN ROAD","WATERBURY","CT","06704"
27067,"114 HICKORY LANE","LEBANON","OH","45036"
27068,"114 HICKORY PLACE","COVINGTON","LA","70433"
27069,"114 HIGGINS CROWELL ROAD","WEST YARMOUTH","MA","02673"
27070,"114 HILLSID DRIVE","CHILDRESS","TX","79201"
27071,"114 HOSKINS ROAD","BATESVILLE","MS","38606"
27072,"114 HUGHES AVE","SANFORD","FL","32771"
27073,"114 HUNTERS GLEN DR","WYLIE","TX","75098"
27074,"114 HUNTING CREEK ROAD","CANONSBURG","PA","15317"
27075,"114 HUNTING TOWER DR","GROVETOWN","GA","30813"
27076,"114 HUNTING WAY","SMYRNA","DE","19977"
27077,"114 JERICHO RD","WINFIELD","WV","25213"
27078,"114 K-STATE UNION","MANHATTAN","KS","66506"
27079,"114 KALIU COURT","BASTROP","TX","78602"
27080,"114 KALMIA CT","ARLINGTON","TX","76018"
27081,"114 KEARNS ST","JAMESTOWN","NC","27282"
27082,"114 KENSINGTON RD","GREENSBORO","NC","27403"
27083,"114 KINGS","MAYFIELD","KY","42066"
27084,"114 KINGSWOOD DR","ELLENWOOD","GA","30294"
27085,"114 KNIGHT CIRCLE","CLEMSON","SC","29631"
27086,"114 L H DR","PLANT CITY","FL","33565"
27087,"114 LANCASTER AVE","BUFFALO","NY","14222"
27088,"114 LAURENTUM PKWY","ABINGDON","MD","21009"
27089,"114 LEEWARD LN","HAMPSTEAD","NC","28443"
27090,"114 LINDA LEE COURT","HOUMA","LA","70360"
27091,"114 LOOMIS STREET","BURLINGTON","VT","05401"
27092,"114 LOS ALTOS COURT","SANTA CRUZ","CA","95060"
27093,"114 LOW WOOD LANE","LATROBE","PA","15650"
27094,"114 MACKAY DRIVE","RICHMOND HILL","GA","31324"
27095,"114 MADISON GROVE BLVD","THOMASVILLE","GA","31757"
27096,"114 MAIN AVE PO BOX 772","CHEWELAH","WA","99109"
27097,"114 MAIN STREET","PUTNAM","CT","06260"
27098,"114 MANCHESTER DR","MAULDIN","SC","29662"
27099,"114 MARBROOK DR","KETTERING","OH","45429"
27100,"114 MCBRIDE ROAD","GRANTS","NM","87020"
27101,"114 MCDERMOTTS WAY","MADISON","AL","35758"
27102,"114 MEDALIST ST","LAKEWAY","TX","78734"
27103,"114 MERCURY DRIVE","ELYRIA","OH","44035"
27104,"114 MIDDLE ROAD TPKE","WOODBURY","CT","06798"
27105,"114 MILL RACE DRIVE","EASTON","PA","18045"
27106,"114 MILLER STREET","FRANKLIN","MA","02038"
27107,"114 MISSION RANCH BLVD","CHICO","CA","95926"
27108,"114 MISTY MEADOWS COURT","MOORESVILLE","NC","28117"
27109,"114 MOLLY LN","KELSO","WA","98626"
27110,"114 MONTESITO LANE","FLORESVILLE","TX","78114"
27111,"114 MONTICELLO SQUARE","WINCHESTER","VA","22602"
27112,"114 MOONRAKER CIRCLE","PANAMA CITY BEACH","FL","32407"
27113,"114 MORNINGSIDE DR APT52","NEW YORK","NY","10027"
27114,"114 MOSS TRAIL","THOMASVILLE","GA","31792"
27115,"114 MUSSELMAN ROAD","HANOVER","PA","17331"
27116,"114 N 3RD STREET","CENTRAL CITY","KY","42330"
27117,"114 N 3RD STREET","WATSEKA","IL","60970"
27118,"114 N 62ND ST","HARRISBURG","PA","17111"
27119,"114 N 7TH AVENUE","KURE BEACH","NC","28449"
27120,"114 N 7TH ST STE 256","BROOKLYN","NY","11211"
27121,"114 N BRUNSWICK AVE","SOUTH HILL","VA","23970"
27122,"114 N CENTRAL AVE","CENTERVILLE","TN","37033"
27123,"114 N CONGRESS STREET","RUSHVILLE","IL","62681"
27124,"114 N COUNTY ROAD","PALM BEACH","FL","33480"
27125,"114 N HANOVER STREET","CARLISLE","PA","17013"
27126,"114 N HOLCOMBE AVE STE 120","LITCHFIELD","MN","55355"
27127,"114 N IOWA AVE","WASHINGTON","IA","52353"
27128,"114 N MAIN ST      PO BOX 356","WALWORTH","WI","53184"
27129,"114 N MAIN ST STE 101","SUFFOLK","VA","23434"
27130,"114 N MARTIN DR","SHELBY","OH","44875"
27131,"114 N STATE STREET","JERSEYVILLE","IL","62052"
27132,"114 N WYNRIDGE WAY","GOODLETTSVILLE","TN","37072"
27133,"114 NORTH 171ST STREET","SHORELINE","WA","98133"
27134,"114 NORTH ASH STREET","PONCA CITY","OK","74601"
27135,"114 NORTH BROWN STREET","GLOUCESTER CITY","NJ","08030"
27136,"114 NORTH ELIZABETH STREET","CHICAGO","IL","60607"
27137,"114 NORTH FARNSWORTH AVENUE","AURORA","IL","60505"
27138,"114 NORTH LAFAYETTE DRIVE","GEORGETOWN","KY","40324"
27139,"114 NORTH MAIN STREET","WELLSVILLE","NY","14895"
27140,"114 NORTH MAIN","VICTORIA","TX","77901"
27141,"114 NORTH SHORE ROAD","NORFOLK","VA","23505"
27142,"114 NORTHWYND CIRCLE SUITE A","LYNCHBURG","VA","24502"
27143,"114 OCEAN AVE","JERSEY","NJ","07305"
27144,"114 OLD BUGGY TRL","HILLSOROUGH","NC","27278"
27145,"114 OLD GRIFFIN RD","DALLAS","GA","30157"
27146,"114 OLD STATION ROAD","WEST UNION","SC","29696"
27147,"114 ORCHARD DRIVE","BUFFALO","NY","14223"
27148,"114 PARKGATE ROAD","CEDAR FALLS","IA","50613"
27149,"114 PAUL REVERE DRIVE","GEORGETOWN","KY","40324"
27150,"114 PEBBLESTONE DR","LEXINGTON","SC","29072"
27151,"114 PENLAND ST","ELLIJAY","GA","30540"
27152,"114 PENN ST","HOLLIDAYSBURG","PA","16648"
27153,"114 PENNINGTON AVE APT B","PASSAIC","NJ","07055"
27154,"114 PERRY HILL RD","EASLEY","SC","29640"
27155,"114 PREAKNESS DRIVE","MOUNT LAUREL","NJ","08054"
27156,"114 PRIMROSE DR","COVINGTON","LA","70433"
27157,"114 QUEEN ANNE RD","GLEN BURNIE","MD","21060"
27158,"114 RANCHO CIR","AUBURN","CA","95603"
27159,"114 RAPID SPRINGS COVE","GEORGETOWN","TX","78628"
27160,"114 REBEL ESTATES DR","SPRINGFIELD","GA","31329"
27161,"114 RESOLUTE LN","PORT LUDLOW","WA","98365"
27162,"114 REVERE CIRCLE","ELIZABETHTON","TN","37643"
27163,"114 REXFORD RD","FLORENCE","MS","39073"
27164,"114 RIDGEMONT CR SE","PALM BAY","FL","32909"
27165,"114 RIVERVIEW DR","EAST PALATKA","FL","32131"
27166,"114 RIVERWOOD DRIVE","JEFFERSON CITY","MO","65101"
27167,"114 ROBERT HENDRIX DR","CARROLLTON","GA","30117"
27168,"114 ROSSMOYNE AVENUE","CRESTVIEW HILLS","KY","41017"
27169,"114 S 2ND ST","CLEARFIELD","PA","16830"
27170,"114 S BRAZOS STREET","WEATHERFORD","TX","76086"
27171,"114 S BRYANT ST","PLEASANTON","TX","78064"
27172,"114 S COLLEGE AVE STE C","FAYETTEVILLE","AR","72701"
27173,"114 S COLLEGE AVE SUITE C","FAYETTEVILLE","AR","72701"
27174,"114 S COLLEGE AVENUE SUITE C","FAYETTEVILLE","AR","72701"
27175,"114 S DUVAL STREET","TALLAHASSEE","FL","32301"
27176,"114 S EDWARD AVE SUITE D","MOUND BAYOU","MS","38762"
27177,"114 S EDWARD AVE SUITE E","MOUND BAYOU","MS","38762"
27178,"114 S ELIZABETH ST","LOMBARD","IL","60148"
27179,"114 S FIFTH ST","GOSHEN","IN","46528"
27180,"114 S FOSTER RD","TEXAS CITY","TX","77591"
27181,"114 S GARDENVIEW","CASTLE HILLS","TX","78213"
27182,"114 S GREENSCAPTE LN","NAMPA","ID","83687"
27183,"114 S INDEPENDENCE ST","ENID","OK","73701"
27184,"114 S INDEPENDENCE","ENID","OK","73701"
27185,"114 S MAIN ST","TIPTON","IN","46072"
27186,"114 S MAIN ST","VAN BUREN","IN","46991"
27187,"114 S MAIN STREET","MEDFORD","NJ","08055"
27188,"114 S MERIDIAN STREET","LEBANON","IN","46052"
27189,"114 S PLEASANT ST","MONTPELIER","OH","43543"
27190,"114 S STEVENSON","VISALIA","CA","93291"
27191,"114 S WEDGEWOOD LAKES","LAKE WORTH","FL","33463"
27192,"114 SAGAMORE LANE","PEACHTREE CITY","GA","30269"
27193,"114 SAINT ANDREWS DR","HIGH POINT","NC","27265"
27194,"114 SANDSHELL","CHARLESTON","SC","29492"
27195,"114 SARASOTA","FLORAHOME","FL","32140"
27196,"114 SARGENT STREET","PRINCETON","WV","24740"
27197,"114 SASSAFRAS LN","HARDIN","IL","62047"
27198,"114 SCARLET OAK DRIVE","ALABASTER","AL","35114"
27199,"114 SCOTTSDALE BLVD","LOUISVILLE","KY","40214"
27200,"114 SCRANTON AVENUE","LYNBROOK","NY","11563"
27201,"114 SHAMROCK COURT","ARCHDALE","NC","27263"
27202,"114 SHELDON TERRACE","NEW HAVEN","CT","06511"
27203,"114 SHENANDOAH BLVD N","NESCONSET","NY","11767"
27204,"114 SMITH STREET","NEW LONDON","CT","06320"
27205,"114 SOUTH 4TH AVENUE","PADEN CITY","WV","26159"
27206,"114 SOUTH 6TH STREET","BANGOR","PA","18013"
27207,"114 SOUTH ARLINGTON AVENUE","EAST ORANGE","NJ","07018"
27208,"114 SOUTH CARDINAL DRIVE","WILMINGTON","NC","28403"
27209,"114 SOUTH CENTRAL AVENUE","MINOA","NY","13116"
27210,"114 SOUTH HARRISON STREET","PRINCETON","KY","42445"
27211,"114 SPRING STREET","YARMOUTH","ME","04096"
27212,"114 SPRINGFIELD DRIVE","WILLIAMSBURG","VA","23185"
27213,"114 ST PAUL STREET","ROCHESTER","NY","14604"
27214,"114 STEWART DR","WARNER ROBINS","GA","31093"
27215,"114 STITZER ROAD","FLEETWOOD","PA","19522"
27216,"114 STONEY CREEK DRIVE","JACKSONVILLE","NC","28540"
27217,"114 STUART RD NE PMB 127","CLEVELAND","TN","37312"
27218,"114 STUART ROAD NE    123","CLEVELAND","TN","37312"
27219,"114 SULLIVAN DR","AMERICUS","GA","31709"
27220,"114 SUMMER LN UNIT 10","NORTH HAVEN","CT","06473"
27221,"114 SUMMIT ROAD","BUTLER","PA","16001"
27222,"114 SUNRIDGE STREET","PLAYA DEL REY","CA","90293"
27223,"114 SUNRISE STREET","PLAYA DEL REY","CA","90293"
27224,"114 SW 10","WILBURTON","OK","74578"
27225,"114 SYCAMORE DRIVE","MARION","AR","72364"
27226,"114 TENKILLER DRIVE","SHERWOOD","AR","72120"
27227,"114 TERN COURT","YORKTOWN","VA","23692"
27228,"114 THREE RIVERS EAST SUITE 114","FORT WAYNE","IN","46802"
27229,"114 TILTON DRIVE","MOORESVILLE","NC","28115"
27230,"114 TIMBER TRAIL","FACTORYVILLE","PA","18419"
27231,"114 TREESDALE DRIVE","CRANBERRY TOWNSHIP","PA","16066"
27232,"114 TRELON WAY","LITTLE ROCK","AR","72223"
27233,"114 TUCKER DR","LEESVILLE","SC","29070"
27234,"114 UPPER CAMP LANE","FALLS","PA","18615"
27235,"114 VALLEY STONE ROAD","HUNTSVILLE","AL","35811"
27236,"114 VENNUM AVE","MANSFIELD","OH","44903"
27237,"114 VERANDA DR","MADISON","AL","35758"
27238,"114 VERMONT DR","GAFFNEY","SC","29341"
27239,"114 VILLAGE GREEN CIRCLE","TYRONE","GA","30290"
27240,"114 VINEWOOD LN","MADISON","AL","35758"
27241,"114 VIVION DR","AIKEN","SC","29803"
27242,"114 W ADAMS ST UNIT 303","PHOENIX","AZ","85003"
27243,"114 W CLARK STREET","PLAINFIELD","WI","54966"
27244,"114 W EUCLID","MCPHERSON","KS","67460"
27245,"114 W FAIRVIEW ST","PIEDMONT","WV","26750"
27246,"114 W FLEMING AVE","LAS CRUCES","NM","88005"
27247,"114 W HOLLY ST","BELLINGHAM","WA","98225"
27248,"114 W JEFFERSON ST","PALMER","TX","75152"
27249,"114 W JEFFERSON","COFFEYVILLE","KS","67337"
27250,"114 W MAGNOLIA ST  STE 412","BELLINGHAM","WA","98225"
27251,"114 W MAIN ST","SANTA MARIA","CA","93458"
27252,"114 W MARTIN ST","DEL RIO","TX","78840"
27253,"114 W MORTON STREET","BETHLEHEM","PA","18015"
27254,"114 W PINE ST SUITE 2","MISSOULA","MT","59802"
27255,"114 W VAN ALLEN ST","TUSCOLA","IL","61953"
27256,"114 WALTHAM STREET","LEXINGTON","MA","02421"
27257,"114 WASHINGTON ROAD SUITE G","WEST POINT","NY","10996"
27258,"114 WATERS RD","COWPENS","SC","29330"
27259,"114 WATSON STREET","RIPON","WI","54971"
27260,"114 WELLESLEY ESTATE","PORTLAND","ME","04103"
27261,"114 WERKLEY ROAD","TONAWANDA","NY","14150"
27262,"114 WEST 40TH STREET","WILMINGTON","DE","19802"
27263,"114 WEST 78TH STREET","NEW YORK","NY","10024"
27264,"114 WEST CREEK LANE","KENNETT SQUARE","PA","19348"
27265,"114 WEST HIGH STREET","LAWRENCEBURG","IN","47025"
27266,"114 WEST JOHN STREET","NEWBERRY","MI","49868"
27267,"114 WEST MULBERRY STREET","BALTIMORE","MD","21201"
27268,"114 WESTOVER DR","BRISTOL","TN","37620"
27269,"114 WILDFLOWER DRIVE","BEEBE","AR","72012"
27270,"114 WILLOW LANE","LEXINGTON","VA","24450"
27271,"114 WILMINGTON ROAD","BURLINGTON","MA","01803"
27272,"114 WINSTON WAY","WAUNAKEE","WI","53597"
27273,"114 WINTHROP STREET","FRAMINGHAM","MA","01702"
27274,"114 WOODLAND AVENUE","LEXINGTON","KY","40502"
27275,"114 WYCOFF AVENUE","WYCOFF","NJ","07481"
27276,"114 YELLOW BREECHES DR","CAMP HILL","PA","17011"
27277,"114 ZURICH RD","JOLIET","IL","60436"
27278,"114-20 199TH ST","ST ALBANS","NY","11412"
27279,"114-27 219TH ST","CAMBRIA HEIGHTS","NY","11411"
27280,"114-31 209TH STREET","CAMBRIA HEIGHTS","NY","11141"
27281,"114-31 209TH STREET","CAMBRIA HEIGHTS","NY","11411"
27282,"114-40 178TH STREET","ADDISLEIGH PARK","NY","11434"
27283,"114-44 168TH STREET 224","JAMAICA","NY","11434"
27284,"114-49 197TH STREET","SAINT ALBANS","NY","11412"
27285,"114-60 174TH STREET","JAMAICA","NY","11434"
27286,"114-60 178TH PLACE","JAMAICA","NY","11434"
27287,"114-73 178TH STREET","JAMAICA","NY","11434"
27288,"114-86 177TH STREET","ST ALBANS","NY","11434"
27289,"114-B REYNOLDA VILLAGE","WINSTON SALEM","NC","27106"
27290,"114","CARROLLTON","GA","30117"
27291,"1140 101ST STREET APARTMENT 201","BAY HARBOR ISLANDS","FL","33154"
27292,"1140 165TH AVE N","CANBY","MN","56220"
27293,"1140 18TH AVE C302","SEATTLE","WA","98122"
27294,"1140 18TH AVENUE 206","SEATTLE","WA","98122"
27295,"1140 3RD ST","EATON","CO","80615"
27296,"1140 3RD STREET NE SUITE 2160","WASHINGTON","DC","20002"
27297,"1140 3RD STREET NE","WASHINGTON","DC","20002"
27298,"1140 3RD STREET NORTHEAST 2ND FLOOR","WASHINGTON","DC","20002"
27299,"1140 3RD STREET NW SUITE 2008","WASHINGTON","DC","20002"
27300,"1140 3RD STREET","EATON","CO","80615"
27301,"1140 66TH STREET","OAKLAND","CA","94608"
27302,"1140 ABBOTT RD UNIT 4553","EAST LANSING","MI","48823"
27303,"1140 ABBOTT RD UNIT 928","EAST LANSING","MI","48826"
27304,"1140 ALMOND TREE LANE  SUITE 302","LAS VEGAS","NV","89126"
27305,"1140 BALLINA WAY","CHARLOTTE","NC","28214"
27306,"1140 CASCAVA LP S","SALEM","OR","97302"
27307,"1140 COMMERCE AVE","UNION","NJ","07083"
27308,"1140 COMMERCE CENTER DR","LANCASTER","CA","93534"
27309,"1140 COMMERCE CENTER DRIVE","LANCASTER","CA","93534"
27310,"1140 DRUID MANOR BLVD NE","ATLANTA","GA","30329"
27311,"1140 E ALTAMONTE DRIVE STE 1016","ALTAMONTE  SPG","FL","32701"
27312,"1140 E ROHE ST","TARPON SPRINGS","FL","34689"
27313,"1140 EAST 680 NORTH","OREM","UT","84097"
27314,"1140 EAST STONEGATE DRIVE","OAK CREEK","WI","53154"
27315,"1140 EDGEWOOD RD","YARDLEY","PA","19067"
27316,"1140 EHA ST STE 30-104","WAILUKU","HI","96793"
27317,"1140 EMPIRE CENTRAL DR SUITE 250","DALLAS","TX","75247"
27318,"1140 FAIRWAY LANE","CONWAY","SC","29526"
27319,"1140 GREAT OAKS DR","LAWRENCEVILLE","GA","30045"
27320,"1140 HAMLETT ST","ATHENS","TX","75751"
27321,"1140 HART LN","LAKE CITY","SC","29560"
27322,"1140 LAFAYETTE AVENUE","BROOKLYN","NY","11221"
27323,"1140 LAKESHORE DRIVE NO 101","LAKE PARK","FL","33403"
27324,"1140 LONDON BLVD APT 2202","PORTSMOUTH","VA","23704"
27325,"1140 LOYOLA COURT","SANFORD","FL","32771"
27326,"1140 MEADOW BRIDGE LANE","ARRINGTON","TN","37014"
27327,"1140 MOUNT VERNON STREET","PHILADELPHIA","PA","19123"
27328,"1140 N 17TH STREET","MANITOWOC","WI","54220"
27329,"1140 N E KENNEDY LANE","HILLSBORO","OR","97124"
27330,"1140 N IMPERIAL AVE","EL CENTRO","CA","92243"
27331,"1140 NORTH LOUISE DRIVE","ANAHEIM","CA","92805"
27332,"1140 NOYES ST","EVANSTON","IL","60201"
27333,"1140 NW COMYN RD","POULSBO","WA","98370"
27334,"1140 PALISADES DRIVE","JACKSONVILLE","FL","32221"
27335,"1140 PALOMINO CT SE","TUMWATER","WA","98501"
27336,"1140 PRATT HWY","BIRMINGHAM","AL","35214"
27337,"1140 RENAE WAY","TALLAHASSEE","FL","32312"
27338,"1140 S OGDEN ST","DENVER","CO","80210"
27339,"1140 SCENIC GARDEN","LAWRENCEBURG","KY","40342"
27340,"1140 SHERMAN ST SE","GRAND RAPIDS","MI","49506"
27341,"1140 SPEEDWAY AVE","FAIRMONT","WV","26554"
27342,"1140 STERLING GATE DR","SAN JOSE","CA","95120"
27343,"1140 SW 11TH AVE STE 400","PORTLAND","OR","97205"
27344,"1140 SW BASCOM NORRIS DR SUITE 107","LAKE CITY","FL","32025"
27345,"1140 SW CROSSING DR","LEES SUMMIT","MO","64081"
27346,"1140 SW MARIGOLD PLACE","FORT WHITE","FL","32038"
27347,"1140 SW PACIFIC AVENUE","FOREST GROVE","OR","97116"
27348,"1140 TANBARK RD","LEXINGTON","KY","40515"
27349,"1140 TEAKWOOD DR","HARVEY","LA","70058"
27350,"1140 TULIP LANE","HIGHLAND","IL","62249"
27351,"1140 US HWY 287 400 234","BROOMFIELD","CO","80020"
27352,"1140 W 92ND ST","LOS ANGELES","CA","90044"
27353,"1140 W MICHIGAN ST CF326","INDIANAPOLIS","IN","46202"
27354,"1140 W ROSE ST","STOCKTON","CA","95203"
27355,"1140 WALL STREET  UNIT 824","LA JOLLA","CA","92038"
27356,"1140 WALL STREET 3232","LA JOLLA","CA","92038"
27357,"1140 WALL STREET UNIT 824","LA JOLLA","CA","92038"
27358,"1140 WALNUT ST","JEFFERSONVILLE","IN","47130"
27359,"1140 WAPITI MEADOWS RD","COLUMBIA FALLS","MT","59912"
27360,"1140 WEST SMOKETHORN DRIVE","TUCSON","AZ","85737"
27361,"1140 YORBA STREET","PERRIS","CA","92571"
27362,"11400 ABINGTON AVE","DETROIT","MI","48227"
27363,"11400 BRANDY HALL LANE","NORTH POTOMAC","MD","20878"
27364,"11400 DELVIN DR","STERLING HEIGHTS","MI","48314"
27365,"11400 E 58TH ST","RAYTOWN","MO","64133"
27366,"11400 GLENN DALE BLVD","GLENN DALE","MD","20769"
27367,"11400 JEFFERSON STREET","KANSAS CITY","MO","64114"
27368,"11400 MISTY  VALLEY DRIVE","HOUSTON","TX","77066"
27369,"11400 MISTY VALLEY LANE","HOUSTON","TX","77066"
27370,"11400 N 23RD STREET","MCALLEN","TX","78504"
27371,"11400 N YELLOWSTONE ROAD","CHEYENNE","WY","82009"
27372,"11400 PARK RIDGE DRIVE WEST","MINNETONKA","MN","55305"
27373,"11400 PICKERINGTON RD","PICKERINGTON","OH","43147"
27374,"11400 S FRONT AVENUE","CHICAGO","IL","60628"
27375,"11400 TAVERNAY PARKWAY","CHARLOTTE","NC","28262"
27376,"11400 TUTTLEHILL RD","MILAN","MI","48160"
27377,"11400 W OLYMPIC BLVD 9TH FLOOR","LOS ANGELES","CA","90064"
27378,"11400 WESTMOOR CIRCLE","WESTMINISTER","CO","80021"
27379,"11400 WOOD BROOK CT","GLEN ALLEN","VA","23059"
27380,"11400 WOODLAND AVENUE","CLEVELAND","OH","44104"
27381,"11401 32ND AVE N","TEXAS CITY","TX","77591"
27382,"11401 BLOOMFIELD AVE","NORWALK","CA","90650"
27383,"11401 CLIFTON BLVD","CLEVELAND","OH","44102"
27384,"11401 GRANDVIEW AVE STE 8","WHEATON","MD","20902"
27385,"11401 GRANDVIEW AVENUE SUITE 6","SILVER SPRING","MD","20902"
27386,"11401 MADRID DRIVE","AUSTIN","TX","78759"
27387,"11401 MORGANS POINT ST","MANOR","TX","78653"
27388,"11401 N ROCKWELL","OKLAHOMA CITY","OK","73162"
27389,"11401 NORTH GREEN RIVER RD","EVANSVILLE","IN","47725"
27390,"11401 ROBINSON HOLLOW RD","COEBURN","VA","24230"
27391,"11401 S FORRESTVILLE 2ND FLOOR","CHICAGO","IL","60628"
27392,"11401 ST CLAIR AVENUE","CLEVELAND","OH","44108"
27393,"11401 STATE ROUTE 1","POINT REYES","CA","94956"
27394,"11401 TAVERNAY PARKWAY","CHARLOTTE","NC","28262"
27395,"11401 WILLOW HILL DRIVE","SANDY","UT","84092"
27396,"11402 COLLIER COURT","HAGERSTOWN","MD","21742"
27397,"11402 EASTON SPRINGS DR","PEARLAND","TX","77584"
27398,"11402 JACKSON AVE","KANSAS CITY","MO","64137"
27399,"11402 LEBANON PINEGROVE RD","TERRY","MS","39170"
27400,"11402 ROYAL VIEW CT","NORTH POTOMAC","MD","20878"
27401,"11402 VIA FONTANA CT","RICHMOND","TX","77406"
27402,"11402 W CHURCH STREET","FRANKLIN","WI","53132"
27403,"11402 WESTON COURSE LOOP","RIVERVIEW","FL","33579"
27404,"11403 ALLERTON STRET","WHITTIER","CA","90606"
27405,"11403 BENT CREEK TRL","FRISCO","TX","75033"
27406,"11403 CEDAR RIDGE DRIVE","POTOMAC","MD","20854"
27407,"11403 FRUITWOOD WAY","GERMANTOWN","MD","20876"
27408,"11403 REGENCY GREEN DR","CYPRESS","TX","77429"
27409,"11403 TOMARSUE RD","MARILLA","NY","14102"
27410,"11404 23RD AVE W","EVERETT","WA","98204"
27411,"11404 BRISTLE OAK TRAIL","AUSTIN","TX","78750"
27412,"11404 LOUVRE PLACE","TEMPLE TERRACE","FL","33617"
27413,"11405 ARROYO BLANCO DR","AUSTIN","TX","78748"
27414,"11405 BRIGHTON KNOLL LOOP","RIVERVIEW","FL","33579"
27415,"11405 CODY ST","OVERLAND PARK","KS","66210"
27416,"11405 KINGSBURY RD","HUNTLEY","IL","60142"
27417,"11405 LEGACY TEERACE","SAN DIEGO","CA","92131"
27418,"11405 N 126TH LANE","EL MIRAGE","AZ","85335"
27419,"11405 NE 30TH CIRCLE","VANCOUVER","WA","98682"
27420,"11405 W BERNARDO COURT","SAN DIEGO","CA","92127"
27421,"11405 WAESCHE DR","MITCHELLVILLE","MD","20721"
27422,"11406 BOREALIS STREET","EAGLE RIVER","AK","99577"
27423,"11406 GEORGIA AVE","KANSAS CITY","KS","66109"
27424,"11406 KETTERING TERRACE","UPPER MARLBORO","MD","20774"
27425,"11406 NORTH DALE MABRY HIGHWAY","TAMPA","FL","33618"
27426,"11406 PAINTED TREE RD","CHARLOTTE","NC","28226"
27427,"11406 PEPPERDINE LANE","HOUSTON","TX","77071"
27428,"11406 ROUTE 286 HWY E","CLYMER","PA","15728"
27429,"11406 SILMARILLION TRAIL","AUSTIN","TX","78739"
27430,"11407 111 AVE","SOUTH OZONE PARK","NY","11420"
27431,"11407 136TH AVENUE E","PUYALLUP","WA","98374"
27432,"11407 149TH AVE","SOUTH OZONE PARK","NY","11420"
27433,"11407 159 STREET","JAMAICA","NY","11434"
27434,"11407 ABBOTS CROSS LANE","GLEN ALLEN LANE","VA","23059"
27435,"11407 BROOK RUN DRIVE","GERMANTOWN","MD","20876"
27436,"11407 CAM CT","KENSINGTON","MD","20895"
27437,"11407 DRIFTING LEAF DRIVE","RIVERVIEW","FL","33579"
27438,"11407 GLEN ROAD","POTOMAC","MD","20854"
27439,"11407 HYLANDER DR","HOUSTON","TX","77070"
27440,"11407 LEMONWOOD DRIVE","DENHAM SPRINGS","LA","70726"
27441,"11407 LYNDENWOOD CT","CHESTERFIELD","VA","23838"
27442,"11407 N IRONWOOD CANYON PLACE","TUCSON","AZ","85737"
27443,"11408  KETTERING TERRACE","UPPER MARLBORO","MD","20774"
27444,"11408 BELLAMAR ST","TEMPLE TERRACE","FL","33637"
27445,"11408 HOLLY COURT","KANSAS CITY","MO","64114"
27446,"11408 S 42 AVE","BELLEVUE","NE","68123"
27447,"11408 SENECA FOREST CIR","GERMANTOWN","MD","20786"
27448,"11408 STONEWALL JACKSON DRIVE","SPOTSYLVANIA","VA","22551"
27449,"11409 ANDY DRIVE","RIVERVIEW","FL","33569"
27450,"11409 BROOKLEE DRIVE","UPPER MARLBORO","MD","20772"
27451,"11409 CLINTON ROAD","DOYLESTOWN","OH","44230"
27452,"11409 EASTON SPRINGS DR","PEARLAND","TX","77584"
27453,"11409 EASTVIEW CT","SAN DIEGO","CA","92131"
27454,"11409 HOUNDS WAY","ROCKVILLE","MD","20852"
27455,"11409 JULY DRIVE APT 202","SILVER SPRINGS","MD","20904"
27456,"11409 N 44TH ST","PHOENIX","AZ","85028"
27457,"11409 NORTH RADNER WAY","RALEIGH","NC","27613"
27458,"1141  N  BRAND  BLVD   STE   306","GLENDALE","CA","91202"
27459,"1141 11TH ST","PLEASANT GROVE","AL","37127"
27460,"1141 5TH STREET NW","WASHINGTON","DC","20001"
27461,"1141 ANNA ST","ELIZABETH","NJ","07201"
27462,"1141 AUSTIN RD","SPRINGVILLE","IA","52336"
27463,"1141 BALCKSTONE LANE","PLEASANT HILL","IA","50327"
27464,"1141 BERMUDA DR","MIAMISBURG","OH","45342"
27465,"1141 BROOKDALE AVE","MEDFORD","OR","97504"
27466,"1141 CATALINA DRIVE PMB 280","LIVERMORE","CA","94550"
27467,"1141 COUNTRY PLACE DR","HOUSTON","TX","77079"
27468,"1141 COUNTY LAKE ROAD","NEW MARKET","AL","35761"
27469,"1141 DERBYSHIRE DR","CUPERTINO","CA","95014"
27470,"1141 DEVONSHIRE DR","DESOTO","TX","75115"
27471,"1141 DIXON CIR","GAINESVILLE","GA","30501"
27472,"1141 E 13TH AVENUE APT 2","ANCHORAGE","AK","99501"
27473,"1141 E BAY SHORE DR","VIRGINIA BEACH","VA","23451"
27474,"1141 E COLORADO ST","GLENDALE","CA","91205"
27475,"1141 E JEFFERSON ST","PHOENIX","AZ","85034"
27476,"1141 EAST 74TH","CLEVELAND","OH","44103"
27477,"1141 EAST FLORENCE AVENUE APT 5","LOS ANGELES","CA","90001"
27478,"1141 EASTWOOD AVE","CLEVELAND","OH","44124"
27479,"1141 FORD AVENUE","WEST DEPTFORD","NJ","08096"
27480,"1141 GREEN ST","ISELIN","NJ","08830"
27481,"1141 GREEN STREET","ISELIN","NJ","08830"
27482,"1141 HALLOWELL ROAD","DURHAM","ME","04222"
27483,"1141 HEIGHTS BLVD","HOUSTON","TX","77008"
27484,"1141 HICKROY GROVE BALL PARK RD","BLADENBORO","NC","28320"
27485,"1141 HOWARD DR","WESTBURY","NY","11590"
27486,"1141 INDIAN LAKES RD NE","SPARTA","MI","49345"
27487,"1141 IROQUOIS AVE APT 117","NAPERVILLE","IL","60563"
27488,"1141 KELLY MILL ROAD","BLYTHEWOOD","SC","29016"
27489,"1141 KENDALL TOWN BLVD UNIT 1204","JACKSONVILLE","FL","32225"
27490,"1141 KENSINGTON DR","ALEXANDRIA","KY","41001"
27491,"1141 KEOKUK TER NE","LEESBURG","VA","20176"
27492,"1141 KNOTTY OAKS","WOODWAY","TX","76712"
27493,"1141 LAKESIDE AVENUE","PHILADELPHIA","PA","19126"
27494,"1141 LEGACY LANE","AIKEN","SC","29803"
27495,"1141 LIGHTHOUSE AVE APT 222","PACIFIC GROVE","CA","93950"
27496,"1141 MARLYN ROAD","PHILADELPHIA","PA","19151"
27497,"1141 MEADOW CREEK DRIVE SUITE 178","IRVING","TX","75038"
27498,"1141 MONTREAT RD","BLACK MOUNTAIN","NC","28711"
27499,"1141 NE 23RD ST","POMPANO BEACH","FL","33064"
27500,"1141 NORTH CLAREMONT DRIVE","PALATINE","IL","60074"
