"ID","Address","City","State","Zip"
249501,"578 WASHINGTON BLVD SUITE 854","MARINA DEL RAY","CA","90292"
249502,"578 WASHINGTON BLVD UNIT 1082","MARINA DEL REY","CA","90292"
249503,"578 WASHINGTON BOULEVARD UNIT 465","MARIN DEL REY","CA","90292"
249504,"578 WASHINGTON BOULEVARD","MARINA DEL REY","CA","90292"
249505,"5780 AVENIDA ROBLEDAL","PENSACOLA","FL","32504"
249506,"5780 BROOKWAY DRIVE","WINSTON-SALEM","NC","27105"
249507,"5780 CINDER ST","SPRINGFIELD","OR","97478"
249508,"5780 GEMINI ST","RAPID CITY","SD","57703"
249509,"5780 HEINDALE STREET","STERLING HEIGHTS","MI","48314"
249510,"5780 NW 48TH AVE","COCONUT CREEK","FL","33073"
249511,"5780 S SEMORAN BLVD","ORLANDO","FL","32822"
249512,"5780 SABAL PALM LN","PUNTA GORDA","FL","33982"
249513,"5780 SANDPIPER DRIVE","STEVENS POINT","WI","54482"
249514,"5780 ST MATTHEW ST JOHN CHURCH RD","DONALSONVILLE","GA","39845"
249515,"5780 STILL WATER WAY","WARRENTON","VA","20187"
249516,"5780 STONE MILL DRIVE APT B","WINSTON SALEM","NC","27105"
249517,"5780 TALLANT RD","OOLTEWAH","TN","37363"
249518,"5780 TROY RD","SPRINGFIELD","OH","45502"
249519,"5780 VAUGHN ROAD","MONTGOMERY","AL","36116"
249520,"5780 W ATLANTIC AVE","DELRAY BEACH","FL","33484"
249521,"5780 W FLAMINGO RD STE 200","LAS VEGAS","NV","89103"
249522,"5781 GOOS FERRY ROAD","LAKE CHARLES","LA","70615"
249523,"5781 LAKEVIEW CIR","STONECREST","GA","30058"
249524,"5781 LEE BLVD SUITE 208-429","LEHIGH ACRES","FL","33971"
249525,"5781 LEE BLVD UNIT 208-361","LEHIGH ACRES","FL","33971"
249526,"5781 NW 111TH STREET","HIALEAH","FL","33012"
249527,"5781 SOUTH FORT APACHE ROAD","LAS VEGAS","NV","89148"
249528,"5782 ALBANY GRN","WESTERVILLE","OH","43081"
249529,"5782 BLACKSHIRE PATH","INVER GROVE HEIGHTS","MN","55076"
249530,"5782 HUNTER STREET","PHILADELPHIA","PA","19131"
249531,"5782 REAGAN STREET","TYLER","TX","75707"
249532,"5782 S FARM ROAD 139","SPRINGFIELD","MO","65810"
249533,"5782 WILLOW LAKE DR","HOOVER","AL","35244"
249534,"5783 BUCKEYE CT","BROWNSVILLE","TX","78526"
249535,"5783 CR 427","SANFORD","FL","32773"
249536,"5783 CYPRESS CIRCLE","TALLAHASSEE","FL","32303"
249537,"5783 GILES RD","LITHONIA","GA","30056"
249538,"5783 SHERIDAN FRONTAGE RD SUITE 101","ARVADA","CO","80002"
249539,"57837 COFFEYVILLE STREET","MCCONNELL AFB","KS","67221"
249540,"5784 CAMPANELLA PLACE","RANCHO CUCAMONGA","AA","91739"
249541,"5784 CAPOCTIN VISTA DRIVE","MT AIRY","MD","21771"
249542,"5784 NEWFIELDS LANE","DUBLIN","CA","94568"
249543,"5784 TOSCANA TRACE","ROUND ROCK","TX","78665"
249544,"5785 152ND AVE SE","BELLEVUE","WA","98006"
249545,"5785 232ND ST W","FARIBAULT","MN","55021"
249546,"5785 EMILY LN","BEAUMONT","TX","77713"
249547,"5785 NW WESLEY ROAD","PORT ST LUCIE","FL","34986"
249548,"5785 S FORT APACHE ROAD A-100","LAS VEGAS","NV","89147"
249549,"57852 KACZMAREK DR","WASHINGTON","MI","48094"
249550,"5786 DOMER DR","FRISCO","TX","75035"
249551,"5786 MONTESSA DRIVE","CAMARILLO","CA","93012"
249552,"5786 S 3RD ST RD","WACO","TX","76706"
249553,"5786 WELLBORN CREEK DRIVE","LITHONIA","GA","30058"
249554,"5787 LITTLE SHAY DRIVE","FONTANA","CA","92336"
249555,"5787 MISTY HILL CIRCLE","CLEMMONS","NC","27012"
249556,"5787 RUDY CT","SAN JOSE","CA","95124"
249557,"5787 S HAMPTON RD SUITE 115","DALLAS","TX","75232"
249558,"5787 S HAMPTON ROAD","DALLAS","TX","75232"
249559,"5787 SOUTH HAMPTON ROAD SUITE 385","DALLAS","TX","75232"
249560,"5787 WALTRIP LANE","SAN JOSE","CA","95118"
249561,"5788 HIGH CREEK LANE","IDAHO FALLS",NA,"83403"
249562,"5788 TRAVIS ROAD","GREENWOOD","IN","46143"
249563,"57882 LUTES","NEW HAVEN","MI","48048"
249564,"5789 BEECHWOOD AVE NE","ALLIANCE","OH","44601"
249565,"5789 CRESCENT COURT","WORTHINGTON","OH","43085"
249566,"5789 ECHO PARK CIR","CASTLE ROCK","CO","80104"
249567,"5789 SOUTH ANDES ST","AURORA","CO","80015"
249568,"5789 ST JOE RD","TALLAHASSEE","FL","32311"
249569,"578A LEXINGTON AVE","BROOKLYN","NY","11221"
249570,"579  US HWY 101 S","CRESCENT CITY","CA","95531"
249571,"579 ARLINGTON DRIVE","SEAFORD","NY","11783"
249572,"579 BYRON DRIVE","MEMPHIS","TN","38109"
249573,"579 COLDWATER DRIVE","CLAYTON","DE","19938"
249574,"579 DAWN CT","DES PLAINES","IL","60016"
249575,"579 E HANNAH RD","HODGES","SC","29653"
249576,"579 EAGLE CIRCLE","DAYTON","OH","45429"
249577,"579 FLANDERS DRIVE","VALLEY STREAM","NY","11581"
249578,"579 GARFIELD RD","BALDWIN","NY","11510"
249579,"579 GORITZ RD","ASBURY","NJ","08802"
249580,"579 JOSEPH DR","ALEXANDER","AR","72002"
249581,"579 KANSAS ST","SAN FRANCISCO","CA","94017"
249582,"579 KULP ROAD","PERKIOMENVILLE","PA","18074"
249583,"579 MIDDLE CREEK ROAD","TRIADELPHIA","WV","26059"
249584,"579 PACIFIC STREET","STAMFORD","CT","06902"
249585,"579 PELHAM PLACE","MCDONOUGH","GA","30253"
249586,"579 PURITAN AVE","BIRMINGHAM","MI","48009"
249587,"579 RINGWOOD AVENUE","WANAQUE","NJ","07465"
249588,"579 RUSTIC TRL","BEAVERCREEK","OH","45434"
249589,"579 SCARLET OAK DRIVE","KILLEEN","TX","76542"
249590,"579 SOUTH 1200 WEST","LEHI","UT","84043"
249591,"579 SW SHANNON DR","PORT ORCHARD","WA","98367"
249592,"579 TIPTON RD","ROGERSVILLE","AL","35652"
249593,"579 W 6TH STREET","TEMPE","AZ","85281"
249594,"579 W WICKENBURG WAY     SUITE 8","WICKENBURG","AZ","85390"
249595,"579 WILLOW COURT","BENICIA","CA","94510"
249596,"579","ROSCOE","TX","79545"
249597,"5790 BLOOMFIELD RD","MACON","GA","31206"
249598,"5790 FLEET STREET SUITE 120","CARLSBAD","CA","92008"
249599,"5790 FROST STREET","BEAUMONT","TX","77706"
249600,"5790 JEFFERSON ROAD","NORTH BRANCH","MI","48461"
249601,"5790 MIRAMAR ROAD SUITE 206","SAN DIEGO","CA","92121"
249602,"5790 N 1070 W","SAINT GEORGE","UT","84770"
249603,"5790 STILLWELL BECKETT ROAD","OXFORD","OH","45056"
249604,"5790 TYSHIRE PARKWAY","PROVIDENCE FORGE","VA","23140"
249605,"5790 WEST 39TH PLACE","WHEAT RIDGE","CO","80212"
249606,"57900 11 MILE RD","SOUTH LYON","MI","48178"
249607,"57900 EL DORADO DR","GOSHEN","IN","46528"
249608,"5791 APPLEBROOK CT","GALLOWAY","OH","43119"
249609,"5791 NOVACK STREET","WINSTON-SALEM","NC","27105"
249610,"5791 ROCK SHOALS WAY","COLLEGE PARK","GA","30349"
249611,"5791 TOMAL LN","RIVERSIDE","CA","92509"
249612,"5791 UNIVERSITY CLUB BLVD N 306","JACKSONVILLE","FL","32277"
249613,"5791 UNIVERSITY CLUB BLVD N APT1505","JACKSONVILLE","FL","32277"
249614,"5791 UNIVERSITY CLUB BLVD N STE 109","JACKSONVILLE","FL","32277"
249615,"5792 FOREST HIGHLANDS DRIVE","FORT WORTH","TX","76132"
249616,"5792 LAKESHORE DRIVE","BEAN STATION","TN","37708"
249617,"5792 MIAN STREET","WILLIAMSVILLE","NY","14221"
249618,"5792 RIPLEY DAYHILL RD","RIPLEY","OH","45167"
249619,"5792 WARWICK CIRCLE","LA PALMA","CA","90623"
249620,"5793 A NW 151 STREET","MIAMI LAKES","FL","33014"
249621,"5793 C ST","BEALE AFB","CA","95903"
249622,"5793 MAGNOLIA CHASE WAY    APT 106","VIRGINIA BEACH","VA","23464"
249623,"5793 PADDINGTON DR","PALMDALE","CA","93552"
249624,"5793 PADDINGTON DRIVE","PALMDALE","CA","95552"
249625,"5793 PINWHEEL CIRCLE","EAST SYRACUSE","NY","13057"
249626,"5793 TYNDALL AVE","BRONX","NY","10471"
249627,"5793 WILLIAMSBURG WAY","FITCHBURG","WI","53719"
249628,"57931 BRENDEN COURT","ELKHART","IN","46517"
249629,"5793A NW 151ST","MIAMI LAKES","FL","33014"
249630,"5794 MONROE CENTER RD","CONNEAUT","OH","44030"
249631,"5795 BARBADOS WAY WEST","WEST PALM BEACH","FL","33408"
249632,"5795 COUNTY ROAD O","RUDOLPH","WI","54475"
249633,"5795 GIBRALTAR DRIVE - 101","PLEASANTON","CA","94588"
249634,"5795 HOLLANSBURG ARCANUM ROAD","ARCANUM","OH","45304"
249635,"5795 KEARNY VILLA ROAD","SAN DIEGO","CA","92123"
249636,"5795 KLUNCY CANYON ROAD","WINNEMUCCA","NV","89445"
249637,"5795 OTTO RD","CHARLOTTE","MI","48813"
249638,"5795 REST PL NE","BREMERTON","WA","98311"
249639,"5795 S SANDHILL ROAD SUITE D","LAS VEGAS","NV","89120"
249640,"5795 W FLAMINGO APT 271","LAS VEGAS","NV","89103"
249641,"5796 SHELBY OAKS DRIVE SUITE 16A","MEMPHIS","TN","38134"
249642,"5797 BEECHCROFT RD STE F","COLUMBUS","OH","43229"
249643,"5797 BOULDEN RD","NASHVILLE","NC","27856"
249644,"5797 FIRE CACHE WAY","MISSOULA","MT","59808"
249645,"5797 NEW PEACHTREE ROAD","DORAVILLE","GA","30340"
249646,"5797 SUBTLE RD","EDMONTON","KY","42129"
249647,"5798 DUSKYWING DRIVE","ROCKLEDGE","FL","32955"
249648,"5798 S DEPEW CIR","LITTLETON","CO","80123"
249649,"57983 FOX DRIVE","SPRINGVILLE","CA","93265"
249650,"5799 HEAD LAKE RD","HASTINGS","MI","49058"
249651,"5799 HIGHWAY 412 W","BELLS","TN","38006"
249652,"5799 QUAKAKE ROAD","WEATHERLY","PA","18255"
249653,"579TH FSC CCTT UNIT 15412","APO","AP","96224"
249654,"57B CROSS ST","WESTERLY","RI","02891"
249655,"57C GAIL DRIVE","NYACK","NY","10960"
249656,"58 3RD STREET","TROY","NY","12180"
249657,"58 73 STREET","BROOKLYN","NY","11209"
249658,"58 ACTON STREET","WORCESTER","MA","01604"
249659,"58 ANDREW STREET","LYNN","MA","01901"
249660,"58 ARCADIA ROAD","POMPTON LAKES","NJ","07442"
249661,"58 AVIAN WAY","LANCASTER","NY","14086"
249662,"58 B DAVIS AVE","POUGHKEEPSIE","NY","12603"
249663,"58 BARKER RD","WHITMORE LAKE","MI","48189"
249664,"58 BAYBERRY CT","GLEN MILLS","PA","19342"
249665,"58 BENTON ROAD","BELMONT","MA","02478"
249666,"58 BLAKELY CT","LILLINGTON","NC","27546"
249667,"58 BOGARD STREET","CHARLESTON","SC","29403"
249668,"58 BONNIE GELLMAN COURT","PHILADELPHIA","PA","19114"
249669,"58 BRADFORD AVE","MOBILE","AL","36604"
249670,"58 BRIDGE STREET","WHITE RIVER JUNCTION","VT","05001"
249671,"58 BRIDLE PATH","TEWKSBURY","MA","01876"
249672,"58 BRYSON DR","ST JOHNS","FL","32259"
249673,"58 CALDWELL RD","NASHUA","NH","03060"
249674,"58 CAMDEN CIRCLE","NEWNAN","GA","30265"
249675,"58 CARMAN BOULEVARD","MASSAPEQUA","NY","11758"
249676,"58 CARPENTER STREET","WOODBURY","NJ","08096"
249677,"58 CARTER RD","WESTMINSTER","MA","01473"
249678,"58 CENTRAL AVENUE","TARRYTOWN","NY","10591"
249679,"58 CHAPEL STREET","GREENWICH","CT","06831"
249680,"58 CHRISTOPHER ST","LADERA RANCH","CA","92694"
249681,"58 CLAPIER STREET","PHILADELPHIA","PA","19144"
249682,"58 CLARK RD","GAINESVILLE","TX","76240"
249683,"58 CLAYTON DRIVE","NORCO","LA","70079"
249684,"58 CLEVELAND TERRACE","BLOOMFIELD","NJ","07003"
249685,"58 COOK WAY","ABINGTON","MA","02351"
249686,"58 COOKSON DRIVE","STAFFORD","VA","22556"
249687,"58 COUNTRY CLUB ROAD","DEDHAM","MA","02026"
249688,"58 CRAWFORD STREET  1","NEWARK","NJ","07102"
249689,"58 DAY ST 441353","SOMERVILLE","MA","02144"
249690,"58 DEACON ABBOTT RD","REDDING","CT","06896"
249691,"58 DOUGLAS DRIVE","COAL VALLEY","IL","61240"
249692,"58 DUNN COURT","SAYVILLE","NY","11782"
249693,"58 E PIPERSGREEN","SPRING","TX","77382"
249694,"58 EAST 11TH STREET 5TH FLOOR","NEW YORK","NY","10003"
249695,"58 EAST SPRINGETTSBURY AVE","YORK","PA","17403"
249696,"58 ELMFIELD DRIVE","JACKSON","TN","38305"
249697,"58 EVERETT BOTTS ROAD","MORGANTON","GA","30560"
249698,"58 FAIRMOUNT STREET","BOSTON","MA","02124"
249699,"58 FELTON STREET","HUDSON","MA","01749"
249700,"58 FLORIDA PARK DR N","PALM COAST","FL","32137"
249701,"58 FOUNTAIN ST APT J2","NEW HAVEN","CT","06515"
249702,"58 GOLD MINE SPRINGS RD","CONWAY","AR","72032"
249703,"58 GRAND OAKS BLVD","MILLBROOK","AL","36054"
249704,"58 GRIFFITH ST","CORNING","NY","14830"
249705,"58 HAMILTON AVE","NEW ROCHELLE","NY","10801"
249706,"58 HARRISON DRIVE","SHIRLEY","NY","11967"
249707,"58 HIGH GATE DR","AVON","CT","06001"
249708,"58 ISLAND POND RD","ATKINSON","NH","03811"
249709,"58 JENNA LN","DALLAS","GA","30157"
249710,"58 JOHN SCOTT BLVD","NORTON","MA","02766"
249711,"58 KENNER STREET","LUDLOW","KY","41016"
249712,"58 LAKE DRIVE","MAHOPAC","NY","10541"
249713,"58 LAKE SHORE DR","WAYLAND","RI","01778"
249714,"58 LAKE STREET","PEMBROKE","MA","02359"
249715,"58 LANGLEY STREET","WARWICK","RI","02889"
249716,"58 LINDEN AVE APT B3","IRVINGTON","NJ","07111"
249717,"58 LISPENARD APT 2","NEW YORK","NY","10013"
249718,"58 LIVINGSTON AVENUE","STATEN ISLAND","NY","10314"
249719,"58 LODGE ST","MILTON","MA","02186"
249720,"58 LUCILLE WAY","ORINDA","CA","94563"
249721,"58 LUPINE ST","REDLANDS","CA","92373"
249722,"58 LYNBROOK DRIVE","MASTIC","NY","11951"
249723,"58 MAIN STREET APT 26","LITTLE FERRY","NJ","07643"
249724,"58 MALLARD LN","OAKLAND","ME","04963"
249725,"58 MANNING DR","LAUREL","MS","39443"
249726,"58 MAPLEWOOD AVENUE","NEWTON","MA","02459"
249727,"58 MARCELLE ST","CHICOPEE","MA","01020"
249728,"58 MARTA DR","WILMINGTON","DE","19808"
249729,"58 MELODY DRIVE","POOLER","GA","31322"
249730,"58 MELWEX STREET","BELLEVILLE CITY","NJ","07109"
249731,"58 MESSINGER ST","MATTAPAN","MA","02126"
249732,"58 MICHIGAN AVENUE","PORT MONMOUTH","NJ","07758"
249733,"58 MILLPOND","STANSBURY PARK","UT","84074"
249734,"58 MONUMENT DR","STAFFORD","VA","22554"
249735,"58 N ASH ST","VENTURA","CA","93001"
249736,"58 N STREET","SOUTH BOSTON","MA","02127"
249737,"58 NE 95TH ST","CROSS CITY","FL","32628"
249738,"58 NORMANDY DR","WESTFIELD","NJ","07090"
249739,"58 OAK HILL ROAD","PITTSFIELD","MA","01201"
249740,"58 OLIVE STREET","LAKE GROVE","NY","11755"
249741,"58 OMAHA AVE","ROCKAWAY TOWNSHIP","NJ","07866"
249742,"58 PALMER DR","MOORESTOWN","NJ","08057"
249743,"58 PALOMA BEND PL","THE WOODLANDS","TX","77389"
249744,"58 PEDDLER BRIDGE ROAD","RIPTON","VT","05766"
249745,"58 PENNSYLVANIA AVE SUITE 2 UNIT 5","NIANTIC","CT","06357"
249746,"58 PERRY STREET APT 4FE","NEW YORK","NY","10014"
249747,"58 PINEHURST AVE","AUBURN","MA","01501"
249748,"58 PINEHURST ROAD","BELMONT","MA","02478"
249749,"58 PLOTTS ROAD","NEWTON","NJ","07860"
249750,"58 POMFRET STREET","PUTNAM","CT","06260"
249751,"58 POPLAR STREET","BRIDGEPORT","CT","06605"
249752,"58 PURDUE LAKE RD","EASTSOUND","WA","98245"
249753,"58 RADCLIFF DRIVE","NEW PROVIDENCE","NJ","07974"
249754,"58 RAMBLEWOOD DR","NORTH CHILI","NY","14514"
249755,"58 RAMSEY LANE","ANACONDA","MT","59711"
249756,"58 RED BUD CIR","AMELIA","OH","45102"
249757,"58 REEVES ROAD","BRIDGETON","NJ","08302"
249758,"58 RIDGE RD","GREEN BROOK","NJ","08812"
249759,"58 RIVER STREET","MILFORD","CT","06460"
249760,"58 ROBIN HILL RD","MERIDEN","CT","06450"
249761,"58 ROBLE ROAD","BERKELEY","CA","94705"
249762,"58 ROCK RIDGE DR","CLANCY","MT","59634"
249763,"58 ROSE ST","UMATILLA","FL","32784"
249764,"58 ROSEHEDGE LANE","OAK PARK","CA","91377"
249765,"58 RUSSELL STREET","BROOKLYN","NY","11222"
249766,"58 RUTHERFORD CIR","STERLING","VA","20165"
249767,"58 SADDLE RIDGE RD","PORT MATILDA","PA","16870"
249768,"58 SAINT MARKS PLACE NO 11","NEW YORK","NY","10003"
249769,"58 SARATOGA AVENUE","SOUTH GLENS FALLS","NY","12845"
249770,"58 SEMINARY STREET EXENSION","MIDDLEBURY","VT","05753"
249771,"58 SHADE TREE","IRVINE","CA","92603"
249772,"58 SLAPPEY DR","PHENIX CITY","AL","36867"
249773,"58 SNOWFLAKE TRAIL","EDGEWOOD","NM","87015"
249774,"58 SOUTH 100 WEST","BRIGHAM CITY","UT","84302"
249775,"58 SOUTH FEDERAL PLACE","SANTA FE","NM","87501"
249776,"58 SOUTH WELLES AVENUE","KINGSTON","PA","18704"
249777,"58 SPOONDRIFT WAY","MASHPEE","MA","02649"
249778,"58 STARLIGHT ROAD","MONTICELLO","NY","12701"
249779,"58 STATE ROUTE 60","NEW LONDON","OH","44851"
249780,"58 STONELEIGH TOWERS","ST LOUIS","MO","63132"
249781,"58 SUNSET LANE","ELKINS","WV","26241"
249782,"58 THE HAMLET","EAST AMHERST","NY","14051"
249783,"58 TIOGUE AVE APT 312","WEST WARWICK","RI","02893"
249784,"58 TOWNSHIP ROAD 1575","PROCTORVILLE","OH","45669"
249785,"58 VILLAGE DRIVE","DOVER","DE","19904"
249786,"58 VIVIAN AVE","EMERSON","NJ","07630"
249787,"58 W LAWN AVE","PAWTUCKET","RI","02860"
249788,"58 W PORTAL AVE STE 124","SAN FRANCISCO","CA","94127"
249789,"58 W PORTAL AVENUE UNIT 3","SAN FRANCISCO","CA","94127"
249790,"58 WALNUT GROVE RD","RIDGEFIELD","CT","06877"
249791,"58 WALNUT STREET","FRANKLIN","WV","26807"
249792,"58 WEST 126 STREET","NEW YORK","NY","10027"
249793,"58 WEST 7TH STREET","MOUNT VERNON","NY","10550"
249794,"58 WEST 99TH STREET","CHICAGO","IL","60628"
249795,"58 WEST MAIDEN LANE","MONROE","CT","06468"
249796,"58 WEST PORTAL AVE 713","SAN FRANSISCO","CA","94127"
249797,"58 WEST PORTAL AVE NO 530","SAN FRANCISCO","CA","94127"
249798,"58 WEST PORTAL AVE PMB105","SAN FRANCISCO","CA","94127"
249799,"58 WEST PORTAL AVE STE 736","SAN FRANCISCO","CA","94127"
249800,"58 WEST PORTAL AVE SUITE 279","SAN FRANCISCO","CA","94127"
249801,"58 WEST PORTAL AVE UNIT 512","SAN FRANCISCO","CA","94127"
249802,"58 WESTMINSTER DR","FRONT ROYAL","VA","22630"
249803,"58 WESTMINSTER DRIVE","PALM COAST","FL","32164"
249804,"58 WOODLAWN SE ST","LUDOWICI","GA","31316"
249805,"58 WOODVILLE ROAD","FALMOUTH","ME","04105"
249806,"58 YONGES ISLAND DRIVE","BLUFFTON","SC","29910"
249807,"58-03 CALLOWAY STREET APARTMENT 2CC","CORONA","NY","11368"
249808,"58-12 196TH STREET","FRESH MEADOWS","NY","11365"
249809,"58-25 57TH STREET","MASPETH","NY","11378"
249810,"58-35 UTOPIA PKWY SUITE 1C","FRESH MEADOWS","NY","11365"
249811,"58-64 78TH AVE APT 1","RIDGEWOOD","NY","11385"
249812,"58","BEAR CREEK","PA","18602"
249813,"580 5TH AVE STE 602","NEW YORK","NY","10036"
249814,"580 ANTELOPE DRIVE WEST","BENNETT","CO","80102"
249815,"580 ATLANTA RD SUITE 230-A","CUMMING","GA","30040"
249816,"580 BEDFORD RD","LOWELLVILLE","OH","44436"
249817,"580 BROADWAY STREET STE 117","LAGUNA BEACH","CA","92651"
249818,"580 BUCHANAN STREET","HILLSIDE","NJ","07205"
249819,"580 BUCHANAN","HILLSIDE","NJ","07205"
249820,"580 BURNSIDE AVENUE SUITE 5","EAST HARTFORD","CT","06108"
249821,"580 CALIFORNIA STREET SUITE 1600","SAN FRANCISCO","CA","94104"
249822,"580 CANYON RD","NOVATO","CA","94947"
249823,"580 CO RD 1175 E","NEW HAVEN","IL","62867"
249824,"580 COLLEGE DR NW","SALEM","OR","97304"
249825,"580 COLLEGE STREET","JACKSONVILLE","FL","32204"
249826,"580 COUNTY ROAD 401","CEDAR BLUFF","AL","35959"
249827,"580 CROWN ST APT 509","BROOKLYN","NY","11213"
249828,"580 CROWN STREET 113","BROOKLYN","NY","11213"
249829,"580 DEADWOOD TRL","LOCUST GROVE","GA","30248"
249830,"580 DECKER DRIVE SUITE 205","IRVING","TX","75062"
249831,"580 DISCOVERY PARKWAY","SUPERIOR","CO","80027"
249832,"580 E SAINT ANDREWS DRIVE","MEDIA","PA","19063"
249833,"580 E ST STE 100","HAWTHORNE","NV","89415"
249834,"580 E TECHNOLOGY AVE STE C2500","OREM","UT","84097"
249835,"580 ELDER STREET","VACAVILLE","CA","95688"
249836,"580 EMPIRE","BROOKLYN","NY","11225"
249837,"580 EXETER ROAD PO BOX 145","LEBANON","CT","06040"
249838,"580 FAIRVIEW DR","BERWICK","LA","70342"
249839,"580 FLATBUSH AVE APT 17M","BROOKLYN","NY","11225"
249840,"580 G STREET APT 15","CHULA VISTA","CA","91910"
249841,"580 GERALD ODANIEL ROAD","LEBANON","KY","40033"
249842,"580 HIDDEN CIRCLE","NORTH SALT LAKE","UT","84054"
249843,"580 HIGHWAY 20-26","ONTARIO","OR","97914"
249844,"580 HILLTOP DR","STAUNTON","VA","24401"
249845,"580 JOHNS LANDING WAY","LAWRENCEVILLE","GA","30045"
249846,"580 KINGS PEAK DR","ALPHARETTA","IA","30022"
249847,"580 KOLEKOLE AVE","WAHIAWA","HI","96857"
249848,"580 KOMO OHIA STREET","WAILUKU","HI","96793"
249849,"580 LAKE ROAD SW","CORYDON","IN","47112"
249850,"580 MAIN ST APT 154","NEW YORK CITY","NY","10044"
249851,"580 MALABAR RD SE","PALM BAY","FL","32907"
249852,"580 MAPLEHILL DR","HASLETT","MI","48840"
249853,"580 MARSHALL RD","COLDWATER","MI","49036"
249854,"580 MARSHALL ROAD","COLDWATER","MI","49036"
249855,"580 MARTIN LUTHER KING BLVD","NEWARK","NJ","07102"
249856,"580 MASSIE ROAD","CHARLOTTESVILLE","VA","22903"
249857,"580 MCCHESNEY ST","ORANGE","NJ","07050"
249858,"580 N 125 E","KAYSVILLE","UT","84037"
249859,"580 N 4TH ST","MEMPHIS","TN","38105"
249860,"580 N 9TH DRIVE","SHOW LOW","AZ","85901"
249861,"580 N HOLLISTON AVE","PASADENA","CA","91106"
249862,"580 N HWY 67 STE 6","FLORISSANT","MO","63031"
249863,"580 NE 179TH DRIVE","NORTH MIAMI BEACH","FL","33162"
249864,"580 NEVADA ST UNIT B","REDLANDS","CA","92373"
249865,"580 NORTH MAIN STREET B06","ALMONT","MI","48003"
249866,"580 OAKLAND PARK AVE","COLUMBUS","OH","43214"
249867,"580 OLD DAVISTOWN SCHOOL RD","LANCASTER","KY","40444"
249868,"580 PACKSADDLE TRAIL","EVERGREEN","CO","80439"
249869,"580 PARLANG LOOP","LAPLACE","LA","70068"
249870,"580 PARLANGE LOOP","LAPLACE","LA","70068"
249871,"580 PERIMETER DR","DOWNINGTOWN","PA","19335"
249872,"580 PULASKI BLVD","BELLINGHAM","MA","02019"
249873,"580 RIVERPARK DR","MALVERN","AR","72104"
249874,"580 ROLAND MANOR DR","DACULA","GA","30019"
249875,"580 S SALINA ST FL 3","SYRACUSE","NY","13202"
249876,"580 SAINT NICHOLAS AVENUE APT 4E","NEW YORK","NY","10030"
249877,"580 SE 13TH ST STE 203","DANIA","FL","33004"
249878,"580 SE CORLISS AVE","CORVALLIS","OR","97333"
249879,"580 SECURITY ROAD","HAGERSTOWN","MD","21740"
249880,"580 SOUTH HIGH ST SUITE 300","COLUMBUS","OH","43215"
249881,"580 SOUTH SALINA STREET THIRD FLOOR","SYRACUSE","NY","13202"
249882,"580 SOUTHERN PL","MEMPHIS","TN","38111"
249883,"580 SOUTHFORK DR","SENATOBIA","MS","38668"
249884,"580 SPYGLASS CT","WAUKEE","IA","50263"
249885,"580 STONEBRANCH","LOGANVILLE","GA","30052"
249886,"580 STRATTON STREET","LOGAN","WV","25601"
249887,"580 SYLVAN AVE SUITE MA","ENGLEWOOD CLIFFS","NJ","07632"
249888,"580 TABERNACLE RD","MEDFORD","NJ","08055"
249889,"580 TAYLOR AVENUE        E-5","ANNAPOLIS","MD","21401"
249890,"580 TONY MARCHIO DRIVE","TOWNSEND","DE","19734"
249891,"580 TREMONT ST UNIT 6","BOSTON","MA","02118"
249892,"580 UNIVERSITY AVE W","SAINT PAUL","MN","55103"
249893,"580 VICTORIA COURT","PEN ARGYL","PA","18072"
249894,"580 VILLAGE BLVD SUITE 110","WEST PALM BEACH","FL","33409"
249895,"580 W 6TH ST","TUSTIN","CA","92780"
249896,"580 W MELODY AVE","GILBERT","AZ","85233"
249897,"580 W WASHINGTON STREET","MONTICELLO","FL","32344"
249898,"580 WASHINGTON STREET","AUBURN","MA","01501"
249899,"580 WHITE PLAINS ROAD","EASTCHESTER","NY","10709"
249900,"580 WILLOW STREET","READING","PA","19602"
249901,"580 WINDING DRIVE","BLUE RIDGE","GA","30513"
249902,"580","HAGERSTOWN","MD","21740"
249903,"5800 15TH STREET SOUTH","GULFPORT","FL","33707"
249904,"5800 ALBINE CIRCLE","LITHONIA","GA","30058"
249905,"5800 AMLIN TER","MATTESON","IL","60443"
249906,"5800 ARLINGTON AVENUE 15U","BRONX","NY","10471"
249907,"5800 ARLINGTON AVENUE 3J","BRONX","NY","10471"
249908,"5800 ARLINGTON AVENUE STE 16N","BRONX","NY","10471"
249909,"5800 ATTEBURY DR","AMARILLO","TX","79118"
249910,"5800 BAKER RD STE 110","MINNETONKA","MN","55345"
249911,"5800 BAY SHORE ROAD","SARASOTA","FL","34243"
249912,"5800 BEACH BLVD STE 111","JACKSONVILLE","FL","32207"
249913,"5800 BEACH BLVD","Jacksonville","FL","32207"
249914,"5800 BEACH BLVD","JACKSONVILLE","FL","32207"
249915,"5800 BIENVENUE AVENUE","MARRERO","LA","70072"
249916,"5800 BROKEN TOP AVENUE","LAS VEGAS","NV","89141"
249917,"5800 BROMLEY AVENUE STE 22","LAS VEGAS","NV","89107"
249918,"5800 BROOKSHADOW DRIVE","RALEIGH","NC","27610"
249919,"5800 CARTERSVILLE RD","POWHATAN","VA","23139"
249920,"5800 CENTRAL AVENUE 5801","KNOXVILLE","TN","37912"
249921,"5800 COMMERCE BLVD","ROHNERT PARK","CA","94928"
249922,"5800 COVE LANDING APT 204","BURKE","VA","22015"
249923,"5800 DIAMOND POINT CIRCLE","EL PASO","TX","79912"
249924,"5800 DURBRIDGE DR","NEW ORLEANS","LA","70131"
249925,"5800 E MLK BOULEVARD","AUSTIN","TX","78721"
249926,"5800 EASTOVER DR","NEW ORLEANS","LA","70128"
249927,"5800 EXECUTIVE DRIVE","LANSING","MI","48910"
249928,"5800 GOODWIN AVENUE","DALLAS","TX","75206"
249929,"5800 HALLRIDGE CRL","COLUMBUS","OH","43232"
249930,"5800 HARTWELL","DEARBORN","MI","48126"
249931,"5800 HWY 86N","HILLSBOROUGH","NC","27278"
249932,"5800 JAMISON AVE NE","ST. MICHAEL","MN","55376"
249933,"5800 JAMISON AVENUE","ST MICHAEL","MN","55376"
249934,"5800 KING AVE","MAYWOOD","CA","90270"
249935,"5800 KINGSWOOD RD","BETHESDA","MD","20814"
249936,"5800 LAGUNA VALE WAY","ELK GROVE","CA","95758"
249937,"5800 MAIN STREET","CENTER VALLEY","PA","18034"
249938,"5800 MARGATE BLVD APT 812","MARGATE","FL","33063"
249939,"5800 MCHINES PLACE SUITE 114","RALEIGH","NC","27616"
249940,"5800 MONROE STREET BLDG D","SYLVANIA","OH","43560"
249941,"5800 N 6TH ST","Philadelphia","PA","19120"
249942,"5800 N CHURCH AVE","TAMPA","FL","33614"
249943,"5800 N LINCOLN AVE STE A","CHICAGO","IL","60659"
249944,"5800 N OLIVIA DRIVE","ALEXANDRIA","IN","46001"
249945,"5800 NORTHGATE DRIVE SUITE 250","SAN RAFAEL","CA","94903"
249946,"5800 OVERSEAS HIGHWAY SUITE 4","MARATHON","FL","33050"
249947,"5800 PADRE BOULEVARD STE 210","SOUTH PADRE ISLAND","TX","78597"
249948,"5800 POOLE DRIVE","THE COLONY","TX","75056"
249949,"5800 QUANTRELL AVENUE  APT 821","ALEXANDRIA","VA","22312"
249950,"5800 RICKER ROAD","JACKSONVILLE","FL","32218"
249951,"5800 RIVERVIEW RD","MABLETON","GA","30126"
249952,"5800 ROYAL RIDGE DR UNIT D","SPRINGFIELD","VA","22152"
249953,"5800 RT 378 BOX 429","CENTER VALLEY","PA","18034"
249954,"5800 RUBBLESTONE DRIVE","MCKINNEY","TX","75070"
249955,"5800 S EASTERN AVE 500","COMMERCE","CA","90040"
249956,"5800 S EASTERN AVE STE 500","COMMERCE","CA","90040"
249957,"5800 S EASTERN AVE SUITE 500","COMMERCE","CA","90040"
249958,"5800 S EASTERN AVENUE 500","COMMERCE","CA","90040"
249959,"5800 S HOLMES AVE","CLARENDON HILLS","IL","60514"
249960,"5800 S NEENAH AVE","CHICAGO","IL","60638"
249961,"5800 SANTA ROSA RD STE 142","CAMARILLO","CA","93012"
249962,"5800 SOUTH EASTERN AVE SUITE 260","COMMERCE","CA","90040"
249963,"5800 UNIVERSITY BLVD WEST APT 445","JACKSONVILLE","FL","32216"
249964,"5800 W 107 ST","OVERLAND PARK","KS","66207"
249965,"5800 W 107TH STREET","OVERLAND PARK","KS","66207"
249966,"5800 W 52ND STREET","SIOUX FALLS","SD","57106"
249967,"5800 W CHARLESTON BLVD UNIT 1048","LAS VEGAS","NV","89146"
249968,"5800 W LAKE MEAD BLVD 2017","LAS VEGAS","NV","89108"
249969,"5801 ARLENE WAY","LIVERMORE","CA","94550"
249970,"5801 BROADMOOR AVE SE","KENTWOOD","MI","49512"
249971,"5801 C ST BLDG 2145 STE 348","BEALE AFB","CA","95903"
249972,"5801 C STREET BLDG 2145","BEALE AFB","CA","95903"
249973,"5801 CAMINO DEL SOL - APT 300","BOCA RATON","FL","33433"
249974,"5801 DEAUVILLE BLVD","MIDLAND","TX","79706"
249975,"5801 E 41ST STREET SUITE 300","TULSA","OK","74135"
249976,"5801 EXECUTIVE CENTER DR SUITE 102","CHARLOTTE","NC","28212"
249977,"5801 FARMBROOK DRIVE","CHARLOTTE","NC","28210"
249978,"5801 FEGENBUSH LANE","LOUISVILLE","KY","40228"
249979,"5801 GREENWOOD RD","LOUISVILLE","KY","40258"
249980,"5801 HIGH FOREST DRIVE","MCCALLA","AL","35111"
249981,"5801 LANGSTON DR","TAMPA","FL","33619"
249982,"5801 MARCIA AVENUE","NEW ORLEANS","LA","70124"
249983,"5801 MOCKINGBIRD LANE","PINSON","AL","35126"
249984,"5801 N MAIN ST","COLUMBIA","SC","29203"
249985,"5801 NE 2ND AVE","MIAMI","FL","33137"
249986,"5801 NORTH OCEAN BLVD","OCEAN RIDGE","FL","33435"
249987,"5801 NW 178TH","EDMOND","OK","73012"
249988,"5801 NW 62ND AVENUE APT 111","TARAMAC","FL","33319"
249989,"5801 OAKMERE LANE","AUBREY","TX","76227"
249990,"5801 OLD JONESBORO ROAD","BRISTOL","TN","37620"
249991,"5801 QUANTRELL AVE APT 109","ALEXANDRIA","VA","22312"
249992,"5801 RIVERDALE RD APT 48L","RIVERDALE","GA","30349"
249993,"5801 ROYALE PL","RIVERSIDE","CA","92506"
249994,"5801 S DECATUR BLVD SUITE 110","LAS VEGAS","NV","89118"
249995,"5801 SCARLETT COURT","OAK RIDGE","NC","27310"
249996,"5801 SHENANDOAH DRIVE","SACRAMENTO","CA","95841"
249997,"5801 SILVERSPRINGS","EL PASO","TX","79912"
249998,"5801 SUNDALE AVE","BAKERSFIELD","CA","93309"
249999,"5801 SW 72 AVE","MIAMI","FL","33143"
250000,"5801 TALL OAKS DR","MILFORD","OH","45150"
