"ID","Address","City","State","Zip"
53501,"13532 STRAW BALE LANE","DARNESTOWN","MD","20878"
53502,"13533 CLAYTON ST","THORNTON","CO","80241"
53503,"13533 S FAIR HILL CT","DRAPER","UT","84020"
53504,"13533 VILLAGE DRIVE","CERRITOS","CA","90703"
53505,"13534 82ND DRIVE APT 2F","BRIARWOOD","NY","11435"
53506,"13534 FLADGATE MARK DRIVE","RIVERVIEW","FL","33579"
53507,"13535 BRANDING IRON PLACE","CHINO","CA","91710"
53508,"13535 FORESMAN BLVD","PORT CHARLOTTE","FL","33981"
53509,"13535 MANSFIELD STREET","DETROIT","MI","48227"
53510,"13535 PADRON CT","RIVERVIEW","FL","33579"
53511,"13535 PHOENIX DR","ORLANDO","FL","32828"
53512,"13535 SILVERSAND STREET","VICTORVILLE","CA","92394"
53513,"13535 VENTURA BOULEVARD SUITE C","SHERMAN OAKS","CA","91423"
53514,"13535 YUKON AVENUE APT 8","HAWTHORNE","CA","90250"
53515,"13536 LAKEWOOD BLVD NUM 507","BELLFLOWER","CA","90706"
53516,"13536 LAKEWOOD BOULEVARD UNIT 323","BELLFLOWER","CA","90706"
53517,"13536 MANSION OAKS PLACE","GULFPORT","MS","39503"
53518,"13536 ROSE RIDGE ROAD","PARKER","CO","80138"
53519,"13537 67TH ST NE","SPICER","MN","56288"
53520,"13537 PADRON COURT","RIVERVIEW","FL","33579"
53521,"13538 BORDEAUX COURT","APPLE VALLEY","CA","92308"
53522,"13538 CABRERA LANE","HOUSTON","TX","77083"
53523,"13538 PADDOCK RIDGE COURT","FLORISSANT","MO","63033"
53524,"13539 38TH AVE","FLUSHING","NY","11354"
53525,"13539 E 43RD LANE","YUMA","AZ","85367"
53526,"13539 HILLSIDE DRIVE","TRUCKEE","CA","96161"
53527,"13539 MANZANITA RD NE","BAINBRIDGE ISLAND","WA","98110"
53528,"13539 WOODRING CT","HOUSTON","TX","77045"
53529,"1354 1/2 WEST GREENLEAF AVE 1A","CHICAGO","IL","60626"
53530,"1354 BARROWS ROAD SUITE 102","OAKLAND","CA","94610"
53531,"1354 BEACON CIR","BEACON CIR","FL","33414"
53532,"1354 BRANDEN CT","BARTLETT","IL","60103"
53533,"1354 CAREY STREET","BALTIMORE","MD","21217"
53534,"1354 COUNTRY CLUB DR","CAMANO ISLAND","WA","98282"
53535,"1354 COUNTY ROAD 447","DIME BOX","TX","77853"
53536,"1354 DARTMOUTH AVE","BALTIMORE","MD","21234"
53537,"1354 DESERT CANYON DR","EL PASO","TX","79912"
53538,"1354 DESTINY LANE","FOREST","VA","24551"
53539,"1354 E ANN ARBOR","DALLAS","TX","75216"
53540,"1354 E WALNUT RD","GILBERT","AZ","85298"
53541,"1354 JUDGE PLACE","WAUKEGAN","IL","60085"
53542,"1354 KEENLAND DRIVE","BARTLETT","IL","60103"
53543,"1354 MAPLE DRIVE","OAKLEY","CA","94561"
53544,"1354 MOUNTAIN WAY","CLARKSVILLE","TN","37043"
53545,"1354 N ARTESIAN AVE APT 3","CHICAGO","IL","60622"
53546,"1354 N CAREY STREET","BALTIMORE","MD","21217"
53547,"1354 NADEAU ST","LOS ANGELES","CA","90001"
53548,"1354 NORTH COLLEGE ST","DECATUR","IL","62526"
53549,"1354 NORTH G STREET","SAN BERNARDINO","CA","92405"
53550,"1354 Q ST","SPRINGFIELD","OR","97477"
53551,"1354 S LARKSPUR STREET","GILBERT","AZ","85296"
53552,"1354 SEMINOLE DRIVE","GREENSBORO","NC","27408"
53553,"1354 SHAFTER AVE","SAN FRANCISCO","CA","94124"
53554,"1354 SULPHUR SPRINGS RD","SHELBY","NC","28152"
53555,"1354 TARGHEE DRIVE","TWIN FALLS","ID","83301"
53556,"1354 WAKEMAN LN","GEARHART","OR","97138"
53557,"1354 WILLOW OAKS DR","WILSONVILLE","AL","35186"
53558,"1354","BUENA VISTA","CO","81211"
53559,"13540 BRUSHY CREEK ROAD","LUCEDALE","MS","39452"
53560,"13540 FISHING HOLE LANE","HASLET","TX","76052"
53561,"13540 OLD JAMESTOWN RD","FLORISSANT","MO","63033"
53562,"13541 WINTHROP","DETROIT","MI","48227"
53563,"13541","EULESS","TX","76040"
53564,"13542 MERCEDES","REDFORD","MI","48239"
53565,"13542 POLAR CT","WOODBRIDGE","VA","22193"
53566,"13542 SPRING GROVE AVE","DALLAS","TX","75240"
53567,"13543 HEAVENS GATE","BOW","WA","98232"
53568,"13543 HILLCREST DRIVE","GREENFIELD","OH","45123"
53569,"13544 LORD BALTIMORE PL","UPPER MARLBORO","MD","20772"
53570,"13544 NW 9 STREET","PEMBROKE PINES","FL","33028"
53571,"13545 MESA VERDE DRIVE","AUSTIN","TX","78737"
53572,"13545 N LOS EBANOS","MISSION","TX","78574"
53573,"13545 OSPREY LN","DOWELL","MD","20629"
53574,"13545 SHORT DRIVE","CRESTWOOD","IL","60445"
53575,"13546 BEACH BLVD SUITE 6","JACKSONVILLE","FL","32224"
53576,"13546 COOKS MILL CT","LANEXA","VA","23089"
53577,"13547 17TH STREET NE","NORTHWOOD","ND","58267"
53578,"13547 85TH ROAD NORTH","WEST PALM BEACH","FL","33412"
53579,"13547 TRANTERS CREEK LANE","CHARLOTTE","NC","28273"
53580,"13547 VENTURA BLVD 377","SHERMAN OAKS","CA","91423"
53581,"13547 VENTURA BLVD 665","SHERMAN OAKS","CA","91423"
53582,"13547 VENTURA BLVD SUITE 660","SHERMAN OAKS","CA","91423"
53583,"13548 MAGNOLIA AV","CORONA","CA","92879"
53584,"13548 SUTTER COURT","FONTANA","CA","92336"
53585,"13548 SUTTER CT","FONTANA","CA","92336"
53586,"13549 BROCCOLINO WAY","CLARKSVILLE","MD","21029"
53587,"13549 CHESDIN LANDING DR","CHESTERFIELD","VA","23838"
53588,"1355 17TH STREET NW APT 223","WASHINGTON","DC","20036"
53589,"1355 AUXFORD AVENUE","TUSCALOOSA","AL","35405"
53590,"1355 BARDSTOWN RD UNIT 149","LOUISVILLE","KY","40204"
53591,"1355 BARRINGTON ROAD","IOWA CITY","IA","52245"
53592,"1355 BEVERLY ROAD SUITE 330","MCLEAN","VA","22101"
53593,"1355 BLACKMON ROAD","GREEN COVE SPRINGS","FL","32043"
53594,"1355 BRADLEY BLVD APT 605","SAVANNAH","GA","31419"
53595,"1355 BRISTOL AVE NW","GRAND RAPIDS","MI","49504"
53596,"1355 CAMELBACK DR","POCATELLO","ID","83201"
53597,"1355 CHARLEY HILL ROAD","SCHROON LAKE","NY","12870"
53598,"1355 COUNTRYSIDE DR","MOGADORE","OH","44260"
53599,"1355 COX RD","HENDERSON","TN","38340"
53600,"1355 CURVE RAOD","DELAWARE","OH","43015"
53601,"1355 DEFOREST AVE","IOWA CITY","IA","52240"
53602,"1355 DELAWARE ST NO 105","HUNTINGTON BEACH","CA","92648"
53603,"1355 E 398TH ROAD","BOLIVAR","MO","65613"
53604,"1355 E GRAND RIVER AVENUE","EAST LANSING","MI","48823"
53605,"1355 E HENRI DE TONTI BLVD","SPRINDALE","AR","72762"
53606,"1355 EAST CRISAFULLI ROAD","MERRITT ISLAND","FL","32953"
53607,"1355 ESSEX WAY","SAN JOSE","CA","95117"
53608,"1355 HIDDEN RIDGE LANE","CORDOVA","TN","38016"
53609,"1355 HIGHWAY 128","LONSDALE","AR","72087"
53610,"1355 HIGHWAY 179-A","WESTVILLE","FL","32464"
53611,"1355 HOLLOW HILLS","CAMDEN","AR","71701"
53612,"1355 JAMES COURT","MORGAN HILL","CA","95037"
53613,"1355 MALABAR RD","MALABAR","FL","32950"
53614,"1355 N DUTTON AVE","SANTA ROSA","CA","95401"
53615,"1355 N OCEAN AVE","MEDFORD","NY","11763"
53616,"1355 N POEPPEL RD","FORT ATKINSON","WI","53538"
53617,"1355 NORTH UNIVERSITY AVENUE - 220","PROVO","UT","84604"
53618,"1355 OLD PEARL ROAD","FLORENCE","MS","39073"
53619,"1355 PICCARD DRIVE- SUITE 320","ROCKVILLE","MD","20850"
53620,"1355 REMINGTON OAKS TERRACE","FENTON","MO","63026"
53621,"1355 S 3RD STREET 2R","LOUISVILLE","KY","40208"
53622,"1355 S ALVARADO STREET","LOS ANGELES","CA","90006"
53623,"1355 S COLORADO BLVD SUITE C502","DENVER","CO","80222"
53624,"1355 SAN PABLO ST ROOM 214","LOS ANGELES","CA","90033"
53625,"1355 SEELERT LANE","ROSEMEAD","CA","91770"
53626,"1355 SINGLEY ROAD","SILAS","AL","36919"
53627,"1355 SPECK ROAD","ALBANY","KY","42602"
53628,"1355 STAR RD","EMMETT","ID","83607"
53629,"1355 TIGER DRIVE","THIBODAUX","LA","70301"
53630,"1355 W 108TH PLACE","CHICAGO","IL","60643"
53631,"1355 W 13TH AVE","EUGENE","OR","97402"
53632,"1355 W COURT ST 323","LOS ANGELES","CA","90026"
53633,"13550 VARGON STREET","DALLAS","TX","75243"
53634,"13550 VINT HILL RD","NOKESVILLE","VA","20181"
53635,"13551 CAPP ROAD","EDINBORO","PA","16412"
53636,"13551 SE 145TH AVE","HAPPY VALELY","OR","97086"
53637,"13552 179TH ST","LITTLE FALLS","MN","56345"
53638,"13552 GOLDENWEST STREET","WESTMINSTER","CA","92683"
53639,"13553 S EAGLE VALLEY RD","TYRONE","PA","16686"
53640,"13553 STATE ROAD 54 57","ODESSA","FL","33556"
53641,"13555 HANSEL ST","FRISCO","TX","75035"
53642,"13555 S CROSS L RD","MAYER","AZ","86333"
53643,"13555 W SKY HAWK DRIVE","SUN CITY WEST","AZ","85375"
53644,"13555 WEST SACRED EARTH PLACE","TUCSON","AZ","85735"
53645,"13558 BLUE MARLIN LANE","HOUSTON","TX","77083"
53646,"13558 DETROIT ST","THORNTON","CO","80241"
53647,"13558 ROUTE 666","TIONESTA","PA","16353"
53648,"13559 ASHLAND LANE","FONTANA","CA","92336"
53649,"13559 E 463 RD","CLAREMORE","OK","74017"
53650,"13559 METTETAL ST","DETROIT","MI","48227"
53651,"1356  MAGNOLIA BEND LOOP","CARY","NC","27519"
53652,"1356 23RD ST","OCEANO","CA","93445"
53653,"1356 ARKANSAS RD","HIGHLAND","IL","62249"
53654,"1356 CEDAR COVE ROAD","CAMDEN","SC","29020"
53655,"1356 COUNTY ROAD","GREENFIELD TWP","ME","04418"
53656,"1356 CRESCENT AVE","ONEIDA","NY","13421"
53657,"1356 E 22ND ST","LOS ANGELES","CA","90011"
53658,"1356 E GRANARY COURT","SPOKANE","WA","99208"
53659,"1356 FAIRMONT DRIVE","CORONA","CA","92882"
53660,"1356 HAZEL STREET","PELLA","IA","50219"
53661,"1356 MONARCH LN","DAVIS","CA","95618"
53662,"1356 MONTROSE DRIVE","GAINESVILLE","GA","30501"
53663,"1356 N WESTERN AVE 2F","CHICAGO","IL","60622"
53664,"1356 RIVER HILLS CIRCLE EAST","JACKSONVILLE","FL","32211"
53665,"1356 SOUTH PROSPERO DRIVE","GLENDORA","CA","91740"
53666,"1356 TUNWELL STABLE COURT","RESTON","VA","20194"
53667,"1356 UNDERWOOD STREET NW","WASHINGTON","DC","20012"
53668,"1356 WELLINGSHIRE CIRCLE","CUYAHOGA FALLS","OH","44221"
53669,"1356 WEST ROSEMONT AVE","CHICAGO","IL","60660"
53670,"13560 E MCNICHOLS RD SUITE 130","DETROIT","MI","48205"
53671,"13560 E MCNICHOLS STE 130","DETROIT","MI","48205"
53672,"13560 FEATHER SOUND CIRCLE WEST","CLEARWATER","FL","33762"
53673,"13560 GOSSAMER WAY","APPLE VALLEY","MN","55124"
53674,"13560 HIDDEN VALLEY","VICTORVILLE","CA","92395"
53675,"13560 TECHNOLOGY DRIVE  APT 1301","EDEN PRAIRIE","MN","55344"
53676,"13561 ALDRIN AVENUE","POWAY","CA","92064"
53677,"13561 FM 128","COOPER","TX","75432"
53678,"13561 GINGER GLEN RD","SAN DIEGO","CA","92130"
53679,"13561 LORD BALTIMORE PL","UPPER MARLBORO","MD","20772"
53680,"13561 LORD BALTIMORE PLACE","UPPER MARLBORO","MD","20772"
53681,"13561 MOORPARK STREET - 101","SHERMAN OAKS","CA","91423"
53682,"13561 POND SPRINGS ROAD","AUSTIN","TX","78729"
53683,"13561 S WEST BAYSHORE DRIVE","TRAVERSE CITY","MI","49684"
53684,"13561 YORBA STREET","SANTA ANA","CA","92705"
53685,"13562 SADDLE CREEK LN","GRABILL","IN","46741"
53686,"13562 SW 113TH LN","DUNNELLON","FL","34432"
53687,"13563 CHAMISE VISTA LANE","SAN DIEGO","CA","92130"
53688,"13565 ANOCHECER AVE","CHINO HILLS","CA","91709"
53689,"13565 ARNOLD STREET","REDFORD","MI","48239"
53690,"13565 ARNOLD","REDFORD","MI","48239"
53691,"13565 ASHFORD WOOD CT E","JACKSONVILLE","FL","32218"
53692,"13567 CAMBRIDGE DRIVE","LEMONT","IL","60439"
53693,"13569 NE 203RD CT","WOODINVILLE","WA","98072"
53694,"1357 16TH AVENUE","SAN FRANCISCO","CA","94122"
53695,"1357 43RD AVENUE UNIT 14","GREELEY","CO","80634"
53696,"1357 93RD AVENUE - UNIT A","OAKLAND","CA","94603"
53697,"1357 ASHFORD AVENUE","SAN JUAN","PR","00907"
53698,"1357 AVENIDA ASHFORD 372","SAN JUAN","PR","00907"
53699,"1357 BAKER STREET","EUDORA","AR","71640"
53700,"1357 BARDSTOWN ROAD","LOUISVILLE","KY","40204"
53701,"1357 CENTENNIAL DRIVE","ROCK HILL","SC","29732"
53702,"1357 CHURCHILL","GRAYSLAKE","IL","60030"
53703,"1357 EAST 56TH STREET","BROOKLYN","NY","11234"
53704,"1357 GEDDES ST","LOS ANGELES","CA","90044"
53705,"1357 HINRICHS WAY","ESCONDIDO","CA","92027"
53706,"1357 KAPIOLANI BLVD NO 1015","HONOLULU","HI","96814"
53707,"1357 MAYS LANDING RD","FOLSOM","NJ","08037"
53708,"1357 MCCAUSLAND AVE","SAINT LOUIS","MO","63117"
53709,"1357 MERRY LOOP","MILPITAS","CA","95035"
53710,"1357 NOOSE ROAD","HAYS","KS","67601"
53711,"1357 OLD HWY 100","WACO","GA","30182"
53712,"1357 ONYX CIRCLE","CORONA","CA","92882"
53713,"1357 SOUTH LEWIS STREET","ANAHEIM","CA","92805"
53714,"1357 STATE ROUTE 121","NEW MADISON","OH","45346"
53715,"1357 WINDERMERE AVE","MENLO PARK","CA","94025"
53716,"1357 WOODSIDE AVENUE","BALDWIN","NY","11510"
53717,"1357","ABILENE","TX","79604"
53718,"13570 253RD AVENUE","SPIRIT LAKE","IA","51360"
53719,"13570 GROVE DR     NO 303","MAPLE GROVE","MN","55311"
53720,"13570 GROVE DRIVE NUM 171","MAPLE GROVE","MN","55311"
53721,"13570 GROVE DRIVE SUITE 244","MAPLE GROVE","MN","55311"
53722,"13570 GROVE DRIVE SUITE 369","MAPLE GROVE","MN","55311"
53723,"13570 ORANGE BLVD","WEST PALM BEACH","FL","33412"
53724,"13571 WEST REMUDA DRIVE","PEORIA","AZ","85383"
53725,"13572 MITCHELLS WAY","WEST FRIENDSHIP","MD","21794"
53726,"13572 TARRASA CT E","JACKSONVILLE","FL","32225"
53727,"13573 SW 49TH CT","MIRAMAR","FL","33027"
53728,"13575 58TH STREET NORTH SUITE 179","CLEARWATER","FL","33760"
53729,"13575 58TH STREET NORTH SUITE 200","CLEARWATER","FL","33760"
53730,"13575 79TH ST","FELLSMERE","FL","32948"
53731,"13575 E 114TH ST","FISHERS","IN","46037"
53732,"13576 LOWER COLFAX RD","GRASS VALLEY","CA","95945"
53733,"13577 SW 115TH LANE","MIAMI","FL","33186"
53734,"13578 E 131ST STREET","FISHERS","IN","46037"
53735,"13578 SAN MARTIN LN","HOUSTON","TX","77083"
53736,"1358 GOLDEN ROAD","LAKE CITY","CO","81235"
53737,"1358 GRAND STREET","WESTBURY","NY","11590"
53738,"1358 HOOPER AVE SUITE 290 A","TOMS RIVER","NJ","08753"
53739,"1358 HOOPER AVENUE  SUITE 185","TOMS RIVER","NJ","08753"
53740,"1358 HOOPER AVENUE","TOMS RIVER","NJ","08753"
53741,"1358 JUPITER BLVD NW","PALM BAY","FL","32907"
53742,"1358 LAS JUNTAS WAY UNIT G","WALNUT CREEK","CA","94597"
53743,"1358 MARIN AVE","ALBANY","CA","94706"
53744,"1358 NATIONAL ROAD","WHEELING","WV","26003"
53745,"1358 OMALLEY WAY","UPLAND","CA","91786"
53746,"1358 S CHURCH STREET","BURLINGTON","NC","27215"
53747,"1358 SALIBURY DR","WINTER HAVEN","FL","33881"
53748,"1358 SILVERADO","NORTH LAUDERDALE","FL","33068"
53749,"1358 SOUTH BOULEVARD","BATON ROUGE","LA","70802"
53750,"1358 SW 8 STREET","MIAMI","FL","33135"
53751,"1358 TERRIER DR UNIT F","COPLEY","OH","44321"
53752,"1358 VANCE STREET","LAKEWOOD","CO","80214"
53753,"1358 W HWY 5","ROOPVILLE","GA","30170"
53754,"13580 E 132ND ST N","COLLINSVILLE","OK","74021"
53755,"13580 LYNN AVE","SAVAGE","MN","55378"
53756,"13580 NW 4TH PLACE","NORTH MIAMI","FL","33168"
53757,"13581 91ST AVE N","SEMINOLE","FL","33776"
53758,"13581 CEDAR STREET","OMAHA","NE","68144"
53759,"13582 HATCHIE LANE","ATHENS","AL","35611"
53760,"13582 OLD HIGHWAY 67","BILOXI","MS","39532"
53761,"13584 BIG BOULDER RD","HERNDON","VA","20171"
53762,"13586 GARCIA AVE","CHINO","CA","91710"
53763,"13586 WOODMONT AVE","DETROIT","MI","48227"
53764,"13587 ASHLAND ROAD","ASHLAND","VA","23005"
53765,"13587 WINCHESTER RD","ASHVILLE","OH","43103"
53766,"13588 W 23RD PL","GOLDEN","CO","80401"
53767,"1359 ALA MAHAMOE STREET","HONOLULU","HI","96819"
53768,"1359 CALUMET AVE","NIAGARA FALLS","NY","14305"
53769,"1359 GRANDARBOR CIR","INDEPENDENCE","KY","41051"
53770,"1359 HILLSIDE AVE","NASHVILLE","TN","37203"
53771,"1359 HUGH RD","HOUSTON","TN","77067"
53772,"1359 LEIGHTON GROVE DR","PLUMAS LAKE","CA","95961"
53773,"1359 MACHINE BRANCH ROAD","EWING","VA","24248"
53774,"1359 MILL LAKE CIRCLE","STONE  MNT","GA","30088"
53775,"1359 OSLO LN","SAN JOSE","CA","95118"
53776,"1359 PRIMROSE WAY","CUPERTINO","CA","95014"
53777,"1359 SCOUT TRACE","HOOVER","AL","35244"
53778,"1359 SUPERIOR AVE","CALUMET CITY","IL","60409"
53779,"1359 WEST 24TH STREET","LOS ANGELES","CA","90007"
53780,"1359 WINTERWOOD RD","COLUMBIA","SC","29203"
53781,"13590 OLIN LAKES DR","SPARTA","MI","49345"
53782,"13590 SW 134 AVENUE SUITE 109","MIAMI","FL","33186"
53783,"13591 JITA LN","PINE","CO","80470"
53784,"13591 TUCKER DRIVE","DEWITT","MI","48820"
53785,"13591 US HIGHWAY 1 N","WRENS","GA","30833"
53786,"13593 BATHGATE DRIVE","HERNDON","VA","20171"
53787,"13594 MOUNTAIN TOP DR","DESERT HOT SPRINGS","CA","92240"
53788,"13595 AUTUMN LANE","CHICO","CA","95928"
53789,"13595 BOOKER T WASHINGTON HIGHWAY","MONETA","VA","24121"
53790,"13596 FILLY CT","GAINESVILLE","VA","20155"
53791,"13596 HATCHER PLACE","FONTANA","CA","92336"
53792,"13596 WEYBURNE DRIVE","DELRAY  BEACH","FL","33446"
53793,"13598 HUPP ROAD","TIMBERVILLE","VA","22853"
53794,"13598 VIA VARRA UNIT 101","BROOMFIELD","CO","80020"
53795,"13598 VIA VARRA UNIT 305","BROOMFIELD","CO","80020"
53796,"13599 OLD CUTLER RD","MIAMI","FL","33156"
53797,"136 102ND AVE SE APT 227","BELLEVUE","WA","98004"
53798,"136 20 38TH AVENUE SUITE 3H 1","FLUSHING","NY","11354"
53799,"136 2ND ST WEST","KALISPELL","MT","59901"
53800,"136 40TH ST","LINDENHURST","NY","11757"
53801,"136 ABERDEEN DR","SLIDELL","LA","70461"
53802,"136 AG HALL","STILLWATER","OK","74078"
53803,"136 APPLEGATE ROAD","KERNERSVILLE","NC","27284"
53804,"136 B BROADWAY","LAUREL SPRINGS","NJ","08021"
53805,"136 B HUDSON PKWY","WHITING","NJ","08759"
53806,"136 B MARKETPLACE CIRCLE UNIT 137","CALERA","AL","35040"
53807,"136 BEECHWOOD ACRES","MURPHY","NC","28906"
53808,"136 BEISNER AVENUE","PITTSBURGH","PA","15227"
53809,"136 BELMONT AVE","NORRISTOWN","PA","19403"
53810,"136 BERTRAND DR","PRINCETON","NJ","08540"
53811,"136 BLACKBERRY LANE","SUMMERVILLE","SC","29483"
53812,"136 BLAINE STREET","PASSAIC","NJ","07055"
53813,"136 BLUE POINTE WAY UNIT 360","ALTAMONTE SPRINGS","FL","32701"
53814,"136 BRIDGE STREET","COLLEGEVILLE","PA","19426"
53815,"136 BROWN STREET","MIDDLETOWN","PA","17057"
53816,"136 BRYANT DRIVE","PITTSBURGH","PA","15235"
53817,"136 BUCKMANVILLE ROAD","NEW HOPE","PA","18938"
53818,"136 CALMONT DRIVE","PITTSBURGH","PA","15235"
53819,"136 CANAL WAY","NEWARK","DE","19702"
53820,"136 CAPON STREET","STRASBURG","VA","22657"
53821,"136 CARNATION CIRCLE","VALLEJO","CA","94589"
53822,"136 CASTLE ROAD","COLUMBIA","SC","29210"
53823,"136 CAVIL WAY","DE PERE","WI","54115"
53824,"136 CENTER STREET","WALLINGFORD","CT","06492"
53825,"136 CENTER STREET","WAVERLY","NY","14892"
53826,"136 CLAIRE LANE APT 304","MOORESVILLE","NC","28117"
53827,"136 CLYDESDALE LANE","HARVEST","AL","35749"
53828,"136 COCHE BROOK CROSSING","WEST CHARLESTON","VT","05872"
53829,"136 COOL BROOK DR","RED OAK","TX","75154"
53830,"136 COTTSFORD DR","ATLANTA","GA","30331"
53831,"136 COUNTRY MEADOWS CT","MCDONOUGH","GA","30252"
53832,"136 COVINGTON LN","SHELBURNE","VT","05482"
53833,"136 CR 147","TISHOMINGO","MS","38873"
53834,"136 CROSSWICK LANE","LANCASTER","PA","17601"
53835,"136 DALTON CIRCLE","HENDERSONVILLE","TN","37075"
53836,"136 DEERWOOD RD","CLARKSVILLE","TN","37043"
53837,"136 DOGWOOD LAKE CT","ALPHARETTA","GA","30004"
53838,"136 DUPONT AVE","HOPATCONG","NJ","07843"
53839,"136 E BLOSSOM DR","OKLAHOMA CITY","OK","73110"
53840,"136 E EAGLE VISTA CIRCLE","WASILLA","AK","99654"
53841,"136 E GORDON ST","BEL AIR","MD","21014"
53842,"136 E MARKET STREET","STOCKTON","CA","95202"
53843,"136 E MAUMEE ST SUITE 8","ADRIAN","MI","49221"
53844,"136 E SOUTH TEMPLE STE 1050","SALT LAKE CITY","UT","84111"
53845,"136 E US HWY 212","BROADUS","MT","59317"
53846,"136 EAST OTTER DR","TOLLAND","MA","01034"
53847,"136 EAST PAGOSA ST UNIT 7","PAGOSA SPRINGS","CO","81147"
53848,"136 ELLIS DERRICK LANE","CHAPIN","SC","29036"
53849,"136 ELM STREET","HATSFIELD","MA","01038"
53850,"136 ENCLAVE CIRCLE UNIT E","BOLINGBROOK","IL","60440"
53851,"136 ESCALADE  LN","MARTINSBURG","WV","25403"
53852,"136 FAIRLAWN CT","MARENGO","IA","52301"
53853,"136 FARKAS LANE","LAS VEGAS","NV","89145"
53854,"136 FISTER COURT","AUGUSTA","GA","30909"
53855,"136 FM 231","LOVELADY","TX","75851"
53856,"136 FRIAR TUCK DR","DICKSON","TN","37055"
53857,"136 GENEVA ROAD","NEW BERN","NC","28562"
53858,"136 GORDON DRIVE","JEFFERSON","NH","03583"
53859,"136 GREENBRIER DR","PALM SPRINGS","FL","33461"
53860,"136 GRIFFIN ST","MOUNDVILLE","AL","35474"
53861,"136 HARDWOOD LANE","NEGAUNEE","MI","49866"
53862,"136 HARGROVE DRIVE","WILMINGTON","NC","28411"
53863,"136 HARTLEY STREET","NORTH HAVEN","CT","06473"
53864,"136 HATZENBUHLER RD","BROADALBIN","NY","12025"
53865,"136 HENRY STREET","NEW YORK","NY","10002"
53866,"136 HERITAGE POINT DRIVE","SIMPSONVILLE","SC","29681"
53867,"136 HOPE DRIVE","WATSONVILLE","CA","95076"
53868,"136 IDOLSTONE LANE","ABERDEEN","NJ","07747"
53869,"136 INDIAN CRK","ANNA","TX","75409"
53870,"136 ISLAND DRIVE","HENDERSONVILLE","TN","37075"
53871,"136 JOPPA ROAD","RIDGEWAY","VA","24148"
53872,"136 KAYEN CHANDO STREET","DEDEDO","GU","96929"
53873,"136 KINGSTON STREET","SAN FRANCISCO","CA","94110"
53874,"136 KNIGHTSBRIDGE DR","MADISON","MS","39110"
53875,"136 LAKE REGION BLVD","MONROE","NY","10950"
53876,"136 LORRAINE CIRCLE","WEST SAYVILLE","NY","11796"
53877,"136 LUMBER OAKS LANE","TALKING ROCK","GA","30175"
53878,"136 LYMAN STREET APT 11","WALTHAM","MA","02452"
53879,"136 MADISON AVE 3RD FLOOR","NY","NY","10016"
53880,"136 MAIN ST","DANIELSON","CT","06239"
53881,"136 MAIN STREET","NEW HAMPTON","NH","03256"
53882,"136 MARKEV LANE","NEW LENOX","IL","60451"
53883,"136 MEADOWMERE AVE","MASTIC","NY","11950"
53884,"136 MEDINA HIGHWAY","MILAN","TN","38358"
53885,"136 MERCER AVE","BUFFALO","NY","14214"
53886,"136 MERCER PL","SOUTH ORANGE","NJ","07079"
53887,"136 MOSSGLEN CIR","SACRAMENTO","CA","95826"
53888,"136 N CENTRAL AVENUE","LANDIS","NC","28088"
53889,"136 N GREENWOOD AVENUE","TULSA","OK","74120"
53890,"136 NASSAU","HERCULANEUM","MO","63048"
53891,"136 NE 6TH AVE","HILLSBORO","OR","97124"
53892,"136 NEWTOWN AVE 18","NORWALK","CT","06851"
53893,"136 NIAGARA FALLS BLVD","BUFFALO","NY","14214"
53894,"136 NORTHWEST DRIVE","BISMARCK","ND","58504"
53895,"136 NOTTINGHAM DRIVE","PITTSBURGH","PA","15205"
53896,"136 NW 16TH ST","BOCA RATON","FL","33432"
53897,"136 OLD BOWERS RD","MERTZTOWN","PA","19539"
53898,"136 OLYMPIA DRIVE","MERIDIANVILLE","AL","35759"
53899,"136 PARKER CT","LIBERTY HILL","TX","78642"
53900,"136 PASEO VISTA","SAN CLEMENTE","CA","92673"
53901,"136 PEACH STREET","BRAINTREE","MA","02184"
53902,"136 PECK HILL LA","SUMMERSVILLE","WV","26651"
53903,"136 PEE DEE CHURCH ROAD","DLLON","SC","29536"
53904,"136 PINNACLE POINT DRIVE","LANCASTER","PA","17601"
53905,"136 PINTA COUIRT","LOS GATOS","CA","95030"
53906,"136 PIONEER DR","WOODSTOCK","GA","30188"
53907,"136 PLAZA DRIVE","JENKINSBURG","GA","30234"
53908,"136 PORCH SWING WAY","HOLLY RIDGE","NC","28445"
53909,"136 POWERS ST 1G","BROOKLYN","NY","11211"
53910,"136 PR 4206","MOUNT PLEASANT","TX","75455"
53911,"136 PRYOR STREET SW THIRD FLOOR","ATLANTA","GA","30303"
53912,"136 QUARRY ROAD","SALEM","NY","12865"
53913,"136 QUEEN AVENUE","WOODBURY HEIGHTS","NJ","08097"
53914,"136 RACE ST","WESTFIELD","PA","16950"
53915,"136 RED OAKE LANE","DRY PRONG","LA","71423"
53916,"136 RIDGE VIEW TRAIL","FLEETWOOD","NC","28626"
53917,"136 ROBIN HILL RD","AMERICUS","GA","31719"
53918,"136 ROSS TERRACE","SHERRILL","NY","13461"
53919,"136 ROWAYTON AVENUE","NORWALK","CT","06853"
53920,"136 RT 4 N","SCHUYLERVILLE","NY","12871"
53921,"136 RUNNEYMEDE DR","BLYTHEWOOD","SC","29016"
53922,"136 RUTH BEMBRY RD","HAWKINSVILLE","GA","31036"
53923,"136 S 12 STREET","PARAGOULD","AR","72450"
53924,"136 S 6TH STREET","LASALLE","CO","80645"
53925,"136 S 7TH STREET","LEHIGHTON","PA","18235"
53926,"136 S 9 SUITE 400","NOBLESVILLE","IN","46060"
53927,"136 S BURK ST","EAGAR","AZ","85925"
53928,"136 S HOWARD AVE","LANDRUM","SC","29356"
53929,"136 S MAIN PO BOX 523","CAPAC","MI","48014"
53930,"136 S PARK SQARE","MARIETTA","GA","30060"
53931,"136 S PENN DIXIE ROAD","NAZARETH","PA","18064"
53932,"136 S POWELL AVENUE","COLUMBUS","OH","43204"
53933,"136 SAINT GLORY ROAD","GREENVILLE","PA","16125"
53934,"136 SAUNDERS STATION ROAD","LEVEL GREEN","PA","15085"
53935,"136 SCULLY PL","LEWISBURY","PA","17339"
53936,"136 SECOND STREET SUITE 500","HENDERSON","KY","42420"
53937,"136 SEVEN OAKS DRIVE","SCOTT DEPOT","WV","25313"
53938,"136 SINGINGWOOD DR","HOLBROOK","NY","11741"
53939,"136 SOUTH MARION DRIVE","GOLDSBORO","NC","27534"
53940,"136 SPOONBILL COURT","DAYTONA BEACH","FL","32119"
53941,"136 STATE ROUTE 101A","AMHERST","NH","03031"
53942,"136 STEELMAN ST","FAIRFIELD","PA","17320"
53943,"136 TOWNS WALK DR","ATHENS","GA","30606"
53944,"136 TRANQUIL PL","WAXAHACHIE","TX","75167"
53945,"136 TREE AVENUE","CENTRAL ISLIP","NY","11722"
53946,"136 TROTTER RIDGE DRIVE","MOORESVILLE","NC","28117"
53947,"136 TURNBERRY COURT","MILFORD","MI","48381"
53948,"136 TWIN ARCH ROAD","WASHINGTONVILLE","NY","10992"
53949,"136 UPPER LOVE","ST CROIX","VI","00840"
53950,"136 VERACRUZ AVE","KISSIMMEE","FL","34743"
53951,"136 VERONA AVE","NEWARK","NJ","07104"
53952,"136 W ALMA AVE","SAN JOSE","CA","95110"
53953,"136 W CHAMBERS ST","JACKSONVILLE","IL","62650"
53954,"136 W DARES BEACH RD 530","PRINCE FREDERICK","MD","20678"
53955,"136 W ELM ST","KENT","OH","44240"
53956,"136 W SYCAMORE AVE","WAKE FOREST","NC","27587"
53957,"136 W VUELTA FRISO","SAHUARITA","AZ","85629"
53958,"136 W WASHINGTON","CAMDEN","AR","71701"
53959,"136 WARREN STREET","ROXBURY","MA","02119"
53960,"136 WASHINGTON STREET","WHITEVILLE","NC","28472"
53961,"136 WATEREDGE LANE","SANFORD","NC","27332"
53962,"136 WAVERLY PLACE 3D","NEW YORK","NY","10014"
53963,"136 WEDGEWOOD ROAD","WORCESTER","MA","01602"
53964,"136 WEST 111TH STREET UNIT 3FE","NEW YORK","NY","10026"
53965,"136 WEST 24TH STREET","NEW YORK","NY","10011"
53966,"136 WEST 81ST STREET GF","NEW YORK","NY","10024"
53967,"136 WEST 92ND STREET","NEW YORK","NY","10025"
53968,"136 WEST END PLACE","NASHVILLE","TN","37205"
53969,"136 WESTMINSTER DR","MONTICELLO","AR","71655"
53970,"136 WHITE CHAPELL DRIVE","BENICIA","CA","94510"
53971,"136 WINDSOR G","WEST PALM BEACH","FL","33417"
53972,"136 WOODOLIVE LANE","ORANGEBURG","SC","29115"
53973,"136 WOODTIP DR","TRUCKSVILLE","PA","18708"
53974,"136 YANKEE PEDDLER PATH","MADISON","CT","06443"
53975,"136 ZIG LANE","BROOKVILLE","PA","15825"
53976,"136-16  31 RD  SUITE 2A","FLUSHING","NY","11354"
53977,"136-18 39TH AVE STE 901","FLUSHING","NY","11354"
53978,"136-20 38TH AVENUE SUITE 3A1","FLUSHING","NY","11354"
53979,"136-21 ROOSEVELT AVE STE 202","FLUSHING","NY","11354"
53980,"136-21 ROOSEVELT AVE STE 310","FLUSHING","NY","11354"
53981,"136-29 241ST STREET","ROSEDALE","NY","11422"
53982,"136-31 41ST AVE 2A","FLUSHING","NY","11355"
53983,"136-31 41ST AVENUE STE 4D","FLUSHING","NY","11355"
53984,"136-34 78TH DRIVE","FLUSHING","NY","11367"
53985,"136-4 FORUM DRIVE STE G","COLOMBIA","SC","29229"
53986,"136-4 FORUM DRIVE SUITE A-14","COLUMBIA","SC","29229"
53987,"136-80 ROOSEVELT AVE FL 3","FLUSHING","NY","11354"
53988,"1360 56TH ST SW","WYOMING","MI","49509"
53989,"1360 7TH STREET","WEST LINN","OR","97068"
53990,"1360 AMERICA AVE","WEST BABYLON","NY","11704"
53991,"1360 ASHFORD AVE NE","PALM BAY","FL","32907"
53992,"1360 BAY 24TH STREET","FAR ROCKAWAY","NY","11691"
53993,"1360 CENTER DRIVE SUITE 200","ATLANTA","GA","30338"
53994,"1360 CIRCLE BAY DR","LONGS","SC","29586"
53995,"1360 CLAY STREET","WINTER PARK","FL","32789"
53996,"1360 CLIFTON AVENUE BOX 152","CLIFTON","NJ","07012"
53997,"1360 CLIFTON AVENUE SUITE 151","CLIFTON","NJ","07012"
53998,"1360 E 9TH STREET SUITE 400","CLEVELAND","OH","44114"
53999,"1360 E ANAHEIM ST SUITE 210","LONG BEACH","CA","90813"
54000,"1360 E WILSON AVE","SALT LAKE CITY","UT","84105"
