"ID","Address","City","State","Zip"
264001,"636 NORTH AVE APT 12H","JONESBORO","GA","30236"
264002,"636 NORTHGATE DR","HIDEAWAY","TX","75777"
264003,"636 NORTHLAND BLVD SUITE 155","CINCINNATI","OH","45240"
264004,"636 NW 114TH AVENUE APT 103","MIAMI","FL","33172"
264005,"636 NW RICHMOND BEACH ROAD","SHORELINE","WA","98177"
264006,"636 OAKPOINT CIR","DAVENPORT","FL","33837"
264007,"636 OLD FALMOUTH ROAD","MARSTONS MILLS","MS","02648"
264008,"636 PALM HAVEN AVE","SAN JOSE","CA","95125"
264009,"636 PARKWAY BLVD","REIDSVILLE",NA,"27320"
264010,"636 PEACEFUL MEADOWS DR NE","RIO RANCHO","NM","87144"
264011,"636 PHEASANT RUN","VIRGINIA BEACH","VA","23452"
264012,"636 PLANK ROAD SUITE 209","CLIFTON PARK","NY","12065"
264013,"636 RAINBOW COURT","SEELEY LAKE","MT","59868"
264014,"636 RED LION ROAD","HUNTINGDON VALLEY","PA","19006"
264015,"636 RIDGE ROAD","CHICAGO","IL","60035"
264016,"636 RIDGEMOOR CT","MIDLOTHIAN","VA","23114"
264017,"636 RIVER RIDGE PLAZA","BRANDENBURG","KY","40108"
264018,"636 ROLLING GREEN DR","BETHEL PARK","PA","15102"
264019,"636 RUDD POND ROAD","MILLERTON","NY","12546"
264020,"636 RUSSELL DR","FOLSOM","CA","95630"
264021,"636 S 3RD ST W","MISSOULA","MT","59801"
264022,"636 S MAIN STREET","GRAPEVINE","TX","76051"
264023,"636 SAYLORS LANE","ROCK ISLAND","TN","38581"
264024,"636 SE 47TH LOOP","OCALA","FL","34480"
264025,"636 SEVERN ROAD","SEVERNA PARK","MD","21146"
264026,"636 SOUTH STREET","HONOLULU","HI","96813"
264027,"636 STATE ROUTE 2140","HICKMAN","KY","42050"
264028,"636 TOM TERRY ROAD","CHATSWORTH","GA","30705"
264029,"636 W 17TH STREET APT 2 A","NEW YORK","NY","10033"
264030,"636 W PRIMROSE ST","SPRINGFIELD","MO","65807"
264031,"636 WALKER RD","DICKSON","TN","37055"
264032,"636 WARING WELFARE RD","COMFORT","TX","78013"
264033,"636 WILLOW BEND ROAD","WESTON","FL","33327"
264034,"636 WINDHAM TOWN ROAD","LAMAR","SC","29069"
264035,"636 WOODCREEK COURT","CINCINNATI","OH","45238"
264036,"636","LAS VEGAS","NV","89144"
264037,"6360 ALLEN RD  SW","MABLETON","GA","30126"
264038,"6360 AUTUMN BERRY CIRCLE","JACKSONVILLE","FL","32258"
264039,"6360 CHIMNEY WOOD CT","ALEXANDRIA","VA","22306"
264040,"6360 CORPORATE DR STE D","HOUSTON","TX","77036"
264041,"6360 JOHNSTON RD","ZOLFO SPRINGS","FL","33890"
264042,"6360 MURPHY RD","STEDMAN","NC","28391"
264043,"6360 NARRAGANSETT BAY DRIVE APT 102","TAMPA","FL","33615"
264044,"6360 NW 114TH AV 232","DORAL","FL","33178"
264045,"6360 OSBORNE AVENUE","BATON ROUGE","LA","70805"
264046,"6360 OWENS LANE","PLEASANT PLAINS","IL","62677"
264047,"6360 REBECCA ROAD","LOCKPORT","NY","14094"
264048,"6360 ROCHESTER RD","ROCHESTER HILLS","MI","48306"
264049,"6360 URBANA-WOODSTOCK RD","CABLE","OH","43009"
264050,"6360 WILLIAMS RD","TALLAHASSEE","FL","32311"
264051,"6360 WILSHIRE BOULEVARD - SUITE 202","LOS ANGELES","CA","90048"
264052,"6361 ADRIAN HWY","CONWAY","SC","29526"
264053,"6361 ALAMO PLACE","NASHVILLE","TN","37209"
264054,"6361 CHESTNUT HILL ROAD","VIRGINIA BEACH","VA","23464"
264055,"6361 NAAMAN FOREST BLVD 12407","GARLAND","TX","75044"
264056,"6361 RADNOR","DETROIT","MI","48224"
264057,"6361 REDINGTON DR SE","ADA","MI","49301"
264058,"6361 SW 17TH ST","MIAMI","FL","33155"
264059,"6361 TIDEWATER ISLAND CIR","FORT MYERS","FL","33908"
264060,"6361 YARROW DRIVE SUITE F","CARLSBAD","CA","92011"
264061,"63611 ENDLEY ROAD","CAMBRIDGE","OH","43725"
264062,"6362 FARMVIEW DR NW","ACWORTH","GA","30101"
264063,"6362 HARRINGTON AVE","ARUBUCKLE","CA","95912"
264064,"6362 NORTH 101ST STREET","MILWAUKEE","WI","53225"
264065,"6362 S ELLIS AVE UNIT 2","CHICAGO","IL","60637"
264066,"6362 STORY CIRCLE","NORCROSS","GA","30093"
264067,"6363 BANNISTER DRIVE","FREDERICK","MD","21701"
264068,"6363 CHRISTIE AVENUE UNIT 2104","EMERYVILLE","CA","94608"
264069,"6363 FLAT ROCK RD APT 326","COLUMBUS","GA","31907"
264070,"6363 FRYDENDAHL","ST THOMAS","VI","00802"
264071,"6363 MARTINWOOD","MILLINGTON","TN","38053"
264072,"6363 N SMITH ST","SPOKANE","WA","99217"
264073,"6363 NORTH SWAN ROAD SUITE 151","TUCSON","AZ","85718"
264074,"6363 REGAL OAK DR","SPRINGFIELD","VA","22152"
264075,"6363 RICHMOND AVE SUITE 511","HOUSTON","TX","77057"
264076,"6363 S TRENTON AVE","TULSA","OK","74136"
264077,"6363 SELIG DRIVE","INDEPENDENCE","OH","44131"
264078,"6363 SOUTH LECLAIRE AVENUE","CHICAGO","IL","60638"
264079,"6363 SOUTHLAND FOREST DRIVE","STONE MOUNTAIN","GA","30087"
264080,"6363 ST CHARLES AVE","NEW ORLEANS","LA","70118"
264081,"6363 TASSAJARA RD","DUBLIN","CA","94568"
264082,"6364 144TH AVENUE","HOLLAND","MI","49423"
264083,"6364 FORSYTH BLVD","ST LOUIS","MO","63105"
264084,"6364 GREENOCK DR","STONE MOUNTAIN","GA","30087"
264085,"6364 HOLICHUCKY DRIVE","WALKERTOWN","NC","27051"
264086,"6364 MAPLEWOOD ROAD","MAYFIELD HEIGHTS","OH","44124"
264087,"6365 ACORN WAY","LINDEN","MI","48451"
264088,"6365 COUNTRYSHIRE LANE","WEST BLOOMFIELD","MI","48323"
264089,"6365 HONORATA DRIVE","COLUMBUS","OH","43213"
264090,"6365 NEWBORN DRIVE","COLLEGE PARK","GA","30349"
264091,"6365 POLAR FOX COURT","RIVERDALE","GA","30296"
264092,"6365 SW 25 STREET","MIAMI","FL","33155"
264093,"6366 STEDMAN RD","FENWICK","MI","48834"
264094,"6366 WESTWOOD","DETROIT","MI","48228"
264095,"6367 FLORENCE LN","BELLEVILLE","MI","48111"
264096,"6367 OVERBROOK AVENUE","PHILADELPHIA","PA","19151"
264097,"6367 PLATT SPRINGS RD","LEXINTON","SC","29073"
264098,"6367 RIVERWALK LN UNIT 5","JUPITER","FL","33458"
264099,"6367 SELMA AVE","LOS ANGELES","CA","90028"
264100,"6367 SURREY LANE","DOUGLASVILLE","GA","30134"
264101,"63674 HURRICANE CREEK RD","ENTERPRISE","OR","97828"
264102,"6368 COVENTRY WAY STE 202","CLINTON","MD","20735"
264103,"6368 COVENTRY WAY STE 235","CLINTON","MD","20735"
264104,"6368 COVENTRY WAY STE 235","CLINTON","MD","20835"
264105,"6368 COVENTRY WAY SUITE 252","CLINTON","MD","20735"
264106,"6368 MINERAL POINT","LINO LAKES","MN","55038"
264107,"6368 SUMMIT RD SW","PATASKALA","OH","43062"
264108,"6368 TERRA ROSA CIRCLE","BOYNTON BEACH","FL","33472"
264109,"6369 BAREFOOT BOY","COLUMBIA","MD","21045"
264110,"6369 NORMAN ST","WEBSTER","FL","33597"
264111,"636G LONG POINT ROAD  112","MOUNT PLEASANT","SC","29464"
264112,"637 105TH AVE N","NAPLES","FL","34108"
264113,"637 16TH AVENUE SOUTH","SURFSIDE BEACH","SC","29575"
264114,"637 B CHAPEL HILL RD SUITE B","BURLINGTON","NC","27217"
264115,"637 BAKEWAY CIRCLE","INDIANAPOLIS","IN","46231"
264116,"637 BITTERN CT","KISSIMMEE","FL","34759"
264117,"637 BLOWERS DR","WOODLAND","CA","95776"
264118,"637 BRAXTON ROAD","RIDLEY PARK","PA","19078"
264119,"637 C BELLAMY AVE","MURRELLS INLET","SC","29576"
264120,"637 CATHYANN","BOARDMAN","OH","44512"
264121,"637 CHAPEL POINT LN","KNOXVILLE","TN","37934"
264122,"637 CHARLECOTE DR","VIRGINIA BEACH","VA","23464"
264123,"637 CHARLES ST","PROVIDENCE","RI","02904"
264124,"637 CLEVELAND STREET","BROOKLYN","NY","11208"
264125,"637 COBH ROAD","RIVERVALE","NJ","07675"
264126,"637 COUNTY ROAD 1265","VINEMONT","AL","35179"
264127,"637 DUNHAM RD","GURNEE","IL","60031"
264128,"637 E 1ST STREET","NEW CASLTE","CO","81647"
264129,"637 E 2ND ST","NATIONAL CITY","CA","91950"
264130,"637 EAST ALBERTONI ST 111","CARSON","CA","90746"
264131,"637 EAST SAGINAW ST","EAST LANSING","MI","48823"
264132,"637 EAST WOODLAND PARK AVE STE 512","CHICAGO","IL","60616"
264133,"637 FOREST ROAD","GREENFIELD","NH","03047"
264134,"637 FRANKLIN RD","DUNCAN","AZ","85534"
264135,"637 GARDEN WALK DRIVE","STONE MOUNTAIN","GA","30083"
264136,"637 GERMANTOWN PIKE","LAFAYETTE HILL","PA","19444"
264137,"637 HAWARDEN AVE","SPRINGFIELD","PA","19064"
264138,"637 HENNEPIN TERRACE","MCDONOUGH","GA","30253"
264139,"637 HENRY ST APT 4R","11231","NY","11231"
264140,"637 HIGHLAND AVENUE","SOUTH PORTLAND","ME","04106"
264141,"637 HILL ROAD","WINNETKA","IL","60093"
264142,"637 HOLLY LANE","PLANTATION","FL","33317"
264143,"637 JOHNSON HILL ROAD","COLLINSVILLE","IL","62234"
264144,"637 JULIA DRIVE","WILMINGTON","NC","28412"
264145,"637 KENESAW AVENUE","KNOXVILLE","TN","37919"
264146,"637 LESLIE LANE","GADSDEN","AL","35904"
264147,"637 MEADOW ROAD","CASCO","ME","04015"
264148,"637 N BRONSON AVE 302","LOS ANGELES","CA","90004"
264149,"637 N CARLYLE LANE","ARLINGTON HEIGHTS","IL","60004"
264150,"637 N CICERO AVENUE","CHICAGO",NA,"60644"
264151,"637 N COUNTY ROAD 400 W","LOGANSPORT","IN","46947"
264152,"637 N HAYWORTH AVE APT 1","LOS ANGELES","CA","90048"
264153,"637 NE 110TH AVE","ARGONIA","KS","67004"
264154,"637 NO MT PLEASANT AVENUE","MONROEVILLE","AL","36460"
264155,"637 NORTH 8TH STREET","CLARKSVILLE","TN","37044"
264156,"637 NORTH TAFT AVENUE","HILLSIDE","IL","60162"
264157,"637 NW 76TH ST","Seattle","WA","98117"
264158,"637 PHILADELPHIA ST ROOM 301","INDIANA","PA","15701"
264159,"637 PINE GROVE LOOP","MADISONVILLE","LA","70447"
264160,"637 ROCHELLE DRIVE","NASHVILLE","TN","37220"
264161,"637 S 48TH STREET SUITE 101","TEMPE","AZ","85281"
264162,"637 S 6TH ST E","MISSOULA","MT","59801"
264163,"637 S BOWMAN AVENUE","MERION STATION","PA","19066"
264164,"637 S CAMDEN AVE","FRUITLAND","MD","21826"
264165,"637 S DEARBORN ST 3RD FLOOR","CHICAGO","IL","60605"
264166,"637 S GRANT AVE","POCATELLO","ID","83204"
264167,"637 SE 54TH AVE","PORTLAND","OR","97215"
264168,"637 SECOND STREET","VERONA","PA","15147"
264169,"637 SOUTH 20TH STREET","NEWARK","NJ","07103"
264170,"637 SOUTH PEARL STREET APT L","ALBANY","NY","12202"
264171,"637 SPARTAN AVE","EAST LANSING","MI","48823"
264172,"637 STRATFORD LANE","ROCK HILL","SC","29732"
264173,"637 SVENSON RD","REED POINT","MT","59069"
264174,"637 TULARE STREET","PETALUMA","CA","94954"
264175,"637 UNION SCHOOL ROAD","KNOXVILLE","TN","37924"
264176,"637 W PALM DR","GLENWOOD","IL","60425"
264177,"637 W PALM DR","PLACENTIA","CA","92870"
264178,"637 WATER STREET","WEST NEWFIELD","ME","04095"
264179,"637 WAYNES COURT","ATLANTA","GA","30354"
264180,"637-V S BROADWAY","BOULDER","CO","80305"
264181,"6370 15TH STREET E","SARASOTA","FL","34243"
264182,"6370 15TH STREET","SARASOTA","FL","34243"
264183,"6370 BRIANNA PEAK CT","LAS VEGAS","NV","89142"
264184,"6370 BUSCH BLVD SUITE 314","COLUMBUS","OH","43229"
264185,"6370 E BRIARBEND LOOP","BEAUMONT","TX","77708"
264186,"6370 EASTOVER","NEW ORLEANS","LA","70128"
264187,"6370 IRISHTOWN ROAD","BETHEL PARK","PA","15102"
264188,"6370 LAKE JUNE ROAD","MIAMI LAKES","FL","33014"
264189,"6370 MASON-MONTGOMERY RD","MASON","OH","45040"
264190,"6370 N ELDRIDGE PKWY STE B","HOUSTON","TX","77041"
264191,"6370 S 140TH AVE","OMAHA","NE","68137"
264192,"6370 SW 87 TER","PINECREST","FL","33156"
264193,"6370 SWAN NEST COVE","MEMPHIS","TN","38120"
264194,"6370 WINDSONG WAY","NASHPORT","OH","43830"
264195,"6371 HAVEN AVE  SUITE 3-201","RANCHO CUCAMONGA","CA","91701"
264196,"6371 HAVEN AVE STE 3 NO 156","RANCHO CUCAMONGA","CA","91737"
264197,"6371 HAVEN AVE SUITE 3-313","RANCHO CUCAMONGA","CA","91737"
264198,"6371 MABLETON PARKWAY","MABLETON","GA","30126"
264199,"6371 N BKUE VIOLET CT","CURTICE","OH","43412"
264200,"6371 OLIVE CT","DALE CITY","VA","22193"
264201,"6371 PENT PLACE","MIAMI LAKES","FL","33014"
264202,"6371 PINION JAY STREET","LAS VEGAS","NV","89148"
264203,"6371 RED HAWK TRAIL","LINO LAKES","MN","55014"
264204,"6371 RODMAN ST","HOLLYWOOD","FL","33023"
264205,"6371 SMITH ROAD","BROOK PARK","OH","44142"
264206,"6371 SOUTH FRESNO STREET","CHANDLER","AZ","85249"
264207,"6372 GLEN GARY WOODS","WATERVILLE","OH","43566"
264208,"6372 RICHMOND RD","WARSAW","VA","22572"
264209,"6372 TAYLER COURT","HALLSVILLE","MO","65255"
264210,"63724 DIAMONDHEAD DRIVE N","DIAMONDHEAD","MS","39525"
264211,"6373 GLENALLEN AVE","SOLON","OH","44139"
264212,"6373 LITTLE RIVER TURNPIKE","ALEXANDRIA","VA","22312"
264213,"6373 PARSON BROWN DRIVE","ORLANDO","FL","32819"
264214,"6374 PINEBROOK DRIVE","MONTGOMERY","AL","36117"
264215,"6375 188TH TRAIL NORTH","LOXAHATCHEE","FL","33470"
264216,"6375 CHEW AVE","PHILADELPHIA","PA","19138"
264217,"6375 EAST STUBBS ROAD","COLLEGE PARK","GA","30349"
264218,"6375 ELLENWOOD DRIVE","REX","GA","30273"
264219,"6375 MADERA LN","BEAUMONT","TX","77706"
264220,"6375 PLATTE CANYON ROAD","LITTLETON","CO","80123"
264221,"6375 S DRY WIND DR","TAYLORSVILLE","UT","84129"
264222,"6375 S PECOS RD STE 2116","LAS VEGAS","NV","89120"
264223,"6376 CITY AVENUE","PHILADELPHIA","PA","19151"
264224,"6376 LORNE GREEN AVENUE UNIT 101","HENDERSON","NV","89011"
264225,"6376 SAVANNAH AVE","PORTAGE","IN","46368"
264226,"6376 SHALLOWBROOK CT","LOVELAND","OH","45140"
264227,"6376 SOUTH CREST MOUNT CIRCLE","HOLLADAY","UT","84121"
264228,"6376 STATE ROUTE 179","SEDONA","AZ","86351"
264229,"6377 31ST AVENUE","SHELLSBURG","IA","52332"
264230,"6377 HAWTHORNE TERRACE","NORCROSS","GA","30092"
264231,"6377 MONUMENT DRIVE","GRANTS PASS","OR","97526"
264232,"6377 OLD STALEY ROAD","STALEY","NC","27355"
264233,"6377 PINE GROVE DRIVE","WILMINGTON","NC","28409"
264234,"6377 SPRINGCREST LANE","HENRICO","VA","23231"
264235,"6378 MOORES AVE","NEWARK","CA","94560"
264236,"6378 PATIENCE COURT","ALEXANDRIA","VA","22315"
264237,"6378 WV-152","WAYNE","WV","25570"
264238,"6379 CAICOS COURT","VERO BEACH","FL","32967"
264239,"6379 LANSING DRIVE","RIVERSIDE","CA","92509"
264240,"6379 MUIRFIELD DRIVE","BLOOMFIELD HILLS","MI","48301"
264241,"6379 PERSHING AVE","ST LOUIS","MO","63130"
264242,"6379 VASSAR DR","KEYSTONE HEIGHTS","FL","32656"
264243,"63795 708 TRAIL","HUMBOLDT","NE","68376"
264244,"638 170TH STREET","OSCEOLA","WI","54020"
264245,"638 19TH STREET UNIT 4","SAN FRANCISCO","CA","94107"
264246,"638 5TH ST - UNIT 4","HERMOSA BEACH","CA","90254"
264247,"638 CAJEHA TRAIL","IVINS","UT","84738"
264248,"638 CAMINO LOS MARES SUITE H130 414","SAN CLEMENTE","CA","92673"
264249,"638 COUNTY RD 1590","ALBA","TX","75410"
264250,"638 E EPWORTH AVE","CINCINNATI","OH","45232"
264251,"638 E LANDIS AVENUE","VINELAND","NJ","08360"
264252,"638 EDGEMERE AVENUE","UNIONDALE","NY","11553"
264253,"638 INDEPENDENCE PARKWAY-SUITE 240","CHESAPEAKE","VA","23320"
264254,"638 INDEPENDENCE PKWY SUITE 240","CHESAPEAKE","VA","23320"
264255,"638 KENNEDY DR","TWIN LAKES","WI","53181"
264256,"638 LONGS POND ROAD","LEXINGTON","SC","29073"
264257,"638 MAIN STREET","CASTLETON","VT","05735"
264258,"638 MIDWOOD STREET","BROOKLYN NY","NY","11203"
264259,"638 N BEACH BLVD","BAY ST LOUIS","MS","39520"
264260,"638 NE MAIN STREET","LEWISTOWN","MT","59457"
264261,"638 NORTH STREET","LAFAYETTE","IN","47901"
264262,"638 OAKHAVEN RD","AUBURN","CA","95603"
264263,"638 PENINSULA COURT","ANN ARBOR","MI","48105"
264264,"638 PORTAGE ST NW","NORTH CANTON","OH","44720"
264265,"638 PROVIDENCE PLACE SW","ATLANTA","GA","30331"
264266,"638 ROGER CHAFFEE SQUARE","BEAR","DE","19701"
264267,"638 ROOSEVELT LN","PINEVILLE","MO","64856"
264268,"638 ROXIE REESE ROAD","PLYMOUTH","NC","27962"
264269,"638 S EUCLID AVE","ELMHURST","IL","60126"
264270,"638 S GORDON","WICHITA","KS","67213"
264271,"638 S LAKE DR","MARSHALL","MO","65340"
264272,"638 SARDIS RD","MIDLOTHIAN","TX","76065"
264273,"638 SPARTANBURG HWY ST 70 212","HENDERSONVILLE","NC","28792"
264274,"638 SPRUCE STREET","PHILADELPHIA","PA","19106"
264275,"638 SUMTER STREET","WEST COLUMBIA","SC","29169"
264276,"638 W 39TH ST","KANSAS CITY","MO","64111"
264277,"638 WALNUT STREET","CARY","NC","27511"
264278,"638 WEST RIDGE RD APT A","VILLA PARK","IL","60181"
264279,"638 WEST SECOND STREET","WILLIAMSBURG","PA","16693"
264280,"638 WILLOUGHBY AVE","BROOKLYN","NY","11206"
264281,"638 WILORA LANDING ROAD APT 2A","CHARLOTTE","NC","28212"
264282,"638 WIND CAVE CT","HENDERSON","NV","89012"
264283,"6380 CABARET STREET","SAN DIEGO","CA","92120"
264284,"6380 CLIFFDALE RD UNIT 26386","FAYETTEVILLE","NC","28314"
264285,"6380 CLIFFDALE ROAD UNIT 25043","FAYETTEVILLE","NC","28314"
264286,"6380 CONTESSA DR 205","ORLANDO","FL","32829"
264287,"6380 DRUMHELLER ROAD","BATH","MI","48808"
264288,"6380 E MILL ROAD","BROADVIEW HEIGHTS","OH","44147"
264289,"6380 FREEMAN ROAD","BYRON","NY","14422"
264290,"6380 HILLVIEW ROAD","SPRING HILL","FL","34606"
264291,"6380 NY ROUTE 21","WILLIAMSON","NY","14589"
264292,"6380 ORANGE AVENUE","LONG BEACH","CA","90805"
264293,"6380 RANER CREEK DRIVE","BARTLETT","TN","38135"
264294,"6380 SANTA YNEZ APT A","ATASCADERO","CA","93422"
264295,"6380 VERNON WOODS DRIVE NE","ATLANTA","GA","30328"
264296,"6380-B PACIFIC COAST HWY","LONG BEACH","CA","90803"
264297,"6381 67TH COURT","RIVERDALE","MD","20737"
264298,"6381 BEECH COURT","ARVADA","CO","80004"
264299,"6381 HAMILTON ST","PRESTON","GA","31824"
264300,"6381 HARDING STREET","HOLLYWOOD","FL","33024"
264301,"6381 OSGOOD AVE N","STILLWATER","MN","55082"
264302,"6381 S23 HWY","CARLISLE","IA","50047"
264303,"6381 SOUTH SKYLINE DR","DOUGLASVILLE","GA","30135"
264304,"6381 STATE RD","WADWORTH","OH","44281"
264305,"6381 SW 10TH STREET","NORTH LAUDERDALE","FL","33068"
264306,"6381 TIMBERHILL CT","CINCINNATI","OH","45233"
264307,"6381 WHITEWOOD STREET","SOUTH PARK","PA","15129"
264308,"6381-A ROSE LANE","CARPINTERIA","CA","93013"
264309,"6382 N REDWOOD ST","SAN BERNARDINO","CA","92407"
264310,"6382 RICH VALLEY RD","BRISTOL","VA","24202"
264311,"6382 SHADY HILLS LANE","FULTON","MO","65251"
264312,"6383 10TH AVENUE NORTH SUITE A","GREENACRES","FL","33463"
264313,"6383 LITTLE RIVER TURNPIKE","ALEXANDIRA","VA","22312"
264314,"6383 NORTH WEST 42ND TERRACE","COCONUT CREEK","FL","33073"
264315,"6383 NW 42 TERR","COCONUT CREEK","FL","33073"
264316,"6383 PRIDEMORE CT","ASHLAND","MO","65010"
264317,"63838 TURNBERRY","WASHINGTON","MI","48095"
264318,"6384 ELDRIDGE BLVD","BEDFORD HGT","OH","44146"
264319,"6384 LEYLAND PARK DR","SAN JOSE","CA","95120"
264320,"6384 LEYLAND PARK DRIVE","SAN JOSE","CA","95120"
264321,"6384 S HWY A1A","MELBOURNE BEACH","FL","32951"
264322,"6385 BEACH RD","EDEN PRAIRIE","MN","55344"
264323,"6385 BRANTFORD ROAD","DAYTON","OH","45414"
264324,"6385 BROOKS BLVD","MENTOR","OH","44060"
264325,"6385 CROSSWINDS DRIVE","LAKE WYLIE","SC","29710"
264326,"6385 IVY STREET","NASHVILLE","TN","37209"
264327,"6385 PASEO DELICIAS","RANCHO SANTA FE","CA","92067"
264328,"6385 SHADOW SQ","LITHONIA","GA","30058"
264329,"6385 W MISSISSIPPI PL","LAKEWOOD","CO","80232"
264330,"6385 WEST BARON LANE","BOISE","ID","83703"
264331,"6386 N PORTERSVILLE RD","JASPER","IN","47546"
264332,"63867 E ORANGEWOOD LANE","TUCSON","AZ","85739"
264333,"6387 ASPEN DR","SOBIESKI","WI","54171"
264334,"6387 ROOSEVELT HWY","UNION CITY","GA","30291"
264335,"6387 SETHS WAY","LITHONIA","GA","30058"
264336,"6387B CAMP BOWIE BLVD NO 320","FORT WORTH","TX","76116"
264337,"6387B CAMP BOWIE BLVD NUM 629","FORT WORTH","TX","76116"
264338,"6388 BRIGHTON DRIVE","NORTH OLMSTED","OH","44070"
264339,"6388 FOGGY OAK DR","FAIRBURN","GA","30213"
264340,"6388 SAN HARCO CIRCLE","BUENA PARK","CA","90620"
264341,"6388 SW CAPITOL HWY APT 414","PORTLAND","OR","97239"
264342,"6389 BLACKLICK EASTERN","PICKERINGTON","OH","43147"
264343,"6389 ORCHARD WOODS DRIVE","WEST BLOOMFIELD","MI","48324"
264344,"6389 SAHRLES ROAD","DANSVILLE","NY","14437"
264345,"6389 THREE NOTCH ROAD SUITE D","MOBILE","AL","36619"
264346,"639 15TH AVE SW","CEDAR RAPIDS","IA","52404"
264347,"639 ADAMS STREET NE","MINNEAPOLIS","MN","55413"
264348,"639 CHRISTINE CAMARGO ST","BRAWLEY","CA","92227"
264349,"639 CLASSON AVE","BROOKLYN","NY","11238"
264350,"639 COTULLA DRIVE","KISSIMMEE","FL","34758"
264351,"639 COUNTY ROUTE 22","PARISH","NY","13131"
264352,"639 EAST CHURCH STREET","GALION","OH","44833"
264353,"639 EAST HUNTINGTON DRIVE","HIGHLANDS RANCH","CO","80126"
264354,"639 EAST LINCOLN STREET","CARSON","CA","90745"
264355,"639 EAST OCEAN AVENUE SUITE 309","BOYNTON BEACH","FL","33435"
264356,"639 FAIR HARBOR DRIVE","LITHONIA","GA","30058"
264357,"639 FOXTAIL DR","FLORISSANT","MO","63034"
264358,"639 GARDEN WALK BLVD","ATLANTA","GA","30349"
264359,"639 GARDEN WALK BOULEVARD 2022","ATLANTA","GA","30349"
264360,"639 GARDEN WALK BOULEVARD APT 1926","ATLANTA","GA","30349"
264361,"639 GARDEN WALK BOULEVARD STE 1926","ATLANTA","GA","30349"
264362,"639 GEARY ST APT 516","SAN FRANCISCO","CA","94102"
264363,"639 GOLDEN AVE","FULLERTON","CA","92832"
264364,"639 GRAVOIS BLUFFS BLVD","FENTON","MO","63026"
264365,"639 HIGH STREET NE","WARREN","OH","44483"
264366,"639 KEENE CIRCLE","DANDRIDGE","TN","37725"
264367,"639 MOOSIC ST","SCRANTON","PA","18505"
264368,"639 N 75TH ST","WAUWATOSA","WI","53213"
264369,"639 N BROADWAY UNIT 327","LOS ANGELES","CA","90012"
264370,"639 N SIX STREET  2A","SPRINGFIELD","IL","62702"
264371,"639 NORTH WOOD AVE","FLORENCE","AL","35630"
264372,"639 OCEAN VIEW AVE","ENCINITAS","CA","92024"
264373,"639 OCEAN VIEW AVENUE","ENCINITAS","CA","92024"
264374,"639 OLD COUNTY RD SUITE 7","BELMONT","CA","94002"
264375,"639 PACKING HOUSE ROAD","BERKELEY SPRINGS","WV","25411"
264376,"639 PANSY AVE","WINTER PARK","FL","32789"
264377,"639 PHILADELPHIA STREET","COVINGTON","KY","41011"
264378,"639 PIERCE STREET","VALLEJO","CA","94590"
264379,"639 PINE AVE","SAN JOSE","CA","95125"
264380,"639 ROBERT E LEE PKWY","JONESBORO","GA","30238"
264381,"639 ROUTE 112","PATCHOGUE","NY","11772"
264382,"639 S BROAD STREET APT F11","LANSDALE","PA","19446"
264383,"639 S COMMONWEALTH AVE STE 706","LOS ANGELES","CA","90005"
264384,"639 S COMMONWEALTH AVE UNIT 309","LOS ANGELES","CA","90005"
264385,"639 S FM 898","ECTOR","TX","75439"
264386,"639 S NEW HAMPSHIRE AVE 312","LOS ANGELES","CA","90005"
264387,"639 SANTIAGO AVENUE","HALF MOON BAY","CA","94019"
264388,"639 SHORT STREET EAST","MACON","GA","31217"
264389,"639 SKYLINE DRIVE","GATLINBURG","TN","37738"
264390,"639 STONEBRIDGE LOOP","LITHONIA","GA","30058"
264391,"639 SWIFT CREEK CROSSING","DURHAM","NC","27713"
264392,"639 W INTL AIRPORT RD STE 38","ANCHORAGE","AK","99518"
264393,"639 W SALES YARD RD","EMMETT","ID","83617"
264394,"639 WALSING DRIVE","HENRICO","VA","23229"
264395,"639 WARREN DRIVE","RIVERDALE","GA","30296"
264396,"639 WEST KEMP STREET","RHINELANDER","WI","54501"
264397,"639 WHITLOCK AVE SW","MARIETTA","GA","30064"
264398,"639 WYNDSTAR CIRCLE","WESTMINSTER","MD","21158"
264399,"6390 BOONE DRIVE","CASTRO VALLEY","CA","94552"
264400,"6390 CO RD 14","WATERLOO","AL","35677"
264401,"6390 LIBERTY","SOLON","OH","44139"
264402,"6390 QUINCE MOUNTAIN RD","SALEM","VA","24153"
264403,"6391 CHICKASAW DR","OLIVE BRANCH","MS","38654"
264404,"6391 HWY 72 WEST","PEMBROKE","NC","28372"
264405,"6391 INMAN STREET","SAN DIEGO","CA","92111"
264406,"6391 LARK MEADOW CIRCLE","ROYSE CITY","TX","75189"
264407,"6391 MEADVILLE RD","MIDDLEPORT","NY","14105"
264408,"6391 NE 7TH STREET","OKEECHOBEE","FL","34974"
264409,"6391 ROADRUNNER LOOP","RIO RANCHO","NM","87144"
264410,"6391 S TWILIGHT WAY","GILBERT","AZ","85298"
264411,"6391 W 5100 S","HOOPER","UT","84315"
264412,"63910 US HWY 50","MCARTHUR","OH","45651"
264413,"6392 CARSON DRIVE","EAST SYRACUSE","NY","13057"
264414,"6392 MCLEOD DR SUITE 2","LAS VEGAS","NV","89120"
264415,"6393 S RED SHINE WAY","BOISE","ID","83709"
264416,"6393 SOUTH VANDERHOOF STREET","BENNETT","CO","80102"
264417,"6393 WOLF RD","BROOK PARK","OH","44142"
264418,"6394 DAVIDSON COVE","MEMPHIS","TN","38119"
264419,"6394 EVESHAM DRIVE","CANAL WINCHESTER","OH","43136"
264420,"6394 MOUNTAIN HOME WAY SE","MABLETON","GA","30126"
264421,"6394 TROOST AVE","KANSAS CITY","MO","64131"
264422,"6395 HIGHWAY 108","WHITWELL","TN","37397"
264423,"6395 PARKVIEW DR","TROY","MI","48098"
264424,"6395 REDAN SQUARE","LITHONIA","GA","30058"
264425,"6395 S HEADER CANAL","PORT ST LUCIE","FL","34987"
264426,"6395 W BAKER CIRCLE","COCOA","FL","32927"
264427,"6396 CHALMERS CT","SUMMERFIELD","NC","27358"
264428,"6396 NORTH TWIN CREEKS DRIVE","OWASSO","OK","74055"
264429,"6396 SUSSEX CT","DUBLIN","CA","94568"
264430,"6397 CR 492","TYLER","TX","75706"
264431,"6397 HAYDEN DR","HICKORY","NC","28601"
264432,"6397 HELENA ROAD","MAYSLICK","KY","41055"
264433,"6397 PHEASANT TRAIL","FAIRBURN","GA","30213"
264434,"6398 DOUGHERTY ROAD","DUBLIN","CA","94568"
264435,"6398 LAKE ARIANA AVE","SAN DIEGO","CA","92119"
264436,"6398 N FIGARDEN DR STE 116","FRESNO","CA","93722"
264437,"6399 BURGESS KIVETT RD","RAMSEUR","NC","27316"
264438,"6399 CELTIC DRIVE","ATLANTA","GA","30331"
264439,"6399 JOHNSTOWN UTICA RD","UTICA","OH","43080"
264440,"6399 SUSANA ST","CHINO","CA","91710"
264441,"6399 W OAKLAND PARK BLVD","LAUDERHILL","FL","33313"
264442,"6399 WINDING LANE","RICHLAND","MI","49083"
264443,"63AD LINDBERG BAY","ST THOMAS","VI","00802"
264444,"63TANO WEST","SANTA FE","NM","87506"
264445,"64 1ST AVENUE","MASSAPEQUA PARK","NY","11762"
264446,"64 30 217 TH ST","OAKLAND GARDENS","NY","11364"
264447,"64 ALLEN STREET","GOWANDA","NY","14070"
264448,"64 AMITY STREET","PATCHOGUE","NY","11772"
264449,"64 ARMORY RD","MILFORD","NH","03055"
264450,"64 ASH HILL ROAD","SWANZEY","NH","03446"
264451,"64 ATLANTA STREET","MCDONOUGH","GA","30253"
264452,"64 BEACON ST  C-113","WORCESTER","MA","01608"
264453,"64 BEAVER STREET STE 118","NEW YORK","NY","10004"
264454,"64 BERKSHIRE WOOD","IRVINE","CA","92620"
264455,"64 BEVERLY ROAD APT 15","ASHEVILLE","NC","28805"
264456,"64 BLUE RIDGE RD","NORTH ANDOVER","MA","01845"
264457,"64 BRATTLE ST","CAMBRIDGE","MA","02138"
264458,"64 BRISTOL PLACE","GOLETA","CA","93117"
264459,"64 BROOKFIELD RD","MONTCLAIR","NJ","07043"
264460,"64 BROOKLINE STREET","TOWNSEND","MA","01469"
264461,"64 BROWN STREET","WEAVERVILLE","NC","28787"
264462,"64 BUCKET LN","LEVITTOWN","NY","11756"
264463,"64 BUCKRIDGE ROAD","WATERBURY","CT","06704"
264464,"64 BURLINGTON AVENUE","BRISTOL","CT","06010"
264465,"64 BURLINGTON CT","HAMBURG","NJ","07419"
264466,"64 CARRIAGE LANE","AMHERST","MA","01002"
264467,"64 CEDARWOOD ROAD","BOXBOROUGH","MA","01719"
264468,"64 CLARENDON AVE","CAMBRIDGE","MA","02140"
264469,"64 CLAY STREET","ANNAPOLIS","MD","21401"
264470,"64 CLELL LANE","CAMPTON","KY","41301"
264471,"64 COUGAR COURT","NEW LONDON","NH","03257"
264472,"64 CRESTVIEW DR","HOLDEN","MA","01520"
264473,"64 CROCKETT DRIVE","SPRINGBORO","OH","45066"
264474,"64 CRYSTAL CREEK DR","MOUNTAIN HOME","AR","72653"
264475,"64 DAFFODIL LANE","CLARKSBURG","WV","26301"
264476,"64 DELAND RD","KINGSTON","GA","30145"
264477,"64 DERENBERGER LANE","MINERAL WELLS","WV","26150"
264478,"64 DORY LANE","EASTHAM","MA","02642"
264479,"64 DOVETAIL","IRVINE","CA","92603"
264480,"64 DUTCHESS TERRACE","BEACON","NY","12508"
264481,"64 E BROADWAY RD SUITE 200","TEMPE","AZ","85282"
264482,"64 E BROADWAY RD","TEMPE","AZ","85282"
264483,"64 E BROADWAY STE 261","TEMPE","AZ","85282"
264484,"64 E MANCHESTER DRIVE","CHICAGO HEIGHTS","IL","60411"
264485,"64 E NORTH STREET","CARLISLE","PA","17013"
264486,"64 E PIERSON ST","PHOENIX","AZ","85012"
264487,"64 E STREET","SALT LAKE CITY","UT","84103"
264488,"64 E UWCHLAN AVE 248","EXTON","PA","19341"
264489,"64 EAST 94TH STREET STE 1E","NEW YORK","NY","10128"
264490,"64 EAST MIDLAND AVENUE","PARAMUS","NJ","07652"
264491,"64 EAST SUNBURST LANE","TEMPE","AZ","85284"
264492,"64 EAST UWCHLAN AVE  UNIT 141","EXTON","PA","19341"
264493,"64 ELAN COURT","ALPHARETTA","GA","30022"
264494,"64 ESSEX ST","WEST BABYLON","NY","11704"
264495,"64 ETHERIDGE ST","MOBILE","AL","36604"
264496,"64 EVERETT STREET","VALLEY STREAM","NY","11580"
264497,"64 FLICKER STREET","MEMPHIS","TN","38104"
264498,"64 FOREST STREET","BOSTON","MA","02119"
264499,"64 FORT HILL AVE","SHELTON","CT","06484"
264500,"64 FOX RUN COURT","ROANOKE RAPIDS","NC","27870"
