"ID","Address","City","State","Zip"
263501,"6330 LUTE ROAD","PORTAGE","IN","46368"
263502,"6330 MANOR LANE","MIAMI","FL","33143"
263503,"6330 MARGARET DR","SAINT GABRIEL","LA","70776"
263504,"6330 MILNE BOULEVARD","NEW ORLEANS","LA","70124"
263505,"6330 N ANDREWS AVE SUITE 265","FORT LAUDERDALE","FL","33309"
263506,"6330 N ANDREWS AVE UNIT 122","FT LAUDERDALE","FL","33309"
263507,"6330 N CALIFORNIA AVE","CHICAGO","IL","60659"
263508,"6330 N SELLAND AVE","FRESNO","CA","93711"
263509,"6330 PAINTED CREEK ST","LAS VEGAS","NV","89149"
263510,"6330 RUN CROSS LANE","ENOLA","PA","17025"
263511,"6330 S MARTIN LUTHER KING DRIVE","CHICAGO","IL","60637"
263512,"6330 SPRING MOUNTAIN RD STE A","LAS VEGAS","NV","89146"
263513,"6330 SPRING MOUNTAIN RD STE B","LAS VEGAS","NV","89146"
263514,"6330 TIMBERLAND DRIVE","FRUITPORT","MI","49415"
263515,"6330 WATERWAY DRIVE","FALLS CHURCH","VA","22044"
263516,"6330 YOUNGS BRANCH DRIVE","FAIRFAX STATION","VA","22039"
263517,"6331 CHELSEA GLEN DR","CANAL WINCHESTER","OH","43110"
263518,"6331 DESHONG DRIVE","LITHONIA","GA","30058"
263519,"6331 HIGHWAY BLVD","KATY","TX","77494"
263520,"6331 LYNDON B JOHNSON DRIVE","JACKSON","MS","39213"
263521,"6331 MALAGA WAY","SAN ANTONIO","TX","78257"
263522,"6331 NW 34TH STREET","FORT LAUDERDALE","FL","33309"
263523,"6331 PARK ST","JACKSONVILLE","FL","32205"
263524,"6331 RIDGEWAY COURT","KANSAS CITY","MO","64133"
263525,"6331 RIVER RD","RICHMOND","VA","23229"
263526,"6331 S JACKSON ST","CENTENNIAL","CO","80121"
263527,"6331 S KIMBARK AVE UNIT 2W","CHICAGO","IL","60637"
263528,"6331 SHORE VISTA PL","APOLLO BEACH","FL","33572"
263529,"6331 TWIN PINES RD","HELENA","MT","59601"
263530,"6331 VANE STREET","OMAHA","NE","68152"
263531,"6331 WALINA COURT SE","SALEM","OR","97317"
263532,"63316 HIGHWAY 93","RONAN","MT","59864"
263533,"63319 LAVACREST STREET","BEND","OR","97703"
263534,"6332 BRIAR ROSE DR","HOUSTON","TX","77057"
263535,"6332 BUFFALO SPEEDWAY","HOUSTON","TX","77005"
263536,"6332 CLAYTON AVENUE","SAINT LOUIS","MO","63139"
263537,"6332 CRAB ORCHARD RD","HOUSTON","TX","77057"
263538,"6332 E ASH CT","MONTICELLO","IN","47960"
263539,"6332 E EILERTS ST","WICHITA","KS","67218"
263540,"6332 LYNDALE AVE S","RICHFIELD","MN","55423"
263541,"6332 REDEAGLE CREEK DRIVE","FORT WORTH","TX","76179"
263542,"6332 RIVERWOODS DR","BLACKSHEAR","GA","31516"
263543,"6332 SUNNYWOOD DR","ANTIOCH","TN","37013"
263544,"63329 210TH ST","NEVADA","IA","50201"
263545,"6333 92 AVE N","BROOKLYN PARK","MN","55445"
263546,"6333 BLACK RIVER RD","CROSWELL","MI","48422"
263547,"6333 CORSAIR ST","COMMERCE","CA","90640"
263548,"6333 DUCK CALL CT","TALLAHASSEE","FL","32309"
263549,"6333 E CATALINA DRIVE","SCOTTSDALE","AZ","85251"
263550,"6333 E MOCKINGBIRD 147 513","DALLAS","TX","75214"
263551,"6333 E MOCKINGBIRD LN STE 147-512","DALLAS","TX","75214"
263552,"6333 GENOA RD","FORT WORTH","TX","76116"
263553,"6333 GLASS RIDGE DR","LINCOLN","NE","68526"
263554,"6333 N 20TH AVE","PHOENIX","AZ","85015"
263555,"6333 N KILDARE","CHICAGO","IL","60646"
263556,"6333 PACIFIC AVE 246","STOCKTON","CA","95207"
263557,"6333 PACIFIC AVE BOX 288","STOCKTON","CA","95207"
263558,"6333 PACIFIC AVE NO 385","STOCKTON","CA","95207"
263559,"6333 PACIFIC AVENUE  NO 188","STOCKTON","CA","95207"
263560,"6333 PRESIDENTIAL LANE","LAKELAND","FL","33811"
263561,"6333 REGENT STREET","PHILADELPHIA","PA","19142"
263562,"6333 SW 32ND ST","TOPEKA","KS","66614"
263563,"6333 SWAN RIDGE WAY","WEST JORDAN","UT","84081"
263564,"6333 UNIT 3 HWY 133","CARBONDALE","CO","81623"
263565,"6334 LENDSMITH CIRCLE SUITE D","INDIANAPOLIS","IN","46268"
263566,"6334 MUSGRAVE ST","PHILADELPHIA","PA","19144"
263567,"6334 N MACARTHUR BLVD 3130","IRVING","TX","75039"
263568,"6334 NW 33RD STREET","GAINESVILLE","FL","32653"
263569,"6334 ORCHARD AVE","BELL","CA","90201"
263570,"6334 S OWASSO PLACE","TULSA","OK","74136"
263571,"6334 SHERWOOD ROAD","PHILADELPHIA","PA","19151"
263572,"63342 POWELL BUTTE HWY","BEND","OR","97701"
263573,"6335 ANSWORTH DR","COLUMBUS","OH","43235"
263574,"6335 CATSKILL LN","COLORADO SPRINGS","CO","80918"
263575,"6335 CREST GREEN ROAD","BIRJINGHAM","AL","35212"
263576,"6335 E STATE ROAD 45","BLOOMINGTON","IN","47408"
263577,"6335 GREEN FIELD RD UNIT 1712","EKLRIDGE","MD","21705"
263578,"6335 HWY 31","WASHTA","IA","51061"
263579,"6335 MERS LANE","PENSACOLA","FL","32526"
263580,"6335 SIERRA CIRCLE","BEAUMONT","TX","77708"
263581,"6335 THORNCREST DRIVE EAST","BLOOMFIELD HILLS","MI","48301"
263582,"63355 OLD DESCHUTES ROAD","BEND","OR","97701"
263583,"6336 ANDERSON ST","PHILADELPHIA","PA","19138"
263584,"6336 BLOSSOM LN","CHINO HILLS","CA","91709"
263585,"6336 CASTELVEN DRIVE UNIT 103","ORLANDO","FL","32835"
263586,"6336 FLAT LEMON DRIVE","WINTER GARDEN","FL","34787"
263587,"6336 GERMANTOWN AVENUE","PHILADELPHIA","PA","19119"
263588,"6336 JOHN J PERSHING DRIVE","OMAHA","NE","68110"
263589,"6336 MITCHELL HOLLOW ROAD","MECKLENBURG","NC","28277"
263590,"6336 N BLUE ANGEL PKWY","PENSACOLA","FL","32526"
263591,"6336 N ORACLE RD STE 326-256","TUCSON","AZ","85704"
263592,"6336 OLD MEADOW ROAD","CHARLOTTE","NC","28227"
263593,"6336 RIVERBANK CIRCLE","STOCKTON","CA","95219"
263594,"6336 RUTGERS","HOUSTON","OK","77005"
263595,"6336 S IRONTON CT","ENGLEWOOD","CO","80111"
263596,"6336 TINGDALE AVENUE SOUTH","EDINA","MN","55439"
263597,"6336 WARD RD","NETTIE","WV","26681"
263598,"6336 WELLINGTON DR","UNION CITY","GA","30291"
263599,"6336W 108TH ST","LEAWOOD","KS","66211"
263600,"6337 CEDAR FALLS DR","THE COLONY","TX","75056"
263601,"6337 CREEKBEND DR","HOUSTON","TX","77096"
263602,"6337 FITCHETT ST","REGO PARK","NY","11374"
263603,"6337 S LONG AVE","CHICAGO","IL","60638"
263604,"6337 W AVENUE J2","LANCASTER","CA","93536"
263605,"6337 WEDGEVIEW DR","TUCKER","GA","30084"
263606,"6338 38TH AVE SW","SEATTLE","WA","98126"
263607,"6338 BURBRIDGE STREET","PHILADELPHIA","PA","19144"
263608,"6338 CASH OAKS DRIVE","SPRING","TX","77379"
263609,"6338 E STATE BLVD","FORT WAYNE","IN","46815"
263610,"6338 EAST MINERAL DRIVE","CENTENNIAL","CO","80112"
263611,"6338 RIVERDALE STREET","SAN DIEGO","CA","92120"
263612,"6338 S MAY ST","CHICAGO","IL","60621"
263613,"6338 SAHALEE COURT","CLINTON","WA","98236"
263614,"6338 WEYBRIDGE DRIVE","TROTWOOD","OH","45426"
263615,"6339 CAROLINA BEACH ROAD","WILMINGTON","NC","28412"
263616,"6339 CHARLOTTE PIKE  - 657","NASHVILLE","TN","37209"
263617,"6339 CHARLOTTE PIKE PMB 2112","NASHVILLE","TN","37209"
263618,"6339 DUPREE DRIVE","COLUMBUS","GA","31901"
263619,"6339 EAST SPEEDWAY SUITE 201","TUCSON","AZ","85710"
263620,"6339 GLENWOOD AVENUE","RALEIGH","NC","27612"
263621,"6339 JAHNKE ROAD","RICHMOND","VA","23225"
263622,"6339 LOCO VARE ROAD","GAINESVILLE","GA","30506"
263623,"6339 N 105TH ST","OMAHA","NE","68134"
263624,"6339 PARKLAND OAKS DR","SAN ANTONIO","TX","78240"
263625,"6339 PARKLAND OAKS","SAN ANTONIO","TX","78240"
263626,"6339 ST PAULS RD","KING GEORGE","VA","22485"
263627,"634 15TH ST","OAKLAND","CA","94612"
263628,"634 169TH ST S","SPANAWAY","WA","98387"
263629,"634 22ND STREET SOUTH","ARLINGTON","VA","22202"
263630,"634 3RD STREET","JESUP","IA","50648"
263631,"634 40TH STREET","DES MOINES","IA","50312"
263632,"634 4TH AVE APT 2L","BROOKLYN","NY","11232"
263633,"634 58TH AVENUE","BROOKINGS","SD","57006"
263634,"634 5TH STREET","EARLE","AR","72331"
263635,"634 BAKERS CHAPEL LANE","GUNTERSVILLE","AL","35976"
263636,"634 BLUEGRASS ST","SIMI VALLEY","CA","93065"
263637,"634 BROUGHTON RD","MONCKS CORNER","SC","29461"
263638,"634 CLASSON AVE","BROOKLYN","NY","11238"
263639,"634 CONNELLS PARK LANE","BATON ROUGE","LA","70806"
263640,"634 COURTLAND DRIVE","HOWARD","OH","43028"
263641,"634 DYER CIRCLE","HUNTSVILLE","AL","35808"
263642,"634 E PALO VERDE AVENUE","PALM SPRINGS","CA","92264"
263643,"634 EAST BONNIE BRAE COURT","ONTARIO","CA","91764"
263644,"634 FLAMINGO DRIVE","FORT LAUDERDALE","FL","33301"
263645,"634 FRONT AVE NW","GRAND RAPIDS","MI","49504"
263646,"634 FULLER AVE","SAINT PAUL","MN","55104"
263647,"634 GARCIA ST APT 25","SANTA FE","NM","87505"
263648,"634 GENE AUTRY LN","MURPHY","TX","75094"
263649,"634 GOLD VALLEY PASS","CANTON","GA","30114"
263650,"634 GRAND AVE","ASTORIA","OR","97103"
263651,"634 HARROW COURT","GAHANNA","OH","43230"
263652,"634 HURRICANE RD","KEENE","NY","12942"
263653,"634 JAMES AVE","NASHVILLE","TN","37209"
263654,"634 JOOST AVENUE","SAN FRANCISCO","CA","94127"
263655,"634 KIMBARK ST UNIT 1","LONGMONT","CO","80501"
263656,"634 LEGACY OAKS CIRCLE","ROSWELL","GA","30076"
263657,"634 LOWER 8TH AVENUE","JACKSONVILLE BEACH","FL","32250"
263658,"634 LYNHURST DRIVE SW","ATLANTA","GA","30311"
263659,"634 MARTIN WAY","VANCOUVER","OR","98661"
263660,"634 MONTE VISTA","IRVINE","CA","92602"
263661,"634 N HAYES","MOSCOW","ID","83843"
263662,"634 N JENNIFER LANE","EAST WENATCHEE","WA","98802"
263663,"634 NORTH HIGHLAND BLVD","BRIGHAM CITY","UT","84302"
263664,"634 NORTH MULBERRY STREET","ELIZABETHTOWN","KY","42701"
263665,"634 NW 1 ST","HOMESTEAD","FL","33034"
263666,"634 OAK COVE LN","KNOXVILLE","TN","37922"
263667,"634 OLD CEDAR CREEK RD","TOWNSEND","TN","37882"
263668,"634 PENNSYLVANIA AVE","YORK","PA","17404"
263669,"634 ROUTE 82","HOPEWELL JUNCTION","NY","12533"
263670,"634 SCHEMMER DR","PRESCOTT","AZ","86305"
263671,"634 SECOND STREET","CHERAW","SC","29520"
263672,"634 SOUTH 200 WEST","OREM","UT","84058"
263673,"634 SOUTH 35TH STREET","LOUISVILLE","KY","40211"
263674,"634 SOUTH 7TH AVENUE","MOUNT VERNON","NY","10550"
263675,"634 SW 137TH WAY","NEWBERRY","FL","32669"
263676,"634 SYCAMORE DR","DESOTO","TX","75115"
263677,"634 TOWNSHIP ROAD 2850","LOUDONVILLE","OH","44842"
263678,"634 W 34 ST","HIALEAH","FL","33012"
263679,"634 W EXCHANGE ST","AKRON","OH","44302"
263680,"634 WATSON AVENUE","ST. PAUL","MN","55102"
263681,"634 WEST CAVALCADE STREET STE 30474","HOUSTON","TX","77009"
263682,"634 WEST CAVALCADE STREET","HOUSTON","TX","77009"
263683,"634 WEST COLLINS STREET","DENTON","TX","76201"
263684,"634 WESTWINDS DRIVE","DAYTON","NV","89403"
263685,"634 WOODWARD AVE","EL CENTRO","CA","92243"
263686,"634 WYANT RD","NEW BETHLEHEM","PA","16242"
263687,"6340 CLAYTON ROAD APARTMENT 206","SAINT LOUIS","MO","63117"
263688,"6340 COBALT DRIVE","WEST RICHLAND","WA","99353"
263689,"6340 DRY FORK LN","RALEIGH","NC","27614"
263690,"6340 E MAIN ST SUITE A","PORTAGE","IN","46368"
263691,"6340 N ELDRIDGE PKWY SUITE N-201","HOUSTON","TX","77041"
263692,"6340 NW 31ST TERRACE","FORT LAUDERDALE","FL","33309"
263693,"6340 REDWOOD OAKS DRIVE","ORLANDO","FL","32818"
263694,"6340 SECURITY BLVD  STE 100","BALTIMORE","MD","21207"
263695,"6340 SECURITY BLVD SUITE 100","BALTIMORE","MD","21207"
263696,"6340 SECURITY BLVD","BALTIMORE","MD","21207"
263697,"6340 SPURWOOD DRIVE","COLORADO SPRINGS","CO","80918"
263698,"6340 SUGARLOAF PARKWAY SUITE 200","DULUTH","GA","30097"
263699,"6340 SW 149 COURT","MIAMI","FL","33193"
263700,"6340 WINDSOR LAKE CIR","SANFORD","FL","32773"
263701,"6341 A IRIS DRIVE","FLOWERY BRANCH","GA","30542"
263702,"6341 ARROWOOD COURT","STOCKTON","CA","95219"
263703,"6341 HAYFIELD LANE","MEMPHIS","TN","38141"
263704,"6341 N  OAKLEY AVE  APT 1N","CHICAGO","IL","60659"
263705,"6341 N MONTICELLO AVE","CHICAGO","IL","60659"
263706,"6341 NW TROWBRIDGE DR","PORTLAND","OR","97229"
263707,"6341 S LOREL AVE","CHICAGO","IL","60638"
263708,"6341 SOUTH ZENOBIA COURT","LITTLETON","CO","80123"
263709,"6341 SW 4TH PLACE","MARGATE","FL","33068"
263710,"6341 TAMI WAY","CARMICHAEL","CA","95608"
263711,"6341 W 10890 N","HIGHLAND","UT","84003"
263712,"6341 W MARCONI","GLENDALE","AZ","85306"
263713,"6341 WESTPORT AVE","SHREVEPORT","LA","71129"
263714,"6342 71ST","NORTH PINELLAS PARK","FL","33781"
263715,"6342 BIRKEWOOD ST","COLUMBUS","OH","43229"
263716,"6342 CHESLEY LANE","DALLAS","TX","75214"
263717,"6342 NOON RD","EVERSON","WA","98247"
263718,"6342 RIVERLAKE CT","BARTOW","FL","33830"
263719,"6342 TUXEDO","DETROIT","MI","48204"
263720,"6343 ASHFORD DR","LOVELAND","OH","45140"
263721,"6343 E GIRARD PL UNIT 223","DENVER","CO","80222"
263722,"6343 NEW BRUNSWICK AVENUE","LAS VEGAS","NV","89110"
263723,"6343 SHASTA WAY","KLAMATH FALLS","OR","97603"
263724,"6343 SKYLINE DRIVE - SUITE 3","HOUSTON","TX","77057"
263725,"6343 W OLD LINCOLN WAY","WOOSTER","OH","44691"
263726,"6344 BERYL ROAD","ALEXANDRIA","VA","22312"
263727,"6344 E HENDRICKS CO RD","MOORESVILLE","IN","46158"
263728,"6344 FERRIS SQUARE","SAN DIEGO","CA","92121"
263729,"6344 MACLAURIN DRIVE","TAMPA","FL","33647"
263730,"6344 MESSINA CT","PALMDALE","CA","93552"
263731,"6344 PENNSBORO DRIVE","MECHANCISBURG","PA","17050"
263732,"6344 S CHAMPLAIN AVE","CHICAGO","IL","60637"
263733,"6344 S CHAMPLAIN AVENUE","CHICAGO","IL","60637"
263734,"6344 SPRINGWATER TERRACE 1113","FREDERICK","MD","21701"
263735,"6344 SUDBURY LN","MESQUITE","TX","75181"
263736,"6344 SUMNER LOOP","DUBLIN","OH","43016"
263737,"6344 W BASELINE RD","LAVEEN","AZ","85339"
263738,"6344 W ROWLAND AVE","LITTLETON","CO","80128"
263739,"6345 11TH AVE S","RICHFIELD","MN","55423"
263740,"6345 BALBOA BLVD  SUITE 160","ENCINO","CA","91316"
263741,"6345 BANNERHORN RUN","ALPHARETTA","GA","30005"
263742,"6345 BLACK LAKE BELMORE ROAD SW","OLYMPIA","WA","98512"
263743,"6345 BRIDGE BROOK OVERLOOK","CUMMING","GA","30028"
263744,"6345 BRIGHT PLUME","COLUMBIA","MD","21044"
263745,"6345 FRENCH CREEK COURT","ELLENTON","FL","34222"
263746,"6345 GARTH RD STE 110-119","BAYTOWN","TX","77521"
263747,"6345 GARTH RD STE 110-286","BAYTOWN","TX","77521"
263748,"6345 GARTH RD STE 110","BAYTOWN","TX","77521"
263749,"6345 GREENE STREET","PHILADELPHIA","PA","19144"
263750,"6345 JOLIET RD","COUNTRYSIDE","IL","60525"
263751,"6345 LAKE OAK LANDING","CUMMING","GA","30040"
263752,"6345 MALLARD VIEW LANE","CHARLOTTE","NC","28269"
263753,"6345 OLD SHELL RD","MOBILE","AL","36608"
263754,"6345 PRIMROSE LANE","COOPERSBURG","PA","18036"
263755,"6345 SCHAEFER RD","DEARBORN","MI","48126"
263756,"6345 SIERRA CIRCLE","BEAUMONT","TX","77708"
263757,"6345 SULTANA AVE","SAN GABRIEL","CA","91775"
263758,"6345 WYDOWN BOULEVARD","CLAYTON","MO","63105"
263759,"6346 FM 1283","PIPE CREEK","TX","78063"
263760,"6346 LANTANA RD UNIT 65-132","LAKE WORTH","FL","33463"
263761,"6346 MERIWETHER LN","SPRINGFIELD","VA","22150"
263762,"6346 N TALMAN AVE SUITE 102","CHICAGO","IL","60659"
263763,"6346 SW JARVIS DR","MOUNTAIN HOME","ID","83647"
263764,"6346-B LOVE STREET","AUSTELL","GA","30168"
263765,"63464 260TH STREET","LITCHFIELD","MN","55355"
263766,"63469 MIDDLE FORK LANE","LONG CREEK","OR","97856"
263767,"6347 ATLANTIC AVENUE","BELL","CA","90201"
263768,"6347 CONNECTICUT AVENUE","WASHINGTON","DC","20015"
263769,"6347 EAST LOVELAND ROAD","MADISON","OH","44057"
263770,"6347 GREEN LEAVES ROAD","INDIANAPOLIS","IN","46220"
263771,"6347 KIRBY DOWNS DRIVE","MEMPHIS","TN","38115"
263772,"6347 LAKE TRAIL DR","WESTERVILLE","OH","43082"
263773,"6347 NORTHFIELD RD","WEST BLOOMFIELD","MI","48322"
263774,"63470 705 ROAD","HUMBOLDT","NE","68376"
263775,"6348 DARING PRINCE WAY","COLUMBIA","MD","21044"
263776,"6348 N POPLAR AVE","FRESNO","CA","93704"
263777,"6348 PARKS RD","SYCAMORE","OH","44882"
263778,"6348 PARKS ROAD","SYCAMORE","OH","44882"
263779,"6348 STATE RD 23","SPRING GREEN","WI","53588"
263780,"6348 W ROWEL RD","PHOENIX","AZ","85083"
263781,"6348 WINDSOR GATE LANE","CHARLOTTE","NC","28215"
263782,"6349 AMASIS COURT","CHESTERFIELD","VA","23234"
263783,"6349 KNOB BEND DRIVE","GRAND BLANC","MI","48439"
263784,"6349 LOUISIANNA ROAD","LOCUST GROVE","VA","22508"
263785,"6349 PLYMOUTH AVE","ST LOUIS","MO","63133"
263786,"6349 QUAIL RIDGE WEST","PLAINFIELD","IN","46168"
263787,"635 13TH ST APT 7","MIAMI BEACH","FL","33139"
263788,"635 8TH ST","BOULDER CITY","NV","89005"
263789,"635 ALEXANDER STREET","GRAND PRAIRIE","TX","75051"
263790,"635 BARNHILL DRIVE SUITE 366","INDIANAPOLIS","IN","46202"
263791,"635 BARNHILL DRIVE","INDIANAPOLIS","IN","46202"
263792,"635 BARRET AVE","LOUISVILLE","KY","40204"
263793,"635 BROAD STREET","CLIFTON","NJ","07013"
263794,"635 BUCK RD","CLAYTON","GA","30525"
263795,"635 BYRANT STREET STE - 3","MENLO PARK","CA","94301"
263796,"635 CASTLE HILL AVENUE APT 12B","BRONX","NY","10473"
263797,"635 CEDAR AVENUE","LONG BEACH","CA","90802"
263798,"635 CEDAR CREEK DRIVE","PARIS","TX","75462"
263799,"635 CEDAR RUN RD","NEWARK","OH","43055"
263800,"635 CEDAR RUN ROAD","NEWARK","OH","43055"
263801,"635 CHAPEL HILL ROAD SUITE B","BURLINGTON","NC","27215"
263802,"635 CORONADO PLACE","LONGMONT","CO","80504"
263803,"635 COUNTY ROAD 801 RT 3","ASHLAND","OH","44866"
263804,"635 COURT STREET SUITE 202","CLEARWATER","FL","33756"
263805,"635 CR 466A","FRUITLAND PARK","FL","34731"
263806,"635 CROSSCREEK TRAIL","PELHAM","AL","35124"
263807,"635 CROSSRIDGE TERRACE","ORINDA","CA","94563"
263808,"635 CRYSTAL DRIVE","SPARTANBURG","SC","29302"
263809,"635 DURRETT DRIVE","NASHVILLE","TN","37211"
263810,"635 E 8TH STREET","JEFFERSONVILLE","IN","47130"
263811,"635 E KING AVENUE  SUITE 104","KINGVILLE","TX","78363"
263812,"635 E MAGNOLIA BLVD D","BURBANK","CA","91501"
263813,"635 E MORRILL AVE APT G","COLUMBUS","OH","43207"
263814,"635 EAST 125","CLEVELAND","OH","44108"
263815,"635 EAST 21 STREET APT 27","BROOKLYN","NY","11226"
263816,"635 EAST KING","KINGSVILLE","TX","78363"
263817,"635 EAST PLEASANT RUN RD","CEDAR HILL","TX","75104"
263818,"635 EDGEWOOD STREET NE","WASHINGTON","DC","20017"
263819,"635 FAIRMONT DRIVE","BASSETT","VA","24055"
263820,"635 FERNCREST DR APT 606","SANDERSVILLE","GA","31082"
263821,"635 FM 474","BOERNE","TX","78006"
263822,"635 FREDERICK ROAD","ROCKINGHAM","VA","22801"
263823,"635 GINGERMILL LANE","LEXINGTON","KY","40509"
263824,"635 HAYWOOD ROAD","GREENVILE","SC","29607"
263825,"635 HIGHLAND DRIVE","WALNUTPORT","PA","18088"
263826,"635 HOLCOMB BRIDGE ROAD","NORCROSS","GA","30071"
263827,"635 KING PHILIP STREET UNIT 93","RAYNHAM","MA","02767"
263828,"635 LINWOOD AVE","BUFFALO","NY","14209"
263829,"635 LORETTA ST","TONAWANDA","NY","14150"
263830,"635 LOUIS COLEMAN JR DR","LOUISVILLE","KY","40211"
263831,"635 MAIN ST","PALMETTO","GA","30268"
263832,"635 MAKETEWAH DR","DELAWARE","OH","43015"
263833,"635 MARDEL CT UNIT 105","NAPLES","FL","34104"
263834,"635 MASSACHUSETTS AVE","LUNENBURG","MA","01462"
263835,"635 MCKINLEY ST","PLYMOUTH","MI","48170"
263836,"635 MILLICH DRIVE","CAMPBELL","CA","95008"
263837,"635 MOUNT ROSE ST","RENO","NV","89509"
263838,"635 N 12TH STREET 4TH FLOOR","LEMOYNE","PA","17043"
263839,"635 N 33RD ST","PHILADELPHIA","PA","19104"
263840,"635 N 63RD STREET","PHILADELPHIA","PA","19151"
263841,"635 N SILTSTONE AVE","KUNA","ID","83634"
263842,"635 NE 241ST PL","WOOD VILLAGE","OR","97060"
263843,"635 NIAGARA PKWY","NORTH TONAWANDA","NY","14120"
263844,"635 NORTHERN HEIGHTS DR NE","ROCHESTER","MN","55906"
263845,"635 OCEAN ROAD","NARRAGANSETT","RI","02882"
263846,"635 OLD BARN ROAD","LAKE BARRINGTON","IL","60010"
263847,"635 OLEANDER DR","OXNARD","CA","93033"
263848,"635 OVERTON ST","NEWPORT","KY","41071"
263849,"635 OWL DRIVE","LOUISVILLE","CO","80027"
263850,"635 PARK AVENUE","NEW YORK","NY","10065"
263851,"635 PARK MEADOW ROAD","WESTERVILLE","OH","43082"
263852,"635 QUEENSBRIDGE DR","LAKE MARY","FL","32746"
263853,"635 RIVERSIDE DR","BASTROP","TX","78602"
263854,"635 RUXBURY COURT","SUWANEE","GA","30024"
263855,"635 S 6TH ST E","MISSOULA","MT","59801"
263856,"635 S MAPLE ROAD SUITE 2","ANN ARBOR","MI","48103"
263857,"635 S PARK STREET","CASPER","WY","82601"
263858,"635 S WW WHITE RD","SAN ANTONIO","TX","78220"
263859,"635 SOUTH 4TH AVE","PADEN CITY","WV","26159"
263860,"635 SOUTH 4TH ST","CHAMBERSBURG","PA","17201"
263861,"635 SOUTH 7TH","POCATELLO","ID","83201"
263862,"635 SOUTH CANFIELD","MESA","AZ","85208"
263863,"635 SOUTH HOBART BOULEVARD UNIT 415","LOS ANGELES","CA","90005"
263864,"635 SOUTH KINGSLEY DRIVE","LOS ANGELES","CA","90005"
263865,"635 SPRING OAKS BLVD","ALTAMONTE SPRINGS","FL","32714"
263866,"635 STATE ROUTE 14","DALMATIA","PA","17017"
263867,"635 SUMMIT AVE","PHILADELPHIA","PA","19128"
263868,"635 SW CLAY ST","TOPEKA","KS","66606"
263869,"635 TAYLOR STREET","CLAY","KY","42404"
263870,"635 TREMONT STREET","BOSTON","MA","02118"
263871,"635 W 42ND ST 22A","NEW YORK","NY","10036"
263872,"635 W 42ND ST APT 7H","NEW YORK","NY","10036"
263873,"635 W 42ND STREET 23C","NEW YORK","NY","10036"
263874,"635 W 5300 S   STE 303","MURRAY","UT","84123"
263875,"635 WAY AVENUE PO BOX 162","WODEN","IA","50484"
263876,"635 WEST CAMPBELL ROAD SUITE 224","RICHARDSON","TX","75080"
263877,"635 WEST MADISON","HASTINGS","MI","49058"
263878,"635 WEST TURNER STREET","ALLENTOWN","PA","18102"
263879,"635 WESTVIEW STREET","PHILADELPHIA","PA","19119"
263880,"635 WHITLOCK AVENUE","MARIETTA","GA","30064"
263881,"635 WILLIAMS ST","DENVER","CO","80218"
263882,"635 WOODMAN STREET","FALL RIVER","MA","02724"
263883,"635 YALE LN","MATTESON","IL","60443"
263884,"635","CORTEZ","FL","34215"
263885,"6350 76TH AVE S","HORACE","ND","58047"
263886,"6350 BIRCHWOOD ST","SAN DIEGO","CA","92120"
263887,"6350 BIRMINGHAM STREET","CHICAGO RIDGE","IL","60415"
263888,"6350 CENTER DRIVE SUITE 228","NORFOLK","VA","23502"
263889,"6350 CLARENDON HILLS ROAD","WILLOWBROOK","IL","60527"
263890,"6350 DEBIDARE CT","HILLIARD","OH","43026"
263891,"6350 LAKE OCONEE PKWY 110-210","GREENSBORO","GA","30642"
263892,"6350 LANSDALE ROAD","FORT WORTH","TX","76116"
263893,"6350 LAUREL CANYON BLVD STE 210B","NORTH HOLLYWOOD","CA","91606"
263894,"6350 LIEBIG SCHOOL ROAD","MASCOUTAH","IL","62258"
263895,"6350 NW 188 TERRACE","HIALEAH","FL","33015"
263896,"6350 NW 18TH STREET","MARGATE","FL","33063"
263897,"6350 OAKLEY RD APT 1801","UNION CITY","GA","30291"
263898,"6350 OAKLEY ROAD APT 2008","UNION CITY","GA","30291"
263899,"6350 PALMETTO PLACE","CENTREVILLE","VA","20121"
263900,"6350 PORTAL WAY","FERNDALE","WA","98248"
263901,"6350 ROGERS ROAD","ROLESVILLE","NC","27571"
263902,"6350 S OURAY ST","AURORA","CO","80016"
263903,"6350 S RICHMOND STREET","CHICAGO","IL","60629"
263904,"6350 T","CUMMING","GA","30040"
263905,"6350 WELL FLEET DR","COLUMBUS","OH","43231"
263906,"6350 WEST ROSE CREEK","WINNEMUCCA","NV","89445"
263907,"6350 WESTHAVEN DRIVE SUITE D","INDIANAPOLIS","IN","46254"
263908,"6351 ACACIA HILL DRIVE","YORBA LINDA","CA","92886"
263909,"6351 BYRON LANE","SAN RAMON","CA","94582"
263910,"6351 MICHAEL STREET","JUPITER","FL","33458"
263911,"6351 N CLAREMONT AVENUE","CHICAGO","IL","60659"
263912,"6351 ST ANDREWS DRIVE","STOCKTON","CA","95219"
263913,"6351 W MONTROSE AVE NUM 264","CHICAGO","IL","60634"
263914,"6351 WAGGONER DRIVE","DALLAS","TX","75230"
263915,"63511 STATE HIGHWAY K","RUTLEDGE","MO","63563"
263916,"6352 S SRYSTAL RIVER DRIVE","MURRAY","UT","84123"
263917,"6352 STORY CIR","NORCROSS","GA","30093"
263918,"6352 VALHALLA DRIVE","ROCKFORD","IL","61111"
263919,"6353 ANFOREST LN","MT PLEASANT","WI","53406"
263920,"6353 DAVIS ST","MOUNTAIN GREEN","UT","84050"
263921,"6353 EL CAJON BLVD STE 124","SAN DIEGO","CA","92115"
263922,"6353 GERMANTOWN AVE 3RD FLOOR REAR","PHILADELPHIA","PA","19144"
263923,"6353 N GAY AVE","PORTLAND","OR","97217"
263924,"6353 WILLIAMS GROVE DRIVE","BRENTWOOD","TN","37027"
263925,"6354 STEVENSON STREET","SHAWNEE","KS","66218"
263926,"6354 TAMI WAY","CARMICHAEL","CA","95608"
263927,"6355 BELGIUM DR","LAS VEGAS","NV","89122"
263928,"6355 CORBLY RD APT 35","CINCINNATI","OH","45230"
263929,"6355 COTTLE ROAD","SAN JOSE","CA","95123"
263930,"6355 CRESTWOOD AVE","KALAMAZOO","MI","49048"
263931,"6355 DE SOTO AVE APT A317","WOODLAND HILLS","CA","91367"
263932,"6355 DE SOTO AVE B315","WOODLAND HILLS","CA","91367"
263933,"6355 FRANKLIN WOODS DR","TRAVERSE CITY","MI","49686"
263934,"6355 N CHARLOTTE AVE","SAN GABRIEL","CA","91775"
263935,"6355 N RED TAIL ROAD","JACKSON","WY","83001"
263936,"6355 PARAKEET TRAIL","PENSACOLA","FL","32503"
263937,"6355 S MOUNT VERNON DR","SALT LAKE CITY","UT","84107"
263938,"6355 STATE HWY 104","IONE","CA","95640"
263939,"6355 TOPANGA CANYON - SUITE 428","WOODLAND HILLS","CA","91367"
263940,"6355 W ORCHID LN","GLENDALE","AZ","85302"
263941,"6356 MANOR LANE","SOUTH MIAMI","FL","33143"
263942,"6356 PHELAN BLVD","BEAUMONT","TX","77706"
263943,"6356 REDEAGLE CREEK DR","FORT WORTH","TX","76179"
263944,"6356 VAN NUYS BLVD SUITE 220","VAN NUYS","CA","91401"
263945,"63567 NW BROWNRIGG LANE","BEND","OR","97703"
263946,"6357 CALLE DEL RIO","EL PASO","TX","79912"
263947,"6357 ECLIPSE CIRCLE","JACKSONVILLE","FL","32258"
263948,"6357 GENESEE ST","LANCASTER","NY","14086"
263949,"6357 HOLLINGSWORTH DR","INDIANAPOLIS","IN","46268"
263950,"6358 IVEY ROAD","MABLETON","GA","30126"
263951,"6358 LAKE PADDOCK DRIVE","FLORISSANT","MO","63033"
263952,"6358 MAIN STREET","CASS CITY","MI","48726"
263953,"6358 N GLENN AVE","FRESNO","CA","93704"
263954,"6358 THISTLEBROOK","MEMPHIS","TN","38115"
263955,"6358 W DARNEL AVENUE","BROWN DEER","WI","53223"
263956,"63586 GALVESTON ROAD","ATLANTIC","IA","50022"
263957,"6359 FRANKLIN VIEW DR","EL PASO","TX","79912"
263958,"6359 GRAHAM RD","FENNIMORE","WI","53809"
263959,"6359 LAKE MATHIAS DR","NEW ALBANY","OH","43054"
263960,"6359 S JOHN BUTLER ROAD","COLUMBUS","IN","47201"
263961,"635WALLINGFORD ROAD UNIT 401","BEL AIR","MD","21014"
263962,"636 7TH STREET","PITCAIRN","PA","15140"
263963,"636 9TH STREET","HERMOSA BEACH","CA","90254"
263964,"636 ANNIE WAY","SANTA MARIA","CA","93455"
263965,"636 BELLS MILLS ROAD","WEST NEWTON","PA","15089"
263966,"636 BROADWAY STE 322","SAN DIEGO","CA","92101"
263967,"636 BROADWAY SUITE 512","NEW YORK","NY","10012"
263968,"636 BUCKEY HALL ROAD","DUTTON","VA","23050"
263969,"636 CHURCH ST STE 701","EVANSTON","IL","60201"
263970,"636 CINDY PL","LAS CRUCES","NM","88001"
263971,"636 COOPER ST SW","ATLANTA","GA","30312"
263972,"636 DULANEY BEND","COLUMBIA","SC","29229"
263973,"636 E 10TH STREET","POMONA","CA","91766"
263974,"636 E RALSTON","ONTARIO","CA","91761"
263975,"636 E SCOTT STREET","PORT HUENEME","CA","93041"
263976,"636 E TUNNELL ST","SANTA MARIA","CA","93454"
263977,"636 EAST BUENA VISTA AVENUE","NORTH AUGUSTA","SC","29829"
263978,"636 EMPORIA LOOP","MCDONOUGH","GA","30253"
263979,"636 EXCHANGE PLACE NW STE A205","LILBURN","GA","30047"
263980,"636 FALCONER ROAD","JOPPATOWNE","MD","21085"
263981,"636 FLATBUSH AVENUE","WEST HARTFORD","CT","06110"
263982,"636 FOREST LN","HURST","TX","76053"
263983,"636 GARLAND","WINNETKA","IL","60093"
263984,"636 GRANDVIEW AVENUE","STEUBENVILLE","OH","43952"
263985,"636 GUTMAN AVE","BALTIMORE","MD","21218"
263986,"636 HAMPSHIRE ST STE 101","QUINCY","IL","62301"
263987,"636 HARDIN DR 4","INGLEWOOD","CA","90302"
263988,"636 HINMAN ROAD","GLOVER","VT","05839"
263989,"636 HOPE WAY","BETHEL","OH","45106"
263990,"636 JACKSON ST","SAN FRANCISCO","CA","94133"
263991,"636 JOHNSTON WILLIS DRIVE","NORTH CHESTERFIELD","VA","23236"
263992,"636 LLEWELLYN PLACE","CHARLOTTE","NC","28207"
263993,"636 MCBRIDE POINTE DR","WILDWOOD","MO","63011"
263994,"636 MINNESOTA AVE","KANSAS CITY","KS","66101"
263995,"636 MONROE STREET NE","MINNEAPOLIS","MN","55413"
263996,"636 N 1ST ST","MONTROSE","CO","81401"
263997,"636 N DENVER AVE","TULSA","OK","74106"
263998,"636 N FORMOSA AVE","LOS ANGELES","CA","90036"
263999,"636 N SUMNER AVE","SCRANTON","PA","18504"
264000,"636 NORTH AVE APT 11C","JONESBORO","GA","30236"
