"ID","Address","City","State","Zip"
205501,"415 N LEA AVENUE","ROSWELL","NM","88201"
205502,"415 N MAGNOLIA","OCALA","FL","34475"
205503,"415 N MAIN ST","MONROE CITY","MO","63456"
205504,"415 N MARKET ST","MARYVILLE","MO","64468"
205505,"415 N MARKET ST","MOUNT CARMEL","IL","62863"
205506,"415 N MCKINLEY STREET SUITE 1040","LITTLE ROCK","AR","72205"
205507,"415 N MCKINLEY SUITE 444","LITTLE ROCK","AR","72205"
205508,"415 N SCHOOL LN","SMYRNA","DE","19977"
205509,"415 N TEJON ST","COLORADO SPRINGS","CO","80903"
205510,"415 N WEST STREET SUITE 6","ALEXANDRIA","VA","22314"
205511,"415 NORTH LAKE STREET APT 204","GARY","IN","46403"
205512,"415 NORTH MAPLE STREET","MURFREESBORO","TN","37130"
205513,"415 NORTH WESTWOOD","MESA","AZ","85201"
205514,"415 NORTH ZARFOSS DRIVE","YORK","PA","17404"
205515,"415 NORTHVIEW DR","VERONA","PA","15147"
205516,"415 NORWOOD COURT","OVIEDO","FL","32765"
205517,"415 OLD COUNTY HOME RD","ASHEVILLE","NC","28806"
205518,"415 OLD TOWN RD","PT JEFFERSON STATION","NY","11776"
205519,"415 PARKDALE DRIVE APT 18A","CHARLESTON","SC","29414"
205520,"415 PATTERSON ST","LAFAYETTE","LA","70501"
205521,"415 PEARL ST","KING CITY","CA","93930"
205522,"415 PISGAH CHURCH ROAD 193","GREENSBORO","NC","27455"
205523,"415 PISGAH CHURCH ROAD BOX 124","GREENSBORO","NC","27404"
205524,"415 PISGAH CHURCH ROAD UNIT 326","GREENSBORO","NC","27455"
205525,"415 PLUME LANE","BLYTHEWOOD","SC","29016"
205526,"415 PRAIRIE HILL DR","ATKINS","IA","52206"
205527,"415 RAINTREE CT","WINTER PARK","FL","32789"
205528,"415 RANELAGH DRIVE","WAXHAW","NC","28173"
205529,"415 READING AVE","PENNINGTON","NJ","08534"
205530,"415 RED COAT COURTW","W","WI","53185"
205531,"415 REIVER STREET","ADEL","IA","50003"
205532,"415 RICHMOND AVE","PEORIA","IL","61604"
205533,"415 RIVER ST","TROY","NY","12180"
205534,"415 ROADS END STREET","GLENDALE","CA","91205"
205535,"415 ROBERT DR","NORMAL","IL","61761"
205536,"415 S 415","OSTEEN","FL","32764"
205537,"415 S AIRPORT BLVD","AURORA","CO","80017"
205538,"415 S BERENDO ST APT 309","LOS ANGELES","CA","90020"
205539,"415 S DECATUR STREET","MONTGOMERY","AL","36104"
205540,"415 S DECATUR STREET","MONTGOMERY","AL","36107"
205541,"415 S HIGH ST","DENVER","CO","80209"
205542,"415 S LAYMAN","LAPLATA","MO","63549"
205543,"415 S MAIN STREET","CRYSTAL","MI","48818"
205544,"415 S MITCHELLE","SAN MARCOS","TX","78666"
205545,"415 S OAK ST","OFALLON","IL","62269"
205546,"415 S OXFORD AVE STE 301","LOS ANGELES","CA","90020"
205547,"415 S PIERRE ST","PIERRE","SD","57501"
205548,"415 S PINE STREET","WALHALLA","SC","29691"
205549,"415 S PINELLAS AVE","TARPON SPRINGS","FL","34689"
205550,"415 S ROSS ST","SANTA ANA","CA","92701"
205551,"415 S SUMMIT AVE","CHARLOTTE","NC","28208"
205552,"415 SAGINAW","CALUMET CITY","IL","60409"
205553,"415 SAINT ANNES PLACE","COVINGTION","GA","30016"
205554,"415 SANDERS STREET","FRANKLIN","LA","70538"
205555,"415 SARATOGA DR","DE SOTO","MO","63020"
205556,"415 SEPTEMBER LANE","WILLOW SPRING","NC","27592"
205557,"415 SEPTEMBER LANE","WILLOW SPRINGS","NC","27592"
205558,"415 SHERMAN ROAD","GRAND LEDGE","MI","48917"
205559,"415 SILVERSPRING AVE 308","SILVERSPRING","MD","20910"
205560,"415 SOUTH AIKEN AVE APT 5","PITTSBURGH","PA","15232"
205561,"415 SOUTH CENTRAL STREET","GILMAN","IL","60938"
205562,"415 SOUTH OAK STREET","OFALLON","IL","62269"
205563,"415 SOUTH STATE STREET","HART","MI","49420"
205564,"415 SOUTH STREET MB 0717","WALTHAM","MA","02453"
205565,"415 SOUTH STREET PO BOX 1404","WALTHAM","MA","01453"
205566,"415 SOUTH TAYLOR ST","EL DORADO","KS","67042"
205567,"415 SPEEDWELL AVE","MORRIS PLAINS","NJ","07950"
205568,"415 SPRING GULLY DR","DICKINSON","TX","77539"
205569,"415 ST ANN STREET","OWENSBORO","KY","42303"
205570,"415 STEAKLEY ROAD","NEW MARKET","AL","35761"
205571,"415 STOCKHOLM ST","BROOKLYN","NY","11237"
205572,"415 STRATFORD ROAD APT 2B","BROOKLYN","NY","11218"
205573,"415 SUMMER TRACE LANE","RICHMOND","TX","77406"
205574,"415 SUMMERLAND CT","EVANSVILLE","IN","47712"
205575,"415 SUTTON AVENUE","NORTH CANTON","OH","44720"
205576,"415 SW 10TH AVENUE","AMARILLO","TX","79101"
205577,"415 TELFAIR WAY","CANTON","GA","30115"
205578,"415 THIRD STREET","PLATTE CITY","MO","64079"
205579,"415 TODD ST","PARK FOREST","IL","60466"
205580,"415 UNION STREET","CYGNET","OH","43413"
205581,"415 VIA EMILY AVE","OCEANSIDE","CA","92057"
205582,"415 VINNEDGE RIDE","TALLAHASSEE","FL","32303"
205583,"415 VOLKERT 7","CINCINNATI","OH","45219"
205584,"415 W 17TH ST APT 1","VANCOUVER","WA","98660"
205585,"415 W 22ND ST APT 4B","NEW YORK","NY","10011"
205586,"415 W 6TH ST","ANTIOCH","CA","94509"
205587,"415 W ALDINE AVE SUITE 10C","CHICAGO","IL","60657"
205588,"415 W DOUGLAS AVE","EL CAJON","CA","92020"
205589,"415 W ENGLEWOOD AVE","CHICAGO","IL","60621"
205590,"415 W GOLF RD STE 37","ARLINGTON HEIGHTS","IL","60005"
205591,"415 W MILLER ST","RAWLINS","WY","82301"
205592,"415 W WALTER STREET","LAURINBURG","NC","28472"
205593,"415 W WILLOW GROVE AVE","PHILADELPHIA","PA","19118"
205594,"415 WALNUT GROVE ROAD","PEACHTREE","GA","30269"
205595,"415 WALNUT STREET","JENKINTOWN","PA","19046"
205596,"415 WARREN STREET","HUDSON","NY","12534"
205597,"415 WASHINGTON ST SUITE 110","WAUKEGAN","IL","60085"
205598,"415 WELLINGTON POINT","HOUSTON","TX","77094"
205599,"415 WELLS DRIVE","ORANGEBURG","SC","29115"
205600,"415 WEST 44TH STREET - APARTMENT 16","NEW YORK","NY","10036"
205601,"415 WEST 70TH STREET","JACKSONVILLE","FL","32208"
205602,"415 WEST BROAD ST","QUAKERTOWN","PA","18951"
205603,"415 WEST GRAND AVE","CARTERVILLE","IL","62918"
205604,"415 WEST MAGNOLIA AVENUE","AUBURN","AL","36849"
205605,"415 WEST MAIN ST","DENISON","TX","75020"
205606,"415 WEST MAIN STREET","IONIA","MI","48846"
205607,"415 WEST MERCER STREET UNIT 703","SEATTLE","WA","98119"
205608,"415 WEST PATRICK STREET","FREDERICK","MD","21701"
205609,"415 WHITMAN BLVD","ELYRIA","OH","44035"
205610,"415 WILLIAMSON WAY STE 8","ASHLAND","OR","97520"
205611,"415 WILLINGHAM RD","MORRISVILLE","NC","27560"
205612,"415 WILLOWBROOK DRIVE SE","SMYRNA","GA","30082"
205613,"415 WONDER PARKWAY","SAN ANTONIO","TX","78213"
205614,"415 WOODBYNE DR","FAYETTEVILLE","GA","30214"
205615,"415 WOODMONT AVE","TEMPLE TERRACE","FL","33617"
205616,"415 WOODVIEW DRIVE","SUN PRAIRIE","WI","53590"
205617,"415","PORT HADLOCK","WA","98339"
205618,"415","RUSSELLVILLE","AL","35653"
205619,"4150 APPLEGATE CT","SUITLAND","MD","20746"
205620,"4150 APPLETON WAY","WILMINGTON","NC","28412"
205621,"4150 ARNOLD DRIVE","JACKSONVILLE","AR","72076"
205622,"4150 BELFORT ROAD 551337","JACKSONVILLE","FL","32216"
205623,"4150 BELFORT ROAD SUITE 551322","JACKSONVILLE","FL","32255"
205624,"4150 BELT LINE RD  UNIT 13019","ADDISON","TX","75001"
205625,"4150 BONILLO DRIVE APT 114","SAN DIEGO","CA","92115"
205626,"4150 CHICAGO AVE UNIT 5904","RIVERSIDE","CA","92507"
205627,"4150 CHICAGO AVENUE UNIT 52722","RIVERSIDE","CA","92507"
205628,"4150 COBBLESTONE ROAD","SUMTER","SC","29154"
205629,"4150 CROSSINGS LANE","BIRMINGHAM","AL","35242"
205630,"4150 DUDLEYS GRANT DRIVE SUITE D","WINTERVILE","NC","28590"
205631,"4150 E FARM ROAD 186","ROGERSVILLE","MO","65742"
205632,"4150 E GRAND FOREST DR","BOISE","ID","83716"
205633,"4150 E MAIN APT 4","BLYTHEVILLE","AR","72315"
205634,"4150 EASTGATE DRIVE APT 3409","ORLANDO","FL","32839"
205635,"4150 GOODLETTE ROAD N","NAPLES","FL","34103"
205636,"4150 GRANDY","DETROIT","MI","48207"
205637,"4150 LOGAN DR 1584","LOGANVILLE","GA","30052"
205638,"4150 N MAIN ST","VIDOR","TX","77662"
205639,"4150 N MULBERRY STE 250","KANSAS CITY","MO","64116"
205640,"4150 N SAM HOUSTON PRKWAY E STE 190","HOUSTON","TX","77032"
205641,"4150 NAVAJO LANE","TITUSVILLE","FL","32796"
205642,"4150 NW 8 TER","POMPANO BEACH","FL","33064"
205643,"4150 NW 93RD AVE","GAINESVILLE","FL","32653"
205644,"4150 PARK VALLEY LANE","WHITE BEAR LAKE","MN","55110"
205645,"4150 RANCHO BONITO DR NW","ALBUQUERQUE","NM","87120"
205646,"4150 RIBAULT RIVER LANE","JACKSONVILLE","FL","32208"
205647,"4150 ROBBY CIRCLE","CORONA","CA","92881"
205648,"4150 S HUALAPAI WAY UNIT 1039","LAS VEGAS","NV","89147"
205649,"4150 S HUALAPAI WAY UNIT 4027","LAS VEGAS","NV","89147"
205650,"4150 SWEET ROAD","BLAINE","WA","98230"
205651,"4150 WESTOWN PARK WAY SUITE 205","WEST DES MOINES","IA","50266"
205652,"4151 BEAVER DAM ROAD","EAGAN","MN","55122"
205653,"4151 COVE DR","YUKON","OK","73099"
205654,"4151 COVEY DR","ODESSA","TX","79762"
205655,"4151 E CAMPBELL AVE","GILBERT","AZ","85234"
205656,"4151 LAKE WORTH ROAD-6275","LAKE WORTH","FL","33466"
205657,"4151 MEADOW LANE","EAU CLAIRE","WI","54701"
205658,"4151 MEMORIAL DRIVE SUITE 110C","DECATUR","GA","30032"
205659,"4151 N TRAVERSE MTN BLVD 15-306","LEHI","UT","84043"
205660,"4151 PARK HEIGHTS AVE","BALTIMORE","MD","21215"
205661,"4151 PARK HEIGHTS AVENUE","BALTIMORE","MD","21215"
205662,"4151 PELICANS NEST DRIVE","BONITA SPRINGS","FL","34124"
205663,"4151 PELONA CANYON RD","ACTON","CA","93510"
205664,"4151 RED BUD RD NE","CALHOUN","GA","30701"
205665,"4151 ROUTE 130 SOUTH","EDGEWATER PARK","NJ","08010"
205666,"4151 SILVERY WAY","SNELLVILLE","GA","30039"
205667,"4151 SOUTHWEST FREEWAY SUITE 125","HOUSTON","TX","77027"
205668,"4151 SOUTHWEST FWY STE-650","HOUSTON","TX","77027"
205669,"4151 WILSHIRE DRIVE","YORK","PA","17402"
205670,"4151 WINNROSE WAY","LOUISVILLE","KY","40211"
205671,"41510 VENTANA DRIVE","PALMDALE","CA","93551"
205672,"41515 NORTH PARK DRIVE","BEALLSVILLE","OH","43716"
205673,"4152 75TH STREET BSMT","ELMHURST","NY","11373"
205674,"4152 BANBURY CIR","PARRISH","FL","34219"
205675,"4152 COMMODORE DR","ERIE","PA","16505"
205676,"4152 DRUMMOND RD","TOLEDO","OH","43613"
205677,"4152 INVERRARY DRIVE BLDG 1 STE 303","LAUDERHILL","FM","33319"
205678,"4152 LAUREL GREEN CIRCLE","VIRGINIA BEACH","VA","23456"
205679,"4152 MERIDIAN ST 105-251","BELLINGHAM","WA","98226"
205680,"4152 SW 140TH STREET RD","OCALA","FL","34473"
205681,"4152 WHISPERING FOREST CT SW","LILBURN","GA","30047"
205682,"41523 VALLEY OF THE FALLS DR","FOREST FALLS","CA","92339"
205683,"41525 TRACE CT","LEONARDTOWN","MD","20659"
205684,"4153 E 1ST ST","TULSA","OK","74112"
205685,"4153 FLAT SHOALS PARKWAY SUITE 332","DECATUR","GA","30034"
205686,"4153 FLAT SHOALS PKWY BLDG C322","DECATUR","GA","30034"
205687,"4153 POND EDGE RD","SNELLVILLE","GA","30039"
205688,"4153 SHAFFETT LANE","ZACHARY","LA","70791"
205689,"4153 SHORELINE CIRCLE APT 67","VIRGINIA BEACH","VA","23452"
205690,"4153 SOUTH SYRACUSE","DENVER","CO","80237"
205691,"4153 SW GLENEAGLE CIRCLE","PALM CITY","FL","34990"
205692,"41539 CHADBOURNE DR","FREMONT","CA","94539"
205693,"4153C FLAT SHOALS PARKWAY SUITE 332","DECATUR","GA","30034"
205694,"4154 CENTRAL AVE","SAINT PETERSBURG","FL","33712"
205695,"4154 HIGHWAY 36","SHELBINA","MO","63468"
205696,"4154 HOLLY SPRINGS DRIVE","MOBILE","AL","36693"
205697,"4154 HUNTERS RUN BLVD","READING","PA","19606"
205698,"4154 LOCKLAND PL   APT 5","LOS ANGELES","CA","90008"
205699,"4154 NORTON ROAD","SYRACUSE","NY","13215"
205700,"4154 NW 2ND LANE","DELRAY BEACH","FL","33445"
205701,"4154 RANDOLPH ST","WAYNE","MI","48184"
205702,"4155 222ND ST E","BRADENTON","FL","34211"
205703,"4155 AGATE COVE","MEMPHIS","TN","38127"
205704,"4155 AUGUSTA AVE","COOPER CITY","FL","33026"
205705,"4155 BUCKINGHAM DRIVE","DANVILLE","CA","94506"
205706,"4155 BUTTERNUT PLACE","ATLANTA","GA","30349"
205707,"4155 DREW RD","CUMMING","GA","30040"
205708,"4155 DREW ROAD","CUMMING","GA","30040"
205709,"4155 E 150TH ST","CLEVELAND","OH","44128"
205710,"4155 E FLAMINGO CREST UNIT 5","LAS VEGAS","NV","89121"
205711,"4155 E IOWA AVE APT 103","DENVER","CO","80222"
205712,"4155 E JEWELL AVE STE 225","DENVER","CO","80222"
205713,"4155 E JEWELL AVENUE SUITE 405","DENVER","CO","80224"
205714,"4155 FARLIN","ST LOUIS","MO","63115"
205715,"4155 FERNCREEK DRIVE SUITE 102 A","FAYETTEVILLE","NC","28314"
205716,"4155 GRANTLEY ROAD","TOLEDO","OH","43613"
205717,"4155 LAWRENCEVILLE HWY PMB 8188","LILBURN","GA","30047"
205718,"4155 LOCKLAND PLACE APARTMENT 2","LOS ANGELES","CA","90008"
205719,"4155 MCLEAN DRIVE","CINCINNATI","OH","45255"
205720,"4155 SATELIITE BLVD APT 617","DULUTH","GA","30096"
205721,"4155 SATELLITE BLVD APT 311","DULUTH","GA","30096"
205722,"4155 STATESVILLE BOULEVARD","SALISBURY","NC","28147"
205723,"41550 ECLECTIC STREET D206","PALM DESERT","CA","92260"
205724,"41550 ECLECTIC STREET","PALM DESERT","CA","92260"
205725,"41551 BASSETT PL","ALDIE","VA","20105"
205726,"41558 EASTMAN DR STE G","MURRIETA","CA","92562"
205727,"4156 BALDWIN AVENUE","CULVER CITY","CA","90232"
205728,"4156 CHEROKEE TRAIL","JAMESTOWN","OH","45335"
205729,"4156 KING ARTHUR COURT","PALO ALTO","CA","94306"
205730,"4156 LONGVIEW RD","STARKVILLE","MS","39759"
205731,"4156 RIVERHILL COURT NE","ROSWELL","GA","30075"
205732,"4156 S BERKELEY AVE","CHICAGO","IL","60653"
205733,"4156 WATERTHRUSH DRIVE","INDIANAPOLIS","IN","46254"
205734,"41561 284TH ST","TRIPP","SD","57376"
205735,"4157 4TH AVENUE","LOS ANGELES","CA","90008"
205736,"4157 ALSTON CHAPEL RD","PITTSBORO","NC","27312"
205737,"4157 COOPER AVE","ROYAL OAK","MI","48073"
205738,"4157 HARSH COVE","MEMPHIS","TN","38127"
205739,"4157 KEY THATCH DRIVE","TAMPA","FL","33610"
205740,"4157 N 50TH STREET","MILWAUKEE","WI","53216"
205741,"4157 ONEGA CIR","WESPT PALM BEACH","FL","33409"
205742,"4157 SW 54 AVENUE","DAVIE","FL","33314"
205743,"4157 US HWY 14-16 E","CLEARMONT","WY","82835"
205744,"41579 NORTH LOTUS AVE","ANTIOCH","IL","60002"
205745,"4158 73RD STREET 4C","WOODSIDE","NY","11377"
205746,"4158 BACK RIDGE WAY","MONCLOVA","OH","43542"
205747,"4158 LA MESA RD","BULLHEAD CITY","AZ","86429"
205748,"4158 TERRACE STREET","OAKLAND","CA","94611"
205749,"4158 WASHTENAW AVE","ANN ARBOR","MI","48108"
205750,"41583 BOSTONIAN PL","ALDIE","VA","20105"
205751,"41588 HUNTINGTON DR","STERLING HEIGHTS","MI","48313"
205752,"4159 51ST ST","SAN DIEGO","CA","92105"
205753,"4159 BOWEN STREET","ST LOUIS","MO","63116"
205754,"4159 COVENTRY COURT","SOUTHPORT","NC","28461"
205755,"4159 GALBAR ST","OCEANSIDE","CA","92056"
205756,"4159 HOLLAND-SYLVANIA AVENUE","TOLEDO","OH","43623"
205757,"4159 KIRBY MOUNTAIN ROAD","LENOIR","NC","28645"
205758,"4159 MAU MAU LN","ORLANDO","FL","32822"
205759,"4159 RATHELL ROAD","LEXINGTON","MS","39095"
205760,"4159 RINGGOLD RD SUITE 205","EAST RIDGE","TN","37412"
205761,"4159 RIVER ROAD","VALDOSTA","GA","31605"
205762,"4159 S RIVER BASIN AVE","BOISE","ID","83716"
205763,"41590 BALACLAVA DRIVE","BERMUDA DUNES","CA","92203"
205764,"41590 PLEASANT RIDGE RD","GRAYSVILLE","OH","45734"
205765,"41591 FLORIDA AVE SUITE I","HEMET","CA","92544"
205766,"41593 WINCHESTER RD  UNIT 217","TEMECULA","CA","92590"
205767,"41593 WINCHESTER ROAD SUITE 200","TEMECULA","CA","92590"
205768,"416 10TH STREET","GOTHENBURG","NE","69138"
205769,"416 22ND STREET","DENVER","CO","80205"
205770,"416 30TH AV N","MINNEAPOLIS","MN","55411"
205771,"416 6TH ST NE","DEVILS LAKE","ND","58301"
205772,"416 APOLLO DRIVE","BETHLEHEM","PA","18017"
205773,"416 ARABELLA LANE","CARLSBAD","NM","88220"
205774,"416 ASHLEY OAKS DRIVE","MOORE","SC","29369"
205775,"416 AVENIDA ABETOS","SAN JOSE","CA","95123"
205776,"416 AVONDALE","HADDONFIELD","NJ","08033"
205777,"416 BARBER CREEK RD","PORT BYRON","IL","61275"
205778,"416 BEASLEY ROAD","PROCTOR","AR","72376"
205779,"416 BEECHGROVE DRIVE","ENGLEWOOD","OH","45322"
205780,"416 BENJAMIN DR","CHAMBERSBURG","PA","17201"
205781,"416 BIRDSTONE DR","SMYRNA","TN","37167"
205782,"416 BRANCH DR","DOBSON","NC","27017"
205783,"416 BROAD STREET","LAKE CHARLES","LA","70601"
205784,"416 BURNETT AVE S","RENTON","WA","98057"
205785,"416 CANTERBURY RISE","FRANKLIN","TN","37067"
205786,"416 CARRIAGE CREEK DR","SMITHFIELD","NC","27577"
205787,"416 CENTER STREET","YUBA CITY","CA","95991"
205788,"416 CHESTER DRIVE","LEWISVILLE","TX","75056"
205789,"416 CLARENDON CT APT B","ALBANY","GA","31707"
205790,"416 COUNTY ROAD 5231","POPLAR BLUFF","MO","63901"
205791,"416 CRAIG STREET","FOUNTAIN INN","SC","29644"
205792,"416 CRETE DRIVE","WILMINGTON","NC","28403"
205793,"416 DORCHESTER DRIVE","MAHOMET","IL","61853"
205794,"416 DORSET ST","CAMBRIA","CA","93428"
205795,"416 E 18TH AVENUE","STILLWATER","OK","74074"
205796,"416 E 71ST STREET APT 6","NEW YORK","NY","10021"
205797,"416 E 86TH AVENUE","MERRILLVILLE","IN","46410"
205798,"416 E CARLTON AVE","MERIDIAN","ID","83642"
205799,"416 E CARSON DRIVE","TEMPE","AZ","85282"
205800,"416 E HAVASU FALLS ST","MERIDIAN","ID","83646"
205801,"416 E RAVINE BAYE ROAD","BAYSIDE","WI","53217"
205802,"416 E REGENCE ST","INGLEWOOD","CA","90301"
205803,"416 E SPRING AVENUE","BONNER SPRINGS","KS","66012"
205804,"416 E YUCCA DR","SAFFORD","AZ","85546"
205805,"416 EISENHOWER DRIVE","ASHLAND","TN","37015"
205806,"416 ELM ST PO BOX 116","NATOMA","KS","67651"
205807,"416 ERICSON ST","SOUTHAVEN","MS","38762"
205808,"416 FAIR AVE","FLORA","IL","62839"
205809,"416 FAIRVIEW ST","NORMAL","IL","61761"
205810,"416 FRANKLIN ST","LINDEN","MI","48451"
205811,"416 GEORGE ST SUITE B6","DEPERE","WI","54115"
205812,"416 GRAVIER STREET","NEW ORLEANS","LA","70130"
205813,"416 HABITAT RIDGE DRIVE","BROUSSARD","LA","70518"
205814,"416 HANOVER RD","BAINBRIDGE","GA","39817"
205815,"416 HANSON WALK LANE","APEX","NC","27539"
205816,"416 HARN STREET","MONROE","LA","71201"
205817,"416 HAVENWOOD LANE N","FORT WORTH","TX","76112"
205818,"416 HIBBARD ROAD","HORSEHEADS","NY","14845"
205819,"416 HIGHLAND DRIVE","SEATTLE","WA","98109"
205820,"416 HOWARD ST PEACOCK HALLROOM 2018","BOONE","NC","28608"
205821,"416 HOWARD STREET 2018 PEACOCK HALL","BOONE","NC","28608"
205822,"416 HUDSON ST","JERMYN","PA","18433"
205823,"416 HUFF ROAD","NORTH BRUNSWICK","NJ","08902"
205824,"416 IVY CRES","CHESAPEAKE","VA","23325"
205825,"416 JAMAICA DRIVE","CHERRY HILL","NJ","08002"
205826,"416 JOHNNY MERCER BLVD","SAVANNAH","GA","31410"
205827,"416 JOY SPRINGS CT","GROVETOWN","GA","30813"
205828,"416 KINSLAND ROAD","FRANKLIN","NC","28734"
205829,"416 KISSING OAK DR","AUSTIN","TX","78748"
205830,"416 LAKEVIEW DR","DELHI","LA","71232"
205831,"416 LANGFORD DRIVE","BOLINGBROOK","IL","60440"
205832,"416 LAWTON DRIVE","HAW RIVER","NC","27252"
205833,"416 LEWIS DRIVE","RICHMOND","KY","40475"
205834,"416 LINWAL DRIVE","LEXINGTON","KY","40505"
205835,"416 LITHCOTE ROAD","VILLE PLATTE","LA","70586"
205836,"416 MADISON TAYLOR PLACE","LAS VEGAS","NV","89144"
205837,"416 MENGER SPRINGS","BOERNE","TX","78006"
205838,"416 N 9TH ST","MASCOUTAH","IL","62258"
205839,"416 N AVENUE B","CROSS PLAINS","TX","76443"
205840,"416 N BEDFORD DR STE 311","BEVERLY HILLS","CA","90210"
205841,"416 N CLINTON ST","STOCKBRIDGE","MI","49285"
205842,"416 N COURT ST","FLORENCE","AL","35630"
205843,"416 N FM 356","ONALASKA","TX","77360"
205844,"416 N GLENDALE AVE SUITE 202","GLENDALE","CA","91206"
205845,"416 N MONTFORD AVE","BALTIMORE","MD","21224"
205846,"416 NORTH 59TH STREET","PHILADELPHIA","PA","19151"
205847,"416 NORTH CORNWELL ST","LOS ANGELES","CA","90033"
205848,"416 NORTH SECOND STREET","BAINBRIDGE","PA","17502"
205849,"416 NORTH STANTON SUITE 600 I","EL PASO","TX","79901"
205850,"416 NORTH SYLVAN ST","ASHLAND","IL","62612"
205851,"416 OAKWOOD AVE","WEST HARTFORD","CT","06110"
205852,"416 PALM DRIVE","VISTA","CA","92084"
205853,"416 PARK AVENUE","IRONTON","OH","45638"
205854,"416 PARROT HILL AVE","NORTH LAS VEGAS","NV","89032"
205855,"416 PHILLIP LANE","SHELBURNE","VT","05482"
205856,"416 PRESIDIO DRIVE","ROCK HILL","SC","29732"
205857,"416 RAMBLEWOOD RD","PATRIOT","OH","45658"
205858,"416 RAYMOND PLACE","DUBUQUE","IA","52001"
205859,"416 REVADEE SPEARS RD","CRAWFORDVILLE","FL","32327"
205860,"416 ROFF AVE","PALISADES PARK","NJ","07650"
205861,"416 ROSE DRIVE","COLORADO SPRINGS","CO","80911"
205862,"416 S 162ND ST","OMAHA","NE","68118"
205863,"416 S 17TH ST","MCALLEN","TX","78577"
205864,"416 S ELM STREET   SUITE 101","DENTON","TX","76201"
205865,"416 S FOURTH STREET","CAMDEN","NJ","08103"
205866,"416 S MAIN ST","JACKSONVILLE","IL","62650"
205867,"416 S SPRING ST APT 306","LOS ANGELES","CA","90013"
205868,"416 S WOOD STREET","WARSAW","IN","46580"
205869,"416 SAINT EMILION CT","MOUNTAIN VIEW","CA","94043"
205870,"416 SNOW BREEZE CT","ROSEVILLE","CA","95747"
205871,"416 SNYDER ROAD","READING","PA","19605"
205872,"416 TRIPLE CROWN BLVD","KNOXVILLE","TN","37934"
205873,"416 TROON CHASE","VIRGINIA BEACH","VA","23462"
205874,"416 URSULA ST","AURORA","CO","80011"
205875,"416 VALLEY VIEW DR STE 310","SCOTTSBLUFF","NE","69361"
205876,"416 VOYAGE AVE","CALDWELL","ID","83605"
205877,"416 W 11TH STREET","THE DALLES","OR","97058"
205878,"416 W 650 S","VERNAL","UT","84078"
205879,"416 W BETHEL RD","COPPELL","TX","75019"
205880,"416 W CHESTER ST 1ST FLOOR","LONG BEACH","NY","11561"
205881,"416 W STATE STREET SUITE 213","FREMONT","OH","43420"
205882,"416 WALNUT","YANKTON","SD","57078"
205883,"416 WATER BRIDGE DR","LEWISVILLE","TX","75056"
205884,"416 WEST ARROW HWY APT E","UPLAND","CA","91786"
205885,"416 WEST FRENCH STREET","PERKINS","OK","74059"
205886,"416 WEST HILL DRIVE","BERTHOUD","CO","80513"
205887,"416 WEST STREET SUITE B","MADISON","IN","47250"
205888,"416 WEST VAN BUREN STREET","COLORADO SPRINGS","CO","80907"
205889,"416 WILLOW RD","SAVANNAH","GA","31419"
205890,"416 WOODLAKE ROAD","VIRGINIA BEACH","VA","23452"
205891,"416-426 BROADWAY APT 316","NEWARK","NJ","07104"
205892,"416","BOSTON","MA","02130"
205893,"416","CAMPBELLSVILLE","KY","42719"
205894,"4160 BAYSWATER RD","WINTERVILLE","NC","28590"
205895,"4160 CASS AVE SUITE B","DETROIT","MI","48201"
205896,"4160 COUNTY ROAD 1","FRIENDSHIP","NY","14739"
205897,"4160 DARROW ROAD","STOW","OH","44224"
205898,"4160 DOUGLASS DR","USAF ACADEMY","CO","80840"
205899,"4160 EAGLE ROCK BLVD","LOS ANGELES","CA","90065"
205900,"4160 HIGHLANDER PKWY 100","RICHFIELD","OH","44286"
205901,"4160 HIGHWAY 261 NORTH","REMBERT","SC","29128"
205902,"4160 HUTCHINSON RIVER PARKWAY - 16E","BRONX","NY","10475"
205903,"4160 LITTLE BOY ROAD NE","LONGVILLE","MN","56655"
205904,"4160 LOGAN DR UNIT 2688","LOGANVILLE","GA","30052"
205905,"4160 LOGAN DR UNIT 3225","LOGANVILLE","GA","30052"
205906,"4160 N VALENTINE  APT 127","FRESNO","CA","93722"
205907,"4160 OLD POST ROAD SUITE 202","CHARLESTOWN","RI","02813"
205908,"4160 S BAKKE RD","BELOIT","WI","53511"
205909,"4160 SOUTH PECOS ROAD STE 21","LAS VEGAS","NV","89121"
205910,"4160 SUISUN VALLEY RD NUM E240","FAIRFIELD","CA","94534"
205911,"4160 SUISUN VALLEY RD STE E PMB 125","FAIRFIELD","CA","94534"
205912,"4160 SUISUN VALLEY ROAD PO BOX 321","FAIRFIELD","CA","94533"
205913,"4160 W 16TH AVE SUITE 206","HIALEAH","FL","33012"
205914,"4160 W CHARTER OAK RD","PHOENIX","AZ","85029"
205915,"4160 W MAIN ST","LOWELL","IN","46356"
205916,"4160 WEST 16 AVE SUITE 205","HIALEAH","FL","33012"
205917,"4160 WEST 16TH AVE SUITE 208","HIALEAH","FL","33012"
205918,"4160 WEST 38TH STREET","ERIE","PA","16506"
205919,"41600 N FOXY WAY","ASH FORK","AZ","86320"
205920,"41606 YANKEE RUN CT","TEMECULA","CA","92591"
205921,"4161 B BROOK CREEK LN","GREENVILLE","NC","27858"
205922,"4161 DON TOMASO DRIVE SUITE 8","LOS ANGELES","CA","90008"
205923,"4161 EMERALD LAKE DR","DECATUR","GA","30035"
205924,"4161 HIGHLAND CT","WEST BLOOMFIELD","MI","48323"
205925,"4161 LANCASHIRE DR","JACKSON","MI","49203"
205926,"4161 MINUET STREET UNIT 151","GRAND PRAIRIE","TX","75052"
205927,"4161 MINUET STREET","GRAND PRAIRIE","TX","75052"
205928,"4161 PARTRIDGE DR","DOUGLASVILLE","GA","30135"
205929,"4161 RAINBRANCH DRIVE APT 3","MEMPHIS","TN","38116"
205930,"4161 RIVERLOOK PKWY SE UNIT 203","MARIETTA","GA","30067"
205931,"4161 SOUTH DREXEL APT 205","CHICAGO","IL","60653"
205932,"4161 SOUTHPOINT CIRCLE NORTH","SOUTHSIDE","AL","35907"
205933,"41619 FIRENZE STREET","LANCASTER","CA","93536"
205934,"4161A HIGHWAY 188","CODEN","AL","36523"
205935,"4162 5TH AVE SOUTH","GREAT FALLS","MT","59405"
205936,"4162 COUNTY RD H","RIDGEWAY","WI","53582"
205937,"4162 FOX LANE","CAZENOVIA","NY","13035"
205938,"4162 LAUREL OAK CIR","TALLAHASSEE","FL","32311"
205939,"4162 N 2ND ST","KALAMAZOO","MI","49009"
205940,"4162 PARKSIDE AVENUE","PHILADELPHIA","PA","19104"
205941,"4163 2ND AVE N","ST PETERSBURG","FL","33713"
205942,"4163 CEDAR ST","RIVERSIDE","CA","92501"
205943,"4163 MAYFAIR WAY","LAKELAND","FL","33812"
205944,"4163 MOONBEAM WAY","SNELLVILLE","GA","30039"
205945,"4163 OLD HWY NORTHPORT RD","NORTHPORT","WA","99157"
205946,"4163 OLEATHA","ST. LOUIS","MO","63116"
205947,"4163 S ZENOBIA STREET","DENVER","CO","80236"
205948,"4163 WATOVA AVE","NORTH PORT","FL","34286"
205949,"41630 SUNSET HWY RD E","DAVENPORT","WA","99122"
205950,"41633 GORE ST","INDIO","CA","92203"
205951,"41635 CHATTMAN","NOVI","MI","48375"
205952,"41635 JOYCE AVENUE","FREMONT","CA","94539"
205953,"4164 124TH AVE SE APT 304","BELLEVUE","WA","98006"
205954,"4164 AUSTIN BLUFFS PKWY APT 168","COLORADO SPRINGS","CO","80918"
205955,"4164 AUSTIN BLUFFS PKWY STE 168","COLORADO SPRINGS","CO","80918"
205956,"4164 AUSTIN BLUFFS PKY STE 237","COLORADO SPRINGS","CO","80918"
205957,"4164 E MELODY DR","GILBERT","AZ","85234"
205958,"4164 HORIZON COURT","TURLOCK","CA","95382"
205959,"4164 KENTUCKY RIVER PARKWAY","LEXINGTON","KY","40515"
205960,"4164 LONG RUN RD","ATHENS","OH","45701"
205961,"4164 N CECELIA","FRESNO","CA","93722"
205962,"4164 VIA NORTE","CYPRESS","CA","90630"
205963,"4164 VIRGINIA BEACH BLVD NUM 100","VIRGINIA BEACH","VA","23452"
205964,"41640 CORNING PLACE","MURRIETA","CA","92562"
205965,"41641 NORTH RIDGE ROAD SUITE E","CLEVELAND","OH","44035"
205966,"41646 ROAD 62","REEDLEY","CA","93654"
205967,"4165 CIMARRON WAY 1024","DENVER","CO","80014"
205968,"4165 DROP TINE CT","RENO","NV","89511"
205969,"4165 E BUCHANAN DRIVE","COLUMBIA","SC","29206"
205970,"4165 E THOUSAND OAKS BLVD SUITE 150","WESTLAKE VILLAGE","CA","91362"
205971,"4165 LUTHER WARD ROAD","POWDER SPRINGS","GA","30127"
205972,"4165 MONROE AVE APT 4","SAN DIEGO","CA","92116"
205973,"4165 NORVELL ROAD","GRASS LAKE","MI","49240"
205974,"4165 POST OFFICE BOX","FLORENCE","SC","29502"
205975,"4165 STAATZ DRIVE","YOUNGSTOWN","OH","44511"
205976,"41651 FAWN WALK COURT","ASHBURN","VA","20148"
205977,"416518 EDGEWATER","CHECOTAH","OK","74426"
205978,"41655 N KENWORTHY RD","SAN TAN VALLEY","AZ","85140"
205979,"4166 21ST STREET","DORR","MI","49323"
205980,"4166 BLUEBIRD DRIVE","WALDORF","MD","20603"
205981,"4166 FALLING CREEK DRIVE","VINTON","VA","24179"
205982,"4166 MATTERHORN ST","MONTGOMERY","AL","36116"
205983,"4166 MT LAUREL RD","WILLIAMSBURG","VA","23188"
205984,"41660 TIMBERWOOD AVE UNIT 1","MURRIETA","CA","92562"
205985,"41661 230TH ST","LANESBORO","MN","55969"
205986,"41661 ENTERPRISE CIR N STE 125","TEMECULA","CA","92590"
205987,"4167 54TH STREET 3FL","WOODSIDE","NY","11377"
205988,"4167 LAC ST PIERRE","HARVEY","LA","70058"
205989,"4167 QUAIL SPRINGS CT","MARTINEZ","GA","30907"
205990,"4167 WALNUT CIR","FLOWERY BRANCH","GA","30542"
205991,"41675 BROAD OAK ST","MURRIETA","CA","92562"
205992,"4168 AVENIDA DE LA PLATA    STE 111","OCEANSIDE","CA","92056"
205993,"4168 BLAKE CIR","STOCKTON","CA","95206"
205994,"4168 CHARLENE DRICE","LOS ANGELES","CA","90008"
205995,"4168 CORYDON AVENUE","NORTH PORT","FL","34286"
205996,"4168 S 199TH CIR","OMAHA","NE","68135"
205997,"4168 S DREXEL BLVD 2A","CHICAGO","IL","60653"
205998,"41680 FLATHEAD VIEW DRIVE","POLSON","MT","59860"
205999,"41687 JOYCE AVE","FREMONT","CA","94539"
206000,"4169 2ND AVE","LOS ANGELES","CA","90008"
