"ID","Address","City","State","Zip"
65501,"1485 VILLA REAL","GILROY","CA","95020"
65502,"1485 WEBSTER HILL ROAD","SOUTH ROYALTON","VT","05068"
65503,"14850 DILBECK DR","SPRING HILL","FL","34610"
65504,"14850 N 156TH AVE","SURPRISE","AZ","85379"
65505,"14850 N 156TH STREET","SURPRISE","AZ","85379"
65506,"14850 N SCOTTSDALE RD STE 500","SCOTTSDALE","AZ","85254"
65507,"14850 OKA RD 19","LOS GATOS","CA","95032"
65508,"14850 SPRINGFORD DRIVE","LA MIRADA","CA","90638"
65509,"14850 SW 26TH STREET STE 210","MIAMI","FL","33185"
65510,"14850","HOUSTON","TX","77083"
65511,"14852 SW 32 LANE","MIAMI","FL","33185"
65512,"14852 SW 70TH STREET","MIAMI","FL","33193"
65513,"14853 HIMEBAUGH CIRCLE","OMAHA","NE","68116"
65514,"14855 FREEMANVILLE RD","MILTON","GA","30004"
65515,"14855 FROST ROAD","DUNMORE","WV","24934"
65516,"14855 MEMORIAL DR STE/1604","HOUSTON","TX","77079"
65517,"14857 COUNTRY ROAD 2169D","HENDERSON","TX","75652"
65518,"14857 SW 104 ST APT 105","MIAMI","FL","33196"
65519,"14858 ANOLA ST","WHITTIER","CA","90604"
65520,"14859 HWY 171","NORTHPORT","AL","35475"
65521,"1485B MONROE AVENUE","ROCHESTER","NY","14618"
65522,"1486 8TH STREET APT A","OAKLAND","CA","94607"
65523,"1486 DOCTOR MARTIN LUTHER KING BLVD","WARRENTON","NC","27589"
65524,"1486 DORCHESTER AVENUE","DORCHESTER","MA","02122"
65525,"1486 EL CAMINO DR","FLORISSANT","MO","63031"
65526,"1486 FAIRWAY DRIVE UNIT 202","NAPERVILLE","IL","60563"
65527,"1486 FELIX AVENUE","MEMPHIS","TN","38114"
65528,"1486 FOX RIDGE COURT","ARNOLD","MO","63010"
65529,"1486 GRAEBER ST SPACE 6517","MARCH AIR RESERVE BA","CA","92518"
65530,"1486 HIGHLAND AVENUE SUITE 7A","CHESHIRE","CT","06410"
65531,"1486 MAGNOLIA DR","CRYSTAL LAKE","IL","60014"
65532,"1486 NE ELIZABETH PLACE","GRANTS PASS","OR","97526"
65533,"1486 PARKWOOD ROAD","LAKEWOOD","OH","44107"
65534,"1486 ROUTE 133","IRA","VT","05777"
65535,"1486 SOUTH ALLEN ROAD","SAINT CLAIR","MI","48079"
65536,"1486 TOWERS STREET","LAKEWOOD","NJ","08701"
65537,"1486 WEST  TOPANGA COURT","KUNA","ID","83634"
65538,"14860 MONTFORT DR STE 145","DALLAS","TX","75254"
65539,"14860 S ORCHARD AVE","GARDENA","CA","90247"
65540,"14863 COVINGTON AVE","ROSEMOUNT","MN","55068"
65541,"14863 NW DEERFOOT LN","PORTLAND","OR","97229"
65542,"14865 MULBERRY DRIVE 1101","WHITTIER","CA","90604"
65543,"14867 SPINNING AVE","GARDENA","CA","90249"
65544,"14868 LAWRENCE 1137","MOUNT VERNON","MO","65712"
65545,"14869 LONG VIEW DRIVE","FONTANA","CA","92337"
65546,"1486A EAST 52ND STREET","BROOKLYN","NY","11234"
65547,"1487 BUTTERFIELD CIRCLE","NILES","OH","44446"
65548,"1487 DUNSTER LN","POTOMAC","MD","20854"
65549,"1487 EAST HWY 76","BRANSON","MO","65616"
65550,"1487 FAR DRIVE","CORDOVA","TN","38106"
65551,"1487 GUERRERO ST","SAN FRANCISCO","CA","94110"
65552,"1487 HARFORD SQUARE DRIVE","EDGEWOOD","MD","21040"
65553,"1487 LANGHORNE ROAD","LYNCHBURG","VA","24503"
65554,"1487 LUPINE DRIVE","SANTA ROSA","CA","95401"
65555,"1487 MCLENDON AVE NE","ATLANTA","GA","30307"
65556,"1487 MCLENDON AVENUE","ATLANTA","GA","30307"
65557,"1487 MONTALBAN DRIVE","SAN JOSE","CA","95120"
65558,"1487 QATTARA","IDAHO FALLS","ID","83404"
65559,"1487 RANGERS LOOP APT 304","WOODBRIDGE","VA","22191"
65560,"1487 S 1100W","WOODS CROSS","UT","84087"
65561,"14870 PERIDOT STREET NW","RAMSEY","MN","55305"
65562,"14871 KEYLIME BLVD","LOXAHATCHEE","FL","33470"
65563,"14872 GILES ROAD APT 301","OMAHA","NE","68138"
65564,"14873 HWY 51 N","GRENADA","MS","38901"
65565,"14873 TYBEE ISLAND DRIVE","NAPLES","FL","34119"
65566,"14874 N 136TH DRIVE","SURPRIZE","AZ","85379"
65567,"14874 W LAUREL LN","SURPRISE","AZ","85379"
65568,"14875 S AVENIDA CUCANA","SAHUARITA","AZ","85629"
65569,"14875 S W  MOCKINGBIRD CT","BEAVERTON","OR","97007"
65570,"14876 SW 30TH STREET","BENTON","KS","67017"
65571,"14876 SW 30TH","BENTON","KS","67017"
65572,"14878 TRUELOVE RD","WEST FORK","AR","72774"
65573,"14879 GARFIELD AVE","ALLEN PARK","MI","48101"
65574,"14879 SNOWDEN","DETROIT","MI","48227"
65575,"1488 14TH ROAD","WASHINGTON","OK","66968"
65576,"1488 23RD STREET","HOULTON","WI","54082"
65577,"1488 4TH STREET","WEST BABYLON","NY","11704"
65578,"1488 BETHAVEN ROAD","RIVERDALE","GA","30296"
65579,"1488 CAPITOL AVE UNIT D406","BRIDGEPORT","CT","06604"
65580,"1488 CRANBROOK DR","SAGINAW","MI","48638"
65581,"1488 E 100 N","WASHINGTON","IN","47501"
65582,"1488 E HIGHLAND RD","WAXAHACHIE","TX","75167"
65583,"1488 GLEN AVENUE","WAHIAWA","HI","96786"
65584,"1488 MONTEEL DRIVE NW","ATLANTA","GA","30318"
65585,"1488 N PRAIRIE ST","GALESBURG","IL","61401"
65586,"1488 NEW YORK AVE","BROOKLYN","NY","11210"
65587,"1488 PARK KNOLL TRAIL","LAWRENCEVILLE","GA","30043"
65588,"1488 PIONEER WAY SUITE 5","EL CAJON","CA","92020"
65589,"1488 S SHERIDAN RD","STANTON","MI","48888"
65590,"1488 SPRING RUN ROAD EXTENSION","MOON TOWNSHIP","PA","15108"
65591,"1488 VENTURA DRIVE","PITTSBURG","CA","94565"
65592,"1488 WAYLAND DRIVE","COLUMBUS","OH","43207"
65593,"1488 WESTFIELD STREET","WESTSPRINGFIELD","MA","01089"
65594,"14880 MILL RIDGE RD","SAUCIER","MS","39574"
65595,"14880 S SUNFLOWER ROAD","GARDNER","KS","66030"
65596,"14880 W US 84","NEWTON","AL","36352"
65597,"14880 WYOMING","DETROIT","MI","48238"
65598,"14881 RD 26","DOLORES","CO","81323"
65599,"14882 SW GREENFIELD DRIVE","TIGARD","OR","97224"
65600,"14884 DILLOW STREET","WESTMINSTER","CA","92683"
65601,"14885 S CAENEN LN","OLATHE","KS","66062"
65602,"14888 HWY 105W SUITE 210","MONTGOMERY","TX","77356"
65603,"14888 LAGO DRIVE","RANCHO MURIETA","CA","95683"
65604,"14889 ALSTONE DR","FRISCO","TX","75035"
65605,"14889 BUCKBOARD","SISTERS","OR","97759"
65606,"1489 AIRPORT RD","WORLAND","WY","82401"
65607,"1489 CALF CREEK LN","SHERMAN","TX","75090"
65608,"1489 MILBURN","TOLEDO","OH","43606"
65609,"1489 N MILITARY TRL SUITE 219","WEST PALM BEACH","FL","33409"
65610,"1489 NEWTON STREET NW APT 35","WASHINGTON","DC","20010"
65611,"1489 RADCLIFF LN","AURORA","IL","60502"
65612,"1489 ROSE CENTER RD","FENTON","MI","48430"
65613,"1489 ROSEMONT RD","WEST LINN","OR","97068"
65614,"1489 SARGENT AVE","SAINT PAUL","MN","55105"
65615,"1489 SARGENT AVENUE","SAINT PAUL","MN","55105"
65616,"1489 SOUND AVENUE","BAITING HOLLOW","NY","11933"
65617,"1489 US HWY 395 N","GARDNERVILLE","NV","89410"
65618,"1489 W PALMETTO","BOCA RATON","FL","33486"
65619,"1489 WEST STREET","SHELDONVILLE","MA","02070"
65620,"14890 GRANDVILLE","DETROIT","MI","48223"
65621,"14890 NE 16TH PLACE","WILLISTON","FL","32696"
65622,"14892 ELLINGSWORTH LANE","WINTER GARDEN","FL","34787"
65623,"14892 FIRESIDE LANE SUITE 2321","HELENDALE","CA","92342"
65624,"14893 CAMBRIA ST","FONTANA","CA","92335"
65625,"14893 GALAPAGO ST  APT F208","WESTMINSTER","CO","80023"
65626,"14894 CLEVELAND AVE","ALLEN PARK","MI","48101"
65627,"14894 W DREYFUS ST","SURPRISE","AZ","85379"
65628,"14895","MOUNTAIN VIEW","AR","72560"
65629,"14896 SOUTH 2025 ROAD","STOCKTON","MO","65784"
65630,"14897 NE 18 AVE APT 101","NORTH MIAMI","FL","33181"
65631,"14897 SKOG ROAD","GRANTSBURG","WI","54840"
65632,"14898 ELK CREEK ROAD","PIEDMONT","SD","57769"
65633,"14899 MEYER","ALLEN PARK","MI","48101"
65634,"14899 PENROD","DETROIT","MI","48223"
65635,"148A MADISON ST","NEW YORK","NY","10002"
65636,"149  AUGUSTA DRIVE","MCDONOUGH","GA","30253"
65637,"149 13TH STREET ROOM 4001","BOSTON","MA","02129"
65638,"149 1ST STREET","OAKMONT","PA","15139"
65639,"149 26TH ST NW UNIT 1506","ATLANTA","GA","30309"
65640,"149 ALEX CIRCLE","STATEN ISLAND","NY","10305"
65641,"149 AMBER LANE","JARRELL","TX","76537"
65642,"149 ANDREW ROAD","AMERICAN CANYON","CA","94503"
65643,"149 ANNATTO WAY","TEGA CAY","SC","29708"
65644,"149 ANTHONY STREET","EAST PROVIDENCE","RI","02914"
65645,"149 AVON BELDEN ROAD","AVON LAKE","OH","44012"
65646,"149 BARRINGTON AVE SUITE 930","LOS ANGELES","CA","90049"
65647,"149 BARTLEY AVENUE","MANSFIELD","OH","44905"
65648,"149 BENTLEY AVENUE BSMT 1","JERSEY CITY","NJ","07304"
65649,"149 BLACKBIRD LANE","HUMMELSTOWN","PA","17036"
65650,"149 BLUE BEARD DR","NORTH FORT MYERS","FL","33917"
65651,"149 BONIFACIO PLACE","MONTEREY","CA","93940"
65652,"149 BONNER SPRINGS RANCH ROAD","LAPORTE","CO","80535"
65653,"149 BONNET MEADOW COVE","DRIFTWOOD","TX","78619"
65654,"149 BUMSTEAD RD","MONSON","MA","01057"
65655,"149 CARPENTER DRIVE","JACKSON","MS","39212"
65656,"149 CARROLL STREET","SHREVEPORT","LA","71105"
65657,"149 CEDAR RIDGE DRIVE","MONACA","PA","15061"
65658,"149 CENTRAL AVE","MATTESON","IL","60443"
65659,"149 CENTRE AVENUE","EAST ROCKAWAY","NY","11518"
65660,"149 CHATEAU BEND","ARDMORE","OK","73401"
65661,"149 CHESTERFIELD RD","HAMPTON","VA","23661"
65662,"149 CHURCH ST","HAMDEN","CT","06514"
65663,"149 CLARENCE HOLLIS COURT","JONESBORO","GA","30238"
65664,"149 CLINTON AVENUE APT 2A","BROOKLYN","NY","11205"
65665,"149 COLES STREET","JERSEY CITY","NJ","07302"
65666,"149 COLONEL ETHEREDGE BLVD 2308","HUNTSVILLE","TX","77340"
65667,"149 COLONIAL HEIGHTS DRIVE","RIVER RIDGE","LA","70123"
65668,"149 CONROY RD","PERHAM","ME","04766"
65669,"149 CORNER LN","BRANCHVILLE","SC","29432"
65670,"149 COTTONWOOD DR","COPPELL","TX","75019"
65671,"149 COUNTRY CLUB ROAD","ANDREWS","SC","29510"
65672,"149 COURT STREET","AUBURN","CA","95603"
65673,"149 DANBROOK","IRVINE","CA","92603"
65674,"149 DAVIS SINGLETERRY RD","WAYNESBORO","MS","39367"
65675,"149 DEYOUNG MEADOWS DRIVE","GREER","SC","29651"
65676,"149 DODDS CT","BURLINGTON","VT","05408"
65677,"149 DREAMTIME LN","MENA","AR","71953"
65678,"149 DRINKWATER ROAD","HAMPTON FALLS","NH","03844"
65679,"149 DUSKIN DR","COCHRAN","GA","31014"
65680,"149 E 17TH STREET","LOS ANGELES","CA","90003"
65681,"149 E AVENUE R3","PALMDALE","CA","93550"
65682,"149 E DIVISION","ROCKFORD","MI","49341"
65683,"149 E GRAND AVE","HOT SPRINGS","AR","71901"
65684,"149 E MAIN STREET UNIT 1","TRINIDAD","CO","81082"
65685,"149 E NEW ENGLAND DR","ELKTON","FL","32033"
65686,"149 EAST 23RD STREET  SUITE 1204","NEW YORK","NY","10010"
65687,"149 EAST MAIN STREET","MOREHEAD","KY","40351"
65688,"149 ESPLANADE","MOUNT VERNON","NY","10553"
65689,"149 FALL CREEK BLVD","SUMMERVILLE","SC","29483"
65690,"149 FORESTBROOK DR","MADISON","AL","35757"
65691,"149 GARDENIA DR","STAFFORD","VA","22554"
65692,"149 GARRISON AVE","JERSEY CITY","NJ","07306"
65693,"149 GEIBEL ROAD","FENELTON","PA","16034"
65694,"149 GRANDVIEW DRIVE","AMHERST","NY","14228"
65695,"149 GREENWOOD AVE","AMBLER","PA","19002"
65696,"149 HESTER ST SUITE 300","NEW YORK","NY","10002"
65697,"149 HIDDEN VALLEY ESTATES","SCOTT DEPOT","WV","25560"
65698,"149 HIGH PL","FORT COLLINS","CO","80521"
65699,"149 HIGHLANDS DR","CARMEL","CA","93923"
65700,"149 HIGHWAY 18","RALEIGH","MS","39153"
65701,"149 HILLSIDE DRIVE EAST","BURLESON","TX","76028"
65702,"149 HORNOCK DRIVE","NEW ALEXANDRIA","PA","15670"
65703,"149 IVEY HAYES RD","PICKENS","SC","29671"
65704,"149 KELLY LANE","EL DORADO","AR","71730"
65705,"149 KIMBERLY AVENUE","BUFFALO","NY","14220"
65706,"149 LAKESIDE DRIVE SOUTH","LAWRENCE","NY","11559"
65707,"149 LATHAM WORKS LANE","WHITE RIVER JUNCTION","VT","05001"
65708,"149 LAWTON ROAD","MERRYVILLE","LA","70653"
65709,"149 LENOX AVE","PROVIDENCE","RI","02909"
65710,"149 LISLE LN","OREGONIA","OH","45054"
65711,"149 LOSSIE LN","MCDONOUGH","GA","30253"
65712,"149 LUCY LANE","NORTHFIELD","OH","44067"
65713,"149 MAIN ST","FRANCONIA","NH","03580"
65714,"149 MAIN STREET - PO BOX 252","EDGARTOWN","MA","02539"
65715,"149 MAIN STREET","THOMSON","GA","30824"
65716,"149 MAPLE ST","BURLINGTON","VT","05401"
65717,"149 MIDLAND AVE","GARFIELD","NJ","07026"
65718,"149 MITCHELL ROAD","HAMPTON","GA","30228"
65719,"149 N BENTON ST","PALATINE","IL","60067"
65720,"149 N MAIN STREET","GLEN CARBON","IL","62034"
65721,"149 NE 193RD STREET","SHORELINE","WA","98155"
65722,"149 NELSON ST","BATTLE CREEK","MI","49014"
65723,"149 NEW MONTGOMERY STREET","SAN FRANCISCO","CA","94105"
65724,"149 NW 14 TH STREET","POMPANO BEACH","FL","33060"
65725,"149 OAK LEAF RD","BERLIN","NJ","08009"
65726,"149 PACTOLUS ROAD","KINGSPORT","TN","37663"
65727,"149 PALO VERDES BLVD SUITE A","REDONDO BEACH","CA","90278"
65728,"149 PASEO DEL SOL","LAKE HAVASU CITY","AZ","86403"
65729,"149 PENNSYLVANIA AVE","MEDFORD","NY","11763"
65730,"149 PETERSON AVENUE","SOUTH PASADENA","CA","91030"
65731,"149 PETERSON ST","LEOMINSTER","MA","01453"
65732,"149 PINE HILL ROAD","BERWICK","ME","03901"
65733,"149 PLAYTER STREET","BUFFALO","NY","14212"
65734,"149 PRESIDENTIAL CIR","HEALDSBURG","CA","95448"
65735,"149 PUBLIC SQUARE","LEBANON","TN","37087"
65736,"149 QUEEN STREET","DOVER","DE","19904"
65737,"149 RHODE ISLAND AVENUE NW","WASHINGTON","DC","20001"
65738,"149 RICHMOND COURT","MARCO ISLAND","FL","34145"
65739,"149 RIVER RD","NORMAN","AR","71960"
65740,"149 RIVER ST","SALAMANCA","NY","14779"
65741,"149 ROUNTREE DR","CEDAR CITY","UT","84720"
65742,"149 ROUNTREE DRIVE","CEDAR CITY","UT","84720"
65743,"149 ROUTE 245","RUSHVILLE","NY","14544"
65744,"149 S BARRINGTON AVE STE 181","LOS ANGELES","CA","90049"
65745,"149 S BARRINGTON AVE UNIT 375","LOS ANGELES","CA","90049"
65746,"149 S HIGHLAND AVE","LOS ANGELES","CA","99036"
65747,"149 SAGE BRUSH LN","ROMANCE","AR","72136"
65748,"149 SALTONSTALL PARKWAY","EAST HAVEN","CT","06512"
65749,"149 SEACREST DRIVE","SEACREST","FL","32413"
65750,"149 SHELTER STREET","ROCHESTER","NY","14611"
65751,"149 SITTON ROAD NW","CALHOUN","GA","30701"
65752,"149 SOUTH GOULDSBORO ROAD","GOULDSBORO","ME","04607"
65753,"149 SOUTH ST","MANTECA","CA","95337"
65754,"149 STONEBRIAR BLVD","JUPITER","FL","33458"
65755,"149 STOW ROAD","HARVARD","MA","01451"
65756,"149 SYDNEY JO LANE","BERWICK","LA","70342"
65757,"149 TANO RD","SANTA FE","NM","87506"
65758,"149 TORREON DR","CLOVIS","NM","88101"
65759,"149 TWIN LAKE ROAD","GAFFNEY","SC","29341"
65760,"149 TWN LAKE RD","GAFFNEY","SC","29341"
65761,"149 VANNESS AVE","OTTUMWA","IA","52501"
65762,"149 W BAYAUD AVE","DENVER","CO","80223"
65763,"149 W PLUM ST","SOUTH ELGIN","IL","60177"
65764,"149 WALNUT HILL DRIVE SE","CALHOUN","GA","30701"
65765,"149 WATER AVE ELM SPRINGS","SPRINGDALE","AR","72762"
65766,"149 WATERCRESS CT","COLONIAL HEIGHTS","VA","23834"
65767,"149 WELTON WAY","MOORESVILLE","NC","28117"
65768,"149 WENDELL DEPOT RD","WENDELL","MA","01379"
65769,"149 WEST 33RD ST","LAROSE","LA","70373"
65770,"149 WEST MAIN RD","CONNEAUT","OH","44030"
65771,"149 WEST WAY DR","ALLEN","TX","75002"
65772,"149 WHIPPOORWILL DRIVE","CAMPOBELLO","SC","29322"
65773,"149 WILD WINGS BOULEVARD","JERSEY SHORE","PA","17740"
65774,"149 WILLIAMSBURG LN","LAKEWOOD","NJ","08701"
65775,"149 WILLIS ROAD","GOLDENDALE","WA","98620"
65776,"149 WISHING WELL LANE","SUNSET","SC","29685"
65777,"149 YEAGER RD","MOORESVILLE","NC","28117"
65778,"149-05 79TH AVENUE SUITE 619","FLUSHING","NY","11367"
65779,"149-14 14 AVENUE","FLUSHING","NY","11357"
65780,"149-14 14 AVENUE","WHITESTONE","NY","11357"
65781,"149-33 WILLETS POINT BLVD","WHITESTONE","NY","11357"
65782,"149-45 21 AVE","WHITESTONE","NY","11357"
65783,"149-47 ROOSEVELT AVENUE SUITE 3F","FLUSHING","NY","11354"
65784,"149-57 45TH AVE 2FL","FLUSHING","NY","11355"
65785,"149-F COLONIAL DRIVE","HARRISONBURG","VA","22801"
65786,"1490 ADELINE STREET","OAKLAND","CA","94607"
65787,"1490 BALL PARK RD","JEFFERSONVILLE","GA","31044"
65788,"1490 BALL PARK ROAD","JEFFERSONVILLE","GA","31044"
65789,"1490 BAY STREET","ALLENDALE","SC","29810"
65790,"1490 COCHRAN DRIVE","LAKE WORTH BEACH","FL","33461"
65791,"1490 DEERWOOD DR","DECATUR","GA","30030"
65792,"1490 DIAS DRIVE","SAN MARTIN","CA","95046"
65793,"1490 DUMONT AVE APT 8C","BROOKLYN","NY","11208"
65794,"1490 E FOREMASTER DR SUITE 100","ST GEORGE","UT","84790"
65795,"1490 E SCHOOL ROAD","CLAREMORE","OK","74019"
65796,"1490 EISENHOWER DRIVE","AUGUSTA","GA","30904"
65797,"1490 FITZHUGH","PARIS","TX","75460"
65798,"1490 FRANKLIN AVENUE","MINEOLA","NY","11501"
65799,"1490 GEORGE DIETER DRIVE SUITE A193","EL PASO","TX","79936"
65800,"1490 HARD ROAD","COLUMBUS","OH","43235"
65801,"1490 HELM RD","PICKENS","MS","39146"
65802,"1490 HIGHWAY 100 W","CENTERVILLE","TN","37033"
65803,"1490 HORNELL  LOOP","BROOKLYN","NY","11239"
65804,"1490 HORNELL LOOP 13B","BROOKLYN","NY","11239"
65805,"1490 HWY 99 STE A","GRIDLEY","CA","95948"
65806,"1490 KOKAI CIRCLE","DENVER","CO","80221"
65807,"1490 LEGION DR","COLUMBIA","SC","29229"
65808,"1490 MONTGOMERY STREET","TUSTIN","CA","92782"
65809,"1490 OLD LAKEPORT RD","MOORE HAVEN","FL","33471"
65810,"1490 PLEASANT HILL ROAD","LAFAYETTE","CA","94549"
65811,"1490 QUARTERPATH RD STE 5A-349","WILLIAMSBURG","VA","23185"
65812,"1490 S PRICE RD STE 301","CHANDLER","AZ","85286"
65813,"1490 SAINT FRANCIS DRIVE","ORANGE PARK","FL","32073"
65814,"1490 THOMAS AVENUE","NORTH BRUNSWICK","NJ","08902"
65815,"1490 TORREY RD SUITE D9","FENTON","MI","48430"
65816,"1490 UNION AVE SUITE 435","MEMPHIS","TN","38104"
65817,"1490 UNION AVE","MEMPHIS","TN","38104"
65818,"1490 W 1500 N","PROVO","UT","84604"
65819,"1490 WEST 68 STREET SUITE 201","HIALEAH","FL","33014"
65820,"1490-5A QUARTERPATH ROAD UNIT 263","WILLIAMSBURG","VA","23185"
65821,"14900 AVERY RANCH BLVD  SUITE C200","AUSTIN","TX","78717"
65822,"14900 AVERY RANCH BLVD STE C200","AUSTIN","TX","78717"
65823,"14900 DANA AVE","CLEVELAND","OH","44111"
65824,"14900 EAST CENTER AVE UNIT I","AURORA","CO","80012"
65825,"14900 HWY 238","GRANTS PASS","OR","97527"
65826,"14900 INTERURBAN AVE S STE 285","TUKWILA","WA","98168"
65827,"14900 INTERURBAN AVE S STE 290","TUKWILA","WA","98168"
65828,"14900 LEAR LANE","SILVER SPRING","MD","20905"
65829,"14900 MAGNOLIA BLVD   UNIT 5154","SHERMAN OAKS","CA","91413"
65830,"14900 MAGNOLIA BLVD NO 56925","SHERMAN OAKS","CA","91403"
65831,"14900 MAGNOLIA BLVD SUITE 5236","SHERMAN OAKS","CA","91403"
65832,"14900 MAGNOLIA ST SUITE 56834","SHERMAN OAKS","CA","91413"
65833,"14900 SOUTH BIRCH STREET SUITE 506","GLENPOOL","OK","74033"
65834,"14900 SW 30 STREET UNIT 277514","MIRAMAR","FL","33027"
65835,"14900 SW 30TH ST UNIT 277861","MIRAMAR","FL","33027"
65836,"14900 WILSHIRE","DETROIT","MI","48213"
65837,"14901 CAVELL ST","LIVONIA","MI","48154"
65838,"14901 EAST OLD SPANISH TRAIL","VAIL","AZ","85641"
65839,"14901 FM 1826","AUSTIN","TX","78737"
65840,"14901 INGLEWOOD AVE","LAWNDALE","CA","90260"
65841,"14901 NE CT","MIAMI","FL","33161"
65842,"14901 NW 7TH AVE","MIAMI","FL","33168"
65843,"14901 S HARVARD AVE E","BIXBY","OK","74008"
65844,"14901 SOUTH FERN","GLENPOOL","OK","74033"
65845,"14902 BRADWILL COURT","ROCKVILLE","MD","20850"
65846,"14902 LAUREL RD","LAUREL","DE","19956"
65847,"14902 MORA STREET SUITE B","WESTMINSTER","CA","92683"
65848,"14902 PRESTON RD STE 404-821","DALLAS","TX","75254"
65849,"14904 62ND AVE E","PUYALLUP","WA","98375"
65850,"14904 DOWNEY COURT","BOWIE","MD","20721"
65851,"14904 JEFFERSON DAVIS HWY SUITE 411","WOODBRIDGE","VA","22191"
65852,"14904 JUDSON DR","EUCLID","OH","44132"
65853,"14905 CAMBRIDGE LN","ATHENS","AL","35613"
65854,"14905 FORT TRAIL","ACCOKEEK","MD","20607"
65855,"14905 GREYMONT DR","CENTREVILLE","VA","20120"
65856,"14905 HOPEDALE COURT","UPPER MARLBORO","MD","20774"
65857,"14905 OAK BOWER ROAD","MULBERRY","AR","72947"
65858,"14906 CHADBOURNE DRIVE","HOUSTON","TX","77079"
65859,"14906 E ILIFF PL","AURORA","CO","80014"
65860,"14906 E ILIFF PLACE","AURORA","CO","80014"
65861,"14906 MOUNT CALVERT RD","UPPER MARLBORO","MD","20772"
65862,"14906 RIDGE FARM COURT","BOWIE","MD","20715"
65863,"14906 STONEBRIAR WAY","ORLANDO","FL","32826"
65864,"14906 WESTPARK DRIVE  APT 1632","HOUSTON","TX","77082"
65865,"14907 NE 27TH ST","VANCOUVER","WA","98684"
65866,"14908 COLLEGE","ALLEN PARK","MI","48101"
65867,"14908 HARTFORD RUN DR","ORLANDO","FL","32828"
65868,"14908 N 130TH LANE","EL MIRAGE","AZ","85335"
65869,"14908","GRANDVIEW","MO","64030"
65870,"14909 BOLLINGER RD","ROCKY RIDGE","MD","21778"
65871,"14909 HEALTH CENTER DRIVE","BOWIE","MD","20716"
65872,"14909 SW 80 ST 216","MIAMI","FL","33193"
65873,"1491 ASTER AEVENUE","AKRON","OH","44301"
65874,"1491 COUNTY ROAD 1000 E","CARMI","IL","62821"
65875,"1491 DOGWOOD DRIVE","ORANGEBURG","SC","29118"
65876,"1491 HESS ROAD APT 324","REDWOOD CTY","CA","94061"
65877,"1491 NORTH OXFORD AVENUE","PASADENA","CA","91104"
65878,"1491 NORTHCREST DR","HIGHLANDS RANCH","CO","80126"
65879,"1491 PARTRIDGE DRIVE","GILROY","CA","95020"
65880,"1491 POLARIS PARKWAY","COLUMBUS","OH","43240"
65881,"1491 POLARIS PKWY SUITE 181","COLUMBUS","OH","43240"
65882,"1491 RAMBLA BRISA","SAN MARCOS","CA","92069"
65883,"1491 SECRETARIAT DRIVE","HELENA","AL","35080"
65884,"1491 SOUTH COUNTY ROAD 250 WEST","DANVILLE","IN","46122"
65885,"1491 TOWERS STREET","LAKEWOOD","NJ","08701"
65886,"1491 VIALL HILL RD","WYALUSING","PA","18853"
65887,"14910 99TH AVE SE","YELM","WA","98597"
65888,"14910 ASHFORD COURT","LAUREL","MD","20707"
65889,"14910 BRAEMAR CRESCENT WAY","DARNESTOWN","MD","20878"
65890,"14910 CAROLINA FALLS LANE","CYPRESS","TX","77433"
65891,"14910 LOC LOMEN LN","ANCHORAGE","AK","99516"
65892,"14910 MILL BRANCH LANE","SUGARLAND","TX","77498"
65893,"14910 N DALE MABRY HWY","TAMPA","FL","33618"
65894,"14910 PERRIS BLVD STE B172","PERRIS","CA","92555"
65895,"14910 WOODLAND DAWN","HUMBLE","TX","77396"
65896,"14911 BRONZE FINCH DR","CYPRESS","TX","77433"
65897,"14911 E 127TH STREET","LEMONT","IL","60439"
65898,"14911 E CHANDLER HEIGHTS RD","CHANDLER","AZ","85249"
65899,"14911 ROSEMONT","MICHIGAN","MI","48223"
65900,"14911 SE FRANCESCA LANE","HAPPY VALLEY","OR","97086"
65901,"14911 WEST 127TH STREET","LEMONT","IL","60439"
65902,"14912 COUNTY RD 45","TYLER","TX","75704"
65903,"14913 GREENLEAF VALLEY DR","CHESTERFIELD","MO","63017"
65904,"14913 MILVERTON ROAD","CLEVELAND","OH","44120"
65905,"14914 STONEY BROOK","SHELBY TOWNSHIP","MI","48315"
65906,"14915 63RD DR SE","SNOHOMISH","WA","98296"
65907,"14915 W 58TH PLACE","GOLDEN","CO","80403"
65908,"14915 WEST 58TH PLACE","GOLDEN","CO","80403"
65909,"14916 ABILENE WAY","WOODBRIDGE","VA","22193"
65910,"14916 AUSTIN AVE SE","MONROE","WA","98272"
65911,"14916 N ELM DR","DOLAN SPRINGS","AZ","86441"
65912,"14916 W REITER DRIVE","HOMER GLEN","IL","60491"
65913,"14917 BROOKSIDE DR","VAN BUREN TOWNSHIP","MI","48111"
65914,"14917 DARWIN AVENUE","CLEVELAND","OH","44110"
65915,"14917 EVERSHINE ST","TAMPA","FM","33624"
65916,"14917 SCHOONER DRIVE","CORPUS CHRISTI","TX","78418"
65917,"14918 11TH AVE CT E","TACOMA","WA","98445"
65918,"14918 27TH PL S","SEATAC","WA","98188"
65919,"14918 84TH AVE NE","KENMORE","WA","98028"
65920,"1492 BELLMORE AVE","NORTH BELLMORE","NY","11710"
65921,"1492 COUNTY RD B NO 210","MAPLEWOOD","MN","55109"
65922,"1492 E BROAD ST SUITE 1203","COLUMBUS","OH","43205"
65923,"1492 HENDRIE","CANTON","MI","48187"
65924,"1492 OLD BRIDGE ROAD","AMISSVILLE","VA","20106"
65925,"1492 PARK AVENUE","PARK CITY","UT","84060"
65926,"1492 SIENA LANE","BOYNTON BEACH","FL","33436"
65927,"1492 SOUTH MIAMI AVENUE","MIAMI","FL","33130"
65928,"14920 84TH STREET","HOWARD BEACH","NY","11414"
65929,"14920 DEARBORN SREET","DOLTON","IL","60419"
65930,"14920 DEARBORN STREET","DOLTON","IL","60419"
65931,"14920 E BRIARWOOD RD","MARSHALL","IL","62441"
65932,"14920 LASALLE STREET","DOLTON","IL","60419"
65933,"14920 WELLWOOD RD","SILVER SPRING","MD","20905"
65934,"14920 WELLWOOD ROAD","SILVER SPRING","MD","20905"
65935,"14921 ATHEL AVE","IRVINE","CA","92606"
65936,"14921 PIEDMONT ST","DETROIT","MI","48223"
65937,"14921 S STANFORD APT 140G","COMPTON","CA","90220"
65938,"14921 S STANFORD AVE 127K","COMPTON","CA","90220"
65939,"14921 STANFORD AVE APT A208","COMPTON","CA","90220"
65940,"14921 STANFORD AVENUE APT 219K","COMPTON","CA","90220"
65941,"14922 NW TWINFLOWER DR","PORTLAND","OR","97229"
65942,"14922 TRECASTLE DR","CHANNELVIEW","TX","77530"
65943,"14924 CHEYENNE","DETROIT","MI","48227"
65944,"14924 MUSTANG TRAIL","FISHERS","IN","46040"
65945,"14924 ROSLYN DRIVE","HORIZON CITY","TX","79928"
65946,"14924 S EDBROOKE STREET","DOLTON","IL","60419"
65947,"14925 ENERGY WAY","APPLE VALLEY","MN","55124"
65948,"14925 FIRST BAPTIST LANE","LAUREL","MD","20707"
65949,"14925 GEMINI DR","HUNTERTOWN","IN","46748"
65950,"14925 HAWTHORNE AVENUE","OMAHA","NE","68154"
65951,"14925 MAGNOLIA BLVD 113","SHERMAN OAKS","CA","91403"
65952,"14925 PINEWOOD DR","PRIDE","LA","70770"
65953,"14925 SW 22 STREET","MMIAMI","FL","33185"
65954,"14925 SW BARROWS ROAD BOX 109-143","BEAVERTON","OR","97007"
65955,"14927 GAGELY APT 14","LA MIRADA","CA","90638"
65956,"14927 SE CEDAR AVE","OAK GROVE","OR","97267"
65957,"14928 99TH AVE SE","YELM","WA","98597"
65958,"14928 BASSETT STREET","VAN NUYS","CA","91405"
65959,"14929 BELLE AMI DRIVE","LAUREL","MD","20707"
65960,"14929 GARFIELD AVE","PARAMOUNT","CA","90723"
65961,"14929 SOUTH NORMANDIE AVENUE 2","GARDENA","CA","90247"
65962,"1493 FISCHER ST","DETROIT","MI","48214"
65963,"1493 HICKORY RUN DRIVE","COLUMBUS","OH","43204"
65964,"1493 INDIAN PASS ROAD","PORT ST JOE","FL","32456"
65965,"1493 N LARRABEE ST APT B","CHICAGO","IL","60610"
65966,"1493 OPHIR RD","CASTLEROCK","CO","80109"
65967,"1493 WEST 500 SOUTH","LAYTON","UT","84041"
65968,"1493 WEST INDIANAPOLIS AVENUE","FRESNO","CA","93705"
65969,"1493 WHITE FLOWER LANE","LAWRENCEVILLE","FL","30045"
65970,"14930 NW 8TH AVE","MIAMI","FL","33168"
65971,"14930 TURRET RUN","SAN ANTONIO","TX","78248"
65972,"14931 MAGNOLIA BLVD APT 4","SHERMAN OAKS","CA","91403"
65973,"14931 SW 70 ST","MIAMI","FL","33193"
65974,"14932 JERRY ARMSTRONG CT","EL PASO","TX","79938"
65975,"14932 SHERIDAN AVE","CLIVE","IA","50325"
65976,"14933 N 97TH PLACE","SCOTTSDALE","AZ","85260"
65977,"14933 SE JACKSON HILLS DR","HAPPY VALLEY","OR","97086"
65978,"14934 PROSPECT","DEARBORN","MI","48126"
65979,"14934 W DORNER ROAD","BRODHEAD","WI","53520"
65980,"14934 WEST DORNER ROAD","BRODHEAD","WI","53520"
65981,"14935 SOUTH RICHMOND - SUITE 1314","HOUSTON","TX","77082"
65982,"14935 SUGAR MIST LN","SUGAR LAND","TX","77498"
65983,"14937 BAUMAN AVE","OMAHA","NE","68116"
65984,"14937 BEGONIA DR","FRISCO","TX","75035"
65985,"14937 COG HILL LANE","HOMER GLEN","IL","60491"
65986,"14937 SHERMAN WAY UNIT 4","VAN NUYS","CA","91405"
65987,"14938 BALLANTYNE COUNTRY CLUB DRIVE","CHARLOTTE","NC","28277"
65988,"14938 CAMDEN AVE 252","SAN JOSE","CA","95124"
65989,"14938 CAMDEN AVE BOX 62","SAN JOSE","CA","95124"
65990,"14938 CAMDEN AVE STE 125","SAN JOSE","CA","95124"
65991,"14938 HOOD ROAD","DENHAM SPRINGS","LA","70726"
65992,"14939 91ST AVE SE","YELM","WA","98597"
65993,"14939 BECKETT RD","SEAGOVILLE","TX","75159"
65994,"14939 BUTLER AVE","OMAHA","NE","68116"
65995,"14939 SW 11 LANE","MIAMI","FL","33194"
65996,"14939 W CONCORD CT","WADSWORTH","IL","60083"
65997,"1494  SW BALMORAL TRAC","STUART","FL","34997"
65998,"1494 ARCADIA BLVD","BULLHEAD CITY","AZ","86442"
65999,"1494 CHURCHVILLE ROAD","WEST POINTV","VA","23181"
66000,"1494 CR 433","STOCKDALE","TX","78160"
