"ID","Address","City","State","Zip"
193001,"3832 JACINTO DR","SAINT LOUIS","MO","62125"
193002,"3832 LAKE HURON DRIVE","HARVEY","LA","70058"
193003,"3832 LAKEHURST DR","MEMPHIS","TN","38128"
193004,"3832 LEE ADAMS LANE","LEXINGTON","KY","40514"
193005,"3832 MARSH ROAD","GARNET VALLEY","PA","19060"
193006,"3832 N 86TH STREET","MILWAUKEE","ID","53222"
193007,"3832 NORTHEAST 113TH","PORTLAND","OR","97220"
193008,"3832 OAK AVENUE","MONTGOMERY","AL","36109"
193009,"3832 S G ST","TACOMA","WA","98418"
193010,"3832 SMITH KRAMER ST NE","HARTVILLE","OH","44632"
193011,"3832 SUGAR CREEK CIRCLE","PORTSMOUTH","VA","23703"
193012,"38326 6TH ST EAST","PALMDALE","CA","93550"
193013,"3833 ALDERSYDE DRIVE","KELLER","TX","76244"
193014,"3833 BEAR CANYON CIR","SEDALIA","CO","80135"
193015,"3833 BIRCHWOOD CIRCLE","HARRISBURG","PA","17110"
193016,"3833 CIDERMILL DRIVE","COLUMBUS","OH","43204"
193017,"3833 E 6TH STREET","LOS ANGELES","CA","90023"
193018,"3833 GATES RD","VESTAL","NY","13850"
193019,"3833 HOLLY COURT","ZELLWOOD","FL","32798"
193020,"3833 KINGSWAY DRIVE","CROWN POINT","IN","46307"
193021,"3833 LEE ADAMS LANE","LEXINGTON","KY","40514"
193022,"3833 MARINERS WAY","LEWIS CENTER","OH","43035"
193023,"3833 MCREE AVE","SAINT LOUIS","MO","63110"
193024,"3833 NOBEL DRIVE APT 3432","SAN DIEGO","CA","92122"
193025,"3833 ORIELY DR","JACKSONVILLE","FL","32210"
193026,"3833 S HARLEM AVENUE","BERWYN","IL","60402"
193027,"3833 SE 166TH CT","PORTLAND","OR","97236"
193028,"3833 SHELLEY ROAD N","WEST PALM BEACH","FL","33407"
193029,"3833 STOCKPORT DRIVE","PLANO","TX","75025"
193030,"3833 SWAN RIDGE DR","ANTIOCH","TN","37013"
193031,"3833 W 180TH PLACE","TORRANCE","CA","90504"
193032,"3833 WEBSTER STREET","OMAHA","NE","68131"
193033,"3833 WESTLAWN DRIVE","AMES","IA","50010"
193034,"3833","DENVER","CO","80205"
193035,"38332 HIGHWAY 929","PRAIRIEVILLE","LA","70769"
193036,"38335 CANAL ST","OCEAN VIEW","DE","19970"
193037,"3834 175TH AVE NE APT A108","REDMOND","WA","98052"
193038,"3834 BROWN DR","DECATUR","GA","30034"
193039,"3834 CURVEY LANE","HOUSTON","TX","77047"
193040,"3834 E PIPER GROVE DR","KATY","TX","77449"
193041,"3834 ELK RUN DRIVE","CASTLE ROCK","CO","80109"
193042,"3834 FLATWOOD DRIVE","KATY","TX","77449"
193043,"3834 GUILFORD AVENUE NW","CANTON","OH","44718"
193044,"3834 HIXON AVE","SAINT CLOUD","FL","34772"
193045,"3834 LOMOND COURT","GREENWOOD","IN","46143"
193046,"3834 PRIMM STREET","SAINT LOUIS","MO","63123"
193047,"3834 W JARLATH","LINCOLNWOOD","IL","60712"
193048,"38344 16TH ST EAST","PPALMDALE","CA","93550"
193049,"38348 BROWN ROAD","PRAIRIEVILLE","LA","70769"
193050,"3835 9TH STREET PH1E","ARLINGTON","VA","22203"
193051,"3835 ASPEN ST","PHILADELPHIA","PA","19104"
193052,"3835 BELLINI RD","MANVEL","TX","77578"
193053,"3835 BLAKE ROAD","HUNTINGDON VALLEY","PA","19006"
193054,"3835 CENTRAL AVE","WESTERN SPRINGS","IL","60558"
193055,"3835 E THOUSAND OAKS BLVD STE 238","WESTLAKE VILLAGE","CA","91362"
193056,"3835 E THOUSAND OAKS BLVD STE R-218","WESTLAKE VILLAGE","CA","91362"
193057,"3835 EAST 50TH ST","CLEVELAND","OH","44105"
193058,"3835 ELM STREET","DENVER","CO","80207"
193059,"3835 ELMCROFT ROAD","RANDALLSTOWN","MD","21133"
193060,"3835 FREEPORT BLVD","SACRAMENTO","CA","95822"
193061,"3835 HORTON HIGHWAY","GREENEVILLE","TN","37745"
193062,"3835 LINKLEA DRIVE","HOUSTON","TX","77025"
193063,"3835 MCCARTY DRIVE","CANFIELD","OH","44406"
193064,"3835 MYRTLE ST","SARASOTA","FL","34235"
193065,"3835 MYRTLE STREET","SARASOTA","FL","34235"
193066,"3835 N BELTLINE RD APT 1801","IRVING","TX","75038"
193067,"3835 N KILDARE AVE","CHICAGO","IL","60641"
193068,"3835 NORTH ANDREWS AVE","OAKLAND PARK","FM","33309"
193069,"3835 PLANT ROAD","TALLADEGA","AL","35160"
193070,"3835 RALEIGHT MILLINGTON ROAD","MEMPHIS","TN","38128"
193071,"3835 RICHLAND PKWY","BROOKFIELD","WI","53045"
193072,"3835 RIVER RD","LINCOLN PARK","MI","48146"
193073,"3835 SAWGRASS COURT","LAKELAND","FL","33810"
193074,"3835 STATE ROAD P","FESTUS","MO","63028"
193075,"3835 SUNFLOWER CIRCLE","BOWIE","MD","20721"
193076,"3835 SWIFT AVE","SAN DIEGO","CA","92104"
193077,"3835 W WALTON BLVD","WATERFORD","MI","48329"
193078,"3835 WARREN CHAPEL RD","MARIETTA","OH","45750"
193079,"3835 WITHERING ELM LANE","SPRING","TX","77386"
193080,"38355 HILLCREST DRIVE","PALMDALE","CA","93551"
193081,"3836 ASPEN STREET","PHILADELPHIA","PA","19104"
193082,"3836 BELDEN COURT NE","CEDAR RAPIDS","IN","52402"
193083,"3836 CARRIAGE HILL DR","FREDERICK","MD","21704"
193084,"3836 DOVER PLACE  APT A","ST LOUIS","MO","63116"
193085,"3836 E 56TH PLACE","TULSA","OK","74135"
193086,"3836 ENCHANTMENT LANE","SAINT CLOUD","FL","34772"
193087,"3836 IRON WEDGE ROAD","ORLANDO","FL","32808"
193088,"3836 IRONWOOD LANE","TERRE HAUTE","IN","47802"
193089,"3836 JUTLAND ST","EDINBURG","TX","78542"
193090,"3836 MAIN ST NE","COLUMBIA HEIGHTS","MN","55411"
193091,"3836 MIDVALE ROAD","TUCKER","GA","30084"
193092,"3836 NE 68TH AVE","PORTLAND","OR","97213"
193093,"3836 NORTHWEST 4TH STREET","FORT LAUDERDALE","FL","33311"
193094,"3836 OAK GROVE ROAD","LOGANVILLE","GA","30052"
193095,"3836 RIVERSIDE PKWY","DECATUR","GA","30034"
193096,"3836 STATE ROUTE 41 NW","WASHINGTON COURT HOU","OH","43160"
193097,"3836 SUNSET COVE","PORT ORANGE","FL","32129"
193098,"3836 W AVENUE 43 UNIT 1-4","LOS ANGELES","CA","90041"
193099,"3836 YORKLAND DR NW APT 7","COMSTOCK PARK","MI","49321"
193100,"38360 ARCOLA DRIVE","STERLING HEIGHTS","MI","48312"
193101,"38369 AMARYLLIS PLS","NEWARK","CA","94560"
193102,"3837 12TH STREET SE APT 45","SALEM","OR","97302"
193103,"3837 BEAUMONT LANE","PLANO","TX","75023"
193104,"3837 CENTRAL AVE NE","COLUMBIA HEIGHTS","MN","55421"
193105,"3837 EAST COCONINO STREET","PHOENIZ","AZ","85044"
193106,"3837 GRAND AVENUE APT C","MACON","GA","31204"
193107,"3837 LAUREL CREST DRIVE","SNELLVILLE","GA","30039"
193108,"3837 N CIRCLE DR","HOLLYWOOD","FL","33021"
193109,"3837 N WARSON ROAD","ST LOUIS","MO","63132"
193110,"3837 NORTH DELHI STREET","PHILADLEPHIA","PA","19140"
193111,"3837 S 12TH ST","TACOMA","WA","98405"
193112,"3837 WINDSOR PLACE","ST LOUIS","MO","63113"
193113,"38374 MAISON DE LANE DRIVE","DENHAM SPRINGS","LA","70706"
193114,"3838 GUERNSEY AVE","STOCKTON","CA","95215"
193115,"3838 ISLAND MOUNTAIN RD","GABERVILLE","CA","95542"
193116,"3838 KIRKWOOD RUN","KENNESAW","GA","30144"
193117,"3838 LAKELAND HILLS BLVD","LAKELAND","FL","33805"
193118,"3838 MIZELL ROAD  APT G","GREENSBORO","NC","27405"
193119,"3838 OAK LAWN AVE STE 1000 PMB-792","DALLAS","TX","75219"
193120,"3838 OAK LAWN AVE SUITE 1000","DALLAS","TX","75219"
193121,"3838 OAK LAWN AVENUE SUITE 100","DALLAS","TX","75219"
193122,"3838 RAYMERT DR SUITE 109","LAS VEGAS","NV","89121"
193123,"3838 RAYMERT DRIVE STE 208","LAS VEGAS","NV","89121"
193124,"3838 RUSTIC MANOR COURT","TRAVERSE CITY","MI","49685"
193125,"3838 SOUTH CAPITOL ST SE APT 101","WASHINGTON","DC","20032"
193126,"3838 SPUR 408","DALLAS","TX","75236"
193127,"3838 ULSTER RD","ULSTER","PA","18850"
193128,"3838 W 6TH ST","LAWRENCE","KS","66049"
193129,"3838 W ANGELA DRIVE","PHOENIX","AZ","85308"
193130,"3838 W CARSON ST","TORRANCE","CA","90503"
193131,"3838 WEST FILLMORE ST","CHICAGO","IL","60624"
193132,"38384 HWY 42","PRAIRIEVILLE","LA","70769"
193133,"3839 49TH AVE NE","SEATTLE","WA","98105"
193134,"3839 51ST AVE SW","SEATTLE","WA","98116"
193135,"3839 ABERDEEN WAY","HOUSTON","TX","77025"
193136,"3839 AMANDA ST APT M133","WEST COVINA","CA","91792"
193137,"3839 ATLANTIC ROAD","PALM BEACH GARDENS","FL","33410"
193138,"3839 BRANDYWINE STREET","PHILADELPHIA","PA","19104"
193139,"3839 BRIARGROVE LANE 2303","DALLAS","TX","75287"
193140,"3839 CROSS KEYS HWY","UNION","SC","29379"
193141,"3839 DRY CREEK DR UNIT 219","AUSTIN","TX","78731"
193142,"3839 E HUNTINGTON BLVD","FRESNO","CA","93702"
193143,"3839 ELMWOOD DR","HOLIDAY","FL","34691"
193144,"3839 LABYRINTH ROAD","BALTIMORE","MD","21215"
193145,"3839 MCINNKEY VE 155-7757","DALLAS","TX","75204"
193146,"3839 MCKINNEY AVE SUITE 155-2203","DALLAS","TX","75204"
193147,"3839 MCKINNEY AVE SUITE 155","DALLAS","TX","75204"
193148,"3839 MCKINNEY AVE","DALLAS","TX","75204"
193149,"3839 MCKINNEY AVENUE APARTMENT 313","DALLAS","TX","75204"
193150,"3839 MCKINNEY AVENUE SUITE 155-2034","DALLAS","TX","75204"
193151,"3839 MCKINNEY AVENUE SUITE 155-2260","DALLAS","TX","75204"
193152,"3839 MCKINNEY AVENUE","DALLAS","TX","75204"
193153,"3839 MOHAWK STREET","PASADENA","CA","91107"
193154,"3839 MOUNTAIN COVE DRIVE","CHARLOTTE","NC","28216"
193155,"3839 NE 174TH TERRACE","SILVER SPRINGS","FL","34488"
193156,"3839 NW BOCA RATON BLVD STE 100","BOCA RATON","FL","33431"
193157,"3839 NW BOCA RATON BLVD","BOCA RATON","FL","33431"
193158,"3839 SUNDALE WAY W","MEMPHIS","TN","38135"
193159,"3839 W GRAND AVENUE","CHICAGO","IL","60651"
193160,"3839 WHEATON CT","SNELLVILLE","GA","30039"
193161,"3839 WILLOW STONE CT","KATY","TX","77449"
193162,"38398 OAKLEIGH LANE","PRAIRIEVILLE","LA","70769"
193163,"384 15TH STREET NORTH","ST PETERSBURG","FL","33705"
193164,"384 190TH RD","LEONA","KS","66532"
193165,"384 AVEY CIR","COOKEVILLE","TN","38506"
193166,"384 B BAYVILLE AVE","BAYVILLE","NY","11709"
193167,"384 BRYANT RD","REEVESVILLE","SC","29471"
193168,"384 C CARRIAGE HOUSE DRIVE","JACKSON","TN","38305"
193169,"384 CHAMPLIN ROAD","GROTON","NY","13073"
193170,"384 CINDY DRIVE","FAIRBANKS","AK","99701"
193171,"384 COLLAR PRICE RD SE","BROOKFIELD","OH","44403"
193172,"384 CR 42520","PARIS","TX","75462"
193173,"384 CREST DRIVE","BALLWIN","MO","63021"
193174,"384 E FERNWOOD STREET","MORTON","IL","61550"
193175,"384 EAST GOODMAN ROAD SUITE 248","SOUTHAVEN","MS","38671"
193176,"384 GOODMAN RD E 127","SOUTHAVEN","MS","38671"
193177,"384 HERKIMER ST","BUFFALO","NY","14213"
193178,"384 HIGH ST 3 FLOOR","HOLYOKE","MA","01040"
193179,"384 KAPANUI PL","WAILUKU","HI","96793"
193180,"384 LAUGHLIN ROAD","STRATFORD","CT","06614"
193181,"384 LUM CROWE ROAD","ROSWELL","GA","30075"
193182,"384 MADISON AVENUE","AKRON","OH","44320"
193183,"384 MARINA BLVD","BULLHEAD CITY","AZ","86442"
193184,"384 MARK TREE RD","EAST SETAUKET","NY","11733"
193185,"384 NORTHYARD BLVD NW STE 100","ATLANTA","GA","30313"
193186,"384 NORTHYARDS BLVD NW STE 100","ATLANTA","GA","30313"
193187,"384 NORTHYARDS BLVD NW","ATLANTA","GA","30313"
193188,"384 NW PALM DR","LAKE CITY","FL","32055"
193189,"384 PALMETTO DR","MIAMI SPRINGS","FL","33166"
193190,"384 PALMETTO DR","MIAMI SPRINGS","FM","33166"
193191,"384 PATRICIA CT","CARMEL","IN","46033"
193192,"384 PEA RIDGE RD","STANARDSVILLE","VA","22973"
193193,"384 PFISTER ROAD","JACKSON","NJ","08527"
193194,"384 RACETRACK RD","MCDONOUGH","GA","30252"
193195,"384 RALPH MCGILL BLVD 218","ATLANTA","GA","30312"
193196,"384 RALPH MCGILL BLVD NE UNIT 111","ATLANTA","GA","30312"
193197,"384 RALPH MCGILL BLVD UNIT 212","ATLANTA","GA","30312"
193198,"384 RALPH MCGILL BLVD UNIT 220","ATLANTA","GA","30312"
193199,"384 REFLECTIONS DRIVE APT 102","VIRGINIA BEACH","VA","23452"
193200,"384 S COUNTY TRAIL","NORTH KINGSTOWN","RI","02852"
193201,"384 S19TH ST","NEWAK","NJ","07103"
193202,"384 SCENIC AVE","SANTA ROSA","CA","95407"
193203,"384 SOUTH SECOND ST","SAN JOSE","CA","95113"
193204,"384 SOUTH SECOND STREET","SAN JOSE","CA","95113"
193205,"384 VILLAGE DRIVE","ST AUGUSTINE","FL","32084"
193206,"384 VOTERS ROAD  SUITE 103","SLIDELL","LA","70461"
193207,"384 W CENTER STREET","PROVO","UT","84601"
193208,"384 WHITLOW ST","NEW BEDFORD","MA","02746"
193209,"384 WHITTIER DRIVE","PITTSBURGH","PA","15235"
193210,"384 YOUNG WAY","RICHMOND HILL","GA","31324"
193211,"384 YUMA ROAD","WILKINSON","WV","25653"
193212,"3840 2ND STREET","WEYERHAEUSER","WI","54895"
193213,"3840 46TH AVE S","ST PETERSBURG","FL","33711"
193214,"3840 BISHOPS FLOWER ROAD","FORT WORTH","TX","76109"
193215,"3840 BLACKHAWK RD  STE 105","DANVILLE","CA","94506"
193216,"3840 BRIARCHASE DR","HOUSTON","TX","77014"
193217,"3840 BROWNS BRIDGE RD","CUMMING","GA","30041"
193218,"3840 CORPORATE CENTER DRIVE","BRYAN","TX","77802"
193219,"3840 E ROBINSON RD 309","AMHERST","NY","14228"
193220,"3840 EAST ROBINSON ROAD BOX 293","AMHERST","NY","14228"
193221,"3840 ENOS AVENUE","OAKLAND","CA","94619"
193222,"3840 FADI DR","TROY","MI","48084"
193223,"3840 FRANKMONT RD","NORTH CHESTERFIELD","VA","23234"
193224,"3840 GRAVOIS AVE FL2","ST. LOUIS","MO","63116"
193225,"3840 HULEN STREET SUITE 603","FORT WORTH","TX","76107"
193226,"3840 IRONWOOD LANE APT 206","BRADENTON","FM","34209"
193227,"3840 KENSINGWOOD TRACE","DECATUR","GA","30032"
193228,"3840 LAKESIDE DRIVE","SHREVEPORT","LA","71119"
193229,"3840 LIGHTFOOT STREET UNIT 247","CHANTILLY","VA","20151"
193230,"3840 LISTERMAN ROAD","HOWELL","MI","48855"
193231,"3840 LOWER ROSWELL ROAD","MARIETTA","GA","30068"
193232,"3840 MARQUETTE DRIVE","MONTGOMERY","AL","36109"
193233,"3840 MONA DRIVE APT A","ZANESVILLE","OH","43701"
193234,"3840 MOTOR AVENUE SUITE 10","CULVER CITY","CA","90232"
193235,"3840 NORTH ST CLAIR AVE - STE C","OKLAHOMA CITY","OK","73112"
193236,"3840 RIDGEWOOD /4083","COPLEY","OH","44321"
193237,"3840 RUNESTAD CIRCLE","ANCHORAGE","AK","99502"
193238,"3840 S 74 ST","MILWAUKEE","WI","53220"
193239,"3840 S NARCISSUS WAY","DENVER","CO","80237"
193240,"3840 SAVANNAH ROAD","FREMONT","CA","94538"
193241,"3840 SW DOSCH RD","PORTLAND","OR","97239"
193242,"3840 TRAM COURT","ORLANDO","FL","32810"
193243,"3840 W BROWARD BLVD APT 101","FORT LAUDERDALE","FL","33312"
193244,"3840 WASHINGTON AVENUE","CINCINNATI","OH","45229"
193245,"3840 WHITE PLAINS ROAD","BRONX","NY","10467"
193246,"3840 WILLOW TREE CIRCLE","DOUGLASVILLE","GA","30135"
193247,"3840 WOLVERTON CIR","LITHONIA","GA","30038"
193248,"3840 YORK ST","DENVER","CO","80205"
193249,"3840","WEST SACRAMENTO","CA","95691"
193250,"38400 N SCHOOL HOUSE RD  NUM 106","CAVE CREEK","AZ","85331"
193251,"38407 OLIVER WAY","FREMONT","CA","94536"
193252,"3841 BAILEY ROAD","MAGNOLIA","KY","42757"
193253,"3841 BELLA  ISOLA LANE","PERRIS","CA","92571"
193254,"3841 BELLEAU WOOD DR APT 3","LEXINGTON","KY","40517"
193255,"3841 CASH DR","WINSTON-SALEM","NC","27107"
193256,"3841 DONNINGTON DR","VIRGINIA BEACH","VA","23456"
193257,"3841 E AGATE RD","SHELTON","WA","98584"
193258,"3841 E DUBOIS AVE","GOLBERT","AZ","85298"
193259,"3841 MEADOWLARK CIR","GRAND ISLAND","NE","68803"
193260,"3841 N FRANCISCO AVE","CHICAGO","IL","60618"
193261,"3841 NE 17TH AVENUE","OAKLAND PARK","FL","33334"
193262,"3841 NW 208 STREET","MIAMI","FL","33055"
193263,"3841 REID STREET","PALATKA","FL","32177"
193264,"3841 ROLLINGSFORD CIRCLE","LAKELAND","FL","33810"
193265,"3841 S BROADWAY STREET","SAINT LOUIS","MO","63118"
193266,"3841 SETTINERI LANE","SPRING VALLEY","CA","91977"
193267,"3841 SMITH STREET","UNION CITY","CA","94587"
193268,"3841 SUNBRIDGE DRIVE","SNELLVILLE","GA","30039"
193269,"3841 US ROUTE 20 EAST","WAKEMAN","OH","44889"
193270,"3841 W 69TH AVE","MANHATTAN","KS","66503"
193271,"3841 W SEAGULL DR","WEST VALLEY","UT","84120"
193272,"3841 WOODHILL LANE NE","CLEVELAND","TN","37312"
193273,"38415 SCHOOLCRAFT RD","LIVONIA","MI","48323"
193274,"3842 DOMINION MILL DRIVE","ALEXANDRIA","VA","22304"
193275,"3842 EDWARDS AVE","NASHVILLE","TN","37216"
193276,"3842 GILPIN STREET","DENVER","CO","80205"
193277,"3842 HARLEM RD  STE 400","BUFFALO","NY","14215"
193278,"3842 HARLEM ROAD SUITE 400-119","CHEEKTOWAGA","NY","14215"
193279,"3842 HIGHLAND AVE","SKANEATELES","NY","13152"
193280,"3842 KENWOOD CIR","JOHN","CO","80534"
193281,"3842 KILLEWICH","JUNEAU","AK","99801"
193282,"3842 KINSEY DRIVE","COLUMBUS","OH","43224"
193283,"3842 MANTELL AVE","CINCINNATI","OH","45236"
193284,"3842 PINE GROVE AVENUE","FORT GRATIOT","MI","48059"
193285,"3842 SOUTH ORANGE BLOSSOM TRAIL","ORLANDO","FL","32839"
193286,"3842 SPAD PLACE","CULVER CITY","CA","90232"
193287,"3842 STREAM DRIVE","MELB","FL","32940"
193288,"3842 STUYVESANT NE","GRAND RAPIDS","MI","49525"
193289,"3842 SUMANTRA CLIFF","SAN ANTONIO","TX","78261"
193290,"38420 5TH AVE","ZEPHYRHILLS,","FL","33542"
193291,"38425 E BENTON RD","HEMET","CA","92544"
193292,"38426 N HOEGLUND ST","LAKE VILLA","IL","60046"
193293,"3843 50TH STREET","LUBBOCK","TX","79413"
193294,"3843 BAY PATH DR","AKRON","OH","44319"
193295,"3843 BLACKWOOD CT","BLUE ASH","OH","45236"
193296,"3843 BRIARGATE LN","FAYETTEVILLE","NC","28314"
193297,"3843 DEER SPRINGS DR","OAKLAND TOWNSHIP","MI","48306"
193298,"3843 E 37TH STREET","TUCSON","AZ","85713"
193299,"3843 MANITO CT","MIDDLETON","WI","53562"
193300,"3843 N CALIFORNIA AVENUE","CHICAGO","IL","60618"
193301,"3843 PURITAN AVENUE","DETROIT","MI","48238"
193302,"3843 SOUTH 48TH STREET","LINCOLN","NE","68506"
193303,"3843 WEST AVE J-5","LANCSATER","CA","93536"
193304,"3843 WIGGINGTON ROAD","TALLAHASSEE","FL","32303"
193305,"38430 5TH AVENUE","ZEPHYRHILLS","FL","33542"
193306,"38430 DEXTER ROAD","DEXTER","OR","97431"
193307,"38436 PALMER RD","WESTLAND","MI","48186"
193308,"3844 BECHELLI LANE","REDDING","CA","96002"
193309,"3844 E CALIFORNIA BLVD","PASADENA","CA","91107"
193310,"3844 E EXPEDITION WAY","PHOENIX","AZ","85050"
193311,"3844 GATEWAY TERRACE","BURTONSVILLE","MD","20866"
193312,"3844 GRACE CT","FALLBROOK","CA","92028"
193313,"3844 JEFFERSON STREET","RIVERSIDE","CA","92504"
193314,"3844 N BRIARPATH AVENUE","COVINA","CA","91724"
193315,"3844 PARK FIELD DR","LAS VEGAS","NV","89120"
193316,"3844 SUE KER DRIVE","HARVEY","LA","70058"
193317,"3844 WALHAMPTON DR","LEXINGTON","KY","40517"
193318,"38443 MORRISONVILLE RD","LOVETTSVILLE","VA","20180"
193319,"38444 20TH STREET EAST","PALMDALE","CA","93550"
193320,"38444 SKY CANYON DR UNIT 140","MURRIETA","CA","92563"
193321,"3845 BAYCHESTER AVE","BRONX","NY","10466"
193322,"3845 CANYON RANCH RD UNIT 204","HIGHLANDS RANCH","CO","80126"
193323,"3845 COAL MOUNTAIN DR","CUMMING","GA","30040"
193324,"3845 CROW CANYON ROAD","SAN RAMON","CA","94582"
193325,"3845 CYPRESS CREEK PKWY STE 286","HOUSTON","TX","77068"
193326,"3845 CYPRESS CREEK PKWYSUITE 255","HOUSTON","TX","77068"
193327,"3845 FOXHOUND LANE","FORT WORTH","TX","76123"
193328,"3845 GLEN OAKS MANOR DRIVE","SARASOTA","FL","34232"
193329,"3845 HARRISON ST 304","OAKLAND","CA","94611"
193330,"3845 HIAWATHA AVE APT 314","MINNEAPOLIS","MN","55406"
193331,"3845 HIAWATHA AVE APT 440","MINNEAPOLIS","MN","55406"
193332,"3845 LELAND ST","SAN DIEGO","CA","92106"
193333,"3845 N 37TH STREET","MILWAUKEE","WI","53216"
193334,"3845 N CLARK STREET SUITE 201","FRESNO","CA","93726"
193335,"3845 N GARLAND AVE 700B","GARLAND","TX","75040"
193336,"3845 OCEAN DRIVE","OXNARD","CA","93035"
193337,"3845 OVERBROOK DR UNIT F","COLUMBIA","SC","29205"
193338,"3845 OYSTER BAY ROAD NW","OLYMPIA","WA","98502"
193339,"3845 PINNACLE LANE","MASON","OH","45040"
193340,"3845 PRESERVE CROSSING LN","CUMMING","GA","30040"
193341,"3845 SCOTTS VALLEY DR","KLAMATH FALLS","OR","97601"
193342,"3845 STILL MEADOW LANE","LEXINGTON","KY","40509"
193343,"3845 VIA NONA MARIE","CARMEL","CA","93923"
193344,"3845 VINAL LAKE ROAD SUITE 101","TROY","MT","59935"
193345,"3845 WILDROSE GLEN","ESCONDIDO","CA","92025"
193346,"3845 WOODWARD DRIVE","NASHVILLE","TN","37207"
193347,"3846 ARBOR GREEN LANE APT 1324","INDIANAPOLIS","IN","46220"
193348,"3846 BENNINGTON ST B3","HOUSTON","TX","77016"
193349,"3846 EAST AVE T2","PALMDALE","CA","93550"
193350,"3846 HEARTHSTONE CIRCLE","CHATTANOOGA","TN","37415"
193351,"3846 JASON STREET","DENVER","CO","80211"
193352,"3846 JUDDVILLE ROAD","FISH CREEK","WI","54212"
193353,"3846 NW 94TH STREET","KANSAS CITY","MO","64154"
193354,"3846 VAN DYKE AVE APT 7","SAN DIEGO","CA","92105"
193355,"3846 W CLARENDON AVENUE","PHOENIX","AZ","85019"
193356,"38461 OAKTREE LOOP","MURRIETA","CA","92562"
193357,"38465 SAGE ROAD","HEMET","CA","92544"
193358,"3847 2ND AVE SE","NAPLES","FL","34117"
193359,"3847 E SOPHIE LN","PHOENIX","MO","85042"
193360,"3847 E STREET","SPRINGFIELD","OR","97478"
193361,"3847 GRANADA LN N","OAKDALE","MN","55128"
193362,"3847 MEADOWLARK LANE","CINCINNATI","OH","45227"
193363,"3847 N MACGREGOR WAY","HOUSTON","TX","77004"
193364,"3847 OLD SCOTTSVILLE RD","ALVATON","KY","42122"
193365,"3847 SEDGEWOOD CIRCLE","CHARLOTTE","NC","28211"
193366,"3847 SOUTH GILES","CHICAGO","IL","60653"
193367,"3847 TIMBERGLEN RD 3922","DALLAS","TX","75287"
193368,"3847 TIMBERRGLEN RD STE 2617","DALLAS","TX","75287"
193369,"3847 WESTRIDGE DRIVE","ORANGE PARK","FL","32065"
193370,"38472 OCEAN BLVD UNIT 658","FRANKFORD","DE","19945"
193371,"3847S 8365 W","MAGNA","UT","84044"
193372,"3848 17TH AVE S","MINNEAPOLIS","MN","55407"
193373,"3848 CAIN MILL DR","LITHONIA","GA","30038"
193374,"3848 CAMPUS DR 111","NEWPORT BEACH","CA","92660"
193375,"3848 CHIMNEY MILL COURT","ELLENWOOD","GA","30294"
193376,"3848 FOREST VALLEY DRIVE","WINSTON SALEM","NC","27105"
193377,"3848 HIGHWAY 201","ONTARIO","ID","97914"
193378,"3848 HURSTGLEN WAY","SAN JOSE","CA","95121"
193379,"3848 KINGSLEY PARK LANE","DULUTH","GA","30096"
193380,"3848 LAMONT ST","SAN DIEGO","CA","92109"
193381,"3848 LUPINE LANE UNIT A","CALABASAS","CA","91302"
193382,"3848 MCHENRY AVE STE 135 - 304","MODESTO","CA","95356"
193383,"3848 MCHENRY AVENUE 135 294","MODESTO","CA","95356"
193384,"3848 MCHENRY AVENUE","MODESTO","CA","95356"
193385,"3848 N 7TH STREET","PHILADELPHIA","PA","19140"
193386,"3848 N HWS CLEVELAND BLVD","OMAHA","NE","68106"
193387,"3848 NORTH 100TH AVENUE","OMAHA","NE","68134"
193388,"3848 SALIDA CT","FLORISSANT","MO","63034"
193389,"3848 SE DIVISION STREET 199","PORTLAND","OR","97202"
193390,"3848 UTOPIA CT","MIAMI","FL","33133"
193391,"3848 W 84TH PLACE","CHICAGO","IL","60652"
193392,"38483 DESERT LANE","MECHANICSVILLE","MD","20659"
193393,"3849 176TH PLACE","HAMMOND","IN","46323"
193394,"3849 ANDERSON HILL ROAD SW","NEW PHILADELPHIA","OH","44663"
193395,"3849 DORIS ST","SHREVEPORT","LA","71109"
193396,"3849 E HAMPTON STREET","TUCSON","AZ","85716"
193397,"3849 FAIRWAY DRIVE","CAMERON PARK","CA","95682"
193398,"3849 KARISSA ANN PLACE EAST","JACKSONVILLE","FL","32223"
193399,"3849 LAKE END DRIVE","LOGANVILLE","GA","30052"
193400,"3849 N LAKEWOOD AVE 2","CHICAGO","IL","60613"
193401,"3849 PRINCE ROAD","PIONEER","LA","71266"
193402,"3849 W 69TH PLACE","CHICAGO","IL","60629"
193403,"3849 W 79TH PLACE","CHICAGO","IL","60652"
193404,"3849 W RICHMOND SHOP RD","LEBANON","TN","37090"
193405,"38491 LYNN CIRCLE","REDFIELD","SD","57469"
193406,"38497","HOUSTON","TX","77238"
193407,"384P MERROW ROAD","TOLLAND","CT","06084"
193408,"385 45TH AVE NE","NAPLES","FL","34120"
193409,"385 53RD AVE NW","SALEM","OR","97304"
193410,"385 BRONX RIVER ROAD 3J","YONKERS","NY","10704"
193411,"385 CENTRAL AVE NW APT 1","CLEVELAND","TN","37311"
193412,"385 CHARLES E YOUNG DR E","LOS ANGELES","CA","90095"
193413,"385 CLAYTON STREET","DENVER","CO","80206"
193414,"385 COLLINGTON DR","RONKONKOMA","NY","11779"
193415,"385 CORTLAND","HIGHLAND PARK","MI","48203"
193416,"385 CORYS LN","PORTSMOUTH","RI","02871"
193417,"385 DREW MERIGOLD ROAD","MERIGOLD","MS","38759"
193418,"385 E NIELDS ST","WEST CHESTER","PA","19382"
193419,"385 EAST 18TH STREET APARTMENT 3G","BROOKLYN","NY","11226"
193420,"385 EAST OAK STREET","KANKAKEE","IL","60901"
193421,"385 EAST STATE STREET","GRANBY","MA","01033"
193422,"385 ELIZABETH ST","PARMA","MI","49269"
193423,"385 FULL SWEEP EAST","HARDEEVILLE","SC","29927"
193424,"385 HAZELWOOD TER","BUFFALO GROVE","IL","60089"
193425,"385 HIGHBRANCH CIR","LAWRENCEVILLE","GA","30044"
193426,"385 JAMES LYON RD","TOMPKINSVILLE","KY","42167"
193427,"385 LAKE JONATHAN LANE","FAIRBURN","GA","30213"
193428,"385 MAIN ST S SUITE 404  BOX 159","SOUTHBURY","CT","06488"
193429,"385 MAIN ST","MOHRSVILLE","PA","19541"
193430,"385 MANHATTAN DR","BOULDER","CO","80303"
193431,"385 MELISON DRIVE","PIKE ROAD","AL","36064"
193432,"385 MILL STREET","MANSFIELD","MA","02048"
193433,"385 MILLER AVE","COLUMBUS","OH","43205"
193434,"385 MORRIS AVENUE","SPRINGFIELD","NJ","07081"
193435,"385 MOUNTAIN ROAD","UNION CITY","NJ","07087"
193436,"385 OWL DRIVE","LEBANON","TN","37087"
193437,"385 PARKMONT WAY","DALLAS","GA","30132"
193438,"385 PINE HILL RD APT C","MILL VALLEY","CA","94941"
193439,"385 PLEASANT HILL PLACE","BLUFF CITY","TN","37618"
193440,"385 PULASKI ROAD","GREENLAWN","NY","11740"
193441,"385 PYRITE DR NE","RIO RANCHO","NM","87124"
193442,"385 RIVER OAKS PARKWAY APT 3040","SAN JOSE","AZ","95134"
193443,"385 ROSEMONT AVENUE","STEUBENVILLE","OH","43952"
193444,"385 ROSEMONT","STEUBENVILLE","OH","43952"
193445,"385 ROUTE 109   SUITE 1481","WEST BABYLON","NY","11704"
193446,"385 S CATALINA AVE STE 123","PASADENA","CA","91106"
193447,"385 S MAIN ST","CAMP VERDE","AZ","86322"
193448,"385 S POINT DRIVE","SUGARLOAF KEY","FL","33042"
193449,"385 SIXTH ST","CLYMER","PA","15728"
193450,"385 SOUTH AVE BLDG 618","PEARL HARBOR","HI","96860"
193451,"385 SOUTH LEMON AVENUE STE E353","WALNUT","CA","91789"
193452,"385 TERRABIANCA CIR","HENDERSON","NV","89012"
193453,"385 UNION AVE APT 5G","BROOKLYN","NY","11211"
193454,"385 UNIVERSITY AVE WEST","ST PAUL","MN","55130"
193455,"385 W 400 S","OREM","UT","84058"
193456,"385 W 600 S","MAPLETON","UT","84664"
193457,"385 W MAIN ST","LEWISVILLE","TX","75057"
193458,"385 WARNER RD STE 103","CHANDLER","AZ","85225"
193459,"385 WILLOWBROOK DRIVE","RICHFIELD","UT","84701"
193460,"385 WINDSOR STREET","LUDLOW","MA","01056"
193461,"385","MIDDLEPORT","OH","45760"
193462,"3850 BIRD ROAD SUITE 1001","CORAL GABLES","FL","33146"
193463,"3850 CHAMPION ROAD","TITUSVILLE","FL","32796"
193464,"3850 E BASELINE RD 106","MESA","AZ","85206"
193465,"3850 FARR OAK CIRCLE","FAIRFAX","VA","22030"
193466,"3850 KIRKUP AVENUE","CINCINNATI","OH","45213"
193467,"3850 LAMONT STREET","SAN DIEGO","CA","92109"
193468,"3850 LEMON STREET","RIVERSIDE","CA","92501"
193469,"3850 N 56TH STREET","MILWAUKEE","WI","53216"
193470,"3850 N KERCHEVAL DRIVE","INDIANAPOLIS","IN","46229"
193471,"3850 NW 197 ST","MIAMI GARDENS","FL","33055"
193472,"3850 NW 21 STREET","COCONUT CREEK","FL","33066"
193473,"3850 PANTHER DR","ZANESVILLE","OH","43701"
193474,"3850 PARK DRIVE","RAPID CITY","SD","57702"
193475,"3850 PATE STREET","ORANGEBURG","SC","29118"
193476,"3850 Q STREET APT 2","BAKERSFIELD","CA","93301"
193477,"3850 ROHNERVILLE ROAD","FORTUNA","CA","95540"
193478,"3850 S 79TH AVE","PHOENIX","AZ","85043"
193479,"3850 S CINCINNATI","TULSA","OK","74105"
193480,"3850 S UNIVERSITY DR STE 292253","DAVIE","FL","33329"
193481,"3850 S UNIVERSITY DRIVE  BOX 293121","DAVIE","FL","33329"
193482,"3850 SAPP ROAD","CONROE","TX","77304"
193483,"3850 SEDGWICK AVENUE 10D","BRONX","NY","10463"
193484,"3850 SEDGWICK AVENUE APT 10D","NEW YORK","NY","10463"
193485,"3850 SOUTH CINCINNATI AVENUE","TULSA","OK","74105"
193486,"3850 STANFORD DRIVE","OCEANSIDE","CA","92056"
193487,"3850 SW 87 AVE SUITE 206","MIAMI","FL","33165"
193488,"3850 VECCHIO LN","STOCKTON","CA","95212"
193489,"3850 VISCOUNT AVE","MEMPHIS","TN","38118"
193490,"3850 W 108TH ST STE 15","HIALEAH","FL","33018"
193491,"3850 W NORTHWEST HIGHWAY APT 1318","DALLAS","TX","75220"
193492,"3850 W NORTHWEST HIGHWAY APT 3408","DALLAS","TX","75220"
193493,"3850 WESTCHASE VILLAGE LANE APT H","PEACHTREE CORNERS","GA","30092"
193494,"3850 WILKINSON RD","DE SOTO","MO","63020"
193495,"3850 WILSHIRE BLVD  SUITE 302","LOS ANGELES","CA","90010"
193496,"3850 WILSHIRE BLVD STE 201","LOS ANGELES","CA","90015"
193497,"3850 WILSHIRE BLVD STE 301","LOS ANGELES","CA","90010"
193498,"3850 WYANDOT STREET","DENVER","CO","80211"
193499,"38506 WOLVERINE RD","SHAWNEE","OK","74804"
193500,"38507 ROUTE 187","ROME","PA","18837"
