"ID","Address","City","State","Zip"
196001,"3946 WILLOWIND DR","PASADENA","TX","77504"
196002,"3946 WINKLE AVENUE","SANTA CRUZ","CA","95065"
196003,"39461 MERSEY ST","INDIO","CA","92203"
196004,"3947 CASCADE SKY DRIVE","ARLINGTON","TX","76005"
196005,"3947 DUNN DR","SARASOTA","FL","34233"
196006,"3947 E ENCINAS AVE","GILBERT","AZ","85234"
196007,"3947 GULF SHORES PKWY   STE 230","GULF SHORES","AL","36542"
196008,"3947 LITTLESTONE CIRCLE","NAPERVILLE","IL","60564"
196009,"3947 N HALL STREET","DALLAS","TX","75219"
196010,"3947 N LAKE DR","SHOREWOOD","WI","53211"
196011,"3947 NW 19TH STREET","LAUDERDALE LAKE","FL","33311"
196012,"3947 PARK AVE","FAIIRFIELD","CT","06825"
196013,"3947 SANDPIPER LANE","LIVERPOOL","NY","13090"
196014,"3947 SUNNYBROOK CT","WOODBRIDGE","VA","22192"
196015,"3947 SUTRO AVENUE","LOS ANGELS","CA","90008"
196016,"3947 W CORTLAND ST 3","CHICAGO","IL","60647"
196017,"3947 W LINCOLN HWY STE 341","DOWNINGTOWN","PA","19335"
196018,"3947 WEST SLAUSON AVE","LOS ANGELES","CA","90043"
196019,"39470 E 170TH ST","PALMDALE","CA","93591"
196020,"39472 W 201ST STREET SOUTH","BRISTOW","OK","74010"
196021,"3948 3RD STREET SOUTH  SUITE 286","JACKSONVILLE BEACH","FL","32250"
196022,"3948 3RD STREET SOUTH SUITE 190","JACKSONVILLE BEACH","FL","32250"
196023,"3948 ALEXIS CIRCLE","CHATTANOOGA","TN","37406"
196024,"3948 BALDERAS ST","BRIGHTON","CO","80601"
196025,"3948 BLOWING SPRINGS ROAD","GREENSBURG","KY","42743"
196026,"3948 COUNTRY LN","FORT WORTH","TX","76123"
196027,"3948 FLINT HILL RD","POWDER SPRINGS","GA","30127"
196028,"3948 FOSTER DRIVE","FAYETTEVILLE","NC","28311"
196029,"3948 HWY 90","PACE","FL","32571"
196030,"3948 JOHNSON ST","HIGH POINT","NC","27265"
196031,"3948 LEGACY DR 106-317","PLANO","TX","75023"
196032,"3948 LINDELL SUITE 201","ST LOUIS","MO","63108"
196033,"3948 N CONCORD AVE","PORTLAND","OR","97227"
196034,"3948 N KINGSHIGHWAY BLVD","SAINT LOUIS","MO","63115"
196035,"3948 NOBLE AVE N","ROBBINSDALE","MN","55422"
196036,"3948 PENHURST AVENUE","BALTIMORE","MD","21215"
196037,"3948 RIDGE ROAD","WILLIAMSON","NY","14589"
196038,"3948 SHADY RIDGE DRIVE","CORONA","CA","92881"
196039,"3948 SOUTH 3RD STREET UNIT 58","JACKSONVILLE BEACH","FL","32250"
196040,"3948 THIRD STREET SOUTH 132-02","JACKSONVILLE BEACH","FL","32250"
196041,"3948 THIRD STREET SOUTH 132-06","JACKSONVILLE BEACH","FL","32250"
196042,"3948 W COLORADO AVE","DENVER","CO","80219"
196043,"3948 WHITEHALL DRIVE","CHARLOTTE","NC","28208"
196044,"39484 WILSON WAY","PINE GROVE","LA","70453"
196045,"39488 SUMMIT ROAD","OAKHURST","CA","93644"
196046,"3949 EVANS-STEED RD","RADNOR","OH","43066"
196047,"3949 LOS FELIZ BLVD SUITE 211","LOS ANGELES","CA","90027"
196048,"3949 NORTH VISTA CIRCLE","PALMER","AK","99645"
196049,"3949 PERRY PASS","LITHONIA","GA","30038"
196050,"3949 PRESTWICK LANE","PALMDALE","CA","93551"
196051,"3949 S PENINSULA DR","PORT ORANGE","FL","32127"
196052,"3949 SOUTH MAIN STREET","FARMVILLE","NC","27828"
196053,"3949 WINNETKA AVE N","NEW HOPE","MN","55427"
196054,"39494 EDITH DRIVE","CLINTON TOWNSHIP","MI","48038"
196055,"39497 HWY 1055","MOUNT HERMON","LA","70450"
196056,"39498 MEADOWBROOK AVENUE","PRAIRIEVILLE","LA","70769"
196057,"395 2ND ST SW","BUFFALO","MN","55313"
196058,"395 ALBEMARLE DRIVE","CLAYTON","NC","27527"
196059,"395 APOLLO WAY","HOLLISTER","CA","95023"
196060,"395 AVENIDA MANANOS","SAN JOSE","CA","95123"
196061,"395 BORGFELD RD","CIBOLO","TX","78108"
196062,"395 BURCH ROAD","FAYETTEVILLE","GA","30215"
196063,"395 CARROLL RD","GRAND CANE","LA","71032"
196064,"395 CENTRAL ST","SAVANNAH","TN","38372"
196065,"395 CHERRY LEAF ROAD","DELAWARE","OH","43015"
196066,"395 CHESTNUT ST","DANVILLE","IN","46122"
196067,"395 COLUMBIA BLVD","WOOD RIDGE","NJ","07075"
196068,"395 DAUGHTERY SPRINGS RD","TELLICO PLAINS","TN","37385"
196069,"395 DAWSON CT","CASTLE ROCK","CO","80104"
196070,"395 DOGWOOD DRIVE","COLUMBUS","GA","31907"
196071,"395 DURANT ST","MONROE","NC","28112"
196072,"395 E SAINT ANDREWS DR","HIGHLAND HTS","OH","44143"
196073,"395 EMORY ROAD","SALUDA","SC","29138"
196074,"395 FAIR ST","LEWISBURG","WV","24901"
196075,"395 FM 155","LA GRANGE","TX","78945"
196076,"395 GARNSEY RD","PITTSFORD","NY","14534"
196077,"395 HUNT RD SE","CLEVELAND","TN","37323"
196078,"395 HURON AVENUE APT 2","CAMBRIDGE","MA","02138"
196079,"395 JEROME ST 1ST FLOOR","BROOKLYN","NY","11207"
196080,"395 KANIKSU SHORES RD","SANDPOINT","ID","83864"
196081,"395 LABORCITA CANYON","LA LUZ","NM","88337"
196082,"395 LANTERNBACK ISLAND DRIVE","SATELLITE BEACH","FL","32937"
196083,"395 LAURENT STREET NW UNIT 8","ATLANTA","GA","30318"
196084,"395 MAIN STREET","CROMWELL","CT","06416"
196085,"395 MAIN STREET","ORANGE","NJ","07050"
196086,"395 MARTLING AVENUE","TARRYTOWN","NY","10591"
196087,"395 MASON FARM DR","KEARNEYSVILLE","WV","25430"
196088,"395 MIDWAY DRIVE","VALPARAISO","IN","46385"
196089,"395 NEPTUNE DRIVE","AKRON","OH","44319"
196090,"395 NORTH GARDEN WAY","EUGENE","OR","97401"
196091,"395 OAK ST","COLUMBUS","OH","43215"
196092,"395 OLD NATIVIDAD ROAD","SALINAS","CA","93906"
196093,"395 PARK AVE","WAYNESBURG","PA","15370"
196094,"395 PINTAIL COURT","SUWANEE","GA","30024"
196095,"395 PORTER LAKE DR - APT 306","LONGMEADOW","MA","01106"
196096,"395 RESERVE ROAD","WEST SENECA","NY","14224"
196097,"395 RIVERBEND RD","OHATCHEE","AL","36271"
196098,"395 RODEO RD","SEDONA","AZ","86336"
196099,"395 RUTLAND AVE","TEANECK","NJ","07666"
196100,"395 S END AVE 14M","NEW YORK","NY","10280"
196101,"395 SAINT REGIS DRIVE","NEWARK","DE","19711"
196102,"395 SAWDUST RD PMB 2000","THE WOODLANDS","TX","77380"
196103,"395 SAWDUST RD STE 2034","THE WOODLANDS","TX","77380"
196104,"395 SAWGRASS WAY","FAYETTEVILLE","GA","30215"
196105,"395 SEVEN PONDS RD","AMISSVILLE","VA","20106"
196106,"395 SOUTH 200 EAST","KANAB","UT","84741"
196107,"395 SOUTH END AVE APT 8N","NEW YORK","NY","10280"
196108,"395 SW DE GOUVEA TERRACE","PORT ST LUCIE","FL","34984"
196109,"395 TOWN CENTER BLVD","ORLANDO","FL","32837"
196110,"395 W CUBA RD","LAKE ZURICH","IL","60047"
196111,"395 WEST GOLF ROAD","DES PLAINES","IL","60016"
196112,"395 WINGATE CIRCLE","OLDSMAR","FL","34677"
196113,"395 WOODLAWN DRIVE","TIPP CITY","OH","45371"
196114,"395","BALA CYNWYD","PA","19004"
196115,"3950 168TH PLACE","COUNTRY CLUB HILLS","IL","60478"
196116,"3950 3RD ST N STE B","ST PETERSBURG","FL","33703"
196117,"3950 AMBOY ROAD","STATEN ISLAND","NY","10306"
196118,"3950 AMBOY ROAD","STATEN ISLAND","NY","10308"
196119,"3950 ASHBURNHAM DR APT 181","HOUSTON","TX","77082"
196120,"3950 BATTERSEA PL","RICHMOND","VA","23223"
196121,"3950 BRAXTON SUITE 100","HOUSTON","TX","77063"
196122,"3950 BRITTON BLVD","CINCINNATI","OH","45245"
196123,"3950 CATECROFT LANE","COOL","CA","95614"
196124,"3950 CHANEYVILLE RD","OWINGS","MD","20736"
196125,"3950 CHESAPEAKE STREET NW","WASHINGTON","DC","20016"
196126,"3950 COBB PARKWAY STE 806","ACWORTH","GA","30101"
196127,"3950 COBB PKWY NW STE 603","ACWORTH","GA","30101"
196128,"3950 COOK AVENUE","SAINT LOUIS","MO","63113"
196129,"3950 COUNTRYSIDE WAY","SNELLVILLE","GA","30039"
196130,"3950 CRANDALL","HOWELL","MI","48855"
196131,"3950 DONIPHAN DR STE H","EL PASO","TX","79922"
196132,"3950 EL CERRITO","NORMAN","OK","73072"
196133,"3950 FAIRSTED DR  APT 654","RALEIGH","NC","27612"
196134,"3950 FAIRSTED DRIVE UNIT 702","RALEIGH","NC","37612"
196135,"3950 HILLCREST LANE","SACRAMENTO","CA","95628"
196136,"3950 HOBART ROAD","CARSON CITY","NV","89703"
196137,"3950 INTERSTATE 80","FAIRFIELD","CA","94534"
196138,"3950 LAUREL CANYON BLVD  1521","STUDIO CITY","CA","91614"
196139,"3950 LIVERNOIS","TROY","MI","48083"
196140,"3950 MAIDSTONE DR","GAHANNA","OH","43230"
196141,"3950 MARGARETA AVE","DETROIT","MI","48221"
196142,"3950 MARTINS RUN DRIVE","LORAIN","OH","44053"
196143,"3950 N 104TH PLZ APT 306","OMAHA","NE","68134"
196144,"3950 N PLACITA SABINO","TUCSON","AZ","85749"
196145,"3950 NW 186TH STREET","MIAMI GARDENS","FL","33055"
196146,"3950 OHIO STREET UNIT 428","SAN DIEGO","CA","92104"
196147,"3950 OVERLAKE DRIVE","CUMMING","GA","30041"
196148,"3950 PARAMOUNT BLVD STE 255","LAKEWOOD","CA","90712"
196149,"3950 PRIORITY WAY SOUTH DRIVE","INDIANAPOLIS","IN","46240"
196150,"3950 RCA BLVD SUITE 5012","PALM BEACH GARDENS","FL","33410"
196151,"3950 S EASTERN STE 130","LAS VEGAS","NV","89119"
196152,"3950 SPRING VALLEY ROAD UNIT 918","FARMERS BRANCH","TX","75244"
196153,"3950 SUMMERLEE ROAD","OAK HILL","WV","25901"
196154,"3950 SW 61ST AVENUE","DAVIE","FL","33314"
196155,"3950 VAN NOORD AVE","STUDIO CITY","CA","91604"
196156,"3950 VICTORIA LANDING DR S","JACKSONVILLE","FL","32208"
196157,"3950 W BRYN MAWR AVE 407","CHICAGO","IL","60659"
196158,"3950","ACWORTH","GA","30101"
196159,"39506 DAISY MTN DR STE 122-163","ANTHEM","AZ","85086"
196160,"39506 N DAISY MOUNTAIN DR 122232","ANTHEM","AZ","85086"
196161,"39506 N DAISY MOUNTAIN DR STE 122","ANTHEM","AZ","85086"
196162,"39506 N DAISY MOUNTAIN DR STE 12245","ANTHEM","AZ","85086"
196163,"39506 N DAISY MOUNTAIN DRIVE 122163","ANTHEM","AZ","85086"
196164,"39507 WANDA AVE","STERLING HEIGHTS","MI","48313"
196165,"3951 ALABAMA AVENUE SE","WASHINGTON","DC","20020"
196166,"3951 BALTIMORE AVENUE","PHILADELPHIA","PA","19104"
196167,"3951 COURVILLE STREET","DETROIT","MI","48224"
196168,"3951 DUKE FIRTH ST","LAND O LAKES","FL","34638"
196169,"3951 E TURLEY ST","GILBERT","AZ","85295"
196170,"3951 HAVERHILL ROAD STE 108","WEST PALM BEACH","FL","33411"
196171,"3951 HAVERHILL ROAD STE 109","WEST PALM BEACH","FL","33417"
196172,"3951 JENITA DRIVE","PALM HARBOR","FL","34685"
196173,"3951 LEXINGTON MANOR COURT","MISSOURI CITY","TX","77459"
196174,"3951 N STREET","SACRAMENTO","CA","95816"
196175,"3951 NORTH COLTRANE ROAD","EDMOND","OK","73034"
196176,"3951 NW 48TH TERRACE NUMBER 306","GAINESVILLE","FL","32606"
196177,"3951 PLEASANTDALE ROAD SUITE 206","DORAVILLE","GA","30340"
196178,"3951 SNAPFINGER PARKWAY SUITE 202","DECATUR","GA","30035"
196179,"3951 STATE ROUTE 121","GREENVILLE","OH","45331"
196180,"39511 HWY 160","TRINIDAD","CO","81082"
196181,"39514 AVIATION AVE","ZEPHYRHILLS","FL","33542"
196182,"3952 1ST STREET","RIVERSIDE","CA","92501"
196183,"3952 CUTLER DONAHUE WAY","CUMMING","GA","30040"
196184,"3952 E ELLIS STREET","MESA","AZ","85205"
196185,"3952 LAKEWOOD DR","WATERFORD","MI","48329"
196186,"3952 LAWN AVENUE","KANSAS CITY","MO","64130"
196187,"3952 MOORE CREEK DRIVE","CONLEY","GA","30288"
196188,"3952 N KINGSHIGHWAY","SAINT LOUIS","MO","63115"
196189,"3952 RAMBLING ACRES DRIVE","TITUSVILLE","FL","32796"
196190,"3952 SHIRLEY DRIVE","ATLANTA","GA","30336"
196191,"3952 SOUTH WARSAW STREET","SEATTLE","WA","98118"
196192,"3952 W D JUDGE DR 104","ORLANDO","FL","32808"
196193,"39520 MURRIETA HOT SPGS RD 219-2020","MURRIETA","CA","92563"
196194,"39520 MURRIETA HOT SPRINGS - 219-15","MURRIETA","CA","92563"
196195,"39520 MURRIETA HOT SPRINGS RD  219A","MURRIETA","CA","92563"
196196,"39520 WOODWARD AVE SUITE 101","BLOOMFIELD HILLS","MI","48304"
196197,"39526 CALLE CASABLANCA","MURREITA","CA","92563"
196198,"3952D CLAIREMONT MESA BLVD NUM 371","SAN DIEGO","CA","92117"
196199,"3952D CLAIREMONT MESA BLVD STE 275","SAN DIEGO","CA","92117"
196200,"3953 COLORADO AVE","SHEFFIELD","OH","44054"
196201,"3953 FERN VALLEY DRIVE","MEMPHIS","TN","38125"
196202,"3953 MARCUS AVENUE","FRIANT","CA","93626"
196203,"3953 N PARK CROSSING AVENUE","MERIDIAN","ID","83646"
196204,"3953 STONEBRIDGE LANE","RANCHO SANTA FE","CA","92091"
196205,"39530 BEACON LANE","PALMDALE","CA","93551"
196206,"39531 CLEARVIEW ST","HARRISON TOWNSHIP","MI","48045"
196207,"39533 WOODWARD AVE SUITE 200","BLOOMFIELD HILLS","MI","48304"
196208,"39533 WOODWARD AVE SUITE 306","BLOOMFIELD HILLS","MI","48304"
196209,"3954 ANN ARBOR ROAD","LAKEWOOD","CA","90712"
196210,"3954 PAUL S BUCHMAN HWY","ZEPHYRHILLS","FL","33542"
196211,"3954 PENSACOLA ST","TALLAHASSEE","FL","32309"
196212,"3954 SENASAC AVE","LONG BEACH","CA","90808"
196213,"3955 ABBIE COVE LN","CANAL WINCHESTER","OH","43110"
196214,"3955 ARETHA AVE","DETROIT","MI","48201"
196215,"3955 BOUNDARY PEAK CT","RENO","NV","89508"
196216,"3955 HIDDEN HILLS DRIVE","TITUSVILLE","FL","32796"
196217,"3955 HIGHWAY 48","CUNNINGHAM","TN","37052"
196218,"3955 N MURRAY AVE APT 204","MILWAUKEE","WI","53211"
196219,"3955 NIXON GROVE DR","DOUGLASVILLE","GA","30135"
196220,"3955 SHERWOOD FOREST DRIVE","TRAVERSE CITY","MI","49686"
196221,"3955 SHUETOWN ROAD","LYONS FALLS","NY","13368"
196222,"3955 SOUTH EDDY ST","SEATTLE","WA","98118"
196223,"3955 ST FERDINAND AVENUE","ST LOUIS","MO","63113"
196224,"3955 STUDEBAKER RD","LONG BEACH","CA","90808"
196225,"3955 W ARLINGTON ROAD","BLOOMINGTON","IN","47404"
196226,"39552 E ELYSIAN LAKE RD","JANESVILLE","MN","56048"
196227,"39555 US HWY 6","AVON","CO","81620"
196228,"39558 COZUMEL COURT","MURRIETA","CA","92563"
196229,"39558 COZUMEL CT","MUURRIETA","CA","92563"
196230,"3956 BLAZE DR","MURFREESBORO","TN","37128"
196231,"3956 CO RD 79","DAVISTON","AL","36256"
196232,"3956 DALTON AVE","LOS ANGELES","CA","90062"
196233,"3956 E 4TH ST","LOS ANGELES","CA","90063"
196234,"3956 FAUQUIER AVE","RICHMOND","VA","23227"
196235,"3956 NAVAHOE ROAD","CLEVELAND HEIGHTS","OH","44121"
196236,"3956 NW 56TH STREET","COCONUT CREEK","FL","33073"
196237,"3956 SE FRANKLIN ST","PORTLAND","OR","97202"
196238,"3956 TOWN CENTER BLVD 499","ORLANDO","FL","32837"
196239,"3956 TOWN CENTER BLVD 608","ORLANDO","FL","32837"
196240,"3956 TOWN CENTER BLVD PMB 195","ORLANDO","FL","32837"
196241,"3956 TOWN CENTER BLVD STE 499","ORLANDO","FL","32837"
196242,"3956 TOWN CENTER BLVD SUITE 331","ORLANDO","FL","32837"
196243,"3956 TOWN CENTER BLVD SUITE 450","ORLANDO","FL","32837"
196244,"3956 TOWN CENTER BLVD SUITE 505","ORLANDO","FL","32837"
196245,"3956 W LAWRENCE AVE","CHICAGO","IL","60625"
196246,"39562 HWY 226","SCIO","OR","97374"
196247,"39566 SQUIRE ROAD","NOVI","MI","48375"
196248,"3957 1ST ST SW","WASHINGTON","DC","20032"
196249,"3957 DALTON AVENUE","LOS ANGELES","CA","90062"
196250,"3957 IVY RD","ATLANTA","GA","30342"
196251,"3957 N ASHLAND AVE APT 305","CHICAGO","IL","60613"
196252,"3957 N FEDERAL HIGHWAY","POMPANO BEACH","FL","33064"
196253,"3957 N MULFORD","ROCKLFORD","IL","61114"
196254,"3957 NORTH DUPONT HWY","DOVER","DE","19901"
196255,"3957 PEANUT ROAD","COTTONDALE","FL","32431"
196256,"3957 RANCHO ROAD","LAFAYETTE","CA","94549"
196257,"39570 SE PARK ST APT 7","SNOQUALMIE","WA","98065"
196258,"39571 HEATHERHEATH DR","CLINTON TWP","MI","48038"
196259,"39574 CEDARWOOD DR","MURRIETA","CA","92563"
196260,"39574 DORCHESTER CIRCLE","CANTON","MI","48188"
196261,"39575 WASHINGTON STREET STE 105","PALM DESERT","CA","92211"
196262,"3958 BELL MOUNTAIN DR","CASTLE ROCK","CO","80104"
196263,"3958 DELOR ST","SAINT LOUIS","MO","63116"
196264,"3958 E WOOD DR","CHANDLER","AZ","85249"
196265,"3958 FOX TROT DRIVE","FORT WORTH","TX","76123"
196266,"3958 HARBOR CT","EULESS","TX","76040"
196267,"3958 N ACADEMY BLVD STE 117","COLORADO SPRINGS","CO","80917"
196268,"3958 S DEVANE DRIVE","YUMA","AZ","85365"
196269,"3958 SNOW ROAD N SUITE L","SEMMES","AL","36575"
196270,"3958 STEINER ROAD","CRESTON","OH","44217"
196271,"39589 NATIONAL RD","BETHESDA","OH","43719"
196272,"3959 44TH STREET 2R","SUNNYSIDE","NY","11104"
196273,"3959 AERIES WAY","VIRGINIA BEACH","VA","23455"
196274,"3959 BENNIGAN LN","DULUTH","GA","30097"
196275,"3959 BROADWAY","GROVE CITY","OH","43123"
196276,"3959 DIAMOND CHIP CT","WELLINGTON","FL","33414"
196277,"3959 DICKSON AVE","CINCINNATI","OH","45229"
196278,"3959 E MT GARFIELD RD","FRUITPORT","MI","49415"
196279,"3959 ELECTRIC ROAD SUITE 400","ROANOKE","VA","24018"
196280,"3959 HIGHWAY 18","VACHERIE","LA","70090"
196281,"3959 LULLWATER MAIN NW","KENNESAW","GA","30144"
196282,"3959 S NOVA ROAD SUITE 2","PORT ORANGE","FL","32127"
196283,"3959 SALLY LN","OCEANSIDE","NY","11572"
196284,"3959 SOUTH VAN NESS AVENUE","LOS ANGELES","CA","90062"
196285,"3959 VAN DYKE RD APT 241","LUTZ","FL","33558"
196286,"3959 VAN DYKE RD","LUTZ","FL","33558"
196287,"3959 VAN DYKE ROAD SUITE 207","LUTZ","FL","33558"
196288,"3959 VAN DYKE ROD 368","LUTZ","FL","33558"
196289,"3959 VANDYKE ROAD UNIT 207","LUTZ","FL","33558"
196290,"3959 WELSH RD SUITE 161","WILLOW GROVE","PA","19090"
196291,"3959 WOODRUFF PARK WAY","BUFORD","GA","30519"
196292,"39597 BENAVENTE PL","FREMONT","CA","94539"
196293,"3959ELECTRIC ROAD SUITE 400","ROANOKE","VA","24018"
196294,"396 4TH ST","BEAVER","PA","15009"
196295,"396 ALEXANDER SPRING ROAD SUITE 5","CARLISLE","PA","17015"
196296,"396 ASH LICK FRK","PHELPS","KY","41553"
196297,"396 BEACON AVENUE","ST. PAUL","MN","55104"
196298,"396 BIG BEAVER CREEK ROAD","TROUT CREEK","MT","59874"
196299,"396 BLAIRWOOD DRIVE","TROTWOOD","OH","45426"
196300,"396 CARVER HALL","AMES","IA","50011"
196301,"396 CLOVERDALE AVE","AKRON","OH","44302"
196302,"396 CRIPPLE CREEK LOOP","WATAUGA","TN","37694"
196303,"396 CYPRESS STREET","BROOMFIELD","CO","80020"
196304,"396 DAWKINS ROAD","BLAIR","SC","29015"
196305,"396 DOERRMANN DR","MICKLETON","NJ","08056"
196306,"396 E UNIVERSITY AVE","ORANGE CITY","FL","32763"
196307,"396 EL DORADO DR","DALY CITY","CA","94015"
196308,"396 FOREST MEADOW DRIVE","MURPHYS","CA","95247"
196309,"396 FORT DEFIANCE ROAD","FORT DEFIANCE","VA","24437"
196310,"396 FOURTH STREET","HOLLISTER","CA","95023"
196311,"396 FRONTIER AVE","MORGANTOWN","WV","26505"
196312,"396 FULTON AVENUE FLOOR 2","JERSEY CITY","NJ","07305"
196313,"396 HWY 97 N","MOLINO","FL","32577"
196314,"396 IRISH SETTLEMENT ROAD","UNDERHILL","VT","05489"
196315,"396 KINGS TRACE DR","BEREA","KY","40403"
196316,"396 N CAMINO MERCADO","CASA GRANDE","AZ","85122"
196317,"396 NORTH 100 WEST APT 2","PROVO","UT","84604"
196318,"396 NORTH STATE STREET","SAINT IGNACE","MI","49781"
196319,"396 NW OOSTERHOUDT LANE","LAKE CITY","FL","32055"
196320,"396 PHILLIP CIRCLE","FORSYTH","IL","62535"
196321,"396 PIEDMONT AVE NE STE 5027","ATLANTA","GA","30308"
196322,"396 PITTMAN MATTHEWS RD","NICHOLSON","GA","30656"
196323,"396 ROLLING MOUNTAIN ROAD","BENTONVILLE","VA","22610"
196324,"396 S SUNNYSIDE AVENUE","ELMHURST","IL","60126"
196325,"396 SE BLOXHAM WAY","STUART","FL","34997"
196326,"396 SECOND STREET","MONONGAHELA","PA","15063"
196327,"396 SIMS LN","FRANKLIN","TN","37069"
196328,"396 SOUTHPORT STREET","RONKONKOMA","NY","11779"
196329,"396 THRONE RD","FAWN GROVE","PA","17321"
196330,"396 TUTOR RD","ECRU","MS","38841"
196331,"396 TUTOR ROAD","ECRU","MS","38841"
196332,"396 WASHINGTON STREET UNIT 169","WELLESLEY HILLS","MA","02481"
196333,"396 WEST 2ND STREET NORTH","WRIGHT CITY","MO","63390"
196334,"396 WEST WINTERHAVEN DRIVE","PUEBLO","CO","81007"
196335,"396-406 SOUTH 12TH STREET","NEWARK","NJ","07103"
196336,"3960 BEXHILL DRIVE","PLANO","TX","75025"
196337,"3960 BUNK HOUSE DR","COLORADO SPRINGS","CO","80917"
196338,"3960 COUNTY ROAD 30","FLORENCE","AL","35634"
196339,"3960 GARRETT STREET","DE PERE","WI","54115"
196340,"3960 HOWARD HUGHES PKWY 500","LAS VEGAS","NV","89169"
196341,"3960 HOWARD HUGHES PKWY STE 500","LAS VEGAS","NV","89169"
196342,"3960 HOWARD HUGHES PKWY SUITE 500","LAS VEGAS","NV","89169"
196343,"3960 HOWARD HUGHES PKWY","LAS VEGAS","NV","89169"
196344,"3960 MEDINA RD","FAIRLAWN","OH","44333"
196345,"3960 NW 38TH PL","GAINESVILLE","FL","32606"
196346,"3960 POPLAR SPRINGS RD","RINGGOLD","GA","30736"
196347,"3960 RICA DR","VIRGINIA BEACH","VA","23453"
196348,"3960 RIVERGLEN CIR","SUWANEE","GA","30024"
196349,"3960 S BANANA RIVER BLVD","COCOA BEACH","FL","32931"
196350,"3960 SW 146TH AVENUE","MIRAMAR","FL","33027"
196351,"3960 W POINT LOMA BLVD STE H-138","SAN DIEGO","CA","92110"
196352,"3960 WEST POINT LOMA BLVD STE H1010","SAN DIEGO","CA","92110"
196353,"3960 WEST PT LOMA BLVD H240","SAN DIEGO","CA","92110"
196354,"3960 WILSHIRE BLVD STE 407","LOS ANGELES","CA","90010"
196355,"3960 WILSHIRE BLVD SUITE 306","LOS ANGELES","CA","90010"
196356,"3960 WINSTON DRIVE","HOFFMAN ESTATES","IL","60192"
196357,"39601 I-27","HAPPY","TX","79042"
196358,"39604 N RATTLESNAKE RD","SAN TAN VALLEY","AZ","85140"
196359,"396060 W 4000 RD","SKIATOOK","OK","74070"
196360,"39609 MOUNTAIN HOME DRIVE","SWEET HOME","OR","97386"
196361,"3961 BISON BLVD","LAKE HAVASU CITY","AZ","86404"
196362,"3961 E CHANDLER BL STE 111-362","PHOENIX","AZ","85048"
196363,"3961 FLOYD RD 300-257","AUSTELL","GA","30106"
196364,"3961 FLOYD RD SUITE 300","AUSTELL","GA","30106"
196365,"3961 FLOYD ROAD STE 300","AUSTELL","GA","30106"
196366,"3961 HORTENSIA ST H5","SAN DIEGO","CA","92110"
196367,"3961 MCCLELLAN RD","PENSACOLA","FL","32503"
196368,"3961 MONROEVILLE BOULEVARD","MONROEVILLE","PA","15146"
196369,"3961 NORTH BROADWAY STREET","INDIANAPOLIS","IN","46205"
196370,"3961 POMODORO CIR  APT 102","CAPE CORAL","FL","33909"
196371,"3961 SUN SHINE AVE","INDIANAPOLIS","IN","46228"
196372,"39610 CARLTON ROAD","DUETTE","FL","34219"
196373,"3962 FLYNTDALE ROAD","WINSTON-SALEM","NC","27106"
196374,"3962 LAKE STAR DRIVE","LEAGUE CITY","TX","77573"
196375,"3962 MAGAZINE ST","NEW ORLEANS","LA","70115"
196376,"3962 POINT CLEAR DR","MISSOURI CITY","TX","77459"
196377,"3962 SORRENTO VALLEY ROAD STE 900","SAN DIEGO","CA","92121"
196378,"3962 VETERANS MEMORIAL HWY","LITHIA SPRINGS","GA","30122"
196379,"3963 BOULDERCREST RD","ELLENWOOD","GA","30294"
196380,"3963 BRUSHWOOD WAY","CASTLE ROCK","CO","80109"
196381,"3963 COLE AVE","DALLAS","TX","75204"
196382,"3963 EAST ELMWOOD PLACE","CHANDLER","AZ","85249"
196383,"3963 LELAH LANE","MILLINGTON","TN","38053"
196384,"3963 MAPLE AVENUE STE 300","DALLAS","TX","75219"
196385,"3963 SAUTEE TRAIL","CONLEY","GA","30288"
196386,"3963 SOUTH WEST TEMPLE APT D316","SALT LAKE CITY","UT","84107"
196387,"3963 SUMMIT HURST DR","NEW BRAUNFELS","TX","78132"
196388,"39636 BRUNING ST","FREMONT","CA","94538"
196389,"3964 28TH ST","HIGHLAND","CA","92346"
196390,"3964 3RD AVENUE","SACRAMENTO","CA","95817"
196391,"3964 BLACKMOOR ST","MOUNT PLEASANT","SC","29466"
196392,"3964 EMERALD CHASE DR","TALLAHASSEE","FL","32308"
196393,"3964 GERALDINE","ST ANN","MO","63074"
196394,"3964 N CEANOTHUS PLACE","CALABASAS","CA","91302"
196395,"3964 RIVERMARK PLAZA SUITE 209","SANTA CLARA","CA","95054"
196396,"3964 STRATTON DRIVE","RIVERSIDE","CA","92505"
196397,"3965 7 TREES BLVD APT 209","SAN JOSE","CA","95111"
196398,"3965 ANNA MARIA COURT","CLARKSTON","GA","30021"
196399,"3965 BEAM RD","CRESTLINE","OH","44827"
196400,"3965 BETHEL RD SE SUITE 1 UNIT 127","PORT ORCHARD","WA","98366"
196401,"3965 BORDER WAY","VIRGINIA BEACH","VA","23456"
196402,"3965 BOULEVARD PL STREET","INDIANAPOLIS","IN","46208"
196403,"3965 CARSON CUTOFF","MARTINEZ","GA","30907"
196404,"3965 CRYSTAL DOWNS CT","ROSEVILLE","CA","95747"
196405,"3965 E OWENS AVE 180","LAS VEGAS","NV","89110"
196406,"3965 EAST BROOKSTOWN DRIVE","BATON ROUGE","LA","70805"
196407,"3965 INVESTMENT LANE UNIT A-5","WEST PALM BEACH","FL","33404"
196408,"3965 LACLEDE AVENUE APT 103","SAINT LOUIS","MO","63108"
196409,"3965 MAXON ROAD","PADUCAH","KY","42001"
196410,"3965 N 480 E","PROVO","UT","84604"
196411,"3965 NOBEL DRIVE UNIT 246","SAN DIEGO","CA","92122"
196412,"3965 PORTICO RUN DRIVE","SUWANEE","GA","30024"
196413,"3965 SUMMERTIME DR","SAINT CHARLES","MO","63304"
196414,"3965 SUNKIST STREET","PALMDALE","CA","93551"
196415,"3965 WATKINS ROAD","BATTLE CREEK","MI","49015"
196416,"39656 HOWES LANE","PONCHATOULA","LA","70454"
196417,"3966  BANNEN TRAIL DRIVE","CANAL WINCHESTER","OH","43110"
196418,"3966 ATLANTA HGW","MONTGOMERY","AL","36109"
196419,"3966 ATLANTA HIGHWAY 385","MONTGOMERY","AL","36109"
196420,"3966 E MARLENE DR","GILBERT","AZ","85296"
196421,"3966 E SOUTHCROSS","SAN ANTONIO","TX","78222"
196422,"3966 GLEN ABBY CIRCLE","STOCKTON","CA","95219"
196423,"3966 LAKESHORE DRIVE","SHREVEPORT","LA","71109"
196424,"3966 MINNEHAHA AVE SOUTH","MINNEAPOLIS","MN","55407"
196425,"3966 SOUTHERN BEND","MISSOURI CIRY","TX","77459"
196426,"3966 STILLWATER COURT","DUBLIN","CA","94568"
196427,"3966 TOREES CIR","WEST PALM BEACH","FL","33409"
196428,"3966 TORRES CIR","WEST PALM BEACH","FL","33409"
196429,"3966 W 141ST STREET","SAVAGE","MN","55378"
196430,"39660 BLACOW ROAD","FREMONT","CA","94538"
196431,"39660 HOOD ST","SANDY","OR","97055"
196432,"3967 AMES ST NE","WASHINGTON","DC","20019"
196433,"3967 ARCHER PKWY","CHEYENNE","WY","82009"
196434,"3967 FERNANDO DRIVE","EULESS","TX","76040"
196435,"3967 PERRY PASS",":LITHONIA","GA","30038"
196436,"3967 PERRY PASS","LITHONIA","GA","30038"
196437,"3967 RIVEREDGE ROAD","CLEVELAND","OH","44111"
196438,"3967 ROSEBAY COURT","FAIRFAX","VA","22033"
196439,"39674 US HWY 10","FRAZEE","MN","56544"
196440,"39677 N ZAMPINO ST","SAN TAN VALLEY","AZ","85140"
196441,"3968 E ORE BRANCH RD","BLOOMFIELD","IN","47424"
196442,"3968 EAST PARK BLVD","PLANO","TX","75074"
196443,"3968 MONTGOMERY RD","CINCINNATI","OH","45212"
196444,"3968 ROWENA DR","PHILADELPHIA","PA","19114"
196445,"3968 S ELLIS AVE APT 3N","CHICAGO","IL","60653"
196446,"3968 THIRD AVE","BRONX","NY","10457"
196447,"3968 TWILIGHT DR  BUILDING 2","SAN JOSE","CA","95124"
196448,"3968 TWILIGHT DRIVE BUILDING 2","SAN JOSE","CA","95124"
196449,"3968 VIRGINIA RAIL DRIVE","PROVIDENCE FORGE","VA","23140"
196450,"3968 W LUNT","LINCOLNWOOD","IL","60712"
196451,"39686 GOLDEN SPRINGS COURT","HAMILTON","VA","20158"
196452,"39688 DOCKSIDE DRIVE","PONCHATOULA","LA","70454"
196453,"3969 BROOKCREST CIRCLE","DECATUR","GA","30032"
196454,"3969 CREEKMOORE DRIVE","WINSTON SALEM","NC","27101"
196455,"3969 EAST 186TH STREET","CLEVELAND","OH","44122"
196456,"3969 F CIRCLE","WASHOUGAL","WA","98671"
196457,"3969 FAIRVIEW AVENUE","DOWNERS GROVE","IL","60515"
196458,"3969 MEADOWS DRIVE","INDIANAPOLIS","IN","46205"
196459,"3969 MIAMI SPRINGS DR","FORT WORTH","TX","76123"
196460,"3969 OAKCLIFF RD","MEMPHIS","TN","38111"
196461,"3969 REDWOOD LANE","PUEBLO","CO","81005"
196462,"3969 SULLIVAN AVENUE","ST LOUIS","MO","63107"
196463,"3969","MORROW","OH","45152"
196464,"39699 TOAD HALL LN","ALDIE","VA","20105"
196465,"396R ROUTE 516","MATAWAN","MO","07747"
196466,"396R WILLETS AVE","WATERFORD","CT","06385"
196467,"397 ARMED FORCES DRIVE BLDG 8300","GRAND PRAIRIE","TX","75051"
196468,"397 BRIDGETON PIKE","MANTUA","NJ","08051"
196469,"397 CLEARVIEW AVE","TORRINGTON","CT","06790"
196470,"397 COUNTY ROAD  4175","LOVELADY","TX","75851"
196471,"397 COVENEY TRAIL","BOERNE","TX","78006"
196472,"397 CRESCENT DRIVE","RIO VISTA","CA","94571"
196473,"397 DAREN DRIVE","LYNWOOD","IL","60411"
196474,"397 DRINKER TURNPIKE","COVINGTON TOWNSHIP","PA","18424"
196475,"397 E PARK STREET","LOCK HAVEN","PA","17745"
196476,"397 FLEETWOOD DRIVE","BARTLESVILLE","OK","74006"
196477,"397 HARPER ROAD","ATLANTA","GA","30315"
196478,"397 HIGHLAND CIRCLE","MARION","VA","24354"
196479,"397 JASPER ROAD","PARAMUS","NJ","07652"
196480,"397 KIMS LANE","LAMONT","FL","32336"
196481,"397 LEWAHANA LOOP","HONOLULU","HI","96818"
196482,"397 MAIN STREET","CROMWELL","CT","06416"
196483,"397 N 100 W","RUPERT","ID","83350"
196484,"397 NEW ORCHARD RD","EPSOM","NH","03234"
196485,"397 NICOLLS ROAD","DEER PARK","NY","11729"
196486,"397 OAK STREET","DUCAN FALLS","OH","43734"
196487,"397 OLD DARBONNE RD","WEST MONROE","LA","71291"
196488,"397 OLD WESTPORT RD","DARTMOUTH","MA","02747"
196489,"397 PALISADE AVENUE","CLIFFSIDE PARK","NJ","07010"
196490,"397 RIDGES BLVD","GRAND JUNCTION","CO","81507"
196491,"397 RIVER CHASE DRIVE","JONESBORO","GA","30238"
196492,"397 STATE HWY 518","MORA","NM","87732"
196493,"397 WEKIVA SPRINGS ROAD SUITE 221","LONGWOOD","FL","32779"
196494,"397 YOUNG JAMES CIRCLE","SOUTHBRIDGE","GA","30281"
196495,"397 YOUNG JAMES CIRCLE","STOCKBRIDGE","GA","30281"
196496,"3970 BOSTIC DRIVE APT 102","GREENVILLE","NC","27834"
196497,"3970 BRIGHTON LN","CANTON","MI","48188"
196498,"3970 MASSEY WOOD TRAIL","RALEIGH","NC","27616"
196499,"3970 NORTHWEST 21ST AVENUE OAK","OAKLAND PARK","FL","33309"
196500,"3970 OCHS DRIVE","GUTHRIE","OK","73044"
