"ID","Address","City","State","Zip"
316501,"9421 E MAIN ST   142","MESA","AZ","85207"
316502,"9421 HAVEN AVE","RANCHO CUCAMONGA","CA","91730"
316503,"9421 NEWBRIDGE DRIVE","POTOMAC","MD","20854"
316504,"9421 SW 123 AVE","MIAMI","FL","33186"
316505,"9421 W SAM HOUSTON PKWY SOUTH","HOUSTON","TX","77099"
316506,"9421 WHITE OAK LANE","WESTERVILLE","OH","43082"
316507,"9422 AGATE LAKE ROAD","LAKE SHORE","MN","56468"
316508,"9422 FAWCETT AVE","TACOMA","WA","98444"
316509,"9422 JORNADA LN","CORNELIUS","NC","28031"
316510,"9422 N 50TH PLACE","PARADISE VALLEY","AZ","85253"
316511,"9422 ULYSSES STREET NE","BLAINE","MN","55434"
316512,"9422 VIA PATRICIA","BURBANK","CA","91504"
316513,"9423 QUILTING BEE LANE","CHARLOTTE","NC","28216"
316514,"9423 S NORMAL AVE","CHICAGO","IL","60620"
316515,"9423 STERLING DRIVE","CUTLER BAY","FL","33157"
316516,"9424 ALICE MCGINN DR","CHARLOTTE","NC","28277"
316517,"9424 CEDAR ST UNIT C","BELLFLOWER","CA","90706"
316518,"9424 DRIFT WAY","ORANGEVALE","CA","95662"
316519,"9424 GENTLE CIR","MONTGOMERY VILLAGE","MD","20886"
316520,"9424 HIGHWAY 234","GOLD HILL","OR","97525"
316521,"9424 LODGEPOLE PLACE","CHARLOTTE","NC","28210"
316522,"9424 MILITARY PARKWAY","DALLAS","TX","75227"
316523,"9425 BLIND PASS RD 1203","ST PETE BEACH","FL","33706"
316524,"9425 CLUBLANDS DRIVE","JOHNS CREEK","GA","30022"
316525,"9425 DOUBLE R BLVD SUITE A","RENO","NV","89521"
316526,"9425 FLOYDSBURG ROAD","LOUISVILLE","KY","40245"
316527,"9425 NORTH MERIDIAN ST 201","INDIANAPOLIS","IN","46260"
316528,"9425 S RIVERSIDE DR APT 611","SANDY","UT","84070"
316529,"9425 TERMINAL AVE","SKOKIE","IL","60077"
316530,"9426 225TH STREET","QUEENSVILLAGE","NY","11428"
316531,"9426 COPPER COVE LANE","ROSHARON","TX","77583"
316532,"9426 EVERTON","SAN ANTONIO","TX","78245"
316533,"9426 GOLD MOUINTAIN DR","IOWA COLONY","TX","77583"
316534,"9426 GRAND ISLE CT","HOUSTON","TX","77044"
316535,"9426 SW 146 CT","MIAMI","FL","33186"
316536,"9426 WOODSONG CT","LAUREL","MD","20723"
316537,"9427 CHERRY TREE DRIVE SUITE 208","STRONGSVILLE","OH","44136"
316538,"9427 LEMBERT DOME CIR","STOCKTON","CA","95212"
316539,"9427 NOBLE AVENUE UNIT 106","NORTH HILLS","CA","91343"
316540,"9427 SOUTH HWY 259","MCDANIELS","KY","40152"
316541,"9428 BENT TREE DR","HILLSBORO","MO","63050"
316542,"9428 BONDENO ST","LAS VEGAS","NV","89123"
316543,"9428 EDDIE AND PARK RD","SAINT LOUIS","MO","63126"
316544,"9428 FENS HOLLOW SUITE B","LAUREL","MD","20723"
316545,"9428 MARINERS RIDGE DRIVE","FORT WAYNE","IN","46819"
316546,"9428 OLD BROWNSVILLE RD","ARLINGTON","TN","38002"
316547,"9429 133 ST N","SEMINOLE","FL","33776"
316548,"9429 HARDING AVENUE SUITE 293","SURFSIDE","FL","33154"
316549,"9429 NORTH WAVERLY DRIVE","BAYSIDE","WI","53217"
316550,"9429 PARMELEE AVENUE","LOS ANGELES","CA","90002"
316551,"9429 SW 62ND DRIVE","PORTLAND","OR","97219"
316552,"9429 W SALTER DR","PEORIA","AZ","85382"
316553,"943 1/2 WEST 7TH STREET UNIT 2","ST PAUL","MN","55102"
316554,"943 10TH AVE","SAN DIEGO","CA","92101"
316555,"943 A SHOAL CREEK TRAIL","CHESAPEAKE","VA","23320"
316556,"943 AUGUSTA DR","MORAGA","CA","94556"
316557,"943 AVALON RD","LAWRENCE","KS","66044"
316558,"943 COPPER STONE CIR","CHESAPEAKE","VA","23320"
316559,"943 CRISSINGER HILL RD","SUNBURY","PA","17801"
316560,"943 DON CUBERO AVE","SANTA FE","NM","87505"
316561,"943 EAST ALTADENA DRIVE","ALTADENA","CA","91001"
316562,"943 EAST LINCOLN HIGHWAY","FORD HEIGHTS","IL","60411"
316563,"943 EAST MAIN BLVD","CHURCH HILL","TN","37642"
316564,"943 FAIRVIEW AVE UNIT B","ARCADIA","CA","94007"
316565,"943 GLOSSON RD","SILER CITY","NY","27344"
316566,"943 HARRISON CIRCLE","ALEXANDRIA","VA","22304"
316567,"943 INDIAN CREEK DRIVE","PIPE CREEK","TX","78063"
316568,"943 JARIUS DRIVE","LEXINGTON","KY","40515"
316569,"943 JORDAN WAY","COLLEGE PARK","GA","30349"
316570,"943 KIRTOMY LOOP","PFLUGERVILLE","TX","78660"
316571,"943 LITTLE BEAR LOOP","LEWIS CENTER","OH","43035"
316572,"943 LITTLE RIVER 52","FOREMAN","AR","71836"
316573,"943 MALCOLM AVE","LOS ANGELES","CA","90024"
316574,"943 MARINA BLVD","BULLHEAD CITY","AZ","86442"
316575,"943 PHELPS ROAD","TEANECK","NJ","07666"
316576,"943 ROSE HILL AVE","HAGERSTOWN","MD","21740"
316577,"943 SANBORN AVE UNIT 2","LOS ANGELES","CA","90029"
316578,"943 SOUTH 400 WEST","BOUNTIFUUL","UT","84010"
316579,"943 STONE CREEK CT","PERRYSBURG","OH","43551"
316580,"943 SWAN ST","HUNTINGTON","IN","46750"
316581,"943 SYMPHONY ISLES BLVD","APOLLO BEACH","FL","33572"
316582,"943 THOMAS AVE W APT 1","ST PAUL","MN","55104"
316583,"943 VANCE STREET","TOLEDO","OH","43607"
316584,"943 W LAKEWOOD RD","WEST PALM BEACH","FL","33405"
316585,"943 W SPRING CREEK TRAIL","LA PORTE","IN","46350"
316586,"9430 30TH AVE SW","SEATTLE","WA","98126"
316587,"9430 EMERALD GREEN DR","ROSHARON","TX","77583"
316588,"9430 LANHAM SEVERN ROAD","LANHAM","MD","20706"
316589,"9430 LARKBUNTING DRIVE","TAMPA","FL","33647"
316590,"9430 NORTH FAIRWAY DRIVE","BAYSIDE","WI","53217"
316591,"9430 WILKERSON MILL RD","PALMETTO","GA","30268"
316592,"9431 240TH STREET","FLORAL PARK","NY","11001"
316593,"9431 HAVEN AVE SUITE 218","RANCHO CUCAMONGA","CA","91730"
316594,"9431 N PURDUE","CLOVIS","CA","93619"
316595,"9431 NORWOOD LANE N","MAPLE GROVE","MN","55369"
316596,"9431 NW 8TH STREET","PEMBROKE PINES","FL","33024"
316597,"9431 PAULDING ST NW","MASSILLON","OH","44646"
316598,"9431 S RACINE AVE","CHICAGO","IL","60620"
316599,"9431 SENTRY DR","JACKSONVILLE","FL","32225"
316600,"9431 SPIRAL WOOD LN","HOUSTON","TX","77086"
316601,"9431 SW 79TH STREET","MIAMI","FL","33173"
316602,"9431 W SAM HOUSTON PKWY S","HOUSTON","TX","77099"
316603,"9431 WASHINGTON CIRCLE","CHANHASSEN","MN","55317"
316604,"9432 BAYMEADOWS RD SUITE 230","JACKSONVILLE","FL","32256"
316605,"9432 CRAFTSMAN CIR","BREWERTON","NY","13029"
316606,"9432 HOPELAND DRIVE","AUSTIN","TX","78749"
316607,"9432 KATY FREEWAY SUITE 380","HOUSTON","TX","77055"
316608,"9432 TAVISTOCK CT","MATTHEWS","NC","28105"
316609,"9432 VILLA ISLE CIRCLE","VILLA PARK","CA","92861"
316610,"9432 WESTLAKE CIRCLE","SHERWOOD","AR","72120"
316611,"9432 WOODLAWN DRIVE","DOUGLASVILLE","GA","30135"
316612,"9433 FOREST HILLS CIR","SARASOTA","FL","34248"
316613,"9433 FRIENDLY WOODS LANE","WHITTIER","CA","90605"
316614,"9433 HARBOR GREENS WAY APT 203","SEMINOLE","FL","33776"
316615,"9433 POPLAR AVENUE","FONTANA","CA","92335"
316616,"9433 W BRADLEY ROAD","MILWAUKEE","WI","53224"
316617,"9434 CURRY LANDING DR","HOUSTON","TX","77095"
316618,"9434 FOREST HILLS CIRCLE","TAMPA","FL","33612"
316619,"9434 MCCAMUS ROAD","BROOKSTON","MN","55711"
316620,"9434 S MAIN STREET SUITE 1900","JONESBORO","GA","30236"
316621,"9434 S SID CIR","SOUTH JORDAN","UT","84095"
316622,"9435 AINSLIE DOWNS ST","CHARLOTTE","NC","28273"
316623,"9435 ANZAC AVE","LOS ANGELES","CA","90002"
316624,"9435 BETEL DR","EL PASO","TX","79907"
316625,"9435 LORTON MARKET ST  SUITE 718","LORTON","VA","22079"
316626,"9435 LORTON MARKET ST STE 713","LORTON","VA","22079"
316627,"9435 NW 42ND STREET","SUNRISE","FL","33351"
316628,"9435 OLD PRESERVE TRAIL","BALL GROUND","GA","30107"
316629,"9435 QUESTA POINTE","SAN DIEGO","CA","92126"
316630,"9435 RANCHVIEW LN","MAPLE GROVE","MN","55369"
316631,"9435 SECOR ROAD","TEMPERANCE","MI","48182"
316632,"9435 SW HALL BLVD","TIGARD","OR","97223"
316633,"9435 THORN GLEN RD","JACKSONVILLE","FL","32208"
316634,"9435 TRIPP AVE","SKOKIE","IL","60076"
316635,"9435 W WYNCROFT COURT","WICHITA","KS","67205"
316636,"9435 WATERSTONE BLVD / SUITE 140","CINCINNATI","OH","45249"
316637,"9435 WATERSTONE BOULEVARD SUITE 140","CINCINNATI","OH","45249"
316638,"9435 WHEATLANDS CT","SANTEE","CA","92071"
316639,"9436 AMBER LANE","WEST CHESTER","OH","45069"
316640,"9436 CEDAR GLEN CT","RANCHO CUCAMONGA","CA","91730"
316641,"9436 DEW DROP COURT","COLORADO SPRINGS","CO","80925"
316642,"9436 MEDFORD FALLS AVE","LAS VEGAS","NV","89149"
316643,"9436 STANFIELD CT","STOCKTON","CA","95209"
316644,"9436 W LOOMIS RD UNIT 5","FRANKLIN","WI","53132"
316645,"9437 69TH ST","KENOSHA","WI","53142"
316646,"9437 FEICKERT DRIVE","ELK GROVE","CA","95624"
316647,"9437 US HIGHWAY 12","RANDLE","WA","98377"
316648,"9438 ALDER DRIVE","KING GEORGE","VA","22485"
316649,"9438 CONCORD RD","EATON","OH","45320"
316650,"9438 E RIVIERA","SCOTTSDALE","AZ","85260"
316651,"9438 GARNKIRK CT","SACRAMENTO","CA","95829"
316652,"9438 MANISTIQUE STREET","DETROIT","MI","48224"
316653,"9439 APPLE CT","FENTON","MI","48430"
316654,"9439 COPPER MIST","CONVERSE","TX","78109"
316655,"9439 E 81ST APT 424","TULSA","OK","74133"
316656,"9439 HADWAY DR","INDIANAPOLIS","IN","46256"
316657,"9439 JACLYN AVE","SAUQUOIT","NY","13456"
316658,"9439 POOLE RD","VILLA RICA","GA","30180"
316659,"9439 TREVINO TERRACE","LAUREL","MD","20708"
316660,"9439 WOODLEIGH MILL DR","JACKSONVILLE","FL","32244"
316661,"944 18TH ST S STE C","BIRMINGHAM","AL","15205"
316662,"944 18TH ST S","BIRMINGHAM","AL","35205"
316663,"944 4TH STREET SE","WASHINGTON","DC","20003"
316664,"944 4TH STREET","JESUP","IA","50648"
316665,"944 55TH AVENUE","GRUETLI-LAAGER","TN","37339"
316666,"944 ANNA STREET","WEST SACRAMENTO","CA","95605"
316667,"944 APRIL RAIN RD","LAWRENCE","KS","66049"
316668,"944 AURA CT","LOS ALTOS","CA","94024"
316669,"944 BIDWELL AVE","SUNNYVALE","CA","94086"
316670,"944 CITRUS WOOD CT","LONGWOOD","FM","32750"
316671,"944 COUNTRY CLUB BLVD SUITE 208","CAPE CORAL","FL","33990"
316672,"944 DALE ROAD","MEADOWBROOK","PA","19046"
316673,"944 DELTONA BLVD","DELTONA","FL","32725"
316674,"944 E GORHAM ST C/O CHRIST PRES CH","MAIDSON","WI","53703"
316675,"944 E JOHNSON STREET APT A206","PHILADELPHIA","PA","19138"
316676,"944 E PALMETTO ST","LAKELAND","FL","33801"
316677,"944 E RAINBOW BLVD PMB221","SALIDA","CO","81201"
316678,"944 E RITTENHOUSE STREET","PHILADELPHIA","PA","19138"
316679,"944 E US 22 AND 3","MORROW","OH","45152"
316680,"944 EAST GORHAM STREET","MADISON","WI","53703"
316681,"944 EVERGREEN ST SE","GRAND RAPIDS","MI","49507"
316682,"944 FLORIDA STREET","MEMPHIS","TN","38106"
316683,"944 FM 71","COMMERCE","TX","75428"
316684,"944 GARFIELD STREET","EMPORIA","KS","66801"
316685,"944 GARROD DR","DAVIS","CA","95616"
316686,"944 GREEN AVENUE","MANSON","WA","98831"
316687,"944 HERMANN RD","NORTH BRUNSWICK","NJ","08902"
316688,"944 HILDEBRAND CIR","FOLSOM","CA","95630"
316689,"944 KEYS DRIVE","BOULDER CITY","NV","89005"
316690,"944 LARPENTEUR AVE W","ST PAUL","MN","55113"
316691,"944 LOST GROVE CIRCLE","WINTER GARDEN","FL","34787"
316692,"944 LYNN STREET","CHARLOTTE","NC","28208"
316693,"944 MADISON AVENUE","RAHWAY","NJ","07065"
316694,"944 MORSE STREET","ALTAMONTE SPRINGS","FL","32701"
316695,"944 N SIERRA BONITA AVE","WEST HOLLYWOOD","CA","90046"
316696,"944 NORTH HILL ROAD","BALTIMORE","MD","21218"
316697,"944 OAKWOOD DR","WESTMONT","IL","60559"
316698,"944 OLD PUBLIC ROAD","HOCKESSIN","DE","19707"
316699,"944 PARK AVENUE","RACINE","WI","53403"
316700,"944 PHOENIX AVENUE","PEEKSKILL","NY","10566"
316701,"944 PORTABELLA LANE","CHARLESTON","SC","29412"
316702,"944 PROVIDENCE RD","NEWTOWN SQUARE","PA","19073"
316703,"944 PROVIDENCE ROAD","NEWTOWN SQUARE","PA","19073"
316704,"944 RALPH DAVID ABERNATHY BLVD","ATLANTA","GA","30310"
316705,"944 RANGE RD","YORK","PA","17406"
316706,"944 RINGGOLD CHURCH ROAD","RINGGOLD","VA","24586"
316707,"944 ROBERTS BLVD","DELTONA","FL","32725"
316708,"944 S LAMAR STREET","DALLAS","TX","75202"
316709,"944 SE CENTRAL PARKWAY","STUART","FL","34994"
316710,"944 SOUTH STADIUM ROAD","COLUMBIA","SC","29208"
316711,"944 SUNSET CIRCLE","ROAMING SHORES","OH","44085"
316712,"944 TIM CURRIN RD","LILLINGTON","NC","27546"
316713,"944 TIVERTON AVE SUITE 22","LOS ANGELES","CA","90024"
316714,"944 W 71ST","CHICAGO","IL","60621"
316715,"944 W DOTY AVE","SUMMERVILLE","SC","29483"
316716,"944 W FARM ROAD 178","SPRINGIELD","MO","65810"
316717,"944 W PLEASANT RUN RD","LANCASTER","TX","75146"
316718,"944 WASHINGTON STREET","WENATCHEE","WA","98801"
316719,"944 WASHINGTON","FORREST CITY","AR","72335"
316720,"944 WEST 35TH PLACE","CHICAGO","IL","60609"
316721,"9440 BENCHVIEW DRIVE","INDIANAPOLIS","IN","46240"
316722,"9440 HWY 76 SOUTH","SOMERVILLE","TN","38068"
316723,"9440 LONDON BRIDGE STA","HOUSTON","TX","77045"
316724,"9440 STRATTON DRIVE - APT 16321","FRISCO","TX","75035"
316725,"9440 VALLE VISTA ST","WINDSOR","CA","95492"
316726,"9441 BURNETTE AVENUE","DETROIT","MI","48204"
316727,"9441 GEORGIAN WAY","OWINGS MILLS","MD","21117"
316728,"9441 SW 20TH STREET","MIRAMAR","FL","33025"
316729,"9442 KEOKI CIRCLE","HUNTINGTON BEACH","CA","92646"
316730,"9442 RIGGS ROAD","HYATTSVILLE","MD","20783"
316731,"9442 S EMERALD AVE","CHICAGO","IL","60620"
316732,"9442 SYLMAR AVENUE APT 18","PANORAMA","CA","91402"
316733,"9442 TIKI CIRCLE","HUNTINGTON BEACH","CA","92646"
316734,"9443 44TH AVE SUITE 2","ELMHURST","NY","11373"
316735,"9443 CR 735","WEBSTER","FL","33597"
316736,"9443 FLOWERDEN LANE","MANASSAS","VA","20110"
316737,"9443 MONARDA CT","CHARLOTTE","NC","28216"
316738,"9443 SAPPHIRE CREEK LN","ROSHARON","TX","77583"
316739,"9443 WOODED GLEN AVE","BURKE","VA","22015"
316740,"9444 ENGLISH OAK DRIVE","INDIANAPOLIS","IN","46222"
316741,"9444 FM 314","BEN WHEELER","TX","75754"
316742,"9444 KOSTNER","SKOKIE","IL","60076"
316743,"9444 TAHOE DR","CENTERVILLE","OH","45458"
316744,"9444 W ALLERTON AVE","MILWAUKEE","WI","53228"
316745,"9445 INDIANAPOLIS BLVD - 1051","HIGHLAND","IN","46322"
316746,"9445 INDIANAPOLIS BLVD NUM 1059","HIGHLAND","IN","46322"
316747,"9445 INDIANAPOLIS BLVD STE 164","HIGHLAND","IN","46322"
316748,"9445 INDIANAPOLIS BLVD SUITE A-158","HIGHLAND","IN","46322"
316749,"9445 INDIANAPOLIS BOULEVARD 1017","HIGHLAND","IN","46322"
316750,"9445 S 183RD AVE","GOODYEAR","AZ","85338"
316751,"9445 TILEYARD ROAD","WATERFORD","PA","16441"
316752,"94458 MARCOLA RD","MARCOLA","OR","97454"
316753,"9446 GREENSBORO ST","DETROIT","MI","48224"
316754,"9446 LEYTON DRIVE","HARRISBURG","NC","28075"
316755,"9446 RALPH ST","ROSEMEAD","CA","91770"
316756,"9447 E LAS TUNAS DR","TEMPLE CITY","CA","91780"
316757,"9447 PINE LILLY COURT","NAVARRE","FL","32566"
316758,"9447 WASCO AVE","HESPERIA","CA","92345"
316759,"9448 CARTERSVILLE CT","RALEIGH","NC","27617"
316760,"9448 CASTLEWOOD DRIVE6","FORT WORTH","TX","76131"
316761,"9448 LAWRENCE CT UNIT 2A","SCHILLER PARK","IL","60176"
316762,"9448 S 1210 E","SANDY","UT","84094"
316763,"9449 BALBOA AVE SUITE 105","SAN DIEGO","CA","92123"
316764,"9449 BRIARFOREST NO 707","HOUST","TX","77063"
316765,"9449 CENTRAL PARK AVENUE","EVANSTON","IL","60203"
316766,"9449 CHURCH RD","DALLAS","TX","75238"
316767,"9449 COMPTON STREET","INDIANAPOLIS","IN","46240"
316768,"9449 DUNES LN","COTTAGE GROVE","MN","55016"
316769,"9449 LARK SPARROW DRIVE","HIGHLANDS RANCH","CO","80126"
316770,"9449 PRIORITY WAY W DRIVE STE 110","INDIANAPOLIS","IN","46240"
316771,"9449 S  KEDZIE  571","EVERGREEN PARK","IL","60805"
316772,"9449 S KEDZIE  UNIT 407","EVERGREEN PARK","IL","60805"
316773,"9449 S KEDZIE AVE  NUM 301","EVERGREEN PARK","IL","60805"
316774,"9449 S KEDZIE AVE 125","EVERGREEN PARK","IL","60805"
316775,"9449 S KEDZIE AVE 329","EVERGREEN PARK","IL","60805"
316776,"9449 S KEDZIE AVE STE 511","EVERGREEN PARK","IL","60805"
316777,"9449 S KEDZIE AVE SUITE 342","EVERGREEN PARK","IL","60805"
316778,"9449 S KEDZIE PO BOX 178","EVERGREEN PARK","IL","60805"
316779,"9449 S KEDZIE SUITE 109","EVERGREEN PARK","IL","60805"
316780,"9449 S KEDZIE SUITE-110","CHICAGO","IL","60805"
316781,"9449 S KEDZIE","EVERGREEN PARK","IL","60805"
316782,"9449 S KEDZIE","EVERGREEN PK","IL","60805"
316783,"9449 SOUTH KEDZIE AVE SUITE 588","EVERGREEN PARK","IL","60805"
316784,"9449 SOUTH KEDZIE AVENUE STE 567","EVERGREEN PARK","IL","60805"
316785,"9449 SOUTH KEDZIE AVENUE-SUITE 433","EVERGREEN PARK","IL","60805"
316786,"9449 SW 51ST STREET","COOPER CITY","FL","33328"
316787,"945 7TH AVE W","WEST FARGO","ND","58078"
316788,"945 APPLEGROVE CIR","CLARKSVILLE","TN","37040"
316789,"945 B NORTH TEMPLE AVE","STARKE","FL","32091"
316790,"945 BENSON STREET SE","ATLANTA","GA","30316"
316791,"945 CENTRAL AVE","GRANT","NE","69140"
316792,"945 CHAMPIONS FAIRWAY DR","MILTON","GA","30004"
316793,"945 CHULA VISTA AVE","BURLINGAME","CA","94010"
316794,"945 CONCORD STREET","FRAMINGHAM","MA","01701"
316795,"945 CRESTMARK BLVD SUITE 626","LITHIA SPRINGS","GA","30122"
316796,"945 DE-MOTT AVENUE","BALDWIN","NY","11510"
316797,"945 E 116TH STREET","LOS ANGELES","CA","90059"
316798,"945 E 53RD ST","BROOKLYN","NY","11234"
316799,"945 E BUCKINGHAM WAY","FRESNO","CA","93704"
316800,"945 ESTES","LORENA","TX","76655"
316801,"945 ETTA PLACE","GASTONIA","NC","28054"
316802,"945 FRANCIS AVENUE","BEXLEY","OH","43209"
316803,"945 FRANCIS AVENUE","SCHENECTADY","NY","12303"
316804,"945 FRANCIS ROAD","KNOXVILLE","TN","37909"
316805,"945 FRANKLIN AVE","COLUMBUS","OH","43205"
316806,"945 GABLE STREET","CHINO VALLEY","AZ","86323"
316807,"945 GAYLEY AVENUE 304","LOS ANGELES","CA","90024"
316808,"945 GRAND AVENUE","PITTSBURGH","PA","15212"
316809,"945 GRANITE CT","DESOTO","TX","75115"
316810,"945 HANOVER ST","SANTA CRUZ","CA","95062"
316811,"945 JOE W ROAD","CHURCH POINT","LA","70525"
316812,"945 LAKE VIEW DR","PADUCAH","KY","42003"
316813,"945 LAKEWOOD DR","ROCKFORD","IL","61102"
316814,"945 LOGAN COURT","LOVELAND","CO","80538"
316815,"945 MAD RIVER ROAD","ARCATA","CA","95521"
316816,"945 MAGNOLIA WOOD AVENUE","BATON ROUGE","LA","70808"
316817,"945 MCKINNEY ST STE 13196","HOUSTON","TX","77002"
316818,"945 MCKINNEY STREET  SUITE 240","HOUSTON","TX","77002"
316819,"945 MT HOPE RD","NEW CASTLE","PA","16101"
316820,"945 N 12TH STREET","MILWAUKEE","WI","53233"
316821,"945 N 40TH STREET APT 31","PHOENIX","AZ","85008"
316822,"945 N CAMAS LN","KALISPELL","MT","59901"
316823,"945 N CENTRAL AVE","CHICAGO","IL","60651"
316824,"945 N EL DORADO STREET APT 404","STOCKTON","CA","95202"
316825,"945 N UPLAND AVE","DAYTON","OH","45402"
316826,"945 NEW YORK DR","ALTADENA","CA","91001"
316827,"945 NORTH AVENUE","HIGHLAND PARK","IL","60035"
316828,"945 NORTH SERRANO AVE 217","LOS ANGELES","CA","90029"
316829,"945 NW NAITO PARKWAY APT 336","PORTLAND","OR","97209"
316830,"945 NW NAITO PKY 238","PORTLAND","OR","97209"
316831,"945 OLD OAK CIRCLE","ALGONQUIN","IL","60102"
316832,"945 OREGON BLVD","WATERFORD","MI","48327"
316833,"945 PARK STREET","BOWLING GREEN","KY","42101"
316834,"945 POST AVENUE","STATEN ISLAND","NY","10302"
316835,"945 PRESTON AVE","CHARLOTTESVILLE","VA","22903"
316836,"945 PROTANO LN","MAMARONECK","NY","10543"
316837,"945 QUINN ROAD","COLLIERVILLE","TN","38017"
316838,"945 RUSTIC RIDGE RD","AUBURN","AL","36830"
316839,"945 S BIRCH ST UNIT 461123","DENVER","CO","80246"
316840,"945 S LASSETTER CIR","VILLA RICA","GA","30180"
316841,"945 SCHILLINGER RD S APT 1303","MOBILE","AL","36695"
316842,"945 SGT ED HOLCOMB BLVD S","CONROE","TX","77304"
316843,"945 SILVER RIDGE PLACE","DIXON","CA","95620"
316844,"945 SMILEY AVE","CINCINNATI","OH","45240"
316845,"945 SOUTH OSAGE AVE PH-A","INGLEWOOD","CA","90301"
316846,"945 SW 1 STREET APT 209","FORT LAUDERDALE","FL","33312"
316847,"945 TARAVAL ST STE 167","SAN FRANCISCO","CA","94116"
316848,"945 TARAVAL STREET SUITE 328","SAN FRANCISCO","CA","94116"
316849,"945 TECUMSEH STREET","INDIANAPOLIS","IN","46201"
316850,"945 TROOST AVENUE","FOREST PARK","IL","60130"
316851,"945 VENEZIA AVE","VENICE","CA","90291"
316852,"945 W 80TH ST","LOS ANGELES","CA","90044"
316853,"945 W MICHIGAN AVE SUITE 6C","PENSACOLA","FL","32505"
316854,"945 W MICHIGAN AVENUE SUITE 9C","PENSACOLA","FL","32505"
316855,"945 W ROUNDBUNCH RD","BRIDGE CITY","TX","77611"
316856,"945 WAVERLY ST","HOUSTON","TX","77008"
316857,"945 WEST CARSON SUITE 218","TORRANCE","CA","90502"
316858,"945 WEST RIDGE DRIVE","JACKSON","MS","39209"
316859,"945 WHITEHAWK TRAIL","LAWRENCEVILLE","GA","30043"
316860,"9450 BUECHE ROAD","ERWINVILLE","LA","70729"
316861,"9450 COPPER MIST","CONVERSE","TX","78109"
316862,"9450 DUNHAM ROAD","MOUNT VERNON","OH","43050"
316863,"9450 E COLUMBUS DRIVE ROOM 206","TAMPA","FL","33619"
316864,"9450 E PALMETTO CLUB LN","MIAMI","FL","33157"
316865,"9450 EAST 275TH STREET","ELKO","MN","55020"
316866,"9450 EAST 59TH STREET","LAWRENCE","IN","46216"
316867,"9450 HOLLIDAY CIR","INDIANAPOLIS","IN","46260"
316868,"9450 MELBOURNE DRIVE","COLORADO SPRINGS","CO","80920"
316869,"9450 MIRA MESA BLVD 201","SAN DIEGO","CA","92126"
316870,"9450 MIRA MESA","SAN DIEGO","CA","92126"
316871,"9450 N 94TH PLACE SUITE 117","SCOTTSDALE","AZ","85258"
316872,"9450 OLD MARLBORO PIKE","UPPER MARLBORO","MD","20772"
316873,"9450 PINECROFT DR 7703","THE WOODLANDS","TX","77387"
316874,"9450 PINECROFT DRIVE UNIT 8453","SPRING","TX","77387"
316875,"9450 PURSUIT COURT","COLUMBIA","MD","21045"
316876,"9450 S EBERHART AVENUE","CHICAGO","IL","60619"
316877,"9450 SKILLMAN STREET  SUITE 124","DALLAS","TX","75243"
316878,"9450 SKILLMAN STREET  SUITE 124","DALLAS","TX","75342"
316879,"9450 SW GEMINI DR PMB 26648","BEAVERTON","OR","97008"
316880,"9450 SW GEMINI DR PMB 28093","BEAVERTON","OR","97008"
316881,"9450 SW GEMINI DRIVE 54039","BEAVERTON","OR","97008"
316882,"9450 SW GEMINI DRIVE PMB 37871","BEAVERTON","OR","97008"
316883,"9450 WHIPPOORWILL LN","MASON","OH","45040"
316884,"9451 COPPER MIST","CONVERSE","TX","78109"
316885,"9451 GREYSTONE PKWY","BRECKSVILLE","OH","44141"
316886,"9451 GROVE TRAIL LANE","GERMANTOWN","TN","38139"
316887,"9451 HEMINGWAY HWY","KINGSTREE","SC","29556"
316888,"9451 LBJ FREEWAY SUITE 118","DALLAS","TX","75243"
316889,"9451 W MARY ANN DRIVE","PEORIA","AZ","85382"
316890,"9452 CANONBURY SQ","FAIRFAX","VA","22031"
316891,"9452 DESCHUTES RD","PALO CEDRO","CA","96073"
316892,"9452 ENGLAND AVENUE","WESTMINSTER","CA","92683"
316893,"9452 RAMBLER DR","HUNTINGTON BEACH","CA","92646"
316894,"9452 TELEPHONE ROAD  SUITE 115","VENTURA","CA","93004"
316895,"9452 TELEPHONE ROAD UNIT 277","VENTURA","CA","93004"
316896,"9452 W 193RD TERRACE","BUCYRUS","KS","66013"
316897,"9452 WHISPER BEND DR","INDIANAPOLIS","IN","46278"
316898,"9453 PROSPECT HILL PL","FREDERICK","MD","21704"
316899,"9453 S ASHLAND 2ND FL SUITE 7","CHICAGO","IL","60620"
316900,"9454 GENNA TRACE TRAIL","JACKSONVILLE","FL","32257"
316901,"9454 S 400 W","UNION MILLS","IN","46382"
316902,"9454 TOKAY RD","SAN ANGELO","TX","76901"
316903,"9454 WILSHIRE BLVD STE 201","BEVERLY HILLS","CA","90212"
316904,"9454 WILSHIRE BLVD- PENTHOUSE SUIT","BEVERLY HILLS","CA","90212"
316905,"9454 WILSHIRE BLVD","BEVERLY HILLS","CA","90212"
316906,"9455 103RD ST","JACKSONVILLE","FL","32210"
316907,"9455 BRENNER CT","VIENNA","VA","22180"
316908,"9455 BRITTON HWY    PO BOX 23","TECUMSEH","MI","49286"
316909,"9455 COLLINS AVE APT 709","SURFSIDE","FL","33154"
316910,"9455 JARROD AVE S","COTTAGE GROVE","MN","55016"
316911,"9455 WEST 151ST STREET","OVERLAND PARK","KS","66221"
316912,"9455 WIND DANCER TRAIL","LAS CRUCES","NM","88011"
316913,"9456 GREENBACK LN","ORANGEVALE","CA","95662"
316914,"9456 LAKE CONROE DR","CONROE","TX","77304"
316915,"9456 MAX FLY DR","LAKELAND","FL","33810"
316916,"9456 SOUTH MAIN STREET","JONESBORO","GA","30236"
316917,"9457 N MOTH COURT","TUCSON","AZ","85742"
316918,"9457 S UNIVERSITY BLVD NUMBER 737","HIGHLANDS RANCH","CO","80126"
316919,"9457 S UNIVERSITY BLVD STE 140","HIGHLANDS RANCH","CO","80126"
316920,"9457 S UNIVERSITY BLVD SUITE 258","HIGHLANDS RANCH","CO","80126"
316921,"9457 SOUTH UNIVERSITY BLVD   733","HIGHLANDS RANCH","CO","80126"
316922,"9457 SOUTH UNIVERSITY BLVD","HIGHLANDS RANCH","CO","80126"
316923,"9457 STONEWALL ROAD","MANASSAS","VA","20110"
316924,"9458 S STREET RD","LE ROY","NY","14482"
316925,"9458 WOODLAND HILLS DRIVE  APT 58","HAMILTON","OH","45011"
316926,"945B NORTH TEMPLE AVENUE","STARKE","FL","32091"
316927,"945C ROSENCRANS LANE","MYRTLE BEACH","SC","29577"
316928,"946 7TH PLACE","CALIMESA","CA","92320"
316929,"946 BARBARALEE DRIVE","DUBUQUE","IA","52003"
316930,"946 BOROS DR","HOUSTON","TX","77024"
316931,"946 BRIARCLIFF DRIVE","SANTA MARIA","CA","93455"
316932,"946 BUENA VISTA WAY","CHULA VISTA","CA","91910"
316933,"946 CLAY AVENUE","SCRANTON","PA","18510"
316934,"946 CLIFTON DRIVE","ESTILL","SC","29918"
316935,"946 COOKSON AVE","NEW PHILADELPHIA","OH","44663"
316936,"946 CRESCENT BLVD","GLEN ELLYN","IL","60137"
316937,"946 E 152ND ST","SOUTH HOLLAND","IL","60473"
316938,"946 EAST CRAIGHEAD FOREST RD  109","JONESBORO","AR","72404"
316939,"946 EAST KIRKWOOD DRIVE","PUEBLO WEST","CO","81007"
316940,"946 EAST PALM VALLEY DRIVE","OVIEDO","FL","32765"
316941,"946 EL LAGO TER","WINTER SPGS","FL","32708"
316942,"946 EVANS STREET","BETHLEHEM","PA","18015"
316943,"946 FIFTH AVE","HUNTINGTON","WV","25701"
316944,"946 FOREST LANE","MALVERN","PA","19355"
316945,"946 GREAT PLAIN AVE NO 282","NEEDHAM","MA","02492"
316946,"946 GREAT PLAIN AVE SUITE 148","NEEDHAM","MA","02492"
316947,"946 INDUSTRIAL PARK RAOD","LITTLETON","NH","03561"
316948,"946 IRONWOOD WAY","YORK","PA","17404"
316949,"946 JEROME STREET","BALDWIN","NY","11510"
316950,"946 MARCUS DR APT 2","NEWPORT NEWS","VA","23602"
316951,"946 N DRAKE AVE","CHICAGO","IL","60615"
316952,"946 REAGAN COURT","DESOTO","TX","75115"
316953,"946 S ARCHERS WAY","NEKOOSA","WI","54457"
316954,"946 SIMPSON TERRACE SUITE 126","BEFORD","TX","76021"
316955,"946 SPENCE ST","LOS ANGELES","CA","90023"
316956,"946 W 40TH ST","SAN BERNARDINO","CA","92407"
316957,"946 W 630 S NUMBER 50","PLEASANT GROVE","UT","84062"
316958,"946 WAILUPE PLACE","HONOLULU","HI","96821"
316959,"946 WATKINS PLACE","JACKSON","MS","39206"
316960,"946 WEST BROAD AVE","ALBANY","GA","31701"
316961,"9460 43RD AVENUE","PLEASANT PRAIRIE","WI","53158"
316962,"9460 BIRCHLEY CT","ELK GROVE","CA","95624"
316963,"9460 CEDAR GLADE CV","CORDOVA","TN","38016"
316964,"9460 GRACE DR","TWINSBURG","OH","44087"
316965,"9460 KIWI CIRCLE","FOUNTAIN VALLEY","CA","92708"
316966,"9460 MIMOSA","FRISCO","TX","75034"
316967,"9460 SOUTH HOBART BOULEVARD","LOS ANGELES","CA","90047"
316968,"9460 TOBIN CIR","POTOMAC","MD","20854"
316969,"9460 WILSHIRE BOULEVARD  SUITE 850","BEVERLY HILLS","CA","90212"
316970,"9461 CHARLEVILLE BLVD STE 248","BEVERLY HILLS","CA","90212"
316971,"9461 FENS HOLLOW","LAUREL","MD","20723"
316972,"9461 SHAVER DRIVE","BROOKSVILLE","FL","34601"
316973,"9462 BROWNSBORO ROAD UNIT 135","LOUISVILLE","KY","40241"
316974,"9462 FAIRGREEN  LANE","PHILADELPHIA","PA","19114"
316975,"9463 COUNTY ROAD 31",NA,"AL","35953"
316976,"9463 DUNRAVEN ST","FREDERICK","MD","21704"
316977,"9463 OSBORN RD","ARLINGTON","TN","38002"
316978,"9463 W TUFTS AVE","LITTLETON","CO","80123"
316979,"9463 WEST TUFTS AVENUE","LITTLETON","CO","80123"
316980,"9464 BILTMORE STREET","WALDORF","MD","20603"
316981,"9464 HEMLOCK LN","MAPLE GROVE","MN","55369"
316982,"9464 HICKORY RIDGE RD","HARRISBURG","NC","28075"
316983,"9464 NC HIGHWAY 41 SOUTH","FAIRMONT","NC","28340"
316984,"9464 NW 4TH STREET","CORAL SPRINGS","FL","33071"
316985,"9464 SOHAP LANE","COLUMBIA","MD","21045"
316986,"9465 FOREST HILLS PLACE","TAMPA","FL","33612"
316987,"9465 GARDEN GROVE BLVD STE 200","GARDEN GROVE","CA","92844"
316988,"9465 HOMEWOOD CIRCLE","OOLTEWAH","TN","37363"
316989,"9465 WILSHIRE BLVD PENTHOUSE","BEVERLY HILLS","CA","90212"
316990,"9465 WILSHIRE BLVD SUITE 3014","BEVERLY HILLS","CA","90212"
316991,"9466 GEORGIA AVE NUM 527","SILVER SPRING","MD","20910"
316992,"9466 STATE ROUTE 143","MARINE","IL","62061"
316993,"9466 VISTA POINT DRIVE","THORNVILLE","OH","43076"
316994,"9467 BULLION WAY","ORANGEVALE","CA","95662"
316995,"9467 JOLIET ST","SAINT JOHN","IN","46373"
316996,"9467 PARK ST","ELLSWORTH","MI","49729"
316997,"9468 GONZALES DRIVE","DALLAS","TX","75227"
316998,"9468 WEST BUCKTOOTH RUN ROAD","LITTLE VALLEY","NY","14755"
316999,"9469 BRADMORE LN STE 101","OOLTEWAH","TN","37363"
317000,"9469 GLADIOLUS PRESERVE CIR","FORT MYERS","FL","33908"
