"ID","Address","City","State","Zip"
125001,"226 OAKMONT DRIVE","KERNERSVILLE","NC","27284"
125002,"226 OLD FARM RD","SPRINGFIELD","MA","01119"
125003,"226 ORCHARD LN","SEWICKLEY","PA","15143"
125004,"226 OUTLOOK DR","PONTE VEDRA","FL","32081"
125005,"226 PARSHLEY ROAD","VERSHIRE","VT","05079"
125006,"226 PAUL STREET SUITE 204","PITTSBURGH","PA","15211"
125007,"226 PAWNEE ST","ROSTRAVER TOWNSHIP","PA","15012"
125008,"226 PAYTON DUNCAN DRIVE","DAWSONVILLE","GA","30534"
125009,"226 PRICE AVE","HOLMES","PA","19043"
125010,"226 PUTNAM PIKE","DAYVILLE","CT","06241"
125011,"226 ROYAL BLUFF RD","JACKSONVILLE","NC","28540"
125012,"226 S 16TH STREET","LEWISBURG","PA","17837"
125013,"226 S BEVERLY DRIVE STE 214","BEVERLY HILLS","CA","90212"
125014,"226 S DACOTAH ST","LOS ANGELES","CA","90063"
125015,"226 S DORGENOIS","NEW ORLEANS","LA","70119"
125016,"226 S FRANCISCO PL","ANAHEIM","CA","92807"
125017,"226 S MADISON","WICKENBURG","AZ","85390"
125018,"226 S MAIN ST","ANDERSON","SC","29625"
125019,"226 S MAIN STREET","TOPEKA","IN","46571"
125020,"226 S WABASH AVENUE","CHICAGO","IL","60604"
125021,"226 SAMUEL BLVD APT 5F","COPPELL","TX","75019"
125022,"226 SANDOWN COURT","SOUDERTON","PA","18964"
125023,"226 SCHELLINGER RD","POLAND","ME","04274"
125024,"226 SCHOOL STREET","ADAIRVILLE","KY","42202"
125025,"226 SIR FRANCIS DRAKE BLVD","SAN ANSELMO","CA","94960"
125026,"226 SLADE STREET","FALL RIVER","MA","02724"
125027,"226 SOMMERVILLE PLACE","YONKERS","NY","10703"
125028,"226 SOUTH MAPLE AVENUE","GREENSBURG","PA","15601"
125029,"226 SOUTH PHILLIPS STREET","BULLARD","TX","75757"
125030,"226 SPARROW ROAD","LAFAYETTE","TN","37083"
125031,"226 STUYVESANT AVENUE","BROOKLYN","NY","11221"
125032,"226 SW 21ST TER","CAPE CORAL","FL","33991"
125033,"226 SYCAMORE STREET","LEBANON","TN","37087"
125034,"226 TEALL AVENUE UNIT 6017","SYRACUSE","NY","13217"
125035,"226 TURNPIKE ST","SOUTH EASTON","MA","02375"
125036,"226 VILLAGE CREEK COURT","BALLWIN","MO","63021"
125037,"226 W 140TH STREET 3C","NEW YORK","NY","10030"
125038,"226 W 6TH STREET","PANAMA CITY","FL","32401"
125039,"226 W COURT ST","WASHINGTON CH","OH","43160"
125040,"226 W ELECTION RD","DRAPER","UT","84020"
125041,"226 W PINE ST  PO BOX 1029","EAGLE RIVER","WI","54521"
125042,"226 W WABASHA ST","WINONA","MN","55987"
125043,"226 WEBSTER DRIVE","WAYNE","NJ","07470"
125044,"226 WEST 111TH ST APT 23","NEW YORK","NY","10026"
125045,"226 WEST 150TH APT 4E","NEW YORK","NY","10039"
125046,"226 WEST 152ND STREET APT4A","NEW YORK","NY","10039"
125047,"226 WEST 19TH STREET","ERIE","PA","16502"
125048,"226 WEST OJAI AVE SUITE 101 129","OJAI","CA","93203"
125049,"226 WEST ONTARIO SUITE 400C","CHICAGO","IL","60654"
125050,"226 WEST PINE STREET","WILLIAMSTON","NC","27892"
125051,"226 WESTHAMPTON WAY","CHAPEL HILL","NC","27516"
125052,"226 WINDING COVE AVE","APOPKA","FL","32703"
125053,"226 WINDSOR FOREST CIRCLE","FLETCHER","NC","28732"
125054,"226 WOODBINE AVENUE","NORTHPORT","NY","11768"
125055,"226 WOODRIDGE AVE","IOWA CITY","IA","52245"
125056,"2260 205TH STREET","FORT SCOTT","KS","66701"
125057,"2260 4TH PLACE CIR NE","BIRMINGHAM","AL","35215"
125058,"2260 A GOLDEN EAGLE WAY","LOUISVILLE","CO","80027"
125059,"2260 BRIARWOOD","FAYETTEVILLE","AR","72703"
125060,"2260 CIMARRON WAY","LOS OSOS","CA","93402"
125061,"2260 CLEAR CREEK ROAD","LAMAR","MS","38642"
125062,"2260 CR 2590","MOUNTAIN VIEW","MO","65548"
125063,"2260 DEL PASO RD STE 200","SACRAMENTO","CA","95834"
125064,"2260 DOWNS COURT","MOBILE","AL","36617"
125065,"2260 E WASHINGTON LANE","PHILADELPHIA","PA","19138"
125066,"2260 E WILDHORSE PLACE","CHANDLER","AZ","85286"
125067,"2260 EAST BIDWELL STREET 1207","FOLSOM","CA","95630"
125068,"2260 EAST BIDWELL STREET SUITE 1120","FOLSOM","CA","95630"
125069,"2260 FAIRBURN RD SW 310854","ATLANTA","GA","31131"
125070,"2260 FLATBOTTOM RD","BALL GROUND","GA","30107"
125071,"2260 FLATBUSH AVE","BROOKLYN","NY","11234"
125072,"2260 FRONT ST 302","MELBOURNE","FL","32901"
125073,"2260 GOLDEN EAGLE WAY UNIT B","LOUISVILLE","CO","80027"
125074,"2260 GRAND AVENUE UNIT 31","BALDWIN","NY","11510"
125075,"2260 HONEY SUCKLE LN","WELLSTON","OH","45692"
125076,"2260 IVORY PL","CARLSBAD","CA","92009"
125077,"2260 LAMPLIGHT LANE","LINCOLN","CA","95648"
125078,"2260 MAIDENS RD","MAIDENS","VA","23102"
125079,"2260 MERRILL AVENUE","YPSILANTI","MI","48197"
125080,"2260 ODUM ROAD","LUMBERTON","NC","28360"
125081,"2260 PARKSIDE DR","BOISE","ID","83712"
125082,"2260 PINEHAVEN DRIVE","SCHENECTADY","NY","12309"
125083,"2260 RICE ST","CINCINNATI","OH","45219"
125084,"2260 ROSECRAN CIR","LA VERGNE","TN","37086"
125085,"2260 SAINT CELIA STREET","DUBUQUE","IA","52002"
125086,"2260 SHALIMAR DR","SALINA","KS","67401"
125087,"2260 SHERWOOD AVENUE APT D","TARBORO","NC","27886"
125088,"2260 STATE STREET","GRANITE CITY","IL","62040"
125089,"2260 SUTHERLAND AVE","KNOXVILLE","TN","37919"
125090,"2260 SW 178TH AVENUE","ALOHA","OR","97003"
125091,"2260 TANGLEFOOT LN","BETTENDORF","IA","52722"
125092,"2260 UNIVERSITY BLVD APT 63","JACKSONVLLE","FL","32211"
125093,"2260 VIENNA PARKWAY","DAYTON","OH","45459"
125094,"2260 VILLA FONT WAY APARTMENT A","SACRAMENTO","CA","95825"
125095,"2260 W 27TH STREET","LOS ANGELES","CA","90018"
125096,"2260 W 29TH PLACE","LOS ANGELES","CA","90018"
125097,"2260 WEST GREAT NECK ROAD","VIRGINIA BEACH","VA","23451"
125098,"22600 LAMBERT ST BLDG D SUITE 1007","LAKE FOREST","CA","92630"
125099,"22600 MAPLE DR","FAIRVIEW PARK","OH","44126"
125100,"22600 N US HWY 441","MICANOPY","FL","32667"
125101,"22600 ROBIN CT","GAITHERSBURG","MD","20882"
125102,"22600 SE 286TH ST","MAPLE VALLEY","WA","98038"
125103,"22601 LUTHERAN CHURCH ROAD","TOMBALL","TX","77377"
125104,"22601 SE 20TH ST","SAMMAMISH","WA","98075"
125105,"22602 129TH PL SE","KENT","WA","98031"
125106,"22603 LEYTE DRIVE","TORRANCE","CA","90505"
125107,"22603 RADNOR LN","MORENO VALLEY","CA","92557"
125108,"22603 RIDGEVIEW ROAD","WATERTOWN","NY","13601"
125109,"22606 MORALIA DRIVE","MORENO VALLEY","CA","92557"
125110,"22607 141ST AVE SE","KENT","WA","98042"
125111,"22608 GOLDEN MEADOW LANE","SANTA CLARITA","CA","91350"
125112,"22608 TIMBERCREST CR","MACOMB","MI","48044"
125113,"2261 ADAMS AVENUE","OGDEN","UT","84401"
125114,"2261 BROOKHOLLOW PLAZA DR STE 210","ARLINGTON","TX","76006"
125115,"2261 BROOKHOLLOW PLAZA DR SUITE 210","ARLINGTON","TX","76006"
125116,"2261 BROOKHOLLOW PLZ DR STE 210","ARLINGTON","TX","76006"
125117,"2261 BROOKRIDGE TRAIL","SANFORD","FL","32773"
125118,"2261 CANTERBURY LANE","MELBOURNE","FL","32935"
125119,"2261 COMMERCE AVE UNIT A","CONCORD","CA","94520"
125120,"2261 ELLINGTON GAIT DRIVE","CLARKSVILLE","TN","37043"
125121,"2261 HANNAH WAY SOUTH","DUNEDIN","FL","34698"
125122,"2261 HUASNA ROAD","ARROYO GRANDE","CA","93420"
125123,"2261 HUGHES AVE STE 132","JBSA LACKLAND","TX","78236"
125124,"2261 LAWRENCE RD","CLOVER","SC","29710"
125125,"2261 MARKET STREET - 170A","SAN FRANCISCO","CA","94114"
125126,"2261 MARKET STREET 317","SAN FRANCISCO","CA","94114"
125127,"2261 MARKET STREET BOX 20","SAN FRANCISCO","CA","94114"
125128,"2261 MARKET STREET NO 484A","SAN FRANCISCO","CA","94103"
125129,"2261 MARKET STREET RM 434","SAN FRANCISCO","CA","94114"
125130,"2261 MARKET STREET SUITE 142","SAN FRANCISCO","CA","94114"
125131,"2261 NE 181ST AVE","PORTLAND","OR","97230"
125132,"2261 NE 38TH DRIVE","GRESHAM","OR","97030"
125133,"2261 NORTHPARK DR SUITE 112","KINGWOOD","TX","77339"
125134,"2261 NORTHPARK DRIVE  NO 113","KINGWOOD","TX","77339"
125135,"2261 NORTHPARK DRIVE 105","KINGWOOD","TX","77339"
125136,"2261 NORTHPARK DRIVE 117","KINGWOOD","TX","77339"
125137,"2261 NORTHPARK DRIVE 137","KINGWOOD","TX","77339"
125138,"2261 NORTHPARK DRIVE 407","KINGWOOD","TX","77339"
125139,"2261 OLD GARDINER RD SUITE 110","SEQUIM","WA","98382"
125140,"2261 OXON RUN DRIVE","TEMPLE HILLS","MD","20748"
125141,"2261 S REDWOOD RD","WEST VALLEY","UT","84119"
125142,"2261 SHORESIDE DRIVE","BERTHOUD","CO","80513"
125143,"2261 SOUTH REDWOOD ROAD SUITE M","SALT LAKE CITY","UT","84119"
125144,"2261 TALMADGE RD  STE 383","LOVEJOY","GA","30228"
125145,"2261 TALMADGE ROAD - POB 644","LOVEJOY","GA","30250"
125146,"2261 TALMADGE ROAD UNIT 706","LOVEJOY","GA","30250"
125147,"2261 VILLA VERDE RD","ESCONDIDO","CA","92029"
125148,"2261-A STEPPING STONES WAY","COLORADO SPRINGS","CO","80904"
125149,"22610 E ONTARIO DR UNIT 201","AURORA","CO","80016"
125150,"22610 TWO LAKES DR","TOMBALL","TX","77375"
125151,"22610 W 49 TERR","SHAWNEE","KS","66226"
125152,"22611 39TH AVE SE","BOTHELL","WA","98021"
125153,"22611 BRAESIDE CIR APT 105","FARMINGTON HILLS","MI","48335"
125154,"22612 COUNTY RD 455","HOWEY IN THE HILLS","FL","34737"
125155,"22614 PLUM CREEK DRIVE","SAUK VILLAGE","IL","60411"
125156,"22615 FRANCIS STREET","ST CLAIR SHORES","MI","48082"
125157,"22615 MARTIN ST","SALIDA","CO","81201"
125158,"22615 WNDBOURNE","TOMBALL","TX","77375"
125159,"22616 SHALLOW SPRING COURT","KATY","TX","77494"
125160,"22616 ZALTANA STREET","CHATSWORTH","CA","91311"
125161,"22617 AVENMAR DR","LEONARDTOWN","MD","20650"
125162,"22617 SUMMER LANE","NOVI","MI","48374"
125163,"22618 BIRCH POINT DR","KATY","TX","77450"
125164,"22619 PACIFIC COAST HIGHWAY STE 2A","M","CA","90265"
125165,"2262 BERRYHILL ST","HARRISBURG","PA","17104"
125166,"2262 CAMINO RAMON","SAN RAMON","CA","94583"
125167,"2262 CAMPTON RD STE B","ATLANTA","GA","30311"
125168,"2262 FREEMANSBURG AVE","EASTON","PA","18042"
125169,"2262 GLENVIEW DR","FREEPORT","IL","61032"
125170,"2262 GREENS LN","SPANISH FORK","UT","84660"
125171,"2262 MORGAN DR","AUBURN","AL","36830"
125172,"2262 PHILBECK CROSSROADS","SKIPWITH","VA","23968"
125173,"2262 PLAINFIELD PLACE","OXNARD","CA","93036"
125174,"2262 ROME DR UNIT A","INDIANAPOLIS","IN","46228"
125175,"2262 S 1650 E","SAINT GEORGE","UT","84790"
125176,"2262 SILVER LACE PL","MANTECA","CA","95337"
125177,"2262 SINGERLY RD","ELKTON","MD","21921"
125178,"2262 STONE WHEEL DR APRT F","RESTON","VA","20191"
125179,"2262 W 750 N","HURRICANE","UT","84737"
125180,"22621 FAST CT","BAKERSFIELD","CA","93314"
125181,"22621 SOUTH MAIN STREET","ETTRICK","WI","54627"
125182,"22621 YEAGER ROAD","MONROE","WA","98272"
125183,"22623 44TH DRIVE SE","BOTHELL","WA","98021"
125184,"22624 ZION PKWY NW","OAK GROVE","MN","55005"
125185,"22625 BUCK ALLEN DR","MARYSVILLE","OH","43040"
125186,"22625 CLAIRWOOD AVE","ST CLAIR SHORES","MI","48080"
125187,"22625 NE 26TH COURT","SAMMAMISH","WA","98074"
125188,"22625 WESTCHESTER ROAD","SHAKER HEIGHTS","OH","44122"
125189,"22627 NE ALDER CREST DR UNIT 201","REDMOND","WA","98053"
125190,"22627 NE ALDER CREST DRIVE UNIT 201","REDMOND","WA","98053"
125191,"22627 PETRIZZI LN","KATY","TX","77449"
125192,"22628 PAUL REVERE DRIVE","CALABASAS","CA","91302"
125193,"22629 W 143RD","PLAINFIELD","IL","60544"
125194,"2263 BELLWETHER LANE","FORT COLLINS","CO","80521"
125195,"2263 CAMP CREEK RD","LANCATER","SC","29720"
125196,"2263 CASS RD","TRAVERSE CITY","MI","49684"
125197,"2263 FLATIRON WAY","SAN MARCOS","CA","92078"
125198,"2263 FM 619","ELGIN","TX","78621"
125199,"2263 LAVISTA COURT NE","ATLANTA","GA","30324"
125200,"2263 LOWER RIVER RD NW","CHARLESTON","TN","37310"
125201,"2263 N HOBART BLVD","LOS ANGELES","CA","90027"
125202,"2263 NW BOCA RATON BLVD STE 207","BOCA RATON","FL","33431"
125203,"2263 OLD DICEY ROAD","WEATHERFORD","TX","76085"
125204,"2263 REGENT STREET","MADISON","WI","53726"
125205,"2263 RIVERVIEW COURT","BULLHEAD CITY","AZ","86442"
125206,"2263 SONORA DR","ARNOLD","MO","63010"
125207,"2263 SW 37TH AVE UNIT 418","MIAMI","FL","33145"
125208,"2263 SW 37TH AVE","MIAMI","FL","33146"
125209,"2263 SW DANFORTH CIR","PALM CITY","FL","34990"
125210,"2263 TIEBOUT AVENUE   APARTMENT 1A","BRONX","NY","10457"
125211,"2263 W 190TH STREET","TORRANCE","CA","90504"
125212,"2263 YORK DRIVE 149","WOODBRIDGE","VA","22191"
125213,"22630 NOTTINGHAM LANE","SOUTHFILED","MI","48033"
125214,"22630 SOUTH HARRISON APT 3208","SPRING HILL","KS","66083"
125215,"22632 BLUE FIN TRAIL","BOCA RATON","FM","33428"
125216,"22632 CANYON CLUB DR","CANYON LAKE","CA","92587"
125217,"22632 GOLDEN SPRINGS DR  STE 340","DIAMOND BAR","CA","91765"
125218,"22632 GOLDEN SPRINGS DR STE 350","DIAMOND BAR","CA","91765"
125219,"22632 SWEET JEN TER","ASHBURN","VA","20148"
125220,"22636 FOX TRAIL LN","PLAINFIELD","IL","60544"
125221,"22636 GLENN DR 106","STERLING","VA","20164"
125222,"22639 EUCLID AVENUE","EUCLID","OH","44117"
125223,"22639 NE ALDER CREST DR UNIT 203","REDMOND","WA","98053"
125224,"2264 74TH ST","BLAIRSTOWN","IA","52209"
125225,"2264 77TH AVE","BATON ROUGE","LA","70807"
125226,"2264 COLLEEN COURT","DECATUR","GA","30032"
125227,"2264 E76TH ST","CLEVELAND","OH","44103"
125228,"2264 FELLOWS WAY","MONTROSE","CO","81401"
125229,"2264 MAJESTIC DRIVE WEST","COLUMBUS","OH","43232"
125230,"2264 MALLARD DR","WALNUT CREEK","CA","94597"
125231,"2264 STIEBER ST","WESTLAND","MI","48186"
125232,"2264 YORK AVE","MEMPHIS","TN","38104"
125233,"22641 COPPER HILL DRIVE NUMBER 81","SAUGUS","CA","91350"
125234,"22642 SE 59TH PLACE","HAWTHORNE","FL","32640"
125235,"22643 COUNTY ROAD 70","EATON","CO","80615"
125236,"22643 SE 271ST ST","MAPLE VALLEY","WA","98038"
125237,"22645 HAZELTINE","MISSION VIEJO","CA","92692"
125238,"22646 LEEWIN","DETROIT","MI","48219"
125239,"22646 PLYMOUTH RD","REDFORD","MI","48239"
125240,"22647 HAZEL LANE","RAPID CITY","SD","57702"
125241,"22647 NORTH HIGHWAY 71","WINSLOW","AR","72959"
125242,"22647 VENTURA BLVD 416","WOODLAND HILLS","CA","91364"
125243,"226473","MIAMI","FL","33222"
125244,"22648 TANAGER STREET","GRAND TERRACE","CA","92313"
125245,"22649 BALTAR ST","WEST HILLS","CA","91304"
125246,"22649 MARSH WREN DRIVE","LAND O LAKES","FL","34639"
125247,"22649 PHILOMONT RIDGE COURT","ASHBURN","VA","20148"
125248,"2265 119TH PL","BLUE ISLAND","IL","60406"
125249,"2265 E MURRAY HOLLADAY ROAD","HOLLADA","UT","84117"
125250,"2265 EAST 3900 SOUTH","SALT LAKE CITY","UT","84124"
125251,"2265 EMERALD ST","SAN DIEGO","CA","92109"
125252,"2265 FIFTH AVENUE SUITE 10E","NEW YORK","NY","10037"
125253,"2265 FIFTH AVENUE SUITE 12B","NEW YORK","NY","10037"
125254,"2265 LIVERNOIS ROAD SUITE 350","TROY","MI","48083"
125255,"2265 LONGSPUR LOOP","LINCOLN","CA","95648"
125256,"2265 MARSHALLTOWN BLVD","MARSHALLTOWN","IA","50158"
125257,"2265 MCDONALD AVENUE","BROOKLYN","NY","11223"
125258,"2265 N 100TH RD","WELLSVILLE","KS","66092"
125259,"2265 N KENWOOD DRIVE","INDIANAPOLIS","IN","46222"
125260,"2265 OAK SHADOW CT","OVIEDO","FL","32766"
125261,"2265 RIDGEDALE ROAD NE","ATLANTA","GA","30317"
125262,"2265 ROBIN DRIVE","TALLAHASSEE","FL","34117"
125263,"2265 ROSWELL RD STE 100","MARIETTA","GA","30062"
125264,"2265 ROSWELL ROAD SUITE 100","MARIETTA","GA","30062"
125265,"2265 S BEVERLEY GLEN BLVD SUITE 204","LOS ANGELES","CA","90064"
125266,"2265 UNIVERSITY STATION","CLEMSON","SC","29632"
125267,"22652 SW 65TH TERRACE","BOCA RATON","FL","33428"
125268,"22655 HILLSIDE CIRCLE","LEESBURG","VA","20175"
125269,"22656 WILDWOOD ST","ST CLAIR SHORES","MI","48081"
125270,"22657 NE ALDER CREST DRIVE APT 202","REDMOND","WA","98053"
125271,"22657 SW PINEHURST DR","SHERWOOD","OR","97140"
125272,"2266 5TH AVE  PO BOX 272","NEW YORK","NY","10037"
125273,"2266 5TH AVENUE  POBOX 568","NEW YORK","NY","10037"
125274,"2266 5TH AVENUE MPB 568","NEW YORK","NY","10037"
125275,"2266 BATH AVE UNIT 3008","BROOKLYN","NY","11214"
125276,"2266 DANFORTH","HAMTRAMCK","MI","48212"
125277,"2266 DORIS DRIVE","DECATUR","GA","30034"
125278,"2266 HAMPDEN PLACE","BRONX","NY","10468"
125279,"2266 HIGH ST","ATWATER","CA","95301"
125280,"2266 KINGSHILL","ST. CROIX","VI","00851"
125281,"2266 N PARKFOREST WAY","EAGLE","ID","83616"
125282,"2266 OKADA CRT","ORLANDO","FL","32818"
125283,"2266 RED MAPLE LANE","AURORA","IL","60502"
125284,"2266 SAINT PAUL RD","SUMMERTON","SC","29148"
125285,"2266 SW 8TH ST","MIAMI","FL","33135"
125286,"2266 W 10455 S","SOUTH JORDAN","UT","84095"
125287,"22664 WALL STREET","FLORALA","AL","36442"
125288,"22668 MAPLE GROVE ROAD","UNION CITY","PA","16438"
125289,"2267 129TH AVENUE NORTHWEST","COON RAPIDS","MN","55448"
125290,"2267 BLACKBERRY LANE","CONWAY","AR","72034"
125291,"2267 CANDLEWOOD DRIVE","DAYTON","OH","45419"
125292,"2267 EAST END DRIVE","HUMBOLDT","TN","38343"
125293,"22671 HORSESHOE RD","SHERRILL","IA","52073"
125294,"22674 WEST PIMA STREET","BUCKEYE","AZ","85326"
125295,"22675 NE ALDER CREST DR UNIT 203","REDMOND","WA","98053"
125296,"2268 BIG PINES AVE LOT 33","WOODLAND PARK","CO","80863"
125297,"2268 BIRCH STREET","DENVER","CO","80207"
125298,"2268 BLACK MANGROVE DRIVE","ORLANDO","FL","32828"
125299,"2268 CENTURY POINT UNIT 1B","GLENDALE HEIGHTS","IL","60139"
125300,"2268 COMPASS POINT LANE","RESTON","VA","20191"
125301,"2268 EDGEWOOD TERRACE","SCOTCH PLAINS","NJ","07023"
125302,"2268 FOUR SEASONS DRIVE","GAMBRILLS","MD","21054"
125303,"2268 HIDEAWAY POINTE DRIVE","LITTLE ELM","TX","75068"
125304,"2268 HWY 8 EAST","NORMAN","AR","71960"
125305,"2268 JERSEY AVENUE","SCOTCH PLAINS","NJ","07076"
125306,"2268 LEITNAKER RD NE","PLEASANTVILLE","OH","43148"
125307,"2268 QUIMBY RD STE E","SAN JOSE","CA","95122"
125308,"2268 QUIMBY ROAD STE E","SAN JOSE","CA","95122"
125309,"2268 STRAUSS STREET","BROOKLYN","NY","11212"
125310,"2268 WILLOW OAK CIRCLE APT 202","VIRGINIA BEACH","VA","23451"
125311,"22681 COULTER AVE","EUCLID","OH","44117"
125312,"22681 SW 114TH CT","MIAMI","FL","33170"
125313,"22687 N KANE ST","DETROIT","MI","48223"
125314,"2269 48TH AVE","OAKLAND","CA","94601"
125315,"2269 AVERY COURT","FRANKLIN","TN","37067"
125316,"2269 AVONDALE AVENUE","TOLEDO","OH","43607"
125317,"2269 CASON LANE","MURFREESBORO","TN","37128"
125318,"2269 E 74TH ST","CLEVELAND","OH","44103"
125319,"2269 EARL AVE 8","LONG BEACH","CA","90806"
125320,"2269 KEYSTONE WAY","BRENTWOOD","CA","94513"
125321,"2269 MAGANS OCEAN WALK","VERO BEACH","FL","32963"
125322,"2269 RAGAN WOODS DRIVE","TOLEDO","OH","43614"
125323,"2269 S 700 EAST","MARION","IN","46953"
125324,"2269 VIEW ST","OCEANSIDE","CA","92054"
125325,"2269 WATT HILL ROAD","MURPHYSBORO","IL","62966"
125326,"22695 LITTLE BEND RD","LOWER BRULE","SD","57548"
125327,"22695 S UPPER HIGHLAND RD","BEAVERCREEK","OR","97004"
125328,"22699 KINROSS LANE","MORENO VALLEY","CA","92557"
125329,"226A ST JOE PLAZA DRIVE  115","PALM COAST","FL","32164"
125330,"226A ST JOES PLAZA DRIVE BOX 103","PALM COAST","FL","32164"
125331,"227 13TH ST  C/O SUSAN MOREMAN","AMBRIDGE","PA","15003"
125332,"227 2ND ST","HOLLY HILL","FL","32117"
125333,"227 31ST AVE E","SEATTLE","WA","98122"
125334,"227 AIRPORT ROAD","MAYFIELD","KY","42066"
125335,"227 ALLEN DRIVE","SOMERSET","KY","42503"
125336,"227 BATES ROAD","WHITE SALMON","WA","98672"
125337,"227 BELLEVUE WA NE STE 165","BELLEVUE","WA","98004"
125338,"227 BELLEVUE WAY NE  NUM 610","BELLEVUE","WA","98004"
125339,"227 BELLEVUE WAY NE BOX 933","BELLEVUE","WA","98004"
125340,"227 BELLEVUE WAY NE PMB 292","BELLEVUE","WA","98004"
125341,"227 BERRY STREET","BROOKLYN","NY","11249"
125342,"227 BREES BOULEVARD","SAN ANTONIO","TX","78209"
125343,"227 BRYN DU DRIVE","GRANVILLE","OH","43023"
125344,"227 BURGUNDY DR","COLUMBUS","MS","39702"
125345,"227 CASTRO PLACE","ERIE","CO","80516"
125346,"227 CEDAR CREST DR","JUSTIN","TX","76247"
125347,"227 CHAPEL HILL LANE","SIMPSONVILLE","SC","29681"
125348,"227 COLEBROOK PLACE","ROCKTON","IL","61072"
125349,"227 COLFAX AVE N   SUITE 130","MINNEAPOLIS","MN","55405"
125350,"227 CONGRESS CIRCLE","TOPSHAM","ME","04011"
125351,"227 COTEAU PL SW","LILBURN","GA","30047"
125352,"227 COUNTY ROAD 95","TUSKEGEE","AL","36083"
125353,"227 CROWN OAKS WAY","LONGWOOD","FL","32779"
125354,"227 DANVERS STREET","MCDONOUGH","GA","30253"
125355,"227 DATE DRIVE","LEOLA","PA","17540"
125356,"227 DAVIS CARTER ROAD","MONTICELLO","GA","31064"
125357,"227 DIVISION ST","ELKHART","IN","46516"
125358,"227 DON GASPAR AVENUE","SANTA FE","NM","87501"
125359,"227 DUE WEST DRIVE","STOCKBRIDGE","GA","30281"
125360,"227 E BELT BOULEVARD","RICHMOND","VA","23224"
125361,"227 E COLLEGE","JACKSBORO","TX","76458"
125362,"227 E EVESHAM RD","VOORHEES","NJ","19038"
125363,"227 E JACKSON ST","NEW HOLLAND","PA","17557"
125364,"227 E LINCOLN AVENUE","MOUNT VERNON","NY","10550"
125365,"227 E MAIN STREET","FESTUS","MO","63028"
125366,"227 E MCKINLEY STREET","TEMPE","AZ","85281"
125367,"227 E SULLIVAN ST","KINGSPORT","TN","37660"
125368,"227 EAST 2ND STREET","CORNING","NY","14830"
125369,"227 EAST 4TH STREET","BROOKLYN","NY","11218"
125370,"227 EAST 58TH ST 3RD FL","NEW YORK","NY","10022"
125371,"227 EAST ADAMS STREET SUITE 1","SANDUSKY","OH","44870"
125372,"227 EAST MOSHOLU PKWY NORTH STE 5J","BRONX","NY","10467"
125373,"227 EAST SUNSHINE STREET","SPRINGFIELD","MO","65807"
125374,"227 ELMER STREET THIRD FLOOR","WESTFIELD","NJ","07090"
125375,"227 EMERALD DR","WAYNE","NE","68787"
125376,"227 ENGLEWOOD AVE","BUFFALO","NY","14214"
125377,"227 FAYETTE STREET UNIT 1A","LOWELL","MA","01852"
125378,"227 FOREST AVENUE","PITTSBURGH","PA","15202"
125379,"227 FOXBURG DRIVE","PITTSBURGH","PA","15205"
125380,"227 FRAISER FIR LANE","COLUMBIA","SC","29229"
125381,"227 GRAND AVE STE C","PALISADES PK","NJ","07650"
125382,"227 GREENTREE RD","TURNERSVILLE","NJ","08012"
125383,"227 HARRIS","JUNEAU","AK","99801"
125384,"227 HARVARD ROAD","LINDEN","NJ","07036"
125385,"227 HERONWOOD CIRCLE","DELTONA","FL","32725"
125386,"227 HOLLIDAY STREET SUITE 300","BALTIMORE","MD","21202"
125387,"227 HWY 75 ALT","CLEVELAND","GA","30528"
125388,"227 INGRAHAM ST NW","WASHINGTON","DC","20011"
125389,"227 KARSTEN DRIVE","WAHIAWA","HI","96786"
125390,"227 KNOLLS STREET","CHAPEL HILL","NC","27516"
125391,"227 LE GRANDE BLVD","AURORA","IL","60506"
125392,"227 LEAP FROG HOLLOW","MONTPELIER","VT","05602"
125393,"227 LEWIS STREET","FLORENCE","MS","39073"
125394,"227 LONDON AVE","PAWTUCKET","RI","02861"
125395,"227 MAMMOTH CAVE RD","BROWNSVILLE","KY","42210"
125396,"227 MARGUERITE AVENUE SUITE 2","SYRACUSE","NY","13207"
125397,"227 MARKET STREET SUITE B","CAMDEN","NJ","08102"
125398,"227 MARKHAM FARM ROAD","FRONT ROYAL","VA","22630"
125399,"227 MECHANIC STREET UNIT C","LEBANON","VT","03766"
125400,"227 MEDICAL PARK DR","BRIDGEPORT","WV","26330"
125401,"227 MESA DRIVE","BRIDGEPORT","WV","26330"
125402,"227 MICHAEL DR","SYOSSET","NY","11791"
125403,"227 MICHAEL DRIVE","SYOSSET","NY","11791"
125404,"227 MICHIGAN AVENUE SUITE 203","MIAMI BEACH","FL","33139"
125405,"227 N 42ND ST","PENNSAUKEN","NJ","08110"
125406,"227 N HENRY STREET","ALEXANDRIA","VA","22314"
125407,"227 N LOCUST STREET","MOMENCE","IL","60954"
125408,"227 N LOOP 1604 E  STE 150","SAN ANTONIO","TX","78232"
125409,"227 N MAIN ST","SIMPSONVILLE","SC","29681"
125410,"227 N RAYMOND RD  APT 17","SPOKANE VALLEY","WA","99206"
125411,"227 N TRAPP AVE","SIOUX FALLS","SD","57104"
125412,"227 N WILLOW AVE","ERWIN","TN","37650"
125413,"227 N WINTER ST SUITE 200","ADRIAN","MI","49221"
125414,"227 NE LOOP 820 SUITE 170","HURST","TX","76053"
125415,"227 NORTH 42ND STREET","PENNSAUKEN","NJ","08110"
125416,"227 NORTH DENTON","LIBERAL","MO","64762"
125417,"227 NORTH HOLLIDAY STREET SUITE 1C","BALTIMORE","MD","21202"
125418,"227 NORTH LEWIS STREET","LEXINGTON","VA","24450"
125419,"227 NORTH LOOP 1604 EAST STE 150","SAN ANTONIO","TX","78232"
125420,"227 OAK STREET","BELLMORE","NY","11710"
125421,"227 OCEANO AVE APT 13","SANTA BARBARA","CA","93109"
125422,"227 OLDE CASTLE LOOP","OXFORD","MS","38655"
125423,"227 ORCHARD PARK","ALLENDALE","NJ","07401"
125424,"227 OURAY ROAD","EVERGREEN","CO","80439"
125425,"227 POWER COURT UNIT 101","SANFORD","FL","32771"
125426,"227 RAINBOW DRIVE","BARNWELL","SC","29812"
125427,"227 RAPSCALLION CT","ORLANDO","FL","32828"
125428,"227 REES STREET","BREAUX BRIDGE","LA","70517"
125429,"227 ROBERT STREET","NANTICOKE","PA","18634"
125430,"227 ROBIN HOOD ROAD","HAVRE DE GRACE","MD","21078"
125431,"227 ROUSER RD","RIDGELAND","MS","39157"
125432,"227 RUBY DRIVE","MACON","GA","31211"
125433,"227 RUSTWOOD DR","MOORESVILLE","NC","28117"
125434,"227 RUTH AVE","VENICE","CA","90291"
125435,"227 S 4TH ST","JEANNETTE","PA","15644"
125436,"227 S 76TH STREET","MILWAUKEE","WI","53214"
125437,"227 S CANADA STREET","SANTA BARBARA","CA","93103"
125438,"227 S CHURCH ST - APT C","BELLEVILLE","IL","62220"
125439,"227 SAINT NICHOLAS CT","FREMONT","CA","94539"
125440,"227 SAM MASON RD","BUNKER HILL","WV","25413"
125441,"227 SANDY SPRINGS PL  D-456","SANDY SPRINGS","GA","30328"
125442,"227 SANDY SPRINGS PL SUITE 720132","SANDY SPRINGS","GA","30328"
125443,"227 SANDY SPRINGS PL SUITE D424","SANDY SPRINGS","GA","30328"
125444,"227 SANDY SPRINGS PL SUITE G 720043","SANDY SPRINGS","GA","30328"
125445,"227 SANDY SPRINGS PLACE SUITE 148","SANDY SPRINGS","GA","30328"
125446,"227 SANDY SPRINGSPLACE STE G720471","ATLANTA","GA","30328"
125447,"227 SANY FORD RD","BEEBE","AR","72012"
125448,"227 SARAZEN DR","COLUMBIA","MO","65202"
125449,"227 SAUNDERS CT","CRESCO","PA","18326"
125450,"227 SCHOOL DRIVE","DELANSON","NY","12053"
125451,"227 SHORE ACRES DRIVE","ROCHESTER","NY","14612"
125452,"227 SILVERVIEW DRIVE","SARVER","PA","16055"
125453,"227 SO WEST SILVER LAKE ROAD","TRAVERSE CITY","MI","49685"
125454,"227 SOUTH MAIN STREET","DAWSON","GA","39842"
125455,"227 SOUTH MAIN STREET","WINTER GARDEN","FL","34787"
125456,"227 SOUTH SWINTON AVENUE","DELRAY BEACH","FL","33444"
125457,"227 ST PAUL STREET LEFT SIDE OF BDG","BURLINGTON","VT","05401"
125458,"227 STATION MILL BLVD","BLUFFTON","SC","29909"
125459,"227 SUMMIT AVE W-308","BROOKLINE","MA","02446"
125460,"227 TEMPLETON AVE","GIRARD","PA","16417"
125461,"227 TUMBLEWEED ST","BORGER","TX","79007"
125462,"227 VINCENT DRIVE","EAST MEADOW","NY","11554"
125463,"227 VINEYARD ROAD","HUNTINGTON","NY","11743"
125464,"227 W 155TH ST","HARVEY","IL","60426"
125465,"227 W 17TH ST","JUNCTION CITY","KS","66441"
125466,"227 W 19TH ST","HOLLAND","MI","49423"
125467,"227 W 8TH STREET","PORT ANGELES","WA","98362"
125468,"227 W CHRYSTIE CIRCLE","DELRAY BEACH","FL","33484"
125469,"227 W LOYOLA AVENUE","VISALIA","CA","93277"
125470,"227 W MONROE STREET SUITE 4800","CHICAGO","IL","60606"
125471,"227 W VAN BUREN STREET","COLUMBIA CITY","IN","46725"
125472,"227 WAKEROBIN DRIVE","STAFFORD","VA","22556"
125473,"227 WASHINGTON AVE","WESTWOOD","NJ","07675"
125474,"227 WEST 149TH STREET SUITE 2B","NEW YORK","NY","10039"
125475,"227 WEST 1ST STREET","BIRCH TREE","MO","65438"
125476,"227 WEST 29TH STREET 7TH FLOOR","NEW YORK","NY","10001"
125477,"227 WEST CHERRY STREET","MARION","VA","24354"
125478,"227 WEST FULTON AVE","ROOSEVELT","NY","11575"
125479,"227 WEST PEDREGOSA AVENUE","SANTA BARBARA","CA","93101"
125480,"227 WOOD STREET","BRISTOL","PA","19007"
125481,"227 YEISER LANE","HUDGINS","VA","23076"
125482,"227-16 107TH AVE","QUEENS VILLAGE","NY","11429"
125483,"227-27 111TH AVE","JAMAICA","NY","11429"
125484,"227-41 113TH DRIVE","QUEENS VILLAGE","NY","11411"
125485,"227-A CRAB CREEK RD","HENDERSONVILLE","NC","28739"
125486,"2270 39TH ST","LOS ALAMOS","NM","87544"
125487,"2270 COPPER CANYON ROAD","ARGYLE","TX","76226"
125488,"2270 D WYOMING BLVD NE NUM 281","ALBUQUERQUE","NM","87112"
125489,"2270 DUNCAN RIDGE DR","NAVARRE","FL","32566"
125490,"2270 E 105TH ST","LOS ANGELES","CA","90002"
125491,"2270 E SUNSET HILL DRIVE","WEST COVINA","CA","91791"
125492,"2270 E VERNOR HWY APT 5","DETROIT","MI","48207"
125493,"2270 EAST 22ND STREET","MINNEAPOLIS","MN","55407"
125494,"2270 HIGHWAY 87","NAVARRE","FL","32566"
125495,"2270 HOFFMAN AVENUE","ELMONT","NY","11003"
125496,"2270 INDIANA AVE","COLUMBUS","OH","43202"
125497,"2270 INKE RD","RICHMOND","IN","47374"
125498,"2270 MOONRIDGE AVENUE","NEWBURY PARK","CA","91320"
125499,"2270 NW AVIATION DR STE 4","ROSEBURG","OR","97470"
125500,"2270 OLD COLUMBUS ROAD","OPELIKA","AL","36804"
