"ID","Address","City","State","Zip"
194501,"3900 3RD AVE","LOS ANGELES","CA","90008"
194502,"3900 BRIGHTWALTON ROAD","MIDLOTHIAN","VA","23112"
194503,"3900 BRIGHTWOOD LANE","DURHAM","NC","27703"
194504,"3900 BROADWAY","WEST PALM BEACH","FL","33401"
194505,"3900 BUNKUM ROAD","WASHINGTON PARK","IL","62204"
194506,"3900 BURNING BUSH ROAD","LOUISVILLE","KY","40241"
194507,"3900 BUSINESS CENTER DR UNIT 10101","FAIRFIELD","CA","94534"
194508,"3900 BUSINESS CENTER DRIVE 1108","FAIRFIELD","CA","94534"
194509,"3900 CASA BLANCA RD","LAREDO","TX","78041"
194510,"3900 CHESTNUT HILL DRIVE","MIDLAND","MI","48642"
194511,"3900 CHESTNUT ST APT 606","PHILADELPHIA","PA","19104"
194512,"3900 CLARK RD UNIT L2","SARASOTA","FL","34233"
194513,"3900 CLEVELAND SUITE 206","SAN DIEGO","CA","92103"
194514,"3900 COTSWOLD AVENUE STE  107B","GREENSBORO","NC","27410"
194515,"3900 COTTINGHAM DRIVE","CINCINNATI","OH","45241"
194516,"3900 COUNTY ROAD 175","LEANDER","TX","78641"
194517,"3900 CROWN RD  P O BOX 161205","ATLANTA","GA","30304"
194518,"3900 CROWN RD 16709","ATLANTA","GA","30075"
194519,"3900 CROWN RD SW  16709  SMB","ATLANTA","GA","30304"
194520,"3900 CROWN RD SW 16709 SMB 2023","ATLANTA","GA","30304"
194521,"3900 CROWN RD SW 16709 SMB 5357","ATLANTA","GA","30304"
194522,"3900 CROWN RD SW 16709 SMB 9543","ATLANTA","GA","30304"
194523,"3900 CROWN RD SW 16709","ATLANTA","GA","30304"
194524,"3900 DAVE WARD DRIVE ST 1900 PMB331","CONWAY","AR","72034"
194525,"3900 DAVE WARD DRIVE SUITE 1900-107","CONWAY","AR","72034"
194526,"3900 DAVE WARD DRIVE SUITE 1900-131","CONWAY","AR","72034"
194527,"3900 DAVEWARD DRIVE STE1900 PMB 331","CONWAY","AR","72034"
194528,"3900 DECATUR RD","KNOXVILLE","TN","37920"
194529,"3900 DEL REY BLVD","LAS CRUCES","NM","88012"
194530,"3900 DELTA DAWN LANE","N LAS VEGAS","NV","89032"
194531,"3900 DORAL DR","FAIRFIELD","CA","94533"
194532,"3900 E BASELINE RD UNIT 108","PHOENIX","AZ","85042"
194533,"3900 E BASELINE RD","EVANSVILLE","IN","47725"
194534,"3900 E MEXICO AVE STE 530","DENVER","CO","80210"
194535,"3900 E MEXICO AVE SUITE 300","DENVER","CO","80210"
194536,"3900 E RIDGELAND AVE","IDAHO FALLS","ID","83401"
194537,"3900 ESSEX LANE SUITE 1111","HOUSTON","TX","77027"
194538,"3900 ESSEX LANE SUITE 800","HOUSTON","TX","77027"
194539,"3900 ESSEX LN STE 575","HOUSTON","TX","77027"
194540,"3900 EUBANK NE  STE 18","ALBUQUERQUE","NM","87111"
194541,"3900 FORD RD APT 14G","PHILADELPHIA","PA","19131"
194542,"3900 FORD ROAD CONDO 5G","PHILADELPHIA","PA","19131"
194543,"3900 GEORGE BUSBEE PKWAY APT 320","KENNESAW","GA","30144"
194544,"3900 GEORGE BUSBEE PKWY 1117","KENNESAW","GA","30144"
194545,"3900 GLENNEYERE DR","LONGMONT","CO","80503"
194546,"3900 GRAPEVINE MILLS PKWY UNIT 2017","GRAPEVINE","TX","76051"
194547,"3900 GUESS ROAD","HILLSBOROUGH","NC","27278"
194548,"3900 HAMILTON ST D304","HYATTSVILLE","MD","20781"
194549,"3900 HAMILTON ST","NEW ORLEANS","LA","70118"
194550,"3900 HARPER HILL RD SE","PORT ORCHARD","WA","98366"
194551,"3900 HAWTHORNE AVE APT 303","SIOUX FALLS","SD","57105"
194552,"3900 HOLLYWOOD BVLD SUITE 103","HOLLYWOOD","FL","33021"
194553,"3900 INVESTOR DR APT 1314","DALLAS","TX","75237"
194554,"3900 INVESTOR DRIVE","DALLAS","TX","75237"
194555,"3900 JERMANTOWN RD SUITE 220","FAIRFAX","VA","22030"
194556,"3900 KEY CENTER 127 PUBLIC SQUARE","CLEVELAND","OH","44114"
194557,"3900 LAMPSON AVENUE","SEAL BEACH","CA","90740"
194558,"3900 LANCASTER AVENUE","PHILADLPHIA","PA","19104"
194559,"3900 LOBLOLLY PLACE","COCOA","FL","32926"
194560,"3900 LONG HOLLOW RD","ROANOKE","TX","76762"
194561,"3900 MAIN ST","RIVERSIDE","CA","92501"
194562,"3900 MAYBEE LANE","SANTA CRUZ","CA","95065"
194563,"3900 N CAUSEWAY BLVD SUITE 1200","METAIRIE","LA","70002"
194564,"3900 N HAVERHILL RD","WEST PALM BEACH","FL","33417"
194565,"3900 N PINE GROVE AVE APT 406","CHICAGO","IL","60613"
194566,"3900 N STOCKTON HILL RD SUITE B419","KINGMAN","AZ","86409"
194567,"3900 N SUMMIT STREET","TOLEDO","OH","43611"
194568,"3900 NE 60 ROAD","OSCEOLA","MO","64776"
194569,"3900 NEWPARK MALL RD SUITE 328","NEWARK","CA","94560"
194570,"3900 NORMANDY RD","EDMOND","OK","73013"
194571,"3900 NORTH 10TH STREET SUITE 1055","MCALLEN","TX","78501"
194572,"3900 NORTH CHARLES STREET APT 417","BALTIMORE","MD","21218"
194573,"3900 NORTH CLIFF LANE","CINCINNATI","OH","45220"
194574,"3900 OLD GREEN BAY RD","RACINE","WI","53406"
194575,"3900 OLD OAK LANE","BELLEVILLE","IL","62226"
194576,"3900 OSUNA ROAD NE","ALBUQUERQUE","NM","87109"
194577,"3900 PAMMEL CREEK RD","LA CROSSE","WI","54601"
194578,"3900 PANORAMA DR","BAKERSFIELD","CA","93306"
194579,"3900 PARADISE ROAD - SUITE 156","LAS VEGAS","NV","89169"
194580,"3900 PARK DR","EL DORADO HILLS","CA","95762"
194581,"3900 PASEO DEL SOL C-19","SANTA FE","NM","87507"
194582,"3900 PASEO DEL SOL","SANTA FE","NM","87507"
194583,"3900 PERRY STREET     SUITE 215","LAS VEGAS","NV","89122"
194584,"3900 RIPLEY ST","SACRAMENTO","CA","95838"
194585,"3900 ROBERT RD","PRESCOTT VALLEY","AZ","86314"
194586,"3900 S MOUNTAIN RD","MESA","AZ","85212"
194587,"3900 SAN FERNANDO RD STE 2336","GLENDALE","CA","91204"
194588,"3900 SAN FERNANDO ROAD UNIT 1207","GLENDALE","CA","91204"
194589,"3900 SOUTH WALTER","BLOOMINGTON","IN","47403"
194590,"3900 SOUTH WESTERN AVENUE","LOS ANGELES","CA","90062"
194591,"3900 SPRINGFIELD ROAD","GLEN ALLEN","VA","23060"
194592,"3900 STALLINGS RD","HARRISBURG","NC","28075"
194593,"3900 SUMMERSET WAY","BOISE","ID","83709"
194594,"3900 SW GREEN OAKS BLVD","ARLINGTON","TX","76017"
194595,"3900 SYCAMORE DR","AUSTIN","TX","78722"
194596,"3900 TELEPORT BLVD UNIT 142702","IRVING","TX","75014"
194597,"3900 TERRY PLACE","ALEXANDRIA","VA","22304"
194598,"3900 UNIVERSITY BLVD","TYLER","TX","75799"
194599,"3900 VETERANS HWY SUITE 141","BOHEMIA","NY","11716"
194600,"3900 VICTORIA OAKS TRAIL","ANNANDALE","VA","22003"
194601,"3900 VITRUVIAN WAY APT 147","ADDISON","TX","75001"
194602,"3900 VITRUVIAN WAY APT 539","ADDISON","TX","75001"
194603,"3900 W ALAMEDA ST 12TH FL","BURBANK","CA","91505"
194604,"3900 W BROWN DEER RD STE 180","BROWN DEER","WI","53209"
194605,"3900 W BROWNDEER RD SUITE A 205","BROWNDEER","WI","53209"
194606,"3900 W IDAHO BLVD","EMMETT","ID","83617"
194607,"3900 W NORTHWEST HWY 2114","DALLAS","TX","75220"
194608,"3900 WALNUT DR","RESCUE","CA","95672"
194609,"3900 WALNUT STREET","PHILADELPHIA","PA","19104"
194610,"3900 WALWORTH DR","NORTH CHESTERFIELD","VA","23237"
194611,"3900 WASHINGTON STREET","GURNEE","IL","60031"
194612,"3900 WEST COMMERCIAL BLVD SUITE 23","TAMARAC","FL","33309"
194613,"3900 WILLOW ST STE 100","DALLAS","TX","75226"
194614,"3900 WOODLAKE BLVD 202","GREENACRES","FL","33463"
194615,"3900 WOODLAKE BLVD STE 301E","GREENACRES","FL","33463"
194616,"39000 HENRY ROAD STE 16","PEARL RIVER","LA","70452"
194617,"39002 JOHN ANTHON ROAD","PEARL RIVER","LA","70452"
194618,"3901 ALAMO STREET","SIMI VALLEY","CA","93063"
194619,"3901 ASHTON SHORE LANE","MOUNT PLEASANT","SC","29466"
194620,"3901 ASPEN STREET","BRYAN","TX","77801"
194621,"3901 BARRETT DR SUITE 303","RALEIGH","NC","27609"
194622,"3901 BAYSHORE BOULEVARD","TAMPA","FL","33611"
194623,"3901 BICKLEY PL","UPPER ARLINGTON","OH","43220"
194624,"3901 BLACKBURN AVENUE","ASHLAND","KY","41101"
194625,"3901 BRIARWOOD ST","NAPA","CA","94558"
194626,"3901 BROADMOR ROAD","HUNTSVILLE","AL","35810"
194627,"3901 BROOKE MEADOW LANE","OLNEY","MD","20832"
194628,"3901 BROOKLYN AVE","BALTIMORE","MD","21225"
194629,"3901 BURLY AVE","ORANGE","CA","92869"
194630,"3901 CEDAR CREEK","COLVILLE","WA","99114"
194631,"3901 CHICOT ST","PASCAGOULA","MS","39581"
194632,"3901 CITY AVENUE - W710","PHILADELPHIA","PA","19131"
194633,"3901 CONSHOHOCKEN AVENUE - APT 1206","PHILADELPHIA","PA","19131"
194634,"3901 CONSHOHOCKEN AVENUE APT 4303","PHILADELPHIA","PA","19131"
194635,"3901 DEER LAKE DRIVE","MCKINNEY","TX","75071"
194636,"3901 DOMINION TOWNES CIRCLE","RICHMOND","VA","23223"
194637,"3901 DOS LAGOS DRIVE","BAKERSFIELD","CA","93311"
194638,"3901 E 11TH STREET APT 2","LONG BEACH","CA","90804"
194639,"3901 E PINNACLE PEAK RD 304","PHOENIX","AZ","85050"
194640,"3901 EAST BAMBOO DRIVE","HARVEY","LA","70058"
194641,"3901 FARHILLS DRIVE","CHAMPAIGN","IL","61822"
194642,"3901 FRANKLIN MEADOWS DRIVE","MATTHEWS","NC","28105"
194643,"3901 GEORGIA ST NE STE A4","ALBUQUERQUE","NM","87110"
194644,"3901 GRANDRIVER APT 708","DETROIT","MI","48208"
194645,"3901 KIMBLE RD","BALTIMORE","MD","21218"
194646,"3901 MAC ARTHUR BLVD SUITE 6901","NEW ORLEANS","LA","70114"
194647,"3901 MACARTHUR BLVD UNIT 740441","NEW ORLEANS","LA","70114"
194648,"3901 MAIN ST STE 302","FLUSHING","NY","11354"
194649,"3901 MAIN ST STE 605","FLUSHING","NY","11354"
194650,"3901 MAIN ST STE 610","FLUSHING","NY","11354"
194651,"3901 MARKET STREET APT 1101","PHILADELPHIA","PA","19104"
194652,"3901 MIDLANDS RD","WILLIAMSBURG","VA","23188"
194653,"3901 MILES RD","SACHSE","TX","75048"
194654,"3901 MILES ROAD","SACHSE","TX","75048"
194655,"3901 MOORCROFT ROAD","FRISCO","TX","75034"
194656,"3901 N 40TH AVE","HOLLYWOOD","FL","33021"
194657,"3901 N I 10 SERVICE ROAD WEST","METAIRIE","LA","70002"
194658,"3901 N MACGREGOR WAY","HOUSTON","TX","77004"
194659,"3901 N SAGINAW ROAD","MIDLAND","MI","48640"
194660,"3901 N VIA CORDOBA","TUCSON","AZ","85749"
194661,"3901 NORTHSIDE DRIVE  STE 30","MACON","GA","31210"
194662,"3901 NW 79TH AVE STE 245 NO 2801","MIAMI","FL","33166"
194663,"3901 NW 79TH AVE SUITE 245","MIAMI","FL","33166"
194664,"3901 NW 79TH AVENUE SUITE 120","DORAL","FL","33166"
194665,"3901 OAKRIDGE COURT APT 3802","FORT WORTH","TX","76155"
194666,"3901 PARK HEIGHTS AVE","BALTIMORE","MD","21215"
194667,"3901 RAINBOW BLVD MC 3045","KANSAS CITY","KS","66160"
194668,"3901 RAINBOW BLVD","KANSAS CITY","KS","66160"
194669,"3901 RAPID RUN DR APT 1304","LEXINGTON","KY","40515"
194670,"3901 RAPID RUN DRIVE APT 423","LEXINGTON","KY","40515"
194671,"3901 ROOKWOOD AVENUE","INDIANAPOLIS","IN","46208"
194672,"3901 ROTHSCHILD DRIVE","FLOWER MOUND","TX","75022"
194673,"3901 ROUTE 203","VALATIE","NY","12184"
194674,"3901 S 6515 W","WEST VALLEY CITY","UT","84128"
194675,"3901 S VERMONT AVE UNIT 2516","LOS ANGELES","CA","90037"
194676,"3901 SAN MATEO DRIVE","PLANO","TX","75023"
194677,"3901 SHENANDOAH DR","OCEANSIDE","CA","92056"
194678,"3901 SHOAL CREEK BLVD","AUSTIN","TX","78756"
194679,"3901 SHOAL CREEK","AUSTIN","TX","78756"
194680,"3901 SOUTH LAMAR BLVD SUITE 230","AUSTIN","TX","78704"
194681,"3901 SOUTH M STREET","MCALLEN","TX","78503"
194682,"3901 SPEEDWAY ATTN- CDC","AUSTIN","TX","78751"
194683,"3901 STANFIELD DR","PARMA","OH","44134"
194684,"3901 STERLING POINT DRIVE UNIT EE6","WINTERVILLE","NC","28590"
194685,"3901 SW 14TH STREET","DES MOINES","IA","50315"
194686,"3901 SW 20TH AVE UNIT 207","GAINESVILLE","FL","32607"
194687,"3901 SW BRIARWOOD DRIVE","LEES SUMMIT","MO","64082"
194688,"3901 SW RICHSMITH ROAD 107","BENTONVILLE","AR","72712"
194689,"3901 TOWER DRIVE UNIT B315","RICHTON PARK","IL","60471"
194690,"3901 TREASURE ISLAND DRIVE","MONTGOMERY","TX","77356"
194691,"3901 TURTLE CREEK BOULEVARD","DALLAS","TX","75219"
194692,"3901 ULLOA ST","NEW ORLEANS","LA","70119"
194693,"3901 W CHARLESTON BLVD STE 199","LAS VEGAS","NV","89102"
194694,"3901 W CHARLESTON BLVD STE H-177","LAS VEGAS","NV","89102"
194695,"3901 W CHARLESTON BLVD","LAS VEGAS","NV","89102"
194696,"3901 W LINDA VISTA BLVD","TUCSON","AZ","85742"
194697,"3901 W US HWY 69","POINT","TX","75472"
194698,"3901 WEST 15TH AVENUE","GARY","IN","46404"
194699,"3901 WEST VENTURA DRIVE","COLUMBIA","MO","65203"
194700,"3901 WHITEROCK TRL","GARLAND","TX","75043"
194701,"3901 WILLARD NORRIS ROAD","PACE","FL","32571"
194702,"3901 WILLIAMSON RD","ROANOKE","VA","24012"
194703,"3901 YELLOW BRICK ROAD","FISHERVILLE","KY","40023"
194704,"3901 YORK AVE N","ROBBINSDALE","MN","55422"
194705,"3901","LAS VEGAS","NV","89102"
194706,"3902 220TH STREET","WALCOTT","IA","52773"
194707,"3902 29TH AVE SQ","MINNEAPOOLIS","MN","55406"
194708,"3902 7TH ST","GREENVILLE","TX","75401"
194709,"3902 BROOKVIEW ROAD","AUSTIN","TX","78722"
194710,"3902 BUSHNELL RD","UNIVERSITY HEIGHTS","OH","44118"
194711,"3902 CLARK AVE","SAN ANTONIO","TX","78223"
194712,"3902 COCHRAN","HOUSTON","TX","77009"
194713,"3902 CONNER GLENN DRIVE","HUNTERSVILLE","NC","28078"
194714,"3902 CORDER ST","HOUSTON","TX","77023"
194715,"3902 DORIS DRIVE","OKEANA","OH","45053"
194716,"3902 E 600 S","LAFAYETTE","IN","47909"
194717,"3902 ELLEN DR","HUNTSVILLE","AL","35810"
194718,"3902 FOREST AVE","WESTERN SPRINGS","IL","60558"
194719,"3902 FOUR RIDGE ROAD","HOUSE SPRINGS","MO","63051"
194720,"3902 GRAMERCY AVE","NORTH LAS VEGAS","NV","89031"
194721,"3902 GREENMEADOW LANE","DAVIDSONVILLE","MD","21035"
194722,"3902 HENDERSON BLVD SUITE 203","TAMPA","FL","33629"
194723,"3902 ILFORD ROAD","SILVER SPRING","MD","20906"
194724,"3902 KANDY DRIVE","AUSTIN","TX","78749"
194725,"3902 LAMAR AVENUE","MEMPHIS","TN","38118"
194726,"3902 MANDELL NO 2","HOUSTON","TX","77006"
194727,"3902 MILWAUKEE ST S482","MADISON","WI","53707"
194728,"3902 NW WISHING SPRINGS DRIVE","BENTONVILLE","AR","72712"
194729,"3902 OCEAN BREEZE AVE","BAKERSFIELD","CA","93313"
194730,"3902 OLD PACIFIC WAY","KELSO","WA","98626"
194731,"3902 ROCKINGHAM RD","DAVENPORT","IA","52802"
194732,"3902 S TORREYS PEAK","SUPERIOR","CO","80027"
194733,"3902 S VICTORIA AVE","LOS ANGELES","CA","90008"
194734,"3902 TRITON CT","TEMPLE HILLS","MD","20748"
194735,"3902 WEST OVERLEA AVENUE","BALTIMORE","MD","21206"
194736,"3903 25TH AVE E","TUSCALOOSA","AL","35405"
194737,"3903 57TH PLACE EAST","BRADENTON","FL","34203"
194738,"3903 ALMEDA ROAD","HOUSTON","TX","77004"
194739,"3903 BARRINGTON STREET","SAN ANTONIO","TX","78217"
194740,"3903 BRIDLE RIDGE RD","UPPER MARLBORO","MD","20772"
194741,"3903 DELMONT STREET","RICHMOND","VA","23222"
194742,"3903 DR MARTIN LUTHER KING JR BLVD","FORT MYERS","FL","33916"
194743,"3903 DR MLK JR BLVD STE B","FORT MYERS","FL","33916"
194744,"3903 FAIR RIDGE DR SUITE 209","FAIRFAX","VA","22033"
194745,"3903 FALLGOLD PKWY NORTH","BROOKLYN PARK","MN","55443"
194746,"3903 FEDERAL HILL ROAD","JARRETTSVILLE","MD","21084"
194747,"3903 FONTAINEBLEAU DRIVE","TAMPA","FL","33634"
194748,"3903 GWYNN OAK AVENUE","BALTIMORE","MD","21207"
194749,"3903 HARWOOD STREET","LAKE PARK","FL","33403"
194750,"3903 HAWTHORNE AVE    104","DALLAS","TX","75219"
194751,"3903 KALISPELL LANE","CHARLOTTE","NC","28269"
194752,"3903 LAKE PARK RD","INDIAN TRAIL","NC","28079"
194753,"3903 MAD RIVER RD","GROVE CITY","OH","43123"
194754,"3903 MELEAR DR UNIT 151672","ARLINGTON","TX","76015"
194755,"3903 MILLBURY AVE","BALDWIN PARK","CA","91706"
194756,"3903 NAVAHO STREET SW","GRANDVILLE","MI","49418"
194757,"3903 NORTH FORK COURT","LAWRENCEVILLE","GA","30044"
194758,"3903 NORTHDALE BLVD  120W","TAMPA","FL","33624"
194759,"3903 PEARL PASS LANE","SUGAR LAND","TX","77479"
194760,"3903 PORTAGE RD SUITE C BOX 195","SOUTH BEND","IN","46628"
194761,"3903 S FERDINAND ST UNIT D","SEATTLE","WA","98118"
194762,"3903 S WALNUT STREET","BLOOMINGTON","IN","47401"
194763,"3903 SCOTCH PINE CT","EAU CLAIRE","WI","54701"
194764,"3903 SILKWOOD TRAIL","ARLINGTON","TX","76016"
194765,"3903 SPARTA PIKE","WATERTOWN","TN","37184"
194766,"3903 TRAILSTONE LN","KATY","TX","77494"
194767,"3903 W ANGELES ST","TAMPA","FL","33629"
194768,"3903 WEST LISBON AVENUE","MILWAUKEE","WI","53208"
194769,"390334","DENVER","CO","80239"
194770,"39039 PASEO PADRE PKWY","FREMONT","CA","94538"
194771,"3904 AIRPORT DR NW SUITE  A","WILSON","NC","27896"
194772,"3904 BAYOU OAKS DR","HARVEY","LA","70058"
194773,"3904 BEL PRE ROAD UNIT 4","SILVER SPRING","MD","20906"
194774,"3904 BELLFLOWER ST","LAWRENCE","KS","66049"
194775,"3904 CANIFF ST","DETROIT","MI","48212"
194776,"3904 CATAWBA COURT","HARVEY","LA","70058"
194777,"3904 CENTRAL AVENUE SUITE A486","CHEYENNE","WY","82001"
194778,"3904 COTEAU RD","NEW IBERIA","LA","70560"
194779,"3904 DANUBE CIRCLE","VALDOSTA","GA","31605"
194780,"3904 EVELYN DRIVE","WILMINGTON","DE","19808"
194781,"3904 HITCHCOCK UNIT B","KILLEEN","TX","76549"
194782,"3904 KATERI CT","SIOUX CITY","IA","51106"
194783,"3904 LUNN DR","NASHVILLE","TN","37218"
194784,"3904 MAHER AVENUE","MADISON","WI","53716"
194785,"3904 MAMBA DR","COLUMBIA","MO","65202"
194786,"3904 MLK JR WAY S UNIT 27","SEATTLE","WA","98108"
194787,"3904 NEVEDA CT","MCKINNEY","TX","75070"
194788,"3904 NORTH DRUID HILLS DR STE 335","DECATUR","GA","30033"
194789,"3904 NORTH DRUID HILLS RD STE 347","DECATUR","GA","30032"
194790,"3904 NORTH DRUID HILLS ROAD - 195","DECATUR","GA","30033"
194791,"3904 NORTH DRUID HILLS ROAD 346","DECATUR","GA","30033"
194792,"3904 NW 23 RD STREET","OKLAHOMA CITY","OK","73107"
194793,"3904 NW 61ST ST","OKLAHOMA CITY","OK","73112"
194794,"3904 SADDLE CREEK RD","LAKELAND","FL","33801"
194795,"3904 SW CLARION PLACE","TOPEKA","KS","66610"
194796,"3904 TIMELESS DRIVE","CASTLE ROCK","CO","80109"
194797,"3904 WEST LISHAWN DRIVE","TAYLORSVILLE","UT","84129"
194798,"3904 WILLOW BRANCH DRIVE","CANAL WINCHESTER","OH","43110"
194799,"39042 N SCHOOL HOUSE ROAD","CAVE CREEK","AZ","85331"
194800,"390442 HIGHWAY 20","CUSICK","WA","99119"
194801,"3905 AYNOR DRIVE","BOWIE","MD","20721"
194802,"3905 BARNARD DR","LEXINGTON","KY","40509"
194803,"3905 BRYCE AVE","FORT WORTH","TX","76107"
194804,"3905 CARPENTER 1J","BRONX","NY","10466"
194805,"3905 CRESCENT PARK DR","RIVERVIEW","FL","33578"
194806,"3905 DISMOUNT ST","DALLAS","TX","75211"
194807,"3905 E 132 N","RIGBY","ID","83442"
194808,"3905 ELBERT AVENUE","ALEXANDRIA","VI","22305"
194809,"3905 EMORY RIDGE RD","BRANDYWINE","MD","20613"
194810,"3905 FRIENDSHIP ROAD","TALLASSEE","AL","36078"
194811,"3905 KRISTIN PLACE","VALRICO","FL","33596"
194812,"3905 LEES LANE","LOUISVILLE","KY","40216"
194813,"3905 LOWSON BLVD","DELRAY BEACH","FL","33445"
194814,"3905 N ROAD 1 WEST","CHINO VALLEY","AZ","86323"
194815,"3905 NEWTON ABBEY LN","GROVEPORT","OH","43125"
194816,"3905 NORTH 7TH AVE  16003","PHOENIX","AZ","85013"
194817,"3905 OAKLAWN ROAD","FORT WASHINGTON","MD","20744"
194818,"3905 PENNSYLVANIA ST APT 17","LONGVIEW","WA","98632"
194819,"3905 PIN OAK TERRACE 535","EULESS","TX","76040"
194820,"3905 POTTERS PLACE","SOUTH HAMPTON","PA","18966"
194821,"3905 S HARRISON ST","FORT WAYNE","IN","46807"
194822,"3905 S PORT DRIVE","SACRAMENTO","CA","95826"
194823,"3905 S PRESA ST","SAN ANTONIO","TX","78210"
194824,"3905 SAMOS WAY","SACRAMENTO","CA","95823"
194825,"3905 SCOTT ST","PORTSMOUTH","VA","23707"
194826,"3905 SEXTANT STREET","CHESAPEAKE","VA","23321"
194827,"3905 SHANNON DRIVE","BALTIMORE","MD","21213"
194828,"3905 ST MICHAELS BLVD NW","CANTON","OH","44718"
194829,"3905 STATE STREET STE 7-36","SANTA BARBARA","CA","93105"
194830,"3905 STATE STREET","SANTA BARBARA","CA","93105"
194831,"3905 SUMMER PLACE","RALEIGH","NC","27604"
194832,"3905 TAMPA ROAD   POBOX 486","OLDSMAR","FL","34677"
194833,"3905 TAZEWELL PIKE","KNOXVILLE","TN","37918"
194834,"3905 VINSON ROBERSON DRIVE","MACON","GA","31204"
194835,"3905 VISTA GREENS DR","KELLER","TX","76244"
194836,"39050 CENTER RIDGE RD","NORTH RIDGEVILLE","OH","44039"
194837,"39055 CEDAR BLVD   SUITE 133","NEWARK","CA","94560"
194838,"39055 CEDAR BLVD  SUITE 133","NEWARK","CA","94560"
194839,"39055 PO BOX","BALTIMORE","MD","21212"
194840,"39059 STATE ROUTE 143","POMEROY","OH","45769"
194841,"3906 47TH STREET","SUNNYSIDE","NY","11104"
194842,"3906 BALDWIN RD UNIT 210423","AUBURN HILLS","MI","48321"
194843,"3906 BALDWIN RD UNIT 210904","AUBURN HILLS","MI","48321"
194844,"3906 COUGAR","AMARILLO","TX","79109"
194845,"3906 COURTYARD PL SE","GRAND RAPIDS","MI","49546"
194846,"3906 CRESTWOOD DR","WAUSAU","WI","54403"
194847,"3906 DEER LAKE DRIVE","MEDINA","OH","44256"
194848,"3906 FOREST HILL AVENUE APT 3B","RICHMOND","VA","23225"
194849,"3906 HAZELWOOD DRIVE","PEARLAND","TX","77584"
194850,"3906 LAKE JOYCE DR","LAND O LAKES","FL","34639"
194851,"3906 MARYHILL DRIVE","CEDAR FALLS","IA","50613"
194852,"3906 N NORMANDY","CHICAGO","IL","60634"
194853,"3906 NE KENSINGTON AVE","BENTONVILLE","AR","72712"
194854,"3906 NEW UTRECHT AVENUE","BROOKLYN","NY","11219"
194855,"3906 NIELE PLACE","HONOLULU","HI","96816"
194856,"3906 OAKCLIFF IND CT BLDG 9","ATLANTA","GA","30340"
194857,"3906 RAYNOR PARKWAY   SUITE 105","BELLEVUE","NE","68123"
194858,"3906 RIDGEPOINT CV","JONESBORO","AR","72404"
194859,"3906 S  NAPA LANE","GILBERT","AZ","85297"
194860,"3906 S SHIELDS BLVD","OKLAHOMA CITY","OK","73129"
194861,"3906 SCENIC DR","SHREVEPORT","LA","71119"
194862,"3906 SOJOURNER ST","AUSTIN","TX","78725"
194863,"3906 SW STONEHAVEN LANE","ANKENY","IA","50023"
194864,"3906 UPPER LAKE CIRCLE","GRANBURY","TX","76049"
194865,"3906 VICTORY CIRCLE","CHATTANOOGA","TN","37411"
194866,"3906 W SEVILLA STREET","TAMPA","FL","33629"
194867,"3906 WEST CHERRY STREET","TAMPA","FL","33607"
194868,"3906 WRENFIELD CT","KATY","TX","77449"
194869,"39065 CAISTOR DRAIVE","AVON","OH","44011"
194870,"39068 VENUS DR","DARROW","LA","70725"
194871,"3907 57TH AVENUE","HYATTSVILLE","MD","20784"
194872,"3907 ALTON ROAD","MIAMI BEACH","FL","33140"
194873,"3907 ARROW POINT TRAIL WEST","JACKSONVILLE","FL","32277"
194874,"3907 BON HOMME RD","CALABASAS","CA","91302"
194875,"3907 BRIAR DRIVE","LOVELAND","CO","80538"
194876,"3907 BRINTONS MILL","MARIETTA","GA","30062"
194877,"3907 BUSH COURT","ABINGDON","MD","21009"
194878,"3907 COMPTON DR","RICHARDSON","TX","75082"
194879,"3907 DESERT ROSE COURT","MANVEL","TX","77578"
194880,"3907 E FUNSTON ST","WICHITA","KS","67218"
194881,"3907 E MOUND ST","COLUMBUS","OH","43227"
194882,"3907 EL DORADO AVENUE","BALTIMORE","MD","21215"
194883,"3907 ELDORADO AVENUE","BALTIMORE","MD","21215"
194884,"3907 ELITE STREET","BOWIE","MD","20716"
194885,"3907 HENRY STREET SW","GRANDVILLE","MI","49418"
194886,"3907 N OKETO","CHICAGO","IL","60634"
194887,"3907 NE 54TH AVE","VANCOUVER","WA","98661"
194888,"3907 NEPTUNE DRIVE","HUNTSVILLE","AL","35810"
194889,"3907 PRINCE STREET SUITE 6C","FLUSHING","NY","11354"
194890,"3907 SENATE AVENUE","NORTH HIGHLANDS","CA","95660"
194891,"3907 SKIDMORE DR","DECATUR","GA","30034"
194892,"3907 STONE HOLLOW LANE","EDWARDSVILLE","IL","62025"
194893,"3907 TARA ST","SPRINGDALE","AR","72762"
194894,"3907 WOODLAWN ST","HOPEWELL","VA","23860"
194895,"3907 ZARING MILL CT","LOUISVILLE","KY","40241"
194896,"39072 EASTRIDGE DR","CLINTON TOWNSHIP","MI","48038"
194897,"39075 CEDARWOOD COURT","MECHANICSVILLE","MD","20659"
194898,"3908 15TH AVE SOUTH","GREAT FALLS","MT","59405"
194899,"3908 26TH ST W","BRADENTON","FL","34205"
194900,"3908 COUGAR CT","ELLENWOOD","GA","30294"
194901,"3908 E 26TH ST","TULSA","OK","74114"
194902,"3908 ENGLEMAN ST","FORT WORTH","TX","76137"
194903,"3908 GLORY STREET","CHARLOTTE","NC","28206"
194904,"3908 GREENWOOD AVE","LOUISVILLE","KY","40211"
194905,"3908 LAKE DES ALLEMANDS DR","HARVEY","LA","70058"
194906,"3908 LEBANON PIKE UNIT 184","HERMITAGE","TN","37076"
194907,"3908 LOVELACEVILLE RD","PADUCAH","KY","42001"
194908,"3908 N CASS AVENUE","WESTMONT","IL","46375"
194909,"3908 NAPLE ST","FAYETTEVILLE","NC","28311"
194910,"3908 PARKER OAKS DR","ARLINGTON","TX","76016"
194911,"3908 STANKUS PLACE","ANACORTES","WA","98221"
194912,"3908 TRESCO XING","RALEIGH","NC","27616"
194913,"3908 WATER OAK DRIVE","KILLEEN","TX","76542"
194914,"3908 WHITE PLAINS ROAD","BRONX","NY","10466"
194915,"3908 ZANA DR","MACON","GA","31217"
194916,"39081 PRAIRIE NORTH DRIVE","GONZALES","LA","70737"
194917,"39084 PROCTOR BLVD SUITE C","SANDY","OR","97055"
194918,"3909 161ST ST E","TACOMA","WA","98446"
194919,"3909 5TH ST N SUITE 2","ARLINGTON","VA","22203"
194920,"3909 94TH AVE N","MINNEAPOLIS","MN","55443"
194921,"3909 BRIDGEVIEW LANE","NASHVILLE","TN","37221"
194922,"3909 CLIFTON DRIVE","RICHARDSON","TX","75082"
194923,"3909 COLD HARBOUR DRIVE","RALEIGH","NC","27610"
194924,"3909 CUMING STREET SUITE 203","OMAHA","NE","68131"
194925,"3909 CUMING STREET","OMAHA","NE","68104"
194926,"3909 DEEP ROCK ROAD","HENRICO","VA","23233"
194927,"3909 EAST NORTHERN PARKWAY","BALTIMORE","MD","21206"
194928,"3909 ELDERICA CT","ODESSA","TX","79765"
194929,"3909 FAWN DR","DENTON","TX","76208"
194930,"3909 FINDLEY RD","WOODBRIDGE","VA","22193"
194931,"3909 FRIENDSHIP ROAD","TALLASSEE","AL","36078"
194932,"3909 GLACIER COURT","VALLEJO","CA","94591"
194933,"3909 GREENMONT DR","SOUTH BEND","IN","46628"
194934,"3909 JUAN TABO BLVD NE STE1","ALBUQUERQUE","NM","87111"
194935,"3909 LANCASTER AVENUE","PHILADELPHIA","PA","19104"
194936,"3909 MADISON PARK LANE","BURTONSVILLE","MD","20866"
194937,"3909 MARTIN LANE","HASTINGS","MN","55033"
194938,"3909 MICAH LANE","ELLENWOOD","GA","30294"
194939,"3909 MICHIGAN UNION","ANN ARBOR","MI","48109"
194940,"3909 MILTON DRIVE","EL SOBRANTE","CA","94803"
194941,"3909 MONROE ROAD","CHARLOTTE","NC","28205"
194942,"3909 N 16TH STREET","PHOENIX","AZ","85016"
194943,"3909 N 70TH ST","MILWAUKEE","WI","53216"
194944,"3909 NW 82ND DRIVE","COOPER CITY","FL","33024"
194945,"3909 PARK HAVEN DR","DENTON","TX","76210"
194946,"3909 PARKSIDE DR","BALTIMORE","MD","21206"
194947,"3909 PENDER SPRING DRIVE","FAIRFAX","VA","22033"
194948,"3909 RESERVE DR APT 1323","TALLAHASSEE","FL","32311"
194949,"3909 RESERVE DRIVE  APT 123","TALLAHASSEE","FL","32311"
194950,"3909 S HIGHLAND DR","HOLLADAY","UT","84124"
194951,"3909 SETONHURST ROAD","PIKESVILLE","MD","21208"
194952,"3909 SOUTH MACDILL AVE","TAMPA","FL","33611"
194953,"3909 SPRINGSTOP LANE","DURHAM","NC","27705"
194954,"3909 SW BANBURY DRIVE","BENTONVILLE","AR","72712"
194955,"3909 TAPADO CANYON TRAIL","ROUNDROCK","TX","78681"
194956,"3909 TOTAL ECLIPSE","LAS VEGAS","NV","89129"
194957,"3909 VINCELLI AVENUE","NORTH LAS VEGAS","NV","89031"
194958,"3909 W TYSON AVENUE","TAMPA","FL","33611"
194959,"3909 W VICKSBURG ST","BROKEN ARROW","OK","74011"
194960,"3909 WEST MEINECKE AVE","MILWAUKEE","WI","53210"
194961,"39090 SALEM DRIVE","CLINTON TOWNSHIP","MI","48038"
194962,"391 112TH AVE N BUILDING 1 UNIT 302","ST PETERSBURG","FL","33716"
194963,"391 ALLISON CT","YPSILANTI","MI","48198"
194964,"391 AUGUSTA PL","CLARKSVILLE","TN","37043"
194965,"391 AVENIDA COATIMUNDI","RIO RICO","AZ","85648"
194966,"391 BELMONT AVE","REDWOOD CITY","CA","94061"
194967,"391 BRANN RD","BROWNS SUMMIT","NC","27214"
194968,"391 CHELSEA LANE","BULLARD","TX","75757"
194969,"391 CHURCHILL LANDING RD","PROSPERITY","SC","29127"
194970,"391 CLIFTON AVE","CLIFTON","NJ","07011"
194971,"391 CRESTMONT DRIVE","NEW FOUNDLAND","PA","18445"
194972,"391 DAVIS HYATT ROAD","SOSO","MS","39480"
194973,"391 DEAD OAK ROAD","SENOIA","GA","30276"
194974,"391 DONALDSON WILLIAMS RD","CRAWFORDVILLE","FL","32327"
194975,"391 E 16TH ST","PATERSON","NJ","07514"
194976,"391 E COCONUT PALM RD","BOCA RATON","FL","33432"
194977,"391 E LAS COLINAS  130-522","IRVING","TX","75039"
194978,"391 E WAY TO TIPPERARY ST","SHELTON","WA","98584"
194979,"391 EAST BROWN STREET","EAST STROUDSBURG","PA","18301"
194980,"391 FULTON ST","MEDFORD","MA","02155"
194981,"391 GRAND AVENUE SUITE 5","ENGLEWOOD","NJ","07631"
194982,"391 HOFFMAN LANE","ALTOONA","PA","16601"
194983,"391 MONROE STREET","MACON","GA","31201"
194984,"391 N MAIN STREET SUITE 2","SPRINGVILLE","UT","84663"
194985,"391 N RIVERVIEW STREET","LA GRANGE","TX","78945"
194986,"391 OLD NACHES HWY","YAKIMA","WA","98908"
194987,"391 RIDGEWOOD RD","WESTWOOD","NJ","07675"
194988,"391 ROLLING MEADOW LANE","FRIEDHEIM","MO","63747"
194989,"391 ROOSEVELT ST APT A","CHULA VISTA","CA","91910"
194990,"391 SCHOLAR COURT","FRANKLIN LAKES","NJ","07417"
194991,"391 STEEPLE CHASE LANE","MARTINSBURG","WV","25404"
194992,"391 TOTTEN POND ROAD SUITE 303","WALTHAM","MA","02451"
194993,"391 VALLEY ROAD","MIDDLETOWN","RI","02842"
194994,"391 W FIFTH STREET","CHILLICOTHE","OH","45601"
194995,"391 W WASHINGTON ST","PAINESVILLE","OH","44077"
194996,"391 WEST MAIN ST","POMEROY","OH","45769"
194997,"391 WILDWOOD LANE","LUGOFF","SC","29078"
194998,"391 ZION ROAD","EGG HARBOR TOWNSHIP","NJ","08234"
194999,"391-A EAST HADDAM MOODUS RD","MOODUS","CT","06469"
195000,"391","CABOT","AR","72023"
