"ID","Address","City","State","Zip"
253501,"6 PLEASANT STREET","MAYNARD","MA","01754"
253502,"6 PLEASANT TERPLEASANT TER","LAWRENCE","MA","01841"
253503,"6 PORTER AVE","HATFIELD","MA","01038"
253504,"6 PRAG BLVD UNIT 101","MONROE","NY","10950"
253505,"6 PRATHER WOODS LN","AUGUSTA","GA","30909"
253506,"6 PREMIER CT","DURHAM","NC","27713"
253507,"6 PRESHBURG BLVD UNIT 103","MONROE","NY","10950"
253508,"6 PROFESSIONAL CT","ELBERTON","GA","30635"
253509,"6 PROMENADE ST - 1025","BLUFFTON","SC","29910"
253510,"6 PROSPECT ST APT 2","NYACK","NY","10960"
253511,"6 QUARRY DR","WATSONTOWN","PA","17777"
253512,"6 RABBIT HILL ROAD","WESTPORT","CT","06880"
253513,"6 RACHEL DR UNIT 8","JACKSON","TN","38305"
253514,"6 RALPH CIR","CHICOPEE","MA","01020"
253515,"6 RAMONA ROAD","NEWBURGH","NY","12550"
253516,"6 REBECCA LANE","ROCKAWAY","NJ","07866"
253517,"6 RED OAK ROAD","CERES","VA","24318"
253518,"6 REHOBETH RD","FLANDERS","NJ","07836"
253519,"6 RESERVOIR CIRCLE SUITE 102","BALTIMORE","MD","21208"
253520,"6 RESTON WAY","LADERA RANCH","CA","92694"
253521,"6 RHODE ISLAND DRIVE","JACKSON","NJ","08527"
253522,"6 RICHARD LANE","MIDDLE ISLAND","NY","11953"
253523,"6 RIDGE DRIVE","WINDHAM","ME","04062"
253524,"6 RIDGE TERRACE","SHORT HILLS","NJ","07078"
253525,"6 ROADWAY","BOGOTA","NJ","07603"
253526,"6 ROBIN DRIVE","HUNTINGTON","NY","11743"
253527,"6 ROBINSON ROAD","LEXINGTON","MA","02420"
253528,"6 ROCK FALLS CT","ROCKVILLE","MD","20854"
253529,"6 ROCKFIELD DR","STAMFORD","CT","06902"
253530,"6 ROCKVIEW AVE","NORTH PLAINFIELD","NJ","07060"
253531,"6 RODEO DRIVE","MARLBORO","NJ","07746"
253532,"6 RODGERS ROAD","STONEHAM","MA","02180"
253533,"6 ROOSEVELT AVE S","PARSIPPANY","NJ","07054"
253534,"6 ROYAL STREET SW SUITE 430","LEESBURG","VA","20175"
253535,"6 RUDD PLACE","BRONX","NY","10433"
253536,"6 RUSHMORE CIRCLE","STAMFORD","CT","06905"
253537,"6 S D STREET","HAMILTON","OH","45013"
253538,"6 S LAFLIN STREET UNIT 716","CHICAGO","IL","60607"
253539,"6 S MAIN ST","NEW LONDON","OH","44851"
253540,"6 S SPERKINS AVE","ELMSFORD","NY","10523"
253541,"6 SADDLEWOOD CT","MANSFIELD","TX","76063"
253542,"6 SAINT JOSEPH STREET","MOBILE","AL","36602"
253543,"6 SAINT PAUL ST","SALEM","MA","01970"
253544,"6 SAN PATRICIO","RANCHO SANTA MARGARI","CA","92688"
253545,"6 SANDS RD","ROCHESTER","NY","14624"
253546,"6 SANDY BLUFF COURT","DURHAM","NC","27703"
253547,"6 SANDY DR","ACTON","MA","01720"
253548,"6 SANTA RIDA","IRVINE","CA","92606"
253549,"6 SAPPINGTON PLACE DR","SAINT LOUIS","MO","63126"
253550,"6 SAVAGE COURT","PORTSMOUTH","VA","23703"
253551,"6 SAYWER AVENUE","BOSTON","MA","02125"
253552,"6 SCHOHARIE ST APT 2FL","STATEN ISLAND","NY","10301"
253553,"6 SCHOOL ST","MYSTIC","CT","06355"
253554,"6 SECOND STREET","SALISBURY","MA","01952"
253555,"6 SEQUOIA WAY","PACIFICA","CA","94044"
253556,"6 SERENITY HILL LN","LONGLANE","MO","65590"
253557,"6 SHADY LANE","NEEDHAM","MA","02492"
253558,"6 SHANNON CT","SILVER SPRING","MD","20904"
253559,"6 SHERIDAN SQ SUITE 200","KINGSPORT","TN","37660"
253560,"6 SHERWOOD LANE","BEDFORD HILLS","NY","10507"
253561,"6 SHORT STREET","READING","MA","01867"
253562,"6 SKYVIEW TERRACE","STIRLING","NJ","07980"
253563,"6 SNOWDRIFT DRIVE","PISCATAWAY","NJ","08854"
253564,"6 SOFT WINTER CT","OWINGS MILLS","MD","21117"
253565,"6 SOJOURNER TRUTH COURT","BOSTON","MA","02120"
253566,"6 SOLDIERS FIELD PARK APT 307","BOSTON","MA","02163"
253567,"6 SOLDIERS FIELD PARK","BOSTON","MA","02163"
253568,"6 SORGEN CT","BALTIMORE","MD","21220"
253569,"6 SOUTH 2ND ST SUITE 1002","YAKIMA","WA","98901"
253570,"6 SOUTH BRAE ROAD","GOSHEN","NY","10924"
253571,"6 SOUTH COLONIAL DRIVE","BORDENTOWN","NJ","08505"
253572,"6 SOUTH COURT","NESCONSET","NY","11767"
253573,"6 SOUTH GLEN ROAD","KINNELON","NJ","07405"
253574,"6 SOUTH MAIN STREET","NEW LONDON","OH","44851"
253575,"6 SOUTH MAPLE AVENUE","ANDREWS","SC","29510"
253576,"6 SOUTH MONTGOMERY ST","ATHENS","NY","12015"
253577,"6 SOUTH STREET","PLYMOUTH","WI","53073"
253578,"6 SPINNEY CREEK RD","ELIOT","ME","03903"
253579,"6 SPOTTED LILY WAY","MAGNOLIA","TX","77354"
253580,"6 SPYGLASS CT","ANNANDALE","NJ","08801"
253581,"6 ST JAMES STREET","MONROE","NJ","08831"
253582,"6 STAPLETON STREET APTARTMENT 2","NEW BEDFORD","MA","02744"
253583,"6 STATE ST STE 604A","BANGOR","ME","04401"
253584,"6 STAUB CT","MAMARONECK","NY","10543"
253585,"6 STEPHANIE DRIVE","BEAR","DE","19701"
253586,"6 STEPHENVILLE PARKWAY","EDISION","NJ","08820"
253587,"6 STERLING SQUARE","ROCHESTER","NY","14616"
253588,"6 STEVADORE LANE","LEVITTOWN","NY","11756"
253589,"6 STONEHENGE LANE","EAST NORTHPORT","NY","11731"
253590,"6 STORRS RD STE 4","WILLIMANTIC","CT","06226"
253591,"6 STRATHMERE RD","MAYS LANDING","NJ","08330"
253592,"6 SUN VALLEY COURT","NORTHPORT","NY","11768"
253593,"6 SUNBIRD CT","THE WOODLANDS","TX","77380"
253594,"6 SUNLAND DR","CHICO","CA","95926"
253595,"6 SUNNY KNOLL DRIVE","HYANNIS","MA","02601"
253596,"6 SUNNYSIDE CT","GAITHERSBURG","MD","20877"
253597,"6 SUNSET AVENUE","CONCORD","NH","03301"
253598,"6 SUNWOOD DRIVE","MILLER PLACE","NY","11764"
253599,"6 SW 5TH AVE","DANIA BEACH","FL","33004"
253600,"6 SYCAMORE DRIVE","PORT WASHINGTON","NY","11050"
253601,"6 TAMARAC TRAIL","HARRISON","NY","10528"
253602,"6 TAYLOR COURT","STATEN ISLAND","NY","10310"
253603,"6 TEABERRY LANE","ANDOVER","MA","01810"
253604,"6 TEN BROECK PLACE","ALBANY","NY","12210"
253605,"6 TENNIS COURT","HAMILTON","NJ","08619"
253606,"6 TERRAMAR LN","NASHUA","NH","03062"
253607,"6 TEWKSBURY ST","LEXINGTON","MA","02421"
253608,"6 THERESA LANE","SCARSDALE","NY","10583"
253609,"6 TIMBER RIDGE ROAD","NORTH BRUNSWICK","NJ","08902"
253610,"6 TOBIE LANE","JERICHO","NY","11753"
253611,"6 TOBY WELLS CT","DELRAN","NJ","08075"
253612,"6 TODDS ROAD","RIDGEFIELD","CT","06877"
253613,"6 TOR TERRACE","NEW CITY","NY","10956"
253614,"6 TOWER DRIVE","WESTON","CT","06883"
253615,"6 TOWNSEND LANE","MORGANTOWN","WV","26508"
253616,"6 TRAMINER DR","KENNER","LA","70065"
253617,"6 TRENT COURT","SMITHTOWN","NY","11787"
253618,"6 TRISTAM TRACE","WESTERLY","RI","02891"
253619,"6 TULIP TERRACE","CLIFTON PARK","NY","12065"
253620,"6 TURNBERRY COURT","VOORHEES","NJ","08043"
253621,"6 TURQOISE COVE","GREENBRIER","AR","72058"
253622,"6 TUSCANY PARK","SAINT LOUIS","MO","63105"
253623,"6 UNICORN STREET","MONSEY","NY","10952"
253624,"6 UNION STREET","WATERBURY","VT","05676"
253625,"6 UNIVERSITY DR STE 206-212","AMHERST","MA","01002"
253626,"6 UPHAM WAY","WESTON","MA","02493"
253627,"6 VENUS COURT","TIBURON","CA","94920"
253628,"6 VIA VERSO LAGO","HENDERSON","NV","89011"
253629,"6 VICTORY WAY","LAKE PLACID","FM","33852"
253630,"6 VINTAGE CT","MIDDLE ISLAND","NY","11953"
253631,"6 VISTA GARDENS TRAIL APT 106","VERO BEACH","FL","32962"
253632,"6 W FORT SCOTT STREET","BUTLER","MO","64730"
253633,"6 W GABILAN STREET SUITE 9","SALINAS","CA","93901"
253634,"6 W HARRIS ST","SAVANNAH","GA","31401"
253635,"6 W LINDLEY AVENUE","PLEASANTVILLE","NJ","08232"
253636,"6 W MAIN STREET","NEW BLOOMFIELD","PA","17068"
253637,"6 WALNUT HILL RD","MILLIS","MA","02054"
253638,"6 WALNUT HOLLOW LANE","HOLMDEL","NJ","07733"
253639,"6 WASHINGTON DRIVE","MADISON","NJ","07940"
253640,"6 WASHINGTON PLACE","PLATTSBURGH","NY","12901"
253641,"6 WATER STREET","NEW PHILADELPHIA","PA","17959"
253642,"6 WATERFORD CT","ASHEVILLE","NC","28806"
253643,"6 WATERVIEW CT","PORTSMOUTH","VA","23703"
253644,"6 WEDGEWOOD RD","CHAPEL HILL","NC","27514"
253645,"6 WEST 105TH STREET NEW YORK NYUSA","NEW YORK","NY","10025"
253646,"6 WEST 105TH STREET","NEW YORK","NY","10025"
253647,"6 WEST 14TH STREET 2B","NEW YORK","NY","10011"
253648,"6 WEST 69TH STREET APT 2B","CINCINNATI","OH","45216"
253649,"6 WEST ARKANSAS AVENUE","DENVER","CO","80223"
253650,"6 WEST AVE","LARCHMONT","NY","10538"
253651,"6 WESTBROOK COURT","GREENLAWN","NY","11740"
253652,"6 WESTHAM PKWY","RICHMOND","VA","23229"
253653,"6 WESTMINSTER STREET","AMESBURY","MA","01913"
253654,"6 WESTWOOD TERRACE","NEWTOWN","CT","06470"
253655,"6 WHARTON WAY","BASKING RIDGE","NJ","07920"
253656,"6 WHITAKER AVENUE","HAMPTON","VA","23664"
253657,"6 WHITE WATER TURN","TARIFFVILLE","CT","06081"
253658,"6 WHITTAKER DRIVE","STRATHAM","NH","03885"
253659,"6 WHITTIER STREET","HARTSDALE","NY","10530"
253660,"6 WILDEN DRIVE","EASTON","PA","18043"
253661,"6 WILFRED DRIVE","YARDLEY","PA","19067"
253662,"6 WILLIAMSBURG DRIVE","ROSELAND","NJ","07068"
253663,"6 WILLOW NEST LANE","NORTH FALMOUTH","MA","02556"
253664,"6 WILLOWBROOK TERRACE","GANSEVOORT","NY","12831"
253665,"6 WILLOWICK STREET","BRECKENRIDGE","TX","76421"
253666,"6 WINDING WAY","SADDLE RIVER","NJ","07458"
253667,"6 WINDING WAY","SCARBOROUGH","ME","04074"
253668,"6 WITHERS LANE","NEWTOWN SQUARE","PA","19073"
253669,"6 WITHINGTON ST","NEWBURY","MA","01951"
253670,"6 WOODHOLLOW","IRVINE","CA","92604"
253671,"6 WOODS WAY","WOODBURY","CT","06798"
253672,"6 WORCESTER ROAD","NORFOLK","MA","02056"
253673,"6 YOUNG WAY","BRIDGEWATER","NJ","08807"
253674,"6 ZABRISKIE TERRACE","MONSEY","NY","10952"
253675,"6-B DEANS CT","SANTA FE","NM","87508"
253676,"6","BLUEFIELD","WV","24701"
253677,"6","CHANDLER","AZ","85248"
253678,"6","INDIANAPOLIS","IN","46226"
253679,"60  RANDALL AVENUE","TRENTON","NJ","08611"
253680,"60 1ST AVE APT12C","MANHATTAN","NY","10009"
253681,"60 1ST STREET","PHILLIPS","WI","54555"
253682,"60 29TH STREET BOX 655","SAN FRANCISCO","CA","94110"
253683,"60 29TH STREET NO 321","SAN FRANCISCO","CA","94110"
253684,"60 70 WOODHAVEN BLVD APT 6G","ELMHURST","NY","11373"
253685,"60 ABUNDANCE LANE","CLARKSBURG","WV","26301"
253686,"60 ALDWORTH STREET","BOSTON","MA","02130"
253687,"60 ALPINE COVE","HENDERSON","TN","38340"
253688,"60 ALTA DRIVE","LA SELVA","CA","95076"
253689,"60 AMSTERDAM AVENUE SUITE 5G","NEW YORK","NY","10023"
253690,"60 ASHLEY WOODS DRIVE","NEWNAN","GA","30263"
253691,"60 AVIS CIRCLE","FLORENCE","MA","01062"
253692,"60 BARNARD AVENUE","ASHEVILLE","NC","28804"
253693,"60 BARTON DRIVE","STRATFORD","CT","06614"
253694,"60 BARUCH DRIVE UNIT 10B","NEW YORK","NY","10002"
253695,"60 BEACH AVENUE","SOUTH DARTMOUTH","MA","02748"
253696,"60 BENNETT CIRCLE","LONDON","KY","40741"
253697,"60 BIRCH STREET","PARK FOREST","IL","60466"
253698,"60 BLUE BARN ROAD","REXFORD","NY","12148"
253699,"60 BLUE HERON RD","SPARTA","NJ","07871"
253700,"60 BLUE HERON ROAD SUITE 300","SPARTA","NJ","07871"
253701,"60 BOSTON AVE","SOMERVILLE","MA","02144"
253702,"60 BOSTON AVENUE","SOMERVILLE","MA","02144"
253703,"60 BOULEVARD OF THE ALLIES","PITTSBURGH","PA","15222"
253704,"60 BOUNDARY LINE ROAD","BRIDGEWATER","ME","04735"
253705,"60 BROAD STREET SUITE 3502","NEW YORK","NY","10004"
253706,"60 BROAD STREET","WESTFIELD","MA","01085"
253707,"60 BROADWAY","TIVOLI","NY","12583"
253708,"60 BROOKSIDE AVE","NEWTONVILLE","MA","02460"
253709,"60 BROOKSTONE PL","JACKSON","TN","38305"
253710,"60 BUFFUM ST","SALEM","MA","01970"
253711,"60 BUFFUM STREET","SALEM","MA","01970"
253712,"60 BURKE AVENUE","STATEN ISLAND","NY","10314"
253713,"60 BURNSIDE DRIVE","EAST BERLIN","PA","17316"
253714,"60 CALEDONIA ROAD NO 401","ASHEVILLE","NC","28803"
253715,"60 CAMPUS DRIVE","STAR LAKE","NY","13690"
253716,"60 CARR AVENUE","AROMAS","CA","95004"
253717,"60 CARRIAGE DR","TOLLAND","CT","06084"
253718,"60 CEDAR MILL","ROCHESTER","NY","14626"
253719,"60 CENTRAL AVENUE","WEST ALEXANDRIA","OH","45381"
253720,"60 CENTRAL HWY","NEW CITY","NY","10956"
253721,"60 CENTRAL STREET","TOPSFIELD","MA","01983"
253722,"60 CHARLES HARPIN RD","FOSTER","RI","02825"
253723,"60 CHARTER OAK AVENUE","HARTFORD","CT","06106"
253724,"60 CHELSEA CORNERS STE 183","CHELSEA","AL","35403"
253725,"60 CHURCH STREET","GOUVERNEUR","NY","13642"
253726,"60 CINNAMON CIR","FAIRPORT","NY","14450"
253727,"60 CLAVERACH DRIVE","CLAYTON","MO","63105"
253728,"60 COMMUNITY DRIVE","AUGUSTA","ME","04330"
253729,"60 CONNECTOR 206 NW STE A","DOUGLAS","GA","31533"
253730,"60 CONNELLSVILLE STREET","DUNBAR","PA","15431"
253731,"60 COUNTY ROAD 166","ABIQUIU","NM","87510"
253732,"60 CRAWFORD STREET","BOSTON","MA","20121"
253733,"60 CRYSTAL LAKE DRIVE","CARVER","MA","02330"
253734,"60 CYPRESS PLACE","SAUSALITO","CA","94965"
253735,"60 DIVISION ST","HUDSON","OH","44236"
253736,"60 DOW RD","HOLLIS","NH","03049"
253737,"60 DUDLEY STREET","BOSTON","MA","02119"
253738,"60 E 102ND STREET","NEW YORK","NY","10029"
253739,"60 E 21ST ST","HOLLAND","MI","49423"
253740,"60 E 21ST STREET","HOLLAND","MI","49423"
253741,"60 E 3 ST APT 1001","HIALEAH","FL","33010"
253742,"60 E 42ND ST STE 1720","NEW YORK","NY","10165"
253743,"60 E 42ND ST SUITE 517","NEW YORK","NY","10165"
253744,"60 E 8TH ST APT 16B","NEW YORK","NY","10003"
253745,"60 E 93RD STREET  B304","BROOKLYN","NY","11212"
253746,"60 E COURT ST","DOYLESTOWN","PA","18901"
253747,"60 E COURT ST","MARION","NC","28752"
253748,"60 E RIO SALADO PARKWAY","TEMPE","AZ","85281"
253749,"60 EAST 102ND ST","NY","NY","10029"
253750,"60 EAST 116TH STREET","NEW YORK","NY","10029"
253751,"60 EAST 17 ST APT 5K","BROOKLYN","NY","11226"
253752,"60 EAST 94TH STREET","BROOKLYN","NY","11212"
253753,"60 EAST CARMEL VALLEY ROAD","CARMEL VALLEY","CA","93924"
253754,"60 EAST MONORE STREET APT 2403","CHICAGO","IL","60603"
253755,"60 EDGEWATER PL","PITTSBURG","CA","94565"
253756,"60 EDGEWOOD DRIVE","FORT THOMAS","KY","41075"
253757,"60 ELM ST APT 2","SAUGERTIES","NY","12477"
253758,"60 EMERSON ROAD","DURHAM","ME","04222"
253759,"60 EVERGREEN PLACE  PO BOX 2533","EAST ORANGE","NJ","07018"
253760,"60 EVERGREEN PLACE SUITE 101 - 2266","EAST ORANGE","NJ","07019"
253761,"60 EVERGREEN PLACE SUITE 308","EAST ORANGE","NJ","07018"
253762,"60 EVERGREEN PLACE SUITE 904","EAST ORANGE","NJ","07018"
253763,"60 EVERGREEN PLACE","EAST ORANGE","NJ","07018"
253764,"60 EXCHANGE ST SUITE C3","RICHMOND HILL","GA","31324"
253765,"60 FARM ST","WAKEFIELD","MA","01880"
253766,"60 FINLEY CIRCLE","HOLLY POND","AL","35083"
253767,"60 FLAG COURT","LAKE JACKSON","TX","77566"
253768,"60 FLOR DE MAR","RANCHO SANTA MARGARI","CA","92688"
253769,"60 FOREST ACRES ROAD","LELAND","MS","38756"
253770,"60 FOREST DR","TRAVELERS REST","SC","29690"
253771,"60 FOSTER STREET","CAMBRIDGE","MA","02138"
253772,"60 FOURWINDS DR APT A","ST PETERS","MO","63376"
253773,"60 FOXCROFT RD","LEXINGTON","OH","44904"
253774,"60 FRENCH STREET","PAWTUCKET","RI","02860"
253775,"60 FRONT STREET","NOANK","CT","06340"
253776,"60 GANUNG DR","OSSINING","NY","10562"
253777,"60 GOLD ST","HARTFORD","CT","06103"
253778,"60 GOLDEN ASTER COURT","BRISBANE","CA","94005"
253779,"60 GOOSEPOND MOUNTAIN ROAD","CHESTER","NY","10918"
253780,"60 GREEN LANE","SPRINGFIELD","MA","01107"
253781,"60 GUILD STREET SUITE 2","NORWOOD","MA","02062"
253782,"60 H ST SE","EPHRATA","WA","98823"
253783,"60 HAMBURG STREET","SPRINGFIELD","MA","01107"
253784,"60 HAMILTON AVE","AUBURN","NY","13021"
253785,"60 HAMILTON AVE","STATEN ISLAND","NY","10301"
253786,"60 HAMILTON AVENUE","HASTINGS-ON-HUDSON","NY","10706"
253787,"60 HAMMOND STREET UNIT 3","ROXBURY","MA","02120"
253788,"60 HAWTHORNE AVE E","SAINT PAUL","MN","55117"
253789,"60 HAWTHORNE PLACE UNIT 10","NORTH PROVIDENCE","RI","02904"
253790,"60 HAZELWOOD DRIVE","CHAMPAIGN","IL","61820"
253791,"60 HEINZ STREET","DELTA","CO","81416"
253792,"60 HERITAGE KEEP","COVINGTON","GA","30016"
253793,"60 HIGH LN","NORTH HAVEN","CT","06473"
253794,"60 HIGH MOUNTAIN ROAD","RINGWOOD","NJ","07456"
253795,"60 HILL STREET","BELLEVILLE","NJ","07109"
253796,"60 HILLTOP RD","WASHINGTON","NJ","07882"
253797,"60 HOFSTRA DRIVE","SMITHTOWN","NY","11787"
253798,"60 HOMEPLACE CIR","MONETA","VA","24121"
253799,"60 HOPE AVE APT 625","WALTHAM","MA","02453"
253800,"60 HORSEBLOCK RD APT 4B","CENTEREACH","NY","11720"
253801,"60 HUNTINGTON DR","SOUTHAMPTON","NJ","08088"
253802,"60 ISLAND ST STE 113","LAWRENCE","MA","01840"
253803,"60 JAY STREET","NEW LONDON","CT","06320"
253804,"60 JEFFERSON STREET","NEWARK","NJ","07105"
253805,"60 JILLS LNDG","WINCHESTER","TN","37398"
253806,"60 KEARNEY STREET","LYNDHURST","NJ","07071"
253807,"60 KING STREET UNIT 2","EUSTIS","FL","32726"
253808,"60 KOSTENBADER RD","BLAIRSTOWN","NJ","07825"
253809,"60 L STREET NE APT 906","WASHINGTON","DC","20002"
253810,"60 LAURIE LANE","BURLEY","ID","83318"
253811,"60 LAZY WATER DRIVE SW","CARTERSVILLE","GA","30120"
253812,"60 LEDGEWOOD DR","BRIDGEWATER","MA","02324"
253813,"60 LEDGEWOOD PLACE","ROCKLAND","MA","02370"
253814,"60 LESTER TH 01","NASHVILLE","TN","37210"
253815,"60 LEVERETT ROAD","SHUTESBURY","MA","01072"
253816,"60 LEWIS STREET","ANDERSON","SC","29624"
253817,"60 LINCOLN CENTER PLAZA","NEW YORK","NY","10023"
253818,"60 LYNFORD ROAD","RICHBORO","PA","18954"
253819,"60 LYSTRA ESTATES DRIVE","CHAPEL HILL","NC","27517"
253820,"60 MAGNOLIA AVE","CAMBRIDGE","MA","02138"
253821,"60 MAGNOLIA TRCE","HARVEY","LA","70058"
253822,"60 MAIN AVENUE","HUNTSVILLE","TX","77340"
253823,"60 MAIN STREET  839","WOODBRIDGE","NJ","07095"
253824,"60 MARION ROAD WEST","PRINCETON","NJ","08540"
253825,"60 MARTINDALE ROAD","CLIFTON","NJ","07013"
253826,"60 MATHEW ST","WISCSONSIN DELLS","WI","53965"
253827,"60 MAYLAND STREET","PORTLAND","ME","04103"
253828,"60 MCKENNA RIDGE ROAD","EAST FALMOUTH","MA","02536"
253829,"60 MEADOWBROOK ROAD","NORTH PLAINFIELD","NJ","07062"
253830,"60 MIDDLE COUNTRY VIEW LANE","MIDDLE ISLAND","NY","11953"
253831,"60 MIDDLETON DR","COVINGTON","GA","30016"
253832,"60 MINA AVENUE","CLIFTON","NJ","07011"
253833,"60 MINUTEMAN ROAD","ANDOVER","MA","01810"
253834,"60 MONOR DR","CHESHIRE","CT","06410"
253835,"60 MONROE STREET","AGAWAM","MA","01001"
253836,"60 MONTCALM STREET PO BOX 288","TICONDEROGA","NY","12883"
253837,"60 MORGAN DR","AUBURN","NH","03032"
253838,"60 MOUNTAIN HIGH FARM LN","SPERRYVILLE","VA","22740"
253839,"60 N 100 W","KAYSVILLE","UT","84037"
253840,"60 N 400 E PO BOX 1090","BEAVER","UT","84713"
253841,"60 N BOW STREET","MILFORD","MA","01757"
253842,"60 N INGLESIDE ST","FAIRHOPE","AL","36532"
253843,"60 N IOWA AVENUE","PAYETTE","ID","83661"
253844,"60 N MARKET STREET SUITE C205","ASHEVILLE","NC","28801"
253845,"60 N RICHVIEW AVE","YOUNGSTOWN","OH","44509"
253846,"60 N WATER ST","NEW BEDFORD","MA","02740"
253847,"60 N WOODRIDGE RD","ROGERS","AR","72756"
253848,"60 NAHATAN STREET","WESTWOOD","MA","02090"
253849,"60 NE 4TH AVENUE","DEERFIELD BEACH","FL","33441"
253850,"60 NEPTUNE PLACE","MIDDLETOWN","NJ","07748"
253851,"60 NEWMAN ST","HACKENSACK","NJ","07601"
253852,"60 NORTH MAY AVENUE","OKLAHOMA CITY","OK","73107"
253853,"60 NORTHFIELD AVE","WEST ORANGE","NJ","07052"
253854,"60 NW 161 AVENUE","PEMBFROKE PINES","FL","33028"
253855,"60 NW 95TH PL","KANSAS CITY","MO","64155"
253856,"60 O STREET NW","WASHINGTON","DC","20001"
253857,"60 OAK HOLLOW BLVD","HOCKLEY","TX","77447"
253858,"60 OAK RUN RD","CARBONDALE","CO","81623"
253859,"60 OAKWOOD ROAD","PITTSBURGH","PA","15205"
253860,"60 OLD CARROLLTON ROAD","ROOPVILLE","GA","30170"
253861,"60 OLD COACH ROAD","FARIFIELD","CT","06824"
253862,"60 OLD ROWLEY ROAD","NEWBURY","MA","01951"
253863,"60 OPERA DRIVE","BISBEE","AZ","85603"
253864,"60 ORCHARD DRIVE","PIQUA","OH","45356"
253865,"60 ORCHARD NECK ROAD","CENTER MORICHES","NY","11934"
253866,"60 PALATINE 412","IRVINE","CA","92612"
253867,"60 PARK PL STE 1600","NEWARK","NJ","07102"
253868,"60 PARK PLACE","AVON","NY","14414"
253869,"60 PARK PLACE","NEWARK","NJ","07102"
253870,"60 PARK STREET","NORTH ANDOVER","MA","01845"
253871,"60 PARK TERRACE WEST A74","NEW YORK","NY","10034"
253872,"60 PARKWAY DRIVE EAST 12H","EAST ORANGE","NJ","07017"
253873,"60 PATTEN CIRCLE","ALBRIGHTSVILLE","PA","18210"
253874,"60 PAXTON RD","SPENCER","MA","01562"
253875,"60 PEACHTREE PARK DRIVE NE STE 200","ATLANTA","GA","30309"
253876,"60 PEBBLE BROOK COURT","ERIE","CO","80516"
253877,"60 PELHAM STREET","NEWTON","MA","02459"
253878,"60 PEMBROKE PLACE","CHICOPEE","MA","01020"
253879,"60 PINEY HILL RD","OAKLAND","MI","48363"
253880,"60 PINNEY STREET NUMBER 19","ELLINGTON","CT","06029"
253881,"60 PITT LANE","PALM COAST","FL","32164"
253882,"60 PLYMOUTH STREET","PORTLAND","ME","04103"
253883,"60 PONDEROSA COURT","ORCHARD PARK","NY","14127"
253884,"60 POWDERHORN ROAD","ARDSLEY","NY","10502"
253885,"60 PRAIRIE COURT","HIGHLAND PARK","IL","60035"
253886,"60 PREMIUM PT","NEW ROCHELLE","NY","10801"
253887,"60 PRESSLEY AVE","BREVARD","NC","28712"
253888,"60 QUEQUECHAN CIR","RAYNHAM","MA","02767"
253889,"60 RAILROAD PLACE SUITE 301","SARATOGA SPRINGS","NY","12866"
253890,"60 RANDALL AVENUE","TRENTON","NJ","08611"
253891,"60 REMSEN ST  APT 8F","BROOKLYN","NY","11201"
253892,"60 REVERE WAY","HUNTSVILLE","AL","35801"
253893,"60 RIVERGLEN DRIVE","THIELLS","NY","10984"
253894,"60 RIVERSIDE BLVD APT 1801","NEW YORK","NY","10069"
253895,"60 ROBINSON ROAD","SEVERNA PARK","MD","21146"
253896,"60 ROGER DRIVE","EVINGTON","VA","24550"
253897,"60 ROSEMARY STREET","NEEDHAM","MA","02494"
253898,"60 S LINCOLN ST 101","DENVER","CO","80209"
253899,"60 S SHERMAN ST","WILKES-BARRE","PA","18702"
253900,"60 SADDLE RIVER AVENUE UNIT E","SOUTH HACKENSACK","NJ","07026"
253901,"60 SALE LANE","FREDERICKSBURG","VA","22406"
253902,"60 SAW MILL RD","NEW CITY","NY","10956"
253903,"60 SCENIC DR","DENVER","PA","17517"
253904,"60 SCHOOL STREET","BROCKTON","MA","02301"
253905,"60 SEELY PL","SCARSDALE","NY","10583"
253906,"60 SETTLERS CT","BEDFORD","NH","03110"
253907,"60 SHEFFIELD STREET","OLD SAYBROOK","CT","06475"
253908,"60 SNEIDER ROAD","WARREN","NJ","07059"
253909,"60 SOUTH 6TH STREET SUITE 2800","MINNEAPOLIS","MN","55402"
253910,"60 SOUTH MAPLE AVE","EAST ORANGE","NJ","07018"
253911,"60 SOUTH MUNN AVE","EAST ORANGE","NJ","07018"
253912,"60 SOUTH MUNN AVE/APT 1008","EAST ORANGE","NJ","07018"
253913,"60 SOUTH PARK PLACE","PAINESVILLE","OH","44077"
253914,"60 SPEWAK RD","WAYMART","PA","18472"
253915,"60 SPRING WAY DR","ST PETERS","MO","63376"
253916,"60 SQUIRE ROAD","WINCHESTER","MA","01890"
253917,"60 STANTON HALL DRIVE","DESTREHAN","LA","70047"
253918,"60 STATE ROUTE 15 S","WHARTON","NJ","07885"
253919,"60 STATE STREET","HACKENSACK","NJ","07601"
253920,"60 STEPHANIE RD","BIRDSBORO","PA","19508"
253921,"60 STUART ST","WOODBURY","NJ","08096"
253922,"60 SUMMIT POINTE COURT","SAINT CHARLES","MO","63301"
253923,"60 SUMMIT RD","WATSONVILLE","CA","95076"
253924,"60 SUSA DR SUITE 107","STAFFORD","VA","22554"
253925,"60 SUSSEX ST","PORT JERVIS","NY","12771"
253926,"60 SWEETWOOD DR N","AMHERST","NY","14228"
253927,"60 SYCAMORE STREET","TIFFIN","OH","44883"
253928,"60 TABARDRY MILL PORT","CHAPEL HILL","NC","27516"
253929,"60 TABER STREET","NEW BEDFORD","MA","02740"
253930,"60 TAURUS ROAD","EMIGRANT","MT","59027"
253931,"60 THETFORD AVE         2","DORCHESTER CENTER","MA","02124"
253932,"60 THIRD STREET","SPRECKELS","CA","93962"
253933,"60 THOREAU STREET","CONCORD","MA","01742"
253934,"60 TOPAZ DRIVE","FREEHOLD","NJ","07728"
253935,"60 TURNER PLACE STE 6W","BROOKLYN","NY","11218"
253936,"60 UPPER OXBOW RD","NEW HAMPTON","NH","03256"
253937,"60 VALENTINE ROAD","NORTHBOROUGH","MA","01532"
253938,"60 VETERANS AVE","BROOKSVILLE","FL","34601"
253939,"60 VILLAGE RD","KENDALL PARK","NJ","08824"
253940,"60 VILLAGE SPRINGS COVE","SPRINGVILE","AL","35146"
253941,"60 VIRGINIA LANE","THORNWOOD","NY","10594"
253942,"60 W 142ND STREET APT 1F","NEW YORK","NY","10037"
253943,"60 W MAIN ST","REXBURG","ID","83440"
253944,"60 W STONE LOOP APT 122","TUCSON","AZ","85704"
253945,"60 WAIOLANI PLACE","WAILUKU","HI","96793"
253946,"60 WALNUT STREET THIRD FLOOR","WELLESLEY","MA","02481"
253947,"60 WARBLER LN","PORT LUDLOW","WA","98365"
253948,"60 WARWICK ST","PORTLAND","ME","04102"
253949,"60 WARWICK STREET","PORTLAND","ME","04102"
253950,"60 WASHINGTON STREET 5","EAST ORANGE","NJ","07017"
253951,"60 WATER ST APT 1514","BROOKLYN","NY","11201"
253952,"60 WATER STREET APARTMENT 802","BROOKLYN","ME","11201"
253953,"60 WEDGEWOOD DR","SOUTH ELGIN","IL","60177"
253954,"60 WEST 13TH STREET","NEW YORK","NY","10011"
253955,"60 WEST AVONDALE DR","GREENVILLE","SC","29609"
253956,"60 WEST HABIG ROAD","INDIANAPOLIS","IN","46217"
253957,"60 WEST LOOP      710","TUCSON","AZ","85704"
253958,"60 WESTHEIMER RD","HENDERSON","NV","89074"
253959,"60 WESTWOOD PLACE - APT - A7","DURANGO","CO","81301"
253960,"60 WHITEHALL DR","COLLEGEVILLE","PA","19426"
253961,"60 WHITMAN ROAD","COVENTRY","RI","02816"
253962,"60 WILLARD STREET","AYER","MA","01432"
253963,"60 WILMORE RD","LITTLE FALLS","NJ","07424"
253964,"60 WINCHESTER DRIVE","LIVERPOOL","NY","13088"
253965,"60 WOLF LANE","RICHMOND","VT","05477"
253966,"60 WOODVIEW DRIVE","BELLE MEAD","NJ","08502"
253967,"60 WREN WAY","WASHINGTON","PA","15301"
253968,"60-01 D 194TH STREET","FRESH MEADOWS","NY","11365"
253969,"60-11 69TH AVENUE","RIDGEWOOD","NY","11385"
253970,"60-39 56TH RD APT 3R","MASPETH","NY","11378"
253971,"60-61 PUTNAM AVE FLOOR 1","RIDGEWOOD","NY","11385"
253972,"60-68 68TH AVE","RIDGEWOOD","NY","11385"
253973,"60-71 WOODBINE STREET","FLUSHING","NY","11385"
253974,"60","ELLENWOOD","GA","30294"
253975,"60","NORTH MIAMI BEACH","FL","33179"
253976,"600  N 2ND ST","HARRISBURG","PA","17101"
253977,"600  NORTH BENEVA ROAD","SARASOTA","FL","34232"
253978,"600 10TH STREET","MODESTO","CA","95354"
253979,"600 11TH AVE W","HUNTINGTON","WV","25701"
253980,"600 11TH AVENUE","MERIDIAN","MS","39301"
253981,"600 11TH ST SW","WELLS","MN","56097"
253982,"600 11TH STREET SW","WELLS","MN","56097"
253983,"600 11TH STREET","AMBRIDGE","PA","15003"
253984,"600 12TH AVE S APT 809","NASHVILLE","TN","37203"
253985,"600 14TH ST NW","MANDAN","ND","58554"
253986,"600 16TH STREET NE","BEULAH","ND","58523"
253987,"600 17TH ST STE 2800 S","DENVER","CO","80202"
253988,"600 17TH STREET STE 2800 SOUTH","DENVER","CO","80202"
253989,"600 17TH STREET SUITE 2800 SOUTH","DENVER","CO","80202"
253990,"600 20TH STREET  NORTH SUITE 304","BIRMINGHAM","AL","35203"
253991,"600 22ND ST STE 402","VIRGINIA BEACH","VA","23451"
253992,"600 28TH AVENUE NORTH","NASHVILLE","TN","37209"
253993,"600 2ND AVE SW PO BOX 129","WATFORD CITY","ND","58854"
253994,"600 2ND AVE WEST","JEROME","ID","83338"
253995,"600 2ND ST","SEALY","TX","77474"
253996,"600 2ND STREET","WAXAHACHIE","TX","75165"
253997,"600 33RD STREET","GALVESTON","TX","77550"
253998,"600 3RD ST","RAINIER","WA","98576"
253999,"600 4TH AVENUE","BRIDGEVILLE","PA","15017"
254000,"600 4TH ST SUITE 202 NUMBER 6","SIOUX CITY","IA","51101"
