"ID","Address","City","State","Zip"
18001,"109 OTISCO ST STE 404","SYRACUSE","NY","13204"
18002,"109 PACIFIC BLVD","LONG BEACH","NY","11561"
18003,"109 PAMELA PLACE","SEAFORD","VA","23696"
18004,"109 PATRIOT DRIVE","EAST PEORIA","IL","61611"
18005,"109 PEACH ST","VIENNA","IL","62995"
18006,"109 PEACH TREE ST","HUNTSVILLE","TX","77320"
18007,"109 PEBBLESIDE LANE","LANCASTER","PA","17602"
18008,"109 PECAN PLACE","BUENA VISTA","GA","31803"
18009,"109 PINE ARBOR DRIVE","LEESBURG","GA","31763"
18010,"109 PINE ST","CHURCH HILL","TN","37642"
18011,"109 PINE ST","KINGSPORT","TN","37642"
18012,"109 PLANTATION SHORES DR","TAVERNIER","FL","33070"
18013,"109 PONTIAC STREET","OXFORD","MI","48371"
18014,"109 POPLAR HILL COURT","AIKEN","SC","29803"
18015,"109 POTTERY LANDING DR","CONWAY","SC","29527"
18016,"109 PRAIRIE VIEW LANE","RED OAK","TX","75154"
18017,"109 PRINCE CHARLES COURT","KILL DEVIL HILLS","NC","27948"
18018,"109 PRINCE ST","GREER","SC","29651"
18019,"109 PRINCETON AVENUE","PROVIDENCE","RI","02907"
18020,"109 PROMETHEAN WAY","MOUNTAIN VIEW","CA","94043"
18021,"109 PROVIDENCE PLACE","WILLOW STREET","PA","17584"
18022,"109 PURPLE PASSION AVE","NLV","NV","89032"
18023,"109 RAGSDALE ROAD ROOM 116","TRAVIS AFB","CA","94535"
18024,"109 RAPPORT DRIVE","CARY","NC","27519"
18025,"109 REDBIRD LANE","TERRACE PARK","OH","45174"
18026,"109 REDBUD DRIVE","BRANDON","MS","39047"
18027,"109 REESE RD","SEVIERVILLE","TN","37862"
18028,"109 RIDGE LANE PARK","ROSE HILL","NC","28458"
18029,"109 RIDGE RD N","HEDGESVILLE","WV","25427"
18030,"109 RIDGE ROAD NORTH","HEDGESVILLE","WV","25427"
18031,"109 RIDINGS WAY","AMBLER","PA","19002"
18032,"109 RIGGS ROAD BLDG B","MOREHEAD CITY","NC","28557"
18033,"109 RING RD","KINGSTON","MA","02364"
18034,"109 RIVER BLUFF","CASTROVILLE","TX","78009"
18035,"109 RIVERWALK BLVD","BURLINGTON","NJ","08016"
18036,"109 ROADRUNNER CIRCLE","BOERNE","TX","78006"
18037,"109 ROBIN AUBREY LANE APT 207","MOORESVILLE","NC","28117"
18038,"109 ROCK CREEK DR","GREENWOOD","SC","29646"
18039,"109 ROCKY MOUNTAIN DR","WALBACK","WV","25285"
18040,"109 ROLLING HILLS DR","SOMERSET","KY","42503"
18041,"109 RYLER DR","DURANGO","CO","81301"
18042,"109 S 77TH STREET","HOUSTON","TX","77012"
18043,"109 S BANKER ST","EFFINGHAM","IL","62401"
18044,"109 S MAIN ST APT C","HESSON","KS","67062"
18045,"109 S MAIN ST STE B","MOORELAND","OK","73852"
18046,"109 S MAIN ST","SHERIDAN","WY","82801"
18047,"109 S MAIN STREET","SHERIDAN","WY","82801"
18048,"109 S POE AVE","KANSAS CITY","MO","64119"
18049,"109 S SANDUSKY AVE ROOM 16","UPPER SANDUSKY","OH","43351"
18050,"109 S SCOTT ST UNIT D1","SPOKANE","WA","99202"
18051,"109 S TAYLOR ST","NEW BUFFALO","MI","49117"
18052,"109 S WEST END BLVD","QUAKERTOWN","PA","18951"
18053,"109 SANDTRAP CT","SUFFOLK","VA","23434"
18054,"109 SANFORD STREET","HAMDEN","CT","06514"
18055,"109 SARGENT ROAD","CORDOVA","AL","35550"
18056,"109 SCATESWOOD DRIVE","MARTIN","TN","38237"
18057,"109 SCHOOL ST","RIPLEY","MS","38663"
18058,"109 SE 1ST AVE","OCALA","FL","34471"
18059,"109 SE GATE DRIVE","CHERRY HILL","NJ","08003"
18060,"109 SECOND STREET BOX 301","ROGERSVILLE","PA","15359"
18061,"109 SHORE DRIVE","BEAUFORT","NC","28516"
18062,"109 SMOKEY HILL AVENUE","RUSKIN","FL","33570"
18063,"109 SONEWALL DRIVE","CARROLLTON","GA","30117"
18064,"109 SOUTH 17TH STREET","WILMINGTON","NC","28401"
18065,"109 SOUTH 2ND STREET","MILLVILLE","NJ","08332"
18066,"109 SOUTH 5TH STREET","BROOKLYN","NY","11249"
18067,"109 SOUTH ATLANTIC DRIVE","LANTANA","FL","33462"
18068,"109 SOUTH CENTRAL AVENUE","LADD","IL","61329"
18069,"109 SOUTH DIVISION","GUTHRIE","OK","73044"
18070,"109 SOUTH GRAYSON ST","NEWBERN","TN","38059"
18071,"109 SOUTH MAIN STREET USA","MARCELINE","MO","64658"
18072,"109 SOUTH MAIN","CHAFFEE","MO","63740"
18073,"109 SOUTH NORMANDIE APT 302","LOS ANGELES","CA","90004"
18074,"109 SOUTH ST JOHN","LYONS","KS","67554"
18075,"109 SOUTH WASHINGTON ST","CLINTON","KY","42031"
18076,"109 SOUTH WHITE STREET","LANCASTER","SC","29720"
18077,"109 SPRAIN RD","SCARSDALE","NY","10583"
18078,"109 STADIUM DRIVE ROOM 309","CHAPEL HILL","NC","27514"
18079,"109 STATE ROAD","WEST GROVE","PA","19390"
18080,"109 STONE CREEK LANE","PERKASIE","PA","18944"
18081,"109 STONEBRIDGE XING","NEWNAN","GA","30265"
18082,"109 STONEHAM COURT","MEBANE","NC","27302"
18083,"109 STONERIDGE DRIVE","MESQUITE","TX","75149"
18084,"109 STRATHMORE ROAD APT 11","BOSTON","MA","02135"
18085,"109 STROBAN ROAD","SEABROOK","SC","29940"
18086,"109 SUMMER HILL LANE","SAINT DAVIDS","PA","19087"
18087,"109 SUMMIT AVE","LAUREL SPRINGS","NJ","08021"
18088,"109 SUNNYSIDE AVE","WAYNESBORO","PA","17268"
18089,"109 SUNRISE FALLS","CIBOLO","TX","78108"
18090,"109 SW 14TH AVE","DELRAY BEACH","FL","33444"
18091,"109 SW BIRCH ST","DUNDEE","OR","97115"
18092,"109 SW MAIN STREET BOX 554","MELCHER DALLAS","IA","50163"
18093,"109 SWEETBRIAR AVE","HAMILTON","NJ","08619"
18094,"109 SYCAMORE CT","NISKAYUNA","NY","12309"
18095,"109 TALBOT ST","OCEAN CITY","MD","21842"
18096,"109 TALL GRASS CT","ROCKVILLE","MD","20850"
18097,"109 TALL PINE CIRCLE","SALISBURY","NC","28147"
18098,"109 TARKINGTON CT","MORRISVILLE","NC","27560"
18099,"109 TERRENE ROAD PO BOX 49","ROSEDALE","MS","38769"
18100,"109 TERROZA COURT","ROSEVILLE","CA","95747"
18101,"109 THEATER DR","CELINA","TN","38551"
18102,"109 THOMAS DR","CHARLOTTESVILLE","VA","22903"
18103,"109 THORN THICKET CT","ROCKMART","GA","30153"
18104,"109 TILTING ROCK DRIVE","HOPKINS","SC","29061"
18105,"109 TIMBERBROOK LANE","GAITHERSBURG","MD","20878"
18106,"109 TIMBERLAND DRIVE","RIPLEY","WV","25271"
18107,"109 TORRINGOTN ROAD","GOSHEN","CT","06756"
18108,"109 TREEHAVEN STREET","GAITHERSBURG","MD","20878"
18109,"109 TRINITY LANE","DUSON","LA","70529"
18110,"109 TRIPLE CROWN ROAD","MONCKS CORNER","SC","29461"
18111,"109 TUDOR AVE APT A","NEW ORLEANS","LA","70123"
18112,"109 TUDOR ST","BOSTON","MA","02127"
18113,"109 TULANE AVE","INDEPENDENCE","LA","70443"
18114,"109 TUPELO AVENUE","NAPERVILLE","IL","60540"
18115,"109 UNCAS STREET","WARWICK","RI","02889"
18116,"109 VENTURA BLVD","SAVANNAH","GA","31419"
18117,"109 VIA EL CHICO","REDONDO BEACH","CA","90277"
18118,"109 VIA VALVERDE","CATHEDRAL CITY","CA","92234"
18119,"109 VIA VERDE WAY","PALM BEACH GARDENS","FL","33418"
18120,"109 VINCENNES ROAD","CHARLOTTESVILLE","VA","22911"
18121,"109 VINEYARD AVE E","HIGHLAND","NY","12528"
18122,"109 W 17TH ST","CHEYENNE","WY","82001"
18123,"109 W 7TH STREET","GEORGETOWN","IL","61846"
18124,"109 W AUSTIN AVE","SEADRIFT","TX","77983"
18125,"109 W EDGEWATER ST","CAMBRIA","WI","53923"
18126,"109 W ELLS AVE","CHAMPAIGN","IL","61820"
18127,"109 W FORTUNE STREET","TAMPA","FL","33602"
18128,"109 W HIGHAM ST","ST JOHNS","MI","48879"
18129,"109 W HONEYSUCKLE AVE 2811","HAYDEN","ID","83835"
18130,"109 W HONEYSUCKLE AVE UNIT 2784","HAYDEN","MI","83835"
18131,"109 W LIBERTY STREET","WAUCONDA","IL","60084"
18132,"109 W MAHONEY ST","WINSLOW","AZ","86047"
18133,"109 W MAIN AVE","RITZVILLE","WA","99169"
18134,"109 W MARKET ST","WARSAW","IN","46580"
18135,"109 W NEWTOWN PLACE","NEWARK","DE","19702"
18136,"109 W PINCKNEY ST","ABBEVILLE","SC","29620"
18137,"109 W SAN MATEO RD","SANTA FE","NM","87505"
18138,"109 W SOUTH PARK ST","THAWVILLE","IL","60968"
18139,"109 W SPENCER ST","PHILADELPHIA","PA","19120"
18140,"109 W TYLER ST","GILMER","TX","75644"
18141,"109 W WALNUT ST","LOCKHART","TX","78644"
18142,"109 W WASHINGTON ST PO BOX 30","WAYNETOWN","IN","47990"
18143,"109 WALKER ROAD","FARMINGTON","MO","63640"
18144,"109 WALNUT AVE","ARDMORE","PA","19003"
18145,"109 WARBONNET TRAIL","DEL RIO","TX","78840"
18146,"109 WEST BROAD STREET","HAZLETON","PA","18201"
18147,"109 WEST COURT STREET","WOODSTOCK","VA","22664"
18148,"109 WEST EDGERTON STREET","HICKSVILLE","OH","43526"
18149,"109 WEST END AVE","NEWARK","NJ","07106"
18150,"109 WEST FRONT STREET","BLOOMINGTON","IL","61701"
18151,"109 WEST GREENBROOK ROAD","N. CALDWELL","NJ","07006"
18152,"109 WEST HIGHLAND AVE","BARNESVILLE","OH","43713"
18153,"109 WEST MAIN AVE","RITZVILLE","WA","99169"
18154,"109 WEST MALL DRIVE","CORSICANA","TX","75110"
18155,"109 WEST MELROSE AVE","BALTIMORE","MD","21210"
18156,"109 WEST WOODLAWN RANCH ROAD","HOUMA","LA","70363"
18157,"109 WESTFIELD DRIVE","CRANSTON","RI","02920"
18158,"109 WESTMINSTER DR","GREENVILLE","OH","45331"
18159,"109 WHIMSICAL COURT","LOCUST GROVE","GA","30248"
18160,"109 WHITE HALL AVE 14","WHITE HALL","AR","71602"
18161,"109 WHITE HALL AVENUE APARTMENT 14","WHITE HALL","AR","71602"
18162,"109 WHITE OAK DR","MICHIGAN CITY","IN","46360"
18163,"109 WHITE OAK DRIVE","YOUNGSVILLE","NC","27596"
18164,"109 WILSHIRE DR","CRANFORD","NJ","07016"
18165,"109 WILSON AVE","MORGANTOWN","WV","26501"
18166,"109 WINDHAM RD","NORFOLK","VA","23505"
18167,"109 WINONA WAY","WALHALLA","SC","29691"
18168,"109 WINTERSAGE CT","HOLLY SPRINGS","NC","27540"
18169,"109 WISE ROAD","GREENSBORO","PA","15338"
18170,"109 WOODHALL DRIVE","HENRICO","VA","23229"
18171,"109 WOODLAND PLACE CT","SAINT CHARLES","MO","63303"
18172,"109 ZACHARY DR","WILLIAMSBURG","OH","45176"
18173,"109-03 200TH STREET","SAINT ALBANS","NY","11412"
18174,"109-05 FARMERS BOULEVARD","SAINT ALBANS","NY","11412"
18175,"109-17  72 RD  6R","FOREST HILLS","NY","11375"
18176,"109-19 CENTREVILLE ST APT 2F","OZONE PARK","NY","11417"
18177,"109-20 112TH ST","OZONE PARK","NY","11420"
18178,"109-23 71ST ROAD SUITE5B","FOREST HILLS","NY","11375"
18179,"109-25 MERRICK BLVD","JAMAICA","NY","11433"
18180,"109-40 174TH STREET","JAMAICA","NY","11433"
18181,"109-41 FRANCIS LEWIS BLVD 2ND FLOOR","QUEENS VILLAGE","NY","11429"
18182,"109-5 MASONIC HOME ROAD  P O BOX 77","CHARLTON","MA","01507"
18183,"109-56 143RD ST","SOUTH OZONE PARK","NY","11435"
18184,"109-71 195 STREET","QUEENS","VA","11412"
18185,"109-A BIRCH CIRCLE","EGLIN AFB","FL","32542"
18186,"109-A SOUTH CHURCH ST","HUNTERSVILLE","NC","28078"
18187,"109","GAINESVILLE","FL","32607"
18188,"109","HUMMELSTOWN","PA","17036"
18189,"109","SIERRA VISTA","AZ","85635"
18190,"1090 AVON ROAD","SCHENECTADY","NY","12308"
18191,"1090 B STREET NUMBER 113","HAYWARD","CA","94541"
18192,"1090 BAYWOOD LANE","HERCULES","CA","94547"
18193,"1090 BELLEVUE DRIVE","ATLANTA","GA","30306"
18194,"1090 CLOVER AVE","ODENVILLE","AL","35120"
18195,"1090 DAY ROAD","GILROY","CA","95020"
18196,"1090 DEAN STREET","SAINT CLOUD","FL","34771"
18197,"1090 FISHERMAN STREET","MIAMI","FL","33054"
18198,"1090 GRACE ST","MANSFIELD","OH","44905"
18199,"1090 GRANDVIEW DR","ELM GROVE","WI","53122"
18200,"1090 HWY 28","ANTHONY","NM","88021"
18201,"1090 ISAM LANE BOX 383","SHERIDAN","TX","77475"
18202,"1090 JUPITER PARK DR STE 101","JUPITER","FL","33458"
18203,"1090 LIBERTY ST SE","SALEM","OR","97302"
18204,"1090 LILAC ARBOR ROAD","DACULA","GA","30019"
18205,"1090 MALLETTE CIRCLE","MAGNOLIA","MS","39652"
18206,"1090 MERRILL STREET","MENLO PARK","CA","94025"
18207,"1090 N HEDGEROW DRIVE","ALLENTOWN","PA","18103"
18208,"1090 NW 151 STREET","MIAMI","FL","33169"
18209,"1090 OCEAN HEIGHTS AVE","EGG HARBOR TWP","NJ","08234"
18210,"1090 OREGON AVE","BANDON","OR","97411"
18211,"1090 PORTION RD","FARMINGVILLE","NY","11738"
18212,"1090 RAVINE DR","YOUNGSTOWN","OH","44505"
18213,"1090 S CENTRAL PKWY","MOUNTAIN HOUSE","CA","95391"
18214,"1090 S DONAHUE DR","AUBURN","AL","36849"
18215,"1090 SANDRA DRIVE","FENTON","MO","63026"
18216,"1090 SURREY DRIVE","BONITA","CA","91902"
18217,"1090 SW HARPER RD","PORT ORCHARD","WA","98367"
18218,"1090 TEXAN TRAIL STE 514","GRAPEVINE","TX","76051"
18219,"1090 VERMONT AVE NW STE 910","WASHINGTON","DC","20005"
18220,"1090 VERMONT AVE NW","WASHINGTON","DC","20005"
18221,"1090 VERMONT AVENUE NW SUITE 910","WASHINGTON","DC","20005"
18222,"1090 VERMONT AVENUE NW","WASHINGTON","DC","20005"
18223,"1090 VILLITA LOOP","LAS CRUCES","NM","88005"
18224,"1090 W MAIN ST","TROY","PA","16947"
18225,"1090 WALTONS PASS","EVANS","GA","30809"
18226,"1090 WEST MAIN STREET","MOUNT JOY","PA","17552"
18227,"1090 WEST MICHIGAN AVENUE","PENSACOLA","FL","32505"
18228,"1090 WEST SUMNER STREET","HARTFORD","WI","53027"
18229,"1090 WORTHINGTON HILLS DRIVE","ROSWELL","GA","30076"
18230,"1090","BAREFOOT BAY","FL","32976"
18231,"10900 183RD ST SUITE 290","CERRITOS","CA","90703"
18232,"10900 50TH ST","JURUPA VALLEY","CA","91752"
18233,"10900 ADLER CT","LARGO","MD","20774"
18234,"10900 BASKERVILLE RD","REISTERTOWN","MD","21136"
18235,"10900 DAPPLE GREY LANE","CHARLOTTE","NC","28213"
18236,"10900 E TAYLOR RD APT 263","GULFPORT","MS","39503"
18237,"10900 ELECTRON DRIVE","LOUISVILLE","KY","40299"
18238,"10900 EUCLID AVE ROOM 330","CLEVELAND","OH","44106"
18239,"10900 EUCLID AVENUE","CLEVELAND","OH","44106"
18240,"10900 HIGHWAY 9 N","BELDEN","MS","38826"
18241,"10900 MULHALL ST","EL MONTE","CA","91731"
18242,"10900 NE 4TH STREET SUITE 2260","BELLEVUE","WA","98004"
18243,"10900 NORTH US HIGHWAY 27","OCALA","FL","34482"
18244,"10900 NW 18 COURT","PLANTATION","FL","33322"
18245,"10900 NW 19 AVE","MIAMI","FL","33167"
18246,"10900 RESEARCH BLDV STE 160C PMB","AUSTIN","TX","78759"
18247,"10900 RICE FIELD PL","FAIRFAX STATION","VA","22039"
18248,"10900 STONELAKE BLVD STE A-320","AUSTIN","TX","78759"
18249,"10900 SUNSET DRIVE","EVANSVILLE","IN","47712"
18250,"10900 SW 124 STREET","MIAMI","FL","33176"
18251,"10900 SW 127 AVE","MIAMI","FL","33186"
18252,"10900 WAYZATA BLVD SUITE 130","MINNETONKA","MN","55305"
18253,"10900 WEST 44TH AVENUE SUITE 200","WHEAT RIDGE","CO","80033"
18254,"10900 WESTMINSTER AVE STE 10","GARDEN GROVE","CA","92843"
18255,"10901 BARN WOOD LANE","POTOMAC","MD","20854"
18256,"10901 BRANTLEY AVE BLDG 1182","HOUSTON","TX","77034"
18257,"10901 BRIGHTON BAY BLVD APT 5309","ST PETERSBURG","FL","33716"
18258,"10901 BURNT MILL RD","JACKSONVILLE","FL","32256"
18259,"10901 COUNTY ROAD 5460","ROLLA","MO","65401"
18260,"10901 DANIEL SIM CT","UPPER MARLBORO","MD","20772"
18261,"10901 EADES COURT","CHESTERFIELD","VA","23838"
18262,"10901 ELINDA PLACE","SUN VALLEY","CA","91352"
18263,"10901 ENCHANTED ROCK COVE","AUSTIN","TX","78726"
18264,"10901 FAUST ROAD","TRENTON","IL","62293"
18265,"10901 GASSON DR","NORTH HUNTINGDON","PA","15642"
18266,"10901 MAGNOLIA AVENUE UNIT 9","ANAHEIM","CA","92804"
18267,"10901 MAYFIELD DRIVE","CORPUS CHRISTI","TX","78410"
18268,"10901 MEADOWGLEN LN 250","HOUSTON","TX","77042"
18269,"10901 MIST LANE APT 5109","HOUSTON","TX","77070"
18270,"10901 MIST LANE APT 8105","HOUSTON","TX","77070"
18271,"10901 N TORREY PINES RD","LA JOLLA","CA","92037"
18272,"10901 RANCHSTONE DRIVE  SUITE 106","HOUSTON","TX","77064"
18273,"10901 RHODE ISLAND AVE PO BOX 281","BELTSVILLE","MD","20704"
18274,"10901 SW 24TH STREET","MIAMI","FL","33165"
18275,"10901 WILSON BLVD","BLYTHEWOOD","SC","29016"
18276,"10902 AUTUMN OAK PLACE","TAMPA","FL","33618"
18277,"10902 KATY FWY UNIT 1311","HOUSTON","TX","77043"
18278,"10902 LAZY MEADOWS","HOUSTON","TX","77064"
18279,"10902 LEANING ASH LN","HOUSTON","TX","77079"
18280,"10902 MALDEN DRIVE","HOUSTON","TX","77075"
18281,"10902 SUGARBUSH TERRACE","ROCKVILLE","MD","20852"
18282,"10902 WADE PARK AVENUE","CLEVELAND","OH","44106"
18283,"10903 BIG SKY TRAIL","ELBERT","CO","80106"
18284,"10903 DRUMM AVENUE","KENSINGTON","MD","20895"
18285,"10903 E ADDY WAY","SCOTTSDALE","AZ","85262"
18286,"10903 FORESTGATE PLACE","GLENN DALE","MD","20769"
18287,"10903 GRAPEVINE LANE","AUSTIN","TX","78759"
18288,"10903 MORISON","CLEVELAND","OH","44108"
18289,"10903 NORTH RD","ABBEVILLE","LA","70510"
18290,"10903 NORTHWEST 33RD STREET","DORAL","FL","33172"
18291,"10903 S HALE AVE","CHICAGO","IL","60643"
18292,"10904 27TH ST SE","LAKE STEVENS","WA","98258"
18293,"10904 AZOO STREET","JONES","OK","73049"
18294,"10904 BRIDLESPUR DRIVE","LOVELAND","OH","45140"
18295,"10904 LAMPLIGHTER LANE","POTOMAC","MD","20854"
18296,"10904 N 50TH ST","TAMPA","FL","33617"
18297,"10904 WHITEPINE DRIVE","NORTH PRINCE GEORGE","VA","23860"
18298,"10905 COMPTON AVE","LOS ANGELES","CA","90059"
18299,"10905 LYDIA ESTATES DRIVE","JACKSONVILLE","FL","32218"
18300,"10905 SW 84TH CT","MIAMI","FL","33156"
18301,"10906 AMHERST GLEN DRIVE","CHARLOTTE","NC","28213"
18302,"10906 BITTERNUT HICKORY LANE","BOYNTON BEACH","FL","33437"
18303,"10906 FEATHERBROOK RD 1B","CHARLOTTE","NC","28262"
18304,"10906 FERNDALE ROAD","DALLAS","TX","75238"
18305,"10906 S PERDUE RD","GRAIN VALLEY","MO","64029"
18306,"10906 SUN RIDGE ROAD","GOSHEN","KY","40026"
18307,"10907 BEACH MILL ROAD","GREAT FALLS","VA","22066"
18308,"10907 FOUR BEARS DRIVE","BAKERSFIELD","CA","93312"
18309,"10907 JORDAN RAE LANE","CHARLOTTE","NC","28277"
18310,"10907 TOBAGO ROAD","SAN DIEGO","CA","92126"
18311,"10907 TRAFTON DR","UPPER MARLBORO","MD","20774"
18312,"10907 WATERVIEW CIRCLE","MONTGOMERTY","TX","77356"
18313,"10908 BACK RIDGE ROAD","CHARLOTTE","NC","28277"
18314,"10908 CHASTAIN PARC DRIVE","CHAROTTE","NC","28216"
18315,"10908 COURTHOUSE RD SUITE 201 401","FREDERICKSBURG","VA","22407"
18316,"10908 DAUPHINE ST","WILLIS","TX","77318"
18317,"10908 E 75 PL","TULSA","OK","74137"
18318,"10908 JOYCETON DRIVE","UPPER MARLBORO","MD","20774"
18319,"10908 LAKESIDE DR","ORLAND PARK","IL","60467"
18320,"10908 OASIS CT UNIT 112","SHAWNEE MISSION","KS","66203"
18321,"10908 PRINCETON COMMONS DRIVE","CHARLOTTE","NC","28277"
18322,"10909 E RAMONA AVE","MESA","AZ","85212"
18323,"10909 NW 4TH AVE","VANCOUVER","WA","98685"
18324,"10909 VANGUARD PKWY","HUNTERSVILLE","NC","28078"
18325,"1091 AVIATION BLVD","HERMOSA BEACH","CA","90254"
18326,"1091 BASALT RIDGE LOOP","CASTLE ROCK","CO","80108"
18327,"1091 BROOKS INDUSTRIAL ROAD","SHELBYVILLE","KY","40065"
18328,"1091 CALCOT PLACE UNIT 405","OAKLAND","CA","94606"
18329,"1091 ELAINE RD","COLUMBUS","OH","43227"
18330,"1091 GATES AVENUE","BROOKLYN","NY","11221"
18331,"1091 HILTON PARMA CORNERS RD","HILTON","NY","14468"
18332,"1091 ISAAC FRANKLIN DRIVE","GALLATIN","TN","37066"
18333,"1091 MASSACHUSETTS AVENUE","LUNENBURG","MA","01462"
18334,"1091 MERCURY DRIVE","LAFAYETTE","CO","80026"
18335,"1091 OLD HASSAYAMPA LN","PRESCOTT","AZ","86303"
18336,"1091 S 1ST STREET","HAMILTON","MT","59840"
18337,"1091 S 9TH AVE","DURANT","OK","74701"
18338,"1091 SHEDRON WAY","LOMBARD","IL","60148"
18339,"1091 SNEAD DRIVE","TROY","MI","48085"
18340,"1091 STRIEBEL ROAD","COLUMBUS","OH","43227"
18341,"1091 W RIDGE ST/ P O BOX 106","HARPERS FERRY","WV","25425"
18342,"1091 WEST BURDELL ROAD","ROSCOMMON","MI","48653"
18343,"1091 WEST WASHINGTON AVE","SUNNYVALE","CA","94086"
18344,"10910 CHANDLER RD","POTOMAC","MD","20854"
18345,"10910 DRY STACK RD","NEW BRAUNFELS","TX","78132"
18346,"10910 LONG BEACH BLVD SUITE 103/479","LYNWOOD","CA","90262"
18347,"10910 N 1000TH ST","NEWTON","IL","62448"
18348,"10910 N LUPINE LANE","FLAGSTAFF","AZ","86004"
18349,"10910 S BROADWAY","LOS ANGELES","CA","90061"
18350,"10910 S GESSNER RD  711048","HOUSTON","TX","77271"
18351,"10910 SE 238TH ST APT 2G202","KENT","WA","98031"
18352,"10910 SW  MOAPA AVENUE","PORTLAND","OR","97219"
18353,"10910 WARDROP PL","RICHMOND","TX","77407"
18354,"10911 BROOKSHIRE AVENUE","DOWNEY","CA","90241"
18355,"10911 N RIDGE DR","SEMMES","AL","36575"
18356,"10911 NE 104TH ST","VANCOUVER","WA","98662"
18357,"10911 NORTHGATE TRAIL DRIVE","CHARLOTTE","NC","28215"
18358,"10911 RAVEN RIDGE RD STE 103-82","RALEIGH","NC","27614"
18359,"10911 TAVERNAY PARKWAY","CHARLOTTE","NC","28262"
18360,"10911 VERANDA LN","MONROVIA","MD","21770"
18361,"10912 FOREST TRACE LANE","GLEN ALLEN","VA","23059"
18362,"10913 E STANTON AVE","MESA","AZ","85212"
18363,"10913 SUNRISE RIDGE CIR","AUBURN","CA","95603"
18364,"10913 SW 244 TERR","HOMESTEAD","FL","33032"
18365,"10914 1/2 SOUTH VERMONT AVENUE","LOS ANGELES","CA","90044"
18366,"10914 BRIDLEPARK CIRCLE","HOUSTON","TX","77016"
18367,"10914 CLAY LICK ROAD","MERCERSBURG","PA","17236"
18368,"10914 GEORGIA AVE APT 419","SILVER SPRING","MD","20902"
18369,"10914 GLENGATE CIRCLE","HIGHLANDS RANCH","CO","80130"
18370,"10914 LAKE PATH DR","SAN ANTONIO","TX","78217"
18371,"10914 LAKE WINDERMERE DR","GREAT FALLS","VA","22066"
18372,"10914 LARK BROOK LANE","HOUSTON","TX","77065"
18373,"10914 LEMAY STREET","NORTH HOLLYWOOD","CA","91606"
18374,"10914 RIVER TERRACE CIRCLE","AUSTIN","TX","78733"
18375,"10914 S FAIRFIELD","CHICAGO","IL","60655"
18376,"10915 CRAWFORD CIRCLE","MONTGOMERY","TX","77316"
18377,"10915 HARDIN VALLEY ROAD","KOXVILLE","TN","37933"
18378,"10915 HUNTERS WAY","SAN ANTONIO","TX","78023"
18379,"10915 LOCKGATE LANE","HOUSTON","TX","77048"
18380,"10915 OLM DR","FAIRFAX STATION","VA","22039"
18381,"10915 ROBINSON ROCK CT","CHARLOTTE","NC","28277"
18382,"10915 S LONGWOOD DR","CHICAGO","IL","60643"
18383,"10915 S PEORIA STREET","CHICAGO","IL","60643"
18384,"10915 SE 255TH PL M201","KENT","WA","98030"
18385,"10915 SEVEN CREEKS HWY","NAKINA","NC","28455"
18386,"10916 133 ST","QUEENS","NY","11420"
18387,"10916 PHILADELPHIA RD","WHITE MARSH","MD","21162"
18388,"10916 WHISPERING VALLEY LANE","MIDDLEVILLE","MI","49333"
18389,"10917 165TH PL NE","REDMOND","WA","98052"
18390,"10917 SANDSTONE ROAD","KNOXVILLE","TN","37931"
18391,"10917 SPYGLASS HILL DR","BOWIE","MD","20721"
18392,"10917 Y STREET","OMAHA","NE","68137"
18393,"10918 BRITTANY DRIVE NORTH","CHAMPLIN","MN","55316"
18394,"10918 GREEN ROW ROAD NW","FROSTBURG","MD","21532"
18395,"10918 N CRESTPOINT","DUNLAP","IL","61525"
18396,"10918 PANORAMA DRIVE","OZAWIE","KS","66070"
18397,"10918 RHODENDA AVE","UPPER MARLBORO","MD","20772"
18398,"10918 SUMMERTON DR","RIVERVIEW","FL","33579"
18399,"10919 CREEKSIDE MEADOWS DRIVE","INDIANAPOLIS","IN","46229"
18400,"10919 FEATHERBROOK RD APT 1C","CHARLOTTE","NC","28262"
18401,"10919 LAKEWOOD BLVD STE 203","DOWNEY","CA","90241"
18402,"10919 NE 164TH PL","BOTHELL","WA","98011"
18403,"1092 43 ST","EMERYVILLE","CA","94608"
18404,"1092 ABE LINCOLN WAY","JEFFERSON","GA","30549"
18405,"1092 ALOHA DR","ENCINITAS","CA","92024"
18406,"1092 ALOHA DRIVE","ENCINITAS","CA","92024"
18407,"1092 BEACH 12TH STREET","FAR ROCKAWAY","NY","11691"
18408,"1092 BEAU AVENUE","BRENTWOOD","CA","94513"
18409,"1092 BELMONT AVE","BROOKLYN","NY","11208"
18410,"1092 HIGHWAY 62 EAST","YELLVILLE","AR","72687"
18411,"1092 MELROSE PLACE","DOUGLASVILLE","GA","30134"
18412,"1092 N STATE ROAD 267","AVON","IN","46123"
18413,"1092 PATSY HILL RD","TYLERTOWN","MS","39667"
18414,"1092 PAYNE AVENUE","SAINT PAUL","MN","55130"
18415,"1092 RABUN DRIVE NW","LILBURN","GA","30047"
18416,"1092 RTE 989","FREEDOM","PA","15042"
18417,"1092 S 167TH LN","GOODYEAR","AZ","85338"
18418,"1092 SAINT GEORGES AVE - 152","RAHWAY","NJ","07065"
18419,"1092 SAINT GEORGES AVE SUITE 321","AVENEL","NJ","07001"
18420,"1092 W NEW HAMPSHIRE AVE","SOUTHERN PINES","NC","28387"
18421,"1092 W PRIMAVERA WAY","WEST JORDAN","UT","84084"
18422,"1092","VALLEY STREAM","NY","11582"
18423,"10920 38TH AVENUE NORTH","PLYMOUTH","MN","55441"
18424,"10920 AVANA WAY APT 304","TRINITY","FL","34655"
18425,"10920 BARN ROAD","LAKE WORTH","FL","33449"
18426,"10920 BECKMAN WAY","GREAT FALLS","VA","22066"
18427,"10920 JEFF HAMILTON ROAD","MOBILE","AL","36695"
18428,"10920 LA MIRADA BLVD","WHITTIER","CA","90604"
18429,"10920 NW 22 COURT","MIAMI","FL","33167"
18430,"10920 OAK BEND WAY","WELLINGTON","FL","33414"
18431,"10920 PINELLA WAY","RANCHO CORDOVA","CA","95670"
18432,"10920 QUEENS BLVD 5D","FOREST HILLS","NY","11375"
18433,"10921 BELLFLOWER AVE","CHERRY VALLEY","CA","92223"
18434,"10921 E MONUMENT ESTATES CIRCLE","TUCSON","AZ","85748"
18435,"10921 GEORGE ARCHER DR","EL PASO","TX","79936"
18436,"10921 LOMA ALTA LN","EL PASO","TX","79934"
18437,"10921 REED HARTMAN HIGHWAY 103","CINCINNATI","OH","45242"
18438,"10921 REED HARTMAN HWY STE 228","Blue Ash","OH","45242"
18439,"10921 REED HARTMAN HWY SUITE 228","CINCINNATI","OH","45242"
18440,"10921 ROARING BROOK LN","HOUSTON","TX","77024"
18441,"10921 ROWLAND AVE","KANSAS CITY","KS","66109"
18442,"10921 WARWICK LANE","ORLAND PARK","IL","60467"
18443,"10922 COURSEY BLVD STE B","BATON ROUGE","LA","70816"
18444,"10922 S HARDING AVENUE","CHICAGO","IL","60655"
18445,"10923 130TH ST CT E","PUYALLUP","WA","98374"
18446,"10923 HORDE STREET","SILVER SPRING","MD","20902"
18447,"10923 MEADOW LAKE LN","HOUSTON","TX","77042"
18448,"10923 PROGRESS COURT  1848","RANCHO CORDOVA","CA","95670"
18449,"10923 PROGRESS COURT 1848","RANCHO CORDOVA","CA","95670"
18450,"10923 RINCON STREET","LOMA LINDA","CA","92354"
18451,"10923 TARA VILLAGE WAY","JONESBORO","GA","30238"
18452,"10923 WEST AVE","SAN ANTONIO","TX","78213"
18453,"10924 BRAEMOOR DRIVE","HASLET","TX","76052"
18454,"10924 CATON CRES","CORNING","NY","14830"
18455,"10924 E 230TH ST","KENYON","MN","55946"
18456,"10924 GRANT RD  SUITE 214","HOUSTON","TX","77070"
18457,"10924 GRANT RD UNIT 435","HOUSTON","TX","77070"
18458,"10924 SOUTHWEST 156TH TERRACE","MIAMI","FL","33157"
18459,"10924 SW 156 TERRACE","MIAMI","FL","33157"
18460,"10924 SW 156TH TERRACE","MIAMI","FL","33157"
18461,"10924 TOPEKA DR","PORTER RANCH","CA","91326"
18462,"10925 228TH ST NE","ARLINGTON","WA","98223"
18463,"10925 BRIAR FOREST DR UNIT 2052","HOUSTON","TX","77042"
18464,"10925 BRIAR FOREST DT NO 2014","HOUSTON","TX","77042"
18465,"10925 COLERAIN RD","CINCINNATI","OH","45252"
18466,"10925 CORK PLACE","INDIANAPOLIS","IN","46236"
18467,"10925 CRABAPPLE RD","ROSWELL","GA","30075"
18468,"10925 HARPERS SQUARE COURT","RESTON","VA","22091"
18469,"10925 LYDIA RD","EL PASO","TX","79927"
18470,"10925 N LANE AVE","KANSAS CITY","MO","64157"
18471,"10925 S HIGHLANDS PARKWAY APT 1061","LAS VEGAS","NV","89102"
18472,"10925 S KEATING","OAK LAWN","IL","60453"
18473,"10925 SONJA DR","KNOXVILLE","TN","37934"
18474,"10925 WRENWOOD MANOR","HOUSTON","TX","77043"
18475,"10926 DEAN MARTIN DR","LAS VEGAS","NV","89141"
18476,"10926 QUALITY DR BOX 39065","CHARLOTTE","NC","28278"
18477,"10926 QUALITY DRIVE 38804","CHARLOTTE","NC","28278"
18478,"10926 QUALITY DRIVE UNIT 38951","CHARLOTTE","NC","28278"
18479,"10926 SILVERADO TRACE DR","HOUSTON","TX","77095"
18480,"10926 WEST CAVE BLVD","DRIPPING SPRINGS","TX","78620"
18481,"10927 CEDAR PINE DRIVE","INDIANAPOLIS","IN","46235"
18482,"10927 GRANTWOOD AVE","CLEVELAND","OH","44108"
18483,"10927 GRANTWOOD AVENUE","CLEVELAND","OH","44108"
18484,"10928 AUDELIA RD 227","DALLAS","TX","75243"
18485,"10928 DAPPLE GREY LANE","CHARLOTTE","NC","28213"
18486,"10928 PARK ST","LAKEVIEW","OH","43331"
18487,"10928 S WALLACE ST","CHICAGO","IL","60628"
18488,"10929 CRESCENT LAKE COURT","CLERMONT","FL","34711"
18489,"10929 FIRESTONE BLVD SUITE 130","NORWALK","CA","90650"
18490,"10929 FIRESTONE BLVD SUITE 161","NORWALK","CA","90650"
18491,"1093  COUNTY RD M PO BOX 412","ADAMS","WI","53910"
18492,"1093 55TH AVE SOUTH","ST PETERSBURG","FL","33705"
18493,"1093 A1A BEACH BLVD STE 175","ST AUGUSTINE","FL","32080"
18494,"1093 A1A BEACH BLVD UNIT 348","SAINT AUGUSTINE","FL","32080"
18495,"1093 BLEIM RD","POTTSTOWN","PA","19464"
18496,"1093 BRANDON LANE","DANBURY","NC","27016"
18497,"1093 BROADWAY AVE UNIT 905","SEASIDE","CA","93955"
18498,"1093 E GRAND AVE UNIT 102","POMONA","CA","91766"
18499,"1093 EAST WRIGHT WAY","SANDY","UT","84094"
18500,"1093 EISEHOWER PARKWAY","MACON","GA","31206"
