"ID","Address","City","State","Zip"
321501,"9901 EMMAUS","ST JOHN","VI","00830"
321502,"9901 FIRE TOWER FARM RD","WHITAKER","NC","27891"
321503,"9901 FOX SPRINGS DR","LAS VEGAS","NE","89117"
321504,"9901 GARDENIA DRIVE","PLAIN CITY","OH","43064"
321505,"9901 IH 10 WEST SUITE 800","SAN ANTONIO","TX","78230"
321506,"9901 MELROSE","OVERLAND PARK","KS","66214"
321507,"9901 PACIFIC HIGHWAY","BLAINE","WA","98230"
321508,"9901 S WESTERN AVE STE 100","CHICAGO","IL","60643"
321509,"9901 SOUTHALL ROAD","RANDALLSTOWN","MD","21133"
321510,"9901 SWEET BASIL DRIVE","WAKE FOREST","NC","27587"
321511,"9901 W PICTURE ROCKS ROAD","TUCSON","AZ","85743"
321512,"9901 WHITTIER","DETROIT","MI","48224"
321513,"9902 181ST AVE EAST","BONNEY LAKE","WA","98391"
321514,"9902 ANGORA DR","CHELTENHAM","MD","20623"
321515,"9902 GULF COAST MAIN STREET D140","FORT MYERS","FL","33913"
321516,"9902 NW 58TH COURT","PARKLAND","FL","33076"
321517,"9902 PALM DR","BAYTOWN","TX","77523"
321518,"9902 S THOMAS DR UNIT 334","PANAMA CITY BEACH","FL","32408"
321519,"9903 KENT TOWNE LN","SUGAR LAND","TX","77498"
321520,"9903 MARSEILLES DR","AUSTIN","TX","78750"
321521,"9903 NICOLLET LN","KATY","TX","77494"
321522,"9903 ROYAL PALM DRIVE","BRADENTON","FL","34210"
321523,"9903 SANTA MONICA BLVD 736","BEVERLY HILLS","CA","90212"
321524,"9903 SANTA MONICA BLVD STE 3300","BEVERLY HILLS","CA","90212"
321525,"9903 SANTA MONICA BLVD SUITE 532","BEVERLY HILLS","CA","90212"
321526,"9904 EDDLEMAN COURT","FORT WORTH","TX","76244"
321527,"9904 KNOX DRIVE","OVERLAND PARK","KS","66212"
321528,"9904 SHADOWRIDGE COURT","FREDERICKSBURG","VA","22407"
321529,"9905 58TH AVE APT5K","CORONA","NY","11368"
321530,"9905 ARDWICK GREEN WAY","DOUGLASVILLE","GA","30135"
321531,"9905 BEACH ST","LOS ANGELES","CA","90002"
321532,"9905 BENNINGTON CHASE DR","ORLANDO","FL","32829"
321533,"9905 DEVEREAUX DRIVE","MATTHEWS","NC","28105"
321534,"9905 FRANCIS LEWIS BLVD","QUEENS VILLAGE","NY","11429"
321535,"9905 GRAHAM ST","CYPRESS","CA","90630"
321536,"9905 MIXON DRIVE","DALLAS","TX","75220"
321537,"9905 OOLTEWAH GEORGETOWN RD","OOLTEWAH","TN","37363"
321538,"9905 PINEAPPLE TREE DR APT 209","BOYNTON BEACH","FL","33436"
321539,"9905 RUNNING CEDAR LANE","INDIAN TRAIL","NC","28079"
321540,"9905 SECRETARIAT DRIVE","GOSHEN","KY","40026"
321541,"9905 SHOSHONE WAY","RANDALLSTOWN","MD","21133"
321542,"9905 SW 59TH COURT","COOPER CITY","FL","33328"
321543,"9905 VENETIAN RIVER WAY","TAMPA","FL","33619"
321544,"99059 KAAMILO STREET","AIEA","HI","96701"
321545,"9906 BUSTLETON AVENUE APT A2","PHILADELPHIA","PA","19115"
321546,"9906 CARMALEE STREET","HOUSTON","TX","77075"
321547,"9906 COUNTRY OAKS DR","FORT MYERS","FL","33967"
321548,"9906 HENDERSON MOUNTAIN ROAD","FAIRMOUNT","GA","30139"
321549,"9906 MAGLEDT RD","BALTIMORE","MD","21234"
321550,"9906 MAGNOLIA POINTE COURT","GLEN ALLEN","VA","23059"
321551,"9906 N JOHN ALBERT","FRESNO","CA","93720"
321552,"9906 N RIDGECREST DR","SPOKANE","WA","99208"
321553,"9906 NE 130TH AVE","VANCOUVER","WA","98682"
321554,"9906 NW 76TH ST","TAMARAC","FL","33321"
321555,"9906 SPRINGWOOD ROAD","BUCHANAN","VA","24066"
321556,"9907 132ND STREET","LIVE OAK","FL","32060"
321557,"9907 8TH AVE 476","GOTHA","FL","34734"
321558,"9907 8TH STREET UNIT 141","GOTHA","FL","34734"
321559,"9907 LETA DRIVE","CHAPEL HILL","NC","27516"
321560,"9907 NORTH 118TH EAST AVENUE","OWASSO","OK","74055"
321561,"9907 SOUTH LAFAYETTE AVENUE","CHICAGO","IL","60628"
321562,"9907 SWEET BASIL DRIVE","WAKE FOREST","NC","27587"
321563,"9907 WINDBURN TRAIL","CONVERSE","TX","78109"
321564,"9907 WOODYARD CIRCLE","UPPER MARLBORO","MD","20772"
321565,"9908 BARNSBURY CT","FAIRFAX","VA","22031"
321566,"9908 NORBRIDGE LANE","ST LOUIS","MO","63137"
321567,"9908 OAKDALE WOODS CT","VIENNA","VA","22181"
321568,"9908 PAULINES WAY","AUSTIN","TX","78717"
321569,"9908 RIVER TRAIL DR","LOUISVILLE","KY","40229"
321570,"9908 SHOEMAKER DR","BAHAMA","NC","27503"
321571,"9908 STEPHENSON DR","NEW PORT RICHEY","FL","34655"
321572,"9908 TRINIDAD","EL PASO","TX","79925"
321573,"99084","NAPLES","FL","34116"
321574,"9909 198TH ST","HOLLIS","NY","11423"
321575,"9909 ANDOVER DRIVE","BELLEVILLE","MI","48111"
321576,"9909 ASHMEADE CT","FREDERICKSBURG","VA","22407"
321577,"9909 AVENEL FARM DRIVE","POTOMAC","MD","20854"
321578,"9909 CIRRUS DR","DRIPPING SPRINGS","TX","78620"
321579,"9909 E 46TH STREET","INDPLS","IN","46235"
321580,"9909 GRANDHAVEN AVE","UPPER MARLBORO","MD","20772"
321581,"9909 IRONHORSE DRIVE","DALLAS","TX","75227"
321582,"9909 IRVING AVENUE SOUTH","BLOOMINGTON","MN","55431"
321583,"9909 S MERIDIAN","PECK","KS","67120"
321584,"9909 SATTERFIELD DR","LITTLE ROCK","AR","72205"
321585,"991 9TH AVENUE NW","NEW BRIGHTON","MN","55112"
321586,"991 ARAPAHOE STREET UNIT 304","LOS ANGELES","CA","90006"
321587,"991 BANKFIELD CT","NAPERVILLE","IL","60540"
321588,"991 CAMINO CONSUELO","SANTA FE","NM","87507"
321589,"991 CHIMNEY RIDGE DR","SPRINGFIELD","NJ","07081"
321590,"991 CORTE LA CIENEGA","CAMARILLO","CA","93010"
321591,"991 E RIO GRANDE ST","PASADENA","CA","91104"
321592,"991 GARRETTSBURG RD","CLARKSVILLE","TN","37042"
321593,"991 INMAN AVE","EDISON","NJ","08820"
321594,"991 LOMAS SANTA FE DRIVE STE C300","SOLANA BEACH","CA","92075"
321595,"991 LORING AVENUE","CROCKETT","CA","94525"
321596,"991 MISSION STREET","SAN FRANCISCO","CA","94103"
321597,"991 OLD GRAYSTATION RD","GRAY","TN","37615"
321598,"991 OSOS STREET SUITE A","SAN LUIS OBISPO","CA","93401"
321599,"991 PEACH LAKE ROAD","NORTH SALEM","NY","10560"
321600,"991 PONUS RIDGE ROAD","NEW CANAAN","CT","06840"
321601,"991 PROVIDENCE HWY UNIT 1006","NORWOOD","MA","02062"
321602,"991 RIDGEMOUNT PLACE","HEATHROW","FL","32746"
321603,"991 RIVER ROAD","MORGANTOWN","WV","26501"
321604,"991 S HERMON RD STE 500","WASILLA","AK","99654"
321605,"991 S NEWTON ST","DENVER","CO","80219"
321606,"991 SE BELFAST AVE","PORT SAINT LUCIE","FL","34983"
321607,"991 SILVER MAPLE COURT","GREENWOOD","IN","46143"
321608,"991 SKYVIEW LAKE ROAD","HAYDEN","AL","35079"
321609,"991 US HIGHWAY 22    SUITE 200","BRIDGEWATER","NJ","08807"
321610,"991 VILLAGE CIRCLE","OAKLAND","CA","94607"
321611,"991","ALLEN","TX","75013"
321612,"9910 207TH STREET","QUEENS VILLAGE","NY","11429"
321613,"9910 216TH AVE NE","REDMOND","WA","98053"
321614,"9910 BAKER BOY DR","OOLTEWAH","TN","37363"
321615,"9910 COVENTRY COURT","MASON","OH","45040"
321616,"9910 IRVINE CENTER DR","IRVINE","CA","92618"
321617,"9910 MOUNT LANDING ROAD","TAPPAHANNOCK","VA","22560"
321618,"9910 NALL AVE","OVERLAND PARK","KS","66207"
321619,"9910 NE 33RD AVE","ANTHONY","FL","32617"
321620,"9910 PATRIOT RIDGE DR","JACKSONVILLE","FL","32221"
321621,"9910 PRESIDENT ST","PHILADELPHIA","PA","19115"
321622,"9910 SANDALFOOT BLVD SUITE 5","BOCA RATON","FL","33428"
321623,"9910 SINTRA WAY","ELK GROVE","CA","95757"
321624,"9910 SW 127 AVE","MIAMI","FL","33186"
321625,"9911 45TH ST SW","GLADSTONE","ND","58630"
321626,"9911 BOB OLSON LANE","SPOKANE","WA","99208"
321627,"9911 BUCKINGHAM PLACE","NORTH HUNTINGDON","PA","15642"
321628,"9911 CHIMNEY DR","WAXHAW","NC","28173"
321629,"9911 COWARD MILL RD","KNOXVILLE","TN","37931"
321630,"9911 CRESSWELL LANE NORTH","JACKSONVILLE","FL","32221"
321631,"9911 LUCAS RD","WOODSTOCK","IL","60098"
321632,"9911 ROSE COMMONS DRIVE E234","HUNTERSVILLE","NC","28078"
321633,"9911 TIMBERWOOD CIRCLE","LOUISVILLE","KY","40223"
321634,"9911 VIA REAL","DESERT HOT SPRINGS","CA","92240"
321635,"9912 ASHTON OLD RD","DOUGLASVILLE","GA","30135"
321636,"9912 BLACKBIRD CIRCLE","HIGHLANDS RANCH","CO","80130"
321637,"9912 BUSINESS PARK DR STE 170","SACRAMENTO","CA","95827"
321638,"9912 BUSINESS PARK DRIVE STE 170","SACRAMENTO","CA","95827"
321639,"9912 BUSINESS PARK DRIVE","SACRAMENTO","CA","95827"
321640,"9912 CARMEL MOUNTAIN RD SUITE E","SAN DIEGO","CA","92129"
321641,"9912 CROOKED LAKE RD","LAKE CITY","MI","49651"
321642,"9912 EDWARD AVE","BETHESDA","MD","20814"
321643,"9912 MASSER ROAD","FREDERICK","MD","21702"
321644,"9913 BISCAYNE LANE","LAS VEGAS","NV","89117"
321645,"9913 BURGANDY LN","WOODWAY","TX","76712"
321646,"9913 CERVINE LANE APT 001","RANDALLSTOWN","MD","21133"
321647,"9913 MILLA CIRCLE","AUSTIN","TX","78748"
321648,"9913 SAN REMO PL","WAKE FOREST","NC","27587"
321649,"9913 SEAHAWK RD","BERLIN","MD","21811"
321650,"9913 SEAHAWK ROAD","BERLIN","MD","21811"
321651,"9913 SILVER ROCK WAY","DENTON","TX","76207"
321652,"9913 STATE ROUTE Y","BIRCH TREE","MO","65438"
321653,"9913 US HIGHWAY 271 SOUTH","GLADEWATER","TX","75647"
321654,"9913 WOODBAY DRIVE","TAMPA","FL","33626"
321655,"9914 LEDA CV","CORDOVA","TN","38016"
321656,"9914 OK-48","MANNFORD","OK","74044"
321657,"9914 VERA JEAN CT","HOUSTON","TX","77088"
321658,"9914 W MILITARY DR APT 418","SAN ANTONIO","TX","78251"
321659,"9915 HAGEL CIRCLE","LORTON","VA","22079"
321660,"9915 MAGNOLIA AVE","SANTEE","CA","92071"
321661,"9915 RIVERVIEW DR","RIVERVIEW","FL","33578"
321662,"9915 ROGART RD","SILVER SPRING","MD","20901"
321663,"9915 VISTA HOLLY RD","ORLANDO","FL","32836"
321664,"9916 59TH ST E","PARRISH","FL","34219"
321665,"9916 59TH STREET EAST","PARRISH","FL","34219"
321666,"9916 CREEKVIEW ESTATES DRIVE","LOUISVILLE","KY","40291"
321667,"9916 NE 126TH STREET G-3","KIRKLAND","WA","98034"
321668,"9916 NE 134TH STREET","VANCOUVER","WA","98662"
321669,"9916 SAND CHERRY WAY","HIGHLANDS RANCH","CO","80129"
321670,"9916 WINCHESTER WAY","LAKESIDE","CA","92040"
321671,"99164","LOUISVILLE","KY","40269"
321672,"9917 HIDDEN LAKE RD","VANCLEAVE","MS","39565"
321673,"9917 KENDA DR","RIVERVIEW","FL","33578"
321674,"9917 LAS TUNAS DR","TEMPLE CITY","CA","91780"
321675,"9917 LICHFIELD DR","LITTLE ROCK","AR","72204"
321676,"9917 SHADY LANE","BROOKLYN","OH","44114"
321677,"9917 ZIRCON DR SW","LAKEWOOD","WA","98498"
321678,"9918 HARBOUR PINES COURT","INDIANAPOLIS","IN","46256"
321679,"9918 KINGSBRIDGE DR","FAIRFAX","VA","22031"
321680,"9918 RIVER WILLIAMS CIRCLE","TALLAHASSEE","FL","32305"
321681,"9918 SCENIC HILLS DRIVE","SAN ANTONIO","TX","78255"
321682,"9918 WEST RIVER ROAD","COLUMBIA STATION","OH","44028"
321683,"9919 HOWARD","LEES SUMMIT","MO","64086"
321684,"9919 MARQUAND DRIVE","BURKE","VA","22015"
321685,"9919 NE 191ST CIRCLE","BATTLE GROUND","WA","98604"
321686,"992 ARGYLE AVE","FRIDAY HARBOR","WA","98250"
321687,"992 BRIAR GLEN LN","WOODBURY","MN","55129"
321688,"992 E 49 ST","HIALEAH","FL","33013"
321689,"992 E SAHARA AVE","LAS VEGAS","NV","89104"
321690,"992 HIGHWAY 42","PETAL","MS","39465"
321691,"992 MILL RUN RD","SNEADS FERRY","NC","28460"
321692,"992 OAKWOOD ROAD","NEWPORT","MN","55055"
321693,"992 OLD MOUNT OLIVE HWY","DUDLEY","NC","28333"
321694,"992 QUILLIAMS RD","CLEVELAND HEIGHTS","OH","44121"
321695,"992 REDHAVEN STREET","BRENTWOOD","CA","94513"
321696,"992 ROLLING HILLS RD","ROSEBURG","OR","97471"
321697,"992 SHIPWATCH DR E","JACKSONVILLE","FL","32225"
321698,"992 SUNNY GLENN COURT","LAWRENCEVILLE","GA","30043"
321699,"992 WALLACE HILL RIDGE SE","LAWRENCEVILLE","GA","30045"
321700,"9920 BLACKBIRD CIRCLE","HIGHLANDS RANCH","CO","80130"
321701,"9920 CARMEL MOUNTAIN ROAD","SAN DIEGO","CA","92129"
321702,"9920 DICKERSON MILL ROAD","MONETA","VA","24121"
321703,"9920 GLEN OWEN DR","SAINT LOUIS","MO","63136"
321704,"9920 HIDDEN MEADOWS PLACE","FORT WAYNE","IN","46825"
321705,"9920 HWY 90 A   STE  290 B","SUGAR LAND","TX","77478"
321706,"9920 LANGE RD","BIRCH RUN","MI","48415"
321707,"9920 LYDIA AVE","KANSAS CITY","MO","64131"
321708,"9920 MAIN ST 542","BOTHELL","WA","98011"
321709,"9920 NEW LONDON DRIVE","POTOMAC","MD","20854"
321710,"9920 NW 10 STREET","PEMBROKE PINES","FL","33024"
321711,"9920 NW BOWERS ROAD","HARTSHORNE","OK","74547"
321712,"9920 S RURAL ROAD  SUITE 108","TEMPE","AZ","85284"
321713,"9920 S RURAL ROAD SUITE 108-7","TEMPE","AZ","85284"
321714,"9920 S RURAL ROAD SUITE 108","TEMPE","AZ","85284"
321715,"9920 W CAMELBACK RD UNIT 1070","PHOENIX","AZ","85037"
321716,"9921 CARMEL MOUNTAIN RD STE 309","SAN DIEGO","CA","92129"
321717,"9921 CARMEL MOUNTAIN ROAD","SAN DIEGO","CA","92129"
321718,"9921 HOLLY CENTER DR APT 426","HUNTERSVILLE","NC","28078"
321719,"9921 NW 51ST LN","DORAL","FL","33178"
321720,"9921 SOUTHWEST HWY","OAK LAWN","IL","60453"
321721,"9922 CHANEL DR","DENHAM SPGS","LA","70706"
321722,"9922 GRANDVIEW FOREST COURT","SAINT LOUIS","MO","63127"
321723,"9922 GREENTREE LN","SHREVEPORT","LA","71118"
321724,"9922 LAFAYETTE AVE","OMAHA","NE","68114"
321725,"9922 MENAUL BLVD NE APT F26","ALBUQUERQUE","NM","87112"
321726,"9922 TUDOR STREET","SAN DIEGO","CA","92131"
321727,"9922 W MONTGOMERY RD STE 105","HOUSTON","TX","77088"
321728,"9922-A US HWY 311","ARCHDALE","NC","27263"
321729,"9923 E FLORIAN AVE","MESA","AZ","85208"
321730,"9923 PHELAN ROAD","PHELAN","CA","92371"
321731,"9923 RIDGELAND AVE UNITE 292","CHICAGO RIDGE","IL","60415"
321732,"9923 RIDGELAND AVE","CHICAGO RIDGE","IL","60415"
321733,"9923 SIMS HARRIS ROAD","OOLTEWAH","TN","37363"
321734,"9924 ALYDAR COURT","CINCINNATI","OH","45242"
321735,"9924 AVENUE K","BROOKLYN","NY","11236"
321736,"9924 AZALEA BLOOM WAY 318","RIVERVIEW","FL","33578"
321737,"9924 NW 65TH MANOR","PARKLAND","FL","33076"
321738,"9924 XEBEC ST NE","CIRCLE PINES","MN","55014"
321739,"9925 CANVASBACK WAY","DAMASCUS","MD","20872"
321740,"9925 NW 25 AVENUE","MIAMI","FL","33147"
321741,"9925 PIERCE DR","MCKINNEY","TX","75070"
321742,"9925 SAWGRASS LN","PIQUA","OH","45356"
321743,"9925 STEPHEN DECATUR HWY UNIT E2","OCEAN CITY","MD","21842"
321744,"9925 ULMERTON RD SUITE 227","LARGO","FL","33771"
321745,"9925 WHITETHORN DRIVE","CHARLOTTE","NC","28277"
321746,"9926 APPLETON","REDFORD","MI","48239"
321747,"9926 EAST TUNGSTEN DRIVE","MESA","AZ","85212"
321748,"9926 HALDEMAN AVENUE 131A","PHILADELPHIA","PA","19115"
321749,"9926 PITMAN AVE","UPPER MARLBORO","MD","20772"
321750,"9926 S GREEN ST","CHICAGO","IL","60643"
321751,"9926 VILLA FLORENCE LN","GRANITE BAY","CA","95746"
321752,"9927 BOISE RD","LAUREL","MD","20708"
321753,"9927 BRANTON AVENUE","HIGHLAND","IN","46322"
321754,"9927 BROADMOOR ROAD","OMAHA","NE","68114"
321755,"9927 CERRO LARGO","ALBUQUERQUE","NM","87114"
321756,"9927 GERALD AVE","NORTH HILLS","CA","91343"
321757,"9927 GRAPE STREET","LOS ANGELES","CA","90002"
321758,"9927 JEANETTE CIRCLE","CHARLOTTE","NC","28213"
321759,"9927 SHADOW CREEK DRIVE","ORLANDO","FL","32832"
321760,"9927 STEPHEN DECATUR HWY SUITE 13","OCEAN CITY","MD","21842"
321761,"9928 ELERAL DR","PENSACOLA","FL","32526"
321762,"9928 FOX MEADOW RD","SAN DIEGO","CA","92127"
321763,"9928 LYONS MILLS ROAD","OWINGS MILLS","MD","21117"
321764,"9928 S GARNETT","BROKEN ARROW","OK","74012"
321765,"9928 SHAHAN COURT","INDIANAPOLIS","IN","46256"
321766,"9928 SHREWBURY CT","MONTGOMERY VILLAGE","MD","20886"
321767,"9928 SOUTH TRYON ST","CHARLOTTE","NC","28273"
321768,"9929 HULL STREET ROAD","N. CHESTERFIELD","VA","23236"
321769,"9929 N CINDY AVE","HAYWARD","WI","54843"
321770,"9929 VIA DE ORO","SPRING VALLEY","CA","91977"
321771,"993 ASTOR AVE","FOREST PARK","GA","30297"
321772,"993 CALLE COYOTE","RIO RICO","AZ","85648"
321773,"993 CONTRA COSTA DR","EL CERRITO","CA","94530"
321774,"993 CREAMERY HILL ROAD","MONTROSE","PA","18801"
321775,"993 DAYTON AVE","SAINT PAUL","MN","55104"
321776,"993 E MOOREHEAD CIRCLE","BOULDER","CO","80305"
321777,"993 FOREST AVENUE","FOREST PARK","GA","30297"
321778,"993 LENOX DRIVE BUILDING 2","LAWRENCEVILLE","NJ","08648"
321779,"993 LENOX DRIVE","LAWRENCEVILLE","NJ","08648"
321780,"993 NW LAKE JEFFREY ROAD","LAKE CITY","FL","32055"
321781,"993 OVERLOOK DR","WILLARD","OH","44890"
321782,"993 PARKWAY PLACE","PEEKSKILL","NY","10566"
321783,"993 RIBBONTAIL STREET","CORPUS CHRISTI","TX","78418"
321784,"993 RIDGEVIEW","FLORENCE","KY","41042"
321785,"993 S POST OAK LN","HOUSTON","TX","77056"
321786,"993 SANIBEL DR","HOLLYWOOD","FL","33019"
321787,"993 SPRINGBROOK DR","CINCINNATI","OH","45224"
321788,"993 TROY ST","AURORA","CO","80011"
321789,"993 WEST CALIENTE DR","PUEBLO","CO","81007"
321790,"9930 BURLINGAME AVENUE S W","BYRON CENTER","MI","49315"
321791,"9930 CAPITOL DR","WHEELING","IL","60090"
321792,"9930 CLEAR DIAMOND DR","ROSHARON","TX","77583"
321793,"99300 72ND AVENUE","NORTH SHORE","CA","92254"
321794,"9931 COMMERCE AVE","TUJUNGA","CA","91042"
321795,"9931 CORPORATE CAMPUS DR STE 1000","LOUISVILLE","KY","40223"
321796,"9931 DURANT DRIVE","BEVERLY HILLS","CA","90212"
321797,"9931 E GRAND RIVER AVE","BRIGHTON","MI","48116"
321798,"9931 JOHNSON DRIVE","MERRIAM","KS","66203"
321799,"9931 POWELL LANE","DENHAM SPRINGS","LA","70726"
321800,"9931 WING ST","CONROE","TX","77385"
321801,"9932 CHETWOOD DRIVE","HUNTLEY","IL","60142"
321802,"9932 E 5TH ST","TUCSON","AZ","85748"
321803,"9932 N CANYON CREEK LN","FRESNO","CA","93730"
321804,"9932 STONE OAK WAY","ELK GROVE","CA","95264"
321805,"9932 WOODLAND FERN DRIVE","LAKELAND","TN","38002"
321806,"9933 BUSINESS PARK DRIVE","SACRAMENTO","CA","95827"
321807,"9933 DIAMOND DRIVE","SAINT LOUIS","MO","63137"
321808,"9933 PARKFORD DR","DALLAS","TX","75238"
321809,"9933 S PEORIA ST","CHICAGO","IL","60643"
321810,"9933 WEST COUNTRY ROAD 975 NORTH","MIDDLETOWN","IN","47356"
321811,"9934 67TH RD","FOREST HILLS","NY","11375"
321812,"9934 LARON CT","STOCKTON","CA","95212"
321813,"9935 BRIAR ROAD 201","BLOOMINGTON","MN","55437"
321814,"9935 READ ROAD  SUITE D232","CHARLOTTE","NC","28277"
321815,"99353 OVERSEAS HWY SUITE 9","KEY LARGO","FL","33037"
321816,"9936 CIELITO OESTE WAY NE","ALBUQUERQUE","NM","87122"
321817,"9936 E CARMEL COURT","BATON ROUGE","LA","70818"
321818,"9936 NW 29TH TERRACE","DORAL","FL","33172"
321819,"9936 S TALMAN AVE","CHICAGO","IL","60655"
321820,"9936 SHAHAN CT","INDIANAPOLIS","IN","46256"
321821,"9936 SOUTH BLOSSOM DR","SANDY","UT","84092"
321822,"9936 W DAFFODIL LANE","MIRAMAR","FL","33025"
321823,"9937 BOCA CIRCLE","NAPLES","FL","34109"
321824,"9937 MAJORICA PL","BOCA RATON","FL","33434"
321825,"9938 W BLUE SKY DRIVE","PEORIA","AZ","85383"
321826,"9939 213 ST","QUEENS VILLAGE","NY","11429"
321827,"9939 E MONTE CRISTO AVE","SCOTTSDALE","AZ","85260"
321828,"9939 HIBERT ST STE 105","SAN DIEGO","CA","92131"
321829,"9939","WEST POINT","MS","39773"
321830,"994 25TH STREET","DES MOINES","IA","50312"
321831,"994 ARTHUR KILL RD","STATEN ISLAND","NY","10312"
321832,"994 BLUEBIRD LN","BAILEY","CO","80421"
321833,"994 CALLE HUMACAO APT 1A","SAN JUAN","PR","00925"
321834,"994 CAMELOT DR","CRYSTAL LAKE","IL","60014"
321835,"994 MAIN ST","STONE MOUNTAIN","GA","30083"
321836,"994 MILES CT","ARNOLD","MD","21012"
321837,"994 OLD CUTLER ROAD","LAKE WALES","FL","33898"
321838,"994 PARKWOOD DR","CLEVELAND","OH","44108"
321839,"994 POOL RD","HIRAM","GA","30141"
321840,"994 WATERWAY DRIVE","BAREFOOT BAY","FL","32976"
321841,"9940 37TH AVE N","PLYMOUTH","MN","55441"
321842,"9940 EAST COSTILLA AVENUE SUITE O","CENTENNIAL","CO","80112"
321843,"9940 LOS LAGOS CR N","GRANITE BAY","CA","95746"
321844,"9940 SPRING BEAUTY","SAN ANTONIO","TX","78254"
321845,"9940 T PLAZA 1B","OMAHA","NE","68127"
321846,"9940 WATERFORD TRAIL","CHAGRIN FALLS","OH","44023"
321847,"9940 WEST 86TH PLACE","ARVADA","CO","80005"
321848,"9941 46TH AVE S","SEATTLE","WA","98118"
321849,"9941 ACADEMY RD NW","ALBUQUERQUE","NM","87114"
321850,"9941 BEAVERLAND STREET","DETROIT","MI","48238"
321851,"9941 JAY ROAD","PENSACOLA","FL","32526"
321852,"9941 NE SKIDMORE STREET","PORTLAND","OR","97220"
321853,"9941 SW 66 STREET","MIAMI","FL","33173"
321854,"9941 WHITEHURST DRIVE APT 1080","DALLAS","TX","75243"
321855,"9942 S WESTERN AVE","CHICAGO","IL","60643"
321856,"9942 SOUTH WESTERN AVE","CHICAGO","IL","60643"
321857,"9943 BURGUNDY OAKS DRIVE","SHREVEPORT","LA","71118"
321858,"9943 FALCON BLUFF STREET","SAN DIEGO","CA","92127"
321859,"9943 SOUTH PRINCETON AVE","CHICAGO","IL","60628"
321860,"9943 WINECREST RD","SAN DIEGO","CA","92127"
321861,"9944 S  ROBERTS RD STE 201","PALOS HILLS","IL","60465"
321862,"9944 WEST LOUISE DRIVE","PEORIA","AZ","85383"
321863,"9945 41ST PL NE","ST MICHAEL","MN","55376"
321864,"9945 CAVELL AVE S","BLOOMINGTON","MN","55438"
321865,"9945 JONES BRIDGE ROAD SUITE 201","JOHNS CREEK","GA","30022"
321866,"9945 OLD FT CAROLINE RD","JACKSONVILLE","FL","32225"
321867,"9945 PLACER STREET SUITE B","WEST COVINA","CA","91730"
321868,"9945 RED FOX DR","NAMPA","ID","83686"
321869,"9945 WOODSIDE","DETROIT","MI","48204"
321870,"9946 COUNTY ROUTE 76","HAMMONDSPORT","NY","14840"
321871,"9946 EAST CORONADO DRIVE","BATON ROUGE","LA","70815"
321872,"9946 MONTEREY ROAD","INDIANAPOLIS","IN","46235"
321873,"9947 BLAKEFORD MILL ROAD","JACKSONVILLE","FL","32256"
321874,"9947 ORCHARD MEADOW RD","MECHANICSVILLE","VA","23116"
321875,"9948 BEAVER CREEK DRIVE","SHREVEPORT","LA","71106"
321876,"9948 OSPREY DR","FORT WORTH","TX","76108"
321877,"9948 PARKER LAKE CIRCLE","NAVARRE","FL","32566"
321878,"9948 S SAINT LOUIS AVE","EVERGREEN PARK","IL","60805"
321879,"9948 WILKENS RUN RD NE","NEWARK","OH","43055"
321880,"9949 ERMA RD UNIT 103","SAN DIEGO","CA","92131"
321881,"9949 HWY 72","BENTONVILLE","AR","72712"
321882,"9949 WOODSMALL DR APT 4","INDIANAPOLIS","IN","46229"
321883,"995 ANSEL RD","CLEVELAND","OH","44103"
321884,"995 B K PICKERING DRIVE","TEXARKANA","TX","75501"
321885,"995 BAJADA CT","FREMONT","CA","94539"
321886,"995 BRISTOL DRIVE","AKRON","OH","44312"
321887,"995 CANDELORA DRIVE","POTTSTOWN","PA","19464"
321888,"995 CLAYTON STREET","SAN FRANCISCO","CA","94117"
321889,"995 COUNTY ROAD 350","SWEETWATER","TN","37874"
321890,"995 E CEDAR ST","ONTARIO","CA","91761"
321891,"995 ELROY MERCER ROAD","CHADBOURN","NC","28431"
321892,"995 FILLMORE AVE","BUFFALO","NY","14211"
321893,"995 FIR STREET","CHICO","CA","95928"
321894,"995 FLANDERS ROAD","SOUTHINGTON","CT","06489"
321895,"995 FOUNTAIN ST","ANN ARBOR","MI","48108"
321896,"995 FURLONG ROAD","SEBASTOPOL","CA","95472"
321897,"995 HIGH STREET","ALAMEDA","CA","94501"
321898,"995 HOJAS CT","RIO RICO","AZ","85648"
321899,"995 HOPMEADOW STREET - EDGE HOUSE","SIMSBURY","CT","06070"
321900,"995 JESSICA LAUREN DRIVE","CORDOVA","TN","38018"
321901,"995 N PONTIAC TRL PO BOX 861","WALLED LAKE","MI","48390"
321902,"995 NW 119 STREET UNIT 0027","MIAMI","FL","33168"
321903,"995 OKLAHOMA ST","OVIEDO","FL","32765"
321904,"995 PATRICK CIR","FOLSOM","CA","95630"
321905,"995 RADBOURNE DR","COLUMBUS","OH","43207"
321906,"995 S ARTHUR","POCATELLO","ID","83204"
321907,"995 SAMAR CT SUITE 8","CORONA","CA","92878"
321908,"995 SHELDON AVE","STATEN ISLAND","NY","10309"
321909,"995 UNIVERSITY AVE W 202","SAINT PAUL","MN","55104"
321910,"995 WAYSIDE ROAD","FAYETTEVILLE","NC","28314"
321911,"995 WEST HIGH STREET","STOWE","PA","19464"
321912,"995 WOODLAKE DRIVE","HOMERVILLE","GA","31634"
321913,"9950 BUNKUM ROAD","FAIRVIEW HEIGHTS","IL","62208"
321914,"9950 CHURCHILL DRIVE","BELLEVILLE","MI","48111"
321915,"9950 CULPEPPER DR","CARMEL","IN","46032"
321916,"9950 DURANT DRIVE UNIT 309","BEVERLY HILLS","CA","90212"
321917,"9950 EAST VERONA CIRCLE","VERO BEACH","FL","32966"
321918,"9950 HODGEN ROAD","COLORADO SPRINGS","CO","80808"
321919,"9950 PINE ISLAND","SPARTA","MI","49345"
321920,"9950 S EASTERN AVE STE 253","LAS VEGAS","NV","89123"
321921,"9950 S OAKLEY AVE","CHICAGO","IL","60643"
321922,"9950 TOPANGA CANYON BLVD UNIT 28","CHATSWORTH","CA","91311"
321923,"9950 W 700 S","FRANCESVILLE","IN","47946"
321924,"9951 ACADEMY ROAD APT D16","PHILADELPHIA","PA","19114"
321925,"9951 ATLANTIC BLVD STE 423","JACKSONVILLE","FL","32225"
321926,"9951 ATLANTIC BLVD STE 434","JACKSONVILLE","FL","32225"
321927,"9951 ATLANTIC BLVD SUITE 434","JACKSONVILLE","FL","32225"
321928,"9951 BALFOUR ROAD","DETROIT","MI","48224"
321929,"9951 E ISLAND SUN ROAD","TUCSON","AZ","85748"
321930,"9951 RIVERWALK DR","SANTEE","CA","92071"
321931,"9952 BOND CIRCLE","HUNTINGTON BEACH","CA","92646"
321932,"9952 EVERGREEN TERRACE DR","CHARLOTTE","NC","28277"
321933,"9952 JUSTMAN ST SE","YELM","WA","98597"
321934,"9953 MISSION CREEK INN STREET","LAS VEGAS","NV","89178"
321935,"9953 NE SOUTH BEACH DRIVE","BAINBRIDGE ISLAND","WA","98110"
321936,"9954 ATLANTIC BLVD SUITE 214","JACKSONVILLE","FL","32225"
321937,"9954 HERITAGE DRIVE","FLAGSTAFF","AZ","86004"
321938,"9954 MACABEE LANE","ELK GROVE","CA","95757"
321939,"9954 N 1650TH AVE","PALESTINE","IL","62454"
321940,"9954 SHERWOOD FARM ROAD","OWINGS MILLS","MD","21117"
321941,"9955 65TH RD","REGO PARK","NY","11374"
321942,"9955 BAMMEL NORTH HOUSTON RD 111","HOUSTON","TX","77086"
321943,"9955 E CINNABAR AVE","SCOTTSDALE","AZ","85258"
321944,"9955 EAST SHADOWLAKE COURT","CLAREMORE","OK","74017"
321945,"9955 KEMPWOOD DR APT 708","HOUSTON","TX","77080"
321946,"9955 MIXON","DALLAS","TX","75220"
321947,"9956 DEVONSHIRE DRIVE","OMAHA","NE","68114"
321948,"9956 EAST FOREST AVE","DETROIT","MI","48214"
321949,"9957 BOMARC ST","EL PASO","TX","79924"
321950,"9957 DARROW PARK DRIVE 104B","TWINSBURG","OH","44087"
321951,"9957 ELLISON RIDGE ROAD","JUMPING BRANCH","WV","25969"
321952,"9957 SLOANE SQUARE APT A","ST LOUIS","MO","63134"
321953,"9957 W TARON DRIVE","ELK GROVE","CA","95757"
321954,"9958 SW ARCTIC DR","BEAVERTON","OR","97005"
321955,"9958 W LILLYWOOD DRIVE","BOISE","ID","83709"
321956,"9959 E PEAKVIEW AVE APT J204","ENGLEWOOD","CO","80111"
321957,"9959 GOOD LUCK RD","LANHAM","MD","20706"
321958,"9959 MUSKET RIDGE CIRCLE","JONESBORO","GA","30328"
321959,"9959 S WINSTON AVE","CHICAGO","IL","60643"
321960,"9959 SOUTH 3200 WEST","SOUTH JORDAN","UT","84095"
321961,"995A MORRISON MOORE PKWY W","DAHLONEGA","GA","30533"
321962,"995C AKIPOHE PLACE","KAILUA","HI","96734"
321963,"996 15TH AVENUE","MCPHERSON","KS","67460"
321964,"996 BAYWOOD AVE","WERNERSVILLE","PA","19565"
321965,"996 BRAYTON AVE","SOMERSET","MA","02726"
321966,"996 CENTRAL AVE","PLAINFIELD","NJ","07060"
321967,"996 CONCORD CHURCH ROAD","ROXBORO","NC","27573"
321968,"996 CORONADO COURT","GULF BREEZE","FL","32563"
321969,"996 DESANTIS DRIVE","ROMANSVILLE","PA","19320"
321970,"996 EAST 40TH STREET","BROOKLYN","NY","11210"
321971,"996 EAST RICH","COLUMBUS","OH","43205"
321972,"996 GARIBALDI PLACE","WASHINGTON TWP","NJ","07676"
321973,"996 MAINE AVE SW UNIT 440","WASHINGTON","DC","20024"
321974,"996 MISSOURI AVE STE C","SAINT ROBERT","MO","65584"
321975,"996 MOUNT ZION RD","MORROW","GA","30260"
321976,"996 PRATT STREET","PHILADELPHIA","PA","19124"
321977,"996 S SAN GABRIEL BLVD","PASADENA","CA","91107"
321978,"996 SANDINO DRIVE","JONESBORO","AR","72401"
321979,"996 TIMBERLAKE DRIVE EAST","CORDOVA","TN","38018"
321980,"996 WEST 19TH STREET","UPLAND","CA","91784"
321981,"996 WEST A STREET","CRESWELL","OR","97426"
321982,"996 WEST ST","ATTLEBORO","MA","02703"
321983,"996 WILKINSON TRACE STE A1","BOWLING GREEN","KY","42103"
321984,"996 WILLIAMS AVE APT 3B","BROOKLYN","NY","11207"
321985,"9960 BYRNES ROAD","JACKSONVILLE","FL","32225"
321986,"9960 ELMENDORF LAVERNIA RD","SAN ANTONIO","TX","78223"
321987,"9960 GUILFORD ROAD APT 303","JESSUP","MD","20794"
321988,"9960 LAKEWOOD LANE","CINCINNATI","OH","45242"
321989,"9960 STOUT","DETROIT","MI","48228"
321990,"9961 CROSSPOINT BLVD SUITE 200","INDIANAPOLIS","IN","46256"
321991,"9961 CROSSPOINT BLVD","INDIANAPOLIS","IN","46256"
321992,"9961 WESTWOOD","DETROIT","MI","48228"
321993,"9962 BROOK ROAD -602","GLEN ALLEN","VA","23059"
321994,"9962 LASCASSAS PIKE","LASCASSAS","TN","37085"
321995,"9962 STATE HIGHWAY 77","CHAFFEE","MO","63740"
321996,"9963 CUB LAKE TRL","COLORADO SPRINGS","CO","80924"
321997,"9963 RAMONA ST APT 1","BELLFLOWER","CA","90706"
321998,"9963 RAMONA STREET APT 21","BELLFLOWER","CA","90706"
321999,"9963 W MONTEROSA  AVE","PHOENIX","AZ","85037"
322000,"9964 BURL WAY","ORLANDO","FL","32817"
