"ID","Address","City","State","Zip"
129001,"2324 BAY LAKES COURT","ARLINGTON","TX","76016"
129002,"2324 BOYLAN RD","BOZEMAN","MT","59715"
129003,"2324 BRIGHTSEAT RD APT 4","LANDOVER","MD","20785"
129004,"2324 BUTTE PL","WALDORF","MD","20603"
129005,"2324 BUTTONWOOD DR","JACKSONVILLE","FL","32216"
129006,"2324 CAMINO DEL VERDES","ROUND ROCK","TX","78681"
129007,"2324 CLINTON AVE","BERWYN","IL","60402"
129008,"2324 COLLEGE STREET","JACKSONVILLE","FL","32204"
129009,"2324 COPPERSTONE DR APT 2-F","HIGH POINT","NC","27265"
129010,"2324 COUNTRY CLUB RD","JACKSONVILLE","NC","28546"
129011,"2324 DEERLICK LANE","HARVEY","LA","70058"
129012,"2324 E WASHINGTON AVE","REEDLEY","CA","93654"
129013,"2324 FALLS GABLE LN APT 1","BALTIMORE","MD","21209"
129014,"2324 GRAND CANAL BLVD  SUITE 9","STOCKTON","CA","95207"
129015,"2324 HERITAGE PARK CIR NW","KENNESAW","GA","30144"
129016,"2324 LIMESTONE LANE","GARLAND","TX","75040"
129017,"2324 LLOYD DRIVE","CHESAPEAKE","VA","23325"
129018,"2324 MIDDLESEX DRIVE","TOLEDO","OH","43606"
129019,"2324 MURIEL COURT","CINCINNATI","OH","45219"
129020,"2324 N 15TH ST","MILWAUKEE","WI","53206"
129021,"2324 PAULDING AVE SUITE 3E","BRONX","NY","10469"
129022,"2324 PUMP ROAD","HENRICO","VA","23233"
129023,"2324 QUAKER COURT","ORLANDO","FL","32837"
129024,"2324 ROCKEFELLER AVENUE","EVERETT","WA","98201"
129025,"2324 ROZZELLES FERRY ROAD","CHARLOTTE","NC","28208"
129026,"2324 SECOND STREET PIKE STE 2B","NEWTOWN","PA","18940"
129027,"2324 SIMONSON DRIVE","WELLINGTON","FL","33414"
129028,"2324 SOUTH CONGRESS AVE SUITE 2F","PALM SPRINGS","FL","33406"
129029,"2324 STRAHLE STREET","PHILADELPHIA","PA","19152"
129030,"2324 SUGAR RUN ROAD","WEST UNION","WV","26456"
129031,"2324 SW 147 AVENUE UNIT 140","MIAMI","FL","33185"
129032,"2324 TAYLOR AVE","RACINE","WI","53403"
129033,"2324 TOLEDANO STREET  APT D","NEW ORLEANS","LA","70115"
129034,"2324 W MINERS DR","DUNLAP","IL","61525"
129035,"2324 W SUNRISE DR","PHOENIX","AZ","85041"
129036,"2324 W TANQUE VERDE CT","CHANDLER","AZ","85224"
129037,"2324 WEST 28TH","EUGENE","OR","97405"
129038,"23241 CARLYSLE","DEARBORN","MI","48124"
129039,"23246 COUNTRY LIVING ROAD","MILLSBORO","DE","19966"
129040,"23247 CALLE DIAZ APT 293","MORENO VALLEY","CA","92557"
129041,"2325 14TH PLACE SE","WASHINGTON DC","DC","20020"
129042,"2325 27TH STREET ENSLEY","BIRMINGHAM","AL","35208"
129043,"2325 6TH AVE","SCOTTSBLUFF","NE","69361"
129044,"2325 ANOKA AVENUE","BALTIMORE","MD","21215"
129045,"2325 ATASCOCITA RD STE E105","HUMBLE","TX","77396"
129046,"2325 AUBURN STREET SOUTH","SAINT PETERSBURG","FL","33712"
129047,"2325 AUTUMN BLAZE COURT","WAXHAW","NC","28173"
129048,"2325 BERKELEY AVE","LOS ANGELES","CA","90026"
129049,"2325 BODETTE AVE","TOLEDO","OH","43613"
129050,"2325 CENTRAL AVENUE","SAINT PETERSBURG","FL","33713"
129051,"2325 CIMARRON DRIVE","SANTA CLARA","CA","95051"
129052,"2325 CR 5600","ELK CITY","KS","67344"
129053,"2325 CROYDON RD","CHARLOTTE","NC","28207"
129054,"2325 DAISY HILL AVE","LAS VEGAS","NV","89106"
129055,"2325 DOUGHERTY FERRY RD SUITE 203","ST LOUIS","MO","63122"
129056,"2325 DULLES CORNER BLVD STE 670","HERNDON","VA","20171"
129057,"2325 E GLADE AVE","MESA","AZ","85204"
129058,"2325 E HUNTINGDON STREET","PHILADELPHIA","PA","19125"
129059,"2325 E I-44 SERVICE ROAD","OKLAHOMA CITY","OK","73154"
129060,"2325 E NEW YORK STREET","INDIANAPOLIS","IN","46201"
129061,"2325 E ST","SACRAMENTO","CA","95816"
129062,"2325 ELK SHOALS CHURCH LOOP","STONY POINT","NC","28678"
129063,"2325 FELLS LANE","WILMINGTON","DE","19808"
129064,"2325 FLAT TOP EGERIA RD","FLAT TOP","WV","25841"
129065,"2325 GREENFIELD LANE","KNOXVILLE","TN","37917"
129066,"2325 HILLTOP MALL ROAD","RICHMOND","CA","94806"
129067,"2325 ILION AVE N","MINNEAPOLIS","MN","55411"
129068,"2325 INNWOOD DR","AUSTINTOWN","OH","44515"
129069,"2325 KINMERE DRIVE","GASTONIA","NC","28056"
129070,"2325 LOCUST AVENUE","DALLAS","TX","75216"
129071,"2325 MOHAWK LANE","GLENVIEW","IL","60026"
129072,"2325 MURET STREET","IRVING","TX","75062"
129073,"2325 N 12TH ST","PHOENIX","AZ","85006"
129074,"2325 N DEVON AVE","TEA","SD","57064"
129075,"2325 NASHVILLE PIKE APT 1333","GALLATIN","TN","37066"
129076,"2325 OHIO PARKWAY","ROCKFORD","IL","61108"
129077,"2325 OSAGE AVE","LOUISVILLE","KY","40210"
129078,"2325 PINEY POINT LANE","ATLANTA","GA","30339"
129079,"2325 PRIMM ROAD","CHARLOTTE","NC","28216"
129080,"2325 SEA SHELL RD APT 107","VIRGINIA BEACH","VA","23451"
129081,"2325 SOUTH MARTIN STREET","LITTLE ROCK","AR","72204"
129082,"2325 SUGARLOAF CLUB DR","DULUTH","GA","30097"
129083,"2325 SYMMES ST","CINCINNATI","OH","45206"
129084,"2325 W HADDON AVE APT 1R","CHICAGO","IL","60622"
129085,"2325 WAVELL ST","HOUSTON","TX","77088"
129086,"2325 WEST 4260 SOUTH","SALT LAKE CITY","UT","84129"
129087,"2325 WILLOWBROOK DRIVE G-6","MURFREESBORO","TN","37130"
129088,"2325-C BRIARCLIFF ROAD","ATLANTA","GA","30329"
129089,"23251 N 166TH DR","SURPRISE","AZ","85387"
129090,"23252 CHARLSTON PL","LAND O' LAKES","FL","34639"
129091,"23252 KELSEY LANE","WATERLOO","NE","68069"
129092,"23252 KELSEY LN","WATERLOO","NE","68069"
129093,"23254 LEONORA DRIVE","WOODLAND HILLS","CA","91367"
129094,"23255 FM 3009","SAN ANTONIO","TX","78266"
129095,"23255 OASIS BOULEVARD","ROBERTSDALE","AL","36567"
129096,"23258 BURBANK BLVD","WOODLAND HILLS","CA","91367"
129097,"23258 STATE HWY 56","AUSTIN","MN","55912"
129098,"2326 BOOKER STREET","WINSTON-SALEM","NC","27105"
129099,"2326 COUNCIL LANE","BUFORD","GA","30519"
129100,"2326 COUNTY LINE ROAD WEST","BRADLEY","SC","29819"
129101,"2326 E GRAND AVE","EVERETT","WA","98201"
129102,"2326 E MIFFLIN STREET","MADISON","WI","53704"
129103,"2326 EASTBURY WAY","SANTA MARIA","CA","93455"
129104,"2326 JACQUELINE DR","GARLAND","TX","75042"
129105,"2326 LAWRENCEVILLE HWY APT 3","DECATUR","GA","30033"
129106,"2326 N 70TH AVE","OMAHA","NE","68104"
129107,"2326 OTTAWA","ENID","OK","73703"
129108,"2326 RHODES AVE","BATON ROUGE","LA","70802"
129109,"2326 S BEVERLY CIRCLE","STAFFORD","TX","77477"
129110,"2326 S CONGRESS AVENUE SUITE 1-A","WEST PALM BEACH","FL","33406"
129111,"2326 TOWN AND COUNTRY DR","KISSIMMEE","FL","34744"
129112,"2326 W D STREET","JENKS","OK","74037"
129113,"2326 WAGNER HEIGHTS RD UNIT 2","STOCKTON","CA","95209"
129114,"2326 WINTERHAVEN DR","CAMERON PARK","CA","95682"
129115,"23260 UNIVERSITY AVE EXT NW","SAINT FRANCIS","MN","55070"
129116,"23265 SE 57TH ST","ISSAQUAH","WA","98029"
129117,"2327 42ND STREET SOUTH","SAINT PETERSBURG","FL","33771"
129118,"2327 BROOKE GROVE RD","MITCHELLVILLE","MD","20721"
129119,"2327 BYRON CENTER AVE SW","WYOMING","MI","49519"
129120,"2327 COX RD","JARRETTSVILLE","MD","21084"
129121,"2327 E FRANKLIN AVE S MINNEAPOLIS","MINNEAPOLIS","MN","55406"
129122,"2327 EAST FRANKLIN AVENUE","MINNEAPOLIS","MN","55406"
129123,"2327 LAUREL LANE","AUGUSTA","GA","30904"
129124,"2327 MACLAURA HALL AVE","CHARLESTON","SC","29414"
129125,"2327 N BURNING TREE ST","WICHITA","KS","67228"
129126,"2327 OVERLOOK AVE","YOUNGSTOWN","OH","44509"
129127,"2327 PROSPECT RD","DES MOINES","IA","50310"
129128,"2327 SCARFF ST","LOS ANGELES","CA","90007"
129129,"2327 VETERANS BLVD SUITE J","KENNER","LA","70062"
129130,"2327 W ROSECRANS AVE","GARDENA","CA","90249"
129131,"2327 WALTON PLACE NORTH","MINNEAPOLIS","MN","55411"
129132,"2327 WILSON AVENUE","WALKER","MI","49534"
129133,"23270 ORANGE AVE 5","LAKE FOREST","CA","92630"
129134,"23272 MORNING WALK DRIVE","BRAMBLETON","VA","20148"
129135,"23274 CALLE DIAZ NUM 300","MORENO VALLEY","CA","92557"
129136,"23274 NICHOLSON STREET","HOLLYWOOD","MD","20636"
129137,"23276 SOUTH POINTE DR SUITE 219","LAGUNA HILLS","CA","92653"
129138,"23277 453RD AVE","MADISON","SD","57042"
129139,"23278 250TH ST","CARROLL","IA","51401"
129140,"2328 77TH AVE NE","LAKE STEVENS","WA","98258"
129141,"2328 ANNETTE STREET APT B","NEW ORLEANS","LA","70118"
129142,"2328 APALACHEE PARKWAY STE 7","TALLAHASSEE","FL","32301"
129143,"2328 CAMPBELLTON RD SW","ATLANTA","GA","30311"
129144,"2328 CENTRAL AVE NE","MINNEAPOLIS","MN","55418"
129145,"2328 CITADEL WAY STE 103 309","MELBOURNE","FL","32940"
129146,"2328 E 46TH AVENUE","DENVER","CO","80216"
129147,"2328 E INDIANOLA AVENUE","PHOENIX","AZ","85016"
129148,"2328 E LICOLN HIGHWAY NO 236","NEW LENOX","IL","60451"
129149,"2328 E VAN BUREN ST","PHOENIX","AZ","85006"
129150,"2328 EAST 96TH STREET","CHICAGO","IL","60617"
129151,"2328 ETCHEVERRY DRIVE","STOCKTON","CA","95212"
129152,"2328 FLOWER SPRING ST","LAS VEGAS","NV","89134"
129153,"2328 HEIDI CIRCLE","CHAMBERSBURG","PA","17202"
129154,"2328 LAWNDALE DR","DALLAS","TX","75211"
129155,"2328 MISTY IVY CT","BUFORD","GA","30519"
129156,"2328 N 83RD LN","KANSAS CITY","KS","66109"
129157,"2328 N MILWAUKEE AVENUE FL 2","CHICAGO","IL","60647"
129158,"2328 PEACH ORCHARD ROAD","BRENT","AL","35034"
129159,"2328 POHLMAN RD","FLORISSANT","MO","63033"
129160,"2328 RANCHVIEW DR","LITTLE ELM","TX","75068"
129161,"2328 RUE MAISON","BILOXI","MS","39532"
129162,"2328 SARATOGA DRIVE","LOUISVILLE","KY","40205"
129163,"2328 SE DIAMOND CT","STUART","FL","34997"
129164,"2328 SELMA AVE","NASHVILLE","TN","37214"
129165,"2328 SHALLOW CREEK LN","FRIENDSWOOD","TX","77546"
129166,"2328 SW EVANS AVENUE","LAWTON","OK","73505"
129167,"2328 TAYLOR DRIVE","WEST LINN","OR","97068"
129168,"2328 TOPAZ RD","COTTONDALE","FL","32431"
129169,"2328 TURPIN DRIVE","ORLANDO","FL","32837"
129170,"2328 VIA SALDIVAR STREET","GLENDALE","CA","91208"
129171,"2328 W CHARLESTON STREET","CHICAGO","IL","60647"
129172,"2328 W ST RD 235","BROOKER","FL","32622"
129173,"2328 W WASHINGTON AVENUE","SANTA ANA","CA","92706"
129174,"2328 WARD STREET","BERKELEY","CA","94705"
129175,"2328 WICKET COURT","FLORENCE","KY","41042"
129176,"2328 WINNEBAGO STREET","LA CROSSE","WI","54601"
129177,"23280 GERBERA ST","MORENO VALLEY","CA","92553"
129178,"23281 HELEN COURT","JERSEYVILLE","IL","62052"
129179,"23283 COUNTY ROAD 1038","MATHIS","TX","78368"
129180,"23283 SHINNECOCK HILLS DRIVE","ATHENS","AL","35613"
129181,"23284 W PIMA ST","BUCKEYE","AZ","85326"
129182,"23285 GRAYSON DRIVE","SOUTHFIELD","MI","48075"
129183,"23287 N SIERRA HIGHWAY","NEWHALL","CA","91321"
129184,"2329 130TH CT NE","BLAINE","MN","55449"
129185,"2329 700TH STREET","ELK HORN","IA","51531"
129186,"2329 BROOKGATE WAY","ELLENWOOD","GA","30294"
129187,"2329 CANYON VIEW GLEN","ESCONDIDO","CA","92026"
129188,"2329 CARDINAL LANE","GARLAND","TX","75042"
129189,"2329 CIMARRON DR","SANTA CLARA","CA","95051"
129190,"2329 COPPERLEAF STREET","RICHLAND","WA","99354"
129191,"2329 CORAL WAY","CORAL GABLES","FL","33145"
129192,"2329 DEWEY DR","SPRING HILL","TN","37174"
129193,"2329 E ASHLAN AVE","FRESNO","CA","93726"
129194,"2329 EAST MAIN STREET","MEDFORD","OR","97504"
129195,"2329 EMERSON STREET","DENVER","CO","80205"
129196,"2329 FAULKNER SPRINGS RD","MCMINNVILLE","TN","37110"
129197,"2329 HICKORY CORNER ROAD","AUGUSTA","WV","26704"
129198,"2329 IVEY OAKS PLACE","STONE MOUNTAIN","GA","30087"
129199,"2329 KATELAND COURT","ABINGDON","MD","21009"
129200,"2329 N CAREER AVE","SIOUX FALLS","SD","57107"
129201,"2329 NORTH MONROE STRE","BALTIMORE","MD","21217"
129202,"2329 NOSTRAND AVE 100","BROOKLYN","NY","11210"
129203,"2329 OVERLOOK LN","DENTON","TX","76207"
129204,"2329 QUINCE DR SE","DECATUR","AL","35601"
129205,"2329 RIVER BLUFF DRIVE","NIXA","MO","65714"
129206,"2329 S 17TH STREET","PHILADELPHIA","PA","19145"
129207,"2329 SCHEIBER ROAD","NICOLAUS","CA","95659"
129208,"2329 STOCKTON DR","FLEMING ISLAND","FL","32003"
129209,"2329 TILLMAN AVENUE","WINTER GARDEN","FL","34787"
129210,"2329 WEST MCLEAN AVENUE 2","CHICAGO","IL","60647"
129211,"23292 BUNTE CT","BROWNSTOWN","MI","48183"
129212,"23293 BY THE MILL ROAD","CALIFORNIA","MD","20619"
129213,"23293 N ROSEDAT CT","ST CLAIR SHORES","MI","48080"
129214,"23293 STATE ROUTE 172","MINERVA","OH","44657"
129215,"23296 IROQUOIS ST","CLINTON TOWNSHIP","MI","48036"
129216,"233 12 AVE S","SAINT CLOUD","MN","56301"
129217,"233 12TH AVE S","ST CLOUD","MN","56301"
129218,"233 12TH STREET STE 743","COLUMBUS","GA","31901"
129219,"233 27TH AVENUE W","LAUREL","MT","59044"
129220,"233 3RD STREET NORTH SUITE 301","SAINT PETERSBURG","FL","33701"
129221,"233 3RD STREET","BRAZORIA","TX","77422"
129222,"233 79TH STREET","NORTH BERGEN","NJ","07047"
129223,"233 ALISO DR NE","ALBUQUERQUE","NM","87108"
129224,"233 ALLEGHANY DR","SALISBURY","NC","28147"
129225,"233 ALLEN DR","RANDOLPH","VT","05060"
129226,"233 BIRCHWOOD LANE","BEECH MOUNTAIN","NC","28604"
129227,"233 BROADWAY SUITE 2220","NEW YORK","NY","10279"
129228,"233 CATAMOUNT DRIVE","CLOVER","SC","29710"
129229,"233 COPPER SPUR LANE","VICTORIA","TX","77905"
129230,"233 CORNELL AVE","SWARTHMORE","PA","19081"
129231,"233 CR 3780","HAGARVILLE","AR","72839"
129232,"233 DEAN ST","NORTON","MA","02766"
129233,"233 DEER PARK TRAIL","CANTON","GA","30114"
129234,"233 DELMONT AVE","PHILADELPHIA","PA","19003"
129235,"233 DOWNS RD","WORCESTER","VT","05682"
129236,"233 E 13TH ST 1403","CHICAGO","IL","60605"
129237,"233 E 184TH STREET","CARSON","CA","90746"
129238,"233 E 200 S","SANTAQUIN","UT","84655"
129239,"233 E GIRARD AVENUE","PHILADELPHIA","PA","19125"
129240,"233 E MAIN STREET","PORT LAVACA","TX","77979"
129241,"233 E POPLAR ST","TAYLORVILLE","IL","62568"
129242,"233 E RAMONA AVE","SALT LAKE CITY","UT","84115"
129243,"233 E SOUTHERN AVE APT 26-202","TEMPE","AZ","85285"
129244,"233 EAGLE WAY","STOCKBRIDGE","GA","30281"
129245,"233 EAST 35TH STREET","NEW YORK","NY","10016"
129246,"233 EAST MISSION ROAD","FALLBROOK","CA","92028"
129247,"233 EAST WACKER DRIVE  APT 2311","CHICAGO","IL","60601"
129248,"233 ELLIS AVE","BELLEVUE","OH","44811"
129249,"233 ERLANGER BLVD","NORTH BABYLON","NY","11703"
129250,"233 ETRUSCAN LN E","CORNING","NY","14830"
129251,"233 FOREST AVE","SOMERSET","MA","02726"
129252,"233 FOSTER DRIVE","OSWEGO","IL","60543"
129253,"233 GENEVA DRIVE","STROUDSBURG","PA","18360"
129254,"233 GERMANTOWN RD","WEST MILFORD","NJ","07480"
129255,"233 GERMANTOWN ROAD","WEST MILFORD","NJ","07480"
129256,"233 GOLDFIELD DRIVE","GARNER","NC","27529"
129257,"233 GOODWIN BRIDGE RD","TRAVELERS REST","SC","29690"
129258,"233 GREEN VIEW RD","MOYOCK","NC","27958"
129259,"233 HALSTEAD AVE APT 6G","MAMARONECK","NY","10543"
129260,"233 HALSTEAD AVE APT6G","MAMARONECK","NY","10543"
129261,"233 HAMBRICK AVENUE","SUTHERLIN","OR","97479"
129262,"233 HANCE ROAD","FAIR HAVEN","NJ","07704"
129263,"233 HANKS HILL RD","STORRS MANSFIELD","CT","06268"
129264,"233 HARBOR CREEK DR","CARY","NC","27511"
129265,"233 HENRY","MEMPHIS","TN","38107"
129266,"233 ILLINOIS AVENUE- SUITE 1- 793","FORT LEONARD WOOD","MO","65473"
129267,"233 INNER DRIVE","LE SUEUR","MN","56058"
129268,"233 IRVING AVENUE","PROVIDENCE","RI","02906"
129269,"233 ISLAND CREEK LANE","SAVANNAH","GA","31410"
129270,"233 JAMAICA AVE APT 4J","BROOKLYN","NY","11207"
129271,"233 JUNIPER LANE","BOLINGBROOK","IL","60440"
129272,"233 KIVA RD","DURANGO","CO","81303"
129273,"233 LAKE SYLVIA ROAD","LINCOLNTON","NC","28092"
129274,"233 LANEY ROAD","CHERAW","SC","29520"
129275,"233 LUCY ROAD","KINGSPORT","TN","37660"
129276,"233 MAGNOLIA TRACE DR","BALLWIN","MO","63021"
129277,"233 MAIN STREET","FALMOUTH","KY","41040"
129278,"233 MAIN STREET","WATERVILLE","ME","04901"
129279,"233 MAIN STREET","WINSLOW","ME","04901"
129280,"233 MANSFIELD GROVE ROAD UNIT 409","EAST HAVEN","CT","06512"
129281,"233 MARSDEN AVENUE","CARNEYS POINT","NJ","08069"
129282,"233 MASSACHUSETTS AVE","NORTH ANDOVER","MA","01845"
129283,"233 MATHER MAIL CENTER","CAMBRIDGE","MA","02138"
129284,"233 MCLEOD RD","CHAPIN","SC","29036"
129285,"233 MITCHELL STREET SUITE 300C","ATLANTA","GA","30303"
129286,"233 MITCHELL STREET SW SUITE 425","ATLANTA","GA","30303"
129287,"233 MIXON ROAD","TALLAPOOSA","GA","30176"
129288,"233 N 1250 W SUITE 202","CENTERVILLE","UT","84014"
129289,"233 N ADAMS ST","MEMPHIS","MO","63555"
129290,"233 N GREENWOOD AVE","FORT SMITH","AR","72901"
129291,"233 N NEW BALLAS RD","ST LOUIS","MO","63141"
129292,"233 N RIVERSIDE DR","NEPTUNE","NJ","07753"
129293,"233 NE 58TH AVENUE","PORTLAND","OR","97213"
129294,"233 NORTH MILLS AVENUE","LODI","CA","95242"
129295,"233 ORIOLE DRIVE","ANNA","TX","75409"
129296,"233 PEACHTREE STREET NW HARRIS TOWE","ATLANTA","GA","30303"
129297,"233 PEARL STREET UNIT 16","HARTFORD","CT","06103"
129298,"233 PRESIDENT STREET STE 1","BROOKLYN","NY","11231"
129299,"233 PROSPECT ST","OWATONNA","MN","55060"
129300,"233 REDWOOD STREET","BIRMINGHAM","AL","35210"
129301,"233 REUBEN DRIVE","ALEXANDER","AR","72002"
129302,"233 ROCK ROAD PO BOX 125","GLEN ROCK","NJ","07452"
129303,"233 ROGUE RIVER HWY -916","GRANTS PASS","OR","97527"
129304,"233 ROGUE RIVER HWY 322","GRANTS PASS","OR","97527"
129305,"233 S 13TH ST    1900 US BANK BLDG","LINCOLN","NE","68508"
129306,"233 S 13TH ST 11TH FL","LINCOLN","NE","68508"
129307,"233 S 13TH ST 1900 US BANK BLDG","LINCOLN","NE","68508"
129308,"233 S 2370 W","PROVO","UT","84601"
129309,"233 S FEDERAL HWY STE 411","BOCA RATON","FL","33432"
129310,"233 S GILBERT AVE","LAGRANGE","IL","60525"
129311,"233 S STATE ST","BELLINGHAM","WA","98225"
129312,"233 S STATE","WESTVILLE","IL","61883"
129313,"233 S THIRD AVE","WINNECONNE","WI","54986"
129314,"233 S WACKER DR UNIT 6645","CHICAGO","IL","60606"
129315,"233 S WACKER DRIVE SUITE 5900","CHICAGO","IL","60606"
129316,"233 S WACKER DRIVE SUITE 8400","CHICAGO","IL","60606"
129317,"233 SABRINA COURT","WOODSTOCK","GA","30188"
129318,"233 SADDLEBROOK LANE","WAXAHACHIE","TX","75165"
129319,"233 SAINT MARY STREET UNIT 1","NEEDHAM","MA","02494"
129320,"233 SAVOY AVE","SPRINGFIELD","MA","01103"
129321,"233 SCOTT STREET","SAN FRANCISCO","CA","94117"
129322,"233 SEMINOLE TRAIL","CRESTVIEW","FL","32536"
129323,"233 SHERRY LANE","BURLESON","TX","76028"
129324,"233 SINGING HILLS DRIVE","CLARKESVILLE","GA","30523"
129325,"233 SLOOP LOOP POINT RD","HAMPSTEAD","NC","28443"
129326,"233 SOMERSET GLEN","WALES","WI","53183"
129327,"233 SOMERSET STREET","NEW BRUNSWICK","NJ","08901"
129328,"233 SOUTH 13TH STREET STE 1900","LINCOLN","NE","68508"
129329,"233 SOUTH 1ST STREET SUITE 3W","BROOKLYN","NY","11211"
129330,"233 SOUTH 4TH AVENUE","YUMA","AZ","85364"
129331,"233 SOUTH STEPHENSON AVE","IRON MOUNTAIN","MI","49801"
129332,"233 SOUTH WACKER DRIVE SUITE 2150","CHICAGO","IL","60606"
129333,"233 SPRING STREET -APT2","TRENTON","NJ","08618"
129334,"233 STEAMBOAT COURT","NASHVILLE","TN","37214"
129335,"233 STORE HILL ROAD","WESTBURY","NY","11568"
129336,"233 SW 186TH STREET","NORMANDY PARK","WA","98166"
129337,"233 SWEETBRIAR COURT","CLAYTON","NC","27527"
129338,"233 TONI STREET","ORLANDO","FL","32810"
129339,"233 W 6TH STREET","WINNEMUCCA","NV","89445"
129340,"233 W CENTER AVE","DORCHESTER","WI","54425"
129341,"233 W HINTZ ROAD","WHEELING","IL","60090"
129342,"233 W PLEASANT STREET","SPRINGFIELD","OH","45506"
129343,"233 W TWOHIG AVE","SAN ANGELO","TX","76903"
129344,"233 WAINWRIGHT STREET","NEWARK","NJ","07112"
129345,"233 WASHINGTON ST","GRAND HAVEN","MI","49417"
129346,"233 WATCHUNG FORK","WESTFIELD","NJ","07090"
129347,"233 WEST 26TH STREET","NORFOLK","VA","23517"
129348,"233 WEST ARTESIA BOULEVARD","LONG BEACH","CA","90805"
129349,"233 WEST AVENUE A","BELLE GLADE","FL","33430"
129350,"233 WEST COLT ROAD","TEMPE","AZ","85284"
129351,"233 WEST GAY STREET","WEST CHESTER","PA","19380"
129352,"233 WEST LINDEN AVE 1","LINDEN","NJ","07036"
129353,"233 WILEY STREET","BRENTWOOD","NY","11717"
129354,"233 WOODBORO DRIVE","WEST CHICAGO","IL","60185"
129355,"233-09 LINDEN BLVD","CAMBRIA HTS.","NY","11411"
129356,"233-21 LINDEN BLVD","CAMBRIA HEIGHTS","NY","11411"
129357,"233","HARTSDALE","NY","10530"
129358,"2330 14TH PL SE","WASHINGTON","DC","20020"
129359,"2330 27TH ST APT 1","ASTORIA","NY","11105"
129360,"2330 27TH ST","ASTORIA","NY","11105"
129361,"2330 38TH STREET","TWO RIVERS","WI","54241"
129362,"2330 55TH AVE SE","OLYMPIA","WA","98501"
129363,"2330 ABERDEEN BLVD","GASTONIA","NC","28054"
129364,"2330 ARDEN WAY STE G","SACRAMENTO","CA","95828"
129365,"2330 BAYLESS WAY","SACRAMENTO","CA","95835"
129366,"2330 CANDLE RIDGE TRAIL","GEORGETOWN","TX","78626"
129367,"2330 CHANCE ROAD","MOLINO","FL","32577"
129368,"2330 CLEMENTINE LN","RENO","NV","89521"
129369,"2330 COUNTY ROAD F E","WHITE BEAR LAKE","MN","55110"
129370,"2330 E BROADWAY","HELENA","MT","59601"
129371,"2330 E MONUMENT ST","BALTIMORE","MD","21205"
129372,"2330 EAST AVENUE J8 SPC 210","LANCASTER","CA","93535"
129373,"2330 GLENDALE LANE","SACRAMENTO","CA","95825"
129374,"2330 GOOD HOPE ROAD SE STE 1204","WASHINGTON","DC","20020"
129375,"2330 GOSHEN ROAD","WINCHESTER","KY","40391"
129376,"2330 GRANADA AVE","LONG BEACH","CA","90815"
129377,"2330 GREEN ST","HARRISBURG","PA","17110"
129378,"2330 INDIAN WOODS ROAD","WINDSOR","NC","27983"
129379,"2330 INTERSTATE 30","MESQUITE","TX","75150"
129380,"2330 INWOOD RD STE 340","DALLAS","TX","75235"
129381,"2330 LAKE VIEW BLVD","PORT CHARLOTTE","FL","33948"
129382,"2330 LOU GURLEY RD","BOWERSVILLE","GA","30516"
129383,"2330 MADISON AVE","GRANITE CITY","IL","62040"
129384,"2330 MEADOWRIDGE CT","CEDARBURG","WI","53012"
129385,"2330 N 900 W","CROMWELL","IN","46732"
129386,"2330 N DEER CREEK PL","TUCSON","AZ","85749"
129387,"2330 N HARRISON ST","SHAWNEE","OK","74804"
129388,"2330 N HARRISON","SHAWNEE","OK","74804"
129389,"2330 N PLEASANTS HIGHWAY","SAINT MARYS","WV","26170"
129390,"2330 NW BELGRAVE AVENUE","PORTLAND","OR","97210"
129391,"2330 NW PROFESSIONAL DR 102","CORVALLIS","OR","97330"
129392,"2330 PARK PLACE DR","GRETNA","LA","70056"
129393,"2330 PASEO DEL PRADO STE C204","LAS VEGAS","NV","89102"
129394,"2330 PASEO DEL PRADO STE C205","LAS VEGAS","NV","89102"
129395,"2330 PINE","JENISON","MI","49428"
129396,"2330 PRAIRIE HILL DRIVE","MARION","IA","52302"
129397,"2330 ROCHESTER RD APT 102","ROYAL OAK","MI","48073"
129398,"2330 S BROADWAY UNIT 102","LOS ANGELES","CA","90007"
129399,"2330 S KEARNEY ST UNIT 115","DENVER","CO","80222"
129400,"2330 SCENIC HIGHWAY SOUTH","SNELLVILLE","GA","30078"
129401,"2330 SCENIC HWY S STE 637","SNELLVILLE","GA","30078"
129402,"2330 SCENIC HWY S STE 708","SNELLVILLE","GA","30078"
129403,"2330 SCENIC HWY S","SNELLVILLE","GA","30078"
129404,"2330 SCOTT STREET","HOLLYWOOD","FL","33020"
129405,"2330 SIMONSON DRIVE","WELLINGTON","FL","33414"
129406,"2330 SOUTH NOVA RD","SOUTH DAYTONA","FL","32119"
129407,"2330 SW WILLISTON RD APT 2718","GAINESVILLE","FL","32608"
129408,"2330 SW WILLISTON ROAD APT 526","GAINESVILLE","FL","32608"
129409,"2330 TIMBER SHADOWS DRIVE SUITE 108","KINGWOOD","TX","77339"
129410,"2330 TRIMBLE","TALLAHASSEE","FL","32317"
129411,"2330 UPLAND PLACE","CINCINNAT","OH","45206"
129412,"2330 VANGUARD WAY SUITE D201","COSTA MESA","CA","92626"
129413,"2330 VIRGINIA STREE","BERKELEY","CA","94709"
129414,"2330 W JOPPA ROAD SUITE 107-A","LUTHERVILLE","MD","21093"
129415,"2330 W SUNRISE PL","CHANDLER","AZ","85248"
129416,"2330 W TRESTLE DR","MERIDIAN","ID","83646"
129417,"2330 WATERS FERRY DRIVE","LAWRENCEVILLE","GA","30034"
129418,"2330 WEST VALENCIA DRIVE","FULLERTON","CA","92833"
129419,"23300 AQUASCO ROAD","AQUASCO","MD","20608"
129420,"23300 COTTONWOOD AVE","MORENO VALLEY","CA","92553"
129421,"23300 HARPER AVENUE","PORT CHARLOTTE","FL","33980"
129422,"23300 VENTURA BLVD SUITE 200","WOODLAND HILLS","CA","91364"
129423,"23301 DIXIE HWY LOT 28","WEST POINT","KY","40177"
129424,"23301 TOWNSHIP ROAD 209","ALVADA","OH","44802"
129425,"23303 BRIER RD","BRIER","WA","98036"
129426,"23304 LA PIERRE DR","MOUNTLAKE TERRACE","WA","98043"
129427,"23305 96TH AVENUE N","PORT BYRON","IL","61275"
129428,"23305 BOWLIN ROAD","WESTON","MO","64098"
129429,"23305 PARK DRIVE","LEBANON","MO","65536"
129430,"23307 KNIGHT HOLLOW CT","KATY","TX","77494"
129431,"23308 NORTH PRESTON HIGHWAY","BRUCETON MILLS","WV","26525"
129432,"23308 W POMPANO","MALIBU","CA","90265"
129433,"23308 WESTMONT DR","RUTHER GLEN","VA","22546"
129434,"2331 11TH ST","HEMPSTEAD","TX","77445"
129435,"2331 ALBERTON LN","PEARLAND","TX","77584"
129436,"2331 BELMONT","PARSONS","KS","67357"
129437,"2331 BROCKETT ROAD","TUCKER","GA","30084"
129438,"2331 BROWARD RD","JACKSONVILLE","FL","32218"
129439,"2331 CABO WAY","GOLD RIVER","CA","95670"
129440,"2331 CALEXICO WAY SOUTH","ST PETERSBURG","FL","33712"
129441,"2331 CHATHAM ROAD","SPRINGFIELD","IL","62704"
129442,"2331 CHATHAM ROAD","SPRINGFIELDS","IL","62704"
129443,"2331 GUS THOMASSON RD STE 136","DALLAS","TX","75228"
129444,"2331 HIGHWAY 79 NORTH","BROWNSVILLE","TN","38012"
129445,"2331 LAKE TERRACE LANE","LA HABRA","CA","90631"
129446,"2331 LANDFORD ST","LANCASTER","CA","93535"
129447,"2331 MIDVALE AVE","LOS ANGELES","CA","90064"
129448,"2331 MT ISLE HARBOR DRIVE","CHARLOTTE","NC","28214"
129449,"2331 N SPAULDING AVE","CHICAGO","IL","60647"
129450,"2331 N STATE RD 7 STE 120","LAUDERHILL","FL","33313"
129451,"2331 NE 26 TH STREET","FORT LAUDERDALE","FL","33305"
129452,"2331 NORTH STATE RD 7  SUITE115","LAUDERDALE LAKES","FL","33313"
129453,"2331 NORTH WILLIAMS STREET","DENVER","CO","80205"
129454,"2331 OBERLIN AVE","LORAIN","OH","44052"
129455,"2331 OLD FAIRWAY ROAD","HUNTSVILLE","AL","35806"
129456,"2331 RETREAT VIEW CIRCLE","SANFORD","FL","32771"
129457,"2331 RIVER EDGE DRIVE","BELTON","TX","76513"
129458,"2331 S 18TH STREET","UNION GAP","WA","98903"
129459,"2331 S KRAMERIA ST","DENVER","CO","80222"
129460,"2331 SANDRIDGE CIRCLE","EUSTIS","FL","32726"
129461,"2331 STAGECOACH ROAD","STOCKTON","CA","95215"
129462,"2331 VERNELL WAY","ROUND ROCK","TX","78664"
129463,"2331 W 13190 S","RIVERTON","UT","84065"
129464,"2331 W IRENE","PAHRUMP","NV","89060"
129465,"2331 WARMER RANGE AVENUE","MENLO PARK","CA","94025"
129466,"23310 E DESMET CT","LIBERTY LAKE","WA","99019"
129467,"23311 HICKORY PASS","SAN ANTONIO","TX","78264"
129468,"23313 HOOVER AVE","HAZEL PARK","MI","48030"
129469,"23317 BARFIELD DRIVE","VALENCIA","CA","91354"
129470,"23317 BEACHWOOD BLVD","BEACHWOOD","OH","44122"
129471,"23318 CLAYSTONE AVE","CORONA","CA","92883"
129472,"23318 MILLVILLE WAY","MILLVILLE","CA","96062"
129473,"23318 OLIVE WOOD PLAZA DR STE D","MORENO VALLEY","CA","92553"
129474,"23318 W PALOMA BLANCA DR","MALIBU","CA","90265"
129475,"23319 81ST AVE SE","WOODINVILLE","WA","98072"
129476,"23319 SAWMILL CROSS LN","SPRING","TX","77373"
129477,"2332 44TH AVE SW","SEATTLE","WA","98116"
129478,"2332 ALAMEDA AVE","ALAMEDA","CA","94501"
129479,"2332 AVALON WAY","SAN RAMON","CA","94582"
129480,"2332 BARRINGTON TRACE CIR SW","ATLANTA","GA","30331"
129481,"2332 BEATTIES FORD RD","CHARLOTTE","NC","28216"
129482,"2332 BLYTHE BLVD","CEDAR FALLS","IA","50613"
129483,"2332 DOIDGE AVE","PINOLE","CA","94564"
129484,"2332 EAST 7TH STREET","SUPERIOR","WI","54880"
129485,"2332 EAST SENECA STREET","TUCSON","AZ","85719"
129486,"2332 FARNSLEY RD","LOUISVILLE","KY","40216"
129487,"2332 FOURTH ST UNIT B","BERKELEY","CA","94710"
129488,"2332 GEORGIA DRIVE","WESTLAKE","OH","44145"
129489,"2332 HOSP WAY  UNIT 206","CARLSBAD","CA","92008"
129490,"2332 LEXINGTON AVE N","ROSEVILLE","MN","55113"
129491,"2332 LONGHORN ST","DALLAS","TX","75228"
129492,"2332 MOUNT HARMONY CHURCH ROAD","MATTHEWS","NC","28104"
129493,"2332 N 45TH STREET","OMAHA","NE","68104"
129494,"2332 N 67TH STREET","WAUWATOSA","WI","53213"
129495,"2332 N MILWAUKEE AVE / STE 104","CHICAGO","IL","60647"
129496,"2332 NE 17TH TERRACE","WILTON MANORS","FL","33305"
129497,"2332 NORTH 116TH STREET","SEATTLE","WA","98133"
129498,"2332 NORTH EFFEL COURT","DECATUR","GA","30032"
129499,"2332 PRESTON PARK COURT","DECATUR","GA","30032"
129500,"2332 RIDGE VIEW DRIVE","HURRICANE","UT","84737"
