"ID","Address","City","State","Zip"
135501,"245 BRADLEY ST","BRIDGEPORT","CT","06610"
135502,"245 BRUCE ROAD","MANCHESTER","NH","03104"
135503,"245 BUCK HILL RD","ROCHESTER","NY","14626"
135504,"245 BUENA VISTA AVE","DALY CITY","CA","94015"
135505,"245 CAMEBACK DRIVE","HOLLAND","MI","49423"
135506,"245 CARNEGIE STREET","MANCHESTER","NH","03104"
135507,"245 CEDAR SAGE SUITE 240","GARLAND","TX","75040"
135508,"245 CELLO CT","ALPHARETTA","GA","30004"
135509,"245 CHESTNUT HILL AVE","BRIGHTON","MA","02135"
135510,"245 CHICKADEE LANE","WARSAW","IN","46580"
135511,"245 CHICKADEE LN","SEQUIM","WA","98382"
135512,"245 CHURCH RD","SCOTIA","NY","12302"
135513,"245 CHURCH STREET","LITTLE FALLS","NY","13365"
135514,"245 COLLEGE DRIVE","PEMBERTON","NJ","08068"
135515,"245 COMMERCE GREEN BLVD STE 130","SUGARLAND","TX","77478"
135516,"245 CONGAREE RD APT 613","GREENVILLE","SC","29607"
135517,"245 CORAL STREET","EDGEFIELD","SC","29824"
135518,"245 CRESTHAVEN DR","SANFORD","NC","27332"
135519,"245 CRESTHAVEN DR","SANFROD","NC","27332"
135520,"245 DECATUR STREET","BROOKLYN","NY","11233"
135521,"245 DELLWOOD DR","SPARTANBURG","SC","29301"
135522,"245 DUCK POND DRIVE","BLACKSBURG","VA","24061"
135523,"245 DUNTHORPE DRIVE","MEDFORD","OR","97504"
135524,"245 DWIGHT STREET","OCEANSIDE","NY","11572"
135525,"245 E 124TH ST 11P","NEW YORK","NY","10035"
135526,"245 E 124TH STREET","NEW YORK","NY","10035"
135527,"245 E 58 ST SUITE 9G","NEW YORK","NY","10022"
135528,"245 E 58TH ST","NEW YORK","NY","10022"
135529,"245 E 63RD ST APT 821","NEW YORK","NY","10065"
135530,"245 E 8TH ST","ERIE","PA","16503"
135531,"245 E 93RD STREET APT 3M","NEW YORK","NY","10128"
135532,"245 E BETHEL RD","COPPELL","TX","75019"
135533,"245 E BONITA AVENUE","SAN DIMAS","CA","91773"
135534,"245 E CENTENNIAL PARKWAY","NORTH LAS VEGAS","NV","89084"
135535,"245 E CENTENNIAL PKWY","NORTH LAS VEGAS","NV","89084"
135536,"245 E MAIN ST 103","ALHAMBRA","CA","91801"
135537,"245 E OLIVE AVE FLOOR 4","BURBANK","CA","91502"
135538,"245 E PUENTE STREET","COVINA","CA","91723"
135539,"245 E ROBINSON ST","JACKSON","MI","49203"
135540,"245 EAST 124TH STREET SUITE 9H","NEW YORK","NY","10035"
135541,"245 EAST 21ST STREET 16 A","NEW YORK","NY","10010"
135542,"245 EAST 24TH STREET","UPLAND","CA","91784"
135543,"245 EAST 52ND STREET","BROOKLYN","NY","11203"
135544,"245 EAST 56TH STREET","NEW YORK","NY","10022"
135545,"245 EAST 8TH STREET","ERIE","PA","16503"
135546,"245 EAST BEECH ST","LONG BEACH","NY","11561"
135547,"245 EAST KING STREET","LANCASTER","PA","17602"
135548,"245 EASTBURY AVE NE","NORTH CANTON","OH","44720"
135549,"245 EDEN SHALE RD","OWENTON","KY","40359"
135550,"245 ELMORE TOWN RD","BAXTER","TN","38544"
135551,"245 ELMORE TOWN ROAD","BAXTER","TN","38544"
135552,"245 EMERALD ICE LOOP","DELAWARE","OH","43015"
135553,"245 FAIRVIEW ST","CAMANO ISLAND","WA","98282"
135554,"245 FIFTH AVE SUITE 1902","NEW YORK","NY","11230"
135555,"245 FIRST STREET","CAMBRIDGE","MA","02142"
135556,"245 FLOUR DANIEL EIB","CLEMSON","SC","29634"
135557,"245 FM 1488 RD        APT 1136","CONROE","TX","77384"
135558,"245 FRONT STREET","NORTHUMBERLAND","PA","17857"
135559,"245 GILLICAN CIRCLE","HOMERVILLE","GA","31634"
135560,"245 GINOCCHIO CT","WALNUT CREEK","CA","94598"
135561,"245 GREEN VALLEY DRIVE","CHANDLER","IN","47610"
135562,"245 GREENHILL FARM RD","LANDRUM","SC","29356"
135563,"245 GUY PARK AVENUE","AMSTERDAM","NY","12010"
135564,"245 HAIRSTON ST","DANVILLE","VA","24540"
135565,"245 HEMPSTEAD AVE PO BOX 848","WEST HEMPSTEAD","NY","11552"
135566,"245 HIGH POINT BLVD  UNIT D","BOYNTON BEACH","FL","33435"
135567,"245 HIGHLAND ST","NEW HAVEN","CT","06511"
135568,"245 ILIMA ST","WAHIAWA","HI","96786"
135569,"245 ISHA DRIVE","MCMINNVILLE","TN","37110"
135570,"245 JOHN SPENCER ROAD","MARTINSVILLE","VA","24112"
135571,"245 LAMBERT LANE","URIAH","AL","36480"
135572,"245 LENOX AVENUE - GROUND FLOOR","NEW YORK","NY","10027"
135573,"245 LENOX AVENUE GROUND LEVEL","NEW YORK","NY","10027"
135574,"245 LEPHILLIP COURT","CONCORD","NC","28025"
135575,"245 LEWIS BURWELL PLACE","WILLIAMSBURG","VA","23185"
135576,"245 LEXINGTON DRIVE","FORREST CITY","AR","72335"
135577,"245 LIBERTY STREET","NEWBURGH","NY","12550"
135578,"245 LOU LOU LANE EAST","PALACIOS","TX","77465"
135579,"245 LOWELL BLVD","DENVER","CO","80219"
135580,"245 LYNN AVE","SATELLITE BEACH","FL","32937"
135581,"245 MAIN ST STE 103","TOM RIVER","NJ","08753"
135582,"245 MAPLE AVENUE","PITTSBURGH","PA","15218"
135583,"245 MARE COURT","DAYTON","OH","45458"
135584,"245 MARSHSIDE DRIVE","ST. AUGUSTINE","FL","32080"
135585,"245 MARTIN LUTHER KING JR AVE","KNOXVILLE","TN","37915"
135586,"245 MERRIFIELD ROAD","PONCA CITY","OK","74604"
135587,"245 METRO DRIVE","APPLETON","WI","54913"
135588,"245 MILL RD","STATEN ISLAND","NY","10306"
135589,"245 MISSOURI N","MACKS CREEK","MO","65786"
135590,"245 MOONSTONE DRIVE NE","RIO RANCHO","NM","87124"
135591,"245 N 162ND STREET","LINCOLN","NE","68527"
135592,"245 N 300 E","NEPHI","UT","84648"
135593,"245 N HIGHLAND AVE 230-255","ATLANTA","GA","30307"
135594,"245 N HIGHLAND AVE NE STE 230 876","ATLANTA","GA","30307"
135595,"245 N HIGHLAND AVE NE STE 230-192","ATLNATA","GA","30307"
135596,"245 N HIGHLAND AVE NE STE 230-412","ATLANTA","GA","30307"
135597,"245 N HIGHLAND AVE NE STE 230-546","ATLANTA","GA","30307"
135598,"245 N HIGHLAND AVE NE SUITE 230-137","ATLANTA","GA","30307"
135599,"245 N HOSKINS RD","CHARLOTTE","NC","28216"
135600,"245 N U STREET","FRESNO","CA","93701"
135601,"245 NAPIER LANE","RINGGOLD","GA","30736"
135602,"245 NICHOLS STREET","NORWOOD","MA","02062"
135603,"245 NORTH 200 WEST","ST GEORGE","UT","84770"
135604,"245 NORTH F STREET","LAKEVIEW","OR","97630"
135605,"245 NORTH FOURTH STREET","BEAUMONT","TX","77701"
135606,"245 NORTH SAINT JOHN S CHURCH ROAD","HAMPSTEAD","NC","28443"
135607,"245 NW 117TH AVENUE","CORAL SPRINGS","FL","33071"
135608,"245 NW 8TH STREET","MIAMI","FL","33136"
135609,"245 OAK ROAD","PIEDMONT","SC","29673"
135610,"245 OAKLAND PARKWAY APT 216","LEESBURG","GA","31763"
135611,"245 OAKLAND PKWY 1001","LEESBURG","GA","31763"
135612,"245 OCEAN TER","STATEN ISLAND","NY","10301"
135613,"245 OHIO STREET","ELYRIA","OH","44035"
135614,"245 OLD LAKE RD","RED BOILING SPRINGS","TN","37150"
135615,"245 OVERSEAS HIGHWAY","KEY WEST","FL","33040"
135616,"245 PALM SPRINGS DRIVE","COLORADO SPRINGS","CO","80921"
135617,"245 PASSAIC AVE","PASSAIC","NJ","07055"
135618,"245 PEACHTREE CENTER AVE SUITE 2700","ATLANTA","GA","30303"
135619,"245 PINNACLE SPRINGS ROAD","GREENBRIER","AR","72058"
135620,"245 PORTSMOUTH CT","ROSWELL","GA","30076"
135621,"245 PRICE AVE","SAN ANTONIO","TX","78211"
135622,"245 RICK HUSBAND BLVD","HOWARDWICK","TX","79226"
135623,"245 RIVER DRIVE","EAST PALATKA","FL","32131"
135624,"245 RIVERSIDE AVENUE SUITE 450","JACKSONVILLE","FL","32202"
135625,"245 RUE JONATHAN","SLIDELL","LA","70461"
135626,"245 RUSSELL STREET UNIT 6","HADLEY","MA","01035"
135627,"245 S 1060 W","LINDON","UT","84042"
135628,"245 S 14TH AVE","MAYWOOD","IL","60153"
135629,"245 S 41ST STREET","LOUISVILLE","KY","40211"
135630,"245 S CENTRAL AVE","BARTOW","FL","33830"
135631,"245 S PLUMER AVE STE 13-14","TUCSON","AZ","85719"
135632,"245 SADDLE LANE","SYOSSET","NY","11791"
135633,"245 SANDPIPER RIDGE DR","ORLANDO","FL","32835"
135634,"245 SE WHITMORE DR","PORT ST LUCIE","FL","34984"
135635,"245 SEASONS PARKWAY","NORCROSS","GA","30093"
135636,"245 SEVEN FARMS DRIVE SUITE 310","CHARLESTON","SC","29492"
135637,"245 SHORELINE DR","FAYETTEVILLE","GA","30215"
135638,"245 SOUTH 11TH AVENUE","MOUNT VERNON","NY","10550"
135639,"245 SOUTH COUNTY ROAD 200 WEST","GREENSBURG","IN","47240"
135640,"245 SOUTH FRANKLIN STREET","HOLBROOK","MA","02343"
135641,"245 SOUTH GRAND MESA DRIVE","CEDAREDGE","CO","81413"
135642,"245 STALLION TRL","RIVERDALE","GA","30274"
135643,"245 STEEPLECHASE DRIVE","EXTON","PA","19341"
135644,"245 SWEET GUM DRIVE","KYLE","TX","78640"
135645,"245 SYBLE LN","LONGVIEW","TX","75605"
135646,"245 TANGLEWOOD COURT","TAYLORSVILLE","KY","40071"
135647,"245 TIMBER LANE","HARPERS FERRY","WV","25425"
135648,"245 UNION STREET","LODI","NJ","07644"
135649,"245 W 104TH ST APT 11A","NEW YORK","NY","10025"
135650,"245 W 107TH STREET 3D","NEW YORK","NY","10025"
135651,"245 W 109TH ST APT 1","NEW YORK","NY","10025"
135652,"245 W 480 S","LA VERKIN","UT","84745"
135653,"245 W 83RD ST","LOS ANGELES","CA","90003"
135654,"245 W EIGHTH ST","MANTENO","IL","60950"
135655,"245 W J ST","PURCELLVILLE","VA","20132"
135656,"245 W MAIN ST","MISSOULA","MT","59802"
135657,"245 W QUEEN LANE APT 406","PHILADELPHIA","PA","19144"
135658,"245 WARREN AVE APT 4","FORT LEE","NJ","07024"
135659,"245 WAYNE ROAD SUITE A PMB 305","SAVANNAH","TN","38372"
135660,"245 WEST 123RD ST SUITE 3","NEW YORK","NY","10027"
135661,"245 WEST 200 NORTH","BEAVER","UT","84713"
135662,"245 WEST 99TH STREET  APT 5C","NEW YORK","NY","10025"
135663,"245 WEST 99TH STREET","NEW YORK","NY","10025"
135664,"245 WEST 9TH STREET45 WEST 9TH STRE","DEER PARK","NY","11772"
135665,"245 WEST A STREET","BRAWLEY","CA","92227"
135666,"245 WEST LAFAYETTE FRONTAGE ROAD","SAINT PAUL","MN","55107"
135667,"245 WEST LORAINE STREET STE 103","GLENDALE","CA","91202"
135668,"245 WILBUR JAMES ROAD","MANITOU","KY","42436"
135669,"245 WILDWOOD RD","BRIDGTON","ME","04009"
135670,"245 WINDWARD DR","PORT JEFFERSON","NY","11777"
135671,"245 WINTER STREET","WESTON","MA","02493"
135672,"245 WORTMAN AVENUE SUITE 1E","BROOKLYN","NY","11207"
135673,"245-10 147TH AVENUE","QUEENS","NY","11422"
135674,"245-18 NEWHALL AVE","ROSEDALE","NY","11422"
135675,"245-20 JERICHO TPKE","FLORAL PARK","NY","11001"
135676,"245-23 149TH DRIVE","ROSEDALE","NY","11422"
135677,"245-37 149TH ROAD","ROSEDALE","NY","11422"
135678,"245","LIZTON","IN","46149"
135679,"2450  W 4TH ST","YUMA","AZ","85364"
135680,"2450 17TH AVE STE 200","SANTA CRUZ","CA","95062"
135681,"2450 44TH ST S","ST PETE","FL","33711"
135682,"2450 44TH STREET SOUTH","SAINT PETERSBURG","FL","33711"
135683,"2450 AMBERWOOD LANE","COLORADO SPRINGS","CO","80920"
135684,"2450 ATLANTA HIGHWAY SUITE 1903","CUMMING","GA","30040"
135685,"2450 BENSON RDG","LITHONIA","GA","30058"
135686,"2450 BULLIS ROAD","ELMA","NY","14059"
135687,"2450 CAMELLIA LANE NE APT 1404","ATLANTA","GA","30324"
135688,"2450 CAMELLIA LANE NE APT 1507","ATLANTA","GA","30324"
135689,"2450 CANTERBURY LANE","NORTH BRUNSWICK","NJ","08902"
135690,"2450 CENTRAL AVE","ALAMEDA","CA","94501"
135691,"2450 COTTONWOOD AVE","BATON ROUGE","LA","70808"
135692,"2450 CUMMINS FERRY ROAD","SALVISA","KY","40372"
135693,"2450 DELHI COMMERCE DR STE 11","HOLT","MI","48842"
135694,"2450 E DESERT FLOWER LANE","PHOENIX","AZ","85048"
135695,"2450 E HILLSBOROUGH AVE APT 1306","TAMPA","FL","33610"
135696,"2450 E HILLSBOROUGH UNIT 1417","TAMPA","FL","33610"
135697,"2450 E LARKSPUR","PHOENIX","AZ","85032"
135698,"2450 EAST HILLSBOROUGH AVENUE  1304","TAMPA","FL","33610"
135699,"2450 FRAYSER BLVD","MEMPHIS","TN","38127"
135700,"2450 GENA ANN LN","FLINT","MI","48504"
135701,"2450 GIBRALTER DR","MANTECA","CA","95337"
135702,"2450 GRANT STREET","CONCORD","CA","94520"
135703,"2450 GRAYCE WYNDS DRIVE","SUPPLY","NC","28462"
135704,"2450 HAWKS PRESERVE DR","FORT MYERS","FL","33905"
135705,"2450 HEAVILIN ROAD","VALPARAISO","IN","46385"
135706,"2450 HEMMERT AVE","IDAHO FALLS","ID","83401"
135707,"2450 HOLLYWOOD BLVD  503","HOLLYWOOD","FL","33020"
135708,"2450 KENTIA ST","OXNARD","CA","93036"
135709,"2450 LAKESIDE PARKWAY STE 150 1008","FLOWER MOUND","TX","75022"
135710,"2450 LAKESIDE PKWY 146","FLOWER MOUND","TX","75022"
135711,"2450 LANTANA ROAD APT 2205","LANTANA","FL","33462"
135712,"2450 LINCOLN ST","HIGHLAND","IN","46322"
135713,"2450 LOUISIANA ST STE 400-436","HOUSTON","TX","77006"
135714,"2450 LOUISIANA ST STE 400-939","HOUSTON","TX","77006"
135715,"2450 LOUISIANA STREET STE 400 BOX 1","HOUSTON","TX","77004"
135716,"2450 LOUISIANA STREET SUITE 400-517","HOUSTON","TX","77006"
135717,"2450 LOUISIANA STREET SUITE 400-942","HOUSTON","TX","77006"
135718,"2450 LOUISIANA SUITE 400 NO 337","HOUSTON","TX","77006"
135719,"2450 MILFORD DR","SAN RAMON","CA","94582"
135720,"2450 MONTCLAIR ST","STOCKTON","CA","95205"
135721,"2450 MOUNT PLEASANT RD S","MOUNT PLEASANT","NC","28124"
135722,"2450 N 102TH DR","AVONDALE","AZ","85392"
135723,"2450 N REYNOLDS RD","TOLEDO","OH","43615"
135724,"2450 OAK HILL CIRCLE APARTMENT 224","FORT WORTH","TX","76109"
135725,"2450 OGDEN ROAD","UNION","NJ","07083"
135726,"2450 OLD RUSSELVILLE PIKE","CLARKSVILLE","TN","37040"
135727,"2450 PEACH TREE DRIVE SUITE 46","FAIRFIELD","CA","94533"
135728,"2450 PEREGRINE LOOP","MISSOULA","MT","59808"
135729,"2450 PRESIDENTS DRIVE","MONTGOMERY","AL","36116"
135730,"2450 REDWOOD RD","SEWARD","NE","68434"
135731,"2450 RIVA RD SECOND FLOOR","ANNAPOLIS","MD","21401"
135732,"2450 RYAN ROAD","WALLINGFORD","KY","41093"
135733,"2450 S SOVEREIGN CT","COTTONWOOD","AZ","86326"
135734,"2450 SE 37TH AVE APT 318","PORTLAND","OR","97214"
135735,"2450 SIESTA LN","OAKLAND","CA","94603"
135736,"2450 SOULT ST","MANDEVILLE","LA","70448"
135737,"2450 SOUTH CUMBERLAND STREET","MORRISTOWN","TN","37813"
135738,"2450 ST ROSE PKWY SUITE 120","HENDERSON","NV","89074"
135739,"2450 SW 137 AVE SUITE 221","MIAMI","FL","33175"
135740,"2450 TULARE PLACE","OXNARD","CA","93033"
135741,"2450 W BALL ROAD","ANAHEIM","CA","92804"
135742,"2450 W EASTWOOD AVE","CHICAGO","IL","60625"
135743,"2450 WATSON RD","ELLENSBURG","WA","98926"
135744,"2450 WEST COUNTRY CLUB ROAD","CLAREMORE","OK","74019"
135745,"2450 WINNETKA AVE N APT 520","GOLDEN VALLEY","MN","55427"
135746,"24500 E 6TH AVE","AURORA","CO","80018"
135747,"24500 NE 132ND CIRCLE","BRUSH PRAIRIE","WA","98606"
135748,"24500 PECAN POINTE DRIVE","PLAQUEMINE","LA","70764"
135749,"24500 SE 45TH WAY","ISSAQUAH","WA","98029"
135750,"24501 W 111TH STREET S","SAPULPA","OK","74066"
135751,"24502 COLONIAL MAPLE DRIVE","KATY","TX","77493"
135752,"24503 N 1050 EAST RD","CORNELL","IL","61319"
135753,"24504 COMET ST","CHRISTMAS","FL","32709"
135754,"24506 DUVAL ST","GARDEN CITY","MO","64747"
135755,"24507 BOTKINS RD","HOCKLEY","TX","77447"
135756,"24507 EAGLE HAVEN DRIVE","KATY","TX","77494"
135757,"24509 NE 11TH ST","REDMOND","WA","98074"
135758,"2451 162ND AVE NW","BISMARCK","ND","58503"
135759,"2451 ATRIUM WAY","NASHVILLE","TN","37214"
135760,"2451 AVENIDA CHAPARRAL","SANTA FE","NM","87505"
135761,"2451 BRICKELL AVE APT 3M","MIAMI","FL","33129"
135762,"2451 COPPERWOOD DR","ANCHORAGE","AK","99516"
135763,"2451 CUMBERLAND PARKWAY SUITE 3708","ATLANTA","GA","30339"
135764,"2451 CUMBERLAND PARKWAY","ATLANTA","GA","30339"
135765,"2451 CUMBERLAND PKWY SE SUITE 3136","ATLANTA","GA","30339"
135766,"2451 CUMBERLAND PKWY SE SUITE 3482","ATLANTA","GA","30339"
135767,"2451 CUMBERLAND PKWY SE SUITE 3707","ATLANTA","GA","30339"
135768,"2451 CUMBERLAND PKWY SE SUITE 3718","ATLANTA","GA","30339"
135769,"2451 CUMBERLAND PKWY STE 3917","ATLANTA","GA","30339"
135770,"2451 E BASELINE SUITE 130","GILBERT","AZ","85234"
135771,"2451 FAVOR RD","MARIETTA","GA","30060"
135772,"2451 GRIFFITH PARK BLVD 3-4","LOS ANGELES","CA","90039"
135773,"2451 LAKESIDE PARKVIEW UNIT 308","FLOWER MOUND","TX","75022"
135774,"2451 LEDGEWOOD DRIVE","COLORADO SPRINGS","CO","80921"
135775,"2451 LITTLE NECK RD","BLOOMINGDALE","GA","31302"
135776,"2451 MIDTOWN AVE UNIT 712","ALEXANDRIA","VA","22303"
135777,"2451 MONTE CRISTO WAY","SANFORD","FL","32771"
135778,"2451 MORAN STREET APT F","BURLINGTON","NC","27215"
135779,"2451 N DR MARTIN L KING JR DRIVE","MILWAUKEE","WI","53212"
135780,"2451 N KEDZIE BLVD","CHICAGO","IL","60647"
135781,"2451 N KEYSTONE AVE","INDIANAPOLIS","IN","46218"
135782,"2451 N MCMULLEN BOOTH RD STE 200","CLEARWATER","FL","33759"
135783,"2451 NW 41ST AVE APT 410","LAUERHILL","FL","33313"
135784,"2451 NW 50TH AVE","OCALA","FL","34482"
135785,"2451 NW 79TH STREET","MIAMI","FL","33147"
135786,"2451 ONEIDA ST UNIT B","PASADENA","CA","91107"
135787,"2451 PEACHTREE ROAD NE","ATLANTA","GA","30305"
135788,"2451 PLAYER COURT","DULUTH","GA","30096"
135789,"2451 PROFESSIONAL CT","LAS VEGAS","NV","89128"
135790,"2451 RIVER RD","HAMILTON","OH","45015"
135791,"2451 ROCKWOOD AVE STE 108","CALEXICO","CA","92231"
135792,"2451 SCHUETZ ROAD","MARYLAND HEIGHTS","MO","63043"
135793,"2451 SILVERADO TRL","GRAND PRAIRIE","TX","75052"
135794,"2451 TELEGRAPH AVENUE SUITE 104","OAKLAND","CA","94612"
135795,"2451 THOREAU DR","FORT COLLINS","MO","80524"
135796,"2451 W HOWARD STREET","CHICAGO","IL","60645"
135797,"2451 W MONTROSE AVE APT 1","CHICAGO","IL","60618"
135798,"2451 WARWICK CIR NE","ATLANTA","GA","30345"
135799,"2451 WEST HOWARD STREET APT 202","CHICAGO","IL","60645"
135800,"2451 WESTCHESTER AVE","BRONX","NY","10461"
135801,"2451 WOODHILL ROAD","CLEVELAND","OH","44104"
135802,"24511 RIDGE RD","DAMASCUS","MD","20872"
135803,"24512 EDGEWOOD RD","WEED","CA","96094"
135804,"24512 EDGEWOOD ROAD","WEED","CA","96094"
135805,"24515 VITNER COURT","LUTZ","FL","33549"
135806,"24516 KELLY LN","LINCOLN","MO","65338"
135807,"24518 PLANTATION DRIVE","NORTH DINWIDDIE","VA","23803"
135808,"24519 AVELLINO COURT","RICHMOND","TX","77406"
135809,"2452 BRONX PARK EAST","BRONX","NY","10467"
135810,"2452 COIT AVE NE","GRAND RAPIDS","MI","49505"
135811,"2452 COIT NE","GRAND RAPIDS","MI","49505"
135812,"2452 COLVIN BOULEVARD","TONAWANDA","NY","14150"
135813,"2452 DELMER ST","OAKLAND","CA","94602"
135814,"2452 EAST 43RD ST APT 209","CLEVELAND","OH","44104"
135815,"2452 EAST INDIGO BRUSH ROAD","PHOENIX","AZ","85048"
135816,"2452 EAST UNIVERSITY DRIVE SUITE 4","MESA","AZ","85213"
135817,"2452 FRANCES AVE","LA CRESCENTA","CA","91214"
135818,"2452 JEWEL ST","EAST POINT","GA","30344"
135819,"2452 LBANY ST APT1","SCHENECADY","NY","12304"
135820,"2452 MARCHMONT DRIVE","DAYTON","OH","45406"
135821,"2452 MEDALLION DR","UNION CITY","CA","94587"
135822,"2452 MISSOURI AVE","LAS CRUCES","NM","88001"
135823,"2452 MYRTLE AVE","HERMOSA BEACH","CA","90254"
135824,"2452 SOUTH HARRY T MOORE AVENUE","MIMS","FL","32754"
135825,"24521 CANYON DR","CANYON","TX","79015"
135826,"24523 DREW GAP","SAN ANTONIO","TX","78255"
135827,"24523 MARBELLA AV","CARSON","CA","90745"
135828,"24524 ARROWHEAD TRAIL","CLEVELAND","MN","56017"
135829,"24527 FLINT CREEK","SAN ANTONIO","TX","78255"
135830,"2453 BEACH STREET","OCEANO","CA","93445"
135831,"2453 CAMP FAITH ROAD","PENN RUN","PA","15765"
135832,"2453 DAMUTH ST APT 6","OAKLAND","CA","94602"
135833,"2453 E COLORADO BLVD","PASADENA","CA","91107"
135834,"2453 GOLDENROD LANE","PERRYSBURG","OH","43551"
135835,"2453 HARRIS TERRACE","HARRISBURG","PA","17104"
135836,"2453 INDUSTRIAL BLVD","GRAND JUNCTION","CO","81505"
135837,"2453 KINGFISHER LANE","WHEATFIELD","NY","14304"
135838,"2453 LYNNWAY CIRCLE","LAKELAND","FL","33805"
135839,"2453 MERIDIAN AVE","SAN JOSE","CA","95124"
135840,"2453 POPLAR CREEK ROAD","WILLIAMSBURG","KY","40769"
135841,"2453 RICKENBACKER ST","JACKSONVILLE","FL","32209"
135842,"2453 S ARCHER AVE SUITE B","CHICAGO","IL","60616"
135843,"2453 UNION BLVD APT 20B","ISLIP","NY","11751"
135844,"2453 VALLEY VIEW WAY","ELLICOTT CITY","MD","21043"
135845,"2453 WILDWOOD HARBOR ROAD","BOYNE CITY","MI","49712"
135846,"24530 FORD RD","DEARBORN","MI","48127"
135847,"24530 GOSLING RD APT 337","SPRING","TX","77389"
135848,"24531 LAKE ROAD","BAY VILLAGE","OH","44140"
135849,"24532 CLOUGH ROAD","ESCALON","CA","95320"
135850,"24532 VIA DEL ORO","LAGUNA NIGUEL","CA","92677"
135851,"24538 FELDER RD","PRAIRIE HOME","MO","65068"
135852,"2454 29TH STREET 2A","ASTORIA","NY","11102"
135853,"2454 ANTLER POINT DRIVE","HENDERSON","NV","89074"
135854,"2454 CAMERON DRIVE","UNION CITY","CA","94587"
135855,"2454 CECIL HEDLEY RD","PRESCOTT","MI","48756"
135856,"2454 FERNLEAF CT NW","ATLANTA","GA","30318"
135857,"2454 FORESTER ROAD","NEW MARKET","TN","37820"
135858,"2454 HORIZON VIEW LANE","RICHLAND","WA","99352"
135859,"2454 HUGHES AVE 3C","BRONX","NY","10458"
135860,"2454 JASPER GLN","ESCONDIDO","CA","92029"
135861,"2454 MEMORIAL DR STE A","ATLANTA","GA","30312"
135862,"2454 NE 59TH AVE","PORTLAND","OR","97213"
135863,"2454 NICOLAUS AVENUE","NICOLAUS","CA","95659"
135864,"2454 OCEAN PARKWAY","BROOKLYN","NY","11235"
135865,"2454 STATE ROUTE 655","BELLEVILLE","PA","17004"
135866,"2454 TIEBOUT AVE APT 2M","BRONX","NY","10458"
135867,"2454 W MCKINLEY AVE","MILWAUKEE","WI","53205"
135868,"2454 WEST PASEO BLVD","KANSAS CITY","MO","64108"
135869,"2454","EL GRANADA","CA","94018"
135870,"24540 62ND AVE","DOUGLASTON","NY","11362"
135871,"24545 FORTERRA","WARREN","MI","48089"
135872,"24545 MERIDIAN ROAD","GROSSE ILE","MI","48138"
135873,"24549 STAGG STREET","WEST HILLS","CA","91304"
135874,"2455 BENNETT VALLEY RD SUITE B 314","SANTA ROSA","CA","95403"
135875,"2455 BRASSFIELD RD","PONTOTOC","MS","38863"
135876,"2455 COUNTY RD E EAST","WHITE BEAR LAKE","MN","55110"
135877,"2455 COUNTY ROAD 58","MANVEL","TX","77578"
135878,"2455 DELOWE DR","EAST POINT","GA","30344"
135879,"2455 DUNSTAN ROAD - APT 138","HOUSTON","TX","77005"
135880,"2455 E PARKWAY","GATLINBURG","TN","37738"
135881,"2455 EAST MARILYN ROAD","PHOENIX","AZ","85032"
135882,"2455 GREEN COOK RD","JOHNSTOWN","OH","43031"
135883,"2455 HAYWARD ST","ANN ARBOR","MI","48109"
135884,"2455 HIDDEN LAKE ROAD","WARSAW","IN","46580"
135885,"2455 HUME LN","ENOLA","PA","17025"
135886,"2455 HWY 116","CARYVILLE","TN","37714"
135887,"2455 LEONA ST","FORNEY","TX","75126"
135888,"2455 LINDELL BLVD APT 3510","DELRAY BEACH","FL","33444"
135889,"2455 MAPLE STREET","SNELLVILLE","GA","30078"
135890,"2455 MCDONALD AVENUE FL 2","BROOKLYN","NY","11223"
135891,"2455 NAGLEE ROAD","TRACY","CA","95304"
135892,"2455 PAMPLONA LANE","LEAGUE CITY","TX","77573"
135893,"2455 RACE ST","DENVER","CO","80205"
135894,"2455 RIDGE RD  STE 151","ROCKWALL","TX","75087"
135895,"2455 ROBISON ROAD WEST","ERIE","PA","16509"
135896,"2455 SHEPARD DRIVE","FREEPORT","IL","61032"
135897,"2455 SIXTH STREET NW","WASHINGTON","DC","20059"
135898,"2455 VERNAL DR","PITTSBURG","CA","94565"
135899,"2455 W MORE DR","ROCKPORT","IN","47635"
135900,"2455 W OHIO STREET UNIT 10W","CHICAGO","IL","60612"
135901,"2455 WESTINGHOUSE RD","GEORGETOWN","TX","78626"
135902,"2455 WHITEHORSE STREET","DELTONA","FL","32738"
135903,"2455 WILLAKENZIE ROAD","EUGENE","OR","97401"
135904,"2455 WYTHE PL","YORKVILLE","IL","60560"
135905,"24550 TAREE BLVD NE","KINGSTON","WA","98346"
135906,"24551 DEL PRADO  938","DANA POINT","CA","92629"
135907,"24551 RAYMOND WAY STE 150","LAKE FOREST","CA","92630"
135908,"24551 RAYMOND WAY UNIT 155","LAKE FOREST","CA","92630"
135909,"24551 S 600 RD","GROVE","OK","74344"
135910,"24552 CASHMERE COURT","SOUTHFIELD","MI","48033"
135911,"24552 ROSALIND AVE","EASTPOINTE","MI","48021"
135912,"24554 PINE TREE DRIVE","LEBANON","MO","65536"
135913,"24554 TESORO WAY","RAMONA","CA","92065"
135914,"24555 SOUTH NAVAJO DRIVE","CHANNAHON","IL","60410"
135915,"24555 SOUTHFIELD RD 100","SOUTHFIELD","MI","48075"
135916,"24555 THATCHER DR","NOVI","MI","48375"
135917,"24555 WALDEN ROAD","ABINGDON","VA","24210"
135918,"2456 20TH ST NW UNIT B","WASHINGTON","DC","20009"
135919,"2456 BURNS AVE","MELBOURNE","FL","32935"
135920,"2456 DONNA DR SUITE 204","CAHOKIA","IL","62206"
135921,"2456 E STREET","WASHOUGAL","WA","98671"
135922,"2456 NE ELAINE ST","JENSEN BEACH","FL","34957"
135923,"2456 NW SCHMIDT WAY   284","BEAVERTON","OR","97006"
135924,"2456 PINE CHASE CIRCLE","SAINT CLOUD","FL","34769"
135925,"2456 RACCOON ROAD","ROBINSON","KS","66532"
135926,"2456 S BUENOS AIRES DR","COVINA","CA","91724"
135927,"2456 S BUENOS AIRES DRIVE","COVINA","CA","91724"
135928,"2456 SADDLERIDGE DR","MIDWAY PARK","NC","28544"
135929,"2456 SE 84TH AVE","PORTLAND","OR","97216"
135930,"2456 WROTHAM TERRACE","WELLINGTON","FL","33414"
135931,"24562 FOLKSTONE CIR","KATY","TX","77494"
135932,"2457 26TH AVENUE","SACRAMENTO","CA","95822"
135933,"2457 BRIANNA DR","HAMPTON","GA","30228"
135934,"2457 MASSACHUSETTS ST","GARY","IN","46407"
135935,"2457 MONTE CARLO DRIVE","HOWELL","MI","48843"
135936,"2457 N SUNSET FARM RD","KUNA","ID","83634"
135937,"2457 NW 12TH PLACE","GAINESVILLE","FL","32605"
135938,"2457 SOFT MAPLE STREET","DORAVILLE","GA","30360"
135939,"2457 W 2500 N","CLINTON","UT","84015"
135940,"24572 MOSQUERO LANE","MISSION VIEJO","CA","92691"
135941,"24576 PO BOX","FORT WORTH","TX","76124"
135942,"24576 TERRITORIAL HWY","MONROE","OR","97456"
135943,"24577 MARY N SMITH","ACCOMAC","VA","23301"
135944,"24579 GABRIEL STREET","MORENO VALLEY","CA","92551"
135945,"2458 ALMADEN ROAD","SAN JOSE","CA","95125"
135946,"2458 FENTON AVE","BRONX","NY","10469"
135947,"2458 LYNN LAKE CIR S APT A BLDG 62","ST PETERSBURG","FL","33712"
135948,"2458 MEMORIAL DRIVE SE STE A","ATLANTA","GA","30317"
135949,"2458 N GETTYSBURG AVE 117","DAYTON","OH","45406"
135950,"2458 NE 1ST STREET","HOMESTEAD","FL","33033"
135951,"2458 NEWPORT BLVD ROOM 231","COSTA MESA","CA","92627"
135952,"2458 NEWPORT BLVD STE 182","COSTA MESA","CA","92627"
135953,"2458 RUSHLAND COURT","WALDORF","MD","20603"
135954,"2458 S 289TH EAST AVE","BROKEN ARROW","OK","74014"
135955,"24581 WOODCREEK DR","LAGUNA HILLS","CA","92653"
135956,"24582 DEL PRADO AVE 207","DANA POINT","CA","92629"
135957,"24582 DEL PRADO AVE UNIT 207","DANA POINT","CA","92629"
135958,"24584 EBELDEN AVENUE","NEWHALL","CA","91321"
135959,"24585 VIEJAS GRADE ROAD","DESCANSO","CA","91916"
135960,"24587 HIGHWAY 281 SOUTH","SAN ANTONIO","TX","78264"
135961,"2459 10TH AVENUE UPPER COTTAGE","HONOLULU","HI","96816"
135962,"2459 CABIN HILL RD","NASHVILLE","TN","37214"
135963,"2459 CACTUS HILL DR","LAS VEGAS","NV","89156"
135964,"2459 COUNTY HWY 34","HALEYVILLE","AL","35565"
135965,"2459 DAKOTA LAKES DR","HERNDON","VA","20171"
135966,"2459 EAST 3995 SOUTH","ST GEORGE","UT","84790"
135967,"2459 OVERLOOK ROAD APT 7","CLEVELAND HEIGHTS","OH","44106"
135968,"2459 ROOSEVELT HIGHWAY  STE A-1","ATLANTA","GA","30337"
135969,"2459 ROOSEVELT HWY STE A-1","COLLEGE PARK","GA","30337"
135970,"2459 S GINGER ST","CORNELIUS","OR","97113"
135971,"2459 SE TUALATIN VALLEY HIGHWAY 182","HILLSBORO","OR","97123"
135972,"2459 SE TUALATIN VALLEY HWY BOX 254","HILLSBORO","OR","97123"
135973,"2459 SE TUALATIN VALLEY HWY PMB 217","HILLSBORO","OR","97123"
135974,"2459 SPRUCEWOOD STREET","ANCHORAGE","AK","99508"
135975,"2459 VALLEY HILLS TRAIL NW","CLEVELAND","TN","37311"
135976,"2459 WILKINSON BLVD SUITE 310","CHARLOTTE","NC","28208"
135977,"2459 WINNERS CIRCLE","ST JOHNS","MI","48879"
135978,"24591 JEREMIAH DRIVE","DANA POINT","CA","92629"
135979,"24592 MEADOW GRASS WAY","MORENO VALLEY","CA","92557"
135980,"24596 HOLLYTREE CIRCLE","GEORGETOWN","DE","19947"
135981,"24599 PICARA DR","NOVI","MI","48374"
135982,"246 7TH ST","APALACHICOLA","FL","32320"
135983,"246 ANN WILSON RD","DERBY","VT","05829"
135984,"246 AUBURN STREET   APT  51","PORTLAND","ME","04103"
135985,"246 AYERS CT","TALLAHASSEE","FL","32305"
135986,"246 BEACH 127TH STREET","BELLE HARBOR","NY","11694"
135987,"246 BOSS BROWN ROAD","ALBANY","KY","42602"
135988,"246 BROAD STREET","CLAREMONT","NH","03743"
135989,"246 BRUCKNER AVE","STATEN ISLAND","NY","10303"
135990,"246 BURKE AVE","TOWSON","MD","21286"
135991,"246 CHOPMIST HILL ROAD","CHEPACHET","RI","02814"
135992,"246 CLARKS VALLEY ROAD","TOWER CITY","PA","17980"
135993,"246 CLINTON ST","BINGHAMTON","NY","13905"
135994,"246 CONNELLY DRIVE","JEFFERSON","WI","53549"
135995,"246 COXS BEND LANE","HUMPHREY","AR","72073"
135996,"246 E 200 N","BOUNTIFUL","UT","84010"
135997,"246 E BLACKSTOCK RD STE I","SPARTANBURG","SC","29301"
135998,"246 E TOSCANA DRIVE","SAN TAN VALLEY","AZ","85140"
135999,"246 EAGLE PASS","ROYSE CITY","TX","75189"
136000,"246 EARLY TRL","SAN ANTONIO","TX","78228"
