"ID","Address","City","State","Zip"
64001,"1460 CLOVIS AVE","CLOVIS","CA","93612"
64002,"1460 CR 770","NACOGDOCHES","TX","75964"
64003,"1460 CREE RD","FREMONT","CA","94539"
64004,"1460 CYPRESS CT","GILROY","CA","95020"
64005,"1460 DOUGLAS CT","MARION","IA","52302"
64006,"1460 DOUGLAS LANE","CRETE","IL","60417"
64007,"1460 DUET DRIVE","DALLAS","TX","75241"
64008,"1460 E LEAFLAND AVE","DECATUR","IL","62521"
64009,"1460 EAST CLEVELAND AVE","EAST POINT","GA","30344"
64010,"1460 EAST HOLT AVENUE","POMONA","CA","91767"
64011,"1460 FAIRINGTON DRIVE NW   101","CONCORD","NC","28027"
64012,"1460 GLENPEAK DRIVE","MARYLAND HEIGHTS","MO","63043"
64013,"1460 HEATH LN","NORTH PORT","FL","34286"
64014,"1460 HOOLAULEA STREET","PEARL CITY","HI","96782"
64015,"1460 HOWELLS GROVE RD","GREENSBORO","GA","30642"
64016,"1460 HWY 78 W","OKEECHOBEE","FL","34974"
64017,"1460 JANS PLACE","PAHRUMP","NV","89048"
64018,"1460 JOY STREET","ALGER","MI","48610"
64019,"1460 KEY PKWY APT 202","FREDERICK","MD","21702"
64020,"1460 KEYSVILLE BRUCEVILLE RD","KEYMAR","MD","21757"
64021,"1460 MARBLE AVENUE","SANDY VALLEY","NV","89019"
64022,"1460 MARTINEZ LOSOYA ROAD","SAN ANTONIO","TX","78221"
64023,"1460 MCGAVOCK PIKE","NASHVILLE","TN","37216"
64024,"1460 MEMORIAL DRIVE SE APT B7","ATLANTA","GA","30317"
64025,"1460 MONROE 1","MEMPHIS","TN","38104"
64026,"1460 MOUNT ZION ROAD","WEEDVILLE","PA","15868"
64027,"1460 NOE BIXBY RD","COLUMBUS","OH","43232"
64028,"1460 NORTH AVE NE","ATLANTA","GA","30307"
64029,"1460 NW 107 AVE SUITE Q","MIAMI","FL","33172"
64030,"1460 NW 183RD STREET","MIAMI GARDENS","FL","33169"
64031,"1460 NW 32ND TERRACE","LAUDERHILL","FL","33311"
64032,"1460 PIONEER ROAD NO 3","CREST HILL","IL","60403"
64033,"1460 PRAIRIE STREET","BEAUMONT","TX","77701"
64034,"1460 S MAIN STREET","WALNUT CREEK","CA","94596"
64035,"1460 SIMPSON ST","ST PAUL","MN","55108"
64036,"1460 UNIVERSITY DRIVE","WINCHESTER","VA","22601"
64037,"1460 US HWY 76","HIAWASSEE","GA","30546"
64038,"1460 W BOROS CT","LA HABRA","CA","90631"
64039,"1460 W CORBETT AVE","SWANSBORO","NC","28584"
64040,"1460 WEST MCNAB ROAD","FORT LAUDERDALE","FL","33309"
64041,"1460 WEST TYSON ROAD","PORTLAND","IN","47371"
64042,"14600 34TH AVE UNIT 132","PLYMOUTH","MN","55447"
64043,"14600 BANKS ODEE ROAD","NEWBURG","MD","20664"
64044,"14600 BURT RD","HUDSON","MI","49247"
64045,"14600 CEMETERY ROAD","NOBLE","OK","73068"
64046,"14600 DEERWOOD COURT","PERRYSBURG","OH","43551"
64047,"14600 DIX TOLEDO ROAD","SOUTHGATE","MI","48195"
64048,"14600 DONEGAL COURT","BOWIE","MD","20721"
64049,"14600 E 127TH STREET","LEMONT","IL","60439"
64050,"14600 E 34TH ST S","INDEPENDENCE","MO","64055"
64051,"14600 E COLOSSAL CAVE ROAD","VAIL","AZ","85641"
64052,"14600 FM 2904","TEMPLE","TX","76501"
64053,"14600 HUFFMEISTER RD APT 10108","CYPRESS","TX","77429"
64054,"14600 INGLEWOOD UNIT 30","LAWNDALE","CA","90260"
64055,"14600 LARCH AVE","LAWNDALE","CA","90260"
64056,"14600 TALLEYWOOD CT","CHESTER","VA","23831"
64057,"14600 WOODSON PARK DRIVE","HOUSTON","TX","77004"
64058,"14601 46TH AVE NE","MARYSVILLE","WA","98271"
64059,"14601 BARNEY DR","MINT HILL","NC","28227"
64060,"14601 BELLAIRE BLVD 228","HOUSTON","TX","77083"
64061,"14601 BELLAIRE BLVD UNIT 271","HOUSTON","TX","77083"
64062,"14601 COOPER ROAD","PHOENIX","MD","21131"
64063,"14601 DAWN COURT","BOWIE","MD","20721"
64064,"14601 HONEYCOMB DR","LEANDER","TX","78641"
64065,"14601 HOTEL ROAD SUITE 101","MIRAMAR","FL","33027"
64066,"14601 LIMA ROAD SUITE 100","FORT WAYNE","IN","46818"
64067,"14601 SOUTH YODER RD","HAVEN","KS","67543"
64068,"14601 SW 168TH AVE","INDIANTOWN","FL","34956"
64069,"14602 FRISCO CT","WOODBRIDGE","VA","22193"
64070,"14602 LORCA DR","LA MIRADA","CA","90638"
64071,"14602 MINNIEVILLE ROAD","DALE CITY","VA","22193"
64072,"14602 MISSION HILLS DR","HOUSTON","TX","77083"
64073,"14602 PARKWAY CIRCLE","ALEXANDER","AR","72002"
64074,"14602 PRESIDIO SQUARE BLVD","HOUSTON","TX","77083"
64075,"14602 THORNLAKE AVENUE","NORWALK","CA","90650"
64076,"14603 HUEBNER RD STE 2403SAN ANTONI","SAN ANTONIO","TX","78230"
64077,"14603 WHITE PINE DRIVE","BAXTER","MN","56425"
64078,"14604 TOKAY AVE","MAPLE HTS","OH","44137"
64079,"14605 DIXIE HWY","LOUISVILLE","KY","40272"
64080,"14605 EAGLEMONT DR","LITTLE ELM","TX","75068"
64081,"14605 ELM STREET  774","UPPER MARLBORO","MD","20774"
64082,"14605 ELM STREET  STE 365","UPPER MARLBORO","MD","20773"
64083,"14605 ELM STREET BOX 2489","UPPER MARLBORO","MD","20773"
64084,"14606 DEACON COURT","SPRING HILL","FL","34609"
64085,"14606 HEARTHSTONE MEADOWS DR","HOUSTON","TX","77095"
64086,"14607 318TH ST E","GRAHAM","WA","98338"
64087,"14607 6 MILE CYPRESS PARKWAY","FORT MYERS","FL","33912"
64088,"14607 GREENBELT CIRCLE","URBANDALE","IA","50323"
64089,"14607 NE 375TH STREET","LA CENTER","WA","98629"
64090,"14607 SHAKER BLVD","SHAKER HEIGHTS","OH","44120"
64091,"14608 VAN NESS AVE","GARDENA","CA","90249"
64092,"14609 EAST 24TH AVENUE","AURORA","CO","80011"
64093,"14609 S OAK ST","GLENPOOL","OK","74033"
64094,"14609 WESTBURY RD","ROCKVILLE","MD","20853"
64095,"1461 AARONWOOD DR","OLD HICKORY","TN","37138"
64096,"1461 BATTLEGROUND DR","MURFREESBORO","TN","37129"
64097,"1461 BEAVERTON TRAIL","WINSTON SALEM","NC","27103"
64098,"1461 BLOOD BROOK ROAD","FAIRLEE","VT","05045"
64099,"1461 CARON COURT","PERRIS","CA","92571"
64100,"1461 COOK STREET","DE PERE","WI","54115"
64101,"1461 DEWEY STREET","JASPER","IN","47546"
64102,"1461 DUDLEY AVE","MUSKEGON","MI","49442"
64103,"1461 LANTANA DRIVE","WESTON","FL","33326"
64104,"1461 LARKIN WILLIAMS ROAD","FENTON","MO","63026"
64105,"1461 LEEGATE ROAD NW","WASHINGTON","DC","20012"
64106,"1461 LESCHI PL","FOX ISLAND","WA","98333"
64107,"1461 MEADE ST","DENVER","CO","80204"
64108,"1461 MILLICENT ROGERS ROAD","EL PRADO","NM","87529"
64109,"1461 MONTEREY RD 28E","SEAL BEACH","CA","90740"
64110,"1461 N 1ST ST","HARRAH","OK","73045"
64111,"1461 N SCHOO STREET","HONOLULU","HI","96817"
64112,"1461 NORTH MANGONIA DRIVE","WEST PALM BEACH","FL","33401"
64113,"1461 NW 20TH ST SUITE C","FT LAUDERDALE","FL","33311"
64114,"1461 OLD ANDERSON MILL ROAD","MOORE","SC","29369"
64115,"1461 REAM ROAD","INDIANA","PA","15701"
64116,"1461 S PALMETTO AVE","ONTARIO","CA","91762"
64117,"1461 SCHOOL ST","HONOLULU","HI","96817"
64118,"1461 STRINGTOWN ROAD","HICO","WV","25854"
64119,"1461 SW 12TH AVENUE UNIT A","POMPANO BEACH","FL","33069"
64120,"1461 VERNAL ROAD","MART","TX","76664"
64121,"1461 W RIVERSIDE AVE","SUNNYSIDE","WA","98944"
64122,"1461 W SEPULVEDA ST","SAN PEDRO","CA","90732"
64123,"1461 WEST MAIN STREET","SALEM","VA","24153"
64124,"1461 WINDORAH WAY APT F","ROYAL PALM BEACH","FL","33411"
64125,"14610 330TH ST","STRAWBERRY POINT","IA","50674"
64126,"14610 APRIL ST","ACCOKEEK","MD","20607"
64127,"14610 RIVER ROAD","NOBLESVILLE","IN","46062"
64128,"14610 SW 99 AVENUE","MIAMI","FL","33176"
64129,"14610 TURNING POINT CT","HOUSTON","TX","77015"
64130,"14610 W LINCOLN RD","SPOKANE","WA","99224"
64131,"14611 ARPENT LN","FLORISSANT","MO","63034"
64132,"14611 BEN C PRATT/ SIX MILE CYPRESS","FORT MYERS","FL","33912"
64133,"14611 LOGAN FALLS LANE","HUMBLE","TX","77396"
64134,"14611 PEARL LAKE DRIVE","DETROIT LAKES","MN","56501"
64135,"14611 SE 279TH PLACE","KENT","WA","98042"
64136,"14611 SOUTERN BLVD STE 454","LOXAHATCHEE","FL","33470"
64137,"14611 SOUTHERN BLVD  412","LOXAHATCHEE","FL","33414"
64138,"14611 SOUTHERN BLVD UNIT 692","LOXAHATCHEE","FL","33470"
64139,"14612 BELLA COURTE","WHITTIER","CA","90604"
64140,"14612 FM 514","YANTIS","TX","75497"
64141,"14612 MAIN STREET","UPPER MARLBORO","MD","20772"
64142,"14612 WASHINGTON ST","HAYMARKET","VA","20169"
64143,"14613 CHADWICK STREET","LEAWOOD","KS","66224"
64144,"14613 N KELLY AVE","EDMOND","OK","73013"
64145,"14614 FRISCO CT","WOODBRIDGE","VA","22193"
64146,"14614 STONEBRIAR WAY","ORLANDO","FL","32826"
64147,"14614 VANCE JACKSON RD 3207","SAN ANTONIO","TX","78249"
64148,"14614 VANCE JACKSON ROAD 9203","SAN ANTONIO","TX","78249"
64149,"14615 CREEK CLUB DR","MILTON","GA","30004"
64150,"14615 EMERALD CYPRESS LANE","CYPRESS","TX","77429"
64151,"14615 NORTH MIAMI AVE","MIAMI","FL","33168"
64152,"14615 PALM ST","ADELANTO","CA","92301"
64153,"14615 RIALTO DR","CHESTERFIELD","MO","63017"
64154,"14615 ST RT PP","KOSHKONONG","MO","65692"
64155,"14615 WOOD ROAD","RIVERSIDE","CA","92508"
64156,"14616 AFTON BLVD SOUTH","AFTON","MN","55001"
64157,"14616 BLACKBURN ROAD","BURTONSVILLE","MD","20866"
64158,"14616 MAGNOLIA BLVD APT 1","SHERMAN OAKS","CA","91403"
64159,"14618 MONET DRIVE","EASTVALE","CA","92880"
64160,"14618 MOSS CREEK LN","CYPRESS","TX","77429"
64161,"14618 TYLER FOOTE RD SUITE 210","NEVADA CITY","CA","95959"
64162,"14619 31ST DR SE","MILL CREEK","WA","98012"
64163,"14619 MEREDITH GATE CIRCLE","HOUSTON","TX","77044"
64164,"14619 SW 154 CT","MIAMI","FL","33196"
64165,"14619 TAYMOUTH DRIVE","HOUSTON","TX","77084"
64166,"14619 VALLEY VIEW ROAD","MOUNT HOPE","WI","53816"
64167,"1462 76TH AVE","OAKLAND","CA","94621"
64168,"1462 ARAPAHOE WAY","SAINT CHARLES","MO","63304"
64169,"1462 COMMERCIAL ST NE","SALEM","OR","97301"
64170,"1462 COW CAMP ROAD","NEWLAND","NC","28657"
64171,"1462 EVERGLADES BLVD N","NAPLES","FL","34120"
64172,"1462 FIDDLERS MARSH DR","MT PLEASANT","SC","29464"
64173,"1462 HIGHWAY 15","SPEARSVILLE","LA","71277"
64174,"1462 N SCOTTSDALE RD","TEMPE","AZ","85281"
64175,"1462 OLSON RD","MANISTEE","MI","49660"
64176,"1462 SHADY OAK ROAD","PINCKNEYVILLE","IL","62274"
64177,"1462 SNYDER GULCH RD","EVERGREEN","CO","80439"
64178,"1462 SW 17TH ST","MIAMI","FL","33145"
64179,"1462 TWIXT TOWN ROAD","MARION","IA","52302"
64180,"14620 BATAVIA DRIVE","CENTREVILLE","VA","20120"
64181,"14620 KRISTENRIGHT LN","ORLANDO","FL","32826"
64182,"14620 S JUSTINE ST","HARVEY","IL","60426"
64183,"14620 SW 173 STREET","MIAMI","FL","33177"
64184,"14621 PENNSYLVANIA AVE","HAGERSTOWN","MD","21742"
64185,"14621 RIO RANCHO","SAN DIEGO","CA","92127"
64186,"14622 BROCKWOOD DRIVE","HOUSTON","TX","77047"
64187,"14622 UNDERWOOD CREEK WAY","HOUSTON","TX","77062"
64188,"14622 VENTURA BL STE 2135","SHERMAN OAKS","CA","91403"
64189,"14622 VENTURA BLVD STE 1001","SHERMAN OAKS","CA","91403"
64190,"14622 VENTURA BLVD STE 102-373","SHERMAN OAKS","CA","91403"
64191,"14622 VENTURA BLVD STE 102","SHERMAN OAKS","CA","91403"
64192,"14622 VENTURA BLVD STE 736","SHERMAN OAKS","CA","91403"
64193,"14622 VENTURA BLVD STE 777","SHERMAN OAKS","CA","91403"
64194,"14622 VENTURA BLVD SUITE 102-814","SHERMAN OAKS","CA","91403"
64195,"14622 VENTURA BLVD SUITE 2022","SHERMAN OAKS","CA","91403"
64196,"14622 VENTURA BLVD SUITE 2047","SHERMAN OAKS","CA","91403"
64197,"14623 ARGOS PLACE","UPPER MARLBORO","MD","20774"
64198,"14623 FELLRATH ST","TAYLOR","MI","48180"
64199,"14624 HARVESTER DRIVE","GRANGER","IN","46530"
64200,"14624 PURITAS AVENUE 301","CLEVELAND","OH","44135"
64201,"14624 RAVENWOOD RD SE","MONROE","WA","98272"
64202,"14625 BALTIMORE AVE NUM 856","LAUREL","MD","20707"
64203,"14625 BALTIMORE AVENUE  STE 256","LAUREL","MD","20707"
64204,"14625 BALTIMORE AVENUE SUITE 333","LAUREL","MD","20707"
64205,"14625 CALIFORNIA STREET","OMAHA","NE","68154"
64206,"14625 NE 4TH AVE","MIAMI","FL","33161"
64207,"14625 SE 63RD STREET","BELLEVUE","WA","98006"
64208,"14625 SW 75TH AVE","PALMETTO BAY","FL","33158"
64209,"14625 WATERTOWN PLANK ROAD","ELM GROVE","WI","53122"
64210,"14626 COUNTY ROAD 234","TERRELL","TX","75160"
64211,"14626 HOUSTON WHITTIER ST","DETROIT","MI","48205"
64212,"14627 ALMANAC DR","BUTRONSVILLE","MD","20866"
64213,"14627 BATAVIA DR","CENTREVILLE","VA","20120"
64214,"14627 DAVIS TRACE DRIVE","CHARLOTTE","NC","28227"
64215,"14627 E PARADISE DR","SCOTTSDALE","AZ","85268"
64216,"14628 LAKETOWN DR","BATON ROUGE","LA","70810"
64217,"14628 PINTO LN","ROCKVILLE","MD","20850"
64218,"14629 LAQUINTA DR","GRANDVIEW","MO","64030"
64219,"14629 SAN PABLO AVE","SAN PABLO","CA","94806"
64220,"14629 SW 104 ST  APT 101","MIAMI","FL","33186"
64221,"14629 SW 104 ST APT 101","MIAMI","FL","33186"
64222,"14629 SW 104 STREET  SUITE 215","MIAMI","FL","33186"
64223,"14629 SW 104 STREET SUITE 141","MIAMI","FL","33186"
64224,"14629 SW 104 STREET SUITE 466","MIAMI","FL","33186"
64225,"14629 TYNEWICK TERRACE","SILVER SPRING","MD","20906"
64226,"1463 162ND AVENUE NW","ANDOVER","MN","55304"
64227,"1463 28TH AVENUE","SAN FRANCISCO","CA","94122"
64228,"1463 BEACONSFIELD AVE APT 2N","GROSSE POINTE PARK","MI","48230"
64229,"1463 BROOKSTONE RD","HEPHZIBAH","GA","30815"
64230,"1463 DE LA VINA STREET","CHULA VISTA","CA","91913"
64231,"1463 DEL MAR DRIVE","IRVING","TX","75060"
64232,"1463 E VINE STREET","MURRAY","UT","84121"
64233,"1463 MARION DR","LAS VEGAS","NV","89110"
64234,"1463 MCCLURE ROAD","AURORA","IL","60505"
64235,"1463 MOFFAT BLVD STE 9","MANTECA","CA","95336"
64236,"1463 MOFFAT BLVD STE 9F","MANTECA","CA","95336"
64237,"1463 MULBERY LANE","ST. JOSEPH","MI","49085"
64238,"1463 STURBRIDGE COURT","DUNEDIN","FL","34698"
64239,"1463 TAMPA PARK PLAZA","TAMPA","FL","33605"
64240,"1463 W PRESTON VILLA COVE","WEST JORDAN","UT","84088"
64241,"1463 W UNCAS ROAD","PORT TOWNSEND","WA","98368"
64242,"14630 NOBLE AVENUE","SAN JOSE","CA","95132"
64243,"14631 CARNELIAN GLEN CT","SARATOGA","CA","95070"
64244,"14631 CORKWOOD DRIVE","TAMPA","FL","33626"
64245,"14631 S PRINCETON AVE","DOLTON","IL","60419"
64246,"14633 BEACHVIEW TERRACE","DOLTON","IL","60419"
64247,"14633 BROHL DR","WARREN","MI","48088"
64248,"14633 S UNIVERSITY","DOLTON","IL","60419"
64249,"14635 229TH STREET","SPRINGFIELD GARDENS","NY","11413"
64250,"14635 BLUE SKY ROAD","HACIENDA HEIGHTS","CA","91745"
64251,"14635 GOLDEN APPALOOSA CIRCLE","HOUSTON","TX","77044"
64252,"14635 LAKE MEADOWS DRIVE","PERRYSBURG","OH","43551"
64253,"14635 PENROD","DETROIT","MI","48223"
64254,"14635 S HARRELLS FERRY RD STE 1A","BATON ROUGE","LA","70816"
64255,"14636 150TH STREET","BONNER SPRINGS","KS","66012"
64256,"14636 417TH AVE","MABEL","MN","55954"
64257,"14636 GIDDYUP LANE","HUDSON","FL","34669"
64258,"14636 NE 38TH STREET APT 1035","BELLEVUE","WA","98007"
64259,"14636 STATE ROUTE 698","FINDLAY","OH","45840"
64260,"14636 SW 99 ST","MIAMI","FL","33186"
64261,"14637 KIMBARK AVENUE","DOLTON","IL","60419"
64262,"14637 N 43RD PL","PHOENIX","AZ","85032"
64263,"14638 BRIARLY PLACE","UPPER MARLBORO","MD","20774"
64264,"14638 INDIAN PAINTBRUSH RD","ADELANTO","CA","92301"
64265,"14639 HAMETOWN RD","DOYLESTOWN","OH","44230"
64266,"14639 PAINTED PONY CT","VICTORVILLE","CA","92394"
64267,"14639 WOODMONT","DETROIT","MI","48227"
64268,"1464 A HOPEWELL RD","HAYS","KS","67601"
64269,"1464 BLACKWING WAY","GILROY","CA","95020"
64270,"1464 BROOKE VALLEY CT","BROADVIEW HEIGHTS","OH","44147"
64271,"1464 BUSHWICK AVE APT 2R","BROOKLYN","NY","11207"
64272,"1464 CAROLINA AVENUE","ORANGEBURG","SC","29115"
64273,"1464 CONCORD RD","COLUMBUS","MS","39702"
64274,"1464 CULPEPPER AVE","CHESAPEAKE","VA","23323"
64275,"1464 E WHITESTONE BLVD STE 1101","CEDAR PARK","TX","78613"
64276,"1464 EAST 95TH STREET","BROOKLYN","NY","11236"
64277,"1464 EAST WHITESTONE BLVD SUITE 401","CEDAR PARK","TX","78613"
64278,"1464 GRENADIER CT SW","WYOMING","MI","49509"
64279,"1464 HALEKOA DRIVE","HONOLULU","HI","96821"
64280,"1464 HERMINIE WEST NEWTON RD","HERMINIE","PA","15637"
64281,"1464 KERR AVE","MEMPHIS","TN","38106"
64282,"1464 KINGSTOWN RD","WAKEFIELD","RI","02879"
64283,"1464 MADERA RD N132","SIMI VALLEY","CA","93065"
64284,"1464 MADERA RD UNIT N343","SIMI VALLEY","CA","93065"
64285,"1464 MADERA ROAD STE N131","SIMI VALLEY","CA","93063"
64286,"1464 MISSOURI ST","SAN DIEGO","CA","92109"
64287,"1464 OAKLEY STREET","BRONX","NY","10469"
64288,"1464 ROXANNA ROAD NW","WASHINGTON","DC","20012"
64289,"1464 RUSTYS LN","CLARKSVILLE","TN","37042"
64290,"1464 S MICHIGAN AVE  SUITE 1010","CHICAGO","IL","60605"
64291,"1464 S MICHIGAN AVE APT 1407","CHICAGO","IL","60605"
64292,"1464 SARDIS LAKE DRIVE","BATESVILLE","MS","38606"
64293,"1464 SE 37TH AVE","HILLSBORO","OR","97123"
64294,"1464 SOUTH HILL ROAD","LUDLOW","VT","05149"
64295,"1464 SWEET BOTTOM CIR SW","MARIETTA","GA","30064"
64296,"1464 TREVOR LANE","LAWRENCEVILLE","GA","30043"
64297,"1464 WEST 3400 NORTH","PLEASANT GROVE","UT","84062"
64298,"14640 ENDSLEY TURN","WOODBRIDGE","VA","22193"
64299,"14640 GROTE RD","SPRINGVILLE","NY","14141"
64300,"14640 NW 17 DRIVE","MIAMI","FL","33167"
64301,"14640 SHADY VALLEY WAY","MORENO VALLEY","CA","92555"
64302,"14640 TOLL RD","RENO","NV","89521"
64303,"14641 LEE HWY SUITE 106","CENTREVILLE","VA","20121"
64304,"14641 PRIVATE ROAD 2193","CASSVILLE","MO","65625"
64305,"14641 SW 94 TERRACE","MIAMI","FL","33186"
64306,"14641-B GOLD CREEK CT","GRASS VALLEY","CA","95949"
64307,"14642 KRYPTON ST NW","RAMSEY","MN","55303"
64308,"14642 LAKESIDE STREET","SYLMAR","CA","91342"
64309,"14642 NEWPORT AVENUE / SUITE 110","TUSTIN","CA","92780"
64310,"14644 CHANNING ST","BALDWIN PARK","CA","91706"
64311,"14645 DIXIE HIGHWAY","HOLLY","MI","48442"
64312,"14645 ESSEX CT","CHARDON","OH","44024"
64313,"14645 LA PLATA","SAN DIEGO","CA","92127"
64314,"14646 BIOLA AVE","LA MIRADA","CA","90638"
64315,"14646 HIDDENSPRING CIRCLE","CHINO HILLS","CA","91709"
64316,"14646 LYNNDALE DRIVE","PEQUOT LAKES","MN","56425"
64317,"14646 N KIERLAND BLVD STE 120","SCOTTSDALE","AZ","85254"
64318,"14646 NORTH KIERLAND BLVD SUITE 12","SCOTTSDALE","AZ","85254"
64319,"14647 18TH AVE SW","BURIEN","WA","98166"
64320,"14648 CELESTE COURT","HAYMARKET","VA","20169"
64321,"14649 CHRISTIE LANE","TRUCKEE","CA","96161"
64322,"14649 LAUDER","DETROIT","MI","48227"
64323,"14649 SUMMER BLOSSOM LANE","CHESTERFIELD","MO","63017"
64324,"1465 54TH STREET","COLUMBUS","GA","31901"
64325,"1465 BERKSHIRE ROAD","COLUMBUS","OH","43221"
64326,"1465 CHESTNUT AVE","CARLSBAD","CA","92008"
64327,"1465 E PARK AVE","CHANDLER","AZ","85225"
64328,"1465 EAST PUTNAM AVENUE 317","OLD GREENWICH","CT","06870"
64329,"1465 EVERETT SPRINGS RD","CALHOUN","GA","30701"
64330,"1465 GOLD CLIFF COURT","RENO","NV","89521"
64331,"1465 GRAND SUMMIT DR","RENO","NV","89523"
64332,"1465 HARMONY HILL DR","HENDERSON","NV","89014"
64333,"1465 HIGHWAY A1A 301","SATELLITE BEACH","FL","32937"
64334,"1465 JOHNSON RD","CONYERS","GA","30094"
64335,"1465 LEXINGTON PL","ELIZABETH","NJ","07208"
64336,"1465 MALCOLM DIXON RD","ELDORADO HILLS","CA","95762"
64337,"1465 N 4TH STREET  STE 110","LARAMIE","WY","82072"
64338,"1465 PAUL THOMPSON RD","MONTICELLO","FL","32344"
64339,"1465 S FT HARRISON AVE STE 201","CLEARWATER","FL","33756"
64340,"1465 S GRAND BLVD ROOM B-824","ST. LOUIS","MO","63104"
64341,"1465 SUMMIT OAKS DR WEST","JACKSONVILLE","FL","32221"
64342,"1465 ULUPII STREET","KAILUA","HI","96734"
64343,"1465 VINEWOOD ST","DETROIT","MI","48216"
64344,"1465 W MAIN ST","SUN PRAIRIE","WI","53590"
64345,"1465 WATERTOWER PL","OWATONNA","MN","55060"
64346,"1465 WEHRLE DRIVE","WILLIAMSVILLE","NY","14221"
64347,"1465 WEST TEXAS AVE","WASKOM","TX","75692"
64348,"1465 WILLIAMSON RD","GOODLETTSVILLE","TN","37072"
64349,"14650 NW HWY 464B","MORRISTON","FL","32668"
64350,"14650 SW 104 AVE","MIAMI","FL","33176"
64351,"14650 SW 15TH STREET","PEMBROKE PINES","FL","33027"
64352,"14650 SW 160TH STREET","MIAMI","FL","33177"
64353,"14651 BISCAYNE BLVD 247","NORTH MIAMI BEACH","FL","33181"
64354,"14651 BISCAYNE BLVD 256","NORTH MIAMI BEACH","FL","33181"
64355,"14651 BISCAYNE BLVD SUITE 172","NORTH MIAMI BEACH","FL","33181"
64356,"14651 CANOPY DRIVE","TAMPA","FL","33626"
64357,"14651 RAINTREE LANE","TUSTIN","CA","92780"
64358,"14652 COTTINGHAM CT","BATON ROUGE","LA","70817"
64359,"14652 ROLLING GREEN WAY","NORTH POTOMAC","MD","20878"
64360,"14652 WOLF RD","GRASS VALLEY","CA","95949"
64361,"14653 CLAYTON ROAD","BALLWIN","MO","63011"
64362,"14653 CORONELS CHOICE","UPPER MARLBOROR","MD","20772"
64363,"14655 CHAMPION FOREST DR  UNIT1003","HOUSTON","TX","77069"
64364,"14655 CHARLES STREET","CHARLOTTE HALL","MD","20622"
64365,"14655 MORRISON ST","SHERMAN OAKS","CA","91403"
64366,"14655 N 300 E","COVINGTON","IN","47932"
64367,"14655 SILVER GLEN DR E","JACKSONVILLE","FL","32258"
64368,"14655 TOLEDO LANE","SAINT ROBERT","MO","65584"
64369,"14656 JUNIPER ST","WESTMINSTER","CA","92683"
64370,"14657 SNEIDER","HOUSTON","TX","77034"
64371,"14657 SW GRANDVIEW LN","TIGARD","OR","97224"
64372,"14657 WHISPERING WIND WAY","SOUTH BELOIT","IL","61080"
64373,"14658 NW JEWELL LANE","PORTLAND","OR","97229"
64374,"14659 ZACHARY DR E","JACKSONVILLE","FL","32218"
64375,"1465O NW HWY 464B MORRISTON FL 32","MORRISTON","FL","32668"
64376,"1466 13TH ST","OAKLAND","CA","94607"
64377,"1466 73RD STREET","BROOKLYN","NY","11228"
64378,"1466 BOULDERCREST RD SE APT C4","ATLANTA","GA","30316"
64379,"1466 BRADLEY","CAMDEN","NJ","08103"
64380,"1466 COUNTY ROUTE 29","OLMSTEDVILLE","NY","12857"
64381,"1466 ELECTRIC AVE","BELLINGHAM","WA","98229"
64382,"1466 ESTACADA WAY","CORDOVA","TN","38018"
64383,"1466 FINCH LANE","GREEN BAY","WI","54313"
64384,"1466 LAKE SIDE AVE","DAVENPORT","FL","33837"
64385,"1466 MAIN STREET SUITE 200","GARDNERVILLE","NV","89410"
64386,"1466 MEADOWLARK DRIVE","BOULDER","CO","80303"
64387,"1466 S HALEYVILLE CIR","AURORA","CO","80018"
64388,"1466 SARATOGA DR","MILPITAS","CA","95035"
64389,"1466 TEMPLECLIFF DR","DALLAS","TX","75217"
64390,"1466 WEST REID ROAD","FLINT","MI","48507"
64391,"14660 S FRONTAGE RD","MANTECA","CA","95336"
64392,"14660 S ROBBIE FORBIS RD","ASHLAND","MO","65010"
64393,"14660 SCHAEFER HWY","DETROIT","MI","48227"
64394,"14660 STATE ROUTE DD","SAVANNAH","MO","64485"
64395,"14662 CHERRY TRAIL","WINTER GARDEN","FL","34787"
64396,"14662 W 575 N","JASONVILLE","IN","47438"
64397,"14663 BRADDOCK OAK DR","ORLANDO","FL","32837"
64398,"14664 TAYLOR PLAZA","OMAHA","NE","68116"
64399,"14665 APALACHEE ST","NAPLES","FL","34114"
64400,"14665 KENNARD ST PO DRAWER B","WALDO","FL","32694"
64401,"14665 POLO RD","VICTORVILLE","CA","92394"
64402,"14665 SAINT GEORGES HILL DR","ORLANDO","FL","32828"
64403,"14665 SHIRE COURT","RUSSELL","OH","44072"
64404,"14668 NORDHOFF ST APT 120","NORTH HILLS","CA","91402"
64405,"14669 FITZGERALD AVE N","HUGO","MN","55038"
64406,"14669 MARIGOLD DR","FRISCO","TX","75035"
64407,"14669 S RENE ST","OLATHE","KS","66062"
64408,"1467 BLAKELEY ROAD","EAST AURORA","NY","14052"
64409,"1467 CARROLL ST","BROOKLYN","NY","11213"
64410,"1467 CLOUGH PIKE","BATAVIA","OH","45103"
64411,"1467 COLLINS DRIVE","BATON ROUGE","LA","70815"
64412,"1467 COUNTY ROAD 303","DURANGO","CO","81303"
64413,"1467 E DEL AMO BOULEVARD","CARSON","CA","90746"
64414,"1467 E JEFFERSON WAY UNIT 310","SIMI VALLEY","CA","93065"
64415,"1467 E WALNUT","DES PLAINES","IL","60017"
64416,"1467 LEGEND CIRCLE","VALLEJO","CA","94591"
64417,"1467 MILLER RD","BEULAH","MI","49617"
64418,"1467 MILLSTREAM ROAD","TALLAHASSEE","FL","32312"
64419,"1467 N WILLAMETTE DR","POST FALLS","ID","83854"
64420,"1467 NORTH 725 WEST","BRIGHAM CITY","UT","84302"
64421,"1467 PUEO ST","HONOLULU","HI","96816"
64422,"1467 RED CANYON RD","CANON CITY","CO","81212"
64423,"1467 RED OAK LANE NE","BELMONT","MI","49306"
64424,"1467 REEVES ST STE 4","LOS ANGELES","CA","90035"
64425,"1467 SISKIYOU BLVD STE 313","ASHLAND","OR","97520"
64426,"1467 SISKIYOU BOULEVARD - 280","ASHLAND","OR","97520"
64427,"1467 SUTTER  AVENUE","NORTH BRUNSWICK","NJ","08902"
64428,"1467 TAMPA PARK PLAZA","TAMPA","FL","33605"
64429,"1467 TERESA AVENUE","COLTON","CA","92324"
64430,"14670 BLACK ANKLE RD","MOUNT AIRY","MD","21771"
64431,"14670 DEMMLER RD","COLORADO SPRINGS","CO","80928"
64432,"14670 DEMMLER ROAD","COLORADO SPRINGS","CO","80928"
64433,"14670 E CIELO VISTA LN","DEWEY","AZ","86327"
64434,"14671 CAGNEY COURT","MORENO VALLEY","CA","92553"
64435,"14671 FARMINGTON STREET","HESPERIA","CA","92345"
64436,"14671 HWY 23","BOOKER","TX","79005"
64437,"14672 LE CLERC RD N","CUSICK","WA","98119"
64438,"14675 COUNTY RD 3","FRAZEYSBURG","OH","43822"
64439,"14675 N 90TH LN","PEORIA","AZ","85381"
64440,"14677 LONG SHADOW AVE","EL PASO","TX","79938"
64441,"14678 MAIN STREET","GRETNA","FL","32332"
64442,"14679 BRADDOCK OAK DRIVE","ORLANDO","FL","32837"
64443,"14679 CARMEL RIDGE ROAD","SAN DIEGO","CA","92128"
64444,"14679 E RADCLIFF PLACE","AURORA","CO","80015"
64445,"14679 MESA DRIVE","VICTORVILLE","CA","92395"
64446,"1468 10TH STREET","BERKELEY","CA","94710"
64447,"1468 25TH ST","SAN FRANCISCO","CA","94107"
64448,"1468 5TH AVENUE SUITE 2A","NEW YORK","NY","10029"
64449,"1468 ALGER STREET","FREMONT","OH","43420"
64450,"1468 ALMONT DRIVE","ATLANTA","GA","30310"
64451,"1468 BELMONT AVE","EAST ST. LOUIS","IL","62205"
64452,"1468 BERRY ROAD","BIRMINGHAM","AL","35226"
64453,"1468 BORACAY DRIVE","CHULA VISTA","CA","91915"
64454,"1468 E FERNROCK ST","CARSON","CA","90746"
64455,"1468 EAST 8 ST","BROOKLYN","NY","11230"
64456,"1468 FISH HATCHERY RD","HUNTSVILLE","TX","77320"
64457,"1468 FOX POINTE CIR","ANN ARBOR","MI","48108"
64458,"1468 GRAND AVE 9","SAN LEANDRO","CA","94577"
64459,"1468 HARDY PLACE","FREMONT","CA","94536"
64460,"1468 MARCASITE DRIVE","BRENTWOOD","TN","37027"
64461,"1468 PIERRE ROAD","WALNUT","CA","91789"
64462,"1468 REEVES STREET","LOS ANGELES","CA","90035"
64463,"1468 S CREEKSIDE DR","CHULA VISTA","CA","91915"
64464,"1468 SARDINE CREEK ROAD","GOLD HILL","OR","97525"
64465,"1468 STATE STREET","EAST ST LOUIS","IL","62202"
64466,"1468 SW MAIN BLVD STE 105","LAKE CITY","FL","32025"
64467,"1468 WEST AIRLINE AVENUE","GASTONIA","NC","28052"
64468,"1468 WEST NINTH STREET","CLEVELAND","OH","44113"
64469,"1468 WESTPARK DRIVE","GREENVILLE","NC","27834"
64470,"14680 COUNTY RD 22","GOSHEN","IN","46528"
64471,"14682 CALVARY RD","WILLIS","TX","77318"
64472,"14682 MOON CREST LN UNIT B","CHINO HILLS","CA","91709"
64473,"14682 PEPPER TREE CIRCLE","TUSTIN","CA","92780"
64474,"14683 OLD GARNER ROAD","WEATHERFORD","TX","76088"
64475,"14684 NW 232 ST","HIGH SPRINGS","FL","32643"
64476,"14685 MEADOWOOD DR","SAVAGE","MN","55378"
64477,"14685 SHIPE RD","GRAVETTE","AR","72736"
64478,"14688 PODUNK AVE","GOWEN","MI","49326"
64479,"14689 LEE HIGHWAY 747","GAINESVILLE","VA","20156"
64480,"14689 LEE HWY 921","GAINESVILLE","VA","20155"
64481,"1469 10TH COURT NE","WINTER HAVEN","FL","33881"
64482,"1469 BENTEEN AVENUE SE","ATLANTA","GA","30315"
64483,"1469 BLYTHE AVENUE","HIGHLAND","CA","92346"
64484,"1469 BOND STREET","HILLSIDE","NJ","07205"
64485,"1469 FARROW HILL RD","DAVISVILLE","WV","26142"
64486,"1469 FT WASHINGTON AVE","AMBLER","PA","19002"
64487,"1469 FULMER RD","BLYTHEWOOD","SC","29016"
64488,"1469 GOLDEN HARVEST LANE","EL CAJON","CA","92019"
64489,"1469 HWY 42 APT E-29","JACKSON","GA","30233"
64490,"1469 LINCOLN AVENUE","PASADENA","CA","91103"
64491,"1469 MCALLISTER ST","SAN FRANCISCO","CA","94115"
64492,"1469 N 718 RD","LAWRENCE","KS","66046"
64493,"1469 N HILLTOP DR","AZUSA","CA","91702"
64494,"1469 N MAGNOLIA AVE UNIT D","OCALA","FL","34475"
64495,"1469 PRESIDENT ST SUITE 30","BROOKLYN","NY","11213"
64496,"1469 SE LEGACY COVE CIRCLE","STUART","FL","34997"
64497,"1469 STEAM ENGINE WAY","CONYERS","GA","30013"
64498,"1469 WINFRED DRIVE EAST","ORANGE PARK","FL","32073"
64499,"14691 SW 37TH STREET","MIRAMAR","FL","33027"
64500,"14693 HIGHWAY 15 NORTH","PHILADELPHIA","MS","39350"
