"ID","Address","City","State","Zip"
356001,"PO BOX 691","MOULTRIE","GA","31776"
356002,"PO BOX 691","MUSKEGON","MI","49443"
356003,"PO BOX 691","PHOENIX","OR","97535"
356004,"PO BOX 691","PISMO BEACH","CA","93448"
356005,"PO BOX 691","POTTSVILLE","PA","17901"
356006,"PO BOX 691","REXBURG","ID","83440"
356007,"PO BOX 691031","KILLEEN","TX","76549"
356008,"PO BOX 69104","SEATAC","WA","98168"
356009,"PO BOX 691177","STOCKTON","CA","95269"
356010,"PO BOX 6913","RENO","NV","89513"
356011,"PO BOX 691301","MINT HILL","NC","28227"
356012,"PO BOX 691403","WEST HOLLYWOOD","CA","90069"
356013,"PO BOX 691424","SAN ANTONIO","TX","78269"
356014,"PO BOX 691486","WEST HOLLYWOOD","CA","90069"
356015,"PO BOX 6917","HUNTSVILLE","TX","77342"
356016,"PO BOX 691750","STOCKTON","CA","95269"
356017,"PO BOX 691766","HOUSTON","TX","77269"
356018,"PO BOX 691803","HOUSTON","TX","77269"
356019,"PO BOX 691871","FLORIDA","FL","32869"
356020,"PO BOX 692","BEAVER DAM","WI","53916"
356021,"PO BOX 692","BOYLSTON","MA","01505"
356022,"PO BOX 692","BUCHANAN","VA","24066"
356023,"PO BOX 692","CONCHO","AZ","85924"
356024,"PO BOX 692","FLORENCE","OR","97439"
356025,"PO BOX 692","FRANKFORT","IN","46041"
356026,"PO BOX 692","GOLD BAR","WA","98251"
356027,"PO BOX 692","GREENBRIER","AR","72058"
356028,"PO BOX 692","GREENCASTLE","PA","17225"
356029,"PO BOX 692","HANOVER","PA","17331"
356030,"PO BOX 692","ITHACA","NY","14851"
356031,"PO BOX 692","OAKLAND","CA","94604"
356032,"PO BOX 692","PATILAS","PR","00723"
356033,"PO BOX 692","PORT ANGELES","WA","98362"
356034,"PO BOX 692","SAINT PAULS","NC","28384"
356035,"PO BOX 692","WALDOBORO","ME","04572"
356036,"PO BOX 692122","STOCKTON","CA","95269"
356037,"PO BOX 692193","SAN ANTONIO","TX","78269"
356038,"PO BOX 6922","WYOMISSING","PA","19610"
356039,"PO BOX 692381","HOUSTON","TX","77070"
356040,"PO BOX 692763","STOCKTON","CA","95269"
356041,"PO BOX 6929","KATY","TX","77491"
356042,"PO BOX 693","BAYVIEW","ID","83803"
356043,"PO BOX 693","CENTURY","FL","32535"
356044,"PO BOX 693","FALLBROOK","CA","92088"
356045,"PO BOX 693","GARNER","NC","27529"
356046,"PO BOX 693","JASPER","AR","72641"
356047,"PO BOX 693","MEXICO","MO","65265"
356048,"PO BOX 693","MURCHISON","TX","75578"
356049,"PO BOX 693","SARASOTA","FL","34230"
356050,"PO BOX 693","WINTER HAVEN","FL","33882"
356051,"PO BOX 6930","ALEXANDRIA","VA","22301"
356052,"PO BOX 693022","MIAMI","FL","33269"
356053,"PO BOX 693034","STOCKTON","CA","95269"
356054,"PO BOX 6933","HOLLISTON","MA","01746"
356055,"PO BOX 6933","SANTA MARIA","CA","93456"
356056,"PO BOX 6933","TOLEDO","OH","43612"
356057,"PO BOX 6933","WARWICK","RI","02886"
356058,"PO BOX 693467","MIAMI GARDENS","FL","33269"
356059,"PO BOX 693475","STOCKTON","CA","95269"
356060,"PO BOX 6935","BOISE","ID","83702"
356061,"PO BOX 6935","OXNARD","CA","93031"
356062,"PO BOX 693764","STOCKTON","CA","95269"
356063,"PO BOX 6939","COLORADO SPRINGS","CO","80934"
356064,"PO BOX 694","BASALT","CO","81621"
356065,"PO BOX 694","BRADFORD","VT","05033"
356066,"PO BOX 694","BURNSVILLE","NC","28714"
356067,"PO BOX 694","COLUMBIA","TN","38402"
356068,"PO BOX 694","DENVER","NC","28037"
356069,"PO BOX 694","DRIPPING SPRINGS","TX","78620"
356070,"PO BOX 694","FARMINGDALE","NJ","07727"
356071,"PO BOX 694","FLORENCE","OR","97439"
356072,"PO BOX 694","MARANA","AZ","85653"
356073,"PO BOX 694","PEKIN","IL","61555"
356074,"PO BOX 694","SAN JOAQUIN","CA","93660"
356075,"PO BOX 694","SNELLVILLE","GA","30078"
356076,"PO BOX 6942","HILO","HI","96720"
356077,"PO BOX 6944","SLIDELL","LA","70469"
356078,"PO BOX 694501","MIAMI GARDENS","FL","33269"
356079,"PO BOX 6946","SOUTH BEND","IN","46660"
356080,"PO BOX 6948","COLUMBUS","OH","43205"
356081,"PO BOX 694873","MIAMI","FL","33269"
356082,"PO BOX 695","DEER PARK","WA","99006"
356083,"PO BOX 695","DELHI","LA","71232"
356084,"PO BOX 695","DOWAGIAC","MI","49047"
356085,"PO BOX 695","FERRON","UT","84523"
356086,"PO BOX 695","HOLLY SPRINGS","NC","27540"
356087,"PO BOX 695","MANTEO","NC","27954"
356088,"PO BOX 695","MINEOLA","NY","11501"
356089,"PO BOX 695","MORRISVILLE","NC","27560"
356090,"PO BOX 695","TABERNASH","CO","80478"
356091,"PO BOX 695","UNION","MO","63084"
356092,"PO BOX 695","WEST YELLOWSTONE","MT","59758"
356093,"PO BOX 6952","ELLICOTT","MD","21042"
356094,"PO BOX 6952","LAS CRUCES","NM","88001"
356095,"PO BOX 69521","ORO VALLEY","AZ","85737"
356096,"PO BOX 6956","LAGUNA NIGUEL","CA","92607"
356097,"PO BOX 6957","SCARBOROUGH","ME","04070"
356098,"PO BOX 696","CASTLE HAYNE","NC","28429"
356099,"PO BOX 696","MACOMB","IL","61455"
356100,"PO BOX 696","MISSOULA","MT","59806"
356101,"PO BOX 696","MOOREFIELD","WV","26836"
356102,"PO BOX 696","NAMPA","ID","83653"
356103,"PO BOX 696","NORTH SAN JUAN","CA","95960"
356104,"PO BOX 696","PIKEVILLE","NC","27863"
356105,"PO BOX 696","SOUTH BEND","IN","46624"
356106,"PO BOX 696","STRATFORD","OK","74872"
356107,"PO BOX 696","WILSON","WY","83014"
356108,"PO BOX 6965","KAMUELA","HI","96743"
356109,"PO BOX 69665","ORO VALLEY","AZ","85737"
356110,"PO BOX 697","BALDWIN","LA","70514"
356111,"PO BOX 697","CARSON CITY","NV","89702"
356112,"PO BOX 697","CHICAGO PARK","CA","95712"
356113,"PO BOX 697","GRETNA","FL","32332"
356114,"PO BOX 697","HUDSON","OH","44236"
356115,"PO BOX 697","KINGSTON","WA","98346"
356116,"PO BOX 697","LEBANON","VA","24266"
356117,"PO BOX 697","MURRIETA","CA","92564"
356118,"PO BOX 697","NEWARK","NJ","07101"
356119,"PO BOX 697","POCOMOKE CITY","MD","21851"
356120,"PO BOX 697","POUGHQUAG","NY","12570"
356121,"PO BOX 697","ROCK HALL","MD","21661"
356122,"PO BOX 6976","KINGWOOD","TX","77325"
356123,"PO BOX 6976","PATERSON","NJ","07509"
356124,"PO BOX 698","COOS BAY","OR","97420"
356125,"PO BOX 698","GRANBY","CO","80446"
356126,"PO BOX 698","LINDEN","CA","95236"
356127,"PO BOX 698","REDAN","GA","30074"
356128,"PO BOX 698","RICHLANDS","VA","24641"
356129,"PO BOX 6980","HILO","HI","96720"
356130,"PO BOX 6982","BEND","OR","97708"
356131,"PO BOX 699","DOWNINGTOWN","PA","19335"
356132,"PO BOX 699","LANSING","IL","60438"
356133,"PO BOX 699","NEW PORT RICHEY","FL","34656"
356134,"PO BOX 699","VESTAL","NY","13850"
356135,"PO BOX 699","VESTAL","NY","13851"
356136,"PO BOX 699","WARSAW","MO","65355"
356137,"PO BOX 699","WEAVERVILLE","CA","96093"
356138,"PO BOX 6991","CHESTERFIELD","MO","63006"
356139,"PO BOX 699612","MARIETTA","GA","30066"
356140,"PO BOX 6999","BROOKINGS","OR","97415"
356141,"PO BOX 6999","WARWICK","RI","02886"
356142,"PO BOX 7 CARE OF COMPUCOUNT","RANDOLPH","VT","05060"
356143,"PO BOX 7","ADELPHIA","NJ","07710"
356144,"PO BOX 7","AMANDA PARK","WA","98526"
356145,"PO BOX 7","BEAR LAKE","MI","49614"
356146,"PO BOX 7","BERKELEY HEIGHTS","NJ","07922"
356147,"PO BOX 7","BIXBY","OK","74008"
356148,"PO BOX 7","BLUE RIDGE","GA","30513"
356149,"PO BOX 7","BOSQUE","NM","87006"
356150,"PO BOX 7","COALMONT","TN","37313"
356151,"PO BOX 7","DADEVILLE","AL","36853"
356152,"PO BOX 7","DEWITT","MI","48820"
356153,"PO BOX 7","ELKO-NEW MARKET","MI","55020"
356154,"PO BOX 7","FRIENDSHIP","OH","45630"
356155,"PO BOX 7","GILMER","TX","75644"
356156,"PO BOX 7","GLENOLDEN","PA","19036"
356157,"PO BOX 7","GRAND BLANC","MI","48439"
356158,"PO BOX 7","HALBUR","IA","51444"
356159,"PO BOX 7","HANSON","MA","02341"
356160,"PO BOX 7","HARRISON","AR","72602"
356161,"PO BOX 7","INGLESIDE","TX","78362"
356162,"PO BOX 7","INVERNESS","FL","34451"
356163,"PO BOX 7","JAMESTOWN","OH","45335"
356164,"PO BOX 7","JENISON","MI","49429"
356165,"PO BOX 7","JET","OK","73749"
356166,"PO BOX 7","JORDAN VALLEY","OR","97910"
356167,"PO BOX 7","LANGSTON","OK","73050"
356168,"PO BOX 7","MONTGOMERY","MN","56069"
356169,"PO BOX 7","NEW SHARON","IA","50207"
356170,"PO BOX 7","NORTH ANSON","ME","04958"
356171,"PO BOX 7","NOTRE DAME","IN","46556"
356172,"PO BOX 7","QUEEN CITY","TX","75572"
356173,"PO BOX 7","SAUK CENTRE","MN","56378"
356174,"PO BOX 7","SEYMOUR","TX","76380"
356175,"PO BOX 7","SOUTHAVEN","MS","38671"
356176,"PO BOX 7","SPANISHBURG","WV","25922"
356177,"PO BOX 7","STAATSBURG","NY","12580"
356178,"PO BOX 7","STEWART","MS","39767"
356179,"PO BOX 7","STRATFORD","WI","54484"
356180,"PO BOX 7","TAUNTON","MA","02780"
356181,"PO BOX 7","TENNYSON","IN","47637"
356182,"PO BOX 7","UNIONVILLE","PA","19375"
356183,"PO BOX 7","WAKE FOREST","NC","27588"
356184,"PO BOX 7","WASHINGTON","VT","05675"
356185,"PO BOX 7","WAVERLY","NE","68462"
356186,"PO BOX 7","WICKATUNK","NJ","07765"
356187,"PO BOX 70-1841","TULSA","OK","74170"
356188,"PO BOX 70","AGOURA HILLS","CA","91376"
356189,"PO BOX 70","ALBERS","IL","62215"
356190,"PO BOX 70","ANDOVER","NJ","07821"
356191,"PO BOX 70","AUBURN","WY","83111"
356192,"PO BOX 70","BARLOW","OH","45712"
356193,"PO BOX 70","BIG BEND","WI","53103"
356194,"PO BOX 70","BLACK EAGLE","MT","59414"
356195,"PO BOX 70","CARTHAGE","TX","75633"
356196,"PO BOX 70","EAGLE","CO","81631"
356197,"PO BOX 70","ELWOOD","NJ","08217"
356198,"PO BOX 70","FAIR PLAY","MO","65649"
356199,"PO BOX 70","FATE","TX","75132"
356200,"PO BOX 70","GUALALA","CA","95445"
356201,"PO BOX 70","KEKAHA","HI","96752"
356202,"PO BOX 70","LEWELLEN","NE","69147"
356203,"PO BOX 70","MARLTON","NJ","08053"
356204,"PO BOX 70","MARSHALL","MI","49068"
356205,"PO BOX 70","MONKTON","VT","05469"
356206,"PO BOX 70","OCONTO FALLS","WI","54154"
356207,"PO BOX 70","PORT RICHEY","FL","34673"
356208,"PO BOX 70","POTTSVILLE","AR","72858"
356209,"PO BOX 70","SANTA MONICA","CA","90406"
356210,"PO BOX 70","SHELTER ISLAND","NY","11965"
356211,"PO BOX 70","STERLING","CO","80751"
356212,"PO BOX 70","WAYNE","PA","19087"
356213,"PO BOX 70","WELTON","IA","52774"
356214,"PO BOX 700","ARTHURDALE","WV","26520"
356215,"PO BOX 700","BOISE","ID","83701"
356216,"PO BOX 700","CORVALLIS","MT","59828"
356217,"PO BOX 700","COTTONWOOD","AZ","86326"
356218,"PO BOX 700","KINGSVILLE","TX","78364"
356219,"PO BOX 700","MARKESAN","WI","53946"
356220,"PO BOX 700","ODESSA","DE","19730"
356221,"PO BOX 700","SCHOOLCRAFT","MI","49087"
356222,"PO BOX 7000-820","REDONDO BEACH","CA","90277"
356223,"PO BOX 70010","SAN ANTONIO","TX","78270"
356224,"PO BOX 700100","OOSTBURG","WI","53070"
356225,"PO BOX 700101","TULSA","OK","74170"
356226,"PO BOX 70021","LANSING","MI","48908"
356227,"PO BOX 700217","TULSA","OK","74133"
356228,"PO BOX 7003","PASCAGOULA","MS","39568"
356229,"PO BOX 7003","SOMERSET","MA","02726"
356230,"PO BOX 700334","DALLAS","TX","75370"
356231,"PO BOX 70035","ALBANY","GA","31708"
356232,"PO BOX 700390","SAN ANTONIO","TX","78270"
356233,"PO BOX 7004","SAN SEBASTIAN","PR","00685"
356234,"PO BOX 70041","SAN DIEGO","CA","92167"
356235,"PO BOX 700443","HONOLULU","HI","96709"
356236,"PO BOX 700466","SAN ANTONIO","TX","78270"
356237,"PO BOX 70048","BALTIMORE","MD","21237"
356238,"PO BOX 700489","KAPOLEI","HI","96709"
356239,"PO BOX 7005","WOODLAND PARK","CO","80863"
356240,"PO BOX 700521","SAN JOSE","CA","95170"
356241,"PO BOX 7006","COLUMBIA","MO","65205"
356242,"PO BOX 700664","TULSA","OK","74170"
356243,"PO BOX 7007","EVANSTON","IL","60204"
356244,"PO BOX 70075","ODESSA","TX","79769"
356245,"PO BOX 7008","NOVI","MI","48376"
356246,"PO BOX 700801","KAPOLEI","HI","96709"
356247,"PO BOX 700801","PLYMOUTH","MI","48170"
356248,"PO BOX 70092","HENRICO","VA","23255"
356249,"PO BOX 701","ANNANDALE","VA","22003"
356250,"PO BOX 701","CHAMBERSBURG","PA","17201"
356251,"PO BOX 701","CLAYTON","NC","27528"
356252,"PO BOX 701","EDMONDS","WA","98020"
356253,"PO BOX 701","KEENE","NH","03431"
356254,"PO BOX 701","OLIVE BRANCH","MS","38654"
356255,"PO BOX 701","PARIS","TN","38242"
356256,"PO BOX 701","PENFIELD","NY","14526"
356257,"PO BOX 701","SMYRNA","GA","30080"
356258,"PO BOX 701","TUNKHANNOCK","PA","18657"
356259,"PO BOX 701","VAUGHN","WA","98394"
356260,"PO BOX 701","WAITSBURG","WA","99361"
356261,"PO BOX 701066","SALT LAKE CITY","UT","84170"
356262,"PO BOX 701087","SAINT CLOUD","FL","34770"
356263,"PO BOX 7011","LA QUINTA","CA","92248"
356264,"PO BOX 701143","LOUISVILLE","KY","40270"
356265,"PO BOX 701173","LOUISVILLE","KY","40270"
356266,"PO BOX 7012","AGAT","GU","96928"
356267,"PO BOX 7012","WESLEY CHAPEL","FL","33545"
356268,"PO BOX 70126 UNIVERSITY STATION","LAS VEGAS","NV","89170"
356269,"PO BOX 7013","DENVER","CO","80207"
356270,"PO BOX 701361","SAINT CLOUD","FL","34770"
356271,"PO BOX 7014","GREENSBORO","NC","27407"
356272,"PO BOX 7014","GREENSBORO","NC","27417"
356273,"PO BOX 7014","RANCHO SANTA FE","CA","92067"
356274,"PO BOX 70145","LOS ANGELES","CA","90070"
356275,"PO BOX 701492","TULSA","OK","74170"
356276,"PO BOX 7015","MYRTLE BEACH","SC","29572"
356277,"PO BOX 701735","TULSA","OK","74170"
356278,"PO BOX 701756","PLYMOUTH","MI","48170"
356279,"PO BOX 7018","BRANDON","FL","33508"
356280,"PO BOX 701811","DALLAS","TX","75370"
356281,"PO BOX 70190","TUSCALOOSA","AL","35407"
356282,"PO BOX 702","DAYTON","OH","45401"
356283,"PO BOX 702","EDISTO ISLAND","SC","29438"
356284,"PO BOX 702","JACKSON","NH","03846"
356285,"PO BOX 702","KEIZER","OR","97127"
356286,"PO BOX 702","LEMON GROVE","CA","91945"
356287,"PO BOX 702","MELROSE","FL","32666"
356288,"PO BOX 702","MONTGOMERYVILLE","PA","18936"
356289,"PO BOX 702","MOSES LAKE","WA","98837"
356290,"PO BOX 702","PORT ORCHARD","WA","98366"
356291,"PO BOX 702","PUERTO REAL","PR","00740"
356292,"PO BOX 702","RALSTON","WY","82440"
356293,"PO BOX 702","ROSELLE","NJ","07203"
356294,"PO BOX 702","ROYSE CITY","TX","75189"
356295,"PO BOX 702","SEARCY","AR","72145"
356296,"PO BOX 702","TAYLOR","MI","48180"
356297,"PO BOX 702","TROUTDALE","OR","97060"
356298,"PO BOX 702","TWINSBURG","OH","44087"
356299,"PO BOX 702","WEBSTER","MA","01570"
356300,"PO BOX 7022","WYOMISSING","PA","19610"
356301,"PO BOX 7023","CUT SHOOT","TX","77303"
356302,"PO BOX 702406","WEST VALLEY CITY","UT","84170"
356303,"PO BOX 702436","TULSA","OK","74170"
356304,"PO BOX 7025","LOUDON","NH","03307"
356305,"PO BOX 7025","MISSOULA","MT","59807"
356306,"PO BOX 7025","WHITEMAN AFB","MO","65305"
356307,"PO BOX 70281","ROSEDALE","MD","21237"
356308,"PO BOX 7029","GRANBURY","TX","76049"
356309,"PO BOX 7029","YANKTON","SD","57078"
356310,"PO BOX 703","COLUMBIA","SC","29202"
356311,"PO BOX 703","ELKTON","OR","97436"
356312,"PO BOX 703","HARDINSBURG","KY","40143"
356313,"PO BOX 703","HURST","TX","76053"
356314,"PO BOX 703","LYDIA","LA","70569"
356315,"PO BOX 703","RONAN","MT","59864"
356316,"PO BOX 703","SHERIDAN","WY","82801"
356317,"PO BOX 703","WINDHAM","NH","03087"
356318,"PO BOX 7030","FORT GORDON","GA","30905"
356319,"PO BOX 70309","LOUISVILLE","KY","40270"
356320,"PO BOX 7031","TUCSON","AZ","85725"
356321,"PO BOX 703154","TULSA","OK","74170"
356322,"PO BOX 7033","LOS ANGELES","CA","90007"
356323,"PO BOX 70333","LOUISVILLE","KY","40270"
356324,"PO BOX 703381","DALLAS","TX","75370"
356325,"PO BOX 7035","FULLERTON","CA","92834"
356326,"PO BOX 7036","MARYVILLE","TN","37802"
356327,"PO BOX 7039","MORENO VALLEY","CA","92552"
356328,"PO BOX 70394","FORT LAUDERDALE","FL","33307"
356329,"PO BOX 704","ANAHOLA","HI","96703"
356330,"PO BOX 704","BUNNELL","FL","32110"
356331,"PO BOX 704","CROSS CITY","FL","32628"
356332,"PO BOX 704","DAVIS","WV","26260"
356333,"PO BOX 704","EPHRATA","WA","98823"
356334,"PO BOX 704","GREEN","OH","44232"
356335,"PO BOX 704","JONES","OK","73049"
356336,"PO BOX 704","LAFAYETTE","OR","97127"
356337,"PO BOX 704","PENRYN","CA","95663"
356338,"PO BOX 704","STATE COLLEGE","PA","16804"
356339,"PO BOX 704","WYNNEWOOD","PA","19096"
356340,"PO BOX 704001","DALLAS","TX","75370"
356341,"PO BOX 70401","OAKLAND","CA","94612"
356342,"PO BOX 7044","GRANTS","NM","87020"
356343,"PO BOX 70443","TUSCALOOSA","AL","35407"
356344,"PO BOX 7045","NEWARK","DE","19714"
356345,"PO BOX 70473","LOUISVILLE","KY","40270"
356346,"PO BOX 7048 SVRB","SAIPAN","MP","96950"
356347,"PO BOX 7049","LOS ANGELES","CA","90007"
356348,"PO BOX 705","ALTHEIMER","AR","72004"
356349,"PO BOX 705","BENTON","LA","71006"
356350,"PO BOX 705","DAYTON","NV","89403"
356351,"PO BOX 705","FAIRMONT","MN","56301"
356352,"PO BOX 705","LUDINGTON","MI","49431"
356353,"PO BOX 705","MADISON","OH","44057"
356354,"PO BOX 705","O FALLON","IL","62269"
356355,"PO BOX 705","PORTAGE","IN","46368"
356356,"PO BOX 705","RIO VISTA","TX","76093"
356357,"PO BOX 7051","MISSOULA","MT","59807"
356358,"PO BOX 7052","LOUISVILLE","KY","40206"
356359,"PO BOX 7052","WAYNE","PA","19087"
356360,"PO BOX 70523","HOUSTON","TX","77270"
356361,"PO BOX 70552","KNOXVILLE","TN","37938"
356362,"PO BOX 70555","PASADENA","CA","91117"
356363,"PO BOX 7056","GOODYEAR","AZ","85338"
356364,"PO BOX 7056","HACKETTSTOWN","NJ","07840"
356365,"PO BOX 70572","RIVERSIDE","CA","92513"
356366,"PO BOX 70577","BROOKLYN","NY","11207"
356367,"PO BOX 70577","MYRTLE BEACH","SC","29572"
356368,"PO BOX 7058","RANCHO SANTA FE","CA","92067"
356369,"PO BOX 706","CHARLESTON","WV","25323"
356370,"PO BOX 706","GUILDERLAND","NY","12084"
356371,"PO BOX 706","MCCALL","ID","83638"
356372,"PO BOX 706","NEPTUNE","NJ","07754"
356373,"PO BOX 706","NEW YORK","NY","10037"
356374,"PO BOX 706","PORT ANGELES","WA","98362"
356375,"PO BOX 706","TAYLOR","AZ","85939"
356376,"PO BOX 706","TEXARKANA","TX","75504"
356377,"PO BOX 706","VOLCANO","HI","96785"
356378,"PO BOX 706","WOODINVILLE","WA","98072"
356379,"PO BOX 7061","MISSOULA","MT","59807"
356380,"PO BOX 70626","FORT BRAGG","NC","28307"
356381,"PO BOX 7064","ROUND ROCK","TX","78683"
356382,"PO BOX 7065","DESTIN","FL","32540"
356383,"PO BOX 707 307 SOUTH WAYNE STREET","WATERLOO","IN","46793"
356384,"PO BOX 707 375 CARLLS PATH","DEER PARK","NY","11729"
356385,"PO BOX 707","FREDERICKSBURG","TX","78624"
356386,"PO BOX 707","FRISCO","CO","80443"
356387,"PO BOX 707","KENNEBUNK","ME","04043"
356388,"PO BOX 707","SPRING","TX","77383"
356389,"PO BOX 707","WILLISTON","NC","28589"
356390,"PO BOX 707","WINTERS","CA","95694"
356391,"PO BOX 7071","SAN JUAN","PR","00916"
356392,"PO BOX 7072","COLORADO SPRINGS","CO","80933"
356393,"PO BOX 70731","MILWAUKEE","WV","53207"
356394,"PO BOX 7074","WASHINGTON","DC","20032"
356395,"PO BOX 70754","SPRINGFIELD","OR","97475"
356396,"PO BOX 7077","ST THOMAS","VI","00801"
356397,"PO BOX 70789","KNOXVILLE","TN","37938"
356398,"PO BOX 70795","MADISON","WI","53707"
356399,"PO BOX 708","BRICK","NJ","08723"
356400,"PO BOX 708","EVANS","GA","30809"
356401,"PO BOX 708","MABLETON","GA","30126"
356402,"PO BOX 708","PORTSMOUTH","RI","02871"
356403,"PO BOX 708","TOMAH","WI","54660"
356404,"PO BOX 7080","KAMUELA","HI","96743"
356405,"PO BOX 7080","KENNEWICK","WA","99336"
356406,"PO BOX 7080","NIKISKI","AK","99635"
356407,"PO BOX 708008","SANDY","UT","84070"
356408,"PO BOX 70803","TUSCALOOSA","AL","35407"
356409,"PO BOX 70806","AUSTIN","TX","78717"
356410,"PO BOX 70812","KNOXVILLE","TN","37938"
356411,"PO BOX 70817","MADISON","WI","53707"
356412,"PO BOX 708192","SANDY","UT","84070"
356413,"PO BOX 7084","ASHEVILLE","NC","28802"
356414,"PO BOX 70848","FAIRBANKS","AK","99707"
356415,"PO BOX 7085","ALEXANDRIA","VA","22307"
356416,"PO BOX 7085","RICHMOND","VA","23221"
356417,"PO BOX 70852","HOUSTON","TX","77270"
356418,"PO BOX 70866","MYRTLE BEACH","SC","29572"
356419,"PO BOX 70881","HOUSTON","TX","77270"
356420,"PO BOX 7089","SPRING","TX","77387"
356421,"PO BOX 70892","KNOXVILLE","TN","37938"
356422,"PO BOX 709","CAPITAN","NM","88316"
356423,"PO BOX 709","LINCOLN CITY","OR","97367"
356424,"PO BOX 70901","ROCHESTER HILLS","MI","48307"
356425,"PO BOX 70902","POINT RICHMOND","CA","94807"
356426,"PO BOX 7091","BILLINGS","MT","59103"
356427,"PO BOX 70911","CHEVY CHASE","MD","20813"
356428,"PO BOX 709376","SANDY","UT","84070"
356429,"PO BOX 7094","MISSOULA","MT","59807"
356430,"PO BOX 70948","NORTH CHARLESTON","SC","29415"
356431,"PO BOX 7095","MISSOULA","MT","59807"
356432,"PO BOX 7098","SPRING","TX","77387"
356433,"PO BOX 7099","JACKSONVILLE","FL","32238"
356434,"PO BOX 7099","SANTA CRUZ","CA","95062"
356435,"PO BOX 70994","RIVERSIDE","CA","92505"
356436,"PO BOX 70A         360 SOUTH MAIN","BANCROFT","ID","83217"
356437,"PO BOX 71","AIKEN","SC","29802"
356438,"PO BOX 71","BAGLEY","IA","50026"
356439,"PO BOX 71","BATSON","TX","77519"
356440,"PO BOX 71","BEULAVILLE","NC","28518"
356441,"PO BOX 71","BONDURANT","WY","82922"
356442,"PO BOX 71","BOUTTE","LA","70039"
356443,"PO BOX 71","CENTER HARBOR","NH","03226"
356444,"PO BOX 71","CHOKIO","MN","56221"
356445,"PO BOX 71","CIRCLE","MT","59215"
356446,"PO BOX 71","CLARKRANGE","TN","38553"
356447,"PO BOX 71","CLIFTON","NJ","07015"
356448,"PO BOX 71","COOPERSBURG","PA","18036"
356449,"PO BOX 71","CUBA","NY","14727"
356450,"PO BOX 71","DENALI PARK","AK","99755"
356451,"PO BOX 71","DRIPPING SPRINGS","TX","78620"
356452,"PO BOX 71","HAMPSHIRE","IL","60140"
356453,"PO BOX 71","HUNTERTOWN","IN","46748"
356454,"PO BOX 71","LODI","OH","44254"
356455,"PO BOX 71","MADISONVILLE","KY","42431"
356456,"PO BOX 71","MEDORA","IN","47260"
356457,"PO BOX 71","MIFFLINTOWN","PA","17059"
356458,"PO BOX 71","NORTHPORT","NY","11768"
356459,"PO BOX 71","OLD HICKORY","TN","37138"
356460,"PO BOX 71","PEARL RIVER","LA","70452"
356461,"PO BOX 71","QUITMAN","TX","75783"
356462,"PO BOX 71","REIDSVILLE","GA","30453"
356463,"PO BOX 71","RINCON","PR","00677"
356464,"PO BOX 71","SAINT HELENA","CA","94574"
356465,"PO BOX 71","SCOTTSVILLE","KY","42164"
356466,"PO BOX 71","SPRINGFIELD","WV","26763"
356467,"PO BOX 71","STOCKBRIDGE","GA","30281"
356468,"PO BOX 71","STONEVILLE","NC","27048"
356469,"PO BOX 71","SUBLIMITY","OR","97385"
356470,"PO BOX 71","SUMMERTOWN","TN","38483"
356471,"PO BOX 71","WARSAW","OH","43844"
356472,"PO BOX 71","WESTFIELD","ME","04787"
356473,"PO BOX 710","BETHLEHEM","CT","06751"
356474,"PO BOX 710","DELTA JUNCTION","AK","99737"
356475,"PO BOX 710","DILLSBURG","PA","17019"
356476,"PO BOX 710","GLADWYNE","PA","19035"
356477,"PO BOX 710","SPRINGTOWN","PA","18081"
356478,"PO BOX 710","SUISUN CITY","CA","94585"
356479,"PO BOX 710","ZACHARY","LA","70791"
356480,"PO BOX 7100","HOUSTON","TX","77248"
356481,"PO BOX 7100","RANCHO SANTA FE","CA","92067"
356482,"PO BOX 710002","MAXEYS","GA","30671"
356483,"PO BOX 710031","HOUSTON","TX","77271"
356484,"PO BOX 710045","HOUSTON","TX","77271"
356485,"PO BOX 710138","HOUSTON","TX","77271"
356486,"PO BOX 710146","HERNDON","VA","20171"
356487,"PO BOX 710322","HOUSTON","TX","77271"
356488,"PO BOX 710336","HOUSTON","TX","77271"
356489,"PO BOX 7104","THOUSAND OAKS","CA","91359"
356490,"PO BOX 710423","SANTEE","CA","92072"
356491,"PO BOX 7107","HUNTINGTON WOODS","MI","48070"
356492,"PO BOX 71073","OAKLAND","CA","94612"
356493,"PO BOX 710775","HOUSTON","TX","77271"
356494,"PO BOX 710846","HOUSTON","TX","77271"
356495,"PO BOX 71093","HENRICO","VA","23229"
356496,"PO BOX 711 BELDEN AVE STATION","NORWALK","CT","06854"
356497,"PO BOX 711","ATKINSON","NE","68713"
356498,"PO BOX 711","BATTLE GROUND","WA","98604"
356499,"PO BOX 711","BETHEL","CT","06801"
356500,"PO BOX 711","CARLSBAD","CA","92018"
