"ID","Address","City","State","Zip"
59001,"141 WESTLEDGE ROAD","WEST SIMSBURY","CT","06092"
59002,"141 WESTON STREET 1832","HARTFORD","CT","06101"
59003,"141 WESTON STREET 482","HARTFORD","CT","06101"
59004,"141 WILKINSON ESTATES DRIVE","RICHMOND","VA","23227"
59005,"141 WILLIAMSON AVENUE","HILLSIDE","NJ","07205"
59006,"141 YORKSHIRE PLACE","MADISON HEIGHTS","VA","24572"
59007,"141-04 14TH AVENUE","WHITESTONE","NY","11357"
59008,"141-05 70TH AVENUE  SUITE 1","FLUSHING","NY","11367"
59009,"141-07 20TH AVENUE SUITE 402","WHITESTONE","NY","11357"
59010,"141-07 20TH AVENUE SUITE 604","WHITESTONE","NY","11357"
59011,"141-1 ROUTE 130 S  345","CINNAMINSON","NJ","08077"
59012,"141-25 NORTHERN BLVD APT C8","FLUSHING","NY","11354"
59013,"141-28 72ND DRIVE","FLUSHING","NY","11367"
59014,"141-30 181ST ST SPRINGFIELD GARDENS","NEW YORK","NY","11413"
59015,"141-35 78TH AVENUE 1C","FLUSHING","NY","11367"
59016,"141-59 85TH ROAD 1F","BRIARWOOD","NY","11435"
59017,"141-A SAMS STREET","DECATUR","GA","30030"
59018,"1410 14TH STREET","PLANO","TX","75074"
59019,"1410 20TH STREET UNIT 19","WEST DES MOINES","IA","50265"
59020,"1410 20TH STREET UNIT 214","MIAMI BEACH","FL","33139"
59021,"1410 47TH AVE NE","COLUMBIA HEIGHTS","MN","55421"
59022,"1410 71ST STREET","MIAMI BEACH","FL","33141"
59023,"1410 7TH WAY CIRCLE","PLEASANT GROVE","AL","35127"
59024,"1410 8TH AVE","LONGVIEW","WA","98632"
59025,"1410 8TH ST CT SE","NEW PRAGUE","MN","56071"
59026,"1410 AMISTAD DR","PROSPER","TX","75078"
59027,"1410 AVENUE R","BROOKLYN","NY","11229"
59028,"1410 BELMONT DRIVE","DALTON","GA","30720"
59029,"1410 BLANDING WAY","WINDER","GA","30680"
59030,"1410 BLUFF VIEW CT","INDIANAPOLIS","IN","46217"
59031,"1410 BRENDON TRAILS DR","SPRING","TX","77379"
59032,"1410 BYRON DRIVE","CONWAY","AR","72036"
59033,"1410 CHADWORTH COURT","PITTSBURGH","PA","15237"
59034,"1410 COUNTY ROAD 3218","DE KALB","TX","75559"
59035,"1410 COUNTY ROAD T","AMHERST JUNCTION","WI","54407"
59036,"1410 COX LAKE ROAD","BELTON","SC","29627"
59037,"1410 CREEKSIDE DRIVE APT 16","WALNUT CREEK","CA","94596"
59038,"1410 CURRY ROAD SUITE-131","SCHENECTADY","NY","12306"
59039,"1410 DABBLING DUCK DRIVE","SUMMERVILLE","SC","29483"
59040,"1410 DAKOTA STREET","LINCOLN","NE","68502"
59041,"1410 DOR","ZUMBROTA","MN","55992"
59042,"1410 E 11TH ST","LOVELAND","CO","80537"
59043,"1410 E 79TH STREET","KANSAS CITY","MO","64131"
59044,"1410 E IDAHOME STREET","WEST COVINA","CA","91791"
59045,"1410 E KEARNEY ST STE D","SPRINGFIELD","MO","65803"
59046,"1410 E KEARNEY SUITE D","SPRINGFIELD","MO","65803"
59047,"1410 EAST 9TH ST","PANAMA CITY","FL","32401"
59048,"1410 EAST JACKSON STREET","MEDFORD","OR","97504"
59049,"1410 EAST MARION STREET","SEATTLE","WA","98122"
59050,"1410 EAST PERSHING STREET","APPLETON","WI","54911"
59051,"1410 EASTERN AVENUE","MALDEN","MA","02148"
59052,"1410 EWING ST","LOS ANGELES","CA","90026"
59053,"1410 FORSTER BLVD SW","NORTH BEND","WA","98045"
59054,"1410 FRANKLIN STREET SUITE 211","SAN FRANCISCO","CA","94109"
59055,"1410 FRANKLIN STREET UNIT 207","SAN FRANCISCO","CA","94109"
59056,"1410 FREEMAN LOOP","CUMBERLAND FURNACE","TN","37051"
59057,"1410 GA HWY 40E","KINGSLAND","GA","31548"
59058,"1410 GOLDEN MEADOW STREET","WAUSAU","WI","54401"
59059,"1410 GRANT STREET SUITE B105","DENVER","CO","80203"
59060,"1410 HACKBERRY ST","CLIFTON","TX","76634"
59061,"1410 HICKS STREET 4A","BRONX","NY","10469"
59062,"1410 HICKS STREET 4A","BRONX","NY","10473"
59063,"1410 HIGHWAY 138 SW","RIVERDALE","GA","30296"
59064,"1410 HOAKOA PLACE","HONOLULU","HI","96821"
59065,"1410 HWY 304 EAST","POCAHONTAS","AR","72455"
59066,"1410 ISLEWORTH CIRCLE","ATLANTA","GA","30349"
59067,"1410 JASPER XING","PRINCETON","TX","75407"
59068,"1410 KEY HIGHWAY","BALTIMORE","MD","21230"
59069,"1410 LACEY DR","BAYTOWN","TX","77520"
59070,"1410 LADUE LANE","SARASOTA","FL","34231"
59071,"1410 LAKE CHARLOTTE COURT","RICHMOND","TX","77406"
59072,"1410 LAURENTIDE","HOUSTON","TX","77029"
59073,"1410 LONAS DRIVE","MARYVILLE","TN","37803"
59074,"1410 LPGA BLVD STE 148","DAYTONA BEACH","FL","32117"
59075,"1410 MAIN ST STE 3D","CINCINNATI","OH","45202"
59076,"1410 MCNEILL RD","SANFORD","NC","27330"
59077,"1410 N 30TH STREET","PHILADELPHIA","PA","19121"
59078,"1410 N 65TH AVENUE","PENSACOLA","FL","32506"
59079,"1410 N FRANKLIN ST","LITCHFIELD","IL","62056"
59080,"1410 N PINE HILLS RD","ORLANDO","FL","32808"
59081,"1410 NADINA STREET","SAN MATEO","CA","94402"
59082,"1410 NEOTOMAS AVENUE SUITE 102","SANTA ROSA","CA","95405"
59083,"1410 NOTTINGHILL DRIVE","O FALLON","IL","62269"
59084,"1410 NW 204 ST","MIAMI","FL","33169"
59085,"1410 NW DAISY DRIVE","TOPEKA","KS","66618"
59086,"1410 OAKMONT ROAD UNIT 140L","SEAL BEACH","CA","90740"
59087,"1410 OVERHILL RD","COLUMBIA","MO","65203"
59088,"1410 PATRICK CIRCLE SW","VIENNA","VA","22180"
59089,"1410 PEARTREE LN","BOWIE","MD","20721"
59090,"1410 PENN AVE","DES MOINES","IA","50316"
59091,"1410 RAWSON AVENUE","SOUTH MILWAUKEE","WI","53172"
59092,"1410 RENO RIDGE LANE","SPRING","TX","77373"
59093,"1410 RIDGE RD","HINCKLEY","OH","44233"
59094,"1410 RIVERSIDE DR","PRESTONSBURG","KY","41653"
59095,"1410 RIVERVIEW DRIVE","STILLWATER","MN","55082"
59096,"1410 ROAD 14","ST FRANCIS","KS","67756"
59097,"1410 S 18TH AVENUE","MAYWOOD","IL","60153"
59098,"1410 S AINSWORTH AVE","TACOMA","WA","98405"
59099,"1410 S BENTLEY AVE","LOS ANGELES","CA","90024"
59100,"1410 S LINCOLN WAY STE 100","COEUR D ALENE","ID","83814"
59101,"1410 S OLIVE ST","LOS ANGELES","CA","90015"
59102,"1410 S WARDLE ST","BOISE","ID","83705"
59103,"1410 SALISBURY DR","BATON ROUGE","LA","70816"
59104,"1410 SE 29TH AVE","PORTLAND","OR","97214"
59105,"1410 SE 43RD TERRACE","CAPE CORAL","FL","33904"
59106,"1410 SHADYCREEK COURT APT C","SAINT LOUIS","MO","63146"
59107,"1410 SIGLER ST","NASHVILLE","TN","37203"
59108,"1410 SILVIUS AVE","SAN PEDRO","CA","90731"
59109,"1410 SIMMONS AVENUE","LOS ANGELES","CA","90022"
59110,"1410 SOUTH FIFTH STREET","ST. CHARLES","MO","63301"
59111,"1410 SOUTH MAIN STREET","NASHVILLE","AR","71852"
59112,"1410 SUMMER SWEET LANE","MOUNT AIRY","MD","21771"
59113,"1410 SUMMIT PLACE DRIVE","ATLANTA","GA","30350"
59114,"1410 SW MORRISON ST STE 850","PORTLAND","OR","97205"
59115,"1410 TAYLOR AVENUE","CORONA","CA","92882"
59116,"1410 THIRD STREET SUITE 12","RIVERSIDE","CA","92507"
59117,"1410 TREASURE LAKE","DUBOIS","PA","15801"
59118,"1410 W 12TH AVE","BROOMFIELD","CO","80020"
59119,"1410 W CAMEL BACK LN APT 127","BOISE","ID","83702"
59120,"1410 W GUADALUPE RD","GILBERT","AZ","85233"
59121,"1410 W MICHIGAN ST","ORLANDO","FL","32805"
59122,"1410 W MOLLOY LN","MURFREESBORO","TN","37129"
59123,"1410 W ST GERMAIN ST","ST CLOUD","MN","56301"
59124,"1410 WALDROP COVE","AUSTIN","TX","78748"
59125,"1410 WEDGEWOOD DRIVE","MONTGOMERY","AL","36111"
59126,"1410 WELLGATE LANE","MECHANICSBURG","PA","17055"
59127,"1410 WEST 14TH STREET","ANDERSON","IN","46016"
59128,"1410 WIBLE ROAD SUITE 106","BAKERSFIELD","CA","93304"
59129,"1410 WILD HORSE DRIVE","GROVE CITY","OH","43123"
59130,"1410 WILLOW AVENUE","CHESAPEAKE","VA","23325"
59131,"14100 90TH AVE NW","PENNOCK","MN","56279"
59132,"14100 CEDAR ROAD SUITE 160","UNIVERSITY HEIGHTS","OH","44121"
59133,"14100 COVENTRY WAY  UNIT 303","TUSTIN","CA","92782"
59134,"14100 DICKENS ST STE 1","SHERMAN OAKS","CA","91423"
59135,"14100 RIO BONITO RD APT 163","HOUSTON","TX","77083"
59136,"14100 SAN PEDRO AVE SUITE 310","SAN ANTONIO","TX","78232"
59137,"14100 SNEAD CIR","ORLANDO","FL","32827"
59138,"14100 SW 144TH AVE","MIAMI","FL","33186"
59139,"14100 WEST PARSLEY DRIVE","MADEIRA BEACH","FL","33708"
59140,"14101 ARCHWOOD ST","VAN NUYS","CA","91405"
59141,"14101 ARCHWOOD STREET","VAN NUYS","CA","91405"
59142,"14101 BERNARDY LANE","CHARLOTTE","NC","28269"
59143,"14101 MISTY BROOK LANE","CHARLOTTE","NC","28273"
59144,"14101 N MAY AVE STE 105","OKLAHOMA CITY","OK","73134"
59145,"14101 RIO BONITO RD 292","HOUSTON","TX","77083"
59146,"14101 RIO BONITO RD SUITE 268","HOUSTON","TX","77083"
59147,"14101 S MICHIGAN AVE","RIVERDALE","IL","60827"
59148,"14101 TOWN LOOP BLVD","ORLANDO","FL","32837"
59149,"14101 W BRUNS RD","MANHATTAN","IL","60442"
59150,"14102 KREMS AVENUE","MAPLE","OH","44137"
59151,"14102 LA FORGE STREET","WHITTIER","CA","90605"
59152,"14102 NE 42ND AVE","VANCOUVER","WA","98686"
59153,"14102 SUSAN CT","SUGAR LAND","TX","77498"
59154,"14103 CHELSEAHURST LN","HOUSTON","TX","77047"
59155,"14103 PIPEVINE CT","WINTER GARDEN","FL","34787"
59156,"14103 PROSPERITY RIDGE DR","HOUSTON","TX","77048"
59157,"14104 JEFFERSON CREEK DRIVE","ALPHARETTA","GA","30005"
59158,"14104 JONES BRIDGE RD","UPPER MARLBORO","MD","20774"
59159,"14104 NE 30TH PLACE","BELLEVUE","WA","98007"
59160,"14104 NORTHAMPTON CT","GRANGER","IN","46530"
59161,"14105 CHADRON AVE","HAWTHORNE","CA","90250"
59162,"14105 CHADRON AVENUE 405","HAWTHORNE","CA","90250"
59163,"14105 NW 58TH COURT","MIAMI LAKES","FL","33014"
59164,"14105 Q STREET","OMAHA","NE","68137"
59165,"14105 Skyline Drive","Alexander","AR","72002"
59166,"14105 SW 84 ST","MIAMI","FL","33177"
59167,"14106 BRAMBLE COURT APT T2","LAUREL","MD","20708"
59168,"14106 CINDYWOOD CIRCLE","HOUSTON","TX","77079"
59169,"14107 FARADAY PL","CHESTER","VA","23831"
59170,"14107 MORNING FROST DR","ORLANDO","FL","32828"
59171,"14108 423RD AVE","BRISTOL","SD","57219"
59172,"14108 COUNTY ROAD 59","WOODLAND","AL","36280"
59173,"14108 DOTY AVENUE APT 10","HAWTHORNE","CA","90250"
59174,"14108 HAMLIN ST UNIT 1","VAN NUYS","CA","91401"
59175,"14108 KENSINGTON TRACE","LITHONIA","GA","30087"
59176,"14109 KESSLER ST","OVERLAND PARK","KS","66221"
59177,"14109 SE HARNEY STREET","PORTLAND","OR","97236"
59178,"1410E 4225N","BUHL","ID","83316"
59179,"1411  MILLGATE DR  STE A","WINSTON SALEM","NC","27103"
59180,"1411 101ST AVENUE WEST","DULUTH","MN","55808"
59181,"1411 129TH STREET","NEW RICHMOND","WI","54017"
59182,"1411 3RD STREET NORTHWEST","ATTALLA","AL","35954"
59183,"1411 ALLIES CT","FLORENCE","SC","29506"
59184,"1411 ARNOW AVE","BRONX","NY","10469"
59185,"1411 ASH OAK DRIVE","MISSOURI CITY","TX","77489"
59186,"1411 ASHTEAD LANE","WILLIAMSTOWN","NJ","08094"
59187,"1411 ASPEN DR","HARRISBURG","PA","17109"
59188,"1411 BACONS BRIDGE ROAD","SUMMERVILLE","SC","29485"
59189,"1411 BARNWELL STREET - SUITE 5","COLUMBIA","SC","29201"
59190,"1411 BETHLEHEM PIKE","FLOURTOWN","PA","19038"
59191,"1411 BONNETT  UNIT M","BEL AIR","MD","21015"
59192,"1411 BONNETT PLACE M","BEL AIR","MD","21015"
59193,"1411 CAGE STREET","HOUSTON","TX","77020"
59194,"1411 CARROLL AVE","LOS ANGELES","CA","90026"
59195,"1411 CELEBRATION AVE UNIT 207","CELEBRATION","FL","34747"
59196,"1411 CENTER AVE","MARTINEZ","CA","94553"
59197,"1411 COLUMBIA DRIVE","GLENDALE","CA","91205"
59198,"1411 COMMONWEALTH AVE UNIT 104","BRIGHTON","MA","02135"
59199,"1411 CROWS LANDING RD","MODESTO","CA","95351"
59200,"1411 CUMBERLAND CREEK LANE","MARIETTA","GA","30008"
59201,"1411 DICKERSON PIKE","NASHVILLE","TN","37207"
59202,"1411 DIXWELL AVE","HAMDEN","CT","06514"
59203,"1411 EAST 39TH STREET","SAVANNAH","GA","31404"
59204,"1411 EAST MOODY AVENUE - 30","KNOXVILLE","TN","38920"
59205,"1411 EAST POWELL STREET","BAONBRIDGE","GA","39817"
59206,"1411 EASTVIEW CT","OCEANSIDE","CA","92056"
59207,"1411 EDGEWATER DR STE 103","ORLANDO","FL","32804"
59208,"1411 FLOUNDER CT UNIT B","SAN FRANCISCO","CA","94130"
59209,"1411 FOURTH AVE - STE 1301","SEATTLE","WA","98101"
59210,"1411 FOX CREEK RD","LAWRENCEBURG","KY","40342"
59211,"1411 GHOLSON AVENUE","WINSTON SALEM","NC","27107"
59212,"1411 GLASTONBURY ROAD","MAITLAND","FL","32751"
59213,"1411 GOLDEN EAGLE DR","DURHAM","NC","27704"
59214,"1411 GORDON RD","MORELAND","GA","30259"
59215,"1411 GRAVEL PIT RD","SEGUIN","TX","78155"
59216,"1411 GUILFORD ROAD","DELAWARE","OH","43015"
59217,"1411 H STREET NE","WASHINGTON","DC","20002"
59218,"1411 HARNESS HORSE LANE 201","BRANDON","FL","33511"
59219,"1411 HERKIMER STREET APT 1","BROOKLYN","NY","11233"
59220,"1411 HWY 14","ELMORE","AL","36025"
59221,"1411 I M TERRELL CIR S","FORT WORTH","TX","76102"
59222,"1411 KALA DR","LITHONIA","GA","30058"
59223,"1411 KILCHIS FALLS WAY","BRASELTON","GA","30517"
59224,"1411 LAKE ROAD","LAKE FOREST","IL","60045"
59225,"1411 LAKECLIFF DR","HOUSTON","TX","77077"
59226,"1411 LORELEI DR","ZION","IL","60099"
59227,"1411 MADRID TRACE","SAN MARCOS","TX","78666"
59228,"1411 MAIN STREET","WORCESTER","MA","01603"
59229,"1411 MAPLE CT","TRACY","CA","95377"
59230,"1411 MARLEIGH LN","SOUTH ELGIN","IL","60177"
59231,"1411 MAYDELL ST","FORT WORTH","TX","76106"
59232,"1411 MISSOURI AVENUE","EAST ST LOUIS","IL","62201"
59233,"1411 MYRTLE RD","WESTVILLE","FL","32464"
59234,"1411 N LOS ROBLES AVE","PASADENA","CA","91104"
59235,"1411 N MAIN","ANDOVER","KS","67002"
59236,"1411 N STATE STREET","BIG RAPIDS","MI","49307"
59237,"1411 NATIONAL AVE","ROCKFORD","IL","61103"
59238,"1411 NE 155 TERR","NORTH MIAMI BEACH","FL","33162"
59239,"1411 NE 16TH AVE APT 403","PORTLAND","OR","97232"
59240,"1411 NE LEHMAN DR","MADRAS","OR","97741"
59241,"1411 NE SKIDMORE ST","PORTLAND","OR","97211"
59242,"1411 NW 175TH STREET","MIAMI","FL","33169"
59243,"1411 PECOS ST","DALLAS","TX","75204"
59244,"1411 RIMPAU AVENUE SUITE 109-1031","CORONA","CA","92879"
59245,"1411 ROOSEVELT AVE","LEHIGH","FL","33972"
59246,"1411 ROOSEVELT DRIVE","WOODLAND","CA","95776"
59247,"1411 S 10TH ST","COUNCIL BLUFFS","IA","51501"
59248,"1411 S 54TH ST","OMAHA","NE","68106"
59249,"1411 S SIERRA HILLS","WICHITA","KS","67230"
59250,"1411 S UTAH ST UNIT 12","SALT LAKE CITY","UT","84104"
59251,"1411 SE 33RD STREET","CAPE CORAL","FL","33904"
59252,"1411 SOUTH GORDON STREET","ATLANTA","GA","30310"
59253,"1411 STEVENS CT","ROSENBERG","TX","77471"
59254,"1411 SUNNYHILLS DR","BRANDON","FL","33510"
59255,"1411 SUNSET DRIVE UNIT B","BOGALUSA","LA","70427"
59256,"1411 SWEETBAY LN","WEST CHICAGO","IL","60185"
59257,"1411 TRESTLEWOOD DR","SAN JOSE","CA","95138"
59258,"1411 UNION VILLAGE RD","NORWICH","VT","05055"
59259,"1411 W 51ST ST","AUSTIN","TX","78756"
59260,"1411 W CHICAGO AVE STE 1","CHICAGO","IL","60642"
59261,"1411 W MICHIGAN AVE","MIDLAND","TX","79701"
59262,"1411 W SAINT GERMAIN ST STE 101","SAINT CLOUD","MN","56301"
59263,"1411 WEST AVENUE  SUITE 100","AUSTIN","TX","78701"
59264,"1411 WEST HIGH STREET","MOUNT PLEASANT","MI","48858"
59265,"1411 WEST INNES STREET","SALISBURY","NC","28144"
59266,"1411 WEST MICHIGAN AVENUE","MIDLAND","TX","79701"
59267,"1411 WILLOWBROOK ST","LANCASTER","TX","75134"
59268,"1411 WUNSCHE LOOP BOX 1242","SPRING","TX","77383"
59269,"1411 WUNSCHE LOOP UNIT 1966","SPRING","TX","77383"
59270,"1411 WUNSCHE LOOP","SPRING","TX","77383"
59271,"14110 CHELSEAHURST LN","HOUSTON","TX","77047"
59272,"14110 MIRAMAR DRIVE","GALVESTON","TX","77554"
59273,"14110 ROCKY VALLEY DR","CENTREVILLE","VA","20121"
59274,"14111 CENTER ROAD","TRAVERSE CITY","MI","49686"
59275,"14111 FURLONG WAY","GERMANTOWN","MD","20874"
59276,"14111 GREENVIEW DRIVE","LAUREL","MD","20708"
59277,"14111 S ALBERTSON AVE","COMPTON","CA","90222"
59278,"14112 1ST AVE W","EVERETT","WA","98208"
59279,"14112 HENDERSON DRIVE","RANCHO CUCAMONGA","CA","91739"
59280,"14112 LAKE CROSSING  DR","CHARLOTTE","NC","28278"
59281,"14112 PARK AVE","BURNSVILLE","MN","55337"
59282,"14112 ROYAL OAK DRIVE SW","CUMBERLAND","MD","21502"
59283,"14112 SAARINEN COURT","IRVINE","CA","92606"
59284,"14112 WOODWARD","HIGHLAND PARK","MI","48203"
59285,"14113 FARMINGTON BLVD","TAMPA","FL","33625"
59286,"14115 MANOR ROAD","BALDWIN","MD","21013"
59287,"14115 MOORPARK ST","SHERMAN OAKS","CA","91423"
59288,"14115 PROSPERITY RIDGE DR","HOUSTON","TX","77048"
59289,"14115 TIMBERHAVEN DR","HOUSTON","TX","77066"
59290,"14115 W GREENFIELD AVE","NEW BERLIN","WI","53151"
59291,"14115 W GREENFIELD AVE","NEW BERLIN","WI","53213"
59292,"14115 WOODWOLF CT","HOUSTON","TX","77015"
59293,"14116 BEVERLY DRIVE","FOSTERS","AL","35463"
59294,"14117 BLAZER LANE","SILVER SPRING","MD","20906"
59295,"14117 HUBBARD STREET SUITE M","SYLMAR","CA","91342"
59296,"14117 SW MEADOWLARK RD","ROSE HILL","KS","67133"
59297,"14118 ASHWOOD RD","SHAKER HTS","OH","44120"
59298,"14118 BISHOP BEND LANE","HOUSTON","TX","77047"
59299,"14118 CORDARY AVE SUITE 22","HAWTHORNE","CA","90250"
59300,"14118 RED MAPLE STREET","SAN ANTONIO","TX","78247"
59301,"14119 BEITLER RD","NEVADA CITY","CA","95959"
59302,"14119 BETHESDA LANE","PORT CHARLOTTE","FL","33981"
59303,"14119 BRUNSWICK PLACE DRIVE","HOUSTON","TX","77047"
59304,"14119 RIVERVIEW ST","DETROIT","MI","48223"
59305,"14119 WILEY CIRCLE","MIDLOTHIAN","VA","23114"
59306,"1412  WYNDMERE DRIVE","DESOTO","TX","75115"
59307,"1412 1/2 SOUTH DUNSMUIR AVENUE","LOS ANGELES","CA","90019"
59308,"1412 112TH AVENUE NE SUITE 102","BELLEVUE","WA","98004"
59309,"1412 12TH STREET","BAY CITY","TX","77414"
59310,"1412 A RUSSELL PKWY NUM 230","WARNER ROBINS","GA","31088"
59311,"1412 ANTIOCH PIKE STE 103","NASHVILLE","TN","37013"
59312,"1412 ASHLAND AVE","EVANSTON","IL","60201"
59313,"1412 BASIN AVE","BISMARCK","ND","58504"
59314,"1412 BOWMAN LANE","BRENTWOOD","TN","37027"
59315,"1412 BROOKHAVEN DR","DALLAS","TX","75224"
59316,"1412 CARLING DRIVE APT 211","SAINT PAUL","MN","55108"
59317,"1412 CAROL ST APT A","PARK RIDGE","IL","60068"
59318,"1412 CARR AVE","MEMPHIS","TN","38104"
59319,"1412 CARSON STREET","FORT WORTH","TX","76117"
59320,"1412 CHESTER LN","WEST MEMPHIS","AR","72301"
59321,"1412 CORNWALL AVE","BELLINGHAM","WA","98225"
59322,"1412 CORTLAND RD E","CHARLOTTE","NC","28209"
59323,"1412 COUNTRY LANE","ALLEN","TX","75002"
59324,"1412 DEER MEADOW LANE","GARNET VALLEY","PA","19060"
59325,"1412 DEERPOND LANE","VIRGINIA","VA","23464"
59326,"1412 DELAWARE AVE PMB 316","MCCOMB","MS","39648"
59327,"1412 DUNNS LAKE DR","JACKSONVILLE","FL","32218"
59328,"1412 E 315 S","WINAMAC","IN","46996"
59329,"1412 E BAARS ST","PENSACOLA","FL","32503"
59330,"1412 EAST PRESTON STREET","BALTIMORE","MD","21213"
59331,"1412 EIGHTH AVENUE","LEHIGH ACRES","FL","33972"
59332,"1412 FOREST DRIVE","CHILLICOTHE","MO","64601"
59333,"1412 GEORGIA ST","TUSTIN","CA","92782"
59334,"1412 HEATHER HILL CRESCENT","FLOSSMOOR","IL","60422"
59335,"1412 HOOHULU ST","PEARL CITY","HI","96782"
59336,"1412 HUNTINGTON DR","SOUTH PASADENA","CA","91030"
59337,"1412 HWY 117 S","GOLDSBORO","NC","27530"
59338,"1412 KEETON UNIT 9","MCALLEN","TX","78503"
59339,"1412 LONGFELLOW WAY","SAN JOSE","CA","95129"
59340,"1412 LONGLEAF DR","SOUTHPORT","NC","28461"
59341,"1412 MADISON AVE","SOUTH MILWAUKEE","WI","53172"
59342,"1412 MAIN ST STE 2500","DALLAS","TX","75202"
59343,"1412 MAIN STREET","OROVILLE","WA","98844"
59344,"1412 MILSTEAD AVENUE","CONYERS","GA","30012"
59345,"1412 N GRAND AVE","COVINA","CA","91724"
59346,"1412 NEW YORK AVE APT 4 F","BROOKLYN","NY","11210"
59347,"1412 NW 14TH ST","BATTLE GROUND","WA","98604"
59348,"1412 OAK TREE ROAD","ISELIN","NJ","08830"
59349,"1412 PACE MOUNTAIN ROAD","SALUDA","NC","28773"
59350,"1412 PEARL STREET APT 2","SANTA MONICA","CA","90405"
59351,"1412 PORTLAND AV","MINNEAPOLIS","MN","55404"
59352,"1412 PRAIRIE VALLEY DRIVE","CHARLOTTE","NC","28269"
59353,"1412 PRESSTMAN STREET","BALTIMORE","MD","21217"
59354,"1412 PROSPECT DR","WILMINGTON","DE","19809"
59355,"1412 RADIUM SPRINGS ROAD","ALBANY","GA","31705"
59356,"1412 RICHMOND ROAD","STATEN ISLAND","NY","10304"
59357,"1412 ROCKRIDGE RD","JARRETTSVILLE","MD","21084"
59358,"1412 ROCKRIDGE ROAD","JARRETTSVILLE","MD","21084"
59359,"1412 S BELT LINE ROAD","MESQUITE","TX","75149"
59360,"1412 S MORGAN STREET","CHICAGO","IL","60608"
59361,"1412 S PORTLAND AVE","GILBERT","AZ","85296"
59362,"1412 SAN JOSE AVE","ALAMEDA","CA","94501"
59363,"1412 SHIRLEY WAY","BEDFORD","TX","76022"
59364,"1412 SOUTH 1860 WEST","WOODS CROSS","UT","84087"
59365,"1412 SOUTH DILLE AVENUE","EL RENO","OK","73036"
59366,"1412 SUMMIT WAY","GROVETOWN","GA","30813"
59367,"1412 TALLADEGA DRIVE","WYLIE","TX","75098"
59368,"1412 UNRUH AVE","PHILADELPHIA","PA","19111"
59369,"1412 WEST 187TH PLACE","GARDENA","CA","90248"
59370,"1412 YOUNG STREET SE APT 3","WASHINGTON","DC","20020"
59371,"14120 85TH ROAD","BRIARWOOD","NY","11435"
59372,"14120 BIG JOHN ROAD","BILOXI","MS","39532"
59373,"14120 COUNTY RD 348","SAINT JOSEPH","MO","64505"
59374,"14120 NOEL ROAD","DALLAS","TX","75254"
59375,"14120 NOTTINGHAM TRAIL","HUDSON","FL","34669"
59376,"14120 SW 52 STREET","MIRAMAR","FL","33027"
59377,"14120 WALLISVILLE","HOUSTON","TX","77049"
59378,"14120A LEE HWY UNIT 2295","CENTREVILLE","VA","20122"
59379,"14121 BOWEN STREET","GARDEN GROVE","CA","92843"
59380,"14121 CANAL DRIVE","PENSACOLA","FL","32507"
59381,"14121 ETERNITY RD","GERMANTOWN","MD","20874"
59382,"14121 SE 228TH ST","KENT","WA","98042"
59383,"14121 SOUTHERN RED MAPLE DRIVE","ORLANDO","FL","32828"
59384,"14122 BISHOP CLAGGETT CT","UPPER MARLBORO","MD","20772"
59385,"14122 CLOVER POINT DR","SUGAR LAND","TX","77498"
59386,"14122 POKE RIDGE DR","RIVERVIEW","FL","33579"
59387,"14122 RIVERSTONE DRIVE","TAMPA","FL","33624"
59388,"14122 W MCDOWELL RD STE 102A","GOODYEAR","AZ","85395"
59389,"14123 C B MACDONALD WAY","VICKSBURG","MI","49097"
59390,"14123 CANTERBURY LANE","ROCKVILLE","MD","20853"
59391,"14123 GLADYS ST","GULFPORT","MS","39503"
59392,"14123 ROBERT PARIS CT","CHANTILLY","VA","21151"
59393,"14123","SCOTTSDALE","AZ","85267"
59394,"14124 MEDINAH COURT","CHESTER","VA","23831"
59395,"14125 COUNTY FARM ROAD","LITTLE ROCK","AR","72223"
59396,"14125 GARNETT","OVERLAND PARK","KS","66221"
59397,"14125 LA GLORIA ST","LA MIRADA","CA","90638"
59398,"14125 LA GLORIA STREET","LA MIRADA","CA","90638"
59399,"14125 LAKESIDE BLVD","SHELBY TWP","MI","48315"
59400,"14125 LOUISINA AVE  S UNIT 9108","SAVAGE","MN","55378"
59401,"14125 LYLE POINT ROAD","ANDERSON ISLAND","WA","98303"
59402,"14125 TIMBER LANE","WASECA","MN","56093"
59403,"14125 W 143RD STREET","OLATHE","KS","66062"
59404,"141251 PO BOX","DETROIT","MI","48214"
59405,"14126 MARQUESAS WAY APT 3326","MARINA DEL REY","CA","90292"
59406,"14126 W BANFF LANE","SURPRISE","AZ","85379"
59407,"14127 MARACAIBO RD","SAN LEANDRO","CA","94577"
59408,"14127 TIMBERHAVEN DRIVE","HOUSTON","TX","77066"
59409,"14128 E 22ND PL","AURORA","CO","80011"
59410,"14129 BEACH BLVD","JACKSONVILLE","FL","32250"
59411,"14129 BLACK HAW LN","GLEN ALLEN","VA","23059"
59412,"14129 NATURES PLACE CT SE","LOWELL","MI","49331"
59413,"14129 SE ALLEN ROAD","BELLEVUE","WA","98006"
59414,"1413  CORWITH DR","MORRISVILLE","NC","27560"
59415,"1413 16TH STREET EAST","BRADENTON","FL","34208"
59416,"1413 2ND AVE","MOUNTAIN LAKE","MN","56159"
59417,"1413 33RD STREET NW","WASHINGTON","DC","20007"
59418,"1413 42ND ST","PARKERSBURG","WV","26104"
59419,"1413 A NORTH 30TH STREET","VAN BUREN","AR","72956"
59420,"1413 AG SCIENCES BUILDING","MORGANTOWN","WV","26506"
59421,"1413 ALMA DRIVE","AUSTIN","TX","78753"
59422,"1413 ASPEN LANE","NORMAN","OK","73072"
59423,"1413 ATHENS RD","WILMINTON","DE","19803"
59424,"1413 BELMONT AVE","YOUNGSTOWN","OH","44504"
59425,"1413 BERN DR","SPRING HILL","TN","37174"
59426,"1413 BOXWOOD LN","APEX","NC","27502"
59427,"1413 BROWN RD","HEPHZIBAH","GA","30815"
59428,"1413 CADENCE COURT","LOUISVILLE","KY","40222"
59429,"1413 CALUMET DR","GROVETOWN","GA","30813"
59430,"1413 CARRIAGE CREEK DRIVE","DESOTO","TX","75115"
59431,"1413 CAYWOOD CIRCLE S","LEHIGH ACRES","FL","33936"
59432,"1413 CHEYENNE TRAIL","CORINTH","TX","76210"
59433,"1413 CLEVELAND AVE","EAST POINT","GA","30344"
59434,"1413 COUNTY ROAD 104","FLORESVILLE","TX","78114"
59435,"1413 DOWNING DRIVE","SAVANNAH","TX","76227"
59436,"1413 DR MLK JR AVE NE APT D","ALBUQUERQUE","NM","87106"
59437,"1413 DREAM BRIDGE DR","LAS VEGAS","NV","89144"
59438,"1413 E ELGIN PL","CHANDLER","AZ","85225"
59439,"1413 E IRVING BLVD","IRVING","TX","75060"
59440,"1413 E45TH STREET","BROOKLYN","NY","11234"
59441,"1413 EASTERN AVE","ROCKY MOUNT","NC","27801"
59442,"1413 FAIRVIEW AVENUE","HAVERTOWN","PA","19083"
59443,"1413 FARAWAY DRIVE","COLUMBIA","SC","29223"
59444,"1413 FLORENCE DRIVE","GWYNEDD VALLEY","PA","19437"
59445,"1413 FORSYTHE","RICHARDSON","TX","75081"
59446,"1413 G STREET","ANCHORAGE","AK","99501"
59447,"1413 GALILEE ROAD","DAMASCUS","PA","18415"
59448,"1413 GLEN OAKS RD","CLEMMONS","NC","27012"
59449,"1413 GOLDENROD CIRCLE","LANTANA","TX","76226"
59450,"1413 HAYDEN AVENUE","EAST CLEVELAND","OH","44112"
59451,"1413 HAZEL STREET","LOUISVILLE","KY","40211"
59452,"1413 HIGHWAY 17 S","SURFSIDE BCH","SC","29575"
59453,"1413 HODGE STREET","MCKINNEY","TX","75071"
59454,"1413 HUME STREET S","TACOMA","WA","98444"
59455,"1413 HWY 17 S PMB 148","SURFSIDE BEACH","SC","29575"
59456,"1413 KITMORE RD","BALTIMORE","MD","21239"
59457,"1413 LAFAYETTE STREET","MICHIGAN CITY","IN","46360"
59458,"1413 MARTHA STREET","LAKE CHARLES","LA","70601"
59459,"1413 MARWOOD ROAD","BYRAM","MS","39272"
59460,"1413 NW 4TH STREET","BOYNTON BEACH","FL","33435"
59461,"1413 OAKWOOD AVENUE","MENOMONIE","WI","54751"
59462,"1413 OUTLOOK DRIVE","MOUNTAINSIDE","NJ","07092"
59463,"1413 PLAINFIELD DR","LIMA","OH","45805"
59464,"1413 PLEASANT GARDEN LANE","RALEIGH","NC","27610"
59465,"1413 PROVIDENCE DRIVE","MCHENRY","IL","60051"
59466,"1413 QUEBEC STREET","HYATTSVILLE","MD","20783"
59467,"1413 RABON FARMS LANE","COLUMBIA","SC","29223"
59468,"1413 REBECCA LANE","ARLINGTON","TX","76014"
59469,"1413 SHORE ROAD","NORTHFIELD","NJ","08225"
59470,"1413 SOUTH ARAPAHO DRIVE","SANTA ANA","CA","92704"
59471,"1413 THUNDERBROOK","DESOTO","TX","75115"
59472,"1413 UPPER GOLD CREEK","SANDPOINT","ID","83864"
59473,"1413 VERMILYA AVENUE","FLINT","MI","48507"
59474,"1413 W KENNETH ROAD 200","GLENDALE","CA","91201"
59475,"1413 W STOCKWELL ST","COMPTON","CA","90222"
59476,"1413 WARRIOR LANE","MADISON","WI","53704"
59477,"1413 WOODHILL LANE","CHARLOTTE","NC","28205"
59478,"1413 WYNHURST DRIVE","VIENNA","VA","22182"
59479,"14130 CHURCHILL DR","HOMER GLEN","IL","60491"
59480,"14130 DEER COVE DRIVE","HOLLAND","MI","49424"
59481,"14130 OLD FM 471","SAN ANTONIO","TX","78253"
59482,"14130 REDWOOD CIRCLE S","MCKINNEY","TX","75071"
59483,"14131 MARSHFIELD AVENUE","DIXMOOR","IL","60426"
59484,"14131 NE EUGENE CT","PORTLAND","OR","97230"
59485,"141327","COLUMBUS","OH","43214"
59486,"14133 ALIS LN","FRISCO","TX","75035"
59487,"14133 N 65TH AVENUE","GLENDALE","AZ","85306"
59488,"14133 RANCHO TIERRA TRL","SAN DIEGO","CA","92130"
59489,"14134 HIDDEN VIEW RD NE","PRIOR LAKE","MN","55372"
59490,"14134 STATE HWY 31 E","BROWNSBORO","TX","75756"
59491,"14135 BANEBERRY CIRCLE","MANASSAS","VA","20112"
59492,"14135 BROADMOOR APT 303","OVERLAND PARK","KS","66223"
59493,"14135 CHAMPIONS DR APT 90","HOUSTON","TX","77069"
59494,"14135 CHAMPIONS DRIVE APT 154","HOUSTON","TX","77069"
59495,"14135 FRANCISQUITO AVE SUITE 215","BALDWINPARK","CA","91706"
59496,"14136 GILMORE AVE","BOW","WA","98232"
59497,"14136 SOUTH SHORE DR","CLIVE","IA","50325"
59498,"14137 253RD STREET","ROSEDALE","NY","11422"
59499,"14137 CASTLEROCK DR","ORLANDO","FL","32828"
59500,"14137 GLACIER VIEW DR","TRUCKEE","CA","96161"
