"ID","Address","City","State","Zip"
169001,"316 FERN AVE","HADDON TOWNSHIP","NJ","08108"
169002,"316 FOXGLOVE AVENUE","SUMMERVILLE","SC","29483"
169003,"316 GERMAN SCHOOL ROAD","RICHMOND","VA","23225"
169004,"316 GLENNSTOVALL DRIVE","THOMSON","GA","30824"
169005,"316 GREENE ROAD 604","PARAGOULD","AR","72450"
169006,"316 HARLEY DRIVE","KNOXVILLE","TN","37919"
169007,"316 HARMONY WAY","SPRINGFIELD","KY","40033"
169008,"316 HAWKEN TRAIL","MCDONOUGH","GA","30253"
169009,"316 HAWKINS AVENUE","PITTSBURGH","PA","15104"
169010,"316 HAWTHORNE ST  UNIT B","HOUSTON","TX","77006"
169011,"316 HIGHLAND AVE","DOWNINGTOWN","PA","19335"
169012,"316 HIXSON AVE 2","SYRACUSE","NY","13206"
169013,"316 HOME AVE","LOCKLAND","OH","45215"
169014,"316 HOWE STREET","LANSING","MI","48915"
169015,"316 HUNTERS CROSSING LANE","KINGSPORT","TN","37664"
169016,"316 INDEPENDENCE LANE","WAUSAU","WI","54403"
169017,"316 JACKSON AVE","SYOSSET","NY","11791"
169018,"316 JACKSON AVENUE","SYOSSET","NY","11791"
169019,"316 KRAUS ST","LAKE CRYSTAL","MN","56055"
169020,"316 LAKE BRITTANY CT","LAKE MARY","FL","32746"
169021,"316 LAKELAND DRIVE","HAMPTON","VA","23669"
169022,"316 LAMAR STREET","ASHBURN","GA","31714"
169023,"316 LAMPLIGHTER CIRCLE","PITTSBURGH","PA","15212"
169024,"316 LANAFIELD CIR","BOONSBORO","MD","21713"
169025,"316 LANDON ST","BUFFALO","NY","14211"
169026,"316 LAUREL ST  APT 1C","ST LOUIS","MO","63112"
169027,"316 LAURELHURST DR SE","TUMWATER","WA","98501"
169028,"316 LINDEN LN","TIFFIN","IA","52340"
169029,"316 LOBDELL POINT RD","WASHINGTON ISLAND","WI","54246"
169030,"316 MACREADY AVE","MONROE","OH","45050"
169031,"316 MAIN ST BOX 1013","STURBRIDGE","MA","01566"
169032,"316 MAIN STREET","VINCENNES","IN","47591"
169033,"316 MAIN STREET","WASHTA","IA","51061"
169034,"316 MARYLAND AVENUE","METAIRIE","LA","70003"
169035,"316 MAXWELL RD SUITE 300","ALPHARETTA","GA","30009"
169036,"316 MAYNARD AVE SOUTH 107","SEATTLE","WA","98104"
169037,"316 MCCUTCHEON DRIVE","LAFAYETTE","IN","47909"
169038,"316 MITCHELLS COURT","HARDEEVILLE","SC","29927"
169039,"316 MONROVIA AVENUE","LONG BEACH","CA","90803"
169040,"316 MONTEREY DRIVE","CARSON","CA","90745"
169041,"316 MOUNTAIN AVENUE SW","ROANOKE","VA","24016"
169042,"316 MOZART WAY","MCKINNEY","TX","75072"
169043,"316 MT PALOMAR PLACE","CLAYTON","CA","94517"
169044,"316 MURPHY BRANCH","BURNSVILLE","NC","28714"
169045,"316 N 48TH STREET","HARRISBURG","PA","17111"
169046,"316 N 4TH AVENUE","MAYWOOD","IL","60153"
169047,"316 N BONNIE BRAE STREET APT 3","LOS ANGELES","CA","90026"
169048,"316 N CHARLES STREET","DAYTONA BEACH","FL","32114"
169049,"316 N LAKE AVENUE","LEESBURG","FL","34748"
169050,"316 N MAIN STR","MARION","SC","29571"
169051,"316 N MICHIGAN ST SUITE 435","TOLEDO","OH","43604"
169052,"316 NE LAKES EDGE CIR","LEES SUMMIT","MS","64064"
169053,"316 NEVAMAR DR","COLUMBIA","SC","29223"
169054,"316 NOKOMIS ST","ALEXANDRIA","MN","56308"
169055,"316 NORTH CONGRESS STREET","YORK","SC","29745"
169056,"316 NORTH MICHIGAN STREET","TOLEDO","OH","43604"
169057,"316 NORTH PARK AVENUE","HELENA","MT","59623"
169058,"316 NORTH WARWICK AVENUE APT GB","WESTMONT","IL","60559"
169059,"316 NW 27TH STREET","OKLAHOMA CITY","OK","73103"
169060,"316 OAK ST","ROGUE RIVER","OR","97537"
169061,"316 OLD MILL RD","ARLINGTON","VT","05250"
169062,"316 OLIVE AVE 288","HUNTINGTON BEACH","CA","92648"
169063,"316 ORCHARD RIDGE ROAD","KALISPELL","MT","59901"
169064,"316 OSCEOLA STREET","PALATKA","FL","32177"
169065,"316 OSUNA NE SUITE 501","ALBUQUERQUE","NM","87107"
169066,"316 OXFORD ST NORTH","AUBURN","MA","01501"
169067,"316 PARK SPRINGS ROAD","COLUMBIA","SC","29223"
169068,"316 PENNSYLVANIA AVE SE SUITE 501","WASHINGTON","DC","20003"
169069,"316 PINE BLOOM RD","SPARTA","GA","31087"
169070,"316 POTOMAC AVE","BUFFALO","NY","14213"
169071,"316 PRADO WAY","GREENVILLE","SC","29615"
169072,"316 PRATT STREET","PRATTVILLE","AL","36067"
169073,"316 PUTTER ST","TOWNSEND","DE","19734"
169074,"316 QUAIL MEADOW","IRVINE","CA","92603"
169075,"316 QUARRY LANE","LIBERTY HILL","TX","78642"
169076,"316 RAILROAD AVENUE","ELKINS","WV","26241"
169077,"316 RIVIERA DRIVE","SAINT CLAIR SHORES","MI","48080"
169078,"316 ROLLING MEADOWS DR","NEW MARKET","TN","37820"
169079,"316 ROOSEVELT ST","BRISTOL","PA","19007"
169080,"316 RUBY CT","LONDON","KY","40744"
169081,"316 RUSSELL DRIVE","TARBORO","NC","27886"
169082,"316 S 2ND STREET","LEBANON","PA","17042"
169083,"316 S CLOVERDALE AVE 9","LOS ANGELES","CA","90036"
169084,"316 S HAYES AVE SUITE D","WAGONER","OK","74467"
169085,"316 S LAFONTAINE ST","HUNTINGTON","IN","46750"
169086,"316 S MAIN ST","IRONTON","MO","63650"
169087,"316 S MAIN ST","WANATAH","IN","46390"
169088,"316 S ROSEDALE COURT","ROUND LAKE","IL","60073"
169089,"316 SAWTIMBER LANE","COLUMBIA","SC","29209"
169090,"316 SCHUBERT ROAD","BETHEL","PA","19507"
169091,"316 SCOTT ST","BALTIMORE","MD","21230"
169092,"316 SCOTT STREET","BALTIMORE","MD","21230"
169093,"316 SE DOUGLAS","LEES SUMMIT","MO","64063"
169094,"316 SE PIONEER WAY","OAK HARBOR","WA","98277"
169095,"316 SHEFFIELD ROAD","CHERRY HILL","NJ","08034"
169096,"316 SOUTH MAPLE AVENUE","GREENSBURG","PA","15601"
169097,"316 SOUTH WARD STREET","ITALY","TX","76651"
169098,"316 SOUTH WEST THOMAS","BURLESON","TX","76028"
169099,"316 STATIONS AVE","WOODSTOCK","GA","30189"
169100,"316 STONEGATE ROAD","BOLINGBROOK","IL","60440"
169101,"316 SULLIVANT 1813 N HIGH ST","COLUMBUS","OH","43210"
169102,"316 TOWNSHIP ROAD 1214","IRONTON","OH","45638"
169103,"316 TUMBLEWEED TERRACE","TAYLORS","SC","29687"
169104,"316 VALLEJO ST","PETALUMA","CA","94952"
169105,"316 VETERANS HIGHWAY","TAOS PUEBLO","NM","87571"
169106,"316 VIRGINIA TERRACE","MADISON","WI","53726"
169107,"316 W  1ST  STREET   UNIT 2","PORT ANGELES","WA","98362"
169108,"316 W 116TH STREET SUITE 2B","NEW YORK","NY","10026"
169109,"316 W 2ND STREET SUITE 1202","LOS ANGELES","CA","90012"
169110,"316 W 4TH STREET","QUARRYVILLE","PA","17566"
169111,"316 W 58 HWY","STRASBURG","MO","64090"
169112,"316 W BELT LINE RD STE 202","CEDAR HILLS","TX","75104"
169113,"316 W HIGH AVENUE","NEW PHILA","OH","44663"
169114,"316 W LOOKOUT DR","RICHARDSON","TX","75080"
169115,"316 W WASHINGTON AVE SUITE 675","MADISON","WI","53703"
169116,"316 WASHINGTON AVENUE","WHEELING","WV","26003"
169117,"316 WEST 112TH STREET APT 5E","NEW YORK","NY","10026"
169118,"316 WEST 4TH STREET","MARION","IN","46953"
169119,"316 WEST 5TH STREET","APOPKA","FL","32703"
169120,"316 WEST 5TH STREET","WATERLOO","IA","50701"
169121,"316 WEST 88TH STREET","LOS ANGELES","CA","90003"
169122,"316 WEST 93RD STREET/6F","NEW YORK","NY","10025"
169123,"316 WEST MAIN STREET PO BOX 604","FRIES","VA","24330"
169124,"316 WEST MAIN STREET","LAFAYETTE","LA","70501"
169125,"316 WILLETT STREET","BUFFALO","NY","14206"
169126,"316 WINCHESTER DRIVE","SHARPSBURG","GA","30277"
169127,"316 WOODSEDGE RD","KNOXVILLE","TN","37924"
169128,"316 YORKSHIRE DRIVE","WILLIAMSBURG","VA","23185"
169129,"3160  WINFRED","WAYNE","MI","48184"
169130,"3160 16TH STREET NW","WASHINGTON","DC","20010"
169131,"3160 CANYON OAKS TERRACE","CHICO","CA","95928"
169132,"3160 CROW CANYON ROAD/100","SAN RAMON","CA","94583"
169133,"3160 EAST SPRING CREEK PARKWAY","PLANO","TX","75074"
169134,"3160 ELMWOOD COURT","ATLANTA","GA","30349"
169135,"3160 EMERALD VALLEY RD","ELLICOTT CITY","MD","21042"
169136,"3160 GAGE AVENUE","EL MONTE","CA","91731"
169137,"3160 HEATHER STREET","MOBILE","AL","36607"
169138,"3160 HIGHWAY 21 SUITE 103 PMB 6","FORT MILL","SC","29715"
169139,"3160 LEGACY TRACE","CINCINNATI","OH","45237"
169140,"3160 MAIN STREET WEST","SNEELVILLE","GA","30078"
169141,"3160 MARY ANN LANE","SAN BERNARDINO","CA","92404"
169142,"3160 N 39TH STREET","MILWAUKEE","WI","53216"
169143,"3160 NORTHSIDE PKWY NW","ATLANTA","GA","30327"
169144,"3160 S 2750 E","SALT LAKE CITY","UT","84109"
169145,"3160 S BRAND LEE WAY","YUMA","AZ","85365"
169146,"3160 S DENDLE DR","NEW PALESTINE","IN","46163"
169147,"3160 SOUTHGATE COMMERCE BLVD STE 38","ORLANDO","FL","32806"
169148,"3160 W SAHARA AVE SUITE A11","LAS VEGAS","NV","89102"
169149,"3160 WELCOME AVE N","CRYSTAL","MN","55422"
169150,"3160 WELLINGTON RD","LUMBERTON","NC","28360"
169151,"3160 WINDWARD WAY","MIRAMAR","FL","33025"
169152,"31601 SW 197TH AVE","HOMESTEAD","FL","33030"
169153,"31602 COUNTY HIGHWAY 15","SANBORN","MN","56083"
169154,"31602 VIA DULCINEA","SAN JUAN CAPISTRANO","CA","92675"
169155,"31606 NE 40TH AVE","LA CENTER","WA","98629"
169156,"3161 ALATA VISTA D","LAGUNA WOODS","CA","92637"
169157,"3161 ALTA VISTA D","LAGUNA WOODS","CA","92637"
169158,"3161 CAHABA HEIGHTS ROAD SUITE 203","VESTAVIA","AL","35243"
169159,"3161 CAMERON PARK DR SUITE 201","CAMERON PARK","CA","95682"
169160,"3161 CONYERS ST SE","COVINGTON","GA","30014"
169161,"3161 E CR 1200 N","BATESVILLE","IN","47006"
169162,"3161 E WARM SPRINGS RD SUITE 200","LAS VEGAS","NV","89120"
169163,"3161 ELLIOTT AVE STE 390","SEATTLE","WA","98121"
169164,"3161 ELLIOTT AVENUE SUITE 390","SEATTLE","WA","98121"
169165,"3161 HULL AVENUE","BRONX","NY","10467"
169166,"3161 LANDING FALLS LANE","RALEIGH","NC","27616"
169167,"3161 MCEWAN VIEW CIRCLE","ORLANDO","FL","32812"
169168,"3161 PARK AVE","MEMPHIS","TN","38111"
169169,"3161 STINSON CT","NEW BRIGHTON","MN","55112"
169170,"3161 SW 116 AVE","DAVIE","FL","33330"
169171,"3161 SW 16TH CT","FORT LAUDERDALE","FL","33312"
169172,"3161 THORNDYKE STREET","COLUMBUS","OH","43232"
169173,"3161 WEST HILL ROAD","HAMILTON","NY","13346"
169174,"31610 CONCORD DR","MADISON HEIGHTS","MI","48071"
169175,"31611 HIGHWAY 83 NORTH","CONCAN","TX","78838"
169176,"31613 345TH AVE SE","FOSSTON","MN","56542"
169177,"31616 N 19TH AVE","PHOENIX","AZ","85085"
169178,"31617 WIXSON DRIVE","WARREN","MI","48092"
169179,"31618 DUNHAM LAKE DRIVE","HOCKLEY","TX","77447"
169180,"3162 ALTA VERDE DRIVE","FALLBROOK","CA","92028"
169181,"3162 ARIANA DRIVE","OAKTON","VA","22124"
169182,"3162 BANNEKER DRIVE NE","WASHINGTON","DC","20018"
169183,"3162 BAYONET CT","MARIETTA","GA","30068"
169184,"3162 CHAMPA ST","DENVER","CO","80205"
169185,"3162 HUNTINGTON ROAD","SHAKER HEIGHTS","OH","44120"
169186,"3162 JOHNSON FERRY ROAD 260-202","MARIETTA","GA","30062"
169187,"3162 JUNIPER STREET","SAN DIEGO","CA","92104"
169188,"3162 NORTH BROADWAY 200","CHICAGO","IL","60657"
169189,"3162 SR 135 NORTH","NASHVILLE","IN","47448"
169190,"31620 AUTO CENTER DR C-1","LAKE ELSINORE","CA","92530"
169191,"31620 AUTO CENTER DR STE B-1","LAKE ELSINORE","CA","92530"
169192,"3163 BANTON CIRCLE","CORONA","CA","92882"
169193,"3163 BLUE RIDGE RD","COLUMBUS","OH","43219"
169194,"3163 DUDLEY DRIVE","DELTONA","FL","32738"
169195,"3163 FLOYD DR","AUGUSTA","GA","30906"
169196,"3163 FLUSHING RD STE 200 F","FLINT","MI","48504"
169197,"3163 FLUSHING RD STE C-1","FLINT","MI","48504"
169198,"3163 FLUSHING RD SUITE 210","FLINT","MI","48504"
169199,"3163 GEDNEY CIR","BLYTHEWOOD","SC","29016"
169200,"3163 MORRISON CANYON ROAD","FREMONT","CA","94538"
169201,"3163 RIDERS TRAIL","DECATUR","GA","30034"
169202,"3163 SCOTCH CREEK ROAD","COPPELL","TX","75019"
169203,"3163 SHERIDAN AVENUE","ST LOUIS","MO","63106"
169204,"31630 110TH PLACE SE","AUBURN","WA","98092"
169205,"31630 COWAN RD APT 202","WESTLAND","MI","48185"
169206,"31633 CALLE DE TALAR","BONSALL","CA","92003"
169207,"31636 169TH STREET","HUNTLEY","MN","56047"
169208,"31638 DEERFIELD TERRACE","BULVERDE","TX","78163"
169209,"31638 IRIS COURT","BROWNSTOWN","MI","48173"
169210,"31639 US HWY 77","ARKANSAS CITY","KS","67005"
169211,"3164 72ND AVE NORTH","SAINT PETERSBURG","FL","33702"
169212,"3164 ARROW LN","CLARKSVILLE","TN","37043"
169213,"3164 PETRE RD APT 101","CHESAPEAKE","VA","23325"
169214,"3164 RENDEZVOUS LANE","MEMPHIS","TN","38118"
169215,"3164 S 124TH RD","FLEMINGTON","MO","65650"
169216,"3164 S MARTADALE DR","AKRON","OH","44333"
169217,"3164 SHADY GROVE RD","SILAS","AL","36919"
169218,"3164 STERLING AVE","SANGER","CA","93657"
169219,"3164 W 12TH AVENUE CT","BROOMFIELD","CO","80020"
169220,"31646 LAKE ROAD","AVON LAKE","OH","44012"
169221,"3165 46TH ST - NUMBER 101","LONG ISLAND CITY","NY","11103"
169222,"3165 BEECHMONT ST","MEMPHIS","TN","38127"
169223,"3165 CHICKERING WOODS DRIVE","LOUISVILLE","KY","40241"
169224,"3165 E MILLROCK DRIVE SUITE 500","SALT LAKE CITY","UT","84121"
169225,"3165 EAST MILLROCK DRIVE SUITE 500","SALT LAKE CITY","UT","84121"
169226,"3165 GAYLA DRIVE","BLANCHARD","OK","73010"
169227,"3165 HOSKINS ROAD","MEMPHIS","TN","38111"
169228,"3165 KINGFISHER CT","FORT COLLINS","CO","80528"
169229,"3165 MARTINSBURG PIKE","CLEAR BROOK","VA","22624"
169230,"3165 N KINGS HWY EAST","PRESCOTT VALLEY","AZ","86314"
169231,"3165 PACIFIC HIGHWAY","SAN DIEGO","CA","92101"
169232,"3165 PRAIRIE LANE","COLUMBUS","NE","68601"
169233,"3165 S SCHENLEY AVE","YOUNGSTOWN","OH","44511"
169234,"3165 WENDEL RD SE","PALM BAY","FL","32909"
169235,"31651 VIA CERVANTES","SAN JUAN CAPISTRANO","CA","92675"
169236,"31654 LATHAM RIDGE RD","SHADY POINT","OK","74956"
169237,"31658 CATALINA WAY","BULVERDE","TX","78163"
169238,"3166 6TH PL SW","LOVELAND","CO","80537"
169239,"3166 ALIKA AVENUE","HONOLULU","HI","96817"
169240,"3166 CLARITA CT","THOUSAND OAKS","CA","91362"
169241,"3166 E PALMDALE BLVD STE 218","PALMDALE","CA","93550"
169242,"3166 E PALMDALE BLVD","PALMDALE","CA","93550"
169243,"3166 FRUITVALE AVE","OAKLAND","CA","94602"
169244,"3166 HWY 315 APT 911","HOUMA","LA","70360"
169245,"3166 JAYNE LN","DOVER","PA","17315"
169246,"3166 LITTLE MOUNTAIN DRIVE APT A","SAN BERNARDINO","CA","92405"
169247,"3166 N 41ST STREET","MILWAUKEE","WI","53216"
169248,"3166 N 54TH STREET","MILWAUKEE","WI","53206"
169249,"3166 OSTROM AVENUE","LONG BEACH","CA","90815"
169250,"3166 PADDINGTON WAY","SAN RAMON","CA","94582"
169251,"3166 SANTA CLAIR CIRCLE","JACKSON","MS","39212"
169252,"3166 SANTIAGO DRIVE","FLORRISANT","MO","63033"
169253,"3166 SW CURCUMA STREET","PORT SAINT LUCIE","FL","34953"
169254,"3166 WHOOPING CRANE RUN","KISSIMMEE","FL","34741"
169255,"31662 MAR VISTA AVE","LAGUNA BEACH","CA","92651"
169256,"31665 WINNERS CIRCLE","AVON LAKE","OH","44012"
169257,"31668 ECKSTEIN ST","WARREN","MI","48092"
169258,"3167 CHIPPEWA BEACH ROAD","INDIAN RIVER","MI","49749"
169259,"3167 FLEDGLING CIR","WOODBRIDGE","VA","22193"
169260,"3167 FREEMONT TERRACE SOUTH","ST PETERSBURG","FL","33712"
169261,"3167 OHIO STREET","MIAMI","FL","33133"
169262,"3167 PHILIP AVENUE","BRONX","NY","10465"
169263,"3167 SALLY ANN DR","LOVELAND","CO","80537"
169264,"3167 WAIALAE AVE","HONOLULU","HI","96816"
169265,"31670 GIBONEY ROAD","WALLER","TX","77484"
169266,"31672 162ND AVE","AVON","MN","56310"
169267,"31678 COAST HWY UNIT A","LAGUNA BEACH","CA","92651"
169268,"3168 52ND AVE","GREELEY","CO","80634"
169269,"3168 ABILENE ST","AURORA","CO","80011"
169270,"3168 ADAMSWOOD DR","SAN JOSE","CA","95148"
169271,"3168 BUCKBOARD DRIVE","EVERGREEN","CO","80439"
169272,"3168 MANOR CT","INDIANAPOLIS","IN","46218"
169273,"3168 NW 63RD ST","BOCA RATON","FL","33496"
169274,"3168 OAKLAND AVE","CATLETTSBURG","KY","41129"
169275,"3168 OGALALA AVENUE","SAN DIEGO","CA","92117"
169276,"3168 POTTER AVE","THOUSAND OAKS","CA","91360"
169277,"3168 RICHMOND STREET","PHILADELPHIA","PA","19134"
169278,"3168 ROCHFORT BR DR E","COLUMBUS","OH","43221"
169279,"3168 ROUTE 9N","GREENFIELD CENTER","NY","12833"
169280,"3168 SAND MARSH LANE","MOUNT PLEASANT","SC","29466"
169281,"31681 RIVERSIDE DRIVE- STE D","LAKE ELSINORE","CA","92530"
169282,"31681 RIVERSIDE DRIVE- STE D","RIVERSIDE","CA","92530"
169283,"3169 49TH STREET  SUITE 2D","WOODSIDE","NY","11377"
169284,"3169 BEECHWOOD DRIVE","ALLISON PARK","PA","15101"
169285,"3169 FOX DR","CHALFONT","PA","18914"
169286,"3169 KINGS BAY DR","DECATUR","GA","30034"
169287,"3169 PROFESSIONAL PLAZA SUITE 1","GERMANTOWN","TN","38138"
169288,"3169 SPICY CEDAR LANE","LITHONIA","GA","30038"
169289,"3169 TERRACE CT C","PEACHTREE CORNERS","GA","30092"
169290,"3169 YATES","BARLETT","TN","38134"
169291,"31698 COMANCHE ROAD","COARSEGOLD","CA","93614"
169292,"31698 MOUND RD","WARREN","MI","48092"
169293,"316A HOG HOUSE HILL ROAD","EXETER","RI","02822"
169294,"316B CANADA","JACKSONVILLE","TX","75766"
169295,"317 10TH STREET NE 9","WASHINGTON","DC","20002"
169296,"317 112TH AVE NE APT 453","BELLEVUE","WA","98004"
169297,"317 2ND AVE NW","OSSEO","MN","55369"
169298,"317 5 STREET NE","WATFORD CITY","ND","58854"
169299,"317 ALICE LANE","DEER PARK","TX","77536"
169300,"317 ANDERSON BLVD","GENEVA","IL","60134"
169301,"317 ASBURY CHURCH RD","WAYNESBORO","GA","30830"
169302,"317 ASHFORD COURT","WINSTON SALEM","NC","27103"
169303,"317 ASTOR ST","SAN ANTONIO","TX","78210"
169304,"317 AUTUMN COURT","BARTLESVILLE","OK","74006"
169305,"317 BECKEY HILL RD","BARRE","VT","05641"
169306,"317 BELLEVILLE AVENUE","BLOOMFIELD","NJ","07003"
169307,"317 BENTON DRIVE","ROANOKE","TX","76262"
169308,"317 BIRCHWOOD PARK DRIVE","VIRGINIA BEACH","VA","23452"
169309,"317 BLOSSOM CT","LATTA","SC","29565"
169310,"317 BRACKEN LANE","BRANDON","FL","33511"
169311,"317 BRIMMING LAKE RD","MINNEOLA","FL","34715"
169312,"317 BROAD STREET","BROCKWAY","PA","15824"
169313,"317 BUIE PHILADELPHUS ROAD","RED SPRINGS","NC","28377"
169314,"317 BURTON ROAD","ORELAND","PA","19075"
169315,"317 CAROL AVENUE","LEANDER","TX","78641"
169316,"317 CAWTHORN DR","SLIDELL","LA","70458"
169317,"317 CHESWOLD ROAD","DREXEL HILL","DE","19026"
169318,"317 CLAYTON OAKS DR","ELLISVILLE","MO","63011"
169319,"317 CLEARVIEW DRIVE","CLARKSVILLE","TN","37043"
169320,"317 COLLINWOOD DRIVE","BURLINGTON","NC","27215"
169321,"317 COLTON WAY","ADA","OK","74820"
169322,"317 COMMERCIAL ST NE","ALBUQUERQUE","NM","87102"
169323,"317 COMMERICAL STREET STE APMB-123","ALBUQUERQUE","NM","87102"
169324,"317 CONIFER COURT","WALNUT CREEK","CA","94598"
169325,"317 CR 3107","CROCKETT","TX","75835"
169326,"317 CRENSHAW STREET","BEDFORD","VA","24523"
169327,"317 CROWN ST","BROOKLYN","NY","11225"
169328,"317 CROWN STREET","BROOKLYN","NY","11225"
169329,"317 DANIELL DRIVE","GUILDERLAND","NY","12303"
169330,"317 DECADE RD","EROS","LA","71238"
169331,"317 DEERPATH","TOLONO","IL","61880"
169332,"317 DEVONHALL LN","CARY","NC","27518"
169333,"317 E 3RD ST","FAIRMONT","MN","56031"
169334,"317 E 65TH STREET","LONG BEACH","CA","90805"
169335,"317 E 9TH ST","SALIDA","CO","81201"
169336,"317 E 9TH STREET STE 13","NEW YORK","NY","10003"
169337,"317 E ALPINE ST","AVENAL","CA","93204"
169338,"317 E CAPITOL ST STE 706","JACKSON","MS","39201"
169339,"317 E OAK STREET","OAKLAND","MD","21550"
169340,"317 E RAILROAD AVE","PORT ISABEL","TX","78578"
169341,"317 E WARWICK STE B","ALMA","MI","48801"
169342,"317 E WILLIAMS ST","FORT WAYNE","IN","46803"
169343,"317 EAST 4TH STREET","ROME","GA","30161"
169344,"317 EAST 67TH STREET RM 228","NEW YORK","NY","10021"
169345,"317 EAST OAK STREET","OAKLAND","MD","21550"
169346,"317 EAST SOUTH AVE","GLENOLDEN","PA","19036"
169347,"317 EDGEWATER DRIVE SUITE 2183","ORLANDO","FL","32804"
169348,"317 ELWOOD AVENUE APT B","HAWTHORNE","NY","10532"
169349,"317 EMORY HEIGHTS RD","HARRIMAN","TN","37748"
169350,"317 ENID COURT","GEORGETOWN","KY","40324"
169351,"317 FARMINGTON DRIVE","PLANTATION","FL","33317"
169352,"317 FEDERAL ROAD SUITE D3","BROOKFIELD","CT","06804"
169353,"317 FLANNERY LANE","SILVER SPRING","MD","20904"
169354,"317 FORREST PARK CT NW","HUNTSVILLE","AL","35806"
169355,"317 FOX CHASE COURT","MARVIN","NC","28173"
169356,"317 GOLDEN EYE COURT","HAVRE DE GRACE","MD","21078"
169357,"317 HANOVER AVE APT 101","OAKLAND","CA","94606"
169358,"317 HARDWICK DRIVE","DURHAM","NC","27713"
169359,"317 HARMON COVE TOWERS","SECAUCUS","NJ","07094"
169360,"317 HIGHLAND PLACE","CIBOLO","TX","78108"
169361,"317 HOLLERING HILL ROAD","WYOMING","DE","19934"
169362,"317 HOOMALU STREET","PEARL CITY","HI","96782"
169363,"317 HUFFMAN BLUFF","KELLER","TX","76248"
169364,"317 IMOGENE","DAYTON","OH","45405"
169365,"317 JEFFERSON STREET","KERNERSVILLE","NC","27284"
169366,"317 JOHNSON LANE","WINTERVILLE","NC","28590"
169367,"317 KENDRICK","MARLIN","TX","76661"
169368,"317 KENTUCKY AVENUE","SAINT ALBANS","WV","25177"
169369,"317 LAKE DR","LAKELAND","FL","33813"
169370,"317 LAKESHORE CIRCLE","GEORGETOWN","KY","40324"
169371,"317 LAKEVIEW DRIVE","WADESBORO","NC","28170"
169372,"317 LANCELOT COURT","LINDEN","NC","28356"
169373,"317 LANE PARK TRAIL","MAYLENE","AL","35114"
169374,"317 LEGION CT","BRYAN","TX","77803"
169375,"317 LETA STREET","AUBURNDALE","FL","33823"
169376,"317 LUELLA PLACE NE","STEWARTVILLE","MN","55976"
169377,"317 MADISON AVE","LAS VEGAS","NV","89084"
169378,"317 MAIN AVE","DE PERE","WI","54115"
169379,"317 MAIN STREET","WALTHILL","NE","68067"
169380,"317 MAPLE ST","BELPRE","OH","45714"
169381,"317 MATILDA PLACE","CARY","NC","27513"
169382,"317 MEADOW RIDGE COURT","HUDSON","WI","54016"
169383,"317 MIAMI STREET","PARK FOREST","IL","60466"
169384,"317 MONTCLAIR AVE","DALLAS","TX","75075"
169385,"317 MONTELENA PLACE","CARY","NC","27513"
169386,"317 MOUNTAIN VIEW DRIVE","KEYSER","WV","26726"
169387,"317 MULBERRY DR","FATE","TX","75087"
169388,"317 MURPHY STREET","MANSFIELD","LA","71052"
169389,"317 N 18TH ST","MONTEBELLO","CA","90640"
169390,"317 N 30TH AVENUE","COVINGTON","LA","70433"
169391,"317 N CALIFORNIA ST","STOCKTON","CA","95202"
169392,"317 N EL CAMINO REAL SUITE 501","ENCINITAS","CA","92024"
169393,"317 N FARNSWORTH AVE","AURORA","IL","60505"
169394,"317 N INDIANA AVE","BLOOMINGTON","IN","47408"
169395,"317 N MILL STREET","ST LOUIS","MI","48880"
169396,"317 N SALEM ST","APEX","NC","27502"
169397,"317 N WEST ST","YERINGTON","NV","89447"
169398,"317 NC HWY 55","DUNN","NC","28334"
169399,"317 NEW HOPE TRAIL NE","BROOKHAVEN","MS","39601"
169400,"317 NORTH 4TH STREET","DEKALB","IL","60115"
169401,"317 NORTH MAIN STREET","FRANKLIN","KY","42134"
169402,"317 NORTHVIEW DR","LONDON","OH","43140"
169403,"317 OAKLAWN AVE","OAKLYN","NJ","08107"
169404,"317 OGDEN STREET","ORANGE","NJ","07050"
169405,"317 OLD HIGHWAY 99","EAGLEVILLE","TN","37060"
169406,"317 OLENTANGY XING W","DELAWARE","OH","43015"
169407,"317 PACIFIC AVE  PO BOX 33","JERSEY CITY","NJ","07304"
169408,"317 PACIFIC AVE","JERSEY CITY","NJ","07304"
169409,"317 PACIFIC AVENUE PO BOX 33","JERSEY CITY","NJ","07304"
169410,"317 PARMENTER CREEK ROAD","LIBBY","MT","59923"
169411,"317 PATRIOT WAY","CHARLOTTESVILLE","VA","22903"
169412,"317 PENNFIELD STREET","LEHIGH ACRES","FL","33974"
169413,"317 PIAVE ST","LAFAYETTE","LA","70501"
169414,"317 PINE AVE","NEWPORT NEWS","VA","23607"
169415,"317 POLLOCK ST UNIT D SUITE 3","NEW BERN","NC","28560"
169416,"317 PRINCESS ARCH LANE","LEXINGTON","KY","40511"
169417,"317 REDWOOD RD","VENICE","FL","34293"
169418,"317 RIDGELAND DR","VALDOSTA","GA","31602"
169419,"317 RIVEREDGE BLVD STE 208","COCOA","FL","32922"
169420,"317 ROCK BRIDGE DR","WINDSOR","CO","80550"
169421,"317 RUTH VISTA ROAD","LEXINGTON","SC","29073"
169422,"317 S 31ST STREET","HARRISBURG","PA","17109"
169423,"317 S COLLINGTON AVE","BALTIMORE","MD","21231"
169424,"317 S ELM LOFT 508","OWOSSO","MI","48867"
169425,"317 S MAIN ST","NEW CARLISLE","OH","45344"
169426,"317 S MAPLE ST","MONTROSE","IL","62445"
169427,"317 S PIERCE ST","LAFAYETTE","LA","70501"
169428,"317 S RIVERVIEW DRIVE","PARCHMENT","MI","49004"
169429,"317 S WAYNE ST             SUITE 1A","ANGOLA","IN","46703"
169430,"317 SCENIC LAKE CT","PIEDMONT","SC","29673"
169431,"317 SECOND AVENUE NW","OSSEO","MN","55369"
169432,"317 SIDNEY BAKER S SUITE 400-111","KERRVILLE","TX","78028"
169433,"317 SIDNEY BAKER SOUTH STE 400-383","KERRVILLE","TX","78028"
169434,"317 SILVER HILL ROAD 5A","DERBY","CT","06418"
169435,"317 SOUTH 8TH ST","MONMOUTH","IL","61462"
169436,"317 SOUTH ALBANY","CHICAGO","IL","60612"
169437,"317 SOUTH TEACHEY ROAD","WALLACE","NC","28466"
169438,"317 ST AUGUSTINE LN","HENDERSON","NV","89014"
169439,"317 STERLING AVENUE","NEW CASTLE","DE","19720"
169440,"317 STURGES RIDGE ROAD","WILTON","CT","06897"
169441,"317 SW ASCOT DR","LEE'S SUMMIT","MO","64082"
169442,"317 TACOMA AVENUE","BUFFALO","NY","14216"
169443,"317 THOMPSON STREET","PORT JEFFERSON","NY","11777"
169444,"317 TREASURE ST","BARTONVILLE","IL","61607"
169445,"317 TROY AVENUE","BROOKLYN","NY","11213"
169446,"317 UNIVERSITY HALL NUMBER 1150","BERKELEY","CA","94720"
169447,"317 VALLEY RIDGE DRIVE","RED OAK","TX","75154"
169448,"317 VAN BRUNT ST APT 3","BROOKLYN","NY","11231"
169449,"317 VANNTOWN ROAD","FLINTVILLE","TN","37335"
169450,"317 VILLAGE DRIVE","LANSING","MI","48911"
169451,"317 VINE STREET","BECKLEY","WV","25801"
169452,"317 W 23RD STREET","TUCSON","AZ","85713"
169453,"317 W 2ND SOUTH ST","CARLINVILLE","IL","62626"
169454,"317 W 7TH ST","WAITSBURG","WA","99361"
169455,"317 W HANLON ST","TAMPA","FL","33604"
169456,"317 W LAKE STREET","BARRINGTON","IL","60010"
169457,"317 W LEE AVE","KINGSVILLE","TX","78363"
169458,"317 W MEMPHIS STREET","BROKEN ARROW","OK","74012"
169459,"317 W POPLAR","ROGERS","AR","72756"
169460,"317 W WALNUT STREET","GREEN BAY","WI","54303"
169461,"317 WALBRUN ROAD","SULTAN","WA","98294"
169462,"317 WALNUT CREEK RD","BASTROP","TX","78602"
169463,"317 WASHINGTON AVE","KINGSTON","NY","12401"
169464,"317 WELCOME DRIVE","MYRTLE BEACH","SC","29579"
169465,"317 WELLS ST","SCRANTON","PA","18508"
169466,"317 WELLSIAN WAY","RICHLAND","WA","99352"
169467,"317 WEST 114TH STREET","NEW YORK","NY","10026"
169468,"317 WEST 37TH STREET","RIVIERA BEACH","FL","33404"
169469,"317 WEST AVE  113197  SMB 2604","STAMFORD","CT","06911"
169470,"317 WEST AVE A","BELLE GLADE","FL","33430"
169471,"317 WEST LOGAN STREET","PHILADELPHIA","PA","19144"
169472,"317 WEST MULLAN AVE","KELLOGG","ID","83837"
169473,"317 WEST PORTAL AVE UNIT 27637","SAN FRANCISCO","CA","94127"
169474,"317 WEST WOODALL STREET","BENSON","NC","27504"
169475,"317 WHITEHALL WAY","CARY","NC","27511"
169476,"317 WHITNEY BREEZE","LV","NV","89031"
169477,"317 WILKINSON ROAD","RICHMOND","VA","23227"
169478,"317 WILLOW STREET SUITE 2L","NEW HAVEN","CT","06511"
169479,"317","ANN ARBOR","MI","48108"
169480,"317","PARKSLEY","VA","23421"
169481,"3170 AIRMANS DRIVE","FORT PIERCE","FL","34946"
169482,"3170 CARROLL EASTERN RD NE","PLEASANTVILLE","OH","43148"
169483,"3170 FOURTH AVE SUITE 250","SAN DIEGO","CA","92103"
169484,"3170 HERRENHUT ROAD","LITHONIA","GA","30038"
169485,"3170 HIDDEN POND ROAD","SUAMICO","WI","54313"
169486,"3170 HIGHGREEN TRL","ATLANTA","GA","30349"
169487,"3170 JUNCTION HWY STE W3","INGRAM","TX","78025"
169488,"3170 LAUREL AVE","HENDERSON","NV","89014"
169489,"3170 MACY ST","SAN BERNARDINO","CA","92407"
169490,"3170 MAPLELEAF DR - APT 909","LEXINGTON","KY","40509"
169491,"3170 N SHERIDAN ROAD SUITE 720","CHICAGO","IL","60657"
169492,"3170 NATIONAL AVE","PAHRUMP","NV","89048"
169493,"3170 PANOLA ROAD","LITHONIA","GA","30038"
169494,"3170 PEACHTREE IND BLVD STE 175","DULUTH","GA","30097"
169495,"3170 SE SLATER ST","STUART","FL","34997"
169496,"3170 SO FEDERAL HWY","MIAMI","FL","33312"
169497,"3170 W  SAHARA AVE","LAS VEGAS","NV","89012"
169498,"3170 WILLIAM DRIVE","GRAND JUNCTION","CO","81503"
169499,"31700 CANYON RIDGE DR","LAKE ELSINORE","CA","92532"
169500,"31700 W 13 MILE RD SUITE 100","FARMINGTON HILLS","MI","48334"
