"ID","Address","City","State","Zip"
317501,"950 VIA KACHESS RD","EASTON","WA","98925"
317502,"950 W  PEACHTREE ST NW","ATLANTA","GA","30309"
317503,"950 W BANNOCK STREET  SUITE 1100","BOISE","ID","83702"
317504,"950 W JOHN CARPENTER FWY STE 102","IRVING","TX","75039"
317505,"950 W NORTH ST","MARSHALL","MO","65340"
317506,"950 W SIERRA MADRE AVE APT 504","AZUSA","CA","91702"
317507,"950 WAILUPE DR","WAILUKU","HI","96793"
317508,"950 WALKER RD","WAYNESVILLE","NC","28786"
317509,"950 WALNUT BOTTOM ROAD STE15 NO 227","CARLISLE","PA","17015"
317510,"950 WASHINGTON BLVD 100","OAK PARK","IL","60302"
317511,"950 WEST 13TH STREET SUITE 1","RIVIERA BEACH","FL","33404"
317512,"950 WEST FAIRWAY DRIVE","LANCASTER","PA","17603"
317513,"950 WHITE POND ROAD","LEESBURG","GA","31763"
317514,"950 WILLOWLEAF DR APT 2006","SAN JOSE","CA","95128"
317515,"950 WINCHESTER DRIVE","WESTMINSTER","MD","21157"
317516,"950-23 BLANDING BLVD PMB 192","ORANGE PARK","FL","32065"
317517,"950-23 BLANDING BLVD","ORANGE PARK","FL","32065"
317518,"9500 126TH STREET WEST","ANDALUSIA","IL","61232"
317519,"9500 53RD ST","JURUPA VALLEY","CA","92509"
317520,"9500 ANNAPOLIS ROAD STE B2","LANHAM","MD","20706"
317521,"9500 ARENA DRIVE SUITE 104","LARGO","MD","20774"
317522,"9500 ARENA DRIVE SUITE 460","LARGO","MD","20774"
317523,"9500 ARENA DRIVE SUITE SUITE 105","LARGO","MD","20772"
317524,"9500 BOLTON ESTATES ROAD","MILLINGTON","TN","38053"
317525,"9500 BRIMHALL ROAD STE 701","BAKERSFIELD","CA","93312"
317526,"9500 CIVIC CENTER DR","THORNTON","CO","80229"
317527,"9500 COMMUNITY HOUSE RD","CHARLOTTE","NC","28227"
317528,"9500 E IRONWOOD SQUARE DR STE 201","SCOTTSDALE","AZ","85258"
317529,"9500 EMMETT RD UNIT 100","GLEN ALLEN","VA","23060"
317530,"9500 EUCLID AVE MALL CODE EB9","CLEVLEAND","OH","44106"
317531,"9500 FEATHER GRASS LANE STE 120-310","FORT WORTH","TX","76177"
317532,"9500 GILLMAN DR  MC429","LA JOLLA","CA","92093"
317533,"9500 GILMAN DRIVE","LA JOLLA","CA","92093"
317534,"9500 GUERNSEY CT","CHARLOTTE","NC","28213"
317535,"9500 HILLWOOD DRIVE  STE 112","LAS VEGAS","NV","89134"
317536,"9500 JUG ST NW","PATASKALA","OH","43062"
317537,"9500 KNOLLCREST BLVD","JOHNS CREEK","GA","30022"
317538,"9500 MCNEIL DR","AUSTIN","TX","78750"
317539,"9500 MCNEIL DRIVE","AUSTIN","TX","78750"
317540,"9500 MEDICAL CENTER DRIVE S460A","LARGO","MD","20774"
317541,"9500 MEDICAL CENTER DRIVE STE 230E","UPPER MARLBORO","MD","20774"
317542,"9500 MEDICAL CENTER DRIVE SUITE 460","LARGO","MD","20774"
317543,"9500 MEDLOCK BRIDGE RD","JOHNS CREEK","GA","30097"
317544,"9500 NORFOLK STREET","GLEN ALLEN","VA","23060"
317545,"9500 OCEAN HWY W","CALABASH","NC","28467"
317546,"9500 ORMSBY STATION RD SUITE 200","LOUISVILLE","KY","40223"
317547,"9500 PENNSYLVANIA AVE","UPPER MARLBORO","MD","20772"
317548,"9500 RAY WHITE RD STE 200","FORT WORTH","TX","76244"
317549,"9500 RAY WHITE RD SUITE 200","FORT WORTH","TX","76244"
317550,"9500 ROOSEVELT WAY NE SUITE 301","SEATTLE","WA","98115"
317551,"9500 SOUTH 500 EAST STE 205","SANDY","UT","84070"
317552,"9500 SOUTH BROWN ROAD","CHARDON","OH","44024"
317553,"9500 SW 3RD ST APT A212","BOCA RATON","FL","33428"
317554,"9500 SW 73RD AVE","PINECREST","FL","33156"
317555,"9500 SW 92ND STREET","MIAMI","FL","33176"
317556,"9500 W 144TH PL BOX 11","ORLAND PARK","IL","60462"
317557,"9500 W CAPITOL DR APT1","WAUWATOSA","WI","53222"
317558,"9500 WREN LANE","EAGLE RIVER","AK","99577"
317559,"9501 ARLINGTON EXPRESSWAY","JACKSONVILLE","FL","32225"
317560,"9501 CENTRAL AVENUE","INDIANAPOLIS","IN","46240"
317561,"9501 CERRITOS AVE  202","ANAHEIM","CA","92804"
317562,"9501 CERRITOS AVE STE202","ANAHEIM","CA","92804"
317563,"9501 E 86TH ST","INDIANAPOLIS","IN","46256"
317564,"9501 E LEMON AVE","TEMPLE CITY","CA","91780"
317565,"9501 FLUSHING QUAIL RD STE 10","BAKERSFIELD","CA","93312"
317566,"9501 GARDENIA DRIVE","PLAIN CITY","OH","43064"
317567,"9501 HWY 5  P O BOX 64","GROVESPRING","MO","65662"
317568,"9501 LA SALLE BLVD","DETROIT","MI","48206"
317569,"9501 MENCHACA RD STE B210","AUSTIN","TX","78748"
317570,"9501 N 137TH EAST CT","OWASSO","OK","74055"
317571,"9501 N FM 620 APT 12108","AUSTIN","TX","78726"
317572,"9501 SATELLITE BLVD SUITE 105","ORLANDO","FL","32837"
317573,"9501 SUNSET DRIVE UNIT 6","STONE HARBOR","NJ","08247"
317574,"9501 SW 27TH ST","OKLAHOMA CITY","OK","73128"
317575,"9501 W DEVON AVE STE 400","ROSEMONT","IL","60018"
317576,"9501 WOODLAND RIDGE DR","TEMPLE TERRACE","FL","33637"
317577,"9501 WOODPECKER ROAD","CHESTERFIELD","VA","22838"
317578,"9501 WOODPECKER ROAD","CHESTERFIELD","VA","23838"
317579,"9502 14TH AVE NW","SEATTLE","WA","98117"
317580,"9502 BRIANS RUN","HELOTES","TX","78023"
317581,"9502 TEMPLETON AVE SE","SNOQUALMIE","WA","98065"
317582,"9502 TREVORS COURT","LAKESIDE","CA","92040"
317583,"9502 WARD PLACE","URBANA","NY","21704"
317584,"9502","HIGHLANDS RANCH","CO","80129"
317585,"9503 BENT BROOK DRIVE","INDIANAPOLIS","IN","46250"
317586,"9503 CHESAPEAKE DRIVE","NORTH ROYALTON","OH","44133"
317587,"9503 CLOVERIDGE DRIVE STE 4323","BENBROOK","TX","72126"
317588,"9503 JOWETT PLACE","SUGAR LAND","TX","77498"
317589,"9503 MARYLAND COVE","SHERWOOD","AR","72120"
317590,"9503 QUAIL POINTE LN","FAIRFAX STATION","VA","22039"
317591,"9503 SHARPSBURG PIKE","HAGERSTOWN","MD","21740"
317592,"9503 STATE RD APT 107","PHILADELPHIA","PA","19114"
317593,"9504 BEECHNUT DR","AUSTIN","TX","78748"
317594,"9504 CYPRESS HARBOR DRIVE","GIBSONTON","FL","33534"
317595,"9504 FITZGERALD CT","UPPER MARLBORO","MD","20772"
317596,"9504 IH 35 N SUITE 205","SAN ANTONIO","TX","78233"
317597,"9504 MAJI DR","HENRICO","VA","23228"
317598,"9504 MEADOW ROAD SW","LAKEWOOD","WA","98499"
317599,"9504 N PUMPKINVINE RD","FAIRLAND","IN","46126"
317600,"9504 REBA AVE SW","ALBUQUERQUE","NM","87121"
317601,"9504 SCOTTVILLE CT","LAS VEGAS","NV","89148"
317602,"9504 SNYDER MILL CT","MONTGOMERY VILLAGE","MD","20886"
317603,"9504 SO HAMILTON","CHICAGO","IL","60643"
317604,"9504 SUNDANCE DRIVE","BRIDGEVILLE","PA","15017"
317605,"9504 SUNNYVIEW CT","PEARLAND","TX","77584"
317606,"9504 TRAVERSE WAY","FORT WASHINGTON","MD","20744"
317607,"9504 TREGARON PLACE","BURKE","VA","22015"
317608,"9504 W 116TH STREET","OVERLAND PARK","KS","66210"
317609,"9504 WAREHAM DR","BAKERSFIELD","CA","93313"
317610,"9504 WOODLAND RIDGE DRIVE","TAMPA","FL","33637"
317611,"9505 COTTON GUM ROAD","CHARLOTTE","NC","28227"
317612,"9505 CUTLERS TRACE","DAYTON","OH","45458"
317613,"9505 E 47TH ST","KANSAS CITY","KS","64133"
317614,"9505 FALCONS FIRE DR","MCKINNEY","TX","75070"
317615,"9505 FAREWELL RD","COLUMBIA","MD","21045"
317616,"9505 HIERBA ROAD","AGUA DULCE","CA","91390"
317617,"9505 HULL STREET RD","NORTH CHESTERFIELD","VA","23236"
317618,"9505 N CLAYTON PLACE","MARANA","AZ","85653"
317619,"9505 QUEENSWOOD DRIVE","AUSTIN","TX","78748"
317620,"9505 S W 33RD STREET","OKLAHOMA CITY","OK","73179"
317621,"9505 SE PLOVER DRIVE","HAPPY VALLEY","OR","97086"
317622,"9505 SW DOCK STREET","VASHION","WA","98070"
317623,"9505 THOROUGHBRED LANE","COLORADO SPRINGS","CO","80908"
317624,"9505 VELVETLEAF CIRCLE","SAN RAMON","CA","94582"
317625,"9505 W 32ND AVE","WHEAT RIDGE","CO","80033"
317626,"9505 WATERFORD OAKS BLVD","WINTER HAVEN","FL","33884"
317627,"9505 WINONA ST SW","LAKEWOOD","WA","98498"
317628,"9505 YELLOWSTONE ROAD","WACO","TX","76712"
317629,"9506 13TH BAY STREET UNIT B","NORFOLK","VA","23518"
317630,"9506 AMBERJACK DRIVE","TEXAS CITY","TX","77591"
317631,"9506 NEWBERRY DR","AUSTIN","TX","78729"
317632,"9506 S RACINE AVE","CHICAGO","IL","60643"
317633,"9506 WAHADA","SAN ANTONIO","TX","78217"
317634,"9506 YOLANDA AVE","NORTHRIDGE","CA","91324"
317635,"95062 CHESWICK OAKS DRIVE","FERNANDINA BEACH","FL","32034"
317636,"950691","LAKE MARY","FL","32795"
317637,"9507 43RD AVENUE 1FL","ELMHURST","NY","11373"
317638,"9507 76TH STREET","OZONE PARK","NY","11416"
317639,"9507 APPIN FALLS DR","SPRING","TX","77379"
317640,"9507 ARMLEY AVENUE","WHITTIER","CA","90603"
317641,"9507 BECHTEL CT","CLINTON","MD","20735"
317642,"9507 CEDAR GLEN CT","RANCHO CUCAMONGA","CA","91730"
317643,"9507 EAST HEANEY CIRCLE","SANTEE","CA","92071"
317644,"9507 ELM AVE SE","SNOQUALMIE","WA","98065"
317645,"9507 HULL STREET ROAD E-1","N CHESTERFIELD","VA","23236"
317646,"9507 HULL STREET STE G5","CHESTERFIELD","VA","23112"
317647,"9507 MACARTHUR BOULEVARD","OAKLAND","CA","94605"
317648,"9507 MARSHALL POINT","SAN ANTONIO","TX","78240"
317649,"9507 NW 87TH TERRACE","KANSAS CITY","MO","64153"
317650,"9507 SW 160 ST SUITE 250","MIAMI","FL","33157"
317651,"9507 TOLKEN WAY","SUGAR LAND","TX","77498"
317652,"9508 3RD PLACE","LORTON","VA","22079"
317653,"9508 CHRISTINA JOY PLACE","DUBLIN","CA","94568"
317654,"9508 DONA ROWENA NE","ALBUQUERQUE","NM","87111"
317655,"9508 MADISON AVE","SOUTH GATE","CA","90280"
317656,"9508 RHYTHM RD","MIDWEST CITY","OK","73130"
317657,"9508 S DANIEL STREET","TERRE HAUTE","IN","47802"
317658,"9508 SPOTSWOOD TRAIL","MCGAHEYSVILLE","VA","22840"
317659,"9508 WILLOW RIDGE DRIVE","GLEN ALLEN","VA","23060"
317660,"9509 CONEY ISLAND CIRCLE","ELK GROVE","CA","95758"
317661,"9509 GARRETT PARK PL","BRENTWOOD","TN","37027"
317662,"9509 GARRETT PARK PLACE","BRENTWOOD","TN","37027"
317663,"9509 GERMANTOWN","PHILADEPHIA","PA","19118"
317664,"9509 MOSS FARM LANE","DALLAS","TX","75243"
317665,"9509 PEMBERTON CRESCENT DRIVE","HOUSTON","TX","77025"
317666,"9509 SAULS ROAD","RALEIGH","NC","27603"
317667,"9509 TITAN PARK CIR","LITTLETON","CO","80125"
317668,"9509 WALKING SPIRIT COURT","LAS VEGAS","NV","89129"
317669,"9509 WATKINS RD","GAITHERSBURG","MD","20882"
317670,"9509 WOLFE RD","CALEDONIA","MS","39740"
317671,"951 20TH STREET-13322","DENVER","CO","80201"
317672,"951 BAFFY AVE","LANDISVILLE","PA","17538"
317673,"951 BATTERSEA RD","HEMET","CA","92543"
317674,"951 BELLVIEW ROAD","MCLEAN","VA","22102"
317675,"951 CHESTNUT HILLS PARKWAY","FORT WAYNE","IN","46814"
317676,"951 CHUNG KING ROAD","LOS ANGELES","CA","90012"
317677,"951 COUNTY ROAD 347","DUBLIN","TX","76446"
317678,"951 E 4TH AVE","HIALEAH","FL","33010"
317679,"951 E BOSTON POST RD","MAMARONECK","NY","10543"
317680,"951 E CALLE DEL NORTE","CHANDLER","AZ","85225"
317681,"951 E STATE HWY 276","WEST TAWAKONI","TX","75474"
317682,"951 ELIZA MORRIS ST","MADISON","GA","30650"
317683,"951 FAWN CREEK CT NE","PIEDMONT","OK","73078"
317684,"951 FELL STREET 725","BALTIMORE","MD","21231"
317685,"951 FELL STREET SUITE 502","BALTIMORE","MD","21231"
317686,"951 FRONT AVENUE","ST. PAUL","MN","55103"
317687,"951 GOVERNORS COURT","MOUNT PLEASANT","SC","29464"
317688,"951 GOVERNORS COURT","MT PLEASANT","SC","29464"
317689,"951 GRANVILLE AVE APT 103","LOS ANGELES","CA","90049"
317690,"951 HOPE STREET","MADISON","WV","25130"
317691,"951 LIBERTY AVE","MOUNT DORA","FL","32757"
317692,"951 LOMBRANO","SAN ANTONIO","TX","78207"
317693,"951 LOWRY AVE NE UNIT 312","MINNEAPOLIS","MN","55418"
317694,"951 MARTIN DR","ELGIN","IL","60120"
317695,"951 MIDDLE STREET","SULLIVANS ISLAND","SC","29482"
317696,"951 MYRTLE AVENUE","ALBANY","NY","12203"
317697,"951 NEW YORK AVENUE","BROOKLYN","NY","11203"
317698,"951 NORTH POPLAR ST","CASPER","WY","82601"
317699,"951 NORTH POPLAR STREET","CASPER","WY","82601"
317700,"951 OAK STREET","NORTH AURORA","IL","60543"
317701,"951 OVILLA RD","WAXAHACHIE","TX","75167"
317702,"951 PALM DR","COLTON","CA","92324"
317703,"951 RAMBIN ROAD","STONEWALL","LA","71078"
317704,"951 RESERVE DR STE 150","ROSEVILLE","CA","95678"
317705,"951 RESERVE DRIVE STE 100","ROSEVILLE","CA","95678"
317706,"951 ROEDEER DRIVE","CLARKSVILLE,","TN","37042"
317707,"951 S CADY MALL SS 330","TEMPE","AZ","85287"
317708,"951 S FERDON BLVD","CRESTVIEW","FL","32536"
317709,"951 STADIUM COURT","JONESBORO","GA","30236"
317710,"951 STAFFORD ROAD","FALL RIVER","MA","02721"
317711,"951 STATE ROUTE 157","OIL CITY","PA","16301"
317712,"951 SW 87TH AVENUE SUITE B","MIAMI","FL","33174"
317713,"951 SW 96TH AVE","PEMBROKE PINES","FL","33025"
317714,"951 THOUSAND OAKS DRIVE","VIRGINIA BEACH","VA","23454"
317715,"951 TRANSPORT DRIVE","VALPARAISO","IN","46383"
317716,"951 VARIAN WAY","PALO ALTO","CA","94304"
317717,"951 W BRECKENRIDGE AVE","GILBERT","AZ","85233"
317718,"951 W GOLF RD","SCHAUMBURG","IL","60194"
317719,"951 W PIPELINE RD STE 110","HURST","TX","76053"
317720,"951 WEST NORTH BEND D8","CINCINNATI","OH","45224"
317721,"9510 20TH AVE NE","SEATTLE","WA","98115"
317722,"9510 ASHBURY PLACE","FREDERICK","MD","21701"
317723,"9510 BIRDWATCH LANE","CHARLOTTE","NC","28214"
317724,"9510 CORKSCREW PALMS CIR SUITE 1","ESTERO","FL","33928"
317725,"9510 ELK GROVE FLORIN RD","ELK GROVE","CA","95624"
317726,"9510 ELK GROVE FLORIN ROAD RM 111","ELK GROVE","CA","95624"
317727,"9510 GOLD DUST","SAN ANTONIO","TX","78245"
317728,"9510 HEARTSTONE LANE","ROCKWALL","TX","75087"
317729,"9510 KISSEL RD","ZIONSVILLE","IN","46077"
317730,"9510 MARY GENEVA LANE","OWINGS MILLS","MD","21117"
317731,"9510 PUDDLE DUCK ROAD  APT 207","CHARLOTTE","NC","28262"
317732,"9510 STONEY HARBOR DRIVE","FT WASHINGTON","MD","20744"
317733,"9510 TRUSCOTT COURT","PROSPECT","KY","40059"
317734,"9510 W 160TH TERRACE","OVERLAND PARK","KS","66085"
317735,"9511 4TH AVE","BROOKLYN","NY","11209"
317736,"9511 ANGOLA COURT STE 209","INDIANAPOLIS","IN","46268"
317737,"9511 CHEF MENTEUR HWY SUITE 109 209","NEW ORLEANS","LA","70127"
317738,"9511 FOXCROFT AVE","CLINTON","MD","20735"
317739,"9511 GRANDVILLE PLACE","BLOOMINGTON","IL","61705"
317740,"9511 HACKBERRY STREET","HIGHLANDS RANCH","CO","80126"
317741,"9511 MOODY PARK CIRCLE","OVERLAND PARK","KS","66212"
317742,"9511 PERRIN BEITEL RD APT 205","SAN ANTONIO","TX","78217"
317743,"9511 TORRESDALE AVE","PHILADELPHIA","PA","19144"
317744,"9511 WAMBLE RD","OAKDALE","CA","95361"
317745,"9512 CHOLLA CACTUS TRAIL","FORT WORTH","TX","76177"
317746,"9512 NW 8TH CIRCLE","PLANTATION","FL","33324"
317747,"9513 5TH PLACE","LORTON","VA","22079"
317748,"9513 ASIMOV WAY","SACTRAMENTO","CA","95829"
317749,"9513 BRANT LANE","GLEN ALLEN","VA","23060"
317750,"9513 BUSINESS CENTER DR STE D","RANCHO CUCAMONGA","CA","91730"
317751,"9513 EASTPOINTE CIRCLE","BIRMINGHAM","AL","35217"
317752,"9513 ELGINWAY","BRENTWOOD","TN","37027"
317753,"9513 LYTHAM DR","SHREVPORT","LA","71129"
317754,"9513 NW 80TH ST","TAMARAC","FL","33321"
317755,"9513 OAKDALE","CHATSWORTH","CA","91311"
317756,"9513 PAMPLONA ROAD","COLUMBIA","MD","21045"
317757,"9513 PIN OAK DR","SILVER SPRING","MD","20910"
317758,"9513 SOUTHMILL DR","GLEN ALLEN","VA","23060"
317759,"9513 VERLAINE CT","LAS VEGAS","NV","89145"
317760,"9514 N CARLOTTA LN","MILWAUKEE","WI","53223"
317761,"9514 SOUTHERN BELLE DR/PO BOX 103","HILLSBORO","MO","63050"
317762,"95140 VENTURES COURT","FERNANDINA BEACH","FL","32034"
317763,"95141 GLADIOLUS PL","FERNANDINA BEACH","FL","32034"
317764,"9515 E 24TH ST","INDIANAPOLIS","IN","46229"
317765,"9515 KELVIN LN UNIT 2116","SCHILLER PARK","IL","60176"
317766,"9515 LONGFORD WAY","PARKER","CO","80134"
317767,"9515 SW 60 COURT","PINECREST","FL","33156"
317768,"9515 SYCAMORE GROVE","UPPER MARLBORO","MD","20772"
317769,"9515 TAVIA COVE","AUSTIN","TX","78733"
317770,"9515 W 51ST AVENUE","ARVADA","CO","80002"
317771,"9515 WEST BROADWAY ST SUITE 101","PEARLAND","TX","77584"
317772,"9516  347TH ST S","ROY","WA","98580"
317773,"9516 AFTON GROVE","CORDOVA","TN","38018"
317774,"9516 CATALINA COVE CIRCLE","LAS VEGAS","NV","89147"
317775,"9516 CINNAMON DR","SHREVEPORT","LA","71118"
317776,"9516 DRURY DRIVE","AVON","IN","46123"
317777,"9516 FERNHILL AVENUE","PARMA","OH","44129"
317778,"9516 NW 87TH TERRACE","KANSAS CITY","MO","64153"
317779,"9516 ROSSPORT WAY","ELK GROVE","CA","95624"
317780,"9516 STONEY HARBOR DRIVE","FT WASHINGTON","MD","20744"
317781,"9516 W GARFIELD STREET","TOLLESON","AZ","85353"
317782,"9517 18TH AVE NW","SEATTLE","WA","98117"
317783,"9517 LAKESIDE DR","YPSILANTI","MI","48197"
317784,"9517 MANNING AVE","KANSAS CITY","MO","64134"
317785,"9517 ROE AVENUE","OVERLAND PARK","KS","66207"
317786,"9517 SPRING MEADE LANE","GERMANTOWN","TN","38139"
317787,"9518 EMNORA LANE","HOUSTON","TX","77080"
317788,"9518 GARRETT DR","ROWLETT","TX","75089"
317789,"9518 MIRANDA CT","FAIRFAX","VA","22031"
317790,"9518 S SPAULDING AVE","EVERGREEN PARK","IL","60805"
317791,"9518 TOPRIDGE DRIVE APT 13","AUSTIN","TX","78750"
317792,"9518 WOLF POINT","SAN ANTONIO","TX","78251"
317793,"9519 1 2 PARK ST","BELLFLOWER","CA","90706"
317794,"9519 32ND AVE NE","SEATTLE","WA","98115"
317795,"9519 BROCKET DR","MIDLOTHIAN","VA","23112"
317796,"9519 COUNTY VIEW ROAD","DALLAS","TX","75249"
317797,"9519 DANIEL FRENCH STREET","LORTON","VA","22079"
317798,"9519 FOREST LANE","DALLAS","TX","75315"
317799,"9519 LOW GROUND ROAD","EMPORIA","VA","23847"
317800,"9519 MAYWOOD AVE","KANSAS CITY","MO","64134"
317801,"9519 MISTRY ARBOR WAY","CHARLOTTE","NC","28269"
317802,"9519 SILVER CROWN","SAN ANTONIO","TX","78254"
317803,"952 ALDERSIDE STREET","JACKSONVILLE","FL","32208"
317804,"952 E 10TH ST","DOUGLAS","AZ","85607"
317805,"952 E INCA ST","MESA","AZ","85203"
317806,"952 E LINCOLN LANE","GARDNER","KS","66030"
317807,"952 EAST 98TH STREET","BROOKLYN","NY","11236"
317808,"952 EAST WHITE PINE WAY","SANDY","UT","84094"
317809,"952 GOLD HOUSE ROAD W PMB 604","WHITSETT","NC","27377"
317810,"952 GOLFHOUSE RD PMB 215","WHITSETT","NC","27377"
317811,"952 GOSS ROAD","CINCINNATI","OH","45229"
317812,"952 HWY 65N","MARSHALL","AR","72650"
317813,"952 KENNEDY CIRCLE","MORRISTOWN","TN","37813"
317814,"952 MONTOUR BLVD","DANVILLE","PA","17821"
317815,"952 N WESTRIDGE DRIVE","SAINT GEORGE","UT","84770"
317816,"952 NORTHERN BOULEVARD","BALDWIN","NY","11510"
317817,"952 REDWOOD","WILSON","OK","73463"
317818,"952 SCHOOL STREET BOX 266","NAPA","CA","94559"
317819,"952 SCHOOL STREET SUITE 280","NAPA","CA","94559"
317820,"952 SENATE STREET","COSTA MESA","CA","92627"
317821,"952 ST MARKS AVE APT A3","BROOKLYN","NY","11213"
317822,"952 TURNER AVE","SHELBY","MT","59474"
317823,"952 W KENSINGTON RD APT 2","LOS ANGELES","CA","90026"
317824,"952 YAGERS ROAD","LURAY","VA","22835"
317825,"9520 BERGER ROAD SUITE 204","COLUMBIA","MD","21046"
317826,"9520 BERGER ROAD","COLUMBIA","MD","21046"
317827,"9520 FREDERICK ROAD","ORANGE","TX","77632"
317828,"9520 HICKORY HILL DRIVE","FREDERICKSBURG","VA","22408"
317829,"9520 KOSTNER","SKOKIE","IL","60076"
317830,"9520 RICHMOND HIGHWAY","LORTON","VA","22079"
317831,"9520 ROOSEVELT WAY NE","SEATTLE","WA","98115"
317832,"9520 SANTA PAULA DRIVE","FORT WORTH","TX","76116"
317833,"9520 SW TERWILLIGER","PORTLAND","OR","97219"
317834,"9520 VIKING DRIVE","EDEN PRAIRIE","MN","55344"
317835,"9520 WEST 133RD AVENUE","CEDAR LAKE","IN","46303"
317836,"9521  COLDWATER RD","FLUSHING","MI","48433"
317837,"9521 B RIVERSIDE PKWY","TULSA","OK","74137"
317838,"9521 BRINK RD","GAITHERSBURG","MD","20882"
317839,"9521 BROOKLINE AVENUE","BATON ROUGE","LA","70809"
317840,"9521 CENTERWOOD DRIVE","RALEIGH","NC","27617"
317841,"9521 COLDWATER RD","FLUSHING","MI","48433"
317842,"9521 GLENNSADE AVENUE","BATON ROUGE","LA","70814"
317843,"9521 HIGHLAND DRIVE","PERRINTON","MI","48871"
317844,"9521 LAKESHORE BLVD","MENTOR","OH","44060"
317845,"9521 S STORNOWAY CIRCLE","SOUTH JORDAN","UT","84009"
317846,"9521 SHELLIE RD SUITE 13","JACKSONVILLE","FL","32257"
317847,"9521 SWEET BAY LN","WESTWEGO","LA","70094"
317848,"9521 TILLEY ROAD S","OLYMPIA","WA","98512"
317849,"9521 W 118TH TER APT 4","OVERLAND PARK","KS","66210"
317850,"9521B RIVERSIDE PKWY  NUM 253","TULSA","OK","74137"
317851,"9522 GLENDOWN LANE","HOUSTON","TX","77070"
317852,"9522 INDIAN PIPE LANE","PROSPECT","KY","40059"
317853,"9522 NEW WATERFORD CV","DELRAY BEACH","FL","33446"
317854,"9522 VIEWSIDE DRIVE","DALLAS","TX","75231"
317855,"9522 W CORONADO DR","BATON ROUGE","LA","70815"
317856,"9523 MEADOWS FARM DRIVE","OWINGS MILLS","MD","21117"
317857,"9524 BRIGANTINE COURT","INDIANAPOLIS","IN","46256"
317858,"9524 CAILLER DRIVE","LENEXA","KS","66220"
317859,"9524 E 81ST STREET SUITE B-1588","TULSA","OK","74133"
317860,"9524 E SILENT HILLS PL","LONE TREE","CO","80124"
317861,"9524 EBY ST","OVERLAND PARK","KS","66212"
317862,"9524 EBY STREET","OVERLAND PARK","KS","66212"
317863,"9524 ESCONDIDO CANYON ROAD","AGUA DULCE","CA","91390"
317864,"9524 S 89TH AVE","PALOS HILLS","IL","60465"
317865,"9524 W CAMELBACK ROAD 130 NO 390","GLENDALE","AZ","85305"
317866,"9524 W CAMELBACK ROAD SUITE 130-344","GLENDALE","AZ","85305"
317867,"9524 WOODLIEF ROAD","WAKE FOREST","NC","27587"
317868,"95244 ARBOR LANE","FERNANDINA BEACH","FL","32034"
317869,"9525 BERGER ROAD SUITE P","COLUMBIA","MD","21046"
317870,"9525 CARGO AVENUE NE","ALBUQUERQUE","NM","87109"
317871,"9525 DONNA DRIVE","BATON ROUGE","LA","70815"
317872,"9525 ELMBROOKE BLVD","BRENTWOOD","TN","37027"
317873,"9525 FOREST GLEN DR","LINCOLN","NE","68526"
317874,"9525 GORDON BERNARD COVE","BARTLETT","TN","38133"
317875,"9525 HOLBROOK DRIVE","ORLANDO","FL","32817"
317876,"9525 KILIMANJARO RD","COLUMBIA","MD","21045"
317877,"9525 NW 49TH CT","CORAL SPRINGS","FL","33067"
317878,"9525 PASEO TEMPORADA","SAN DIEGO","CA","92129"
317879,"9525 S 79TH AVE STE 205","HICKORY HILLS","IL","60457"
317880,"9525 WINSTON AVE","URBANDALE","IA","50322"
317881,"9525 YELLOW DOLL DRIVE","OWINGS MILLS","MD","21117"
317882,"9526 ARGYLE FOREST BLVD B2 465","JACKSONVILLE","FL","32222"
317883,"9526 ARGYLE FOREST BLVD STE B2 345","JACKSONVILLE","FL","32222"
317884,"9526 ARGYLE FOREST BLVD STE B2 439","JACKSONVILLE","FL","32222"
317885,"9526 ARGYLE FOREST BLVD STE B2-373","JACKSONVILLE","FL","32222"
317886,"9526 ARGYLE FOREST BLVD SUITE B2","JACKSONVILLE","FL","32222"
317887,"9526 INDIAN LAKE ROAD","BYESVILLE","OH","43723"
317888,"9526 STARGAZE AVE","SAN DIEGO","CA","92129"
317889,"9526 W MANHATTAN MONEE ROAD","FRANKFORT","IL","60423"
317890,"9526-B2 ARGYLE FOREST BLVD STE 364","JACKSONVILLE","FL","32222"
317891,"9527 DANIEL FRENCH STREET","LORTON","VA","22079"
317892,"9527 DEVERS WAY APT G","INDIANAPOLIS","IN","46216"
317893,"9527 HEATHER SPRING DR","HENRICO","VA","23238"
317894,"9527 PRINCE WILLIAM COURT","BRIGHTON","MI","48114"
317895,"9527 WHITEHEART DR","FREDERICKSBURG","VA","22407"
317896,"9528 APACHE AVE NE","ALBUQUERQUE","NM","87112"
317897,"9528 GRAPEFRUIT AVE","HESPERIA","CA","92345"
317898,"9528 SCENIC SUNSET DR","LAS VEGAS","NV","89117"
317899,"9529 20TH STREET","FORT RIPLEY","MN","56449"
317900,"9529 BIG TIMBER DR","ELK GROVE","CA","95758"
317901,"9529 BIG VIEW DR","AUSTIN","TX","78730"
317902,"9529 EAST KEMPER ROAD","LOVELAND","OH","45140"
317903,"9529 ERIE DRIVE","SAINT LOUIS","MO","63123"
317904,"9529 FOLSOM BLVD STE D","SACRAMENTO","CA","95827"
317905,"9529 GALECREST DRIVE","CINCINNATI","OH","45231"
317906,"9529 JESSICA DRIVE","WINDSOR","CA","95492"
317907,"9529 KEELER AVE","SKOKIE","IL","60076"
317908,"9529 SOUTHLAKE DR","SPOTSYLVANIA","VA","22551"
317909,"952B FRANKLIN AVE","NEWARK","NJ","07107"
317910,"953 4TH ST PL SE","HICKORY","NC","28602"
317911,"953 5TH ST UNIT 5","SANTA MONICA","CA","90403"
317912,"953 ASHBY CIRCLE NW","ATLANTA","GA","30314"
317913,"953 ASPEN ROAD","NEW CARLISLE","OH","45344"
317914,"953 AVERY WAY","VIRGINIA BEACH","VA","23464"
317915,"953 BRUNSWICK RD","CLVELAND HEIGHTS","OH","44112"
317916,"953 CANTON STREET","ROSWELL","GA","30075"
317917,"953 CAPITOL DR","HOBART","IN","46342"
317918,"953 COLLEGE STATION ROAD","ATHENS","GA","30602"
317919,"953 DANBY ROAD - ITHACA COLLEGE","ITHACA","NY","14850"
317920,"953 E 128 ST","CLEVELAND","OH","44108"
317921,"953 E CROSSWIND WAY","DRAPER","UT","84020"
317922,"953 E SAHARA AVE K7 203","LAS VEGAS","NV","89104"
317923,"953 E SAHARASUITE D-19","LAS VEGAS","NV","89109"
317924,"953 ENGLISH TOWN LANE APT 201","WINTER SPRINGS","FL","32708"
317925,"953 EVERGREEN","MOLINE","KS","67353"
317926,"953 HIGH STREET","VICTOR","NY","14564"
317927,"953 LINCOLN RD","MULLICA HILL","NJ","08062"
317928,"953 MEGAN LANE","WILLARD","MO","65781"
317929,"953 MOCKINGBIRD LANE","PLYMOUTH","WI","53073"
317930,"953 MONTCLAIR AVENUE","ROCKINGHAM","NC","28379"
317931,"953 MUER","TROY","MI","48084"
317932,"953 N MC CUE ST LOT 209","LARAMIE","WY","82072"
317933,"953 NE JENSEN BEACH BLVD","JENSEN BEACH","FL","34957"
317934,"953 PARKWOOD DR","CLEVELAND","OH","44108"
317935,"953 PIPER ST","CAVE SPRINGS","AR","72718"
317936,"953 RANCHVIEW CIRCLE","CARSON CITY","NV","89705"
317937,"953 RIVER RD","TOSTON","MT","59643"
317938,"953 ROCK HILL LN","WHEELING","WV","26003"
317939,"953 S ALMIRA AVE","GILBERT","AZ","85296"
317940,"953 S MCCRARY ST","WOODBURY","TN","37190"
317941,"953 S POTOMAC ST","WAYNESBORO","PA","17268"
317942,"953 S WASHINGTON ST","DENVER","CO","80209"
317943,"953 STONE CROP RD","HALLSTEAD","PA","18822"
317944,"953 THOMAS CIR","PORTSMOUTH","VA","23704"
317945,"953 TRESTLE GLEN WAY","SACRAMENTO","CA","95831"
317946,"953 VIA DEL MESA","HEMET","CA","92543"
317947,"953 W EMERSON ST","SEATTLE","WA","98119"
317948,"953 WEST 700 NORTH SUITE 105","LOGAN","UT","84341"
317949,"953 WESTON-ANDOVER ROAD","ANDOVER","VT","05143"
317950,"953 WOODLAND CIR","ANNAPOLIS","MD","21409"
317951,"9530 BLOOMFIELD AVE","CYPRESS","CA","90630"
317952,"9530 COMSTOCK MEADOWS DRIVE","HOUSTON","TX","77095"
317953,"9530 HAGEMAN RD STE B 239","BAKERSFIELD","CA","93312"
317954,"9530 HALSEY ST APT 212","LENEXA","KS","66215"
317955,"9530 NW 5TH CT","MIAMI","FL","33150"
317956,"9530 W DIABLO DR","LAS VEGAS","NV","89148"
317957,"9531 170TH ST W","LAKEVILLE","MN","55044"
317958,"9531 BOND RD","ELK GROVE","CA","95624"
317959,"9531 COUNTY ROAD 37","BLAIR","NE","68008"
317960,"9531 EVESHAM ROAD","JACKSOVILLE","FL","32208"
317961,"9531 HANBERRY BLVD","CHARLOTTE","NC","28213"
317962,"9531 S CONGRESS STREET","NEW MARKET","VA","22844"
317963,"9531 STROELITZ ST","NEW ORLEANS","LA","70118"
317964,"9531WINDSWEPT LN","HOUSTON","TX","77063"
317965,"9532 BALFOUR CIRCLE","IOLA","TX","77861"
317966,"9532 CRYSTAL SPRING DRIVE","FORT WAYNE","IN","46804"
317967,"9532 GRIFFIN ROAD","COOPER CITY","FL","33328"
317968,"9532 GROVE SIDE LANE","CHARLOTTE","NC","28262"
317969,"9532 W 116TH STREET","OVERLAND PARK","KS","66210"
317970,"9533 ASHVILLE DRIVE","HOUSTON","TX","77051"
317971,"9533 BOY LAKE DRIVE NW","REMER","MN","56672"
317972,"9533 DISTRICT LINE RD","BURLINGTON","WA","98233"
317973,"9533 WICKHAM WAY","ORLANDO","FL","32836"
317974,"9534 104TH STREET 2FL","OZONE PARK","NY","11416"
317975,"9534 VELVET LEAF CIR","SAN RAMON","CA","94582"
317976,"9535 AMBER CIRCLE","KALAMAZOO","MI","49009"
317977,"9535 B ST","OAKLAND","CA","94603"
317978,"9535 BAY FRONT DRIVE APT 305","NORFOLK","VA","23518"
317979,"9535 BIRCH RUN","BRIGHTON","MI","48114"
317980,"9535 E PARKER RD","PARKER","CO","80138"
317981,"9535 FOREST LANE     SUITE 201","DALLAS","TX","75243"
317982,"9535 FOREST LANE SUITE 101-B","DALLAS","TX","75243"
317983,"9535 FOREST LN SUITE 271","DALLAS","TX","75243"
317984,"9535 FORT KING ROAD","DADE CITY","FL","33525"
317985,"9535 FRANKFORT RD","HOLLAND","OH","43528"
317986,"9535 LASBURY DRIVE","HOUSTON","TX","77083"
317987,"9535 RIDGECREST DRIVE","ZEELAND","MI","49464"
317988,"9535 SOLOMON DR","FORT WORTH","TX","76108"
317989,"9535 SYLVAN STILL ROAD","LAUREL","MD","20707"
317990,"9536 E FAIRBROOK ST","MESA","AZ","85207"
317991,"9536 MOUNTAIN LAKE DR","OOLTEWAH","TN","37363"
317992,"9537 EAST ASHFORD DRIVE","TUCSON","AZ","85747"
317993,"9537 PLUM HILL CHURCH RD","NASHVILLE","IL","62263"
317994,"9537 S TRIPP AVENUE","OAK LAWN","IL","60453"
317995,"9537 W KEYSER DR","PEORIA","AZ","85383"
317996,"9538 18TH BAY STREET","NORFOLK","VA","23518"
317997,"9538 BRAUN RD","SAN ANTONIO","TX","78254"
317998,"9539 E IMPALA","MESA","AZ","85209"
317999,"9539 PRAIRIE AVE APT 21","HIGHLAND","IN","46322"
318000,"953A E 217TH STREET  SUITE 1","BRONX","NY","10468"
