"ID","Address","City","State","Zip"
241001,"537 E 87TH PLACE","CHICAGO","IL","60619"
241002,"537 E 89TH PLACE","CHICAGO","IL","60619"
241003,"537 E FRONT ST","BERWICK","PA","18603"
241004,"537 EAST FLORIDA AVENUE","HEMET","CA","92545"
241005,"537 ELIZABETH CT","FORT LORAMIE","OH","45845"
241006,"537 EMERALD POINTE TR","MONROE","GA","30655"
241007,"537 FAIRWAY DR","KERRVILLE","TX","78028"
241008,"537 FOREST EDGE STREET","BURLESON","TX","76028"
241009,"537 FREEMANS WALK","STONE MOUNTAIN","GA","30083"
241010,"537 GEORGE JUNIOR RD","GROVE CITY","PA","16127"
241011,"537 GRAHAM ROAD","SOUTH WINDSOR","CT","06074"
241012,"537 HIGHLAND AVENUE","OAK PARK","IL","60304"
241013,"537 HILL ROAD","MARSHALL","MI","49068"
241014,"537 HOPE AVE","FRANKLIN","TN","37067"
241015,"537 HORIZON WAY","BRANCHBURG","NJ","08853"
241016,"537 HOUSTON ST","COPPELL","TX","75019"
241017,"537 HOUSTON STREET","COPPELL","TX","75019"
241018,"537 ISLEBAY DRIVE","APOLLO BEACH","FL","33572"
241019,"537 KATHRON AVE","CUYAHOGA FALLS","OH","44221"
241020,"537 KELLY AVE","HALF MOON BAY","CA","94019"
241021,"537 LA CASITA LANE","MONROVIA","CA","91016"
241022,"537 LABARRE DR","METAIRIE","LA","70001"
241023,"537 MANORWOOD LANE","LOUISVILLE","CO","80027"
241024,"537 MARKET STREET SUITE 400","CHATTANOOGA","TN","37402"
241025,"537 MCPHERSON DRIVE","ALFORD","FL","32420"
241026,"537 MILFORD STREET","DAVENPORT","FL","33897"
241027,"537 MULBERRY LN","BONNERS FERRY","ID","83805"
241028,"537 N BEVER ST","WOOSTER","OH","44691"
241029,"537 N LEMON ST","MEDIA","PA","19063"
241030,"537 NEAL RD","HOMER CITY","PA","15748"
241031,"537 NO BRIGHTON ST","BURBANK","CA","91506"
241032,"537 OLIVE ST","IOWA CITY","IA","52246"
241033,"537 RIGDON PL","ATLANTA","GA","30314"
241034,"537 S 4TH AVE FRNT","TUCSON","AZ","85701"
241035,"537 S BROADWAY STE 201","GREENVILLE","OH","45331"
241036,"537 SAINT CHRISNIC COURT","MOUNT HOLLY","NC","28120"
241037,"537 SICKLER AVE","SICKLERVILLE","NJ","08081"
241038,"537 SILVER SLIPPER LANE SUITE D","TALLAHASSEE","FL","32303"
241039,"537 SPRING ST","COOPERSVILLE","MI","49404"
241040,"537 SUMAC PL","DESOTO","TX","75115"
241041,"537 SUMAC PLACE","DESOTO","TX","75115"
241042,"537 SUNHAVEN DRIVE","CLAYTON","NJ","08312"
241043,"537 SW COUNTRY ROAD BB","CENTERVIEW","MO","64019"
241044,"537 VINELAND DR","JACKSON","MS","39212"
241045,"537 W HYDE PARK BLVD SUITE 303","INGLEWOOD","CA","90302"
241046,"537 W SPERLING ST","WEST WYOMING","PA","18644"
241047,"537 W SUGARCREEK ROAD SUITE 102","CHARLOTTE","NC","28213"
241048,"537 W VALENTINO ST","MERIDIAN","ID","83646"
241049,"537 WEESNER DRIVE","PLAINFIELD","IN","46168"
241050,"537 WINDRIDGE DR","CHESTERTON","IN","46304"
241051,"537 WOODS LANDING DRIVE","MINNEOLA","FL","34715"
241052,"5370 CHERLYN DR","BLACK RIVER","MI","48721"
241053,"5370 E RIVER ROAD","TUCSON","AZ","85718"
241054,"5370 HOPGOOD ROAD","ACWORTH","GA","30101"
241055,"5370 PRINGLE LANE","SOQUEL","CA","95073"
241056,"5370 PUBLIC SAFETY PLACE","FREDERICK","MD","21704"
241057,"5370 RARITAN WAY","DENVER","CO","80221"
241058,"5370 STATE ROUTE 233","PATRIOT","OH","45658"
241059,"5370 STONE MOUNTAIN HWY STE 630","STONE MOUNTAIN","GA","30087"
241060,"5370 SUMMIT ST","WEST LINN","OR","97068"
241061,"5370 US - 78 SUITE 25","STONE MOUNTAIN","GA","30087"
241062,"53707 HWY 25","VANDIVER","AL","35176"
241063,"5371 ALHAMBRA AVE","LOS ANGELES","CA","90032"
241064,"5371 DAILY FARMS","BURTON","MI","48509"
241065,"5371 E 5TH STREET","KATY","TX","77493"
241066,"5371 JONES RESERVE WALK","POWDER SPRINGS","GA","30127"
241067,"5372 DEEP SHADOW CT","LAS VEGAS","NV","89148"
241068,"5372 GOLDDUST ROAD","SPRING HILL","FL","34609"
241069,"5372 KATHERINE VILLAGE DRIVE","ELLENWOOD","GA","30294"
241070,"5372 NORTH 36TH STREET","MILWAUKEE","WI","53209"
241071,"5372 ROCKWOOD CT","STONE MOUNTAIN","GA","30087"
241072,"5372 S URBAN CT","LITTLETON","CO","80127"
241073,"53729 STATE HWY 30","ROXBURY","NY","12474"
241074,"53729 TYNE CT","NEW BALTIMORE","MI","48047"
241075,"5373 FAULKNER DR","DARROW","LA","70725"
241076,"5373 FOXHOUND WAY","SAN DIEGO","CA","92130"
241077,"5373 GREGGS LANDING DRIVE","NORTH CHARLESTON","SC","29420"
241078,"5373 LAKESIDE DRIVE","LENOIR CITY","TN","37772"
241079,"5373 MEADOW RUN DR SW","WYOMING","MI","49509"
241080,"5373 US HWY 68 SUITE D BOX 301","GOLDEN VALLEY","AZ","86413"
241081,"5374 S GENOARD WAY","MERIDIAN","ID","83642"
241082,"5374 WEST BORGLUM LANE","HERRIMAN","UT","84096"
241083,"5375 CAMERON DRIVE NW","ROCHESTER","MN","55901"
241084,"5375 CLAYPIKE RD","CAMBRIDGE","OH","43725"
241085,"5375 COUGAR AVE","LAS VEGAS","NV","89139"
241086,"5375 FIVE FOLKS TRICKUM RD","LILBURN","GA","30047"
241087,"5375 FIVE FORKS TRICKUM ROAD SW","LILBURN","GA","30047"
241088,"5375 GRAND CYPRESS CIRCLE APT 101","NAPLES","FL","34109"
241089,"5375 JARMAN ST","COLORADO SPRINGS","CO","80906"
241090,"5375 OLD TRENTON WAY","SALT LAKE CITY","UT","84123"
241091,"5375 PRANCING PASS","CUMMING","GA","30040"
241092,"5375 SALEM WOODS DRIVE","DAYTON","OH","45426"
241093,"5375 SILVER PINE DRIVE","FAYETTEVILLE","NC","28303"
241094,"5375 SW 82ND ST","OCALA","FL","34476"
241095,"53755 OAKVIEW DR","SHELBY TOWNSHIP","MI","48315"
241096,"5376 CORWIN RD","WAYNESVILLE","OH","45068"
241097,"5376 DR MARTIN LUTHER KING DR","SAINT LOUIS","MO","63112"
241098,"5376 MCINTOSH CT N","KEIZER","OR","97303"
241099,"5376 RANCH ROAD","PLATTSMOUTH","NE","68048"
241100,"5377 BANMCROFT AVENUE","OAKLAND","CA","94601"
241101,"5377 CR 2708","CADDO MILLS","TX","75135"
241102,"5377 MAYFLOWER COURT","ROLLING MEADOWS","IL","60008"
241103,"5377 NEW CUT ROAD","LOUISVILLE","KY","40214"
241104,"5377 NEW PEACHTREE ROAD","CHAMBLEE","GA","30341"
241105,"5377 NORSE COURT","SUN PRAIRIE","WI","53590"
241106,"5377 RAILS WAY","NORCROSS","GA","30071"
241107,"5377 S IRVINGTON AVENUE","TULSA","OK","74135"
241108,"5377 TIGER BEND LN","MORRISON","CO","80465"
241109,"5378 BROOKLINE DR","ORLANDO","FL","32819"
241110,"5378 LOCH LOMOND ROAD","MEMPHIS","TN","38116"
241111,"5378 STEPHEN FOREST COVE","MEMPHIS","TN","38141"
241112,"5378 SUDLEY ROAD","WEST RIVER","MD","20778"
241113,"5378 WILD DUNES CT","BOULDER","CO","80301"
241114,"5379 BIG TYLER ROAD 504","CROSS LANES","WV","25313"
241115,"5379 CANYON HILLS LN","SAN JOSE","CA","95138"
241116,"5379 CHIEFTAIN CIRCLE","ALEXANDRIA","VA","22312"
241117,"5379 EVENING SIDE DRIVE","HERRIMAN","UT","84096"
241118,"5379 LYONS RD   427","COCONUT CREEK","FL","33073"
241119,"5379 LYONS RD  STE1590","COCONUT CREEK","FL","33073"
241120,"5379 LYONS RD 146","COCONUT CREEK","FL","33073"
241121,"5379 LYONS RD NUMBER 924","COCONUT CREEK","FL","33073"
241122,"5379 LYONS RD UNIT 462","COCONUT CREEK","FL","33073"
241123,"5379 VILLAGE GREEN","LOS ANGELES","CA","90016"
241124,"5379 WALLACE RD","MORGANTON","NC","28655"
241125,"538  CALHOUN AVENUE","BRONX","NY","10465"
241126,"538 ALISO AVENUE","NEWPORT BEACH","CA","92663"
241127,"538 BENNETT MOUNTAIN TRACE","CHAPEL HILL","NC","27516"
241128,"538 BROOKSTONE COURT","COPLEY","OH","44321"
241129,"538 BURTON ST SE","GRAND RAPIDS","MI","49507"
241130,"538 CEDAR ST","CHILLICOTHE","OH","45601"
241131,"538 CENTRAL HIGH ROAD","CARROLLTON","GA","30116"
241132,"538 CHRISAND LANE","WENATCHEE","WA","98801"
241133,"538 CHURCH ST","MIDDLETOWN","NJ","07748"
241134,"538 CYPRESS STREET","YEADON","PA","19050"
241135,"538 DERWOOD RD","LUMBERTON","NC","28358"
241136,"538 E FRONT ST","DANVILLE","PA","17821"
241137,"538 E HARFORD STREET","MILFORD","PA","18337"
241138,"538 E HEWETT RD","SANTA ROSA BEACH","FL","32459"
241139,"538 EAST 89TH STREET 2E","NEW YORK","NY","10128"
241140,"538 EAST BARBEE","LOUISVILLE","KY","40217"
241141,"538 EAST MARKET ST APT 1","HARRISONBURG","VA","22801"
241142,"538 GRACE STREET","EXCELSIOR","MN","55331"
241143,"538 HARALSON AVENUE","GADSDEN","AL","35901"
241144,"538 LINWOOD AVENUE APARTMENT 10","BUFFALO","NY","14209"
241145,"538 LITTLE STREET APT 6","MARIETTA","GA","30008"
241146,"538 MAYVIEW STREET","FAYETTEVILLE","NC","28306"
241147,"538 MILLERS RUN RD","MORGAN","PA","15064"
241148,"538 MORRIS DR","MURFREESBORO","TN","37130"
241149,"538 N DIVISION ST","ANN ARBOR","MI","48104"
241150,"538 N HANOVER STREET","HASTINGS","MI","49058"
241151,"538 N MANHATTAN PLACE 4","LOS ANGELES","CA","90004"
241152,"538 NICHOLS ROAD","KALAMAZOO","MI","49006"
241153,"538 OLD HIGHWAY 7 SOUTH","HOLLY SPRINGS","MS","38635"
241154,"538 ONEIDA PLACE NW","WASHINGTON","DC","20011"
241155,"538 PHELAN AVENUE","SAN JOSE","CA","95112"
241156,"538 PLEASANT HILL ROAD","DECATUR","AL","35603"
241157,"538 S LOCUST AVE NUM B","PLEASANT GROVE","UT","84062"
241158,"538 S MAIN ST","STARBUCK","MN","56381"
241159,"538 SOUTH 11TH ST APT 1","NEWARK","NJ","07103"
241160,"538 SOUTH MAIN STREET","JANESVILLE","WI","53545"
241161,"538 TALLMADGE RD","CUYAHOGA FALLS","OH","44221"
241162,"538 TANGLEWOOD ROAD","WEST ISLIP","NY","11795"
241163,"538 VAULT WAY","ROEBUCK","SC","29376"
241164,"538 WALDEN HILLS CRT","AUGUSTA","GA","30909"
241165,"538 WEST ASH","JUNCTION CITY","KS","66441"
241166,"538 WEST LIBERTY STREET","MEDINA","OH","44256"
241167,"538 WESTCHESTER AVE","RYE BROOK","NY","10573"
241168,"538 WILTSHIRE RD","UPPER DARBY","PA","19082"
241169,"538 ZION ROAD","BIRDSBORO","PA","19508"
241170,"5380 BARKWOOD DRIVE","SHEFFIELD VILLAGE","OH","44054"
241171,"5380 BRICKLEBERRY WAY","DOUGLASVILLE","GA","30134"
241172,"5380 CAMELOT DRIVE APT 11","FAIRFIELD","OH","45014"
241173,"5380 EMERYWOOD DR","BUENA PARK","CA","90621"
241174,"5380 GOOSE HALLOW","DAWSON","GA","39842"
241175,"5380 GULF OF MEXICO DR STE 105","LONGBOAT KEY","FL","34228"
241176,"5380 HWY 53 WEST","BURGAW","NC","28401"
241177,"5380 HWY S-52N","NEWTON","IA","50208"
241178,"5380 OLD BULLARD RD STE 600 244","TYLER","TX","75703"
241179,"5380 PEACHTREE IND BLVD SUITE 200","NORCROSS","GA","30071"
241180,"5380 PERRY ST","DENVER","CO","80212"
241181,"5380 SPARROW HAWK WAY","COLORADO SPRINGS","CO","80911"
241182,"5381 BOBBY CIR","ROYSE CITY","TX","75189"
241183,"5381 BROOKLANDS DRIVE","HUDSON","OH","44236"
241184,"5381 SALEM BEND DR APT H","DAYTON","OH","45426"
241185,"5381 SW 32 WAY","FORT LAUDERDALE","FL","33312"
241186,"5381","KANSAS CITY","MO","64131"
241187,"53815 MARIAN VIEW DRIVE","IDYLLWILD","CA","92549"
241188,"5382 AMY AVE","GARDEN GROVE","CA","92845"
241189,"5382 CLAREMONT MESA BLVD","SAN DIEGO","CA","92117"
241190,"5382 HOLLOWAY LANE","HENDERSON","KY","42420"
241191,"5382 HOMERIA ST","LAS VEGAS","NV","89113"
241192,"5382 N 50 E","SHELBYVILLE","IN","46176"
241193,"5382 SANTA ROSA LANE","CARPINTERIA","CA","93013"
241194,"5383 CHANNING ROAD","INDIANAPOLIS","IN","46226"
241195,"5383 CYPRESS LINKS BLVD","ELKTON","FL","32033"
241196,"5383 N HENDERSON RD","DAVISON","MI","48423"
241197,"5383 PINEWOOD DR","FLUSHING","MI","48433"
241198,"5383 S 900 E STE 103","SALT LAKE CITY","UT","84117"
241199,"5383 STATE ROUTE 154","PINCKNEYVILLE","IL","62274"
241200,"5383 TOWNSHIP187","MARENGO","OH","43334"
241201,"5384 BROCKPORT SPENCERPORT ROAD","BROCKPORT","NY","14420"
241202,"5384 CO HWY 36","SNEAD","AL","35952"
241203,"5384 EAST HEATHWOOD DRIVE SE","KENTWOOD","MI","49512"
241204,"5384 SOUTH MILFORD RD","MILFORD","OH","45150"
241205,"5385 E LITTLETOWN ROAD","TUCSON","AZ","85756"
241206,"5385 FIVE FORKS TRICKUM RD SW 205","STONE MOUNTAIN","GA","30087"
241207,"5385 FRANKLIN BLVD STE E","SACRAMENTO","CA","95820"
241208,"5385 KING RIDGE PL","NORCROSS","GA","30093"
241209,"5385 NESTLE CT","RENO","NV","89511"
241210,"5385 PLEASANT VIEW ROAD","MEMPHIS","TN","38134"
241211,"5385 S 1950 W","ROY","UT","84067"
241212,"5385 VALLEY RIDGE DRIVE APARTMENT 3","REDDING","CA","96003"
241213,"5386 BIGGER RD","KETTERING","OH","45440"
241214,"5386 BLUEBELL DR","BOSSIER CITY","LA","71112"
241215,"5386 COURSEVIEW DR","MASON","OH","45458"
241216,"5386 KEMPSRIVER DRIVE     SUITE 107","VIRGINIA BEACH","VA","23464"
241217,"5386 SANTA TERESITA DR","SANTA TERESA","NM","88008"
241218,"5387 BROOKWAY DRIVE","BAY CITY","MI","48706"
241219,"5387 KIRKLAND WAY","COLUMBUS","OH","43231"
241220,"5387 MANHATTAN CIRCLE - SUITE 200","BOULDER","CO","80303"
241221,"5387 MANHATTAN CIRCLE SUITE 200","BOULDER","CO","80303"
241222,"5387 MUSCOVY ROAD","MIDDLEBURG","FL","32068"
241223,"5387 SE 51ST STREET","STUART","FL","34997"
241224,"5387 THORNAPPLE LANE NW","ACWORTH","GA","30101"
241225,"5387 WEST WESTERN RESERVE ROAD","CANFIELD","OH","44406"
241226,"5388 COUNTY ROAD 11","KANSAS","OH","44841"
241227,"5388 JEROME ROAD","ATLANTA","GA","30349"
241228,"5388 WEST BLOOMFIELD LAKE ROAD","WEST BLOOMFIELD","MI","48323"
241229,"5388 YELLOW PINE WAY","SACRAMENTO","CA","95841"
241230,"53880 AVENIDA MARTINEZ","LA QUINTA","CA","92253"
241231,"53882 LAWSON CREEK DRIVE","SHELBY TOWNSHIP","MI","48316"
241232,"5389 S 6300 W","HOOPER","UT","84315"
241233,"5389 WINDING GLEN DR","LITHONIA","GA","30038"
241234,"538A SOUTH 18TH STREET","NEWARK","NJ","07103"
241235,"539 14TH AVENUE","PATERSON","NJ","07504"
241236,"539 AVALON AVE","AKRON","OH","44320"
241237,"539 B HWY 83","ABILENE","TX","79601"
241238,"539 BLUE HERON RD","DOVER","DE","19904"
241239,"539 BUCKEYE COVE RD","CANTON","NC","28716"
241240,"539 CAFFIN AVENUE","NEW ORLEANS","LA","70117"
241241,"539 CHAIN STREET","NORRISTOWN","PA","19401"
241242,"539 CINCINNATI AVE","EGG HARBOR CITY","NJ","08215"
241243,"539 COMMERCE ST 1710","DALLAS","TX","75208"
241244,"539 CONSTITUTION COURT","GALLOWAY","NJ","08205"
241245,"539 COOPERTOWN ROAD","UNIONVILLE","TN","37180"
241246,"539 CORONA AVE  APT C","DAYTON","OH","45419"
241247,"539 DEPOT STREET","MANAWA","WI","54949"
241248,"539 E GLASS RD","ORTONVILLE","MI","48462"
241249,"539 EAST 11TH STREET","LONG BEACH","CA","90813"
241250,"539 EAST HIGHWAY 22","UNION CITY","TN","38261"
241251,"539 ELSIE AVENUE","SAN LEANDRO","CA","94577"
241252,"539 FANNY ANN WAY","FREEPORT","FL","32439"
241253,"539 GEORGETOWN STREET","HAZLEHURST","MS","39083"
241254,"539 HEATHSHIRE DRIVE","TOLEDO","OH","43607"
241255,"539 HIGHLAND CREEK PKWY","BATON ROUGE","LA","70808"
241256,"539 HOWARD ST","VENTURA","CA","93001"
241257,"539 KNOTHOLE LANE","CHARLOTTE","NC","28214"
241258,"539 LAKEVIEW CIRCLE","JEFFERSON","TX","75657"
241259,"539 LE POINT STREET","ARROYO GRANDE","CA","93420"
241260,"539 LEGION STREET","CRAIG","CO","81625"
241261,"539 LEXINGTON PKWY S","SAINT PAUL","MN","55116"
241262,"539 LINDENWOOD DR","LANCASTER","TX","75134"
241263,"539 LOVELY STREET","AVON","CT","06001"
241264,"539 LUZERNE AVENUE","WEST PITTSTON","PA","18643"
241265,"539 MARSH STREET","SAN LUIS OBISPO","CA","93401"
241266,"539 MILLER AVE","KENT","OH","44240"
241267,"539 N WESTOVER BLVD APT 322","ALBANY","GA","31707"
241268,"539 NORTH 6TH PLACE","COOLIDGE","AZ","85128"
241269,"539 OAK STREET","COLUSA","CA","95932"
241270,"539 PADDOCK LANE","MONTGOMERY","AL","36109"
241271,"539 PARTRIDGE CT","BLUE BELL","PA","19422"
241272,"539 PLYMOUTH AVENUE","BUFFALO","NY","14213"
241273,"539 S CHESTNUT STE 300","LUFKIN","TX","75904"
241274,"539 SALEM ST","MALDEN","MA","02149"
241275,"539 SALLY GARDEN CT","SAN JOSE","CA","95136"
241276,"539 SAVANNAH RIDGE","MURFREESBORO","TN","37127"
241277,"539 SECOND STREET","ANNAPOLIS","MD","21403"
241278,"539 SW 7TH CT APT 7","MIAMI","FL","33130"
241279,"539 TELFAIR COURT","SUWANEE","GA","30024"
241280,"539 THREE MILE ROAD","MIDDLEBURY","CT","06798"
241281,"539 TITAN ROAD","HINTON","IA","51024"
241282,"539 TOTOWA AVENUE APARTMENT F","PATERSON","NJ","07522"
241283,"539 UNIVERSITY AVE","MISSOULA","MT","59801"
241284,"539 W COMMERCE ST 3815","DALLAS","TX","75208"
241285,"539 W COMMERCE ST 4896","DALLAS","TX","75208"
241286,"539 W COMMERCE ST 5791","DALLAS","TX","75208"
241287,"539 W COMMERCE ST 6896","DALLAS","TX","75208"
241288,"539 W COMMERCE ST STE 1316","DALLAS","TX","75208"
241289,"539 W COMMERCE ST STE 2628","DALLAS","TX","75208"
241290,"539 W COMMERCE ST STE 5220","DALLAS","TX","75208"
241291,"539 W COMMERCE ST STE 676","DALLAS","TX","75208"
241292,"539 W COMMERCE ST SUITE 2382","DALLAS","TX","75208"
241293,"539 W COMMERCE ST SUITE 2444","DALLAS","TX","75208"
241294,"539 W COMMERCE ST SUITE 3404","DALLAS","TX","75208"
241295,"539 W COMMERCE ST SUITE 5592","DALLAS","TX","75249"
241296,"539 W COMMERCE STREET  SUITE 1113","DALLAS","TX","75208"
241297,"539 W COMMERCE STREET 2526","DALLAS","TX","75208"
241298,"539 W COMMERCE SUITE 1165","DALLAS","TX","75208"
241299,"539 W COMMERCE SUITE 542","DALLAS","TX","75208"
241300,"539 W COMMODORE BLVD","JACKSON","NJ","08527"
241301,"539 WEST 156TH STREET APT 9","NEW YORK","NY","10032"
241302,"539 WEST COMMERCE STREET 282","DALLAS","TX","75208"
241303,"539 WEST COMMERCE STREET SUITE 2644","DALLAS","TX","75208"
241304,"539 WEST HILLS DRIVE","HARRIMAN","TN","37748"
241305,"539-543 N WATER ST","DECATUR","IL","62523"
241306,"5390 BELFERN DRIVE","BELLINGHAM","WA","98226"
241307,"5390 HANOVERVILLE RD","BETHLEHEM","PA","18017"
241308,"5390 HIGHWAY 371N","BLEVINS","AR","71825"
241309,"5390 ROUTE 6N WEST","EDINBORO","PA","16412"
241310,"5390 WEYBURN DR","TROTWOOD","OH","45426"
241311,"5391 KILGORE ROAD","CROSWELL","MI","48422"
241312,"5391 LAKEWOOD RANCH BOULEVARD NORTH","SARASOTA","FL","34240"
241313,"5391 MORGANS POINT DRIVE","OXFORD","MD","21654"
241314,"5391 PENNSYLVANIA","DETROIT","MI","48214"
241315,"5391 PERSHING AVENUE APARTMENT B","SAINT LOUIS","MO","63112"
241316,"5391 W 86TH STREET","INDIANAPOLIS","IN","46268"
241317,"5392 LEROY PARKWAY","WEST","TX","76691"
241318,"5392 MUIRWOOD PL","POWDER SPRINGS","GA","30127"
241319,"5392","BUFFALO GROVE","IL","60089"
241320,"5393 E OCEAN BLVD APT 3","LONG BEACH","CA","90803"
241321,"5393 SNOW CREEK ROAD","PENHOOK","VA","24137"
241322,"5394 NW PRIMINO AVENUE","PORTLAND","OR","97229"
241323,"5394 OLD FEDERAL RD SOUTH","CHATSWORTH","GA","30705"
241324,"5394 US HWY 29 S","AUBURN","AL","36830"
241325,"5395 DOUBLE BRIDGE RD","ELLENWOOD","GA","30294"
241326,"5395 E CHERYL PKWY","MADISON","WI","53711"
241327,"5395 FOX PLAZA DRIVE","MEMPHIS","TN","38115"
241328,"5395 LEON","SUNVALLEY","NV","89433"
241329,"5395 NORTH F STREET","SAN BERNARDINO","CA","92407"
241330,"5395 SUMMER LEAF LANE","ALEXANDRIA","VA","22312"
241331,"5395 SW ELM AVE","BEAVERTON","OR","97229"
241332,"5396 SOUTHERN WINDS DRIVE","ARLINGTON","TN","38002"
241333,"5396 VT ROUTE 105","BRUNSWICK","VT","05905"
241334,"5396 WALZEM RD","SAN ANTONIO","TX","78218"
241335,"5397 153RD ST W","APPLE VALLEY","MN","55124"
241336,"5398 MORIAH LANE","FORT CALHOUN","NE","68023"
241337,"5398 NICKLE CREEK TRAIL","LAS VEGAS","NV","89122"
241338,"5398 PERSHING AVENUE UNIT 3W","ST. LOUIS","MO","63112"
241339,"5398 S 7TH ST","ABILENE","TX","79605"
241340,"5398 SW 183RD AVENUE","MIRAMAR","FL","33029"
241341,"5398 WYNNEFIELD AVE","PHILADELPHIA","PA","19131"
241342,"5398 WYNNFIELD AVE/SUITE 100","PHILA","PA","19131"
241343,"53983 HIGHWAY 290","HEMPSTEAD","TX","77445"
241344,"53987 EAST 353 ROAD","JAY","OK","74346"
241345,"5399 BANBURY DR","COLUMBUS","OH","43235"
241346,"5399 BROOKHAVEN RD","RAMSEUR","NC","27316"
241347,"5399 OLD TAYLOR MILL RD","TAYLOR MILL","KY","41015"
241348,"5399 PLAYA VISTA DRIVE SUITE E126","PLAYA VISTA","CA","90094"
241349,"5399 PLAYA VISTA DRIVE SUITE E204","PLAYA VISTA","CA","90094"
241350,"53A BRANDYWYNE EAST","BRIELLE","NJ","08730"
241351,"53A EUTAW ST","LAWRENCE","MA","01841"
241352,"54 8TH AVE SUITE 501","BROOKLYN","NY","11217"
241353,"54 8TH AVE","BROOKLYN","NY","11217"
241354,"54 A BARCLAY PLACE CT","CHARLOTTESVILLE","VA","22901"
241355,"54 ANTHONY DRIVE","BURLINGTON","NJ","08016"
241356,"54 ARGOW PLACE","NANUET","NY","10954"
241357,"54 ASPEN AVENUE","JACKSON","TN","38301"
241358,"54 ASSOCIATION ROAD","BELLPORT","NY","11713"
241359,"54 BASS LAKE DRIVE","DEBARY","FL","32713"
241360,"54 BAXTER STREET","BINGHAMTON","NY","13905"
241361,"54 BAY STREET","GLENS FALLS","NY","12801"
241362,"54 BAYSIDE DRIVE","FREDERICKSBURG","VA","22405"
241363,"54 BEECHNUT ROAD","WESTWOOD","MA","02090"
241364,"54 BEECHWOOD ROAD","FORT MITCHELL","KY","41017"
241365,"54 BEY LEA ROAD","TOMS RIVER","NJ","08753"
241366,"54 BICKNELL ST","DORCHESTER","MA","02121"
241367,"54 BIG TRAIL","MISSOURI CITY","TX","77459"
241368,"54 BLUEBERRY RIDGE LANE","CHILMARK","MA","02535"
241369,"54 BRACKENHOUSE SQUARE","JACKSON","TN","38305"
241370,"54 BRETTON RD","HAUPPAUGE","NY","11788"
241371,"54 BREWSTER DRIVE","WARMINSTER","PA","18974"
241372,"54 BRINDISI","IRVINE","CA","92618"
241373,"54 BROOK AVE","WYANDANCH","NY","11798"
241374,"54 BROOKSIDE ROAD","BOURNE","MA","02532"
241375,"54 BULL HILL ROAD","HOPE","ME","04847"
241376,"54 CABRILLO ST","WATSONVILLE","CA","95076"
241377,"54 CANAL STREET","MEDFORD","MA","02155"
241378,"54 CARRIER ST","LIBERTY","NY","12754"
241379,"54 CATHERINE STREET STE 16D","NEW YORK","NY","10038"
241380,"54 CAYUGA STREET","SENECA FALLS","NY","13148"
241381,"54 CEDAR BLVD","PITTSBURGH","PA","15228"
241382,"54 CHAPEL HILL RD","MOUNT LAUREL","NJ","08054"
241383,"54 CHESTER STREET","LOCUST VALLEY","NY","11560"
241384,"54 CHIPLEY DR","NEWPORT NEWS","VA","23602"
241385,"54 CHRISTY LANE","SPRINGFIELD","NJ","07081"
241386,"54 COMMERCE STREET","GARFIELD","NJ","07026"
241387,"54 CONCORD ST","HOLLISTON","MA","01746"
241388,"54 CONCORD STREET","HOLLISTON","MA","01746"
241389,"54 COUNTY ROAD NE 2046","MT VERNON","TX","75457"
241390,"54 CR 6480","GRAND LAKE","CO","80447"
241391,"54 DAIRY POND ROAD","NORRIS","TN","37828"
241392,"54 DANBURY ROAD","RIDGEFIELD","CT","06877"
241393,"54 DAVID STREET","SOUTH RIVER","NJ","08882"
241394,"54 DECATOR AVE UNIT 202","MONSEY","NY","10952"
241395,"54 DOVER RD","WILLIAMSVILLE","VT","05362"
241396,"54 DURYEA STREET","NEWARK","NJ","07103"
241397,"54 E BOSTICK AVE","LAKELAND","GA","31635"
241398,"54 E CHALMERS ST APT 607A","CHAMPAIGN","IL","61820"
241399,"54 E OAKLAND AVE","DOYLESTOWN","PA","18901"
241400,"54 EAST HAVERHILL ST","LAWRENCE","MA","01841"
241401,"54 EAST STREET","UPTON","MA","01568"
241402,"54 ELIZABETH ST SUITE25","RED HOOK","NY","12571"
241403,"54 ENCHANTED VIEW CIRCLE","FISHERSVILLE","VA","22939"
241404,"54 ENWRIGHT DRIVE","FAIRPORT","NY","14450"
241405,"54 ESTATE DRIVE","HAMPTON","VA","23666"
241406,"54 FAYSON LAKES ROAD","KINNELON","NJ","07405"
241407,"54 FLOUNDER STREET","SANTA ROSA BEACH","FL","32459"
241408,"54 FOREST TRAIL","EAST BRIDGEWATER","MA","02333"
241409,"54 FREEMAN AVENUE 1ST FLOOR","ELMONT","NY","11003"
241410,"54 GASTON WESTBROOK AVENUE","EMERSON","GA","30137"
241411,"54 GATHERINGHILL COURT","MORRIS PLAINS","NJ","07950"
241412,"54 GLENVIEW CIR","DAHLONEGA","GA","30533"
241413,"54 GOATHEAD PATH","SILVER CITY","NM","88061"
241414,"54 GREENCROFT DRIVE","CHAMPAIGN","IL","61821"
241415,"54 HALSEY VALLEY ROAD","BARTON","NY","13734"
241416,"54 HARTFORD STREET","NATICK","MA","01760"
241417,"54 HASSART STREET UNIT A3","NEW BRUNSWICK","NJ","08901"
241418,"54 HAZARD AVENUE SUITE 135","ENFIELD","CT","06082"
241419,"54 HIGH MOUNTAIN RD","RINGWOOD","NJ","07456"
241420,"54 HIGH ST","GREENFIELD","MA","01301"
241421,"54 HORNBEAM DRIVE","CRANSTON","RI","02921"
241422,"54 HUCKLEBERRY COURT","GUILFORD","CT","06437"
241423,"54 HUGHES AVE","RYE","NY","10580"
241424,"54 HURON COURT","BOULDER","CO","80303"
241425,"54 INDIAN RD","WALTHAM","MA","02451"
241426,"54 ISLAND ROAD","LUNENBURG","MA","01462"
241427,"54 JEFFERSON AVE SE","GRAND RAPIDS","MI","49503"
241428,"54 KENNISON STREET UNIT A6","MANCHESTER","ME","04351"
241429,"54 KERSHAW DRIVE","BLUFFTON","SC","29910"
241430,"54 KETTLE HOLE RD","BOLTON","MA","01740"
241431,"54 KLEIN DRIVE","YARDVILLE","NJ","08620"
241432,"54 LAKEVIEW STREET","SHARON","MA","02067"
241433,"54 LAUREL STREET","EAST HAVEN","CT","06512"
241434,"54 LEWIS AVE APT 1F","BROOKLYN","NY","11206"
241435,"54 LINDA CIRCLE","MARLBOROUGH","MA","01752"
241436,"54 LINDEN STREET","NEW HAVEN","CT","06511"
241437,"54 LONSDALE ST","DORCHESTER","MA","02124"
241438,"54 LOWDEN STREET","PAWTUCKET","RI","02860"
241439,"54 LOWE AVENUE NW","CONCORD","NC","28027"
241440,"54 MACDONOUGH STREET","BROOKLYN","NY","11216"
241441,"54 MAPLE AVE   APT 1","HEMPSTEAD","NY","11550"
241442,"54 MAPLE AVENUE APT 1","HEMPSTEAD","NY","11550"
241443,"54 MARINER WAY","MONSEY","NY","10952"
241444,"54 MARION RD","WAREHAM","MA","02571"
241445,"54 MIDDLE ROAD","DEERFIELD","NH","03037"
241446,"54 MILL ST","BLOOMFIELD","NJ","07003"
241447,"54 MOORE RD","HARTWELL","GA","30643"
241448,"54 MOUNTAIN TERRACE","BRISTOL","VT","05443"
241449,"54 MT EVERETT ST UNIT 1","BOSTON","MA","02125"
241450,"54 MYELLE RD","KINGSTON","IL","60145"
241451,"54 N OTTAWA STREET SUITE 100","JOLIET","IL","60432"
241452,"54 N WATERLOO ROAD","DEVON","PA","19333"
241453,"54 NICHOLAS AVENUE","BOYLSTON","MA","01505"
241454,"54 OLD CEDAR GROVE RD","PITTSTON","ME","04345"
241455,"54 OLD COYOTE WAY","SEQUIM","WA","98382"
241456,"54 PARK ST","AYER","MA","01432"
241457,"54 PENN STREET","WASHINGTON BORO","PA","17582"
241458,"54 PLEASAN STREET","NEWBURYPORT","MA","01950"
241459,"54 PORT RICHMOND AVENUE","STATEN ISLAND","NY","10302"
241460,"54 RACING WIND","IRVINE","CA","92614"
241461,"54 ROSS WAY","MARLTON","NJ","08053"
241462,"54 SAGAMORE RD","WORCESTER","MA","01609"
241463,"54 SAWMILL PLAIN ROAD","SOUTH DEERFIELD","MA","01373"
241464,"54 SENECA STREET","PONTIAC","MI","48342"
241465,"54 SHAW FARM RD","HOLLISTON","MA","01746"
241466,"54 SHAW RD","CORINTH","MS","38834"
241467,"54 SHERWOOD","IRVINE","CA","92620"
241468,"54 SOUTH 2110 EAST CIRCLE","ST GEORGE","UT","84790"
241469,"54 SOUTH GLEN ROAD","KINNELON","NJ","07405"
241470,"54 STERLING AVE","WEEHAWKEN","NJ","07086"
241471,"54 STONECROFT LANE","BUFFALO","NY","14226"
241472,"54 STONELAW AVENUE","PROVIDENCE","RI","02908"
241473,"54 SUNSET DRIVE","STREATOR","IL","61364"
241474,"54 SYCAMORE ROAD","MAHOPAC","NY","10541"
241475,"54 TALCOTT AVENUE","VERNON ROCKVILLE","CT","06066"
241476,"54 TAYLOR LANE","DRY RIDGE","KY","41035"
241477,"54 Therapy Lane","Rocky Mount","NC","27801"
241478,"54 THIRD ST","MILLVILLE","PA","17846"
241479,"54 TRAPPER LANE","MAGNOLIA","DE","19962"
241480,"54 UPPER EAGER ROAD","NEWFANE","VT","05345"
241481,"54 W 200 N STE 7","BOUNTIFUL","UT","84010"
241482,"54 W 40TH ST SUITE 711","NEW YORK","NY","10018"
241483,"54 W BREITMEYER PLACE","MOUNT CLEMENS","MI","48043"
241484,"54 W DOWNER  SUITE 103","AURORA","IL","60506"
241485,"54 W MORTON AVE","FRESNO","CA","93706"
241486,"54 WALNUT STREET","CLINTON","MA","01510"
241487,"54 WELLAND ROAD","BROOKLINE","MA","02445"
241488,"54 WENDT AVE","LARCHMONT","NY","10538"
241489,"54 WEST 35TH STREET","HOLLAND","MI","49423"
241490,"54 WEST DOWNER PLACE","AURORA","IL","60506"
241491,"54 WEST DOWNERS PLACE SUITE 107","AURORA","IL","60506"
241492,"54 WEST MAPLE AVENUE","MONSEY","NY","10952"
241493,"54 WEST NORTH STREET UNIT 308","STAMFORD","CT","06902"
241494,"54 WEST WOODRIDGE DRIVE","RIVER FALLS","WI","54022"
241495,"54 WESTGROVE PT","CLAYTON","NC","27520"
241496,"54 WESTLAND STREET","BROCKTON","MA","02301"
241497,"54 WILD GAME LN","FELTON","PA","17322"
241498,"54 WILDE ROAD","WABAN","MA","02468"
241499,"54 WILDWOOD LANE","KERRVILLE","TX","78028"
241500,"54 WILKINS STREET","ROCHESTER","NY","14621"
