"ID","Address","City","State","Zip"
363501,"URB SANTA MARIA CALLE ORQUIDEA 43","SAN JUAN","PR","00927"
363502,"URB SANTA PAULA CALLE A 8","GUAYNABO","PR","00969"
363503,"URB TINTIILO GARDENS B19 CALLE 1","GUAYNABO","PR","00966"
363504,"URB VEREDAS 764 CAMINO DE LOS CEDRO","GURABO","PR","00778"
363505,"URB VILLA RETIRO CALLE 13 N7","SANTA ISABEL","PR","00757"
363506,"URB VILLA SERENA Q 16 CALLE LIRIO","ARECIBO","PR","00612"
363507,"URB VISTA ALEGRE SEVILLA 66","AGUADILLA","PR","00603"
363508,"USAG-J - UNIT 45006 - ATTN IMJN-CH","APO","AP","96343"
363509,"UW MADISON 1430 MONROE STREET","MADISON","WI","53711"
363510,"VALERIE VANDE PANNE PO BOX 390782","CAMBRIDGE","MA","02139"
363511,"VALLE ALTO CALLE COLINA 2040","PONCE","PR","00730"
363512,"VALLEY DRIVE BUILDING 381","COLLEGE PARK","MD","20742"
363513,"VAMCSLC 500 FOOTHILL DRIVE BLDG 16","SALT LAKE CITY","UT","84148"
363514,"VAN MUNCHING HALL MOWATT LANE","COLLEGE PARK","MD","20740"
363515,"VANS COY CALLE COLON CC-54","BAYAMON","PR","00957"
363516,"VCU DEPT OF ENGLISH 900 PARK AVE","RICHMOND","VA","23284"
363517,"VENICE WEST PO BOX 5601","SANTA MONICA","CA","90409"
363518,"VFW POST 4766 19757 HIGHWAY 5","MOUNTAIN VIEW","AR","72560"
363519,"VFW POST 4933/ 830 MINGA ROAD","KINGSPORT","TN","37663"
363520,"VICTORY LINKS GOLF  2010 105TH AVE","BLAINE","MN","55449"
363521,"VILLA BORINQUEN CALLE GUANINA I-14","CAGUAS","PR","00725"
363522,"VILLA CARIBE 242 VIA CAMPINA","CAGUAS","PR","00727"
363523,"VILLA CARIBE 4 CAMPESINOS","CAGUAS","PR","00727"
363524,"VIRGINIA H HINCHMAN 117 US HWY 46","HACKETTSTOWN","NJ","07840"
363525,"VISTA ELEMENTARY-1701 N YOUNG ST","KENNEWICK","WA","99336"
363526,"W  HIGH ST","ALLIANCE","OH","44601"
363527,"W 11TH AND VINE STREETS","BERWICK","PA","18603"
363528,"W 140TH TERRACE","OLATHE","KS","66062"
363529,"W 1991 EAST RIVER RD","BERLIN","WI","54923"
363530,"W 477 HWY 60","RUBICON","WI","53078"
363531,"W 9810 MELVILLE ROAD","CHENEY","WA","99004"
363532,"W COLFAX AVE NUM 222","LAKEWOOD","CO","80401"
363533,"W LEHIGH AVENUE STE 202","PHILADELPHIA","PA","19133"
363534,"W1008 FROELICH RD","SULLIVAN","WI","53178"
363535,"W10121 29TH STREET","CAMP DOUGLAS","WI","54618"
363536,"W10255 STATE ROAD 60","LODI","WI","53555"
363537,"W10493 OAK CENTER ROAD","WAUPUN","WI","53963"
363538,"W10528 GEIDER RD","GRESHAM","WI","54128"
363539,"W10574 COUNTY ROAD V","POYNETTE","WI","53955"
363540,"W10635 COUNTY ROAD I","REESEVILLE","WI","53579"
363541,"W10804 E HARMONY DR","LODI","WI","53555"
363542,"W10812 EVIE LN","ELCHO","WI","54428"
363543,"W10882 COUNTY ROAD X","STANLEY","WI","54768"
363544,"W10909 CURTIS LAKE ROAD","COLOMA","WI","54930"
363545,"W11085 RIVERSIDE RD","MARION","WI","54950"
363546,"W11096 CHRISTMAN ROAD LOT 12","BRUCE","WI","54819"
363547,"W11098 LAKE POINT DRIVE","LODI","WI","53555"
363548,"W1110 CTY V","BERLIN","WI","54923"
363549,"W11157 BOGUS RD","DEERBROOK","WI","54424"
363550,"W11369 CO RD V","LODI","WI","53555"
363551,"W11415 HAWTHORN DR","WAUPUN","WI","53963"
363552,"W11499 COUNTY ROAD M","RIVER FALLS","WI","54022"
363553,"W11567 REYNOLDS ROAD","LODI","WI","53555"
363554,"W11945 PRINDLE RD","ALMA CENTER","WI","54611"
363555,"W11946 MAPLE RIDGE ROAD","GRESHAM","WI","54128"
363556,"W12002 SLACK ROAD","LODI","WI","53555"
363557,"W12025 COUNTY ROAD AA","RANDOLPH","WI","53956"
363558,"W12151 STATE ROAD 113","LODI","WI","53555"
363559,"W12297 820TH AVE","RIVER FALLS","WI","54022"
363560,"W12317 WHITETAIL RUN","LODI","WI","53555"
363561,"W1268 S SHORE DRIVE","PALMYRA","WI","53156"
363562,"W13431 SPUR FIVE","SHELDON","WI","54766"
363563,"W1349 GRANT RD","RUBICON","WI","53078"
363564,"W1382 GREENVIEW ROAD","GENOA CITY","WI","53128"
363565,"W14012 CRESTVIEW DR","PRAIRIE DU SAC","WI","53578"
363566,"W14050 ISLAND LAKE ROAD","WEYERHAEUSER","WI","54895"
363567,"W140N9100 LILLY RD","MENOMONEE FALLS","WI","53051"
363568,"W142 S7602 CONCORD COURT","MUSKEGO","WI","53150"
363569,"W1422 WESTVIEW COURT","SPRING VALLEY","WI","54767"
363570,"W144 S7435 INDIAN TRAIL","MUSKEGO","WI","53150"
363571,"W14479 HOOKER ROAD","GILMAN","WI","54433"
363572,"W146 N8243 SCHLAFER DR","MENOMONEE FALLS","WI","53051"
363573,"W147S6800 DURHAM PL","MUSKEGO","WI","53150"
363574,"W148 N7167 TERRIWOOD CT","MENOMONEE FALLS","WI","53051"
363575,"W148N10912 HIGH RIDGE CT","GERMANTOWN","WI","53022"
363576,"W149 N7548 SYLVAN LANE","MENOMONEE FALLS","WI","53051"
363577,"W149N9841 TREE TOPS CT","GERMANTOWN","WI","53022"
363578,"W153N8681 MARGARET ROAD","MENOMONEE FALLS","WI","53051"
363579,"W1550 DREIER ROAD","HILBERT","WI","54129"
363580,"W156 N11347 PILGRIM RD PO BOX 430","GERMANTOWN","WI","53022"
363581,"W156N11385 PILGRIM RD","GERMANTOWN","WI","53022"
363582,"W156N8480 PILGRIM RD","MENOMONEE FALLS","WI","53051"
363583,"W157 N193 W FOND DU LAC AVE","GERMANTOWN","WI","53022"
363584,"W15790 US HWY 10","OSSEO","WI","54758"
363585,"W157N10460 FIELDSTONE PASS","GERMANTOWN","WI","53022"
363586,"W1584 CESLER VALLEY ROAD","ALMA","WI","54610"
363587,"W159N4940 GRAYSLAND DR","MENOMONEE FALLS","WI","53051"
363588,"W159S7181 MARTIN DR","MUSKEGO","WI","53150"
363589,"W1642 RADER ROAD","MARINETTE","WI","54143"
363590,"W16623 BALL PARK ROAD","OSSEO","WI","54758"
363591,"W166S11015 LOOMIS DRIVE","MUSKEGO","WI","53150"
363592,"W16714 LANGNER ROAD","OSSEO","WI","54758"
363593,"W1689 COUNTY HWY J","MUKWONAGO","WI","53149"
363594,"W16898 US HWY 10","OSSEO","WI","54758"
363595,"W1733 CTY HWY G","RANDOLPH","WI","53956"
363596,"W173N8490 WESTBRIDGE AVE","MENOMONEE FALLS","ID","53051"
363597,"W174N10351 AUTUMN CT","GERMANTOWN","WI","53022"
363598,"W175N11117 STONE WOOD DR UNIT 211","GERMANTOWN","WI","53022"
363599,"W176N5153 EVELYN TERR","MENOMONEE FALLS","WI","53051"
363600,"W181 CHURCH RD","OCONTO FALLS","WI","54154"
363601,"W181N6052 JACKSON DR","MENOMONEE FALLS","WI","53051"
363602,"W1833 COUNTY RD S","ALMA","WI","54610"
363603,"W185 S8750 RACINE AVE","MUSKEGO","WI","53150"
363604,"W1869 BRYE ROAD","COON VALLEY","WI","54623"
363605,"W186S6746 JEWEL CREST DRIVE","MUSKEGO","WI","53150"
363606,"W1889 HOFA PARK DRIVE","SEYMOUR","WI","54165"
363607,"W1903 KEMPEN RD","FREEDOM","WI","54130"
363608,"W19184 LUND ROAD","STRUM","WI","54770"
363609,"W191S6445 HILLENDALE DRIVE","MUSKEGO","WI","53150"
363610,"W1942 EAGLE ROAD","NESHKORO","WI","54960"
363611,"W1951 TWIN LAKES RD","MARKESAN","WI","53946"
363612,"W196N13704 FOND DU LAC AVE","RICHFIELD","WI","53076"
363613,"W1971 EAGLE ROAD","NESHKORO","WI","54960"
363614,"W1973 VANS CT","FREEDOM","WI","54130"
363615,"W1980 OCONNOR CT","FREEDOM","WI","54130"
363616,"W1980 STATE ROAD 60","RUBICON","WI","53078"
363617,"W2017 VANS CT","FREEDOM","WI","54130"
363618,"W20410 STATE RD 121","WHITEHALL","WI","54773"
363619,"W2086 FINNIGANS RIDGE LANE","FREEDOM","WI","54130"
363620,"W215N10015 HICKORY DR","COLGATE","WI","53017"
363621,"W215N10367 LAUREL COURT","COLGATE","WI","53017"
363622,"W216 S10586 CROWBAR ROAD","MUSKEGO","WI","53150"
363623,"W2162 DAISY LN","BRILLION","WI","54110"
363624,"W2183 COUNTY ROAD B","MARINETTE","WI","54143"
363625,"W221S4522 SUNRIDGE COURT","WAUKESHA","WI","53189"
363626,"W223 N4994 EASTVIEW DR","SUSSEX","WI","53089"
363627,"W223 S9880 BIG BEND DR","BIG BEND","WI","53103"
363628,"W224 S7250 GUTHRIE DRIVE","BIG BEND","WI","53103"
363629,"W2251 COMMERCIAL ST","POY SIPPI","WI","54967"
363630,"W228N791 WESTMOUND DRIVE","WAUKESHA","WI","53186"
363631,"W228N791 WESTMOUND DRIVE","WAUWKESHA","WI","53186"
363632,"W229 COUNTY ROAD V V","SEYMOUR","WI","54165"
363633,"W22N5956 LYNWOOD DRIVE","LISBON","WI","53089"
363634,"W230 S9185 NEVINS STREET","BIG BEND","WI","53103"
363635,"W2304 COUNTY ROAD V","SHEBOYGAN FALLS","WI","53085"
363636,"W231 S9205 RIVERSIDE STREET","BIG BEND","WI","53103"
363637,"W2317 E JEFFERSON ROAD","CHILTON","WI","53014"
363638,"W231N7956 MARTIN CT","SUSSEX","WI","53089"
363639,"W234N7871 MALLARD CT","SUSSEX","WI","53089"
363640,"W23588 AMERICAN HEIGHTS LN","ARCADIA","WI","54612"
363641,"W238N6924","SUSSEX","WI","53089"
363642,"W2390 LINTON ROAD","LAKE GENEVA","WI","53147"
363643,"W239N7474 HIGH RIDGE DRIVE","SUSSEX","WI","53089"
363644,"W240N6059 MAPLE AVE","SUSSEX","WI","53089"
363645,"W244N4850 SWAN RD","PEWAUKEE","WI","53072"
363646,"W24525 WESTVIEW LANE","TREMPEALEAU","WI","54661"
363647,"W245N2799 SINGLE TREE DR","PEWAUKEE","WI","53072"
363648,"W2490 LINTON ROAD","LAKE GENEVA","WI","53147"
363649,"W25281 TODD RD","TREMPEALEAU","WI","54661"
363650,"W256S10215 SANDHILL RDG","MUKWONAGO","WI","53149"
363651,"W2570 BLOCK ROAD","APPLETON","WI","54915"
363652,"W261 COUNTY ROAD H","FREMONT","WI","54940"
363653,"W261N4340 HIGH ROAD","PEWAUKEE","WI","53072"
363654,"W2620 RUBY CT","APPLETON","WI","54915"
363655,"W263 HILLENDALE DR","OCONOMOWOC","WI","53066"
363656,"W2637 OTTO COURT","EAST TROY","WI","53120"
363657,"W2668 CLARENCE CT","LA CROSSE","WI","54601"
363658,"W267 N6982 HICKORY CHASM DR","LISBON","WI","53089"
363659,"W2679 COUNTY ROAD HH","WARRENS","WI","54666"
363660,"W268 N7189 THOUSAND OAKS DRIVE","LISBON","WI","53089"
363661,"W2685 LUMBER YARD ROAD","JUDA","WI","53550"
363662,"W270N7534 OAKWOOD CT","HARTLAND","WI","53029"
363663,"W272 N2684 LAKEVIEW BLVD","PEWAUKEE","WI","53072"
363664,"W279N8428 COPPER CT","HARTLAND","WI","53029"
363665,"W2887 KLOSS RD","LA CROSSE","WI","54601"
363666,"W2887 KLOSS RD","LACROSSE","WI","54601"
363667,"W290N3855 FOX FIELD COURT","PEWAUKEE","WI","53072"
363668,"W291N3923 ROUND HILL CIR","PEWAUKEE","WI","53072"
363669,"W291N3923 ROUND HILL CIRCLE","PEWAUKEE","WI","53072"
363670,"W291S5270 RIDGEFIELD ROAD","WAUKESHA","WI","53189"
363671,"W299S10917 VALLEY RIDGE DR","MUKWONAGO","WI","53149"
363672,"W301S1487 BRANDYBROOK RD","WAUKESHA","WI","53188"
363673,"W303 N8690 WOODLAND DRIVE","HARTLAND","WI","53029"
363674,"W305N6519 BEAVER VIEW ROAD","HARTLAND","WI","53029"
363675,"W3063 STATE RD","CHILTON","WI","53014"
363676,"W307 NEBRASKA HALL 901 N 17TH","LINCOLN","NE","68588"
363677,"W3097 LEHMAN ROAD","NEOSHO","WI","53059"
363678,"W3130 EAST BROADWAY DRIVE TRLR106","FREEDOM","WI","54913"
363679,"W323 S4224 GRACE COURT","WAUKESHA","WI","53189"
363680,"W3239 SCHMIDT RD","BRILLION","WI","54110"
363681,"W326 S7144 TOWER HILL CT","MUKWONAGO","WI","53149"
363682,"W3269 COURTHOUSE LANE - P O BOX 264","KESHENA","WI","54135"
363683,"W327N3883 WOODED LN","NASHOTAH","WI","53058"
363684,"W328S4389 SPRING RIDGE LN","WAUKESHA","WI","53189"
363685,"W330S6473 COUNTY RD E","NORTH PRAIRIE","WI","53153"
363686,"W332N4263 GLEN PARC CIR","NASHOTAH","WI","53058"
363687,"W333S9995 GENEVIEVE DR","MUKWONAGO","WI","53149"
363688,"W334N5585 ISLAND VIEW LANE","NASHOTAH","WI","53058"
363689,"W335N7107 STONE BANK RD","OCONOMOWOC","WI","53066"
363690,"W3362 CTY E","CHILTON","WI","53014"
363691,"W3375 OUTLOOK DR","APPLETON","WI","54913"
363692,"W338N8351 PRAIRIE HOLLOW DR","OCONOMOWOC","WI","53066"
363693,"W345S10397 WAMBOLD ROAD","MUKWONAGO","WI","53149"
363694,"W348 S7450 COLONIAL DRIVE","EAGLE","WI","53119"
363695,"W350N5330 ROAD B","OKAUCHEE","WI","53069"
363696,"W354 N6400 MEGAN LN","OCONOMOWOC","WI","53066"
363697,"W356 N6665 E STONEWOOD DRIVE","OCONOMOWOC","WI","53066"
363698,"W358 N4920 HARBOR CT","OCONOMOWOC","WI","53066"
363699,"W3633 US HWY 2/41","SPALDING","MI","49886"
363700,"W377S6030 COUNTY RD ZC","DOUSMAN","WI","53118"
363701,"W3799 HWY 50","LAKE GENEVA","WI","53147"
363702,"W379S4703 E PRETTY LAKE ROAD","DOUSMAN","WI","53118"
363703,"W3816 COUNTY RD J","PRINCETON","WI","54968"
363704,"W393 ALPINE DR","DE PERE","WI","54115"
363705,"W393N5888 MARY LANE","OCONOMOWOC","WI","53066"
363706,"W3970 HWY A","ELKHORN","WI","53121"
363707,"W4054 LITTLE PRAIRIE ROAD","EAST TROY","WI","53120"
363708,"W4115 MANITOWOC ROAD","MENASHA","WI","54952"
363709,"W4139 CENTER ST","WAUBEKA","WI","53021"
363710,"W414 ALLISION DRIVE","KAUKAUNA","WI","54130"
363711,"W4233 PORTERFIELD LAKE ROAD","PORTERFIELD","WI","54159"
363712,"W4240 PINE POINTE LANE","TOMAHAWK","WI","54487"
363713,"W4264 CARTER ROAD","JUDA","WI","53550"
363714,"W4350 WIRTH LANE","MONTICELLO","WI","53590"
363715,"W4385 CHASE HILL DRIVE","IRMA","WI","54442"
363716,"W4593 OLD 352RD","STEPHENSON","MI","49887"
363717,"W4608 RIVER RD","FREDONIA","WI","53021"
363718,"W4637 COUNTY ROAD EH","ELKHART LAKE","WI","53020"
363719,"W4720 PINE CT","ELKHORN","WI","53121"
363720,"W4778 ROCK RD","APPLETO","WI","54913"
363721,"W4785 CTY HWY H C3","FREDONIA","WI","53021"
363722,"W47N855 BOBOLINK LN","CEDARBURG","WI","53012"
363723,"W480 ST ROAD 18","SULLIVAN","WI","53178"
363724,"W4816 SPRINGHILL DRIVE","SHERWOOD","WI","54169"
363725,"W4825 MEYERS RD","LA CROSSE","WI","54601"
363726,"W4849 BUTTERCUP DR","REDGRANITE","WI","54970"
363727,"W4878 CLIFF VIEW DRIVE","SHERWOOD","WI","54169"
363728,"W4988 ROBINSON DR","ELKHORN","WI","53121"
363729,"W4994 CARLYLE RD","NEILLSVILLE","WI","54456"
363730,"W5008 COUNTY ROAD MM","COON VALLEY","WI","54623"
363731,"W5225 LAKEWOOD CIRCLE","ELKHORN","WI","53121"
363732,"W5259 SOUTH COURT","SHAWANO","WI","54166"
363733,"W5279 HORSESHOE PL","LA CROSSE","WI","54601"
363734,"W5306 COUNTY RD W","HOLMEN","WI","54636"
363735,"W5327 WINDMILL RIDGE ROAD","NEW GLARUS","WI","53574"
363736,"W5378 HILLCREST RD","PHILLIPS","WI","54555"
363737,"W5427 SUNRISE RD","BONDUEL","WI","54107"
363738,"W5461 S COUNTY ROAD A","WILD ROSE","WI","54984"
363739,"W5467 HILLVIEW RD","ELKHORN","WI","53121"
363740,"W547 BIELEFELDT RD","MONDOVI","WI","54755"
363741,"W5480 PLANTATION RD","ELKHORN","WI","53121"
363742,"W5481 PLEASANT AVE","MEDFORD","WI","54451"
363743,"W55 N861 CEDAR RIDGE DRIVE","CEDARBURG","WI","53012"
363744,"W5562 NAVARINO RD","SHIOCTON","WI","54170"
363745,"W5588 RIVER AVE","MERRILL","WI","54452"
363746,"W5599 SOUTHDALE DR","LA CROSSE","WI","54601"
363747,"W56 N786 HAWTHORNE AVE","CEDARBURG","WI","53012"
363748,"W561 STATE HIGHWAY 70","PARK FALLS","WI","54552"
363749,"W5689 COUNTRY MANOR RD","RANDOM LAKE","WI","53075"
363750,"W5739 EMERALD LN","PLYMOUTH","WI","53073"
363751,"W5742 DIANA CIRCLE DRIVE","MERRILL","WI","54452"
363752,"W5762 HICKORY POINT CT","ONALASKA","WI","54650"
363753,"W5781 COUNTY ROAD G","RIO","WI","53960"
363754,"W5793 COUNTY HIGHWAY A","SPOONER","WI","54801"
363755,"W5812 NUMBER 13 PT 5 LANE","WALLACE","MI","49893"
363756,"W5848 DEERTAIL RD","TONY","WI","54563"
363757,"W5852 S GILBERT LAKE ROAD","WILD ROSE","WI","54984"
363758,"W5940 THEISEN RD","TOMAHAWK","WI","54487"
363759,"W5957 COUNTY ROAD X","WAUSAUKEE","WI","54177"
363760,"W5963 NUMBER 5 25 LANE","MENOMINEE","WI","49858"
363761,"W5964 EASTER LILY DRIVE","APPLETON","WI","54915"
363762,"W5966 SCENIC DRIVE","VULCAN","MI","49892"
363763,"W5990 W PIONEER RD","FOND DU LAC","WI","54935"
363764,"W6045 COUNTY ROAD S","BLACK CREEK","WI","54106"
363765,"W6078 COUNTY ROAD J","PRINCETON","WI","54968"
363766,"W6151 RAWLEY POINT DRIVE","GREENVILLE","WI","54942"
363767,"W6189 N WALWORTH RD","WALWORTH","WI","53184"
363768,"W61N306 WASHINGTON AVE","CEDARBURG","WI","53012"
363769,"W62 N718 RIVEREDGE DRIVE","CEDARBURG","WI","53012"
363770,"W62N600 WASHINGTON AVE","CEDARBURG","WI","53012"
363771,"W63 N539 HANOVER AVENUE","CEDARBURG","WI","53012"
363772,"W6324 STATE ROAD 39","NEW GLARUS","WI","53574"
363773,"W6334 RAVINE COURT","MENASHA","WI","54952"
363774,"W6346 HIGHPOINT RD","MONTICELLO","WI","53570"
363775,"W6357 CHAPEL RD","MAUSTON","WI","53948"
363776,"W63N645 WASHINGTON AVE","CEDARBURG","WI","53012"
363777,"W64N319 MADISON AVE","CEDARBURG","WI","53012"
363778,"W664 KEARNEY RD","BURLINGTON","WI","53105"
363779,"W6688 EMERALD COURT","GREENVILLE","WI","54942"
363780,"W6744 ROGERSVILLE RD","FOND DU LAC","WI","54937"
363781,"W6764 COUNTY ROAD B","MONROE","WI","53566"
363782,"W6846 MARRIHILL CT","GREENVILLE","WI","54942"
363783,"W68N611 EVERGREEN BLVD","CEDARBURG","WI","53012"
363784,"W7018 DISCOVERY DR","FOND DU LAC","WI","54937"
363785,"W7061 GRUENBERG RD","BRYANT","WI","54418"
363786,"W7089 STATE HIGHWAY 180","WAUSAUKEE","WI","54177"
363787,"W728 RIVER BEND DRIVE","KAUKAUNA","WI","54130"
363788,"W72N853 HARRISON AVENUE","CEDARBURG","WI","53012"
363789,"W7323 2ND LANE","PORTAGE","WI","53901"
363790,"W7335 COUNTY ROAD F","PHILLIPS","WI","54555"
363791,"W7401 UPPER PINE CREEK DRIVE","IRON MOUNTAIN","MI","49801"
363792,"W7444 HWY 33","BEAVER DAM","WI","53916"
363793,"W7505 HIGHWAY 11","MONROE","WI","53566"
363794,"W7530 IROQUOIS TRAIL","DELAVAN","WI","53115"
363795,"W7573 RAPPY LAKE ROAD","SPOONER","WI","54801"
363796,"W7605 JOE SNOW RD","MERRILL","WI","54452"
363797,"W7673 NORTH STREET","WAUSAUKEE","WI","54177"
363798,"W7690 165TH AVENUE","HAGER CITY","WI","54014"
363799,"W7725 US HWY 10","ELLSWORTH","WI","54011"
363800,"W7743 WISCONSIN PKWY","DELAVAN","WI","53115"
363801,"W7835 SHORE ACRES ROAD","LAKE MILLS","WI","53551"
363802,"W7842 AIRPORT RD","CRIVITZ","WI","54114"
363803,"W7863 COUNTY ROAD YY","WAUTOMA","WI","54982"
363804,"W7929 STATE HIGHWAY M69","IRON MOUNTAIN","MI","49801"
363805,"W797 COUNTY ROAD K","BRILLION","WI","54110"
363806,"W799 TOWN LINE ROAD","RIPON","WI","54971"
363807,"W7996 GLACIER LN","OXFORD","WI","53952"
363808,"W7998 COUNTY ROAD W","BEAVER DAM","WI","53916"
363809,"W8003 COUNTY ROAD J","WATERTOWN","WI","53098"
363810,"W8022 SMOCK VALLEY RD","MONROE","WI","53566"
363811,"W8087 MAPLE STREET","HOLMEN","WI","54636"
363812,"W8157 COUNTY HWY A","SPOONER","WI","54801"
363813,"W8160 LEEMAN ROAD","SAGOLA","MI","49881"
363814,"W8294 COUNTY ROAD M","MERRILL","WI","54452"
363815,"W8330 ROYAL OAKS DR","WAUTOMA","WI","54982"
363816,"W8471 STATE ROAD 39","BLANCHARDVILLE","WI","53516"
363817,"W8485 STATE ROAD 39","BLANCHARDVILLE","WI","53516"
363818,"W8485 STATE ROAD","BLANCHARDVILLE","WI","53516"
363819,"W8644 COUNTY ROAD M","MERRILL","WI","54452"
363820,"W8709 SAWMILL ROAD","BLANCHARDVILLE","WI","53516"
363821,"W8803 LAKEVIEW DRIVE","IRON MOUNATIN","MI","49801"
363822,"W8823 CTY RD TC","OAKFIELD","WI","53065"
363823,"W891 MADSEN ROAD","MARINETTE","WI","54143"
363824,"W9015 BADGER LN","SPOONER","WI","54801"
363825,"W9120 WA KA JA HUK ROAD","BLACK RIVER FALLS","WI","54615"
363826,"W9565 APPLE AVE","MEDFORD","WI","54451"
363827,"W9579 CEDAR DRIVE","PEPIN","WI","54759"
363828,"W9693 LIBERTY LN","CATAWBA","WI","54515"
363829,"W9706 BONNIN RD","NEW LONDON","WI","54961"
363830,"W9837 COUNTY RD S","NEW LONDON","WI","54961"
363831,"W99 N14127 SEVEN PINES WAY UNIT C","GERMANTOWN","WI","53022"
363832,"WALNUT RIDGE ROAD","SALEM","IN","46167"
363833,"WASHINGTON AND LEE LAW ROOM 236","LEXINGTON","VA","24450"
363834,"WASHINGTON AND LEE SCHOOL OF LAW","LEXINGTON","VA","24450"
363835,"WASHINGTON","WASHINGTON","DC","20020"
363836,"WASHOUGAL ARTS AND CULTURE ALLIANCE","WASHOUGAL","WA","98671"
363837,"WDH RM 5-110 308 HARVARD ST SE","MINNEAPOLIS","MN","55455"
363838,"WEBB BUILDING 2100 FOXHALL ROAD","WASHINGTON","DC","20007"
363839,"WEIGEL HALL 1866 COLLEGE RD N 110","COLUMBUS","OH","43210"
363840,"WEST ALBION ST","AVILLA","IN","46710"
363841,"WEST END WASHINGTON ST","LAREDO","TX","78040"
363842,"WEST JAKE ALEXANDER BLVD PMB 125","SALISBURY","NC","28147"
363843,"WEST SILVERSPRINGS BLVD RM 2","OCALA","FL","34475"
363844,"WESTBROOK","CONYERS","GA","30094"
363845,"WESTERN CENTER BLVD STE 303","FORT WORTH","TX","76137"
363846,"WEWORK CO JEN CLARK 220 NW 8TH AVE","PORTLAND","OR","97209"
363847,"WEWORK PDC 750 N SAN VICENTE BLVD","WEST HOLLYWOOD","CA","90069"
363848,"WIC 290 1025 EAST 7TH STREET","BLOOMINGTON","IN","47405"
363849,"WILDCAT WAY","LOGAN","WV","25601"
363850,"WINNIPEG AVE","BROWNSVILLE","TX","78526"
363851,"WIRTSHAFTER LAW OFFICE","GUYSVILLE","OH","45735"
363852,"WISCONSIN AVENUE","BRENTWOOD","NY","11717"
363853,"WISHING WELL LN","WILMINGTON","NC","28409"
363854,"WMS STATE SVS CNTR 805 RIVER RD","DOVER","DE","19901"
363855,"WOLVERTON LIBRARY  - 200 COLLEGE DR","BLACKWOOD","NJ","08012"
363856,"WORCESTER ST UNIV - 486 CHANDLER ST","WORCESTER","MA","01602"
363857,"WQ8 CALLE DELFIN URB SANTA JUANITA","BAYAMON","PR","00956"
363858,"WTC  2200 ALASKAN WAY  SUITE 490","SEATTLE","WA","98121"
363859,"WWU GEOLOGY 516 HIGH STREET","BELLINGHAM","WA","98225"
363860,"X2459","HAYS","KS","67601"
363861,"Y","GREENSBORO","NC","27205"
363862,"ZORZAL 26 URB PALMA REAL","JUNCOS","PR","00777"
