"ID","Address","City","State","Zip"
225001,"4848 N DAMEN AVE","CHICAGO","IL","60624"
225002,"4848 N FRONT ST","PHILADELPHIA","PA","19120"
225003,"4848 N ILLINOIS ST","INDIANAPOLIS","IN","46205"
225004,"4848 NW 24TH COURT 428","LAUDERDALE LAKES","FL","33313"
225005,"4848 NW 24TH COURT UNIT 428","LAUDERDALE LAKES","FL","33313"
225006,"4848 OAKWOOD LANE","WEST DES MOINES","IA","50265"
225007,"4848 OXFORD STREET","SHOREVIEW","MN","55126"
225008,"4848 RIVERCLIFF DR SE","MARIETTA","GA","30067"
225009,"4848 S MCCANN AVE","SPRINGFIELD","MO","65804"
225010,"4848 SAN FELIPE RD 150-114","SAN JOSE","CA","95135"
225011,"4848 SE 100TH AVE","PORTLAND","OR","97266"
225012,"4848 SOMERS ROAD","HAMPTONVILLE","NC","27020"
225013,"4848 SPARKS BLVD  STE 100","SPARKS","NV","89436"
225014,"4848 THOMPSON PARKWAY SUITE 410","JOHNSTOWN","CO","80534"
225015,"4848 THORNBROOK LANE","WINSTON-SALEM","NC","27105"
225016,"4848 US-50","BAINBRIDGE","OH","45612"
225017,"4848 VILLAGE GREEN WAY","SAN BERNARDINO","CA","92407"
225018,"4848 W 134TH STREET","HAWTHORNE","CA","90250"
225019,"4848 XERXES AVE S","MINNEAPOLIS","MN","55410"
225020,"4849 CONNECTICUT AVENUE NW","WASHINGTON","DC","20008"
225021,"4849 FORT AVE SUITE B","LYNCHBURG","VA","24502"
225022,"4849 JEFFERSON","GARY","IN","46408"
225023,"4849 POND PINE WAY","LAKE WORTH","FL","33463"
225024,"4849 SOUTH MEMORY LANE","HOLLADAY","UT","84117"
225025,"4849 VAN NUYS BLVD STE 104","SHERMAN OAKS","CA","91403"
225026,"4849 W OUTER DRIVE","DETROIT","MI","48235"
225027,"4849 WHITNEYVILLE AVENUE SE","ADA","MI","49301"
225028,"485 1/2 RIDGE LN","GRAND JUNCTION","CO","81504"
225029,"485 21 3/4 AVENUE","CUMBERLAND","WI","54829"
225030,"485 2ND AVE EN","KALISPELL","MT","59901"
225031,"485 ALISAL ROAD STE 198","SOLVANG","CA","93463"
225032,"485 AVENUE A","BAYONNE","NJ","07002"
225033,"485 BECKY LN","WAXAHACHIE","TX","75165"
225034,"485 BRICKELL AVE SUITE 2911","MIAMI","FM","33131"
225035,"485 BRICKELL AVENUE UNIT 3905","MIAMI","FL","33131"
225036,"485 CENTRAL PARK WEST APT 4D","NEW YORK","NY","10025"
225037,"485 CHESTNUT STREET","UNION","NJ","07083"
225038,"485 CHURCHILL ROAD","TEANECK","NJ","07666"
225039,"485 COWAN TRL","STOCKBRIDGE","GA","30281"
225040,"485 COX ROAD","SALISBURY","NC","28146"
225041,"485 DICKSON SPRINGS RD","FAYETTEVILLE","GA","30215"
225042,"485 E 32ND AVE","EUGENE","OR","97405"
225043,"485 EAST 106TH STREET","CLEVELAND","OH","44108"
225044,"485 EAST CONCORD WAY","HEBER CITY","UM","84032"
225045,"485 EAST MAIN STREET","HAGERSTOWN","IN","47346"
225046,"485 FOUNTAIN AVE APT 1E","BROOKLYN","NY","11208"
225047,"485 FRONT STREET NORTH","ISSAQUAH","WA","98027"
225048,"485 JACKSON AVENUE APT 12","BRONX","NY","10455"
225049,"485 LEXINGTON AVENUE","NEW YORK","NY","10017"
225050,"485 LINNVILLE RD","HEATH","OH","43056"
225051,"485 MADISON AVE","NEW YORK","NY","10022"
225052,"485 MADISON STREET","BUFFALO","NY","14211"
225053,"485 MASSACHUSETTS AVE","CAMBRIDGE","MA","02139"
225054,"485 MASSACHUSETTS AVENUE SUITE 300","CAMBRIDGE","MA","02139"
225055,"485 MCCLATCHY WAY","SACRAMENTO","CA","95818"
225056,"485 MESSIER FARM RD","ORLEANS","VT","05860"
225057,"485 N 400TH ST","SUMNER","IL","62466"
225058,"485 N US HWY 17 92 SUITE 415","LONGWOOD","FM","32750"
225059,"485 NEWPORT BRIDGE ROAD","PINE ISLAND","NY","12508"
225060,"485 NW 71ST STREET UNIT 807","MIAMI","FL","33150"
225061,"485 OAK GLENN RD","HOWELL","NJ","07731"
225062,"485 OLD RIFTON SCHOOL ROAD NE","PILOT","VA","24138"
225063,"485 OPINIKAO PLACE","HONOLULU","HI","96825"
225064,"485 ORCHARD LAKE ROAD STE 205","PONTIAC","MI","48341"
225065,"485 PINE AVENUE","PACIFIC GROVE","CA","93950"
225066,"485 PINE TREE LN","BOULDER","CO","80304"
225067,"485 REABA AVE","CONGERVILLE","IL","61729"
225068,"485 REDWOOD STREET SUITE 20","VALLEJO","CA","94590"
225069,"485 ROYAL OAK DR","SPARTANBURG","SC","29302"
225070,"485 S FEDERAL HWY","DANIA","FL","33004"
225071,"485 S PERRY ST   SUITE D","LAWRENCEVILLE","GA","30046"
225072,"485 S VALLE ESCONDIDO","CORNVILLE","AZ","86325"
225073,"485 SAINT CLAIR LANE","HUNTSVILLE","AL","35811"
225074,"485 SANDHILL ROAD","ELLISVILLE","MS","39437"
225075,"485 SHOREWOOD TR","ONTARIO","NY","14519"
225076,"485 SOUTH 24TH STREET WEST","BILLINGS","MT","59102"
225077,"485 SOUTH BARTLETT ROAD","STREAMWOOD","IL","60107"
225078,"485 TORRINGTON RD","CLINTON","SC","29325"
225079,"485 UNDERHILL BLVD STE 104","SYOSSET","NY","11791"
225080,"485 WALNUT RIDGE TRAIL","AURORA","OH","44202"
225081,"485 WEST RIVER RD","BRATTLEBORO","VT","05301"
225082,"485","BELLAIRE","TX","77402"
225083,"4850 ARIZONA AVENUE","LAS VEGAS","NV","89104"
225084,"4850 EAST DESSERT COVE 206","SCOTTSDALE","AZ","85254"
225085,"4850 GOLDEN PARKWAY SUITE B-428","BUFORD","GA","30518"
225086,"4850 GOLDEN PARKWAY SUITE B179","BUFORD","GA","30518"
225087,"4850 KINGDOM DRIVE","MURFREESBORO","TN","37128"
225088,"4850 LAKEPLACE DR","CEDAR BLUFF","AL","35959"
225089,"4850 LANGDRUM LANE","CHEVY CHASE","MD","20815"
225090,"4850 MILLENIA BLVD","ORLANDO","FL","32839"
225091,"4850 N BROADWAY AVE PO BOX 409414","CHICAGO","IL","60640"
225092,"4850 N STATE RD 7 SUITE G 113","LAUDERDALE LAKES","FL","33319"
225093,"4850 NATOMAS BLVD APT427","SACRAMENTO","CA","95835"
225094,"4850 NATOMAS BLVD STE 1312","SACRAMENTO","CA","95835"
225095,"4850 NE 28 AVENUE","LIGHTHOUSE POINT","FL","33064"
225096,"4850 NW 167 ST","MIAMI","FL","33014"
225097,"4850 OLIVEHURST AVENUE","OLIVEHURST","CA","95961"
225098,"4850 PINE HILL CT W","STONE MOUNTAIN","GA","30088"
225099,"4850 S BRADLEY RD STE A1","SANTA MARIA","CA","93455"
225100,"4850 S LAKE PARK APT 812B","CHICAGO","IL","60615"
225101,"4850 S LAKE PARK AVE","CHICAGO","IL","60615"
225102,"4850 SOUTH BROADVIEW RD","COLFAX","IN","46035"
225103,"4850 SOUTH PINE ISLAND ROAD","DAVIE","FL","33328"
225104,"4850 SPRING AVENUE","DALLAS","TX","75210"
225105,"4850 SUGARLOAF PARKWAY STE 209-103","LAWRENCEVILLE","GA","30044"
225106,"4850 SUGARLOAF PARKWAY SUITE 209-13","LAWRENCEVILLE","GA","30044"
225107,"4850 SUGARLOAF PKWY  SUITE 209-293","LAWRENCEVILLE","GA","30044"
225108,"4850 SUGARLOAF PKWY SUITE 209-116","LAWRENCEVILLE","GA","30044"
225109,"4850 SUGARLOAF PKWY SUITE 209/198","LAWRENCEVILLE","GA","30044"
225110,"4850 SW 63 TERR 324","DAVIE","FL","33314"
225111,"4850 SW SCHOLLS FERRY RD STE 202","PORTLAND","OR","97225"
225112,"4850 W FLAMINGO RD STE 13","LAS VEGAS","NV","89103"
225113,"4850 W FLAMINGO RD STE 25","LAS VEGAS","NV","89103"
225114,"4850 W FLAMINGO ROAD","LAS VEGAS","NV","89103"
225115,"4851 DREW FOREST LN","HUMBLE","TX","77346"
225116,"4851 ELVIS PRESLEY BLVD","MEMPHIS","TN","38116"
225117,"4851 GARDEN SPRING LANE SUITE 306","GLEN ALLEN","VA","23059"
225118,"4851 N 91 STREET","MILWAUKEE","WI","53225"
225119,"4851 N HAMILTON AVE","CHICAGO","IL","60625"
225120,"4851 ORCHARD DRIVE","BARNHART","MO","63012"
225121,"4851 RAYMOND RD","MIDLAND","MI","48642"
225122,"4851 RIVER RD","ELLENWOOD","GA","30294"
225123,"4851 SCOTCH CT","CARMICHAEL","CA","95608"
225124,"4851 SWANS MANOR","COCONUT CREEK","FL","33073"
225125,"4851 TARI LN","LEWISTON","MI","49756"
225126,"4851 W 92ND AVE","CROWN POINT","IN","46307"
225127,"4851 W HILLSBORO BLVD STE A1","COCONUT CREEK","FL","33073"
225128,"4852 AUTUMN GLORY WAY","CHANTILLY","VA","20151"
225129,"4852 LAKEWOOD DR","ACWORTH","GA","30101"
225130,"4852 PADDOCK ROAD","CINCINNATI","OH","45237"
225131,"4852 S 133RD ST SUITE 101","OMAHA","NE","68137"
225132,"4852 US HIGHWAY 259 NORTH","DANGERFIELD","TX","75638"
225133,"4852 WOLFE ROAD","RICHMOND","IN","47374"
225134,"4852-B ORLEANS COURT","WEST PALM BEACH","FL","33415"
225135,"4853 BLUESTEM DR","COLORADO SPRINGS","CO","80917"
225136,"4853 GARNET CIRCLE","STOW","OH","44224"
225137,"4853 JONESBORO RD","FOREST PARK","GA","30228"
225138,"4853 N KENMORE AVE","CHICAGO","IL","60640"
225139,"4853 S ORANGE AVENUE SUITE B","ORLANDO","FL","32806"
225140,"4853 S SHERIDAN RD  SUITE 603","TULSA","OK","74145"
225141,"48532 COUNTY ROAD 39","NUNN","CO","80648"
225142,"4854 E GRAND RIVER AVE","PORTLAND","MI","49875"
225143,"4854 E NORMAL","FRESNO","CA","93703"
225144,"4854 EISENHOWER AVENUE UNIT 353","ALEXANDRIA","VA","22304"
225145,"4854 GREENCREST RD","BALTIMORE","MD","21206"
225146,"4854 ROCK ROSE LOOP","SANFORD","FL","32771"
225147,"48542 VAN DYKE AVE SUITE 200","SHELBY TOWNSHIP","MI","48317"
225148,"4855 AMBER LANE","BILLINGS","MT","59106"
225149,"4855 BERL DR","SAGINAW","MI","48604"
225150,"4855 BOULDER HWY SUITE O2169","LAS VEGAS","NV","89121"
225151,"4855 EAST SARAH LOOP","ATHOL","ID","83801"
225152,"4855 GARFIELD STREET","GARY","IN","46408"
225153,"4855 LUZON COVE","MEMPHIS","TN","38118"
225154,"4855 MACCORKLE AVENUE SW","SOUTH CHARLESTON","WV","25309"
225155,"4855 MAGNOLIA COVE DR  UNIT 332","KINGWOOD","TX","77345"
225156,"4855 OLD NATIONAL HIGHWAY","COLLEGE PARK","GA","30337"
225157,"4855 PERSIMMON HOLLOW ROAD","MILTON","FL","32583"
225158,"4855 RIVER GREEN PKWY SUITE 620","DULUTH","GA","30096"
225159,"4855 SEMINOLE DRIVE","SAN DIEGO","CA","92115"
225160,"4855 VERMONT ROAD","WELLSVILLE","KS","66092"
225161,"4855 WILSON AVE","NEW ORLEANS","LA","70126"
225162,"48555 ISOLA DRIVE","SHELBY TOWNSHIP","MI","48315"
225163,"4856 211ST","BAYSIDE","NY","11364"
225164,"4856 CEBRIAN AVENUE","NEW CUYAMA","CA","93254"
225165,"4856 CLINTON AVE","KLAMATH FALLS","OR","97603"
225166,"4856 E BASELINE RD SUITE 106","MESA","AZ","85206"
225167,"4856 FAIRWAY BLVD","CHINO HILLS","CA","91709"
225168,"4856 LAKE AVE","BLASDELL","NY","14219"
225169,"4856 LEDGESTONE COURT","FORT WORTH","TX","76132"
225170,"4856 LOUISIANA AVE N","MINNEAPOLIS","MN","55428"
225171,"4856 PELEHU RD","KAPAA","HI","96746"
225172,"4856 ROYCE DRIVE","MOUNT DORA","FL","32757"
225173,"4856 STAMP ROAD","TEMPLE HILLS","MD","20748"
225174,"4856 WEST SUNDEW LN","WEST JORDAN","UT","84081"
225175,"4857 AVONDALE RIDGE DR","DUBLIN","OH","43017"
225176,"4857 BROADWAY APT 4E","NEW YORK","NY","10034"
225177,"4857 CLAY BROOKE DR","SMYRNA","GA","30082"
225178,"4857 N REMINGTON SQ","LAPORTE","IN","46350"
225179,"4857 PALM BEACH BLVD UNIT 4","FORT MYERS","FL","33905"
225180,"4857 SOUTH AARON WAY","SALT LAKE CITY","UT","84118"
225181,"4857 WILKIE WAY NW","ACWORTH","GA","30102"
225182,"4857 WINGHAVEN DRIVE","WATERLOO","IA","50701"
225183,"4858 BROOKWOOD PLACE","ATLANTA","GA","30349"
225184,"4858 HIGHLAND PLACE COURT","RICHMOND HEIGHTS","OH","44143"
225185,"4858 HIGHWAY 51 SOUTH","HERNANDO","MS","38632"
225186,"4858 MIDLAND SPRINGS DR","COLUMBUS","GA","31909"
225187,"4858 STEAMBOAT LAKE COURT","COLORADO SPRINGS","CO","80924"
225188,"4858 W PICO BLVD   SUITE 314","LOS ANGELES","CA","90019"
225189,"4858 W PICO BLVD STE 189","LOS ANGELES","CA","90036"
225190,"4858 W PICO BLVD SUITE 275","LOS ANGELES","CA","90019"
225191,"4858 W PICO BLVD UNIT 316","LOS ANGELES","CA","90019"
225192,"4858 W PICO BLVD","LOS ANGELES","CA","90019"
225193,"4858 WEST PICO BOULEVARD  SUITE 132","LOS ANGELES","CA","90019"
225194,"48583 S 498 RD","SALINA","OK","74365"
225195,"48585 SULLIVAN RD A","BANNING","CA","92220"
225196,"4859  KOSSUTH AVE","SAINT LOUIS","MO","63115"
225197,"4859 BUNDY RD","NEW ORLEANS","LA","70127"
225198,"4859 DOVER CENTER ROAD SUITE 11","NORTH OLMSTED","OH","44070"
225199,"4859 EAST 97TH STREET DOWN","GARFIELD HTS","OH","44125"
225200,"4859 EL GRANDE PLACE","EL SOBRANTE","CA","94803"
225201,"4859 KNUDSEN","MONTAGUE","MI","49437"
225202,"4859 N BRADLEY ST SUITE 100","GARDEN CITY","ID","83714"
225203,"4859 S MAIN ST","AKRON","OH","44319"
225204,"4859 SLAUSON AVENUE UNIT 103","LOS ANGELES","CA","90056"
225205,"4859 W  SLAUSON AVENUE SUITE 617","LOS ANGELES","CA","90056"
225206,"4859 W EL SEGUNDO BLVD","HAWTHORNE","CA","90250"
225207,"4859 W SLAUSON AVE 401","LOS ANGELES","CA","90056"
225208,"4859 W SLAUSON AVE 524","LOS ANGELES","CA","90056"
225209,"4859 W SLAUSON AVE NUM689","INGLEWOOD","CA","90056"
225210,"4859 W SLAUSON AVE STE 360","LOS ANGELES","CA","90056"
225211,"4859 W SLAUSON AVE STE 524","LOS ANGELES","CA","90056"
225212,"4859 W SLAUSON AVE UNIT 412","LOS ANGELES","CA","90056"
225213,"4859 W SLAUSON AVE UNIT 755","LOS ANGELES","CA","90056"
225214,"4859 W SLAUSON AVENUE 299","LOS ANGELES","CA","90056"
225215,"4859 W SLAUSON AVENUE UNIT 204","LOS ANGELES","CA","90056"
225216,"4859 W SLAUSON AVENUE UNIT 645","LOS ANGELES","CA","90056"
225217,"4859 W SLAUSON","LOS ANGELES","CA","90056"
225218,"4859 WEST SLAUSON AVE 445","LOS ANGELES","CA","90056"
225219,"4859 WEST SLAUSON AVE UNIT 633","LOS ANGELES","CA","90056"
225220,"4859 WEST SLAUSON AVE","LOS ANGELES","CA","90056"
225221,"485C US HIGHWAY 1 SOUTH  SUITE 100","ISELIN","NJ","08830"
225222,"485C US HIGHWAY 1 SOUTH SUITE 350","ISELIN","NJ","08830"
225223,"486 4TH AVE W","NEWARK","NJ","07107"
225224,"486 ADDISON STREET","WASHINGTON","PA","15301"
225225,"486 BENSON HURST DR SW","MABLETON","GA","30126"
225226,"486 BENSON HURST DRIVE","MABLETON","GA","30126"
225227,"486 BERRYMAN DRIVE","SNYDER","NY","14226"
225228,"486 BICKEL CHURCH RD NW","BALTIMORE","OH","43105"
225229,"486 BOSPHOROUS AVE","TAMPA","FL","33606"
225230,"486 CAMBERLEY LN","DALLAS","GA","30132"
225231,"486 DENNING ROAD","BENSON","NC","27504"
225232,"486 E THIRD STREET","LAFAYETTE","OR","97127"
225233,"486 E WALLED LAKE DRIVE","WALLED LAKE","MI","48390"
225234,"486 EAST 56TH STREET","NORTH LONG BEACH","CA","90805"
225235,"486 KENMORE AVE","SUNNYVALE","CA","94086"
225236,"486 LIME BLUFF ROAD","HUGHESVILLE","PA","17737"
225237,"486 LINDEN BOULEVARD","BROOKLYN","NY","11203"
225238,"486 LOCUST ST","LAGUNA BEACH","CA","92651"
225239,"486 LONGRIDGE DR","PITTSBURGH","PA","15243"
225240,"486 MAIN STREET","ACTON","MA","01720"
225241,"486 MAIN STREET","WEST TOWNSEND","MA","01474"
225242,"486 NEW BRITAIN AVENUE","NEWINGTON","CT","06111"
225243,"486 OLD BUCKET LANE","ANAHEIM HILLS","CA","92807"
225244,"486 ROUTE 917","SCENERY HILL","PA","15360"
225245,"486 SPRINGMILL STREET","MANSFIELD","OH","44903"
225246,"486","OCEAN VIEW","NJ","08230"
225247,"4860 ALPINE RD","PORTOLA VALLEY","CA","94028"
225248,"4860 BIG ISLAND DRIVE STE 1","JACKOSNVILLE","FL","32246"
225249,"4860 BRADDOCK RD APT 203","ALEXANDRIA","VA","22311"
225250,"4860 CHAMBERS ROAD UNIT 92","DENVER","CO","80239"
225251,"4860 COUNTY HOME ROAD","GREENVILLE","NC","27858"
225252,"4860 COX ROAD SUITE 200","GLEN ALLEN","VA","23060"
225253,"4860 HIGHWAY 43 NORTH","SUMMERTOWN","TN","38483"
225254,"4860 IRVINE BLVD SUITE 205","IRVINE","CA","92620"
225255,"4860 MARSHALL RD","GARDEN VALLEY","CA","95633"
225256,"4860 N 36TH COURT","HOLLYWOOD","FL","33021"
225257,"4860 N CLARK STREET   2N","CHICAGO","IL","60640"
225258,"4860 NORRIS ROAD","FREMONT","CA","94536"
225259,"4860 WASHTENAW AVE I-105","ANN ARBOR","MI","48108"
225260,"48606 N 17TH AVE","NEW RIVER","AZ","85087"
225261,"4861 CANOPY LANE","OAKLEY","CA","94561"
225262,"4861 CONVOY STREET","SAN DIEGO","CA","92111"
225263,"4861 GLEN LEVEL DRIVE","SUGAR HILL","GA","30518"
225264,"4861 HIGHWAY 90","ALLEYTON","TX","78935"
225265,"4861 N DIXIE HIGHWAY STE 205 B","OAKLAND PARK","FL","33334"
225266,"4861 NW 115TH AVE","CORAL SPRINGS","FL","33076"
225267,"4861 NW 5TH STREET","PLANTATION","FL","33317"
225268,"4861 S GLENN AVE","SPRINGFIELD","MO","65810"
225269,"4861 SANTA CRUZ AVENUE","SAN DIEGO","CA","92107"
225270,"4861 TALLOWWOOD LN","BOCA RATON","FL","33487"
225271,"4862 AUTUMN HILL","GRAND PRAIRIE","TX","75052"
225272,"4862 BASSETT CT","CONCORD","CA","94521"
225273,"4862 BROOKSBRANCH RD","ARLINGTON","TN","38002"
225274,"4862 DAKOTA RD SE","SALEM","OR","97302"
225275,"4862 EDGEMONT CT","SARASOTA","FL","34233"
225276,"4862 INDIALANTIC DR","ORLANDO","FL","32808"
225277,"4862 JUST STREET NE","WASHINGTON","DC","20019"
225278,"4862 LOUVINIA DRIVE","TALLAHASSEE","FL","32311"
225279,"4862 OLINDA ST","YORBA LINDA","CA","92886"
225280,"4862 PINE COVE LANE","WEST PALM BEACH","FL","33417"
225281,"4862 PROSPERITY RIDGE ROAD","CHARLOTTE","NC","28269"
225282,"4862 SWEETMEADOW CIR","SARASOTA","FL","34238"
225283,"4862 TAWNY RIDGE DR","COLORADO SPRINGS","CO","80916"
225284,"4862 W 4000 S","WEST HAVEN","UT","84401"
225285,"4863 ANTIOCH RD","CRESTVIEW","FL","32536"
225286,"4863 DELORES DRIVE","UNION CITY","CA","94587"
225287,"4863 FELICIANA DR","NEW ORLEANS","LA","70126"
225288,"4863 GUTHRIE CEMETERY RD","LOGANVILLE","GA","30052"
225289,"4863 NW 55TH PLACE","TAMARAC","FL","33319"
225290,"4863 SOUTHRIDGE AVE","LOS ANGELES","CA","90043"
225291,"4864 BETHLEHEM CHURCH ROAD","WASHINGTON","MO","63090"
225292,"4864 COUNTY ROAD P","HIGHLAND","WI","53543"
225293,"4864 EAST CALLE DEL MEDIO","PHOENIX","AZ","85018"
225294,"4864 HIGHWAY 554","UTICA","KY","42376"
225295,"4864 MARKET ST STE B","VENTURA","CA","93003"
225296,"4864 N WASHTENAW AVE","CHICAGO","IL","60625"
225297,"4864 RED BRICK RUN","SANFORD","FL","32771"
225298,"4864 ROUTE 52","WILLIAMSON","WV","25661"
225299,"4864 STANISLAUS","ADKINS","TX","78101"
225300,"4864 W BRADDOCK RD 102","ALEXANDRIA","VA","22311"
225301,"48645 VAN DYKE AVENUE APT 106","SHELBY TWP","MI","48317"
225302,"4865  SOM CENTER RD","MORELAND HILLS","OH","44022"
225303,"4865 BANCROFT DR","LA MESA","CA","91941"
225304,"4865 BANNOCK","SIERRA VISTA","AZ","85650"
225305,"4865 CORNELL DR","BEAUMONT","TX","77705"
225306,"4865 CYPRESS WOODS DRIVE  APT 2107","ORLANDO","FL","32811"
225307,"4865 E PEBBLE BEACH DRIVE","FLAGSTAFF","AZ","86004"
225308,"4865 HARBOR WOODS DRIVE","PALM HARBOR","FL","34683"
225309,"4865 KENTINGTON DR","ALVIN","TX","77511"
225310,"4865 LOOKOUT ROAD","SANTA BARBARA","CA","93105"
225311,"4865 SOUTH POINT","DISCOVERY BAY","CA","94505"
225312,"4865 TANGERINE AVE","SACRAMENTO","CA","95823"
225313,"4865 W QUAIL RUN DR","NEW PALESTINE","IN","46163"
225314,"4865 WINNETKA AVE","WOODLAND HILLS","CA","91364"
225315,"48651 S INTERSTATE 94 APT 304","BELLEVILLE","MI","48111"
225316,"4866 FAIRLAWN ROAD","LYNDHURST","OH","44124"
225317,"4866 JAYBIRD CIRCLE NORTH","JACKSONVILLE","FL","32257"
225318,"4866 S 48TH STREET APT C2","TACOMA","WA","98409"
225319,"48665 SEDUM ROAD","FREMONT","CA","94538"
225320,"4867 BLUE JAY CIRCLE","PALM HARBOR","FL","34683"
225321,"4867 CALLE ESTRADA","LA VERNE","CA","91750"
225322,"4867 EAGLE ROCK BLVD SUITE 1","LOS ANGELES","CA","90041"
225323,"4867 FLORIDA CLUB CIR UNIT 4101","JACKSONVILLE","FL","32216"
225324,"4867 IRVING DRIVE","COLORADO SPRINGS","CO","80919"
225325,"4867 S ZANG WAY","MORRISON","CO","80465"
225326,"4867 SE FREWING RD","HILLSBORO","OR","97123"
225327,"4867 WEST 3185 SOUTH","SALT LAKE CITY","UT","84120"
225328,"48675","ATHENS","GA","30604"
225329,"4868 EAST 94TH STREET","GARFIELD HEIGHTS","OH","44125"
225330,"4868 SEEGER ST","CASS CITY","MI","48726"
225331,"48680 SNEAD DRIVE","BURLINGTON","CO","80807"
225332,"4869 ALEX PITRE LN","MARRERO","LA","70072"
225333,"4869 CARDENAS DRIVE","NEW ORLEANS","LA","70127"
225334,"4869 NW 53RD CIR","COCONUT CREEK","FL","33073"
225335,"4869 RAMBLING DR","TROY","MI","48098"
225336,"4869 TREATY LINE ROAD","HAGERSTOWN","IN","47346"
225337,"487 6TH AVE","BROOKLYN","NY","11215"
225338,"487 BALDWIN AVENUE","NORTH BALDWIN","NY","11510"
225339,"487 DIX AVENUE","QUEENSBURY","NY","12804"
225340,"487 EAST MAIN STREET SUITE 285","MOUNT KISCO","NY","10549"
225341,"487 EAST MAIN STREET SUITE 286","MOUNT KISCO","NY","10594"
225342,"487 EAST ST","BELHAVEN","NC","27810"
225343,"487 GLEN MEADOW ROAD","RICHBORO","PA","18954"
225344,"487 GROTON ROAD SUITE 1","WESTFORD","MA","01886"
225345,"487 LETORT ROAD","MILLERSVILLE","PA","17551"
225346,"487 LOCUST ST","ROLLINSFORD","NH","03869"
225347,"487 LOWELL AVE UNIT 2","NEWTON","MA","02460"
225348,"487 MADISON DRIVE","EAST WINDSOR","NJ","08520"
225349,"487 MANOOGIAN 906 W WARREN","DETROIT","MI","48202"
225350,"487 MAURY RIVER ROAD","LEXINGTON","VA","24450"
225351,"487 MYRTLE AVENUE SUITE 73","BROOKLYN","NY","11205"
225352,"487 PLANTERS TRACE DRIVE","CHARLESTON","SC","29412"
225353,"487 QUINCY ST   3","DORCHESTER","MA","02125"
225354,"487 RESERVOIR ROAD","LUNENBURG","MA","01462"
225355,"487 ROME STREET","CARROLLTON","GA","30117"
225356,"487 S BROADWAY SUITE 300","DENVER","CO","80209"
225357,"487 TOWAMENSING TRAIL","ALBRIGHTSVILLE","PA","18210"
225358,"487 UNION STREET","PORTSMOUTH","RI","02871"
225359,"487 W 2200 N","LEHI","UT","84043"
225360,"487 WADE ROAD","OWENS CROSS ROADS","AL","35763"
225361,"4870 ALEXANDRA COURT","ROLLING MEADOWS","IL","60008"
225362,"4870 ASHCROFT DRIVE","MEMPHIS","TN","38125"
225363,"4870 DUCK RIVER ROAD","MEMPHIS","TN","38135"
225364,"4870 HARTLAND PARKWAY","LEXINGTON","KY","40515"
225365,"4870 MIAMI SHELBY ROAD EAST","FLETCHER","OH","45326"
225366,"4870 NE 12TH AVENUE","OAKLAND PARK","FL","33334"
225367,"4870 PIEDMONT AVE","NORHT CHARLESTON","SC","29406"
225368,"4870 PIEDMONT AVENUE","NORTH CHARLESTON","SC","29406"
225369,"4870 WARWICK DRIVE SOUTH","CANFIELD","OH","44406"
225370,"4871 DOLOROSA LN","PROSPER","TX","75078"
225371,"4871 LAKELAND HARBOR CIRCLE","LAKELAND","FL","33805"
225372,"4871 LIBERTY RD S","SALEM","OR","97306"
225373,"4871 MERITAGE PL","ROCKLEDGE","FL","32955"
225374,"4871 NORTH MOUNT NEBO DR","EAGLE MOUNTAIN","UT","84005"
225375,"4871 NW 7TH DRIVE","PLANTATION","FL","33317"
225376,"4871 NW RADIAL HWY","OMAHA","NE","68104"
225377,"4871 PGA BOULEVARD","PALM BEACH GARDENS","FL","33418"
225378,"4871 S TOWNSHIP ROAD 197","ATTICA","OH","44807"
225379,"4871 SCOTT ALLEN DR","MISSOULA","MT","59803"
225380,"48711 SOUTH I 94 SERVICE DRIVE","BELLEVILLE","MI","48111"
225381,"4872 BETULA DRIVE","CANAL WINCHESTER","OH","43110"
225382,"4872 EASY ST","WAUNAKEE","WI","53597"
225383,"4872 LONGMEADOW DR","BESSEMER","AL","35022"
225384,"4872 S 5300 W","HOOPER","UT","84315"
225385,"48720 KATO ROAD","FREMONT","CA","94538"
225386,"4873 DIVISION HWY","EAST EARL","PA","17519"
225387,"4873 EXCELENTE DRIVE","WOODLAND HILLS","CA","91364"
225388,"4873 GERTRUDE DRIVE","MEMPHIS","TN","38125"
225389,"4874 CORINTHIAN BAY DRIVE","FRISCO","TX","75034"
225390,"4874 DENARO DRIVE","LAS VEGAS","NV","89135"
225391,"4874 E GAGE AVE  NO 32","LOS ANGELES","CA","90201"
225392,"4874 GLENBROOK DR","ROANOKE","VA","24018"
225393,"4874 PALM STREET","SAINT LOUIS","MO","63115"
225394,"4874 PALM","SAINT LOOUISUIS","MO","63115"
225395,"4874 SHIRE DR","LITHONIA","GA","30038"
225396,"4874 SOUTH ROOT RIVER PARKWAY","GREENFIELD","WI","53228"
225397,"4874 SQUAW VALLEY DR","CALEDONIA","IL","61011"
225398,"4875  W ATHENS CT","EAGLE","ID","83616"
225399,"4875 123RD PL SE","BELLEVUE","WA","98006"
225400,"4875 EBERT STREET","WINSTON SALEM","NC","27127"
225401,"4875 GLENLYN ROAD","LYNDHURST","OH","44124"
225402,"4875 HIGBEE AVE NW","CANTON","OH","44718"
225403,"4875 HUNTINGTON DRIVE PO BOX 32341","LOS ANGELES","CA","90032"
225404,"4875 INDEPENDENCE RD","MOKELUMNE HILL","CA","95245"
225405,"4875 LOT B VOGEL ROAD","SAINT AUGUSTINE","FL","32092"
225406,"4875 MOCCASIN BEND RD","GATESVILLE","TX","76528"
225407,"4875 MT GAYWAS DRIVE","SAN DIEGO","CA","92117"
225408,"4875 N HUNTINGTON DRIVE BOX 32033","LOS ANGELES","CA","90032"
225409,"4875 NW 89TH TER","CORAL SPRINGS","FL","33067"
225410,"4875 REEPSVILLE ROAD","VALE","NC","28168"
225411,"4875 STUART ST","DENVER","CO","80212"
225412,"4875 TIMBERWOOD CT","WEST DES MOINES","IA","50265"
225413,"4875 W OASIS RD","TUCSON","AZ","85742"
225414,"48750 SANTA URSULA STREET","LA QUINTA","CA","92253"
225415,"4876 E 2ND STREET","BENICIA","CA","94510"
225416,"4876 NEWLINE RD","GUM SPRING","VA","23065"
225417,"4876 STONE ACRES CR","ST CLOUD","FL","34771"
225418,"4876 WEST VAN COTT PEAK DR","RIVERTON","UT","84096"
225419,"4877 CERNY ROAD","PENSACOLA","FL","32526"
225420,"4877 DURHAM RD","KINTNERSVILLE","PA","18930"
225421,"4877 N 40TH ST","MILWAUKEE","WI","53209"
225422,"4877 NORTHBROOK BLVD N","STILLWATER","MN","55082"
225423,"4878 COUNTY ROAD 347","BRAZORIA","TX","77422"
225424,"4878 SULPHUR LANE SPRINGS ROAD","HOOVER","AL","35226"
225425,"4878 SUMMER GROVE DRIVE","FAIRFIELD","CA","94534"
225426,"4878 YONAH HOMER RD","ALTO","GA","30510"
225427,"4879 1ST AVE SW D","CEDAR RAPIDS","IA","52405"
225428,"4879 BULRUSH BOULEVARD","SHAKOPEE","MN","55379"
225429,"4879 MEADOW LANE","MACUNGIE","PA","18062"
225430,"4879 ST HWY 30 PERTH PLAZA STE3/237","AMSTERDAM","NY","12010"
225431,"4879 SUMMERVILLE RD","ROANOKE","VA","24019"
225432,"4879 VOGELSANG DRIVE","SACRAMENTO","CA","95842"
225433,"488 15TH AVENUE","SAN FRANCISCO","CA","94118"
225434,"488 3RD ST STE 3A","BROOKLYN","NY","11215"
225435,"488 BLAGDON COURT","JACKSONVILLE","FL","32225"
225436,"488 BROOK RD","BETHLEHEM","NH","03574"
225437,"488 CANARY LN","LARGO","FL","33770"
225438,"488 CHARLES AVENUE","SAINT PAUL","MN","55103"
225439,"488 COUNTY ROAD 502 A","SWEENY","TX","77480"
225440,"488 E ELMWOOD AVE APT 304","CLAWSON","MI","48017"
225441,"488 E OCEAN BLVD UNIT 1601","LONG BEACH","CA","90802"
225442,"488 EAST 163RD STREET 2B","BRONX","NY","10451"
225443,"488 ELK STREET","ALBANY","NY","12206"
225444,"488 FERRY ROAD","SACO","ME","04072"
225445,"488 FLOWER MEADOWS STREET","PORT ORCHARD","WA","98366"
225446,"488 GREENBRIER ESTATES","POINT PLEASANT","WV","25550"
225447,"488 HARTFORD AVE","WETHERSFIELD","CT","06109"
225448,"488 LANGHORN ST SW","ATLANTA","GA","30310"
225449,"488 PARK AVENUE","MANHASSET","NY","11030"
225450,"488 PINEVILLE RD","STATESVILLE","NC","28677"
225451,"488 PLEASANT ST SUITE 4","NEW BEDFORD","MA","02740"
225452,"488 S E 4 STREET","HIALEAH","FL","33010"
225453,"488 SHALER BLVD","RIDGEFIELD","NJ","07657"
225454,"488 THORNDALE DR","BUFFALO GROVE","IL","60089"
225455,"488 UNIVERSITY AVE SUITE 623","PALO ALTO","CA","94301"
225456,"488 UTAH ROAD","WAKEFIELD","KS","67487"
225457,"488 WHISPERING HILLS DR","LEXINGTON","KY","40517"
225458,"488 WILLINGSTON DRIVE","ROCKY MOUNT","NC","28590"
225459,"4880 106TH ST NW","SHERWOOD","ND","58782"
225460,"4880 51ST STREET WEST  APT 1414","BRADENTON","FL","34210"
225461,"4880 CARNES ROAD","CARROLL","OH","43112"
225462,"4880 DOLOROSA LN","PROSPER","TX","75078"
225463,"4880 E BONANZA ROAD STE 5","LAS VEGAS","NV","89110"
225464,"4880 FLEMINGSBURG RD","HILLSBORO","KY","41049"
225465,"4880 LAWRENCEVILLE HWY STE 7","TUCKER","GA","30084"
225466,"4880 LOWER ROSWELL RD STE 165-111","MARIETTA","GA","30068"
225467,"4880 LOWER ROSWELL RD STE 165-218","MARIETTA","GA","30068"
225468,"4880 RHIANNON COURT","PALATINE","IL","60067"
225469,"4880 SANDY LANE","ATTICA","MI","48412"
225470,"4880 TIDEWATER WAY","ALPHARETTA","GA","30005"
225471,"4880 TIERRA VERDE ST","LAS VEGAS","NV","89122"
225472,"4880 W UNIVERSITY AVE STE 4A","LAS VEGAS","NV","89103"
225473,"4880 WYATT STREET","BEAUMONT","TX","77705"
225474,"4881 CAMP WAHSEGA ROAD","DAHLONEGA","GA","30533"
225475,"4881 CLYDE DRIVE","JACKSONVILLE","FL","32209"
225476,"4882 HWY 589","SUMRALL","MS","39482"
225477,"4882 RHEIMS WAY","GROVE CITY","OH","43123"
225478,"4882 SILVER OAK STREET","DAYTON","OH","45425"
225479,"4882 W WABASH ST","MECCA","IN","47860"
225480,"48820 WELLSLEY COURT","NORTHVILLE","MI","48168"
225481,"4883 CROSSLANES STREET","MT. PLEASANT","MI","48858"
225482,"4883 E LA PALMA AVE STE 501A","ANAHEIM","CA","92807"
225483,"4883 FITZPATRICK WAY","PEACHTREE CORNERS","GA","30092"
225484,"4883 MOUNTAIN TOP ROAD","BUCKINGHAM","PA","18912"
225485,"4883 RONSON CT STE I","SAN DIEGO","CA","92111"
225486,"4883 SNOWY EGRET WAY","OAKLEY","CA","94561"
225487,"4883 UNIVERSITY CT","NIAGARA FALLS","NY","14305"
225488,"4884 CARRIGAN RIDGE DR","DUBLIN","OH","43017"
225489,"4884 CLYDEBANK WAY","ANTELOPE","CA","95843"
225490,"4884 E KENTUCKY AVE UNIT B","GLENDAL","CO","80246"
225491,"4884 METTE RD","MOSCOW MILLS","MO","63362"
225492,"4884 OCCOQUAN CLUB DR","WOODBRIDGE","VA","22192"
225493,"4884 STATE ROUTE 19 S","BELMONT","NY","14813"
225494,"4884 WEST WILEY POST WAY","SALT LAKE CITY","UT","84116"
225495,"48849 FISH LAKE RD","DETROIT LAKES","ND","56501"
225496,"4885 KEENELAND PLACE SW","CONCORD","NC","28027"
225497,"4885 MEYER AVENUE","CADILLAC","MI","49601"
225498,"4885 PRIMERO STREET","NEW CUYAMA","CA","93254"
225499,"4885 S 900 E UNIT 301","SALT LAKE CITY","UT","84117"
225500,"4885 WATERROCK RD","ELLENWOOD","GA","30294"
