"ID","Address","City","State","Zip"
310501,"9055 S TAMIAMI TRAIL UNIT 2","VENICE","FL","34293"
310502,"9055 SANDERLING WAY","LITTLETON","CO","80126"
310503,"9055 SANTA FE AVE STE 112","HESPERIA","CA","92345"
310504,"9055 SOUTH LUELLA AVENUE","CHICAGO","IL","60617"
310505,"9055 SW 73 COURT SUITE 1902","MIAMI","FL","33156"
310506,"9055 WALLO ROAD","HENRICO","VA","23231"
310507,"9056 KAGAN AVE NE","OTSEGO","MN","55362"
310508,"9056 SANTA MONICA BLVD  SUITE 306A","WEST HOLLYWOOD","CA","90069"
310509,"9056 SANTA MONICA BLVD SUITE 300","WEST HOLLYWOOD","CA","90069"
310510,"9056 STONE WALK PL","GERMANTOWN","TN","38138"
310511,"9057 FIRETOWER ROAD","PASS CHRISTIAN","MS","39571"
310512,"9057 GALVIN LANE","LORTON","VA","22079"
310513,"9057 S PARNELL AVE","CHICAGO","IL","60620"
310514,"9058 ARDEN DR MENTOR","MENTOR","OH","44060"
310515,"9058 BURKE AVENUE NORTH","SEATTLE","WA","98103"
310516,"9058 S NORMAL AVE","CHICAGO","IL","60620"
310517,"9059 52ND AVENUE SUITE 2","ELMHURST","NY","11373"
310518,"9059 56TH AVE APT 4B","ELMHURST","NY","11373"
310519,"9059 E PANORAMA CIR APT 404","ENGLEWOOD","CO","80112"
310520,"9059 INDEPENDENCE DRIVE","KIMBERLY","AL","35091"
310521,"9059 N ARROYA VISTA DR","PHOENIX","AZ","85028"
310522,"906 20TH STREET","WEST PALM BEACH","FL","33407"
310523,"906 8TH AVENUE","ALBANY","GA","31701"
310524,"906 8TH ST NW","KASSON","MN","55944"
310525,"906 ARDSLEY DR","INDIANAPOLIS","IN","46234"
310526,"906 ARROWHEAD TRAIL","HENDERSON","NV","89002"
310527,"906 ARROWHEAD TRL","HENDERSON","NV","89002"
310528,"906 ASBURY AVENUE","EVANSTON","IL","60202"
310529,"906 ASHBURY BLUFF","SAN ANTONIO","TX","78245"
310530,"906 ASPEN WAY","FORT KNOX","KY","40121"
310531,"906 BAYLOR","BIG SPRING","TX","79720"
310532,"906 BIRDSALL STREET","HOUSTON","TX","77007"
310533,"906 BROWNSTONE ROW","SPRINGBORO","OH","45066"
310534,"906 BURLWOOD STREET","BRANDON","FL","33511"
310535,"906 CADES COVE","FLORISSANT","MO","63031"
310536,"906 CAMBRIDGE CL","TROY","OH","45373"
310537,"906 CINDY LANE","WESTMINSTER","MD","21157"
310538,"906 DAMANN CIRCLE","HUNTSVILLE","AL","35803"
310539,"906 DELVERTON ROAD","COLUMBIA","SC","29203"
310540,"906 E 23RD STREET","LOS ANGELES","CA","90011"
310541,"906 E COLBY STREET","WHITEHALL","MI","49461"
310542,"906 E EASTWOOD","MARSHALL","MO","65340"
310543,"906 E JOHN STREET APT 607","SEATTLE","WA","98102"
310544,"906 E MATTHEWS","JONESBORO","AR","72401"
310545,"906 E OAKVIEW ST","OLATHE","KS","66061"
310546,"906 EAST RED RIVER","VICTORIA","TX","77901"
310547,"906 EASTERN PARKWAY APT 1","BROOKLYN","NY","11213"
310548,"906 EBENEZER ROAD","AMHERST","VA","24521"
310549,"906 ECHO DRIVE","LOS ALTOS","CA","94024"
310550,"906 EXPLORER STREET  APT D2","RAPID CITY","SD","57701"
310551,"906 FALLIN BRANCH COURT","NICEVILLE","FL","32578"
310552,"906 FAWN CT","JOPPA","MD","21085"
310553,"906 FOX HILL PLACE","MILFORD","NJ","08848"
310554,"906 FRANKLIN STREET","ROANOKE RAPIDS","NC","27870"
310555,"906 HARRISON AVE","MURFREESBORO","TN","37130"
310556,"906 KNEBWORTH COURT","WESTERVILLE","OH","43018"
310557,"906 LAKE ST","SAN FRANCISCO","CA","94118"
310558,"906 LANCE AVE","ESSEX","MD","21221"
310559,"906 LYNDA LANE","NORTH VERSAILLES","PA","15137"
310560,"906 MAGNOLIA DR","ABERDEEN","NC","28315"
310561,"906 MAIN STREET","ALIQUIPPA","PA","15001"
310562,"906 MATHER DRIVE","BEAR","DE","19701"
310563,"906 MCINTIRE ST","BOULDER","CO","80303"
310564,"906 MONTAGUE AVE SUITE D","GREENWOOD","SC","29646"
310565,"906 N 4TH ST","EDINA","MO","63537"
310566,"906 N BEVER ST","WOOSTER","OH","44691"
310567,"906 N BRADDOCK ST","WINCHESTER","VA","22601"
310568,"906 N EAST ST","BENTON","AR","72015"
310569,"906 N OHIO AVE","LAKELAND","FL","33815"
310570,"906 N SHERIDAN AVE","TAC","WA","98403"
310571,"906 N TROOPER RD","EAST NORRITON","PA","19403"
310572,"906 NOMAD WAY SUITE 121","EGLIN","FL","32542"
310573,"906 NORTH 82ND STREET","EAST ST LOUIS","IL","62203"
310574,"906 NORTH MONOCACY CREEK RD","DOUGLASSVILLE","PA","19518"
310575,"906 NW 13TH AVE","BATTLE GROUND","WA","98604"
310576,"906 NW 15TH AVE","BATTLE GROUND","WA","98604"
310577,"906 NW BECONTREE DRIVE","LAWTON","OK","73505"
310578,"906 PAR LANE","DELL RAPIDS","SD","57022"
310579,"906 PARK AVENUE APT 301","LAUREL","MD","20707"
310580,"906 RANCH VIEW RD","SANTA CRUZ","CA","95064"
310581,"906 REDWOOD DR","CLARKSVILLE","IN","47129"
310582,"906 S 35TH ST","MANITOWOC","WI","54220"
310583,"906 S 5TH STREET","CAMDEN","NJ","08103"
310584,"906 S HEIGHTS DR","MUSTANG","OK","73064"
310585,"906 S MICHIGAN AVE","GREENSBURG","IN","47240"
310586,"906 S SERRANO AVE UNIT 203","LOS ANGELES","CA","90006"
310587,"906 S WHITE OAK ROAD","WHITE OAK","TX","75693"
310588,"906 SAN SALVADORE DR","DUNEDIN","FL","34698"
310589,"906 SE 5TH ST","ANKENY","IA","50021"
310590,"906 SE DOLAND DR","GRIMES","IA","50111"
310591,"906 SHOAL RUN TRAIL","BIRMINGHAM","GA","35242"
310592,"906 SILVERDALE","CONROE","TX","77301"
310593,"906 SOUTH HEIGHTS DRIVE","MUSTANG","OK","73064"
310594,"906 SOUTH NATIONAL AVE","SPRINGFIELD","MO","65804"
310595,"906 SOUTH POINT ROAD","BELMONT","NC","28012"
310596,"906 SOUTH STATE RD 19","PALATKA","FL","32177"
310597,"906 SUNSET LAKE COVE","FORT WAYNE","IN","46845"
310598,"906 SW 3RD ST","ALEDO","IL","61231"
310599,"906 SW 3RD STREET","ALEDO","IL","61231"
310600,"906 THOMASVILLE ROAD","TALLAHASSEE","FL","32303"
310601,"906 UNION DRIVE","UNIVERSITY PARK","IL","60484"
310602,"906 VERNAL AVE","MILL VALLEY","CA","94941"
310603,"906 W 10TH ST","ATLANTIC","IA","50022"
310604,"906 W 2ND AVE STE 100","SPOKANE","WA","99201"
310605,"906 W 2ND AVE SUITE 100","SPOKANE","WA","99201"
310606,"906 W 2ND AVE","SPOKANE","WA","99201"
310607,"906 W BALDWIN STREET","SAINT JOHNS","MI","48879"
310608,"906 W ILLINOIS AVE","MIDLAND","TX","79701"
310609,"906 W KELLY","FAYETTEVILLE","AR","72703"
310610,"906 W MCDERMOTT DR STE 116-197","ALLEN","TX","75013"
310611,"906 W MCDERMOTT DR STE 116-336","ALLEN","TX","75013"
310612,"906 W MCDERMOTT DRIVE 116-104","ALLEN","TX","75013"
310613,"906 W PAYNE ST","OLNEY","TX","76374"
310614,"906 W PRINCETON AVE","FRESNO","CA","93705"
310615,"906 W WEILE AVE","SPOKANE","WA","99208"
310616,"906 WALTON ST","MELROSE PARK","IL","60160"
310617,"906 WEST 2ND AVE STE 100","SPOKANE","WA","99201"
310618,"906 WEST 4TH STREET","ALTURAS","CA","96101"
310619,"906 WEST ILLINOIS AVE","MIDLAND","TX","79701"
310620,"906 WEST IOWA AVE","SUNNYVALE","CA","94086"
310621,"906 WEST MICHIGAN STREET","EVANSVILLE","IN","47710"
310622,"906 WEST SUNRISE BLVD A","FORT LAUDERDALE","FL","33311"
310623,"906 YANCEY COURT","LOGANVILLE","GA","30052"
310624,"9060 15TH AVE SW","SEATTLE","WA","98106"
310625,"9060 GEORGIA HIGHWAY 315","CATAULA","GA","31804"
310626,"9060 PONDEROSA DRIVE SOUTH","SEMMES","AL","36575"
310627,"9060 SE JUPITER NARROWS PL","HOBE SOUND","FL","33455"
310628,"9060 TIFFANY PARK CT","SPRINGFIELD","VA","22152"
310629,"9061 GREENVILLE HIGHWAY","QUITMAN","GA","31643"
310630,"9061 PEMBROKE CT","FORT MILL","SC","29707"
310631,"9061 SAINT ANDREWS DR","SEMINOLE","FL","33777"
310632,"9061 SEWARD PARK AVE S","SEATTLE","WA","98118"
310633,"9062 202ND ST","HOLLIS","NY","11423"
310634,"9062 CALADIUM AVE","FOUNTAIN VALLEY","CA","92708"
310635,"9062 D SIXTH AVE","NORFOLK","VA","23511"
310636,"9062 MADISON AVENUE","WESTMINSTER","CA","92683"
310637,"9062 S 2200 W","WEST JORDAN","UT","84088"
310638,"9063 ALKIRE RD","GROVE CITY","OH","43123"
310639,"9063 ALTMAN COURT","INVER GROVE HEIGHTS","MN","55077"
310640,"9063 CALLE LUCIA","LAKESIDE","CA","92040"
310641,"9063 LEICESTERSHIRE CT","JACKSONVILLE","FL","32219"
310642,"9063 OVERLAND TRAIL","FLUSHING","MI","48433"
310643,"9063 PINE CONE WAY","INDIANAPOLIS","IN","46268"
310644,"9064 BRADSTREET COMMONS WAY","CHARLOTTE","FL","28215"
310645,"9064 CENTRAL RD","APPLE VALLEY","CA","92308"
310646,"9064 SYMMES RIDGE LN","LOVELAND","OH","45140"
310647,"9065 GRACIE LANE","CORDOVA","TN","38016"
310648,"9065 THAMESMEADE ROAD APT K","LAUREL","MD","20723"
310649,"9065 W MARY ANN DRIVE","PEORIA","AZ","85382"
310650,"90653 DALEWOOD DR","JUNCTION CITY","OR","97448"
310651,"9066 E 29TH ST","TUCSON","AZ","85710"
310652,"9067 LAS TUNAS DRIVE","TEMPLE CITY","CA","91780"
310653,"9068 QUANDT AVENUE","ALLEN PARK","MI","48101"
310654,"9068 SOCORRO ROAD","EL PASO","TX","79907"
310655,"90681 TURKEY FLAT ROAD","SAN MIGUEL","CA","93451"
310656,"906B EAST GOLD ST","MCCORMICK","SC","29835"
310657,"907 15TH STREET","DES MOINES","IA","50314"
310658,"907 24TH STREET","VIRGINIA BEACH","VA","23451"
310659,"907 44TH STREET EAST","BRADENTON","FL","34208"
310660,"907 51ST ST E","TUSCALOOSA","AL","35405"
310661,"907 59TH ST NUM 1F","BROOKLYN","NY","11219"
310662,"907 ATLANTIC DRIVE","WEST CHICAGO","IL","60185"
310663,"907 BAILEY STREET","LYNCHBURG","VA","24504"
310664,"907 BLAKE AVE","BROOKLYN","NY","11207"
310665,"907 BLUEGRASS LANE","ROCKLEDGE","FL","32955"
310666,"907 BROAD ST","KEOSAUQUA","IA","52565"
310667,"907 BROADWAY 6TH FLOOR","NEW YORK","NY","10010"
310668,"907 BUTT STREET","CHESAPEAKE","VA","23324"
310669,"907 CARLOTTA ROAD EAST","JACKSONVILLE","FL","32211"
310670,"907 CASEY ROAD","SARANAC","NY","12981"
310671,"907 CHAMPIONS PT","PFLUGERVILLE","TX","78660"
310672,"907 CHERRY LAUREL LANE","KNOXVILLE","TN","37919"
310673,"907 CITATION DRIVE","STAFFORD","TX","77477"
310674,"907 CLARK ST","AKRON","OH","44306"
310675,"907 COVENTRY DR","ANDERSON","IN","46012"
310676,"907 DESOTO AVENUE","KANNAPOLIS","NC","28083"
310677,"907 DUNBAR AVENUE","DUNBAR","WV","25064"
310678,"907 E 89TH STREET","LOS ANGELES","CA","90002"
310679,"907 E 9400 S","SANDY","UT","84097"
310680,"907 E 9TH ST","BERWICK","PA","18603"
310681,"907 E PLEASANT VALLEY ST","SIGOURNEY","IA","52591"
310682,"907 E STRAWBRIDGE AVE SUITE 101","MELBOURNE","FL","32901"
310683,"907 E ZIPP RD","NEW BRAUNFELS","TX","78130"
310684,"907 EAST GARY LANE","PHOENIX","AZ","85042"
310685,"907 F STREET","SAINT JAMES","MO","65559"
310686,"907 FENCE LINE ROAD APT 614","ARLINGTON","TX","76001"
310687,"907 FLOYD AVE","RICHMOND","VA","23284"
310688,"907 FLOYD AVENUE ROOM 15","RICHMOND","VA","23284"
310689,"907 FLOYD AVENUE ROOM 18","RICHMOND","VA","23284"
310690,"907 FULTON STREET","BROOKLYN","NY","11238"
310691,"907 GLEN WILLOW DRIVE SUITE 8","CAPITOL HEIGHTS","MD","20743"
310692,"907 GWENDOLYNN STREET","AVON PARK","FL","33825"
310693,"907 HARRINGTON AVE NE APT 7","RENTON","WA","98056"
310694,"907 HATCHER LANE","COLUMBIA","TN","38401"
310695,"907 HEMINGWAY CT","ALLEN","TX","75002"
310696,"907 HONEYSUCKLE LANE","MIDLAND","NC","28107"
310697,"907 HOUSTON ST","MORGAN","TX","76671"
310698,"907 HUFFNER HILL CIRCLE","ST AUGUSTINE","FL","32092"
310699,"907 HURON ROAD","FRANKLIN LAKES","NJ","07417"
310700,"907 INDEPENDENCE AVENUE","WATERLOO","IA","50703"
310701,"907 KELLOGG RD","MILAN","PA","18831"
310702,"907 LAFAYETTE AVE","BROOKLYN","NY","11221"
310703,"907 LAKE DR","JASPER","TX","75951"
310704,"907 LAKE DRIVE","JASPER","TX","75951"
310705,"907 LASSITER DRIVE","NEWPORT NEWS","VA","23607"
310706,"907 LAUREL STREET  PO BOX 807","POCOMOKE CITY","MD","21851"
310707,"907 LUIS PLACE APT 116","JOLIET","IL","60435"
310708,"907 MAGNOLIA AVE","CUYAHOGA FALLS","OH","44221"
310709,"907 MAIN ST","HIGHLAND","IL","62249"
310710,"907 MAIN STREET","WALTHAM","MA","02451"
310711,"907 MASSACHUSETTS AVE","CAMDEN","MA","02139"
310712,"907 MEDWIN COURT","VIRGINIA BEACH","VA","23462"
310713,"907 N 10TH ST","NEODESHA","KS","66757"
310714,"907 N 34TH ST","RENTON","WA","98056"
310715,"907 N MAIN ST","SALINAS","CA","93906"
310716,"907 NE 30TH TER","OKEECHOBEE","FL","34972"
310717,"907 NIXON ROAD","LAVACA","AR","72941"
310718,"907 NORA DR","SILVER SPRING","MD","20904"
310719,"907 NORTH 22ND STREET","FORT PIERCE","FL","34947"
310720,"907 OUTER RD SUITE B","ORLANDO","FL","32814"
310721,"907 OVILLA OAKS DRIVE","OVILLA","TX","75154"
310722,"907 PARIS AVE","ROCKFORD","IL","61107"
310723,"907 PLEASANT STREET","WORCESTER","MA","01602"
310724,"907 REISS ROAD","O'FALLON","IL","62269"
310725,"907 RIDGE LANE","LA VERNIA","TX","78121"
310726,"907 RIVERGATE PARKWAY","GOODLETSVILLE","TN","37072"
310727,"907 ROSA DR","DECORAH","IA","52101"
310728,"907 S 47TH STREET","LOUISVILLE","KY","40211"
310729,"907 S BROADWAY ST","JOSHUA","TX","76058"
310730,"907 S DORIS AVE","MONAHANS","TX","79756"
310731,"907 S TERMONT ST","OCEANSIDE","CA","92054"
310732,"907 SCOTTS RIDGE TRAIL","APEX","NC","27502"
310733,"907 SE 8TH STREET","EVANSVILLE","IN","47713"
310734,"907 SOUTH SPRUCE STREET","HAMMOND","LA","70403"
310735,"907 SPRINGHILL AVE UNIT 40477","MOBILE","AL","36640"
310736,"907 SUGARBERRY DR","HAHIRA","GA","31632"
310737,"907 SUNNYVIEW CIR","ELDON","MO","65026"
310738,"907 SUNSET DRIVE","WEWOKA","OK","74884"
310739,"907 TAHOE BLVD STE 6","INCLINE VILLAGE","NV","89451"
310740,"907 TERPSICHORE STREET","NEW ORLEANS","LA","70130"
310741,"907 TRENT LANE","KNOXVILLE","TN","37922"
310742,"907 VIA PALO LINDA","FAIRFIELD","CA","94534"
310743,"907 W ADAMS","LAS VEGAS","NV","89106"
310744,"907 W LAKE DR","WEATHERFORD","TX","76087"
310745,"907 W MARKETVIEW DR  STE10-344","CHAMPAIGN","IL","61822"
310746,"907 W MARKETVIEW SUITE 10-311","CHAMPAIGN","IL","61822"
310747,"907 WATERVIEW LANE","ERLANGER","KY","41018"
310748,"907 WEST 25TH STREET","YORK","NE","68467"
310749,"907 WESTWOOD BLVD   245","LOS ANGELES","CA","90024"
310750,"907 WESTWOOD BLVD PMB 327","LOS ANGELES","CA","90024"
310751,"907 WHITAKER RD","LUTZ","FL","33549"
310752,"907 WINDSOR AVE SW","ROANOKE","VA","24015"
310753,"907 WYMAN ST","NEW LONDON","WI","54961"
310754,"9070 BAY COVE LANE","JACKSONVILLE","FL","32257"
310755,"9070 DIXIANA VILLA CIR","TAMPA","FL","33635"
310756,"9070 E DESERT COVE AVE STE 102","SCOTTSDALE","AZ","85260"
310757,"9070 NORTH RANGE LINE RD","RIVER HILLS","WI","53217"
310758,"9070 W CHEYENNE AVE STE 100","LAS VEGAS","NV","89129"
310759,"9070 WAITS FERRY CROSSING","DULUTH","GA","30097"
310760,"9071 BONITA BEACH RD SE SUITE 54","BONITA SPRINGS","FL","34135"
310761,"9071 E MISSISSIPPI AVENUE 14E","DENVER","CO","80247"
310762,"9071 E SENECA","TUCSON","AZ","85715"
310763,"9071 EAST 26TH AVENUE","DENVER","CO","80238"
310764,"9071 EAST MISSISSIPPI AVE 24-A","DENVER","CO","80247"
310765,"9072 ACORN RIDGE CIRCLE","ELK GROVE","CA","95758"
310766,"9072 TAG DRIVE","MT HEALTHY","OH","45231"
310767,"9073 GERVAIS CIR APT 1003","NAPLES","FL","34120"
310768,"9074 WASHBURN RD","COLUMBIAVILLE","MI","48421"
310769,"9075 CREEDE TRAIL","FORT WORTH","TX","76118"
310770,"9075 ETCHING OVERLOOK","DULUTH","GA","30097"
310771,"9075 FOXGOVE WAY","SAN ANTONIO","TX","78251"
310772,"9075 MUSGRAVE ST","COLORADO SPRINGS","CO","80920"
310773,"90754","HENDERSON","NV","89009"
310774,"9076 MEADOW VISTA RD","CHARLOTTE","NC","28213"
310775,"9076 NEIL ST","OLIVE BRANCH","MS","38654"
310776,"9076 W LILAC ROAD","ESCONDIDO","CA","92026"
310777,"90769","ROCHESTER","NY","14609"
310778,"9077 161 STREET W","LAKEVILLE","MN","55044"
310779,"9077 COOLEY ROAD","RAVENNA","OH","44266"
310780,"9077 JANE RD N","LAKE ELMO","MN","55042"
310781,"9077 SW 115TH ST","AUGUSTA","KS","67010"
310782,"9077 W FM 436","BELTON","TX","76513"
310783,"90773 OLD HIGHWAY UNIT 5","TAVERNIER","FL","33070"
310784,"9079 CRANBROOK DRIVE","NORTHFIELD","OH","44067"
310785,"907A LAFAYETTE AVENUE APARTMENT 2","BROOKLYN","NY","11221"
310786,"907A WEST 23RD STREET","AUSTIN","TX","78705"
310787,"907B NEWBRIDGE STREET","EAST PALO ALTO","CA","94303"
310788,"908 15TH AVE","ELDORA","IA","50627"
310789,"908 16TH ST","PORT ST JOE","FL","32456"
310790,"908 5TH ST","BROOKINGS","SD","57006"
310791,"908 8TH AVENUE","LEWISTON","ID","83501"
310792,"908 AMHERT DRIVE","DESOTO","TX","75115"
310793,"908 ANDOVER STREET","LAWRENCE","KS","66049"
310794,"908 ANDREWS AVE","METAIRIE","LA","70005"
310795,"908 ANTIGUA AVENUE","FORT PIERECE","FL","34982"
310796,"908 ASHLAND STREET","VALLEY COTTAGE","NY","10989"
310797,"908 AUDELIA ROAD  200-177","RICHARDSON","TX","75081"
310798,"908 AUDELIA ROAD SUITE 200-304","RICHARDSON","TX","75081"
310799,"908 CAMINITO MADRIGAL  UNIT J","CARLSBAD","CA","92011"
310800,"908 CAPE ROAD","LIMINGTON","ME","04049"
310801,"908 CHAPARRAL TRAIL","MIDLOTHIAN","TX","76065"
310802,"908 CHEROKEE ST","MARYVILLE","TN","37804"
310803,"908 CIRCLEVIEW DRIVE","DOTHAN","AL","36301"
310804,"908 COLLEGE ST","TALLADEGA","AL","35160"
310805,"908 COUNTY ROAD 501","JEFFERSON CITY","MO","65101"
310806,"908 CREEKSIDE CIRCLE","NAPERVILLE","IL","60563"
310807,"908 CURDWOOD BLVD","NASHVILLE","TN","37216"
310808,"908 CYCAD DR","SAN MARCOS","CA","92078"
310809,"908 DELMAR ROAD","MORGAN CITY","LA","70380"
310810,"908 DELONG ST","PICKERINGTON","OH","43147"
310811,"908 DON CUTLER SR DRIVE","ALBANY","GA","31705"
310812,"908 E 24TH AVENUE","SPOKANE","WA","99203"
310813,"908 E MAIN ST","DECATUR","IL","62521"
310814,"908 E RIPARIAN DR","DRAPER","UT","84020"
310815,"908 E ROCHESTER ST","BROKEN ARROW","OK","74011"
310816,"908 EAST 193RD PLACE","GLENWOOD","IL","60425"
310817,"908 EAST DAFFODIL APT B","MCALLEN","TX","78501"
310818,"908 EAST MAIN STREET","URBANA","IL","61802"
310819,"908 ETTA PLACE","GASTONIA","NC","28054"
310820,"908 FAYETTEVILLE ST  SUITE 202","DURHAM","NC","27701"
310821,"908 FIELDSTONE COURT","CENTERTON","AR","72719"
310822,"908 FISH HATCHERY RD","NATCHITOCHES","LA","71457"
310823,"908 GRAVES ROAD","STRAWBERRY PLAINS","TN","37871"
310824,"908 GROVENBURG RD","HOLT","MI","48842"
310825,"908 HALSTEAD DRIVE","NORTH SALT LAKE","UT","84054"
310826,"908 HUNTSMAN ROAD","EDMOND","OK","73003"
310827,"908 ISABELLA AVE","CLEARWATER","MN","55320"
310828,"908 JEFFERSON AVE SW","EYOTA","MN","55934"
310829,"908 JOANNE CT  D","ROHNERT PARK","CA","94928"
310830,"908 JUNIPER LANE","VISTA","CA","92081"
310831,"908 KING STREET SUITE 100","ALEXANDRIA","VA","22314"
310832,"908 KNIGHTSBRIDGE LANE","REDWOOD CITY","CA","94061"
310833,"908 LAKEVIEW DRIVE","JOSHUA","TX","76058"
310834,"908 LANCASTER PARK DRIVE","LANCASTER","TX","75146"
310835,"908 LEMMON AVENUE","RAPID CITY","SD","57701"
310836,"908 LYNDHURST STREET","BALTIMORE","MD","21229"
310837,"908 MAIN STREET BOX 122","TOWANDA","PA","18848"
310838,"908 MCCAY AVE","MOBILE","AL","36609"
310839,"908 N BLAUVELT AVE","SIOUX FALLS","SD","57103"
310840,"908 N HOWARD AVE SUITE 106","GRAND ISLAND","NE","68803"
310841,"908 N HUMPHREYS ST","FLAGSTAFF","AZ","86001"
310842,"908 N TAFFEE DR","HASTINGS","MI","49058"
310843,"908 N WENDOVER RD G","CHARLOTTE","NC","28211"
310844,"908 NIAGARA FALLS BLVD  SUITE 106","NORTH TONAWANDA","NY","14120"
310845,"908 NORTH ELM STREET","KEMP","TX","75143"
310846,"908 OLD MCDADE RD","ELGIN","TX","78621"
310847,"908 PAREDES LINE RD","BROWNSVILLE","TX","78521"
310848,"908 PARK AVE","LOCK HAVEN","PA","17745"
310849,"908 PARK AVENUE","LAUREL","MD","20707"
310850,"908 PARK AVENUE","LOCK HAVEN","PA","17745"
310851,"908 PARULA ST","PERRIS","CA","92571"
310852,"908 PECAN BLVD","JACKSON","MS","39209"
310853,"908 RIVER STREET S","PILLAGER","MN","56473"
310854,"908 S BARSTOW ST APT 2","EAU CLAIRE","WI","54701"
310855,"908 S BUCKEYE AVE","SIOUX FALLS","SD","57110"
310856,"908 S LEAF AVE","WEST COVINA","CA","91791"
310857,"908 S RODEO DR","PAYSON","AZ","85541"
310858,"908 SE 14TH STREET","BENTONVILLE","AR","72712"
310859,"908 SECOND ST","LOUISE","TX","77455"
310860,"908 SEDGE WAY","LAFAYETTE","CO","80026"
310861,"908 SOUTH MAIN STREET","BOERNE","TX","78006"
310862,"908 SPIRIT LAKE RD","WINTER HAVEN","FL","33880"
310863,"908 STERLING DRIVE","PAPILLION","NE","68046"
310864,"908 STONE PARK LN APT 202","WOODLAND PARK","CO","80863"
310865,"908 STREAMER COURT","RALEIGH","NC","27614"
310866,"908 TAYLOR DRIVE","VESTAL","NY","13850"
310867,"908 TREE TRUNK RD","KNOXVILLE","TN","37934"
310868,"908 TUCKAWAY TERRACE","FORT WASHINGTON","MD","20744"
310869,"908 TWIN CREEK","WYLIE","TX","75098"
310870,"908 TYSON ST","BALTIMORE","MD","21201"
310871,"908 VICKI LANE","FORT WORTH","TX","76104"
310872,"908 VINESHIRE RD","CLEVELAND","OH","44121"
310873,"908 VIRGINIA AVE","SUFFOLK","VA","23434"
310874,"908 W 1ST ST","NORTHFIELD","MN","55057"
310875,"908 W 35TH ST","DAVENPORT","IA","52806"
310876,"908 W BLUEGRASS RD","STRAFFORD","MO","65757"
310877,"908 W GODFREY AVENUE","PHILADELPHIA","PA","19141"
310878,"908 W HENDERSON ST","CLEBURNE","TX","76033"
310879,"908 WALNUT ST","GADSDEN","AL","35901"
310880,"908 WASHINGTON STREET SUITE A","VALPARAISO","IN","46385"
310881,"908 WEST 27TH TERRACE","LAWRENCE","KS","66044"
310882,"908 WEST STAR STREET","GREENVILLE","NC","27834"
310883,"908 WHETSTONE STREET","MARSHALL","TX","75670"
310884,"908 WHITE ST","BURLINGTON","IA","52601"
310885,"908 WILD FOREST DRIVE","GAITHERSBURG","MD","20879"
310886,"908 WILLIS AVE","PERRY","IA","50220"
310887,"908 WOODLAND AVE","PAPILLION","NE","68046"
310888,"9080 58TH DR E   SUITE 200","LAKEWOOD RANCH","FL","34243"
310889,"9080 N ROYAL ROAD","CANADIAN LAKES","MI","49346"
310890,"9080 N UMPQUA HWY","ROSEBURG","OR","97470"
310891,"9080 REZY ROAD","STAUNTON","IL","62088"
310892,"9080 TOWN AND COUNTRY BLVD APT F","ELLICOTT CITY","MD","21043"
310893,"9080 W 19TH STREET","ODESSA","TX","79769"
310894,"9081 W SAHARA AVE SUITE 190","LAS VEGAS","NV","89117"
310895,"9082 BIG HAND ROAD","COLUMBUS","MI","48063"
310896,"9082 BRAXTON DR","FLORENCE","KY","41091"
310897,"9082 KENNEBEC PASS TRAIL","COLORADO SPRINGS","CO","80924"
310898,"9082 THOMAS VILLE DR","WINTER HAVEN","FL","33884"
310899,"9083 APPLETON","REDFORD","MI","48239"
310900,"9083 S 255 W","SANDY","UT","84070"
310901,"9083 TOLMAN FARMS CIR","SANDY","UT","84070"
310902,"9083 WILDWOOD LAKE DR","WHITMORE LAKE","MI","48189"
310903,"9084 EDINBURGH LANE","WOODBURY","MN","55125"
310904,"9084 FM 2451","SCURRY","TX","75158"
310905,"9085 ALCOSTA BLVD APT424","SAN RAMON","CA","94583"
310906,"9085 E MISSISSIPPI AVE APT B206","DENVER","CO","80247"
310907,"9085 EAST MINERAL CIRCLE SUITE 315","CENTENNIAL","CO","80112"
310908,"9085 EAST MINERAL CIRCLE","CENTENNIAL","CO","80112"
310909,"9085 KENAMAR DR","SAN DIEGO","CA","92121"
310910,"9086 CTY HWY K","HARSHAW","WI","54529"
310911,"9086 KEATS AVE SW","HOWARD LAKE","MN","55349"
310912,"9087 ARROW RTE  SUITE 170","RANCHO CUCAMONGA","CA","91730"
310913,"9087 HERVAY LANE","CORDOVA","TN","38016"
310914,"9087 N RENAISSANCE DR","CEDAR HILLS","UT","84062"
310915,"9088 E MOUNTAIN SPRING ROAD","SCOTTSDALE","AZ","85255"
310916,"9088 SHELBYVILLE PIKE","BELL BUCKLE","TN","37020"
310917,"9089 COUNTY ROAD 3450","STRATFORD","OK","74872"
310918,"9089 ELK GROVE BLVD 204","ELK GROVE","CA","95624"
310919,"9089 HAZELTON","REDFORD","MI","48239"
310920,"9089 JIMMY LEE CIRCLE","JONESBORO","GA","30238"
310921,"9089 PINEWOOD AVE","ELBERTA","AL","36530"
310922,"9089 SOUTH 1300 WEST SUITE 130","WEST JORDAN","UT","84088"
310923,"908B N 3RD STREET","PHILADELPHIA","PA","19123"
310924,"909  E 43RD ST","KANSAS CITY","MO","64110"
310925,"909 10TH STREET","SAINT CLOUD","FL","34769"
310926,"909 170TH PL SE","BELLEVUE","WA","98008"
310927,"909 21ST STREET","PRAIRIE DU SAC","WI","53578"
310928,"909 6TH STREET","CLARKSTON","WA","99403"
310929,"909 76TH ST E B304","TACOMA","WA","98404"
310930,"909 ABBY ROAD","MIDDLETOWN","NJ","07748"
310931,"909 ALLISON STREET","JACKSONVILLE","FL","32209"
310932,"909 AMY DRIVE","HOLMEN","WI","54636"
310933,"909 APPLE BLOSSOM COURT","ANTIOCH","TN","37013"
310934,"909 ATLANTIC AVE","FORT PIERCE","FL","34950"
310935,"909 AVOCADO ISLE","FT LAUDERDALE","FL","33315"
310936,"909 BALTIMORE BLVD","WEST MINSTER","MD","21157"
310937,"909 BELTON STREET","MONROE","NC","28110"
310938,"909 BISHOP AVE","AURORA","IL","60506"
310939,"909 BONHAM","MIDLAND","TX","79703"
310940,"909 BOURBON STREET","NEW ORLEANS","LA","70116"
310941,"909 BRYNMAR ESTATES BLVD","OCOEE","FL","34761"
310942,"909 CHAPMAN CIRCLE","STONE MOUNTAIN","GA","30088"
310943,"909 CHELSEA DR","COLDWATER","OH","45828"
310944,"909 CHESTNUT STREET","BIRMINGHAM","MI","48009"
310945,"909 CIRCLE DRIVE","MOUNT CLARE","WV","26408"
310946,"909 CITY LIGHTS","PRESCOTT","AZ","86303"
310947,"909 COUNTRY CLUB DR","TULLAHOMA","TN","37388"
310948,"909 COURTHOUSE LANE","ELIZABETH CITY","NC","27909"
310949,"909 DELAWARE AVENUE","MIDDLETOWN","OH","45044"
310950,"909 DUKE STREET","BEAUFORT","SC","29902"
310951,"909 E 22ND AVE","TAMPA","FL","33605"
310952,"909 E CAMELBACK ROAD - UNIT 2124","PHOENIX","AZ","85014"
310953,"909 E CAMELBACK ROAD UNIT 2117","PHOENIX","AZ","85014"
310954,"909 E CHESTNUT","LOMPOC","CA","93436"
310955,"909 E DINKINS ST","CANTON","MS","39046"
310956,"909 E WASHINGTON AVE","SANTA ANA","CA","92701"
310957,"909 EAST G STREET","IRON MOUNTAIN","MI","49801"
310958,"909 EAST MAIN STREET SUITE 1200","RICHMOND","VA","23219"
310959,"909 EAST OAK DRIVE","DURHAM","NC","27705"
310960,"909 FISHING HOLE TRL APT 201","FAYETTEVILLE","NC","28314"
310961,"909 FLAGSTONE CT","ARLINGTON","TX","76017"
310962,"909 FOOTHILL RD","OJAI","CA","93023"
310963,"909 FOX RUN CIRCLE","CRANBERRY TWP","PA","16066"
310964,"909 FRONTAGE RD","VALLEY VIEW","TX","76272"
310965,"909 GARDEN ROAD","MARRERO","LA","70072"
310966,"909 GILLILAND RD","LOUISVILLE","KY","40245"
310967,"909 GOLDEN CREST DR","DURHAM","NC","27704"
310968,"909 GOLDWIRE STREET SW","BIRMINGHAM","AL","35211"
310969,"909 GROSS RD STE 420","MESQUITE","TX","75149"
310970,"909 HAUMEA STREET","KAPOLEI","HI","96707"
310971,"909 HICKORY  FORK DR","SEFFNER","FL","33584"
310972,"909 HIGHLAND DRIVE","VISTA","CA","92083"
310973,"909 HIOAKS RD SUITE I","RICHMOND","VA","23225"
310974,"909 HOFFMAN ST","SAN DIEGO","CA","92116"
310975,"909 INDIAN HILLS DRIVE","MOSCOW","ID","83843"
310976,"909 JOHN CRESSLER DR","SEFFNER","FL","33584"
310977,"909 LIBERTY COURT","MOUNT JOY","PA","17522"
310978,"909 LOBLOLLY DRIVE","LEWISVILLE","NC","27023"
310979,"909 MAIN STREET","DELTA","PA","17314"
310980,"909 MANSARD DRIVE STE 115","BIRMINGHAM","AL","35209"
310981,"909 MARINA VILLAGE PKWY PMB 503","ALAMEDA","CA","94501"
310982,"909 MARTINTOWN ROAD","NEW ALBANY","MS","38652"
310983,"909 MICHIGAN ROAD PO BOX 173","BURLINGTON","IN","46915"
310984,"909 MONROE ST","WEST HEMPSTEAD","NY","11552"
310985,"909 MONTGOMERY AVE C2","BRYN MAWR","PA","19010"
310986,"909 MOORE STREET","HUNTINGDON","PA","16652"
310987,"909 N 11TH ST","HERRIN","IL","62948"
310988,"909 N 12TH ST","PHILADELPHIA","PA","19123"
310989,"909 N 1464 RD","LAWRENCE","KS","66049"
310990,"909 N 24TH STREET","CAMDEN","NJ","08105"
310991,"909 N 7TH AVE","TUCSON","AZ","85705"
310992,"909 N BOSTON AVE","TULSA","OK","74106"
310993,"909 N CROFT AVE STE 208","WEST HOLLYWOOD","CA","90069"
310994,"909 N E 24TH TERRACE","GAINESVILLE","FL","32601"
310995,"909 N GREENSBORO ST UNIT E","CARRBORO","NC","27510"
310996,"909 N MARION ST","OAK PARK","IL","60302"
310997,"909 N WICKER","LITTLEFIELD","TX","79339"
310998,"909 NAVARO DR APT H","RALEIGH","NC","27609"
310999,"909 NE 43RD STREET - NO 204","SEATTLE","WA","98105"
311000,"909 NEW JERSEY AVE SE 15","WASHINGTON","DC","20003"
