"ID","Address","City","State","Zip"
269501,"668 CHICAGO DRIVE","JENISON","MI","49428"
269502,"668 CLARINADA AVENUE","DALY CITY","CA","94015"
269503,"668 COLDSTREAM DRIVE","EL CAJON","CA","92020"
269504,"668 CYPRESS POINT DRIVE","EGG HARBOR CITY","NJ","08215"
269505,"668 ELLIS OAK DR","CHARLESTON","SC","29412"
269506,"668 EXCHANGE STREET ROAD","ATTICA","NY","14011"
269507,"668 FLORENCE AVE","OAKLAND","CA","94618"
269508,"668 HANOVER CENTER ROAD","HANOVER","NH","03755"
269509,"668 JEFFERSON ST","JEFFERSON","LA","70121"
269510,"668 LAKESIDE DOCK DRIVE","KINGSPORT","TN","37663"
269511,"668 LENOX AVENUE","WAUKEGAN","IL","60085"
269512,"668 MARYS RD","RIDGWAY","CO","81432"
269513,"668 MESQUITE LN","ABILENE","TX","79601"
269514,"668 MILTON ROAD","RYE","NY","10580"
269515,"668 MUNGER STREET","MIDDLEBURY","VT","05753"
269516,"668 N COAST HWY SUITE 254","LAGUNA BEACH","CA","92651"
269517,"668 N ORLANDO AVENUE SUITE 1007A","MAITLAND","FL","32751"
269518,"668 NORTH COAST HIGHWAY SUITE 1330","LAGUNA BEACH","CA","92651"
269519,"668 NORTH HARRISON ROAD","BELLEFONTE","PA","16823"
269520,"668 NW NORTH RIVER DRIVE","MIAMI","FL","33136"
269521,"668 OAK STREET","WAYCROSS","GA","31501"
269522,"668 OAKHILL AVE","ATTLEBORO","MA","02703"
269523,"668 OAKHURST COURT","NAPERVILLE","IL","60540"
269524,"668 OBISPO AVE","LONG BEACH","CA","90814"
269525,"668 OXFORD DRIVE","BROADVIEW HEIGHTS","OH","44147"
269526,"668 PARK AVE W","MANSFIELD","OH","44906"
269527,"668 QUEENSLAND CIRCLE","STOCKTON","CA","95206"
269528,"668 RIVENDELL DR","MILTON","WI","53563"
269529,"668 SHADOWMOSS CIR","LAKE MARY","FL","32746"
269530,"668 ST ANDREWS DR","DAYTON","NV","89403"
269531,"668 STAYMAN ROAD","QUICKSBURG","VA","22847"
269532,"668 SUNRISE LAKE PLACE","HENDERSON","NV","89002"
269533,"668 W BEVERLY DRIVE","CLOVIS","CA","93612"
269534,"668 WILSON AVENUE","COLUMBUS","OH","43205"
269535,"6680 ALHAMBRA AVENUE STE 147","MARTINEZ","CA","94553"
269536,"6680 BENNETT CREEK DRIVE APT 1134","JACKSONVILLE","FL","32216"
269537,"6680 BIGERTON BEND","CANAL WINCHESTER","OH","43110"
269538,"6680 BRIDGE STREAM ROAD","CUMMING","GA","30028"
269539,"6680 CLINTON STREET","ELMA","NY","14059"
269540,"6680 HIGHWAY 6 S","HOUSTON","TX","77083"
269541,"6680 MERRYVALE LANE","PORT ORANGE","FL","32128"
269542,"6680 N TEUTONIA AVE","MILWAUKEE","WI","53209"
269543,"6680 N TEUTONIA AVENUE","MILWAUKEE","WI","53209"
269544,"6680 POPLAR GROVE WAY","STONE MOUNTAIN","GA","30087"
269545,"6680 PORTOLA ROAD","ATASCADERO","CA","93422"
269546,"6680 S WALNUT ST","OWENSBURG","IN","47453"
269547,"6680 SNOWBIRD DRIVE","COLORADO SPRINGS","CO","80918"
269548,"6681 APACHE ROAD","LOVELAND","CO","80534"
269549,"6681 CAPITAN RIDGE","EL PASO","TX","79912"
269550,"6681 NC150 EAST","REIDSVILLE","NC","27320"
269551,"6681 PINE VALLEY TRACE","STONE MOUNTAIN","GA","30087"
269552,"6681 TAYLOR RD","CINCINNATI","OH","45248"
269553,"6682 BEAUTY RD","BEAUTY","KY","41203"
269554,"6682 PRINCETON GLENDALE ROAD","LIBERTY TOWNSHIP","OH","45011"
269555,"6682 TIME SQUARE AVE UNIT 102","ORLANDO","FL","32835"
269556,"6683 EDGEWOOD","CANTON","MI","48187"
269557,"6683 KIRBY OAKS LN","MEMPHIS","TN","38119"
269558,"6683 PROCTOR RD","SARASOTA","FL","34241"
269559,"6683 RAINWOOD COVE LANE","LAKE WORTH","FL","33463"
269560,"6683 SANDY CREEK LANE","ZACHARY","LA","70791"
269561,"6684 E BEAVERTON ROAD","CLARE","MI","48617"
269562,"6684 E HWY 124","PRESCOTT","WA","99348"
269563,"6684 POMPEII RD","ORLANDO","FL","32822"
269564,"6684 ST JUDE DRIVE","FAIRBRUN","GA","30213"
269565,"6685 73RD PL","MIDDLE VILLAGE","NY","11379"
269566,"6685 CHESTERFIELD LN","RENO","NV","89523"
269567,"6685 LEXINGTON DR APT 28","BEAUMONT","TX","77706"
269568,"6685 QUEENS BOROUGH AVE APT 102","ORLANDO","FL","32835"
269569,"6685 ST JUDE DRIVE","FAIRBURN","GA","30213"
269570,"6685 VREELAND RD","YPSILANTI","MI","48198"
269571,"6685","HAMDEN","CT","06517"
269572,"6686 CHIMES TOWER AVE","LAS VEGAS","NV","89139"
269573,"6686 FALLING MEADOWS DRIVE","GALENA","OH","43021"
269574,"6686 GLEASON HILL ROAD - LOT 3","BELFAST","NY","14711"
269575,"6686 LOCH HILL ROAD","LOCH HILL","MD","21239"
269576,"6686 OAK RIDGE DRIVE","HEBRON","MD","21830"
269577,"6686 ODANA ROAD","MADISON","WI","53719"
269578,"6687 BEAR SPRINGS RD","HUBBARD LAKE","MI","49747"
269579,"6687 BLACK HAWK RD","EASTVALE","CA","92880"
269580,"6687 CABIN CREEK DRIVE","COLORADO SPRINGS","CO","80923"
269581,"6687 COKER WAY","JONESBORO","GA","30238"
269582,"6687 NW 110 WAY","PARKLAND","FL","33076"
269583,"6688 AUBURN RD","PAINESVILLE","OH","44077"
269584,"6688 E DARTMOUTH AVE","DENVER","CO","80224"
269585,"6688 NORTH COUNTY ROAD 475 E","PITTSBORO","IN","46167"
269586,"6688 PEARL ROAD","PARMA HEIGHTS","OH","44130"
269587,"6688 S AVENIDA CARMENCITA","TUCSON","AZ","85756"
269588,"6688 SOUTH BELL PLACE","CHANDLER","AZ","85249"
269589,"6689 ORCHARD LAKE 110","WEST BLOOMFIELD","MI","48322"
269590,"6689 ORCHARD LAKE RD 333","W BLOOMFIELD","MI","48323"
269591,"6689 ORCHARD LAKE RD STE 325","WEST BLOOMFIELD","MI","48322"
269592,"6689 OWENS DRIVE SUITE 100","PLEASANTON","CA","94588"
269593,"6689 W SAM HOUSTON PKWY S SUITE 302","HOUSTON","TX","77072"
269594,"669 29TH AVENUE","SAN FRANCISCO","CA","94121"
269595,"669 BARBER LANE","JOLIET","IL","60435"
269596,"669 BELVEDERE DR","BENICIA","CA","94510"
269597,"669 CASTLEBOTTOM DRIVE","LAWRENCEVILLE","GA","30045"
269598,"669 CLOVER LN APT 1","MEADVILLE","PA","16335"
269599,"669 CONEY ISLAND AVENUE","BROOKLYN","NY","11218"
269600,"669 CORONADO DR","POINCIANA","FL","34759"
269601,"669 COUNTRY CLUB DRIVE","FAYETTEVILLE","NC","28301"
269602,"669 COUNTY RD SUITE 110","WAYNESVILLE","NC","28785"
269603,"669 CTY HWY N","STOUGHTON","WI","53589"
269604,"669 E MAIN ST","NEW HOLLAND","PA","17557"
269605,"669 GARDEN STREET","Maywood","NJ","07607"
269606,"669 GEORGETOWN CIR","FAYETTEVILLE","NC","28314"
269607,"669 GLADIOLUS DR","COLUMBIA","SC","29229"
269608,"669 KINGSTON ROAD","GROVETOWN","GA","30813"
269609,"669 MARTIN BL","SAN LEANDRO","CA","94577"
269610,"669 MCCLURE AVE","SAN LEANDRO","CA","94578"
269611,"669 MONTEREY DRIVE","SATELLITE BEACH","FL","32937"
269612,"669 NORTH TERRACE AVENUE  APT 38","MOUNT VERNON","NY","10552"
269613,"669 PRIM ST","ASHLAND","OR","97520"
269614,"669 RIDGEBURY ROAD","SLATE HILL","NY","10973"
269615,"669 RIVER AVENUE","PROVIDENCE","RI","02908"
269616,"669 RIVER VALLEY DRIVE","JONESBORO","GA","30238"
269617,"669 ROCKAWAY PKWY","BROOKLYN","NY","11236"
269618,"669 RUSHBURN GREEN","PERU","IN","46970"
269619,"669 S UNION AVE STE 117","LOS ANGELES","CA","90017"
269620,"669 SCARLET OAK ST APT 104","SOUTHAVEN","MS","38671"
269621,"669 SPRINGWOOD DRIVE","JOLIET","IL","60431"
269622,"669 SUNBRIDGE DR","CHESTERFIELD","MO","63017"
269623,"669 VIRGINIA PARK ST","DETROIT","TX","48202"
269624,"669 WEST 200 SOUTH","SALT LAKE CITY","UT","84101"
269625,"669 WEST 6TH STREET","RIVIERA BEACH","FL","33404"
269626,"669 WOOD FOREST RD","KINGSLAND","TX","78639"
269627,"669 WOODCHUCK DRIVE","POSTVILLE","IA","52162"
269628,"669 WOODSIDE RD","SANDPOINT","ID","83864"
269629,"6690 ALESSANDRO BLVD STE A","RIVERSIDE","CA","92506"
269630,"6690 ALESSANDRO BOULEVARD SUITE B","RIVERSIDE","CA","92506"
269631,"6690 CAHABA VALLEY ROAD","BIRMINGHAM","AL","35242"
269632,"6690 CANYON EDGE ROAD","POLLOCK PINES","CA","95726"
269633,"6690 LUCIA LN NE APT 3","FRIDLEY","MN","55432"
269634,"6690 N HOBERT RD","KINGMAN","AZ","86409"
269635,"6690 RAINWOOD COVE LANE","LAKE WORTH","FL","33463"
269636,"6690 W WOODLEAF CT","HIGHLAND","UT","84003"
269637,"6691 CHURCH ST 962017","RIVERDALE","GA","30296"
269638,"6691 CHURCH ST SUITE 961503","RIVERDALE","GA","30296"
269639,"6691 CHURCH STREET 960604","RIVERDALE","GA","30296"
269640,"6691 MYRTLE AVE","LONG BEACH","CA","90805"
269641,"6691 PROSPECT ROAD","SAN JOSE","CA","95129"
269642,"6692 ANTOINE DRIVE","HOUSTON","TX","77091"
269643,"6692 MIDDLE ROAD -  SUITE 2200","SODUS","NY","14551"
269644,"6692 POUNDING MILL BRANCH","POUNDING MILL","VA","24637"
269645,"6692 VALWOOD RD","CONOVER","NC","28613"
269646,"6693 DOWNEY AVE","LONG BEACH","CA","90805"
269647,"6693 SE AUSTIN DRIVE","HILLSBORO","OR","97123"
269648,"6694 CHATEAU BAY COURT","SYKESVILLE","MD","21784"
269649,"6695 CROSBY ROAD","CADILLAC","MI","49601"
269650,"6695 E 130TH PLACE S","BIXBY","OK","74008"
269651,"6695 FOX RIDGE CIRCLE","DAVIDSON","NC","28036"
269652,"6695 NOON RD","EVERSON","WA","98247"
269653,"6695 NORTH  SHARON AVE","FRESNO","CA","93729"
269654,"6695 NORTH BOTTOM ROAD","BLOOMINGTON","IN","47404"
269655,"6695 ROHRER ROAD","WOOSTER","OH","44691"
269656,"6696 VIA VISTA DRIVE","RIVERSIDE","CA","92506"
269657,"66965 BARRETT HILL RD","CAMBRIDGE","OH","43725"
269658,"6697 ELM STREET","NORTH BRANCH","MN","55056"
269659,"6697 TANNAHILL DRIVE","SAN JOSE","CA","95120"
269660,"6697 WAGON RIDGE DRIVE","COLORADO SPRINGS","CO","80923"
269661,"6698 KEATON CORPORATE PKWY","O'FALLON","MI","63368"
269662,"6698 LAKERIDGE DRIVE","ZACHARY","LA","70791"
269663,"6698 MONTERRA TRL","SAN DIEGO","CA","92130"
269664,"6699 AVONLEA CT SE","GRAND RAPIDS","MI","49546"
269665,"6699 EAST LIVINGSTON AVE","REYNOLDSBURG","OH","43068"
269666,"6699 EAST LIVINGSTON AVENUE","REYNOLDSBURG","OH","43068"
269667,"67 - 69 WEST 128 STREET","NEW YORK","NY","10027"
269668,"67 1/2 WINTERS LANE","CATONSVILLE","MD","21228"
269669,"67 332 KAIEA PL","WAIALUA","HI","96791"
269670,"67 35TH STREET SUITE C400","BROOKLYN","NY","11232"
269671,"67 35TH STREET UNIT C415 C/O KEAP","BROOKLYN","NY","11232"
269672,"67 ALLENWOOD ROAD","GREAT NECK","NY","11023"
269673,"67 ALYS DRIVE EAST","DEPEW","NY","14043"
269674,"67 ARGYLE AVENUE","UNIONDALE","NY","11553"
269675,"67 ARUNDEL DRIVE","HAYWARD","CA","94542"
269676,"67 BALDWIN ST 2","CHARLESTOWN","MA","02129"
269677,"67 BELMEADE HALL ROAD","KIAWAH ISLAND","SC","29455"
269678,"67 BLACK CREEK ROAD","HIGHLAND","NY","12528"
269679,"67 BRALAN CT","GAITHESBURG","MD","20877"
269680,"67 BRIGHT CHERRY COURT","MARTINSBURG","WV","25403"
269681,"67 BUCK RD","HUNTINGTON VALLEY","PA","19006"
269682,"67 BUCKINGHAM DRIVE","BELLE MEAD","NJ","08502"
269683,"67 BYBERRY ROAD","HATBORO","PA","19040"
269684,"67 CALHOUN 450","CAMDEN","AR","71701"
269685,"67 CAMDEN CT","BARRINGTON","IL","60010"
269686,"67 CARTER ROAD","FREEPORT","ME","04032"
269687,"67 CASSIE RD","BREWTON","AL","36426"
269688,"67 CENTRAL ST","BOYLSTON","MA","01505"
269689,"67 COLUMBUS AVE","CENTRAL ISLIP","NY","11722"
269690,"67 CONNELLSVILLE ST","UNIONTOWN","PA","15401"
269691,"67 CORONADO CIRCLE","SANTA ROSA","CA","95409"
269692,"67 COTTAGE ST","BRIDGEPORT","CT","06605"
269693,"67 CRAIG DRIVE","DEPTFORD","NJ","08096"
269694,"67 CREELMAN DRIVE","SCITUATE","MA","02066"
269695,"67 CREIGHTON LANE","MARIETTA","GA","30008"
269696,"67 DAVENPORT AVE APT 2","NEWARK","NJ","07107"
269697,"67 DAVIS AVE","WEST NEWTON","MA","02465"
269698,"67 DEWEY PLACER DRIVE UNIT A","BRECKENRIDGE","CO","80424"
269699,"67 DIAMOND STREET","ELMONT","NY","11003"
269700,"67 DOVE STREET","MONTEAGLE","TN","37356"
269701,"67 DUNN STREET","LAGUNA NIGUEL","CA","92677"
269702,"67 E BAFFERT DRIVE","NOGALES","AZ","85621"
269703,"67 E CANYON VIEW DRIVE","RANSOM CANYON","TX","79366"
269704,"67 EAST 11TH STREET APT 605","NEW YORK","NY","10003"
269705,"67 EAST 11TH STREET","NEW YORK","NY","10003"
269706,"67 EAST FOREST AVE","ENGLEWOOD","NJ","07631"
269707,"67 EAST MADISON ST STE 1603A 369","CHICAGO","IL","60603"
269708,"67 EAST SECOND STREET","NEW YORK","NY","10003"
269709,"67 EASTWOOD TRAIL","ROCHESTER","NY","14622"
269710,"67 EBENS COVE","BARNARDSVILLE","NC","28709"
269711,"67 EBY LANE","FRIENDSHIP","ME","04547"
269712,"67 ELDRIDGE DRIVE","ROBBINSVILLE","NJ","08691"
269713,"67 ELMORA AVE","ELIZABETH","NJ","07066"
269714,"67 FAIRLAWN DRIVE","LATHAM","NY","12110"
269715,"67 FASSITT DRIVE","MAHOPAC","NY","10541"
269716,"67 FERNWOOD ROAD","LARCHMONT","NY","10538"
269717,"67 FOREST ST STE 270 NUMBER 431","MARLBOROUGH","MA","01752"
269718,"67 FOREST STREET STE 270-609","MARLBOROUGH","MA","01752"
269719,"67 FOREST STREET SUITE 270 PO 250","MARLBOROUGH","MA","01752"
269720,"67 FOREST STREET SUITE 270/190","MARLBOROUGH","MA","01752"
269721,"67 FORREST ST STE 270 NUMBER 159","MARLBOROUGH","MA","01752"
269722,"67 FRANCIS STREET APT 2","MARLBOROUGH","MA","01752"
269723,"67 GROVE STREET APT 25","ARLINGTON","MA","02474"
269724,"67 HANSON PL APT 2F","BROOKLYN","NY","11217"
269725,"67 HANSON PLACE","BROOKLYN","NY","11217"
269726,"67 HARMON AVE","SPRINGFIELD","MA","01118"
269727,"67 HARRY AVE","READING","PA","19607"
269728,"67 HICKORY CT SW","LABELLE","FL","33935"
269729,"67 HOLLY AVE","HEMPSTEAD","NY","11550"
269730,"67 HOPE CROSSING ROAD","BELVIDERE","NJ","07823"
269731,"67 JAENICKE LANE","HAMDEN","CT","06517"
269732,"67 KENWOOD STREET -B","DORCHESTER","MA","02124"
269733,"67 KEOKEA LOOP","HILO","HI","96720"
269734,"67 KNOX BLVD","MARLTON","NJ","08053"
269735,"67 LENOX HILL DR","SPRING","TX","77382"
269736,"67 LONGVIEW LOOP","ELGIN","AZ","85611"
269737,"67 MADISON AVE NUM 206","MEMPHIS","TN","38103"
269738,"67 MAGNOLIA BLVD","NEW CANEY","TX","77357"
269739,"67 MAIN STREET      P O  BOX 93","CANASERAGA","NY","14822"
269740,"67 MASSEL TER","SOUTH ORANGE","NJ","07079"
269741,"67 MAYTIME DRIVE","JERICHO","NY","11753"
269742,"67 MILLBROOK STREET SUITE 201","WORCESTER","MA","01606"
269743,"67 MONTAUK AVE","BRENTWOOD","NY","11717"
269744,"67 MORTON STREET SUITE 5A","NEW YORK","NY","10014"
269745,"67 MOUNT VERNON ST STE F","BOSTON","MA","02108"
269746,"67 MUCHADO DRIVE","BARRINGTON","NH","03825"
269747,"67 MURRAY ROAD","ASHBURNHAM","MA","01430"
269748,"67 MUSTANG WAY","SARANAC","NY","12981"
269749,"67 N CR ACR 3323","SHOW LOW","AZ","85901"
269750,"67 N HOLMES STREET","MEMPHIS","TN","38111"
269751,"67 N MAIN ST","MADISONVILLE","KY","42431"
269752,"67 NORTHCLIFFE DRIVE","ROCHESTER","NY","14616"
269753,"67 OAK HILL DRIVE","OYSTER BAY","NY","11771"
269754,"67 OAK WAY","EVERGREEN","CO","80439"
269755,"67 OCEAN ST","BOSTON","MA","02124"
269756,"67 OLD AMBOY RD","OLD BRIDGE","NJ","08857"
269757,"67 ORANGE STREET","ST AUGUSTINE","FL","32084"
269758,"67 PARK TERRACE EAST APT C60","NEW YORK","NY","10034"
269759,"67 PICKETTS RIDGE RD","REDDING","CT","06896"
269760,"67 PICO ROAD","CLIFTON PARK","NY","12065"
269761,"67 PINE ST APT 2","BANGOR","ME","04401"
269762,"67 PLATT STREET","ANSONIA","CT","06401"
269763,"67 POPLAR AVE","HACKENSACK","NJ","07601"
269764,"67 REVERE STREET APT 6","PORTLAND","ME","04103"
269765,"67 RIDGE ROAD","HOLLISTON","CA","01746"
269766,"67 RIGGS AVE","WEST HARTFORD","CT","06107"
269767,"67 RIO VISTA DRIVE","ALPINE","NJ","07620"
269768,"67 RIVER ROAD","EAST HADDAM","CT","06423"
269769,"67 RIVERSIDE DRIVE","ROSWELL","NM","88201"
269770,"67 RODEO CREST DRIVE","MANVEL","TX","77578"
269771,"67 ROUTE 23 DRAWER A","CLAVERACK","NY","12513"
269772,"67 S JUNIPER DRIVE","NORTH AURORA","IL","60542"
269773,"67 S MUNN AVE 3H","EAST ORANGE","NJ","07018"
269774,"67 SAINT JAMES TERRACE","YONKERS","NY","10704"
269775,"67 SANCTUARY LANE","STAFFORD","VA","22554"
269776,"67 SOUTH AIRMONT ROAD","SUFFERN","NY","10901"
269777,"67 SOUTH HIGLEY RD  SUITE 103-287","GILBERT","AZ","85296"
269778,"67 SOUTH HIGLEY ROAD SUITE 103-262","GILBERT","AZ","85296"
269779,"67 SPRING STREET","PLAINVILLE","MA","02762"
269780,"67 STEARNS HILL RD","WEST PARIS","ME","04289"
269781,"67 STEPHENSON DRIVE","W. MELBOURNE","FL","32904"
269782,"67 STETSON AVE","SWAMPSCOTT","MA","01907"
269783,"67 STEUBEN ROAD","GARRISON","NY","10524"
269784,"67 STEVENS AVE","WEST HEMPSTEAD","NY","11552"
269785,"67 STUYVESANT AVE SUITE 3A","BROOKLYN","NY","11221"
269786,"67 SUMMER STREET","MALDEN","MA","02148"
269787,"67 SUNBEAM DRIVE","BLUFFTON","SC","29909"
269788,"67 SUTTON RD","NEWBURY","NH","03255"
269789,"67 TAMAQUES WAY","WESTFIELD","NJ","07090"
269790,"67 TANGLEWOOD DRIVE","NASHUA","NH","03062"
269791,"67 TAYLOR RD","MARLBOROUGH","MA","01752"
269792,"67 UNION PLACE","NORTH ARLINGTON","NJ","07031"
269793,"67 UNION ST","WINOOSKI","VT","05404"
269794,"67 VALLEY ROAD","MONTCLAIR","NJ","07042"
269795,"67 VEAZIE RD","SEARSPORT","ME","04974"
269796,"67 W ANJOU CT","ELIZABETHTOWN","KY","42701"
269797,"67 W BROAD STREET APT A","EAST STROUDSBURG","PA","18301"
269798,"67 WAH-TA-WAH ROAD BOX 37","GREENWOOD LAKE","NY","10925"
269799,"67 WALL STREET","KINGSTON","NY","12401"
269800,"67 WALLBACK RD","MAYSEL","WV","25133"
269801,"67 WEST 36TH STREET SECOND FLOOR","BAYONNE","NJ","07002"
269802,"67 WEST MAIN STREET","CHESTER","CT","06412"
269803,"67 WOOD STREET","HASBROUCK HEIGHTS","NJ","07604"
269804,"67 WOODLANDS CT","STROUDSBURG","PA","18360"
269805,"67 YOUNGS ROAD","HARDING TOWNSHIP","NJ","07920"
269806,"67 ZEBULAHS TRAIL","PALM COAST","FL","32164"
269807,"67-08 212 STREET","OAKLAND GARDENS","NY","11364"
269808,"67-08 212TH ST","BAYSIDE","NY","11364"
269809,"67-1185 MAMALAHOA D-104 PMBOX 174","KAMUELA","HI","96743"
269810,"67-1185 MAMALAHOA HWY D104 NO 177","KAMUELA","HI","96743"
269811,"67-1185 MAMALAHOA STE D-104 BOX 333","KAMUELA","HI","96743"
269812,"67-12 164TH STREET 4E","FRESH MEADOWS","NY","11365"
269813,"67-1242 KULUMANU STREET","KAMUELA","HI","96743"
269814,"67-1243 KULUMANU ST","KAMUELA","HI","96743"
269815,"67-238 KANALU STREET","WAIALUA","HI","96791"
269816,"67-253 KIAPOKO ST APT B","WAIALUA","HI","96791"
269817,"67-29 212TH STREET","OAKLAND GARDENS","NY","11364"
269818,"67-321 KIAPOKO PLACE","WAIALUA","HI","96791"
269819,"67-40 C 193RD LANE UNIT 3B","FRESH MEADOWS","NY","11365"
269820,"67-45 215 STREET SUITE 1A","OAKLAND GARDENS","NY","11364"
269821,"67-49B 192ND STREET","FRESH MEADOWS","NY","11365"
269822,"67-76 BOOTH STREET 5A","FOREST HILLS","NY","11375"
269823,"67-800 EAST PALM CANYON DRIVE","CATHEDRAL CITY","CA","92234"
269824,"670 30TH STREET","RICHMOND","CA","94804"
269825,"670 34 1/4 RD","CLIFTON","CO","81520"
269826,"670 5TH AVENUE","SAN FRANCISCO","CA","94118"
269827,"670 9TH AVE APT 4S","NEW YORK","NY","10036"
269828,"670 BEAR CREEK ROAD","CARROLLTON","GA","30117"
269829,"670 BERGEN BOULEVARD 2ND FL","RIDGEFIELD","NJ","07657"
269830,"670 BLUEBERRY HILL","FREEHOLD","NJ","07728"
269831,"670 CARROLL EASTERN ROAD NE","LANCASTER","OH","43130"
269832,"670 CONCORD PARKWAY N","CONCORD","NC","28027"
269833,"670 CUMBERLAND ST","PITTSBURG","CA","94565"
269834,"670 DEKALB AVENUE SE UNIT 3754","ATLANTA","GA","30312"
269835,"670 DOWNEY GREEN APARTMENT 347","HAMPTON","VA","23666"
269836,"670 FRANKLIN DRIVE","WILLIAMS","CA","95987"
269837,"670 GUM SPRINGS MTN RD","SPARTA","TN","38583"
269838,"670 HAMPSTEAD COURT","YORK","PA","17403"
269839,"670 HARRY S TRUMAN DR","UPPER MARLBORO","MD","20774"
269840,"670 HORIZON SOUTH PARKWAY","GROVETOWN","GA","30813"
269841,"670 HULSES CORNER ROAD","FREEHOLD","NJ","07731"
269842,"670 ISLAND WAY  UNIT 807","CLEARWATER BEACH","FL","33767"
269843,"670 KINGFISHER LN APT 1","WOODBURY","MN","55125"
269844,"670 LAFAYETTE STREET","RINGGOLD","GA","30736"
269845,"670 LAKEVIEW PLAZA BLVD","WORTHINGTON","OH","43085"
269846,"670 MAIN STREET","MILLIS","MA","02054"
269847,"670 MCCORMICK STREET","SAN LEANDRO","CA","94577"
269848,"670 MILWAUKEE BLVD","LEHIGH ACRES","FL","33974"
269849,"670 MIX AVE 4L","HAMDEN","CT","06514"
269850,"670 MONTEREY PASS RD STE 188C","MONTEREY PARK","CA","91754"
269851,"670 MYRTLE AVE NUM 281","BROOKLYN","NY","11205"
269852,"670 MYRTLE AVENUE UNIT 6439","BROOKLYN","NY","11205"
269853,"670 N 9TH ST","CARLISLE","IA","50047"
269854,"670 NE 143RD ST","NORTH MIAMI","FL","33161"
269855,"670 NORTH APACHE DRIVE","CHANDLER","AZ","85224"
269856,"670 NORTHLAND BLVD PO BOX 46771","CINCINNATI","OH","45246"
269857,"670 NORTHLAND BLVD POB 46663","CINCINNATI","OH","45246"
269858,"670 OAK HILLS RD SE","BEMIDJI","MN","56601"
269859,"670 OHANNESON AVE","SHAFTER","CA","93263"
269860,"670 PARK DRIVE","ATLANTA","GA","30306"
269861,"670 PENNSYLVANIA AVE","WEST BEND","WI","53095"
269862,"670 PLYMOUTH STREET","MIDDLEBORO","MD","02346"
269863,"670 PRIMROSE DR","MIDLOTHIAN","TX","76065"
269864,"670 RIVER ROAD","MORGANTOWN","WV","26501"
269865,"670 RUSSELL DR","MURRAY","KY","42071"
269866,"670 S 11TH STREET","SAN JOSE","CA","95112"
269867,"670 S AVANT LANE","MEMPHIS","TN","38105"
269868,"670 S BLITZEN LN","SANTA CLAUS","IN","47579"
269869,"670 S EGREMONT RD","GREAT BARRINGTON","MA","01230"
269870,"670 SEABROOK PARKWAY","JACKSONVILLE","FL","32211"
269871,"670 SENTRY RIDGE CROSSING","SUWANEE","GA","30024"
269872,"670 SIXTH BAXTER CROSSING","FORT MILL","SC","29708"
269873,"670 SPRING HILLS RD","GRAFTON","WV","26354"
269874,"670 STONER AVENUE","SHREVEPORT","LA","71101"
269875,"670 TAMPICO CIRCLE","CORONA","CA","92879"
269876,"670 W 22ND STREET ROOM 11","MERCED","CA","95348"
269877,"670 W 78TH ST","TULSA","OK","74132"
269878,"670 W BOSTON BLVD","DETROIT","MI","48202"
269879,"670 W SAN JOSE AVE 27","CLAREMONT","CA","91711"
269880,"670 W SAN JOSE AVE 36","CLAREMONT","CA","91711"
269881,"670 WENDY LANE","LUCAS","TX","75002"
269882,"670 WINTHROP AVE","NEW HAVEN","CT","06511"
269883,"670","CHEWELAH","WA","99109"
269884,"6700 77TH STREET","VERO BEACH","FL","32967"
269885,"6700 ALEXANDER BELL DR SUITE 200","COLUMBIA","MD","21046"
269886,"6700 ATHENS BOONESBORO RD","LEXINGTON","KY","40509"
269887,"6700 BEAVERDAM RD","MILLWOOD","KY","42762"
269888,"6700 BELCREST ROAD  SUITE 409","HYATTSVILLE","MD","20782"
269889,"6700 BELCREST ROAD 809","HYATTSVILLE","MD","20782"
269890,"6700 BELCREST ROAD APT 917","HYATTSVILLE","MD","20782"
269891,"6700 BELCREST ROAD SUITE 212","HYATTSVILLE","MD","20782"
269892,"6700 BROWNS LAKE RD","JACKSON","MI","49201"
269893,"6700 CANTATA ST NW UNIT 3102","ALBUQUERQUE","NM","87114"
269894,"6700 CEDAR CROFT STREET","RICHMOND","VA","23228"
269895,"6700 COUNTY RD 334","BLANKET","TX","76432"
269896,"6700 CROSNE ST","AUSTIN","TX","78754"
269897,"6700 CROY ROAD","MORGAN HILL","CA","95037"
269898,"6700 DELILAH ROAD","EGG HARBOR TOWNSHIP","NJ","08234"
269899,"6700 E 41ST STREET","SIOUX FALLS","SD","57110"
269900,"6700 E PACIFIC COAST HWY STE 275","LONG BEACH","CA","90803"
269901,"6700 E PACIFIC COAST HWY STE 287","LONG BEACH","CA","90803"
269902,"6700 EAGLE ST","VENTURA","CA","93003"
269903,"6700 FALLBROOK AVE SUITE 100","WEST HILLS","CA","91307"
269904,"6700 FALLBROOK AVENUE SUITE 295","WEST HILLS","CA","91307"
269905,"6700 FALLBRROK AVE SUITE100","WEST HILLS","CA","91307"
269906,"6700 GREY FOX DRIVE","SPRINGFIELD","VA","22152"
269907,"6700 HOME CITY AVENUE","CINCINNATI","OH","42333"
269908,"6700 HOME CITY AVENUE","CINCINNATI","OH","45233"
269909,"6700 INDEPENDENCE AVE NO 278","CANOGA PARK","CA","91303"
269910,"6700 INDIAN CREEK DR APT 702","MIAMI BEACH","FL","33141"
269911,"6700 JEFFERSON HWY BLDG 3","BATON ROUGE","LA","70806"
269912,"6700 JEFFERSON HWY BLDG 6","BATON ROUGE","LA","70806"
269913,"6700 JOHN WEST ROAD","WINSTON","GA","30187"
269914,"6700 KIMBERLY LN N","MAPLE GROVE","MN","55311"
269915,"6700 KIT LN","CASTRO VALLEY","CA","94552"
269916,"6700 LARAMIE DR","PLANO","TX","75023"
269917,"6700 LINDA LAKE DRIVE","CHARLOTTE","NC","28215"
269918,"6700 M 66 N 182","CHARLEVOIX","MI","49720"
269919,"6700 MAIN ST SUITE 130","THE COLONY","TX","75056"
269920,"6700 MARLBORO PIKE","FORESTVILLE","MD","20747"
269921,"6700 MERLE HAY ROAD","JOHNSTON","IA","50131"
269922,"6700 N BROAD STREET","PHILADELPHIA","PA","19126"
269923,"6700 N LINDER RD STE 156 BOX 241","MERIDIAN","ID","83646"
269924,"6700 N LINDER ROAD SUITE 156-106","MERIDIAN","ID","83646"
269925,"6700 N MARTIN LUTHER KING AVESTE 13","OKLAHOMA CITY","OK","73111"
269926,"6700 N NEW BRAUNFELS","SAN ANTONIO","TX","78209"
269927,"6700 NORTH TRYON STREET  560653","CHARLOTTE","NC","28213"
269928,"6700 NW 78TH STREET","TAMARAC","FL","33331"
269929,"6700 OVERLAND","BOISE","ID","83709"
269930,"6700 QUEENSTON BLVD APT 327","HOUSTON","TX","77084"
269931,"6700 ROSWELL ROAD APT 9A","SANDY SPRINGS","GA","30328"
269932,"6700 SAINT IGNATIUS DRIVE UNIT 202","FORT WASHINGTON","MD","20744"
269933,"6700 SOUTH 1680 EAST","SALT LAKE CITY","UT","84121"
269934,"6700 W 44TH AVENUE","WHEAT RIDGE","CO","80033"
269935,"6700 W CHICAGO ST STE 3","CHANDLER","AZ","85226"
269936,"6700 W USTICK RD","BOISE","ID","83704"
269937,"6700 WANDT DR","DALLAS","TX","75236"
269938,"6700 WINTON ROAD","CINCINNATI","OH","45224"
269939,"6700 WOODLANDS PARKWAY STE 230-132","THE WOODLANDS","TX","77382"
269940,"6700 WOODLANDS PARKWAY STE 230-301","THE WOODLANDS","TX","77382"
269941,"6700 WOODLEY AVE 206","VAN NUYS","CA","91406"
269942,"67005 E 261 RD","GROVE","OK","74344"
269943,"6701 139TH PL SW","EDMONDS","WA","98026"
269944,"6701 ANTIRE RD","HIGH RIDGE","MO","63049"
269945,"6701 ARBOR LAKE DRIVE APT 301","CHESTER","VA","23831"
269946,"6701 CONCORD HILL RD","LOUISVILLE","KY","40228"
269947,"6701 DEL REY AVE SUITE 129","LAS VEGAS","NV","89146"
269948,"6701 DEMOCRACY BLVD SUITE 300","BETHESDA","MD","21704"
269949,"6701 DURHAM COURT","MENTOR","OH","44060"
269950,"6701 E  ZAYANTE ROAD","FELTON","CA","95018"
269951,"6701 E CLINTON STREET","SCOTTSDALE","AR","85254"
269952,"6701 E PHELPS RD","SCOTTSDALTE","AZ","85254"
269953,"6701 ETON AVENUE APT 330","WOODLAND HILLS","CA","91303"
269954,"6701 FAIRHAVEN ROAD APT 301","MADISON","WI","53719"
269955,"6701 GREEN VALLEY ROAD","PLACERVILLE","CA","95667"
269956,"6701 HILLSIDE LANE","EDINA","MN","55435"
269957,"6701 MUNCASTER MILL ROAD","DERWOOD","MD","20855"
269958,"6701 N CHARLES ST GBMC RM 4202","TOWSON","MD","21204"
269959,"6701 NE PRESCOTT ST","PORTLAND","OR","97218"
269960,"6701 NORTH JEAN NICOLET ROAD","GLENDALE","WI","53217"
269961,"6701 OLD 28TH ST SE STE D","GRAND RAPIDS","MI","49546"
269962,"6701 OLD SPANISH TRAIL","OCEAN SPRINGS","MS","39564"
269963,"6701 PARK HEIGHTS AVE UNIT 2B","BALTIMORE","MD","21215"
269964,"6701 SANDS POINT DR  8","HOUSTON","TX","77074"
269965,"6701 SEXTON CT","FAYETTEVILLE","NC","28314"
269966,"6701 STAR VIEW STREET","DES MOINES","IA","50320"
269967,"6701 STONEBRIDGE CT","W BLOOMFIELD","MI","48322"
269968,"6701 SUITLAND ROAD","MORNINGSIDE","MD","20746"
269969,"6701 SW 166TH AVE","SOUTHWEST RANCHES","FL","33331"
269970,"6701 SW 33RD ST","TOPEKA","KS","66614"
269971,"6701 SW CANYON CREST DR","PORTLAND","OR","97225"
269972,"6701 UPPER AFTON ROAD","SAINT PAUL","MN","55125"
269973,"6701 W HIGGINS AVENUE","CHICAGO","IL","60656"
269974,"6701 WABASH AVE","TERRE HAUTE","IN","47803"
269975,"6701 WESTOWN PARKWAY STE 100","WEST DES MOINES","IA","50266"
269976,"6701 WILLAMETTE DR","AUSTIN","TX","78723"
269977,"6701 WINTON BLOUNT BLVD UNIT 240454","MONTGOMERY","AL","36124"
269978,"6702 21ST ST NE","TACOMA","WA","98422"
269979,"6702 AEGEAN TRAIL","SUGARLAND","TX","77479"
269980,"6702 BELL RD","YAKIMA","WA","98901"
269981,"6702 BERGENLINE AVENUE 2ND FLOOR","WEST NEW YORK","NJ","07093"
269982,"6702 BOLSA AVE SP 50","WESTMINSTER","CA","92683"
269983,"6702 CARVER","HITCHOCK","TX","77563"
269984,"6702 GREEN RIVER DR UNIT E","HIGHLANDS RANCH","CO","80130"
269985,"6702 HOMAN STREET","CHINO","CA","91710"
269986,"6702 LONDONDERRY DRIVE","MORROW","GA","30260"
269987,"6702 N 27TH AVENUE","PHOENIX","AZ","85395"
269988,"6702 NORTH ROUTE 130","PENNSAUKEN","NJ","08109"
269989,"6702 NORTH SHERIDAN RD APARTMENT 3N","CHICAGO","IL","60626"
269990,"6702 OAKLANDON ROAD","INDIANAPOLIS","IN","46236"
269991,"6702 S 48TH LANE","LAVEEN","AZ","85339"
269992,"6702 THORNWOOD ST NW","CANTON","OH","44718"
269993,"6702 TROWBRIDGE PLACE","FT. WASHINGTON","MD","20744"
269994,"6702 VINING CREEK COVE E","MEMPHIS","TN","38119"
269995,"6702 W HAVEN BROOK WAY","TUCSON","AZ","85757"
269996,"6702 WOLFCREEK PASS","AUSTIN","TX","78749"
269997,"67027 155TH AVENUE","WABASHA","MN","55981"
269998,"6703 13TH STREET COURT N","OAKDALE","MN","55128"
269999,"6703 CRESHEIM RD","PHILADELPHIA","PA","19119"
270000,"6703 E 28TH PL","TULSA","OK","74129"
