"ID","Address","City","State","Zip"
269001,"663 RIDGEWAY DRIVE","TAYLOR MILL","KY","41015"
269002,"663 S ELLIOTT ST","EVANSVILLE","IN","47713"
269003,"663 S WHITMAN CT","ADA","MI","49301"
269004,"663 SARVER ROAD","SARVER","PA","16055"
269005,"663 SOUTH LAKE STREET","SOUTH AMHERST","OH","44001"
269006,"663 SOUTHWESTERN PARKWAY","LOUISVILLE","KY","40211"
269007,"663 W 100 S","SLC","UT","84104"
269008,"663 W 60TH STREET","LOS ANGELES","CA","90044"
269009,"663","APOPKA","FL","32704"
269010,"6630 50TH STREET","SACRAMENTO","CA","95823"
269011,"6630 CADILLAC STREET","HOUSTON","TX","77021"
269012,"6630 E SWEETWATER AVE","SCOTTSDALE","AR","85254"
269013,"6630 EAST LIGHTNING DRIVE","TUCSON","AZ","85708"
269014,"6630 FRONTAGE AT WHITEHORSE RD","GREENVILLE","SC","29605"
269015,"6630 HARRIS RD","BROADVIEW HEIGHTS","OH","44147"
269016,"6630 HWY AJ","WASHINGTON","MO","63090"
269017,"6630 LAUGHLIN DR","MISSOURI CITY","TX","77489"
269018,"6630 MARLBORO PK","DISTRICT HEIGHTS","MD","20747"
269019,"6630 MAYWOOD AVE","MIDDLETON","WI","53562"
269020,"6630 N RILEY AVE","INDIANAPOLIS","IN","46220"
269021,"6630 NEWBURY LANE","PARMA HEIGHTS","OH","44130"
269022,"6630 S MCCARRAN BOULEVARD SUITE B16","RENO","NV","89509"
269023,"6630 SIEGEN LANE APT 280","BATON ROUGE","LA","70809"
269024,"6630 ST CROIX TRAIL S","HASTINGS","MN","55033"
269025,"6630 SURREY ST","LAS VEGAS","NV","89119"
269026,"6630 WOODS EDGE NORTH DRIVE STE 2D","INDIANAPOLIS","IN","46250"
269027,"6631 CANDLESTICK AVE NE","CANTON","OH","44721"
269028,"6631 CATTLE DRIVE","DALLAS","TX","75241"
269029,"6631 COLONIAL FOREST LANE","KNOXVILLE","TN","37919"
269030,"6631 LANDIS MILL ROAD","CENTER VALLEY","PA","18034"
269031,"6631 MAIN STREET","WILLIAMSVILLE","NY","14221"
269032,"6631 MALVERN AVENUE","PHILADELPHIA","PA","19151"
269033,"6631 SHILOH RD","MIDLOTHIAN","TX","76065"
269034,"6631 W 6000 N","REXBURG","ID","83440"
269035,"6631 WOODLAND OAKS","MAGNOLIA","TX","77354"
269036,"6632 BELLOWS CT","WEST BLOOMFIELD","MI","48322"
269037,"6632 BUSLETON AVENUE","PHILADELPHIA","PA","19149"
269038,"6632 CHANDLER AVE","PENNSAUKEN","NJ","08110"
269039,"6632 COCONUT DRIVE","MIRAMAR","FL","33023"
269040,"6632 FLAT CREEK DR","CHARLOTTE","NC","28277"
269041,"6632 GRAMERCY ST","BUENA PARK","CA","90621"
269042,"6632 KINGSBURY BLVD","UNIVERSITY CITY","MO","63130"
269043,"6632 MARINE AVENUE","RANCHO CUCAMONGA","CA","91737"
269044,"6632 SHADOW CREEK DR","DALLAS","TX","75241"
269045,"6632 SOUTH 300 WEST","WABASH","IN","46992"
269046,"6632 TELEGRAPH ROAD SUITE 245","BLOOMFIELD HILLS","MI","48301"
269047,"6632 TELEGRAPH ROAD SUITE 296","BLOOMFIELD HILLS","MI","48301"
269048,"66321 CAHUILLA AVE","DESERT HOT SPRINGS","CA","92240"
269049,"6633 191ST AVENUE NW","NOWTHEN","MN","55303"
269050,"6633 CAMINTO COORS NW","ALBUQUERQUE","NM","87120"
269051,"6633 EAST GREENWAY PARKWAY APT 2060","SCOTTSDALE","AZ","85254"
269052,"6633 FAIRWAY AVE SE","SNOQUALMIE","WA","98065"
269053,"6633 FICUS DRIVE","MIRAMAR","FL","33023"
269054,"6633 HILLCROFT AVE STE 265","HOUSTON","TX","77081"
269055,"6633 HILLCROFT STREET STE 102","HOUSTON","TX","77081"
269056,"6633 MABLETON PKWY UNIT 100","MABLETON","GA","30126"
269057,"6633 MAYCREST LN","SAN DIEGO","CA","92121"
269058,"6633 N STATE HIGHWAY 64","WILLIAMS","AZ","86046"
269059,"6633 NW 174TH TERRACE","MIAMI","FL","33015"
269060,"6633 OLD PLACE ROAD SE","WINNABOW","NC","28479"
269061,"6633 RONALD ROAD","CAPITAL HEIGHTS","MD","20743"
269062,"6633 VIRGINIA PARKWAY","MCKINNEY","TX","75071"
269063,"6633 WEST LAW ROAD","VALLEY CITY","OH","44280"
269064,"6634 59TH STREET","MIDDLE VILLAGE","NY","11379"
269065,"6634 AMERICAN WAY","BETHLEHEM","PA","18017"
269066,"6634 BUCK CREEK AVE SW","GRAND RAPIDS","MI","49548"
269067,"6634 N RICHMOND ST","CHICAGO","IL","60645"
269068,"6634 NEW SULPHUR SPRINGS ROAD","SAN ANTONIO","TX","78263"
269069,"6635 8 MILE RD","FREELAND","MI","48623"
269070,"6635 ALDER DR","HOUSTON","TX","77081"
269071,"6635 E 52ND PLACE","INDIANAPOLIS","IN","46226"
269072,"6635 FLAGSTONE COURT","CUMMING","GA","30028"
269073,"6635 GERANIUM WAY","SPARKS","NV","89436"
269074,"6635 HOHMAN AVE","HAMMOND","IN","46324"
269075,"6635 MCCALLUM STREET - UNIT A602","PHILADELPHIA","PA","19119"
269076,"6635 REYNOLDS DR","LAS CRUCES","NM","88011"
269077,"6635 TIMBER OAKS DRIVE","OLIVE BRANCH","MS","38654"
269078,"6635 UNION ST","ARVADA","CO","80004"
269079,"6635 W COMMERCIAL BLVD SUITE 207","TAMARAC","FL","33319"
269080,"6635 W HAPPY VALLEY RD  STE 104-483","GLENDALE","AZ","85310"
269081,"6635","WARNER ROBINS","GA","31095"
269082,"66351 KESSINGTON RD","CASSOPOLIS","MI","49031"
269083,"6636 HUNTER RD","ELKRIDGE","MD","21075"
269084,"6636 KAREN DR","SEVEN HILLS","OH","44131"
269085,"6636 KINMORE","DEARBORN HEIGHTS","MI","48127"
269086,"6636 LAKERIDGE DRIVE","TEXARKANA","TX","75503"
269087,"6636 N 36TH ST","PHOENIX","AZ","85018"
269088,"6636 PRINCE GEORGE LN APT 9104","FORT WORTH","TX","76135"
269089,"6636 S YALE AVENUE","CHICAGO","IL","60621"
269090,"6636 SHAPIRO CT","STONE MOUNTAIN","GA","30087"
269091,"6636 W STATE ROUTE 113","KANKAKEE","IL","60901"
269092,"6637 BROOKFIELD ROAD","ROANOKE","VA","24019"
269093,"6637 FOOTHILLS CT","FLORISSANT","MO","63033"
269094,"6637 N KNOLL AVE","FRESNO","CA","93711"
269095,"6637 OAKMONT DRIVE SUITE A","SANTA ROSA","CA","95409"
269096,"6638 CARLSBAD RIO","SAN ANTONIO","TX","78233"
269097,"6638 CIBOLA ROAD","SAN DIEGO","CA","92120"
269098,"6638 HANLEY RD","PERRYSBURG","OH","43551"
269099,"6638 MUIR DRIVE","HAYMARKET","VA","20169"
269100,"6638 S 17TH AVE","RICHFIELD","MN","55423"
269101,"6639 AUTUMN CRK","OWENSBORO","KY","42301"
269102,"6639 COLUMBIA AVE","LAKE WORTH","FL","33467"
269103,"6639 MARINE AVE","ARBUCKLE","CA","95912"
269104,"6639 RIVER RD","WESTWEGO","LA","70094"
269105,"6639 RIVER ROAD","WESTWEGO","LA","70094"
269106,"6639 SULLIVAN ROAD SUITE B","GREENWELL SPRINGS","LA","70739"
269107,"663W SUNRISE DRIVE","AVALON","NJ","08202"
269108,"664 49TH STREET APT B","BROOKLYN","NY","11220"
269109,"664 ADAMS AVENUE","MEMPHIS","TN","38105"
269110,"664 BENNETT LN","PERKASIE","PA","18944"
269111,"664 BOW AND ARROW DR - 2092","DALLAS","TX","75224"
269112,"664 BROADWAY STREET","BARLOW","KY","42024"
269113,"664 E BRIDGE ST","WESTBROOK","ME","04092"
269114,"664 EAST MAIN STREET","CENTREVILLE","MI","49032"
269115,"664 JOAN DRIVE","MASON","MI","48854"
269116,"664 LIBERTY LANE","WESTERVILLE","OH","43081"
269117,"664 LYONS LANE","LONGBOAT KEY","FL","34228"
269118,"664 MAIN STREET SUITE 451","ROLLINSFORD","NH","03869"
269119,"664 N CLIFFSIDE DR","FAYETTEVILLE","AR","72701"
269120,"664 PATHWOOD LANE","STOCKBRIDGE","GA","30281"
269121,"664 ROUTE 15 S","LAKE HOPATCONG","NJ","07849"
269122,"664 S PARK AVE","TITUSVILLE","FL","32796"
269123,"664 SHORELINE CIRCLE","PORT ARANSAS","TX","78373"
269124,"664 SWEETBRIAR ROAD","PERKASIE","PA","18944"
269125,"664 TUNNEL RD","GLENDALE","OR","97442"
269126,"664 W LYMAN AVE","WINTER PARK","FL","32789"
269127,"6640 ABRAMS RD  821051","DALLAS","TX","75231"
269128,"6640 ADAMS STREET","LINCOLN","NE","68507"
269129,"6640 ASHEBROOKE DR","DOUGLASVILLE","GA","30135"
269130,"6640 BEECHWOOD AVE","PORTAGE","IN","46368"
269131,"6640 E 26TH CT","TULSA","OK","74129"
269132,"6640 EAST 8 MILE","DETROIT","MI","48234"
269133,"6640 HEATHROW LANE","STONE MOUNTAIN","GA","30087"
269134,"6640 MANCHESTER LANE","EDEN PRAIRIE","MN","55346"
269135,"6640 RIDGEVIEW CIRCLE","MONTGOMERY","AL","36117"
269136,"6640 VIEW ACRES DRIVE","PARADISE","CA","95969"
269137,"6640 W 143RD STREET STE 250","OVERLAND PARK","KS","66223"
269138,"6641 AXIS STREET SE","LACEY","WA","98513"
269139,"6641 COVEVIEW CT","NEW ORLEANS","LA","70126"
269140,"6641 DEL PRADO TERRACE","NEW PORT RICHEY","FL","34652"
269141,"6641 FOREST HILL BLVD","GREENACRES","FL","33413"
269142,"6641 FULTON AVENUE","VAN NUYS","CA","91401"
269143,"6641 LOST TREE CT","INDIANAPOLIS","IN","46268"
269144,"6641 PENSFORD LN","CHARLOTTE","NC","28270"
269145,"6641 PINNOCHIO DR","JACKSONVILLE","FL","32210"
269146,"6641 SILVERSTREAM AVE UNIT D","LAS VEGAS","NV","89107"
269147,"6641 SW 19 STREET","MIRAMAR","FL","33023"
269148,"66413","ROSEVILLE","MI","66413"
269149,"6642 CLAYTON ROAD - SUITE 210","RICHMOND HEIGHTS","MO","63117"
269150,"6642 CLAYTON ROAD","ST LOUIS","MO","63117"
269151,"6642 E 99TH AVE","ANCHORAGE","AK","99507"
269152,"6642 GOLDRUSH DRIVE","ELKO","NV","89801"
269153,"6642 MISSION RD","PRAIRIE VILLAGE","KS","66208"
269154,"6642 N 300 W","ANDERSON","IN","46011"
269155,"6642 TIGER TOOTH","LITTLETON","CO","80124"
269156,"6642 W JAMESTOWN DR","MCCORDSVILLE","IN","46055"
269157,"66422 HUNTER RD","SUMMERVILLE","OR","97876"
269158,"6643 BAYOU VIEW DR","HOUSTON","TX","77091"
269159,"6643 COUNTY RD 579","SEFFNER","FL","33584"
269160,"6643 EAST JULIE COURT","BYRON","MI","48418"
269161,"6643 SAN MIGUEL AVE","LEMON GROVE","CA","91945"
269162,"6643 SKYLINE BLVD","OAKLAND","CA","94611"
269163,"66433 N CALIFORNIA AVENUE APT 3N","CHICAGO","IL","60645"
269164,"6644 COLTON CRAWFORD CIRCLE","FALLS CHURCH","VA","22042"
269165,"6644 ESTATE VIEW  DR  N","BLACKLICK","OH","43004"
269166,"6644 FOXBERRY RD","FAYETTEVILLE","NC","28314"
269167,"6644 HOMETOWN WAY","SACRAMENTO","CA","95828"
269168,"6644 ORANGE AVENUE UNIT 114","LONG BEACH","CA","90805"
269169,"6644 US RTE 9","HUDSON","NY","12534"
269170,"6644 W AIRPORT ROAD","WILLCOX","AZ","85643"
269171,"6645 23RD AVENUE","HYATTSVILLE","MD","20782"
269172,"6645 BRIGHAM ST","PORTAGE","MI","49024"
269173,"6645 DELMONICO DRIVE  SUITE 200","COLORADO SPRINGS","CO","80919"
269174,"6645 GLENEDEN BEACH LOOP ROAD","GLENEDEN BEACH","OR","97388"
269175,"6645 MT VERNON ROAD","NEWARK","OH","43055"
269176,"6645 PROUD EAGLE CT","COLORADO SPRINGS","CO","80915"
269177,"6645 SOLON BLVD","SOLON","OH","44139"
269178,"6645 SW 102 ST","MIAMI","FL","33156"
269179,"6645 WILLOWS WAY","CUMMING","GA","30040"
269180,"6645 WOODWELL STREET","PITTSBURGH","PA","15217"
269181,"6646 COLLAMER RD","EAST SYRACUSE","NY","13057"
269182,"6646 KIRBY MEADOW COVE","MEMPHIS","TN","38115"
269183,"6646 LIBERTY HALL ROAD","QUINTON","VA","23141"
269184,"6646 MACARTHUR BLVD APT 26","OAKLAND","CA","94605"
269185,"6646 WASHFORDE LN","HOUSTON","TX","77049"
269186,"6646 WILLOW POINTE DRIVE APT H","HUNTSVILLE","AL","35806"
269187,"6647 CORNELL ST","TAYLOR","MI","48180"
269188,"6647 GREEN GABLES AVENUE","SAN DIEGO","CA","92119"
269189,"6647 NORTH WINFIELD AVENUE","PARKER","CO","80134"
269190,"6647 SHADOW CREEK DRIVE","DALLAS","TX","75241"
269191,"6648 CHICK EVANS LN","WOODRIDGE","IL","60517"
269192,"6648 HIGHWAY 1","FINLAND","MN","55603"
269193,"6648 KERNS RD","FALLS CHURCH","VA","22042"
269194,"6648 RESEDA BLVD","RESEDA","CA","91335"
269195,"6648 RUSTIC ROAD SE","PRIOR LAKE","MN","55372"
269196,"6648 UDALL PL SE","AUBURN","WA","98092"
269197,"6649 AMETHYST AVE 9611","RANCHO CUCAMONGA","CA","91701"
269198,"6649 BEACON LANE","NASHVILLE","TN","37209"
269199,"6649 BLYTHDALE DRIVE","CHARLOTTE","NC","28213"
269200,"6649 BLYTHEDALE DRIVE","CHARLOTTE","NC","28213"
269201,"6649 S MICHIGAN AVE","CHICAGO","IL","60637"
269202,"6649 SUNDOWN TRL","FRISCO","TX","75034"
269203,"6649 WEST VININGS CREEK COVE","MEMPHIS","TN","38119"
269204,"665 31ST STREET","OAKLAND","CA","94609"
269205,"665 ANDERSON AVENUE FLOOR 2","CLIFFSIDE PARK","NJ","07010"
269206,"665 AVENUE C","BAYONNE","NJ","07002"
269207,"665 BAKER DRIVE","WADSWORTH","OH","44281"
269208,"665 BANKS TERRACE TRAIL","INMAN","SC","29349"
269209,"665 BOB HOLMAN RD","ATHENS","GA","30607"
269210,"665 BROADWAY AVE","BEDFORD","OH","44146"
269211,"665 CAMINO DE LOS MARES SUITE 309","SAN CLEMENTE","CA","92673"
269212,"665 CEDRUM ROAD","EUTAW","AL","35462"
269213,"665 CENTER STREET","HANOVER","MA","02339"
269214,"665 CLAIBORNE AVE","JACKSON","MS","39209"
269215,"665 COMMERCE DR RM 523","FAIRFIELD","CT","06825"
269216,"665 CRESCENT DR","CHULA VISTA","CA","91911"
269217,"665 DEER LODGE HWY","SUNBRIGHT","TN","37872"
269218,"665 DENARDS ML SE","MARIETTA","GA","30067"
269219,"665 DIELLEN LANE","ELMONT","NY","11003"
269220,"665 DUNDEE AVE","ELGIN","IL","60120"
269221,"665 E 600 S  APT 4P","PROVO","UT","84606"
269222,"665 E ARROW HWY","AZUSA","CA","91702"
269223,"665 E BEECH STREET","PONCHATOULA","LA","70454"
269224,"665 E FRENCH AVE","ORANGE CITY","FL","32763"
269225,"665 EAST 220TH STREET","BRONX","NY","10467"
269226,"665 EAST CHANNEL ROAD","SANTA MONICA","CA","90402"
269227,"665 FOY LANE","ESCONDIDO","CA","92025"
269228,"665 FRUITVILLE PIKE","MANHEIM","PA","17545"
269229,"665 GALLOPS LANE","SYLACAUGA","AL","35151"
269230,"665 GARRY RD","AKRON","OH","44305"
269231,"665 HARRISON STREET","EMMAUS","PA","18049"
269232,"665 HOPE HOLLOW RD","LOGANVILLE","GA","30052"
269233,"665 LANGDON STREET","ORANGE","NJ","07050"
269234,"665 LUCAS BARROW ROAD","DEQUINCY","LA","70633"
269235,"665 LUCILLE DR","LEXINGTON","KY","40511"
269236,"665 MANCHESTER ROAD","GLASTONBURY","CT","06033"
269237,"665 MATHER ST","BRIGHTON","CO","80601"
269238,"665 MCBRIDE AVE","WOODLAND PARK","NJ","07424"
269239,"665 MENDOCINA CT APT 09","FLORISSANT","MO","63031"
269240,"665 MONACO PARKWAY","DENVER","CO","80220"
269241,"665 N BAGDAD RD APT 11103","LEANDER","TX","78641"
269242,"665 N PEACHTREET STREET","JASPER","TX","75951"
269243,"665 OAK HARBOUR DRIVE 115","ALTAMONTE SPRINGS","FL","32701"
269244,"665 PRINCESS ANNE RD","VIRGINIA BEACH","VA","23457"
269245,"665 PRINCETON AVE APT 207","LAKEWOOD","NJ","08701"
269246,"665 RANCH ROAD 2323","FREDERICKSBURG","TX","78624"
269247,"665 ROSWELL RD","ADRIAN","OR","97901"
269248,"665 S 4TH ST","DAVID CITY","NE","68632"
269249,"665 S WESTERN AVE","BRAWLEY","CA","92227"
269250,"665 SAN RODOLFO DR STE 124 BOX 188","SOLANA BEACH","CA","92075"
269251,"665 SAN RODOLFO DR SUITE 124/203","SOLANA BEACH","CA","92075"
269252,"665 SAN RODOLFO DR- SUITE 124- 203","SOLANA BEACH","CA","92075"
269253,"665 SCHILLER AVENUE","AKRON","OH","44310"
269254,"665 SE 10TH STREET 201","DEERFIELD BEACH","FL","33441"
269255,"665 SE 10TH STREET SUITE 201","DEERFIELD BEACH","FL","33441"
269256,"665 SE ATWOOD AVE","CORVALLIS","OR","97333"
269257,"665 UNIONTOWN ROAD","PHILLIPSBURG","NJ","08865"
269258,"665 VINE ST","BUFFALO GAO","TX","79508"
269259,"665 WEST AVENUE J SUITE C","LANCASTER","CA","93534"
269260,"665 WEST SAN JOSE AVENUE","CLAREMONT","CA","91711"
269261,"665 WILLIS STREET","SOUTH HEMPSTEAD","NY","11550"
269262,"665 WINDERMERE DRIVE","CULPEPER","VA","22701"
269263,"6650 AHERN CT","INDIANAPOLIS","IN","46268"
269264,"6650 AQUEDUCT AVE","VAN NUYS","CA","91406"
269265,"6650 AVALON DRIVE SE","CALEDONIA","MI","49316"
269266,"6650 COMMONS DRIVE SUITE C","PRINCE GEORGE","VA","23875"
269267,"6650 FRANKLIN AVE UNIT 509","LA","CA","90028"
269268,"6650 KANSAS AVE","HAMMOND","IN","46323"
269269,"6650 LUSK BLVD STE B203","SAN DIEGO","CA","92121"
269270,"6650 RANKIN ROAD","HUMBLE","TX","77396"
269271,"6650 RIVERS AVE STE 100","CHARLESTON","SC","29406"
269272,"6650 RIVERS AVENUE STE 100","CHARLESTON","SC","29406"
269273,"6650 RIVERS AVENUE SUITE 100","CHARLESTON","SC","29406"
269274,"6650 S UNIVERSITY AV APT 1A","CHICAGO","IL","60637"
269275,"6650 SPRINGSIDE AVENUE","DOWNERS GROVE","IL","60516"
269276,"6650 STOFFER ROAD","BELLVILLE","OH","44813"
269277,"6650 W INDIANTOWN RD SUITE 27/HFTC","JUPITER","FL","33458"
269278,"6650 W STATE ST UNIT D170","WAUWATOSA","WI","53213"
269279,"6650 W STATE STREET  D264","WAUWATOSA","WI","53213"
269280,"6650 WALNUT ST","NEW ALBANY","OH","43054"
269281,"6650 WEST STATE STREET  NUM 125","WAUWATOSA","WI","53213"
269282,"6651 136TH AVENUE","HOLLAND","MI","49424"
269283,"6651 67TH AVE N APT105","BROOKLYN PARK","MN","55428"
269284,"6651 CONWAY CT","OAK FOREST","IL","60452"
269285,"6651 CRESTINE DR","JACKSONVILLE","FL","32211"
269286,"6651 DIAMOND WING CT","SPARKS","NV","89431"
269287,"6651 S GARTH AVENUE","LOS ANGELES","CA","90056"
269288,"6651 TWIG PLACE APT F","INDIANAPOLIS","IN","46221"
269289,"6651 VILLAGE DRIVE","CASPER","WY","82604"
269290,"6652 CHAPLIN DRIVE","COLORADO SPRINGS","CO","80925"
269291,"6652 EAGLE POINTE DR N APT 3B","INDIANAPOLIS","IN","46254"
269292,"6652 HEATHROW AVENUE","FONTANA","CA","92336"
269293,"6652 HEATHROW LANE","STONE MOUNTAIN","GA","30087"
269294,"6652 HOULTON CIRCLE","BOCA RATON","FL","33467"
269295,"6652 PALAMINO CIRCLE","YORBA LINDA","CA","92886"
269296,"6652 S LIZA LANE","WEST JORDAN","UT","84081"
269297,"6652A MARMADUKE AVENUE","SAINT LOUIS","MO","63139"
269298,"6653 MARBELLA LANE","NAPLES","FL","34105"
269299,"6653 OAKTON AVE","HAYMARKET","VA","20169"
269300,"6653 OLD IRONSIDE LANE","DELAWARE","OH","43015"
269301,"6653 W SEASCAPE WAY","TUCSON","AZ","85757"
269302,"6654 N MOZART","CHICAGO","IL","60645"
269303,"6654 OCTATILLO VIEW","FOUNTIAN","CO","80817"
269304,"6654 W WOOD RIDGE DR","JANESVILLE","WI","53548"
269305,"6655  MARTINIQUE WAY","VERO BEACH","FL","32967"
269306,"6655 100TH AVENUE NORTH","PINELLAS PARK","FL","33782"
269307,"6655 ARAPAHOE ROAD","BOULDER","CO","80303"
269308,"6655 CONSEAR ROAD","OTTAWA LAKE","MI","49267"
269309,"6655 DESEO","IRVING","TX","75039"
269310,"6655 GRAHAM CIR","CITRUS HEIGHTS","CA","95610"
269311,"6655 HILLCROFT SUITE 225","HOUSTON","TX","77081"
269312,"6655 JACKSON ROAD UNIT 827","ANN ARBOR","MI","48103"
269313,"6655 KEENTOWN ROAD","DUETTE","FL","34219"
269314,"6655 LANDMOR DR","GREENWELL SPRINGS","LA","70739"
269315,"6655 LONDON ST","HOUSTON","TX","77021"
269316,"6655 MARTINIQUE WAY","VERO BEACH","FL","32967"
269317,"6655 NE 12TH AVE","PLEASANT HILL","IA","50327"
269318,"6655 OBISPO AVE UNIT 256","LONG BEACH","CA","90805"
269319,"6655 OSCAR CIR","ELK GROVE","CA","95757"
269320,"6655 PINETREE LANE","MIAMI BEACH","FL","33141"
269321,"6655 POST ROAD","DUBLIN","OH","43016"
269322,"6655 RIDGE RD","PARMA","OH","44129"
269323,"6655 S CODDINGTON AVE","LINCOLN","NE","68523"
269324,"6655 S SAHAR AVE STE B200","LAS VEGAS","NV","89146"
269325,"6655 SAINT BARBARA RD 8471","ELKRIDGE","MD","21075"
269326,"6655 SORENSON PKWY","OMAHA","NE","68152"
269327,"6655 W SAHARA AVE STE B200","LAS VEGAS","NV","89146"
269328,"6655 W SAHARA AVE SUITE E100","LAS VEGAS","NV","89146"
269329,"6655 WEST JEWELL AVE SUITE 111","LAKEWOOD","CO","80232"
269330,"6656 DELAWARE BEND","FAIRBURN","GA","30213"
269331,"6656 MAJESTIC PEARL PL","NORTH LAS VEGAS","NV","89084"
269332,"6656 NORTH 80TH PL","SCOTTSDALE","AZ","85250"
269333,"6657 CHERRY AVENUE","BAKERSFIELD","CA","93314"
269334,"6657 MATILIJA AVE","VAN NUYS","CA","91405"
269335,"6657 MERRY LANE","HOUSTON","TX","77023"
269336,"6657 S BENTON AVE","KANSAS CITY","MO","64132"
269337,"6657 VIRGINIA PARKWAY SUITE 100","MCKINNEY","TX","75071"
269338,"6658 BARTMER AVE","ST LOUIS","MO","63130"
269339,"6658 E 10TH ST","INDIANAPOLIS","IN","46219"
269340,"6658 JUDY LANE","RIVERDALE","GA","30296"
269341,"6658 NORTH 56TH STREET","MILWAUKEE","WI","53223"
269342,"6658 NOWHERE ROAD","HULL","GA","30646"
269343,"6658 OLD HWY 64 E","HAYESVILLE","NC","28904"
269344,"6658 THORNTON AVE","NEWARK","CA","94560"
269345,"66580 EIGHTH STREET SUITE A","DESERT HOT SPRINGS","CA","92240"
269346,"6659 ADRIATIC WAY","GREENACRES","FL","33413"
269347,"6659 BROKEN ARROW ROAD","FORT MYERS","FL","33912"
269348,"6659 EAST MEADOWLARK LANE","PARADISE VALLEY","AZ","85253"
269349,"6659 FISHER RIDGE RD","LIBERTY","WV","25124"
269350,"6659 LIBERTY CT","LIBERTY TOWNSHIP","OH","45044"
269351,"6659 PAXTON GUINEA ROAD","LOVELAND","OH","45140"
269352,"6659 PEACHTREE INDL BLVD STE E","NORCROSS","GA","30092"
269353,"6659 SCHAEFER RD 155","DEARBORN","MI","48126"
269354,"6659 SCHAEFER RD","DEARBORN","MI","48126"
269355,"6659 WEST MILL ROAD","MILWAUKEE","WI","53218"
269356,"6659 WOODWELL STREET","PITTSBURGH","PA","15217"
269357,"666 E 141 ST STREET","BRONX","NY","10454"
269358,"666 FIFTH AVENUE","NEW YORK","NY","10103"
269359,"666 GRAND AVENUE SUITE 2000","DES MOINES","IA","50309"
269360,"666 GREENWICH ST APT 519","NEW YORK","NY","10014"
269361,"666 HANCOCK STREET APT 1F","BROOKLYN","NY","11233"
269362,"666 HOUSTON AVENUE APT 406","TAKOMA PARK","MD","20912"
269363,"666 KINDERKAMACK ROAD","RIVER EDGE","NJ","07661"
269364,"666 MOUNT PARAN ROAD NW","ATLANTA","GA","30327"
269365,"666 NE 125TH STREET SUITE 238","NORTH MIAMI","FL","33161"
269366,"666 OLD COUNTRY ROAD SUITE 810","GARDEN CITY","NY","11530"
269367,"666 PLAINSBORO ROAD SUITE 1238","PLAINSBORO","NJ","08536"
269368,"666 RUSSELL COURT SUITE 308","WOODSTOCK","IL","60098"
269369,"666 SYLVANER WAY","FREMONT","CA","94539"
269370,"666 THIRD AVENUE","NEW YORK","NY","10017"
269371,"666 WEST END AVE APT 2J","NEW YORK","NY","10025"
269372,"666 WEST END AVENUE - 21A","NEW YORK","NY","10025"
269373,"666 YORKTOWN PLACE","PARAMUS","NJ","07652"
269374,"6660 AVON LAKE RD","MEDINA","OH","44256"
269375,"6660 CAMBRIDGE STREET","BATON ROUGE","LA","70807"
269376,"6660 DELMONICO DR STE 127","COLORADO SPRINGS","CO","80919"
269377,"6660 DOUBLETREE AVENUE SUITE 8","COLUMBUS","OH","43229"
269378,"6660 QUILEN ROAD","SHREVEPORT","LA","71108"
269379,"6660 S CALVARY LANE","HEREFORD","AZ","85615"
269380,"6660 SE 5TH STREET APT1","DES MOINES","IA","50315"
269381,"6661 DIXIE HIGHWAY SUITE 4","LOUISVILLE","KY","40258"
269382,"6661 OLD PORTER ROAD","PORTAGE","IN","46368"
269383,"66610 YUCCA DRIVE","DESERT HOT SPRINGS","CA","92240"
269384,"66612","PORTLAND","OR","97206"
269385,"66614 COMMUNICATIONS PARKWAY","PLANO","TX","75093"
269386,"6662 DEBRA LU WAY","SPRINGFIELD","VA","22150"
269387,"66629 INDIAN HILLS WAY POB2014","SALOME","AZ","85348"
269388,"6663 HALL AVE","MADISON","OH","44057"
269389,"6663 HEARTWOOD DRIVE","OAKLAND","CA","94611"
269390,"6663 STATE HIGHWAY 58","HAMMOND","NY","13646"
269391,"6663 SW BEAVERTON HILLSDALE HWY","BEAVERTON","OR","97225"
269392,"6663 W HOWARD ST","NILES","IL","60714"
269393,"6664 TIMOTHY LAKE ROAD","E STROUDSBURG","PA","18302"
269394,"6664 W FAIRMONT AVE","FRESNO","CA","93723"
269395,"6665 POND APPLE ROAD","BOCA RATON","FL","33433"
269396,"6665 WINCHESTER ROAD","CARROLL","OH","43112"
269397,"6666 BARRETT RD","GENEVA","OH","44041"
269398,"6666 GREEN VALLEY CIRCLE STE 216","CULVER CITY","CA","90230"
269399,"6666 GREEN VALLEY CIRCLE","CULVER CITY","CA","90230"
269400,"6666 HARWIN DR SUITE 340","HOUSTON","TX","77036"
269401,"6666 MICHAEL PL","MICHIGAN CITY","IN","46360"
269402,"6666 MULBERRY CIRCLE EAST","CHANHASSEN","MN","55317"
269403,"6666 OAKLAND CT","NEWBURGH","IN","47630"
269404,"6666 ODANA RD STE 375","MADISON","WI","53719"
269405,"6666 ODANA ROAD SUITE 221","MADISON","WI","53719"
269406,"6667 CHESTER AVE","PHILADELPHIA","PA","19142"
269407,"6667 COUNTY ROAD 214","KEYSTONE HEIGHTS","FL","32656"
269408,"6667 KENNEDY AVE","CINCINNATI","OH","45213"
269409,"6668 APPLERIDGE DR","YOUNGSTOWN","OH","44512"
269410,"6668 CHERRY LEAF CT","MASON","OH","45040"
269411,"6668 E 126TH ST S","BIXBY","OK","74008"
269412,"6668 SOUTH GARNET WAY","CHANDLER","AZ","85249"
269413,"6668 W 350 S","ENDIBURGH","IN","46124"
269414,"66687  180TH STREET","DARWIN","MN","55324"
269415,"6669 HAWKSNEST CT","WESTERVILLE","OH","43082"
269416,"667 4TH AVE","SAN FRANCISCO","CA","94118"
269417,"667 BABBITT RD","EUCLID","OH","44123"
269418,"667 BEATY DRIVE","CLEVELAND","TN","37312"
269419,"667 BISHOP RD","HIGHLAND HEIGHTS","OH","44143"
269420,"667 BROMLEY RD","BROMLEY","KY","41017"
269421,"667 COATES LANE","KING OF PRUSSIA","PA","19406"
269422,"667 E WARREN AVE","LONGWOOD","FL","32750"
269423,"667 HARRIS ROAD","FERNDALE","NY","12734"
269424,"667 HASTINGS CIRCLE WEST","MEMPHIS","TN","38107"
269425,"667 MATTHEW PL","RICHARDSON","TX","75081"
269426,"667 MELANIE STREET","JESUP","GA","31545"
269427,"667 N COVE DR","WEBSTER","NY","14580"
269428,"667 OAKLAND PL","BRONX","NY","10457"
269429,"667 PATTERSON MILL RD","BARNWELL","SC","29812"
269430,"667 PLEASANT HILL ROAD","MORGANTOWN","WV","26508"
269431,"667 RIDGE RD","GEROGETOWN","PA","15043"
269432,"667 RTE 114","SOUTH SUTTON","NH","03273"
269433,"667 S 22ND AVE","BRIGHTON","CO","80601"
269434,"667 S DETROIT APT 409","LOS ANGELES","CA","90036"
269435,"667 SE BARNES AVENUE","GRESHAM","OR","97080"
269436,"667 SEQUOIA VALLEY RD","MILL VALLEY","CA","94941"
269437,"667 SOUTH JUNE ST","LOS ANGELES","CA","90005"
269438,"667 SOUTH STREET","WRENTHAM","MA","02093"
269439,"667 STEINMAN DRIVE","LANCASTER","PA","17603"
269440,"667 TIVOLI ROAD","FREDERICK","MD","21703"
269441,"667 TRAVIS AVENUE","STATEN ISLAND","NY","10314"
269442,"667 TURNBURRY LN","ANTIOCH","IL","60002"
269443,"667 W LINCOLN AVE","RAHWAY","NJ","07065"
269444,"667 WASHINGTON BLVD","BALTIMORE","MD","21230"
269445,"667 WEST 161 STREET APT5G","NEW YORK","NY","10032"
269446,"6670 BLACK FOREST DRIVE","EASTVALE","CA","92880"
269447,"6670 DANA DRIVE","MACON","GA","31220"
269448,"6670 GEORGIA AVE APT 203","WASHINGTON","DC","20012"
269449,"6670 LUCIA LANE NORTHEAST 6","FRIDLEY","MN","55432"
269450,"6670 NE BAYVIEW BLVD","BAINBRIDGE ISLAND","WA","98110"
269451,"6670 SOUTH BRAINARD AVENUE UNIT 106","COUNTRYSIDE","IL","60525"
269452,"6670 SW AMBER LN","PORTLAND","OR","97225"
269453,"6671 SAINT ANDREWS RD","COLUMBIA","SC","29212"
269454,"6671 SAINT ANDREWS ROAD","COLUMBIA","SC","29212"
269455,"6671 ST ANDREWS RD","COLUMBIA","SC","29212"
269456,"6671 W INDIANTOWN RD STE 50 PMB 102","JUPITER","FL","33458"
269457,"6671 W INDIANTOWN RD STE 50-396","JUPITER","FL","33458"
269458,"6671 W SUNSET BLVD STE 1585 - 109","LOS ANGELES","CA","90028"
269459,"6671 W SUNSET BLVD SUITE 1585 - 109","LOS ANGELES","CA","90028"
269460,"6671 WEST INDIANTOWN RD STE 50-194","JUPITER","FL","33458"
269461,"6672 MOTTAR RD","ROCHESTER","IL","62563"
269462,"6672 ROCHELLE AVE","NEWARK","CA","94560"
269463,"6672 RUBY ST","PLAINFIELD","IN","46168"
269464,"6672 SILVER MILL WAY","ROSEVILLE","CA","95678"
269465,"6673 KALINOWSKI ST","TARAWA TERRACE","NC","28543"
269466,"6673 SAY KALLY RD","CHEYENNE","WY","82009"
269467,"6673 WALNUTWOOD CIRCLE","BALTIMORE","MD","21212"
269468,"66735 PIERSON BLVD BLDG B","DESERT HOT SPRINGS","CA","92240"
269469,"6674 CALHOUN 160","LITTLE ROCK","AR","72223"
269470,"6674 PRUE RD APT 1902","SAN ANTONIO","TX","78240"
269471,"6674 S ROME STREET","AURORA","CO","80016"
269472,"6674 TRAQUAIR PLACE","DUBLIN","OH","43016"
269473,"6675 38TH AVE N        SUITE 102","ST PETERSBURG","FL","33710"
269474,"6675 BRICKELL COURT","ORLANDO","FL","32809"
269475,"6675 EAST HIGHWAY 11 SE","ELIZABETH","IN","47117"
269476,"6675 OLD GAY HILL RD","BRENHAM","TX","77833"
269477,"6675 QUINTARA DRIVE","INDIANAPOLIS","IN","46260"
269478,"6676 FEDER RD","GALLOWAY","OH","43119"
269479,"6676 LANA LN","JACKSONVILLE","FL","32244"
269480,"6676 MISSION STREET","DALY CITY","CA","94014"
269481,"6676 PAISLEY DR","CINCINNATI","OH","45236"
269482,"6676 QUAY RD AE","TUCUMCARI","NM","88401"
269483,"6676 ROHR STREET","NIAGARA FALLS","NY","14304"
269484,"6677 BUSCH BLVD","COLUMBUS","OH","43229"
269485,"6677 CAMDEN AVE","SAN JOSE","CA","95120"
269486,"6677 NE WINDERMERE ROAD","SEATTLE","WA","98115"
269487,"6677 RIDGE HAVEN LANE","HIXSON","TN","37343"
269488,"66772 SUMMERVILLE RD","IMBLER","OR","97841"
269489,"66772 SUMMERVILLE ROAD","IMBLER","OR","97841"
269490,"66779 BELMONT MORRISTOWN ROAD","BELMONT","OH","43718"
269491,"66779 BELMONT-MORRISTOWN RD","BELMONT","OH","43718"
269492,"6678 KELLY WILLIS RD","GREENBRIER","TN","37073"
269493,"6678 OWENS DR STE 102","PLEASANTON","CA","94588"
269494,"6679 HWY 84","PATTERSON","GA","31557"
269495,"668 AMERICAN LEGION DRIVE 5","TEANECK","NJ","07666"
269496,"668 ANCHORAGE AVE","GRAYSON","GA","30017"
269497,"668 BEDFORD AVENUE","BROOKLYN","NY","11249"
269498,"668 BRIXHAM RD","COLUMBUS","OH","43204"
269499,"668 BROADSIDE AVENUE","WARRENTON","VA","20186"
269500,"668 CHATEAU CIRCLE","VACAVILLE","CA","95687"
