"ID","Address","City","State","Zip"
221001,"46737 WILLOW FORREST LANE","LEXINGTON PARK","MD","20653"
221002,"4674 AIRCENTER CIRCLE","RENO","NV","89502"
221003,"4674 BLUE MAJOR DR","WINDERMERE","FL","34786"
221004,"4674 CALLEJON FAISAN","SANTA FE","NM","87507"
221005,"4674 E HAYDEN LAKE RD","HAYDEN","ID","83835"
221006,"4674 E OAKWOOD DR","PLEASANT HILL","IA","50327"
221007,"4674 LENORE LANE","EAGAN","MN","55122"
221008,"4674 OLD FOREST RD","GLOUCESTER","VA","23061"
221009,"4674 WESTHAMPTON DR","TUCKER","GA","30084"
221010,"4675 BRIMSTONE CREEK ROAD","MOSS","TN","38575"
221011,"4675 JACKSON STREET","46","CA","92503"
221012,"4675 MORGANTOWN RD","RUSSELLVILLE","KY","42276"
221013,"4675 N 350 E","COLUMBIA CITY","IN","46725"
221014,"4675 ONONDAGA ROAD","ONONDAGA","MI","49264"
221015,"4675 PAGE BLVD","SAINT LOUIS","MO","63113"
221016,"4675 PASEO PADRE PARKWAY","FREMONT","CA","94555"
221017,"4675 PASEO PADRE PKWY","FREMONT","CA","94555"
221018,"4675 PEACHTREE HILLS RD","LAS CRUCES","NM","88012"
221019,"4675 S HOPE SPRINGS RD","STONE MOUNTAIN","GA","30083"
221020,"4675 SIERRA VISTA AVE APT 201","RIVERSIDE","CA","92505"
221021,"4675 SOUTH HOPE SPRINGS RD","STONE MOUNTAIN","GA","30083"
221022,"4675 SWEET HOME ROAD","GRENADA","MS","38901"
221023,"4675 TECOLOTE ROAD","SAN DIEGO","CA","92110"
221024,"46751 COUNTY ROAD 17","ELIZABETH","CO","80107"
221025,"4676 ALBANY POST ROAD APT 12C1","HYDE PARK","NY","12538"
221026,"4676 BRINNELL STREET SUITE 101","SAN DIEGO","CA","92111"
221027,"4676 COMMERCIAL ST SE SUITE 81","SALEM","OR","97302"
221028,"4676 GREER LANE","CROSS PLAINS","TN","37049"
221029,"4676 INGRAHAM ST","SAN DIEGO","CA","92109"
221030,"4676 LINCOLN STREET","DENVER","CO","80216"
221031,"4676 PATTERSON SCHOOL DRIVE","LENOIR","NC","28645"
221032,"4676 RALPH DAVIS RD","FOLKSTON","GA","31537"
221033,"4676 TURF RD","EL PASO","TX","79938"
221034,"46765 MORNING SKY TRAIL","COARSEGOLD","CA","93614"
221035,"4677 CALLEJON GAZA","ALBUQUERQUE","NM","87107"
221036,"4677 GREEN RD","WARRENSVILLE","OH","44128"
221037,"4677 LAKEVILLE GROVELAND ROAD","GENESEO","NY","14454"
221038,"4677 OLD IRONSIDES DR STE 170","SANTA CLARA","CA","95054"
221039,"4677 OLD IRONSIDES DR SUITE 170","SANTA CLARA","CA","95054"
221040,"46770 EAST DR","DECATUR","MI","49045"
221041,"4678 BIRCHWOOD","BAY CITY","MI","48706"
221042,"4678 CABANA WAY","SACRAMENTO","CA","95822"
221043,"4678 GABRIEL DR","LAS VEGAS","NV","89121"
221044,"4678 GUADALUPE AVE","DAYTON","OH","45417"
221045,"4678 JAMESTON ST","BOULDER","CO","80301"
221046,"4678 MARBLE HALL ROAD","BALTIMORE","MD","21239"
221047,"4678 N LAKE DR","SHREVEPORT","LA","71107"
221048,"4678 NORTHWEST 113TH PLACE","DORAL","FL","33178"
221049,"4678 STATE HWY U","ROGERSVILLE","MO","65742"
221050,"4678 SW 72ND AVE","MIAMI","FL","33155"
221051,"4678 TAMIAMI TRAIL UNIT 105","PORT CHARLOTTE","FL","33980"
221052,"4679 BONNEVILLE LANE","WOODBRIDGE","VA","22193"
221053,"4679 COUNTRY MANOR DR","SARASOTA","FL","34233"
221054,"4679 CYPRESS GLEN PL","SAN DIEGO","CA","92130"
221055,"4679 HAMILTON ROAD","LAGRANGE","GA","30241"
221056,"4679 S GRAND BLVD","ST LOUIS","MO","63111"
221057,"4679 WALFORD ROAD","WARRENSVILLE HEIGHTS","OH","44128"
221058,"4679 WALNUT GROVE ROAD","MEMPHIS","TN","38117"
221059,"4679 WEST ALAMEDA STREET","SANTA FE","NM","87507"
221060,"46793 BURNING TREE LANE","PLYMOUTH","MI","48170"
221061,"467985 E 1050 ROAD","SALLISAW","OK","74955"
221062,"468 19TH STREET","NIAGARA FALLS","NY","14303"
221063,"468 ALLEN DRIVE","SUMTER","SC","29150"
221064,"468 ARDELLA AVE","AKRON","OH","44306"
221065,"468 BOUCHELLE DRIVE","NEW SMYRNA","IL","32169"
221066,"468 CAMDEN BLVD STE 305","BEVERLY HILLS","CA","90210"
221067,"468 COLOMA ROAD","PORT LAVACA","TX","77979"
221068,"468 DON CORRELLI COURT","SAN JOSE","CA","95123"
221069,"468 EATON CIRCLE","SUPERIOR","CO","80027"
221070,"468 EDINBOROUGH","TEMPERANCE","MI","48182"
221071,"468 FIELDSTONE CT SW","LILBURN","GA","30047"
221072,"468 FRANKLIN AVENUE","HARTFORD","CT","06114"
221073,"468 GEORGE TATE DR","JACKSON","GA","30233"
221074,"468 HALLE PARK DR","COLLIERVILLE","TN","38017"
221075,"468 HARPER ST","PONTIAC","MI","48342"
221076,"468 HIGH TIDE DRIVE","SAINT AUGUSTINE","FL","32080"
221077,"468 INVERNESS LANE","LONGMEADOW","MA","01106"
221078,"468 LONG LANE","HUNTINGDON VALLEY","PA","19006"
221079,"468 MACGREGOR RD","WINTER SPRINGS","FL","32708"
221080,"468 MAGNOLIA PL","BRANDON","MS","39042"
221081,"468 MANANAI PLACE APT S","HONOLULU","HI","96818"
221082,"468 MCDOWELL AVENUE","FRANKFORT","KY","40601"
221083,"468 N 2ND","MONTGOMERY","IN","47558"
221084,"468 N CAMDEN DR STE200","BEVERLY HILLS","CA","90210"
221085,"468 N CAMDEN DR SUITE 200","BEVERLY HILLS","CA","90210"
221086,"468 N CAMDEN DR","BEVERLY HILLS","CA","90210"
221087,"468 N ROSEMEAD BLVD","PASADENA","CA","91107"
221088,"468 NANTUCKET GLEN","ESCONDIDO","CA","92027"
221089,"468 NEW MARKET BLVD","BOONE","NC","28607"
221090,"468 ODAY ST S","MAPLEWOOD","MN","55119"
221091,"468 PONDER PLACE - 307","NASHVILLE","TN","37228"
221092,"468 PROVINCE ROAD","LACONIA","NH","03246"
221093,"468 RAINBOW DRIVE","ROCK PORT","MO","64482"
221094,"468 S BURNETT DR","BAYTOWN","TX","77520"
221095,"468 SCANDIA DR","BUELLTON","CA","93427"
221096,"468 SIENNA HILLS DRIVE","EAGLE POINT","OR","97524"
221097,"468 ST HWY 63 W","JASPER","TX","75951"
221098,"468 SUNFIELD DR","LAKE HAVASU CITY","AZ","86404"
221099,"468 SW TULIP BLVD","PORT SAINT LUCIE","FL","34953"
221100,"468 TALL GRASS CIRCLE","LAKE ZURICH","IL","60047"
221101,"468 TOMMY MCGOUGH RD","NAUVOO","AL","35578"
221102,"468 TONAWANDA CREEK ROAD","AMHERST","NY","14228"
221103,"468 TOURAINE","GROSSE POINTE FARMS","MI","48236"
221104,"468 TUFTON TRL SE","ATLANTA","GA","30354"
221105,"468 WEST MAIN ST","MOUNT STERLING","KY","40353"
221106,"468 WYNDAM HILL COURT","SUWANEE","GA","30024"
221107,"468 WYOMING ST E","SAINT PAUL","MN","55107"
221108,"468-470 MT PROSPECT AVENUE","NEWARK","NJ","07104"
221109,"4680 BAUER ROAD","BRIGHTON","MI","48116"
221110,"4680 CARVEL AVE","INDIANAPOLIS","IN","46205"
221111,"4680 FM 624","ROBSTOWN","TX","78380"
221112,"4680 FRONTENAC PARK CT","FREMONT","CA","94538"
221113,"4680 JEFFERSON TOWNSHIP LANE","MARIETTA","GA","30066"
221114,"4680 JURUPA AVE APT 4","RIVERSIDE","CA","92506"
221115,"4680 KALANIANAOLE HIGHWAY","HONOLULU","HI","96821"
221116,"4680 LARIAT DR","FAIRFIELD","CA","94534"
221117,"4680 MIMOSA PL UNIT 810","COCONUT CREEK","FL","33073"
221118,"4680 N CIMARRON RD","LAS VEGAS","NV","89129"
221119,"4680 PORTOFINO WAY SUITE 202","WEST PALM BEACH","FL","33401"
221120,"46803 SNOW HILL WAY","STERLING","VA","20165"
221121,"4681 COUNTRY LN","WARRENSVILLE HTS","OH","44128"
221122,"4681 SHATTALON CIRCLE","WINSTON SALEM","NC","27106"
221123,"46814 778TH ROAD","LITCHFIELD","NE","68852"
221124,"468161","ATLANTA","GA","31146"
221125,"4682 CHABOT DR UNIT 11421","PLEASANTON","CA","94588"
221126,"4682 CHABOT DRIVE 10931","PLEASANTON","CA","94588"
221127,"4682 ROUTE 96A","GENEVA","NY","14456"
221128,"4682 UPPER MONTAGUE ROAD","BOWIE","TX","76230"
221129,"4683 BENEVIDES AVE","OAKLAND","CA","94602"
221130,"4683 BLUFFSIDE COURT","MARIETTA","GA","30066"
221131,"4683 CHIPPENHAM RD","ROCKY MOUNT","NC","27804"
221132,"4683 E BOY SCOUT RD","SAINT ANNE","IL","60964"
221133,"4683 WEXMOOR DRIVE","KOKOMO","IN","46902"
221134,"46833 265TH ST","SIOUX FALLS","SD","57106"
221135,"46839 FOX RUN","MACOMB TOWNSHIP","MI","48044"
221136,"46839 FOX RUN","MACOMB","MI","48044"
221137,"4684 ANDALUSIA TRAIL","ATLANTA","GA","30360"
221138,"4684 BELLERIVE WAY","AVON","OH","44011"
221139,"4684 CREEK VALLEY LANE","ONEIDA","WI","54155"
221140,"4684 EAST 145TH PLACE SOUTH","BIXBY","OK","74008"
221141,"4684 PARNELL LANE","PLANO","TX","75024"
221142,"4684 RIDGE RD","WADSWORTH","OH","44281"
221143,"46843 WOODSTONE TERRACE","STERLING","VA","20164"
221144,"4685 49TH AVE SOUTH APT 311","FARGO","ND","58104"
221145,"4685 CHAMBLEE DUNWOODY RD D7","ATLANTA","GA","30338"
221146,"4685 LANDCHESTER RD","CLEVELAND","OH","44109"
221147,"4685 MACARTHUR COURT 375","NEWPORT BEACH","CA","92660"
221148,"4685 N MEADOWLARK DRIVE","ROLLING PRAIRIE","IN","46371"
221149,"4685 NE GUM SWAMP RD","LAKE CITY","FL","32055"
221150,"4685 OAKLEAF PLANTATION BLVD","ORANGE PARK","FL","32065"
221151,"4685 RED CLIFFS DRIVE","KANAB","UT","84741"
221152,"4685 SIERRA VISTA AVE UNIT 208","RIVERSIDE","CA","92508"
221153,"4686 49TH AVENUE","VERO BEACH","FL","32967"
221154,"4686 BUCKSKIN TRL SW","LILBURN","GA","30047"
221155,"4686 COPPER CREST LANE","NORTHPORT","AL","35473"
221156,"4686 LAMBERT CT","SANTA ROSA","CA","95403"
221157,"4686 NE 27TH CT","DES MOINES","IA","50317"
221158,"4686 NOPONE ROAD","GAINESVILLE","GA","30506"
221159,"4686 PAIGE STREET","BATON ROUGE","LA","70811"
221160,"4686 SW JOFFRE STREET","PORT SAINT LUCIE","FL","34953"
221161,"4686 WELLESLEY WAY","RIVERSIDE","CA","92507"
221162,"4687 E 88TH STREET","GARFIELD HEIGHTS","OH","44125"
221163,"4687 FAIRBROOK COURT","RANCHO CORDOVA","CA","95742"
221164,"4687 MASON ROAD","ATLANTA","GA","30349"
221165,"4687 MONTICELLO DRIVE","NORTH EAST","PA","16428"
221166,"4687 N ALDEA ROAD EAST","LITCHFIELD PARK","AZ","85340"
221167,"4687 N PEACHTREE ROAD","DUNWOODY","GA","30338"
221168,"4687 NW 42 ST","LAUDERDALE LAKES","FL","33319"
221169,"46873 BACKWATER DRIVE","STERLING","VA","20164"
221170,"4688 CAMP CREEK LANE","ORANGE PARK","FL","32065"
221171,"4688 HIDDEN LAKE DR","PORT ORANGE","FL","32129"
221172,"4688 N HIGHLAND AVE","KANSAS CITY","MO","64116"
221173,"4688 SW RIVIERA PL","BEAVERTON","OR","97078"
221174,"4688 W TANGERINE RD","MARANA","AZ","85658"
221175,"46880 PLAINVIEW RIDGE ROAD","BOSCOBEL","WI","53805"
221176,"46887 DOUBLETREE ROAD","CANTON","MI","48187"
221177,"4689 BLUE SPRUCE ROAD","EVERGREEN","CO","80439"
221178,"4689 COUNTY ROAD 2720","CADDO MILLS","TX","75135"
221179,"4689 HIGHWAY 41A N","EAGLEVILLE","TN","37060"
221180,"4689 TIMBERVIEW DR","AUBURN","IL","62615"
221181,"46892 CHAMBERS RD","BROWNS VALLEY","MN","56219"
221182,"46895 MORNING DEW LANE APT 308","LEXINGTON PARK","MD","20653"
221183,"469 7TH AVENUE SUITE 1257","NEW YORK","NY","10018"
221184,"469 BARBADOS DR","WALNUT","CA","91789"
221185,"469 BLACKBURN LN","LENOIR CITY","TN","37771"
221186,"469 BRICKTONE DRIVE","BLACKLICK","OH","43004"
221187,"469 C B JOHNSON ROAD","SPARTA","TN","38583"
221188,"469 CENTERVILLE RD SUITE 206","WARWICK","RI","02886"
221189,"469 COUNTY ROAD 21","CERESCO","NE","68017"
221190,"469 COURTHOUSE DR","GULFPORT","MS","39507"
221191,"469 DREWS PRAIRIE RD","TOLEDO","WA","98591"
221192,"469 E 520TH AVE","PITTSBURG","KS","66762"
221193,"469 ELIZABETH AVENUE","NEWARK","NJ","07101"
221194,"469 ENA ROAD APT 1110","HONOLULU","HI","96815"
221195,"469 FOUR LAKES DR","GIBSONIA","PA","15044"
221196,"469 GREENE 714 ROAD","PARAGOULD","AR","72450"
221197,"469 KENDRICK AVE SE","ATLANTA","GA","30315"
221198,"469 LINDEN AVENUE","YORK","PA","17404"
221199,"469 LIVINGSTON STREET","NORWOOD","NJ","07648"
221200,"469 MEDINA STREET","STATEN ISLAND","NY","10306"
221201,"469 MOUNT  OLIVE RD","STOCKBRDIGE","GA","30281"
221202,"469 NORTH 475 WEST","VALPARAISO","IN","46385"
221203,"469 PERCY BROWN ROAD","THIBODAUX","LA","70301"
221204,"469 RAMEY ROAD","LAKEMONT","GA","30552"
221205,"469 S WASHINGTON ST","RIPLEY","TN","38063"
221206,"469 SAN DIMAS CANYON RD","SAN DIMAS","CA","91773"
221207,"469 SARGO RD","ATLANTIC BEACH","FL","32233"
221208,"469 SOUTH 6 STREET EXT","MILNER","GA","30257"
221209,"469 SOUTH KIRKWOOD ROAD","KIRKWOOD","MO","63122"
221210,"469 STARBRIDGE CT","PLEASANT HILL","CA","94523"
221211,"469 SUNNYHILL RD","LUNENBURG","MA","01462"
221212,"469 TRADEWINDS DRIVE","DELTONA","FL","32738"
221213,"469 W FULTON STREET","VAN ALSTYNE","TX","75495"
221214,"469 WALDEN STREET","WESTBURY","NY","11590"
221215,"469 WARRENSVILLE CENTER ROAD APT 5","BEDFORD","OH","44146"
221216,"469 WEST DOUGLAS AVENUE","EL CAJON","CA","92020"
221217,"469 WEST EASTLAND","GALLATIN","TN","37066"
221218,"4690 AMBER LANE","DIMONDALE","MI","48221"
221219,"4690 CHARDONNAY DR","ROCKLEDGE","FL","32955"
221220,"4690 HAMDEN FOREST DRIVE SW","ATLANTA","GA","30331"
221221,"4690 LANSDOWNE","ST. LOUIS","MO","63116"
221222,"4690 LIPSCOMB ST NE STE 5A","PALM BAY","FL","32905"
221223,"4690 LONGLEY LANE","RENO","NV","89502"
221224,"4690 N STATE RD 7 STE 109A","COCONUT CREEK","FL","33073"
221225,"4690 THACKER DR","ORANGE","TX","77630"
221226,"4691 CINDY RIDGE RD","MORGANTON","NC","28655"
221227,"4691 HANOVER CT","VIRGINIA BEACH","VA","23464"
221228,"4691 MAIN ST","PORT HOPE","MI","48468"
221229,"4691 N 71ST","MILWAUKEE","WI","53218"
221230,"4691 NW 9TH STREET","MIAMI","FL","33126"
221231,"4691 PINE STREET","SMYRNA","GA","30080"
221232,"46917 POLO DRIVE","CANTON","MI","48187"
221233,"4692 48TH STREET","HOLLAND","MI","49423"
221234,"4692 BETHEL CHURCH ROAD","PROSPERITY","SC","29127"
221235,"4692 BROWNS GAP TPKE","CROZET","VA","22932"
221236,"4692 HUNTER CREEK DR","LAGRANGE","NC","28551"
221237,"4692 N 300 W  SUITE 210","PROVO","UT","84604"
221238,"46921 WARM SPRINGS BLVD STE 201D","FREMONT","CA","94539"
221239,"46926 TORREY HILL CT","CANTON","MI","48187"
221240,"4693 CAMINO PRINCIPAL","SIERRA VISTA","AZ","85650"
221241,"4693 ROBIN HOOD CIRCLE","STRAWBERRY PLAINS","TN","37871"
221242,"4693 SHADED OAK LANE","FOREST PARK","GA","30297"
221243,"4694 CEMETERY ROAD NUMBER 287","HILLIARD","OH","43026"
221244,"4694 HUNTERS GLADE LANE","ARLINGTON","TN","38002"
221245,"4694 WEHUNT COMMONS DRIVE","SMYRNA","GA","30082"
221246,"4695 BILLS CREEK RD","UNION MILLSUNION MIL","NC","28167"
221247,"4695 MACARTHUR COURT STE 1100","NEWPORT  BEACH","CA","92660"
221248,"4695 REDAN ROAD APT 314","STONE MOUNTAIN","GA","30083"
221249,"4695 REGENCY TRACE SW","ATLANTA","GA","30331"
221250,"4695 RIVERWOOD AVE","SARASOTA","FL","34231"
221251,"4695 ROAMING DR NE","GRAND RAPIDS","MI","49525"
221252,"4695 SPENCER LAKE DRIVE","CONWAY","AR","72034"
221253,"4695 SYRACUSE","DEARBORN HEIGHTS","MI","48125"
221254,"4695 W COUNTY ROAD 1450 S","JASONVILLE","IN","47438"
221255,"4695 WILLIAMSPORT RD","MONONGAHELA","PA","15063"
221256,"46958 GRATIOT AVE NUM 100","CHESTERFIELD","MI","48051"
221257,"4696 BLUEGRASS DR SE","GRAND RAPIDS","MI","49546"
221258,"4696 LWR ROSWELL RD  STE 700","MARIETTA","GA","30068"
221259,"4696 NORTHWOODS HILLS DR","MEMPHIS","TN","38128"
221260,"4696 W TYSON ST","CHANDLER","AZ","85226"
221261,"4696 WATERMELON ROW","COYANOSA","TX","79730"
221262,"4696 YOUNG RD","STOW","OH","44224"
221263,"4697 GALLAGHER ROAD","DOVER","FL","33527"
221264,"4697 KIEFER ROAD","LOUISVILLE","KY","40216"
221265,"4697 KINGS CORNERS RD","ROMULUS","NY","14541"
221266,"46973 ZAPOTEC DRIVE","FREMONT","CA","94539"
221267,"4698 GLENWOOD RD","HOP BOTTOM","PA","18824"
221268,"4699 358TH ST","NORTH BRANCH","MN","55056"
221269,"4699 APPLE WAY","BOULDER","CO","80301"
221270,"4699 CENTRAL AVENUE","ST PETERSBURG","FL","33713"
221271,"4699 COSTA BRAVO DR","ORLANDO","FL","32839"
221272,"4699 FOSSIL VISTA DRIVE 5201","HALTOM","TX","76137"
221273,"4699 MURPHY CANYON RD 106","SAN DIEGO","CA","92123"
221274,"4699 N FEDERAL HWY","POMPANO BEACH","FL","33064"
221275,"4699 SNOWY MEADOW DRIVE","GROVE CITY","OH","43123"
221276,"46B CIRCLE LOOP","STATEN ISLAND","NY","10304"
221277,"46E PENINSULA CENTER SUITE 350","ROLLING HILLS ESTATE","CA","90274"
221278,"46E PENINSULA CTR NUM 351","RLLING HLS EST","CA","90274"
221279,"46O BRANNAN STREET","SAN FRANCISCO","CA","94107"
221280,"46W JULIAN STREET SUITE 205","SAN JOSE","CA","95110"
221281,"46W097 MIDDLETON RD","HAMPSHIRE","IL","60140"
221282,"47 185 IUIU ST","KANEOHE","HI","96744"
221283,"47 280 WAIHEE ROAD","KANEOHE","HI","96744"
221284,"47 2ND AVE NE","FOREST LAKE","MN","55025"
221285,"47 ACADEMY AVENUE","MIDDLETOWN","NY","10940"
221286,"47 ADDINGTON RD","BROOKLINE","MA","02445"
221287,"47 ADELAIDE STREET","RYE","NY","10580"
221288,"47 ADOBE DRIVE","CONCORD","CA","94520"
221289,"47 ALBANY STREET","TORRINGTON","CT","06790"
221290,"47 ALICE CIRCLE","GREENSBURG","PA","15601"
221291,"47 ANDES PLACE","STATEN ISLAND","NY","10314"
221292,"47 ANGUS LANE","WARREN","NJ","07059"
221293,"47 ARGENTVILLE ROAD","WINFIELD","MO","63389"
221294,"47 ARGOS AVE","ORLANDO","FL","32811"
221295,"47 ARTHUR ROAD","HILLSBOROUGH","NJ","08844"
221296,"47 ASH COURT","NORTH LIBERTY","IA","52317"
221297,"47 AUERBACH LANE","LAWRENCE","NY","11559"
221298,"47 AVONDALE ST","ROCHESTER","NY","14620"
221299,"47 BABCOCK RD","WESTERLY","RI","02891"
221300,"47 BASSETT RD","SHELBURNE","MA","01370"
221301,"47 BERGEN AVE","JERSEY CITY","NJ","07305"
221302,"47 BERKELEY AVENUE","WESTWOOD","NJ","07675"
221303,"47 BERKELEY PLACE","LIVINGSTON","NJ","07039"
221304,"47 BISHOP STREET","SAINT ALBANS","VT","05478"
221305,"47 BLACK ROCK TPKE","REDDING","CT","06896"
221306,"47 BON AIR DRIVE","MARLTON","NJ","08053"
221307,"47 BRANDT STREET","LITTLE FERRY","NJ","07643"
221308,"47 BRIARBROOK DRIVE","BRIARCLIFF MANOR","NY","10510"
221309,"47 BROWNSTONE RD","BERLIN","CT","06037"
221310,"47 BULL CREEK WEST","DAHLONEGA","GA","30533"
221311,"47 CARLTON PL","ASHEVILLE","NC","28806"
221312,"47 CEDAR ROAD","WATCHUNG","NJ","07069"
221313,"47 CHRISTOPHER STREET","CARTERET","NJ","07008"
221314,"47 CLARK STREET","NEW HAVEN","CT","06511"
221315,"47 CLEARPOINT LANE","STUTTGART","AR","72160"
221316,"47 COLONIAL ROAD","SUTTON","MA","01590"
221317,"47 COMMERCE DR","CRANBURY","NJ","08512"
221318,"47 CONCORD AVE","WHITE PLAINS","NY","10606"
221319,"47 CROSSWINDS DRIVE","MOULTONBOROUGH","NH","03254"
221320,"47 DAVENTRY HILL ROAD","A","CT","06001"
221321,"47 DOCK STREET","PLATTSBURGH","NY","12901"
221322,"47 DONNA DRIVE","PLYMOUTH","MA","02360"
221323,"47 DUTCH STREET","MONTROSE","NY","10548"
221324,"47 E HIGH ST","NEW FREEDOM","PA","17349"
221325,"47 EAGLE CREST DR UNIT 26","LAKE OSWEGO","OR","97035"
221326,"47 EAST BOULEVARD","GLOVERSVILLE","NY","12078"
221327,"47 EAST MARKET STREET","RHINEBECK","NY","12572"
221328,"47 EAST QUEENS WAY SUITE 204-F","HAMPTON","VA","23669"
221329,"47 ELLENWOOD AVENUE","LOS GATOS","CA","95030"
221330,"47 ELLIOT DRIVE","HICKSVILLE","NY","11801"
221331,"47 ELLWOOD PLACE","CHEEKTOWAGA","NY","14225"
221332,"47 EMENER AVENUE","EAST MORICHES","NY","11940"
221333,"47 ERNEST STREET","NUTLEY","NJ","07110"
221334,"47 ESSEX HEIGHTS DRIVE","WEYMOUTH","MA","02188"
221335,"47 EYLAND AVENUE","SUCCASUNNA","NJ","07876"
221336,"47 FAIR ACRES DRIVE","HANOVER","MA","02339"
221337,"47 FARRAGUT RD","BOSTON","MA","02127"
221338,"47 FIELDHOUSE","LADERA RANCH","CA","92694"
221339,"47 FIRST STREET","LYNBROOK","NY","11563"
221340,"47 FOLCROFT LANE","PALM COAST","FL","32137"
221341,"47 FOX ROAD SE","BOGUE CHITTO","MS","39629"
221342,"47 FOXTAIL LN","TRABUCO CANYON","CA","92679"
221343,"47 FREDRICK BLVD","SWEDESBORO","NJ","08085"
221344,"47 FULTON STREET APT 2","NEWARK","NJ","07102"
221345,"47 GILLETTE AVENUE","SAYVILLE","NY","11782"
221346,"47 GLEN DRIVE","PEABODY","MA","01960"
221347,"47 GRAND REGENCY","THE WOODLANDS","TX","77382"
221348,"47 GREENBRIAR DR","SUMMIT","NJ","07901"
221349,"47 GREENFIELD RD","CUMBERLAND","RI","02864"
221350,"47 GREYLYNNE DRIVE","PRINCETON","NJ","08540"
221351,"47 GROVE STREET","LYNNFIELD","MA","01940"
221352,"47 HALL STREET","POWELL","OH","43065"
221353,"47 HAWTHORNE CT NE","WASHINGTON","DC","20017"
221354,"47 HENDERSON STREET","BADIN","NC","28009"
221355,"47 HIGH CT","MANHASSET","NY","11030"
221356,"47 HIGH ST 473","MEDFORD","MA","02155"
221357,"47 HIGH STREET STE 444","MEDFORD","MA","02155"
221358,"47 HILLTOP LN","WHEATLEY HTS","NY","11798"
221359,"47 HOLLYWOOD AVENUE APT 2","ALBANY","NY","12208"
221360,"47 HORDS HILL RD","RUCKERSVILLE","VA","22968"
221361,"47 HOWELL ROAD","MOUNTAIN LAKES","NJ","07046"
221362,"47 HUDSON PLACE APT 2","WEEHAWKEN","NJ","07086"
221363,"47 HULFISH STREET   330","PRINCETON","NJ","08542"
221364,"47 INMAN STREET APT 12","CAMBRIDGE","MA","02139"
221365,"47 JACOBS WALK","LAKELAND","GA","31635"
221366,"47 JAN COURT","TERRYVILLE","CT","06786"
221367,"47 JAN LN","GEORGETOWN","TX","78626"
221368,"47 JEANNE BRENNAN DRIVE","FREEHOLD","NJ","07728"
221369,"47 KENSINGTON ST F","NEW HAVEN","CT","06511"
221370,"47 KILLIAN AVENUE","TRUMBULL","CT","06611"
221371,"47 KINCAID DRIVE","ROANOKE RAPIDS","NC","27870"
221372,"47 LAA ST","KAHULUI","HI","96732"
221373,"47 LAKE STREET","MIDDLETON","MA","01949"
221374,"47 LAWLER LANE","NORWICH","CT","06360"
221375,"47 LOCKLIER RD","HOMERVILLE","GA","31634"
221376,"47 LOGANS WAY","HOPEWELL JUNCTION","NY","12533"
221377,"47 LORRAINE AVE","PITTSBURG","CA","94565"
221378,"47 LYNNWOOD DRIVE","LONGMEADOW","MA","01106"
221379,"47 MAIN ST","LIBERTY","ME","04949"
221380,"47 MAPLE AVE SUITE 7","FLEMINGTON","NJ","08822"
221381,"47 MARY DAY","PONTIAC","MI","48341"
221382,"47 MAYER DRIVE","SUFFERN","NY","10901"
221383,"47 MCELHANNON ROAD","BETHLEHEM","GA","30620"
221384,"47 MCKEEVER PLACE 20C","BROOKLYN","NY","11225"
221385,"47 MCKEEVER PLACE ROOM 9F","BROOKLYN","NY","11225"
221386,"47 MCKEEVER PLACE","BROOKLYN","NY","11225"
221387,"47 MEADOW BLUFF RD","MORRIS PLAINS","NJ","07950"
221388,"47 MILLERS WAY","CRAWFORDVILLE","FL","32327"
221389,"47 MIMOSA DRIVE","JACKSON","TN","38301"
221390,"47 MONTEREY DR","VERNON HILLS","IL","60061"
221391,"47 MONTGOMERY STREET","CAMBRIDGE","MA","02140"
221392,"47 MOUNT ROCK RD","NEWVILLE","PA","17241"
221393,"47 MUD CREEK RD","FLETCHER","NC","28732"
221394,"47 MULLENS WY","RIVERSIDE","WA","98849"
221395,"47 MUSANO COURT","WEST ORANGE","NJ","07052"
221396,"47 N LAKE REEDY BLVD","FROSTPROOF","FL","33843"
221397,"47 N MAIN STREET","WASHINGTON","PA","15301"
221398,"47 N MENARD","CHICAGO","IL","60644"
221399,"47 N SAGINAW STREET","PONTIAC","MI","48342"
221400,"47 NELSON STREET","ROCHESTER","NY","14620"
221401,"47 NEW SCOTLAND AVE MS512","ALBANY","NY","12208"
221402,"47 NICOLE DRIVE","INDEPENDENCE","KY","41051"
221403,"47 NORTH FAIRGROUND ST SUITE 6","MARIETTA","GA","30060"
221404,"47 NORTH MAIN ST","WASHINGTON","PA","15301"
221405,"47 NORTH MAIN STREET","WASHINGTON","PA","15301"
221406,"47 NORTH STREET","WILLITS","CA","95490"
221407,"47 OCTAVIA STREET","SAN FRANCISCO","CA","94102"
221408,"47 OLEAN STREET","WORCESTER","MA","01602"
221409,"47 OLIVE ST","METHUEN","MA","01844"
221410,"47 OUACHITA DRIVE","MAUMELLE","AR","72113"
221411,"47 OVERLOOK ROAD","MARBLEHEAD","MA","01945"
221412,"47 OVERLOOK ROAD","WEST HAVERSTRAW","NY","10993"
221413,"47 PARK DRIVE","TOPSHAM","ME","04086"
221414,"47 PARK PL","RUSSELLVILLE","AR","72802"
221415,"47 PARK ST","FRUITPORT","MI","49415"
221416,"47 PAWNEE AVENUE","OAKLAND","NJ","07436"
221417,"47 PECK AVE","RIVERSIDE","RI","02915"
221418,"47 PINE CREEK AVENUE","FAIRFIELD","CT","06824"
221419,"47 PINE ST UNIT 1","SWAMPSCOTT","MA","01907"
221420,"47 PITTSFIELD AVE","PITTSFIELD","MA","01201"
221421,"47 PORTLAND ST SUITE 2","PORTLAND","ME","04101"
221422,"47 PROMINENT BLUFF COURT","HENDERSON","NV","89002"
221423,"47 PROSPECT AVE","HAMBURG","NY","14075"
221424,"47 QUINTANA DR","GALVESTON","TX","77554"
221425,"47 RAILROAD ST","MILFORD CENTER","OH","43045"
221426,"47 RAILROAD STREET","MILFORD CENTER","OH","43045"
221427,"47 RATTLESNAKE HILL ROAD","ANDOVER","MA","01810"
221428,"47 RAVENSWOOD WAY","SEWELL","NJ","08080"
221429,"47 REDWALL CIRCLE","SAVANNAH","GA","31407"
221430,"47 RENAULT AVE","MEDFORD","OR","97501"
221431,"47 RIVERDALE AVE A328","YONKERS","NY","10701"
221432,"47 ROSELYN TERRACE","SAN FRANCISCO","CA","94118"
221433,"47 ROXY AVE","EDISON","NJ","08820"
221434,"47 ROYAL ST","CHICOPEE","MA","01020"
221435,"47 S 1300 E","BURNETTSVILLE","IN","47926"
221436,"47 S MERIDIAN ST STE 200","INDIANAPOLIS","IN","46204"
221437,"47 S PENNSYLVANIA STR STE 500","INDIANAPOLIS","IN","46204"
221438,"47 SAMPLE AVE","JERSEY CITY","NJ","07506"
221439,"47 SAND ROAD","MORRISONVILLE","NY","12962"
221440,"47 SANDERSON ROAD","LEXINGTON","MA","02420"
221441,"47 SANFORD ST APT 1 PO BOX 5432","PAWTUCKET","RI","02860"
221442,"47 SAVIN PARK","WEST HAVEN","CT","06516"
221443,"47 SCHEID DRIVE","PARLIN","NJ","08859"
221444,"47 SE 1ST AVENUE","DANIA BEACH","FL","33004"
221445,"47 SHENIPSIT LAKE ROAD","TOLLAND","CT","06084"
221446,"47 SHIPPING PL","DUNDALK","MD","21222"
221447,"47 SIXTH STREET","PETALUMA","CA","94952"
221448,"47 SOUTH PAINT STREET","CHILLICOTHE","OH","45601"
221449,"47 SPRING STREET SOUTH","SOUTH SALEM","NY","10590"
221450,"47 ST PAUL AVE","JERSEY CITY","NJ","07306"
221451,"47 STANDISH ROAD","HILLSDALE","NJ","07642"
221452,"47 SUNRISE LOOP","HUNTSVILLE","TX","77320"
221453,"47 SUNSET BLVD","EDGEWOOD","NM","87015"
221454,"47 SURREY DR","EASTON","PA","18045"
221455,"47 SUSIE WILSON RD","ESSEX JUNCTION","VT","05452"
221456,"47 SYCAMORE ST","PATCHOGUE","NY","11772"
221457,"47 TAPPAN ST","KEARNY","NJ","07032"
221458,"47 TEAKWOOD DRIVE","SOUTHINGTON","CT","06489"
221459,"47 TERRY LANE","COXSACKIE","NY","12051"
221460,"47 THORNWOOD DR","PITTSBURGH","PA","15228"
221461,"47 TIMBERLINE DRIVE","LOST RIVER","WV","26810"
221462,"47 TULIPS ROAD","HOQUIAM","WA","98550"
221463,"47 TWIN BROOKS LANE","FAIRFIELD","CT","06824"
221464,"47 VALLEY LANE WEST","VALLEY STREAM","NY","11581"
221465,"47 VISTA DEL OCASO","RANCHOS DE TAOS","NM","87557"
221466,"47 W DIVISION   UNIT 229","CHICAGO","IL","60610"
221467,"47 W DIVISION SUITE 196","CHICAGO","IL","60610"
221468,"47 W DOYLE ST","TOCCOA","GA","30577"
221469,"47 W POLK ST  STE 100-530","CHICAGO","IL","60605"
221470,"47 W POLK ST STE 208","CHICAGO","IL","60605"
221471,"47 W POLK STR SUITE 100-203","CHICAGO","IL","60605"
221472,"47 WALNUT AVE","WHEELING","WV","26003"
221473,"47 WALTON AVENUE","LOCUST VALLEY","NY","11560"
221474,"47 WAVERLY STREET","BRIGHTON","MA","02135"
221475,"47 WEST 94TH STREET","NEW YORK","NY","10025"
221476,"47 WEST DIVISION STREET SUITE 159","CHICAGO","IL","60610"
221477,"47 WEST OAK HILL DRIVE","ELLISVILLE","MO","63021"
221478,"47 WEST POLK STREET STE 100-527","CHICAGO","IL","60605"
221479,"47 WEST SIDE AVE","HAGERSTOWN","MD","21740"
221480,"47 WEST STREET","NEWTOWN","CT","06470"
221481,"47 WESTHAVEN DRIVE","HATTIESBURG","MS","39402"
221482,"47 WILLOW RD","NAHANT","MA","01908"
221483,"47 WOODVILLE RD","MIDDLE ISLAND","NY","11953"
221484,"47 WYNDMERE WAY","WILLOW STREET","PA","17584"
221485,"47-06 49TH STREET APT 4E","WOODSIDE","NY","11377"
221486,"47-13 98TH STREET 1ST FLOOR","CORONA","NY","11368"
221487,"47-17 39TH STREET APT 16C","SUNNYSIDE","NY","11104"
221488,"47-172 MAPELE WAY","KANEOHE","HI","96744"
221489,"47-180 PULAMA PLACE","KANEOHE","HI","96744"
221490,"47-232C HUI AKIKIKI PL","KANEOHE","HI","96744"
221491,"47-28 216TH ST 2B","BAYSIDE","NY","11361"
221492,"47-29 194TH STREET","NEW YORK","NY","11358"
221493,"47-32 159TH STREET","FLUSHING","NY","11358"
221494,"47-425 HUI IO ST","KANEOHE","HI","96744"
221495,"47-430 HUI NENE STREET","KANEOHE","HI","96744"
221496,"47-455 HUI IWA STREET - 4","KANEOHE","HI","96744"
221497,"47-455 HUI IWA STREET APARTMENT 4","KANEOHE","HI","96744"
221498,"47-460 HUI KELU","KANEOHE","HI","96744"
221499,"47-470 HUI AEKO PLACE","KANEOHE","HI","96744"
221500,"47-509 WAIPUA PLACE","KANEOHE","HI","96744"
