"ID","Address","City","State","Zip"
70001,"1520 SAND HILL ROAD  SUITE 210","PALO ALTO","CA","94304"
70002,"1520 SAND WEDGE CIRCLE","CHESTERTON","IN","46304"
70003,"1520 SANSOM STREET","PHILADELPHIA","PA","19102"
70004,"1520 SEABOARD AVE","CHESAPEAKE","VA","23324"
70005,"1520 SIERRA DR","PETALUMA","CA","94954"
70006,"1520 SOUTH SHENANDOAH ST UNIT 303","LOS ANGELES","CA","90035"
70007,"1520 SOUTHWEST EXPY APT 434","SAN JOSE","CA","95126"
70008,"1520 SPRECKELS ST APT 306","HONOLULU","HI","96822"
70009,"1520 STEEPLECHASE DR","EASTON","PA","18040"
70010,"1520 THOMAS H DELPIT","BATON ROUGE","LA","60620"
70011,"1520 VERSAILLES ROAD","RUSSIA","OH","45363"
70012,"1520 W 8TH ST","ABERDEEN","WA","98520"
70013,"1520 W SELDON WAY","PHOENIX","AZ","85021"
70014,"1520 W WHITEROCK RD","BRAZIL","IN","47834"
70015,"1520 WARD AVE APT 902","HONOLULU","HI","96822"
70016,"1520 WELLINGTON ST","OAKLAND","CA","94602"
70017,"1520 WEST HAMPTON TRACE","BELLEVILLE","IL","62220"
70018,"1520 WEST MANOR LANE","RIVER HILLS","WI","52317"
70019,"1520 WEST MINERAL ROAD SUITE 102","TEMPE","AZ","85283"
70020,"1520 WHITNEY COURT","ST. CLOUD","MN","56303"
70021,"1520 WILLOWBROOKE MANORS COURT","SAINT LOUIS","MO","63146"
70022,"15200 52ND AVE S","TUKWILA","WA","98188"
70023,"15200 ANNAPOLIS ROAD","BOWIE","MD","20715"
70024,"15200 CLINTON STREET","BRIGHTON","CO","80602"
70025,"15200 DEER RUN ROAD","LOUISVILLE","KY","40299"
70026,"15200 EAST JEFFERSON SUITE 108 E","GROSSE POINTE PARK","MI","48230"
70027,"15200 MEADOW CREEK LN","OKLAHOMA CITY","OK","73165"
70028,"15200 MIDDLEBROOK DRIVE SUITE F","HOUSTON","TX","77058"
70029,"15200 WILSHIRE CIRCLE SOUTH","PEMBROKE PINES","FL","33027"
70030,"15201 MASON RD  SUITE 1000-106","CYPRESS","TX","77433"
70031,"15201 MASON RD SUITE 1000-106","CYPRESS","TX","77433"
70032,"15201 NE 6TH AVENUE APT C311","MIAMI","FL","33162"
70033,"15201 RUNNING ACES BLVD","COLUMBUS","MN","55025"
70034,"15201 S LAKE RIDGE WAY","OREGON CITY","OR","97045"
70035,"15201 W WARREN AVE","DEARBORN","MI","48126"
70036,"15201 WYCLIFFE CT","ROCKVILLE","MD","20853"
70037,"15202 BENFER RD","HOUSTON","TX","77069"
70038,"15202 DORCHESTER AVE","DOLTON","IL","60419"
70039,"15202 NW 147TH DR - STE 1200-250","ALACHUA","FL","32615"
70040,"15202 S 31ST ST","PHOENIX","AZ","85048"
70041,"15202 W AZALEA DR","ALEXANDER","AR","72002"
70042,"15202 WINGSTAR","SAN ANTONIO","TX","78253"
70043,"15203 MOCASSIN ST","LA PUENTE","CA","91744"
70044,"15203 RED BARN CT","BOWIE","MD","20715"
70045,"15203 SW 111TH STREET","MIAMI","FL","33196"
70046,"15204 OMEGA DRIVE SUITE 210","ROCKVILLE","MD","20850"
70047,"15205 BITTERROOT WAY","ROCKVILLE","MD","20853"
70048,"15205 CARDINAL NEST DR","EDMOND","OK","73013"
70049,"15205 DORCHESTER AVE","DOLTON","IL","60419"
70050,"15205 TRADITIONS LAKE PARKWAY","EDMOND","OK","73013"
70051,"15205 WACOUSTA ROAD","GRAND LEDGE","MI","48837"
70052,"15206 BARTLETT LANDING DR","CYPRESS","TX","77429"
70053,"15206 EAST END AVE","DOLTON","IL","60419"
70054,"15206 NW 89TH STREET","ALACHUA","FL","32615"
70055,"15207 21ST AVE E","BRADENTON","FL","34212"
70056,"15207 GATHERING COURT","CHARLOTTE","NC","28278"
70057,"15208 85TH DRIVE","JAMAICA","NY","11432"
70058,"15208 BAILEYS LANE","SILVER SPRING","MD","20906"
70059,"15208 MEGAN CIRCLE","OKLAHOMA CITY","OK","73170"
70060,"15208 W COLUMBINE DR","SURPRISE","AZ","85379"
70061,"15208 W WEAVER RD","SAND SPRINGS","OK","74063"
70062,"15209 CARROLTON RD","ROCKVILLE","MD","20853"
70063,"15209 PACEY COVE DRIVE","ORLANDO","FL","32824"
70064,"15209 SE 80TH STREET","NEWCASTLE","WA","98059"
70065,"1521 15TH AVE UNIT R","SEATTLE","WA","98122"
70066,"1521 16TH ST NW","WASHINGTON","DC","20036"
70067,"1521 16TH STREET","SANTA MONICA","CA","90404"
70068,"1521 17TH ST S APT 19","BIRMINGHAM","AL","35205"
70069,"1521 19TH STREET","GULFPORT","MS","39501"
70070,"1521 1ST STREET","BERTHOUD","CO","80513"
70071,"1521 215TH STREET FL 2","BAYSIDE","NY","11360"
70072,"1521 215TH STREET FL2","BAYSIDE","NY","11360"
70073,"1521 2ND AVE APT 2200","SEATTLE","WA","98101"
70074,"1521 3RD AVENUE SW","ALTOONA","IA","50009"
70075,"1521 4TH STREET","GLENARDEN","MD","20706"
70076,"1521 6TH ST E","ASHLAND","WI","54806"
70077,"1521 AKRON DR","SAINT LOUIS","MO","63137"
70078,"1521 ALTON RD 78","MIAMI BEACH","FL","33139"
70079,"1521 ALTON RD SUITE 529","MIAMI BEACH","FL","33139"
70080,"1521 ALTON RD SUITE 702","MIAMI BEACH","MD","33139"
70081,"1521 ALTON ROAD  SUITE 322","MIAMI BEACH","FL","33139"
70082,"1521 ALTON ROAD 868","MIAMI BEACH","FL","33139"
70083,"1521 ALTON ROAD SUITE 409","MIAMI BEACH","FL","33139"
70084,"1521 AND A HALF SOUTH REDONDO BLVD","LOS ANGELES","CA","90019"
70085,"1521 AUDUBON PARC DR","CARY","NC","27518"
70086,"1521 BATSON DR","MT PLEASANT","MI","48858"
70087,"1521 BEELER AVENUE","JEFFERSON CITY","TN","37760"
70088,"1521 CALIFORNIA CIRCLE","MILPITAS","CA","95035"
70089,"1521 CAPE COD ST","DAVIS","CA","95616"
70090,"1521 CEDAR HILL ROAD","LOWER GWYNEDD","PA","19002"
70091,"1521 CELLA","MEMPHIS","TN","38114"
70092,"1521 CHELSEA DOWNS DRIVE","CONYERS","GA","30013"
70093,"1521 CIRCLE DRIVE","VINTON","IA","52349"
70094,"1521 CONCORD PIKE - 303","WILMINGTON","DE","19803"
70095,"1521 CONCORD PIKE 303","WILMINGTON","DE","19803"
70096,"1521 CONCORD PIKE STE 301","WILMINGTON","DE","19803"
70097,"1521 CONCORD PIKE STE 303","WILMINGTON","DE","19803"
70098,"1521 CONCORD PIKE STE 303","WILMINGTON","NY","19803"
70099,"1521 CONCORD PIKE SUITE 303","WILMINGTON","DE","19803"
70100,"1521 CRESTMARK BLVD","LITHIA SPRINGS","GA","30122"
70101,"1521 E MCFADDEN AVE STE B","SANTA ANA","CA","92705"
70102,"1521 E STEELE ST","LARAMIE","WY","82070"
70103,"1521 EASTRIDGE CT   NE","ALBUQUERQUE","NM","87112"
70104,"1521 GERALD AVE","MISSOULA","MT","59801"
70105,"1521 GLENWOOD DR","UKIAH","CA","95482"
70106,"1521 GRADUATE LANE APT 102","RALEIGH","NC","27606"
70107,"1521 HANCOCK ROAD","CROSSETT","AR","71635"
70108,"1521 HYATT AVE","COLUMBIA","SC","29203"
70109,"1521 I STREET","SACARMENTO","CA","95814"
70110,"1521 KNUDSON CT","HENDERSON","NV","89002"
70111,"1521 LATHAM ST","COLTON","CA","92324"
70112,"1521 LAURENS ROAD STE 17481","GREENVILLE","SC","29606"
70113,"1521 LOCUST STREET 9TH FLOOR","PHILADELPHIA","PA","19102"
70114,"1521 MARTIN LUTHER KING JR BLVD","BRUNSWICK","GA","31520"
70115,"1521 MARTIN LUTHER KING","BRUNSWICK","GA","31520"
70116,"1521 MERRYVALE COURT","LEWISVILLE","TX","75067"
70117,"1521 MORNINGSIDE AVE","DULUTH","MN","55803"
70118,"1521 MOUNT MITCHELL CT","ANTIOCH","TN","37013"
70119,"1521 N COOPER ST SUITE 209","ARLINGTON","TX","76011"
70120,"1521 N ILLINOIS STREET","SOUTH BEND","IN","46628"
70121,"1521 NE 124TH ST","NORTH MIAMI","FL","33161"
70122,"1521 NEW FORD RD","SEYMOUR","IN","47274"
70123,"1521 NW 34TH ST","GAINESVILLE","FL","32605"
70124,"1521 NW 34TH ST","OKLAHOMA CITY","OK","73118"
70125,"1521 PEARL ST","DUNCAN","OK","73533"
70126,"1521 RAINY BROOK","SCHERTZ","TX","78154"
70127,"1521 RIALTO ST","OXNARD","CA","93035"
70128,"1521 RITCHIE HIGHWAY PO BOX 894","ARNOLD","MD","21012"
70129,"1521 S 7TH STREET","LOS BANOS","CA","93635"
70130,"1521 SEARS ROEBUCK RD","TULLAHOMA","TN","37388"
70131,"1521 SEGOVIA CIR","VERO BEACH","FL","32966"
70132,"1521 SEVILLE DRIVE","NEW ORLEANS","LA","70122"
70133,"1521 SILVER MAPLE DRIVE","DE PERE","WI","54115"
70134,"1521 SOUTH 40TH STREET","KANSAS CITY","KS","66106"
70135,"1521 SPRINGSHIRE COURT","RALEIGH","NC","27610"
70136,"1521 SW 122ND STREET","OKLAHOMA CITY","OK","73170"
70137,"1521 THIRD STREET","EUREKA","CA","95501"
70138,"1521 THUNDERWOOD LANE NW","MABLETON","GA","30126"
70139,"1521 TURRIFF WAY","SAN JOSE","CA","95132"
70140,"1521 VALLEY RUN","DURHAM","NC","27707"
70141,"1521 VRGINIA STREET","MOBILE","AL","36604"
70142,"1521 W RIVER SHORE WAY","TAMPA","FL","33603"
70143,"1521 WATERWHEEL DR 7","SACRAMENTO","CA","95833"
70144,"15210 MESA RED CT","CYPRESS","TX","77433"
70145,"15211 71ST ST NW","GRENORA","ND","58845"
70146,"15211 CREVAUX DR","CHARLOTTE","NC","28278"
70147,"15211 N RIVER BEACH DRIVE","CHILLICOTHE","IL","61523"
70148,"15211 VANOWEN ST SUITE 204","VAN NUYS","CA","91405"
70149,"15212 E MELANIE DR","SCOTTSDALE","AZ","85262"
70150,"15212 HALL RD","KING GEORGE","VA","22485"
70151,"15212 NE 16TH PL UNIT 37","BELLEVUE","WA","98007"
70152,"15213 PIONEER BLVD","NORWALK","CA","09650"
70153,"15214 80TH DR N","WEST PALM BEACH","FL","33418"
70154,"15214 DALEBROOK DRIVE","BOWIE","MD","20721"
70155,"15214 SUNSET GROVE","SAN ANTONIO","TX","78247"
70156,"15214 WAYSIDE OAKS","SAN ANTONIO","TX","78232"
70157,"15215 ADDICKS STONE DR UNIT A","HOUSTON","TX","77082"
70158,"15215 AMBERLY DRIVE UNIT 205","TAMPA","FL","33647"
70159,"15215 AULLCIN CT","CHARLOTTE","NC","28278"
70160,"15215 NEW HAMPSHIRE","SILVER SPRING","MD","20905"
70161,"15215 S 48TH STREET SUITE 139","PHOENIX","AZ","85044"
70162,"15216 85TH AVE N","WEST PALM BEACH","FL","33418"
70163,"15216 BAREBACK DR","JACKSONVILLE","FL","32234"
70164,"15216 GOLDEN RAIN DRIVE","CHESTERFIELD","MO","63017"
70165,"15216 GROVE RD","PORT WASHINGTON","OH","43837"
70166,"15216 ROCKPORT DR","SILVER SPRING","MD","20905"
70167,"15217 CARLI COURT","CRITTENDEN","KY","41030"
70168,"15217 GRANT ST","OVERLAND PARK","KS","66221"
70169,"15217 LAKE BREEZE CIR","LAKE ELSINORE","CA","92530"
70170,"15217 N BERWICK LN","UPPER MARLBORO","MD","20774"
70171,"15217 PEBBLE FALLS","SAN ANTONIO","TX","77232"
70172,"15218 CAROL CHASE CIRCLE","MISSOURI CITY","TX","77489"
70173,"15218 FARMINGTON ROAD","LIVONIA","MI","48154"
70174,"15218 SUMMIT AVE 300-425","FONTANA","CA","92336"
70175,"15218 SUMMIT AVENUE STE 300-723","FONTANA","CA","92336"
70176,"15218 SUMMIT AVENUE SUITE 300 SPACE","FONTANA","CA","92336"
70177,"15218 SUMMITT AVENUE 300-532","FONTANA","CA","92336"
70178,"15219 CARVER CT","WATERFORD","VA","20197"
70179,"15219 PLAZA LIBRE","HOUSTON","TX","77083"
70180,"15219 REEDS ST","OVERLAND PARK","KS","66223"
70181,"1522 55TH STREET","BROOKLYN","NY","11219"
70182,"1522 BOLLING AVENUE","NORFOLK","VA","23508"
70183,"1522 BOULDER AVE","ONTARIO","CA","91762"
70184,"1522 BRIGHTON ROAD","PITTSBURGH","PA","15212"
70185,"1522 CAMINO CERRADO","SAN JOSE","CA","95128"
70186,"1522 CONSTITUTION BLVD 142","SALINAS","CA","93906"
70187,"1522 CONSTITUTION BLVD BOX 222","SALINAS","CA","93905"
70188,"1522 CORDOVA ST","POMONA","CA","91767"
70189,"1522 E 126TH ST","COMPTON","CA","90222"
70190,"1522 E HINSDALE AVE","DECATUR","IL","62526"
70191,"1522 E RUTHERFORD ST","LANDRUM","SC","29356"
70192,"1522 GREEN MEADOW DR","LUTZ","FL","33549"
70193,"1522 H STREET","MODESTO","CA","95354"
70194,"1522 HAVEN CREST DRIVE","POWDER SPRINGS","GA","30127"
70195,"1522 HORSECREEK ROAD","GALENA","MO","65656"
70196,"1522 MARSHALL DR","DUNCANVILLE","TX","75137"
70197,"1522 MEDITERRANEAN AVE","ATLANTIC CITY","NJ","08401"
70198,"1522 NAUTILUS STREET","LA JOLLA","CA","92037"
70199,"1522 OMEGA AVE","DAYTON","OH","45406"
70200,"1522 ORANGE ST","MOBILE","AL","36605"
70201,"1522 PARKMONT DRIVE","SAN JOSE","CA","95131"
70202,"1522 POPPYBANK COURT","PLEASANTON","CA","94566"
70203,"1522 REDBIRD DRIVE","ROCKPORT","TX","78382"
70204,"1522 S 1700 E","SPANISH FORK","UT","84660"
70205,"1522 SCHAFER AVE","BOLINGBROOK","IL","60490"
70206,"1522 SOUTH 500 EAST","SALT LAKE CITY","UT","84105"
70207,"1522 SOUTH WASHINGTON STREET","NEW ULM","MN","56073"
70208,"1522 SPENCE STREET","GREEN BAY","WI","54304"
70209,"1522 SW 7TH CIRCLE","CAMAS","WA","98607"
70210,"1522 TENNIS CLUB ROAD","CHARLESTON","WV","25314"
70211,"1522 URSULINE","NEW ORLEANS","LA","70116"
70212,"1522 VISTA CLUB CIR APT 203","SANTA CLARA","CA","95054"
70213,"1522 W SUNNYSIDE AVE APT 1WS","CHICAGO","IL","60640"
70214,"1522 WATERFALL WAY","ELSMERE","KY","41018"
70215,"15220 LEGENDARY DRIVE","MORENO VALLEY","CA","92555"
70216,"15220 N 27TH ST","PHOENIX","AZ","85032"
70217,"15220 NE 15TH PL APT D","BELLEVUE","WA","98007"
70218,"15220 NE 15TH PL UNIT D","BELLEVUE","WA","98007"
70219,"15220 OAK RIDGE WAY","LOS GATOS","CA","95030"
70220,"15220 SAN MORITZ DRIVE","PINE MOUNTAIN CLUB","CA","93222"
70221,"15220 SW 139 STREET","MIAMI","FL","33196"
70222,"15221 COLFAX ST","LOWELL","IN","46356"
70223,"15221 MAGNOLIA BLVD UNIT E","SHERMAN OAKS","CA","91403"
70224,"15221 S MILLER RD","LONE JACK","MO","64070"
70225,"15221 SW 46TH CT","MIRAMAR","FL","33027"
70226,"15222 1-4 DICKENS ST","SHERMAN OAKS","CA","91403"
70227,"15222 MILL POND RD","TAVARES","FL","32778"
70228,"15222 SE WOODLAND WY","MILWAUKIE","OR","97267"
70229,"15222 SW FIRTREE DR","TIGARD","OR","97223"
70230,"15224 E STRATFORD ST","WICHITA","KS","67230"
70231,"15224 EASTWOOD AVENUE","LAWNDALE","CA","90260"
70232,"15224 N 6TH CIRCLE","PHOENIX","AZ","85023"
70233,"15224 SHIAWASSEE DRIVE","BYRON","MI","48418"
70234,"15224 W 82ND TERRACE","LENEXA","KS","66219"
70235,"15225 DICKENS ST 3","SHERMANOAKS","CA","91403"
70236,"15225 HELIUM STREET NW","RAMSEY","MN","55303"
70237,"15225 LUCKNOW AVENUE","CLEVELAND","OH","44110"
70238,"15225 VILLAGE DR UNIT A","HAMMOND","LA","70403"
70239,"15226 DOBBS AVE","BAKERSFIELD","CA","93314"
70240,"15226 SUPERIOR ST","CHARLOTTE","NC","28273"
70241,"15226 WINCHESTER AVE","HARVEY","IL","60426"
70242,"15227 OLD RICHMOND RD","SUGAR LAND","TX","77498"
70243,"15229 MEMORIAL CIRCLE","PANAMA CITY","FL","32413"
70244,"15229 RED CANOE WAY","CHARLOTTE","NC","28278"
70245,"1522B EUCALYPTUS HILL ROAD","SANTA BARBARA","CA","93103"
70246,"1523 132ND ST SE  SUITE C  NO 409","EVERETT","WA","98208"
70247,"1523 132ND ST SE STE C 302","EVERETT","WA","98208"
70248,"1523 132ND ST SE STE C 424","EVERETT","WA","98208"
70249,"1523 132ND ST SE STE C350","EVERETT","WA","98208"
70250,"1523 132ND STREET SE - C112","EVERETT","WA","98208"
70251,"1523 29TH AVENUE NORTH","ST CLOUD","MN","56303"
70252,"1523 4TH AVENUE","LAKE CHARLES","LA","70601"
70253,"1523 5TH AVENUE SOUTH","ANOKA","MN","55303"
70254,"1523 BOULEVARD PLACE","DULUTH","MN","55811"
70255,"1523 CHAFFEE ROAD S UNIT 15","JACKSONVILLE","FL","32221"
70256,"1523 CHESAPEAKE AVE 10","COLUMBUS","OH","43212"
70257,"1523 CORDGRASS WAY","LAKELAND","FL","33813"
70258,"1523 DAVIS AVE","PITTSBURGH","PA","15212"
70259,"1523 E ERWIN STREET","TYLER","TX","75702"
70260,"1523 E PARK CREEK RD","FALL CREEK","WI","54742"
70261,"1523 EAST HILLSBORO BVD APT 434","DEERFIELD BEACH","FL","33441"
70262,"1523 ELIZABETH AVE SUITE 200","CHARLOTTE","NC","28204"
70263,"1523 ELIZABETH AVENUE SUITE 200","CHARLOTTE","NC","28204"
70264,"1523 FAIRWAY DR","RANTOUL","IL","61866"
70265,"1523 FINLEY STREET","CEDAR HILL","TX","75104"
70266,"1523 GULF BEACH HWY LOT 13","PENSACOLA","FL","32507"
70267,"1523 HIGHWAY 178 WEST","MIDWAY","AR","72651"
70268,"1523 LINDLEY AVENUE","PHILADELPHIA","PA","19141"
70269,"1523 MADISON ST","MADISON","WI","53711"
70270,"1523 MALCOLM AVE","LOS ANGELES","CA","90024"
70271,"1523 N SHERIDAN RD","WAUKEGAN","IL","60085"
70272,"1523 NICOLLET AVENUE","MINNEAPOLIS","MN","55403"
70273,"1523 NORTHAMPTON RD","KALAMAZOO","MI","49006"
70274,"1523 NORTHLAND AVE","LAKEWOOD","OH","44107"
70275,"1523 PATRICIA STREET","KEY WEST","FL","33040"
70276,"1523 PRIPET WOOD LN","ISLESBORO","ME","04848"
70277,"1523 ROSEDALE STREET","FLORENCE","SC","29501"
70278,"1523 ROSWELL RD UNIT 324","MARIETTA","GA","30062"
70279,"1523 ROSWELL ROAD 229","MARIETTA","GA","30062"
70280,"1523 RUGBY BLVD NW","ROANOKE","VA","24017"
70281,"1523 SALISBURY DRIVE","BATON ROUGE","LA","70816"
70282,"1523 SEQUOYAH ACCESS ROAD","SODDY DAISY","TN","37379"
70283,"1523 SR 13","FRUIT COVE","FL","32259"
70284,"1523 STONEHEDGE BEND DRIVE","HOUSTON","TX","77073"
70285,"1523 SUMMERSIDE DRIVE","ALLEN","TX","75002"
70286,"1523 SW 2CT","HOMESTEAD","FL","33030"
70287,"1523 TOWN CENTER DRIVE","LAKELAND","FL","33803"
70288,"1523 W EDGEWATER 1W","CHICAGO","IL","60660"
70289,"1523 W GALENA BLVD","AURORA","IL","60506"
70290,"1523 W LUNT","CHICAGO","IL","60626"
70291,"1523 W SEYBERT ST","PHILADELPHIA","PA","19121"
70292,"1523 WEBSTER AVE","ST LOUIS","MO","63106"
70293,"1523 WEST 66TH AVENUE","PHILADELPHIA","PA","19126"
70294,"1523 YALE AVE","RICHMOND","VA","23224"
70295,"15230 BIRMINGHAM HIGHWAY","ALPHARETTA","GA","30004"
70296,"15230 HARROWGATE ROAD","CHESTER","VA","23831"
70297,"15230 SW 108TH AVE","MIAMI","FL","33157"
70298,"15230 SW 31ST LANE","MIAMI","FL","33185"
70299,"15231 HOLCOMB CIR","CLIVE","IA","50235"
70300,"15231 SE SHALE DR","DAMASCUS","OR","97089"
70301,"15231 WESTERN SKIES DR","HOUSTON","TX","77086"
70302,"15233 CEDAR RIDGE","HOUSTON","TX","77082"
70303,"15233 SE 57TH ST","CHOCTAW","OK","73020"
70304,"15233 VENTURA BLVD  STE 1210","SHERMAN OAKS","CA","91403"
70305,"15233 VENTURA BLVD STE 1004","SHERMAN OAKS","CA","91403"
70306,"15233 VENTURA BLVD STE 1210","SHERMAN OAKS","CA","91403"
70307,"15233 VENTURA BLVD SUITE 100","SHERMAN OAKS","CA","91403"
70308,"15233 VENTURA BLVD SUITE 1210","SHERMAN OAKS","CA","91403"
70309,"15233 VENTURA BVLD SUITE 1210","SHERMAN OAKS","CA","91403"
70310,"15234 BULL RUN DR","FRISCO","TX","75035"
70311,"15234 NORTHGATE APT 303","OAK PARK","MI","48237"
70312,"15234 PROSPECT ST","DEARBORN","MI","48126"
70313,"15234 RAYEN ST","NORTH HILLS","CA","91343"
70314,"15236 NORTH 21ST STREET","PHOENIX","AZ","85022"
70315,"15238 OAK SPRING ST","SAN ANTONIO","TX","78232"
70316,"15238 TORBAY WAY","WOODBRIDGE","VA","22191"
70317,"15239 87TH STREET N","LOXAHATCHEE","FL","33470"
70318,"15239 S LAKE RIDGE WAY","OREGON CITY","OR","97045"
70319,"1524 ALVAR STREET","NEW ORLEANS","LA","70117"
70320,"1524 AUDREY DR","ROYSE CITY","TX","75189"
70321,"1524 BENBOW STREET","WINSTON SALEM","NC","27106"
70322,"1524 BLACK WALNUT COURT","NAPERVILLE","IL","60565"
70323,"1524 BRIDGEVIEW DRIVE","SAN DIEGO","CA","92105"
70324,"1524 COHASSETT AVE","LAKEWOOD","OH","44107"
70325,"1524 CONE AVE","APEX","NC","27502"
70326,"1524 DARIEN CLUB DR","DARIEN","IL","60561"
70327,"1524 E 23RD ST","BROOKLYN","NY","11210"
70328,"1524 E PRIMROSE ST STE A","SPRINGFIELD","MO","65804"
70329,"1524 EAST DRIVE","BARTLESVILLE","OK","74006"
70330,"1524 EDGEWOOD AVENUE","ABINGTON","PA","19001"
70331,"1524 FAIRCHILD DR","HARRISON","OH","45030"
70332,"1524 GEORGETOWN RD","BLOOMFIELD HILLS","MI","48304"
70333,"1524 HANNAH WAY","EAST WENATCHEE","WA","98802"
70334,"1524 HOLLYWOOD BLVD NE","CEDAR RAPIDS","IA","52402"
70335,"1524 HOUCK ROAD","PERY","FL","32348"
70336,"1524 INGLESIDE AVENUE","PERRYVILLE","MD","21903"
70337,"1524 LAKE DRIVE WEST","OKEECHOBEE","FL","34974"
70338,"1524 MAGNOLIA ST","NORMAN","OK","73072"
70339,"1524 MEMORIAL DRIVE","STURGEON BAY","WI","54235"
70340,"1524 MORGAN AVENUE N","MINNEAPOLIS","MN","55411"
70341,"1524 MULFORD STREET","EVANSTON","IL","60202"
70342,"1524 N 18TH AVENUE","PHOENIX","AZ","85007"
70343,"1524 N 85TH CT","KANSAS CITY","KS","66112"
70344,"1524 N DEARBORN PARKWAY","CHICAGO","IL","60610"
70345,"1524 NORTH LECLAIRE","CHICAGO","IL","60651"
70346,"1524 NORTHBOURNE ROAD","BALTIMORE","MD","21239"
70347,"1524 NORTHLAND ST","DALLAS","TX","75006"
70348,"1524 NUTHATCH LANE","SUNNYVALE","CA","94087"
70349,"1524 OVERING STREET SUITE B","BRONX","NY","10461"
70350,"1524 PEARL AVE 32","JEFFERSON CITY","TN","37760"
70351,"1524 PORT STREET","NEW ORLEANS","LA","70117"
70352,"1524 RIVERSIDE DRIVE","NORTH TAZEWELL","VA","24630"
70353,"1524 S 174 CIRCLE","OMAHA","NE","68130"
70354,"1524 S GOLD ST","CENTRALIA","WA","98531"
70355,"1524 SHADES CREST ROAD","BIRMINGHAM","AL","35226"
70356,"1524 SHEEPSHEAD BAY ROAD APT 24E","BROOKLYN","NY","11235"
70357,"1524 SOUTH LOCUST AVENUE","FREEPORT","IL","61032"
70358,"1524 THOMAS RD","CANTON","GA","30115"
70359,"1524 VIA OTANO","OCEANSIDE","CA","92056"
70360,"1524 VILLAGE GREEN DRIVE","LANDOVER","MD","20785"
70361,"1524 WEST 57TH STREET","LOS ANGELES","CA","90062"
70362,"1524 WEST AVENUE H11","LANCASTER","CA","93534"
70363,"1524 WESTMINSTER DRIVE","COLUMBIA","SC","29204"
70364,"1524 WILLOW PL","WASCO","CA","93280"
70365,"1524-VIRGILS WAY","GREEN COVE SPRINGS","FL","32043"
70366,"15240 LAKEVIEW AVE","CLEARLAKE","CA","95422"
70367,"15240 OLD GALVESTON ROAD APT 900","HOUSTON","TX","77034"
70368,"15240 PHEASANT RUN","SOUTHGATE","MI","48195"
70369,"15240 W KRAHN CT","NEW BERLIN","WI","53151"
70370,"15241 CHRISTANNA HWY","LAWRENCEVILLE","VA","23868"
70371,"15241 S 30TH ST","PHOENIX","AZ","85048"
70372,"15242 BLACKHAWK ST","MISSION HILLS","CA","91345"
70373,"15242 HASTINGS DR","DOLTON","IL","60419"
70374,"15242 LAWRENCE 2225","VERONA","MO","65769"
70375,"15242B 4500 S RD","PEMBROKE TOWNSHIP","IL","60958"
70376,"15243 SW 157 TER","MIAMI","FL","33186"
70377,"15245 MILITARY TRAIL","JUPITER","FL","33458"
70378,"15247 HONORE AVE","HARVEY","IL","60426"
70379,"15247 N 36TH ST","PHOENIX","AZ","85032"
70380,"15247 RIO PLAZA DR","HOUSTON","TX","77083"
70381,"1525 25TH ST SE","WASHINGTON","DC","20020"
70382,"1525 31ST ST N","BIRMINGHAM","AL","35234"
70383,"1525 3RD WEST","KEMMERER","WY","83101"
70384,"1525 6TH STREET","WAYNESBURG","PA","15370"
70385,"1525 ARKANSAS LANE","GRAND PRAIRIE","TX","75052"
70386,"1525 BALLARD PARK DRIVE","BRADENTON","FL","34205"
70387,"1525 BLUES LANE","NORTH LAS VEGAS","NV","89081"
70388,"1525 BONITA VISTA DRIVE","SAN BERNARDINO","CA","92404"
70389,"1525 BULL ST","AUBREY","TX","76227"
70390,"1525 CELIA DR","WICHITA FALLS","TX","76302"
70391,"1525 CIRCLESTONE DRIVE","STONE MOUNTAIN","GA","30088"
70392,"1525 CLAPTON DRIVE","DELAND","FL","32720"
70393,"1525 CONCORD CIRCLE","COLLEGE STATION","TX","77845"
70394,"1525 CRESPI DRIVE","SAN JOSE","CA","95129"
70395,"1525 DORIS DR","MESQUITE","TX","75149"
70396,"1525 E 2ND STREET","LONG BEACH","CA","90802"
70397,"1525 E 53RD ST","CHICAGO","IL","60615"
70398,"1525 E 53RD STREET    SUITE 431","CHICAGO","IL","60615"
70399,"1525 E 53RD STREET SUITE 411","CHICAGO","IL","60615"
70400,"1525 E 53RD STREET SUITE 439","CHICAGO","IL","60615"
70401,"1525 E 53RD STREET","CHICAGO","IL","60615"
70402,"1525 E NOBLE AVE 298","VISALIA","CA","93292"
70403,"1525 E WHEELER RD","MOSES LAKE","WA","98837"
70404,"1525 EAST 55TH STREET 205","CHICAGO","IL","60615"
70405,"1525 EAST GUN HILL ROAD UNIT 355","BRONX","NY","10469"
70406,"1525 ELLIS MILL RD","MONROEVILLE","NJ","08343"
70407,"1525 FORTUNE RETAIL COURT","KISSIMMEE","FL","34744"
70408,"1525 GROVE RIDGE APT 204","MEMPHIS","TN","38138"
70409,"1525 HEECHEE NENE","TALLAHASSEE","FL","32301"
70410,"1525 KAUTZ ROAD STE 1000","WEST CHICAGO","IL","60185"
70411,"1525 KILBURN AVENUE","ROCKFORD","IL","61101"
70412,"1525 LA QUINTA CIRCLE","UPLAND","CA","91784"
70413,"1525 LLOYD STREET","SAVANNAH","GA","31405"
70414,"1525 LOWER HECKMAN ROAD","MCKEESPORT","PA","15131"
70415,"1525 MONTANA AVENUE NE","WASHINGTON","DC","20018"
70416,"1525 N BANNING","MESA","AZ","85205"
70417,"1525 N CARLYLE AVE","TYLER","TX","75702"
70418,"1525 N CROSS ST","DOVER","OH","44622"
70419,"1525 N GOEBEL AVE","TUCSON","AZ","85715"
70420,"1525 N LIBERTY ST","JACKSONVILLE","FL","32206"
70421,"1525 N PLEASANT AVE 101","FRESNO","CA","93728"
70422,"1525 NORTH FLAGLER DRIVE SUITE100","WEST PALM BEACH","FL","33401"
70423,"1525 NORTH LARRABEE STREET","CHICAGO","IL","60610"
70424,"1525 NORTHPORT DRIVE","MADISON","WI","53704"
70425,"1525 PARK MANNOR BLVD STE 254","PITTSBURG","PA","15205"
70426,"1525 PARK MANOR BLVD - 307","PITTSBURGH","PA","15205"
70427,"1525 PARK MANOR BLVD","PITTSBURGH","PA","15205"
70428,"1525 PLACENTIA AVENUE APT B2","NEWPORT BEACH","CA","92663"
70429,"1525 POINSETTIA DRIVE","METAIRIE","LA","70005"
70430,"1525 PROSPERITY FARMS ROAD","LAKE PARK","FL","33403"
70431,"1525 RAMPART WAY","BRENTWOOD","CA","94513"
70432,"1525 RAMSON COURT","RALEIGH","NC","27603"
70433,"1525 RIVER REACH DR 228","ORLANDO","FL","32828"
70434,"1525 S HARRISON RD","HOUGHTON LAKE","MI","48629"
70435,"1525 S HIGLEY ROAD STE 104","GILBERT","AZ","85296"
70436,"1525 S MICHIGAN AVE 313","CHICAGO","IL","60605"
70437,"1525 S SAGINAW STREET","FLINT","MI","48503"
70438,"1525 SAINT ROSE AVENUE","BATON ROUGE","LA","70808"
70439,"1525 SEEGAR ST","DALLAS","TX","75215"
70440,"1525 SENECA LANE","SAN MATEO","CA","94402"
70441,"1525 SHORB AVE NW","CANTON","OH","44703"
70442,"1525 SONOMA BOULEVARD","VALLEJO","CA","94590"
70443,"1525 SOUTH KIMBROUGH AVENUE","SPRINGFIELD","MO","65807"
70444,"1525 SOUTH MISSOURI AVENUE","SPRINGFIELD","MO","65807"
70445,"1525 SOUTHWOOD DR","HUNTSVILLE","TX","77340"
70446,"1525 SPICED WINE AVE UNIT 5101","HENDERSON","NV","89074"
70447,"1525 SPRUCE STREET  SUITE 102","BOULDER","CO","80302"
70448,"1525 SUNFLOWER DR","SYCAMORE","IL","60178"
70449,"1525 VAN BUREN ST","STOUGHTON","WI","53589"
70450,"1525 W BRIDGE ST","NEW BRAUNFELS","TX","78130"
70451,"1525 W MOCKINGBIRD LN","DALLAS","TX","75235"
70452,"1525 WALNUT LEAF DRIVE UNIT 112","WALNUT","CA","91789"
70453,"1525 WEST 2960 SOUTH","LOGAN","UT","84321"
70454,"1525 WEST OLNEY","PHILADELPHIA","PA","19141"
70455,"1525 WEST PORTER STREET","PHILADELPHIA","PA","19145"
70456,"1525 WEST ST","OAKLAND","CA","94612"
70457,"1525 WHITE OAK COURT","FRANKIN","IN","46131"
70458,"1525 WILWOOD CIRCLE","RAYMORE","MO","64083"
70459,"15250 HILLCROFT AVE","MISSOURI CITY","TX","77489"
70460,"15250 LINDEN CT","BONNER SPRINGS","KS","66012"
70461,"15250 PARK ST","OAK PARK","MI","48237"
70462,"15250 ROLATER RD","FRISCO","TX","75035"
70463,"15250 ROLATER ROAD","FRISCO","TX","75035"
70464,"15250 ROLATOR ROAD","FRISCO","TX","75035"
70465,"15250 S HURON RIVER DR","ROMULUS","MI","48174"
70466,"15250 SIESTA KEY WAY APT 538","ROCKVILLE","MD","20850"
70467,"15250 SUGAR BOWL RD","MYAKKA CITY","FL","34251"
70468,"15250 SW 108 AVENUE","MIAMI","FL","33157"
70469,"15250 SW 49 STREET","DAVIE","FL","33331"
70470,"15250 VENTURA BOULEVARD SUITE 1220","SHERMAN OAKS","CA","91403"
70471,"15251 NORDHOFF ST APT 207","NORTH HILLS","CA","91343"
70472,"15251 SIESTA KEY WAY APT 376","ROCKVILLE","MD","20850"
70473,"15251 SW 18TH LANE","MIAMI","FL","33185"
70474,"15252 105TH ST","ALDEN","IA","50006"
70475,"15252 N 100TH ST UNIT 1146","SCOTTSDALE","AZ","85260"
70476,"15252 US HWY 11","TRENTON","GA","30752"
70477,"15253 SLEEPY RIVER WAY","VON ORMY","TX","78073"
70478,"15254 CAMPINA LANE","LA MIRADA","CA","90638"
70479,"15255 CHINCOTEAGUE CT","WOODBRIDGE","VA","22193"
70480,"15255 ELM ROCK ROAD","NELSONVILLE","OH","45764"
70481,"15255 NW 137TH CT","PLATTE CITY","MO","64079"
70482,"15255 S 94TH STE 500","ORLAND PARK","IL","60462"
70483,"15255 SW SWAN CT","BEAVERTON","OR","97007"
70484,"15256 SW 176TH TER","MIAMI","FL","33187"
70485,"15257 SADDLEBACK ROAD","CANYON COUNTRY","CA","91387"
70486,"15259 160TH PL SE","RENTON","WA","98058"
70487,"1526 10TH ST","WYANDOTTE","MI","48192"
70488,"1526 17TH STREET NW APT 402","WASHINGTON","DC","20036"
70489,"1526 51ST ST","BROOKLYN","NY","11219"
70490,"1526 ADELINE STREET","OAKLAND","CA","94607"
70491,"1526 BELLAIRE BLVD","LEWISVILLE","TX","75067"
70492,"1526 BEXHILL DRIVE","KNOXVILLE","TN","37922"
70493,"1526 BRECON DRIVE","JACKSON","MS","39211"
70494,"1526 BURNWOOD RD","BALTIMORE","MD","21239"
70495,"1526 BUSH ROAD","COCHRANVILLE","PA","19330"
70496,"1526 CAREY DRIVE","GROVE","OK","74344"
70497,"1526 CENTRAL AVE","WILMETTE","IL","60091"
70498,"1526 CHANNING STREET NE","WASHINGTON","DC","20018"
70499,"1526 CLEVELAND ST","HELENA","MT","59601"
70500,"1526 COVENTRY ROAD","CHARLOTTE","NC","28211"
