"ID","Address","City","State","Zip"
151501,"2810 LINCOLN WAY","LYNNWOOD","WA","98087"
151502,"2810 LOCKERIDGE COVE DR","SPRING","TX","77386"
151503,"2810 LOMBARD AVENUE SUITE 208","EVERETT","WA","98201"
151504,"2810 LYLE ST","BELLINGHAM","WA","98225"
151505,"2810 MISSOURI AVE STE 600","SHREVEPOR","LA","71109"
151506,"2810 MORRIS AVE SUITE 108","UNION","NJ","07083"
151507,"2810 MORRIS AVENUE STE 102","UNION","NJ","07083"
151508,"2810 MOUNTAIN VIEW RD","FERNDALE","WA","98248"
151509,"2810 N CHURCH ST","WILMINGTON","DE","19802"
151510,"2810 N CHURCH STREET SUITE 9847","WILMINGTON","DE","19802"
151511,"2810 N PARHAM RD - STE 303","RICHMOND","VA","23294"
151512,"2810 NE CLACKAMAS ST","PORTLAND","OR","97232"
151513,"2810 NORTH THIRD STREET","PHOENIX","AZ","85004"
151514,"2810 NORTH UNIVERSITY AVENUE","LITTLE ROCK","AR","72207"
151515,"2810 PAA STREET BLDG A","HONOLULU","HI","96819"
151516,"2810 S HARBOR BLVD   B6","OXNARD","CA","93035"
151517,"2810 S JACKSON ROAD","EDINBURG","TX","78539"
151518,"2810 S US HIGHWAY 1","FORT PIERCE","FL","34982"
151519,"2810 SHARER ROAD UNIT 27","TALLAHASSEE","FL","32312"
151520,"2810 SHIPLEY TERRACE SE SUITE 102","WASHINGTON","MD","20020"
151521,"2810 SKELTON ST","RICHMOND","VA","23223"
151522,"2810 SPRUCE LANE NW","BAUDETTE","MN","56623"
151523,"2810 SUNDERLAND","WATERFORD","MI","48329"
151524,"2810 SYLVAN AVENUE","MADISON","WI","53705"
151525,"2810 THOREAU DRIVE","DURHAM","NC","27703"
151526,"2810 TRINITY MILLS 209-246","CARROLLTON","TX","75006"
151527,"2810 TROTWOOD AVE","COLUMBIA","TN","38401"
151528,"2810 VIA ORANGE WAY STE D","SPRING VALLEY","CA","91978"
151529,"2810 W  WESTPORT RD","PEORIA","IL","61615"
151530,"2810 W LATOKA ST","SPRINGFIELD","MO","65807"
151531,"2810 W STRONG ROAD","SPOKANE","WA","99208"
151532,"2810 WEST 43RD STREET UNIT 310","MINNEAPOLIS","MN","55410"
151533,"2810 WEST 66TH TERRACE","MISSION HILLS","KS","66208"
151534,"2810 WEST AIRLINE HIGHWAY","LAPLACE","LA","70068"
151535,"2810 WESTPORT CIRCLE","CONWAY","AR","72034"
151536,"2810 WHISPER WOOD TRAIL","ARLINGTON","TX","76016"
151537,"2810 WHITE RIDGE PLACE 17","THOUSAND OAKS","CA","91362"
151538,"2810 WILLS CREEK ROAD / SUITE B","GADSDEN","AL","35904"
151539,"2810 WOODMERE DR","PANAMA CITY","FL","32405"
151540,"2810 WYNDHAM DRIVE","HEPHZIBAH","GA","30815"
151541,"2810-2 BRIGADOON DR","RALEIGH","NC","27606"
151542,"28100 US HIGHWAY 19 N SUITE 300","CLEARWATER","FL","33761"
151543,"28102 CAMELLIA CT","LAGUNA NIGUEL","CA","92677"
151544,"28103 COPPERLEAF","BOERNE","TX","78015"
151545,"28103 PABLO PICASSO DRIVE","ENGLEWOOD","FL","34223"
151546,"28105 STATE HIGHWAY 249 STE 106","TOMBALL","TX","77375"
151547,"28109 ELLA ROAD","RANCHO PALOS VERDE","CA","90275"
151548,"2811 27TH AVE N","FORT DODGE","IA","50501"
151549,"2811 58TH ST","LUBBOCK","TX","79413"
151550,"2811 64TH ST N E","RUGBY","ND","58368"
151551,"2811 ADELINE ST","OAKLAND","CA","94608"
151552,"2811 BELKTON COURT","DELTONA","FL","32738"
151553,"2811 DANZIG PL APT 103","LOUISVILLE","KY","40245"
151554,"2811 DRUID PARK DRIVE BALTIMORE","BALTIMORE","MD","21230"
151555,"2811 DUNCAN TREE CIRCLE","VALRICO","FL","33594"
151556,"2811 E 58TH ST","KANSAS CITY","MO","64130"
151557,"2811 E MADISON ST SUITE 205D","SEATTLE","WA","98112"
151558,"2811 HARRIETTE CT","NASHVILLE","TN","37206"
151559,"2811 HICKS LAKE LANE SE","LACEY","WA","98503"
151560,"2811 INDUSTRIAL PLAZA DR","TALLAHASSEE","FL","32301"
151561,"2811 LAKEVIEW AVE","ROSEVILLE","MN","55113"
151562,"2811 LEEWARD AVE","LOS ANGELES","CA","90005"
151563,"2811 MCGEE AVE","BERKELEY","CA","94703"
151564,"2811 MILTON AVE STE 375","JANESVILLE","WI","53545"
151565,"2811 MILTON AVENUE NUMBER 389","JANESVILLE","WI","53545"
151566,"2811 MOLINO DE VIENTO","SANTA FE","NM","87505"
151567,"2811 MONROE STREET","DENVER","CO","80205"
151568,"2811 NICKLAUS WAY","FREMONT","NE","68025"
151569,"2811 NORTH WINDSOR DRIVE","ARLINGTON HEIGHTS","IL","60004"
151570,"2811 NORTH WINDSOR DRIVE","ARLINGTON HTS","IL","60004"
151571,"2811 NW 22 DRIVE","GAINESVILLE","FL","32605"
151572,"2811 ORCHARD LANE","RAPID CITY","SD","57703"
151573,"2811 OVERBROOK AVE","NORFOLK","VA","23513"
151574,"2811 PENNSYLVANIA AVE SE","WASHINGTON","DC","20020"
151575,"2811 RACE STREET","DENVER","CO","80205"
151576,"2811 RACHEL ROAD","CHAMPAIGN","IL","61822"
151577,"2811 SE TATE AVE","PORT ST LUCIE","FL","34984"
151578,"2811 SKYLINE DRIVE","WEST MIFFLIN","PA","15122"
151579,"2811 ST ANDREWS STREET  APT 40","MERIDIAN","MS","39301"
151580,"2811 STRATFORD AVENUE    APT 4","CINCINNATI","OH","45220"
151581,"2811 TAMIAMI TRAIL STE K","PORT CHARLOTTE","FL","33952"
151582,"2811 TIPTON ST","SOUTH CHESTERFIELD","VA","23834"
151583,"2811 TIPTON STREET","SOUTH CHESTERFIELD","VA","23834"
151584,"2811 TWAIN LANE","NORTH CHESTERFIELD","VA","23224"
151585,"2811 WASHINGTON AVE","BEDFORD","IN","47421"
151586,"2811 WEST MALL DRIVE","FLORENCE","AL","35630"
151587,"2811 WILDFLOWER DR","ROCKY RIVER","OH","44116"
151588,"28110 235TH AVE SE","MAPLE VALLEY","WA","98038"
151589,"28112 W TRAIL WAYS","CALDWELL","ID","83607"
151590,"28116 150TH PL SE","KENT","WA","98042"
151591,"28118 YELLOW CORNERSTONE DR","KATY","TX","77494"
151592,"28118 YELLOW CORNERSTONE DRIVE","KATY","TX","77494"
151593,"2812 ALCAZAR ST NE","ALBUQUERQUE","NM","87110"
151594,"2812 AMELIA AVE","DECATUR","GA","30032"
151595,"2812 AMHERST RIDGE WAY","SOUTH CHESTERFIELD","VA","23834"
151596,"2812 ARIZONA AVE APT C","SANTA MONICA","CA","90404"
151597,"2812 ARTHUR STREET","WALL","NJ","07719"
151598,"2812 BALLIETT CT","VIENNA","VA","22180"
151599,"2812 BERRY TRACE","SCHERTZ","TX","78154"
151600,"2812 BYRON DR","ROANOKE","VA","24019"
151601,"2812 CABIN CREEK DRIVE","BURTONSVILLE","MD","20866"
151602,"2812 CHESTERFIELD PL NW","WASHINGTON","DC","20008"
151603,"2812 COASTAL RANGE WAY","LUTZ","FL","33559"
151604,"2812 CRUMS LANE","LOUISVILLE","KY","40216"
151605,"2812 D ST APT 14","SACRAMENTO","CA","95816"
151606,"2812 EAST 76TH STREET  3RD FLOOR","CHICAGO","IL","60649"
151607,"2812 JILLS TRAIL","EDMOND","OK","73012"
151608,"2812 KAREN DRIVE","CHALMETTE","LA","70043"
151609,"2812 LA JOLLA DR","ANTIOCH","CA","94509"
151610,"2812 LARK DR","COLORADO SPRINGS","CO","80909"
151611,"2812 LEXINGTON BLVD","MISHAWAKA","IN","46544"
151612,"2812 MORGAN FARM CT","BUFORD","GA","30519"
151613,"2812 MOSS RD","HUNTSVILLE","AL","35810"
151614,"2812 MUSKY MINT DR","LAND O LAKES","FL","34638"
151615,"2812 MUSSMAN DRIVE","INDIANAPOLIS","IN","46222"
151616,"2812 N BIGELOW CT","PEORIA","IL","61604"
151617,"2812 NICHOLS ST","SPENCERPORT","NY","14559"
151618,"2812 NORTH 5TH STREET APT 504","MILWAUKEE","WI","53212"
151619,"2812 NORTHTOWN PLACE","MIDLAND","TX","79705"
151620,"2812 OAK PARK DRIVE","COOKEVILLE","TN","38506"
151621,"2812 RICHMOND ROAD","TEXARKANA","TX","75503"
151622,"2812 S VICTORIA AVE 4","LOS ANGELES","CA","90016"
151623,"2812 SAN MEDINA AVENUE","DALLAS","TX","75228"
151624,"2812 SANTA MONICA BLVD STE 201","SANTA MONICA","CA","90404"
151625,"2812 SE ASH ST","PORTLAND","OR","97214"
151626,"2812 SHADY LANE","MARYVILLE","TN","37803"
151627,"2812 SHANANDALE DR","SILVER SPRING","MH","20904"
151628,"2812 SPANISH VALLEY DRIVE","MOAB","UT","84532"
151629,"2812 SUTTON BLVD","MAPLEWOOD","MO","63143"
151630,"2812 SW 6TH AVE","AMARILLO","TX","79106"
151631,"2812 VIEW RIDGE DR","MELBA","ID","83641"
151632,"2812 W 43RD AVE STE 2","KANSAS CITY","KS","66103"
151633,"2812 W DEVOY DRIVE","ANAHEIM","CA","92804"
151634,"2812 W HIGH GROVE CIR","ZIONSVILLE","IN","46077"
151635,"2812 WEST 54TH STREET","LOS ANGELES","CA","90043"
151636,"2812 WHEATLAND DR S","FARGO","ND","58103"
151637,"2812 WOOD HOLLOW PLACE","FORT WASHINGTON","MD","20744"
151638,"28121 SECO CANYON RD 88","SANTA CLARITA","CA","91390"
151639,"28122 NORTHWOOD DR","MENIFEE","CA","92586"
151640,"28123 ORCHARD LAKE RD","FARMINGTON HILLS","MI","48334"
151641,"28125 W SEVEN MILE ROAD","LIVONIA","MI","48152"
151642,"2813 11TH AVE","LEWISTON","ID","83501"
151643,"2813 ALEXANDRIA PL","JANESVILLE","WI","53548"
151644,"2813 AZALEA AVE","TUSKEGEE","AL","36083"
151645,"2813 CHERRY BLOSSOM COURT","WALDORF","KY","20603"
151646,"2813 CLUBHOUSE DR","PLANT CITY","FL","33566"
151647,"2813 DEWBERRY ROAD","YORK","PA","17404"
151648,"2813 DH HARVELL CIRCLE","NAVARRE","FL","32566"
151649,"2813 EMERALD LAKE DR","HARLINGEN","TX","78550"
151650,"2813 GREENSBORO AVENUE","BELLEVUE","NE","68005"
151651,"2813 N 25TH STREET","PHOENIX","AZ","85008"
151652,"2813 NORTH 17TH STREET","FORT DODGE","IA","50501"
151653,"2813 NORTH HURSTBOURNE PARKWAY","LOUISVILLE","KY","40223"
151654,"2813 OAKBROOK DRIVE","WESTON","FL","33332"
151655,"2813 OAKLAND HILLS DR","PLANO","TX","75025"
151656,"2813 OAKLEY ST","BAKERSFIELD","CA","93311"
151657,"2813 OAKVALE FALLS DRIVE","DECATUR","GA","30034"
151658,"2813 PLUMERIA DR","HARLINGEN","TX","78552"
151659,"2813 ROSEGLEN WAY","ORLANDO","FL","32812"
151660,"2813 S HIAWASSEE ROAD  SUITE 104","ORLANDO","FL","32835"
151661,"2813 S HIELAND ROAD","ST. ANNE","IL","60964"
151662,"2813 SOUTHWEST WESTPORT PLAZA DRIVE","TOPEKA","KS","66614"
151663,"2813 VESTAVIA FOREST PL","VESTAVIA","AL","35216"
151664,"2813 W WALNUT HILL LN APT 1025","IRVING","TX","75038"
151665,"28131 OAKLAR DRIVE","SAUGUS","CA","91350"
151666,"28134 GUILFORD LANE","SANTA CLARITA","CA","91350"
151667,"28134 S WESTERN AVENUE 142","SAN PEDRO","CA","90732"
151668,"2814 - 47TH STREET","MOLINE","IL","61265"
151669,"2814 38TH STREET","LUBBOCK","TX","79413"
151670,"2814 B STADIUM DRIVE","PHENIX CITY","AL","36867"
151671,"2814 BAYWOOD TRAIL","FORT WAYNE","IN","46845"
151672,"2814 BLOSSOM STREET","COLUMBIA","SC","29205"
151673,"2814 CHRENSHAW DR NW","HUNTSVILLE","AL","35810"
151674,"2814 CRAWFORD AVE","PARSONS","KS","67357"
151675,"2814 FLOWER ACRES RD","TEXARKANA","TX","75501"
151676,"2814 KALAWAO STREET","HONOLULU","HI","96822"
151677,"2814 KENAI DR","CEDAR PARK","TX","78613"
151678,"2814 MAPLE BROOK LOOP","LUTZ","FL","33558"
151679,"2814 MATHERS WAY","TWINSBURG","OH","44087"
151680,"2814 N 90TH STREET","MILWAUKEE","WI","53222"
151681,"2814 NORTH GREEN STREET","HARRISBURG","PA","17110"
151682,"2814 OAKTREE WAY","FALLBROOK","CA","92028"
151683,"2814 PADEN DRIVE","NASHVILLE","TN","37206"
151684,"2814 PENNSYLVANIA AVENUE","SAINT LOUIS","MO","63118"
151685,"2814 PINEWAY DR","ORLANDO","FL","32839"
151686,"2814 PLEASANT VIEW RD UNIT 202","MIDDLETON","WI","53562"
151687,"2814 POINSETT HIGHWAY","GREENVILLE","SC","29609"
151688,"2814 SIX MILE LN","LOUISVILLE","KY","40220"
151689,"2814 SYLHOWE ROAD","OAKLAND","CA","94602"
151690,"2814 TRIWAY LN","HOUSTON","TX","77043"
151691,"2814 W STILES ST","PHILADELPHIA","PA","19121"
151692,"2814 WEST LAKE STREET","FORT COLLINS","CO","80521"
151693,"2814 WOODLAND PARK DR","ATLANTA","GA","30345"
151694,"28140 INTRACOASTAL ROAD","PLAQUEMINE","LA","70764"
151695,"28142 HIGHWAY 57","LEAKESVILLE","MS","39451"
151696,"28144 COOPERS LANE","WAVERLY","NJ","23890"
151697,"28144 COOPERS LANE","WAVERLY","VA","23890"
151698,"28145 COUNTY ROAD 496","CHAMPION","MI","49814"
151699,"28145 GIBRALTAR LN","CASTAIC","CA","91384"
151700,"28145 LILY ST NW","ISANTI","MN","55040"
151701,"28147 BERLIN DORY RD","SEDLEY","VA","23878"
151702,"2815 8TH STREET COURT WEST","BRADENTON","FL","34205"
151703,"2815 ALDERBROOK CT N","PUYALLUP","WA","98374"
151704,"2815 BARTLETT STREET","OAKLAND","CA","94602"
151705,"2815 BURNEY DRIVE","COLUMBIA","SC","29205"
151706,"2815 CAMINO DEL MAR SUITE 41","DEL MAR","CA","92014"
151707,"2815 CAMINO DEL RIO SOUTH SUITE 250","SAN DIEGO","CA","92108"
151708,"2815 DEFOE DRIVE","KATY","TX","77449"
151709,"2815 DONAMIRE DRIVE","KENNESAW","GA","30144"
151710,"2815 ELLIOTT AVE STE 100","SEATTLE","WA","98121"
151711,"2815 ENFIELD DR","DURHAM","NC","27703"
151712,"2815 ENGLEWOOD DR","CUMMING","GA","30040"
151713,"2815 FERNWOOD STREET","SAN MATEO","CA","94403"
151714,"2815 FORBS AVENUE STE 107","HOFFMAN ESTATES","IL","60192"
151715,"2815 FOREST AVE","KC","MO","64109"
151716,"2815 HOME STREET","SIOUX CITY","IA","51109"
151717,"2815 HWY 15 N","LAUREL","MS","39440"
151718,"2815 MOHAWK AVENUE","GWYNN OAK","MD","21207"
151719,"2815 MULFORD","GRAND RAPIDS","MI","49546"
151720,"2815 N PINE GROVE AVE APT 2A","CHICAGO","IL","60657"
151721,"2815 N SILVER CREEK DRIVE","PALMER","AK","99645"
151722,"2815 NW 13TH STREET SUITE 305","GAINESVILLE","FL","32609"
151723,"2815 NW 69TH TER","MARGATE","FL","33063"
151724,"2815 NW 88TH ST","MIAMI","FL","33147"
151725,"2815 OSLER DR 8102","GRAND PRAIRIE","TX","75051"
151726,"2815 OSLER DR APT 4107","GRAND PRAIRIE","TX","75051"
151727,"2815 PEACOCK AVENUE","N CHARLESTON","SC","29405"
151728,"2815 PERKINS RD","ARLINGTON","TX","76016"
151729,"2815 PRAIRIE AVENUE","MIAMI BEACH","FL","33140"
151730,"2815 PROVIDENCE WAY","POMONA","CA","91767"
151731,"2815 RUMSEY CANYON ROAD","RUMSEY","CA","95679"
151732,"2815 S OSCEOLA AVE","ORLANDO","FL","32806"
151733,"2815 SODORNO LANE","HENDERSON","NV","89074"
151734,"2815 SOUTH ROBINSON DRIVE","LORENA","TX","76655"
151735,"2815 STAR SKY WAY","HOUSTON","TX","77045"
151736,"2815 SW CHESTNUT DRIVE","ANKENY","IA","50023"
151737,"2815 TAVISTOCK TRAIL","SOUTHFIELD","MI","48034"
151738,"2815 TAYLOR ROAD","CENTRAL POINT","OR","97502"
151739,"2815 TOWNSGATE RD SUITE 320","WESTLAKE VILLAGE","CA","91361"
151740,"2815 UTOPIA PKWY","FLUSHING","NY","11358"
151741,"2815 W 800 N","ST ANTHONY","ID","83445"
151742,"2815 W LYNDALE STREET","CHICAGO","IL","60647"
151743,"2815 W PARK PL","OKLAHOMA CITY","OK","73107"
151744,"2815 W VIRGINIA AVE","TAMPA","FL","33607"
151745,"2815 WEST 86TH PLACE","CHICAGO","IL","60652"
151746,"2815 WEST COURTHOUSE ROAD","CREWE","VA","23930"
151747,"2815 WEST GREEN ACRES ROAD","ROGERS","AR","72758"
151748,"28150 DOROTHY AVE","LITTLE TORCH KEY FL","FL","33042"
151749,"28150 LEMOYNE ROAD","MILLBURY","OH","43447"
151750,"28150 N ALMA SCHOOL PKWY 103-153","SCOTTSDALE","AZ","85262"
151751,"28150 N ALMA SCHOOL PKWY 103-490","SCOTTSDALE","AZ","85262"
151752,"28150 N ALMA SCHOOL PKWY 103194","SCOTTSDALE","AZ","85262"
151753,"28150 N ALMA SCHOOL RD STE 103-616","SCOTTSDALE","AZ","85262"
151754,"28150 N ALMA SCHOOL SUITE 103-687","SCOTTSDALE","AZ","85262"
151755,"28151 SECO CANYON RD 57","SANTA CLARITA","CA","91390"
151756,"28155 N 74TH ST","SCOTTSDALE","AZ","85266"
151757,"28155 SAMANTHA COURT","SANTA CLARITA","CA","91350"
151758,"28158 KINGSTON PIKE","CIRCLEVILLE","OH","43113"
151759,"2816 BENSON ROAD","FINKSBURG","MD","21048"
151760,"2816 BROAD AVE","ALTOONA","PA","16601"
151761,"2816 CARDASSI DR","OCOEE","FL","34761"
151762,"2816 CARRISA WAY","SACRAMENTO","CA","95821"
151763,"2816 CATHEDRAL OF LEARNING","PITTSBURGH","PA","15260"
151764,"2816 CENTRAL DRIVE STE 140","BEDFORD","TX","76021"
151765,"2816 CHERRY LAUREL LANE","ATLANTA","GA","30311"
151766,"2816 CLEVELAND STREET","ELLOREE","SC","29047"
151767,"2816 CLIFFE COURT","OVIEDO","FL","32765"
151768,"2816 COLONIAL","SAINT LOUIS","MO","63121"
151769,"2816 DEERHURST DR","HIGHLAND VILLAGE","TX","75077"
151770,"2816 DORSET AVE","HENDERSON","NV","89074"
151771,"2816 E LOOP 390 N","MARSHALL","TX","75672"
151772,"2816 E MERCER LN","PHOENIX","AZ","85028"
151773,"2816 ELMWOOD AVENUE","ERIE","PA","16508"
151774,"2816 FRONTIER DRIVE","MIDLAND","TX","79705"
151775,"2816 GLENDALE AVENUE","PARKVILLE","MD","21234"
151776,"2816 HIGH POINT ROAD","OWENSVILLE","MO","65066"
151777,"2816 HILLVIEW LN","LANCASTER","TX","75134"
151778,"2816 HONOLULU AVENUE - UNIT 347","VERDUGO CITY","CA","91046"
151779,"2816 JEROME AVE STE 3A","BRONX","NY","10456"
151780,"2816 JP DAVIS","BAY CITY","TX","77414"
151781,"2816 L STREET APT C","SAN DIEGO","CA","92102"
151782,"2816 LAKE VISTA DR","WYLIE","TX","75098"
151783,"2816 N RICHMOND AVE","CHICAGO","IL","60618"
151784,"2816 OLD PRICETOWN ROAD","TEMPLE","PA","19560"
151785,"2816 PALM DRIVE","BILLINGS","MT","59102"
151786,"2816 PANKAW LANE","VALRICO","FL","33596"
151787,"2816 S KERCKHOFF AVE","SAN PEDRO","CA","90731"
151788,"2816 S TACOMA ST","KENNEWICK","WA","99337"
151789,"2816 SAXAPAHAW BETHLEHEM CH RD","GRAHAM","NC","27253"
151790,"2816 SIKES MILL ROAD","MONROE","NC","28110"
151791,"2816 SILVER LANE NW APT 103","MINNEAPOLIS","MN","55421"
151792,"2816 THE MALL APT 60","DALLAS","TX","75219"
151793,"2816 VIA SEGOVIA","PALOS VERDES ESTATES","CA","90274"
151794,"2816 WHITTINGTON DR","TALLAHASSEE","FL","32309"
151795,"28160 WINDWOOD DRIVE EAST","BOERNE","TX","78006"
151796,"28165 SWANSON LAKE ROAD","CRESTON","WA","99117"
151797,"28166 STATE HWY 2","LEON","IA","50144"
151798,"2817 25TH ST W","WILLISTON","ND","58801"
151799,"2817 27TH AVE NORTH","TEXAS CITY","TX","77590"
151800,"2817 ANTHONY LANE SOUTH SUITE 104","ST ANTHONY","MN","55418"
151801,"2817 ANTHONY LN S SUITE 105","MINNEAPOLIS","MN","55418"
151802,"2817 ARCE LN SE","RIO RANCHO","NM","87124"
151803,"2817 AVA LANE","DALLAS","TX","75227"
151804,"2817 BAY COLONY LANE","LEXINGTON","KY","40511"
151805,"2817 BELAIR ROAD","FALLSTON","MD","21047"
151806,"2817 BIRKHILL LN","INDIANLAND","SC","29707"
151807,"2817 BRIDAL WREATH LANE","DALLAS","TX","75233"
151808,"2817 CRESTWOOD RD","CHARLESTON","WV","25302"
151809,"2817 CROSS TIMBERS RD","BURLESON","TX","76028"
151810,"2817 DONNA HILL DRIVE","NASHVILLE","TN","37214"
151811,"2817 EAST VALLEY ROAD","MINDEN","NV","89423"
151812,"2817 EDWARDS PLATEAU","PFLUGERVILLE","TX","78660"
151813,"2817 ELISTON STREET","BOWIE","MD","20716"
151814,"2817 GEIGER RD","IDA","MI","48140"
151815,"2817 GOOSELEG WAY","LAKESIDE","AZ","85929"
151816,"2817 HIGHWAY 72E SUITE E","HUNTSVILLE","AL","35811"
151817,"2817 HIKES LANE","LOUISVILLE","KY","40218"
151818,"2817 HILLCREST DR E","COPLAY","PA","18037"
151819,"2817 LEIALOHA AVENUE","HONOLULU","HI","96816"
151820,"2817 MARBURG ST","DALLAS","TX","75215"
151821,"2817 MAYBANK HWY  UNIT 1","JOHNS ISLAND","SC","29455"
151822,"2817 MECHANICSVILLE TPKE","RICHMOND","VA","23223"
151823,"2817 MOUNTAIN RIDGE ROAD","WEAT COVINA","CA","91791"
151824,"2817 MOUNTAIN RIDGE ROAD","WEST COVINA","CA","91791"
151825,"2817 N WILMINGTON AVE","COMPTON","CA","90222"
151826,"2817 NE 24TH AVE","PORTLAND","OR","97212"
151827,"2817 NORTH HANLEY STREET","ST LOUIS","MO","63114"
151828,"2817 NW 7TH AVENUE","WILTON MANORS","FL","33311"
151829,"2817 RUEKERT AVE","BALTIMORE","MD","21214"
151830,"2817 SALERNO","DALLAS","TX","75224"
151831,"2817 SANCHO PANZA CT","PUNTA GORDA","FL","33950"
151832,"2817 SANDERLING DR","FORT WAYNE","IN","46808"
151833,"2817 SANDSTONE DR","NORMAN","OK","73071"
151834,"2817 SECOND STREET","MONTGOMERY","AL","36108"
151835,"2817 SOUTHVIEW DR","LEXINGTON","KY","40503"
151836,"2817 W GRACE ST APT 2","RICHMOND","VA","23221"
151837,"2817 W GRACE STREET","RICHMOND","VA","23221"
151838,"2817 W JARVIS AVE","CHICAGO","IL","60645"
151839,"2817 W SUGAR CREEK ROAD","CHARLOTTE","NC","28262"
151840,"2817 WALTER DRIVE","NEW BERN","NC","28562"
151841,"2817 WEST END AVE 126-198","NASHVILLE","TN","37203"
151842,"2817 WEST END AVE STE 126-357","NASHVILLE","TN","37203"
151843,"2817 WEST END AVENUE STREET 126 236","NASHVILLE","TN","37203"
151844,"2817 WEST END AVENUE SUITE 126-308","NASHVILLE","TN","37203"
151845,"2817 YORKSHIRE AVE","HENDERSON","NV","89074"
151846,"28170 N ALMA SCHOOL PARKWAY ST 201","SCOTTSDALE","AZ","85262"
151847,"28175 HAGGERTY ROAD","NOVI","MI","48377"
151848,"28176 HWY WW","CLARKSVILLE","MO","63336"
151849,"28179 RIDGECOVE CT S","RANCHO PALOS VERDES","CA","90275"
151850,"2818 211TH ST SW","LYNNWOOD","WA","98036"
151851,"2818 58TH STREET","LUBBOCK","TX","79413"
151852,"2818 AILSA AVE","BALTIMORE","MD","21214"
151853,"2818 ASHMONT TER","SILVER SPRING","MD","20906"
151854,"2818 BREEZY POINT LANE","FRISCO","TX","75034"
151855,"2818 CHABETT AVENUE","LAKELAND","FL","33810"
151856,"2818 COLLIER PARKWAY","LAND O LAKES","FL","34639"
151857,"2818 CYPRESS RIDGE BLVD","WESLEY CHAPEL","FL","33544"
151858,"2818 E BENNETT","SPRINGFIELD","MO","65804"
151859,"2818 E PIKES PEAK SVE","COLORADO SPRINGS","CO","80909"
151860,"2818 E STATE ROAD H","STOUTLAND","MO","65567"
151861,"2818 EWALD CIRCLE","DETROIT","MI","48238"
151862,"2818 FERN GLEN DRIVE","GARLAND","TX","75043"
151863,"2818 GREENUP RD","LOUISVILLE","KY","40217"
151864,"2818 HILLIARD DRIVE","CHARLOTTE","NC","28205"
151865,"2818 JACANA CT","LONGWOOD","FL","32779"
151866,"2818 KRYSTAL LEIGH CT","PANAMA CITY","FL","32405"
151867,"2818 LINCOLNWAY E","MISHAWAKA","IN","46544"
151868,"2818 MARKHAM WOODS","KINGWOOD","TX","77345"
151869,"2818 OLIVIA CT","BRYANT","AR","72022"
151870,"2818 PIN OAK LN","LANHAM","MD","20706"
151871,"2818 SARATOGA DR","AUSTIN","TX","78733"
151872,"2818 W ORCHARD CT","VISALIA","CA","93277"
151873,"2818 WEST PICO BLVD SUITE A","LOS ANGELES","CA","90006"
151874,"2818 WILD OAKS DR","DUNCAN","OK","73533"
151875,"2818 WOODLEY ROAD","MONTGOMERY","AL","36116"
151876,"2819 105TH AVE NE","BLAINE","MN","55449"
151877,"2819 35TH AVE S","FARGO","ND","58104"
151878,"2819 ATTABERRY DRIVE","CHARLOTTE","NC","28205"
151879,"2819 CASTIGLIONE ST","NEW ORLEANS","LA","70119"
151880,"2819 CREST DRIVE","BAKERSFIELD","CA","93306"
151881,"2819 E LESLIE DR","MERIDIAN","ID","83646"
151882,"2819 FOREST GLEN PARKWAY","WOODRIDGE","IL","60517"
151883,"2819 FOSTER LN  APT F229","AUSTIN","TX","78757"
151884,"2819 FULTON AVENUE","BROOKLYN","NY","11207"
151885,"2819 GLADYS TER","DAYTONA BEACF","FL","32118"
151886,"2819 GRAY CIR","COLUMBIA","TN","38401"
151887,"2819 HADEN MARTIN ROAD","PALMYRA","VA","22963"
151888,"2819 LEE RD","LEE","ME","04455"
151889,"2819 LOWMANS FERRY ROAD","PULASKI","VA","24301"
151890,"2819 MINNESOTA AVE SE","WASHINGTON","DC","20019"
151891,"2819 MONROE STREET","FORT WAYNE","IN","46806"
151892,"2819 RING ROAD","ELIZABETHTOWN","KY","42701"
151893,"2819 SHAWNEE","FLINT","MI","48507"
151894,"2819 VIKING DRIVE APT 217","GREEN BAY","WI","54304"
151895,"2819 W 22ND STREET RD","GREELEY","CO","80634"
151896,"2819 W HIGHLAND BLVD","MILWAUKEE","WI","53208"
151897,"2819 WANDER CIR","HOLLADAY","UT","84117"
151898,"2819 WOODLAWN AVE SW","ROANOKE","VA","24015"
151899,"28194 FOX RUN ROAD","MILLSBORO","DE","19966"
151900,"282 30TH ST","LINDENHURST","NY","11757"
151901,"282 AVENUE D","PORT ST JOE","FL","32456"
151902,"282 BAPTISTE CIRCLE","HOUMA","LA","70363"
151903,"282 BEECH AVE","SANTA ROSA","CA","95409"
151904,"282 BLAUVELT ROAD","MONSEY","NY","10952"
151905,"282 BROOME STREET APT 20","NEW YORK","NY","10002"
151906,"282 CALHOUN AVE","CALUMET CITY","IL","60409"
151907,"282 CANDLEBARK DRIVE","JACKSONVILLE","FL","32225"
151908,"282 CHERRY LANE","INKSTER","MI","48141"
151909,"282 CHESTER STREET","BROOKLYN","NY","11212"
151910,"282 COOPER STREET APT 2R","BROOKLYN","HI","11237"
151911,"282 CORPORATE DRIVE UNIT 2","PORTSMOUTH","NH","03801"
151912,"282 E MT VERNON STREET","SMYRNA","DE","19977"
151913,"282 E SCARLET OAK DR","COOPERSVILLE","MI","49404"
151914,"282 EAST GUNHILL","BRONX","NY","10467"
151915,"282 ED ENGLISH DR BLDG 6 STE A","SHENANDOAH","TX","77385"
151916,"282 GOVERNOR BRADFORD RD","BREWSTER","MA","02631"
151917,"282 HICKORY LANE","MOUNT WASHINGTON","KY","40047"
151918,"282 HINKLE RD","FAYETTEVILLE","WV","25840"
151919,"282 HURON PIKE","MITCHELL","IN","47446"
151920,"282 J FORREST THOMAS ST","BLUFF CITY","TN","37618"
151921,"282 JOHN WAYNE DRIVE","LAFAYETTE","LA","70508"
151922,"282 JORDAN ROAD","NAHUNTA","GA","31553"
151923,"282 KEMPER DOWNS DRIVE","AIKEN","SC","29803"
151924,"282 LOCH LOMOND RD","RANCHO MIRAGE","CA","92270"
151925,"282 MAXEY DRIVE","BRANDON","MS","39042"
151926,"282 MIDDLE STREET APT 6","PORTSMOUTH","NH","03801"
151927,"282 N REHOBOTH BLVD","MILFORD","DE","19963"
151928,"282 NEPTUNE AVENUE","JERSEY CITY","NJ","07305"
151929,"282 NEW MILFORD TURNPIKE","MARBEDALE","CT","06777"
151930,"282 NORTH HARNETT SCHOOL ROAD","ANGIER","NC","27501"
151931,"282 OLD FALLS BLVD","NORTH TONOWANDA","NY","14120"
151932,"282 OLD WOMAN SPRINGS RD STE B-7662","YUCCA VALLEY","CA","92284"
151933,"282 PEELE ROAD","AURORA","NC","27806"
151934,"282 PORT RICHMOND AVENUE","STATEN ISLAND","NY","10302"
151935,"282 S KETCHAM AVE","AMITYVILLE","NY","11701"
151936,"282 SELDON DRIVE","SMYRNA","DE","19977"
151937,"282 ST CLAIR AVE","CLAIRTON","PA","15025"
151938,"282 STATE HWY 64","LOUISBURG","MO","65685"
151939,"282 SUMMERHILL DRIVE","BROWNSVILLE","TN","38012"
151940,"282 SUMMIT VIEW DR","MCDONOUGH","GA","30253"
151941,"282 TIFFANY TERRACE","FREMONT","CA","94536"
151942,"282 TRADEWINDS DRIVE APT 12","SAN JOSE","CA","95123"
151943,"282 W 1ST S","RIGBY","ID","83442"
151944,"282 W COUNTRY CLUB DR","BRENTWOOD","CA","94513"
151945,"282 WEST HAWLEY RD","HAWLEY","MA","01339"
151946,"282 WHITE COTTAGE RD S","ANGWIN","CA","94508"
151947,"282 WHITNEY DRIVE","ROCHESTER HILLS","MI","48307"
151948,"282 XENIA TOWNE SQUARE APT 501","XENIA","OH","45385"
151949,"282 YACHT CLUB DR","ST AUGUSTINE","FL","32084"
151950,"282-A COVE RD","HUDSON","WI","54016"
151951,"2820 13TH AVE S","MINNEAPOLIS","MN","55407"
151952,"2820 169TH AVE SE","BELLEVUE","WA","98008"
151953,"2820 96TH STREET EAST","TACOMA","WA","98445"
151954,"2820 ALPHA VALLEY HOME RD","MORRISTOWN","TN","37813"
151955,"2820 AUDUBON VILLAGE DRIVE  NO 258","AUDUBON","PA","19403"
151956,"2820 AUDUBON VILLAGE DRIVE 306","AUDUBON","PA","19403"
151957,"2820 AVENUE I","BROOKLYN","NY","11210"
151958,"2820 BANKS KNOLL DR","CARY","NC","27519"
151959,"2820 BEAR VALLEY PARKWAY SOUTH","ESCONDIDO","CA","92025"
151960,"2820 BLODGETT ST APT 1","HOUSTON","TX","77004"
151961,"2820 CARRIAGE WAY","WEST LINN","OR","97068"
151962,"2820 CARUSO LN","LANCASTER","CA","93536"
151963,"2820 CASCADE ST","ERIE","PA","16508"
151964,"2820 CEDAR AVENUE","SCRANTON","PA","18505"
151965,"2820 CHAYOTE RD NE","RIO RANCHO","NM","87144"
151966,"2820 COLE CIRCLE DRIVE","VILLA RIDGE","MO","63089"
151967,"2820 EAGLER ROCK RD","PENRYN","CA","95663"
151968,"2820 EAST 116TH ST","CLEVELAND","OH","44120"
151969,"2820 EMBER WAY","ANN ARBOR","MI","48104"
151970,"2820 FOREST GREEN DR","ROUND ROCK","TX","78665"
151971,"2820 FOREST POINT DRIVE NUMBER 1110","ARLINGTON","TX","76006"
151972,"2820 FOUNTAINVIEW DR APT E108","HOUSTON","TX","77057"
151973,"2820 FREEMAN MANOR DR","JONES","OK","73049"
151974,"2820 GARDENDALE DRIVE","FORT WORTH","TX","76120"
151975,"2820 GOOSE CREEK LANE","MURFREESBORO","TN","37128"
151976,"2820 HONOLULU AVE","VERDUGO CITY","CA","91046"
151977,"2820 JAN MAR DRIVE","AUBURNDALE","FL","33823"
151978,"2820 JEFFERSON ST","PADUCAH","KY","42001"
151979,"2820 KILBORN DRIVE APT 7","CHARLOTTE","NC","28205"
151980,"2820 KOEHLER AVE","DAYTON","OH","45414"
151981,"2820 LA LOMA DRIVE 28","RANCHO CORDOVA","CA","95670"
151982,"2820 LASSITER RD","MARIETTA","GA","30062"
151983,"2820 LASSITER ROAD STE B250","MARIETTA","GA","30062"
151984,"2820 LAWNDALE DRIVE STE 108","GREENSBORO","NC","27408"
151985,"2820 MORENO ST","AUSTIN","TX","78723"
151986,"2820 N GREENVIEW AVE UNIT H","CHICAGO","IL","60657"
151987,"2820 N PINAL AVE SUITE 12-203","CASA GRANDE","AZ","85122"
151988,"2820 NEW HIGHWAY 51 STE B","LP","LA","70068"
151989,"2820 NORTH GREENVIEW UNIT H","CHICAGO","IL","60657"
151990,"2820 NW 9TH STREET","FORT LAUDERDALE","FL","33311"
151991,"2820 OAK ST","SARASOTA","FL","34237"
151992,"2820 OLD STERLINGTON RD","MONROE","LA","71203"
151993,"2820 OLINVILLE AVENUE","BRONX","NY","10467"
151994,"2820 PARK PLACE DR","GRAND PRAIRIE","TX","75052"
151995,"2820 PEACHTREE INDUSTRIAL BLVD","DULUTH SUITE L","GA","30097"
151996,"2820 PRADO","GRAND PRAIRIE","TX","75054"
151997,"2820 QUAINT ST","SECANE","PA","19018"
151998,"2820 RIGE BOARD PLACE","CHESAPEAKE","VA","23323"
151999,"2820 S 123RD ST","OMAHA","NE","68144"
152000,"2820 S ALMA SCHOOL RD   STE 18","CHANDLER","UT","85286"
