"ID","Address","City","State","Zip"
309501,"901 MOHAWK APT 5","BAKERSFIELD","CA","93309"
309502,"901 MONTROSE AVE","MORGANTOWN","WV","26505"
309503,"901 MT VERNON RD","VIDALIA","GA","30474"
309504,"901 N  PENN ST REEF TOWER F1704","PHILADELPHIA","PA","19123"
309505,"901 N 13TH AVE STE 105","TUCSON","AZ","85705"
309506,"901 N 16TH STREET","COEUR D ALENE","ID","83814"
309507,"901 N 5TH ST","GUTHRIE CENTER","IA","50115"
309508,"901 N 8TH ST","LANTANA","FL","33462"
309509,"901 N 93RD ST","SEATTLE","CA","98103"
309510,"901 N ARENDELL AVENUE","ZEBULON","NC","27557"
309511,"901 N BLACK","BOZEMAN","MT","59715"
309512,"901 N BROAD ST SUITE 100","ROME","GA","30161"
309513,"901 N CANYON DR","OLATHE","KS","66061"
309514,"901 N CENTER STREET","PLANO","IL","60545"
309515,"901 N FEDERAL HIGHWAY","BOCA RATON","FL","33432"
309516,"901 N GARRISON UNIT 7627","SAINT LOUIS","MO","63106"
309517,"901 N GILMAN AVENUE","LITCHFIELD","MN","55355"
309518,"901 N MAIN ST","LOUISBURG","NC","27549"
309519,"901 N MAPLE ST","SEARCY","AR","72143"
309520,"901 N POLK STREET SUITE 100","DESOTO","TX","75115"
309521,"901 N RAINIER AVE STE B201","RENTON","WA","98057"
309522,"901 N REDBUD TERRACE","MUSTANG","OK","73064"
309523,"901 N TOWER DR SUITE 100","TROY","MI","48098"
309524,"901 NATIONAL CITY BLVD","NATIONAL CITY","CA","91950"
309525,"901 NE 173 ST","MIAMI","FL","33612"
309526,"901 NE 3RD ST SUITE 102","FORT LAUDERDALE","FL","33301"
309527,"901 NEW MEISTER LANE","PFLUGERVILLE","TN","78660"
309528,"901 NORTH 47TH STREET SUITE 200","ROGERS","AR","72756"
309529,"901 NORTH BROADWAY","TYLER","TX","75702"
309530,"901 NORTH MILTON AVENUE","BALTIMORE","MD","21205"
309531,"901 NORTH MISSOURI","CAPE GIRARDEAU","MO","63701"
309532,"901 NORTH OLIVE AVENUE","WEST PALM BEACH","FL","33401"
309533,"901 NORTH PINE STREET      SUITE 30","ROLLA","MO","65401"
309534,"901 NORTH SHORE DR NE","ST PETERSBURG","FL","33701"
309535,"901 NORTH TRYON STREET STE F","CHARLOTTE","NC","28206"
309536,"901 NORTH ZANG BLVD SUITE 216","DALLAS","TX","75208"
309537,"901 NORTHGATE DRIVE","RICHLAND","WA","99352"
309538,"901 NW 129 AVE SUITE 711","PEMBROKE PINES","FL","33028"
309539,"901 NW 183 STREET","MIAMI","FL","33169"
309540,"901 NW 35 ST","BOCA RATON","FL","33431"
309541,"901 NW 84 TERR","MIAMI","FL","33150"
309542,"901 NW 85TH TERRACE 1415","PLANTATION","FL","33324"
309543,"901 OFFICERS ROW","VANCOUVER","WA","98661"
309544,"901 OLD VALLEY RD","EXTON","PA","19341"
309545,"901 OLIVE DRIVE","BAKERSFIELD","CA","93308"
309546,"901 PAGE AVE","FORT WORTH","TX","76110"
309547,"901 PARKER ST","NLR","AR","72114"
309548,"901 PECAN STREET","BASTROP","TX","78602"
309549,"901 PENNINGTON AVE","NASHVILLE","TN","37206"
309550,"901 PERSON ST","FAYETTEVILLE","NC","28301"
309551,"901 PIER VIEW DR STE 201","IDAHO FALLS","ID","83402"
309552,"901 PLAZA DEL GADO","SIERRA VISTA","AZ","85635"
309553,"901 PROFESSIONAL DR","NAPA","CA","94558"
309554,"901 REBECCA AVENUE","WILKINSBURG","PA","15221"
309555,"901 RIDGE RD","HEWITT","TX","76643"
309556,"901 RIDGE RD","POTTSTOWN","PA","19465"
309557,"901 RIGGINS ROAD","TALLAHASSEE","FL","32308"
309558,"901 RIMINI DR","SAINT CLOUD","FL","34771"
309559,"901 RS GASS BLVD","NASHVILLE","TN","37216"
309560,"901 S 2ND ST STE 201","SPRINGFIELD","IL","60548"
309561,"901 S 2ND ST STE 201","SPRINGFIELD","IL","62704"
309562,"901 S 2ND STREET  SUITE 201","SPRINGFIELD","IL","62704"
309563,"901 S ABE ST","SAN ANGELO","TX","76904"
309564,"901 S BROADWAY","SANTA MARIA","CA","93454"
309565,"901 S COATS ROAD","OXFORD","MI","48371"
309566,"901 S COUNTRY CLUB DR APT 3138","MESA","AZ","85210"
309567,"901 S COUNTY ROAD 31","BERTHOUD","CO","80513"
309568,"901 S GRAND","EL DORADO SPG","MO","64744"
309569,"901 S HIGHLAND ST SUITE 314","ARLINGTON","VA","22204"
309570,"901 S HIGHLAND STREET","ARLINGTON","VA","22204"
309571,"901 S IDAHO STREET SUITE 10","LA HABRA","CA","90631"
309572,"901 S LA BREA AVE INC STE 4","LOS ANGELES","CA","90036"
309573,"901 S LA BREA AVE STE 4","LOS ANGELES","CA","90036"
309574,"901 S LA BREA AVE SUITE 4","LOS ANGELES","CA","90036"
309575,"901 S MOPAC BLDG 2 SUITE 505","AUSTIN","TX","78746"
309576,"901 S MOPAC BUILDING 1 SUITE 200","AUSTIN","TX","78746"
309577,"901 S NATIONAL AVE PSU 101","SPRINGFIELD","MO","65897"
309578,"901 S NATIONAL AVE","SPRINGFIELD","MO","65897"
309579,"901 S NATIONAL AVE/ PSU 101","SPRINGFIELD","MO","65897"
309580,"901 S NATIONAL","SPRINGFIELD","MO","65897"
309581,"901 S PERSIMMON AVENUE","SANFORD","FL","32771"
309582,"901 S PICKWICK","SPRINGFIELD","MO","65804"
309583,"901 S PONCA AVENUE","NORMAN","OK","73071"
309584,"901 S PRAIRIE AVENUE","FAIRMONT","MN","56031"
309585,"901 S STATE STREET SUITE 200","HEMET","CA","92543"
309586,"901 S WHITNEY WAY","MADISON","WI","53711"
309587,"901 SAC BLVD SO60","OFFUTT","NE","68113"
309588,"901 SAC BLVD STE 1F22","OFFUTT AFB","NE","68113"
309589,"901 SAC BLVD STE 3D16","OFFUTT AFB","NE","68113"
309590,"901 SAC BLVD SUITE 3D15","OFFUT AFB","NE","68113"
309591,"901 SAC BLVD","OFFUTT AFB","NE","68113"
309592,"901 SACRAMENTO STREET","BAKERSFIELD","CA","93305"
309593,"901 SCHWARZ ROAD","LAWRENCE","KS","66049"
309594,"901 SE SPOKANE ST","PORTLAND","OR","97202"
309595,"901 SHOAL RIVER DRIVE","CRESTVIEW","FL","32539"
309596,"901 SHOLAR COURT","CHATTANOOGA","TN","37404"
309597,"901 SHORELINE DR","AURORA","IL","60504"
309598,"901 SOUTH 5TH STREET","SAINT CHARLES","MO","63301"
309599,"901 SOUTH 8TH STREET","QUINCY","IL","62301"
309600,"901 SOUTH BRADDOCK AVENUE","PITTSBURGH","PA","15221"
309601,"901 SOUTH BROADWAY","SANTA MARIA","CA","93454"
309602,"901 SOUTH HIGHLAND STREET 347","ARLINGTON","VA","22204"
309603,"901 STAGECOACH ROAD","CHAPEL HILL","NC","27514"
309604,"901 STONE TRAIL DR","PLANO","TX","75023"
309605,"901 STUART DRIVE","SOUTH EUCLID","OH","44121"
309606,"901 SUE BARNETT DRIVE","HOUSTON","TX","77018"
309607,"901 SUMMERLAKE DR","FORT MILL","SC","29715"
309608,"901 SUNNY SLOPE TRACE","LEXINGTON","KY","40514"
309609,"901 SW 10TH ST","ALEDO","IL","61231"
309610,"901 SW 128 AVE   E 309","PEMBROKE PINES","FL","33027"
309611,"901 SW 128TH TER UNIT 404A","PEMBROKE PINES","FL","33027"
309612,"901 SW 99TH AVENUE","PEMBROKE PINES","FL","33025"
309613,"901 SW BUCHANAN","TOPEKA","KS","66606"
309614,"901 SW PRESCOTT LN","GRIMES","IA","50111"
309615,"901 TAMI AVE","WAGONEER","OK","74467"
309616,"901 TARPON DRIVE","WILMINGTON","NC","28409"
309617,"901 THAMES","COLUMBIA","MO","65202"
309618,"901 TOPSAIL DR","BROWNS SUMMIT","NC","27214"
309619,"901 TRAIL STREAM WAY","KNIGHTDALE","NC","27545"
309620,"901 TRAIL VIEW LANE SE","PINE ISLAND","MN","55963"
309621,"901 UNION MILL ROAD","NICHOLASVILLE","KY","40356"
309622,"901 VIA ZAPATE UNIT O","RIVERSIDE","CA","92508"
309623,"901 VICTORIA ST STE A","LAREDO","TX","78040"
309624,"901 W 1ST STREET","SUMNER","IA","50674"
309625,"901 W 29TH AVENUE","BELLEVUE","NE","68005"
309626,"901 W 2ND ST","FLORENCE","CO","81226"
309627,"901 W BARDIN RD SUITE 101","ARLINGTON","TX","76017"
309628,"901 W BARDIN RD SUITE 103","ARLINGTON","TX","76017"
309629,"901 W BARDIN ST STE 202","ARLINGTON","TX","76017"
309630,"901 W CADDO","CLEVELAND","OK","74020"
309631,"901 W HENDRICKSON AVE","MARION","IL","62959"
309632,"901 W HURST BLVD UNIT 1112","HURST","TX","76053"
309633,"901 W LAKE STREET UNIT 3332","OAK PARK","IL","60303"
309634,"901 W MADISON STE 1004","CHICAGO","IL","60607"
309635,"901 W WINNEBAGO STREET APT 103","MILWAUKEE","WI","53205"
309636,"901 WASHINGTON ST","OAKLAND","CA","94607"
309637,"901 WEST BARDIN RD","ARLINGTON","TX","76017"
309638,"901 WEST FRANCIS STREET","ONTARIO","CA","91762"
309639,"901 WEST MAIN ST SUITE 120","BLUE SPRINGS","MO","64015"
309640,"901 WEST MAIN ST","NEWARK","OH","43055"
309641,"901 WEST MAIN STREET","HOOPESTON","IL","60942"
309642,"901 WEST WOODLAWN AVENUE","NORTH AUGUSTA","SC","29841"
309643,"901 WESTERN AVE","PITTSBURGH","PA","15233"
309644,"901 WHETSTONE PLACE","ROCKLEDGE","FL","32955"
309645,"901 WHISPERING PINES ROAD","CHERRY VALLEY","CA","92223"
309646,"901 WHITE STREET -  UNIT 5","KEY WEST","FL","33040"
309647,"901 WHITE STREET - 3","KEY WEST","FL","33040"
309648,"901 WILLOW AVE  UNIT 4","HOBOKEN","NJ","07030"
309649,"901 WILLOW COURT","SILOAM SPRINGS","AR","72761"
309650,"901 WILSON RD","HUMBLE","TX","77338"
309651,"901 WIND RIVER LN","GAITHERSBURG","MD","20878"
309652,"901 WOODBROOK STREET","ARLINGTON","TX","76011"
309653,"901 WOODMONT COURT","BOWIE","MD","20721"
309654,"901 XENIA AVE S APT 618","GOLDEN VALLEY","MN","55416"
309655,"901 YELLOW JACKET LANE","ROCKWALL","TX","75087"
309656,"901 YORK ST","QUINCY","IL","62301"
309657,"901-915 CHURCH RD UNIT4","WAINWRIGHT","AK","99782"
309658,"901-C CLINT MOORE ROAD","BOCA RATON","FL","33487"
309659,"9010 BLAINE AVE","FORT LEWIS","WA","98433"
309660,"9010 DAMASCUS HILL LANE","DAMASCUS","MD","20872"
309661,"9010 LAKE WASHINGTON BLVD NE","BELLEVUE","WA","98004"
309662,"9010 LANTERN LITE PKWY","LOUISVILLE","KY","40220"
309663,"9010 LEVELLE DRIVE","CHEVY CHASE","MD","20815"
309664,"9010 LIBERTY ROAD SUITE D","RANDALLSTOWN","MD","21136"
309665,"9010 N 9TH STREET APT 3","PHOENIX","AZ","85020"
309666,"9010 NW 11 STREET","PEMBROKE PINES","FL","33024"
309667,"9010 PARKLAND DRIVE","SAN ANTONIO","TX","78230"
309668,"9010 ROSEWOOD AVE","CLEVELAND","OH","44105"
309669,"9010 S JUSTINE ST","CHICAGO","IL","60620"
309670,"9010 S PRIEST DR APT 2078","TEMPE","AZ","85284"
309671,"9010 SOUTHPORT ROAD","INDIANAPOLIS","IN","46259"
309672,"9011 158TH PL NE","REDMOND","WA","98052"
309673,"9011 185TH PLACE SW","EDMONDS","WA","98026"
309674,"9011 BEAR MOUNTAIN DR","HIGHLANDS RANCH","CO","80216"
309675,"9011 BENTLEY GREEN","VERONA","WI","53593"
309676,"9011 CHEVROLET DR STE 18","ELLICOTT CITY","MD","21042"
309677,"9011 E 2ND PLACE","TUCSON","AZ","85710"
309678,"9011 GABLES LANE","ATLANTA","GA","30350"
309679,"9011 MIRA MESA BLVD NUMBER 132","SAN DIEGO","CA","92126"
309680,"9011 NE 89TH CIR","VANCOUVER","WA","98662"
309681,"9011 NORWICK ROAD","RICHMOND","VA","23229"
309682,"9011 OLD HIGHWAY 46","LYLES","TN","37098"
309683,"9011 TWINCREEK FARM","CONVERSE","TX","78109"
309684,"9011 WEYMOUTH DR","HOUSTON","TX","77031"
309685,"9012 CARTHAGE COURT","WALDORF","MD","20603"
309686,"9012 CHERRYTREE DRIVE","ALEXANDRIA","VA","22309"
309687,"9012 ENCHANTED RIDGE DR","PLANO","TX","75025"
309688,"9012 INGRAM AVE","GARDEN GROVE","CA","92844"
309689,"9012 KINSALE CIRCLE","HENRICO","VA","23228"
309690,"9012 PAMELA DR","KINSTON","NC","28504"
309691,"9012 S CEDARBROOK LN","TUCSON","AZ","85756"
309692,"9012 WATER BUCK LANE","CONROE","TX","77303"
309693,"9013 169TH STREET CT E","PUYALLUP","WA","98375"
309694,"9013 ASHTON POINTE BLVD","FORT WAYNE","IN","46819"
309695,"9013 BUFFALO SPRINGS DRIVE","MIDLOTHIAN","VA","23112"
309696,"9013 GAILES DR","CHARLOTTE","NC","28278"
309697,"9013 LIBERTY RD","RANDALLSTOWN","MD","21133"
309698,"9013 MARILYNN ROAD","PITTSBURGH","PA","15235"
309699,"9013 WALTLEE RD","LOUISVILLE","KY","40291"
309700,"9013 WAREHAM DRIVE","MCKINNEY","TX","75071"
309701,"90130 OVERSEAS HIGHWAY","TAVERNIER","FL","33070"
309702,"9014 34TH AVE SW","SEATTLE","WA","98126"
309703,"9014 63RD DRIVE","REGO PARK","NY","11374"
309704,"9014 RHODE ISLAND AVE","COLLEGE PARK","MD","20740"
309705,"9014 ROUSSEAU STREET","KENNER","LA","70062"
309706,"9014 SADDLE TRAIL","SAN ANTONIO","TX","78255"
309707,"9015 ASPEN HOLLOW PLACE","RIVERVIEW","FL","33578"
309708,"9015 COUNTY ROAD J","LENA","WI","54139"
309709,"9015 GRAND AVE","NORTH RICHLAND HILLS","TX","76180"
309710,"9015 LACKMAN RD","LENEXA","KY","66219"
309711,"9015 LINN STATION RD","LOUISVILLE","KY","40222"
309712,"9015 LOCH GLEN DRIVE","VILLAGE OF LAKEWOOD","IL","60014"
309713,"9015 MCALISTER CT","FREDERICKSBURG","VA","22408"
309714,"9015 MOUNTAIN FIELD DR","SAN ANTONIO","TX","78240"
309715,"9015 N HULL AVENUE","KANSAS CITY","MO","64154"
309716,"9015 PERSIMMON GROVE PIKE","ALEXANDRIA","KY","41001"
309717,"9015 STRADA STELL COURT  STE104","NAPLES","FL","34109"
309718,"9015 SW 6TH STREET","BOCA RATON","FL","33433"
309719,"9015 WEDGEWOOD RD","GARFIELD","AR","72732"
309720,"9015 WILSON MILL RD","LAKE CORMORANT","MS","38641"
309721,"9015 WOODYARD RD SUITE 210","CLINTON","MD","20735"
309722,"9015 WORNALL","KANSAS CITY","MO","64114"
309723,"9016 ARCHIBALD AVE","RANCHO CUCAMONGA","CA","91730"
309724,"9016 DORIS DRIVE","FORT WASHINGTON","MD","20744"
309725,"9016 E 93RD ST","TULSA","OK","74133"
309726,"9016 KILAR COURT","ELK GROVE","CA","95624"
309727,"9016 LIBERTY ROAD","RANDALLSTOWN","MD","21133"
309728,"9016 NORTH STATE ROAD - 109","WILKINSON","IN","46186"
309729,"9016 SELBORNE LANE","CHATTAHOOCHE HILLS","GA","30268"
309730,"9016 VAN DYKE","DETROIT","MI","48213"
309731,"9016 WAUKEGAN RD UNIT 109","MORTON GROVE","IL","60053"
309732,"90161 LAKEVIEW DR","EUGENE","OR","97402"
309733,"9017 COMMERCIAL WAY","WEEKI WACHEE","FL","34613"
309734,"9017 COSTELLO AVENUE","PANORAMA CITY","CA","91402"
309735,"9017 E 550 N","OTTERBEIN","IN","47970"
309736,"9017 EAST 40TH PLACE","TULSA","OK","74145"
309737,"9017 HIGHWAY 1","OAKES","ND","58474"
309738,"9017 MILL VALLEY CIR APT 268","FORT WORTH","TX","76120"
309739,"9017 RANDALL RD","HUNTSVILLE","AL","35802"
309740,"9017 SW 9TH PL","PORTLAND","OR","97219"
309741,"9018 BALBOA BLVD 352","NORTHRIDGE","CA","91325"
309742,"9018 BALBOA BLVD SUITE 337","NORTHRIDGE","CA","91325"
309743,"9018 JENNA RD","GERMANTOWN","TN","38138"
309744,"9019 CORMORANT CT","TAMPA","FL","33647"
309745,"9019 FORD DRIVE","BRENTWOOD","TN","37027"
309746,"9019 HAYDEN DR","SHREVEPORT","LA","71106"
309747,"9019 HILE RD","RAVENNA","MI","49451"
309748,"9019 KINGSTON RD","BRADENTON","FL","34210"
309749,"9019 LIBERTY ROAD","RANDALLSTOWN","MD","21133"
309750,"9019 MERCURY COVE COURT","HOUSTON","TX","77075"
309751,"9019 ROYAL MELBOURNE CIRCLE","PEYTON","CO","80831"
309752,"9019 TOPLECOT DRIVE","SHREVEPORT","LA","71129"
309753,"9019 TRUMPET CIRCLE","CONVERSE","TX","78109"
309754,"9019 WEST US HWY 34","LOVELAND","CO","80537"
309755,"9019 WESTCHESTER DRIVE","MANASSAS","VA","20112"
309756,"9019","FREDERICK","MD","21704"
309757,"901A STREET SUITE C","SAN RAFAEL","CA","94901"
309758,"902 136TH ST E","BRADENTON","FL","34212"
309759,"902 18TH STREET","VIOLA","IL","61486"
309760,"902 19TH ST NE","CANTON","OH","44714"
309761,"902 26TH AVENUE","MERIDIAN","MS","39304"
309762,"902 70TH STREET","KENOSHA","WI","53143"
309763,"902 7TH ST NE","ORANGE CITY","IA","51041"
309764,"902 A E 1ST SUITE 45","PORT ANGELES","WA","98362"
309765,"902 AMBER KNOLL DR","ROCKWALL","TX","75087"
309766,"902 ARLINGTON CENTER 218","ADA","OK","74820"
309767,"902 B BLAND BLVD","NEWPORT NEWS","VA","23602"
309768,"902 BIG PINE WAY","FORT MYERS","FL","33907"
309769,"902 BRIARWOOD STREET","REIDSVILLE","NC","27375"
309770,"902 BROOKE HOLLOW CT 2E","FLINT","MI","48503"
309771,"902 BUCHANAN STREET","STEWARTSVILLE","MO","64490"
309772,"902 BUCHANAN","STEWARTSVILLE","MO","64490"
309773,"902 CALHOUN STREET","PORT LAVACA","TX","77979"
309774,"902 CARNEGIE CENTER SUITE 160","PRINCETON","NJ","08540"
309775,"902 CAROLINE AVENUE","GALT","CA","95632"
309776,"902 CENTER ST PO BOX 738","COTULLA","TX","78014"
309777,"902 CENTRAL AVENUE","UNION CITY","NJ","07087"
309778,"902 CHURCH STREET","MOODY","AL","35004"
309779,"902 COITSVILLE HUBBARD RD","YOUNGSTOWN","OH","44505"
309780,"902 COLLEGE AVE","BRENHAM","TX","77833"
309781,"902 COOPER ST","MEMPHIS","TN","38104"
309782,"902 CRESTMORE","FRANKLIN","KY","42134"
309783,"902 DREW APT460","BROOKLYN","NY","11208"
309784,"902 DUNDEE DRIVE","RADFORD","VA","24141"
309785,"902 E 11TH STREET","AUSTIN","TX","78702"
309786,"902 E 11TH STREET","DEL RIO","TX","78840"
309787,"902 E 29TH ST","DAVENPORT","IA","52803"
309788,"902 E 86TH ST","NEW YORK","NY","11236"
309789,"902 E COOVER STREET","MECHANICSBURG","PA","17055"
309790,"902 E CORNWALL ST","ROCKPORT","TX","78382"
309791,"902 E HUBBARD","LINDALE","TX","75771"
309792,"902 E MAIN","LOCUST GROVE","OK","74352"
309793,"902 E40 ST FIRST FLOOR","BROOKLYN","NY","11210"
309794,"902 EAGLE LANE","DOYLESTOWN","PA","18901"
309795,"902 EAST 86 STREET","BROOKLYN","NY","11236"
309796,"902 EAST HALCYON ROAD","TUCSON","AZ","85719"
309797,"902 EAST HOUSTON AVENUE","CROCKETT","TX","75835"
309798,"902 EAST SECOND STREET SUITE 120","WINONA","MN","55987"
309799,"902 EAST SIXTH ST","FLINT","MI","48503"
309800,"902 EXCHANGE ST","EMPORIA","KS","66801"
309801,"902 FINCH DR","HYATTSVILLE","MD","20785"
309802,"902 GREENE AVE NUMBER 1","BROOKLYN","NY","11221"
309803,"902 GREENWOOD TRL E","GREENWOOD","IN","46142"
309804,"902 HAMLIN ST NE","WASHINGTON","DC","20017"
309805,"902 HIGHLAND","KENAI","AK","99611"
309806,"902 JAMESTOWN ROAD","E WINDSOR","NJ","08520"
309807,"902 JOHNS POINTE DRIVE","OAKLAND","FL","34787"
309808,"902 KITTY HAWK RD SUITE 170-495","UNIVERSAL CITY","TX","78148"
309809,"902 LAKE FRONT DRIVE","SACRAMENTO","CA","95831"
309810,"902 LAKEVIEW DR","LA CROSSE","WI","54603"
309811,"902 LITTLE CREEK DRIVE","FORT MILL","SC","29715"
309812,"902 LUPIN WAY","SAN CARLOS","CA","94070"
309813,"902 MAIN STREET","CROSSETT","AR","71635"
309814,"902 MAIN STREET","DUBUQUE","IA","52001"
309815,"902 MAPLE AVE","S PLAINFIELD","NJ","07080"
309816,"902 MAPLE AVENUE","GLENSIDE","PA","19038"
309817,"902 MARKET ST","FRANKLIN","TN","37067"
309818,"902 MARKET STREET","KISMET","KS","67859"
309819,"902 MARTHA BERRY BLVD NE","ROME","GA","30165"
309820,"902 MCKINNEY PARK LANE","HOUSTON","TX","77003"
309821,"902 MILTON AVE","JANESVILLE","WI","53545"
309822,"902 MORNING STAR COURT","GREER","SC","29651"
309823,"902 N 14TH ST","COTTONWOOD","AZ","86326"
309824,"902 N COLUMBUS","TUCSON","AZ","85711"
309825,"902 N GRANITE ST","MARION","IL","62959"
309826,"902 N GROVE","WICHITA","KS","67214"
309827,"902 N GUNNELL COURT","HERNDON","VA","20170"
309828,"902 N MERIDIAN RD","MT PLEASANT","MI","48858"
309829,"902 N STATE ST","MONTICELLO","IL","61856"
309830,"902 N WEBSTER ST","PORT WASHINGTON","WI","53074"
309831,"902 NETTLETON COURT","SOUTHLAKE","TX","76092"
309832,"902 NORTH LAKESHORE PLACE","CHANDLER","AZ","85226"
309833,"902 NORTH SWENSON STREET","STAMFORD","TX","79553"
309834,"902 OAK HILL RD","ESTHERVILLE","IA","51334"
309835,"902 PALMER ROAD","LITHONIA","GA","30058"
309836,"902 PARKHILL DRIVE","BILLINGS","MT","59102"
309837,"902 PIERCE LANE","BLYTHEVILLE","AR","72315"
309838,"902 PINCREST RD","GIRARD","OH","44420"
309839,"902 PINE FOREST TRL","COLUMBIA","SC","29210"
309840,"902 PITTSBURGH STREET","NORTH VERSAILLES","PA","15137"
309841,"902 POINTER RIDGE DR","GAITHERSBURG","MD","20878"
309842,"902 PULASKI MERCER ROAD","MERCER","PA","16137"
309843,"902 PUSEY ST","CHESTER","PA","19013"
309844,"902 REESE STREET PO BOX 711","SIVERTON","CO","81433"
309845,"902 RUE ST ANDRE","MARION","AR","72364"
309846,"902 S 16TH AVENUE","FREEPORT","IL","61032"
309847,"902 S 2610 EAST","SPANISH FORK","UT","84660"
309848,"902 S 44TH AVE","YAKIMA","WA","98908"
309849,"902 S LINCOLN AVE APT 202","URB","IL","61801"
309850,"902 S RANDALL RD STE C324","SAINT CHARLES","IL","60174"
309851,"902 S RANDALL RD SUITE C-340","ST. CHARLES","IL","60174"
309852,"902 S SLAPPEY BLVD","ALBANY","GA","31701"
309853,"902 S WEBER ST","COLORADO SPRINGS","CO","80903"
309854,"902 SADDLEWOOD STREET","HOLMEN","WI","54636"
309855,"902 SAINT PAUL DRIVE","RICHARDSON","TX","75080"
309856,"902 SOUTH COOPER","MEMPHIS","TN","38104"
309857,"902 SOUTH FOUNTAIN AVE","SPRINGFIELD","OH","45506"
309858,"902 SOUTH FOUTAIN AVENUE","SPRINGFIELD","OH","45506"
309859,"902 SOUTH SHELBY STREET","LOUISVILLE","KY","40203"
309860,"902 TERRAZA MAR","SAN MARCOS","CA","92078"
309861,"902 THOMPSON BLVD","ESSEX","MD","21221"
309862,"902 TIMBER LN","CALDWELL","TX","77836"
309863,"902 TONY DRIVE","MADISON","WI","53704"
309864,"902 TWIN PINES DR","MADISON","WI","53704"
309865,"902 TWINBROOKE","HOUSTON","TX","77088"
309866,"902 TYLER RD","HOWARDS GROVE","WI","53083"
309867,"902 VALLEY ROAD","ELKINS PARK","PA","19027"
309868,"902 W 8TH STREET","HOUSTON","TX","77007"
309869,"902 W BROADWAY","ENID","OK","73701"
309870,"902 W LA JOLLA ST APT C","PLACENTIA","CA","98270"
309871,"902 W LUMSDEN ROAD","BRANDON","FL","33511"
309872,"902 W MOUNT VERNON AVENUE","HADDONFIELD","NJ","08033"
309873,"902 W PIONEER PKWY STE 101","GRAND PRAIRIE","FL","75051"
309874,"902 W SPRINGFIELD ROAD","TAYLORVILLE","IL","62568"
309875,"902 WATSON ROAD","MOUNT PLEASANT","MI","48858"
309876,"902 WELLSTONE CIRCLE","APEX","NC","27502"
309877,"902 WEST OLD HILLSBORPUGH AVE","SEFFNER","FL","33584"
309878,"902 WESTERLY COURT","NEWARK","DE","19702"
309879,"902 WHIPPOORWILL TRAIL","WEST PALM BEACH","FL","33411"
309880,"902 WHISLER CT","SAINT CLOUD","FL","34769"
309881,"902 WILCREST PLACE","LONGVIEW","TX","75604"
309882,"902 WILLOWLEAF WAY","POTOMAC","MD","20854"
309883,"902 WOODDALE CHURCH ROAD","KNOXVILLE","TN","37924"
309884,"9020 AIRPORT ROAD","CONROE","TX","77303"
309885,"9020 BLAINE AVE","LEWIS MCCHORD","WA","98433"
309886,"9020 BLUFFTOP WAY","LONE TREE","CO","80124"
309887,"9020 CAMINO DEL AVION","GRANITE BAY","CA","95746"
309888,"9020 COUNTY ROAD 1233A","GODLEY","TX","76044"
309889,"9020 COWDEN DRIVE","JOHNSTON","IA","50131"
309890,"9020 EMERALD HILL WAY","LAS VEGAS","NV","89117"
309891,"9020 FRINGEWOOD DR","DALLAS","TX","75228"
309892,"9020 LEVERTON LANE","RALEIGH","NC","27615"
309893,"9020 LORTON BLVD UNIT 215","LORTON","VA","22079"
309894,"9020 N CAPITAL OF TEXAS HWY 150","AUSTIN","TX","78759"
309895,"9020 NE 8TH AVENUE 2D","MIAMI","FL","33138"
309896,"9020 NE 8TH AVENUE UNIT 2-D","MIAMI SHORES","FL","33138"
309897,"9020 PINE AVENUE","BEULAH","CO","81023"
309898,"9020 PLEASANT HILL DR","PLANO","TX","75205"
309899,"9020 S 800 W","FAIRMOUNT","IN","46928"
309900,"9020 SCHUTTE CT","CORCORAN","MN","55340"
309901,"9020 SW 52 ND STREET","COOPER CITY","FL","33328"
309902,"9020 SW 59TH STREET","MIAMI","FL","33173"
309903,"9020 SW WASHINGTON SQUARE RD NO 14","PORTLAND","OR","97223"
309904,"9020 TRIOLA LANE","HOUSTON","TX","77036"
309905,"9020 VILLAGE GLEN DR","SAN DIEGO","CA","92123"
309906,"9020 WILLIS AVE UNIT 8","PANORAMA CITY","CA","91402"
309907,"9021 PHILLY COURT","UNION","KY","41091"
309908,"9021 ROLLING GREEN AVE","OKLAHOMA CITY","OK","73132"
309909,"9021 SAFFRON LANE","SILVER SPRING","MD","20901"
309910,"9021 SHERLOCK CIR","GARDEN GROVE","CA","92841"
309911,"9021 WASHINGTON BLVD SW","LAKEWOOD","WA","98498"
309912,"9021 WATCHLIGHT CT","COLUMBIA","MD","21045"
309913,"9021 WELL RD","MOSS POINT","MS","39562"
309914,"9022 BLUE CEDAR LANE","HUMBLE","TX","77338"
309915,"9022 E 135TH PLACE SOUTH","BIXBY","OK","74008"
309916,"9022 E ASTER DR","SCOTTSDALE","AZ","85260"
309917,"9022 E US HWY 36","WOODSTOCK","OH","43084"
309918,"9022 LAKE ROYALE","LOUISBURG","NC","27549"
309919,"9022 MARSEILLE DRIVE","POTOMAC","MD","20854"
309920,"9022 N COBRE DRIVE","PHOENIX","AZ","85028"
309921,"9022 RANAY DR SE","SALEM","OR","97317"
309922,"9022 SHEETS ROAD","OAKLEY","IL","62501"
309923,"9023 E EASTMAN PLACE","DENVER","CO","80231"
309924,"9023 HOLLY STREET","KANSAS CITY","MO","64114"
309925,"9023 MCNAIR DR","ALEXANDRIA","VA","22309"
309926,"9023 OLD DOMINION DRIVE","MCLEAN","VA","22102"
309927,"9023 ROSE STREET SPACE D5","BELLFLOWER","CA","90706"
309928,"9023 S OGLESY AVE","CHICAGO","IL","60617"
309929,"9023 SOUTH MORGAN","CHICAGO","IL","60620"
309930,"9023 STINGRAY COURT","TEXAS CITY","TX","77591"
309931,"9023 TITE ST","HOUSTON","TX","77029"
309932,"9024 2ND STREET","LANHAM","MD","20706"
309933,"9024 BRIAN WAY CIRCLE STE 1503","FORT WORTH","TX","76116"
309934,"9024 DE ADALENA ST","ROSEMEAD","CA","91770"
309935,"9024 HUNTERS POINTE DRIVE","HUNTERSVILLE","NC","28078"
309936,"9024 MISTWOOD DRIVE","POTOMAC","MD","20854"
309937,"9024 N 103RD AVE","SUN CITY","AZ","85351"
309938,"9024 ROCKVILLE AVE","LAS VEGAS","NV","89143"
309939,"9024 SUMMIT CENTRE WAY 305","ORLANDO","FL","32810"
309940,"9024 TYLER STREET NE","BLAINE","MN","55434"
309941,"9025 CHARLES AUGUSTINE DR","ALEXANDRIA","VA","22308"
309942,"9025 E SUNLAND AVE","MESA","AZ","85208"
309943,"9025 EAST BLUE SKY DR","SCOTTSDALE","AZ","85262"
309944,"9025 FALCON GLEN CT","BRISTOW","VA","20136"
309945,"9025 TAMARRON DRIVE","CHARLOTTE","NC","28277"
309946,"9025 W CACTUS AVENUE","LAS VEGAS","NV","89178"
309947,"9025 WALKERTON DR","LANHAM","MD","20706"
309948,"9025 WILLIS AVE UNIT 107","PANORAMA CITY","CA","91402"
309949,"9026 - 22ND AVE SW","SEATTLE","WA","98106"
309950,"9026 BROOKFIELD RD","ROCKY MOUNT","NC","27803"
309951,"9026 CENTENNIAL DRIVE","CONROE","TX","77384"
309952,"9026 MALLARD CREEK ROAD","CHARLOTTE","NC","28262"
309953,"9026 OREN THOMPSON","CHARLOTTE","NC","28213"
309954,"9026 SUNLAND BLVD","SUN VALLEY","CA","91352"
309955,"9026 SVL BOX","VICTORVILLE","CA","92395"
309956,"9027 BESSEMER AVE","ST LOUIS","MO","63134"
309957,"9027 CASCADA ROAD","ATASCADERO","CA","93422"
309958,"9027 LAKESHORE BLVD","MENTOR","OH","44060"
309959,"9027 NE EMERSON STREET","PORTLAND","OR","97220"
309960,"9027 SUNNI SHADE CT","PERRY HALL","MD","21128"
309961,"9028 11TH PL W","EVERETT","WA","98204"
309962,"9028 CARLISLE AVE","SACRAMENTO","CA","95829"
309963,"9028 DOWDEN RD APT 311","ORLANDO","FL","32827"
309964,"9028 FRANKLIN BLVD STE 130","ELK GROVE","CA","95758"
309965,"9028 SE PINE CONE LANE","HOBE SOUND","FL","33455"
309966,"9029 AIRPORT BLVD 91815","LOS ANGELES","CA","90009"
309967,"9029 AIRPORT BLVD UNIT 881202","LOS ANGELES","CA","90009"
309968,"9029 E MISSISSIPPI AVE APT F-301","DENVER","CO","80247"
309969,"9029 E MISSISSIPPI AVE","DENVER","CO","80247"
309970,"9029 JEFFERSON HIGHWAY SUITE 128","RIVER RIDGE","LA","70123"
309971,"9029 JEFFERSON HWY STE D209","RIVER RIDGE","LA","70123"
309972,"9029 KIMBERLY LN","CYPRESS","CA","90630"
309973,"9029 LYKENS LANE","PHILACELPHIA","PA","19128"
309974,"9029 NEWMILLS LANE","LEWIS CENTER","OH","43035"
309975,"9029 S 6TH ST","PHOENIX","AZ","85042"
309976,"902A BIRDSALL ST","HOUSTON","TX","77007"
309977,"903 28TH STREET","SACRAMENTO","CA","95816"
309978,"903 5TH STREET","RIVIERA BEACH","FL","33404"
309979,"903 ALBANY AVE SUITE 6","BROOKLYN","NY","11203"
309980,"903 ARROW DR","TROY","OH","45373"
309981,"903 ARROWHEAD DR","ELWOOD","IL","60421"
309982,"903 AYLIGHT CIRCLE","LAWRENCEVILLE","GA","30045"
309983,"903 BRICKLERIDGE LN SE","MABLETON","GA","30126"
309984,"903 BRIDGE WAY","RALEIGH","NC","27615"
309985,"903 BROWN STREET","NORWAY","MI","49870"
309986,"903 BURBANK ST","GREENSBORO","NC","27406"
309987,"903 BYERLEY BEND RD","BLAINE","TN","37709"
309988,"903 BYERLEY BEND ROAD","BLAINE","TN","37709"
309989,"903 CAMPUS AVE","REDLANDS","CA","92374"
309990,"903 CEDAR LANE","MARION","IL","62959"
309991,"903 CEDAR RIDGE ROAD","NEWTON","NJ","07860"
309992,"903 COLLINS BLV","CEDAR HILL","TX","75104"
309993,"903 COTEAU ST","GARY","SD","57237"
309994,"903 COX STREET","TUSKEGEE","AL","36083"
309995,"903 CRESCENT PARKWAY","DELAND","FL","32724"
309996,"903 D ST","LEWISTON","ID","83501"
309997,"903 DREW  STREET  APT 422","BROOKLYN","NY","11208"
309998,"903 DREW ST APT 534","BROOKLYN","NY","11208"
309999,"903 DREW STREET 204","BROOKLYN","NY","11208"
310000,"903 DRIFTWOOD LN","LA MARQUE","TX","77568"
