"ID","Address","City","State","Zip"
60501,"1421 WEST TRINDLE ROAD","CARLISLE","PA","17015"
60502,"1421 WHISPERING OAKS WAY","PLEASANTON","CA","94566"
60503,"1421 WICKS LANE","BILLLINGS","MT","59105"
60504,"1421","ANGLETON","TX","77516"
60505,"14210 37TH AVE S    SUITE 210","SEATTLE","WA","98168"
60506,"14210 HWY 15","DOWNSVILLE","LA","71234"
60507,"14210 LONESOME PINE ROAD","SPOTSYLVANIA","VA","22551"
60508,"14210 PROSPECT POINT DR","CYPRESS","TX","77429"
60509,"14210 TORREY VISTA DR HOUSTON","HOUSTON","TX","77014"
60510,"14211 BERNABE CT","SAN DIEGO","CA","92129"
60511,"14211 E 1ST DRIVE UNIT 202","AURORA","CO","80011"
60512,"14211 FARRALON CT","FONTANA","CA","92336"
60513,"14212 COUNTY ROAD S","NAPOLEON","OH","43545"
60514,"14213 BERMUDA POINT COURT","CHESTER","VA","23836"
60515,"14214 ALAMOSA CT","SUGAR LAND","TX","77498"
60516,"14214 CLEAR CRK","SAN ANTONIO","TX","78232"
60517,"14214 E WILD JESSE WAY","VAIL","AZ","85641"
60518,"14214 NE 62ND STREET","REDMOND","WA","98052"
60519,"14214 WILLIAMS GLENN ROAD","CHARLOTTE","NC","28273"
60520,"14215 BRIGHTSTONE MEWS","MIDLOTHIAN","VA","23112"
60521,"14215 KENNEDY RD","GREENWOOD","MO","64034"
60522,"14215 LA CASCADA COURT","BAKERSFIELD","CA","93314"
60523,"14216 BEDDINGFIELD WAY","CENTREVILLE","VA","20121"
60524,"14216 DUNWOOD VALLEY DRIVE","BOWIE","MD","20721"
60525,"14216 W 74TH PL","ARVADA","CO","80007"
60526,"14216 WEEPING WILLOW DR APT 13","SILVER SPRING","MD","20906"
60527,"14217 ADOBE SCHOOL DRIVE","DRAPER","UT","84020"
60528,"14217 ALABAMA AVENUE S","SAVAGE","MN","55378"
60529,"14217 BELFAST COURT","ROSEMOUNT","MN","55068"
60530,"14217 BRADSHAW DRIVE","SILVER SPRING","MD","20905"
60531,"14217 MAYA CIRCLE","MOORPARK","CA","93021"
60532,"14217 S DEARBORN","RIVERDALE","IL","60827"
60533,"14218 BEECH COURT","GULFPORT","MS","39503"
60534,"14218 FIGUERAS ROAD","LA MIRADA","CA","90638"
60535,"14218 FIGUERAS ROAD","LA MIRADA","CA","90639"
60536,"14218 HOLLY POND CT","ORLANDO","FL","32824"
60537,"14218 N 50TH ST","SCOTTSDALE","AZ","85254"
60538,"14218 W SHERIAC CIR","WICHITA","KS","67235"
60539,"14219 ASHFORD COURT","ORLAND PARK","IL","60467"
60540,"14219 BERRINGTON DRIVE","HOUSTON","TX","77083"
60541,"14219 EL TOPO DR","POWAY","CA","92064"
60542,"14219 N 68TH PLACE","SCOTTSDALE","AZ","85254"
60543,"1421A E FRANKLIN BLVD SUITE 251","GASTONIA","NC","28054"
60544,"1421C JOSEPHINE ST","WAUKESHA","WI","53186"
60545,"1422    S WAMPUM WAY","MERIDIAN","ID","83642"
60546,"1422 10TH PLACE SOUTH","BIRMINGHAM","AL","35205"
60547,"1422 126TH AVENUE NW","COON RAPIDS","MN","55448"
60548,"1422 5TH STREET","ALAMEDA","CA","94501"
60549,"1422 ALMENA AVENUE","ROWLAND HEIGHTS","CA","91748"
60550,"1422 APPLETON PLACE","WESLEY CHAPEL","FL","33543"
60551,"1422 BEACONCREST CIRCLE","MURFREESBORO","TN","37128"
60552,"1422 BEVERLEY RD","BROOKLYN","NY","11226"
60553,"1422 CAMPUS RD","LOS ANGELES","CA","90042"
60554,"1422 CAMPUS ROAD","LOS ANGELES","CA","90042"
60555,"1422 COLTON ST","TOLEDO","OH","43609"
60556,"1422 COOL SPRING DR","HOUSTON","TX","77088"
60557,"1422 E 24TH ST","BROOKLYN","NY","11210"
60558,"1422 E WOODVINE CT","BOISE","ID","83706"
60559,"1422 EAST 21ST STREET","THE DALLES","OR","97058"
60560,"1422 EAST 71ST PLACE","CHICAGO","IL","60619"
60561,"1422 EAST MAIN STREET BOX 275","LINCOLNTON","NC","28092"
60562,"1422 ELLIS TRACE DR W","JACKSONVILLE","FL","32205"
60563,"1422 FRANKLIN ROAD","BRENTWOOD","TN","37027"
60564,"1422 FREMONT AVENUE","MADISON","WI","53704"
60565,"1422 GARRETT LANE","WEST CHESTER","PA","19380"
60566,"1422 HUNTERS REST DR","NORTH MYRTLE BEACH","SC","29582"
60567,"1422 INDIAN HILLS DRIVE","SPIRIT LAKE","IA","51360"
60568,"1422 LEOLILLIE LANE","CHARLOTTE","NC","28216"
60569,"1422 MT EPHRAIM AVENUE","CAMDEN","NJ","08104"
60570,"1422 N CURSON AVE","LOS ANGELES","CA","90046"
60571,"1422 NORMANDY DRIVE","CHULA VISTA","CA","91913"
60572,"1422 ONEIDA STREET","HUNTINGDON","PA","16652"
60573,"1422 PINE FOREST DRIVE","PEARLAND","TX","77581"
60574,"1422 RECORD CROSSING RD","DALLAS","TX","75235"
60575,"1422 ROSELAWN AVE","LANSING","MI","48915"
60576,"1422 S 14TH ST","MANITOWOC","WI","54220"
60577,"1422 S BROAD ST","PHILADELPHIA","PA","19146"
60578,"1422 S COLORADO AVE","BOISE","ID","83706"
60579,"1422 SPRING ROAD","CARLISLE","PA","17013"
60580,"1422 STONEGATE RD","LA GRANGE PK","IL","60526"
60581,"1422 TIGER DRIVE","THIBODAUX","LA","70301"
60582,"1422 W DANIELDALE RD","DUNCANVILLE","TX","75137"
60583,"1422 W KEY HARBOR DR","GILBERT","AZ","85233"
60584,"1422 W ROSAL PL","CHANDLER","AZ","85224"
60585,"1422 WASHINGTON AVE","RACINE","WI","53403"
60586,"14220 CLARIDON TROY RD","BURTON","OH","44021"
60587,"14220 INTERURBAN AVE S  SUITE 134","Tukwila","WA","98168"
60588,"14220 LINDSAY DRIVE","BROOKFIELD","WI","53005"
60589,"14220 N 78TH STREET","OMAHA","NE","68122"
60590,"14220 S PRESTWICK LN","ARIZONA CITY","AZ","85123"
60591,"14220 SHADY BEACH TRAIL","PRIOR LAKE","MN","55372"
60592,"14221 SPANISH POINT","EL PASO","TX","79938"
60593,"14221 TRANTERS CREEK LANE","CHARLOTTE","NC","28273"
60594,"14222 NORTH PIPING ROCK COURT","PHOENIX","AZ","85023"
60595,"14222 OLD HWY 49","GULFPORT","MS","39503"
60596,"14222 PORTRUSH DRIVE","ORLANDO","FL","32878"
60597,"14222 RIDEOUT CT","FONTANA","CA","92336"
60598,"14222 WUNDERLICH DR APT 1807","HOUSTON","TX","77069"
60599,"14223 WORTHINGTON DRIVE","GRANGER","IN","46530"
60600,"14224 446TH PL SE","NORTH BEND","WA","98045"
60601,"14224 CHARING CROSS","EDEN PRAIRIE","MN","55346"
60602,"14224 SE 163RD PL","RENTON","WA","98058"
60603,"14225 COUNTY HIGHWAY K","REEDSVILLE","WI","53020"
60604,"14225 CRIBBAGE TERRACE","SILVER SPRING","MD","20904"
60605,"14225 LORA DRIVE NUM 71","LOS GATOS","CA","95032"
60606,"14225 UNIVERSITY AVE STE 210","WAUKEE","IA","50263"
60607,"14225 UNIVERSITY AVE SUITE 210","WAUKEE","IA","50236"
60608,"14225 US HIGHWAY 1 STE 206","JUNO BEACH","FL","33408"
60609,"14226 56TH AVE S","TUKWILA","WA","98168"
60610,"14226 ALMEDA SCHOOL RD","HOUSTON","TX","77047"
60611,"14226 CRYSTAL COVE DR S","JACKSONVILLE","FL","32224"
60612,"14226 GRANT STREET","DOLTON","IL","60419"
60613,"14226 MORINSCOTT DRIVE","HOUSTON","TX","77049"
60614,"14226 SUSANNA ST","LIVONIA","MI","48154"
60615,"14227 CYPRESS VALLEY DR","CYPRESS","TX","77429"
60616,"14227 E ROCKVIEW RD","SCOTTSDALE","AZ","85262"
60617,"14228 ERWIN ST APT 5","VAN NUYS","CA","91401"
60618,"14228 NEARGROVE ROAD","LA MIRADA","CA","90638"
60619,"14228 STEWART ROAD","GALVESTON","TX","77554"
60620,"14229 ASHTON LANE","RIVERSIDE","CA","92508"
60621,"14229 FERNWOOD CIRCLE","STRONGSVILLE","OH","44136"
60622,"14229 REESE BLVD SUITE B3","HUNTERSVILLE","NC","28078"
60623,"14229 SILVER POINT AVE","EL PASO","TX","79938"
60624,"1423 ACORN COURT","MISSOURI CITY","TX","77489"
60625,"1423 ADAMS STREET","CINCINNATI","OH","45215"
60626,"1423 AUTUMNCREST DR","ARLINGTON","TX","76002"
60627,"1423 BRAZOS DR STE B","HUNTSVILLE","TX","77320"
60628,"1423 BROADWAY SUITE 1042","OAKLAND","CA","94612"
60629,"1423 CENTRAL AVENUE","SUPERIOR","WI","54880"
60630,"1423 DELTA DR","CEDAR HILL","TX","75104"
60631,"1423 E HILLSBORO BLVD - APT 622","DEERFIELD BEACH","FL","33441"
60632,"1423 E JEFFERSON STREET","DILLON","SC","29536"
60633,"1423 EAST 29TH","TACOMA","WA","98404"
60634,"1423 HARRISON","VICKSBURG","MS","39180"
60635,"1423 LAKE STREET","OGDEN","UT","84401"
60636,"1423 MADISON COURT","MOUNT PLEASANT","SC","29466"
60637,"1423 N BETHLEHEM PIKE","AMBLER","PA","19002"
60638,"1423 N HIGH ST","WICHITA","KS","67203"
60639,"1423 N RHODES STREET APT 301","ARLINGTON","VA","22209"
60640,"1423 N RICHMAN KNOLL","FULLERTON","CA","92835"
60641,"1423 NEWTON BRIDGE RD","ATHENS","GA","30607"
60642,"1423 NORFOLK","GRAND BLANC","MI","48439"
60643,"1423 NORTH 63RD PLACE","KANSAS CITY","KS","66102"
60644,"1423 PARK PLACE 12","SANTA  BARBARA","CA","93103"
60645,"1423 QUINNIPIAC AVE UNIT 811","NEW HAVEN","CT","06513"
60646,"1423 RIDGE AVE","STEUBENVILLE","OH","43952"
60647,"1423 ROCHESTER ST","CALDWELL","ID","83605"
60648,"1423 S 11TH AVE","MAYWOOD","IL","60153"
60649,"1423 S HIGLEY RD SUITE 127","MESA","AZ","85206"
60650,"1423 S HIGLEY ROAD SUITE 127","MESA","AZ","85206"
60651,"1423 SAINT PAUL ROAD","CHARLOTTE","TN","37036"
60652,"1423 SALAMANDER TRL","PANAMA CITY BEACH","FL","32413"
60653,"1423 SECOND STREET SUITE B","SANTA MONICA","CA","90401"
60654,"1423 SHAFTER AVE","SAN FRANCISCO","CA","94124"
60655,"1423 SHELBY AVE","NASHVILLE","TN","37206"
60656,"1423 SOUTH 16TH ST","OTTUMWA","IA","52544"
60657,"1423 SOUTH BELSAY ROAD","BURTON","MI","48509"
60658,"1423 SW 110TH WAY","DAVIE","FM","33324"
60659,"1423 TINTOWN ROAD","SLIGO","PA","16255"
60660,"1423 TULIP AVE","MCALLEN","TX","78504"
60661,"1423 W 110TH STREET","CHICAGO","IL","60643"
60662,"1423 WAYNE STREET","CAPE GIRARDEAU","MO","63701"
60663,"1423 WEST 66TH STREET","LOS ANGELES","CA","90047"
60664,"1423 WEST BEACH RD","OAK HARBOR","WA","98277"
60665,"1423 YOUNG STREET","RICHMOND","VA","23222"
60666,"14230 N US HIGHWAY 301","THONOTOSASSA","FL","33592"
60667,"14230 SANFORD AVE APT 6T","FLUSHING","NY","11355"
60668,"14231 ALTA OAKS DR","ROCKVILLE","MD","20850"
60669,"14231 CYPRESS RIDGE DRIVE","CYPRESS","TX","77429"
60670,"14231 FM1464 APT 17203","SUGAR LAND","TX","77498"
60671,"14231 SEAWAY RD STE 7010","GULFPORT","MS","39503"
60672,"14231 SEAWAY ROAD SUITE 7010","GULFPORT","MS","39503"
60673,"14232 DARTMOUTH","FENTON","MI","48430"
60674,"14232 MAILER BLVD","ORLANDO","FL","32828"
60675,"14232 RIVERVIEW STREET","DETROIT","MI","48223"
60676,"14232 SHADY OAK CT","SARATOGA","CA","95070"
60677,"14233 RUSSELL RD","Frisco","TX","75035"
60678,"14234 ASHBURY MEADOWS DR","FLORISSANT","MO","63034"
60679,"14234 NATAL PLUM","CORPUS CHRISTI","TX","78418"
60680,"14234 ORCHID TREE PLACE","ORLANDO","FL","32828"
60681,"14234 WEST 86TH DRIVE","ARVADA","CO","80005"
60682,"14235 97TH STREET","FELLSMERE","FL","32948"
60683,"14235 BURBAGE CIRCLE","CARY","NC","27519"
60684,"14235 MCCORMICK STREET","SHERMAN OAKS","CA","91401"
60685,"14235 PIKEMINNOW PL","BROOMFIELD","CO","80023"
60686,"14235 W 123RD ST","OLATHE","KS","66062"
60687,"14236 CATBIRD DR","GAINESVILLE","VA","20155"
60688,"14236 STATE ROUTE 550","ATHENS","OH","45701"
60689,"14236 TUOLUMNE COURT","FONTANA","CA","92336"
60690,"14239 DOUTHAT STATE PARK ROAD","MILLBORO","VA","24460"
60691,"14239 WILLIAMS GLEN RD","CHARLOTTE","NC","28273"
60692,"1424 12TH ST NW","CANTON","OH","44703"
60693,"1424 148TH AVE SE APT H11","BELLEVUE","WA","98007"
60694,"1424 148TH AVENUE NO H11","BELLEVUE","WA","98007"
60695,"1424 191ST PL SE","BOTHELL","WA","98012"
60696,"1424 ANTIETAM DRIVE","COLUMBUS","GA","31907"
60697,"1424 ASHER STREET","YUKON","OK","73099"
60698,"1424 AUTUMN LEAF ROAD","TOWSON","MD","21286"
60699,"1424 BELLA VISTA DR","SIERRA VISTA","AZ","85635"
60700,"1424 CALLE FIDELIDAD","THOUSAND OAKS","CA","91360"
60701,"1424 CHARLOTTE WAY","CARROLLTON","TX","75007"
60702,"1424 E JOPPA RD LOWER SUITE","TOWSON","MD","21286"
60703,"1424 E SHERMAN AVE SUITE 200","COEUR D ALENE","ID","83816"
60704,"1424 EAST 33RD ST","HOUSTON","TX","77022"
60705,"1424 FALCON DRIVE","LOUISVILLE","KY","40213"
60706,"1424 FATHER RYAN AVE","BILOXI","MS","39531"
60707,"1424 FOURTH STREET SUITE 238","SANTA MONICA","CA","90401"
60708,"1424 GESNA DR","HANOVER","MD","21076"
60709,"1424 GROVE ST","EVANSTON","IL","60201"
60710,"1424 HALFORD ST","ANDERSON","IN","46016"
60711,"1424 HAMPEL ST  APT 1","OAKLAND","CA","94602"
60712,"1424 HAMPEL ST SUITE 2","OAKLAND","CA","94602"
60713,"1424 K ST NW STE 401","WASHINGTON","DC","20005"
60714,"1424 KENILWORTH PARKWAY","BATON ROUGE","LA","70808"
60715,"1424 LAKE VALLEY ROAD","MACON","GA","31210"
60716,"1424 LANTANA ST","CAMARILLO","CA","93010"
60717,"1424 LUISA ST STE 2","SANTA FE","NM","87505"
60718,"1424 MADRONA AVE","EVERETT","WA","98203"
60719,"1424 MANHATTAN AVE","HERMOSA BEACH","CA","90254"
60720,"1424 MARINES DRIVE","LITTLE ELM","TX","75068"
60721,"1424 MINK DR","APOPKA","FL","32703"
60722,"1424 MONROE ST","WALLA WALLA","WA","99362"
60723,"1424 N LINCOLN ST","SPOKANE","WA","99201"
60724,"1424 N REDFIELD ST","PHILADELPHIA","PA","19151"
60725,"1424 N SAM HOUSTON PKWY E STE 160","HOUSTON","TX","77032"
60726,"1424 NORTH BROWN RD SUITE 200","LAWRENCEVILLE","GA","30043"
60727,"1424 NW LAKE ST","NEWPORT","OR","97365"
60728,"1424 P O BOX","STUDIO CITY","CA","91614"
60729,"1424 PASEO VERA","CARSON","CA","90745"
60730,"1424 PEIDMONT DRIVE EAST SUITE 202","TALLAHASSEE","FL","32308"
60731,"1424 POINTSETTIA STREET","METAIRIE","LA","70005"
60732,"1424 RICKERT STREET","STATESVILLE","NC","28677"
60733,"1424 ROYAL FOREST LOOP","LAKELAND","FL","33811"
60734,"1424 ROYAL FOREST","LAKELAND","FL","33811"
60735,"1424 RYLANDS RD","VIRGINIA BEACH","VA","23455"
60736,"1424 S FRETZ AVE","EDMOND","OK","73003"
60737,"1424 S SANDSPRINGS DR","WEST COVINA","CA","91790"
60738,"1424 SAMPSON ST","DES MOINES","IA","50316"
60739,"1424 SCHOLAR DR","NEW FRANKEN","WI","54229"
60740,"1424 SPALDING ROAD","WINTER SPRINGS","FL","32708"
60741,"1424 ST CHARLES CT","CONYERS","GA","30094"
60742,"1424 STAPLES ST NE","WASHINGOTN DC","DC","20002"
60743,"1424 STICKNEY AVE","S ST PAUL","MN","55075"
60744,"1424 SULPHUR SPRING RD","BALTIMORE","MD","21227"
60745,"1424 SUMMERGATE DR","VALRICO","FL","33594"
60746,"1424 VIVALDI PLACE","LONGWOOD","FL","32779"
60747,"1424 W BUFFALO RD","LONG ISLAND","KS","67647"
60748,"1424 W CALIFORNIA AVE","FRESNO","CA","93706"
60749,"1424 W SAINT JAMES PL","ARLINGTON HEIGHTS","IL","60005"
60750,"1424 WALLACE AVE","INDIANAPOLIS","IN","46201"
60751,"1424 WEST 11TH ST","JACKSONVILLE","FL","32209"
60752,"1424 WEST 57TH ST APT 1","CLEVELAND","OH","44102"
60753,"1424 WESTBROOKE TERRACE","NORMAN","OK","73072"
60754,"1424 WHITOWER DR","KNOXVILLE","TN","37919"
60755,"1424 WSW LOOP 323","TYLER","TX","75701"
60756,"14240 LAKE DRIVE","IDLEWILD","MI","49642"
60757,"14240 SULLYFIELD CIRCLE UNIT U","CHANTILLY","VA","20151"
60758,"14240 SW 106 COURT","MIAMI","FL","33176"
60759,"14240 SW YEARLING WAY","BEAVERTON","OR","97008"
60760,"14240 UNIT U SULLYFIELD CIR","CHANTILLY","VA","20151"
60761,"14240 WATERFORD CREEK BLVD","ORLANDO","FL","32828"
60762,"14240 WEST SIDE BLVD SUITE 304","LAUREL","NY","20707"
60763,"14241 ARBOR FOREST DRIVE APT 203","ROCKVILLE","MD","20850"
60764,"14241 BLACKFOOT ST NW","ANDOVER","MN","55304"
60765,"14241 COURSEY BLVD BLDG A-12 STE268","BATON ROUGE","LA","70817"
60766,"14241 DALLAS PARKWAY SUITE 650","DALLAS","TX","75254"
60767,"14241 E FIRESTONE BLVD","LA MIRADA","CA","90638"
60768,"14242 SUNSET DRIVE","MONTE NE","AR","72758"
60769,"14243 S 32ND PL","PHOENIX","AZ","85044"
60770,"14243 TRISKETT RD 203K","CLEVELAND","OH","44111"
60771,"14244 DELJEAN CIR","ORLANDO","FL","32828"
60772,"14244 PACE ROAD","JACKSONVILLE","FL","32218"
60773,"14244 PARADISE TREE DR","ORLANDO","FL","32828"
60774,"14244 S 12TH ST","PHOENIX","AZ","85048"
60775,"14244 VALLEY VISTA BLVD","SHERMAN OAKS","CA","91423"
60776,"14244 W CALLA RD","SALEM","OH","44460"
60777,"14245 DICKENS STREET UNIT 305","SHERMAN OAKS","CA","91423"
60778,"14245 LORA DR 14","LOS GATOS","CA","95032"
60779,"14246 S AVENIDA ZUMBA","SAHUARITA","AZ","85629"
60780,"14246 SW 164TH TERRACE","MIAMI","FL","33177"
60781,"14246 VALLEY VISTA BLVD","SHERMAN OAKS","CA","91423"
60782,"14247 BLACKWATER RD","BAKER","LA","70714"
60783,"14247 NW 25TH AVE","GAINESVILLE","FL","32606"
60784,"14248 HECTORVILLE ROAD","MOUNDS","OK","74047"
60785,"14248 S CHOLLA CANYON DR","PHOENIX","AZ","85044"
60786,"14248 SUNSET RD","WINSLOW","AR","72959"
60787,"14249 HAMPSHIRE HALL COURT","UPPER MARLBORO","MD","20772"
60788,"1425 25TH ST","SARASOTA","FL","34234"
60789,"1425 4TH STREET WEST","HASTINGS","MN","55033"
60790,"1425 9TH AVE SW","WATERTOWN","SD","57201"
60791,"1425 AMSTERDAM AVE APT 8L","NEW YORK","NY","10027"
60792,"1425 AMSTERDAM AVENUE 4F","NEW YORK","NY","10027"
60793,"1425 ANNA MARIE CT","ANNAPOLIS","MD","21409"
60794,"1425 ANTIENNE DRIVE","HENDERSON","NV","89052"
60795,"1425 AUTUMN RIDGE DR","KNOXVILLE","TN","37922"
60796,"1425 BALZAR AVE","LAS VEGAS","NV","89106"
60797,"1425 BARNA AVE","TITUSVILLE","FL","32780"
60798,"1425 BATTLEFIELD BLVD N  NUM 3005","CHESPEAKE","VA","23320"
60799,"1425 BATTLEFIELD BLVD N 3050","CHESAPEAKE","VA","23327"
60800,"1425 BELLE HAVEN DRIVE","LANDOVER","MD","20785"
60801,"1425 BENTLEY COURT","SOUTHLAKE","TX","76092"
60802,"1425 BLUFF CREEK DRIVE","CHASKA","MN","55318"
60803,"1425 BRETON HUNT LN","SUWANEE","GA","30024"
60804,"1425 BRIARWOOD DRIVE","LANSING","MI","48917"
60805,"1425 BRICKELL AVENUE APT 46F","MIAMI","FL","33131"
60806,"1425 BRIDLEBROOK DR","CASSELBERRY","FL","32707"
60807,"1425 BROADMOOR LANE","IRVING","TX","75061"
60808,"1425 BROADWAY STE 26648","SEATTLE","WA","98122"
60809,"1425 BROADWAY UNIT 225","SEATTLE","WA","98122"
60810,"1425 BROOKING RD","KEVIL","KY","42053"
60811,"1425 BUCKEYE LANE","DAVIS","CA","95618"
60812,"1425 BUCKINGHAM DRIVE","LA JOLLA","CA","92037"
60813,"1425 BURLEIGH ROAD","CAPE MAY COURT HOUSE","NJ","08210"
60814,"1425 BYRON ST SE","GRAND RAPIDS","MI","49506"
60815,"1425 CAMBRIDGE DRIVE","IDAHO FALLS","ID","83402"
60816,"1425 CATE ROAD","BRUNSWICK","GA","31525"
60817,"1425 CHESTER PIKE","EDDYSTONE","PA","19022"
60818,"1425 CODE AVENUE","CRETE","NE","68333"
60819,"1425 CORTLAND DRIVE","WALL","NJ","08736"
60820,"1425 CROOKED HILL ROAD UNIT 61538","HARRISBURG","PA","17106"
60821,"1425 DARNABY WAY","ORLANDO","FL","32824"
60822,"1425 DEXTER LAKE DR APT 402","CORDOVA","TN","38016"
60823,"1425 E DUBLIN GRANVILLE RD NUM 201","COLUMBUS","OH","43229"
60824,"1425 E DUBLIN GRANVILLE RD STE 110","COLUMBUS","OH","43229"
60825,"1425 E DUBLIN GRANVILLE RD STE 111","COLUMBUS","OH","43229"
60826,"1425 E DUBLINGRANVILLE ROAD STE 100","COLUMBUS","OH","43129"
60827,"1425 E FORT AVENUE","BALTIMORE","MD","21230"
60828,"1425 EAST 12TH STREET","BROOKLYN","NY","11230"
60829,"1425 EAST 2400 NORTH","LAYTON","UT","84040"
60830,"1425 EAST 41ST STREET","TULSA","OK","74105"
60831,"1425 EAST 8TH STREET","BROOKLYN","NY","11230"
60832,"1425 ELLSWORTH IND BLVD NW - STE 7","ATLANTA","GA","30318"
60833,"1425 FRESHWATER COURT","WAKE FOREST","NC","27587"
60834,"1425 GRAND AVENUE NUMBER 3","SAN LEANDRO","CA","94577"
60835,"1425 HILLSIDE AVENUE","CHESAPEAKE","VA","23322"
60836,"1425 INDUSTRIAL DR","EUFAULA","OK","74432"
60837,"1425 K STREET NW SUITE 350","WASHINGTON","DC","20005"
60838,"1425 K STREET NW","WASHINGTON","DC","20005"
60839,"1425 KELLY RD","BIG BEND","WV","26136"
60840,"1425 LINDEN AVENUE","JACKSONVILLE","FL","32207"
60841,"1425 LUTHER ST","CHARLOTTE","NC","28204"
60842,"1425 MADISON AVENUE - L6-63","NEW YORK CITY","NY","10029"
60843,"1425 MARKET BLVD SUITE 530-233","ROSWELL","GA","30076"
60844,"1425 MARKET BLVD SUITE 530-236","ROSWELL","GA","30076"
60845,"1425 MARKET BLVD SUITE 530-86","ROSWELL","GA","30076"
60846,"1425 MARTIN L KING DRIVE","BAINBRIDGE","GA","39817"
60847,"1425 MARTIN L KING DRIVE","BAINBRIDGE","GA","39819"
60848,"1425 MCCALLA AVE","KNOXVILLE","TN","37915"
60849,"1425 MCKINLEY DR","RENO","NV","89509"
60850,"1425 MINNEHAHA AVENUE  BOX 600383","ST PAUL","MN","55106"
60851,"1425 N 12TH STREET","MILWAUKEE","WI","53205"
60852,"1425 N COURTHOUSE ROAD","ARLINGTON","VA","22201"
60853,"1425 N IVANHOE ST","ALEXANDRIA","VA","22304"
60854,"1425 NATCHEZ LOOP","COVINGTON","LA","70433"
60855,"1425 NORTH DALLAS AVE STE 206 D","LANCASTER","TX","75134"
60856,"1425 NORTH DALLAS AVE SUITE 206 E","LANCASTER","TX","75134"
60857,"1425 NORTH DECKER AVENUE","BALTIMORE","MD","21213"
60858,"1425 NORTH MAGNOLIA AVENUE","EL CAJON","CA","92020"
60859,"1425 NW 187TH STREET","EDMOND","OK","73012"
60860,"1425 OLD COUNTRY ROAD","PLAINVIEW","NY","11803"
60861,"1425 OLD ORCHARD DRIVE","IRVING","TX","75061"
60862,"1425 PALANCIA AVENUE","CORAL GABLES","FL","33146"
60863,"1425 PARILLO CT","NORTH BRUNSWICK","NJ","08902"
60864,"1425 PATRICIAN DRIVE","LAKE HAVASU CITY","AZ","86404"
60865,"1425 RIDENOUR BLVD NW APT 8111","KENNESAW","GA","30152"
60866,"1425 RIVER RIDGE DRIVE","CLEMMONS","NC","27012"
60867,"1425 ROSEDALE LANE","HOFFMAN ESTATES","IL","60169"
60868,"1425 RUSSETT LANE","OSHKOSH","WI","54904"
60869,"1425 S 52ND ST","PHILADELPHIA","PA","19143"
60870,"1425 S HILLCREST AVE","CLEARWATER","FL","33756"
60871,"1425 S MADISON AVE","MONROE","GA","30655"
60872,"1425 S PUGET DR APT 303","RENTON","WA","98116"
60873,"1425 SARGENT RD","CROZIER","VA","23039"
60874,"1425 SE HARLOW AVENUE","TROUTDALE","OR","97060"
60875,"1425 SEVEN BRIDGES ROAD","TIMMONSVILLE","SC","29161"
60876,"1425 SOMMERTON WAY","CHESAPEAKE","VA","23320"
60877,"1425 SOUTH 28TH AVENUE","YAKIMA","WA","98902"
60878,"1425 SOUTH HARBISON AVENUE","NATIONAL CITY","CA","91950"
60879,"1425 SW 84TH CT","MIAMI","FL","33144"
60880,"1425 TEAGUE ROAD UNIT 404","MYRTLE BEACH","SC","29577"
60881,"1425 THAMES CT","MYRTLE BEACH","SC","29577"
60882,"1425 UNIVERSITY AVE SUITE C","SAN DIEGO","CA","92103"
60883,"1425 VASSAR ST","SAVANNAH","GA","31405"
60884,"1425 W 60TH STREET","LOS ANGELES","CA","90047"
60885,"1425 W 71ST PLACE","CHICAGO","IL","60636"
60886,"1425 W JACKSON ST","RIALTO","CA","92376"
60887,"1425 W LINCOLN HWY AL 100","DEKALB","IL","60115"
60888,"1425 W LUGONIA AVENUE SUITE 204","REDLANDS","CA","92374"
60889,"1425 W MAIN ST","LOWELL","MI","49331"
60890,"1425 W MOUNT HOUSTON ROAD","HOUSTON","TX","77038"
60891,"1425 W PICKARD RD","MOUNT PLEASANT","MI","48858"
60892,"1425 W PIONEER DRIVE SUITE 127","IRVING","TX","75061"
60893,"1425 W PIONEER SUITE 143","IRVING","TX","75061"
60894,"1425 WAVERLY STREET","WINSTON SALEM","NC","27127"
60895,"1425 WEST CHIMES","BATON ROUGE","LA","70802"
60896,"1425 WEST GRAND RIVER AVENUE","HOWELL","MI","48843"
60897,"1425 WEST LINCOLN HIGHWAY","DEKALB","IL","60115"
60898,"1425 WHIPPLE AVE NW","CANTON","OH","44708"
60899,"1425 WINDWOOD XING","MYRTLE BEACH","SC","29575"
60900,"1425 YELLOW SPRINGS RD","MALVERN","PA","19355"
60901,"14250 108TH ST","LEXINGTON","OK","73051"
60902,"14250 HWY 231-431 N","HAZEL GREEN","AL","35750"
60903,"14250 KIMBERLEY LN 197","HOUSTON","TX","77079"
60904,"14250 OVERBROOK DRIVE","CARMEL","IN","46074"
60905,"14250 W STATE ROUTE 105","OAK HARBOR","OH","43449"
60906,"14251 ARDEL DRIVE","WEST PALM BEACH","FL","33410"
60907,"14252 CULVER DRIVE A-342","IRVINE","CA","92604"
60908,"14252 MCCASLIN LAKE ROAD","LINDEN","MI","48451"
60909,"14252 W SPAD ST","LUKE AFB","AZ","85309"
60910,"14253 CREEKBED CIRCLE","WINTER GARDEN","FL","34787"
60911,"14253 N 23RD ST","PHOENIX","AZ","85022"
60912,"14255 DICKENS STREET APT 8","SHERMAN OAKS","CA","91423"
60913,"14255 HAMLIN BLVD","LOXAHATCHEE","FL","33470"
60914,"14255 HARWOOD AVENUE","BATON ROUGE","LA","70816"
60915,"14255 PEYTON DRIVE","CHINO HILLS","CA","91709"
60916,"14256 PAPAYA FARMS RD","PAHOA","HI","96778"
60917,"14257 MANDERLEIGH WOODS DR","TOWN AND COUNTRY","MO","63017"
60918,"14257 OLD COURTHOUSE WAY","NEWPORT NEWS","VA","23602"
60919,"14258 PIEDMONT STREET","DETROIT","MI","48223"
60920,"1426  GLADE POINT DR","COPPELL","TX","75019"
60921,"1426 143RD STREET","WHITESTONE","NY","11357"
60922,"1426 8TH AVE","NEPTUNE","NJ","07753"
60923,"1426 AMBER HILL LANE","GRAYSON","GA","30017"
60924,"1426 AMERICAN WAY","JONESBOROUGH","TN","37659"
60925,"1426 AUTUMNCREST DRIVE","ARLINGTON","TX","76002"
60926,"1426 CASCADE DRIVE","GROVE CITY","OH","43123"
60927,"1426 E GANO AVENUE","ST LOUIS","MO","63107"
60928,"1426 FALL RIVER RD","CONYERS","GA","30013"
60929,"1426 HACKBERRY HEIGHTS DR","RICHMOND","TX","77406"
60930,"1426 HAIGHT STREET","SAN FRANCISCO","CA","94117"
60931,"1426 HARBOUR WALK RD","TAMPA","FL","33602"
60932,"1426 HILLMONT AVE","DAYTON","OH","45414"
60933,"1426 HOME AVENUE","DAYTON","OH","45402"
60934,"1426 KENWOOD DR","RUSTON","LA","71270"
60935,"1426 LOCKBOURNE RD","COLUMBUS","OH","43206"
60936,"1426 LORING AVENUE 8C","BROOKLYN","NY","11208"
60937,"1426 N MARVIN ST","GILBERT","AZ","85233"
60938,"1426 PATRICIA CIRCLE","KNOXVILLE","TN","37914"
60939,"1426 RACE ST","CINCINNATI","OH","45202"
60940,"1426 RHODE ISLAND AVE NW A 1/2","WASHINGTON","DC","20005"
60941,"1426 RIPCHAK RD","CORONA","CA","92879"
60942,"1426 S BARRINGTON APT 6","LOS ANGELES","CA","90025"
60943,"1426 S JACKSON","GREEN BAY","WI","54301"
60944,"1426 SALISBURY","SAINT LOUIS","MO","63107"
60945,"1426 SMITHFIELD DRIVE","SUN PRAIRIE","WI","53590"
60946,"1426 SOUTHWEST ORIOLE LANE","PORT ST LUCIE","FL","33412"
60947,"1426 SW BARGELLO AVENUE","PORT ST LUCIE","FL","34953"
60948,"1426 TOWNE LAKE PKWY SUITE 102 354","WOODSTOCK","GA","30188"
60949,"1426 W CENTER ST","ROCHESTER","MN","55902"
60950,"1426 W SUSQUEHANNA AVENUE","PHILADELPHIA","PA","19121"
60951,"1426 WAGON COURT","WILMINGTON","NC","28412"
60952,"1426","ROSEBURG","OR","97470"
60953,"1426","SOUTH GATE","CA","90280"
60954,"1426","XENIA","OH","45385"
60955,"14260 BURT RD","DETROIT","MI","48204"
60956,"14260 E 48TH PLACE","LOS ANGELES","CA","90011"
60957,"14260 HWY 25","FRANKLITNON","FL","70438"
60958,"14260 LARCHMERE BLVD","SHAKER HEIGHTS","OH","44120"
60959,"14260 MARLOWE","DETROIT","MI","48227"
60960,"14260 OAK LANE","CODEN","AL","36523"
60961,"14260 SW 74 TERRACE","MIAMI","FL","33183"
60962,"14260 TAMIAMI TRAIL SUITE 10","NORTH PORT","FL","34287"
60963,"14260 WEST NEWBERRY ROAD 129","NEWBERRY","FL","32669"
60964,"14261 E 1ST DR UNIT 305","AURORA","CO","80011"
60965,"14261 E 4TH AVE STE 100","AURORA","CO","80011"
60966,"14261 MADISON ST","MIAMI","FL","33176"
60967,"14261 MEMORIAL HIGHWAY","MIAMI","FL","33161"
60968,"14261 SW 120TH ST","MIAMI","FL","33186"
60969,"14262 OVERBROOK DRIVE","CARMEL","IN","46074"
60970,"14264 E MARQUAM RD NE","MOUNT ANGEL","OR","97362"
60971,"14264 N FOREST BEACH SHORES DR","NORTHPORT","MI","49670"
60972,"14264 POINT JUDITH STREET","FONTANA","CA","92336"
60973,"14264 W 230 N","LINTON","IN","47441"
60974,"14266 WESTBROOK STREET","APLINGTON","IA","50604"
60975,"14267 MESSMER RD","SAVANNA","IL","61074"
60976,"14267 SW 42 ST","MIAMI","FL","33175"
60977,"14269 PALMETTO SPRINGS ST","JACKSONVILLE","FL","32258"
60978,"1427 14TH ST","BEDFORD","IN","47421"
60979,"1427 14TH STREET","BEDFORD","IN","47421"
60980,"1427 18TH ST SOUTH","BIRMINGHAM","AL","35205"
60981,"1427 ANDREW DRIVE","WARSON WOODS","MO","63122"
60982,"1427 AUTUMNCREST DRIVE","ARLINGTON","TX","76002"
60983,"1427 AVENIDA LA POSTA","ENCINITAS","CA","92024"
60984,"1427 BAY VIEW AVE","WILMINGTON","CA","90744"
60985,"1427 COLEMAN REGISTER RD","RENTZ","GA","31075"
60986,"1427 COVENTRY MANOR 214","LAWRENCE","KS","66049"
60987,"1427 CRITTENDEN ST NW","WASHINGTON","DC","20011"
60988,"1427 DILLINGHAM BLVD  SUITE 210","HONOLULU","HI","96817"
60989,"1427 E 550TH RD","LAWRENCE","KS","66049"
60990,"1427 EDGEKNOLL DR SE","GRAND RAPIDS","MI","49508"
60991,"1427 EHUPUA STREET","HONOLULU","HI","96821"
60992,"1427 FENNELL ROAD","ANDERSON","SC","29625"
60993,"1427 FINKS HIDEAWAY RD","MONROE","LA","71203"
60994,"1427 FORDVILLE ROAD","RIDGELAND","SC","29936"
60995,"1427 FOUNTAIN GLEN DRIVE","BEL AIR","MD","21015"
60996,"1427 HIGHWAY 18","CABOOL","MO","65689"
60997,"1427 HILLSIDE PLACE","CONYERS","GA","30094"
60998,"1427 LONGFELLOW ST NW","WASHINGTON","DC","20011"
60999,"1427 MONTEREY ROAD","SOUTH PASADENA","CA","91030"
61000,"1427 MOORE TERRACE","ARLINGTON","TX","76010"
