"ID","Address","City","State","Zip"
286001,"751 S WEIR CANYON ROAD SUITE 157","ANAHEIM HILLS","CA","92808"
286002,"751 S WESTLAKE AVE","LOS ANGELES","CA","90057"
286003,"751 S WOLCOTT DR","PUEBLO WEST","CO","81007"
286004,"751 SAINT MARKS AVE F11","BROOKLYN","NY","11216"
286005,"751 SCHAFFRAN RD","CASTLE ROCK","WA","98611"
286006,"751 SHORE VIEW CT","FRANKLIN","IN","46131"
286007,"751 SPRUCE ST","SAN FRANCISCO","CA","94118"
286008,"751 STONEBRIDGE CRESCENT","LITHONIA","GA","30058"
286009,"751 SW 109TH AVENUE APT 303","PEMBROKE PINES","FL","33025"
286010,"751 SW 121ST AVE","DAVIE","FL","33325"
286011,"751 TIGHT RUN LOOP RD","UNION MILLS","NC","28167"
286012,"751 UTE AVE - PO BOX 486","KIOWA","CO","80117"
286013,"751 WALNUT KNOLL LANE","CORDOVA","TN","38018"
286014,"751 WESTMINSTER ROAD","BROOKLYN","NY","11230"
286015,"751 WICHITAW DR","FREMONT","CA","94539"
286016,"7510 162ND ST SW","EDMOINDS","WA","98026"
286017,"7510 162ND ST SW","EDMONDS","WA","98026"
286018,"7510 288TH AVENUE 3","SALEM LAKES","WI","53168"
286019,"7510 CHELWYNDE AVE","PHILADELPHIA","PA","19153"
286020,"7510 DEER ROAD","CUSTER","WI","54423"
286021,"7510 HILLMONT DR","OAKLAND","CA","94605"
286022,"7510 HONEY CREEK ROAD","CELINA","TX","75009"
286023,"7510 HORNWOOD STE 706","HOUSTON","TX","77036"
286024,"7510 JACKS LN","CLAYTON","OH","45315"
286025,"7510 LANCASTER THORNVILLE RD","PLEASANTVILLE","OH","43148"
286026,"7510 LYTTON CT","RENO","NV","89506"
286027,"7510 MARSLAND LANE","ARLINGTON","TX","76001"
286028,"7510 MONTEEL DR","PORT RICHEY","FL","34668"
286029,"7510 ROUTE 219","BROCKWAY","PA","15824"
286030,"7510 SILVER STAR RD","ORLANDO","FL","32818"
286031,"7510 W FM 846","KNOTT","TX","79748"
286032,"7510 WINTERGREEN LN","CORDOVA","TN","38018"
286033,"7510 YELLOWSTONE BLVD APT 5F","FOREST HILLS","NY","11374"
286034,"7510 ZIMPEL STREET","NEW ORLEANS","LA","70118"
286035,"7511 BASSWORD FOREST CT","HOUSTON","TX","77095"
286036,"7511 BRADFORD PEAR DRIVE","IRVING","TX","75063"
286037,"7511 BRANCH DRIVE","NEW ORLEANS","LA","70128"
286038,"7511 FEDER ROAD","GALLOWAY","OH","43119"
286039,"7511 LEY RD","HOUSTON","TX","77028"
286040,"7511 MAPLE LANE","RAYTOWN","MO","64138"
286041,"7511 OAKRIDGE TRAIL","SHAKOPEE","MN","55379"
286042,"7511 PONCE STREET","WEST","CA","91307"
286043,"7511 SAVOY LANE UNIT B","BRIDGEVIEW","IL","60455"
286044,"7511 SUNFISH DRIVE NE","ROCKFORD","MI","49341"
286045,"7511 WINLATON CT","HYATTSVILLE","MD","20785"
286046,"7512 172ND AVE NE","FOREST LAKE","MN","55025"
286047,"7512 180TH ST SW","EDMONDS","WA","98026"
286048,"7512 BRADSHAW ROAD","KINGSVILLE","MD","21087"
286049,"7512 CARRIE RIDGE WAY","SAN DIEGO","CA","92139"
286050,"7512 CATHEDRAL CANYON CT","LAS VEGAS","NV","89129"
286051,"7512 COTTONWOOD DRIVE","DENVER","NC","28037"
286052,"7512 DR PHILLIPS BLVD STE 50-814","ORLANDO","FL","32819"
286053,"7512 DR PHILLIPS BLVD SUITE 50-522","ORLANDO","FL","32819"
286054,"7512 DR PHILLIPS BLVD SUITE 50-655","ORLANDO","FL","32819"
286055,"7512 DR PHILLIPS BLVD SUITE 50-705","ORLANDO","FL","32819"
286056,"7512 DR PHILLIPS BLVD SUITE 50-765","ORLANDO","FL","32819"
286057,"7512 DR PHILLPS BLVD STE 50-132","ORLANDO","FL","32819"
286058,"7512 FM 1291","LEDBETTER","TX","78946"
286059,"7512 FRESCO BEND DR","BATON ROUGE","LA","70811"
286060,"7512 LOCKWOOD DR","HOUSTON","TX","77065"
286061,"7512 TAPP RD","OCEAN SPRINGS","MS","39564"
286062,"7512 W CARMEN AVE","MILWAUKEE","WI","53218"
286063,"7512 WILSON ST","VIOLET","LA","70092"
286064,"7513 33RD NE AVENUE","SEATTLE","WA","98115"
286065,"7513 ASHTON POINTE LANE","KNOXVILLE","TN","37931"
286066,"7513 CANDYTUFT COURT","SPRINGFIELD","VA","22153"
286067,"7513 CUMBERLAND GLEN LANE SE","SMYRNA","GA","30080"
286068,"7513 ELDERBERRY DR","DOUGLASVILLE","GA","30135"
286069,"7513 ELDERBERRY DRIVE","DOUGLASVILLE","GA","30135"
286070,"7513 HENDERSON GIN ROAD","SHREVEPORT","LA","71107"
286071,"7513 JEREZ COURT UNIT B","CARLSBAD","CA","92009"
286072,"7513 KNOCKFIN DR","AUSTIN","TX","78744"
286073,"7513 LEWIS ROAD","OLMSTED TOWNSHIP","OH","44138"
286074,"7513 OHIO NORTHERN DR NW","LANCASTER","OH","43130"
286075,"7513 QUIMBY AVENUE","WEST HILLS","CA","91307"
286076,"7513 RAINWATER RD","RALEIGH","NC","27615"
286077,"7513 SENTRY BLVD STE 107","TINKER AFB","OK","73145"
286078,"7513 SIMMS CT","ARVADA","CO","80005"
286079,"7513 WAKULLA DRIVE","TAMPA","FL","33637"
286080,"75136 GREGOT ROAD","KENTWOOD","LA","70444"
286081,"7514 13TH AVENUE NW","SEATTLE","WA","98104"
286082,"7514 CO RD 1","LOWER PEACH TREE","AL","36751"
286083,"7514 GIRARD AVE UNIT 1163","LA JOLLA","CA","92037"
286084,"7514 LEMON TREE CIRCLE","HOUSTON","TX","77088"
286085,"7514 OLD BRIDGE CT","SUGAR LAND","TX","77479"
286086,"7514 PARADISE PL","TAMPA","FL","33619"
286087,"7514 SAMANTHA DRIVE APT 1103","FORT WORTH","TX","76134"
286088,"7514 STRATFORD PLACE","VESTAVIA HILLS","AL","35242"
286089,"7514 SUFFOLK AVENUE","SAINT LOUIS","MO","63119"
286090,"7514 WILSHIRE DRIVE","ROWLETT","TX","75089"
286091,"7515 147TH AVE E","SUMNER","WA","98390"
286092,"7515 16TH ST NW","WASHINGTON","DC","20012"
286093,"7515 COUNTRY KNOLL RD","BAHAMA","NC","27503"
286094,"7515 EAST FIRST DRIVE","RILEY","IN","47871"
286095,"7515 FOREST GLENN ROAD","NEW ORLEANS","LA","70127"
286096,"7515 FORREST AVENUE","PENNSAUKEN","NJ","08110"
286097,"7515 HART LANE","AUSTIN","TX","78731"
286098,"7515 JEFFERSON HWY 31","BATON ROUGE","LA","70806"
286099,"7515 KINGSBURY COURT","CUPERTINO","CA","95014"
286100,"7515 LAS FLORES DR","HOUSTON","TX","77083"
286101,"7515 N 155TH TER","BENNINGTON","NE","68007"
286102,"7515 N ALMA AVENUE","PORTLAND","OR","97203"
286103,"7515 S HONORE ST","CHICAGO","IL","60620"
286104,"7515 S PRAIRIE AVE","CHICAGO","IL","60619"
286105,"7515 SHAMROCK AVE","UNION","KY","41091"
286106,"7515 SHELDON ROAD UNIT 35103","ELK GROVE","CA","95758"
286107,"7515 WHITLOCK PLACE","LINCOLN","NE","68516"
286108,"75153 RAVENWOOD DRIVE","YULEE","FL","32097"
286109,"7516 ARLINGTON BLVD","FALLS CHURCH","VA","22042"
286110,"7516 BRAMBLEWOOD DRIVE","PORT RICHEY","FL","34668"
286111,"7516 BROCKWOOD COURT","NORTH RICHLAND HILLS","TX","76182"
286112,"7516 JEAN ANN DRIVE","NORTH RICHLAND HILLS","TX","76180"
286113,"7516 LAYTONIA DRIVE","GAITHERSBURG","MD","20877"
286114,"7516 LIBERTY RD","SOLON","OH","44139"
286115,"7516 SOCIETY DR","CLAYMONT","DE","19703"
286116,"7516 WOODBINE AVENUE","PHILADELPHIA","PA","19151"
286117,"7517 CAMERON RD","AUSTIN","TX","78752"
286118,"7517 CEDAR GROVE LANE","ELKRIDGE","MD","21075"
286119,"7517 CHAMPLAIN DRIVE","WILMINGTON","NC","28412"
286120,"7517 COVE POINT WAY","ELKRIDGE","MD","21075"
286121,"7517 CRANBERRY COURT","HANOVER","MD","21076"
286122,"7517 DIMMICK ROAD","WEST CHESTER","OH","45241"
286123,"7517 LEXINGTON AVE","CLEVELAND","OH","44103"
286124,"7517 MORNING CREST PLACE","RANCHO CUCAMONGA","CA","91739"
286125,"7517 NE 100TH COURT","KANSAS CITY","MO","64157"
286126,"7517 RW EMERSON LOOP","LAREDO","TX","78041"
286127,"7517 W COUNTY RD M","EDGERTON","WI","53534"
286128,"7517 W LA HWY 338","ABBEVILLE","LA","70510"
286129,"7517 W MANCHESTER AVE UNIT 627","LOS ANGELES","CA","90045"
286130,"7518 B OLD HARDING PIKE","NASHVILLE","TN","37221"
286131,"7518 B STONEY RUN DR","HANOVER","MD","21076"
286132,"7518 EDGEBROOK DRIVE","ST. LOUIS PARK","MN","55426"
286133,"7518 HOLLOW CREEK DR","TOLEDO","OH","43617"
286134,"7518 SNOWPEA CT UNIT L","ALEXANDRIA","VA","22306"
286135,"7518 SOUTH 31ST WAY","PHOENIX","AZ","85042"
286136,"7518 SOUTH VERMONT AVENUE","LOS ANGELES","CA","90044"
286137,"7518 SW 85TH DR","GAINESVILLE","FL","32608"
286138,"7519 CARIBOU CT","CHARLOTTE","NC","28273"
286139,"7519 FORTSON RD","COLUMBUS","GA","31909"
286140,"7519 LAIRD STREET","PANAMA CITY BEACH","FL","32408"
286141,"7519 OXFORD DRIVE 3B","ST LOUIS","MO","63105"
286142,"7519 PARKCROSS PLACE","CYPRESS","TX","77433"
286143,"7519 S FRANKLINS WAY","QUINTON","VA","23141"
286144,"752 6TH AVENUE SOUTH","CLINTON","IA","52732"
286145,"752 BARBARALYNN PL","HERNDON","VA","20170"
286146,"752 CIRCLEVIEW DR","CANYON LAKE","TX","78133"
286147,"752 EAGLES TERRACE","ROCKY MOUNT","NC","27804"
286148,"752 HALSEY STREET 2ND FLOOR","BROOKLYN","NY","11233"
286149,"752 HEWITT PLACE APT 1","BRONX","NY","10455"
286150,"752 JEFFERSON AVE","ATLANTA","GA","30315"
286151,"752 LYNN CIRCLE SW","ATLANTA","GA","30311"
286152,"752 MADISON SQ","MADISON","TN","37115"
286153,"752 MAIN STREET","ANTIOCH","IL","60002"
286154,"752 MELISSA DR","BOLINGBROOK","IL","60440"
286155,"752 N CHERRY STREET","LADOGA","IN","47954"
286156,"752 N MAIN ST PO BOX 1494","MANSFIELD","TX","76063"
286157,"752 N MAIN STREET/ PO BOX 751","MANSFIELD","TX","76063"
286158,"752 NORTH MAIN STREET P O BOX 1014","MANSFIELD","TX","76063"
286159,"752 REEDER RD","PARAMUS","NJ","07652"
286160,"752 ROCK CLIFF DR","MARTINSBURG","WV","25401"
286161,"752 SADDLE RIDGE","CRYSTAL LAKE","IL","60012"
286162,"752 SNOWHILL ROAD","HARTSVILLE","SC","29550"
286163,"752 SOUTH ADAMS STREET","LANCASTER","WI","53813"
286164,"752 TAMARACK TRAIL","CHESTERTON","IN","46304"
286165,"752 VAN BUREN STREET","BATON ROUGE","LA","70802"
286166,"752 W  4375 S","RIVERDALE","UT","84405"
286167,"752 WEST END AVE 3H","NY","NY","10025"
286168,"752 WILLOW STREET","LEBANON","PA","17046"
286169,"752 WISCASSET ROAD","BOOTHBAY","ME","04537"
286170,"7520 28TH AVE NE","SEATTLE","WA","98115"
286171,"7520 ASTORIA BLVD SUITE 170","EAST ELMHURST","NY","11370"
286172,"7520 BLUE SRPINGS ROAD","CLEVELAND","TN","37311"
286173,"7520 COOK ROAD ST 2304","HOUSTON","TX","77082"
286174,"7520 ENCHANTED HILLS COURT","LAS VEGAS","NV","89129"
286175,"7520 HILLCROFT ST","HOUSTON","TX","77081"
286176,"7520 MONARCH BIRCH LANE","CHARLOTTE","NC","28215"
286177,"7520 NW 15TH STREET","PLANTATION","FL","33313"
286178,"7520 PANTHER LAKE ROAD","WILLOW SPRING","NC","27592"
286179,"7520 PAUL LINKER PLACE","HARRISBURG","NC","28075"
286180,"7520 SWEET MEADOWS DR","FORT WORTH","TX","76123"
286181,"7520 THOREAU CIRCLE","ATLANTA","GA","30349"
286182,"7520 TRIPP AVE","AMARILLO","TX","79121"
286183,"7520 W 11TH STREET N","WICHITA","KS","67212"
286184,"7520 WEST NORTON AVE","WEST HOLLYWOOD","CA","90046"
286185,"7520 WESTFIELD ROAD","DUNDALK","MD","21222"
286186,"7521 52ND AVENUE","SACRAMENTO","CA","95828"
286187,"7521 AUTUMNLEAF CT","NORTH CHESTERFIELD","VA","23234"
286188,"7521 AVE H","HOUSTON","TX","77012"
286189,"7521 BURTON LANE","MCKINNEY","TX","75070"
286190,"7521 CAMPBELL CT","MANASSAS","VA","20109"
286191,"7521 CARMEL AVE NE","ALBUQUERQUE","NM","87113"
286192,"7521 E 300 N","LAFAYETTE","IN","47905"
286193,"7521 GLASTONBURY ROAD","KNOXVILLE","TN","37931"
286194,"7521 JAGUAR TRAIL","FALLS CHURCH","VA","22042"
286195,"7521 LEGENDS DRIVE","SOUTHERN PINES","NC","28387"
286196,"7521 MORNING CREST PLACE","RANCHO CUCAMONGA","CA","91739"
286197,"7521 NORTH WINCHESTER AVE SUITE 1E","CHICAGO","IL","60626"
286198,"7521 NW 3RD AVE STE 1A","MIAMI","FL","33150"
286199,"7521 PAULA DRIVE","TAMPA","FL","33615"
286200,"7521 RICHMOND ROAD","WILLIAMBURG","VA","23188"
286201,"7521 S LUELLA AVE","CHICAGO","IL","60649"
286202,"7521 S PLACITA DE CERVECAS","TUCSON","AZ","85747"
286203,"7521 SW 58TH AVE","SOUTH MIAMI","FL","33143"
286204,"7521 WESTSHIRE DRIVE SUITE 100","LANSING","MI","48917"
286205,"7521 WINDMILL HARBOR WAY","RALEIGH","NC","27617"
286206,"7522 ALLMAN DRIVE SUITE 301","ANNANDALE","VA","22003"
286207,"7522 BENJAMIN ST - APT 213","NEW ORLEANS","LA","70118"
286208,"7522 BRICK CLAY LANE","BELTSVILLE","MD","20705"
286209,"7522 CAMPBELL RD STE 113-144","DALLAS","TX","75248"
286210,"7522 CAMPBELL RD SUITE 113","DALLAS","TX","75248"
286211,"7522 CAMPBELL ROAD SUITE 113-176","DALLAS","TX","75248"
286212,"7522 DANFIELD CT","DALLAS","TX","75252"
286213,"7522 E MCDONALD DR","SCOTTSDALE","AZ","85250"
286214,"7522 KING RD","FAIRVIEW","TN","37062"
286215,"7522 MONARCH ROAD","NIWOT","CO","80503"
286216,"7522 S BLACKSTONE AVE","CHICAGO","IL","60619"
286217,"7522 SUTTER HOME","SAN ANTONIO","TX","78253"
286218,"7522 WILLOWCREEK POINTE LANE","KNOXVILLE","TN","37931"
286219,"7523 8TH AVE SW","SEATTLE","WA","98106"
286220,"7523 COLGATE AVE","DALLAS","TX","75225"
286221,"7523 IRIDIUM COURT","CASTLE ROCK","CO","80108"
286222,"7523 N 177TH AVE","WADDELL","AZ","85355"
286223,"7523 N 2780 ROAD","HENNNESSEY","OK","73742"
286224,"7523 ROWENA STREET","SAN DIEGO","CA","92119"
286225,"7523 S HARDSAW RD","OAK GROVE","MO","64075"
286226,"7523 S LAUREL STREET","SEATTLE","WA","98178"
286227,"7523 S VERNON","CHICAGO","IL","60619"
286228,"7523 SEMPER FI DRIVE","AWENDAW","SC","29429"
286229,"7523 SEURAT STREET AOT 101","ORLANDO","FL","32819"
286230,"7523 SEURAT STREET APT 101","ORLANDO","FL","32819"
286231,"7523 SEURAT STREET UNIT 101","ORLANDO","FL","32819"
286232,"7523 SOARING BIRD CT","EASTVALE","CA","92880"
286233,"7523 WALNUT STREET","PHILADELPHIA","PA","19138"
286234,"75239 SULLIVAN RD","TWENTYNINE PALMS","CA","92277"
286235,"7524 BALFOURE CIRCLE","DUBLIN","OH","43017"
286236,"7524 COLBERT DRIVE","RANCHO MURIETA","CA","95683"
286237,"7524 CRESSWELL DRIVE","ARLINGTON","TX","76001"
286238,"7524 DR HODGE RD","HENDERSON","KY","42420"
286239,"7524 HATTERAS DRIVE","HUDSON","FL","34667"
286240,"7524 HORGER","DEARBORN","MI","48126"
286241,"7524 LADY BANK DRIVE","CHARLOTTE","NC","28269"
286242,"7524 MOSIER VIEW CT STE 230","FORT WORTH","TX","76118"
286243,"7524 OLUSTA DRIVE","DALLAS","TX","75217"
286244,"7524 PARKLAND BEND","FAIRBURN","GA","30213"
286245,"7524 TAMOSHANTER WY","SACRAMENTO","CA","95822"
286246,"7525 132ND AVE NE","KIRKLAND","WA","98033"
286247,"7525 ALASKA AVE SE","CALEDONIA","MI","49316"
286248,"7525 ASSUNTA COURT SUITE A","FAIRHOPE","AL","36532"
286249,"7525 COMET ROAD","RICHMOND","VA","23294"
286250,"7525 CORAL WAY","MIAMI","FL","33155"
286251,"7525 CRESCENT LAKE CT","RICHMOND","TX","77469"
286252,"7525 CRESCENT LAKE CT","ROSENBERG","TX","77469"
286253,"7525 EDERVILLE RD","FORT WORTH","TX","76112"
286254,"7525 GREENWAY CENTER DRIVE STE 207","GREENBELT","MD","20770"
286255,"7525 HILLVIEW DR","RENO","NV","89506"
286256,"7525 KINGS RIDGE ROAD SUITE 206","CHARLOTTE","NC","28217"
286257,"7525 LAMPHERE","DETROIT","MI","48239"
286258,"7525 LOCKFORD COURT","CUPERTINO","CA","95014"
286259,"7525 MAPLE AVENUE","CITRUS HEIGHTS","CA","95610"
286260,"7525 N 177TH AVENUE","WADDELL","AZ","85355"
286261,"7525 N NEW YORK AVE","PORTLAND","OR","97203"
286262,"7525 N PINE ISLAND ROAD","TAMARAC","FL","33321"
286263,"7525 OAKHILL AVENUE","WAUWATOSA","WI","53213"
286264,"7525 ROSWELL ROAD  SUITE 567313","SANDY SPRINGS","GA","31156"
286265,"7525 S EAST END","CHICAGO","IL","60649"
286266,"7525 SANTIAGO CANYON ROAD","SILVERADO","CA","92676"
286267,"7525 SCYENE ROAD","DALLAS","TX","75227"
286268,"7525 STAR GAZER LANE","FOREST HILL","TX","76140"
286269,"7525 W GREENFIELD AVENUE","WEST ALLIS","WI","53214"
286270,"7525 WEATHERBY DRIVE","ROCKVILLE","MD","20855"
286271,"7526 COXTON COURT   UNIT F","ALEXANDRIA","VA","22306"
286272,"7526 ROGERS AVE","UPPER DARBY","PA","19082"
286273,"7526 SEBAGO ROAD","BETHESDA","MD","20817"
286274,"7526 US HIGHWAY 3","BILLINGS","MT","59106"
286275,"7527 BANCROFT AVE","OAKLAND","CA","94605"
286276,"7527 DEER CREEK DR","UNION CITY","GA","30291"
286277,"7527 E TRADERS TRAIL","PRESCOTT","AZ","86314"
286278,"7527 GLENNON DRIVE","BETHESDA","MD","20817"
286279,"7527 HIGHLAND CHASE DR","RICHMOND","TX","77407"
286280,"7527 NEWBURY TRAIL","SUGAR LAND","TX","77479"
286281,"7527 QUAIL HOLLOW BLVD","WESLEY CHAPEL","FL","33544"
286282,"7527 ROSWELL ROAD 566547","ATLANTA","GA","31156"
286283,"7527 SOUTH LOOP EAST FREEWAY","HOUSTON","TX","77021"
286284,"7527 SOUTH PAXTON AVENUE","CHICAGO","IL","60649"
286285,"7527 SPINNAKER AVENUE NORTHEAST","TUSCALOOSA","AL","35406"
286286,"7527 TALMADGE AVE","SOUTHPORT","FL","32409"
286287,"7527 TALMADGE AVENUE","SOUTHPORT","FL","32409"
286288,"7528 ARLINGTON EXPRESSWAY APT101","JACKSONVILLE","FL","32211"
286289,"7528 EAST 300 SOUTH","KOKOMO","IN","46902"
286290,"7528 KINGSMILL TERRACE","FORT WORTH","TX","76112"
286291,"7528 PERSHING BLVD B185","KENOSHA","WI","53142"
286292,"7528 SPINNAKER AVENUE","TUSCALOOSA","AL","35406"
286293,"7528 W 91ST STREET","LOS ANGELES","CA","90045"
286294,"7529 CURRES CIRCLE","BOERNE","TX","78015"
286295,"7529 FERNIE CRT","GILROY","CA","95020"
286296,"7529 LISMORE DRIVE","REYNOLDSBURG","OH","43068"
286297,"7529 LUNA BELLA AVENUE","LAS VEGAS","NV","89179"
286298,"7529 MOORESVILLE ROAD","WEST NEWTON","IN","46183"
286299,"7529 N SHERIDAN RD APT 1","CHICAGO","IL","60626"
286300,"7529 SAN MIRIENDA","BOERNE","TX","78015"
286301,"7529 SPLENDID WAY","ELK GROVE","CA","95758"
286302,"7529 SUNSET RIDGE PARKWAY","INDIANAPOLIS","IN","46259"
286303,"7529 WOOD SLOPE DRIVE","DALLAS","TX","75249"
286304,"7529 WOODFIELD RD","FORT WORTH","TX","76112"
286305,"7529-B CODY ST W","LAKEWOOD","WA","98499"
286306,"752E 850S CIR","ST GEORGE","UT","84790"
286307,"753 BERGEN BLVD LOWER LEVEL","RIDGEFIELD","NJ","07657"
286308,"753 BUCKSKIN CIR","NORCROSS","GA","30093"
286309,"753 CHAUTAUQUA CT","PITTSBURGH","PA","15214"
286310,"753 CLINTON AVE  A-5","NEWARK","NJ","07108"
286311,"753 COMANCHE ST","FLAGSTAFF","AZ","86005"
286312,"753 COVE VIEW CIR","COOKEVILLE","TN","38506"
286313,"753 E 151ST STREET","BRONX","NY","10455"
286314,"753 EAST 151ST STREET","BRONX","NY","10455"
286315,"753 EAST 5TH STREET APT 1A","NEW YORK","NY","10009"
286316,"753 EKELA AVE","HONOLULU","HI","96816"
286317,"753 HILLANDALE LANE","LITHONIA","GA","30058"
286318,"753 JAMES ST APT 305","SYRACUSE","NY","13203"
286319,"753 LINDEN STREET","SHREVEPORT","LA","71104"
286320,"753 N BELMONT AVE","INDIANAPOLIS","IN","46222"
286321,"753 NORTHPOINT CIR N","JACKSONVILLE","FL","32218"
286322,"753 PINEY ROAD","HAYESVILLE","NC","28904"
286323,"753 POLK AVENUE","AKRON","OH","44314"
286324,"753 ROSE LN 866","TWIN PEAKS","CA","92391"
286325,"753 S FAIR OAKS AVE APT 2-105","SUNNYVALE","CA","94086"
286326,"753 S SHERMAN ST","RICHARDSON","TX","75081"
286327,"753 SOUTH WILDWOOD AVENUE","KANKAKEE","IL","60901"
286328,"753 STICKEL RD","GLADWIN","MI","48624"
286329,"753 SYLVANIA TRAIL","MABLETON","GA","30126"
286330,"753 W CHESTNUT ST","BROCKTON","MA","02301"
286331,"753 W EVANS ST  SUITE 23","SANBERNARDIO","CA","92405"
286332,"753 W SPRINGFIELD ROAD","SEVEN VALLEYS","PA","17360"
286333,"753 WASHINGTON ST","STOUGHTON","MA","02072"
286334,"7530 33RD AVE NE","SEATTLE","WA","98115"
286335,"7530 APRIL LANE","NORTH RICHLAND HILLS","TX","76182"
286336,"7530 BANDERA ROAD SUITE 140","SAN ANTONIO","TX","78238"
286337,"7530 BRIARWOOD DRIVE","NEW ORLEANS","LA","70128"
286338,"7530 DUBONNET WAY","INDIANAPOLIS","IN","46278"
286339,"7530 E COOLIDGE STREET","SCOTTSDALE","AZ","85251"
286340,"7530 GLENHEATH ST","HOUSTON","TX","77061"
286341,"7530 GLENHEATH STREET","HOUSTON","TX","77061"
286342,"7530 HOOD ST","HOLLYWOOD","FL","33024"
286343,"7530 HOOD STREET","HOLLYWOOD","FL","33024"
286344,"7530 JASANI COURT","MENTOR","OH","44060"
286345,"7530 OAK FERN","HOUSTON","TX","77040"
286346,"7530 RALICK COURT","SPRING","TX","77379"
286347,"7530 S PAXTON AVENUE","CHICAGO","IL","60649"
286348,"7530 S WENTWORTH AVE","CHICAGO","IL","60620"
286349,"7530 SETTLES WALK LN","SUWANEE","GA","30024"
286350,"7530 STATE ROUTE 101 E","CLYDE","OH","43410"
286351,"7530 TUSSENDO DR","HOUSTON","TX","77083"
286352,"7530 VENETIAN ST","MIRAMAR","FL","33023"
286353,"7531 150TH STREET","FLUSHING","NY","11367"
286354,"7531 BLUFF ROAD","GADSDEN","SC","29052"
286355,"7531 BRACKSTONE CT","RICHMOND","TX","77407"
286356,"7531 CASTLETON FARMS WEST DRIVE","INDIANAPOLIS","IN","46256"
286357,"7531 E DUCK LAKE ROAD","LAKE LEELANAU","MI","49653"
286358,"7531 MERIDIAN ST","MIRAMAR","FL","33023"
286359,"7531 N LINPAR CT","HOUSTON","TX","77040"
286360,"7531 RED MAPLE PLACE","WESTERVILLE","OH","43082"
286361,"7531 TONTO ST","PENSACOLA","FL","32526"
286362,"7531 TURTLE VIEW DR","RUSKIN","FL","33573"
286363,"7531 W APOLLO RD","LAVEEN","AZ","85339"
286364,"7531 W REDFIELD RD","PEORIA","AZ","85381"
286365,"7532 15TH AVE SW","SEATTLE","WA","98106"
286366,"7532 BRIGHTON HILL LANE","RALEIGH","NC","27616"
286367,"7532 DEXTER","DETROIT","MI","48206"
286368,"7532 MCCOY STREET","SHAWNEE","KS","66227"
286369,"7532 S MICHIGAN AVE","CHICAGO","IL","60619"
286370,"7533 31ST STREET PL","OAKDALE","MN","55128"
286371,"7533 ALTAMIRA CIR  STE 109","NORTH HIGHLANDS","CA","95660"
286372,"7533 AMBERLY DRIVE","COLORADO SPRINGS","CO","80923"
286373,"7533 BONNIEBROOK DRIVE","AUSTIN","TX","78735"
286374,"7533 D GREEN VALLEY ROAD","PLACERVILLE","CA","95667"
286375,"7533 ELLA WAY","LAS VEGAS","NV","89128"
286376,"7533 REPUBLIC COURT APT 101","ALEXANDRIA","VA","22306"
286377,"7533 RUSHING CURRENT ST","LAS VEGAS","NV","89131"
286378,"7533 S JEFFERY BLVD","CHICAGO","IL","60649"
286379,"7533 WILSFORD COVE","MEMPHIS","TN","38125"
286380,"7534 6TH ST","MACKINAC ISLAND","MI","49757"
286381,"7534 BLUE FOX RUN","WEST CHESTER","OH","45069"
286382,"7534 CHESHIRE LANE","SAINT LOUIS","MO","63123"
286383,"7534 CITRUS BLOSSOM DRIVE","LAND O LAKES","FL","34637"
286384,"7534 CONGRESS ST","NEW PORT RICHEY","FL","34653"
286385,"7534 KALI-OKA ROAD","SARALAND","AL","36571"
286386,"7534 NORTH IVANHOE STREET","PORTLAND","OR","97203"
286387,"7534 NORTH STATE RD 13","NORTH WEBSTER","IN","46760"
286388,"7534 SALLY LYN LANE","LAKE WORTH","FL","33467"
286389,"7534 SOUTH HOMAN AVENUE","CHICAGO","IL","60652"
286390,"7534 SW ALOMA WAY APT 3","PORTLAND","OR","97223"
286391,"7535 31ST AVE SUITE 205A","EAST ELMHURST","NY","11370"
286392,"7535 EAST HAMPDEN AVENUE SUITE 400","DENVER","CO","80231"
286393,"7535 HARCOURT RD","INDIANAPOLIS","IN","46260"
286394,"7535 HEALDSBURG AVENUE","SEBASTOPOL","CA","95472"
286395,"7535 LITTLE RIVER TPKE SUITE 103B","ANNADALE","VA","22003"
286396,"7535 LITTLE RIVER TURNPIKE 200A","ANNANDALE","VA","22003"
286397,"7535 LOUISIANA AVE N","BROOKLYN PARK","MN","55428"
286398,"7535 MOON VALLEY RD SE","NORTH BEND","WA","98045"
286399,"7535 N STATE RD 7","POMPANO BEACH","FL","33073"
286400,"7535 NE GLISAN ST","PORTLAND","OR","97213"
286401,"7535 SOUTH YATES","CHICAGO","IL","60649"
286402,"7535 THOREAU CIRCLE","COLLEGE PARK","GA","30349"
286403,"7535 TRANQUILITY DRIVE","OOLTEWAH","TN","37363"
286404,"7536 JANA LANE NORTH","JACKSONVILLE","FL","32210"
286405,"7536 LEESIDE DRIVE","BLAINE","WA","98230"
286406,"7536 ROLLING MEADOWS LN","HUNTERSVILLE","TN","28078"
286407,"7536 SOUTHLAKE PKWAY","JONESBORO","GA","30236"
286408,"75365 RIVIERA DRIVE","INDIAN WELLS","CA","92210"
286409,"7537 CAMERON RD","AUSTIN","TX","78752"
286410,"7537 CAMERON ROAD","AUSTIN","TX","78752"
286411,"7537 CHAFFIINCH ST","NLV","NV","89084"
286412,"7537 CHASE WAY","HUEYTOWN","AL","35023"
286413,"7537 DEER RUN RD","BONNERS FERRY","ID","83805"
286414,"7537 E MCDONALD DRIVE","SCOTTSDALE","AZ","85250"
286415,"7537 E POLK STREET","SCOTTSDALE","AZ","85257"
286416,"7537 LIVINGSTON DRIVE","JONESBORO","GA","30236"
286417,"7537 ROYAL CRYSTAL STREET","LAS VEGAS","NV","89149"
286418,"7537 S HALSTED STREET","CHICAGO","IL","60619"
286419,"7537 S WADSWORTH CT","LITTLETON","CO","80128"
286420,"7537 TARRAGON PLACE","INDIANAPOLIS","IN","46237"
286421,"7538 ASTORIA PLACE","GOLETA","CA","93117"
286422,"7538 CATALPA","HAMMOND","IN","46324"
286423,"7538 CR 69","FLEMING","CO","80728"
286424,"7538 DANVILLE ROAD","HARTSELLE","AL","35640"
286425,"7538 FREDS FOLLY DRIVE","CORPUS CHRISTI","TX","78414"
286426,"7538 GOLF COURSE DR S","DENVER","NC","28037"
286427,"7538 HOLZHAUER ROAD","NORTHFIELD","OH","44067"
286428,"7538 MARMOT AVENUE","LAS VEGAS","NV","89147"
286429,"7538 QUINTO DRIVE","SARASOTA","FL","34238"
286430,"7538 SW ROANOKE DR","WILSONVILLE","OR","97070"
286431,"7539 ALTURA PLACE","OAKLAND","CA","94605"
286432,"7539 BASSWOOD DR","AVON","IN","46123"
286433,"7539 OAK RIDGE HWY","KNOXVILLE","TN","37931"
286434,"7539 RAPHAEL LANE","LITTLETON","CO","80125"
286435,"754 ACADEMY RD","CAPE MAY","NJ","08204"
286436,"754 ANNAQUATUCKET ROAD","NORTH KINGSTOWN","RI","02852"
286437,"754 BEACHWALK DR","WINNABOW","NC","28479"
286438,"754 BEAR CREEK ST","AUBURN","PA","17922"
286439,"754 CHERRY CIRCLE","WASHINGTON","UT","84780"
286440,"754 CONESTOGA TRAIL","RHOME","TX","76078"
286441,"754 COUNTY ROAD 668","COFFEE SPRINGS","AL","36318"
286442,"754 DIVIDING CREEK ROAD","ARNOLD","MD","21012"
286443,"754 EAST 214 STREET SUITE 1","BRONX","NY","10466"
286444,"754 FRANKLIN AVENUE","FRANKLIN LAKES","NJ","07417"
286445,"754 GOODMAN ST","MEMPHIS","TN","38111"
286446,"754 GREENDALE AVE","NEEDHAM","MA","02492"
286447,"754 GRIGGS ST SW","GRAND RAPIDS","MI","49503"
286448,"754 HIGHWAY 239","UNION SPRINGS","AL","36089"
286449,"754 HOPE ST","VALPARAISO","IN","46383"
286450,"754 HUNTERS QUAY","CHESAPEAKE","VA","23320"
286451,"754 HUNTINGTON DR","CAROL STREAM","IL","60188"
286452,"754 HWY 371 NORTH   PO BOX 343","MOOREVILLE","MS","38857"
286453,"754 KESTREL CT","SOUTH LYON","MI","48178"
286454,"754 LAKEVIEW PARKWAY","VERNON HILLS","IL","60061"
286455,"754 LINWOOD AVE","COLUMBUS","OH","43205"
286456,"754 MCKINZIE RD","CORPUS CHRISTI","TX","78410"
286457,"754 MONETTE DR","CORPUS CHRISTI","TX","78412"
286458,"754 MONTGOMERY ST","CHICOPEE","MA","01020"
286459,"754 MOUNT MAHOGANY","LIVERMORE","CO","80536"
286460,"754 N PICO CANYON LANE","BREA","CA","92821"
286461,"754 NW 48TH  TERRACE","PLANTATION","FL","33317"
286462,"754 PEACHTREE STREET NE  SUITE 105","ATLANTA","GA","30308"
286463,"754 SCOTLAND ROAD APT A5","ORANGE","NJ","07050"
286464,"754 SMITHSTONE COURT SE","MARIETTA","GA","30067"
286465,"754 SONTAG ROAD","ROCKY MOUNT","VA","24151"
286466,"754 WEST 900 S","PAYSON","UT","84651"
286467,"754 YELLOWSTONE AVENUE UNIT A","CODY","WY","82414"
286468,"7540 11TH AVE NW","SEATTLE","WA","98117"
286469,"7540 CHIPPEWA STREET","DETROIT","MI","48221"
286470,"7540 DUPONT AVE N","MINNEAPOLIS","MN","55444"
286471,"7540 EAST GOLD DUST AVENUE","SCOTTSDALE","AZ","85258"
286472,"7540 EDINBOROUGH WAY  STE1107","MINNEAPOLIS","MN","55435"
286473,"7540 MADISON AVE","LEMON GROVE","CA","91945"
286474,"7540 N DEL MAR AVENUE","FRESNO","CA","93711"
286475,"7540 PEARL ROAD","MIDDLEBURG HEIGHTS","OH","44130"
286476,"7540 S 86TH AVE","JUSTICE","IL","60458"
286477,"7540 S CAMINO RAHUM","TUCSON","AZ","85757"
286478,"7540 SAND LAKE POINT LOOP APT 307","ORLANDO","FL","32809"
286479,"7540 WIMPOLE DR","NEW PORT RICHEY","FL","34655"
286480,"7540 WOODBINE AVE","PHILADELPHIA","PA","19151"
286481,"75409 CRESTVIEW HILLS LOOP","COVINGTON","LA","70435"
286482,"7541 JERSEY AVE N  102","MINNEAPOLIS","MN","55428"
286483,"7541 S HALSTED ST","CHICAGO","IL","60620"
286484,"7541 SOLSTICE CIRCLE STE 305","ORLANDO","FL","32821"
286485,"7541 STATE LINE ROAD","KANSAS CITY","MO","64114"
286486,"7542 BONFIELD COURT","DUBLIN","CA","94568"
286487,"7542 DEXTER GROVE DRIVE","CORDOVA","TN","38016"
286488,"7542 KEITH CIR","LA PALMA","CA","90623"
286489,"7542 MONARCH MILLS WAY APT 304","COLUMBIA","MD","21046"
286490,"7542 N 22ND PLACE","PHOENIX","AZ","85020"
286491,"7542 NEWPORT AVE","PARMA","OH","44129"
286492,"7542 SOARING BIRD COURT","EASTVALE","CA","92880"
286493,"7543 32ND STREET","SACRAMENTO","CA","95822"
286494,"7543 DERBY VIS","SELMA","TX","78154"
286495,"7543 E TASMAN CIR","MESA","AZ","85207"
286496,"7543 LOMA VERDE AVE","CANOGA PARK","CA","91303"
286497,"7543 N INGRAM AVE STE 106","FRESNO","CA","93711"
286498,"7543 WELLINGTON PLACE","RANCHO CUCAMONGA","CA","91730"
286499,"7544 2ND AVE S","RICHFIELD","MN","55423"
286500,"7544 BENTLEY DR","INDIANAPOLIS","IN","46214"
