"ID","Address","City","State","Zip"
198001,"400 E KALISTE SALOOM RD SUITE 7100","LAFAYETTE","LA","70508"
198002,"400 E KINGSPORT ST","BROKEN ARROW","OK","74011"
198003,"400 E LANCASTER AVENUE SUITE 4","WAYNE","PA","19087"
198004,"400 E LAS COLINAS BLVD  SUITE 350","IRVING","TX","75039"
198005,"400 E LINDEN STREET","CALDWELL","ID","83605"
198006,"400 E MAIN ST   SUITE 2","CRESCENT CITY","IL","60928"
198007,"400 E MAIN ST STE 2","ASPEN","CO","81611"
198008,"400 E MAIN ST","DENVILLE","NJ","07834"
198009,"400 E MAIN STREET SUITE 130","CHATTANOOGA","TN","37402"
198010,"400 E MOORE ST","APEX","NC","27502"
198011,"400 E NOCTURNE DRIVE B11","NASHVILLE","TN","37207"
198012,"400 E PALM AVE","TAMPA","FL","33602"
198013,"400 E RANDOLPH ST APT 2305","CHICAGO","IL","60601"
198014,"400 E ROYAL LANE SUITE 290","IRVING","TX","75039"
198015,"400 E ROYAL LN","IRVING","TX","75039"
198016,"400 E SILVERSPOON","GRANVILLE","IL","61326"
198017,"400 E SIMPSON ST STE 220","LAFAYETTE","CO","80026"
198018,"400 E SOUTH WATER ST UNIT 3802","CHICAGO","IL","60601"
198019,"400 E SOUTH WATER","CHICAGO","IL","60601"
198020,"400 E TICKLE STREET","DYERSBURG","TN","38024"
198021,"400 E UNIVERSITY WAY BOUILLON 206","ELLENSBURG","WA","98926"
198022,"400 EAGLE SPIRIT WAY","BROCK","TX","76087"
198023,"400 EARL LAIN ROAD","GUYTON","GA","31312"
198024,"400 EAST 17TH ST APT 508","BROOKLYN","NY","11226"
198025,"400 EAST 2ND ST NFH 263","BLOOMSBURG","PA","17815"
198026,"400 EAST 70TH STREET APT 2602","NEW YORK","NY","10021"
198027,"400 EAST ATLANTIC BLVD SUITE C","POMPANO BEACH","FL","33060"
198028,"400 EAST AVE","ROCHESTER","NY","14607"
198029,"400 EAST BAY STREET  APT 1905","JACKSONVILLE","FL","32202"
198030,"400 EAST COMMERCIAL STREET","WILLITS","CA","95490"
198031,"400 EAST CRAIG STREET","TALLULAH","LA","71282"
198032,"400 EAST ELIZABETH STRREET","ELIZABETH CITY","NC","27909"
198033,"400 EAST MAIN STREET","DENVILLE","NJ","07834"
198034,"400 EAST OAK","MIDLAND","TX","79705"
198035,"400 EAST OLIVE ST","LONG BEACH","NY","11561"
198036,"400 EAST PRATT ST SUITE 800","BALTIMORE","MD","21202"
198037,"400 EAST RIVER RD NE","ROCHESTER","MN","55906"
198038,"400 EAST ROYAL LANE BUILDING 3","IRVING","TX","75039"
198039,"400 EAST RUSSELL ST","NASHVILLE","AR","71852"
198040,"400 EAST SECOND STREET","BENCIIA","CA","94510"
198041,"400 EAST SORGHUM MILL ROAD","EDMOND","OK","73034"
198042,"400 EAST VINE STREET","LEXINGTON","KY","40507"
198043,"400 EAST WASHINGTON STREET SUITE B5","SHREVEPORT","LA","71104"
198044,"400 EDDY STREET","SAN FRANCISCO","CA","94109"
198045,"400 EDGMONT AVE SUITE 255","CHESTER","PA","19013"
198046,"400 ELM STREET APT 29","CRANDON","WI","54520"
198047,"400 ERFORD RD","CAMP HILL","PA","17101"
198048,"400 EXECUTIVE BOULEVARD","OSSINING","NY","10562"
198049,"400 EXPRESSWAY SUITE C","MISSOULA","MT","59808"
198050,"400 FAIRVIEW AVE SUITE 800","SEATTLE","WA","98109"
198051,"400 FAYETTE ST","CONSHOHOCKEN","PA","19428"
198052,"400 FERRY ST","RUSSELL","KY","41169"
198053,"400 FLOYD AVE","DUMAS","TX","79029"
198054,"400 FORBES AVE","CARLISLE","PA","17013"
198055,"400 FOX TRAIL DRIVE","ATLANTA","GA","30349"
198056,"400 FOXBOROUGH BLVD UNIT 7201","FOXBORO","MA","02035"
198057,"400 FRONTIER RD","BARLING","AR","72923"
198058,"400 FRYE RD","GALIVANTS FERRY","SC","29544"
198059,"400 FUNT RD","ASPERS","PA","17304"
198060,"400 GALLERIA PARKWAY   SUITE 1500","ATLANTA","GA","30339"
198061,"400 GALLERIA PARKWAY SE SUITE 1500","ATLANTA","GA","30339"
198062,"400 GALLERIA PARKWAY SUITE 1500","ATLANTA","GA","30339"
198063,"400 GALLOWAY STREET NE SUITE 549S","WASHINGTON","DC","20011"
198064,"400 GANDY AVENUE","WHITE HALL","AR","71602"
198065,"400 GIBBEL RD","HARRISBURG","PA","17112"
198066,"400 GINGER COURT","SOUTHLAKE","TX","76092"
198067,"400 GLEN ROAD","PORTSMOUTH","RI","02871"
198068,"400 GLENGARY COURT APARTMENT 202","DURHAM","NC","27707"
198069,"400 GOLDEN POND DRIVE","HARRISVILLE","PA","16038"
198070,"400 GORE STREET","HUNTLAND","TN","37345"
198071,"400 GRAND AVENUE","PLATTEVILLE","CO","80651"
198072,"400 GRAND AVENUE","SOUTH SAN FRANCISCO","CA","94080"
198073,"400 GRANDVIEW AVE","KINGMAN","AZ","86401"
198074,"400 GRAY AVENUE","WILDWOOD","FL","34785"
198075,"400 GREEN ACRE DR","DALE","TX","78616"
198076,"400 GREENRIDGE DRIVE","COPPELL","TX","75019"
198077,"400 GREYSTONE LANE","DOUGLASVILLE","GA","30134"
198078,"400 GRUBB ROAD","BOYERS","PA","16020"
198079,"400 HACKMORE LOOP","IRVING","TX","75061"
198080,"400 HARBOR DRIVE","SITKA","AK","99835"
198081,"400 HARRISON AVE","ROSELLE","NJ","07203"
198082,"400 HARRISON STREET","HOBOKEN","NJ","07030"
198083,"400 HARVEST COURT","LOCUST GROVE","GA","30248"
198084,"400 HENLEY ST","AVA","MO","65608"
198085,"400 HERKIMER STREET / APT 3P","BROOKLYN","NY","11213"
198086,"400 HEWITT DRIVE","HEWITT","TX","76643"
198087,"400 HIGHWAY","RIVERTON","NJ","08077"
198088,"400 HILLCREST AVE","WANAMINGO","MN","55983"
198089,"400 HOOKAHI ST STE 12","WAILUKU","HI","96793"
198090,"400 HOWARD AVE","NEW SMYRNA BEACH","FM","32168"
198091,"400 HUDSON AVENUE","PITMAN","NJ","08071"
198092,"400 HUDSON L BARKSDALE BLVD","SPARTANBURG","SC","29306"
198093,"400 HUNT CLUB ROAD","SAINT MARYS","GA","31558"
198094,"400 HWY 154","SHARPSBURG","GA","30277"
198095,"400 I ST SW","WASHINGTON","DC","20024"
198096,"400 INDIANA STREET SUITE 200","GOLDEN","CO","80401"
198097,"400 J ARCADIA LOOP","YORKTOWN","VA","23692"
198098,"400 JACKMAN AVENUE","FAIRFIELD","CT","06824"
198099,"400 JACKRABBIT ROAD","BELGRADE","MT","59714"
198100,"400 JASMINE TRAIL","ATHENS","GA","30606"
198101,"400 JL SEEHORN JR RD BOX 70723","JOHNSON CITY","TN","37614"
198102,"400 KEBET RIDGE RD","WOODSIDE","CA","94062"
198103,"400 KEISLER DR","CARY","NC","27518"
198104,"400 KEISLER DRIVE","CARY","NC","27518"
198105,"400 KELLY DRIVE","BROWNSTOWN","IN","47220"
198106,"400 KENNEDY DRIVE","SAYREVILLE","NJ","08872"
198107,"400 KENSINGTON DR","FREDERICKSBURG","VA","22405"
198108,"400 KERN STREET","TAFT","CA","93268"
198109,"400 KING DAVID DRIVE","FLORENCE","SC","29506"
198110,"400 KING STREET SUITE 4","CHAPPAQUA","NY","10514"
198111,"400 KINGS HIGHWAY","VALLEY COTTAGE","NY","10989"
198112,"400 KINMAN ROAD","GROVE HILL","AL","36451"
198113,"400 KNAPP HALL","MORGANTOWN","WV","26505"
198114,"400 KNICKERBOCKER ROAD APT 2D","DUMONT","NJ","07628"
198115,"400 LANDING LANE","WASHOE VALLEY","NV","89704"
198116,"400 LANGLEY ROAD","EGG HARBOR CITY","NJ","08234"
198117,"400 LARRY AVE","LIVINGSTON","TX","77351"
198118,"400 LAURYN WAVERLY WAY","GREENSBORO","NC","27455"
198119,"400 LEE STREET N","LEWISBURG","WV","24901"
198120,"400 LESLIE WOOD DR","CLARKSVILLE","TN","37040"
198121,"400 LEWIS STREET","HAVRE DE GRACE","MD","21078"
198122,"400 LIBERTY AVENUE 2ND FLOOR","BROOKLYN","NY","11207"
198123,"400 LINDEN STREET","CADILLAC","MI","49601"
198124,"400 LINWOOD AVENUE","HOT SPRINGS","AR","71913"
198125,"400 LITTLE HARBOR RD NO 1008","PORTSMOUTH","NH","03801"
198126,"400 LITTTLE CREEK DR","STREAMWOOD","IL","60107"
198127,"400 LOCUST AVENUE SUITE 1","CHARLOTTESVILLE","VA","22902"
198128,"400 LOCUST ST SUITE 400","DES MOINES","IA","50309"
198129,"400 LOCUST STREET SUITE 820","DES MOINES","IA","50309"
198130,"400 LONG NEEDLE ROAD","COLUMBIA","SC","29229"
198131,"400 LONGRIDGE DRIVE","VALLEJO","CA","94591"
198132,"400 M ST SE APT 315","WASHINGTON","DC","20003"
198133,"400 MAGNOLIA AVENUE","LARKSPUR","CA","94939"
198134,"400 MAGNOLIA STREET","ARLINGTON","TX","76012"
198135,"400 MAIN ST","DURHAM","NC","27701"
198136,"400 MAIN ST","EAST HARTFORD","CT","06108"
198137,"400 MAIN ST","RIDGEFIELD","CT","06877"
198138,"400 MAIN ST","TEAGUE","TX","75860"
198139,"400 MAIN STREET   PO BOX 248","HORNICK","IA","51026"
198140,"400 MAIN STREET EAST","NEW PRAGUE","MN","56071"
198141,"400 MAIN STREET SUITE 210","FRANKLIN","TN","37064"
198142,"400 MAIN STREET","WALPOLE","MA","02081"
198143,"400 MAPLE ST","ANACONDA","MT","59711"
198144,"400 MAPLE STREET","MARKS","MS","38646"
198145,"400 MARINERS PLAZA DRIVE SUITE 427","MANDEVILLE","LA","70448"
198146,"400 MARY MCLEOD BLVD","DAYTONA BEACH","FL","32114"
198147,"400 MASSACHUSETTS AVE NW ROOM 420","WASHINGTON","DC","20001"
198148,"400 MASSACHUSETTS AVENUE APT 1110","WASHINGTON","DC","20001"
198149,"400 MAYNARD STREET","ANN ARBOR","MI","48104"
198150,"400 MCCOLLUM-SHARPSBURG RD","SHARPSBURG","GA","30277"
198151,"400 MERIDIAN STREET SUITE 201","HUNTSVILLE","AL","35801"
198152,"400 MOBIL AVENUE SUITE A8","CAMARILLO","CA","93010"
198153,"400 MONTGOMERY AVENUE C/O K KELLY","WEST CHESTER","PA","19380"
198154,"400 MONTGOMERY AVENUE","WEST CHESTER","PA","19380"
198155,"400 MULBERRY STREET","BARABOO","WI","53913"
198156,"400 MULBERRY STREET","NEWPORT","PA","17074"
198157,"400 MULFORD","GRAND RAPIDS","MI","49507"
198158,"400 MURCHISON DRIVE","MILLBRAE","CA","94030"
198159,"400 N 5TH STREET","CIMARRON","KS","67835"
198160,"400 N 6TH AVE","MARIETTA","OK","73448"
198161,"400 N ASHLEY DRIVE SUITE 1900","TAMPA","FL","33602"
198162,"400 N BRITTON AVENUE","RIO GRANDE CITY","TX","78582"
198163,"400 N CAMPBELL BOX 490","OILTON","OK","74052"
198164,"400 N CATHERINE STREET","MOBILE","AL","36603"
198165,"400 N CHARLOTTE RD","MULLIKEN","MI","48861"
198166,"400 N COMMERCIAL AVE STE B","ST CLAIR","MO","63077"
198167,"400 N CORONADO ST","CHANDLER","AZ","85224"
198168,"400 N DUKE ST","DURHAM","NC","27701"
198169,"400 N DUKE STREET","DURHAM","NC","27701"
198170,"400 N FAIRFAX STREET SUITE 400","ALEXANDRIA","VA","22314"
198171,"400 N FRANKLIN ST","HOLBROOK","MA","02343"
198172,"400 N GRAVES ST STE 219 BLDG 705","CHARLESTON AIR FORCE","SC","29404"
198173,"400 N HIBISCUS DR","MIAMI BEACH","FL","33179"
198174,"400 N LA BREA AVE STE 500","INGLEWOOD","CA","90302"
198175,"400 N LAFAYETTE AVENUE","VENTNOR","NJ","08406"
198176,"400 N MAIN AVE SUITE 206","SIOUX FALLS","SD","57104"
198177,"400 N MAIN ST","LANCASTER","SC","29720"
198178,"400 N MAIN STREET","EMPORIA","VA","23847"
198179,"400 N MOUNTAIN AVE SUITE 239","UPLAND","CA","91786"
198180,"400 N MOUNTAIN AVENUE STE 244","UPLAND","CA","91786"
198181,"400 N NORTHWEST HIGHWAY","BARRINGTON","IL","60010"
198182,"400 N OAKHURS DRIVE APT 105","BEVERLY HILLS","CA","90210"
198183,"400 N PENNSYLVANIA    SUITE 1080","ROSWELL","NM","88201"
198184,"400 N PENNSYLVANIA  SUITE 850","ROSWELL","NM","88201"
198185,"400 N PINE ST","WEST UNION","IA","52175"
198186,"400 N RACINE APT 106","CHICAGO","IL","60642"
198187,"400 N SANTA FE AVE","PUEBLO","CO","81003"
198188,"400 N SLOAN ST","CLINTON","SC","29325"
198189,"400 N ST PAUL STREET","DALLAS","TX","75201"
198190,"400 N SYCAMORE","VILLA GROVE","IL","61956"
198191,"400 N VERMONT AVE","ROYAL OAK","MI","48067"
198192,"400 N VIRGINIA  SUITE G2","ROSWELL","NM","88201"
198193,"400 N WILSON ST","HOBART","IN","46342"
198194,"400 NANTUCKET STREET","FOSTER CITY","CA","94404"
198195,"400 NE 2ND ST","POMPANO BEACH","FL","33060"
198196,"400 NE 31ST COURT","POMPANO BEACH","FL","33064"
198197,"400 NE MEADOWLARK LN","MADRAS","OR","97741"
198198,"400 NECKAR AVENUE","STATEN ISLAND","NY","10304"
198199,"400 NEW PROVIDENCE WAY","PIKE ROAD","AL","36064"
198200,"400 NEWPORT CENTER DRIVE SUITE 102","NEWPORT BEACH","CA","92660"
198201,"400 NILLES ROAD","FAIRFIELD","OH","45014"
198202,"400 NIXON DRIVE","ROLLINGWOOD","TX","78746"
198203,"400 NORTH 15TH STREET","PALATKA","FL","32177"
198204,"400 NORTH BRANCH ROAD","OAKDALE","PA","15071"
198205,"400 NORTH CENTER DR BLDG 3 STE 212","NORFOLK","VA","23502"
198206,"400 NORTH FLORIDA AVENUE","LAKELAND","FL","33801"
198207,"400 NORTH FOURTH STREET  2315","SAINT LOUIS","MO","63102"
198208,"400 NORTH FOURTH STREET  SUITE 1411","SAINT LOUIS","MO","63102"
198209,"400 NORTH MAIN STREET SUITE 301","MILFORD","MI","48381"
198210,"400 NORTH MAIN STREET","EMPORIA","VA","23847"
198211,"400 NORTH MAIN STREET","GORDON","NE","69343"
198212,"400 NORTH MAIN STREET","RUSK","TX","75785"
198213,"400 NORTH VAN BUREN AVE","EVELETH","MN","55734"
198214,"400 NORTH VANCE DRIVE","BECKLEY","WV","25801"
198215,"400 NORTH WALNUT STREET","ITASCA","IL","60143"
198216,"400 NORTHEAST ALSBURY BOULEVARD","BURLESON","TX","76028"
198217,"400 NORTHSHORE CT","KELLER","TX","76248"
198218,"400 NW 141ST AVE APT 101","PEMBROKE PINES","FL","33028"
198219,"400 NW 2ND STREET","MCMINNVILLE","OR","97128"
198220,"400 NW 9TH AVENUE","FORT LAUDERDALE","FL","33311"
198221,"400 NW GILMAN BLVD UNIT 385","ISSAQUAH","WA","98027"
198222,"400 OCEANGATE STE 1000","LONG BEACH","CA","90802"
198223,"400 OCEANGATE STE 750","LONG BEACH","CA","90802"
198224,"400 OCEANGATE SUITE 750","LONG BEACH","CA","90802"
198225,"400 OHIO STREET","BOSWELL","PA","15531"
198226,"400 OLD FIELD DRIVE","MCDONOUGH","GA","30252"
198227,"400 OLD HWY 90 E","VIDOR","TX","77662"
198228,"400 OLD NAVY WAY","BRIDGEWATER","VA","22182"
198229,"400 OLD ROUTE 68","EVANS CITY","PA","16033"
198230,"400 OLD SEVEN SPRINGS ROAD","MOUNT OLIVE","NC","28365"
198231,"400 ORCHID CIR","ANCHORAGE","AK","99515"
198232,"400 ORCHID ROAD","BIRMINGHAM","AL","35215"
198233,"400 OVERBROOK ROAD","CATONSVILLE","MD","21228"
198234,"400 OZARK AVE","BIRMINGHAM","AL","35214"
198235,"400 OZARK ROAD","RIDGEDALE","MO","65739"
198236,"400 PALO BLANCO","ALICE","TX","78332"
198237,"400 PARAMUS RD","PARAMUS","NJ","07652"
198238,"400 PARK AVENUE UNIT 213","CALUMET CITY","IL","60409"
198239,"400 PARK AVENUE","NICHOLASVILLE","KY","40356"
198240,"400 PARK DRIVE","ATLANTA","GA","30306"
198241,"400 PEACHTREE STREET NW STE 4-951","ATLANTA","GA","30308"
198242,"400 PEARMAN DAIRY RD","ANDERSON","SC","29625"
198243,"400 PECAN HOLLOW DRIVE","COPPELL","TX","75019"
198244,"400 PENNSYLVANIA AVENUE","MARION","OH","43302"
198245,"400 PERCY L JULIAN DR","GREENCASTLE","IN","46135"
198246,"400 PIERMONT AVE","HILLSDALE","NJ","07642"
198247,"400 POETRY RD","TERRELL","TX","75160"
198248,"400 POND DRIVE","THIBODAUX","LA","70301"
198249,"400 POST ROAD","FAIRFIELD","CT","06824"
198250,"400 POTOMAC HILL","VALLEY GROVE","WV","26060"
198251,"400 POYDRAS ST SUITE 900","NEW ORLEANS","LA","70130"
198252,"400 POYDRAS STREET 22ND FLOOR","NEW ORLEANS","LA","70130"
198253,"400 PROFESSIONAL DRIVE","WINCHESTER","KY","40391"
198254,"400 PRYOR STREET SW 4092","ATLANTA","GA","30302"
198255,"400 PURDY AVENUE","PLACENTIA","CA","92870"
198256,"400 QUINCY STREET 4TH FLOOR","HANCOCK","MI","49930"
198257,"400 RANCHO DEL ORO DRIVE","OCEANSIDE","CA","92057"
198258,"400 RAYON DRIVE","PARKERSBURG","WV","26101"
198259,"400 REMINGTON DRIVE","COLUMBIA","SC","29223"
198260,"400 RENAISSANCE CENTER 2600","DETROIT","MI","48243"
198261,"400 RENAISSANCE CENTER SUITE 2600","DETROIT","MI","48243"
198262,"400 RENAISSANCE CENTER","DETROIT","MI","48243"
198263,"400 RENAISSANCE CTR 2600","DETROIT","MI","48243"
198264,"400 RENAISSANCE CTR SUITE 2600","DETROIT","MI","48243"
198265,"400 RENAISSANCE DR W SUITE 2600","DETROIT","MI","48243"
198266,"400 RIDGE LN","SPRINGFIELD","PA","19064"
198267,"400 RIDGEVIEW AVE","SCOTCH PLAINS","NJ","07076"
198268,"400 RILEY STREET","PERRY","GA","31069"
198269,"400 RIVER PLACE DR","DETROIT","MI","48207"
198270,"400 RIVERDALE RD","CLARKSBURG","WV","26301"
198271,"400 RIVERSIDE DRIVE","GRAFDON","WV","26354"
198272,"400 ROGERS AVENUE","SUMMERSVILLE","MO","65571"
198273,"400 RUTGERS ST","ROCKVILLE","MD","20850"
198274,"400 S 25TH MAIN","COPPERAS COVE","TX","76522"
198275,"400 S 2ND AVE","SIOUX FALLS","SD","57104"
198276,"400 S 4TH ST / SUITE 500","LAS VEGAS","NV","89101"
198277,"400 S 4TH ST STE 410 PMB 77407","MINNEAPOLIS","MN","55415"
198278,"400 S 4TH STREET STE 701","SAINT LOUIS","MO","63102"
198279,"400 S 4TH STREET SUITE 401-10","MINNEAPOLIS","MN","55415"
198280,"400 S 4TH STREET SUITE 500","LAS VEGAS","NV","89101"
198281,"400 S 4TH STREET","DUNLAP","IL","61525"
198282,"400 S 6TH ST","PADUCAH","KY","42003"
198283,"400 S BERNER RD SUITE 2682","CLEWISTON","FL","33440"
198284,"400 S BROADWAY STE 3","EDMOND","OK","73034"
198285,"400 S CAVE VALLEY RD","BYRDSTOWN","TN","38549"
198286,"400 S CEDAR ST","MASON","MI","48854"
198287,"400 S COLORADO BLVD","GLENDALE","CO","80246"
198288,"400 S COUNTY FARM ROAD STE 330","WHEATON","IL","60187"
198289,"400 S ELM ST  SUITE D16","ARROYO GRANDE","CA","93420"
198290,"400 S FEDERAL HWY","HALLANDALE BEACH","FL","33009"
198291,"400 S FOOTE AVENUE","LAFAYETTE","CO","80026"
198292,"400 S FORT HARRISON AVE FIFTH FLOOR","CLEARWATER","FL","33756"
198293,"400 S GREEN STREET","CHICAGO","IL","60607"
198294,"400 S HANOVER ST","OKAWVILLE","IL","62271"
198295,"400 S JEFFERSON ST","KEARNEY","MO","64060"
198296,"400 S KINGSLEY DR UNIT 319","LOS ANGELES","CA","90020"
198297,"400 S LOGAN STREET","DENVER","CO","80209"
198298,"400 S LOS ROBLES AVENUE UNIT 402","PASADENA","CA","91101"
198299,"400 S MARQUETTE AVE S UNIT 801","MINNEAPOLIS","MN","55401"
198300,"400 S ORANGE AVE","SOUTH ORANGE","NJ","07079"
198301,"400 S PINE AVE","LAKE PLACID","FL","33852"
198302,"400 S QUEEN STREET","DOVER","DE","19904"
198303,"400 S SANTA FE AVE","COMPTON","CA","90221"
198304,"400 S WALNUT ST SUITE 200","MUNCIE","IN","47305"
198305,"400 S WALNUT STREET STE 200","MUNCIE","IN","47305"
198306,"400 S ZANG BLVD STE 110","DALLAS","TX","75208"
198307,"400 S ZANG BLVD STE 1420","DALLAS","TX","75208"
198308,"400 SAINT NICHOLAS AVENUE APT 6N","NEW YORK","NY","10027"
198309,"400 SAIRGREEN DR","CHARLOTTE","NC","28217"
198310,"400 SALT CREEK PARKWAY","VALPARAISO","IN","46385"
198311,"400 SALTSPRINGS ROAD","FAYETTEVILLE","NY","13066"
198312,"400 SAN FELIPE ST NW 8","ALBUQUERQUE","NM","87104"
198313,"400 SAN MIGUEL STREET","SAN FRANCISCO","CA","94112"
198314,"400 SANDPIPER LANE","NORMAN","OK","73071"
198315,"400 SANIBELLE CIRCLE 3","CHULA VISTA","CA","91910"
198316,"400 SARATOGA DRIVE UNIT D","ELBURN","IL","60119"
198317,"400 SCHOOL DRIVE","NORTH LIBERTY","IN","46554"
198318,"400 SE 12TH STREET","FORT LAUDERDALE","FL","33316"
198319,"400 SE 164TH AVE","VANCOUCER","WA","98683"
198320,"400 SE BLUE PARKWAY","LEES SUMMIT","MO","64063"
198321,"400 SE OAK","RED OAK","OK","74563"
198322,"400 SEMINOLE DR","AUSTIN","TX","78745"
198323,"400 SEWARD SQUARE SE SUITE B1","WASHINGTON","DC","20003"
198324,"400 SHADE ROAD","WIMBERLEY","TX","78676"
198325,"400 SHADY WOODS ROAD","GENEVA","FL","32732"
198326,"400 SHADYLAWN DR","AMHERST","OH","44001"
198327,"400 SHARP AVENUE","READING","PA","19605"
198328,"400 SHERMAN ST","JACKSON","MN","56143"
198329,"400 SHERYL DRIVE","GROVEPORT","OH","43125"
198330,"400 SHORE DR","YOUNGSVILLE","LA","70592"
198331,"400 SIBLEY STREET L20","ST PAUL","MN","55114"
198332,"400 SIBLEY STREET SUITE 200","SAINT PAUL","MN","55101"
198333,"400 SIXTH ST","CLEVELAND","MN","56017"
198334,"400 SKOKIE BLVD SUITE 380","NORTHBROOK","IL","60062"
198335,"400 SMITH RD","NEWNAN","GA","30263"
198336,"400 SOPRIS AVENUE","GLENWOOD SPRINGS","CO","81601"
198337,"400 SOUTH 4TH STREET SUITE 401-200","MINNEAPOLIS","MN","55415"
198338,"400 SOUTH BRIDGE STREET","LINDEN","MI","48451"
198339,"400 SOUTH BROADWAY SUITE 106","ROCHESTER","MN","55904"
198340,"400 SOUTH COLLEGE ST","FRANKLIN","KY","42134"
198341,"400 SOUTH COUNTY TRAIL","EXETER","RI","02822"
198342,"400 SOUTH GARFIELD AVENUE SUITE 6","ALHAMBRA","CA","91801"
198343,"400 SOUTH LOGAN STREET","DENVER","CO","80209"
198344,"400 SOUTH MAIN STREET P O BOX 349","WOOD RIVER","IL","62095"
198345,"400 SOUTH MAIN STREET","MIDLAND","TX","79701"
198346,"400 SOUTH MAIN- SUITE 100","SEARCY","AR","72143"
198347,"400 SOUTH OYSTER BAY ROAD SUITE 101","HICKSVILLE","NY","11801"
198348,"400 SOUTH PAGE STREET","MONONA","IA","52159"
198349,"400 SOUTH RIDGE DRIVE","SOUTH SIOUX CITY","NE","68776"
198350,"400 SOUTH ROAD","CHAPEL HILL","NC","27514"
198351,"400 SOUTH STREET","ELMHURST","IL","60126"
198352,"400 SOUTH STREET","HARDIN","MO","64035"
198353,"400 SOUTH WALNUT STREET - SUITE 200","MUNCIE","IN","47305"
198354,"400 SOUTHERN AVE SE PO BOX 54247","WASHINGTON","DC","20032"
198355,"400 SOUTHLAKE BLVD STE E2","RICHMOND","VA","23236"
198356,"400 SPRING STREET SUITE 401","ST PAUL","MN","55102"
198357,"400 SPRINGHILL DRIVE","LEXINGTON","KY","40503"
198358,"400 SPRUCE STREET SUITE 302","SCCRANTON","PA","18503"
198359,"400 SPRUCE STREET SUITE 302","SCRANTON","PA","18503"
198360,"400 STADIUM DR","GRAND SALINE","TX","75140"
198361,"400 STERN CT","DIXON","CA","95620"
198362,"400 STINSON STREET","CENTRE","AL","35960"
198363,"400 STORN RIDGE DRIVE","CANON CITY","CO","81212"
198364,"400 SUNDANCE ROAD","PINE RIDGE","SD","57770"
198365,"400 SW 27TH TER","FORT LAUDERDALE","FL","33312"
198366,"400 SW 2ND STREET","MCMINNVILLE","OR","97128"
198367,"400 SWENSON DRIVE","KENILWORTH","NJ","07033"
198368,"400 SYCAMORE STREET","BLAND","MO","65014"
198369,"400 SYMPHONY CIR UNIT 438","COCKEYSVILLE","MD","21030"
198370,"400 TAMWORTH CT","BLUE BELL","PA","19422"
198371,"400 TENAFLY RD STE 524","TENAFLY","NJ","07670"
198372,"400 TOM KITE DR","ROUND ROCK","TX","78664"
198373,"400 TOWNE CENTER BLVD","PINEVILLE","NC","28134"
198374,"400 TOWNSEND LANE","NEW BLAINE","AR","72851"
198375,"400 TRABERT AVENUE SUITE 8","ATLANTA","GA","30309"
198376,"400 TRADECENTER DRIVE SUITE 5900","WOBURN","MA","01801"
198377,"400 TRAVIS STREET  SUITE 1700","SHREVEPORT","LA","71101"
198378,"400 TRUX STREET","PLYMOUTH","OH","44865"
198379,"400 UNION STREET","BLOOMINGTON","IL","61701"
198380,"400 VESTAVIA PARKWAY SUITE 100","VESTAVIA HILLS","AL","35216"
198381,"400 W 144TH ST","RIVERDALE","IL","60827"
198382,"400 W 43RD ST APT 26-M","NEW YORK","NY","10036"
198383,"400 W 4TH PO BOX K","SEDGWICK","KS","67135"
198384,"400 W 4TH STREET","DAVENPORT","IA","52801"
198385,"400 W BEACH AVE","INGLEWOOD","CA","90302"
198386,"400 W CAPITOL AVENUE SUITE 2000","LITTLE ROCK","AR","72201"
198387,"400 W COADY DRIVE","MINOOKA","IL","60447"
198388,"400 W COLUMBIA AVE","STOCKTON","IL","61085"
198389,"400 W COMMONWEALTH AVENUE","FULLERTON","CA","92832"
198390,"400 W CUMMINGS PARK  SUITE 1725-132","WOBURN","MA","01801"
198391,"400 W CUMMINGS PARK NUM-1725-8","WOBURN","MA","01801"
198392,"400 W ELM AVENUE","FLAGSTAFF","AZ","86001"
198393,"400 W ELM STREET","CHEBOYGAN","MI","49721"
198394,"400 W HARRISON ST","WAPAKONETA","OH","45895"
198395,"400 W INTERSTATE 20 SUITE 100","WEATHERFORD","TX","76086"
198396,"400 W MAGNOLIA AVE APT X4","AUBURN","AL","36832"
198397,"400 W MARK AVE","LOCKRIDGE","IA","52635"
198398,"400 W NORTH STREET UNIT 1032","RALEIGH","NC","27603"
198399,"400 W PARK ROAD","MONON","IN","47959"
198400,"400 W PEACHTREE ST  NW STE 4 /1543","ATLANTA","GA","30308"
198401,"400 W PEACHTREE ST NW STE 202","ATLANTA","GA","30308"
198402,"400 W PEACHTREE ST NW STE 4-742","ATLANTA","GA","30308"
198403,"400 W PEACHTREE ST NW STE 4-980","ATLANTA","GA","30303"
198404,"400 W PEACHTREE ST NW SUITE 4-1021","ATLANTA","GA","30308"
198405,"400 W PEACHTREE ST NW SUITE 4-1255","ATLANTA","GA","30308"
198406,"400 W PEACHTREE ST NW UNIT 3815","ATLANTA","GA","30308"
198407,"400 W PEACHTREE STREET SUITE 3006","ATLANTA","GA","30308"
198408,"400 W RADFORD ST","CROSSETT","AR","71646"
198409,"400 W SCHIDELER P O BOX 1003","CRIPPLE CREEK","CO","80813"
198410,"400 W SOUTH BOULDER ROAD SUITE 2500","LAFAYETTE","CO","80026"
198411,"400 W WILSON BRIDGE RD SUITE 230","WORTHINGTON","OH","43085"
198412,"400 W WISTERIA PL","CHANDLER","AZ","85248"
198413,"400 W WOODWARD AVE","EUSTIS","FL","32726"
198414,"400 WALKER STREET","RIDGELY","TN","38024"
198415,"400 WALNUT","GOLDEN CITY","MO","64748"
198416,"400 WARREN ROAD","AUGUSTA","GA","30907"
198417,"400 WASHINGTON AVE SOUTH","LONG BEACH","WA","98631"
198418,"400 WASHINGTON AVENUE UNIT 311","BREMERTON","WA","98337"
198419,"400 WASHINGTON STREET","PEMBROKE","MA","02359"
198420,"400 WAYNE AVENUE","DAYTON","OH","45410"
198421,"400 WEBBER ROAD A 1-3","SPARTANBURG","SC","29307"
198422,"400 WEST 15TH STREET SUITE 950","AUSTIN","TX","78701"
198423,"400 WEST 1ST ST","CHICO","CA","95929"
198424,"400 WEST 43RD ST STE 36S","NEW YORK","NY","10036"
198425,"400 WEST 43RD STREET APT 18H","NEW YORK","NY","10036"
198426,"400 WEST 43RD STREET APT 41J","NEW YORK","NY","10036"
198427,"400 WEST ARLINGTON BLVD SUITE 101-H","GREENVILLE","NC","27834"
198428,"400 WEST ATLANTIC UNIT 204","DELRAY BEACH","FL","33444"
198429,"400 WEST BEACON RD  APT 302","LAKELAKE","FL","33803"
198430,"400 WEST CAPITOL AVE SUITE 1700","LITTLE ROCK","AR","72201"
198431,"400 WEST CAPITOL AVENUE SUITE 1200","LITTLE ROCK","AR","72201"
198432,"400 WEST COLLEGE AVENUE","PEMBERVILLE","OH","43450"
198433,"400 WEST DAUGHERTY STREET","WEBB CITY","MO","64870"
198434,"400 WEST HENRY STREET","SEDALIA","MO","65301"
198435,"400 WEST LAUREL AVE","STERLING","VA","20164"
198436,"400 WEST MAIN STREET STE 560","KNOXVILLE","TN","37902"
198437,"400 WEST MARKET STREET SUITE 1800","LOUISVILLE","KY","40202"
198438,"400 WEST NORTH ST","RALEIGH","NC","27603"
198439,"400 WEST PEACHTREE ST NW STE 4752","ATLANTA","GA","30308"
198440,"400 WEST PEACHTREE ST NW UNIT 1102","ATLANTA","GA","30308"
198441,"400 WEST PEACHTREE ST STE 4-592","ATLANTA","GA","30308"
198442,"400 WEST PEACHTREE ST SUITE 3602","ATLANTA","GA","30308"
198443,"400 WEST PEACHTREE STREET 4-999","ATLANTA","GA","30308"
198444,"400 WEST PEACHTREE STREET APT 2016","ATALNTA","GA","30308"
198445,"400 WEST PEACHTREE STREET APT 2016","ATLANTA","GA","30308"
198446,"400 WEST PEACHTREE STREET NW U 3816","ATLANTA","GA","30308"
198447,"400 WEST PEACHTREE STREET NW","ATLANTA","GA","30308"
198448,"400 WEST SAINT ELMO 223","AUSTIN","TX","78745"
198449,"400 WEST VIOLA AVE","YAKIMA","WA","98902"
198450,"400 WESTCHESTER WAY","BIRMINGHAM","MI","48009"
198451,"400 WESTPEACHTREE STREET NW  2314","ATLANTA","GA","30308"
198452,"400 WEXFORD BLVD","SPRING HILL","FL","34609"
198453,"400 WILLOW CREEK DR","OWATONNA","MN","55060"
198454,"400 WINTER STREET","WILLIAMSPORT","PA","17702"
198455,"400 WOODFIELD ROAD","WEST HEMPSTEAD","NY","11552"
198456,"400 WOODHAVEN DR","POLK CITY","IA","50226"
198457,"400 WPEACHTREE ST NW UT 5266","ATLANTA","GA","30308"
198458,"400 WYNOLA CT","CORONA","CA","92879"
198459,"400 ZANG BLVD SUITE 1203","DALLAS","TX","75208"
198460,"400-404 MARSH RD","WILMINGTON","DE","19809"
198461,"4000 2ND STREET SW","WASHINGTON","DC","20032"
198462,"4000 ANDERSON ROAD APT 2","NASHVILLE","TN","37217"
198463,"4000 APPLEGATE ROAD","CHARLOTTE","NC","28209"
198464,"4000 ASTON GARDENS DRIVE APT302","VENICE","FL","34292"
198465,"4000 AURORA AVE N STE 203","SEATTLE","WA","98103"
198466,"4000 BAD CATTLE CO RD","PAMPA","TX","79065"
198467,"4000 BALLARD CIRCLE","LINCOLN","NE","68504"
198468,"4000 BAREVA ROAD","BALTIMORE","MD","21215"
198469,"4000 BAY SPRINGS CT","ARLINGTON","TX","76016"
198470,"4000 BEECHWOOD AVE","ALLIANCE","OH","44601"
198471,"4000 BIG HOLLOW ROAD","HEBER CITY","UT","84032"
198472,"4000 BIRCH ST SUITE 203","NEWPORT BEACH","CA","92660"
198473,"4000 BRANTLEY DRIVE","AUSTELL","GA","30106"
198474,"4000 BROWNS CREEK ROAD","THE DALLES","OR","97058"
198475,"4000 CANYONS RESORT DRIVE UNIT 432","PARK CITY","UT","84098"
198476,"4000 CASTLE BLVD APT 1205","SILVER SPRING","MD","20904"
198477,"4000 CATHEDRAL AVE / NW / APT 332B","WASHINGTON","DC","20016"
198478,"4000 CENTRAL FL BLVD","ORLANDO","FL","32816"
198479,"4000 CENTRAL FLORIDA BLVD","ORLANDO","FL","32816"
198480,"4000 CITY WALK WAY APT 407","CHARLOTTESVILLE","VA","22902"
198481,"4000 CLINTON AVE","MINNEAPOLIS","MN","55409"
198482,"4000 COLD HARBOUR DR","RALEIGH","NC","27610"
198483,"4000 COLONY WOODS DRIVE","GREENVILLE","NC","27834"
198484,"4000 COOKS INLET ROAD","KINGSPORT","TN","37664"
198485,"4000 COUNTRY BIRCH COVE","MEMPHIS","TN","38115"
198486,"4000 COX RD","SUMTER","SC","29154"
198487,"4000 CREIGHTON RIDGE ROAD","CAZADERO","CA","95421"
198488,"4000 DANBURY","WICHITA","KS","67220"
198489,"4000 DARLEY AVE","BOULDER","CO","80305"
198490,"4000 DUMAINE STREET UNIT B","NEW ORLEANS","LA","70119"
198491,"4000 DUNWOODY PARK","DUNWOODY","GA","30338"
198492,"4000 E QUINCY AVE","ENGLEWOOD","CO","80113"
198493,"4000 EAGLE POINTE PARKWAY","BIRMINGHAM","AL","35242"
198494,"4000 EAST BRISTOL ST SUITE 3-156","ELKHART","IN","46514"
198495,"4000 EASTLEIGH DRIVE","PLANO","TX","75024"
198496,"4000 EASTON DR STE 16","BAKERSFIELD","CA","93309"
198497,"4000 EDISON AVE","SACRAMENTO","CA","95821"
198498,"4000 FM 1387","MIDLOTHIAN","TX","76065"
198499,"4000 GLENDA PLACE","COLUMBUS","OH","43220"
198500,"4000 GRIGGS SUITE 200","HOUSTON","TX","77021"
