"ID","Address","City","State","Zip"
167001,"312 CHESTNUT OAK DR","KNOXVILLE","TN","37909"
167002,"312 CHESTNUT STREET","LEADVILLE","CO","80461"
167003,"312 CHIPPENHAM DRIVE","BATON ROUGE","LA","70808"
167004,"312 CHRISTIAN DRIVE","WHITE HOUSE","TN","37188"
167005,"312 CITY VIEW DRIVE","FORT LAUDERDALE","FL","33311"
167006,"312 CLAYTON CROSSING DRIVE APT 202","ELLISVILLE","MO","63011"
167007,"312 CLIFF ROAD","ASHEBORO","NC","27203"
167008,"312 COLISEUM DRIVE PO BOX 215","SNYDER","TX","79550"
167009,"312 CONGDON AVE","ELGIN","IL","60120"
167010,"312 COSTA MESA STREET","COSTA MESA","CA","92627"
167011,"312 COUNTY ROAD NO 1515","WARREN","TX","77664"
167012,"312 CROSSTOWN ROAD SUITE 166","PEACHTREE CITY","GA","30269"
167013,"312 CYPRESS STREET","THROOP","PA","18512"
167014,"312 DAMONE AVE","MEMPHIS","TN","38109"
167015,"312 DEERFIELD CIRCLE","WARNER ROBINS","GA","31088"
167016,"312 DELMAR WAY","SAN MATEO","CA","94403"
167017,"312 E 17TH ST","BLOOMINGTON","IN","47408"
167018,"312 E 1ST STREET SUITE 530","LOS ANGELES","CA","90012"
167019,"312 E 5TH STREET","LOS ANGELES","CA","90013"
167020,"312 E BRYAN STREET","DOUGLAS","GA","31533"
167021,"312 E CHOCTAW","MCALESTER","OK","74501"
167022,"312 E HATCHER RD 15","PHOENIX","AS","85020"
167023,"312 E ILLINOIS AVE","MIDLAND","TX","79701"
167024,"312 E KELSO ROAD","COLUMBUS","OH","43202"
167025,"312 E LIVE OAK ST APT 8","SAN GABRIEL","CA","91776"
167026,"312 E MAIN STREET","LANCASTER","TX","75146"
167027,"312 E POPLAR ST","BLADENBORO","NC","28320"
167028,"312 E SHERMAN STREET","LEBANON","OR","97355"
167029,"312 E WALNUT ST","ROSELLE","IL","60172"
167030,"312 EAST 23 STREET 6A","NEW YORK","NY","10010"
167031,"312 EAST BROADWAY","CUERO","TX","77954"
167032,"312 EAST HOUSTON STREET","TYLER","TX","75702"
167033,"312 EAST LYNDALE AVENUE NORTH","MINNEAPOLIS","MN","55405"
167034,"312 EDWARDS AVE APT 3","WEST DUNDEE","IL","60118"
167035,"312 ELM AVENUE","MOOSE LAKE","MN","55767"
167036,"312 ELWOOD BEACH ROAD","SHELL LAKE","WI","54871"
167037,"312 ESSEX AVE","MATTOON","IL","61938"
167038,"312 EUSTIS AVE","IMMOKALEE","FL","34142"
167039,"312 EVERHART STREET","DUPONT","PA","18641"
167040,"312 FARRALL RD","SUNDANCE","WY","82729"
167041,"312 FEATHER TREE DRIVE","CLEARWATER","FL","33765"
167042,"312 FIFTH STREET","JUPITER","FL","33458"
167043,"312 FLORAL STREET","GREENEVILLE","TN","37743"
167044,"312 GEISER AVENUE","WAYNESBORO","PA","17268"
167045,"312 GRACELAND DR SE APT 38","ALBUQUERQUE","NM","87108"
167046,"312 GRAND AVENUE","FREEPORT","NY","11520"
167047,"312 GRANDVIEW CIR","COLUMBIA","SC","29229"
167048,"312 HAYWOOD DRIVE","KATHLEEN","GA","31047"
167049,"312 HIDDEN VALLEY RD","KINGSPORT","TN","37663"
167050,"312 HUNTER AVE","OAKLAND","CA","94603"
167051,"312 INDIGO SPRINGS DRIVE","COLUMBIA","SC","29229"
167052,"312 JASMINE DR","LOCUST GROVE","GA","30248"
167053,"312 LADYFERN WAY","GARLAND","TX","75040"
167054,"312 LAFAYETTE AVE","BAY CITY","MI","48708"
167055,"312 LAKE RAPONDA RD","WILMINGTON","VT","05363"
167056,"312 LAKE STREET","BEAVER DAM","WI","53916"
167057,"312 LAMBTON LANE","NAPLES","FL","34104"
167058,"312 LARRY LANE","GAHANNA","OH","43230"
167059,"312 LAURENO PLACE","PANAMA CITY BEACH","FL","32413"
167060,"312 LEWISHAM RD","COLUMBIA","SC","29210"
167061,"312 LILLARD CIRCLE","HEWITT","TX","76643"
167062,"312 LINDEN AVE","ROCKY MOUNT","NC","27801"
167063,"312 LIVE OAK","SAN GABRIEL","CA","91776"
167064,"312 MAIN AVENUE NORTH","THIEF RIVER FALLS","MN","56701"
167065,"312 MAIN ST","HIGHLAND FALLS","NY","10928"
167066,"312 MAIN STREET PO BOX 197","HIGHLAND FALLS","NY","10928"
167067,"312 MAIN STREET","FULTON","KY","42041"
167068,"312 MARINE FORCES DR","GRAND PRAIRIE","TX","75051"
167069,"312 MARKHAM RISE","COLUMBIA","SC","29229"
167070,"312 MARSHALL AVE STE 1010","LAUREL","MD","20707"
167071,"312 MARTHA AVE PO BOX 234","MULVANE","KS","67110"
167072,"312 MCBRIEN ROAD SUITE 301","CHATTANOOGA","TN","37411"
167073,"312 MEADOWRIDGE DRIVE","WARNER ROBINS","GA","31093"
167074,"312 MEETING STREET","MCDONOUGH","GA","30252"
167075,"312 MILDRED STREET","RICHLAND","MO","65556"
167076,"312 MINORCA AVE","CORAL GABLES","FL","33134"
167077,"312 N 1600 W","MAPLETON","UT","84664"
167078,"312 N 5TH STREET BOX 9","JARRELL","TX","76537"
167079,"312 N 9TH STREET - SUITE B","LOMPOC","CA","93436"
167080,"312 N ALEXANDER CREEK RD","NEWNAN","GA","30263"
167081,"312 N DURHAM STREET","GALLATIN","TN","37066"
167082,"312 N E 28TH STREET SUITE 109","OKLAHOMA CITY","OK","73105"
167083,"312 N HILL ST","BURNET","TX","78611"
167084,"312 N JEFFERSON AVE","COOKEVILLE","TN","38501"
167085,"312 N JULIETTE AVE","MANHATTAN","KS","66502"
167086,"312 N MAIN","FOUNTAIN INN","SC","29644"
167087,"312 N MARTIN LUTHER KING JR BLVD","BALTIMORE","MD","21201"
167088,"312 N MAY ST 6I","CHICAGO","IL","60607"
167089,"312 N VAN BUREN ST","FALLS CHURCH","VA","22046"
167090,"312 N WALNUT ST","CAMERON","MO","64429"
167091,"312 N WASHINGTON STREET","LANCASTER","WI","53813"
167092,"312 NASHVILLE AVE  UNIT 6","HUNTINGTON","CA","92648"
167093,"312 NE 4TH STREET APARTMENT B","BLANCHARD","OK","73010"
167094,"312 NICHOLS AVE","FAIRHOPE","AL","36532"
167095,"312 NORTH 14TH STREET","CLARINDA","IA","51632"
167096,"312 NORTH BARBARA ST","MOUNT JOY","PA","17552"
167097,"312 NORTH CENTER","NEW BOSTON","TX","75570"
167098,"312 NORTH ELM STREET","HAUGHTON","LA","71037"
167099,"312 NORTH HOLLYWOOD AVE","DAYTONA BEACH","FL","32118"
167100,"312 NORTH ST-PO BOX 16","REASNOR","IA","50232"
167101,"312 NORTH STEELE STREET","SANFORD","NC","27330"
167102,"312 NORTH STRATA VIA WAY","BOISE","ID","83712"
167103,"312 NOTTINGHAM ROAD","WILLIAMSBURG","VA","23185"
167104,"312 NW 46 STREET","POMPANO BEACH","FL","33064"
167105,"312 NW 85TH APT 306","SEATTLE","WA","98117"
167106,"312 OAKLAND AVE","BELMONT","NC","28012"
167107,"312 OWENS STREET","WARRIOR","AL","35180"
167108,"312 OXBOW COVE","HOLLY LAKE RANCH","TX","75765"
167109,"312 PALISADES WAY","NEW BERN","NC","28560"
167110,"312 PANTHER DR","ELLSWORTH","WI","54011"
167111,"312 PANTIGO LANE","LEXINGTON","SC","29072"
167112,"312 PARK AVENUE SUITE 211","CLARENDON HILLS","IL","60514"
167113,"312 PEARL PKWY SUITE 4402","SAN ANTONIO","TX","78215"
167114,"312 PHEASANT TRAIL","LAKE IN THE HILLS","IL","60156"
167115,"312 PINE CT","NAPERVILLE","IL","60540"
167116,"312 PINEWAY TERRACE","WEST PALM BEACH","FL","33406"
167117,"312 PLEASANT RIDGE ROAD","POUGHQUAG","NY","12570"
167118,"312 POLARIS CIR","BISHOP","CA","93514"
167119,"312 PRETTYMAN DRIVE  4103","ROCKVILLE","MD","20850"
167120,"312 REDWING WAY","CASSELBERRY","FL","32707"
167121,"312 REED ST","ERIE","PA","16507"
167122,"312 RETREAT STREET","WESTMINSTER","SC","29693"
167123,"312 RICHLAND AVENUE","SAN FRANCISCO","CA","94110"
167124,"312 RIDING TRAIL CT NW","LEESBURG","VA","20176"
167125,"312 ROBERTS DRIVE","MUKWONAGO","WI","53149"
167126,"312 ROFF POINT DRIVE","ODENTON","MD","21113"
167127,"312 ROSA PARKS AVE 11TH FLOOR","NASHVILLE","TN","37243"
167128,"312 RUMPH STREET","JESUP","GA","31545"
167129,"312 S 3RD AVE","WALLA WALLA","WA","99362"
167130,"312 S 8TH STREET","CHARITON","IA","50049"
167131,"312 S BEVERLY DR STE 3401","BEVERLY HILLS","CA","90212"
167132,"312 S BEVERLY DRIVE SUITE 3303","BEVERLY HILLS","CA","90212"
167133,"312 S DENNISON ST","LITTLE ROCK","AR","72205"
167134,"312 S DIVISION STREET","WHITEHALL","MI","49461"
167135,"312 S FOURTH STREET SUITE 700","LOUISVILLE","KY","40202"
167136,"312 S GAILLARD STREET","BAYTOWN","TX","77520"
167137,"312 S GLENWOOD PL","BURBANK","CA","91506"
167138,"312 S GUENTHER AVE","NEW BRAUNFELS","TX","78130"
167139,"312 S MAIN ST","MOUNT AIRY","MD","21771"
167140,"312 S STATE TOAD 415","NEW SMYRNA BEACH","FL","32168"
167141,"312 SAINT ANDREWS STREET","TARBORO","NC","27886"
167142,"312 SCHILLINGER ROAD T-173","MOBILE","AL","36608"
167143,"312 SE 1200 RD","LEETON","MO","64761"
167144,"312 SECOND STREET","PINETOPS","NC","27864"
167145,"312 SEDWICK DRIVE","SYRACUSE","NY","13203"
167146,"312 SIBLEY RD","PINE GROVE","LA","70453"
167147,"312 SIBLEY ROAD","PINE GROVE","LA","70453"
167148,"312 SILENT MEADOW COURT","WAXHAW","NC","28173"
167149,"312 SOUTH BEVERLY DRIVE 3303","BEVERLY HILLS","CA","90212"
167150,"312 SOUTHLAND DRIVE","LEXINGTON","KY","40503"
167151,"312 SOUTHWIND DR APT 108","NORTH PALM BEACH","FL","33408"
167152,"312 SPANISH MOSS TRL","DESTIN","FL","32541"
167153,"312 SPEER AVENUE","CLIFTON","NJ","07013"
167154,"312 SPINNAKER ST","FOSTER CITY","CA","94404"
167155,"312 STOCKHAMS LANE","ABERDEEN","MD","21001"
167156,"312 STRATHMORE RD","SYRACUSE","NY","13207"
167157,"312 SUMMERWOOD DR","BRANSON","MO","65616"
167158,"312 SUMMIT FORREST DR","MARIETTA","GA","30068"
167159,"312 SUNSET RIDGE","LEAGUE CITY","TX","77573"
167160,"312 SUSQUEHANNA ROAD","ROCHESTER","NY","14618"
167161,"312 SUYDAM ST APT 3R","BROOKLYN","NY","11237"
167162,"312 SW 1ST AVE","KELSO","WA","98626"
167163,"312 SW GREENWICH DR 585","LEES SUMMIT","MO","64082"
167164,"312 SW GREENWICH DR UNIT 318","LEES SUMMIT","MO","64082"
167165,"312 SW MARKET STREET","LEE'S SUMMIT","MO","64063"
167166,"312 TALLGRASS DRIVE","HARVARD","IL","60033"
167167,"312 TRIGG DR","MARION","AR","72364"
167168,"312 UPPER MILL DRIVE","ANTIOCH","TN","37013"
167169,"312 VICTORIA ST","GREEN BAY","WI","54302"
167170,"312 W 2ND  STREET SUITE 1406","CASPER","CA","82601"
167171,"312 W 2ND AVE","CASA GRANDE","AZ","85122"
167172,"312 W 2ND STREET - 1125","CASPER","WY","82601"
167173,"312 W CHATHAM ST 103","CARY","NC","27511"
167174,"312 W DOUGLAS AVE","EL CAJON","CA","92020"
167175,"312 W FIRETOWER ROAD","PELETIER","NC","28584"
167176,"312 W FUNDERBURG RD","FAIRBORN","OH","45324"
167177,"312 W HAZEL AVE","PILLAGER","MN","56473"
167178,"312 W IOWA DR","HARKER HEIGHTS","TX","76548"
167179,"312 W LEAVELL WOODS DRIVE","JACKSON","MS","39212"
167180,"312 W MAIN ST","HORTONVILLE","WI","54944"
167181,"312 W MAIN STREET","ELLSWORTH","WI","54011"
167182,"312 W PATTERSON ST","LANSFORD","PA","18232"
167183,"312 WALNUT STREET SUITE 1000","CINCINNATI","OH","45202"
167184,"312 WALNUT STREET SUITE 1600","CINCINNATI","OH","45202"
167185,"312 WARREN STREET","BEVERLY","NJ","08010"
167186,"312 WARRINER HALL CENTRAL MI UNIV","MT PLEASANT","MI","48859"
167187,"312 WEST 113TH ST","CHICAGO","IL","60628"
167188,"312 WEST 116TH STREET APT 2A","NEW YORK","NY","10026"
167189,"312 WEST 2ND STR 5073","CASPER","WY","82601"
167190,"312 WEST 5TH STREET NUMBER 716","LOS ANGELES","CA","90013"
167191,"312 WEST 8TH STREET","LANSDALE","PA","19446"
167192,"312 WEST 98TH STREET  APT-3","NEW YORK","NY","10025"
167193,"312 WEST AVENUE","RED WING","MN","55066"
167194,"312 WEST EDEN WAY","WALDRON","IN","46182"
167195,"312 WEST MAHONING STREET","PUNXSUTAWNEY","PA","15767"
167196,"312 WESTMONT AVE","HADDONFIELD","NJ","08033"
167197,"312 WEY BRIDGE TERRACE","CAMILLUS","NY","13031"
167198,"312 WHITNEY LANE SUITE 3","SHERIDAN","WY","82801"
167199,"312 WOODLAND DRIVE","MONTEVALLO","AL","35115"
167200,"312 WOODLARK DRIVE","INDIANAPOLIS","IN","46229"
167201,"312 WYOMING AVE","WYOMING","PA","18644"
167202,"312 YORK ROAD","WALTON","KY","41094"
167203,"312- T SHILLINGER RD S 185","MOBILE","AL","36608"
167204,"312-320 CROCKER STREET","LOS ANGELES","CA","90013"
167205,"312-T SCHILLINGER RD S BOX 290","MOBILE","AL","36608"
167206,"312","COSMOPOLIS","WA","98357"
167207,"312","KETCHUM","OK","74349"
167208,"3120 175TH PL SE","BOTHELL","WA","98012"
167209,"3120 25ST S SUITE 362","FARGO","ND","58103"
167210,"3120 30TH STREET","DES MOINES","IA","50310"
167211,"3120 ACOMA DRIVE","INDIANAPOLIS","IN","46235"
167212,"3120 AMITY POINT RD APT L","CHARLOTTE","NC","28105"
167213,"3120 AREZZO DR","SAN LUIS OBISPO","CA","93401"
167214,"3120 BELL DR","BOULDER","CO","80301"
167215,"3120 BENNINGER TRACE SW","ATLANTA","GA","30331"
167216,"3120 BLUFF BLVD","HOLIDAY","FL","34691"
167217,"3120 BURNET AVENUE SUITE 201","CINCINNATI","OH","45229"
167218,"3120 CARNES AV","MEMPHIS","TN","38111"
167219,"3120 CARPENTER RD SUITE 111","HAMTRAMCK","MI","48212"
167220,"3120 CARPENTER ST STE 201","HAMTRAMCK","MI","48212"
167221,"3120 CARPENTER STREET STE 201","HAMTRAMCK","MI","48212"
167222,"3120 CARPENTER STREET SUITE 201","HAMTRAMCK","MI","48212"
167223,"3120 CHAPARRAL LN","FORT WORTH","TX","76109"
167224,"3120 COLLIE LN","FALLS CHURCH","VA","22044"
167225,"3120 CR 1804","GRAND SALINE","TX","75140"
167226,"3120 DAMSEL SAUVAGE LANE","LEWISVILLE","TX","75056"
167227,"3120 DEE ANN DR","MEMPHIS","TN","38119"
167228,"3120 E ETHEL ST","WICHITA","KS","67219"
167229,"3120 E LANCASTER AVE","FORT WORTH","TX","76103"
167230,"3120 EAST AVE H6","LANCASTER","CA","93535"
167231,"3120 EAST BROAD STREET","STATESVILLE","NC","28625"
167232,"3120 EAST LANCASTER","FORT WORTH","TX","76103"
167233,"3120 EDMONTON DR STE 100","SUN PRAIRIE","WI","53590"
167234,"3120 EDMONTON DR SUITE 300","SUN PRAIRIE","WI","53590"
167235,"3120 FAGAIMA ROAD","PAO PAGO","AS","96799"
167236,"3120 FALCON STREET","SAN DIEGO","CA","92103"
167237,"3120 FIRE ROAD SUITE 201","EGG HARBOR","NJ","08234"
167238,"3120 FLORAL GROVE LANE  UNIT 204","CHARLOTTE","NC","28216"
167239,"3120 FREDRICK ROAD - SUITE B","OPELIKA","AL","36801"
167240,"3120 GEORGE 2ND HWY","SOUTHPORT","NC","28461"
167241,"3120 GEORGE II HWY","SOUTHPORT","NC","28461"
167242,"3120 HARDIN COMBEE ROAD","LAKELAND","FL","33801"
167243,"3120 HOUSTON BLVD","LOUISVILLE","KY","40220"
167244,"3120 JUNIPER COURT","LYNWOOD","IL","60411"
167245,"3120 KINGSLEY AVE","ROCKWELL CITY","IA","50579"
167246,"3120 LAZY J COURT","ANTELOPE","CA","95843"
167247,"3120 MADEIRA DR NE","ALBUQUERQUE","NM","87110"
167248,"3120 MARICOPA DR","RIVERSIDE","CA","92507"
167249,"3120 MARKET PLACE DRIVE SUITE E","ASHTABULA","OH","44004"
167250,"3120 N 19TH AVENUE","PHOENIX","AZ","85015"
167251,"3120 N 35TH AVE SUITE 2-4","PHOENIX","AZ","85017"
167252,"3120 N BEND ROAD","HEBRON","KY","41048"
167253,"3120 N CICERO AVE SUITE B","CHICAGO","IL","60641"
167254,"3120 N RANGE ROAD","PORT HURON","MI","48060"
167255,"3120 NW 163RD COURT","EDMOND","OK","73013"
167256,"3120 NW 66TH ST","FORT LAUDERDALE","FL","33309"
167257,"3120 OGDEN COURT","COLORADO SPRINGS","CO","80920"
167258,"3120 PIMLICO PKWY      STE 118","LEXINGTON","KY","40517"
167259,"3120 PLYMOUTH ROCK ROAD","PLYMOUTH MEETING","PA","19462"
167260,"3120 QUESADA STREET NW","WASHINGTON DC","DC","20015"
167261,"3120 ROGERS AVE","FORT WORTH","TX","76129"
167262,"3120 ROLAND DR","DELTONA","FL","32738"
167263,"3120 S HACIENDA BLVD SUITE 102","HACIENDA HEIGHTS","CA","91745"
167264,"3120 SAWTELLE BLVD SUITE 208","LOS ANGELES","CA","90066"
167265,"3120 SCOTLAND ROAD","MEMPHIS","TN","38128"
167266,"3120 SCOTT BLVD","SANTA CLARA","CA","95054"
167267,"3120 SE BROOKLYN STREET","PORTLAND","OR","97202"
167268,"3120 SE STANLEY ROAD","TECUMSEH","KS","66542"
167269,"3120 SHATTUCK AVE","BERKELEY","CA","94705"
167270,"3120 SW 25TH STREET","MIAMI","FL","33133"
167271,"3120 SW PERGOLA PARK DRIVE","LEES SUMMIT","MO","64081"
167272,"3120 THAYER ST","EVANSTON","IL","60201"
167273,"3120 TORGERSEN","BLACKSBURG","VA","24061"
167274,"3120 UNICORN AVENUE","PAHRUMP","NV","89048"
167275,"3120 VILLAGE VISTA DRIVE SUITE 104","ERIE","CO","80516"
167276,"3120 W CAREFREE HWY  STE 1-247","PHOENIX","AZ","85086"
167277,"3120 W CAREFREE HWY STE 1 BOX 616","PHOENIX","AZ","85086"
167278,"3120 W ENCHANTED CIR","COLORADO SPRINGS","CO","80917"
167279,"3120 WATERVIEW DR","LAS VEGAS","NV","89117"
167280,"3120 WINKLER AVE UNIT 9","FORT MYERS","FL","33916"
167281,"3120 YELTES","GRAND PRAIRIE","TX","75054"
167282,"31200 EVERMAN LANE","WARRENTON","MO","63383"
167283,"31200 NE CANTER LANE","SHERWOOD","OR","97140"
167284,"31201 NE 104TH ST","CARNATION","WA","98014"
167285,"31204 OAK RIDGE DRIVE","ROCKY MOUNT","MO","65072"
167286,"31208 SLATE STREEET","MENTONE","CA","92359"
167287,"3121 24TH STREET SE","WASHINGTON","DC","20020"
167288,"3121 31ST WAY","WEST PALM BEACH","FL","33407"
167289,"3121 ALTHORP WAY","LEXINGTON","KY","40509"
167290,"3121 ARBOR RIDGE LANE","NEW ALBANY","IN","47150"
167291,"3121 ARROWHEAD DR","LEXINGTON","KY","40503"
167292,"3121 BROADWAY","PADUCAH","KY","42001"
167293,"3121 CABALLERO CIR","DALLAS","TX","75236"
167294,"3121 CABLE DRIVE","HOLIDAY","FL","34691"
167295,"3121 CANTERBURY DRIVE","SALINA","KS","67401"
167296,"3121 CAPITOL STREET","WHITE OAK","PA","15131"
167297,"3121 CEDAR DRIVE  212","OVERGAARD","AZ","85933"
167298,"3121 CEDAR HILL LN","HOUSTON","TX","77093"
167299,"3121 CENTERVILLE ROSEBUD RD","SNELLVILLE","GA","30039"
167300,"3121 CHESTERFIELD AVENUE","BALTIMORE","MD","21213"
167301,"3121 CHESTNUT ST NE","WASHINGTON","DC","20018"
167302,"3121 CREEKWOOD DR","MONROE","NC","28110"
167303,"3121 CROW CANYON PLACE B","SAN RAMON","CA","94583"
167304,"3121 E GREENWAY  ROAD 303","PHOENIX","AZ","85032"
167305,"3121 E WAGONER RD","PHOENIX","AZ","85032"
167306,"3121 ENSLOW AVENUE","RICHMOND","VA","23222"
167307,"3121 EXETER RD","AUGUSTA","GA","30909"
167308,"3121 FAIRLANE FARMS RD SUITE 3","WELLINGTON","FL","33414"
167309,"3121 GABLES DR NE","ATLANTA","GA","30319"
167310,"3121 KING STREET","ALEXANDRIA","VA","22302"
167311,"3121 LAUOHO RD","KALAHEO","HI","96741"
167312,"3121 LOWELL AVENUE","JACKSONVILLE","FL","32254"
167313,"3121 MIDDLETOWN ROAD - APT 7M","BRONX","NY","10461"
167314,"3121 MONTE CARLO TRAIL","ORLANDO","FL","32805"
167315,"3121 MORGAN CIRCLE","BISMARCK","ND","58503"
167316,"3121 N HANCOCK","ODESSA","TX","79762"
167317,"3121 N HEARTHSIDE ST","ORANGE","CA","92865"
167318,"3121 NE CORNELL ROAD","HILLSBORO","OR","97124"
167319,"3121 PARKER ST","OMAHA","NE","68111"
167320,"3121 PILLSBURY AVE APT 1301","MINNEAPOLIS","MN","55408"
167321,"3121 PILLSBURY AVE S APT 2201","MINNEAPOLIS","MN","55408"
167322,"3121 POST STREET","CLINTON","NY","13323"
167323,"3121 REDHAVEN WAY","LITTLETON","CO","80126"
167324,"3121 ROSEWOOD","PAHRUMP","NV","89048"
167325,"3121 ROSLYN DRIVE","MIDDLETOWN","OH","45044"
167326,"3121 SE 8TH AVE","CAPE CORAL","FL","33904"
167327,"3121 SOUTH STREET NW","WASHINGTON","DC","20007"
167328,"3121 SOUTHEAST PARKWAY","RICHMOND","IN","47374"
167329,"3121 ST CROIX TRAIL S SUITE 201","AFTON","MN","55001"
167330,"3121 STRATUS DR","WEST LAFAYETTE","IN","47906"
167331,"3121 VAN BUREN STREET","BAKER","LA","70714"
167332,"3121 W BUCKHORN TRAIL","PHOENIX","AZ","85083"
167333,"3121 W BYRON ST","CHICAGO","IL","60618"
167334,"3121 WATERSIDE LANE","ALEXANDRIA","VA","22309"
167335,"3121 WEST BYRON STREET","CHICAGO","IL","60618"
167336,"3121 WINTERGREEN DRIVE","FLORISSANT","MO","63033"
167337,"31210 227TH ST","EASTON","KS","66020"
167338,"31210 NE 155TH ST","DUVALL","WA","98019"
167339,"31214 N 131ST DR","PEORIA","AZ","85383"
167340,"31214 ROXBURY PARK DRIVE","BAY VILLAGE","OH","44140"
167341,"31216","MYRTLE BEACH","SC","29588"
167342,"31217 STATE HIGHWAY 58 N","TEN MILE","TN","37880"
167343,"3121D FIRE RD STE 160","EGG HBR TWP","NJ","08234"
167344,"3122 23RD AVE S 201","MINNEAPOLIS","MN","55407"
167345,"3122 58TH AVENUE","GREELEY","CO","80634"
167346,"3122 8TH STREET","BOULDER","CA","80304"
167347,"3122 ANGORA BAY DR","MIDDLEBURG","FL","32068"
167348,"3122 BEVEN DR","ESCONDIDO","CA","92027"
167349,"3122 E COLONIAL DR STE A","ORLANDO","FL","32803"
167350,"3122 E MINTON STREET","MESA","AZ","85213"
167351,"3122 FRANKLIN ST","BRANDON","VT","05733"
167352,"3122 GOLANSKY BLVD SUITE 202","WOODBRIDGE","VA","22192"
167353,"3122 HORTON AVE","SAN DIEGO","CA","92103"
167354,"3122 HWY 12 E 2","HELENA","MT","59601"
167355,"3122 LONGSTREET DRIVE","PETERSBURG","VA","23805"
167356,"3122 MAHAN DR STE 801-133","TALLAHASSEE","FL","32308"
167357,"3122 MAHAN DR SUITE 801-265","TALLAHASSEE","FL","32308"
167358,"3122 MAHAN DRIVE SUITE 801-246","TALLAHASSEE","FL","32308"
167359,"3122 MAHAN DRIVE SUITE 801184","TALLAHASSEE","FL","32308"
167360,"3122 N WINSTEL BLVD UNIT A","TUCSON","AZ","85716"
167361,"3122 NORTH BELTLINE BLVD SUITE A","COLUMBIA","SC","29204"
167362,"3122 PENNSYLVANIA ST","INDIANAPOLIS","IN","46205"
167363,"3122 REDWOOD AVENUE","LYNWOOD","CA","90262"
167364,"3122 SOUTH ARTESIA STREET","SANTA ANA","CA","92704"
167365,"3122 SPRINGFIELD STREET","SIMI VALLEY","CA","93063"
167366,"3122 THERESA STREET 1","LONG BEACH","CA","90814"
167367,"3122 WATERS LAKE BEND","MISSOURI CITY","TX","77459"
167368,"3122 WENTWORTH DRIVE","STOCKTON","CA","95207"
167369,"3122 WEST 3100 SOUTH","WEST VALLEY CITY","UT","84119"
167370,"3122 WEST DAILEY STREET","PHOENIX","AZ","85053"
167371,"3122 WHISPERING DRIVE NORTH","LARGO","FL","33771"
167372,"3122-100 FINCHER FARM RD - 286","MATTHEWS","NC","28105"
167373,"31220 STEPHEN AVENUE","WESTLAND","MI","48185"
167374,"31225 BAINBRIDGE RD SUITE I","SOLON","OH","44139"
167375,"31226 HAZY FOREST LANE","SPRING","TX","77386"
167376,"31229 104TH ST","PRINCETON","MN","55371"
167377,"3123 AMIGOS DRIVE","BURBANK","CA","91504"
167378,"3123 CLYDE DRIVE","JACKSONVILLE","FL","32208"
167379,"3123 COLLIER AVE","SAN DIEGO","CA","92116"
167380,"3123 DANDELION DR","RICHMOND","TX","77469"
167381,"3123 EASTLAKE AVE EAST SUITE 203","SEATTLE","WA","98102"
167382,"3123 FIELDSTONE CT","GARNET VALLEY","PA","19342"
167383,"3123 HAYDEN ST","HONOLULU","HI","96815"
167384,"3123 HAYDEN STREET","HONOLULU","HI","96815"
167385,"3123 HUNSUCKER LANE NW","BROOKHAVEN","MS","39601"
167386,"3123 JENNY LIND RD","FORT SMITH","AR","72901"
167387,"3123 KAITLIN COURT","WEST WINDSOR","NJ","08550"
167388,"3123 KLONDIKE ROAD","LITHONIA","GA","30038"
167389,"3123 LAKE SHORE DRIVE","ST. JOSEPH","MI","49085"
167390,"3123 NORTH OKETO AVENUE","CHICAGO","IL","60707"
167391,"3123 NORTH ST NE","MILLERSPORT","OH","43046"
167392,"3123 NORTHFIELD COURT","DAVIS","CA","95616"
167393,"3123 OXFORD FOREST DRIVE","HERNDON","VA","20171"
167394,"3123 PEANUT BRITTLE DR","SAN JOSE","CA","95148"
167395,"3123 RIVA ROAD  NUMBER 261","RIVA","MD","21140"
167396,"3123 RIVA ROAD  UNIT 212","RIVA","MD","21140"
167397,"3123 S KARLOV","CHICAGO","IL","60623"
167398,"3123 STONECLIFF","ALAMOGORDO","NM","88310"
167399,"3123 TEARDROP CT","APPLETON","WI","54914"
167400,"3123 W 8TH ST UNIT 206","LOS ANGELES","CA","90005"
167401,"3123-I CEDAR PARK RD","GREENSBORO","NC","27405"
167402,"312315","ATLANTA","GA","31131"
167403,"31236 E 850 NORTH","ARROWSMITH","IL","61722"
167404,"31237 SIERRA VIEW COURT","MENIFEE","CA","92584"
167405,"3124 60TH AVENUE","OAKLAND","CA","94605"
167406,"3124 BEAVER AVE","CINCINNATI","OH","45213"
167407,"3124 BRINKLEY ROAD APT 302","20748","MD","20748"
167408,"3124 BROTHER BLVD STE 104","BARTLETT","TN","38133"
167409,"3124 CATHERINE DR","LAKE STEVENS","WA","98258"
167410,"3124 CHATHAM ROAD","ENDWELL","NY","13760"
167411,"3124 E WOODROW PL","TULSA","OK","74110"
167412,"3124 EDINBURGH COURT","CONYERS","GA","30094"
167413,"3124 FABLE ST","MERAUX","LA","70075"
167414,"3124 GRIFFON ST W","DANVILLE","CA","94506"
167415,"3124 HOLLYPARK DR APT 4","INGLEWOOD","CA","90305"
167416,"3124 KEEWAYDIN PLACE","MINNEAPOLIS","MN","55417"
167417,"3124 N GRANDVIEW DR","FLAGSTAFF","AZ","86004"
167418,"3124 N OAKDALE LANE","APPLETON","WI","54914"
167419,"3124 POTTS CROSSING","SMYRNA","TN","37167"
167420,"3124 S 123 AVE CIRCLE","OMAHA","NE","68144"
167421,"3124 S PARKER RD UNIT A2-284","DENVER","CO","80014"
167422,"3124 S WALLACE ST","CHICAGO","IL","60616"
167423,"3124 SAINT CHARLES ROAD","BELLWOOD","IL","60104"
167424,"3124 SAN LUIS REY ROAD","OCEANSIDE","CA","92058"
167425,"3124 SECOND STREET","VICKSBURG","MS","39180"
167426,"3124 SMOKEY ROAD","NEWNAN","GA","30263"
167427,"3124 SOUTH CHERRY LANE","FORT WORTH","TX","76116"
167428,"3124 ST JUDE DRIVE","WATERFORD","MI","48329"
167429,"3124 STONEHENGE DRIVE","RICHARDSON","TX","75082"
167430,"3124 TEGES CREEK RD","MANCHESTER","KY","40962"
167431,"3124 VINIFERA DR","SAN JOSE","CA","95135"
167432,"3124 W JACKMAN STREET","LANCASTER","CA","93536"
167433,"3124 WALDEN AVE","OKLAHOMA CITY","OK","73179"
167434,"3124 WILMINGTON ROAD","NEW CASTLE","PA","16105"
167435,"31240 COLUMBIA DR","NOVI","MI","48377"
167436,"31241 LANES TURN ROAD","COBURG","OR","97408"
167437,"31245 MOSS ST","MENTONE","CA","92359"
167438,"3125 ARLINGTON DRIVE","REX","GA","30273"
167439,"3125 ASHLEY LANE","SINKING SPRING","PA","19608"
167440,"3125 BEECH FOREST ST","HUDSONVILLE","MI","49426"
167441,"3125 CHANDLER PKWY","BELLINGHAM","WA","98226"
167442,"3125 COLORADO AVE S","MINNEAPOLIS","MN","55416"
167443,"3125 DAMASCUS WAY","DALLAS","TX","75234"
167444,"3125 DOUGLAS AVE SUITE 201","DES MOINES","IA","50310"
167445,"3125 E SILVER SPRINGS BLVD 144","OCALA","FL","34470"
167446,"3125 ESTATE CIRCLE","YOUNGSTOWN","OH","44511"
167447,"3125 FLINT DRIVE","MEMPHIS","TN","38115"
167448,"3125 GLENEAGLES DR E","CLEARWATER","FL","33761"
167449,"3125 GLORIA TER","LAFAYETTE","CA","94549"
167450,"3125 HICKORY HILL DR","SANFORD","NC","27330"
167451,"3125 IDLEWILD DR","RENO","NV","89509"
167452,"3125 IRVING AVENUE SOUTH","MINNEAPOLIS","MN","55408"
167453,"3125 JORDEN CREST CT","LAWRENCEVILLE","GA","30044"
167454,"3125 KATHLEEN AVENUE SUITE 115","GREENSBORO","NC","27408"
167455,"3125 MINERAL POINT DRIVE","JANESVILLE","WI","53548"
167456,"3125 N BUFFALO DR UNIT 2119","LAS VEGAS","NV","89128"
167457,"3125 OAKLAND AVE","MINNEAPOLIS","MN","55407"
167458,"3125 OLIVE LANE NORTH","PLYMOUTH","MN","55447"
167459,"3125 PARISIAN DR SE","MARIETTA","GA","30067"
167460,"3125 POPLARWOOD COURT SUITE 121","RALEIGH","NC","27604"
167461,"3125 PRESIDENTIAL PARKWAY","ATLANTA","GA","30340"
167462,"3125 REED STREET","WHEAT RIDGE","CO","80033"
167463,"3125 S MENDENHALL ROAD","MEMPHIS","TN","38115"
167464,"3125 SAGINAW ST","WEST SACRAMENTO","CA","95691"
167465,"3125 SE CLINTON ST","PORTLAND","OR","97202"
167466,"3125 SPAULDING STREET SW","BIRMINGHAM","AL","35221"
167467,"3125 SUMMIT RIDGE","ROCHESTER HILLS","MI","48306"
167468,"3125 SW 128TH AVENUE","MIRAMAR","FL","33027"
167469,"3125 VIA ESPERANZA","EDMOND","OK","73013"
167470,"3125 W 170TH ST","TORRANCE","CA","90504"
167471,"3125 W 85TH ST","BLOOMINGTON","MN","55431"
167472,"3125 W CARY STREET 2ND FLOOR","RICHMOND","VA","23221"
167473,"3125 W FULLERTON AVE APT 521","CHICAGO","IL","60647"
167474,"3125 W LOBO RD","TUCSON","AZ","85742"
167475,"3125 WEST MARCUM SSTREET","TAMPA","FL","33611"
167476,"3125 WRIGHT ST","SELMA","CA","93662"
167477,"3125 WRIGHT STREET","SELMA","CA","93662"
167478,"31250 8TH AVE SW","FEDERAL WAY","WA","98023"
167479,"31250 WILDWOOD ST 2306","WIXOM","MI","48393"
167480,"31251 CALLE DEL CAMPO","SAN JUAN CAPISTRANO","CA","92675"
167481,"31254 BERMUDA STREET","WINCHESTER","CA","92596"
167482,"31255 EAST SHORE DRIVE","PENGILLY","MN","55775"
167483,"31255 TRUCKTON RD","YODER","CO","80865"
167484,"31258 CAMINO CAPISTRANO STE 104-803","SAN JUAN CAPISTRANO","CA","92675"
167485,"3126 73RD AVE","OAKLAND","CA","94605"
167486,"3126 ANITA AVENUE","BATON ROUGE","LA","70805"
167487,"3126 BABIN DRIVE","TEXAS CITY","TX","77590"
167488,"3126 CORAL WAY","MIAMI","FL","33145"
167489,"3126 DOGWOOD SPRINGS DR","HOUSTON","TX","77073"
167490,"3126 GERANIUM WAY","CORONA","CA","92881"
167491,"3126 LOWELL AVENUE","LOS ANGELES","CA","90032"
167492,"3126 MAPLE AVE","OAKLAND","CA","94602"
167493,"3126 MORNING CREEK","SAN ANTONIO","TX","78247"
167494,"3126 N 39TH ST UNIT 8","PHOENIX","AZ","85018"
167495,"3126 QUAIL CREST AVENUE","HENDERSON","NV","89052"
167496,"3126 ROSS AVENUE UNIT 2","DALLAS","TX","75204"
167497,"3126 S BLVD NO 243","EDMOND","OK","73013"
167498,"3126 SOUTH BOULEVARD SUITE 305","EDMOND","OK","73013"
167499,"3126 W 187TH STREET","TORRANCE","CA","90504"
167500,"3126 W CARY STREET STE 605","RICHMOND","VA","23221"
