"ID","Address","City","State","Zip"
134001,"24191 FLETCHER CUTOFF RD","PONCHATOULA","LA","70454"
134002,"24192 BLACKWELL ROAD","FRANKLINTON","LA","70438"
134003,"24193 HEDGEWOOD AVENUE","WESTLAKE","OH","44145"
134004,"241ALBANIA DR","LULING","LA","70070"
134005,"242 168TH AVE NE","BELLEVUE","WA","98008"
134006,"242 1A RED CEDAR COURT","CHESAPEAKE","VA","23320"
134007,"242 ARROYO DRIVE","GRAND JUNCTION","CO","81507"
134008,"242 BELMONT ROAD PO BOX 39","BROOKSVILLE","KY","41004"
134009,"242 BENTLEY COURT","AMERICAN CANYON","CA","94503"
134010,"242 BLUE RIDGE TPK","FINCASTLE","VA","24090"
134011,"242 CANTERBURY STREET","WORCESTER","MA","01603"
134012,"242 CHESTNUT HILLS","HENRICO","NC","27842"
134013,"242 CHESTNUT LANE","FRANKLIN","TN","37064"
134014,"242 COLONIAL DRIVE","PALM BEACH","FL","33480"
134015,"242 CORNELL DR","LAKE WORTH","FL","33460"
134016,"242 CRESCENT RIDGE ROAD","AUBURNDALE","FL","33823"
134017,"242 DANIEL LANE","HARRODSBURG","KY","40330"
134018,"242 DAVISVILLE ROAD","EAST FALMOUTH","MA","02536"
134019,"242 E HAMPTON RD","LINDENHURST","NY","11757"
134020,"242 E MAIN PMB 230","HERMISTON","OR","97838"
134021,"242 E MAIN STREET BOX 285","HERMISTON","OR","97838"
134022,"242 E MEADOW AVE","EAST MEADOW","NY","11554"
134023,"242 EAST 25TH ST - 13TH FL SUITE B","NEW YORK","NY","10010"
134024,"242 EAST WALNUT STREET","LONG BEACH","NY","11561"
134025,"242 ECH CIRCLE","FORT WALTON BCH","FL","32548"
134026,"242 ELM STREET","WESTFIELD","PA","16950"
134027,"242 FLYING POINT RD","FREEPORT","ME","04032"
134028,"242 FOX HOLLOW RD","SMITHFIELD","PA","15478"
134029,"242 FRIES MILL ROAD","FRANKLINVILLE","NJ","08322"
134030,"242 GRAND STREET","MARYSVILLE","MT","59640"
134031,"242 HARRY S TRUMAN DRIVE","UPPER MARLBORO","MD","20774"
134032,"242 HICKORY NUT LANE","KNOX","PA","16232"
134033,"242 HIGHLAND CREEK PKWY","BATON ROUGE","LA","70808"
134034,"242 HOTY STREET","BROOKLYN","NY","11217"
134035,"242 HULTON RD","VERONA","PA","15147"
134036,"242 HWY 30 PO BOX Z","KIMBERLY","ID","83341"
134037,"242 IVYSTONE CT","GALLOWAY","NJ","08205"
134038,"242 JAMES LYONS ROAD","TOMPKINSVILLE","KY","42167"
134039,"242 JAN DRIVE","PANAMA CITY","FL","32404"
134040,"242 JOELYNN DR","SHELBY","OH","44875"
134041,"242 JOHNSON ST","HAMPSHIRE","IL","60140"
134042,"242 KINGS HIGHWAY EAST","HADDONFIELD","NJ","08033"
134043,"242 KONNOAK VILLAGE CIRCLE","WINSTON SALEM","NC","27127"
134044,"242 KOSCIUSZKO ST  APT 1","BROOKLYN","NY","11221"
134045,"242 LAKESIDE CIRCLE","MARYSVILLE","OH","43040"
134046,"242 LUCY CT","FREMONT","CA","94539"
134047,"242 MAIN ST NUM 84","ATHOL","MA","01331"
134048,"242 MAIN ST","RUTLAND","MA","01543"
134049,"242 MAPLE ROAD","LONGMEADOW","MA","01106"
134050,"242 MESSER STREET","LACONIA","NH","03246"
134051,"242 MITCHELL FARM ROAD","COLBERT","GA","30628"
134052,"242 N 37TH ST","PENNSAUKEN","NJ","08110"
134053,"242 N 700 W APT 3","PROVO","UT","84601"
134054,"242 N BURLINGTON AVE","LOS ANGELES","CA","90026"
134055,"242 N HAVANA ST UNIT B","AURORA","CO","80010"
134056,"242 N MAIN STREET STE 2","SUFFOLK","VA","23434"
134057,"242 N MICHIGAN AVE POB 126","SHELBY","MI","49455"
134058,"242 NAPOLI DRIVE","BREA","CA","92821"
134059,"242 NORTH OAK STREET","NORTH MASSAPEQUA","NY","11758"
134060,"242 NORTH WAVERLY DR","DALLAS","TX","75208"
134061,"242 NW 56 ST","MIAMI","FL","33127"
134062,"242 OAKWOOD DRIVE","CASSELBERRY","FL","32707"
134063,"242 OLD NEW BRUNSWICK RD / STE 340","PISCATAWAY","NJ","08854"
134064,"242 OLYMPIC WAY APT 2","MELBOURNE","FL","32901"
134065,"242 OTTER LANE","HATFIELD","AR","71945"
134066,"242 PINE HILL LAKE DRIVE","HORTON","MI","49246"
134067,"242 POMONA AVE","NEWARK","NJ","07112"
134068,"242 POPPY AVE","PATTERSON","CA","95363"
134069,"242 RICHARDSON BASS ROAD","KENLY","NC","27542"
134070,"242 RIDGEWOOD COURT","IONIA","MI","48846"
134071,"242 ROUTE 660","MANSFIELD","PA","16933"
134072,"242 S CHURCH ST","MOORESTOWN","NJ","08057"
134073,"242 S GREENFIELD AVE","WAUKESHA","WI","53186"
134074,"242 S PRINCE ST","WHITEWATER","WI","53190"
134075,"242 S WASHINGTON BLVD 241","SARASOTA","FL","34236"
134076,"242 SHERADEN AVE","STATEN ISLAND","NY","10314"
134077,"242 SKYVIEW LANE","HARRISONBURG","VA","22802"
134078,"242 SUMMERS CREEK DR","MERRITT ISLAND","FL","32952"
134079,"242 SUMMIT AVE","HACKENSACK","NJ","07601"
134080,"242 SUNCOOK VALLEY ROAD","ALTON","NH","03809"
134081,"242 TOWER PARK DRIVE","WATERLOO","IA","50701"
134082,"242 VIRGINIA AVENUE","ASHEVILLE","NC","28806"
134083,"242 W 36TH ST FRNT 3","NEW YORK","NY","10017"
134084,"242 W FOURTH ST","OTTAWA","OH","45875"
134085,"242 W FRANKLIN AVE APT 103","MINNEAPOLIS","MN","55404"
134086,"242 W MAIN ST NUM-152","HENDERSONVILLE","TN","37075"
134087,"242 W NORTH ST","CANTON","MS","39046"
134088,"242 WALLACE LANE","PADUCAH","KY","42001"
134089,"242 WALLINGTON WAY","LEWISVILLE","TX","75067"
134090,"242 WANAQUE AVENUE","POMPTON LAKES","NJ","07442"
134091,"242 WEST FRANKLIN AVE 101","MINNEAPOLIS","MN","55404"
134092,"242 WEST MCMICKEN AVENUE","CINCINNATI","OH","45214"
134093,"242 WEST PLUMSTEAD AVE","LANDSDOWNE","PA","19050"
134094,"242 WILBUR AVENUE SE","ATLANTA","GA","30316"
134095,"242 WOODY DRIVE","JACKSON","MS","39212"
134096,"242 WORTHING DRIVE","WEBSTER GROVES","MO","63119"
134097,"242 WREN CREEK CIRCLE","BLYTHEWOOD","SC","29016"
134098,"242-12 130TH  ROAD","ROSEDALE","NY","11422"
134099,"242-19 BRADDOCK AVENUE","BELLEROSE","NY","11426"
134100,"2420 11TH AVE S","MINNEAPOLIS","MN","55404"
134101,"2420 12TH AVE SE","OLYMPIA","WA","98501"
134102,"2420 12TH STREET","TUSCALOOSA","AL","35401"
134103,"2420 14TH ST NW  APT 521","WASHINGTON","DC","20009"
134104,"2420 14TH ST NW APT 103","WASHINGTON","DC","20009"
134105,"2420 16TH AVE SOUTH","ST PETE","FL","33712"
134106,"2420 178TH AVE NE","REDMOND","WA","98052"
134107,"2420 17TH STREET 3RD FLOOR","DENVER","CO","80202"
134108,"2420 18TH ST","BETTENDORF","IA","52722"
134109,"2420 28TH STREET","SLAYTON","MN","56172"
134110,"2420 5TH AVE S","BIRMINGHAM","AL","35233"
134111,"2420 89TH AVENUE","OAKLAND","CA","94605"
134112,"2420 ANGELA ST SE","LACEY","WA","98503"
134113,"2420 BITTERROOT CIR","LAFAYETTE","CO","80026"
134114,"2420 BOWDITCH ST NUMBER 5670","BERKELEY","CA","94720"
134115,"2420 BRANDYWINE LN","MARTINSVILLE","IN","46151"
134116,"2420 CHOTEAU ST","HELENA","MT","59601"
134117,"2420 CHRISTINE ST","SAN BERNARDINO","CA","92407"
134118,"2420 CLOVERFIELD BOULEVARD","SANTA MONICA","CA","90405"
134119,"2420 DAVISTOWN RD","WENDELL","NC","27591"
134120,"2420 DEER CREEK C C BLVD APT202","DEERFIELD BEACH","FL","33442"
134121,"2420 DEEWOOD DR","COLUMBUS","OH","43229"
134122,"2420 DESIRE AVE","ROWLAND HEIGHTS","CA","91748"
134123,"2420 DURHAM ST","TAMPA","FL","33605"
134124,"2420 E 6895 S APT 5","COTTONWOOD HEIGHTS","UT","84121"
134125,"2420 E LINWOOD BLVD  STE 201","KANSAS CITY","MO","64109"
134126,"2420 E LINWOOD BLVD SUITE 109","KANSAS CITY","MO","64109"
134127,"2420 E MCANDREWS RD","MEDFORD","OR","97504"
134128,"2420 EAST MCKINNEY STREET 10329","DENTON","TX","76209"
134129,"2420 EL CAPITAN AVE","ARCADIA","CA","91006"
134130,"2420 EL PAVO WAY","RANCHO CORDOVA","CA","95670"
134131,"2420 EXTON SHORE DRIVE","COLUMBIA","SC","29209"
134132,"2420 FERGUSON RD  SUITE 2","CINCINNATI","OH","45238"
134133,"2420 HACKETT DR STE 82","HOUSTON","TX","77008"
134134,"2420 HARRISON AVENUE","CINCINNATI","OH","45211"
134135,"2420 HIGHWAY 301 NORTH","DILLON","SC","29536"
134136,"2420 INAS DRIVE","COPLEY","OH","44321"
134137,"2420 JERUSALEM RD","PACOLET","SC","29372"
134138,"2420 JIM LEE RD","TALLAHASSEE","FL","32301"
134139,"2420 KNIGHTSBRIDGE ROAD","FLORENCE","SC","29501"
134140,"2420 MAMMOTH WAY","ANTIOCH","CA","94531"
134141,"2420 MAYSVILLE RD","DICKSON","TN","37055"
134142,"2420 MEMORIAL AVENUE","LYNCHBURG","VA","24501"
134143,"2420 METROPOLITAN AVENUE","DALLAS","TX","75215"
134144,"2420 MINARD RD","TOPANGA","CA","90290"
134145,"2420 NE SANDY BLVD STE 111","PORTLAND","OR","97232"
134146,"2420 NE SANDY BOULEVARD","PORTLAND","OR","97232"
134147,"2420 NEDERLAND AVE","NEDERLAND","TX","77627"
134148,"2420 NORTH TRAIL ROAD","MIDLAND","MI","48642"
134149,"2420 NW 111TH ST","OKLAHOMA CITY","OK","73120"
134150,"2420 NW 31ST AVENUE","FORT LAUDERDALE","FL","33311"
134151,"2420 NW 63RD AVENUE","SUNRISE","FL","33313"
134152,"2420 PACIFIC AVENUE","SAN FRANCISCO","CA","94115"
134153,"2420 PEBBLE DR","MISSION","TX","78574"
134154,"2420 PENDOWER LANE","KESWICK","VA","22947"
134155,"2420 PLUM LN","ONTARIO","CA","91761"
134156,"2420 PORT NECHES AVENUE  SUITE A","PORT NECHES","TX","77651"
134157,"2420 ROCK LAKE LOOP","VIRGINIA BEACH","VA","23456"
134158,"2420 RUE DENISE","LA JOLLA","CA","92037"
134159,"2420 SAND CREEK RD C1 272","BRENTWOOD","CA","94513"
134160,"2420 SAND CREEK RD C1-188","BRENTWOOD","CA","94513"
134161,"2420 SAND CREEK RD C349","BRENTWOOD","CA","94513"
134162,"2420 SAND CREEK ROAD SUITE C1237","BRENTWOOD","CA","94513"
134163,"2420 SE BELLVIEW AVE","TOPEKA","KS","66605"
134164,"2420 ST PAUL CT","VIOLET","LA","70092"
134165,"2420 STEVENS AVE S","MINNEAPOLIS","MN","55404"
134166,"2420 STOKEBRIDGE RD","SPRINGFIELD","IL","62702"
134167,"2420 TORRANCE BLVD","TORRANCE","CA","90501"
134168,"2420 UNION STRET","SEATTLE","WA","98122"
134169,"2420 W BUTLER AVENUE","LINCOLN","NE","68524"
134170,"2420 W CARSON ST SUITE 120","TORRANCE","CA","90501"
134171,"2420 W IRVING BLVD UNIT 125","IRVING","TX","75061"
134172,"2420 WILSON BLVD SUITE 200","ARLINGTON","VA","22201"
134173,"2420 WINDY RIDGE CT","PLANO","TX","75025"
134174,"24200 34TH AVE W","BRIER","WA","98036"
134175,"24200 SOUTHWEST FREEWAY STE 402-189","ROSENBERG","TX","77471"
134176,"24200 SOUTHWEST FREEWAY STE 402-266","ROSENBERG","TX","77471"
134177,"24200 SOUTHWEST FWY STE 402","ROSENBERG","TX","77471"
134178,"24200 US HIGHWAY 27","LEESBURG","FL","34748"
134179,"24201 JENNINGS RD","MYAKKA CITY","FL","34251"
134180,"24201 SE 38TH PL","ISSAQUAH","WA","98029"
134181,"24202 WILD HORSE LANE","HOCKLEY","TX","77447"
134182,"24203 88TH AVE E","GRAHAM","WA","98338"
134183,"24204 197TH AVE SE","MAPLE VALLEY","WA","98038"
134184,"24205 SE BLACK NUGGET RD","ISSAQUAH","WA","98029"
134185,"24206 PINE CANYON FALLS","TOMBALL","TX","77375"
134186,"24208 SODERBECK RD","GRANTSBURG","WI","54840"
134187,"2421 57TH ST","SARASOTA","FL","34243"
134188,"2421 BALAJI CT","WILDWOOD","MO","63011"
134189,"2421 BARBER STREET","BATON ROUGE","LA","70808"
134190,"2421 BARRISON POINT RD","ESSEX","MD","21221"
134191,"2421 BEECH COURT","GOLDEN","CO","80401"
134192,"2421 BROADWAY STREET","REDWOOD CITY","CA","94063"
134193,"2421 CENTERGATE DR UNIT 202","HOLLYWOOD","FL","33025"
134194,"2421 COUNTRY CLUB PRADO","CORAL GABLES","FL","33134"
134195,"2421 DORRINGTON DRIVE","DALLAS","TX","75228"
134196,"2421 EAST JOHNSON ST","MADISON","WI","53704"
134197,"2421 ELDER MILL ROAD","WATKINSVILLE","GA","30677"
134198,"2421 FALCON LANE","STATESVILLE","NH","28625"
134199,"2421 FENETRE LN","KISSIMMEE","FL","34741"
134200,"2421 FOREST CREEK DR","FORT WORTH","TX","76123"
134201,"2421 GREENSPOINT LN","PROSPER","TX","75078"
134202,"2421 HICKORY OAK BLVD","ORLANDO","FL","32817"
134203,"2421 JOE GARNER ROAD","GRIFTON","NC","28530"
134204,"2421 MEMBERS WAY","LEXINGTON","KY","40504"
134205,"2421 N BEACHWOOD DR APT 1","LOS ANGELES","CA","90068"
134206,"2421 N HUMBOLDT AVE APT 4","MILWAUKEE","WI","53212"
134207,"2421 N SHERMAN BLVD","MILWAUKEE","WI","53210"
134208,"2421 NORTH FRONT STREET","HARRISBURG","PA","17110"
134209,"2421 NW 10 AVE STE 101","MIAMI","FL","33125"
134210,"2421 OMALLEY ROAD","ANCHORAGE","AK","99507"
134211,"2421 OTIS STONE HUNTER RD","BUNNELL","FL","32110"
134212,"2421 OVERLAND AVE","BURLEY","ID","83318"
134213,"2421 PINE CREST DRIVE","TYLER","TX","75701"
134214,"2421 PINEY ROAD","NEW MARKET","TN","37820"
134215,"2421 SE 12TH AVE","PORTLAND","OR","97214"
134216,"2421 SHANNON RD","ORLANDO","FL","32806"
134217,"2421 SHOREHAM HIGHLANDS","ST JOSEPH","MI","49085"
134218,"2421 TEMPLE CRAG DR","ROSHARON","TX","77583"
134219,"2421 TOWERING OAK COURT","LOCUST GROVE","VA","22508"
134220,"2421 W 4TH STREET","ODESSA","TX","79763"
134221,"2421 W EDINGER AVE STE 1152","SANTA ANA","CA","92704"
134222,"2421 W WASHBURNE","CHICAGO","IL","60608"
134223,"2421 WEST BERTEAU AVENUIE","CHICAGO","IL","60618"
134224,"2421 WEST RUNNING DEER TRL","PHOENIX","AZ","85085"
134225,"2421","BELLAIRE","TX","77402"
134226,"24210 BURR OAKS LN","ATHENS","IL","62613"
134227,"24210 ROLLING TIMBERS ST","MAGNOLIA","TX","77355"
134228,"24212 BADGER SPRINGS TRL","MORENO VALLEY","CA","92557"
134229,"24213 STATE HIGHWAY 77","MEADVILLE","PA","16335"
134230,"24215 SALMON RIVER HWY","WILLAMINA","OR","97396"
134231,"24218 DOESKIN PL","DIAMOND BAR","CA","91765"
134232,"24219 GAZANIA WAY","LAKE ELSINORE","CA","92532"
134233,"24219 WHISPERING TRAILS DR","PLAINFIELD","IL","60585"
134234,"2422 0LD ELM ST NE","CANTON","OH","44721"
134235,"2422 ADAMS STREET","HOLLYWOOD","FL","33020"
134236,"2422 BUSCH AVE 10","COLORADO SPRINGS","CO","80904"
134237,"2422 DEAN STREET","BROOKLYN","NY","11233"
134238,"2422 DUNWOODY XING APT H","DUNWOODY","GA","30338"
134239,"2422 E CARLOS TRUAN BLVD","KINGSVILLE","TX","78363"
134240,"2422 E MARYLAND DR","TEMPE","AZ","85281"
134241,"2422 FIRST STREET","CADDO MILLS","TX","75135"
134242,"2422 GRAHAM AVE  UNIT 106","REDONDO BEACH","CA","90278"
134243,"2422 HOMEWOOD TRAIL","ARLINGTON","TX","76015"
134244,"2422 LAKE STREET","OMAHA","NE","68111"
134245,"2422 M AVENUE","NATIONAL CITY","CA","91950"
134246,"2422 MADELINE MEADOW DR","CHARLOTTE","NC","28217"
134247,"2422 MARBOURNE AVE APT 3B","BALTIMORE","MD","21230"
134248,"2422 MEREDITH DR","COLUMBUS","OH","43219"
134249,"2422 N FONTANA AVE","TUCSON","AZ","85705"
134250,"2422 N MYRTLE AVE","JACKSONVILLE","FM","32209"
134251,"2422 N OHIO STREET","ARLINGTON","VA","22207"
134252,"2422 NEW BERNE RD","HENRICO","VA","23228"
134253,"2422 NEWCASTLE BEND","IRVING","TX","75063"
134254,"2422 NW 23RD AVE","CAMAS","WA","98607"
134255,"2422 PALM RIDGE ROAD","SANIBEL","FL","33957"
134256,"2422 PATTERSON BOULEVARD","DAYTON","OH","45409"
134257,"2422 POCO DR","MISSOURI CITY","TX","77489"
134258,"2422 POSTBRIDGE RD","GRAND PRAIRIE","TX","75050"
134259,"2422 S HAYDEN ST","AMARILLO","TX","79109"
134260,"2422 TEXAS BLVD","TEXARKANA","TX","75503"
134261,"2422 WAGNER STREET SE APT B","WASHINGTON","DC","20020"
134262,"2422","GASTONIA","NC","28054"
134263,"24222 131ST AVE SE","SNOHOMISH","WA","98296"
134264,"24224 SARGEANT ROAD","RAMONA","CA","92065"
134265,"24224 W 7 MILE 75","DETROIT","MI","48219"
134266,"24225 350TH ST","OGEMA","MN","56569"
134267,"24225 RIDGEDALE","OAK PARK","MI","48237"
134268,"24225 SUMMERHILL AVENUE","LOS ALTOS","CA","94024"
134269,"24225 W NINE MILE RD","SOUTHFIELD","MI","48033"
134270,"24226W BEACH GROVE RD","ANTIOCH","IL","60002"
134271,"24227 EDGEMONT DR","SOUTHFIELD","MI","48033"
134272,"24228 BROWN LANE","CHICAGO","IL","60586"
134273,"24228 MASCH AVE","WARREN","MI","48091"
134274,"24229 NE 96TH PL","REDMOND","WA","98053"
134275,"2423  77TH AVENUE","PHILADELPHIA","PA","19150"
134276,"2423  S ORANGE AVE","ORLANDO","FL","32806"
134277,"2423 ALLENTOWN RD","LIMA","OH","45805"
134278,"2423 AMBER STREET","KNOXVILLE","TN","37917"
134279,"2423 AMERICAN LANE","MADISON","WI","53704"
134280,"2423 AURORA COURT","KISSIMMEE","FL","34744"
134281,"2423 BIRCHWOOD LANE","WILMETTE","IL","60091"
134282,"2423 EAST 75TH STREET","CHICAGO","IL","60649"
134283,"2423 EAST BAKEVIEW ROAD","BELLINGHAM","WA","98226"
134284,"2423 ELMWOOD DRIVE","LEBANON","IN","46052"
134285,"2423 FINESSE DRIVE","DECATUR","GA","30032"
134286,"2423 FRASERBURGH DR","MATTHEWS","NC","28105"
134287,"2423 GOLF RD","PHILADELPHIA","PA","19131"
134288,"2423 HAYES ST NE","MINNEAPOLIS","MN","55418"
134289,"2423 HUB WILLIS ROAD","MOUNTAIN VIEW","AR","72560"
134290,"2423 LONGSHADOW DR","GRAHAM","NC","27253"
134291,"2423 MEADOWVALE AVE","LOS ANGELES","CA","90031"
134292,"2423 MILL RACE RD","FREDERICK","MD","21701"
134293,"2423 MLK JR DRIVE SW 4101","ATLANTA","GA","30311"
134294,"2423 N CLASSEN BLVD","OKLAHOMA CITY","OK","73106"
134295,"2423 OLD OXFORD ROAD","DURHAM","NC","27704"
134296,"2423 PAYNE AVENUE","CLEVELAND","OH","44114"
134297,"2423 RAVEN HOLLOW RD","STATE COLLEGE","PA","16801"
134298,"2423 RUSSELL STREET","BERKELEY","CA","94705"
134299,"2423 S MAIN ST","BLOOMER","WI","54724"
134300,"2423 S ORANGE AVE STE 178","ORLANDO","FL","32806"
134301,"2423 S SUMMIT CIR","SALT LAKE CITY","UT","84109"
134302,"2423 S WESTERN","STILLWATER","OK","74074"
134303,"2423 SAINT ANN STREET","OWENSBORO","KY","42301"
134304,"2423 SAYBROOK ROAD","UNIVERSITY HEIGHTS","OH","44118"
134305,"2423 SOUTH ORANGE AVE SUITE 335","ORLANDO","FL","32806"
134306,"2423 SOUTH SUMMIT CIRCLE","SALT LAKE CITY","UT","84109"
134307,"2423 SW 147 AVE STE 118","MIAMI","FL","33176"
134308,"2423 SW 147TH AVE UNIT 671","MIAMI","FL","33185"
134309,"2423 TAYLOR RD","NEW SMYRNA BEACH","FL","32168"
134310,"2423 TELFAIR LANE","HARLEM","GA","30814"
134311,"2423 VILLAGE LAKES","KATY","TX","77493"
134312,"2423 W GRENSHAW ST","CHICAGO","IL","60612"
134313,"2423 WEST KENOSHA STREET","BROKEN ARROW","OK","74012"
134314,"2423 WILLOW TREE LN","KISSIMMEE","FL","34758"
134315,"2423 WILMA STREET","DALLAS","TX","75241"
134316,"2423","ATLANTA","GA","30311"
134317,"24230 KUYENDAKL RD","TOMBALL","TX","77375"
134318,"24230 KUYKENDAHL ROAD SUITE 310 205","TOMBALL","TX","77375"
134319,"24231 23RD AVE W","BOTHELL","WA","98021"
134320,"24231 5TH ST","TREMPEALEAU","WI","54661"
134321,"24231 COURTLAND OAKS ST","KATY","TX","77494"
134322,"24231 GLENWOOD BLVD","HOCKLEY","TX","77447"
134323,"242313","MONTGOMERY","AL","36124"
134324,"24233 WILLIS CREEK ST","CALDWELL","ID","83607"
134325,"24235 HARPER AVE","SAINT CLAIR SHORES","MI","48080"
134326,"24235 HARPER","STERLING HEIGHTS","MI","48080"
134327,"24235 JAGGER ST","LAKE FOREST","CA","92630"
134328,"24235 PALO VERDE DRIVE","VALENCIA","CA","91354"
134329,"24238 FORDSON HIGHWAY","DEARBORN HEIGHTS","MI","48127"
134330,"2424 15TH AVENUE","SOUTH MILWAUKEE","WI","53172"
134331,"2424 601ST TRAIL","ALBIA","IA","52531"
134332,"2424 9TH AVE 2-303","LONGMONT","CO","80503"
134333,"2424 AMERICAN LANE","MADISON","WI","53704"
134334,"2424 AVENUE R","BROOKLYN","NY","11229"
134335,"2424 CARRIAGE LAMP LANE","CONROE","TX","77384"
134336,"2424 CARRIAGE LAMP LN","CONROE","TX","77384"
134337,"2424 CLEAR CREEK COURT","CEDAR HILL","TX","75104"
134338,"2424 COUNTY ROAD 1104","CLEBURNE","TX","76031"
134339,"2424 CYCAD TREE ST","LAS VEGAS","NV","89108"
134340,"2424 DATURA LOOP","ST CLOUD","FL","34772"
134341,"2424 E SOUTHERN AVE","MESA","AZ","85204"
134342,"2424 E VALLEY OAKS DR","VISALIA","CA","93292"
134343,"2424 E YORK ST STE 319","PHILADELPHIA,","PA","19125"
134344,"2424 ELM VALLEY DR","LITTLE ELM","TX","75068"
134345,"2424 EUDORA WAY","DULUTH","GA","30097"
134346,"2424 FALLEN TREE DR EAST","JACKSONVILLE","FL","32246"
134347,"2424 GREEN FORREST DR","DECATUR","GA","30032"
134348,"2424 GUNTHER AVENUE","BRONX","NY","10469"
134349,"2424 HURLEY WAY NUMBER 70","SACRAMENTO","CA","95825"
134350,"2424 JANIS WAY","CALISTOGA","CA","94515"
134351,"2424 JENKS AVENUE SUITE B","PANAMA CITY","FL","32405"
134352,"2424 KENSINGTON DRIVE","ANCHORAGE","AK","99504"
134353,"2424 MAPLE AVE","NORTHBROOK","IL","60062"
134354,"2424 MARTY COURT","SANTA ROSA","CA","95407"
134355,"2424 MULBERRY CT","ANN ARBOR","MI","48104"
134356,"2424 N 6TH ST","MINNEAPOLIS","MN","55411"
134357,"2424 N CONGRESS AVE STE G","WEST PALM BEACH","FL","33409"
134358,"2424 N DAVIDSON ST SUITE 110","CHARLOTTE","NC","28205"
134359,"2424 N FREEWAY","PUEBLO","CO","81003"
134360,"2424 OAK HILL VILLAGE LN","CHARLOTTE","NC","28217"
134361,"2424 OLD BUCK CREEK ROAD","ADOLPHUS","KY","42120"
134362,"2424 QUINCY LOOP","FAIRBURN","GA","30213"
134363,"2424 REYNOLDA ROAD","WINSTON-SALEM","NC","27106"
134364,"2424 SAWYER HEIGHTS APT 382","HOUSTON","TX","77007"
134365,"2424 SAXON WAY","RIVERBANK","CA","95367"
134366,"2424 SERENITY DRIVE","WATERTOWN","SD","57201"
134367,"2424 SHROTON CT","POWELL","OH","43065"
134368,"2424 SOUTH ROMAN STREET","NEW ORLEANS","LA","70125"
134369,"2424 SPRINGBROOK STREET","THOUSAND OAKS","CA","91362"
134370,"2424 SPRINGER DRIVE STE 100","NORMAN","OK","73069"
134371,"2424 STEINBECK LANE","POWDER SPRINGS","GA","30127"
134372,"2424 SW 135TH ST","OKLAHOMA CITY","OK","73170"
134373,"2424 SW 162ND AVE","MIRAMAR","FL","33027"
134374,"2424 W ESTES APT 3C","CHICAGO","IL","60645"
134375,"2424 W IVANHOE ST","CHANDLER","AZ","85224"
134376,"2424 WEST TAMPA BAY BLVD","TAMPA","FL","33607"
134377,"2424 WILSHIRE BLVD NO 806","LOS ANGELES","CA","90057"
134378,"2424 ZION ROAD","HENDERSON","KY","42420"
134379,"24240 CONDON","OAK PARK","MI","48237"
134380,"24240 FARM ROAD 2085","AURORA","MO","65605"
134381,"24240 SOUTH TOM BEALL RD","LAPWAI","ID","83540"
134382,"24241 CHIEFTAIN ROAD","LAWRENCE","KS","66044"
134383,"24242 ALPENGLOW DR","EAGLE RIVER","AK","99577"
134384,"24242 RAYNAGUA BLVD","LOXLEY","AL","36551"
134385,"24242 RUE DE GAUGUIN","LAGUNA NIGUEL","CA","92677"
134386,"24243 RADWELL DRIVE","MORENO VALLEY","CA","92553"
134387,"24243 SAN MARZANO COURT","KATY","TX","77493"
134388,"24246 SUN VALLEY RD","MORENO VALLEY","CA","92553"
134389,"24247 BRENTWOOD DR","BROWNSTOWN","MI","48183"
134390,"24248 CRENSHAW BLVD STE 112","TORRANCE","CA","90505"
134391,"2425 10TH ST","BAKER CITY","OR","97814"
134392,"2425 14TH STREET","EAU CLAIRE","WI","54703"
134393,"2425 2ND AVE N APT 128","LAKE WORTH BEACH","FL","33461"
134394,"2425 33RD STREET SE","WASHINGTON","DC","20020"
134395,"2425 9TH ST","WASCO","CA","93280"
134396,"2425 ATLANTIC AVE STE B","ATLANTIC CITY","NJ","08401"
134397,"2425 BELGRADE SWANSBORO ROAD","MAYSVILLE","NC","28555"
134398,"2425 BLUERIDGE AVE APT 204","SILVER SPRING","MD","20902"
134399,"2425 BLUERIDGE AVE APT 380","SILVER SPRING","MD","20902"
134400,"2425 BRIARHILL","HIGHLAND VILLAGE","TX","75077"
134401,"2425 CALLAHAM WAY","MODESTO","CA","95355"
134402,"2425 CAMINO DEL RIO SOUTH UNIT 100","SAN DIEGO","CA","92108"
134403,"2425 CHANNING WAY UNIT B208","BERKELEY","CA","94704"
134404,"2425 COCOA AVENUE","PANAMA CITY","FL","32405"
134405,"2425 COWAN CT","VIRGINIA BEACH","VA","23456"
134406,"2425 CRANSTON DRIVE 34","ESCONDIDO","CA","92025"
134407,"2425 CRYSTAL CLEAR DR","HANOVER","PA","17331"
134408,"2425 CUTLER AVENUE NE","ALBUQUERQUE","NM","87106"
134409,"2425 DEERWOOD DR","LITTLE ELM","TX","75068"
134410,"2425 DOOLEY DRIVE BLDG D APT 101","DECATUR","GA","30033"
134411,"2425 DUNLAP AVE","GILROY","CA","95020"
134412,"2425 E FRANKLIN AVE APT 206","MINNEAPOLIS","MN","55406"
134413,"2425 E MAIN ST","LEAGUE CITY","TX","77573"
134414,"2425 E MAIN STREET","LEAGUE CITY","TX","77573"
134415,"2425 E MONTE VISTA AVE","DENAIR","CA","95316"
134416,"2425 EAST 12TH STREET","LOS ANGELES","CA","90021"
134417,"2425 EAST MAIN STREET","LEAGUE CITY","TX","77573"
134418,"2425 FLOWERS CORAL DRIVE","ORLANDO","FL","32808"
134419,"2425 GLOVER PLACE","LOS ANGELES","CA","90031"
134420,"2425 GOLF COURSE ROAD","GRAND RAPIDS","MN","55744"
134421,"2425 GRAND AVENUE","BALDWIN","NY","11510"
134422,"2425 GREENSIDE COURT","AUSTELL","GA","30106"
134423,"2425 HIGHLAND COURT","ROYAL OAK","MI","48703"
134424,"2425 IRONDALE BLUE LINE CLUB","NEW BRIGHTON","MN","55112"
134425,"2425 L STREET NW PH936","WASHINGTON","DC","20037"
134426,"2425 LARKWOOD ROAD","TITUSVILLE","FL","32780"
134427,"2425 LONG LAKE RD","NEW BRIGHTON","MN","55112"
134428,"2425 LONG LAKE ROAD","NEW BRIGHTON","MN","55112"
134429,"2425 LOOKOUT MTN RD","SPEARFISH","SD","57783"
134430,"2425 LOOKOUT MTN RD","SPEARFRISH","SD","57783"
134431,"2425 LUMBLEY ROAD","RAINBOW CITY","AL","35906"
134432,"2425 MAIN ST","SARASOTA","FL","34237"
134433,"2425 MARINA BLVD","SAN LEANDRO","CA","94577"
134434,"2425 MARTIN LUTHER KING JR AVE","KNOXVILLE","TN","37915"
134435,"2425 MESQUITE LANE","CORONA","CA","92228"
134436,"2425 MISSION RD APT 602","TALLAHASSEE","FL","32304"
134437,"2425 N 49TH ST","WACO","TX","76710"
134438,"2425 N 7TH AVE PL E","NEWTON","IA","50208"
134439,"2425 N CENTER STREET 304","HICKORY","NC","28601"
134440,"2425 N EDGEWOOD TER","FORT WORTH","TX","76103"
134441,"2425 N HIGHLAND DR","OKLAHOMA CITY","OK","73111"
134442,"2425 N ROCKWELL","NEWCASTLE","OK","73065"
134443,"2425 N STREET NW","WASHINGTON","DC","20037"
134444,"2425 N WISHON","FRESNO","CA","93704"
134445,"2425 NORTH TAYLOR ROAD","CLEVELAND HEIGHTS","OH","44118"
134446,"2425 OLYMPIC BLVD SUITE 4000W","SANTA MONICA","CA","90404"
134447,"2425 ORGAN CHURCH RD","ROCKWELL","NC","28138"
134448,"2425 PALM RD","WEST PALM BEACH","FL","33406"
134449,"2425 PARK ROAD - SUITE B-3","CHARLOTTE","NC","28203"
134450,"2425 PEACH ST","ERIE","PA","16502"
134451,"2425 PEARLITE WAY","ANTIOCH","CA","94531"
134452,"2425 PRIMROSE ROAD NE","SAUK RAPIDS","MN","56379"
134453,"2425 S 11TH ST STE A","KALAMAZOO","MI","49009"
134454,"2425 S ATLANTIC AVENUE UNIT 702","DAYTONA BEACH SHORES","FL","32118"
134455,"2425 S WHITNEY AVE","INDEPENDENCE","MO","64057"
134456,"2425 SAGE RD APT 33","HOUSTON","TX","77056"
134457,"2425 SHOREHAVE DRIVE","VIRGINIA BEACH","VA","23454"
134458,"2425 SHOREHAVEN DRIVE","VIRGINIA BEACH","VA","23454"
134459,"2425 SOUTH 11TH STREET SUITE A","KALAMAZOO","MI","49009"
134460,"2425 SOUTH LINDEN ROAD SUITE D 110","FLINT","MI","48532"
134461,"2425 SW 105 TERRACE","DAVIE","FL","33324"
134462,"2425 TAMIAMI TRAIL N STE 211","NAPLES","FL","34103"
134463,"2425 TAYLOR ST APT 11239","DALLAS","TX","75201"
134464,"2425 TEODORO RD NW","ALBUQUERQUE","NM","87107"
134465,"2425 THOREAU STREET","INGLEWOOD","CA","90303"
134466,"2425 VALLEY HAVEN DRIVE","RALEIGH","NC","27603"
134467,"2425 W 3RD AVE","DURANGO","CO","81301"
134468,"2425 W CONGRESS PARKWAY BSMT","CHICAGO","IL","60624"
134469,"2425 W FOND DU LAC AVE","MILWAUKEE","WI","53206"
134470,"2425 W FOSTER AVE","CHICAGO","IL","60625"
134471,"2425 W INA RD","TUCSON","AZ","85741"
134472,"2425 WEBB AVENUE SUITE 200","ALAMEDA","CA","94501"
134473,"2425 WEST 162ND TERRACE","STILWELL","KS","66085"
134474,"2425 WEST CONGRESS","CHICAGO","IL","60612"
134475,"2425 WEST LOOP SOUTH STE 200","HOUSTON","TX","77027"
134476,"2425 WROXTON ROAD","HOUSTON","TX","77005"
134477,"24251 INDEPENDENCE","MORRISON","OK","73061"
134478,"24253 DOESKIN PLACE","DIAMOND BAR","CA","91765"
134479,"24255 ELECTRIC AVE","RED BLUFF","CA","96080"
134480,"24256 CRUISE CIRCLE DRIVE","CANYON LAKE","CA","92587"
134481,"2426 15TH AVE SOUTH","MINNEAPOLIS","MN","55404"
134482,"2426 2ND STREET","LIVERMORE","CA","94550"
134483,"2426 ARBOR VIEW DR","CARY","NC","27519"
134484,"2426 BRADISH ALLEY","NEW ORLEANS","LA","70119"
134485,"2426 BROADWAY BLVD","FLINT","MI","48506"
134486,"2426 BURON ST SE","GRAND RAPIDS","MI","49546"
134487,"2426 CHESTNUT LANE","MORRIS","IL","60450"
134488,"2426 CLINCH HAVEN RD","BIG STONE GAP","VA","24219"
134489,"2426 DIXIE WOODS DR","PEARLAND","TX","77581"
134490,"2426 E BALSAM DR","CHANDLER","AZ","85286"
134491,"2426 ESPLANADE AVE","NEW ORLEANS","LA","70119"
134492,"2426 EXPOSITION STREET","LOS ANGELES","CA","90018"
134493,"2426 FULTON ST UNIT 2","BERKELEY","CA","94704"
134494,"2426 HIGHLAND AVENUE","WOODWARD","OK","73801"
134495,"2426 LEWIS SEAD RD","BAXLEY","GA","31513"
134496,"2426 MAGNOLIA CIRCLE","NORTH PORT","FL","34289"
134497,"2426 MOFFATT AVE","DALLAS","TX","75216"
134498,"2426 MYRTLE AVE","HERMOSA BEACH","CA","90254"
134499,"2426 N 25TH ST","PHILADELPHIA","PA","19132"
134500,"2426 NE 88TH AVENUE","PORTLAND","OR","97220"
