"ID","Address","City","State","Zip"
358501,"PO BOX 8027","PELHAM","NY","10803"
358502,"PO BOX 8027","WILSON","NC","27893"
358503,"PO BOX 802812","DALLAS","TX","75380"
358504,"PO BOX 802933","DALLAS","TX","75380"
358505,"PO BOX 80296","CANTON","OH","44708"
358506,"PO BOX 80298","STARKVILLE","MS","39760"
358507,"PO BOX 803","ABINGDON","VA","24212"
358508,"PO BOX 803","CADDO MILLS","TX","75135"
358509,"PO BOX 803","CENTERVILLE","TX","75833"
358510,"PO BOX 803","DEWEY","AZ","86327"
358511,"PO BOX 803","DINWIDDIE","VA","23841"
358512,"PO BOX 803","EAU CLAIRE","WI","54702"
358513,"PO BOX 803","FORT BRAGG","CA","95437"
358514,"PO BOX 803","HATTIESBURG","MS","39403"
358515,"PO BOX 803","LOS ALAMITOS","CA","90720"
358516,"PO BOX 803","MIDDLETOWN","MD","21769"
358517,"PO BOX 803","NORTH LIBERTY","IA","52317"
358518,"PO BOX 803","PELLA","IA","50219"
358519,"PO BOX 803","PLEASANT GARDEN","NC","27313"
358520,"PO BOX 803","PORTAGE","IN","46368"
358521,"PO BOX 803","POTEAU","OK","74953"
358522,"PO BOX 803","SANDSTON","VA","23150"
358523,"PO BOX 803","SHOW LOW","AZ","85902"
358524,"PO BOX 803","WAUCONDA","IL","60084"
358525,"PO BOX 803","WEST POINT","VA","23181"
358526,"PO BOX 8031","RICHMOND","VA","23223"
358527,"PO BOX 8032","GLENDALE","AZ","85312"
358528,"PO BOX 803223","SANTA CLARITA","CA","91380"
358529,"PO BOX 80327","LINCOLN","NE","68501"
358530,"PO BOX 803466","CHICAGO","IL","60680"
358531,"PO BOX 80352","SIMPSONVILLE","SC","29680"
358532,"PO BOX 80367","RANCHO SANTA MARGARI","CA","92688"
358533,"PO BOX 8039","ELBURN","IL","60119"
358534,"PO BOX 804","BONAIRE","GA","31005"
358535,"PO BOX 804","GREAT RIVER","NY","11739"
358536,"PO BOX 804","ITHACA","NY","14851"
358537,"PO BOX 804","KILLINGWORTH","CT","06419"
358538,"PO BOX 804","LEESBURG","VA","20178"
358539,"PO BOX 804","MOREHEAD CITY","NC","28557"
358540,"PO BOX 804","NORTON","MA","02766"
358541,"PO BOX 804","OCONOMOWOC","WI","53066"
358542,"PO BOX 804","POMEROY","WA","99347"
358543,"PO BOX 804","SCIO","OR","97374"
358544,"PO BOX 804","SEVERN","MD","21144"
358545,"PO BOX 804","SIERRA VISTA","AZ","85636"
358546,"PO BOX 804","WILTON","IA","52778"
358547,"PO BOX 804","WYOMING","MN","55092"
358548,"PO BOX 80407","PHOENIX","AZ","85060"
358549,"PO BOX 8041","GREENSBORO","NC","27419"
358550,"PO BOX 80413","STONEHAM","MA","02180"
358551,"PO BOX 80443","MILWAUKEE","WI","53208"
358552,"PO BOX 8045","ESSEX JUNCTION","VT","05451"
358553,"PO BOX 8045","WICHITA FALLS","TX","76307"
358554,"PO BOX 80451","PORTLAND","OR","97280"
358555,"PO BOX 80456","RANCHO SANTA MARGARI","CA","92688"
358556,"PO BOX 804566","CHICAGO","IL","60680"
358557,"PO BOX 8046","SEARCY","AR","72145"
358558,"PO BOX 80462","SEATTLE","WA","98108"
358559,"PO BOX 80472","CONYERS","GA","30013"
358560,"PO BOX 804864","CHICAGO","IL","60680"
358561,"PO BOX 804972","CHICAGO","IL","60680"
358562,"PO BOX 805","CRESTONE","FL","81131"
358563,"PO BOX 805","CROSBY","TX","77532"
358564,"PO BOX 805","GALLIPOLIS","OH","45631"
358565,"PO BOX 805","HAMMONTON","NJ","08037"
358566,"PO BOX 805","HOUSTON","TX","77015"
358567,"PO BOX 805","HOWELL","MI","48844"
358568,"PO BOX 805","KEENE VALLEY","NY","12943"
358569,"PO BOX 805","MOUNTAIN HOME","ID","83647"
358570,"PO BOX 805","NASHVILLE","IN","47448"
358571,"PO BOX 805","NEWPORT","NC","28570"
358572,"PO BOX 805","OXFORD","OH","45056"
358573,"PO BOX 805","ROSEPINE","LA","70659"
358574,"PO BOX 805","SELDOVIA","AK","99663"
358575,"PO BOX 805","SOLOMONS","MD","20688"
358576,"PO BOX 8052","LYNCHBURG","TN","37352"
358577,"PO BOX 8052","PITTSBURGH","PA","15216"
358578,"PO BOX 8052","ROMEOVILLE","IL","60446"
358579,"PO BOX 80522","LAS VEGAS","NV","89180"
358580,"PO BOX 8053","SAN JOSE","CA","95155"
358581,"PO BOX 8054","BROOKINGS","SD","57006"
358582,"PO BOX 80564","MEMPHIS","TN","38108"
358583,"PO BOX 806","BEULAVILLE","NC","28518"
358584,"PO BOX 806","GLEN ROSE","TX","76043"
358585,"PO BOX 806","KALAHEO","HI","96741"
358586,"PO BOX 806","KETTLE FALLS","WA","99141"
358587,"PO BOX 806","ROSEVILLE","CA","95678"
358588,"PO BOX 806","VERNAL","UT","84078"
358589,"PO BOX 80605","ATHENS","GA","30608"
358590,"PO BOX 8062","PADUCAH","KY","42002"
358591,"PO BOX 8063","ELKRIDGE","MD","21075"
358592,"PO BOX 8064","MONROE","LA","71211"
358593,"PO BOX 8065","PORTLAND","ME","04104"
358594,"PO BOX 8066","BRIDGEWATER","NJ","08807"
358595,"PO BOX 80662","SEATTLE","WA","98108"
358596,"PO BOX 80666","LAS VEGAS","NV","89180"
358597,"PO BOX 80666","MILWAUKEE","WI","53208"
358598,"PO BOX 8068","BROOKINGS","SD","57006"
358599,"PO BOX 8068","LIBERTY","TX","77575"
358600,"PO BOX 80681","SIMPSONVILLE","SC","29681"
358601,"PO BOX 8069","ST. LOUIS","MO","63156"
358602,"PO BOX 807","AMELIA","LA","70340"
358603,"PO BOX 807","LECANTO","FL","34460"
358604,"PO BOX 807","MALTA","MT","59538"
358605,"PO BOX 807","NEWARK","OH","43056"
358606,"PO BOX 807","ONALASKA","TX","77360"
358607,"PO BOX 807","PLYMOUTH","MA","02362"
358608,"PO BOX 8070","FLEMING ISLAND","FL","32006"
358609,"PO BOX 80717","CHARLESTON","SC","29416"
358610,"PO BOX 8072","GREENVILLE","NC","27835"
358611,"PO BOX 80722","AUSTIN","TX","78708"
358612,"PO BOX 80728","LINCOLN","NE","68501"
358613,"PO BOX 8073","LANCASTER","PA","17604"
358614,"PO BOX 80734","ATLANTA","GA","30366"
358615,"PO BOX 80741","BILLINGS","MT","59108"
358616,"PO BOX 80746","SIMPSONVILLE","SC","29680"
358617,"PO BOX 8076","COLUMBIA","MO","65205"
358618,"PO BOX 80762","FAIRBANKS","AK","99708"
358619,"PO BOX 80764","LINCOLN","NE","68501"
358620,"PO BOX 808","BLUE RIDGE","VA","24064"
358621,"PO BOX 808","DAVIS","OK","73030"
358622,"PO BOX 808","HILLSBOROUGH","NC","27278"
358623,"PO BOX 808","HUNTINGTON BEACH","CA","92648"
358624,"PO BOX 808","MONROE","NY","10949"
358625,"PO BOX 808","TRINIDAD","CO","81082"
358626,"PO BOX 808","WARRENTON","OR","97146"
358627,"PO BOX 80801","BILLINGS","MT","59108"
358628,"PO BOX 80802","ATHENS","GA","30608"
358629,"PO BOX 8083","EVANSVILLE","IN","47716"
358630,"PO BOX 8083","SAINT LOUIS","MO","63113"
358631,"PO BOX 8084","SOUTHPORT","FL","32409"
358632,"PO BOX 8085","CHICAGO","IL","60680"
358633,"PO BOX 8085","NEW YORK","NY","10116"
358634,"PO BOX 80853","PORTLAND","OR","97280"
358635,"PO BOX 8086","NEW YORK","NY","10116"
358636,"PO BOX 80863","SIMPSONVILLE","SC","29680"
358637,"PO BOX 809","HAVERSRAW","NY","10927"
358638,"PO BOX 809","JAYUYA","PR","00664"
358639,"PO BOX 809","LARCHMONT","NY","10538"
358640,"PO BOX 809","PROCTORVILLE","OH","45669"
358641,"PO BOX 809","SODA SPRINGS","CA","95728"
358642,"PO BOX 809","TROUTDALE","OR","97060"
358643,"PO BOX 80903","CHARLESTON","SC","29407"
358644,"PO BOX 8093","BONNEY LAKE","WA","98391"
358645,"PO BOX 8093","SEBRING","FL","33872"
358646,"PO BOX 8093","SPRING","TX","77387"
358647,"PO BOX 8095","NEWPORT BEACH","CA","92658"
358648,"PO BOX 8096","MOSCOW","ID","83843"
358649,"PO BOX 80968","RANCHO SANTA MARGARI","CA","92688"
358650,"PO BOX 80971","CONYERS","GA","30013"
358651,"PO BOX 80975","ALBUQUERQUE","NM","87198"
358652,"PO BOX 81    105 E PEARL ST","OAKESDALE","WA","99158"
358653,"PO BOX 81","ATWATER","CA","95301"
358654,"PO BOX 81","AUXVASSE","MO","65231"
358655,"PO BOX 81","AVON PARK","FL","33825"
358656,"PO BOX 81","BERLIN","PA","15530"
358657,"PO BOX 81","BOOTHBAY","ME","04537"
358658,"PO BOX 81","COLUMBIA","MO","65205"
358659,"PO BOX 81","CONCORD","AR","72523"
358660,"PO BOX 81","CORNELIUS","OR","97113"
358661,"PO BOX 81","DUENWEG","MO","64841"
358662,"PO BOX 81","EXCELSIOR","MN","55331"
358663,"PO BOX 81","GAFFNEY","SC","29342"
358664,"PO BOX 81","GALENA","KS","66739"
358665,"PO BOX 81","HIGBEE","MO","65257"
358666,"PO BOX 81","HURRICANE","UT","84737"
358667,"PO BOX 81","LATTY","OH","45855"
358668,"PO BOX 81","LONG BEACH","CA","90807"
358669,"PO BOX 81","MELLENVILLE","NY","12544"
358670,"PO BOX 81","NEW BETHELEHEM","PA","16242"
358671,"PO BOX 81","NEWTON","IA","50208"
358672,"PO BOX 81","OWATONNA","MN","55060"
358673,"PO BOX 81","PENGILLY","MN","55775"
358674,"PO BOX 81","POWELL BUTTE","OR","97753"
358675,"PO BOX 81","RIO GRANDE","OH","45674"
358676,"PO BOX 81","SENECA FALLS","NY","13148"
358677,"PO BOX 81","SEVILLE","OH","44273"
358678,"PO BOX 81","SISTER BAY","WI","54234"
358679,"PO BOX 81","STUART","FL","34995"
358680,"PO BOX 81","SUBLIMITY","OR","98375"
358681,"PO BOX 81","TRENTON","GA","30752"
358682,"PO BOX 81","TROUT LAKE","WA","98650"
358683,"PO BOX 81","VERONA","KY","41092"
358684,"PO BOX 81","WALHALLA","MI","49458"
358685,"PO BOX 810","CHANNAHON","IL","60410"
358686,"PO BOX 810","MOUNTAIN VIEW","MO","65548"
358687,"PO BOX 810","WATERLOO","IA","50704"
358688,"PO BOX 8100","EVANSTON","IL","60204"
358689,"PO BOX 81001","BILLINGS","MT","59108"
358690,"PO BOX 8101","SAN LUIS OBISPO","CA","93403"
358691,"PO BOX 8102","HOLLAND","MI","49422"
358692,"PO BOX 8103","DES MOINES","IA","50301"
358693,"PO BOX 8103","FORT LAUDERDALE","FL","33310"
358694,"PO BOX 8104","MOSCOW","ID","83843"
358695,"PO BOX 81047","WELLESLEY","MA","02481"
358696,"PO BOX 81061","BILLINGS","MT","59108"
358697,"PO BOX 810663","BOCA RATON","FL","33481"
358698,"PO BOX 810742","DALLAS","TX","75381"
358699,"PO BOX 810854","DALLAS","TX","75381"
358700,"PO BOX 811","ALBANY","KY","42602"
358701,"PO BOX 811","EVERSON","WA","98247"
358702,"PO BOX 811","JAMESTOWN","NM","87347"
358703,"PO BOX 811","KAPAAU","HI","96755"
358704,"PO BOX 811","LAKE STEVENS","WA","98258"
358705,"PO BOX 811","LOCUST GROVE","VA","22508"
358706,"PO BOX 811","MARBLEMOUNT","WA","98267"
358707,"PO BOX 811","MOORESTOWN","NJ","08057"
358708,"PO BOX 811","OLIVE BRANCH","MS","38654"
358709,"PO BOX 811","TURLOCK","CA","95381"
358710,"PO BOX 81106","ATHENS","GA","30608"
358711,"PO BOX 8111","GREEN BAY","WI","54308"
358712,"PO BOX 8111034","LOS ANGELES","CA","90081"
358713,"PO BOX 81112","BAKERSFIELD","CA","93380"
358714,"PO BOX 8112","GREENWICH","CT","06836"
358715,"PO BOX 81143","MIDLAND","TX","79708"
358716,"PO BOX 8115","GLEN RIDGE","NJ","07028"
358717,"PO BOX 811653","LANSING","MI","48917"
358718,"PO BOX 8117","FOSTER CITY","CA","94404"
358719,"PO BOX 8117","TACOMA","WA","98419"
358720,"PO BOX 812","BROWNSVILLE","CA","95919"
358721,"PO BOX 812","BRYSON CITY","NC","28713"
358722,"PO BOX 812","CENTERVILLE","UT","84014"
358723,"PO BOX 812","CLAYTON","DE","19938"
358724,"PO BOX 812","CLOVER","SC","29710"
358725,"PO BOX 812","COWETA","OK","74429"
358726,"PO BOX 812","EAGLE","CO","81631"
358727,"PO BOX 812","EAST OLYMPIA","WA","98540"
358728,"PO BOX 812","HARLEM","MT","59526"
358729,"PO BOX 812","HOUSTON","TX","77001"
358730,"PO BOX 812","HUNTINGTON BEACH","CA","92648"
358731,"PO BOX 812","LAKESIDE","MT","59922"
358732,"PO BOX 812","LIBBY","MT","59923"
358733,"PO BOX 812","LUCEDALE","MS","39452"
358734,"PO BOX 812","MARTINSBURG","WV","25402"
358735,"PO BOX 812","MORRISVILLE","NC","27569"
358736,"PO BOX 812","NORTHVILLE","NY","12134"
358737,"PO BOX 812","RANCHO SANTA FE","CA","92067"
358738,"PO BOX 812","SPEARFISH","SD","57783"
358739,"PO BOX 812","TEKOA","WA","99033"
358740,"PO BOX 812","YREKA","CA","96097"
358741,"PO BOX 8122","HUALAPAI","AZ","86412"
358742,"PO BOX 8122","NEW FAIRFIELD","CT","06812"
358743,"PO BOX 8124","ROCKY MOUNT","NC","27804"
358744,"PO BOX 8124","SPRING CREEK","NV","89815"
358745,"PO BOX 8124","WOODLAND","CA","95776"
358746,"PO BOX 81241","CONYERS","GA","30094"
358747,"PO BOX 8127","FORT GORDON","GA","30905"
358748,"PO BOX 8129","WOODLAND","CA","95776"
358749,"PO BOX 813","PORTVILLE","NY","14770"
358750,"PO BOX 813","RICHMOND","VT","05477"
358751,"PO BOX 813","ROSCOE","IL","61073"
358752,"PO BOX 813","ROSEVILLE","CA","95661"
358753,"PO BOX 813","SALADO","TX","76571"
358754,"PO BOX 813","SEASIDE","CA","93955"
358755,"PO BOX 813","TROY","NY","12181"
358756,"PO BOX 813","WAIMEA","HI","96796"
358757,"PO BOX 813","WALLED LAKE","MI","48390"
358758,"PO BOX 813","WASHINGTON","PA","15301"
358759,"PO BOX 813188","HOLLYWOOD","FL","33081"
358760,"PO BOX 81327","BAKERSFIELD","CA","93380"
358761,"PO BOX 81332","BILLINGS","MT","59108"
358762,"PO BOX 813518","SMYRNA","GA","30080"
358763,"PO BOX 813596","SMYRNA","GA","30081"
358764,"PO BOX 813806","SMYRNA","GA","30081"
358765,"PO BOX 8139","WEST CHESTER","OH","45069"
358766,"PO BOX 814","AKRON","OH","44309"
358767,"PO BOX 814","ARNOLD","CA","95223"
358768,"PO BOX 814","ASTORIA","OR","97103"
358769,"PO BOX 814","BRACEY","VA","23919"
358770,"PO BOX 814","BREWER","ME","04412"
358771,"PO BOX 814","BRONX","NY","10455"
358772,"PO BOX 814","BYRON","MN","55920"
358773,"PO BOX 814","DICKINSON","ND","58602"
358774,"PO BOX 814","EAST MEADOW","NY","11554"
358775,"PO BOX 814","EPSOM","NH","03234"
358776,"PO BOX 814","FAYETTEVILLE","GA","30214"
358777,"PO BOX 814","FONDA","NY","12068"
358778,"PO BOX 814","GANADO","TX","77962"
358779,"PO BOX 814","HINCKLEY","IL","60520"
358780,"PO BOX 814","LYNDEN","WA","98264"
358781,"PO BOX 814","MOUNT VERNON","WA","98273"
358782,"PO BOX 814","OURAY","CO","81427"
358783,"PO BOX 814","SHADY SPRING","WV","25918"
358784,"PO BOX 814","WILLISTON","VT","05495"
358785,"PO BOX 81406","BILLINGS","MT","59108"
358786,"PO BOX 8141","ATLANTA","GA","31106"
358787,"PO BOX 81431","AUSTIN","TX","78708"
358788,"PO BOX 8144","NEW FAIRFIELD","CT","06812"
358789,"PO BOX 814407","HOLLYWOOD","FL","33081"
358790,"PO BOX 8147","FORT SMITH","AR","72902"
358791,"PO BOX 8147","PITTSBURGH","PA","15217"
358792,"PO BOX 8149","FLEMING ISLAND","FL","32006"
358793,"PO BOX 814973","HOLLYWOOD","FL","33081"
358794,"PO BOX 815","AMITHS STATION","AL","36877"
358795,"PO BOX 815","BRIDGEPORT","WV","26330"
358796,"PO BOX 815","CADDO MILLS","TX","75135"
358797,"PO BOX 815","FT MONTGOMERY","NY","10922"
358798,"PO BOX 815","HEWITT","NJ","07421"
358799,"PO BOX 815","INTERVALE","NH","03845"
358800,"PO BOX 815","JACKSON","CA","95642"
358801,"PO BOX 815","LAHAINA","HI","96767"
358802,"PO BOX 815","MERIDIAN","ID","83680"
358803,"PO BOX 815","PELLA","IA","50219"
358804,"PO BOX 815","SONITA","AZ","85637"
358805,"PO BOX 815","WHITE PLAINS","NY","10602"
358806,"PO BOX 815","WOOTON","KY","41776"
358807,"PO BOX 81511","LINCOLN","NE","68501"
358808,"PO BOX 8152","FREDERICKSBURG","VA","22404"
358809,"PO BOX 8152","SURPRISE","AZ","85374"
358810,"PO BOX 8153 7 FAIRFIELD DRIVE","NEW FAIRFIELD","CT","06812"
358811,"PO BOX 8155","ROCHESTER","MN","55903"
358812,"PO BOX 81568","FAIRBANKS","AK","99708"
358813,"PO BOX 8157","REDLANDS","CA","92375"
358814,"PO BOX 81584","CLEVELAND","OH","44181"
358815,"PO BOX 81592","ROCHESTER","MI","48308"
358816,"PO BOX 816 101 MAIN ST","PHILMONT","NY","12565"
358817,"PO BOX 816","BARNEGAT","NJ","08005"
358818,"PO BOX 816","CARBONDALE","CO","81623"
358819,"PO BOX 816","CHOCTAW","OK","73020"
358820,"PO BOX 816","FOLWER","CA","93625"
358821,"PO BOX 816","FREMONT","NC","27830"
358822,"PO BOX 816","LOBECO","SC","29931"
358823,"PO BOX 816","OLANTA","SC","29114"
358824,"PO BOX 816","WAINSCOTT","NY","11975"
358825,"PO BOX 8160","ST LOUIS","MO","63156"
358826,"PO BOX 816024","DALLAS","TX","75381"
358827,"PO BOX 816248","HOLLYWOOD","FL","33081"
358828,"PO BOX 816296","DALLAS","TX","75381"
358829,"PO BOX 81653","HAIKU","HI","96708"
358830,"PO BOX 81663","AUSTIN","TX","78708"
358831,"PO BOX 81687","PITTSBURGH","PA","15217"
358832,"PO BOX 817","BASIN","WY","82410"
358833,"PO BOX 817","BAY CITY","TX","77404"
358834,"PO BOX 817","BRYSON CITY","NC","28713"
358835,"PO BOX 817","HILDEBRAN","NC","28637"
358836,"PO BOX 817","HOPKINSVILLE","KY","42241"
358837,"PO BOX 817","KENNEBUNK","ME","04043"
358838,"PO BOX 817","PICKERINGTON","OH","43147"
358839,"PO BOX 817","SEAFORD","DE","19973"
358840,"PO BOX 8170","ANN ARBOR","MI","48107"
358841,"PO BOX 81703","LINCOLN","NE","68501"
358842,"PO BOX 8172","LYNN","MA","01904"
358843,"PO BOX 8173","CHICAGO","IL","60680"
358844,"PO BOX 8173","DES MOINES","IA","50301"
358845,"PO BOX 8175","PHOENIX","AZ","85066"
358846,"PO BOX 8176","NEW YORK","NY","10116"
358847,"PO BOX 8177","TACOMA","WA","98419"
358848,"PO BOX 8178","TACOMA","WA","98419"
358849,"PO BOX 81793","LAS VEGAS","NV","89180"
358850,"PO BOX 818","APALACHICOLA","FL","32320"
358851,"PO BOX 818","BARSTOW","CA","92312"
358852,"PO BOX 818","KEARNY","AZ","85137"
358853,"PO BOX 818","LAKE CITY","CO","81235"
358854,"PO BOX 818","SONOMA","CA","95476"
358855,"PO BOX 8182","COLUMBUS","GA","31907"
358856,"PO BOX 81825","ALBUQUERQUE","NM","87198"
358857,"PO BOX 81864","LAS VEGAS","NV","89180"
358858,"PO BOX 819","BELLE","MO","65013"
358859,"PO BOX 819","GENEVA","AL","36340"
358860,"PO BOX 819","KAMUELA","HI","96743"
358861,"PO BOX 819","LEADVILLE","CO","80461"
358862,"PO BOX 819","LOWER LAKE","CA","95457"
358863,"PO BOX 819","ZEPHYRHILLS","FL","33539"
358864,"PO BOX 8190","MANCHESTER","CT","06040"
358865,"PO BOX 8191","COLUMBIA","SC","29202"
358866,"PO BOX 81913","CONYERS","GA","30013"
358867,"PO BOX 8192","ANN ARBOR","MI","48107"
358868,"PO BOX 8192","CARLISLE","OH","45005"
358869,"PO BOX 8197","CANTON","OH","44711"
358870,"PO BOX 81991","AUSTIN","TX","78708"
358871,"PO BOX 82        29 STATE ROAD E","TUNAS","MO","65764"
358872,"PO BOX 82","AVON","OH","44011"
358873,"PO BOX 82","BARDSTOWN","KY","40004"
358874,"PO BOX 82","BELFAST","TN","37019"
358875,"PO BOX 82","BENSALEM","PA","19020"
358876,"PO BOX 82","BROOKLYN","NY","11211"
358877,"PO BOX 82","CELINA","TX","75009"
358878,"PO BOX 82","CHARLOTTEVILLE","NY","12036"
358879,"PO BOX 82","CLAREMONT","NH","03743"
358880,"PO BOX 82","CUMMINGTON","MA","01026"
358881,"PO BOX 82","DARLINGTON","WI","53530"
358882,"PO BOX 82","DEER RIVER","MN","56636"
358883,"PO BOX 82","DUPONT","OH","45837"
358884,"PO BOX 82","DUVALL","WA","98019"
358885,"PO BOX 82","EAST BURKE","VT","05832"
358886,"PO BOX 82","ESCALANTE","UT","84726"
358887,"PO BOX 82","GRAND RAPIDS","MN","55744"
358888,"PO BOX 82","HUSTON","ID","83630"
358889,"PO BOX 82","LUCASVILLE","OH","45648"
358890,"PO BOX 82","MAZOMANIE","WI","53560"
358891,"PO BOX 82","MERLIN","OR","97532"
358892,"PO BOX 82","MOULTON","TX","77975"
358893,"PO BOX 82","NICOMA PARK","OK","73066"
358894,"PO BOX 82","NORTH LAWRENCE","OH","44666"
358895,"PO BOX 82","ONALASKA","WA","98570"
358896,"PO BOX 82","OSGOOD","IN","47037"
358897,"PO BOX 82","PARADISE","MI","49768"
358898,"PO BOX 82","PICKERINGTON","OH","43147"
358899,"PO BOX 82","PORTER","OK","74454"
358900,"PO BOX 82","RANCHO SANTA FE","CA","92067"
358901,"PO BOX 82","RED BUD","IL","62278"
358902,"PO BOX 82","RICHMOND","MN","56368"
358903,"PO BOX 82","SHELTON","WA","98584"
358904,"PO BOX 82","ST ANSGAR","IA","50472"
358905,"PO BOX 82","STRONGSTOWN","PA","15957"
358906,"PO BOX 82","TRAFFORD","PA","15085"
358907,"PO BOX 82","TROY","MT","59935"
358908,"PO BOX 82","VERNONIA","OR","97064"
358909,"PO BOX 82","WESTFIELD","NC","27053"
358910,"PO BOX 82","WESTFORD","VT","05494"
358911,"PO BOX 82","WINCHESTER","AR","71677"
358912,"PO BOX 82","WINK","TX","79789"
358913,"PO BOX 82","YREKA","CA","96097"
358914,"PO BOX 820","BRISTOL","IN","46507"
358915,"PO BOX 820","CENTREVILLE","VA","20122"
358916,"PO BOX 820","CROTON FALLS","NY","10519"
358917,"PO BOX 820","EASTVILLE","VA","23347"
358918,"PO BOX 820","HIRAM","GA","30141"
358919,"PO BOX 820","MCDONOUGH","GA","30253"
358920,"PO BOX 820","ROSEPINE","LA","70659"
358921,"PO BOX 820030","VANCOUVER","WA","98682"
358922,"PO BOX 820035","SOUTH FLORIDA","FL","33082"
358923,"PO BOX 820036","PORTLAND","OR","97282"
358924,"PO BOX 820040","NEW ORLEANS","LA","70182"
358925,"PO BOX 8201","GRAND RAPIDS","MI","49518"
358926,"PO BOX 820122","PORTLAND","OR","97282"
358927,"PO BOX 820134","VANCOUVER","WA","98682"
358928,"PO BOX 82028","LINCOLN","NE","68501"
358929,"PO BOX 820317","VANCOUVER","WA","98682"
358930,"PO BOX 82034","PORTLAND","OR","97282"
358931,"PO BOX 820441","PEMBROKE PINES","FL","33082"
358932,"PO BOX 820447","VANCOUVER","WA","98682"
358933,"PO BOX 820483","N RICHLAND HILLS","TX","76182"
358934,"PO BOX 8205","REDLANDS","CA","92375"
358935,"PO BOX 82054","MOBILE","AL","36689"
358936,"PO BOX 820652","HOUSTON","TX","77282"
358937,"PO BOX 820714","VICKSBURG","MS","39182"
358938,"PO BOX 820766","HOUSTON","TX","77282"
358939,"PO BOX 8209","ST THOMAS","VI","00801"
358940,"PO BOX 82093","AUSTIN","TX","78708"
358941,"PO BOX 821","CAMDENTON","MO","65020"
358942,"PO BOX 821","INDEPENDENCE","LA","70443"
358943,"PO BOX 821","LAN","PA","19047"
358944,"PO BOX 821","LONG BEACH","NY","11561"
358945,"PO BOX 821","NEW CASTLE","IN","47362"
358946,"PO BOX 821","PHOENIX","AZ","85001"
358947,"PO BOX 821","RED LODGE","MT","59068"
358948,"PO BOX 821","SEAHURST","WA","98062"
358949,"PO BOX 821","TUOLUMNE","CA","95379"
358950,"PO BOX 821","ZEBULON","GA","30295"
358951,"PO BOX 821004","KENMORE","WA","98028"
358952,"PO BOX 821009","VANCOUVER","WA","98682"
358953,"PO BOX 821121","VICKSBURG","MS","39180"
358954,"PO BOX 82115","COVINGTON","GA","30013"
358955,"PO BOX 8212","CHANDLER","AZ","85246"
358956,"PO BOX 8212","SOUTH BEND","IN","46660"
358957,"PO BOX 821277","NORTH RICHLAND HILLS","TX","76180"
358958,"PO BOX 8213","TRENTON","NJ","08650"
358959,"PO BOX 821412","VICKSBURG","MS","39181"
358960,"PO BOX 821429","VANCOUVER","WA","98682"
358961,"PO BOX 821495","VANCOUVER","WA","98682"
358962,"PO BOX 821504","DALLAS","TX","75382"
358963,"PO BOX 821564","DALLAS","TX","75382"
358964,"PO BOX 82162","ATHENS","GA","30608"
358965,"PO BOX 8218","MORGANTON","NC","28680"
358966,"PO BOX 8218","TACOMA","WA","98419"
358967,"PO BOX 82184","KENMORE","WA","98028"
358968,"PO BOX 82185","KENMORE","WA","98028"
358969,"PO BOX 82191","AUSTIN","TX","78708"
358970,"PO BOX 821972","VANCOUVER","WA","98682"
358971,"PO BOX 822","BLUFFTON","SC","29910"
358972,"PO BOX 822","DENISON","TX","75020"
358973,"PO BOX 822","FAYETTE","MS","39069"
358974,"PO BOX 822","GRAVETTE","AR","72736"
358975,"PO BOX 822","JASPER","AL","35502"
358976,"PO BOX 822","LONG BEACH","CA","90802"
358977,"PO BOX 822","MONONA","IA","52159"
358978,"PO BOX 822","OKLAWAHA","FL","32183"
358979,"PO BOX 822","POULSBO","WA","98370"
358980,"PO BOX 822","RINCON","GA","31326"
358981,"PO BOX 822","UPPER LAKE","CA","95485"
358982,"PO BOX 822","WAUKOMIS","OK","73773"
358983,"PO BOX 8220","NEW FAIRFIELD","CT","06812"
358984,"PO BOX 822023","PEMBROKE PINES","FL","33082"
358985,"PO BOX 822054","PEMBROKE PINES","FL","33082"
358986,"PO BOX 82206","AUSTIN","TX","78708"
358987,"PO BOX 8222","WESTCHESTER","IL","60154"
358988,"PO BOX 82229","BATON ROUGE","LA","70884"
358989,"PO BOX 822413","NORTH RICHLAND HILLS","TX","76182"
358990,"PO BOX 822594","NORTH RICHLAND HILLS","TX","76182"
358991,"PO BOX 8226","MOBILE","AL","36689"
358992,"PO BOX 822607","PEMBROKE PNES","FL","33082"
358993,"PO BOX 82264","LAFAYETTE","LA","70598"
358994,"PO BOX 8228","LONG ISLAND CITY","NY","11101"
358995,"PO BOX 8228","ROCKY MOUNT","NC","27804"
358996,"PO BOX 8228","SPOKANE","WA","99203"
358997,"PO BOX 822934","NORTH RICHLAND HILLS","TX","76182"
358998,"PO BOX 823","ABINGDON","VA","24212"
358999,"PO BOX 823","ATMORE","AL","36504"
359000,"PO BOX 823","AUGUSTA","GA","30903"
