"ID","Address","City","State","Zip"
113501,"21003 SE 155TH PL","RENTON","WA","98059"
113502,"21005 97TH PLACE SOUTH","KENT","WA","98031"
113503,"21006 100TH STREET","ANAMOSA","IA","52205"
113504,"21006 GROVEDALE DRIVE","HOUSTON","TX","77073"
113505,"21006 REDVINE TERRACE CT","RICHMOND","TX","77407"
113506,"21006 SONOMA MISSION COURT","KATY","TX","77449"
113507,"21007 ROSTORMEL COURT","ASHBURN","VA","20147"
113508,"21008 52ND AVE E","SPANAWAY","WA","98387"
113509,"21008 HAVANT WAY","PFLUGERVILLE","TX","78660"
113510,"21008 LAYTON RIDGE DRIVE","LAYTONSVILLE","MD","20882"
113511,"21008 TORRENCE CHAPEL ROAD","CORNELIUS","NC","28031"
113512,"21009 39TH DR SE","BOTHELL","WA","98021"
113513,"21009 EDDIE ROAD","HENSLEY","AR","72065"
113514,"21009 JEFFERSON PARKWAY","PLEASANT HILL","MO","64080"
113515,"21009 S JEFFERSON PARKWAY","PLEASANT HILL","MO","64080"
113516,"21009 SUNSET AVENUE","NUEVO","CA","92567"
113517,"210095 WILDCAT DRIVE","GERING","NE","69341"
113518,"2101 16TH STREET NW APT 816","WASHINGTON","DC","20009"
113519,"2101 1ST AVENUE WEST APT 30","MAYLENE","AL","35114"
113520,"2101 220TH PLACE NE","SAMMAMISH","WA","98074"
113521,"2101 26TH AVE","GREELEY","CO","80634"
113522,"2101 29TH AVE","ASTORIA","NY","11102"
113523,"2101 54TH TER SW","NAPLES","FL","34116"
113524,"2101 57TH AVE","SACRAMENTO","CA","95822"
113525,"2101 77TH ST","LUBBOCK","TX","79423"
113526,"2101 8 2ND AVE NORTH","BROOKLYN PARK","MN","55444"
113527,"2101 ALDAH DR","TUCKER","GA","30084"
113528,"2101 ANITA DR","LAS CRUCES","NM","88001"
113529,"2101 ARETHA STREET","ATHENS","AL","35611"
113530,"2101 ARROWHEAD TRAIL","SANTA CLARA","UT","84765"
113531,"2101 BAY AVENUE","OCEAN PARK","WA","98640"
113532,"2101 BEDFORD AVE APT 6C","BROOKLYN","NY","11226"
113533,"2101 BELLE TERRACE","BAKERSFIELD","CA","93304"
113534,"2101 BIGELOW ST","AKRON","OH","44314"
113535,"2101 BIGELOW STREET","AKRON","OH","44314"
113536,"2101 BLACKFOOT TRL","MESQUITE","TX","75149"
113537,"2101 BRIDGER RD LOT  22","JONESBORO","AR","72405"
113538,"2101 BURLINGTON ST","COLUMBIA","MO","65202"
113539,"2101 BURNS VIEW LANE","LAWRENCEVILLE","GA","30044"
113540,"2101 CALIFORNIA STREET/2","SAN FRANCISCO","CA","94115"
113541,"2101 CAMDEN AVE","PARKERSBURG","WV","26101"
113542,"2101 CAROL DR","LEWISTON","ID","83501"
113543,"2101 CEDAR AVE","HANOVER PARK","IL","60133"
113544,"2101 CEDAR SPRINGS RD SUITE 1050","DALLAS","TX","75201"
113545,"2101 CEDAR SPRINGS ROAD STE 1050","DALLAS","TX","75201"
113546,"2101 CEDAR SPRINGS ROAD SUTE 1050","DALLAS","TX","75201"
113547,"2101 CENTERVILLE ROAD","WILMINGTON","DE","19808"
113548,"2101 CHARINGWOOD DRIVE EAST","MOBILE","AL","36695"
113549,"2101 CHERRY LN","DECATUR","GA","30032"
113550,"2101 CHERYL COURT","MELBOURNE","FL","32935"
113551,"2101 COLISEUM BLVD E SUITE 230","FORT WAYNE","IN","46805"
113552,"2101 COLLINS LANE","SODDY DAISY","TN","37379"
113553,"2101 COLORADO BLVD","DENTON","TX","76206"
113554,"2101 CRAWFORD ST STE 303","HOUSTON","TX","77002"
113555,"2101 CRISTINA ANNE COURT","HOWELL","MI","48855"
113556,"2101 DANIELS DR","JOSHUA","TX","76058"
113557,"2101 DAS WAY","ORLANDO","FL","32818"
113558,"2101 DEER PARK ROAD","DECATUR","TX","76234"
113559,"2101 DEL BAY STREET","LAKEWOOD","CA","90712"
113560,"2101 DISSTON ST","PHILADELPHIA","PA","19149"
113561,"2101 DUDLEY AVE","PARKERSBURG","WV","26101"
113562,"2101 DUDLEY AVENUE","PARKERSBURG","WV","26101"
113563,"2101 E 87TH AVE","MERRILLVILLE","IN","46410"
113564,"2101 E BROADWAY RD STE 1","TEMPE","AZ","85282"
113565,"2101 E COAST HWY","CORONA DEL MAR","CA","92625"
113566,"2101 E FIR","COTTONWOOD","AZ","86326"
113567,"2101 E STATE ROAD 28","MUNCIE","IN","47303"
113568,"2101 EAST 65TH STREET","SAVANNAH","GA","31404"
113569,"2101 EAST COLISEUM BLVD ROOM LA 209","FORT WAYNE","IN","46805"
113570,"2101 EASTBLUFF DRIVE","NEWPORT BEACH","CA","92660"
113571,"2101 ELDERBERRY DRIVE","SAN RAMON","CA","94582"
113572,"2101 ELM AVE","GROTTOES","VA","24441"
113573,"2101 GRANDIN ROAD SUITE A","CINCINNATI","OH","45208"
113574,"2101 GRAVES MILL RD","FOREST","VA","24551"
113575,"2101 HARPER STREET","EL CERRITO","CA","94530"
113576,"2101 HEMPHILL ST","FORT WORTH","TX","76110"
113577,"2101 HIGHBANK DRIVE","ARLINGTON","TX","76018"
113578,"2101 HILL ROAD APT 3","SELLERSVILLE","PA","18960"
113579,"2101 JUDSON RD","LONGVIEW","TX","75605"
113580,"2101 L ST NW STE 800","WASHINGTON","DC","20037"
113581,"2101 L STREET NW SUITE 800","WASHINGTON","DC","20037"
113582,"2101 LAKE AVE","BALTIMORE","MD","21218"
113583,"2101 LAKEVIEW ROAD","MEXICO","MO","65265"
113584,"2101 LANCASTER AVE","WILMINGTON","DE","19805"
113585,"2101 LAUREL PARK PLACE","CHAMPAIGN","IL","61822"
113586,"2101 LEWIS STREET","FLINT","MI","48506"
113587,"2101 LEWISVILLE CLEMMONS ROAD","CLEMMONS","NC","27012"
113588,"2101 LYNBRIDGE DRIVE","REYNOLDSBURG","OH","43068"
113589,"2101 MANCHESTER AVE H","CARDIFF","CA","92007"
113590,"2101 MANHATTAN BLVD APT M301","HARVEY","LA","70058"
113591,"2101 MANITOBA DRIVE","COLORADO SPRINGS","CO","80910"
113592,"2101 MARESCA CIR","NORTHEAST","MD","21901"
113593,"2101 MAYFRED LN","CAMP HILL","PA","17011"
113594,"2101 MAYWILL STREET","RICHMOND","VA","23230"
113595,"2101 MEADOW CT APT 701","DES MOINES","IA","50320"
113596,"2101 MILLMAR DR","DALLAS","TX","75228"
113597,"2101 MIMOSA DRIVE","GREENSBORO","NC","27403"
113598,"2101 N 176TH AVE","OMAAH","NE","68116"
113599,"2101 N CARR DR","NEWCASTLE","OK","73065"
113600,"2101 N SPRINGDALE ROAD","WAUKESHA","WI","53186"
113601,"2101 N STATE RD 7 STE B","HOLLYWOOD","FL","33021"
113602,"2101 N WARE RD","MCALLEN","TX","78501"
113603,"2101 NASA PARKWAY B207A","HOUSTON","TX","77058"
113604,"2101 NORTH CRYSTAL LAKE DRIVE","LAKELAND","FL","33801"
113605,"2101 NORTH DECATUR ROAD SUITE 784","DECATUR","GA","30033"
113606,"2101 NORTH PACE BOULEVARD","PENSACOLA","FL","32505"
113607,"2101 NUUANU AVE APT 904","HONOLULU","HI","96817"
113608,"2101 NW 127TH STREET","MIAMI","FL","33167"
113609,"2101 NW 192ND TERRACE","MIAMI GARDENS","FL","33056"
113610,"2101 NW 19TH ST","OKLAHOMA CITY","OK","73107"
113611,"2101 NW 2 STREET","POMPANO","FL","33069"
113612,"2101 NW CORPORATE BLVD SUITE 400","BOCA RATON","FL","33431"
113613,"2101 NW LARCHLEAF LANE","REDMOND","OR","97756"
113614,"2101 ONEIL AVE","CHEYENNE","WY","82001"
113615,"2101 PARKS AVENUE SUITE 803","VIRGINIA BEACH","VA","23451"
113616,"2101 PETERSON LN","SANTA ROSA","CA","95403"
113617,"2101 PINEHURST ESTATES","LAKEHURST","NJ","08733"
113618,"2101 PONCE DE LEON BLVD","CORAL GABLES","FL","33134"
113619,"2101 PUMP ROAD","HENRICO","VA","23238"
113620,"2101 RHODE ISLAND AVENUE  NE","WASHINGTON","DC","20018"
113621,"2101 RHODE ISLAND AVENUE NE","WASHINGTON","DC","20018"
113622,"2101 RIO GRANDE STREET APT 17009","AUSTIN","TX","78705"
113623,"2101 ROSS AVENUE","DALLAS","TX","75201"
113624,"2101 ROY STREET","FORT WAYNE","IN","46803"
113625,"2101 RUSSEL AVE N","MINNEAPOLIS","MN","55411"
113626,"2101 S L DAVIS AVE","AUSTIN","TX","78702"
113627,"2101 S LAKELINE BLVD APT 125","CEDAR PARK","TX","78613"
113628,"2101 S LIBERTY STREET","NEW ORLEANS","LA","70113"
113629,"2101 S MICHIGAN AVE SUITE 1902","CHICAGO","IL","60616"
113630,"2101 S MICHIGAN AVE UNIT 1010","CHICAGO","IL","60616"
113631,"2101 S OCEAN DR UNIT 505","HOLLYWOOD","FL","33019"
113632,"2101 S US HIGHWAY 1","JUPITER","FL","33477"
113633,"2101 S WEST AVE","SIOUX FALLS","SD","57105"
113634,"2101 SE LARCH AVE","PORTLAND","OR","97214"
113635,"2101 SE MAIN STREET","PORTLAND","OR","97214"
113636,"2101 SE TIBBETTS","PORTLAND","OR","97202"
113637,"2101 SIDNEY STREET","GREENVILLE","NC","27834"
113638,"2101 SILVERBERRY DRIVE 208","CHESAPEAKE","VA","23321"
113639,"2101 SOUTH JONES BLVD","LAS VEGAS","NV","89146"
113640,"2101 SOUTH MICHIGAN AVE APT 1101","CHICAGO","IL","60616"
113641,"2101 SOUTH OCEAN DRIVE APT 2805","HOLLYWOOD","FL","33019"
113642,"2101 SOUTH TAFT","FORT COLLINS","CO","80526"
113643,"2101 SPRING DR","GARNER","NC","27529"
113644,"2101 SPRING DRIVE","GARNER","NC","27529"
113645,"2101 SPRING HOLLOW DR","AUSTIN","TX","78681"
113646,"2101 SW 21ST ST","TOPEKA","KS","66604"
113647,"2101 SW SUNSET BLVD E205","RENTON","WA","98057"
113648,"2101 THOMES AVE","CHEYENNE","WY","82001"
113649,"2101 TOWER HILL RD","KINSTON","NC","28501"
113650,"2101 VESTAL PKWY WEST","VESTAL","NY","13850"
113651,"2101 VIA NAPOLI STREET","PLANT CITY","FL","33566"
113652,"2101 VISTA PARKWAY","WEST PALM BEACH","FL","33411"
113653,"2101 W 41ST ST STE 34A","SIOUX FALLS","SD","57105"
113654,"2101 W 41ST ST SUITE 2000","SIOUX FALLS","SD","57105"
113655,"2101 W 41ST ST SUITE 45","SIOUX FALLS","SD","57105"
113656,"2101 W BROADWAY SUITE 102 PMB 352","COLUMBIA","MO","65203"
113657,"2101 W CHESTNUT EXPRESSWAY","SPRINGFIELD","MO","65802"
113658,"2101 W GREELEY ST","BROKEN ARROW","OK","74012"
113659,"2101 W LAS LANAS LN","FULLERTON","CA","92833"
113660,"2101 WEBSTER STREET SUITE 1200","OAKLAND","CA","94612"
113661,"2101 WEST GARDEN DRIVE","TEMPE","AZ","85828"
113662,"2101 WEST SECOND STREET","DULUTH","MN","55806"
113663,"2101 WESTBURY CT SUITE 1F","BROOKLYN","NY","11225"
113664,"2101 WESTLAKE DRIVE","LONGMONT","CO","80503"
113665,"2101 WINDCLIFF DRIVE","MARIETTA","GA","30067"
113666,"2101 WINDISH DR","GALESBURG","IL","61401"
113667,"2101 WOODDALE DRIVE SUITE A","WOODBURY","MN","55125"
113668,"2101 WOODHAVEN RD","CAPE GIRARDEAU","MO","63701"
113669,"21010 NE 133RD ST","WOODINVILLE","WA","98077"
113670,"21010 WOODLAKE DR","EDMONDS","WA","98026"
113671,"21011 BOYDTON PLANK ROAD","MCKENNEY","VA","23872"
113672,"21011 COMMERCE POINTE DR STE C","CITY OF INDUSTRY","CA","91789"
113673,"21011 JOHNSON ST OFFICE 110","PEMBROKE PINES","FL","33029"
113674,"21012 1/2 ROYAL BLVD","TORRANCE","CA","90502"
113675,"21012 HALBURTON RD","BEACHWOOD","OH","44122"
113676,"21012 KESWICK STREET","CANOGA PARK","CA","91304"
113677,"21013 LAKE VIENNA DRIVE","LAND O'LAKES","FL","34638"
113678,"21013 LEMON SPRINGS TERRACE","ASHBURN","VA","20147"
113679,"21013 NW 14TH PLACE UNIT 243","MIAMI GARDENS","FL","33169"
113680,"210133","SOUTH EUCLID","OH","44121"
113681,"21015","WASHINGTON","DC","20009"
113682,"21016 SW 121 AVE","MIAMI","FL","33177"
113683,"21017 COUNTY ROAD 171","ANGLETON","TX","77515"
113684,"21017 CR 171","ANGLETTON","TX","77515"
113685,"21017 N FIR LN","RATHDRUM","ID","83858"
113686,"21019 47TH AVE WEST","LYNWOOD","WA","98036"
113687,"2101SOUTH11THST","GADSDEN","AL","35904"
113688,"2102 26TH STREET","CODY","WY","82414"
113689,"2102 AUBURN AVENUE","SAVANNAH","GA","31404"
113690,"2102 BANK ST","BALTIMORE","MD","21231"
113691,"2102 BAYBERRY RD","EDGEWOOD","MD","21040"
113692,"2102 BELCOURT AVE","NASHVILLE","TN","37212"
113693,"2102 CARRIAGE DRIVE SW BLDG F","OLYMPIA","WA","98502"
113694,"2102 CRESTVIEW DRIVE","EMPORIA","KS","66801"
113695,"2102 DEL HOLLOW ST","LAKEWOOD","CA","90712"
113696,"2102 E CHEVY CHASE DR","GLENDALE","CA","91206"
113697,"2102 E EUCLID AVE","CENTENNIAL","CO","80121"
113698,"2102 EAST 98TH PL","CHICAGO","IL","60617"
113699,"2102 GILMAN ST","DURHAM","NC","27703"
113700,"2102 GRAMERCY PARK DRIVE","GREENSBORO","NC","27406"
113701,"2102 GREAT NORTHERN DR","FARGO","ND","58102"
113702,"2102 HIGHLAND AVE","BERWYN","IL","60402"
113703,"2102 HOLLY DRIVE","LOS ANGELES","CA","90068"
113704,"2102 HOMEDALE DRIVE","AUSTIN","TX","78704"
113705,"2102 LAWN CREST","MISSOURI CITY","TX","77489"
113706,"2102 MARY CATHRINE","LOUISVILLE","KY","40216"
113707,"2102 MENDOCINO BLVD","SAN DIEGO","CA","92107"
113708,"2102 MERRIWOOD CT","SANFORD","NC","27330"
113709,"2102 MILITARY AVE","BAXTER SPRINGS","KS","66713"
113710,"2102 MOUNTAIN LAKE DRIVE","KINGWOO","TX","77345"
113711,"2102 N 20TH ST","GRAND JUNCTION","CO","81501"
113712,"2102 N CORLETT AVE","LOS ANGELES","CA","90059"
113713,"2102 OWL CREEK ROAD","NASHVILLE","IN","47448"
113714,"2102 PATTIZ AVE","LONG BEACH","CA","90815"
113715,"2102 PETERSON LANE","SANTA ROSA","CA","95403"
113716,"2102 RED OAK CIRCLE","ROUND ROCK","TX","78681"
113717,"2102 SCARLET OAKS DR","IRVING","TX","75060"
113718,"2102 SELIM AVE","CINCINNATI","OH","45214"
113719,"2102 SINGLETREE AVE","AUSTIN","TX","78727"
113720,"2102 SOUTH 47TH STREET","OMAHA","NE","68106"
113721,"2102 W 68TH STREET","STILLWATER","OK","74074"
113722,"2102 W SIBLEY STREET","PARK RIDGE","IL","60068"
113723,"2102 WENTE PLACE","FLORISSANT","MO","63031"
113724,"2102 WEST QUAIL AVENUE SUITE 4","PHOENIX","AZ","85027"
113725,"2102 WILLIAMSBURG WAY","BIRMINGHAM","AL","35223"
113726,"21020 NE 14TH AVE","MIAMI","FL","33179"
113727,"21020 REDWOOD ROAD","CASTRO VALLEY","CA","94546"
113728,"21020 STATE ROAD 7","BOCA RATON","FL","33428"
113729,"21021 ERWIN ST APT 215","WOODLAND HILLS","CA","91367"
113730,"21021 ERWIN ST APT 315","WOODLAND HILLS","CA","91367"
113731,"21021 N 56 STREET","PHOENIX","AZ","85054"
113732,"21023 RAILROAD AVE","HIGH SPRINGS","FL","32643"
113733,"21024 LIV 359","CHILLICOTHE","MO","64601"
113734,"21024 MICHAEL CT","ST CLAIR SHORES","MI","48081"
113735,"21024 PINEY WOODS RD","ORANGE","VA","22960"
113736,"21024 WEST 81ST PLACE","LENEXA","KS","66220"
113737,"21025 ROUNDUP ROAD","ELKHORN","NE","68022"
113738,"21027 BASSETT STREET","CANOGA PARK","CA","91303"
113739,"21027 VOYAGER BLVD APT 7","LAND O LAKES","FL","34638"
113740,"21029 36TH AVE NW","STANWOOD","WA","98292"
113741,"2103 59TH STREET","SAINT LOUIS","MO","63110"
113742,"2103 ACKER WAY","ESCONDIDO","CA","92029"
113743,"2103 ALTHEA DR","HOUSTON","TX","77018"
113744,"2103 ARLINGTON AVENUE","PITTSBURGH","PA","15210"
113745,"2103 BAY BROOK DRIVE","COLUMBIA","MO","65201"
113746,"2103 BLACKHAWK RIDGE LN","MANVEL","TX","77578"
113747,"2103 BROOK HOLLOW","CEDAR PARK","TX","78613"
113748,"2103 BROOKLYN AVE","KANSAS CITY","MO","64127"
113749,"2103 BRUSHMEADE LANE","SUGAR LAND","TX","77479"
113750,"2103 CONTINENTAL AVE","HARRISONVILLE","MO","64701"
113751,"2103 CORAL WAY  FL2","CORAL GABLES","FL","33145"
113752,"2103 CORAL WAY 2ND FLOOR","MIAMI","FL","33145"
113753,"2103 CORAL WAY STE 202","MIAMI","FL","33145"
113754,"2103 CORAL WAY SUITE 200","MIAMI","FL","33145"
113755,"2103 DESMOND DR","DECATUR","GA","30033"
113756,"2103 E HOWELL ST","TAMPA","FL","33610"
113757,"2103 EAST 30TH STREET","LUBBOCK","TX","79404"
113758,"2103 EAST BROAD STREET","GADSDEN","AL","35903"
113759,"2103 FAIRWAY LANE","HARRISBURG","PA","17112"
113760,"2103 FAIRWAYS LANE","ROSEVILLE","MN","55113"
113761,"2103 FOUNTAIN HILL DRIVE","TIMONIUM","MD","21093"
113762,"2103 GENEVA ST","CASTROVILLE","TX","78009"
113763,"2103 HACKLESHIN ROAD","PEEBLES","OH","45660"
113764,"2103 HEATHER HILL LN","PLANO","TX","75075"
113765,"2103 HODGES PL","MANSFIELD","TX","76063"
113766,"2103 HONEYWELL AVENUE 4M","BRONX","NY","10460"
113767,"2103 HOPKINS MILL LANE","DULUTH","GA","30096"
113768,"2103 INVERNESS LANDING","BIRMINGHAM","AL","35242"
113769,"2103 LINCOLN AVE","WILMINGTON","DE","19809"
113770,"2103 MILLCROFT RD","PLEASANT GARDEN","NC","27313"
113771,"2103 OAKMONT ROAD","FALLSTON","MD","21047"
113772,"2103 PALATINE PL","STOCKBRIDGE","GA","30281"
113773,"2103 PAR THREE WAY","LITHONIA","GA","30038"
113774,"2103 PARADISE DRIVE APT 2","PHARR","TX","78577"
113775,"2103 QUAIL VALLEY EAST DRIVE","MISSOURI CITY","TX","77459"
113776,"2103 RIDGEDALE DR","ARLINGTON","TX","76013"
113777,"2103 S 4TH AVE UNIT C","MAYWOOD","IL","60153"
113778,"2103 S 57TH AVE FL 2","CICERO","IL","60804"
113779,"2103 S 57TH AVENUE FLOOR 2","CICERO","IL","60804"
113780,"2103 S WASHINGTION","MARION","IN","46953"
113781,"2103 SAVAGE LANE","LEWISVILLE","TX","75057"
113782,"2103 SAVAGE LN","LEWISVILLE","TX","75057"
113783,"2103 SE 43RD AVE","AMARILLO","TX","79118"
113784,"2103 SOUTH COUNTRY CLUB DRIVE","COLUMBIA","MO","65201"
113785,"2103 SWITCH GRASS CIRCLE","OCOEE","FL","34761"
113786,"2103 TWIN MILL LN","OAKTON","VA","22124"
113787,"2103 VERMILLION OAKS ST","FRESNO","TX","77545"
113788,"2103 W CARMEN ST","TAMPA","FL","33606"
113789,"2103 W CHESTER CIR SE","CONYERS","GA","30013"
113790,"2103 WALDEN PARK CIRCLE APT 102","KISSIMMEE","FL","34744"
113791,"2103 WHITEHORSE-MERCERVILLE RD","HAMILTON","NJ","08619"
113792,"2103 WHITMAN COURT","MONROE","GA","30656"
113793,"2103 WOODMONT COURT","MOUNT ARLINGTON","NJ","07856"
113794,"2103 YUPON CIR","PEARLAND","TX","77581"
113795,"21030 PACIFIC CITY CIR STE 3102","HUNTINGTON BEACH","CA","92648"
113796,"21031 VENTURA BLVD  SUITE210","WOODLAND HILLS","CA","91364"
113797,"21031 VENTURA BLVD SUITE 600","WOODLAND HILLS","CA","91364"
113798,"21031 VENTURA BOULEVARD SUITE 420","WOODLAND HILLS","CA","91364"
113799,"21034 CHATSWORTH STREET","CHATSWORTH","CA","91311"
113800,"21034 UNIVERSAL AVE","EASTPOINTE","MI","48021"
113801,"21035 COURTLAND VILLAGE DR","LEESBURG","VA","20175"
113802,"21035 HOMELAND ROAD","MATTESON","IL","60443"
113803,"21035 NATALIE LANE","LITTLE ROCK","AR","72206"
113804,"21035 OAK RIDGE CT","BROOKFIELD","WI","53045"
113805,"21039 VANOWEN STREET APT 216","CANOGA PARK","CA","91303"
113806,"21039 WILLIAMS CREEK DR","PORTER","TX","77365"
113807,"2104 1ST AVE E","WILLISTON","ND","58801"
113808,"2104 22ND AVE SE","OLYMPIA","WA","98501"
113809,"2104 26TH STREET S - 103","GREAT FALLS","MT","59405"
113810,"2104 3RD STREET","BAY CITY","TX","77414"
113811,"2104 ADEL DRIVE","LOGANVILLE","GA","30052"
113812,"2104 ARLINGTON AVE","PITTSBURGH","PA","15210"
113813,"2104 BERKNER DR","RICHARDSON","TX","75081"
113814,"2104 BERMONDSEY DRIVE","BOWIE","MD","20721"
113815,"2104 BIRCHWOOD LN","BUFFALO GROVE","IL","60089"
113816,"2104 BLACK BEAR DRIVE","EULESS","TX","76039"
113817,"2104 BRIGHTON PARK DRIVE","BAKERSFIELD","CA","93311"
113818,"2104 CASTLEBERRY CUT OFF RD","FORT WORTH","TX","76114"
113819,"2104 CHAPEL HILL ROAD","HOOVER","AL","35216"
113820,"2104 CHELTENHAM BLVD","GREENSBORO","NC","27407"
113821,"2104 CHIPPENDALE DRIVE","MARYVILLE","TN","37803"
113822,"2104 CHRISTINA COVE","HOOVER","AL","35244"
113823,"2104 CREEKVIEW DRIVE","ROUND ROCK","TX","78681"
113824,"2104 DELORES DRIVE","OXFORD","MS","38655"
113825,"2104 DIVISION ST","JACKSOVILLE","FL","32209"
113826,"2104 DOGWOOD ST NE","TACOMA","WA","98422"
113827,"2104 EDINBURGH DRIVE","MONTGOMERY","AL","36116"
113828,"2104 FM 1375 RD EAST","HUNTSVILLE","TX","77340"
113829,"2104 FM 2097","CHESTER","TX","75936"
113830,"2104 GRANT PLACE","PORT HURON","MI","48060"
113831,"2104 GREEN OAKS CIRCLE","ROUND ROCK","TX","78665"
113832,"2104 HUDSON DR","ST LOUIS","MO","63136"
113833,"2104 HWY 48 S","DICKSON","TN","37055"
113834,"2104 HYDE PLACE APT G","FAYETTEVILLE","NC","28306"
113835,"2104 LAKESHORE DRIVE","AUSTIN","TX","78746"
113836,"2104 LEAHY ST","MUSKEGON","MI","49444"
113837,"2104 LIONEL DRIVE","MELBOURNE","FL","32940"
113838,"2104 MAGNOLIA RIDGE STREET","MARRERO","LA","70072"
113839,"2104 NE 51ST TERRACE","KANSAS CITY","MO","64118"
113840,"2104 NORTH AVE","RICHMOND","VA","23222"
113841,"2104 NW 152 TERR","MIAMI","FL","33054"
113842,"2104 P STREET","AURORA","NE","68818"
113843,"2104 PACIFIC AVE","BLOOMINGTON","IL","61701"
113844,"2104 PINEY BRANCH CIR APT 531","HANOVER","MD","21076"
113845,"2104 QUANAH PARKER TRL","AUSTIN","TX","78734"
113846,"2104 S 2ND AVE","CHEYENNE","WY","82007"
113847,"2104 S PENDAR LN","SIOUX FALLS","SD","57105"
113848,"2104 SANDY BRANCH PLACE","ST AUGUSTINE","FL","32092"
113849,"2104 SCOTLAND DR","CLEARWATER","FL","33763"
113850,"2104 SEMINOLE ST","KISSIMMEE","FL","34744"
113851,"2104 SOMERSET PLACE","ATLANTA","GA","30316"
113852,"2104 SOUTH 110 STREET","OMAHA","NE","68144"
113853,"2104 SOUTH COUNTY ROAD 1086","MIDLAND","TX","79706"
113854,"2104 STANLEY HILLS DR","LOS ANGELES","CA","90046"
113855,"2104 STANLEY TERRACE","UNION","NJ","07083"
113856,"2104 SW 334TH PL B9","FEDERAL WAY","WA","98023"
113857,"2104 SW 75TH TERRACE","GAINESVILLE","FL","32607"
113858,"2104 SW WOODSIDE CT","ANKENY","IA","50023"
113859,"2104 TEZCUCO LN","MARRERO","LA","70072"
113860,"2104 TIBURON COURT","GREENVILLE","ND","27834"
113861,"2104 TRAILBROOK CT","LEAGUE CITY","TX","77573"
113862,"2104 VALLEY DR","UNION CITY","TN","38261"
113863,"2104 VALLEY DRIVE","UNION CITY","TN","38261"
113864,"2104 WALNUT CREEK DR","FLINT","MI","48532"
113865,"2104 WEST 12TH AVE","GARU","IN","46404"
113866,"2104 WILLS WAY DR","GRANBURY","TX","76049"
113867,"2104 WISSAHICKON AVE","TAMPA","FL","33604"
113868,"2104 WOODBRIAR CT","FULLERTON","CA","92831"
113869,"21040 GREENFIELD","OAK PARK","MI","48237"
113870,"21042 VIA EDEN","BOCA RATON","FL","33433"
113871,"21044 IMPERIAL OAK","MAGNOLIA","TX","77355"
113872,"21044 SHERMAN WAY 231","CANOGA PARK","CA","91303"
113873,"21045 MAIN STREET","RANBURNE","AL","36273"
113874,"21046 KAROLINE CT N","FOREST LAKE","MN","55025"
113875,"21048 W BUNKER PEAK RD","WITTMANN","AZ","85361"
113876,"2105 16TH STREET","MOLINE","IL","61265"
113877,"2105 19TH STREET","NORTHPORT","AL","35476"
113878,"2105 BAYLOR ST","JACKSONVILLE","TX","75766"
113879,"2105 BELTON DR","ARLINGTON","TX","76018"
113880,"2105 BEUMER ST","STUTTGART","AR","72160"
113881,"2105 BLUEGRASS WAY APT 205","CHESAPEAKE","VA","23321"
113882,"2105 BONNIE PL","AUGUSTA","GA","30906"
113883,"2105 BUCKINGHAM CIRCLE","MARYVILLE","TN","37803"
113884,"2105 BUECHEL BANK RD","LOUISVILLE","KY","40218"
113885,"2105 CALER ST","ALIQUIPPA","PA","15001"
113886,"2105 CANTON DRIVE","FORT WORTH","TX","76112"
113887,"2105 CARSON AVE","WEST HAVEN","UT","84401"
113888,"2105 CHESTNUT LANE","FREDERICK","MD","21702"
113889,"2105 CLIFTON DRIVE","VALRICO","FL","33594"
113890,"2105 COLQUITT AVE","ALBANY","GA","31707"
113891,"2105 COMMERCE STREET SUITE 342","DALLAS","TX","75201"
113892,"2105 COUNTY RD 12C","BRYAN","OH","43506"
113893,"2105 E 171ST PL","SOUTH HOLLAND","IL","60473"
113894,"2105 E 48TH ST N","TULSA","OK","74130"
113895,"2105 E COUNTRY SQUIRE DR","URBANA","IL","61802"
113896,"2105 E RESERVOIR STREET","SPRINGFIELD","IL","62702"
113897,"2105 FALKNER RD","MAITLAND","FL","32751"
113898,"2105 FIRST AVE APT 308","SEATTLE","WA","98121"
113899,"2105 FORESTHILL ROAD","ALEXANDRIA","VA","22307"
113900,"2105 FORSTER STREET","HARRISBURG","PA","17103"
113901,"2105 FOX RIDGE DRIVE","PASADENA","CA","91107"
113902,"2105 GILA RIVER ROAD","RIO RANCHO","NM","87144"
113903,"2105 GLENDALE DRIVE","CHARLESTON","SC","29414"
113904,"2105 GLENDALE PL","AUSTIN","TX","78704"
113905,"2105 GREEN VALLEY DRIVE","TOLEDO","OH","43614"
113906,"2105 HAMPTON TRAIL SE","CONYERS","GA","30013"
113907,"2105 HARTWOOD MARSH RD STE 7","CLERMONT","FL","34711"
113908,"2105 HARTWOOD MARSH RD STE","CLERMONT","FL","34711"
113909,"2105 HAZELTINE WAY","PITTSBURGH","PA","15218"
113910,"2105 KING LEAR CT","GREENVILLE","NC","27858"
113911,"2105 LAKEWAY DR","LEAGUE CITY","TX","77573"
113912,"2105 LORNA RIDGE LANE SUITE 149","BIRMINGHAM","AL","35216"
113913,"2105 MALCOLM AVE STE 105","NEWPORT","AR","72112"
113914,"2105 MAPLE ST","SANTA ANA","CA","92707"
113915,"2105 MATTHEWS VIEW","CUMMING","GA","30041"
113916,"2105 MIDDLE CREEK BLVD","BOSSIER CITY","LA","71111"
113917,"2105 N 12TH STREET","PHILADELPHIA","PA","19122"
113918,"2105 N BROAD CT","MANKATO","MN","56001"
113919,"2105 N GLEBE ROAD UNIT 1408","ARLINGTON","MD","22207"
113920,"2105 NE ABILENE RD","ANKENY","IA","50023"
113921,"2105 NW 28TH STREET","GAINESVILLE","FL","32605"
113922,"2105 NW KLICKITAT ST","CAMAS","WA","98607"
113923,"2105 OLIVER SPINGS WAY","VAN BUREN","AR","72956"
113924,"2105 RANCH ROAD 620 3","LAKEWAY","TX","78734"
113925,"2105 RAVENWOOD DR","GRAND PRAIRIE","TX","75050"
113926,"2105 RHODE ISLAND AVE NE","DISCTRICT OF COLUMBI","DC","20018"
113927,"2105 RHODE ISLAND AVE NE","WASHINGTON","DC","20018"
113928,"2105 RIGSBEE DRIVE","PLANO","TX","75074"
113929,"2105 ROCKAWAY PARKWAY APT 7H","BROOKLYN","NY","11236"
113930,"2105 S 120TH ST","OMAHA","NE","68144"
113931,"2105 S 3RD AVE","MAYWOOD","IL","60153"
113932,"2105 S SORRENTO HILLS ROAD","ST AUGUSTINE","FL","32092"
113933,"2105 SANDER STREET","WOODLAND","CA","95776"
113934,"2105 SPRUCE WAY","ANTIOCH","CA","94509"
113935,"2105 SPYGLASS TRAIL WEST","OXNARD","CA","93036"
113936,"2105 STATE ST","GRANITE CITY","IL","62040"
113937,"2105 SWALLOWTAIL DRIVE","SHAKOPEE","MN","55379"
113938,"2105 SWANLAKE COVE","BIRMINGHAM","AL","35244"
113939,"2105 TURKEY OAK CT","OVIEDO","FL","32766"
113940,"2105 VISTA OESTE NW SUITE E2060","ALBUQUERQUE","NM","87120"
113941,"2105 W  ROOSEVELT AVE","COOLIDGE","AZ","85128"
113942,"2105 W VIA DELFINI","FRESNO","CA","93711"
113943,"2105 WALLANCE AVENUE 3H","BRONX","NY","10462"
113944,"2105 WALNUT GROVE RD","HARRISBURG","IL","62946"
113945,"2105 WESTERLY DRIVE SPACE 84","ROSAMOND","CA","93560"
113946,"21050 US 12","STURGIS","MI","49091"
113947,"21050 VANOWEN ST APT 236","WOODLAND HILLS","CA","91303"
113948,"21051 HWY D","MARSHALL","MO","65340"
113949,"21051 SW 128TH COURT","MIAMI","FL","33177"
113950,"21051 THOREAU CT","STERLING","VA","20164"
113951,"21051 WARNER CENTER LANE SUITE 250","WOODLAND HILLS","CA","91367"
113952,"21052 SHAW LN","HUNTINGTON BEACH","CA","92646"
113953,"21053 DEVONSHIRE STREET STE 104","CHATSWORTH","CA","91311"
113954,"21053 HWY 46 WEST","SPRING BRANCH","TX","78070"
113955,"21053 SHADY VISTA LANE","BOCA RATON","FL","33428"
113956,"21054 W CORONADO ROAD","BUCKEYE","AZ","85396"
113957,"21055 NE 37 AVE APT 1005","AVENTURA","FL","33180"
113958,"21059 BLAIR RD","CONROE","TX","77385"
113959,"21059 BLAIR ROAD","CONROE","TX","77385"
113960,"21059 NE 42ND ST","SAMMAMISH","WA","98074"
113961,"2106 1/2 INDUSTRIAL ROAD","KIRKSVILLE","MO","63501"
113962,"2106 10TH AVE","HONOLULU","HI","96816"
113963,"2106 23RD AVE NW","ROCHESTER","MN","55901"
113964,"2106 32ND STREET SE","WASHINGTON","DC","20020"
113965,"2106 9TH AVENUE","HUNTINGTON","WV","25703"
113966,"2106 ARLENE ST","ANN ARBOR","MI","48103"
113967,"2106 ARPDALE STREET","AUSTIN","TX","78704"
113968,"2106 ASTER ROAD","BETHLEHEM","PA","18018"
113969,"2106 B ST","BELLINGHAM","WA","98225"
113970,"2106 BAILEY AVE","MCKEESPORT","PA","15132"
113971,"2106 BAILIE AVE","MCKEESPORT","PA","15132"
113972,"2106 BELVEDERE","BAYTOWN","TX","77520"
113973,"2106 BOLT DRIVE","BELTON","SC","29627"
113974,"2106 BRAEWICK CIRCLE STE 202","AKRON","OH","44313"
113975,"2106 BULLENS LANE","WOODLYN","PA","19094"
113976,"2106 BUTLER ST","LEESBURG","FL","34748"
113977,"2106 CAMDEN AVENUE","NEW CASTLE","PA","16101"
113978,"2106 CASTLEBURG DRIVE","APEX","NC","27523"
113979,"2106 COLUMBIA DRIVE","DECATUR","GA","30032"
113980,"2106 DUPONT LANE","TUCKER","GA","30084"
113981,"2106 E FRIERSON AVENUE","TAMPA","FL","33610"
113982,"2106 E WATSON DRIVE","TEMPE","AZ","85283"
113983,"2106 EAST ALGONQUIN TRAIL","SHREVEPORT","LA","71107"
113984,"2106 ELYSIUM AVE","EUGENE","OR","97401"
113985,"2106 FREDERICK ST","LANCASTER","TX","75134"
113986,"2106 GLENN DR NE","WARREN","OH","44483"
113987,"2106 HAPPY VALLEY RD","SEQUIM","WA","98382"
113988,"2106 HOLBROOK AVE","CAIRO","IL","62914"
113989,"2106 HOMESTEAD PLACE","GARLAND","TX","75044"
113990,"2106 HUIDEKOPER PL NW","WASHINGTON","DC","20007"
113991,"2106 JACKSON STREET SUITE 6","SAN FRANCISCO","CA","94115"
113992,"2106 JACKSON STREET","CHATTANOOGA","TN","37404"
113993,"2106 KEMPER LN","CINCINNATI","OH","45206"
113994,"2106 MARSHALLS LANE SE","ATLANTA","GA","30316"
113995,"2106 MARYLAND AVENUE NE APT 303","WASHINGTON","DC","20002"
113996,"2106 MEEK AVE","DES MOINES","IA","50311"
113997,"2106 MONTEREY PARKWAY","ATLANTA","GA","30350"
113998,"2106 MT PLEASANT STREET  P-137","CHARLESTON","SC","29403"
113999,"2106 NE 124 ST","MIAMI","FL","33181"
114000,"2106 NW LYNX LOOP","ISSAQUAH","WA","98027"
