"ID","Address","City","State","Zip"
210501,"43 TABER AVENUE","BROCKTON","MA","02302"
210502,"43 TAHOE CIRCLE SUITE E","OWINGS MILLS","MD","21117"
210503,"43 TALAIS DR","LITTLE ROCK","AR","72223"
210504,"43 TERRACE DRIVE","TORRINGTON","CT","06790"
210505,"43 THOMAS HARMON DR","CAMDEN","DE","19934"
210506,"43 THOMPSON AVENUE","BROCKTON","MA","02301"
210507,"43 TOWN AND COUNTRY DR SUITE 119-80","FREDERICKSBURG","VA","22405"
210508,"43 TOWN CENTER SQUARE","HATTIESBURG","MS","39402"
210509,"43 TRIMOUNT AVE","TAUNTON","MA","02780"
210510,"43 TWILIGHT RD","ROCKY POINT","NY","11775"
210511,"43 TYLER PLACE","SAINT LOUIS","MO","63119"
210512,"43 UNION STREET APT 1","BEFAST","ME","04915"
210513,"43 UNION STREET","SPRINGFIELD","VT","05156"
210514,"43 VASSAR ROAD","POUGHKEEPSIE","NY","12603"
210515,"43 VIA CAPRI WAY","FOUR OAKS","NC","27524"
210516,"43 VILLAGE ROAD","MILFORD","CT","06460"
210517,"43 VIRGINIA AVE","MONTCLAIR","NJ","07042"
210518,"43 VIRGINIA STREET","SOUTH RIVER","NJ","08882"
210519,"43 W 16TH ST APT 7E","NEW YORK","NY","10011"
210520,"43 W 43 STREET SUITE 78","NEW YORK","NY","10036"
210521,"43 W FORT DADE","BROOKSVILLE","FL","34601"
210522,"43 W UNION STREET","LIBERTY","IN","47353"
210523,"43 WACHUSETT ST APT 1","JAMAICA PLAIN","MA","02130"
210524,"43 WARREN DR","PARSIPPANY","NJ","07053"
210525,"43 WASHINGTON AVE","SPRING VALLEY","NY","10977"
210526,"43 WEST BROADWAY","PORT JEFFERSON ST","NY","11776"
210527,"43 WEST ST","BERLIN","MA","01503"
210528,"43 WEST ST","WHITMAN","MA","02382"
210529,"43 WEST STREET","BERLIN","MA","01503"
210530,"43 WESTCHESTER SQUARE SUITE 2","BRONX","NY","10461"
210531,"43 WHEELER RD","WAYNE","NJ","07470"
210532,"43 WILSTHIRE DRIVE","STAFFORD","VA","22554"
210533,"43 WOODLAND DR","PLAINSBORO","NJ","08536"
210534,"43 WOODRIDGE CIRCLE","TRUMBULL","CT","06611"
210535,"43 YARROW LANE","WHEELING","WV","26003"
210536,"43-15 45TH STREET APT 6B","LONG ISLAND CITY","NY","11104"
210537,"43-2058 PAAUILO MAUKA ROAD BOX 427","PAAUILO","HI","96776"
210538,"43-22 215TH STREET 1ST FLOOR","BAYSIDE","NY","11361"
210539,"43-23 160TH ST 2FL","FLUSHING","NY","11358"
210540,"43-23 40TH STREET STE 6K","SUNNYSIDE","NY","11104"
210541,"43-30 SMART STREET","FLUSHING","NY","11355"
210542,"43-33 147TH STREET","FLUSHING","NY","11355"
210543,"43-34 49TH  ST","SUNNYSIDE","NY","11104"
210544,"43-38-39TH PLACE APT 43","SUNNYSIDE","NY","11104"
210545,"43-44 BRUNSWICK WOODS DRIVE","EAST BRUNSWICK","NJ","08816"
210546,"430 13TH STREET","FRANKLIN","PA","16323"
210547,"430 142ND ST SE","EVERETT","WA","98203"
210548,"430 30TH ST NW APT 302","WILLMAR","MN","56201"
210549,"430 8TH AVE NW","CAMBRIDGE","MN","55008"
210550,"430 ALAMOSA DRIVE","SPARKS","NV","89441"
210551,"430 ALISAL ROAD 865","SOLVANG","CA","93464"
210552,"430 BECKETT DRIVE","DALLAS","GA","30132"
210553,"430 BELARD DR","VACAVILLE","CA","95687"
210554,"430 BELGRADE ST FLOOR 1","PHILADELPHIA","PA","19125"
210555,"430 BLACKWELL RD","GREENWOOD","SC","29649"
210556,"430 BLUE BELL COURT","STEAMBOAT SPRINGS","CO","80487"
210557,"430 C DOUGHTY BLVD","INWOOD","NY","11096"
210558,"430 CAMERON STREET","MARYSVILLE","PA","17053"
210559,"430 CHANSLOR AVE","SAINT LOUIS","MO","63135"
210560,"430 COLES LANDING","LA PLACE","LA","70068"
210561,"430 COLLIER ROAD","BARNESVILLE","GA","30204"
210562,"430 COOLIDGE AVENUE","PITTSBURGH","PA","15228"
210563,"430 CORTLAND AVE","SAN FRANCISCO","CA","94110"
210564,"430 COUNTRY CIRCLE DR E","PORT ORANGE","FL","32128"
210565,"430 COVENANT DRIVE NE","CLEVELAND","TN","37323"
210566,"430 CR 626","BRAZORIA","TX","77422"
210567,"430 CROWN OAK CENTRE DR","LONGWOOD","FL","32750"
210568,"430 D STREET","ANNISTON","AL","36201"
210569,"430 DAVIS ST","BROWNVILLE","ME","04414"
210570,"430 DECATUR STREET","WASHINGTON","DC","20011"
210571,"430 DOGWOOD DRIVE","BUELLTON","CA","93427"
210572,"430 E 162ND ST - 179","SOUTH HOLLAND","IL","60473"
210573,"430 E 162ND STREET  NUMBER 762","SOUTH HOLLAND","IL","60473"
210574,"430 E 162ND STREET SUITE 293","SOUTH HOLLAND","IL","60473"
210575,"430 E 162ND STREET SUITE 428","SOUTH HOLLAND","IL","60473"
210576,"430 E 162ND STREET SUITE 516","SOUTH HOLLAND","IL","60473"
210577,"430 E 162ND STREET UNIT 417","SOUTH HOLLAND","IL","60473"
210578,"430 E 162ND STREET","SOUTH HOLLAND","IL","60473"
210579,"430 E 45TH PL","CHICAGO","IL","60653"
210580,"430 E 45TH PLACE","CHICAGO","IL","60653"
210581,"430 E 61ST","LOS ANGELES","CA","90003"
210582,"430 E FOSTER AVENUE","STATE COLLEGE","PA","16801"
210583,"430 E HELMS RD B1","HOUSTON","TX","77037"
210584,"430 E LAKESHORE DR","CLERMONT","FL","34711"
210585,"430 E LAS OLAS BLVD SUITE 130-689","FORT LAUDERDALE","FL","33301"
210586,"430 E MEYERS","HAZEL PARK","MI","48030"
210587,"430 E PACKWOOD AVE APT H107","MAITLAND","FL","32751"
210588,"430 EAST 162ND STREET     STE 748","SOUTH HOLLAND","IL","60473"
210589,"430 EAST 162ND STREET  SUITE 403","SOUTH HOLLAND","IL","60473"
210590,"430 EAST 162ND STREET STE 379","SOUTH HOLLAND","IL","60473"
210591,"430 EAST 162ND STREET SUITE 531","SOUTH HOLLAND","IL","60473"
210592,"430 EAST 57TH STREET","NEW YORK","NY","10022"
210593,"430 EAST 85TH STREET","NEW YORK","NY","10028"
210594,"430 EAST BELVEDERE AVENUE","BALTIMORE","MD","21212"
210595,"430 EAST BERTSCH STREET","LANSFORD","PA","18232"
210596,"430 EAST DIVISION","WAUTOMA","WI","54982"
210597,"430 EAST LOCUST STREET","BETHLEHEM","PA","18018"
210598,"430 EISENHOWER DRIVE - J1","LAWRENCE","KS","66049"
210599,"430 ESSEX STREET NO 4","SALEM","MA","01970"
210600,"430 EXCHANGE STREET","GENEVA","NY","14456"
210601,"430 FLAT CREEK RD","SEVIERVILLE","TN","37876"
210602,"430 FLETCHER STREET","THOMASVILLE","GA","31792"
210603,"430 FONTANA CIRCLE UNIT 105","OVIEDO","FL","32765"
210604,"430 FOXDALE LANE","CHARLOTTESVILLE","VA","22903"
210605,"430 GEORGE WALLACE DRIVE  143","GADSDEN","AL","35903"
210606,"430 GLEN CARBON ROAD","GLEN CARBON","IL","62034"
210607,"430 GOLDEN GATE AVENUE - 430","RICHMOND","CA","94801"
210608,"430 GRAND BAY DR STE 1201","MIAMI","FL","33149"
210609,"430 GRAND BOULEVARD APT 3","SAN MATEO","CA","94401"
210610,"430 GURLEY ST","MT PLEASANT","SC","29464"
210611,"430 HAYDEN STATION ROAD","WINDSOR","CT","06095"
210612,"430 HICKORY STREET","BIRMINGHAM","AL","35206"
210613,"430 HIGH STREET","PORTSMOUTH","VA","23704"
210614,"430 HIGHLAND STREET","EAST BRIDGEWATER","MA","02333"
210615,"430 HOMETOWNE TERRACE","LITITZ","PA","17543"
210616,"430 HUNTSDALE COURT","LEXINGTON","SC","29072"
210617,"430 INDIANA STREET","GOLDEN","CO","80401"
210618,"430 IOWA AVENUE","IOWA CITY","IA","52240"
210619,"430 KAMMELL STREET","BASTROP","LA","71220"
210620,"430 KATYDID ST","SUMTER","SC","29154"
210621,"430 KEEPATAW DR","LEMONT","IL","60439"
210622,"430 KELP GROVE ROAD","NASHVILLE","IN","47448"
210623,"430 KIRKLAND ROAD","COVINGTON","GA","30016"
210624,"430 LAKESHORE DR","INTERLACHEN","FL","32148"
210625,"430 LAKEVIEW DR","SOUTH CHINA","ME","04358"
210626,"430 LANSING STREET","AURORA","CO","80010"
210627,"430 LINCOLN ST","GARY","IN","46402"
210628,"430 LOOP RD","MOUNT HOLLY","VT","05758"
210629,"430 LOU AVE","DUNCANVILLE","TX","75137"
210630,"430 MADISON AVENUE","HELENA","MT","59601"
210631,"430 MAIN ST S","SAUK CENTRE","MN","56378"
210632,"430 MAIN ST","DALLAS","OR","97338"
210633,"430 MAIN ST","LIVINGSTON","CA","95334"
210634,"430 MAIN STREET","WETHERSFIELD","CT","06109"
210635,"430 MANNING STREET","JEFFERSON","MA","01522"
210636,"430 MAPLE RIDGE LANE","HARPERS FERRY","WV","25425"
210637,"430 MCKINLEY AVENUE","EAU CLAIRE","WI","54701"
210638,"430 MERIDIAN DRIVE","PITTSBURGH","PA","15228"
210639,"430 MERLOT DR","OCOEE","FL","34761"
210640,"430 MORGAN LN","HOFFMAN ESTATES","IL","60169"
210641,"430 MOUNT VERNON STREET","NEWPORT","VT","05855"
210642,"430 N BRAZOSPORT BLVD","FREEPORT","TX","77541"
210643,"430 N STAPLEY DRIVE","MESA","AZ","85203"
210644,"430 N STATE ST","CLAIRTON","PA","15025"
210645,"430 N STATE STREET","CLAIRTON","PA","15025"
210646,"430 N VASSAR ST","WICHITA","KS","67208"
210647,"430 N WAYNE STREET SUITE 1B","ANGOLA","IN","46703"
210648,"430 NEBRASKA AVENUE","TOLEDO","OH","43604"
210649,"430 NORTH 400 WEST","SALT LAKE CITY","UT","84103"
210650,"430 NORTH CAMERON STREET","WINCHESTER","VA","22601"
210651,"430 NORTH HARDIN STREET","SOUTHERN PINES","NC","38387"
210652,"430 NORTH SHERWOOD STREET","FORT COLLINS","CO","80521"
210653,"430 NORTHSIDE DR E STE 160 PMB 304","STATESBORO","GA","30458"
210654,"430 NOTRE DAME","NEW ORLEANS","LA","70130"
210655,"430 NW 202ND TERRACE","MIAMI","FL","33169"
210656,"430 NW124TH STREET","MIAMI","FL","33168"
210657,"430 OAK ST SUITE 4","BROOKINGS","OR","97415"
210658,"430 OAK VALLEY CIR","SMYRNA","GA","30082"
210659,"430 OHIO PIKE SUITE 153 SOUTH","CINCINNATI","OH","45255"
210660,"430 PALACE ST","AURORA","IL","60506"
210661,"430 PARKRIDGE ROAD","BELLINGHAM","WA","98225"
210662,"430 PENN ST COURTHOUSE ANNEX II","HUNTINGDON","PA","16652"
210663,"430 PERSHING BLVD","ROCKVILLE CTR","NY","11570"
210664,"430 PICKWICK PLACE","VALPARAISO","IN","46385"
210665,"430 PINE RIVER RD","KIMBALL","MI","48074"
210666,"430 RANDOLPH STREET NW","WASHINGTON","DC","20011"
210667,"430 REED STREET G-01","PHILADELPHIA","PA","19147"
210668,"430 RENDON AVENUE","SAVANNAH","TN","37914"
210669,"430 RESTFUL RIDGE RD","HOT SPRINGS","AR","71913"
210670,"430 RIDGEMOOR DRIVE","WILLOWBROOK","IL","60527"
210671,"430 RIVER OAKS LN","HELENA","AL","35080"
210672,"430 ROGERS AVENUE","BROOKLYN","NY","11225"
210673,"430 S 6TH ST","BLYTHE","CA","92225"
210674,"430 S 96TH ST SUITE 15","SEATTLE","WA","98108"
210675,"430 S FULLER AVE APT 11B","LOS ANGELES","CA","90013"
210676,"430 S ST AUGUSTINE ST  APT 14","PULASKI","WI","54313"
210677,"430 S WEBSTER AVE","GREEN BAY","WI","54301"
210678,"430 S WESTMORELAND ROAD","WAXAHACHIE","TX","75167"
210679,"430 SADDLEBROOK DR SE","CALHOUN","GA","30701"
210680,"430 SANDCASTLE ROAD","FRANKLIN","TN","37069"
210681,"430 SCHOOL STREET PO BOX 93","CARLISLE","IA","50047"
210682,"430 SCHOOL STREET","CARLISLE","IA","50047"
210683,"430 SOUTH  MICHIGAN AVE AUD 358C","CHICAGO","IL","60605"
210684,"430 SOUTH BURNSIDE AVENUE APT 5F","LOS ANGELES","CA","90036"
210685,"430 SOUTH WATER STREET","MARINE CITY","MI","48039"
210686,"430 SPLIT RAIL CT","VALPARAISO","IN","46385"
210687,"430 STABLE VISTA","SAN ANTONIO","TX","78227"
210688,"430 SW 69TH AVENUE","MIAMI","FL","33144"
210689,"430 SW WAKONDA BEACH RD","WALDPORT","OR","97394"
210690,"430 TANGLEWOOD DR","FORT WALTON BEACH","FL","32547"
210691,"430 TOM WEST ROAD","EASTMAN","GA","31023"
210692,"430 TURNBERRY CT","OXFORD","MS","38655"
210693,"430 VERMONT AVENUE","BROOKLYN","NY","11207"
210694,"430 VERONA WAY","CENTERTON","TX","72719"
210695,"430 VIA ROMA","SANTA BARBARA","CA","93110"
210696,"430 W ANNSBURY STREET","PHILADELPHIA","PA","19140"
210697,"430 W CALHOUN STREET","WADLEY","GA","30477"
210698,"430 W FORSTER DRIVE","MUSTANG","OK","73064"
210699,"430 W NAVARRO AVE","MESA","AZ","85210"
210700,"430 W OLIVE ST","ASHDOWN","AR","71822"
210701,"430 W RIO SINALOA","GREEN VALLEY","AZ","85614"
210702,"430 W UNION PLACE","CITRUS","FL","34434"
210703,"430 WAKEFIELD RUN BLVD","HINCKLEY","OH","44233"
210704,"430 WALKERTOWN ROAD","EXTON","PA","19341"
210705,"430 WAYNE RD","SAVANNAH","TN","38372"
210706,"430 WEST 54TH STREET","NEW YORK","NY","10019"
210707,"430 WESTWOOD AVENUE","STATEN ISLAND","NY","10314"
210708,"430 WILLOW BEND DRIVE","GLEN BURNIE","MD","21060"
210709,"430 WILLOW RD","ORANGEBURG","SC","29115"
210710,"430 ZENITH AVE","LAFAYETTE","CO","80026"
210711,"4300 18TH STREET WEST SUITE 108 I","BRADENTON","FL","34205"
210712,"4300 28TH PL APT 3","MOUNT RAINIER","MD","20712"
210713,"4300 AOUTH ATLANTIC AVE","PONCE INLET","FL","32127"
210714,"4300 ARCTIC BLVD STE 27","ANCHORAGE","AK","99503"
210715,"4300 AUDUBON","TRAVERSE CITY","MI","49686"
210716,"4300 BAYOU BOULEVARD SUITE 31A","PENSACOLA","FL","32503"
210717,"4300 BEAVER AVE","DES MOINES","IA","50310"
210718,"4300 BEAVER AVENUE","DES MOINES","IA","50310"
210719,"4300 BEVERLY BLVD","LOS ANGELES","CA","90004"
210720,"4300 BISCAYNE BLVD SUITE 305","MIAMI","FL","33137"
210721,"4300 BLACK AVENUE SUITE 1576","PLEASANTON","CA","94566"
210722,"4300 BUCHANAN AVENUE","BALTIMORE","MD","21211"
210723,"4300 CHERRY AVE NE","KEIZER","OR","97303"
210724,"4300 COUNTRY LAKE DR","PANAMA CITY","FL","32404"
210725,"4300 CRYSTAL LAKES DRIVE F11","POMPANO BEACH","FL","33064"
210726,"4300 CUTTING BLVD","RICHMOND","CA","94804"
210727,"4300 DINNER LAKE DRIVE","LAKE WALES","FL","33859"
210728,"4300 DIVISION ST","HASTINGS","FL","32145"
210729,"4300 E 53RD STREET SUITE 103","DAVENPORT","IA","52807"
210730,"4300 EAST 53RD STREET SUITE 103","DAVENPORT","IA","52807"
210731,"4300 EAST SUNRISE DRIVE","TUCSON","AZ","85718"
210732,"4300 EAST THERESA STREET","LONG BEACH","CA","90814"
210733,"4300 EASTLAND STREET","FORT WORTH","TX","76119"
210734,"4300 EASTLAND STREET","FT WORTH","TX","76119"
210735,"4300 FAWN HILL COURT SE","CEDAR RAPIDS","IA","52403"
210736,"4300 GLENLAKE CT","KENNESAW","GA","30144"
210737,"4300 GOVERNORS TOWNE DRIVE","ACWORTH","GA","30101"
210738,"4300 GRIGGS ROAD","HOUSTON","TX","77021"
210739,"4300 HARBIN COURT","CARROLLTON","TX","75010"
210740,"4300 HAWKINS DRIVE","WESTMORELAND","TN","37186"
210741,"4300 HIGHWAY 72","KILLEN","AL","35645"
210742,"4300 HOLLOWSTONE CT","CHANTILLY","VA","20151"
210743,"4300 HORIZON NORTH PARKWAY APT 615","DALLAS","TX","75287"
210744,"4300 HORIZON NORTH PKWY UNIT 1228","DALLAS","TX","75287"
210745,"4300 INDIANA AVE","KENNER","LA","70065"
210746,"4300 JOG RD 542101","GREENACRES","FL","33454"
210747,"4300 JOG ROAD 541721","LAKE WORTH","FL","33454"
210748,"4300 JOG ROAD UNIT 542101","GREENACRES","FL","33454"
210749,"4300 KINGS CHASE DRIVE","ROANOKE","VA","24018"
210750,"4300 KINGSBURY DRIVE","PLANO","TX","75093"
210751,"4300 LAKE MARGARET DR","ORLANDO","FL","32812"
210752,"4300 LINDEN HILLS BLVD","MINNEAPOLIS","MN","55410"
210753,"4300 MATIA VIEW DR","LUMMI ISLAND","WA","98262"
210754,"4300 MEEKS DR","ORANGE","TX","77632"
210755,"4300 MELROSE AVE","LOS ANGELES","CA","90029"
210756,"4300 MONTGOMERY AVENUE SUITE 206","BETHESDA","MD","20814"
210757,"4300 N 28TH STREET NORTH","ST.PETERSBURG","FL","33714"
210758,"4300 N CORRINGTON AVE SUITE 100","KANSAS CITY","MO","64117"
210759,"4300 N MARINE DR APT 604","CHICAGO","IL","60613"
210760,"4300 N MARINE DRIVE  APT 604","CHICAGO","IL","60613"
210761,"4300 N MILLER RD","SCOTTSDALE","AZ","85027"
210762,"4300 N UNIVERSITY DR STE F100","SUNRISE","FL","33351"
210763,"4300 N UNIVERSITY DRIVE - A107","SUNRISE","FL","33351"
210764,"4300 NE 16 AVE","POMPANO BEACH","FL","33064"
210765,"4300 NE BROADWAY ST STE 3","PORTLAND","OR","97213"
210766,"4300 NORTH WICKHAM ROAD","SATELLITE BEACH","FL","32935"
210767,"4300 NORTHPOINT CT","ENGLEWOOD","OH","45322"
210768,"4300 OLD YORK ROAD","BALTIMORE","MD","21212"
210769,"4300 PAULA RIDGE CT","FORT WORTH","TX","76137"
210770,"4300 PIONEER RD SE   PO BOX 9","ALEXANDRIA","MN","56308"
210771,"4300 PIONEER ROAD SE","ALEXANDRIA","MN","56308"
210772,"4300 PORTSMOUTH BLVD STE 174 -9085","CHESAPEAKE","VA","23321"
210773,"4300 ROSEMEADE PKWY 722","DALLAS","TX","75287"
210774,"4300 S CREEK CT","HUNTINGTOWN","MD","20639"
210775,"4300 S JOG ROAD UNIT 541943","GREENACRES","FL","33454"
210776,"4300 S LOUISE AVE STE 201","SIOUX FALLS","SD","57106"
210777,"4300 S US HWY 1 STE 203-204","JUPITER","FL","33477"
210778,"4300 S VALIANT CT","ANNANDALE","VA","22003"
210779,"4300 SHARON RD APT 501","CHARLOTTE","NC","28211"
210780,"4300 SHERIDAN ST  136","HOLLYWOOD","FL","33021"
210781,"4300 SIGMA RD SUITE 100","DALLAS","TX","75244"
210782,"4300 SOUTH CODDINGTON AVE","LINCOLN","NE","68523"
210783,"4300 SPEEDWAY UNIT 4404","AUSTIN","TX","78765"
210784,"4300 STATESVILLE ROAD","CHARLOTTE","NC","28269"
210785,"4300 STEVENS CREEK BLVD STE 225","SAN JOSE","CA","95129"
210786,"4300 STILLWELL AVE","LOS ANGELES","CA","90032"
210787,"4300 STONEFIELD  DRIVE","CHARLOTTE","NC","28269"
210788,"4300 TALBOT RD S STE 314","RENTON","WA","98055"
210789,"4300 TOMPKINS AVE","OAKLAND","CA","94619"
210790,"4300 VAL DECHIANA AVENUE","LAS VEGAS","NV","89141"
210791,"4300 W DONGES LANE","BROWN DEER","WI","53223"
210792,"4300 WEST JEFFERSON BLVD SUITE 1","LOS ANGELES","CA","90016"
210793,"4300 WEST WACO DRIVE SUITE 2B-255","WACO","TX","76710"
210794,"4300 WESTBANK DRIVE","WEST LAKE HILLS","TX","78746"
210795,"4300 WILEY POST ROAD","ADDISON","TX","75001"
210796,"4300","KANSAS CITY","MO","64156"
210797,"43003 WEST MAGNOLIA ROAD","MARICOPA","AZ","85138"
210798,"4300B CANNON RIDGE CRT","FAIRFAX","VA","22033"
210799,"4301 - 228TH AVENUE NE","REDMOND","WA","98053"
210800,"4301 129TH STREET","URBANDALE","IA","50323"
210801,"4301 23RD PARKWAY","TEMPLE HILLS","MD","20748"
210802,"4301 28TH ST N BLDG B APT 114","ST PETERSBURG","FL","33714"
210803,"4301 48TH AVE NW","NORMAN","OK","73072"
210804,"4301 48TH AVENUE NW","NORMAN","OK","73072"
210805,"4301 50TH ST NW SUITE 300 PMB 1021","WASHINGTON","DC","20016"
210806,"4301 50TH STREET NW STE 300-1090","WASHINGTON","DC","20016"
210807,"4301 50TH STREET NW STE 300","WASHINGTON","DC","20016"
210808,"4301 85TH AVENUE","PRINCETON","MN","55371"
210809,"4301 ATLANTIC AVENUE SUITE 6","LONG BEACH","CA","90807"
210810,"4301 BARRERA DR","CORPUS CHRISTI","TX","78416"
210811,"4301 BLAIR OAKS DR","THE COLONY","TX","75056"
210812,"4301 BLAIR OAKS DRIVE","THE COLONY","TX","75056"
210813,"4301 BLAIR OAKS","THE COLONY","TX","75056"
210814,"4301 CENTRAL GARDENS WAY SUITE 101","PALM BEACH GARDENS","FL","33418"
210815,"4301 CHARLESTON WAY","SHELBYVILLE","KY","40065"
210816,"4301 CITY POINT DR","NORTH RICHLAND HILLS","TX","76180"
210817,"4301 CITY POINT DRIVE","NORTH RICHLAND HILLS","TX","76180"
210818,"4301 COLUMBUS CLUB DR","RALEIGH","NC","27604"
210819,"4301 CONFEDERATE POINT ROAD 48","JACKSONVILLE","FL","32210"
210820,"4301 DON FELIPE DR","LOS ANGELES","CA","90008"
210821,"4301 E GUAADALUPE RD","GILBERT","AZ","85234"
210822,"4301 E GUADALUPE RD","GILBERT","AZ","85234"
210823,"4301 E RED BRIDGE ROAD","KANSAS CITY","MO","64137"
210824,"4301 EAST GUADALUPE ROAD","GILBERT","AZ","85234"
210825,"4301 EAST WEST HIGHWAY","BETHESDA","MD","20814"
210826,"4301 EMDEN STREET","SILVER SPRING","MD","20906"
210827,"4301 FOX CROFT ROAD","NORMAN","OK","73026"
210828,"4301 GALESBURY LN","CHANTILLY","VA","20151"
210829,"4301 GARDEN CITY DRIVE SUITE 106","HYATTSVILLE","MD","20785"
210830,"4301 HIGHWAY 1941","HAMPTON","GA","30228"
210831,"4301 HILLSPIRE AVE NW","ALBUQUERQUE","NM","87120"
210832,"4301 JONES BRIDGE RD","BETHESDA","MD","20814"
210833,"4301 KIMBERLY CIRCLE","MELBOURNE","FL","32904"
210834,"4301 LONE ELM ST","SACHSE","TX","75048"
210835,"4301 LONGDALE FURNACE RD","CLIFTON FORGE","VA","24422"
210836,"4301 MAIN ST","AMHERST","NY","14226"
210837,"4301 MEADOWBROOK DR","FORT WORTH","TX","76103"
210838,"4301 MILITARY ROAD NW","WASHINGTON","DC","20015"
210839,"4301 N JUNE AVE","OKLAHOMA CITY","OK","73112"
210840,"4301 N SHARY RD","PALM","TX","78573"
210841,"4301 NE 1ST STREET 2841","RENTON","WA","98059"
210842,"4301 NE LAURELHURST PLACE","PORTLAND","OR","97213"
210843,"4301 NW 63RD ST 107","OKLAHOMA CITY","OK","73116"
210844,"4301 OAK CIRCLE STE 23","BOCA RATON","FL","33431"
210845,"4301 ORCHARD LAKE RD  180 162","WEST BLOOMFIELD","MI","48323"
210846,"4301 ORCHARD LAKE RD  SUITE 180-273","WEST BLOOMFIELD","MI","48323"
210847,"4301 ORCHARD LAKE RD","WEST BLOOMFIELD","MI","48323"
210848,"4301 ORCHARD LK RD STE180 DEPT 226","WEST BLOOMFIELD","MI","48323"
210849,"4301 PARADISE DRIVE","CARMICHAEL","CA","95608"
210850,"4301 PARK AVE UNIT 620","DES MOINES","IA","50321"
210851,"4301 PASEO SUITE A","KANSAS CITY","MO","64110"
210852,"4301 POWELL CEMTERY RD  PO BOX 603","TOLAR","TX","76476"
210853,"4301 RANDOLPH RD","SILVER SPRING","MD","20906"
210854,"4301 REAR STATE STREET","EAST ST LOUIS","IL","62205"
210855,"4301 S ELLIS AVE","CHICAGO","IL","60653"
210856,"4301 S HOLLY ST","DENVER","CO","80111"
210857,"4301 S LAFAYETTE STREET","CHERRY HILLS VILLAGE","CO","80113"
210858,"4301 S NARCISSUS AVE","BROKEN ARROW","OK","74011"
210859,"4301 SADDLE RIVER DRIVE","BOWIE","MD","20720"
210860,"4301 SAINT FERDINAND AVENUE","SAINT LOUIS","MO","63113"
210861,"4301 SHAWNEE CIR","CHATTANOOGA","TN","37411"
210862,"4301 SOUTH 205TH EAST AVE","BROKEN ARROW","OK","74014"
210863,"4301 SOUTH KING DRIVE","CHICAGO","IL","60653"
210864,"4301 STONE WAY N APT 224","SEATTLE","WA","98103"
210865,"4301 STONEBROOK DRIVE","JONESBORO","AR","72404"
210866,"4301 TERRACE STREET","PHILADELPHIA","PA","19128"
210867,"4301 TIETON DRIVE","YAKIMA","WA","98908"
210868,"4301 VERNE AVE","CINCINNATI","OH","45209"
210869,"4301 W MARKHAM SLOT 543","LITTLE ROCK","AR","72205"
210870,"4301 W MARKHAM ST","LITTLE ROCK","AR","72205"
210871,"4301 W WILLIAM CANNON DR B150-321","AUSTIN","TX","78749"
210872,"4301 WALLABY COURT","ANTIOCH","CA","94531"
210873,"4301 WEST VILLAGE AVENUE","CAMP SPRINGS","MD","20746"
210874,"4301 WILHELM STREET","FORT WORTH","TX","76119"
210875,"4301-A LAWNDALE DRIVE","GREENSBORO","NC","27438"
210876,"4301-B NORTHSHORE DRIVE","WEST PALM BEACH","FL","33407"
210877,"4301","CHARLOTTE","NC","28273"
210878,"4302 224TH PL SW","MOUNTLAKE TERRACE","WA","98043"
210879,"4302 37TH STREET NW","WASHINGTON","DC","20008"
210880,"4302 AVENUE I","BROOKLYN","NY","11210"
210881,"4302 BOSTON AVENUE","SAN DIEGO","CA","92113"
210882,"4302 DRIFTWOOD DRIVE","RALEIGH","VA","27606"
210883,"4302 HOLLYWOOD BLVD 349","HOLLYWOOD","FL","33021"
210884,"4302 HOLLYWOOD BLVD SUITE 135","HOLLYWOOD","FL","33021"
210885,"4302 HOLLYWOOD BLVD SUITE 151","HOLLYWOOD","FL","33021"
210886,"4302 HOLLYWOOD BLVD SUITE 99","HOLLYWOOD","FL","33021"
210887,"4302 INGHAM AVE","COLUMBUS","OH","43214"
210888,"4302 KATONAH AVENUE","BRONX","NY","10470"
210889,"4302 LUKOW PL","VALRICO","FL","33596"
210890,"4302 NEW UTRECHT AVENUE","BROOKLYN","NY","11219"
210891,"4302 NORTH 13TH STREET","TACOMA","WA","98406"
210892,"4302 OAK STREET","BELLWOOD","IL","60104"
210893,"4302 PEACH WAY","BOULDER","CO","80301"
210894,"4302 RINGROSE DR","MISSOURI CITY","TX","77459"
210895,"4302 RIVER RD NW","WASHINGTON","DC","20016"
210896,"4302 ROCKLAND DRIVE","CONLEY","GA","30288"
210897,"4302 SECOND AVENUE","DALLAS","TX","75210"
210898,"4302 STRAIGHT ARROW ROAD","BEAVERCREEK","OH","45430"
210899,"4302 THORNLEIGH DR","INDIANAPOLIS","IN","46226"
210900,"4302 UNDERHILL DRIVE","FLINT","MI","48506"
210901,"4302 WATERFORD VALLEY DRIVE 1923","DURHAM","NC","27713"
210902,"4302 YORK RD","MARLOW","OK","73055"
210903,"43021 LA RIVA DR","ASHBURN","VA","20148"
210904,"43028 45TH STREET WEST","LANCASTER","CA","93536"
210905,"4303 10TH ST W","LEHIGH ACRES","FL","33971"
210906,"4303 BAYCHESTER AVENUE  2H","BRONX","NY","10466"
210907,"4303 BELL AVE","SARASOTA","FL","34231"
210908,"4303 BIG BEND TRAIL","TAYLOR","TX","76574"
210909,"4303 BOULEVARD AVENUE","ATLANTIC CITY","NJ","08401"
210910,"4303 BRIGHT ROAD","DUBLIN","OH","43016"
210911,"4303 DENALI PLACE","BISMARCK","ND","58503"
210912,"4303 GALLATIN STREET","HYATTSVILLE","MD","20781"
210913,"4303 HOLYOKE DR SE","KENTWOOD","MI","49508"
210914,"4303 HORACE DRIVE","HUNTSVILLE","AL","35816"
210915,"4303 HUNTING HAWK DRIVE","LEBANON","OH","45036"
210916,"4303 IVANHOE","NORWOOD","OH","45212"
210917,"4303 JUNEWOOD CT","RENO","NV","89509"
210918,"4303 LAKE STREET","LAKE CHARLES","LA","70605"
210919,"4303 MAINE AVE","BALTIMORE","MD","21207"
210920,"4303 MANDI AVE","LITTLE RIVER","SC","29566"
210921,"4303 MONARCH DRIVE","SUGAR LAND","TX","77479"
210922,"4303 N 52ND ST","MILWAUKEE","WI","53216"
210923,"4303 NARRAGANSETT AVE","SAN DIEGO","CA","92107"
210924,"4303 OAK CREEK RD","LEANDER","TX","78641"
210925,"4303 PLATEAU ROAD","NEWTON","NC","28658"
210926,"4303 RANEY WAY","CHARLOTTE","NC","28205"
210927,"4303 RICE STREET","LIHUE","HI","96766"
210928,"4303 S BOWEN RD STE 109","ARLINGTON","TX","76016"
210929,"4303 S PROVIDENCE ROAD","COLUMBIA","MO","65203"
210930,"4303 SILVER HILL DRIVE","GREENWOOD","IN","46142"
210931,"4303 SOUTH BAY SE","MANDAN","ND","58554"
210932,"4303 SOUTH PROVIDENCE ROAD","COLUMBIA","MO","65203"
210933,"4303 STONE AVENUE","SIOUX CITY","IA","51106"
210934,"4303 TROY STREET","WAUSAU","WI","54403"
210935,"4303 W ELY RD","HANNIBAL","MO","63401"
210936,"4303 WALKER AVE","TOLEDO","OH","43612"
210937,"4303 WEST 92ND STREET","PERKINS","OK","74059"
210938,"4303 WESTLAKE CIRCLE","VAN BUREN TWP","MI","48111"
210939,"4304 10TH STREET NW","ROCHESTER","MN","55901"
210940,"4304 AIRPORT FREEWAY SUITE 110","FORT WORTH","TX","76117"
210941,"4304 ARBOR WOOD CT","BURTONSVILLE","MD","20866"
210942,"4304 BEAR CREEK LANE","MEMPHIS","TN","38141"
210943,"4304 BOULDER DRIVE","PARKER","TX","75002"
210944,"4304 BRAMBLERIDGE LANE","MIDLAND","MI","48640"
210945,"4304 BRIDLE RUN LANE","RICHMOND","VA","23223"
210946,"4304 COBURN PL APT 105","RALEIGH","NC","27616"
210947,"4304 DALTON CT","FLOYDS KNOBS","IN","47119"
210948,"4304 DECATUR DR APT 1205","COLLEGE STATION","TX","77845"
210949,"4304 GREENMOUNT RD","PHILADELPHIA","PA","19154"
210950,"4304 HUNTINGTON WOODS","WOOSTER","OH","44691"
210951,"4304 LAKELET WAY","LOUISVILLE","KY","40299"
210952,"4304 MCKINLEY STREET","HOUSTON","TX","77051"
210953,"4304 MT VERNON DRIVE","AUSTIN","TX","78745"
210954,"4304 N 138TH ST","OMAHA","NE","68164"
210955,"4304 N KINGSWOOD DR","BOISE","ID","83704"
210956,"4304 N TERRY AVENUE","OKLAHOMA CITY","OK","73111"
210957,"4304 NORTHWIND DRIVE","BAKERSFIELD","CA","93313"
210958,"4304 NW 164TH TER","EDMOND","OK","73013"
210959,"4304 OLD SAYBROOK COURT","CHARLOTTE","NC","28211"
210960,"4304 RIDERS MARK","EDMOND","OK","73025"
210961,"4304 S BIRCHWOOD AVE","SIOUX FALLS","SD","57103"
210962,"4304 SANDY BRAE DRIVE","HURLOCK","MD","21643"
210963,"4304 SHATTUCK RD","GARDEN PRAIRIE","IL","61038"
210964,"4304 SPRUCE RD","MELISSA","TX","75454"
210965,"4304 STONEBRIDGE RD","DESTIN","FL","32541"
210966,"4304 SUNDOWN ROAD","LAYTONSVILLE","MD","20882"
210967,"4304 SW 70TH TERRACE","DAVIE","FL","33314"
210968,"4304 TREECREST PKWY","DECATUR","GA","30035"
210969,"4304 TRIBORO TRAIL","AUSTIN","TX","78745"
210970,"4304 WADE DRIVE","KILLEEN","TX","76549"
210971,"4304 WALNUT ST  STE 1","MCKEESPORT","PA","15135"
210972,"4304 WARFIELD PLACE","RALEIGH","NC","27604"
210973,"43041 MOODY DIXON ROAD","PRAIRIEVILLE","LA","70769"
210974,"43043 STRAND DRIVE","STERLING HEIGHTS","MI","48313"
210975,"4305 AFTONSHIRE DRIVE","WILMINGTON","NC","28412"
210976,"4305 BARBARA DRIVE","KNOXVILLE","TN","37918"
210977,"4305 BRENDA DRIVE","FLOWER MOUND","TX","75022"
210978,"4305 BUCKSKIN WOOD DRIVE","ELLICOTT CITY","MD","21042"
210979,"4305 CHURCH AVE","BROOKLYN","NY","11203"
210980,"4305 CLEVELAND STREET","HOLLYWOOD","FL","33021"
210981,"4305 CROSSWINDS DR","EASTON","PA","18045"
210982,"4305 DONNA WAY","LITHONIA","GA","30038"
210983,"4305 DONNELLY AVE","FORT WORTH","TX","76107"
210984,"4305 ENTERPRISE DRIVE SUITE D","WINSTON SALEM","NC","27106"
210985,"4305 HARFORD RD","TOWSON","MD","21214"
210986,"4305 HARVEST HILL RD","MEMPHIS","TN","38141"
210987,"4305 KEY WEST DRIVE","CORPUS CHRISTI","TX","78411"
210988,"4305 KIMBALL RD  SW","ATLANTA","GA","30331"
210989,"4305 LANDSDALE BLVD","MONROVIA","MD","21770"
210990,"4305 MELROSE AVENUE","JACKSONVILLE","FL","32210"
210991,"4305 MESQUITE TERRACE DRIVE","MANVEL","TX","77578"
210992,"4305 N 12TH ST","QUINCY","IL","62305"
210993,"4305 N LOOKOUT STREET","LITTLE ROCK","AR","72205"
210994,"4305 N MOBILE AVE","CHICAGO","IL","60634"
210995,"4305 NE BLUE SPRUCE AVENUE","BENTONVILLE","AR","72712"
210996,"4305 NORTH FARWELL AVENUE","SHOREWOOD","WI","53211"
210997,"4305 NW 16TH TERRACE","OKLAHOMA CITY","OK","73107"
210998,"4305 OLD TANEYTOWN ROAD","TANEYTOWN","MD","21787"
210999,"4305 OVEREND AVE","RICHMOND","CA","94124"
211000,"4305 PAXTON LN STE 519","LILBURN","GA","30047"
