"ID","Address","City","State","Zip"
31001,"1170 SUTHERLAND AVE","AKRON","OH","44314"
31002,"1170 THOMAS STREET","MOORE HAVEN","FL","33417"
31003,"1170 THORNDALE DR","AKRON","OH","44320"
31004,"1170 TREE SWALLOW DR STE 302","WINTER SPRINGS","FL","32708"
31005,"1170 TURTLE CREEK DR APT 1134","NAPLES","FL","34110"
31006,"1170 W 103RD STREET","KANSAS CITY","MO","64114"
31007,"1170 WEST RIVER PARK DRIVE","INKSTER","MI","48141"
31008,"11700 AUDELIA ROAD NO 112","DALLAS","TX","75243"
31009,"11700 BISSONNET STREET APT 504","HOUSTON","TX","77099"
31010,"11700 CHERRY GROVE DR","N POTOMAC","MD","20878"
31011,"11700 CR 177","BULLARD","TX","75757"
31012,"11700 EAST JEFFERSON","DETROIT","MI","48214"
31013,"11700 FERNSHIRE ROAD","GAITHERSBURG","MD","20878"
31014,"11700 HIGHWAY 99 SOUTH","ASHLAND","OR","97520"
31015,"11700 HWY 50","DADEVILLE","AL","36853"
31016,"11700 LEBANON RD APT 1627","FRISCO","TX","75035"
31017,"11700 LUNA ROAD UNIT 12204","DALLAS","TX","75234"
31018,"11700 MERIDIAN AVE S","EVERETT","WA","98208"
31019,"11700 N MERIDIAN RD","PLEASANT LAKE","MI","49272"
31020,"11700 NW 8TH ST","PLANTATION","FL","33325"
31021,"11700 OCKLAWAHA DR","LEESBURG","FL","34788"
31022,"11700 OLD COLUMBIA PIKE  APT 1311","SILVER SPRING","MD","20904"
31023,"11700 OLD COLUMBIA PIKE","SILVER SPRING","MD","20904"
31024,"11700 PRESTON ROAD SUITE 660 - 229","DALLAS","TX","75230"
31025,"11700 W CHARLESTON  BLVD 170-443","LAS VEGAS","NV","89135"
31026,"11700 W CHARLESTON BLVD  NO 170 373","LAS VEGAS","NV","89135"
31027,"11700 W CHARLESTON BLVD STE 170-357","LAS VEGAS","NV","89135"
31028,"11700 W CHARLESTON BLVD STE 170-420","LAS VEGAS","NV","89135"
31029,"11700 WEST COUNTY ROAD 122","ODESSA","TX","79765"
31030,"11701 100TH AVE NE","KIRKLAND","WA","98034"
31031,"11701 BERWICK RD","SILVER SPRING","MD","20904"
31032,"11701 DANIELSON ST APT 101","CANYON COUNTRY","CA","91387"
31033,"11701 INVIDIA COURT","BAKERSFIELD","CA","93312"
31034,"11701 NORTH WEST 12TH AVENUE","MIAMI","FL","33168"
31035,"11701 S STATE STREET APT 509","CHICAGO","IL","60628"
31036,"11701 S STATE STREET","CHICAGO","IL","60628"
31037,"11701 SW 177 TERRACE","WINTER HAVEN","FL","33884"
31038,"11701 SWARTS DR","FAIRFAX","VA","22030"
31039,"11701 TELFAIR RD","PHILADELPHIA","PA","19154"
31040,"11701 W 36TH STREET","LITTLE ROCK","AR","72211"
31041,"11701 WEST 36TH STREET","LITTLE ROCK","AR","72211"
31042,"11701 YATES FORD RD","FAIRFAX STATION","VA","22039"
31043,"11702 135 AVENUE","SOUTH OZONE PARK","NY","11420"
31044,"11702 175TH STREET","ARTESIA","CA","90701"
31045,"11702 ALDERIDGE LANE","SAN DIEGO","CA","92131"
31046,"11702 FAWNVIEW DRIVE","HOUSTON","TX","77070"
31047,"11702 FULHAM ROAD","SILVER SPRING","MD","20902"
31048,"11702 GATES CR","BELLEVUE","NE","68123"
31049,"11702 GRANT RD STE E","CYPRESS","TX","77429"
31050,"11702 NORMONT DR","HOUSTON","TX","77070"
31051,"11702 PINE STREET","LOS ALAMITOS","CA","90720"
31052,"11702 SE 157TH ST","RENTON","WA","98058"
31053,"11702-B GRANT ROAD SUITE 136","CYPRESS","TX","77429"
31054,"11703 MCCRACKEN ROAD- LOWER","GARFIELD HEIGHTS","OH","44125"
31055,"11703 NE 11TH PLACE APT 1","BISCAYNE PARK","FL","33161"
31056,"11703 NORINO DRIVE","WHITTIER","CA","90601"
31057,"11703 PENDER LANE","STAFFORD","TX","77477"
31058,"11703 ROAD 1 SE","MOSES LAKE","WA","98837"
31059,"11703 VALE ROAD","OAKTON","VA","22124"
31060,"11704 60 3/4 RD","COLLBRAN","CO","81624"
31061,"11704 ABERDEEN ROAD","LEAWOOD","KS","66211"
31062,"11704 MEDICINE BOW PL SE","ALBUQUERQUE","NM","87123"
31063,"11704 PLEASANT RIDGE DR APT 802","LITTLE ROCK","TX","72223"
31064,"11704 SAVONA WAY","ORLANDO","FL","32827"
31065,"11704 TENNESSEE AVENUE","LOS ANGELES","CA","90064"
31066,"11704 WHITTIER ROAD","MITCHELLVILLE","MD","20721"
31067,"11705 2ND DR SE - A","EVERETT","WA","98208"
31068,"11705 AIRPORT WAY SUITE 307","BROOMFIELD","CO","80021"
31069,"11705 BIG CANOE","JASPER","GA","30143"
31070,"11705 BOYETTE ROAD SUITE 254","RIVERVIEW","FL","33569"
31071,"11705 BOYETTE ROAD SUITE 276","RIVERVIEW","FL","33569"
31072,"11705 BOYETTE ROAD SUITE 424","RIVERVIEW","FL","33569"
31073,"11705 BOYETTE ROAD SUITE 525","RIVERVIEW","FL","33569"
31074,"11705 NE 11 PLACE","MIAMI","FL","33161"
31075,"11705 WASHINGTON ST","KANSAS CITY","MO","64114"
31076,"11706 218 AVE CT E","BONNEY LAKE","WA","98391"
31077,"11706 APPLE BLOSSOM CT","FREDERICKSBURG","VA","22407"
31078,"11706 COLDSTREAM DR","POTOMAC","MD","20854"
31079,"11706 FORTUNE PARK DR","HOUSTON","TX","77047"
31080,"11706 HADLEY","OVERLAND PARK","KS","66210"
31081,"11706 HARRISTOWN DR","HOUSTON","TX","77047"
31082,"11706 HILLCROFT STREET","HOUSTON","TX","77035"
31083,"11706 LONGWOOD GARDEN WAY","HOUSTON","TX","77047"
31084,"11706 MEADOWCHASE DR","HOUSTON","TX","77065"
31085,"11706 NAVEL AVE","MORENO VALLEY","CA","92557"
31086,"11706 NORTH MARIANNE CIRCLE","HOUSTON","TX","77071"
31087,"11706 TIMBERKNOLL ST","HOUSTON","TX","77024"
31088,"11706 W DONALD CT","SUN CITY","AZ","85373"
31089,"11706 W MOUNTAIN VIEW DR","AVONDALE","AZ","85323"
31090,"11707 PENDLETON PIKE","INDIANAPOLIS","IN","46236"
31091,"11707 S 110TH AVE","PAPILLION","NE","68046"
31092,"11707 S MORGAN ST","CHICAGO","IL","60643"
31093,"11708 E 75TH ST","RAYTOWN","MO","64138"
31094,"11709 250TH AVE E","BUCKLEY","WA","98321"
31095,"11709 DUCKETTOWN ROAD","LAUREL","MD","20708"
31096,"11709 N MARLTON AVENUE","UPPER MARLBORO","MD","20772"
31097,"11709 N MICKE GROVE RD","LODI","CA","95240"
31098,"11709 ROE AVENUE SUITE D210","LEAWOOD","KS","66211"
31099,"11709 S 75TH EAST AVE","BIXBY","OK","74008"
31100,"11709 S OAK ST","JENKS","OK","74037"
31101,"11709 SAVORY DRIVE","FORT WORTH","TX","76244"
31102,"11709 W CLEVELAND AVE  SUITE 2","WEST ALLIS","WI","53227"
31103,"11709 WOODLEY AVE","GRANADA HILLS","CA","91344"
31104,"1170C ADAMLEE PLACE","LIMA","OH","45801"
31105,"1171 108TH PL","KNOXVILLE","IA","50138"
31106,"1171 ALLEN AVENUE UNIT 302","GLENDALE","CA","91201"
31107,"1171 BLUE RIDGE LANE","COLTON","CA","92324"
31108,"1171 CROCKETT DRIVE","OLIVETTE","MO","63132"
31109,"1171 E 19TH ST","BROOKLYN","NY","11230"
31110,"1171 EVENING CANYON AVE","HENDERSON","NV","89014"
31111,"1171 FOLKSTONE DRIVE","MCDONOUGH","GA","30253"
31112,"1171 GLENDALE DRIVE","GREENSBORO","NC","27406"
31113,"1171 LINDEN AVE","HIGHLAND PARK","IL","60035"
31114,"1171 N 17TH AVE","BLAIR","NE","68008"
31115,"1171 OAK RIDGE RD","BUCHANAN","VA","24066"
31116,"1171 OAK STREET","JUNCTION CITY","OR","97448"
31117,"1171 ROCK CREEK RD","POMONA","KS","66076"
31118,"1171 S MAIN ST","CHELSEA","MI","48118"
31119,"1171 S ROBERTSON BLVD SUITE 271","LOS ANGELES","CA","90035"
31120,"1171 S ROBERTSON NUM 243","LOS ANGELES","CA","90035"
31121,"1171 S WEST TEMPLE","SALT LAKE CITY","UT","84101"
31122,"1171 TEA ROSE CIRCLE","SAN JOSE","CA","95131"
31123,"1171 VIRGINIA ST","BERKELEY","CA","94702"
31124,"1171 W SAN BERNARDINO SUITE E","COVINA","CA","91722"
31125,"1171 WAHL ST","BURNS HARBOR","IN","46304"
31126,"1171 WATTS AVE","UNIVERSITY CITY","MO","63130"
31127,"1171 WHITLOCK AVE NW","MARIETTA","GA","30064"
31128,"1171","MARIETTA","GA","30064"
31129,"11710 138TH ST CT E","PUYALLUP","WA","98374"
31130,"11710 ADRIANA MARIA","SAN ANTONIO","TX","78253"
31131,"11710 BRIAR FOREST DRIVE APT 1806","HOUSTON","TX","77077"
31132,"11710 MONTGOMERY CIRCLE","LONGMONT","CO","80504"
31133,"11710 OLD GEORGETOWN ROAD 1429","ROCKVILLE","MD","20852"
31134,"11710 OLD GEORGETOWN ROAD UNIT 1623","NORTH BETHESDA","MD","20852"
31135,"11710 OLDE ENGLISH DR UNIT K","RESTON","VA","20190"
31136,"11710 OVERSEAS HWY","MARATHON","FL","33050"
31137,"11710 PARLIAMENT ST APT 701","SAN ANTONIO","TX","78213"
31138,"11710 PLAZA AMERICA DR SUITE 1000","RESTON","VA","20190"
31139,"11710 PLAZA AMERICA DRIVE STE 2000","RESTON","VA","20190"
31140,"11710 PLAZA AMERICA DRIVE SUITE 130","RESTON","VA","20190"
31141,"11710 SANDY STREAM DR","TOMBALL","TX","77375"
31142,"11710 STERLING BROOK ST","PEARLAND","TX","77584"
31143,"11711 26 MILE","WASHINGTON","MI","48094"
31144,"11711 4TH AVE W","EVERETT","WA","98204"
31145,"11711 COLLETT AVE APT 2214","RIVERSIDE","CA","92505"
31146,"11711 MEMORIAL 57","HOUSTON","TX","77024"
31147,"11711 NORTH COLLEGE AVE SUITE 180","CARMEL","IN","46032"
31148,"11711 PRINCETON PIKE STE 301-206","CINCINNATI","OH","45246"
31149,"11711 PRINCETON PIKE SUITE 341-238","SPRINGDALE","OH","45246"
31150,"11711 RIVER VINE CT","TOMBALL","TX","77377"
31151,"11712 ARLINGTON AVE","NORTHPORT","AL","35475"
31152,"11712 CENTURION WAY","POTOMAC","MD","20854"
31153,"11712 COUNTY ROAD 37","WAYLAND","NY","14572"
31154,"11712 GWENDOLYN LANE","OKLAHOMA CITY","OK","73131"
31155,"11712 JEFFERSON AVENUE STE C476","NEWPORT NEWS","VA","23606"
31156,"11712 N CHARLOTTE ST","KANSAS CITY","MO","64155"
31157,"11712 PACESFERRY DRIVE","RALEIGH","NC","27614"
31158,"11712C JEFFERSON AVE STE C283","NEWPORT NEWS","VA","23606"
31159,"11713 FORT CAROLINE LAKES CT","JACKSONVILLE","FL","32225"
31160,"11713 GEORGIA AVE N","CHAMPLIN","MN","55316"
31161,"11713 GLEN ABBEY COURT","WALDORF","MD","20602"
31162,"11713 S LOCUST AVE","JENKS","OK","74037"
31163,"11713 SOUTH BISHOP","CHICAGO","IL","60643"
31164,"11714 BIXBY HILL RD PO BOX 183","ARCADE","NY","14009"
31165,"11714 DUNES ROAD","BOYNTON BEACH","FL","33436"
31166,"11714 KENNEDY LANE","FREDERICKSBURG","VA","22407"
31167,"11714 KENNINGTON SQUARE E","PICKERINGTON","OH","43147"
31168,"11714 SE 239TH PL","KENT","WA","98031"
31169,"11714 WILDWOOD RIDGE DRIVE","COLORADO SPRINGS","CO","89021"
31170,"11715  238TH ST","ELMONT","NY","11003"
31171,"11715 BROCKRIDGE COURT","BAKERSFIELD","CA","93312"
31172,"11715 GULF STATION","HELOTES","TX","78023"
31173,"11715 LEONESSA DR","RICHMOND","TX","77406"
31174,"11715 NERO DR","FLORISSANT","MO","63033"
31175,"11715 TIMBERLAKE DR","SAN DIEGO","CA","92131"
31176,"11715 W 107TH AVE","WESTMINSTER","CO","80021"
31177,"11715 W 81ST AVE","ARVADA","CO","80005"
31178,"11715-C BELLFORT VILLAGE","HOUSTON","TX","77031"
31179,"11716 DUNHAM ROAD","SAGAMORE HILLS","OH","44067"
31180,"11716 EASTFIELD RD","POWAY","CA","92064"
31181,"11716 NW 17TH","YUKON","OK","73099"
31182,"11716 PLEASANT RIDGE CIRCLE APT1904","LITTLE ROCK","AR","72223"
31183,"11717 5TH ST  -  PO BOX 65","NORTH ZULCH","TX","77872"
31184,"11717 BERNARDO PLAZA CT 205","SAN DIEGO","CA","92128"
31185,"11717 KIMBOLTON PLACE","GLEN ALLEN","VA","23059"
31186,"11717 KINGFISHER LANE","JACKSONVILLE","FL","32218"
31187,"11717A REISTERSTOWN","MARYLAND","MD","21136"
31188,"11718 GWYNNE LANE","LOS ANGELES","CA","90077"
31189,"11718 N WILLOW CIR","HOUSTON","TX","77071"
31190,"11718 NORWICK PLAZA APT 40","OMAHA","NE","68164"
31191,"11718 S FEDERAL HIGHWAY SUITE 425","HOBE SOUND","FL","33455"
31192,"11718 SWEETBRIAR RIDGE DR","CHARLOTTE","NC","28269"
31193,"11719 258TH AVENUE E","BUCKLEY","WA","98321"
31194,"11719 COOPER RD","CHISHOLM","MN","55719"
31195,"11719 ERWIN RIDGE AVE","CHARLOTTE","NC","28213"
31196,"11719 GILA BEND LANE","TOMBALL","TX","77377"
31197,"11719 S VAN NESS AVENUE","HAWTHORNE","CA","90250"
31198,"1172 BRAMPTON PLACE","LAKE MARY","FL","32746"
31199,"1172 BURNSIDE RD","SEBASTOPOL","CA","95472"
31200,"1172 FIRST AVENUE","SALT LAKE CITY","UT","84103"
31201,"1172 HASTINGS CT","SANTA MARIA","CA","93455"
31202,"1172 HUMMINGBIRD LANE","PLYMOUTH","WI","53073"
31203,"1172 HWY 28","BLAND","MO","65014"
31204,"1172 JAY ST","BOULDER","CO","80302"
31205,"1172 KNOLL CREST CT","TRAVERSE CITY","MI","49686"
31206,"1172 KOEBEL RD","COLUMBUS","OH","43207"
31207,"1172 MURPHY AVE STE 241","SAN JOSE","CA","95131"
31208,"1172 MURPHY AVE SUITE 237","SAN JOSE","CA","95131"
31209,"1172 N 200 EAST RD","CERRO GORDO","IL","61818"
31210,"1172 NE 210TH TERRACE","MIAMI","FL","33179"
31211,"1172 OCEAN AVE LOWER","OAKLAND","CA","94608"
31212,"1172 OLD SALEM RD","CONYERS","GA","30094"
31213,"1172 OLD SALEM ROAD","CONYERS","GA","30094"
31214,"1172 ORLEANS DR","MUNDELEIN","IL","60060"
31215,"1172 RED ASH CT","CENTERVILLE","OH","45458"
31216,"1172 RIDGE ROAD","POTTSTOWN","PA","19465"
31217,"1172 RIDGEWAY AVE","VINCENNES","IN","47591"
31218,"1172 RUSSELL DRIVE","DECATUR","GA","30030"
31219,"1172 S DIXIE HWY STE 554","CORAL GABLES","FL","33146"
31220,"1172 SALEM RIDGE LANE","CINCINNATI","OH","45230"
31221,"1172 SHADOW LN","TOLEDO","OH","43615"
31222,"1172 SHOMAN ST","WATERFORD","MI","48327"
31223,"1172 SOUTH DIXIE HWY  STE 461","CORAL GABLES","FL","33146"
31224,"1172 SOUTH DIXIEHIGHWAY NUM 472","MIAMI","FL","33146"
31225,"1172 SPENCER HILL DRIVE","ST. PETERS","MO","63376"
31226,"1172 STADIUM ROAD - ROOM 117C","GAINESVILLE","FL","32611"
31227,"1172 SWEEPING OAKS DRIVE","SAINT CHARLES","MO","63304"
31228,"1172 TRISTRAM CIRCLE","MANTUA","NJ","08051"
31229,"1172 YORK STREET SUITE 7","DENVER","CO","80206"
31230,"11720 BELTSVILLE DR SUITE 800-A18","UPPER MARLBORO","MD","20705"
31231,"11720 CAPSTAN DRIVE","UPPER MARLBORO","MD","20772"
31232,"11720 DREXWOOD DRIVE","PRINCESS ANNE","MD","21853"
31233,"11720 EDGEWATER DR","LAKEWOOD","OH","44107"
31234,"11720 GLEN COURT","POTOMAC","MD","20854"
31235,"11720 MCGINTY DRIVE","FREDERICKSBURG","VA","22407"
31236,"11720 OLIVE BLVD","CREVE COEUR","MO","63141"
31237,"11720 PORTER VALLEY DR","NORTHRIDGE","CA","91326"
31238,"11720 SR 27","HECTOR","AR","72843"
31239,"11720 STATE RT H SE","AGENCY","MO","64401"
31240,"11720 US HWY 19 SUITE 6","PORT RICHEY","FL","34668"
31241,"11721 183RD STREET - 362","ARTESIA","CA","90701"
31242,"11721 COPPERGATE DRIVE","RALEIGH","NC","27614"
31243,"11721 HEIGHTS TRAIL LN","PEARLAND","TX","77584"
31244,"11721 MORNINGMIST LN","COLUMBIA","MD","21044"
31245,"11721 NC HWY 119 N","SEMORA","NC","27343"
31246,"11721 OAK AVENUE NORTH","SEMINOLE","FL","33772"
31247,"11721 PARKWAY DRIVE","NORTH HUNTINGDON","PA","15642"
31248,"11721 THISTLEHILL DR","LOVELAND","OH","45140"
31249,"11721 WEST GREAT LAKES ROAD","CARRIER","OK","73727"
31250,"11721 WHITTIER BLVD  UNIT 233","WHITTIER","CA","90601"
31251,"11721 WHITTIER BLVD 149","WHITTIER","CA","90601"
31252,"11721 WHITTIER BLVD NO 245","WHITTIER","CA","90601"
31253,"11722 CABOT HILL ST","HOUSTON","TX","77044"
31254,"11722 LARRY ROAD","FAIRFAX","VA","22030"
31255,"11722 LONG LEAF CIR","SAINT LOUIS","MO","63146"
31256,"11722 NEWEL ELM ST","HOUSTON","TX","77038"
31257,"11722 PERRY CROSSING PKWY","SELLERSBURG","IN","47172"
31258,"11722 WEST DODGE ROAD","OMAHA","NE","68154"
31259,"117220 NW 20 AVENUE","MIAMI GARDENS","FL","33056"
31260,"11723 CARAWAY HILL","SAN ANTONIO","TX","78245"
31261,"11723 NORTH MARJORY AVENUE","TAMPA","FL","33612"
31262,"11723 SHOTGUN WAY","HELOTES","TX","78023"
31263,"11723 SOLANO CT","MEADOWS PLACE","TX","77477"
31264,"11724 BALLAH ROAD","ORIENT","OH","43146"
31265,"11724 DOVE AVE","CLEVELAND","OH","44105"
31266,"11724 EDISON DRIVE","KNOXVILLE","TN","37932"
31267,"11724 OAK ST","SAN ANTONIO","FL","33576"
31268,"11724 RD DD","ATWOOD","KS","67730"
31269,"11724 SW 115 TERRACE","MIAMI","FL","33186"
31270,"11725 15TH AVE NE APT 407","SEATTLE","WA","98125"
31271,"11725 171ST PL NE","REDMOND","WA","98052"
31272,"11725 1ST AVE NE","SEATTLE","WA","98125"
31273,"11725 DONNER PASS RD","TRUCKEE","CA","96161"
31274,"11725 DOWNEY AVE 7","DOWNEY","CA","90241"
31275,"11725 LE HAVRE DR","POTOMAC","MD","20854"
31276,"11725 SHANNON POINTE RD","INDIANAPOLIS","IN","46229"
31277,"11725 STOCKDALE CT","PINEVILLE","NC","28134"
31278,"11725 SUN GLASS DR","MANOR","TX","78653"
31279,"11726 9TH AVE NE","SEATTLE","WA","98125"
31280,"11726 BIRCH MEADOW DRIVE","HOUSTON","TX","77071"
31281,"11726 CRITTON CIRCLE","WOODBRIDGE","VA","22192"
31282,"11726 FOREST COURT","DALLAS","TX","75230"
31283,"11726 N CRESCENT PARK DR","HOUSTON","TX","77067"
31284,"11727 DRAYTON DR","AUSTIN","TX","78758"
31285,"11727 E SAM HOUSTON PARKWAY N","HOUSTON","TX","77044"
31286,"11728 ANNANDALE RD","CROWLEY","TX","76036"
31287,"11728 E GOLF LINKS RD","TUCSON","AZ","85730"
31288,"11728 FAUNCETOWN ROAD","TOWNVILLE","PA","16360"
31289,"11728 PALMER COURT","FAYETTEVILLE","GA","30215"
31290,"11728 ROCK CREEK ROAD","MULBERRY","AR","72947"
31291,"11728 WEST MAUNA LOA LANE","EL MIRAGE","AZ","85335"
31292,"11729 FAN TAIL LANE","ORLANDO","FL","32827"
31293,"1173 BENNETT RD","POWDER SPRINGS","GA","30127"
31294,"1173 BERGEN STREET","NEWARK","NJ","07112"
31295,"1173 CADILLAC BLVD","AKRON","OH","44320"
31296,"1173 CHARLES AVE","FLINT","MI","48505"
31297,"1173 DEVONSHIRE DRIVE","VACAVILLE","CA","95687"
31298,"1173 E HUDSON ST","COLUMBUS","OH","43211"
31299,"1173 E SAN TAN DR","GILBERT","AZ","85296"
31300,"1173 EAST ISLAND PLACE","MEMPHIS","TN","38103"
31301,"1173 ELM AVE","SEASIDE","CA","93955"
31302,"1173 GLENFIELD DR","SALISBURY","NC","28147"
31303,"1173 GREYWOOD LN","THE VILLAGES","FL","32163"
31304,"1173 HIGHWAY 359","WASHINGTON","LA","70589"
31305,"1173 MADISON AVE N","BAINBRIDGE ISLAND","WA","98110"
31306,"1173 OSPREY WAY","APOPKA","FL","32712"
31307,"1173 PHILIPSBURG BIGLER HWY","PHILIPSBURG","PA","16866"
31308,"1173 PLANTATION PASS","GALLATIN","TN","37066"
31309,"1173 PRAIRIE VIEW DR 73305","WEST DES MONIES","IA","50266"
31310,"1173 S 250 W STE 201","ST GEORGE","UT","84770"
31311,"1173 S 250 W STE 301","SAINT GEORGE","UT","84770"
31312,"1173 S 250 W","SAINT GEORGE","UT","84770"
31313,"1173 SCENIC DRIVE","SHELBY","NC","28150"
31314,"1173 STATION RD","VALLEY CITY","OH","44280"
31315,"1173 TYLER RD","DENMARK","SC","29042"
31316,"1173 W LIVE OAK ST","MIAMI","AZ","85539"
31317,"1173 WILLIAMS LANE","HANAHAN","SC","29410"
31318,"11730 CLIFFWOOD RD","VICTORVILLE","CA","92392"
31319,"11730 GREEN CORAL DR","HOUSTON","TX","77044"
31320,"11730 KOUROS WAY","RANCHO CORDOVA","CA","95742"
31321,"11730 MARKSBERRY LANE UNIT A","CINCINNATI","OH","45249"
31322,"11730 N FARNSWORTH RD","HAYWARD","WI","54843"
31323,"11730 S SAM HOUSTON PKWY W","HOUSTON","TX","77031"
31324,"11730 SELA LN","HOUSTON","TX","77072"
31325,"11730 SR 131","SYMSONIA","KY","42082"
31326,"11730 SW BEL AIRE LN APT 8","BEAVERTON","OR","97008"
31327,"11730 TANEYTOWN PIKE","TANEYTOWN","MD","21787"
31328,"11731 JONQUIL ST NW","COON RAPIDS","MN","55433"
31329,"11731 SAND CREEK BOULEVARD","FISHERS","IN","46037"
31330,"11731 SW 45TH AVE","PORTLAND","OR","97219"
31331,"11732 SMITHFORD RD","HICKORY GROVE","SC","29717"
31332,"11733 BLUE TICK CT","CHARLOTTE","NC","28269"
31333,"11733 NATURE TRAIL","PORT RICHEY","FL","34668"
31334,"11733 SHERWOOD WAY","AUBURN","CA","95602"
31335,"11733 WAYNERIDGE STREET","FULTON","MD","20759"
31336,"11733 WHITCOMB STREET","DETROIT","MI","48227"
31337,"11734 BUCKWHEAT ROAD","ALDEN","NY","14004"
31338,"11734 WILSHIRE BLVD C-108","LOS ANGELES","CA","90025"
31339,"11735 HOYT AVE","TAMPA","FL","33617"
31340,"11735 LUCILLE","OVERLAND PARK","KS","66210"
31341,"11736 OSPREY POINTE BLVD","CLERMONT","FL","34711"
31342,"11737 78TH AVE","ALLENDALE","MI","49401"
31343,"11737 W LARCH RD","TRACY","CA","95304"
31344,"11738 COURTLEIGH DR  112","LOS ANGELES","CA","90066"
31345,"11738 PLUMPOINT DR","HOUSTON","TX","77099"
31346,"11739 207TH STREET","LAKEWOOD","CA","90715"
31347,"1174 54TH AVE S","SAINT PETERSBURG","FL","33705"
31348,"1174 CREEK LOCKS ROAD 330","BLOOMINGTON","NY","12411"
31349,"1174 EASTERN PARKWAY","BROOKLYN","NY","11213"
31350,"1174 FIRST AVENUE","BERWICK","PA","18603"
31351,"1174 FOREST  BLUFF TRAIL","ROUND ROCK","TX","78665"
31352,"1174 FOREST AVE APT 3","BRONX","NY","10456"
31353,"1174 J A COCHRAN BYPASS","CHESTER","SC","29706"
31354,"1174 KIPLING COURT","LANSDALE","PA","19446"
31355,"1174 KRA NUR DRIVE","BURTON","MI","48509"
31356,"1174 LOUISVILLE HIGHWAY","GOODLETTSVILLE","TN","37072"
31357,"1174 NE 10TH ST","GRANTS PASS","OR","97526"
31358,"1174 PACES CREEK ROAD","MANCHESTER","KY","40962"
31359,"1174 PELHAM WOOD ROAD","PARKVILLE","MD","21234"
31360,"1174 POLSON AVE","CLOVIS","CA","93612"
31361,"1174 POWELL CT SE","ATLANTA","GA","30316"
31362,"1174 RED DUNES RUN","AVON","IN","46123"
31363,"1174 REDDING LANE","LINCOLNTON","NC","28092"
31364,"1174 SAND HILL ROAD","HOPE MILLS","NC","28348"
31365,"1174 VAN ANTWERP RD","NISKAYUNA","NY","12309"
31366,"1174 WEST FARMS RD 3B","BRONX","NY","10459"
31367,"1174 WHITTEN RD","MEMPHIS","TN","38134"
31368,"1174 WILLIS COTTON ROAD","SUMMIT","MS","39666"
31369,"1174 WOODLAND CHURCH RD","WAKE FOREST","NC","27587"
31370,"11740 BANDERA AVE APARTMENT 308","LOS ANGELES","CA","90059"
31371,"11740 DUBLIN BLVD STE 205","DUBLIN","CA","94568"
31372,"11740 SAN VICENTE BLVD STE 109-555","LOS ANGELES","CA","90049"
31373,"11740 SAN VICENTE BLVD STE 109","LOS ANGELES","CA","90049"
31374,"11740 SERENITY LANE","INDIANAPOLIS","IN","46229"
31375,"11740 WILSHIRE BLVD APT A207","LOS ANGELES","CA","90025"
31376,"11741 CEDAR ROCK DR NE","ROCKFORD","MI","49341"
31377,"11742 BATTLE RIDGE ROAD","REMINGTON","VA","22734"
31378,"11742 GREEN COLLING PARK DR","HOUSTON","TX","77047"
31379,"11742 US HWY 431","BOAZ","AL","35956"
31380,"11742 WAYWARD DAISY","SAN ANTONIO","TX","78245"
31381,"11742 WILSHIRE","DETROIT","MI","48213"
31382,"11743 19TH AVE NE","SEATTLE","WA","98125"
31383,"11743 ECKERT LN","ST LOUIS","MO","63138"
31384,"11743 HG TRUEMAN ROAD","LUSBY","MD","20657"
31385,"11743 PORTOLA COURT","ADELANTO","CA","92301"
31386,"11744 172ND CT NE","REDMOND","WA","98052"
31387,"11744 COUNTY ROAD 10","UNION SPRINGS","AL","36089"
31388,"11744 FLAMINGO DRIVE","BATON ROUGE","LA","70814"
31389,"11744 PETIT PIERRE AVENUE","BATON ROUGE","LA","70810"
31390,"11744 SE SUNNY WAY","HAPPY VALLEY","OR","97086"
31391,"11745 CASA LINDA CT","DUBLIN","CA","94568"
31392,"11745 DURLAND AVE NE","SEATTLE","WA","98125"
31393,"11745 RANCHO DR","LEESBURG","FL","34788"
31394,"11745 SAN ROSARITA COURT","LAS VEGAS","NV","89138"
31395,"11745 SE 321ST PL","AUBURN","WA","98092"
31396,"11745 SW 26 CT","MIRAMAR","FL","33025"
31397,"11745 WESTPORT CROSSING DRIVE","ST LOUIS","MO","63146"
31398,"11746 CHERRY POINT","JEROME","MI","49249"
31399,"11746 GREEN CORAL DR","HOUSTON","TX","77044"
31400,"11746 S HARRELLS FERRY RD C","BATON ROUGE","LA","70816"
31401,"11746 S LAKE STONE CIRCLE","SOUTH JORDAN","UT","84009"
31402,"11747 173RD PL NE","REDMOND","WA","98052"
31403,"11747 KY HIGHWAY 698","HUSTONVILLE","KY","40437"
31404,"11747 SE FLORIDA AVE","HOBE SOUND","FL","33455"
31405,"11747 SOUTH VERMONT BLVD UNIT 1","LOS ANGELES","CA","90044"
31406,"11748 S 252ND EAST AVE","BROKEN ARROW","OK","74014"
31407,"11748 VILLAGE POND WAY","RANCHO CORDOVA","CA","95742"
31408,"11749 DURRAND","COLLEGE STATION","TX","77845"
31409,"11749 WATERCREST LANE","BOCA RATON","FL","33498"
31410,"11749 WEST LOAMI ROAD","LOAMI","IL","62661"
31411,"1175 85TH AVE NW","MOORHEAD","MN","56560"
31412,"1175 ALEXANDER WAY APT 103","NORTH LIBERTY","IA","52317"
31413,"1175 ALLISON RD","BELLEFONTAINE","OH","43311"
31414,"1175 AMBLE DR","ARDEN HILLS","MN","55112"
31415,"1175 BANDY RUN ROAD","HERNDON","VA","20170"
31416,"1175 BECHTEL AVE","MANSFIELD","OH","44905"
31417,"1175 BRANHAM LN UNIT 18655","SAN JOSE","CA","95158"
31418,"1175 BROOKS PARK DR","OKOBOJI","IA","51355"
31419,"1175 BUFORD HIGHWAY SUITE 112","SUWANNE","GA","30024"
31420,"1175 CANE BAY BLVD","SUMMERVILLE","SC","29486"
31421,"1175 CARBONE DR","COLUMBUS","OH","43224"
31422,"1175 CHADBYRNE DRIVE","COLUMBUS","OH","43235"
31423,"1175 CONCORD TURNPIKE","ARLINGTON","MA","02474"
31424,"1175 COUNTY LINE RD WEST","EASTABOGA","AL","36260"
31425,"1175 CRIMSON CLOVER DRIVE","CONWAY","AR","72034"
31426,"1175 DICKINSON ST","ELIZABETH","NJ","07201"
31427,"1175 E CACTUS ROAD","PALM SPRINGS","CA","92264"
31428,"1175 E OCEAN AVE 209","LONG BEACH","CA","90802"
31429,"1175 EAST INDIAN VALLEY DR","OZARK","MO","65721"
31430,"1175 ELLINGTON ROAD","SOUTH WINDSOR","CT","06074"
31431,"1175 ELM TERRACE","RAHWAY","NJ","07065"
31432,"1175 FINDLAY AVENUE -- 13V","BRONX","NY","10456"
31433,"1175 GARNER AVENUE","SCHENECTADY","NY","12309"
31434,"1175 GREEN STREET","CONYERS","GA","30012"
31435,"1175 HIDDEN HARBOR LN","KISSIMMEE","FL","34746"
31436,"1175 KARLA DR","PARIS","KY","40361"
31437,"1175 KELLUM LOOP RD","JACKSONVILLE","NC","28546"
31438,"1175 KINWEST PARKWAY SUITE 100","IRVING","TX","75063"
31439,"1175 LIVINGSTON AVENUE","NEW BRUNSWICK","NJ","08902"
31440,"1175 MAYFAIR LN","GLENCOE","IL","60022"
31441,"1175 MENDENHALL PENINSULA RD","JUNEAU","AK","99801"
31442,"1175 N HILL AVE","PASADENA","CA","91104"
31443,"1175 N ROCK ISLAND RD","MARGATE","FL","33063"
31444,"1175 NE 125TH ST STE 214","NORTH MIAMI","FL","33161"
31445,"1175 NORTH KESTREL LANE NUMBER 206","LOUISVILLE","CO","80027"
31446,"1175 NW 67 STREET","MIAMI","FL","33150"
31447,"1175 OLD HARRIS ROAD APT 815","DALLAS","GA","30157"
31448,"1175 OLD LAFAYETTE ROAD","HARTSVILLE","TN","37074"
31449,"1175 OSAGE ST  SUITE 100","DENVER","CO","80204"
31450,"1175 PARKER ROAD BLD C SUITE 210","CONYERS","GA","30094"
31451,"1175 PICKFORD ROAD","SAN DIEGO","CA","92131"
31452,"1175 POND ROAD","VERNON","VT","05354"
31453,"1175 REVOLUTION MILL DRIVE STE 7A","GREENSBORO","NC","27405"
31454,"1175 ROSEDALE STREET","TOCCOA","GA","30577"
31455,"1175 SHORES BLVD","ROCKWALL","TX","75087"
31456,"1175 WESTWOOD DRIVE","VAN WERT","OH","45891"
31457,"1175 WILBERFORCE-CLIFTON RD","XENIA","OH","45385"
31458,"1175 WILDWOOD ROAD","MIFFLINBURG","PA","17844"
31459,"1175 WINROSE STREET","JACKSON","MS","39211"
31460,"1175 WINSTON ST","ST PAUL","MN","55108"
31461,"1175 WYKE ROAD","SHELBY","NC","28150"
31462,"1175 YORK AVE  APT 3K  ATTN WORMSER","NEW YORK","NY","10065"
31463,"1175 YORK AVE 15E","NEW YORK","NY","10065"
31464,"1175 YORK AVE SUITE 6K","NEW YORK","NY","10065"
31465,"11750 RYAN JACOBSEN DR APT 302","CHARLOTTE","NC","28262"
31466,"11750 S COUNTY RD K","MERRILL","WI","54452"
31467,"11750 SOLAR CIRCLE 10108","PARKER","CO","80134"
31468,"11751 HANOVER RD","SILVER CREEK","NY","14136"
31469,"11751 MONROVIA ST","OVERLAND PARK","KS","66210"
31470,"11751 NOTTINGHAM RD","DETROIT","MI","48224"
31471,"11751 S SUNNYBROOK BLVD","OLATHE","KS","66061"
31472,"11752 176TH AVENUE NORTHEAST","REDMOND","WA","98052"
31473,"11752 GARDEN GROVE BLVD STE 201","GARDEN GROVE","CA","92843"
31474,"11752 GARDEN GROVE BLVD STE 202","GARDEN GROVE","CA","92843"
31475,"11752 HIGHGROVE COURT","ADELANTO","CA","92301"
31476,"11752 JONES ST","AUBURN","CA","95603"
31477,"11752 N WOODLEAF LN","HIGHLAND","UT","84003"
31478,"11753 PERRY ST","WESTMINSTER","CO","80031"
31479,"11753 WEWST ATLANTIC BLVD APT 502","CORAL SPRINGS","FL","33071"
31480,"11754 140TH AVE","FORESTON","MN","56330"
31481,"11754 CHAPEL ESTATES DRIVE","CLARKSVILLE","MD","21029"
31482,"11755 BRENFORD CREST DR","RIVERVIEW","FL","33579"
31483,"11755 MAGALA DRIVE UNIT 1264","RANCHO CUCAMONGA","CA","91730"
31484,"11755 MALAGA DRIVE UNIT 1239","RANCHO CUCAMONGA","CA","91730"
31485,"11755 NORTH RANCH DRIVE","SAINT LOUIS","MO","63033"
31486,"11756 KITTREDGE ST","COMMERCE CITY","CO","80022"
31487,"11756 N US HWY 83","LEAKEY","TX","78873"
31488,"11757 KATY FWY NO 1300","HOUSTON","TX","77079"
31489,"11757 OXFORDSHIRE PL","ORLANDO","FL","32824"
31490,"11757 W NORTH AVE","WAUWATOSA","WI","53226"
31491,"11757 WEST KEN CARYL AVE SUITE F429","LITTLETON","CO","80127"
31492,"11758 WOODVIEW TRAIL","GAYLORD","MI","49735"
31493,"11759 RIVER HILLS PARKWAY","ROCKTON","IL","61072"
31494,"1176 BRIGHTON PL","GLEN ELLYN","IL","60137"
31495,"1176 BUCKNELL DR","MONROEVILLE","PA","15146"
31496,"1176 CHETFORD DR","LEXINGTON","KY","40509"
31497,"1176 CHURCH ST","CORTLAND","NY","13045"
31498,"1176 DONNYBROOK RD","CATAWBA","SC","29704"
31499,"1176 EAST 10TH STREET","BROOKLYN","NY","11230"
31500,"1176 FARMINGTON AVENUE","BERLIN","CT","06037"
