"ID","Address","City","State","Zip"
239501,"5305 RIVER RD N","KEIZER","OR","97303"
239502,"5305 RIVER RD STE B","KEIZER","OR","97303"
239503,"5305 RIVER ROAD N STE B","KEIZER","OR","97303"
239504,"5305 RIVER ROAD N SUITE B","KEIZER","OR","97303"
239505,"5305 RIVER ROAD NORTH  SUITE B","KEIZER","OR","97303"
239506,"5305 RIVER ROAD NORTH STE B","KEIZER","OR","97303"
239507,"5305 SCENIC DRIVE","YAKIMA","WA","98908"
239508,"5305 SEA RAVEN CT","WALDORF","MD","20603"
239509,"5305 STEWARD COURT","GRAND BAY","AL","36541"
239510,"5305 STEWART DRIVE","VIRGINIA BEACH","VA","23464"
239511,"5305 TAMIAMI TRL","WATERFORD","MI","48329"
239512,"5305 VILLAGE CENTER DR SUITE 274","COLUMBIA","MD","21044"
239513,"5305 VILLAGE CENTER DR SUITE 395","COLUMBIA","MD","21044"
239514,"5305 WALNUT LANE","COLLEYVILLE","TX","76034"
239515,"5305 WELCH VALLEY AVENUE","LAS VEGAS","NV","89131"
239516,"5305 WEST BALD EAGLE BLVD","WHITE BEAR LAKE","MN","55110"
239517,"530505 CROSSOVER ROAD","INDEPENDENCE","LA","70443"
239518,"530591","HENDERSON","NV","89053"
239519,"5306 BEAVER LODGE DRIVE","KINGWOOD","TX","77345"
239520,"5306 BUFFALO PASS","AUSTIN","TX","78745"
239521,"5306 ENGLISH OAK DR","KILLEEN","TX","76542"
239522,"5306 GREATBRIDGE COURT","NORTH CHESTERDFIELD","VA","23237"
239523,"5306 MEADOWLARK LANE","CEDAR FALLS","IA","50613"
239524,"5306 NORTH HEMLOCK DRIVE","MUNCIE","IN","47304"
239525,"5306 NORTON ST","TORRANCE","CA","90503"
239526,"5306 SOUTH CORNELL UNIT 1","CHICAGO","IL","60615"
239527,"5306 W ARGYLE ST","CHICAGO","IL","60630"
239528,"5306 W BRITTANY PL","LITTLETON","CO","80123"
239529,"5306 W FRIENDLY AVE","GREENSBORO","NC","27410"
239530,"5306 WESLEY AVENUE","GWYNN OAK","MD","21207"
239531,"5306 WOODROW AVE APT 106","AUSTIN","TX","78756"
239532,"5306 ZION ROAD","JEFFERSON CITY","MO","65109"
239533,"5307 15TH ST","LYNNVILLE","IA","50153"
239534,"5307 64TH AVENUE NE","MARYSVILLE","WA","98270"
239535,"5307 ANDREA BLVD","SACRAMENTO","CA","95842"
239536,"5307 CAROLINA CROSSING UNIT 205","LOUISVILLE","KY","40219"
239537,"5307 E MOCKINGBIRD LANE STE 802","DALLAS","TX","75206"
239538,"5307 ELSIE LANE SW","MABLETON","GA","30126"
239539,"5307 MASTIN LAKE ROAD NW","HUNTSVILLE","AL","35810"
239540,"5307 PARTRIDGE STREET","DURHAM","NC","27704"
239541,"5307 PLAINFIELD AVE","BALTIMORE","MD","21206"
239542,"5307 SANTA FE","PASCO","WA","99301"
239543,"5307 SOUTH HYDE PARK BLVD","CHICAGO","IL","60615"
239544,"5307 SOUTH NEVA AVENUE","CHICAGO","IL","60638"
239545,"5307 VANTAGE AVE APT 3","VALLEY VILLAGE","CA","91607"
239546,"5307 WEST COVE WAY","GRAND PRAIRIE","TX","75052"
239547,"5308 114TH ST","LUBBOCK","TX","79424"
239548,"5308 13TH AVE STE 594","BROOKLYN","NY","11219"
239549,"5308 13TH STREET NW","WASHINGTON","DC","20011"
239550,"5308 5TH STREET NW","WASHINGTON","DC","20011"
239551,"5308 BAKER AVE NW","SEATTLE","WA","98107"
239552,"5308 COTTONWOOD ROAD SUITE 3","MEMPHIS","TN","38118"
239553,"5308 E COLUMBUS DR","TAMPA","FL","33619"
239554,"5308 FOX BRIAR TRAIL","ORLANDO","FL","32808"
239555,"5308 HAYLOFT COURT","FORT WORTH","TX","76123"
239556,"5308 LAUREL POINTE DRIVE","VALRICO","FL","33596"
239557,"5308 MAPLE LANE","COLLEYVILLE","TX","76034"
239558,"5308 MAPLE ST","BELLAIRE","TX","77401"
239559,"5308 MARSH LANDING LANE","SUFFOLK","VA","23435"
239560,"5308 MEADOW STREAM WAY","CRESTWOOD","KY","40014"
239561,"5308 MIAMI ST","SOUTH BEND","IN","46614"
239562,"5308 NORTH CAPITOL STREET NW","WASHINGTON","DC","20011"
239563,"5308 NORTH PEARL STREET","JACKSONVILLE","FL","32208"
239564,"5308 OAK BEND CT","MOBILE","AL","36609"
239565,"5308 OLIVE ROAD","RALEIGH","NC","27606"
239566,"5308 SPRING ST","WARM SPRINGS","GA","31830"
239567,"5308 TELMO","IRVINE","CA","92618"
239568,"5308 VAN DYKE RD","LUTZ","FL","33558"
239569,"5308 WENESLY CT","RALEIGH","NC","27616"
239570,"53088 WINDHAM DRIVE","CHESTERFIELD","MI","48051"
239571,"5309 28TH AVE S","SEATTLE","WA","98108"
239572,"5309 AGNES AVE","VALLEY VILLAGE","CA","91607"
239573,"5309 ANNETTE ST","BAKERSFIELD","CA","93313"
239574,"5309 BELAIR ROAD","BALTIMORE","MD","21206"
239575,"5309 BROADFIELD DRIVE","COLUMBUS","GA","31907"
239576,"5309 DAYAN DRIVE","CHARLOTTE","NC","28216"
239577,"5309 DESERT SAND PL NW","ALBUQUERQUE","NM","87120"
239578,"5309 DILBAGH DR","DURHAM","NC","27703"
239579,"5309 DOON ST","VIRGINIA BEACH","VA","23464"
239580,"5309 E LANCASTER AVENUE","FORT WORTH","TX","76112"
239581,"5309 FORT PIERCE BLVD","FORT PIERCE","FL","34951"
239582,"5309 GREENS DRIVE","LADY LAKE","FL","32159"
239583,"5309 HADDON PLACE","MCDONOUGH","GA","30253"
239584,"5309 HERFORD DR","SACHSE","TX","75048"
239585,"5309 JESSUP LANE","WOODBRIDGE","VA","22193"
239586,"5309 JUSTIN COURT APT 103","VIRGINIA BEACH","VA","23462"
239587,"5309 LIONS GATE LANE","KILLEEN","TX","76549"
239588,"5309 LOLETA AVE","LOS ANGELES","CA","90041"
239589,"5309 MCPHERSON BLVD STE 105-145","FORT WORTH","TX","76123"
239590,"5309 NW 13TH CIRCLE","CAMAS","WA","98607"
239591,"5309 RAVENGLASS CT","WAXHAW","NC","28173"
239592,"5309 RAVENSWORTH ROAD","SPRINGFIELD","VA","22151"
239593,"5309 RIDGESON DR","MCKINNEY","TX","75071"
239594,"5309 SAVANNAH BEND DR","ROSHARON","TX","77583"
239595,"5309 SCENIC VIEW","AUSTIN","TX","78746"
239596,"5309 W 121ST STREET","HAWTHORNE","CA","90250"
239597,"5309 WHITE COYOTE PL","LAS VEGAS","NV","89130"
239598,"53093 POPPY ROAD","SOUTH BEND","IN","46628"
239599,"530BEACON PARKWAY WEST","BIRMINGHAM","AL","35209"
239600,"530C ALAMEDA DEL PRADO NUM 209","NOVATO","CA","94949"
239601,"531 2ND STREET EAST","HECTOR","MN","55342"
239602,"531 ALISON DRIVE APT 20","HUMMELSTOWN","PA","17036"
239603,"531 AVENUE N","ANSON","TX","79501"
239604,"531 AVENUE OF THE STATES","CHESTER","PA","19013"
239605,"531 BEDFORD ST","CLAYSBURG","PA","16625"
239606,"531 BELMONTE PARK SUITE 504","DAYTON","OH","45405"
239607,"531 BLACK HAWK TRAIL","LOVELAND","OH","45140"
239608,"531 BLACKWOOD CLEMENTON RD","LINDENWOLD","NJ","08021"
239609,"531 BOULEVARD SE","ATLANTA","GA","30312"
239610,"531 BRISTOL WAY","RICHMOND HILL","GA","31324"
239611,"531 BROADWAY STREET","SCRANTON","PA","18505"
239612,"531 BROWN AVENUE","GALLOWAY","NJ","08205"
239613,"531 BRUNSWICK STREET","BALTIMORE","MD","21223"
239614,"531 BUTLER STREET","AVENEL","NJ","07001"
239615,"531 CAPTAIN MARSHAL","PRAIRIE GROVE","AR","72753"
239616,"531 CASSWALL ST","NAPA","CA","94558"
239617,"531 CENTERVILLE LANE","GARDNERVILLE","NV","89460"
239618,"531 CHEROKEE RD","PHILIPPI","WV","26416"
239619,"531 COLLEGE STREET","MADISONVILLE","TN","37354"
239620,"531 CORTLAND CIRCLE","CHESHIRE","CT","06410"
239621,"531 CREEKSIDE DR","BELTON","TX","76513"
239622,"531 CTY ROAD D","BELGIUM","WI","53004"
239623,"531 DEWEY STREET","FOLEY","MN","56329"
239624,"531 E BETHANY HOME RD","PHOENIX","AZ","85012"
239625,"531 E LEMON AVE","LAKE ALFRED","FL","33850"
239626,"531 E LYNNWOOD STREET","PHOENIX","AZ","85004"
239627,"531 E SPRINGFIELD RD","ARCOLA","IL","61910"
239628,"531 EAST 20TH STREET APT 10G","NEW YORK","NY","10010"
239629,"531 EAST ANTHONY STREET","CELINA","OH","45822"
239630,"531 EAST BOSTON AVENUE","YOUNGSTOWN","OH","44502"
239631,"531 EAST DURHAM STREET","PHILADELPHIA","PA","19119"
239632,"531 EAST ONTARIO AVE","ATLANTA","GA","30310"
239633,"531 EASTERN BLVD SUITE C","ESSEX","MD","21221"
239634,"531 ENCINITAS BLVD SUIT 120","ENCINITAS","CA","92024"
239635,"531 ENCINITAS BLVD","ENCINITAS","CA","92024"
239636,"531 EUCALYPTUS DRIVE","EL SEGUNDO","CA","90245"
239637,"531 FALLWOOD DR SE","CONCORD","NC","28025"
239638,"531 FRAUNFELTER RD N","LIMA","OH","45807"
239639,"531 GLENDORA AVE APT 51","STOCKTON","CA","95207"
239640,"531 HAMMOND DRIVE NE","ATLANTA","GA","30328"
239641,"531 HAWKRIDGE TERRACE","ORINDA","CA","94563"
239642,"531 HAYWOOD RD","ASHEVILLE","NC","28806"
239643,"531 HILLEND CT","APOPKA","FL","32712"
239644,"531 HOFFMAN LN","HAUPPAUGE","NY","11788"
239645,"531 HOLLOWAY AVENUE","SAN FRANSISCO","CA","94112"
239646,"531 JANEWAY DR 177","NORRISTOWN","PA","19401"
239647,"531 LASUEN MALL SUITE 17828","STANFORD","CA","94305"
239648,"531 LAWNDALE DRIVE SE","CEDAR RAPIDS","IA","52403"
239649,"531 LICKSKILLET ROAD","WARRENTON","NC","27589"
239650,"531 LOCUST AVENUE","PORT CHESTER","NY","10573"
239651,"531 MAIN ST STE 979","EL SEGUNDO","CA","90245"
239652,"531 MAIN ST","ZANESVILLE","OH","43701"
239653,"531 MAIN STREET APT 213","NEW YORK","NY","10044"
239654,"531 MAIN STREET APT 428","NEW YORK","NY","10044"
239655,"531 MAIN STREET SUITE 1132","EL SEGUNDO","CA","90245"
239656,"531 MARYKNOLL DR","ROCHESTER HILLS","MI","48309"
239657,"531 MINNESOTA AVENUE UPPER","BUFFALO","NY","14215"
239658,"531 MITCHELL DRIVE","SAN LUIS OBSIPO","CA","93401"
239659,"531 MORSE ST N","NORWOOD YOUNG AMERIC","MN","55368"
239660,"531 MORSE STREET","NORWOOD YOUNG AMERIC","MN","55397"
239661,"531 MORSE STREET","NYA","MN","55368"
239662,"531 N COMSTOCK AVENUE","SUTHERLIN","OR","97479"
239663,"531 N MAIN STREET","MORTON","IL","61550"
239664,"531 N MAIN","MAGNOLIA","OH","44643"
239665,"531 N OCEAN BLVD APT 1907","POMPANO BEACH","FL","33062"
239666,"531 N WILDERNESS TRL","PONTE VEDRA","FL","32082"
239667,"531 NE 39TH STREET","POMPANO BEACH","FL","33064"
239668,"531 NORTH MAIN ST","MAGNOLIA","OH","44643"
239669,"531 NORTH NEVILLE STREET","PITTSBURGH","PA","15213"
239670,"531 NW 102ND TERRACE","GAINESVILLE","FL","32607"
239671,"531 OAKLAND ST","SUMTER","SC","29150"
239672,"531 OLD STONE ROAD","BOLINGBROOK","IL","60440"
239673,"531 PINE STREET","BROOKLYN","NY","11208"
239674,"531 PINEWOOD AVENUE","TOLEDO","OH","43606"
239675,"531 PLANTATION DRIVE","CLARKESVILLE","GA","30523"
239676,"531 RANCH ROAD","WESTON","FL","33326"
239677,"531 S 12TH STREET","SAINT CHARLES","IL","60174"
239678,"531 S 17TH STREET B","PHILADELPHIA","PA","19146"
239679,"531 S 38TH AVE APT A202","WEST RICHLAND","WA","99353"
239680,"531 S 38TH AVE","WEST RICHLAND","WA","99353"
239681,"531 S BRADDOCK AVENUE APT 3","PITTSBURGH","PA","15221"
239682,"531 S MITCHELL AVE","ELMHURST","IL","60126"
239683,"531 S NIAGARA STREET","BURBANK","CA","91505"
239684,"531 S PLYMOUTH CT","CHICAGO","IL","60605"
239685,"531 SAULSBURY STREET","LAKEWOOD","CO","80226"
239686,"531 SEVENTH STREET EAST","ZOLFO SPRINGS","FL","33890"
239687,"531 SHERWOOD DRIVE N","MIDDLETOWN","NY","10941"
239688,"531 SONOMA RD","JACKSONVILLE","NC","28546"
239689,"531 SOUTH EASY STREET","SEBASTIAN","FL","32958"
239690,"531 SOUTH HARRIS STREET","HELENA","MT","59601"
239691,"531 SOUTH LAKE SHORE DRIVE","LAKE GENEVA","WI","53147"
239692,"531 SOUTH MCLEAN","MEMPHIS","TN","38104"
239693,"531 SOUTH WATER STREET","MILWAUKEE","WI","53204"
239694,"531 SUMMIT ROAD","MADISON","WI","53704"
239695,"531 US HWY 22 EAST PMB 156","WHITEHOUSE STATION","NJ","08889"
239696,"531 VARDAR LANE","BIRMINGHAM","AL","35210"
239697,"531 VERSAILLES CIRCLE SUITE 102","MAITLAND","FL","32751"
239698,"531 VINE ST","BETHEL","DE","19931"
239699,"531 W 206TH STREET S","MOUNDS","OK","74047"
239700,"531 W 49TH PL","LOS ANGELES","CA","90037"
239701,"531 W COLLEGE AVE","JONESBORO","AR","72401"
239702,"531 WASHINGTON AVENUE","RAVENNA","OH","44266"
239703,"531 WAYSIDE ROAD","PORTOLA VALLEY","CA","94028"
239704,"531 WHITE AVE","NORTHVALE","NJ","07647"
239705,"531 WINDY ACRES DR","COLUMBIA FALLS","MT","59912"
239706,"531 WOODSONG WAY APT 303","SMYRNA","GA","30082"
239707,"531 WRANGLER RD","WESTCLIFFE","CO","81252"
239708,"531","MOORESVILLE","NC","28117"
239709,"5310 236TH AVE NE","REDMOND","WA","98053"
239710,"5310 ABITARE BLVD","VOORHEES","NJ","08043"
239711,"5310 BENNIE BARNES ROAD","LITTLE ROCK","AR","72206"
239712,"5310 BRIARCLIFF LANE","FULSHEAR","TX","77441"
239713,"5310 CANYON CREST DRIVE UNIT 51","RIVERSIDE","CA","92507"
239714,"5310 CARLETON COURT F","CHARLESTON","WV","25313"
239715,"5310 CROSSWIND DRIVE","RICHTON PARK","IL","60471"
239716,"5310 DANBURY FOREST DRIVE","SPRINGFIELD","VA","22151"
239717,"5310 EAST OREM","HOUSTON","TX","77048"
239718,"5310 EL PASO DR","EL PASO","TX","79905"
239719,"5310 FREDRICKSBURG AVENUE","JACKSONVILLE","FL","32208"
239720,"5310 GALLEON CROSSING","DECATUR","GA","30035"
239721,"5310 GODFREY ROAD SUITE 35","GODFREY","IL","62035"
239722,"5310 HARVEST HILL RD STE 277","DALLAS","TX","75230"
239723,"5310 HAZELWOOD AVENUE","BALTIMORE","MD","21206"
239724,"5310 LATHROP AVENUE","MOUNT PLEASANT","WI","53403"
239725,"5310 MARKET STREET","PHILADELPHIA","PA","19139"
239726,"5310 MARYLAND WAY","BRENTWOOD","TN","37027"
239727,"5310 MERCHANDISE DRIVE","FORT WAYNE","IN","46825"
239728,"5310 N 33RD STREET","PHOENIX","AZ","85018"
239729,"5310 N 43RD ST","TACOMA","WA","98407"
239730,"5310 N HARLEM AVE SUITE 210","CHICAGO","IL","60646"
239731,"5310 N STARNES RD","BLOOMINGTON","IN","47404"
239732,"5310 PENDLETON ROAD","LOUISVILLE","KY","40272"
239733,"5310 PINETREE DRIVE","MIAMI BEACH","FL","33140"
239734,"5310 SHAWANO TERRACE","MADISON","WI","53705"
239735,"5310 STORMY SUNSET","SAN ANTONIO","TX","78247"
239736,"5310 TILDEN AVENUE","BROOKLYN","NY","11203"
239737,"5310 TIMBERWYCK TRAIL","INTERLOCHEN","MI","49684"
239738,"5310 TULLIS DR","NEW ORLEANS","LA","70131"
239739,"5310 W PARKER","CHICAGO","IL","60639"
239740,"5310 WATERTON LAKES DRVIE","INDIANAPOLIS","IN","46237"
239741,"5310 WILLOW LAKE CT","DISCOVERY BAY","CA","94505"
239742,"5310C BIRDS VIEW LN","ALEXANDRIA","VA","22312"
239743,"5311 ARROWSHIRE DRIVE","LA GRANGE","KY","40031"
239744,"5311 BAYVIEW DRIVE","FORT LAUDERDALE","FL","33308"
239745,"5311 BRIGHTON PARK LN","JACKSONVILLE","FL","32210"
239746,"5311 CASEY WAY","INDIANAPOLIS","IN","46221"
239747,"5311 CHADWELL RD","NORWOOD","MO","65717"
239748,"5311 CLOVER MOSS STREET","BAKERSFIELD","CA","93313"
239749,"5311 DEL MONTE CT","CAPE CORAL","FL","33904"
239750,"5311 DUNLEIGH DRIVE","BURKE","VA","22015"
239751,"5311 E 102ND ST","TULSA","OK","74137"
239752,"5311 E KINKAID","WICHITA","KS","67218"
239753,"5311 ENGLISH DRIVE","LAKELAND","FL","33813"
239754,"5311 FERN AVE","GRAND BLANC","MI","48439"
239755,"5311 FLORENCE AVE PO BOX 23553","PHILADELPHIA","PA","19143"
239756,"5311 MAGGIORE STREET","CORAL GABLES","FL","33146"
239757,"5311 MARIGOLD DRIVE","CASTALIA","OH","44824"
239758,"5311 MCDOWELL STREET","NORTON SHORES","MI","49441"
239759,"5311 MERLIN","SAN ANTONIO","TX","78218"
239760,"5311 N SILVER RD","OLNEY","IL","62450"
239761,"5311 NE 15TH AVE","PORTLAND","OR","97211"
239762,"5311 NORTHFIELD ROAD SUITE 309","BEDFORD HTS","OH","44146"
239763,"5311 PROVIDENCE DRIVE","MATTESON","IL","60443"
239764,"5311 RAINBOW RIDGE COURT","ROCKFORD","MI","49341"
239765,"5311 RIVIERA CT","COLLEGE STATION","TX","77845"
239766,"5311 S  HOLT AVE","LOS ANGELES","CA","90056"
239767,"5311 SAN PABLO GARDENS DR","HOUSTON","TX","77045"
239768,"5311 TATTERSHALL AVENUE","WESTMINSTER","CA","92683"
239769,"5311 TEAL WAY","BAYTOWN","TX","77523"
239770,"5311 W MADISON STREET","CHICAGO","IL","60644"
239771,"53113 TROPICAL STREET","LAKE ELSINORE","CA","92532"
239772,"5312 12TH AVENUE SOUTH","MINNEAPOLIS","MN","55417"
239773,"5312 2 STREET NW","WASHINGTON","DC","20011"
239774,"5312 DORCHESTER RD","GREENSBORO","NC","27407"
239775,"5312 FREDELIA DRIVE","TOLEDO","OH","43623"
239776,"5312 GERMANTOWN AVENUE","PHILADELPHIA","PA","19144"
239777,"5312 GLENWICK LN","DALLAS","TX","75209"
239778,"5312 LANFORD SPRINGS COURT SW","LILBURN","GA","30047"
239779,"5312 LONG RD","ORLANDO","FL","32808"
239780,"5312 LOTTIE LANE","EL PASO","TX","79932"
239781,"5312 MCBETH COURT","TAMPA","FL","33624"
239782,"5312 N WINTHROP AVE NO 1S","CHICAGO","IL","60640"
239783,"5312 OAK GLADE LANE","KNOXVILLE","TN","37918"
239784,"5312 OAK GLADE LN","KNOXVILLE","TN","37918"
239785,"5312 OHIO STREET","SOUTH CHARLESTON","WV","25309"
239786,"5312 OLVERA AVE","SAN DIEGO","CA","92114"
239787,"5312 SIESTA COURT","SARASOTA","FL","34242"
239788,"5312 SIX FORKS RD STE 301","RALEIGH","NC","27609"
239789,"5312 SWINDLE ROAD","WHITES CREEK","TN","37189"
239790,"5312 TRAMORE ROAD","BALTIMORE","MD","21214"
239791,"5312 UNAKA AVE","CHARLOTTE","NC","28205"
239792,"531293","CINCINNATI","OH","45253"
239793,"5313 BASS PLACE SE","WASHINGTON","DC","20020"
239794,"5313 BAY LAGOON CIR","ORLANDO","FL","32819"
239795,"5313 CIRCITA DEL SUR","SANTA FE","NM","87507"
239796,"5313 CO RD 14","FLAT ROCK","AL","35966"
239797,"5313 COMMONS CT","VIRGINIA BEACH","VA","23462"
239798,"5313 COUNTY ROAD 7560","LUBBOCK","TX","79424"
239799,"5313 DIVIDEND DR","DECATUR","GA","30035"
239800,"5313 DOVER RD","APPLE CREEK","OH","44606"
239801,"5313 MACCHONANCHY STREET","VIRGINIA BEACH","VA","23464"
239802,"5313 MARSHBURN AVE","ARCADIA","CA","91006"
239803,"5313 PAGEWOOD LANE","HOUSTON","TX","77056"
239804,"5313 PLATA ROSA COURT","CAMARILLO","CA","93012"
239805,"5313 REFLECTIONS BLVD","LUTZ","FL","33558"
239806,"5313 S MYRTLE LN","SPOKANE","WA","99223"
239807,"5313 S SAWYER AVE","CHICAGO","IL","60632"
239808,"5313 SPRING ARBOR ROAD","JACKSON","MI","49201"
239809,"5313 W MURIEL DR","GLENDALE","AZ","85308"
239810,"5313 W PINE AVE","FRESNO","CA","93722"
239811,"5313 WALZEM ROAD SUITE A","SAN ANTONIO","TX","78218"
239812,"5313 WAYNE ST APT A","RALEIGH","NC","27606"
239813,"53130 GRASSY KNOLL DR","SOUTH BEND","IN","46628"
239814,"5314 16 AVENUE 298","BROOKLYN","NY","11204"
239815,"5314 16TH AVE STE 206","BROOKLYN","NY","11204"
239816,"5314 16TH AVE STE 280","BROOKLYN","NY","11204"
239817,"5314 BOAZ ST","DALLAS","TX","75209"
239818,"5314 CLIPPER COVER","MIDLOTHIAN","VA","23112"
239819,"5314 COSMIC WAY","FAIRVIEW","PA","16415"
239820,"5314 COUNTY ROAD 32","NORWICH","NY","13815"
239821,"5314 E HAMLIN PLACE","YUMA","AZ","85365"
239822,"5314 FLORADALE DRIVE","CROSS LANES","WV","25313"
239823,"5314 GILLESPIE AVENUE","RICHMOND","SC","23228"
239824,"5314 GLASCOW CT","LOS ANGELES","CA","90045"
239825,"5314 GLEN OAKS WAY","WEST DES MOINES","IA","50266"
239826,"5314 GODBEY DRIVE","LA CANADA","CA","91011"
239827,"5314 HIL MAR DR","DISTRICT HEIGHTS","MD","20747"
239828,"5314 JAHNKE ROAD","RICHMOND","VA","23225"
239829,"5314 LAKEVALE TERRACE","BOWIE","MD","20720"
239830,"5314 PENSACOLA DRIVE","GARLAND","TX","75043"
239831,"5314 SHARON TRAIL","LAKELAND","FL","33810"
239832,"5314 TREEPOINT","SANTA FE","TX","77510"
239833,"5314 WESTERN AVE","OMAHA","NE","68132"
239834,"5315 1ST AVE S","ST PETERSBURG","FL","33707"
239835,"5315 8TH STREET NW","WASHINGTON, DC","DC","20011"
239836,"5315 BINFORD PLACE","ATLANTA","GA","30331"
239837,"5315 CANYON HOLLOW","HOUSTON","TX","77084"
239838,"5315 COLODNY DR UNIT 9","AGOURA HILLS","CA","91301"
239839,"5315 EAST 21ST STREET NORTH STE 13","WICHITA","KS","67208"
239840,"5315 EASTKNOLL CT","CINCINNATI","OH","45239"
239841,"5315 EDDS LANE","CROSS LANES","WV","25313"
239842,"5315 FLORIDA AVE S","LAKELAND","FL","33813"
239843,"5315 FOREST TIMBERS DRIVE","HUMBLE","TX","77346"
239844,"5315 HARLAN DRIVE","EL PASO","TX","79924"
239845,"5315 HILLCREST STREET","PITTSBURGH","PA","15224"
239846,"5315 HOLSCHER ROAD","MCFARLAND","WI","53558"
239847,"5315 HUNT CLUB WAY","SARASOTA","FL","34238"
239848,"5315 HWY 45 N","CONOVER","WI","54519"
239849,"5315 INDIGO WAY","MIDDLETON","WI","53562"
239850,"5315 LOUGHBOROUGH AVE","SAINT LOUIS","MO","63109"
239851,"5315 MARSH LANDING LANE","SUFFOLK","VA","23435"
239852,"5315 MOON SHELL DRIVE","APOLLO BEACH","FL","33572"
239853,"5315 MORNING SAGE WAY","SAN DIEGO","CA","92130"
239854,"5315 N CLARK ST NUM 176","CHICAGO","IL","60640"
239855,"5315 PAINTER STREET","NEW ORLEANS","LA","70122"
239856,"5315 PATRICIA PLACE","WEEKI WACHEE","FL","34607"
239857,"5315 PLYMOUTH CT STE 104","CHICAGO","IL","60605"
239858,"5315 S SLAUSON AVENUE","CULVER CITY","CA","90230"
239859,"5315 SE 14TH ST","DES MOINES","IA","50320"
239860,"5315 SILVER LEDGE DRIVE","KATY","TX","77493"
239861,"5315 WOODSTEAD WAY","ORLANDO","FL","32819"
239862,"5315 YORKSHIRE DR","CYPREE","CA","90630"
239863,"5315-B CYPRESS CREEK PARKWAY  244","HOUSTON","TX","77069"
239864,"5315-B CYPRESS CREEK PKWY SUITE 158","HOUSTON","TX","77069"
239865,"5315-B CYPRESS CREEK PKWY SUITE 337","HOUSTON","TX","77069"
239866,"5315-B CYPRESS CREEK PKWY SUITE 404","HOUSTON","TX","77069"
239867,"5315-J LIBERTY RD","GREENSBORO","NC","27406"
239868,"53157 US HIGHWAY","HODGEN","OK","74939"
239869,"5316 24TH AVE SO","SEATTLE","WA","98108"
239870,"5316 8TH ST","ZEPHYRHILLS","FL","33542"
239871,"5316 CONWAY CIRCLE","KNOXVILLE","TN","37921"
239872,"5316 CUMBERLAND PLAIN DR","RALEIGH","NC","27616"
239873,"5316 DRIFTON DRIVE","LOUISVILLE","KY","40241"
239874,"5316 LA CRESTA CT","LOS ANGELES","CA","90038"
239875,"5316 LABRANCH","HOUSTON","TX","77004"
239876,"5316 MOUNTAIN VIEW","LAS VEGAS","NV","89146"
239877,"5316 N COLONIAL AVENUE 101","FRESNO","CA","93704"
239878,"5316 NEW UTRECHT AVENUE","BROOKLYN","NY","11219"
239879,"5316 OLYMPIA LANE","GREENDALE","WI","53129"
239880,"5316 PANTHER COURT","CINCINNATI","OH","45248"
239881,"5316 S AZURITE TRAIL","FLAGSTAFF","AZ","86005"
239882,"5316 STEUBEN DR","MEMPHIS","TN","38134"
239883,"5316 TRIMOTOR COURT","FAIR OAKS","CA","95628"
239884,"53164 W CAMINO REAL ROAD","MARICOPA","AZ","85139"
239885,"5317 ANHINGA TRL","NEW PORT RICHEY","FL","34653"
239886,"5317 BIG SPRINGS RANCH ROAD","WENATCHEE","WA","98801"
239887,"5317 COLUMBIA RD SUITE E","COLUMBIA","MD","20144"
239888,"5317 CUPIDS DART DR","CENTREVILLE","VA","20120"
239889,"5317 E 6TH STREET","TUCSON","AZ","85711"
239890,"5317 FRUITVILLE ROAD  48","SARASOTA","FL","34232"
239891,"5317 FRUITVILLE ROAD NUM 191","SARASOTA","FL","34232"
239892,"5317 FRUITVILLE ROAD SUITE 306","SARASOTA","FL","34232"
239893,"5317 FRUITVILLE ROAD SUITE 84","SARASOTA","FL","34232"
239894,"5317 FRUITVILLE ROAD SUITE 87","SARASOTA","FL","34232"
239895,"5317 GERMANTOWN AVENUE","PHILADELPHIA","PA","19144"
239896,"5317 GLOVER LANE","MILTON","FL","32570"
239897,"5317 HILAND ROAD","EAGLE RIVER","AK","99577"
239898,"5317 JONQUIL COURT","MIDDLETON","WI","53562"
239899,"5317 MAGNOLIA TREE LN","CHARLOTTE","NC","28215"
239900,"5317 MARBORO DRIVE","RACINE","WI","53406"
239901,"5317 N 37TH ST","MILWAUKEE","WI","53209"
239902,"5317 N 37TH STREET","MILWAUKEE","WI","53209"
239903,"5317 N FALKENBURG ROAD","TAMPA","FL","33610"
239904,"5317 NORTH HILLS DRIVE","RALEIGH","NC","27612"
239905,"5317 PLYMOUTH RD SUITE 100","BALTIMORE","MD","21214"
239906,"5317 WESTMINSTER AVE","PHILEDELPHIA","PA","19131"
239907,"53176 OAKMONT WEST DR","SOUTH BEND","IN","46637"
239908,"5318 BELLE MANOR LN","SUGAR LAND","TX","77479"
239909,"5318 BISHOPS BOULEVARD S UNIT D","FARGO","ND","58104"
239910,"5318 BURNETT PL","DAVIS","CA","95618"
239911,"5318 BUXTON COURT","ALEXANDRIA","VA","22315"
239912,"5318 E WASHINGTON AVE","LAS VEGAS","NV","89110"
239913,"5318 EAST SECOND STREET  PO BOX 700","LONG BEACH","CA","90803"
239914,"5318 EAST SECOND STREET 413","LONG BEACH","CA","90803"
239915,"5318 ENDEAVOUR AVENUE","DOVER","FL","33527"
239916,"5318 FALLING PETALS DRIVE","NLV","NV","89031"
239917,"5318 HOBOKEN RD","MADISON","WI","53713"
239918,"5318 NE 101ST CIRCLE","VANCOUVER","WA","98686"
239919,"5318 RAYTOWN ROAD","RAYTOWN","MO","64133"
239920,"5318 S JELLISON","JELLISON","CO","80123"
239921,"5318 SKINNER HILL RD","MORAVIA","NY","13118"
239922,"5318 SKYLANE DRIVE","SAND SPRINGS","OK","74063"
239923,"5318 TULIP ROSE","SAN ANTONIO","TX","78253"
239924,"5318 W 6TH ST","WINONA","MN","55987"
239925,"5318 W DEVON AVE","CHICAGO","IL","60646"
239926,"5318 W MADISON","CHICAGO","IL","60644"
239927,"5318 WESLAYAN APT 154","HOUSTON","TX","77005"
239928,"5318 WESLEYAN NUMBER 175","HOUSTON","TX","77005"
239929,"5318 WESLEYAN ST  NUMBER 175","HOUSTON","TX","77005"
239930,"5318 WESTHAVEN STREET","LOS ANGELES","CA","90016"
239931,"53181 GENTLE BREEZE CT","SOUTH BEND","IN","46628"
239932,"5319 156TH AVE NE","REDMOND","WA","98052"
239933,"5319 AIRPORT DRIVE","WHITE MARSH","MD","21162"
239934,"5319 BROADWAY TER APT 201","OAKLAND","CA","94618"
239935,"5319 CYPRESS LINKS BLVD","ELKTON","FL","32033"
239936,"5319 ETON COURT","CUMMING","GA","30040"
239937,"5319 LAKE JESSAMINE DR","ORLANDO","FL","32839"
239938,"5319 NORTH CARLIN SPRINGS RD","ARLINGTON","VA","22203"
239939,"5319 NORTH TOWNSHIP ROAD 137","TIFFIN","OH","44883"
239940,"5319 OAKLAND ROAD","CHEVY CHASE","MD","20815"
239941,"5319 ORANGE AVENUE","SAN DIEGO","CA","92115"
239942,"5319 PAYLOR LANE SUITE 400","SARASOTA","FL","34240"
239943,"5319 PRUNE BLOSSOM DRIVE","SAN JOSE","CA","95123"
239944,"5319 RACCOON RIDGE CT","JACKSONVILLE","FL","32258"
239945,"5319 SWEETWATER TRAILS","SAN DIEGO","CA","92130"
239946,"5319 UNIVERSITY DRIVE - NUMBER 144","IRVINE","CA","92612"
239947,"5319 UNIVERSITY DRIVE SUITE 232","IRVINE","CA","92612"
239948,"5319 W 120TH ST","INGLEWOOD","CA","90304"
239949,"5319 W FULLERTON AVE","CHICAGO","IL","60639"
239950,"531973","CINCINNATI","OH","45253"
239951,"532 14TH AVE SW","ALBANY","OR","97321"
239952,"532 1ST AVE STE 312","COUNCIL BLUFFS","IA","51503"
239953,"532 31ST AVENUE","SEATTLE","WA","98122"
239954,"532 APPLE RIDGE ROAD","GREENSBORO","NC","27406"
239955,"532 ARDEN ROAD","GRIMESLAND","NC","27837"
239956,"532 ARLINGTON RD","REDWOOD CITY","CA","94062"
239957,"532 BETHELVIEW DR","HAMPTON","GA","30228"
239958,"532 BOULDER DRIVE","ELIZABETHTOWN","KY","42701"
239959,"532 CENTRE STREET","FREELAND","PA","18224"
239960,"532 COURT HOUSE LANDING RD","KING AND QUEEN CH","VA","23085"
239961,"532 DAVIS DR","DESOTO","TX","75115"
239962,"532 DE SOTO DRIVE","MIAMI","FL","33166"
239963,"532 E HAYWARD ST","OGDENSBURG","NY","13669"
239964,"532 E TERRACE AVE","FRESNO","CA","93704"
239965,"532 E WALNUT ST","INDIANAPOLIS","IN","46202"
239966,"532 EVELYN ST","ROCKDALE","TX","76567"
239967,"532 FARM TO MARKET ROAD","BREWSTER","NY","10509"
239968,"532 FARMINGTON WOODS DRIVE","CARY","NC","27511"
239969,"532 GARDNER EXPRESSWAY","QUINCY","IL","62301"
239970,"532 GARVIN ST","PICKENS","SC","29671"
239971,"532 HUSET PARKWAY NE","COLUMBIA HEIGHTS","MI","55421"
239972,"532 HUSET PARKWAY NE","COLUMBIA HEIGHTS","MN","55421"
239973,"532 JERSEY AVE APT 204","JERSEY CITY","NJ","07302"
239974,"532 JERSEY AVENUE - SUITE 206","JERSEY CITY","NJ","07302"
239975,"532 JOYCE STREET","APOLLO","PA","15613"
239976,"532 KARR AVE","HOQUIAM","WA","98550"
239977,"532 KINGSLEY AVE  UNIT 117","PROVIDENCE","RI","02906"
239978,"532 LIBERTY HWY","PUTNAM","CT","06260"
239979,"532 MAPLE STREET","LOWER WATERFORD","VT","05848"
239980,"532 MARLTON PIKE WEST","MARLTON","NJ","08053"
239981,"532 MCDONALD ROAD","GEORGETOWN","SC","29440"
239982,"532 MELODY LANE","GRAND JUNCTION","CO","81501"
239983,"532 MONTRACHET DRIVE","OFALLON","MO","63368"
239984,"532 N MAGNOLIA AVE UNIT 243","ANAHEIM","CA","92801"
239985,"532 NE 3RD NO 101","CAMAS","WA","98607"
239986,"532 NORTH MAGNOLIA AVE SUITE 310","ANAHEIM","CA","92801"
239987,"532 OVERSEER RETREAT","MOUNT PLEASANT","SC","29464"
239988,"532 OZARK RD","ABBEVILLE","AL","36310"
239989,"532 PAYNE WAY","BLAIRSVILLE","GA","30512"
239990,"532 PERSHING BLVD","READING","PA","19607"
239991,"532 RANDOM RD APT 3","BALTIMORE","GA","21229"
239992,"532 RATCLIFF STREET","SHREVEPORT","LA","71104"
239993,"532 REDFIELD AVE","LOS ANGELES","CA","90042"
239994,"532 RIVERDALE AVE","YONKERS","NY","10705"
239995,"532 S 15TH ST","FORT DODGE","IA","50501"
239996,"532 S 3RD ST E","MALTA","MT","59538"
239997,"532 S ELMHURST RD","WHEELING","IL","60090"
239998,"532 SANTA RITA BLVD","LIBERTY HILL","TX","78642"
239999,"532 STONE CREEK DRIVE","CHARLESTON","SC","29414"
240000,"532 SUMMER COVE CIRCLE NW","MADISON","AL","35757"
