"ID","Address","City","State","Zip"
129501,"2332 RIDGEVIEW AVENUE","LOS ANGELES","CA","90041"
129502,"2332 S 19TH AVE","BROADVIEW","IL","60155"
129503,"2332 SILVER RIDGE AVE","LOS ANGELES","CA","90039"
129504,"2332 SUMMERWIND PLACE","CARLSBAD","CA","92008"
129505,"2332 TYRRHENIAN CIR","LONGMONT","CO","80504"
129506,"2332 VENNIE CT","SANTA ROSA","CA","95401"
129507,"2332 WATERSIDE LN SW","VERO BEACH","FL","32962"
129508,"23321 LA GLORIETA APT C","MISSION VIEJO","CA","92691"
129509,"23321 POWELL AVE","HAZEL PARK","MI","48030"
129510,"23322 NUEVO MUNDO RD","RAMONA","CA","92065"
129511,"23322 RAINBOW ARCH DRIVE","CLARKSBURG","MD","20871"
129512,"23324 ROBBINS ROAD","ASTATULA","FL","34705"
129513,"23324 STATE HWY 38","MARSHFIELD","MO","65706"
129514,"23325 VAN BORN RD PMB 30","TAYLOR","MI","48180"
129515,"23327 BEAUMONT STREET","VALENCIA","CA","91354"
129516,"23328 OLIVEWOOD PLAZA DR","MORENO VALLEY","CA","92553"
129517,"23329 ALMAROSA AVE","TORRANCE","CA","90505"
129518,"2333 11TH ST SO","ST PETERSBURG","FL","33705"
129519,"2333 21ST AVE UNIT B","FOREST GROVE","OR","97116"
129520,"2333 99TH AVE SE","WIMBLEDON","ND","58492"
129521,"2333 AMHERST AVE","LOS ANGELES","CA","90064"
129522,"2333 ANDERSON RD","CRESCENT SPRINGS","KY","41017"
129523,"2333 APPLETON DR","DALLAS","TX","75216"
129524,"2333 CAMINO DEL RIO S 140","SAN DIEGO","CA","92018"
129525,"2333 CAMINO DEL RIO S SUITE 140","SAN DIEGO","CA","92108"
129526,"2333 CANYON OAKS DRIVE 1205","ARLINGTON","TX","76011"
129527,"2333 CAPELLA CIRCLE","ATLANTA","GA","30331"
129528,"2333 DESOTA DRIVE","FORT LAUDERDALE","FL","33301"
129529,"2333 E PICO","FRESNO","CA","93726"
129530,"2333 EL DORADO DR SE","E GRAND RAPIDS","MI","49506"
129531,"2333 FEATHER SOUND DR UNIT A604","CLEARWATER","FL","33762"
129532,"2333 FEATHER SOUND DRIVE","CLEARWATER","FL","33762"
129533,"2333 FIRST AVENUE UNIT 204","SAN DIEGO","CA","92101"
129534,"2333 GREEN LEAF RD","DORCHESTER","IA","52140"
129535,"2333 HARRISON STREET","OAKLAND","CA","94612"
129536,"2333 KAPIOLANI BLVD UNIT 817","HONOLULU","HI","96826"
129537,"2333 MERRILY CIRCLE S","SEFFNER","FL","33584"
129538,"2333 N RAMSEY AVE","SPRINGFIELD","MO","65803"
129539,"2333 NW 158TH ST","EDMOND","OK","73013"
129540,"2333 SHELLFISH COURT","RICHMOND","VA","23294"
129541,"2333 SOUTH 5TH STREET","SPRINGFIELD","IL","62703"
129542,"2333 SOUTH HOYNE AVENUE","CHICAGO","IL","60608"
129543,"2333 SOUTH PATTERSON STREET","VALDOSTA","GA","31605"
129544,"2333 ST ANDREWS BLVD","PANAMA CITY","FL","32405"
129545,"2333 STERLING POINTE","CHESTERFIELD","MO","63005"
129546,"2333 SYCAMORE AVENUE SIDE 3","LOUISVILLE","KY","40206"
129547,"2333 TINSLEY","LAS VEGAS","NV","89134"
129548,"2333 US HWY 641 S","MURRAY","KY","42071"
129549,"2333 W DEVON AVE","CHICAGO","IL","60659"
129550,"2333 WISDOMS COURT","AVON","IN","46123"
129551,"23331 DEL ROSSO ST","RICHMOND","TX","77406"
129552,"23331 N STATE ROAD 235","BROOKER","FL","32622"
129553,"23332 HAWTHORNE BLVD SUITE 102","TORRANCE","CA","90505"
129554,"23332 ROBIN SONG DRIVE","CLARKSBURG","MD","20871"
129555,"23333 WILLOWBROOK","NOVI","MI","48375"
129556,"23334 HAYNES STREET","FARMINGTON HILLS","MI","48336"
129557,"23335 DUNHILL CT","KATY","TX","77494"
129558,"23335 N 18TH DRIVE  SUITE 136","PHOENIX","AZ","85027"
129559,"23336 N 120TH LANE","SUN CITY","AZ","85373"
129560,"23339 HWY 14","RICHLAND CENTER","WI","53581"
129561,"23339 STATE HIGHWAY B","WESTBORO","MO","64498"
129562,"2334 BELLEVIEW AVE","CHEVERLY","MD","20785"
129563,"2334 BELT RD","KNOXVILLE","TN","37920"
129564,"2334 BURDETTE ROAD","GRANDVIEW","TN","37337"
129565,"2334 E EL SEGUNDO BLVD","COMPTON","CA","90222"
129566,"2334 HERMAN STREET","NASHVILLE","TN","37208"
129567,"2334 HOSP WAY UNIT 110","CARLSBAD","CA","92008"
129568,"2334 LOCKPORT ROAD","SANBORN","NY","14132"
129569,"2334 MALAYA CT","PUNTA GORDA","FL","33983"
129570,"2334 OAKLAND AVENUE","INDIANA","PA","15701"
129571,"2334 PATTERSON ST","PITTSBURGH","PA","15203"
129572,"2334 PLEASANT DRIVE","DALLAS","TX","75227"
129573,"2334 S OAKLEY AVE APT3","CHICAGO","IL","60608"
129574,"2334 S RICHMAN CIRCLE","NEW PALESTINE","IN","46163"
129575,"2334 SW 67TH AVE","MIAMI","FL","33165"
129576,"2334 WESTON ROAD SUITE 109","WESTON","FL","33326"
129577,"2334-56 WILDER STREET","PHILADELPHIA","PA","19145"
129578,"23340 BREWERS TAVERN WAY","CLARKSBURG","MD","20871"
129579,"23343 SW 54TH WAY APT A","BOCA RATON","FL","33433"
129580,"23343 W  ASHLEIGH MARIE DR","BUCKEYE","AZ","85326"
129581,"23343 WELBY WAY","WEST HILLS","CA","91307"
129582,"23345 CAMINITO LAZARO","LAGUNA HILLS","CA","92653"
129583,"23345 GREENWOOD TRAIL","BULLARD","TX","75757"
129584,"23347 CLAY ROAD","KATY","TX","77493"
129585,"23347 DODD RD","LE CENTER","MN","56057"
129586,"23347 DODD ROAD","LE CENTER","MN","56057"
129587,"23348 W WATKINS RD","BUCKEYE","AZ","85326"
129588,"2335 19TH STREET","MOLINE","IL","61265"
129589,"2335 BROKEN OAK ROAD","FORT WAYNE","IN","46818"
129590,"2335 BUTTERMILK CROSSING SUITE 199","CRESCENT SPRINGS","KY","41011"
129591,"2335 CHESHIRE BRIDGE RD NE","ATLANTA","GA","30324"
129592,"2335 COLLIN DRIVE","GRAND PRAIRIE","TX","75052"
129593,"2335 COUNTY ROAD 23","WATERLOO","IN","46793"
129594,"2335 COUNTY ROUTE 41","ROXBURY","NY","12474"
129595,"2335 CROTONA AVE NUM 5F","BRONX","NY","10458"
129596,"2335 E COLORADO BLVD SUITE 115","PASADENA","CA","91107"
129597,"2335 GAYLORD DRIVE","SUITLAND","MD","20746"
129598,"2335 HOLLAND AVE","BRONX","NY","10467"
129599,"2335 JENNAS WAY SE","CONYERS","GA","30013"
129600,"2335 KALAKAUA AVE SUITE 110-234","HONOLULU","HI","96815"
129601,"2335 KALAKAUA AVE","HONOLULU","HI","96815"
129602,"2335 LAUGHLIN DR","DALLAS","TX","75228"
129603,"2335 LYDE PLACE","SCOTCH PLAINS","NJ","07076"
129604,"2335 MAPLE ST","HOLLISTER","MO","65672"
129605,"2335 MISTLETOE AVE","FORT WORTH","TX","76110"
129606,"2335 N CLARK STREET","PORTLAND","OR","97227"
129607,"2335 N LINCOLN AVE APT 501","CHICAGO","IL","60614"
129608,"2335 NORTH CLARK AVE","PORTLAND","OR","97227"
129609,"2335 NORTH M STREET","TULARE","CA","93274"
129610,"2335 NORTH MAIN STREET","GIDDINGS","TX","78942"
129611,"2335 NW 107 AVE BOX 100","MIAMI","FL","33172"
129612,"2335 OXBOW CT","CASTLE ROCK","CO","80104"
129613,"2335 PARK AVE APT 6","CINCINNATI","OH","45206"
129614,"2335 PEPPER TREE LN","MANTECA","CA","95336"
129615,"2335 S BERKELEY STREET","SALT LAKE CITY","UT","84109"
129616,"2335 SAINT FRANCIS WAY","SAN CARLOS","CA","94070"
129617,"2335 SCOTTWOOD AVENUE","TOLEDO","OH","43620"
129618,"2335 SECOND STREET","CUYAHOGA FALLS","OH","44221"
129619,"2335 SHIPROCK WAY","COLORADO SPRINGS","CO","80919"
129620,"2335 SW 35 PLACE APT 31","GAINESVILLE","FL","32608"
129621,"2335 VIRGINIA PL NE","ATLANTA","GA","30305"
129622,"2335 W ALTGELD STREET","CHICAGO","IL","60647"
129623,"2335 W APPLEWOOD LN","MILWAUKEE","WI","53209"
129624,"2335 WEST CASE RD","COLUMBUS","OH","43235"
129625,"23350 HOOVER BAULT RD","RAYMOND","OH","43067"
129626,"23350 LAKE MANOR DR","CHATSWORTH","CA","91311"
129627,"23350 LOCUST GROVE RD","CREOLA","OH","45622"
129628,"23350 STANFORD RD","BEACHWOOD","OH","44122"
129629,"23355 GOLDEN SPRINGS DRIVE","DIAMOND BAR","CA","91765"
129630,"23356 MIRABELLA CIRCLE S","BOCA RATON","FL","33433"
129631,"23357 PICO AVENUE","NUEVO","CA","92567"
129632,"2336 15TH AVE S","SEATTLE","WA","98144"
129633,"2336 ASH GROVE TRL","FORT WORTH","TX","76112"
129634,"2336 CRENSHAW BLVD APT 202","LOS ANGELES","CA","90016"
129635,"2336 HACKAMORE DRIVE","COLLEGE PARK","GA","30349"
129636,"2336 HOLT AVENUE","COLUMBUS","OH","43219"
129637,"2336 JACKSON ST","HOUSTON","TX","77004"
129638,"2336 JOHN MCMILLIAN ROAD","HOPE MILLS","NC","28348"
129639,"2336 LIBERTY STREET","JACKSONVILLE","FL","32206"
129640,"2336 LINDEN HILL RD","BLOOMINGTON","IN","47401"
129641,"2336 MIRACLE LANE","MISHAWAKA","IN","46565"
129642,"2336 NE 11TH AVE","PORTLAND","OR","97212"
129643,"2336 NE RUSTIC PL","JENSEN BEACH","FL","34957"
129644,"2336 NW 16TH STREET","FORT LAUDERDALE","FL","33311"
129645,"2336 ORCHID HILL PLACE","NEWPORT BEACH","CA","92660"
129646,"2336 SW FEATHER RIDGE RD","LEES SUMMIT","MO","64082"
129647,"2336 TURNBERRY LANE","FORT WAYNE","IN","46814"
129648,"23360 PRESCOTT","MORENO VALLEY","CA","92557"
129649,"23360 VANCE AVE","HAZEL PARK","MI","48030"
129650,"23361 EL TORO ROAD STE 215","LAKE FOREST","CA","92630"
129651,"23363","PROVIDENCE","RI","02903"
129652,"23367 290TH ST","DEDHAM","IA","51440"
129653,"2337 BELLEAIR ROAD STE B","CLEARWATER","FL","33764"
129654,"2337 BELLEVUE STREET","SAGINAW","MI","48601"
129655,"2337 E HOQUIAM ROAD","HOQUIAM","WA","98550"
129656,"2337 FULLERTON RD","ROWLAND HEIGHTS","CA","91748"
129657,"2337 GILPIN AVENUE","COLORADO SPRINGS","CO","80910"
129658,"2337 GREEN STREET SE APT 2","WASHINGTON","DC","20020"
129659,"2337 HICKORY CT","AUBURN","MI","48611"
129660,"2337 HIGH COUNTRY WAY","PLANO","TX","75025"
129661,"2337 HUDSON TERRACE APT C10","FORT LEE","NJ","07024"
129662,"2337 N CLEVELAND STREET","PHILADELPHIA","PA","19132"
129663,"2337 OAKMONT DR","BEDFORD","TX","76022"
129664,"2337 POLE AVE","LORAIN","OH","44052"
129665,"2337 ROOKERY DRIVE SW","BRAINERD","MN","56401"
129666,"2337 SE GRAND DR","PORT ST LUCIE","FL","34952"
129667,"2337 STONEFIELD DR","FLUSHING","MI","48433"
129668,"2337 SW ARCHER RD APT 3012","GAINESVILLE","FL","32608"
129669,"2337 WATSON MARSHALL ROAD","MCDONALD","OH","44437"
129670,"23371 MULHOLLAND DR 367","WOODLAND HILLS","CA","91364"
129671,"23371 MULHOLLAND DR STE 260","WOODLAND HILLS","CA","91364"
129672,"23371 MULHOLLAND DRIVE  SUITE 270","WOODLAND HILLS","CA","91364"
129673,"23371 MULHOLLAND DRIVE STE 367","WOODLAND HILLS","CA","91364"
129674,"23371 MULHOLLAND DRIVE UNIT 359","WOODLAND HILLS","CA","91364"
129675,"23372 VIA CHIRIPA","MISSION VIEJO","CA","92691"
129676,"23374 BALMORAL LANE","WEST HILLS","CA","91307"
129677,"23374 W YUMA RD 102","BUCKEYE","AZ","85326"
129678,"23376 E 5TH PL UNIT 204","AURORA","CO","80018"
129679,"23376 NEW MOUNTAIN ROAD","ALDIE","VA","20105"
129680,"23377 W CHARDON RD","GRAYSLAKE","IL","60030"
129681,"2338 19TH AVENUE","OAKLAND","CA","94606"
129682,"2338 330TH AVE","WHITE CLOUD","KS","66094"
129683,"2338 CANYONBACK ROAD","LOS ANGELES","CA","90049"
129684,"2338 CRYSTAL MILE CT","TOMS RIVER","NJ","08755"
129685,"2338 DISTINCTIVE DR","COLORADO SPRINGS","CO","80920"
129686,"2338 E 99TH STREET","CHICAGO","IL","60617"
129687,"2338 E VAN BUREN ST","BROWNSVILLE","TX","78520"
129688,"2338 IMMOKALEE RD SUITE 408","NAPLES","FL","34110"
129689,"2338 INDEPENDENCE STREET","TWIN FALLS","ID","83301"
129690,"2338 LARK SPARROW ST","MYRTLE BEACH","SC","29577"
129691,"2338 LOMA VISA PLACE","LOS ANGELES","CA","90039"
129692,"2338 LOOP 1604 SUITE 120","SAN ANTONIO","TX","78248"
129693,"2338 MOREMEN RD","SAINT JOHNS","FL","32259"
129694,"2338 N GREEN VALLEY PKWY 212 BL 2","HENDERSON","NV","89014"
129695,"2338 N LOOP 1604 W STE 120","SAN ANTONIO","TX","78248"
129696,"2338 NORTH DECATUR ROAD","DECATUR","GA","30033"
129697,"2338 OSPREY LAKE DR","JACKSONVILLE","FL","32224"
129698,"2338 PALMETTO","COMMERCE TOWNSHIP","MI","48382"
129699,"2338 SERVANDO AVE APT 71","SAN DIEGO","CA","92154"
129700,"2338 SWEET FLAG CT","CHARLOTTE","NC","28262"
129701,"2338 TELEGRAPH AVE STE 332","BERKELEY","CA","94704"
129702,"2338 W MORSE AVE 1C","CHICAGO","IL","60645"
129703,"2338 WEST CHESTNUT STREET","TAMPA","FL","33607"
129704,"2338 WEST FARRAGUT","CHICAGO","IL","60625"
129705,"23382 3RD AVE","MANKATO","MN","56001"
129706,"23387 BOATMANS CT","LEWES","DE","19958"
129707,"23389 SCOTT DR","FARMINGTON HILLS","MI","48336"
129708,"2339 CITICO DRIVE STE 206","CORDOVA","TN","38016"
129709,"2339 COMET ST","NEW ORLEANS","LA","70131"
129710,"2339 COUNTY RD 1217","BLANCHARD","OK","73010"
129711,"2339 COVEY LANE","SANTA CLARA","UT","84765"
129712,"2339 FAIROAKS ROAD","DECATUR","GA","30033"
129713,"2339 FLAGSTAFF DR","LONGMONT","CO","80504"
129714,"2339 GOLD MEADOW WAY STE 100","RANCHO CORDOVA","CA","95670"
129715,"2339 HARDING AVENUE","LANSING","MI","48910"
129716,"2339 JUSTIN LANE","HARVEY","LA","70058"
129717,"2339 MAPLEWOOD DR","LEXINGTON","KY","40503"
129718,"2339 MERLE RD","SALEM","OH","44460"
129719,"2339 N LEXINGTON AVENUE","SPRINGFIELD","MO","65803"
129720,"2339 S 3RD ST","JBLM","WA","98433"
129721,"2339 SANDRINGHAM CIRCLE","INDIANAPOLIS","IN","46214"
129722,"2339 TAPIA BLVD SW","ALBUQUERQUE","NM","87105"
129723,"2339 WEST HAMMER LANE","STOCKTON","CA","95209"
129724,"2339 YEAGER ROAD 8","WEST LAFAYETTE","IN","47906"
129725,"23390 CTY RD 74","EATON","CO","80615"
129726,"23395 MIDDLEBELT ROAD","FARMINGTON HILLS","MI","48336"
129727,"23396 THOMPSON ROAD","SHELL LAKE","WI","54871"
129728,"233A ROCK RD 350","GLEN ROCK","NJ","07452"
129729,"233B S PETERS RD","KNOXVILLE","TN","37923"
129730,"233E WHEELER AVE","GARDEN CITY","NY","11530"
129731,"234  86 STREET","BROOKLYN","NY","11209"
129732,"234  W MOUNT PLEASANT AVENUE","PHILADELPHIA","PA","19119"
129733,"234 14TH AVE W","BRANDENTON","FL","34205"
129734,"234 68TH ST N","ST PETERSBURG","FL","33710"
129735,"234 86TH ST","BROOKLYN","NY","11209"
129736,"234 ALBANY DRIVE","HAMPTON","VA","23666"
129737,"234 ANGUS DR","LULING","LA","70070"
129738,"234 ARCADIA RD","GOSHEN","NY","10924"
129739,"234 ARTIFACT AVE","WINCHESTER","VA","22603"
129740,"234 ATLANTIC AVE","BOOTHBAY HARBOR","ME","04538"
129741,"234 BAYRIDGE DR","CORPUS CHRISTI","TX","78411"
129742,"234 BETTY DRIVE","MONTZ","LA","70068"
129743,"234 BRENTWOOD DRIVE","BUSHKILL","PA","18324"
129744,"234 BRIDGEWATER PL","BREAUX BRIDGE","LA","70517"
129745,"234 BROOKFIELD DRIVE","GREENWOOD","SC","29646"
129746,"234 CENTER RD","BEDFORD","OH","44146"
129747,"234 CENTRAL AVE","HATBORO","PA","19040"
129748,"234 CHURCH STREET FLOOR 7","NEW HAVEN","CT","06510"
129749,"234 COMMONWEALTH AVENUE","DUQUESNE","PA","15110"
129750,"234 COMMUNIPAW AVE SUITE 300","`","NJ","07304"
129751,"234 CORIELL AVENUE","FANWOOD","NJ","07023"
129752,"234 COUNTY ROAD 430","STOCKDALE","TX","78160"
129753,"234 CR 725","NACOGDOCHES","TX","75964"
129754,"234 CRITTENDEN WAY","ROCHESTER","NY","14623"
129755,"234 DAVIS AVENUE","CLIFTON HEIGHTS","PA","19018"
129756,"234 DEGRAW STREETE","BROOKLYN","NY","11231"
129757,"234 DEVONWOOD DR","SANDY SPRINGS","GA","30328"
129758,"234 DINSMORE AVENUE","THOUSAND OAKS","CA","91362"
129759,"234 E 4TH ST","WINNER","SD","57580"
129760,"234 E EDISON AVENUE","DES MOINES","IA","50315"
129761,"234 E GUAVA ST","OXNARD","CA","93033"
129762,"234 E SEVENTH AVE","TALLAHASSEE","FL","32303"
129763,"234 EAST 149TH STREET SUITE 8-20","BRONX","NY","10451"
129764,"234 EAST 15TH  STREET","APOPKA","FL","32703"
129765,"234 EAST 7TH AVENUE","TALLAHASSEE","FL","32303"
129766,"234 EAST CAMPHOR STREET","AVON PARK","FL","33825"
129767,"234 EAST SEVENTH AVENUE","TALLAHASSEE","FL","32303"
129768,"234 EAST STEARNS RD","BARTLETT","IL","60103"
129769,"234 EASTERLY PARKWAY","STATE COLLEGE","PA","16801"
129770,"234 ELDRED ROAD","OAKDALE","LA","71463"
129771,"234 ELM STREET APT 3W","YONKERS","NY","10701"
129772,"234 ESCUELA AVE APT 96","MOUNTAIN VIEW","CA","94040"
129773,"234 EVERGREEN WAY","STOCKBRIDGE","GA","30281"
129774,"234 EVERIT STREET","NEW HAVEN","CT","06511"
129775,"234 FIREWHEEL CT","SUMMERVILLE","SC","29486"
129776,"234 FISHER AVENUE","BROOKLINE","MA","02445"
129777,"234 FITZPATRICK STREET","HILLSIDE","NJ","07205"
129778,"234 FLATWOOD ACRES RD","CHILHOWIE","VA","24319"
129779,"234 G C AND P ROAD","WHEELING","WV","26003"
129780,"234 GLENMORE AVE","BROOKLYN","NY","11207"
129781,"234 GLENWOOD ROAD","ELKINS PARK","PA","19027"
129782,"234 GRATTAN STREET","FALL RIVER","MA","02721"
129783,"234 GREEN MEADOW DRIVE","INDIANAPOLIS","IN","46229"
129784,"234 GREENGLADE AVE","WORTHINGTON","OH","43085"
129785,"234 GREENGLADE","WORTHINGTON","OH","43085"
129786,"234 HAMILTONIAN DR","RED BANK","NJ","07701"
129787,"234 HOSACK RD","JACKSON CENTER","PA","16133"
129788,"234 JACKSON ROAD","SHAVERTOWN","PA","18708"
129789,"234 JEFFERSON ST","OREGON","WI","53575"
129790,"234 JOHNSON STREET","SALEM","NJ","08079"
129791,"234 JUDD ROAD","SOUTHBURY","CT","06488"
129792,"234 KATIE SIMPSON AVENUE","GOODRICH","TX","77335"
129793,"234 LAWSON FARMS DRIVE","MIDLOTHIAN","TX","76065"
129794,"234 LOYOLA DRIVE","ELYRIA","OH","44035"
129795,"234 MACKENZIE LANE","STEPHENSON","VA","22656"
129796,"234 MAIN AVENUE NORTH","GREENBUSH","MN","56726"
129797,"234 MAIN STREET ROUTE 109","MEDFIELD","MA","02052"
129798,"234 MAIN STREET","RIDGEFIELD","NJ","07660"
129799,"234 MARKET ST FLOOR 4","PHILADELPHIA","PA","19106"
129800,"234 MCALWAY ROAD","CHARLOTTE","NC","28211"
129801,"234 MEMORY LANE","HARKER HEIGHTS","TX","76548"
129802,"234 N 37TH STREET","MILWAUKEE","WI","53208"
129803,"234 N 5TH ST","SUFFOLK","VA","23434"
129804,"234 N LEXINGTON PKWY","DEFOREST","WI","53532"
129805,"234 N MARCLIFFE DR","VALPARAISO","IN","46385"
129806,"234 NASSAU STREET","PRINCETON","NJ","08542"
129807,"234 NEFF STREET","SAN ANTONIO","TX","78207"
129808,"234 NORTH MAIN STREET","RUTHERFORDTON","NC","28139"
129809,"234 NORTH OAK AVE","BARTLETT","IL","60103"
129810,"234 NORTH TATNALL STREET NUM 93428","WILMINGTON","NY","19801"
129811,"234 NW PLEASANT GROVE WAY","PORT ST LUCIE","FL","34986"
129812,"234 OAKWOOD","MANDEVILLE","LA","70448"
129813,"234 OKEECHOBEE W","SANTA ROSA BEACH","FL","32459"
129814,"234 ORANGE GROVE ST","HILLSBOROUGH","NC","27278"
129815,"234 OSCEOLA STREET","AUBURNDALE","FL","33823"
129816,"234 PARK AVENUE","PARK RIDGE","NJ","07656"
129817,"234 PERCY DR","OPELOUSAS","LA","70570"
129818,"234 PIRATE DR","SAINT ROSE","LA","70087"
129819,"234 PLEASANT VALLEY ROAD","EAST EARL","PA","17519"
129820,"234 RED TAIL DR","DOVER","DE","19904"
129821,"234 REGISTER ROAD","CALHOUN","LA","71225"
129822,"234 RICHELIEU ROAD","WILMINGTON","NC","28412"
129823,"234 RIDGE CREST DR","MACON","GA","31210"
129824,"234 RIDGECREST DRIVE","KLAMATH FALLS","OR","97601"
129825,"234 RIVER MEADOW DR","LAGRANGE","GA","30241"
129826,"234 ROYALTON RD","MOORESVILLE","NC","28115"
129827,"234 S 22ND ST","DECATUR","IL","62521"
129828,"234 S ARCOLA ST","ANGLETON","TX","77515"
129829,"234 S ARCOLA","ANGLETON","TX","77515"
129830,"234 S FIGUEROA ST 231","LOS ANGELES","CA","90012"
129831,"234 S SPRING STREET","PAXTON","IL","60957"
129832,"234 SANTILLANE AVE APT 1","CORAL GABLES","FL","33134"
129833,"234 SCOTT DR","ENGLEWOOD","OH","45322"
129834,"234 SMITHSTONE PATH","FAYETTEVILLE","GA","30214"
129835,"234 SON WATTS DR","NEWTON","MS","39345"
129836,"234 SOUTH BROADWAY STREET","MEDINA","OH","44256"
129837,"234 SOUTH LEHIGH AVE","SAYRE","PA","18840"
129838,"234 SPRINGMONT DRIVE","WYOMISSING","PA","19610"
129839,"234 ST JOSEPH DRIVE","STEUBENVILLE","OH","43952"
129840,"234 STACY WEAVER DR","FAYETTEVILLE","NC","28311"
129841,"234 STONEHEDGE LN","GUILFORD","CT","06437"
129842,"234 TEAL WAY","ELKO","NV","89801"
129843,"234 VALLEY STREET NW","ABINGDON","VA","24210"
129844,"234 VILLAGE WALK","COLUMBIA","SC","29209"
129845,"234 W 18TH AVENUE PO BOX 3782","COLUMBUS","OH","43210"
129846,"234 W 20TH STREET","LONG BEACH","CA","90806"
129847,"234 W CORINTH RD","CORINTH","ME","04427"
129848,"234 W MILL ST","COLORADO SPRINGS","CO","80903"
129849,"234 WALNUT STREET","WESTVILLE","IL","61883"
129850,"234 WATCHUNG AVENUE","ORANGE","NJ","07050"
129851,"234 WEST 114TH STREET","NEW YORK","NY","10026"
129852,"234 WEST 8TH ST","LOVELL","WY","82431"
129853,"234 WESTCOTT ST","HOUSTON","TX","77007"
129854,"234 WHITE OAK STREET","JACKSON","MS","39213"
129855,"234 WILDERNESS TRAIL","MESQUITE","TX","75149"
129856,"234 WINDER","DETROIT","MI","48201"
129857,"234-27 135TH AVE","ROSEDALE","NY","11422"
129858,"2340 130TH AVE NE STE D202","BELLEVUE","WA","98005"
129859,"2340 225TH STREET","MILFORD","IA","51351"
129860,"2340 ALAMO SE SUITE 112","ALB","NM","87106"
129861,"2340 ALEXANDER TER","HOMEWOOD","IL","60430"
129862,"2340 AMPHIBIOUS DR","VIRGINIA BEACH","VA","23459"
129863,"2340 ASHTON DRIVE","ROSWELL","GA","30076"
129864,"2340 CAROL VIEW DRIVE E-111","CARDIFF-BY-THE-SEA","CA","92007"
129865,"2340 CARTA WAY APT 5057","HERNDON","VA","20171"
129866,"2340 CORONADO AVE","YOUNGSTOWN","OH","44504"
129867,"2340 DECLARATION DRIVE","RALEIGH","NC","27615"
129868,"2340 DES PLAINES RIVER RD SUITE 414","DES PLAINES","IL","60018"
129869,"2340 E 99TH ST","CARMEL","IN","46280"
129870,"2340 E CROSBY RD","MOORESVILLE","IN","46158"
129871,"2340 E TRINITY MILLS RD SUITE 300","CARROLLTON","TX","75006"
129872,"2340 E TRINITY MILLS ROAD SUITE 300","CARROLLTON","TX","75006"
129873,"2340 E TRINITY MILLS STE 300","CARROLLTON","TX","75006"
129874,"2340 ERIN PLACE","SOUTH SAN FRANCISCO","CA","94080"
129875,"2340 FM 2729","WHI","TX","75491"
129876,"2340 GREYHOUND DRIVE","AUGUSTA","KS","67010"
129877,"2340 HOWEY RD","COLUMBUS","OH","43211"
129878,"2340 HUBER RD","SEGUIN","TX","78155"
129879,"2340 HWY 180 NUMBER 280","SILVER CITY","NM","88061"
129880,"2340 HWY 22 E","OWENTON","KY","40359"
129881,"2340 JACKSON STREET","SAN FRANCISCO","CA","94115"
129882,"2340 LEXINGTON LN","NAPERVILLE","IL","60540"
129883,"2340 MARKLAND ST","IRVING","TX","75060"
129884,"2340 MOLLY LN","PLANO","TX","75074"
129885,"2340 MULLAN ROAD","MISSOULA","MT","59808"
129886,"2340 MYERLEE DR","MYRTLE BEACH","SC","29588"
129887,"2340 N GRAHAM ST  B","CHARLOTTE","NC","28206"
129888,"2340 N ROBINHOOD PL","ORANGE","CA","92867"
129889,"2340 NORTH AVENUE 3B","BRIDGEPORT","CT","06604"
129890,"2340 NORTHDALE BLVD NW","COON RAPIDS","MN","55433"
129891,"2340 NORTHDALE BLVD","COON RAPIDS","MN","55433"
129892,"2340 PARK PLACE DRIVE","GULFPORT","MS","39507"
129893,"2340 POWELL ST - SUITE 108","EMERYVILLE","CA","94608"
129894,"2340 POWELL ST 372","EMERYVILLE","CA","94608"
129895,"2340 POWELL STREET SUITE 263","EMERYVILLE","CA","94608"
129896,"2340 S 16TH STREET","PHILADELPHIA","PA","19145"
129897,"2340 S ANDREA","BOLIVAR","MO","65613"
129898,"2340 S PARC GREEN ST","HARVEY","LA","70058"
129899,"2340 SANTA RITA ROAD SUITE 5","PLEASANTON","CA","94566"
129900,"2340 SLEEPY HOLLOW DR","SHINGLE SPRINGS","CA","95682"
129901,"2340 SUNSET DRIVE","NEW SMYNRA BEACH","FL","32168"
129902,"2340 SYLVAN ROAD","EAST POINT","GA","30344"
129903,"2340 VICKERS DR","COLORADO SPRINGS","CO","80918"
129904,"2340 WALNUT TREE COURT","BUFORD","GA","30519"
129905,"2340 WEST CHESTER PIKE","BROOMALL","PA","19008"
129906,"23400 HEGAR ROAD","HOCKLEY","TX","77447"
129907,"23400 HUGHES AVENUE","HAZEL PARK","MI","48030"
129908,"23400 HUGHES","HAZEL PARK","MI","48030"
129909,"23400 MERCANTILE ROAD SUITE 3","BEACHWOOD","OH","44122"
129910,"23401 HANSON ROAD","UNION GROVE","WI","53182"
129911,"23401 SE BLUE RIDGE DR","DAMASCUS","OR","97089"
129912,"23402 CLARK ARBOR LN","KATY","TX","77493"
129913,"23402 FAIRFALLA LN","RICHMOND","TX","77406"
129914,"23402 HIGHWAY 65","COLO","IA","50056"
129915,"23403 E MISSION AVE SUITE 203","LIBERTY LAKE","WA","99019"
129916,"23405 MILLVILLE WAY","MILLVILLE","CA","96062"
129917,"23405 SW SCHOLLS FERRY RD","HILLSBORO","OR","97123"
129918,"23406 117TH PL SE","KENT","WA","98031"
129919,"23407 BUNDY CANYON ROAD","WILDOMAR","CA","92595"
129920,"23407 MAGIC MOUNTAIN PARKWAY 407","VALENCIA","CA","91355"
129921,"23407 SUNSET VIEW","SORRENTO","FL","32776"
129922,"23408 VIA BARRA","VALENCIA","CA","91355"
129923,"23409 34TH AVE CT E","SPANAWAY","WA","98387"
129924,"23409 80TH AVE N","PORT BYRON","IL","61275"
129925,"23409 HAMILTON AVE","GERBER","CA","96035"
129926,"2341 5TH AVE","GREELEY","CO","80631"
129927,"2341 ALEXANDER TOP PL","GRAYSON","GA","30017"
129928,"2341 BEDFORDSHIRE CIR","RESTON","VA","20191"
129929,"2341 BROOKWOOD COURT","AURORA","IL","60502"
129930,"2341 CHESTERFIELD AVENUE","CHARLOTTE","NC","28205"
129931,"2341 COUNTY ROAD 1215","BLANCHARD","OK","73010"
129932,"2341 DAVIS MILL ROAD","FREMONT","NC","27830"
129933,"2341 ELBERRY RD","LATTA","SC","29565"
129934,"2341 ENTRADA DEL SOL","LAS CRUCES","NM","88001"
129935,"2341 FRENCH ALPS AVE","HENDERSON","NV","89044"
129936,"2341 GREEN ST SE SUITE 3","WASHINGTON","DC","20020"
129937,"2341 KEYSTONE BOULEVARD","NORTH MIAMI","FL","33181"
129938,"2341 N 48TH STREET","LINCOLN","NE","68504"
129939,"2341 NW 11TH ST","OKLAHOMA CITY","OK","73107"
129940,"2341 RESTON LANE","COLUMBUS","IN","47203"
129941,"2341 SE LADD AVE","PORTLAND","OR","97214"
129942,"2341 SHERBROOK ST","PITTSBURGH","PA","15217"
129943,"2341 TOWLES ST","FORT MYERS","FL","33916"
129944,"2341 W MALDONADO RD","PHOENIX","AZ","85041"
129945,"2341 WEST HEDDING STREET","SAN JOSE","CA","95128"
129946,"2341","NORTH LAS VEGAS","NV","89032"
129947,"23410 18TH AVE S STE E-301","DES MOINES","WA","98198"
129948,"23410 CATSKILL AVENUE","CARSON","CA","90745"
129949,"23410 WHITE MAGNOLIA PLACE APT 204","LUTZ","FL","33549"
129950,"23411 CIVIC CENTER DRIVE","SOUTHFIELD","MI","48033"
129951,"23411 SOUTHEAST BORGES ROAD","DAMASCUS","OR","97089"
129952,"23411 SPRAGUE RIVER ROAD","SPRAGUE RIVER","OR","97639"
129953,"23412 MOULTON PKWY STE 120","LAGUNA HILLS","CA","92653"
129954,"23415 THREE NOTCH RD SUITE 2008-113","CALIFORNIA","MD","20619"
129955,"23418 DUKES RUN DR","SPRING","TX","77373"
129956,"2342 BISSONNET ST","HOUSTON","TX","77005"
129957,"2342 BUFFALO AVE","VENTURA","CA","93003"
129958,"2342 E SHELL POINT ROAD","RUSKIN","FL","33570"
129959,"2342 EAST SHELL POINT ROAD","RUSKIN","FL","33570"
129960,"2342 GRANTS HILL CHURCH ROAD","MONTROSS","VA","22520"
129961,"2342 HAYSTACK CIRCLE","PINEY FLATS","TN","37686"
129962,"2342 MAJESTIC PRINCE DR","INDIANAPOLIS","IN","46234"
129963,"2342 MESSICK SOUTH ROAD","NORTH BLOOMFIELD","OH","44450"
129964,"2342 N SAN ANTONIO AVENUE","POMONA","CA","91797"
129965,"2342 OAK TRACE ST","YOUNGSTOWN","OH","44515"
129966,"2342 SHATTUCK AVE 155","BERKELEY","CA","94704"
129967,"2342 SHATTUCK AVE APT 102","BERKELEY","CA","94704"
129968,"2342 SHATTUCK AVENUE 225","BERKELEY","CA","94704"
129969,"2342 TURNPIKE","STOCKTON","CA","95206"
129970,"23420 62ND AVE SOUTH J102","KENT","WA","98032"
129971,"23420 ADAGIO TER","BRAMBLETON","VA","20148"
129972,"23420 ONEIDA","OAK PARK","MI","48069"
129973,"23422 E 79TH ST S","BROKEN ARROW","OK","74014"
129974,"23423 HIGHWAY 59 NORTH  APT 3005","KINGWOOD","TX","77339"
129975,"23425 MARGARETA ST","DETROIT","MI","48219"
129976,"23425 SPICE BUSH TERRACE","ASHBURN","VA","20148"
129977,"2343 15TH AVE S","SEATTLE","WA","98144"
129978,"2343 ATRIUM CIRCLE","ORLANDO","FL","32808"
129979,"2343 BLACKFOOT AVE","PLACENTIA","CA","92870"
129980,"2343 CASCADE ST","MILPITAS","CA","95035"
129981,"2343 DEER MEADOW DR","MISSOURI CITY","TX","77489"
129982,"2343 DEER MEADOW DRIVE","MISSOURI CITY","TX","77489"
129983,"2343 GATETREE LANE SE","GRAND RAPIDS","MI","49546"
129984,"2343 GOLD HILL ROAD","BROOKSVILLE","FL","34604"
129985,"2343 MAGNOLIA BRIDGE DR","SAN RAMON","CA","94582"
129986,"2343 N OAKLAND AVENUE","MILWAUKEE","WI","53211"
129987,"2343 N SAN ANTONIO AVEUNE","POMONA","CA","91767"
129988,"2343 PENNSYLANNIA AVENUE","RIVERSIDE","CA","92507"
129989,"2343 RIVERSIDE DRIVE","GAINESVILLE","GA","30501"
129990,"2343 S 9TH AVE","NORTH RIVERSIDE","IL","60546"
129991,"2343 SHERIDAN AVE N","MINNEAPOLIS","MN","55411"
129992,"2343 VENETIAN DRIVE SW","ATLANTA","GA","30311"
129993,"2343 W MAIN ST UNIT 1072","MESA","AZ","85201"
129994,"2343 WINDING COVE","OVIEDO","FL","32765"
129995,"23430 HAWTHORNE BLVD STE 290","TORRANCE","CA","90505"
129996,"23431 STARBRIDGE LAKE LANE","RICHMOND","TX","77407"
129997,"23432 SOUTH FRONTENAC DRIVE","WARRENSVILLE HEIGHTS","OH","44128"
129998,"23433 DE ANZA","TEMECULA","CA","92590"
129999,"23436 MADERO STE 140","MISSION VIEJO","CA","92691"
130000,"23438 STARGAZER PT","SPRING","TX","77373"
