"ID","Address","City","State","Zip"
291001,"79 ARBOR DR","MYERSTOWN","PA","17067"
291002,"79 AUTUMN BRANCH DR","THE WOODLANDS","TX","77382"
291003,"79 BARBARA LANE","FEEDING HILLS","MA","01030"
291004,"79 BARTLETT ST","NORTHBOROUGH","MA","01532"
291005,"79 BIRDS HILL ROAD","AVERILL PARK","NY","12018"
291006,"79 BOLIDE","IRVINE","CA","92618"
291007,"79 BREWSTER ROAD","SCARSDALE","NY","10583"
291008,"79 BRIDGE STREET 2F","BROOKLYN","NY","11201"
291009,"79 BRIGHT WATER LN PO BOX 225","EASTSOUND","WA","98245"
291010,"79 BROOKRIDGE DR","EXETER","RI","02822"
291011,"79 BROOKSIDE COURT","VILLA RICA","GA","30180"
291012,"79 BUTLER DRIVE","SOUTH BURLINGTON","VT","05403"
291013,"79 CAMPBELL FIELD","HOOPA","CA","95546"
291014,"79 CANARY DR","LAKEWOOD","NJ","08701"
291015,"79 CARLTON ROAD WEST","SUFFERN","NY","10901"
291016,"79 CATHERINE STREET","NEW YORK","NY","10038"
291017,"79 CHANDLER STREET APT 5","BOSTON","MA","02116"
291018,"79 CHICKEN VALLEY ROAD","OLD BROOKVILLE","NY","11545"
291019,"79 CHURCH STREET","MANASQUAN","NJ","08736"
291020,"79 CLAUDIA DRIVE APT 446","WEST HAVEN","CT","06516"
291021,"79 COLONIAL CIRCLE NW","CARTERSVILLE","GA","30120"
291022,"79 COLUMBIA AVE","HOPEWELL","NJ","08525"
291023,"79 DELAWARE DRIVE","JIM THORPE","PA","18229"
291024,"79 E DAILY DR SUITE 514","CAMARILLO","CA","93010"
291025,"79 E DESHLER AVENUE","COLUMBUS","OH","43206"
291026,"79 E WOODROW AVE","COLUMBUS","OH","43207"
291027,"79 EASTERN AVENUE","ESSEX","MA","01929"
291028,"79 EDWARDS STREET","PORTLAND","ME","04102"
291029,"79 EMERSON AVENUE","FLORAL PARK","NY","11001"
291030,"79 ESTELLA LANE","RICEBORO","GA","31323"
291031,"79 FLAGGLER DRIVE","MARSHFIELD","MA","02050"
291032,"79 FORSAHY RD","MONSEY","NY","10952"
291033,"79 FRENCH AVE 1","BROCKTON","MA","02301"
291034,"79 FRENCH STREET","BUFFALO","NY","14211"
291035,"79 GARDNER AVE","WILKES BARRE","PA","18705"
291036,"79 GRAND HAVEN","JACKSON","TN","38305"
291037,"79 GREGORY LANE","FRANKLIN PARK","NJ","08823"
291038,"79 GRIDIRON RD","LEVITTOWN","PA","19057"
291039,"79 HANCOCK STREET","ELLSWORTH","ME","04605"
291040,"79 HIGHLAND AVENUE","SOMERVILLE","MA","02143"
291041,"79 HILLCREST ROAD","CONCORD","MA","01742"
291042,"79 HUDSON STREET STE 506","HOBOKEN","NJ","07030"
291043,"79 JENNINGS LANE","ATHERTON","CA","94027"
291044,"79 JOHN F KENNEDY STREET","CAMBRIDGE","MA","02138"
291045,"79 JOY COURT","MARTINSBURG","WV","25401"
291046,"79 JOYCE AVE","WHITMAN","MA","02382"
291047,"79 LANDIS DR","LANCASTER","PA","17602"
291048,"79 LEAVITT LN","PRINCETON","NJ","08540"
291049,"79 LINTON AVENUE","OAK BLUFFS","MA","02557"
291050,"79 LIONS LANE","VANCEBURG","KY","41179"
291051,"79 LONG MEADOW CIRCLE","PITTSFORD","NY","14534"
291052,"79 LONSDALE AVENUE","PAWTUCKET","RI","02860"
291053,"79 MAIN ST SUITE 2","HACKENSACK","NJ","07601"
291054,"79 MAIN ST","MASSENA","NY","13662"
291055,"79 MIDTOWN PARK EAST","MOBILE","AL","36606"
291056,"79 MONTGOMERY GULCH ROAD","KELLOGG","ID","83837"
291057,"79 MUNICIPAL DR","MELBOURNE","AR","72556"
291058,"79 NARRAGANSETT AVENUE","JAMESTOWN","RI","02835"
291059,"79 NASHOBA ROAD","LITTLETON","MA","01460"
291060,"79 NORFOLK STREET","BANGOR","ME","04401"
291061,"79 NORTH 22ND STREET","EAST ORANGE","NJ","07017"
291062,"79 NORTH BAY HARBOR DR","KEY LARGO","FL","33037"
291063,"79 NORTH STREET","LEXINGTON","MA","02420"
291064,"79 OAK ROAD","CONESTOGA","PA","17516"
291065,"79 PASEO ESPLENDIDO","CAMARILLO","CA","93010"
291066,"79 PILGRIM PATHWAY","OCEAN GROVE","NJ","07756"
291067,"79 QUAIL DRIVE","ROCKY HILL","CT","06067"
291068,"79 QUAIL RIDGE DR","MONROE","LA","71203"
291069,"79 RECREATION DR","CRAWFORDVILLE","FL","32327"
291070,"79 REID AVENUE","PORT WASHINGTON","NY","11050"
291071,"79 S AVON DRIVE","ST. ANNE","IL","60964"
291072,"79 S CANYON DIABLO RD APT 16","SEDONA","AZ","86351"
291073,"79 SAINT PAUL DRIVE","CHAMBERSBURG","PA","17201"
291074,"79 SAMOSET STREET","PLYMOUTH","MA","02360"
291075,"79 SANZTOWN RD","LAKEWOOD","NJ","08701"
291076,"79 SAWGRASS DR","LAPLACE","LA","70068"
291077,"79 SEAWATCH TRAIL","WEBSTER","NY","14580"
291078,"79 SHARON DRIVE","MOUNT JOY","PA","17552"
291079,"79 SHERMAN STREET","LOWELL","MA","01852"
291080,"79 SOUTH MAIN STREET","MORAVIA","NY","13118"
291081,"79 SOUTH MORGAN ST","WAYNESBURG","PA","15370"
291082,"79 ST JAMES PLACE APT 2","BROOKLYN","NY","11238"
291083,"79 STATES AVE","DALLAS","GA","30132"
291084,"79 SUNNYSIDE TERRACE","EAST ORANGE","NJ","07018"
291085,"79 SW 12TH STREET APT 2312","MIAMI","FL","33130"
291086,"79 TROLLEY LANE","CORNING","NY","14830"
291087,"79 WEST COLUMBIA DRIVE","MIDVALE","UT","84047"
291088,"79 WEST MAIN STREET","HAMPTON","GA","30228"
291089,"79 WESTWIND WAY","WESTAMPTON","NJ","08060"
291090,"79 WILLSON STREET","SALEM","MA","01970"
291091,"79 WINCHESTER DR","CODY","WY","82414"
291092,"79 WOODLAND ACRES RD","BROOKSVILLE","KY","41004"
291093,"79 WOODLAND AVE","COATESVILLE","PA","19320"
291094,"79 WOODLAND DRIVE","PITTSBURGH","PA","15228"
291095,"79-18 WOODSIDE AVE APT 1F","ELMHURST","NY","11373"
291096,"79-20 ROOSEVELT AVE","JACKSON HEIGHTS","NJ","11372"
291097,"79-276 AVENUE 38","INDIO","CA","92203"
291098,"79-43 69TH ROAD","MIDDLE VILLAGE","NY","11379"
291099,"79-7197 HOOPER RD","HOLUALOA","HI","96725"
291100,"79-81 MAIN STREET UNIT 141","YONKERS","NY","10701"
291101,"79-81 POINIER STREET","NEWARK","NJ","07114"
291102,"79","IRVINGTON","NY","10533"
291103,"790 107TH AVENUE NORTH","NAPLES","FL","34108"
291104,"790 30TH ST SUITE B3","SPRINGFIELD","OR","97478"
291105,"790 3RD ST","BENNETT","CO","80102"
291106,"790 ALICE AVE","MEMPHIS","TN","38106"
291107,"790 BERGEN ST","NEWARK","NJ","07108"
291108,"790 BERT JOHNSTON AVENUE","COVINGTON","TN","38019"
291109,"790 BIG HORN DR UNIT A","ESTES PARK","CO","80517"
291110,"790 BRONX RIVER ROAD APT A53","BRONXVILLE","NY","10708"
291111,"790 BURGUNDY CIRCLE","KING OF PRUSSIA","PA","19406"
291112,"790 BUTLER ROAD","SALEMBURG","NC","28385"
291113,"790 CO RD 2500 E","HOMER","IL","61849"
291114,"790 COLUSA DRIVE","WALNUT","CA","91789"
291115,"790 CONCOURSE VILLAGE WEST","BRONX","NY","10451"
291116,"790 DOGWOOD DRIVE APT D2","BLACKSHEAR","GA","31516"
291117,"790 DUBLIN STREET","COLORADO SPRINGS","CO","80918"
291118,"790 E COLORADO BLVD STE 550","PASADENA","CA","91101"
291119,"790 E SANTA CLARA ST SUITE 102","VENTURA","CA","93001"
291120,"790 E VALLEY VIEW TRAIL","HUACHUCA CITY","AZ","85616"
291121,"790 EASTER AVE","AKRON","OH","44307"
291122,"790 EASTER AVENUE","AKRON","OH","44307"
291123,"790 GAY STREET","WESTWOOD","MA","02090"
291124,"790 GENESEE ST","ROCHESTER","NY","14611"
291125,"790 GIRARD COURT","COTTAGE GROVE","OR","97424"
291126,"790 GIRARD CT","COTTAGE GROVE","OR","97424"
291127,"790 GLOVER RD","LIVINGSTON","TX","77351"
291128,"790 HAVEN PT","NEW BRAUNFELS","TX","78132"
291129,"790 HIGHLAND TERRACE NE","ATLANTA","GA","30306"
291130,"790 HOPE RD","GOLDEN VALLEY","AZ","86413"
291131,"790 HOWARD AVE - UNIT I","MYRTLE BEACH","SC","29577"
291132,"790 INDIAN MOUNDS ROAD","CARTERSVILLE","GA","30120"
291133,"790 J STREET","LINCOLN","CA","95648"
291134,"790 JUNO OCEAN WALK SUITE 102","JUNO BEACH","FL","33408"
291135,"790 KIMBALL AVE APT 2D","YONKERS","NY","10704"
291136,"790 KINGS DEER POINT EAST","MONUMENT","CO","80132"
291137,"790 LAKE DENTON RD","AVON PARK","FL","33825"
291138,"790 LAKEVIEW","ATLANTA","GA","30308"
291139,"790 LOUGHBOROUGH DR","MERCED","CA","95348"
291140,"790 LOUGHBOROUGH DRIVE","MERCED","CA","95348"
291141,"790 MACDONOUGH STREET","BROOKLYN","NY","11233"
291142,"790 MAIN ST","TEMPLETON","CA","93465"
291143,"790 MOUNTAIN OAKS PKWY","STONE MOUNTAIN","GA","30087"
291144,"790 NORTH WATER STREET SUITE 2500","MILWAUKEE","WI","53202"
291145,"790 NORTHCUTTS COVE RD","BEERSHEBA SPRINGS","TN","37305"
291146,"790 OCEAN STREET","MARSHFIELD","MA","02050"
291147,"790 PAGODA COURT","ERIE","CO","80516"
291148,"790 POINTE BASSE DRIVE","SAINTE GENEVIEVE","MO","63670"
291149,"790 ROBINWOOD AVE","SHEFFIELD LAKE","OH","44054"
291150,"790 S CARLIN SPRINGS RD","ARLINGTON","VA","22204"
291151,"790 SE SHERWOOD CT","PULLMAN","WA","99163"
291152,"790 SECOND AVENUE","FREEDOM","PA","15042"
291153,"790 SECOND STREET","MACON","GA","31202"
291154,"790 SHERWOOD  STREET","NORTH WOODMERE","NY","11581"
291155,"790 SOUTH ARLINGTON STREET","AKRON","OH","44306"
291156,"790 SOUTH BISCAYNE RIVER DRIVE","MIAMI","FL","33169"
291157,"790 STEVENS CREEK BLVD","FORSYTH","IL","62535"
291158,"790 SUMMIT DRIVE","DALLASTOWN","PA","17313"
291159,"790 SUNSET BLVD N","SUNSET BEACH","NC","28468"
291160,"790 VANDAL WAY","PALMDALE","CA","93551"
291161,"790 W ACACIA AVE","HEMET","CA","92543"
291162,"790 WILLARD ST  APT 312","QUINCY","MA","02169"
291163,"790 WILLARD STREET UNIT 205","QUINCY","MA","02169"
291164,"790 WILLIAMS WAY","VERNON HILLS","IL","60061"
291165,"790 WINDBELL CIRCLE","MESQUITE","TX","75149"
291166,"7900 AIRPORT ROAD","WINNEMUCCA","NV","89445"
291167,"7900 ARNOLD AVE BLDG 1060 RM 20","BEALE AFB","CA","95903"
291168,"7900 BAYMEADOWS CIR E STE 81","JACKSONVILLE","FL","32256"
291169,"7900 BELAND AVE","LOS ANGELES","CA","90045"
291170,"7900 CENTRE PARK DR","AUSTIN","TX","78754"
291171,"7900 COLLEGE BLVD  STE100","OVERLAND PARK","KS","66210"
291172,"7900 COLONY LANE","LENEXA","KS","66215"
291173,"7900 DEGARMO AVE","SUN VALLEY","CA","91352"
291174,"7900 E PRINCESS DR UNIT 1244","SCOTTSDALE","AZ","85255"
291175,"7900 FORSYTH","CLAYTON","MO","63105"
291176,"7900 G BAILEY COVE ROAD","HUNTSVILLE","AL","35802"
291177,"7900 HARBOR ISLAND DR STE 509A","MIAMI","FL","33141"
291178,"7900 HWY 570","SUMMIT","MS","39666"
291179,"7900 JOHNSON DR","KNOXVILLE","TN","37998"
291180,"7900 KELLY ANN COURT","FAIRFAX STATION","VA","22039"
291181,"7900 LIMONITE AVE STE G-109","RIVERSIDE","CA","92509"
291182,"7900 LINDBERGH BLVD APT 3601","PHILADELPHIA","PA","19153"
291183,"7900 MARJORAM PLACE","CLAYTON","OH","45315"
291184,"7900 MINDELLO STREET","CORAL GABLES","FL","33143"
291185,"7900 MONFREYA COURT","CHARLOTTE","NC","28212"
291186,"7900 N ELDRIDGE PKWY","HOUSTON","TX","77041"
291187,"7900 N ELDRIDGE","HOUSTON","TX","77041"
291188,"7900 NOVA DRIVE SUITE 205","DAVIE","FL","33324"
291189,"7900 NW 27TH AVENUE  SUITE 236","MIAMI","FL","33147"
291190,"7900 NW GRUBSTAKE WAY","REDMOND","OR","97756"
291191,"7900 OAK LANE SUITE 400","MIAMI LAKES","FL","33016"
291192,"7900 RAINEY DR","ANTIOCH","TN","37013"
291193,"7900 RIDGE ROAD","ORLAND PARK","IL","60462"
291194,"7900 S 43RD AVE","LAVEEN","AZ","85339"
291195,"7900 S FRANSISCO AVE","CHICAGO","IL","60652"
291196,"7900 SE DUKE ST","PORTLAND","OR","97206"
291197,"7900 SHELBYVILLE ROAD PUBLIC SAFETY","LOUISVILLE","KY","40203"
291198,"7900 SOUTH WESTNEDGE AVENUE","PORTAGE","MI","49002"
291199,"7900 SUITER WAY","HYATTSVILLE","MD","20785"
291200,"7900 SW 57 AVENUE STE 24","SOUTH MIAMI","FL","33143"
291201,"7900 SW 81ST AVENUE TRLR 118","AMARILLO","TX","79119"
291202,"7900 TANCES DRIVE","CINCINNATI","OH","45243"
291203,"7900 VENTURA BLVD","PANORAMA CITY","CA","91402"
291204,"7900 W LITTLE EAGLE COURT","TUCSON","AZ","85757"
291205,"7900 XERXES AVENUE SOUTH SUITE 2020","BLOOMINGTON","MN","55431"
291206,"7901  4TH ST N STE 300","ST PETERSBURG","FL","33702"
291207,"7901 19TH STREET","WESTMINSTER","CA","92683"
291208,"7901 30TH AVE N","ST PETERSBURG","FL","33710"
291209,"7901 4TH ST N  SUITE 300","ST PETERSBURG","FL","33702"
291210,"7901 4TH ST N STE 300","SAINT PETERSBURG","FL","33702"
291211,"7901 4TH ST N STE 300","ST PETERSBURG","FL","33072"
291212,"7901 4TH ST N STE 300","ST PETERSBURG","FL","33702"
291213,"7901 4TH ST N STE 313","ST. PETERSBURG","FL","33702"
291214,"7901 4TH ST N STE 4000","ST PETERSBURG","FL","33702"
291215,"7901 4TH ST N STE 5823","ST PETERSBURG","FL","33702"
291216,"7901 4TH ST N STE","ST PETERSBURG","FL","33702"
291217,"7901 4TH ST N SUITE 300","SAINT PETERSBURG","FL","33702"
291218,"7901 4TH ST N","ST PETERSBURG","FL","33702"
291219,"7901 4TH ST NORTH STE 300","ST PETERSBURG","FL","33702"
291220,"7901 4TH STREET N STE 300","ST PETERSBURG","FL","33702"
291221,"7901 4TH STREET N SUITE 4550","ST PETERSBURG","FL","33702"
291222,"7901 4TH STREET NORTH STE 300","ST PETERSBURG","FL","33702"
291223,"7901 4TH STREET NORTH SUITE 300","ST PETERSBURG","FL","33702"
291224,"7901 4TH STREET SUITE 300","ST PETERSBURG","FL","33702"
291225,"7901 79TH WAY","WEST PALM BEACH","FL","33407"
291226,"7901 AMBASSADOR ROW","DALLAS","TX","75247"
291227,"7901 BAILEY COVE ROAD","HUNTSVILLE","AL","35802"
291228,"7901 BAYMEADOWS CIR NUM 442","JACKSONVILLE","FL","32256"
291229,"7901 BAYMEADOWS CIRCLE E","JACKSONVILLE","FL","32256"
291230,"7901 BONITO DRIVE","ARLINGTON","TX","76002"
291231,"7901 BROCK BRIDGE ROAD","JESSUP","MD","20794"
291232,"7901 CAMERON ROAD 3 -382","AUSTIN","TX","78754"
291233,"7901 CAMERON ROAD BLDG 3 STE 120","AUSTIN","TX","78754"
291234,"7901 CROSSROAD CT","POUND","VA","24279"
291235,"7901 CROWDER BLVD SUITE C","NEW ORLEANS","LA","70127"
291236,"7901 DIAMOND OAK DR","TEXAS CITY","TX","77591"
291237,"7901 DUCHESS DRIVE APT 29","WHITTIER","CA","90606"
291238,"7901 EAST BELLEVIEW AVE 640","ENGLEWOOD","CO","80111"
291239,"7901 GREENSPRING AVE","BALTIMORE","MD","21208"
291240,"7901 HENRY AVENUE APT C105","PHILADELPHIA","PA","19128"
291241,"7901 LEICESTER DRIVE","NAPLES","FL","34104"
291242,"7901 MANDAN ROAD APT 201","GREENBELT","MD","20770"
291243,"7901 N OWASSO EXPY","OWASSO","OK","74055"
291244,"7901 NANCY DRIVE","NORFOLK","VA","23518"
291245,"7901 NORTH SHORE RD","NORFOLK","VA","23505"
291246,"7901 NW ROCHESTER RD","TOPEKA","KS","66617"
291247,"7901 OAK CREEK DRIVE","RENO","NV","89511"
291248,"7901 OAKPORT ST NUM 2450","OAKLAND","CA","94621"
291249,"7901 OPPOSUMTOWN PIKE","FREDERICK","MD","21702"
291250,"7901 PLEASANT VALLEY COURT","LOUISVILLE","KY","40291"
291251,"7901 ROSWELL CT","ARLINGTON","TX","76002"
291252,"7901 S 3200 W  APT1262","WEST JORDAN","UT","84088"
291253,"7901 S ARAGON BLVD","SUNRISE","FL","33322"
291254,"7901 S COUNCIL RD","OKC","OK","73169"
291255,"7901 S VERMONT AVENUE","LOS ANGELES","CA","90044"
291256,"7901 SANDY SPRING ROAD","LAUREL","MD","20707"
291257,"7901 STONEY HILL DR","WESLEY CHAPEL","FL","33545"
291258,"7901 THORNTON DR","PARMA","OH","44129"
291259,"7901 W KENNEDY PKWY","YORKTOWN","IN","47396"
291260,"7901 WATERFORD DRIVE","SPOTSYLVANIA","VA","22551"
291261,"7901 YAUPON DR","AUSTIN","TX","78759"
291262,"7901-L BAILEY COVE ROAD","HUNTSVILLE","AL","35802"
291263,"7902 211TH PL SW","EDMONDS","WA","98026"
291264,"7902 AVENUE","LUBBOCK","TX","79423"
291265,"7902 BURBANK ROAD","BELGRADE","MN","56312"
291266,"7902 GERBER RD","SACRAMENTO","CA","95828"
291267,"7902 KIMBERLY BLVD","NORTH LAUDERDALE","FL","33068"
291268,"7902 N 2ND LANE","MCALLEN","TX","78504"
291269,"7902 NEWLIN DRICE","FORT WAYNE","IN","46816"
291270,"7902 SANDUSKY AVENUE","KANSAS CITY","KS","66112"
291271,"7902 SEVERN HILLS WAY","SEVERN","MD","21144"
291272,"7902 TIMBER HILL DRIVE","INDIANAPOLIS","IN","46217"
291273,"7902 TIMBERLINE CT","MONMOUTH JUNCTION","NJ","08852"
291274,"7902 TYSONS ONE PL","TYSONS","VA","22102"
291275,"7902 TYSONS ONE PLACE UNIT 2613","MCLEAN","VA","22102"
291276,"7902 W KEEFE AVENUE","MILWAUKEE","WI","53222"
291277,"7902 W WATERS AVE    SUITE D","TAMPA","FL","33615"
291278,"7902 WOODWAY OAK CIRCLE APT 824","MATTHEWS","NC","28105"
291279,"7903 32ND AVENUE 2FL","EAST ELMHURST","NY","11369"
291280,"7903 DEERFIELD MANOR DRIVE","CHARLOTTE","NC","28270"
291281,"7903 ELK MOUNTAIN STREET","LAS VEGAS","NV","89113"
291282,"7903 INISHMORE WAY","INDIANAPOLIS","ID","46214"
291283,"7903 KELBURN LANE","CHARLOTTE","NC","28273"
291284,"7903 NW 19TH PLACE","MARGATE","FL","33063"
291285,"7903 ORION CIRCLE F271","LAUREL","MD","20724"
291286,"7903 ORION CIRCLE","LAUREL","MD","20724"
291287,"7903 S 70TH E PL","TULSA","OK","74133"
291288,"7903 SHERRY LYNN CT","LOUISVILLE","KY","40228"
291289,"7903 TOLKIN COURT","BOWIE","MD","20720"
291290,"7903 W EXPEDITION WAY","PEORIA","AZ","85383"
291291,"7903 WISTERIA CT","DUBLIN","OH","43016"
291292,"7904 AUBLE MOODY RD","WILMER","AL","36587"
291293,"7904 BENNETT BRANCH ROAD","MOUNT AIRY","MD","21771"
291294,"7904 CRENSHAW BLVD  B","INGLEWOOD","CA","90305"
291295,"7904 CULLOWHEE MOUNTAIN RD","CULLOWHEE","NC","28723"
291296,"7904 E CHAPARRAL RD  STE A110-127","SCOTTSDALE","AZ","85250"
291297,"7904 E CHAPARRAL RD STE A110-277","SCOTTSDALE","AZ","85250"
291298,"7904 E CHAPARRAL ROAD","SCOTTSDALE","AZ","85250"
291299,"7904 EAST PARKWAY","SACRAMENTO","CA","95823"
291300,"7904 FIR GREEN WAY","LOUISVILLE","KY","40291"
291301,"7904 FOXHOUND RD","MCLEAN","VA","22102"
291302,"7904 GENTLE BREEZE CT","GLEN BURNIE","MD","21061"
291303,"7904 KUGLER MILL RD","CINCINNATI","OH","45243"
291304,"7904 MACDONALD DR","HUNTINGTON BEACH","CA","92647"
291305,"7904 N 16TH DR","PHOENIX","AZ","85021"
291306,"7904 NORTH MACARTHUR BLVD APT 2008","IRVING","TX","75063"
291307,"7904 NW 37TH ST","BETHANY","OK","73008"
291308,"7904 S WESTGATE ROAD","NEWBERRY","IN","47449"
291309,"7904 STONE RD","INDEPENDENCE","OH","44131"
291310,"7904 SW 187TH ST","CUTLER BAY","FL","33157"
291311,"7904 THRUSH MEADOW PLACE","SEVERN","MD","21144"
291312,"7904 WEST DRIVE UNIT 809","MIAMI BEACH","FL","33141"
291313,"7904 WINDSONG RD","WINDSOR","CO","80550"
291314,"790442","CHARLOTTE","NC","28206"
291315,"7905 BELLE POINT DR","GREENBELT","MD","20770"
291316,"7905 BELMONT AVE","HAMMOND","IN","46324"
291317,"7905 BIG BEND BLVD STE 203","SAINT LOUIS","MO","63119"
291318,"7905 BIG BEND BLVD","SAINT LOUIS","MO","63119"
291319,"7905 COX ROAD APT 2","WEST CHESTER","OH","45069"
291320,"7905 DRAKE ROAD","WOODBURY","MN","55125"
291321,"7905 DYER ST","HOUSTON","TX","77088"
291322,"7905 N 81ST DR","GLENDALE","AZ","85303"
291323,"7905 PARKVIEW DRIVE","PARKVILLE","MO","64152"
291324,"7905 PIERCE HARWELL ROAD","PLANT CITY","FL","33565"
291325,"7905 RUGBY STREET","PHILADELPHIA","PA","19150"
291326,"7905 S ALBANY","CHICAGO","IL","60652"
291327,"7905 S SCHOMBERG ROAD","CEDAR","MI","49621"
291328,"7905 SALZBURG DRIVE","ROWLETT","TX","75089"
291329,"7905 STONEHURST DRIVE","INDIANAPOLIS","IN","46256"
291330,"7905 SUITE D HARFORD ROAD","PARKVILLE","MD","21234"
291331,"7905 WEBSTER WAY","ARVADA","CO","80003"
291332,"7905 YATES AVE N NO 310","BROOKLYN PARK","MN","55443"
291333,"7906 DAVENPORT STREET","OMAHA","NE","68114"
291334,"7906 DEEPWELL DR","BETHESDA","MD","20817"
291335,"7906 EAST TARMA STREET","LONG BEACH","CA","90808"
291336,"7906 GEORGIA AVENUE SUITE 105","SILVER SPRING","MD","20910"
291337,"7906 JEFFERSON PLACE BLVD 4A","BATON ROUGE","LA","70809"
291338,"7906 MONTARA AVE","RANCHO CUCAMONGA","CA","91730"
291339,"7906 N FREYA ST","SPOKANE","WA","99217"
291340,"7906 PRICE AVENUE","BATON ROUGE","LA","70811"
291341,"7906 W TOWNSEND STREET","MILWAUKEE","WI","53222"
291342,"7906 WOODVALE CIR","TAMPA","FL","33615"
291343,"7907 CARDINAL LANE","HOUSTON","TX","77433"
291344,"7907 CARLTON ARMS DR APT F","INDIANAPOLIS","IN","46256"
291345,"7907 E 162ND PLACE","BELTON","MO","64012"
291346,"7907 FRONTENAC STREET","PHILADELPHIA","PW","19111"
291347,"7907 HAMILTON MILL DR","CHATTANOOGA","TN","37421"
291348,"7907 HWY 5","MEADOWLANDS","MN","55765"
291349,"7907 KESWICK DRIVE","AUSTIN","TX","78745"
291350,"7907 S RHODES AVE","CHICAGO","IL","60619"
291351,"7907 VILLA NOVA DRIVE","BOCA RATON","FL","33433"
291352,"7907 W  SWEETWATER AVENUE","PEORIA","AZ","85381"
291353,"7907 W BLUE HERON WAY","TUCSON","AZ","85743"
291354,"7907 WESCOTT AVENUE","FAIRBORN","OH","45324"
291355,"7908 ALLWOOD","HOUSTON","TX","77016"
291356,"7908 CAMRODEN RD","ROME","NY","13440"
291357,"7908 E COMMERCIAL STREET","BROKEN ARROW","OK","74014"
291358,"7908 GREENWOOD ROAD","HEBRON","IL","60034"
291359,"7908 LAKE AVE","CINCINNATI","OH","45236"
291360,"7908 MANGO AVENUE APT F 4","FONTANA","CA","92336"
291361,"7908 MOURNING DOVE DR","ARLINGTON","TX","76002"
291362,"7908 N 107 STREET UNIT 10","MILWAUKEE","WI","53224"
291363,"7908 N HIGHLAND AVE","TAMPA","FL","33604"
291364,"7908 NORTH 107TH STREET UNIT 10","MILWAUKEE","WI","53224"
291365,"7908 S 24TH PLACE","PHEONIX","AZ","85042"
291366,"7908 SHOUP AV","CANOGA PARK","CA","91304"
291367,"7908 STONEHAVEN DRIVE","WAXHAW","NC","28173"
291368,"7908 WELLINGTON RD","ALEXANDRIA","VA","22308"
291369,"7909 CALIBRE CROSSING DRIVE APT 206","CHARLOTTE","NC","28277"
291370,"7909 CARRIE DRIVE","BENTON","AR","72019"
291371,"7909 CROSSRIDGE ROAD","DUBLIN","CA","94568"
291372,"7909 GLEN ABBEY CIRCLE","STANLEY","NC","28164"
291373,"7909 HOWARD LANE","DENVER","NC","28037"
291374,"7909 KREEGER DRIVE  APT 211","HYATTSVILLE","MD","20783"
291375,"7909 MANDAN ROAD APR 104","GREENBELT","MD","20770"
291376,"7909 N CRESTWOOD LANE","BRAZIL","IN","47834"
291377,"7909 NORMANDY STREET","MIRAMAR","FL","33023"
291378,"7909 NW 75TH AVE","TAMARAC","FL","33321"
291379,"7909 SE 73RD DRIVE","GAINESVILLE","FL","32641"
291380,"7909 SOUTHERN HILLS LANE","ROWLETT","TX","75089"
291381,"7909 US HIGHWAY 70","BARTLETT","TN","38133"
291382,"7909 VENTURE CENTER WAY STE 9101","BOYNTON BEACH","FL","33437"
291383,"7909 WALERGA ROAD SUITE 112  PMB 31","ANTELOPE","CA","95843"
291384,"791 5TH STREET","ESTILL","SC","29918"
291385,"791 COVERED BRIDGE ROAD","GREENWOOD","IN","46142"
291386,"791 E BAFFIN DRIVE","VENICE","FL","34293"
291387,"791 EAST MCMILLAN SUITE 205","CINCINNATI","OH","45206"
291388,"791 EIGHTH STREET - SUITE A","ARCATA","CA","95521"
291389,"791 ENON RD","LOUISVILLE","MS","39339"
291390,"791 FRONT ST","COOS BAY","OR","97420"
291391,"791 GOLF COURSE ROAD","BIRDSBORO","PA","19508"
291392,"791 HARBOR POINT","LEXINGTON","KY","40502"
291393,"791 HARDWICK","KENTWOOD","MI","49548"
291394,"791 JOHNSTON CT","WINCHESTER","VA","22601"
291395,"791 KIRKWALL DRIVE","SAN MARCOS","CA","92069"
291396,"791 LAWSON WAY","ERIE","CO","80516"
291397,"791 LEHUA AVE","PEARL CITY","HI","96782"
291398,"791 MAIDSTONE CT","CINCINNATI","OH","45230"
291399,"791 MIDDLE TPK W","MANCHESTER","CT","06040"
291400,"791 PRICE ST SUITE 199","PISMO","CA","93449"
291401,"791 PRICE STREET  UNIT 302","PISMO BEACH","CA","93449"
291402,"791 PRICE STREET 234","PISMO BEACH","CA","93449"
291403,"791 PRICE STREET SUITE 320","PISMO BEACH","CA","93449"
291404,"791 SALACOA VISTA","JASPER","GA","30143"
291405,"791 SIGMUND ROAD","NAPERVILLE","IL","60563"
291406,"791 SYCAMORE RD","COLLIERVILLE","TN","38017"
291407,"791 TOLLAND STREET","EAST HARTFORD","CT","06108"
291408,"791 TREMONT ST APT E401","BOSTON","MA","02118"
291409,"791 TURTLE ROCK ROAD","EAST WENATCHEE","WA","98802"
291410,"791 WACKEMAN CT","WESTERVILLE","OH","43081"
291411,"791 WALNUT STREET","NEWTON","MA","02459"
291412,"791 WEST MIDDLE TURNPIKE","MANCHESTER","CT","06040"
291413,"7910 200TH ST NE 13","ARLINGTON","WA","98223"
291414,"7910 ASHFORD BLVD","LAUREL","MD","20707"
291415,"7910 BEECH MEADOW LN","HOUSTON","TX","77083"
291416,"7910 CAPISTRANO DR","RICHMOND","VA","23227"
291417,"7910 CAPISTRANO WAY","SACRAMENTO","CA","95824"
291418,"7910 CHADWICK LN","RIVERDALE","GA","30274"
291419,"7910 CLARKSON AVE","CUDAHY","CA","90201"
291420,"7910 DAIRY RIDGE ROAD","VERONA","WI","53593"
291421,"7910 HENSLOW COURT","COLORADO SPRINGS","CO","80920"
291422,"7910 HOLLOW RIDGE ROAD","FLAGSTAFF","AZ","86004"
291423,"7910 LOWRIDE COURT","PASADENA","MD","21122"
291424,"7910 MOUNTAIN FOREST","SAN ANTONIO","TX","78239"
291425,"7910 PARK AVENUE","HOUMA","LA","70364"
291426,"7910 PINE DRIVE","TAMPA","FL","33637"
291427,"7910 SCOTT ROAD","LANDOVER","MD","20785"
291428,"7910 STERLING DR","EL CAJON","CA","92021"
291429,"7910 STRATFORD HALL DRIVE","ROSHARON","TX","77583"
291430,"7910 SUMMERLIN LAKES DRIVE","FORT MYERS","FL","33907"
291431,"7910 SUNFIELD CIRCLE APT 204","RALEIGH","NC","27617"
291432,"7910 TAKOMA AVE","SILVER SPRING","MD","20910"
291433,"7910 TREESIDE CT","SPRINGFIELD","VA","22152"
291434,"7910 W TROPICAL PKWY STE 110","LAS VEGAS","NV","89149"
291435,"7910 WINDRIDGE DRIVE","BROADVIEW HEIGHTS","OH","44147"
291436,"7911 BRAYGREEN RD","LAUREL","MD","20707"
291437,"7911 BRAYGREEN ROAD","LAUREL","MD","20707"
291438,"7911 BRUSH LANE","LOUISVILLE","KY","40291"
291439,"7911 CHATHAM SPRINGS LN","CYPRESS","TX","77433"
291440,"7911 CRISFORD PL APT H","PIKESVILLE","MD","21208"
291441,"7911 E SORGHUM MILL RD","EDMOND","OK","73034"
291442,"7911 GRAND ESTUARY TRAIL 205","BRADENTON","FL","34212"
291443,"7911 KASPAR MOUNTAIN CT","BAKERSFIELD","CA","93313"
291444,"7911 KING STREET","ANCHORAGE","AK","99518"
291445,"7911 NW 72ND AVE  SUITE 219-B","MEDLEY","FL","33166"
291446,"7911 NW 72ND AVE STE 219B","MIAMI","FL","33166"
291447,"7911 S MEADOWS DRIVE","EAST LEROY","MI","49051"
291448,"7911 THORNHILL AVE","SHREVEPORT","LA","71106"
291449,"7911 W 500 S","OWENSVILLE","IN","47665"
291450,"7911 W BECHER STREET","WEST ALLIS","WI","53219"
291451,"7911 WOOD STREET","CHICAGO","IL","60620"
291452,"7912 1ST AVENUE SOUTH","BIRMINGHAM","AL","35206"
291453,"7912 AUTUMNWOOD ST NW","NORTH CANTON","OH","44720"
291454,"7912 BREEZEWOOD CT","YPSILANTI","MI","48197"
291455,"7912 E BIGELOW GULCH RD","SPOKANE","WA","99217"
291456,"7912 EDWINA DRIVE","LITTLE ROCK","AR","72209"
291457,"7912 FOOTHILL BLVD","SUNLAND","CA","91040"
291458,"7912 GLENDALE WOODS CROSSING","HENRICO","VA","23231"
291459,"7912 HENRY LANE","LINO LAKES","MN","55014"
291460,"7912 LOIS MAE CT","ORLANDO","FL","32818"
291461,"7912 RAMONA STREET","MIRAMAR","FL","33023"
291462,"7912 RIVER ROAD SUITE 1205","EDGEWATER","NJ","07047"
291463,"7912 S 220TH LANE","BUCKEYE","AZ","85326"
291464,"7912 S KENWOOD AVE","CHICAGO","IL","60619"
291465,"7912 SUMMA AVENUE","BATON ROUGE","LA","70809"
291466,"7912 WILLOW GROVE BLVD","BATON ROUGE","LA","70810"
291467,"7913 BELLE POINT DR","GREENBELT","MD","20770"
291468,"7913 DITMAN ST","PHILADELPHIA","PA","19136"
291469,"7913 E MONTE CARLO AVE","ANAHEIM HILLS","CA","92808"
291470,"7913 HARPETH VIEW DR","NASHVILLE","TN","37221"
291471,"7913 LEAFY HOLLOW CT","LIVE OAK","TX","78233"
291472,"7913 MILL CREEK RD SE","AUMSVILLE","OR","97325"
291473,"7913 MILLSTONE COURT","MONTGOMERY","AL","36116"
291474,"7913 S WEST TERRANCE DR","CHENEY","WA","99004"
291475,"7913 WHITE WATER CT","FORT WORTH","TX","76123"
291476,"7913 WRENWOOD BLVD STE A","BATON ROUGE","LA","70809"
291477,"7914 ASHWORTH AVE N","SEATTLE","WA","98103"
291478,"7914 BAHIA AVENUE","TAMPA","FL","33619"
291479,"7914 CAMPION DRIVE","LOS ANGELES","CA","90045"
291480,"7914 E JOHNSON RD","ITHACA","MI","48806"
291481,"7914 JESSIES WAY 304","HAMILTON","OH","45011"
291482,"7914 NEWLIN DRIVE","FORT WAYNE","IN","46816"
291483,"7914 TRESTLETREE WAY","BAYTOWN","TX","77521"
291484,"7914 VINTAGE CIRLCLE D","GLEN BURNIE","MD","21061"
291485,"7915 40TH AVENUE W","BRADENTON","FL","34209"
291486,"7915 BERGENLINE AVE UNIT 7270","NORTH BERGEN","NJ","07047"
291487,"7915 EASTERN AVE NW 808","SILVER SPRING","MD","20910"
291488,"7915 HERTFORDSHIRE DR","SPRING","TX","77379"
291489,"7915 KENTUCKY AVE","BETHESDA","MD","20814"
291490,"7915 MOURNING DOVE DR","ARLINGTON","TX","76002"
291491,"7915 OLIVE LEAF LANE","GRANITE BAY","CA","95746"
291492,"7915 ROSWELL RD","SANDY SPRINGS","GA","30350"
291493,"7915 S EMERSON AVE 316","INDIANAPOLIS","IN","46237"
291494,"7915 S EMERSON AVE STE B254","INDIANAPOLIS","IN","46237"
291495,"7915 S VERNON 2E","CHICAGO","IL","60619"
291496,"7915 SOUTH EMERSON AVENUE STE B272","INDIANAPOLIS","IN","46237"
291497,"7915 SW 126 TERRACE","PINECREST","FL","33156"
291498,"7915 SWENSON DR","IRVING","TX","75063"
291499,"7915 TIN CUP DR","ARLINGTON","TX","76001"
291500,"7915 W ROCHELLE AVE","LAS VEGAS","NV","89147"
