"ID","Address","City","State","Zip"
156001,"2929 VISTA BLVD","SPARKS","NV","89434"
156002,"2929 W MAIN ST STE A","VISALIA","CA","93291"
156003,"2929 WATSON BLVD SUITE 210","WARNER ROBINS","GA","31093"
156004,"2929 WESLAYAN STREET APT 2805","HOUSTON","TX","77027"
156005,"2929 WEST HEFNER ROAD","OKLAHOMA CITY","OK","73120"
156006,"2929 WEST RIVER ROAD","ELYRIA","OH","44058"
156007,"2929 WHITEHOUSE DR","KOKOMO","IN","46902"
156008,"29290 STOTTING TRAIL E","SEVEN BAYS","WA","99122"
156009,"29291 LAKE STREET","LAKE ELSINORE","CA","92530"
156010,"29297 BEACHCOMBER DRIVE","MENIFEE","CA","92585"
156011,"293 ALICIA WAY","LOS ALTOS","CA","94022"
156012,"293 ARROWHEAD WAY","SCOTTS VALLEY","CA","95066"
156013,"293 BOSQUE LOOP","BERNALILLO","NM","87004"
156014,"293 BURR ROAD","EAST NORTHPORT","NY","11731"
156015,"293 CAROLINA NOOSENECK RD","RICHMOND","RI","02898"
156016,"293 CASTLE AVE","WESTBURY","NY","11590"
156017,"293 COUNTY ROAD 44","HARTFORD","AL","36344"
156018,"293 CR 2801 WEST","MICO","TX","78056"
156019,"293 CRANVIEW ROAD","BREWSTER","MA","02631"
156020,"293 DOYLE AVE","PROVIDENCE","RI","02906"
156021,"293 E MOUNTAIN VIEW DR - A","MURRAY","UT","84107"
156022,"293 EAST DELEVAN AVE","BUFFALO","NY","14208"
156023,"293 FOXHURST RD","OCEANSIDE","NY","11572"
156024,"293 GEORGE RD","E. CALAIS","VT","05650"
156025,"293 GRAND VIEW DRIVE","WARWICK","RI","02886"
156026,"293 GRINDSTONE ROAD","BROCK","TX","76087"
156027,"293 HIRSCHFIELD PLACE","New Milford","NJ","07646"
156028,"293 MAIN ST","YANCEYVILLE","NC","27379"
156029,"293 MIKELL STREET","JACKSON","MS","39212"
156030,"293 N LABURNUM AVE UNIT 4","RICHMOND","VA","23223"
156031,"293 OLD WEST POINT RD","GARRISON","NY","10524"
156032,"293 RIVERSIDE DRIVE APT 2C","NEW YORK","NY","10025"
156033,"293 ROAD 6RT","CODY","WY","82414"
156034,"293 S MAIN STREET","LOGAN","UT","84321"
156035,"293 SCHOOL ROAD","WARREN","VT","05674"
156036,"293 SHASTA DR APT 229","VACAVILLE","CA","95687"
156037,"293 SPRING MOUNTAIN ROAD UNIT A","WARSAW","OH","43844"
156038,"293 STATE RT 18 SUITE D- 360","E BRUNSWICK","NJ","08816"
156039,"293 SUGGS ROAD","FREEPORT","FL","32459"
156040,"293 SW PAGODA TERR","PORT SAINT LUCIE","FL","34984"
156041,"293 TINKER STREET","WOODSTOCK","NY","12498"
156042,"293 TOWNSHIP RD 350","SULLIVAN","OH","44880"
156043,"293 VT RTE 110 PO BOX 295","CHELSEA","VT","05038"
156044,"293 W SEAMAN AVE","FREEPORT","NY","11520"
156045,"293 WILLIE HATCHER ROAD","CHINQUAPIN","NC","28521"
156046,"293 WOODHULL AVE","PORT JEFFERSON STATI","NY","11776"
156047,"293","COLBY","KS","67701"
156048,"2930 13TH AVE S APT 107","MINNEAPOLIS","MN","55114"
156049,"2930 CHARLIE DOTY RD","GREENEVILLE","TN","37745"
156050,"2930 DUNLIN TERRACE DRIVE","KATY","TX","77494"
156051,"2930 E 3RD AVE","DURANGO","CO","81301"
156052,"2930 GASTON ROAD","GREENVILLE","GA","30222"
156053,"2930 GEER RD PMB 167","TURLOCK","CA","95382"
156054,"2930 GEER RD PMB 238","TURLOCK","CA","95382"
156055,"2930 GEER RD STE 153","TURLOCK","CA","95382"
156056,"2930 GRAND OAKS LOOP 902","CEDAR PARK","TX","78613"
156057,"2930 GREENVIEW DRIVE","BETTENDORF","IA","52722"
156058,"2930 HORIZON PARK DR SUITE B","SUWANEE","GA","30024"
156059,"2930 JASPER STREET SUITE 404","PHILADELPHIA","PA","19134"
156060,"2930 JASPER STREET","PHILA","PA","19134"
156061,"2930 KAYLYSSA CT","MARIETTA","GA","30062"
156062,"2930 MEADOW DRIVE","SAINT CHARLES","IL","60175"
156063,"2930 MONACO PKWY","DENVER","CO","80207"
156064,"2930 N WEST AVE","FRESNO","CA","93705"
156065,"2930 NATCHEZ AVE S","ST LOUIS PARK","MN","55416"
156066,"2930 NORTH EL PASO ST","COLORADO SPRINGS","CO","80907"
156067,"2930 NORTH EL PASO STREET","COLORADO SPRINGS","CO","80907"
156068,"2930 NW 108TH AVE","DORAL","FL","33172"
156069,"2930 NW 48 STREET","MIAMI","FL","33142"
156070,"2930 PATTEN HILL DRIVE","MATTHEWS","NC","28105"
156071,"2930 PORT ST UNIT D","NAMPA","ID","82687"
156072,"2930 REVERE STREET SUITE 301","HOUSTON","TX","77098"
156073,"2930 RICHARDS ROAD SUITE 203","BELLEVUE","WA","98005"
156074,"2930 S DARTMOUTH ST","DETROIT","MI","48217"
156075,"2930 S MAIN AVE","SPRINGFIELD","MO","65807"
156076,"2930 S MILDRED AVE","ONTARIO","CA","91761"
156077,"2930 SE CORNUTT ST","HILLSBORO","OR","97123"
156078,"2930 SE MEADOWVIEW DR","TOPEKA","KS","66605"
156079,"2930 SOUTH 10TH AVE","ALTOONA","PA","16601"
156080,"2930 SOUTH 37TH STREET","LINCOLN","NE","68506"
156081,"2930 W BROAD ST","COLUMBUS","OH","43204"
156082,"2930 WEST 5TH STREET APT 12G","BROOKLYN","NY","11224"
156083,"2930 WEST 9TH AVENUE","DENVER","CO","80204"
156084,"2930 YEAGER ROAD","WEST LAFAYETTE","IN","47906"
156085,"2930 YUKON TRL NW","ACWORTH","GA","30101"
156086,"29300 835TH AVE","HOLLANDALE","MN","56045"
156087,"29300 BUFFALO PARK RD","EVERGREEN","CO","80439"
156088,"29301 SW 143RD PLACE","HOMESTEAD","FL","33033"
156089,"293013TH AVE S SUITE 307","MINNEAPOLIS","MN","55407"
156090,"29302 S HIGHMORE AVE","RANCHO PALOS VERDES","CA","90275"
156091,"29302 SANDALWOOD CT","SAN JUAN CAPISTRANO","CA","92675"
156092,"29302 WALKER LANE","RICHMOND","TX","77406"
156093,"29307 CRESTHAVEN DRIVE","WILLOWICK","OH","44095"
156094,"2931 180TH ST","DAWSON","MN","56232"
156095,"2931 BARKER CYPRESS APT 610","HOUSTON","TX","77084"
156096,"2931 BARKER CYPRESS RD   1317","HOUSTON","TX","77084"
156097,"2931 FENTON AVENUE APT B","BRONX","NY","10469"
156098,"2931 HARLOW LANE","DECATUR","GA","30034"
156099,"2931 IRVING BLVD SUITE 108","DALLAS","TX","75247"
156100,"2931 LOUELLA AVE","DAYTON","OH","45417"
156101,"2931 RIDGE RD STE 101 UNIT 538","ROCKWALL","TX","75032"
156102,"2931 RIDGE RD SUITE 101-136","ROCKWALL","TX","75032"
156103,"2931 RIDGE ROAD 1027","ROCKWALL","TX","75032"
156104,"2931 SLEEPING RIDGE WAY","INDIANAPOLIS","FL","46217"
156105,"2931 SOLANO AVE","NAPA","CA","94558"
156106,"2931 SPRINGSWEET LANE APT 14","RALEIGH","NC","27612"
156107,"2931 SUNSET TERRACE","SAN MATEO","CA","94403"
156108,"2931 W 101ST PL","EVERGREEN PARK","IL","60805"
156109,"2931 W ANGELA DR","PHOENIX","AZ","85053"
156110,"2931 W SAN JUAN AVE","PHOENIX","AZ","85017"
156111,"2931 WEST CASE ROAD","DUBLIN","OH","43017"
156112,"2931","NEWARK","DE","19713"
156113,"29312 COCONUT PALM DR","BIG PINE KEY","FL","33043"
156114,"29315 CINNAMON WOOD WAY","MENIFEE","CA","92584"
156115,"29315 NAYLOR MILL RD","SALISBURY","MD","21801"
156116,"29316 LANCASTER DR APT 105","SOUTHFIELD","MI","48034"
156117,"2932  EMERSON ST","PALO ALTO","CA","94306"
156118,"2932 BOMAR AVE","FORT WORTH","TX","76103"
156119,"2932 CLAREMORE LANE","LONG BEACH","CA","90815"
156120,"2932 EATON RAPIDS RD","ALBION","MI","49224"
156121,"2932 FAVERSHAM PLACE","RALEIGH","NC","27604"
156122,"2932 GOLF COURSE DRIVE","VENTURA","CA","93003"
156123,"2932 HEMINGFORD LANE","OKC","OK","73120"
156124,"2932 LEWIS STREET","VESTAVIA HILLS","AL","35243"
156125,"2932 OSBORNE RD","CHESTER","VA","23831"
156126,"2932 PRESTON TRL","GRAND PRAIRIE","TX","75052"
156127,"2932 S PARKER AVENUE","INDIANAPOLIS","IN","46203"
156128,"2932 SAINT PAUL RIVERA","ROUND ROCK","TX","78665"
156129,"2932 SOMERSET DRIVE","AMES","IA","50010"
156130,"2932 WARWICK WAY","AUSTIN","TX","78748"
156131,"2932 WEDGESCALE PASS","LEANDER","TX","78641"
156132,"29320 BROOKS LANE","SOUTHFIELD","MI","48034"
156133,"29322 FAIR SKY TRAIL","SPRING","TX","77386"
156134,"29323 SUNSHINE ROAD","RUTHER GLEN","VA","22546"
156135,"29324 AL HIGHWAY 10","SWEETWATER","AL","36782"
156136,"29325 VIA MILAGRO","VALENCIA","CA","91354"
156137,"29328 SALTBUSH","LAKE ELSINORE","CA","92530"
156138,"2933 20TH AVE","BURTRUM","MN","56318"
156139,"2933 45TH ST","HIGHLAND","IN","46322"
156140,"2933 A2 PLEASANT HILL RD","DULUTH","GA","30096"
156141,"2933 ALLIANCE TRAIL","HASLET","TX","76052"
156142,"2933 BERRY HILL DR BLDG B","NASHVILLE","TN","37204"
156143,"2933 CHAYES PARK DRIVE","HOMEWOOD","IL","60430"
156144,"2933 COMMONS AVE","SPRINGDALE","AR","72764"
156145,"2933 DOLE ST","HONOLULU","HI","96816"
156146,"2933 E SALEM AVE","FRESNO","CA","93720"
156147,"2933 MARILYN RD","COLORADO SPRINGS","CO","80909"
156148,"2933 MISSION DRIVE","BATON ROUGE","LA","70805"
156149,"2933 N KINGSHIGHWAY","PERRYVILLE","MO","63775"
156150,"2933 PAXTON ST","FERNDALE","MI","48220"
156151,"2933 S ANNABELLE","DETROIT","MI","48217"
156152,"2933 S HOBART BOULEVARD","LOS ANGELES","CA","90018"
156153,"2933 SE 2ND AVENUE","HOMESTEAD","FL","33033"
156154,"2933 TOPAZ AVE","SIMI VALLEY","CA","93063"
156155,"2933 TRES LOGOS LN","DALLAS","TX","75228"
156156,"2933 TRUFFLE OAK PL","WOODBRIDGE","VA","22191"
156157,"2933 W JEROME","CHICAGO","IL","60645"
156158,"2933 W MALDONADO RD","PHOENIX","AZ","85041"
156159,"2933 WINTON DRIVE","FAYETTEVILLE","NC","28306"
156160,"29331 19TH PL S","FEDERAL WAY","WA","98003"
156161,"29333 TRAILWOOD DRIVE","WARREN","MI","48092"
156162,"29334 N 3950 ROAD","OCHELATA","OK","74051"
156163,"29338 US HWY 212 LOT 684","GETTYSBURG","SD","57442"
156164,"29339 NAYLOR MILL RD","SALISBURY","MD","21801"
156165,"2934 1/2 BEVERLY GLEN CIRCLE 390","LOS ANGELES","CA","90077"
156166,"2934 BARRET DRIVE","ROSEVILLE","CA","95661"
156167,"2934 BRYDEN RD","COLUMBUS","OH","43209"
156168,"2934 CASCADA ISLE WAY","COOPER CITY","FL","33024"
156169,"2934 COLONEL COURT DRIVE","RICHMOND","TX","77406"
156170,"2934 E GARVEY AVE S STE 250 PMB 15","WEST COVINA","CA","91791"
156171,"2934 E SOUTH GARVEY SUITE 350","WEST COVINA","CA","91791"
156172,"2934 EAST 44TH COURT","DAVENPORT","IA","52807"
156173,"2934 FURNEAUX LANE","CARROLLTON","TX","75007"
156174,"2934 GILMA DR","RICHMOND","CA","94806"
156175,"2934 HALLDALE AVE","LOS ANGELES","CA","90018"
156176,"2934 LIDDESDALE ST","DETROIT","MI","48217"
156177,"2934 MONTAVESTA RD","LEXINGTON","KY","40502"
156178,"2934 NORTH 55TH STREET","MILWAUKEE","WI","53210"
156179,"2934 OLD S R 37 SOUTH","ENGLISH","IN","47118"
156180,"2934 S LIDDESDALE","DETROIT","MI","48217"
156181,"2934 SE 35TH AVE","PORTLAND","OR","97202"
156182,"2934 SOUTHWYCKE TER","FREMONT","CA","94536"
156183,"2934 SPRUCEWOOD DR","DURHAM","NC","27707"
156184,"2934 STATE HWY 73","WISCONSIN RAPIDS","WI","54495"
156185,"2934 US ROUTE 7","HIGHGATE SPRINGS","VT","05460"
156186,"2934 VEGAS VALLEY DR","LAS VEGAS","NV","89121"
156187,"2934 WEST LAWN AVENUE","TAMPA","FL","33611"
156188,"29340 S GIBRALTAR RD","GIBRALTAR","MI","48173"
156189,"29340 WELLINGTON ROAD WEST","SOUTHFIELD","MI","48034"
156190,"29341 WYATT EARP WAY","WINCHESTER","CA","92596"
156191,"29341/2 BEVERLY GLEN CIRCLE 765","BEL  AIR","CA","90077"
156192,"29342 CHELSEA CROSSING","FARMINGTON HILLS","MI","48331"
156193,"29345 HACIENDA RANCH CT","VALENCIA","CA","91354"
156194,"29348 ROADSIDE DRIVE","AGOURA HILLS","CA","91301"
156195,"29349 VALLEY VIEW LANE","POTEAU","OK","74953"
156196,"2935 BOATHOUSE AVE","DAVIS","CA","95616"
156197,"2935 BULEN AVE","COLUMBUS","OH","43207"
156198,"2935 COUNTY ROAD 18 N","CRAIG","CO","81625"
156199,"2935 CREST PARK DR","HOUSTON","TX","77082"
156200,"2935 E 57TH PL","TULSA","OK","74105"
156201,"2935 GOLDENROD DR","IDAHO FALLS","ID","83401"
156202,"2935 HAWCREEK BLVD","COLUMBUS","IN","47203"
156203,"2935 JAVA RD","COSTA MESA","CA","92626"
156204,"2935 JOHN F KENNEDY BLVD APT 614","JERSEY CITY","NJ","07306"
156205,"2935 KENT ROAD EAST","WANTAGH","NY","11793"
156206,"2935 N 53RD ST","MILWAUKEE","WI","53210"
156207,"2935 NORTH ASHLEY STREET SUITE 113","VALDOSTA","GA","31602"
156208,"2935 S RECKER RD","GILBERT","AZ","85295"
156209,"2935 SANGAMON AVE","SPRINGFIELD","IL","62702"
156210,"2935 SENAK RD","ROSLYN","PA","19001"
156211,"2935 SHADY LANE","ANN ARBOR","MI","48104"
156212,"2935 STOCKYARD RD UNIT L3","MISSOULA","MT","59808"
156213,"2935 SUN VALLEY COURT","BETTENDORF","IA","52272"
156214,"2935 SW DESCHUTES DR","REDMOND","OR","97756"
156215,"2935 THOUSAND OAKS 264","SAN ANTONIO","TX","78247"
156216,"2935 W 129TH PL","GARDENA","CA","90249"
156217,"2935 WHITE MOUNTAIN HIGHWAY","NORTH CONWAY","NH","03860"
156218,"2935 WOODCLIFF DR  NW","CANTON","OH","44718"
156219,"29350 27 MILE ROAD","LENOX TOWNSHIP","MI","48048"
156220,"29350 MARIMOOR","SOUTHFIELD","MI","48076"
156221,"29351 VIA PORTOLA","LAGUNA NIGUEL","CA","92677"
156222,"29352 LONGHORN DRIVE","CANYON LAKE","CA","92587"
156223,"29357 215 TH PL SE","KENT","WA","98042"
156224,"29359 SHAKER DR","WICKLIFFE","OH","44092"
156225,"2936 BAKER RIDGE","ATLANTA","GA","30318"
156226,"2936 CIALELLA PASS","SAINT CLOUD","FL","34772"
156227,"2936 DEFFORD ROAD","EAGLEVILLE","PA","19403"
156228,"2936 DOLOROSO LP RD","WOODVILLE","MS","39669"
156229,"2936 E CHARLESTON AVE","PHOENIX","AZ","85032"
156230,"2936 HAWKSDALE DRIVE","LAS VEGAS","NV","89134"
156231,"2936 IVANHOE GLEN","FITCHBURG","WI","53711"
156232,"2936 KAKAWAO PLACE","HONOLULU","HI","96822"
156233,"2936 KENNEWICK PL NE","RENTON","WA","98056"
156234,"2936 LIBERTY RD","NEW CARLISLE","OH","45344"
156235,"2936 MALCOLM STREET","FORT WORTH","TX","76112"
156236,"2936 MANDA DRIVE","SAN JOSE","CA","95124"
156237,"2936 N 36TH ST APT 206","PHOENIX","AZ","85018"
156238,"2936 N 81ST AVE","PHOENIX","AZ","85033"
156239,"2936 N SOUTHPORT AVE","CHICAGO","IL","60657"
156240,"2936 NW 94TH ST","MIAMI","FL","33147"
156241,"2936 OLD CHAPPELLS FERRY RD","SALUDA","SC","29841"
156242,"2936 SE TIBBETTS ST","PORTLAND","OR","97202"
156243,"2936 STOCKTON ST","DENTON","TX","76209"
156244,"2936 W GLENLAKE","CHICAGO","IL","60659"
156245,"2936 W HIGHLAND BLVD","MILWAUKEE","WI","53208"
156246,"2936 WEST 8TH ST","LOS ANGELES","CA","90005"
156247,"2936 WOLFERTON ST","NORFOLK","VA","23504"
156248,"29361 PRINCE ROAD","NEWMAN","CA","95360"
156249,"29362 WOODBINE LN","MENIFEE","CA","92584"
156250,"29365 RICHMOND TURNPIKE","RUTHER GLEN","VA","22546"
156251,"2937 ADRIAN ST","SAN DIEGO","CA","92110"
156252,"2937 BERWICK LANE","GASTONIA","NC","28054"
156253,"2937 BONNIE BRAE","FLOSSMOOR","IL","60422"
156254,"2937 BROOKNELL COURT NW","CONCORD","NC","28027"
156255,"2937 CARROLL ROAD","COTULLA","TX","78014"
156256,"2937 CATALDI DRIVE","SAN JOSE","CA","95132"
156257,"2937 CHEVY WAY","SAN PABLO","CA","94806"
156258,"2937 CLEARVIEW DR","MANSFIELD","MO","65704"
156259,"2937 DYER ST","DALLAS","TX","75205"
156260,"2937 FREDERICK DOUGLAS BLVD 17D","NEW YORK","NY","10039"
156261,"2937 HORSE SHOE FARM RD","WAKE FOREST","NC","27587"
156262,"2937 HORSE SHOE FARM ROAD","WAKE FOREST","NC","27587"
156263,"2937 MAPLE COLONY DR","TOLEDO","OH","43617"
156264,"2937 N 750TH ST","FLAT ROCK","IL","62427"
156265,"2937 N BARTLETT AVE APT 2","MILWAUKEE","WI","53211"
156266,"2937 N BRIGHTON STREET","BURBANK","CA","91504"
156267,"2937 NORTH 1050 EAST","LEHI","UT","84043"
156268,"2937 POLO CLUB ROAD","NASHVILLE","TN","37221"
156269,"2937 RANCHO RIO CHICO","CARLSBAD","CA","92009"
156270,"2937 SILVERWOOD DR","FORT COLLINS","CO","80525"
156271,"2937 SOUTH PADRE ISLAND DRIVE","CORPUS CHRISTI","TX","78415"
156272,"2937 STRATHMEADE STREET","FALLS CHURCH","VA","22042"
156273,"2937 THORNCREST DR","ORANGE PARK","FL","32065"
156274,"2937 W COUNTY ROAD 38 E","FORT COLLINS","CO","80526"
156275,"29371 JACQUELYN DR","LIVONIA","MI","48154"
156276,"29372 WHITE ST","MILLSBORO","DE","19966"
156277,"2938 4TH ST STE A","CERES","CA","95307"
156278,"2938 ADELINE STREET","OAKLAND","CA","94608"
156279,"2938 ASHDOWN FOREST DRIVE","HERNDON","VA","20171"
156280,"2938 ASHFORD TRAIL DR","HOUSTON","TX","77082"
156281,"2938 AVE F","COUNCIL BLUFFS","IA","51501"
156282,"2938 BAYSWATER AVENUE","FAR ROCKAWAY","NY","11691"
156283,"2938 BONNIE BRAE CR","FLOSSMOOR","IL","60422"
156284,"2938 FAIR CHASE DRIVE","KATY","TX","77494"
156285,"2938 GRENDON LANE","PARKLVILLE","MD","21234"
156286,"2938 KINGS CORNERS ROAD EAST","MANSFIELD","OH","44904"
156287,"2938 LEVICK  STREET- GROUND FLR","PHILADELPHIA","PA","19120"
156288,"2938 N HUMBOLDT ST","DENVER","CO","80205"
156289,"2938 RAINMONT LANE","KATY","TX","77449"
156290,"2938 ROWENA AVENUE","LOS ANGELES","CA","90039"
156291,"2938 S 161ST DR","GOODYEAR","AZ","85338"
156292,"2938 STICKNEY AVE","TOLEDO","OH","43608"
156293,"2938 WICKLOW ROAD","LOS ANGELES","CA","90064"
156294,"2938 WOODLAND PARK DR","MOUNT PLEASANT","SC","29466"
156295,"2938 WOOLRIDGE DR","ORLANDO","FL","32837"
156296,"29381 SW 143RD PLACE","HOMESTEAD","FL","33033"
156297,"29386 WESTBROOKE PWKY","SOUTHFIELD","MI","48076"
156298,"2939 ADAMS ST","EUGENE","OR","97405"
156299,"2939 AFTON ROAD","JANESVILLE","WI","53548"
156300,"2939 DUPONT AVE","JACKSONVILLE","FL","32217"
156301,"2939 GUTHER PL","VIRGINIA BEACH","VA","23453"
156302,"2939 IROQUOIS STREET","DETROIT","MI","48214"
156303,"2939 JAMESTOWN DR","POWELL","OH","43065"
156304,"2939 LEEWARD WAY","BELLINGHAM","WA","98226"
156305,"2939 MINK ROAD","LANCASTER","TX","75146"
156306,"2939 N 74TH ST","MILWAUKEE","WI","53210"
156307,"2939 OAK POINTE BLVD","MISSOURI CITY","TX","77459"
156308,"2939 STAMM AVE","INDIANAPOLIS","IN","46240"
156309,"2939 TENBROECK AVENUE","BRONX","NY","10469"
156310,"2939 VAN NESS ST NW APT 936","WASHINGTON","DC","20008"
156311,"2939 W MICHIGAN 36","PINCKNEY","MI","48169"
156312,"2939 WAYNE DR","BAY CITY","MI","48706"
156313,"2939 WILSON AVE SW - PO BOX 218","GRANDVILLE","MI","49468"
156314,"29391 SOULT RD","BROOKSVILLE","FL","34602"
156315,"29395 AGOURA RD STE 102","AGOURA HILLS","CA","91301"
156316,"29395 MARY STREET","LINDSTROM","MN","55045"
156317,"29398 VINEWOOD DR","WICKLIFFE","OH","44092"
156318,"294 20TH AVENUE","BRICK","NJ","08724"
156319,"294 AUDUBON AVE","NEW YORK","NY","10032"
156320,"294 BASELINE ROAD","WALNUT","IL","61376"
156321,"294 CASTLEGATE DRIVE","OZARK","MO","65721"
156322,"294 CHATEAU WAY","BIRMINGHAM","AL","35242"
156323,"294 CHESHIRE ROAD","HUDSON","OH","44236"
156324,"294 CONANT RD","PRESQUE ISLE","ME","04769"
156325,"294 CONNOR LN","ALLEN","TX","75002"
156326,"294 COUEVAS STREET","BILOXI","MS","39530"
156327,"294 CR 108 SOUTH","JASPER","TX","75951"
156328,"294 DECKER POND ROAD","ANDOVER","NJ","07821"
156329,"294 ESSEX STREET","BROOKLYN","NY","11208"
156330,"294 FARM TO MARKET RD","BREWSTER","NY","10509"
156331,"294 GREEN VALLEY ROAD","WATSONVILLE","CA","95076"
156332,"294 HAMPTON RD","VARNVILLE","SC","29944"
156333,"294 HARRISON AVE FL2","JERSEY CITY","NJ","07304"
156334,"294 HIGH ST","NORTH ATTLEBORO","MA","02780"
156335,"294 JAMES WAY","ARROYO GRANDE","CA","93420"
156336,"294 JEFFERSON AVE","POCATELLO","ID","83201"
156337,"294 JENT ROAD","CORDOVA","AL","35550"
156338,"294 KNOTTY WOOD LANE","WELLINGTON","FL","33414"
156339,"294 LAKE DOE BLVD","APOPKA","FL","32703"
156340,"294 LITTLE FARMS AVENUE","HAMPTON","VA","23661"
156341,"294 MAIN ST   ATTN MEGAN BURR","CONNEAUT","OH","44030"
156342,"294 MAIN STREET","HOLDEN","MA","01520"
156343,"294 MARION OAKS LANE","OCALA","FL","34473"
156344,"294 MASTERS DRIVE","LEXINGTON","TN","38351"
156345,"294 MERRILL HILL RD","HEBRON","ME","04238"
156346,"294 NE 62ND STREET NO 294","MIAMI","FL","33138"
156347,"294 NORTH CAPITOL AVE","SAN JOSE","CA","95127"
156348,"294 ORRCREST DR","RENO","NV","89506"
156349,"294 PIGEON SPUR RD","TRACY CITY","TN","37387"
156350,"294 PIGEONBERRY PASS","BUDA","TX","78610"
156351,"294 PLUM TREE DR","FATE","TX","75087"
156352,"294 PORTWIND PL","BALLWIN","MO","63021"
156353,"294 RAINBOW DR","JEFFERSON HILLS","PA","15025"
156354,"294 SALEM STREET","WILMINGTON","MA","01887"
156355,"294 SEAGRASS LOOP","MYRTLE BEACH","SC","29588"
156356,"294 SOUTH MAIN STREET","BRATTLEBORO","VT","05301"
156357,"294 STONECLIFFE AISLE","IRVINE","CA","92603"
156358,"294 SUN ROSE ST","LA VERNE","CA","91750"
156359,"294 SWEET ROAD","LINCOLN","ME","04457"
156360,"294 W SALEM RD","BATESVILLE","IN","47006"
156361,"294 WARNER MILNE RD","OREGON CITY","OR","97045"
156362,"294 WEST MERRICK ROAD  SUITE 12","FREEPORT","NY","11520"
156363,"294","BRICK","NJ","08724"
156364,"2940 - 16TH STREET SUITE 301","SAN FRANCISCO","CA","94103"
156365,"2940 190TH ST","SEYMOUR","IA","52590"
156366,"2940 BREEZEWOOD AVENUE","FAYETTEVILLE","NC","28303"
156367,"2940 CHAYES PARK DR","HOMEWOOD","IL","60430"
156368,"2940 COLERAIN AVENUE","CINCINNATI","OH","45225"
156369,"2940 CORPREW AVENUE","NORFOLK","VA","23504"
156370,"2940 COUNTY ROAD 406","STEPHENVILLE","TX","76401"
156371,"2940 GARNET WAY","COLLEGE PARK","GA","30349"
156372,"2940 HELEN ST","DETROIT","MI","48207"
156373,"2940 LEE ROAD","SHAKER HEIGHTS","OH","44120"
156374,"2940 MEADOW RD","CAMBRIDGE","OH","43725"
156375,"2940 MIDWAY RD","DECATUR","GA","30030"
156376,"2940 N OCONNOR RD SUITE 125","IRVING","TX","75062"
156377,"2940 N PROSPECT ST / BOX 8273","COLORADO SPRINGS","CO","80907"
156378,"2940 NORTH 19TH STREET","BISMARCK","ND","58503"
156379,"2940 NORTH COURSE DRIVE UNIT 501","POMPANO BEACH","FL","33036"
156380,"2940 NORTH COURSE DRIVE UNIT 501","POMPANO BEACH","FL","33069"
156381,"2940 NW 213TH ST","MIAMI-GARDENS","FL","33056"
156382,"2940 NW 97 ST","MIAMI","FL","33147"
156383,"2940 PILLSBURY AVENUE SOUTH   S405","MINNEAPOLIS","MN","55408"
156384,"2940 PILLSBURY AVENUE SOUTH 209","MINNEAPOLIS","MN","55408"
156385,"2940 S ANTHONY BLVD","FORT WAYNE","IN","46806"
156386,"2940 SHADY REACH LN","CHARLOTTE","NC","28214"
156387,"2940 SOLDIERS HOME ROAD","WEST LAFAYETTE","IN","47906"
156388,"2940 SUGARBUSH WAY","CHARLESTON","SC","29414"
156389,"2940 SW TUTBURY TOWN RD","TOPEKA","KS","66614"
156390,"2940 SWAN CIRCLE","DUNEDIN","FL","34698"
156391,"2940 W 21ST ST APT 3Y","BROOKLYN","NY","11224"
156392,"2940 W CARSON STREET UNIT 221","TORRANCE","CA","90503"
156393,"2940 WEST 9TH STREET","DALLAS","TX","75211"
156394,"2940 YUCATAN","SANTA FE","NM","87507"
156395,"29401 GOLTON DR","EASTON","MD","21601"
156396,"29401 SW 125TH AVE BLDG 600","HOMESTEAD","FL","33039"
156397,"29404 NE 178TH PL","DUVALL","WA","98019"
156398,"29404 WAGON CREEK LANE","MENIFEE","CA","92584"
156399,"29409 170TH STREET","DETROIT LAKES","MN","56501"
156400,"29409 LAKE HILLS DR","MENIFEE","CA","92585"
156401,"2941 190TH PLACE","LANSING","IL","60438"
156402,"2941 BARCLAY RD","MEDFORD","OR","97504"
156403,"2941 BARCLAY ROAD","MEDFORD","OR","97504"
156404,"2941 BATTLEGROUND AVENUE STE 39684","GREENSBORO","NC","27408"
156405,"2941 BLOOMINGTON AVE S","MINNEAPOLIS","MN","55407"
156406,"2941 DIAMOND DRIVE","HOBART","IN","46342"
156407,"2941 EAST B STREET","TORRINGTON","WY","82240"
156408,"2941 GREENRIDGE ROAD","ORANGE PARK","FL","32073"
156409,"2941 HWY 51","CANTON","MS","39046"
156410,"2941 IOLA ST","DENVER","CO","80238"
156411,"2941 NE 200TH ST","SHORELINE","WA","98155"
156412,"2941 NE LOOP DR","OTIS","OR","97368"
156413,"2941 NE LOOP DRIVE","OTIS","OR","97368"
156414,"2941 NORTH 56TH STREET","OMAHA","NE","68104"
156415,"2941 NORTH FRONT STREET","HARRISBURG","PA","17110"
156416,"2941 NW 8 STREET","POMPANO BEACH","FL","33069"
156417,"2941 PLUM ST","JACKSONVILLE","FL","32205"
156418,"2941 SEGO PL","SAN DIEGO","CA","92123"
156419,"2941 STATEN ROAD","ORLANDO","FL","32804"
156420,"2941 SYLVIA ROAD","CENTRAL POINT","OR","97502"
156421,"2941 TERRY ROAD STE 7","JACKSON","MS","39212"
156422,"2941 W 235TH ST APT 4","TORRANCE","CA","90501"
156423,"29411 E 69TH CIRCLE SOUTH","BROKEN ARROW","OK","74014"
156424,"29412 52ND AVE E","GRAHAM","WA","98338"
156425,"29412 ANNAPOLIS ST","INKSTER","MI","48141"
156426,"29415 EAST RIVER RD","GROSSE ILE","MI","48138"
156427,"29417 HOOVER","WARREN","MI","48093"
156428,"2942 CHENANGO ROAD","WAKEMAN","OH","44889"
156429,"2942 FOSS CIRCLE","BOUNTIFUL","UT","84010"
156430,"2942 MEXICO RD","MILTON","PA","17847"
156431,"2942 N  24 TH ST  SUITE 114-766","PHOENIX","AZ","85016"
156432,"2942 N  24TH ST  SUITE 114  766","PHOENIX","AZ","85016"
156433,"2942 N 24 ST SUITE 114","PHOENIX","AZ","85016"
156434,"2942 N 24TH ST UNIT 114","PHOENIX","AZ","85016"
156435,"2942 N 24TH STREET 114","PHOENIX","AZ","85016"
156436,"2942 N 24TH STREET SUITE 114","PHOENIX","AZ","85016"
156437,"2942 N 24TH STREET","PHOENIX","AZ","85016"
156438,"2942 N 38TH STREET","KANSAS CITY","KS","66104"
156439,"2942 PENNY LANE","FAIRFAX","VA","22031"
156440,"2942 PROSPERITY AVENUE","DALLAS","TX","75216"
156441,"2942 S NEPHRITE WAY","MERIDIAN","ID","83642"
156442,"2942 SHILOH DR","MISSOURI CITY","TX","77459"
156443,"2942 SW 10TH PL","CAPE CORAL","FL","33914"
156444,"2942 SW CEDAR DUNES DR","PORT ST LUCIE","FL","34953"
156445,"29421 HERITAGE LANE","PAW PAW","MI","49079"
156446,"29426 DAKOTAH COURT","CANYON COUNTRY","CA","91387"
156447,"29426 LEGENDS BLUFF DRIVE","SPRING","TX","77386"
156448,"29428 VALLEY BEND","FARMINGTON HILLS","MI","48331"
156449,"29429 E 760 RD","WAGONER","OK","74467"
156450,"2943 COMMONWEALTH AVE","JACKSONVILLE","FL","32254"
156451,"2943 ELBRIDGE ST","PHILADELPHIA","PA","19149"
156452,"2943 FOREST HILLS LANE","RICHARDSON","TX","75080"
156453,"2943 HARRIS DRIVE","VISTA","CA","92084"
156454,"2943 KEYSVILLE RD","HEPHZIBAH","GA","30815"
156455,"2943 KEYSVILLE ROAD","HEPHZIBAH","GA","30815"
156456,"2943 OLD SHARPTOWN RD","LAUREL","DE","19956"
156457,"2943 OLYMPIC PLACE","ENUMCLAW","WA","98022"
156458,"2943 POLAND SPRINGS DR","ELLICOTT CITY","MD","21042"
156459,"2943 SALEM OAK WAY","DULUTH","GA","30096"
156460,"2943 SANDY FORD ROAD","NEWTON","NC","28658"
156461,"2943 SEARCHWOOD DRIVE","JACKSONVILLE","FL","32277"
156462,"2943 VICTORIA AVE","NORFOLK","VA","23504"
156463,"2943 WARDLE AVENUE","YOUNGSTOWN","OH","44505"
156464,"29431 ENROSE","RANCHO PALOS VERDES","CA","90275"
156465,"2944 ADAMS ST","EUGENE","OR","97405"
156466,"2944 ATMOSPHERE ROAD","ATMORE","AL","36502"
156467,"2944 BURROWS LN","ELLICOTT CITY","MD","21043"
156468,"2944 CLINE ST","HOUSTON","TX","77020"
156469,"2944 CONWAY RD","ODENTON","MD","21113"
156470,"2944 EVERCHARM PLACE EAST","JACKSONVILLE","FL","32257"
156471,"2944 FAIRWAY DR","CHASKA","MN","55318"
156472,"2944 FALKIRK ROAD","MEMPHIS","TN","38125"
156473,"2944 HILLTOP MALL  UNIT 129","RICHMOND","CA","94806"
156474,"2944 NW 180 ST","MIAMI GARDENS","FL","33056"
156475,"2944 PRAIRIE OAK BLVD","GRAND PRAIRIE","TX","75052"
156476,"2944 SOURDOUGH ROAD","BOZEMAN","MT","59715"
156477,"2944 SYLVAN AVE","ORLANDO","FL","32806"
156478,"2944 UPTON STREET NW","WASHINGTON","DC","20008"
156479,"2944 VALENTINE PLACE","WANTAGH","NY","11793"
156480,"29444 COUNTY ROAD 67","GRAND RAPIDS","MN","55744"
156481,"29446 VALLEY BEND","FARMINGTON HILLS","MI","48331"
156482,"29447 COUNTY HIGHWAY 35","UNDERWOOD","MN","56586"
156483,"29447 HIVELEY","INKSTER","MI","48141"
156484,"2945  KINGSFIELD DR","VIRGINIA BEACH","VA","23456"
156485,"2945 AUSTRALIAN AVE","WEST PALM BEACH","FL","33407"
156486,"2945 AVON ROAD","ROCKLIN","CA","95765"
156487,"2945 B N AUSTRALIAN AVE","WEST PALM BEACH","FL","33407"
156488,"2945 CARRIE FARM ROAD NW","KENNESAW","GA","30144"
156489,"2945 EMMORTON ROAD NUM 1233","ABINGDON","MD","21009"
156490,"2945 HEATHER DR","EAST POINT","GA","30344"
156491,"2945 HOPE MILLS RD STE 112","FAYETTEVILLE","NC","28306"
156492,"2945 KENDALL ROAD","COPLEY","OH","44321"
156493,"2945 KING COLE CIRCLE","DALLAS","TX","75216"
156494,"2945 LAGERWAY CV","AUSTIN","TX","78748"
156495,"2945 MAYNARDVILLE HWY STE 1","MAYNARDVILLE","TN","37807"
156496,"2945 MAYNARDVILLE HWY STE 3","MAYNARDVILLE","TN","37807"
156497,"2945 MERIDIEN CIRCLE","UNION CITY","CA","94587"
156498,"2945 NW TERRA MEADOW DRIVE","BEND","OR","97701"
156499,"2945 PACIFIC AVENUE APT 1","SAN FRANCISCO","CA","94115"
156500,"2945 RAMCO STREET SUITE 110","WEST SACRAMENTO","CA","95691"
