"ID","Address","City","State","Zip"
65001,"1477 GLIDE LOOP DRIVE","GLIDE","OR","97443"
65002,"1477 INDEPENDENCE AVE","KANSAS CITY","MO","64106"
65003,"1477 NORTH 1100 WEST","PRICE","UT","84501"
65004,"1477 NORTH WALES RD","NORTH WALES","PA","19454"
65005,"1477 NW 10TH ST UNIT 2","DANIA BEACH","FL","33004"
65006,"1477 PEACH STREET","GRIDLEY","CA","95948"
65007,"1477 RIDGE ROAD","NORTH HAVEN","CT","06473"
65008,"1477 SE 25 TERRACE","HOMESTEAD","FL","33035"
65009,"1477 SWAN COURT","KISSIMMEE","FL","34759"
65010,"14770 51ST AVE N","PLYMOUTH","MN","55446"
65011,"14770 HATCH STREET","MEADVILLE","PA","16335"
65012,"14770 SPOTTED HORSE LANE","SALADO","TX","76571"
65013,"14770 US 59 HIGHWAY","VALLEY FALLS","KS","66088"
65014,"14771 QUARTERHORSE DR","RAPID CITY","SD","57703"
65015,"14773 80TH PLACE NORTH","MAPLE GROVE","MN","55311"
65016,"14774 OLD HICKORY BLVD","ANTIOCH","TN","37013"
65017,"14775 CREEK LANE","WATERFORD","VA","20197"
65018,"14775 FORDLINE","SOUTHGATE","MI","48195"
65019,"14775 SE 82ND DRIVE","CLACKAMAS","OR","97015"
65020,"14776 SAN MARSALA CT","TAMPA","FL","33626"
65021,"14777 295TH STREET","HEDRICK","IA","52563"
65022,"14777 NW GERMANTOWN RD","PORTLAND","OR","97231"
65023,"14777 VOSS RD","SUGAR LAND","TX","77498"
65024,"14778 HOYLE ROAD","BERLIN CENTER","OH","44401"
65025,"14779 DRIFTWATER DRIVE","WINTER GARDEN","FL","34787"
65026,"14779 SENECA RD APT 290","VICTORVILLE","CA","92392"
65027,"1478 BUNYAN HILL RD","GRANVILLE SUMMIT","PA","16926"
65028,"1478 CARNABY CT","DUNWOODY","GA","30338"
65029,"1478 CHAIRES CROSS ROAD","TALLAHASSEE","FL","32317"
65030,"1478 COLBY ROAD","LUNENBURG","VT","05906"
65031,"1478 DOE VALLEY DRIVE","LITHONIA","GA","30058"
65032,"1478 EAST 92ND STREET","LOS ANGELES","CA","90002"
65033,"1478 HUNTERS LAKE DR","MILFORD","MI","48380"
65034,"1478 HUNTERS RIDGE DR W","MOBILE","AL","36695"
65035,"1478 JOE HALL ROAD","HOPE MILLS","NC","28348"
65036,"1478 MAIN STREET","WEST LEECHBURG","PA","15656"
65037,"1478 MALLARD ST","DETROIT LAKES","MN","56501"
65038,"1478 NORTHBLUFF DRIVE","ANCHORAGE","AK","99501"
65039,"1478 ROBERTS ROAD","KOUNTZE","TX","77625"
65040,"1478 ROUTE 179","LAMBERTVILLE","NJ","08530"
65041,"1478 WELLINGTON WAY","EAGAN","MN","55122"
65042,"1478 WEST 72ND PLACE","CHICAGO","IL","60636"
65043,"14780 SW 98TH AVE","TIGARD","OR","97224"
65044,"14780 SW 98TH AVENUE","TIGARD","OR","97224"
65045,"14780 W MOUNTAIN VIEW BLVD STE 110","SURPRISE","AZ","85374"
65046,"14781 MEMORIAL DR STE 35","HOUSTON","TX","77079"
65047,"14781 POMERADO RD 549","SAN DIEGO","CA","92064"
65048,"14783 SUTHERLAND AVENUE","NAPLES","FL","34119"
65049,"14784 MASON CREEK CIRCLE","WOODBRIDGE","VA","22191"
65050,"14785 NW 66TH ST","PARKVILLE","MO","64152"
65051,"14785 PRESTON RD STE 550","DALLAS","TX","75254"
65052,"14786 CO HWY S27","ALDEN","IA","50006"
65053,"14786 COOPER RD","LAUREL","DE","19956"
65054,"14786 LYDIA AVE","EASTPOINTE","MI","48021"
65055,"14786 WASHINGTON AVE","SAN LEANDRO","CA","94578"
65056,"14788 BOONES FERRY ROAD","LAKE OSWEGO","OR","97035"
65057,"14788 STATE ROAD","NORTH ROYALTON","OH","44133"
65058,"14789 OAKLINE ROAD","POWAY","CA","92064"
65059,"1479 BEAMS LN","MOUNDSVILLE","WV","26041"
65060,"1479 BLUEBERRY WAY","THE VILLAGES","FL","32162"
65061,"1479 CRANBROOK DRIVE","HERMITAGE","PA","16148"
65062,"1479 FEAK HOLLOW ROAD","WALTON","NY","13856"
65063,"1479 FIELDCREST CIRCLE","ROCK HILL","SC","29732"
65064,"1479 FOLSOM STREET","SAN FRANCISCO","CA","94103"
65065,"1479 GIRARD STREET","AKRON","OH","44301"
65066,"1479 LOCUST LAKE ROAD","AMELIA","OH","45102"
65067,"1479 PLAINS AVE","NEENAH","WI","54956"
65068,"1479 ROWAN","SAINT LOUIS","MO","63112"
65069,"1479 S 975 RD","COUNCIL GROVE","KS","66846"
65070,"1479 SAINT TROPEZ CT","HIGHLAND PARK","IL","60035"
65071,"1479 WEYHILL CRESCENT DRIVE","BETHLEHEM","PA","18015"
65072,"14790 NW CO RD 14321","DREXEL","MO","64742"
65073,"14790 ROUND MOUNTAIN HEIGHTS","ATASCADERO","CA","93422"
65074,"14790 SLALOM WAY","TRUCKEE","CA","96161"
65075,"14791 PINE CREEK LANE","BAKER CITY","OR","97814"
65076,"14792 TIMBERBLUFF DRIVE","CHESTERFIELD","MO","63017"
65077,"14793 SW 81ST STREET","MIAMI","FL","33193"
65078,"14793 W CORSAIR","LUKE AFB","AZ","85309"
65079,"14796 259TH AVE NW","ZIMMERMAN","MN","55398"
65080,"14797 BLOSSOM LN","WESTMINSTER","CA","92683"
65081,"14797 PHILIPS HWY SUITE 114","JACKSONVILLE","FL","32256"
65082,"14798 BLAKEHILL DR","FRISCO","TX","75035"
65083,"147A NORTH MAIN STREET","JONESBORO","GA","30236"
65084,"147R MAIN STREET","SEYMOUR","CT","06483"
65085,"148 1ST STREET","COALDALE","PA","18218"
65086,"148 ASHBY DR","GASTON","SC","29053"
65087,"148 AURORA STREET","LANCASTER","NY","14086"
65088,"148 AVOCA FARM RD","MERRY HILL","NC","27957"
65089,"148 BIRCH AVE","LITTLE SILVER","NJ","07739"
65090,"148 BLUE HILLS PARKWAY","MILTON","MA","02186"
65091,"148 BLUEWING LANE","MOORESVILLE","NC","28117"
65092,"148 BRADLEY CIR","BARNESVILLE","GA","30204"
65093,"148 BRENDEN LOOP","DELAWARE","OH","43015"
65094,"148 CALLE GAVIOTA URB COCO BEACH","RIO GRANDE","PR","00745"
65095,"148 CASSADY LANE","LAWRENCEVILLE","GA","30046"
65096,"148 CEDARWOOD PL SE","CONCORD","CA","28025"
65097,"148 CHALLAIN DRIVE","LITTLE ROCK","AR","72223"
65098,"148 CONWAY ROAD","WEST WHATELY","MA","01039"
65099,"148 COTTSFORD DR SW","ATLANTA","GA","30331"
65100,"148 COUNTRYSDIE DRIVE PO BOX 922","BRODHEADSVILLE","PA","18322"
65101,"148 COUNTY ROAD 294","WATER VALLEY","MS","38965"
65102,"148 CYPRESS PARK","SANTA CRUZ","CA","95060"
65103,"148 DANIELS STREET","HAMLET","NC","28345"
65104,"148 DEVONSHIRE BLVD","SAN CARLOS","CA","94070"
65105,"148 DEWOLF ROAD","OLD TAPPAN","NJ","07675"
65106,"148 DOUGHTY BLVD -SUITE 312","INWOOD","NY","11096"
65107,"148 DOVE HILL CIRCLE","THOMASVILLE","GA","31792"
65108,"148 DOW COURT","GREEN COVE SPRINGS","FL","32043"
65109,"148 DUNHAM STREET","MONTE VISTA","CO","81144"
65110,"148 E 155TH STREET","HARVEY","IL","60426"
65111,"148 E HORIZON HILL DRIVE","SOMERSET","KY","42503"
65112,"148 E STREET","SALIDA","CO","81201"
65113,"148 EAST 3RD ST","SUPERIOR","NE","68978"
65114,"148 ELECTRIC AVENUE","NEWBERRYY","SC","29108"
65115,"148 ELMRIDGE RD","MANSFIELD","OH","44907"
65116,"148 ESTATES DRIVE","PIEDMONT","CA","94611"
65117,"148 EVANGELINE TRACE","BELLE CHASSE","LA","70037"
65118,"148 FAIRVIEW LN","SONOMA","CA","95476"
65119,"148 FOREST AVENUE","BERKELEY HEIGHTS","NJ","07922"
65120,"148 FREDERICK RD","TONAWANDA","NY","14150"
65121,"148 FRENCH ST APT 2","BANGOR","ME","04401"
65122,"148 GANTER RD","MONTREAL","MO","65591"
65123,"148 GOLD AVE SW","GRAND RAPIDS","MI","49504"
65124,"148 GREENFIELD ST NE","CEDAR RAPIDS","IA","52402"
65125,"148 HARP LANE","BLOOMSBURG","PA","17815"
65126,"148 HAWKIN RD","NEW EGYPT","NJ","08533"
65127,"148 HENRY STREET APT 3A","BROOKLYN","NY","11201"
65128,"148 HERITAGE CT","VERSAILLES","OH","45380"
65129,"148 HILLCROFT ROAD","LACONIA","NH","03246"
65130,"148 HOLLOW CREEK DRIVE","ST. PETERS","MO","63376"
65131,"148 HOLMES AVENUE","LAKE PLACID","FL","33852"
65132,"148 KINGS CT","DODGEVILLE","WI","53533"
65133,"148 KINGSTON ROAD","BOLINGBROOK","IL","60440"
65134,"148 L STREET","AGUADILLA","PR","00603"
65135,"148 LANSING DRIVE","ELLABELL","GA","31308"
65136,"148 LINDEN ST  SUITE 103","WELLESLEY","MA","02482"
65137,"148 LONE OAK RD","LONGVIEW","WA","98632"
65138,"148 LONG LN","EAST HAMPTON","NY","11937"
65139,"148 LOUGARRE","MOREAUVILLE","LA","71355"
65140,"148 MAIN STREET PO BOX 302","KINGSTON","NH","03848"
65141,"148 MANAWIANUI","BASTROP","TX","78602"
65142,"148 MANHATTAN AVE","BAYVILLE","NJ","08721"
65143,"148 MAYOR ESTATE DR","CAMBRIDGE","OH","43725"
65144,"148 MCHENRY STREET","BURLINGTON","WI","53105"
65145,"148 MILL RD","NEW JOHNSONVILLE","TN","37134"
65146,"148 MISSION DR","AKRON","OH","44301"
65147,"148 N 22ND ST","COLUMBUS","OH","43203"
65148,"148 N MAIN ST","GREENVILLE","KY","42345"
65149,"148 N OLIPHANT ST","WEST BRANCH","IA","52358"
65150,"148 N OLIPHANT","WEST BRANCH","IA","52358"
65151,"148 NEPTUNE AVE","JERSEY CITY","NJ","07305"
65152,"148 NORTH MAIN STREET","GREENVILLE","KY","42345"
65153,"148 OAKLEY RD","BELMONT","MA","02478"
65154,"148 OGDEN AVENUE","DOWNERS GROVE","IL","60515"
65155,"148 OVERLAND RD","WALTHAM","MA","02451"
65156,"148 PALM ROAD","DEBARY","FL","32713"
65157,"148 PAPER MILL ROAD","WESTFIELD","MA","01085"
65158,"148 PARADISE DRIVE","ROGERSVILLE","MO","65742"
65159,"148 PEACHAM RAOD","DANVILLE","VT","05828"
65160,"148 PEACHAM ROAD","DANVILLE","VT","05828"
65161,"148 REMINGTON","FORT COLLINS","CO","80524"
65162,"148 RICHARDSON ROAD","PICAYUNE","MS","39466"
65163,"148 RIVERGRASS LANE","BLUFFTON","SC","29909"
65164,"148 ROBINDALE W","BANDERA","TX","78003"
65165,"148 ROCKLAND ROAD","ROSCOE","NY","12776"
65166,"148 ROXBURY ROAD","NIANTIC","CT","06357"
65167,"148 RULAND RD","SELDEN","NY","11784"
65168,"148 RUSSELL LANE","ABINGTON","MA","02351"
65169,"148 S  60TH STREET","PHILADELPHIA","PA","19139"
65170,"148 S 60TH STREET SUITE 200","PHILADELPHIA","PA","19139"
65171,"148 S DOWLEN NUMBER 160","BEAUMONT","TX","77707"
65172,"148 S KEYSER AVE","TAYLOR","PA","18517"
65173,"148 S MAIN ST","MOUNT CLEMENS","MI","48043"
65174,"148 S WEST END BLVD","CAPE GIRARDEA","MO","63703"
65175,"148 SAM SCOTT ROAD","BAINBRIDGE","GA","39817"
65176,"148 SAMUELS DRIVE","MADISON","MS","39110"
65177,"148 SCENIC HILLS DRIVE","NEWNAN","GA","30265"
65178,"148 SECOND ST","OLD MONROE","MO","63369"
65179,"148 SOUTH MILTON BOX 101","SMITHVILLE","OH","44677"
65180,"148 STACIA STREET","LOS GATOS","CA","95030"
65181,"148 SWEITZER ROAD","MOUNT PLEASANT","PA","15666"
65182,"148 SYLVESTER AVENUE","SAINT LOUIS","MO","63119"
65183,"148 TILSON RD","ATHENS","GA","30606"
65184,"148 TOMLINSON DRIVE","FOLSOM","CA","95630"
65185,"148 UMBRELLA PLACE","JUPITER","FL","33458"
65186,"148 VALLEY AVENUE NW","GRAND RAPIDS","KY","49504"
65187,"148 VERNON AVE","LOUISVILLE","KY","40206"
65188,"148 VNCENT AVE","LYNBROOK","NY","11563"
65189,"148 W 175TH STREET","BRONX","NY","10453"
65190,"148 W HEWITT AVE","MARQUETTE","MI","49855"
65191,"148 W RIVER ST STE 1G","PROVIDENCE","RI","02904"
65192,"148 WASHINGTON STREET","LOCKPORT","NY","14094"
65193,"148 WATERFORD DR","THIBODAUX","LA","70301"
65194,"148 WEISENBERGER ROAD SUITE F","MADISON","MS","39110"
65195,"148 WELLINGTON AVENUE","NEW ROCHELLE","NY","10804"
65196,"148 WELWORTH STREET","MADISON","TN","37115"
65197,"148 WEST 23 STREET APT 5F","NEW YORK","NY","10011"
65198,"148 WEST MAIN STREET","WARNER","NH","03278"
65199,"148 WILD OAK","OJAI","CA","93023"
65200,"148 WOOD RD","FREEVILLE","NY","13068"
65201,"148 WOODLAND VIEW","BOERNE","TX","78015"
65202,"148 WOODY CREEK PLAZA","WOODY CREEK","CO","81656"
65203,"148-12 LINDEN BLVD","JAMAICA","NY","11436"
65204,"148-19 90TH AVENUE SUITE 3G","JAMAICA-QUEENS","NY","11435"
65205,"148-48 61ST RD","FLUSHING","NY","11367"
65206,"148-49 HORACE HARDING EXPRESSWAY","FLUSHING","NY","11367"
65207,"1480 8TH STREET","WEST PLAINS","MO","65775"
65208,"1480 BEAVER RUIN RD","NORCROSS","GA","30093"
65209,"1480 BERGER ST APT 204","ODENTON","MD","21113"
65210,"1480 CABELAS DR APT 331","BUDA","TX","78610"
65211,"1480 CHESHIRE CT","LAWRENCEVILLE","GA","30043"
65212,"1480 CORBISON POINT PL","JUPITER","FL","33458"
65213,"1480 DESCHUTES PLACE","FREMONT","CA","94539"
65214,"1480 E MONROE AVE","HARTFORD","WI","53027"
65215,"1480 E PECOS RD APT 3048","GILBERT","AZ","85295"
65216,"1480 EAGLE RIDGE RD","OAK HARBOR","WA","98277"
65217,"1480 EAST MAIN ST","WYTHEVILLE","VA","24382"
65218,"1480 GEORGE DIETER SUITE A","EL PASO","TX","79936"
65219,"1480 GULF BLVD UNIT 1003","CLEARWATER BEACH","FL","33767"
65220,"1480 HAMMOCK RIDGE RD APT 12108","CLERMONT","FL","34711"
65221,"1480 HOLLYWOOD DRIVE","LANCASTER","PA","17601"
65222,"1480 HUNTLEY COURT","YORK","PA","17408"
65223,"1480 LINCOLN AVE  NO 12","SAN RAFAEL","CA","94901"
65224,"1480 MAIN ST","NAPA","CA","94574"
65225,"1480 MISTY LANE","BOLINGBROOK","IL","60490"
65226,"1480 N MILLBROOK AVE","FRESNO","CA","93703"
65227,"1480 ODELL SCHOOL ROAD","CONCORD","NC","28027"
65228,"1480 OGLETHORPE RUN LANE","SUWANEE","GA","30024"
65229,"1480 OLIVE BRANCH PARKE LN","GREENWOOD","IN","46143"
65230,"1480 PIONEER CIRCLE","OCEANSIDE","CA","92057"
65231,"1480 ROTHS CHURCH ROAD","SPRING GROVE","PA","17362"
65232,"1480 S 2ND AVE","YUMA","AZ","85364"
65233,"1480 S CENTRAL DRIVE","CHANDLER","AZ","85286"
65234,"1480 STEVE ST W","MOBILE","AL","36609"
65235,"1480 STONEGATE COURT","TEMPERANCE","MI","48182"
65236,"1480 SUGAR GROVE ROAD","LANCASTER","OH","43130"
65237,"1480 THIERIOT AVENUE APT 3A","BRONX","NY","10460"
65238,"1480 THORNBERRY ROAD","WYNCOTE","PA","19095"
65239,"1480 TRICE CEMETERY ROAD","THOMASTON","GA","30286"
65240,"1480 ULLREY AVE","ESCALON","CA","95320"
65241,"1480 VENEER MILL ROAD","GEORGIANA","AL","36033"
65242,"1480 VINE STREET UNIT 203","LOS ANGELES","CA","90028"
65243,"1480 WEBBTOWN ROAD","MAPLE HILL","NC","28454"
65244,"1480 WEST 8TH STREET","WEST PLAINS","MO","65775"
65245,"1480 YOUNG","CLEARWATER","FL","33756"
65246,"14800 34TH AVE N","PLYMOUTH","MN","55447"
65247,"14800 CONFERENCE CENTER DR STE 300","CHANTILLY","VA","20151"
65248,"14800 CONFERENCE CTR DR","CHANTILLY","VA","20151"
65249,"14800 EDBROOKE AVENUE","DOLTON","IL","60419"
65250,"14800 JERSEY AVE","NORWALK","CA","90650"
65251,"14800 LINCOLN STREET","OAK PARK","MI","48237"
65252,"14800 MIDDLEBELT RD","LIVONIA","MI","48154"
65253,"14800 NW CORNELL RD 24E","PORTLAND","OR","97229"
65254,"14800 NW CORNELL RD APT 5H","PORTLAND","OR","97229"
65255,"14800 POLK STREET","MIAMI","FL","33176"
65256,"14800 PRIVATE DRIVE 1122","SAINT JAMES","MO","65559"
65257,"14800 SOUTH JERSEY AVENUE ROOM 131","NORWALK","CA","90650"
65258,"14800 VERMONT AVE","CRESAPTOWN","MD","21502"
65259,"14801 BUTTERNUT RD","PINE CITY","MN","55063"
65260,"14801 DUNLEIGH DRIVE","BOWIE","MD","20721"
65261,"14801 GROVEVIEW LN IRVINE CA 92604","IRVINE","CA","92604"
65262,"14801 HARDCASTLE STREET","LAUREL","MD","20707"
65263,"14801 LYNNVILLE TERRACE","UPPER MARLBORO","MD","20774"
65264,"14801 MARKHAM DR","HARVEY","IL","60426"
65265,"14801 MURDOCK ST UNIT 135","CHANTILLY","VA","20151"
65266,"14801 N 83RD AVE","PEORIA","AZ","85381"
65267,"14801 N LINCOLN BLVD","EDMOND","OK","73013"
65268,"14801 QUORUM DRIVE    SUITE 500","DALLAS","TX","75254"
65269,"14801 SCOTCH RIDGE ROAD","CARLISLE","IA","50047"
65270,"14801 SOUTHPOINTE CURVE","BURNSVILLE","MN","55306"
65271,"14802 DEER POND COURT","CENTREVILLE","VA","20120"
65272,"14802 MORGAN ST","HARVEY","IL","60426"
65273,"14802 NE SISKIYOU CT","PORTLAND","OR","97230"
65274,"14802 NEWPORT AVE APT 14C","TUSTIN","CA","92780"
65275,"14802 S HARVARD BLVD","GARDENA","CA","90247"
65276,"14802 SADDLEPEAK DR","FONTANA","CA","92336"
65277,"14802 SOUTH 42ND STREET","PHOENIX","AZ","85044"
65278,"14802 W 93RD TER","LENEXA","KS","66215"
65279,"14802 W WIGWAM","GOODYEAR","AZ","85395"
65280,"14803 DUNLEIGH DRIVE","BOWIE","MD","20721"
65281,"14803 FM 2769","VOLENTE","TX","78641"
65282,"14803 STELLAS POINT CT","HUMBLE","TX","77396"
65283,"14803 WILD IVY CT","CYPRESS","TX","77429"
65284,"14804 NORTH CAVE CREEK ROAD","PHOENIX","AZ","85032"
65285,"14804 OLD HICKORY BOULEVARD","ANTIOCH","TN","37013"
65286,"14804 PLEASANT VALLEY RD","PENN VALLEY","CA","95946"
65287,"14804 SE 170TH ST","RENTON","WA","98058"
65288,"14805 BLACKBURN RD","WOODBRIDGE","VA","22191"
65289,"14805 BRANT RD","ST CHARLES","MI","48655"
65290,"14805 EASTWOOD AVENUE","LAWNDALE","CA","90260"
65291,"14805 ERSKINE STREET","OMAHA","NE","68116"
65292,"14805 HARVEST LANE","SILVER SPRING","MD","20905"
65293,"14805 WERRIS CREEK LANE","SAN DIEGO","CA","92128"
65294,"14806 BEACONSFIELD DRIVE","HOUSTON","TX","77015"
65295,"14806 MYSTIC BEND DRIVE","CYPRESS","TX","77429"
65296,"14806 N CAROLINA GREEN DR","CYPRESS","TX","77433"
65297,"14806 NICKELSON DRIVE","MEADVILLE","PA","16335"
65298,"14807 ALABAMA AVE","WOODBRIDGE","VA","22191"
65299,"14807 CANONERO STREET","SAN ANTONIO","TX","78248"
65300,"14807 RICH VALLEY LANE","SUGAR LAND","TX","77498"
65301,"14807 RICH VALLEY LANE","SUGARLAND","TX","77498"
65302,"14807 STARLITE CIRCLE","BENNINGTON","NE","68007"
65303,"14807 WEST BEND DRIVE","HOUSTON","TX","77082"
65304,"14807 WILLARD ROAD SUITE L","CHANTILLY","VA","20151"
65305,"14807 WOODLAND HILLS DR APT 4105","HUMBLE","TX","77396"
65306,"14808 FRIAR ST APT F","VAN NUYS","CA","91411"
65307,"14808 SUMMIT OAKS DRIVE","BURNSVILLE","MN","55337"
65308,"14808 VENTURE DRIVE","FARMERS BRANCH","TX","75234"
65309,"14809 DARROW RD","VERMILION","OH","44089"
65310,"14809 HOOK CREEK BLVD","ROSEDALE QUEENS","NY","11422"
65311,"14809 KREMS AVE","MAPLE HEIGHTS","OH","44137"
65312,"14809 N 73RD STREET STE 101","SCOTTSDALE","AZ","85260"
65313,"1481 10TH ST NW UNIT 306","NEW BRIGHTON","MN","55112"
65314,"1481 CALLOWAY ST","TALLAHASSEE","FL","32304"
65315,"1481 CHESTNUT STREET","ORANGEBURG","SC","29115"
65316,"1481 COUNTY RD 1301","VINEMONT","AL","35179"
65317,"1481 CR-69","PRATTVILLE","AL","36067"
65318,"1481 LAWRENCEVILLE SUWANEE RD","LAWRENCEVILLE","GA","30043"
65319,"1481 MALCOLM TAYLOR ROAD","BONIFAY","FL","32425"
65320,"1481 MCCURDY AVE S","RAINSVILLE","AL","35986"
65321,"1481 NEW HOLLAND PIKE","LANCASTER","PA","17601"
65322,"1481 NW 94TH WAY","CORAL SPRINGS","FL","33071"
65323,"1481 PALMERO DRIVE","PERRIS","CA","92571"
65324,"1481 RIDGE ROAD","PRINCETON","KY","42445"
65325,"1481 S 1080 E","OREM","UT","84097"
65326,"1481 S SAHUARO DR","GILBERT","AZ","85233"
65327,"14810 ARABIAN LANE","BOWIE","MD","20715"
65328,"14810 BLUE RIDGE COURT","MOORPARK","CA","93021"
65329,"14810 DOBBS AVE","BAKERSFIELD","CA","93314"
65330,"14810 LARCH AVE","LAWNDALE","CA","90260"
65331,"14810 MADISON RD","MIDDLEFIELD","OH","44062"
65332,"14810 REGNAL STREET","HOUSTON","TX","77039"
65333,"14810 SW TREVOR LN","PORTLAND","OR","97224"
65334,"14811 FM782N","HENDERSON","TX","75652"
65335,"14811 HUEBNER RD APT 2121","SAN ANTONIO","TX","78231"
65336,"14811 SHELBURNE CT","EASTVALE","CA","92880"
65337,"14811 STRAWBERRY LANE","BURTONSVILLE","MD","20866"
65338,"14811 WEST RD APT 6102","HOUSTON","TX","77095"
65339,"14812 N 75TH EAST AVE","COLLINSVILLE","OK","74021"
65340,"14812 SE RIVER RD","MILWAUKIE","OR","97267"
65341,"14812 WOODDALE RD","BIRCHWOOD","WI","54817"
65342,"14813 ABLE ST NE","HAM LAKE","MN","55304"
65343,"14813 HWY 65","ECKERT","CO","81418"
65344,"14813 MILTON BROOK COURT","SPARKS GLENCOE","MD","21152"
65345,"14813 WOLFSKILL STREET","MISSION HILLS","CA","91345"
65346,"14814 BURLESON BEND DR","HOUSTON","TX","77049"
65347,"14814 RANCHO VISTA","HOUSTON","TX","77083"
65348,"14814 WILLOW GLEN COURT","CANYON COUNTRY","CA","91387"
65349,"14815 ALGER RD","CLEVELAND","OH","44111"
65350,"14816 SE ARISTA DR","MILWAUKIE","OR","97267"
65351,"14817 DEERBERRY CT","FORT WAYNE","IN","46814"
65352,"14817 GLENKIRK RD","NOKESVILLE","VA","20181"
65353,"14817 KENNEBEC","SOUTHGATE","MI","48195"
65354,"14817 LONGBOW LANE","BAKER CITY","OR","97814"
65355,"14818 81ST STREET NE","ST. THOMAS","ND","58276"
65356,"14818 HOOK HOLLOW ROAD","NOVELTY","OH","44072"
65357,"14818 L STREET","OMAHA","NE","68137"
65358,"14818 PHILIP MEADOWS COURT","FLORISSANT","MO","63034"
65359,"14818 S BUTLER AVE","COMPTON","CA","90221"
65360,"14818 SADDLE CREEK DRIVE","BURTONSVILLE","MD","20866"
65361,"1482 ALTON WAY","DOWNINGTOWN","PA","19335"
65362,"1482 C LINAPUNI ST","HONOLULU","HI","96819"
65363,"1482 CHARLES AVENUE","ST PAUL","MN","55104"
65364,"1482 COUNTY ROAD 51","PRATTVILLE","AL","36067"
65365,"1482 CYPRESS STREET","NICEVILLE","FL","32578"
65366,"1482 E UNIVERSITY AVE","LAS VEGAS","NV","89119"
65367,"1482 E VALLEY RD NUM 320","MONTECITO","CA","93108"
65368,"1482 GREENLAWN DR","DANVILLE","CA","94526"
65369,"1482 JACKSON ST","REYNOLDSBURG","OH","43068"
65370,"1482 MEADOWLARK DR","LONG GROVE","IL","60047"
65371,"1482 MEDALLION DR","SAN JOSE","CA","95120"
65372,"1482 MINGARY AVE","FAYETTEVILLE","NC","28306"
65373,"1482 N 2400 W","CLINTON","UT","84015"
65374,"1482 N ASTER","ANDOVER","KS","67002"
65375,"1482 PINE GROVE RD","STANLEY","VA","22851"
65376,"1482 ROUTE 9","CLIFTON PARK","NY","12065"
65377,"1482 SAINT JOSEPH AVE","ATLANTA","GA","30344"
65378,"1482 STOKES AVE","ATLANTA","GA","30310"
65379,"1482 VINTAGE CIRCLE","LEXINGTON","KY","40517"
65380,"1482 WEST 116TH STREET","CLEVELAND","OH","44102"
65381,"1482 WILLOW OAKS TRAIL","MATTHEWS","NC","28104"
65382,"14820 32ND STREET","GOBLES","MI","49055"
65383,"14820 FIRETHORNE PATH","FORT WAYNE","IN","46814"
65384,"14820 METCALF AVE","OVERLAND PARK","KS","66223"
65385,"14820 REEVES AVENUE","FLUSHING","NY","11367"
65386,"14821 ASHFORD PLACE","LAUREL","MD","20707"
65387,"14821 CANAAN DR","FORT MYERS","FL","33908"
65388,"14821 SHRIKE WAY","FORT MYERS","FL","33908"
65389,"14821 SOUTH DIXIE HIGHWAY","MIAMI","FL","33176"
65390,"14821 SOUTH DIXIE HWY","MIAMI","FL","33176"
65391,"14822 CHARTERHOUSE LN","HUNTERSVILLE","NC","28078"
65392,"14822 CRESCENT ROCK DR","WIMAUMA","FL","33598"
65393,"14822 INKSTER ROAD","REDFORD","MI","48239"
65394,"14822 MAIN STREET","ALACHUA","FL","32615"
65395,"14822 PLANTATION OAK","HOUSTON","TX","77068"
65396,"14822 S LIME AVENUE","COMPTON","CA","90221"
65397,"14823 CLEVELAND ROAD SW","PATASKALA","OH","43062"
65398,"14823 CROSS STONE COURT","CYPRESS","TX","77429"
65399,"14823 S HOMAN AVE","MIDLOTHIAN","IL","60445"
65400,"14824 BRECKNESS PLACE","MIAMI LAKES","FL","33016"
65401,"14824 WEST SURREY","SURPRISE","AZ","85379"
65402,"14825 NE US HIGHWAY 301","WALDO","FL","32694"
65403,"14825 NW BONNEVILLE LOOP","BEAVERTON","OR","97006"
65404,"14825 REDWOOD PASS DR","BAKERSFIELD","CA","93314"
65405,"14825 SHIRLEY AVE","WARREN","MI","48089"
65406,"14826 BARTON GROVE LN","HUMBLE","TX","77396"
65407,"14826 CHARLMONT DR","HOUSTON","TX","77083"
65408,"14826 N 60TH ST","SCOTTSDALE","AZ","85254"
65409,"14826 ROSEMARY WAY DRIVE","HUNTERSVILLE","NC","28078"
65410,"14827 CALIFORNIA STREET","OMAHA","NE","68154"
65411,"14827 KILPATRICK AVE APT 1W","MIDLOTHIAN","IL","60445"
65412,"14827 OAK STREET","DOLTON","IL","60419"
65413,"14827 VENTURA BLVD SUITE 207","SHERMAN OAKS","CA","91403"
65414,"14829 BELLAIRE BLVD SUITE 18A","HOUSTON","TX","77083"
65415,"14829 CRANBROOK AVENUE","HAWTHORNE","CA","90250"
65416,"1483 BAYVIEW AVE","BLAINE","WA","98230"
65417,"1483 BRIDGEPORT LN","MANTECA","CA","95336"
65418,"1483 BROOKHAVEN DR","SOUTHAVEN","MS","38671"
65419,"1483 COUNTY RD 311","MCDADE","TX","78650"
65420,"1483 DOS DEANNAS DRIVE","EL PASO","TX","79936"
65421,"1483 E RIDGELINE DRIVE","OGDEN","UT","84405"
65422,"1483 EAST 33RD STREET","BROOKLYN","NY","11234"
65423,"1483 FLAMINGO RD","GRETNA","LA","70056"
65424,"1483 HICKORY LEVEL RD","VILLA RICA","GA","30180"
65425,"1483 NORTH MOUNT JULIET ROAD  113","MT. JULIET","TN","37122"
65426,"1483 PEARL ROAD","BRUNSWICK","OH","44212"
65427,"1483 PETER GRANT ROAD","SNOW HILL","NC","28580"
65428,"1483 SANDUSKY STREET","ASHLAND","OH","44805"
65429,"1483 W 300 S","LEHI","UT","84043"
65430,"1483 WYNNE AVE","ST PAUL","MN","55108"
65431,"1483","GEORGETOWN","TX","78627"
65432,"14830 STATLER DR","WOODBRIDGE","VA","22193"
65433,"14830 UMPIRE STREET","BRIGHTON","CO","80603"
65434,"14831 MYFORD ROAD","TUSTIN","CA","92780"
65435,"14832 DAHLQUIST RD","IRVINE","CA","92604"
65436,"14832 GODDARD STREET","OVERLAND PARK","KS","66221"
65437,"14832 SW 179 STREET","MIAMI","FL","33187"
65438,"14833 SHIPP ROAD","BAY MINETTE","AL","36507"
65439,"14834 JUPITER ST","WHITTIER","CA","90603"
65440,"14834 JUPITER STREET","WHITTIER","CA","90603"
65441,"14835 KENTFIELD","DETROIT","MI","48223"
65442,"14836 BEACH BOULEVARD","LA MIRADA","CA","90638"
65443,"14836 S 7TH STREET","PHOENIX","AZ","85048"
65444,"14837 CLAYTON STREET","THORNTON","CO","80602"
65445,"14837 DETROIT AVE NUM 242","LAKEWOOD","OH","44107"
65446,"14837 GRAVITY FALLS LANE","OKLAHOMA CITY","OK","73142"
65447,"14837 LEICESTER COURT","CENTREVILLE","VA","20120"
65448,"14837 TANJA KING BLVD","ORLANDO","FL","32828"
65449,"14838 ASHBY OAK CT","HAYMARKET","VA","20169"
65450,"14838 NORTHWEST BLVD APT 1306","CORPUS CHRISTI","TX","78410"
65451,"14839 SINGLE TRCE","AUSTIN","TX","78728"
65452,"1484 CAMP ROAD","CHARLESTON","SC","29412"
65453,"1484 CAREW STREET","SPRINGFIELD","MA","01104"
65454,"1484 EAST 17TH STREET","BROOKLYN","NY","11230"
65455,"1484 GULF TO BAY BLVD STE 4","CLEARWATER","FL","33755"
65456,"1484 INWOODS CIRCLE","BLOOMFIELD TOWNSHIP","MI","48302"
65457,"1484 MANOR PLACE","MONTEREY","CA","93940"
65458,"1484 NORTH STEENS AVENUE","KUNA","ID","83634"
65459,"1484 PADRE LANE","NIPOMO","CA","93444"
65460,"1484 S HWY 41","MULLINS","SC","29574"
65461,"14840 MICHELLE LN","BEAUMONT","TX","77713"
65462,"14841 BELLE AMI DIVE","LAUREL","MD","20707"
65463,"14841 E KANSAS PL","AURORA","CO","80012"
65464,"14841 GAGELY DRIVE","LA MIRADA","CA","90638"
65465,"14841 LOC LOMAN LANE","ANCHORAGE","AK","99516"
65466,"14844 DAY LILY CT","ORLANDO","FL","32824"
65467,"14844 WALKER ROAD","PRAIRIE GROVE","AR","72753"
65468,"14845 6TH STREET ROAD","WAMEGO","KS","66547"
65469,"14845 MARICOPA HWY","OJAI","CA","93023"
65470,"14845 SW MURRAY SCHOLLS DR PMB 342","BEAVERTON","OR","97007"
65471,"14845 SW MURRAY SCHOLLS DRIVE","BEAVERTON","OR","97007"
65472,"14846 N 458 ROAD","HULBERT","OK","74441"
65473,"14847 GREENLEAF ST","SHERMAN OAKS","CA","91403"
65474,"14847 WAKE AVE","SAN LEANDRO","CA","94578"
65475,"14848 RIVER XING","SAVAGE","MN","55378"
65476,"14849 ASHFORD PLACE","LAUREL","MD","20707"
65477,"14849 BRAYWOOD TRL","ORLANDO","FL","32824"
65478,"14849 FOSNIGHT ROAD","ORRVILLE","OH","44667"
65479,"14849 PERSISTENT DRIVE","WOODBRIDGE","VA","22191"
65480,"1485 5TH AVENUE 16G","NEW YORK","NY","10035"
65481,"1485 BAY SHORE BLVD STE 190","SAN FRANCISCO","CA","94124"
65482,"1485 EDISON ST","DETROIT","MI","48206"
65483,"1485 FM 1960 BYPASS EAST SUITE 100","HUMBLE","TX","77338"
65484,"1485 HOUSEL CRAFT RD","BRISTOLVILLE","OH","44402"
65485,"1485 HYDE PARK","WINTER PARK","FL","32792"
65486,"1485 LINDA VISTA AVE","PASADENA","CA","91103"
65487,"1485 MAIN STREET","ATHOL","MA","01331"
65488,"1485 MIRA VISTA CIR","WESTON","FL","33327"
65489,"1485 N DIETZ RD","ZANESVILLE","OH","43701"
65490,"1485 N GARFIELD AVE APT 3","PASADENA","CA","91104"
65491,"1485 NORTH GARFIELD AVENUE 5","PASADENA","CA","91104"
65492,"1485 NORTHERN VIEW DR","CEDAR CITY","UT","84720"
65493,"1485 ORCHID DR","SAN BERNARDINO","CA","92404"
65494,"1485 POLLARD DRIVE","ATLANTA","GA","30311"
65495,"1485 PRIVATE ROAD 2112","GILMER","TX","75645"
65496,"1485 S IVY WAY","DENVER","CO","80224"
65497,"1485 SOMBRERO DR UNIT 4","LAS VEGAS","NV","89169"
65498,"1485 SPRINGFIELD ROAD","COLUMBIA CROSS ROADS","PA","16914"
65499,"1485 TUCKER MOUNTAIN RD","DOVER","AR","72837"
65500,"1485 TWIN LAKES DRIVE","HIGHLANDS","NC","28741"
