"ID","Address","City","State","Zip"
109501,"205 HOWELL CHASE","DULUTH","GA","30096"
109502,"205 HUDSPETH PARK RD","REIDSVILLE","NC","27320"
109503,"205 HUDSPETH PARK ROAD","REIDSVILLE","NC","27320"
109504,"205 HYDRANGEA ST","SUMMERVILLE","SC","29483"
109505,"205 INDIGO AVENUE","OPELIKA","AL","36804"
109506,"205 JAY STREET","SCOTIA","NY","12302"
109507,"205 JEAN CHRISTY DRIVE","ANDREWS","NC","28901"
109508,"205 JEFFERSON RD","PARSIPPANY","NJ","07054"
109509,"205 JINNY HILL ROAD","CHESHIRE","CT","06410"
109510,"205 JORDAN DR","NOCONA","TX","76255"
109511,"205 JUMPING BROOK ROAD","NEPTUNE","NJ","07753"
109512,"205 KEATON DRIVE","FAYETTEVILLE","GA","30215"
109513,"205 KELLIWOOD DRIVE","GOLDSBORO","NC","27534"
109514,"205 KEN PRATT BLVD SUITE 120-7","LONGMONT","CO","80501"
109515,"205 KENTS RIDGE ROAD","RICHLANDS","VA","24641"
109516,"205 LAKEWOOD AVENUE","BALTIMORE","MD","21224"
109517,"205 LANCASTER GATE LANE","MIDLOTHIAN","VA","23113"
109518,"205 LANDIS AVENUE","WAYNESBORO","PA","17268"
109519,"205 LARSON AVENUE","BRANDON","FL","33510"
109520,"205 LEAR DRIVE","LAURENS","SC","29360"
109521,"205 LIVE OAK CT","ROCKLIN","CA","95765"
109522,"205 LOVERS LANE","WHITMIRE","SC","29178"
109523,"205 LUREY STREET","LAURENS","SC","29360"
109524,"205 MACARTHUR STREET EAST","SOUTH SAINT PAUL","MN","55075"
109525,"205 MAIN ST PO BOX 224","BROWNSVILLE","MN","55919"
109526,"205 MAIN ST SE","GRAVETTE","AR","72736"
109527,"205 MAIN ST","COLESBURG","IA","52035"
109528,"205 MAIN STR WEST","CLARISSA","MN","56440"
109529,"205 MAIN STREET UNIT 543","ASHLAND","MA","01721"
109530,"205 MAIN STREET","DAWSON","IL","62520"
109531,"205 MAIN STREET","LEWISTON","ME","04240"
109532,"205 MAIN STREET","VAIL","IA","51465"
109533,"205 MANED ST","SANGER","TX","76266"
109534,"205 MANHATTAN AVE","OAK RIDGE","TN","37830"
109535,"205 MAPLE  STREET","FORT MILL","SC","29715"
109536,"205 MAPLE STREET APARTMENT 2","BENNINGTON","VT","05201"
109537,"205 MAPLE STREET","STATESBORO","GA","30458"
109538,"205 MARTHA DRIVE","SAINT MARYS","GA","31558"
109539,"205 MARTINS CT","VILLA RICA","GA","30180"
109540,"205 MARY STREET","PITTSBURGH","PA","15108"
109541,"205 MCDONALD ROAD","RICHMONDVILLE","NY","12149"
109542,"205 MCMINN AVENUE","ATHENS","TN","37303"
109543,"205 MEMORIAL DRIVE","DEL RIO","TX","78840"
109544,"205 MILLER AVENUE","MT. VERNON","OH","43050"
109545,"205 MINEOLA BLVD APT 4H","MINEOLA","NY","11501"
109546,"205 MINNESOTA STREET W","CANNON FALLS","MN","55009"
109547,"205 MONKS WAY","FRANKLIN","TN","37064"
109548,"205 MORGAN AVE","DOWNS","KS","64737"
109549,"205 N 11TH ST","MARYSVILLE","KS","66508"
109550,"205 N 3RD EAST","MOUNTAIN HOME","ID","83647"
109551,"205 N 4TH ST","ATWOOD","KS","67730"
109552,"205 N CHEROKEE PO BOX 405","BARTLESVILLE","OK","74005"
109553,"205 N COLLEGE AVE","TAHLEQUAH","OK","74464"
109554,"205 N COLUMBIA AVE","CAMPBELLSVILLE","KY","42718"
109555,"205 N COUNTRY LN","FRUIT HEIGHTS","UT","84037"
109556,"205 N EAST STREET","PLATTSBURG","MO","64477"
109557,"205 N ERSKINE STREET","SEGUIN","TX","78155"
109558,"205 N GRAND MESA DRIVE","CEDAREDGE","CO","81413"
109559,"205 N INDUSTRIAL DR  SUITE 3","ORANGE CITY","FL","32763"
109560,"205 N JACKSON","JUSTIN","TX","76247"
109561,"205 N MAIN ST","CLAWSON","MI","48017"
109562,"205 N MAIN ST","COLVILLE","WA","99114"
109563,"205 N MAIN STREET","WEAVERVILLE","NC","28787"
109564,"205 N MARKET ST","LAKE PARK","IA","51347"
109565,"205 N MEYER STREET","SAN FERNANDO","CA","91340"
109566,"205 N MICHIGAN AVE SUITE 810","CHICAGO","IL","60601"
109567,"205 N MICHIGAN AVENUE 37TH FLOOR","CHICAGO","IL","60601"
109568,"205 N MISSOURI","ROSWELL","NM","88201"
109569,"205 N MURRAY BLVD LOT 202","COLORADO SPRINGS","CO","80916"
109570,"205 N MURRAY BLVD SUITE 245","COLORADO SPRINGS","CO","80916"
109571,"205 N NAOMI ST","BURBANK","CA","91505"
109572,"205 N PINE ST","NEVADA CITY","CA","95959"
109573,"205 N RIVER STREET","SEGUIN","TX","78155"
109574,"205 N STEPANIE ST SUITE D255","HENDERSON","NV","89074"
109575,"205 N SYCAMORE AVE PO BOX 247","GARRISON","IA","52229"
109576,"205 N WASHINGTON","SEDALIA","MO","65301"
109577,"205 NATIONAL","AFTON","OK","74331"
109578,"205 NE 74TH STREET","GLADSTONE","MO","64118"
109579,"205 NEAL PLACE     STE 105","HIGH POINT","NC","27262"
109580,"205 NORTH 14TH STREET APT 3","BLACK RIVER FALLS","WI","54615"
109581,"205 NORTH APPLE STREET","SHICKLEY","NE","68436"
109582,"205 NORTH GARDEN STREET","VENTURA","CA","93001"
109583,"205 NORTH HARVEST HILL CIRCLE","SIOUX FALLS","SD","57110"
109584,"205 NORTH LAKEWOOD AVENUE","BALTIMORE","MD","21224"
109585,"205 NORTH LEXINGTON","HARRISONVILL","MO","64701"
109586,"205 NORTH MAIN STREET","NEIHART","MT","59465"
109587,"205 NORTH MICHIGAN AVENUE STE 810","CHICAGO","IL","60601"
109588,"205 NORTH MORGAN DRIVE","MOORE","OK","73160"
109589,"205 NORTH MURRAY BOULEVARD LOT 245","COLORADO SPRINGS","CO","80916"
109590,"205 NORTH RIDGE HILLS COURT","GRAND FORKS","ND","58201"
109591,"205 NORWICH CT","EFLAND","NC","27243"
109592,"205 NW 8TH STREET","SEMINOLE","TX","79360"
109593,"205 NW TALL OAKS AVE","BENTONVILLE","AR","72712"
109594,"205 OAK ALLEY DRIVE","HOUMA","LA","70360"
109595,"205 OAK GROVE ROAD","MADISONVILLE","TN","37354"
109596,"205 OAK ST","HOOD RIVER","OR","97031"
109597,"205 OAK TREE COURT","PALOS PARK","IL","60464"
109598,"205 OAKVIEW AVE","FARMINGDALE","NY","11735"
109599,"205 OLD ELM ROAD","NORTH EAST","MD","21901"
109600,"205 OLD FARMS ROAD","AVON","CT","06001"
109601,"205 OLEANDER DR","DESOTO","TX","75115"
109602,"205 OPAL CT","MARTINSBURG","WV","25404"
109603,"205 OVERHILL DRIVE","MOORESVILLE","NC","28117"
109604,"205 PARK STREET","FORT ATKINSON","WI","53538"
109605,"205 PARKSTON AVE","GREENVILLE","SC","29605"
109606,"205 PARKWOOD BLVD","WEST MONROE","LA","71292"
109607,"205 PARSONS WOODS DR","SEFFNER","FL","33584"
109608,"205 PATRICIA ANN DRIVE SE","DALTON","GA","30721"
109609,"205 PENNOCK TRACE DRIVE","JUPITER","FL","33458"
109610,"205 PERKINS LANE","VALDOSTA","GA","31601"
109611,"205 PHELPS CREEK ROAD","GLADYS","VA","24554"
109612,"205 PINE ST","BLACK MTN","NC","28711"
109613,"205 PINE STREET","DEKALB","IL","60115"
109614,"205 PINEY DRIVE","PRINCETON","LA","71067"
109615,"205 POST OAK COURT","COLUMBIA","SC","29212"
109616,"205 POWELL PLACE  SUITE 314","BRENTWOOD","TN","37027"
109617,"205 POWELL PLACE SUITE 314","BRENTWOOD","TN","37027"
109618,"205 PRESERVATION WAY","COLORADO SPRINGS","CO","80919"
109619,"205 PROSPECT ST","HINGHAM","MA","02043"
109620,"205 QUAIL CT","MCALLEN","TX","78504"
109621,"205 R STREET NW","WASHINGTON","DC","20001"
109622,"205 RAGIN CT","SIMSONVILLE","SC","29681"
109623,"205 RANDALL LANE APARTMENT 4","GOLDSBORO","NC","27534"
109624,"205 RED BIRD LOOP","CENTER POINT","TX","78010"
109625,"205 REDBUD LANE","LANCASTER","TX","75146"
109626,"205 REDDING RIDGE","ATLANTA","GA","30349"
109627,"205 REGENCY EXECUTIVE PARK DR 430","CHARLOTTE","NC","28217"
109628,"205 REGENT DR","BRANSON","MO","65616"
109629,"205 RICE DR","LATROBE","PA","15650"
109630,"205 RICHMOND STREET","MOUNT VERNON","KY","40456"
109631,"205 RIDGELY AVE","ANNAPOLIS","MD","21401"
109632,"205 RIVER RUN","GREENWICH","CT","06831"
109633,"205 ROOSEVELT STREET","COALINGA","CA","93210"
109634,"205 ROSE DRIVE","AUBURN","IL","62615"
109635,"205 ROSEGARDEN DR NE","WARREN","OH","44484"
109636,"205 ROWAN BOULEVARD","GLASSBORO","NJ","08028"
109637,"205 ROYALL POINT ROAD","YARMOUTH","ME","04096"
109638,"205 RUIDOSO DR","LAFAYETTE","LA","70503"
109639,"205 S 10TH","CENTERVILLE","IA","52544"
109640,"205 S 6TH ST","SHAMOKIN","PA","17872"
109641,"205 S ACADEMY ST 6020","CARY","NC","27519"
109642,"205 S ADAMS ST STE 538","WOODSBORO","MD","21798"
109643,"205 S BANANA RIVER BLVD UNIT 105","COCOA BEACH","FL","32931"
109644,"205 S BARBOUR STREET","BEVERLY HILLS","FL","34465"
109645,"205 S CHOCTAW ST","DEWEY","OK","74029"
109646,"205 S COCHRAN","PLAINVILLE","KS","67663"
109647,"205 S COLLIN STREET","SNOW HILL","MD","21863"
109648,"205 S FRANK LUKE DRIVE STE 5","SAN ANTONIO","TX","78226"
109649,"205 S FRANKLIN ST","LA GRANGE","TX","78945"
109650,"205 S HIGLEY RD UNIT 269","MESA","AZ","85206"
109651,"205 S HOOVER BLVD SUITE 205","TAMPA","FL","33609"
109652,"205 S HUMPHREY AVE","OAK PARK","IL","60302"
109653,"205 S LAKESHORE DRIVE","OCOEE","FL","34761"
109654,"205 S LIBERTY ST","SAN AUGUSTINE","TX","75972"
109655,"205 S MAIN ST","FARMERSVILLE","TX","75442"
109656,"205 S MAIN ST","MOSCOW","ID","83843"
109657,"205 S MAIN STREET APT 204","JONESBORO","AR","72401"
109658,"205 S NELSON DR","MUSTANG","OK","73064"
109659,"205 S ORCHARD ST","WALLINGFORD","CT","06492"
109660,"205 S PINE ST","MARION","SC","29571"
109661,"205 S PRAIRIE","GREENVILLE","IL","62246"
109662,"205 S RICHARD ST","BEDFORD","PA","15522"
109663,"205 S ROCK AVE","VIROQUA","WI","54665"
109664,"205 S VALLEY RD","MCHENRY","IL","60050"
109665,"205 S VICTORIA AVE","SAN JACINTO","CA","92583"
109666,"205 S WILLIAM ST","PEARL RIVER","NY","10965"
109667,"205 S WOODLAKE ST","LAKE ELSINORE","CA","92530"
109668,"205 SAINT JAMES AVE STE 2 BOX 277","GOOSE CREEK","SC","29445"
109669,"205 SAN LUIZ AVE","CLEWISTON","FL","33440"
109670,"205 SCHOOL STREET","GREEN BROOK","NJ","08812"
109671,"205 SE 3RD ST","KERENS","TX","75144"
109672,"205 SE 3RD STREET","TUTTLE","OK","73089"
109673,"205 SE 7TH ROAD","HOMESTEAD","FL","33030"
109674,"205 SE AVE C","SEMINOLE","TX","79360"
109675,"205 SE SPOKANE STREET SUITE 300","PORTLAND","OR","97202"
109676,"205 SEA BISCUIT LANE","LAKE PLACID","FL","33852"
109677,"205 SHACKELFORD DR","MONROEVILLE","PA","15146"
109678,"205 SHAFFER ROAD","MILLERSBURG","PA","17061"
109679,"205 SHELBY DRIVE","PHILADELPHIA","MS","39350"
109680,"205 SHERWOOD CT STE 101","SAN RAMON","CA","94582"
109681,"205 SHIRLEYS WAY","ST AUGUSTINE","FL","32086"
109682,"205 SMITH STREET","PERTH AMBOY","NJ","08861"
109683,"205 SOHIER STREET","COHASSET","MA","02025"
109684,"205 SOUTH 3RD STREET","HENDERSON","MN","56044"
109685,"205 SOUTH BIRDNECK ROAD","VIRGINIA BEACH","VA","23451"
109686,"205 SOUTH BROADWAY","WINNETT","MT","59087"
109687,"205 SOUTH EAST AVENUE","WENONAH","NJ","08090"
109688,"205 SOUTH FIRST STREET","KERMAN","CA","93630"
109689,"205 SOUTH KALAMAZOO ST","PAW PAW","MI","49079"
109690,"205 SOUTH KALAMAZOO STREET","PAW PAW","MI","49079"
109691,"205 SOUTH MAIN ST","RIPLEY","MS","38663"
109692,"205 SOUTH MAIN STREET","ELKHART","IN","46516"
109693,"205 SOUTH ST","ATHOL","MA","01331"
109694,"205 SOUTH VAN DIEN AVENUE","RIDGEWOOD","NJ","07450"
109695,"205 SOUTH WASHINGTON STREET","KENNEWICK","WA","99336"
109696,"205 SPUR RANCH AVE","NORTH LAS VEGAS","NV","89032"
109697,"205 STATE HIGHWAY 145","BIRDSEYE","IN","47513"
109698,"205 STATION TERRACE WEST","MARTINSBURG","WA","25403"
109699,"205 STOCKHOLM RD","PAXTON","IL","60957"
109700,"205 STONEBROOK FARM WAY","GREENVILLE","SC","29615"
109701,"205 STRYKER STREET","ARCHBOLD","OH","43502"
109702,"205 SUBURBAN ROAD SUITE 6","SAN LUIS OBISPO","CA","93401"
109703,"205 SUMMIT BOND","NORMAN","OK","73071"
109704,"205 SUNRISE ST","IDABEL","OK","74745"
109705,"205 SUNSET DR APT 45","SEDONA","AZ","86336"
109706,"205 SUNSET DR/135","SEDONA","AZ","86336"
109707,"205 SW 75TH 38-I","GAINESVILLE","FL","32607"
109708,"205 SW 93RD STREET","OKC","OK","73159"
109709,"205 SW COMMUNITY DRIVE","LULU","FL","32061"
109710,"205 SW WARREN AVENUE","MADISON","FL","32341"
109711,"205 SWALLOW AVENUE","SEBRING","FL","33870"
109712,"205 SWEET AVE","FORT SMITH","AR","72901"
109713,"205 TALIWA GARDEN DR APT 205","KNOXVILLE","TN","37920"
109714,"205 TALON COURT","TAYLORS","SC","29687"
109715,"205 THIRD ST","ATHENS","GA","30601"
109716,"205 THOMSON ST","CENTERVILLE","GA","31028"
109717,"205 TIOGA AVENUE","ATCO","NJ","08004"
109718,"205 TOUCHET ROAD","LAFAYETTE","LA","70506"
109719,"205 TRAINER STREET","CHESTER","PA","19013"
109720,"205 TREMONT DRIVE","NEWPORT BEACH","CA","92660"
109721,"205 TROY LN","RED OAK","TX","75154"
109722,"205 VALLEY RD","PLYMOUTH","MA","02360"
109723,"205 VALLEY ROAD","HAWORTH","NJ","07641"
109724,"205 VERNON AVENUE/ SUITE 155","VERNON","CT","06066"
109725,"205 VILLA RIDGE DRIVE","DALLAS","GA","30157"
109726,"205 VIOLET STREET","METAIRIE","LA","70005"
109727,"205 W 12 MILE ROAD","ROYAL OAK","MI","48073"
109728,"205 W 18TH ST N","WICHITA","KS","67203"
109729,"205 W 7TH AVENUE SUITE 201B","STILLWATER","OK","74074"
109730,"205 W ARBOR AVENUE","PORT SAINT LUCIE","FL","34952"
109731,"205 W BUCK STREET","PAULSBORO","NJ","08066"
109732,"205 W BUSINESS HWY 60 PMB 50","DEXTER","MO","63841"
109733,"205 W CENTER AVE","SEBRING","FL","33870"
109734,"205 W COURT STREET","ROME","NY","13440"
109735,"205 W DODGE","RANTOUL","IL","61866"
109736,"205 W FRANKLIN ST","RICHMOND","VA","23220"
109737,"205 W FRONT STREET","HEBER SPRINGS","AR","72543"
109738,"205 W LIBERTY ST","CHARLES TOWN","WV","25414"
109739,"205 W MAIN STREET","BRIGHTON","MI","48116"
109740,"205 W MT CALVARY RD","RENSSELAER","IN","47978"
109741,"205 W OAK STREET","ALBION","MI","49224"
109742,"205 W PARK AVENUE","CHAMPAIGN","IL","61820"
109743,"205 W PORTLAND ST STUDIO 341C","PHOENIX","AZ","85003"
109744,"205 W RANDOLPH ST STE 510","CHICAGO","IL","60606"
109745,"205 W WODD STREET","TAMPA","FL","33604"
109746,"205 WALNUT STREET","GREENVILLE","SC","29607"
109747,"205 WALTON ROAD","HUNTINGTOWN","MD","20639"
109748,"205 WARWICK ST","BORGER","TX","79007"
109749,"205 WASHINGTON AVE UNIT 507","SANTA MONICA","CA","90403"
109750,"205 WASHINGTON STE 300","BURLINGTON","IA","52601"
109751,"205 WASHINGTON STREET","BREAUX BRIDGE","LA","70517"
109752,"205 WAUHATCHIE PIKE","CHATTANOOGA","TN","37419"
109753,"205 WEATHERSTONE DRIVE","WOODSTOCK","GA","30188"
109754,"205 WEBSTER   4134","HOUSTON","TX","77002"
109755,"205 WELLS LANE","RICKMAN","TN","38580"
109756,"205 WEST 140TH STREET NUMBER 2A","NEW YORK","NY","10030"
109757,"205 WEST COAL","GALLUP","NM","87301"
109758,"205 WEST END AVENUE 26V","NEW YORK","NY","10023"
109759,"205 WEST END AVENUE APT 5W","NEW YORK","NY","10023"
109760,"205 WEST LIVINGSTON RD","HIGHLAND","MI","48537"
109761,"205 WEST MAIN STREET","WASHINGTON","IA","52353"
109762,"205 WEST MARSHALL STREET","ALBION","IA","50005"
109763,"205 WEST PLATT STREET","TAMPA","FL","33606"
109764,"205 WEST SHORE LANE","SANDPOINT","ID","83864"
109765,"205 WEST STREET","DADEVILLE","AL","36853"
109766,"205 WEST VENICE AVE SUITE 204","VENICE","FL","34285"
109767,"205 WEST","NEW YORK","NY","10039"
109768,"205 WEXFORD","CIBOLO","TX","78108"
109769,"205 WHITEWOOD LANE","CRAWFORDSVILLE","AR","72327"
109770,"205 WHITWORTH ROAD","WHITEWRIGHT","TX","75491"
109771,"205 WILLARD WAY","ITHACA","NY","14850"
109772,"205 WILLIAM ST","TRENTON","NJ","08610"
109773,"205 WINDY WAY","FRONT ROYAL","VA","22630"
109774,"205 WINTER ST","HOPKINTON","MA","01748"
109775,"205 WINTERLOCHEN DRIVE","DUNN","NC","28334"
109776,"205 WITNESS TREE CIRCLE","EAST STROUDSBURG","PA","18301"
109777,"205 WOODCLIFF BLVD","MORGANVILLE","NJ","07751"
109778,"205 WYNDMONT WAY","COVINGTON","GA","30014"
109779,"205 YELLOW JACKET DRIVE","HAYESVILLE","NC","28904"
109780,"205 YOAKUM PKWY UNIT 619","ALEXANDRIA","VA","22304"
109781,"205-07 JAMAICA AVE","JAMAICA","NY","11423"
109782,"205-15 113 ROAD","SAINT ALBANS","NY","11413"
109783,"205-16 LINDEN BOULEVARD","ST. ALBANS","NY","11412"
109784,"2050 4TH AVE","STEVENS POINT","WI","54481"
109785,"2050 88 CIRCLE","BEAUMONT","TX","77707"
109786,"2050 ABERDEEN DRIVE","FLOWER MOUND","TX","75028"
109787,"2050 ABNER CREEK RD","DUNCAN","SC","29334"
109788,"2050 AIRWAY","KINGMAN","AZ","86401"
109789,"2050 ANTHEM VILLAGE DR SUITE E426","HENDERSON","NV","89052"
109790,"2050 AUGUSTA  DRIVE","HOUSTON","TX","77057"
109791,"2050 AUSTELL ROAD SW APT N8","MARIETTA","GA","30008"
109792,"2050 BAY SHORE BLVD","ROCHESTER","NY","14622"
109793,"2050 BURNSIDE DRIVE","SPARKS","NV","89434"
109794,"2050 CALLE DE SOL","ALAMOGORDO","NM","88310"
109795,"2050 CIVIC CENTER PLACE","MIRAMAR","FL","33025"
109796,"2050 COLLIER AVE STE 2","FORT MYERS","FL","33901"
109797,"2050 CORAL WAY STE 40","MIAMI","FL","33145"
109798,"2050 COVE RD","WEISER","ID","83672"
109799,"2050 CULLEN BLVD","PEARLAND","TX","77581"
109800,"2050 DELLESTA DR","BELLINGHAM","WA","98226"
109801,"2050 DRACENA DRIVE APARTMENT 7","LOS ANGELES","CA","90027"
109802,"2050 DUNMORE ST","JOLIET","IL","60431"
109803,"2050 E 2ND AVE","DURANGO","CO","81301"
109804,"2050 E ALGONQUIN RD STE 604","SCHAUMBURG","IL","60173"
109805,"2050 E INDIANA AVE","SOUTHERN PINES","NC","28387"
109806,"2050 GERMANTOWN STREET","DAYTON","OH","45417"
109807,"2050 HANCOCK ST SUITE C","SAN DIEGO","CA","92110"
109808,"2050 HOWELL BRIDGE RD","BALL GROUND","GA","30107"
109809,"2050 HURRICANE SHOALS ROAD","DACULA","GA","30019"
109810,"2050 KERR DRIVE APT 2","MANHATTAN","KS","66502"
109811,"2050 LIBERTY HEIGHTS","FAIRBURN","GA","30213"
109812,"2050 N CONGRESS AVE","WEST PALM BEACH","FL","33401"
109813,"2050 N PLANO RD SUITE 300B","RICHARDSON","TX","75082"
109814,"2050 NEWNAN CROSSING BLVD EAST","NEWNAN","GA","30265"
109815,"2050 NW 154TH STREET","OPA LOCKA","FL","33054"
109816,"2050 NW 64 AVENUE","SUNRISE","FL","33313"
109817,"2050 OLD ALABAMA RD","ROSWELL","GA","30076"
109818,"2050 OLD COVINGTON ROAD SUITE 2","CONYERS","GA","30012"
109819,"2050 OLD PLANK","DE PERE","WI","54115"
109820,"2050 PEARCY ROAD","BONNERDALE","AR","71933"
109821,"2050 PLAINFIELD PIKE","CRANSTON","RI","02921"
109822,"2050 RIVERSIDE DR","GREEN BAY","WI","54301"
109823,"2050 S 13TH STREET","MILWAUKEE","WI","53204"
109824,"2050 S 1400 EAST ST UNIT 22","ST GEORGE","UT","84790"
109825,"2050 S BLVD UNIT 165","BLOOMFIELD HILLS","MI","48303"
109826,"2050 S DEWEY AVE","BARTLESVILLE","OK","74003"
109827,"2050 SMITH ST","N PROVIDENCE","RI","02911"
109828,"2050 SMITH STREET UNIT 113928","NORTH PROVIDENCE","RI","02911"
109829,"2050 SOUTH 1400 EAST APT B112","ST GEORGE","UT","84790"
109830,"2050 SOUTH BLVD     181","BLOOMFIELD HILLS","MI","48303"
109831,"2050 SOUTH BLVD UNIT 83","BLOOMFIELD HILLS","MI","48303"
109832,"2050 SOUTH RIDGEWOOD APT R4","SOUTH DAYTONA","FL","32119"
109833,"2050 SOUTH STONEGATE CIRCLE NO 15","WASHINGTON","UT","84780"
109834,"2050 SUMMERLIN DRIVE","AURORA","IL","60503"
109835,"2050 SURREY TRL","ATLANTA","GA","30349"
109836,"2050 VINEYARD DR","CASTLE ROCK","CO","80104"
109837,"2050 VINEYARD DRIVE","CASTLE ROCK","CO","80104"
109838,"2050 W BALL ROAD","ANAHEIM","CA","92804"
109839,"2050 W DOBBINS RD","PHOENIX","AZ","85041"
109840,"2050 W FLORENCE AVENUE","LOS ANGELES","CA","90047"
109841,"2050 W SPRING CREEK SUITE 202","PLANO","TX","75023"
109842,"2050 WATSON BLVD STE A","WARNER ROBINS","GA","31093"
109843,"2050 WEST 56TH ST SUITE 17","HIALEAH","FL","33016"
109844,"2050 WEST FARWELL 3","CHICAGO","IL","60645"
109845,"2050 WINTER AVENUE","INDIANAPOLIS","IN","46218"
109846,"20500 E ARAPAHOE RD","AURORA","CO","80016"
109847,"20500 EAST ARAPAHOE ROAD","AURORA","CO","80016"
109848,"20500 FOREST ROAD NORTH","FOREST LAKE","MN","55025"
109849,"20500 NW 9TH PL","MIAMI","FL","33169"
109850,"20500 VENTURA BLVD STE 213","WOODLAND HILLS","CA","91364"
109851,"20500 W 13 MILE ROAD","BEVERLY HILLS","MI","48025"
109852,"20501 E REGENCY WAY","PARKER","CO","80138"
109853,"20501 KATY FWY STE 124","KATY","TX","77450"
109854,"20501 LIVERNOIS  21372","DETROIT","MI","48221"
109855,"20501 NW 17TH AVE APT 103","MIAMI GARDENS","FL","33056"
109856,"20501 WILDWOOD LANE","STRONGSVILLE","OH","44149"
109857,"20502 CATALINA ST","TORRANCE","CA","90502"
109858,"20502 KERMIER RD","WALLER","TX","77484"
109859,"20503 NW 11TH AVENUE","MIAMI GARDENS","FL","33169"
109860,"20504 LIVERNOIS","DETROIT","MI","48221"
109861,"20505 E COUNTRY CLUB DR   APT 732","AVENTURA","FL","33180"
109862,"20505 VALLEY BLVD SUITE 103A","WALNUT","CA","91789"
109863,"20505 WATSON RD","MAPLE HTS","OH","44137"
109864,"20506 EHLE RD","WOODBURN","IN","46797"
109865,"20506 SPRING LILAC LANE","SPRING","TX","77388"
109866,"20506 TOLUCA AVE","TORRANCE","CA","90503"
109867,"20507 DARNESTOWN ROAD","DICKERSON","MD","20842"
109868,"20508 MARK CIRCLE","CHUGIAK","AK","99567"
109869,"20509 CAMDEN PATH","FARMINGTON","MN","55024"
109870,"20509 CYPRESS WAY","LYNNWOOD","WA","98036"
109871,"2051 14TH AVENUE WEST","PALMETTO","FL","34221"
109872,"2051 2ND STREET","WESTLAND","MI","48186"
109873,"2051 BALMORAL AVE","UNION","NJ","07083"
109874,"2051 BENNIGAN LN","ZEELAND","MI","49464"
109875,"2051 BLYTHEWOOD CROSSING LN APT 327","BLYTHEWOOD","SC","29016"
109876,"2051 BRENDON DRIVE","DUNWOODY","GA","30338"
109877,"2051 BRIARWOOD LN","TEMPERANCE","MI","48182"
109878,"2051 CATON ST STE 8154","NEW ORLEANS","LA","70182"
109879,"2051 COUNTRY CLUB DR","TALLAHASSEE","FL","32301"
109880,"2051 CR 82E","LIVERMORE","CO","80536"
109881,"2051 DANIEL MCLEOD RD","RED SPRINGS","NC","28377"
109882,"2051 E CHURCH ST","STOCKTON","CA","95242"
109883,"2051 E JEANETTE PL","LONG BEACH","CA","90810"
109884,"2051 EDWARDS LAKE RD","GREER","SC","29651"
109885,"2051 FLAT SHOALS APT J7","ATLANTA","GA","30316"
109886,"2051 GODBY ROAD NUMBER 16","COLLEGE PARK","GA","30349"
109887,"2051 GREENBRIAR STREET","COLTON","CA","92324"
109888,"2051 HIGH RIDGE DR","CLEARWATER","FL","33763"
109889,"2051 HODGES CREEK DR APT 307","RALEIGH","NC","27609"
109890,"2051 HOLLY DRIVE","LOS ANGELES","CA","90068"
109891,"2051 JUNCTION AVE SUITE 200","SAN JOSE","CA","95131"
109892,"2051 JUNCTION AVE SUITE 225","SAN JOSE","CA","95131"
109893,"2051 JUNCTION AVENUE SUITE 225","SAN JOSE","CA","95131"
109894,"2051 LAURELEI AVE","SAN JOSE","CA","95128"
109895,"2051 LINCOLN AVE","PASADENA","CA","91103"
109896,"2051 MAIN ST","WEST BARNSTABLE","MA","02668"
109897,"2051 N 42ND STREET","KANSAS CITY","KS","66104"
109898,"2051 N SEDGWICK ST APT 1S","CHICAGO","IL","60614"
109899,"2051 NE 28TH AVE","POMPANO BEACH","FL","33062"
109900,"2051 NELSON AVENUE","CLARION","IA","50525"
109901,"2051 NORTH STREET","ELY","NV","89301"
109902,"2051 NW 1ST AVE","POMPANO BEACH","FL","33060"
109903,"2051 NW 207TH STREET APT 217","MIAMI GARDENS","FL","33056"
109904,"2051 PEORIA ROAD","SUGAR GROVE","NC","28679"
109905,"2051 ROSA PARKS SUITE 1B","DETROIT","MI","48216"
109906,"2051 SAINT NICK DR","NEW ORLEANS","LA","70131"
109907,"2051 UNIVERSITY DR","NAPERVILLE","IL","60565"
109908,"2051 VILLA ROAD STE 105","BIRMINGHAM","MI","48009"
109909,"2051 W 18TH STREET","CHICAGO","IL","60608"
109910,"2051 WAVERLY CIRCLE","HENDERSON","NV","89014"
109911,"20510 81ST AVE E","SPANAWAY","WA","98387"
109912,"20510 FAUST AVE","DETROIT","MI","48219"
109913,"20510 NW SMITH ROCK WAY","TERREBONNE","OR","97760"
109914,"20510 VIA MARISA","BOCA RATON","FL","33498"
109915,"20511 BARCHAN POINT WAY","RICHMOND","TX","77407"
109916,"20512 1ST STREET","COTTONWOOD","CA","96022"
109917,"20512 CHARLTON SQ APT 106","SOUTHFIELD","MI","48075"
109918,"20512 CHURCH RD","UNION GROVE","WI","53182"
109919,"20513 BETH COURT","MARENGO","IL","60152"
109920,"20515 E NAVAJO DRIVE","QUEEN CREEK","AZ","85142"
109921,"20516 2ND DR SE","BOTHELL","WA","98012"
109922,"20516 PACKARD ST","DETROIT","MI","48234"
109923,"20518 6TH AVENUE CT E","SPANAWAY","WA","98387"
109924,"20518 WINDSOR TRACE LANE","RICHMOND","TX","77407"
109925,"2052 153RD AVE SE","BELLEVUE","WA","98007"
109926,"2052 66TH STREET","BROOKLYN","NY","11204"
109927,"2052 E GRAYSTONE LN","DRAPER","UT","84020"
109928,"2052 JENNIE LEE DRIVE SUITE 1","IDAHO FALLS","ID","83404"
109929,"2052 LUCON ROAD","SKIPPACK","PA","19474"
109930,"2052 MILESWOODS DRIVE","CINCINNATI","OH","45231"
109931,"2052 N MISSOURI AVE","SPRINGFIELD","MO","65803"
109932,"2052 REDMARK LANE","WINTER GARDEN","FL","34787"
109933,"2052 SPARROW DRIVE","FREMONT","CA","94539"
109934,"2052 SWARR RUN ROAD","LANCASTER","PA","17601"
109935,"2052 THOMAS PLACE","WEST COVINA","CA","91792"
109936,"2052 VALLEY RD","BEDFORD","PA","15522"
109937,"2052 WATSON BOULEVARD","WARNER ROBINS","GA","31093"
109938,"2052 WEST 64TH STREET","LOS ANGELES","CA","90047"
109939,"2052 WINDEMERE WAY","UPLAND","CA","91784"
109940,"20520 CEDAR LANE","TOMBALL","TX","77377"
109941,"20520 FALCONS LANDING CIRCLE","STERLING","VA","20165"
109942,"20520 OLD MILL ROAD","SOUTH BEND","IN","46637"
109943,"20520 VENTURA BLVD UNIT 123","WOODLAND HILLS","CA","91364"
109944,"20521 N100TH PLACE","SCOTTSDALE","AZ","85255"
109945,"20521 REGENT","DETROIT","MI","48205"
109946,"20522 GLADIOLA STREET NW","OAK GROVE","MN","55011"
109947,"20522 N ULDRIKS DR","BATTLE CREEK","MI","49017"
109948,"20522 POINT CREEK ROAD","KIEL","WI","53042"
109949,"20522 SW LYON COURT","ALOHA","OR","97078"
109950,"20523 COUNTY ROAD 146","TYLER","TX","75703"
109951,"20523 NW 47 AVENUE","MIAMI GARDESN","FL","33055"
109952,"20525 CHARLES ORY DR","PLAQUEMINE","LA","70764"
109953,"20525 EUCLID AVE","EUCLID","OH","44123"
109954,"20527 DILLONVALE TERRACE","ASHBURN","VA","20147"
109955,"20527 WESTCHESTER CIRCLE","ABINGDON","VA","24211"
109956,"20528 MILBANK","WOODHAVEN","MI","48183"
109957,"20529 MAPLEWOOD DR","EDMONDS","WA","98026"
109958,"2052A RUTH ST NW","ATLANTA","GA","30318"
109959,"2053 AUCTION BARN ROAD","BELTON","TX","76513"
109960,"2053 BUR OAK PL","STOCKTON","CA","95206"
109961,"2053 CAMINO LADO","SANTA FE","NM","87505"
109962,"2053 E HIGHGATE CT","HUDSON","OH","44236"
109963,"2053 EDMUND LANE","CAPITOLA","CA","95010"
109964,"2053 HERBERT AKINS ROAD","FUQUAY VARINA","NC","27526"
109965,"2053 N MAIN STREET","DUBUQUE","IA","52001"
109966,"2053 NORTH OVERBOOK ROAD","FACTORYVILLE","PA","18419"
109967,"2053 RICE DRIVE","BATON ROUGE","LA","70802"
109968,"2053 ROME DR","LOS ANGELES","CA","90065"
109969,"2053 TOULOUSE CT","LUCAS","TX","75002"
109970,"2053 W 75TH ST","LOS ANGELES","CA","90047"
109971,"2053 WEST 83 RD STREET","LOS ANGELES","CA","90047"
109972,"2053 WEST MAGNA CARTA PL","BATON ROUGE","LA","70815"
109973,"2053 WILLIAMS VALLEY DRIVE","MADISON","TN","37115"
109974,"2053 WILLOW SPRINGS LANE","BURLINGTON","NC","27215"
109975,"2053 WINCHESTER BLVD","CAMPBELL","CA","95008"
109976,"20530 FOX DEN ROAD","WILDOMAR","CA","92595"
109977,"20530 GARDENDALE STREET","DETROIT","MI","48221"
109978,"20530 GULFSTREAM ROAD","CUTLER BAY","FL","33189"
109979,"20531 CATALINA ST","TORRANCE","CA","90502"
109980,"20531 W OUTER DRIVE","DEARBORN","MI","48124"
109981,"20532 DEERPARK COURT","SARATOGA","CA","95070"
109982,"20532 NW 33RD COURT","MIAMI GARDENS","FL","33056"
109983,"20532 NW 7TH CT","MIAMI GARDENS","FL","33169"
109984,"20532 S LEAPWOOD AVE 31H","CARSON","CA","90746"
109985,"20533 BISCAYNE BLVD  SUITE 4-435","AVENTURA","FL","33180"
109986,"20533 BISCAYNE BLVD UNIT 4523","AVENTURA","FL","33180"
109987,"20533 BISCAYNE BOULEVARD SUITE 429","AVENTURA","FL","33180"
109988,"20533 EAST WALNUT DRIVE N","WALNUT","CA","91789"
109989,"20534 MISSIONARY RIDGE ST","WALNUT","CA","91789"
109990,"20535 NW 2ND AVE SUITE 210","MIAMI GARDENS","FL","33169"
109991,"20535 NW 2ND AVENUE  SUITE 204","MIAMI","FL","33169"
109992,"20535 NW 2ND AVENUE SUITE 204","MIAMI","FL","33169"
109993,"20535 NW 2ND AVENUE","MIAMI","FL","33169"
109994,"20536 FERGUSON ST","DETROIT","MI","48235"
109995,"20538 ROBINSON GLEN DR","COTTONWOOD","CA","96022"
109996,"2054 25TH STREET SW","PINE RIVER","MN","56474"
109997,"2054 73RD STREET","BROOKLYN","NY","11204"
109998,"2054 COHASSET CT","FREDERICK","MD","21702"
109999,"2054 COLES AVENUE","SCOTCH PLAINS","NJ","07076"
110000,"2054 DRACENA DRIVE UNIT 9","LOS ANGELES","CA","90027"
