"ID","Address","City","State","Zip"
252001,"5910 CLARK STATE RD","GAHANNA","OH","43230"
252002,"5910 E ALAMEDA","NORMAN","OK","73026"
252003,"5910 GUNBARREL AVENUE C","BOULDER","CO","80301"
252004,"5910 HAMMOCK WOODS DR","ODESSA","FL","33556"
252005,"5910 HUNTERS VIEW LANE","DALLAS","TX","75232"
252006,"5910 LA VISTA DRIVE","ALEXANDRIA","VA","22310"
252007,"5910 MARTHAS DRIVE","ALEXANDRIA","LA","71303"
252008,"5910 NW 58TH STREET","OKLAHOMA CITY","OK","73122"
252009,"5910 PICKFORD ST","LOS ANGELES","CA","90035"
252010,"5910 PINE HILL ROAD","PORT RICHEY","FL","34668"
252011,"5910 S UNIVERSITY BLVD C-18 STE 149","GREENWOOD VILLAGE","CO","80121"
252012,"5910 SHADY RIVER DRIVE","HOUSTON","TX","77057"
252013,"5910 SHENANDOAH ROAD","GREENSBORO","NC","27407"
252014,"5910 STILLCREST WAY APT 1E","RALEIGH","NC","27616"
252015,"5910 SW 93 PL","MIAMI","FL","33173"
252016,"591059 PO BOX","HOUSTON","TX","77259"
252017,"5911 DIX ST NE","WASHINGTON","DC","20019"
252018,"5911 EDNA AVENUE","BALTIMORE","MD","21214"
252019,"5911 FIRETHORN DR","DALLAS","TX","75249"
252020,"5911 GNARLED OAKS CT","HUMBLE","TX","77346"
252021,"5911 GRAYWOOD CIRCLE SE","MABLETON","GA","30126"
252022,"5911 LARCHWOOD AVE","PHILADELPHIA","PA","19143"
252023,"5911 LARCHWOOD AVENUE","PHILADELPHIA","PA","19143"
252024,"5911 MEEKS WAY","SACRAMENTO","CA","95835"
252025,"5911 N SAPULPA","OKLAHOMA CITY","OK","73112"
252026,"5911 OLD FREDERICK ROAD","CATONSVILLE","MD","21228"
252027,"5911 RICHMOND RD 6104","TEXARKANA","TX","75503"
252028,"5911 SOUTHWIND STREET","HOUSTON","TX","77033"
252029,"5911 STONEWALL RD","LITTLE ROCK","AR","72207"
252030,"5911 WILLOW CREST DRIVE","ARLINGTON","TX","76017"
252031,"5911 YORK RD","SOUTH BEND","IN","46614"
252032,"5912  BARBADOS WAY EAST","WEST PALM BEACH","FL","33407"
252033,"5912 41ST ST E","BRADENTON","FL","34203"
252034,"5912 83RD PLACE SE","MERCER ISLAND","WA","98040"
252035,"5912 ANTHONY LANE","SACHSE","TX","75048"
252036,"5912 COPPER VALLEY","NEW BRAUNFELS","TX","78132"
252037,"5912 COUNTY RD 42A","ROBSTOWN","TX","78380"
252038,"5912 DELONEE SKIES AVE","LAS VEGAS","NV","89131"
252039,"5912 E BANNISTER RD","KANSAS CITY","MO","64134"
252040,"5912 GLORYVINE COURT APT 306 10","NORTH CHESTERFIELD","VA","23234"
252041,"5912 HINSDALE LANE","FORT WAYNE","IN","46835"
252042,"5912 JEFFERSON COMMONS WAY","FREDERICK","MD","21703"
252043,"5912 KEMBLE AVENUE","PHILADELPHIA","PA","19138"
252044,"5912 LA TIJERA BLVD","LOS ANGELES","CA","90056"
252045,"5912 MAPLE STREET","OMAHA","NE","68104"
252046,"5912 N FOREST GLEN","CHICAGO","IL","60646"
252047,"5912 NORTH HERITAGE CT","MIDLAND","MI","48640"
252048,"5912 RYAN LANE","STEWARTSTOWN","PA","17363"
252049,"5912 TOBIAS AVE","SHERMAN OAKS","CA","91411"
252050,"5912 TURNSTONE CT","WILMINGTON","NC","28409"
252051,"5912 W WOOD ST","PHOENIX","AZ","85043"
252052,"5912 Y STREET","KATY","TX","77493"
252053,"5913 1/2 N FIGUEROA STREET","LOS ANGELES","CA","90042"
252054,"5913 BUENA VISTA RD","BETHEL SPRINGS","TN","38315"
252055,"5913 CAPE COD AVE","BAKERSFIELD","CA","93313"
252056,"5913 CHESTNUT ST","PHILADELPHIA","PA","19139"
252057,"5913 CHESTNUT ST","PHILADEPHILA","PA","19139"
252058,"5913 CHESTNUT STREET","PHILADELPHIA","PA","19139"
252059,"5913 JONES STREET","OMAHA","NE","68106"
252060,"5913 NEW HARVARD PLACE","GLEN ALLEN","VA","23059"
252061,"5913 PRICE LANE","INDIANAPOLIS","IN","46254"
252062,"5913 REGAL CREST COURT","CHESTERFIELD","VA","23832"
252063,"5913 SOLITUDE WAY","DURHAM","NC","27713"
252064,"5913 TERRAVISTA DR","AUSTIN","TX","78735"
252065,"5913 WAVERLY LYNN LN","CHARLOTTE","NC","28269"
252066,"5913 WOODSON RD","MISSION","KS","66202"
252067,"59135 ASHWOOD CT","SAINT HELENS","OR","97051"
252068,"5914 CANARY DRIVE","NORTH HIGHLANDS","CA","95660"
252069,"5914 CHEW AVE","PHILADELPHIA","PA","19138"
252070,"5914 DONWHITE LANE","HOUSTON","TX","77088"
252071,"5914 DOTTIE CIRCLE","HOPE MILLS","NC","28348"
252072,"5914 EVERGREEN WAY UNIT D","EVERETT","WA","98203"
252073,"5914 JOHNSON ST","HOLLYWOOD","FL","33021"
252074,"5914 KELYN HILLS DR","CHARLOTTE","NC","28278"
252075,"5914 KNIGHTWOOD COURT","CHESTERFIELD","VA","23832"
252076,"5914 MAXROY ST","HOUSTON","TX","77091"
252077,"5914 SARAH DRIVE","PENSACOLA","FL","32503"
252078,"5914 VANCE AVENUE","FORT WAYNE","IN","46815"
252079,"5914 WINNIPEG CT","OOLTEWAH","TN","37363"
252080,"5915 106TH AVE NE","KIRKLAND","WA","98033"
252081,"5915 15TH ST N","ARLINGTON","VA","22205"
252082,"5915 55TH AVENUE","KEARNEY","NE","68845"
252083,"5915 CATALPA AVENUE","RIDGEWOOD","NY","11385"
252084,"5915 DURANGO MIST LANE","KATY","TX","77449"
252085,"5915 GLENWAY CT","RICHMOND","VA","23225"
252086,"5915 LUGARY DRIVE","HOUSTON","TX","77036"
252087,"5915 MILWAUKEE STREET","MCFARLAND","WI","53558"
252088,"5915 N OLA AVENUE","TAMPA","FL","33604"
252089,"5915 OLD LOHMAN ROAD","JEFFERSON CITY","MO","65109"
252090,"5915 ROYAL HILL CT","KINGWOOD","TX","77345"
252091,"5915 S REGAL ST ST 204","SPOKANE","WA","99223"
252092,"5915 SAN GABRIEL LANE","COLLEGE PARK","GA","30349"
252093,"5915 TRAMMELL RD APT EE7","MORROW","FL","30260"
252094,"5915 TRAMMELL ROAD  APT H4","MORROW","GA","30260"
252095,"5915 W 1400 N","ELWOOD","IN","46036"
252096,"5915 WILLIAMS ROAD","TALLAHASSEE","FL","32311"
252097,"59152 WEST HARBOR LANE","LACOMBE","LA","70445"
252098,"5916 BERTA DRIVE","TAMPA","FL","33617"
252099,"5916 DAKOTA COUNTRY DR","BISMARCK","ND","58503"
252100,"5916 EAST LAKE PARKWAY- SUITE 118","MCDONOUGH","GA","30253"
252101,"5916 EASTLAKE PKWY SUITE 231","MCDONOUGH","GA","30253"
252102,"5916 HOMESTEAD BLVD","MIDLAND","TX","79707"
252103,"5916 NW 158TH STREET","ALACHUA","FL","32615"
252104,"5916 PLEASANT HILL DR","ARLINGTON","TX","76016"
252105,"5916 SOUTH SHORE DR","BATON ROUGE","LA","70817"
252106,"5916 SOUTH SHORE DRIVE","BATON ROUGE","LA","70817"
252107,"5916 STONEVIEW DR","CULVER CITY","CA","90232"
252108,"5916 SUMMERWOOD DRIVE","GRAND PRAIRIE","TX","75052"
252109,"5917 14TH STREET","LUBBOCK","TN","79416"
252110,"5917 ALDER STREET","PITTSBURGH","PA","15232"
252111,"5917 HUNTINGTON DRIVE","TEMPLE","TX","76502"
252112,"5917 MEGAN DRIVE","JONESBORO","AR","72405"
252113,"5917 OAKFORGE LANE","INDIANAPOLIS","IN","46254"
252114,"5917 PERSHING AVE","DOWNERS GROVE","IL","60516"
252115,"5917 QUINTA REAL","EL PASO","TX","79912"
252116,"5917 RICHMOND AVENUE","HOUSTON","TX","75057"
252117,"5917 RODERICK DRIVE","AUSTIN","TX","78724"
252118,"5917 S LE DOUX ROAD","LOS ANGELES","CA","90056"
252119,"5917 SHARP DR SE","MABLETON","GA","30126"
252120,"5917 SOUTHLAND DR","STONE MOUNTAIN","GA","30087"
252121,"5917 SW 42ND STREET","MIAMI","FL","33155"
252122,"5917 TWO PINES TRAIL","WAKE FOREST","NC","27587"
252123,"5917 W RICE","CHICAGO","IL","60651"
252124,"5917 WESSEL WAY","RALEIGH","NC","27610"
252125,"5918 1/2 WILLOUGHBY AVE","LOS ANGELES","CA","90038"
252126,"5918 112TH STREET","LUBBOCK","TX","79424"
252127,"5918 BALLENTINE ST","SHAWNEE","KS","66203"
252128,"5918 COUNTRY WALK DRIVE","CHARLOTTE","NC","28212"
252129,"5918 COUNTRY WALK DRIVE","CHAROLETTE","CA","28212"
252130,"5918 CRESTWOOD DRIVE","CHARLOTTE","NC","28216"
252131,"5918 DRYAD DRIVE","HOUSTON","TX","77035"
252132,"5918 ELWOOD ST","PITTSBURGH","PA","15232"
252133,"5918 FONTAINE PARK DR","JACKSON","MS","39206"
252134,"5918 HAVENWOODS DR","HOUSTON","TX","77066"
252135,"5918 HULMEVILLE ROAD","BENSALEM","PA","19020"
252136,"5918 INDIAN HILLS LN","SUGAR LAND","TX","77479"
252137,"5918 PEPPERPIKE WAY","CHARLOTTE","NC","28213"
252138,"5918 SE IRIS COURT","MILWAUKIE","OR","97267"
252139,"5918 SUNNYSIDE CT","RICHMOND","TX","77469"
252140,"5918 TROTTERS POINT LANE","GAINESVILLE","VA","20155"
252141,"5918 WEST GARDEN DR","GLENDALE","AZ","85304"
252142,"5919 203RD ST SW","LYNNWOOD","WA","98036"
252143,"5919 KENILWOOD DRIVE","HOUSTON","TX","77033"
252144,"5919 LAUREL STREET","NEW ORLEANS","LA","70115"
252145,"5919 MAYBERRY AVENUE","MAYFIELD HEIGHTS","OH","44124"
252146,"5919 N PAULINA 1W","CHICAGO","IL","60660"
252147,"5919 NW 56TH CT","TAMARAC","FL","33319"
252148,"5919 OAK BLOSSOM","SAN ANTONIO","TX","78250"
252149,"5919 PRINCESS BLVD","BIRMINGHAM","AL","35215"
252150,"5919 S CLINTON TRAIL","EATON RAPIDS","MI","48827"
252151,"5919 SADDLE BRED DRIVE","HOUSTON","TX","77084"
252152,"5919 SHARP DRIVE SE","MABLETON","GA","30126"
252153,"5919 SOUNDVIEW DR","GIG HARBOR","WA","98335"
252154,"5919 SOUTHERN HILLS DRIVE","HOUSTON","TX","77069"
252155,"5919 TROUBLECREEK RD","NEW PORT RICHEY","FL","34652"
252156,"5919 US HIGHWAY 84","RED LEVEL","CA","36474"
252157,"59191 ANNAH DR","NEW HUDSON","MI","48165"
252158,"592 BEACH STREET APT 6","REVERE","MA","02151"
252159,"592 BECKTOWN ROAD","MOCKSVILLE","NC","27028"
252160,"592 E MALLORY AVE","MEMPHIS","TN","38106"
252161,"592 ELM ST","WINDSOR LOCKS","CT","06096"
252162,"592 EUGENE WARD RD","ADRIAN","GA","31002"
252163,"592 FAWN RUN DRIVE","COLD SPRING","KY","41076"
252164,"592 JEAN STREET APT 305","OAKLAND","CA","94610"
252165,"592 JOHN HORTON ROAD","APEX","NC","27523"
252166,"592 LAKE ARTESIA ROAD","TURKEY","NC","28393"
252167,"592 LAKERIDGE DRIVE","SHOREVIEW","MN","55126"
252168,"592 MOUNTAIN BLVD","OAKLAND","CA","94611"
252169,"592 N 3RD STREET","MEMPHIS","TN","38105"
252170,"592 S CLARKSON ST","DENVER","CO","80209"
252171,"592 SAW MILL BROOK PARKWAY","NEWTON","MA","92459"
252172,"592 SICILIANO ST","LAS VEGAS","NV","89138"
252173,"592 SILVER COURSE CIRCLE","OCALA","FM","34472"
252174,"592 SW STEADMAN GLN","FORT WHITE","FL","32038"
252175,"592 THE ALAMEDA","BERKELEY","CA","94707"
252176,"592 UNION AVE","BOULDER","CO","80304"
252177,"592 VENIZIA","CLOVERDALE","CA","95425"
252178,"5920 BLUE RIDGE DRIVE","BLUE RIDGE","GA","30513"
252179,"5920 COUNTRY CLUB PKWY","SAN JOSE","CA","95138"
252180,"5920 CRESCENT LANDING DR","CUMMING","GA","30028"
252181,"5920 EDMUND HIGHWAY","LEXINGTON","SC","29073"
252182,"5920 EXCHANGE STREET","MCFARLAND","WI","53558"
252183,"5920 GIANT CIRT ROAD UNIT A","CARBONDALE","IL","62902"
252184,"5920 GILCHRIST CIR","BELMONT","NC","28012"
252185,"5920 GLENWOOD AVE","MAPLE HEIGHTS","OH","44137"
252186,"5920 GOLDEN VALLEY RD","GOLDEN VALLEY","MN","55422"
252187,"5920 GRANDEL BOULEVARD","LOUISVILLE","KY","40258"
252188,"5920 HOHMAN AVENUE","HAMMOND","IN","46320"
252189,"5920 LEE VALLEY ROAD","EDINA","MN","55439"
252190,"5920 MOORS OAKS DR","MILTON","FL","32583"
252191,"5920 N PAULINA ST 1E","CHICAGO","IL","60660"
252192,"5920 NORFOLK CHASE RD","PEACHTREE CORNERS","GA","30092"
252193,"5920 S AGNEW AVENUE","OKLAHOMA CITY","OK","73119"
252194,"5920 SMOKEY ROAD","CALERA","AL","35040"
252195,"5920 STANLEY AVENUE","CARMICHAEL","CA","95608"
252196,"5920 STEPHEN REID ROAD","HUNTINGTOWN","MD","20639"
252197,"5920 TRAVEL PARK CIRCLE","GILROY","CA","95020"
252198,"5920 VALLEY HI DRIVE","SACRAMENTO","CA","95823"
252199,"5920 W 136TH ST","SAVAGE","MN","55378"
252200,"5920 W CALDWELL","VISALIA","CA","93277"
252201,"5920 WEST WILIAM CANNON BLDG1 S200","AUSTIN","TX","78749"
252202,"5920 WEST WILLAM CANNON BLDG 1 S200","AUSTIN","TX","78749"
252203,"5920 WEST WILLIAM CANNON BLDG 1-200","AUSTIN","TX","78749"
252204,"5920 WEST WILLIAM CANNON BLDG1 S200","AUSTIN","TX","78749"
252205,"5920 YELLOWSTONE RD","CHEYENNE","WY","82009"
252206,"59201 SWORD PLACE","VERNONIA","OR","97064"
252207,"59207 423RD AVENUE","MAZEPPA","MN","55956"
252208,"5921 150 AVE N","CLEARWATER","FL","33760"
252209,"5921 ATLANTIC AVE","LONG BEACH","CA","90805"
252210,"5921 HANCOCK","BERKELEY","MO","63134"
252211,"5921 INDIANA AVE","KANSAS CITY","MO","64130"
252212,"5921 MORAVIA PARK DRIVE  UNIT A7","BALTIMORE","MD","21206"
252213,"5921 NE 2ND AVENUE","MIAMI","FL","33137"
252214,"5921 PARRIS BRIDGE RD","CHESNEE","SC","29323"
252215,"5921 ROBINDALE RD","CATONSVILLE","MD","21228"
252216,"5921 TROTH ST","MIRA LOMA","CA","91752"
252217,"5922 151ST AVE NW","RAMSEY","MN","55303"
252218,"5922 8TH AVE FL 2ND","BROOKLYN","NY","11220"
252219,"5922 AMBERWOOD DRIVE","NAPLES","FL","34110"
252220,"5922 BELLE VISTA AVE","BALTIMORE","MD","21206"
252221,"5922 BROOKMERE CT","MABLETON","GA","30126"
252222,"5922 DENSMORE RD","LIVONIA","NY","14487"
252223,"5922 KING TRAIL","CORPUS CHRISTI","TX","78414"
252224,"5922 LAWSONIA LINKS DR W","JACKSONVILLE","FL","32222"
252225,"5922 LUDINGTON DR","HOUSTON","TX","77035"
252226,"5922 N MILANO CT","LITCHFIELD PARK","AZ","85340"
252227,"5922 N WILBUR WRIGHT ROAD","MOORELAND","IN","47360"
252228,"5922 OAK RUN ST","SAN ANTONIO","TX","78247"
252229,"5922 VALLEY DRIVE","BETTENDORF","IA","52722"
252230,"5923 BRYN MAWR ROAD","COLLEGE PARK","MD","20740"
252231,"5923 DUNFRIES STREET NORTH","ST PETERSBURG","FL","33709"
252232,"5923 GREEN SPRINGS","HOUSTON","TX","77066"
252233,"5923 KINGSTON PIKE SUITE 6108","KNOXVILLE","TN","37919"
252234,"5923 N ARTISAN AVE","CHICAGO","IL","60659"
252235,"5923 N SILVER MAPLE AVE","MERIDIAN","ID","83646"
252236,"5923 ROYAL LANE","DALLAS","TX","75230"
252237,"5923 SEAT PLEASANT DRIVE","SEAT PLEASANT","MD","20743"
252238,"5923 VINE STREET","PHILADELPHIA","PA","19139"
252239,"5924 E LOS ANGELES AVE SUITE O","SIMI VALLEY","CA","93063"
252240,"5924 E LOS ANGELES AVE SUITE R","SIMI VALLEY","CA","93063"
252241,"5924 EARNSHAW ST","SHAWNEE","KS","66216"
252242,"5924 FISK ROAD","LOCKPORT","NY","14094"
252243,"5924 MAIN STREET","MAYS LANDING","NJ","08330"
252244,"5924 MORAN ST","DETROIT","MI","48211"
252245,"5924 PEACHTREE CORNERS EAST","NORCROSS","GA","30071"
252246,"5924 PRINCESS HELEN RD","MOBILE","AL","36618"
252247,"5924 RIVERSIDE AVENUE","TAMARAC","FL","33321"
252248,"5924 SONESTA DRIVE","COLORADO SPRINGS","CO","80923"
252249,"5924 VICTORIA PARK WAY","NORTH CHESTERFIELD","VA","23234"
252250,"5924 WEST OHIO STREET","CHICAGO","IL","60644"
252251,"5925 ALLEN ROAD","VANCLEAVE","MS","39565"
252252,"5925 ALMEDA RD UNIT 1-1803","HOUSTON","TX","77004"
252253,"5925 ALMEDA RD UNIT 12616","HOUSTON","TX","77004"
252254,"5925 ALMEDA ROAD UNIT 10803","HOUSTON","TX","77004"
252255,"5925 BALL ROAD","CYPRESS","CA","90630"
252256,"5925 BALLANTYNE COMMONS PKWY","CHARLOTTE","NC","28277"
252257,"5925 BRAE BURN CIRCLE","VERO BEACH","FL","32967"
252258,"5925 CALUMET AVE","HAMMOND","IN","46320"
252259,"5925 CHESTER AVE","PHILADELPHIA","PA","19143"
252260,"5925 CLEVELAND AVENUE STE A","COLUMBUS","OH","43231"
252261,"5925 CORNFIELD AVE","FAYETTEVILLE","NC","28314"
252262,"5925 ELDERBERRY DRIVE","OREFIELD","PA","18069"
252263,"5925 ETTINGTON DR","SUWANEE","GA","30024"
252264,"5925 GLENDOWER LN","PLANO","TX","75093"
252265,"5925 GOVERNMENT STREET","BATON ROUGE","LA","70806"
252266,"5925 LEWISBERRY ROAD","DOVER","PA","17315"
252267,"5925 NE ALDER ST","HILLSBORO","OR","97124"
252268,"5925 NORTHAMPTON BOULEVARD","VIRGINIA BEACH","VA","23455"
252269,"5925 NUTMEG AVENUE","SARASOTA","FL","34231"
252270,"5925 RASH CT","GRANBURY","TX","76049"
252271,"5925 REVERE PLACE","DALLAS","TX","75206"
252272,"5925 SNOW CREEK DR","THE COLONY","TX","75056"
252273,"5925 STATESVILLE BLVD","SALISBURY","NC","28147"
252274,"5925 SYCAMORE CANYON BLVD APT 138","RIVERSIDE","CA","92507"
252275,"5925 VILLAGE CENTER DR","LITHIA","FL","33547"
252276,"59250 LITTLE KATE RD","BYESVILLE","OH","43723"
252277,"5926 CAMERON STREET 785","SCOTT","LA","70583"
252278,"5926 COINER HOUSE PLACE","MANASSAS","VA","20112"
252279,"5926 E CALLE CEDRO","ANAHEIM","CA","92807"
252280,"5926 EGRET LANDING PLACE","LITHIA","FL","33547"
252281,"5926 GRANDE RIVER ROAD","ATLANTA","GA","30349"
252282,"5926 GRANDEL MEADOW COURT","LOUISVILLE","KY","40258"
252283,"5926 JOHNSTON DRIVE","OAKLAND","CA","94611"
252284,"5926 LOUIS LN","FRISCO","TX","75035"
252285,"5926 NW 170TH AVE","PORTLAND","OR","97229"
252286,"5926 RYAN RD","DULUTH","MN","55804"
252287,"5926 S JUSTINE ST","CHICAGO","IL","60636"
252288,"5926 S KINGS ROAD","LOS ANGELES","CA","90056"
252289,"5926 WAGGONER CT","REX","GA","30273"
252290,"592664","SAN ANTONIO","TX","78259"
252291,"5927 ANNO AVENUE","ORLANDO","FL","32809"
252292,"5927 BALFOUR COURT SUITE 112","CARLSBAD","CA","92008"
252293,"5927 BALFOUR CT STE 202","CARLSBAD","CA","92008"
252294,"5927 BALFOUR CT SUITE 208","CARLSBAD","CA","92008"
252295,"5927 CAMINO DE LA COSTA","LA JOLLA","CA","92037"
252296,"5927 CARTERSVILLE ROAD","POWHATAN","VA","23139"
252297,"5927 FIRETHORNE LANE","CONCORD","NC","28025"
252298,"5927 GLASSPORT LANE","CHARLOTTE","NC","28210"
252299,"5927 INNISVALE DRIVE","FAIRFAX STATION","VA","22039"
252300,"5927 KENDAL ST","DEARBORN","MI","48126"
252301,"5927 SAND KEY LANE","WESLEY CHAPEL","FL","33545"
252302,"5927 SANDSTONE AVENUE","SARASOTA","FL","34243"
252303,"5927 W OXFORD AVE","PHILADELPHIA","PA","19151"
252304,"59276 GLACIER CLUB","WASHINGTON TOWNSHIP","MI","48094"
252305,"5928 BEVERLY DR W UNIT 1214","BENBROOK","TX","76132"
252306,"5928 GILLIAM ROAD","ORLANDO","FL","32818"
252307,"5928 GREENVIEW ROAD","LISLE","IL","60532"
252308,"5928 HAMPSHIRE GREEN","PORTSMOUTH","VA","23703"
252309,"5928 HIGHTOWER DR","WATAUGA","TX","76148"
252310,"5928 LOCUST ST","PHILA","PA","19139"
252311,"5928 MAPLEWOOD PARK PLACE","BETHESDA","MD","20814"
252312,"5928 MONTEREY DR","MORROW","GA","30260"
252313,"5928 PAINTERS STREET","NEW ORLEANS","LA","70122"
252314,"5928 PECAN VALLEY CT","HARRISBURG","NC","28075"
252315,"5928 RILEY STREET","SAN DIEGO","CA","92110"
252316,"5928 TERRACE DRIVE","LOS ANGELES","CA","90042"
252317,"5929 10TH AVENUE SOUTH","MINNEAPOLIS","MN","55417"
252318,"5929 BLUE HILLS RD","KANSAS CITY","MO","64110"
252319,"5929 BOURKE DRIVE","COLORADO SPRINGS","CO","80919"
252320,"5929 CHATSWORTH LANE","LINCOLN","NE","68516"
252321,"5929 CLATE CT","ELLENWOOD","GA","30294"
252322,"5929 COUNTY ROAD W","BANCROFT","WI","54921"
252323,"5929 DESPERADO DR","MCKINNEY","TX","75070"
252324,"5929 DOGWOOD MANOR","LITHONIA","GA","30038"
252325,"5929 E DUANE LN","CAVE CREEK","AZ","85331"
252326,"5929 N LOMBARD ST APT 3","PORTLAND","OR","97203"
252327,"5929 N MAY STE 310","OKLAHOMA CITY","OK","73112"
252328,"5929 NORTH LOUISE","CHICAGO","IL","60646"
252329,"5929 PINE VIEW COURT","JEFFERSONVILLE","IN","47130"
252330,"5929 RIDGE LAKE CIRCLE","VERO BEACH","FL","32967"
252331,"5929 ROBERTDALE RD","OAKWOOD VILLAGE","OH","44146"
252332,"593 14TH STREET","BURLINGTON","CO","80807"
252333,"593 5TH ST","SONOMA","CA","95476"
252334,"593 62ND ST","OAKLAND","CA","94609"
252335,"593 ADENA DRIVE","MOUNT CARBON","WV","25139"
252336,"593 BROOKS COVE DR","VALDOSTA","GA","31602"
252337,"593 CO RD 108","SAFFORD","AL","36773"
252338,"593 FISHER CEMETERY ROAD","BARBOURVILLE","KY","40906"
252339,"593 FORSYTHE AVE","CALUMET CITY","IL","60409"
252340,"593 GASKILL STREET SE","ATLANTA","GA","30316"
252341,"593 GATES AVE             STE 3D","BROOKLYN","NY","11221"
252342,"593 KANUGA STREET","HIAWASSEE","GA","30546"
252343,"593 KILLEARN ROAD","MILLBROOK","NY","12545"
252344,"593 LAKEVIEW TER SE","MABLETON","GA","30126"
252345,"593 LE PARC CIRCLE","BUFFALO GROVE","IL","60089"
252346,"593 MCCUTCHEON ROAD","GAHANNA","OH","43230"
252347,"593 N MCDOWELL BLVD SUITE A","PETALUMA","CA","94954"
252348,"593 ROGERS AVE 3C","BROOKLYN","NY","11225"
252349,"593 SCOTT CIRCLE","DECATUR","GA","30033"
252350,"593 SPRINGFIELD AVE","NEWARK","NJ","07103"
252351,"593 STANFORD WAY","GRAND JUNCTION","CO","81504"
252352,"593 TIMBER LANE","FRANKFORT","IL","60423"
252353,"593 USTLER RD","APOPKA","FL","32712"
252354,"593 VANDALIA AVE","BROOKYLN","NY","11238"
252355,"593 VANDERBILT AVE  339","BROOKLYN","NY","11238"
252356,"593 VANDERBILT AVE SUITE 602","BROOKLYN","NY","11238"
252357,"593 VANDERBILT AVENUE SUITE 301","BROOKLYN","NY","11238"
252358,"593","LAKE WORTH","FL","33463"
252359,"5930 ALBERVAN","SHAWNEE","KS","66216"
252360,"5930 BEACH DR SW","SHALLOTTE","NC","28470"
252361,"5930 BLALOCK ROAD","LUCAMA","NC","27851"
252362,"5930 BOX IRON RD","GIRDLETREE","MD","21829"
252363,"5930 DIVISION STREET","SAN DIEGO","CA","92114"
252364,"5930 DRURY LANE","ST. LOUIS","MO","63147"
252365,"5930 HWY 85 BLDG 202","RIVERDALE","GA","30274"
252366,"5930 MAHOOD DRIVE","HUNTINGTON","WV","25705"
252367,"5930 MALLARD GROVE RD","CHARLOTTE","NC","28269"
252368,"5930 MARWINETTE AVE","SAINT LOUIS","MO","63116"
252369,"5930 NORTH 75TH STREET","MILWAUKEE","WI","53218"
252370,"5930 PARK AVENUE","BERKELEY","IL","60163"
252371,"5930 PILGRIM POINT EXTENSION","CUMMING","GA","30041"
252372,"5930 SW 21ST ST","PLANTATION","FL","33317"
252373,"5930 SW 21ST STREET","PLANTATION","FM","33317"
252374,"5930 SW 9TH TERR","WEST MIAMI","FL","33144"
252375,"5930 W COPPER MOUNTAIN DR","SPOTSYLVANIA","VA","22553"
252376,"5930 WATER OAKS DRIVE","AUSTELL","GA","30106"
252377,"5930 WAZEECHA AVE","DODGEVILLE","WI","53533"
252378,"5930 WEST SPUR DRIVE","PHOENIX","AZ","85083"
252379,"5930 WILLOWBEND ST","WEST RICHLAND","WA","99353"
252380,"5930-E ROYAL LN SUITE 182","DALLAS","TX","75230"
252381,"59300 OVERSEAS HWY","MARATHON","FL","33050"
252382,"5931 3RD STREET NE","FRIDLEY","MN","55432"
252383,"5931 AZURE DR","WESLEY CHAPEL","FL","33545"
252384,"5931 BAYVIEW CIRCLE S","GULFPORT","FL","33707"
252385,"5931 BENT CREEK TRAIL","DALLAS","TX","75252"
252386,"5931 CEDAR AVENUE","PHILADELPHIA","PA","19143"
252387,"5931 CHEVELLE DRIVE","JACKSONVILLE","FL","32244"
252388,"5931 GLACIER SUN DR","SAN ANTONIO","TX","78244"
252389,"5931 GRAY ROAD","INDIANAPOLIS","IN","46237"
252390,"5931 GREENVILLE AVE SUITE 211","DALLAS","TX","75206"
252391,"5931 GREENVILLE AVENUE - NO 763","DALLAS","TX","75206"
252392,"5931 HIGHWAY 90 WEST - STE C","MOBILE","AL","36582"
252393,"5931 LANDERS LOOP","FAIRBURN","GA","30213"
252394,"5931 LEBANON LANE","ELKRIDGE","MD","21075"
252395,"5931 LEDBETTER ST","HOUSTON","TX","77087"
252396,"5931 N ORACLE ROAD SUITE 201","TUCSON","AZ","85704"
252397,"5931 SPANISH OAKS LANE","NAPLES","FL","34119"
252398,"5931 WILSHIRE DRIVE","FONTANA","CA","92336"
252399,"5931","GRAND PRAIRIE","TX","75052"
252400,"5932 41ST ST","SACRAMENTO","CA","95824"
252401,"5932 HUGH HOWELL RD","Austell","GA","30087"
252402,"5932 QUAIL AVE","EL PASO","TX","79924"
252403,"5932 S BISHOP","CHICAGO","IL","60636"
252404,"5932 VILLAGE COURSE CIRCLE 911","FORT WORTH","TX","76119"
252405,"5932 W 31 STREET","TULSA","OK","74107"
252406,"5933 ARTHUR AVE","LOWELL","IN","46356"
252407,"5933 BELLAIRE BLVD SUITE 101","HOUSTON","TX","77081"
252408,"5933 BYRON CIRCLE NW","ROANOKE","VA","24019"
252409,"5933 CARDINAL DRIVE SOUTHWEST","MABLETON","GA","30126"
252410,"5933 NAGLE AVENUE","VAN NUYS","CA","91401"
252411,"5933 NE WIN SILVERS RD STE 205","PORTLAND","OR","97220"
252412,"5933 S AVENIDA BARRANCA SECA","TUCSON","AZ","85706"
252413,"5933 VELVET LOOP","LAKELAND","FL","33811"
252414,"5933 W GROVERS AVE","GLENDALE","AZ","85308"
252415,"5933 WILD ROSE LN NW","BEMIDJI","MN","56601"
252416,"5933 WINFIELD BLVD","MARGATE","FL","33063"
252417,"5933 ZENITH AVE S","EDINA","MN","55410"
252418,"5934 E HORIZONS CT","ANN ARBOR","MI","48108"
252419,"5934 GREEN FALLS DR","HOUSTON","TX","77088"
252420,"5934 HARTFORD WAY","BRIGHTON","MI","48116"
252421,"5934 HASKELL AVE","KANSAS CITY","KS","66104"
252422,"5934 LETITIA STREET","COLUMBIA","SC","29203"
252423,"5934 OLD TOWN PLACE","NORCROSS","GA","30093"
252424,"5934 SQUIRRELSNEST LANE","CINCINNATI","OH","45252"
252425,"5934 W FIRESTONE CIRCLE","SOUTH JORDAN","UT","84095"
252426,"5934 W LAKE STREET","CHICAGO","IL","60644"
252427,"5935 47TH AVE S","SEATTLE","WA","98118"
252428,"5935 AUBURN BLVD SPC 134","CITRUS HEIGHTS","CA","95621"
252429,"5935 BANKSIDE WAY","RENO","NV","89523"
252430,"5935 COOPER HOLLOW RD","MONMOUTH","OR","97361"
252431,"5935 CRANE CREEK ROAD","MANCHESTER","KY","40962"
252432,"5935 GRUBBS REX ROAD","ARCANUM","OH","45304"
252433,"5935 GRUBBS-REX ROAD","ARCANUM","OH","45304"
252434,"5935 MARYSVILLE RD","BROWNS VALLEY","CA","95918"
252435,"5935 MONTE VERDE DRIVE","SANTA ROSA","CA","95409"
252436,"5935 N RAVENS WOOD","CHICAGO","IL","60660"
252437,"5935 NORTH 5TH ROAD","ARLINGTON","VA","22203"
252438,"5935 PINE SAP AVENUE","GRANT","FL","32949"
252439,"5935 PINE STREET","EAST PETERSBURG","PA","17520"
252440,"5935 RALEIGH RD","BENSON","NC","27504"
252441,"5935 RALEIGH ROAD","BENSON","NC","27504"
252442,"59350 RIVER WEST DRIVE SUITE 107","PLAQUEMINE","LA","70764"
252443,"5936 BROWNTOWN RD","CHATTANOOGA","TN","37421"
252444,"5936 GLEN ELLYN CT SE","GRAND RAPIDS","MI","49546"
252445,"5936 GLENWAY AVE","CINCINNATI","OH","45238"
252446,"5936 N 16TH ST","DALTON GARDENS","ID","83815"
252447,"5936 N KEYSTONE AVENUE SUITE 203","INDIANAPOLIS","IN","46220"
252448,"5936 N OAKMONT DRIVE","BEVERLY HILLS","FL","34465"
252449,"5936 NW 21ST STREET","LAUDERHILL","FL","33313"
252450,"5936 WEST CHICAGO AVENUE","CHICAGO","IL","60651"
252451,"5936 WEST DIVISION ST","CHICAGO","IL","60651"
252452,"5937 41ST AVE","WOODSIDE","NY","11377"
252453,"5937 BOUNDARY ROAD","DOWNERS GROVE","IL","60516"
252454,"5937 EFFINGHAM ROAD","COLUMBUS","OH","43213"
252455,"5937 EMERSON AVE N","BROOKLYN CENTER","MN","55430"
252456,"5937 MEADOWOOD DRIVE","MADISON","WI","53711"
252457,"5937 N 21ST ST","PHILADELPHIA","PA","19138"
252458,"5937 NORTH TERRY AVE","OKLAHOMA CITY","OK","73111"
252459,"5937 SEABIRD DR S","GULFPORT","FL","33707"
252460,"5938 COLONY PLACE DRIVE","LAKELAND","FL","33813"
252461,"5938 MAIN STREET","BURLINGTON","KY","41005"
252462,"5938 SOUTH 5625 WEST","KEARNS","UT","84118"
252463,"5938 TOWNSHIP ROAD 243","FINDLAY","OH","45840"
252464,"5939 E COBBLESTONES LANE","SYLVANIA","OH","43560"
252465,"5939 E HOMOCHITTO ROAD","GLOSTER","MS","39638"
252466,"5939 LAKEHURST DR","DAVENPORT","IA","52807"
252467,"5939 OAK POINT ROAD","LORAIN","OH","44053"
252468,"5939 WARREN RD","CORTLAND","OH","44410"
252469,"5939 WEST FRIENDLY AVE APT 62F","GREENSBORO","NC","27410"
252470,"5939 WEST RACE AVENUE","CHICAGO","IL","60644"
252471,"5939 WHITSETT AVE  30","NORTH HOLLYWOOD","CA","91607"
252472,"5939 WOOD DRIVE","OAKLAND","CA","94611"
252473,"594 BARRINGTON PLACE WEST","AURORA","OH","44202"
252474,"594 BLANCHE ST","MONTICELLO","GA","31064"
252475,"594 BOXIE RD","ARNAUDVILLE","LA","70512"
252476,"594 BROADWAY 1102","NEW YORK","NY","10012"
252477,"594 BROADWAY SUITE 701","NEW YORK CITY","NY","10012"
252478,"594 COUNTY ROAD 448","POPLAR BLUFF","MO","63901"
252479,"594 DIEZ Y OCHO CT SE","RIO RANCHO","NM","87124"
252480,"594 EASTERN PARKWAY","NEW YORK","NY","11225"
252481,"594 HAMPTON HILL DR","CAMDEN","DE","19934"
252482,"594 ISABEL LN","GOLD BAR","WA","98251"
252483,"594 MARRETT ROAD SUITE 22","LEXINGTON","MA","02421"
252484,"594 MAXWELL DRIVE","TITUSVILLE","PA","16354"
252485,"594 MUHLENBERG AVE","WENONAH","NJ","08090"
252486,"594 NY-216","STORMVILLE","NY","21582"
252487,"594 OAKNOLL DRIVE","SPRINGBORO","OH","45066"
252488,"594 PATTERSON FARM RD","MOORESVILLE","NC","28115"
252489,"594 SAWDUST ROAD NUMBER 301","THE WOODLANDS","TX","77380"
252490,"594 WILLIS ROAD","FOUNTAIN INN","SC","29644"
252491,"594","POCA","WV","25159"
252492,"5940 1ST AVENUE SOUTH","BIRMINGHAM","AL","35212"
252493,"5940 COUNTY ROAD 1","WALCOTT","ND","58077"
252494,"5940 CYPRESS CIR","BRADENTON","FL","34202"
252495,"5940 FAIRVIEW WOODS DR","FAIRFAX STATION","VA","22039"
252496,"5940 JANELYNN DRIVE","WHITEHOUSE","OH","43571"
252497,"5940 MCKINLEY DRIVE","GARDEN VALLEY","CA","95633"
252498,"5940 PINE HOLLOW RD","CARPENTERSVILLE","IL","60110"
252499,"5940 S RAINBOW BLVD - STE 400 88313","LAS VEGAS","NV","89118"
252500,"5940 S RAINBOW BLVD STE 400 -30318","LAS VEGAS","NV","89118"
