"ID","Address","City","State","Zip"
361501,"PO BOX 95921","HOFFMAN ESTATES","IL","60169"
361502,"PO BOX 9593","MONROE","LA","71211"
361503,"PO BOX 9594","ASPEN","CO","81612"
361504,"PO BOX 9596","RICHMOND","VA","23228"
361505,"PO BOX 96","AMBER","OK","73004"
361506,"PO BOX 96","ASHLAND","MS","38603"
361507,"PO BOX 96","CEDAR KEY","FL","32625"
361508,"PO BOX 96","CHRISTMAS","FL","32709"
361509,"PO BOX 96","ELKTON","KY","42220"
361510,"PO BOX 96","FAIRMOUNT","IN","46928"
361511,"PO BOX 96","FOYIL","OK","74031"
361512,"PO BOX 96","GLIDE","OR","97443"
361513,"PO BOX 96","GREAT BARRINGTON","MA","01230"
361514,"PO BOX 96","HARTWELL","GA","30643"
361515,"PO BOX 96","HIGHLAND SPRINGS","VA","23075"
361516,"PO BOX 96","HOUGHTON","NY","14744"
361517,"PO BOX 96","LAKE CITY","SC","29560"
361518,"PO BOX 96","LENORE","WV","25676"
361519,"PO BOX 96","LITTLE ROCK","AR","72203"
361520,"PO BOX 96","LYNBROOK","NJ","11563"
361521,"PO BOX 96","MATTAWAN","MI","49071"
361522,"PO BOX 96","MCGREGOR","MN","55760"
361523,"PO BOX 96","MOFFIT","ND","58560"
361524,"PO BOX 96","NASH","OK","73761"
361525,"PO BOX 96","NATURAL BRIDGE","VA","24578"
361526,"PO BOX 96","NORTHPORT","WA","99157"
361527,"PO BOX 96","OAK HILL","OH","45656"
361528,"PO BOX 96","ORWIGSBURG","PA","17961"
361529,"PO BOX 96","RAPELJE","MT","59067"
361530,"PO BOX 96","SILVER CITY","NM","88062"
361531,"PO BOX 96","TAFTSVILLE","VT","05073"
361532,"PO BOX 96","TURNER","ME","04282"
361533,"PO BOX 96","WEST JEFFERSON","NC","28694"
361534,"PO BOX 96","WILMOT","WI","53192"
361535,"PO BOX 96","WINDSOR","CO","80550"
361536,"PO BOX 960048","INWOOD","NY","11096"
361537,"PO BOX 960454","MIAMI","FL","33296"
361538,"PO BOX 9605","DENVER","CO","80209"
361539,"PO BOX 960874","RIVERDALE","GA","30296"
361540,"PO BOX 96095","HOUSTON","TX","77213"
361541,"PO BOX 961","ANDERSON","MO","64831"
361542,"PO BOX 961","COOS BAY","OR","97420"
361543,"PO BOX 961","EVERGREEN","CO","80437"
361544,"PO BOX 961","KILLEN","AL","35645"
361545,"PO BOX 961","MORROW","GA","30260"
361546,"PO BOX 961","PARIS","TX","75461"
361547,"PO BOX 961","SUPERIOR","MT","59872"
361548,"PO BOX 961","WASHOUGAL","WA","98671"
361549,"PO BOX 9610","CHICAGO","IL","60609"
361550,"PO BOX 961172","RIVERDALE","GA","30296"
361551,"PO BOX 961193","EL PASO","TX","79996"
361552,"PO BOX 9612","RAPID CITY","SD","57709"
361553,"PO BOX 9614","VIRGINIA BEACH","VA","23450"
361554,"PO BOX 961482","RIVERDALE","GA","30296"
361555,"PO BOX 9616","CHESAPEAKE","VA","23321"
361556,"PO BOX 9618","WASHINGTON","DC","20016"
361557,"PO BOX 961831","RIVERDALE","GA","30296"
361558,"PO BOX 962","BROOKINGS","OR","97415"
361559,"PO BOX 962","CRANE","TX","79731"
361560,"PO BOX 962","HOLBROOK","AZ","86025"
361561,"PO BOX 962","KAILUA-KONA","HI","96745"
361562,"PO BOX 962","LAKE CITY","CO","81235"
361563,"PO BOX 962","MORGANTON","NC","28680"
361564,"PO BOX 962","OCILLA","GA","31774"
361565,"PO BOX 962","SANDERSON","TX","79848"
361566,"PO BOX 962","WARM SPRINGS","OR","97761"
361567,"PO BOX 962","WARSAW","IN","46581"
361568,"PO BOX 9621","COVINGTON","WA","98042"
361569,"PO BOX 962186","RIVERDALE","GA","30296"
361570,"PO BOX 96227","SOUTHLAKE","TX","76092"
361571,"PO BOX 962377","EL PASO","TX","79996"
361572,"PO BOX 963 201 JAMESTOWN ST","COLUMBIA","KY","42728"
361573,"PO BOX 963","BUCKLEY","WA","98321"
361574,"PO BOX 963","COWETA","OK","74429"
361575,"PO BOX 963","EVERGREEN","CO","80437"
361576,"PO BOX 963","FRANKLIN","KY","42135"
361577,"PO BOX 963","HOPKINSVILLE","KY","42241"
361578,"PO BOX 963","MCMINNVILLE","OR","97128"
361579,"PO BOX 963","PICKERINGTON","OH","43147"
361580,"PO BOX 963","RUSKIN","FL","33575"
361581,"PO BOX 963","ST JOSEPH","MO","64502"
361582,"PO BOX 963","SUNBURY","OH","43074"
361583,"PO BOX 963","WAGRAM","NC","28396"
361584,"PO BOX 963417","EL PASO","TX","79938"
361585,"PO BOX 964","COOKEVILLE","TN","38503"
361586,"PO BOX 964","GREENSBURG","PA","15601"
361587,"PO BOX 964","HARRISONBURG","VA","22803"
361588,"PO BOX 964","MELVILLE","NY","11747"
361589,"PO BOX 964","PORT ORFORD","OR","97465"
361590,"PO BOX 964","SILVERTON","CO","81433"
361591,"PO BOX 964","WHITEWRIGHT","TX","75491"
361592,"PO BOX 964","WOODLAND PARK","CO","80866"
361593,"PO BOX 9641","CHESAPEAKE","VA","23321"
361594,"PO BOX 9642","FORT LAUDERDALE","FL","33310"
361595,"PO BOX 9644","GREEN BAY","WI","54308"
361596,"PO BOX 965","COEYMANS","NY","12045"
361597,"PO BOX 965","FORT MILL","SC","29716"
361598,"PO BOX 965","JEFFERSON","TX","75657"
361599,"PO BOX 965","PAINESVILLE","OH","44077"
361600,"PO BOX 965","ROCKSPRINGS","TX","78880"
361601,"PO BOX 965","SPRING","TX","77383"
361602,"PO BOX 965","TAYLORS","SC","29687"
361603,"PO BOX 965121","MARIETTA","GA","30066"
361604,"PO BOX 965183","MARIETTA","GA","30066"
361605,"PO BOX 9653","SPRINGFIELD","MO","65801"
361606,"PO BOX 9654","PINE BLUFF","AR","71611"
361607,"PO BOX 965792","MARIETTA","GA","30066"
361608,"PO BOX 9658","FAYETTEVILLE","AR","72703"
361609,"PO BOX 96581","LAS VEGAS","NV","89193"
361610,"PO BOX 966","COLUMBUS","IN","47202"
361611,"PO BOX 966","HAZEL PARK","MI","48030"
361612,"PO BOX 966","IOWA CITY","IA","52244"
361613,"PO BOX 966","POINT ROBERTS","WA","98281"
361614,"PO BOX 966","RED OAKS","TX","75154"
361615,"PO BOX 966","SAHUARITA","AZ","85629"
361616,"PO BOX 966","SPRINGTOWN","TX","76082"
361617,"PO BOX 9661","NORFOLK","VA","23505"
361618,"PO BOX 9666","PHILADELPHIA","PA","19131"
361619,"PO BOX 9668","NORTH AMHERST","MA","01059"
361620,"PO BOX 967","ALMA","AR","72921"
361621,"PO BOX 967","BERRYVILLE","VA","22611"
361622,"PO BOX 967","CAMUY","PR","00627"
361623,"PO BOX 967","COATESVILLE","PA","19320"
361624,"PO BOX 967","JAY","FL","32565"
361625,"PO BOX 967","LAKEPORT","CA","95453"
361626,"PO BOX 967","MEXICO","NY","13114"
361627,"PO BOX 967","MILBROOK","NY","12545"
361628,"PO BOX 967","NEW BRUNSWICK","NJ","08903"
361629,"PO BOX 967","NEWCASTLE","WY","82701"
361630,"PO BOX 967","NORTHPORT","WA","99157"
361631,"PO BOX 967","WARRENTON","NC","27589"
361632,"PO BOX 967","WICKENBURG","AZ","85358"
361633,"PO BOX 967","WILLIAMSTOWN","NJ","08094"
361634,"PO BOX 967","WORTHINGTON","OH","43085"
361635,"PO BOX 96779","PAIA","HI","96779"
361636,"PO BOX 968","BIG LAKE","TX","76932"
361637,"PO BOX 968","DRAIN","OR","97435"
361638,"PO BOX 968","HOPWOOD","PA","15445"
361639,"PO BOX 968","NORTH MYRTLE BEACH","SC","29597"
361640,"PO BOX 9688","SPOKANE","WA","99209"
361641,"PO BOX 969","CAMILA","GA","31730"
361642,"PO BOX 969","NEW GLARUS","WI","53574"
361643,"PO BOX 969","PORTSMOUTH","OH","45662"
361644,"PO BOX 969","RIDGEFIELD","CT","06877"
361645,"PO BOX 9694","RAPID CITY","SD","57709"
361646,"PO BOX 97      419 N JEFFERSON","MEDICAL LAKE","WA","99022"
361647,"PO BOX 97-1818","WAIPAHU","HI","96797"
361648,"PO BOX 97","BODFISH","CA","93205"
361649,"PO BOX 97","BYESVILLE","OH","43723"
361650,"PO BOX 97","CHOTEAU","MT","59422"
361651,"PO BOX 97","EDGAR","NE","68935"
361652,"PO BOX 97","ELDRIDGE","IA","52748"
361653,"PO BOX 97","HEBRON","NH","03241"
361654,"PO BOX 97","HINTON","VA","22831"
361655,"PO BOX 97","LOGANVILLE","WI","53943"
361656,"PO BOX 97","LONE OAK","TX","75453"
361657,"PO BOX 97","LONG LAKE","MN","55356"
361658,"PO BOX 97","LOWER LAKE","CA","95457"
361659,"PO BOX 97","NEWPORT","OR","97365"
361660,"PO BOX 97","PANDORA","OH","45877"
361661,"PO BOX 97","PEARL CITY","IL","61062"
361662,"PO BOX 97","PITCAIRN","PA","15140"
361663,"PO BOX 97","POTSDAM","OH","45361"
361664,"PO BOX 97","RICE","TX","75155"
361665,"PO BOX 97","RINGWOOD","OK","73768"
361666,"PO BOX 97","SHAWNEE","OH","43782"
361667,"PO BOX 97","STAR PRAIRIE","WI","54026"
361668,"PO BOX 97","THORNVILLE","OH","43076"
361669,"PO BOX 97","WAGONER","OK","74477"
361670,"PO BOX 97","WATERFORD","ME","04088"
361671,"PO BOX 97","WAUKEE","IA","50263"
361672,"PO BOX 970","CROWN POINT","IN","46307"
361673,"PO BOX 970","MARRERO","LA","70073"
361674,"PO BOX 970","PAULDEN","AZ","86334"
361675,"PO BOX 970","WOODSTOCK","GA","30188"
361676,"PO BOX 970035","WAIPAHU","HI","96797"
361677,"PO BOX 970085","COCONUT CREEK","FL","33097"
361678,"PO BOX 970112","OREM","UT","84097"
361679,"PO BOX 970142","MIAMI","FL","33197"
361680,"PO BOX 97028","PHOENIX","AZ","85060"
361681,"PO BOX 970281","BOCA RATON","FL","33497"
361682,"PO BOX 9703","KANSAS CITY","MO","64134"
361683,"PO BOX 9704","FAYETTEVILLE","NC","28306"
361684,"PO BOX 9705","FARGO","ND","58106"
361685,"PO BOX 970630","COCONUT CREEK","FL","33073"
361686,"PO BOX 970767","YPSILANTI","MI","48197"
361687,"PO BOX 970952","Orem","UT","84097"
361688,"PO BOX 970981","BOCA RATON","FL","33497"
361689,"PO BOX 971","EAGLE","ID","83616"
361690,"PO BOX 971","HARRISBURG","OR","97446"
361691,"PO BOX 971","HUDSON","NH","03051"
361692,"PO BOX 971","MANCHESTER","MO","63011"
361693,"PO BOX 971","MANORVILLE","NY","11949"
361694,"PO BOX 971","MONTICELLO","AR","71657"
361695,"PO BOX 971","NORTH MYRTLE BEACH","SC","29597"
361696,"PO BOX 971","RIPON","CA","95366"
361697,"PO BOX 971","WAKARUSA","IN","46573"
361698,"PO BOX 971063","MIAMI","FL","33197"
361699,"PO BOX 971265","WAIPAHU","HI","96797"
361700,"PO BOX 97136","LAS VEGAS","NV","89193"
361701,"PO BOX 971363","WAIPAHU","HI","96797"
361702,"PO BOX 9715","PORTLAND","ME","04104"
361703,"PO BOX 971562","WAIPAHU","HI","96797"
361704,"PO BOX 971594","EL PASO","TX","79997"
361705,"PO BOX 971603","YPSILANTI","MI","48197"
361706,"PO BOX 971612","EL PASO","TX","79997"
361707,"PO BOX 971681","EL PASO","TX","79997"
361708,"PO BOX 9717","DAYTONA BEACH","FL","32114"
361709,"PO BOX 9718","NAPERVILLE","IL","60567"
361710,"PO BOX 971893","MIAMI","FL","33197"
361711,"PO BOX 972","COLUMBIA CITY","IN","46725"
361712,"PO BOX 972","CUMMING","GA","30028"
361713,"PO BOX 972","EAST AURORA","NY","14052"
361714,"PO BOX 972","EVANS","GA","30809"
361715,"PO BOX 972","LIBERTY LAKE","WA","99019"
361716,"PO BOX 972","MCMURRAY","PA","15317"
361717,"PO BOX 972","MOSCOW","PA","18444"
361718,"PO BOX 972","SCOTTSBORO","AL","35768"
361719,"PO BOX 972","SPARTA","TN","38583"
361720,"PO BOX 972","STEUBENVILLE","OH","43953"
361721,"PO BOX 972","WEST FARGO","ND","58078"
361722,"PO BOX 9721","SAN BERNARDINO","CA","92427"
361723,"PO BOX 9722","WICHITA FALLS","TX","76308"
361724,"PO BOX 9723","BOISE","ID","83707"
361725,"PO BOX 9723","SPOKANE","WA","99209"
361726,"PO BOX 9724","FT. LAUDERDALE","FL","33310"
361727,"PO BOX 972416","MIAMI","FL","33197"
361728,"PO BOX 972510","YPSILANTI","MI","48197"
361729,"PO BOX 97275","LAKEWOOD","WA","98497"
361730,"PO BOX 973 PO BOX 973","MC KENZIE","TN","38201"
361731,"PO BOX 973","ALEXANDER CITY","AL","35011"
361732,"PO BOX 973","CAMARILLO","CA","93011"
361733,"PO BOX 973","CRAIG","CO","81626"
361734,"PO BOX 973","DECATUR","TX","76234"
361735,"PO BOX 973","FULSHEAR","TX","77441"
361736,"PO BOX 973","HIAWASSEE","GA","30546"
361737,"PO BOX 973","HOUGHTON LAKE","MI","48629"
361738,"PO BOX 973362","EL PASO","TX","79997"
361739,"PO BOX 974","CEDAR FALLS","IA","50614"
361740,"PO BOX 974","CIRCLEVILLE","OH","43113"
361741,"PO BOX 974","FRANKLIN","WV","26807"
361742,"PO BOX 974","GOOSE CREEK","SC","29445"
361743,"PO BOX 974","INGLESIDE","TX","78362"
361744,"PO BOX 974","LEVELLAND","TX","79336"
361745,"PO BOX 974","LOVELOCK","NV","89419"
361746,"PO BOX 974","MCKINNEY","TX","75070"
361747,"PO BOX 974","OLYMPIA","WA","98507"
361748,"PO BOX 974","PINEDALE","AZ","85934"
361749,"PO BOX 974","TEXAS CITY","TX","77592"
361750,"PO BOX 974","TYRONE","GA","30290"
361751,"PO BOX 974","WATONGA","OK","73772"
361752,"PO BOX 97422","LAS VEGAS","NV","89193"
361753,"PO BOX 97424","PHOENIX","AZ","85060"
361754,"PO BOX 9743","KANSAS CITY","MO","64134"
361755,"PO BOX 975","BRACKETTVILLE","TX","78832"
361756,"PO BOX 975","DUVALL","WA","98019"
361757,"PO BOX 975","FRENCHTOWN","MT","59834"
361758,"PO BOX 975","GREENCASTLE","IN","46135"
361759,"PO BOX 975","HUNTSVILLE","AL","35804"
361760,"PO BOX 975","SHAST LAKE","CA","96019"
361761,"PO BOX 975","SOMERVILE","NJ","08876"
361762,"PO BOX 975","STEVENS POINT","WI","54481"
361763,"PO BOX 975","WILLIAMSBURG","NM","87942"
361764,"PO BOX 975","ZEBULON","NC","27597"
361765,"PO BOX 9754","ASHEVILLE","NC","28815"
361766,"PO BOX 9756","LOUISVILLE","KY","40219"
361767,"PO BOX 976","GLENDORA","CA","91740"
361768,"PO BOX 976","SANTA CLARA","UT","84765"
361769,"PO BOX 976","WINTHROP","WA","98862"
361770,"PO BOX 9762","RAPID CITY","SD","57709"
361771,"PO BOX 9767","ERIE","PA","16505"
361772,"PO BOX 977","CEIBA","PR","00735"
361773,"PO BOX 977","DESERT HOT SPRINGS","CA","92240"
361774,"PO BOX 977","ELKIN","NC","28621"
361775,"PO BOX 977","FORT COLLINS","CO","80522"
361776,"PO BOX 977","GRAND BLANC","MI","48480"
361777,"PO BOX 977","LAKE DELTON","WI","53940"
361778,"PO BOX 97704","PITTSBURGH","PA","97704"
361779,"PO BOX 9774","WILMINGTON","DE","19809"
361780,"PO BOX 97742","PITTSBURGH","PA","15227"
361781,"PO BOX 978","BEULAVILLE","NC","28518"
361782,"PO BOX 978","BRYSON CITY","NC","28713"
361783,"PO BOX 978","WEST CHESTER","OH","45071"
361784,"PO BOX 97841","RALEIGH","NC","27624"
361785,"PO BOX 9785","ST. THOMAS","VI","00801"
361786,"PO BOX 9786","NEWPORT BEACH","CA","92658"
361787,"PO BOX 9786","PEORIA","IL","61612"
361788,"PO BOX 97884","PITTSBURGH","PA","15227"
361789,"PO BOX 97892","PHOENIX","AZ","85060"
361790,"PO BOX 979","ANGEL FIRE","NM","87710"
361791,"PO BOX 979","CHIMAYO","NM","87522"
361792,"PO BOX 9791","CANTON","OH","44711"
361793,"PO BOX 9791","SAN JOSE","CA","95157"
361794,"PO BOX 98  111 CENTRE ST","SUMNER","MO","64681"
361795,"PO BOX 98","ALBERTVILLE","MN","55301"
361796,"PO BOX 98","BLADEN","NE","68928"
361797,"PO BOX 98","CARTHAGE","NC","28327"
361798,"PO BOX 98","CONNERSVILLE","IN","47331"
361799,"PO BOX 98","FAWNSKIN","CA","92333"
361800,"PO BOX 98","GLENDO","WY","82213"
361801,"PO BOX 98","GREENWOOD","AR","72936"
361802,"PO BOX 98","HARTLAND","MI","48114"
361803,"PO BOX 98","HUNTINGTON","VT","05462"
361804,"PO BOX 98","HUTCHINSON","MN","55350"
361805,"PO BOX 98","JACKSONBORO","SC","29452"
361806,"PO BOX 98","MANSURA","LA","71350"
361807,"PO BOX 98","MASCOUTAH","IL","62258"
361808,"PO BOX 98","NEW BLOOMFIELD","MO","65063"
361809,"PO BOX 98","NEW RICHLAND","MN","56072"
361810,"PO BOX 98","NORTH LEWISBURG","OH","43060"
361811,"PO BOX 98","OAKFIELD","WI","53065"
361812,"PO BOX 98","OWATONNA","MN","55060"
361813,"PO BOX 98","OWLS HEAD","ME","04854"
361814,"PO BOX 98","PASSUMPSIC","VT","05861"
361815,"PO BOX 98","PROTIVIN","IA","52163"
361816,"PO BOX 98","SCOTTSBURG","IN","47170"
361817,"PO BOX 98","TROY MILLS","IA","52352"
361818,"PO BOX 980","JOSHUA TREE","CA","92252"
361819,"PO BOX 980","WESTMINSTER","CA","92684"
361820,"PO BOX 9800","COLLEGE STATION","TX","77842"
361821,"PO BOX 980073","YPSILANTI","MI","48198"
361822,"PO BOX 9802","RIVIERA BEACH","FL","33419"
361823,"PO BOX 98055","DES MOINES","WA","98198"
361824,"PO BOX 980742","YPSILANTI","MI","48198"
361825,"PO BOX 980745","YPSILANTI","MI","48198"
361826,"PO BOX 981","CLINTON","TN","37717"
361827,"PO BOX 981","DEVILS LAKE","ND","58301"
361828,"PO BOX 981","DINUBA","CA","93618"
361829,"PO BOX 981","HANNIBAL","MO","63401"
361830,"PO BOX 981","MILFORD","NH","03055"
361831,"PO BOX 981","SELMA","CA","93662"
361832,"PO BOX 981","WAR","WV","24892"
361833,"PO BOX 981","WAYNESBORO","VA","22980"
361834,"PO BOX 981","WILSON","NC","27894"
361835,"PO BOX 98101","GAINESVILLE","GA","30501"
361836,"PO BOX 981126","YPSILANTI","MI","48198"
361837,"PO BOX 981152","W SACRAMENTO","CA","95798"
361838,"PO BOX 981228","WEST SACRAMENTO","CA","95798"
361839,"PO BOX 981332","WEST SACRAMENTO","CA","95798"
361840,"PO BOX 981342","WEST SACRAMENTO","CA","95798"
361841,"PO BOX 9817","FRESNO","CA","93794"
361842,"PO BOX 982","ALVIN","TX","77511"
361843,"PO BOX 982","ANKENY","IA","50021"
361844,"PO BOX 982","EAST LANSING","MI","48826"
361845,"PO BOX 982","LEAKESVILLE","MS","39451"
361846,"PO BOX 982","MECHANICSVILLE","VA","23111"
361847,"PO BOX 982","NEWBURGH","NY","12551"
361848,"PO BOX 982","PELHAM","GA","31779"
361849,"PO BOX 982","PINOLE","CA","94564"
361850,"PO BOX 982","QUESTA","NM","87556"
361851,"PO BOX 982","THIEF RIVER FALLS","MN","56701"
361852,"PO BOX 982","TOLEDO","WA","98591"
361853,"PO BOX 982","WILMETTE","IL","60091"
361854,"PO BOX 982","ZEBULON","NC","27597"
361855,"PO BOX 98206","TACOMA","WA","98498"
361856,"PO BOX 982310","PAGO PAGO","AS","96799"
361857,"PO BOX 982784","PARK CITY","UT","84098"
361858,"PO BOX 983","MILESBURG","PA","16823"
361859,"PO BOX 983","MOUNTAIN VIEW","CA","94042"
361860,"PO BOX 983","PICKENS","SC","29671"
361861,"PO BOX 983","ROCHESTER","IN","46975"
361862,"PO BOX 983","RUSSELLVILLE","AR","72811"
361863,"PO BOX 983","SAVANNAH","GA","31402"
361864,"PO BOX 9831","CHESAPEAKE","VA","23321"
361865,"PO BOX 98337","DES MOINES","WA","98198"
361866,"PO BOX 98348","LAKEWOOD","WA","98496"
361867,"PO BOX 9838","WICHITA FALLS","TX","76308"
361868,"PO BOX 984","BAUDETTE","MN","56623"
361869,"PO BOX 984","CHARLESTON","AR","72933"
361870,"PO BOX 984","CHEEKTOWAGA","NY","14225"
361871,"PO BOX 984","DALTON","GA","30722"
361872,"PO BOX 984","DENMARK","SC","29042"
361873,"PO BOX 984","GLOVERSVILLE","NY","12078"
361874,"PO BOX 984","LAKESIDE","CA","92040"
361875,"PO BOX 984","OAKDALE","CA","95361"
361876,"PO BOX 984","REHOBOTH BCH","DE","19971"
361877,"PO BOX 984","SHERWOOD","OR","97140"
361878,"PO BOX 984","YELM","WA","98597"
361879,"PO BOX 9841","SEATTLE","WA","98109"
361880,"PO BOX 98418","ATLANTA","GA","30359"
361881,"PO BOX 9842","FORT LAUDERDALE","FL","33310"
361882,"PO BOX 98421","ATLANTA","GA","30359"
361883,"PO BOX 98435","LAS VEGAS","NV","89183"
361884,"PO BOX 9845","FORT LAUDERDALE","FL","33310"
361885,"PO BOX 9846","ERIE","PA","16505"
361886,"PO BOX 98463","RALEIGH","NC","27624"
361887,"PO BOX 9848","MARINA DEL RECY","CA","90295"
361888,"PO BOX 985","BRADFORD","PA","16701"
361889,"PO BOX 985","BURNET","TX","78611"
361890,"PO BOX 985","CEDAR HILL","TX","75106"
361891,"PO BOX 985","CHESTER","PA","19016"
361892,"PO BOX 985","COLOMA","MI","49038"
361893,"PO BOX 985","FRONT ROYAL","VA","22630"
361894,"PO BOX 985","REPUBLIC","WA","99166"
361895,"PO BOX 985","SAUGERTIES","NY","12477"
361896,"PO BOX 985","SOUTH HAVAEN","MI","49090"
361897,"PO BOX 985","SUN VILLAGE","CA","93543"
361898,"PO BOX 985","TERRY","MS","39170"
361899,"PO BOX 98505","RALEIGH","NC","27624"
361900,"PO BOX 9852","CHESAPEAKE","VA","23321"
361901,"PO BOX 986","BUFFALO","NY","14207"
361902,"PO BOX 986","CLINTON","NC","28329"
361903,"PO BOX 986","FRONTENAC","KS","66763"
361904,"PO BOX 986","HILLSBOROUGH","NC","27278"
361905,"PO BOX 986","LIBERTY","NC","27298"
361906,"PO BOX 986","LOS ALAMOS","NM","87544"
361907,"PO BOX 986","LYNN HAVEN","FL","32444"
361908,"PO BOX 986","PINEVILLE","NC","28134"
361909,"PO BOX 986","SEYMOUR","IN","47274"
361910,"PO BOX 986","SPOKANE","WA","99210"
361911,"PO BOX 986","TELLURIDE","CO","81435"
361912,"PO BOX 986","VACAVILLE","CA","95696"
361913,"PO BOX 9861","AUGUSTA","GA","30916"
361914,"PO BOX 9861","MOBILE","AL","36691"
361915,"PO BOX 9866","REDLANDS","CA","92375"
361916,"PO BOX 987","FOREST CITY","NC","28043"
361917,"PO BOX 987","MORRILTON","AR","72110"
361918,"PO BOX 987","ROBBINS","NC","27325"
361919,"PO BOX 98747","DESMOINES","WA","98198"
361920,"PO BOX 9878","MEMPHIS","TN","38190"
361921,"PO BOX 988","GT BARRINGTON","MA","01230"
361922,"PO BOX 988","PARAMOUNT","CA","90723"
361923,"PO BOX 9880266","HOUSTON","TX","77098"
361924,"PO BOX 98864","DES MOINES","WA","98198"
361925,"PO BOX 989","CHARLESTON","WV","25324"
361926,"PO BOX 989","COLUMBUS","MT","59019"
361927,"PO BOX 989","HOOKER","OK","73945"
361928,"PO BOX 989","OCCIDENTAL","CA","95465"
361929,"PO BOX 989","RINCON","PR","00677"
361930,"PO BOX 9896","ERIE","PA","16505"
361931,"PO BOX 9898","WICHITA FALLS","TX","76308"
361932,"PO BOX 99    N1738 CTY R","LEBANON","WI","53047"
361933,"PO BOX 99  215 NORTH BROADWAY","ALDEN","MN","56009"
361934,"PO BOX 99 191 KUNKELPOINT ROAD","MAYFIELD","NY","12117"
361935,"PO BOX 99","BLUE RIDGE SUMMIT","PA","17214"
361936,"PO BOX 99","BUCKFIELD","ME","04220"
361937,"PO BOX 99","BYERS","CO","80103"
361938,"PO BOX 99","CATSKILL","NY","12414"
361939,"PO BOX 99","COLUMBUS","NE","68601"
361940,"PO BOX 99","DEPAUVILLE","NY","13632"
361941,"PO BOX 99","DIBOLL","TX","75941"
361942,"PO BOX 99","HAMPTON","VA","23669"
361943,"PO BOX 99","JEFFERSON","PA","15344"
361944,"PO BOX 99","JEFFERSONVILLE","VT","05464"
361945,"PO BOX 99","MANCHESTER","TN","37349"
361946,"PO BOX 99","NEW HYDE PARK","NY","11040"
361947,"PO BOX 99","OAKDALE","NY","11769"
361948,"PO BOX 99","OWENS X RDS","AL","35763"
361949,"PO BOX 99","PAGO PAGO","AS","96799"
361950,"PO BOX 99","PANDORA","OH","45877"
361951,"PO BOX 99","PELHAM","NH","03076"
361952,"PO BOX 99","ST CLAIR","MN","56080"
361953,"PO BOX 99","SUMPTER","OR","97877"
361954,"PO BOX 99","SUTHERLIN","OR","97479"
361955,"PO BOX 99","TIGERVILLE","SC","29687"
361956,"PO BOX 99","TROY","NC","27371"
361957,"PO BOX 99","TRUCKEE","CA","96160"
361958,"PO BOX 99","VINCENT","OH","45784"
361959,"PO BOX 990","GREENSBURG","PA","15601"
361960,"PO BOX 990","HERMOSA BEACH","CA","90254"
361961,"PO BOX 990","LANCASTER","SC","29721"
361962,"PO BOX 990","MOUNTAIN VIEW","WY","82939"
361963,"PO BOX 990027","REDDING","CA","96099"
361964,"PO BOX 990111","REDDING","CA","96099"
361965,"PO BOX 990123","REDDING","CA","96099"
361966,"PO BOX 99014","RALEIGH","NC","27624"
361967,"PO BOX 99025","SAN DIEGO","CA","92109"
361968,"PO BOX 990285","NAPLES","FL","34116"
361969,"PO BOX 990301","REDDING","CA","96099"
361970,"PO BOX 990397","NAPLES","FL","34116"
361971,"PO BOX 990444","REDDING","CA","96099"
361972,"PO BOX 990462","BOSTON","MA","02199"
361973,"PO BOX 990505","REDDING","CA","96099"
361974,"PO BOX 9907","TYLER","TX","75711"
361975,"PO BOX 990793","NAPLES","FL","34116"
361976,"PO BOX 99095","NORFOLK","VA","23509"
361977,"PO BOX 991","BAILEY","CO","80421"
361978,"PO BOX 991","CHRISTIANSTED","VI","00821"
361979,"PO BOX 991","EPHRATA","WA","98823"
361980,"PO BOX 991","GRAND BLANC","MI","48480"
361981,"PO BOX 991","LAKE PLACID","NY","12946"
361982,"PO BOX 991","MCALESTER","OK","74502"
361983,"PO BOX 991","TRUCKEE","CA","96160"
361984,"PO BOX 991052","REDDING","CA","96099"
361985,"PO BOX 99111","TROY","MI","48099"
361986,"PO BOX 9912","SEATTLE","WA","98109"
361987,"PO BOX 991367","LOUISVILLE","KY","40269"
361988,"PO BOX 9914","VIRGINIA BEACH","VA","23450"
361989,"PO BOX 991474","REDDING","CA","96099"
361990,"PO BOX 991702","LOUISVILLE","KY","40269"
361991,"PO BOX 992","ANDERSON","IN","46015"
361992,"PO BOX 992","APPLETON","WI","54912"
361993,"PO BOX 992","BRIGANTINE","NJ","08203"
361994,"PO BOX 992","CALIMESA","CA","92320"
361995,"PO BOX 992","EDNA","TX","77957"
361996,"PO BOX 992","FLORENCE","MT","59833"
361997,"PO BOX 992","INTERCESSION CITY","FL","33848"
361998,"PO BOX 992","MONUMENT BEACH","MA","02553"
361999,"PO BOX 992","PINELAND","TX","75968"
362000,"PO BOX 992","POMONA","NJ","08240"
