"ID","Address","City","State","Zip"
261001,"622 WEST 120TH STREET","CHICAGO","IL","60628"
261002,"622 WEST AVE","RED WING","MN","55066"
261003,"622 YORKSHIRE DR","DEKALB","IL","60115"
261004,"622","LINDEN","NC","28356"
261005,"6220 BARNARD MILL RD","RINGWOOD","IL","60072"
261006,"6220 COVINGTON WAY","GOLETA","CA","93117"
261007,"6220 DE LONGPRE AVE UNIT 4","LOS ANGELES","CA","90028"
261008,"6220 E SURREY AVENUE","SCOTTSDALE","AZ","85254"
261009,"6220 HARTZELL RD","GREENVILLE","OH","45331"
261010,"6220 HICKORY TRAIL","ATLANTA","GA","30349"
261011,"6220 HILBERT RIDGE DRIVE","HOLLY SPRINGS","NC","27540"
261012,"6220 JACKSON ST","GROVES","TX","77619"
261013,"6220 KELLER DRIVE","PORT RICHEY","FL","34668"
261014,"6220 LAKE COVE DRIVE","TUSCALOOSA","AL","35406"
261015,"6220 LYNNCHESTER DRIVE","LOUISVILLE","KY","40219"
261016,"6220 N CYPRESS AVE","KANSAS CITY","MO","64119"
261017,"6220 N FARMINGTON","WESTLAND","MI","48185"
261018,"6220 PACIFIC AVE UNIT 303","PLAYA DEL REY","CA","90293"
261019,"6220 PINE BLUFF DR","CUMMINGS","GA","30040"
261020,"6220 RASSLER AVE","LAS VEGAS","NV","89107"
261021,"6220 RVERSIDE DRIVE STE 554","METAIRIE","LA","70003"
261022,"6220 S ORANGE BLOSSOM TRAIL 505","ORLANDO","FL","32809"
261023,"6220 SE 92ND AVE","PORTLAND","OR","97266"
261024,"6220 SHALLOWFORD RD APT 40","CHATTANOOGA","TN","37421"
261025,"6220 STATE ROAD FL 2","PARMA","OH","44134"
261026,"6220 THOMAS DRIVE","PANAMA CITY BEACH","FL","32408"
261027,"6220 W BUENA VISTA CT","VISALIA","CA","93291"
261028,"6220 WESTPARK DR  SUITE 245F","HOUSTON","TX","77057"
261029,"6220 WINDING WAY","CARMICHAEL","CA","95608"
261030,"6220 WOODWARD AVE","BELL","CA","90201"
261031,"6221 14TH STREET","SACRAMENTO","CA","95831"
261032,"6221 37TH AVENUE NE","SEATTLE","WA","98115"
261033,"6221 BRUSH ST APT 105","DETROIT","MI","48202"
261034,"6221 EASTERN AVENUE UNIT 25752","BALTIMORE","MD","21224"
261035,"6221 EASTWOOD GLEN PL","MONTGOMERY","AL","36117"
261036,"6221 ELIZABETH LAKE ROAD","LEONA VALLEY","CA","93551"
261037,"6221 FAIR OAKS AVE","BALTIMORE","MD","21214"
261038,"6221 FENWAY ST","DALLAS","TX","75217"
261039,"6221 GREENLEIGH AVE APT 280","BALTIMORE","MD","21220"
261040,"6221 LAUREL LANE","EASTMAN","GA","31023"
261041,"6221 MORI STREET","MCLEAN","VA","22101"
261042,"6221 PACIFIC AVE","PLAYA DEL REY","CA","90293"
261043,"6221 PALM RIVER RD","TAMPA","FL","33619"
261044,"6221 RYAN CREEK RD","FORT WORTH","TX","76179"
261045,"6221 S CLAIBORNE AVE   STE 453","NEW ORLEANS","LA","70125"
261046,"6221 S CLAIBORNE AVE SUITE 417","NEW ORLEANS","LA","70125"
261047,"6221 S CLAIBORNE AVE","NEW ORLEANS","LA","70125"
261048,"6221 SHOO FLY RD","KELSEY","CA","95667"
261049,"6221 SONGBIRD CIRCLE","BOULDER","CO","80303"
261050,"6221 SOUTH 2275 EAST","SALT LAKE CITY","UT","84121"
261051,"6221 STRAWBERRY WAY   SUITE D","SALISBURY","MD","21801"
261052,"6221 W NORTH ST 137","STILESVILLE","IN","46180"
261053,"6221 W ROOSEVELT RD","BERWYN","IL","60402"
261054,"6221 W ROOSEVELT ROAD","BERWYN","IL","60402"
261055,"6221 YELLOWSTONE DRIVE","ALEXANDRIA","VA","22312"
261056,"6222 BUNKER HILL DRIVE","WILLIAMSBURG","MI","49690"
261057,"6222 EDGEWATER DR","FALLS CHURCH","VA","22041"
261058,"6222 GA HIGHWAY 37","LEARY","GA","39862"
261059,"6222 RAYTOWN TRAFFICWAY PMB 197","RAYTOWN","MO","64133"
261060,"6222 SEAL PLACE","WALDORF","MD","20603"
261061,"6222 SPENCERS GLEN WAY","SUGAR LAND","TX","77479"
261062,"6222 W NORTH AVE","WAUWATOSA","WI","53213"
261063,"6222 W NORTH AVENUE","CHICAGO","IL","60639"
261064,"6222 WHITE BIRCH LANE","MATTESON","IL","60443"
261065,"6223 37TH STREET NW","PLAZA","ND","58771"
261066,"6223 CIELO GRANDE DR NE","RIO RANCHO","NM","87144"
261067,"6223 CREEKSIDE PARK DRIVE","FULSHEAR","TX","77441"
261068,"6223 GLEN WOOD LOOP","MANASSAS","VA","20112"
261069,"6223 HOUGH RD","ALMONT","MI","48003"
261070,"6223 INTERBAY AVENUE","TAMPA","FL","33611"
261071,"6223 JUBILEE LN","LAKELAND","FL","33813"
261072,"6223 KILMER LOOP UNIT 103","ARVADA","CO","80403"
261073,"6223 MAPLE STREET 4231","OMAHA","NE","68104"
261074,"6223 SE 30TH WAY","GRESHAM","OR","97080"
261075,"6224 BEEMAN AVE","NORTH HOLLYWOOD","CA","91606"
261076,"6224 C DURHAM DRIVE","LAKE WORTH","FL","33467"
261077,"6224 CARNEGIE","ROMULUS","MI","48174"
261078,"6224 ESTATE NAZARETH","ST THOMAS","VI","00802"
261079,"6224 GILLESPIE STREET","PHILADELPHIA","PA","19135"
261080,"6224 LAKE FREEMAN DRIVE","INDIANAPOLIS","IN","46254"
261081,"6224 LARAMIE CIRCLE","CHATTANOOGA","TN","37421"
261082,"6224 N WASHTENAW AVE APT 3","CHICAGO","IL","60659"
261083,"6224 NORTH INWOOD ROAD","SHREVEPORT","LA","71119"
261084,"6224 POTOMAC HIGHLANDS TRAIL","GREEN BANK","WV","24944"
261085,"6224 RACE STREET","PHLADELPHIA","PA","19139"
261086,"6224 SOUTH EVANS AVE APT2","CHICAGO","IL","60637"
261087,"6224 STATE HIGHWAY 146 S","LIVINGSTON","TX","77351"
261088,"6224 SW 80TH ST","OCALA","FL","34476"
261089,"6224 WINBOURNE AVE","BATON ROUGE","LA","70805"
261090,"6225 ARBOR BLVD W","NAPLES","FL","34119"
261091,"6225 BEAR CV SOUTH","OLIVE BRANCH","MS","38654"
261092,"6225 BELLMEADOW DR","COLUMBUS","OH","43229"
261093,"6225 BUSH BUCK RUN","FORT WORTH","TX","76179"
261094,"6225 CANVASBACK LANE","ORLANDO","FL","32810"
261095,"6225 CEDAR SAGE TRAIL","ARGYLE","TX","76226"
261096,"6225 CRYSTAL LAKE DRIVE","FORT WORTH","TX","76179"
261097,"6225 EAST HWY 114 BLDG 3 SUITE 306","RHOME","TX","76078"
261098,"6225 FAIRFAX WAY","FARIBAULT","MN","55021"
261099,"6225 GRATIOT RD SUITE 1","SAGINAW","MI","48638"
261100,"6225 HEMPERLY ROAD","ATLANTA","GA","30349"
261101,"6225 KENTUCKY DR","CENTRAL POINT","OR","97502"
261102,"6225 LAKE WASHINGTON BLVD N E 310","KIRKLAND","WA","98033"
261103,"6225 LERNER WAY","LANSING","MI","48911"
261104,"6225 LONE OAK DRIVE","BETHESDA","MD","20817"
261105,"6225 NORTH CENTRAL AVE","BATESVILLE","AR","72501"
261106,"6225 PROVIDENCE CT","CARPENTERSVILLE","IL","60110"
261107,"6225 SONHAVEN DRIVE","SHREVEPORT","CO","71119"
261108,"6225 W ILLINI STREET","PHOENIX","AZ","85043"
261109,"6225 W OVERLAND RD","BOISE","ID","83709"
261110,"6226 36TH PLACE  NE","MARYSVILLE","WA","98270"
261111,"6226 CROWN","OAKLAND","CA","94611"
261112,"6226 JEFFERSON HWY SUITE B","HARAHAN","LA","70123"
261113,"6226 LEE AVENUE","MURFREESBORO","TN","37129"
261114,"6226 MIRAMONTE BLVD","LOS ANGELES","CA","90001"
261115,"6226 NW 3RD AVE","MIAMI","FL","33150"
261116,"6226 NW 84TH TERRACE","PARKLAND","FL","33067"
261117,"6226 OAK BLUFF WAY","LAKE WORTH","FL","33467"
261118,"6226 S COUNTY RD 250 E","PAOLI","IN","47454"
261119,"6226 UNIVERSITY PARK DRIVE STE 3301","RADFORD","VA","24141"
261120,"6227 LANDOVER CIRCLE","MORROW","GA","30260"
261121,"6227 MORNING ROSES DR","NORTH LAS VEGAS","NV","89031"
261122,"6227 S 117TH ST","SEATTLE","WA","98178"
261123,"6227 SW 57 ST","SOUTH MIAMI","FL","33143"
261124,"6227 TUPELO TRAIL","BRADENTON","FL","34202"
261125,"6228 18TH RD N","ARLINGTON","VA","22205"
261126,"6228 BROOKLINE COURT","EAST LANSING","MI","48823"
261127,"6228 CAPE COD DRIVE","COLUMBUS","GA","31904"
261128,"6228 COMISKEY DR","PASCO","WA","99301"
261129,"6228 E129TH STREET","GRANDVIEW","MO","64030"
261130,"6228 EAGLE PEAK DRIVE","CHARLOTTE","NC","28214"
261131,"6228 EAGLEBROOK AVE","TAMPA","FL","33625"
261132,"6228 HARRISON AVENUE","HAMMOND","IN","46324"
261133,"6228 JOSEPHINE ROAD","NORTON","VA","24273"
261134,"6228 LUCENA WAY","MASON","OH","45040"
261135,"6228 N DAKOTA AVE NW STE 109","WASHINGTON","DC","20011"
261136,"6228 NORTH DAKOTA AVE NW 202","WASHINGTON","DC","20011"
261137,"6228 RIDGEMONT DRIVE","OAKLAND","CA","94619"
261138,"6228 S 233RD ST","KENT","WA","98032"
261139,"6228 SW 194 AVENUE","FORT LAUDERDALE","FL","33332"
261140,"6228 WALSH ST","SAINT LOUIS","MO","63109"
261141,"6228 WASHINGTON PIKE","KNOXVILLE","TN","37918"
261142,"6228 WHILEAWAY DR","LOVELAND","OH","45140"
261143,"6229 CALDWELL DR","NEW ORLEANS","LA","70122"
261144,"6229 CALDWELL DRIVE","NEW ORLEANS","LA","70122"
261145,"6229 CAMINO ALEGRE","EL PASO","TX","79912"
261146,"6229 CLIMAX RD","CHATHAM","VA","24531"
261147,"6229 CLIMAX ROAD","CHATHAM","VA","24531"
261148,"6229 NORTH WESTERN AVENUE","CHICAGO","IL","60659"
261149,"6229 RIPTIDE DR","WILMINGTON","NC","28403"
261150,"6229 WADSWORTH DRIVE","NEW ORLEANS","LA","70122"
261151,"62290 STARR LN","LA GRANDE","OR","97850"
261152,"623 12TH PLAZA","PLEASANT GROVE","AL","35127"
261153,"623 146TH AVE","CALEDONIA","MI","49316"
261154,"623 AKOAKOA STREET","KAILUA","HI","96734"
261155,"623 ANALU STREET APT A","HONOLULU","HI","96817"
261156,"623 ANTIETAM DRIVE","STONE MOUNTAIN","GA","30087"
261157,"623 ATHENS STREET","ALTADENA","CA","60620"
261158,"623 ATHENS STREET","ALTADENA","CA","91001"
261159,"623 BEAR CLAW WAY","MIDDLETON","WI","53562"
261160,"623 BROADWAY ST","BARABOO","WI","53913"
261161,"623 BUCKLEY ROAD","ST. LOUIS","MO","63125"
261162,"623 CALLE FRANCISCO CASALDUC","SAN JUAN","PR","00924"
261163,"623 CAROLINA AVENUE","RALEIGH","NC","27606"
261164,"623 DEMYAN DRIVE","ANNAPOLIS","MD","21403"
261165,"623 DRIFTWOOD DR","LOWELL","IN","46356"
261166,"623 E 9TH ST","PANAMA CITY","FL","32401"
261167,"623 E SAN JOSE AVE","BURBANK","CA","91501"
261168,"623 EAGLE AVENUE STE 154","WEST ORANGE","NJ","07052"
261169,"623 EAGLE ROCK AVE    244","WEST ORANGE","NJ","07052"
261170,"623 EAGLE ROCK AVENUE SUITE 244","WEST ORANGE","NJ","07052"
261171,"623 EAGLE ROCK AVENUE SUITE 369","WEST ORANGE","NJ","07052"
261172,"623 EAST 10TH STREET","ERIE","PA","16503"
261173,"623 EAST 2100 SOUTH SUITE B1","SALT LAKE CITY","UT","84106"
261174,"623 EAST COURT STREET SUITE A","JACKSON","MS","39201"
261175,"623 EAST DALE STREET","COLORADO SPRINGS","CO","80903"
261176,"623 EAST DEWART STREET","SHAMOKIN","PA","17872"
261177,"623 EAST MAIN STREET SUITE 3","HENDERSONVILLE","TN","37075"
261178,"623 EAST VIRGINIA BEACH BOULEVARD","NORFOLK","VA","23510"
261179,"623 FARLER DRIVE","COLUMBUS","OH","43213"
261180,"623 GEELE AVE","SHEBOYGAN","WI","53083"
261181,"623 GENOA RD","TEXARKANA","AR","71854"
261182,"623 GRAND AVE/ PO BOX 812","LEAKESVILLE","MS","39451"
261183,"623 HAMPTON STREET","AUBURNDALE","FL","33823"
261184,"623 HANSON ROAD","KEMAH","TX","77565"
261185,"623 HYDE PARK ROAD","ESSEX","MD","21221"
261186,"623 JACKSON STREET","SAINT LOUIS","MO","63147"
261187,"623 KAHANA RIVER RD","FORT MILL","SC","29715"
261188,"623 KALAMAZOO AVENUE","PETOSKEY","MI","49770"
261189,"623 LELAND AVE","SOUTH BEND","IN","46616"
261190,"623 MACADAMIA AVE","MADERA","CA","93637"
261191,"623 MACDADE BLVD SUITE 201","COLLINGDALE","PA","19023"
261192,"623 MAIN ST","HARWICH","MA","02645"
261193,"623 MAIN STREET","WARTBURG","TN","37887"
261194,"623 MEADOW RD","HAMPDEN","ME","04444"
261195,"623 MELLON STREET SE","WASHINGTON","DC","20032"
261196,"623 MICHIGAN AVENUE","SOUTH MILWAUKEE","WI","53172"
261197,"623 MIDDLE ROAD","ELKTON","MD","21921"
261198,"623 MONTROSE DRIVE","SHREVEPORT","LA","71106"
261199,"623 MUNICIPAL DRIVE","NAZARETH","PA","18064"
261200,"623 N MONTEREY STREET STE 17","ALHAMBRA","CA","91801"
261201,"623 N RITTER AVE","NIXA","MO","65714"
261202,"623 NORTH 34TH STREET","LOUISVILLE","KY","40212"
261203,"623 NORTHSIDE AVENUE","RICHMOND","VA","23222"
261204,"623 NW 5 STREET","BOYNTON BEACH","FL","33435"
261205,"623 OAKWOOD PLACE","TITUSVILLE","FL","32780"
261206,"623 OLMSTED RD","STANFORD","CA","94305"
261207,"623 PINEY GLEN DR","COLUMBUS","OH","43230"
261208,"623 PROSPECT ST","RAVENNA","OH","44266"
261209,"623 RAILROAD STREET","ALBANY","TX","76430"
261210,"623 REAGAN HOLLOW ROAD","PIGEON FORGE","TN","37863"
261211,"623 S 850 W","SPRINGVILLE","UT","84663"
261212,"623 S EUCLID AVENUE","OAK PARK","IL","60304"
261213,"623 S ST NW","WASHINGTON","DC","20001"
261214,"623 SE 69TH AVENUE","PORTLAND","OR","97215"
261215,"623 SEDGEWICK DR","MAGNOLIA","DE","19962"
261216,"623 SHARPE DR","VERMILLION","SD","57069"
261217,"623 SOUTH OPAL STREET","BOISE","ID","83705"
261218,"623 SPRING RIDGE DR","KENNESAW","GA","30144"
261219,"623 STATE ROUTE 2011","DILLINER","PA","15327"
261220,"623 SUMMIT AVENUE APT 117","OCONOMOWOC","WI","53066"
261221,"623 US HWY 27 DMB 16","SEBRING","FL","33870"
261222,"623 VALLEY RIDGE DRIVE","ROSENBERG","TX","77469"
261223,"623 W 11TH ST","WINAMAC","IN","46996"
261224,"623 W 148TH AVE UNIT A-204","BROOMFIELD","CO","80023"
261225,"623 W 60TH STREET","LOS ANGELES","CA","90044"
261226,"623 W DOUGLAS AVE","WICHITA","KS","67213"
261227,"623 W ELM ST","JUNCTION CITY","KS","66441"
261228,"623 W LINDNER AVE","MESA","AZ","85210"
261229,"623 W NAVARRO AVE","MESA","AZ","85210"
261230,"623 W PENN ST","CARLISLE","PA","17013"
261231,"623 W SADIE ST APT 220","BRANDON","FL","33510"
261232,"623 W SPRING ST","TITUSVILLE","PA","16354"
261233,"623 WARWICK DRIVE","MONTGOMERY","AL","36116"
261234,"623 WASHINGTON ST","GARY","IN","46402"
261235,"623 WATER STREET","BATESVILLE","AR","72501"
261236,"623 WEST PENN STREET","CARLISLE","PA","17013"
261237,"623 WILORA LANDING ROAD","CHARLOTTE","NC","28212"
261238,"623","NANUET","NY","10954"
261239,"6230 5TH AVE APT A3E","PITTSBURGH","PA","15232"
261240,"6230 5TH AVE","MARRERO","LA","70072"
261241,"6230 CANOBIE AVE","WHITTIER","CA","90601"
261242,"6230 CARDINAL ST","VENTURA","CA","93003"
261243,"6230 EAGLE RIDGE CT","FORT COLLINS","CO","80525"
261244,"6230 EDSALL RD UNIT 304","ALEXANDRIA","VA","22312"
261245,"6230 GAUNTLET HALL LANE","DAVIE","FL","33331"
261246,"6230 HAVEN AVE APT 30","RANCHO CUCAMONGA","CA","91737"
261247,"6230 HWY 6","HITCHCOCK","TX","77563"
261248,"6230 LAFFERRE LN","HILLIARD","OH","43026"
261249,"6230 LEAN AVE","SAN JOSE","CA","95123"
261250,"6230 ORCHARD LAKE RD","WEST BLOOMFIELD","MI","48322"
261251,"6230 QUEENSDALE DRIVE","DOUGLASVILLE","GA","30135"
261252,"6230 S 233RD STREET 24-3","KENT","WA","98032"
261253,"6230 S COTTAGE GROVE UNIT 208","CHICAGO","IL","60637"
261254,"6230 S JUSTINE ST","CHICAGO","IL","60636"
261255,"6230 SW ZABACO TERRACE","BEAVERTON","OR","97078"
261256,"6230 TANGLEWOOD DRIVE","JACKSON","MS","39213"
261257,"6230 WILSHIRE BLVD  STE 1233","LOS ANGELES","CA","90048"
261258,"6230 WILSHIRE BLVD 171","LOS ANGELES","CA","90048"
261259,"6230 WILSHIRE BLVD 199","LOS ANGELES","CA","90048"
261260,"6230 WILSHIRE BLVD STE 48","LOS ANGELES","CA","90048"
261261,"6230 WILSHIRE BLVD SUITE 1171","LOS ANGELES","CA","90048"
261262,"6231 ARLINGTON LANE","OLIVE BRANCH","MS","38654"
261263,"6231 CANTIGNY LAKE DRIVE","KATY","TX","77493"
261264,"6231 FOURMILE CANYON DR","BOULDER","CO","80302"
261265,"6231 GRAND VISTA AVE","CINCINNATI","OH","45213"
261266,"6231 HETZLER","CULVER CITY","CA","90232"
261267,"6231 NW ST","PENSACOLA","FL","32505"
261268,"6231 RESIDENCIA","NEWPORT BEACH","CA","92660"
261269,"6231 S GARLAND ST","LITTLETON","CO","80123"
261270,"6231 SW 32ND STREET","MIRAMAR","FL","33025"
261271,"6232 CANVASBACK LN","ORLANDO","FL","32810"
261272,"6232 FRENCH CREEK CT","ELLENTON","FL","34222"
261273,"6232 GLENNOX LANE","DALLAS","TX","75214"
261274,"6232 HAZEL AVE","PHILADELPHIA","PA","19143"
261275,"6232 MCPHERSON AVE","ST LOUIS","MO","63130"
261276,"6232 S JACKSON GAP COURT","AURORA","CO","80016"
261277,"6232 SETON HOUSE LANE","CHARLOTTE","NC","28277"
261278,"6232 SHOREHAM DR","EVANSVILLE","IN","47711"
261279,"6232 WEST 135 NORTH  APT 42","HURRICANE","UT","84737"
261280,"6233 25TH AVE NE","SEATTLE","WA","98115"
261281,"6233 BLOSSOM AVE","SAN JOSE","CA","95123"
261282,"6233 CASCADE FALLS DRIVE","BUFORD","GA","30518"
261283,"6233 CLAPHAM LANE","JOHNS CREEK","GA","30097"
261284,"6233 ESTELLE STREET","SAN DIEGO","CA","92115"
261285,"6233 N RIDGE RD W","GENEVA","OH","44041"
261286,"6233 PLUM AVE","EASTVALE","CA","92880"
261287,"6233 REBECCA PL SE","AUBURN","WA","98092"
261288,"6233 S WINCHESTER","CHICAGO","IL","60636"
261289,"6233 U S 223","PALMYRA","MI","49268"
261290,"6233 WATERMAN WAY","FREDERICK","CO","80516"
261291,"6234 CULVER DRIVE","MORROW","GA","30260"
261292,"6234 GRAND BLVD SUITE 202","NEW PORT RICHEY","FM","34652"
261293,"6234 HWY 59 S","TEXARKANA","TX","75501"
261294,"6234 LIGHTNER DR","ORLANDO","FL","32829"
261295,"6234 O FALLON LAKES DRIVE","O FALLON","MO","63366"
261296,"6234 S CONGRESS AVE SUITE F1","LANTANA","FL","33462"
261297,"6234 S LOOMIS BLVD","CHICAGO","IL","60636"
261298,"6234 SOUTH LOOMIS","CHICAGO","IL","60636"
261299,"6235 CHAPS VIEW","FOUNTAIN","CO","80817"
261300,"6235 HAMILTON BLVD STE 105","ALLENTOWN","PA","18106"
261301,"6235 LEAWOOD DRIVE","HUBER HEIGHTS","OH","45424"
261302,"6235 LYNN RD","SALISBURY","NC","28144"
261303,"6235 MCCOMMAS BLVD","DALLAS","TX","75214"
261304,"6235 MCHARD 300","HOUSTON","TX","77053"
261305,"6235 N ELLENDALE AVE","FRESNO","CA","93722"
261306,"6235 N RIDGEWAY AVENUE","CHICAGO","IL","60659"
261307,"6235 PARKWOOD RD","MENTOR","OH","44060"
261308,"6235 S 2ND AVE","PHOENIX","AZ","85041"
261309,"6235 S MONITOR","CHICAGO","IL","60638"
261310,"6235 S WOLCOTT AVE","CHICAGO","IL","60636"
261311,"6235 SOUTH DAMEN AVENUE","CHICAGO","IL","60636"
261312,"6235 SW 135TH ST","PINECREST","FL","33156"
261313,"6235 SW 57TH STREET","SOUTH MIAMI","FL","33143"
261314,"6235 TOWER DR","HUDSON","FL","34667"
261315,"6235 W 155TH PLACE","OVERLAND PARK","KS","66223"
261316,"6235B N TEUTONIA AVE","MILWAUKE","WI","53209"
261317,"6236 MAGNOLIA STREET","PHILADELPHIA","PA","19144"
261318,"6236 MARYLAND DRIVE","LOS ANGELES","CA","90048"
261319,"6236 N 41ST DR","PHOENIX","AZ","85019"
261320,"6236 N LE MAI AVE","CHICAGO","IL","60646"
261321,"6236 W 156TH","OVERLAND PARK","KS","66223"
261322,"6236 WADSWORTH AVE","HIGHLAND","CA","92346"
261323,"6236 WESTWICK PLACE","LEWIS CENTER","OH","43035"
261324,"6237 13TH AVE NORTH","SAINT PETERSBURG","FL","33710"
261325,"6237 DELANCEY STREET","PHILADELPHIA","PA","19143"
261326,"6237 EMPRESS COURT","SAN JOSE","CA","95129"
261327,"6237 LA FLEUR DRIVE","SHREVEPORT","LA","71119"
261328,"6237 LINDA VISTA LANE","CHARLOTTE","NC","28216"
261329,"6237 MORTON STREET","PHILADELPHIA","PA","19144"
261330,"6237 PONTIAC ST","SAN DIEGO","CA","92115"
261331,"6237 ROXBOROUGH DRIVE","ROXBOROUGH","CO","80125"
261332,"6237 S ALBANY AVE","CHICAGO","IL","60629"
261333,"6237 SUSSEX DR","DUBLIN","CA","94583"
261334,"6237HICKORYLANECIRCLE","UNION CITY","GA","30291"
261335,"6238 BLUFF FOREST DR","ST LOUIS","MO","63129"
261336,"6238 COUNTY RD 41","FLORENCE","AL","35633"
261337,"6238 CYPRESS DR","MT MORRIS","MI","48458"
261338,"6238 FALLBROOK AVE","WOODLAND HILLS","CA","91367"
261339,"6238 YELLOWSTONE","CHEYENNE","WY","82009"
261340,"6239 CARSON HILLS AVE","LAS VEGAS","NV","89139"
261341,"6239 E 123RD DRIVE","BRIGHTON","CO","80602"
261342,"6239 E BROWN RD SUITE 112","MESA","AZ","85205"
261343,"6239 GENERAL DIAZ ST","NEW ORLEANS","LA","70124"
261344,"6239 HOWE DRIVE","FAIRWAY","KS","66204"
261345,"6239 JEANE STREET","DALLAS","TX","75217"
261346,"6239 LARCHWOOD AVE","PHILADELPHIA","PA","19143"
261347,"6239 PARKDALE","DALLAS","TX","75227"
261348,"6239 SILVER WOOD DR","MORROW","OH","45152"
261349,"6239 SPRING LAKE DRIVE","HAMILTON","OH","45011"
261350,"624 1/2 STATE STREET","REDDING","CA","96001"
261351,"624 13TH AVE SOUTH","SAINT PETERSBURG","FL","33701"
261352,"624 3RD AVENUE NORTH","JACKSONVILLE BEACH","FL","32250"
261353,"624 4TH STREET","HUDSON","WI","54016"
261354,"624 77TH AVE NE","OLYMPIA","WA","98506"
261355,"624 7TH AVENUE SE","DYERSVILLE","IA","52040"
261356,"624 ARCHER STREET","MONTEREY","CA","93940"
261357,"624 BALLENTINE AVE","MARION","OH","43302"
261358,"624 BENNETT ROAD","LINDEN","IN","47955"
261359,"624 BUENA VISTA AVENUE","ASHLAND","OH","44805"
261360,"624 C STREET NE","WASHINGTON","DC","20002"
261361,"624 CHAPLIN ST SE","WASHINGTON","DC","20019"
261362,"624 CHURCH STREET","LUDLOW","KY","41016"
261363,"624 CIRCUIT ST","HANOVER","MA","02339"
261364,"624 COMMERCIAL ST","STRAWBERRY POINT","IA","52076"
261365,"624 COMMERCIAL STREET","STRAWBERRY POINT","IA","52076"
261366,"624 COTTAGE STREET","NEW BEDFORD","MA","02740"
261367,"624 E 222ND ST APT 2C","BRONX","NY","10467"
261368,"624 E 23RD ST","PATERSON","NJ","07514"
261369,"624 E BOXWOOD LN","AZUSA","CA","91702"
261370,"624 E CAMINO COLEGIO","SANTA MARIA","CA","93454"
261371,"624 E COLLEGE STREET","MEDFORD","WI","54451"
261372,"624 E COUNTY LINE RD","LAKEWOOD","NJ","08701"
261373,"624 E JANE ST","VALDOSTA","GA","31601"
261374,"624 E OKLAHOMA PL","TULSA","OK","74106"
261375,"624 E TURMONT ST","CARSON","CA","90746"
261376,"624 EAST BEALE STREET","KINGMAN","AZ","86401"
261377,"624 EAST MAIN STREET","GROVE CITY","PA","16127"
261378,"624 EAST REELFOOT AVE","UNION CITY","TN","38261"
261379,"624 FARRAGUT PLACE NE","WASHINGTON","DC","20017"
261380,"624 FRENCH ST","SANTA ANA","CA","92701"
261381,"624 GALVIN AVE","ROSELLE","NJ","07203"
261382,"624 GRAN KAYMEN WAY","APOLLO BEACH","FL","33572"
261383,"624 GROVER STREET","WARRENSBURG","MO","64093"
261384,"624 HALF MOON WAY","RUNAWAY BAY","TX","76426"
261385,"624 HIGHWAY 71","WILLMAR","MN","56201"
261386,"624 IDLEWOOD LANE","KNOXVILLE","TN","37923"
261387,"624 ILLINOIS ST","GARY","IN","46402"
261388,"624 INDIAN OAK LANE UNIT 105","OAK PARK","CA","91377"
261389,"624 ISLE OF PALMS DRIVE","FORT LAUDERDALE","FL","33301"
261390,"624 JEFFERSON AVE","SCRANTON","PA","18510"
261391,"624 KAHN DRIVE","PIKESVILLE","MD","21208"
261392,"624 KINGS VIEW COURT","HAMPTON","VA","23669"
261393,"624 KOCH AVE","CAPE GIRARDEAU","MO","63701"
261394,"624 LEEWARD AVE","BEACHWOOD","NJ","08722"
261395,"624 LEILA COURT","WEST CARROLLTON","OH","45449"
261396,"624 LOUISE STREET","MANSFIELD","LA","71052"
261397,"624 LUCAS DRIVE","LAFAYETTE","CA","94549"
261398,"624 MAIN STREET","BROCKTON","MA","02301"
261399,"624 MAIN STREET","OLEAN","NY","14760"
261400,"624 MAPLE AVE","GLADEWATER","TX","75647"
261401,"624 MARTIN STREET","WEST MONROE","LA","71292"
261402,"624 MATTHEWS-MINT HILL RD SUITE 209","MATTHEWS","NC","28105"
261403,"624 MILL STREET","REEDSVILLE","WI","54230"
261404,"624 N 34TH STREET","WACO","TX","76710"
261405,"624 N 7TH","WAKEENEY","KS","67672"
261406,"624 N CASCADE AVE","COLORADO SPRINGS","CO","80903"
261407,"624 N MADISON STREET","BLOOMINGTON","IN","47404"
261408,"624 NORTH BROADWAY ROOM 653","BATLIMORE","MD","21205"
261409,"624 NORTH FRONT STREET","WORMLEYSBURG","PA","17043"
261410,"624 NORTHFIELD RD","LITITZ","PA","17543"
261411,"624 NW CONGRESS STREET","BEND","OR","97703"
261412,"624 PERTH AVE","FLOSSMOOR","IL","60422"
261413,"624 PONDVIEW DRIVE","ANTIOCH","IL","60002"
261414,"624 RAMAPO ROAD","TEANECK","NJ","07666"
261415,"624 RENAISSANCE POINTE UNIT 207","ALTAMONTE SPRINGS","FL","32714"
261416,"624 S 200TH ST","DES MOINES","WA","98198"
261417,"624 S MILITARY TRAIL","DEERFIELD BEACH","FL","33442"
261418,"624 SIX FLAGS DR SUITE 201","ARLINGTON","TX","76011"
261419,"624 SOUTH LINE STREET","CHESANING","MI","48616"
261420,"624 SUDDERTH DRIVE","RUIDOSO","NM","88345"
261421,"624 SYCAMORE DR","BRONSTON","KY","42518"
261422,"624 TALON COURT","ARNOLD","MD","21012"
261423,"624 TERRACE HILLS DRIVE","SALT LAKE CITY","UT","84103"
261424,"624 TRAIL AVENUE","FREDERICK","MD","21701"
261425,"624 TYVOLA ROAD STE 103-322","CHARLOTTE","NC","28217"
261426,"624 W  38TH STREET","INDIANAPOLIS","IN","46208"
261427,"624 W 2ND ST","WASHINGTON","NC","27889"
261428,"624 W 90TH STREET","LOS ANGELES","CA","90044"
261429,"624 W MAIN ST 3RD FLOOR","LOUISVILLE","KY","40202"
261430,"624 W MAIN STREET","TUPELO","MS","38804"
261431,"624 W NEVADA AVENUE","HOMEDALE","ID","83628"
261432,"624 W UNIVERSITY DR NO 268","DENTON","TX","76201"
261433,"624 W VERDINE","SULPHUR","LA","70663"
261434,"624 WAPPING STREET","FRANKFORT","KY","40601"
261435,"624 WEST SECOND STREET","CROWLEY","LA","70526"
261436,"624 WESTONRIDGE COURT","WILDWOOD","MO","63021"
261437,"624 WYTHE AVE APT 1","BROOKLYN","NY","11249"
261438,"6240 BUCKINGHAM CIRCLE","CUMMING","GA","30040"
261439,"6240 COUNTY ROAD 120 APT NO 320","ST CLOUD","MN","56303"
261440,"6240 E CALLE DEL MEDIA","SCOTTSDALE","AZ","85251"
261441,"6240 LANSDOWNE CIR","BOYNTON BEACH","FL","33472"
261442,"6240 N SAN GABRIEL BLVD UNIT 6","SAN GABRIEL","CA","91775"
261443,"6240 N63AVE APT 134","GLENDALE","AZ","85301"
261444,"6240 POST ROAD","CUMMING","GA","30040"
261445,"6240 PRIMROSE DR","LA MESA","CA","91942"
261446,"6240 PRINCESS COURT","ROCKLIN","CA","65765"
261447,"6240 ROYAL LAKES ESTATES AVE","GONZALES","LA","70737"
261448,"6240 S CONGRESS AVE SUITE G6","LANTANA","FL","33462"
261449,"6240 SANDRISE COURT APT 301","ELKRIDGE","MD","21075"
261450,"6240 SYLMAR AVENUE","VAN NUYS","CA","91401"
261451,"6240 TIMBERVIEW DRIVE","EAST LANSING","MI","48823"
261452,"6240 TURRET DR","COLORADO SPRINGS","CO","80918"
261453,"6240 W ORCHID LN","CHANDLER","AZ","85226"
261454,"62407 COND DRIVE","JONES","MI","49061"
261455,"62408 HWY 112","ASHLAND","WI","54806"
261456,"6241 BERKSHIRE LN","RACINE","WI","53406"
261457,"6241 DOLORES DRIVE","OAK FOREST","IL","60452"
261458,"6241 JACK LONDON CIRCLE","SACRAMENTO","CA","95842"
261459,"6241 LAKESIDE DRIVE","QUINTON","VA","23141"
261460,"6241 MAGNOLIA RIDGE","STONE MOUNTAIN","GA","30087"
261461,"6241 OAKLAND DRIVE","WOODBRIDGE","VA","22193"
261462,"6241 RIVERSIDE DRIVE","DUBLIN","OH","43017"
261463,"6241 SALAMANDER RUN LANE","CHARLOTTE","NC","28215"
261464,"6241 SAVANNAH BREEZE CT","TAMPA","FL","33625"
261465,"6241 SOUTH BLVD 241983","CHARLOTTE","NC","28217"
261466,"6241 W BROADWAY","BROOKLYN PARK","MN","55428"
261467,"6241 W KINNICKINNIC RIVER PKWY","MIWAUKEE","WI","53219"
261468,"62410 ERICKSON ROAD","BEND","OR","97701"
261469,"6242 BOARDMAN RD NW","OLYMPIA","WA","98502"
261470,"6242 SE 29TH WAY","GRESHAM","OR","97080"
261471,"6242 STATE RD 56 EAST","WINSLOW","IN","47598"
261472,"6242 WEST GRAND AVENUE","CHICAGO","IL","60639"
261473,"6243 E PHILLIPS PL","CENTENNIAL","CO","80112"
261474,"6244 DREAM DUST DRIVE","NORTH RICHLAND HILLS","TX","76180"
261475,"6244 EL CAJON BLVD SUITE 22","SAN DIEGO","CA","92115"
261476,"6244 FROSTY WINTER CT","CENTREVILLE","VA","20120"
261477,"6244 HATCHETT MILL RD","SPOTTSVILLE","KY","42458"
261478,"6244 LAKE VALLEY POINT","LITHONIA","GA","30058"
261479,"6244 N 4TH ST","PHILADELPHIA","PA","19120"
261480,"6244 PARKSTONE WAY","DALLAS","TX","75249"
261481,"6244 PLASKA AVE","HUNTINGTON PARK","CA","90255"
261482,"6244 TINKER STREET","SHREVEPORT","LA","71109"
261483,"6244 WILD HERON WAY","COLLEGE GROVE","TN","37064"
261484,"6245 AERODROME WAY","GEORGETOWN","CA","95634"
261485,"6245 AMMONS DRIVE","ARVADA","CO","80004"
261486,"6245 BAYBERRY DRIVE","COLUMBUS","GA","31907"
261487,"6245 E TYGARTS ROAD","GREENUP","KY","41144"
261488,"6245 NORTH GRATZ STREET","PHILADELPHIA","PA","19141"
261489,"6245 S POPLAR GROVE ROAD","COLUMBUS","IN","47201"
261490,"6245 SNOWBIRD DRIVE","COLORADO SPRINGS","CO","80918"
261491,"6245 W LEVI AVE","LAS VEGAS","NV","89141"
261492,"6246 HICKORY LANE CIRCLE","UNION CITY","GA","30291"
261493,"6246 MISSISSIPPI STREET","CAMP LEJEUNE","NC","28547"
261494,"6246 MOSSLINE DRIVE","JACKSON","MS","39211"
261495,"6246 N CAMAC ST","PHILADELPHIA","PA","19141"
261496,"6246 NORTH MAPLEWOOD AVE","CHICAGO","IL","60659"
261497,"6246 OHM CT","SAN DIEGO","CA","92122"
261498,"6246 SPARLING HILLS CIRCLE","ORLANDO","FL","32808"
261499,"6246 W CERMAK ROAD","BERWYN","IL","60402"
261500,"6247 KENDRA COURT","STONECREST","GA","30058"
