"ID","Address","City","State","Zip"
39501,"123 E MAIN STREET","LAKELAND","FL","33801"
39502,"123 E MAIN STREET","NASHVILLE","IN","47448"
39503,"123 E MARKET ST","NEW ALBANY","IN","47150"
39504,"123 E NEWTON ST","VERSAILLES","MO","65084"
39505,"123 E SAN CARLOS STE 413","SAN JOSE","CA","95112"
39506,"123 EAST 10TH STREET SUITE 2","ANDERSON","IN","46016"
39507,"123 EAST 110TH STREET APARTMENT 7E","NEW YORK","NY","10029"
39508,"123 EAST 13TH STREET","CINCINNATI","OH","45202"
39509,"123 EAST 4TH STREET","STROMSBURG","NE","68666"
39510,"123 EAST 83RD STREET APT 5C","NEW YORK","NY","10028"
39511,"123 EAST ADAMS STREET","MUNCIE","IN","47305"
39512,"123 EAST GATE DRIVE","MONMOUTH JCT","NJ","08852"
39513,"123 EAST GERMAN STREET","SHEPHERDSTOWN","WV","25443"
39514,"123 EAST HOBSON AVENUE","SAPULPA","OK","74066"
39515,"123 EAST LIBERTY STREET","CINCINNATI","OH","45202"
39516,"123 EAST MAIN CROSS STREET","FINDLAY","OH","45840"
39517,"123 EAST MAIN STREET 5TH FLOOR","CHARLOTTESVILLE","VA","22902"
39518,"123 EAST MAIN STREET","STOUGHTON","WI","53589"
39519,"123 EAST MARCY STREET SUITE 200","SANTA FE","NM","87501"
39520,"123 EAST MARKET STREET","NEW ALBANY","IN","47150"
39521,"123 EAST MEYRAN AVE","SOMERS POINT","NJ","08244"
39522,"123 EAST ROAD","TORONTO","OH","43964"
39523,"123 EAST SAN CARLOS STREET","SAN JOSE","CA","95112"
39524,"123 EAST STREET","ATTLEBORO","MA","02703"
39525,"123 EAST VANCE STREET","FUQUAY-VARINA","NC","27526"
39526,"123 EDDY ST","RICHMOND","CA","94801"
39527,"123 EDGEWOOD AVENUE","FRANKLIN","NC","28734"
39528,"123 EMILY CREST LN","ROCK HILL","SC","29730"
39529,"123 EVANSVILLE ROAD","BROWNINGTON","VT","05860"
39530,"123 FELDER CREEK ROAD","SUMMERVILLE","SC","29486"
39531,"123 FIG AVENUE","FAIRHOPE","AL","36532"
39532,"123 FONTENOT DRIVE","SAVANNAH","GA","31405"
39533,"123 FOREHAND ROAD","WEWAHITCHKA","FL","32465"
39534,"123 FORGE ST","AKRON","OH","44308"
39535,"123 FRANCOIS DR","LAFAYETTE","LA","70507"
39536,"123 FRANKLIN AVE APT 1","BROOKLYN","NY","11205"
39537,"123 GILLMING STREET","LITCHFIELD","NE","68852"
39538,"123 GLASGOW ST","STEM","NC","27581"
39539,"123 GLEN HAVEN DR","CHAPEL HILL","NC","27516"
39540,"123 GLENWOOD WAY","STOCKBRIDGE","GA","30281"
39541,"123 GOLDEN MEADOW LN","SICKLERVILLE","NJ","08081"
39542,"123 GOODWIN AVENUE","WETHERSFIELD","CT","06109"
39543,"123 GRAHAM STREET","BIDDEFORD","ME","04005"
39544,"123 GRAND AVENUE","PALISADES PARK","NJ","07650"
39545,"123 GRANVILLE STREET","COLUMBUS","OH","43230"
39546,"123 GREEN ST APT B","SOUDERTON","PA","18964"
39547,"123 GROVE STREET","NEVADA CITY","CA","95959"
39548,"123 GWENDALE LN","OXFORD","AL","36203"
39549,"123 HAGAMAN STREET","CARTERET","NJ","07008"
39550,"123 HARDEN PARKWAY  APT L","SALINAS","CA","93906"
39551,"123 HARTMAN ROCKS DRIVE","GUNNISON","CO","81230"
39552,"123 HARVEST DRIVE","VERONA","PA","15147"
39553,"123 HASSELLWOOD DR","CARY","NC","27518"
39554,"123 HAVEN ST-STE 2-NO 92","READING","MA","01867"
39555,"123 HAYWARD ROAD","ACTON","CA","01720"
39556,"123 HERMAN STREET","ALPENA","MI","49707"
39557,"123 HIBBARD COURT SOUTH","PONTIAC","MI","48341"
39558,"123 HIGH BLVD","SHILLINGTON","PA","19607"
39559,"123 HILLCREST TERRACE","WHITE RIVER JCT","VT","05001"
39560,"123 HORACE ST","DAYTON","OH","45402"
39561,"123 HORACE STREET","DAYTON","OH","45402"
39562,"123 HORN ROAD","RAYVILLE","LA","71269"
39563,"123 HUNTINGTON CIRCLE","IDABEL","OK","74745"
39564,"123 INTREPID DRIVE","SLIDELL","LA","70458"
39565,"123 JASPER PLACE","ALEXANDRIA","VA","22304"
39566,"123 JENNIFER LANE","WEST SALEM","WI","54669"
39567,"123 JETER ST","CHESTER","SC","29706"
39568,"123 JUPITER STREET APT 3","BAYOU VISTA","LA","70380"
39569,"123 KELLY LANE","EASLEY","SC","29642"
39570,"123 KENWAY ST","ROCKWALL","TX","75087"
39571,"123 KENYON AVE","WAKEFIELD","RI","02879"
39572,"123 KESWICK MANOR DRIVE","TYRONE","GA","30290"
39573,"123 KETTLE CREEK ROAD","WESTON","CT","06883"
39574,"123 KEYSTONE ROAD","PATRIOT","OH","45686"
39575,"123 KIMBERLY LANE","MINOTOLA","NJ","08341"
39576,"123 KING ARTHURS COURT","ROCHESTER","NY","14626"
39577,"123 KIRKLAND RD","LONGVIEW","WA","98632"
39578,"123 KRIDER ROAD","SANFORD","FL","32773"
39579,"123 LANCHA CIRCLE","INDIAN HARBOUR BEACH","FL","32937"
39580,"123 LAUREL COURT","LUGOFF","SC","29078"
39581,"123 LEE STREET","WEST BOYLSTON","MA","01583"
39582,"123 LEWIS ST","LYNN","MA","01902"
39583,"123 LEWIS ST","PERTH AMBOY","NJ","08861"
39584,"123 LOSOYA STREET  SUITE 18","SAN ANTONIO","TX","78205"
39585,"123 LUCKIE STREET NW","ATLANTA","GA","30303"
39586,"123 LUKE RD","CLEVELAND","TN","37323"
39587,"123 MAIN STREET","PHOENIXVILLE","PA","19460"
39588,"123 MAMARONECK AVE APT 209","MAMARONECK","NY","10543"
39589,"123 MARION ST SE","MILLEDGEVILLE","GA","31061"
39590,"123 MARTIN STREET","GENEVA","AL","36340"
39591,"123 MERION LANE","WALNUT","CA","91789"
39592,"123 MIDDLE CREEK PARK AVE","APEX","NC","27539"
39593,"123 MIDDLE CREEK PARK AVENUE","APEX","NC","27539"
39594,"123 MILL NECK ROAD","COMO","NC","27818"
39595,"123 MISTY MOUNTAIN LANE","MOUNT HOPE","WV","25880"
39596,"123 MONTAGUE DRIVE","EASLEY","SC","29640"
39597,"123 MOORE ROAD","SUDBURY","MA","01776"
39598,"123 MOUNT TABOR WAY","OCEAN GROVE","NJ","07756"
39599,"123 MT HOPE DRIVE","ORANGEBURG","SC","29118"
39600,"123 MUNICH DRIVE","MADISON","MS","39110"
39601,"123 N 5TH ST","CYRIL","OK","73029"
39602,"123 N BLAKELEY STREET","MONROE","WA","98272"
39603,"123 N CARRIZO STREET","CORPUS CHRISTI","TX","78401"
39604,"123 N COLLEGE AVE SUITE 200-27","FORT COLLINS","CO","80524"
39605,"123 N COLLEGE STREET","LEBANON","TN","37087"
39606,"123 N CYPRESS","STOCKTON","KS","67669"
39607,"123 N INDUSTRIAL DR SUITE B","ORANGE CITY","FL","32763"
39608,"123 N JEFFERSON ST","MT PLEASANT","IA","52641"
39609,"123 N MAIN ST STE 200","ST CHARLES","MO","63301"
39610,"123 N MARKET ST","GALION","OH","44833"
39611,"123 N MEDINA STREET","SAN ANTONIO","TX","78207"
39612,"123 N PARLER AVE","SAINT GEORGE","SC","29477"
39613,"123 NE 2ND ST APT 459","OKLAHOMA CITY","OK","73104"
39614,"123 NE 2ND ST APT NO 207","OKC","OK","73104"
39615,"123 NINA COURT","WILLIAMSTOWN","NJ","08094"
39616,"123 NORTH CONGRESS AVENUE 276","BOYNTON BEACH","FL","33426"
39617,"123 NORTH FLORISSANT RD","FERGUSON","MO","63135"
39618,"123 NORTH KROME AV","HOMESTEAD","FL","33030"
39619,"123 NORTH STREET","BURLINGTON","VT","05401"
39620,"123 OAK LAWN AVE","DALLAS","TX","75207"
39621,"123 OAKWOOD DRIVE","MOREHEAD","KY","40351"
39622,"123 OHIO STREET","DUNGANNON","VA","24245"
39623,"123 OLD SAMPLE STREET","GREENWOOD","SC","29646"
39624,"123 OLYMPIC PLACE","DECATUR","GA","30030"
39625,"123 PANORAMA WAY","BRENTWOOD","CA","94513"
39626,"123 PARK AVE","PINE","CO","80470"
39627,"123 PARK AVENUE","BEAVER DAM","WI","53916"
39628,"123 PASA ROBLES AVE","JACKSON","MS","39206"
39629,"123 PELHAM DRIVE","LEESBURGH","GA","31763"
39630,"123 PINERIDGE DR","HUNTERSVILLE","NC","28078"
39631,"123 POLK HALL CAMPUS BOX 7621","RALEIGH","NC","27695"
39632,"123 PONDVIEW DR","SOUTHINGTON","CT","06489"
39633,"123 PRESSBURG LANE","LAKEWOOD","NJ","08701"
39634,"123 PROVIDENCE WAY","DALLAS","GA","30157"
39635,"123 QUARRY STREET","WILLIMANTIC","CT","06226"
39636,"123 RABBIT CHASE LN","SMYRNA","DE","19977"
39637,"123 RACETRACK DRIVE","AUBURN","CA","95603"
39638,"123 RACQUET PARK DRIVE","AMELIA ISLAND","FL","32034"
39639,"123 RAINBOW DR 3755","LIVINGSTON","TX","77399"
39640,"123 RAINBOW DR","KALISPELL","MT","59901"
39641,"123 REGENCY CIR","POOLER","GA","31322"
39642,"123 RICO STREET","SALINAS","CA","93907"
39643,"123 ROCKEFELLER CT","GOLDSBORO","NC","27530"
39644,"123 RONA LANE","DAVENPORT","FL","33897"
39645,"123 ROSEDALE AVE","BLOOMINGDALE","IL","60108"
39646,"123 RUSSELL DRIVE","HIRAM","GA","30141"
39647,"123 S ARLINGTON AVENUE","DELAND","FL","32724"
39648,"123 S BLUFF CREEK CIR","SPRING","TX","77382"
39649,"123 S CENTER ST","BREMEN","IN","46506"
39650,"123 S FIGUEROA ST","LOS ANGELES","CA","90012"
39651,"123 S FIGUEROA STREET - UNIT 240","LOS ANGELES","CA","90012"
39652,"123 S NATIONAL AVE STE 100","FORT SCOTT","KS","66701"
39653,"123 S PASCO AVE","ARCADIA","FL","34266"
39654,"123 SANDPIPER AVE","SURFSIDE","TX","77541"
39655,"123 SARATOGA ROAD","GLENVILLE","NY","12302"
39656,"123 SCHENECTADY AVE","BROOKLYN","NY","11213"
39657,"123 SE 3RD AVE UNIT 237","MIAMI","FL","33131"
39658,"123 SE 44TH TER","TOPEKA","KS","66609"
39659,"123 SECOND AVENUE UNIT 604","SALT LAKE CITY","UT","84103"
39660,"123 SENECA STREET","UTICA","NY","13502"
39661,"123 SERRAN DR","GAHANNA","OH","43230"
39662,"123 SHATO LN","MONONA","WI","53716"
39663,"123 SIR TURNER DRIVE","COLD CREEK","NV","89124"
39664,"123 SIXTH ST","MINOT","ND","58703"
39665,"123 SO MUNN AVE   5K","EAST ORANGE","NJ","07018"
39666,"123 SOUTH 8 STREET SUITE 101","BROOKLYN","NY","11211"
39667,"123 SOUTH BROAD STREET SUITE 1930","PHILADELPHIA","PA","19109"
39668,"123 SOUTH CENTRAL AVENUE","VALLEY STREAM","NY","11580"
39669,"123 SOUTH GEYERS CHURCH RD","MIDDLETOWN","PA","17057"
39670,"123 SOUTH GEYERS CHURCH ROAD","MIDDLETOWN","PA","17057"
39671,"123 SOUTH LAKE STREET","LAKE MARY","FL","32746"
39672,"123 SOUTH NEAL STREET","PRAIRIE GROVE","AR","72753"
39673,"123 SOUTH THIRD STREET","EASTON","PA","18042"
39674,"123 SOUTH TRYBOM DRIVE","IRON RIVER","MI","49935"
39675,"123 SPENCER STREET","VALLEJO","CA","94589"
39676,"123 SPRING ST","WINDSOR LOCKS","CT","06088"
39677,"123 STATE PARK ROAD 64","FAIRFIELD","TX","75840"
39678,"123 SW COLUMBIA STREET","BEND","OR","97702"
39679,"123 SW NORTH RIVER DRVE","MIAMI","FL","33130"
39680,"123 SWISS AVENUE/8","BURNSVILLE","NC","28714"
39681,"123 THOMAS STREET","SUFFOLK","VA","23434"
39682,"123 TOWN SQUARE PLACE NUMBER 402","JERSEY CITY","NJ","07310"
39683,"123 TOWN SQUARE PLACE SUITE 635","JERSEY CITY","NJ","07310"
39684,"123 TOWN SQUARE PLACE UNIT 378","JERSEY CITY","NJ","07310"
39685,"123 VILLAGE DRIVE","SEAFORD","DE","19973"
39686,"123 VINEYARD RD NW","ALBUQUERQUE","NM","87107"
39687,"123 VISTA PT","HOHENWALD","TN","38462"
39688,"123 W 43RD ST","NEW YORK","NY","10036"
39689,"123 W 9TH ST SUITE 204","LAWRENCE","KS","66046"
39690,"123 W ARMOUR BLVD","KANSAS CITY","MO","64111"
39691,"123 W BLOOMINGDALE AVENUE","BRANDON","FL","33511"
39692,"123 W CAMERON AVE","ROCKDALE","TX","76567"
39693,"123 W CHANDLER HEIGHTS RD","CHANDLER","AZ","85248"
39694,"123 W CHANDLER HEIGHTS ROAD 13125","CHANDLER","AZ","85248"
39695,"123 W CREST ROAD","HUEYTOWN","AL","35023"
39696,"123 W FLORIDA AVE","YOUNGSTOWN","OH","44507"
39697,"123 W LEXINGTON AVENUE","INDEPENDENCE","MO","64050"
39698,"123 W LIBERTY RD","SYKESVILLE","MD","21784"
39699,"123 W MADISON ST STE 1700","CHICAGO","IL","60602"
39700,"123 W MADISON STREET - SUITE 2100","CHICAGO","IL","60602"
39701,"123 W PLYMOUTH STREET","BREMEN","IN","46506"
39702,"123 W RIDGE RD","SCHELLSBURG","PA","15559"
39703,"123 W ST CHARLES RD STE 101","LOMBARD","IL","60148"
39704,"123 W THIRD STREET","DOVER","OH","44622"
39705,"123 WALNUT AVE","LAKEWOOD","NJ","08701"
39706,"123 WALNUT RD","RANSON","WV","25438"
39707,"123 WASHBURN AVE","COVENTRY","CT","06238"
39708,"123 WASHINGTON AVE","RUTHERFORD","NJ","07070"
39709,"123 WASHINGTON STREET","NEWARK","NJ","07102"
39710,"123 WEAVER LN","WEAVER","AL","36277"
39711,"123 WEST 123 STREET GARDEN LEVEL","NEW YORK","NY","10027"
39712,"123 WEST 133 ST APT 5C","NEW YORK","NY","10030"
39713,"123 WEST 3RD STREET","WEST ISLIP","NY","11795"
39714,"123 WEST 77TH STREET 4A","NEW YORK","NY","10024"
39715,"123 WEST CAMPBELLTON STREET SUITE 2","FAIRBURN","GA","30213"
39716,"123 WEST LIBERTY ROAD","SYKESVILLE","MD","21784"
39717,"123 WEST MAIN-SUITE 120B","GRAND PRAIRIE","TX","75050"
39718,"123 WEST MILLS - SUITE 111","EL PASO","TX","79901"
39719,"123 WEST NYE LANE SUITE 129","CARSON CITY","NV","89706"
39720,"123 WEST RUTH STREET","MANKATO","MN","56001"
39721,"123 WEST SHERIDAN AVENUE","NEW CASTLE","PA","16105"
39722,"123 WEST SYCAMORE STREET","WAYLAND","MI","49348"
39723,"123 WEST WARREN ST","BUNKER HILL","IL","62014"
39724,"123 WEST WATER STREET","DECORAH","IA","52101"
39725,"123 WEST WATER STREET","SLIPPERY ROCK","PA","16057"
39726,"123 WESTBOURNE CT","RADCLIFF","KY","40160"
39727,"123 WHITCOMB AVE","LITTLETON","MA","01460"
39728,"123 WILSON CREEK STE 39","MCKINNEY","TX","75069"
39729,"123 WINDJAMMER LANE","GROVER","MO","63040"
39730,"123 WOODLAWN AVE","JERSEY CITY","NJ","07305"
39731,"123 WOODSBROOK PLACE","MADISON","AL","35756"
39732,"123 WORLEY DRIVE","MADISON HEIGHTS","VA","24572"
39733,"123 YOUNG STREET","HENDERSON","NC","27536"
39734,"123-19 GRAYSON STREET","SPRINGFIELD GARDENS","NY","11413"
39735,"123-A HIGHWAY 80 EAST","CLINTON","MS","39056"
39736,"123","CINCINNATI","OH","45246"
39737,"123","MARS","PA","16046"
39738,"123","NEWTON FALLS","OH","44444"
39739,"123","RAHWAY","NJ","07065"
39740,"1230  LOMA VISTA STREET","POMONA","CA","91768"
39741,"1230 12TH ST","DES MOINES","IA","50314"
39742,"1230 29TH STREET","WEST DES MOINES","IA","50266"
39743,"1230 46TH ST","BROOKLYN","NY","11219"
39744,"1230 ADAMS ROAD","WALDORF","MD","20602"
39745,"1230 AMELIA ST","ORANGEBURG","SC","29115"
39746,"1230 ANGIE ST","NEW IBERIA","LA","70560"
39747,"1230 BEACH ST","FAR ROCKAWAY","NY","11619"
39748,"1230 BEVERLY DRIVE","ATHENS","GA","20606"
39749,"1230 BRACE ROAD","CHERRY HILL","NJ","08034"
39750,"1230 COLTS PRIDE DRIVE","FAYETTEVILLE","NC","28312"
39751,"1230 COLUMBIA AVENUE","IRMO","SC","29063"
39752,"1230 DAVIS ST","SULPHUR SPRINGS","TX","75482"
39753,"1230 DOTSON RD","HENRICO","VA","23231"
39754,"1230 DR MARTIN LUTHER KING JR BLVD","ST PETERSBURG","FL","33705"
39755,"1230 E 75TH STREET","LOS ANGELES","CA","90001"
39756,"1230 E BROADWAY","GLENDALE","CA","91205"
39757,"1230 E MAIN STREET","OMRO","WI","54963"
39758,"1230 EAST TREMONT AVENUE APT 4E","BRONX","NY","10460"
39759,"1230 ELIZABETH AVENUE","TARRANT","AL","35217"
39760,"1230 ELMWOOD AVE - SUITE 4","PROVIDENCE","RI","02907"
39761,"1230 FALL CREEK RD","LINCOLN","NE","68510"
39762,"1230 FM 1960 BYPASS RD E APT 513","HUMBLE","TX","77388"
39763,"1230 GARBER STREET","RICHMOND","VA","23231"
39764,"1230 GLENBURNIE LANE","DRESHER","PA","19025"
39765,"1230 GREENFIELD DRIVE","ERIE","PA","16509"
39766,"1230 HAMILTON","PAMPA","TX","79065"
39767,"1230 HAMPTON BLVD SUITE 13","NORTH LAUDERDALE","FL","33068"
39768,"1230 HARLEY RUN DR","BLACKLICK","OH","43004"
39769,"1230 HARPER AVENUE","WOODLYN","PA","19094"
39770,"1230 HIGHWAY 20","TONASKET","WA","98855"
39771,"1230 HILLCREST DR","SOUTH BEND","IN","46617"
39772,"1230 HOLLYRIDGE TRAIL","MAITLAND","FL","32751"
39773,"1230 KNOX AVENUE NORTH","MINNEAPOLIS","MN","55411"
39774,"1230 LAKE JACKSON ROAD","GLEN ALLAN","MS","38744"
39775,"1230 LONG POND ROAD","ROCHESTER","NY","14626"
39776,"1230 LUROSE DR","CROWLEY","LA","70526"
39777,"1230 LYNBROOK DR","CHARLOTTE","NC","28211"
39778,"1230 MADERA ROAD SUITE 5-288","SIMI VALLEY","CA","93065"
39779,"1230 MIGHTY OAK LN UNIT B","REDDING","CA","96002"
39780,"1230 MONTEVALLO RD","LEEDS","AL","35094"
39781,"1230 N SCENIC HWY","LAKE WALES","FL","33853"
39782,"1230 NE STAIR WAY","ESTACADA","OR","97023"
39783,"1230 NELSON AVE","BRONX","NY","10452"
39784,"1230 NORTH INDIANA AVENUE  STE  210","ATLANTIC CITY","NJ","08401"
39785,"1230 NORTHOVER DRIVE","BLOOMFIELD HILLS","MI","48304"
39786,"1230 NW 133 AVE","SUNRISE","FL","33323"
39787,"1230 OKLAHOMA PLAZA","ADA","OK","74820"
39788,"1230 PARK AVE","COLUMBIA","MS","39429"
39789,"1230 PEACHTREE ST NE 19TH FLOOR","ATLANTA","GA","30309"
39790,"1230 PEACHTREE ST NE FL 19","ATLANTA","GA","30309"
39791,"1230 PEACHTREE STREET NE SUITE 3100","ATLANTA","GA","30309"
39792,"1230 PEACHTREE STREET NE SUITE 900","ATLANTA","GA","30309"
39793,"1230 PONTIAC","DENVER","CO","80220"
39794,"1230 QUEEN AVENUE NORTH","MINNEAPOLIS","MN","55411"
39795,"1230 RAMBLEWOOD DRIVE","ANNAPOLIS","MD","21409"
39796,"1230 RAYMOND RD 600","JACKSON","MS","39204"
39797,"1230 RIVER BEND DR 160","DALLAS","TX","75247"
39798,"1230 ROSECRANS AVE STE 300","MANHATTAN BEACH","CA","90266"
39799,"1230 ROSECRANS AVE SUITE 300","MANHATTAN BEACH","CA","90266"
39800,"1230 ROSECRANS AVENUE SUITE 650","MANHATTAN BEACH","CA","90266"
39801,"1230 S DELAWARE AVE","OKMULGEE","OK","74447"
39802,"1230 S HURSTBOURNE PKWY     STE 100","LOUISVILLE","KY","40222"
39803,"1230 S MAIN ST","CORONA","CA","92882"
39804,"1230 S MAIN STREET","ST CHARLES","MO","63301"
39805,"1230 S NOB HILL ROAD","DAVIE","FL","33324"
39806,"1230 S PARKER REOAD SUITE 207","DENVER","CO","80231"
39807,"1230 SCOTLAND BEND","WATKINSVILLE","GA","30677"
39808,"1230 SE BISHOP BLVD","PULLMAN","WA","99163"
39809,"1230 SELBY AVE","ST. PAUL","MN","55104"
39810,"1230 SEVEN HILLS CURVE","MOBILE","AL","36695"
39811,"1230 SHERIDAN AVENUE 2I","BRONX","NY","10456"
39812,"1230 SHERIDAN AVENUE APT 2I","BRONX","NY","10456"
39813,"1230 SOUTH 61ST STREET","WEST ALLIS","WI","53214"
39814,"1230 SOUTH HURSTBOURNE LANE","LOUISVILLE","KY","40222"
39815,"1230 SOUTH PARKER ROAD STE 207","DENVER","CO","80231"
39816,"1230 SOUTHERN AVENUE APT 101","WASHINGTON","DC","20032"
39817,"1230 STEWART ROAD","SACRAMENTO","CA","95864"
39818,"1230 SUNNYVIEW AVENUE","DAYTON","OH","45406"
39819,"1230 SW 127 CT","MIAMI","FL","33184"
39820,"1230 TAYLORSVILLE-MACEDONIA ROAD","TAYLORSVILLE","GA","30178"
39821,"1230 THEODORA STREET","ELMONT","NY","11003"
39822,"1230 UPTON COURT SOUTH","ST PETERSBURG","FL","33712"
39823,"1230 W 41ST ST","LOS ANGELES","CA","90037"
39824,"1230 W BRYN MAWR AVENUE","CHICAGO","IL","60660"
39825,"1230 W FRANCISCAN DR","EAGLE","ID","83616"
39826,"1230 W MOREHEAD ST  STE 207","CHARLOTTE","NC","28208"
39827,"1230 W POPLAR AVE","COLLIERVILLE","TN","38017"
39828,"1230 WARRIOR LANE","WAUKE","IA","50263"
39829,"1230 WEBSTER AVENUE","BRONX","NY","10456"
39830,"1230 WEST 68 ST","LOS ANGELES","CA","90044"
39831,"1230 WEST 68 STREET","LOS ANGELES","CA","90044"
39832,"1230 WEST 84TH PLACE","LOS ANGELES","CA","90044"
39833,"1230 WEST MOREHEAD SUITE 202A","CHARLOTTE","NC","28208"
39834,"1230 WINDSOR AVE","RICHMOND","VA","23227"
39835,"1230 YUKON DR","GLENN HEIGHTS","TX","75154"
39836,"12300 DENHOLM DR","EL MONTE","CA","91732"
39837,"12300 FORD ROAD SUITE B430","DALLAS","TX","75234"
39838,"12300 FRISCO ST","FRISCO","TX","75033"
39839,"12300 FRISCO STREET","FRISCO","TX","75033"
39840,"12300 INWOOD ROAD SUITE 110","DALLAS","TX","75244"
39841,"12300 JUSTICE PLACE","GLENN DALE","MD","20769"
39842,"12300 N BRENTFIELD APT 1","DUNLAP","IL","61525"
39843,"12300 PERRY HIGHWAY SUITE 100","WEXFORD","PA","15090"
39844,"12300 REXFORD AVENUE","CLEVELAND","OH","44105"
39845,"12300 SHERMAN WAY","NORTH HOLLYWOOD","CA","91605"
39846,"12300 SKIPPER DRIVE","FRISCO","TX","75035"
39847,"12300 SW 283 STREET UNIT A","HOMESTEAD","FL","33033"
39848,"12300 TWINBROOK PARKWAY SUITE 350","ROCKVILLE","MD","20852"
39849,"12300 VILLAGE SQUARE TER SUITE 302","ROCKVILLE","MD","20852"
39850,"12300 W DAKOTA AVE STE 340","LAKEWOOD","CO","80228"
39851,"12301 AMARANTH DRIVE","NORTH LITTLE ROCK","AR","72117"
39852,"12301 BRUNSON RD","HOAGLAND","IN","46745"
39853,"12301 ELENA DR NE","ALBUQUERQUE","NM","87122"
39854,"12301 ELLABERRY LN","GLEN ALLEN","VA","23059"
39855,"12301 FALLS RD","POTOMAC","MD","20854"
39856,"12301 HWY 57","VANCLEAVE","MS","39565"
39857,"12301 LAKE UNDERHILL ROAD SUITE 245","ORLANDO","FL","32828"
39858,"12301 NW 21ST AVE","VANCOUVER","WA","98685"
39859,"12301 ORLOFF DRIVE","RHOME","TX","76078"
39860,"12301 PINEWOOD HWY","PINEWOOD","SC","29125"
39861,"12301 SE 119TH ST","OKC","OK","73165"
39862,"12301 SPOTSWOOD FURNACE ROAD","FREDERICKSBURG","VA","22407"
39863,"12301 VISTA LN","PINECREST","FL","33156"
39864,"12301 WHITEWATER DRIVE   SUITE 10","MINNETONKA","MN","55343"
39865,"12302 COULSON","HOUSTON","TX","77015"
39866,"12302 CROWN HILL LANE","BURNSVILLE","MN","55337"
39867,"12302 KINSMAN RD","CLEVELAND","OH","44120"
39868,"12302 LEETOWN ROAD","KEARNEYSVILLE","WV","25430"
39869,"12302 LOREZ DR","MORENO VALLEY","CA","92557"
39870,"12302 NW 25TH ST","CORAL SPRINGS","FL","33065"
39871,"12302 SUMMER BREEZE COURT","CHARLOTTE","NC","28277"
39872,"12303 CAROLA FOREST","HOUSTON","TX","77044"
39873,"12303 GRAND PORTAGE LN","HUMBLE","TX","77346"
39874,"12303 LONGWORTH","HOUSTON","TX","77024"
39875,"12303 SERENITY FARM","SAN ANTONIO","TX","78249"
39876,"12303 WEST LINCOLN LANE","SPOKANE","WA","99224"
39877,"12304 BAYMEADOW CT","PEARLAND","TX","77584"
39878,"12304 FIRTH OF TAE DR","FORT WASHINGTON","MD","20744"
39879,"12304 LANHAM SEVERN ROAD","BOWIE","MD","20720"
39880,"12304 MICHAELSFORD ROAD","HUNT VALLEY","MD","21030"
39881,"12304 N 1900TH STREET","MARSHALL","IL","62441"
39882,"12304 PALMER DRIVE","MOORPARK","CA","93021"
39883,"12304 SANDY ROCK STREET","CERRITOS","CA","90703"
39884,"12304 SEA PEARL COURT","LAUREL","MD","20708"
39885,"12304 W SOUTHERN AVE","AVONDALE","AZ","85323"
39886,"12305 INDIANA","DETROIT","MI","48204"
39887,"12305 JARROW LANE","BRISTOW","VA","20136"
39888,"12305 MAJESTIC VIEW LANE","CLAYTON","NY","13624"
39889,"12305 MALVERN WAY","BRISTOW","VA","20136"
39890,"12305 MUELLER LANE","SPOTSYLVANIA","VA","22551"
39891,"12305 MUELLER LANE","WOODBRIDGE","VA","22193"
39892,"12305 N WAYNE AVE","KANSAS CITY","MO","64165"
39893,"12305 SALIDA DEL SOL PASS","AUSTIN","TX","78732"
39894,"12305 TANTALLON COURT","PINEVILLE","NC","28134"
39895,"12305 YORK AVE UNIT A","HAWTHORNE","CA","90250"
39896,"12306 COUNTY ROAD 30","REEDS","MO","64859"
39897,"12306 JOHNS PURCHASE COURT","CYPRESS","TX","77433"
39898,"12306 N 27TH ST","TAMPA","FL","33612"
39899,"12306 QUAIL OAK COURT","ASHLAND","VA","23005"
39900,"12306 W 128TH ST","OVERLAND PARK","KS","66213"
39901,"12307 DUCKS LANDING","FRISCO","TX","75033"
39902,"12307 HONEYWOOD TRAIL","HOUSTON","TX","77077"
39903,"12307 KELLY LANE","THONOTOSASSA","FL","33592"
39904,"12307 NE 59TH CT","VANCOUVER","WA","98686"
39905,"12307 PINE BROOK DR","STAFFORD","TX","77477"
39906,"12307 SYCAMORE ST","VICTORVILLE","CA","92392"
39907,"12307 W VILLAGE DR UNIT D","HOUSTON","TX","77039"
39908,"12308 BELLA VINO DR","FORT WORTH","TX","76126"
39909,"12308 CARMEL HILL LN","PEARLAND","UM","77584"
39910,"12308 SE 314TH PL","AUBURN","WA","98092"
39911,"12308","HAMTRAMCK","MI","48212"
39912,"12309 ELGERS STREET","CERRITOS","CA","90703"
39913,"12309 GATLING GUN LN","AUSTIN","TX","78739"
39914,"12309 HIGH DRIVE","LEAWOOD","KS","66209"
39915,"12309 MUSTANG TRAIL WAY","HERRIMAN","UT","84096"
39916,"12309 OLD BIG BEND ROAD","KIRKWOOD","MO","63122"
39917,"12309 TREETOP DR APT 31","SILVER SPRING","MD","20904"
39918,"1231 24TH ST","HERMOSA BEACH","CA","90254"
39919,"1231 B GOOD HOPE ROAD SE","WASHINGTON","DC","20020"
39920,"1231 BAY ST","STATEN ISLAND","NY","10305"
39921,"1231 BEDFORD AVE","BROOKLYN","NY","11216"
39922,"1231 BOYDEN PLACE NW","CONCORD","NC","28027"
39923,"1231 BUTTONWOOD ST","PHILADELPHIA","PA","19023"
39924,"1231 COLLIER RD NW - SUIT O","ATLANTA","GA","30318"
39925,"1231 COLLIER ROAD NW STE J","ATLANTA","GA","30318"
39926,"1231 COLLIER ROAD STE J","ATLANTA","GA","30318"
39927,"1231 DRUID PLACE NE","ATLANTA","GA","30307"
39928,"1231 E FRY BLVD","SIERRA VISTA","AZ","85635"
39929,"1231 E HIGHWAY 22","CRESTWOOD","KY","40014"
39930,"1231 E ROSEMONTE DR","PHOENIX","AZ","85024"
39931,"1231 E WALNUT ST","GALION","OH","44833"
39932,"1231 EMRICK ROAD","ARCANUM","OH","45304"
39933,"1231 FALLS GROVE LN","YORK","PA","17404"
39934,"1231 FERRY ROAD","NISKAYUNA","NY","12309"
39935,"1231 FRANZ STREET SE","LACEY","WA","98503"
39936,"1231 GOOD HOPE ROAD SE","WASHINGTON","DC","20020"
39937,"1231 HIGHPOINT LN","WAUKESHA","WI","53189"
39938,"1231 JACKSON STREET","PORT TOWNSEND","WA","98368"
39939,"1231 JANES LN","COLORADO SPRINGS","CO","80909"
39940,"1231 LAFAYETTE AVE - 2ND FLOOR","BRONX","NY","10474"
39941,"1231 LANTANA ESTATES CT","FRESNO","TX","77545"
39942,"1231 MAIN ST","FERNDALE","CA","95537"
39943,"1231 MERRITT STREET","ALTAMONTE SPRS","FL","32701"
39944,"1231 N CHESTNUT","ARLINGTON","IL","60004"
39945,"1231 N LAKE WAY","PALM BEACH","FL","33480"
39946,"1231 N MANASSAS ST","MEMPHIS","TN","38107"
39947,"1231 N YAKIMA AVE","TACOMA","WA","98403"
39948,"1231 NORTH AVENUE","SHEBOYGAN","WI","53083"
39949,"1231 NORTH BROAD STREET","PHILADELPHIA","PA","19122"
39950,"1231 NORTH MAIN STREET","HENDERSONVILLE","NC","28792"
39951,"1231 OAKVIEW RD","DECATUR","GA","30030"
39952,"1231 OCEAN AVE","VALLEY STREAM","NY","11580"
39953,"1231 PROVIDENCE PASS","PLAINFIELD","IN","46168"
39954,"1231 S 50TH AVE  APT 10","WAUSAU","WI","54401"
39955,"1231 SAINT ANDREW STREET","NEW ORLEANS","LA","70130"
39956,"1231 SO 76TH ST","TACOMA","WA","98408"
39957,"1231 SOUTH 18TH STREET","PHILADELPHIA","PA","19146"
39958,"1231 STOCKTON DRIVE","CLEARWATER","FL","33705"
39959,"1231 SUSAN AVENUE","WOODSTOCK","VA","22664"
39960,"1231 SW CROST AVE","PORT ST LUCIE","FL","34953"
39961,"1231 THANKFUL RD","MADISON","GA","30650"
39962,"1231 THIRD STREET","MONTEREY","CA","93940"
39963,"1231 THOMPSON AVE","GLENDALE","CA","91201"
39964,"1231 W 13TH ST","RIVIERA BEACH","FL","33404"
39965,"1231 W 82ND ST","LOS ANGELES","CA","90044"
39966,"1231 W E CALLAWAY RD","CLAXTON","GA","30417"
39967,"1231 W OAK GROVE ROAD","MONTROSE","CO","81403"
39968,"1231 WEST 56TH STREET","KANSAS CITY","MO","64113"
39969,"1231 WEST BLVD","CHESTERFIELD","SC","29709"
39970,"1231 WEST N ORTHERN LIGHTS BLVD 610","ANCHORAGE","AK","99503"
39971,"1231 WEST RIVIERA DRIVE","GILBERT","AZ","85233"
39972,"1231-B GOOD HOPE RD SE","WASHINGTON","DC","20020"
39973,"1231-B GOOD HOPE ROAD SOUTH EAST","WASHINGTON","DC","20020"
39974,"12310 AMANDA WAY","GULFPORT","MS","39503"
39975,"12310 BANDON DRIVE","COLORADO SPRINGS","CO","80921"
39976,"12310 BRECKENWOOD MILLS DRIVE","HUMBLE","TX","77346"
39977,"12310 MOUNTAIN PNE","SAN ANTONIO","TX","78254"
39978,"12310 SINGLETREE LN SUITE 2129","EDEN PRAIRIE","MN","55344"
39979,"12311 ASHLEY DRIVE","GULFPORT","MS","39503"
39980,"12311 CRAWFORD RD","OMAHA","NE","68144"
39981,"12311 CROSSWINDS DRIVE","LOUISVILLE","KY","40243"
39982,"12311 GRATIOT","DETROIT","MI","48205"
39983,"12311 GREENBRIER WAY","LAKEWOOD RANCH","FL","34202"
39984,"12311 KENSINGTON LAKES DR UNIT 1905","JACKSONVILLE","FL","32246"
39985,"12311 PLUMPOINT DR","HOUSTON","TX","77099"
39986,"12311 W BRADDOCK","BOISE","ID","83709"
39987,"12312 BELLEFONTAINE RD","ST LOUIS","MO","63137"
39988,"12312 SE 112TH AVENUE RD","BELLEVIEW","FL","34420"
39989,"12312 WHITE EAGLE DR","MANASSAS","VA","20112"
39990,"12313 EVENING BAY DRIVE","PEARLAND","TX","77584"
39991,"12313 HIDDEN FOREST BOULEVARD","OKLAHOMA CITY","OK","73142"
39992,"12313 N HELENA CT","SPOKANE","WA","99218"
39993,"12313 N NINE MILE ROAD","NINE MILE FALLS","WA","99026"
39994,"12313 RIVER VISTA DR","RIVERTON","UT","84065"
39995,"12313 RIVERGLEN DRIVE","RIVERVIEW","FM","33569"
39996,"12313 W VALENTINE AVE","EL MIRAGE","AZ","85335"
39997,"12314 BIG OAK RD","UNION","KY","41091"
39998,"12314 MADISON HILLS LANE","RIVERTON","UT","84065"
39999,"12314 S MADISON HILLS LANE","RIVERTON","UT","84065"
40000,"12314 WRIGHT OAKS DR","HOUSTON","TX","77014"
