"ID","Address","City","State","Zip"
161501,"302 WESTWIND WAY","HELENA","MT","59602"
161502,"302 WILKINS GLEN RD","MEDFIELD","MA","02052"
161503,"302 WILLIAM ST","TROY","AL","36081"
161504,"302 WILLOW LANE","NEW HOLLAND","PA","17557"
161505,"302 WILLOW RUN","EAST STROUDSBURG","PW","18301"
161506,"302 WILMER AVENUE","RICHMOND","VA","23227"
161507,"302 WILSON STREET","ERIE","PA","16507"
161508,"302 WIND RIDGE STREET","ASHEVILLE","NC","28806"
161509,"302 WINDSONG WAY","WOODSTOCK","GA","30188"
161510,"302 WINDWARD COVE COURT","GRASONVILLE","MD","21638"
161511,"302 WOODLAND AVENUE","SMITHVILLE","MO","64089"
161512,"302-304 HAWTHORNE AVENUE 201","POINT PLEASANT","NJ","08742"
161513,"302","PLEASANT HILL","LA","71065"
161514,"3020 125TH AVE SE UNIT 8","BELLEVUE","WA","98005"
161515,"3020 21 AVE","ST PETERSBURG","FL","33712"
161516,"3020 BARRIOS AVE","ORLANDO","FL","32811"
161517,"3020 BEAVER CREEK ROAD","LAUREL","MD","20724"
161518,"3020 BERNAL AVE SUITE 110 PMB 125","PLEASANTON","CA","94566"
161519,"3020 BRIGHTON BLUFF DRIVE","APEX","NC","27539"
161520,"3020 CANFIELD","DETROIT","MI","48207"
161521,"3020 CANNONADE DR","PENSACOLA","FL","32506"
161522,"3020 CARBON PLACE SUITE 200","BOULDER","CO","80301"
161523,"3020 CLEAR LAKE WAY STE B432","INDIANAPOLIS","IN","46227"
161524,"3020 COLERAIN AVE SUITE B","CINCINNATTI","OH","45225"
161525,"3020 CURRY RD","IMMOKALEE","FL","34143"
161526,"3020 EDINBURGH DRIVE","VIRGINIA BEACH","VA","23452"
161527,"3020 FAIRLAND DRIVE","HIGHLAND VILLAGE","TX","75077"
161528,"3020 FREEPORT BLVD","SACRAMENTO","CA","95818"
161529,"3020 GARNET DR","BATON ROUGE","LA","70805"
161530,"3020 GILLHAM ROAD APT 107","KANSAS CITY","MO","64108"
161531,"3020 GLASTONBURY DR","VIRGINIA BEACH","VA","23453"
161532,"3020 GRAMERCY CV","LAKELAND","TN","38002"
161533,"3020 HARTLEY ROAD STE 100-A","JACKSONVILLE","FL","32257"
161534,"3020 HARTLEY ROAD SUITE 300","JACKSONVILLE","FL","32257"
161535,"3020 HINSEL DR","COLUMBUS","OH","43232"
161536,"3020 HWY 55 W","KINSTON","NC","28504"
161537,"3020 I PROSPERITY CHURCH RD NUM 521","CHARLOTTE","NC","28269"
161538,"3020 I PROSPERITY CHURCH RD","CHARLOTTE","NC","28269"
161539,"3020 I PROSPERITY CHURCH ROAD /601","CHARLOTTE","NC","28269"
161540,"3020 IDLEWILD DR","RENO","NV","89509"
161541,"3020 INDIGO TRAIL","ROUND ROCK","TX","78665"
161542,"3020 ISSAQUAH-PINE LK RD PMB 222","SAMMAMISH","WA","98075"
161543,"3020 KADALA PL","FALLS CHURCH","VA","22042"
161544,"3020 LEEDS GARDEN LN","JOHNS CREEK","GA","30022"
161545,"3020 LIBERTY CIRCLE NORTH","LAS VEGAS","NV","89121"
161546,"3020 MAPLE DRIVE","REEDSPORT","OR","97467"
161547,"3020 MARTIN LUTHER KING JR AVE","KNOXVILLE","TN","37914"
161548,"3020 NORTHWEST LOOP","STEPHENVILLE","TX","76401"
161549,"3020 OCOTILLO CT","LAS VEGAS","NV","89121"
161550,"3020 OLD RANCH PARKWAY SUITE 300","SEAL BEACH","CA","90740"
161551,"3020 OLSON CIRCLE","BRYANT","AR","72022"
161552,"3020 PARK BLVD","ODESSA","TX","79763"
161553,"3020 PROSPERITY CHURCH RD SU 500","CHARLOTTE","NC","28269"
161554,"3020 PROSPERITY CHURCH RD SUITE 104","CHARLOTTE","NC","28269"
161555,"3020 PROSPERITY CHURCH ROAD 161","CHARLOTTE","NC","28269"
161556,"3020 PROSPERITY CHURCH ROAD I263","CHARLOTTE","NC","28269"
161557,"3020 PROSPERITY CHURCH ROAD","CHARLOTTE","NC","28269"
161558,"3020 REDEMEYER RD","UKIAH","CA","95482"
161559,"3020 RIDGE DR","TOANO","VA","23168"
161560,"3020 RINER RD","CHRISTIANSBURG","VA","24073"
161561,"3020 S MIAMI BLVD","DURHAM","NC","27703"
161562,"3020 S RUTHERFORD BLVD APT B2","MURFREESBORO","TN","37130"
161563,"3020 SOUTH MIAMI BLVD","DURHAM","NC","27703"
161564,"3020 SOUTH MIAMI BOULEVARD","DURHAM","NC","27713"
161565,"3020 SW 111 AVENUE","MIAMI","FM","33165"
161566,"3020 W 108TH ST","CHICAGO","IL","60655"
161567,"3020 W 69TH STREET","MISSION HILLS","KS","66208"
161568,"3020 W HARBOR VIEW AVE","TAMPA","FL","33611"
161569,"3020 W WILLOW KNOLLS ROAD","PEORIA,","IL","61614"
161570,"3020 WALL ST","FORESTPORT","NY","13338"
161571,"3020 WARDS FERRY RD","LYNCHBURG","VA","24502"
161572,"3020 WILSHIRE BLVD STE 100","LOS ANGELES","CA","90010"
161573,"3020 WILSON STREET","BAKER","LA","70714"
161574,"3020 WOODCREEK SUITE C2","DOWNERS GROVE","IL","60515"
161575,"30201 SW 172 AVE","MIAMI","FL","33030"
161576,"30203 GOODWICK WAY","WESLEY CHAPEL","FL","33543"
161577,"30205 ALGER BLVD","MADISON HEIGHTS","MI","48071"
161578,"30205 BRADMORE RD","WARREN","MI","48092"
161579,"30206 LOBLOLLY CR","SPANISH FORT","AL","36527"
161580,"30206 SCHLICHT RD","NETTLETON","MS","38858"
161581,"30206 W SHEILA LANE","BUCKEYE","AZ","85396"
161582,"30208 CRESTLINE DRIVE","BAY VILLAGE","OH","44140"
161583,"3021  SOUTH VALLEY VIEW   STE 209","LAS VEGAS","NV","89102"
161584,"3021 28TH STREET","SAN DIEGO","CA","92104"
161585,"3021 2ND ST APT 6","SANTA MONICA","CA","90405"
161586,"3021 7TH AVE S","MOUNTAIN BRK","AL","35213"
161587,"3021 AIRPORT-PULLING RD N STE 202","NAPLES","FL","34105"
161588,"3021 ANNA RD","ANNAPOLIS","MD","21403"
161589,"3021 BALES AVE","KANSAS CITY","MO","64128"
161590,"3021 BONNEVILLE DRIVE","MACON","GA","31204"
161591,"3021 CHELSEA PARK RIDGE","CHELSEA","AL","35043"
161592,"3021 CITRUS CIRCLE SUITE 110","WALNUT CREEK","CA","94598"
161593,"3021 COUNTRY CLUB HILLS DRIVE","NORTH AUGUSTA","SC","29860"
161594,"3021 DARROW STREET","MEMPHIS","TN","38118"
161595,"3021 DUMBARTON ROAD","MEMPHIS","TN","38128"
161596,"3021 E WAVERLY ST","TUCSON","AZ","85716"
161597,"3021 EDWARD MILLS ROAD 121-724","RALEIGH","NC","27612"
161598,"3021 ENSIGN AVE S","SAINT LOUIS PARK","MN","55426"
161599,"3021 FALLSTAFF ROAD UNIT 503","BALTIMORE","MD","21209"
161600,"3021 GILBOA RD","WINGATE","NC","28174"
161601,"3021 GRAND MISSION WAY","PFLUGERVILLE","TX","78660"
161602,"3021 HAMPSHIRE PIKE","MT PLEASANT","TN","38474"
161603,"3021 HEBRON DRIVE","PITTSBURGH","PA","15235"
161604,"3021 KUMQUAT DRIVE","EDGEWATER","FL","32141"
161605,"3021 MCNAUGHTON DR","COLUMBIA","SC","29223"
161606,"3021 MEMORIAL DRIVE","ATLANTA","GA","30317"
161607,"3021 MONROE AVENUE","KANSAS CITY","MO","64128"
161608,"3021 N GAIA PLACE","TUCSON","AZ","85745"
161609,"3021 N PEARY ST","ARLINGTON","VA","22207"
161610,"3021 NE 29TH","OKLAHOMA CITY","OK","73121"
161611,"3021 NE 72ND DR STE 9 PMB 148","VANCOUVER","WA","98661"
161612,"3021 NE 72ND DR STE 9-44","VANCOUVER","WA","98661"
161613,"3021 NE GLACIER WAY","CORVALLIS","OR","97330"
161614,"3021 NE QUIET CANYON DRIVE","BEND","OR","97701"
161615,"3021 NUTTING DR","DALLAS","TX","75227"
161616,"3021 OLD DOMINION COURT","FORT COLLINS","CO","80528"
161617,"3021 PICO BLVD SUITE B","SANTA MONICA","CA","90405"
161618,"3021 RED CEDAR LN UNIT 301","KISSIMMEE","FL","34744"
161619,"3021 RIDGE RD SUITE 283","ROCKWALL","TX","75032"
161620,"3021 RUE SANS FAMILLE","RALEIGH","NC","27607"
161621,"3021 S BYRON ST B","SEATTLE","WA","98144"
161622,"3021 S TRUEMPER ST BUILDING 16000","JBSA LACKLAND","TX","78243"
161623,"3021 SCOUT PONY DR","LEANDER","TX","78641"
161624,"3021 SHERMAN LINE RD","MAGNOLIA","MS","39652"
161625,"3021 ST MARIE STREET","MEREAUX","LA","70075"
161626,"3021 STATE ROAD 590 SUITE 201","CLEARWATER","FL","33759"
161627,"3021 SW BRADFORT STREET APT 318","SEATTLE","WA","98126"
161628,"3021 SW MEADOW RIDGE DRIVE","ANKENY","IA","50023"
161629,"3021 WASHINGTON RD","EAST POINT","GA","30344"
161630,"3021 WEST TOWER AVENUE","CINCINNATI","OH","45238"
161631,"3021 WOODCREEK WAY","BLOOMFIELD HILLS","MI","48304"
161632,"3021 WYECLIFF WAY","HIGHLANDS RANCH","CO","80126"
161633,"30210 CHERET PLACE","RANCHO PALOS VERDES","CA","90275"
161634,"30210 MESA VALLEY DR","SPRING","TX","77386"
161635,"30211 35TH AVE SW","FEDERAL WAY","WA","98023"
161636,"30213 VIA BORICA","RANCHO PALOS VERDES","CA","90275"
161637,"3022 47TH AVE SO","ST PETERSBURG FL","FL","33712"
161638,"3022 8TH STREET SE","WASHINGTON","DC","20032"
161639,"3022 AYLESWORTH COURT","KATY","TX","77494"
161640,"3022 CREEKBEND OVERLOOK","DOUGLAS","GA","30135"
161641,"3022 DISSTON ST","PHILADELPHIA","PA","19149"
161642,"3022 ELLIOTT STREET","SAN DIEGO","CA","92106"
161643,"3022 ELTHAM PLACE","DECATUR","GA","30033"
161644,"3022 EWINGDALE DRIVE","NASHVILLE","TN","37207"
161645,"3022 FLINTWOOD DRIVE","SUGAR LAND","TX","77479"
161646,"3022 FREEDOM DRIVE","CHARLOTTE","NC","28208"
161647,"3022 GRAY ST","HOUSTON","TX","77004"
161648,"3022 GRAY STREET","HOUSTON","TX","77004"
161649,"3022 HENDRICKS CHAPEL LANE","CHARLOTTE","NC","28216"
161650,"3022 HYDE PARK ST","SARASOTA","FL","34239"
161651,"3022 INDIANA AVE","KANSAS CITY","MO","64128"
161652,"3022 JULIP DR","KISSIMMEE","FL","34744"
161653,"3022 LAKE BUTLER CT","CAPE CORAL","FL","33909"
161654,"3022 MAJESTIC CIRCLE","AVONDALE ESTATES","GA","30002"
161655,"3022 MAPLELEAF AVENUE","CINCINNATI","OH","45213"
161656,"3022 MEADOWS LANE","MEMPHIS","TN","38118"
161657,"3022 N VAN BUREN","ENID","OK","73703"
161658,"3022 OAK CREST CIRCLE","EL PASO","TX","79936"
161659,"3022 OAK GROVE RD","HATTIESBURG","MS","39402"
161660,"3022 OLD HWY 52","STRAWBERRY","SC","29461"
161661,"3022 PANTHER CREEK DRIVE","SPRINGFIELD","IL","62711"
161662,"3022 ROSEMONT","SACRAMENTO","CA","95826"
161663,"3022 S MORGANS POINT ROAD SUITE 178","MOUNT PLEASANT","SC","29466"
161664,"3022 SEDAN DRIVE","SAINT LOUIS","MO","63125"
161665,"3022 SOUTH NOVA ROAD","PINE","CO","80470"
161666,"3022 STEINER AVE","SANTA MONICA","CA","90405"
161667,"3022 W CANTON PL","BROKEN ARROW","OK","74012"
161668,"3022 W SCOTT AVE","MCHENRY","IL","60050"
161669,"3022 WALNUT ST","GRAND FORKS","ND","58201"
161670,"30222 120TH STREET","STRATHCONA","MN","56759"
161671,"30222 BOWSPRIT WAY","MENIFEE","CA","92584"
161672,"30223 EMERSON CREEK DR","SPRING","TX","77386"
161673,"30223 LUIS REY HEIGHTS ROAD","BONSALL","CA","92033"
161674,"30225 8TH AVE SW","FEDERAL WAY","WA","98023"
161675,"30226 MATISSE DR","RANCHO PALOS VERDES","CA","90275"
161676,"30226 TROIS VALLEY ST","MURRIETA","CA","92563"
161677,"30226 VIEWCREST DRIVE","NOVI","MI","48377"
161678,"30228 MILITARY ROAD S","FEDERAL WAY","WA","98003"
161679,"3023 AVISHAN DR","PERRIS","CA","92571"
161680,"3023 BENT TREE LOOP","ROUND ROCK","TX","78681"
161681,"3023 BERKELEY AVE UNIT 2","SHERMAN OAKS","CA","91403"
161682,"3023 CANTON HILLS CT","MARIETTA","GA","30062"
161683,"3023 CARPENTERS PARK ROAD","DAVIDSVILLE","PA","15928"
161684,"3023 CHARLOTTE STREET","KANSAS CITY","MO","64109"
161685,"3023 CORTLAND","DETROIT","MI","48206"
161686,"3023 DAVENPORT AVENUE","SAGINAW","MI","48602"
161687,"3023 E PALM LANE","PHOENIX","AZ","85008"
161688,"3023 EAST 83RD","CHICAGO","IL","60617"
161689,"3023 HIDDEN PRAIRIE CIRCLE","EDMOND","OK","73013"
161690,"3023 JASMINE PARKWAY","ALPHARETTA","GA","30022"
161691,"3023 JFSB-BYU","PROVO","UT","84602"
161692,"3023 KELLEY ENG CENTER - OSU","CORVALLIS","OR","97331"
161693,"3023 KING ST","ALEXANDRIA","VA","22302"
161694,"3023 MADISON WAY","ANCHORAGE","AK","99508"
161695,"3023 MARTA CIR APT 203","KISSIMMEE","FL","34741"
161696,"3023 MEADOWBROOK DR SE","CEDAR RAPIDS","IA","52403"
161697,"3023 MEMORY LANE","CASTLE HAYNE","NC","28429"
161698,"3023 MOONBEAM CIR N","COLORADO SPRINGS","CO","80916"
161699,"3023 NE 11TH TERRACE","GAINESVILLE","FL","32609"
161700,"3023 NORTHWEST AVE","BELLINGHAM","WA","98225"
161701,"3023 NW 128 RD","GAINESVILLE","FL","32609"
161702,"3023 PILLSBURY AVE S","MINNEAPOLIS","MN","55408"
161703,"3023 POLK STREET","HOUSTON","TX","77003"
161704,"3023 ROLLINGRIDGE RD","NAPERVILE","IL","60564"
161705,"3023 S UNIVERSITY DRIVE 103","FORT WORTH","TX","76109"
161706,"3023 SHEPPARD MILL ROAD","SANDY RIDGE","NC","27046"
161707,"3023 SHORE DR","MERRICK","NY","11566"
161708,"3023 SILVER CHARM CIRCLE","SUFFOLK","VA","23435"
161709,"3023 SPICE BUSH RD","LAUREL","MD","20724"
161710,"3023 SPICE","LAUREL","MD","20724"
161711,"3023 SW 156TH PLACE","MIAMI","FL","33185"
161712,"3023 TANAGRINE DR","NORTH LAS VEGAS","NV","89084"
161713,"3023 TOWERMILL LANE","ORANGE PARK","FL","32073"
161714,"3023 W 76TH ST","LOS ANGELES","CA","90043"
161715,"3023 WALNUT LANE","WALDORF","MD","20601"
161716,"30230 TREEVIEW STREET","HAYWARD","CA","94544"
161717,"30233 MATTHEW ST","WESTLAND","MI","48186"
161718,"30238 TUDOR WAY","MAGNOLIA","TX","77355"
161719,"3024 139TH PLACE SE","MILL CREEK","WA","98012"
161720,"3024 31ST LN NE","LACEY","WA","98516"
161721,"3024 68TH AVENUE","GREELY","CO","80634"
161722,"3024 6TH ST","BOULDER","CO","80304"
161723,"3024 ASPEN DRIVE","SANTA CLARA","CA","95051"
161724,"3024 AVE","BROOKLYN","NY","11210"
161725,"3024 BRIGHTON CT","CONYERS","GA","30094"
161726,"3024 E CHAPMAN AVE 127","ORANGE","CA","92869"
161727,"3024 E CHAPMAN AVENUE 211","ORANGE","CA","92869"
161728,"3024 E LAFAYETTE","DETROIT","MI","48207"
161729,"3024 GRIBBLE RD","MATTHEWS","NC","28104"
161730,"3024 JANE LANE","HILLIARD","FL","32046"
161731,"3024 JEAN LAFITTE PARKWAY","CHALMETTE","LA","70043"
161732,"3024 JEFFREY LN","MIDLAND","MI","48640"
161733,"3024 KINGSBRIDGE AVE APT 4AN","BRONX","NY","10463"
161734,"3024 MADDIE CT","LEWIS CENTER","OH","43035"
161735,"3024 MELVILLE STREET","COLUMBUS","OH","43219"
161736,"3024 N 58TH ST","MILWAUKEE","WI","53210"
161737,"3024 NASH PLACE SE","WASHINGTON","DC","20020"
161738,"3024 NE 132ND TERRACE","SMITHVILLE","MO","64089"
161739,"3024 NE 15TH ST APT A24","RENTON","WA","98056"
161740,"3024 NW 2ND AVE","CAMAS","WA","98607"
161741,"3024 OAK CREST DR","ROYSE CITY","TX","75189"
161742,"3024 OAK CREST DRIVE","ROYSE CITY","TX","75189"
161743,"3024 OAKCREST DR","ROYSE CITY","TX","75189"
161744,"3024 SANDY BLUFF PLACE","RICHMOND","VA","23233"
161745,"3024 SHORT ST","NEW ORLEANS","LA","70125"
161746,"3024 SPRING CREEK ROAD APT 7","GREENVILLE","NC","27834"
161747,"3024 SW 339TH ST","FEDERAL WAY","WA","98023"
161748,"3024 W SHAW BUTTE DRIVE","PHOENIX","AZ","85029"
161749,"3024 WESTFORK DRIVE SUITE B","BATON ROUGE","LA","70816"
161750,"3024 WHITNEY AVENUE","MEMPHIS","TN","38128"
161751,"3024 WYCLIIFF SE","GRAND RAPIDS","MI","49546"
161752,"30240 COUNTY ROAD 22","ELKHART","IN","46517"
161753,"30245 MIRA LOMA DRIVE","TEMECULA","CA","92592"
161754,"30248 LIBERTY ROAD","NETTLETON","MS","38858"
161755,"30248 SOUTHFIELD RD SUITE 281","SOUTHFIELD","MI","48076"
161756,"3025 2ND STREET APT 6","SANTA MONICA","CA","90405"
161757,"3025 54TH AVENUE NORTH","BIRMINGHAM","AL","35207"
161758,"3025 5TH STREET","VOORHEES","NJ","08043"
161759,"3025 87TH PLACE APT 107","PINELLAS PARK","FL","33782"
161760,"3025 ALBION RD","CLEVELAND","OH","44120"
161761,"3025 ALCOTT RD","RICHMOND","VA","23237"
161762,"3025 BLUE JAY LANE","MIDLOTHIAN","TX","76065"
161763,"3025 BULL ST","SAVANNAH","GA","31405"
161764,"3025 BULL STREET","SAVANNAH","GA","31405"
161765,"3025 BURLINGAME ST","DETROIT","MI","48206"
161766,"3025 CAYCE ROAD","BYHALIA","MS","38611"
161767,"3025 CHIPPEWA AVE","ST LOUIS","MO","63118"
161768,"3025 COUNTRY CLUB DRIVE","PEARLAND","TX","77581"
161769,"3025 E ROSE GARDEN LN","PHOENIX","AZ","85050"
161770,"3025 FOREST HILL AVE","RICHMOND","VA","23225"
161771,"3025 GOVERNORS PLACE BLVD","DAYTON","OH","45409"
161772,"3025 HEGGS ROAD","AURORA","IL","60503"
161773,"3025 HIGHLAND RIDGE WAY","WORLAND","WY","82401"
161774,"3025 HIGHWAY 90","BRONSTON","KY","42518"
161775,"3025 HOWARD AVE","RIFLE","CO","81650"
161776,"3025 INVERMERE WOODS COURT","LITHONIA","GA","30038"
161777,"3025 IREDELL DRIVE","CHARLOTTE","NC","28269"
161778,"3025 KIBBY ROAD","JACKSON","MI","49203"
161779,"3025 LIVINGSTON TRAIL","HOOVER","AL","35213"
161780,"3025 LOMBARD AVE","EVERETT","WA","98201"
161781,"3025 MADAME PLANTIER AVE","NORTH LAS VEGAS","NV","89081"
161782,"3025 NORTH CALIFORNIA AVENUE","CHICAGO","IL","60618"
161783,"3025 NORTH STREET","MORGANTOWN","PA","19543"
161784,"3025 NORTHMOR DR W","ADRIAN","MI","49221"
161785,"3025 ORBIT CIRCLE","ELLENWOOD","GA","30294"
161786,"3025 PARK WEST BLVD","MT PLEASANT","SC","29466"
161787,"3025 PARKVIEW DRIVE","PACIFIC","MO","63069"
161788,"3025 REID AVENUE","CULVER","CA","90232"
161789,"3025 S ROSEWOOD AVE","SANTA ANA","CA","92707"
161790,"3025 SHOALS ROAD","PINNACLE","NC","27043"
161791,"3025 SOUTH 1100 EAST","SALT LAKE CITY","UT","84106"
161792,"3025 SOUTH AVE","YOUNGSTOWN","OH","44502"
161793,"3025 SOUTH THAYER AVENUE","SPRINGFIELD","IL","62704"
161794,"3025 STANFORD DRIVE","PLANO","TX","75075"
161795,"3025 STARR AVENUE","OREGON","OH","43616"
161796,"3025 STATE ST NW PO BOX 109","GREENTOWN","OH","44630"
161797,"3025 STRAND ROAD","DULUTH","MN","55804"
161798,"3025 SUTHERLANDV AVE","INDIANAPOLIS","IN","46205"
161799,"3025 W GRAN PARADISO DR","PHOENIX","AZ","85086"
161800,"30250 BRADLEY ROAD","MENIFEE","CA","92584"
161801,"30250 CHEVAL ST","MOUNT DORA","FL","32757"
161802,"30250 CHUALAR CANYON RD","CHUALAR","CA","93925"
161803,"30251 GOLDEN LANTERN E367","LAGUNA NIGUEL","CA","92677"
161804,"30251 GOLDEN LANTERN","LAGUNA NIGUEL","CA","92677"
161805,"30252 SENECA TRL","VALLEY HEAD","WV","26294"
161806,"30257 WCR 1230 RD","STIGLER","OK","74462"
161807,"30258 CENTRAL GROVE ROAD","NETTLETON","MS","38858"
161808,"3026 44TH ST E","TACOMA","WA","98443"
161809,"3026 56TH STREET","LUBBOCK","TX","79413"
161810,"3026 COLONEL SPRINGS WAY","FORT MILL","SC","29708"
161811,"3026 CRESTVIEW LANE","LANCASTER","SC","29720"
161812,"3026 FRANCISCAN DR APT 1323","ARLINGTON","TX","76015"
161813,"3026 GOODNEWS STREET","NORTH POLE","AK","99705"
161814,"3026 MARSHALL WAY","SACRAMENTO","CA","95817"
161815,"3026 N HALSTED ST APT GA","CHICAGO","IL","60657"
161816,"3026 NW 83RD PLACE","ANKENY","IA","50023"
161817,"3026 PIONEER ST","FORT WORTH","TX","76119"
161818,"3026 SEAMON AVENUE","BALTIMORE","MD","21225"
161819,"3026 SHADYBROOK LANE","NEW ALBANY","IN","47150"
161820,"3026 SUNNYBROOK STREET","SHREVEPORT","LA","71108"
161821,"3026 WILLOW OAK DR","KNOXVILLE","TN","37909"
161822,"30260 126TH STREET","PRINCETON","MN","55371"
161823,"30260 MT  VERNON RD UNIT 6","PRINCESS ANNE","MD","21853"
161824,"30262 CROWN VALLEY PKY","LAGUNA NIGUEL","CA","92677"
161825,"3027 23RD AVE S UNIT D","FARGO","ND","58103"
161826,"3027 BAYSHORE DRIVE","BACLIFF","TX","77518"
161827,"3027 BELLINGHAM WAY","LITHIA SPRINGS","GA","30122"
161828,"3027 CABERNET DRIVE","HELENA","MT","59601"
161829,"3027 DAISY COURT","GASTONIA","NC","28052"
161830,"3027 DULUTH ST","MAPLEWOOD","MN","55109"
161831,"3027 FALLS DR","DALLAS","TN","75211"
161832,"3027 HIGHBURY TRL SW","ATLANTA","GA","30354"
161833,"3027 HUBBARD ROAD","LANDOVER","MD","20785"
161834,"3027 MEMORIAL DR SE","ATLANTA","GA","30317"
161835,"3027 N 22ND ST","PHILADELPHIA","PA","19132"
161836,"3027 PECANWOOD DR","MANHATTAN","KS","66502"
161837,"3027 PIKE DR","RIVA","MD","21140"
161838,"3027 REMINGTON DRIVE","WILMINGTON","NC","28405"
161839,"3027 ROCKY HILL DEDEAUX RD","KILN","MS","39556"
161840,"3027 SE MAIN ST","PORTLAND","OR","97214"
161841,"3027 SEAVIEW CASTLE DR","KISSIMMEE","FL","34746"
161842,"3027 WATKINS WILKINSON ROAD","OXFORD","VA","27565"
161843,"3027 WESTFEILD ROAD","CHARLOTTE","NC","28209"
161844,"3027 WESTWOOD MANOR LANE","HOUSTON","TX","77047"
161845,"3027 WRANGLE HILL RD","BEAR","DE","19701"
161846,"30271 TIMBERIDGE CIR APT 301","FARMINGTON HILLS","MI","48336"
161847,"3028 14TH AVE NW","GIG HARBOR","WA","98335"
161848,"3028 17TH ST","HOPKINS","MI","49328"
161849,"3028 40TH AVENUE SOUTH","ST PETERSBURG","FL","33712"
161850,"3028 92ND PL NE","CLYDE HILL","WA","98004"
161851,"3028 CLARKSVILLE ST","PARIS","TX","75460"
161852,"3028 HANLON AVE","BALTIMORE","MD","21216"
161853,"3028 HIGH PLAINS DRIVE","KATY","TX","77449"
161854,"3028 HOPEWELL CHURCH ROAD","KINARDS","SC","29355"
161855,"3028 MITCHELLEVILLE RD STE104","BOWIE","MD","20716"
161856,"3028 MORNINGTON DRIVE NW","ATLANTA","GA","30327"
161857,"3028 N AVENIDA REPUBLICA DE CUBA","TAMPA","FL","33605"
161858,"3028 POWHATTAN","TOLEDO","OH","43606"
161859,"3028 RAVINE GAP DR","SUFFOLK","VA","23434"
161860,"3028 TWIN LAKES DRIVE","MATTHEWS","NC","28104"
161861,"3028 WEST VIA CORONA","MONTEBELLO","CA","90640"
161862,"30288 S WALL ST","COLTON","OR","97017"
161863,"3029 BENT TREE LOOP","ROUND ROCK","TX","78681"
161864,"3029 CHESTNUT RD","LINCOLNTON","NC","28092"
161865,"3029 CLINTON STREET NE","WASHINGTON","DC","20018"
161866,"3029 DUBARRY LANE","BROOKEVILLE","MD","20833"
161867,"3029 E MISSIONWOOD CIRCLE","MIRAMAR","FL","33025"
161868,"3029 E PERIMETER RD","JOINT BASE ANDREWS","MD","20762"
161869,"3029 ELDERBERRY CT","ASHEBORO","NC","27205"
161870,"3029 FLEMING AVENUE","LOUISVILLE","KY","40206"
161871,"3029 GARFIELD","COSTA MESA","CA","92626"
161872,"3029 LAKEFIELD DRIVE","LITTLE ELM","TX","75068"
161873,"3029 MELROSE AVE","CAPE GIRARDEAU","MO","63701"
161874,"3029 N E 188TH STREET APT 1107","AVENTURA","FL","33180"
161875,"3029 NE 188TH STREET APT 1124","AVENTURA","FL","33180"
161876,"3029 OLD FOREST ROAD","LYNCHBURG","VA","24501"
161877,"3029 S LOWE AVE","CHICAGO","IL","60616"
161878,"3029 SYLVAN DRIVE","FALLS CHURCH","VA","22042"
161879,"3029 TEAKWOOD LANE","HERRIN","MD","62948"
161880,"3029 VINE STREET","DENVER","CO","80205"
161881,"3029 W BELDEN AVE 1A","CHICAGO","IL","60647"
161882,"3029 WAUGHTOWN STREET","WINSTON SALEM","NC","27107"
161883,"3029 WILLIAMSON RD","GREENCASTLE","PA","17225"
161884,"3029 WOODMONT DR","SOUTH BEND","IN","46614"
161885,"30292 SE LAWRENCE RD","ESTACADA","OR","97023"
161886,"30297 N OAK DR","FLORENCE","AZ","85132"
161887,"302A W 12TH ST 252","NEW YORK","NY","10014"
161888,"302A W 12TH STREET NUM 228","NEW YORK","NY","10014"
161889,"302A WEST 12TH ST 195","NEW YORK","NY","10014"
161890,"302A WEST 12TH STREET SUITE 136","NEW YORK","NY","10014"
161891,"302F TOYON AVENUE NUMBER 124","SAN JOSE","CA","95127"
161892,"303 10TH AVE SE","STANLEY","ND","58784"
161893,"303 10TH STREET","BROOKLYN","NY","11215"
161894,"303 14TH STREET NE","DEVILS LAKE","ND","58301"
161895,"303 159TH ST E","TACOMA","WA","98445"
161896,"303 1ST AVE EAST","WASHBURN","WI","54891"
161897,"303 1ST AVE W","LEMMON","SD","57638"
161898,"303 21ST STREET  SUITE 232","NEWPORT","MN","55055"
161899,"303 2ND AVE","ZILLAH","WA","98953"
161900,"303 2ND AVENUE","KEYSTONE","IA","52249"
161901,"303 52ND STREET","VIRGINIA BEACH","VA","23451"
161902,"303 9TH STREET","MOODY","TX","76557"
161903,"303 ACADEMY RD","HILTONS","VA","24258"
161904,"303 ASHLAND AVENUE","SECANE","PA","19018"
161905,"303 ATWOOD STREET","LONGMONT","CO","80501"
161906,"303 AUBURN WAY","COPPELL","TX","75019"
161907,"303 AUTUMN CREST DRIVE","RIDGELAND","MS","39157"
161908,"303 AVERIL RD","SAN YSIDRO","CA","92173"
161909,"303 AZALEA LANE","CLEVER","MO","65631"
161910,"303 B BOLEN LANE","TRAFFORD","PA","15085"
161911,"303 BELTLINE PL SW 553","DECATUR","AL","35603"
161912,"303 BENDEMEER LANE","ROLESVILLE","NC","27571"
161913,"303 BEVERLEY ROAD APT 4J","BROOKLYN","NY","11218"
161914,"303 BLANCHARD ROAD","NATCHITOCHES","LA","71457"
161915,"303 BRANDYWINE DRIVE","RALEIGH","NC","27607"
161916,"303 BRENTWOOD AVE","TRUSSVILLE","AL","35173"
161917,"303 BRIGADOON DR","CLEARWATER","FL","33759"
161918,"303 BROADWAY STREET SUITE 104-16","LAGUNA BEACH","CA","92651"
161919,"303 BRONX RIVER AVE","BRONX","NY","10473"
161920,"303 BURKWOOD CT W","URBANA","IL","61801"
161921,"303 BUTLER","SAUGATUCK","MI","49453"
161922,"303 CABBAGE INLET LANE","WILMINGTON","NC","28409"
161923,"303 CAHOON ROAD","BAY VILLAGE","OH","44140"
161924,"303 CANYON CREST DR","AMARILLO","TX","79124"
161925,"303 CAPRI DRIVE","O FALLON","MO","63366"
161926,"303 CENTERVILLE ROAD","ANDERSON","SC","29625"
161927,"303 CENTRAL AVENUE 6","FARIBAULT","MN","55021"
161928,"303 CHARLES STREET","WILMINGTON","OH","45177"
161929,"303 COLLEGE CIRCLE","MOREHEAD CITY","NC","28557"
161930,"303 CORPORATE CENTER DR SUITE 100","STOCKBRIDGE","GA","30281"
161931,"303 COUNTY ROAD 42","GIBSONBURG","OH","43431"
161932,"303 COURT ST","LITTLE VALLEY","NY","14755"
161933,"303 COURT STREET SUITE 409","COVINGTON","KY","41011"
161934,"303 CREE COURT","TECUMSEH","MI","49286"
161935,"303 DEGRAW STREET","BROOKLYN","NY","11231"
161936,"303 DES PLAINES AVE UNIT 403","FOREST PARK","IL","60130"
161937,"303 DOGWOOD LANE","PRINCETON","KY","42445"
161938,"303 DUNWOODY CHACE","ATLANTA","GA","30328"
161939,"303 E 115TH ST","KANSAS CITY","MO","64114"
161940,"303 E 16 STREET SUITE D 132","DOUGLAS","AZ","85607"
161941,"303 E 17TH STREET","LOCKPORT","IL","60441"
161942,"303 E 18TH STREET","TULSA","OK","74120"
161943,"303 E 21ST ST","JACKSONVILLE","FL","32206"
161944,"303 E 2ND ST UNIT 635","SKIATOOK","OK","74070"
161945,"303 E 32ND ST","AUSTIN","TX","78705"
161946,"303 E 7TH ST","MUNCIE","IN","47302"
161947,"303 E ARIZONA AVE","RUSTON","LA","71270"
161948,"303 E ARIZONA AVENUE","RUSTON","LA","71270"
161949,"303 E ELM ST","WINFIELD","IA","52659"
161950,"303 E FAYETTE AVE","EFFINGHAM","IL","62401"
161951,"303 E HIGH ST","MOUNT VERNON","OH","42050"
161952,"303 E HOWARD AVENUE","DECATUR","GA","30030"
161953,"303 E IDLEWILDAVE","EUSTIS","FL","32726"
161954,"303 E MAIN ST","FREMONT","MI","49412"
161955,"303 E MAIN STREET","STONEVILLE","NC","27603"
161956,"303 E NEW ENGLAND AVE","WORTHINGTON","OH","43085"
161957,"303 E UNIVERSITY DRIVE","EDINBURG","TX","78539"
161958,"303 E WACKER DRIVE SUITE 1020","CHICAGO","IL","60601"
161959,"303 E WACKER DRIVE SUITE 1400","CHICAGO","IL","60601"
161960,"303 E WOODLAWN RD STE 3","CHARLOTTE","NC","28217"
161961,"303 EAST 135 STREET APT 1J","BRONX","NY","10454"
161962,"303 EAST 3RD SOUTH","PRESCOTT","AR","71857"
161963,"303 EAST 51ST STREET- SUITE 8G","NEW YORK","NY","10022"
161964,"303 EAST 7TH STREET","MUNCIE","IN","47302"
161965,"303 EAST CLEVELAND AVENUE","GREENWOOD","MS","38930"
161966,"303 EAST GURLEY STREET UNIT 411","PRESCOTT","AZ","86301"
161967,"303 EAST RUSK","ROCKWALL","TX","75087"
161968,"303 EAST STREET","ROCHESTER","MI","48307"
161969,"303 EAST WOOLBRIGHT ROAD","BOYNTON BEACH","FL","33435"
161970,"303 ELLIS ROAD","LANGHORNE","PA","19047"
161971,"303 EMERALD WAY","HORSESHOE BAY","TX","78657"
161972,"303 ENCHANTED HILLTOP WAY","LAKEWAY","TX","78738"
161973,"303 EXETER STREET","OLDSMAR","FL","34677"
161974,"303 FAIRWAY DR W","NICHOLASVILLE","KY","40356"
161975,"303 FALCON LANE APT T1","WEST CHESTER","PA","19382"
161976,"303 FISHER DR","CLINTON","NC","28328"
161977,"303 FORREST OAKS LANE","LAKE JACKSON","TX","77566"
161978,"303 FOX TRAIL","ROYERSFORD","PA","19468"
161979,"303 FULLER RD","CENTRAL SQ","NY","13036"
161980,"303 FULLER ROAD","CENTRAL SQUARE","NY","13036"
161981,"303 GINGER LN","PHILADELPHIA","PA","19128"
161982,"303 GLEN MYRTLE AVE APT 101","CHARLOTTE","NC","28262"
161983,"303 GOLDEN OCALA BLVD","MACON","GA","31216"
161984,"303 GOODRICH ST","VASSAR","MI","48768"
161985,"303 GOOSE LANE","BATH","NH","03740"
161986,"303 GROVE ST","OXFORD","NC","27565"
161987,"303 HAMPTON DR","RAEFORD","NC","28376"
161988,"303 HARVARD AVE E","SEATTLE","WA","98102"
161989,"303 HERITAGE DR","BOSSIER CITY","LA","71112"
161990,"303 HIGH MESA COURT","COLORADO SPRINGS","CO","80905"
161991,"303 HILL TRL DRIVE","BALLWIN","MO","63011"
161992,"303 HOLLY GROVE DRIVE","MOUNTAIN HOME","AR","72653"
161993,"303 HOMESTEAD AVENUE","HOLYOKE","MA","01040"
161994,"303 HWY CC","ELDON","MO","65026"
161995,"303 INNER CIRCLE DRIVE","BOLINGBROOK","IL","60490"
161996,"303 IRELAND ST","HAMPTON","VA","23663"
161997,"303 JAMESTOWN OAKS DRIVE","JAMESTOWN","NC","27282"
161998,"303 JOHNSON STREET","RYEGATE","MT","59074"
161999,"303 KIDWELLY COURT","EXTON","PA","19341"
162000,"303 LA PLATA PL","BOULDER CITY","NV","89005"
