"ID","Address","City","State","Zip"
331001,"PO BOX 113","NORTH BONNEVILLE","WA","98639"
331002,"PO BOX 113","PALISADE","MN","56469"
331003,"PO BOX 113","PIERPONT","OH","44082"
331004,"PO BOX 113","PORT HUENEME","CA","93044"
331005,"PO BOX 113","ROCKFALL","CT","06481"
331006,"PO BOX 113","SARTELL","MN","56377"
331007,"PO BOX 113","SECOND MESA","AZ","86043"
331008,"PO BOX 113","SLINGERLANDS","NY","12159"
331009,"PO BOX 113","WADING RIVER","NY","11792"
331010,"PO BOX 113","WARMINSTER","PA","18974"
331011,"PO BOX 113","WESTON","MA","02493"
331012,"PO BOX 113/16501 CHURCH STREET","AMELIA","VA","23002"
331013,"PO BOX 1130","PEPPERELL","MA","01463"
331014,"PO BOX 1130","VENTURA","CA","93002"
331015,"PO BOX 11303","BATON ROUGE","LA","70813"
331016,"PO BOX 11305","BALTIMORE","MD","21239"
331017,"PO BOX 1131","BELTON","TX","76513"
331018,"PO BOX 1131","BRONX","NY","10462"
331019,"PO BOX 1131","GREEN RIVER","WY","82935"
331020,"PO BOX 1131","JOHNSON CITY","TX","78636"
331021,"PO BOX 1131","LENOIR CITY","TN","37771"
331022,"PO BOX 1131","MAKAWAO","HI","96768"
331023,"PO BOX 1131","MARMORA","NJ","08223"
331024,"PO BOX 1131","NORTH BEND","OR","97459"
331025,"PO BOX 1131","POCAHONTAS","AR","72455"
331026,"PO BOX 1131","SUMMERVILLE","SC","29484"
331027,"PO BOX 1131","WILSON","NC","27894"
331028,"PO BOX 11314","PORTLAND","ME","04104"
331029,"PO BOX 113198","STAMFORD","CT","06911"
331030,"PO BOX 1132","ALFRED","NY","14802"
331031,"PO BOX 1132","COLLEGEDALE","TN","37315"
331032,"PO BOX 1132","LACONIA","NH","03247"
331033,"PO BOX 1132","MAGNOLIA","TX","77353"
331034,"PO BOX 1132","RIDGECREST","CA","93556"
331035,"PO BOX 1132","ROUND ROCK","TX","78680"
331036,"PO BOX 1132","SEARCY","AR","72145"
331037,"PO BOX 1132","STOWE","VT","05672"
331038,"PO BOX 1132","WRIGHTSVILLE BEACH","NC","28480"
331039,"PO BOX 1132","ZACHARY","LA","70791"
331040,"PO BOX 11322","TACOMA","WA","98411"
331041,"PO BOX 1133","BUFFALO","NY","14215"
331042,"PO BOX 1133","EULESS","TX","76039"
331043,"PO BOX 1133","FULSHEAR","TX","77441"
331044,"PO BOX 1133","LA GRANDE","OR","97850"
331045,"PO BOX 1133","MANHATTAN","MT","59741"
331046,"PO BOX 1133","RUTH","CA","95526"
331047,"PO BOX 1133","SPANAWAY","WA","98387"
331048,"PO BOX 11331","TALLAHASSEE","FL","32301"
331049,"PO BOX 11334","SAINT LOUIS","MO","63105"
331050,"PO BOX 1134","CARLIN","NV","89822"
331051,"PO BOX 1134","CLAYTON","NC","27520"
331052,"PO BOX 1134","FLAT ROCK","NC","28731"
331053,"PO BOX 1134","FLORENCE","MS","39073"
331054,"PO BOX 1134","MANOR","TX","78653"
331055,"PO BOX 1134","NEWPORT NEWS","VA","23601"
331056,"PO BOX 1134","RAMONA","CA","92065"
331057,"PO BOX 1134","RISING SUN","MD","21911"
331058,"PO BOX 1134","TRUMANN","AR","72472"
331059,"PO BOX 1134","WHEAT RIDGE","CO","80034"
331060,"PO BOX 11341","HILO","HI","96721"
331061,"PO BOX 11342","JACKSON","TN","38308"
331062,"PO BOX 11345","GOLDSBORO","NC","27532"
331063,"PO BOX 1135","BAKER CITY","OR","97814"
331064,"PO BOX 1135","CASTLE ROCK","CO","80104"
331065,"PO BOX 1135","CRESCENT CITY","CA","95531"
331066,"PO BOX 1135","MENOMONEE FALLS","WI","53052"
331067,"PO BOX 1135","RICHMOND","TX","77406"
331068,"PO BOX 11351","FORT SMITH","AR","72917"
331069,"PO BOX 1136","ABILENE","TX","79601"
331070,"PO BOX 1136","BENNINGTON","VT","05201"
331071,"PO BOX 1136","EMORY","TX","75440"
331072,"PO BOX 1136","GLASGOW","KY","42142"
331073,"PO BOX 1136","MANHATTAN BEACH","CA","90267"
331074,"PO BOX 1136","ORTING","WA","98360"
331075,"PO BOX 1136","PARAMOUNT","CA","90723"
331076,"PO BOX 1136","SPOTSYLVANIA","VA","22553"
331077,"PO BOX 1136","SUTTER CREEK","CA","95685"
331078,"PO BOX 11361","PORTLAND","OR","97211"
331079,"PO BOX 1137  - 703 SOUTH 3RD STREET","LAMAR","CO","81052"
331080,"PO BOX 1137","AUBURNDALE","FL","33823"
331081,"PO BOX 1137","BOWLING GREEN","OH","43402"
331082,"PO BOX 1137","JACKSONVILLE","OR","97530"
331083,"PO BOX 1137","WEST PALM BEACH","FL","33402"
331084,"PO BOX 11375","JACKSONVILLE","FL","32239"
331085,"PO BOX 11376","TYSONS CORNER","VA","22102"
331086,"PO BOX 1138","BOYD","TX","76023"
331087,"PO BOX 1138","COVINGTON","TN","38019"
331088,"PO BOX 1138","DUBOIS","PA","15801"
331089,"PO BOX 1138","INDIAN ROCKS BEACH","FL","33785"
331090,"PO BOX 1138","KALAMA","WA","98625"
331091,"PO BOX 1138","LAME DEER","MT","59043"
331092,"PO BOX 1138","OCEAN SPRINGS","MS","39566"
331093,"PO BOX 1138","TYLER","TX","75710"
331094,"PO BOX 11382","DENVER","CO","80211"
331095,"PO BOX 11383","RIVIERA BEACH","FL","33419"
331096,"PO BOX 11385","ALBANY","NY","12211"
331097,"PO BOX 11386","ALBANY","NY","12204"
331098,"PO BOX 1139","LEXINGTON","KY","40588"
331099,"PO BOX 11393","INDIANAPOLIS","IN","46201"
331100,"PO BOX 11393","WILLISTON","ND","58802"
331101,"PO BOX 11394","ST PETERSBURG","FL","33733"
331102,"PO BOX 11395","HICKORY","NC","28603"
331103,"PO BOX 114","ARAPAHOE","NC","28510"
331104,"PO BOX 114","BLACK ROCK","AR","72415"
331105,"PO BOX 114","BOWDOINHAM","ME","04008"
331106,"PO BOX 114","BURLINGTON","NJ","08016"
331107,"PO BOX 114","BURLINGTON","VT","05402"
331108,"PO BOX 114","CANISTEO","NY","14823"
331109,"PO BOX 114","CINCINNATI","IA","52549"
331110,"PO BOX 114","CLINTON","MD","20735"
331111,"PO BOX 114","COOPERSBURG","PA","18036"
331112,"PO BOX 114","EAU CLAIRE","MI","49111"
331113,"PO BOX 114","EVERETTS","NC","27825"
331114,"PO BOX 114","FAIR HAVEN","NJ","07704"
331115,"PO BOX 114","FLAGLER BEACH","FL","32136"
331116,"PO BOX 114","FLORA","IN","46929"
331117,"PO BOX 114","GEORGETOWN","CO","80444"
331118,"PO BOX 114","GRAYSVILLE","AL","35073"
331119,"PO BOX 114","HARRINGTON","DE","19952"
331120,"PO BOX 114","HOPKINSVILLE","KY","42241"
331121,"PO BOX 114","JACKSONVILLE","OR","97530"
331122,"PO BOX 114","JORDAN","MN","55352"
331123,"PO BOX 114","MEMPHIS","TX","79245"
331124,"PO BOX 114","METAMORA","OH","43540"
331125,"PO BOX 114","NEWFIELD","NY","14867"
331126,"PO BOX 114","NORTH BRANCH","MN","55056"
331127,"PO BOX 114","PALO ALTO","CA","94302"
331128,"PO BOX 114","POMEROY","WA","99347"
331129,"PO BOX 114","SCANDIA","MN","55073"
331130,"PO BOX 114","STARR","SC","29684"
331131,"PO BOX 114","SURING","WI","54174"
331132,"PO BOX 114","TOLLAND","CT","06084"
331133,"PO BOX 114","VAUGHNSVILLE","OH","45893"
331134,"PO BOX 114","WAIALUA","HI","96791"
331135,"PO BOX 114","WATERBURY","VT","05676"
331136,"PO BOX 114","WHEATON","IL","60187"
331137,"PO BOX 1140","LIBBY","MT","59923"
331138,"PO BOX 1140","SEMINOLE","TX","79360"
331139,"PO BOX 11403","WHITTIER","CA","90603"
331140,"PO BOX 1141","CARUTHERSVILLE","MO","63830"
331141,"PO BOX 1141","EAGLE RIVER","WI","54521"
331142,"PO BOX 1141","FORT BRAGG","CA","95437"
331143,"PO BOX 1141","HURST","TX","76053"
331144,"PO BOX 1141","LEVITTOWN","PA","19058"
331145,"PO BOX 1141","PEARLAND","TX","77588"
331146,"PO BOX 1141","SKIATOOK","OK","74070"
331147,"PO BOX 1141","SOUTH HOLLAND","IL","60473"
331148,"PO BOX 11411","MIDLAND","TX","79702"
331149,"PO BOX 11414","COLUMBIA","SC","29211"
331150,"PO BOX 11418","GOLDSBORO","NC","27532"
331151,"PO BOX 1142","BLOOMINGTON","IN","47402"
331152,"PO BOX 1142","DENVILLE","NJ","07834"
331153,"PO BOX 1142","GOLETA","CA","93116"
331154,"PO BOX 1142","INDIANOLA","MS","38751"
331155,"PO BOX 1142","KALAHEO","HI","96741"
331156,"PO BOX 1142","MITCHELL","SD","57301"
331157,"PO BOX 1142","SCOTTSBLUFF","NE","69363"
331158,"PO BOX 1142","SEBASTOPOL","CA","95473"
331159,"PO BOX 1142","TRAVELERS REST","SC","29690"
331160,"PO BOX 1142","WAUKEE","IA","50263"
331161,"PO BOX 1142","WILTON","ME","04294"
331162,"PO BOX 11424","CONWAY","AR","72034"
331163,"PO BOX 11425","FORT WAYNE","IN","46858"
331164,"PO BOX 1143","ALFRED","NY","14802"
331165,"PO BOX 1143","FRANKLIN","LA","70538"
331166,"PO BOX 1143","LAVEEN","AZ","85339"
331167,"PO BOX 1143","WOODRUFF","WI","54568"
331168,"PO BOX 114329","NORTH PROVIDENCE","RI","02911"
331169,"PO BOX 1144","BELTON","MO","64012"
331170,"PO BOX 1144","CHICO","CA","95927"
331171,"PO BOX 1144","CIRCLEVILLE","OH","43113"
331172,"PO BOX 1144","ELTON","LA","70532"
331173,"PO BOX 1144","GULF SHORES","AL","36547"
331174,"PO BOX 1144","LAKE OSWEGO","OR","97035"
331175,"PO BOX 1144","MINOT","ND","58702"
331176,"PO BOX 1144","MONTAUK","NY","11954"
331177,"PO BOX 1144","MULBERRY","FL","33860"
331178,"PO BOX 1144","NEWLAND","NC","28657"
331179,"PO BOX 1144","PRIOR LAKE","MN","55372"
331180,"PO BOX 1144","WHITEHALL","MT","59759"
331181,"PO BOX 11441","PORTLAND","ME","04101"
331182,"PO BOX 11442","COLLEGE STATION","TX","77842"
331183,"PO BOX 11444","NEW IBERIA","LA","70562"
331184,"PO BOX 11445","DANVILLE","VA","24543"
331185,"PO BOX 1145","CARLISLE","PA","17013"
331186,"PO BOX 1145","CHESTER","PA","19016"
331187,"PO BOX 1145","DAHLONEGA","GA","30533"
331188,"PO BOX 1145","SALISBURY","NC","28144"
331189,"PO BOX 11452","PHILADELPHIA","PA","11452"
331190,"PO BOX 11452","PORTLAND","ME","04062"
331191,"PO BOX 11454","PORTLAND","OR","97211"
331192,"PO BOX 1146","ALIQUIPPA","PA","15001"
331193,"PO BOX 1146","COTTAGE GROVE","OR","97424"
331194,"PO BOX 1146","FORT SMITH","AR","72902"
331195,"PO BOX 1146","IMPERIAL BEACH","CA","91933"
331196,"PO BOX 1146","MALIBU","CA","90265"
331197,"PO BOX 1146","MOUNT JACKSON","VA","22842"
331198,"PO BOX 1146","PORT ARANSAS","TX","78373"
331199,"PO BOX 1146","RANGELEY","ME","04970"
331200,"PO BOX 11462","BALTIMORE","MD","21239"
331201,"PO BOX 11468","ASPEN","CO","81612"
331202,"PO BOX 1147","GOULDSBORO","PA","18424"
331203,"PO BOX 1148","AUBURNDALE","FL","33823"
331204,"PO BOX 1149","COVINGTON","LA","70434"
331205,"PO BOX 1149","ROSEVILLE","CA","95678"
331206,"PO BOX 11491","BLACKSBURG","VA","24062"
331207,"PO BOX 11491","CEDAR RAPIDS","IA","52402"
331208,"PO BOX 11495","CHARLESTON","WV","25339"
331209,"PO BOX 11499","HILO","HI","96721"
331210,"PO BOX 115 WYKAGYL STATION","NEW ROCHELLE","NY","10804"
331211,"PO BOX 115","ABERDEEN","SD","57402"
331212,"PO BOX 115","ALEXANDRIA BAY","NY","13607"
331213,"PO BOX 115","CHICOPEE","MA","01014"
331214,"PO BOX 115","DAILEY","WV","26259"
331215,"PO BOX 115","DELANSON","NY","12053"
331216,"PO BOX 115","FERRISBURGH","VT","05456"
331217,"PO BOX 115","GARWOOD","NJ","07027"
331218,"PO BOX 115","GRANBURY","TX","76048"
331219,"PO BOX 115","GREEN CREEK","NJ","08219"
331220,"PO BOX 115","GREEN VILLAGE","NJ","07935"
331221,"PO BOX 115","GREENBANK","WA","98253"
331222,"PO BOX 115","HANA","HI","96713"
331223,"PO BOX 115","HAWKEYE","IA","52147"
331224,"PO BOX 115","HIGHLAND","MD","20777"
331225,"PO BOX 115","HILLSVILLE","PA","16132"
331226,"PO BOX 115","HOVEN","SD","57450"
331227,"PO BOX 115","HUTTO","TX","78634"
331228,"PO BOX 115","JONESBORO","AR","72417"
331229,"PO BOX 115","MATHIAS","WV","26812"
331230,"PO BOX 115","MILLERSVILLE","PA","17551"
331231,"PO BOX 115","NASHUA","NH","03061"
331232,"PO BOX 115","PETERSBURG","AK","99833"
331233,"PO BOX 115","PLYMOUTH","WI","53073"
331234,"PO BOX 115","RED LION","PA","17356"
331235,"PO BOX 115","REYNOLDSVILLE","PA","15851"
331236,"PO BOX 115","ROYAL","AR","71968"
331237,"PO BOX 115","SHERIDAN","MT","59749"
331238,"PO BOX 115","SYRACUSE","NY","13209"
331239,"PO BOX 115","TOPSFIELD","MA","01983"
331240,"PO BOX 115","WAILUKU","HI","96793"
331241,"PO BOX 115","WEBBERS FALLS","OK","74470"
331242,"PO BOX 115","WEXFORD","PA","15090"
331243,"PO BOX 1150","ALTON","NH","03809"
331244,"PO BOX 1150","GLENWOOD SPRINGS","CO","81602"
331245,"PO BOX 1150","ORANGE","VA","22960"
331246,"PO BOX 1150","SILVERTHORNE","CO","80498"
331247,"PO BOX 1151","BIG RAPIDS","MI","49307"
331248,"PO BOX 1151","DRYDEN","NY","13053"
331249,"PO BOX 1151","FRONT ROYAL","VA","22630"
331250,"PO BOX 1151","HAWTHORNE","NV","89415"
331251,"PO BOX 1151","HOLYOKE","MA","01041"
331252,"PO BOX 1151","LATHROP","CA","95330"
331253,"PO BOX 1151","LEOMINSTER","MA","01453"
331254,"PO BOX 1151","MESILLA PARK","NM","88047"
331255,"PO BOX 1151","NEW YORK","NY","11233"
331256,"PO BOX 1151","ORCHARD PARK","NY","14127"
331257,"PO BOX 1151","PRINCETON","KY","42445"
331258,"PO BOX 1151","PRINCETON","NJ","08542"
331259,"PO BOX 1151","ROEBUCK","SC","29376"
331260,"PO BOX 1151","SEAFORD","DE","19973"
331261,"PO BOX 1151","YOUNGSVILLE","NC","27596"
331262,"PO BOX 11510","TEMPE","AZ","85284"
331263,"PO BOX 115144","ATLANTA","GA","30310"
331264,"PO BOX 11515","OMAHA","NE","68111"
331265,"PO BOX 11517","ST THOMAS","VI","00801"
331266,"PO BOX 115199","ATLANTA","GA","30310"
331267,"PO BOX 1152","AVA","MO","65608"
331268,"PO BOX 1152","CARMICHAEL","CA","95609"
331269,"PO BOX 1152","CHATHAM","VA","24531"
331270,"PO BOX 1152","DICKINSON","ND","58602"
331271,"PO BOX 1152","HARLEM","MT","59526"
331272,"PO BOX 1152","KALAHEO","HI","96741"
331273,"PO BOX 1152","KNIGHTDALE","NC","27545"
331274,"PO BOX 1152","LOWELL","MA","01853"
331275,"PO BOX 1152","MONT BELVIEU","TX","77580"
331276,"PO BOX 1152","NORTH KINGSTOWN","RI","02852"
331277,"PO BOX 1152","NORTH PLATTE","NE","69103"
331278,"PO BOX 1152","SEAGRAVES","TX","79359"
331279,"PO BOX 1152","STEUBENVILLE","OH","43952"
331280,"PO BOX 1152","WHITE RIVER JUNCTION","VT","05001"
331281,"PO BOX 11522","EL DORADO","AR","71730"
331282,"PO BOX 11522","LOUISVILLE","KY","40251"
331283,"PO BOX 11523","BAINBRIDGE ISLAND","WA","98110"
331284,"PO BOX 11527","WINSTON-SALEM","NC","27116"
331285,"PO BOX 11528","COLLEGE STATION","TX","77845"
331286,"PO BOX 1153","BELTON","TX","76513"
331287,"PO BOX 1153","BRYAN","TX","77806"
331288,"PO BOX 1153","CRESTVIEW","FL","32536"
331289,"PO BOX 1153","SOUTH BEND","IN","46624"
331290,"PO BOX 1153","SOUTHAVEN","MS","38671"
331291,"PO BOX 1153","VALPARAISO","IN","46384"
331292,"PO BOX 11530","TAKOMA PARK","MD","20913"
331293,"PO BOX 1154","KINSTON","NC","28503"
331294,"PO BOX 1154","NEW CARLISLE","IN","46552"
331295,"PO BOX 1154","NEWTON","NC","28658"
331296,"PO BOX 1154","PARSONS","KS","67357"
331297,"PO BOX 1154","WILLIAMSVILLE","NY","14231"
331298,"PO BOX 11545","CLAYTON","MO","63105"
331299,"PO BOX 1155","BLYTHE","CA","92225"
331300,"PO BOX 1155","VALPARAISO","IN","46384"
331301,"PO BOX 11552","CINCINNATI","OH","45211"
331302,"PO BOX 11552","HUNTSVILLE","AL","35814"
331303,"PO BOX 11555","CHARLOTTE","NC","28220"
331304,"PO BOX 1156","JENKS","OK","74037"
331305,"PO BOX 1156","PETERSBURG","VA","23804"
331306,"PO BOX 1156","POULSBO","WA","98370"
331307,"PO BOX 1157","BASTROP","TX","78602"
331308,"PO BOX 1157","EDEN","UT","84310"
331309,"PO BOX 1157","MOUNT HOLLY","OK","28120"
331310,"PO BOX 11572","BOZEMAN","MT","59719"
331311,"PO BOX 11572","ROANOKE","VA","24022"
331312,"PO BOX 1158","COSMOPOLIS","WA","98537"
331313,"PO BOX 1158","HOOPA","CA","95546"
331314,"PO BOX 1158","LEESBURG","GA","31763"
331315,"PO BOX 1158","MADISON","MS","39130"
331316,"PO BOX 1158","MIDDLEBURG","VA","20118"
331317,"PO BOX 11582","DENVER","CO","80211"
331318,"PO BOX 11586","MILWAUKEE","WI","53211"
331319,"PO BOX 11587/ 804 LINCOLN WAY WEST","SOUTH BEND","IN","46616"
331320,"PO BOX 1159","LANDER","WY","82520"
331321,"PO BOX 1159","NICHOLASVILLE","KY","40340"
331322,"PO BOX 1159","STANDISH","MI","48658"
331323,"PO BOX 116","CHIPPEWA BAY","NY","13623"
331324,"PO BOX 116","CLIFTON PARK","NY","12065"
331325,"PO BOX 116","COLTON","OR","97017"
331326,"PO BOX 116","DILLSBURG","PA","17019"
331327,"PO BOX 116","EAST QUOGUE","NY","11942"
331328,"PO BOX 116","EATON RAPIDS","MI","48827"
331329,"PO BOX 116","FORT COLLINS","CO","80522"
331330,"PO BOX 116","GILBERT","PA","18331"
331331,"PO BOX 116","GILMER","TX","75644"
331332,"PO BOX 116","LITHIA","FL","33547"
331333,"PO BOX 116","MALAGA","WA","98828"
331334,"PO BOX 116","MT ZION","IL","62549"
331335,"PO BOX 116","NEWPORT","MN","55337"
331336,"PO BOX 116","PARKESBURG","PA","19365"
331337,"PO BOX 116","PENNINGTON","NJ","08534"
331338,"PO BOX 116","REX","NC","28378"
331339,"PO BOX 116","ROCHESTER","MN","55903"
331340,"PO BOX 116","RUSSELLVILLE","AR","72811"
331341,"PO BOX 116","SCOTTSBURG","IN","47170"
331342,"PO BOX 116","SHEPHERDSTOWN","WV","25443"
331343,"PO BOX 116","SHERMAN","NY","14781"
331344,"PO BOX 116","SOUTHFIELD","MI","48037"
331345,"PO BOX 116","THE SEA RANCH","CA","95497"
331346,"PO BOX 116","VICTOR","NY","14564"
331347,"PO BOX 116","WEST CORNWALL","CT","06796"
331348,"PO BOX 1160","CARBONDALE","CO","81623"
331349,"PO BOX 1160","LINCOLN PARK","MI","48146"
331350,"PO BOX 1160","MISSOURI CITY","TX","77459"
331351,"PO BOX 1160","PINON","AZ","86510"
331352,"PO BOX 1160","SOUTHGATE","MI","48195"
331353,"PO BOX 11609","BOZEMAN","MT","59719"
331354,"PO BOX 1161","ACWORTH","GA","30102"
331355,"PO BOX 1161","ELKINS","WV","26241"
331356,"PO BOX 1161","JACKSON","WY","83001"
331357,"PO BOX 1161","JEFFERSONVILLE","IN","47131"
331358,"PO BOX 1161","JONESBORO","AR","72403"
331359,"PO BOX 1161","KINGSTON","TN","37763"
331360,"PO BOX 1161","ONEONTA","AL","35121"
331361,"PO BOX 1161","OZARK","AL","36360"
331362,"PO BOX 1161","POWELL","WY","82435"
331363,"PO BOX 1161","RED LODGE","MT","59068"
331364,"PO BOX 1161","REEDLEY","CA","93654"
331365,"PO BOX 1161","SUMTER","SC","29150"
331366,"PO BOX 1161","UNIONTOWN","PA","15401"
331367,"PO BOX 11613","ATLANTA","GA","30355"
331368,"PO BOX 1162 FARRINGTON HWY","WAIANAE","HI","96792"
331369,"PO BOX 1162","BEEVILLE","TX","78104"
331370,"PO BOX 1162","CAPTAIN COOK","HI","96704"
331371,"PO BOX 1162","LAKE CITY","SC","29560"
331372,"PO BOX 1162","LODI","NJ","07644"
331373,"PO BOX 1162","MANSFIELD","TX","76063"
331374,"PO BOX 1162","MATTESON","IL","60443"
331375,"PO BOX 1162","PINE","AZ","85544"
331376,"PO BOX 1162","STEELVILLE","MO","65565"
331377,"PO BOX 11623","INDIANAPOLIS","IN","46201"
331378,"PO BOX 11629","BLACKSBURG","VA","24062"
331379,"PO BOX 1163","DUMFRIES","VA","22026"
331380,"PO BOX 1163","LA PLATA","MD","20646"
331381,"PO BOX 1163","LARKSPUR","CA","94977"
331382,"PO BOX 1163","SIERRA VISTA","AZ","85636"
331383,"PO BOX 1163","TIJERAS","NM","87059"
331384,"PO BOX 1163","VIENNA","VA","22183"
331385,"PO BOX 11632","HUNTSVILLE","AL","35814"
331386,"PO BOX 11634","CONWAY","AR","72035"
331387,"PO BOX 1164","APEX","NC","27502"
331388,"PO BOX 1164","BOISE","ID","83701"
331389,"PO BOX 1164","CANYON","TX","79015"
331390,"PO BOX 1164","CARTERSVILLE","GA","30120"
331391,"PO BOX 1164","EL SEGUNDO","CA","90245"
331392,"PO BOX 11641","KILLEEN","TX","76547"
331393,"PO BOX 11642","KANSAS CITY","MO","64138"
331394,"PO BOX 116427","CARROLLTON","TX","75011"
331395,"PO BOX 1165","CONCORD","NH","03303"
331396,"PO BOX 1165","EAST HELENA","MT","59635"
331397,"PO BOX 1165","NEW YORK","NY","10116"
331398,"PO BOX 1165","WASHINGTON","UT","84780"
331399,"PO BOX 11651","NORFOLK","VA","23507"
331400,"PO BOX 1166","ATLANTA","GA","30301"
331401,"PO BOX 1166","BOISE","ID","83701"
331402,"PO BOX 1166","CASS LAKE","MN","56633"
331403,"PO BOX 1166","ESTES PARK","CO","80517"
331404,"PO BOX 1166","NEDERLAND","CO","80466"
331405,"PO BOX 1166","NORTH PLAINS","OR","97133"
331406,"PO BOX 1166","PLAQUEMINE","LA","70765"
331407,"PO BOX 1166","PRAIRIEVILLE","LA","70769"
331408,"PO BOX 1166","RIDGELAND","MS","39158"
331409,"PO BOX 1166","STAUNTON","VA","22402"
331410,"PO BOX 11661","SHOREWOOD","WI","53211"
331411,"PO BOX 11662","ATLANTA","GA","30355"
331412,"PO BOX 11667","SHOREWOOD","WI","53211"
331413,"PO BOX 1167","LEESVILLE","LA","71496"
331414,"PO BOX 1167","LOCKHART","TX","78644"
331415,"PO BOX 1167","SAN MARCOS","TX","78667"
331416,"PO BOX 11678","PORTLAND","OR","97211"
331417,"PO BOX 1168","ALAMEDA","CA","94501"
331418,"PO BOX 1168","CHAPEL HILL","NC","27514"
331419,"PO BOX 1168","CHICAGO HEIGHTS","IL","60412"
331420,"PO BOX 1168","GAFFNEY","SC","29342"
331421,"PO BOX 1168","KAPAAU","HI","96755"
331422,"PO BOX 1168","LA PINE","OR","97739"
331423,"PO BOX 1168","PUCELLVILLE","VA","20134"
331424,"PO BOX 1168","PURCELLVILLE","VA","20134"
331425,"PO BOX 11683","GLENDALE","AZ","85318"
331426,"PO BOX 11683","NEWPORT BEACH","CA","92658"
331427,"PO BOX 11683","RENO","NV","89510"
331428,"PO BOX 11684","PRESCOTT","AZ","86304"
331429,"PO BOX 11686","FORT SMITH","AR","72917"
331430,"PO BOX 116874","CARROLLTON","TX","75011"
331431,"PO BOX 1169","CALLAHAN","FL","32011"
331432,"PO BOX 1169","MAPLEWOOD","NJ","07040"
331433,"PO BOX 1169","SOUTH WINDSOR","CT","06074"
331434,"PO BOX 1169","WELLTON","AZ","85356"
331435,"PO BOX 11691","YAKIMA","WA","98909"
331436,"PO BOX 11696","PORTLAND","OR","97211"
331437,"PO BOX 117","ALBANY","OR","97321"
331438,"PO BOX 117","ALLIANCE","NE","69301"
331439,"PO BOX 117","ANDOVER","NH","03216"
331440,"PO BOX 117","AXTELL","KS","66403"
331441,"PO BOX 117","BOLIVAR","MO","65613"
331442,"PO BOX 117","CHESTERFIELD","NH","03443"
331443,"PO BOX 117","CHESTERVILLE","OH","43317"
331444,"PO BOX 117","COROZAL","PR","00783"
331445,"PO BOX 117","CRIVITZ","WI","54114"
331446,"PO BOX 117","CROUSE","NC","28033"
331447,"PO BOX 117","DESOTO","TX","75123"
331448,"PO BOX 117","DRIPPING SPRINGS","TX","78620"
331449,"PO BOX 117","FLORIEN","LA","71429"
331450,"PO BOX 117","FRANKFORT","OH","45628"
331451,"PO BOX 117","FRENCHTOWN","MT","59834"
331452,"PO BOX 117","GRANITE FALLS","WA","98252"
331453,"PO BOX 117","HAMPSTEAD","NC","28443"
331454,"PO BOX 117","JONESTOWN","PA","17038"
331455,"PO BOX 117","LEAVITTSBURG","OH","44430"
331456,"PO BOX 117","LINDALE","GA","30147"
331457,"PO BOX 117","MURRAY","IA","50174"
331458,"PO BOX 117","PFLUGERVILLE","TX","78691"
331459,"PO BOX 117","PRAIRIE DU CHIEN","WI","53821"
331460,"PO BOX 117","RYEGATE","MT","59074"
331461,"PO BOX 117","STAMFORD","CT","06904"
331462,"PO BOX 117","STORRS","CT","06268"
331463,"PO BOX 117","SUNBURY","OH","43074"
331464,"PO BOX 117","TULAROSA","NM","88352"
331465,"PO BOX 117","WASCO","OR","97065"
331466,"PO BOX 117","WINDER","GA","30680"
331467,"PO BOX 1170","GALLIPOLIS","OH","45631"
331468,"PO BOX 1170","LA PLATA","MD","20646"
331469,"PO BOX 11706","ROCK HILL","SC","29731"
331470,"PO BOX 1171","EASTSOUND","WA","98245"
331471,"PO BOX 1171","ISLE OF PALMS","SC","29451"
331472,"PO BOX 1171","MOLINE","IL","61266"
331473,"PO BOX 1171","SAN BERNARDINO","CA","92402"
331474,"PO BOX 1171","SOMERSET","KY","42502"
331475,"PO BOX 1171","ZANESVILLE","OH","43702"
331476,"PO BOX 11712","HUNTSVILLE","AL","35814"
331477,"PO BOX 11713","PHILA","PA","19104"
331478,"PO BOX 11718","KANSAS CITY","MO","64138"
331479,"PO BOX 1172","ALEDO","TX","76008"
331480,"PO BOX 1172","BELLEVUE","NE","68004"
331481,"PO BOX 1172","FORT LEE","NJ","07024"
331482,"PO BOX 1172","KILAUEA","HI","96754"
331483,"PO BOX 1172","KNIGHTDALE","NC","27545"
331484,"PO BOX 1172","MONSEY","NY","10952"
331485,"PO BOX 1172","OKLAHOMA CITY","OK","73101"
331486,"PO BOX 1172","PARK FOREST","IL","60466"
331487,"PO BOX 1172","SANDERSVILLE","GA","31082"
331488,"PO BOX 1172","SULPHUR SPRINGS","TX","75483"
331489,"PO BOX 1172","TEMECULA","CA","92593"
331490,"PO BOX 1172","THE DALLES","OR","97058"
331491,"PO BOX 1172","TOPPENISH","WA","98948"
331492,"PO BOX 11722","BLACKSBURG","VA","24062"
331493,"PO BOX 11722","RUSSELLVILLE","AR","72812"
331494,"PO BOX 11723","SAN JUAN","PR","00922"
331495,"PO BOX 1173","ASHEVILLE","NC","28802"
331496,"PO BOX 1173","ELGIN","TX","78621"
331497,"PO BOX 1173","FLIPPIN","AR","72634"
331498,"PO BOX 1173","JACKSON","MS","39215"
331499,"PO BOX 1173","LAKE OZARK","MO","65049"
331500,"PO BOX 1173","NORTHERN CAMBRIA","PA","15714"
