"ID","Address","City","State","Zip"
147501,"2710 HAINES AVE","RAPID CITY","SD","57702"
147502,"2710 HAMBURG PIKE","JEFFERSONVILLE","IN","47130"
147503,"2710 HAMILTON SPRINGS DRIVE","LOUISVILLE","KY","40245"
147504,"2710 HIDDEN KNOLL COURT","SUGAR LAND","TX","77478"
147505,"2710 HOLMES AVENUE","HUNTSVILLE","AL","35816"
147506,"2710 HYDER AVENUE SE","ALBUQUERQUE","NM","87106"
147507,"2710 JUDSON STREET","SHREVEPORT","LA","71109"
147508,"2710 KATHLEEN AVENUE","EVANSVILLE","IN","47714"
147509,"2710 KELVIN AVE APT 2141","IRVINE","CA","92614"
147510,"2710 LANTANA DR","UPPER MARLBORO","MD","20774"
147511,"2710 LOCHMOOR LANE","BURLINGTON","IA","52601"
147512,"2710 LOCUST ST","SUTTER","CA","95982"
147513,"2710 MANHATTAN AVE","BALTIMORE","MD","21215"
147514,"2710 MUSKOGEE ST","ADELPHI","MD","20783"
147515,"2710 NE 14TH AVENUE","PORTLAND","OR","97212"
147516,"2710 NE 240TH ST","RIDGEFIELD","WA","98642"
147517,"2710 NORTHAVEN COURT","FORT WAYNE","IN","46825"
147518,"2710 NW 24TH STREET","MIAMI","FL","33142"
147519,"2710 NW WALDEN DRIVE","CAMAS","WA","98607"
147520,"2710 OLD MILTON PARKWAY STE 250","ALPHARETTA","GA","30009"
147521,"2710 OWENS AVE SW","MARIETTA","GA","30064"
147522,"2710 RIVER PLATE DR","PAHRUMP","NV","89048"
147523,"2710 ROBIN STREET","FORT PIERCE","FL","34982"
147524,"2710 S ACADEMY BLVD - 110","COLORADO SPRINGS","CO","80916"
147525,"2710 S FINLEY LAKE AVE","HARRISON","MI","48625"
147526,"2710 S RIVER PLATE DR","PAHRUMP","NV","89048"
147527,"2710 S","MARTINEZ","CA","94553"
147528,"2710 SAINT CLOUD OAKS DR","VALRICO","FL","33594"
147529,"2710 SE 141ST AVE UNIT 12","PORTLAND","OR","97236"
147530,"2710 SE COLUMBUS ST","ALBANY","OR","97322"
147531,"2710 SHERIDAN ROAD 104","WASHINGTON","DC","20020"
147532,"2710 SHILOH WAY","SNELLVILLE","GA","30039"
147533,"2710 SOMERSET DRIVE  X209","FORT LAUDERDALE","FL","33311"
147534,"2710 SOUTH RURAL RD","TEMPE","AZ","85282"
147535,"2710 SUNRISE RIM RD SUITE 230","BOISE","ID","83705"
147536,"2710 SURREY LANE","ESCONDIDO","CA","92029"
147537,"2710 SW 85TH ST","OCALA","FL","34476"
147538,"2710 SWAMP CABBAGE COURT","FORT MYERS","FL","33901"
147539,"2710 TITANIA PL","SIMI VALLEY","CA","93063"
147540,"2710 TRINITY VW","SAN ANTONIO","TX","78261"
147541,"2710 W COURT STREET STE 3","FLINT","MI","48503"
147542,"2710 W DAVIE BOULEVARD","FT LAUDERDALE","FL","33312"
147543,"2710 W LEHIGH AVE","PHILADELPHIA","PA","19132"
147544,"2710 W SOUTHERN AVE  STE 105","PHOENIX","AZ","85041"
147545,"2710 W TEMPLE ST","LOS ANGELES","CA","90026"
147546,"2710 WEST OAKRIDGE DRIVE LOT87","ALBANY","GA","31721"
147547,"27100 CYPRESSWOOD DRIVE","SPRING","TX","77373"
147548,"27100 HWY 184","DOLORES","CO","81323"
147549,"27100 OAKMEAD DR STE 175","PERRYSBURG","OH","43551"
147550,"27100 OAKMEAD DRIVE SUITE 126","PERRYSBURG","OH","43551"
147551,"27100 S YODER RD","PRETTY PRAIRIE","KS","67570"
147552,"27102 FOXBOROUGH","ALISO VIEJO","CA","92656"
147553,"27102 NOGAL","MISSION VIEJO","CA","92692"
147554,"27105 S HARLAN LN","CONROE","TX","77385"
147555,"2711 20TH STREET","BAKERSFIELD","CA","93301"
147556,"2711 26TH STREET NE","WASSHINGTON","DC","20018"
147557,"2711 ALIA CIRCLE","LOUISVILLE","KY","40222"
147558,"2711 ATHENS AVE","CARLSBAD","CA","92010"
147559,"2711 BATSON AVE","ROWLAND HEIGHTS","CA","91748"
147560,"2711 BUFORD ROAD NUMBER 204","RICHMOND","VA","23235"
147561,"2711 BUFORD ROAD SUITE 212","RICHMOND","VA","23235"
147562,"2711 BUFORD ROAD SUITE 335","RICHMOND","VA","23235"
147563,"2711 BURNING TREE LN","SUFFOLK","VA","23435"
147564,"2711 BURRMONT RD","ROCKFORD","IL","61107"
147565,"2711 CALARIVA DRIVE","STOCKTON","CA","95204"
147566,"2711 CAMPOSTELLA ROAD","CHESAPEAKE","VA","23324"
147567,"2711 CENTERVILLE RD STE 300 PMB 394","WILMINGTON","DE","19808"
147568,"2711 CENTERVILLE RD STE 400","WILMINGTON","DE","19808"
147569,"2711 CENTERVILLE RD SUITE 400","CITY OF WILMINGTON","DE","19808"
147570,"2711 CENTERVILLE RD SUITE 400","WILMINGTON","DE","19808"
147571,"2711 CENTERVILLE ROAD STE 400","NEW CASTLE","DE","19808"
147572,"2711 CENTERVILLE ROAD SUITE 400","WILMINGTON","DE","19808"
147573,"2711 CENTERVILLE ROAD","WILMINGTON","DE","19808"
147574,"2711 CLEARLAKE RD STE C-10","COCOA","FL","32922"
147575,"2711 COUNTRY GLEN CT","KELLER","TX","76248"
147576,"2711 DWIGHT","STOCKTON","CA","95204"
147577,"2711 EAST BAINBRIDGE ROAD","SAN DIEGO","CA","92106"
147578,"2711 FAIRLAND ST","CUYAHOGA FALLS","OH","44221"
147579,"2711 FOREST DRIVE","WINSTON SALEM","NC","27104"
147580,"2711 GRAND AVENUE","DES MOINES","IA","50312"
147581,"2711 HARPSTER RD","RITTMAN","OH","44270"
147582,"2711 HOLT DRIVE","COLUMBIA","SC","29205"
147583,"2711 I STREET APT D","SACRAMENTO","CA","95816"
147584,"2711 JANET LANE","PEARLAND","TX","77581"
147585,"2711 LARKIN PLACE","SAN DIEGO","CA","92123"
147586,"2711 LOST LAKES DR","POWDER SPRINGS","GA","30127"
147587,"2711 MAIN STREET STUDIO 204","HOUSTON","TX","75002"
147588,"2711 MOSS OAK DRIVE","SARASOTA","FL","34231"
147589,"2711 MULBERRY STREET SE","ROCHESTER","MN","55904"
147590,"2711 N HASKELL AVE STE 550","DALLAS","TX","75201"
147591,"2711 N SEPULVEDA  BLVD","MANHATTAN BEACH","CA","90266"
147592,"2711 N SEPULVEDA BLVD 250","MANHATTAN BEAC","CA","90266"
147593,"2711 N SEPULVEDA BLVD 413","MANHATTAN BEACH","CA","90266"
147594,"2711 N SEPULVEDA BLVD NO 351","MANHATTAN BEACH","CA","90266"
147595,"2711 N SEPULVEDA BLVD NUM 705","MANHATTAN BEACH","CA","90266"
147596,"2711 N SEPULVEDA BLVD NUM 741","MANHATTAN BEACH","CA","90266"
147597,"2711 NORTH SEPULVEDA UNIT 1024","MANHATTAN BEACH","CA","90266"
147598,"2711 NOTTINGHAM WAY","HAMILTON","NJ","08619"
147599,"2711 NW WALDEN DRIVE","CAMAS","WA","98607"
147600,"2711 PEKIN RD","SPRINGBORO","OH","45066"
147601,"2711 PINE HILLS RD  PO BOX 585271","ORLANDO","FL","32858"
147602,"2711 POMONA COURT","INDIANAPOLIS","IN","46268"
147603,"2711 RESNIK CIRCLE E","PALM HARBOR","FL","34683"
147604,"2711 SHERIDAN RD SUITE 207","ZION","IL","60096"
147605,"2711 SPARROW CIRCLE","COSTA MESA","CA","92626"
147606,"2711 TERRACE RD","WASHINGTON","DC","20020"
147607,"2711 TRAIL RIDGE RD","HUNTSVILLE","AL","35810"
147608,"2711 UNION STREET","SAN FRANCISCO","CA","94123"
147609,"2711 US HWY 62","FLOYDADA","TX","79235"
147610,"2711 VERMILLION DRIVE","MISSOURI CITY","TX","77459"
147611,"2711 WILKINSON BLVD","CHARLOTTE","NC","28208"
147612,"2711 WINSTON AVENUE","LAS CRUCES","NM","88005"
147613,"27110 PERRY STREET","ROSEVILLE","MI","48066"
147614,"27111 HOLLY LORD","MAGNOLIA","TX","77355"
147615,"27111 WHITE TAIL RD","SHELL KNOB","MO","65747"
147616,"27115 N 45TH STREET","CAVE CREEK","AZ","85331"
147617,"27115 NE STEWART ST","DUVALL","WA","98019"
147618,"2712 3RD ST NW","CENTER POINT","AL","35215"
147619,"2712 41ST AVENUE SOUTH","MINNEAPOLIS","MN","55406"
147620,"2712 5TH STREET","BOULDER","CO","80304"
147621,"2712 AIRPARK DR","SANTA MARIA","CA","93455"
147622,"2712 ALMANZOR AVE","IRVING","TX","75062"
147623,"2712 ASHBROOKE DRIVE","LEXINGTON","KY","40513"
147624,"2712 ASHLAND ST","RALEIGH","NC","27608"
147625,"2712 BERKSHIRE DRIVE","WINDER","GA","30680"
147626,"2712 BULLOCK MILL RD","COLBERT","GA","30628"
147627,"2712 BUSHY LAKE COVE","APEX","NC","27502"
147628,"2712 CLUBLAKE TRL","MCKINNEY","TX","75070"
147629,"2712 CONCORD AVE","DAVIS","CA","95618"
147630,"2712 DRY RIDGE RD","LIBERTY","KY","42539"
147631,"2712 E MURRAY ST","RAWLINS","WY","82301"
147632,"2712 FALCON TRAIL","GRAND PRAIRIE","TX","75052"
147633,"2712 FOREST CREEK LANE","NAPERVILLE","IL","60565"
147634,"2712 FOXWOOD DRIVE S","CLIFTON PARK","NY","12065"
147635,"2712 FRUEHAUF ROAD","RICHMOND","VA","23228"
147636,"2712 GREYSTONE CT","AUSTELL","GA","30106"
147637,"2712 HANGING ROCK DRIVE","LAS VEGAS","NV","89134"
147638,"2712 HENDERSON AVE NW","CLEVELAND","TN","37312"
147639,"2712 HIDDEN BAY CT","PEARLAND","TX","77584"
147640,"2712 HORSESHOE TRAIL","CHESTER SPRINGS","PA","19425"
147641,"2712 KIMBERLY DR","LIMA","OH","45807"
147642,"2712 KING SURREY CT","VALRICO","FL","33596"
147643,"2712 MEADOFAIRE DR","SAN JOSE","CA","95111"
147644,"2712 MOUNTAIN LAUREL LANE","AUSTIN","TX","78703"
147645,"2712 N ARTESIAN AVE","CHICAGO","IL","60647"
147646,"2712 N SAGINAW STREET","FLINT","MI","48505"
147647,"2712 PINEWOOD DRIVE","WALDORF","MD","20601"
147648,"2712 QUAIL LANE","MORAINE","OH","45439"
147649,"2712 ROCKY BROOK LANE","OPELIKA","AL","36801"
147650,"2712 RUSTIC CT","MAPLEWOOD","MN","55109"
147651,"2712 S FERNCREEK AVE","ORLANDO","FL","32806"
147652,"2712 SUPREME AVENUE","MEMPHIS","TN","38114"
147653,"2712 W SHAUARO DR APT 4-104","PHOENIX","AZ","85029"
147654,"2712 WILLOWGLEN DRIVE","BALTIMORE","MD","21209"
147655,"27120 EUCALYPTUS AVE G158","MORENO VALLEY","CA","92555"
147656,"27123 FREELAND RD","ELTON","LA","70532"
147657,"27124 PASEO ESPADA STE 801","SAN JUAN CAPISTRANO","CA","92675"
147658,"27124 ROAD 56","VISALIA","CA","93277"
147659,"27125 151ST AVE","LONG GROVE","IA","52756"
147660,"2713 225TH LN NW","BETHEL","MN","55005"
147661,"2713 26TH AVE S","FARGO","ND","58103"
147662,"2713 2ND ST","HURRICANE","WV","25526"
147663,"2713 ARNOLD RD","HAMPTONVILLE","NC","27020"
147664,"2713 B LACLEDE STATION ROAD","MARYLAND HEIGHTS","MO","63143"
147665,"2713 BEVERLY P WASHINGTON ST","EIGHTMILE","AL","36613"
147666,"2713 BILOXI LN","MESQUITE","TX","75150"
147667,"2713 BLOOMINGTON AVE","MINNEAPOLIS","MN","55407"
147668,"2713 CENTRAL  AVE","MIDDLETOWN","OH","45044"
147669,"2713 CHAPEL COURT","MODESTO","CA","95355"
147670,"2713 COLEBERRY TRAIL","ROCKY MOUNT","NC","27804"
147671,"2713 DEER TRAIL CT","BAKERSFIELD","CA","93306"
147672,"2713 ELNORA STREET","SILVER SPRING","MD","20902"
147673,"2713 FREDERICKSBURG ROAD","HANOVER","MD","21076"
147674,"2713 HARVARD BLVD","LOS ANGELES","CA","90018"
147675,"2713 HAVENS DRIVE","WEST CHICAGO","IL","60185"
147676,"2713 INDIAN CREEK COURT","VIRGINIA BEACH","VA","23457"
147677,"2713 MILL ST","RINGGOLD","LA","71068"
147678,"2713 MOUNT MORIAH ROAD SUITE 201","MEMPHIS","TN","38115"
147679,"2713 N PINE GROVE AVE APT 3","CHICAGO","IL","60614"
147680,"2713 NEWLANDS AVENUE","BELMONT","CA","94002"
147681,"2713 NORTH CAPITAL STREET NE","WASHINGTON","DC","20002"
147682,"2713 OAK RUN BLVD","KISSIMMEE","FL","34744"
147683,"2713 PELICAN AVE","MCALLEN","TX","78504"
147684,"2713 PINEDALE STREET","JACKSON","MS","39204"
147685,"2713 PLYMOUTH LANE","OKLAHOMA CITY","OK","73120"
147686,"2713 ROULO ST","DEARBORN","MI","48120"
147687,"2713 S FREMONT AVENUE","ALHAMBRA","CA","91803"
147688,"2713 SADDLE CRK","AVON","OH","44011"
147689,"2713 SPRING GLEN CT","EUSTIS","FL","32726"
147690,"2713 SUNNYSIDE LN","ELLICOTT CITY","MD","21043"
147691,"2713 SWEET CLOVER COURT","SILVER SPRING","MD","20904"
147692,"2713 THUNDER DRIVE","OCEANSIDE","CA","92056"
147693,"2713 VOGT ST","FORT WORTH","TX","76105"
147694,"2713 W 36TH STREET","LOS ANGELES","CA","90018"
147695,"2713 W CRENSHAW ST","KUNA","ID","83634"
147696,"2713 WATER WHEEL COURT","ELLICOTT CITY","MD","21043"
147697,"2713 WILD POPLAR WAY","GREENSBORO","NC","27405"
147698,"2713 YOUNG AVENUE","BRONX","NY","10469"
147699,"27130 WEST 215TH STREET","SPRING HILLL","KS","66083"
147700,"27133 DOGWOOD BEND RD","FRANKLIN","VA","23851"
147701,"27133 S 80TH AVE","MONEE","IL","60449"
147702,"27137 BUTTERNUT RIDGE ROAD","NORTH OLMSTED","OH","44070"
147703,"2714 BENJAMIN DR","WONDER LAKE","IL","60097"
147704,"2714 BOULDER STREET","LOS ANGELES","CA","90033"
147705,"2714 CAMP MO VAL ROAD","UNION","MO","63084"
147706,"2714 CANAL STREET SUITE 312","NEW ORLEANS","LA","70119"
147707,"2714 COLONEL DR","RICHMOND","TX","77406"
147708,"2714 CONOWOODS DR","SPRINGFIELD","OH","45503"
147709,"2714 DATURA STREET","SARASOTA","FL","34239"
147710,"2714 FYNAMORE LANE","DOWNINGTOWN","PA","19335"
147711,"2714 LAKEBREEZE LANE SOUTH","CLEARWATER","FL","33759"
147712,"2714 LINCOLN AVENUE","RICHMOND","CA","94804"
147713,"2714 LOVELACE BLVD","SAN ANTONIO","TX","78217"
147714,"2714 MANHATTAN AVE","BALTIMORE","MD","21215"
147715,"2714 OAK CREST COURT NW","CEDAR RAPIDS","IA","52405"
147716,"2714 OAK PARK STREET","DICKINSON","TX","77539"
147717,"2714 OVERVIEW DRIVE","COLUMBIA","IL","62236"
147718,"2714 PENN AVENUE","PITTSBIRGH","PA","15222"
147719,"2714 PLACID AVE","FORT PIERCE","FL","34982"
147720,"2714 RALPH JOHNS ST","GREENSBORO","NC","27405"
147721,"2714 RED POLL DRIVE","LAREDO","TX","78046"
147722,"2714 RENFREW WAY","LANSING","MI","48911"
147723,"2714 SOUTH 90TH EAST AVENUE","TULSA","OK","74129"
147724,"2714 TALOVA DR","ORLANDO","FL","32837"
147725,"2714 TANAGER RD","HENRICO","VA","23228"
147726,"2714 WASHINGTON ST 1007","GREENVILLE","TX","75401"
147727,"2714 WASHINGTON STREET  SUITE C","GREENVILLE","TX","75401"
147728,"2714 WENTWORTH DR","MADISON","WI","53719"
147729,"27145 SCOTLAND PKWY","SALISBURY","MD","21801"
147730,"27146 CORCUBION","MISSION VIEJO","CA","92692"
147731,"2715  6TH STREET","NEW CUMBERLAND","WV","26047"
147732,"2715 ALRESFORD STREET","PHILADELPHIA","PA","19137"
147733,"2715 ATLANTIC AVENUE","ATLANTIC CITY","NJ","08401"
147734,"2715 BAYONNE AVE","BALTIMORE","MD","21214"
147735,"2715 BELLS HWY","WALERBORO","SC","29488"
147736,"2715 BOCA CHICA BLVD STE 3 BOX 144","BROWNSVILLE","TX","78521"
147737,"2715 BOCA CHICA BLVD STE 3 NO 113","BROWNSVILLE","TX","78521"
147738,"2715 BRANSFORD AVENUE","NASHVILLE","TN","37204"
147739,"2715 BURL LN","LORENA","TX","76655"
147740,"2715 CHERLIN PL","RICHARDSON","TX","75082"
147741,"2715 CLARKSVILLE PIKE","NASHVILLE","TN","37208"
147742,"2715 CORTLAND PLACE NW APT 35","WASHINGTON","DC","20008"
147743,"2715 COUNTY RD 139","MANDAN","ND","58554"
147744,"2715 DONBAR DRIVE","FAIRFEILD","OH","45014"
147745,"2715 DOUGHTON ST S","SALEM","OR","97302"
147746,"2715 E FREMONT ROAD","PHOENIX","AZ","85042"
147747,"2715 EAST OAKLAND AVENUE","JOHNSON CITY","TN","37602"
147748,"2715 FM 1844","LONGVIEW","TX","75605"
147749,"2715 FM 352","CORRIGAN","TX","75939"
147750,"2715 GLEN EAGLES ROAD","LAKE OSWEGO","OR","97034"
147751,"2715 GLENVIEW WAY","ESCONDIDO","CA","92025"
147752,"2715 HARRIOT ST","BEAUMONT","TX","77705"
147753,"2715 HUBBARD LANE","EUREKA","CA","95501"
147754,"2715 HWY 56 WEST","UVALDA","GA","30473"
147755,"2715 KAAIPU AVE","HONOLULU","HI","96822"
147756,"2715 N AVERILL AVE","FLINT","MI","48505"
147757,"2715 N HOWARD ST","PHILADELPHIA","PA","19133"
147758,"2715 N MAIN ST","ROCKFORD","IL","61103"
147759,"2715 NW 15TH COURT","FORT LAUDERALE","FL","33311"
147760,"2715 RACQUET CLUB DR","MIDLAND","TX","79705"
147761,"2715 ROYAL DRIVE","WINTERVILLE","NC","28590"
147762,"2715 RUNYON CIRCLE","ORLANDO","FL","32837"
147763,"2715 S CEDAR HOLLOW DR","PEARLAND","TX","77584"
147764,"2715 S RADIO RD","EL RENO","OK","73036"
147765,"2715 SALENA ST","SAINT LOUIS","MO","63118"
147766,"2715 SAM BASS RD","ROUND ROCK","TX","78681"
147767,"2715 SCRIPPS PLACE","ALTADENA","CA","91001"
147768,"2715 SE KERN RD","PORT ST LUCIE","FL","34984"
147769,"2715 SOUTH 18TH STREET","PHILADELPHIA","PA","19145"
147770,"2715 SOUTHFORK RD","GREEN SEA","SC","29545"
147771,"2715 SUMMER CREEK DRIVE","GAINESVILLE","GA","30507"
147772,"2715 SW 322ND ST","FEDERAL WAY","WA","98023"
147773,"2715 SW 6TH AVE","AMARILLO","TX","79106"
147774,"2715 TERRA CEIA BAY BLVD UNIT 505","PALMETTO","FL","34221"
147775,"2715 TRADD COURT","SNELLVILLE","GA","30039"
147776,"2715 TUCKASEEGEE ROAD","CHARLOTTE","NC","28208"
147777,"2715 TWIN OAKS RD","ELKIN","NC","28621"
147778,"2715 UNIVERSITY BLVD  SUITE 306","SILVER SPRING","MD","20902"
147779,"2715 VILLAGE LN","TITUSVILLE","FL","32780"
147780,"2715 W  POLK","CHICAGO","IL","60612"
147781,"2715 W CARMEN AVE","MILWAUKEE","WI","53209"
147782,"2715 W CONGRESS PKWY UNIT 1","CHICAGO","IL","60612"
147783,"2715 WEBB AVE BB","BRONX","NY","10468"
147784,"2715 WEST GARRISON AVENUE","BALTIMORE","MD","21215"
147785,"2715 WORDEN ST","SAN DIEGO","CA","92110"
147786,"2715 XAVIER ST","DENVER","CO","80212"
147787,"2715","CENTENNIAL","CO","80122"
147788,"27150 GILL ROAD","MYAKKA CITY","FL","34251"
147789,"27150 LYNDE DRIVE","OLMSTED FALLS","OH","44138"
147790,"27151 COOLIDGE HWY","OAK PARK","MI","48239"
147791,"27155 PRESTANCIA WAY","SALINAS","CA","93908"
147792,"27155 SYLVAN AVE","WARREN","MI","48093"
147793,"27155 TAG A LONG RD","LACOMBE","LA","70445"
147794,"2716 AL LIPSCOMB","DALLAS","TX","75215"
147795,"2716 AVE A","COUNCIL BLUFFS","IA","51501"
147796,"2716 EDGEFIELD DRIVE","VINTON","VA","24179"
147797,"2716 ELLIOTT AVENUE UNIT 1202","SEATTLE","WA","98121"
147798,"2716 EMERALD AVE","HUEYTOWN","AL","35023"
147799,"2716 GRANBY ST UNIT B1","NORFOLK","VA","23510"
147800,"2716 JUNIPERO AVE","CLOVIS","CA","93611"
147801,"2716 KENDALL AVENUE","MADISON","WI","53705"
147802,"2716 KEYSTONE WAY","NEWPORT","PA","17074"
147803,"2716 LANDMARK SCHOOL ROAD","THE PLAINS","VA","20198"
147804,"2716 LEMMONTREE LANE","PLANO","TX","75074"
147805,"2716 MERIDIAN DR","GREENVILLE","NC","27834"
147806,"2716 MILL ST","MOBILE","AL","36607"
147807,"2716 MORGAN GLEN ROAD","BUFORD","GA","30519"
147808,"2716 N ATLANTIC BLVD","FORT LAUDERDALE","FL","33308"
147809,"2716 N WALROND AVE","KANSAS CITY","MO","64117"
147810,"2716 NICASIO COURT","SAN JOSE","CA","95127"
147811,"2716 NORTHEAST 50TH STREET","OKLAHOMA CITY","OK","73111"
147812,"2716 NW 3RD AVENUE","WILTON MANORS","FL","33311"
147813,"2716 OCEAN PARK BLVD STE 3080","SANTA MONICA","CA","90405"
147814,"2716 RAIN SONG DRIVE","LEANDER","TX","78641"
147815,"2716 ROBUST COURT","HENDERSON","NV","89052"
147816,"2716 ROBUST CT","HENDERSON","NV","89052"
147817,"2716 ROCKY SPRINGS DRIVE","PEARLAND","TX","77584"
147818,"2716 RYAN BLVD","PUNTA  GORDA","FL","33950"
147819,"2716 S 269TH ST","KENT","WA","98032"
147820,"2716 S ESTATE DR","EL RENO","OK","73036"
147821,"2716 S VERMONT AVE STE 9","LOS ANGELES","CA","90007"
147822,"2716 SABER DR","NORTH LAS VEGAS","NV","89032"
147823,"2716 SMALLPAGE TRACE","WILLIAMSBURG","VA","23185"
147824,"2716 TERRACE ROAD SE APT B619","WASHINGTON","DC","20020"
147825,"2716 WAREING DR","LAKE ORION","MI","48360"
147826,"2716 WATER OAK DRIVE","DALLAS","TX","75247"
147827,"2716 WATERFORD WAY 1B","MIDLOTHIAN","VA","23112"
147828,"2716 WEST OAKLAND PARK BLVD","OAKLAND PARK","FL","33311"
147829,"2716 WIND POINT COURT","LYNWOOD","IL","60411"
147830,"27164 E GEDDES DRIVE","AURORA","CO","80016"
147831,"2717 24TH AVE","ASTORIA","NY","11102"
147832,"2717 24TH AVE","LONG ISLAND CITY","NY","11102"
147833,"2717 25TH ST","SARASOTA","FL","34234"
147834,"2717 28TH AVE NE","HICKORY","NC","28601"
147835,"2717 84TH DR NE","LAKE STEVENS","WA","98258"
147836,"2717 AVON RIVER DR","VALRICO","FL","33596"
147837,"2717 BARMETTLER STREET","RALEIGH","NC","27607"
147838,"2717 BEALE CIRCLE","BELLEVUE","NE","68123"
147839,"2717 BEAR SPRINGS TRL","AUSTIN","TX","78748"
147840,"2717 CENTRAL AVE NE NO 303","MINNEAPOLIS","MN","55418"
147841,"2717 COMMERCE ST","DALLAS","TX","75226"
147842,"2717 COMMERCIAL CENTER BLVD E200","KATY","TX","77494"
147843,"2717 COMMERCIAL CENTER BLVD","KATY","TX","77494"
147844,"2717 CROWN RIDGE DRIVE","LAS VEGAS","NV","89134"
147845,"2717 CRYSTAL FALLS DR","MESQUITE","TX","75181"
147846,"2717 CYPRESS HOLLOW COURT","ORLANDO","FL","32822"
147847,"2717 DANDELION DR","HIGH POINT","NC","27265"
147848,"2717 EAST RUSSELL ROAD","LAS VEGAS","NV","89120"
147849,"2717 HARTLEY HILLS DRIVE","CHARLOTTE","NC","28213"
147850,"2717 HIGH ST","PUEBLO","CO","81003"
147851,"2717 LEXINGTON DR","NORWALK","IA","50211"
147852,"2717 MEADOWWOOD DR","TOLEDO","OH","43606"
147853,"2717 MILLERS WAY DRIVE","ELLICOTT CITY","MD","21043"
147854,"2717 N KELLEY AVENUE","OKLAHOMA CITY","OK","73111"
147855,"2717 NORTH 5TH STREET","HARRISBURG","PA","17110"
147856,"2717 OCTAVIA STREET","NEW ORLEANS","LA","70115"
147857,"2717 PROVO WAY","SACRAMENTO","CA","95822"
147858,"2717 S SMEDLEY STREET","PHILADELPHIA","PA","19145"
147859,"2717 SE 45TH AVE","OCALA","FL","34480"
147860,"2717 THORNCREEK LANE","FORT WORTH","TX","76177"
147861,"2717 VASSAR ROAD","TALLAHASSEE","FL","32309"
147862,"2717 W 74TH ST","LOS ANGELES","CA","90043"
147863,"2717 W MAPLEWOOD AVE","BELLINGHAM","WA","98225"
147864,"2717 WAYMAR DR SW","MARIETTA","GA","30008"
147865,"2717 WAYMAR DRIVE","MARIETTA","GA","30008"
147866,"2717 WESTVIEW DRIVE","MESQUITE","TX","75150"
147867,"2717 WILLIS FOREMAN RD","HEPHZIBAH","GA","30815"
147868,"27176 AL HWY 251","ELKMONT","AL","35620"
147869,"27177 185TH AVENUE SE SUITE D105","COVINGTON","WA","98042"
147870,"2717COMMERCIAL CTR BLVD STEE200-188","KATY","TX","77494"
147871,"2718 13TH STREET NW","WASHINGTON","DC","20009"
147872,"2718 9TH AVE","CLARKSTON","WA","99403"
147873,"2718 ALLLPINE TAYLOR ROAD","GREENVILLE","NC","27834"
147874,"2718 ANDREWS DR","BATAVIA","IL","60510"
147875,"2718 BONNY LANE","LAFAYETTE","IN","47904"
147876,"2718 BRIGHT TR","SUGAR LAND","TX","77479"
147877,"2718 BRIGHT TRAIL","SUGAR LAND","TX","77479"
147878,"2718 BRYANT AVE NO","MINNEAPOLIS","MN","55411"
147879,"2718 BRYANT AVENUE NORTH","MINNEAPOLIS","MN","55411"
147880,"2718 DEARDANE DRIVE","JEFFERSON CITY","MO","65109"
147881,"2718 DRUID HILL DR","MARYVILLE","TN","37804"
147882,"2718 FOXBRIAR PLACE","INDIANAPOLIS","IN","46203"
147883,"2718 GLENWOOD DR","DES MOINES","IA","50321"
147884,"2718 GREER ROAD","GOODLETTSVILLE","TN","37072"
147885,"2718 HICKORYWOOD CT","INDIANAPOLIS","IN","46224"
147886,"2718 LEWIS RD","DOVER","FL","33527"
147887,"2718 MCCAUSLAND AVE","ST LOUIS","MO","63143"
147888,"2718 N 62ND STREET","OMAHA","NE","68104"
147889,"2718 N DAYTON ST","PHOENIX","AZ","85006"
147890,"2718 NEWPORT LAKE BLVD","MANVEL","TX","77578"
147891,"2718 NORTH 13TH STREET","ST LOUIS","MO","63106"
147892,"2718 NORTHWEST 68TH WAY","SUNRISE","FL","33313"
147893,"2718 OAK LEIGH STREET","SAN ANTONIO","TX","78232"
147894,"2718 OLD SALEM RD","FRISCO CITY","AL","36445"
147895,"2718 OMAR ST","CHESAPEAKE","VA","23324"
147896,"2718 OVERBROOK DR","RALEIGH","NC","27608"
147897,"2718 PEPPERMILL RUN","SAN ANTONIO","TX","78231"
147898,"2718 PINE TREE DR","EVANSVILLE","IN","47711"
147899,"2718 S 17TH STREET  UNIT B","WILIMINGTON","NC","28412"
147900,"2718 S BROADWAY","YORKTOWN","IN","47396"
147901,"2718 SAND OAK LOOP","APOPKA","FL","32712"
147902,"2718 SCOTT STREET","VALDOSTA","GA","31601"
147903,"2718 SW 92ND DRIVE","GAINESVILLE","FL","32606"
147904,"2718 TARPLEY SHOP RD","PULASKI","TN","38478"
147905,"2718 TELEGRAPH AVE SUITE 210","BERKELEY","CA","94705"
147906,"2718 UNION STREET","HERMON","ME","04401"
147907,"2718 W DESERT SPLENDOR COURT","ORO VALLEY","AZ","85742"
147908,"2718 WEST OSAGE STREET","PACIFIC","MO","63069"
147909,"2718 WOODFERN CT","WOODBRIDGE","VA","22192"
147910,"27180 POLLARD ROAD","DAPHNE","AL","36526"
147911,"27181 KASSELDER PT","CALHAN","CO","80808"
147912,"27185 PEMBRIDGE LANE","FARMINGTON HILLS","MI","48331"
147913,"27186 237TH AVE SW","CROOKSTON","MN","56716"
147914,"2719 ACR181","ELKHART","TX","75839"
147915,"2719 ASHLAWN DR","MONTGOMERY","AL","36111"
147916,"2719 AUSTIN AVE","BROWNWOOD","TX","76801"
147917,"2719 BERKLEY ST","FLINT","MI","48504"
147918,"2719 BLACKSHEAR AVENUE","PENSACOLA","FL","32503"
147919,"2719 BRAMBLE DR","HILLIARD","OH","43026"
147920,"2719 BURRLAND LN","THE PLAINS","VA","20198"
147921,"2719 CASTANET STREET","SAN ANTONIO","TX","78230"
147922,"2719 CHAPLE COVE","ST LOUIS","MO","63031"
147923,"2719 CRUGER AVENUE","BRONX","NY","10467"
147924,"2719 DELOWE DRIVE","EAST POINT","GA","30344"
147925,"2719 EDEN COURT","GRAND JUNCTION","CO","81506"
147926,"2719 GRAND AVE S UNIT2","MINNEAPOLIS","MN","55408"
147927,"2719 HEIGHTS VIEW CT","OAKLAND TWP","MI","48306"
147928,"2719 HOLLYWOOD BLVD  A-928","HOLLYWOOD","FL","33020"
147929,"2719 HOLLYWOOD BLVD B126","HOLLYWOOD","FL","33020"
147930,"2719 HOLLYWOOD BLVD","HOLLYWOOD","FL","33020"
147931,"2719 KING STREET","ALEXANDRIA","VA","22302"
147932,"2719 KIPLING - A","HOUSTON","TX","77098"
147933,"2719 LINDEN LN","SILVER SPRING","MD","20910"
147934,"2719 MARQUETTE TRAIL","KATY","TX","77494"
147935,"2719 MCCOY AVENUE","ATLANTA","GA","30344"
147936,"2719 MICHIGAN AVENUE","KISSIMMEE","FL","34744"
147937,"2719 MISTY BAR DRIVE","MEMPHIS","TN","38002"
147938,"2719 N VALLE VERDE DR","NOGALES","AZ","85621"
147939,"2719 NORTH TAYLOR","LITTLE ROCK","AR","72207"
147940,"2719 NW 127TH STREET","VANCOUVER","WA","98685"
147941,"2719 ONTARIO RD NW","WASHINGTON","DC","20009"
147942,"2719 ORDWAY STREET NW APT 2","WASHINGTON","DC","20008"
147943,"2719 PARK 305","MINNEAPOLIS","MN","55407"
147944,"2719 PROSPECT AVE","LA CRESCENTA","CA","91214"
147945,"2719 RAMBLING WAY","LITHONIA","GA","30058"
147946,"2719 RIVERFRONT DRIVE","LOVELAND","CO","80538"
147947,"2719 ROYALWOODS COURT","CINCINNATI","OH","45244"
147948,"2719 S MOORE STREET","PHILADELPHIA","PA","19145"
147949,"2719 SAINT PAUL STREET","BALTIMORE","MD","21218"
147950,"2719 THORNBROOK COURT","ODENTON","MD","21113"
147951,"2719 URSULINES AVE","NEW ORLEANS","LA","70119"
147952,"2719 VERMILLION DRIVE SUITE 111","MISSOURI CITY","TX","77459"
147953,"2719 W CESAR E CHAVEZ BLVD APT 3","SAN ANTONIO","TX","78207"
147954,"2719 W DIVISION ST STE 110","SAINT CLOUD","MN","56301"
147955,"2719 WAGONWHEEL CIR","CARROLLTON","TX","75006"
147956,"2719 WEST THARPE STREET/ STE 8","TALLAHASSEE","FL","32303"
147957,"27193 WALTZ RD","NEW BOSTON","MI","48164"
147958,"27194 - 8TH STREET","JUNCTION CITY","OR","97448"
147959,"272 1/2 W 41ST ST","LOS ANGELES","CA","90037"
147960,"272 AVIS STREET","PORT ANGELES","WA","98362"
147961,"272 BALKAMORE HILL","STANLEY","VA","22851"
147962,"272 BALSAM DRIVE","FOLEY","MN","56329"
147963,"272 BERDAN AVE","WAYNE","NJ","07470"
147964,"272 BROADWAY NO 646","METHUEN","MA","01844"
147965,"272 BURTON ROAD","HOLLY SPRINGS","MS","38635"
147966,"272 CANDLETREE CIRCLE","MONUMENT","CO","80132"
147967,"272 CAPE SABLE DRIVE","NAPLES","FL","34104"
147968,"272 CEDAR AVENUE","RAVENNA","OH","44266"
147969,"272 CEDAR GLEN DR 4D","CAMDENTON","MO","65020"
147970,"272 CHURCH STREET","MAYS LANDING","NJ","08330"
147971,"272 EASTFORD RD","EASTFORD","CA","06242"
147972,"272 GARDINER RD","WISCASSET","ME","04578"
147973,"272 GOLDEN WOODS COURT","GREAT FALLS","VA","22066"
147974,"272 GOLDEN WOODS CT","GREAT FALLS","VA","22066"
147975,"272 HIGH MOUNTAIN ROAD","NORTH HALEDON","NJ","07508"
147976,"272 HIGHWAY 34","MATAWAN","NJ","07747"
147977,"272 IVY BEND CIR","CLARKSVILLE","TN","37043"
147978,"272 LAKE AVENUE","METUCHEN","NJ","08840"
147979,"272 LANEY DRIVE","FORREST CITY","AR","72335"
147980,"272 LEBANON STREET","MELROSE","MA","02176"
147981,"272 MAIN ST","ASHLAND","MA","01721"
147982,"272 MONTEREY DRIVE","CARSON","CA","90745"
147983,"272 N 600 W","VALPARAISO","IN","46385"
147984,"272 N FIFTH AVE","WINDER","GA","30680"
147985,"272 N OLIVE ST","VENTURA","CA","93001"
147986,"272 OCEAN AVENUE","BRENTWOOD","NY","11717"
147987,"272 OLIVE BRANCH BLVD","GRIFTON","NC","28530"
147988,"272 PURDUE AVENUE","KENSINGTON","CA","94708"
147989,"272 RIDGEPOINTE DRIVE","COLD SPRING","KY","41076"
147990,"272 RUNDALL ROAD","CLYMER","NY","14724"
147991,"272 RUTH ROAD","HARLEYSVILLE","PA","19438"
147992,"272 S HILL AVE","NEW BRAUNFELS","TX","78130"
147993,"272 S KESTREL PL","EAGLE","ID","83616"
147994,"272 SALEM RD","UNION","NJ","07083"
147995,"272 SAYBROOK RD","HIGGANUM","CT","06438"
147996,"272 SE BROWN STREET","LAKE CITY","FL","32025"
147997,"272 ST JOSEPH CT","WEST LAFAYETTE","IN","47906"
147998,"272 STEIN ROAD","CHICORA","PA","16025"
147999,"272 TAMERISK LANE","NEW WINDSOR","NY","12553"
148000,"272 TUCKAWAY RIDGE DRIVE","NASHVILLE","IN","47448"
