"ID","Address","City","State","Zip"
105501,"201 DONAHEY AVE","CONWAY","AR","72035"
105502,"201 DOUGHERTY COURT","RIDGEWAY","WI","53582"
105503,"201 DOVE MEADOW DR","CONROE","TX","77384"
105504,"201 E  ARMY TRAIL ROAD SUITE 306","BLOOMINGDALE","IL","60108"
105505,"201 E 11TH AVE","RANSON","WV","25438"
105506,"201 E 1ST ST","SANFORD","FL","32771"
105507,"201 E 2ND ST","THE DALLES","OR","97058"
105508,"201 E 2ND STREET","VILLISCA","IA","50864"
105509,"201 E 37TH STREET","READING","PA","19606"
105510,"201 E 3RD STREET","PLYMOUTH","NC","27962"
105511,"201 E 4TH STREET","NEILLSVILLE","WI","54456"
105512,"201 E 5TH AVENUE SUITE D","GARY","IN","46402"
105513,"201 E 5TH ST STE 1900","CINCINNATI","OH","45202"
105514,"201 E 5THST","ADEL","GA","31620"
105515,"201 E ALLEN ST  SUITE 204","WENTZVILLE","MO","63385"
105516,"201 E ASPEN AVE","FRUITA","CO","81521"
105517,"201 E BIRCH AVE STE 14","FLAGSTAFF","AZ","86001"
105518,"201 E BOWIE APT 1","LULING","TX","78648"
105519,"201 E BROADWAY AVE","CLIFTON HEIGHTS","PA","19018"
105520,"201 E BROADWAY","EXCELSIOR SPRINGS","MO","64024"
105521,"201 E BUTLER AVENUE","SALUDA","SC","29138"
105522,"201 E CENTER ST STE 112-3151","ANAHEIM","CA","92805"
105523,"201 E CHAPMAN AVE","FULLERTON","CA","92832"
105524,"201 E CHAPMAN AVENUE","FULLERTON","CA","92832"
105525,"201 E CHAPMAN AVENUE","FULLERTON","CA","92835"
105526,"201 E FIFTH STREET SUITE 1700","CINCINNATI","OH","45202"
105527,"201 E FIFTH STREET","WALSENBURG","CO","81089"
105528,"201 E GROVE","DELTON","MI","49046"
105529,"201 E HURON AVE","FOLLY BEACH","SC","29439"
105530,"201 E KENNEDY BLVD SUITE 600","TAMPA","FL","33602"
105531,"201 E LAMAR STREET","SHERMAN","TX","75090"
105532,"201 E LIBERTY ST","SUMTER","SC","29150"
105533,"201 E LOULA STREET SUITE 103","OLATHE","KS","66061"
105534,"201 E MAIN DRIVE","EL PASO","TX","79902"
105535,"201 E MAIN ST STE 2","JOHNSON CITY","TN","37604"
105536,"201 E MAIN ST STE 202","WASHINGTON","IN","47501"
105537,"201 E MAIN ST STE A","CUSHING","OK","74023"
105538,"201 E MAIN STREET","MANASQUAN","NJ","08736"
105539,"201 E MAIN","RITZVILLE","WA","99169"
105540,"201 E MAPLE STREET","FREMONT","MI","49412"
105541,"201 E MILLER ST","DE SOTO","MO","63020"
105542,"201 E MONROE ST  PO BOX 386","MOUNT AYR","IA","50854"
105543,"201 E MONROE STREET","MOUNT AYR","IA","50854"
105544,"201 E PARK ST","CHAMPAIGN","IL","61820"
105545,"201 E SALAIGNAC STREET","PHILADELPHIA","PA","19128"
105546,"201 E SHERIDAN STREET","DANIA BEACH","FL","33004"
105547,"201 E SUNSET ROAD","EL PASO","TX","79922"
105548,"201 E THORNTON","THREE RIVERS","TX","78071"
105549,"201 E TOWNSHIP LINE ROAD","UPPER DARBY","PA","19082"
105550,"201 EAGLE WAY","DOVER AFB","DE","19902"
105551,"201 EAGLETON DR","MONROE","NY","10950"
105552,"201 EAST 16TH AVE","NORTH KANSAS CITY","MO","64116"
105553,"201 EAST 16TH AVENUE","N KANSAS CITY","MO","64116"
105554,"201 EAST 198TH STREET","BRONX","NY","10458"
105555,"201 EAST 19TH STREET","ATLANTIC","IA","50022"
105556,"201 EAST 1ST STREET","DULUTH","MN","55802"
105557,"201 EAST 21ST STREET","NEW YORK","NY","10010"
105558,"201 EAST 25TH STREET UNIT 9L","NEW YORK","NY","10010"
105559,"201 EAST 37TH STREET C/O ATHLECTICS","READING","PA","19606"
105560,"201 EAST 42ND STREET","BROOKLYN","NY","11203"
105561,"201 EAST 69TH ST APT 6I","NEW YORK","NY","10021"
105562,"201 EAST 77TH APT 12B","NEW YORK","NY","10075"
105563,"201 EAST 91ST STREET","LOS ANGELES","CA","90003"
105564,"201 EAST ADAMS STREET","SPRINGFIELD","IL","62701"
105565,"201 EAST BROOKLAND PARK BOULEVARD","RICHMOND","VA","23222"
105566,"201 EAST BROUGHTON STREET","SAVANNAH","GA","31401"
105567,"201 EAST CHAPMAN AVE","FULLERTON","CA","92835"
105568,"201 EAST COMMERCE STREET SUITE 316","YOUNGSTOWN","OH","44503"
105569,"201 EAST CRESTON","DES MOINES","IA","50315"
105570,"201 EAST G STREET","RUSSELLVILLE","AR","72801"
105571,"201 EAST LAKE BLVD","LAKE MAHOPAC","NY","10541"
105572,"201 EAST LAWSON ROAD","JONESBORO","AR","72404"
105573,"201 EAST MAIN ST SUITE 202","ROCK HILL","SC","29730"
105574,"201 EAST MAIN STREET","BATAVIA","NY","14020"
105575,"201 EAST MAIN STREET","CARMI","IL","62821"
105576,"201 EAST RAHN ROAD","KETTERING","OH","45429"
105577,"201 EAST ROUND GROVE ROAD APT 1212","LEWISVILLE","TX","75067"
105578,"201 EAST SANTA ROSA STREET","VICTORIA","TX","77091"
105579,"201 EAST SECTION AVENUE","FOLEY","AL","36535"
105580,"201 EASTERN PARKWAY APT 4F","BROOKLYN","NY","11238"
105581,"201 EASTERN PKWY APT 1R","BROOKLYN","NY","11238"
105582,"201 EASTERN PKWY APT 2C","BROOKLYN","NY","11238"
105583,"201 EASTIN ROAD","LEXINGTON","KY","40505"
105584,"201 EC LOOMIS DR","ELK RAPIDS","MI","49629"
105585,"201 EDISON AVENUE","PORTSMOUTH","VA","23702"
105586,"201 ENTERPRISE ROW SUITE 12","CONROE","TX","77301"
105587,"201 EVERGREEN ST B7-2F","VESTAL","NY","13850"
105588,"201 FAIRACRES RD","SCRIBNER","NE","68057"
105589,"201 FAIRCREST DRIVE BOX 272","CLEBURNE","TX","76033"
105590,"201 FAIRGROUND LN","WELDON","NC","27890"
105591,"201 FAIRWOOD DRIVE","NORTH CHESTERFIELD","VA","23235"
105592,"201 FALCON DRIVE","CONNELLSVILLE","PA","15425"
105593,"201 FANFAIR AVE","ORLANDO","FL","32811"
105594,"201 FERNWOOD COURT","ALPHARETTA","GA","30004"
105595,"201 FILHIOL AVE APT 1","MONROE","LA","71203"
105596,"201 FLATWOOD DR","CHESNEE","SC","29323"
105597,"201 FLIGHTLINE DRIVE","MINOT AFB","ND","58705"
105598,"201 FOLSOM ST 23G","SAN FRANCISCO","CA","94105"
105599,"201 FOOTE ST SW","CEDAR RAPIDS","IA","52404"
105600,"201 FOREST STREET","MARLBOROUGH","MA","01752"
105601,"201 FORMOSA DRIVE","POINT COMFORT","TX","77979"
105602,"201 FORT HOUSTON DRIVE","PALESTINE","TX","75801"
105603,"201 FOX DEN RD","KILLEN","AL","35645"
105604,"201 FRAN WAY","DALLAS","TX","75203"
105605,"201 FRANK DIXON ROAD","CLAIRFIELD","TN","37715"
105606,"201 FRANKLIN ST","WRENTHAM","MA","02093"
105607,"201 FREDDIE ANN DR","PRINCETON","IN","47670"
105608,"201 GALEN DR APT 105W","KEY BISCAYNE","FL","33149"
105609,"201 GALLERIA DRIVE","DESOTO","TX","75115"
105610,"201 GENET DR","ARABI","LA","70032"
105611,"201 GILLESPIE DRIVE UNIT 15404","FRANKLIN","TN","37067"
105612,"201 GLADON ST","HELENA WEST HELENA","AR","72390"
105613,"201 GLINIEWICZ WAY","ABINGTON","MA","02351"
105614,"201 GOLDEN VALLEY DRIVE","ST LOUIS","MO","63129"
105615,"201 GOVERNOR ST","NEW BRITAIN","CT","06053"
105616,"201 GRANDE PINES COURT WEST","JACKSON SPRINGS","NC","27281"
105617,"201 GRANDIN ROAD","CHARLOTTE","NC","28208"
105618,"201 GRANT ROAD N","CHUCKEY","TN","37641"
105619,"201 GREY HAWK CT","MYRTLE BEACH","SC","29588"
105620,"201 GRIGSBY AVE","HOLLY SPRINGS","NC","27540"
105621,"201 HANCOCK LANE","PENSACOLA","FL","32503"
105622,"201 HARMONY BLVD APT 104","POOLER","GA","31322"
105623,"201 HARRIS COURT","FRANKLIN","TN","37064"
105624,"201 HARVEST FIELDS DR","BOALSBURG","PA","16827"
105625,"201 HAWK  AVE  SW","ORTING","WA","98360"
105626,"201 HAY ST STE 401 A","FAYETTEVILLE","NC","28301"
105627,"201 HEAD START ROAD","TCHULA","MS","39169"
105628,"201 HENRY STREET","EASTOVER","SC","29044"
105629,"201 HERITAGE DRIVE","DELPHI","IN","46923"
105630,"201 HEYMANN BLVD SUITE 24","LAFAYETTE","LA","70503"
105631,"201 HICKORY HILL CIR","ONEONTA","AL","35121"
105632,"201 HICKORY LANE","WILLIAMSTOWN","NJ","08094"
105633,"201 HIGH RIDGE TRL","ROCKFORD","IL","61107"
105634,"201 HIGH STREET","SEVEN MILE","OH","45062"
105635,"201 HIGHLAND AVENUE","LARGO","FL","33779"
105636,"201 HIGHWAY 80 W","TALLULAH","LA","71282"
105637,"201 HOFFMAN AVE","MONTEREY","CA","93940"
105638,"201 HONEYBROOK DR APT 301","VIRGINIA BEACH","VA","23462"
105639,"201 HORSE GUARDS LN","COLUMBIA","SC","29229"
105640,"201 HOUSTON STREET  SUITE 104","BATAVIA","IL","60510"
105641,"201 HUNTERS CREEK RD","FOREST","VA","24551"
105642,"201 HUNTERS CROSSING BLVD 10-111","BASTROP","TX","78602"
105643,"201 HUNTERS WAY","ANGIER","NC","27501"
105644,"201 HURON AVE","EHT","NJ","08234"
105645,"201 I ST SW APT 633","WASHINGTON","DC","20024"
105646,"201 I ST SW APT V715","WASHINGTON","DC","20024"
105647,"201 IMPALA DR ATTN - IB OFFICE","FORT COLLINS","CO","80521"
105648,"201 IMPALA DR","FORT COLLINS","CO","80521"
105649,"201 INCHCAPE CIRCLE APT 1D","OWINGS MILLS","MD","21117"
105650,"201 INVERNESS LANE","BROUSSARD","LA","70518"
105651,"201 IVY ACRES DR","PIEDMONT","SC","29673"
105652,"201 JACKSON AVENUE","WILMINGTON","DE","19804"
105653,"201 JAY ST APT D54","STOWE","PA","19464"
105654,"201 JOHNSTON STREET","ST. GEORGE","SC","29485"
105655,"201 JUNIPER DRIVE","SOUTH BURLINGTON","VT","05403"
105656,"201 KELLOGG AVE","DALLAS CENTER","IA","50063"
105657,"201 KIESTER ROAD","SLIPPERY ROCK","PA","16057"
105658,"201 KIRBY HALL 716 SULLIVAN ROAD","EASTON","PA","18042"
105659,"201 LACKAWANNA AVE","SCRANTON","PA","18503"
105660,"201 LAFAYETTE PLACE","FOREST","VA","24551"
105661,"201 LARITA DRIVE","BEN LOMOND","CA","95005"
105662,"201 LAS VEGAS BLVD S 1533","LAS VEGAS","NV","89101"
105663,"201 LEES MILL RD","FAYETTEVILLE","GA","30214"
105664,"201 LEUENBERGER LANE","DOUGLAS","WY","82633"
105665,"201 LEWISTON RD","KETTERING","OH","45429"
105666,"201 LIBERTY ST STE 211","MORRIS","IL","60450"
105667,"201 LINCOLN ST","BERLIN","CT","06037"
105668,"201 LINDEN BLVD","BROOKLYN","NY","11226"
105669,"201 LINEHAN ROAD","MOUNDHOUSE","NV","89706"
105670,"201 LIVERMORE AVEUNE","STATEN ISLAND","NY","10314"
105671,"201 LOCHWEED COURT","COLUMBIA","SC","29212"
105672,"201 LOCUST STREET","MCMINNVILLE","TN","37110"
105673,"201 LODESTONE DR","DURHAM","NC","27703"
105674,"201 LONG BRANCH ROAD","PISGAH FOREST","NC","28768"
105675,"201 LYNN STREET","LATHROP","MO","64465"
105676,"201 LYNNWOOD GOLD COURT","CHESAPEAKE","VA","23320"
105677,"201 LYSLE BLVD","MCKEESPORT","PA","15132"
105678,"201 MADALINE DRIVE","AVENEL","NJ","07001"
105679,"201 MAIN ST","ROUNDUP","MT","59072"
105680,"201 MAIN ST","SANFORD","TX","79078"
105681,"201 MAIN ST","WAYLAND","MA","01778"
105682,"201 MAIN STREET APT 1","OXFORD","MA","01540"
105683,"201 MAIN STREET SUITE 102","RAPID CITY","SD","57701"
105684,"201 MAIN STREET SUITE 2500","FORT WORTH","TX","76102"
105685,"201 MAIN STREET","CUSHING","IA","51018"
105686,"201 MAIN STREET","ELMO","MO","64445"
105687,"201 MARINA DRIVE - APT 507","TUSCALOOSA","AL","35406"
105688,"201 MARINA RESIDENCE DR","CAMDENTON","MO","65020"
105689,"201 MARKET HALL ST","MONCKS CORNER","SC","29461"
105690,"201 MARKET STREET      POST BOX 301","MOUNT VERNON","MO","65712"
105691,"201 MARKET STREET","WARREN","PA","16365"
105692,"201 MASSACHUSETTS AVENUE NE","WASHINGTON","DC","20002"
105693,"201 MATEER BUILDING","UNIVERSITY PARK","PA","16802"
105694,"201 MEADOW RUN EXT","ASHEVILLE","NC","28806"
105695,"201 MEADOWLARK COURT","MARCO ISLAND","FL","34145"
105696,"201 MEARLEAF PLACE","HOLLY SPRINGS","NC","27540"
105697,"201 MERCHANT STREET SUITE 2440","HONOLULU","HI","96813"
105698,"201 METAIRIE RD","METAIRIE","LA","70005"
105699,"201 METAIRIE ROAD","METAIRIE","LA","70005"
105700,"201 MICHIGAN APT 710","GRAND RAPIDS","MI","49503"
105701,"201 MILFORD MILL ROAD","PIKESVILLE","MD","21208"
105702,"201 MILL HOLLOW RD","REXBURG","ID","83440"
105703,"201 MILLSPAUGH ST","SAN ANGELO","TX","76901"
105704,"201 MILWAUKEE STREET  SUITE 200","DENVER","CO","80206"
105705,"201 MISS ELLIE LN","ABILENE","TX","79602"
105706,"201 MOCKINGBIRD DRIVE","MARYVILLE","TN","37803"
105707,"201 MONROE AVE APT 1B","MAITLAND","FL","32751"
105708,"201 MONROE ST","HOBOKEN","NJ","07030"
105709,"201 MONTGOMERY STREET APT 263","JERSEY CITY","NJ","07302"
105710,"201 MORNING DOVE TRAIL","EAGLE POINT","OR","97524"
105711,"201 MOURY AVE 110","ATLANTA","GA","30315"
105712,"201 MULBERRY ST","WILLIAMSPORT","PA","17701"
105713,"201 MULLICA HILL RD","GLASSBORO","NJ","08028"
105714,"201 MULLICA HILL ROAD/ BIOMED ENG","GLASSBORO","NJ","08028"
105715,"201 N  WESTMORELAND AVE STE 129","LOS ANGELES","CA","90004"
105716,"201 N 1ST AVENUE  APT 308","IOWA CITY","IA","52245"
105717,"201 N 1ST STREET","ROGERS","AR","72756"
105718,"201 N BALLARD AVE SUITE 101","Wylie","TX","75098"
105719,"201 N BAYLEN ST","PENSACOLA","FL","32501"
105720,"201 N BAYLEN ST","PENSACOLA","FL","32502"
105721,"201 N BOULEVARD ST","VICKSBURG","MI","49097"
105722,"201 N BROOKSIDE AVE UNIT 726","REDLANDS","CA","92373"
105723,"201 N CARSON STREET SUITE 7","CARSON CITY","NV","89701"
105724,"201 N CENTRAL AVENUE 22ND FLOOR","PHOENIX","AZ","85004"
105725,"201 N CHARLES ST SUITE 1900","BALTIMORE","MD","21201"
105726,"201 N CHARLES ST SUITE 2406","BALTIMORE","MD","21201"
105727,"201 N CHESTNUT ST","SHELBYVILLE","IL","62565"
105728,"201 N COLUMBIA RD STOP 9037","GRAND FORKS","ND","58202"
105729,"201 N COURT STREET","SCOTTSVILLE","KY","42164"
105730,"201 N DALE  APT T1","ANAHEIM","CA","92801"
105731,"201 N DANDY ST","SAINT MARYS","GA","31558"
105732,"201 N DAVID STREET","CASPER","WY","82601"
105733,"201 N DOUGLAS ST","EL SEGUNDO","CA","90245"
105734,"201 N EDMONDS AVN","MCCRORY","AR","72101"
105735,"201 N ELGIN AVE","TULSA","OK","74120"
105736,"201 N FOREST AVENUE SUITE 120","INDEPENDENCE","MO","64050"
105737,"201 N FRANKLIN PO BOX 78","LEGRAND","IA","50142"
105738,"201 N FRANKLIN STREET - SUITE 2000","TAMPA","FL","33602"
105739,"201 N HAMILTON STREET","MOBILE","AL","36604"
105740,"201 N HARRISON STREET","GENEVA","IL","60134"
105741,"201 N HIGH STREET","WAXHAW","NC","28173"
105742,"201 N ILLINOIS STREET SUITE 1701","INDIANAPOLIS","IN","46204"
105743,"201 N JACKSON STREET","MEDIA","PA","19063"
105744,"201 N JOHN F KENNEDY DR","CARPENTERSVILLE","IL","60010"
105745,"201 N JOSSMAN RD","ORTONVILLE","MI","48462"
105746,"201 N LAZY LANE","CLUTE","TX","77531"
105747,"201 N MAIN ST SUITE 112","ROXBORO","NC","27573"
105748,"201 N MAIN ST","GODDARD","KS","67052"
105749,"201 N MAIN STREET","TUSCUMBIA","AL","35674"
105750,"201 N MAPLE AVE F","PURCELLVILLE","VA","20132"
105751,"201 N MARGARET ST","GEORGETOWN","DE","19947"
105752,"201 N MCDOWELL ST 32801","CHARLOTTE","NC","28232"
105753,"201 N MCDOWELL ST 34765","CHARLOTTE","NC","28232"
105754,"201 N MCDOWELL ST 34786","CHARLOTTE","NC","28232"
105755,"201 N MERIDIAN ST STE B","NEWBERG","OR","97132"
105756,"201 N MILL CREEK RD","QUINCY","CA","95971"
105757,"201 N MULBERRY ST","BATESVILLE","IN","47006"
105758,"201 N MURROW BLVD NUMBER 1556","GREENSBORO","NC","27401"
105759,"201 N OAK","ELDON","MO","65026"
105760,"201 N PENDLETON AVE","PENDLETON","IN","46064"
105761,"201 N QUEEN ST FL 1","LANCASTER","PA","17603"
105762,"201 N SANDY LANE","CHANDLER","OK","74834"
105763,"201 N SECOND ST","DUEQUSNE","PA","15110"
105764,"201 N SQUIRREL RD APT 911","AUBURN HILLS","MI","48326"
105765,"201 N SQUIRREL RD","AUBURN HILL","MI","48326"
105766,"201 N SQUIRREL RD","AUBURN HILLS","MI","48326"
105767,"201 N STARR","BROADWATER","NE","69125"
105768,"201 N STATE ST","CHRISTOPHER","IL","62822"
105769,"201 N SUMMIT ST","CRESCENT CITY","FL","32112"
105770,"201 N WALKER","OKLAOHMA CITY","OK","73102"
105771,"201 N WAPELLO ST","OTTUMWA","IA","52501"
105772,"201 N WEST STREET","ARMA","KS","66712"
105773,"201 NACOOCHEE WAY","CANTON","GA","30114"
105774,"201 NASTURTIUM ST","LAKE JACKSON","TX","77566"
105775,"201 NAVAJO TRAIL","PORTSMOUTH","VA","23701"
105776,"201 NAVIGATOR DRIVE","SCOTTS VALLEY","CA","95066"
105777,"201 NAYLOR DR","WEST MELBOURNE","FL","32904"
105778,"201 NE 44TH STREET","ANKENY","IA","50021"
105779,"201 NICKELS ST","HOT SPRINGS","AR","71901"
105780,"201 NORTH BRADDOCK AVENUE ROOM 614","PITTSBURGH","PA","15208"
105781,"201 NORTH CADDO STREET","CLEBURNE","TX","76031"
105782,"201 NORTH CHARLES STREET SUITE 2000","BALTIMORE","MD","21201"
105783,"201 NORTH COLE LN","ELIZABETHTOWN","KY","42701"
105784,"201 NORTH CRAIG PLACE","LOMBARD","IL","60148"
105785,"201 NORTH FEDERAL HIGHWAY SECOND FL","DEERFIELD BEACH","FL","33441"
105786,"201 NORTH FRONT STREET SUITE 405","WILMINGTON","NC","28401"
105787,"201 NORTH GARLAND COURT UNIT 2607","CHICAGO","IL","60601"
105788,"201 NORTH ILLINOIS ST SUITE 1600","INDIANAPOLIS","IN","46204"
105789,"201 NORTH MAIN STREET","ENGLEWOOD","OH","45322"
105790,"201 NORTH MAIN STREET","SWAINSBORO","GA","30401"
105791,"201 NORTH MARKET STREET","MINERVA","OH","44657"
105792,"201 NORTH MURROW BLVD UNIT 2584","GREENSBORO","NC","27402"
105793,"201 NORTH PECAN STREET","HAMILTON","TX","76531"
105794,"201 NORTH SECOND STREET SUITE 510","SAINT CHARLES","MO","63301"
105795,"201 NORTH SKYTOP DRIVE","EDINBORO","PA","16412"
105796,"201 NORTH SQUIRREL RD SUITE 108","AUBURN HILLS","MI","48326"
105797,"201 NORTH SUNSET DRIVE 321","WINSTON SALEM","FL","27101"
105798,"201 NORTH UNION STREET SUITE 230","ALEXANDRIA","VA","22314"
105799,"201 NORTH UNION STREET SUITE 410","ALEXANDRIA","VA","22314"
105800,"201 NORTH UNIVERSITY DRIVE","CORAL SPRINGS","FL","33071"
105801,"201 NORTH WASHINGTON","CLINTON","KY","42031"
105802,"201 NORTH WATER ST","TUSCUMBIA","AL","35674"
105803,"201 NORWOOD AVE","SYRACUSE","NY","13206"
105804,"201 NOTTINGHAM DRIVE","CORAOPOLIS","PA","15108"
105805,"201 NW 3RD STREET","BRIDGEWATER","IA","50837"
105806,"201 NW 7 STREET SUITE 401","MIAMI","FL","33136"
105807,"201 NW HWY 7","CLINTON","MO","64735"
105808,"201 O D SMITH HALL","AUBURN UNIVERSITY","AL","36849"
105809,"201 OAK RIDGE RD","DAWSON","TX","76639"
105810,"201 OCEAN AVE APT 1706P","SANTA MONICA","CA","90402"
105811,"201 OHUA AVE T-2","HONOLULU","HI","96815"
105812,"201 OLIVER ROAD","SANTA BARBARA","CA","93101"
105813,"201 ORCHARD ROAD","ADRIAN","MI","49221"
105814,"201 ORCHARD STREET","WESTON","WV","26452"
105815,"201 OVERCREST DR","BENBROOK","TX","76126"
105816,"201 OWENS AVENUE UNIT A","SAINT AUGUSTINE","FL","32080"
105817,"201 PALM BLVD","ISLE OF PALMS","SC","29451"
105818,"201 PARK AVE","WEST HARRISON","NY","10604"
105819,"201 PARK MEADOW DR","WEATHERFORD","TX","76087"
105820,"201 PENINSULA BLVD","HEMPSTEAD","NY","11550"
105821,"201 PENN CENTER BLVD STE 400","MONROEVILLE","PA","15235"
105822,"201 PENN CENTER BLVD SUITE 400","PITTSBURGH","PA","15235"
105823,"201 PETERSON DR","ELIZABETHTOWN","KY","42701"
105824,"201 PETERSVILLE RD","BRUNSWICK","MD","21716"
105825,"201 PINEGATE RD","PEACHTREE CTY","GA","30269"
105826,"201 POPLAR AVENUE SUITE 902","MEMPHIS","TN","38103"
105827,"201 POST DR","LULING","LA","70070"
105828,"201 PRAETORIAN CT","WILMINGTON","OH","45177"
105829,"201 PRAIRIEVIEW CRT","MARSHALL","MN","56258"
105830,"201 PRIVATE ROAD 3557","PARADISE","TX","76073"
105831,"201 PROSPECT PL","DANVILLE","IL","61832"
105832,"201 PROSPECT PLACE","DANVILLE","IL","61832"
105833,"201 Q ST NE APT 3237","WASHINGTON","DC","20002"
105834,"201 QUAPAW AVE","HOT SPRINGS","AR","71901"
105835,"201 QUINCE ROAD","WALNUT","IA","51577"
105836,"201 RANCHO VISTA DRIVE","DOUBLE OAK","TX","75077"
105837,"201 REID AVE","PORT ST JOE","FL","32456"
105838,"201 RICE STREET","NEW BOSTON","TX","75570"
105839,"201 RIGGS STREET","WEST MONROE","LA","71291"
105840,"201 RIVER BLUFF DRIVE","SHEFFIELD","AL","35660"
105841,"201 RIVER KNOLL DRIVE","JEFFERSON","NC","28640"
105842,"201 RIVERLINKS DRIVE","BURNSVILLE","NC","28714"
105843,"201 RIVERVIEW TERRACE","BENICIA","CA","94510"
105844,"201 ROBBI ST","SPRINGHILL","LA","71075"
105845,"201 ROCKY SLOPE RD APT 704","GREENVILLE","SC","29607"
105846,"201 ROUND TREE COURT","EGG HARBOR TOWNSHIP","NJ","08234"
105847,"201 ROUTE 17 NORTH FLOOR 2","RUTHERFORD","NJ","07070"
105848,"201 RUE BEAUREGARD STE 202","LAFAYETTE","LA","70508"
105849,"201 RUE BEAUREGARD","LAFAYETTE","LA","70508"
105850,"201 RUSHING DRIVE","LYONS","GA","30436"
105851,"201 RUSSELL BEND RD","WEATHERFORD","TX","76088"
105852,"201 S  4TH STREET","GREENVILLE","IL","62246"
105853,"201 S  FREDERICK AVENUE","GAITHERSBURG","MD","20877"
105854,"201 S 13TH ST","WAUSAU","WI","54403"
105855,"201 S 18TH STREET - SUITE 204","PHILADELPHIA","PA","19103"
105856,"201 S 18TH STREET 1616","PHILADELPHIA","PA","19103"
105857,"201 S 1ST E","SNOWFLAKE","AZ","85937"
105858,"201 S 1ST ST E","SNOWFLAKE","AZ","85937"
105859,"201 S 3RD STREET","MORRIS","OK","74445"
105860,"201 S 4TH STREET","OPELIKA","AL","36801"
105861,"201 S 6TH STREET","HIAWATHA","KS","66434"
105862,"201 S 8TH STREET","COLUMBIA","MO","65201"
105863,"201 S 8TH STREET","SAINT JOSEPH","MO","64501"
105864,"201 S BARTLETT ST","SHAWANO","WI","54166"
105865,"201 S BEECH ST","TURLOCK","CA","95380"
105866,"201 S BISCAYNE BLVD 28TH FLOOR","MIAMI","FL","33131"
105867,"201 S BISCAYNE BLVD FL 28","MIAMI","FL","33131"
105868,"201 S BISCAYNE BLVD STE 800","MIAMI","FL","33131"
105869,"201 S BISCAYNE BLVD SUITE 2800","MIAMI","FL","33131"
105870,"201 S BLAKLEY ST STE 239","DUNMORE","PA","18512"
105871,"201 S BLOOMINGDALE ROAD","BLOOMINGDALE","IL","60108"
105872,"201 S CAMERON LN","BARTONVILLE","IL","61607"
105873,"201 S CEARLOCK AVE","CHEYENNE","OK","73628"
105874,"201 S CENTER ST","GLADEWATER","TX","75647"
105875,"201 S CENTRAL  SUITE 450","CLAYTON","MO","63131"
105876,"201 S COMMERCIAL","COLEMAN","TX","76834"
105877,"201 S DIVISION STREET","GRANVILLE","IL","61326"
105878,"201 S GRANT AVE","COLUMBUS","OH","43215"
105879,"201 S GREENFIELD ROAD LOT 339","MESA","AZ","85206"
105880,"201 S HURST ROAD SUITE 100","BURLESON","TX","76028"
105881,"201 S HWY 174- PO BOX 129","RIO VISTA","TX","76093"
105882,"201 S MAIN ST","BIXBY","OK","74008"
105883,"201 S MAIN ST","HARLAN","KY","40831"
105884,"201 S MAIN STREET","FARMLAND","IN","47340"
105885,"201 S MAIN STREET","PLYMOUTH","MI","48170"
105886,"201 S MAIN","GODDARD","KS","67052"
105887,"201 S MAIN","OLDS","IA","52647"
105888,"201 S NEW YORK AVENUE","ATLANTIC CITY","NJ","08401"
105889,"201 S ORANGE STREET","NEW SMYRNA BEACH","FL","32168"
105890,"201 S PRESIDENT ST","JACKSON","MS","39201"
105891,"201 S RIVER ST APT 301","HOT SPRINGS","SD","57747"
105892,"201 S ROGERS RD APT N-113","HOT SPRINGS","AR","71913"
105893,"201 S SANTA FE AVE STE 101","LOS ANGELES","CA","90012"
105894,"201 S SHELBY ST STE 201","LOUISVILLE","KY","40202"
105895,"201 S SUPERIOR ST","ALBION","MI","49224"
105896,"201 S UNIVERSITY AVE","MT. PLEASANT","MI","48858"
105897,"201 S WARNER AVE","PERRY","FL","32348"
105898,"201 S WEST STREET","COUDERSPORT","PA","16915"
105899,"201 S WEST STREET","SYRACUSE","NY","13202"
105900,"201 SAINT ANN ST 2B","OWENSBORO","KY","42303"
105901,"201 SAINT CLAIR STREET","FRANKFORT","KY","40601"
105902,"201 SAN MORITZ CT","DESOTO","TX","75115"
105903,"201 SANDY LAKE ROAD","COLUMBIA","SC","29229"
105904,"201 SANTA MONICA AVE","EFFINGHAM","IL","62401"
105905,"201 SANTANDER DR","LAREDO","TX","78046"
105906,"201 SATURN LANE","GREER","SC","29651"
105907,"201 SCHOOL STREET","ADVANCE","MO","63730"
105908,"201 SE 2ND AVE 3104","MIAMI","FL","33131"
105909,"201 SE 2ND AVE APT 1601","MIAMI","FL","33131"
105910,"201 SE 2ND AVE STE 2405","MIAMI","FL","33131"
105911,"201 SE 2ND AVE SUITE1813","MIAMI","FL","33131"
105912,"201 SE 6TH ST","LEON","IA","50144"
105913,"201 SE RAILROAD RD","FORT GIBSON","OK","74434"
105914,"201 SECOND AVENUE","GARWOOD","NJ","07027"
105915,"201 SHADY TRAIL","PORTERSVILLE","PA","16051"
105916,"201 SHANNONBROOK LANE","FREDERICK","MD","21701"
105917,"201 SHAVER ROAD","WEST SAND LAKE","NY","12196"
105918,"201 SHAWNEE EST","WINFIELD","WV","25213"
105919,"201 SHELBY ST","MURFREESBORO","TN","37127"
105920,"201 SHEPARDS WAY","BURNSVILLE","NC","28714"
105921,"201 SHEPPARD ST","GLEN ROSE","TX","76043"
105922,"201 SIGNAL ROAD","DREXEL HILL","PA","19026"
105923,"201 SIMMONS LANE","BELLE VERNON","PA","15012"
105924,"201 SIOUX AVE","HIAWATHA","KS","66434"
105925,"201 SOLOMON DR","SLIDELL","LA","70458"
105926,"201 SOUTH 4TH STREET","UPPER SANDUSKY","OH","43351"
105927,"201 SOUTH BLAKELY STREET NO-305","DUNMORE","PA","18512"
105928,"201 SOUTH CORTEZ STREET","PRESCOTT","AZ","86303"
105929,"201 SOUTH DIVISION SUITE 400","ANN ARBOR","MI","48104"
105930,"201 SOUTH EISENHOWER DRIVE","BECKLEY","WV","25801"
105931,"201 SOUTH FAIR STREET","CHAMPAIGN","IL","61821"
105932,"201 SOUTH GRANT STREET","LIGONIER","PA","15658"
105933,"201 SOUTH HEIGHTS BLVD APT 1728","HOUSTON","TX","77007"
105934,"201 SOUTH HIGH STREET","KIRKSVILLE","MO","63501"
105935,"201 SOUTH JOE WILSON ROAD APT 1728","CEDAR HILL","TX","75104"
105936,"201 SOUTH LAKELINE BLVD SUITE 202","CEDAR PARK","TX","78613"
105937,"201 SOUTH MAIN STREET SUITE 2000","SALT LAKE CITY","UT","84111"
105938,"201 SOUTH MAIN STREET SUITE 6","LAMBERTVILLE","NJ","08503"
105939,"201 SOUTH MAIN STREET","HOPEDALE","MA","01747"
105940,"201 SOUTH MAIN STREET","MIDDLEBURY","IN","46540"
105941,"201 SOUTH MAIN STREET","WINDSOR","MO","65360"
105942,"201 SOUTH MAIN","WINDSOR","MO","65360"
105943,"201 SOUTH MAPLE STREET","NORTH LIBERTY","IN","46554"
105944,"201 SOUTH ORANGE AVENUE SUITE 800","ORLANDO","FL","32801"
105945,"201 SOUTH PETERSON AVE ROOM 304","LOUISVILLE","KY","40206"
105946,"201 SOUTH SECOND AVENUE","HAILEY","ID","83333"
105947,"201 SOUTH SECOND STREET SUITE 102","FORT PIERCE","FL","34950"
105948,"201 SOUTH TILLERY STREET","ROCKY MOUNT","NC","27804"
105949,"201 SOUTH U STREET APT 59","LOMPOC","CA","93436"
105950,"201 SOUTH WASHINGTON STREET","TIFFIN","OH","44883"
105951,"201 SOUTH YELLOWSTONE DRIVE STE 101","MADISON","WI","53705"
105952,"201 SPEAR STREET STE 1100","SAN FRANCISCO","CA","94105"
105953,"201 SPEAR STREET SUITE 1100","SAN FRANCISCO","CA","94105"
105954,"201 SPECIALTY POINT","SANFORD","FL","32771"
105955,"201 SPRUCE AVE","GARWOOD","NJ","07207"
105956,"201 ST CHARLES AVE STE 4600","NEW ORLEANS","LA","70170"
105957,"201 ST CHARLES AVE STE 950","NEW ORLEANS","LA","70170"
105958,"201 ST CHARLES AVE SUITE 114-475","NEW ORLEANS","LA","70170"
105959,"201 ST CHARLES AVE SUITE 2500","NEW ORLEANS","LA","70170"
105960,"201 ST CHARLES AVENUE STE 114-513","NEW ORLEANS","LA","70170"
105961,"201 ST CHARLES AVENUE SUITE 114-206","NEW O","LA","70170"
105962,"201 ST CHARLES AVENUE SUITE 114","NEW ORLEANS","LA","70170"
105963,"201 ST CHARLES AVENUE SUITE 5100","NEW ORLEANS","LA","70170"
105964,"201 ST LOUIS VALLEY RD","PARIS","AR","72855"
105965,"201 STADIUM DRIVE","CHESAPEAKE","VI","23322"
105966,"201 STAFFORD HALL UVM 95 CARRIGAN","BURLINGTON","VT","05405"
105967,"201 STANWIX ST APT 718","PITTSBURGH","PA","15222"
105968,"201 STEELHEAD CIRCLE","LEWISTON","CA","96052"
105969,"201 STRATFORD ST","HOUSTON","TX","77006"
105970,"201 STRYKERS ROAD SUITE 19 ROOM 224","PHILLIPSBURG","NJ","08865"
105971,"201 SUGARMILL DRIVE","BOWLING GREEN","KY","42104"
105972,"201 SULKY CIRCLE","WILMINGTON","DE","19810"
105973,"201 SW CLAY","TOPEKA","KS","66606"
105974,"201 SW GREENWOOD AVENUE","TOPEKA","KS","66606"
105975,"201 SYCAMORE STREET","HAYTI","MO","63851"
105976,"201 SYLVESTER AVE","BERRIEN SPRINGS","MI","49103"
105977,"201 TAMAL VISTA BLVD UNIT 103","CORTE MADERA","CA","94925"
105978,"201 TAYLOR RD","ELGIN","TX","78621"
105979,"201 THIRD NW 12TH FLOOR","ALBUQUERQUE","NM","87106"
105980,"201 THIRD ST NW STE 1950","ALBUQUERQUE","NM","87123"
105981,"201 THOMAS MILL ROAD","EASLEY","SC","29640"
105982,"201 THOMPSON LANE SUITE 211","NASHVILLE","TN","37211"
105983,"201 THOROBRED RD","LOVELAND","OH","45140"
105984,"201 TIMBER CT  203","TERRELL","TX","75160"
105985,"201 TIMBER OAKS DRIVE","NORTH AURORA","IL","60542"
105986,"201 TIMBERLINE DR S","COLLEYVILLE","TX","76034"
105987,"201 TOULON CT","FAIRVIEW HEIGHTS","IL","62208"
105988,"201 TOWN AND COUNTRY LN","CHESTER","SC","29706"
105989,"201 TOWNSEND ST STE 900","LANSING","MI","48933"
105990,"201 TOWNSEND STREET SUITE 900","LANSING","MI","48933"
105991,"201 TREEWOOD ST","SAN DIEGO","CA","92114"
105992,"201 UNIVERSITY BOULEVARD","DANBURY","CT","06811"
105993,"201 UNIVERSITY OAKS BLVD STE 2035","ROUND ROCK","TX","78665"
105994,"201 VALLEY BROOK DRIVE","SILVER SPRING","MD","20904"
105995,"201 VANDERPOOL LN UNIT 28","HOUSTON","TX","77024"
105996,"201 VANIDA DRIVE","CAMILLUS","NY","13031"
105997,"201 VETERANS DRIVE","COLUMBUS","TX","78934"
105998,"201 VICTORIAN LANE","BELLEVILLE","MI","48111"
105999,"201 VIKING DRIVE","PLEASANT HILL","CA","94523"
106000,"201 VILLA CIR","BOYNTON BEACH","FL","33435"
