"ID","Address","City","State","Zip"
325001,"P O BOX 124","MINERAL SPRINGS","NC","28108"
325002,"P O BOX 124","POWELL","WY","82435"
325003,"P O BOX 124","RUSSELL","AR","72139"
325004,"P O BOX 124","SOUTH GATE","CA","90280"
325005,"P O BOX 1240","VERO BEACH","FL","32960"
325006,"P O BOX 1241","ANDERSON","CA","96007"
325007,"P O BOX 1241","FRESNO","TX","77545"
325008,"P O BOX 1242","FULTON","KY","42041"
325009,"P O BOX 1243","IDAHO CITY","ID","83631"
325010,"P O BOX 1244","MATTHEWS","NC","28106"
325011,"P O BOX 1244","SHEPHERDSVILLE","KY","40165"
325012,"P O BOX 12445","BIRMINGHAM","AL","35202"
325013,"P O BOX 1245","ALPHARETTA","GA","30009"
325014,"P O BOX 12454","PORTLAND","WA","97212"
325015,"P O BOX 12457","JACKSON","MS","39289"
325016,"P O BOX 1246","CHINO","CA","91708"
325017,"P O BOX 1248","LEXINGTON","KY","40588"
325018,"P O BOX 1248","ST MARTINVILLE","LA","70582"
325019,"P O BOX 12482","ROCK HILL","SC","29731"
325020,"P O BOX 125","ARCOLA","IN","46704"
325021,"P O BOX 125","EAGLE","AK","99738"
325022,"P O BOX 125","MEDORA","IN","47260"
325023,"P O BOX 125","WEYMOUTH","MA","02188"
325024,"P O BOX 1251","CARBONDALE","IL","62903"
325025,"P O BOX 1251","SALEM","MO","65560"
325026,"P O BOX 1251","STROUDSBURG","PA","18360"
325027,"P O BOX 1252","JACKSON","MI","49202"
325028,"P O BOX 1252","MONTICELLO","KY","42633"
325029,"P O BOX 1252","PURVIS","MS","39475"
325030,"P O BOX 1253","NORTH TONAWANDA","NY","14120"
325031,"P O BOX 1256","KODIAK","AK","99615"
325032,"P O BOX 126","AROMAS","CA","95004"
325033,"P O BOX 126","MOUNT PLEASANT","IA","52641"
325034,"P O BOX 126","SENECA FALLS","NY","13148"
325035,"P O BOX 1261","WESLACO","TX","78599"
325036,"P O BOX 1262","MIAMISBURG","OH","45342"
325037,"P O BOX 1263","GERMANTOWN","MD","20875"
325038,"P O BOX 1264","EDGEWOOD","MH","21040"
325039,"P O BOX 12643","PORTLAND","OR","97212"
325040,"P O BOX 126451","HARRISBURG","PA","17112"
325041,"P O BOX 1265","DOVER","DE","19903"
325042,"P O BOX 1265","QUITMAN","TX","75783"
325043,"P O BOX 1267","ARAB","AL","35016"
325044,"P O BOX 1268","HOUSTON","TX","77217"
325045,"P O BOX 1269","PINSON","AL","35126"
325046,"P O BOX 127 ROOSEVELT ISLAND","NEW YORK","NY","10044"
325047,"P O BOX 127","BOLING","TX","77420"
325048,"P O BOX 127","PITTSBURG","NH","03591"
325049,"P O BOX 12706","PORTLAND","OR","97212"
325050,"P O BOX 1272","HAMMOND","LA","70401"
325051,"P O BOX 1273","ADAIRSVILLE","GA","30103"
325052,"P O BOX 1273","LAKE WORTH","FL","33460"
325053,"P O BOX 1273","REDWOOD CITY","CA","94064"
325054,"P O BOX 1274","CALLAHAN","FL","32011"
325055,"P O BOX 1274","FRESNO","TX","77545"
325056,"P O BOX 1275","BROWNSBURG","IN","46112"
325057,"P O BOX 12764","COLUMBIA","SC","29211"
325058,"P O BOX 12771","FLORENCE","SC","29504"
325059,"P O BOX 12771","HUNTSVILLE","AL","35815"
325060,"P O BOX 1278","PLAINFIELD","IL","60544"
325061,"P O BOX 1279","SANDPOINT","ID","83864"
325062,"P O BOX 128","BAYTOWN","TX","77523"
325063,"P O BOX 128","GLENN DALE","MD","20769"
325064,"P O BOX 128","HOMEWORTH","OH","44634"
325065,"P O BOX 1281","COLUMBUS","TX","78934"
325066,"P O BOX 1281","KEAAU","HI","96749"
325067,"P O BOX 1281","SOUTHGATE","MI","48195"
325068,"P O BOX 1282","BELLMAWR","NJ","08099"
325069,"P O BOX 1282","POPLAR BLUFF","MO","63902"
325070,"P O BOX 1282","SCOTTSVILLE","KY","42164"
325071,"P O BOX 12821","AUSTIN","TX","78711"
325072,"P O BOX 1284","WASHINGTON","CT","06793"
325073,"P O BOX 12840","OVERLAND PARK","KS","66212"
325074,"P O BOX 1289","GOLD BEACH","OR","97444"
325075,"P O BOX 129","PENITAS","TX","78576"
325076,"P O BOX 129","STOCKTON","UT","84071"
325077,"P O BOX 1290","GRAND LAKE","CO","80447"
325078,"P O BOX 1291","COMMERCE","TX","75429"
325079,"P O BOX 1291","WEST CHESTER","PA","19382"
325080,"P O BOX 12919","JACKSONVILLE","FL","32209"
325081,"P O BOX 1292","TAFT","CA","93268"
325082,"P O BOX 1292","WILMINGTON","NC","28402"
325083,"P O BOX 1294","STAFFORD","TX","77497"
325084,"P O BOX 1296","OAK PARK","IL","60304"
325085,"P O BOX 1298","FALLING WATERS","WV","25419"
325086,"P O BOX 1299","BATTLE GROUND","WA","98604"
325087,"P O BOX 13","GALESBURG","IL","61402"
325088,"P O BOX 13","GRANTSBORO","NC","28529"
325089,"P O BOX 13","KATTSKILL BAY","NY","12844"
325090,"P O BOX 13","KENTS STORE","VA","23084"
325091,"P O BOX 13","OXFORD","MS","38655"
325092,"P O BOX 13","WARSAW","IN","46580"
325093,"P O BOX 130","JEFFERSON CITY","TN","37760"
325094,"P O BOX 130","LEASBURG","MO","65535"
325095,"P O BOX 13007","FORT WAYNE","IN","46866"
325096,"P O BOX 1301","GATLINBURG","TN","37738"
325097,"P O BOX 1302","CONNELL","WA","99326"
325098,"P O BOX 1304","BELGRADE","MT","59714"
325099,"P O BOX 13044","DURHAM","NC","27709"
325100,"P O BOX 13054","FLORENCE","SC","29504"
325101,"P O BOX 1306","GRASS VALLEY","CA","95945"
325102,"P O BOX 130983","HOUSTON","TX","77219"
325103,"P O BOX 131","GRAYSON","GA","30017"
325104,"P O BOX 131","HOUSTON","TX","77001"
325105,"P O BOX 131","SULPHUR SPRINGS","TX","75483"
325106,"P O BOX 1310","BRANFORD","FL","32008"
325107,"P O BOX 1310","HAMLET","NC","28345"
325108,"P O BOX 131016","DALLAS","TX","75313"
325109,"P O BOX 1311","INGRAM","TX","78025"
325110,"P O BOX 1311","RUSTON","LA","71272"
325111,"P O BOX 1314","CEDARTOWN","GA","30125"
325112,"P O BOX 13153","BAKERSFIELD","CA","93389"
325113,"P O BOX 1316","GOLIAD","TX","77963"
325114,"P O BOX 132 / 1210 OLD COATS RD","LILLINGTON","NC","27546"
325115,"P O BOX 132","HALLSVILLE","TX","75650"
325116,"P O BOX 132","NEWTON","TX","75966"
325117,"P O BOX 132","NOIRTH EASTON","MA","02356"
325118,"P O BOX 132","SOMERSVILLE","CT","06072"
325119,"P O BOX 132","WALLISVILLE","TX","77597"
325120,"P O BOX 1321","BEMIDJI","MN","56601"
325121,"P O BOX 1321","CLARKESVILLE","GA","30523"
325122,"P O BOX 1321","RIVERTON","IL","62561"
325123,"P O BOX 1321","WEST BABYLON","NY","11704"
325124,"P O BOX 1322","ASHLAND","VA","23005"
325125,"P O BOX 1322","COPPERAS COVE","TX","76522"
325126,"P O BOX 1323","FORT WALTON BEACH","FL","32549"
325127,"P O BOX 1324","VICTORVILLE","CA","92393"
325128,"P O BOX 132768","TYLER","TX","75713"
325129,"P O BOX 13291","JACKSON","MS","39212"
325130,"P O BOX 133","CHINO VALLEY","AZ","86323"
325131,"P O BOX 133","DAVID CITY","NE","68632"
325132,"P O BOX 133","GRANGER","IA","50109"
325133,"P O BOX 133","LYNNVILLE","TN","38472"
325134,"P O BOX 1331","BRONX","NY","10451"
325135,"P O BOX 1331","LIHUE","HI","96766"
325136,"P O BOX 1331","SHERMAN","TX","75091"
325137,"P O BOX 133216","BIG BEAR LAKE","CA","92315"
325138,"P O BOX 1335","REDAN","GA","30058"
325139,"P O BOX 1336","SAN JUAN BAUTISTA","CA","95045"
325140,"P O BOX 1337","DOUGLASVILLE","GA","30133"
325141,"P O BOX 1338","PERRYSBURG","OH","43551"
325142,"P O BOX 134","JASPER","FL","32052"
325143,"P O BOX 134","LINGLEVILLE","TX","76461"
325144,"P O BOX 1341","FRESNO","TX","77459"
325145,"P O BOX 1342","PORTAGE","IN","46368"
325146,"P O BOX 13430","GREENSBORO","NC","27415"
325147,"P O BOX 1345","CALHOUN","GA","30703"
325148,"P O BOX 1345","EUREKA","MT","59917"
325149,"P O BOX 1345","MARINA","CA","93933"
325150,"P O BOX 13463","GREENSBORO","NC","27415"
325151,"P O BOX 1347","UPLAND","CA","91785"
325152,"P O BOX 1348","GIDDINGS","TX","78942"
325153,"P O BOX 135","JENERA","OH","45841"
325154,"P O BOX 13511","FLINT","MI","48501"
325155,"P O BOX 1352","ASTORIA","OR","97103"
325156,"P O BOX 1352","GROVETON","TX","75845"
325157,"P O BOX 1353","BINGHAMTON","NY","13902"
325158,"P O BOX 1353","MABANK","TX","75147"
325159,"P O BOX 13537","MEXICO BEACH","FL","32410"
325160,"P O BOX 1354","BOARDMAN","OR","97818"
325161,"P O BOX 1355","SITKA","AK","99835"
325162,"P O BOX 13557","MAUMELLE","AR","72113"
325163,"P O BOX 13558","TULSA","OK","74159"
325164,"P O BOX 1357","LA VERNIA","TX","78121"
325165,"P O BOX 1358","BURNET","TX","78611"
325166,"P O BOX 136","COTUIT","MA","02635"
325167,"P O BOX 136","HICKORY RIDGE","AR","72347"
325168,"P O BOX 136","PREMIER","WV","24878"
325169,"P O BOX 1361","SAVANNAH","GA","31402"
325170,"P O BOX 1361","UNIONTOWN","PA","15401"
325171,"P O BOX 1362","MARRERO","LA","70073"
325172,"P O BOX 1362","MORRISVILLE","NC","27560"
325173,"P O BOX 1363","SALMON","ID","83467"
325174,"P O BOX 13631","PENSACOLA","FL","32591"
325175,"P O BOX 1367","ELKHART","IN","46515"
325176,"P O BOX 13686","MIAMI","FL","33131"
325177,"P O BOX 13688","JACKSON","MS","39236"
325178,"P O BOX 1371","SHELBY","NC","28150"
325179,"P O BOX 13729","JACKSON","MS","39236"
325180,"P O BOX 1373","SLIDELL","LA","70459"
325181,"P O BOX 1377","MCDONOUGH","GA","30253"
325182,"P O BOX 13794","OKLAHOMA CITY","OK","73113"
325183,"P O BOX 138","BRICE","OH","43109"
325184,"P O BOX 138","DERIDDER","LA","70634"
325185,"P O BOX 13812","MACON","GA","31208"
325186,"P O BOX 13812","NEW BERN","NC","28561"
325187,"P O BOX 1382","DEFUNIAK SPRINGS","FL","32435"
325188,"P O BOX 1383","LEXINGTON","KY","40588"
325189,"P O BOX 1383","LEXINGTON","VA","24450"
325190,"P O BOX 1383","ROSS","CA","94957"
325191,"P O BOX 139","SMITHTON","IL","62285"
325192,"P O BOX 1392","CHULA VISTA","CA","91912"
325193,"P O BOX 1392","LAS VEGAS","NV","89125"
325194,"P O BOX 1392","WASHINGTON","MS","39120"
325195,"P O BOX 13933","SAN LUIS OBISPO","CA","93406"
325196,"P O BOX 1394","EAU CLAIRE","WI","54702"
325197,"P O BOX 1394","SHINER","TX","77984"
325198,"P O BOX 13944","EAST DUBLIN","GA","31027"
325199,"P O BOX 13964","TALLAHASSEE","FL","32317"
325200,"P O BOX 1398","LACONIA","NH","03247"
325201,"P O BOX 14","COLUMBUS","NC","28722"
325202,"P O BOX 14","GARNER","NC","27529"
325203,"P O BOX 14","NORWAY","ME","04268"
325204,"P O BOX 14","OATMAN","AZ","86433"
325205,"P O BOX 14","WILTON","WI","54670"
325206,"P O BOX 14005","AUGUSTA","GA","30919"
325207,"P O BOX 14025","PHOENIX","AZ","85063"
325208,"P O BOX 140262","BROOKLYN","NY","11214"
325209,"P O BOX 1403","KING GEORGE","VA","22485"
325210,"P O BOX 1403","OAKWOOD","GA","30566"
325211,"P O BOX 1404","LOWELL","MA","01854"
325212,"P O BOX 140463","DALLAS","TX","75214"
325213,"P O BOX 1405","LITTLETON","NC","27850"
325214,"P O BOX 140574","CORAL GABLES","FL","33114"
325215,"P O BOX 140827","STATEN ISLAND","NY","10314"
325216,"P O BOX 141","GALENA","MD","21635"
325217,"P O BOX 141","HUMBLE","TX","77347"
325218,"P O BOX 141","IRMO","SC","29063"
325219,"P O BOX 141","MIDLOTHIAN","VA","23113"
325220,"P O BOX 141","NEW YORK","NY","10163"
325221,"P O BOX 141","NORTH SUTTON","NH","03260"
325222,"P O BOX 141","SAGINAW","MO","64864"
325223,"P O BOX 141","VANDERGRIFT","PA","15690"
325224,"P O BOX 1410","CHICAGO","IL","60690"
325225,"P O BOX 1410","INDEPENDENCE","LA","70443"
325226,"P O BOX 1412","CLEVELAND","MS","38732"
325227,"P O BOX 1412","TIFTON","GA","31793"
325228,"P O BOX 1413","SUGARLAND","TX","77487"
325229,"P O BOX 14155","MACON","GA","31203"
325230,"P O BOX 14172","ARLINGTON","TX","76094"
325231,"P O BOX 14179","FREMONT","CA","94539"
325232,"P O BOX 1419","HOPEWELL","VA","23860"
325233,"P O BOX 14197","PHILADELPHIA","PA","19138"
325234,"P O BOX 142","BONITA","CA","91908"
325235,"P O BOX 142","CHIPPEWA LAKE","OH","44215"
325236,"P O BOX 142","KAMIAH","ID","83536"
325237,"P O BOX 142","NELSONVILLE","OH","43026"
325238,"P O BOX 142","NORTHAMPTON","MA","01060"
325239,"P O BOX 142","WILBERFORCE","OH","45384"
325240,"P O BOX 142063","FAYETTEVILLE","GA","30214"
325241,"P O BOX 142101","FAYETTEVILLE","GA","30214"
325242,"P O BOX 1422 403 CASWELL STREET","SMITHFIELD","NC","27577"
325243,"P O BOX 1424","LEWISTON","ID","83501"
325244,"P O BOX 142504","GAINESVILLE","FL","32614"
325245,"P O BOX 14251","AUGUSTA","GA","30919"
325246,"P O BOX 1426","CROWN POINT","IN","46308"
325247,"P O BOX 14266","JACKSONVILLE","FL","32238"
325248,"P O BOX 14280 S MILITARY TRAIL","DELRAY","FL","33484"
325249,"P O BOX 14289","ATLANTA","GA","30324"
325250,"P O BOX 143 200 N MARKET STREET","SCHAEFFERSTOWN","PA","17088"
325251,"P O BOX 143","BENNETTSVILLE","SC","29512"
325252,"P O BOX 1431","CHARLES TOWN","WV","25414"
325253,"P O BOX 1431","HOLLISTER","MO","65673"
325254,"P O BOX 1435","GRAYSON","GA","30017"
325255,"P O BOX 1436","RACELAND","LA","70394"
325256,"P O BOX 1439","CULLMAN","AL","35056"
325257,"P O BOX 144","CROSS PLAINS","TX","76443"
325258,"P O BOX 144","ELGIN","TX","78621"
325259,"P O BOX 144","GLENSIDE","PA","19038"
325260,"P O BOX 144","MT ZION","IL","62549"
325261,"P O BOX 144","REEDSVILLE","WV","26547"
325262,"P O BOX 14408","CHARLESTON","SC","29422"
325263,"P O BOX 144094","CORAL GABLES","FL","33114"
325264,"P O BOX 1441","COLTON","CA","92324"
325265,"P O BOX 1441","SAN JUAN CAPISTRANO","CA","92693"
325266,"P O BOX 1441","SAVANNAH","GA","31402"
325267,"P O BOX 1443","LAGRANGE","GA","30241"
325268,"P O BOX 1444","HILLIARD","OH","43026"
325269,"P O BOX 1445","FORT GIBSON","OK","74434"
325270,"P O BOX 1445","HEWITT","TX","76643"
325271,"P O BOX 14472","SANTA ROSA","CA","95402"
325272,"P O BOX 145 C/O LONG ACCOUNTING SER","ELLIJAY","GA","30540"
325273,"P O BOX 145","CUYAHOGA FALLS","OH","44222"
325274,"P O BOX 145","DAYTON","TX","77535"
325275,"P O BOX 145","GUSTAVUS","AK","99826"
325276,"P O BOX 145","PENNOCK","MN","56279"
325277,"P O BOX 145","SAGUACHE","CO","81149"
325278,"P O BOX 1450","MERCED","CA","95341"
325279,"P O BOX 14502","AUSTIN","TX","78761"
325280,"P O BOX 1451","JACKSON","GA","30233"
325281,"P O BOX 1453","ABBEVILLE","LA","70511"
325282,"P O BOX 1453","FLOWERY BRANCH","GA","30542"
325283,"P O BOX 1457","DENHAM SPRINGS","LA","70727"
325284,"P O BOX 1458","GILBERT","AZ","85299"
325285,"P O BOX 146","AUGUSTA","GA","30903"
325286,"P O BOX 146","CROMPOND","NY","10517"
325287,"P O BOX 146","TILLERY","NC","27887"
325288,"P O BOX 146","WASHINGTON","MO","63090"
325289,"P O BOX 14605","AUGUSTA","GA","30919"
325290,"P O BOX 1463","KINGSTON","NY","12402"
325291,"P O BOX 14682","NORTH PALM BEACH","FL","33408"
325292,"P O BOX 147","CLAREMORE","OK","74018"
325293,"P O BOX 147","LOWNDESBORO","AL","36752"
325294,"P O BOX 147","POST MILLS","VT","05058"
325295,"P O BOX 1472","CONWAY","AR","72033"
325296,"P O BOX 1472","CUMMING","GA","30028"
325297,"P O BOX 1472","NEWARK","NJ","07101"
325298,"P O BOX 14722","TALLAHASSEE","FL","32317"
325299,"P O BOX 1473","ISSAQUAH","WA","98027"
325300,"P O BOX 1474","SALINA","KS","67402"
325301,"P O BOX 14741","IRVINE","CA","92623"
325302,"P O BOX 1475","MEDINA","OH","44258"
325303,"P O BOX 14752","AUGUSTA","GA","30915"
325304,"P O BOX 14752","AUGUSTA","GA","30919"
325305,"P O BOX 148","CAMP WOOD","TX","78833"
325306,"P O BOX 148","COLE CAMP","MO","65325"
325307,"P O BOX 148","INGRAM","TX","78025"
325308,"P O BOX 148","MILL CREEK","OK","74856"
325309,"P O BOX 148","ROWLETT","TX","75030"
325310,"P O BOX 148","VANCEBORO","NC","28586"
325311,"P O BOX 1482","HILLSBOROUGH","NC","27278"
325312,"P O BOX 1482","LITHONIA","GA","30058"
325313,"P O BOX 1482","TALLAHASSEE","FL","32302"
325314,"P O BOX 1483","ORANGE","TX","77631"
325315,"P O BOX 1484","COLLEGEDALE","TN","37315"
325316,"P O BOX 1487","MORGAN CITY","LA","70381"
325317,"P O BOX 14887","BATON ROUGE","LA","70898"
325318,"P O BOX 149","DALLAS","PA","18612"
325319,"P O BOX 149","SCOTLAND","PA","17254"
325320,"P O BOX 1495","RAPID CITY","SD","57709"
325321,"P O BOX 15","DILLSBURG","PA","17019"
325322,"P O BOX 15","EBONY","VA","23845"
325323,"P O BOX 15","GILMORE","AR","72339"
325324,"P O BOX 15","HORATIO","SC","29062"
325325,"P O BOX 15","PICKWICK DAM","TN","38365"
325326,"P O BOX 150","SMITHVILLE","MO","64089"
325327,"P O BOX 1500","HUNTINGTON","NY","11743"
325328,"P O BOX 150006","DALLAS","TX","75315"
325329,"P O BOX 150026","NASHVILLE","TN","37215"
325330,"P O BOX 15013","GREENVILLE","SC","29610"
325331,"P O BOX 1502","SAUK VILLAGE","IL","60412"
325332,"P O BOX 15024","ST PETERSBURG","FL","33733"
325333,"P O BOX 1503","FORT BRAGG","CA","95437"
325334,"P O BOX 150332","GRAND RAPIDS","MI","49515"
325335,"P O BOX 15034","SAN LUIS OBISPO","CA","93406"
325336,"P O BOX 1509","VERO BEACH","FL","32961"
325337,"P O BOX 151","ALCOA","TN","37701"
325338,"P O BOX 151","LAKE MILLS","WI","53551"
325339,"P O BOX 151101","DALLAS","TX","75315"
325340,"P O BOX 151111","SAN DIEGO","CA","92175"
325341,"P O BOX 15122","TUCSON","AZ","85708"
325342,"P O BOX 15131","SANTA ROSA","CA","95402"
325343,"P O BOX 1514","PINELLAS PARK","FL","33781"
325344,"P O BOX 1514","TEMPLE","TX","76503"
325345,"P O BOX 1516","MEREDITH","NH","03253"
325346,"P O BOX 152","BENNETTSVILLE","SC","29512"
325347,"P O BOX 152","DENAIR","CA","95316"
325348,"P O BOX 152","DOWNINGTOWN","PA","19335"
325349,"P O BOX 152","ELKHORN","WI","53121"
325350,"P O BOX 152","LAKESIDE","OR","97449"
325351,"P O BOX 1522","ALLEN","TX","75013"
325352,"P O BOX 1523","GREENVILLE","MS","38702"
325353,"P O BOX 1523","MELBOURNE","FL","32902"
325354,"P O BOX 15244","HUMBLE","TX","77347"
325355,"P O BOX 152500","AUSTIN","TX","78715"
325356,"P O BOX 15255","BROOKSVILLE","FL","34604"
325357,"P O BOX 1526","BOYD","TX","76023"
325358,"P O BOX 15265","HUMBLE","TX","77347"
325359,"P O BOX 1527","CARTHAGE","TX","75633"
325360,"P O BOX 1527","CEDAR RIDGE","CA","95924"
325361,"P O BOX 1527","JOSHUA TREE","CA","92252"
325362,"P O BOX 15273","SAN FRANCISCO","CA","94115"
325363,"P O BOX 152886","DALLAS","TX","75315"
325364,"P O BOX 153","COEUR D'ALENE","ID","83816"
325365,"P O BOX 153","LEXINGTON","KY","40588"
325366,"P O BOX 1533","PARIS","TX","75461"
325367,"P O BOX 15362","MIDDLE RIVER","MD","21220"
325368,"P O BOX 154","BENNETT","IA","52721"
325369,"P O BOX 154","COLUMBIA","KY","42728"
325370,"P O BOX 154","HOLLY SPRINGS","MS","38635"
325371,"P O BOX 154","SOMERSET","NJ","08875"
325372,"P O BOX 1540","PINEDALE","WY","82941"
325373,"P O BOX 1541","LITTLE ELM","TX","75068"
325374,"P O BOX 1542","VERO BEACH","FL","32961"
325375,"P O BOX 1546","DAYTONA BEACH","FL","32115"
325376,"P O BOX 1547","ESPANOLA","NM","87532"
325377,"P O BOX 1549","COLUMBUS","NC","28722"
325378,"P O BOX 1549","ROBERTSDALE","AL","36567"
325379,"P O BOX 155","AHMEEK","MI","49950"
325380,"P O BOX 155","CHESTERFIELD","IN","46017"
325381,"P O BOX 155","CHEYNEY","PA","19319"
325382,"P O BOX 155","DIXON","KY","42409"
325383,"P O BOX 155","HICKORY","NC","28602"
325384,"P O BOX 155","KEYSER","WV","26726"
325385,"P O BOX 155133","WACO","TX","76715"
325386,"P O BOX 1553","DICKSON","TN","37056"
325387,"P O BOX 15573","FORT WORTH","TX","76119"
325388,"P O BOX 15585","WEST PALM BEACH","FL","33416"
325389,"P O BOX 1559","NORFOLK","VA","23501"
325390,"P O BOX 156","HIWASSEE","VA","24347"
325391,"P O BOX 156","NICEVILLE","FL","32588"
325392,"P O BOX 156","ROCK SPRINGS","WI","53961"
325393,"P O BOX 1562","GRAYSON","KY","41143"
325394,"P O BOX 1565","HAMMOND","LA","70404"
325395,"P O BOX 1567","WILMINGTON","NC","28402"
325396,"P O BOX 1568-304","MONTPELIER","VT","05601"
325397,"P O BOX 157","BARWICK","GA","31720"
325398,"P O BOX 157","GOOSE CREEK","SC","29445"
325399,"P O BOX 157","VENANGO","PA","16440"
325400,"P O BOX 1571","PINE LAKE","GA","30072"
325401,"P O BOX 15736","BRADENTON","FL","34280"
325402,"P O BOX 1574","IONE","CA","95640"
325403,"P O BOX 1574","JACKSON","GA","30233"
325404,"P O BOX 1574","NIPOMO","CA","93444"
325405,"P O BOX 1578","RATCLIFF","TX","75858"
325406,"P O BOX 1579","SEYMOUR","TN","37865"
325407,"P O BOX 15794","HOUSTON","TX","77220"
325408,"P O BOX 158","BURLINGTON","WA","98233"
325409,"P O BOX 158","HUBBARD","IA","50122"
325410,"P O BOX 158","MERIDEN","NH","03770"
325411,"P O BOX 158","POCOLA","OK","74902"
325412,"P O BOX 158","WAYNOKA","OK","73860"
325413,"P O BOX 15815","FERNANDINA BEACH","FL","32035"
325414,"P O BOX 15821","FORT WORTH","TX","76119"
325415,"P O BOX 1585","OROVILLE","CA","95956"
325416,"P O BOX 1586","SAINT AUGUSTINE","FL","32085"
325417,"P O BOX 1587","LACONIA","NH","03247"
325418,"P O BOX 1591","BEAR","DE","19701"
325419,"P O BOX 1591","KYLE","TX","78640"
325420,"P O BOX 1595","COPPERAS COVE","TX","76522"
325421,"P O BOX 1599","SPOTSYLVANIA","VA","22553"
325422,"P O BOX 16","FRYEBURG","ME","04037"
325423,"P O BOX 16","GRAMBLING","LA","71245"
325424,"P O BOX 16","TITUSVILLE","FL","32781"
325425,"P O BOX 160","DELMAR","NY","12054"
325426,"P O BOX 160","NASHVILLE","IN","47448"
325427,"P O BOX 160","STAPLES","TX","78670"
325428,"P O BOX 16008","CHARLOTTE","NC","28297"
325429,"P O BOX 1601","JANESVILLE","WI","53547"
325430,"P O BOX 16016","JACKSON","MS","39236"
325431,"P O BOX 16021","PHOENIX","AZ","85011"
325432,"P O BOX 160271","NASHVILLE","TN","37216"
325433,"P O BOX 1603","WAKE FOREST","NC","27587"
325434,"P O BOX 1604","HARTFORD","CT","06144"
325435,"P O BOX 1605","WINDHAM","ME","04062"
325436,"P O BOX 16051","DULUTH","MN","55816"
325437,"P O BOX 1606","NORTH LITTLE ROCK","AR","72114"
325438,"P O BOX 16074","LANSING","MI","48901"
325439,"P O BOX 1608","SAN MARCOS","TX","78667"
325440,"P O BOX 16091","BALTIMORE","MD","21218"
325441,"P O BOX 161","FALLON","NV","89407"
325442,"P O BOX 161","FIRTH","NE","68358"
325443,"P O BOX 161","GIRDWOOD","AK","99587"
325444,"P O BOX 1611","HUMBLE","TX","77347"
325445,"P O BOX 1612","FOLSOM","LA","70437"
325446,"P O BOX 1612","NEW CANAAN","CT","06840"
325447,"P O BOX 161661","MOBILE","AL","36616"
325448,"P O BOX 161716","ATLANTA","GA","30321"
325449,"P O BOX 1618","BENTON","AR","72015"
325450,"P O BOX 16192","GREENVILLE","SC","29606"
325451,"P O BOX 162","COMFORT","TX","78013"
325452,"P O BOX 162","LEAGUE CITY","TX","77574"
325453,"P O BOX 162","VIRGINIA","MN","55792"
325454,"P O BOX 162","WAYNESVILLE","NC","28786"
325455,"P O BOX 1620","WILLMAR","MN","56201"
325456,"P O BOX 1624","ASHLAND","VA","23005"
325457,"P O BOX 16265","WINSTON SALEM","NC","27115"
325458,"P O BOX 16291","GREENVILLE","SC","29606"
325459,"P O BOX 163","POLAND","ME","04274"
325460,"P O BOX 1630","MCKINNEY","TX","75070"
325461,"P O BOX 16312","SAINT PAUL","MN","55116"
325462,"P O BOX 1636","MORGAN CITY","LA","70381"
325463,"P O BOX 16361","PITTSBURGH","PA","15242"
325464,"P O BOX 1638","LAUREL SPRINGS","NJ","08021"
325465,"P O BOX 1638","MONROVIA","CA","91017"
325466,"P O BOX 164","AHWAHNEE","CA","93601"
325467,"P O BOX 164","BRAMWELL","WV","24715"
325468,"P O BOX 164","CLANCY","MT","59634"
325469,"P O BOX 164","HONESDALE","PA","18431"
325470,"P O BOX 164098","LITTLE ROCK","AR","72216"
325471,"P O BOX 1642","MANSFIELD","TX","76063"
325472,"P O BOX 1642","SIERRA VISTA","AZ","85636"
325473,"P O BOX 1645","DOVER","DE","19903"
325474,"P O BOX 165","CONFLUENCE","PA","15424"
325475,"P O BOX 165","CUERO","TX","77954"
325476,"P O BOX 165","SAINT ANN","MO","63074"
325477,"P O BOX 165162","IRVING","TX","75016"
325478,"P O BOX 165162","IRVING","TX","75060"
325479,"P O BOX 1652","SWAINSBORO","GA","30401"
325480,"P O BOX 1653","MONROVIA","CA","91017"
325481,"P O BOX 16544","CHAPEL HILL","NC","27516"
325482,"P O BOX 1656","HARRIMAN","TN","37748"
325483,"P O BOX 1657","NEWARK","NJ","07101"
325484,"P O BOX 1658","BEAVER","WV","25832"
325485,"P O BOX 165811","IRVING","TX","75016"
325486,"P O BOX 166","EVERGLADES CITY","FL","34139"
325487,"P O BOX 166","REYNOLDSBURG","OH","43068"
325488,"P O BOX 16603","BRISTOL","VA","24209"
325489,"P O BOX 1661","HUNTERSVILLE","NC","28078"
325490,"P O BOX 1662","VANCOUVE","WA","98668"
325491,"P O BOX 1663","JASPER","GA","30143"
325492,"P O BOX 1663","PARADISE","CA","95967"
325493,"P O BOX 1664","BATON ROUGE","LA","70821"
325494,"P O BOX 16653","GALVESTON","TX","77552"
325495,"P O BOX 16668","CHARLOTTE","NC","28297"
325496,"P O BOX 1668","MASON","TX","76856"
325497,"P O BOX 1668","PARADISE","CA","95967"
325498,"P O BOX 167","WHITE PLAINS","NY","10603"
325499,"P O BOX 1672","HENDERSON","NC","27536"
325500,"P O BOX 1675","KAPAA","HI","96746"
