"ID","Address","City","State","Zip"
166501,"311 STATION WAY","HUNTINGTON STATION","NY","11746"
166502,"311 STONEWOOD DR","HIXSON","TN","37343"
166503,"311 SW GREEN TEAL ST","LEES SUMMIT","MO","64082"
166504,"311 TATES COURT","LOGANVILLE","GA","30052"
166505,"311 TENNESSEE AVENUE","ELIZABETHVILLE","PA","17023"
166506,"311 TEXAS STREET","VIDALIA","LA","71373"
166507,"311 THIRD STREET SOUTH","NAMPA","ID","83651"
166508,"311 TOCCOA PL","JONESBORO","GA","30236"
166509,"311 VILLAGE DR PMB 3174","TAMARACK","ID","83615"
166510,"311 VILLAGE DR","NACOGDOCHES","TX","75965"
166511,"311 W 127TH ST APT 309","NEW YORK","NY","10027"
166512,"311 W 20TH STREET","NORTH LITTLE ROCK","AR","72114"
166513,"311 W 2ND ST","RUSHVILLE","IN","46173"
166514,"311 W 5TH ST","PALMYRA","NJ","08065"
166515,"311 W 6TH STREET","PERRIS","CA","92570"
166516,"311 W 74TH ST","RICHFIELD","MN","55423"
166517,"311 W CRYSTAL LAKE AVENUE","CRYSTAL LAKE","IL","60014"
166518,"311 W FRANKLIN ST","RICHMOND","VA","23220"
166519,"311 W MAIN ST","WHITEHOUSE","TX","75791"
166520,"311 W MONTGOMERY AVE","ROCKVILLE","MD","20850"
166521,"311 W RALPH ST APT A","SAN GABRIEL","CA","91776"
166522,"311 W RICHARDSON ST","SELMA","NC","27576"
166523,"311 WARREN ST","FAYETTEVILLE","NY","13066"
166524,"311 WARREN STREET","BEVERLY","NJ","08010"
166525,"311 WASHINGTON RD","PITTSBURGH","PA","15216"
166526,"311 WEST 10TH STREET","COFFEYVILLE","KS","67337"
166527,"311 WEST 111TH STREET APT 2D","NEW YORK","NY","10026"
166528,"311 WEST 24TH STREET APT 19H","NEW YORK","NY","10011"
166529,"311 WEST 7TH STREET","AUSTIN","TX","78701"
166530,"311 WEST DRIVE","DUBLIN","GA","31021"
166531,"311 WEST MATTHEWS","JONESBORO","AR","72401"
166532,"311 WEST RED BIRD LANE","DUNCANVILLE","TX","75116"
166533,"311 WEST SUPERIOR/ SUITE 509","CHICAGO","IL","60654"
166534,"311 WEST WALLACE ST APT 307","BURGAW","NC","28425"
166535,"311 WHITE MOUNTAIN MEADOWS DRIVE","RUIDOSO","NM","88345"
166536,"311 WILKINSON ROAD","RICHMOND","VA","23227"
166537,"311 WILLIAMS AVE","AUBURN","AL","36830"
166538,"311 WILLIAMS STREET","NILES","OH","44446"
166539,"311 WILLOW ST APT 203","FORT COLLINS","CO","80524"
166540,"311 WINDY DRIVE","WATERBURY","CT","06705"
166541,"311 WOODEND RD","STRATFORD","CT","06615"
166542,"311-B BELT ROAD","AGUADILLA","PR","00603"
166543,"3110 1ST AVE N SUITE 2M","SAINT PETERSBURG","FL","33713"
166544,"3110 1ST AVENUE NORTH SUITE H","ST PETERSBURG","FL","33713"
166545,"3110 BARRONS WAY","SUGAR LAND","TX","77479"
166546,"3110 BIDDLE RD","BELLVILLE","OH","44813"
166547,"3110 CABRINI DR NW","GIG HARBOR","WA","98332"
166548,"3110 CHERRY PALM DR SUITE 290","TAMPA","FL","33619"
166549,"3110 CHERRY PALM DR","TAMPA","FL","33619"
166550,"3110 CONGRESS PARK DRIVE 1132","LAKE WORTH","FL","33461"
166551,"3110 DAVID DRIVE","METAIRIE","LA","70003"
166552,"3110 DUNN COMMONS PARKWAY APT 309","CHARLOTTE","NC","28216"
166553,"3110 E 79TH STREET","CHICAGO","IL","60649"
166554,"3110 E BATTALA CT","GILBERT","AZ","85297"
166555,"3110 E CORONET DR","SALT LAKE CITY","UT","84124"
166556,"3110 E MEDICINE LAKE BLVD","PLYMOUTH","MN","55441"
166557,"3110 E PALM DR - UNIT 12","FULLERTON","CA","92831"
166558,"3110 E SUNSET RD","LAS VEGAS","NV","89121"
166559,"3110 EAST 1ST ST","LOS ANGELES","CA","90063"
166560,"3110 EAST BOUNDARY CT","MIDLOTHIAN","VA","23112"
166561,"3110 EDWARDS MILL ROAD SUITE 100","RALEIGH","NC","27612"
166562,"3110 ELMWOOD AVE","ROCHESTER","NY","14618"
166563,"3110 FAIRFIELD AVENUE","BRONX","NY","10463"
166564,"3110 HAVERHILL DR","AURORA","IL","60502"
166565,"3110 HEATHSTEAD PLACE","CHARLOTTE","NC","28210"
166566,"3110 HIDDEN CREEK DRIVE","CHICO","CA","95973"
166567,"3110 HOLLY AVE","COLONIAL HEIGHTS","VA","23834"
166568,"3110 JUDSON ST STE 102","GIG HARBOR","WA","98335"
166569,"3110 JUDSON STREET PMB 109","GIG HARBOR","WA","98335"
166570,"3110 LEYLAND COURT","DECATUR","GA","30034"
166571,"3110 LIBERTY HEIGHTS AVENUE","BALTIMORE","MD","21215"
166572,"3110 LUMBY DRIVE APT 4208","DECATUR","GA","30034"
166573,"3110 MARTIN LN","ROLLING MEADOWS","IL","60008"
166574,"3110 MT  ZION RD APT 705","STOCKBRIDGE","GA","30281"
166575,"3110 MUSTANG ROAD","ALVIN","TX","77511"
166576,"3110 N SHERIDAN RD APT 707","CHICAGO","IL","60657"
166577,"3110 NORTH PENNSYLVANIA ST","INDIANAPOLIS","IN","46205"
166578,"3110 NOTTINGHAM","MARKHAM","IL","60426"
166579,"3110 NW 166ST","MIAMI GARDENS","FL","33054"
166580,"3110 NW 211TH ST","MIAMI GARDENS","FL","33056"
166581,"3110 PHEASANT CREEK","NORTHBROOK","IL","60062"
166582,"3110 PIONEER ROAD","ROANOKE","VA","24012"
166583,"3110 PONDEROSA DRIVE","ALLISON PARK","PA","15101"
166584,"3110 QUAIL CREST AVE","HENDERSON","NV","89052"
166585,"3110 RAVEN CT","IOWA CITY","IA","52245"
166586,"3110 RIPPLEWOOD DR","SEFFNER","FL","33584"
166587,"3110 S STREET","SACRAMENTO","CA","95816"
166588,"3110 SABINE POINT WAY","MISSOURI CITY","TX","77459"
166589,"3110 SADE CT","HUNTINGTOWN","MD","20639"
166590,"3110 SCARLET OAK COVE","ROUND ROCK","TX","78665"
166591,"3110 SE 30TH ST","MOORE","OK","73165"
166592,"3110 SHARON DRIVE","CHAMPAIGN","IL","61822"
166593,"3110 STOCKMAN ST","NATIONAL CITY","CA","91950"
166594,"3110 STONE OAK DR","DOUGLASVILLE","GA","30134"
166595,"3110 SW RALEIGHVIEW DR","PORTLAND","OR","97225"
166596,"3110 TIOGA PKWY","BALTIMORE","MD","21215"
166597,"3110 ULYSSES STREET NE","MINNEAPOLIS","MN","55418"
166598,"3110 UVALDE AVE","NEDERLAND","TX","77627"
166599,"3110 W FARM ROAD 102","SPRINGFIELD","MO","65803"
166600,"3110 W LEIGH STREET","RICHMOND","VA","23230"
166601,"3110 W RIVERSIDE AVE","MUNCIE","IN","47304"
166602,"3110 WILDERNESS HILLS BLVD 6-112","LINCOLN","NE","68516"
166603,"3110-A ASHFORD DUNWOODY RD","ATLANTA","GA","30319"
166604,"31100 SOLON ROAD SUITE 16","SOLON","OH","44139"
166605,"31100 TELEGRAPH RD","BINGHAM FARMS","MI","48025"
166606,"31101 STIRLING COURT","WINCHESTER","CA","92596"
166607,"31103 CLAREWOOD DRIVE","BAY VILLAGE","OH","44140"
166608,"31103 RANCHO VIEJO ROAD - UNIT 2328","SAN JUAN CAPISTRANO","CA","92675"
166609,"31103 RANCHO VIEJO ROAD 2328","SAN JUAN CAPISTRANO","CA","92675"
166610,"31103 RANCHO VIEJO ROAD D2335","SAN JUAN CAPISTRANO","CA","92675"
166611,"31103-D210 RANCHO VIEJO ROAD","SAN JUAN CAPISTRANO","CA","92675"
166612,"31105 FURTOSO WAY","BOERNE","TX","78015"
166613,"31105 RANCHO VIEJO ROAD SUITE C9","SAN JUAN CAPISTRANO","CA","92675"
166614,"3111 20 MAHAN DRIVE 2145","TALLAHASSEE","FL","32308"
166615,"3111 4TH STREET 409","SANTA MONICA","CA","90405"
166616,"3111 4TH STREET SUITE 409","SANTA MONICA","CA","90405"
166617,"3111 62ND STREET","SAUGATUCK","MI","49453"
166618,"3111 ABRAHAM DR","CEDAR FALLS","IA","50613"
166619,"3111 AMADOR DR","LANDOVER","MD","20785"
166620,"3111 AURELIA COURT APT 103","BROOKLYN","NY","11210"
166621,"3111 CAMINO DEL RIO N STE 400","SAN DIEGO","CA","92108"
166622,"3111 CAMINO DEL RIO N SUITE 401","SAN DIEGO","CA","92108"
166623,"3111 CAMINO DEL RIO NORTH SUITE 400","SAN DIEGO","CA","92108"
166624,"3111 CARDINAL DRIVE","VERO BEACH","FL","32963"
166625,"3111 CARSON AVE","CLOVIS","CA","93611"
166626,"3111 CEDARBROOK","ANN ARBOR","MI","48105"
166627,"3111 CENTER COURT LANE 700","ANTELOPE","CA","95843"
166628,"3111 COUNTRY CLUB DRIVE","CHARLOTTE","NC","28205"
166629,"3111 CREEK HAVEN DRIVE","HIGHLAND VILLAGE","TX","75077"
166630,"3111 E STONE POINT DRIVE","BOISE","ID","83712"
166631,"3111 FALLBROOK DR","HOUSTON","TX","77038"
166632,"3111 FONSECA PASS","ATLANTA","GA","30349"
166633,"3111 GRANT STREET SUITE B","MISSOULA","MT","59801"
166634,"3111 HEATH AVENUE APT 42B","BRONX","NY","10463"
166635,"3111 HENDON RD","LOUISVILLE","KY","40220"
166636,"3111 LINDBERGH AVE","BELLINGHAM","WA","98225"
166637,"3111 MARITA DRIVE","FAYETTEVILLE","NC","28301"
166638,"3111 MONROE","DEARBORN","MI","48124"
166639,"3111 N 34TH PLACE","PHOENIX","AZ","85018"
166640,"3111 N CENTRAL AVE SUITE 101","PHOENIX","AZ","85012"
166641,"3111 N UNIVERSITY DR STE 105","CORAL SPRINGS","FL","33065"
166642,"3111 NORTH 12TH STREET","QUINCY","IL","62305"
166643,"3111 NORTHSIDE AVE","RICHMOND","VA","23228"
166644,"3111 PIEDMONT AVENUE","COLUMBIA","SC","29204"
166645,"3111 QUIET HILLS PLACE","ESCONDIDO","CA","92029"
166646,"3111 ROUTE 38 SUITE 11 192","MOUNT LAUREL","NJ","08054"
166647,"3111 ROUTE 38 SUITE 11 257","MT LAUREL","NJ","08054"
166648,"3111 ROUTE 38 SUITE 11-612","MOUNT LAUREL","NJ","08054"
166649,"3111 S BIRMINGHAN","AMARILLO","TX","79103"
166650,"3111 S CEDAR CREST COURT","INDEPENDENCE","MO","64057"
166651,"3111 S MARYLAND PARKWAY","LAS VEGAS","NV","89109"
166652,"3111 S VALLEY VIEW STE A-208","LAS VEGAS","NV","89102"
166653,"3111 S VENTURA AVE","SPRINGFIELD","MO","65804"
166654,"3111 SOUTH JASMINE WAY","DENVER","CO","80222"
166655,"3111 SOUTHERN AVE","BALTIMORE","MD","21214"
166656,"3111 SULLEN PLACE","NEW ORLEANS","LA","70131"
166657,"3111 TYLER ST NE","MINNEAPOLIS","MN","55418"
166658,"3111 VERDUN AVE","NORFOLK","VA","23509"
166659,"3111 W 83RD ST","CHICAGO","IL","60652"
166660,"3111 W ORANGE AVE","ANAHEIM","CA","92804"
166661,"3111 WALTON WAY","ROSWELL","GA","30076"
166662,"3111 WELBORN STREET  UNIT 1204","DALLAS","TX","75219"
166663,"3111 WEST BAY VILLA AVENUE","TAMPA","FL","33611"
166664,"3111 WEST POLK AVENUE","ANAHEIM","CA","92801"
166665,"3111 WINSTON DRIVE","BETTENDORF","IA","52722"
166666,"3111 WOODROW AVENUE","RICHMOND","VA","23222"
166667,"31110 IMPERIAL OAKS BLVD","SPRING","TX","77386"
166668,"31115 ALICE LANE","TOMBALL","TX","77375"
166669,"31117 24TH AVE S","FEDERAL WAY","WA","98003"
166670,"31119 BRAE BURN AVE","HAYWARD","CA","94544"
166671,"3111SW MORGAN ST","SEATTLE","WA","98126"
166672,"3112 ALEXANDER AVE","SHREVEPORT","LA","71104"
166673,"3112 ARUNDEL DRIVE","CHARLOTTE","NC","28209"
166674,"3112 BARNETT ROAD","SUMMIT","MS","39666"
166675,"3112 BERKLEY ST","FLINT","MI","48504"
166676,"3112 BETTY BROOK ROAD","SOUTH KORTRIGHT","NY","13842"
166677,"3112 BIRCHSTONE LANE","CHARLOTTE","NC","28269"
166678,"3112 BRAEPARK CT","DICKINSON","TX","77539"
166679,"3112 BRUNO DRIVE","CHESAPEAKE","VA","23323"
166680,"3112 BUCKINGHAM COURT","MODESTO","CA","95350"
166681,"3112 CAMDEN AV","LORAIN","OH","44055"
166682,"3112 CHATHAM ROAD","DIBERVILLE","MS","39540"
166683,"3112 CLAIR RD","LEXINGTON","KY","40502"
166684,"3112 DOMINION WAY","DENTON","TX","76209"
166685,"3112 EASY STREET","KOKOMO","IN","46902"
166686,"3112 ELLEN TERRY DRIVE","OCEANSIDE","NY","11572"
166687,"3112 GLOSS AVE","CINCINNATI","OH","45213"
166688,"3112 GRANT ST","MCKINNEY","TX","75071"
166689,"3112 GREENPOND RD","GRAY COURT","SC","29645"
166690,"3112 HOLLOWSTONE DRIVE","LOGANVILLE","GA","30052"
166691,"3112 JONES RIDGE DRIVE","CHARLOTTE","NC","28226"
166692,"3112 MINNEHAHA AVE APARTMENT 201","MINNEAPOLIS","MN","55406"
166693,"3112 MOKIHANA STREET","HONOLULU","HI","96816"
166694,"3112 MURIEL AVE","KETTERING","OH","45429"
166695,"3112 N 50TH STREET","PHOENIX","AZ","85018"
166696,"3112 N MADISON STREET","WILMINGTON","DE","19802"
166697,"3112 NORTH GREYSTONE DRIVE","MORGANTOWN","WV","26508"
166698,"3112 PIKE RD","BIRMINGHAM","AL","35208"
166699,"3112 PROPHECY RD","MIDDLESEX","NC","27557"
166700,"3112 SCHOOL HOUSE ROAD","GOSHEN","KY","40026"
166701,"3112 SPRUNT AVE","DURHAM","NC","27705"
166702,"3112 SPRUNT AVENUE","DURHAM","NC","27705"
166703,"3112 WALTERS LANE","DISTRICT HEIGHTS","MD","20747"
166704,"3112 WEST HIGHLAND BLVD","MILWAUKEE","WI","53208"
166705,"3112 WEST LAKE FOREST DRIVE","AUGUST","GA","30309"
166706,"3112 WESTOVER DR SE","WASHINGTON","DC","20020"
166707,"3112 WINDSOR ROAD SUITE A368","AUSTIN","TX","78703"
166708,"3112 WINDSOR ROAD","AUSTIN","TX","78703"
166709,"31127 SOUTH 80TH RD","BEATRICE","NE","68310"
166710,"3113  S 70TH ST","OMAHA","NE","68106"
166711,"3113 13TH ST NE","WASHINGTON","DC","20017"
166712,"3113 AGECROFT RD","RALEIGH","NC","27608"
166713,"3113 ALAFAYA BAY LANE APT 304","ORLANDO","FL","32817"
166714,"3113 BOXLEY VIEW LANE","FRANKLIN","TN","37064"
166715,"3113 CAMELOT BLVD","CHESAPEAKE","VA","23322"
166716,"3113 CEDRIC CT","FORT MILL","SC","29715"
166717,"3113 CLARIDGE DRIVE","CONYERS","GA","30094"
166718,"3113 CLINT MOORE ROAD APT 101","BOCA RATON","FL","33496"
166719,"3113 CORNELL AVENUE","DALLAS","TX","75205"
166720,"3113 CORONADO DRIVE","FULLERTON","CA","92835"
166721,"3113 FALLOW CIRCLE","FLOWER MOUND","TX","75028"
166722,"3113 GASCONADE","ST LOUIS","MO","63118"
166723,"3113 GASCONADE","ST. LOUIS","MO","63118"
166724,"3113 LAKEHURST AVE","FORESTVILLE","MD","20747"
166725,"3113 LAUREL LANE","PORTSMOUTH","VA","23703"
166726,"3113 LOUISE ST SUITE A","FORT WORTH","TX","76112"
166727,"3113 LUNAR COURT","LAUREL","MD","20724"
166728,"3113 MARTHA ST","HIGHLAND","IN","46322"
166729,"3113 MARTIN L KING JR AVE SE","WASHINGTON","DC","20032"
166730,"3113 N VAN BUREN ST","WILMINGTON","DE","19802"
166731,"3113 OLD FENCE ROAD","ELLICOTT CITY","MD","21042"
166732,"3113 PICKLE ROAD","OREGON","OH","43616"
166733,"3113 RAYCRAFT RD","WOODSTOCK","IL","60098"
166734,"3113 REID AVENUE","CULVER CITY","CA","90232"
166735,"3113 ROBERTA DR NW","ATLANTA","GA","30327"
166736,"3113 TERRACE PARK TRAIL","NORMAN","OK","73069"
166737,"3113 VERMILLION DRIVE","PLANO","TX","75093"
166738,"3113 VIEW ROAD","MADISON","WI","53711"
166739,"3113 VISTA HEIGHTS LANE","HIGHLAND VILLAGE","TX","75077"
166740,"3113 W KENSINGTON AVENUE","TAMPA","FL","33629"
166741,"3113 WATERCASTLE CT","LEAGUE CITY","TX","77573"
166742,"3113 WAYSIDE LANE","ANDERSON","IN","46011"
166743,"3113 WEST LORIENT DRIVE","MCHENRY","IL","60050"
166744,"3113 WINNIE ST","GALVESTON","TX","77550"
166745,"31132 ASPEN LANE","POLSON","MT","59860"
166746,"31132 CEANOTHUS DRIVE","LAGUNA BEACH","CA","92651"
166747,"31139 CO 7 BLVD","WELCH","MN","55089"
166748,"3114 143RD AVE","DORR","MI","49323"
166749,"3114 16TH STREET NW APT A","WASHINGTON","DC","20010"
166750,"3114 1ST ST","DES MOINES","IA","50313"
166751,"3114 22ND AVE S","SEATTLE","WA","98144"
166752,"3114 BAY TO BAY BLVD","TAMPA","FL","33629"
166753,"3114 BLUFFFVIEW DRIVE","GARLAND","TX","75043"
166754,"3114 CABOT ST","MONTGOMERY","AL","36110"
166755,"3114 CHIPPEWA STREET","SAINT LOUIS","MO","63118"
166756,"3114 E 9TH ST","JOPLIN","MO","64801"
166757,"3114 EDWARDS PLACE NO 202","MARYLAND HEIGHTS","MO","63043"
166758,"3114 EL PASEO","ALAMEDA","CA","94502"
166759,"3114 HIDDEN RIDGE TER","ABINGDON","MD","21009"
166760,"3114 HUBBELL AVENUE","DES MOINES","IA","50317"
166761,"3114 HWY 421","BEDFORD","KY","40006"
166762,"3114 MADELEY STREET","HOUSTON","TX","77093"
166763,"3114 MERLE HAY RD 500","DES MOINES","IA","50310"
166764,"3114 MOUNT MIGUEL DRIVE","SAN DIEGO","CA","92139"
166765,"3114 N MARKET ST","WILMINGTON","DE","19802"
166766,"3114 NORTH PATTON STREET","PHILADELPHIA","PA","19132"
166767,"3114 OAK BEND","TYLER","TX","75707"
166768,"3114 PARKINGTON AVE APT C","BALTIMORE","MD","21215"
166769,"3114 PASEO BLVD","KANSAS CITY MO","MO","64109"
166770,"3114 PASEO BLVD","KANSAS CITY","MO","64109"
166771,"3114 QUARTZ WAY","AUGUSTA","GA","30907"
166772,"3114 ROAD 103","PASCO","WA","99301"
166773,"3114 S JEFFERSON AVE 3D","SPRINGFIELD","MO","65807"
166774,"3114 S RACINE ST","CHICAGO","IL","60608"
166775,"3114 SANDSPUR DRIVE","TAMPA","FL","33618"
166776,"3114 SW 172ND STREET","BURIEN","WA","98166"
166777,"3114 TRUMAN ST NE","ALBUQUERQUE","NM","87110"
166778,"3114 US RTE 7","PITTSFORD","VT","05763"
166779,"3114 WEST IRVING PARK ROAD SUITE 1W","CHICAGO","IL","60618"
166780,"31143 S AMENITY DRIVE","ORACLE","AZ","85623"
166781,"31145 S KOSTER RD","TRACY","CA","95304"
166782,"3115 52ND AV DR W","BRADENTON","FL","34207"
166783,"3115 68TH STREET","WOODSIDE","NY","11377"
166784,"3115 6TH STREET","METAIRIE","LA","70002"
166785,"3115 ADDISON LANE","JOHNS CREEK","GA","30005"
166786,"3115 BORGER STREET","DALLAS","TX","75212"
166787,"3115 CABLE DR","HOLIDAY","FL","34691"
166788,"3115 CEMETERY RD","SANFORD","NC","27332"
166789,"3115 CENTRAL AVE APT E","CHARLOTTE","NC","28205"
166790,"3115 DEXTER DRIVE","FORT WAYNE","IN","46816"
166791,"3115 DUNHILL LANE","PUYALLUP","WA","98372"
166792,"3115 DUPONT AVENUE","RICHMOND","VA","23234"
166793,"3115 E 13TH ST","WICHITA","KS","67214"
166794,"3115 E 13TH STRRET N","WICHITA","KS","67214"
166795,"3115 E ESCOBA 2201","PALM SPRINGS","CA","92264"
166796,"3115 EULA MORGAN ROAD","KATY","TX","77493"
166797,"3115 FAIRLAND RD","SILVER SPRING","MD","20904"
166798,"3115 FILBERT ST","OAKLAND","CA","94608"
166799,"3115 FORK SHOALS ROAD","SIMPSONVILLE","SC","29680"
166800,"3115 GRIERTON COURT UNIT 8","CHARLOTTE","NC","28205"
166801,"3115 GROVE RD","PALM BEACH GARDENS","FL","33410"
166802,"3115 HARBOR BLVD","PORT CHARLOTTE","FL","33952"
166803,"3115 HINGSTON AVE APT 74","EGG HARBOR TOWNSHIP","NJ","08234"
166804,"3115 HOOD ST","DALLAS","TX","75219"
166805,"3115 KEATS AVE","CLOVIS","CA","93619"
166806,"3115 KEWANEE LN","NAPERVILLE","IL","60564"
166807,"3115 LAYLA STREET","TALLAHASSEE","FL","32303"
166808,"3115 MADISON ROAD","CINCINNATI","OH","45209"
166809,"3115 MARTIN LUTHER KING JR AVE SE","WASHINGTON","DC","20032"
166810,"3115 MEADOW OAK DRIVE","HOUSTON","TX","77068"
166811,"3115 MORRILL ROAD","ROGERS CITY","MI","49779"
166812,"3115 NORTH AVE","RICHMOND","VA","23222"
166813,"3115 NORTH GOVERNMENT WAY 4","COEURDALENE","ID","83815"
166814,"3115 NORTHINGTON COURT","FLORENCE","AL","35630"
166815,"3115 NW COUNTY ROAD 150","JASPER","FL","32052"
166816,"3115 PINE AVE","WACO","TX","76708"
166817,"3115 PRIMROSE LANE","WINNEMUCCCA","NV","89445"
166818,"3115 RANCH ROAD 12","SAN MARCOS","TX","78666"
166819,"3115 S GRAND BLVD","ST. LOUIS","MO","63118"
166820,"3115 SACBE CV","AUSTIN","TX","78745"
166821,"3115 SE 20TH AVE","PORTLAND","OR","97202"
166822,"3115 STRATHMORE AVE","NORFOLK","VA","23504"
166823,"3115 SUMNER AVE","HUNTINGTON","WV","25705"
166824,"3115 SUNDIAL ROAD","DOVER","PA","71315"
166825,"3115 SWITZER DRIVE","AUGUSTA","GA","30909"
166826,"3115 TANGLEWOOD LN","BELLINGHAM","WA","98226"
166827,"3115 TEASDALE COURT","SEAGOVILLE","TX","75159"
166828,"3115 THOMPKINS SQUARE QT","INDIANAPOLIS","IN","46205"
166829,"3115 W BROADWAY BLVD","SEDALIA","MO","65301"
166830,"3115 W VIA MONTOYA DR","PHOENIX","AZ","85027"
166831,"3115 WALLACE RD","OMAHA","IL","62871"
166832,"3115 WESTFIELD RD","CHARLOTTE","NC","28209"
166833,"3115 WRIGHT CARPENTER","SAN ANTONIO","TX","78221"
166834,"3116 46TH AVE S","FARGO","ND","58104"
166835,"3116 68TH AVE SW","TUMWATER","WA","98512"
166836,"3116 A ST","SAN DIEGO","CA","92102"
166837,"3116 BENJAMIN E MAYS DR SW","ATLANTA","GA","30311"
166838,"3116 BOYKIN BRIDGE ROAD","CLINTON","NC","28328"
166839,"3116 BRAEMAR LANE","WILMINGTON","NC","28409"
166840,"3116 BUNCH WALNUTS RD","CHESAPEAKE","VA","23322"
166841,"3116 GLEASON AVENUE","COLUMBUS","GA","31907"
166842,"3116 HACIENDA STREET","SAN MATEO","CA","94403"
166843,"3116 HOLLY HALL ST","HOUSTON","TX","77054"
166844,"3116 HONEYWOOD LN APT G","ROANOKE","VA","24018"
166845,"3116 INDIAN GAP STREET","WEATHERFORD","TX","76087"
166846,"3116 KIRBY SMITH DR","WILMINGTON","NC","28409"
166847,"3116 LAND O LAKES BLVD","LAND O LAKES","FL","34639"
166848,"3116 MELROSE DR","COLUMBUS","GA","31906"
166849,"3116 MIAMI APT A","SAINT LOUIS","MO","63118"
166850,"3116 N SALLY HILL ROAD","TIMMONSVILLE","SC","29161"
166851,"3116 NE 3RD DRIVE","HOMESTEAD","FL","33033"
166852,"3116 NORTH ALEXANDER","BAYTOWN","TX","77520"
166853,"3116 OLD FAITHFUL ROAD","CHEYENNE","WY","82001"
166854,"3116 QUINLEY PLACE","RALEIGH","NC","27604"
166855,"3116 RAWHIDE DRIVE","PRESCOTT","AZ","86305"
166856,"3116 RIVERSIDE DR","PORT HURON","MI","48060"
166857,"3116 S 74TH LANE","PHOENIX","AZ","85043"
166858,"3116 S MADISON AVE","TULSA","OK","74105"
166859,"3116 S MILL AVE - 188","TEMPE","AZ","85282"
166860,"3116 S MILL AVE APT 173","TEMPE","AZ","85282"
166861,"3116 SANGRIA LN","FORT WORTH","TX","76177"
166862,"3116 SHREWSBURY LN","RIVA","MD","21140"
166863,"3116 SW 130TH PLACE","OKLAHOMA CITY","OK","73170"
166864,"3116 SWIFT STREET","MELBOURNE","FL","32901"
166865,"3116 W MONTGOMERY ROAD SUITE C 262","MAINEVILLE","OH","45039"
166866,"3116 YELLOWSTONE CIR","FORT PIERCE","FL","34945"
166867,"31160 PORTSIDE DR APT 5110","NOVI","MI","48377"
166868,"3117 B STREET","SACRAMENTO","CA","95816"
166869,"3117 BEACH BLVD","PASCAGOULA","MS","39567"
166870,"3117 BUCKHORN LN","WAKE FOREST","NC","27587"
166871,"3117 CASCADE DRIVE","SPRINGFIELD","IL","62704"
166872,"3117 CEDAR RIDGE DR","RICHARDSON","TX","75082"
166873,"3117 DELAMERE DRIVE","MATTHEWS","NC","28104"
166874,"3117 DOUGLAS STREET","HUTCHINSON","NC","27607"
166875,"3117 EASTHILL DRIVE","BETHLEHEM","PA","18017"
166876,"3117 GRANT WAY","EAST POINT","GA","30344"
166877,"3117 HANEY RD","DAYTON","OH","45405"
166878,"3117 HOLY HILL ROAD","RICHFIELD","WI","53076"
166879,"3117 KINGS ARMS CT","ATLANTA","GA","30345"
166880,"3117 LATHROP AVENUE","RACINE","WI","53405"
166881,"3117 MEADOW LARK AVENUE","LOUISVILLE","KY","40213"
166882,"3117 MOUNTAIN VIEW ROAD","STANFORD","MT","59479"
166883,"3117 N NEVADA ST","SPOKANE","WA","99207"
166884,"3117 PIONEER CIR","WACO","TX","76712"
166885,"3117 RICES LANE","WINDSOR MILL","MD","21244"
166886,"3117 ROYCE PL","YUKON","OK","73099"
166887,"3117 S HIGLEY RD","GILBERT","AZ","85297"
166888,"3117 ST ROCH","NEW ORLEANS","LA","70122"
166889,"3117 TOMAHAWK DR","LAWRENCE","KS","66049"
166890,"3117 TRACE WAY","TRUSSVILLE","AL","35173"
166891,"3117 W 59TH ST UNIT 2","LOS ANGELES","CA","90043"
166892,"3117 W 6250 S","TAYLORSVILLE","UT","84129"
166893,"3117 W 63RD ST","CHICAGO","IL","60629"
166894,"3117 WEST 41 STREET","ERIE","PA","16506"
166895,"3117 WOODED WAY","JEFFERSONVILLE","IN","47130"
166896,"3117 WOODYMORE DRIVE","ANTIOCH","TN","37013"
166897,"3117","TUCSON","AZ","85716"
166898,"31176 NORTH ORANGE BLOSSOM CIRCLE","SAN TAN VALLEY","AZ","85143"
166899,"31177 US HIGHWAY 19 N","PALM HARBOR","FL","34684"
166900,"3118 103RD AVE NE","BELLEVUE","WA","98004"
166901,"3118 14TH AV NW","GIG HARBOR","WA","98335"
166902,"3118 AIRLINE DRIVE","HOUSTON","TX","77022"
166903,"3118 BARTON AVE","RICHMOND","VA","23222"
166904,"3118 BAYSHORE AVE","BRIGANTINE","NJ","08203"
166905,"3118 BLODGETT STREET","HOUSTON","TX","77004"
166906,"3118 CHAUCER ST","LOS ANGELES","CA","90065"
166907,"3118 COVINGTON STREET","FAIRFAX","VA","22031"
166908,"3118 DAWSON LANE SW","ATLANTA","GA","30331"
166909,"3118 ESTERO TERRACE","FREMONT","CA","94538"
166910,"3118 GRACEFIELD ROAD","SILVER SPRING","MD","20904"
166911,"3118 GREEN ST","HOUSTON","TX","77020"
166912,"3118 HOLLY POINT","CLARKSVILLE","TN","37043"
166913,"3118 ISLAND CLUB LN F","INDIANAPOLIS","IN","46214"
166914,"3118 KIOWA CT","INDIANAPOLIS","IN","46235"
166915,"3118 MARKEY ROCK","SAN ANTONIO","TX","78253"
166916,"3118 MCCRAREY DR","HOUSTON","TX","77088"
166917,"3118 RIVER HEIGHTS","BENTON","AR","72019"
166918,"3118 S JOPLIN COURT","AURORA","CO","80013"
166919,"3118 SHERBROOKE CANYON LANE","HOUSTON","TX","77047"
166920,"3118 SPRUCE PLACE","TYLER","TX","75707"
166921,"3118 TREMBLING CREEK CIRCLE","SPRING","TX","77373"
166922,"3118 US HIGHWAY 62 NE","WASHINGTON COURT HOU","OH","43160"
166923,"3118 W MAIN ST EXT","ELIZABETH CITY","NC","27909"
166924,"3118 W MERCER LANE","PHOENIX","AZ","85029"
166925,"3118 WHITE BIRD DRIVE","CORPUS CHRISTI","TX","78415"
166926,"3118 WILSHIRE BLVD STE D","SANTA MONICA","CA","90403"
166927,"3118 WILSHIRE BLVD","SANTA MONICA","CA","90403"
166928,"3119 ARROW LN","CLARKSVILLE","TN","37043"
166929,"3119 ASPEN DR","CASPER","WY","82601"
166930,"3119 BELZ ROAD","SANGER","TX","76266"
166931,"3119 CONVERSE","EAST ST LOUIS","IL","62207"
166932,"3119 DIDIER ROAD","VALLEY SPRINGS","CA","95252"
166933,"3119 DUBLIN WAY","GRAND JUNCTION","CO","81504"
166934,"3119 EAST HARRISON STREET","GILBERT","AZ","85295"
166935,"3119 FONDREN ST","LA PORTE","TX","77571"
166936,"3119 G ST SE","WASHINGTON","DC","20019"
166937,"3119 HALLDALE AVE","LOS ANGELES","CA","90018"
166938,"3119 HIGHPLAINS DRIVE","HOPE MILLS","NC","28348"
166939,"3119 IRVING AVE N","MINNEAPOLIS","MN","55411"
166940,"3119 LENORA SPRINGS DR","SPRING","TX","77386"
166941,"3119 MILLERDALE LANE","DALLAS","TX","75227"
166942,"3119 MILTON AVENUE","DALLAS","TX","75205"
166943,"3119 N SHERMAN DR","INDIANAPOLIS","IN","46218"
166944,"3119 OLIVE ST","VANCOUVER","WA","98660"
166945,"3119 PENRYN RD STE 230","PENRYN","CA","95663"
166946,"3119 PORTLAND AVE","LOUISVILLE","KY","40212"
166947,"3119 QUENTIN ROAD","BROOKLYN","NY","11234"
166948,"3119 SOUTH 2800 EAST","SALT LAKE CITY","UT","84109"
166949,"3119 SOUTH ACADEMY BLVD","COLORADO SPRINGS","CO","80916"
166950,"3119 SWEETVIOLET DR","SAN RAMON","CA","94582"
166951,"3119 TIMBER VIEW DR","SUGAR LAND","TX","77479"
166952,"3119 TINA MARIE DR","WESLEY CHAPEL","FL","33543"
166953,"3119 UNIVERSITY AVE SUITE C","MORGANTOWN","WV","26505"
166954,"3119 VAIL DRIVE","CAPE GIRARDEAU","MO","63701"
166955,"3119 VIA DOLCE BROADWAY BLDG 306","MARINA DEL REY","CA","90292"
166956,"3119 VIA DOLCE UNIT 116","MARINA DEL REY","CA","90292"
166957,"3119 W 6TH STREET","LOS ANGELES","CA","90020"
166958,"3119 W GEORGE ST","CHICAGO","IL","60618"
166959,"3119 W HARVARD","VISALIA","CA","93277"
166960,"3119 WEST FAIR OAKS AVENUE","TAMPA","FL","33611"
166961,"31192 LA BAYA DRIVE SUITE C","WESTLAKE VILLAGE","CA","91362"
166962,"31193 COLUMBIA DRIVE","NOVI","MI","48377"
166963,"31194 ELEPHANT ROCK LN","BUENA VISTA","CO","81211"
166964,"31196 HIGHWAY 190","LACOMBE","LA","70445"
166965,"3119A LACKLAND AVENUE","ST LOUIS","MO","63116"
166966,"311SOUTH GIRARD STREET","WOODBURY","NJ","08096"
166967,"312 10TH AVE SE","ROSEAU","MN","56751"
166968,"312 10TH STREET NORTH","HUMBOLDT","IA","50548"
166969,"312 11TH STREET","SACRAMENTO","CA","95814"
166970,"312 1ST AVE","SPOKANE","WA","99201"
166971,"312 4TH AVENUE E","OLYMPIA","WA","98501"
166972,"312 4TH STREET","WALLACE","ID","83873"
166973,"312 60TH AVENUE DR E","BRADENTON","FL","34203"
166974,"312 6TH AVE","ALBANY","GA","31701"
166975,"312 7 AND A HALF ST SW","CHARLOTTESVILLE","VA","22903"
166976,"312 A CHRISTA DRIVE","CHESAPEAKE","VA","23322"
166977,"312 AGATE DR","COLLEGE STATION","TX","77845"
166978,"312 AMSTERDAM AVE","ROSELLE","NJ","07203"
166979,"312 ARBORVITAE LANE","DE PERE","WI","54115"
166980,"312 ASHBY STREET APT D","ALEXANDRIA","VA","22305"
166981,"312 AUDUBON STREET","ADAIR","IA","50002"
166982,"312 AUSTIN AVE","WYLIE","TX","75098"
166983,"312 AYRES HALL 1403 CIRCLE DRIVE","KNOXVILLE","TN","37996"
166984,"312 BANDANA WAY","CAMERON","NC","28326"
166985,"312 BARTOW DRIVE","FAYETTEVILLE","NC","28301"
166986,"312 BENTON ST","JEFFERSON CITY","MO","65101"
166987,"312 BERRYWOOD LN","OSWEGO","IL","60543"
166988,"312 BORDER STREET","EAST BOSTON","MA","02128"
166989,"312 BRANDIWOOD COURT","OLD HICKORY","TN","37138"
166990,"312 BUCKEYE STREET","POWHATAN POINT","OH","43942"
166991,"312 BUSINESS 53 PO BOX 22","MINONG","WI","54859"
166992,"312 CABINWOOD TRL","CANTON","GA","30115"
166993,"312 CANYON COURT DR","OMAK","WA","98841"
166994,"312 CAPE FEAR WAY","WHITSETT","NC","27377"
166995,"312 CAPRICE COURT","LOVELAND","OH","45140"
166996,"312 CARPENTER DAM ROAD","HOT SPRINGS NATIONAL","AR","71901"
166997,"312 CARPENTER DAM ROAD","HOT SPRINGS","AR","71901"
166998,"312 CHALFORD CT","FRANKLIN","TN","37069"
166999,"312 CHATHAM ST","NEWPORT","NC","28570"
167000,"312 CHESTER AVE","BAKERSFIELD","CA","93301"
