"ID","Address","City","State","Zip"
63001,"145 ARBUTUS DRIVE","CLARKSBURG","WV","26301"
63002,"145 AUTUMN VIEW CT","FLETCHER","NC","28732"
63003,"145 BEAVER ST","HYDE PARK","MA","02136"
63004,"145 BEDFORD ST","WEST BRIDGEWATER","MA","02379"
63005,"145 BIG SANDY LN","LANCASTER","TX","75146"
63006,"145 BLAKELY COURT","SAGLE","ID","83860"
63007,"145 BLUE PINE LANE","LEXINGTON","SC","29073"
63008,"145 BOXWOOD LN","BRIDGEWATER","MA","02324"
63009,"145 BREA CANYON RD","WALNUT","CA","91789"
63010,"145 BRITT AVE","NORCROSS","GA","30071"
63011,"145 BROADWAY","WEST BABYLON","NY","11704"
63012,"145 BROOK CIRCLE","DANVILLE","VA","24541"
63013,"145 BROWN AVE","HOLYOKE","MA","01040"
63014,"145 BROWN AVENUE","HOLYOKE","MA","01040"
63015,"145 BUCKLEY LANE","BATTLE CREEK","MI","49015"
63016,"145 BULL STREET","SAVANNAH","GA","31401"
63017,"145 CANOSIA RD","ESKO","MN","55733"
63018,"145 CENTRAL PARK WEST","NEW YORK","NY","10023"
63019,"145 CHERIE CT","ATLANTA","GA","30349"
63020,"145 CHERYL LN","SEWANEE","TN","37375"
63021,"145 CLARA DRIVE","AVONDALE","LA","70094"
63022,"145 CLARA STREET","NEW BEDFORD","MA","02744"
63023,"145 CLERMONT AVE","HEMPSTEAD","NY","11550"
63024,"145 CLIFF ROAD","MONTROSS","VA","22520"
63025,"145 CLOVERFIELD DRIVE","CAMPBELLSVILLE","KY","42718"
63026,"145 COMMONS LOOP STE 200","KALISPELL","MT","59901"
63027,"145 CORN PLANTERS STREET","DANIEL ISLAND","SC","29492"
63028,"145 CORTE MADERA TOWN CTR UNIT 502","CORTE MADERA","CA","94925"
63029,"145 CRABAPPLE LANE","ELLIJAY","GA","30540"
63030,"145 CROTON AVENUE","MOUNT KISCO","NY","10549"
63031,"145 DANLEY RANCH RD","ALAMOGORDO","NM","88310"
63032,"145 DARRYL DR","CAMPBELL","CA","95008"
63033,"145 DARRYL DRIVE","CAMPBELL","CA","95008"
63034,"145 DIXON AVENUE","AMITYVILLE","NY","11701"
63035,"145 DURHAM DRIVE","COATESVILLE","PA","19320"
63036,"145 E 48TH SUITE 29D","NEW YORK","NY","10017"
63037,"145 E 71ST STREET","LOS ANGELES","CA","90003"
63038,"145 E BROADWAY","DRUMRIGHT","OK","74030"
63039,"145 E MAIN ST","WASHINGTONVLE","OH","44490"
63040,"145 E METHODIST DR","FRANKLIN","IN","46131"
63041,"145 E RICH AVE SUITE D","DELAND","FL","32724"
63042,"145 E WYOMING AVENUE","ABSECON","NJ","08201"
63043,"145 EAGLE NEST DRIVE","EAGLE ROCK","VA","24085"
63044,"145 EAST 16TH STREET 7F","NEW YORK","NY","10003"
63045,"145 EAST 16TH STREET APT 4E","NEW YORK CITY","NY","10003"
63046,"145 EAST 35TH STREET SUITE 7FW","NEW YORK","NY","10016"
63047,"145 EAST CHERRY STREET","MCCONNELLSBURG","PA","17233"
63048,"145 EAST STORY ROAD","WINTER GARDEN","FL","34787"
63049,"145 EASY STREET","HOWELL","NJ","07731"
63050,"145 ELLIS PARKWAY","PISCATAWAY TOWNSHIP","NJ","08854"
63051,"145 ESSEX BOULEVARD UNIT 612","HUNTSVILLE","TX","77320"
63052,"145 ESSEX STREET","HAVERHILL","MA","01832"
63053,"145 FC MAULDIN ROAD","LAUREL","MS","39443"
63054,"145 FEATHERS CHAPEL","SOMERVILLE","TN","38068"
63055,"145 FISH HATCHERY ROAD","CELINA","TN","38551"
63056,"145 FLEET STREET UNIT 323","NATIONAL HARBOR","MD","20745"
63057,"145 FLEET STREET","NATIONAL HARBOR","MD","20745"
63058,"145 FOREST DRIVE","LIBERTY","TX","77575"
63059,"145 FOXFIELD DRIVE","HARMONY","NC","28634"
63060,"145 FRONT STREET APT 1413","WORCESTER","MA","01608"
63061,"145 G STREET SUITE A","ARCATA","CA","95521"
63062,"145 GARDENSIDE DRIVE SUITE 9","SAN FRANCISCO","CA","94131"
63063,"145 GARFIELD AVENUE","CLEMENTON","NJ","08021"
63064,"145 GLASGOW LANE","SAN CARLOS","CA","94070"
63065,"145 GRAND STREET","CARLSTADT","NJ","07072"
63066,"145 GRANT PARK DRIVE","DAYTON","KY","41074"
63067,"145 HANLEY STREET","PLAINVILLE","IN","47568"
63068,"145 HEIDEN ROAD","MONTICELLO","NY","12701"
63069,"145 HEIGHTS BLVD","HOUSTON","TX","77007"
63070,"145 HERKIMER ST","BROOKLYN","NY","11216"
63071,"145 HICKORY DR","NAPOLEON","OH","43545"
63072,"145 HIGGINS AVE","CAMDENTON","MO","65020"
63073,"145 HIGHLAND PLACE","MONROVIA","CA","91016"
63074,"145 HOLLY DR","CARROLLTON","GA","30116"
63075,"145 HORNBEAM RD","GROTON","CT","06340"
63076,"145 HOSKINS RD","SIMSBURY","CT","06070"
63077,"145 HUNTINGTON DRIVE","HEADLENAD","AL","36345"
63078,"145 HWY 267 SPUR","BEEBE","AR","72012"
63079,"145 HWY 52 W","EUDORA","AR","71640"
63080,"145 INDIAN TRL","LOCKHART","TX","78644"
63081,"145 JANES LN","CLIFFORD TWP","PA","18470"
63082,"145 KIMBERLY PLACE","NEW CANAAN","CT","06840"
63083,"145 LAUREL CREEK DR","MOUNT AIRY","NC","27030"
63084,"145 LEGGE ST","BRIDGEWATER","MA","02324"
63085,"145 LEONORA DR","MOORE","SC","29369"
63086,"145 LIBERTY ST NE STE 102","SALEM","OR","97301"
63087,"145 LIGE ROAD","CROSSVILLE","TN","38555"
63088,"145 LISBON STREET SUITE 406","LEWISTON","ME","04240"
63089,"145 LIVE OAK ROAD","POTEET","TX","78065"
63090,"145 LOCUST COURT","HERCULES","CA","94547"
63091,"145 LONE WOLF DR","HENDERSON","NC","27537"
63092,"145 LOWRY LN","WILMORE","KY","40390"
63093,"145 MAIN ST","BENNETT","IA","52721"
63094,"145 MAJESTIC TRAIL","COLLIERVILLE","TN","38017"
63095,"145 MANCHESTER RD","CHARLESTON","SC","29407"
63096,"145 MANUEL DRIVE","SUNSET","LA","70584"
63097,"145 MARION AVENUE","NORTH ADAMS","MA","01247"
63098,"145 MARSHALL CIRCLE","WATKINSVILLE","GA","30677"
63099,"145 MAYFLOWER HEIGHTS DRIVE","OAKLAND","ME","04963"
63100,"145 MERNER DRIVE","WINDSOR","CA","95492"
63101,"145 MORNINGSIDE DR SE","GRAND RAPIDS","MI","49506"
63102,"145 MOUNTAIN SHOALS RD","ROSWELL","GA","30075"
63103,"145 N ELIZABETH ST","KINGSFORD","MI","49802"
63104,"145 N HARVEY AVE","SAINT LOUIS","MO","63135"
63105,"145 N LAUREL","GENESEE","ID","83832"
63106,"145 N MAIN STREET - SUITE 500","HENDERSON","KY","42420"
63107,"145 N SUNSET DRIVE","ITHACA","NY","14850"
63108,"145 N WARREN ST","MESA","AZ","85207"
63109,"145 NASSAU ST-APT 6E","NEW YORK","NY","10038"
63110,"145 NAVARRO MAIL DROP 110909","SAN ANTONIO","TX","78205"
63111,"145 NAVARRO ST","SAN ANTONIO","TX","78205"
63112,"145 NE 25 STREET","MIAMI","FL","33137"
63113,"145 NE 78TH ST APT 205","MIAMI","FL","33138"
63114,"145 NEW LONDON TURNPIKE  SUITE 871","GLASTONBURY","CT","06033"
63115,"145 NORTH 1550 WEST 111","CEDAR CITY","UT","84720"
63116,"145 NORTH 200 EAST","VERNAL","UT","84078"
63117,"145 NORTH HASTINGS STREET","ARCADIA","NE","68815"
63118,"145 NORTH MAINSTREET STE 103","BELLE GLADE","FL","33430"
63119,"145 NORTH PARK TRAIL","STOCKBRIDGW","GA","30281"
63120,"145 NORTH QUARTER","WILLIAMSBURG","VA","23185"
63121,"145 NW CENTRAL PARK PLAZA STE 104","PORT ST LUCIE","FL","34986"
63122,"145 NW CENTRAL PARK PLAZA SUITE 200","PORT ST LUCIE","FL","34986"
63123,"145 OAK STREET PO BOX 513","GREENVILLE","MO","63944"
63124,"145 PALO VERDE TERRACE","SANTA CRUZ","CA","95060"
63125,"145 PARKLANE ROAD","LAFAYETTE","LA","70507"
63126,"145 PATRIOT CIRCLE","MOUNTAINTOP","PA","18707"
63127,"145 PAYOT CT","ALAMEDA","CA","94502"
63128,"145 PENNANT DRIVE","WASHINGTON","MO","63090"
63129,"145 PERRY AVE","NORWALK","CT","06850"
63130,"145 PERRYWORKS RD","ATTALLA","AL","35954"
63131,"145 PHILLIP ROAD","WOODSIDE","CA","94062"
63132,"145 PINE DR","LOVELOCK","NV","89419"
63133,"145 PINE HAVEN SHORES RD 1000A","SHELBURNE","VT","05482"
63134,"145 PINE HAVEN SHORES RD STE 1000-F","SHELBURNE","VT","05482"
63135,"145 PINE NEEDLE RD","BOULDER","CO","80304"
63136,"145 PLEASANTVIEW DRIVE","JAMESTOWN","NY","14701"
63137,"145 POLLY PK RD","RYE","NY","10580"
63138,"145 PONZA LANE","SOQUEL","CA","95073"
63139,"145 POPLAR","NEWPORT NEWS","VA","23607"
63140,"145 POWELL LANE","FRONT ROYAL","VA","22630"
63141,"145 PRAIRIE GRASS RD","OREGON","WI","53575"
63142,"145 QUAIL RUN","CONWAY","SC","29526"
63143,"145 QUAKER RIDGE RD","MANHASSET","NY","11030"
63144,"145 RADIO ROAD","CORONA","CA","92879"
63145,"145 RICE AVENUE","DENMARK","SC","29042"
63146,"145 RIDGE ROAD","NEW CITY","NY","10956"
63147,"145 RIDGELAND PLAZA","RIDGELAND","MS","39157"
63148,"145 RIO SENDA ST","UMATILLA","OR","97882"
63149,"145 RIVARD ROAD PO BOX 51","GLENVILLE","NC","28736"
63150,"145 RIVER LANDING DR SUITE 202","CHARLESTON","SC","29492"
63151,"145 RIVERWATCH DR","COVINGTON","GA","30014"
63152,"145 ROCK HILL DRIVE","FAYETTEVILLE","GA","30215"
63153,"145 S CAMPBELL AVE","CHICAGO","IL","60612"
63154,"145 S DURBIN ST SUITE 204","CASPER","WY","82601"
63155,"145 S LIVERNOIS RD STE 306","ROCHESTER HILLS","MI","48307"
63156,"145 S QUENTIN RD","PALATINE","IL","60067"
63157,"145 SAGE DR","UNIVERSAL CITY","TX","78148"
63158,"145 SASSARFRAS CT","VINE GROVE","KY","40175"
63159,"145 SCOUT RUN ROAD","FORD CITY","PA","16226"
63160,"145 SE 117TH","PORTLAND","OR","97216"
63161,"145 SHEPPARD ROAD","BLUEFIELD","WV","24701"
63162,"145 SILO RIDGE NORTH","ORLAND PARK","IL","60467"
63163,"145 SILVER FOX LANE","TORRINGTON","CT","06790"
63164,"145 SILVER LAKE CIRCLE","COLUMBIA","SC","29212"
63165,"145 SKILLMAN ST","BROOKLYN","NY","11205"
63166,"145 SMITHFIELD LANE","SPRINGVILLE","AL","35146"
63167,"145 SOUTH LIVERNOIS PO BOX 164","ROCHESTER HILLS","MI","48307"
63168,"145 SOUTH LIVERNOIS RD SUITE 337","ROCHESTER HILLS","MI","48307"
63169,"145 SOUTH LIVERNOIS STE 233","ROCHESTER HILLS","AK","48307"
63170,"145 SOUTH MAIN STREET PO BOX H","BIRD ISLAND","MN","55310"
63171,"145 SPAUGY HOLLOW ROAD","CONNELLSVILLE","PA","15425"
63172,"145 STATE STREET","NORTHAMPTON","MA","01060"
63173,"145 STENHOUSE LANE","LONGWOOD","FL","32779"
63174,"145 SUMMER VISTA DR","BUDA","TX","78610"
63175,"145 SUNSET DR","THOMASVILLE","NC","27360"
63176,"145 SW 5TH AVE","DELRAY BEACH","FL","33444"
63177,"145 SW POPLAR ST","YAMHILL","OR","97148"
63178,"145 SYRUP CITY ROAD","TIGER","GA","30576"
63179,"145 TAUNTON AVENUE","EAST PROVIDENCE","RI","02914"
63180,"145 TAYLOR STREET APT 605","SAN FRANCISCO","CA","94102"
63181,"145 TERRY DR","SLIDELL","LA","70458"
63182,"145 THIRD AVENUE SOUTH STE 200","EDMONDS","WA","98020"
63183,"145 THIRD AVENUE SOUTH","EDMONDS","WA","98020"
63184,"145 THIRD AVENUE SUITE 200","EDMONDS","WA","98020"
63185,"145 THIRD STREET","MAHWAH","NJ","07430"
63186,"145 THOMPSON STREET","NEW YORK CITY","NY","10012"
63187,"145 TIMBERS RD","KILGORE","TX","75662"
63188,"145 TIVERTON CT","LEBANON","PA","17042"
63189,"145 TOWN CENTER PMB 271","CORTE MADERA","CA","94925"
63190,"145 TOWNE LAKE PKWY STE 200","WOODSTOCK","GA","30188"
63191,"145 TOWNE SQUARE PARK","LEXINGTON","KY","40511"
63192,"145 UNION STREET SOUTH SUITE 108","CONCORD","NC","28025"
63193,"145 URBANDALE ST","EAST PEORIA","IL","61611"
63194,"145 VALLEY DR","BRIDGEPORT","WV","26330"
63195,"145 VERMONT AVE","NEWARK","NJ","07106"
63196,"145 VISTA DEL NORTE","SANTA FE","NM","87507"
63197,"145 W 4TH ST","DOUGLAS","NE","68344"
63198,"145 W CHATHAM STREET","CARY","NC","27511"
63199,"145 W DEKALB ST","SOMONAUK","IL","60552"
63200,"145 W GOSSETT ST","ROSEVILLE","IL","61473"
63201,"145 W HIGH STREET","WAYNESBURG","PA","15370"
63202,"145 W MAIN ST","STONY POINT","NY","10980"
63203,"145 W MARIPOSA UNIT B","SAN CLEMENTE","CA","92672"
63204,"145 W OSTEND STREET SUITE 600","BALTIMORE","MD","21230"
63205,"145 W ROUTE 59","NANUET","NY","10954"
63206,"145 W WILLOW ST","STOCKTON","CA","95202"
63207,"145 W YELLOWSTONE TRAIL","BUFFALO LAKE","MN","55314"
63208,"145 WALPOLE STREET","NORWOOD","MA","02062"
63209,"145 WATERSIDE CIRCLE","WINFIELD","WV","25213"
63210,"145 WEBSTER ST","PETALUMA","CA","94952"
63211,"145 WEST 67TH STREET APT 33D","NEW YORK","NY","10023"
63212,"145 WEST 75TH ST APT 5F","NEW YORK","NY","10023"
63213,"145 WEST DELONEY AVE SUITE 1","JACKSON","WY","83001"
63214,"145 WEST END DRIVE","MONCKS CORNER","SC","29461"
63215,"145 WEST MAPLE AVE","MORRISVILLE","PA","19067"
63216,"145 WEST OLD WATSON ROAD","WEBSTER GROVES","MO","63119"
63217,"145 WEST OSTEND STREET","BALTIMORE","MD","21230"
63218,"145 WEST SHERIDAN","OKLAHOMA CITY","OK","73102"
63219,"145 WESTWOOD DR","PARK FOREST","IL","60466"
63220,"145 WHITEHILL ROAD","GEORGETOWN","PA","15043"
63221,"145 WICOMICO CT","NEW MARKET","MD","21774"
63222,"145 WILLIAM STREE","EAST ORANGE","NJ","07017"
63223,"145 WIREGRASS LANE","SOUTHERN PINES","NC","28387"
63224,"145 WOODLAND AVE","LEXINGTON","KY","40502"
63225,"145 WOODLAND AVENUE","LEXINGTON","KY","40502"
63226,"145-07 NEPONSIT AVENUE","NEPONSIT","NY","11694"
63227,"145-17 230 PL","QUEENS","NY","11413"
63228,"145-21 LIBERTY AVENUE","JAMAICA","NY","11435"
63229,"145-27 221ST STREET","SPRINGFIELD GARDENS","NY","11413"
63230,"145-35 182 PLACE","SPRINGFIELD GARDENS","NY","11413"
63231,"145-38TH STREET","UNION CITY,","NJ","07087"
63232,"145-41 181ST STREET","SPRINGFIELD GARDENS","NY","11413"
63233,"145-42 ROCKAWAY BOULEVARD","JAMAICA","NY","11436"
63234,"145-56 229TH STREET","SPRINGFIELD GARDENS","NY","11413"
63235,"145-58 226TH STREET","SPRINGFIELD GARDENS","NY","11413"
63236,"145-92 9TH AVENUE","WHITESTONE","NY","11357"
63237,"145-A HEATHER ROAD","TROY","OH","45373"
63238,"145","MARTINSBURG","WV","25404"
63239,"1450 2ND ST SUITE 112","SANTA MONICA","CA","90401"
63240,"1450 2ND STREET","SANTA MONICA","CA","90401"
63241,"1450 2ND STREET","SANTA MONICA","MA","90401"
63242,"1450 59TH ST W UNIT 101","BRADENTON","FL","34209"
63243,"1450 5TH ST","MANHATTAN BEACH","CA","90266"
63244,"1450 67TH AVE","OAKLAND","CA","94621"
63245,"1450 AGAWELA AVENUE APT B","KNOXVILLE","TN","37919"
63246,"1450 ATLANTIC SHORES BLVD SUITE 109","HALLANDALE BEACH","FL","33009"
63247,"1450 AVIATION WAY","COLORADO SPRINGS","CO","80916"
63248,"1450 BARNSLEY WALK","SNELLVILLE","GA","30078"
63249,"1450 CAMERON COURT","HOFFMAN ESTATES","IL","60010"
63250,"1450 COMMERCE DRIVE SUITE 322","DECATUR","GA","30033"
63251,"1450 CREEKSIDE DRIVE APT 31","WALNUT CREEK","CA","94596"
63252,"1450 CREEN TRAILS DR","NAPERVILLE","IL","60540"
63253,"1450 DOUGLAS DRIVE NORTH 202","GOLDEN VALLEY","MN","55422"
63254,"1450 E BELL RD APT 1028","PHOENIX","AZ","85022"
63255,"1450 E COMPTON BLVD SUITE 105","COMPTON","CA","90221"
63256,"1450 E MAGNOLIA STREET","FORT WORTH","TX","76104"
63257,"1450 E VIA VIOLA WAY","FRESNO","CA","93730"
63258,"1450 E WALNUT ST","LANCASTER","OH","43130"
63259,"1450 ECHO DR","EDMOND","OK","73034"
63260,"1450 ELLIS STREET","KINGSBURG","CA","93631"
63261,"1450 FAIRMONT STREET","CLEARWATER","FL","33755"
63262,"1450 FIR AVENUE","KALONA","IA","52247"
63263,"1450 FLAGLER AVE STE 2","JACKSONVILLE","FL","32207"
63264,"1450 FLORIDA STREET","DAYTONA BEACH","FL","32114"
63265,"1450 FOREST GATE ROAD","OAK BROOK","IL","60523"
63266,"1450 GLENIFFER HILL ROAD","TOMS RIVER","NJ","08755"
63267,"1450 GUINEA LANE","WARRINGTON","PA","18974"
63268,"1450 HAVANA STREET SUITE 242","AURORA","CO","80012"
63269,"1450 HAWTHORNE WAY","EAST POINT","GA","30344"
63270,"1450 IROQUOIS DRIVE","PITTSBURGH","PA","15205"
63271,"1450 KEEAUMOKU STREET","HONOLULU","HI","96822"
63272,"1450 LODGE LN","BOULDER","CO","80303"
63273,"1450 MAIN STREET","COLUMBIA","SC","29201"
63274,"1450 MC INTOSH DR","PRESCOTT","AZ","86305"
63275,"1450 MERCANTILE LANE","LARGO","MD","20774"
63276,"1450 MERCANTILE LN STE 241","LARGO","MD","20774"
63277,"1450 MICHELLINE COURT","HOFFMAN ESTATES","IL","60192"
63278,"1450 N 10TH ST","COLTON","CA","92324"
63279,"1450 N BROADWAY","LEXINGTON","KY","40509"
63280,"1450 N LYNHURST DR","SPEEDWAY","IN","46224"
63281,"1450 N MCKENSIE ST","FOLEY","AL","36535"
63282,"1450 N ROSE ST","BURBANK","CA","91505"
63283,"1450 NE 170TH ST STE 107","NORTH MIAMI BEACH","FL","33162"
63284,"1450 NEWE CIRCLE","ELKO","NV","89801"
63285,"1450 NEWNAN XING BLVD E APT 4105","NEWNAN","GA","30265"
63286,"1450 NORTH STREET","GULFPORT","MS","39507"
63287,"1450 OAK RIDGE TURNPIKE","OAK RIDGE","TN","37830"
63288,"1450 OLD GATE LANE","DALLAS","TX","75218"
63289,"1450 POPLAR AVENUE","MEMPHIS","TN","38104"
63290,"1450 RAHWAY AVE APT 324","AVENEL","NJ","07001"
63291,"1450 RALPH DAVID ABERNATHY BLVD 301","ATLANTA","GA","30310"
63292,"1450 RALPH DAVID ABERNATHY STE 301","ATLANTA","GA","30310"
63293,"1450 REDMOND STREET","NORTH BRUNSWICK","NJ","08902"
63294,"1450 RHOMBERG","DUBUQUE","IA","52001"
63295,"1450 ROTH CHURCH RD","SPRING GROVE","PA","17362"
63296,"1450 RUE DESIREE","BATON ROUGE","LA","70810"
63297,"1450 RYLAND DR","MECHANICSBURG","PA","17050"
63298,"1450 S COOPER RD APT 1048","CHANDLER","AZ","85286"
63299,"1450 S DIXIE HWY","BOCA RATON","FL","33432"
63300,"1450 S HAVANA ST STE 110","AURORA","CO","80012"
63301,"1450 S HAVANA ST SUITE 810","AURORA","CO","80012"
63302,"1450 S HAVANA STREET SUITE 522","AURORA","CO","80012"
63303,"1450 S REVERE","MESA","AZ","85210"
63304,"1450 S WEST TEMPLE APT H108","SALT LAKE CITY","UT","84115"
63305,"1450 SAN PABLO AVE","BERKELEY","CA","94702"
63306,"1450 SANDY CIRCLE","BLACKSBURG","VA","24060"
63307,"1450 SHARE AVE","YPSILANTI","MI","48198"
63308,"1450 SOUTH 50TH STREET APT 321","PHILADELPHIA","PA","19143"
63309,"1450 SOUTH DESHON ROAD","LITHONIA","GA","30058"
63310,"1450 SOUTH REISNER STREET","INDIANAPOILS","IN","46221"
63311,"1450 SUMMIT STREET","LINWOOD","PA","19061"
63312,"1450 SW 17TH STREET","BOCA RATON","FL","33486"
63313,"1450 UNIVERSITY AVENUE F-2","RIVERSIDE","CA","92507"
63314,"1450 VALLEY ROAD","WAYNE","NJ","07470"
63315,"1450 W COUNTRYSIDE LN","BLOOMINGTON","IN","47403"
63316,"1450 W GRAND PARKWAY SOUTH  G 423","KATY","TX","77494"
63317,"1450 W GRAND PARKWAY SOUTH STE G262","KATY","TX","77494"
63318,"1450 W GRAND PARKWAY SOUTH STE G277","KATY","TX","77494"
63319,"1450 W JACKSON ST NUMBER 321","OZARK","MO","65721"
63320,"1450 WASHINGTON STREET 1207","HOBOKEN","NJ","07030"
63321,"1450 WASHINGTON STREET","HOBOKEN","NJ","07030"
63322,"1450 WEST 10400 SOUTH","SOUTH JORDAN","UT","84095"
63323,"1450 WEST HORIZON RIDGE PARKWAY 109","HENDERSON","NV","89012"
63324,"1450 WESTERN AVE","GLENDALE","CA","91201"
63325,"1450 WINYAH DR","COLUMBIA","SC","29203"
63326,"14500 168TH AVE","GRAND HAVEN","MI","49417"
63327,"14500 ADMIRALTY WAY G201","LYNNWOOD","WA","98087"
63328,"14500 BIG BASIN WAY SUITE K","SARATOGA","CA","95070"
63329,"14500 E 12 MILE RD","WARREN","MI","48808"
63330,"14500 E 14TH STREET 3641","SAN LEANDRO","CA","94578"
63331,"14500 E 86TH ST N","OWASSO","OK","74055"
63332,"14500 E CARROLL BLVD","UNIVERSITY HEIGHTS","OH","44118"
63333,"14500 GRAND AVE UNIT 831","CHOCTAW","OK","73020"
63334,"14500 HAPPY VALLEY DRIVE","JONES","OK","73049"
63335,"14500 JEKYLL ISLAND COURT","NAPLES","FM","34119"
63336,"14500 JUANITA DR NE","KENMORE","WA","98028"
63337,"14500 MARSH LANE 264","ADDISON","TX","75001"
63338,"14500 PARALLEL RD SUITE G","BASEHOR","KS","66007"
63339,"14500 PINERY WAY","MIDLOTHIAN","VA","23112"
63340,"14500 ROSCOE BLVD 4TH FL UNIT 784","PANORAMA CITY","CA","91402"
63341,"14500 ROSCOE BLVD 4TH FLOOR","PANORAMA CITY","AR","91402"
63342,"14500 SHERMAN CIR APT 367","VAN NUYS","CA","91405"
63343,"14500 SHERMAN CIRCLE APT 449","VAN NUYS","CA","91405"
63344,"14500 SOUTH LOWE AVE","RIVERDALE","IL","60827"
63345,"14500 SW 18TH COURT","DAVIE","FL","33325"
63346,"14500 SW 92ND AVENUE","TIGARD","OR","97724"
63347,"14500 W REDWOOD DRIVE","NEW BERLIN","WI","53151"
63348,"14500 WCR 7 PO BOX 310","MEAD","CO","80542"
63349,"14501 AUDUBON TRACE","TAMPA","FL","33613"
63350,"14501 EMPANADA DR  APT 1801","HOUSTON","TX","77083"
63351,"14501 OAKSHIRE BOULEVARD","ORLANDO","FL","32824"
63352,"14501 OWINGS AVE","BRANDYWINE","MD","20613"
63353,"14501 S 88TH AVENUE","ORLAND PARK","IL","60462"
63354,"14501 SW 12TH LANE","MIAMI","FL","33184"
63355,"14501 SW 96 AVE","MIAMI","FL","33176"
63356,"14501 SWEITZER LANE","LAUREL","MD","20707"
63357,"14501 US WHY 41-S","ROBARDS","KY","42452"
63358,"14503 GRIFFIN STREET","TUSCALOOSA","AL","35405"
63359,"14503 NW 87TH PL","MIAMI LAKES","FL","33018"
63360,"14503 WILDWOOD CIRCLE","MAGNOLIA","TX","77354"
63361,"14504 COBBLESTONE DRIVE","SILVER SPRING","MD","20905"
63362,"14504 OWLS NEST ROAD","NOKESVILLE","VA","20181"
63363,"14505 170TH STREET","LETTS","IA","52754"
63364,"14505 264TH STREET EAST","GRAHAM","WA","98338"
63365,"14505 HAMPSHIRE HALL COURT","UPPER MARLBORO","MD","20772"
63366,"14505 KINGSMILL WAY","CULPEPER","VA","22701"
63367,"14505 RAMSAY OAKS DR","VANCLEAVE","MS","39565"
63368,"14506 KATHELEEN LANE","BRANDYWINE","MD","20613"
63369,"14506 S TOLEDO PLACE","BIXBY","OK","74008"
63370,"14506 SE 46TH ST","BELLEVUE","WA","98006"
63371,"14506 UNIVERSITY POINT PLACE","TAMPA","FL","33613"
63372,"14506 WEST SWEETWATER AVE","SURPRISE","AZ","85379"
63373,"14507 MAYFAIR DR SUITE C","LAUREL","MD","20707"
63374,"14507 VENTRY FARMS COURT","SPARKS","FL","21152"
63375,"14508 ANTIGONE DR","NORTH POTOMAC","MD","20878"
63376,"14508 DELCASTLE DRIVE","BOWIE","MD","20721"
63377,"14508 SOUTH 50TH EAST AVENUE","BIXBY","OK","74008"
63378,"14509 ADELFA DR","LA MIRADA","CA","90638"
63379,"14509 BRIERCREST ROAD","BOWIE","MD","20720"
63380,"14509 DANVILLE ROAD","WOODBRIDGE","VA","22193"
63381,"14509 MARTY ST","OVERLAND PARK","KS","66223"
63382,"14509 NETTLECREEK ROAD","TAMPA","FL","33624"
63383,"14509 PRISM CIRCLE UNIT 101","TAMPA","FL","33613"
63384,"14509 S LASALLE STREET","RIVERDALE","IL","60827"
63385,"14509 WHEELER STREET","CEDAR LAKE","IN","46303"
63386,"1450UNIVERSITY AVE F152","RIVERSIDE","CA","92507"
63387,"1451 210TH AVE","SPIRIT LAKE","IA","51360"
63388,"1451 A GULL AVENUE","LATIMER","IA","50452"
63389,"1451 BANGOR STREET SE","WASHINGTON","DC","20020"
63390,"1451 BOTNER ROAD","COLUMBIA","MO","65202"
63391,"1451 CHANCELLOR CT","SUFFOLK","VA","23434"
63392,"1451 CHEWS LANDING ROAD SUITE 208","CLEMENTON","NJ","08021"
63393,"1451 CORAL RIDGE AVENUE","CORALVILLE","IA","52241"
63394,"1451 CR 372","UVALDE","TX","78801"
63395,"1451 DANA STREET","LOS ANGELES","CA","90007"
63396,"1451 DEERPATH DRIVE","CAMBRIDGE","OH","43725"
63397,"1451 DIAMOND COURT","REDLANDS","CA","92374"
63398,"1451 DIEDERICH BLVD","RUSSELL","KY","41169"
63399,"1451 E 55TH STREET APT 526","CHICAGO","IL","60615"
63400,"1451 E 71ST PLACE UNIT 2","CHICAGO","IL","60619"
63401,"1451 ELM HILL PIKE STE 208","NASHVILLE","TN","37210"
63402,"1451 FORT CHURCHILL RD","PAHRUMP","NV","89060"
63403,"1451 HUNTINGTON DR","CALUMET CITY","IL","60409"
63404,"1451 INNOVATION PKWAY SE SUITE 600","ALBUQUERQUE","NM","87123"
63405,"1451 INNOVATION PKWY SE SUITE 400","ALBUQUERQUE","NM","87123"
63406,"1451 ITLL DO ROAD","PEA RIDGE","AR","72751"
63407,"1451 JENNYLIND ST","MCKEESPORT","PA","15132"
63408,"1451 JESSIE CLARK LANE","POCATELLO","ID","83202"
63409,"1451 KAIGHN AVENUE","CAMDEN","NJ","08103"
63410,"1451 KING AVE","DES MOINES","IA","50320"
63411,"1451 KLONDIKE RD SUITE B","CONYERS","GA","30094"
63412,"1451 KLONDIKE ROAD SUITE B","CONYERS","GA","30094"
63413,"1451 LAKE DRIVE SE 689","GRAND RAPIDS","MI","49546"
63414,"1451 LAYTON AVENUE","DELTONA","FL","32725"
63415,"1451 LOON CT","HOMESTEAD","FL","33035"
63416,"1451 LYDIA LANE","CLAYTON","CA","91517"
63417,"1451 LYDIA LANE","CLAYTON","CA","94517"
63418,"1451 MAIN STREET","FOLLANSBEE","WV","26037"
63419,"1451 MEGGIN MELANNE LN","NEWARK","OH","43055"
63420,"1451 N PINE HILLS RD","ORLANDO","FL","32808"
63421,"1451 NW 137TH","MIAMI","FL","33167"
63422,"1451 NW 31ST AVENUE","FORT LAUDERDALE","FL","33311"
63423,"1451 PACIFIC AVE","OXNARD","CA","93033"
63424,"1451 PARK ROAD NW APT 303","WASHINGTON","DC","20010"
63425,"1451 PROSPECT AVENUE APT 5C","BRONX","NY","10456"
63426,"1451 QUENTIN RD SUITE 400 BOX 116","LEBANON","PA","17042"
63427,"1451 QUENTIN RD SUITE 400 BOX 232","LEBANON","PA","17042"
63428,"1451 QUENTIN ROAD SUITE 400 BOX 116","LEBANON","PA","17042"
63429,"1451 QUENTIN ROAD","LEBANON","PA","17042"
63430,"1451 RUDY ROAD","SPRING VALLEY","CA","91977"
63431,"1451 S DAYBREAK DR","GLOBE","AZ","85501"
63432,"1451 S ELM EUGENE ST SUITE 2015","GREENSBORO","NC","27406"
63433,"1451 SOUTH LA CANADA DRIVE SUITE 7","GREEN VALLEY","AZ","85622"
63434,"1451 SOUTHWEST BLVD SUITE 101","ROHNERT PARK","CA","94928"
63435,"1451 TOYON DRIVE","CONCORD","CA","94520"
63436,"1451 VINE ST","WEATHERFORD","TX","76086"
63437,"1451 W 104TH STREET","LOS ANGELES","CA","90047"
63438,"1451 W CYPRESS CREEK RD SUITE 300","FORT LAUDERDALE","FL","33309"
63439,"1451 W CYPRESS CREEK ROAD SUITE 300","FORT LAUDERDALE","FL","33309"
63440,"1451 W MELANIE AVE UNIT B","WASILLA","AK","99654"
63441,"1451 W WASHINGTON BLVD","LOS ANGELES","CA","90007"
63442,"1451 WAGNER RD","PORTER","IN","46304"
63443,"1451 WASHINTON AVENUE APT 14F","BRONX","NY","10456"
63444,"1451 WEST AVENUE SUITE 12","NEW YORK","NY","10462"
63445,"1451 WEST AVENUE SUITE 7034","BRONX","NY","10462"
63446,"1451 WINDING BROOK CIR APT 195","DALLAS","TX","75208"
63447,"14510 CRENSHAW BLVD","GARDENA","CA","90249"
63448,"14511 FALLING CREEK DR    SUITE 113","HOUSTON","TX","77014"
63449,"14511 FALLING CREEK LN SUITE 202 A","HOUSTON","TX","77014"
63450,"14511 LEE JACKSON MEMORIAL HWY NO F","CHANTILLY","VA","20151"
63451,"14511 LORNE DRIVE","HOUSTON","TX","77049"
63452,"14511 N CREEK DR APT D108","MILL CREEK","WA","98012"
63453,"14511 SE 46TH STREET","BELLEVUE","WA","98006"
63454,"14511 W LINCOLN AVE","NEW BERLIN","WI","53151"
63455,"14511 WATERLOO DR","HOUSTON","TX","77045"
63456,"14512 ASHWORTH AVE N","SHORELINE","WA","98133"
63457,"14512 EAST 111TH STREET","OWASSO","OK","74055"
63458,"14512 S BAHAMA AVENUE","COMPTON","CA","90220"
63459,"14512 SE 45TH PL","BELLEVUE","WA","98006"
63460,"14512 WALTHALL DRIVE","COLONIAL HEIGHTS","VA","23834"
63461,"14512 WILLOW ROAD","LAKESIDE","CA","92040"
63462,"14513 MUSKET FIRE LANE","ORLANDO","FL","32827"
63463,"14513 SW 128TH COURT ROAD","MIAMI","FL","33186"
63464,"14514 ASCOT SQUARE COURT","BOYDS","MD","20841"
63465,"14514 FALL CREEK XING","HUMBLE","TX","77396"
63466,"14514 NELSONS CREEK DRIVE","OMAHA","NE","68116"
63467,"14514 SEAFORTH AVENUE","NORWALK","CA","90650"
63468,"14514 STORYS FORD ROAD","ORLANDO","FL","32832"
63469,"14515 CHRISMAN HILL DR","BOYDS","MD","20841"
63470,"14515 E HIGHWAY 20","CLAREMORE","OK","74019"
63471,"14515 S KAW DR","OLATHE","KS","66062"
63472,"14515 SW 120 STREET SUITE 100A","MIAMI","FL","33186"
63473,"14515 TURNER WOOTTON PKWY","UPPER MARLBORO","MD","20774"
63474,"14515 WUNDERLICH DR UNIT 206","HOUSTON","TX","77069"
63475,"14516 BAUER DRIVE","ROCKVILLE","MD","20853"
63476,"14516 LEXINGTON AVE","HARVEY","IL","60426"
63477,"14516 WEST CHICAGO ST","DETROIT","MI","48228"
63478,"14517 34TH DR SE","MILL CREEK","WA","98012"
63479,"14518 KLASS ROAD","COAL CITY","IN","47427"
63480,"14518 S ORCHARD AVE","GARDENA","CA","90247"
63481,"14519 ALEJO CT","SEMINOLE","FL","33776"
63482,"14519 EGRETS COURT","FORT WAYNE","IN","46814"
63483,"1452 400TH STREET","ST. ANSGAR","IA","50472"
63484,"1452 8TH ST E","DICKINSON","ND","58601"
63485,"1452 9TH STREET","WEST PALM BEACH","FL","33401"
63486,"1452 ADMIRAL WOODSON LN","CLEARWATER","FL","33755"
63487,"1452 BRONCOS HWY","BURRILLVILLE","RI","02830"
63488,"1452 BROOK MEADOW CIRCLE","LANCASTER","TX","75134"
63489,"1452 COLE STREET","ENUMCLAW","WA","98022"
63490,"1452 CREEKBANK DRIVE","LEWISVILLE","TX","75067"
63491,"1452 E 53RD ST","CHICAGO","IL","60615"
63492,"1452 E LIVINGSTON AVE","COLUMBUS","OH","43205"
63493,"1452 HAYWORTH RD","PORT CHARLOTTE","FL","33952"
63494,"1452 KINGFISHER WAY","SUNNYVALE","CA","94087"
63495,"1452 KINGSVALE CIRCLE","HERNDON","VA","20170"
63496,"1452 KNIGHTS TRL","STONE MOUNTAIN","GA","30083"
63497,"1452 N CHERRY STREET NO 112","WINSTON SALEM","NC","27105"
63498,"1452 N VASCO ROAD / NUM 106","LIVERMORE","CA","94551"
63499,"1452 NEWPORT DRIVE","MACEDONIA","OH","44056"
63500,"1452 PELICAN DRIVE","FRISCO","TX","75033"
