"ID","Address","City","State","Zip"
219001,"46 HUNTS POINT ROAD","CAPE ELIZABETH","ME","04107"
219002,"46 INDIAN HILL ROAD","WESTPORT","CT","06880"
219003,"46 JACQUELINE DRIVE","PAOLI","PA","19301"
219004,"46 JEFFERSON VALLEY","COATESVILLE","IN","46121"
219005,"46 JR LANE","CANDLER","NC","28715"
219006,"46 JUROCKO AVE","SOMERSET","NJ","08873"
219007,"46 KINGWOOD GREENS DR","KINGWOOD","TX","77339"
219008,"46 LAKE SHORE DRIVE","JOHNSTON","RI","02919"
219009,"46 LINDEN ST NUM 2","LOWELL","MA","01852"
219010,"46 LOCUST LANE","ORWIGSBURG","PA","17961"
219011,"46 LOMBARDI ROAD","PEARL RIVER","NY","10965"
219012,"46 LONGVIEW ROAD","PORT WASHINGTON","NY","11050"
219013,"46 LOST POND CIR","THE WOODLANDS","TX","77381"
219014,"46 LOST TREE COURT","DOVER","DE","19904"
219015,"46 LYNACRES BOULEVARD","FAYETTEVILLE","NY","13066"
219016,"46 MACON STREET","BROOKLYN","NY","11216"
219017,"46 MAIN ST","RAYMOND","NH","03077"
219018,"46 MAPLE AVE","NORTHPORT","NY","11768"
219019,"46 MARION DR","PLAINSBORO","NJ","08536"
219020,"46 MARISA COURT","CORBIN","KY","40701"
219021,"46 MARISOL STREET","RANCHO MISSION VIEJO","CA","92694"
219022,"46 MEADOWBROOK LANE","TAUNTON","MA","02780"
219023,"46 MERCER STREET 4W","NEW YORK","NY","10013"
219024,"46 MIDDLE STREET","HADLEY","MA","01035"
219025,"46 MIKE SLOTT ROAD","NEW WAVERLY","TX","77358"
219026,"46 MILFORD STREET","BROOKLYN","NY","11208"
219027,"46 MIRIAM AVE","BLASDELL","NY","14219"
219028,"46 MIXON STREET","YEMASSEE","SC","29945"
219029,"46 MONROE STREET","WESTMINSTER","MD","21157"
219030,"46 MORGAN AVENUE SUITE A","DANBURY","CT","06810"
219031,"46 MOURNING DOVE LANE","YORK","PA","17406"
219032,"46 MUNSON RD","HYDE PARK","VT","05655"
219033,"46 MYRTLE AVE","EDGEWATER","NJ","07020"
219034,"46 N 4TH STREET","NEWARK","OH","43055"
219035,"46 N MUNROE ROAD","TALLMADGE","OH","44278"
219036,"46 NATIONAL BOULEVARD","BEAUFORT","SC","29907"
219037,"46 NORTH DR","AMHERST","NY","14226"
219038,"46 NORTH SUGAN ROAD","NEW HOPE","PA","18938"
219039,"46 OCEANVIEW DR","BAY POINT","CA","94565"
219040,"46 OWLS NEST CIR","BEAR","DE","19701"
219041,"46 PENINSULA CENTER DRIVE 406","PALOS VERDES PENINSU","CA","90274"
219042,"46 PEQUOT ROAD PO BOX 484","PLAINVILLE","CT","06062"
219043,"46 PETERS BLVD","CENTRAL ISLIP","NY","11722"
219044,"46 PINE RIDGE TRAIL","ARDEN","NC","28704"
219045,"46 PINE SQUARE","HAMMOND","LA","70401"
219046,"46 PINEDALE AVE","BILLERICA","MA","01821"
219047,"46 PIONEER BLVD","HUNTINGTON","NY","11746"
219048,"46 PLEASANT STREET APT 4","CHARLESTOWN","MA","02129"
219049,"46 PROSPECT ST","MARBLEHEAD","MA","01945"
219050,"46 Q STREET NW","WASHINGTON","DC","20001"
219051,"46 RACCOON LANE","BE SPRINGS","WV","25411"
219052,"46 REYNOLDS RD","FORT EDWARD","NY","12828"
219053,"46 RICH ST APT 5B","IRVINGTON","NJ","07111"
219054,"46 RIVERVIEW AVENUE","ONEONTA","NY","13820"
219055,"46 ROCKY ROAD","GREEN SPRING","WV","26722"
219056,"46 ROCKY VALLEY COVE","LITTLE ROCK","AR","72212"
219057,"46 ROSEWOOD DRIVE","BEEBE","AR","72012"
219058,"46 ROWE ROAD","BUXTON","ME","04093"
219059,"46 S 16TH STREET","SAN JOSE","CA","95112"
219060,"46 S 1ST ST E","MALTA","MT","59538"
219061,"46 S BERRYLINE CIRCLE","THE WOODLANDS","TX","77381"
219062,"46 S MARION ST","BLOOMVILLE","OH","44818"
219063,"46 SANDERS ROAD","QUEENSBURY","NY","12804"
219064,"46 SECOND ST","RARITAN","NJ","08869"
219065,"46 SEVEN OAKS CIRCLE","HOLMDEL","NJ","07733"
219066,"46 SHAWN CT","HINESVILLE","GA","31313"
219067,"46 SHEPTON ST","DORCHESTER","MA","02124"
219068,"46 SMITH MILL RD","NEW FREEDOM","PA","17349"
219069,"46 SOUTH DUNLAP","ST. PAUL","MN","55105"
219070,"46 SOUTH ORLEANS RD","ORLEANS","MA","02653"
219071,"46 SOUTH PERSHING AVENUE    SUITE B","YORK","PA","17401"
219072,"46 SPINNAKER LANE","POCASSET","MA","02559"
219073,"46 SPRING STREET","HANOVER TOWNSHIP","PA","18706"
219074,"46 SPRUCE DR","POCASSET","MA","02559"
219075,"46 STATUE WAY","PORTSMOUTH","RI","02871"
219076,"46 SULLIVANS LANDING","MISSOURI CITY","TX","77459"
219077,"46 THRASHER ST","NEW ORLEANS","LA","70124"
219078,"46 TIGER LILY TRAIL","REHOBOTH","MA","02769"
219079,"46 TRAYNOR 7","HAYWARD","CA","94544"
219080,"46 VEGA AVE","BROCKTON","MA","02302"
219081,"46 VERNON AVENUE","BATAVIA","NY","14020"
219082,"46 VILLAGE DRIVE","ORMOND BEACH","FL","32174"
219083,"46 W ELM ST","HOPKINTON","MA","02138"
219084,"46 W SUNBOW ST","CEDAR CITY","UT","84721"
219085,"46 WASHINGTON BLVD","WILLIAMSPORT","PA","17701"
219086,"46 WELLESLEY AVENUE","WELLESLEY","MA","02482"
219087,"46 WEST AVE","TALLMADGE","OH","44278"
219088,"46 WEST COTTAGE STREET","DORCHESTER","MA","02125"
219089,"46 WEST MAIN STREET","ASHLAND","OH","44805"
219090,"46 WHITMAN STREET","SOMERVILLE","MA","02144"
219091,"46 WILSON DRIVE","SPARTA","NJ","07871"
219092,"46 WINDING RUN","STREAMWOOD","IL","60107"
219093,"46 WINDSOR AVE","MEDFORD","OR","97504"
219094,"46 WOODSIDE AVE","CHALFONT","PA","18914"
219095,"46 WOODWARD RD","MERRIMACK","NH","03054"
219096,"46 WORTHY COURT","FENTON","MO","63026"
219097,"46 YARD RD","PENNINGTON","NJ","08534"
219098,"46-005 KAWA STREET/SUITE 104","KANEOHE","HI","96744"
219099,"46-02 30TH AVENUE","ASTORIA","NY","11103"
219100,"46-034 PUULENA STREET STE 726","KANEOHE","HI","96744"
219101,"46-078 EMEPELA PLACE A104","KANEOHE","HI","96744"
219102,"46-081 KONOHIKI STREET NO 3531","KANEOHE","HI","96744"
219103,"46-147 NAHIKU PLACE","KANEOHE","HI","96744"
219104,"46-15 CENTER BOULEVARD","LONG ISLAND CITY","NY","11109"
219105,"46-160 KIOWAI ST UNIT 2324","KANEOHE","HI","96744"
219106,"46-166 KEOE PLACE","KANEOHE","HI","96744"
219107,"46-20 HOLLIS COURT BOULEVARD","FLUSHING","NY","11358"
219108,"46-217 AHUI NANI PLACE","KANEOHE","HI","96744"
219109,"46-219 HAIKU ROAD","KANEOHE","HI","96744"
219110,"46-232 PUNAWAI STREET","KANEOHE","HI","96744"
219111,"46-283 KAHUHIPA STREET A113","KANEOHE","HI","96744"
219112,"46-307 KAUHAA PLACE","KANEOHE","HI","96744"
219113,"46-31 LITTLE NECK PKWY","LITTLE NECK","NY","11362"
219114,"46-320 HAIKU RD NO 96","KANEOHE","HI","96744"
219115,"46-359 HAIKU RD A7","KANEOHE","HI","96744"
219116,"46-3991 OLD MAMALAHOA HWY","HONOKAA","HI","96727"
219117,"46-4036 KAHANA DR","HONOKAA","HI","96727"
219118,"46-44 162 STREET","FLUSHING","NY","11358"
219119,"46-471 HOLONUI PLACE","KANEOHE","HI","96744"
219120,"46-522 HAIKU PLANTATIONS DRIVE","KANEOHE","HI","96744"
219121,"46-E PENINSULA CENTER DRIVE 120","ROLLING HILLS ESTATE","CA","90274"
219122,"46-E PENINSULA CENTER DRIVE 228","RLLNG HLS EST","CA","90274"
219123,"46-E PENINSULA CENTER UNIT 351","ROLLING HILLS","CA","90274"
219124,"46","HUNTSVILLE","AL","35816"
219125,"460 36TH AVE","SAN FRANCISCO","CA","94121"
219126,"460 46TH AVE N","ST PETERSBURG","FL","33703"
219127,"460 4TH STREET NORTH","SAINT PETERSBURG","FL","33703"
219128,"460 ARENA ROAD","PERRY","GA","31069"
219129,"460 BACON ST","WINSTON SALEM","NC","27105"
219130,"460 BERGEN BLVD SUITE 201","PALISADES PARK","NJ","07650"
219131,"460 BERGEN BLVD SUITE 202A","PALISADES PARK","NJ","07650"
219132,"460 BERGEN BLVD SUITE 260","PALISADES PARK","NJ","07650"
219133,"460 BETHANY LOOP","BETHANY BEACH","DE","19930"
219134,"460 BILL PEARSON ROAD","WOODRUFF","SC","29388"
219135,"460 BOWMAN ROAD","MEDON","TN","38356"
219136,"460 BRIARWOOD DRIVE SUITE","JACKSON","MS","39206"
219137,"460 BRIARWOODDRIVE STE 413","JACKSON","MS","39206"
219138,"460 BRIARWOORD DR STE 400 PMB 1056","JACKSON","MS","39206"
219139,"460 BUFFALO ROAD SUITE 70","ROCHESTER","NY","14611"
219140,"460 BUSH STREET 2ND FLOOR","SAN FRANCISCO","CA","94108"
219141,"460 CENTRAL AVE","CARLISLE","OH","45005"
219142,"460 CHAMPAGNE CIR","PORT ORANGE","FL","32127"
219143,"460 COLEMAN ROAD","DECATUR","TN","37322"
219144,"460 DIX LEE ON DR","FAYETTEVILLE","GA","30214"
219145,"460 DIX LEE ON DRIVE","FAYETTEVILLE","GA","30214"
219146,"460 E 42ND STREET","CHICAGO","IL","60653"
219147,"460 E NORWICH AVE APT D","COLUMBUS","OH","43201"
219148,"460 EAST 400 SOUTH UNIT 423","SALT LAKE CITY","UT","84111"
219149,"460 EAST A ST","DIXON","CA","95620"
219150,"460 ESPERANZA DRIVE","PROSPER","TX","75078"
219151,"460 FALLS PARK DRIVE","PENDLETON","IN","46064"
219152,"460 FORTH STREET","AURORA","NC","27806"
219153,"460 GALLERY PLACE 460 S MAIN STREET","WARDENSVILLE","WV","26851"
219154,"460 GOLDEN AVE UNIT 432","LONG BEACH","CA","90802"
219155,"460 GOSS PARRISH DRIVE","BOWLING GREEN","KY","42103"
219156,"460 GRAVILLA STREET","LA JOLLA","CA","92037"
219157,"460 GREEN ST APT 2","CAMBRIDGE","MA","02139"
219158,"460 HALF HOLLOW ROAD","DIX HILLS","NY","11746"
219159,"460 HANNAH DR SW","SHALLOTTE","NC","28470"
219160,"460 HARITON COURT","NORFOLK","VA","23505"
219161,"460 HAYS MILL RD  SUITE J7","CARROLLTON","GA","30117"
219162,"460 HIGHWAY 81 SW","COVINGTON","GA","30014"
219163,"460 HOLMAN AVE","ATHENS","GA","30606"
219164,"460 JOHNSONBURG RD","HOPE","NJ","08744"
219165,"460 KETCHAM STREET","INDIANAPOLIS","IN","46222"
219166,"460 LANI ST","HONOLULU","HI","96821"
219167,"460 LINCOLNWAY STREET NUMBER 501","VALPARAISO","IN","46385"
219168,"460 MAIN STREET APT 210","STEVENSVILLE","MD","21666"
219169,"460 MARKET ST 20","BEAVER","PA","15009"
219170,"460 MARMORA AVE","TAMPA","FL","33606"
219171,"460 MCREYNOLDS HALL","COLUMBIA","MO","65211"
219172,"460 MEADOWOOD BLVD","FERN PARK","FL","32730"
219173,"460 MELWOOD AVE -300","PITTSBURGH","PA","15213"
219174,"460 MIDLAND AVENUE","STATEN ISLAND","NY","10306"
219175,"460 MIDWAY AVE","MASCOTTE","FL","34753"
219176,"460 MILL ROAD","MADISON","AL","35758"
219177,"460 MONROE ST","NAPA","CA","94559"
219178,"460 MOOSE HOLLOW ROAD","VICTOR","MT","59875"
219179,"460 MYLAN PARK LANE","MORGANTOWN","WV","26501"
219180,"460 N UNIVERSITY AVE STE 205","PROVO","UT","84601"
219181,"460 NE 158 ST","N MIAMI BEACH","FL","33162"
219182,"460 NE 28 STREET STE 902","MIAMI","FL","33137"
219183,"460 NEW BRITAIN AVE","HARTFORD","CT","06106"
219184,"460 NORTH SELINA ST","SYRACUSE","NY","13208"
219185,"460 NORTHFIELD ROAD","BEDFORD","OH","44146"
219186,"460 NORWICH DR","CLAREMONT","CA","91711"
219187,"460 OLD DEARING ROAD","ALVATON","KY","42122"
219188,"460 PALM TERRACE","DELAND","FM","32724"
219189,"460 PARKSIDE TRAIL","MACEDON","NY","14502"
219190,"460 QUAIL RIDGE DR","WESTMONT","IL","60559"
219191,"460 RAWLES COURT","INDIANAPOLIS","IN","46229"
219192,"460 REEDA BRANCH ROAD","ROSEBORO","NC","28382"
219193,"460 RHEINE RD NW","PALM BAY","FL","32907"
219194,"460 RICE AVE","BELLWOOD","IL","60104"
219195,"460 RIVERSIDE DR APT 102","NEW YORK CITY","NY","10027"
219196,"460 S 7TH AVE","MOUNT VERNON","NY","10550"
219197,"460 SAINT CLAIR STREET","MOORESVILLE","IN","46158"
219198,"460 SKY TOP DR","FAIRFIELD","CT","06825"
219199,"460 SLEEPER AVENUE","MOUNTAIN VIEW","CA","94040"
219200,"460 SOUTH ELM STREET","WATERLOO","IN","46793"
219201,"460 SOUTH LAKESHORE DRIVE","HOLLAND","MI","49424"
219202,"460 SOUTH RIVER STREET","MARSHFIELD","MA","02050"
219203,"460 ST MICHAELS DRIVE","SANTA FE","NM","87505"
219204,"460 ST PETERS HOWELL RD","SAINT CHARLES","MO","63304"
219205,"460 STOBE AVENUE","STATEN ISLAND","NY","10306"
219206,"460 STULL ST SUITE 300","SOUTH BEND","IN","46601"
219207,"460 SUMMIT STREET","DUBUQUE","IA","52001"
219208,"460 SUN N LAKE BLVD","LAKE PLACID","FL","33852"
219209,"460 SW MADISON AVE STE 1","CORVALLIS","OR","97333"
219210,"460 VETERANS DRIVE","BURLINGTON","NJ","08016"
219211,"460 W 12TH AVE RM 418","COLUMBUS","OH","43210"
219212,"460 W 91ST CIRCLE","THORNTON","CO","80260"
219213,"460 W CALIFORNIA BLVD UNIT 3","PASADENA","CA","91105"
219214,"460 W CENTRAL PARKWAY","ALTAMONTE SPRINGS","FL","32714"
219215,"460 W LIBERTY ST","SOUTH LYON","MI","48178"
219216,"460 W SIERRA MADRE BLVD","SIERRA MADRE","CA","91024"
219217,"460 WEAVERVILLE ROAD UNIT 4","ASHEVILLE","NC","28804"
219218,"460 WEST 147TH STREET APT 25","BRONX","NY","10475"
219219,"460 WEST 20TH STREET APT 3J","NEW YORK","NY","10011"
219220,"460 WEST 34 STREET","NEW YORK","NY","10001"
219221,"460 WEST SR 434 / SUITE 104","LONGWOOD","FL","32750"
219222,"4600  JENNINGS LANE","LOUISVILLE","KY","40218"
219223,"4600 145TH ST","LITTLE ROCK","AR","72206"
219224,"4600 9TH AVE","BROOKLYN","NY","11220"
219225,"4600 ASHLAND AVENUE","BALTIMORE","MD","21205"
219226,"4600 BELMAR BLVD","NEPTUNE","NJ","07753"
219227,"4600 BEVERLY AVE NE","CANTON","OH","44714"
219228,"4600 BROOKFIELD CORPORATE DR","CHANTILLY","VA","20151"
219229,"4600 BROOKFIELD CORPORATE DRIVE","CHANTILLY","VA","20151"
219230,"4600 CARTERS CORNER RD","SUNBURY","OH","43074"
219231,"4600 CHAMBERLAIN PL","BISMARCK","ND","58503"
219232,"4600 CHATEAU DR","METAIRIE","LA","70002"
219233,"4600 CLOUD COURT","BOULDER","CO","80301"
219234,"4600 COLBY DRIVE","FRISCO","TX","75035"
219235,"4600 CRESTMORE ROAD","JURUPA VALLEY","CA","92509"
219236,"4600 DEBARR RD STE 180","ANCHORAGE","AK","99504"
219237,"4600 DOMINION ROAD","FAYETTEVILLE","NC","28306"
219238,"4600 DRUIT ST","LOS ANGELES","CA","90032"
219239,"4600 E CRANBROOK ROAD","BLOOMINGTON","IN","47401"
219240,"4600 E DEL MAR BLVD","LAREDO","TX","78041"
219241,"4600 E MOODY BLVD APT 8M","BUNNELL","FL","32110"
219242,"4600 E WASHINGTON ST SUITE 300","PHOENIX","AZ","85034"
219243,"4600 EAST MOODY BLVD 8-G","BUNNELL","FL","32110"
219244,"4600 EAST WASHINGTON ST  SUITE 300","PHOENIX","AZ","85034"
219245,"4600 FLAT WILLOW PLACE","DOUGLASVILLE","GA","30135"
219246,"4600 FORSYTH DR","TROY","MI","48085"
219247,"4600 GARFIELD RD SUITE 800","AUBURN","MI","48611"
219248,"4600 GASTON AVENUE APT 5","DALLAS","TX","75246"
219249,"4600 GRAND CENTRAL PKWY","DECATUR","GA","30035"
219250,"4600 GUNSTON PLACE","RALEIGH","NC","27612"
219251,"4600 HEDGEROW","BEL AIRE","KS","67220"
219252,"4600 HERITAGE HEIGHTS RD","DE PERE","WI","54115"
219253,"4600 HIGHWAY A1A UNIT 307","VERO BEACH","FL","32963"
219254,"4600 HWY 6 NORTH STE 270","HOUSTON","TX","77084"
219255,"4600 INTERNATIONAL GATEWAY","COLUMBUS","OH","43219"
219256,"4600 INTERNATIONAL GTWY","COLUMBUS","OH","43219"
219257,"4600 JONESTOWN RD","HARRISBURG","PA","17109"
219258,"4600 MADISON AVENUE SUITE 120","KANSAS CITY","MO","64112"
219259,"4600 MILLERSVILLE ROAD","INDIANAPOLIS","IN","46220"
219260,"4600 MOTEREY OAKS BLVD - 1616","AUSTIN","TX","78749"
219261,"4600 N CUMBERLAND AVE  UNIT 612","CHICAGO","IL","60656"
219262,"4600 N MAIZE RD","MAIZE","KS","67101"
219263,"4600 N POPLAR AVE","BROKEN ARROW","OK","74012"
219264,"4600 NORTH FLAGLER DRIVE","WEST PALM BEACH","FL","33407"
219265,"4600 NW PLAZA W DRIVE","ZIONSVILLE","IN","46077"
219266,"4600 PARADISE BLVD 66228","ALBUQUERQUE","NM","87193"
219267,"4600 POWDER MILL RD STE 450-F","BELTSVILLE","MD","20705"
219268,"4600 POWDER MILL RD SUITE 450Q","BELTSVILLE","MD","20705"
219269,"4600 POWDER MILL ROAD SUITE 450-E","BELTSVILLE","MD","20705"
219270,"4600 POWDER MILL ROAD SUITE 450E","BELTSVILLE","MD","20705"
219271,"4600 POWDER MILL ROAD","BELTSVILLE","MD","20705"
219272,"4600 QUINCE RD","MEMPHIS","TN","38117"
219273,"4600 ROCKBRIDGE ROAD SUITE C","STONE MOUNTAIN","GA","30083"
219274,"4600 ROSWELL RD BLDG I368","ATLANTA","GA","30342"
219275,"4600 ROSWELL RD UNIT 323","SANDY SPRINGS","GA","30342"
219276,"4600 S FOX ST","ENGLEWOOD","CO","80110"
219277,"4600 S LAND PARK DR","SACRAMENTO","CA","95822"
219278,"4600 S SYRACUSE STREET SUITE 928","DENVER","CO","80237"
219279,"4600 SCHWARTZ AVENUE","LISLE","IL","60532"
219280,"4600 SHELBYVILLE ROAD SUITE 7591","LOUISVILLE","KY","40257"
219281,"4600 SHELBYVILLE ROAD UNIT 6691","LOUISVILLE","KY","40206"
219282,"4600 SHERIDAN ST STE 300","HOLLYWOOD","FL","33021"
219283,"4600 SHERWOOD COMMON BLVD STE202","BATON ROUGE","LA","70816"
219284,"4600 SNAPFINGER ROAD","ELLENWOOD","GA","30294"
219285,"4600 SUMMERLIN ROAD - C 2495","FORT MYERS","FL","33919"
219286,"4600 SW 141ST AVE","MIRAMAR","FL","33027"
219287,"4600 SW 82 AVENUE","DAVIE","FL","33328"
219288,"4600 TIMBER LN","COLUMBIA","MO","65202"
219289,"4600 TOUCHTON RD E BLDG100  STE150","JACKSONVILLE","FL","32246"
219290,"4600 TOUCHTON ROAD BLDG 100 STE 150","JACKSONVILLE","FL","32246"
219291,"4600 UNIVERSITY AVE APT 312","MADISON","WI","53705"
219292,"4600 W 122ND ST APT 208","ALSIP","IL","60803"
219293,"4600 W 139TH STREET","LEAWOOD","KS","66224"
219294,"4600 W COMMERCIAL BLVD STE 3","TAMARAC","FL","33319"
219295,"4600 W GUADALUPE STREET APT B-325","AUSTIN","TX","78751"
219296,"4600 WINDING STONE CIRCLE","OLNEY","MD","20832"
219297,"4601 16TH STREET NW SUITE B","WASHINGTON","DC","20011"
219298,"4601 4601 RINCON PLACE","MONTCLAIR","VA","22025"
219299,"4601 66TH ST W APT 800A","BRADENTON","FL","34210"
219300,"4601 82ND STREET","LUBBOCK","TX","79423"
219301,"4601 ATHENS HWY","MADISON","GA","30650"
219302,"4601 BALATON DR","LOUISVILLE","KY","40219"
219303,"4601 BONNE TERRE DR","NESBIT","MS","38651"
219304,"4601 CARNES ROAD NO29","ROSEBURG","OR","97471"
219305,"4601 COBBS DRIVE","WACO","TX","76710"
219306,"4601 CONCORD PIKE BOX 747","WILMINGTON","DE","19803"
219307,"4601 CONNECTICUT AVE APT 217 NW","WASHINGTON","DC","20008"
219308,"4601 COTTENDALE DR","DURHAM","NC","27703"
219309,"4601 DAKOTA AVE","NASHVILLE","TN","37209"
219310,"4601 DON QUIXOTE DR","LOS ANGELES","CA","90008"
219311,"4601 E 21ST ST","INDIANAPOLIS","IN","46208"
219312,"4601 E 2ND STREET SUITE 1","LONG BEACH","CA","90803"
219313,"4601 E 32ND ST","TUCSON","AZ","85711"
219314,"4601 E 5TH AVE","COLUMBUS","OH","43219"
219315,"4601 E DOUGLAS AV","WITCHITA","KS","67218"
219316,"4601 E DOUGLAS AVE STE 150","WICHITA","KS","67218"
219317,"4601 E DOUGLAS AVE","WICHITA","KS","67218"
219318,"4601 E DOUGLAS AVENUE STE 314","WICHITA","KS","67218"
219319,"4601 E MONTECITO AVE","PHOENIX","AZ","85018"
219320,"4601 E OAK ISLAND DR","OAK ISLAND","NC","28465"
219321,"4601 EARLY MORN DR","PLANO","TX","75093"
219322,"4601 EBENEZER ROAD","BALTIMORE","MD","21236"
219323,"4601 FAIRFAX DR STE 1200","ARLINGTON","VA","22203"
219324,"4601 HOPE VALLEY ROAD NUM 1E","DURHAM","NC","27707"
219325,"4601 HORIZON DRIVE","PASCO","WA","99301"
219326,"4601 HURON DR NE","RIO RANCHO","NM","87144"
219327,"4601 LAGRANGE ROAD","SHELBYVILLE","KY","40065"
219328,"4601 LAKE BOONE TRAIL SUITE 3B","RALEIGH","NC","27607"
219329,"4601 LANGDON DRIVE APT 302","MORRISVILLE","NC","27560"
219330,"4601 LEWIS LEIGH CT","CHANTILLY","VA","20151"
219331,"4601 LOCUST LANE STE 305","HARRISBURG","PA","17109"
219332,"4601 MAIN ST","KANSAS CITY","MO","64112"
219333,"4601 MORGANFORD RD","SAINT LOUIS","MO","63116"
219334,"4601 MOUNTAIN PARK RD","CHUBBUCK","ID","83202"
219335,"4601 N 36TH STREET","TAMPA","FL","33610"
219336,"4601 N FAIRFAX DR STE 1200","ARLINGTON","VA","22203"
219337,"4601 N PARK AVE SUITE 6","CHEVY CHASE","MD","20815"
219338,"4601 N PARK AVENUE SUITE 1719","CHEVY CHASE","MD","20815"
219339,"4601 NORTHVIEW STREET","WINSTON-SALEM","NC","27105"
219340,"4601 PICKETT PARK HWY","JAMESTOWN","TN","38556"
219341,"4601 PRESIDENTS DR STE 135","LANHAM","MD","20706"
219342,"4601 RIVERPARK DRIVE","FORT WORTH","TX","76137"
219343,"4601 S BAHA AVE","SIOUX FALLS","SD","57106"
219344,"4601 SAUK TRAIL","RICHTON PARK","IL","60471"
219345,"4601 STATE STREET","EAST SAINT LOUIS","IL","62205"
219346,"4601 SW 132ND AVENUE","MIAMI","FL","33175"
219347,"4601 SW 20TH TERRACE","GAINESVILLE","FL","32608"
219348,"4601 TIPSY CIR APT 100","LOUISVILLE","KY","40216"
219349,"4601 W LAKE CIRCLE N","LITTLETON","CO","80123"
219350,"4601 W MARQUETTE AVE","FRANKLIN","WI","53132"
219351,"4601 W OREM DRIVE","HOUSTON","TX","77045"
219352,"4601 W SUBLETT RD","ARLINGTON","TX","76017"
219353,"4601 WASHINGTON AVE STE 280","HOUSTON","TX","77007"
219354,"4601 WEST 180 SOUTH","RUSSIAVILLE","IN","46979"
219355,"4601 WILDCAT DR","PORTLAND","TX","78374"
219356,"4601 WILSHIRE BLVD SUITE 260","LOS ANGELES","CA","90010"
219357,"46018 KAMEHAMEHA HWY SUITE 205","KANEOHE","HI","96744"
219358,"4602 ASTIBLE CIRCLE NW","ACWORTH","GA","30102"
219359,"4602 BISON ST","BOCA RATON","FL","33428"
219360,"4602 COUNTY RD 673 LOT 15287","BUSHNELL","FL","33513"
219361,"4602 CREEK VIEW LN","BALCH SPRINGS","TX","75180"
219362,"4602 CUSTER AVENUE","BROOKFIELD","IL","60513"
219363,"4602 DENVIEW WAY","RASPEBURG","MD","21206"
219364,"4602 E FREMONT STREET","PHOENIX","AZ","85042"
219365,"4602 EXMOORE COURT","UPPER MARLBORO","MD","20772"
219366,"4602 FAIT AVENUE","BALTIMORE","MD","21224"
219367,"4602 GARDEN  CITY DRIVE","LITHONIA","GA","30058"
219368,"4602 HILLSIDE RD SE APT 3","WASHINGTON","DC","20019"
219369,"4602 LAINE AVE","NEW ORLEANS","LA","70126"
219370,"4602 LAVENDER LANE","SAN ANTONIO","TX","78220"
219371,"4602 NANTUCKET DRIVE APT 50","TOLEDO","OH","43623"
219372,"4602 NE 6 AVENUE","OAKLAND PARK","FL","33334"
219373,"4602 NW 185 STREET","MIAMI GARDENS","FL","33055"
219374,"4602 NW 18TH STREET","ANKENY","IA","50023"
219375,"4602 OLD COURT RD","PIKESVILLE","MD","21208"
219376,"4602 RICE COURT","VENTURA","CA","93003"
219377,"4602 RIVER HILLS DR","TAMPA","FL","33617"
219378,"4602 SOUTH CRENSHAW BLVD STE A","LOS ANGELES","CA","90043"
219379,"4602 SPRUCE DRIVE APT 2107","ARLINGTON","TX","76018"
219380,"4602 SUPERERIOR AVE APT 2","CLEVELAND","OH","44103"
219381,"4602 TUDOR ROAD","STILESVILLE","IN","46180"
219382,"4602 WESTGROVE COURT - SUITE A","VIRGINIA BEACH","VA","23455"
219383,"46027 GREENRIDGE DR","NORTHVILLE","MI","48167"
219384,"46028 BARTLETT DR","CANTON","MI","48187"
219385,"4603 4TH ST SOUTH","ARLINGTON","VA","22204"
219386,"4603 COLONY WEST DRIVE","RICHMOND","TX","77406"
219387,"4603 COUNTRYCROSSING DR","SPRING","TX","77388"
219388,"4603 EAST 4TH PLACE","TULSA","OK","74112"
219389,"4603 ENCHANTED BAY BLVD","ARLINGTON","TX","76016"
219390,"4603 HWY 56","CHAUVIN","LA","70344"
219391,"4603 KENDALL AVE","GULFPORT","MS","39507"
219392,"4603 KILMARNOCH WAY","MISSOURI CITY","TX","77459"
219393,"4603 MAGELLAN DR","WALNUTPORT","PA","18088"
219394,"4603 MILLSTONE CANYON LANE","SUGARLAND","TX","77479"
219395,"4603 PEACHTREE PLACE PKWY APT D","DORAVILLE","GA","30360"
219396,"4603 PRESTBURY DRIVE","GREENSBORO","NC","27455"
219397,"4603 PRISCILLA AVE","MEMPHIS","TN","38128"
219398,"4603 SPRINGWATER COURT UNIT J","OWINGS MILLS","MD","21117"
219399,"4603 SYCAMORE SHOALS DR","DURHAM","NC","27705"
219400,"4603 TIMOTHY DR","GREEN","OH","44319"
219401,"4603 W GARY DR","CHANDLER","AZ","85226"
219402,"4603 W LEON TER","MILWAUKEE","WI","53216"
219403,"4603 W NAOMI WAY","FRESNO","CA","93722"
219404,"4603 WEST COUNTY ROAD 700 SOUTH","MUNCIE","IN","47302"
219405,"4603 WOODHALL","DETROIT","MI","48224"
219406,"46036 MICHIGAN AVE   116","CANTON","MI","48188"
219407,"46036 MICHIGAN AVENUE SUITE 320","CANTON","MI","48188"
219408,"4604 49TH STREET NORTH STE 1162","ST PETERSBURG","FL","33709"
219409,"4604 ACAPULCO STREET","SAN BERNARDINO","CA","92407"
219410,"4604 ATLANTIC STREET","FARMINGTON","NM","87402"
219411,"4604 BATTLEGROUND RD UNIT 4","WAITSFIELD","VT","05673"
219412,"4604 BIMINI LN","WEST PALM BEACH","FL","33417"
219413,"4604 CHEENEY STREET","SANTA CLARA","CA","95054"
219414,"4604 CHINABERRY LN","NAPERVILLE","IL","60564"
219415,"4604 DALROCK DR","PLANO","TX","75024"
219416,"4604 ECHO SPRINGS CIRCLE","EL DORADO HILLS","CA","95762"
219417,"4604 EVERETT DR","TYLER","TX","75706"
219418,"4604 JARRIS LANE","FORT WORTH","TX","76119"
219419,"4604 MARIELLE DRIVE","ROSEDALE","MD","21237"
219420,"4604 MAYFIELD DR","KOKOMO","IN","46901"
219421,"4604 N 14TH AVENUE","PHOENIX","AZ","85013"
219422,"4604 N FRIDAY CIRCLE","ROCKLEDGE","FL","32926"
219423,"4604 N KINGS HWY","MYRTLE BEACH","SC","29577"
219424,"4604 NE BELL AVE","LAWTON","OK","73507"
219425,"4604 PAYNE ROAD","HURLOCK","MD","21643"
219426,"4604 RIVER OAK","KNOXVILLE","TN","37920"
219427,"4604 SARANDON CT","CHARLOTTE","NC","28215"
219428,"4604 SARASOTA DRIVE","THE COLONY","TX","75056"
219429,"4604 SPRINGFIELD COURT","LOUISVILLE","KY","40229"
219430,"4604 VIA VENTURA","MESQUITE","TX","75150"
219431,"4604 WESTMINSTER AVE","PHILADELPHIA","PA","19131"
219432,"4605 233RD ST SW","MOUNTLAKE TERRACE","WA","98043"
219433,"4605 7TH AVENUE 1FL","BROOKLYN","NY","11220"
219434,"4605 88TH AVE SE","MERCER ISLAND","WA","98040"
219435,"4605 BLUEBONNET BLVD SUITE A","BATON ROUGE","LA","70809"
219436,"4605 CASS AVE","DETROIT","MI","48201"
219437,"4605 CLUB COURSE DRIVE","N CHARLESTON","SC","29420"
219438,"4605 COUNTY ROAD 660","FARMERSVILLE","TX","75442"
219439,"4605 COUNTY ROAD 69","REEDS","MO","64859"
219440,"4605 E SWALLER RD","IMPERIAL","MO","63052"
219441,"4605 EMBASSY CIRCLE APT 203","OWINGS MILLS","MD","21117"
219442,"4605 ESTATE TUTU","ST THOMAS","VI","00802"
219443,"4605 HARE STREET","HOUSTON","TX","77020"
219444,"4605 HILLTOP DRIVE","MIDLAND","TX","79707"
219445,"4605 KAVON AVENUE","BALTIMORE","MD","21206"
219446,"4605 LANKERSHIM BLVD SUITE 301","NORTH HOLLYWOOD","CA","91602"
219447,"4605 MAIL PLUS TUTU MALL 133 446","ST THOMAS","VI","00802"
219448,"4605 OLD MEMPHIS PIKE","TUSCUMBIA","AL","35674"
219449,"4605 PALACE PLACE","TITUSVILLE","FL","32796"
219450,"4605 POINT LOMA AVENUE","SAN DIEGO","CA","92107"
219451,"4605 ROSEDALE AVE","AUSTIN","TX","78756"
219452,"4605 S 2ND ST UNIT B","AUSTIN","TX","78745"
219453,"4605 S MEADOWLARK DRIVE","SPRINGFIELD","MO","65810"
219454,"4605 S NATHAN AVE","SIOUX FALLS","SD","57103"
219455,"4605 S PLATEAU TRAIL","SIOUX FALLS","SD","57106"
219456,"4605 SAINT MATTHEWS ROAD","ORANGEBURG","SC","29118"
219457,"4605 SOPHIA WAY","LAS VEGAS","NV","89032"
219458,"4605 SUMMIT DRIVE","LOUISVILLE","KY","40229"
219459,"4605 SUMMITT DRIVE","LOUISVILLE","KY","40229"
219460,"4605 SW JOSHUA STREET","TUALATIN","OR","97062"
219461,"4605 TUTU PARK MALL STE 207","ST THOMAS","VI","00802"
219462,"4605 TUTU PARK MALL STE133 PMB 653","STTHOMAS","VI","00802"
219463,"4605 VARRELMANN AVE","ST LOUIS","MO","63116"
219464,"4605 WHISPER WAY","PENSACOLA","FL","32504"
219465,"4605C OLEANDER DR STE 301","MYRTLE BEACH","SC","29577"
219466,"4606 227TH ST SW","MOUNTLAKE TERRACE","WA","98043"
219467,"4606 BEECHER RD F2","FLINT","MI","48532"
219468,"4606 BOUDINOT STREET","PHILADELPHIA","PA","19120"
219469,"4606 CEDAR SPRINGS RD SUITE 822","DALLAS","TX","75219"
219470,"4606 CLARA ROSE LN","KATY","TX","77449"
219471,"4606 CLYDE MORRIS BLVD     2N","PORT ORANGE","FL","32129"
219472,"4606 DEEPWOOD CT","BOWIE","MD","20720"
219473,"4606 E REZANOF DR","KODIAK","AK","99615"
219474,"4606 EAST 93RD STREET","GARFIELD HTS","OH","44125"
219475,"4606 ELM TERRACE","SKOKIE","IL","60076"
219476,"4606 FM 1960 437","HOUSTON","TX","77069"
219477,"4606 FM 1960 RD W STE 305","HOUSTON","TX","77069"
219478,"4606 FM 1960 RD W STE 400","HOUSTON","TX","77069"
219479,"4606 FM 1960 RD W STE 413","HOUSTON","TX","77069"
219480,"4606 FM 1960 WEST  STE 144","HOUSTON","TX","77069"
219481,"4606 FM 1960 WEST STE 312","HOUSTON","TX","77069"
219482,"4606 FM 1960 WEST STE 312","SPRING","TX","77069"
219483,"4606 FM 1960 WEST","HOUSTON","TX","77066"
219484,"4606 FOXHALL CRES NW","WASHINGTON","DC","20007"
219485,"4606 HARTFORD DRIVE","FORT WAYNE","IN","46835"
219486,"4606 HIGHGATE DRIVE","DELRAY BEACH","FL","33445"
219487,"4606 KINGSWELL AVENUE APT 1","LOS ANGELES","CA","90027"
219488,"4606 MCCUEN AVE","STOCKTON","CA","95203"
219489,"4606 MCCUEN AVE","STOCKTON","CA","95206"
219490,"4606 MUSTANG AVE","ROSENBERG","TX","77471"
219491,"4606 N ALBINA AVE","PORTLAND","OR","97217"
219492,"4606 N FRANKFORT AVE","TULSA","OK","74126"
219493,"4606 NETA DR","KILLEEN","TX","76549"
219494,"4606 PIPPIN GLEN DR","HUMBLE","TX","77396"
219495,"4606 POLK NE","COLUMBIA HEIGHTS","MN","55421"
219496,"4606 S DOSS RD","PORT ANGELES","WA","98362"
219497,"4606 S MEADOWLARK DR","SPRINGFIELD","MO","65810"
219498,"4606 SHOALWOOD AVENUE","AUSTIN","TX","78756"
219499,"4606 SPRINGVIEW ROAD APT 3","CHARLOTTE","NC","28213"
219500,"4606 STEEPLECHASE DRIVE","BATAVIA","OH","45103"
