"ID","Address","City","State","Zip"
272501,"688 ROCKWOOD DRIVE","ELIZABETHTOWN","PA","17022"
272502,"688 SALLY ANN RD","CLEARWATER","ID","83552"
272503,"688 SARAH AVE","TWIN FALLS","ID","83301"
272504,"688 SE 37TH AVENUE","HILLSBORO","OR","97123"
272505,"688 SHENANDOAH DR SE","SALEM","OR","97317"
272506,"688 SHEPHERDS RANCH","BULVERDE","TX","78163"
272507,"688 SHIRKSVILLE RD","JONESTOWN","PA","17038"
272508,"688 SONORA AVE","MERCED","CA","95340"
272509,"688 SOUTH 16TH STREET","NEWARK","NJ","07103"
272510,"688 SOUTH SHORE DRIVE","HOLLAND","MI","49423"
272511,"688 STERLING PLACE","BROOKLYN","NY","11216"
272512,"6880 ATLANTA CIR","SEAFORD","DE","19973"
272513,"6880 BUSHNELL DRIVE","PLANO","TX","75024"
272514,"6880 CAPE COD DRIVE","GRAND PRAIRIE","TX","75054"
272515,"6880 E NOYES ST","SAHUARITA","AZ","85629"
272516,"6880 KANGAROO DRIVE","WALDORF","MD","20603"
272517,"6880 LAWRENCE ROAD","LANTANA","FL","33462"
272518,"6880 MCCOY RD","RICKREALL","OR","97371"
272519,"6880 N VICTORIA WINDROWS LOOP","RANCHO CUCAMONGA","CA","91739"
272520,"6880 NW 26TH CT","SUNRISE","FL","33313"
272521,"6880 RACKVIEW ROAD","CINCINNATI","OH","45248"
272522,"6880 S 700 W APT E103","MIDVALE","UT","84047"
272523,"6880 SW 158TH COURT","MIAMI","FL","33193"
272524,"6880 W STONES CROSSING ROAD","GREENWOOD","IN","46143"
272525,"6880 ZANIAH ROAD","ATLANTA","GA","30331"
272526,"6880S 700W APT F101","MIDVALE","UT","84047"
272527,"6881 37TH ST N","OAKDALE","MN","55128"
272528,"6881 BAMBURGH WAY","WEST VALLEY CITY","UT","84128"
272529,"6881 ELBROOK AVENUE","CINCINNATI","OH","45237"
272530,"6881 EVENING HILL DR","HUNTINGTON BEACH","CA","92648"
272531,"6881 KINGSPOINTE PARKWAY 17B","ORLANDO","FL","32819"
272532,"6881 MEADOW CREST DRIVE 1110","NORTH RICHLAND HILLS","TX","76180"
272533,"68810 HOLMES RD","SISTERS","OR","97759"
272534,"6882 CREST STREET","WEST VALLEY CITY","UT","84128"
272535,"6882 FOX RUN DR","WESTERVILLE","OH","43082"
272536,"6882 N LA PLACE","TUCSON","AZ","85750"
272537,"6882 NORTH LA PLACE","TUCSON","AZ","85750"
272538,"6882 SERENITY WAY","SAN  JOSE","CA","95120"
272539,"6882 SERENITY WAY","SAN JOSE","CA","95120"
272540,"6883 MAPLE SPRINGS STREET","SAN ANTONIO","TX","78249"
272541,"6883 SPRING VALLEY CT","DOUGLASVILLE","GA","30135"
272542,"6884 23RD STREET","SACRAMENTO","CA","95822"
272543,"6884 S COUNTY ROAD 400 E","CLAYTON","IN","46118"
272544,"6884 TILTON LANE NW","ATLANTA","GA","30360"
272545,"6885 85TH AVE SW","MOTT","ND","58646"
272546,"6885 CURRY CIRCLE","MARGATE","FL","33068"
272547,"6885 MEMORIAL STREET","DETROIT","MI","48228"
272548,"6885 NE PLEASANT VALLEY RD","KANSAS CITY","MO","64119"
272549,"6885 NORTH ST NE","NEWARK","OH","43055"
272550,"6885 NW 11TH PLACE","PLANTATION","FL","33313"
272551,"6885 PACIFIC VIEW DRIVE","LOS ANGELES","CA","90068"
272552,"6885 STATE HWY 85","CHANCELLOR","AL","36316"
272553,"6885 TANYA TERRACE","REYNOLDSBURG","OH","43068"
272554,"6886 MAIN ST SUITE D","LITHONIA","GA","30058"
272555,"6887 N OVERHILL AVENUE APT 1","CHICAGO","IL","60631"
272556,"6887 SADDLEBACK PL","RANCHO CUCAMONGA","CA","91701"
272557,"6887 TAYLOR ROAD","HAMBURG","NY","14075"
272558,"6887 TIMBERS DRIVE","EVERGREEN","CO","80439"
272559,"6888 BLACK FOREST ROAD","COLORADO SPRINGS","CO","80923"
272560,"6888 E BENDER RD","BLOOMINGTON","IN","47401"
272561,"6888 HIGHWAY 6 SOUTH","HOUSTON","TX","77083"
272562,"6888 HWY 6","HOUSTON","TX","77083"
272563,"6888 OAK GLEN DR","BATON ROUGE","LA","70812"
272564,"6889 HIGHTOWER DR 1926","NORTH RICHLAND HILLS","TX","76182"
272565,"6889 PEACHTREE INDUSTRIAL BLVD F","NORCROSS","GA","30092"
272566,"6889 W REMUDA DR","PEORIA","AZ","85383"
272567,"6889 W VIRGINIA AVENUE","JACKSONVILLE","FL","32209"
272568,"6889 WALNUT HILLS DR","BRENTWOOD","TN","37027"
272569,"6889 WEST 20TH","JOPLIN","MO","64804"
272570,"68895 PEREZ ROAD SUITE I 13","CATHEDRAL CITY","CA","92234"
272571,"689 A BRYANT STREET","SAN FRANCISCO","CA","94107"
272572,"689 B DR MARTIN LUTHER KING JR ST","ST PETERBURG","FL","33701"
272573,"689 DEAN STREET","BROOKLYN","NY","11238"
272574,"689 E PLEASANT HOME ROAD","WOOSTER","OH","44691"
272575,"689 E WHITEHALL CT","ROUND LAKE BEACH","IL","60073"
272576,"689 EAST FOOTHILL BLVD","POMONA","CA","91767"
272577,"689 FENELON PL","DUBUQUE","IA","52001"
272578,"689 GRAND RAPIDS BLVD","NAPLES","FL","34120"
272579,"689 HARLAN ST","CLIFTON HILL","MO","65244"
272580,"689 HAROLD TUCKER ROAD","HATTIESBURG","MS","39401"
272581,"689 HIGHWAY 31","MANDERSON","WY","82432"
272582,"689 IVY AVENUE EAST","SAINT PAUL","MN","55106"
272583,"689 JOYFUL STREET","COLUMBUS","OH","43204"
272584,"689 LAKE DR","WESTMINSTER","MD","21158"
272585,"689 LAPLAND ROAD","EAST FAIRFIELD","VT","05448"
272586,"689 MAIN ST","AGAWAM","MA","01001"
272587,"689 MAIN STREET SUITE A","STONE MOUNTAIN","GA","30083"
272588,"689 N PLUMAS DR","MOUNTAIN HOUSE","CA","95391"
272589,"689 ROCKAWAY PKWY","BROOKLYN","NY","11236"
272590,"689 RUTHERFORD RD","TUPELO","MS","38801"
272591,"689 S COLLIER BLVD","MARCO ISLAND","FL","34145"
272592,"689 SALTSDALE ROAD","UMATILLA","FL","32784"
272593,"689 SCOTT TROY ROAD","LEBANON","IL","62254"
272594,"689 SHORE VIEW","LITHONIA","GA","30058"
272595,"689 SPRINGFIELD AVE","VENTURA","CA","93004"
272596,"689 TELEGRAPH ROAD","COATESVILLE","PA","19320"
272597,"689 WEST LIBERTY STREET SUITE 7","MEDINA","OH","44256"
272598,"689 WINDSOR LANE","KAYSVILLE","UT","84037"
272599,"6890 BLACK HAWK COURT","DUBLIN","OH","43017"
272600,"6890 NW 60TH AVE","CHIEFLAND","FL","32626"
272601,"6890 NW 9TH ST","MARGATE","FL","33063"
272602,"6891 WEST CHESTER RD","WEST CHESTER","OH","45069"
272603,"6892 AIRPORT ROAD","THREE LAKES","WI","54562"
272604,"6892 MAIN STREET UNIT 2312","GLOUCESTER","VA","23061"
272605,"6893 N DECHELLY LOOP","TUCSON","AZ","85741"
272606,"6893 NORTH DECHELLY LOOP","TUCSON","AZ","85741"
272607,"6893 W CHARLESTON BLVD","LAS VEGAS","NV","89117"
272608,"6894 BOULDER LAKE AVENUE","SAN DIEGO","CA","92119"
272609,"6894 N HUNTINGTON DRIVE","SAN BERNARDINO","CA","92407"
272610,"6895 COLDSTREAM COURT","BRYANS ROAD","MD","20616"
272611,"6895 CONTES STREET","PALMDALE","CA","93552"
272612,"6895 FOXBORO CIRCLE","PACE","FL","32571"
272613,"6895 HEYDEN","DEARBORN HEIGHTS","MI","48127"
272614,"6895 MILANI STREET","LAKE WORTH","FL","33467"
272615,"6895 NW 14TH AVENUE P O BOX 531311","MIAMI SHOES","FL","33153"
272616,"6896 CHERRY LAUREL LANE","FISHERS","IN","46038"
272617,"6896 FARBWOOD RD","ROCKFORD","IL","61102"
272618,"6897 ATLANTA HIGHWAY","MONTGOMERY","AL","36117"
272619,"6897 GREENBRIAR CURVE","SHAKOPEE","MN","55379"
272620,"6897 SELF CREEK ROAD","STARKVILLE","MS","39759"
272621,"6897 SOUTH 4000 WEST","SPANISH FORK","UT","84660"
272622,"6897 SW GREENWICH DRIVE","PORTLAND","OR","97225"
272623,"6897 TRIGO ROAD","GOLETA","CA","93117"
272624,"6897 W CHARLESTON BLVD","LAS VEGAS","NV","89117"
272625,"6898 A C SKINNER PKWY UNIT 313","JACKSONVILLE","FL","32256"
272626,"6898 KEEFERS LANE","BLOOMSBURG","PA","17815"
272627,"6898 MACFARLANE ROAD","GLEN ARBOR","MI","49636"
272628,"6898 N CLINTON STREET","TERRE HAUTE","IN","47805"
272629,"6898 S FRANKLIN CIR","CENTENNIAL","CO","80122"
272630,"6899 ADAINVILLE DRIVE","PALMDALE","CA","93552"
272631,"6899 BAULEY DRIVE","HUDSON","OH","44236"
272632,"6899 BROADVIEW RD","SEVEN HILLS","OH","44131"
272633,"6899 N CRYSTAL RD","VESTABURG","MI","48891"
272634,"6899 OLD FOX TRAIL","STONE MOUNTAIN","GA","30087"
272635,"6899 PENTLAND WAY 113","FORT MYERS","FL","33966"
272636,"69  MOTT STREET 3/FL SUITE 9","NEW YORK","NY","10013"
272637,"69 10  GROTON ST FOREST HILLS","NEW YORK","NY","11375"
272638,"69 10 GROTON ST FOREST HILLS","NEW YORK","NY","11375"
272639,"69 ALLEN AVE","LYNN","MA","01902"
272640,"69 ALTAIR DRIVE","TURNERSVILLE","NJ","08012"
272641,"69 ANGLIN RD","GRIFFIN","GA","30223"
272642,"69 ARDEN AVE","BUFFALO","NY","14215"
272643,"69 AVENIDA DE LAS NACIONES","RIO RICO","AZ","85648"
272644,"69 BALLARDS CORNER ROAD","HINESBURG","VT","05461"
272645,"69 BEACON BAY","NEWPORT BEACH","CA","92660"
272646,"69 BEAVER DRIVE","DUBOIS","PA","15801"
272647,"69 BELL BUOY ROAD","POCASSET","MA","02559"
272648,"69 BENNETT AVE APT 210","NEW YORK","NY","10033"
272649,"69 BENNETT AVENUE APT 210","NEW YORK","NY","10033"
272650,"69 BERNICE DR","CHEEKTOWAGA","NY","14225"
272651,"69 BIRCH LANE","VALLEY STREAM","NY","11581"
272652,"69 BLANCHARD ST","NEWARK","NJ","07105"
272653,"69 BRICKYARD ROAD EXT","SOUTHAMPTON","MA","01073"
272654,"69 BROWN STREET BOX 4531","PROVIDENCE","RI","02912"
272655,"69 CABIN VILLAGE LN","HILLSVILLE","VA","24343"
272656,"69 CALAVERAS AVE","GOLETA","CA","93117"
272657,"69 CEDAR DR W","PLAINVIEW","NY","11803"
272658,"69 CENTER STREET","ELLENVILLE","NY","12428"
272659,"69 CHERRY STREET APT 1","GLENS FALLS","NY","12801"
272660,"69 COLLEGE STREET","BURLINGTON","VT","05401"
272661,"69 COLUMBIA AVE","LYNN","MA","01902"
272662,"69 CORTE MADERA AVENUE UNIT A","CORTE MADERA","CA","94925"
272663,"69 CRAWFORD ST","WATERTOWN","MA","02472"
272664,"69 CURVE STREET","WELLESLEY","MA","02482"
272665,"69 D RAIL ROAD AVE","HILO","HI","96720"
272666,"69 DEMONT AVENUE EAST","LITTLE CANADA","MN","55117"
272667,"69 DRAPER ST 3","DORCHESTER","MA","02122"
272668,"69 E 125TH STREET 8F","NEW YORK","NY","10035"
272669,"69 ELM ST","COHASSET","MA","02025"
272670,"69 FAIRY DELL ROAD","CLINTON","CT","06413"
272671,"69 FINLAY PLACE","NEWARK","NJ","07106"
272672,"69 FRANKLIN RD","TEANECK","NJ","07666"
272673,"69 FRASIER RD","ACTON","ME","04001"
272674,"69 GARDINER ST","LYNN","MA","01905"
272675,"69 GRAND STREET SUITE 2","NEWBURG","NY","12550"
272676,"69 GROVE STREET","MONTCLAIR","NJ","07042"
272677,"69 HARBOUR CLOSE","NEW HAVEN","CT","06519"
272678,"69 HAYWARD STREET","HOPKINTON","MA","01748"
272679,"69 HEDLEY ST","PORTSMOUTH","RI","02871"
272680,"69 HIGH ST","HAMPTON","NH","03842"
272681,"69 HUBER VILLAGE BLVD","WESTERVILLE","OH","43081"
272682,"69 IROQUOIS AVENUE","LAKE HIAWATHA","NJ","07034"
272683,"69 JAMES LANDING ROAD","NEWPORT NEWS","VA","23606"
272684,"69 KAUNAS CIRCLE","MANCHESTER","NH","03102"
272685,"69 KINGS HIGHWAY","MIDLETOWN","NJ","07748"
272686,"69 LAKE END ROAD GREEN POND","NEWFOUNDLAND","NJ","07435"
272687,"69 LAKESIDE DRIVE","GRAND RAPIDS","MI","49506"
272688,"69 LAKEVIEW DRIVE","HOLMES","NY","12531"
272689,"69 LAMB AVE","SAUGERTIES","NY","12477"
272690,"69 LAWTON FOSTER SOUTH","HOPKINTON","RI","02833"
272691,"69 LINCOLN BLVD NUM 185-A","LINCOLN","CA","95648"
272692,"69 LINWOOD AVE","BUFFALO","NY","14209"
272693,"69 LLOYD COURT","EAST MEADOW","NY","11554"
272694,"69 LOCUST STREET","MONTROSE","PA","18801"
272695,"69 LONGFELLOW DR","LONGMEADOW","MA","01106"
272696,"69 MAIN ST","SWANSEA","MA","02777"
272697,"69 MAIN STREET","NORTHFIELD","MA","01360"
272698,"69 MANSFIELD ST","HARTFORD","CT","06112"
272699,"69 MARBLE STREET UNIT E225","EDWARDS","CO","81632"
272700,"69 MEADOW POND RD","SOUTH BERWICK","ME","03908"
272701,"69 MEIGS ST APT 3","ROCHESTER","NY","14607"
272702,"69 MERRIAM ST APT 3","SOMERVILLE","MA","02143"
272703,"69 MILL CREEK DR","WILLITS","CA","95490"
272704,"69 MUNROE STREET  APARTMENT 1","BOSTON","MA","02119"
272705,"69 N 300 W PO BOX 88","GARDEN CITY","UT","84028"
272706,"69 N CYPRESS STREET","WALNUT HILL","FL","32568"
272707,"69 N HILLVIEW DR","ST. PETERS","MO","63376"
272708,"69 N UNION ST","ARLINGTON","MA","02474"
272709,"69 NORTH BEACON ST","HARTFORD","CT","06105"
272710,"69 NORTH SIDE ROAD","WADING RIVER","NY","11792"
272711,"69 NORTH VILLAGE ROAD","CAPE NEDDICK","ME","03902"
272712,"69 NORTHWEST RD","HICKORY","NC","28601"
272713,"69 OLD PASTURE WAY","HENDERSONVILLE","NC","28739"
272714,"69 OVERHILL ROAD","PROVIDENCE","RI","02906"
272715,"69 PARK AVE","WORCESTER","MA","01605"
272716,"69 PARSELLS AVE","ROCHESTER","NY","14609"
272717,"69 PENNINGTON ROAD","NEW BRUNSWICK","NJ","08901"
272718,"69 PETRIFIED GARDEN ROAD","SARATOGA SPRINGS","NY","12866"
272719,"69 PETRIFIED GARDENS ROAD","SARATOGA SPRINGS","NY","12866"
272720,"69 PIEDMONT ST","WORCESTER","MA","01610"
272721,"69 PUBLIC SQUARE 11TH FLOOR","WILKES-BARRE","PA","18701"
272722,"69 RICHMOND DRIVE","MANCHESTER","CT","06042"
272723,"69 ROCKLAND STREET","NATICK","MA","01760"
272724,"69 ROOSEVELT BLVD","PLEASANTVILLE","NJ","08232"
272725,"69 ROOSEVELT BOULEVARD","PLEASANTVILLE","NJ","08232"
272726,"69 S CREEK DRIVE","CHEEKTOWAGA","NY","14225"
272727,"69 SCHOOL ST","BAR HARBOR","ME","04609"
272728,"69 SHIPWASH DRIVE","GARNER","NC","27529"
272729,"69 SIDNEY STREET","BUFFALO","NY","14211"
272730,"69 SOUTH 9TH STREET","LAKELAND","GA","31635"
272731,"69 SOUTH CENTRAL AVENUE","UTICA","OH","43080"
272732,"69 STANDISH ST","CAMBRIDGE","MA","02138"
272733,"69 SUMMIT AVENUE","SUSSEX","NJ","07461"
272734,"69 SUNBURST TERRACE","CENTRAL ISLIP","NY","11722"
272735,"69 SUSQUEHANNA TRAIL","BRANCHBURG","NJ","08876"
272736,"69 TROWBRIDGE PATH","WEST YARMOUTH","MA","02673"
272737,"69 TWO BUTTES RD","SARATOGA","WY","82331"
272738,"69 TYLER AVE","SOUND BEACH","NY","11789"
272739,"69 TYLER ST","PATERSON","NJ","07501"
272740,"69 W ORANGE GROVE AVE","SIERRA MADRE","CA","91024"
272741,"69 W SPRING ST","WINOOSKI","VT","05404"
272742,"69 WADE AVENUE","BUFFALO","NY","14214"
272743,"69 WASHINGTON STREET","CONCORD","NH","03301"
272744,"69 WEST 128 STREET","NEW YORK","NY","10027"
272745,"69 WEST WOOD STREET","LOWELLVILLE","OH","44436"
272746,"69 WILLIAMSBURG LANE","LANCASTER","NY","14086"
272747,"69 WINCHESTER DR","LINDENHURST","NY","11757"
272748,"69 WINDSOR DRIVE","DUMONT","NJ","07628"
272749,"69 WINDWARD AVE","VENICE","CA","90291"
272750,"69 WOODLAND AVE","GEORGETOWN","SC","29440"
272751,"69 WOODLAND DR","FLORENCE","MA","01062"
272752,"69-10 GROTON STREET","FORESTHILLS","NY","11375"
272753,"69-10 ROOSEVELT AVENUE","NEW YORK","NY","11377"
272754,"69-11 183RD ST","FRESH MEADOWS","NY","11365"
272755,"69-200 POHAKULANA PL SUITE G3","WAIKOLOA","HI","96738"
272756,"69-24 HILLMEYER AVE","ARVERNE","NY","11692"
272757,"69-29 KISSENA BLVD","FLUSHING","NY","11367"
272758,"69-40 OLCOTT STREET","FOREST HILLS","NY","11375"
272759,"69-555 WAIKOLOA BEACH DRIVE","WAIKOLOA","HI","96738"
272760,"69","HUMBLE","TX","77346"
272761,"690 15TH STREET APT 403","OAKLAND","CA","94612"
272762,"690 32ND AVE SW","VERO BEACH","FL","32968"
272763,"690 3RD AVE","WILLIAMSPORT","PA","17701"
272764,"690 BIG BEND TRL","SUGARHILL","GA","30518"
272765,"690 BLACK EAGLE DRIVE","GROVELAND","FL","34736"
272766,"690 BLUE RIDGE DR","TROY","VA","22974"
272767,"690 BROADWAY AVENUE","BEDFORD","OH","44146"
272768,"690 CHESTERFIELD PARKWAY WEST","CHESTERFIELD","MO","63017"
272769,"690 CHURCH ST","FREELAND","MI","48623"
272770,"690 CLEVELAND AVE SOUTH SUITE 100","SAINT PAUL","MN","55116"
272771,"690 COUNTY ROAD  836","STEPHENVILLE","TX","76401"
272772,"690 E ELIZABETH ST","PASADENA","CA","91104"
272773,"690 E MITHOFF ST","COLUMBUS","OH","43206"
272774,"690 E TABOR STREET SUITE 1","FAIRFIELD","CA","94533"
272775,"690 ENGLISH VILLAGE DR APT 204","INDIANAPOLIS","IN","46239"
272776,"690 ESCALADE DR","ATLANTA","GA","30349"
272777,"690 FAIRMONT ST","BRIDGEPORT","IL","62417"
272778,"690 FOREST AVENUE","PLYMOUTH","MI","48170"
272779,"690 FORT WASHINGTON AVE  APT 7P","NEW YORK","NY","10040"
272780,"690 FRANKTON ST","HOOD RIVER","OR","97031"
272781,"690 HUMANE WAY","SAN JACINTO","CA","92582"
272782,"690 JIM FENLEY LOOP","LUFKIN","TX","75901"
272783,"690 LAKEHILL WAY","JOHNS CREEK","GA","30022"
272784,"690 LINCOLN AVE APT 2A","PITTSBURGH","PA","15202"
272785,"690 MAIN ST  SUITE 829","SAFETY HARBOR","FL","34695"
272786,"690 MAIN ST 27","SAFETY HARBOR","FL","34695"
272787,"690 MAIN ST SUITE 1011","SAFETY HARBOR","FL","34695"
272788,"690 MAIN STREET 27","SAFETY HARBOR","FL","34695"
272789,"690 MAIN STREET 72","SAFETY HARBOR","FL","34695"
272790,"690 MAIN STREET STE 852","SAFETY HARBOR","FL","34695"
272791,"690 MAIN STREET SUITE 829","SAFETY HARBOR","FL","34695"
272792,"690 MECHANIC STREET - SUITE 100","LEOMINSTER","MA","01453"
272793,"690 N 600 W","LEBANON","IN","46052"
272794,"690 N LAKE PLEASANT ROAD","ATTICA","MI","48412"
272795,"690 NE 13 ST   SUITE 102","FORT LAUDERDALE","FL","33304"
272796,"690 NE 51ST STREET","MIAMI","FL","33137"
272797,"690 NEW PALTZ ROAD","HIGHLAND","NY","12528"
272798,"690 NW 72 TERRACE","HOLLYWOOD","FL","33024"
272799,"690 PATHWOOD LANE","STOCKBRIDGE","GA","30281"
272800,"690 RANDOLPH STREET SE","BOLIVIA","NC","28422"
272801,"690 REDWOOD HIGHWAY","MILL VALLEY","CA","94941"
272802,"690 RIVERSHORES DR NUMBER 302","WEST BEND","WI","53090"
272803,"690 ROGERS AVENUE APT 2G","BROOKLYN","NY","11226"
272804,"690 S HWY 89 STE 200","JACKSON","WY","83001"
272805,"690 S HWY 89 SUITE 200","JACKSON","WY","83001"
272806,"690 S HWY 89","JACKSON","WY","83001"
272807,"690 S LINCOLN AVE","MONTEREY PARK","CA","91755"
272808,"690 SE BOBWHITE LANE","WAUKEE","IA","50263"
272809,"690 SOUTH HWY 89 SUITE 200","JACKSON","WY","83001"
272810,"690 SOUTH MARENGO AVE UNIT 4","PASADENA","CA","91106"
272811,"690 STROUDWATER ST","WESTBROOK","ME","04092"
272812,"690 THORNTON WAY STE B","LITHIA SPRINGS","GA","30122"
272813,"690 TROPICAL CIRCLE","SARASOTA","FM","34242"
272814,"690 VALENCIA ROAD","MARS","PA","16046"
272815,"690 W IRVING PARK RD APT D2","CHICAGO","IL","60613"
272816,"690 WEST FIRST STREET","TUSTIN","CA","92780"
272817,"690 WILSHIRE PLACE STE 308","LOS ANGELES","CA","90005"
272818,"690 YELLOWSTONE AVENUE SUITE F","POCATELLO","ID","83201"
272819,"6900 29 DANIELS PKWY 358","FORT MYERS","FL","33912"
272820,"6900 BAY DR APT 9L","MIAMI BEACH","FL","33141"
272821,"6900 BRIGHTWAY PLACE STE E","GWYNN OAK","MD","21207"
272822,"6900 BROADWAY ST","SAN ANTONIO","TX","78209"
272823,"6900 CR 95","PALM HARBOR","FL","34864"
272824,"6900 DANIELS PKWY STE 29-288","FORT MYERS","FL","33912"
272825,"6900 DELMAR BOULEVARD","UNIVERSITY CITY","MO","63130"
272826,"6900 DERBY ROAD","DAYTON","OH","45417"
272827,"6900 E CAMELBACK RD     SUITE 1010","SCOTTSDALE","AZ","85251"
272828,"6900 E CAMELBACK RD 1050","SCOTTSDALE","AZ","85251"
272829,"6900 EAST MIDWAY ROAD","BIG SPRING","TX","79720"
272830,"6900 LA PRESA DR","SAN GABRIEL","CA","91775"
272831,"6900 LAGRANGE HILL","CORDOVA","TN","38018"
272832,"6900 LEYTON PLACE","SUFFOLK","VA","23435"
272833,"6900 LORD BALTIMORE DRIVE","OWINGS","MD","20736"
272834,"6900 LUCERNE","LITTLE ROCK","AR","72205"
272835,"6900 MOGOLLON DRIVE","BOZEMAN","MT","59715"
272836,"6900 N 44TH STREET","MILWAUKEE","WI","53223"
272837,"6900 N DALLAS PARKWAY STE 110","PLANO","TX","75024"
272838,"6900 N KILPATRICK AVE","LINCOLNWOOD","IL","60712"
272839,"6900 NW 83 TERRACE","PARKLAND","FL","33067"
272840,"6900 PARALLEL PKWY","KANSAS CITY","KS","66102"
272841,"6900 REBEL ROAD","FOREST HILL","TX","76140"
272842,"6900 ROCKINGHAM CT","COLLEYVILLE","TX","76034"
272843,"6900 ROHR ROAD","BALTIMORE","MD","21209"
272844,"6900 ROOSEVELT RD","OAK PARK","IL","60304"
272845,"6900 S BONSALLO AVE","LOS ANGELES","CA","90044"
272846,"6900 S MADISON STREET","WILLOWBROOK","IL","60527"
272847,"6900 SHREVEPORT HWY","PINEVILLE","LA","71360"
272848,"6900 TAVISTOCK LAKES BLVD STE 400","ORLANDO","FL","32827"
272849,"6900 TAVISTOCK LAKES BLVD SUITE 400","ORLANDO","FL","32827"
272850,"6900 TAVISTOCK LLAKES BLVD STE 400","ORLANDO","FL","32827"
272851,"6900 TURKEY LAKE RD  STE 1-3","ORLANDO","FL","32819"
272852,"6900 VINEWOOD AVE","CINCINNATI","OH","45227"
272853,"6900 W 117TH AVE","WESTMINSTER","CO","80020"
272854,"6900 W 80TH STREET","OVERLAND PARK","KS","66204"
272855,"6900 W MILL RD","MILWAUKEE","WI","53218"
272856,"6900 W POLY WEBB RD","ARLINGTON","TX","76016"
272857,"6900 WEST LIBERTY ROAD","ANN ARBOR","MI","48103"
272858,"6900 WESTCLIFF 506","LAS VEGAS","NV","89145"
272859,"6900 WESTCLIFF AVE 506","LAS VEGAS","NV","89145"
272860,"6900 WESTCLIFF DRIVE SUITE 707","LAS VEGAS","NV","89145"
272861,"6900 WESTCLIFF STE 506","LAS VEGAS","NV","89145"
272862,"6901 23RD AVE SW","SEATTLE","WA","98106"
272863,"6901 76TH AVENUE NORTH APT 303","BROOKLYN PARK","MN","55428"
272864,"6901 ARTHUR HILLS DRIVE","GAINESVILLE","VA","20155"
272865,"6901 CHANTEL CT","SAN JOSE","CA","95129"
272866,"6901 COBBLERS WAY","AUSTELL","GA","30168"
272867,"6901 COIT RD","FRISCO","TX","75035"
272868,"6901 COIT ROAD","FRISCO","TX","75035"
272869,"6901 CORPORATE DR STE 218","HOUSTON","TX","77036"
272870,"6901 DERBYSHIRE RD","SOUTHPORT","IN","46227"
272871,"6901 E LAKE MEAD BLVD APT 2103","LAS VEGAS","NV","89156"
272872,"6901 GEORGETOWN PIKE","MCLEAN","VA","22101"
272873,"6901 GLASGOW LANE","PORT TOBACCO","MD","20677"
272874,"6901 KIMBERLY BOULEVARD","NORTH LAUDERDALE","FL","33076"
272875,"6901 LOS VOLCANES RD APT T108","ALBUQUERQUE","NM","87121"
272876,"6901 MEMORIAL HEIGHTS DRIVE","ALEXANDRIA","VA","22306"
272877,"6901 MERCY ROAD","OMAHA","NE","68106"
272878,"6901 N JONES BLVD","LAS VEGAS","NV","89131"
272879,"6901 N KELLEY AVE","OKLAHOMA CITY","OK","73111"
272880,"6901 NORTH CAMINO DE LA TIERRA","TUCSON","AZ","85741"
272881,"6901 NW 16TH STREET","PLANTATION","FL","33313"
272882,"6901 OKEECHOBEE BLVD SUITE D-5 H-4","WEST PALM BEACH","FL","33411"
272883,"6901 OKEECHOBEE BLVD SUITE D5 H25","WEST PALM BEACH","FL","33411"
272884,"6901 OKEECHOBEE BLVD SUITE D5-H16","WEST PALM BEACH","FL","33411"
272885,"6901 OKEECHOBEE BLVD","WEST PALM BEACH","FL","33411"
272886,"6901 RADNOR ROAD","BETHESDA","MD","20817"
272887,"6901 RICHMAN WAY","SACRAMENTO","CA","95828"
272888,"6901 SALEWSKY CT","ELK GOVE","CA","95757"
272889,"6901 SAND PEBBLE AVE","TEMPLE TERRACE","FL","33637"
272890,"6901 SCARLET OAKS DR","ELKRIDGE","MD","21075"
272891,"6901 SCARLET OAKS DRIVE","ELKRIDGE","MD","21075"
272892,"6901 SUNNYSIDE DRIVE","LEESBURG","FL","34748"
272893,"6901 SUNNYWOOD DRIVE","NASHVILLE","TN","37211"
272894,"6901 SYDENSTRICKER ROAD","SPRINGFIELD","VA","22152"
272895,"6901 VIA LOCANDA AVE","LAS VEGAS","NV","89131"
272896,"6901 W 84T ST SUITE 221","BLOOMINGTON","MN","55438"
272897,"6901 WEST 84TH STREET SUITE 312","BLOOMINGTON","MN","55438"
272898,"6901 WESTMAR DRIVE","ORLANDO","FL","32819"
272899,"6901 YOUNGER DR UNIT 33","BUENA PARK","CA","90620"
272900,"6901-A N 9TH AVENUE","PENSACOLA","FL","32504"
272901,"69012 TAMARACK ROAD","WALKERTON","IN","46574"
272902,"6901N SAGINAW","FLINT","MI","48505"
272903,"6902 ALBERT ODOM RD","DONALSONVILLE","GA","39845"
272904,"6902 AMESBURY LANE","ROWLETT","TX","75089"
272905,"6902 AURORA DRIVE","TROY","MI","48098"
272906,"6902 BAYARD RD","FT PIERCE","FL","34951"
272907,"6902 BELLE MEADOW LANE","RICHMOND","TX","77469"
272908,"6902 CAMERON CIRCLE APT 125","RALEIGH","NC","27613"
272909,"6902 COOK RD BLDG A","HOUSTON","TX","77082"
272910,"6902 COOK ROAD BLDG A","HOUSTON","TX","77072"
272911,"6902 KINGS CROSSING WAY","KNOXVILLE","TN","37918"
272912,"6902 KIPLING STREET","ARVADA","CO","80004"
272913,"6902 LAGNEY CIR","JACKSONVILLE","FL","32208"
272914,"6902 PARK AVE","RICHMOND","VA","23226"
272915,"6902 RISING SUN AVENUE","PHILADELPHIA","PA","19111"
272916,"6902 STRATFORD TOWNES WAY","RICHMOND","VA","23225"
272917,"6902 TANGLEWOOD ST","LAKEWOOD","CA","90713"
272918,"6902 VIVIAN AVE","DALLAS","TX","75223"
272919,"6903 25TH AVE","ADELPHI","MD","20783"
272920,"6903 BORDER BROOK 803","SAN ANTONIO","TX","78238"
272921,"6903 CREEK VILLAGE DR","HOUSTON","TX","77449"
272922,"6903 FM 1833","ROBSTOWN","TX","78380"
272923,"6903 NEWBY HALL CT","CLIFTON","VA","20124"
272924,"6903 ORANGEWOOD AVENUE","CYPRESS","CA","90630"
272925,"6903 ROCKLEDGE DRIVE SUITE 925","ROCKVILLE","MD","20817"
272926,"6903 RUNNING BROOK WAY","HOLLAND","OH","43528"
272927,"6903 SHAMAN LANE","HOUSTON","TX","77083"
272928,"6903 SWEETGUM AVE NE","LACEY","WA","98516"
272929,"6903 TANNERS WAY COVE","SOUTHAVEN","MS","38672"
272930,"6903 VINEYARD RD","DEXTER","NM","88230"
272931,"6903 WADE AVE","CLINTON","MD","20735"
272932,"6903","SAINT PAUL","MN","55103"
272933,"6904 68TH PLACE","GLENDALE","NY","11385"
272934,"6904 BEVERLY LANE","EVERETT","WA","98203"
272935,"6904 BONNIE RIDGE DRIVE 102","BALTIMORE","MD","21209"
272936,"6904 BRIAR CREEK DRIVE","OKLAHOMA CITY","OK","73162"
272937,"6904 CARIBOU CT","WALDOLF","MD","20603"
272938,"6904 CARMICHAEL AVE","BETHESDA","MD","20817"
272939,"6904 FAIRBROOK WAY","TAMPA","FL","33634"
272940,"6904 FEDERAL BLVD","LEMON GROVE","CA","91945"
272941,"6904 FEDERALAL BLVD","LEMON GROVE","CA","91945"
272942,"6904 LINCOLN DRIVE","MACUNGIE","PA","18062"
272943,"6904 MAJESTIC PALM DR","LAS VEGAS","NV","89122"
272944,"6904 MAJESTIC PALM DRIVE","LAS VEGAS","NV","89122"
272945,"6904 MATTHEWS MINT HILL ROAD","MINT HILL","NC","28227"
272946,"6904 MONTAUK CT","COLUMBIA","MO","65203"
272947,"6904 SADDLEBOW COURT","CLINTON","MD","20735"
272948,"6904 W WESTMINSTER DR","SIOUX FALLS","SD","57106"
272949,"6904 WALEBRIDGE LANE","AUSTIN","TX","78739"
272950,"6904 WINDING CEDAR TRAIL 208","CHARLOTTE","NC","28216"
272951,"6905 29TH AVE W","BRADENTON","FL","34209"
272952,"6905 CLEATON RD UNIT B108","COLUMBIA","SC","29206"
272953,"6905 DEER THICKET DRIVE","MIDLOTHIAN","VA","23112"
272954,"6905 DIVER AVE","NORTH LAS VEGAS","NV","89084"
272955,"6905 GIVEN ROAD","CINCINNATI","OH","45243"
272956,"6905 HANA RD","EDISON","NJ","08817"
272957,"6905 KNIGHTSWOOD DR","ORLANDO","FL","32818"
272958,"6905 LONG DRIVE LANE","LOVELAND","OH","45140"
272959,"6905 N INTERSTATE AVENUE - APT 214","PORTLAND","OR","97217"
272960,"6905 NE CAMPUS WAY","HILLSBORO","OR","97124"
272961,"6905 PARK AVE     APT 1","GUTTENBERG","NJ","07093"
272962,"6905 PUETOLLANO DRIVE","NORTH LAS VEGAS","NV","89084"
272963,"6905 S 1300 E STE 468","MIDVALE","UT","84047"
272964,"6905 SERENITY WAY","SAN JOSE","CA","95120"
272965,"6905 SOUTH STOCKTON MESA DRIVE","SAFFORD","AZ","85546"
272966,"6905 STANDISH DRIVE","HYATTSVILLE","MD","20784"
272967,"6905 STUDEBAKER LANE","INDIANAPOLIS","IN","46214"
272968,"6905 TRAIN STATION WAY","LOUISVILLE","KY","40272"
272969,"6905 W ROLAND AVE","LITTLETON","CO","80128"
272970,"6905 YORK ROAD","BALTIMORE","MD","21212"
272971,"6906 12TH AVENUE SOUTH","TAMPA","FL","33619"
272972,"6906 4TH STREET NW","WASHINGTON","DC","20040"
272973,"6906 CONGRESSIONAL BLVD","SAN ANTONIO","TX","78244"
272974,"6906 EXPLORER TR","AMARILLO","TX","79118"
272975,"6906 GERALD AVE","PARMA","OH","44129"
272976,"6906 HUMMEL DRIVE","BOISE","ID","83709"
272977,"6906 LORETTA PLACE","CHARLOTTE","NC","28215"
272978,"6906 MICKWAYNE CT","HOUSTON","TX","77069"
272979,"6906 N 50TH ST","TAMPA","FL","33605"
272980,"6906 NATURAL BRIDGE RD","SAINT LOUIS","MO","63121"
272981,"6906 REESE RD","MEMPHIS","TN","38133"
272982,"6906 RIDGE WAY DRIVE","FREDERICKSBURG","VA","22407"
272983,"6906 ROYAL OAKLAND WAY","INDIANAPOLIS","IN","46236"
272984,"6906 S 120TH PL","SEATTLE","WA","98178"
272985,"6906 SEA PLACE AVE","ST AUGUSTINE","FL","32086"
272986,"6906 SEWANEE","HOUSTON","TX","77025"
272987,"6906 TALL OAKS DRIVE","TEXARKANA","AR","71854"
272988,"6906 W BLONDELL DR","WASILLA","AK","99623"
272989,"6907 6TH ST NW","WASHINGTON","DC","20012"
272990,"6907 AUDUBON DRIVE","PARKER","TX","75002"
272991,"6907 BEARS BREECH DR","MOSELEY","VA","23120"
272992,"6907 CARNATION STREET APT E","RICHMOND","VA","23225"
272993,"6907 CLAREMONT ST","WINNEBAGO","IL","61102"
272994,"6907 HOLLINGSWORTH DRIVE","INDIANAPOLIS","IN","46268"
272995,"6907 IRONBRIDGE LANE","LAUREL","MD","20707"
272996,"6907 LANGSTON DR","AUSTIN","TX","78723"
272997,"6907 NW 70TH ST","TAMARAC","FL","33321"
272998,"6907 ROOSEVELT BLVD","PHILADELPHIA","PA","19149"
272999,"6907 SILVER CHARM COURT","CHARLOTTE","NC","28215"
273000,"6907 SOUTH AVE","MIDDLETON","WI","53562"
