"ID","Address","City","State","Zip"
34501,"120 SCHIRMER DRIVE","EAST TAWAS","MI","48730"
34502,"120 SE WILLISTON ROAD","GAINESVILLE","FL","32641"
34503,"120 SEARS RD","GOSHEN","MA","01032"
34504,"120 SEAVIEW AVE","SANTA CRUZ","CA","95062"
34505,"120 SELIG DRIVE","ATLANTA","GA","30336"
34506,"120 SEWELL ROAD","PLAINS","GA","31780"
34507,"120 SEWELL ROAD","SEWELL","NJ","08080"
34508,"120 SHADOW CREEK COVE","MOUNT JULIET","TN","37122"
34509,"120 SHILOH RIDGE","HENDERSONVILLE","TN","37075"
34510,"120 SHOAL CREEK CIRCLE","LEXINGTON","SC","29072"
34511,"120 SHOAL PARK DR","MCDONOUGH","GA","30252"
34512,"120 SIENA DRIVE","LONG BEACH","CA","90803"
34513,"120 SILVER LAKE RD","MIDDLETOWN","DE","19709"
34514,"120 SIMONTON STREET","VALLEJO","CA","94589"
34515,"120 SMITH ACRES ROAD","EDEN","NC","27288"
34516,"120 SMITH DRIVE","ATLANTIC","NC","28511"
34517,"120 SOUTH 27TH STREET","HARRISBURG","PA","17103"
34518,"120 SOUTH 3RD STREET","WRIGHTSVILLE","PA","17368"
34519,"120 SOUTH 8TH ST","OLEAN","NY","14760"
34520,"120 SOUTH ANOKA AVENUE","AVON PARK","FL","33825"
34521,"120 SOUTH CENTRAL AVENUE SUITE 130","ST LOUIS","MO","63105"
34522,"120 SOUTH FLORIDA AVENUE","DELAND","FL","32720"
34523,"120 SOUTH PARK DRIVE SUITE 405","MOORESVILLE","NC","28117"
34524,"120 SOUTH STREET","FOXBORO","MA","02035"
34525,"120 SOUTH STREET","NEWBURGH","NY","12550"
34526,"120 SOUTH XENIA DRIVE","ENON","OH","45323"
34527,"120 SOUTH XENIA STREET","ENON","OH","45323"
34528,"120 SOUTHARM DRIVE","GLENDALE","MO","63122"
34529,"120 SOUTHERN BOULEVARD","CHATHAM","NJ","07928"
34530,"120 SPARROW DRIVE 107","ROYAL PALM BEACH","FL","33411"
34531,"120 SPINNAKER PL","PORT LUDLOW","WA","98365"
34532,"120 ST FRANCIS PRIVATE DRIVE","GLOSTER","LA","71030"
34533,"120 ST LOUIS AVE 117","FORT WORTH","TX","76104"
34534,"120 STAFFORD STREET","WORCESTER","MA","01603"
34535,"120 STAN FEY DR","UPPER MARLBORO","MD","20774"
34536,"120 STATE AVENUE NE - 303","OLYMPIA","WA","98501"
34537,"120 STATE AVENUE NE SUITE 1014","OLYMPIA","WA","98501"
34538,"120 STATE AVENUE NE","OLYMPIA","WA","98501"
34539,"120 STATE RD 312W","SAINT AUGUSTINE","FL","32086"
34540,"120 STATE ST C/O JAMES WISON","DOVER","DE","19901"
34541,"120 STATE STREET W","CANNON FALLS","MN","55009"
34542,"120 STATION RD","GLEN MILLS","PA","19342"
34543,"120 STEWART STREET","ANACONDA","MT","59711"
34544,"120 STONEMIST CT","ROSWELL","GA","30076"
34545,"120 SUNNYSIDE COURT","MILFORD","CT","06460"
34546,"120 SUNNYSIDE STREET NW","PORT CHARLOTTE","FL","33952"
34547,"120 SUZANNE","VICTORIA","TX","77901"
34548,"120 SW 70TH AVENUE","PEMBROKE PINES","FL","33023"
34549,"120 SYLVAN CT","CIRCLEVILLE","OH","43113"
34550,"120 TAUNTON STREET","WRENTHAM","MA","02093"
34551,"120 TAYLOR BEND STREET","HAUGHTON","LA","71037"
34552,"120 TESTA DR APT 301","NAPERVILLE","IL","60540"
34553,"120 THORNBERRY BRANCH LANE","DAYTONA BEACH","FL","32124"
34554,"120 THORNRIDGE LN","GREENE","NY","13778"
34555,"120 THORNWOOD DRIVE","CLINTON","MS","39056"
34556,"120 THURGOOD TERR","SYRACUSE","NY","13202"
34557,"120 TINTON ROAD","SPEARFISH","SD","57783"
34558,"120 TOMLINSON MILL ROAD","MARLTON","NJ","08053"
34559,"120 TRADITIONAL LANE","CHARLOTTE","NC","28211"
34560,"120 TURTLE CREEK BLVD APT 217","DALLAS","TX","75207"
34561,"120 TUSTIN AVE  STE C157","NEWPORT BEACH","CA","92663"
34562,"120 TYLER COURT","SPARTANBURG","SC","29301"
34563,"120 TYLER TERRACE","SAN ANGELO","TX","76905"
34564,"120 UNCAS POINT ROAD","GUILFORD","CT","06437"
34565,"120 VAN LANE","SCOTTSVILLE","KY","42164"
34566,"120 VANTIS SUITE 300","ALISO VIEJO","CA","92656"
34567,"120 VERDE GLEN DR","GARNER","NC","27529"
34568,"120 VERMILYEA AVE APT E33","NEW YORK","NY","10034"
34569,"120 VILLAGE DR","VICKSBURG","MS","39183"
34570,"120 VILLAGE GATE BLVD APT 103","REYNOLDSBURG","OH","43068"
34571,"120 VINTAGE CIR","LAKEWOOD","NJ","08701"
34572,"120 W 10TH STREET","ROCHESTER","IN","46975"
34573,"120 W 176TH ST 3G","BRONX","NY","10453"
34574,"120 W 1ST AVENUE","JUNCTION CITY","OR","97448"
34575,"120 W 23RD ST","HOLLAND","MI","49423"
34576,"120 W 2ND ST","TAYLOR","TX","76574"
34577,"120 W 70TH STREET NO 5-C","NEW YORK","TX","10023"
34578,"120 W 72ND ST","CINCINNATI","OH","45216"
34579,"120 W B ST","ONTARIO","CA","91762"
34580,"120 W COLUMBUS AVE","FLAGSTAFF","AZ","86001"
34581,"120 W GREEN BAY STREET","SHAWANO","WI","54166"
34582,"120 W LEE ST","LOUISVILLE KY","KY","40208"
34583,"120 W LEE STREET","LOUISVILLE","KY","40208"
34584,"120 W MAIN ST","KNOXVILLE","IA","50138"
34585,"120 W MAIN ST","WINAMAC","IN","46996"
34586,"120 W MAIN STREET PO BOX 52","TUCKERTON","NJ","08087"
34587,"120 W MAIN STREET","MONROE","WA","98272"
34588,"120 W MAINE AVE","ENID","OK","73701"
34589,"120 W MARGARET AVENUE","NILES","OH","44446"
34590,"120 W MICHIGAN AVE","LANSING","MI","48933"
34591,"120 W NORTH AVENUE SUITE 305C","BALTIMORE","MD","21201"
34592,"120 W PARK DRIVE","GRAND JUNCTION","CO","81505"
34593,"120 W RIVERSIDE","KELLOGG","ID","83837"
34594,"120 W SANDUSKY STREET","FINDLAY","OH","45840"
34595,"120 W TOWNE PL","TITUSVILLE","FL","32796"
34596,"120 W VILLAGE LN","BOISE","ID","83702"
34597,"120 W WASHINGTON ST","MONTICELLO","IN","47960"
34598,"120 WARD STREET","BOSTON","MA","02120"
34599,"120 WASHINGTON AVENUE","WESTWOOD","NJ","07675"
34600,"120 WATER STREET","WARREN","PA","16365"
34601,"120 WAVERLY CT","LOUISVILLE","KY","40206"
34602,"120 WEST  CONE ST","GONZALES","TX","78629"
34603,"120 WEST  DAVIS STE B","KERRVILLE","TX","78028"
34604,"120 WEST 116 STREET 5C","NEW YORK","NY","10026"
34605,"120 WEST 70TH STREET APT 7B","NEW YORK","NY","10023"
34606,"120 WEST 83RD STREET","NEW YORK","NY","10024"
34607,"120 WEST GODFREY AVE","PHILADELPHIA","PA","19120"
34608,"120 WEST LEE ST","LOUISVILLE","KY","40208"
34609,"120 WEST LEMON STREET","LITITZ","PA","17543"
34610,"120 WEST MAIN SUITE 116","BELLEVILLE","IL","62220"
34611,"120 WEST MAIN","FREDERICKTOWN","MO","63645"
34612,"120 WEST NORTH AVE SUITE 208","BALTIMORE","MD","21201"
34613,"120 WEST PUTNAM FERRY ROAD","WOODSTOCK","GA","30189"
34614,"120 WEST SECOND ST SUITE 1420","DAYTON","OH","45402"
34615,"120 WEST STATE STREET STE 300","ROCKFORD","IL","61101"
34616,"120 WEST STATE STREET","CLARKSBURG","MO","65025"
34617,"120 WEST STREET","DANBURY","CT","06810"
34618,"120 WESTWOOD DR","PARK FOREST","IL","60466"
34619,"120 WHITNEY CT","WINDSOR","CO","80550"
34620,"120 WIAND LANE","SPRING CITY","PA","19475"
34621,"120 WILDWOOD POINT","LIMA","OH","45805"
34622,"120 WILLENE DRIVE","PIEDMONT","SC","29673"
34623,"120 WILLIAM ST","BROWNSBURG","IN","46112"
34624,"120 WILLOWBROOK DR","GRETNA","LA","70056"
34625,"120 WILSON STREET","PARK FOREST","IL","60466"
34626,"120 WIMBLY PT","FAYETTEVILLE","GA","30214"
34627,"120 WINDGATE WAY","ATLANTA","GA","30331"
34628,"120 WINESAP DRIVE","LYNCHBURG","VA","24503"
34629,"120 WINNIE CIRCLE","SILSBEE","TX","77656"
34630,"120 WINSLOW LN","WILLISTON","VT","05495"
34631,"120 WOOD AVE S","ISELIN","NJ","08830"
34632,"120 WOODARD DRIVE","MINDEN","LA","71055"
34633,"120 WOODLAND DR","KITTANNING","PA","16201"
34634,"120 WOODPOND ROAD","WEST HARTFORD","CT","06107"
34635,"120 WORTH STREET","ASHEBORO","NC","27203"
34636,"120 WYNDHAM DRIVE","ALLENTOWN","PA","18104"
34637,"120-11 232 STREET 120N","JAMAICA QUEENS","NY","11411"
34638,"120-15 135 AVE","SOUTH OZONE PARK","NY","11420"
34639,"120-16 14TH RD FL 1 COLLEGE POINT","QUEENS","NY","11356"
34640,"120-21 142ND STREET","JAMAICA","NY","11436"
34641,"120-22 194TH STREET","SAINT ALBANS","NY","11412"
34642,"120-31 172ND STREET","JAMAICA","NY","11434"
34643,"120-32 83RD AVENUE APT SUPER","KEW GARDENS","NY","11415"
34644,"120-82 QUEENS BLVD","KEW GARDENS","NY","11415"
34645,"1200  51 STREET     SUITE  1081","BROOKLYN","NY","11219"
34646,"1200 11TH STREET WEST","WILLISTON","ND","58801"
34647,"1200 17TH AVE S","NASHVILLE","TN","37212"
34648,"1200 17TH ST W","PALMETTO","FL","34221"
34649,"1200 17TH STREET NW","WASHINGTON","DC","20036"
34650,"1200 17TH STREET SUITE 180","DENVER","CO","80202"
34651,"1200 18TH ST SUITE 1250","WASHINGTON","DC","20036"
34652,"1200 18TH STREET NW LL-100","WASHINGTON","DC","20036"
34653,"1200 18TH STREET NW SUITE 500","WASHINGTON","DC","20036"
34654,"1200 19TH AVENUE NORTH  APT 9","LAKE WORTH","FL","33460"
34655,"1200 1ST AVE E","SPENCER","IA","51301"
34656,"1200 21ST STREET MCKEE HALL 114","GREELEY","CO","80639"
34657,"1200 23RD STREET UNIT 207","WILMINGTON","NC","28405"
34658,"1200 248TH AVENUE","KANSASVILLE","WI","53139"
34659,"1200 2ND AVE","WEST POINT","GA","31833"
34660,"1200 44TH SW","WYOMING","MI","49509"
34661,"1200 50TH AVE","OAKLAND","CA","94601"
34662,"1200 5TH AVE N SUITE 104","NASHVILLE","TN","37208"
34663,"1200 5TH AVE N","LEWISBURG","TN","37091"
34664,"1200 5TH AVE STE 1550","SEATTLE","WA","98101"
34665,"1200 8TH AVENUE","PHENIX CITY","AL","36867"
34666,"1200 AGORA DRIVE  SUITE176","BEL AIR","MD","21014"
34667,"1200 ANASTASIA AVE STE 410","CORAL GABLES","FL","33134"
34668,"1200 ANASTASIA AVENUE - SUITE 410","CORAL GABLES","FL","33134"
34669,"1200 ARROW AVE","ANDERSON","IN","46016"
34670,"1200 ASPEN DRIVE","POCATELLO","ID","83204"
34671,"1200 BARONNE STREET","NEW ORLEANS","LA","70113"
34672,"1200 BAYVIEW DRIVE","GALLATIN","TN","37066"
34673,"1200 BERWIN ST","AKRON","OH","44310"
34674,"1200 BEULAH ROAD","PITTSBURGH","PA","15235"
34675,"1200 BISHOP WARREN DR","LITTLE ROCK","AR","72204"
34676,"1200 BOBCAT BLVD","KRUM","TX","76249"
34677,"1200 BOYD RD","AZLE","TX","76020"
34678,"1200 BOYD ROAD","AZLE","TX","76020"
34679,"1200 BRADDOCK PLACE SUITE 812","ALEXANDRIA","VA","22314"
34680,"1200 BRENTFORD CIRCLE","LINCOLN","CA","95648"
34681,"1200 BRICKELL AVE STE 700","MIAMI","FL","33131"
34682,"1200 BRICKELL AVE STE 800","MIAMI","FL","33131"
34683,"1200 BRICKELL AVE SUITE 1960","MIAMI","FL","33131"
34684,"1200 BROAD STREET SUITE 140","SUMTER","SC","29150"
34685,"1200 BROOKWOOD DRIVE APT 425","LITTLE ROCK","AR","72202"
34686,"1200 CARR 849 APT 109 COND VISTA VE","SAN JUAN","PR","00924"
34687,"1200 CENTRAL AVE SUITE 350","WILMETTE","IL","60091"
34688,"1200 CHERRY CANYON DRIVE","WANSHIP","UT","84017"
34689,"1200 CHRIS LAKE DRIVE","LAWRENCEVILLE","GA","30046"
34690,"1200 CIRCLE DRIVE","ELIZABETHTON","TN","37643"
34691,"1200 CLAY STREET APT 4","SAN FRANCISCO","CA","94108"
34692,"1200 CLIFTON AVENUE","COLLINGDALE","PA","19023"
34693,"1200 CLIFTON STREET NW","WASHINGTON","DC","20009"
34694,"1200 CLINT MOORE ROAD SUITE 11","BOCA RATON","FL","33487"
34695,"1200 CLINTON AVE","IRVINGTON","NJ","07111"
34696,"1200 CLINTON STREET- APT 618","HOBOKEN","NJ","07030"
34697,"1200 COLORADO AVE","ELK CITY","OK","73644"
34698,"1200 COLUMBUS AVE N","NEW PRAGUE","MN","56071"
34699,"1200 COMMERCE STREET SUITE 613","LITTLE ROCK","AR","72202"
34700,"1200 COMMONWEALTH AVE","BOSTON","MA","02134"
34701,"1200 CONVERSE STREET STE 101","LONGMEADOW","MA","01106"
34702,"1200 CR 263","AUXVASSE","MO","65231"
34703,"1200 CREEKSIDE DRIVE APT 1312","FOLSOM","CA","95630"
34704,"1200 CREEKSIDE DRIVE NO 3332","FOLSOM","CA","95630"
34705,"1200 CRYSTAL DRIVE","ARLINGTON","VA","22202"
34706,"1200 DARCANN DR","COLUMBUS","OH","43220"
34707,"1200 DEERFIELD ROAD","METTER","GA","30439"
34708,"1200 DEL MAR CLUB DRIVE","DACULA","GA","30019"
34709,"1200 DELAFIELD PL NW","WASHINGTON","DC","20011"
34710,"1200 DELAWARE DRIVE","MANSFIELD","TX","76063"
34711,"1200 DUANE SWIFT PARKWAY APT B14","JEFFERSON CITY","MO","65109"
34712,"1200 E 2ND STREET","AUSTIN","TX","78704"
34713,"1200 E 5500 S","PRICE","UT","84501"
34714,"1200 E CENTURY AVE","ODESSA","TX","79762"
34715,"1200 E CRAIGHEAD FOREST RD","JONESBORO","AR","72404"
34716,"1200 E FAIRMOUNT AVE","WHITEFISH BAY","WI","53217"
34717,"1200 E MAIN STREET","ENDICOTT","NY","13760"
34718,"1200 E MILE 9 N","DONNA","TX","78537"
34719,"1200 E MOREHEAD SUITE 250","CHARLOTTE","NC","28025"
34720,"1200 E MORELAND BLVD","WAUKESHA","WI","53186"
34721,"1200 E OCEAN BLVD","LONG BEACH","CA","90802"
34722,"1200 E PIKE ST UNIT 414","SEATTLE","WA","98122"
34723,"1200 E SINGER CIRCLE  UNIT 4","MILWAUKEE","WI","53212"
34724,"1200 E VALLEY BLVD","ALHAMBRA","CA","91801"
34725,"1200 EAGLE ROCK LANE","CHARLOTTE","NC","28214"
34726,"1200 EAST 18TH STREET","KANSAS CITY","MO","64108"
34727,"1200 EAST 53RD STREET APT6X","BROOKLYN","NY","11234"
34728,"1200 EAST ALMOND AVE","MADERA","CA","93637"
34729,"1200 EAST CENTER STREET","KINGSPORT","TN","37660"
34730,"1200 EAST COLONY DRIVE","PHARR","TX","78577"
34731,"1200 EAST FAIRMONT AVENUE","WHITEFISH BAY","WI","53217"
34732,"1200 EAST FAIRMOUNT","WHITEFISH BAY","WI","53217"
34733,"1200 EAST HAMPTON ROAD","WHITEFISH BAY","WI","53217"
34734,"1200 EAST HIGH STREET SUITE 310","POTTSTOWN","PA","19464"
34735,"1200 EAST MOREHEAD ST SUITE 20N","CHARLOTTE","NC","28204"
34736,"1200 EAST MOREHEAD STREET - STE 250","CHARLOTTE","NC","28204"
34737,"1200 EAST WASHINGTON LANE APT O","PHILADELPHIA","PA","19138"
34738,"1200 EASTON ROAD","ROSLYN","PA","19001"
34739,"1200 EGRET PT","VIRGINIA BEACH","VA","23454"
34740,"1200 ENCINO AVE","ARCADIA","CA","91006"
34741,"1200 EPWORTH AVENUE","REYNOLDSBURG","OH","43068"
34742,"1200 EVANS STREET","MOREHEAD CITY","NC","28557"
34743,"1200 FAIRFAX COURT","WESTON","FL","33326"
34744,"1200 FAIRFIELD DR","MARIETTA","GA","30068"
34745,"1200 FOSTER DRIVE","CONROE","TX","77301"
34746,"1200 G STREET NW  SUITE 800","WASHINGTON","DC","20005"
34747,"1200 G STREET NW SUITE 800","WASHINGTON","DC","20005"
34748,"1200 G STREET NW","WASHINGTON","DC","20005"
34749,"1200 G STREET","WASHINGTON","DC","20005"
34750,"1200 GALAPAGO ST APT 307","DENVER","CO","80204"
34751,"1200 GAVIOTA AVE 309","LONG BEACH","CA","90813"
34752,"1200 GAY ST","PHOENIXVILLE","PA","19460"
34753,"1200 GAY STREET","PHOENIXVILLE","PA","19460"
34754,"1200 GETTY CENTER DRIVE SUITE 400","LOS ANGELES","CA","90049"
34755,"1200 GIDEON RD","DEQUINCY","LA","70633"
34756,"1200 GLENCOE DRIVE","GLENN HEIGHTS","TX","75154"
34757,"1200 GLENWOOD AVE","BALTIMORE","MD","21239"
34758,"1200 GRAHAM ROAD","CUYAHOGA FALLS","OH","44224"
34759,"1200 GRANT AVE","PROSSER","WA","99350"
34760,"1200 HAMPTON HILL CT - UNIT H","HARRISBURG","PA","17111"
34761,"1200 HARVEST RIDGE LANE","PROSPER","TX","75078"
34762,"1200 HEAVENLY MOUNTAIN DRIVE","BOONE","NC","28607"
34763,"1200 HELEN DRIVE - UNIT 302","NEWARK","DE","19702"
34764,"1200 HELEN DRIVE - UNIT 302","NEWARK","MD","19702"
34765,"1200 HELEN DRIVE UNIT 302","NEWARK","DE","19702"
34766,"1200 HENDERSON ST","COLUMBIA","SC","29201"
34767,"1200 HERMANN PRESSLER DR RAS W1038","HOUSTON","TX","77030"
34768,"1200 HIBBARD RD","WILMETTE","IL","60091"
34769,"1200 HICKMAN AVE","CHOCTAW","OK","73020"
34770,"1200 HICKOX STREET","SANTA FE","NM","87505"
34771,"1200 HILL ST","JACKSONVILLE","AR","72076"
34772,"1200 HONEY RD","APOPKA","FL","32712"
34773,"1200 HUNTERS GROVE CT","MCLEAN","VA","22102"
34774,"1200 INDIANA STREET","MARTINS FERRY","OH","43935"
34775,"1200 INDUSTRIAL DRIVE","BISMARCK","ND","58501"
34776,"1200 JERNIGAN CT","STOCKBRIDGE","GA","30281"
34777,"1200 KERRIA AVE","MCALLEN","TX","78501"
34778,"1200 KINGS TREE DRIVE","BOWIE","MD","20721"
34779,"1200 KNIGHT STREET","HELENA","MT","59601"
34780,"1200 KOKOMO RD","HAIKU","HI","96708"
34781,"1200 LAKE ST LOUIS BLVD 225","LAKE ST","MO","63367"
34782,"1200 LARIAT DRIVE","CENTERTON","AR","72719"
34783,"1200 LARKIN AVENUE","JOLIET","IL","60435"
34784,"1200 LAUREL STREET","OLNEY","IL","62450"
34785,"1200 LIBRA DRIVE SUITE 100","LINCOLN","NE","68512"
34786,"1200 LITCHBOROUGH WAY","WAKE FOREST","NC","27587"
34787,"1200 LITTLE GLOUCESTER RD UNIT 916","CLEMENTON","NJ","08021"
34788,"1200 LOG CABIN ROAD","CHARLOTTE","NC","28213"
34789,"1200 LOGAN AVE","TYRONE","PA","16686"
34790,"1200 LOS RIOS DRIVE","CARMICHAEL","CA","95608"
34791,"1200 MAIN ST  SUITE 308","DALLAS","TX","75202"
34792,"1200 MAIN ST UNIT 2001","DALLAS","TX","75202"
34793,"1200 MAIN STREET","NEWBERRY","SC","29108"
34794,"1200 MANOR ROAD","STATEN ISLAND","NY","10314"
34795,"1200 MARIPOSA AVENUE APT E204","CORAL GABLES","FL","33146"
34796,"1200 MAROON DRIVE","ELGIN","IL","60120"
34797,"1200 MARQUETTE STREET","LANSING","MI","48906"
34798,"1200 MARWOOD DR","PIQUA","OH","45356"
34799,"1200 MCKEE STREET","STOWE TOWNSHIP","PA","15136"
34800,"1200 MCMAHAN ST","MANCHESTER","TN","37355"
34801,"1200 MEADOW VIEW DRIVE","MONROE","GA","30656"
34802,"1200 MIDWICKHILL DRIVE","ALHAMBRA","CA","91803"
34803,"1200 MORNINGVIEW DRIVE","TALLMADGE","OH","44278"
34804,"1200 MOUNT KEMBLE AVE - STE 310","MORRISTOWN","NJ","07960"
34805,"1200 MT DIABLO BLVD SUITE 317","WALNUT CREEK","CA","94596"
34806,"1200 MYRTLE AVE APT 1","JEFFERSON CITY","MO","65101"
34807,"1200 N 7TH ST","MINNEAPOLIS","MN","55411"
34808,"1200 N BROAD STREET","NEW ORLEANS","LA","70119"
34809,"1200 N DELSEA DRIVE","CLAYTON","NJ","08312"
34810,"1200 N DUPONT HWY","DOVER","DE","19901"
34811,"1200 N FEDERAL HIGHWAY SUITE 200","BOCA RATON","FL","33432"
34812,"1200 N FEDERAL HWY SUITE 200","BOCA RATON","FL","33432"
34813,"1200 N FOXDALE DR     UNIT 312","ADDISON","IL","60101"
34814,"1200 N INDIANA AVE","ATLANTIC CITY","NJ","08401"
34815,"1200 N MAIN AVENUE","GRESHAM","OR","97030"
34816,"1200 N MANSFIELD AVE APARTMENT 312","LOS ANGELES","CA","90038"
34817,"1200 N QUAKER LN","ALEXANDRIA","VA","22302"
34818,"1200 N RAILROAD AVE","PFLUGERVILLE","TX","78660"
34819,"1200 N SHARTEL AVE","OKLAHOMA CITY","OK","73103"
34820,"1200 N SHARY RD","MISSION","TX","78572"
34821,"1200 N TELEGRAPH BLDG 12E","PONTIAC","MI","48341"
34822,"1200 N TELEGRAPH RD 38E","PONTIAC","MI","48341"
34823,"1200 N TENNESSEE ST APT 9","MCKINNEY","TX","75069"
34824,"1200 N TENNESSEE ST APT61","MCKINNEY","TX","75069"
34825,"1200 N UNION BOWER RD","IRVING","TX","75061"
34826,"1200 N VEITCH ST  APT 1002","ARLINGTON","VA","22201"
34827,"1200 N VEITCH STREET APT 636","ARLINGTON","VA","22201"
34828,"1200 NATIONAL CITY BLVD","NATIONAL CITY","CA","91950"
34829,"1200 NATIONAL CITY BOULEVARD","NATIONAL CITY","CA","91950"
34830,"1200 NAVY WAY ROAD","AVOCA","PA","18641"
34831,"1200 NE 143RD STREET APT 205F","SEATTLE","WA","98125"
34832,"1200 NEW YORK AVE","ST CLOUD","FL","34769"
34833,"1200 NICHOLS ST","BAY CITY","TX","77414"
34834,"1200 NORTH JAMES STREET","JACKSONVILLE","AR","72076"
34835,"1200 NORTH OHIO AVENUE","ATLANTIC CITY","NJ","08401"
34836,"1200 NORTH TELEGRAPH ROAD BLDG 14 E","PONTIAC","MI","48341"
34837,"1200 NORTH TENNESSEE STREET","MCKINNEY","TX","75069"
34838,"1200 NORTHEAST BLVD  SUITE C","WILMINGTON","DE","19802"
34839,"1200 NW 131 STREET","NORTH MIAMI","FL","33167"
34840,"1200 NW MARSHALL ST STE 513","PORTLAND","OR","97209"
34841,"1200 NW MARSHALL ST STE 904","PORTLAND","OR","97209"
34842,"1200 OLD ALPHARETTA RD","ALPHARETTA","GA","30005"
34843,"1200 OLD EASLEY BRIDGE RD","GREENVILLE","SC","29617"
34844,"1200 OLD WILSON ROAD","ROCKY MOUNT","NC","27801"
34845,"1200 ONTARIO 12TH FLOOR","CLEVELAND","OH","44113"
34846,"1200 PALMETTO PENINSULA DRIVE","MT PLEASANT","SC","29464"
34847,"1200 PENNSYLVANIA AVE NW NUM 7212","WASHINGTON","DC","20004"
34848,"1200 PENNSYLVANIA AVE NW SUITE 6138","WASHINGTON","DC","20044"
34849,"1200 PENNSYLVANIA AVENUE","HAGERSTOWN","MD","21742"
34850,"1200 PITNER AVE","EVANSTON","IL","60202"
34851,"1200 POST ROAD","FAIRFIELD","CT","06824"
34852,"1200 PRAIRIE DR","BISMARCK","ND","58501"
34853,"1200 PRMIER DRIVE SUITE 140","CHATTANOOGA","TN","37421"
34854,"1200 PULASKI RD","CALUMET CITY","IL","60409"
34855,"1200 QUEEN EMMA STREET APT 1708","HONOLULU","CA","96813"
34856,"1200 RAEFORD LANE","LEXINGTON","KY","40513"
34857,"1200 RANCHO WAY","WOODLAND","CA","95695"
34858,"1200 REDWOOD AVE","REDWOOD CITY","CA","94061"
34859,"1200 REGENCY CENTER DRIVE SW","ATLANTA","GA","30331"
34860,"1200 RING RD SUITE 2374","CALUMET CITY","IL","60409"
34861,"1200 RING ROAD UNIT 2548","CALUMET CITY","IL","60409"
34862,"1200 RIO LINDA","SAN ANTONIO","TX","78245"
34863,"1200 RIO VISTA BLVD APT 208","PALM BEACH GARDENS","FL","33410"
34864,"1200 RIVERWOOD PLACE UNIT 7","CLARKSVILLE","TN","37040"
34865,"1200 ROBERTS ROAD","HUTCHINSON","MN","55350"
34866,"1200 ROOSEVELT RD STE 150","GLEN ELLYN","IL","60137"
34867,"1200 ROTHWELL ST","HOUSTON","TX","77002"
34868,"1200 RUMBLE RD","MODESTO","CA","95350"
34869,"1200 S 16TH ST","DECATUR","IL","62521"
34870,"1200 S 16TH ST","ENID","OK","73701"
34871,"1200 S 5TH AVE","MAYWOOD","IL","60153"
34872,"1200 S ARROYO BLVD","PASADENA","CA","91105"
34873,"1200 S BRAND BLVD SUITE 119","GLENDALE","CA","91204"
34874,"1200 S CANYON PL","ALAMOGORDO","NM","88310"
34875,"1200 S CLEARVIEW PKWY SUITE 1166","HARAHAN","LA","70123"
34876,"1200 S COLLINS ST","ARLINGTON","TX","76010"
34877,"1200 S COLLINS STREET","ARLINGTON","TX","76010"
34878,"1200 S CONKLING ST  APT 332","BALTIMORE","MD","21224"
34879,"1200 S GRAHAM STREET","CHARLOTTE","NC","28203"
34880,"1200 S HIGHLAND AVENUE UNIT 161","FULLERTON","CA","92832"
34881,"1200 S HILLCREST AVE","CLEARWATER","FL","33756"
34882,"1200 S MITCHELL ST","CADILLAC","MI","49601"
34883,"1200 S MYRTLE AVENUE","NEW SMYRNA BEACH","FL","32168"
34884,"1200 S UNION AVE APT 121","LOS ANGELES","CA","90015"
34885,"1200 S WOOD AVE 2ND FL","LINDEN","NJ","07036"
34886,"1200 S WOOSTER STREET UNIT 207","LOS ANGELES","CA","90035"
34887,"1200 SAN GABRIEL DRIVE","DENTON","TX","76205"
34888,"1200 SANFORD LANE","WETUMPKA","AL","36092"
34889,"1200 SAXON ROAD","WATKINSVILLE","GA","30677"
34890,"1200 SHAKOPEE TOWN SQUARE","SHAKOPEE","MN","55379"
34891,"1200 SILVER EAGLE DR","TARPON SPRINGS","FL","34688"
34892,"1200 SILVER OAKS DRIVE","EDMOND","OK","73025"
34893,"1200 SKYLINE BLVD","BATTLE MOUNTAIN","NV","89820"
34894,"1200 SMITH STREET SUITE 1600","HOUSTON","TX","77002"
34895,"1200 SONNET CT","LAS CRUCES","NM","88007"
34896,"1200 SOUTH  MYRTLE AVENUE","NEW SMYRNA BEACH","FL","32168"
34897,"1200 SOUTH 18TH STREET","HARRISBURG","PA","17104"
34898,"1200 SOUTH 21ST AVENUE","EDINBURG","TX","78539"
34899,"1200 SOUTH 21ST STREET","EDINBURG","SC","78539"
34900,"1200 SOUTH 56TH  STREET","LINCOLN","NE","68510"
34901,"1200 SOUTH 5TH STREET","HARRISON","NJ","07029"
34902,"1200 SPRINGBROOK ROAD","ALCOA","TN","37701"
34903,"1200 ST ANDREWS DRIVE","DISCOVERY BAY","CA","94505"
34904,"1200 ST CHARLES PLACE SUITE 209","PRMBROKE PINES","FL","33026"
34905,"1200 ST LOUIS AVE","EAST ST LOUIS","IL","62201"
34906,"1200 STONE ST","OVIEDO","FL","32765"
34907,"1200 SUMMERSIDE DR","DESOTO","TX","75115"
34908,"1200 SW 136 AV","DAVIE","FL","33325"
34909,"1200 SW 136TH AVE","DAVIE","FL","33325"
34910,"1200 SW 22ND STREET","BLUE SPRINGS","MO","64015"
34911,"1200 SW MAIN STREET","PORTLAND","OR","97025"
34912,"1200 SW MAIN STREET","PORTLAND","OR","97205"
34913,"1200 SYCMORE LN","DANVILLE","IN","46122"
34914,"1200 TANLEY ROAD","SILVER SPRING","MD","20904"
34915,"1200 THOMAS DR","ANGLETON","TX","77515"
34916,"1200 TICES LANE","EAST BRUNSWICK","NJ","08816"
34917,"1200 TIERNEY ST","MARQUETTE","MI","49855"
34918,"1200 TOWN SQUARE","SHAKOPEE","MN","55379"
34919,"1200 TOWNE CENTRE BLVD SUITE 2108","PROVO","UT","84601"
34920,"1200 TRIBALCOURT","ARNOLD","MD","21012"
34921,"1200 TRUMAN BAKER DRIVE","SEARCY","AR","72143"
34922,"1200 TRUXTUN AVENUE SUITE 120","BAKERSFIELD","CA","93301"
34923,"1200 US HIGHWAY 9 SUITE 5A","LAKEWOOD","NJ","08701"
34924,"1200 VARNUM ST NE","WASHINGTON","DC","20017"
34925,"1200 VIRGILINA AVENUE","NORFOLK","VA","23503"
34926,"1200 W 35TH STREET  264","CHICAGO","IL","60609"
34927,"1200 W 35TH STREET SUITE 370","CHICAGO","IL","60628"
34928,"1200 W CHEYENNE AVE 1202","N LAS VEGAS","NV","89030"
34929,"1200 W CHEYENNE RD","COLORADO SPRINGS","CO","80905"
34930,"1200 W CREEK COYOTE TRL","CLARKSVILLE","TN","37042"
34931,"1200 W HILL DRIVE","SAN BERNARDINO","CA","92407"
34932,"1200 W INTERNATIONAL SPEEDWAY BLVD","DAYTONA BEACH","FL","32114"
34933,"1200 W JACKSON STREET","THOMASVILLE","GA","31792"
34934,"1200 W JEFFERY","KANKAKEE","IL","60901"
34935,"1200 W MARIPOSA RD 30","NOGALAS","AZ","85621"
34936,"1200 W NORTHWEST HIGHWAY","PALATINE","IL","60067"
34937,"1200 W PRATT BLVD APT 317","CHICAGO","IL","60626"
34938,"1200 W THATCHER BLVD","SAFFORD","AZ","85546"
34939,"1200 W UNIVERSITY AVE","MITCHELL","SD","57301"
34940,"1200 WARBURTON AVE APT 23","YONKERS","NY","10701"
34941,"1200 WATERFORD WAY","ALLEN","TX","75013"
34942,"1200 WATERS PLACE STE 105 PMB 85801","BRONX","NY","10461"
34943,"1200 WEST  AVE    APARTMENT 1112","MIAMI BEACH","FL","33139"
34944,"1200 WEST BALTIMORE STREET STE 107","BALTIMORE","MD","21223"
34945,"1200 WEST CHEYENNE AVENUE APT 1109","LAS VEGAS","NV","89030"
34946,"1200 WEST CRAIG ST","MOSES LAKE","WA","98837"
34947,"1200 WEST HACKBERRY AVENUE","MCALLEN","TX","78501"
34948,"1200 WEST STATE STREET","ROCKFORD","IL","61102"
34949,"1200 WEST STATE STREET","WEST LAFAYETTE","IN","47907"
34950,"1200 WEST WALNUT STREET SUITE 1083","ROGERS","AR","72758"
34951,"1200 WHISPERING HILLS COURT","NAPERVILLE","IL","60540"
34952,"1200 WILDWOOD STREET","LEAVENWORTH","KS","66048"
34953,"1200 WILLIAM STREET    NUMBER 612","BUFFALO","NY","14240"
34954,"1200 WILLIAM STREET ROOM 200","BUFFALO","NY","14240"
34955,"1200 WILLOW GROVE DRIVE","PEWAUKEE","WI","53072"
34956,"1200 WILLS WAY","FOREST","VA","24551"
34957,"1200 WILMETTE AVENUE","WILMETTE","IL","60091"
34958,"1200 WINDROW WAY","MAGNOLIA","DE","19962"
34959,"1200 WINE SPRING LANE","BALTIMORE","MD","21204"
34960,"1200 WINOKA RD","COLLIERVILLE","TN","38017"
34961,"1200 WOLFE AVENUE","NORTH BRADDOCK","PA","15104"
34962,"1200 WYOMING AVE","FORTY FORT","PA","18704"
34963,"12000 4TH ST N 146","ST PETERSBURG","FL","33716"
34964,"12000 BISCAYNE BLVD - SUITE 704","MIAMI","FL","33181"
34965,"12000 DESSAU ROAD APT 612","AUSTIN","TX","78754"
34966,"12000 E PRINCE RD","TUCSON","AZ","85749"
34967,"12000 EAST 47TH AVENUE - ROOM 113 G","DENVER","CO","80239"
34968,"12000 EAST GATFIELD RD","EMMETT","ID","83617"
34969,"12000 EDGEWATER DR UNIT 307","LAKEWOOD","OH","44107"
34970,"12000 ELM CREEK BLVD N SUITE 300","MAPLE GROVE","MN","55369"
34971,"12000 FRESHWELL ROAD","CHARLOTTE","NC","28273"
34972,"12000 GRAND NATIONAL BOULEVARD","WALTON","KY","41094"
34973,"12000 HIGHWAY 47","CARLTON","OR","97111"
34974,"12000 KINGFIELD CT","UPPER MARLBORO","MD","20772"
34975,"12000 MARTIN LUTHER KING BLVD 1237","HOUSTON","TX","77048"
34976,"12000 MLK JR BLVD APT 1138","HOUSTON","TX","77048"
34977,"12000 N DALE MABRY HWY SUITE 262","TAMPA","FL","33618"
34978,"12000 NW 29 STREET","SUNRISE","FL","33323"
34979,"12000 OAK COVE LN","SODDY DAISY","TN","37379"
34980,"12000 RAY CORBETT DRIVE","SCHERTZ","TX","78154"
34981,"12000 RIDGEMOUNT AVE W","PLYMOUTH","MN","55441"
34982,"12000 SAWMILL RD APT 213","SPRING","TX","77598"
34983,"12000 US 92","SEFFNER","FL","33584"
34984,"12000 W EMIGH RD","MARANA","AZ","85743"
34985,"12000 WEST LAKE ROAD","EAST SPRINGFIELD","PA","16441"
34986,"12000 WHITE ACRES","PAMPA","TX","79065"
34987,"12000 WILCREST STE 203","HOUSTON","TX","77031"
34988,"120001 S4160 RD","EUFALULA","OK","74432"
34989,"12001 BROOKWAY DR","CINCINNATI","OH","45240"
34990,"12001 CHALON RD","LOS ANGELES","CA","90049"
34991,"12001 DR MLK JR STREET NORTH","ST PETERSBURG","FL","33716"
34992,"12001 E 33RD UNIT T","AURORA","CO","80010"
34993,"12001 FIRESTONE POINT","KNOXVILLE","TN","37934"
34994,"12001 MARKET STREET APT 120","RESTON","VA","20190"
34995,"12001 MARKET STREET APT 171","RESTON","VA","20190"
34996,"12001 MATTIODA ROAD","GROVELAND","FL","34736"
34997,"12001 NE 9TH ST","VANCOUVER","WA","98684"
34998,"12001 OAK KNOLL DR SUITE 8","AUSTIN","TX","78759"
34999,"12001 OLD COLUMBIA PIKE  711","SILVER SPRING","MD","20904"
35000,"12001 RESEARCH PARKWAY STE 344","ORLANDO","FL","32826"
