"ID","Address","City","State","Zip"
61501,"1431 POTOMAC AVE SE","WASHINGTON","DC","20003"
61502,"1431 RIVERPLACE BLVD","JACKSONVILLE","FL","32207"
61503,"1431 RIVERPLACE BOULEVARD","JACKSONVILLE","FL","32207"
61504,"1431 S HIDDEN CREEK DR","SALINE","MI","48176"
61505,"1431 S KINGSWAY ROAD  NUM 94","SEFFNER","FL","33583"
61506,"1431 SARATOGA AVE APT 6","MORGANTOWN","WV","26505"
61507,"1431 SAVANNA DR","SHAKOPEE","MN","55379"
61508,"1431 SONORA RD NE","RIO RANCHO","NM","87144"
61509,"1431 ST CLAIR AVE","SHEBOYGAN","WI","53081"
61510,"1431 STAGE COACH RD","FRANKFORT","KY","40601"
61511,"1431 SYMMES ROAD UNIT B","FAIRFIELD","OH","45014"
61512,"1431 TOWNSHIP ROAD 1238","ASHLAND","OH","44805"
61513,"1431 UNION STREET","BROOKLYN","NY","11213"
61514,"1431 W 36TH STREET","LOS ANGELES","CA","90018"
61515,"1431 W CARMEN AVE APT 2B","CHICAGO","IL","60640"
61516,"1431 WIRT RD","HOUSTON","TX","77055"
61517,"1431 WYLA WALK UNIT C","REDDING","CA","96003"
61518,"14310 BENTLEY PARK DRIVE","BURTONSVILLE","MD","20866"
61519,"14310 COFFEE BLUFF RD","SAVANNAH","GA","31419"
61520,"14310 DOUBLE SHOALS CIRCLE","HOUSTON","TX","77090"
61521,"14310 GRANT STREET 11-204","THORNTON","CO","80023"
61522,"14310 KIRKWALL COURT","LIBERTYVILLE","IL","60048"
61523,"14310 TRAYWICK DR","CHESTER","VA","23836"
61524,"14311  REESE BOULEVARD WEST","HUNTERSVILLE","NC","28078"
61525,"14311 ASTRODOME DRIVE","SILVER SPRING","MD","20906"
61526,"14311 BISCAYNE BLVD   SUITE 613591","MIAMI","FL","33261"
61527,"14311 BISCAYNE BOULEVARD 1572","MIAMI","FL","33261"
61528,"14311 COSSACKS PLACE","GLENDORA","CA","91741"
61529,"14311 CYPRESS RIDGE DR","CYPRESS","TX","77429"
61530,"14311 DICKENS STREET SUITE 208 EAST","SHERMAN OAKS","CA","91423"
61531,"14311 HARVEST GLEN COURT","HOUSTON","TX","77062"
61532,"14311 NE 10TH ST","VANCOUVER","WA","98684"
61533,"14311 REESE BLVD SUITE A2 324","HUNTERSVILLE","NC","28078"
61534,"14311 REESE BLVD SUITE A2-316","HUNTERSVILLE","NC","28078"
61535,"14311 REESE BLVD","HUNTERSVILLE","NC","28078"
61536,"14311 SOUTH HALL COURT","CULPEPER","VA","22701"
61537,"14311 WELLS POINT DRIVE","AUSTIN","TX","78728"
61538,"14312 E WENTWORTH CT","WICHITA","KS","67230"
61539,"14312 TURNER WOOTTON PKWY","UPPER MARLBORO","MD","20774"
61540,"14313 GENESSE TRAIL","AUSTIN","TX","78717"
61541,"14313 GEORGIA AVENUE  STE 104","SILVER SPRING","MD","20906"
61542,"14313 OLD COURTHOUSE WAY","NEWPORT NEWS","WV","23602"
61543,"14313 SE MILL PLAIN BLVD","VANCOUVER","WA","98684"
61544,"14314 CASHEL WOOD DR","HOUSTON","TX","77069"
61545,"14314 N PRIMROSE ST","EL MIRAGE","AZ","85335"
61546,"14314 SANDY POINT ROAD","CHARLES CITY","VA","23030"
61547,"14314 SW 46TH TERRACE","MIAMI","FL","33175"
61548,"14315 BROOK DR","WOODBRIDGE","VA","22193"
61549,"14315 CORPORATE WAY SUITE B","MORENO VALLEY","CA","92553"
61550,"14315 W CYPRESS ST","GOODYEAR","AZ","85395"
61551,"14316 CONWAY MEADOWS CT","CHESTERFIELD","MO","63017"
61552,"14316 REESE BLVD WEST  B810","HUNTERSVILLE","NC","28078"
61553,"14316 SE 77TH TER","OKLAHOMA CITY","OK","73150"
61554,"14317 144TH STREET EAST","ORTING","WA","98360"
61555,"14317 E 2000 S RD","PEMBROKE","IL","60958"
61556,"14317 POTRANCO RD STE 205 -1001","SAN ANTONIO","TX","78245"
61557,"14317 RHIANNON LANE","HUNTERSVILLE","NC","28078"
61558,"14317 SW 274TH STREET","HOMESTEAD","FL","33032"
61559,"14318 COSSETTE WAY N","HUGO","MN","55038"
61560,"14318 ELLIS SPRINGS LANE","HUMBLE","TX","77396"
61561,"14318 JENNE","CLEVELAND","OH","44110"
61562,"14318 PHEASANT HILL DRIVE","HOUSTON","TX","77014"
61563,"14318 ROSLYN PLACE N","SEATTLE","WA","98133"
61564,"14318 SOUTH CAVE AVENUE","EL PASO","TX","79938"
61565,"14319 BINGHAM AVE E","TACOMA","WA","98446"
61566,"14319 DEL AMO DRIVE","VICTORVILLE","CA","92392"
61567,"14319 SANDY RIPPLE COURT","SUGAR LAND","TX","77498"
61568,"1432 14TH STREET","PLEASANT GROVE","AL","35127"
61569,"1432 ADRIEL DR","FORT COLLINS","CO","80524"
61570,"1432 BROOKSIDE DRIVE","CARROLLTON","TX","75007"
61571,"1432 CATALPA DRIVE","DAYTON","OH","45406"
61572,"1432 CENTER ST","PITTSBURGH","PA","15221"
61573,"1432 E ENCINAS AVE","GILBERT","AZ","85234"
61574,"1432 E GIRARD PL 328A","ENGLEWOOD","CO","80113"
61575,"1432 E PEDRO RD","PHOENIX","AZ","85042"
61576,"1432 EAGLES NEST LANE","MONROEVILLE","PA","15146"
61577,"1432 FALL RIVER DRIVE","CONYERS","GA","30013"
61578,"1432 INDIANA AVE","LOUISVILLE","KY","40213"
61579,"1432 ISLETA CT","RIO RANCHO","NM","87144"
61580,"1432 JOPPA ALY","COLORADO SPRINGS","CO","80910"
61581,"1432 LEA VIEW LANE","SALE CREEK","TN","37373"
61582,"1432 MAIN STREET","BROWNDALE","PA","18421"
61583,"1432 MARTIN DR","TROY","IL","62294"
61584,"1432 MEDWAY ROAD","COLUMBIA","SC","29205"
61585,"1432 MICHIGAN AVE","MIAMI BEACH","FL","33139"
61586,"1432 NARRAGANSETT BOULEVARD","CRANSTON","RI","02905"
61587,"1432 NORSKE ROAD","DECORAH","IA","52101"
61588,"1432 NW 28 STREET","MIAMI","FL","33142"
61589,"1432 PAGE COURT","MODESTO","CA","95351"
61590,"1432 ROSE HILL DR W","JACKSONVILLE","FL","32221"
61591,"1432 S MAGNOLIA AVE","EL CAJON","CA","92020"
61592,"1432 S SAN LUIS","GREEN VALLEY","AZ","85614"
61593,"1432 SILVERSTONE TRAIL","JONESBORO","GA","30238"
61594,"1432 SOUTH 13TH AVENUE","MAYWOOD","IL","60153"
61595,"1432 STERLING PLACE","BROOKLYN","NY","11213"
61596,"1432 STOCKYARD ROAD","PUEBLO","CO","81001"
61597,"1432 SUGARBERRY LN","SAINT CLOUD","FL","34772"
61598,"1432 SW 6TH AVE","PORTLAND","OR","97201"
61599,"1432 URBAN DRIVE","COLUMBUS","OH","43229"
61600,"1432 W OLIVE","PORTERVILLE","CA","93257"
61601,"1432 WESTGATE PARKWAY","DOTHAN","AL","36303"
61602,"1432-1440 RANDOLPH AVENUE","AVENEL","NJ","07001"
61603,"14320 82ND ST","MAYER","MN","55360"
61604,"14320 FM 1488","MAGNOLIA","TX","77354"
61605,"14320 SW 106 CT","MIAMI","FL","33176"
61606,"14320 TROTTERS RIDGE PLACE","NOKESVILLE","MH","20181"
61607,"14320 VENTURA BLVD  SUITE 418","SHERMAN OAKS","CA","91423"
61608,"14320 VENTURA BLVD 402","SHERMAN OAKS","CA","91423"
61609,"14320 WESTWAY LN APT 13","WOODBRIDGE","VA","22193"
61610,"14321 DETROIT RD","LAKEWOOD","OH","44107"
61611,"14321 LONG ROAD","SMITHVILLE","MO","64089"
61612,"14321 OXFORD DRIVE","LAUREL","MD","20707"
61613,"14321 SPRINGFIELD BLVD","SPRINGFIELD GARDENS","NY","11413"
61614,"14321 SW 286 STREET","LEISURE CITY","FL","33033"
61615,"14321 WATERFORD CHASE PARKWAY","ORLANDO","FL","32828"
61616,"14322 ADMIRALTY WAY UNIT 87","LYNNWOOD","WA","98087"
61617,"14322 FAIR KNOLL WAY","HOUSTON","TX","77062"
61618,"14322 MAYWOOD COURT","PRAIRIEVILLE","LA","70769"
61619,"14323 19TH PL W","LYNNWOOD","WA","98087"
61620,"14323 ADEN ROAD","NOKESVILLE","VA","20181"
61621,"14323 CERISE AVE APT 15","HAWTHORNE","CA","90250"
61622,"14323 DUNROBIN WAY","SUGAR LAND","TX","77498"
61623,"14323 MORAVIAN MANOR CIR","STERLING HEIGHTS","MI","48312"
61624,"14323 SE 128TH ST","OCKLAWAHA","FL","32179"
61625,"14323 SO WESTERN AVE","BLUE ISLAND","IL","60426"
61626,"14323 SW 91ST ST","ARCHER","FL","32618"
61627,"143231","FAYETTEVILE","GA","30214"
61628,"14324 W DESERT FLOWER DR","GOODYEAR","AZ","85395"
61629,"14325 BEN NEVIS AVE","NORWALK","CA","90650"
61630,"14325 EDINBURGH MOOR DR","WIMAUMA","FL","33598"
61631,"14325 GOLDENWEST ST","WESTMINSTER","CA","92683"
61632,"14325 SW 139 CT","MIAMI","FL","33186"
61633,"14325 SW 52ND ST","MIAMI","FL","33175"
61634,"14327 FAIR FOREST LANE","TALLAHASSEE","FL","32312"
61635,"14328 104TH STREET","COAL VALLEY","IL","61240"
61636,"14328 CORONADO DR","SPRINGHILL","FL","34609"
61637,"1433 12TH AVENUE","OAKLAND","CA","94606"
61638,"1433 19TH ST SE","ST CLOUD","MN","56304"
61639,"1433 2ND AVE SOUTH","DENISON","IA","51442"
61640,"1433 BAY HEAD RD","ANNAPOLIS","MD","21409"
61641,"1433 BOZEMAN TRAIL RD","BOZEMAN","MT","59715"
61642,"1433 CARPENTER TOWN LN","CARY","NC","27519"
61643,"1433 E FRANKLIN AVE SUITE 16","MINNEAPOLIS","MN","55404"
61644,"1433 E FRANKLIN AVENUE SUITE 5B","MINNEAPOLIS","MN","55404"
61645,"1433 E GARY RD","LAKELAND","FL","33801"
61646,"1433 E WOOD OAKS STREET","SPRINGFIELD","MO","65804"
61647,"1433 FERGUS RD","GROVE CITY","OH","43123"
61648,"1433 FOREST VILLA DRIVE","CONYERS","GA","30012"
61649,"1433 FRANKLIN AVENUE E","MINNEAPOLIS","MN","55404"
61650,"1433 GILHAM STREET","PHILADELPHIA","PA","19111"
61651,"1433 GLASGOW RD","FORT WORTH","TX","76134"
61652,"1433 HIGHLAND AVE","PLAINFIELD","NJ","07060"
61653,"1433 HOYT ST","LAKEWOOD","CO","80215"
61654,"1433 HURON ROAD","NORTH BRUNSWICK","NJ","08902"
61655,"1433 LANIER RD","LAKELAND","FL","33810"
61656,"1433 MISSION DR W","CLEARWATER","FL","33759"
61657,"1433 N WATER ST","MILWAUKEE","WI","53202"
61658,"1433 NE 46TH AVE","PORTLAND","OR","97213"
61659,"1433 NE 5 TERRACE","FORT LAUDERDALE","FL","33304"
61660,"1433 NEESES HIGHWAY","ORANGEBURG","SC","29115"
61661,"1433 NORTH 6 1/2 STREET","TERRE HAUTE","IN","47807"
61662,"1433 NORTH MERIDIAN ST SUITE 202","INDIANAPOLIS","IN","46202"
61663,"1433 NORWOOD DRIVE","LILBURN","GA","30047"
61664,"1433 QUEENIE SMITH ROAD NORTHEAST","CONYERS","GA","30012"
61665,"1433 REDPOST COURT","DIAMOND BAR","CA","91765"
61666,"1433 RIDGEVIEW DRIVE","MONTEVIDEO","MN","56265"
61667,"1433 ROYAL OAKS DRIVE","STOCKTON","CA","95209"
61668,"1433 S 8TH STREET","MANITOWOC","WI","54220"
61669,"1433 SOUTH 8TH STREET","MANITOWOC","WI","54220"
61670,"1433 SOUTH EIGHTH STREET","MANITOWC","WI","54220"
61671,"1433 VIOLET LANE","KYLE","TX","78640"
61672,"1433 W 81ST STREET","LOS ANGELES","CA","90047"
61673,"1433 W 82ND ST","LOS ANGELES","CA","90047"
61674,"1433 W BERTEAU AVE","CHICAGO","IL","60613"
61675,"1433 W OAKDALE AVE UNIT 2F","CHICAGO","IL","60657"
61676,"1433 WHITE OPAL DRIVE","KNIGHTDALE","NC","27545"
61677,"14330 MIDWAY RD STE 116","DALLAS","TX","75244"
61678,"14330 N 73RD E AVE","COLLINSVILLE","OK","74021"
61679,"14330 NORTH CREEK DRIVE APT1422","MILL CREEK","WA","98012"
61680,"14330 WANDERING WOOD DR","HOUSTON","TX","77013"
61681,"14330 WEST 99TH STREET","LENEXA","KS","66215"
61682,"14331 124TH AVE NE C41","KIRKLAND","WA","98034"
61683,"14331 SANDERSON AVE","DOLTON","IL","60419"
61684,"14331 SW 268 ST APT 311","NARANJA","FL","33032"
61685,"14332 SW 110 AVE","MIAMI","FM","33176"
61686,"14333 BEACH BLVD STE 33","JACKSONVILLE","FL","32250"
61687,"14333 BEACH BLVD UNIT 4","JACKSONVILLE","FL","32225"
61688,"14333 FERN DRIVE","HOUSTON","TX","77079"
61689,"14333 FISH EAGLE DR EAST","JACKSONVILLE","FL","32226"
61690,"14333 KIMONO CIR","BOYDS","MD","20841"
61691,"14333 WESTWAY LANE APT 5","WOODBRIDGE","VA","22193"
61692,"14334 ADDISON ST UNIT 9","SHERMAN OAKS","CA","91423"
61693,"14334 BARCLAY ST","DEARBORN","MI","48126"
61694,"14334 SPRING MEADOW COURT","LIBERTYVILLE","IL","60048"
61695,"14334 WEST MARCUS DRIVE","SURPRISE","AZ","85374"
61696,"14335 AVALON RESERVE BLVD APT 303","ORLANDO","FL","32828"
61697,"14336 E TENNESSEE AVE - APT 107","AURORA","CO","80012"
61698,"14337 BLACKBURN ST","LIVONIA","MI","48154"
61699,"14337 HARRIS RD","MILLINGTON","MI","48746"
61700,"14337 PIONEER BLVD 46","NORWALK","CA","90650"
61701,"14338 BEAKER CT","BURTONSVILLE","MD","20866"
61702,"14338 OWENDALE DR","HOUSTON","TX","77015"
61703,"14339 JEFFERSON DAVIS HWY","WOODBRIDGE","VA","22191"
61704,"14339 PERUGIA WAY APT 107","CHARLOTTE","NC","28273"
61705,"1434  DUKE ST","ALEXANDRIA","VA","22314"
61706,"1434 AUTUMN WOODS PLACE","ESCONDIDO","CA","92029"
61707,"1434 DOLLEY MADISON BLVD","MCLEAN","VA","22101"
61708,"1434 E BASSWOOD CIR","ST GEORGE","UT","84790"
61709,"1434 EAST 4500 SOUTH  STE 101-B","SALT LAKE CITY","UT","84117"
61710,"1434 EAST MOWRY DRIVE 103","HOMESTEAD","FL","33033"
61711,"1434 GARDEN ST APT 1","SANTA BARBARA","CA","93101"
61712,"1434 HARTNELL AVE","REDDING","CA","96002"
61713,"1434 HAWKINS STREET","GEORGETOWN","SC","29440"
61714,"1434 JEFFERSON DRIVE","SANDY SPRINGS","GA","30350"
61715,"1434 MARSHAL ST NE","MINNEAPOLIS","MN","55413"
61716,"1434 MARSHALL ST NE NO 227","MINNEAPOLIS","MN","55413"
61717,"1434 NORTH CENTRAL EXPRESSWAY 110","MCKINNEY","TX","75070"
61718,"1434 POST ROAD","WELLS","ME","04090"
61719,"1434 SILVERBERRY LANE","BEAUMONT","CA","92223"
61720,"1434 STEPHENS POND VIEW","LOGANVILLE","GA","30052"
61721,"1434 STEUART STREET","BALTIMORE","MD","21230"
61722,"1434 VIA TERRASSA","ENCINITAS","CA","92024"
61723,"1434 W DIVISION ST","CHICAGO","IL","60642"
61724,"1434 W JARVIS AVE APT 2B","CHICAGO","IL","60626"
61725,"1434 W THOME AVE UNIT 2A","CHICAGO","IL","60660"
61726,"1434 W WILLOW ST","LANSING","MI","48915"
61727,"1434 WEST STATE ROAD 46","GENEVA","FL","32732"
61728,"14340 EUCLID AVE","EAST CLEVELAND","OH","44112"
61729,"14340 EUCLID AVENUE","EAST CLEVELAND","OH","44112"
61730,"14340 SW 172 STREET","MIAMI","FL","33177"
61731,"14341 MOON FLOWER DRIVE","TAMPA","FL","33626"
61732,"14341 SW 97TH LN","MIAMI","FL","33186"
61733,"14341 W MCNICHOLS","DETROIT","MI","48219"
61734,"14342 GRAND OAKS DRIVE UNIT1","BAXTER","MN","56425"
61735,"14342 LANDER ROAD","Midlothian","VA","23113"
61736,"14342 LANDER ROAD","MIDLOTHIAN","VA","23113"
61737,"14343 BURBANK BLVD SUITE 305","SHERMAN OAKS","CA","91401"
61738,"14343 S 179TH AVE","GOODYEAR","AZ","85338"
61739,"14344 KIMBARK AVE","DOLTON","IL","60419"
61740,"14344 MINERVA AVE","DOLTON","IL","60419"
61741,"14345 ALGER AVE","WARREN","MI","48088"
61742,"14346 BROOKMERE DRIVE","CENTREVILLE","VA","20120"
61743,"14346 W WELDON AVE","GOODYEAR","AZ","85395"
61744,"14347 COLLINS STREET","SHERMAN OAKS","CA","91401"
61745,"14348 KEELER","MIDLOTHIAN","IL","60445"
61746,"14349 COMMERCE WAY","MIAMI LAKES","FL","33016"
61747,"1435 30TH STREET","SAN DIEGO","CA","92102"
61748,"1435 4TH ST SW APTB604","WASHINGTON","DC","20024"
61749,"1435 51ST STREET","BROOKLYN","NY","11219"
61750,"1435 ASBERRY DRIVE","MARIETTA","GA","30060"
61751,"1435 BARKER ROAD","HOOD RIVER","OR","97031"
61752,"1435 BAY BLVD","ATLANTIC BEACH","NY","11509"
61753,"1435 BEDFORD AVE FIRST FLOOR","PITTSBURGH","PA","15219"
61754,"1435 BEDFORD STREET APT 3A","STAMFORD","CT","06905"
61755,"1435 DELTA DRIVE","CEDAR HILL","TX","75104"
61756,"1435 E DEVONSHIRE ROAD","DELAFIELD","WI","53018"
61757,"1435 E MCCLELLAN ROAD","MESA","AZ","85203"
61758,"1435 E QUAIL RUN RD","ROCKWALL","TX","75087"
61759,"1435 E SHAMWOOD ST","WEST COVINA","CA","91791"
61760,"1435 EAST  2700 NORTH","NORTH LOGAN","UT","84341"
61761,"1435 ENNEN DR","RAPID CITY","SD","57703"
61762,"1435 FIELDCREST DR","BLAIR","NE","68008"
61763,"1435 GARDENIA","CONWAY","AR","72034"
61764,"1435 HARTFORD TERRACE","ALPHARETTA","GA","30004"
61765,"1435 HAVENHURST DR","WEST HOLLYWOOD","CA","90046"
61766,"1435 JOHN HOWELL ROAD","POCAHONTAS","TN","38061"
61767,"1435 LARIMER STREET SUITE 203","DENVER","CO","80202"
61768,"1435 MIDWAY PARKWAY","SAINT PAUL","MN","55108"
61769,"1435 N THOMPSON RD","SUN PRAIRIE","WI","53590"
61770,"1435 NE 4TH AVE","CAMAS","WA","98607"
61771,"1435 NE 54TH AVENUE","DES MOINES","IA","50313"
61772,"1435 NORTH PERIMETER RD","MOUNT CLEMENS","MI","48045"
61773,"1435 NW CIRCLE BLVD","CORVALLIS","OR","97330"
61774,"1435 QUAIL STREET","CHARLOTTE","NC","28214"
61775,"1435 ROANOKE RD","DALEVILLE","VA","24083"
61776,"1435 S HAYWORTH AVE - 2","LOS ANGELES","CA","90035"
61777,"1435 SHADY BEND DR","SUGAR LAND","TX","77479"
61778,"1435 SKUNK VALLEY ROAD","PANAMA CITY","FL","32409"
61779,"1435 SOUTH MAIN CHAPEL WAY  C116","GAMBRILLS","NC","21054"
61780,"1435 W 7TH ST","STERLING","IL","61081"
61781,"1435 W AUBURN ROAD","ROCHESTER HILLS","MI","48309"
61782,"1435 W SR 434 STE 109","LONGWOOD","FL","32750"
61783,"1435 WEST DIVISION ST","NEW CASTLE","PA","16101"
61784,"1435 WHITE SPRUCE DR","TOMS RIVER","NJ","08753"
61785,"1435 WILLOW AVE","LOUISVILLE","KY","40204"
61786,"1435 WILSHIRE WAY","MCDONOUGH","GA","30253"
61787,"1435 WINDY MEADOWS DRIVE","BURLESON","TX","76028"
61788,"1435 YARMOUTH UNIT 203","BOULDER","CO","80304"
61789,"1435","LAKEWOOD","CO","80215"
61790,"14350 BROWN BRIDGE RD","COVINGTON","GA","30016"
61791,"14350 CULEBRA RD","SAN ANTONIO","TX","78253"
61792,"14350 E BLUE RIDGE ROAD","DEWEY","AZ","86327"
61793,"14350 FARM TO MARKET RD 1488","MAGNOLIA","TX","77354"
61794,"14350 FARM TO MARKET ROAD 1488","MAGNOLIA","TX","77354"
61795,"14350 FM 1488","MAGNOLIA","TX","77353"
61796,"14350 MADISON RD","MISHAWAKA","IN","46544"
61797,"14350 MUNDY DR STE 800 BOX 165","NOBLESVILLE","IN","46060"
61798,"14350 MUNDY DRIVE SUITE 800 NO 120","NOBLESVILLE","IN","46060"
61799,"14350 MUNDY DRIVE SUITE 800 NO 127","NOBLESVILLE","IN","46060"
61800,"14350 MUNDY DRIVE SUITE 800-216","NOBLESVILLE","IN","46060"
61801,"14350 NE 9 LANE","SILVER SPRINGS","FL","34488"
61802,"14350 S W KANNER HWY","INDIANTOWN","FL","34956"
61803,"14350 TIREMAN ST","DETROIT","MI","48228"
61804,"14350 VICTORY BLVD SUITE 3","VAN NUYS","CA","91401"
61805,"14350 WEST 187 TERRACE","OLATHE","KS","66062"
61806,"14351 MANCHESTER PIKE","CHRISTIANA","TN","37037"
61807,"14351 PAIGE ROAD","LANEXA","VA","23089"
61808,"14353 WARWICK ST","DETROIT","MI","48223"
61809,"14354 CRUSE ST","DETROIT","MI","48227"
61810,"14354 CYPRESS ISLAND CIRCLE","PALM BEACH GARDENS","FL","33410"
61811,"14355 HARTWELL TRAIL","NOVELTY","OH","44072"
61812,"14355 NW 15TH ST","PEMBROKE PINES","FL","33028"
61813,"14355 OLD GUSLANDER TRAIL NORTH","MARINE ON ST CROIX","MN","55047"
61814,"14356 130TH STREET","WELLSBURG","IA","50680"
61815,"14356 E 29TH LN","YUMA","AZ","85367"
61816,"14356 NORTHBROOK LANE","GAINESVILLE","VA","20155"
61817,"14357 LINDEN AVENUE N UNIT N302","SEATTLE","WA","98133"
61818,"14357 N HILLSIDE DR","PRAIRIVILLE","LA","70769"
61819,"14358 MAGNOLIA BLVD  APT 108","SHERMAN OAKS","CA","91423"
61820,"14358 N HOLLY RD","BATON ROUGE","LA","70819"
61821,"14359 AMARGOSA RD SUITE F","VICTORVILLE","CA","92392"
61822,"14359 AMARGOSA ROAD STE E","VICTORVILLE","CA","92392"
61823,"14359 MIRAMAR PARKWAY 112","MIRAMAR","FL","33027"
61824,"14359 MIRAMAR PARKWAY 329","MIRAMAR","FL","33029"
61825,"14359 MIRAMAR PARKWAY 482","MIRAMAR","FL","33027"
61826,"14359 MIRAMAR PARKWAY PMB 510","MIRAMAR","FL","33027"
61827,"14359 MIRAMAR PARKWAY SUITE 294","MIRAMAR","FL","33027"
61828,"14359 MIRAMAR PKWY UNIT 134","MIRAMAR","FL","33027"
61829,"14359 N 1250 E","ODON","IN","47562"
61830,"14359 SE 47TH PL","BELLEVUE","WA","98006"
61831,"14359 WEST 1ST PLACE","GOLDEN","CO","80401"
61832,"1436 4TH ST","LOS OSOS","CA","93402"
61833,"1436 59TH ST","BROOKLYN","NY","11219"
61834,"1436 AMBER BLVD","PUYALLUP","WA","98372"
61835,"1436 AUAUKI ST","KAILUA","HI","96734"
61836,"1436 BELLEFONTAINE AVE","MARION","OH","43302"
61837,"1436 BUTLER MILL HOLLOW ROAD","BETHPAGE","TN","37022"
61838,"1436 CARNEY STREET","LAKE CHARLES","LA","70615"
61839,"1436 CASS SE","GRAND RAPIDS","MI","49507"
61840,"1436 CEDAR PINE DRIVE","DELTONA","FL","32725"
61841,"1436 CHELMSFORD CT","COLUMBUS","OH","43229"
61842,"1436 CLAY STREET","HAYWARD","CA","94541"
61843,"1436 EAST 2ND STREET","PLAINFIELD","NJ","07062"
61844,"1436 GOLF COURSE ROAD","NEWPORT","TN","37821"
61845,"1436 HAZEL LEIGH LANE","FORT WORTH","TX","76134"
61846,"1436 HILLTOP ROAD","LINCOLN","NE","68521"
61847,"1436 HOOVLER WAY","PATASKALA","OH","43062"
61848,"1436 HORTON RIDGE ROAD","SWORDS CREEK","VA","24649"
61849,"1436 HOWARD AUMAN RD","ASHEBORO","NC","27205"
61850,"1436 JOHNSON AVE","SAN LUIS OBISPO","CA","93401"
61851,"1436 KIMWOOD DR","JACKSON","MS","39211"
61852,"1436 LAKERIDGE DRIVE","BATON ROUGE","LA","70802"
61853,"1436 N 3RD STREET","SPEARFISH","SD","57783"
61854,"1436 N AVE","RED OAK","IA","51566"
61855,"1436 N FORMOSA AVE APT 3","LOS ANGELES","CA","90046"
61856,"1436 N POPLAR","WICHITA","KS","67214"
61857,"1436 NORD AVE UNIT D","CHICO","CA","95927"
61858,"1436 NW GALESTON AVENUE","BEND","OR","97701"
61859,"1436 OAKCREST LANE","COPLAY","PA","18037"
61860,"1436 PARKWOOD DRIVE","CARROLLTON","TX","75007"
61861,"1436 PRINCETON DR NE","ALBUQUERQUE","NM","87106"
61862,"1436 ROYAL PALM SQUARE BLVD","FORT MYERS","FM","33919"
61863,"1436 STANBRIDGE ST","NORRISTOWN","PA","19401"
61864,"1436 STATE ROUTE 227","OIL CITY","PA","16301"
61865,"1436 W 105TH ST","LOS ANGELOS","CA","90047"
61866,"1436 W CHALONER DR","ROANOKE RAPIDS","NC","27870"
61867,"1436 W PONTIAC WAY","FRESNO","CA","93705"
61868,"1436 WEST 18TH STREET AND STE 4","CHICAGO","IL","60608"
61869,"1436 WOODCREST DR","SOUTH BEND","IN","46617"
61870,"1436 YOUNG ST 301","HONOLULU","HI","96814"
61871,"14360 BELLAIRE BLVD  SUITE 120","HOUSTON","TX","77083"
61872,"14360 BELLAIRE BLVD SUITE 120","HOUSTON","TX","77083"
61873,"14360 FALCON HEAD BLVD SUITE 100A","AUSTIN","TX","78738"
61874,"14360 SAVANNAH CT","STRONGSVILLE","OH","44136"
61875,"14360 WYNDHAM LAKES BLVD","ORLANDO","FL","32824"
61876,"14361 19TH AVE NE","SEATTLE","WA","98125"
61877,"14361 SUPERIOR RD","CLEVELAND HTS","OH","44118"
61878,"14361 TOWN DR","BATON ROUGE","LA","70810"
61879,"14362 N FRANK LLOYD WRIGHT BLVD","SCOTTSDALE","AZ","85259"
61880,"14362 N FRANK LLOYD WRIGHT BLVD","SCOTTSDALE","AZ","85260"
61881,"14362 SW 30TH STREET","MIAMI","FL","33175"
61882,"14363 VIA ROCA","VICTORVILLE","CA","92392"
61883,"14365 SAN PAOLO LANE","CHARLOTTE","NC","28277"
61884,"14365 SE VISTA HEIGHTS ST","HAPPY VALLEY","OR","97086"
61885,"14365 SW 27TH CT","BEAVERTON","OR","97008"
61886,"14366 FM 1314 ROAD","CONROE","TX","77302"
61887,"14366 NORTH 1775 EAST RD","PONTIAC","IL","61764"
61888,"14366 NORTH 1775 EAST ROAD","PONTIAC","IL","61764"
61889,"14367 HENRY RD APT 21","HOUSTON","TX","77060"
61890,"14368 TANGLEWOOD DRIVE","FARMERS BRANCH","TX","75234"
61891,"14369 COUNTY ROUTE 145","SACKETS HARBOR","NY","13685"
61892,"14369 F M 1314","CONROE","TX","77302"
61893,"1437 38TH AVENUE","SAN FRANCISCO","CA","94112"
61894,"1437 5TH AVENUE W UNIT B","KALISPELL","MT","59901"
61895,"1437 67TH AVENUE","PHILADELPHIA","PA","19126"
61896,"1437 BATES ROAD","COTTONWOOD","AZ","86326"
61897,"1437 BRETMOOR WAY","SAN JOSE","CA","95129"
61898,"1437 BREWER LANE","CELINA","TX","75009"
61899,"1437 CEDAR PINE DRIVE","DELTONA","FL","32725"
61900,"1437 CUMBERLAND CAVERNS ROAD","MCMINNVILLE","TN","37110"
61901,"1437 DARTMOUTH LN","DEERFIELD","IL","60015"
61902,"1437 DELMAR ST","JACKSONVILLE","FL","32205"
61903,"1437 DENVER AVENUE  231","LOVELAND","CO","80538"
61904,"1437 DUBUQUE DRIVE","OTLEY","IA","50214"
61905,"1437 E 15TH ST","BROOKLYN","NY","11230"
61906,"1437 EAST 900 SOUTH","SALT LAKE CITY","UT","84105"
61907,"1437 FAIRFIELD AVENUE","CHARLESTON","SC","29407"
61908,"1437 HARMONY DRIVE","RACINE","WI","53402"
61909,"1437 HERSCHEL AVENUE","CINCINNATI","OH","45208"
61910,"1437 INDUSTRIAL AVE B","ESCONDIDO","CA","92029"
61911,"1437 KILAUEA AVE  RM 102B","HILO","HI","96720"
61912,"1437 MAIN AVE","SACRAMENTO","CA","95838"
61913,"1437 N HWY US 1 UNIT CY","ORMOND BEACH","FL","32174"
61914,"1437 NORTH GREENWOOD AVE","FORT SMITH","AR","72904"
61915,"1437 OAKVIEW DRIVE","MCLEAN","VA","22101"
61916,"1437 OCEAN AVENUE","SAN FRANCISCO","CA","94112"
61917,"1437 OLYMPIC CT","EVANSVILLE","IN","47715"
61918,"1437 PLANK ROAD","WEBSTER","NY","14580"
61919,"1437 POST RD","SAN MARCOS","TX","78666"
61920,"1437 S 190TH PLAZA","OMAHA","NE","68130"
61921,"1437 S JACKSON ST","SEATTLE","WA","98144"
61922,"1437 S WALNUT AVENUE","NEW BRAUNFELS","TX","78130"
61923,"1437 SE KNAPP STREET","PORTLAND","OR","97202"
61924,"1437 SHREVE LANE","NEENAH","WI","54956"
61925,"1437 SOFTWIND DR","INDIANAPOLIS","IN","46260"
61926,"1437 TANGLEWOOD TRAIL","NORTHLAKE","TX","76226"
61927,"1437 THOROUGHBRED TRAIL","PARKTON","NC","28371"
61928,"1437 W CENTINELA AVE","INGLEWOOD","CA","90302"
61929,"1437 WASHINGTON AVE","NEW ORLEANS","LA","70130"
61930,"1437 WILLOW DRIVE","WASHINGTON","IL","61571"
61931,"14370 91ST AVE","SEMINOLE","FL","33776"
61932,"14370 PARALLEL RD","BASEHOR","KS","66007"
61933,"14370 ROSEMONT","DETROIT","MI","48223"
61934,"14370 SULLYFIELD CIR STE A","CHANTILLY","VA","20151"
61935,"14370 SW 205 AVENUE","MIAMI","FL","33196"
61936,"14371 EUCLID STREET SUITE 2J","GARDEN GROVE","CA","92843"
61937,"14371 HAYES RIDGE LANE","DILLSBORO","IN","47018"
61938,"14372 NW GREENWOOD DRIVE","PORTLAND","OR","97229"
61939,"14373 NOLEN LANE","CHARLOTTE","NC","28277"
61940,"14373 SHADY HOLLOW LANE","CHINO HILLS","CA","91709"
61941,"14373 SW 9TH COURT","PEMBROKE PINES","FL","33027"
61942,"14374 BOREGO ROAD APT 106","VICTORVILLE","CA","92392"
61943,"14374 HILLCREST DRIVE","KING GEORGE","VA","22485"
61944,"14375 BERLIN STATION RD","BERLIN CENTER","OH","44401"
61945,"14375 EBONY LN","APPLE VALLEY","MN","55124"
61946,"14376 GIORGIO DRIVE","SKIATOOK","OK","74070"
61947,"14376 GUTHRIE AVE","APPLE VALLEY","MN","55124"
61948,"14377 ARDMORE","DETROIT","MI","48227"
61949,"14377 AVENIDA CENTRAL","LA GRANGE","CA","95329"
61950,"14377 E CARROLL BLVD","UNIVERSITY HEIGHTS","OH","44118"
61951,"14377 N CERAMIC FLUTE AVE","MARANA","AZ","85658"
61952,"14379 GRESHAM DRIVE","CALDWELL","ID","83607"
61953,"14379 WILSON DRIVE","EDEN PRAIRIE","MN","55347"
61954,"1438 13TH AVENUE","MITCHELL","NE","69357"
61955,"1438 19TH ST","SARASOTA","FL","34234"
61956,"1438 7TH AVE S","FARGO","ND","58103"
61957,"1438 9TH STREET SUITE B","SANTA MONICA","CA","90401"
61958,"1438 ARDEN VIEW DR","ARDEN HILLS","MN","55112"
61959,"1438 ASHMENT AVE","IDAHO FALLS","ID","83404"
61960,"1438 BRIDFORD PARKWAY APT A","GREENSBORO","NC","27407"
61961,"1438 CAMPBELL RD STE 115","HOUSTON","TX","77055"
61962,"1438 CODDLE CREEK ROAD","MOORESVILLE","NC","28115"
61963,"1438 COUNTY ROAD 130","BELLEFONTAINE","OH","43311"
61964,"1438 E 50TH ST","LOS ANGELES","CA","90011"
61965,"1438 EAST LAKEVIEW DR APT 300","JOHNSON","TN","37601"
61966,"1438 EDRIS DRIVE","LOS ANGELES","CA","90035"
61967,"1438 GREYTHORNE DRIVE","ORION","MI","48359"
61968,"1438 KEYS POND ROAD","RIDGE SPRING","SC","29129"
61969,"1438 LONGHORN PARKWAY","AXTELL","TX","76624"
61970,"1438 PEBBLE RIDGE LANE","HAMPTON","GA","30228"
61971,"1438 S DUNFRIES STREET","FLOSSMOOR","IL","60422"
61972,"1438 SABAL TRAIL","WESTON","FL","33327"
61973,"1438 SENECA ST","STORM LAKE","IA","50588"
61974,"1438 STILLHOUSE RIDGE LANE","CHARLOTTESVILLE","VA","22903"
61975,"1438 TWIN BRANCHES CIR","MARIETTA","GA","30067"
61976,"1438 TWIN FEATHER DR","MURFREESBORO","TN","37129"
61977,"1438 W MOONGLO RD","SCOTTSBURG","IN","47170"
61978,"1438 WEST NORTON   SUITE N-7","MUSKEGON","MI","49441"
61979,"1438 YELLOWSTONE AVENUE","MEDFORD","OR","97504"
61980,"14380 AMARGOSA RD","VICTORVILLE","CA","92392"
61981,"14380 CHESTNUT RIDGE CT","JACKSONVILLE","FL","32258"
61982,"14380 COGBURN RD","MILTON","GA","30004"
61983,"14380 TAMIAMI TRAIL","NORTH PORT","FL","34287"
61984,"14381 VALEDA DRIVE","LA MIRADA","CA","90638"
61985,"14382 ROUTE 20 SOUTH ROAD","ROCK CAVE","WV","26234"
61986,"14383 CHALFONT DRIVE","HAYMARKET","VA","20169"
61987,"14383 NEWBROOK DR SUITE 116","CHANTILLY","VA","20151"
61988,"14387 EAST CAVE AVE","EL PASO","TX","79938"
61989,"14387 N PRESIDIO LOOP","NAMPA","ID","83651"
61990,"14389 BRAMELL","DETROIT","MI","48223"
61991,"14389 EAST COUNTY LINE ROAD","LONGMONT","CO","80504"
61992,"1439  CALAVERITAS ROAD","SAN  ANDREAS","CA","95249"
61993,"1439 5TH AVENUE","BAY SHORE","NY","11706"
61994,"1439 AUSTIN ST","SPRINGDALE","AR","72762"
61995,"1439 COLONIAL ROAD","HARRISBURG","PA","17112"
61996,"1439 COUNTY ROAD 24","CHILDRESS","TX","79201"
61997,"1439 COUNTY ROAD 318","CLEVELAND","TX","77327"
61998,"1439 COURT PLACE","DENVER","CO","80202"
61999,"1439 E PORTNER ST","WEST COVINA","CA","91791"
62000,"1439 EASTWOOD ST","BISMARCK","ND","58504"
