"ID","Address","City","State","Zip"
334001,"PO BOX 1421","WARRENVILLE","IL","60555"
334002,"PO BOX 1421","YULEE","FL","32041"
334003,"PO BOX 14212","MERRILLVILLE","IN","46411"
334004,"PO BOX 1422","ELMA","WA","98541"
334005,"PO BOX 1422","IOWA CITY","IA","52244"
334006,"PO BOX 1422","LUCEDALE","MS","39452"
334007,"PO BOX 1422","MOLALLA","OR","97038"
334008,"PO BOX 1422","WAYNE","NJ","07474"
334009,"PO BOX 14221","GREENSBORO","NC","27415"
334010,"PO BOX 14226","CHARLESTON","SC","29422"
334011,"PO BOX 1423","ANDERSON","CA","96007"
334012,"PO BOX 1423","BESSEMER","AL","35021"
334013,"PO BOX 1423","KAILUA KONA","HI","96745"
334014,"PO BOX 1423","MILLVILLE","NJ","08332"
334015,"PO BOX 1423","THOMSON","GA","30824"
334016,"PO BOX 1423","WOODBRIDGE","VA","22195"
334017,"PO BOX 14233","BRADENTON","FL","34280"
334018,"PO BOX 1424   251 W LANCASTER AVE","FORT WORTH","TX","76102"
334019,"PO BOX 1424","ASHEVILLE","NC","28802"
334020,"PO BOX 1424","DARIEN","GA","31305"
334021,"PO BOX 1424","HOUSTON","TX","77251"
334022,"PO BOX 1424","IDAHO FALLS","ID","83403"
334023,"PO BOX 1424","VENETA","OR","97487"
334024,"PO BOX 1424","WALLINGFORD","CT","06492"
334025,"PO BOX 14241","LANSING","MI","48901"
334026,"PO BOX 142426","FAYETTEVILLE","GA","30214"
334027,"PO BOX 142460","FAYETTEVILLE","GA","30214"
334028,"PO BOX 1425","CHAMBERSBURG","PA","17201"
334029,"PO BOX 1425","GRANBURY","TX","76048"
334030,"PO BOX 1425","KAUNAKAKAI","HI","96748"
334031,"PO BOX 1425","LATHAM","NY","12110"
334032,"PO BOX 1425","MABLETON","GA","30126"
334033,"PO BOX 14250","ARLINGTON","TX","76094"
334034,"PO BOX 142518","OVERLAND","MO","63114"
334035,"PO BOX 1426","BLYTHE","CA","92226"
334036,"PO BOX 1426","CONWAY","AR","72033"
334037,"PO BOX 1426","EL PRADO","NM","87529"
334038,"PO BOX 1426","SALIDA","CO","81201"
334039,"PO BOX 1426","SALTILLO","MS","38866"
334040,"PO BOX 1426","SHELTON","WA","98584"
334041,"PO BOX 14262","COLUMBUS","OH","43214"
334042,"PO BOX 14263","DURHAM","NC","27709"
334043,"PO BOX 1427","CHOTEAU","MT","59422"
334044,"PO BOX 1427","EVANSTON","WY","82931"
334045,"PO BOX 1427","MIDLOTHIAN","TX","76065"
334046,"PO BOX 142774","SAINT LOUIS","MO","63114"
334047,"PO BOX 1428","HOMEWOOD","IL","60430"
334048,"PO BOX 1428","LA PINE","OR","97739"
334049,"PO BOX 1428","REDONDO BEACH","CA","90278"
334050,"PO BOX 1428","WESTON","WV","26452"
334051,"PO BOX 142819","AUSTIN","TX","78714"
334052,"PO BOX 14282","SOUTH LAKE TAHOE","CA","96151"
334053,"PO BOX 14289","JACKSONVILLE","FL","32238"
334054,"PO BOX 14291","SPRINGFIELD","MO","65814"
334055,"PO BOX 143 5721 NC HIGHWAY 50","MAPLE HILL","NC","28454"
334056,"PO BOX 143","AROMA PARK","IL","60910"
334057,"PO BOX 143","BEACHWOOD","NJ","08722"
334058,"PO BOX 143","BERLIN","CT","06037"
334059,"PO BOX 143","BOISE","ID","83701"
334060,"PO BOX 143","CARMEL","NY","10512"
334061,"PO BOX 143","CHINA SPRING","TX","76633"
334062,"PO BOX 143","CHOWCHILLA","CA","93610"
334063,"PO BOX 143","COATESVILLE","IN","46121"
334064,"PO BOX 143","DALEVILLE","VA","24083"
334065,"PO BOX 143","DELTA","OH","43515"
334066,"PO BOX 143","DEPEW","NY","14043"
334067,"PO BOX 143","EASTON","CT","06612"
334068,"PO BOX 143","EDGERTON","WI","53534"
334069,"PO BOX 143","FLORESVILLE","TX","78114"
334070,"PO BOX 143","GALLION","AL","36742"
334071,"PO BOX 143","GARWOOD","NJ","07027"
334072,"PO BOX 143","HAMPTON","GA","30228"
334073,"PO BOX 143","HARRAH","OK","73045"
334074,"PO BOX 143","HIBBING","MN","55746"
334075,"PO BOX 143","HIGHMORE","SD","57345"
334076,"PO BOX 143","HOWELLS","NE","68641"
334077,"PO BOX 143","JEFFERSON","NC","28640"
334078,"PO BOX 143","KENAI","AK","99611"
334079,"PO BOX 143","KILAUEA","HI","96754"
334080,"PO BOX 143","KIMBERLY","WI","54136"
334081,"PO BOX 143","L","MD","20725"
334082,"PO BOX 143","LEETONIA","OH","44431"
334083,"PO BOX 143","MEDFORD","WI","54451"
334084,"PO BOX 143","MIDLOTHIAN","VA","23113"
334085,"PO BOX 143","NORRIS","TN","37828"
334086,"PO BOX 143","OAKTON","VA","22124"
334087,"PO BOX 143","OLEAN","NY","14760"
334088,"PO BOX 143","OWENTON","KY","40359"
334089,"PO BOX 143","PRAIRIE DU SAC","WI","53578"
334090,"PO BOX 143","SILVER SPRING","PA","17575"
334091,"PO BOX 143","STAFFORD SPRINGS","CT","06076"
334092,"PO BOX 143","STEWARTSVILLE","NJ","08886"
334093,"PO BOX 143","SUMMERDALE","AL","36580"
334094,"PO BOX 143","TAFTON","PA","18464"
334095,"PO BOX 143","TUCUMCARI","NM","88401"
334096,"PO BOX 143","W STOCKBRIDGE","MA","01266"
334097,"PO BOX 143","WALES CENTER","NY","14169"
334098,"PO BOX 143","WEST STOCKBRIDGE","MA","01266"
334099,"PO BOX 143","WILLIAMSTON","MI","48895"
334100,"PO BOX 143","WOODSVILLE","NH","03785"
334101,"PO BOX 1430","DACULA","GA","30019"
334102,"PO BOX 1430","PORT HADLOCK","WA","98339"
334103,"PO BOX 14303","LANSING","MI","48901"
334104,"PO BOX 1431","BRANDON","FL","33509"
334105,"PO BOX 1431","JACKSON","CA","95642"
334106,"PO BOX 1431","LONDON","KY","40743"
334107,"PO BOX 1431","MUSKEGON","MI","49443"
334108,"PO BOX 1431","SOUTH BEND","IN","46624"
334109,"PO BOX 1431","STAFFORD","TX","77477"
334110,"PO BOX 1431","TUOLUMNE","CA","95379"
334111,"PO BOX 1431","YORKTOWN HEIGHTS","NY","10598"
334112,"PO BOX 14311 BISCAYNE BLVD 1764","NORTH MIAMI","FL","33261"
334113,"PO BOX 14313","SAVANNAH","GA","31416"
334114,"PO BOX 14314","POLAND","OH","44514"
334115,"PO BOX 143164","AUSTIN","TX","78714"
334116,"PO BOX 1432  OR 3707 N MANOR RD","FLAGSTAFF","AZ","86004"
334117,"PO BOX 1432","GLOBE","AZ","85502"
334118,"PO BOX 1432","HILLSBOROUGH","NC","27278"
334119,"PO BOX 1432","IONE","CA","95640"
334120,"PO BOX 1432","LUSBY","MD","20657"
334121,"PO BOX 1432","NORTH BEND","OR","97459"
334122,"PO BOX 1432","OCEAN PARK","WA","98640"
334123,"PO BOX 1432","WILLIAMS BAY","WI","53191"
334124,"PO BOX 14322","PHILADELPHIA","PA","19115"
334125,"PO BOX 1433","BROOKLINE","MA","02446"
334126,"PO BOX 1433","LANDER","WY","82520"
334127,"PO BOX 1433","LEXINGTON","KY","40588"
334128,"PO BOX 1433","MEDINA","OH","44258"
334129,"PO BOX 1433","MILLBROOK","AL","36054"
334130,"PO BOX 1433","SHERWOOD","OR","97140"
334131,"PO BOX 14331","HOUSTON","TX","77221"
334132,"PO BOX 14338","SAN FRANCISCO","CA","94114"
334133,"PO BOX 143395","FAYETTEVILLE","GA","30214"
334134,"PO BOX 1434","ASHEBORO","NC","27204"
334135,"PO BOX 1434","EDMONDS","WA","98020"
334136,"PO BOX 1434","EL DORADO","CA","95623"
334137,"PO BOX 1434","ELLICOTT CITY","MD","21042"
334138,"PO BOX 1434","GOLETA","CA","93116"
334139,"PO BOX 1434","KAPAAU","HI","96755"
334140,"PO BOX 1434","LA CROSSE","WI","54602"
334141,"PO BOX 1434","MACCLENNY","FL","32063"
334142,"PO BOX 1434","MARIPOSA","CA","95338"
334143,"PO BOX 14346","SPRINGFIELD","MO","65814"
334144,"PO BOX 143463","AUSTIN","TX","78714"
334145,"PO BOX 1435","CALDWELL","ID","83606"
334146,"PO BOX 1435","GEORGE WEST","TX","78022"
334147,"PO BOX 1435","IOWA CITY","IA","52244"
334148,"PO BOX 1435","MASON","TX","76856"
334149,"PO BOX 1435","TROUT CREEK","MT","59874"
334150,"PO BOX 14350","HOUSTON","TX","77221"
334151,"PO BOX 14358","OKLAHOMA CITY","OK","73113"
334152,"PO BOX 1436","BUFFALO","NY","14210"
334153,"PO BOX 1436","CLIFTON","NJ","07015"
334154,"PO BOX 1436","EDMONDS","WA","98020"
334155,"PO BOX 1436","GLEN ALLEN","VA","23060"
334156,"PO BOX 1436","LEONARDTOWN","MD","20650"
334157,"PO BOX 1436","NEW YORK","NY","10159"
334158,"PO BOX 1436","RIALTO","CA","92377"
334159,"PO BOX 14364","COLUMBUS","OH","43214"
334160,"PO BOX 14365","OKLAHOMA CITY","OK","73113"
334161,"PO BOX 1437","CAMPBELL","CA","95009"
334162,"PO BOX 1437","MULBERRY","FL","33860"
334163,"PO BOX 1438","BATTLEGROUND","WA","98604"
334164,"PO BOX 1438","GRAND RAPIDS","MI","49501"
334165,"PO BOX 1438","HAINES","AK","99827"
334166,"PO BOX 143801","FAYETTEVILLE","GA","30214"
334167,"PO BOX 14382","PHOENIX","AZ","85063"
334168,"PO BOX 14385","ST PAUL","MN","55114"
334169,"PO BOX 14388","HUM","TX","77347"
334170,"PO BOX 143981","FAYETTEVILLE","GA","30214"
334171,"PO BOX 143991","ARECIBO","PR","00614"
334172,"PO BOX 144","ARDMORE","OK","73402"
334173,"PO BOX 144","BEAN STATION","TN","37708"
334174,"PO BOX 144","BEAVER FALLS","PA","15010"
334175,"PO BOX 144","BIG SANDY","TN","38221"
334176,"PO BOX 144","BOW","WA","98232"
334177,"PO BOX 144","CANTERBURY","NH","03224"
334178,"PO BOX 144","CHARLES TOWN","WV","25414"
334179,"PO BOX 144","CLAYTON","OH","45315"
334180,"PO BOX 144","COPPER HARBOR","MI","49918"
334181,"PO BOX 144","DELAWARE","OH","43015"
334182,"PO BOX 144","DENNISON","OH","44621"
334183,"PO BOX 144","FORTUNA","CA","95540"
334184,"PO BOX 144","FRENCHTOWN","MT","59834"
334185,"PO BOX 144","GARDINER","ME","04345"
334186,"PO BOX 144","GORIN","MO","63543"
334187,"PO BOX 144","HARVEST","AL","35749"
334188,"PO BOX 144","HOLBROOK","AZ","86025"
334189,"PO BOX 144","HOUTZDALE","PA","16651"
334190,"PO BOX 144","HOWARD CITY","MI","49329"
334191,"PO BOX 144","JACKSONVILLE","NC","28541"
334192,"PO BOX 144","JEFFERSONVILLE","KY","40337"
334193,"PO BOX 144","KENANSVILLE","NC","28349"
334194,"PO BOX 144","KENT CITY","MI","49330"
334195,"PO BOX 144","MARTINS CREEK","PA","18063"
334196,"PO BOX 144","MILLERSBURG","OH","44654"
334197,"PO BOX 144","MINNEAPOLIS","NC","28652"
334198,"PO BOX 144","MONTROSE","NY","10548"
334199,"PO BOX 144","NEWBERRY","FL","32669"
334200,"PO BOX 144","NEWLAND","NC","28657"
334201,"PO BOX 144","ONAGA","KS","66521"
334202,"PO BOX 144","PALMER","MA","01069"
334203,"PO BOX 144","PETROLIA","CA","95558"
334204,"PO BOX 144","PICKRELL","NE","68422"
334205,"PO BOX 144","PORTAGEVILLE","MO","63873"
334206,"PO BOX 144","RICHMOND","IN","47374"
334207,"PO BOX 144","SANTA ANA","CA","92702"
334208,"PO BOX 144","SHAW","MS","38773"
334209,"PO BOX 144","SHAWNEE","OK","74802"
334210,"PO BOX 144","SIMLA","CO","80835"
334211,"PO BOX 144","STANTON","MO","63079"
334212,"PO BOX 144","SUNSET","TX","76270"
334213,"PO BOX 144","VINTONDALE","PA","15961"
334214,"PO BOX 144","VIRGINIA","MN","55792"
334215,"PO BOX 144","W BOXFORD","MA","01885"
334216,"PO BOX 144","WINDSOR","CA","95492"
334217,"PO BOX 144","WYOLA","MT","59089"
334218,"PO BOX 144","ZACHARY","LA","70791"
334219,"PO BOX 1440","DEARBORN","MI","48121"
334220,"PO BOX 1441","BELLEVUE","WA","98009"
334221,"PO BOX 1441","LITTLE ROK","AR","72203"
334222,"PO BOX 1441","RIVERVIEW","FL","33568"
334223,"PO BOX 1442","CONLEY","GA","30288"
334224,"PO BOX 1442","EDINBURG","TX","78440"
334225,"PO BOX 1442","LODI","CA","95241"
334226,"PO BOX 1442","MCDONOUGH","GA","30253"
334227,"PO BOX 1442","ROGERS","AR","72757"
334228,"PO BOX 1442","WOOSTER","OH","44691"
334229,"PO BOX 14422","MONROE","LA","71207"
334230,"PO BOX 1443","GREAT FALLS","MT","59403"
334231,"PO BOX 1443","KANEOHE","HI","96744"
334232,"PO BOX 1443","ROSENBERG","TX","77471"
334233,"PO BOX 14434","TALLAHASSEE","FM","32317"
334234,"PO BOX 14437","JACKSONVILLE","FL","32238"
334235,"PO BOX 1444","BOWIE","TX","76230"
334236,"PO BOX 1444","HOUMA","LA","70364"
334237,"PO BOX 1444","PRINCE GEORGE","VA","23875"
334238,"PO BOX 14442","TALLAHASSEE","FL","32317"
334239,"PO BOX 14444","TULSA","OK","74104"
334240,"PO BOX 1445","ANDERSON","SC","29622"
334241,"PO BOX 1445","BLUE RIDGE","GA","30513"
334242,"PO BOX 1445","COPPERAS COVE","TX","76522"
334243,"PO BOX 1445","RALEIGH","NC","27602"
334244,"PO BOX 1445","SCARBOROUHG","ME","04070"
334245,"PO BOX 14457","CLEVELAND","OH","44114"
334246,"PO BOX 1446","MCCALL","ID","83638"
334247,"PO BOX 1446","PASADENA","MD","21123"
334248,"PO BOX 1446","SAN CARLOS","CA","94070"
334249,"PO BOX 14463","SAN FRANCISCO","CA","94114"
334250,"PO BOX 1447","WAILUKU","HI","96793"
334251,"PO BOX 14477","SAN FRANCISCO","CA","94114"
334252,"PO BOX 1448","LAWRENCEVILLE","GA","30046"
334253,"PO BOX 14482","OLYMPIA","WA","98511"
334254,"PO BOX 14485","NEW BERN","NC","28561"
334255,"PO BOX 144970","CORAL GABLES","FL","33114"
334256,"PO BOX 145","AUBURN","IN","46706"
334257,"PO BOX 145","BLUE RIDGE","VA","24064"
334258,"PO BOX 145","CEDAR BROOK","NJ","08018"
334259,"PO BOX 145","CHESTER","WV","26034"
334260,"PO BOX 145","CLARENCE","MO","63437"
334261,"PO BOX 145","EAGLE POINT","OR","97524"
334262,"PO BOX 145","FERGUS FALLS","MN","56538"
334263,"PO BOX 145","GORHAM","ME","04038"
334264,"PO BOX 145","HARDEEVILLE","SC","29927"
334265,"PO BOX 145","ISLIP","NY","11751"
334266,"PO BOX 145","LEBANON","OH","45036"
334267,"PO BOX 145","LEXINGTON","KY","40588"
334268,"PO BOX 145","LITTLETOWN","PA","17340"
334269,"PO BOX 145","LOVINGSTON","VA","22949"
334270,"PO BOX 145","LYNDEN","WA","98264"
334271,"PO BOX 145","OAKVILLE","WA","98568"
334272,"PO BOX 145","PORTLAND","ME","04112"
334273,"PO BOX 145","PROSPERITY","SC","29127"
334274,"PO BOX 145","RANDOM LAKE","WI","53075"
334275,"PO BOX 145","RATON","NM","87740"
334276,"PO BOX 145","READLYN","IA","50668"
334277,"PO BOX 145","RENSSELAERVILLE","NY","12147"
334278,"PO BOX 145","SANTA ANA","CA","92702"
334279,"PO BOX 145","SESSER","IL","62884"
334280,"PO BOX 145","SOMERSET","OH","43783"
334281,"PO BOX 145","SPERRYVILLE","VA","22740"
334282,"PO BOX 145","STANHOPE","NJ","07874"
334283,"PO BOX 145","SULPHUR SPRINGS","AR","72768"
334284,"PO BOX 145","VALLEY SPRINGS","SD","57068"
334285,"PO BOX 145","WEST WAREHAM","MA","02576"
334286,"PO BOX 145","WHITE RIVER JUNCTION","VT","05001"
334287,"PO BOX 145","YELLOW SPRINGS","OH","45387"
334288,"PO BOX 145","YORKTOWN","IN","47396"
334289,"PO BOX 1450","HAYFORK","CA","96041"
334290,"PO BOX 1450","HIGHLANDS","NC","28741"
334291,"PO BOX 1450","JACKSON","MS","39215"
334292,"PO BOX 1450","OJAI","CA","93024"
334293,"PO BOX 1450","RUSSELL SPRINGS","KY","42642"
334294,"PO BOX 1451","ELMHURST","IL","60126"
334295,"PO BOX 1451","FOLLY BEACH","SC","29439"
334296,"PO BOX 1451","HINDMAN","KY","41822"
334297,"PO BOX 1451","HONOLULU","HI","96806"
334298,"PO BOX 1451","KAILUA KONA","HI","96745"
334299,"PO BOX 14512","RALEIGH","NC","27620"
334300,"PO BOX 1452","CLAYTON","NC","27528"
334301,"PO BOX 1452","CORNVILLE","AZ","86325"
334302,"PO BOX 1452","DES MOINES","IA","50305"
334303,"PO BOX 1452","EL CAJON","CA","92022"
334304,"PO BOX 1452","GONZALES","LA","70707"
334305,"PO BOX 1452","HOWE","TX","75459"
334306,"PO BOX 1452","LUQUILLO","PR","00773"
334307,"PO BOX 1452","MONTICELLO","NY","12701"
334308,"PO BOX 1452","OWINGS MILLS","MD","21117"
334309,"PO BOX 14522","CLEVELAND","OH","44114"
334310,"PO BOX 14523","HOUSTON","TX","77221"
334311,"PO BOX 14523","SEATTLE","WA","98114"
334312,"PO BOX 1453","AUBURN","AL","36352"
334313,"PO BOX 1453","HAYDEN","ID","83835"
334314,"PO BOX 1453","LOXAHATCHEE","FL","33470"
334315,"PO BOX 1453","PRINEVILLE","OR","97754"
334316,"PO BOX 1453","VERNAL","UT","84078"
334317,"PO BOX 1453","VERSAILLES","KY","40383"
334318,"PO BOX 14539","COLUMBUS","OH","43214"
334319,"PO BOX 1454","AUBURN","AL","36831"
334320,"PO BOX 1454","DOLORES","CO","81323"
334321,"PO BOX 1454","FULTON","TX","78358"
334322,"PO BOX 1454","HANOVER","PA","17331"
334323,"PO BOX 1454","MARION","SC","29571"
334324,"PO BOX 1454","MOUNT JULIET","TN","37121"
334325,"PO BOX 1454","STILWELL","OK","74960"
334326,"PO BOX 14542","EAST PROVIDENCE","RI","02914"
334327,"PO BOX 1455","BEAVERTON","OR","97075"
334328,"PO BOX 1455","BURLINGAME","CA","94010"
334329,"PO BOX 1455","GAYLORD","MI","49734"
334330,"PO BOX 1455","OCEAN CITY","MD","21843"
334331,"PO BOX 1455","SAN MARTIN","CA","95046"
334332,"PO BOX 1455","WATERVILLE","ME","04903"
334333,"PO BOX 14556","SEATTLE","WA","98114"
334334,"PO BOX 1456","HEWITT","TX","76643"
334335,"PO BOX 1456","MAGALIA","CA","95954"
334336,"PO BOX 1456","MISSOULA","MT","59806"
334337,"PO BOX 1456","ROSWELL","NM","88202"
334338,"PO BOX 1456","ST CHARLES","MO","63302"
334339,"PO BOX 1456","VALPARAISO","IN","46384"
334340,"PO BOX 14560","SAVANNAH","GA","31416"
334341,"PO BOX 14565","BATON ROUGE","LA","70898"
334342,"PO BOX 1457","NEDERLAND","CO","80466"
334343,"PO BOX 1457","RIVERVIEW","FL","33569"
334344,"PO BOX 14576","CHARLESTON","SC","29422"
334345,"PO BOX 14576","PHILADELPHIA","PA","19155"
334346,"PO BOX 14577 780 MOROSGO DR NE","ATLANTA","GA","30324"
334347,"PO BOX 1458","AGUADA","PR","00602"
334348,"PO BOX 1458","BASTROP","TX","78602"
334349,"PO BOX 1458","CORVALLIS","OR","97339"
334350,"PO BOX 14582","FORT LAUDERDALE","FL","33302"
334351,"PO BOX 1459","FRESNO","TX","77545"
334352,"PO BOX 1459","ISLAMORADA","FL","33036"
334353,"PO BOX 14592","LENEXA","KS","66285"
334354,"PO BOX 14597","RICHMOND","VA","23221"
334355,"PO BOX 145B","MIAMI","OK","74355"
334356,"PO BOX 146","BARRINGTON","NH","03825"
334357,"PO BOX 146","BLANCO","TX","78606"
334358,"PO BOX 146","BUTNER","NC","27509"
334359,"PO BOX 146","CALMAR","IA","52132"
334360,"PO BOX 146","CHAMBERSBURG","PA","17201"
334361,"PO BOX 146","DUNDEE","FL","33838"
334362,"PO BOX 146","EAST NORTHPORT","NY","11731"
334363,"PO BOX 146","EDGARD","LA","70049"
334364,"PO BOX 146","ENFIELD","CT","06083"
334365,"PO BOX 146","ERIN","TN","37061"
334366,"PO BOX 146","FELDA","FL","33930"
334367,"PO BOX 146","FRANKLIN SQUARE","NY","11010"
334368,"PO BOX 146","HEFLIN","AL","36264"
334369,"PO BOX 146","INVERNESS","FL","34451"
334370,"PO BOX 146","KARTHAUS","PA","16845"
334371,"PO BOX 146","KOOSKIA","ID","83539"
334372,"PO BOX 146","LAKEVIEW","AR","72642"
334373,"PO BOX 146","MERRIMAC","MA","01860"
334374,"PO BOX 146","PALISADES PARK","NJ","07650"
334375,"PO BOX 146","ROCKVILLE","IN","47872"
334376,"PO BOX 146","RONALD","WA","98940"
334377,"PO BOX 146","SAMSON","AL","36477"
334378,"PO BOX 146","SISSETON","SD","57262"
334379,"PO BOX 146","STOCKTON","MO","65785"
334380,"PO BOX 146","TURLOCK","CA","95380"
334381,"PO BOX 146","WASHINGTON","KS","66968"
334382,"PO BOX 1460","NOKOMIS","FL","34274"
334383,"PO BOX 1460","TAYLORS","SC","29687"
334384,"PO BOX 14606","SPRINGFIELD","MO","65814"
334385,"PO BOX 1461  116 NORTH WADE AVE","WASHINGTON","PA","15301"
334386,"PO BOX 1461","MOREHEAD","KY","40351"
334387,"PO BOX 1461","ROYAL OAK","MI","48068"
334388,"PO BOX 1461","TROY","MI","48099"
334389,"PO BOX 1461","WILLIAMSTON","NC","27892"
334390,"PO BOX 14615","OKLAHOMA CITY","OK","73113"
334391,"PO BOX 14616","ARLINGTON","TX","76094"
334392,"PO BOX 1462","BRUNSWICK","GA","31521"
334393,"PO BOX 1462","CRAWFORDVILLE","FL","32327"
334394,"PO BOX 1462","DAVIDSON","NC","28036"
334395,"PO BOX 1462","RACINE","WI","53401"
334396,"PO BOX 1462","SEASIDE","CA","93955"
334397,"PO BOX 14625","MADISON","WI","53708"
334398,"PO BOX 14635","MADISON","WI","53708"
334399,"PO BOX 1464","BOISE","ID","83701"
334400,"PO BOX 1464","CARTERSVILLE","GA","30120"
334401,"PO BOX 1464","KAILUA KONA","HI","96745"
334402,"PO BOX 1464","KURTISTOWN","HI","96760"
334403,"PO BOX 1464","LIC","NY","11101"
334404,"PO BOX 1464","PARAGOULD","AR","72451"
334405,"PO BOX 1464","RINCON","GA","31326"
334406,"PO BOX 1464","ST FRANCISVILLE","LA","70775"
334407,"PO BOX 14643","CINCINNATI","OH","45250"
334408,"PO BOX 1465","ABERDEEN","WA","98520"
334409,"PO BOX 1465","BALLWIN","MO","63011"
334410,"PO BOX 1465","COLUMBIA","MD","21044"
334411,"PO BOX 1465","KING GEORGE","VA","22485"
334412,"PO BOX 14653","LAKE WORTH","FL","33408"
334413,"PO BOX 14653","VAN NUYS","CA","91409"
334414,"PO BOX 1466","ARLINGTON","MA","02474"
334415,"PO BOX 1466","BELLMAWR","NJ","08031"
334416,"PO BOX 1466","CONVERSE","TX","78109"
334417,"PO BOX 1466","GREENWOOD","IN","46142"
334418,"PO BOX 1466","MESA","AZ","85211"
334419,"PO BOX 14665","LONG BEACH","CA","90853"
334420,"PO BOX 14667","GREENSBORO","NC","27415"
334421,"PO BOX 1467","SARATOGA SPRINGS","NY","12866"
334422,"PO BOX 14674","BATON ROUGE","LA","70898"
334423,"PO BOX 1468","BOQUERON","PR","00622"
334424,"PO BOX 1468","MCMINNVILLE","OR","97128"
334425,"PO BOX 1468","NEWBERRY","FL","32669"
334426,"PO BOX 14682","LONG BEACH","CA","90853"
334427,"PO BOX 14683","SPOKANE","WA","99214"
334428,"PO BOX 147 19916 OLD OWEN RD","MONROE","WA","98272"
334429,"PO BOX 147","ATHOL SPRINGS","NY","14010"
334430,"PO BOX 147","BLUEFIELD","VA","24605"
334431,"PO BOX 147","BOVEY","MN","55709"
334432,"PO BOX 147","CONDON","OR","97823"
334433,"PO BOX 147","CONSTANTINE","MI","49042"
334434,"PO BOX 147","EGG HARBOR","WI","54209"
334435,"PO BOX 147","ELKHART","IL","62634"
334436,"PO BOX 147","ELYRIA","OH","44036"
334437,"PO BOX 147","GUNTOWN","MS","38849"
334438,"PO BOX 147","HOLDEN","ME","04429"
334439,"PO BOX 147","METAMORA","MI","48455"
334440,"PO BOX 147","OWENSVILLE","MO","65066"
334441,"PO BOX 147","PAULINE","SC","29374"
334442,"PO BOX 147","ROWLETT","TX","75030"
334443,"PO BOX 147","SHAWANO","WI","54166"
334444,"PO BOX 147","SLATERSVILLE","RI","02876"
334445,"PO BOX 147","TARBORO","NC","27886"
334446,"PO BOX 147","TWENTYNINE PALMS","CA","92277"
334447,"PO BOX 147","WILTON","NH","03086"
334448,"PO BOX 147","WINDSOR","ME","04363"
334449,"PO BOX 147","ZIONSVILLE","IN","46077"
334450,"PO BOX 1470","BADIN","NC","28009"
334451,"PO BOX 14701","AUGUSTA","GA","30919"
334452,"PO BOX 14701","BRADENTON","FL","34280"
334453,"PO BOX 14708","PORTLAND","OR","97293"
334454,"PO BOX 1471","BENICIA","CA","94510"
334455,"PO BOX 1471","BLUE RIDGE","GA","30513"
334456,"PO BOX 1471","HILLIARD","OH","43026"
334457,"PO BOX 1471","LEVITTOWN","PA","19058"
334458,"PO BOX 1471","MAUMEE","OH","43537"
334459,"PO BOX 1471","MILLBROOK","AL","36054"
334460,"PO BOX 1471","PLANT CITY","FL","33564"
334461,"PO BOX 1472 - 2201 SHORELINE DRIVE","ALAMEDA","CA","94501"
334462,"PO BOX 1472","ANAHEIM","CA","92815"
334463,"PO BOX 1472","EATON PARK","FL","33840"
334464,"PO BOX 1472","FORESTHILL","CA","95631"
334465,"PO BOX 1472","LANDER","WY","82520"
334466,"PO BOX 1472","WAYNESVILLE","NC","28786"
334467,"PO BOX 14723","GREENSBORO","NC","27415"
334468,"PO BOX 14728","LONG BEACH","CA","90803"
334469,"PO BOX 1473","FAIRBURN","GA","30213"
334470,"PO BOX 1473","NOBLESVILLE","IN","46061"
334471,"PO BOX 1473","PANHANDLE","TX","79068"
334472,"PO BOX 1473","SILVER CITY","NM","88062"
334473,"PO BOX 1473","SUFFOLK","VA","23439"
334474,"PO BOX 1474","CHEYENNE","WY","82003"
334475,"PO BOX 1474","GEORGETOWN","KY","40324"
334476,"PO BOX 1474","TRAVELERS REST","SC","29690"
334477,"PO BOX 1475","CLEMSON","SC","29633"
334478,"PO BOX 1475","MEMPHS","TN","38101"
334479,"PO BOX 1475","STOW","OH","44224"
334480,"PO BOX 14751","SCOTTSDALE","AZ","85267"
334481,"PO BOX 14754","PITTSBURGH","PA","15234"
334482,"PO BOX 14755","TUMWATER","WA","98511"
334483,"PO BOX 1476","ASTORIA","OR","97103"
334484,"PO BOX 1476","CHOCTAW","OK","73020"
334485,"PO BOX 1476","OKLAHOMA CITY","OK","73101"
334486,"PO BOX 1476","PENA BLANCA","NM","87041"
334487,"PO BOX 14766","TUCSON","AZ","85732"
334488,"PO BOX 1477","BOWIE","TX","76230"
334489,"PO BOX 1477","BOWLING GREEN","KY","42102"
334490,"PO BOX 1477","FOLSOM","CA","95763"
334491,"PO BOX 1477","GRANTS PASS","OR","97528"
334492,"PO BOX 1477","STEPHENS CITY","VA","22655"
334493,"PO BOX 1477","TITUSVILLE","FL","32780"
334494,"PO BOX 14774","HUMBLE","TX","77347"
334495,"PO BOX 1479","MARIPOSA","CA","95338"
334496,"PO BOX 1479","SORRENTO","FL","32776"
334497,"PO BOX 14794","LENEXA","KS","66285"
334498,"PO BOX 148","COUSHATTA","LA","71019"
334499,"PO BOX 148","DOUGLASVILLE","GA","30133"
334500,"PO BOX 148","HOPE MILLS","NC","28348"
