"ID","Address","City","State","Zip"
264501,"64 FRY POND RD","WEST GREENWICH","RI","02817"
264502,"64 FULTON STREET SUITE 505","NEW YORK","NY","10038"
264503,"64 GARWOOD COURT NORTH","GARFIELD","NJ","07026"
264504,"64 GHUSTE DRIVE","MORGANTOWN","WV","26508"
264505,"64 GLIDER AVENUE","HAZARD","KY","41701"
264506,"64 GRANT AVE","DUMONT","NJ","07628"
264507,"64 GREEN VALLEY DR","CHURCHVILLE","PA","18966"
264508,"64 GREENBURY POINT RD","ANNAPOLIS","MD","21402"
264509,"64 HALLS VILLAGE RD","CHESTER","NH","03036"
264510,"64 HALTER ROAD","GLENMONT","NY","12077"
264511,"64 HANNAY LANE","GLENMONT","NY","12077"
264512,"64 HARMONY DRIVE","JOHNSTOWN","PA","15909"
264513,"64 HAWKINS STREET","BRONX","NY","10464"
264514,"64 HAWTHORN AVE","NEEDHAM","MA","02492"
264515,"64 HETZEL RD","WILLIAMSVILLE","NY","14221"
264516,"64 HICKOK STREET","WINOOSKI","VT","05404"
264517,"64 HIGH ST","DANVERS","MA","01923"
264518,"64 HIGH STREET","STRATHAM","NH","03885"
264519,"64 HOLDEN STREET","SHREWSBURY","MA","01545"
264520,"64 HOLMES STREET","QUINCY","MA","02171"
264521,"64 HUNTERS RUN","NEWTOWN SQUARE","PA","19073"
264522,"64 HYDE AVE","PAWTUCKET","RI","02861"
264523,"64 INVERNESS DR","KENDALL PARK","NJ","08824"
264524,"64 JAMES ANDERSON ROAD","FISHERSVILLE","VA","22939"
264525,"64 JESTER LN","LEVITTOWN","NY","11756"
264526,"64 KEALALOA AVENUE","MAKAWAO","HI","96768"
264527,"64 LAKE ROAD","CONGERS","NY","10920"
264528,"64 LANDMARK CT","ESSEX","MD","21221"
264529,"64 LAUREL STREET","ENFIELD","CT","06082"
264530,"64 LENAPE TRAIL","MEDFORD LAKES","NJ","08055"
264531,"64 LENOX STREET","NEWARK","NJ","07106"
264532,"64 LEXINGTON ROAD","SHIRLEY","NY","11967"
264533,"64 LIGHAM STREET","BELLEVILLE","NJ","07109"
264534,"64 LINCOLN AVENUE       APT 7J","NEW ROCHELLE","NY","10801"
264535,"64 LINCOLN ST","WATERTOWN","MA","02472"
264536,"64 LINDEN AVE S","MAPLE LAKE","MN","55358"
264537,"64 LISBON AVE","BUFFALO","NY","14214"
264538,"64 LOCKWOOD AVE","BUFFALO","NY","14220"
264539,"64 LONDON BRIDGE RD","WINDHAM","NH","03087"
264540,"64 LONDON BRIDGE ROAD","WINDHAM","NH","03087"
264541,"64 LONDONBRIDGE RD","WINDHAM","NH","03087"
264542,"64 LONGSHORE STREET","BAYSIDE","NY","11706"
264543,"64 LOWELL ROAD","HUDSON","NH","03051"
264544,"64 LUDLOWE ROAD","NEW CANAAN","CT","06840"
264545,"64 LYNN DRIVE","BYRAM","NJ","07821"
264546,"64 LYONS PLACE","SPRINGFIELD","CA","07081"
264547,"64 MAGNOLIA AVENUE","CRESSKILL","NJ","07626"
264548,"64 MARSHALL LANE","FROSTPROOF","FL","33843"
264549,"64 MARYLAND AVE","ANNAPOLIS","MD","21401"
264550,"64 MATIGNON RD","CAMBRIDGE","MA","02140"
264551,"64 MEADOW DRIVE","MILL VALLEY","CA","94941"
264552,"64 MELBOURNE AVE SE","MINNEAPOLIS","MN","55414"
264553,"64 MIDDLESEX STREET","LOWELL","MA","01852"
264554,"64 MILLS GAP ROAD APT 429","ASHEVILLE","NC","28803"
264555,"64 MORGAN ROAD","WHITMAN","MA","02382"
264556,"64 MUIRFIELD BOULEVARD","MONROE TOWNSHIP","NJ","08831"
264557,"64 MUSE RD PO BOX 1278","WOODSTOCK","NY","12498"
264558,"64 N 24TH AVE","BOZEMAN","MT","59718"
264559,"64 N BRIDGE ST","SOMERVILLE","NJ","08876"
264560,"64 N UNION STREET - SUITE 551","MONTGOMERY","AL","36104"
264561,"64 N WRIGHT AVE","FAIRBORN","OH","45324"
264562,"64 NOBSKA RD","WOODS HOLE","MA","02543"
264563,"64 NORTH MANASSAS STREET","MEMPHIS","TN","38105"
264564,"64 OAK HILL RD","NORTHFIELD","NH","03276"
264565,"64 OAK MEADOW RD","EVANSVILLE","IN","47725"
264566,"64 OAK RIDGE DR","TAYLORSVILLE","KY","40071"
264567,"64 OCEAN AVE","NORTH KINGSTOWN","RI","02852"
264568,"64 OXBOW DRIVE APT C5","GLASTONBURY","CT","06033"
264569,"64 PINE STREET","PITTSTON","PA","18640"
264570,"64 PINE TREE LN","CHADBOURN","NC","28431"
264571,"64 PROBST DRIVE","SHIRLEY","NY","11967"
264572,"64 PUTNAM PARK","FITCHBURG","MA","01420"
264573,"64 RABBIT VALLEY RD","OXFORD","ME","04270"
264574,"64 RANCOURT RD","WINTERPORT","ME","04496"
264575,"64 RANDOLPH DRIVE","DIX HILLS","NY","11746"
264576,"64 RAPPLE DR","ALBANY","NY","12205"
264577,"64 RICE STREET","CAMBRIDGE","MA","02140"
264578,"64 RICHFIELD STREET","PLAINVIEW","NY","11803"
264579,"64 RICHLAND RD","GREENWICH","CT","06830"
264580,"64 RIDGE LN","LEVITTOWN","NY","11756"
264581,"64 RIVERVIEW AVE","CLIFFSIDE PARK","NJ","07010"
264582,"64 ROAD 49031","BLOOMFIELD","NM","87413"
264583,"64 ROANOKE ST","STATEN ISLAND","NY","10314"
264584,"64 ROANOKE STREET","STATEN ISLAND","NY","10314"
264585,"64 ROBERT BEST ROAD","SUDBURY","MA","01776"
264586,"64 S PATTERSON PLACE APT 204","SANNT BARBARA","CA","93111"
264587,"64 SAGAMORE RD APT D8","BRONXVILLE","NY","10708"
264588,"64 SALEM STREET","MEDFORD","MA","02155"
264589,"64 SALISBURY RD","FRANKLIN","NH","03235"
264590,"64 SCOTCH CAP RD UNIT 101","QUAKER HILL","CT","06375"
264591,"64 SEARSVILLE RD","SOUTH DENNIS","MA","02660"
264592,"64 SEAVEY STREET","NORTH CONWAY","NH","03860"
264593,"64 SOUTH PIERSON ROAD","MAPLEWOOD","NJ","07040"
264594,"64 SOUTH ST","CHARLESTON","SC","29403"
264595,"64 SOUTH STREET","HINGHAM","MA","02043"
264596,"64 SOUTHALL COURT","STERLING","VA","20165"
264597,"64 SOUTHFIELD DR","BELLE MEAD","NJ","08502"
264598,"64 SPARROW DRIVE","ROYAL PALM BEACH","FL","33411"
264599,"64 STASIA DR","NOVATO","CA","94947"
264600,"64 STEEP HILL RD","WESTON","CT","06883"
264601,"64 STOCKER ROAD","ESSEX FELLS","NJ","07021"
264602,"64 STUART AVE","VALLEY STREAM","NY","11580"
264603,"64 STUMPFIELD RD","CONTOOCOOK","NH","03229"
264604,"64 SUMMER ST 1ST F","PASSAIC","NJ","07055"
264605,"64 SUMMIT AVE","JERSEY CITY","NJ","07304"
264606,"64 SUMMIT PLACE","HAWORTH","NJ","07641"
264607,"64 SURREY LANE","EAST BRIDGWATER","MA","02333"
264608,"64 SUSSEX RD","ROCHESTER","NY","14623"
264609,"64 SYCOLIN ROAD/ SE / SUITE C","LEESBURG","VA","20175"
264610,"64 TEDESCO ST","MARBLEHEAD","MA","01945"
264611,"64 TITUS AVE","BUFFALO","NY","14212"
264612,"64 VERSAILLES BLVD","CHERRY HILL","NJ","08003"
264613,"64 W 23RD ST","RIVIERA BEACH","FL","33404"
264614,"64 WALDO ST","RANDOLPH","MA","02368"
264615,"64 WALL ST","MASON","TN","38049"
264616,"64 WALL STREET SUITE 401","NORWALK","CT","06850"
264617,"64 WALLINGFORD ROAD","BRIGHTON","MA","02135"
264618,"64 WALNUT AVE","RED BANK","NJ","07701"
264619,"64 WAYNE STREET","JERSEY CITY","NJ","07302"
264620,"64 WEST 128TH STREET","NEW YORK","NY","10027"
264621,"64 WEST 35TH STREET 2ND FLOOR","NEW YORK","NY","10001"
264622,"64 WEST MAIN ST","NEWARK","OH","43055"
264623,"64 WEST MAIN STREET","NORTON","MA","02766"
264624,"64 WEST ST","BRISTOL","CT","06010"
264625,"64 WILDWOOD DRIVE","BEDFORD","MA","01730"
264626,"64-05 YELLOWSTONE BLVD APT306","FOREST HILLS","NY","11375"
264627,"64-34 MYRTLE AVENUE","GLENDALE","NY","11385"
264628,"64-5215 PUU NOHEA ST","WAIMEA","HI","96743"
264629,"64","MARYSVILLE","WA","98270"
264630,"64","RICHMOND HILL","GA","31324"
264631,"640 12 TH AVENUE APT 6","CORALVILLE","IA","52241"
264632,"640 14TH AVENUE","SANTA CRUZ","CA","95062"
264633,"640 24 1/2 ROAD","GRAND JUNCTION","CO","81505"
264634,"640 2ND AVE","DIXON","IL","61021"
264635,"640 2ND AVENUE NORTH","GLASGOW","MT","59230"
264636,"640 2ND STREET","SOMERS POINT","NJ","08244"
264637,"640 59TH STREET","WEST PALM BEACH","FL","33407"
264638,"640 A EUREKA AVENUE","RENO","NV","89512"
264639,"640 A1 CRESPI DR","PACIFICA","AR","94044"
264640,"640 AIRLIFT DR BLDG 381 F-WING","TRAVIS AFB","CA","94535"
264641,"640 ALDREA VISTA COURT","PALISADE","CO","81526"
264642,"640 AMHERST ROAD","LINDEN","NJ","07036"
264643,"640 AMSTERDAM AVE","TOMS RIVER","NJ","08757"
264644,"640 ARAPAHOE AVENUE UNIT 1","BOULDER","CO","80302"
264645,"640 AUTUMN VALLEY DR","ORTONVILLE","MI","48462"
264646,"640 B ANCHORS ST NW","FORT WALTON BEACH","FL","32548"
264647,"640 B AVENUE","CORONADO","CA","92118"
264648,"640 BAILEY RD STE 170","PITTSBURG","CA","94565"
264649,"640 BAILEY ROAD SUITE 129","BAY POINT","CA","94565"
264650,"640 BAILEY ROAD UNIT 446","BAY POINT","CA","94565"
264651,"640 BAYWAY BLVD 104","CLEARWATER BEACH","FL","33767"
264652,"640 BERCUT DRIVE","SACRAMENTO","CA","95811"
264653,"640 BIRCH ROAD","XENIA","OH","45385"
264654,"640 BRIGHTON AVENUE","PORTLAND","ME","04102"
264655,"640 BROOKGREEN PLACE","MCDONOUGH","GA","30252"
264656,"640 BROWN BEAR COURT","SAINT CLOUD","FL","34772"
264657,"640 CANE CREEK MOUNTAIN ROAD","TELLICO PLAINS","TN","37385"
264658,"640 CEDAR STREET","MASON","MI","48854"
264659,"640 CENTRAL AVE","VALLEJO","CA","94590"
264660,"640 CENTRE AVENUE","READING","PA","19601"
264661,"640 CENTRE AVEUE","READING","PA","19601"
264662,"640 CLEMATIS STREET    UNIT 701","WEST PALM BEACH","FL","33402"
264663,"640 COLOR COVE ROAD","SEDONA","AZ","86336"
264664,"640 COYOTE TRAIL","ELIZABETH","CO","80107"
264665,"640 CREEKWOOD TRAIL NORTHEAST","MARIETTA","GA","30068"
264666,"640 CYPRESS POINT DR EAST","PEMBROKE PINES","FL","33027"
264667,"640 DAVIS AVE E BLDG 4173","BARKSDALE AFB","LA","71110"
264668,"640 DELWOOD DRIVE","AUBURN","AL","36830"
264669,"640 DITMAS AVE APT 16","BROOKLYN","NY","11218"
264670,"640 DOGWOOD AVENUE","BIRD ISLAND","MN","55310"
264671,"640 DOWFIELD DRIVE","FAYETTEVILLE","NC","28311"
264672,"640 DR MARY MCLEOD BETHUNE BLVD","DAYTONA BEACH","FL","32114"
264673,"640 E 1900 N","NORTH OGDEN","UT","84414"
264674,"640 E CATAWBA AVE","AKRON","OH","44306"
264675,"640 E MEGAN ST","CHANDLER","AZ","85225"
264676,"640 E NANCE ST","MESA","AZ","85203"
264677,"640 E PALO VERDE STREET","CASA GRANDE","AZ","85122"
264678,"640 EAST 3RD AVENUE","DURANGO","CO","81301"
264679,"640 ELLICOTT STREET SUITE 403","BUFFALO","NY","14203"
264680,"640 ELLICOTT STREET SUITE 4B","BUFFALO","NY","14203"
264681,"640 ELLIOCOTT ST SUITE 401","BUFFALO","NY","14203"
264682,"640 EXCHANGE AVE","CALUMET CITY","IL","60409"
264683,"640 FOREST AVE","ELGIN","IL","60120"
264684,"640 FURLONG AVE","HAVERTOWN","PA","19083"
264685,"640 HOLLY GROVE DR","RANDLEMAN","NC","27317"
264686,"640 HWY 138 SW","RIVERDALE","GA","30274"
264687,"640 IRONWOOD DRIVE","BOWLING GREEN","KY","42103"
264688,"640 ISLAND CIRCLE SE","OCEAN SHORES","WA","98569"
264689,"640 IVY LEAGUE","ROCKVILLE","MD","20850"
264690,"640 JACANA CIRCLE","NAPLES","FL","34105"
264691,"640 LAKELAND EAST DRIVE SUITE E","FLOWOOD","MS","39232"
264692,"640 LANCE DRIVE","SILVER CITY","NM","88061"
264693,"640 LAUREL OAKE LANE UNIT 204","ALTAMONTE SPRINGS","FL","32701"
264694,"640 LENA DRIVE","HOSCHTON","GA","30548"
264695,"640 LORING ST","SAN DIEGO","CA","92109"
264696,"640 MAIN ST","SACRAMENTO","KY","42372"
264697,"640 MAIN STREET","MALDEN","MA","02148"
264698,"640 MILLSTREAM","REXBURG","ID","83440"
264699,"640 MORRISON SPRINGS RD","CHATTANOOGA","TN","37415"
264700,"640 N 9TH ST","COTTAGE GROVE","OR","97424"
264701,"640 N BROAD ST APT 922","PHILADELPHIA","PA","19130"
264702,"640 N BROAD ST SUITE 812","PHILADELPHIA","PA","19130"
264703,"640 N CHURCH STREET - 2304","CHARLOTTE","NC","28202"
264704,"640 N CLEMATIS STREET SUITE 2114","WEST PALM BEACH","FL","33402"
264705,"640 N LASALLE DR","CHICAGO","IL","60654"
264706,"640 N MELBORN","DEARBORN","MI","48128"
264707,"640 N STONE AVE","TUCSON","AZ","85705"
264708,"640 NE 3RD PL","HIALEAH","FL","33010"
264709,"640 NEW WELL COURT","LATHROP","CA","95330"
264710,"640 NORTH AVENUE","ATLANTA","GA","30318"
264711,"640 NW 107TH AVENUE","PLANTATION","FL","33324"
264712,"640 NW 3RD WAY","DEERFIELD BEACH","FL","33441"
264713,"640 NW 68TH PL","OCALA","FL","34475"
264714,"640 OLD AIRPORT RD 207","AIKEN","SC","29801"
264715,"640 OLD AIRPORT RD","AIKEN","SC","29801"
264716,"640 OLD BACK RIVER ROAD","GOOSE CREEK","SC","29445"
264717,"640 PARK PLACE","NIAGARA FALLS","NY","14301"
264718,"640 PARRISH LANE","NIXA","MO","65714"
264719,"640 PARSONS DRIVE","BESSEMER","AL","35023"
264720,"640 POLLARD ST","JASPER","TX","75951"
264721,"640 PRISCILLA LN","DESOTO","TX","75114"
264722,"640 PYRAMID PEAK ST","BERTHOUD","CO","80513"
264723,"640 RETTUS CT","SAN JOSE","CA","95111"
264724,"640 RYDER CUP LN","CLEMMONS","NC","27012"
264725,"640 S 15TH STREET","LOUISVILLE","KY","40203"
264726,"640 S 1ST ST","MOUNT HOREB","WI","53572"
264727,"640 S SCENIC HWY","LAKE WALES","FL","33853"
264728,"640 S VINE AVE","ONTARIO","CA","91762"
264729,"640 SANDY HOOK CT","FOSTER CITY","CA","94404"
264730,"640 SE MONTEIRO DRIVE","PORT SAINT LUCIE","FL","34984"
264731,"640 SOUTH 4TH STREET","MURRAY","KY","42071"
264732,"640 SOUTH 6TH STREET","ARKADELPHIA","AR","71923"
264733,"640 SOUTH ACE","SECANE","PA","19018"
264734,"640 SOUTH HILL STREET SUITE 560","LOS ANGELES","CA","90014"
264735,"640 SOUTH SPLIT ROCK ROAD","BENNETT","CO","80102"
264736,"640 SOUTH SPRINGFIELD AVENUE","SPRINGFIELD","NJ","07081"
264737,"640 STATE HIGHWAY 3","HARRISVILLE","NY","13648"
264738,"640 SUNSET DR","MT. ZION","IL","62549"
264739,"640 SW 4TH AVE","ONTARIO","OR","97914"
264740,"640 TAYLOR ROAD APT 14","HINESVILLE","GA","31313"
264741,"640 TWELVE OAKS RD","JAMESTOWN","TN","38556"
264742,"640 VICTORIA STATION BLVD","LAWRENCEVILLE","GA","30043"
264743,"640 VILLAGE SQUARE DRIVE","HAZELWOOD","MO","63042"
264744,"640 W 237TH ST APT 5C","BRONX","NY","10463"
264745,"640 W 69TH TERRACE","KANSAS CITY","MO","64113"
264746,"640 W CALIFORNIA AVE","SUNNYVALE","CA","94086"
264747,"640 W GERMANTOWN PIKE  STE 460","PLYMOUTH MEETING","PA","19462"
264748,"640 W MYRTLE DR","CHANDLER","AZ","85248"
264749,"640 W WHIDDEN STREET","ARCADIA","FL","34266"
264750,"640 W WILSON ST","POMONA","CA","91768"
264751,"640 WEDNESBURY RD","ALPHARETTA","GA","30022"
264752,"640 WEST 153 STREET A7","NEW YORK","NY","10031"
264753,"640 WEST NORMAN AVE","ARCADIA","CA","91007"
264754,"640 WEST RICHARDSON STREET","OXFORD","GA","30054"
264755,"640 WEST WAVELAND APT 2E","CHICAGO","IL","60613"
264756,"6400 54TH AVE S","FARGO","ND","58104"
264757,"6400 57TH STREET","VERO BEACH","FL","32967"
264758,"6400 ADDIE COURT","CLINTON","MD","20735"
264759,"6400 AVONDALE DRIVE SUITE 200","OKLAHOMA CITY","OK","73116"
264760,"6400 BALTIMORE NATIONAL PIKE","BALTIMORE","MD","21228"
264761,"6400 BALTIMORE NATL PIKE STE 265","CATONSVILLE","MD","21228"
264762,"6400 CANOGA AVE SUITE 312","WOODLAND HILLS","CA","91367"
264763,"6400 CHESHIRE DRIVE","AMARILLO","TX","79109"
264764,"6400 CLOISTER GATE DR","BALTIMORE","MD","21212"
264765,"6400 CONGRESS AVE STE 1650","BOCA RATON","FL","33487"
264766,"6400 DANWOOD DR","AUSTIN","TX","78759"
264767,"6400 DEARBORN DRIVE","MISSION","KS","66202"
264768,"6400 E THOMAS RD UNIT 3015","SCOTTSDALE","AZ","85251"
264769,"6400 EAST ROCKHILL CT","CAMBY","IN","46113"
264770,"6400 GISHOLT DR STE 209","MONONA","WI","53713"
264771,"6400 MAGNOLIA PLACE CT S","MOBIEL","AL","36695"
264772,"6400 MALLARD DR","NINEVEH","IN","46164"
264773,"6400 MORNING TIME LANE","CLARKSVILLE","MD","21029"
264774,"6400 N LONDON AVE","KANSAS CITY","MO","64151"
264775,"6400 NE HIGHWAY 99 NUM G279","VANCOUVER","WA","98604"
264776,"6400 NORTH COUNTRY ESTATES LANE","MALAD","ID","83252"
264777,"6400 NORTH MERIDIAN RD","TALLAHASSEE","FL","32312"
264778,"6400 NW 106TH PL APT 6","ALACHUA","FL","32615"
264779,"6400 OHIO DRIVE APT 625","PLANO","TX","75024"
264780,"6400 POWERS FERRY RD NW SUITE 390","ATLANTA","GA","30339"
264781,"6400 POWERS FERRY ROAD SUITE 220","ATLANTA","GA","30339"
264782,"6400 ROCKREST CT","RALEIGH","NC","27612"
264783,"6400 S 41ST STREET CT","LINCOLN","NE","68516"
264784,"6400 S EASTERN AVE STE 12","LAS VEGAS","NV","89119"
264785,"6400 S FIDDLERS GREEN CIR STE 1970","GREENWOOD VILLAGE","CO","80111"
264786,"6400 S GESSNER RD STE 1062","HOUSTON","TX","77036"
264787,"6400 S PROMONTORY DR","CHICAGO","IL","60649"
264788,"6400 S PROMONTORY DRIVE","CHICAGO","IL","60649"
264789,"6400 S SOONER RD","OKC","OK","73135"
264790,"6400 SE 59TH ST","OKLAHOMA CITY","OK","73135"
264791,"6400 SHAFER COURT","ROSEMONT","IL","60018"
264792,"6400 SHERIDAN DRIVE SUITE 116","WILLIAMSVILLE","NY","14221"
264793,"6400 SOUTH OURAY WAY","AURORA","CO","80016"
264794,"6400 SUNSET BOULEVARD","HOLLYWOOD","CA","90028"
264795,"6400 SW 15TH COURT","NORTH LAUDERDALE","FL","33068"
264796,"6400 W OKANOGAN AVENUE","KENNEWICK","WA","99336"
264797,"6400 W PRICE BLVD","NORTH PORT","FL","34291"
264798,"6400 WEST SNOWVILLE ROAD","BRECKSVILLE","OH","44141"
264799,"6400 WINDCREST DRIVE  APT 1622","PLANO","TX","75024"
264800,"6400 WURZBACH RD APT 605","SAN ANTONIO","TX","78240"
264801,"64005 GARRETT HILL RD","ST CLAIRSVILLE","OH","43950"
264802,"6401 13 STREET N","FARGO","ND","58102"
264803,"6401 20TH AVE SOUTH","TAMPA","FL","33619"
264804,"6401 ALLEN RD","BAKERSFIELD","CA","93312"
264805,"6401 ARNOT STREET","HOUSTON","TX","77007"
264806,"6401 ARNOT","HOUSTON","TX","77007"
264807,"6401 BERKSHIRE LN N","MAPLE GROVE","MN","55311"
264808,"6401 BERNHARD AVENUE","RICHMOND","CA","94805"
264809,"6401 BINGLE ROAD SUITE 211","HOUSTON","TX","77092"
264810,"6401 CHARLESTON STRET","HOLLYWOOD","FL","33024"
264811,"6401 CHARLOTTE HWY","YORK","SC","29745"
264812,"6401 CLAYTON AVENUE","SAINT LOUIS","MO","63139"
264813,"6401 COUNTY ROAD 441","NEWBERRY","MI","49868"
264814,"6401 CROPPING STREET","WINTER GARDEN","FL","34787"
264815,"6401 DORCHESTER ROAD","NORTH CHARLESTON","SC","29418"
264816,"6401 E ROBINSON ST","NORMAN","OK","73026"
264817,"6401 EDGEWATER COVE","FAIRBURN","GA","30213"
264818,"6401 FOREST ROAD","CHEVERLY","MD","20785"
264819,"6401 GATEWAY DRIVE UNIT 53193","INDIANAPOLIS","IN","46253"
264820,"6401 GOLDEN TRIANGLE DR SUITE 115","GREENBELT","MD","20770"
264821,"6401 HIGHWAY 6 SUITE 114","MISSOURI CITY","TX","77459"
264822,"6401 HILLCREST DR","BURR RIDGE","IL","60527"
264823,"6401 INDEPENDENCE PKWY","PLANO","TX","75023"
264824,"6401 LOOKINGGLASS LANE","COLUMBIA","MD","21045"
264825,"6401 MACARTHUR DR","WATAUGA","TX","76148"
264826,"6401 NORTHWEST 93RD DRIVE","PARKLAND","FL","33067"
264827,"6401 ODANA ROAD SUITE 15","MADISON","WI","53719"
264828,"6401 OGONTZ AVENUE","PHILADELPHIA","PA","19126"
264829,"6401 PARKWOOD BLVD","FRISCO","TX","75034"
264830,"6401 PENN AVE","PITTSBURGH","PA","15206"
264831,"6401 RICHARDSON FARM LN","CLARKSVILLE","MD","21029"
264832,"6401 RIVERS AVE UNIT 60071","N CHARLESTON","SC","29419"
264833,"6401 S 16TH ST","PHOENIX","AZ","85041"
264834,"6401 S 16TH STREET STE 15","PHOENIX","AZ","85041"
264835,"6401 S 41ST STREET","ROGERS","AR","72758"
264836,"6401 S PADRE ISLAND DRIVE","CORPUS CHRISTI","TX","78412"
264837,"6401 S SINCLAIR RD","COLUMBIA","MO","65203"
264838,"6401 SANTA MONICA 1102","ALBUQUERQUE","NM","87109"
264839,"6401 SANTA MONICA AVENUE NE 3082","ALBUQUERQUE","NM","87109"
264840,"6401 SHELBOURNE STREET - APT A","PHILADELPHIA","PA","19111"
264841,"6401 SORENSEN PARKWAY","OMAHA","NE","68152"
264842,"6401 SOUTH GARFIELD AVENUE","WILLOWBROOK","IL","60527"
264843,"6401 SUMMERS NOOK DR","NEW ALBANY","OH","43054"
264844,"6401 TRILLIUM DRIVE","WAYNESVILLE","OH","45068"
264845,"6401 VERITAS WAY STE 1B","N CHESTERFIELD","VA","23234"
264846,"6401 VISTA CREEK LANE","ROCKVILLE","MD","20852"
264847,"6401 WEST HWY 146","CRESTWOOD","KY","40014"
264848,"6401 WIDGEON DR","PLANO","TX","75024"
264849,"6401 ZIONSVILLE ROAD","INDIANAPOLIS","IN","46268"
264850,"640102","PIKE ROAD","AL","36064"
264851,"6402 140TH AVE NE","REDMOND","WA","98052"
264852,"6402 CANTERBURY CT","SAN JOSE","CA","95129"
264853,"6402 DIANNE ST","SHREVEPORT","LA","71119"
264854,"6402 E ABERDEEN ST","WICHITA","KS","67206"
264855,"6402 E BRIAN KENT","TUCSON","AZ","85710"
264856,"6402 EVENING ROSE LN","KATY","TX","77449"
264857,"6402 HEATHERBROOK","HOUSTON","TX","77085"
264858,"6402 NORTH WAYSIDE","HOUSTON","TX","77028"
264859,"6402 PLATT AVE","WEST HILLS","CA","91307"
264860,"6402 S PITTSBURG AVE","TULSA","OK","74136"
264861,"6402 S SANGAMON APT 2S","CHICAGO","IL","60621"
264862,"6402 SKYWAY","PARADISE","CA","95969"
264863,"6403 ABERDEEN PLACE","SUFFOLK","VA","23435"
264864,"6403 BARKSDALE WAY","RIVERVIEW","FL","33578"
264865,"6403 BELDART","HOUSTON","TX","77087"
264866,"6403 CARDIFF LANE","DOUGLASVILLE","GA","30134"
264867,"6403 CRENSHAW BLVD","LOS ANGELES","CA","90043"
264868,"6403 E CROCUS DR","SCOTTSDALE","AZ","85254"
264869,"6403 GLYDON COURT","BOWIE","MD","20720"
264870,"6403 INLET STREET","NEW CARROLLTON","MD","20784"
264871,"6403 IVY FLS","MISSOURI CITY","TX","77459"
264872,"6403 MESA VERDE COURT","CLIMAX","NC","27233"
264873,"6403 MYSTON LANE","HUNTERSVILLE","NC","28078"
264874,"6403 N 42ND STREET","MILWAUKEE","WI","53209"
264875,"6403 PARROT RIDGE CT","LAS VEGAS","NV","89139"
264876,"6403 PREAKNESS DR","ORLANDO","FL","32818"
264877,"6403 RIDGEWAY AVE","KANSAS CITY","MO","64133"
264878,"6403 ROCKWELL BLVD  WEST","CHARLOTTE","NC","28269"
264879,"6403 S GREENWOOD AVENUE UNIT 3S","CHICAGO","IL","60637"
264880,"6403 W HIGHWY 146","CRESTWOOD","KY","40014"
264881,"6404 B SHADOW VALLEY DRIVE","AUSTIN","TX","78731"
264882,"6404 CHASES LANDING","HIXSON","TN","37343"
264883,"6404 CINNAMON OAKS DRIVE","DALLAS","TX","75241"
264884,"6404 COFFEY STREET","CINCINNATI","OH","45230"
264885,"6404 DAVIS BYNUM DR","FAYETTEVILLE","NC","28306"
264886,"6404 GA HWY 219","FRANKLIN","GA","30217"
264887,"6404 HILLCREST PARK CT","MOBILE","AL","36695"
264888,"6404 HOLLYWOOD BLVD SUITE 408","LOS ANGELES","CA","90028"
264889,"6404 JESSE JACKSON AVE","ST LOUIS","MO","63121"
264890,"6404 N FAIRFIELD AVE","CHICAGO","IL","60645"
264891,"6404 ROSEMARY DRIVE","CHATTANOOGA","TN","37416"
264892,"6404 S PEORIA AVE","TULSA","OK","74136"
264893,"6404 STATE ROAD 39 SOUTH","PLANT CITY","FL","33566"
264894,"6404 TOWER RD","DULUTH","MN","55803"
264895,"6404 TOWER ROAD",NA,"MN","55803"
264896,"6404 W WOLF VALLEY WAY","TUCSON","AZ","85757"
264897,"6404 WARREN STREET","ANACORTES","WA","98221"
264898,"6404 WESTLAND ROAD","BETHESDA","MD","20817"
264899,"6404 WILSHIRE BOULEVARD-SUITE 870","LOS ANGELES","CA","90048"
264900,"6405 BUIST AVE","PHILADELPHIA","PA","19142"
264901,"6405 CRESTED EAGLE LANE","RICHMOND","VA","23231"
264902,"6405 EAGLE FEATHER TRAIL","LITTLETON","CO","80125"
264903,"6405 GOFORTH ST","HOUSTON","TX","77021"
264904,"6405 GUILFORD","FORT WORTH","TX","76119"
264905,"6405 LEAFCREST LANE A","CHARLOTTE","NC","28210"
264906,"6405 LOCUST LANE","SYKESVILLE","MD","21784"
264907,"6405 N AZALEA AVE","SAN BERNARDINO","CA","92407"
264908,"6405 NW 36 STREET STE 111","VIRGINIA GARDENS","FL","33166"
264909,"6405 OVERBROOK AVENUE","PHILADELPHIA","PA","19151"
264910,"6405 PHILLIPS DRIVE","LAKE CITY","GA","30260"
264911,"6405 S 179TH ST","OMAHA","NE","68135"
264912,"6405 S IH 35","AUSTIN","TX","78744"
264913,"6405 S WOLCOTT AVE","CHICAGO","IL","60636"
264914,"6405 SENTRY WAY SUITE 208","NEW PORT RICHEY","FL","34653"
264915,"6405 SHARPVIEW DR","HOUSTON","TX","77074"
264916,"6405 SHARPVIEW DRIVE","HOUSTON","TX","77074"
264917,"6405 SW 116TH PLACE UNIT G","MIAMI","FL","33173"
264918,"6405 TEXANA WAY","PLANO","TX","75074"
264919,"6405 WET MARSH COURT","SUFFOLK","VA","23435"
264920,"64058 ALPINE","DESERT HOT SPRINGS","CA","92240"
264921,"6406 152ND AVE E","SUMNER","WA","98390"
264922,"6406 208TH ST SW","LYNNWOOD","WA","98036"
264923,"6406 BEECHER DRIVE","CHARLOTTE","NC","28215"
264924,"6406 CANNON FARMS DR NE","ROCKFORD","MI","49341"
264925,"6406 CONSTANCE ST","SHAWNEE","KS","66216"
264926,"6406 FREEDOM COURT","ARLINGTON","TX","76002"
264927,"6406 GREENVALE LANE","HOUSTON","TX","77066"
264928,"6406 HOMEBUILDER DRIVE","MOUNT AIRY","MD","21771"
264929,"6406 N 119TH ST W","MAIZE","KS","67101"
264930,"6406 NE 45TH AVE","PORTLAND","OR","97218"
264931,"6406 ORANGE BLOSSOM DRIVE","MIDLOTHIAN","TX","76065"
264932,"6406 PRESTIGE LN","TEXARKANA","TX","75503"
264933,"6406 ROSSMORE LANE","CANAL WINCHESTER","OH","43110"
264934,"6406 SILVER MESA DRIVE UNIT D","HIGHLANDS RANCH","CO","80130"
264935,"6406 TENNESSEE AVENUE","WILLOWBROOK","IL","60527"
264936,"6406 THORNBERRY CT 220A","MASON","OH","45040"
264937,"6406 WATER CREST WAY 401","LAKEWOOD RANCH","FL","34202"
264938,"6406 WHISPERING OAKS DRIVE","CHARLESTOWN","IN","47111"
264939,"6406 YAUPON DR","AUSTIN","TX","78759"
264940,"6407 26TH ST W","BRADENTON","FL","34207"
264941,"6407 53RD CIRCLE","VERO BEACH","FL","32967"
264942,"6407 ACME CIRCLE","PLANO","TX","75074"
264943,"6407 ATHENS AVENUE","RACINE","WI","53406"
264944,"6407 BORG ST","LEESBURG","FL","34748"
264945,"6407 MORNINGSIDE DRIVE","KANSAS CITY","MO","64113"
264946,"6407 N 67TH ST  APT 3","MILWAUKEE","WI","53223"
264947,"6407 NE 202ND ST","KENMORE","WA","98028"
264948,"6407 NORTH BUSINESS LOOP ROAD","PARK CITY","UT","84098"
264949,"6407 NW 61ST LANE","OCALA","FL","34482"
264950,"6407 S COOPER ST","ARLINTONG","TX","76001"
264951,"6407 S TIBET ST","AURORA","CO","80015"
264952,"6407 SAINT JOHNS RD","FLOYDS KNOBS","IN","47119"
264953,"6408 47TH STREET","RIVERDALE PARK","MD","20737"
264954,"6408 CARMEN STREET","METAIRIE","LA","70003"
264955,"6408 ELMWOOD CIRCLE","CHARLOTTE","NC","28214"
264956,"6408 JENNINGS RD","ORLANDO","FL","32818"
264957,"6408 JOHNSTON ST","LAFAYETTE","LA","70503"
264958,"6408 KAWANEE AVE","METAIRIE","LA","70003"
264959,"6408 N CENTENNIAL PLACE UNIT B","GLEN BURNIE","MD","21061"
264960,"6408 NW 124TH STREET","GAINESVILLE","FL","32653"
264961,"6408 PATIENCECT","ALEXANDRIA","VA","22315"
264962,"6408 SAMHURST DRIVE","COLUMBUS","GA","31907"
264963,"6408 ST CLAIR","CLEVELAND","OH","44103"
264964,"6409 ADRIATIC WAY","WEST PALM BEACH","FL","33413"
264965,"6409 DUNDOCK AVE","LAS VEGAS","NV","89122"
264966,"6409 FAYETTEVILLE RD STE 120 B127","DURHAM","NC","27713"
264967,"6409 FAYETTEVILLE ROAD STE 120 188","DURHAM","NC","27713"
264968,"6409 GWINNETT LANE","BOWIE","MD","20720"
264969,"6409 KELLY CT","FREDERICK","MD","21703"
264970,"6409 MAGNOLIA LANE","ROWLETT","TX","75089"
264971,"6409 RIDGEMONT DRIVE","DALLAS","TX","75214"
264972,"6409 STOCKTON DR","FORT WORTH","TX","76132"
264973,"6409 URBANDALE LANE N","MAPLE GROVE","MN","55311"
264974,"6409 USTICK RD","BOISE","ID","83704"
264975,"641 16TH STREET NE","SALEM","OR","97301"
264976,"641 ALTAIR AVENUE","FOSTER CITY","CA","94404"
264977,"641 ANDOVER ROAD","NEWTOWN SQUARE","PA","19073"
264978,"641 ARMADILLO DR","DELTONA","FL","32725"
264979,"641 BAKER HWY","HUNTSVILLE","TN","37756"
264980,"641 BARRETTO STREET","BRONX","NY","10474"
264981,"641 BERWICK DRIVE","WINTER PARK","FL","32792"
264982,"641 BRIARWOOD CT","ORADELL","NJ","07649"
264983,"641 CALAMUS PALM PL","HENDERSON","NV","89011"
264984,"641 CAPRI COURT","FAIRFIELD","CA","94534"
264985,"641 CLARK STREET","LINDEN","NJ","07036"
264986,"641 COUNTY HWY GH","WILD ROSE","WI","54984"
264987,"641 DOE TRAIL","EDMOND","OK","73012"
264988,"641 DRY STONE BRANCH ROAD","MOUNTAIN CITY","TN","37683"
264989,"641 E 1ST ST","PRINEVILLE","OR","97754"
264990,"641 E 92ND PL","CHICAGO","IL","60619"
264991,"641 E CAMP ST","ELY","MN","55731"
264992,"641 EAST MCNEESE STREET APT 12","LAKE CHARLES","LA","70607"
264993,"641 EDDY STREET","BOCA RATON","FL","33487"
264994,"641 GATES STREET","PHILA","PA","19128"
264995,"641 GROOMS RD SUITE 230","CLIFTON PARK","NY","12065"
264996,"641 HOOTER ROAD","BRIDGE CITY","LA","70094"
264997,"641 HUNTLEE","NEW ORLEANS","LA","70131"
264998,"641 KAYLOC CIRCLE","WEBSTER","NY","14580"
264999,"641 KENNEDY ROAD","WINDSOR","CT","06095"
265000,"641 LAWYER ROAD","PENN LAIRD","VA","22846"
