"ID","Address","City","State","Zip"
273501,"6942 DEER CREEK TRACE","STONE MOUNTAIN","GA","30087"
273502,"6942 DIAMOND DRIVE","REX","GA","30273"
273503,"6942 FM 1960 E 159","HUMBLE","TX","77346"
273504,"6942 FM 1960 E PMB 118","HUMBLE","TX","77346"
273505,"6942 FM 1960 RD E 267","HUMBLE","TX","77346"
273506,"6942 FM 1960 ROAD EAST","HUMBLE","TX","77346"
273507,"6942 FM RD 1960 RD E 267","HUMBLE","TX","77346"
273508,"6942 S ABERDEEN","CHICAGO","IL","60621"
273509,"6942 SHADOWOOD ST","RIVERSIDE","CA","92506"
273510,"6942 SOUTH SPARROWTAIL ROAD","WEST JORDAN","UT","84081"
273511,"6942 SOUTH TUCANA LANE","GILBERT","AZ","85298"
273512,"6942 W OLIVE AVE UNIT 43","PEORIA","AZ","85345"
273513,"6943 CAVE SPRINGS RD","DOUGLASVILLE","GA","30134"
273514,"6943 CONGRESSIONAL BLVD","SAN ANTONIO","TX","78244"
273515,"6943 W MONTROSE AVENUE","HARWOOD HEIGHTS","IL","60706"
273516,"6944 BURCHELL AVENUE","FAR ROCKAWAY","NY","11692"
273517,"6944 CLARIDGE PLACE","PITTSBURGH","PA","15208"
273518,"6944 NATIONAL RD","THORNVILLE","OH","43076"
273519,"6944 NAVIGATION BLVD","HOUSTON","TX","77011"
273520,"6945 CONVERSE HUFF ROAD","PLAIN CITY","OH","43064"
273521,"6945 E 77TH ST","INDIANAPOLIS","IN","46250"
273522,"6945 FERNWOOD DRIVE UNIT H","CHARLOTTE","NC","28211"
273523,"6945 GREENFIELD LN","CUMMING","GA","30028"
273524,"6945 JULIA GARDENS DRIVE","COCONUT CREEK","FL","33073"
273525,"6945 KNOB HILL RD","FORT WORTH","TX","76140"
273526,"6945 PIONEER DRIVE","MACUNGIE","PA","18062"
273527,"6945 RANCHITO AVE","VAN NUYS","CA","91405"
273528,"6945 S GREEN ST FLOOR 1","CHICAGO","IL","60621"
273529,"6945 S STONY ISLAND","CHICAGO","IL","60649"
273530,"6945 TOKALON DRIVE","DALLAS","TX","75214"
273531,"6945 WATERS EDGE DRIVE","STONE MOUNTAIN","GA","30087"
273532,"6946 CANARY IVY WAY","LAS VEGAS","NV","89156"
273533,"6946 LONG PINE CIR","COCONUT CREEK","FL","33073"
273534,"6946 N FRANKFORT RD","THORNTOWN","IN","46071"
273535,"6946 RASPBERRY RDG","LIBERTY TWP","OH","45011"
273536,"6946 SODA HILL DR","SHREVEPORT","LA","71107"
273537,"6946 SOUTH BENTON","KANSAS CITY","MO","64132"
273538,"69460 VISTA MONTANA COURT","CATHEDRAL CITY","CA","92234"
273539,"6947 APPLE HARVEST DR","GERRARDSTOWN","WV","25420"
273540,"6947 BELLCLAIRE ST","TUJUNGA","CA","91042"
273541,"6947 BROOKHAVEN WAY","CITRUS HEIGHTS","CA","95621"
273542,"6947 CLOVIS RD","JACKSONVILLE","FL","32205"
273543,"6947 COAL CREEK PARKWAY SE - 713","NEWCASTLE","WA","98059"
273544,"6947 COAL CREEK PKWY SE  PMB 389","NEWCASTLE","WA","98059"
273545,"6947 NAVA","GRAND PRAIRIE","TX","75054"
273546,"6947 PLANK ROAD","CHARLOTTESVILLE","VA","22903"
273547,"6947 STONEBRIDGE CT","STONE MOUNTAIN","GA","30087"
273548,"6948 MAYFAIR TERRACE","LAUREL","MD","20707"
273549,"6948 N WESTERN AVE","CHICAGO","IL","60645"
273550,"6948 PEPPERTREE DR","LONGMONT","CO","80503"
273551,"6948 PRINCE DR","COLORADO SPRINGS","CO","80918"
273552,"6948 SONYA DR","NASHVILLE","TN","37209"
273553,"6948 VILLA HERMOSA DRIVE","EL PASO","TX","79912"
273554,"6949 ALMEDA AVE APT 2","ARVERNE","NY","11692"
273555,"6949 ELMO ST UNIT B","TUJUNGA","CA","91042"
273556,"6949 KINGS COURT","LINCOLN","NE","68516"
273557,"6949 THURSBY AVE","AVERNE","NY","11692"
273558,"6949 W WOLF ST","PHOENIX","AZ","85033"
273559,"695 11TH STREET","MEEKER","CO","81641"
273560,"695 ANDANTE DR","SEDONA","AZ","86336"
273561,"695 CARL WILLIAMS ROAD","SENOIA","GA","30276"
273562,"695 CARLYLE PL","UNION","NJ","07083"
273563,"695 CARRIAGE DRIVE","BATAVIA","IL","60510"
273564,"695 CASTLEWOOD DRIVE","STREAMWOOD","IL","60107"
273565,"695 CENTER AVENUE","BEAVER SPRINGS","PA","17812"
273566,"695 CONCORD DRIVE","CHASKA","MN","55318"
273567,"695 COOPER CT EAST","AURORA","IL","60504"
273568,"695 CRESTA CIRCLE","WEST PALM BEACH","FL","33413"
273569,"695 CROWN ST","BROOKLYN","NY","11213"
273570,"695 DUTCHESS TURNPIKE SUITE 210","POUGHKEEPSIE","NY","12603"
273571,"695 E MAIN STREET","GALLATIN","TN","37066"
273572,"695 EAST 185TH STREET","CLEVELAND","OH","44119"
273573,"695 EAST SHEFFIELD AVENUE","CHANDLER","AZ","85225"
273574,"695 FIELD ST SE  STE 412","ATLANTA","GA","30316"
273575,"695 FIELD STREET SE SUITE 202","ATLANTA","GA","30316"
273576,"695 HOWARD STREET APT 15A","SPARTANBURG","SC","29303"
273577,"695 HUNTINGTON RD","ATHENS","GA","30606"
273578,"695 JENKINS LANE","STRASBURG","VA","22657"
273579,"695 KALALEA ST","HONOLULU","HI","96825"
273580,"695 LIVERNOIS ST","FERNDALE","MI","48220"
273581,"695 LOVE BRANCH RD","HARVEST","AL","35749"
273582,"695 LUCILLE AVENUE","MEMPHIS","TN","38106"
273583,"695 MAIN STREET APT 364","HARLEYSVILLE","PA","19438"
273584,"695 MAIN STREET","BOYLSTON","MA","01505"
273585,"695 MINNESOTA AVENUE","MCCOMB","MS","39648"
273586,"695 MITCHELLS LANE","MARIETTA","OH","45750"
273587,"695 N BATES","DINUBA","CA","93618"
273588,"695 NE 174TH STREET","33162","FL","33162"
273589,"695 ORBITER LN","LAS VEGAS","NV","89148"
273590,"695 ORCHARD HEIGHTS RD NW 304","SALEM","OR","97304"
273591,"695 PARK AVENUE","PATERSON","NJ","07504"
273592,"695 PROSPECT AVE APT 3","BRONX","NY","10455"
273593,"695 ROCHESTER COURT","VENTURA","CA","93004"
273594,"695 ROLLING THUNDER DR","OFALLON","MO","63368"
273595,"695 S COMMERICAL AVE","SMITHVILLE","MO","64089"
273596,"695 SANTA BARBARA ST","PASADENA","CA","91101"
273597,"695 SCHOOLHOUSE LN","TOMS RIVER","NJ","08753"
273598,"695 SEBASTIAN BLVD","SEBASTIAN","FL","32958"
273599,"695 SIERRA MADRE BLVD","MADRE","CA","91024"
273600,"695 SOUTH VERMONT AVENUE STE 503","LOS ANGELES","CA","90005"
273601,"695 SW MILL VIEW WAY STE 101","BEND","OR","97702"
273602,"695 SW SALERNO RD","STUART","FL","34997"
273603,"695 TOWN CENTER DRIVE STE 700","COSTA MESA","CA","92626"
273604,"695 TRUMAN PARKWAY  SUITE 201-202","HYDE PARK","MA","02136"
273605,"695 VICTORIAN COURT","CHARLOTTESVILLE","VA","22901"
273606,"695 W FALMOUTH RD","MCBAIN","MI","49657"
273607,"695 WASHINGTON ST 1403","BUFFALO","NY","14203"
273608,"695 WESTWOOD AVE","MOAB","UT","84532"
273609,"695 YOUNG ROAD","ANGIER","NC","27501"
273610,"6950 AMERICANA PKWY STE H","REYNOLDSBURG","OH","43068"
273611,"6950 ARLINGTON ST","BRECKSVILLE","OH","44141"
273612,"6950 BAKER CIR","CLERMONG","GA","30527"
273613,"6950 BEACH BLVD STE E104","BUENA PARK","CA","90621"
273614,"6950 BRECKSVILLE ROAD","INDEPENDENCE","OH","44131"
273615,"6950 DAWNHILL RD","BARTLETT","TN","38135"
273616,"6950 E BELLEVIEW AVE SUITE 300","GREENWOOD VILLAGE","CO","80111"
273617,"6950 NOLEN CIR","CINCINNATI","OH","45227"
273618,"6950 OAK ST","ARVADA","CO","80004"
273619,"6950 OLD SHELL RD","MOBILE","AL","36608"
273620,"6950 PLEASENT VIEW ROAD","ST MARYS","KS","66556"
273621,"6950 S 77TH EAST AVE","TULSA","OK","74133"
273622,"6950 S CREGIER AVE UNIT F","CHICAGO","IL","60649"
273623,"6950 S FM 730","AZLE","TX","76020"
273624,"6950 S STEWART AVE","CHICAGO","IL","60621"
273625,"6950 SW 117 AVE","MIAMI","FL","33183"
273626,"6951 1ST AVENUE SOUTH","RICHFIELD","MN","55423"
273627,"6951 DICKENS FERRY ROAD/29","MOBILE","AL","36608"
273628,"6951 MCCLEAN BLVD","BALTIMORE","MD","21234"
273629,"6951 OLIVE BLVD","UNIVERSITY CITY","MO","63130"
273630,"6951 SEASCAPE DRIVE","GRAND PRAIRIE","TX","75054"
273631,"6951 SEASCAPE DRV","GRAND PRAIRIE","TX","75054"
273632,"6951 ST HWY 72","JACKSON","MO","63755"
273633,"6952 FORT DEPOSIT DRIVE","PENSACOLA","FL","32526"
273634,"6952 S CHAPPEL AVENUE","CHICAGO","IL","60649"
273635,"6952 S WENTWORTH AVE","CHICAGO","IL","60621"
273636,"6952 VINTAGE LN","PORT ORANGE","FL","32128"
273637,"6952 W TACNA DR","TUCSON","AZ","85743"
273638,"6953 OGBURN FARMS DRIVE","WILLOW SPRINGS","NC","27592"
273639,"6954 AMERICANA PKWY","REYNOLDSBURG","OH","43068"
273640,"6954 BRASWELL ST","LITHONIA","GA","30058"
273641,"6954 HOPEWELL RD WEST","ROBERTA","GA","31078"
273642,"6954 MIDWAY AVE","GLENDALE","AZ","85303"
273643,"69549 KNOTTINGHAM LANE","EDWARDSBURG","MI","49112"
273644,"6955 5TH STREET SW","VERO BEACH","FL","32968"
273645,"6955 DALE HOLLOW DRIVE SE","CALEDONIA","MI","49316"
273646,"6955 HALL SCHOOL ROAD","MARTINSVILLE","IN","46151"
273647,"6955 HOMER KNOST ROAD","DENHAM SPRINGS","LA","70706"
273648,"6955 LIMERICK DR","BEAUMONT","TX","77706"
273649,"6955 N DURANGO DR 1115-127","LAS VEGAS","NV","89149"
273650,"6955 N DURANGO DR STE 1115-145","LAS VEGAS","NV","89149"
273651,"6955 N DURANGO STE 1115-296","LAS VEGAS","NV","89149"
273652,"6955 NORTH DURANGO DRIVE SUITE 1006","LAS VEGAS","NV","89149"
273653,"6955 SW DANCASTER ROAD","TOPEKA","KS","66610"
273654,"6955 US HWY 50 W","BAINBRIDGE","OH","45612"
273655,"6955 YATES STREET","WESTMINSTER","CO","80030"
273656,"6956 00 25 RD","GARDEN","MI","49835"
273657,"6956 BOBOLINK WAY","SACRAMENTO","CA","95831"
273658,"6956 E BROAD STREET SUITE 207","COLUMBUS","OH","43213"
273659,"6956 EAST BROAD STREET","COLUMBUS","OH","43213"
273660,"6956 NICHOLSON DR","MOLINO","TN","32577"
273661,"69565 MORNINGSIDE DR","DESERT HOT SPRINGS","CA","92241"
273662,"6957 NORTH ASHLAND BOULEVARD STE1S","CHICAGO","IL","60626"
273663,"6958 DOGWOOD DR","SEAFORD","DE","19973"
273664,"6958 GRIFFIN RD","DAVIE","FL","33314"
273665,"6958 MEESE","LANSING","MI","48911"
273666,"6958 PLEASANT DR","AUSTELL","GA","30168"
273667,"6959 CLAYWOOD WAY","SAN JOSE","CA","95120"
273668,"6959 COURTHOUSE ROAD","SPOSTYLVANIA","VA","22551"
273669,"6959 LEE ROAD 246","SMITHS STATION","AL","36877"
273670,"6959 LONGWATER DR","MAUMEE","OH","43537"
273671,"6959 NORTH MEADOW DR","PAINESVILLE","OH","44077"
273672,"6959 NORTH RIDGE BLVD UNIT 1E","CHICAGO","IL","60645"
273673,"6959 W IRMA LN","GLENDALE","AZ","85308"
273674,"6959","CANAL WINCHESTER","OH","43110"
273675,"696 CARLYSLE ST","AKRON","OH","44310"
273676,"696 CELESTIAL CIRCLE","CLAYTON","GA","30525"
273677,"696 COUNTY ROAD 344","PIGGOTT","AR","72454"
273678,"696 CUMBERLAND RD NE","ATLANTA","GA","30306"
273679,"696 D AVENIDA SEVILLA","LAGUNA WOODS","CA","92637"
273680,"696 E 320 S","SALEM","UT","84653"
273681,"696 E 8TH ST","SALEM","OH","44460"
273682,"696 FOX AVE APT 224","LEWISVILLE","TX","75067"
273683,"696 GREENWOOD AVENUE","AKRON","OH","44320"
273684,"696 HARRIS AVENUE","STATEN ISLAND","NY","10314"
273685,"696 MERRIMACK STREET APT 1","LOWELL","MA","01854"
273686,"696 MOUNT ZION ROAD  SUITE 8-A","JONESBORO","GA","30236"
273687,"696 MOWBRAY ARCH APT 440","NORFOLK","VA","23507"
273688,"696 MT ZION RD 5B","JONESBORO","GA","30236"
273689,"696 MURSET AVE SE","PALM BAY","FL","32909"
273690,"696 N SANTA CRUZ AVE","LOS GATOS","CA","95030"
273691,"696 NEW HOPE ROAD","GOLDSBORO","NC","27534"
273692,"696 NORTH COLFAX STREET","BYRON","IL","61010"
273693,"696 OAKMONT LANE UNIT A1","WHEELING","IL","60090"
273694,"696 PURDUE AVE","YOUNGSTOWN","OH","44515"
273695,"696 RIDGE WAY","LITHONIA","GA","30058"
273696,"696 S OLD HIGHWAY 141 APT 204","FENTON","MO","63026"
273697,"696 SAN RAMON VALLEY BLVD  STE 149","DANVILLE","CA","94526"
273698,"696 SAN RAMON VALLEY BLVD NUM 264","DANVILLE","CA","94526"
273699,"696 SISKIYOU BLVD APT 1","ASHLAND","OR","97520"
273700,"696 VINELAND AVE","HENDERSON","NV","89052"
273701,"696 WATER ST","HOBART","IN","46342"
273702,"696 WESTBROOK ST","SOUTH PORTLAND","ME","04106"
273703,"6960 APPIAN DR","SAN DIEGO","CA","92139"
273704,"6960 BRADY COURT","LIBERTY TOWNSHIP","OH","45044"
273705,"6960 DOUBLETREE RD NE","CEDAR RAPIDS","IA","52402"
273706,"6960 KEATING DRIVE","RIVERSIDE","CA","92503"
273707,"6960 MARVIN D LOVE FRWY B6","DALLAS","TX","75237"
273708,"6960 MARVIN D LOVE FRWY","DALLAS","TX","75237"
273709,"6960 MEADE STREET","PITTSBURGH","PA","15208"
273710,"6960 NW 3RD AVE","MIAMI","FL","33150"
273711,"6960 RALEIGH STREET","HOLLYWOOD","FL","33024"
273712,"6960 S COLUMBIA","TULSA","OK","74136"
273713,"6960 SVL BOX","SPRING VALLEY LAKE","CA","92395"
273714,"6960 SW 16TH STREET","PLANTATION","FL","33317"
273715,"6960 SW 27TH ST","MIRAMAR","FL","33023"
273716,"6960 SW 36TH STREET","HOLLYWOOD","FL","33023"
273717,"6960 TALKEETNA CT SW","ATLANTA","GA","30331"
273718,"6960 VIRGILIAN STREET","NEW ORLEANS","LA","70126"
273719,"6960 W STATE AVE","GLENDALE","AZ","85303"
273720,"6961 DURFEE WAY","LIBERTY","UT","84310"
273721,"6961 HIGHWAY 397","PRESTON","MS","39354"
273722,"6961 N VERLAINE DR","COEUR D ALENE","ID","83815"
273723,"6961 SW 109TH COURT","MIAMI","FL","33173"
273724,"6961 SW 1ST COURT","PEMBROKE PINES","FL","33023"
273725,"6961 SW 9TH ST","PEMBROKE PINES","FL","33023"
273726,"6962 CORONET DR","BATON ROUGE","LA","70812"
273727,"6962 CREEKFRONT DR","FOUNTAIN","CO","80817"
273728,"6962 EAST QUAIL TRACK DRIVE","SCOTTSDALE","AZ","85266"
273729,"6962 HOWE CT","SAN DIEGO","CA","92111"
273730,"6962 NORTH MEADOW RD","CONCORD TWP","OH","44077"
273731,"6962 RIVERSIDE WAY","FISHERS","IN","46038"
273732,"6962 SILVERWOOD STREET","PHILADELPHIA","PA","19128"
273733,"6963 HOWELL ST","GREENWOOD","LA","71033"
273734,"69634 E HIGHWAY 26","WELCHES","OR","97067"
273735,"69635 CENTER ST","ST CLAIRSVILLE","OH","43950"
273736,"6964 LIVERPOOL CT","INDIAN LAND","SC","29707"
273737,"6964 SE YEARLING LANE","MILWAUKIE","OR","97267"
273738,"6964 SILVERADO TERR","LAKE WORTH","FL","33463"
273739,"6965 ANDALUSIA DR","MACON","GA","31216"
273740,"6965 CREEKHOLLOW DRIVE APT 312","FORT WORTH","TX","76137"
273741,"6965 EL CAMINO REAL STE 105","CARLSBAD","CA","92009"
273742,"6965 HWY 42 S SUITE 109","LOCUST GROVE","GA","30248"
273743,"6965 HWY 42S STE 125","LOCUST GROVE","GA","30248"
273744,"6965 N WESTERN AVE","CHICAGO","IL","60645"
273745,"6965 N WESTERN AVENUE","CHICAGO","IL","60645"
273746,"6965 NORTH GLEN DRIVE","CUMMING","GA","30028"
273747,"6965 OLD BETHSAIDA WAY","RIVERDALE","GA","30296"
273748,"6965 PIAZZA GRANDE AVE SUITE 301","ORLANDO","FL","32835"
273749,"6965 PIAZZA GRANDE AVENUE  218","ORLANDO","FL","32835"
273750,"6965 PRESTONS ESTATES","ATLANTA","GA","30349"
273751,"6965 REDBUD COURT","PLEASANT HILL","IA","50327"
273752,"6965 S CRAIG CT","FRANKLIN","WI","53132"
273753,"6965 WESTGATE DR","BEAUMONT","TX","77706"
273754,"6965","CHICAGO","IL","60645"
273755,"6966 DARTMOUTH AVE","SAINT LOUIS","MO","63130"
273756,"6966 KODIAK DR","BATON ROUGE","LA","70810"
273757,"6966 N 89TH AVE STE A","OMAHA","NE","68122"
273758,"6966 WEMBLEY COURT","HAMILTON","OH","45011"
273759,"6967 ASH CREEK CT","MIDDLETOWN","OH","45044"
273760,"6967 BONNES BLVD","AUSTELL","GA","30168"
273761,"6967 BONNIE BRAE LN","COLUMBUS","OH","43235"
273762,"6967 NIAGRA STE 44","ROMULUS","MI","48174"
273763,"6967 W CHERYL DR","PEORIA","AZ","85345"
273764,"6968 CLARKRIDGE DR NUMBER 502","DALLAS","TX","75236"
273765,"6968 CLARKRIDGE DRIVE APT 1203","DALLAS","TX","75236"
273766,"6968 CLARKSRIDGE DRIVE SUITE 1403","DALLAS","TX","75236"
273767,"6968 ENGE DRIVE","WEST BEND WI","WI","53090"
273768,"6968 FALLS VIEW CIRCLE","DELAWARE","OH","43015"
273769,"6968 NORTH CLARK STREET","CHICAGO","IL","60626"
273770,"6968 PLUMROSE STREET","FONTANA","CA","92336"
273771,"6968 SUNFLOWER LANE","MACUNGIE","PA","18062"
273772,"6968 SW OLD WIRE RD","FORT WHITE","FL","32038"
273773,"6968 WEST NORTH AVE","CHICAGO","IL","60707"
273774,"6969 CREEKSIDE WAY","HAMILTON","OH","45011"
273775,"6969 FORESTVIEW COURT","WEST CHESTER","OH","45069"
273776,"6969 GALE AVENUE","LONG BEACH","CA","90805"
273777,"6969 HOLLISTER ST  APT 1309","HOUSTON","TX","77040"
273778,"6969 N ASHLAND BLVD 305","CHICAGO","IL","60626"
273779,"6969 N WESTERN AVE","CHICAGO","IL","60645"
273780,"6969 N WESTERN AVENUE","CHICAGO","IL","60645"
273781,"6969 S CHANDLER RD","SAINT JOHNS","MI","48879"
273782,"6969 SE LAKE ROAD","PORTLAND","OR","97267"
273783,"6969 SOUTH LOOP E APT 2001","HOUSTON","TX","77087"
273784,"69699 350TH PLACE","HILL CITY","MN","55748"
273785,"697 25TH ST","OAKLAND","CA","94612"
273786,"697 6TH ST SUITE 105","PRESCOTT","AZ","86301"
273787,"697 A WHITESTONE DRIVE","LYNCHBURG","VA","24502"
273788,"697 ASH SWAMP ROAD","GLASTONBURY","CT","06033"
273789,"697 AUBURN AVE UNIT 209","DELRAY BEACH","FL","33444"
273790,"697 BLYTHEWOOD ROAD SW","CLEVELAND","TN","37311"
273791,"697 BUFF CT","CINCINNATI","OH","45231"
273792,"697 COUNTRY CLUB DRIVE","BEAVER","WV","25813"
273793,"697 COX FERRY ROAD","FLORA","MS","39071"
273794,"697 E 150 S","KAYSVILLE","UT","84037"
273795,"697 E TAPER ST","KUNA","ID","83634"
273796,"697 FOREST AVENUE","PARAMUS","NJ","07652"
273797,"697 GULLEY ROAD","HOWELL","MI","48843"
273798,"697 HILLCREST STREET","MEMPHIS","TN","38112"
273799,"697 INDIANAPOLIS RD","MOORESVILLE","IN","46158"
273800,"697 MONUMENT TRAIL","LORENA","TX","76655"
273801,"697 NEEB ROAD","CINCINNATI","OH","45233"
273802,"697 NW BEAVER ST","PRINEVILLE","OR","97754"
273803,"697 PEACHTREE ST","TITUSVILLE","FL","32780"
273804,"697 REDWING DRIVE","MERCED","CA","95340"
273805,"697 SWEET HOME RD","AMHERST","NY","14226"
273806,"697 TIDELAND DRIVE","MIDWAY","GA","31320"
273807,"6970 ASHLEY DR","COLORADO SPRINGS","CO","80922"
273808,"6970 OLIVE ST","COMMERCE CITY","CO","80022"
273809,"6970 S 1500 W","OWENSVILLE","IN","47665"
273810,"6970 VERNON","DEARBORN HEIGHTS","MI","48127"
273811,"6971 74TH ST CIR E","BRADENTON","FL","34203"
273812,"6971 HUNTER AVE","ST LOUIS","MO","63121"
273813,"6971 NW 51ST STREET","MIAMI","FL","33166"
273814,"6971 W HOMOSASSA TRL","HOMOSASSA","FL","34448"
273815,"6972 FL GA HWY","HAVANA","FL","32333"
273816,"6972 NEW UPTON FARMS LANE","GLOUCESTER","VA","23061"
273817,"6972 STATE ROAD 103 SOUTH","STRAUGHN","IN","47387"
273818,"6973 DEEP CUP","COLUMBIA","MD","21045"
273819,"6973 VIRGINIA LANE","SAINT FRANCISVILLE","LA","70775"
273820,"69730 HIGHWAY 111 SUITE 210","RANCHO MIRAGE","CA","92270"
273821,"69733 KNIGHT LN","ELGIN","OR","97827"
273822,"6974 BEAGLE DRIVE","HAMILTON","OH","45011"
273823,"6974 OLEATHA AVE","SAINT LOUIS","MO","63139"
273824,"6975 COURTHOUSE ROAD","SPOTSYLVANIA","VA","22551"
273825,"6975 EMERSON LANE","SAN RAMON","CA","94582"
273826,"6975 W LOUSIANA AVE","LAKEWOOD","CO","80232"
273827,"6977 NAVAJO RD STE 193","SAN DIEGO","CA","92119"
273828,"6977 NAVAJO ROAD STE 170","SAN DIEGO","CA","92119"
273829,"6977 STONEWICK DRIVE","NEWBURGH","IN","47630"
273830,"6978 WEST AURORA DRIVE","GLENDALE","AZ","85308"
273831,"6978 WITHERS ROAD","RIVERSIDE","CA","92506"
273832,"6979 S R 105 S","ATKINS","AR","72823"
273833,"698 BEAR RIDGE DR NW","ISSAQUAH","WA","98027"
273834,"698 CRAIG LANE","NEOSHO","MO","64850"
273835,"698 EAST DUANE AVENUE","SUNNYVALE","CA","94085"
273836,"698 FRANKLIN STREET","VINEYARD HAVEN","MA","02568"
273837,"698 GRAND FOLIA COURT","SUGAR HILL","GA","30518"
273838,"698 MASSANUTTEN ROAD","GREENVILLE","NC","27834"
273839,"698 MILL ROAD","TELFORD","PA","18969"
273840,"698 MILLERTOWN ROAD","BLOOMSBURG","PA","17815"
273841,"698 MLK JR BLVD STE 66","MACON","GA","31201"
273842,"698 N 1280 E","AMERICAN FORK","UT","84003"
273843,"698 N MINNEWAWA","CLOVIS","CA","93611"
273844,"698 NE 1ST AVENUE APT 4402","MIAMI","FL","33132"
273845,"698 NW 123 PLACE","MIAMI","FL","33182"
273846,"698 NW YORK DRIVE","BEND","OR","97703"
273847,"698 OLD 3L HWY","FALMOUTH","KY","41040"
273848,"698 OVERBROOK ST","MUSKEGON HEIGHTS","MI","49444"
273849,"698 SHORT BEACH RD","NISSEQUOGUE","NY","11780"
273850,"698 WALKING HORSE RANCH DR","NORCO","CA","92860"
273851,"698 WEST 500 SOUTH","WEST BOUNTIFUL","UT","84087"
273852,"6980 ARVILLE ST","LAS VEGAS","NV","89118"
273853,"6980 CAMP FAR WEST RD","SHERIDAN","CA","95681"
273854,"6980 CAMP VALLEY RD","RIVERDALE","GA","30296"
273855,"6980 LAFAYETTE PARK DRIVE","JACKSONVILLE","FL","32244"
273856,"6980 MERCURY PLACE","CARLSBAD","CA","92009"
273857,"6980 SMOKE RANCH ROAD - STE 150","LAS VEGAS","NV","89128"
273858,"69801 WILDWOOD RD","ORTHNEBD","OR","97459"
273859,"69804 SQUIRE LOOP","COVE","OR","97824"
273860,"69805 CAMP POLK ROAD","SISTERS","OR","97759"
273861,"6981 DEARWESTER DRIVE","CINCINNATI","OH","45236"
273862,"6981 EDGEFIELD DR","NEW ORLEANS","LA","70128"
273863,"6981 NW 20TH CT","MARGATE","FL","33063"
273864,"6982 OCEAN MIST DR","BLAINE","WA","98230"
273865,"6983 BONNES BLVD","AUSTELL","GA","30168"
273866,"6983 CHASE RD","FABIUS","NY","13063"
273867,"6983 SERENA DR","CASTLE PINES","CO","80108"
273868,"6985 IRONGATE PL","FRISCO","TX","75034"
273869,"6985 RICHMOND RD","SOLON","OH","44139"
273870,"6985 S UNION PARK CENTER STE 650","MIDVALE","UT","84047"
273871,"6985 SAINT HELENA ROAD","SANTA ROSA","CA","95404"
273872,"6985 SANTA FELICIA","GOLETA","CA","93117"
273873,"6985 SOUTH UNION PARK CTR   STE 650","MIDVALE","UT","84047"
273874,"6985 WAITE DR 69","LA MESA","CA","91941"
273875,"6985 WOOSTER PIKE","CINCINNATI","OH","45227"
273876,"6986 CLARK HILLS DR NE","RIO RANCHO","NM","87144"
273877,"6986 FLANNERY ST","LAS VEGAS","NV","89166"
273878,"6987  SYLVAN WOODS DRIVE","SANFORD","FL","32771"
273879,"6987 COOLIDGE AVE","RIVERSIDE","CA","92506"
273880,"6987 SEISER CT","RIVERSIDE","CA","92506"
273881,"6988 ASHWOOD RD","WOODBURY","MN","55125"
273882,"6988 N TONTY AVE","CHICAGO","IL","60646"
273883,"6988 PINEHAVEN ROAD","OAKLAND","CA","94611"
273884,"6988 WINDRIFT CT","NEWBURGH","IN","47630"
273885,"6989  STATE ROUTE 125","HICKMAN","KY","42050"
273886,"6989 HWY 85  SUITE D1","RIVERDALE","GA","30274"
273887,"6989 SAGE AVE","YUCCA VALLEY","CA","92284"
273888,"699 ALEXITINE DRIVE","STAUNTON","VA","24401"
273889,"699 ALPINE VIEW ROAD","STOWE","VT","05672"
273890,"699 AUBURN AVE UNIT 206","DELRAY BEACH","FL","33444"
273891,"699 BOSTON RD","BILLERICA","MA","01821"
273892,"699 BOYLSTON STREET 14TH FL","BOSTON","MA","02116"
273893,"699 BRIDLE RIDGE RD","EAGAN","MN","55123"
273894,"699 BRUCITE STREET","GABBS","NV","89409"
273895,"699 CHALLENGER WAY","FORKED RIVER","NJ","08731"
273896,"699 CONCORD AVE","BELMONT","MA","02478"
273897,"699 COY LANE","CHAGRIN FALLS","OH","44022"
273898,"699 EMBARCADERO","MORRO BAY","CA","93442"
273899,"699 EXPOSITION BLVD","LOS ANGELES","CA","90089"
273900,"699 HARRINGTON ST","PALM BAY","FL","32908"
273901,"699 HIGHWAY 130","WINNSBORO","LA","71295"
273902,"699 IRA STREET","ATLANTA","GA","30310"
273903,"699 JOHN STREET SUITE 317","SEATTLE","WA","98109"
273904,"699 JOHN STREET","TEANECK","NJ","07666"
273905,"699 JUNE DRIVE","MOLALLA","OR","97038"
273906,"699 LEWELLING BLVD STE 146","SAN LEANDRO","CA","94579"
273907,"699 LEWELLING BLVD","SAN LEANDRO","CA","94579"
273908,"699 MCKIGHT AVE","WEST FORK","AR","72774"
273909,"699 MILDRED AVE","WOOD RIVER","IL","62095"
273910,"699 N VULCAN AV UNIT 91","ENCINITAS","CA","92021"
273911,"699 REYNARD AVENUE","CINCINNATI","OH","45231"
273912,"699 RIVERBEND RD","FRANKLIN","NC","28734"
273913,"699 S 16TH","KERMAN","CA","93630"
273914,"699 S FEDERAL HWY","HOLLYWOOD","FL","33020"
273915,"699 STRANDER BLVD","TUKWILA","WA","98188"
273916,"699 TIMBER TRACE LANE APT 206","TITUSVILLE","FL","32780"
273917,"699 W SALISBURY BLVD","SALISBURY","MD","21801"
273918,"699 W SALISBURY PARKWAY","SALISBURY","MD","21801"
273919,"699 WALNUT STREET  STE 2000","DES MOINES","IA","50309"
273920,"699 WASHINGTON WAY","SPARTANBURG","SC","29301"
273921,"699 WENDEL PLACE","TEANECK","NJ","07666"
273922,"699 WEST MAGEE ROAD APT 16103","TUCSON","AZ","85704"
273923,"699 WHEELERS FARMS RD","MILFORD","CT","06461"
273924,"699 WHEELOCK PARKWAY WEST","SAINT PAUL","MN","55117"
273925,"699 WINDSOR TERRACE","SCHENECTADY","NY","12308"
273926,"6990 CALLOWAY DRIVE","BAKERSFIELD","CA","93312"
273927,"6990 HAWTHORNE ST","LANDOVER","MD","20785"
273928,"6990 IVY HILL DRIVE","WARRENTON","VA","20187"
273929,"6990 REMUNDA RD","CORNING","CA","96021"
273930,"6990 RIEBER STREET","WORTHINGTON","OH","43085"
273931,"6990 S OSTER RD","WOODBURN","OR","97071"
273932,"6990 SANDCASTLE DRIVE","CARLSBAD","CA","92008"
273933,"6990 STEPHENSON LANE UNIT A","JBER","AK","99506"
273934,"6990 TEZEL ROAD","SAN ANTONIO","TX","78250"
273935,"6991 COATSWORTH DRIVE","STOCKBRIDGE","GA","30281"
273936,"6991 HANCOCK DR","PORT ST LUCIE","FL","34952"
273937,"6991 NCR 1200E","CHARLESTON","IL","61920"
273938,"6991 NORTH STATE ROAD 7","PARKLAND","FL","33073"
273939,"69910 M-62","EDWARDSBURG","MI","49112"
273940,"69910 M62","EDWARDSBURG","MI","49112"
273941,"6992 149TH AVE SE","MCLEOD","ND","58057"
273942,"6992 LAKE EAGLEBROOK DRIVE","LAKELAND","FL","33813"
273943,"6992 NW 42ND ST","MIAMI","FL","33166"
273944,"6992 ROAD 12","OTTAWA","OH","45875"
273945,"6993 APPLEWOOD DR","MADISON","WI","53719"
273946,"6993 APPLEWOOD DRIVE","MADISON","WI","53719"
273947,"6993 STARS AVE","MCKINNEY","TX","75070"
273948,"6994 GALLOWAY POINT","RIVERDALE","GA","30296"
273949,"6994 GILLIS WAY","GAINESVILLE","VA","20155"
273950,"6994 PINE SHADOW WAY","WINSTON","GA","30187"
273951,"6995 HAVENS RD","BLACKLICK","OH","43004"
273952,"6995 KILLARNEY DR","TROY","MI","48098"
273953,"6995 N ASTERION LANE","TUCSON","AZ","85741"
273954,"6995 THORPE DRIVE","MASON","TN","38049"
273955,"6995 TURNSTONE AVE","CASTLE ROCK","CO","80104"
273956,"6996 KITSON DR NE","ROCKFORD","MI","49341"
273957,"6996 QUEENFERRY CIRCLE","BOCA RATON","FL","33496"
273958,"6996 TIAZZA GRANDE AVENUE SUITE 102","ORLANDO","FL","32835"
273959,"6997 NAHAHHUM CANYON RD","CASHMERE","WA","98815"
273960,"6997 NAHAHUM CANYON RD","CASHMERE","WA","98815"
273961,"6997 REUNION CIRCLE","FOUNTAIN","CO","80817"
273962,"6998 E RALEIGH LAGRANGE ROAD","CORDOVA","TN","38018"
273963,"6998 OLD MILLSTONE DRIVE","MECHANICSVILLE","VA","23111"
273964,"6998 S WILSON DR","CHANDLER","AZ","85249"
273965,"6999 ASBURY GLIMP RD","RIPLEY","TN","38063"
273966,"6999 HWY 6 N","NAVASOTA","TX","77868"
273967,"6999 MCPHERSON RD STE 109","LAREDO","TX","78045"
273968,"6999 S SWEETBUSH AVE","TUCSON","AZ","85756"
273969,"6999 US HIGHWAY 2","WOLF POINT","MT","59201"
273970,"6999-02 MERRILL RD STE 284","JACKSONVILLE","FL","32277"
273971,"69B MONROE AVE","PITTSFORD","NY","14534"
273972,"69B RAFT HIGHLAND DRIVE NW","GIG HARBOUR","WA","98335"
273973,"6A BREWHAUS LN","OCEAN VIEW","NJ","08230"
273974,"6A CLEVELAND COURT","GREENVILLE","SC","29680"
273975,"6A PETER STREET","UXBRIDGE","MA","01569"
273976,"6A POTOMAC DRIVE","FAIRVIEW HEIGHTS","IL","62208"
273977,"6A PULASKI AVENUE","CARTERET","NJ","07008"
273978,"6C ARESENAL ROAD","FRAMINGHAM","MA","01702"
273979,"6D ESTATE ST PETER","ST THOMAS","VI","00802"
273980,"6N040 VIRGINIA RD","ROSELLE","IL","60172"
273981,"6N741 BROOKHAVEN LANE","ST. CHARLES","IL","60174"
273982,"6N954 CRESTWOOD DRIVE","ST CHARLES","IL","60175"
273983,"6RIMROCK RD 61","BARSTOW","CA","92311"
273984,"6S010 STEEPLE RUN DRIVE APT 1C","NAPERVILLE","IL","60540"
273985,"6S553 NAPER BLVD 5","NAPERVILLE","IL","60540"
273986,"6TH PICKERING LOWER SOUTHFORK SP","ELKO","NV","89801"
273987,"6TH STREET","KIMMSWICK","MO","63052"
273988,"6WEST 132ND STREET","NEW YORK","NY","10037"
273989,"7 08 179TH STREET","WHITESTONE","NY","11357"
273990,"7 14TH STREET SW","HICKORY","NC","28602"
273991,"7 3RD ST","WATERFORD","NY","12188"
273992,"7 4TH AVENUE","PATERSON","NJ","07524"
273993,"7 5TH STREET","CARNEGIE","PA","15106"
273994,"7 8TH ST","CLINTONVILLE","WI","54929"
273995,"7 ADELE ROAD","WEST NYACK","NY","10994"
273996,"7 ALTAMONT CT","GREENVILLE","SC","29609"
273997,"7 AMHERST LN","HAZLET","NJ","07730"
273998,"7 ANDERSON AVENUE","WEST HAVEN","CT","06516"
273999,"7 ANDERSON AVENUE","WINTERS","CA","95694"
274000,"7 ANDREWS VIEW COURT","WINDSOR MILL","MD","21244"
