"ID","Address","City","State","Zip"
358001,"PO BOX 77641","GREENSBORO","NC","27417"
358002,"PO BOX 77657","SEATTLE","WA","98177"
358003,"PO BOX 777","ALMA","AR","72921"
358004,"PO BOX 777","BENTON","KY","42025"
358005,"PO BOX 777","CENTERVILLE","TX","75833"
358006,"PO BOX 777","CORTEZ","FL","34215"
358007,"PO BOX 777","CULPEPER","VA","22701"
358008,"PO BOX 777","DALEVILLE","AL","36322"
358009,"PO BOX 777","GEORGETOWN","DE","19947"
358010,"PO BOX 777","GRAPELAND","TX","75844"
358011,"PO BOX 777","LOUISVILLE","MS","39339"
358012,"PO BOX 777","NOBLE","OK","73068"
358013,"PO BOX 777","OLD ORCHARD BEACH","ME","04064"
358014,"PO BOX 777","ONTARIO","OR","97914"
358015,"PO BOX 777","PEARL RIVER","NY","10965"
358016,"PO BOX 777","RALSTON","WY","82440"
358017,"PO BOX 777","REDWOOD ESTATES","CA","95044"
358018,"PO BOX 777","SELMA","NC","27576"
358019,"PO BOX 777","SOUTHAMPTON","NY","11969"
358020,"PO BOX 777","WOODLAND PARK","CO","80866"
358021,"PO BOX 7770973","WINTER GARDEN","FL","34777"
358022,"PO BOX 7771","SILVER SPRING","MD","20907"
358023,"PO BOX 7771","TEMPE","AZ","85281"
358024,"PO BOX 77712","SEATTLE","WA","98177"
358025,"PO BOX 7772","ROCKY MOUNT","NC","27804"
358026,"PO BOX 777234","HENDERSON","NV","89077"
358027,"PO BOX 7773","TEXARKANA","TX","75505"
358028,"PO BOX 778  ATTEN VOLUNTEER SERVIC","PALATKA","FL","32178"
358029,"PO BOX 778","AVON","CO","81620"
358030,"PO BOX 778","CATOOSA","OK","74015"
358031,"PO BOX 778","CHESTERTON","IN","46304"
358032,"PO BOX 778","CORBIN","KY","40702"
358033,"PO BOX 778","GRAHAM","NC","27253"
358034,"PO BOX 778","HARTSDALE","NY","10453"
358035,"PO BOX 778","MILLSBORO","DE","19966"
358036,"PO BOX 778","NEWBERRY","SC","29108"
358037,"PO BOX 778","PLAINVILLE","CT","06062"
358038,"PO BOX 778","ROANOKE","VA","24011"
358039,"PO BOX 778","SUNRAY","TX","79086"
358040,"PO BOX 778","WADSWORTH","OH","44282"
358041,"PO BOX 7780","FRESNO","CA","93747"
358042,"PO BOX 77814","STOCKTON","CA","95267"
358043,"PO BOX 778153","HENDERSON","NV","89077"
358044,"PO BOX 77822","GREENSBORO","NC","27417"
358045,"PO BOX 778267","HENDERSON","NV","89077"
358046,"PO BOX 7785","REDLANDS","CA","92375"
358047,"PO BOX 7787","ASPEN","CO","81612"
358048,"PO BOX 7788","OVERLAND PARK","KS","66207"
358049,"PO BOX 7792","TACOMA","WA","98406"
358050,"PO BOX 78","BARNES CITY","IA","50027"
358051,"PO BOX 78","BASTROP","TX","78602"
358052,"PO BOX 78","BENJAMIN","TX","79505"
358053,"PO BOX 78","CRESCENT MILLS","CA","95934"
358054,"PO BOX 78","DOUGLASVILLE","GA","30133"
358055,"PO BOX 78","ESKO","MN","55733"
358056,"PO BOX 78","FRANKTON","IN","46044"
358057,"PO BOX 78","HALLETTSVILLE","TX","77964"
358058,"PO BOX 78","LAJAS","PR","00667"
358059,"PO BOX 78","LIBERTY HILL","TX","78642"
358060,"PO BOX 78","TUMBLING SHOALS","AR","72581"
358061,"PO BOX 78","WESTFORD","PA","16134"
358062,"PO BOX 78","WORTON","MD","21678"
358063,"PO BOX 780","CEDAR HILL","TX","75106"
358064,"PO BOX 780","HUNTSVILLE","AL","35804"
358065,"PO BOX 780","KAPAA","HI","96746"
358066,"PO BOX 780","ONTARIO","OR","97914"
358067,"PO BOX 780","SEILING","OK","73663"
358068,"PO BOX 780","WYOMING","RI","02898"
358069,"PO BOX 7801","LOVELAND","CO","80537"
358070,"PO BOX 7801","PASADENA","TX","77508"
358071,"PO BOX 7801","TACOMA","WA","98417"
358072,"PO BOX 780115","SEBASTIAN","FL","32978"
358073,"PO BOX 78012","STOCKTON","CA","95267"
358074,"PO BOX 780123","MASPETH","NY","11378"
358075,"PO BOX 780248 EAST COTTON ROAD","ECLECTIC","AL","36024"
358076,"PO BOX 780248","TALLASSEE","AL","36078"
358077,"PO BOX 780250","TALLASSEE","AL","36078"
358078,"PO BOX 780406","WICHITA","KS","67278"
358079,"PO BOX 780546","MASPETH","NY","11378"
358080,"PO BOX 780631","ORLANDO","FL","32878"
358081,"PO BOX 780674","SAN ANTONIO","TX","78278"
358082,"PO BOX 780716","SEBASTIAN","FL","32978"
358083,"PO BOX 780748","SEBASTIAN","FL","32978"
358084,"PO BOX 78075","SEATTLE","WA","98178"
358085,"PO BOX 781","ATHOL","ID","83801"
358086,"PO BOX 781","CAPE GIRARDEAU","MO","63702"
358087,"PO BOX 781","DEWEYVILLE","TX","77614"
358088,"PO BOX 781","EDISON","NJ","08818"
358089,"PO BOX 781","GLASTONBURY","CT","06033"
358090,"PO BOX 781","LAKESIDE","AZ","85929"
358091,"PO BOX 781","REHOBOTH BEACH","DE","19971"
358092,"PO BOX 781","SANDSTON","VA","23150"
358093,"PO BOX 781","SAYVILLE","NY","11782"
358094,"PO BOX 781","WEST JEFFERSON","NC","28694"
358095,"PO BOX 781051","ORLANDO","FL","32878"
358096,"PO BOX 7811","ANN ARBO","MI","48107"
358097,"PO BOX 7811","WESLEY CHAPEL","FL","33545"
358098,"PO BOX 78116","WASHINGTON","DC","20013"
358099,"PO BOX 781248","SEBASTIAN","FL","32978"
358100,"PO BOX 7813","PORT SAINT LUCIE","FL","34985"
358101,"PO BOX 78135","BAKERSFIELD","CA","93383"
358102,"PO BOX 7814","ALGONQUIN","IL","60102"
358103,"PO BOX 781401","WICHITA","KS","67278"
358104,"PO BOX 78146","CORONA","CA","92877"
358105,"PO BOX 7815 / 300 N EASTERN AVENUE","MOORE","OK","73153"
358106,"PO BOX 7818","BEND","OR","97708"
358107,"PO BOX 7818","TORRANCE","CA","90504"
358108,"PO BOX 781912","SAN ANTONIO","TX","78278"
358109,"PO BOX 781983","ORLANDO","FL","32878"
358110,"PO BOX 782","BEACON","NY","12508"
358111,"PO BOX 782","CARLSBAD","CA","92018"
358112,"PO BOX 782","GOOCHLAND","VA","23063"
358113,"PO BOX 782","KELLER","TX","76244"
358114,"PO BOX 782","MILAN","IN","47031"
358115,"PO BOX 782","MINOT","ND","58702"
358116,"PO BOX 782","MODESTO","CA","95353"
358117,"PO BOX 782","PEQUOT LAKES","MN","56472"
358118,"PO BOX 782","PORT TOWNSEND","WA","98368"
358119,"PO BOX 782","ROWLEY","MA","01969"
358120,"PO BOX 782","WAITSFIELD","VT","05673"
358121,"PO BOX 782","WINTER PARK","FL","32789"
358122,"PO BOX 782","WOLFEBORO FALLS","NH","03896"
358123,"PO BOX 782","WOOODLAND PARK","CO","80866"
358124,"PO BOX 782038","SEBASTIAN","FL","32978"
358125,"PO BOX 7821","SALEM","OR","97303"
358126,"PO BOX 7823","CHARLOTTE","NC","28241"
358127,"PO BOX 78231","NASHVILLE","TN","37207"
358128,"PO BOX 782467","WICHITA","KS","67278"
358129,"PO BOX 7827","HOUSTON","TX","77270"
358130,"PO BOX 7828","FLINT","MI","48507"
358131,"PO BOX 78285","LOS ANGELES","CA","90016"
358132,"PO BOX 783 306 STAFFORD","EDNA","TX","77957"
358133,"PO BOX 783","CANTON","TX","75103"
358134,"PO BOX 783","CAREFREE","AZ","85377"
358135,"PO BOX 783","CARY","NC","27512"
358136,"PO BOX 783","CLEMMONS","NC","27012"
358137,"PO BOX 783","DONORA","PA","15033"
358138,"PO BOX 783","EAST NORTHPORT","NY","11731"
358139,"PO BOX 783","EPPING","NH","03042"
358140,"PO BOX 783","GREEN BAY","WI","54305"
358141,"PO BOX 783","LEONA VALLEY","CA","93551"
358142,"PO BOX 783","MECHANICSVILLE","MD","20659"
358143,"PO BOX 783","MOUNT DORA","FL","32756"
358144,"PO BOX 783","NEW CASTLE","CO","81647"
358145,"PO BOX 783","PINE BLUFF","AR","71611"
358146,"PO BOX 783","WEIMAR","CA","95736"
358147,"PO BOX 783","WINCHESTER","VA","22604"
358148,"PO BOX 78302","ATLANTA","GA","30357"
358149,"PO BOX 7831","SAVANNAH","GA","31418"
358150,"PO BOX 783188","WICHITA","KS","67278"
358151,"PO BOX 7832","SAINT CLOUD","MN","56302"
358152,"PO BOX 78358","SEATTLE","WA","98178"
358153,"PO BOX 78366","BATON ROUGE","LA","70818"
358154,"PO BOX 783963","WINTER GARDEN","FL","34778"
358155,"PO BOX 784 111 2ND ST","HANNA","WY","82327"
358156,"PO BOX 784","AUBURN","AL","36831"
358157,"PO BOX 784","DAVIS","WV","26260"
358158,"PO BOX 784","GLENPOOL","OK","74033"
358159,"PO BOX 784","GRAND RAPIDS","MN","55744"
358160,"PO BOX 784","HARRISONBURG","VA","22803"
358161,"PO BOX 784","LAGRANGE","KY","40031"
358162,"PO BOX 784","LAND O' LAKES","FL","34639"
358163,"PO BOX 784","LIBERTY","KY","42539"
358164,"PO BOX 784","MALIBU","CA","90265"
358165,"PO BOX 784","PENRYN","CA","95663"
358166,"PO BOX 784","PINSON","AL","35126"
358167,"PO BOX 784","ROCKPORT","ME","04856"
358168,"PO BOX 784","TAHLEQUAH","OK","74465"
358169,"PO BOX 784","TUXEDO PARK","NY","10987"
358170,"PO BOX 784","WILLOWS","CA","95988"
358171,"PO BOX 7840","WILMINGTON","NC","28406"
358172,"PO BOX 784171","WINTER GARDEN","FL","34778"
358173,"PO BOX 784233","WINTER GARDEN","FL","34778"
358174,"PO BOX 7844","VAN BUREN","AR","72956"
358175,"PO BOX 784766","WINTER GARDEN","FL","34778"
358176,"PO BOX 7848","FORT WORTH","TX","76111"
358177,"PO BOX 784893","WINTER GARDEN","FL","34778"
358178,"PO BOX 785","AROMAS","CA","95004"
358179,"PO BOX 785","CARLSBORG","WA","98382"
358180,"PO BOX 785","CLINTON","WA","98236"
358181,"PO BOX 785","CORRALES","NM","87048"
358182,"PO BOX 785","DALLAS","OR","97338"
358183,"PO BOX 785","LARAMIE","WY","82073"
358184,"PO BOX 785","MADISONVILLE","KY","42431"
358185,"PO BOX 785","SKYLAND","NC","28776"
358186,"PO BOX 785","WILLSBORO","NY","12996"
358187,"PO BOX 785","WINONA LAKE","IN","46590"
358188,"PO BOX 7851","LOS ANGELES","CA","90007"
358189,"PO BOX 78523","NASHVILLE","TN","37207"
358190,"PO BOX 7858","ROANOKE","VA","24019"
358191,"PO BOX 786 W OUTER RD","IMPERIAL","MO","63052"
358192,"PO BOX 786","CARBONDALE","CO","81623"
358193,"PO BOX 786","FORT ATKINSON","WI","53538"
358194,"PO BOX 786","LOMPOC","CA","93438"
358195,"PO BOX 786","SARATOGA SPRINGS","NY","12866"
358196,"PO BOX 78625","CHARLOTTE","NC","28271"
358197,"PO BOX 78652","SEATTLE","WA","98178"
358198,"PO BOX 78653","CHARLOTTE","NC","28271"
358199,"PO BOX 7866","ROANOKE","VA","24019"
358200,"PO BOX 78662","SEATTLE","WA","98118"
358201,"PO BOX 787","BETHEL","CT","06801"
358202,"PO BOX 787","NORTH ATTLEBORO","MA","02760"
358203,"PO BOX 787","ONALASKA","WA","98570"
358204,"PO BOX 787","PINEDALE","WY","82941"
358205,"PO BOX 78713","ATLANTA","GA","30357"
358206,"PO BOX 7874","VISALIA","CA","93290"
358207,"PO BOX 7878","ESSEX","MD","21221"
358208,"PO BOX 788","MARSHALL","MN","56258"
358209,"PO BOX 788","PAINTSVILLE","KY","41240"
358210,"PO BOX 788","SOMONAUK","IL","60552"
358211,"PO BOX 788","WOODSTOCK","GA","30188"
358212,"PO BOX 78804","CORONA","CA","92882"
358213,"PO BOX 7881","CHARLOTTESVILLE","VA","22906"
358214,"PO BOX 7881","GREENWOOD","IN","46142"
358215,"PO BOX 7889","SPANISH FORT","AL","36577"
358216,"PO BOX 78891","LOS ANGELES","CA","90016"
358217,"PO BOX 789","APPOMATTOX","VA","24522"
358218,"PO BOX 789","FELDA","FL","33930"
358219,"PO BOX 789","OAKHURST","NJ","07755"
358220,"PO BOX 7891","WILMINGTON","NC","28406"
358221,"PO BOX 7895","ANN ARBOR","MI","48107"
358222,"PO BOX 7897","COVINGTON","WA","98042"
358223,"PO BOX 79","CHESTER HEIGHTS","PA","19017"
358224,"PO BOX 79","GILLSVILLE","GA","30543"
358225,"PO BOX 79","LINCOLN","AL","35096"
358226,"PO BOX 79","MIAMIVILLE","OH","45147"
358227,"PO BOX 79","NARBERTH","PA","19072"
358228,"PO BOX 790","BURLEY","ID","83318"
358229,"PO BOX 790","CLAYTON","CA","94517"
358230,"PO BOX 790","FRENCH CAMP","CA","95231"
358231,"PO BOX 790","HALLOCK","MN","56728"
358232,"PO BOX 790","NORTHIFELD","NJ","08225"
358233,"PO BOX 790","SEALY","TX","77474"
358234,"PO BOX 790","SPANISH FORT","AL","36527"
358235,"PO BOX 790","SPARTA","NJ","07871"
358236,"PO BOX 790","SUSANVILLE","CA","96127"
358237,"PO BOX 7904","COLUMBIA","SC","29201"
358238,"PO BOX 790507","PAIA","HI","96779"
358239,"PO BOX 790583","PAIA","HI","96779"
358240,"PO BOX 7906","TORRANCE","CA","90504"
358241,"PO BOX 790702","CHARLOTTE","NC","28206"
358242,"PO BOX 791","BRYN MAWR","PA","19010"
358243,"PO BOX 791","CHERRYVILLE","NC","28021"
358244,"PO BOX 791","HOLDREGE","NE","68949"
358245,"PO BOX 791","LONG BEACH","CA","90801"
358246,"PO BOX 791","MEEKER","CO","81641"
358247,"PO BOX 791","MONTEREY","CA","93942"
358248,"PO BOX 791","OJAI","CA","93024"
358249,"PO BOX 791","PLS VRDS EST","CA","90274"
358250,"PO BOX 791","WADESBORO","NC","28170"
358251,"PO BOX 791042","NEW ORLEANS","LA","70179"
358252,"PO BOX 7911","JACKSON","WY","83002"
358253,"PO BOX 7911","WOODLAND PARK","CO","80863"
358254,"PO BOX 791191","PAIA","HI","96779"
358255,"PO BOX 7912","AUSTIN","TX","78713"
358256,"PO BOX 791351","NEW ORLEANS","LA","70179"
358257,"PO BOX 791571","NEW ORLEANS","LA","70179"
358258,"PO BOX 79164","CHARLOTTE","NC","28271"
358259,"PO BOX 791651","SAN ANTONIO","TX","78279"
358260,"PO BOX 79166","CAROLINA","PR","00984"
358261,"PO BOX 79174","CHARLOTTE","NC","28271"
358262,"PO BOX 791852","NEW ORLEANS","LA","70119"
358263,"PO BOX 791864","PAIA","HI","96779"
358264,"PO BOX 792","BATESVILLE","MS","38606"
358265,"PO BOX 792","BEDFORD PARK","IL","60499"
358266,"PO BOX 792","CORNELIUS","NC","28031"
358267,"PO BOX 792","FLORISSANT","MO","63032"
358268,"PO BOX 792","HELOTES","TX","78023"
358269,"PO BOX 792","KNIGHTDALE","NC","27545"
358270,"PO BOX 792","MARQUETTE","MI","49855"
358271,"PO BOX 792","NASHVILLE","NC","27856"
358272,"PO BOX 792","PIONEER","OH","43554"
358273,"PO BOX 792","ROSEMONT","IL","60018"
358274,"PO BOX 792","STEVENSON","WA","98648"
358275,"PO BOX 792","SUMMIT","NJ","07902"
358276,"PO BOX 7926","LAWTON","OK","73506"
358277,"PO BOX 793","BELTSVILLE","MD","20705"
358278,"PO BOX 793","BENTONVILLE","AR","72712"
358279,"PO BOX 793","BIG BEAR LAKE","CA","92315"
358280,"PO BOX 793","BRIDGETON","NC","28519"
358281,"PO BOX 793","EDMONDS","WA","98020"
358282,"PO BOX 793","GAINESVILLE","MO","65655"
358283,"PO BOX 793","GRAY","ME","04039"
358284,"PO BOX 793","HUDSON","NY","12534"
358285,"PO BOX 793","NORT SCITUATE","RI","02857"
358286,"PO BOX 793","POWDER SPRINGS","GA","30127"
358287,"PO BOX 793","ROCKY POINT","NY","11778"
358288,"PO BOX 793","SOUTHERN PINES","NC","28388"
358289,"PO BOX 793","TUCKER","GA","30085"
358290,"PO BOX 793","WAVERLY","TN","37185"
358291,"PO BOX 793","WHITE SALMON","WA","98672"
358292,"PO BOX 7931","MOORE","OK","73153"
358293,"PO BOX 7933","CROSS LANES","WV","25356"
358294,"PO BOX 794","ANNA MARIA","FL","34216"
358295,"PO BOX 794","BLUE LAKE","CA","95525"
358296,"PO BOX 794","ELMENDORF","TX","78112"
358297,"PO BOX 794","FENTON","MI","48430"
358298,"PO BOX 794","LUQUILLO","PR","00773"
358299,"PO BOX 794","MOBERLY","MO","65270"
358300,"PO BOX 794","PAULS VALLEY","OK","73075"
358301,"PO BOX 794","PORTSMOUTH","RI","02871"
358302,"PO BOX 794","SOLEDAD","CA","93960"
358303,"PO BOX 794","SUTTER CREEK","CA","95685"
358304,"PO BOX 7941","ST PETERSBURG","FL","33734"
358305,"PO BOX 7942","RICHMOND","VA","23223"
358306,"PO BOX 7944","READING","PA","19603"
358307,"PO BOX 794582","DALLAS","TX","75379"
358308,"PO BOX 794642","DALLAS","TX","75379"
358309,"PO BOX 795","BELLINGHAM","WA","98227"
358310,"PO BOX 795","CARSON CITY","NV","89702"
358311,"PO BOX 795","CHAPEL HILL","NC","27514"
358312,"PO BOX 795","EAST LYME","CT","06333"
358313,"PO BOX 795","GRANITE FALLS","NC","28630"
358314,"PO BOX 795","HARRISON","NY","10528"
358315,"PO BOX 795","LA GRANGE","TX","78945"
358316,"PO BOX 795","OAK HARBOR","WA","98277"
358317,"PO BOX 795","OSKALOOSA","IA","52577"
358318,"PO BOX 795","PENDLETON","OR","97801"
358319,"PO BOX 795","PRIEST RIVER","ID","83856"
358320,"PO BOX 795","SLEEPY HOLLOW","NY","10591"
358321,"PO BOX 795","SPICEWOOD","TX","78669"
358322,"PO BOX 795","SUISUN CITY","CA","94585"
358323,"PO BOX 795","TANNERSVILLE","PA","18372"
358324,"PO BOX 795","WAXAHACHIE","TX","75168"
358325,"PO BOX 795","WOODLAND","CA","95776"
358326,"PO BOX 7950","WILMINGTON","NC","28406"
358327,"PO BOX 795093","DALLAS","TX","75379"
358328,"PO BOX 795247","DALLAS","TX","75379"
358329,"PO BOX 79549","CAROLINA","PR","00984"
358330,"PO BOX 79590","SAGINAW","TX","76179"
358331,"PO BOX 796 100 NORTH 6TH STREET","HANNIBAL","MO","63401"
358332,"PO BOX 796","CASTLE ROCK","CO","80104"
358333,"PO BOX 796","DEARBORN HEIGHTS","MI","48127"
358334,"PO BOX 796","FLEISCHMANNS","NY","12430"
358335,"PO BOX 796","GLENMONT","NY","12077"
358336,"PO BOX 796","HANNIBAL","MO","63401"
358337,"PO BOX 796","HENAGAR","AL","35978"
358338,"PO BOX 796","INKSTER","MI","48141"
358339,"PO BOX 796","WOODWARD","OK","73802"
358340,"PO BOX 7964","COLUMBUS","GA","31908"
358341,"PO BOX 796412","DALLAS","TX","75379"
358342,"PO BOX 79651","HOUSTON","TX","77279"
358343,"PO BOX 79694","FORT WORTH","TX","76179"
358344,"PO BOX 797 SAN ANTONIO","AGUADILLA","PR","00690"
358345,"PO BOX 797","CHESTERTON","IN","46304"
358346,"PO BOX 797","EDGEMONT","SD","57735"
358347,"PO BOX 797","ODEM","TX","78370"
358348,"PO BOX 797","PUYALLUP","WA","98371"
358349,"PO BOX 797","STARKVILLE","MS","39760"
358350,"PO BOX 797","WELLINGTON","CO","80549"
358351,"PO BOX 797","WHITE STONE","SC","29386"
358352,"PO BOX 7970","ALGONQUIN","IL","60102"
358353,"PO BOX 79701","HOUSTON","TX","77279"
358354,"PO BOX 798","DADE CITY","FL","33526"
358355,"PO BOX 798","EL CERRITO","CA","94530"
358356,"PO BOX 798","LISBON","ND","58054"
358357,"PO BOX 798","NORTH BERWICK","ME","03906"
358358,"PO BOX 7984","KALISPELL","MT","59904"
358359,"PO BOX 7985","BOISE","ID","83707"
358360,"PO BOX 799","LEAD","SD","57754"
358361,"PO BOX 7990","WASHINGTON","DC","20044"
358362,"PO BOX 7991","HAMPTON","VA","23666"
358363,"PO BOX 8-10 WACHUSETTS STREET","FITCHBURG","MA","01420"
358364,"PO BOX 8","ALBERTON","MT","59820"
358365,"PO BOX 8","ATMORE","AL","36504"
358366,"PO BOX 8","AVENAL","CA","93204"
358367,"PO BOX 8","BAMBERG","SC","29003"
358368,"PO BOX 8","BARRYVILLE","NY","12719"
358369,"PO BOX 8","COMSTOCK","MI","49041"
358370,"PO BOX 8","DILLON","SC","29536"
358371,"PO BOX 8","EMPIRE","CO","80438"
358372,"PO BOX 8","HARDWICK","VT","05843"
358373,"PO BOX 8","HAYTI","SD","57241"
358374,"PO BOX 8","HAZELWOOD","NC","28738"
358375,"PO BOX 8","HUMBOLDT","AZ","86329"
358376,"PO BOX 8","HUNTSVILLE","AR","72740"
358377,"PO BOX 8","JOSEPH CITY","AZ","86032"
358378,"PO BOX 8","LEAVENWORTH","WA","98826"
358379,"PO BOX 8","LIVONIA","NY","14487"
358380,"PO BOX 8","LLANO","TX","78643"
358381,"PO BOX 8","MANCHESTER","NH","03105"
358382,"PO BOX 8","MIDLAND","PA","18059"
358383,"PO BOX 8","MONTEREY","MA","01245"
358384,"PO BOX 8","NEW CARLISLE","OH","45344"
358385,"PO BOX 8","OSAGE BEACH","MO","65065"
358386,"PO BOX 8","PALM DESERT","CA","92261"
358387,"PO BOX 8","PENINSULA","OH","44264"
358388,"PO BOX 8","PENNSBORO","WV","26415"
358389,"PO BOX 8","ROSENDALE","NY","12472"
358390,"PO BOX 8","SILVERDALE","WA","98383"
358391,"PO BOX 8","STANLEY","ID","83278"
358392,"PO BOX 8","STERLING","IL","61081"
358393,"PO BOX 8","STEVENSVILLE","MT","59870"
358394,"PO BOX 8","TARBORO","NC","27886"
358395,"PO BOX 8","TOLLAND","CT","06084"
358396,"PO BOX 8","TWIN BRIDGES","MT","59754"
358397,"PO BOX 8","YUCCA VALLEY","CA","92286"
358398,"PO BOX 80  5586 MT BLISS RD","EAST JORDAN","MI","49727"
358399,"PO BOX 80","ARROYO GRANDE","CA","93421"
358400,"PO BOX 80","ARROYO SECO","NM","87514"
358401,"PO BOX 80","DAYTON","MT","59914"
358402,"PO BOX 80","FRIENDSHIP","OH","45630"
358403,"PO BOX 80","HARLEM","NY","10026"
358404,"PO BOX 80","MINSTER","OH","45865"
358405,"PO BOX 80","NEW HAVEN","CT","06510"
358406,"PO BOX 80","RIVES JUNCTION","MI","49277"
358407,"PO BOX 80","RUSSELL SPRINGS","KY","42642"
358408,"PO BOX 80","SUPPLY","NC","28462"
358409,"PO BOX 800","CHARLESTOWN","ID","02813"
358410,"PO BOX 800","DEPUE","IL","61322"
358411,"PO BOX 800","HILLSBORO","MO","63050"
358412,"PO BOX 800","LYNCHBURG","VA","24503"
358413,"PO BOX 800","LYNCHBURG","VA","24505"
358414,"PO BOX 800","NORWICH","VT","05055"
358415,"PO BOX 800","SPEARMAN","TX","79081"
358416,"PO BOX 800","VERNON","NJ","07462"
358417,"PO BOX 8000 PMB 8190","SISTERS","OR","97759"
358418,"PO BOX 800017","AVENTURA","FL","33280"
358419,"PO BOX 80002","CONYERS","GA","30013"
358420,"PO BOX 80005","CHARLESTON","SC","29416"
358421,"PO BOX 800051","ELMHURST","NY","11380"
358422,"PO BOX 800058","SANTA CLARITA","CA","91380"
358423,"PO BOX 8001","CANTON","OH","44711"
358424,"PO BOX 8002","CAGUA","PR","00726"
358425,"PO BOX 80022","BILLINGS","MT","59102"
358426,"PO BOX 800301","DALLAS","TX","75380"
358427,"PO BOX 80031","CONYERS","GA","30013"
358428,"PO BOX 80032","DARTMOUTH","MA","02748"
358429,"PO BOX 80033","PORTLAND","OR","97280"
358430,"PO BOX 8004","THE WOODLANDS","TX","77387"
358431,"PO BOX 8004","VISALIA","CA","93290"
358432,"PO BOX 8004","WHITE PLAINS","NY","10601"
358433,"PO BOX 80046","BATON ROUGE","LA","70898"
358434,"PO BOX 8005","CARY","NC","27512"
358435,"PO BOX 80053","FAIRBANNKS","AK","99708"
358436,"PO BOX 800574","HOUSTON","TX","77280"
358437,"PO BOX 80072","RANCHO SANTA MARGARI","CA","92688"
358438,"PO BOX 800721","DALLAS","TX","75380"
358439,"PO BOX 80073","ATHENS","GA","30608"
358440,"PO BOX 800742","AVENTURA","NY","33280"
358441,"PO BOX 800744","BALCH SPRINGS","TX","75180"
358442,"PO BOX 8008","LOUISVILLE","KY","40257"
358443,"PO BOX 80083","STARKVILLE","MS","39759"
358444,"PO BOX 8009","GREENVILLE","SC","29604"
358445,"PO BOX 80095","LINCOLN","NE","68501"
358446,"PO BOX 801","BETHPAGE","NY","11714"
358447,"PO BOX 801","COLUMBIA","KY","42728"
358448,"PO BOX 801","CROSSVILLE","TN","38557"
358449,"PO BOX 801","DORADO","PR","00646"
358450,"PO BOX 801","ELK CITY","OK","73644"
358451,"PO BOX 801","ELLERBE","NC","28338"
358452,"PO BOX 801","FARMERVILLE","LA","71241"
358453,"PO BOX 801","FARMINGTON","AR","72730"
358454,"PO BOX 801","FLATWOODS","KY","41139"
358455,"PO BOX 801","KALISPELL","MT","59903"
358456,"PO BOX 801","LODI","CA","95241"
358457,"PO BOX 801","MATHEWS","VA","23109"
358458,"PO BOX 801","QUECHEE","VT","05059"
358459,"PO BOX 8010","COLUMBIA FALLS","MT","59912"
358460,"PO BOX 801011","ACWORTH","GA","30101"
358461,"PO BOX 801014","ACWORTH","GA","30101"
358462,"PO BOX 801056","ACWORTH","GA","30101"
358463,"PO BOX 801137","ACWORTH","GA","30101"
358464,"PO BOX 8012","RUIDOSO","NM","88355"
358465,"PO BOX 80122","TOLEDO","OH","43608"
358466,"PO BOX 801328","ACWORTH","GA","30101"
358467,"PO BOX 80136","COROZAL","PR","00783"
358468,"PO BOX 801361","DALLAS","TX","75380"
358469,"PO BOX 8014","LAGUNA HILLS","CA","92654"
358470,"PO BOX 80140","BROOKLYN","NY","11208"
358471,"PO BOX 80141","CHAMBLEE","GA","30341"
358472,"PO BOX 80142","ATLANTA","GA","30341"
358473,"PO BOX 80143","LINCOLN","NE","68501"
358474,"PO BOX 80144","CANTON","OH","44708"
358475,"PO BOX 801470","ACWORTH","GA","30101"
358476,"PO BOX 801479","ACWORTH","GA","30101"
358477,"PO BOX 80152","BATON ROUGE","LA","70898"
358478,"PO BOX 801544","DALLAS","TX","75380"
358479,"PO BOX 801548","DALLAS","TX","75380"
358480,"PO BOX 801641","LAS VEGAS","NV","89180"
358481,"PO BOX 8017","SAN JUAN","PR","00910"
358482,"PO BOX 801711","ACWORTH","GA","30101"
358483,"PO BOX 80186","CANTON","OH","44708"
358484,"PO BOX 802","BRIDGE CITY","TX","77611"
358485,"PO BOX 802","CLIFTON","CO","81520"
358486,"PO BOX 802","CONRAD","MT","59425"
358487,"PO BOX 802","FOGELSVILLE","PA","18051"
358488,"PO BOX 802","GLENDALE","AZ","85311"
358489,"PO BOX 802","LYNBROOK","NY","11563"
358490,"PO BOX 802","MARCO ISLAND","FL","34146"
358491,"PO BOX 802","MERRILL","WI","54452"
358492,"PO BOX 802","PORTLAND","IN","47371"
358493,"PO BOX 802","WEST CHESTER","OH","45071"
358494,"PO BOX 80208","AMARILLO","TX","79109"
358495,"PO BOX 802094","SANTA CLARITA","CA","91380"
358496,"PO BOX 8022","GLEN RIDGE","NJ","07028"
358497,"PO BOX 80221","BILLINGS","MT","59108"
358498,"PO BOX 8023","EUREKA","CA","95502"
358499,"PO BOX 8025","ERIE","PA","16505"
358500,"PO BOX 80251","RANCHO SANTA MARGARI","CA","92688"
