"ID","Address","City","State","Zip"
73001,"156 STAR BLOSSOM DRIVE APT 404","MEMPHIS","TN","38103"
73002,"156 STATE STREET FL5","BOSTON","MA","02109"
73003,"156 STEWART ROAD","PILESGROVE","NJ","08098"
73004,"156 STRAWBERRY PLAINS RD STE C1","WILLIAMSBURG","VA","23188"
73005,"156 STRAWBERRY PLAINS ROAD SUITE C1","WILLIAMSBURG","VA","23188"
73006,"156 SUMMER STREET APT 309","SOMERVILLE","MA","02143"
73007,"156 TREETOP BLUFF LN","BONNERS FERRY","ID","83805"
73008,"156 VERONA DR APT 401","LAFAYETTE","LA","70507"
73009,"156 VISTA VIEW DRIVE","WEST COLUMBIA","SC","29172"
73010,"156 W MONTANA AVE","GLENDALE HEIGHTS","IL","60139"
73011,"156 WALTON ROAD","SEABROOK","NH","03874"
73012,"156 WEBFOOT DRIVE","GARNER","NC","27529"
73013,"156 WEST 44TH STREET 3RD FLOOR","NEW YORK","NY","10036"
73014,"156 WOOD ST","PROVIDENCE","RI","02909"
73015,"156 WOOD STREET","PROVIDENCE","RI","02909"
73016,"156 WORCESTER","DETROIT","MI","48260"
73017,"156 YORK ST LOWER APT","BUFFALO","NY","14213"
73018,"156-04 11O AVE","JAMAICA","NY","11433"
73019,"156-18 107TH STREET","JAMAICA","NY","11433"
73020,"156-20 SOUTH ROAD","JAMAICA","NY","11433"
73021,"156-25  76TH ST-HOWARD BEACH","QUEENS","NY","11414"
73022,"156-8 RIVERSIDE DR APT 6G","NEW YORK","NY","10032"
73023,"156","COWPENS","SC","29330"
73024,"1560 ADAMS STREET","DENVER","CO","80206"
73025,"1560 BEN KING ROAD NW","KENNESAW","GA","30144"
73026,"1560 BILL JONES RD","AFTON","TN","37616"
73027,"1560 BRAMBLE BUSH WAY","SUWANEE","GA","30024"
73028,"1560 BUCHANON DR","CLARKSVILLE","TN","37042"
73029,"1560 CAPITAL CIRCLE NW SUITE 11","TALLAHASSEE","FL","32303"
73030,"1560 CELEBRATION BLVD UNIT 313","CELEBRATION","FL","34747"
73031,"1560 CHIHUAHUA ROAD NE","RIO RANCHO","NM","87144"
73032,"1560 CUNNINGHAM DRIVE","HELENA","AL","35080"
73033,"1560 FOLEY STREET","HOUSTON","TX","77055"
73034,"1560 GLOVER ST 1ST FLOOR","BRONX","NY","10462"
73035,"1560 GRIMES AVE","MODESTO","CA","95358"
73036,"1560 HARLEM ROAD","CHEEKTOWAGA","NY","14206"
73037,"1560 HAWKINS AVE","NORTH BALDWIN","NY","11510"
73038,"1560 HUMPHREY AVE","BIRMINGHAM","MI","48009"
73039,"1560 JACKSON AVE NE","SAINT MICHAEL","MN","55376"
73040,"1560 KNOXLYN ORRTANNA ROAD","ORRTANNA","PA","17353"
73041,"1560 LAKE BALDWIN LANE B","ORLANDO","FL","32814"
73042,"1560 LASALLE PARC DRIVE","BATON ROUGE","LA","70806"
73043,"1560 M 40 NORTH","ALLEGAN","MI","49010"
73044,"1560 MATTHEW DRIVE SUITE E","FORT MYERS","FL","33957"
73045,"1560 MAYFLOWER AVENUE","BRONX","NY","10461"
73046,"1560 N LAUREL AVE UNIT 101","LOS ANGELES","CA","90046"
73047,"1560 NEWBURY RD SUITE 1-308","NEWBURY PARK","CA","91320"
73048,"1560 NORTH COUNTY ROAD 1880","CARTHAGE","IL","62321"
73049,"1560 NW 111TH AVE","PEMBROKE PINES","FL","33026"
73050,"1560 NW 22ND AVE","DELRAY BEACH","FL","33445"
73051,"1560 NW 96TH AVE","PLANTATION","FL","33322"
73052,"1560 PENNELL LN","DYERSBURG","TN","38024"
73053,"1560 PINE STREET APARTMENT 3","CONCORD","CA","94520"
73054,"1560 POLARIS LN","BEAUMONT","CA","92223"
73055,"1560 PURDY STREET","BRONX","NY","10462"
73056,"1560 RIO VISTA","FALLON","NV","89406"
73057,"1560 S BILL DELLER RD","ANGOLA","IN","46703"
73058,"1560 S LINWOOD AVE","EVANSVILLE","IN","47713"
73059,"1560 SE 50TH ST","COLUMBUS","KS","66725"
73060,"1560 SUNNYSIDE DRIVE","COLUMBIA","SC","29204"
73061,"1560 SW 500","HOLDEN","MO","64040"
73062,"1560 SW WYNWOOD AVE","PORTLAND","OR","97225"
73063,"1560 TURK STREET 123","SAN FRANCISCO","CA","94115"
73064,"1560 TURK STREET APT 123","SAN FRANCISCO","CA","94115"
73065,"1560 WATSON ST","MOUNT PLEASANT","MI","48858"
73066,"1560 WEST BEEBE CAPPS EXPY   119","SEARCY","AR","72143"
73067,"1560 WEST PIERCE STREET APT 412","MILWAUKEE","WI","53204"
73068,"1560 WILLOUGHBY RD","MASON","MI","48854"
73069,"1560 WYATT ROAD","MANNINGTON","WV","26582"
73070,"1560 YOSEMITE DR SUITE  222","EAGLE ROCK","CA","90041"
73071,"15600 NE 8TH ST B1401","BELLEVUE","WA","98008"
73072,"15600 NE 8TH ST STE B1-309","BELLEVUE","WA","98008"
73073,"15600 NE 8TH ST UNIT B1220","BELLEVUE","WA","98008"
73074,"15600 NE 8TH STREET  SUITE B1-971","BELLEVUE","WA","98008"
73075,"15600 NE 8TH STREET STE B1-268","BELLEVUE","WA","98008"
73076,"15600 NE 8TH SUITE B1 PMB 704","BELLEVUE","WA","98008"
73077,"15600 REDMOND WAY STE 101","REDMOND","WA","98052"
73078,"15600 SILVER EAGLE ROAD","GROVELAND","FL","34736"
73079,"15600 WOLF ROAD","ORLAND PARK","IL","60467"
73080,"15601 CHRISTOPHER LANE","FRISCO","TX","75035"
73081,"15601 DALLAS PARKWAY SUITE 900","ADDISON","TX","75001"
73082,"15601 FM 969","AUSTIN","TX","78724"
73083,"15601 FOLIAGE AVENUE SOUTH 139","APPLE VALLEY","MN","55124"
73084,"15601 LILAC DRIVE","EDEN PRAIRIE","MN","55347"
73085,"15601 NE 48TH ST","VANCOUVER","WA","98682"
73086,"15601 NEATH DRIVE","WOODBRIDGE","VA","22193"
73087,"15601 TRIPLE CROWN COURT","FORT MYERS","FL","33912"
73088,"15602 HANOVER BREEZE LN","HOUSTON","TX","77044"
73089,"15603 CHECOTAH DRIVE","AUSTIN","TX","78734"
73090,"15603 MUSTANG ISLAND DR","SUGAR LAND","TX","77498"
73091,"15603 TIGER CREEK COURT","COLLEGE STATION","TX","77845"
73092,"15604 COUNTRY LAKE DRIVE","PINEVILLE","NC","28134"
73093,"15604 POLE PINE POINT","COLORADO SPRINGS","CO","80908"
73094,"15605 CARMENITA RD","SANTA FE SPRINGS","CA","90670"
73095,"15605 EVERGLADE LANE APT 203","BOWIE","MD","20716"
73096,"15605 FOX RUN DRIVE","AUSTIN","TX","78737"
73097,"15605 GLACIER HWY","JUNEAU","AK","99801"
73098,"15605 NE 10TH STREET","VANCOUVER","WA","98684"
73099,"15605 NE 1ST PL","BELLEVUE","WA","98008"
73100,"15606 EVERGLADE LANE APT 204","BOWIE","MD","20716"
73101,"15606 MARTINEAU ST","HOUSTON","TX","77032"
73102,"15606 N PLATTE DR","BOWIE","MD","20716"
73103,"15606 NAHIN LN","SANTA CLARITA","CA","91387"
73104,"15606 NE 40TH ST APT P258","REDMOND","WA","98052"
73105,"15606 PENDIO DR","MONTVERDE","FL","34756"
73106,"15606 PUMPKIN PL","FONTANA","CA","92336"
73107,"15606 S BUDLONG PL 6","GARDENA","CA","90247"
73108,"15606 SIMONDS ST","GRANADA HILLS","CA","91344"
73109,"15607 ASHBOURNNE SPRINGS LANE","HOUSTON","TX","77095"
73110,"15607 HUMBERSIDE WAY","UPPER MARLBORO","MD","20774"
73111,"15607 S 26TH W AVE","GLENPOOL","OK","74033"
73112,"15608 FARMINGTON CT","ACCOKEEK","MD","20607"
73113,"15608 HENRIETTA DR","ACCOKEEK","MD","20607"
73114,"15608 SKYLARK AVE","FONTANA","CA","92336"
73115,"1561  OLD HIGHWAY 8","NEW BRIGHTON","MN","55112"
73116,"1561 3RD ST","MANHATTAN BEACH","CA","90266"
73117,"1561 ADAMS RD","YUBA CITY","CA","95993"
73118,"1561 BROOKWOOD LAKE DR","SNELLVILLE","GA","30078"
73119,"1561 CITY VIEW -  APT 201","EUGENE","OR","97402"
73120,"1561 E HIGHLAND TRAILS ROAD","ENOCH","UT","84721"
73121,"1561 E OAKTON STREET","DES PLAINES","IL","60018"
73122,"1561 GREEN OAK CIRCLE","LAWRENCEVILLE","GA","30043"
73123,"1561 HANNUM DRIVE","STREETSBORO","OH","44241"
73124,"1561 HUBERT RD","HUBBARD LAKE","MI","49747"
73125,"1561 IRONWOOD","GILMER","TX","75644"
73126,"1561 JACKSON ST","ALIQUIPPA","PA","15001"
73127,"1561 JEFFERSON AVE","BRUNSWICK","OH","44212"
73128,"1561 JOINER PARKWAY","LINCOLN","CA","95648"
73129,"1561 LAGUNA RD","SANTA ROSA","CA","95401"
73130,"1561 LINCOLN PLACE APT 2A","BROOKLYN","NY","11233"
73131,"1561 LINDACREST DRIVE","BEVERLY HILLS","CA","90210"
73132,"1561 LUGO AVENUE","MIAMI","FL","33156"
73133,"1561 MONTGOMERY HWY","BIRMINGHAM","AL","35216"
73134,"1561 NORHT CENTRAL AVENUE","VALLEY STREAM","NY","11580"
73135,"1561 NORTH LAKE HOWARD DRIVE","WINTER HAVEN","FL","33881"
73136,"1561 OLD HIGHWAY 8 NW","NEW BRIGHTON","MN","55112"
73137,"1561 OLD LEONARD AVE","COLUMBUS","OH","43219"
73138,"1561 RIVERBANK ST","LINCOLN PARK","MI","48146"
73139,"1561 ROSECREAST TERRACE","SAN JOSE","CA","95126"
73140,"1561 SE RIVER RIDGE DRIVE","PORTLAND","OR","97222"
73141,"1561 SOARING STAR","PROSPER","TX","75078"
73142,"1561 SOUTH BEVERLY DR SUITE 302","LOS ANGELES","CA","90035"
73143,"1561 SW 55TH AVE","PLANTATION","FL","33317"
73144,"1561 THOMAS AVENUE","SAN DIEGO","CA","92109"
73145,"1561 TULLY COURT","BLOOMFIELD HILLS","MI","48302"
73146,"1561 US HIGHWAY 271 N STE K","GILMER","TX","75644"
73147,"1561 VIRGINIA AVE SUITE 202A","COLLEGE PARK","GA","30337"
73148,"1561 W 14TH STREET","RIVIERA BEACH","FL","33404"
73149,"1561 WHITE OAK CT","FRANKLIN","IN","46131"
73150,"1561 WINNFIELD ROAD","WEST MONROE","LA","71292"
73151,"15610 BIBURY ALLEY","UPPER MARLBORO","MD","20774"
73152,"15610 E ST HWY 243","KAUFMAN","TX","75142"
73153,"15610 NE HICKORY ST","VANCOUVER","WA","98682"
73154,"15610 PINE GLEN CT","CHARLOTTE","NC","28273"
73155,"15610 VERONICA AVE","EASTPOINTE","MI","48021"
73156,"15611 LATINA PLACE","WELLINGTON","FL","33414"
73157,"15611 LOHR RD","THURMONT","MD","21788"
73158,"15611 OLETA LANE","SUGAR LANE","TX","77498"
73159,"15612 N 8TH ST","PHOENIX","AZ","85022"
73160,"15613  NE 1ST ST","BELLEVUE","WA","98008"
73161,"15613 NE 1ST ST","BELLEVUE","WA","98008"
73162,"15613 VICKI DR","OKLAHOMA CITY","OK","73170"
73163,"15614 LAKEPOINT FOREST DRIVE","CHARLOTTE","NC","28278"
73164,"15614 MARATHON CIRCLE APT 104","GAITHERSBURG","MD","20878"
73165,"15614 MERIDIAN AVENUE EAST NO 400","PUYALLUP","WA","98375"
73166,"15614 PEACE VALLEY ROAD","BROOKWOOD","AL","35444"
73167,"15614 VISALIA AVE","COMPTON","CA","90220"
73168,"15615 CONSER STREET","OVERLAND PARK","KS","66223"
73169,"15615 DOWNFORD DRIVE","TOMBALL","TX","77377"
73170,"15615 NELSON AVENUE","LA PUENTE","CA","91744"
73171,"15615 STALLION PEAK CIRCLE","CYPRESS","TX","77429"
73172,"15616 AURORA AVE","URBANDALE","IA","50323"
73173,"15616 BERNARDO CENTER DRIVE 3505","SAN DIEGO","CA","92127"
73174,"15616 COPPER BEECH DRIVE","UPPER MARLBORO","MD","20774"
73175,"15616 GILLMORE GREENS COURT","BRANDYWINE","MD","20613"
73176,"15616 SW 85TH TERRACE","MIAMI","FL","33193"
73177,"15617 ALPINWOOD PL SE","OLALLA","WA","98359"
73178,"15617 HAZEL RD","EAST CLEVELAND","OH","44112"
73179,"15618 E TIERRA REJADA RD","MOORPARK","CA","93021"
73180,"15618 EVERGLADE LANE 205","BOWIE","MD","20716"
73181,"15618 GEORGE WASHINGTON DRIVE","SOUTHFIELD","MI","48075"
73182,"15618 OAKWORTH CT","SUGAR LAND","TX","77498"
73183,"15619 CLOUD TOP","SAN ANTONIO","TX","78248"
73184,"15619 MARBLE CANYON WAY","HOUSTON","TX","77044"
73185,"15619 MORALES ROAD","HOUSTON","TX","77032"
73186,"15619 SUNNINGDALE PLACE","UPPER MARLBORO","MD","20774"
73187,"1562 42ND AVENUE","SAN FRANCISCO","CA","94122"
73188,"1562 ANDOVER LN","FREDERICK","MD","21702"
73189,"1562 BROOKLYN AVENUE","BROOKLYN","NY","11210"
73190,"1562 BRUTON CT","MCLEAN","VA","22101"
73191,"1562 CAROL LN","WICHITA FALLS","TX","76302"
73192,"1562 CHAIN BRIDGE RD","MCLEAN","VA","22101"
73193,"1562 DYKE RD","ANDOVER","NY","14806"
73194,"1562 E BRIGHTON PLACE","FAYETTEVILLE","AR","72703"
73195,"1562 EWING FARM DR","LOGANVILLE","GA","30052"
73196,"1562 FIRST AVE","NEW YORK","NY","10028"
73197,"1562 FIRST AVENUE SUITE 205-1716","NEW YORK","NY","10028"
73198,"1562 GLENDALE DR","FAIRBORN","OH","45324"
73199,"1562 GRANT 83","SHERIDAN","AR","72150"
73200,"1562 JACANA DR","LEXINGTON","KY","40503"
73201,"1562 JOHN STREET","CHOCTAW","OK","73020"
73202,"1562 JONESBORO ROAD","ATLANTA","GA","30315"
73203,"1562 LONGAR RD","MONTREAL","MO","65591"
73204,"1562 OCEAN AVE SUITE 4J","BROOKLYN","NY","11230"
73205,"1562 OCEAN AVENUE APT 5H","BROOKLYN","NY","11230"
73206,"1562 OLD STATE ROUTE 34","TELFORD","TN","37690"
73207,"1562 OLDENBURG DRIVE","JACKSONVILLE","FL","32218"
73208,"1562 RUGBY CIRCLE","THOUSAND OAKS","CA","91360"
73209,"1562 S PARKER RD SUITE 108","DENVER","CO","80231"
73210,"1562 STORMWAY COURT","APOPKA","FL","32712"
73211,"15620 NE 165TH STREET","WOODINVILLE","WA","98072"
73212,"15620 SUNFISH LAKE BLVD","RAMSEY","MN","55303"
73213,"15621 AGNES BLVD","BROOK PARK","OH","44142"
73214,"15621 W 87 ST PKWY 343","LENEXA","KS","66219"
73215,"15621 W 87TH ST  STE 404","LENEXA","KS","66219"
73216,"15621 W 87TH ST 294","LENEXA","KS","66219"
73217,"15621 W 87TH ST SUITE 447","LENEXA","KS","66219"
73218,"15622 NORMANS LANDING DRIVE","CHARLOTTE","NC","28273"
73219,"15623 EDMORE","DETROIT","MI","48205"
73220,"156233 NW 10TH LANE","NEWBERRY","FL","32669"
73221,"15624 HEBRON MAIL ROUTE ROAD","CHEBOYGAN","MI","49721"
73222,"15624 HITCHING POST ST","MORENO VALLEY","CA","92555"
73223,"15625 N SQUIRE LN","MT. VERNON","IL","62864"
73224,"15626 BERNARDO CENTER DRIVE 2802","SAN DIEGO","CA","92127"
73225,"15626 GERONIMO LOOP","SAN ANTONIO","TX","78254"
73226,"15626 LAPPIN ST","DETROIT","MI","48205"
73227,"15626 SW 14 AVE","PEMBROKE PINES","FL","33028"
73228,"15627 13 MILE ROAD","BATTLE CREEK","MI","49014"
73229,"15627 SO BROADWAY","GARDENA","CA","90278"
73230,"15627 VIA SALVADOR","VALLEY CENTER","CA","92082"
73231,"15628 92ND AVE","FLORISSANT","MO","63034"
73232,"15628 E 108TH AVENUE","COMMERCE CITY","CO","80022"
73233,"15628 EAST 108TH AVENUE","COMMERCE CITY","CO","80022"
73234,"15629 NE 175TH ST","WOODINVILLE","WA","98072"
73235,"15629 ROUTE 59","PLAINFIELD","IL","60544"
73236,"15629 VINOLA CT","MONTVERDE","FL","34756"
73237,"1563 4TH STREET","HOOD RIVER","OR","97031"
73238,"1563 86TH COURT EAST","INVER GROVE HEIGHTS","MN","55076"
73239,"1563 BEALE STREET","LINWOOD","PA","19061"
73240,"1563 BRADFORD TRACE DR","ALLEN","TX","75002"
73241,"1563 BRADFORD TRACE DRIVE","ALLEN","TX","75002"
73242,"1563 BUTTERNUT CV","STONE MOUNTAIN","GA","30083"
73243,"1563 CAPITAL CIR SE PMB 402","TALLAHASSEE","FL","32303"
73244,"1563 CAPITAL CIRCLE SE  313","TALLAHASSEE","FL","32301"
73245,"1563 CAPITAL CIRCLE SE SUITE 352","TALLAHASSEE","FL","32301"
73246,"1563 CAPITAL CIRCLE SE/UNIT 109","TALLAHASSEE","FL","32301"
73247,"1563 CARROLL ST","BROOKLYN","NY","11213"
73248,"1563 COLONY EAST CIRCLE","STONE MOUNTAIN","GA","30083"
73249,"1563 E 47TH ST NUM 1","CLEVELAND","OH","44103"
73250,"1563 ENGLISHTOWN RD","OLD BRIDGE","NJ","08857"
73251,"1563 GENEVA AVE N","OAKDALE","MN","55128"
73252,"1563 LA SALLE AVE","SAN FRANCISCO","CA","94124"
73253,"1563 POPLAR HILL DRIVE","CROSS","SC","29436"
73254,"1563 POSTAL ROAD SUITE 1A","CHESTER","MD","21619"
73255,"1563 RELYEA AVE","CHARLESTON","SC","29412"
73256,"1563 RIVER PARK BLVD","WOODSTOCK","GA","30188"
73257,"1563 S BLOOMINGTON ST","GREENCASTLE","IN","46135"
73258,"1563 SATTERFIELD DR","POCATELLO","ID","83201"
73259,"1563 SECTION ROAD","CINCINNATI","OH","45237"
73260,"1563 SOLANO AVE","BERKELEY","CA","94707"
73261,"1563 SPRINGFIELD AVENUE","MAPLEWOOD","NJ","07040"
73262,"1563 WALLOOMSAC RD","BENNINGTON","VT","05201"
73263,"15630 BARNESVILLE ROAD","BOYDS","MD","20841"
73264,"15630 LAKEWOOD HEIGHTS BOULEVARD","LAKEWOOD","OH","44107"
73265,"15630 PARK STATION BLVD UNIT P2","ORLAND PARK","IL","60462"
73266,"15630 PINTURA DR","HACIENDA HEIGHTS","CA","91745"
73267,"15630 VISION DR","PFLUGERVILLE","TX","78704"
73268,"15631 ASH WAY A105","LYNNWOOD","WA","98087"
73269,"15631 E TEN MILE","EASTPOINTE","MI","48021"
73270,"15631 HEDGEFORD CT","CHESTERFIELD","MO","63017"
73271,"15631 MESA DRIVE","FONTANA","CA","92336"
73272,"15631 SE FAIRWOOD BLVD","RENTON","WA","98058"
73273,"15632 SUMMER LAKE DRIVE","CHESTERFIELD","MO","63017"
73274,"15633 DAKOTA AVE","SAVAGE","MN","55378"
73275,"15633 WYNFORD HALL ST","HUNTERSVILLE","NC","28078"
73276,"15634 BEECHWOOD AVE","IVANHOE","CA","93235"
73277,"15634 MENDOCINO DRIVE","HOUSTON","TX","77083"
73278,"15634 WALLISVILLE RD","HOUSTON","TX","77049"
73279,"15635 S 6TH PLACE","PHOENIX","AZ","85048"
73280,"15637 DUSK LIGHT TERRACE","MOSELY","VA","23120"
73281,"15637 STAR LAKE RD","MOUNTAIN","WI","54149"
73282,"15638 E PURDUE DR","AURORA","CO","80013"
73283,"15638 MAHONEY DR","SPRING HILL","FL","34610"
73284,"15638 NAHIN LANE","CANYON COUNTRY","CA","91387"
73285,"15639 MCKENZIE RD","MOUNT VERNON","OH","43050"
73286,"15639 S WIDMER STREET","OLATHE","KS","66602"
73287,"1564 44TH STREET","BROOKLYN","NY","11219"
73288,"1564 ARTMAN AVE","AKRON","OH","44313"
73289,"1564 CALLOWAY LOOP NW","CONYERS","GA","30012"
73290,"1564 CLARCONA RD","APOPKA","FL","32703"
73291,"1564 E MARTIN DR","MOBILE","AL","36605"
73292,"1564 HERRINGTON RD APT 2124","LAWRENCEVILLE","GA","30043"
73293,"1564 HERRINGTON ROAD  3323","LAWRENCEVILLE","GA","30043"
73294,"1564 LOWERY RD NE","ARAB","AL","35016"
73295,"1564 MILK PLANT ROAD","LIBERTY","PA","16930"
73296,"1564 N DOWNEY AVE","INDIANAPOLIS","IN","46219"
73297,"1564 NORTH 1150 WEST","OREM","UT","84057"
73298,"1564 PALMERS BRIDGE RD","MCCLELLANVILLE","SC","29458"
73299,"1564 S HOBART ST","LOS ANGELES","CA","90006"
73300,"1564 SAINT CLAIR AVE","MT HEALTHY","OH","45231"
73301,"1564 TRUJILLO RD SW","ALBUQUERQUE","NM","87105"
73302,"1564 UNIVERSITY CIRCLE","OXFORD","MS","38655"
73303,"1564 WEST HOOVER ROAD","MADISON","VA","22727"
73304,"15640 NE 4TH PLAIN BLVD STE 106 50","VANCOUVER","WA","98682"
73305,"15640 NE 4TH PLAIN BLVD SUITE 106","VANCOUVER","WA","98682"
73306,"15640 NE 4TH PLAIN RD STE 106-501","VANCOUVER","WA","98682"
73307,"15640 NE 4TH PLAIN STE 106 PMB 132","VANCOUVER","WA","98682"
73308,"15640 NE 4TH PLAIN SUITE 106-33","VANCOUVER","OR","98682"
73309,"15640 NE FOURTH PLAIN BLVD STE 106","VANCOUVER","WA","98682"
73310,"15640 NE FOURTH PLAIN BLVD STE 167","VANCOUVER","WA","98682"
73311,"15640 NE FOURTH PLAIN BLVD","VANCOUVER","WA","98682"
73312,"15640 RHONDA DRIVE","BATON ROUGE","LA","70816"
73313,"15640 SANTINI ROAD","BURTONSVILLE","MD","20866"
73314,"15641 MACK UNIT 4","DETROIT","MI","48224"
73315,"15641 PEAK DRIVE","MACOMB","MI","48044"
73316,"15641 PLYMOUTH LANE","HUNTINGTON BEACH","CA","92647"
73317,"15641 SONOMA DRIVE  UNIT 201","FORT MYER","FL","33908"
73318,"15641 VAIL ROAD SE","YELM","WA","98597"
73319,"15641UNIT 4","DETROIT","MI","48224"
73320,"15642 SAND CANYON AVE - 50531","IRVINE","CA","92619"
73321,"15642 SAND CANYON AVE UNIT 51235","IRVINE","CA","92619"
73322,"15642 SAND CANYON AVE UNIT 51984","IRVINE","CA","92619"
73323,"15643 DOBBS PEAK LANE","FONTANA","CA","92336"
73324,"15643 RANKIN AVE","DUNLAP","TN","37327"
73325,"15643 WOOD ST  PO BOX 1696","HARVEY","IL","60426"
73326,"15645 BARTON STREET","OVERLAND PARK","KS","66221"
73327,"15645 CALABRIA COURT","BAKERSFIELD","CA","93314"
73328,"15645 EAST END AVE","DOLTON","IL","60419"
73329,"15646 HIGH KNOLL RD","ENCINO","CA","91436"
73330,"15646 MEADOW DRIVE","CANYON  COUNTRY","CA","91387"
73331,"15646 MUTUAL TERRACE","SOUTH HOLLAND","IL","60473"
73332,"15646 SE UPMAN WAY","DAMASCUS","OR","97089"
73333,"15647 92ND AVENUE","FLORISSANT","MO","63034"
73334,"15647 GALBI DR","ORLANDO","FL","32828"
73335,"15647 YERMO ST","WHITTIER","CA","90603"
73336,"1565 BROOKVALE DR APT 3","SAN JOSE","CA","95129"
73337,"1565 CANYON DR","RIDGWAY","CO","81432"
73338,"1565 CHESHIRE DR","PERRIS","CA","92571"
73339,"1565 CO RD 995","ASHLAND","OH","44805"
73340,"1565 COLLINGS RD","CAMDEN","NJ","08104"
73341,"1565 CREE COURT","GROVE CITY","OH","43123"
73342,"1565 CRIDER RD SE APT 24B","MARIETTA","GA","30060"
73343,"1565 DAWS RD","BLUE BELL","PA","19422"
73344,"1565 FESCUE COURT","RENO","NV","89509"
73345,"1565 HASTINGS CIRCLE","UNIONTOWN","OH","44685"
73346,"1565 LAKEWOOD DRIVE","HOLLADAY","UT","84117"
73347,"1565 N GALVEZ STREET","NEW ORLEANS","LA","70119"
73348,"1565 N WILDFLOWER DR 205","CASA GRANDE","AZ","85122"
73349,"1565 NE 150 STREET","MIAMI","FL","33161"
73350,"1565 PERRY COURT UNIT C","AURORA","IL","60505"
73351,"1565 POIPPY HILLS LANES","TRACY","CA","95377"
73352,"1565 REXFORD DR","LOS ANGELES","CA","90035"
73353,"1565 SMITH ROAD","CHARLESTON","WV","25314"
73354,"1565 STATE STREET","SARASOTA","FL","34236"
73355,"1565 SUMMER CHASE LANE","FENTON","MO","63026"
73356,"1565 VILLA GRANDE DRIVE","PAINESVILLE","OH","44077"
73357,"1565 W MAIN STREET SUITE 208 - 105","LEWISVILLE","TX","75067"
73358,"1565 WANAAO ROAD       UNIT B","KAPAA","HI","96746"
73359,"1565 WESTCOTT STREET","MONTGOMERY","AL","36108"
73360,"1565 WILLOW STREET","LAKE FOREST","IL","60045"
73361,"1565 WODDINGTON CIRCLE SUITE 203","LAWRENCEVILLE","GA","30044"
73362,"1565","CLEVELAND","TX","77328"
73363,"15650 GALAXIE AVE APT 411","APPLE VALLEY","MN","55124"
73364,"15650 MARKET HILL","SAN ANTONIO","TX","78256"
73365,"15650 NE 24TH ST SUITE D","BELLEVUE","WA","98008"
73366,"15650 PIKE 292","BOWLING GREEN","MO","63334"
73367,"15650 ROMAN CREEK RD","FRENCHTOWN","MT","59834"
73368,"15651 BURBANK DRIVE","BROOKSVILLE","FL","34604"
73369,"15651 CLUB DELUXE ROAD","HAMMOND","LA","70403"
73370,"15651 W 149 TER","OLATHE","KS","66062"
73371,"15652 HOMAN AVE","MARKHAM","IL","60428"
73372,"15652 WEST CALAVAR ROAD","SURPRISE","AZ","85379"
73373,"15652 WYOMING DRIVE","FRISCO","TX","75035"
73374,"15653 HOGENVILLE AVE","BATON ROUGE","LA","70817"
73375,"15654 GREYTHORNE DR APT 213","CHARLOTTE","NC","28277"
73376,"15655 75TH WAY N","PALM BEACH GARDENS","FL","33418"
73377,"15655 AIRLINE HIGHWAY    UNIT 1263","PRAIRIEVILLE","LA","70769"
73378,"15655 BROOKSTONE DR","PARKER","CO","80134"
73379,"15655 HAGIE DR","FORT MEYERS","FL","33908"
73380,"15655 HWY 57","MOSCOW","TN","38057"
73381,"15656 LIVE OAK SPRINGS CANYON ROAD","SANTA CLARITA","CA","91387"
73382,"15656 SE CHELSEA MORNING DR","HAPPY VALLEY","OR","97086"
73383,"15659 AVENIDA ALCOCHOFA APT C","SAN DIEGO","CA","92128"
73384,"1566 78TH STREET","BROOKLYN","NY","11214"
73385,"1566 BLUE SAIL AVE","GRAYSON","GA","30017"
73386,"1566 CENTER SQUARE ROAD","SWEDESBORO","NJ","08085"
73387,"1566 COUNTY ROAD 41","RICHMOND","OH","43944"
73388,"1566 DEBBIE DR SW","MABLETON","GA","30126"
73389,"1566 EDISON STREET","SANTA YNEZ","CA","93460"
73390,"1566 MAYS LANE","CORVALLIS","MT","59828"
73391,"1566 MEADOW VIEW DR","THOMSON","GA","30824"
73392,"1566 N SUTTON ROAD","JACKSON","MI","49202"
73393,"1566 ROUTE 32","SAUGERTIES","NY","12477"
73394,"1566 SENECA TRAIL","WHITE BEAR TOWNSHIP","MN","55110"
73395,"1566 SIEANNA COVE","SPRINGDALE","AR","72764"
73396,"1566 VENICE AVE","FORT WALTON BEACH","FL","32547"
73397,"15660 CURTIS TRAIL","FRAZIER PARK","CA","93225"
73398,"15660 HUDSON AVE","LA PUENTE","CA","91744"
73399,"15661 OAK DRIVE","KERMAN","CA","93630"
73400,"15661 PRODUCER LLANE","HUNTINGTON BEACH","CA","92649"
73401,"15663 94TH AVE","FLORISSANT","MO","63034"
73402,"15665 HAWTHORNE BLVD UNIT I","LAWNDALE","CA","90260"
73403,"15665 MENDOZAN LANE","WOODBRIDGE","VA","22191"
73404,"15665 WILLOW DR","FONTANA","CA","92337"
73405,"15666 LAMP CIRCLE","OMAHA","NE","68118"
73406,"15667 GLASTONBURY","DETROIT","MI","48223"
73407,"15668 HIGHWAY 21","IRONTON","MO","63650"
73408,"15668 SW 72 STREET","MIAMI","FL","33193"
73409,"15669 118TH TER N","JUPITER","FL","33478"
73410,"15669 SAN PEDRO","SAN ANTONIO","TX","78232"
73411,"1567 ALAMEDA ST","POMONA","CA","91768"
73412,"1567 BARDWELL WEST ROAD","MOUNT ORAB","OH","45154"
73413,"1567 BERKELEY LANE EAST","MONMOUTH","OR","97361"
73414,"1567 CAHILL DRIVE","EAST LANSING","MI","48823"
73415,"1567 CHURCHILL CT","CLARKSVILLE","TN","37042"
73416,"1567 COUNTY RD 270","SHUBUTA","MS","39360"
73417,"1567 E US HIGHWAY 136","VEEDERSBURG","IN","47987"
73418,"1567 ESCADRILLE DRIVE","TALLAHASSEE","FL","32308"
73419,"1567 HIGHLANDS DR NE STE 110   235","ISSAQUAH","WA","98029"
73420,"1567 JANMAR RD STE 200","SNELLVILLE","GA","30078"
73421,"1567 MOFFITT AVE","HEWLETT","NY","11557"
73422,"1567 NOSTRAND AVENUE APT 5F","BROOKLYN","NY","11226"
73423,"1567 SOUTHWOOD DRIVE","ASHLAND","OH","44805"
73424,"1567 TALLEY LN","FRISCO","TX","75033"
73425,"1567 TEA OLIVE WAY","OVIEDO","FL","32765"
73426,"1567 TUPPENY COURT","ROSELLE","IL","60172"
73427,"1567 VALLEY RD","BETHLEHEM","PA","18018"
73428,"1567 W SPRINGWATER DR","OREM","UT","84059"
73429,"1567 WEST SIDE ROAD","FRIDAY HARBOR","WA","98250"
73430,"15671 SW 53 STREET","MIRAMAR","FL","33027"
73431,"15673 PIEDMONT PLACE","WOODBRIDGE","VA","22193"
73432,"15675 ELK CIR","BRIGHTON","CO","80603"
73433,"15678 STONEBRIDGE DRIVE","FRISCO","TX","75035"
73434,"1568 237TH CT NE","SAMMAMISH","WA","98074"
73435,"1568 ABBOTSFORD DRIVE","NAPERVILLE","IL","60563"
73436,"1568 CAMP JUBILEE ROAD","SEVEN SPRINGS","NC","28578"
73437,"1568 CASILDA DRIVE","FLORENCE","SC","29501"
73438,"1568 CENTRAL AVENUE","ALBANY","NY","12205"
73439,"1568 CODDLE CREEK HWY","MOORESVILLE","NC","28115"
73440,"1568 COUNTY RD 784","BUNA","TX","77612"
73441,"1568 GREEN LANE ROAD","LANSDALE","PA","19446"
73442,"1568 HIGHWAY J","WRIGHT CITY","MO","63390"
73443,"1568 HOY TAYLOR DR","NORCROSS","GA","30093"
73444,"1568 HUMMINGBIRD COURT","YARDLEY","PA","19067"
73445,"1568 INDIAN TRAIL LILBURN RD S-106","NORCROSS","GA","30093"
73446,"1568 JO ANN WAY","POMONA","CA","91767"
73447,"1568 JOANN WAY","POMONA","CA","91767"
73448,"1568 LORETTA DRIVE","PENN HILLS","PA","15235"
73449,"1568 OUTRIGGER STREET","WEST COVINA","CA","91790"
73450,"1568 PERSHING PLACE","SOUTH PLAINFIELD","NJ","07080"
73451,"1568 PLEASANT RUN DR 9","CINCINNATI","OH","45240"
73452,"1568 S IVY ST","DENVER","CO","80224"
73453,"1568 SE TIFFANY CLUB PL","PORT ST LUCIE","FL","34952"
73454,"1568 SHADOW RIDGE CIRCLE","SARASOTA","FL","34240"
73455,"1568 SHALAKO WAY","SANTA FE","NM","87507"
73456,"1568 SYLVANIA AVENUE - PO BOX 6534","TOLEDO","OH","43612"
73457,"1568 TRILLIUM LANE","BOWLING GREEN","KY","42104"
73458,"1568 WILLOWSIDE RD","SANTA ROSA","CA","95401"
73459,"15680 PANTHER LAKE DR","WINTER GARDEN","FL","34787"
73460,"15680 SW 82 CIRCLE LANE 87","MIAMI","FL","33193"
73461,"15683 COACHHOUSE COURT","HARVEST","AL","35749"
73462,"15684 S DOWNING CT","OLATHE","KS","66062"
73463,"15685 S BLACKFEATHER ST","OLATHE","KS","66062"
73464,"15685 WOOTEN CT","KERMAN","CA","93630"
73465,"15686 5 ELK CIRCLE","BRIGHTON","CO","80603"
73466,"15688 LONGVIEW LN","SPRING LAKE","MI","49456"
73467,"15689 ATKINS LN","FRISCO","TX","75035"
73468,"1569 47TH STREET","BROOKLYN","NY","11219"
73469,"1569 B HWY 16 WEST","GRIFFIN","GA","30223"
73470,"1569 BRUCKNER BOULEVARD 7E","NEW YORK","NY","10472"
73471,"1569 CALLE PRIMERA","LOMPOC","CA","93436"
73472,"1569 CARRINGTON AVE","WINTER SPRINGS","FL","32708"
73473,"1569 CHASE AVE - 4","CINCINNATI","OH","45223"
73474,"1569 CR 1224","CLEBURNE","TX","76033"
73475,"1569 E WASHINGTON LANE","SAN LUIS","AZ","85349"
73476,"1569 EASTWOOD AVE","NEW ALBANY","IN","47150"
73477,"1569 HOMECOURT","ALDEN","NY","14004"
73478,"1569 MEADOW LANE","BIRMINGHAM","AL","35228"
73479,"1569 SEVERN CHAPEL RD","CROWNSVILLE","MD","21032"
73480,"1569 SOLANO AVENUE BOX 243","BERKELEY","CA","94707"
73481,"1569 STERLING","POCATELLO","ID","83202"
73482,"1569 THETFORD CIR","ORLANDO","FL","32824"
73483,"1569 VAN DORN ST","MOBILE","AL","36605"
73484,"1569 W REDONDO BEACH BLVD STE F","GARDENA","CA","90247"
73485,"1569 W REDONDO BEACH BLVD SUITE F","GARDENA","CA","90247"
73486,"1569 WALDEN FARMS ROAD","SIGNAL","TN","37377"
73487,"15690 BULL RUN RD APT188","MIAMI LAKES","FL","33014"
73488,"15691 COUNTY ROAD 146","SYRACUSE","IN","46526"
73489,"15691 SEDGEFIELD OAKS CT","GAINESVILLE","VA","20155"
73490,"15697 SPYGLASS HILL LOOP","GAINESVILLE","VA","20155"
73491,"15698 MONTANA AVE","EL PASO","TX","79938"
73492,"15699 STATE ROUTE 152","TORONTO","OH","43964"
73493,"156R BEACH STREET","FOXBORO","MA","02035"
73494,"157 13TH STREET","BROOKLYN","NY","11215"
73495,"157 1ST STREET 2ND FLOOR","TROY","NY","12180"
73496,"157 AIRWAYS BLVD","JACKSON","TN","38301"
73497,"157 ALFORD ROAD","ROME","GA","30161"
73498,"157 ANDRE DRIVE","ARROYO GRANDE","CA","93420"
73499,"157 BELMONT AVE APT 8D","BROOKLYN","NY","11212"
73500,"157 BENTON HOLLOW ROAD","LIBERTY","NY","12754"
