"ID","Address","City","State","Zip"
204501,"4121 PLANK ROAD - BOX 213","FREDERICKSBURG","VA","22407"
204502,"4121 ROLLING HILLS DRIVE","ARDMORE","OK","73401"
204503,"4121 SHELBY ROAD","LYNNWOOD","WA","98087"
204504,"4121 SIERRA STREET","MARRERO","LA","70072"
204505,"4121 ST CLAUDE AVE","NEW ORLEANS","LA","70117"
204506,"4121 SW 112TH AVE","MIAMI","FL","33165"
204507,"4121 TABERNASH LANE","RICHARDSON","TX","75082"
204508,"4121 TOTTENHAM STREET","FREDERICK","MD","21704"
204509,"4121 US HWY 64","KIRTLAND","NM","87401"
204510,"4121 WEST PINE BOULEVARD","SAINT LOUIS","MO","63108"
204511,"4121-C NUUANU PALI DRIVE","HONOLULU","HI","96817"
204512,"41211 SCARLET CT","INDIO","CA","92203"
204513,"4121G ENGINEERING V","LOS ANGELES","CA","90095"
204514,"4122 39TH STREET 1","SAN DIEGO","CA","92105"
204515,"4122 ATWOOD DRIVE","MACON","GA","31204"
204516,"4122 BELMONT SHORE LANE","MISSOURI CITY","TX","77459"
204517,"4122 BENNETT MEMORIAL ROAD STE 201B","DURHAM","NC","27705"
204518,"4122 E PONCE DE LEON AVE","CLARKSTON","GA","30084"
204519,"4122 FAIRMOUNT AVE","SAN DIEGO","CA","92105"
204520,"4122 HORSESHOE LANE","SACHSE","TX","75048"
204521,"4122 JAMES LOVELACE ROAD","SHELBY","NC","28152"
204522,"4122 LATONA AVENUE","WEST PALM BEACH","FL","33407"
204523,"4122 MARX AVENUE","BALTIMORE","MD","21206"
204524,"4122 MIRABEAU AVE","NEW ORLEANS","LA","70126"
204525,"4122 NEIGHBORLY CT","NORTH LAS VEGAS","NV","89032"
204526,"4122 PROVIDENCE ROAD APARTMENT C","CHARLOTTE","NC","28211"
204527,"4122 QUARRY VIEW","CHATTANOOGA","TN","37415"
204528,"4122 S 500 W","MURRAY","UT","84123"
204529,"4122 SNAPFINGER WAY","DECATUR","GA","30035"
204530,"4122 SONNET DRIVE","TALLAHASSEE","FL","32303"
204531,"4122 SPRING MILL WAY","MAINEVILLE","OH","45039"
204532,"4122 SUMERDUCK RD","SUMERDUCK","VA","22742"
204533,"4122 W 55TH PLACE","TULSA","OK","74107"
204534,"4122 W OAK RD N","CEDAR HILLS","UT","84062"
204535,"41220 CHESTNUT ST","PALMDALE","CA","93551"
204536,"41220 PARK AVE","BIG BEAR CITY","CA","92314"
204537,"41221 SANDY HILL ROAD","MONTGOMERY","TX","77316"
204538,"41222 MALCOLMSON ST APT10","FREMONT","CA","94538"
204539,"4123 BEITING DRIVE","ALEXANDRIA","KY","41001"
204540,"4123 BROADWAY 729","OAKLAND","CA","94611"
204541,"4123 C ST","LITTLE ROCK","AR","72205"
204542,"4123 CEDAR SPRINGS RD  APT 2425","DALLAS","TX","75201"
204543,"4123 CEDAR SPRINGS RD APT 5426","DALLAS","TX","75219"
204544,"4123 DUNHAVEN ROAD","DALLAS","TX","75220"
204545,"4123 JAN CT","ROCKLIN","CA","95677"
204546,"4123 KIMBERLY AVE","LA VERNE","CA","91750"
204547,"4123 MYRTLE AVE","CINCINNATI","OH","45236"
204548,"4123 N LINDSTROM PLACE","TUCSON","AZ","85750"
204549,"4123 NEIL COURT","TALLAHASSEE","FL","32303"
204550,"4123 S SUNSET CT","MADISON","WI","53705"
204551,"4123 STONE PASS DRIVE","GRANITEVILLE","SC","29829"
204552,"4123 TED TROUT DR","LUFKIN","TX","75904"
204553,"4123 W MADISON ST","CHICAGO","IL","60624"
204554,"41230 MAPLEWOOD DRIVE","CANTON","MI","48187"
204555,"41231 SUNNYVIEW LOOP","POLSON","MT","59860"
204556,"4124 163RD STREET","FLUSHING","NY","11358"
204557,"4124 78TH AVENUE NORTH  SUITE 206","NEW HOPE","MN","55427"
204558,"4124 ARICA","ROSEMEAD","CA","91770"
204559,"4124 C-11 SPRING VALLEY RD","HARRISBURG","PA","17109"
204560,"4124 CANNON DRIVE","NORMAN","OK","73072"
204561,"4124 FERNWOOD DRIVE","HOUSTON","TX","77021"
204562,"4124 GRACELAND AVE","INDIANAPOLIS","IN","46208"
204563,"4124 HEARTHLIGHT CT","PLANO","TX","75024"
204564,"4124 JEREMY LOOP","MYRTLE BEACH","SC","29588"
204565,"4124 LEMONBERRY PL","THOUSAND OAKS","CA","91362"
204566,"4124 LONGMEADOW WAY","FORT WORTH","TX","76133"
204567,"4124 MECHANICSVILLE TPKE","MECHANICSVILLE","VA","23111"
204568,"4124 N 23RD ST STE 4","MCALLEN","TX","78504"
204569,"4124 N KENMORE AVE 3S","CHICAGO","IL","60613"
204570,"4124 OLSSON TER APT 8","LAKE WORTH","FL","33461"
204571,"4124 PEBBLEBROOK COURT","ORLANDO","FL","32820"
204572,"4124 QUEBEC AVE SUITE 201","NEW HOPE","MN","55427"
204573,"4124 W LIBERTY CREEK DRIVE","SOUTH JORDAN","UT","84095"
204574,"41240 TRENOUTH STREET UNIT 29","FREMONT","CA","94538"
204575,"4125 23RD AVE S","MINNEAPOLIS","MN","55407"
204576,"4125 2ND STREET","CHESAPEAKE","VA","23324"
204577,"4125 43RD STREET","SAN DIEGO","CA","92105"
204578,"4125 AMHURST DRIVE","HIGHLAND VILLAGE","TX","75077"
204579,"4125 C2 WALKER AVE","GREENSBORO","NC","27407"
204580,"4125 CARDINAL CT","WEST POINT","VA","23181"
204581,"4125 CARRINGTON DR","GARLAND","TX","75043"
204582,"4125 E 37TH","ODESSA","TX","79762"
204583,"4125 E NAOMI ST","INDIANAPOLIS","IN","46203"
204584,"4125 HUMPHREY STREET","ST. LOUIS","MO","63116"
204585,"4125 KISSENA BOULEVARD","FLUSHING","NY","11355"
204586,"4125 LAKE FOREST CT","ANN ARBOR","MI","48108"
204587,"4125 LILLINGTON DRIVE","DURHAM","NC","27704"
204588,"4125 MARQUETTE ST","HOUSTON","TX","77005"
204589,"4125 MOURNING DOVE CT","MELBOURNE","FL","32934"
204590,"4125 MYRTLE AVE","PENNSAUKEN","NJ","08109"
204591,"4125 N EVEREST AVENUE","OKLAHOMA CITY","OK","73111"
204592,"4125 N SASSY DR","MARANA","AZ","85653"
204593,"4125 NE 16TH STREET","OKLAHOMA CITY","OK","73117"
204594,"4125 OCEAN BEACH BLVD UNIT 6","COCOA BEACH","FL","32931"
204595,"4125 OLD MILTON PARKWAY","ALPHARETTA","GA","30005"
204596,"4125 PETE SEAY RD","SULPHUR","LA","70665"
204597,"4125 ROSA STREET","WINSTON-SALEM","NC","27015"
204598,"4125 SALEM STREET","CONCORD","CA","94521"
204599,"4125 SE 54TH AVE","PORTLAND","OR","97206"
204600,"4125 SOLOMONS ISLAND RD","HUNTINGTOWN","MD","20639"
204601,"4125 SUMMERSWEET LANE","CROWLEY","TX","76036"
204602,"4125 SUMMIT CROSSING DRIVE","ATLANTA","GA","30034"
204603,"4125 TEMESCAL ST  SUITE I","FAIR OAKS","CA","95628"
204604,"4125 W FOXVIEW DR","SOUTH JORDAN","UT","84095"
204605,"4125 W NOBLE APT 191","VISALIA","CA","93277"
204606,"4125 W TANNEHILL RD","COLUMBUS","IN","47201"
204607,"4125 W TOBY LN","CHINO VALLEY","AZ","86323"
204608,"4125 WASHINGTON AVE","NEW ORLEANS","LA","70125"
204609,"4125 WASHTENAW AVE","ANN ARBOR","MI","48108"
204610,"4125 WESTERN DRIVE","CORPUS CHRISTI","TX","78410"
204611,"4125 WHEELER PEAK WAY","MODESTO","CA","95356"
204612,"41252 GASLIGHT AVE","BERMUDA DUNES","CA","92203"
204613,"41259 253RD ST","MITCHELL","SD","57301"
204614,"4126 BENDING LANE","GREENWOOD","IN","46143"
204615,"4126 BROOKGREEN DR","FAIRFAX","VA","22033"
204616,"4126 CAFLUR AVENUE","SAN DIEGO","CA","92117"
204617,"4126 CUMMINGS STREET","ORLANDO","FL","32828"
204618,"4126 DEERWOOD TR","EAGAN","MN","55122"
204619,"4126 EAST 114TH STREET","CLEVELAND","OH","44105"
204620,"4126 GLENSHIRE DRIVE","HOUSTON","TX","77025"
204621,"4126 HOMERLEE AVE","EAST CHICAGO","IN","46312"
204622,"4126 PARVA AVE","LOS ANGELES","CA","90027"
204623,"4126 PEACE DR","FRISCO","TX","75034"
204624,"4126 ROLLING GROVE COURT","LAKELAND","FL","33810"
204625,"4126 SHERRY MIST LN","KATY","TX","77449"
204626,"4126 SOMERS DRIVE","BURTON","MI","48529"
204627,"412625 340TH RD","RAVENNA","NE","68869"
204628,"4127 222ND PL SE","BOTHELL","WA","98021"
204629,"4127 4TH STREET SE","WASHINGTON","DC","20032"
204630,"4127 ANACOSTIA AVENUE NE","WASHINGTON","DC","20019"
204631,"4127 EDGEHILL DR","LOS ANGELES","CA","90008"
204632,"4127 FOREST AVE","KANSAS CITY","MO","64110"
204633,"4127 FRANKLIN AVE","NEW ORLEANS","LA","70122"
204634,"4127 HARBOUR DRIVE","PALMYRA","NJ","08065"
204635,"4127 IDLEBROOK DRIVE","AKRON","OH","44333"
204636,"4127 KATHLAND AVE","GWYNN OAK","MD","21207"
204637,"4127 LAGOON PLACE","ROYSE CITY","TX","75189"
204638,"4127 LAKE CROSS DR W","MEMPHIS","TN","38125"
204639,"4127 LONGHORN DR","CLEVELAND","TX","77328"
204640,"4127 NE 57TH AVENUE","PORTLAND","OR","97218"
204641,"4127 NE HILLCREST CT","ANKENY","IA","50021"
204642,"4127 NOTTINGHAM DR","SEMMES","AL","36575"
204643,"4127 NOTTINGHAM DRIVE","SEMMES","AL","36575"
204644,"4127 PALM BAY CIRCLE APT D","WEST PALM BEACH","FL","33406"
204645,"4127 PRINCETON BLVD","SOUTH EUCLID","OH","44121"
204646,"4127 REDWOOD ROAD","OAKLAND","CA","94619"
204647,"4127 RESIDENCE DR APT 407","FORT MYERS","FL","33901"
204648,"4127 RIDGEWOOD DRIVE","YPSILANTI","MI","48197"
204649,"4127 RIPA AVENUE","ST. LOUIS","MO","63125"
204650,"4127 SOUTH MUIRFIELD RD APT A","LOS ANGELES","CA","90008"
204651,"4127 STONECROFT DRIVE","AUSTIN","TX","78749"
204652,"41271 MACKENZIE LN","INDIO","CA","92203"
204653,"41273 BAYOU NARCISSE RD","GONZALES","LA","70737"
204654,"41274 AUTUMN CROSSING","PRAIRIEVILLE","LA","70769"
204655,"4128 216TH PL SE","BOTHELL","WA","98021"
204656,"4128 51ST DRIVE WEST","BRADENTON","FL","34210"
204657,"4128 ADALRIC DR","COLUMBUS","OH","43219"
204658,"4128 AMHURST DR","HIGHLAND VILLAGE","TX","75077"
204659,"4128 BRINKLEY ST","HOUSTON","TX","77051"
204660,"4128 BURKE AVE N","SEATTLE","WA","98103"
204661,"4128 CLEARWATER WAY","LEXINGTON","KY","40515"
204662,"4128 E GROVE ST","PHOENIX","AZ","85040"
204663,"4128 E TOPEKA DR","PHOENIX","AZ","85050"
204664,"4128 FARGUSON CV","OLIVE BRANCH","MS","38654"
204665,"4128 FORT HENRY DR STE D PMB 249","KINGSPORT","TN","37663"
204666,"4128 GRANDVIEW DR","GIBSONIA","PA","15044"
204667,"4128 HIAWATHA TRAIL","PETOSKEY","MI","49770"
204668,"4128 LAKE TRAIL DR","KENNER","LA","70065"
204669,"4128 SIRIUS AVENUE","LOMPOC","CA","93436"
204670,"4128 STEVE REYNOLDS BLVD","NORCROSS","GA","30093"
204671,"4128 TRACY AVE","KANSAS CITY","MO","64110"
204672,"4128 WINDSOR ROAD","BOARDMAN","OH","44512"
204673,"41281 LENAH POINT DR","ALDIE","VA","20105"
204674,"4129 155TH LANE NE","HAM LAKE","MN","55304"
204675,"4129 BEE CREEK ROAD","SPICEWOOD","TX","78738"
204676,"4129 CARY OAKS DR","RALEIGH","NC","27539"
204677,"4129 LAKE LYNN DR 308","RALEIGH","NC","27613"
204678,"4129 LAKWSIDE DRIVE","TAMARAC","FL","33319"
204679,"4129 MAIN STREET SUITE 100","RIVERSIDE","CA","92501"
204680,"4129 N 20TH ST","MILWAUKEE","WI","53209"
204681,"4129 N MOZART ST UNIT 3","CHICAGO","IL","60618"
204682,"4129 NW 22ND ST","OKLAHOMA CITY","OK","73107"
204683,"4129 PINE HILL RD","NORMAN","OK","73072"
204684,"4129 VENDOME PLACE","NEW ORLEANS","LA","70125"
204685,"4129 VILLA FLORA WAY","LAS VEGAS","NV","89130"
204686,"4129 WALDROP HILLS TERRACE","DECATUR","GA","30034"
204687,"4129 WARWICK HILLS DRIVE","WESLEY CHAPEL","FL","33543"
204688,"41293","HOUSTON","TX","77241"
204689,"41298 COUNTY 7","BROWERVILLE","MN","56438"
204690,"41299 PASEO PADRE PARKWAY APT 225","FREMONT","CA","94539"
204691,"41299 PERIWINKLE TRAIL","LAPORTE","MN","56461"
204692,"413 1/2 W PINE ST","ARCADIA","FL","34266"
204693,"413 16TH STREET NORTH","BIRMINGHAM","AL","35203"
204694,"413 2ND AVE SE","CULLMAN","AL","35055"
204695,"413 39TH STREET","WEST DES MOINES","IA","50265"
204696,"413 4TH AVE S STE 4","COLUMBUS","MS","39701"
204697,"413 7TH ST","DOUGLAS","AZ","85607"
204698,"413 7TH ST","HOQUIAM","WA","98550"
204699,"413 ASH LN","LANCASTER","TX","75146"
204700,"413 AUTUMN DRIVE 225","SAN MARCOS","CA","92069"
204701,"413 BAYFIELD DR","TAMPA","FL","33511"
204702,"413 BAYOU SARA AVE","SARALAND","AL","36571"
204703,"413 BELCHERTOWN RD","WARE","MA","01082"
204704,"413 BELFREY DRIVE","ELIZABETH","PA","15037"
204705,"413 BOLLINGWOOD PL","VALRICO","FL","33594"
204706,"413 BOONESVILLE BEND","ARGYLE","TX","76226"
204707,"413 BOTSFORD ST","PORT HURON","MI","48060"
204708,"413 BOUNTY DR","CAPE FAIR","MO","65624"
204709,"413 BRANDYWINE DR","BEAR","DE","19701"
204710,"413 BRANDYWINE ST SE","WASHINGTON","DC","20032"
204711,"413 BROAD ST","WADSWORTH","OH","44281"
204712,"413 BROADWAY","SOUTH PORTLAND","ME","04106"
204713,"413 BROOK ROAD","CAVENDISH","VT","05142"
204714,"413 BUCKBOARD LANE","LOCUST GROVE","GA","30248"
204715,"413 CALLA LILY LANE","NORMAN","OK","73069"
204716,"413 CENTRAL AVENUE NUM 8-142","PAWTUCKET","RI","02861"
204717,"413 CHANTICLEER","CLOVIS","NM","88101"
204718,"413 CHELSEA WAY DR","SAINT CHARLES","MO","63304"
204719,"413 CLAREMONT WAY","MENLO PARK","CA","94025"
204720,"413 CLEVELAND STREET","CLEARWATER","FL","33755"
204721,"413 CLINTON PL","NEWARK","NJ","07112"
204722,"413 COLLEGE AVENUE","LANCASTER","PA","17603"
204723,"413 DEER CROSSING DR","FESTUS","MO","63028"
204724,"413 DEMPSTER ST","EVANSTON","IL","60201"
204725,"413 DOVETREE LANE","KATHLEEN","GA","31047"
204726,"413 E 13TH STREET","HOUSTON","TX","77008"
204727,"413 E 32ND ST","HIBBING","MN","55746"
204728,"413 E 400 S","GREENFIELD","IN","46140"
204729,"413 E 6TH AVENUE","GASTONIA","NC","28054"
204730,"413 E ELM STREET","INDEPENDENCE","MO","64050"
204731,"413 E GRANT STREET","APPLETON","WI","54911"
204732,"413 EAST  AVENIDA CORDOBA","SAN CLEMENTE","CA","92672"
204733,"413 EAST 18TH AVENUE","COLUMBUS","OH","43201"
204734,"413 EAST CANAL STREET","TROY","OH","45373"
204735,"413 EAST PHILADELPHIA STREET","ARMAGH","PA","15920"
204736,"413 EAST SAINT ANDREWS STREET","FORREST CITY","AR","72335"
204737,"413 EDINBURGH RD","MIDDLETOWN","PA","17057"
204738,"413 FOREST BREEZE AVE","DOVER","FL","33527"
204739,"413 FRIDLEY DR","SUMNER","IA","50674"
204740,"413 FRUIT FARM ROAD","ROYERSFORD","PA","19468"
204741,"413 GLEN AVE","SCOTIA","NY","12302"
204742,"413 GOLFCREST DRIVE","WINDCREST","TX","78239"
204743,"413 GRETNA ROAD","HYDE PARK","NY","12538"
204744,"413 HATTERAS DRIVE","EAST FALLOWFIELD","PA","19320"
204745,"413 HIGH STREET NUM 2","MIDDLETOWN","CT","06457"
204746,"413 HIGHFIELD LOOP","MYRTLE BEACH","SC","29579"
204747,"413 HUNTINGTON DRIVE","WAYNE","PA","19087"
204748,"413 HWY 9","MARION","SC","29571"
204749,"413 INDEPENDENCE AVE SE SUITE B","WASHINGTON","DC","20003"
204750,"413 JORDON POND LANE","BOWIE","MD","20721"
204751,"413 JUCUNDA STREET","PITTSBURGH","PA","15210"
204752,"413 KNODISHALL DRIVE","WARNER ROBINS","GA","31093"
204753,"413 LAFAYETTE AVENUE","PROSPECT PARK","PA","19076"
204754,"413 LAKE DRIVE","LUSBY","MD","20657"
204755,"413 LILAC LANE","FORT COLLINS","CO","80524"
204756,"413 LISK AVE","STATEN ISLAND","NY","10303"
204757,"413 LONGLEAF DRIVE","VENETIA","PA","15367"
204758,"413 LOOKOUT AVE","AKRON","OH","44310"
204759,"413 LOUIS COLEMAN JR DR","LOUISVILLE","KY","40212"
204760,"413 MADISON","HOBART","IN","46342"
204761,"413 MAGNOLIA ST","MARION","AR","72364"
204762,"413 MAPLE STREET","MUNISING","MI","49862"
204763,"413 MARLBORO STREET","MARTINEZ","GA","30907"
204764,"413 MAYMONT DRIVE","CRAMERTON","NC","28032"
204765,"413 MCPHERSON ST","CRYSTAL SPRINGS","MS","39059"
204766,"413 MICHIGAN STREET","PETOSKEY","MI","49770"
204767,"413 MILLER LN","VAN ALSTYNE","TX","75495"
204768,"413 MOHICAN DRIVE","FREDERICK","MD","21701"
204769,"413 MONROE STREET","BROOKLYN","NY","11221"
204770,"413 MOROSS","GROSSE POINTE FARMS","MI","48236"
204771,"413 N 6TH STREET","GRAND HAVEN","MI","49417"
204772,"413 N CALLE DEL DIABLO","GREEN VALLEY","AZ","85614"
204773,"413 N HORSE PRAIRIE ROAD","INVERNESS","FL","34450"
204774,"413 N MILWAUKEE AVE","LIBERTYVILLE","IL","60048"
204775,"413 NEBRASKA COURT","BARTLESVILLE","OK","74006"
204776,"413 NEPONSET AVE","BOSTON","MA","02122"
204777,"413 NORTH APPLEKNOCKER","COBDEN","IL","62920"
204778,"413 NORTH DIVISION","FORREST CITY","AR","72335"
204779,"413 NORTH OAKLEY STREET","FORDYCE","AR","71742"
204780,"413 NORTHSIDE DRIVE","CHAPEL HILL","NC","27516"
204781,"413 NW 26TH ST","OCALA","FL","34475"
204782,"413 NW 88TH TERRACE","KANSAS CITY","MO","64155"
204783,"413 OLD STRATFIELD RD","FAIRFIELD","CT","06825"
204784,"413 OPAL WAY","SUPERIOR","CO","80027"
204785,"413 PAMLICO STREET","BELHAVEN","NC","27810"
204786,"413 PAT DRIVE","AVONDALE","LA","70094"
204787,"413 PEWTER COURT","GLASSBORO","NJ","08028"
204788,"413 RICE RD","SILVER LAKE","KS","66539"
204789,"413 RIDGE AVENUE","CLARENDON HILLS","IL","60514"
204790,"413 RIVER ROAD","JERSEY SHORE","PA","17740"
204791,"413 ROCKINGHAM RD","COLUMBIA","SC","29223"
204792,"413 RUTHERFORD LN","COLUMBIA","TN","38401"
204793,"413 S  ARTHUR AVENUE","LOUISVILLE","CO","80027"
204794,"413 S 6TH STREET","DE PERE","WI","54115"
204795,"413 S ARTHUR AVE","LOUISVILLE","CO","80027"
204796,"413 S CONREY ST","KNOXVILLE","IA","50138"
204797,"413 S MACDILL AVE","TAMPA","FL","33609"
204798,"413 S MAIN","SHERIDAN","AR","72150"
204799,"413 SALT POND RD","BETHANY BEACH","DE","19930"
204800,"413 SCHROCK RD","WORTHINGTON","OH","43085"
204801,"413 SHONNARD STREET","SYRACUSE","NY","13204"
204802,"413 SILVERMEADOWS DRIVE","MIDWEST CITY","OK","73110"
204803,"413 SKYGROVE DRIVE","HOLLY SPRINGS","NC","27540"
204804,"413 SOUTH DILLARD STREET","WINTER GARDEN","FL","34787"
204805,"413 SOUTH STREET SUITE H","FRONT ROYAL","VA","22630"
204806,"413 SOUTH US 131","WHITE PIGEON","MI","49099"
204807,"413 STEWART DR","MOUNTAIN VIEW","CA","94043"
204808,"413 SUMMIT AVENUE","HIGHTSTOWN","NJ","08520"
204809,"413 SUPERIOR PL","WEST PALM BEACH","FL","33904"
204810,"413 THOREAU SPRING RD","MADISON","AL","35758"
204811,"413 THOROUGHBRED DRIVE","MONCKS CORNER","SC","29461"
204812,"413 TRANQUILLE OAKS DR","OCOEE","FL","34761"
204813,"413 VANDERKLOOT DRIVE","OSPREY","FL","34229"
204814,"413 W AVE C","ROBSTOWN","TX","78380"
204815,"413 W BROAD AVE","ALBANY","GA","31701"
204816,"413 W BURTON PLACE","CHICAGO","IL","60610"
204817,"413 W KIOWA ST","COLORADO SPRINGS","CO","80905"
204818,"413 W MAIN ST","MANTON","MI","49663"
204819,"413 W MAPLE ST","RAWLINS","WY","82301"
204820,"413 W SCOTT ST STE1","YOUNGSTOWN","OH","44502"
204821,"413 WALDO AVE APT 10","PASADENA","CA","91101"
204822,"413 WASHINGTON STREET","BELLEVILLE","NJ","07109"
204823,"413 WEBB AVENUE","BREAUX BRIDGE","LA","70517"
204824,"413 WESTCHESTER HILLS LN","VALRICO","FL","33594"
204825,"413 WHITE EGRET CV","CHESAPEAKE","VA","23322"
204826,"413 WILLOW CREEK DRIVE","ELIZABETHTOWN","KY","42701"
204827,"413 WILTON ST","GREENVILLE","SC","29609"
204828,"413 WOODLARK DR","DAVENPORT","FL","33897"
204829,"413","JACKSONVILLE","FL","32225"
204830,"4130 ABERLEIGH LANE","OLIVE BRANCH","MS","38654"
204831,"4130 CANAL STREET","NEW ORLEANS","LA","70119"
204832,"4130 CANYON ROAD","LAFAYETTE","CA","94549"
204833,"4130 CASS AVE SUITE C","DETROIT","MI","48201"
204834,"4130 E 94TH AVE UNIT A","THORNTON","CO","80229"
204835,"4130 ELDORADO COURT","BROOKFIELD","WI","53005"
204836,"4130 FRIST CTR","PRINCETON","NJ","08544"
204837,"4130 GIBSON DRIVE","TIPP CITY","OH","45371"
204838,"4130 HENLEY COURT","SUGAR LAND","TX","77479"
204839,"4130 ISLE VISTA AVE","BELLE ISLE","FL","32812"
204840,"4130 MARYLAND STREET","SAN DIEGO","CA","92103"
204841,"4130 MORRILL LANE","MINNEAPOLIS","MN","55406"
204842,"4130 N FIGUEROA ST","LOS ANGELES","CA","90065"
204843,"4130 NORTH AVERS AVENUE","CHICAGO","IL","60618"
204844,"4130 NORTH MARSHALL WAY","SCOTTSDALE","AZ","85251"
204845,"4130 NORTHAMPTON DR","WINSTON-SALEM","NC","27105"
204846,"4130 NW 48TH","OKLAHOMA CITY","OK","73112"
204847,"4130 ORCHARD VALLEY BLVD","INDIANAPOLIS","IN","46235"
204848,"4130 PRYTANIA STREET","NEW ORLEANS","LA","70115"
204849,"4130 RADCLIFF DRIVE","CANTON","MI","48188"
204850,"4130 REENIE AVE","MEMPHIS","TN","38128"
204851,"4130 ROSEMONT AVENUE","DREXEL HILL","PA","19026"
204852,"4130 SPICEWOOD SPRINGS RD STE 100","AUSTIN","TX","78759"
204853,"4130 SW 117TH AVE STE A BOX 253","BEAVERTON","OR","97005"
204854,"4130 SW VIEWPOINT TERRACE - APT 13","PORTLAND","OR","97239"
204855,"4130 TECHNOLOGY PLACE","FREMONT","CA","94538"
204856,"4130 TELEGRAPH AVENUE","OAKLAND","CA","94609"
204857,"4130 UNIVERSITY WAY NE","SEATTLE","WA","98105"
204858,"4130 WALNUT GROVE ROAD","COOKEVILLE","TN","38506"
204859,"4130 WAYNESBORO CT","WOODBRIDGE","VA","22193"
204860,"4130 XIMINES LANE N","PLYMOUTH","MN","55441"
204861,"41305 CANTON COURT","CANTON","MI","48188"
204862,"41307 12TH STREET WEST","PALMDALE","CA","93551"
204863,"4131 11TH PL","DES MOINES","IA","50313"
204864,"4131 189TH ST","COUNTRY CLUB HILLS","IL","60478"
204865,"4131 ADMIRAL CT","MISSOURI CITY","TX","77459"
204866,"4131 BYRON ST","HOUSTON","TX","77005"
204867,"4131 CESAR CHAVEZ STREET APT 3","SAN FRANCISCO","CA","94131"
204868,"4131 FLOATPLANE DRIVE","ANCHORAGE","AK","99502"
204869,"4131 HAMILTON MILL ROAD","BUFORD","GA","30519"
204870,"4131 KNOLLPOINT DR","WESLEY CHAPEL","FL","33544"
204871,"4131 KNOLLPOINT DRIVE","WESLEY CHAPEL","FL","33544"
204872,"4131 LAKEVIEW DR","CRESTVIEW","FL","32539"
204873,"4131 MOUNT PUTMAN AVE","SAN DIEGO","CA","92117"
204874,"4131 N 78TH COURT","MILWAUKEE","WI","53222"
204875,"4131 RUFE SNOW DRIVE","NORTH RICHLAND HILLS","TX","76180"
204876,"4131 S STATE ST SUITE C","CHICAGO","IL","60609"
204877,"4131 SOUTH US 1  BUILDING 1 UNIT 4","FORT PIERCE","FL","34982"
204878,"4131 SPICEWOOD SPRINGS RD STE N-10","AUSTIN","TX","78759"
204879,"4131 SPICEWOOD SPRINGS ROAD STE M-1","AUSTIN","TX","78759"
204880,"4131 STATE ROUTE 9","PLATTSBURGH","NY","12901"
204881,"4131 WARREN RD","FLOWERY BRANCH","GA","30542"
204882,"4131 WHITE PLAINS ROAD SUITE G","BRONX","NY","10466"
204883,"4131 WINESAP BEND DR","STAFFORD","TX","77477"
204884,"41317 HWY 16","FRANKLINTON","LA","70438"
204885,"41317 RAYBURN DR","NORTHVILLE","MI","48168"
204886,"4132 ATLANTA HIGHWAY STE 110-343","LOGANVILLE","GA","30052"
204887,"4132 ATLANTA HWY STE 110-225","LOGANVILLE","GA","30052"
204888,"4132 ATLANTA HWY SUITE 110 BX 347","LOGANVILLE","GA","30052"
204889,"4132 BINLEY DR","RICHARDSON","TX","75082"
204890,"4132 COLLINWOOD DRIVE","MELBOURNE","FL","32901"
204891,"4132 CONRAD ROAD","ALEXANDRIA","VA","22312"
204892,"4132 DIXIE HWY","ERLANGER","KY","41018"
204893,"4132 DUNGAN STREET","PHILADELPHIA","PA","19124"
204894,"4132 E 11TH PL","GARY","IN","46403"
204895,"4132 E ADOBE ST","MESA","AZ","85205"
204896,"4132 E JOPPA RD STE 110-1144","BALTIMORE","MD","21236"
204897,"4132 EAST PECOS ROAD","GILBERT","AZ","85295"
204898,"4132 FOXPOINT RIDGE","CLEVES","OH","45002"
204899,"4132 KINNIA DRIVE","COLUMBUS","OH","43219"
204900,"4132 LIFFEY LN","DECATUR","GA","30034"
204901,"4132 MARIETTA AVENUE","MOUNT JOY","PA","17552"
204902,"4132 MILES JOHNSON PKWY","SPRING HILL","TN","37174"
204903,"4132 MORELAND DR","VALRICO","FL","33596"
204904,"4132 N 27TH AVE","PHOENIX","AZ","85017"
204905,"4132 N SPRINGFIELD AVE","CHICAGO","IL","60618"
204906,"4132 NEPAL ST","DENVER","CO","80249"
204907,"4132 POST OAK DRIVE","TURLOCK","CA","95382"
204908,"4132 RAINBOW BLVD STE 352","LAS VEGAS","NV","89103"
204909,"4132 S RAINBOW BLVD 200","LAS VEGAS","NV","89103"
204910,"4132 TETON PLACE","ALEXANDRIA","VA","22312"
204911,"4132 W CAMERON ST","TULSA","OK","74127"
204912,"4132 WEDGE DRIVE","PFAFFTOWN","NC","27040"
204913,"41329 CRABTREE LN","PLYMOUTH","MI","48170"
204914,"4133 BURNHILL DR","PLANO","TX","75024"
204915,"4133 HAWKS GLIDE AVE","NORTH LAS VEGAS","NV","89084"
204916,"4133 HOLLY KNOLL DRIVE","LOS ANGELES","CA","90027"
204917,"4133 KITTRELL FARMS DR APT 203","GREENVILLE","NC","27858"
204918,"4133 MAIN ST PO BOX 42","STAHLSTOWN","PA","15687"
204919,"4133 MONROE AVENUE","KANSAS CITY","MO","64130"
204920,"4133 SCHUYLKILL DR","CALABASAS","CA","91302"
204921,"4133 SEADRAGON C","GREAT LAKES","IL","60088"
204922,"4133 UNIVERSITY WAY NE","SEATTLE","WA","98105"
204923,"4134 11TH AVE A","MOLINE","IL","61240"
204924,"4134 ALHAMBRA DRIVE WEST","JACKSONVILLE","FL","32207"
204925,"4134 BURNS RD","PASCO","WA","99301"
204926,"4134 CARATOKE HIGHWAY","BARCO","NC","27917"
204927,"4134 CHARTER OAK","FLINT","MI","48507"
204928,"4134 DAKOTA DR","STOCKTON","CA","95206"
204929,"4134 E DEL VALLE AVE","ORANGE","CA","92869"
204930,"4134 GAMBLE ROAD","MONTICELLO","FL","32344"
204931,"4134 GREENWOOD ROAD","SHREVEPORT","LA","71109"
204932,"4134 LANCASTER AVENUE","PHILADELPHIA","PA","19104"
204933,"4134 MARJON CT","DUMFRIES","VA","22025"
204934,"4134 MYSTIC DRIVE","SAN JOSE","CA","95124"
204935,"4134 NW 82ND STREET","KANSAS CITY","MO","64151"
204936,"4134 PENNSYLVANIA AVE","RENOVO","PA","17764"
204937,"4134 POND RUN","CANTON","MI","48188"
204938,"4134 VENTURA AVENUE","MIAMI","FL","33133"
204939,"4134 W 16TH STREET","CHICAGO","IL","60623"
204940,"4134 W 21ST PLACE SUITE 1","CHICAGO","IL","60623"
204941,"4134 W ADAMS","CHICAGO","IL","60624"
204942,"4135 54TH PLACE","SAN DIEGO","CA","92105"
204943,"4135 CHARLENE DR","LOS ANGELES","CA","90043"
204944,"4135 CLOVERDALE DR","TURNER","OR","97392"
204945,"4135 CROW VALLEY DRIVE","MISSOURI CITY","TX","77459"
204946,"4135 E JICARILLA ST","PHOENIX","AZ","85044"
204947,"4135 LORCOM LANE","ARLINGTON","VA","22207"
204948,"4135 N FAIRVIEW CIRCLE","MESA","AZ","85206"
204949,"4135 N SHIRE PLACE","FAYETTEVILLE","AR","72704"
204950,"4135 PROVIDENCE POINT DRIVE","ISSAQUAH","WA","98029"
204951,"4135 S REGAL MANOR CT","NEW BERLIN","WI","53151"
204952,"4135 SHOUP RD","COLORADO SPRINGS","CO","80908"
204953,"4135 SHREVE","SAINT LOUIS","MO","63115"
204954,"4135 SUNDAY SILENCE WAY","MURFREESBORO","TN","37128"
204955,"4135-A PROVIDENCE POINT DRIVE SE","ISSAQUAH","WA","98029"
204956,"4136 DEL REY AVENUE SUITE 606","MARINA DEL REY","CA","90292"
204957,"4136 DEL REY AVENUE","MARINA DEL REY","CA","90292"
204958,"4136 E OAKLAND STREET","GILBERT","AZ","85295"
204959,"4136 HOFFMAN STREET","PLANO","IL","60545"
204960,"4136 HUNTCLIFF DRIVE","WOODSTOCK","GA","30189"
204961,"4136 LAKEVIEW DR","CNTRY CLB HLS","IL","60478"
204962,"4136 LIVERPOOL DRIVE","FLOWER MOUND","TX","75028"
204963,"4136 SHENANDOAH AVE","SAINT LOUIS","MO","63110"
204964,"4136 WASHINGTON AVENUE","BATON ROUGE","LA","70802"
204965,"4137 131ST AVE SE","BELLEVUE","WA","98006"
204966,"4137 ASHCROFT AVE","CASTLE ROCK","CO","80104"
204967,"4137 BRAXTON DR E PO BOX 464","LAFAYETTE","IN","47902"
204968,"4137 DREW AVENUE SOUTH","MINNEAPOLIS","MN","55410"
204969,"4137 GREGORY MANOR CIR SW","SMYRNA","GA","30082"
204970,"4137 MALLARD PLACE SE","ROCHESTER","MN","55904"
204971,"4137 N HIGHWAY 67 SUITE C","FLORISSANT","MO","63034"
204972,"4137 SALEM STREET","CONCORD","CA","94521"
204973,"4137 SAUK TRAIL AVE","RICHTON PARK","IL","60471"
204974,"4137 SAUK TRAIL SUITE 110","RICHTON PARK","IL","60471"
204975,"4137 SAUK TRAIL SUITE 113","RICHTON PARK","IL","60471"
204976,"4137 SAUK TRAIL","RICHTON PARK","IL","60471"
204977,"4137 STONECREST LANE","BELLINGHAM","WA","98226"
204978,"4137 SUDER AVE","TOLEDO","OH","43611"
204979,"4137 W KAMERLING AVE","CHICAGO","IL","60651"
204980,"4137 WALLER DRIVE","SHREVEPORT","LA","71119"
204981,"41370 HWY 40","CALLAWAY","NE","68825"
204982,"41375 JIVARRO STREET","OGILVIE","MN","56358"
204983,"4138 68TH ST","WOODSIDE","NY","11377"
204984,"4138 68TH STREET 2FL","WOODSIDE","NY","11377"
204985,"4138 ALLISON","HOUSTON","TX","77048"
204986,"4138 BRIGADOON DR","SHOREVIEW","MN","55126"
204987,"4138 CARPENTER AVENUE 4A","BRONX","NY","10466"
204988,"4138 CENTRAL SARASOTA PKWY APT 1521","SARASOTA","FL","34238"
204989,"4138 COUNTRY PARK LANE","MURFEESBORO","TN","37128"
204990,"4138 GRASMERE RUN","MASON","OH","45040"
204991,"4138 HINSDALE ROAD","SOUTH EUCLID","OH","44121"
204992,"4138 LELAND STREET","CHEVY CHASE","MD","20815"
204993,"4138 LEXINGTON AVENUE N","SHOREVIEW","MN","55126"
204994,"4138 MOUNT AIRY RD","CULPEPER","VA","22701"
204995,"4138 MOUNT RUSHMORE DRIVE","NORCO","CA","92860"
204996,"4138 N TROY ST APT 3","CHICAGO","IL","60618"
204997,"4138 PARK PLACE CIR","ELLENWOOD","GA","30294"
204998,"4138 SW WEBSTER ST","SEATTLE","WA","98136"
204999,"41385 US HWY 71 STE 1","WINDOM","MN","56101"
205000,"4139 AVENIDA DE LA PLATA","OCEANSIDE","CA","92056"
