"ID","Address","City","State","Zip"
141001,"2556 WILLIAMSBURG DRIVE","DECATUR","GA","30034"
141002,"2556 YOCUMSHIRE COURT","LITHONIA","GA","30058"
141003,"25561 BRIARWYKE DRIVE","FARMINGTON HILLS","MI","48336"
141004,"25564 MAYWOOD STREET","WOODHAVEN","MI","48183"
141005,"2557 ALEMANY BLVD","SAN FRANCISCO","CA","94112"
141006,"2557 BRENTWOOD DRIVE","BEACHWOOD","OH","44122"
141007,"2557 COCONUT DR","SAN JOSE","CA","95148"
141008,"2557 EASTVIEW DR","HARVEY","LA","70058"
141009,"2557 FIVE POINT COURT","VIRGINIA BEACH","VA","23454"
141010,"2557 GARFIELD ST","MOBILE","AL","36610"
141011,"2557 KELLI AVE","SANGER","CA","93657"
141012,"2557 LAMBOURNE AVE","SALT LAKE CITY","UT","84109"
141013,"2557 LAUREL GLEN DRIVE","LAKELAND","FL","33803"
141014,"2557 MARINA DRIVE","GRAND PRAIRIE","TX","75054"
141015,"2557 MCCULLOH STREET","BALTIMORE","MD","21217"
141016,"2557 MILITARY STREET","PORT HURON","MI","48060"
141017,"2557 NICKY LANE","ALEXANDRIA","VA","22311"
141018,"2557 OLD SIXTH AVENUE","ALTOONA","PA","16601"
141019,"2557 PROSPECT HILL DR","FORT WORTH","TX","76123"
141020,"2557 RAVENHILL DRIVE SUITE 1-D","FAYETTEVILLE","NC","28303"
141021,"2557 STATE ROUTE 21","CANANDAIGUA","NY","14424"
141022,"2557 SWAN LANE","LAS VEGAS","NV","89121"
141023,"2557 TRADE WIND DR","BULLHEAD CITY","AZ","86442"
141024,"2557 TUBEROSE ST","SAN DIEGO","CA","92105"
141025,"2557 W BLUEBERRY CIRCLE","HAYDEN","ID","83835"
141026,"25573 COUNTY ROAD 223","FLEMINGTON","MO","65650"
141027,"25576 1600 EAST ST","WALNUT","IL","61376"
141028,"25576 N RABB RD","LA FERIA","TX","78559"
141029,"2558 ATALAYA HIL TRAIL","SANTA FE","NM","87505"
141030,"2558 BELLEAIR ROAD","CLEARWATER","FL","33764"
141031,"2558 CADES COVE","BRIGHTON","MI","48114"
141032,"2558 FAIRVIEW LANE","JONESBORO","GA","30236"
141033,"2558 FOX HOUND CT","HERNDON","VA","20171"
141034,"2558 LAKE ELLEN CIR","TAMPA","FL","33618"
141035,"2558 MOORCROFT LN","DULUTH","GA","30096"
141036,"2558 N 36TH STREET","MILWAUKEE","WI","53210"
141037,"2558 PLUM CREEK DRIVE","CORDOVA","TN","38016"
141038,"2558 RED STORE ROAD","WHITEVILLE","NC","28472"
141039,"2558 S HILLOCK ST","CHICAGO","IL","60608"
141040,"2558 S HONEYCOMB WAY","BOISE","ID","83716"
141041,"2558 SEMINARY AVE","OAKLAND","CA","94605"
141042,"2558 STATE ROUTE 827","GREENUP","KY","41144"
141043,"2558 VIERLING DR EAST","SHAKOPEE","MN","55379"
141044,"2558 WEST 8TH STREET","ERIE","PA","16505"
141045,"25581 OAKHURST FOREST","PORTER","TX","77365"
141046,"25582 SOUTH VILLAGE DR","CHANTILLY","VA","20152"
141047,"25583 PINE CREEK LANE","WILMINGTON","CA","90744"
141048,"25586 DEBORAH","REDFORD","MI","48239"
141049,"2559 7TH AVE E","NORTH ST PAUL","MN","55109"
141050,"2559 BLUE SAGE AVE","COCONUT CREEK","FL","33063"
141051,"2559 CARMELITA WAY","PINOLE","CA","94564"
141052,"2559 CASTLETON AVE","TOLEDO","OH","43613"
141053,"2559 DENMARK RD","COLUMBUS","OH","43232"
141054,"2559 DEPEW DR","WEST BLOOMFIELD","MI","48324"
141055,"2559 E PENTAGON PARKWAY","DALLAS","TX","75241"
141056,"2559 EAST DAUPHIN STREET F1","PHILADELPHIA","PA","19125"
141057,"2559 EDGEWATER DRIVE","NAPA","CA","94558"
141058,"2559 EL VITA WAY","CARMICHAEL","CA","95608"
141059,"2559 FAIR WAY CIRCLE SW","ATLANTA","GA","30331"
141060,"2559 LAKESHORE BLVD  SUITE A","LAKEPORT","CA","95453"
141061,"2559 LAKESHORE BLVD UNIT A","LAKEPORT","CA","95453"
141062,"2559 NEWBURY DR","CLEVELAND HTS","OH","44118"
141063,"2559 ROWESVILLE ROAD","ORANGEBURG","SC","29115"
141064,"2559 S HOBSON ST","PHILADELPHIA","PA","19142"
141065,"2559 STATE ROUTE 60","LOUDONVILLE","OH","44842"
141066,"25591 PACIFIC CREST DRIVE","MISSION VIEJO","CA","92692"
141067,"25591 SALEM STREET","ROSEVILLE","MI","48066"
141068,"25595 ROUGE RIVER DRIVE","DEARBORN HEIGHTS","MI","48127"
141069,"25598 CARNO CIR","HARRISON TWP","MI","48045"
141070,"256 1/2 CERVANTES AVE","ST AUGUSTINE","FL","32084"
141071,"256 20TH STREET","NEW ORLEANS","LA","70124"
141072,"256 ANDERSON AVENUE","BELLMAWR","NJ","08031"
141073,"256 ASCHWIND CT","GALLOWAY","NJ","08205"
141074,"256 AVALON","HIGHLAND PARK","MI","48203"
141075,"256 AVENIDA ATEZADA","REDONDO BEACH","CA","90277"
141076,"256 BEACON STREET","BOSTON","MA","02116"
141077,"256 CAROLINIAN DRIVE","SUMMERVILLE","SC","29485"
141078,"256 CARROLL BRASHER ROAD","DOWNSVILLE","LA","71234"
141079,"256 CENTRE STREET","BROCKTON","MA","02302"
141080,"256 CHALET CIRCLE EAST","MILLERSVILLE","MD","21108"
141081,"256 COATSVILLE DRIVE","WESTFIELD","IN","46074"
141082,"256 COBBLESTONE BLVD SE","MOULTRIE","GA","31788"
141083,"256 COUNTRY CLUB RD","ALLEN","TX","75002"
141084,"256 COUNTRY CLUB RD","EDGEFIELD","SC","29824"
141085,"256 COUNTRY CLUB ROAD","ALLEN","TX","75002"
141086,"256 DALTON AVENUE","MUNDELEIN","IL","60060"
141087,"256 DEMOREST AVE","AVENEL","NJ","07001"
141088,"256 DUKE STREET","EPHRATA","PA","17522"
141089,"256 E 46TH STREET","SAN BERNARDINO","CA","92404"
141090,"256 E CHURCH STREET","JACKSONVILLE","FL","32202"
141091,"256 E FORTIFICATION ST","JACKSON","MS","39202"
141092,"256 EAGLEVIEW BLVD PO BOX 252","EXTON","PA","19341"
141093,"256 EAST 1660 NORTH","OREM","UT","84057"
141094,"256 EAST SCHROCK ROAD","WESTERVILLE","OH","43081"
141095,"256 EDISON ST","DETROIT","MI","48206"
141096,"256 FLOWER RIDGE DRIVE","FORT WORTH","TX","76108"
141097,"256 GRAND STREET 3RD FLOOR","BROOKLYN","NY","11211"
141098,"256 GUM STREET","PHILADELPHIA","MS","39350"
141099,"256 HIGH STREET","CLINTON","MA","01510"
141100,"256 HINGEBACK CIR","NEWPORT NES","VA","23601"
141101,"256 JERICHO RD","ESSEX JCT","VT","05452"
141102,"256 LAGRANGE STREET","NEWNAN","GA","30263"
141103,"256 LAGRANGE STREET","NEWTON","MA","02467"
141104,"256 LAKE DR","DORAVILLE","GA","30340"
141105,"256 LANDIS AVENUE SUITE 300","CHULA VISTA","CA","91910"
141106,"256 LITTLE MILL RD","PINE HILL","NJ","08021"
141107,"256 MAIN ST","WINCHENDON","MA","01475"
141108,"256 MANNING BLVD APT 1","ALBANY","NY","12206"
141109,"256 MARGINAL STREET","BOSTON","MA","02128"
141110,"256 MARTIN STREET","TWIN FALLS","ID","83301"
141111,"256 MASTERS POINT CT","SLIDELL","LA","70458"
141112,"256 MEMORIAL DR SW","ATLANTA","GA","30303"
141113,"256 MONTROSE WAY","COLUMBUS","OH","43214"
141114,"256 N KEDZIE AVE","CHICAGO","IL","60612"
141115,"256 N MAIN ST STE A","ALPINE","UT","84004"
141116,"256 N MECHANIC AVENUE","ALLIANCE","OH","44601"
141117,"256 OLD BRICK ROAD","BUNNELL","FL","32110"
141118,"256 PALM VALLEY BOULEVARD UNIT 210","SAN JOSE","CA","95123"
141119,"256 PEMBROKE STREET","KINGSTON","MA","02338"
141120,"256 S CADDOA DR","PUEBLO WEST","CO","81007"
141121,"256 SEDGWICK AVENUE","YONKERS","NY","10705"
141122,"256 SERENITY CT","COPPELL","TX","75019"
141123,"256 SHERRY LANE","CHICAGO HEIGHTS","IL","60411"
141124,"256 SMITH KNOB RD","ANDREWS","NC","28901"
141125,"256 SOUTHAMPTON ST","BUFFALO","NY","14208"
141126,"256 SPORTSMAN ROAD","ROTONDA WEST","FL","33947"
141127,"256 SPRINGDALE TERRACE","YARDLEY","PA","19067"
141128,"256 STE A MEMORIAL DRIVE SW","ATLANTA","GA","30303"
141129,"256 STOCKING ST","MOBILE","AL","36604"
141130,"256 STRADER AVENUE","CINCINNATI","OH","45226"
141131,"256 SUMMER AVE","NEWARK","NJ","07104"
141132,"256 SUNDANCE CIRCLE","RICHLAND","MS","39218"
141133,"256 TRADITIONS DRIVE","ALPHARETTA","GA","30004"
141134,"256 VISTA BLVD","LOCHBUIE","CO","80603"
141135,"256 W EIGHT ST","CLAREMONT","CA","91711"
141136,"256 W GRAND BLVD","DETROIT","MI","48216"
141137,"256 W MAHONING ST","DANVILLE","PA","17821"
141138,"256 W WESTFEILD AVE","ROSELLE PARK","NJ","07204"
141139,"256 WADE KELLY RD","BLYTHEWOOD","SC","29016"
141140,"256 WADSWORTH AVE  SUITE 4A","NEW YORK","NY","10033"
141141,"256 WAITSBORO DRIVE","SOMERSET","KY","42503"
141142,"256 WALDEN AVE NW","WHIGHAM","GA","39897"
141143,"256 WAYNE AVE","JONESBORO","GA","30236"
141144,"256 WEST FULTON ROAD","WEST FULTON","NY","12194"
141145,"256 WEST PATRICK STREET","FREDERICK","MD","21701"
141146,"256 WHITE DOVE LN","BLAIRSVILLE","GA","30512"
141147,"256 WILDWOOD STREET NW","SHALLOTTE","NC","28470"
141148,"256-29 UNION TURNPKE NUM 40241","GLEN OAKS","NY","11004"
141149,"2560 40TH AVE SE","NAPLES","FL","34117"
141150,"2560 BULLION LOOP","SANFORD","FL","32771"
141151,"2560 CAMPUS ROAD GEORGE HALL 320","HONOLULU","HI","96822"
141152,"2560 E HWY 50 SUITE 107","CLERMONT","FL","34711"
141153,"2560 MUTUAL UNION RD","URBANA","OH","43078"
141154,"2560 NORTH SHADELAND AVENUE SUITE A","INDIANAPOLIS","IN","46219"
141155,"2560 PINE STREET APARTMENT B","SAN FRANCISCO","CA","94115"
141156,"2560 ROUTE 22 PMB 122","SCOTCH PLAINS","NJ","07076"
141157,"2560 S OCEAN BLVD","PALM BEACH","FL","33480"
141158,"2560 STADIUM DR","FORT WORTH","TX","76109"
141159,"2560 STILLWELL AVENUE APARTMENT 1A","BROOKLYN","NY","11223"
141160,"2560 U S HIGHWAY 22","SCOTCH PLAINS","NJ","07076"
141161,"2560 W POINT AVE","COLLEGE PARK","GA","30337"
141162,"2560 WALNUT VIEW DR","HOWELL","MI","48855"
141163,"2560","TROY","MI","48098"
141164,"25600 BURKE LANE","LOS ALTOS HILLS","CA","94022"
141165,"25600 SE SUMMIT LANDSBURG RD","RAVENSDALE","WA","98051"
141166,"25600","MENIFEE","CA","92584"
141167,"25602 68TH AVE EAST","GRAHAM","WA","98338"
141168,"25602 ALICIA PKWY   STE-323","LAGUNA HILLS","CA","92653"
141169,"25602 APTITUDE TERRACE","WESLEY CHAPEL","FL","33544"
141170,"25602 HAZY HOLLOW","SAN ANTONIO","TX","78255"
141171,"25604 HOUSMAN PLACE","STEVENSON RANCH","CA","91381"
141172,"25604 TWELVE CEDARS COURT","CHANTILLY","VA","20152"
141173,"25605 GHOST TOWN ROAD","CONGRESS","AZ","85332"
141174,"25605 S HARRIS RD","GREENWOOD","MO","64034"
141175,"2561 AUSTELL ROAD    SUITE 100","MARIETTA","GA","30008"
141176,"2561 E WARWICK AVENUE","FRESNO","CA","93720"
141177,"2561 FAIRLANE DRIVE","MONTGOMERY","AL","36116"
141178,"2561 GREENSPRINGS DRIVE","EAST YORK","PA","17402"
141179,"2561 HUFF CREEK HIGHWAY","DAVIN","WV","25617"
141180,"2561 LAKESIDE DR","FERNDALE","WA","98248"
141181,"2561 SHERIDAN AVE","FRANKLINVILLE","NJ","08322"
141182,"2561 SOUTHOVER DRIVE NE","PALM BAY","FL","32905"
141183,"2561 WEST POINT AVENUE","COLLEGE PARK","GA","30337"
141184,"2561 WRIGHTSON DRIVE","JACKSONVILLE","FL","32223"
141185,"2561","COPPELL","TX","75019"
141186,"25610 485TH AVE","GARRETSON","SD","57030"
141187,"25610 BRECKENRIDGE","EUCLID","OH","44117"
141188,"25611 QUAIL RUN UNIT 15","DANA POINT","CA","92629"
141189,"25611 W COMFORT DR","WYOMING","MN","55092"
141190,"25612 BALDWIN","DEARBORN HEIGHTS","MI","48127"
141191,"25612 BARTON RD 205","LOMA LINDA","CA","92354"
141192,"25612 BARTON RD APT 256","LOMA LINDA","CA","92354"
141193,"25612 BARTON RD NO 163","LOMA LINDA","CA","92354"
141194,"25612 BARTON ROAD NO 367","LOMA LINDA","CA","92354"
141195,"25614 109TH PL SE P102","KENT","WA","98030"
141196,"25615  NW MEADE RD","GARNETT","KS","66032"
141197,"25618 MONROE STREET","NOVI","MI","48375"
141198,"2562 BAILY AVE APT A","SAN DIEGO","CA","92105"
141199,"2562 CHAIN BRIDGE ROAD NUMBER 203","VIENNA","VA","22181"
141200,"2562 DAN ST","JACKSON","MI","49201"
141201,"2562 FAIRBURN ROAD SUITE C10","DOUGLASVILLE","GA","30135"
141202,"2562 FOX CIRCLE","WALNUT CREEK","CA","94596"
141203,"2562 MAYFAIR LN","WESTON","FL","33327"
141204,"2562 SE 14TH STREET","DES MOINES","IA","50320"
141205,"2562 SPINDRIFT CIR","HAYWARD","CA","94545"
141206,"2562 W 1725 N","CLINTON","UT","84015"
141207,"2562 WALTON BLVD  SUITE 312","WARSAW","IN","46582"
141208,"2562 WILDFLOWER LN NE","MASSILLON","OH","44646"
141209,"2562 WOODBURN AVE","CINCINNATI","OH","45206"
141210,"256205 W AIRPORT RD","WATONGA","OK","73772"
141211,"25622 S KENSINGTON LN","GREEN GARDEN TWSHIP","IL","60449"
141212,"25624 ESTORIL ST","VALENCIA","CA","91355"
141213,"25624 LEWIS RANCH RD","NEW BRAUNFELS","TX","78132"
141214,"25624 SUN SAIL CT","HARRISON TOWNSHIP","MI","48045"
141215,"25624 W PERDIDO AVE UNIT 1002","ORANGE BEACH","AL","36561"
141216,"25625 SOUTHFIELD RD","SOUTHFIELD","MI","48075"
141217,"25627 CR 227","CARROLLTON","MO","64633"
141218,"2563 6TH AVENUE W","SEATTLE","WA","98119"
141219,"2563 DEER TRAIL","BROWNSVILLE","TX","78521"
141220,"2563 EAST LELAND ROAD APT 102","PITTSBURG","CA","94565"
141221,"2563 HARVEST MOON CT","ANDERSON","IN","46011"
141222,"2563 NORTH WALLACE WAY","LEHI","UT","84043"
141223,"2563 SMOKETREE ROAD","AUGUSTA","GA","30906"
141224,"2563 TRADING POST TRAIL S","AFRON","MN","55001"
141225,"2563 W NORTH BEND RD","CINCINNATI","OH","45239"
141226,"2563 WILD HORSE TRAIL","CAPE GIRARDEAU","MO","63701"
141227,"25630 DEOBRAH","REDFORD","MI","48239"
141228,"25630 LA BREA AVE","MADERA","CA","93638"
141229,"25630 SANTINA LANE","WARREN","MI","48089"
141230,"25631","ALBUQUERQUE","NM","87125"
141231,"25632 GOLDENSPRING","DANA POINT","CA","92629"
141232,"25634 BUENA FORTUNA LN","MORENO VALLEY","CA","92551"
141233,"25636 169TH STREET","SPIRIT LAKE","IA","51360"
141234,"25636 WILLOWBEND ROAD","PERRYSBURG","OH","43551"
141235,"25639 S MAY COURT","CHANNAHON","IL","60410"
141236,"2564 E SANDY DR","WARSAW","IN","46580"
141237,"2564 GRAYTON LANE","WOODBRIDGE","VA","22191"
141238,"2564","EUGENE","OR","97402"
141239,"25642 S BRENTWOOD DRIVE","SUN LAKES","AZ","85248"
141240,"25643 CAMINO VISTA","HAYWARD","CA","94541"
141241,"25646 PARK LANE","ORONOGO","MO","64855"
141242,"2565 58TH TERRACE SOUTH","ST PETERSBURG","FL","33712"
141243,"2565 GOURDNECK ROAD NW","TULLAHOMA","TN","37388"
141244,"2565 HASKILL HILL RD","APOPKA","FL","32712"
141245,"2565 HORIZON LAKE DRIVE 110","MEMPHIS","TN","38133"
141246,"2565 JOLLY RD STE A","COLLEGE PARK","GA","30349"
141247,"2565 LAKE ROYALE DRIVE","RIVERDALE","GA","30296"
141248,"2565 LEONA DRIVE","CAMBRIA","CA","93428"
141249,"2565 MARSHALL DR","QUAKERTOWN","PA","18951"
141250,"2565 MI","SAN BERNARDINO","CA","92407"
141251,"2565 MILLCREEK DRIVE","SACRAMENTO","CA","95833"
141252,"2565 NE 206 LANE","AVENTURA","FL","33180"
141253,"2565 NE 207TH ST","MIAMI","FL","33180"
141254,"2565 NW 205 STREET","MIAMI GARDENS","FL","33056"
141255,"2565 NW 60TH TERRACE","SUNRISE","FL","33313"
141256,"2565 OLD MILTON PARKWAY","ALPHARETTA","GA","30009"
141257,"2565 PEARL BUCK RD","BRISTOL","PA","19007"
141258,"2565 POWERS AVE","CLOVIS","CA","93619"
141259,"2565 QUAIL RIDGE DR","DENTON","TX","76209"
141260,"2565 S UNIVERSITY BLVD 408","DENVER","CO","80210"
141261,"2565 SHINNECOCK COURT","MURFREESBORO","TN","37127"
141262,"2565 SPRINGDALE DR","SNELLVILLE","GA","30078"
141263,"2565 SW 156 LANE RD","OCALA","FL","34473"
141264,"2565 W RUNYON PL","ANAHEIM","CA","92804"
141265,"2565 WASHINGTON ST UNIT 302","ROXBURY","MA","02119"
141266,"25650 HICKORY DRIVE","FARMINGTON","MO","63640"
141267,"25654 SOUTH VILLAGE DRIVE","SOUTH RIDING","VA","20152"
141268,"25655 NW 168TH PL","HIGH SPRINGS","FL","32643"
141269,"25656 TRIESTA VIEW","YORBA LINDA","CA","92887"
141270,"2566 CR 22900","PARIS","TX","75462"
141271,"2566 ENTERPRISE PLACE","WALDORF","MD","20601"
141272,"2566 JOHN MILTON DR","HERNDON","VA","20171"
141273,"2566 LAKE CORA ROAD","APOPKA","FL","32712"
141274,"2566 OVERLAND AVENUE      SUITE 645","LOS ANGELES","CA","90064"
141275,"2566 SHALLOWFORD RD STE 104 BOX 156","ATLANTA","GA","30345"
141276,"2566 SUN MOR AVE","MOUNTAIN VIEW","CA","94040"
141277,"2566 TRANSOM PLACE","WOODBRIDGE","VA","22191"
141278,"25660 EDGECLIFF DRIVE","EUCLID","OH","44132"
141279,"25661 COOLIDGE","OAK PARK","MI","48237"
141280,"25662 BIRCHLEAF COURT","VALENCIA","CA","91381"
141281,"2567 ANGLER DR","DELRAY BEACH","FL","33445"
141282,"2567 BROOKVIEW RD","CASTLETON","NY","12033"
141283,"2567 KIRBY AVE","GROVETOWN","GA","30813"
141284,"2567 N CHATTERTON AVE","MERIDIAN","ID","83646"
141285,"2567 N LABELLE ROAD","AVON PARK","FL","33825"
141286,"2567 NORTH STREET","GRANVILLE","OH","43023"
141287,"2567 OAK TRAIL NORTH UNIT 217","CLEARWATER","FL","33764"
141288,"2567 PONTIUS ST NE","HARTVILLE","OH","44632"
141289,"2567 RIDGELAND PLACE","CINCINNATI","OH","45212"
141290,"2567 ROSS CLARK CIRCLE","DOTHAN","AL","36301"
141291,"2567 WEST STATE HIGHWAY CC","BRIGHTON","MO","65617"
141292,"25670 MAPLE VIEW COURT","EXCELSIOR","MN","55331"
141293,"25671 LE PARC - 4","LAKE FOREST","CA","92630"
141294,"25673 W 12 MILE APT 302","SOUTHFIELD","MI","48034"
141295,"25675 MALAGA RD","ROMOLAND","CA","92585"
141296,"25676 SANLUPE AVE","MORENO VALLEY","CA","92551"
141297,"25678 MARAVILLA CT","VALENCIA","CA","91355"
141298,"2568 BELFAST AVENUE SE","GRAND RAPIDS","MI","49507"
141299,"2568 COUNTY ROAD 3100 N","PENFIELD","IL","61862"
141300,"2568 DORWOOD DRIVE","SAINT LOUIS","MO","63136"
141301,"2568 FIRE MESA ST","LAS VEGAS","NV","89128"
141302,"2568 FRANKFORD AVENUE","PHILADELPHIA","PA","19125"
141303,"2568 HIGHLAND AVE UNIT A","ALTADENA","CA","91001"
141304,"2568 LAKEFIELD TRAIL","MARIETTA","GA","30064"
141305,"2568 LISA DRIVE APT 1","CAPE GIRARDEAU","MO","63701"
141306,"2568 MARSHFIED ROAD","LAWTONS","NY","14091"
141307,"2568 PINKERTON LN","FAIRFIELD","CA","94533"
141308,"2568 SOLLIE ROAD","MOBILE","AL","36695"
141309,"2568 STEDMAN DR","PETERSBURG","VA","23803"
141310,"25681 S RIVER ROAD","HARRISON TOWNSHIP","MI","48045"
141311,"25683 PEPPERTREE LN","WARREN","MI","48091"
141312,"25684 COUNTY ROAD 49","O BRIEN","FL","32071"
141313,"25684 WATAUGA ROAD","ABINGDON","VA","24211"
141314,"25686 BLUE CREEK COURT","FARMINGTON HILLS","MI","48336"
141315,"25686 GRAND CONCOURSE ST","SOUTHFIELD","MI","48075"
141316,"2569 7TH AVENUE APT 8A","NEW YORK","NY","10039"
141317,"2569 ADAM CLAYTON POWELL BLVD 17E","NEW YORK","NY","10039"
141318,"2569 ADAM CLAYTON POWELL JR BLVD","NEW YORK","NY","10039"
141319,"2569 CECIL AVENUE","BALTIMORE","MD","21218"
141320,"2569 COOK ROAD","CROSSVILLE","TN","38571"
141321,"2569 FAIRWAY DR","ORANGEBURG","SC","29118"
141322,"2569 FEYWOOD COURT","LITHONIA","GA","30058"
141323,"2569 IRIS ANN DRIVE","LAKELAND","FL","33810"
141324,"2569 MONTEREY PL","FULLERTON","CA","82833"
141325,"2569 ROSEHALL LANE","AURORA","IL","60503"
141326,"2569 S CORRAL DR","GRAND JUNCTION","CO","81505"
141327,"2569 SAN SABA STREET","TUSTIN","CA","92782"
141328,"2569 STONE BRIAR DRIVE","CLARKSVILLE","TN","37043"
141329,"25695 S TENDERFOOT HILL RD","CONGRESS","AZ","85332"
141330,"256A S 400 W","JEROME","ID","83338"
141331,"257 ALLENS AVENUE","GALESBURG","IL","61401"
141332,"257 ALPHA DRIVE","LONGVIEW","WA","98632"
141333,"257 ARUNDEL ROAD","ROCKY RIVER","OH","44116"
141334,"257 BALSAM DRIVE","CANTON","GA","30114"
141335,"257 BEMENT AVENEUE","STATEN ISLAND","NY","10310"
141336,"257 BOYD EVANS ROAD","PAGELAND","SC","29728"
141337,"257 CAMPUS DR M/C 5148","STANFORD","CA","94305"
141338,"257 CAVALIER RD","ATHENS","GA","30606"
141339,"257 CHAPEL HILL TRL","FULTONDALE","AL","35068"
141340,"257 COMMON STREET","WALPOLE","MA","02081"
141341,"257 CRYSTAL PETAL DRIVE","DELAWARE","OH","43015"
141342,"257 DURHAM LANE","BLOOMINGDALE","IL","60108"
141343,"257 E 200 S STE 1050","SALT LAKE","UT","84111"
141344,"257 E BELLEVUE RD","ATWATER","CA","95301"
141345,"257 E BROAD ST  APT F103","NEWNAN","GA","30263"
141346,"257 E TOWNSHIP LINE ROAD 1ST FL","UPPER DARBY","PW","19082"
141347,"257 EAST 200 SOUTH SUITE 1100","SALT LAKE CITY","UT","84111"
141348,"257 EAST 200 SOUTH SUITE 701","SALT LAKE CITY","UT","84111"
141349,"257 EAST BROAD STREET","COLUMBUS","OH","43215"
141350,"257 EAST JERICHO TURNPIKE","HUNTINGTON STATION","NY","11746"
141351,"257 ELMORE AVE","HAMILTON","NJ","08619"
141352,"257 EMERALD ISLE DR","MONCKS CORNER","SC","29461"
141353,"257 ERMINES WAY","MCDONOUGH","GA","30253"
141354,"257 FODDERING FARM ROAD","NARRAGANSETT","RI","02882"
141355,"257 FORT RUN ROAD","FORD CITY","PA","16226"
141356,"257 FREELY ROAD","DONALDS","SC","29638"
141357,"257 GLENWOOD SPRINGS RD NUM B","EATONTON","GA","30124"
141358,"257 GOLD STREET 12V","BROOKLYN","NY","11201"
141359,"257 GOLD STREET","BROOKLYN","NY","11201"
141360,"257 GREEN AVE APT 1L","BROOKLYN","NY","11238"
141361,"257 GREGG DRIVE","LOS GATOS","CA","95032"
141362,"257 HALLS CREEK RD","NEW BERN","NC","28560"
141363,"257 HILLMAN AVENUE","STATEN ISLAND","NY","10314"
141364,"257 HOT SPRINGS ROAD","WHITEHALL","MT","59759"
141365,"257 KING STREET","CRYSTAL LAKE","IL","60014"
141366,"257 KINGSPORT DR","SCHAUMBURG","IL","60193"
141367,"257 LAKEWOOD DR","STARKVILLE","MS","39759"
141368,"257 LUAWAI ST","LAHAINA","HI","96761"
141369,"257 MACON STREET","BROOKLYN","NY","11216"
141370,"257 MAIN STREET","LANDISVILLE","PA","17538"
141371,"257 MAPACHE DR","PORTOLA VALLEY","CA","94028"
141372,"257 MARTIN LUTHER KING AVENUE","MORRISTOWN","NJ","07960"
141373,"257 MARTIN LUTHER KING JR DRIVE","HOLLY SPRINGS","MS","38635"
141374,"257 MCKINLEY AVENUE","GLASSBORO","NJ","08028"
141375,"257 MOUNTAIN AVE - PTO","MALDEN","MA","02148"
141376,"257 N 24TH ST","CAMP HILL","PA","17011"
141377,"257 N 3RD ST","ASHLAND","OR","97520"
141378,"257 N BARTRAM TRAIL","SAINT JOHNS","FL","32259"
141379,"257 NORTH 22ND STREET","COLUMBUS","OH","43203"
141380,"257 NORTH MARSHVIEW TER","MAGNOLIA","DE","19962"
141381,"257 NORTH MARSHVIEW TERR","MAGNOLIA","DE","19962"
141382,"257 NORTH WEST AVENUE","ELMHURST","IL","60126"
141383,"257 NORTHVIEW DR","VALPARAISO","IN","46383"
141384,"257 OLD CHURCHMANS RD","NEW CASTLE","GA","19720"
141385,"257 PENNINGTON HARBOURTON ROAD","PENNINGTON","NJ","08534"
141386,"257 PINTAIL RUN LN","MOORESVILLE","NC","28117"
141387,"257 POPLAR AVE 10","HAYWARD","CA","94541"
141388,"257 RIDGE DR","NAPLES","FL","34108"
141389,"257 S DIVISION ST","BUFFALO","NY","14204"
141390,"257 S HILLSIDE","WICHITA","KS","67211"
141391,"257 SAUK TRAIL","PARK FOREST","IL","60466"
141392,"257 SIDON RD","ROSE BUD","AR","72137"
141393,"257 SOUTH HUDSON AVE UNIT 104","PASADENA","CA","91101"
141394,"257 SOUTH WALPOLE ST","SHARON","MA","02067"
141395,"257 SOUTHBERRY LANE","LEXINGTON","SC","29072"
141396,"257 STONELEDGE COURT","MARTHASVILLE","MO","63357"
141397,"257 SUDLOW RIDGE RD","NORTH AUGUSTA","SC","29841"
141398,"257 TIMBERWOLF DRIVE","DINGMANS FERRY","PA","18328"
141399,"257 VALENTINE LANE 3F","YONKERS","NY","10705"
141400,"257 W ARTESIA ST","OVIEDO","FL","32765"
141401,"257 W BEACON STREET SUITE 16","PHILADELPHIA","MS","39350"
141402,"257 W CROOKED HILL RD","PEARL RIVER","NY","10965"
141403,"257 WASHINGTON BLVD UNIT 10","OAK PARK","IL","60302"
141404,"257 WEST 116TH APT 3A","NEW YORK","NY","10026"
141405,"257 WEST 116TH STREET 3B","NEW YORK","NY","10026"
141406,"257 WEST MAIN AVE","GASTONIA","NC","28052"
141407,"257 WESTBURY DR","COPPELL","TX","75019"
141408,"257 WESTWOOD DR","LEAGUE CITY","TX","77573"
141409,"257 WINSLOW CIRCLE","COMMERCE TOWNSHIP","MI","48390"
141410,"257-17 86TH AVENUE","FLORAL PARK","NY","11001"
141411,"257-25 148TH AVE","ROSEDALE","NY","11422"
141412,"257-31 147 AVE","ROSEDALE","NY","11422"
141413,"257-37 147TH DRIVE","ROSEDALE","NY","11422"
141414,"2570 38TH STREET","ASTORIA","NY","11103"
141415,"2570 BEAR DEN ROAD","FREDERICK","MD","21701"
141416,"2570 CLUB COURT","MADISONVILLE","KY","42431"
141417,"2570 E LAMBOURNE AVE","SALT LAKE CITY","UT","84109"
141418,"2570 EAST HIGHWAY 50","CLERMONT","FL","34711"
141419,"2570 EWELL ROAD","LAKELAND","FL","33811"
141420,"2570 FRANKLIN DRIVE","VINELAND","NJ","08361"
141421,"2570 MONO CIRCLE","LA VERNE","CA","91750"
141422,"2570 N 1ST ST STE 200","SAN JOSE","CA","95131"
141423,"2570 NE TWIN KNOLLS DR STE 120","BEND","OR","97701"
141424,"2570 NW 152ND TERR","OPA LOCKA","FL","33054"
141425,"2570 ROUTE 9W SUITE 10","CORNWALL","NY","12518"
141426,"2570 TEMPLE AVENUE","CAMARILLO","CA","93010"
141427,"2570 TERRACED HILL CT","POTTSTOWN","PA","19464"
141428,"25700 280TH STREET","SHEVLIN","MN","56676"
141429,"25700 INTERSTATE 45 NORTH SUITE 130","SPRING","TX","77386"
141430,"25700 NELLIE GAIL ROAD","LAGUNA HILLS","CA","92653"
141431,"25700 TURQUESA DRIVE","VALENCIA","CA","91355"
141432,"25701 N LAKELAND BLVD SUITE 403 A","EUCLID","OH","44132"
141433,"25701 W 12 MILE RD APT 302","SOUTHFIELD","MI","48034"
141434,"25702 ELLIOT CT","STEVENSON RANCH","CA","91381"
141435,"25702 PEREGRINE RDG","SAN ANTONIO","TX","78260"
141436,"25702 STATE HWY 4","SLEEPY EYE","MN","56085"
141437,"25703 N DESERT MESA DR","SURPRISE","AZ","85387"
141438,"25706 FAIRBROOK LANE","SPRING","TX","77373"
141439,"25707 COUNTY ROAD 95","DAVIS","CA","95616"
141440,"25709 HOLIDAY CIRCLE UNIT C","STEVENSON RANCH","CA","91381"
141441,"2571 DAVIS RD","TERRY","MS","39170"
141442,"2571 FOUNTAIN AVE - UNIT 1","SOUTH LAKE TAHOE","CA","96150"
141443,"2571 GONZAGA STREET","EAST PALO ALTO","CA","94303"
141444,"2571 GOOSE CREEK RD","TAYLORSVILLE","KY","40071"
141445,"2571 GRANT 45","PRATTSVILLE","AR","72129"
141446,"2571 IVANHOE AVE","IONIA","IA","50645"
141447,"2571 LAKE WORTH RD APT 239","LAKE WORTH","FL","33461"
141448,"2571 MACKINNON DR","MEMPHIS","TN","38119"
141449,"2571 NEW HOLLAND CIRCLE","MURFREESBORO","TN","37128"
141450,"2571 NORWOOD CREEK WAY","POWHATAN","VA","23139"
141451,"2571 OLD QUARRY ROAD 2016","SAN DIEGO CA","CA","92108"
141452,"2571 PARK CENTRAL BLVD","DECATUR","GA","30035"
141453,"2571 SHATTUCK AVENUE STUDIO 1A","BERKELEY","CA","94704"
141454,"25710 CRESTFIELD DRIVE","CASTRO VALLEY","CA","94552"
141455,"25711 147TH DR","ROSEDALE","NY","11422"
141456,"25711 PACIFIC HILLS DR","MISSION VIEJO","CA","92692"
141457,"25711 SOUTHFIELD RD","SOUTHFIELD","MI","48075"
141458,"25712 LE PARC UNIT 1","LAKE FOREST","CA","92630"
141459,"25715 HASKELL STREET","TAYLOR","MI","48180"
141460,"25715 N 15TH AVE","PHOENIX","AZ","85085"
141461,"25715 SE 32ND PL","SAMMAMISH","WA","98075"
141462,"25715 WINGFIELD LN","SPRING","TX","77373"
141463,"25716 175TH WAY SE","COVINGTON","WA","98042"
141464,"25718 WALKER SOUTH RD","DENHAM SPRINGS","LA","70726"
141465,"2572 21ST ST","SACRAMENTO","CA","95818"
141466,"2572 21ST STREET","SACRAMENTO","CA","95818"
141467,"2572 ABACA WAY","FREMONT","CA","94539"
141468,"2572 DREXEL WAY","SPARKS","NV","89434"
141469,"2572 N MOUNTAIN AVE","CLAREMONT","CA","91711"
141470,"2572 NYS ROUTE 26","MAINE","NY","13802"
141471,"25720 ROSEBAY CT","MORENO VALLEY","CA","92553"
141472,"25720 SOUTHFIELD RD 206","SOUTHFIELD","MI","48075"
141473,"2573 AIRPORT ROAD","COLORADO SPRINGS","CO","80910"
141474,"2573 DANIELS LANE","QUAKERTOWN","PA","18951"
141475,"2573 E WILMINGTON AVE","SALT LAKE CITY","UT","84109"
141476,"2573 KLEBAHN PLACE","HONOLULU","HI","96817"
141477,"2573 N STATE ROAD 257","OTWELL","IN","47564"
141478,"2573 PALMETTO RIDGE CIRCLE","APOPKA","FL","32712"
141479,"2573 PLAINS ROAD","MILTON","VT","05468"
141480,"2573 PREBLE CIRCLE","LANSDALE","PA","19446"
141481,"2573 RICHMOND ROAD SUITE 250","LEXINGTON","KY","40509"
141482,"2573 SEYMOUR AVENUE","BRONX","NY","10469"
141483,"25732 WEST 12 MILE ROAD UNIT 105","SOUTHFIELD","MI","48034"
141484,"25739 ROSS PT DRIVE","SWAN LAKE","MT","59911"
141485,"2574 ABBEY LN SE","SALEM","OR","97317"
141486,"2574 E KENTUCKY AVENUE","SALT LAKE CITY","UT","84117"
141487,"2574 EAST MAIN ST","WATERBURY","CT","06705"
141488,"2574 GOLDRUSH DRIVE","LINCOLNTON","NC","28092"
141489,"2574 HERITAGE LANDING","ST. CHARLES","MO","63303"
141490,"2574 KENILWORTH LN","KNOXVILLE","TN","37917"
141491,"2574 MEADOW LAKE DRIVE","COLUMBUS","OH","43219"
141492,"2574 NORTH BEACHWOOD DR APT 204","LOS ANGELES","CA","90068"
141493,"2574 W4 ROAD","SABETHA","KS","66534"
141494,"2575 ANDREW DRIVE","SUPERIOR","CO","80027"
141495,"2575 BEXLEY PARK RD","BEXLEY","OH","43209"
141496,"2575 BRITT TRAIL COURT","LAWRENCEVILLE","GA","30045"
141497,"2575 CAMBRIDGE DR","FLORISSANT","MO","63033"
141498,"2575 CANTERBURY RD","SAN MARINO","CA","91108"
141499,"2575 COLLINS AVENUE SUITE C-10","MIAMI","FL","33140"
141500,"2575 COLLINS AVENUE SUITE C7","MIAMI BEACH","FL","33140"
