"ID","Address","City","State","Zip"
29501,"11595 ALLENDALE","GOLDEN","CO","80004"
29502,"11595 FOX HALL LANE","FLORISSANT","MO","63033"
29503,"11595 HOSFORD RD","CHARDON","OH","44024"
29504,"11595 KING RD","ROSWELL","GA","30075"
29505,"11595 KING ROAD","ROSWELL","GA","30075"
29506,"11596 AVONDALE DRIVE","FAIRFAX","VA","22030"
29507,"11596 TOWNSHIP HWY 44","UPPER SANDUSKY","OH","43351"
29508,"11597 233ND STREET","CAMBRIA HEIGHTS","NY","11411"
29509,"11598 WHISPERINGBROOK LANE","JACKSONVILLE","FL","32218"
29510,"11599 AILERON CT","INVER GROVE HEIGHTS","MN","55077"
29511,"11599 KIBLER RD","GREENSBORO","MD","21639"
29512,"11599 LOST TREE WAY","NORTH PALM BEACH","FL","33408"
29513,"11599 NEWBRIDGE CT","CARMEL","IN","46032"
29514,"115A E CENTRAL BLVD","PALISADES PARK","NJ","07650"
29515,"115W 18TH ST","NEW YORK","NY","10011"
29516,"116 1/2 W MISSION ST","STRAWBERRY POINT","IA","52076"
29517,"116 13TH STREET","WATERVLIET","NY","12189"
29518,"116 1ST ST N","NEWTON","IA","50208"
29519,"116 2ND AVE SE","BAUDETTE","MN","56623"
29520,"116 2ND ST SUITE 105","TAYLOR","TX","76574"
29521,"116 35TH AVENUE NE","FARGO","ND","58102"
29522,"116 5TH AVE NW APT 1","ALTOONA","IA","50009"
29523,"116 5TH ST","GILROY","CA","95020"
29524,"116 5TH STREET SE","WATFORD CITY","ND","58854"
29525,"116 ABBEY ROAD","NEW FREEDOM","PA","17349"
29526,"116 ADAMS STREET","AGAWAM","MA","01001"
29527,"116 AFTON PARKWAY","PORTSMOUTH","VA","23321"
29528,"116 AMBERLY CIRCLE","AIKEN","SC","29803"
29529,"116 ARBOR VILLAGE DRIVE","POOLER","GA","31322"
29530,"116 ASH ST","BORGER","TX","79007"
29531,"116 ASPASIE DRIVE","LAFAYETTE","LA","70508"
29532,"116 AUGUSTA NATIONAL","ANDERSON","SC","29621"
29533,"116 B WINTHROP STREET","FRAMINGHAM","MA","01702"
29534,"116 BAILEY ROAD","FORT DEFIANCE","VA","24437"
29535,"116 BAKER AVE","BERKELEY HEIGHTS","NJ","07922"
29536,"116 BAKERS POINT RD","COLUMBIA","SC","29223"
29537,"116 BALA AVE STE 4B","BALA CYNWYD","PA","19004"
29538,"116 BANNERMANS MILL RD","RICHLANDS","NC","28574"
29539,"116 BANNON CT","HINESVILLE","GA","31313"
29540,"116 BARTON ROAD","STOW","MA","01775"
29541,"116 BARTON STREET","WEST MEMPHIS","AR","72301"
29542,"116 BASCOM ROAD","LEBANON","CT","06249"
29543,"116 BASSEDENA CIRCLE S","LAKELAND","FL","33805"
29544,"116 BEACH 59TH STREET NUM 302","ARVERNE","NY","11692"
29545,"116 BEACHWOOD CIRCLE","PEARL","MS","39208"
29546,"116 BEL AIR HILLS ROAD","BELLEFONTE","PA","16823"
29547,"116 BENNETT DRIVE","LYNCHBURG","VA","24501"
29548,"116 BERRY PATCH LANE","CHAPEL HILL","NC","27514"
29549,"116 BLACKBURN DRIVE","NOTTINGHAM","PA","19362"
29550,"116 BLOWING TREE DRIVE","GEORGETOWN","MA","40324"
29551,"116 BLUEBIRD DRIVE","GREENWOOD","MS","38930"
29552,"116 BRADY LANE","STATESVILLE","NC","28625"
29553,"116 BREESPORT ROAD","HORSEHEADS","NY","14845"
29554,"116 BRIDLE DRIVE","ANGIER","NC","27501"
29555,"116 BRIGHAM HILL RD","NORTH GRAFTON","MA","01536"
29556,"116 BRIGHTMOOR CT","CANTON","GA","30115"
29557,"116 BROAD STREET","BEVERLY","NJ","08010"
29558,"116 BROWN KNIGHT LN","LEWISVILLE","TX","75056"
29559,"116 BRUSHWOOD LANE","PALM COAST","FL","32137"
29560,"116 BRYAN RD SUITE 102","WILMINGTON","NC","28412"
29561,"116 BYRUM STREET","CARY","NC","27511"
29562,"116 CABERNET DRIVE","CHAPEL HILL","NC","27516"
29563,"116 CAPEBERRY","IRVINE","CA","92603"
29564,"116 CARDINAL DRIVE","CONSHOHOCKEN","PA","19428"
29565,"116 CARROLL STREET","SHREVEPORT","LA","71105"
29566,"116 CASPER AVE","NEWCASTLE","WY","82701"
29567,"116 CELENTANO DRIVE","NAUGATUCK","CT","06770"
29568,"116 CENTRAL AVE","HOUMA","LA","70364"
29569,"116 CENTRAL PARK SOUTH APT 10E","NEW YORK","NY","10019"
29570,"116 CHARLES AVE","SHREVEPORT","LA","71105"
29571,"116 CHARLTON ST","WAHIAWA","HI","96786"
29572,"116 CHELSEA AVENUE","GLENSIDE","PA","19038"
29573,"116 CHILDRESS CIRCLE","GREENVILLE","SC","29617"
29574,"116 CHURCH STREET 3RD FLOOR","CHARLESTON","SC","29401"
29575,"116 CIRCLE AVENUE  UNIT 2","FOREST PARK","IL","60130"
29576,"116 CITRUS LANE","PONTE VEDRA BEACH","FL","32082"
29577,"116 CLARK CREEK LN","LONGVIEW","WA","98632"
29578,"116 CLEAR WATER COURT","ROSEVILLE","CA","95678"
29579,"116 COAL ST","BUTLER","PA","16001"
29580,"116 COLLEGE STREET","ADAIRSVILLE","GA","30103"
29581,"116 CONWAY AVE","NARBERTH","PA","19072"
29582,"116 CORPORATE DRIVE","ELIZABETH CITY","NC","27909"
29583,"116 COUNTY ROAD 610","ENTERPRISE","AL","36330"
29584,"116 COUNTY ROUTE 17A","COMSTOCK","NY","12821"
29585,"116 CRISTIE DR","VERONA","PA","15147"
29586,"116 CROW HILL ROAD","JACKSON","NJ","08527"
29587,"116 DANVILLE ST","HARRODSBURG","KY","40330"
29588,"116 DAVID DRIVE","STURGIS","SD","57785"
29589,"116 DAVIS RD","RIO GRANDE","NJ","08242"
29590,"116 DAWN RIVER CV","AUSTIN","TX","78732"
29591,"116 DEPOT RD","CANTERBURY","CT","06331"
29592,"116 DEVOE STREET APT 2","BROOKLYN","NY","11211"
29593,"116 DILLARD DR","WESTWEGO","LA","70094"
29594,"116 DITTMAN LN","KARNS CITY","PA","16041"
29595,"116 DIVISION ST W","MAPLE LAKE","MN","55358"
29596,"116 DORADO AVENUE","SEWELL","NJ","08080"
29597,"116 E 10TH AVE","SELAH","WA","98942"
29598,"116 E 32ND STREET","MINNEAPOLIS","MN","55408"
29599,"116 E 63RD STREET 1C","NEW YORK","NY","10065"
29600,"116 E 6TH ST","MEDFORD","OR","97501"
29601,"116 E 8TH STREET","OWENSBORO","KY","42303"
29602,"116 E ALBIA RD","CHARITON","IA","50049"
29603,"116 E APPLEWAY","COEUR D ALENE","ID","83814"
29604,"116 E COMA AV  295","HIDALGO","TX","78557"
29605,"116 E FOOTHILL BLVD","GLENDORA","CA","91741"
29606,"116 E LIVE OAK AVE STE 28","ARCADIA","CA","91006"
29607,"116 E MAIN ST 201","ROCK HILL","SC","29730"
29608,"116 E MAIN STREET SUITE 201","ROCK HILL","SC","29730"
29609,"116 E MAIN STREET","BRANDON","WI","53919"
29610,"116 E MAIN STREET","CAMDEN","TN","38320"
29611,"116 E RALEIGH STREET UNIT 170","SILER CITY","NC","27344"
29612,"116 E SOUTH ST","WOOSTER","OH","44691"
29613,"116 E SPENCER","SAINT FRANCIS","KS","67756"
29614,"116 E VETERAN MEMORIAL BLVD STE B","HARKER HEIGHTS","TX","76548"
29615,"116 E WASHINGTON ST","MOMENCE","IL","60954"
29616,"116 EAST 32ND STREET  SUITE 101","MINNEAPOLIS","MN","55408"
29617,"116 EAST 66TH STREET APT 10E","NEW YORK","NY","10065"
29618,"116 EAST BOZEMAN LANE","FORT WORTH","TX","76108"
29619,"116 EAST GALE STREET","EDENTON","NC","27932"
29620,"116 EAST LAWSON STREET","HAHIRA","GA","31632"
29621,"116 EAST MAIN STREEET","WAKEFIELD","VA","23888"
29622,"116 FARRAND PARK","HIGHLAND PARK","MI","48203"
29623,"116 FIRESTEDE CT","WHITE HOUSE","TN","37188"
29624,"116 FIRST STREET","ELKLAND","PA","16920"
29625,"116 FOX RIDGE DRIVE","NAZARETH","PA","18064"
29626,"116 FOXBERRY CT","ORANGEBURG","SC","29118"
29627,"116 FRANCOIS DRIVE","LAFAYETTE","LA","70507"
29628,"116 FRANK BUNN DR","FORSYTH","GA","31029"
29629,"116 FRANKLIN STREET","SELMA","AL","36701"
29630,"116 GAY STREET -  UNIT 224","PHOENIXVILLE","PA","19460"
29631,"116 GENERAL MUDGE STREET","ALBANY","GA","31707"
29632,"116 GEORGIA LANE","KINGSTON","TN","37763"
29633,"116 GLACIER DRIVE SUITE 105","LOLO","MT","59847"
29634,"116 GLENDALE ROAD","UPPER DARBY","PA","19082"
29635,"116 GLENWOOD DRIVE","MONROE","LA","71203"
29636,"116 GLORIA RD SW","BIRMINGHAM","AL","35211"
29637,"116 GOLDFINCH COURT","PIEDMONT","SC","29673"
29638,"116 GRANDGER RD","RAEFORD","NC","28376"
29639,"116 GREENBRIAR DR","GAFFNEY","SC","29341"
29640,"116 GREENHAVEN COURT","ELIZABETHTOWN","KY","42701"
29641,"116 GROVE HOLLOW COURT","SANFORD","FL","32773"
29642,"116 HANCOCK AMD MOORE LN","TAYLORSVILLE","NC","28681"
29643,"116 HANOVER AVE","DAYTON","OH","45417"
29644,"116 HARDAWAY DR","GOODLETTSVILLE","TN","37072"
29645,"116 HAWTHORNE AVE","EAST ISLIP","NY","11704"
29646,"116 HAYES COURT","BREESE","IL","62230"
29647,"116 HAZEL DRIVE","RIVER RIDGE","LA","70123"
29648,"116 HERITAGE WAY","UNION","SC","29379"
29649,"116 HICKORY CIRCLE","CORTLAND","OH","44410"
29650,"116 HIDEAWAY LANE CENTRAL","HIDEAWAY","TX","75771"
29651,"116 HILLSIDE AVENUE","COBLESKILL","NY","12043"
29652,"116 HIWAY LANE","INTERNATIONAL FALLS","MN","56649"
29653,"116 HOLLIS AVE","QUINCY","MA","02171"
29654,"116 HOLLOW COURT","GARNER","NC","27529"
29655,"116 HOLLY TREE RD","CARROLLTON","GA","30116"
29656,"116 HOPE STREET","PROVIDENCE","RI","02906"
29657,"116 HURST CREEK RD","LAKEWAY","TX","78734"
29658,"116 INSKIP AVE","OCEAN GROVE","NJ","07756"
29659,"116 JULIA ISLAND CIRCLE","SACRAMENTO","CA","95834"
29660,"116 KANAWHA VIEW RD","RED HOUSE","WV","25168"
29661,"116 KATHERINE ST","SUFFOLK","VA","23434"
29662,"116 KAUKIS DRIVE","LE SUEUR","MN","56058"
29663,"116 KIM CT","RUSSELLVILLE","KY","42276"
29664,"116 KIRAM TER SW","ATLANTA","GA","30331"
29665,"116 LABARRE","GIBBON","NE","68840"
29666,"116 LAIRD CIR","PANAMA CITY BEACH","FL","32408"
29667,"116 LAKE EMERALD DRIVE 302","FORT LAUDERDALE","FL","33309"
29668,"116 LESLIE CT","BRISTOL","TN","37620"
29669,"116 LINCOLN AVE","HIGHLAND PARK","NJ","08904"
29670,"116 LINDA DR","SAN MARCOS","TX","78666"
29671,"116 LINDEN BOULEVARD","BROOKLYN","NY","11226"
29672,"116 LISA DRIVE 67","WARNER ROBINS","GA","31093"
29673,"116 LOBDELL AVE","BATON ROUGE","LA","70806"
29674,"116 LOCKWOOD DR","WARNER ROBINS","GA","31093"
29675,"116 LONG PINE DR","LEESBURG","GA","31763"
29676,"116 LOWES FOODS DRIVE SUITE 177","LEWISVILLE","NC","27023"
29677,"116 LOWRY LANE","WILMORE","KY","40390"
29678,"116 MACY CT","CHRISTIANA","TN","37037"
29679,"116 MAGNOLIA DRIVE","DANVILLE","VA","24541"
29680,"116 MAIN STREET SUITE 208","MEDWAY","MA","02053"
29681,"116 MAIN STREET","BROOKHAVEN","MS","39601"
29682,"116 MAIN STREET","PIKEVILLE","KY","41501"
29683,"116 MAIN STREET","STATEN ISLAND","NY","10307"
29684,"116 MANGROVE PT","HARDEVILLE","SC","29927"
29685,"116 MAQUOIT ROAD - ROOM 106","BRUNSWICK","ME","04011"
29686,"116 MARKET STREET APT 4","PHILADELPHIA","PA","19106"
29687,"116 MARMION WAY APT 13","SOUTH PASADENA","CA","91030"
29688,"116 MARMION WAY NUM 6","SOUTH PASADENA","CA","91030"
29689,"116 MARSHALL ST","BOONE","IA","50036"
29690,"116 MARYKIRK PLACE","GARNER","ND","27529"
29691,"116 MASON ST FL 2","GREENWICH","CT","06830"
29692,"116 MATCH POINT DRIVE","CHAPIN","SC","29036"
29693,"116 MATTHEW CT","EAGLE LAKE","MN","56024"
29694,"116 MEADOWS LN","TROY","AL","36079"
29695,"116 MICHAEL LN","SHARPSVILLE","IN","46068"
29696,"116 MICHIGAN AVENUE","SAINT LOUIS","MI","48880"
29697,"116 MILLET CIRCLE","CANTONMENT","FL","32533"
29698,"116 MISSOURI LANE","MT HOLLY","NC","28120"
29699,"116 MOSAIC OAKS CIR","SANTA ROSA BEACH","FL","32459"
29700,"116 MOUNTAIN VIEW LN","ELMA","WA","98541"
29701,"116 N 2ND STREET","KNOXVILLE","IA","50138"
29702,"116 N 5TH STREET","NEW HYDE PARK","NY","11040"
29703,"116 N 6TH STREET","MARSHALL","IL","62441"
29704,"116 N BUFFALO STREET","WARSAW","IN","46580"
29705,"116 N DOUGLAS","BLUE SPRINGS","NE","68318"
29706,"116 N FALMOUTH HWY","N FALMOUTH","MA","02556"
29707,"116 N FORAKER AVE","WATONGA","OK","73772"
29708,"116 N HERSEY AVE  PO BOX 369","BELOIT","KS","67420"
29709,"116 N HERSEY AVE","BELOIT","KS","67420"
29710,"116 N MAIN ST","COTTONWOOD","AZ","86326"
29711,"116 N MAIN STREET","DECATUR","TN","37322"
29712,"116 N NASH ST","HILLSBOROUGH","NC","27278"
29713,"116 N RING AVENUE","TARPON SPRINGS","FL","34689"
29714,"116 N SAXONY DRIVE","OLATHE","KS","66061"
29715,"116 N TAYLOR STREET","GUNNISON","CO","81230"
29716,"116 N WALNUT ST","MUNCIE","IN","47305"
29717,"116 NE STAFFORD ST","PORTLAND","OR","97211"
29718,"116 NIZZEAR LN","CARROLLTON","GA","30117"
29719,"116 NORTH BERLIN AVENUE","NEW OXFORD","PA","17350"
29720,"116 NORTH BROADWAY SUITE A","SILOAM SPRINGS","AR","72761"
29721,"116 NORTH LINTEL DRIVE","FUQUAY VARINA","NC","27526"
29722,"116 NORTH MAIN STREET","SMYRNA","DE","19977"
29723,"116 NORTH MARION STREET","RUSSELVILLE","OH","45168"
29724,"116 NORTH SPRUCE STREET","WINSTON-SALEM","NC","27101"
29725,"116 NORTH THOMAS STREET","GILMAN","IL","60938"
29726,"116 NW 11TH AVENUE","FT LAUDERDALE","FL","33311"
29727,"116 NW 19TH ST","BATTLE GROUND","WA","98604"
29728,"116 NW BOWDOIN PLACE","SEATTLE","WA","98107"
29729,"116 OAK HILL DRIVE","OAKLAND","ME","04963"
29730,"116 OAKVILLE DRIVE","PITTSBURGH","PA","15220"
29731,"116 OLD KEENE RD","ATHOL","MA","01331"
29732,"116 ORIENT AVENUE","JERSEY CITY","NJ","07305"
29733,"116 ORIOLE LANE","PHOENIXVILLE","PA","19460"
29734,"116 OVERLOOK DRIVE","MONTAGUE","NJ","07827"
29735,"116 OVERSTONE DRIVE","ELIZABETHTON","TN","37643"
29736,"116 PACES RUN CT","COLUMBIA","SC","29223"
29737,"116 PAINE ROAD","WESTMORELAND","NH","03467"
29738,"116 PARIS AVENUE","NORTHVALE","NJ","07647"
29739,"116 PARIS CIRCLE","AURORA","CO","80011"
29740,"116 PARKER ROAD","FRAMINGHAM","MA","01702"
29741,"116 PINEHURST AVENUE APT E15","NEW YORK","NY","10033"
29742,"116 PINETOP ROAD","GORE","VA","22637"
29743,"116 PLEASANT STREET","PERU","NY","12972"
29744,"116 PORTSMOUTH DRIVE","NOVATO","CA","94949"
29745,"116 RENZ LN","GEYSERVILLE","CA","95441"
29746,"116 RESERVATION ROAD","CHESAPEAKE","VA","23322"
29747,"116 RHODE ISLAND AVENUE","EAST ORANGE","NJ","07018"
29748,"116 RICHBORO NEWTOWN ROAD","NEWTOWN","PA","18940"
29749,"116 RICHBORO ROAD","NEWTOWN","PA","18940"
29750,"116 RIDGE COURT","SAYLORSBURG","PA","18353"
29751,"116 RIVER BIRCH ROAD","CHELSEA","AL","35403"
29752,"116 RIVERCLIFF DRIVE","MILFORD","CT","06460"
29753,"116 ROBERTA DRIVE APT B","SUMMERVILLE","SC","29485"
29754,"116 ROBINSON RD","ASPEN","CO","81611"
29755,"116 ROLLING RIDGE","DEL RIO","TX","78840"
29756,"116 ROLLINS ROAD","INTERLACHEN","FL","32148"
29757,"116 ROUGHLEAF TRAIL","HAMPSTEAD","NC","28443"
29758,"116 ROXEN RD","ROCKVILLE","NY","11570"
29759,"116 RUBY LANE","MAIDEN","NC","28650"
29760,"116 RUHAMAH CHURCH ROAD","STARR","SC","29684"
29761,"116 RUIDOSA LANE","MORGANTOWN","WV","26508"
29762,"116 RUM RIVER DRIVE SOUTH   UNIT 7","PRINCETON","MN","55371"
29763,"116 S 3RD STREET","RICHMOND","VA","23219"
29764,"116 S GARO AVE","COLORADO SPRINGS","CO","80910"
29765,"116 S GILLETTE AVENUE","GILLETTE","WY","82716"
29766,"116 S JACKSON STREET","SPRING LAKE","MI","49456"
29767,"116 S MAIN STREET","MOORESVILLE","NC","28115"
29768,"116 S MAPLE ST","ORLEANS","IN","47452"
29769,"116 S MUESSING","INDIANAPOLIS","IN","56229"
29770,"116 S ROCK AVE","VIROQUA","WI","54665"
29771,"116 S SHAWNEE TERRACE","LOUISVILLE","KY","40212"
29772,"116 S THIRD ST","CENTRAL POINT","OR","97502"
29773,"116 S WASHINGTON STREET","MT PULASKI","IL","62548"
29774,"116 S WESTERN UNIT 121126","CHICAGO","IL","60612"
29775,"116 SALMON HOLE RD","AVON","ME","04966"
29776,"116 SANDHURST DRIVE","MOUNT LAUREL","NJ","08054"
29777,"116 SANDY SPRINGS LANE","TALLAHASSEE","FL","32312"
29778,"116 SCHRAMM ROAD","NEENAH","WI","54956"
29779,"116 SE HOOD AVE","GRESHAM","OR","97080"
29780,"116 SEAMAN AVENUE 3A","NEW YORK","NY","10034"
29781,"116 SHALIMAR","CASTLE HILLS","TX","78213"
29782,"116 SHERWOOD MEADOWS CIRCLE","MARTHASVILLE","MO","63357"
29783,"116 SHIRLEY ROAD","SEAFORD","VA","23696"
29784,"116 SIXTH AVENUE","BROOKLYN","NY","11217"
29785,"116 SLIPPER SHELL COURT","MOUNT PLEASANT","SC","29464"
29786,"116 SLOVER ROAD","MECHANICSBURG","PA","17055"
29787,"116 SOUTH CHARLES STREET","BELLEVILLE","IL","62220"
29788,"116 SOUTH DRIVE","ISLAMORADA","FL","33036"
29789,"116 SOUTH GAY STREET APT 603","KNOXVILLE","TN","37902"
29790,"116 SOUTH KERR AVE UNIT C","WILMINGTON","NC","28403"
29791,"116 SOUTH MAGNOLIA AVENUE","OCALA","FL","34471"
29792,"116 SOUTH MAIN ST SUITE 205","MOORESVILLE","NC","28115"
29793,"116 SOUTH MAIN STREET APARTMEN","BLACKSTONE","VA","23824"
29794,"116 SOUTH MAIN STREET SUITE 205","MOORESVILLE","NC","28115"
29795,"116 SOUTH STATE STREET","UKIAH","CA","95482"
29796,"116 SOUTH STERLING STREET","FRANKLINTON","NC","27525"
29797,"116 SOUTH VERITY PARKWAY","MIDDLETOWN","OH","45044"
29798,"116 SPANISH TRAIL","BASTROP","TX","78602"
29799,"116 SPRINGBROOKE DRIVE","VENETIA","PA","15367"
29800,"116 STATE ROAD","PLYMOUTH","MA","02360"
29801,"116 STEEPLECHASE","GENESEO","NY","14454"
29802,"116 STEUBEN STREET","EAST ORANGE","NJ","07018"
29803,"116 STICKLE RD","BEAVER FALLS","PA","15010"
29804,"116 STOKES DRIVE","SMYRNA","TN","37167"
29805,"116 SUGAR STREET","SAINT LOUISVILLE","OH","43071"
29806,"116 SUMMIT AVENUE","WINTHROP","MA","02152"
29807,"116 SUNNY DAY WAY","DAVENPORT","FL","33897"
29808,"116 SUTTON DR","PERRY","GA","31069"
29809,"116 SW 138TH ST","OKLAHOMA CITY","OK","73170"
29810,"116 SYLVAN STREET","RUTHERFORD","NJ","07070"
29811,"116 TERRY BLVD","GERING","NE","69341"
29812,"116 THATCHER AVENUE","BUFFALO","NY","14215"
29813,"116 THEO STREET","LAFAYETTE","LA","70508"
29814,"116 TIMBER LN","KERRVILLE","TX","78028"
29815,"116 TOYON AVENUE","SOUTH SAN FRANCISCO","CA","94080"
29816,"116 TRADEPARK DR","SOMERSET","KY","42503"
29817,"116 TRADEPARK DRIVE","SOMERSET","KY","42503"
29818,"116 TRESSLER ST","PLEASANT GAP","PA","16823"
29819,"116 TUTBURY PL","CARY","NC","27519"
29820,"116 TYSON DRIVE","BERRYVILLE","VA","22611"
29821,"116 UNAKA AVE","ASHEVILLE","NC","28803"
29822,"116 VALDEZ AVE","GOLETA","CA","93117"
29823,"116 VALENCIA STREET","ROYAL PALM BEACH","FL","33411"
29824,"116 VALLEY HILL DR","MOUNT GILEAD","NC","27306"
29825,"116 VALLEYVIEW DRIVE","GOLDSBORO","NC","27534"
29826,"116 VAN NUYS AVENUE","OXNARD","CA","93035"
29827,"116 VIA BENEVENTO","NEW SMYRNA BEACH","FL","32169"
29828,"116 VIA DEL MILAGRO","MONTEREY","CA","93940"
29829,"116 VINELAND PARKWAY DR","VINE GROVE","KY","40175"
29830,"116 VON DALE DRIVE","BIRMINGHAM","AL","35215"
29831,"116 W 2N N STREET","SUMMERVILLE","SC","29483"
29832,"116 W 3RD ST","CARTHAGE","MO","64836"
29833,"116 W 6TH AVE","PINE BLUFF","AR","71601"
29834,"116 W 870 N","OREM","UT","84057"
29835,"116 W COLLEGE ST","DENTON","TX","76201"
29836,"116 W GREEN ST","ITHACA","NY","14850"
29837,"116 W HICKS ST","LAWRENCEVILLE","VA","23868"
29838,"116 W KINGSBRIDGE ROAD","MOUNT VERNON","NY","10550"
29839,"116 W LINCOLN AVE","LINCOLN","KS","67455"
29840,"116 W MAIN STREET 301A","SALISBURY","MD","21801"
29841,"116 W MAIN STREET P O BOX 723","FLOYD","VA","24091"
29842,"116 W NORWOOD PL","SAN GABRIEL","CA","91776"
29843,"116 W OAK ST","EL DORADO SPRINGS","MO","64743"
29844,"116 W PLYMOUTH STREET","BREMEN","IN","46506"
29845,"116 W SHARPNACK STREET","PHILADELPHIA","PA","19119"
29846,"116 WALLABOUT ST APT 5A","BROOKLYN","NY","11249"
29847,"116 WALTER STREET","YORKVILLE","OH","43971"
29848,"116 WARE PL","WINCHESTER","VA","22602"
29849,"116 WARNER COURT","CLINTON","IL","61727"
29850,"116 WASHINGTON STREET","EAST GLACIER","MT","59434"
29851,"116 WATER ST","FAIRMONT","MN","56031"
29852,"116 WATER STREET","TORRINGTON","CT","06790"
29853,"116 WAWONA ST","MANTECA","CA","95337"
29854,"116 WESLEY DRIVE","DESOTO","TX","75115"
29855,"116 WEST 23RD STREET","NEW YORK","NY","10011"
29856,"116 WEST BEVERLEY ST","STAUNTON","VA","24401"
29857,"116 WEST FIRST AVE","PETAL","MS","39465"
29858,"116 WESTERN AVE APT 1","LYNN","MA","01904"
29859,"116 WESTON AVENUE","GLOUCESTER CITY","NJ","08030"
29860,"116 WESTWOOD DRIVE","DALLAS","GA","30132"
29861,"116 WHALER HARBOUR","MYRTLE BEACH","SC","29577"
29862,"116 WHITE PINE COURT","PARAMUS","NJ","07652"
29863,"116 WHITETAIL RD","SEALE","AL","36875"
29864,"116 WILLOW CREEK RD","EL DORADO","AR","71730"
29865,"116 WILSON AVE","WAYNESBURG","OH","44688"
29866,"116 WILSON AVE","WEST DEPTFORD","NJ","08096"
29867,"116 WILSON PIKE CIR","BRENTWOOD","TN","37027"
29868,"116 WINDSONG TRAIL","CANTON","GA","30114"
29869,"116 WINESAP STREET","PATASKALA","OH","43062"
29870,"116 WINNERS CIRCLE","HESSMER","LA","71341"
29871,"116 WINTERWOOD CT","COLUMBIA","SC","29203"
29872,"116 YELLOW BREECHES DRIVE","CAMP HILL","PA","17011"
29873,"116 YORK GATE DR","PATASKALA","OH","43062"
29874,"116-11 NASHVILLE BLVD","CAMBRIA HEIGHTS","NY","11411"
29875,"116-19 131ST STREET","SOUTH OZONE PARK","NY","11420"
29876,"116-34 167 STREET","JAMAICA","NY","11434"
29877,"116-67 SUTPHIN BLVD","JAMAICA","NY","11434"
29878,"116","LIBERTYVILLE","IL","60048"
29879,"116","MCGRAWS","WV","25875"
29880,"116","RHINELANDER","WI","54501"
29881,"1160 166TH AVE NW","ANDOVER","MN","55304"
29882,"1160 ALABAMA AVENUE","FORT LAUDERDALE","FL","33312"
29883,"1160 AVALON PLACE","MATTHEWS","NC","28104"
29884,"1160 BEREA DRIVE","BOULDER","CO","80305"
29885,"1160 BLANKENSHIP ROAD","WEST LINN","OR","97068"
29886,"1160 BRITTON AVE","SAN JOSE","CA","95125"
29887,"1160 COUNTY RD 956","ASHLAND","OH","44805"
29888,"1160 CROOKED CREEK ROAD","LITHONIA","GA","30058"
29889,"1160 CYPRESS LOFT PLACE","LAKE MARY","FL","32746"
29890,"1160 E MARIPOSA AVE","EL SEGUNDO","CA","90245"
29891,"1160 EAST MILL ROAD","MATTITUCK","NY","11952"
29892,"1160 EDITH DRIVE","DAYTONA BEACH","FM","32117"
29893,"1160 EMMA STREET","ASHLAND","OR","97520"
29894,"1160 EVELYN LN STE 19","SACRAMENTO","CA","95864"
29895,"1160 FORTUNE AVE","DETROIT LAKES","MN","56501"
29896,"1160 FRANKLIN ST","OLD FORGE","PA","18518"
29897,"1160 GRASSY HOLLOW WAY","PASO ROBLES","CA","93446"
29898,"1160 HADDON AVENUE","CAMDEN","NJ","08103"
29899,"1160 HWY 22","WELLMAN","IA","52356"
29900,"1160 JADEN GAVIN DRIVE","SPRINGFIELD","TN","37172"
29901,"1160 JOSEPHINE ST","OREGON CITY","OR","97045"
29902,"1160 KANE CONCOURSE BLVD SUITE 401","BAY HARBOR ISLANDS","FL","33154"
29903,"1160 KATHERINE AVENUE","FARMINGTON","NM","87401"
29904,"1160 KING MARK DR","LEWISVILLE","TX","75056"
29905,"1160 MARY STREET","VANDERGRIFT","PA","15690"
29906,"1160 MISSION STREET UNIT 1611","SAN FRANCISCO","CA","94103"
29907,"1160 MONTGOMERY STREET","ALEXANDER CITY","AL","35010"
29908,"1160 N COAST HWY 101 UNIT 234292","ENCINITAS","CA","92024"
29909,"1160 NORTH CHICKASAW TRAIL","ORLANDO","FL","32825"
29910,"1160 OLD MOORE ROAD","SELMA","NC","27576"
29911,"1160 OLD PEACHTREE RD STE B","DULUTH","GA","30097"
29912,"1160 PARKSIDE DRIVE","ALEXANDRIA","KY","41001"
29913,"1160 PIERCE STREET UNIT 105","LAKEWOOD","CO","80214"
29914,"1160 RAVINIA DR","GURNEE","IL","60031"
29915,"1160 RT 22 WEST","MOUNTAINSIDE","NJ","07092"
29916,"1160 S MICHIGAN AVE APT 2303","CHICAGO","IL","60605"
29917,"1160 SIMON MILLER ROAD","PORTSMOUTH","OH","45662"
29918,"1160 SW 20TH AVE","CAPE CORAL","FL","33991"
29919,"1160 TRAILWOOD S","HOPKINS","MN","55343"
29920,"1160 WEST 19TH STREET UNIT 1","CHICAGO","IL","60608"
29921,"1160 WEST 7TH STREET SUITE 4","SAN PEDRO","CA","90731"
29922,"1160 WEST END BOULEVARD","WINSTON-SALEM","NC","27101"
29923,"1160 WEST LAKETON  APT D","MUSKEGON","MI","49441"
29924,"1160 WILMINGTON AVE SW","ATLANTA","GA","30310"
29925,"1160 WOODBRIDGE STREET","SAINT PAUL","MN","55117"
29926,"11600 BRONCO CT","UPPER MARLBORO","MD","20772"
29927,"11600 E WASHINGTION ST 29391","INDIANAPOLIS","IN","46229"
29928,"11600 HIGHWAY 66","ASHLAND","OR","97520"
29929,"11600 N 75TH AVE","PEORIA","AZ","85345"
29930,"11600 PACESFERRY DR","RALEIGH","NC","27614"
29931,"11600 ROULADE PLACE","CLINTON","MD","20735"
29932,"11600 SE 265TH PL","KENT","WA","98030"
29933,"11600 SIMMS AVE","INGLEWOOD","CA","90303"
29934,"11600 W 72ND PLACE","ARVADA","CO","80005"
29935,"11600 W FM 471","SAN ANTONIO","TX","78253"
29936,"11600 WARNER AVE UNIT 536","FOUNTAIN VALLEY","CA","92708"
29937,"11600 WASHINGTON PLACE SUITE 116A","LOS ANGELES","CA","90066"
29938,"11600 WHITE RAPIDS ROAD","CHARLOTTE","NC","28214"
29939,"11601 BIRCHHAVEN AVENUE","BAKERSFIELD","CA","93312"
29940,"11601 BOLTHOUSE DRIVE SUITE 200","BAKERSFIELD","CA","93311"
29941,"11601 LAGO VISTA WEST","DALLAS","TX","75234"
29942,"11601 LEWISHAM PLACE SUITE 303","WALDORF","MD","20602"
29943,"11601 NW 6TH PLACE","PLANTATION","FL","33325"
29944,"11601 PLANO ROAD STE120","DALLAS","TX","75243"
29945,"11601 ROYAL PALM BLVD","CORAL SPRINGS","FL","33065"
29946,"11601 SENECA FOREST CIRCLE","GERMANTOWN","MD","20876"
29947,"11601 SHADOW CREEK PARKWAY","PEARLAND","TX","77584"
29948,"11601 SHADOW CREEK PKWY 111-258","PEARLAND","TX","77584"
29949,"11601 SHADOW CREEK PKWY NO-111-554","PEARLAND","TX","77584"
29950,"11601 SHADOW CREEK PKWY STE 111-324","PEARLAND","TX","77584"
29951,"11601 SHADOW CREEK PKWY STE 111-380","PEARLAND","TX","77584"
29952,"11601 SHADOW CREEK PKWY/111-575","PEARLAND","TX","77584"
29953,"11601 SHADOW CREEK","PEARLAND","TX","77584"
29954,"11601 SHADOW CRK PKWAY STE 111-158","PEARLAND","TX","77584"
29955,"11601 W 181ST AVE","LOWELL","IN","46356"
29956,"11601 WASHINGTON STREET","PEMBROKE PINES","FL","33025"
29957,"11601 WILSHIRE BL 2150","LOS ANGELES","CA","90025"
29958,"11601 WILSHIRE BLVD STE 1650","LOS ANGELES","CA","90025"
29959,"11602 ASSISI STREET","UPPER MARLBORO","MD","20772"
29960,"11602 BAY CROSSING DR","PEARLAND","TX","77584"
29961,"11602 GARRICK AVE","SYLMAR","CA","91342"
29962,"11602 GUNPOWDER DR FORT","WASHINGTON","MD","20745"
29963,"11602 MEADOW RIDGE LN","GREAT FALLS","VA","22066"
29964,"11602 MOUNT BALDWIN COURT","RANCHO CUCAMONGA","CA","91737"
29965,"11602 S REDWOOD RD","SOUTH JORDAN","UT","84095"
29966,"11603 200TH 9TH ST EAST","GRAHAM","WA","98338"
29967,"11603 DONNER PASS ROAD","TRUCKEE","CA","96161"
29968,"11603 HIGHWAY 65 NORTH","DENNARD","AR","72629"
29969,"11603 S LOOMIS ST","CHICAGO","IL","60643"
29970,"11603 S THROOP ST","CHICAGO","IL","60643"
29971,"11603 WAYBURN ST","DETROIT","MI","48224"
29972,"11604 ATKINSON AVE","HAWTHORNE","CA","90250"
29973,"11604 BONANZA DRIVE","TEHACHAPI","CA","93561"
29974,"11604 CHENOWETH HILLS PLACE","LOUISVILLE","KY","40299"
29975,"11604 TONSING DRIVE","GARFIELD HEIGHTS","OH","44125"
29976,"11605 COUNTY ROAD 2312","TERRELL","TX","75160"
29977,"11605 CRITERION AVE","SAINT LOUIS","MO","63138"
29978,"11605 DEHN AVE","INGLEWOOD","CA","90303"
29979,"11605 DESTINATION DR UNIT 5402","BROOMFIELD","CO","80021"
29980,"11605 E SHELBY DR","COLLIERVILLE","TN","38017"
29981,"11605 EAST SHELBY DRIVE","COLLIERVILLE","TN","38017"
29982,"11605 LAFAYETTE DRIVE","PARMA HEIGHTS","OH","44130"
29983,"11605 MERIDIAN MKT VW 124-173","FALCON","CO","80831"
29984,"11605 MONTAGUE COURT","POTOMAC","MD","20854"
29985,"11605 NE 27TH AVE","VANCOUVER","WA","98686"
29986,"11605 PINE FOREST DRIVE","NEW PORT RICHEY","FL","34654"
29987,"11605 ROULADE PLACE","CLINTON","MD","20735"
29988,"11605 RUTLAND AVENUE","CLEVELAND","OH","44108"
29989,"11605 STUDT AVE   SUITE G","SAINT LOUIS","MO","63141"
29990,"11605 SW 3RD STREET","YUKON","OK","73099"
29991,"11605 VISTAWALL ST","WILLIS","TX","77318"
29992,"11605 WEST 73RD AVENUE","ARVADA","CO","80005"
29993,"11605 WHITTIER ROAD","BOWIE","MD","20721"
29994,"11606 BRAEWICK DR","HOUSTON","TX","77035"
29995,"11606 KNIGHTSBRIDGE PLACE","WELLINGTON","FL","33449"
29996,"11606 LENNINGTON DR","HOUSTON","TX","77064"
29997,"11606 SAN VICENTE BLVD","LOS ANGELES","CA","90049"
29998,"11606 SETTLERS CIRCLE","GERMANTOWN","MD","20876"
29999,"11607 LAPOYNOR ST","MANOR","TX","78653"
30000,"11607 RIVERSHORE DRIVE","DUNKIRK","MD","20754"
