"ID","Address","City","State","Zip"
312001,"9122 BAGLEY DRIVE","INDIANAPOLIS","IN","46231"
312002,"9122 CANTER HORSE","SAN ANTONIO","TX","78254"
312003,"9122 GLENVILLE RD","SILVER SPRING","MD","20901"
312004,"9122 HUNDLEY ROAD","CHATTANOOGA","TN","37416"
312005,"9122 MASON DRIVE","DENHAM SPRINGS","LA","70726"
312006,"9122 MONTGOMERY RD","CINCINNATI","OH","45242"
312007,"9122 PRAIRIE AVE","HIGHLAND","IN","46322"
312008,"9122 S TETON ESTATES DR","WEST JORDAN","UT","84088"
312009,"9122 SUNSET RD","VICTORVILLE","CA","92392"
312010,"9122 WEST WATERFORD SQUARE S","GREENFIELD","WI","53228"
312011,"9123 5TH AVENUE","JACKSONVILLE","FL","32208"
312012,"9123 EASY STREET","SAN ANTONIO","TX","78266"
312013,"9123 MOHAVE DRIVE","LINCOLN","NE","68516"
312014,"9123 SUNSET RIDGE RD","RANDALLSTOWN","MD","21133"
312015,"9124 JORDAN ST","ST LOUIS","MO","63137"
312016,"9124 LAMBSKIN LANE","COLUMBIA","MD","21045"
312017,"9124 LASALLE BLVD","DETROIT","MI","48206"
312018,"9124 LUCYS OVERLOOK WAY","ELLICOTT CITY","MD","21042"
312019,"9124 S WEST ST","KNIGHTSTOWN","IN","46148"
312020,"9124 SUMMER PARK DRIVE","PARKVILLE","MD","21234"
312021,"9125 BARTON ST","OVERLAND PARK","KS","66214"
312022,"9125 HAMPSHIRE AVE N","BROOKLYN PARK","MN","55445"
312023,"9125 JUNEAU ALCOVE","WOODBURY","MN","55125"
312024,"9125 LINCOLN AVE","CLIVE","IA","50325"
312025,"9125 N OLD STATE ROAD","LINCOLN","DE","19960"
312026,"9125 S BENNETT AVE","CHICAGO","IL","60617"
312027,"9126 LAPEER ROAD  SUITE 4","DAVISON","MI","48423"
312028,"9126 OLD SMYRNA RD","BRENTWOOD","TN","37027"
312029,"9126 S CARPENTER ST","CHICAGO","IL","60620"
312030,"9127 ANGEL TEAR WAY","INDIANAPOLIS","IN","46231"
312031,"9127 CALDERA WAY","SACRAMENTO","CA","95826"
312032,"9127 CANDLEWOOD DRIVE","KNOXVILLE","TN","37923"
312033,"9127 EAST LA POSADA COURT","SCOTTSDALE","AZ","85255"
312034,"9127 FUREY ROAD","LORTON","VA","22079"
312035,"9127 HWY 18 EAST","BANKSTON","AL","35542"
312036,"9127 KENSINGTON FOREST DRIVE","HARRISBURG","NC","28075"
312037,"9127 PEACHBLOSSOM CT","CINCINNATI","OH","45231"
312038,"9127 VIA BELLA NOTTE","ORLANDO","FL","32836"
312039,"9128 143 ST WEST","TAYLOR RIDGE","IL","61284"
312040,"9128 COLLIERS CHAPEL CHURCH ROAD","LINDEN","NC","28356"
312041,"9128 GOSHEN PARK PLACE","GAITHERSBURG","MD","20882"
312042,"9128 NW 44TH COURT","SUNRISE","FL","33351"
312043,"9128 SUNDANCE TRAIL","DEXTER","MI","48130"
312044,"9128 SUNDANCE TRL","DEXTER","MI","48130"
312045,"9128 SURREY NE","ALBUQUERQUE","NM","87109"
312046,"9128 WOODGREEN WAY","JONESBORO","GA","30238"
312047,"91289 YOUNGS RIVER RD","ASTORIA","OR","97103"
312048,"9129 BOYCE PLACE","ST LOUIS","MO","63136"
312049,"9129 BRYANT AVENUE","LAUREL","MD","20723"
312050,"9129 LOIRET BLVD","LENEXA","KS","66219"
312051,"9129 S ALBANY AVE","EVERGREEN PARK","IL","60805"
312052,"9129 SETTLERS RD","MADISON","WI","53717"
312053,"9129 WEST 126TH TERRACE","OVERLAND PARK","KS","66213"
312054,"9129 WOODBRIDGE OAK TERRACE","ORLANDO","FL","32825"
312055,"913 35TH AVE N","NASHVILLE","TN","37209"
312056,"913 57TH STREET","KENOSHA","WI","53140"
312057,"913 ALLEN DRIVE","WINCHESTER","VA","22601"
312058,"913 AMBER WAY","PANAMA CITY","FL","32404"
312059,"913 APPLEGATE PARKWAY","WAXHAW","NC","28173"
312060,"913 BOUIL RD","CARRIERE","MS","39426"
312061,"913 BOYD CREEK ROAD","MCKINNEY","TX","75071"
312062,"913 BROKEN ARROW LANE","CANTONMENT","FL","32533"
312063,"913 BULLOCK AVENUE","YEADON","PA","19050"
312064,"913 CHESTER STREET","DURHAM","NC","27701"
312065,"913 CHURCH STREET","PLEASANTVILLE","NJ","08232"
312066,"913 CLARK ST","MUSKEGON","MI","49442"
312067,"913 CRATERS OF THE MOON BLVD","PFLUGERVILLE","TX","78660"
312068,"913 CRESTVIEW DR","VERMILLION","SD","57069"
312069,"913 DESOTO AVE","YPSILANTI","MI","48197"
312070,"913 DIESTEL RD","SALT LAKE CITY","UT","84105"
312071,"913 DUMBARTON RD","COLUMBIA","SC","29212"
312072,"913 E PHIL ELLENA STREET","PHILADELPHIA","PA","19150"
312073,"913 EAST 219TH STREET UNIT 7","BRONX","NY","10469"
312074,"913 EAST 26 AVE","TAMPA","FL","33605"
312075,"913 EAST 85TH STREET   FLOOR 1","BROOKLYN","NY","11236"
312076,"913 EAST CUMBERLAND DR","LOUISVILLE","TN","37777"
312077,"913 EDGEBROOK","HOUSTON","TX","77034"
312078,"913 ELY ST","ALLEGAN","MI","49010"
312079,"913 FENIMORE DRIVE","LEWISVILLE","TX","75077"
312080,"913 FIR STREET","BRAINERD","MN","56401"
312081,"913 FULTON AVENUE - UNIT 421","SACRAMENTO","CA","95825"
312082,"913 GALLATIN COURT","CINCINNATI","OH","45240"
312083,"913 GEORGE AVENUE","BALTIMORE","MD","21221"
312084,"913 GLENVIEW DR","HURON","OH","44839"
312085,"913 GRANT ROAD","FOLCROFT","PA","19032"
312086,"913 HIGHBURY LN NE","MARIETTA","GA","30068"
312087,"913 KING DR","LOVELAND","CO","80537"
312088,"913 LACY RD","CANTON","GA","30115"
312089,"913 LANTERN LANE","WEATHERFORD","OK","73096"
312090,"913 LOUISA ST","NEW ORLEANS","LA","70117"
312091,"913 MADISON AVENUE","TOLEDO","OH","43606"
312092,"913 MAIN AVENUE","PASSAIC","NJ","07055"
312093,"913 MCGOVERN AVENUE","CHEYENNE","WY","82001"
312094,"913 MEADOW WAY","CHURUBUSCO","IN","46723"
312095,"913 N FARRA DRIVE","OKLAHOMA CITY","OK","73107"
312096,"913 N GADSDEN ST","TALLAHASSEE","FL","32303"
312097,"913 N MARKET ST SUITE 200","WILMINGTON","DE","19801"
312098,"913 N MARKET STREET SUITE 200","WILMINGTON","DE","19801"
312099,"913 NE 17TH WAY","FORT LAUDERDALE","FL","33304"
312100,"913 NEIL AVENUE","COLUMBUS","OH","43215"
312101,"913 NORTH JONES BLVD SUITE 103","LAS VEGAS","NV","89108"
312102,"913 PENTICON LANE","WARRENDALE","PA","15086"
312103,"913 PIKE SPRINGS ROAD","PHOENIXVILLE","PA","19460"
312104,"913 PRICE AVE","DURHAM","NC","27701"
312105,"913 PRINCESS STREET","YORK","PA","17401"
312106,"913 RABBIT RUN","WILMINGTON","NC","28409"
312107,"913 RAYWOOD CIRCLE","PLANO","TX","75075"
312108,"913 RIDGE BROOK RD  SUITE 220","SPARKS","MD","21152"
312109,"913 ROAD X","SHICKLEY","NE","68436"
312110,"913 S 33RD ST","TEMPLE","TX","76504"
312111,"913 S ASTER AVE","BROKEN ARROW","OK","74012"
312112,"913 S CHURCH ST","SMITHFIELD","VA","23430"
312113,"913 S COLLEGE ROAD SUITE 2 1 1","LAFAYETTE","LA","70526"
312114,"913 S FLETCHER DRIVE","WHEELING","IL","60090"
312115,"913 SAW MILL RIVER ROAD PO BOX 270","ARDSLEY","NY","10502"
312116,"913 SE BIRCH AVENUE","COLLEGE PLACE","WA","99324"
312117,"913 SHELLY LN","EDMOND","OK","73034"
312118,"913 SOMERSET LANE","JONESBORO","AR","72401"
312119,"913 SOUTH KIRKMAN RD 259","ORLANDO","FL","32811"
312120,"913 STEWART AVENUE","SPRINGFIELD","PA","19064"
312121,"913 SW 40TH STREET","BLUE SPRINGS","MO","64015"
312122,"913 TINSLEY STREET SUITE D304","EAST PALO ALTO","CA","94303"
312123,"913 TRINITY CT","BIRMINGHAM","AL","35242"
312124,"913 TROY ST","LAFAYETTE","CO","80026"
312125,"913 VALLEY RIDGE DRIVE","DESOTO","TX","75115"
312126,"913 VALLEYVIEW ROAD","PITTSBURGH","PA","15243"
312127,"913 VANCE STREET","RALEIGH","NC","27608"
312128,"913 VIA DE LA PAZ DR","EL PASO","TX","79912"
312129,"913 VICAR ROAD","DANVILLE","VA","24540"
312130,"913 W COLLEGE AVE","WOODVILLE","OH","43469"
312131,"913 W FIRST STREET","LOWELL","NC","28098"
312132,"913 W FRANCIS STREET","CORONA","CA","92882"
312133,"913 W LIBERTY DRIVE","WHEATON","IL","60187"
312134,"913 WASHINGTON AVE","BAY CITY","MI","48708"
312135,"913 WEST CLEVELAND","SPOKANE","WA","99205"
312136,"913 WILSON ROAD","WILMINGTON","DE","19803"
312137,"9130 BAYFIELD LANE","BRIGHTON","MI","48116"
312138,"9130 BROKENSOUND LN","CINCINNATI","OH","45242"
312139,"9130 CAVALIER LANE","ROSENBERG","TX","77469"
312140,"9130 GALLERIA COURT STE 204","NAPLES","FL","34109"
312141,"9130 GALLERIA COURT SUITE 100","NAPLES","FL","34109"
312142,"9130 MARKVILLE DR STE 740756","DALLAS","TX","75243"
312143,"9130 MINE RUN DRIVE","GREAT FALLS","VA","22066"
312144,"9130 SOUTH 47TH STREET","FRANKLIN","WI","53132"
312145,"9130 SPOTTSWOOD ROAD","JACKSONVILLE","FL","32208"
312146,"9130 W 88TH CIRCLE","WESTMINSTER","CO","80021"
312147,"9131 BRADY DR","DALLAS","TX","75243"
312148,"9131 CATHERINE FOSTER CT","JACKSONVILLE","FL","32225"
312149,"9131 COLLEGE PKWY STE 130","FORT MYERS","FL","33919"
312150,"9131 HYLAND CREEK DR","BLOOMINGTON","MN","55437"
312151,"9131 JEAN VERTE","SAN ANTONIO","TX","78250"
312152,"9131 N 57 AVENUE","GLENDALE","AZ","85302"
312153,"9131 S DALTON AVE","LOS ANGELES","CA","90047"
312154,"9131 S LASALLE STREET","CHICAGO","IL","60620"
312155,"9131 TABORFIELD AVENUE","ORLANDO","FL","32836"
312156,"9131 W CORY LN 1","BOISE","ID","83704"
312157,"9132 5TH ST","LANHAM","MD","20706"
312158,"9132 DEVONSHIRE BLVD","JACKSONVILLE","FL","32208"
312159,"9133 BLOM BLVD","SHREVEPORT","LA","71118"
312160,"9133 GRANITE COURT","WALDORF","MD","20603"
312161,"9133 PERRY RD","ATLAS","MI","48411"
312162,"9134 BENSON AVENUE","SAN DIEGO","CA","92114"
312163,"9134 E NEWTON PL","TULSA","OK","74115"
312164,"9134 LAKES AT 610 DR","HOUSTON","TX","77054"
312165,"9134 N WOOLSEY AVE","PORTLAND","OR","97203"
312166,"9134 PISCATAWAY RD NUM 161","CLINTON","MD","20735"
312167,"9134 PISCATAWAY RD UNIT 1819","CLINTON","MD","20735"
312168,"9134 S COTTAGE GROVE AVE","CHICAGO","IL","60619"
312169,"9134 SEPULVEDA BLVD 2014","NORTH HILLS","CA","91343"
312170,"9134 SW 21 TERRACE","MIAMI","FL","33165"
312171,"9134 W 26TH PLACE","BROOKFIELD","IL","60513"
312172,"9134 WOODLAND DRIVE","HIGHLANDS RANCH","CO","80126"
312173,"9135 63RD DR","REGO PARK","NY","11374"
312174,"9135 ADMIRALS POINTE CT","INDIANAPOLIS","IN","46236"
312175,"9135 CULLEN WAY","INGLEWOOD","CA","90305"
312176,"9135 E 49TH PL","TULSA","OK","74145"
312177,"9135 ERIE ST","HIGHLAND","IN","46322"
312178,"9135 FRIARBRIDGE DR","SUWANEE","GA","30024"
312179,"9135 NORTH FLORA","KANSAS CITY","MO","64155"
312180,"9135 NW 13TH AVENUE","MIAMI","FL","33147"
312181,"9135 PISCATAWAY ROAD STE 410","CLINTON","MD","20735"
312182,"9135 SCHOOL ROAD","PORT WING","WI","54865"
312183,"9135 SOUTH MAY STREET","CHICAGO","IL","60620"
312184,"9136 PASCAGOULA DR","BATON ROUGE","LA","70810"
312185,"9136 PLEASANT VALLEY DRIVE","ALEXANDER","AR","72002"
312186,"9136 PRESHO SCHOOL ROAD","PAINTED POST","NY","14870"
312187,"9136 S SACRAMENTO AVE","EVERGREEN PARK","IL","60805"
312188,"9136 TYNE LANE","INVER GROVE HEIGHTS","MN","55077"
312189,"9136 W KIRBY AVE","TOLLESON","AZ","85353"
312190,"9137 GARNISH DRIVE","DOWNEY","CA","90240"
312191,"9137 GRANDVIEW DR","OVERLAND PARK","KS","66212"
312192,"9137 NW ESSON CT","PORTLAND","OR","97229"
312193,"9137 ROUNDLEAF WAY","GAITHERSBURG","MD","20879"
312194,"9137 S URBAN AVENUE","CHICAGO","IL","60619"
312195,"9138 ARLON STREET SUITE A3","ANCHORAGE","AK","99507"
312196,"9138 DEVAUN PARK BLVD","Calabash","NC","28469"
312197,"9138 EDMONSTON COURT APT 301","GREENBELT","MD","20770"
312198,"9139 HANOVER STREET","OMAHA","NE","68122"
312199,"9139 MARASOL LANE","CONCORD","NC","28027"
312200,"914 164TH ST SE NUMB 395","MILL CREEK","WA","98012"
312201,"914 164TH ST SE STE B12 203","MILL CREEK","WA","98012"
312202,"914 23RD AVE E","SEATTLE","WA","98112"
312203,"914 36TH ST NW","AUSTIN","MN","55912"
312204,"914 3RD AVENUE SUITE 185","BROOKLYN","NY","11232"
312205,"914 7TH AVE N","JACKSONVILLE BEACH","FL","32250"
312206,"914 7TH AVENUE SE","ROCHESTER","MN","55904"
312207,"914 ACORN LN","MUSCATINE","IA","52761"
312208,"914 ALLEN DRIVE","YEADON","PA","19050"
312209,"914 ALLIEGOOD CT","TALLAHASSEE","FL","32303"
312210,"914 ANN DRIVE","WYLIE","TX","75098"
312211,"914 AVENUE E","BIRMINGHAM","AL","35214"
312212,"914 AVENUE E","COUNCIL BLUFFS","IA","51503"
312213,"914 BAILEY COURT","MATTHEWS","NC","28104"
312214,"914 BASS BLVD","PROCTOR","MN","55810"
312215,"914 BENSTON RD","WHITEHALL","MI","49461"
312216,"914 BOSTON AVE","NEDERLAND","TX","77627"
312217,"914 BRANDON WAY","FAIRFIELD","CA","94533"
312218,"914 CENTRAL AVE","EVANSDALE","IA","50707"
312219,"914 CHURCH ST","HONESDALE","PA","18431"
312220,"914 CLEVELAND ST","BROOKLYN","NY","11208"
312221,"914 CLEVELAND STREET","BROOKLYN","NY","11208"
312222,"914 COLLIER RD NW APT 1102","ATLANTA","GA","30318"
312223,"914 COPPER LAKE ROAD","CEDAR PARK","TX","78613"
312224,"914 COUNTY ROAD 501","BERRYVILLE","AR","72616"
312225,"914 DEJARNETTE ST","ELIZABETHTON","TN","37643"
312226,"914 DELESANDRI LANE","KEMAH","TX","77565"
312227,"914 E 53RD ST  UNIT 2","CHICAGO","IL","60615"
312228,"914 E BADILLO ST NUM 214","COVINA","CA","91724"
312229,"914 E RAILROAD AVE   PO BOX 517","FORT MORGAN","CO","80701"
312230,"914 EDGEBROOK DRIVE","BOYLSTON","MA","01505"
312231,"914 F STREET","FRESNO","CA","93706"
312232,"914 FOREST DRIVE-202","ANNAPOLIS","MD","21403"
312233,"914 GARDEN STREET","KISSIMMEE","FL","34744"
312234,"914 GARDNER ROAD","FLOSSMOOR","IL","60422"
312235,"914 GERVAS DRIVE","MANCHESTER","MO","63021"
312236,"914 HAVEN COURT","TULARE","CA","93274"
312237,"914 HEMSATH ROAD SUITE 100A","SAINT CHARLES","MO","63303"
312238,"914 HIGHLAND AVE","MCKEESPORT","PA","15133"
312239,"914 HIGHLAND CIRCLE","BLACKSBURG","VA","24060"
312240,"914 HIKINA LANE","HONOLULU","HI","96817"
312241,"914 HOKULANI STREET","HONOLULU","HI","96825"
312242,"914 JENNINGS MILL DRIVE","BOWIE","MD","20721"
312243,"914 KENSINGTON PLACE","MEMPHIS","TN","38107"
312244,"914 KNOLL FOREST DRIVE","SUGARLAND","TX","77479"
312245,"914 KNOLLWOOD DR","DAVENPORT","FL","33837"
312246,"914 LAFAYETTE BOULEVARD","BOWLING GREEN","OH","43402"
312247,"914 LINCOLNWAY WEST SUITE 113","SOUTH BEND","IN","46616"
312248,"914 MAIN STREET","FRYEBURG","ME","04037"
312249,"914 MOSSBRIDGE CT","PLEASANT HILL","CA","94523"
312250,"914 MUIRFIELD DRIVE","MARYVILLE","TN","37801"
312251,"914 N BARTON ST","ARLINGTON","VA","22201"
312252,"914 N IROQUOIS AVE","ANAHEIM","CA","92801"
312253,"914 N MAPLE","WATERTOWN","SD","57201"
312254,"914 N MOUNTAIN AVENUE   SUITE G","UPLAND","CA","91786"
312255,"914 NE VAN LOON LANE","CAPE CORAL","FL","33909"
312256,"914 NORTH MONROE","LITTLE ROCK","AR","72205"
312257,"914 NORTH ORIANNA STREET","PHILADELPHIA","PA","19123"
312258,"914 NORTH ORLEANS AVENUE","CHICAGO","IL","60610"
312259,"914 NW MAIN STREET","LEES SUMMIT","MO","64015"
312260,"914 OAK HILL DRIVE","ROGERS","AR","72758"
312261,"914 ORCHARD HEIGHTS COURT","FARIBAULT","MN","55021"
312262,"914 PARK AVE","CHATTANOOGA","TN","37403"
312263,"914 PIRATES WAY","MANTEO","NC","27954"
312264,"914 RAILROAD AVE STE 6","TALLAHASSEE","FL","32310"
312265,"914 RAILROAD AVENUE SUITE 19","TALLAHASEE","FL","32310"
312266,"914 RAILROAD AVENUE","TALLAHASSEE","FL","32310"
312267,"914 RAMBLING DRIVE","ROCHESTER","MI","48307"
312268,"914 RANLETT AVE","LA PUENTE","CA","91744"
312269,"914 RIDGE TOP RD","HENRICO","VA","23229"
312270,"914 RIDGE TOP RD","RICHMOND","VA","23229"
312271,"914 ROSEWOOD TER","ENDWELL","NY","13760"
312272,"914 S GUNTHER ST","SANTA ANA","CA","92704"
312273,"914 S STREET","SACRAMENTO","CA","95811"
312274,"914 SACRAMENTO ST APT B","VALLEJO","CA","94590"
312275,"914 SECOND STREET EAST","WHITEFISH","MT","59937"
312276,"914 SHORTER AVE","ROME","GA","30165"
312277,"914 SILVER SPRING AVE STE 100","SILVER SPRING","MD","20910"
312278,"914 SILVER SPRING AVE STE 106","SILVER SPRING","MD","20910"
312279,"914 SILVER SPRING AVENUE NO 103","SILVER SPRING","MD","20910"
312280,"914 SOMBRA STREET","TAMPA","FL","33619"
312281,"914 SPRUCE STREET","ST. LOUIS","MO","63102"
312282,"914 SUGAR GAP RD APT 102","WAKE FOREST","NC","27587"
312283,"914 TANYA LYNN DR","JEFFERSON CITY","MO","65109"
312284,"914 TERANCE AVE","JONESBORO","GA","30236"
312285,"914 THISTLE GREEN LANE","DUNCANVILLE","TX","75137"
312286,"914 TOWERVIEW STREET SW","DECATUR","AL","35601"
312287,"914 TOWNSEND STREET","CHESTER","PA","19013"
312288,"914 VARNEY ST SE","WASHINGTON","DC","20032"
312289,"914 VETCH CIRCLE","LAFAYETTE","CO","80026"
312290,"914 W INTERSTATE 30  812","GARLAND","TX","75043"
312291,"914 WESTBURY ROAD","WESTBURY","NY","11590"
312292,"914 WILD WOLF DRIVE","GREENSBORO","NC","27406"
312293,"914 WINSAP COURT","HALETHORPE","MD","21227"
312294,"914-1/2 SHIRLAND AVE","SOUTH BELOIT","IL","61080"
312295,"914","TARPON SPRINGS","FL","34688"
312296,"9140 BLACK HEATH CIRCLE UNIT C","CHARLOTTE","NC","28214"
312297,"9140 CREEKWOOD LAKE TR","GRAND BLANC","MI","48439"
312298,"9140 FM 804","LARUE","TX","75770"
312299,"9140 GOLFSIDE DR","JACKSONVILLE","FL","32256"
312300,"9140 HWY 6 N 1105","HOUSTON","TX","77095"
312301,"9140 MCMAHON CT","REYNOLDSBURG","OH","43068"
312302,"9140 RANGPUR CIRCLE","RIVERSIDE","CA","92508"
312303,"9140 S NOBEL WAY","INGLEWOOD","CA","90305"
312304,"9140 YUCCA ST","APPLE VALLEY","CA","92308"
312305,"9141 87TH STREET 2F","WOODHAVEN","NY","11421"
312306,"9141 EQUUS CIRCLE","BOYNTON BEACH","FL","33472"
312307,"9141 OVERSEAS HIGHWAY","MARATHON","FL","33050"
312308,"9141 PEACE ST","FORT WORTH","TX","76244"
312309,"9141 WICKHAM WAY","ORLANDO","FL","32836"
312310,"9142 BROWNE ROAD","CHARLOTTE","NC","28269"
312311,"9142 CALVERTON TER","PICKERINGTON","OH","43147"
312312,"9142 STEPHENS MANOR DRIVE","MECHANICSVILLE","VA","23116"
312313,"9142 WOODBRIDGE OAK TER","ORLANDO","FL","32825"
312314,"9143 DEL MONTE AVE","YUCCA VALLEY","CA","92284"
312315,"9143 KESTER AVENUE","PANORAMA CITY","CA","91402"
312316,"9143 LONE PINE ROAD","BRAINERD","MN","56401"
312317,"9143 MULDOON RD","FORT WAYNE","IN","46819"
312318,"9143 NW 161ST ST","MIAMI LAKES","FL","33018"
312319,"9143 ROYAL GATE DRIVE","WINDERMERE","FL","34786"
312320,"9143 SOUTH 3140 WEST","WEST JORDAN","UT","84088"
312321,"9143 SW 6TH ST","MIAMI","FL","33174"
312322,"9144 COMSTOCK LANE N","MAPLE GROVE","MN","55311"
312323,"9144 JACKSON ROAD SUITE B","SACRAMENTO","CA","95862"
312324,"9144 S RICHMOND AVE","EVERGREEN PARK","IL","60805"
312325,"9145 BOIS AVENUE","VIENNA","VA","22182"
312326,"9145 E HACKAMORE DR","SCOTTSDALE","AZ","85255"
312327,"9145 GARRET LAKE DRIVE","MIDLAND","GA","31820"
312328,"9145 KENNEDY AV","HIGHLAND","IN","46322"
312329,"9145 KENNEDY AVE","HIGHLAND","IN","46322"
312330,"9145 MAIN STREET","CLARENCE","NY","14031"
312331,"9145 NARCOOSSEE ROA SUITE 106-212","ORLANDO","FL","32827"
312332,"9145 ST THOMAS DRIVE","PASCO","WA","99301"
312333,"9146 FOX STREAM WAY","UPPER MARLBORO","MD","20772"
312334,"9146 W HIGHLAND PINESS BLVD","PALM BEACH GARDENS","FL","33418"
312335,"9147 FLEETWOOD AVE","LONGMONT","CO","80503"
312336,"9147 PORT HUDSON PRIDE ROAD","ZACHARY","LA","70791"
312337,"9147 REDWOOD DR","BASTROP","LA","71220"
312338,"9147 S MARSHFIELD AVE","CHICAGO","IL","60620"
312339,"9148 BLACK HEATH CIRCLE SUITE-B","CHARLOTTE","NC","28214"
312340,"9148 CHIANTI CIRCLE","STOCKTON","CA","95212"
312341,"9148 GEORGE TRL","TERRELL","TX","75160"
312342,"9148 GILA DR","CINCINNATI","OH","45251"
312343,"9148 PORTLAND AVENUE","BLOOMINGTON","MN","55420"
312344,"9148 S URBAN AVE","CHICAGO","IL","60619"
312345,"9148 W CHURCH STREET 1A","DES PLAINES","IL","60016"
312346,"9149 ELYS FORD RD","FREDERICKSBURG","VA","22407"
312347,"9149 LAUREL CANYON BLVD","ARLETA","CA","91331"
312348,"9149 SILVERSHADOW COURT","LORTON","VA","22079"
312349,"9149 SOUT YALE AVE STE 115","TULSA","OK","74137"
312350,"914B MAIN STREET","WALTHAM","MA","02451"
312351,"915  ELK HOLLOW LANE","CENTERVILLE","OH","45459"
312352,"915 11TH STREET","CAIRO","GA","39828"
312353,"915 12TH ST","GREELEY","CO","80631"
312354,"915 12TH STREET","HEMPSTEAD","TX","77445"
312355,"915 12TH STREET","PHENIX CITY","AL","36867"
312356,"915 16TH AVENUE","EAST MOLINE","IL","61244"
312357,"915 43RD STREET","BROOKLYN","NY","11219"
312358,"915 4TH ST NE","AUBURN","WA","98002"
312359,"915 9 AVE N","MOORHEAD","MN","56560"
312360,"915 ACACIA LANE","RHINELANDER","WI","54501"
312361,"915 ALABAMA AVENUE","DURHAM","NC","27705"
312362,"915 ALLEGHENY AVENUE","NEW KENSINGTON","PA","15068"
312363,"915 AMBER TRAIL","MONROE","GA","30655"
312364,"915 AVENUE L","GALVESTON","TX","77550"
312365,"915 BELLHURST AVE","SAN JOSE","CA","95122"
312366,"915 BERGSTROM PLACE","MARSHALL","TX","75672"
312367,"915 BIRCHWOOD CT","HANFORD","CA","93230"
312368,"915 BOWEN AVE","MODESTO","CA","95350"
312369,"915 BRANDERMILL DR","CANTONMENT","FL","32533"
312370,"915 BROADWAY STREET  SUITE 200","VANCOUVER","WA","98660"
312371,"915 BURNT CREST LANE","SILVER SPRING","MD","20903"
312372,"915 BUSH STREET","OLYPHANT","PA","18447"
312373,"915 C MAIN STREET","PERRY","GA","31069"
312374,"915 CALIFORNIA AVE","LAS CRUCE","NM","88001"
312375,"915 CATLIN COURT","KENT","OH","44240"
312376,"915 CENTRAL ST SE","OLYMPIA","WA","98501"
312377,"915 CIRCLE DRIVE","MT PLEASANT","NC","28124"
312378,"915 CLIFFTVIEW RD","BOLIVAR","TN","38008"
312379,"915 CLINTON STREET 305","PHILADELPHIA","PA","19107"
312380,"915 COLUMBIA AVENUE","FRANKLIN","TN","37064"
312381,"915 CORA ST","JOLIET","IL","60435"
312382,"915 CORNELL ST","VERMILLION","SD","57069"
312383,"915 CORNELL STREET","YOUNGSTOWN","OH","44502"
312384,"915 DANBROOK CIRCLE","LINCOLNTON","NC","28092"
312385,"915 DESCO LN APT 3316","GRAND PRAIRIE","TX","75051"
312386,"915 DOUGLAS STREET","ALEXANDRIA","MN","56308"
312387,"915 E CAMERON AVE","ROCKDALE","TX","76567"
312388,"915 E GENERAL STEWART WAY APT B103","HINESVILLE","GA","31313"
312389,"915 E GRANDE BLVD APT 1303","TYLER","TX","75703"
312390,"915 E KING AVE","DES MOINES","IA","50315"
312391,"915 E MARKET STREET","AKRON","OH","44305"
312392,"915 E ROOSEVELT","RIVERTON","WY","82501"
312393,"915 E SUNHILL DRIVE","LAWRENCEVILLE","GA","30043"
312394,"915 EAST 62ND STREET","CHICAGO","IL","60637"
312395,"915 EAST GORDON STREET","ALLENTOWN","PA","18109"
312396,"915 EAST MCLEMORE AVE SUITE 201","MEMPHIS","TN","38106"
312397,"915 EAST MCLEMORE","MEMPHIS","TN","38106"
312398,"915 EAST PATTERSON","KIRKSVILLE","MO","63501"
312399,"915 EAST STREET","TEXARKANA","AR","71854"
312400,"915 FEDERAL AVE E","SEATTLE","WA","98102"
312401,"915 FOREST AVE","PORTLAND","ME","04103"
312402,"915 FRANKLIN ST UNIT 9D","HOUSTON","TX","77002"
312403,"915 FRANKLIN SUITE 408","SAN FRANCISCO","CA","94109"
312404,"915 GARDEN STREET","E PALO ALTO","CA","94303"
312405,"915 GAY ST","HOWELL","MI","48843"
312406,"915 GRACIE WAY","CHARLOTTE","NC","28204"
312407,"915 HARDIN HOLLOW ROAD","WATERTOWN","TN","37184"
312408,"915 HARRINGTON RD","ULSTER","PA","18850"
312409,"915 HILLCREST ST","TALLAHASSEE","FL","32308"
312410,"915 HOOVER VILLAGE DRIVE APT C  401","IINDIANAPOLIS","IN","46260"
312411,"915 HUFFSTETLER RD","MARYVILLE","TN","37803"
312412,"915 HUMPHREY STREET","JENNINGS","LA","70546"
312413,"915 HURSTVIEW STREET","DUARTE","CA","91010"
312414,"915 JADE FOREST AVE","ORLANDO","FL","32828"
312415,"915 JEFFERSON ST","VANCOUVER",NA,"98660"
312416,"915 JONES STREET APT 405","OMAHA","NE","68102"
312417,"915 KINGSBROOK LN","FLORISSANT","MO","63031"
312418,"915 L STREET STE C 305","SACRAMENTO","CA","95814"
312419,"915 L STREET SUITE C-412","SACRAMENTO","CA","95814"
312420,"915 L STREET SUITE C-419","SACRAMENTO","CA","95814"
312421,"915 LIBERTY LANE","GENEVA","FL","32732"
312422,"915 LIBERTY LN","AUBURNDALE","FL","33823"
312423,"915 LOWBER ROAD","HERMINE","PA","15637"
312424,"915 LYTTON RD","MELBOURNE","FL","32934"
312425,"915 M STREET NW","WASHINGTON","DC","20001"
312426,"915 MADISON STREET","BEAVER DAM","WI","53916"
312427,"915 MAIN ST STE 005","EVANSVILLE","IN","47708"
312428,"915 MAIN ST","AUMSVILLE","OR","97235"
312429,"915 MAIN STREET","VINCENNES","IN","47591"
312430,"915 MAYWOOD CT","LOS ALTOS","CA","94024"
312431,"915 MIDWEST CLUB PKWY","OAK BROOK","IL","60523"
312432,"915 MUD LANE","IGNACIO","CO","81137"
312433,"915 N 400 W SUITE 110","LAYTON","UT","84041"
312434,"915 N 4TH ST","BOONVILLE","IN","47601"
312435,"915 N BROADWAY ST","LEWISTOWN","IL","61542"
312436,"915 N JEFFERSON AVE","MT PLEASANT","TX","75455"
312437,"915 N LANSING ST","ST JOHNS","MI","48879"
312438,"915 N MICHIGAN AVE","BALDWIN","MI","49304"
312439,"915 N OLEANDER ST","GRAND SALINE","TX","75140"
312440,"915 N PRAIRIE VIEW DR","KANKAKEE","IL","60901"
312441,"915 N WILLETT STREET","MEMPHIS","TX","38107"
312442,"915 NE 175TH AVE","PORTLAND","OR","97230"
312443,"915 NE 20TH AVENUE","FT LAUDERDALE","FL","33304"
312444,"915 NEW HALL LN SE","ATLANTA","GA","39316"
312445,"915 NW 1ST AVE H 1002","MIAMI","FL","33136"
312446,"915 NW 1ST AVENUE H1206","MIAMI","FL","33136"
312447,"915 NW 4TH STREET","GRESHAM","OR","97030"
312448,"915 OASIS PALM CIRCLE SUITE 1303","OCOEE","FL","34761"
312449,"915 OLIVE STREET","SAINT LOUIS","MO","63101"
312450,"915 OMAHA ST","GREENSBORO","NC","27406"
312451,"915 PARK AVENUE","SYRACUSE","NY","13204"
312452,"915 PENN AVE 1013","PITTSBURGH","PA","15222"
312453,"915 PERRELLI STREET","GILROY","CA","95020"
312454,"915 PINE RIDGE RD","RICHMOND","VA","23226"
312455,"915 POINSETTIA PL UNIT C","VENTURA","CA","93001"
312456,"915 REGAL BLVD","LIVINGSTON","NJ","07039"
312457,"915 RIVERSAGE DRIVE","RIDGWAY","CO","81432"
312458,"915 ROBERT ROSE DRIVE APT 1215","MURFEEBORO","TN","37129"
312459,"915 S BERENDO ST UNIT 8","LOS ANGELES","CA","90006"
312460,"915 S BRYANT AVE  STE B","EDMOND","OK","73034"
312461,"915 S BRYANT AVE STE B","EDMOND","OK","73034"
312462,"915 S DEER RUN","MOUNT PLEASANT","MI","48858"
312463,"915 S DORT HWY STE B","FLINT","MI","48503"
312464,"915 S JACKSON ST","MONTGOMERY","AL","36104"
312465,"915 S RIDGEWAY","CANEY","KS","67333"
312466,"915 SE 14TH PLACE","CAPE CORAL","FL","33990"
312467,"915 SE 33RD AVENUE  SUITE B","PORTLAND","OR","97214"
312468,"915 SOMERSET AVENUE","POMONA","CA","91767"
312469,"915 SOUTH PEARL STREET - SUITE 106","DENVER","CO","80113"
312470,"915 STABLE GLEN DRIVE","SAN ANTONIO","TX","78245"
312471,"915 STATE STREET","ERIE","PA","16501"
312472,"915 STONEBROOK DRIVE","TEMPLE","TX","76502"
312473,"915 SUNSET LANDING","RIO VISTA","CA","94571"
312474,"915 TERNURA LOOP","MILPITAS","CA","95035"
312475,"915 TOWNE AVE","LOS ANGELES","CA","90021"
312476,"915 TREMONT STREET","DUXBURY","MA","02332"
312477,"915 US HWY 224 WEST","GREENWICH","OH","44837"
312478,"915 US ROUTE ONE","YORK","ME","03909"
312479,"915 VOLUNTEER BLVD 2633 DUNFORD HAL","KNOXVILLE","TN","37996"
312480,"915 W CUCHARRAS STREET","COLORADO SPRINGS","CO","80905"
312481,"915 W FOOTHILL BLVD NUM C150","CLAREMONT","CA","91711"
312482,"915 W GRAPE STREET SUITE 704","SAN DIEGO","CA","92101"
312483,"915 W PEACHTREE ST NW UNIT 19106","ATLANTA","GA","30309"
312484,"915 W SAGINAW RD","MAYVILLE","MI","48744"
312485,"915 WESLEY AVE","MUSKEGON","MI","49442"
312486,"915 WEST 12TH ST","MOUNT PLEASANT","TX","75455"
312487,"915 WEST CLINTON DRIVE","FAYETTEVILLE","AR","72701"
312488,"915 WEST DICKERSON","BOZEMAN","MT","59715"
312489,"915 WEST END AVENUE SUITE 1401","NEW YORK","NY","10025"
312490,"915 WEST HWY 199","SPRINGTOWN","TX","76082"
312491,"915 WEST LONG LAKE ROAD","TRAVERSE CITY","MI","49685"
312492,"915 WEST MAIN STREET","MURFREESBORO","NC","27855"
312493,"915 WINONA AVE SW","ROANOKE","VA","24015"
312494,"915 WINTER ST","SALEM","OR","97301"
312495,"915 WOODLAND AVE","NORRISTOWN","PA","19403"
312496,"915 WOODLAND TRAIL APARTMENT E1","SMYRNA","GA","30080"
312497,"915 WYCKOFF AVE","RIDGEWOOD","NY","11385"
312498,"915 YALE SE","ALBUQUERQUE","NM","87106"
312499,"915","NEW YORK","NY","10021"
312500,"9150 116TH STREET","RICHMOND HILL","NY","11418"
