"ID","Address","City","State","Zip"
348001,"PO BOX 40395","REDFORD","MI","48239"
348002,"PO BOX 404","BROWNS SUMMIT","NC","27214"
348003,"PO BOX 404","BUTLER","MO","64730"
348004,"PO BOX 404","CHARDON","OH","44024"
348005,"PO BOX 404","CLEVELAND","MS","38732"
348006,"PO BOX 404","EAST TROY","WI","53120"
348007,"PO BOX 404","EDGEWATER","NJ","07020"
348008,"PO BOX 404","ELCHO","WI","54428"
348009,"PO BOX 404","GRASS VALLEY","CA","95945"
348010,"PO BOX 404","HEMPSTEAD","TX","77445"
348011,"PO BOX 404","JEFFERSON","OH","44047"
348012,"PO BOX 404","KAPOWSIN","WA","98344"
348013,"PO BOX 404","MEAD","CO","80542"
348014,"PO BOX 404","MOORESTOWN","NJ","08057"
348015,"PO BOX 404","NEWTON FALLD","OH","44444"
348016,"PO BOX 404","NEWTON FALLS","OH","44444"
348017,"PO BOX 404","SANFORD","FL","32772"
348018,"PO BOX 404","TIFFIN","OH","44883"
348019,"PO BOX 404","VALLEY CITY","ND","58072"
348020,"PO BOX 4042","WOODLAND PARK","CO","80866"
348021,"PO BOX 40427","SAN FRANCISCO","CA","94104"
348022,"PO BOX 4043","PITTSFIELD","MA","02102"
348023,"PO BOX 4043","TAMPA","FL","33677"
348024,"PO BOX 4043","TUSTIN","CA","92781"
348025,"PO BOX 40443","REDFORD","MI","48240"
348026,"PO BOX 4045","CLARKSVILLE","TN","37043"
348027,"PO BOX 4045","KETCHUM","ID","83340"
348028,"PO BOX 4046","MARIETTA","OH","45750"
348029,"PO BOX 40461","FAYETTEVILLE","NC","28309"
348030,"PO BOX 40462","BAY VILLAGE","OH","44140"
348031,"PO BOX 40467","PORTLAND","OR","97241"
348032,"PO BOX 40472","SAINT PAUL","MN","55104"
348033,"PO BOX 40484","HOUSTON","TX","77240"
348034,"PO BOX 4049","GARDEN CITY","NY","11531"
348035,"PO BOX 40493","TUCSON","AZ","85717"
348036,"PO BOX 405","ADAMS","MA","01220"
348037,"PO BOX 405","BEVERLY","NJ","08010"
348038,"PO BOX 405","COLLINSVILLE","TX","76233"
348039,"PO BOX 405","COLUMBIA","MO","65205"
348040,"PO BOX 405","CRAWFORD","CO","81415"
348041,"PO BOX 405","FLEETWOOD","PA","19522"
348042,"PO BOX 405","FORT COLLINS","CO","80522"
348043,"PO BOX 405","HARPERS FERRY","WV","25425"
348044,"PO BOX 405","MOSES LAKE","WA","98837"
348045,"PO BOX 405","PROSSER","WA","99350"
348046,"PO BOX 405","SOUTH BOSTON","VA","24592"
348047,"PO BOX 405","STAMFORD","CT","06902"
348048,"PO BOX 405","WINFIELD","KS","67156"
348049,"PO BOX 405","WINNEMUCCA","NV","89446"
348050,"PO BOX 405","YOUNG HARRIS","GA","30582"
348051,"PO BOX 40503","REDFORD","MI","48240"
348052,"PO BOX 40506","REDFORD","MI","48240"
348053,"PO BOX 40506","ST PAUL","MN","55104"
348054,"PO BOX 4051","PANORAMA CITY","CA","91412"
348055,"PO BOX 4051","QUARTZSITE","AZ","85359"
348056,"PO BOX 40511","SAN JUAN","PR","00940"
348057,"PO BOX 4052","JIM  THORPE","PA","18229"
348058,"PO BOX 4053","KOKOMO","IN","46901"
348059,"PO BOX 4054","CARMEL","IN","46082"
348060,"PO BOX 40546","FOREST PARK","OH","45240"
348061,"PO BOX 40557","ST. PAUL","MN","55104"
348062,"PO BOX 40566","EVERMAN","TX","76140"
348063,"PO BOX 4057","LOGAN","UT","84323"
348064,"PO BOX 4058","EAST HAMPTON","NY","11937"
348065,"PO BOX 4058","YAKIMA","WA","95904"
348066,"PO BOX 40581","NASHVILLE","TN","37204"
348067,"PO BOX 40583","PROVIDENCE","RI","02940"
348068,"PO BOX 4059","EASTON","PA","18043"
348069,"PO BOX 406","ASCUTNEY","VT","05030"
348070,"PO BOX 406","CAMDENTON","MO","65020"
348071,"PO BOX 406","CHANNAHON","IL","60410"
348072,"PO BOX 406","CHESTERTOWN","NY","12817"
348073,"PO BOX 406","COLUMBIANA","OH","44408"
348074,"PO BOX 406","EDWARDSVILLE","IL","62025"
348075,"PO BOX 406","ELKINS","WV","26241"
348076,"PO BOX 406","HALIFAX","NC","27839"
348077,"PO BOX 406","LYONS","CO","80540"
348078,"PO BOX 406","NATCHEZ","LA","71456"
348079,"PO BOX 406","OAKS","PA","19456"
348080,"PO BOX 406","PHOENIX","AZ","85001"
348081,"PO BOX 406","SALT LAKE CITY","UT","84110"
348082,"PO BOX 406","SAUTEE","GA","30571"
348083,"PO BOX 406","STRASBURG","CO","80136"
348084,"PO BOX 40604","PROVIDENCE","RI","02940"
348085,"PO BOX 4061","MOUNT HOLLY","NJ","08060"
348086,"PO BOX 4062","ENGLEWOOD","CO","80155"
348087,"PO BOX 40627","REDFORD","MI","48240"
348088,"PO BOX 4063","FRANKFORT","KY","40604"
348089,"PO BOX 40654","TUCSON","AZ","85717"
348090,"PO BOX 40655","NORTH CHARLESTON","SC","29423"
348091,"PO BOX 40658","DENVER","CO","80204"
348092,"PO BOX 4066","RANCHO CUCAMONGA","CA","91729"
348093,"PO BOX 4067","HUNTINGTON","NY","11743"
348094,"PO BOX 4068","PASO ROBLES","CA","93446"
348095,"PO BOX 4068","TRUCKEE","CA","96160"
348096,"PO BOX 40681","MOBILE","AL","36640"
348097,"PO BOX 40689","GRAND JUNCTION","CO","81504"
348098,"PO BOX 407","BERRIEN SPRINGS","MI","49103"
348099,"PO BOX 407","GALVESTON","IN","46932"
348100,"PO BOX 407","LITHIA","FL","33547"
348101,"PO BOX 407","LOWELL","FL","32663"
348102,"PO BOX 407","QUINCY","CA","95971"
348103,"PO BOX 407","RUNGE","TX","78151"
348104,"PO BOX 407","VICTORIA","MN","55386"
348105,"PO BOX 407","WATERFORD","CA","95386"
348106,"PO BOX 407","WESTERLY","RI","02891"
348107,"PO BOX 407","WILKESON","WA","98396"
348108,"PO BOX 407","WILLIAMSBURG","KS","66095"
348109,"PO BOX 4070","WICHITA FALLS","TX","76308"
348110,"PO BOX 4071 68 WATKINS PARK DRIVE","UPPER MARLBORO","MD","20775"
348111,"PO BOX 4071","RENTON","WA","98057"
348112,"PO BOX 4072","LEXINGTON","KY","40544"
348113,"PO BOX 4073","PORTSMOUTH","NH","03802"
348114,"PO BOX 4074","ITHACA","NY","14852"
348115,"PO BOX 4074","PIKEVILLE","KY","41502"
348116,"PO BOX 4074","ST.LOUIS","MO","63136"
348117,"PO BOX 40744","PROVIDENCE","RI","02904"
348118,"PO BOX 4075","MCCALL","ID","83638"
348119,"PO BOX 4076","PHILADELPHIA","PA","19118"
348120,"PO BOX 40765","BATON ROUGE","LA","70835"
348121,"PO BOX 4078","ALAMOGORDO","NM","88311"
348122,"PO BOX 40784","INDIANAPOLIS","IN","46240"
348123,"PO BOX 408","ATHENS","GA","30603"
348124,"PO BOX 408","AURORA","OR","97002"
348125,"PO BOX 408","BOULDER","CO","80306"
348126,"PO BOX 408","BRANDON","SD","57005"
348127,"PO BOX 408","COLUMBIA","IL","62236"
348128,"PO BOX 408","CROSSVILLE","TN","38557"
348129,"PO BOX 408","DES MOINES","IA","50302"
348130,"PO BOX 408","FERNLEY","NV","89408"
348131,"PO BOX 408","GODLEY","TX","76044"
348132,"PO BOX 408","LANCASTER","KY","40444"
348133,"PO BOX 408","LIBERTY","TX","77575"
348134,"PO BOX 408","LITTLE ELM","TX","75068"
348135,"PO BOX 408","MANITOU SPRINGS","CO","80829"
348136,"PO BOX 408","MOUNTAIN VIEW","AR","72560"
348137,"PO BOX 408","NEWCOMB","NY","12852"
348138,"PO BOX 408","ORIENTAL","NC","28571"
348139,"PO BOX 408","PLACENTIA","CA","92870"
348140,"PO BOX 408","SMITHTON","PA","15479"
348141,"PO BOX 40804","STATEN ISLAND","NY","10304"
348142,"PO BOX 4082","BRYAN","TX","77805"
348143,"PO BOX 4083","COPLEY","OH","44321"
348144,"PO BOX 4084","LINDENWOLD","NJ","08021"
348145,"PO BOX 4084","SPOKANE","WA","99220"
348146,"PO BOX 408471","CHICAGO","IL","60640"
348147,"PO BOX 4085","BERGHEIM","TX","78004"
348148,"PO BOX 4085","CEDAR HILL","TX","75106"
348149,"PO BOX 4085","VISALIA","CA","93278"
348150,"PO BOX 40853","PROVIDENCE","RI","02940"
348151,"PO BOX 408565","CHICAGO","IL","60640"
348152,"PO BOX 408784","CHICAGO","IL","60640"
348153,"PO BOX 40882","JACKSONVILLE","FL","32203"
348154,"PO BOX 4089","MIDDLETOWN","NY","10941"
348155,"PO BOX 409","JARRELL","TX","76537"
348156,"PO BOX 409","LOCKHART","SC","29364"
348157,"PO BOX 409","MARBLE HILL","MO","63764"
348158,"PO BOX 409","ROSELLE","NJ","07203"
348159,"PO BOX 409","SADDLE RIVER","NJ","07458"
348160,"PO BOX 409","SENECA","IL","61360"
348161,"PO BOX 409","SMITHTOWN","NY","11787"
348162,"PO BOX 40903","EUGENE","OR","97404"
348163,"PO BOX 40903","NASHVILLE","TN","37204"
348164,"PO BOX 4092","MACON","GA","31208"
348165,"PO BOX 4092","SCRANTON","PA","18505"
348166,"PO BOX 4092","SOMERTON","AZ","85350"
348167,"PO BOX 4092","VINEYARD HAVEN","MA","02568"
348168,"PO BOX 409249","CHICAGO","IL","60640"
348169,"PO BOX 409261","CHICAGO","IL","60640"
348170,"PO BOX 40931","EUGENE","OR","97404"
348171,"PO BOX 409368","CHICAGO","IL","60640"
348172,"PO BOX 4094","GREENSBORO","NC","27404"
348173,"PO BOX 4095","GALLUP","NM","87305"
348174,"PO BOX 41 3546 S STRAITS HWY","INDIAN RIVER","MI","49749"
348175,"PO BOX 41-2705","LOS ANGELES","CA","90041"
348176,"PO BOX 41","ABBEVILLE","LA","70511"
348177,"PO BOX 41","ABINGTON","PA","19001"
348178,"PO BOX 41","AHOSKIE","NC","27910"
348179,"PO BOX 41","AUBURN","NH","03032"
348180,"PO BOX 41","AUBURN","WY","83111"
348181,"PO BOX 41","BEAVERTOWN","PA","17813"
348182,"PO BOX 41","BEN WHEELER","TX","75754"
348183,"PO BOX 41","BLYTHEWOOD","SC","29016"
348184,"PO BOX 41","BRASHEAR","MO","63533"
348185,"PO BOX 41","BUFFALO","NY","14263"
348186,"PO BOX 41","CHOTEAU","MT","59422"
348187,"PO BOX 41","CORTE MADERA","CA","94976"
348188,"PO BOX 41","DALEVILLE","VA","24083"
348189,"PO BOX 41","DANVILLE","IN","46122"
348190,"PO BOX 41","GRENADA","CA","96038"
348191,"PO BOX 41","HAMMOND","IN","46325"
348192,"PO BOX 41","HANA","HI","96713"
348193,"PO BOX 41","HUDSON","MA","01749"
348194,"PO BOX 41","HUNTERS","WA","99137"
348195,"PO BOX 41","KASSON","MN","55944"
348196,"PO BOX 41","KIOWA","CO","80117"
348197,"PO BOX 41","LITTLE SUAMICO","WI","54141"
348198,"PO BOX 41","LULING","TX","78648"
348199,"PO BOX 41","MACUNGIE","PA","18062"
348200,"PO BOX 41","MT HOOD","OR","97041"
348201,"PO BOX 41","NEW CARLISLE","OH","45344"
348202,"PO BOX 41","NEWARK","NY","14513"
348203,"PO BOX 41","OAKLEY","UT","84055"
348204,"PO BOX 41","ORRS ISLAND","ME","04066"
348205,"PO BOX 41","ROSEBURG","OR","97470"
348206,"PO BOX 41","ROSS","OH","45013"
348207,"PO BOX 41","SICKLERVILLE","NJ","08081"
348208,"PO BOX 41","SILVERADO","CA","92676"
348209,"PO BOX 41","STAFFORD","TX","77497"
348210,"PO BOX 41","STONY CREEK","VA","23882"
348211,"PO BOX 41","SUMMERSVILLE","WV","26651"
348212,"PO BOX 41","URICH","MO","64788"
348213,"PO BOX 41","WEBSTER","IN","47392"
348214,"PO BOX 41","WINTHROP","ME","04364"
348215,"PO BOX 410","BARABOO","WI","53913"
348216,"PO BOX 410","PERU","NY","12972"
348217,"PO BOX 410011","BIG WATER","UT","84741"
348218,"PO BOX 4101","TUPELO","MS","38803"
348219,"PO BOX 410135","KANSAS CITY","MO","64141"
348220,"PO BOX 410147","KANSAS CITY","MO","64141"
348221,"PO BOX 41015","PROVIDENCE","RI","02940"
348222,"PO BOX 410164","SAN FRANCISCO","CA","94141"
348223,"PO BOX 4102","MARIETTA","GA","30061"
348224,"PO BOX 41022","WASHINGTON","DC","20018"
348225,"PO BOX 41023","FREDERICKSBURG","VA","22407"
348226,"PO BOX 4103","SAN DIEGO","CA","92195"
348227,"PO BOX 4103","TUMWATER","WA","98501"
348228,"PO BOX 41031","EUGENE","OR","97404"
348229,"PO BOX 41035","FAYETTEVILLE","NC","28309"
348230,"PO BOX 410391","KANSAS CITY","MO","64108"
348231,"PO BOX 4104","HOMER","AK","99603"
348232,"PO BOX 41042","DES MOINES","IA","50311"
348233,"PO BOX 41044","BALTIMORE","MD","21203"
348234,"PO BOX 410477","ST LOUIS","MO","63141"
348235,"PO BOX 4105","SLIDELL","LA","70459"
348236,"PO BOX 410566","MELBOURNE","FL","32941"
348237,"PO BOX 4106 - 6010 PARK AVE","WEST NEW YORK","NJ","07093"
348238,"PO BOX 4106","AMARILLO","TX","79116"
348239,"PO BOX 410653","SAN FRANCISCO","CA","94103"
348240,"PO BOX 4107","ESTES PARK","CO","80517"
348241,"PO BOX 4109","BAYAMON","PR","00959"
348242,"PO BOX 410934","SUNTREE","FL","32934"
348243,"PO BOX 411","ARIEL","WA","98603"
348244,"PO BOX 411","ARNOLDS PARK","IA","51331"
348245,"PO BOX 411","BARABOO","WI","53913"
348246,"PO BOX 411","BOTHELL","WA","98041"
348247,"PO BOX 411","BRONSON","TX","75930"
348248,"PO BOX 411","CAMILLUS","NY","13031"
348249,"PO BOX 411","CENTERVILLE","TX","75833"
348250,"PO BOX 411","FORREST CITY","AR","72336"
348251,"PO BOX 411","GRANTSBORO","NC","28529"
348252,"PO BOX 411","GREENVILLE","MI","48838"
348253,"PO BOX 411","HAWTHORNE","NV","89415"
348254,"PO BOX 411","LEDYARD","CT","06339"
348255,"PO BOX 411","MANTUA","OH","44255"
348256,"PO BOX 411","NEW VERNON","NJ","07976"
348257,"PO BOX 411","NITRO","WV","25143"
348258,"PO BOX 411","ONEIDA","NY","13421"
348259,"PO BOX 411","RED LODGE","MT","59068"
348260,"PO BOX 411","REESE","MI","48757"
348261,"PO BOX 411","REYNOLDSBURG","OH","43068"
348262,"PO BOX 411","RURAL HALL","NC","27045"
348263,"PO BOX 411","SILVERTON","IN","81433"
348264,"PO BOX 411","SIMPSONVILLE","KY","40067"
348265,"PO BOX 411","ST PETER","MN","56082"
348266,"PO BOX 411","WHARTON","TX","77488"
348267,"PO BOX 411","WOODBRIDGE","CA","95258"
348268,"PO BOX 411","WYTHEVILLE","VA","24382"
348269,"PO BOX 411021","DALLAS","TX","75241"
348270,"PO BOX 41117","TUCSON","AZ","85717"
348271,"PO BOX 411227","SAN FRANCISCO","CA","94141"
348272,"PO BOX 4113","BATON ROUGE","LA","70512"
348273,"PO BOX 4113","S","MO","63136"
348274,"PO BOX 4114","ALICE","TX","78333"
348275,"PO BOX 4114","CLIFTON","NJ","07012"
348276,"PO BOX 4114","JOPLIN","MO","64803"
348277,"PO BOX 4114","OMAHA","NE","68104"
348278,"PO BOX 411473","KANSAS CITY","MO","64141"
348279,"PO BOX 4116","AUSTIN","TX","78765"
348280,"PO BOX 41163","RALEIGH","NC","27629"
348281,"PO BOX 4117","BROADLANDS","VA","20148"
348282,"PO BOX 4118","PLANT CITY","FL","33563"
348283,"PO BOX 4119","CHINLE","AZ","86503"
348284,"PO BOX 4119","PASCO","WA","99302"
348285,"PO BOX 41192","FREDERICKSBURG","VA","22404"
348286,"PO BOX 412","ALAMOGORDO","NM","88311"
348287,"PO BOX 412","ALLEN","UM","75013"
348288,"PO BOX 412","ARMADA","MI","48005"
348289,"PO BOX 412","AVERILL PARK","NY","12018"
348290,"PO BOX 412","BERLIN","NJ","08009"
348291,"PO BOX 412","DEER PARK","NY","11729"
348292,"PO BOX 412","ENGLEWOOD","NJ","07631"
348293,"PO BOX 412","GREENVILLE","RI","02828"
348294,"PO BOX 412","HIGHLAND","MI","48357"
348295,"PO BOX 412","INDEPENDENCE","OR","97351"
348296,"PO BOX 412","ISLE OF PALMS","SC","29451"
348297,"PO BOX 412","LAURINBURG","NC","28353"
348298,"PO BOX 412","LONG BEACH","WA","98631"
348299,"PO BOX 412","MAHOPAC FALLS","NY","10542"
348300,"PO BOX 412","MCCAMEY","TX","79752"
348301,"PO BOX 412","MENTOR","OH","44061"
348302,"PO BOX 412","MIAMI","FL","33174"
348303,"PO BOX 412","MIAMISBURG","OH","45343"
348304,"PO BOX 412","MIDDLEBURG","VA","20118"
348305,"PO BOX 412","MOUNT AIRY","NC","27030"
348306,"PO BOX 412","NAALEHU","HI","96772"
348307,"PO BOX 412","NEW PORT RICHEY","FL","34656"
348308,"PO BOX 412","NEW YORK","NY","10028"
348309,"PO BOX 412","PULLMAN","WA","99163"
348310,"PO BOX 412","ROGUE RIVER","OR","97537"
348311,"PO BOX 412","ROSOHLT","WI","54473"
348312,"PO BOX 412","ROYERSFORD","PA","19468"
348313,"PO BOX 412","SAINT JOSEPH","LA","71366"
348314,"PO BOX 412","SAINT MARTIN","MN","56376"
348315,"PO BOX 412","SOLON SPRINGS","WI","54873"
348316,"PO BOX 412","ST MARYS","OH","45885"
348317,"PO BOX 412","STOW","MA","01775"
348318,"PO BOX 412","TRENTON","MO","64683"
348319,"PO BOX 412","WINCHESTER","VA","22604"
348320,"PO BOX 41202","MEMPHIS","TN","38174"
348321,"PO BOX 41212","EUGENE","OR","97404"
348322,"PO BOX 41213","ST PETERSBURG","FL","33743"
348323,"PO BOX 412190","CHICAGO","IL","60641"
348324,"PO BOX 4122","ESTES PARK","CO","80517"
348325,"PO BOX 4122","GARY","IN","46404"
348326,"PO BOX 4123 / 2020 5TH STREET","DAVIS","CA","95616"
348327,"PO BOX 4123","BELLEVUE","PA","15202"
348328,"PO BOX 4123","SIERRA VISTA","AZ","85636"
348329,"PO BOX 4123","ST JOHNSBURY","VT","05819"
348330,"PO BOX 41231","RALEIGH","NC","27629"
348331,"PO BOX 4125","LAKE WALES","FL","33859"
348332,"PO BOX 4126","KILLEEN","TX","76540"
348333,"PO BOX 4128","ROCKFORD","IL","61110"
348334,"PO BOX 41280","NORFOLK","VA","23541"
348335,"PO BOX 41282","EUGENE","OR","97404"
348336,"PO BOX 41291","NORTH CHARLESTON","SC","29423"
348337,"PO BOX 41294","RALEIGH","NC","27629"
348338,"PO BOX 413","ALEXANDRIA","OH","43001"
348339,"PO BOX 413","BADIN","NC","28009"
348340,"PO BOX 413","BEVERLY SHORES","IN","46301"
348341,"PO BOX 413","BOWLING GREEN","OH","43402"
348342,"PO BOX 413","CEDAR GROVE","WV","25039"
348343,"PO BOX 413","CHATSWORTH","GA","30705"
348344,"PO BOX 413","DALEVILLE","VA","24083"
348345,"PO BOX 413","GRANDVILE","MI","49468"
348346,"PO BOX 413","HAHNVILLE","LA","70057"
348347,"PO BOX 413","HEATH SPRINGS","SC","29058"
348348,"PO BOX 413","KINGS PARK","NY","11754"
348349,"PO BOX 413","LOGANVILLE","GA","30052"
348350,"PO BOX 413","MIDLAND","GA","31820"
348351,"PO BOX 413","MOSES LAKE","WA","98837"
348352,"PO BOX 413","PETOSKEY","MI","49770"
348353,"PO BOX 413","POTEET","TX","78065"
348354,"PO BOX 413","RHINELANDER","WI","54501"
348355,"PO BOX 413","SPANISH FORK","UT","84660"
348356,"PO BOX 413","STOCKDALE","TX","78160"
348357,"PO BOX 413","STRONG CITY","KS","66869"
348358,"PO BOX 413","UTICA","IL","61373"
348359,"PO BOX 413","WALNUT RIDGE","AR","72476"
348360,"PO BOX 413","WAUPUN","WI","53963"
348361,"PO BOX 413","WINTON","CA","95388"
348362,"PO BOX 4130","CLEARWATER","FL","33758"
348363,"PO BOX 4132","MIAMI LAKES","FL","33014"
348364,"PO BOX 4134","OMAHA","NE","68104"
348365,"PO BOX 4135","EAST LANSING","MI","48826"
348366,"PO BOX 41352","BATON ROUGE","LA","70835"
348367,"PO BOX 4136","PLANT CITY","FL","33563"
348368,"PO BOX 413820","KANSAS CITY","MO","64141"
348369,"PO BOX 41391","AUSTIN","TX","78704"
348370,"PO BOX 41391","PHOENIX","AZ","85080"
348371,"PO BOX 414","BOYNE FALLS","MI","49713"
348372,"PO BOX 414","CHARLEROI","PA","15022"
348373,"PO BOX 414","COLUMBIANA","OH","44408"
348374,"PO BOX 414","DANA","IN","47847"
348375,"PO BOX 414","HILLBURN","NY","10931"
348376,"PO BOX 414","JUDSON","TX","75660"
348377,"PO BOX 414","KOSCIUSKO","MS","39090"
348378,"PO BOX 414","LEMOYNE","PA","17043"
348379,"PO BOX 414","LUTHER","OK","73054"
348380,"PO BOX 414","MANCHESTER","TN","37349"
348381,"PO BOX 414","MARSHALL","NC","28753"
348382,"PO BOX 414","MIDDLETOWN","CT","06457"
348383,"PO BOX 414","RITTMAN","OH","44270"
348384,"PO BOX 414","SAINT STEPHENS CHURC","VA","23148"
348385,"PO BOX 414","SIMI VALLEY","CA","93065"
348386,"PO BOX 414","SPRINGFIELD","GA","31329"
348387,"PO BOX 414","ST JOSEPH","MI","49085"
348388,"PO BOX 414","STEPHEN","MN","56757"
348389,"PO BOX 414","TRACY CITY","TN","37387"
348390,"PO BOX 414","WAIMEA","HI","96796"
348391,"PO BOX 414","WESTBROOK","ME","04098"
348392,"PO BOX 4141","BERGHEIM","TX","78004"
348393,"PO BOX 4141","OMAHA","NE","68104"
348394,"PO BOX 4142","CARLSBAD","CA","92018"
348395,"PO BOX 4142","CARMEL","IN","46082"
348396,"PO BOX 4143","FREDERICK","MD","21701"
348397,"PO BOX 4145","FLORENCE","SC","29501"
348398,"PO BOX 4145","HILLSBORO","OR","97123"
348399,"PO BOX 41463","JACKSONVILLE","FL","32203"
348400,"PO BOX 41464","DES MOINES","IA","50311"
348401,"PO BOX 4147","BETHLEHEM","PA","18018"
348402,"PO BOX 41473","EUGENE","OR","97404"
348403,"PO BOX 4149","SAN JOSE","CA","95150"
348404,"PO BOX 414946","KANSAS CITY","MO","64141"
348405,"PO BOX 415 4736 ONONDAGA BLVD","SYRACUSE","NY","13219"
348406,"PO BOX 415","CALUMET","MI","49913"
348407,"PO BOX 415","CLIFTON","AZ","85533"
348408,"PO BOX 415","DRACUT","MA","01826"
348409,"PO BOX 415","EAST SETAUKET","NY","11733"
348410,"PO BOX 415","FAIRFAX","VA","22038"
348411,"PO BOX 415","FT. VALLEY","GA","31030"
348412,"PO BOX 415","GAITHERSBURG","MD","20884"
348413,"PO BOX 415","GLOUCESTER CITY","NJ","08030"
348414,"PO BOX 415","LA GRANGE","KY","40031"
348415,"PO BOX 415","LA PORTE","IN","46352"
348416,"PO BOX 415","LEBANON","IN","46052"
348417,"PO BOX 415","MC CALLA","AL","35111"
348418,"PO BOX 415","MINERAL WELLS","TX","76068"
348419,"PO BOX 415","NEON","KY","41840"
348420,"PO BOX 415","PINE RIDGE","SD","57770"
348421,"PO BOX 415","RAINIER","OR","97048"
348422,"PO BOX 415","SNOWFLAKE","AZ","85937"
348423,"PO BOX 415","SOUTH HARWICH","MA","02661"
348424,"PO BOX 415","TORRINGTON","CT","06790"
348425,"PO BOX 415","TWIN VALLEY","MN","56584"
348426,"PO BOX 415","WAUNA","WA","98395"
348427,"PO BOX 415","WINDSOR","CO","80550"
348428,"PO BOX 415","WINTER HARBOR","ME","04693"
348429,"PO BOX 4150","BRANDON","FL","33509"
348430,"PO BOX 415062","NORTH BAY VILLAGE","FL","33141"
348431,"PO BOX 4152","CROFTON","MD","21114"
348432,"PO BOX 4152","WINCHESTER","VA","22604"
348433,"PO BOX 4153","SANFORD","NC","27331"
348434,"PO BOX 4156","FOSTER CITY","CA","94404"
348435,"PO BOX 4156","WILMINGTON","DE","19807"
348436,"PO BOX 41562","RALEIGH","NC","27629"
348437,"PO BOX 4158","ESTES PARK","CO","80517"
348438,"PO BOX 41587","BALTIMORE","MD","21203"
348439,"PO BOX 41592","MEMPHIS","TN","38174"
348440,"PO BOX 416","ATHOL","ID","83801"
348441,"PO BOX 416","BLACK EARTH","WI","53515"
348442,"PO BOX 416","BRADFORD","VT","05033"
348443,"PO BOX 416","CEDAR CITY","UT","84721"
348444,"PO BOX 416","DANBURY","TX","77534"
348445,"PO BOX 416","DENHAM SPRINGS","LA","70727"
348446,"PO BOX 416","ELIZABETHTOWN","KY","42702"
348447,"PO BOX 416","FAYETTEVILLE","AR","72701"
348448,"PO BOX 416","HOCKESSIN","DE","19707"
348449,"PO BOX 416","KANNAPOLIS","NC","28082"
348450,"PO BOX 416","MARATHON","TX","79842"
348451,"PO BOX 416","MARTINS FERRY","OH","43935"
348452,"PO BOX 416","REEDSBURG","WI","53959"
348453,"PO BOX 416","SEDALIA","CO","80135"
348454,"PO BOX 416","SPOUT SPRING","VA","24593"
348455,"PO BOX 4160","BUENA VISTA","CO","81211"
348456,"PO BOX 4160","SANTA FE","NM","87502"
348457,"PO BOX 4162","ARLINGTON","VA","22204"
348458,"PO BOX 4162","BETHLEHEM","PA","18018"
348459,"PO BOX 4162","GREENSBORO","NC","27404"
348460,"PO BOX 4162","RIVERSIDE","CA","92514"
348461,"PO BOX 4162","TALLAHASSEE","FL","32315"
348462,"PO BOX 4163","WALNUT CREEK","CA","94596"
348463,"PO BOX 4164","RANCHO CUCAMONGA","CA","91729"
348464,"PO BOX 41647","ST PETERSBURG","FL","33701"
348465,"PO BOX 4165","HONOLULU","HI","96813"
348466,"PO BOX 41655","TUCSON","AZ","85717"
348467,"PO BOX 41678","HOUSTON","TX","77040"
348468,"PO BOX 4168","DANA POINT","CA","92629"
348469,"PO BOX 4169","BRISTOL","CT","06010"
348470,"PO BOX 417","BEDMINSTER","NJ","07921"
348471,"PO BOX 417","CORTEZ","CO","81321"
348472,"PO BOX 417","HOWARD","SD","57349"
348473,"PO BOX 417","LORENA","TX","76655"
348474,"PO BOX 417","MCCALL","ID","83638"
348475,"PO BOX 417","NEW LONDON","MN","56273"
348476,"PO BOX 417","NEWARK","TX","76071"
348477,"PO BOX 417","ROCKY FACE","GA","30740"
348478,"PO BOX 417","WASHINGTON","OK","73093"
348479,"PO BOX 4171","GRAND JUNCTION","CO","81502"
348480,"PO BOX 4171","HAMDEN","CT","06514"
348481,"PO BOX 41711","LOS ANGELES","CA","90041"
348482,"PO BOX 4172","WESTLAKE VILLAGE","CA","91359"
348483,"PO BOX 4174","COOKEVILLE","TN","38502"
348484,"PO BOX 4174","SIERRA VISTA","AZ","85636"
348485,"PO BOX 4176","CANTON","GA","30114"
348486,"PO BOX 4176","CARTERSVILLE","GA","30121"
348487,"PO BOX 4176","FRANKFORT","KY","40604"
348488,"PO BOX 41763","MESA","AZ","85274"
348489,"PO BOX 4177","WEST RICHLAND","WA","99353"
348490,"PO BOX 4178","SANTA ROSA","CA","95402"
348491,"PO BOX 418","ANTIOCH","IL","60002"
348492,"PO BOX 418","BALDWIN CITY","KS","66006"
348493,"PO BOX 418","CAMBRIDGE","ID","83610"
348494,"PO BOX 418","CHARLESTOWN","NH","03603"
348495,"PO BOX 418","CONCORD","NH","03302"
348496,"PO BOX 418","DOBBINS","CA","95935"
348497,"PO BOX 418","MOUNTAIN HOME","TX","78058"
348498,"PO BOX 418","NASHVILLE","OH","44661"
348499,"PO BOX 418","ORCAS","WA","98280"
348500,"PO BOX 418","SENECA","IL","61360"
