"ID","Address","City","State","Zip"
122001,"2212 WATERSTONE TRAIL","FLOWER MOUND","TX","75028"
122002,"2212 WOODMONT DR","EXPORT","PA","15632"
122003,"22120 STOCKDALE HWY","BAKERSFEILD","CA","93314"
122004,"22121 1/2 S VERMONT AVE","TORRANCE","CA","90502"
122005,"22121 SOUTH DIXIE HWY","MIAMI","FL","33170"
122006,"22122 NE 18TH ST","SAMMAMISH","WA","98074"
122007,"22124 EDGEWOOD","ST CLAIR SHORES","MI","48080"
122008,"22125 LAUREL OAK DRIVE","PARKER","CO","80138"
122009,"22125 OLD FIVE ROAD","VERSAILLES","MO","65084"
122010,"22125 S DIXIE HWY","MIAMI","FL","33170"
122011,"22125 SOUTH DIXIE HWY","MIAMI","FL","33170"
122012,"2213 ATRIUM CIRCLE","ORLANDO","FL","32808"
122013,"2213 BEASLEY AVE NW","HUNTSVILLE","AL","35816"
122014,"2213 CRESTVIEW LN","ROWLETT","TX","75088"
122015,"2213 DEL PASO BLVD B197","SACRAMENTO","CA","95815"
122016,"2213 DEL PASO BLVD STE 149","SACRAMENTO","CA","95815"
122017,"2213 E 4TH STREET","ONTARIO","CA","91764"
122018,"2213 FAULKNER RD NE","ATLANTA","GA","30324"
122019,"2213 FIELDCREST COURT","FAIRFIELD","CA","94534"
122020,"2213 FLOWING DRIVE","RALEIGH","NC","27610"
122021,"2213 GREENLEAF ROAD","KINSTON","NC","28501"
122022,"2213 GREENWICH DR","SUN CITY CENTER","FL","33573"
122023,"2213 HALE AVE","LOUISVILLE","KY","40210"
122024,"2213 HANSON AVE","NORFOLK","VA","23504"
122025,"2213 MARQUAND COURT","ALPINE","CA","91901"
122026,"2213 MESA BROOK","SCHERTZ","TX","78154"
122027,"2213 MIRAMAR LN","BUFFALO GROVE","IL","60089"
122028,"2213 N 7TH STREET","BROKEN ARROW","OK","74012"
122029,"2213 N ELLIS STREET","PEORIA","IL","61604"
122030,"2213 N FRIENDSHIP DR","HARVEY","LA","70058"
122031,"2213 NELSON STREET","RICHMOND","VA","23228"
122032,"2213 PARK ROAD SUITE 1","CHARLOTTE","NC","28203"
122033,"2213 PLEASANT VIEW AVE","RUSKIN","FL","33570"
122034,"2213 POQUITO ST UNIT 300","AUSTIN","TX","78722"
122035,"2213 SANDERSON RD","KNOXVILLE","TX","37921"
122036,"2213 STADIUM DRIVE","WICHITA","KS","67214"
122037,"2213 STILLHOUSE HOLLOW LANE","FRIENDSWOOD","TX","77546"
122038,"2213 WESTWOOD PINE DRIVE","MOSELEY","VA","23120"
122039,"2213 WOODMERE BOULEVARD","HARVEY","LA","70058"
122040,"22130 E 141ST ST S","COWETA","OK","74429"
122041,"22130 VICTORY BLVD","WOODLAND HILLS","CA","91367"
122042,"22131 PROVINCIAL BLVD","KATY","TX","77450"
122043,"22133 SILVER SPRINGS DR","SOUTH BEND","IN","46628"
122044,"2214 AVALON GATES","TRUMBULL","CT","06611"
122045,"2214 BALBOA COVE","FORT WAYNE","IN","46814"
122046,"2214 BELTON STREET","CORPUS CHRISTI","TX","78416"
122047,"2214 BRIGHAM ROAD","GREENSBORO","NC","27409"
122048,"2214 CANTON ROAD","AKRON","OH","44312"
122049,"2214 CLAYPOOL ALVATON RD","BOWLING GREENT","KY","42103"
122050,"2214 COKE OVENS CT","GRAND JUNCTION","CO","81507"
122051,"2214 COWHAND PLACE","PUEBLO","CO","81008"
122052,"2214 DAWN HILL DRIVE","CHARLESTON","SC","29414"
122053,"2214 DOGTOWN ROAD","BENTON","KY","42025"
122054,"2214 E LAGUNA RD","MOHAVE VALLEY","AZ","86440"
122055,"2214 FENWOOD DRIVE","KNOXVILLE","TN","37918"
122056,"2214 FLITE ACRES","WIMBERLEY","TX","78676"
122057,"2214 FREDERICK DOUGLASS BLVD APT112","NEW YORK","NY","10026"
122058,"2214 GABLE HOLLOW LN","KATY","TX","77450"
122059,"2214 GENERAL CUSTER RD","HAYS","KS","67601"
122060,"2214 HILTON HEAD GLEN","ESCONDIDO","CA","92026"
122061,"2214 HUNTER PLACE SE","WASHINGTON","DC","20020"
122062,"2214 HUNTINGTON TURNPIKE","TRUMBULL","CT","06611"
122063,"2214 LANCEWOOD COURT","ORLANDO","FL","32817"
122064,"2214 LINDYVIEW RD","BELLEVUE","NE","68005"
122065,"2214 MIDDLE AVE","ELYRIA","OH","44035"
122066,"2214 MONTANA ST","WEST COVINA","CA","91792"
122067,"2214 N AMARADO CT","WICHITA","KS","67205"
122068,"2214 N CHANCE AVE","FRESNO","CA","93703"
122069,"2214 N KING ST","HONOLULU","HI","96819"
122070,"2214 PACIFIC AVE 812","FOREST GROVE","OR","97116"
122071,"2214 PERTH COURT","LOUISVILLE","KY","40216"
122072,"2214 PORT NW","WINTER HAVEN","FL","33881"
122073,"2214 RICHMOND ST","SANTA ANA","CA","92705"
122074,"2214 ROCK HILL ROAD STE 500","HERNDON","VA","20170"
122075,"2214 S FONTANA ST","VISALIA","CA","93277"
122076,"2214 S MILLARD AVENUE","CHICAGO","IL","60623"
122077,"2214 SAINT PAUL AVE","MADISON","WI","53704"
122078,"2214 SAINT STEPHENS ROAD","MOBILE","AL","36603"
122079,"2214 STEFAN DRIVE","DUNN LORING","VA","22027"
122080,"2214 TANGLEVEINE DRIVE","AUSTIN","TX","78748"
122081,"2214 VALLEY RD","EAST PETERSBURG","PA","17520"
122082,"2214-B BARHAMVILLE RD","COLUMBIA","SC","29204"
122083,"22141 CHIPPEWA LANE","GOLDEN","CO","80401"
122084,"22141 LAKE JORDAN LNDG","N DINWIDDIE","VA","23803"
122085,"22142 AMANITA CIR","JENNER","CA","95450"
122086,"22143 E SUN AIRE DR","FLORENCE","AZ","85132"
122087,"22148 AVENUE SAN LUIS","WOODLAND HILLS","CA","91436"
122088,"2214FREDERICK DOUGLASS BLVD STE 276","NEW YORK","NY","10026"
122089,"2215 34TH AVE DR NE","HICKORY","NC","28601"
122090,"2215 560TH ST","NEWELL","IA","50568"
122091,"2215 8TH ST NW","MINOT","ND","58703"
122092,"2215 ATTALA ROAD 1036","KOSCIUSKO","MS","39090"
122093,"2215 AVENIDA LAQUINTA STREET 916","HOUSTON","TX","77077"
122094,"2215 BLACK ROCK TURNPIKE","FAIRFIELD","CT","06825"
122095,"2215 BOONE CT","SNELLVILLE","GA","30078"
122096,"2215 BRANCH HILL STREET","TAMPA","FL","33612"
122097,"2215 BROADWAY","MT. VERNON","IL","62864"
122098,"2215 BURGUNDY ST","NEW ORLEANS","LA","70117"
122099,"2215 CAMBRIDGE BLVD","COLUMBUS","OH","43221"
122100,"2215 CARROLL STREET","OAKLAND","CA","94606"
122101,"2215 CASCADE LAKES CIRCLE SE","GRAND RAPIDS","MI","49546"
122102,"2215 CHAPMAN RD","HYATTSVILLE","MD","20783"
122103,"2215 CLIFFORD AVE SUITE B","ROCHESTER","NY","14609"
122104,"2215 COMSTOCK LN","NAPERVILLE","IL","60564"
122105,"2215 E 1ST ST APT 3","LONG BEACH","CA","90803"
122106,"2215 E TUSCARAWAS","CANTON","OH","44707"
122107,"2215 E YEARGIN DRIVE","FRESNO","CA","93720"
122108,"2215 EAST 23RD STREET","BROOKLYN","NY","11229"
122109,"2215 EDGERTON ROAD","UNIVERSITY HEIGHTS","OH","44118"
122110,"2215 EGYPT PIKE","CHILLICOTHE","OH","45601"
122111,"2215 FULLER ROAD","ANN ARBOR","MI","48105"
122112,"2215 GARLAND LIGHT HALL 510","NASHVILLE","TN","37232"
122113,"2215 GREENHILLS DR","VALRICO","FL","33596"
122114,"2215 GREENRIDGE ROAD APT 209","NORTH CHARLESTON","SC","29406"
122115,"2215 JAMAICA DRIVE","WILMINGTON","DE","19810"
122116,"2215 JOHN STREET","FORT WAYNE","IN","46803"
122117,"2215 KELLY LANE","PFLUGERVILLE","TX","78660"
122118,"2215 LOG HALL RD","RIDGELAND","SC","29936"
122119,"2215 LOGAN AVE","SAN DIEGO","CA","92113"
122120,"2215 MANOR VW","CUMMING","GA","30041"
122121,"2215 MAPLEWOOD AVE","ROYAL OAK","MI","48073"
122122,"2215 MCBRIDE AVE","INDEPENDENCE","MO","64050"
122123,"2215 MISSOURI AVENUE","SAINT CLOUD","FL","34769"
122124,"2215 N MILITARY TRAIL SUITE N","WEST PALM BEACH","FL","33409"
122125,"2215 NEWCOMB AVE","SAN FRANCISCO","CA","94124"
122126,"2215 NORTH BROADWAY SUITE 2","SANTA ANA","CA","92706"
122127,"2215 PACIFIC AVENUE","TACOMA","WA","98402"
122128,"2215 PAMELA ST","GASTONIA","NC","28054"
122129,"2215 PARK AVE APT 2A","CINCINNATI","OH","45206"
122130,"2215 PERRY STREET NE","WASHINGTON","DC","20018"
122131,"2215 PLANK ROAD   281","FREDERICKSBURG","VA","22401"
122132,"2215 PLANK ROAD PMB 206","FREDERICKSBURG","VA","22401"
122133,"2215 S CAMPUS DRIVE","KEARNEY","MO","64060"
122134,"2215 SANDERS ROAD SUITE 360","NORTHBROOK","IL","60062"
122135,"2215 SANTA FE COURT","FAIRFIELD","CA","94533"
122136,"2215 SOUTH 8TH AVENUE","YUMA","AZ","85364"
122137,"2215 SPYGLASS DRIVE","BRENTWOOD","CA","94513"
122138,"2215 STELLA ST","FORT MYERS","FL","33901"
122139,"2215 STOLTZ HILL ROAD","LEBANON","OR","97355"
122140,"2215 SWEETBRIAR LANE","CINCINNATI","OH","45239"
122141,"2215 TIMBER TRAIL","PLAINFIELD","IL","60586"
122142,"2215 W 190TH STREET","TORRANCE","CA","90504"
122143,"2215 W 1ST ST","SANFORD","FL","32771"
122144,"2215 W DAVIS DR","WICHITA","KS","67217"
122145,"2215 W LUNA CIR","ST GEORGE","UT","84770"
122146,"2215 W WILLOW KNOLLS DR APT 203B","PEORIA","IL","61614"
122147,"2215 WACKER ROAD","SAVANNA","IL","61074"
122148,"2215 WEST LOVERS ALNE","DALLAS","TX","75235"
122149,"2215 WINTERLOCHEN ROAD","FAYETTEVILLE","NC","28305"
122150,"2215 WOODLAWN DRIVE","HUDSON","NC","28638"
122151,"2215 WOODWAY HILL DR APT 2033","MATTHEWS","NC","28297"
122152,"2215 WYNKOOP DRIVE","COLORADO SPRINGS","CO","80909"
122153,"22151 KENOSHA STREET","OAK PARK","MI","48237"
122154,"22155 S 104TH AVE","FRANKFORT","IL","60423"
122155,"22155 WILDWOOD PARK RD APT 1036","RICHMOND","TX","77469"
122156,"22157 TWYCKINGHAM WAY","SOUTHFIELD","MI","48034"
122157,"2216 12TH STREET NW","WASHINGTON","DC","20009"
122158,"2216 13TH AVE S","SEATTLE","WA","98144"
122159,"2216 ADAMS BLVD","SAGINAW","MI","48602"
122160,"2216 ARBOR CIRCLE APARTMENT 3","DOWNERS GROVE","IL","60515"
122161,"2216 BALL STREET","GALVESTON","TX","77550"
122162,"2216 BRANBURY LANE","TALLAHASSEE","FL","32308"
122163,"2216 BRIDLE PATH DR","LANCASTER","TX","75146"
122164,"2216 CONSTANCE STREET","NEW ORLEANS","LA","70130"
122165,"2216 CORAL REEF COURT","FORT LAUDERDALE","FL","33312"
122166,"2216 CORONADO PL","ORANGE","TX","77630"
122167,"2216 CYPRESS CREEK RD","PINELAND","SC","29934"
122168,"2216 E SOFT WIND DR","PHOENIX","AZ","85024"
122169,"2216 EAST 38TH STREET","MINNEAPOLIS","MN","55407"
122170,"2216 FM 21","PITTSBURG","TX","75686"
122171,"2216 GEORGIAN DR","GEORGETOWN","TX","78626"
122172,"2216 GLENBROOK DR","COLUMBUS","OH","43232"
122173,"2216 GORMAN AVE","WACO","TX","76707"
122174,"2216 HOOKS LN","FORT WORTH","TX","76112"
122175,"2216 JENNY DRIVE","FAIRBURN","GA","30213"
122176,"2216 JENSEN AVE","SANGER","CA","93657"
122177,"2216 LONG RIDGE RD","CHESAPEAKE","VA","23322"
122178,"2216 MAGAZINE STREET","NEW ORLEANS","LA","70130"
122179,"2216 N BLANCHARD STREET","DAVENPORT","IA","52804"
122180,"2216 N HWY 81","DUNCAN","OK","73533"
122181,"2216 N RIVER HILLS RD UNIT C","AUSTIN","TX","78733"
122182,"2216 NIXON RD","GREEN COVE SPRING","FL","32043"
122183,"2216 O ST APT 7","SACRAMENTO","CA","95816"
122184,"2216 PARKVIEW PLACE","SOUTH BEND","IN","46616"
122185,"2216 PINE AVE","CHEYENNE","WY","82007"
122186,"2216 RAGEN STREET","WOODLAND","CA","95776"
122187,"2216 ROAD 6800","BRUNING","NE","68322"
122188,"2216 S HARRISON ST","FORT WAYNE","IN","46802"
122189,"2216 SAVANNAH HILLS DRIVE","MATTHEWS","NC","28105"
122190,"2216 SHORE ROAD","NORTHFIELD","NJ","08225"
122191,"2216 SOUTH ST","PHILADELPHIA","PA","19146"
122192,"2216 STONEHILL RD","JEFFERSON CITY","MO","65101"
122193,"2216 SW SUNCATCHER RD","LEES SUMMIT","MO","64082"
122194,"2216 W 30TH STREET","LOS ANGELES","CA","90018"
122195,"2216 WEST MAIN STREET","DOTHAN","AL","36301"
122196,"22160 SOUTH PRESERVATION DR","MILLSBORO","DE","19966"
122197,"22160 SW 110TH PLACE","MIAMI","FL","33170"
122198,"22160 SWITZER ROAD","DEFIANCE","OH","43512"
122199,"22161 NEW UNDERWOOD ROAD","NEW UNDERWOOD","SD","57761"
122200,"22161 ROSEMARY ROAD","FRANKFORT","IL","60423"
122201,"22165 DEBRA STREET","LAKE FOREST","CA","92630"
122202,"22166 COUNTRY VIEW LN","HEMPSTEAD","TX","77445"
122203,"2217 11TH AVE","FOREST GROVE","OR","97116"
122204,"2217 235TH CT NE","SAMMAMISH","WA","98074"
122205,"2217 52ND STREET","KENOSHA","WI","53140"
122206,"2217 ALISA LN","TROPHY CLUB","TX","76262"
122207,"2217 ALTA AVENUE","LOUISVILLE","KY","40205"
122208,"2217 BAYWATER AVE","NORTH LAS VEGAS","NV","89084"
122209,"2217 BLUE RIDGE LANE","CONYERS","GA","30012"
122210,"2217 BOOKER AVENUE","CHARLOTTE","NC","28216"
122211,"2217 BREAKWATER DRIVE","KNOXVILLE","TN","37922"
122212,"2217 CLOYD BLVD","FLORENCE","AL","35630"
122213,"2217 CR 2200 EAST","ST JOSEPH","IL","61873"
122214,"2217 E CRESCENT DR","SEATTLE","WA","98112"
122215,"2217 E SKELLY DRIVE","TULSA","OK","74105"
122216,"2217 ENCINO DRIVE","FLORISSANT","MO","63031"
122217,"2217 JUANITA DR","NEW SMYRNA BEACH","FL","32168"
122218,"2217 KAITLINS CT","ELLICOTT CITY","MD","21043"
122219,"2217 LAKESIDE DR UNIT B","BANNOCKBURN","IL","60015"
122220,"2217 LEXA DR","SAINT LOUIS","MO","63136"
122221,"2217 LORRAINE CT","SAVANNAH","GA","31404"
122222,"2217 MATTHEWS TOWNSHIP PKWY STED223","MATTHEWS","NC","28105"
122223,"2217 MATTHEWS TSP PKY D 112","MATTHEWS","NC","28105"
122224,"2217 MILTON PL","MILTON","GA","30004"
122225,"2217 MONAGHAN DR","TALLAHASSEE","FL","32309"
122226,"2217 N KELLETT AVENUE","SPRINGFIELD","MO","65803"
122227,"2217 N POWER RD  2029","MESA","AZ","85215"
122228,"2217 NICHOLS ROAD B","ARLINGTON HEIGHTS","IL","60004"
122229,"2217 OBSERVATORY   AVE","LOS ANGELES","CA","90027"
122230,"2217 OLD HIGHWAY 26","RAGLAND","AL","35131"
122231,"2217 ONION CREEK PKWY UNIT 105","AUSTIN","TX","78747"
122232,"2217 PEAR ORCHARD DRIVE","LITTLE ROCK","AR","72211"
122233,"2217 PINE STREET","BILLINGS","MT","59101"
122234,"2217 RED HAWK LN","EULESS","TX","76039"
122235,"2217 RED MAPLE CIR","PARKER","CO","80138"
122236,"2217 ROSS AVE","HOOVER","AL","35226"
122237,"2217 SALEM DR W","BEAUFORT","SC","29902"
122238,"2217 SALU ST","ALTON","IL","62002"
122239,"2217 SHANNON COURT","DARIEN","IL","60561"
122240,"2217 SHANNON CT","DARIEN","IL","60561"
122241,"2217 SOUTH 113TH WEST COURT","SAPULPA","OK","74066"
122242,"2217 SUMMERFIELD LANE","SEVIERVILLE","TN","37876"
122243,"2217 SW 58TH WAY","WEST PARK","FL","33023"
122244,"2217 SWEET BAY DRIVE UNIT A","GREENVILLE","NC","27834"
122245,"2217 SWEETBRIAR DR","BLOOMINGTON","IN","47401"
122246,"2217 W BRAKER LANE","AUSTIN","TX","78758"
122247,"2217 WESTFIELD AVENUE","BALTIMORE","MD","21214"
122248,"2217 WOODBINE AVENUE","PORTAGE","MI","49002"
122249,"22172 ORO BLANCO","MISSION VIEJO","CA","92691"
122250,"22175 COUNTY HIGHWAY O","CADOTT","WI","54727"
122251,"22175 SW 194 AVE","MIAMI","FM","33170"
122252,"2218 16TH AVENUE NORTH","FORT DODGE","IA","50501"
122253,"2218 239TH PL NE","SAMMAMISH","WA","98074"
122254,"2218 9TH AVE N","GREAT FALLS","MT","59401"
122255,"2218 AUBURN DR","KATY","TX","77493"
122256,"2218 BOND FERRY ROAD","BROWNSVILLE","TN","38012"
122257,"2218 BROADWAY SUITE 217","NEW YORK","NY","10024"
122258,"2218 BROOKMEADE DRIVE","QUINCY","IL","62301"
122259,"2218 CANYON LAKE DRIVE","DEER PARK","TX","77536"
122260,"2218 CASA LOMA ST","NEEDLES","CA","92363"
122261,"2218 CHERRY HILL LANE","MCKINNEY","TX","75070"
122262,"2218 CHESTNUT ST","OAKLAND","CA","94607"
122263,"2218 COBBLEFIELD CIRCLE","APOPPKA","FL","32703"
122264,"2218 CRAMER ROAD","BUSHKILL","PA","18324"
122265,"2218 CYPRESS LANDING DRIVE","ATLANTIC BEACH","FL","32233"
122266,"2218 E 2400TH ST","CAMP POINT","IL","62320"
122267,"2218 E ALONDRA BLVD","COMPTON","CA","90221"
122268,"2218 ERIE ST","BELLINGHAM","WA","98229"
122269,"2218 FAWN MIST LANE","SA","TX","78248"
122270,"2218 GEORGES LANE","PHILADELPHIA","PA","19131"
122271,"2218 HIDDEN CREEK DRIVE","KINGWOOD","TX","77339"
122272,"2218 LANGE STREET","KISSIMMEE","FL","34744"
122273,"2218 LIME ST SUITE A2","HONOLULU","HI","96826"
122274,"2218 MAKIN DR","LIMA","OH","45804"
122275,"2218 MAUDEST PL","ANCHORAGE","AK","99508"
122276,"2218 MAYFAIR ROAD","GOLDEN VALLEY","MN","55427"
122277,"2218 MELROSE ST","TACOMA","WA","98405"
122278,"2218 MLK AVE E","BRADENTON","FL","34208"
122279,"2218 NEWTON STREET NE","WASHINGTON","DC","20018"
122280,"2218 NORTH HARMONY DRIVE","JANESVILLE","WI","53545"
122281,"2218 NW 142ND AVE","GAINESVILLE","FL","32609"
122282,"2218 NW 82 AVE","DORAL","FL","33122"
122283,"2218 NW ASHLAND PRKWAY","ANKENY","IA","50023"
122284,"2218 RIDGEWAY STREET","ARDMORE","OK","73401"
122285,"2218 ROSEWOOD AVE","RICHMOND","VA","23220"
122286,"2218 S 14TH ST","ABILENE","TX","79605"
122287,"2218 SAN GABRIEL BLVD 11K","ROSEMEAD","CA","91770"
122288,"2218 SHADED BROOK DRIVE","OWINGS MILLS","MD","21117"
122289,"2218 TURTLE CREEK DR","MISSOURI CITY","TX","77459"
122290,"2218 W GREENLEAF DR","FREDERICK","MD","21702"
122291,"2218 W LAKE SAMMAMISH PKWY SE","BELLEVUE","WA","98008"
122292,"2218 W MAIN A","TUPELO","MS","38801"
122293,"2218 WEST THOROUGHBRED DR","LANCASTER","TX","75146"
122294,"2218 WILBUR RD","SPRINGFIELD","IL","62707"
122295,"22180 KENOSHA STREET","OAK PARK","MI","48237"
122296,"22185 BEAR CREEK RD","BEND","OR","97701"
122297,"2219 1/2 COLORADO BLVD","LOS ANGELES","CA","90041"
122298,"2219 39TH AVE","SAN FRANCISCO","CA","94112"
122299,"2219 BAINBRIDGE ST","LA CROSSE","WI","54603"
122300,"2219 BOOTH ST","SIMI VALLEY","CA","93065"
122301,"2219 CEDAR LANE","SHEPHERDSTOWN","WV","25443"
122302,"2219 CHASE DR","FARIBAULT","MN","55021"
122303,"2219 CROMPOND ROAD","YORKTOWN HEIGHTS","NY","10598"
122304,"2219 DOWNEND STREET","COLORADO SPRINGS","CO","80910"
122305,"2219 E MARCIA STREET","INVERNESS","FL","34453"
122306,"2219 GALVESTON STREET","LAREDO","TX","78043"
122307,"2219 GERRITT STREET","PHILADELPHIA","PA","19146"
122308,"2219 GINTER STREET","HENRICO","VA","23228"
122309,"2219 GLADE FARMS ROAD","BRUCETON MILLS","WV","26525"
122310,"2219 GREENHOUSE RD APT 1301","HOUSTON","TX","77084"
122311,"2219 HACKETT AVENUE","EASTON","PA","18045"
122312,"2219 LAMANCHE STREET","NEW OLEANS","LA","70117"
122313,"2219 MAIN ST UNIT 196","SANTA MONICA","CA","90405"
122314,"2219 MAIN ST UNIT 413","SANTA MONICA","CA","90405"
122315,"2219 MAIN STREET  STE 1200","SANTA MONICA","CA","90405"
122316,"2219 MAPLE AVE APT R2","EVANSTON","IL","60201"
122317,"2219 MECKLENBURG  AVE","CHARLOTTE","NC","28205"
122318,"2219 MECKLENBURG AVENUE","CHARLOTTE",NA,"28205"
122319,"2219 NEWBURY DRIVE","ARLINGTON","TX","76014"
122320,"2219 NORTH 5TH STREET","HARRISBURG","PA","17110"
122321,"2219 NW 6TH STREET","FORT LAUDERDALE","FL","33311"
122322,"2219 NW BAYBERRY LN","ANKENY","IA","50023"
122323,"2219 OAKLAND AVE SOUTH STE 208","MINNEAPOLIS","MN","55404"
122324,"2219 OAKLAND AVENUE SOUTH 106","MINNEAPOLIS","MN","55404"
122325,"2219 PEACHTREE STREET","GEORGETOWN","SC","29440"
122326,"2219 PLANK ROAD","BATON ROUGE","LA","70802"
122327,"2219 PRATT","OMAHA","NE","68110"
122328,"2219 PROSPERITY WAY","SAN LEANDRO","CA","94578"
122329,"2219 SAWDUST RD STE 901","THE WOODLANDS","TX","77380"
122330,"2219 SAWDUST ROAD SUITE 101","SPRING","TX","77380"
122331,"2219 SENIOR DRIVE","CHARLOTTE","NC","28216"
122332,"2219 SPLENDOR CT","ARLINGTON","TX","76010"
122333,"2219 THISTLEDAWN DRIVE","LOUISVILLE","KY","40216"
122334,"2219 THURMAN AVENUE","LOS ANGELES","CA","90016"
122335,"2219 VERONA","PEARLAND","TX","77581"
122336,"2219 WILLOWBROOK DRIVE","CLEARWATER","FL","33764"
122337,"22190 KAREN LANE","CAPE CHARLES","VA","23310"
122338,"22194 SW 58TH AVE","BOCA RATON","FL","33428"
122339,"22198 MOUNTAIN VISTA LN","TRINIDAD","CO","81082"
122340,"22198 POT HOUSE ROAD","MIDDLEBURG","VA","20117"
122341,"22199 PEACEFUL VALLEY DRIVE","SAINT MARY","MO","63673"
122342,"221B WEST 5TH AVE","HUTCHINSON","KS","67501"
122343,"222 1/2 N BROAD ST","GROVE CITY","PA","16127"
122344,"222 12TH STREET NE SUITE 1803","ATLANTA","GA","30309"
122345,"222 14TH STREET","ATLANTA","GA","30309"
122346,"222 2ND AVE N STE 360M","NASHVILLE","TN","37201"
122347,"222 3RD ST SW","WILLMAR","MN","56201"
122348,"222 5TH AVENUE WEST","CRESCO","IA","52136"
122349,"222 6TH AVENUE","VENICE","CA","90291"
122350,"222 6TH STREET","NIAGARA FALLS","NY","14303"
122351,"222 8TH AVE 304","SAN MATEO","CA","94401"
122352,"222 8TH AVE","NEW YORK","NY","10011"
122353,"222 ADAH STREET","HUNTSVILLE","MO","65259"
122354,"222 ALFA ROAD","NORTH LITTLE ROCK","AR","72117"
122355,"222 APALACHEE WAY","BOSSIER CITY","LA","71111"
122356,"222 AURORA ST","DELMONT","PA","15626"
122357,"222 AVENIDA DE LA VEREDA","OJAI","CA","93023"
122358,"222 AZALEA ST","FILLMORE","CA","93015"
122359,"222 BALTIMORE ST","FAIRMONT","WV","26554"
122360,"222 BARBERRY LANE","TONEY","AL","35773"
122361,"222 BENNETT AVE","LONG BEACH","CA","90803"
122362,"222 BLACK ROCK RD","HOUSTON","TX","77015"
122363,"222 BRITTANY CIRCLE","RICHMOND","KY","40475"
122364,"222 BROAD STREET 405","JELLICO","TN","37762"
122365,"222 BROOKFIELD ROAD","AVON LAKE","OH","44012"
122366,"222 BROWN INDUSTRIAL PKWY SUITE 102","CANTON","GA","30114"
122367,"222 BRYANT AVENUE","GLEN ELLYN","IL","60137"
122368,"222 CAMERON ST","SUMMERVILLE","SC","29486"
122369,"222 CAPITOL STREET STE 404","CHARLESTON","WV","25301"
122370,"222 CEDAR STREET","MANCHESTER","NH","03103"
122371,"222 CENTER AVE","OAKLEY","KS","67748"
122372,"222 CENTER STREET","FINDLAY","OH","45840"
122373,"222 CHAMPION ST","HAYSVILLE","KS","67060"
122374,"222 CLIFF DRIVE","SILVIS","IL","61282"
122375,"222 COLONIAL HOMES DRIVE UNIT 2313","ATLANTA","GA","30309"
122376,"222 COLONIAL HOMES DRIVE UNIT 2506","ATLANTA","GA","30309"
122377,"222 COLUMBUS AVE STE 213","SAN FRANCISCO","CA","94133"
122378,"222 D STREET STE 9A","DAVIS","CA","95616"
122379,"222 D STREET SUITE 9B","DAVIS","CA","95616"
122380,"222 DAVENPORT STREET ATTN BASEBALL","SOMERVILLE","NJ","08876"
122381,"222 DAY BREAK DR","KERNERSVILLE","NC","27284"
122382,"222 DEE STREET","FAIRMONT","WV","26554"
122383,"222 DEER VIEW","SANFORD","NC","27332"
122384,"222 DEERFIELD CIRCLE","MOUNT AIRY","GA","30563"
122385,"222 DOGWOOD HILLS DRIVE","MOUNT JULIET","TN","37122"
122386,"222 DRAYMORE WAY","CARY","NC","27519"
122387,"222 DRURY LANE","MAULDIN","SC","29662"
122388,"222 E  RANDOLPH PLACE","LONG BEACH","CA","90807"
122389,"222 E 15TH STREET","JUNCTION CITY","KS","66441"
122390,"222 E 89TH STREET APT 8","NEW YORK","NY","10128"
122391,"222 E 95 STREET APT 17","NEW YORK","NY","10128"
122392,"222 E 9TH ST","OWENSBORO","KY","42303"
122393,"222 E BLAND ST UNIT 229","CHARLOTTE","NC","28203"
122394,"222 E COLLEGE AVE","APPLETON","WI","54911"
122395,"222 E EUFAULA ST SUITE 240","NORMAN","OK","73069"
122396,"222 E LAS TUNAS DRIVE","SAN GABRIEL","CA","91776"
122397,"222 E MADISON","DERBY","KS","67037"
122398,"222 E MCKINNEY ST SUITE 100","DENTON","TX","76207"
122399,"222 E MCKINNEY STE 100","DENTON","TX","76201"
122400,"222 E NINE MILE RD","FERNDALE","MI","48220"
122401,"222 E NORTH HILL DR","SPRING","TX","77373"
122402,"222 E POMONA ST","SANTA ANA","CA","92707"
122403,"222 E WASHINGTON","NAPOLEON","OH","43545"
122404,"222 EAGLE RUN DRIVE","VALDOSTA","GA","31602"
122405,"222 EAGLES WAY","WASHINGTON CH","OH","43160"
122406,"222 EAST 104TH STREET APT 1002","NEW YORK","NY","10029"
122407,"222 EAST 37TH STREET","HOUSTON","TX","77018"
122408,"222 EAST 37TH STREET","SAVANNAH","GA","31401"
122409,"222 EAST 93RD STREET APT 21H","NEW YORK","NY","10128"
122410,"222 EAST 9TH STREET","LOCKPORT","IL","60441"
122411,"222 EAST BLAND ST  UNIT 356","CHARLOTTE","NC","28203"
122412,"222 EAST CAPITOL AVENUE","PIERRE","SD","57105"
122413,"222 EAST STREET","BOONE","IA","50036"
122414,"222 ECHELON ROAD SUITE 2","VOORHEES","NY","08043"
122415,"222 FALLING WATER RD","SPRING LAKE","NC","28390"
122416,"222 FAYETTE STREET NO 40","PALMYRA","NY","14522"
122417,"222 FERNCLIFF ROAD","FAIRFIELD","CT","06825"
122418,"222 FIRST AVENUE W SUITE 100","ALBANY","OR","97321"
122419,"222 FIRST STREET SUITE 1002","NIAGARA FALLS","NY","14303"
122420,"222 FIRST STREET","PLATTE CENTER","NE","68653"
122421,"222 FOREST LANE","MONTELLO","WI","53949"
122422,"222 GILBERT ST","CASTLE ROCK","CO","80104"
122423,"222 GRAND AVE W","SOUTH ST PAUL","MN","55075"
122424,"222 GROVE RD","CINCINNATI","OH","45215"
122425,"222 HENNEPIN AVENUE SUITE 501","MINNEAPOLIS","MN","55401"
122426,"222 HERMOSA LN","EL PASO","TX","79922"
122427,"222 HICKORY LANE","SAYLORSBURG","PA","18353"
122428,"222 HICKORY STREET","SAINT MARYS","OH","45885"
122429,"222 J ST 410","SAN DIEGO","CA","92101"
122430,"222 KAREN AVE UNIT 3305","LAS VEGAS","NV","89109"
122431,"222 KAREN AVENUE- 2101","LAS VEGAS","NV","89109"
122432,"222 KELLEY ROAD","GLENBURN","ME","04401"
122433,"222 KESWICK AVENUE","GLENSIDE","PA","19038"
122434,"222 KYSER BLVD APT 198","MADISON","AL","35758"
122435,"222 LANIUS STREET","GAINESVILLE","TX","76240"
122436,"222 LAS COLINAS BLVD W STE 1650","IRVING","TX","75039"
122437,"222 LESLIE RD","VALENCIA","PA","16059"
122438,"222 LESLIE","LANSING","MI","48912"
122439,"222 LILIUOKALANI AVENUE 303","HONOLULU","HI","96815"
122440,"222 LINCOLN AVENUE","SALINAS","CA","93901"
122441,"222 LODGES LANE STE 108","LAKE WYLIS","SC","29710"
122442,"222 LONDONBERRY DR","ANDERSON","SC","29621"
122443,"222 LONESOME DOVE TRAIL","BLUE RIDGE","GA","30513"
122444,"222 LONGMEADOW DR","NEWPORT NEWS","VA","23601"
122445,"222 M STREET SW APT 221","WASHINGTON","DC","20024"
122446,"222 MADISON ST UNIT 5","HOBOKEN","NJ","07030"
122447,"222 MAIDEN LANE","FAYETTEVILLE","NC","28301"
122448,"222 MAIN STREET SUITE 500","SALT LAKE CITY","UT","84101"
122449,"222 MAIN STREET","RIDGEWAY","WI","53582"
122450,"222 MAIN STREET","SALINAS","CA","93901"
122451,"222 MALLARD AVENUE","IOWA FALLS","IA","50126"
122452,"222 MARKET AVENUE N","CANTON","OH","44702"
122453,"222 MASON CREEK DR APT 637","KATY","TX","77450"
122454,"222 MAYO ST","LAFAYETTE","LA","70501"
122455,"222 MCTIGUE DR","TOLEDO","OH","43615"
122456,"222 MERCHANDISE MART PLAZA 1230","CHICAGO","IL","60654"
122457,"222 MERCHANDISE MART PLAZA STE 1212","CHICAGO","IL","60647"
122458,"222 MERCHANDISE MART PLAZA STE 1212","CHICAGO","IL","60654"
122459,"222 MERCHANDISE MART PLAZA STE 400","CHICAGO","IL","60654"
122460,"222 MERCHANDISE MART PLAZA","CHICAGO","IL","60654"
122461,"222 MESCALERO RD NW APT C","ALBUQUERQUE","NM","87107"
122462,"222 MINERVA AVE","GLENWOOD","IL","60425"
122463,"222 MOHAWK TR","WILMINGTON","NC","28409"
122464,"222 MOHEGAN WAY","FORT LEE","NJ","07024"
122465,"222 MONTEREY RD UNIT 702","GLENDALE","CA","91206"
122466,"222 MOUNT HARMONY CHURCH ROAD","RUSTON","LA","71270"
122467,"222 MOUNT ZION CHURCH ROAD","THOMASVILLE","NC","27360"
122468,"222 N 1200 W  UNIT 101","OREM","UT","84057"
122469,"222 N ALASKA","BUTTE","MT","59701"
122470,"222 N CENTER ST","BONHAM","TX","75418"
122471,"222 N CHAUNCEY AV","WEST LAFAYETTE","IN","47906"
122472,"222 N COLLINS RD","SUNNYVALE","TX","75182"
122473,"222 N COLUMBUS APT 3809","CHICAGO","IL","60601"
122474,"222 N COUNTY STEET","WAUKEGAN","IL","60085"
122475,"222 N FEDERAL HIGHWAY SUITE 104","DANIA BEACH","FL","33004"
122476,"222 N FRONT STREET","OKABENA","MN","56161"
122477,"222 N GRAHAM AVE","WINSTON-SALEM","NC","27101"
122478,"222 N LAMON","CHICAGO","IL","60644"
122479,"222 N LASALLE ST SUITE 1400","CHICAGO","IL","60601"
122480,"222 N LASALLE STREET SUITE 1700","CHICAGO","IL","60601"
122481,"222 N MARION ST APT 2H","OAK PARK","IL","60302"
122482,"222 N PACIFIC COAST HIGHWAY","EL SEGUNDO","CA","90245"
122483,"222 N SEPULVEDA BLVD SUITE 2000","EL SEGUNDO","CA","90245"
122484,"222 N SINGINGWOOD ST STE 4","ORANGE","CA","92869"
122485,"222 N SPRING AVE","SIOUX FALLS","SD","57104"
122486,"222 N VERSHIRE CIR","MAGNOLIA","TX","77354"
122487,"222 NAVAJO COURT","JUNCTION CITY","KS","66441"
122488,"222 NE 17TH ST","DELRAY BEACH","FL","33444"
122489,"222 NE 25TH ST SUITE 603","MIAMI","FL","33137"
122490,"222 NEPONSET VALLEY PKWY","BOSTON","MA","02136"
122491,"222 NOB HILL","DOVER","DE","19901"
122492,"222 NORTH 17TH STREET","PHILADELPHIA","PA","19103"
122493,"222 NORTH 3RD ST PO BOX 1706","IMMOKALEE","FL","34142"
122494,"222 NORTH CANAL STREET","DELPHOS","OH","45833"
122495,"222 NORTH CHURCH STREET/APT 408","WEST CHESTER","PA","19380"
122496,"222 NORTH COLUMBUS DRIVE APT 1507","CHICAGO","IL","60601"
122497,"222 NORTH HIGGINS AVENUE","MISSOULA","MT","59802"
122498,"222 NORTH LASALLE STREET SUITE 2400","CHICAGO","IL","60601"
122499,"222 NORTH MAIN STREET","CLYDE","OH","43410"
122500,"222 NORTH SEPULVEDA BLVD SUITE 2000","EL SEGUNDO","CA","90245"
