"ID","Address","City","State","Zip"
298001,"8200 TATTANT BLVD","WINDERMERE","FL","34786"
298002,"8200 TAYLOR ROAD","REYNOLDSBURG","OH","43068"
298003,"8200 W 33RD AVE STE 8","HIALEAH","FL","33018"
298004,"8200 W 33RD AVE STE 8","MIAMI","FL","33018"
298005,"8200 W FM 1431","GRANITE SHOALS","TX","78654"
298006,"8200 WEST SAHARA AVENUE","LAS VEGAS","NV","89117"
298007,"8200 WESTERN LAKES DRIVE","FORT WORTH","TX","76179"
298008,"8200 WILSHIRE BLVD STE 300","BEVERLY HILLS","CA","90211"
298009,"8200 WILSHIRE BLVD SUITE 400","BEVERLY HILLS","CA","90212"
298010,"8201 164TH AVE NE STE 200","REDMOND","WA","98052"
298011,"8201 164TH AVE NE SUITE 200","REDMOND","WA","98052"
298012,"8201 164TH AVENUE NE SUITE 200","REDMOND","WA","98052"
298013,"8201 3RD STREET ROAD","LOUISVILLE","KY","40214"
298014,"8201 4TH ST SUITE J","DOWNEY","CA","90241"
298015,"8201 CANTRELL RD SUITE 240","LITTLE ROCK","AR","72227"
298016,"8201 EAST SENECA TPKE","MANLIUS","NY","13104"
298017,"8201 GOLF COURSE RD NW  D-3","ALBUQUERQUE","NM","87120"
298018,"8201 GREENSBORO DRIVE SUITE 300","TYSONS CORNER","VA","22102"
298019,"8201 HARDING AVE STE 7","MIAMI BEACH","FL","33141"
298020,"8201 HARFORD ROAD UNIT 8417","PARKVILLE","MD","21234"
298021,"8201 JEFFERSON DAVIS HWY","FREDERICKSBURG","VA","22407"
298022,"8201 KELLWOOD AVENUE","BATON ROUGE","LA","70806"
298023,"8201 LAKE TERRACE DRIVE","EVANSVILLE","IN","47715"
298024,"8201 LYNNEWOOD GLEN DRIVE","CHARLOTTE","NC","28269"
298025,"8201 MESSENGER CT","STOKESDALE","NC","27357"
298026,"8201 N HARTS MILL LN","BATON ROUGE","LA","70808"
298027,"8201 NEW CASTLE ST","BAKERSFIELD","CA","93311"
298028,"8201 NW 104TH ST","OKLAHOMA CITY","OK","73162"
298029,"8201 NW 48TH ST","LAUDERHILL","FL","33351"
298030,"8201 PARK AVE S SUITE136","BLOOMINGTON","MN","55420"
298031,"8201 PARK AVE S","BLOOMINGTON","MN","55420"
298032,"8201 PARK CREST DRIVE","DARIEN","IL","60561"
298033,"8201 PETERS ROAD SUITE 1000","PLANTATION","FL","33324"
298034,"8201 PETERS ROAD SUITE 4000","FORT LAUDERDALE","FL","33324"
298035,"8201 PETERS ROAD","PLANTATION","FL","33324"
298036,"8201 PETTIBONE ROAD","CHAGRIN FALLS","OH","44023"
298037,"8201 PRINCE WALES CT","PLANO","TX","75025"
298038,"8201 S 154TH AVE","OMAHA","NE","68138"
298039,"8201 S 270 E","SANDY","UT","84070"
298040,"8201 SOUTH SANTA FE DRIVE LOT 266","LITTLETON","CO","80120"
298041,"8201 STALLION ST","DENTON","TX","76208"
298042,"8201 SW 142ND AVENUE","MIAMI","FL","33183"
298043,"8201 W OLIVE AVE UNIT 1030","PEORIA","AZ","85345"
298044,"8201 WESTMINSTER BL  STE 202","WESTMINSTER","CA","92683"
298045,"8201 WILLOW LAKE CT","CHARLOTTE","NC","28227"
298046,"8201 WILLOWLAKE COURT","CHARLOTTE","NC","28227"
298047,"8202 47TH COURT","KENOSHA","IN","53142"
298048,"8202 CREEKSIDE TIMBERS","TOMBALL","TX","77375"
298049,"8202 DAHLIA ST","HENDERSON","CO","80641"
298050,"8202 HWY ZZ","MOUNTAIN GROVE","MO","65711"
298051,"8202 KENTALLEN COURT","INDIANAPOLIS","IN","46236"
298052,"8202 MAPLE GROVE LN","BAKERSFIELD","CA","93312"
298053,"8202 METCALF","SAN ANTONIO","TX","78239"
298054,"8202 NORTHCOURT RD","HOUSTON","TX","77040"
298055,"8202 NW 128TH LN","PARKLAND","FL","33076"
298056,"8202 NW 14 ST","DORAL","FL","33126"
298057,"8202 RICHPINE DR","MURFREESBORO","TN","37128"
298058,"8202 RIPPLE RIDGE","DARIEN","IL","60561"
298059,"8202 RUNNING SPRING CIRCLE","SEVERN","MD","21144"
298060,"8202 SANDYWOOD DR","SANFORD","FL","32771"
298061,"8202 WALTHAM RD","NORTH CHARLESTON","SC","29406"
298062,"8202 WESTCHESTER LANE NE","ATLANTA","GA","30345"
298063,"8202 WHIRLAWAY ELM DR","HUMBLE","TX","77346"
298064,"8202 WOODSIDE ROAD","ROWLETT","TX","75088"
298065,"8203 BLUE JAY WAY","WEST WINDSOR","NJ","08550"
298066,"8203 EAST 249TH STREET","ARCADIA","IN","46030"
298067,"8203 GLENCREST","HOUSTON","TX","77061"
298068,"8203 HAMPTON OAK COURT","MCLEAN","VA","22102"
298069,"8203 INDY CT","INDIANAPOLIS","IN","46214"
298070,"8203 LAUREL GROVE COURT","LOUISVILLE","KY","40228"
298071,"8203 LAURELGROVE AVENUE","NORTH HOLLYWOOD","CA","91605"
298072,"8203 PINEWOOD RUN CT","TAMPA","FL","33647"
298073,"8203 PLANTERS KNOLL TERRACE","UNIVERSITY PARK","FL","34201"
298074,"8203 ROSARYVILLE ROAD","FORT WASHINGTON","MD","20772"
298075,"8203 S WOLCOTT AVENUE","CHICAGO","IL","60620"
298076,"8203 TIMBER CROSS CT","CLINTON","MD","20735"
298077,"8203 WILLOW PLACE DRIVE SOUTH - 520","HOUSTON","TX","77070"
298078,"8204 51ST STREET COURT WEST","UNIVERSITY PLACE","WA","98467"
298079,"8204 BURGESS PLACE","RANCHO CUCAMONGA","CA","91730"
298080,"8204 CANYON FORGE DRIVE","RIVERDALE","GA","30274"
298081,"8204 CASCADE OAKS DR","ORLANDO","FL","32822"
298082,"8204 CASTLEBROOK COURT","INDIANAPOLIS","IN","46256"
298083,"8204 CROWN POINT AVE","OMAHA","NE","68134"
298084,"8204 ELMBROOK DR STE 238","DALLAS","TX","75247"
298085,"8204 ELMBROOK DR SUITE 145","DALLAS","TX","75247"
298086,"8204 ELMBROOK DR SUITE 257","DALLAS","TX","75247"
298087,"8204 ELMBROOK DRIVE SUITE 305D","DALLAS","TX","75247"
298088,"8204 HOMEFIELD WAY","SACRAMENTO","CA","95828"
298089,"8204 MADELINE COURT","RICHMOND","VA","23231"
298090,"8204 WESTGLEN DR STE 713","HOUSTON","TX","77063"
298091,"8205  GOODMAN AVE","CLEVELAND","OH","44105"
298092,"8205 192ND AVE PL E","BONNEY LAKE","WA","98391"
298093,"8205 7TH AVE","BROOKLYN","NY","11228"
298094,"8205 AZALEA DRIVE","DUNWOODY","GA","30338"
298095,"8205 BUCKWOOD RD","NEWALLA","OK","74857"
298096,"8205 CEDAR FALLS DRIVE","WAKE FOREST","NC","27587"
298097,"8205 CHAPMAN HIGHWAY","KNOXVILLE","TN","37920"
298098,"8205 CHEATHAM CT","MCKINNEY","TX","75071"
298099,"8205 ESTERS BLVD","IRVING","TX","75063"
298100,"8205 FM 182","TURNERSVILLE","TX","76528"
298101,"8205 LAPPING BROOK COURT","LAUREL","MD","20723"
298102,"8205 NW 189TH AVENUE","OKEECHOBEE","FL","34972"
298103,"8205 RIVERSPRINGS DRIVE","HURST","TX","76053"
298104,"8205 ROCKDALE AVE","WINDSOR MILL","MD","21244"
298105,"8205 RUNNING CREEK CT","SPRINGFIELD","VA","22153"
298106,"8205 S 132ND AVE","GOODYEAR","AZ","85338"
298107,"8205 S KIMBARK AVE","CHICAGO","IL","60619"
298108,"8205 SAN GAVILAN ST NE","ALBUQUERQUE","NM","87113"
298109,"8205 SOUTH CHAPPEL","CHICAGO","IL","60617"
298110,"8205 STEAMERS LN","FRISCO","TX","75035"
298111,"8205 US HIGHWAY 150 E","STANFORD","KY","40484"
298112,"8205 VINOY BLVD SUITE 306","CHARLOTTE","NC","28262"
298113,"8205 WOODROSE GLEN WAY","TAMPA","FL","33647"
298114,"8206 CALDWELL ROAD","HARRISBURG","NC","28075"
298115,"8206 CHAMPIONS CIRCLE","FRANKLIN","TN","37064"
298116,"8206 DE LONGPRE AVENUE APT 1","WEST HOLLYWOOD","CA","90046"
298117,"8206 DOVE TRAIL","ZUNI","VA","23898"
298118,"8206 DURELEE LANE","DOUGLASVILLE","GA","30134"
298119,"8206 GARDEN ARBOR","GARDEN RIDGE","TX","78266"
298120,"8206 GOLDEN VALLEY RD","GOLDEN VALLEY","MN","55427"
298121,"8206 HOOD DRIVE","RICHMOND","VA","23227"
298122,"8206 ISAAC PRYOR DRIVE","AUSTIN","TX","78749"
298123,"8206 IVY HOLLOW DRIVE","CHARLOTTE","NC","28227"
298124,"8206 LIGHT HORSE COURT","ANNANDALE","VA","22003"
298125,"8206 NW 30 TERRACE","DORAL","FL","33122"
298126,"8206 NW 59 ST","TAMARAC","FL","33321"
298127,"8206 NW POTOMAC AVE","LAKE WEATHERBY","MO","64152"
298128,"8206 OLD SHELBY RD","CONRAD","MT","59425"
298129,"8206 PAUL PL","ROWLETT","TX","75088"
298130,"8206 PHILIPS HWY UNIT 38","JACKSONVILLE","FL","32256"
298131,"8206 RAMBLING ROSE DRIVE","OOLTEWAH","TN","37363"
298132,"8206 ROCKVILLE RD 125","INDIANAPOLIS","IN","46214"
298133,"8206 ROCKVILLE ROAD BOX 205","INDIANAPOLIS","IN","46214"
298134,"8206 ROCKVILLE ROAD NO 279","INDIANAPOLIS","IN","46214"
298135,"8206 ROLLING MEADOWS LANE","HUNTERSVILLE","NC","28078"
298136,"8206 S 45TH LANE","LAVEEN","AZ","85339"
298137,"8206 STOURHEAD GARDENS LANE","WAXHAW","NC","28173"
298138,"8206 WADE PARK AVE","CLEVELAND","OH","44103"
298139,"8206 WINEWOOD COURT","RIVERDALE","GA","30274"
298140,"8207 CALLAGHAN RD STE 150","SAN ANTONIO","TX","78231"
298141,"8207 CASSIA TERRACE","TAMARAC","FL","33311"
298142,"8207 CHELWYNDE AVE","PHILA","PA","19153"
298143,"8207 CLAY COURT","STERLING HEIGHTS","MI","48313"
298144,"8207 GAINES ROAD","SUGARLAND","TN","77498"
298145,"8207 GROVER ST APT 4","OMAHA","NE","68124"
298146,"8207 HOOVER ST","LOS ANGELES","CA","90044"
298147,"8207 MACANDREW PL","CHESTERFIELD","VA","23838"
298148,"8207 MAPLE GROVE LANE","BAKERSFIELD","CA","93312"
298149,"8207 MAPLE RIDGE ROAD","BETHESDA","MD","20814"
298150,"8207 OLD WESTPORT ROAD","LOUISVILLE","KY","40222"
298151,"8207 SNOW ROAD","PARMA","OH","44129"
298152,"8207 WEBSTER AVENUE","KANSAS CITY","KS","66109"
298153,"8208 135TH STREET APT 5M","JAMAICA","NY","11435"
298154,"8208 BRATTLE ROAD","PIKESVILLE","MD","21208"
298155,"8208 CONTINENTAL CT","CHARLESTON","SC","29420"
298156,"8208 COOPER STREET","ALEXANDRIA","VA","22309"
298157,"8208 GREENSHIRE DR","TAMPA","FL","33634"
298158,"8208 HANGAR LOOP DR STE 1","TAMPA","FL","33621"
298159,"8208 HANGAR LOOP DRIVE STE 1","TAMPA","FL","33621"
298160,"8208 HANGAR LOOP DRIVE SUITE 2","TAMPA","FL","33621"
298161,"8208 HARWICH PORT LANE","GIBSONTON","FL","33534"
298162,"8208 S 5TH AVE","PHOENIX","AZ","85041"
298163,"8208 S PERRY","CHICAGO","IL","60620"
298164,"8208 S PLACITA JUAN TABO","TUCSON","AZ","85747"
298165,"8208 STEAMBOAT LANE","TAMPA","FL","33637"
298166,"8208 SUNSET AVE","PANAMA CITY BEACH","FL","32408"
298167,"8208 VIA VERDE DRIVE","AUSTIN","TX","78739"
298168,"82089 HWY 25","FOLSOM","LA","70437"
298169,"8209 88TH ST CT SW","LAKEWOOD","WA","98498"
298170,"8209 CLAY DRIVE","FORT WASHINGTON","MD","20744"
298171,"8209 MARKET STREET SUITE A","WILMINGTON","NC","28411"
298172,"8209 PARK AVE","SHERWOOD","AR","72120"
298173,"8209 WHITEBARK LANE","SEVERN","MD","21144"
298174,"8209 WILLOW BRANCH DRIVE","WAXHAW","NC","28173"
298175,"821 1/2 MAINSTREET","HOPKINS","MN","55343"
298176,"821 1/2 N LINCOLN AVE","POCATELLO","ID","83204"
298177,"821 1/2 NW 52ND STREET","SEATTLE","WA","98107"
298178,"821 10TH ST","TELL CITY","IN","47586"
298179,"821 13TH STREET","HUNTINGTON","WV","25701"
298180,"821 169TH STREET","HAMMOND","IN","46324"
298181,"821 1ST AVENUE SE","MINOT","ND","58701"
298182,"821 3RD AVE SE STE 90 B","ROCHESTER","MN","55904"
298183,"821 9TH AVENUE S","KIRKLAND","WA","98033"
298184,"821 ALHAMBRA","CLEVELAND","OH","44110"
298185,"821 APPLE PIE RIDGE ROAD","WINCHESTER","VA","22603"
298186,"821 ARLINGTON PL","DEL REY OAKS","CA","93940"
298187,"821 ATLANTA STREET","ROSWELL","GA","30075"
298188,"821 BEL AIR CIRCLE","GRIFFIN","GA","30224"
298189,"821 BERKSHIRE AVE","PITTSBURGH","PA","15226"
298190,"821 BETLIN AVENUE","CUPERTINO","CA","95014"
298191,"821 BREWSTER STREET","PIKE ROAD","AL","36064"
298192,"821 BUBB ROAD","CUPERTINO","CA","95014"
298193,"821 BUCKINGHAM CIR","HARTLAND","WI","53029"
298194,"821 CLARK AVE","NEW BERN","NC","28560"
298195,"821 CLEVELAND AVENUE","ELIZABETH","NJ","07208"
298196,"821 CRYSTAL ST","AMES","IA","50010"
298197,"821 DAWSONVILLE HWY SUITE 250-121","GAINESVILLE","GA","30501"
298198,"821 E 2ND ST STE 201A","BENICIA","CA","94510"
298199,"821 E 7TH ST","MOLALLA","OR","97038"
298200,"821 E MAIN STREET","GENTRY","AR","72734"
298201,"821 E MAIN STRRET","RICHMOND","IN","47374"
298202,"821 EAST DESERT PARK LANE","PHOENIX","AZ","85020"
298203,"821 EAST WASHINGTON AVENUE","MADISON","WI","53703"
298204,"821 EIGHTH AVE BOX 992","NEW YORK","NY","10116"
298205,"821 ELLIS AVE","ORANGEBURG","SC","29115"
298206,"821 GLENBROOK AVE N","OAKDALE","MN","55128"
298207,"821 GREEN ACRES LN","MIDLOTHIAN","TX","76065"
298208,"821 GREENWOOD TRL","CONYERS","GA","30094"
298209,"821 GROVE STREET","CEDAR FALLS","IA","50613"
298210,"821 GROVEVIEW WYND","WENDELL","NC","27591"
298211,"821 HAGYS FORD ROAD","NARBERTH","PA","19072"
298212,"821 HAPPY VALLEY ROAD","MIDDLEBURY","VT","05753"
298213,"821 HAWK RIDGE LANE","SNOWMASS VILLAGE","CO","81615"
298214,"821 HAYDEN AVE","NOVATO","CA","94945"
298215,"821 HICKORY KNOB CIRCLE","CEDAR HILL","TX","75104"
298216,"821 HOFFMAN PLACE","PHILADELPHIA","PA","19123"
298217,"821 HUDSON DRIVE","YARDLEY","PA","19067"
298218,"821 HUNTS GIN ROAD","CALHOUN","GA","30701"
298219,"821 JERSEY AVE APT2L","ELIZABETH","NJ","07202"
298220,"821 KUHN DRIVE SUITE 110","CHULA VISTA","CA","91914"
298221,"821 LONG VALLEY CT","PROSPER","TX","75078"
298222,"821 LONGHORN HOLLOW","SOUTHLAKE","TX","76092"
298223,"821 LORRAINE LANE","STOCKBRIDGE","GA","30281"
298224,"821 MAIN STREET ROOM 101","OREGON CITY","OR","97045"
298225,"821 MARION AVENUE","SOUTH MILWAUKEE","WI","53172"
298226,"821 MERESTONE DRIVE","WINNABOW","NC","28479"
298227,"821 MONTEREY AVE","CAPITOLA","CA","95010"
298228,"821 N 100 W","BLANDNG","UT","84511"
298229,"821 N 250 W","BOUNTIFUL","UT","84010"
298230,"821 N CRESCENT LAKES CT","ANDOVER","KS","67002"
298231,"821 N GLADSTONE AVE APT 5","AURORA","IL","60506"
298232,"821 N KEDVALE AVENUE","CHICAGO","IL","60651"
298233,"821 N MAIN ST","COTTONWOOD","AZ","86326"
298234,"821 N MAIN ST","JAY","OK","74346"
298235,"821 N OLIVE STREET","MEDIA","PA","19063"
298236,"821 N ONTARIO ST","BURBANK","CA","91505"
298237,"821 N SANTA ANITA AVE","ARCADIA","CA","91006"
298238,"821 N STREET SUITE 103","ANCHORAGE","AK","99501"
298239,"821 N SULLIVAN RD","SPOKANE VALLEY","WA","99037"
298240,"821 N WILCOX AVE APT 134","MONTEBELLO","CA","90640"
298241,"821 NE 36TH TERRACE SUITE 10","OCALA","FL","34477"
298242,"821 NORTH DIVISION AVENUE","STERLING","CO","80751"
298243,"821 NORTH MINE STREET","MCCORMICK","SC","29835"
298244,"821 NW 140TH ST","EDMOND","OK","73013"
298245,"821 NW 2ND AVENUE","HALLANDALE BEACH","FL","33009"
298246,"821 NW 33 AVE","MIAMI","FL","33125"
298247,"821 NW 54TH STREET","MIAMI","FL","33127"
298248,"821 OAK STREET","PALO PINTO","TX","76484"
298249,"821 OHIO AVENUE","CANON CITY","CO","81212"
298250,"821 PARK AVE W","MANSFIELD","OH","44906"
298251,"821 PARK ST","ORANGEBURG","SC","29115"
298252,"821 PERSHING DRIVE WEST","ARDMORE","OK","73401"
298253,"821 PRESTON LANE","OSWEGO","IL","60543"
298254,"821 PRINCETON DRIVE","WHITELAND","IN","46184"
298255,"821 RAVENWOOD DRIVE","MORRISTOWN","TN","37814"
298256,"821 RICHLAND STREET","UPLAND","CA","91786"
298257,"821 ROCKLAND ST","BETHLEHEM","PA","18017"
298258,"821 ROCKWALL STREET","MCKINNEY","TX","75069"
298259,"821 S 2ND ST","LOUISVILLE","KY","40203"
298260,"821 S KIRKMAN RD","ORLANDO","FL","32811"
298261,"821 S SULLIVAN RD","SPOKANE VALLEY","WA","99037"
298262,"821 S VINE ST","MUNCIE","IN","47302"
298263,"821 SALEM AVENUE SW SUITE 101","ROANOKE","VA","24016"
298264,"821 SHADOWSTONE PL","NASHVILLE","TN","37220"
298265,"821 SIOUX TRAIL","MCMINNVILLE","TN","37110"
298266,"821 SOUTH EAGLES WAY","CRAWFORDSVILLE","IN","47933"
298267,"821 SOUTH FORD DR","GALLUP","NM","87301"
298268,"821 SOUTH POLK STREET  APT 1513","DESOTO","TX","75115"
298269,"821 SOUTH PRESTON STREET","LOUISVILLE","KY","40203"
298270,"821 SOUTHBRIAR RD","TOLEDO","OH","43607"
298271,"821 SPICER AVENUE","SOUTH PLAINFIELD","NJ","07080"
298272,"821 SUMMIT STREET","LINDEN","FL","07036"
298273,"821 SUNNINGDALE DR","OCEANSIDE","CA","92057"
298274,"821 SUNNYSIDE DRIVE SUITE L","VIRGINIA BEACH","VA","23464"
298275,"821 SUNSET AVE APT E","SUISUN CITY","CA","94585"
298276,"821 SUNSET ROAD","WEST PALM BEACH","FL","33401"
298277,"821 SW 2ND ST","ONTARIO","OR","97914"
298278,"821 THE O JAYS PKWY NE","CANTON","OH","44705"
298279,"821 THOMAS COURT APT 35","WINCHESTER","VA","22601"
298280,"821 TRACTION AVE 107","LOS ANGELES","CA","90013"
298281,"821 VAUGHN COURT","SANTA ROSA","CA","95409"
298282,"821 VICTORIA DRIVE APARTMENT A","MONTGOMERY","IL","60538"
298283,"821 W 15TH ST UNIT 3D","NEWPORT BEACH","CA","92663"
298284,"821 W BURLINGTON AVE","WESTERN SPRINGS","IL","60558"
298285,"821 W OAK ST","GREENVILLE","MI","48838"
298286,"821 W PERSHING BLVD","CHEYENNE","WY","82001"
298287,"821 W TERRA LANE","OFALLON","MO","63366"
298288,"821 WEST BENFIELD ROAD - SUITE 5","SEVERNA PARK","MD","21146"
298289,"821 WEST EL CAMINO REAL","MOUNTAIN VIEW","CA","94040"
298290,"821 WEST ELEVEN MILE ROAD","ROYAL OAK","MI","48067"
298291,"821 WINANS WAY","BALTIMORE","MD","21229"
298292,"8210 BRENNEN DR","BATON ROUGE","LA","70818"
298293,"8210 CICADA DRIVE","MISSOURI CITY","TX","77459"
298294,"8210 COLONIAL LN","HOUSTON","TX","77051"
298295,"8210 CYPRESS ROAD APT 208","BATON ROUGE","LA","70811"
298296,"8210 HODGEN ROAD","COLORADO SPRINGS","CO","80908"
298297,"8210 HORSHAM DR","MECHANICSVILLE","VA","23111"
298298,"8210 NORTH MARKS STREET","TAMPA","FL","33604"
298299,"8210 NW 19TH STREET","PEMBROKE PINES","FL","33024"
298300,"8210 RUIDOSA PASS","HELOTES","TX","78023"
298301,"8210 RUIDOSA PASS","SAN ANTONIO","TX","78023"
298302,"8210 TWIN TREE LANE","HOUSTON","TX","77071"
298303,"8210 WEST STATE ROAD 84","DAVIE","FL","33324"
298304,"8210 WHITE ROCK CIRCLE","BOYNTON BEACH","FL","33436"
298305,"8211 BLUERIDGE LANE","PARKLAND","FL","33067"
298306,"8211 CECIL CT","INDIANAPOLIS","IN","46219"
298307,"8211 CHESTNUTPLACE DR APT 301","CHARLOTTE","NC","28262"
298308,"8211 ELKRIDGE AVENUE","LUBBOCK","TX","79423"
298309,"8211 GREEN MEADOWS DRIVE","LEWIS CENTER","OH","43035"
298310,"8211 SAN ANGELO DR APT D5","HUNTINGTON BEACH","CA","92647"
298311,"8211 SCHULINE RD","WALSH","IL","62297"
298312,"8211 ST MICHAELS CREST LN","HUMBLE","TX","77396"
298313,"8211 SUGARBUSH CT","ORLANDO","FL","32819"
298314,"8211 SUN SPRING CIR APT 73","ORLANDO","FL","32825"
298315,"8211 TOWN CENTER DRIVE","NOTTINGHAM","MD","21236"
298316,"8211 VALLEY VIEW DR SE","HUNTSVILLE","AL","35802"
298317,"8211 WEST BROWARD BOULEVARD - 200","PLANTATION","FL","33324"
298318,"82117 CREST AVENUE","INDIO","CA","92201"
298319,"8212 BUIST AVE","PHILADELPHIA","PA","19153"
298320,"8212 CANDELABRUM PLACE","LOUISVILLE","KY","40214"
298321,"8212 CHICAGO AVE","LUBBOCK","TX","79424"
298322,"8212 DR CRAIK CT","ALEXANDRIA","VA","22306"
298323,"8212 GEMSTONE COURT","ORLANDO","FL","32836"
298324,"8212 GRISWOLD DR","NEW ALBANY","OH","43054"
298325,"8212 INDIANAPOLIS AVE","HUNTINGTON BEACH","CA","92646"
298326,"8212 JULIETTE DR","MCKINNEY","TX","75071"
298327,"8212 NW 57 CT","TAMARAC","FL","33321"
298328,"8212 PEMBROOK CT","FREDERICK","MD","21704"
298329,"8212 PHILADELPHIA ROAD","ROSEDALE","MD","21237"
298330,"8212 S 116TH AVENUE","ROTHBURY","MI","49452"
298331,"8212 S 3RD AVE","INGLEWOOD","CA","90305"
298332,"8212 S LASALLE AVE","CHICAGO","IL","60620"
298333,"8212 WINDSOR VALLEY DRIVE","NORTH LITTLE ROCK","AR","72116"
298334,"8213 BIELBY ROAD","ROME","NY","13440"
298335,"8213 COOSA COURT","RALEIGH","NC","27616"
298336,"8213 JEREMY RD","BELLEVILLE","MI","48111"
298337,"8213 LAKENHEATH WAY SUITE A","POTMAC","MD","20854"
298338,"8213 LANTANA LN","WILMINGTON","NC","28411"
298339,"8213 MANSON ST","LANDOVER, MD","MD","20785"
298340,"8213 PRINCE WALES COURT","PLANO","TX","75025"
298341,"8213 RANCHO DESTINO RD","LAS VEGAS","NV","89123"
298342,"8213 TURTLEBACK CT","MCKINNEY","TX","75070"
298343,"8213 VALLE SONATA WAY","EL PASO","TX","79907"
298344,"8213 WACO AVE","LUBBOCK","TX","79423"
298345,"8213 WEST PARKWAY","DETROIT","MI","48239"
298346,"8213","BEAVERTON","OR","97007"
298347,"8214 21ST AVENUE","BROOKLYN","NY","11214"
298348,"8214 ARMSTRONG CIRCLE","BELLEVUE","NE","68147"
298349,"8214 CARRIAGE LN","WICHITA FALLS","TX","76305"
298350,"8214 GRAND FOREST CT","FORT WAYNE","IN","46815"
298351,"8214 MENTRA STREET UNIT 1","ANCHORAGE","AK","99518"
298352,"8214 MIRAMAR WAY","LAKEWOOD RANCH","FL","34202"
298353,"8214 PLUM VALLEY DR","SAN ANTONIO","TX","78255"
298354,"8214 S FLORES","SAN ANTONIO","TX","78221"
298355,"8214 SO 128TH STREET","SEATTLE","WA","98178"
298356,"8214 SR 52","HUDSON","FL","34669"
298357,"8214 WESTRIDGE ROAD","FORT WAYNE","IN","46825"
298358,"8215 AQUILA STREET","PORT RICHEY","FL","34668"
298359,"8215 EAST MCGEE RD","FLAGSTAFF","AZ","86004"
298360,"8215 HEATHER COURT SUMMER LAKE","VERO BEACH","FL","32967"
298361,"8215 MCCLOY ROAD","NORFOLK","VA","23505"
298362,"8215 NARCOOSSEE PARK DRIVE UNIT 200","ORLANDO","FL","32822"
298363,"8215 RUNNING CREEK COURT","SPRINGFIELD","VA","22153"
298364,"8215 WEST TONTO LANE","PEORIA","AZ","85382"
298365,"8216 BRIARSTONE LANE","OOLTEWAH","TN","37363"
298366,"8216 CHICAGO AVE","LUBBOCK","TX","79424"
298367,"8216 COLLINGWOOD CT","ALEXANDRIA","VA","22308"
298368,"8216 ENDEAVOR CIR","AUSTIN","TX","78726"
298369,"8216 KILDARE STREET","CLEMMONS","NC","27012"
298370,"8216 OLD COURTHOUSE RD  STE B","VIENNA","VA","22182"
298371,"8216 S LAFAYETTE AVE","CHICAGO","IL","60620"
298372,"8216 SOUTH 161ST AVENUE","OMAHA","NE","68136"
298373,"8216 STRAWBERRY PLAINS PIKE","KNOXVILLE","TN","37924"
298374,"8217 CAMBOURNE CT","GAITHERSBURG","MD","20877"
298375,"8217 CRABTREE DRIVE","AUSTIN","TX","78750"
298376,"8217 HAMILTON SPRING COURT","BETHESDA","MO","20817"
298377,"8217 N POINTE CT","CANTON","MI","48187"
298378,"8217 NW 101ST ST","OKLAHOMA CITY","OK","73162"
298379,"8217 OPEN VIEW PLACE","LOVELAND","CO","80537"
298380,"8217 PARKSTONE PLACE NO 208","NAPLES","FL","34120"
298381,"8217 ROCHESTER AVE","RANCHO CUCAMONGA","CA","91730"
298382,"8217 S 132ND AVENUE","GOODYEAR","AZ","85338"
298383,"8217 S 5140 W","WEST JORDAN","UT","84081"
298384,"8217 S WINNIPEG CIR","AURORA","CO","80016"
298385,"8217 SUTTONVIEW DR","CHARLOTTE","NC","28269"
298386,"8218 BIRDSONG DRIVE","FORT WASHINGTON","MD","20744"
298387,"8218 BLVD 26","NORTH RICHLAND HILLS","TX","76180"
298388,"8218 CHARLESTON ROAD","WALTON","WV","25286"
298389,"8218 FUQUA GARDENS DRIVE","HOUSTON","TX","77075"
298390,"8218 GREEN STREET","NEW ORLEANS","LA","70118"
298391,"8218 LAUGHLIN DR","INDIANAPOLIS","IN","46219"
298392,"8218 NE 198TH ST","KENMORE","WA","98028"
298393,"8218 S COUNTY ROAD 950 EAST","CLOVERDALE","IN","46120"
298394,"8218 SUGARCANE DR","BAYTOWN","TX","77523"
298395,"8219 EVERETT AVE","KANSAS CITY","KS","66112"
298396,"8219 GLAMIS COURT","CHESTERFIELD","VA","23838"
298397,"8219 LORETTA DR","DENVER","CO","80221"
298398,"8219 RUST ROAD","SAN ANGELO","TX","76905"
298399,"822 21ST AVE","HONOLULU","HI","96816"
298400,"822 48TH ST NE","WASHINGTON","DC","20019"
298401,"822 7TH AVE SE","ROCHESTER","MN","55904"
298402,"822 A PHILIP RANDOLPH BLVD","JACKSONVILLE","FL","32206"
298403,"822 A1A N SUITE 202","PONTE VEDRA BEACH","FL","32082"
298404,"822 A1A NORTH SUITE 310","PONTE VEDRA","VA","32082"
298405,"822 ASHLAND AVENUE","BUFFALO","NY","14222"
298406,"822 BARNSLEY DRIVE","ST. LOUIS","MO","63125"
298407,"822 BARTHOLOMEW ST","NEW ORLEANS","LA","70117"
298408,"822 BEECHWOOD","LITTLE ROCK","AR","72205"
298409,"822 BRANDIE ST","TUTTLE","OK","73089"
298410,"822 BROOKSIDE DRIVE","EUGENE","OR","97405"
298411,"822 BUCKBOARD LANE","IDAHO FALLS","ID","83402"
298412,"822 DELAWARE AVENUE","DELMAR","NY","12054"
298413,"822 DEVON ESTATE AVE","MYRTLE BEACH","SC","29588"
298414,"822 DUNLEIGH MEADOWS LN","HOUSTON","TX","77055"
298415,"822 E CHARLES ST","ARLINGTON HTS","IL","60004"
298416,"822 EAST 21ST STREET","CHEYENNE","WY","82001"
298417,"822 EAST AURORA ROAD","MACEDONIA","OH","44056"
298418,"822 EASTERN PARKWAY","BROOKLYN","NY","11213"
298419,"822 FROG MORTAR ROAD","BALTIMORE","MD","21220"
298420,"822 GROSS CT","GREEN BAY","WI","54304"
298421,"822 GROVE BND","DECATUR","GA","30030"
298422,"822 GUILFORD AVE BOX 235","BALTIMORE","MD","21202"
298423,"822 GUILFORD AVE PMB112","BALTIMORE","MD","21202"
298424,"822 HIGHLANDER CT","CONCORD","NC","28025"
298425,"822 HOPP RIVER ROAD","BOLTON","CT","06043"
298426,"822 IDLEWOOD AVE","CARNEGIE","PA","15106"
298427,"822 IRMA AVE","MERCEDES","TX","78570"
298428,"822 LANDFILL  RD","BROWNSVILLE","TN","38012"
298429,"822 LANDFILL RD","BROWNSVILLE","TN","38012"
298430,"822 LONE WOLF TRL","SAN ANTONIO","TX","78232"
298431,"822 LOS ROBLES AVE","PALO ALTO","CA","94306"
298432,"822 LYONS AVE","IRVINGTON","NJ","07111"
298433,"822 MAIN STREET","TRACY CITY","TN","37387"
298434,"822 MANATAWNA AVE","PHILA","PA","19128"
298435,"822 MASSACHUSETTS AVE","LEXINGTON","MA","02420"
298436,"822 MASSACHUSETTS STREET","LAWRENCE","KS","66044"
298437,"822 MEETING HOUSE ROAD","RIVERTON","NJ","08077"
298438,"822 N 15TH AVE","BOZEMAN","MT","59715"
298439,"822 N FLORENCE STREET","BURBANK","CA","91505"
298440,"822 N IRVINGTON AVE","TULSA","OK","74115"
298441,"822 OCEAN RD","POINT PLEASANT","NJ","08742"
298442,"822 ONDOSSAGON WAY","MADISON","WI","53719"
298443,"822 POLK ST","ORLANDO","FL","32805"
298444,"822 PRAIRIE BROOK COURT","HOUSTON","TX","77062"
298445,"822 REVERE COURT","NORTHVILLE","MI","48167"
298446,"822 S 15 ST SUITE A23","LOUISVILLE","KY","40210"
298447,"822 S FERRY ST","TACOMA","WA","98405"
298448,"822 S JOHNSTONE","BARTLESVILLE","OK","74003"
298449,"822 S SPRIGG ST","CAPE GIRARDEAU","MO","63703"
298450,"822 SAN CLEMENTE","IRVING","TX","75039"
298451,"822 SEABREEZE DR","AVON","IN","46123"
298452,"822 SELLERS DRIVE","JACKSON","OH","45640"
298453,"822 SOUTH 37TH STREET","LOUISVILLE","KY","40211"
298454,"822 STILLWELL AVENUE","OSHKOSH","WI","54901"
298455,"822 SUPERBA AVENUE","VENICE","CA","90291"
298456,"822 TAYLOR STREET  - 654","STARKVILLE","MS","39760"
298457,"822 UTICA AVENUE STE 2F","BROOKLYN","NY","11203"
298458,"822 VETERANS WAY","WARMINSTER","PA","18974"
298459,"822 VICE ROAD","CAMERON","SC","29030"
298460,"822 W 14TH ST","HOUSTON","TX","77008"
298461,"822 W RICHMOND AVE","PEORIA","IL","61604"
298462,"822 WATTS DRIVE","HUNTSVILLE","AL","35801"
298463,"822 WEST 7TH STREET","HASTINGS","MN","55033"
298464,"822 WEST JASMINE DRIVE","LAKE PARK","FL","33403"
298465,"822 WESTWOOD LANE","WILMETTE","IL","60091"
298466,"822 WHILDIN ST","EMPORIA","KS","66801"
298467,"822 WHITE PLAINS RD","CHARLOTTE","NC","28213"
298468,"822 WRIGHTS CROSSING RD","POMFRET CTR","CT","06259"
298469,"822 YORK RD","BRICK","NJ","08724"
298470,"8220 133RD ST EAS","PUYALLUP","WA","98373"
298471,"8220 5TH ST","HIGHLAND","IN","46322"
298472,"8220 APPALACHAIN DRIVE","PASADENA","MD","21122"
298473,"8220 CHANCELLOR DR","COLORADO SPRINGS","CO","80920"
298474,"8220 COUNTY ROAD 678","ROYSE CITY","TX","75189"
298475,"8220 E LORENZO LN","YUMA","AZ","85365"
298476,"8220 EAST CIRCLE APARTMENT 7204","WICHITA","KS","67226"
298477,"8220 GITTINGS ROAD","RACINE","WI","53406"
298478,"8220 LITTLE RIVER TURNPIKE","ANNANDALE","VA","22003"
298479,"8220 MOSSYBROOK LN","DOUGLASVILLE","GA","30135"
298480,"8220 ONEILL DR","MILLINGTON","TN","38053"
298481,"8220 ROBSON","DETROIT","MI","48228"
298482,"8220 S 2ND AVE","INGLEWOOD","CA","90305"
298483,"8220 S SAN PEDRO STREET","LOS ANGELES","CA","90003"
298484,"8220 SADDLE POINT DRIVE","INDIANAPOLIS","IN","46256"
298485,"8220 SAKADEN PKWY","FORT WAYNE","IN","46825"
298486,"8220 SAN PEDRO DR NE STE 503A","ALBUQUERQUE","NM","87113"
298487,"8220 SILVER VINE STREET","NORTH LAS VEGAS","NV","89085"
298488,"8220 TRAVIS ST STE 101","OVERLAND PARK","KS","66204"
298489,"8220 TRAVIS STREET SUITE 105","OVERLAND PARK","KS","66204"
298490,"8220 W GAGE BLVD NO 145","KENNEWICK","WA","99336"
298491,"8220 W GAGE BLVD","KENNEWICK","WA","99336"
298492,"8220 W GAGE BLVD/182","KENNEWICK","WA","99336"
298493,"8220 W SMITH ST","YORKTOWN","IN","47396"
298494,"8220 YAXLEY HALL DR","RALEIGH","NC","27616"
298495,"8221 3RD STREET  SUITE 202","DOWNEY","CA","90241"
298496,"8221 3RD STREET SUITE 204","DOWNEY","CA","90241"
298497,"8221 BISHOPSGATE LANE","WHITE PLAINS","MD","20695"
298498,"8221 BRECKSVILLE RD SUITE 205","BRECKSVILLE","OH","44141"
298499,"8221 BRECKSVILLE ROAD STE 205","BRECKSVILLE","OH","44141"
298500,"8221 DELGANY AVENUE","PLAYA DEL REY","CA","90293"
