"ID","Address","City","State","Zip"
14501,"106-12 AVENUE J","BROOKLYN","NY","11236"
14502,"106-17 UNION TURNPIKE","FOREST HILLS","NY","11375"
14503,"106-20 70TH AVENUE","FOREST HILLS","NY","11375"
14504,"106-20 OTIS AVE","NEW YORK","NY","11368"
14505,"106-23 UNION HALL STREET","JAMAICA","NY","11433"
14506,"106-30 UNION HALL STREET","JAMAICA","NY","11433"
14507,"106-38 150TH STREET","JAMAICA","NY","11435"
14508,"106-44 156TH STREET - 2ND FL","JAMAICA","NY","11433"
14509,"106-C CHATHAM GARDENS","ROCHESTER","NY","14605"
14510,"106","SHOSHONE","ID","83352"
14511,"1060 21ST LN SE","PINE ISLAND","MN","55963"
14512,"1060 5TH AVENUE","NEW YORK","NY","10128"
14513,"1060 BEACON STREET STE11","BROOKLINE","MA","02446"
14514,"1060 BIRMINGHAM RD","MILTON","GA","30004"
14515,"1060 BONAVENTURE WAY","LAWRENCEVILLE","GA","30044"
14516,"1060 BROADWAY 1057","ALBANY","NY","12204"
14517,"1060 CAMEO CIRCLE","WEST PALM BEACH","FL","33417"
14518,"1060 CERRILLOS ROAD  45","SANTA FE","NM","87505"
14519,"1060 CHATHAM ST","NEWPORT","NC","28570"
14520,"1060 E 41STREET UNIT 410","CHICAGO","IL","60653"
14521,"1060 E KING ST","FRANKLIN","IN","46131"
14522,"1060 E MAGDALENA DR","TEMPE","AZ","85283"
14523,"1060 E STEWART AVE BLDG 2027","PETERSON AFB","CO","80914"
14524,"1060 EAST MAIN STREET","FRANKFORT","KY","40601"
14525,"1060 EDGEWATER LN","BOWLING GREEN","KY","42104"
14526,"1060 FAIRFAX PARK SUITE A","TUSCALOOSA","AL","35406"
14527,"1060 FIFTH AVENUE APT 2A","NEW YORK","NY","10128"
14528,"1060 FLORA LN","FLORISSANT","MO","63031"
14529,"1060 FM 1104","KINGSBURY","TX","78638"
14530,"1060 GARDEN VALLEY ROAD","LINCOLN","NE","68521"
14531,"1060 GLENEAGLES AVENUE","POMONA","CA","91768"
14532,"1060 GRABER AVE UNIT 1","SARASOTA","FL","34237"
14533,"1060 GRANT STREET","BULGER","PA","15019"
14534,"1060 HILTON LANE","CASTALIAN SPRINGS","TN","37031"
14535,"1060 IMPERIAL DR","EDWARDS","CO","81632"
14536,"1060 JAYBEE AVE","DAVENPORT","FL","33897"
14537,"1060 KEENE ROAD","DUNEDIN","FL","34698"
14538,"1060 KENNESAW SPRINGS DRIVE NW","KENNESAW","GA","30144"
14539,"1060 KINGSMILL PARKWAY","COLUMBUS","OH","43229"
14540,"1060 MCGREGOR WAY","PALO ALTO","CA","94306"
14541,"1060 N ALLEN AVE","PASADENA","CA","91104"
14542,"1060 N BUSH STREET","UKIAH","CA","95482"
14543,"1060 N KEDZIE AVENUE UNIT 2","CHICAGO","IL","60651"
14544,"1060 N SHORELINE DR","WASILLA","AK","99654"
14545,"1060 N SIERRA BONITA AVE UNIT 508","WEST HOLLYWOOD","CA","90046"
14546,"1060 NE 212 TERRACE","MIAMI","FL","33179"
14547,"1060 NE 92 STREET","MIAMI SHORES","FL","33138"
14548,"1060 NORTH HAVEN DRIVE","PONCHATOULA","LA","70454"
14549,"1060 OLIVE AVENUE","RAMONA","CA","92065"
14550,"1060 PALISADO AVE","WINDSOR","CT","06095"
14551,"1060 PARK NEWPORT","NEWPORT BEACH","CA","92660"
14552,"1060 PLANTATION BLVD","CONYERS","GA","30094"
14553,"1060 PURPLE MARTIN DR","NAPLES","FL","34120"
14554,"1060 QUARRY PARK DRIVE","SANDY","UT","84094"
14555,"1060 ROCKY ROAD","LAWRENCEVILLE","GA","30044"
14556,"1060 S COCHRAN AVE SUITE 4","LOS ANGELES","CA","90019"
14557,"1060 S COCHRAN AVE","LOS ANGELES","CA","90019"
14558,"1060 S SEAN DRIVE","CHANDLER","AZ","85286"
14559,"1060 SE PINECREST CIR","WAUKEE","IA","50263"
14560,"1060 SHELDON STREET","WEST SUFFIELD","CT","06093"
14561,"1060 SIGNAL POINTE","ALPHARETTA","GA","30005"
14562,"1060 SKY RANCH ROAD","JUNCTION CITY","CA","96048"
14563,"1060 SOUTH CENTRAL AVENUE SUITE 1","SIDNEY","MT","59270"
14564,"1060 SOUTH PRIOR AVENUE","ST PAUL","MN","55116"
14565,"1060 STATION BLVD","AURORA","IL","60504"
14566,"1060 SUNKIST AVE","LA PUENTE","CA","91746"
14567,"1060 SW BENCHOR AVE","PORT SAINT LUCIE","FL","34953"
14568,"1060 SWAN DRIVE","BARTLESVILLE","OK","74006"
14569,"1060 TERRACE BLVD","ORLANDO","FL","32803"
14570,"1060 TERRY STREET","LANCASTER","OH","43130"
14571,"1060 VAN DYKE STREET  STE 111","DETROIT","MI","48214"
14572,"1060 VERMONT STREET APT C","BROOKLYN","NY","11207"
14573,"1060 W PIPELINE RD STE 110","HURST","TX","76053"
14574,"1060 WASHINGTON STREET APARTMENT 3","EUGENE","OR","97401"
14575,"1060 WEST ETIWANDA AVENUE","RIALTO","CA","92376"
14576,"1060 WIGWAM PKWY","HENDERSON","NV","89074"
14577,"1060 WILLIAM MOORE DR","RALEIGH","NC","27607"
14578,"1060 WILLIAM MOORE DRIVE","RALEIGH","NC","27606"
14579,"1060 WILLIAM MOORE DRIVE","RALEIGH","NC","27607"
14580,"1060 WILLOW STREET 7","SAN JOSE","CA","95125"
14581,"1060 WOODCOCK RD","ORLANDO","FL","32803"
14582,"1060 ZEIGLER RD","WELLSVILLE","PA","17315"
14583,"1060","PAHRUMP","NV","89048"
14584,"10600 275TH ST","DONAHUE","IA","52746"
14585,"10600 BLOOMFIELD DR 525","ORLANDO","FL","32825"
14586,"10600 BREZZA LANE APT 731","AUSTIN","TX","78748"
14587,"10600 HIGHLAND SPRINGS AVE","CHERRY VALLEY","CA","92223"
14588,"10600 INDIAN SCHOOL ROAD NE","ALBUQUERQUE","NM","87112"
14589,"10600 JOHANSEN DRIVE","CUPERTINO","CA","95014"
14590,"10600 LA REINA AVE APT F","DOWNEY","CA","90241"
14591,"10600 LAKES BLVD UNIT 1401","BATON ROUGE","LA","70810"
14592,"10600 LEMONA AVE","MISSION HILLS","CA","91345"
14593,"10600 N CASSEL RD","VANDALIA","OH","45377"
14594,"10600 NERO CIRCLE","OLANTA","SC","29114"
14595,"10600 RICHMOND AVE","HOUSTON","TX","77042"
14596,"10600 RIVER RD","POTOMAC","MD","20854"
14597,"10600 RIVERSIDE DRIVE","CORAL SPRINGS","FL","33071"
14598,"10600 ROUCHON LANE  PO BOX 643","CLINTON","LA","70722"
14599,"10600 ROUND MOUNTAIN RD","BAKERSFIELD","CA","93308"
14600,"10600 S PENN SUITE 16-601","OKLAHOMA CITY","OK","73170"
14601,"10600 SHADY GLADE LN","OKLAHOMA CITY","OK","73151"
14602,"10600 SKYFLOWER DR","AUSTIN","TX","78759"
14603,"10600 SOUTH PEORIA","CHICAGO","IL","60643"
14604,"10600 WESTERN AVENUE UNIT 49","STANTON","CA","92680"
14605,"106000 OVERSEAS HIGHWAY","KEY LARGO","FL","33037"
14606,"10601 BENT RIDGE COVE","LAKELAND","TN","38002"
14607,"10601 CENTRAL AVE","OAK LAWN","IL","60453"
14608,"10601 CLARENCE DR       SUITE 250","FRISCO","TX","75033"
14609,"10601 CLARENCE DR SITE 250","FRISCO","TX","75033"
14610,"10601 CLARENCE DR STE 250","FRISCO","TX","75033"
14611,"10601 CLARENCE DR SUITE 250","FRISCO","TX","75033"
14612,"10601 CLARENCE DRIVE SUITE 250","FRISCO","TX","75033"
14613,"10601 FM 1660","HUTTO","TX","78634"
14614,"10601 FOSSIL HILL DRIVE","FORT WORTH","TX","76131"
14615,"10601 GRANT RD STE 216","HOUSTON","TX","77070"
14616,"10601 INDEPENDENCE AVE","CHATSWORTH","CA","91311"
14617,"10601 KESWICK PL","TAMPA","FL","33626"
14618,"10601 LIME KILN RD","GRASS VALLEY","CA","95949"
14619,"10601 LOMAS BLVD NE SUITE 101","ALBUQUERQUE","NM","87112"
14620,"10601 MIST HAVEN TER","ROCKVILLE","MD","20852"
14621,"10601 N MONTROSE WAY","SCOTTSDALE","AZ","85254"
14622,"10601 N TRAILS EDGE DR","PEORIA","IL","61615"
14623,"10601 SOUTH BROADWAY AVE UNIT 10","LOS ANGELES","CA","90003"
14624,"10601 TIERRASANTA BLVD G181","SAN DEIGO","CA","92123"
14625,"10601 TIERRASANTA BLVD SUITE G-401","SAN DIEGO","CA","92124"
14626,"10601 W 165TH STREET","OVERLAND PARK","KS","66221"
14627,"10601 W 79TH PLACE","ARVADA","CO","80005"
14628,"10601 WOODSDALE DRIVE","SILVER SPRING","MD","20901"
14629,"106012 S 1ST AVENUE","INGLEWOOD","CA","90303"
14630,"10602 GRAND PINES DR","SUGAR LAND","TX","77498"
14631,"10602 HUNTERSVILLE COMMONS DR APT D","HUNTERSVILLE","NC","28078"
14632,"10602 OLIVE ST","LA VISTA","NE","68128"
14633,"10602 SAGEMEADOW LN","HOUSTON","TX","77089"
14634,"10602 SILVER STONE ST","HOUSTON","TX","77048"
14635,"10602 SUGARBUSH RD","SAVANNAH","GA","31405"
14636,"10603 ANGEL AVE","FOUNTAIN VALLEY","CA","92708"
14637,"10603 BLACKHAWK BLVD BLDG B","HOUSTON","TX","77089"
14638,"10603 CALDWELL DEPOT","CORNELIUS","NC","28031"
14639,"10603 LIBERTY AVENUE","OZONE PARK","NY","11417"
14640,"10603 TWO NOTCH ROAD SUITE B","ELGIN","SC","29045"
14641,"10604 170TH CT NE","REDMOND","WA","98052"
14642,"10604 198TH AVE CT E","BONNEY LAKE","WA","98391"
14643,"10604 AUSTIN BLUFFS AVE","LAS VEGAS","NV","89144"
14644,"10604 BROOKS LN APT A4","CHICAGO RIDGE","IL","60415"
14645,"10604 CHARBANO WAY","RANCHO CORDOVA","CA","95670"
14646,"10604 ELIZABETH PARNUM PLACE","UPPER MARLBORO","MD","20772"
14647,"10604 FLAMEWOOD RD","FT WORTH","TX","76140"
14648,"10604 PLEASANT HILL DRIVE","EL PASO","TX","79924"
14649,"10604 QUARRIER DRIVE","CORNELIUS","NC","28031"
14650,"10604 RUTHELEN STREET","LOS ANGELES","CA","90047"
14651,"10604 SPICEWOOD PKWY","AUSTIN","TX","78750"
14652,"10604 WEINZAPFEL RD","MOUNT VERNON","IN","47620"
14653,"10605 CONCORD STREET SUITE 201","KENSINGTON","MD","20895"
14654,"10605 DUNES COURT","INDIANAPOLIS","IN","46239"
14655,"10605 FLAGSTAFF RUN","FORT WORTH","TX","76140"
14656,"10605 JUDICIAL DRIVE SUITE B6","FAIRFAX","VA","22030"
14657,"10605 NE 117TH AVENUE","VANCOUVER","WA","98662"
14658,"10605 S FORK LOOP","PANAMA CITY","FL","32404"
14659,"10605 SE 240TH ST NUM 534","KENT","WA","98031"
14660,"10605 SE 240TH STREET - SUITE 329","KENT","WA","98031"
14661,"10605 SE 240TH STREET STE 453","KENT","WA","98031"
14662,"10605 TURQUOISE VALLEY DRIVE","89144","NV","89144"
14663,"10605 WOODLAWN BLVD","LARGO","MD","20774"
14664,"10606 148TH AVE SE","RENTON","WA","98059"
14665,"10606 CAMINO RUIZ  SUITE 8-174","SAN DIEGO","CA","92126"
14666,"10606 CANDLEWICK RD","LUTHERVILLE","MD","21093"
14667,"10606 HEMPSTEAD RD  STE 116","HOUSTON","TX","77092"
14668,"10606 HEMPSTEAD RD  SUITE 116","HOUSTON","TX","77092"
14669,"10606 MAIDSTONE MANOR CT","SPRING","TX","77379"
14670,"10606 PRESCOTT HOLLOW CT","KATY","TX","77494"
14671,"10606 S 2ND ST","SCHOOLCRAFT","MI","49087"
14672,"10606 SOUTH ABERDEEN","CHICAGO","IL","60643"
14673,"10606 VANTANI DR","HOUSTON","TX","77034"
14674,"106066 S 3450 RD","MEEKER","OK","74855"
14675,"10607 CENTRAL AVE","INDIANAPOLIS","IN","46280"
14676,"10607 CHAPEL HILL DRIVE","HOUSTON","TX","77099"
14677,"10607 E BOGART AVE","MESA","AZ","85208"
14678,"10607 E OLLA AVE","MESA","AZ","85212"
14679,"10607 LANEVIEW DR","HOUSTON","TX","77070"
14680,"10607 MONTROSE APT 3","BETHESDA","MD","20814"
14681,"10607 SAINT MICHAEL TERRACE COURT","SAINT ANN","MO","63074"
14682,"10607 SEVEN OAKS DRIVE","SPOTSYLVANIA","VA","22553"
14683,"10607 STONE CREEK COURT","PARKER","CO","80134"
14684,"10608 221ST AVE E","buckley","WA","98321"
14685,"10608 BINGHAM AVE","BITELY","MI","49309"
14686,"10608 CAPTAIN HOOK CIRCLE","THONOTOSASSA","FL","33592"
14687,"10608 ENGLEWOOD CLIFFS AVENUE","LAS VEGAS","NV","89144"
14688,"10608 EVANWOOD DR","LOUISVILLE","KY","40228"
14689,"10608 FLICKENGER LN","KNOXVILLE","TN","37922"
14690,"10608 GRETNA GREEN DR","TAMPA","FL","33626"
14691,"10608 S 90TH E CT","TULSA","OK","74133"
14692,"10608 S CENTRAL AVE UNIT 2D","CHICAGO RIDGE","IL","60415"
14693,"10609 101ST AVENUE","OZONE PARK","NY","11416"
14694,"10609 BLACK FOX COURT","MITCHELLVILLE","MD","20721"
14695,"10609 BRYANT ST","YUCAIPA","CA","92399"
14696,"10609 E  WASHINGTON STREET STE E","INDIANAPOLIS","IN","46229"
14697,"10609 EAST COUNTY ROAD 650 NORTH","INDIANAPOLIS","IN","46234"
14698,"10609 REGENT","OKLAHOMA CITY","OK","73162"
14699,"10609 SUNRISE DRIVE","BOTHELL","WA","98011"
14700,"1060B HILL CITY RD","SUGAR VALLEY","GA","30746"
14701,"1061 ABRAM PENN HIGHWAY","CRITZ","VA","24082"
14702,"1061 AMELIA DR","LONG BEACH","CA","90807"
14703,"1061 BEACH PARK BLVD APT 111","FOSTER CITY","CA","94404"
14704,"1061 BOURBON PL","MEMPHIS","TN","38106"
14705,"1061 CANEY TRAIL DR","WHARTON","TX","77488"
14706,"1061 CAROL LANE","LAFAYETTE","CA","94549"
14707,"1061 COLLABORATIVE WAY","LEANDER","TX","78641"
14708,"1061 DEVILS BACKBONE RD","CINCINNATI","OH","45233"
14709,"1061 EAST 200 NORTH","WASHINGTON","IN","47501"
14710,"1061 FISH HILL RD","COVENTRY","RI","02816"
14711,"1061 GREGORY RD","EDDYVILLE","KY","42038"
14712,"1061 GREYSTONE LN W","WATKINSVILLE","GA","30677"
14713,"1061 HAROLD DRIVE","NASHVILLE","TN","37217"
14714,"1061 HARRISON BLVD","GARY","IN","46402"
14715,"1061 LAKE SAWYER RD","ENNIS","TX","75119"
14716,"1061 LANDSTAR DR PARK APT 106","ORLANDO","FL","32824"
14717,"1061 LAVON DRIVE","GRAPEVINE","TX","76051"
14718,"1061 LAWRENCE ST","EUGENE","OR","97401"
14719,"1061 MAIN STREET","COALPORT","PA","16627"
14720,"1061 MAIN STREET","WAMPUM","PA","16157"
14721,"1061 MEADOW BROOK DR","WOODSTOCK","GA","30188"
14722,"1061 MURRAY AV","SAN LUIS OBISPO","CA","93405"
14723,"1061 N COLLON DR","BAD AXE","MI","48413"
14724,"1061 NE 9TH AVE","PORTLAND","OR","97232"
14725,"1061 OGDEN RD","ROCK HILL","SC","29730"
14726,"1061 OLD AIRPORT HWY 10","BRISTOL","VA","24201"
14727,"1061 ORANGE TURNPIKE","MONROE","NY","10950"
14728,"1061 PROSPECT PLACE","VISTA","CA","92081"
14729,"1061 RIVERSIDE AVENUE 2ND FLOOR","JACKSONVILLE","FL","32204"
14730,"1061 S FALLING LEAF CIR","ANAHEIM","CA","92807"
14731,"1061 S SUNCREST LANE","KAYSVILLE","UT","84037"
14732,"1061 SAPPHIRE TRAIL","BOGART","GA","30622"
14733,"1061 SERPENTINE LN SUITE D","PLEASANTON","CA","94566"
14734,"1061 SHADOW GLENN DR","CONROE","TX","77301"
14735,"1061 ST NICHOLAS AVENUE SUITE 1","NEW YORK","NY","10032"
14736,"1061 SYCAMORE STREET","SAN MARCOS","TX","78666"
14737,"1061 TIERRA DEL REY SUITE 202","CHULA VISTA","CA","91910"
14738,"1061 UNION STREET","CONCORD","NC","28025"
14739,"1061 VIRGINIA AVENUE","MIDLAND","PA","15059"
14740,"1061 W GREEN PEBBLE DRIVE","ORO VALLEY","AZ","85755"
14741,"1061 W ROSEMONT AVE APT 307","CHICAGO","IL","60660"
14742,"1061 WILSHIRE CIRCLE E","PEMBROKE PINES","FL","33027"
14743,"1061","SPOTSYLVANIA","VA","22553"
14744,"10610 CABO WABO","LAREDO","TX","78045"
14745,"10610 E BETHANY DR","AURORA","CO","80014"
14746,"10610 JARDIN WAY","CHARLOTTE","NC","28215"
14747,"10610 MCINTOSH RD","THONOTOSASSA","FL","33592"
14748,"10610 NW 123 STREET RD","MEDLEY","FL","33178"
14749,"10610 OAK TREE ROAD","FORT WAYNE","IN","46845"
14750,"10610 RHODE ISLAND AVE STE 204","BELTSVILLE","MD","20705"
14751,"10610 WASHINGTON STREET APT105","PEMBROKE PINES","FL","33025"
14752,"10610 WINCHELSEA DR","AUSTIN","TX","78750"
14753,"10610 WINDING ARBOR COURT","CYPRESS","TX","77433"
14754,"106105 SWINGLEY RIDGE ROAD NBR 580","CHESTERFIELD","MO","63017"
14755,"10611 ABERCORN ST SUITE 87","SAVANNAH","GA","31419"
14756,"10611 HARWIN DR STE 406","HOUSTON","TX","77036"
14757,"10611 KINGFISHER RD","COPPELL","TX","75019"
14758,"10611 NW SR 20","BRISTOL","FL","32321"
14759,"10611 OAK PL","FAIRFAX","VA","22030"
14760,"10611 STONE BUNKER DR","MINT HILL","NC","28227"
14761,"10612 BERNABE DR","SAN DIEGO","CA","92129"
14762,"10612 GERALDINE RD","GARDEN GROVE","CA","92840"
14763,"10612 HAAS AVE","LOS ANGELES","CA","90047"
14764,"10612 KINSMAN RD","CLEVELAND","OH","44104"
14765,"10612 S MARTIN","CHICAGO","IL","60643"
14766,"10612 SE 240TH STREET BOX 6241","KENT","WA","98064"
14767,"10612 STRAWBERRY TETRA DRIVE","RIVERVIEW","FL","33578"
14768,"10612-D PROVIDENCE ROAD BOX 497","CHARLOTTE","NC","28277"
14769,"10613 DRY CREEK WAY","LOUISVILLE","KS","40299"
14770,"10613 DRY CREEK WAY","LOUISVILLE","KY","40299"
14771,"10613 ELMHURST LANE","FORT WORTH","TX","76244"
14772,"10613 ROUTE 98","EDINBORO","PA","16412"
14773,"10613 STATE ROUTE 177","MASCOUTAH","IL","62258"
14774,"10614 BIRCH STREET","THORNTON","CO","80233"
14775,"10614 GLORY VISTA LANE","CYPRESS","TX","77433"
14776,"10614 S FEDERAL HWY 1","PORT ST LUCIE","FM","34952"
14777,"10614 SHADY REST RD","OIL CITY","LA","71061"
14778,"10614 SW 132 CT","MIAMI","FL","33186"
14779,"10614 W PIMA STREET","TOLLESON","AZ","85353"
14780,"10615  ABERCORN STREET   C4","SAVANNAH","GA","31419"
14781,"10615 BURT CIRCLE","OMAHA","NE","68114"
14782,"10615 CANYON CREEK LANE","PENN VALLEY","CA","95946"
14783,"10615 JEFFERSON HWY","BATON ROUGE","LA","70809"
14784,"10615 QUEENS BLVD 1A","FOREST HILLS","NY","11375"
14785,"10615 W PEORIA AVENUE","SUN CITY","AZ","85351"
14786,"10616 159TH STREET APT 6C","JAMAICA","NY","11433"
14787,"10616 184TH AVE NW","ELK RIVER","MN","55330"
14788,"10616 CR 604","ALVARADO","TX","76009"
14789,"10616 FM 603","ABILENE","TX","79602"
14790,"10616 NE 156TH STREET","BRUSH PRAIRIE","WA","98606"
14791,"10616 SOUTH VERNON AVENUE","CHICAGO","IL","60628"
14792,"10617 BALTIC ROAD","CLEVELAND","OH","44102"
14793,"10617 DUTCHESS WAY","WOODSTOCK","MD","21163"
14794,"10617 JOSHUA STREET","ADELANTO","CA","92301"
14795,"10617 N LAKEVIEW DR","HAYDEN LAKE","ID","83835"
14796,"10617 S LECLAIRE","OAK LAWN","IL","60453"
14797,"10617 UNION TPKE","FOREST HILLS","NY","11375"
14798,"10617 VISTA RD","COLUMBIA","MD","21044"
14799,"10617 WOLFCREEK LN","ROWLETT","TX","75089"
14800,"10618 BAINBRIDGE ST","HOUSTON","TX","77016"
14801,"10618 ETHENS POINT CT","CHESTER","VA","23831"
14802,"10618 FOREST LANDING WAY","ROCKVILLE","MD","20850"
14803,"10618 MACANDREW LANE","CHESTERFIELD","VA","23838"
14804,"10618 MELVIN AVE","PORTER RANCH","CA","91326"
14805,"10618 N 48TH AVENUE","GLENDALE","AZ","85304"
14806,"10618 NORMAN AVE","FAIRFAX","VA","22030"
14807,"10618 NORTH DALTON AVENUE","KANSAS CITY","MO","64154"
14808,"10618 SANDY TRAIL DR","SAN ANTONIO","TX","78240"
14809,"10618 TOBIAS LANE","FRISCO","TX","75033"
14810,"10618 WHITEWIND CIRCLE","BOYNTON BEACH","FL","33473"
14811,"10619 SE 172ND STREET E505","RENTON","WA","98055"
14812,"1061B DEEP CREEK AVENUE","ARNOLD","MD","21012"
14813,"1062 BIRCH AVE","PACKWOOD","IA","52580"
14814,"1062 CLEARSPRING DRIVE","CHARLESTON","SC","29412"
14815,"1062 COBBLESTONE RD","HOLLAND","MI","49423"
14816,"1062 COPPERFIELD LANE APT  A","SCHAUMBURG","IL","60193"
14817,"1062 DELAWARE ST","DENVER","CO","80204"
14818,"1062 DELAWARE STREET","DENVER","CO","80204"
14819,"1062 E 16TH AV","BROOMFIELD","CO","80020"
14820,"1062 EAST AVENUE","HASSELL","NC","27841"
14821,"1062 ELM AVENUE","BEAUMONT","CA","92223"
14822,"1062 FAIRMONT PARKWAY","PASADENA","TX","77504"
14823,"1062 FERRELL ROAD","SAINT ALBANS","WV","25177"
14824,"1062 GENEVA RD","BEAVERCREEK","OH","45434"
14825,"1062 GOLF LANE","SUMMIT","MS","39666"
14826,"1062 GRAND OAKS DR","BESSEMER","AL","35022"
14827,"1062 HIGHLAND COLONY PARKWAY SUITE","RIDGELAND","MS","39157"
14828,"1062 INGRAM LANE","DUBLIN","GA","31021"
14829,"1062 OBERLIN DRIVE","COLUMBUS","OH","43221"
14830,"1062 PEACHTREE ST","MEMPHIS","TN","38122"
14831,"1062 PEMBROOK ROAD","CLEVELAND HEIGHTS","OH","44112"
14832,"1062 PLUM RD","GILMER","TX","75644"
14833,"1062 QUEWHIFFLE ROAD","ABERDEEN","NC","28315"
14834,"1062 RAINBOW CIRCLE","ELMER","NJ","08318"
14835,"1062 S FAIRVIEW ST","RIVERSIDE","NJ","08075"
14836,"1062 S NUCLA STREET","AURORA","CO","80017"
14837,"1062 SHIRLEY","WINTHROP","MA","02152"
14838,"1062 SW DEL RIO BLVD","PORT ST LUCIE","FL","34953"
14839,"1062 W 225 S","LAYTON","UT","84041"
14840,"1062 W KNICKERBOCKER DR","SUNNYVALE","CA","94087"
14841,"1062 WESTCHESTER ROAD","SOUTH PARK","PA","15129"
14842,"10620 BRIAR FOREST DRIVE","HOUSTON","TX","77042"
14843,"10620 CHICAGO RIDGE ROAD","CHICAGO RIDGE","IL","60415"
14844,"10620 GEORGETOWN RD","OWENTON","KY","40359"
14845,"10620 ROCK CASTLE LANE","AMELIA COURT HOUSE","VA","23002"
14846,"10620 S DUNMOOR DR","SILVER SPRING","MD","20901"
14847,"10620 SOUTHERN HIGHLANDS PKWY 110","LAS VEGAS","NV","89141"
14848,"10620 SOUTHERN HIGHLANDS STE 110232","LAS VEGAS","NV","89141"
14849,"10620 TREENA ST  SUITE230","SAN DIEGO","CA","92131"
14850,"10621 BEINHORN DR","HOUSTON","TX","77024"
14851,"10621 BLACK OAK DRIVE","PLAIN CITY","OH","43064"
14852,"10621 SHOALHAVEN DR","LAS VEGAS","NV","89134"
14853,"10621 SOUTH TRIPP AVENUE","OAK LAWN","IL","60453"
14854,"10621 W RUTH AVENUE","PEORIA","AZ","85345"
14855,"10621 WILKINS AVE","LOS ANGELES","CA","90024"
14856,"10622 BRYANT STREET 78","YUCAIPA","CA","92399"
14857,"10622 EQUESTRIAN DR","COWAN HEIGHTS","CA","92705"
14858,"10622 LIBERTY BELL DRIVE","TAMPA","FL","33647"
14859,"10622 NORTHERN BLVD","CORONA","NY","11368"
14860,"10622 SUNTREE COURT","ORLANDO","FL","32817"
14861,"10623 ANTWERP ST 45","WATTS","CA","90002"
14862,"10623 AYLESFORD DR","ST. LOUIS","MO","63136"
14863,"10623 DUNHAM RD","HARTLAND","MI","48353"
14864,"10623 ICE SPRINGS STREET","NAMPA","ID","83687"
14865,"10623 LEE AVE","RICHMOND HEIGHTS","OH","44106"
14866,"10623 WOODWIND DRIVE","ST LOUIS","MO","63136"
14867,"10624 ASPEN DRIVE","FISHERS","IN","46037"
14868,"10624 GRAYHAWK LANE","KELLER","TX","76244"
14869,"10624 NW 8TH LN","OCALA","FL","34482"
14870,"10624 PRESTWICK PLACE","ST JOHN","IN","46373"
14871,"10624 ROANNA LANE","ST LOUIS","MO","63128"
14872,"10624 S CHOCTAW ROAD","NEWALLA","OK","74857"
14873,"10624 S EASTERN AVE A995","HENDERSON","NV","89052"
14874,"10624 S EASTERN AVE SUITE A-1034","HENDERSON","NV","89052"
14875,"10624 S EASTERN AVE SUITE A-916","HENDERSON","NV","89052"
14876,"10624 S EASTERN AVENUE STE A-425","HENDERSON","NV","89052"
14877,"10624 S EASTERN AVENUE SUITE A","HENDERSON","NV","89052"
14878,"10624 TORREY","WILLIS","MI","48191"
14879,"10624 VISTA DEL SOL CIRCLE","CLERMONT","FL","34711"
14880,"10625 ELOISE CIR","LOS ALTOS HILLS","CA","94024"
14881,"10625 LAURENS DRIVE NE","BOLIVAR","OH","44612"
14882,"10625 PAUL EELLS DR APT 7","NORTH LITTLE ROCK","AR","72113"
14883,"10625 TUXFORD STREET","SUN VALLEY","CA","91352"
14884,"10625 WORTHINGTON LANE","PROSPECT","KY","40059"
14885,"10626 BEECHKNOLL LN","POTOMAC","MD","20854"
14886,"10626 HARTEL ROAD","GRAND LEDGE","MI","48837"
14887,"10626 OLD HAMMOCK WAY","WELIINGTON","FL","33414"
14888,"10626 OLD TULLAHOMA RD","TULLAHOMA","TN","37388"
14889,"10627 CRESTWOOD DRIVE","MANSSSAS","VA","20109"
14890,"10627 PRESSBURG STREET","NEW ORLEANS","LA","70127"
14891,"10628 E TURQUOISE AVE","SCOTTSDALE","AZ","85258"
14892,"10628 MELODY ROAD","BIG OAK VALLEY","CA","95977"
14893,"10628 NORTHWOODS FOREST DRIVE","CHARLOTTE","NC","28214"
14894,"10628 RIVERS BEND LANE","POTOMAC","MD","20854"
14895,"10629 BRAES BEND DR","HOUSTON","TX","77071"
14896,"10629 ERIE DRIVE","CROWN POINT","IN","46307"
14897,"10629 HARDIN VALLEY RD SUITE 221","KNOXVILLE","TN","37932"
14898,"10629 HARDIN VALLEY RD","KNOXVILLE","TN","37932"
14899,"10629 MOUNTAIN SPRINGS DRIVE","CHARLOTTE","NC","28278"
14900,"1063 CANYON RD","MENOMONIE","WI","54751"
14901,"1063 CAREY PARRISH RD","WRENS","GA","30833"
14902,"1063 COUNTY ROAD 27","ASHLEY","IN","46705"
14903,"1063 CREEK BOTTOM RD","LOGANVILLE","GA","30052"
14904,"1063 EMMA LN","NIPOMO","CA","93444"
14905,"1063 HILLSBORO MILE APT 706","HILLSBORO BEACH","FL","33062"
14906,"1063 HILLSBORO MILE SUITE 303","HILLSBORO BEACH","FL","33062"
14907,"1063 LIBERTY PARK DR","BRASELTON","GA","30517"
14908,"1063 MOHAWK TRAIL","SHELBURNE","MA","01370"
14909,"1063 MORSE AVE APT 9-206","SUNNYVALE","CA","94089"
14910,"1063 OLD GREYSTONE DRIVE","LITHONIA","GA","30058"
14911,"1063 OSBORNE ST PO BOX  5163","ST MARYS","GA","31558"
14912,"1063 PEABODY AVENUE","MEMPHIS","TN","38104"
14913,"1063 S MAIN ST","ADRIAN","MI","49221"
14914,"1063 S STATE RD STE 9","DAVISON","MI","48423"
14915,"1063 SAINT MARGARETS DRIVE","ANNAPOLIS","MD","21409"
14916,"1063 SCOTT ST","FAIRFIELD","CA","94533"
14917,"1063 SHERBURNE AVE","SAINT PAUL","MN","55104"
14918,"1063 SMITH MANOR BLVD","WEST ORANGE","NJ","07052"
14919,"1063 SNOWDON CT","ASHEBORO","NC","27203"
14920,"1063 TAMARA CIRCLE","MEDFORD","OR","97504"
14921,"1063 TWIN BRANCH LANE","WESTON","FL","33326"
14922,"1063 W CAT TAIL","NIXA","MO","65714"
14923,"1063 WEST 2650 NORTH","LEHI","UT","84043"
14924,"10630 BRUNSWICK COURT NORTH","BROOKLYN PARK","MN","55443"
14925,"10630 DOWNEY AVENUE   SUITE 200","DOWNEY","CA","90241"
14926,"10630 EAST COUNTY ROAD 250 SOUTH","VELPEN","IN","47590"
14927,"10630 NORTH OAK HILLS PARKWAY","BATON ROUGE","LA","70810"
14928,"10630 STANDING STONE DRIVE","WIMAUMA","FL","33598"
14929,"10630 WESTBRAE PKWY NO 609","HOUSTON","TX","77031"
14930,"10631 BROCKWAY AVE","EL MONTE","CA","91731"
14931,"10631 GRANT SHOOK ROAD","GREENCASTLE","PA","17225"
14932,"10631 GREEN TIMBER DRIVE","SAN ANTONIO","TX","78223"
14933,"10631 MERRIMAN RD","CUPERTINO","CA","95014"
14934,"10631 NW 72ND CT","CHIEFLAND","FL","32626"
14935,"10631 SLEIGH BELL LANE","CHARLOTTE","NC","28216"
14936,"10632 GARDEN GROVE BLVD","GARDEN GROVE","CA","92843"
14937,"10632 N SCOTTSDALE RD NUM B634","SCOTTSDALE","AZ","85254"
14938,"10632 N SCOTTSDALE RD SUITE B 584","SCOTTSDALE","AZ","85254"
14939,"10632 N SCOTTSDALE RD SUITE B-584","SCOTTSDALE","AZ","85254"
14940,"10632 PAINTER AVE","SANTA FE SPRINGS","CA","90670"
14941,"10632 RIDGE DRIVE","CHICAGO RIDGE","IL","60415"
14942,"10632 SOUTH FAIRFIELD AVENUE","CHICAGO","IL","60655"
14943,"10633 POPPY DRIVE","NEOSHO","MO","64850"
14944,"10633 WORRELL ROAD","KIRTLAND","OH","44094"
14945,"10633","YAKIMA","WA","98909"
14946,"10634 S DAUPHIN","CHICAGO","IL","60628"
14947,"10635 36TH AVE N","PLYMOUTH","MN","55441"
14948,"10635 36TH AVENUE NORTH","PLYMOUTH","MN","55441"
14949,"10635 CONTROL PLACE","DALLAS","TX","75238"
14950,"10635 E HWY 92","HEREFORD","AZ","85615"
14951,"10635 GARDA DRIVE","TRINITY","FL","34655"
14952,"10635 HWY D","NAPOLEON","MO","64074"
14953,"10635 IH 35 N STE 312","SAN ANTONIO","TX","78233"
14954,"10635 LADERA POINT","LONE TREE","CO","80124"
14955,"10635 POLLARD PARK","INDIANAPOLIS","IN","46234"
14956,"10636 MOUNTAIN SPRING DRIVE","CHARLOTTE","NC","28278"
14957,"10636 NORTH CAVE CREEK RD","PHOENIX","AZ","85020"
14958,"10636 PICTORIAL PARK DR","TAMPA","FL","33617"
14959,"10636 PICTORIAL PARK DRIVE","TAMPA","FL","33647"
14960,"10636 S RHODES","CHICAGO","IL","60628"
14961,"10636 WOODLEY AVENUE UNIT 39","GRANADA HILLS","CA","91344"
14962,"10637 CAMINITO DURO","SAN DIEGO","CA","92126"
14963,"10637 MEADOW LARK LN","MIDWEST CITY","OK","73130"
14964,"10637 N HOLMES ST","KANSAS CITY","MO","64155"
14965,"10637 SEILER ROAD APT 510","NEW HAVEN","IN","46774"
14966,"10638 ANTLER TOOL ROAD","ALBUQUERQUE","NM","87121"
14967,"10638 MCBRIDE LN","DUBLIN","CA","94568"
14968,"10638 STONEBRIDGE BLVD","BOCA RATON","FL","33498"
14969,"1064 APRICOT LN","CONCORD","CA","94518"
14970,"1064 ARGYLE AVE","PONTIAC","MI","48341"
14971,"1064 AVE PONCE DE LEON SUITE 502","SAN JUAN","PR","00907"
14972,"1064 CLUBHOUSE RD","BLACKSBURG","VA","24060"
14973,"1064 COURTNEY MARIE LN","FALLON","NV","89406"
14974,"1064 EAST 39TH STREET","BROOKLYN","NY","11210"
14975,"1064 EAST RAHN ROAD","DAYTON","OH","45429"
14976,"1064 FOUNTAIN COIN LOOP","ORLANDO","FL","32828"
14977,"1064 GORDON EDWARDS ROAD","DUBLIN","GA","31021"
14978,"1064 HAYWARD CIRCLE","MILFORD","OH","45150"
14979,"1064 LIBERTY LANE","WESCOSVILLE","PA","18106"
14980,"1064 MAIN STREET","DEER CREEK","OK","74636"
14981,"1064 MARIAN LANE","SUMTER","SC","29153"
14982,"1064 NORTH MAIN STREET","DANBY","VT","05739"
14983,"1064 PENINSULA DRIVE","SLIDELL","LA","70460"
14984,"1064 PENNSYLVANIA AV","HARRISBURG","PA","17111"
14985,"1064 PIERMONT RD","SOUTH EUCLID","OH","44121"
14986,"1064 PINE KNOLLS DR","KERNESVILLE","NC","27284"
14987,"1064 PONCE DE LEON AVE   SUITE 500","SAN JUAN","PR","00907"
14988,"1064 S HARISTON STREET","STONE MOUNTAIN","GA","30088"
14989,"1064 SAND BAR CIRCLE SUITE G","CARMICHAEL","CA","95608"
14990,"1064 SHEFFIELD FOREST DRIVE","BALLWIN","MO","63021"
14991,"1064 SHERIDAN AVENUE APT 5A","BRONX","NY","10451"
14992,"1064 SPAULDING AVE","MANNING","SC","29150"
14993,"1064 TELLER AVE  APT 3D","BRONX","NY","10456"
14994,"1064 ULMSTEAD CIRCLE","ARNOLD","MD","21012"
14995,"1064 UNIVERSITY AVE","BRONX","NY","10452"
14996,"1064 W NEWBURY STREET","CITRUS SPRINGS","FL","34434"
14997,"1064 WESTLAKE DRIVE","KANNAPOLIS","NC","28081"
14998,"1064 WILSHAM DRIVE","SAN JOSE","CA","95132"
14999,"1064 WISDOM COURT","GLEN BURNIE","MD","21061"
15000,"1064-A BURTON ST SW","WYOMING","MI","49509"
