"ID","Address","City","State","Zip"
177001,"3333 NEW HYDE PARK ROAD","NEW HYDE PARK","NY","11042"
177002,"3333 NIXON RD","HOLIDAY","FL","34691"
177003,"3333 NORTH MARSHFIELD AVE  APT 305","CHICAGO","IL","60657"
177004,"3333 NW 101ST AVE","SUNRISE","FL","33351"
177005,"3333 PACIFIC PLACE   SUITE 623","LONG BEACH","CA","90806"
177006,"3333 PEACHTREE ROAD NE SUITE 400","ATLANTA","GA","30326"
177007,"3333 PENN AVENUE N","MINNEAPOLIS","MN","55412"
177008,"3333 PENSACOLA STREET SUITE 140","TALLAHASSEE","FL","32304"
177009,"3333 PHILISTIA CT","MURFREESBORO","TN","37127"
177010,"3333 PIEDMONT ROAD SUITE 2050","ATLANTA","GA","30305"
177011,"3333 PIEDMONT ROAD- SUITE 2050","ATLANTA","GA","30305"
177012,"3333 REGIS BLVD SMB1114","DENVER","CO","80221"
177013,"3333 REGIS BOULEVARD H-16","DENVER","CO","80221"
177014,"3333 REPUBLIC AVENUE","ST. LOUIS PARK","MN","55426"
177015,"3333 RIVERSIDE AVENUE","JACKSONVILLE","FL","32205"
177016,"3333 S ALAMEDA ST UNIT 13P","CORPUS CHRISTI","TX","78411"
177017,"3333 S GOLDEN ISLES HWY","LUMBER CITY","GA","31549"
177018,"3333 SE FERRY SLIP RD","SOUTH BEACH","OR","97366"
177019,"3333 SOUTH HARVARD SUITE D","TULSA","OK","74135"
177020,"3333 SOUTH MIAMI AVE","MIAMI","FL","33133"
177021,"3333 SOUTH PANTHER CREEK DRIVE","SPRING","TX","77381"
177022,"3333 SW 77TH STREET","LINCOLN","NE","68532"
177023,"3333 TREE HOUSE LANE","PLANO","TX","75023"
177024,"3333 W  LEXINGTON CT","PEORIA","IL","61615"
177025,"3333 W HAMILTON ROAD","FORT WAYNE","IN","46814"
177026,"3333 W MANCHESTER BLVD","INGLEWOOD","CA","90305"
177027,"3333 W TYLER AVE","VISALIA","CA","93291"
177028,"3333 W WARRENVILLE RD STE 200","LISLE","IL","60532"
177029,"3333 WONNACOTT AVE","JBMDL","NJ","08641"
177030,"333333 GOLDEN LANTERN","DANA POINT","CA","92629"
177031,"33337","FRANKLIN","VA","23851"
177032,"3334 1/2 BONNIE HILL DR","LOS ANGELES","CA","90068"
177033,"3334 BRECKINRIDGE LANE","LOUISVILLE","KY","40220"
177034,"3334 BROOKSHILL RD  PO BOX 151","LANGLEY","WA","98260"
177035,"3334 CARTER HILL ROAD","MONTGOMERY","AL","36116"
177036,"3334 CONGER RD","UNION POINT","GA","30669"
177037,"3334 DOUBLE RIDGE TERRACE","POWHATAN","VA","23139"
177038,"3334 E COAST HIGHWAY 643","CORONA DEL MAR","CA","92625"
177039,"3334 E COAST HWY NO 127","CORONA DEL MAR","CA","92660"
177040,"3334 GLACIER POINT","HOLTS SUMMIT","MO","65043"
177041,"3334 HARRISON ST","OAKLAND","CA","94611"
177042,"3334 HOLLY STAND CT","LOGANVILLE","GA","30052"
177043,"3334 LAKESIDE VIEW DR","FALLS CHURCH","VA","22041"
177044,"3334 MONTREAL STATION","TUCKER","GA","30084"
177045,"3334 N 124TH STREET","OMAHA","NE","68164"
177046,"3334 N DRUID HILLS RD UNIT A","DECATUR","GA","30033"
177047,"3334 NE 34TH STREET","FORT LAUDERDALE","FL","33334"
177048,"3334 OLSEN LANE","NASHVILLE","TN","37218"
177049,"3334 RICHMOND AVE STE 100","HOUSTON","TX","77098"
177050,"3334 RIVIERA DR","KEY WEST","FL","33040"
177051,"3334 ROCHESTER RD","TROY","MI","48083"
177052,"3334 ROCHESTER ROAD - 247","TROY","MI","48083"
177053,"3334 ROLLING KNOLL DRIVE","DALLAS","TX","75234"
177054,"3334 S EWING AVENUE","DALLAS","TX","75216"
177055,"3334 TOWN WALK DR","HAMDEN","CT","06518"
177056,"3334 US 27 SOUTH","CYNTHIANA","KY","41031"
177057,"3334 UTAH AVE","DALLAS","TX","75216"
177058,"3334 WELL STREET","REDSTONE ARSENAL","AL","35805"
177059,"33342 FOX RD","TEMECULA","CA","92592"
177060,"33346 MARINA BAY CIRCLE","MILLSBORO","DE","19966"
177061,"3335 142ND ST W","ROSEMOUNT","MN","55068"
177062,"3335 142ND STREET W","ROSEMOUNT","MN","55068"
177063,"3335 142ND STREET WEST","ROSEMOUNT","MN","55068"
177064,"3335 CARDIFF AVENUE","CINCINNATI","OH","45209"
177065,"3335 CASE CIRCLE","BOULDER","CO","80305"
177066,"3335 E OREGON AVE","PHOENIX","AZ","85018"
177067,"3335 FOWLER AVENUE","OMAHA","NE","68112"
177068,"3335 N 55TH ST","OMAHA","NE","68104"
177069,"3335 N SHEFFIELD AVE UNIT 1S","CHICAGO","IL","60657"
177070,"3335 SAHALEE DR W","SAMMAMISH","WA","98074"
177071,"3335 SALLY CIR","KEMPNER","TX","76539"
177072,"3335 SAM NEWELL RD","MATTHEWS","NC","28105"
177073,"3335 SHELL ISLE DRIVE","SOUTHPORT","NC","28461"
177074,"3335 SW STEPHENSON ST","PORTLAND","OR","97219"
177075,"3335 TRAVER DRIVE","BROOMFIELD","CO","80023"
177076,"3335 TROWBRIDGE DRIVE","CUMMING","GA","30040"
177077,"3335 W PRATT AVE","LINCOLNWOOD","IL","60712"
177078,"3335 WATT AVE STE B 242","SACRAMENTO","CA","95821"
177079,"3335 WATT AVENUE","SACRAMENTO","CA","95821"
177080,"3335 WEDDINGTON ROAD","MATTHEWS","NC","28105"
177081,"33354 GRACELAND LANE 389","GLADE SPRING","VA","24340"
177082,"33357 NOBLE ROAD","CONCEPTION JUNCTION","MO","64434"
177083,"33359 BAYBERRY CT","AVON LAKE","OH","44012"
177084,"3336 AURORA ST NE","LACEY","WA","98516"
177085,"3336 CALEY MILL DR","POWDER SPRINGS","GA","30127"
177086,"3336 E 32 STREET SUITE 100","TULSA","OK","74135"
177087,"3336 E CHANDLER HEIGHTS RD STE 117","GILBERT","AZ","85298"
177088,"3336 ELTON ROAD","JOHNSTOWN","PA","15904"
177089,"3336 GOLD MINE RD","BROOKEVILLE","MD","20833"
177090,"3336 LAWRENCE ST","NEW ORLEANS","LA","70114"
177091,"3336 MANDERSON ST","OMAHA","NE","68111"
177092,"3336 MARVIN D LOVE FWY APT 234","DALLAS","TX","75224"
177093,"3336 MUELLER CREEK BLVD","BRUNSWICK","OH","44212"
177094,"3336 N 18TH ST","PHILADELPHIA","PA","19140"
177095,"3336 N TEXAS ST STE J PMB 129","FAIRFIELD","CA","94533"
177096,"3336 N TEXAS STREET SUITE J333","FAIRFIELD","CA","94533"
177097,"3336 NAGAWICKA AVE","DELAFIELD","WI","53018"
177098,"3336 NORTH TEXAS ST SUITE J407","FAIRFIELD","CA","94533"
177099,"3336 SHALLOT DR UNIT 101","ORLANDO","FL","32835"
177100,"3336 SOUTH COURT","PALO ALTO","CA","94306"
177101,"3336 SOUTHMORE BLVD","HOUSTON","TX","77004"
177102,"3336 SUMMIT ST","KANSAS CITY","MO","64111"
177103,"3336 TEXAS AVENUE","BALTIMORE","MD","21234"
177104,"3336 YOUNGSTOWN LOCKPORT ROAD","RANSOMVILLE","NY","14131"
177105,"33368 LAZURITE WAY","MENIFEE","CA","92584"
177106,"3337 4TH AVENUE SOUTH","MINNEAPOLIS","MN","55408"
177107,"3337 DUKE STREET","ALEXANDRIA","VI","22314"
177108,"3337 EMERALD LANE","JEFFERSON CITY","MO","65109"
177109,"3337 GRANITE ROAD","WOODSTOCK","MD","21163"
177110,"3337 KARROS COURT","EDWARDSVILLE","IL","62025"
177111,"3337 KRAFT AVE SE","GRAND RAPIDS","MI","49512"
177112,"3337 NORTHROP AVENUE","SACRAMENTO","CA","95864"
177113,"33372 CALHOUN RD","SHADY POINT","OK","74956"
177114,"33379 BUFFALO PARK ROAD","EVERGREEN","CO","80439"
177115,"3338 40TH AVE SOUTH","MINNEAPOLIS","MN","55406"
177116,"3338 BRANDYWINE STREET","PHILADELPHIA","PA","19104"
177117,"3338 CLEMATIS STREET","NEW ORLEANS","LA","70122"
177118,"3338 COUNTRY CLUB DRIVE PMB 209","VALDOSTA","GA","31605"
177119,"3338 E ASTRO STREET","HEREFORD","AZ","85615"
177120,"3338 E TONTO DR","PHOENIX","AZ","85044"
177121,"3338 IRISH MIST WAY","SACRAMENTO","CA","95826"
177122,"3338 MAIN ST","MEXICO","NY","13114"
177123,"3338 MAIN STREET","MEXICO","NY","13114"
177124,"3338 METRO WAY","SNELLVILLE","GA","30039"
177125,"3338 OTTO AVE","ALPINE","CA","91901"
177126,"3338 PEACHTREE RD NE APT 1108","ATLANTA","GA","30326"
177127,"3338 PEACHTREE RD NE UNIT 408","ATLANTA","GA","30326"
177128,"3338 SPINDLETOP DR NW","KENNESAW","GA","30144"
177129,"3338 TENAHA DR","HOUSTON","TX","77014"
177130,"3338- L1 COUNTRY CLUD ROAD PMB 175","VALDOSTA","GA","31605"
177131,"3338-C UNIT 1 COUNTRY CLUB RD","VALDOSTA","GA","31605"
177132,"3338-L1 COUNTRY CLUB ROAD PMB 255","VALDOSTA","GA","31605"
177133,"3339 AUTUMN RIDGE DRIVE","CHARLOTTE","NC","28269"
177134,"3339 BOWMAN ROAD","GRANITE FALLS","NC","28630"
177135,"3339 BRUXELLES ST","NEW ORLEANS","LA","70122"
177136,"3339 CENTRAL AVE STE D","HOT SPRINGS","AR","71913"
177137,"3339 COONTIE CT","NEW PORT RICHEY","FL","34655"
177138,"3339 CRESTWELL DR","INDIANAPOLIS","IN","46268"
177139,"3339 FLORRIE AVENUE","LAS VEGAS","NV","89121"
177140,"3339 GREENBRANCH","HUMBLE","TX","77338"
177141,"3339 GRIFFIN AVENUE","LOS ANGELES","CA","90031"
177142,"3339 HARNESS CIRCLE","WELLINGTON","FL","33449"
177143,"3339 HARTFIELD ROAD","LA VERNIA","TX","78121"
177144,"3339 HWY 1 NORTH","ALEXANDRIA","LA","71303"
177145,"3339 ISHERWOOD WAY","FREMONT","CA","94536"
177146,"3339 MAURICIA AVE","SANTA CLARA","CA","95051"
177147,"3339 N CHATHAM RD APT E","ELLICOTT CITY","MD","21042"
177148,"3339 PERLITA AVENUE","LOS ANGELES","CA","90039"
177149,"3339 SENTINEL CIRCLE","LAWRENCEVILLE","GA","30043"
177150,"3339 SPRING GARDEN ST APT 2","PHILADELPHIA","PA","19104"
177151,"3339 STANLEY RD","FAIRLAWN","OH","44333"
177152,"3339 SW ILLINOIS ST","PORTLAND","OR","97239"
177153,"3339 W 129TH STREET","CLEVELAND","OH","44111"
177154,"3339 W GREENWOOD PL","PEORIA","IL","61615"
177155,"334 1/2 BERMUDA ST","NEW ORLEANS","LA","70114"
177156,"334 12TH AVE S","SHELBY","MT","59474"
177157,"334 12TH STREET","SEAL BEACH","CA","90740"
177158,"334 2ND AVENUE  APT 3E","GALLIPOLIS","OH","45631"
177159,"334 ANAPALAU ST","HONOLULU","HI","96825"
177160,"334 ANDREW CHAPEL ROAD","BRANDON","MS","39042"
177161,"334 ANGELWOOD CIR E","MEMPHIS","TN","38120"
177162,"334 ARCHER RD","BREWSTER","NY","10541"
177163,"334 AVENUE OF THE AMERICAS SUITE 1","NEW WINDSOR","NY","12553"
177164,"334 BOYLSTON ST SU 500- MALIA LAZU","BOSTON","MA","02116"
177165,"334 BROADMOOR ROAD","BALTIMORE","MD","21212"
177166,"334 CARVER AVENUE","NATCHITOCHES","LA","71457"
177167,"334 CENTER LIMESTONE RD","FORT FAIRFIELD","ME","04742"
177168,"334 CORNELIA STREET SUITE 274","PLATTSBURGH","NY","12901"
177169,"334 CORONA DEL MAR ST","LAKELAND","FL","33809"
177170,"334 CRESTWATER TRL","HOUSTON","TX","77082"
177171,"334 DELCRIS COURT","BIRMINGHAM","AL","35226"
177172,"334 E 37TH STREET","CHICAGO","IL","60653"
177173,"334 E BAY STREET","CHARLESTON","SC","29401"
177174,"334 E LAKE RD NUM RD-130","PALM HARBOR","TX","34685"
177175,"334 EAST BAY STREET - NUMBER 208","CHARLESTON","SC","29401"
177176,"334 EAST FIFTH AVENUE","LANCASTER","OH","43130"
177177,"334 EAST LAKE ROAD NUM 290","PALM HARBOR","FL","34685"
177178,"334 EAST SOUTHFIELD ROAD","SPANISH FORK","UT","84660"
177179,"334 EASTERN PARKWAY UNIT 5-G","BROOKLYN","CT","11225"
177180,"334 ENEMY KILLER RD","DODSON","MT","59524"
177181,"334 FIRST STREET","PITTSBURGH","PA","15215"
177182,"334 FLOYD ROAD","FORSYTH","GA","31029"
177183,"334 GLEN FALLS RD","CLARKSBURG","WV","26301"
177184,"334 GROVE AVE","CINCINNATI","OH","45215"
177185,"334 HAMPTON PARK DR","ATHENS","GA","30606"
177186,"334 HARDING HIGHWAY","CARNEYS POINT","NJ","08069"
177187,"334 HIDDEN CREEK CIR","WARNER ROBINS","GA","31088"
177188,"334 INDIAN GROVE DRIVE","STUART","FL","34994"
177189,"334 JAMES STREET","KINGSTON","PA","18704"
177190,"334 JARED DRIVE","FUQUAY-VARINA","NC","27526"
177191,"334 JOHNSTON AVE","PLAINFIELD","NJ","07062"
177192,"334 KENT STREET","PORTLAND","MI","48875"
177193,"334 KING HIGHWAY WEST","HADDONFIELD","NJ","08033"
177194,"334 KINGS HIGHWAY WEST","HADDONFIELD","NJ","08033"
177195,"334 KINGSTON RD","JACKSONVILLE","NC","28546"
177196,"334 KINNEY GLENN CT","DURHAM","NC","27713"
177197,"334 LONESTAR LANE","HIDEAWAY","TX","75771"
177198,"334 MELIUS ROAD","MCCONNELLSBURG","PA","17233"
177199,"334 MERIN HEIGHT ROAD","JACKSONVILLE","NC","28546"
177200,"334 MIAMI ST WEST","ELLETTSVILLE","IN","47429"
177201,"334 MUNSON CT","ANGLETON","TX","77515"
177202,"334 N 52ND STREET","PHILADELPHIA","PA","19139"
177203,"334 N BRAINARD","LA GRANGE PARK","IL","60526"
177204,"334 N HEATHERSTONE DR","SUN PRAIRIE","WI","53590"
177205,"334 N JACKSON ST","WAUKEGAN","IL","60085"
177206,"334 N NORMANDIE AVE SUITE 103","LOS ANGELES","CA","90004"
177207,"334 N NORMANDIE AVENUE SUITE 104","LOS ANGELES","CA","90004"
177208,"334 NE 4TH AVE","CAMAS","WA","98607"
177209,"334 NEW HERITAGE DR","COOKEVILLE","TN","38506"
177210,"334 NW 120 DRIVE","CORAL SPRINGS","FL","33071"
177211,"334 OKEMA WAY","LOUDON","TN","37774"
177212,"334 OLD JESUP ROAD","BRUNSWICK","GA","31520"
177213,"334 OSAGE DRIVE","BOLINGBROOK","IL","60490"
177214,"334 PARK AVE","CHALFONT","PA","18914"
177215,"334 PINE RIDGE ROAD","SARTELL","MN","56377"
177216,"334 RANDY ROAD","WEST MONROE","LA","71292"
177217,"334 RED BUD COURT","EATON","CO","80615"
177218,"334 RIVERSIDE DR 5","NYC","NY","10025"
177219,"334 ROLLING ARCE PARK LANE","NEW CREEK","WV","26743"
177220,"334 S 5TH ST","BROOKLYN","NY","11211"
177221,"334 S YOSEMITE AVENUE SUITE C","OAKDALE","CA","95361"
177222,"334 SEASIDE AVE 402","HONOLULU","HI","96815"
177223,"334 SHILOH STREET APT  2","CINCINNATI","OH","45220"
177224,"334 SNAVELY RD","STAMPING GROUND","KY","40379"
177225,"334 SOUTH CABRILLO AVENUE","SAN PEDRO","CA","90731"
177226,"334 SOUTH MAIN STREET","MONTICELLO","WI","53570"
177227,"334 STATE STREET SUITE 104","LOS ALTOS","CA","94022"
177228,"334 SW MADISON ST","SHERIDAN","OR","97378"
177229,"334 UNDERHILL AVENUE 4-A","YORKTOWN HEIGHTS","NY","10598"
177230,"334 VIA VERA CRUZ STE 101","SAN MARCOS","CA","92078"
177231,"334 VIA VERA CRUZ STE 253","SAN MARCOS","CA","92078"
177232,"334 W 1ST STREET","WEST ISLIP","NY","11795"
177233,"334 W 6TH STREET","LAPEL","IN","46051"
177234,"334 W SLIPPERY ROCK ST","CHICORA","PA","16025"
177235,"334 WATCHTIDE WAY","OAKLEY","CA","94561"
177236,"334 WELLS RD","ARCADIA","LA","71001"
177237,"334-- 58TH STREET","WOODSIDE","NY","11377"
177238,"3340 BLUE GRASS DRIVE","AUBURN","CA","95206"
177239,"3340 BRICHAR WAY","COLUMBUS","OH","43204"
177240,"3340 BRUGGER PLACE","MCFARLAND","WI","53558"
177241,"3340 CANAL CIRCLE","MITCHELL","SD","57301"
177242,"3340 E 30TH PLACE NORTH","TULSA","OK","74115"
177243,"3340 FAIRLANE FARMS RD   4","WELLINGTON","FL","33414"
177244,"3340 GLASGOW DRIVE","COLUMBUS","OH","43125"
177245,"3340 MAIN ST","HARTFORD","CT","06120"
177246,"3340 MITCHELL LANE","BOULDER","CO","80301"
177247,"3340 N 37TH ST","HOLLYWOOD","FL","33021"
177248,"3340 N CALHOUN TERRACE","HERNANDO","FL","34442"
177249,"3340 NE RALPH POWELL ROAD SUITE B","LEES SUMMIT","MO","64064"
177250,"3340 PARIS ROAD SUITE 1883","CHALMETTE","LA","70043"
177251,"3340 PEACHTREE RD NE ST 1010","ATLANTA","GA","30326"
177252,"3340 PEACHTREE RD SUITE 1800","ATLANTA","GA","30326"
177253,"3340 PEACHTREE ROAD NE SUITE 1800","ATLANTA","GA","30326"
177254,"3340 PEACHTREE ROAD NE SUITE 2600","ATLANTA","GA","30326"
177255,"3340 PEACHTREE ROAD NE SUITE 850","ATLANTA","GA","30326"
177256,"3340 PEPPER LANE STE 110","LAS VEGAS","NV","89120"
177257,"3340 PEPPER LN STE 108","LAS VEGAS","NV","89120"
177258,"3340 PEPPER LN STE 110","LAS VEGAS","NV","89120"
177259,"3340 PILOT KNOB RD","SAINT PAUL","MN","55121"
177260,"3340 PILOT KNOB RD","ST PAUL","MN","55121"
177261,"3340 PILOT KNOB RD","ST. PAUL","MN","55121"
177262,"3340 PILOT KNOB RD","ST.PAUL","MN","55121"
177263,"3340 PILOT KNOB ROAD","SAINT PAUL","MN","55121"
177264,"3340 PILOT KNOB ROAD","ST PAUL","MN","55121"
177265,"3340 PILOT KNOB ROAD","ST. PAUL","MN","55121"
177266,"3340 POPLAR AVENUE SUITE 326","MEMPHIS","TN","38111"
177267,"3340 ROBERTA CHURCH ROAD","CONCORD","NC","28027"
177268,"3340 ROBINWOOD ROAD 100-524","GASTONIA","NC","28054"
177269,"3340 SILVER CREEK DRIVE","MESQUITE","TX","75181"
177270,"3340 SOUTH PERRY PARK ROAD","SEDALIA","CO","80135"
177271,"3340 SPENCER STREET","CUMMING","GA","30041"
177272,"3340 UTAH AVE S","ST. LOUIS PARK","MN","55426"
177273,"3340 VETERANS MEMORIAL HIGHWAY","BOHEMIA","NY","11716"
177274,"3340 WEBSTER STREET","WEST LAFAYETTE","IN","47906"
177275,"3340 WILD PALMS DIRVE","MODESTO","CA","95355"
177276,"33401 150TH AVE","ASHBY","MN","56309"
177277,"33408 WARWICK HILLS RD","YUCAIPA","CA","92399"
177278,"3341 42ND STREET","SAN DIEGO","CA","92105"
177279,"3341 ARDEN WAY","SACRAMENTO","CA","95825"
177280,"3341 BARROW HILL TRAIL","TALLAHASSEE","FL","32312"
177281,"3341 DARVANY DR","DALLAS","TX","75220"
177282,"3341 E MALLORY AVE","CUDAHY","WI","53110"
177283,"3341 HEWIETT AVENUE","MERRICK","NY","11566"
177284,"3341 LADY MARIAN CT","MIDLOTHIAN","VA","23113"
177285,"3341 MAIN STREET","ADAMSVILLE","AL","35005"
177286,"3341 MOUNTAINSIDE RD","BIRMINGHAM","AL","35243"
177287,"3341 REGENT BLVD STE 130 - 148","IRVING","TX","75063"
177288,"3341 ROCKWOOD LANE SOUTH","ESTES PARK","CO","80517"
177289,"3341 SHINNECOCK DRIVE","CHAMBERSBURG","PA","17202"
177290,"3341 SPRUCE LANE","GRAPEVINE","TX","76051"
177291,"3341 SW 94 PLACE","MIAMI","FL","33165"
177292,"3341 TIMBERCROSS PLACE","ST CHARLES","MO","63301"
177293,"3341 TULANE AVE","IOWA CITY","IA","52245"
177294,"3341 UNIVERSITY PARK LANE","IRVING","TX","75062"
177295,"3341 WEST 43RD PLACE","LOS ANGELES","CA","90008"
177296,"33417 HIGHWAY 300","ROLAND","AR","72135"
177297,"3341A N 37TH ST","MILWAUKEE","WI","53216"
177298,"3342 BLUE STAR HIGHWAY","SAUGATUCK","MI","49453"
177299,"3342 BOXELDER DR","HOUSTON","TX","77082"
177300,"3342 LOCH LAUREL ROAD","LAKE PARK","GA","31636"
177301,"3342 MERLOT PASS","LAWRENCEVILLE","GA","30044"
177302,"3342 PARK VISTA DR","LA CRESCENTA","CA","91214"
177303,"3342 SW HOSANAH LN","OKEECHOBEE","FL","34974"
177304,"33427 BLUEBELL CIRCLE","EVERGREEN","CO","80439"
177305,"3343 AUGUSTA NATIONAL DR S","SALEM","OR","97302"
177306,"3343 BLACKVINE DR","MATTHEWS","NC","28105"
177307,"3343 BRAMANTE LN","DUBLIN","CA","94568"
177308,"3343 BRITTANY LANE","LANCASTER","CA","93536"
177309,"3343 EAST 134TH STREET","CLEVELAND","OH","44120"
177310,"3343 HICKORYNUT STREET","JACKSONVILLE","FL","32208"
177311,"3343 JASMINE VINE CT","LAS VEGAS","NV","89135"
177312,"3343 KENWOOD ST","HAMMOND","IN","46323"
177313,"3343 LARIMER STREET SUITE 500","DENVER","CO","80205"
177314,"3343 LEXINGTON ROAD","PARIS","KY","40361"
177315,"3343 LYNDALE AVENUE","BALTIMORE","MD","21213"
177316,"3343 NICHOLS RD","LITHIA","FL","33547"
177317,"3343 NW 27TH TERRACE","BOCA RATON","FL","33434"
177318,"3343 OREGON TRL","FORT COLLINS","CO","80526"
177319,"3343 PARC DR","ATLANTA","GA","30311"
177320,"3343 PEACHTREE ROAD NE SUITE 145","ATLANTA","GA","30326"
177321,"3343 PEACHTREE ROAD NE","ATLANTA","GA","30326"
177322,"3343 W 43RD ST","LOS ANGELES","CA","90008"
177323,"3343 W DOUGLAS BLVD","CHICAGO","IL","60623"
177324,"33437 ROYAL PARK DR","FRASER","MI","48026"
177325,"3344  E CANFIELD","DETROIT","MI","48207"
177326,"3344 1/2 GLENHURST AVE","LOS ANGELES","CA","90039"
177327,"3344 93RD STREET APT 5R","JACKSON HEIGHTS","NY","11372"
177328,"3344 BROME LANE","NASHVILLE","TN","37218"
177329,"3344 BROOKWOOD ROAD","MOUNTAIN BROOK","AL","35223"
177330,"3344 BURTON AVE","PITTSBURG","CA","94565"
177331,"3344 FARRINGTON ST 2FL","FLUSHING","NY","11354"
177332,"3344 FOURTH AVENUE SUITE 200","SAN DIEGO","CA","92101"
177333,"3344 GLENDALE","DETROIT","MI","48238"
177334,"3344 HIGHWAY 261","NEWBURGH","IN","47630"
177335,"3344 IND-261","NEWBURGH","ID","47630"
177336,"3344 MCCORMICK WOODS DRIVE","OCOEE","FL","34761"
177337,"3344 ROCKCUT RD","KETTLE FALLS","WA","99141"
177338,"3344 STATE ROUTE 261","NEWBURGH","IN","47630"
177339,"3344 W 110TH STREET","CHICAGO","IL","60655"
177340,"3344 W SUNNYVIEW AVE","VISALIA","CA","93291"
177341,"3344 WAGGNER WAY","REX","GA","30273"
177342,"3344 WESTBOURNE DR","CINCINNATI","OH","45248"
177343,"33440 N 47TH WAY","CAVE CREEK","AZ","85331"
177344,"33446 E LAKE JOANNA DRIVE","EUSTIS","FL","32736"
177345,"33446 RIDGE LN","BURLINGTON","WI","53105"
177346,"33449 PONY LOOP","FREMONT","CA","94555"
177347,"3345 APPLEFORD WAY","YORK","PA","17402"
177348,"3345 AZALEA DR S","SALEM","OR","97302"
177349,"3345 BIXLER RD 1761","DISCOVERY BAY","CA","94505"
177350,"3345 DELTA AVE","LONG BEACH","CA","90810"
177351,"3345 E HAMPTON AVE","MESA","AZ","85204"
177352,"3345 ELK RUN DR","CASTLE ROCK","CO","80109"
177353,"3345 GEARHART ROAD","TROY","OH","45373"
177354,"3345 HIGHWAY 208","LEBANON","KY","40033"
177355,"3345 HUCKLEBERRY CT S","SALEM","OR","97302"
177356,"3345 MAPLE DRIVE","PITTSBURGH","PA","15237"
177357,"3345 MC MANUS AVENUE","CULVER CITY","CA","90232"
177358,"3345 MCMANUS AVENUE","CULVER CITY","CA","90232"
177359,"3345 NORTH 51ST STREET","KANSAS CITY","KS","66104"
177360,"3345 REDWOOD HWY","GRANTS PASS","OR","97527"
177361,"3345 RESERVOR OVAL W APT 3E","BRONX","NY","10467"
177362,"3345 SW 97TH AVE","PORTLAND","OR","97225"
177363,"3345 TIMBER WALK CIR","LOGANVILLE","GA","30052"
177364,"3345 W EVERGREEN NUMBER 2","CHICAGO","IL","60651"
177365,"3345 WEBER ROAD","MALABAR","FL","32950"
177366,"33450 VINE ST  APT 108C","EASTLAKE","OH","44095"
177367,"33453 JEIDY HILL RD","WAUZEKA","WI","53826"
177368,"33455 SOMERSET RD","YUCAIPA","CA","92399"
177369,"33456 CROOKS","BROWNSTOWN","MI","48173"
177370,"3346 CAMINITO VASTO","LA JOLLA","CA","92037"
177371,"3346 CARDINAL AVE","MACON","GA","31210"
177372,"3346 CHERRYBROOK DR","JAMESTOWN","NC","27282"
177373,"3346 CRAIG DR APT K229","HAMMOND","IN","46323"
177374,"3346 E T C JESTER BLVD - 1000","HOUSTON","TX","77018"
177375,"3346 HAYWOOD RD","HENDERSONVILLE","NC","28791"
177376,"3346 INNSBROOKE AVE","BOWLING GREEN","KY","42104"
177377,"3346 JASPER RD","XENIA","OH","45385"
177378,"3346 S XANTHIA CT","DENVER","CO","80231"
177379,"3346 VAUGHN ROBERTSON RD","STEENS","MS","39766"
177380,"3346 VILLANOVA AVE","SAN DIEGO","CA","92122"
177381,"3346 W 65TH PLACE","CHICAGO","IL","60629"
177382,"3346 W PALMETTO ST","FLORENCE","SC","29501"
177383,"3346 WEST VALLEY VIEW","SAINT JOSEPH","MI","49085"
177384,"33462 TWIN HILLS WAY","TEMECULA","CA","92592"
177385,"33467 LOUISE AVE","CLINTON TWP","MI","48035"
177386,"3347 1/2 LA CLEDE AVE","LOS ANGELES","CA","90039"
177387,"3347 60TH ST","WOODSIDE","NY","11377"
177388,"3347 BRAEMAR ROAD","SHAKER HEIGHTS","OH","44120"
177389,"3347 CHALFONT DR","HOUSTON","TX","77066"
177390,"3347 EHRK HILL DRIVE","HOOD RIVER","OR","97031"
177391,"3347 ERNEST ST","JACKSONVILLE","FL","32205"
177392,"3347 HIGHWOOD DRIVE","WASHINGTON","DC","20020"
177393,"3347 MILL RACE RD","CHARLOTTE","NC","28270"
177394,"3347 MILL RACE ROAD","CHARLOTTE","NC","28270"
177395,"3347 MOUNT BETHEL ROAD","KEITHVILLE","LA","71047"
177396,"3347 N 77TH STREET","MILWAUKEE","WI","53222"
177397,"3347 N RANCH ST","VISALIA","CA","93291"
177398,"3347 OAK WEST DRIVE","ELLICOTT CITY","MD","21043"
177399,"3347 SE 22ND PL","CAPE CORAL","FL","33904"
177400,"3347 SOUTH SHORE DRIVE","SMITHFIELD","VA","23430"
177401,"3347 TYRONE DRIVE","CHARLOTTE","NC","28215"
177402,"3347 WEBSTER AVENUE","PITTSBURGH","PA","15219"
177403,"3347","TERRE HAUTE","IN","47805"
177404,"33470 CHINOOK PLAZA SUITE 373","SCAPPOOSE","OR","97056"
177405,"33479 LAKE RD","AVON LAKE","OH","44012"
177406,"3348 136TH ST WEST","ROSEMOUNT","MN","55068"
177407,"3348 BELLEFONTE DRIVE","LEXINGTON","KY","40502"
177408,"3348 CALDWELL STREET","DELTONA","FL","32738"
177409,"3348 CAYTON DRIVE","MAIDEN","NC","28650"
177410,"3348 CHAPELWOOD DRIVE","BATON ROUGE","LA","70816"
177411,"3348 CONQUISTADOR CT","ANNANDALE","VA","22003"
177412,"3348 EAST 123RD STREET","CLEVELAND","OH","44120"
177413,"3348 GREEN DR","FESTUS","MO","63028"
177414,"3348 INDIAN RD","TOLEDO","OH","43606"
177415,"3348 N KENMORE AVE APT 3","CHICAGO","IL","60657"
177416,"3348 N WICKHAM COURT","SPRINGFIELD","MO","65803"
177417,"3348 ONSLOW WAY","SAN JOSE","CA","95132"
177418,"3348 PEACHTREE RD NE SUITE 700","ATLANTA","GA","30326"
177419,"3348 PEACHTREE RD SUITE 700","ATLANTA","GA","30326"
177420,"3348 PEACHTREE ROAD NE SUITE 700","ATLANTA","GA","30326"
177421,"3348 PERRY AVE","BRONX","NY","10467"
177422,"3349 1/2 FAY AVE","CULVER CITY","CA","90232"
177423,"3349 ALDERDALE DR","STERLING HEIGHTS","MI","48310"
177424,"3349 BALSAM AVE NE","GRAND RAPIDS","MI","49525"
177425,"3349 CHICAGO AVE","RIVERSIDE","CA","92507"
177426,"3349 DEARING ACRES ROAD","DEARING","GA","30808"
177427,"3349 ESTERS RD UNIT 1003","IRVING","TX","75062"
177428,"3349 FREEPORT AVENUE","ELKO","NV","89801"
177429,"3349 GARDEN MILL TER","ELLENWOOD","GA","30294"
177430,"3349 KUSMIERZ","ST HEDWIG","TX","78152"
177431,"3349 LILY MAGNOLIA COURT","BUFORD","GA","30519"
177432,"3349 PLEASANT ST","BERRIEN SPRINGS","MI","49103"
177433,"3349 S FEDERAL HWY D","BOYNTON BEACH","FL","33435"
177434,"3349 STONEWAY DR","GRAND PRAIRIE","TX","75052"
177435,"33492 ROYAL PARK DR","FRASER","MI","48026"
177436,"335 14TH AVE","SANTA CRUZ","CA","95062"
177437,"335 31ST STREET SOUTH","ST PETERSBURG","FL","33712"
177438,"335 4TH AVENUE","SALT LAKE CITY","UT","84103"
177439,"335 5TH STREET NE","ATLANTA","GA","30308"
177440,"335 6TH STREET","JESUP","IA","50648"
177441,"335 ABBY LANE","BATESVILLE","IN","47006"
177442,"335 ADAMS STREET SUITE 2700","BROOKLYN","NY","11201"
177443,"335 ALAMEDA PARKWAY","ARNOLD","MD","21012"
177444,"335 ALISO DR NE","ALBUQUERQUE","NM","87108"
177445,"335 ASA ROSE LANE","LEXINGTON","SC","29072"
177446,"335 BALLARD LANE","OXFORD","AR","72565"
177447,"335 BENTLEY PARK LN","REISTERSTOWN","MD","21136"
177448,"335 BERRY STREET - UNIT 106","SAN FRANCISCO","CA","94158"
177449,"335 BREADEN ST","YOUNGSTOWN","OH","44502"
177450,"335 BRIDGE STREET  1907","GRAND RAPIDS","MI","49504"
177451,"335 BRINDLE ROAD","MECHANICSBURG","PA","17055"
177452,"335 CALLE HERMOSO","SANTA BARBARA","CA","93108"
177453,"335 CARLTON AVE","CHAMBERSBURG","PA","17201"
177454,"335 CARROLL STREET APT 3D","BROOKLYN","NY","11231"
177455,"335 CASCADE DRIVE","FAIRFAX","CA","94930"
177456,"335 CATAWAY ISLAND RD","ECLECTIC","AL","36024"
177457,"335 CENTENNIAL WAY SUITE 100","TUSTIN","CA","92780"
177458,"335 CENTER ST","GLEN ELLYN","IL","60137"
177459,"335 COLEMAN AVE","WAVELAND","MS","39576"
177460,"335 CYPRESS CREEK RD APT 4605","CEDAR PARK","TX","78613"
177461,"335 DREXEL PLACE","PICKERINGTON","OH","43147"
177462,"335 E 104TH STREET","LOS ANGELES","CA","90003"
177463,"335 E 209TH ST APT 3","BRONX","NY","10467"
177464,"335 E ALBERTONI ST      200 351","CARSON","CA","90746"
177465,"335 E ALBERTONI ST  200-630","CARSON","CA","90746"
177466,"335 E ALBERTONI ST 200-717","CARSON","CA","90746"
177467,"335 E ALBERTONI ST NO 200-555","CARSON","CA","90746"
177468,"335 E ALBERTONI ST STE 200-440","CARSON","CA","90746"
177469,"335 E ALBERTONI ST STE 200-558","CARSON","CA","90746"
177470,"335 E ALBERTONI ST SUITE 200-308","CARSON","CA","90746"
177471,"335 E ALBERTONI ST SUITE 200-438","CARSON","CA","90746"
177472,"335 E ALBERTONI ST","CARSON","CA","90746"
177473,"335 E ALBERTONI STREET STE 200-614","CARSON","CA","90746"
177474,"335 E ALBERTONI STREET SUITE 200832","CARSON","CA","90746"
177475,"335 E LINTON BLVD / SUITE B14 2107","DELRAY BEACH","FL","33483"
177476,"335 E MAPLE ST","LIBERTY CENTER","OH","43532"
177477,"335 E NORTH ST","NEW BRAUNFELS","TX","78130"
177478,"335 EAST ADAMS ST","STOCKTON","CA","95204"
177479,"335 EAST ALBERTONI ST 200-830","CARSON","CA","90746"
177480,"335 EAST LINTON BLVD NO 2234","DELRAY BEACH","FL","33483"
177481,"335 EAST LINTON BLVD STE B-14 2058","DELRAYBEACH","FL","33483"
177482,"335 ELM STREET","JACKSONVILLE","FL","32204"
177483,"335 ENCINO DR","OAK VIEW","CA","93022"
177484,"335 ETERNITY LANE","PINEVILLE","MO","64856"
177485,"335 FLAGLER BLVD","LAKE PARK","FL","33403"
177486,"335 FOXON ROAD","NORTH BRANFORD","CT","06474"
177487,"335 FRECKLES RD","KALISPELL","MT","59901"
177488,"335 FREDRICKSON RD","WOODLAND","WA","98674"
177489,"335 GRANT ROAD","GERMFASK","MI","49836"
177490,"335 GRAYROCK DRIVE","CROZET","VA","22932"
177491,"335 GREEN CUP CT UNIT B-1","ATLANTA","GA","30331"
177492,"335 HARTMAN ST","WOODVILLE","OH","43469"
177493,"335 HOGAN LANE SUITE 100","CONWAY","AR","72034"
177494,"335 HOME AVE","HOLLAND","MI","49424"
177495,"335 HUNTERS TRCE","COVINGTON","GA","30014"
177496,"335 KINGSTON CIR","BIRMINGHAM","AL","35211"
177497,"335 KITTLE STREET","WILLIAMSTOWN","WV","26187"
177498,"335 LAMARQUE ST","MANDEVILLE","LA","70448"
177499,"335 LIGHTHOUSE OVAL","MARBLEHEAD","OH","43440"
177500,"335 LINKMERE LANE","COVINGTON","GA","30014"
