"ID","Address","City","State","Zip"
238001,"525 E 100 S","SPRINGVILLE","UT","84663"
238002,"525 E 14TH AVENUE APT 3","ANCHORAGE","AK","99501"
238003,"525 E 37TH ST APT A","SAVANNAH","GA","31401"
238004,"525 E 83RD STREET SUITE 1R","NEW YORK","NY","10028"
238005,"525 E CAMDEN AVE 10","EL CAJON","CA","92020"
238006,"525 E LAVERNE DR","OAK CREEK","WI","53154"
238007,"525 E MICHIGAN AVE SUITE 151","SALINE","MI","48176"
238008,"525 E SEASIDE WAY UNIT 2206","LONG BEACH","CA","90802"
238009,"525 E WASHINGTON AVE","SANTA ANA","CA","92701"
238010,"525 EAGLES NEST LANE","GLENEDEN BEACH","OR","97388"
238011,"525 EAST 200 SOUTH","LEHI","UT","84043"
238012,"525 EAST 28TH STREET","BROOKLYN","NY","11210"
238013,"525 EAST 38TH STREET","INDIANAPOLIS","IN","46205"
238014,"525 EAST 72ND STREET","NEW YORK","NY","10021"
238015,"525 EAST 7TH STREET","SAINT PAUL","MN","55101"
238016,"525 EAST 86 STREET APT 8A","NEW YORK","NY","10028"
238017,"525 EAST 89TH STREET     APT 3A","NEW YORK","NY","10128"
238018,"525 EAST COUNTY LINE RD STE 3","LAKEWOOD","NJ","08701"
238019,"525 EAST GENESEE STREET","FRANKENMUTH","MI","48734"
238020,"525 EAST MICHIGAN AVENUE","SALINE","MI","48176"
238021,"525 ELM STREET","BOLIVAR","TN","38008"
238022,"525 ELMWOOD DR","LOS BANOS","CA","93635"
238023,"525 EMMANUEL CT","VALLEY PARK","MO","63088"
238024,"525 FLORAL PARK TERRACE","SOUTH PASADENA","CA","91030"
238025,"525 FORT WORTH DRIVE","DENTON","TX","76201"
238026,"525 GARDEN AVENUE","BUTTE","MT","59701"
238027,"525 GARTH BROOKS BLVD","YUKON","OK","73099"
238028,"525 GLEN IRIS DR NE UNIT 2415","ATLANTA","GA","30308"
238029,"525 GLEN IRIS DRIVE NE NUM 1312","ATLANTA","GA","30308"
238030,"525 GRAY FOX CT","LELAND","NC","28451"
238031,"525 GREEN STREET","ISELIN","NJ","08830"
238032,"525 GROVE STREET NO 1","SAN FRANCISCO","CA","94102"
238033,"525 GULF SHORES DR","FRISCO","TX","75034"
238034,"525 GUS HIPP BLVD SUITE E","ROCKLEDGE","FL","32955"
238035,"525 HAMILTON STREET","TOLEDO","OH","43604"
238036,"525 HIGH STREET SUITE 114","PARIS","KY","40361"
238037,"525 HWY 10 S STE 1","ST CLOUD","MN","56304"
238038,"525 INDIAN RIVER AVENUE UNIT 204","TITUSVILLE","FL","32796"
238039,"525 JORDAN LN","HEMPHILL","TX","75948"
238040,"525 JUNG BLVD W","NAPLES","FL","34120"
238041,"525 K EAST MARKET STREET SUITE 238","LEESBURG","VA","20176"
238042,"525 KENT STREET","SALINAS","CA","93906"
238043,"525 KING STREET SECOND FLOOR","CHARLESTON","SC","29403"
238044,"525 KRISTINA CIR","STATE COLLEGE","PA","16803"
238045,"525 LAKE CONCORD RD NE","CONCORD","NC","28025"
238046,"525 LAKE CONCRD ROAD","CONCORD","NC","28025"
238047,"525 LAKE GASTON DRIVE","FUQUAY VARINA","NC","27526"
238048,"525 LAKELAND ROAD SOUTH","SEVERNA PARK","MD","21146"
238049,"525 LINCOLN AVE","STOUGHTON","WI","53589"
238050,"525 LINDEN BLVD","BROOKLYN","NY","11203"
238051,"525 LONGS GAP RD","CARLISLE","PA","17013"
238052,"525 LYDIA ANN CHANNEL","PORT ARANSAS","TX","78373"
238053,"525 MAIN ST BOX 120838","SAINT PAUL","MN","55112"
238054,"525 MAIN ST SUITE 10","EL CENTRO","CA","92243"
238055,"525 MARTIN LN","EVANSVILLE","IN","47715"
238056,"525 MICA TRACE","COLLEGE PARK","GA","30349"
238057,"525 MILL ST","BLOOMINGTON","WI","53804"
238058,"525 MOSBY STREET","RICHMOND","VA","23223"
238059,"525 MYRTLE AVENUE C-101","BROOKLYN","NY","11205"
238060,"525 N  SAM HOUSTON PKWY E STE 445","HOUSTON","TX","77060"
238061,"525 N 11TH STREET - UNIT 505","PHILADELPHIA","PA","19123"
238062,"525 N 1ST ST","GLENWOOD","AR","71943"
238063,"525 N 1ST STREET","LAKEVIEW","OR","97630"
238064,"525 N 3RD AVENUE","PASCO","WA","99301"
238065,"525 N BERKLEY ST","KALAMAZOO","MI","49006"
238066,"525 N BONITA AVENUE","TUCSON","AZ","85745"
238067,"525 N ERIE ST","TOLEDO","OH","43604"
238068,"525 N GILBERT ST SPC 106","ANAHEIM","CA","92801"
238069,"525 N HARBOR BLVD","SAN PEDRO","CA","90731"
238070,"525 N ILLINOIS ST","INDIANAPOLIS","IN","46204"
238071,"525 N SAM HOUSTON PKWY E SUITE 172","HOUSTON","TX","77060"
238072,"525 N SAM HOUSTON PKWY EAST STE 380","HOUSTON","TX","77060"
238073,"525 N SAM HOUSTON PKWY","HOUSTON","TX","77060"
238074,"525 N SANTIAM BOX 739 C/O HOSPITAL","LEBANON","OR","97355"
238075,"525 N SHAFFER ST","ORANGE","CA","92866"
238076,"525 N SHAFFER STREET","ORANGE","CA","92867"
238077,"525 N WALNUT STREET","DOVER","OH","44622"
238078,"525 NE 37TH ST","BOCA RATON","FL","33431"
238079,"525 NE NORTHGATE WAY - UNIT 334","SEATTLE","WA","98125"
238080,"525 NEWPORT AVENUE","WILLIAMSBURG","VA","23185"
238081,"525 NEWTON LAKE DRIVE SUITE D105","COLLINGSWOOD","NJ","08107"
238082,"525 NORTH 1ST","LAKEVIEW","OR","97630"
238083,"525 NORTH 3RD AVE","PASCO","WA","99301"
238084,"525 NORTH CENTRAL AVE STE 9","POMONA","CA","91786"
238085,"525 NORTH MARKET STREET","INGLEWOOD","CA","90302"
238086,"525 NORTH NEW STREET","WEST CHESTER","PA","19380"
238087,"525 NORTH THOMPSON","NIPOMO","CA","93444"
238088,"525 NORTH TRYON STREET FLOOR 16","CHARLOTTE","NC","28202"
238089,"525 NORTHLAKE BOULEVARD - STE 4","NORTH PALM BEACH","FL","33408"
238090,"525 NW 126TH ST","MIAMI","FL","33168"
238091,"525 NW 126TH STREET","MIAMI","FL","33168"
238092,"525 NW 40TH ST","OKLAHOMA CITY","OK","73118"
238093,"525 NW LAKE ROESIGER ROAD","SNOHOMISH","WA","98290"
238094,"525 NW LAKE WHITNEY PLACE","SAINT LUCIE WEST","FL","34986"
238095,"525 OBERLIN AVENUE SOUTH","LAKEWOOD","NJ","08701"
238096,"525 OKEECHOBEE BOULEVARD SUITE 1100","WEST PALM BEACH","FL","33401"
238097,"525 ORANGE CENTER ROAD","ORANGE","CT","06477"
238098,"525 PALISADE AVE","CLIFFSIDE PARK","NJ","07010"
238099,"525 PARK STREET SUITE 240","SAINT PAUL","MN","55103"
238100,"525 PARKCHESTER ROAD","BUFFALO GROVE","IL","60089"
238101,"525 PAUL ROAD","ROCHESTER","NY","14624"
238102,"525 PERRY HIGHWAY","HARMONY","PA","16037"
238103,"525 POMPTON AVE PO BOX 435","CEDAR GROVE","NJ","07009"
238104,"525 REDDICKS CIR","WINTER HAVEN","FL","33884"
238105,"525 REDLAND BLVD","ROCKVILLE","MD","20850"
238106,"525 ROCKWOOOD ST SE","SALEM","OR","97306"
238107,"525 ROSEDALE AVENUE APT 1D","BRONX","NY","10473"
238108,"525 ROUTE 73 N STE 104","MARLTON","NJ","08053"
238109,"525 ROUTE 73 N SUITE 104","MARLTON","NJ","08053"
238110,"525 ROUTE 73 N- STE 309","MARLTON","NJ","08053"
238111,"525 ROUTE 73 NORTH STE 104","MARLTON","NJ","08053"
238112,"525 ROUTE 73 NORTH STE104","MARLTON","NJ","08053"
238113,"525 ROUTE 73 NORTH SUITE 104","MARLTON","NJ","08053"
238114,"525 ROUTE 73 NORTH","MARLTON","NJ","08053"
238115,"525 ROUTE 73 STE 104","MARLTON","NJ","08053"
238116,"525 S 4TH AV E","NEWTON","IA","50208"
238117,"525 S 4TH EAST","PRESTON","ID","83263"
238118,"525 S 56TH ST","TACOMA","WA","98408"
238119,"525 S 8TH ST","LEBANON","PA","17042"
238120,"525 S ARDMORE AVE 353","LOS ANGELES","CA","90020"
238121,"525 S ARDMORE UNIT 116","LOS ANGELES","CA","90020"
238122,"525 S BERENDO ST UNIT 203","LOS ANGELES","CA","90020"
238123,"525 S CALIFORNIA AVENUE","CHICAGO","IL","60612"
238124,"525 S CASTLEROCK TERRACE","SUNNYVALE","CA","94087"
238125,"525 S CONWAY RD APT 57","ORLANDO","FL","32807"
238126,"525 S EUCLID AVENUE","OAK PARK","IL","60304"
238127,"525 S GOEBEL ROAD","RAVENNA","MI","49451"
238128,"525 S LA FAYETTE PARK PL UNIT 106","LOS ANGELES","CA","90057"
238129,"525 S MAIN STREET","CHESHIRE","CT","06410"
238130,"525 S MERIDIAN STREET SUITE 1C3","INDIANAPOLIS","IN","46225"
238131,"525 S OXFORD AVE APT 208","LOS ANGELES","CA","90020"
238132,"525 SAN ANSELMO AVENUE","SAN ANSELMO","CA","94960"
238133,"525 SAN PEDRO NE SUITE 211","ALBUQUERQUE","NM","87108"
238134,"525 SANDSTONE DRIVE","ATHENS","GA","30605"
238135,"525 SCENIC AVENUE","BLOOMSBURG","PA","17815"
238136,"525 SE 38TH AVE","PORTLAND","OR","97214"
238137,"525 SELAH RIDGE DRIVE","SELAH","WA","98942"
238138,"525 SHORE DRIVE     BOX 356","EDGEWATER","MD","21037"
238139,"525 SILVERBELL CT","LEXINGTON","SC","29073"
238140,"525 SIXTH STREET","CALIFORNIA","PA","15419"
238141,"525 SLACK STREET","STEUBENVILLE","OH","43952"
238142,"525 SOM CENTER RD","MAYFIELD","OH","44143"
238143,"525 SOUTH 13TH","ROGERS","AR","72758"
238144,"525 SOUTH 5TH AVE UNIT B","ARCADIA","CA","91006"
238145,"525 SOUTH 8TH STREET","SALINA","KS","67401"
238146,"525 SOUTH LAKE DRIVE","WATERTOWN","SD","57201"
238147,"525 SOUTH MAIN ST SUITE 700","TULSA","OK","74103"
238148,"525 SOUTH MAIN STREET","HURRICANE","UT","84737"
238149,"525 SOUTH MARSHALL AVE","GALLOWAY","NJ","08205"
238150,"525 SOUTH MERIDIAN ST","INDIANAPOLIS","IN","46225"
238151,"525 SOUTH MYRTLE AVENUE","MONROVIA","CA","91016"
238152,"525 SOUTH PARK DRIVE","SAN JOSE","CA","95129"
238153,"525 SOUTH ST MARYS","SAN ANTONIO","TX","78205"
238154,"525 ST JOHNS DRIVE","CAMP HILL","PA","17011"
238155,"525 STATION BLVD 204","AURORA","IL","60504"
238156,"525 STEVENS AVENUE","RIDGEWOOD","NJ","07450"
238157,"525 STONEFIELD DR","SMITHTON","IL","62285"
238158,"525 STORY ST","BOONE","IA","50036"
238159,"525 SUMMIT AVENUE","CLARKS SUMMIT","PA","18411"
238160,"525 THIRD AVE","BEAVER","PA","15009"
238161,"525 UNION AVENUE","NEW WINDSOR","NY","12553"
238162,"525 VAN DYKE STREET","RIDGEWOOD","NJ","07450"
238163,"525 VIAND STREET SUITE 3","POINT PLEASANT","WV","25550"
238164,"525 VINE ST FL 6","CINCINNATI","OH","45202"
238165,"525 VINE STREET STE 210","WINSTON SALEM","NC","27101"
238166,"525 VISTA WAY LANE","EAGLE LAKE","FL","33839"
238167,"525 W 127TH STREET  APT 203","LOS ANGELES","CA","90044"
238168,"525 W 85TH STREET","LOS ANGELES","CA","90044"
238169,"525 W ARCADIA DRIVE","PITTSBURGH","PA","15237"
238170,"525 W BRADLEY AVE","EL CAJON","CA","92020"
238171,"525 W COTA ST","SHELTON","WA","98584"
238172,"525 W HIGGINS RD","HOFFMAN ESTATES","IL","60169"
238173,"525 W LAKESIDE DR UNIT 118","TEMPE","AZ","85282"
238174,"525 W LAWRENCE STREET","HELENA","MT","59601"
238175,"525 W MAIN PO BOX 1685","PILOT MOUNTAIN","NC","27041"
238176,"525 W NORTH AVE","CHICAGO","IL","60610"
238177,"525 W PARKER ROAD","GREENVILLE","SC","29611"
238178,"525 W WARWICK DRIVE   STE A","ALMA","MI","48801"
238179,"525 W WESTCHESTER PKWY APT 1527","GRAND PRAIRIE","TX","75052"
238180,"525 WARE RD","TALLASSEE","AL","36078"
238181,"525 WAYNE DRIVE","MECHANICSBURG","PA","17055"
238182,"525 WELSH ROAD","PHILADELPHIA","PA","19115"
238183,"525 WEST 3RD STREET","LEADVILLE","CO","80461"
238184,"525 WEST 49TH STREET APT 2D","NEW YORK","NY","10019"
238185,"525 WEST 50TH STREET","NEW YORK","NY","10019"
238186,"525 WEST BAY STREET","JACKSONVILLE","FL","32202"
238187,"525 WEST BUELL ROAD","OAKLAND TOWNSHIP","MI","48363"
238188,"525 WEST END AVENUE / SUITE 12-E","NEW YORK","NY","10024"
238189,"525 WESTRIDGE CIRCLE","RIVER FALLS","WI","54022"
238190,"525 WHITE BEAR AVE N","SAINT PAUL","MN","55106"
238191,"525 WILLARD AVENUE","RICHMOND","CA","94801"
238192,"525 WILLIAM PENN PLACE 28TH FLOOR","PITTSBURGH","PA","15219"
238193,"525 WILLIAM PENN PLACE FL 28","PITTSBURGH","PA","15219"
238194,"525 WILLIS RD","COVE CITY","NC","28523"
238195,"525 WILLOW LN","YORK SPRINGS","PA","17372"
238196,"525 WOODRUFF ROAD","GREENVILLE","SC","29607"
238197,"525-K EAST MARKET ST SUITE 296","LEESBURG","VA","20176"
238198,"5250 AUTUMN LEAF CT N","KEIZER","OR","97303"
238199,"5250 BEAR CORN RUN","PORT ORANGE","FL","32128"
238200,"5250 BOWDEN ROAD STE 201","JACKSONVILLE","FL","32216"
238201,"5250 BRITTANY TRAIL","COLLEGE PARK","GA","30349"
238202,"5250 BROWNWAY ST","HOUSTON","TX","77056"
238203,"5250 CASE AVE S216","PLEASANTON","CA","94566"
238204,"5250 CISCO COURT","FAYETTEVILLE","NC","28303"
238205,"5250 COUNTY ROAD 1380","WEST PLAINS","MO","65775"
238206,"5250 DAKOTA NUMBER 1","WEST DES MOINES","IA","50265"
238207,"5250 DREXEL","DETROIT","MI","48213"
238208,"5250 FRANKLIN BLVD","SACRAMENTO","CA","95820"
238209,"5250 GRAND AVE 14-232","GURNEE","IL","60031"
238210,"5250 HIGHWAY 162","WILLOWS","CA","95988"
238211,"5250 HIGHWAY 78  SUITE 750  BOX 152","SACHSE","TX","75048"
238212,"5250 HIGHWAY 78 SUITE 705-459","SACHSE","TX","75048"
238213,"5250 HWY 78 STE 750-244","SACHSE","TX","75048"
238214,"5250 HWY 78 SUITE 750 121","SACHSE","TX","75048"
238215,"5250 HWY 78 SUITE 750-110","SACHSE","TX","75048"
238216,"5250 HWY 78 SUITE 750-119","SACHSE","TX","75048"
238217,"5250 HWY 78 SUITE 750-242","SACHSE","TX","75048"
238218,"5250 LANKERSHIM BLVD","NORTH HOLLYWOOD","CA","91601"
238219,"5250 LEPAGE RD","NORFOLK","VA","23513"
238220,"5250 N BROADWAY SUITE B","CHICAGO","IL","60640"
238221,"5250 N STOVER DRIVE","PRESCOTT VALLEY","AZ","86314"
238222,"5250 NE MARINE DRIVE","PORTLAND","OR","97218"
238223,"5250 NEIL ROAD SUITE 207","RENO","NV","89502"
238224,"5250 REGENCY LAKE COURT","SUGAR HILL","GA","30518"
238225,"5250 S HURON WAY 3102","LITTLETON","CO","80120"
238226,"5250 SHETLAND TRAIL","ARLINGTON","TN","38002"
238227,"5250 TAMMANY TRAIL","CARMEL","IN","46033"
238228,"5250 UPPER RIVER ROAD","GRANTS PASS","OR","97526"
238229,"5250 VIRGINIA WAY","BRENTWOOD","TN","37027"
238230,"5250 W CENTURY BLVD SUITE 315 C","LOS ANGELES","CA","90045"
238231,"5250 W STATE ROAD 234","MCCORDSVILLE","IN","46055"
238232,"5250 WHITE EMERALD DR","SAN DIEGO","CA","92130"
238233,"52500 NW SUNSET HWY","BUXTON","OR","97109"
238234,"5251 COMMERCE STREET","JAY","FL","32565"
238235,"5251 E 41ST AVE","ANCHORAGE","AK","99508"
238236,"5251 EDINA INDUSTRIAL BLVD","EDINA","MN","55439"
238237,"5251 INGLESIDE","LEESBURG","FL","34748"
238238,"5251 KENTUCKY AVE","INDIANAPOLIS","IN","46221"
238239,"5251 MARTINGALE AVENUE","LAS VEGAS","NV","89119"
238240,"5251 N IDLEWILD AVE","WHITEFISH BAY","WI","53217"
238241,"5251 SOUTH LEWIS","BATTLEFIELD","MO","65619"
238242,"5251-C 154 HWY 153","HIXSON","TN","37343"
238243,"5251-C HIGHWAY 153 NUMBER 206","HIXSON","TN","37343"
238244,"5251C HWY 153 STE 267","HIXON","TN","37343"
238245,"5252 BALBOA ARMS DR UNIT 288","SAN DIEGO","CA","92117"
238246,"5252 CORTEEN PL NUMBER 35","VALLEY VILLAGE","CA","91607"
238247,"5252 DRESDEN CIRCLE","ROANOKE","VA","24012"
238248,"5252 LONG RD APT C","ORLANDO","FL","32808"
238249,"5252 MONROE ST 2ND FLOOR","TOLEDO","OH","43623"
238250,"5252 N TEUTONIA AVE APT1","MILWAUKEE","WI","53210"
238251,"5252 RIDGE FOREST DR","STONE MOUNTAIN","GA","30083"
238252,"5252 WESTCHESTER/ SUITE 260","HOUSTON","TX","77005"
238253,"5252 WINTER VIEW DRIVE","ALEXANDRIA","VA","22312"
238254,"52525 OASIS PALM AVENUE","COACHELLA","CA","92236"
238255,"5253 AL JONES DRIVE","SHADY SIDE","MD","20764"
238256,"5253 ARROW RIDGE PLACE","IMPERIAL","MO","63052"
238257,"5253 DIJON DR SUITE B","BATON ROUGE","LA","70808"
238258,"5253 EAST MAIN STREET","STOCKTON","CA","95215"
238259,"5253 GOLDENWOOD DR","INGLEWOOD","CA","90302"
238260,"5253 LADYWOOD DR","INDIANAPOLIS","IN","46226"
238261,"5253 LARCHWOOD AVE","PHILADELPHIA","PA","19143"
238262,"5253 NW 113 AVE","DORAL","FL","33178"
238263,"5253 PINE STREET","PHILA","PA","19143"
238264,"5253 SW SECHER LANE","CORVALLIS","OR","97333"
238265,"5253 VESTA CIR","STOCKTON","CA","95219"
238266,"5253 WEST ADAMS BOULEVARD","LOS ANGELES","CA","90016"
238267,"5254 COSBY ST","HOUSTON","TX","77021"
238268,"5254 FRENCHMAN RIDGE RD","FORT BENTON","MT","59442"
238269,"5254 LAKE COUNTY ROAD 256","COLORADO CITY","TX","79512"
238270,"5254 MILLBRANCH RD","MEMPHIS","TN","38116"
238271,"5254 NEWCASTLE AVE","ENCINO","CA","91316"
238272,"5254 NORTH MEADOWS DRIVE","CASTLE ROCK","CO","80109"
238273,"5254 OLDE SCHOOL DRIVE","HICKORY","NC","28602"
238274,"5254 RIMWOOD DRIVE","SAN JOSE","CA","95118"
238275,"5254 RUETTE DE MER","SAN DIEGO","CA","92130"
238276,"5254 S 13TH STREET","OMAHA","NE","68107"
238277,"5254 STEWART DRIVE","PANAMA CITY","FL","32404"
238278,"5254 W BURNTSIDE AVENUE","SOUTH JORDAN","UT","84009"
238279,"5254 WENTZ RD","MANCHESTER","MD","21102"
238280,"5254 WILDERNESS ROAD","DUBLIN","VA","24084"
238281,"52545 EISENHOWER DR","LA QUINTA","CA","92253"
238282,"5255 BROADMORE RD","FLAGSTAFF","AZ","86004"
238283,"5255 CHICAGO ST SE","TURNER","OR","97392"
238284,"5255 CONGRESS BLVD  APT M45","BATON ROUGE","LA","70808"
238285,"5255 GLEASON STREET","CANAL WINCHESTER","OH","43110"
238286,"5255 KEELE ST SUITE C","JACKSON","MS","39206"
238287,"5255 LONGLEY LN STE 101","RENO","NV","89511"
238288,"5255 MEMBERS PKWY NW","ROCHESTER","MN","55901"
238289,"5255 N HIGHWAY 71","KIMBALL","NE","69145"
238290,"5255 NW 112 AVE APT 1","DORAL","FL","33178"
238291,"5255 NW 65TH ST","OCALA","FL","34482"
238292,"5255 RONALD REAGAN BLVD  STE 210","JOHNSTOWN","CO","80534"
238293,"5255 RONALD REAGAN BLVD STE 210","JOHNSTOWN","CO","80534"
238294,"5255 SCOTTSVILLE ROAD","LAFAYETTE","TN","37083"
238295,"5255 VOUGHT DRIVE","FAIR OAKS","CA","95628"
238296,"5255 W 800 N","MICHIGAN CITY","IN","46360"
238297,"5255 W PHELPS ROAD SUITE 4","GLENDALE","AZ","85306"
238298,"52558 RIVER HIGH SCHOOL RD","HANNIBAL","OH","43931"
238299,"5256 BETHEL REED PARK","COLUMBUS","OH","43220"
238300,"5256 CABOT CREEK DRIVE","SUGAR HILL","GA","30518"
238301,"5256 CHANDLER WAY","OREFIELD","PA","18069"
238302,"5256 COCHITUATE STATION","WAYLAND","MA","01778"
238303,"5256 COUNTY ROAD 336","VALLEY VIEW","TX","76272"
238304,"5256 E OLIVE AVE","FRESNO","CA","93727"
238305,"5256 LIMELIGHT CIR APT 3","ORLANDO","FL","32839"
238306,"5256 MAIN ST","STEPHENS CITY","VA","22655"
238307,"5256 MAIN STREET","STEPHENS CITY","VA","22655"
238308,"5256 RAYS RD","STEVENS POINT","WI","54482"
238309,"5256 S MISSION ROAD STE 703 PMB 606","BONSALL","CA","92003"
238310,"5256 S MISSION ROAD SUITE 703-202","BONSALL","CA","92003"
238311,"5256 SLIPPERY ELM DRIVE","FREDERICK","MD","21703"
238312,"5256 WEST 128TH TERRACE","LEAWOOD","KS","66209"
238313,"52560 RIVER HIGH SCHOOL RD","HANNIBAL","OH","43931"
238314,"5257 BUCKEYSTOWN PIKE SUITE 193","FREDERICK","MD","21704"
238315,"5257 MANILA AVENUE","OAKLAND","CA","94618"
238316,"5257 NORTH FARM ROAD 151","SPRINGFIELD","MO","65803"
238317,"5257 WILKINSON AVE","VALLEY VILLAGE","CA","91607"
238318,"52570 WALSINGHAM LANE","SOUTH BEND","IN","46637"
238319,"5258  W  BLOOMINGDALE  AVE","CHICAGO","IL","60639"
238320,"5258 COUNTY ROAD 599","FARMERSVILLE","TX","75442"
238321,"5258 GREEN SPRING CT","DOUGLASVILLE","GA","30135"
238322,"5258 N RIVERVIEW DRIVE","KALAMAZOO","MI","49004"
238323,"5258 N VIRGINIA AVE UNIT 1 A","CHICAGO","IL","60625"
238324,"5258 NORTH HWY 51","TROY","TN","38260"
238325,"5258 SAN PABLO GARDENS DR","HOUSTON","TX","77045"
238326,"5258 VERDA LN NE","KEIZER","OR","97303"
238327,"5258 W WINNEMAC AVE","CHICAGO","IL","60630"
238328,"52583 COUNTY ROAD 107","GROVER","CO","80729"
238329,"5259 AMERBERWOOD DR","FREMONT","CA","94555"
238330,"5259 CANTBURY WAY","ATLANTA","GA","30349"
238331,"5259 DAVID ST","INDIANAPOLIS","IN","46226"
238332,"5259 HADAWAY RD NW","KENNESAW","GA","30152"
238333,"5259 N LYCEE CIR","BEL AIRE","KS","67226"
238334,"5259 N MOUNTAIN TERRACE RD","TUCSON","AZ","85750"
238335,"5259 PARAMOUNT BLVD","LAKEWOOD","CA","90712"
238336,"5259 ROUTE 5","ASCUTNEY","VT","05030"
238337,"525A MARTIN LUTHER KING JR DR","JERSEY CITY","NJ","07304"
238338,"525C CLARK HOLLOW ROAD","WESTMORELAND","TN","37186"
238339,"526 10TH STREET SOUTH","LA CROSSE","WI","54601"
238340,"526 14TH AVE E APT 2","SEATTLE","WA","98112"
238341,"526 1ST AVE S SUITE 316","SEATTLE","WA","98104"
238342,"526 7TH ST","BROOKLYN","NY","11215"
238343,"526 B FLINT TRAIL","JONESBORO","GA","30236"
238344,"526 BEACON STREET","BOSTON","MA","02215"
238345,"526 BONITA COURT","VALLEJO","CA","94591"
238346,"526 BOWMAN RD","CHARLOTTE","NC","28217"
238347,"526 CHANNING ST APT 1","CINCINNATI","OH","45202"
238348,"526 CHERRY ST","PAXINOS","PA","17860"
238349,"526 CORDERS CROSSROADS RD","FAYETTEVILLE","TN","37334"
238350,"526 COTTAGE AVE","INDIANAPOLIS","IN","46203"
238351,"526 COUNTY ROAD 2575","LOUDONVILLE","OH","44842"
238352,"526 CRESCENT BLVD SUITE 7","GLEN ELLYN","IL","60137"
238353,"526 DARTMOUTH AVE","BUFFALO","NY","14215"
238354,"526 DRUID STREET","LAKELAND","FL","33805"
238355,"526 DUDLEYVILLE ROAD","GREENVILLE","IL","62246"
238356,"526 E 1475 S","KAYSVILLE","UT","84037"
238357,"526 E 39 STREET","BROOKLYN","NY","11203"
238358,"526 E CHURCH ST","WILLIAMSTON","MI","48895"
238359,"526 E LAWNWOOD  DR","COLLIERVILLE","TN","38017"
238360,"526 E MAIN ST SUITE D","GRAYSON","KY","41143"
238361,"526 EAST 11 STREET 1W","NEW YORK","NY","10009"
238362,"526 EAST 20TH STREET 12E","NEW YORK","NY","10009"
238363,"526 EAST TULPEHOCKEN","PHILADELPHIA","PA","19144"
238364,"526 FERRY STREET","DAYTON","OR","97114"
238365,"526 HARVEST HILL DR","MURPHY","TX","75094"
238366,"526 HICKORY TRAIL DRIVE","NASHVILLE","TN","37209"
238367,"526 HOGESTOWN ROAD","MECHANICSBURG","PA","17050"
238368,"526 JENNIFER CIRCLE","WEST MELBOURNE","FL","32904"
238369,"526 KING STREET SUITE 506","ALEXANDRIA","VA","22314"
238370,"526 KINGWOOD DR STE 258","KINGWOOD","TX","77339"
238371,"526 KINGWOOD DR SUITE 80","KINGWOOD","TX","77339"
238372,"526 KINGWOOD DR","KINGWOOD","TX","77339"
238373,"526 KINGWOOD DRIVE NUM 319","KINGWOOD","TX","77339"
238374,"526 LA SALLE ST","PORTAGE","MI","49002"
238375,"526 LANDONS WAY","SPRING BRANCH","TX","78070"
238376,"526 LARUE ST","BIRMINGHAM","AL","35206"
238377,"526 LAVERNE AVE","APTOS","CA","95003"
238378,"526 LIBERTY DRIVE","YARDLEY","PA","19067"
238379,"526 N PLATINA DR","DIAMOND BAR","CA","91765"
238380,"526 N SAINT CLOUD ST SUITE 4 NO 322","ALLENTOWN","PA","18104"
238381,"526 NE 24TH AVE","CAPE CORAL","FL","33909"
238382,"526 NORTH FRANKLIN ST","RED CLOUD","NE","68970"
238383,"526 NORTH RANDOLPH STREET","HOLLY SPRINGS","MS","38634"
238384,"526 OAKLAND HILLS DR","CHESTERFIELD","MO","63017"
238385,"526 OLD CONYERS RD","STOCKBRIDGE","GA","30281"
238386,"526 OLD TURNPIKE ROAD","PARKERSBURG","WV","26104"
238387,"526 ORCHARD WAY","NEW BRAUNFELS","TX","78132"
238388,"526 PARKER AVE","MONDOVI","WI","54755"
238389,"526 PINE CREEK AVENUE","JERSEY SHORE","PA","17740"
238390,"526 PINHURST DRIVE","ATLANTA","GA","30339"
238391,"526 QUEEN ANNE DR","SLIDELL","LA","70460"
238392,"526 RED MILL ROAD","CLAXTON","GA","30417"
238393,"526 ROUTE 507","PAUPACK","PA","18451"
238394,"526 S CARR PEN RD","ATOKA","OK","74525"
238395,"526 S GROVE AVE","OAK PARK","IL","60304"
238396,"526 S HAMPTON AVENUE","ORLANDO","FL","32803"
238397,"526 SANDHILL RD","LAVERGNE","TN","37086"
238398,"526 SANDY LAKE RD","KENT","OH","44240"
238399,"526 SE 6TH AVENUE","PORTLAND","OR","97214"
238400,"526 SE EE HIGHWAY","LEETON","MO","64761"
238401,"526 SECOND AVENUE SE","CEDAR RAPIDS","IA","52401"
238402,"526 SHENNANDOAH DR","DESOTO","TX","75115"
238403,"526 SO E STREET","SANTA ROSA","CA","95404"
238404,"526 SOUND SHORE ROAD","RIVERHEAD","NY","11901"
238405,"526 SUPERIOR AVENUE EAST-SUITE 340","CLEVELAND","OH","44114"
238406,"526 SWEDE ST","NORRISTOWN","PA","19401"
238407,"526 US HIGHWAY 180","WILLIAMS","AZ","86046"
238408,"526 VICTORIA AVE","VENICE","CA","90291"
238409,"526 W 139 STREET 1","NEW YORK","NY","10031"
238410,"526 W FREMONT AVENUE ROOM 2127","SUNNYVALE","CA","94087"
238411,"526 W173 STREET","NEW YORK","NY","10032"
238412,"526 WASHBURN AVENUE","EDEN","NC","27288"
238413,"526 WEST 174 STREET SUITE 5","NEW YORK","NY","10033"
238414,"526 WEST 211 ST APT BSMT","NEW YORK","NY","10034"
238415,"526 WINDAMERE TERRACE","HOT SPRINGS","AR","71913"
238416,"526 WINSTON AVE","BALTIMORE","MD","21212"
238417,"526 WOODCREEK CIR","MCQUEENEY","TX","78123"
238418,"526","BOULDER CREEK","CA","95006"
238419,"5260 78TH AVE N","PINELLAS PARK","FL","33781"
238420,"5260 BAILEY","AMARILLO","TX","79118"
238421,"5260 COLLINS ROAD UNIT 1405","JACKSONVILLE","FL","32244"
238422,"5260 CYPRESS DRIVE","BOULDER","CO","80303"
238423,"5260 ELMORE ROAD","SOUTHAVEN","MS","38671"
238424,"5260 HICKORY HOLLOW PKWY","ANTIOCH","TN","37013"
238425,"5260 HILLTOP ROAD","JAMESTOWN","NC","27282"
238426,"5260 LOS GRANDES WAY","LOS ANGELES","CA","90027"
238427,"5260 MURFREESBORO RD","LAVERGNE","TN","37086"
238428,"5260 N PALM","FRESNO","CA","93704"
238429,"5260 N ROCHESTER RD","ROCHESTER HILLS","MI","48306"
238430,"5260 N TOLER DR","BEL AIRE","KS","67226"
238431,"5260 N TOLER ROAD","BEL AIRE","KS","67226"
238432,"5260 NW 86TH STREET","JOHNSTON","IA","50131"
238433,"5260 REDMAN RD","LAS CRUCES","NM","88011"
238434,"5260 S GILMORE ROAD","FAIRFIELD","OH","45014"
238435,"5260 SUMMER CRES","VIRGINIA BEACH","VA","23462"
238436,"5260 WHITE PINE DRIVE","LARSEN","WI","54947"
238437,"5260AALLISON ROAD","TALLADEGA","AL","35160"
238438,"5261 DELMAR BLVD - SUITE 307","ST LOUIS","MO","63108"
238439,"5261 HIGHLAND RD -119","BATON ROUGE","LA","70808"
238440,"5261 HIGHLAND ROAD SUITE 335","BATON ROUGE","LA","70808"
238441,"5261 N WINDMILL CIR","PRESCOTT VALLEY","AZ","86314"
238442,"5261 NORTH 37TH STREET","HOLLYWOOD","FL","33021"
238443,"5261 NW 81 TERRACE","LAUDERHILL","FL","33351"
238444,"5261 PARAMOUNT BLVD","LAKEWOOD","CA","90712"
238445,"5261 SW 8TH CT","PLANTATION","FL","33317"
238446,"52611 EVANS ROAD","INDEPENDENCE","LA","70433"
238447,"52614","DURHAM","NC","27717"
238448,"5262 E GAFFORD WAY","DMAFB","AZ","85707"
238449,"5262 FINKAS LANE","FAIRFIELD","CA","94533"
238450,"5262 GLEN MEADOW DRIVE","CENTERVILLE","VA","20120"
238451,"5262 GRANITE DRIVE","HILLIARD","OH","43026"
238452,"5262 MONTEREY PARK CIRCLE","LAS VEGAS","NV","89146"
238453,"5262 PALMYRA AVENUE","SAN DIEGO","CA","92117"
238454,"5262 STEINBRENNER LANE","LAS VEGAS","NV","89118"
238455,"5262","YOUNGSTOWN","OH","44514"
238456,"5263 CROOKED LANE ROAD","HOWELL","MI","48843"
238457,"5263 NORTH 61ST STREET","MILWAUJKEE","WI","53218"
238458,"5263 WASHINGTON STREET","BOSTON","MA","02132"
238459,"52636 TH 2169","POWHATAN POINT","OH","43942"
238460,"5264 HICKORY KNOLL LANE","MT HOLLY","NC","28120"
238461,"5264 NW 30TH CT","MIAMI","FL","33142"
238462,"5264 WASHINGTON ST","WEST ROXBURY","MA","02132"
238463,"5265 11TH AVE NE","SEATTLE","WA","98105"
238464,"5265 CADERA COURT","ATLANTA","GA","30349"
238465,"5265 CADERA CT SW","ATLANTA","GA","30349"
238466,"5265 CENTRAL PARK BLVD","DENVER","CO","80238"
238467,"5265 CUMBERLAND WAY","STONE MOUNTAIN","GA","30087"
238468,"5265 HIGHWAY 9","SIBLEY","IA","51249"
238469,"5265 KISA CT","LIVERMORE","CA","94550"
238470,"5265 LIVE OAK AVENUE","OAKLEY","CA","94561"
238471,"5265 MENDENHALL PARK PLACE","MEMPHIS","TN","38115"
238472,"5265 N 49TH STREET","MILWAUKEE","WI","53218"
238473,"5265 POST ROAD PASS","STONE MOUNTAIN","GA","30088"
238474,"5265 REVERE RUN","CANFIELD","OH","44406"
238475,"5265 SELL ROAD","NEW TRIPOLI","PA","18066"
238476,"5265 TODD RD","SEBASTOPOL","CA","95472"
238477,"5265 WARD ST SE","SMYRNA","GA","30080"
238478,"5265 WARD STREET SE","SMYRNA","GA","30060"
238479,"5265 WARD STREET SE","SMYRNA","GA","30080"
238480,"5265 WARD STREET","SMYRNA","GA","30080"
238481,"5266 6TH AVE SOUTH","SAINT PETERSBURG","FL","33707"
238482,"5266 AIRPORT ROAD","ALMO","KY","42020"
238483,"5266 EDGEWARE DR","CALABASAS","CA","91301"
238484,"5266 HOLLISTER AVE SUITE 111","GOLETA","CA","93111"
238485,"5266 HOLLISTER AVE SUITE 213","SANTA BARBARA","CA","93111"
238486,"5266 MARSH BUTTE ST","LAS VEGAS","NV","89148"
238487,"5266 OLD HIGHWAY 11 STE 50-214","HATTIESBURG","MS","39402"
238488,"5266 SHORELINE CIRCLE","SANFORD","FL","32771"
238489,"5266 WEEPING WILLOW CIRCLE","HIGHLANDS RANCH","CO","80130"
238490,"5267 ALTURA ST","DENVER","CO","80239"
238491,"5267 E 2ND ST 103","LONG BEACH","CA","90803"
238492,"5267 E CANADA","TUCSON","AZ","85732"
238493,"5267 FM 792","KENEDY","TX","78119"
238494,"5267 MISSION HILLS DR","BANNING","CA","92220"
238495,"5267 WARNER AVE  184","HUNTINGTON BEACH","CA","92649"
238496,"5267 WARNER AVE NUM 292","HUNTINGTON BEACH","CA","92649"
238497,"5267 WARNER AVENUE NO 337","HUNTINGTON BEACH","CA","92649"
238498,"5267 WENATCHEE WAY","RIVERSIDE","CA","92509"
238499,"52671 SANTA MONICA DRIVE","GRANGER","IN","46530"
238500,"5268 COZY GLEN LANE","ALEXANDRIA","VA","22312"
