"ID","Address","City","State","Zip"
84001,"17049 MAGNOLIA BLVD","CLERMONT","FL","34711"
84002,"1705 16TH AVENUE","MENOMINEE","MI","49858"
84003,"1705 2ND AVENUE","MANCHESTER","TN","37355"
84004,"1705 AMERICUS AVE","PENSACOLA","FL","32507"
84005,"1705 ANDREWS AVE APT 3L","BRONX","NY","10453"
84006,"1705 BLACKSTONE DR","CARROLLTON","TX","75007"
84007,"1705 BLAIRMONT DRIVE","LEBANON","TN","37087"
84008,"1705 BROMPTON STREET","PETALUMA","CA","94954"
84009,"1705 BUCKBOARD LANE","ENID","OK","73703"
84010,"1705 C INDUSTRIAL DR","JEFFERSON CITY","MO","65109"
84011,"1705 CARDIAC COVE RD","GROVE","OK","74344"
84012,"1705 CARRIAGE LAMP COURT","SEVERN","MD","21144"
84013,"1705 CHESTNUT STREET","WILMINGTON","NC","28405"
84014,"1705 CHURCH AVE","BROOKLYN","NY","11203"
84015,"1705 CHURCH AVE","BROOKLYN","NY","11226"
84016,"1705 COLLEGE STREET SUITE 650","COLUMBIA","SC","29208"
84017,"1705 CREST VIEW DRIVE","GRAND JUNCTION","CO","81506"
84018,"1705 CUMBERLAND DRIVE","ROCKINGHAM","VA","22801"
84019,"1705 DOUGLAS AVE","RACINE","WI","53402"
84020,"1705 E 9TH ST","WASHINGTON","MO","63090"
84021,"1705 E ADAMS ST","JACKSONVILLE","FL","32202"
84022,"1705 E CHASE STREET","BALTIMORE","MD","21213"
84023,"1705 E HARRISON ST","SEATTLE","WA","98112"
84024,"1705 EAGLE GLEN PASS","GUNTER","TX","75058"
84025,"1705 EAST 36TH ST","TULSA","OK","74105"
84026,"1705 EAST 7TH","JOPLIN","MO","64801"
84027,"1705 EAST NEWPORT PIKE","WILMINGTON","DE","19804"
84028,"1705 EAST-WEST HIGHWAY","SILVER SPRING","MD","20901"
84029,"1705 FM 2851","BROADDUS","TX","75929"
84030,"1705 FORESTDALE DR","WILMINGTON","DE","19803"
84031,"1705 GRANGER AVE","LOS ALTOS","CA","94024"
84032,"1705 HAYWOOD ROAD 1ST FLOOR","PERKIOMENVILLE","PA","18074"
84033,"1705 HIGHWAY 138SE SUITE 81502","CONYERS","GA","30013"
84034,"1705 HONEYSUCKLE DRIVE","WAGONER","OK","74467"
84035,"1705 HOSTA","CONWAY","AR","72034"
84036,"1705 HWY 138 SE  80146","CONYERS","GA","30013"
84037,"1705 HWY 138 SE BOX 83403","COVINGTON","GA","30013"
84038,"1705 HWY 138 SE","CONYERS","GA","30013"
84039,"1705 HWY 59 SUITE 11","MANDEVILLE","LA","70448"
84040,"1705 JOHNSON AVE","ANDERSON","IN","46016"
84041,"1705 JOY RD","SAGINAW","MI","48601"
84042,"1705 JULIA STREET","NEW IBERIA","LA","70560"
84043,"1705 KILBURN AVE","ROCKFORD","IL","61101"
84044,"1705 LAKE MAUREPAS DRIVE","HARVEY","LA","70058"
84045,"1705 LAKE SHORE CREST DRIVE APT 14","RESTON","VA","20190"
84046,"1705 LINCOLN STREET","GREENSBORO","NC","27401"
84047,"1705 LINDEN BLVD BROOKLYN","NEW YORK","NY","11212"
84048,"1705 LOWRY AVENUE NE","MINNEAPOLIS","MN","55418"
84049,"1705 MARK AVE","ELGIN","IL","60123"
84050,"1705 MILL STREET","CAMDEN","SC","29020"
84051,"1705 N NAGLE","CHICAGO","IL","60707"
84052,"1705 NE 20 AVE","FORT LAUDERDALE","FL","33305"
84053,"1705 NORTH GREENVILLE NUMBER 256","RICHARDSON","TX","75081"
84054,"1705 NORTH WOODLAWN AVENUE","SAINT LOUIS","MO","63124"
84055,"1705 OLIVER AVE","INDIANAPOLIS","IN","46221"
84056,"1705 OREGON PIKE","LANCASTER","PA","17601"
84057,"1705 OREGON STREET","HIAWATHA","KS","66434"
84058,"1705 PANTEGO TRAIL","CARY","NC","27519"
84059,"1705 PASEO LA CRESTA","PALS VERDES ESTATES","CA","90274"
84060,"1705 PURDY  STREET 7H","BRONX","NY","10462"
84061,"1705 RACCOON ROAD","MAYESVILLE","SC","29104"
84062,"1705 REDWOOD LANE","DAVIS","CA","95616"
84063,"1705 RHODE ISLAND AVENUE","LYNN HAVEN","FL","32444"
84064,"1705 RICHARDSON LN","BAYTOWN","TX","77520"
84065,"1705 RIDGE VIEW DR","COLTON","CA","92324"
84066,"1705 S LA LONDE AVE","LOMBARD","IL","60148"
84067,"1705 S MAIN STREET","JOPLIN","MO","64804"
84068,"1705 S SPRUCE ST","CASPER","WY","82604"
84069,"1705 S WASHINGTON ST","CLINTON","MO","64735"
84070,"1705 SATTERFIELD DRIVE","EMPORIA","VA","23847"
84071,"1705 SE CUTTER LANE","VANCOUVER","WA","98661"
84072,"1705 SECOND STREET","EARLE","AR","72331"
84073,"1705 SHADY GLEN DRIVE APT 2220","ARLINGTON","TX","76015"
84074,"1705 SHALLOW CREEK TRAIL","WEBSTER","NY","14580"
84075,"1705 SUMMIT AVE 301","SEATTLE","WA","98122"
84076,"1705 TAPPAHANNOCK TRAIL","MARIETTA","GA","30062"
84077,"1705 TOWNSEND LANE","ROCK HILL","SC","29730"
84078,"1705 VALDOSTA DRIVE","CINCINNATI","OH","45246"
84079,"1705 VALLEY FALLS AVE","REDLANDS","CA","92374"
84080,"1705 VALLEY HIGH DRIVE","CEDAR FALLS","IA","50613"
84081,"1705 VINSETTA BLVD","ROYAL OAK","MI","48067"
84082,"1705 W FAYETTE ST","BALTIMORE","MD","21223"
84083,"1705 W GRANDVIEW DRIVE","KNOXVILLE","IA","50138"
84084,"1705 W MISSOURI AVE","MIDLAND","TX","79701"
84085,"1705 W SYCAMORE ST","DENTON","TX","76201"
84086,"1705 WALSH DRIVE","ROUND ROCK","TX","78681"
84087,"1705 WEST COWING DRIVE","MUNCIE","IN","47304"
84088,"1705 WHITTINGTON DRIVE","RALEIGH","NC","27614"
84089,"1705 WILLIAMSON RD STE 101","GRIFFIN","GA","30224"
84090,"1705","ALBERT LEA","MN","56007"
84091,"17050 CLAYTON RD","WILDWOOD","MO","63011"
84092,"17050 HERMOSA RD","SUNRIVER","OR","97707"
84093,"17050 IMPERIAL VALLEY DR NO 284","HOUSTON","TX","77060"
84094,"17050 S PARK AVE STE  103","SOUTH HOLLAND","IL","60473"
84095,"17050 S PEYTON HIGHWAY","CALHAN","CO","80906"
84096,"17050 SOUTH PARK AVE","SOUTH HOLLAND","IL","60473"
84097,"17051 DREXEL ST","OMAHA","NE","68135"
84098,"17051 NUMA PL","PARKER","CO","80134"
84099,"17053 SHERWOOD AVENUE","OMAHA","NE","68116"
84100,"17055 COUNTY ROAD 1520","ADA","OK","74820"
84101,"17055 SW ELDORADO DR","TIGARD","OR","97224"
84102,"17056 BULGER AVENUE","HAZEL CREST","IL","60429"
84103,"17056 CANVAS ST","CANYON COUNTRY","CA","91387"
84104,"17056 KENWOOD AVE","SOUTH HOLLAND","IL","60473"
84105,"17059 KENWOOD AVE","SOUTH HOLLAN","IL","60473"
84106,"17059 MCGUFFIE RD","SALINAS","CA","93907"
84107,"1706 11TH STREET","GREENSBORO","NC","27401"
84108,"1706 68TH ST W","BRADENTON","FL","34209"
84109,"1706 AVE M","BROOKLYN","NY","11230"
84110,"1706 BARTONCLIFF DRIVE","AUSTIN","TX","78704"
84111,"1706 BRAWNE AVE NW","OLYMPIA","WA","98502"
84112,"1706 BRENTWOOD LANE","WHEATON","IL","60189"
84113,"1706 BROOKDALE DRIVE","ATCHISON","KS","66002"
84114,"1706 BUSHMAN APT 110","KANSAS CITY","MO","64110"
84115,"1706 COUNTRY LANE","QUAKERTOWN","PA","18951"
84116,"1706 CROSS SPRING LANE","LEAGUE CITY","TX","77573"
84117,"1706 CURTIS DRIVE","GARLAND","TX","75040"
84118,"1706 DEMPSEY MAYO ROAD","TALLAHASSEE","FL","32308"
84119,"1706 DEPAUW AVE","ORLANDO","FL","32804"
84120,"1706 DUKE STREET","GEORGETOWN","SC","29440"
84121,"1706 E SEMORAN BLVD SUITE 102B","APOPKA","FL","32703"
84122,"1706 E SYCAMORE AVENUE","NORFOLK","NE","68701"
84123,"1706 EAST 50TH STREET","SAVANNAH","GA","31404"
84124,"1706 EGLESTON AVE","KALAMAZOO","MI","49001"
84125,"1706 FLOYD AVENUE","RICHMOND","VA","23220"
84126,"1706 GARNERS CREEK RD","DICKSON","TN","37055"
84127,"1706 GLEN KEITH BLVD APT D","TOWSON","MD","21286"
84128,"1706 GRACE","VINTON","LA","70668"
84129,"1706 GRASSY KNOB RD","RUTHERFORDTON","NC","28139"
84130,"1706 HIGHWAY 51 S","COVINGTON","TN","38019"
84131,"1706 HILLSIDE LANE","MCHENRY","IL","60051"
84132,"1706 HOLLAND DR","SOMERSET","NJ","08873"
84133,"1706 HWY 138 SUITE E","CONYERS","GA","30013"
84134,"1706 LAKE WINDS DR","MISSOURI CITY","TX","77459"
84135,"1706 LEXINGTON AVENUE","ALLEN","TX","75013"
84136,"1706 MAPLE ST","RACINE","WI","53404"
84137,"1706 MARIE LN","IRVING","TX","75060"
84138,"1706 N JUNIPER ST","TACOMA","WA","98406"
84139,"1706 N MAYS ST","ROUND ROCK","TX","78664"
84140,"1706 N NAGLE AVE","CHICAGO","IL","60707"
84141,"1706 NANTUCKET COURT","PALM HARBOR","FL","34683"
84142,"1706 OAK STREET COLUMBUS OHIO 43205","COLUMBUS","OH","43205"
84143,"1706 OREGON AVENUE","STEUBENVILLE","OH","43952"
84144,"1706 PALACIO DRIVE","BAY POINT","CA","94565"
84145,"1706 PALO ALTO AVE","LADY LAKE","FL","32159"
84146,"1706 PARKVIEW DR","MONROE","LA","71202"
84147,"1706 PENNROCK ROAD","WILMINGTON","DE","19809"
84148,"1706 PERRY COURT","PROSPECT","KY","40059"
84149,"1706 POPLARS RD","YORK","PA","17408"
84150,"1706 PORT MANLEIGH CIRCLE","NEWPORT BEACH","CA","92660"
84151,"1706 RAMBLER DR","WACO","TX","76710"
84152,"1706 S HAWKINS AVENUE","AKRON","OH","44320"
84153,"1706 S HWY 41","MULLINS","SC","29574"
84154,"1706 S STREET NW UNIT 1","WASHINGTON","DC","20009"
84155,"1706 S SYCAMORE AVE","LOS ANGELES","CA","90019"
84156,"1706 S SYCAMORE AVENUE","LOS ANGELES","CA","90019"
84157,"1706 SE AUBURN BLACK DAIMOND RD","AUBURN","WA","98002"
84158,"1706 SILVER STREET","JACKSONVILLE","FL","32206"
84159,"1706 SIMMS","CONWAY","AR","72034"
84160,"1706 SOLOMON RD","CHARLOTTESVILLE","VA","22901"
84161,"1706 SOUTH 21ST ST","PARSONS","KS","67357"
84162,"1706 SOUTH 9TH STREET","MONROE","LA","71202"
84163,"1706 SW 35TH PLACE","GAINESVILLE","FL","32608"
84164,"1706 THOUSAND OAKS CIR","AUSTIN","TX","78746"
84165,"1706 TRUCKEE LANE","STOCKTON","CA","95206"
84166,"1706 UNION STREET SUITE 302","BROOKLYN","NY","11213"
84167,"1706 UNIV LN APT 607","COCOA","FL","32922"
84168,"1706 W 3RD PLACE","RUSSELLVILLE","AR","72801"
84169,"1706 WEST 7TH STREET","TEXARKANA","TX","75501"
84170,"1706 WEST WALTON - PO BOX 1281","BENTONVILLE","AR","72712"
84171,"1706 WILLOW DR","JUNEAU","AK","88901"
84172,"1706 WOODHOME DRIVE","BEL AIR","MD","21015"
84173,"17060 S HIGHLAND RIDGE DRIVE","VLG LOCH LOYD","MO","64012"
84174,"17061 54TH STREET SE","KINDRED","ND","58051"
84175,"17061 ACENA DRIVE","SAN DIEGO","CA","92128"
84176,"17061 EMILE STREET NO 5","BOCA RATON","FL","33487"
84177,"17061 WATERFORD DRIVE","LANSING","IL","60438"
84178,"17062 HOSSTON RODESSA ROAD","RODESSA","LA","71069"
84179,"17063 EAST 10 MILE ROAD","EASTPOINTE","MI","48021"
84180,"17063 GREENLAWN HILLS CT","CHARLOTTE","NC","28213"
84181,"17063 W SOUTHAMPTON RD","SURPRISE","AZ","85374"
84182,"17065 PINECREST DRIVE","ALLEN PARK","MI","48101"
84183,"17069 ARENA WAY","RAMONA","CA","92065"
84184,"1706A W VICTORIA DR APT 3A","MT PROSPECT","IL","60055"
84185,"1707 1/2 POST OAK BLVD PMB 273","HOUSTON","TX","77056"
84186,"1707 1/2 POST OAK BLVD STE 208","HOUSTON","TX","77056"
84187,"1707 1/2 POST OAK BLVD UNIT 647","HOUSTON","TX","77056"
84188,"1707 1/2 POST OAK RD PMB 304","HOUSTON","TX","77056"
84189,"1707 16TH STREET","MOLINE","IL","61265"
84190,"1707 17TH AVENUE SOUTH","SEATTLE","WA","98144"
84191,"1707 A ENTERPRISE DRIVE","BUFORD","GA","30047"
84192,"1707 AGRICULTURE STREET","NEW ORLEANS","LA","70119"
84193,"1707 ALISON ANN CT","PFLUGERVILLE","TX","78660"
84194,"1707 ALMOND CREEK NORTH TERRACE","RICHMOND","VA","23231"
84195,"1707 ASHBROOK DRIVE","CINCINNATI","OH","45238"
84196,"1707 BARTRUM TRAIL","SUGAR LAND","TX","77479"
84197,"1707 BIRD SONG PLACE","EL CAJON","CA","92021"
84198,"1707 CANTIGNY LN","KATY","TX","77450"
84199,"1707 CARRIAGE CREEK DR","DESOTO","TX","75115"
84200,"1707 CHAMBERLAYNE PARKWAY","RICHMOND","VA","23222"
84201,"1707 CHEECK SPARGER ROAD","COLLEYVILLE","TX","76034"
84202,"1707 CLINTON STREET","LINDEN","NJ","07036"
84203,"1707 COASTLINE LN","MANSFIELD","TX","76063"
84204,"1707 COLUMBIA RD NW SUITE 110","WASHINGTON","DC","20009"
84205,"1707 CRAFT ROAD","OLIVE BRANCH","MS","38654"
84206,"1707 CROMWELL DRIVE","NORFOLK","VA","23509"
84207,"1707 DADS RD","BAKER","FL","32531"
84208,"1707 DELWOOD CIRCLE","GREENEVILLE","TN","37745"
84209,"1707 DIVOT LANE","SEBRING","FL","33782"
84210,"1707 E 33RD STREET","BALTIMORE","MD","21218"
84211,"1707 E 6TH AVE","SHEFFIELD","AL","35660"
84212,"1707 E CEDAR  SUITE 103","OLATHE","KS","66062"
84213,"1707 EAST STATE STREET","ROCKFORD","IL","61104"
84214,"1707 ENGLEHART STREET","CORDOVA","TN","38016"
84215,"1707 FLAT RIDGE DR","HENDERSON","NV","89014"
84216,"1707 FOSTER AVE","CONWAY","SC","29527"
84217,"1707 HORIZON DRIVE SW","SUPPLY","NC","28462"
84218,"1707 INDIAN CAMP TRL","COPPERAS COVE","TX","76522"
84219,"1707 JACKSON CIR","ROLLA","MO","65401"
84220,"1707 JENNIFER CT","ONALASKA","WI","54650"
84221,"1707 JUNCTION RDG","SAN ANTONIO","TX","78248"
84222,"1707 KRAFT STREET","DALLAS","TX","75212"
84223,"1707 LAKEVIEW DR","FRITCH","TX","79036"
84224,"1707 LORMAN STREET","BALTIMORE","MD","21217"
84225,"1707 LOUISE DRIVE SE","JACKSONVILLE","AL","36265"
84226,"1707 MAIN STREET OFFICE 435","LA CROSSE","WI","54601"
84227,"1707 MANCHESTER CROSSING DRIVE","FRESNO","TX","77545"
84228,"1707 N 30TH STREET","KANSAS CITY","KS","66102"
84229,"1707 N HALL ST APT 213","DALLAS","TX","75204"
84230,"1707 N MARKET ST APT 112","FREDERICK","MD","21701"
84231,"1707 NW 46TH STREET","TAMARAC","FL","33309"
84232,"1707 OAKLEIGH","BALTIMORE","MD","21234"
84233,"1707 OHIO AVENUE","CUYAHOGA FALLAS","OH","44223"
84234,"1707 OLYMPIC DR UNIT 24","DAVIS","CA","95616"
84235,"1707 OVERTON AVE","WAYCROSS","GA","31503"
84236,"1707 POST OAK BLVD NUM 459","HOUSTON","TX","77056"
84237,"1707 POST OAK BLVD STE 500","HOUSTON","TX","77056"
84238,"1707 RESERVOIR RD","HOLLIDAYSBURG","PA","16648"
84239,"1707 REX AVE APT 205","JOPLIN","MO","64801"
84240,"1707 SCARBOROUGH DRIVE APT 2Q","BELLEVUE","NE","68123"
84241,"1707 SHILLINGTON DRIVE","HOUSTON","TX","77094"
84242,"1707 SORGHUM RIDGE","WHEELING","WV","26003"
84243,"1707 SOUTH GROVE AVE STE E","ONTARIO","CA","91761"
84244,"1707 SOUTHBELTLINE BLVD APT 14","COLUMBIA","SC","29205"
84245,"1707 SOUTHWEST A STREET","RICHMOND","IN","47374"
84246,"1707 TOTTENHAM COURT","WINTERVILLE","NC","28590"
84247,"1707 W PECAN ST UNIT B","NASHVILLE","TN","37208"
84248,"1707 W SPENCER ST","CRESTON","IA","50801"
84249,"1707 WEST 6TH STREET","TEXARKANA","TX","75501"
84250,"1707 WILLOW ST","SYCAMORE","IL","60178"
84251,"1707","TUSTIN","CA","92871"
84252,"17070 COLLINS AVE STE 258","SUNNY ISLES BEACH","FL","33160"
84253,"17070 KENTARA WAY","FT MYERS","FL","33913"
84254,"17070 SCENIC HIGHWAY 98","POINT CLEAR","AL","36564"
84255,"17070 SOUTH PARK AVE   STE F","SOUTH HOLLAND","IL","60473"
84256,"17070 WALNUT VILLAGE PKWY SUITE D","FONTANA","CA","92336"
84257,"17071 63RD STREET","BANGOR","MI","49013"
84258,"17071 GOTHARD STREET","HUNTINGTON BEACH","CA","92647"
84259,"17071 GOTHARD STREET","HUNTINGTON BEAH","CA","92647"
84260,"17071 W DIXIE HWY STE 110","NORTH MIAMI BEACH","FL","33160"
84261,"17072 MOUNTAIN RIDGE","DUBUQUE","IA","52002"
84262,"17073 PALM RIDGE DRIVE","D'IBERVILLE","MS","39540"
84263,"17075 COLONIAL PARK DR","MONUMENT","CO","80132"
84264,"17075 DEVONSHIRE STREET STE 206","NORTHRIDGE","CA","91325"
84265,"17075 FOREST LAKE RD","SONORA","CA","95370"
84266,"17075 PETERSBURG ROAD","EVANSVILLE","IN","47725"
84267,"1708  NE  24TH  STREET","WILTON  MANORS","FL","33305"
84268,"1708  NE 259TH STREET","RIDGEFIELD","WA","98642"
84269,"1708 1/2 E 2ND STREET","LONG BEACH","CA","90802"
84270,"1708 13TH STREET","BOULDER","CO","80302"
84271,"1708 23RD STREET","ARLINGTON","VA","22202"
84272,"1708 30TH AVE CT NE","HICKORY","NC","28601"
84273,"1708 8TH ST SW","WILLMAR","MN","56201"
84274,"1708 ANN AVENUE","HARRISONVILLE","MO","64701"
84275,"1708 ANTLER HILL CT","ST AUGUSTINE","FL","32092"
84276,"1708 AUGUSTA ST   SUITE C 356","GREENVILLE","SC","29605"
84277,"1708 AUGUSTA ST STE 325","GREENVILLE","SC","29605"
84278,"1708 BARTHOLOMEW STREET","NEW ORLEANS","LA","70117"
84279,"1708 BRIDGE ROAD","LANCASTER","PA","17602"
84280,"1708 BYFIELD CT","GAMBRILLS","MD","21054"
84281,"1708 CALIFORNIA AVE","FORT WAYNE","IN","46805"
84282,"1708 CAMINO ALEMEDA","LEANDER","TX","78641"
84283,"1708 CAMINO LA VISTA","FULLERTON","CA","92833"
84284,"1708 CENTRAL BLVD","BAY SHORE","NY","11706"
84285,"1708 CROWLEY DR","ST LOUIS","MO","63136"
84286,"1708 CROWN DRIVE","AUSTIN","TX","78745"
84287,"1708 DAMASCUS RD","MURFREESBORO","TN","37128"
84288,"1708 DRAWBRIDGE CT","CHARLESTON","SC","29414"
84289,"1708 E CARVER DRIVE","MUNCIE","IN","47303"
84290,"1708 E CORTEZ ST","WEST COVINA","CA","91791"
84291,"1708 E MENLO ST","MESA","AZ","85203"
84292,"1708 EAST OAKEY BLVD","LAS VEGAS","NV","89104"
84293,"1708 ELLINGTON RD","SOUTH WINDSOR","CT","06074"
84294,"1708 FOBES LANE APT 1","TUPELO","MS","38804"
84295,"1708 FRIARTUCK LN","CINCINNATI","OH","45230"
84296,"1708 GREAT SHOALS CIR","LAWRENCEVILLE","GA","30045"
84297,"1708 GREEN DOWNS DRIVE","RALEIGH","NC","27613"
84298,"1708 GROVE CT DR SE","CONYER","GA","30013"
84299,"1708 HAMPSHIRE GREEN LN APT 31","SILVER SPRING","MD","20903"
84300,"1708 HARTFORD RD","AUSTIN","TX","78703"
84301,"1708 HEYBURN AVE E","TWIN FALLS","ID","83301"
84302,"1708 HOUNDSTOOTH GLEN","LEXINGTON","KY","40515"
84303,"1708 KENWOOD AVENUE","SPRING LAKE","NC","28390"
84304,"1708 LAKE WASHINGTON BLVD","SEATTLE","WA","98122"
84305,"1708 LEXINGTON AVENUE","NEW YORK","NY","10029"
84306,"1708 LEXINGTON MEWS","WOOLWICH TOWNSHIP","NJ","08085"
84307,"1708 LINCOLN AVENUE","DES MOINES","IA","50314"
84308,"1708 MARSH RD","YAKIMA","WA","98901"
84309,"1708 MARY STREET","HONOLULU","HI","96819"
84310,"1708 MARYLAND STREET","LUMBERTON","NC","28358"
84311,"1708 MEADOWBROOK LANE","WILSON","NC","27893"
84312,"1708 MONTROSE DRIVE","TUSCALOOSA","AL","35405"
84313,"1708 MOUNTAINBROOK DR","HUNTSVILLE","AL","35801"
84314,"1708 N MOHAWK ST","CHICAGO","IL","60614"
84315,"1708 NANTUCKETT LANE UNIT 202","CHARLOTTE","NC","28270"
84316,"1708 NASH STREET","SANFORD","NC","27330"
84317,"1708 NICKLAUS CT","MCKINNEY","TX","75070"
84318,"1708 NORTH ELM STREET","LUMBERTON","NC","28358"
84319,"1708 NW SPRINGHILL DR","ALBANY","OR","97321"
84320,"1708 OAK LANE","MCLEAN","VA","22101"
84321,"1708 PHEASANT CREEK CT","ANTIOCH","TN","37013"
84322,"1708 PINECONE CT","BOWIE","MD","20721"
84323,"1708 RIVER COURT","VIRGINIA BEACH","VA","23454"
84324,"1708 RIVERSHORE PARKWAY","Indianapolis","IN","46208"
84325,"1708 RIVERSHORE PARKWAY","INDIANAPOLIS","IN","46208"
84326,"1708 S GENESEE DRIVE","LANSING","MI","48915"
84327,"1708 S RACINE AVE","CHICAGO","IL","60608"
84328,"1708 S STATE RD","UPPER DARBY","PA","19082"
84329,"1708 S STREET NW","WASHINGTON","DC","20009"
84330,"1708 SE 2ND TER","CAPE CORAL","FL","33990"
84331,"1708 SIERRA HIGHLANDS DR","RENO","NV","89523"
84332,"1708 SILVERY CANOE WAY","WYLIE","TX","75098"
84333,"1708 SOUTH ADAMS STREET","FORT WORTH","TX","76110"
84334,"1708 SPOONBILL DR","LITTLE ELM","TX","75068"
84335,"1708 SPRING GREEN BLVD STE 120-233","KATY","TX","77494"
84336,"1708 SPRINGHILL DR NW","ALBANY","OR","97321"
84337,"1708 TARGHEE DR","TWIN FALLS","ID","83301"
84338,"1708 TRIANGLE","ALICE","TX","78332"
84339,"1708 TURTLECREEK ROAD","EDMOND","OK","73013"
84340,"1708 VILLAGE RIDGE PLACE","COLLIERVILLE","TN","38017"
84341,"1708 W SANDCROFT DR","CHARLESTON","SC","29407"
84342,"1708 WYNFIELD LANE","AUBURN","GA","30011"
84343,"1708 ZIMMERMAN COURT","VIRGINIA BEACH","VA","23464"
84344,"1708 ZUMA DRIVE APT305","ARLINGTON","TX","76006"
84345,"17080 MONAHAN DR","ALTURA","MN","55910"
84346,"17080 SAFETY ST APT 104","FORT MYERS","FL","33908"
84347,"17081 A LN APT B","HUNTINGTON BEACH","CA","92647"
84348,"17081 THREE RIVERS ROAD","COVINGTON","LA","70433"
84349,"17082 ANNS BROOK COURT","WOODBRIDGE","VA","22191"
84350,"17085 NORTH GRANITE DR","COTTONWOOD","CA","96022"
84351,"17089 STAFFORD RD","BROOKINGS","OR","97415"
84352,"1709 4TH ST SE","AUBURN","WA","98002"
84353,"1709 6TH AVE N UNIT A","NASHVILLE","TN","37208"
84354,"1709 BLOSSOM CIRCLE WEST","LAKELAND","FL","33805"
84355,"1709 BYNWOOD DR","WILSON","NC","27893"
84356,"1709 CHAMBERS DRIVE","MATTHEWS","NC","28105"
84357,"1709 CHEVY CHASE DRIVE","BEVERLY HILLS","CA","90210"
84358,"1709 CLINTON AVENUE","KALAMAZOO","MI","49001"
84359,"1709 CLUB COVE","STUTTGART","AR","72160"
84360,"1709 CREEKSIDE DRIVE","STEVENSVILLE","MT","59870"
84361,"1709 DATE AVENUE","TORRANCE","CA","90503"
84362,"1709 DEXTER AVE N UNIT B","SEATTLE","WA","98109"
84363,"1709 DIANE MERLE DRIVE","NORTH HUNTINGDON","PA","15642"
84364,"1709 E BANCROFT LANE","CROFTON","MD","21114"
84365,"1709 E EZMIRLIAN ST","COMPTON","CA","90221"
84366,"1709 E TAYLOR ST","BLOOMINGTON","IL","61701"
84367,"1709 E WILLIAM J BRYAN PKWY","BRYAN","TX","77802"
84368,"1709 EAST CLAY STREET APT 505","RICHMOND","VA","23223"
84369,"1709 EAST GENESEE STREET","TAMPA","FL","33610"
84370,"1709 ELK ST","STEVENS POINT","WI","54481"
84371,"1709 FAIRWAY LANE","SPANISH FORK","UT","84660"
84372,"1709 FARINGDON DRIVE","PLANO","TX","75075"
84373,"1709 FELICITY LANE","KISSIMMEE","FL","34744"
84374,"1709 FRANK HALL DRIVE","ALBERT LEA","MN","56007"
84375,"1709 GORNTO ROAD PMB243","VALDOSTA","GA","31601"
84376,"1709 GRAVES RD","STAMPING GROUND","KY","40379"
84377,"1709 HARVEST DRIVE","HOUMA","LA","70360"
84378,"1709 HIBISCUS CIR N","OLDSMAR","FL","34677"
84379,"1709 HIBISCUS CIRCLE N","OLDSMAR","FL","34677"
84380,"1709 HIGHWAY 20 WEST","MCDONOUGH","GA","30253"
84381,"1709 HOPKINS STREET","BERKELEY","CA","94707"
84382,"1709 HUNTINGTON DR","MESQUITE","TX","75149"
84383,"1709 HUSSON AVENUE","PALATKA","FL","32177"
84384,"1709 HWY 20 EAST","SAINT PAULS","NC","28384"
84385,"1709 HWY 24","COMMERCE","TX","75428"
84386,"1709 KERRY COURT","WEST COVINA","CA","91792"
84387,"1709 KY ROUTE 321","PRESTONSBURG","KY","41653"
84388,"1709 LYLE ROAD","WEATHERFORD","OK","73096"
84389,"1709 LYTLE ST","LOUISVILLE","KY","40203"
84390,"1709 MADRID","SAN ANTONIO","TX","78254"
84391,"1709 MAID MARION LANE APARTMENT 302","WINSTON SALEM","NC","27106"
84392,"1709 MARTIN LUTHER KING JR BLVD","DALLAS","TX","75215"
84393,"1709 MCKNIGHT ROAD NORTH","MAPLEWOOD","MN","55109"
84394,"1709 N AVENUE 55","LOS ANGELES","CA","90042"
84395,"1709 N FULLER AVENUE 15","LOS ANGELES","CA","90046"
84396,"1709 N VALLEY AVE","PEORIA","IL","61604"
84397,"1709 NE 21ST ST","OKLAHOMA CITY","OK","73111"
84398,"1709 NEW YORK AVE","EGG HARBOR CITY","NJ","08215"
84399,"1709 NORRIS DRIVE","AUSTIN","TX","78704"
84400,"1709 NORTH RACINE STREET","APPLETON","WI","54911"
84401,"1709 NORTH WASHTENAW AVENUE","CHICAGO","IL","60647"
84402,"1709 NORTHBOURNE ROAD","BALTIMORE","MD","21239"
84403,"1709 NUTTMAN AV","DECATUR","IN","46733"
84404,"1709 OAKLAWN DR","MONROE","LA","71202"
84405,"1709 OLIVE ST","BALTIMORE","MD","21230"
84406,"1709 OVERVIEW DR","NEW PORT RICHEY","FL","34655"
84407,"1709 REISTERSTOWN ROAD - SUITE 3","PIKESVILLE","MD","21208"
84408,"1709 RIVERKNOLL DRIVE UNIT 103","RALEIGH","NC","27610"
84409,"1709 RYAN AVE","MURRAY","KY","42071"
84410,"1709 S JEFFERSON ST","PERRY","FL","32348"
84411,"1709 SE CUTTER LANE","VANCOUVER","WA","98661"
84412,"1709 SHAD LANE","KISSIMMEE","FL","34759"
84413,"1709 SIR JOHN CT","ORLANDO","FL","32837"
84414,"1709 SOUTHERN DRAW DR","TEMPLE","TX","76502"
84415,"1709 SPIELBUSCH AVE STE 101","TOLEDO","OH","43604"
84416,"1709 SUMMERFIELD ST","RIDGEWOOD","NY","11385"
84417,"1709 SUNSET VIEW CIRCLE","APOPKA","FL","32703"
84418,"1709 TIMBERLAKE DRIVE","SALISBURY","MD","21801"
84419,"1709 TIPTON STATION RD","KNOXVILLE","TN","37920"
84420,"1709 VERNON AVE","ROCKY MOUNT","NC","27802"
84421,"1709 VIOLETAS RD NW","ALBUQUERQUE","NM","87104"
84422,"1709 W 40TH AVE","KENNEWICK","WA","99337"
84423,"1709 W LOMBARD STREET","BALTIMORE","MD","21223"
84424,"1709 W SHERRIE DR","FLAGSTAFF","AZ","86001"
84425,"1709 WASHINGTON VALLEY DRIVE","STEWARTSVILLE","NJ","08886"
84426,"17090 COLLINSON","EASTPOINTE","MI","48021"
84427,"17090 MW 22 STREET","PEMBROKE PINES","FL","33028"
84428,"17092 80TH PL N","MAPLE GROVE","MN","55311"
84429,"17094 FERRY DOCK ROAD","KING GEORGE","VA","22485"
84430,"17096 BEAVER DAM","BEAVERDAM","VA","23015"
84431,"17096 SEQUOIA AVE 117","HESPERIA","CA","92345"
84432,"17099 VIA MAGDALENA","SAN LORENZO","CA","94580"
84433,"171 12TH STREET","BETHPAGE","NY","11714"
84434,"171 17TH STREET NW SUITE 1100","ATLANTA","GA","30363"
84435,"171 38 107TH ST","JAMAICA","NY","11433"
84436,"171 AMITY ROAD","BETHANY","CT","06524"
84437,"171 ANDOVER STREET UNIT 1","LOWELL","MA","01852"
84438,"171 ARGILLA ROAD","IPSWICH","MA","01938"
84439,"171 ARLINGTON AVENUE EAST","SAINT PAUL","MN","55117"
84440,"171 ASPEN DR","DURANGO","CO","81301"
84441,"171 AUBINWOOD ROAD","AMHERST","MA","01002"
84442,"171 AUBURN AVE NE SUITE 307","ATLANTA","GA","30303"
84443,"171 BAYLOR SCHOOL C/O LUCIE MERKATZ","CHATTANOOGA","TN","37405"
84444,"171 BEXLEY CHURCH RD","LUCEDALE","MS","39452"
84445,"171 BOBBY STREET","ELIZABETHTOWN","KY","42701"
84446,"171 BONA ROAD","BUFORD","GA","30518"
84447,"171 BORMAN AVE","AVENEL","NJ","07001"
84448,"171 BOYNTON ROAD","Hampton","GA","30248"
84449,"171 BRANHAM LN STE 10-512","SAN JOSE","CA","95136"
84450,"171 BROAD ST UNIT 1 NUMBER700","RED BANK","NJ","07701"
84451,"171 BROAD STREET UNIT 344","RED BANK","NJ","07701"
84452,"171 BUFFALO RD","CLARKSVILLE","VA","23927"
84453,"171 CANAL BLVD","PONTE VEDRA BEACH","FL","32082"
84454,"171 CARROLL ST","SHREVEPORT","LA","71105"
84455,"171 CHEROKEE ROAD","HENDERSONVILLE","TN","37075"
84456,"171 CHEYENNE DRIVE","LYNCHBURG","VA","24502"
84457,"171 CHURCH ST STE 160","CHARLESTON","SC","29401"
84458,"171 CHURCH STREET EXT","SMITHFIELD","PA","15478"
84459,"171 COLERIDGE ST","BOSTON","MA","02128"
84460,"171 CONAMARA LANE","WOODRUFF","SC","29388"
84461,"171 CONCORD LN","HINCKLEY","OH","44233"
84462,"171 COUNTY HWY 430","ORAN","MO","63771"
84463,"171 CR 1818","SALTILLO","MS","38866"
84464,"171 DENISE ST","OVIEDO","FL","32765"
84465,"171 DEWEY ST","SUN PRAIRIE","WI","53590"
84466,"171 DOURDAN PLACE","BLOOMFIELD HILLS","MI","48304"
84467,"171 DUKE OF GLOUCESTER ST","ANNAPOLIS","FL","21401"
84468,"171 E IMPERIAL HWY","LA HABRA","CA","90631"
84469,"171 E IVY AVE","GERVAIS","OR","97026"
84470,"171 E RIDGEWOOD AVENUE","RIDGEWOOD","NJ","07450"
84471,"171 EAST 84TH STREET APT 12G","NEW YORK","NY","10028"
84472,"171 EASTERN AVE","SPRINGFIELD","MA","01109"
84473,"171 EGG AND I RIDGE ROAD","CHIMACUM","WA","98325"
84474,"171 EMERALD GREEN COURT","CREVE COEUR","MO","63141"
84475,"171 FAYWOOD AVE APT 242","EAST BOSTON","MA","02128"
84476,"171 FIGUREA AVENUE","STATEN ISLAND","NY","10312"
84477,"171 FOOTHILLS PARKWAY - SUITE 109","MARBLE HILL","GA","30148"
84478,"171 FRANKLIN STREET","TORRINGTON","CT","06790"
84479,"171 GARBROOKE DRIVE","BENNINGTON","VT","05201"
84480,"171 GRAND AVENUE","MONROVIA","CA","91016"
84481,"171 GRAVES RD","FAYETTEVILLE","GA","30214"
84482,"171 HICKORY VIEW WAY APT 106","SHINNSTON","WV","26431"
84483,"171 HIDDEN OAK LN","SEGUIN","TX","78155"
84484,"171 HIGHLAND RD","MANSFIELD CENTER","CT","06250"
84485,"171 HIGHWAY 89","MONTEVALLO","AL","35115"
84486,"171 HUBLER RIDGE ROAD","BELLEFONTE","PA","16823"
84487,"171 HUGGINS ROAD","DUNCANNON","PA","17020"
84488,"171 JOSHUA CT","LINCOLNTON","NC","28092"
84489,"171 KENWOOD DRIVE NORTH","LEVITTWON","PA","19055"
84490,"171 KNOX AVE","WEST SENECA","NY","14224"
84491,"171 LAKE MARIANA PL","AUBURNDALE","FL","33823"
84492,"171 LAUREL MOUNTAIN DR","TOCCOA","GA","30577"
84493,"171 LINCOLN ST","LOWELL","MA","01852"
84494,"171 LINCOLN STREET","LOWELL","MA","01852"
84495,"171 LITTLE YORK PATTENBURG RD","MILFORD","NJ","08848"
84496,"171 LONESOME DOVE LN","LAWRENCEVILLE","VA","23868"
84497,"171 MADISON AVENUE SUITE 1602","NEW YORK","NY","10016"
84498,"171 MAIN ST UNIT 298","LOS ALTOS","CA","94022"
84499,"171 MAIN STREET SUITE 175","LOS ALTOS","CA","94022"
84500,"171 MAIN STREET","NEW PALTZ","NY","12561"
