"ID","Address","City","State","Zip"
106001,"201 VINE ST","ELLSWORTH AFB","SD","57706"
106002,"201 VOTECH DRIVE","FAIRVIEW","OK","73737"
106003,"201 W 10TH ST","ANTIOCH","CA","94509"
106004,"201 W 17TH ST  NW  SUITE 300","ATLANTA","GA","30363"
106005,"201 W 2ND AVE STE E","GASTONIA","NC","28052"
106006,"201 W 49TH ST","MINNEAPOLIS","MN","55419"
106007,"201 W 4TH ST","IRVING","TX","75060"
106008,"201 W 5TH ST STE 505","TULSA","OK","74103"
106009,"201 W 89TH ST APT 11G","NEW YORK","NY","10024"
106010,"201 W ADAMS ST","HAVANA","IL","62644"
106011,"201 W BELTLINE RD STE 300","CEDAR HILL","TX","75104"
106012,"201 W BOARDWALK DR","PALATINE","IL","60067"
106013,"201 W BROADWAY BLDG 2 STE F","COLUMBIA","MO","65203"
106014,"201 W BROADWAY","COLUMBIA","MO","65203"
106015,"201 W BROADWAY","WINNSBORO","TX","75494"
106016,"201 W CAMDEN FOREST DR","CARY","NC","27518"
106017,"201 W COVENTRY CT SUITE 316","GLENDALE","WI","53217"
106018,"201 W DIXIE AVE","ELIZABETHTOWN","KY","42701"
106019,"201 W FAYETTE ST","FAYETTEVILLE","TX","78940"
106020,"201 W FISK ST","GOODFIELD","IL","61742"
106021,"201 W FRONT STREET","MEDIA","PA","19063"
106022,"201 W GARVEY AVE STE 102-810","MONTEREY PARK","CA","91754"
106023,"201 W GRAND RIVER APT B","HOWELL","MI","48843"
106024,"201 W HARVEY","WELLINGTON","KS","67152"
106025,"201 W HOWRY AVE","DELAND","FL","32720"
106026,"201 W JERSTY STREET UNIT 420","ELIZABETH","NJ","07202"
106027,"201 W KINGSTON AVE","CHARLOTTE","NC","28203"
106028,"201 W MAIN ST FL 5TH","MEDFORD","OR","97501"
106029,"201 W MICHIGAN STREET","NEW CARLISLE","IN","46552"
106030,"201 W NORMANTOWN ROAD","ROMEOVILLE","IL","60446"
106031,"201 W NORTH RIVER DRIVE STE 305","SPOKANE","WA","99201"
106032,"201 W OHIO ST","FLORAHOME","FL","32140"
106033,"201 W PHOENIX ST","PAYSON","AZ","85541"
106034,"201 W PLATT ST","MAQUOKETA","IA","52060"
106035,"201 W ROY FURMAN HWY","WIND RIDGE","PA","15380"
106036,"201 W SPFLD AVE STE 601","CHAMPAIGN","IL","61820"
106037,"201 W WALNUT ST","KUTZTOWN","PA","19530"
106038,"201 W WASHINGTON ST","FRANKFORT","IN","46041"
106039,"201 W WAYNE ST","FORT WAYNE","IN","46802"
106040,"201 W WILSON ST","VALDERS","WI","54245"
106041,"201 W WYOMISSING BLVD","WEST LAWN","PA","19609"
106042,"201 WALT BANKS RD","PEACHTREE CITY","GA","30269"
106043,"201 WALT BANKS ROAD","PEACHTREE CITY","GA","30269"
106044,"201 WALZ RD","LIVERPOOL","PA","17045"
106045,"201 WARBLER WAY","HOWARD","PA","16841"
106046,"201 WASHINGTON AVE W  PO BOX 276","FINLEY","ND","58230"
106047,"201 WASHINGTON ST SW","ATLANTA","GA","30303"
106048,"201 WASHINGTON ST","NEW BRITAIN","CT","06053"
106049,"201 WAX MYRTLE WAY","SAVANNAH","GA","31419"
106050,"201 WENDELL ROAD","NEW SALEM","MA","01355"
106051,"201 WEST 115TH STREET APT 6C","NEW YORK","NY","10026"
106052,"201 WEST 14TH","ADA","OK","74820"
106053,"201 WEST 49TH STREET","MINNEAPOLIS","MN","55419"
106054,"201 WEST 74TH STREET  APT 8D","NEW YORK","NJ","10023"
106055,"201 WEST 94TH ST APT 1A","NEW YORK","NY","10025"
106056,"201 WEST BAYSHORE BLVD","JACKSONVILLE","NC","28540"
106057,"201 WEST GENESEE STREET 180","FAYETTEVILLE","NY","13066"
106058,"201 WEST HILL DRIVE","HEBER SPRINGS","AR","72543"
106059,"201 WEST KENNEDY BOULEVARD BOX 2F","TAMPA","FL","33606"
106060,"201 WEST MAIN CROSS","GREENVILLE","KY","42345"
106061,"201 WEST MAIN STREET","SHIREMANSTOWN","PA","17011"
106062,"201 WEST MARTINDALE ST","KENNARD","IN","47351"
106063,"201 WEST MONTGOMERY XRD APT 116","SAVANNAH","GA","31406"
106064,"201 WEST SHORT STREET SUITE 601","LEXINGTON","KY","40507"
106065,"201 WEST SUNSET DR","MONROE","NC","28112"
106066,"201 WEST SUNSET DRIVE","MONROE","NC","28112"
106067,"201 WEST WASHINGTON STREET","CLINTON","IL","61727"
106068,"201 WEST WESTFIELD AVENUE","ROSELLE PARK","NJ","07204"
106069,"201 WHIPOORWILL HILL RD","GAP MILLS","WV","24941"
106070,"201 WHIPPOORWILL DRIVE","ALTAMONTE SPRINGS","FL","32701"
106071,"201 WICK AVENUE","YOUNGSTOWN","OH","44503"
106072,"201 WILSON AVE","BEAVER","PA","15009"
106073,"201 WILSON AVE","RUMFORD","RI","02916"
106074,"201 WINDSOR AVE","ELKINS PARK","PA","19027"
106075,"201 WOMACK CEMETERY RD","MONTGOMERY","TX","77316"
106076,"201 WOOD SMOKE RD","DENVER","IA","50622"
106077,"201 WOODLAND AVENUE","EAST ORANGE","NJ","07017"
106078,"201 WOODLEIGH PARK DR","COLUMBIA","SC","29229"
106079,"201 YAPLES ORCHARD DR","CHILLICOTHE","OH","45601"
106080,"201 YAPLES ORCHARD DRIVE","CHILLICOTHE","OH","45601"
106081,"201 YESLER WAY 1202","SEATTLE","WA","98104"
106082,"201-10-LINDEN BLVD","QUEENS","NY","11412"
106083,"201-A-BROADWAY","MORIARTY","NM","87035"
106084,"201-E WIRE ROAD","AUBURN","AL","36849"
106085,"201","MUNCIE","IN","47305"
106086,"2010 2ND AVE","BROOKLYN","NY","11232"
106087,"2010 37TH STREET","ASTORIA","NY","11105"
106088,"2010 7TH AVENUE APT 7D","NEW YORK","NY","10027"
106089,"2010 8TH ST N","FARGO","ND","58102"
106090,"2010 ALICE AVE APT 202","OXEN HILL","MD","20745"
106091,"2010 AVALON DR","LAS CRUCES","NM","88005"
106092,"2010 BEACH AVENUE","COLONIAL BEACH","VA","22443"
106093,"2010 BEAUDRY ROAD","YAKIMA","WA","98901"
106094,"2010 BISSONNET STREET","HOUSTON","TX","77005"
106095,"2010 BRANARD APT 4","HOUSTON","TX","77098"
106096,"2010 CAESAR WAY SOUTH","ST PETERSBURG","FL","33712"
106097,"2010 CALIFORNIA AVENUE","WHITE OAK","PA","15131"
106098,"2010 CANYON DRIVE","MCKEES ROCKS","PA","15136"
106099,"2010 CASTALIA STREET","FREMONT","OH","43420"
106100,"2010 CHEROKEE PARKWAY SUITE 1","LOUISVILLE","KY","40204"
106101,"2010 CORBETT RD","ORLANDO","FL","32826"
106102,"2010 CORPORATE RIDGE SUITE 700","MCLEAN","VA","22102"
106103,"2010 COUNTRY FARMS ROAD","PORT ORANGE","FL","32128"
106104,"2010 COUNTY RD S","EDGAR","WI","54426"
106105,"2010 CROW CANYON PL STE 100","SAN RAMON","CA","94583"
106106,"2010 CROW CANYON PLACE STE 100","SAN ROMAN","CA","94583"
106107,"2010 DEER VALLEY ROAD","RESCUE","CA","95672"
106108,"2010 E AMBER LN APT 103","URBANA","IL","61802"
106109,"2010 E HENNEPIN AVE BOX 20","MINNEAPOLIS","MN","55413"
106110,"2010 EAST MAIN AVE","MISSION","TX","78573"
106111,"2010 EAST MCINTOSH ROAD","GRIFFIN","GA","30223"
106112,"2010 EAST UNIVERSITY SUITE 17","TEMPE","AZ","85281"
106113,"2010 EAST UNIVERSITY SUITE 24","TEMPE","AZ","85281"
106114,"2010 EL CAMINO REAL 2090","SANTA CLARA","CA","95050"
106115,"2010 EL CAMINO REAL PMB 3065","SANTA CLARA","CA","95050"
106116,"2010 EL CAMINO REAL SUITE 1137","SANTA CLARA","CA","95050"
106117,"2010 EL CAMINO REAL UNIT 333","SANTA CLARA","CA","95050"
106118,"2010 ENCHANTED LANE","LANCASTER","TX","75146"
106119,"2010 ESTAMPIDA","SAN CLEMENTE","CA","92673"
106120,"2010 EVANS PARKWAY","SILVER SPRING","MD","20902"
106121,"2010 FEARRINGTON POST","PITTSBORO","NC","27312"
106122,"2010 FLORAL PARK RD","CLINTON","MD","20735"
106123,"2010 FLORENCE AVENUE","HAZLET","NJ","07730"
106124,"2010 FRED HARRISON RD","SNOW HILL","NC","28580"
106125,"2010 FRONT ST TRLR 19","LYNDEN","WA","98264"
106126,"2010 FULTON STREET","BROOKLYN","NY","11233"
106127,"2010 GEER RD","UNION POINT","GA","30669"
106128,"2010 GILES DRIVE NE","HUNTSVILLE","AL","35811"
106129,"2010 GRAND AVE","DALLAS","TX","75215"
106130,"2010 GROTON ROAD","POCOMOKE CITY","MD","21851"
106131,"2010 HARRIMAN LANE B","REDONDO BEACH","CA","90278"
106132,"2010 HASSELL RD APT 101","HOFFMAN ESTATES","IL","60169"
106133,"2010 HAUSER BLVD APT 8","LOS ANGELES","CA","90016"
106134,"2010 HAVENWOOD DRIVE","LANCASTER","SC","29720"
106135,"2010 KENDERICK LANE","LAKELAND","FL","33805"
106136,"2010 KUEHNLE AVE","ATLANTIC CITY","NJ","08401"
106137,"2010 LAKEFRONT DRIVE","HUNTSVILLE","AL","35824"
106138,"2010 MAIN ST","IRVINE","CA","92614"
106139,"2010 MAIN STREET SUITE 330","IRVINE","CA","92614"
106140,"2010 MAIN STREET","BEECH GROVE","IN","46107"
106141,"2010 MERLE DRIVE","REDDING","CA","96001"
106142,"2010 MILVIA ST","BERKELEY","CA","94704"
106143,"2010 MIRACLE LN","FALLS CHURCH","VA","22043"
106144,"2010 MOORES FLAT RD","MOREHEAD","KY","40351"
106145,"2010 N CLEVELAND","CHICAGO","IL","60614"
106146,"2010 N FINE AVE  SUITE 103 A","FRESNO","CA","93727"
106147,"2010 N FULTON ST","WHARTON","TX","77488"
106148,"2010 N LAZONA DR STE 108","MESA","AZ","85203"
106149,"2010 N MARKET ST","SHREVEPORT","LA","71107"
106150,"2010 N NEW ST","KIRKSVILLE","MO","63501"
106151,"2010 NC HIGHWAY 55","DURHAM","NC","27707"
106152,"2010 NEW ALBANY RD","CINNAMINSON","NJ","08077"
106153,"2010 NEWCASTLE A","BOCA RATON","FL","33434"
106154,"2010 NORTH STARK ROAD","MIDLAND","MI","48642"
106155,"2010 NW 70TH AVENUE","SUNRISE","FL","33313"
106156,"2010 NW LOGAN ST","TOPEKA","KS","66608"
106157,"2010 OLIVE STREET","ST LOUIS","MO","63103"
106158,"2010 PAXSON DRIVE","ANCHORAGE","AK","99504"
106159,"2010 PHILADELPHIA ST","AMES","IA","50010"
106160,"2010 S BIG BEND BLVD","SAINT LOUIS","MO","63117"
106161,"2010 S JACKSON ST","SEATTLE","WA","98144"
106162,"2010 SE 101ST AVENUE","VANCOUVER","WA","98664"
106163,"2010 SOUTH TRYON STREET SUITE D","CHARLOTTE","NC","28203"
106164,"2010 STATE ROUTE 488","CLIFTON SPRINGS","NY","14432"
106165,"2010 STEPHANIE CT","AUBURN","AL","36832"
106166,"2010 STREET ROAD","NEW HOPE","PA","18938"
106167,"2010 STUART ST","BROOKLYN","NY","11229"
106168,"2010 SUNNY TRAIL DR","GEORGETOWN","TX","78626"
106169,"2010 SUNSET DRIVE W","UNIVERSITY PLACE","WA","98466"
106170,"2010 SW25TH TERRACE APT 304","MIAMI","FL","33133"
106171,"2010 TALL GRASS LN UNIT 310","CANONSBURG","PA","15317"
106172,"2010 TIGER PRIDE BLVD","SEDALIA","MO","65301"
106173,"2010 TOWNE LAKE HILLS SOURH DRIVE","WOODSTOCK","GA","30189"
106174,"2010 TOWNE LAKE HILLS SOUTH DR","WOODSTOCK","GA","30189"
106175,"2010 TREMAINSVILLE RD","TOLEDO","OH","43613"
106176,"2010 TREMAINSVILLE ROAD","TOLEDO","OH","43613"
106177,"2010 VICTOR ST","SAINT LOUIS","MO","63104"
106178,"2010 VINEYARD AVE","LOS ANGELES","CA","06851"
106179,"2010 W  WADDELL AVE","ALBANY","GA","31705"
106180,"2010 W AVE K 524","LANCASTER","CA","93536"
106181,"2010 W AVE K 526","LANCASTER","CA","93536"
106182,"2010 W AVENUE K UNIT 672","LANCASTER","CA","93536"
106183,"2010 W ROSTEN AVE","NAMPA","ID","83686"
106184,"2010 WALNUT STREET","DURHAM","NC","27705"
106185,"2010 WEST 49TH STREET","MINNEAPOLIS","MN","55419"
106186,"2010 WEST AVE K   STE 574","LANCASTER","CA","93536"
106187,"2010 WEST AVENUE K PMB 115","LANCASTER","CA","93536"
106188,"2010 WEST AVENUE K SUITE 621","LANCASTER","CA","93536"
106189,"2010 WEST KINGS HIGHWAY","SAN ANTONIO","TX","78201"
106190,"2010 WILSHIRE BOULEVARD SUITE 1012","LOS ANGELES","CA","90057"
106191,"2010 WIMBLEDON DR","ALLEN","TX","75013"
106192,"2010 YALE CT","LAS CRUCES","NM","88005"
106193,"2010-A HARBISON DR 422","VACAVILLE","CA","95687"
106194,"2010","KANSAS CITY","MO","64130"
106195,"20100 LAKEWOOD AVE","LYNWOOD","IL","60411"
106196,"20101 HODDE LN","PFLUGERVILLE","TX","78660"
106197,"20101 LYONS ROAD","BOCA  RATON","FL","33434"
106198,"20101 SOUTH 180 RD","OKMULGEE","OK","74447"
106199,"20102 E GRAND PLACE","AURORA","CO","80015"
106200,"20102 NW 62ND AVENUE","MIAMI","FL","33015"
106201,"20103 75TH AVE NE","KENMORE","WA","98028"
106202,"20103 EMERALD CLIFF LANE","RICHMOND","TX","77407"
106203,"20103 NESTOR AVENUE","CARSON","CA","90746"
106204,"20104 73RD AVENUE CT E","SPANAWAY","WA","98387"
106205,"20104 E ROBINS DR","DENVER","CO","80249"
106206,"20105 HOPPER STREET","ELKHORN","NE","68022"
106207,"20106 45TH DRIVE NE","ARLINGTON","WA","98223"
106208,"20106 5TH STREET","RUPERT","ID","83350"
106209,"20106 ATASCOCITA LAKE DRIVE","HUMBLE","TX","77346"
106210,"20106 CRESENT CREEK DRIVE","KATY","TX","77449"
106211,"20106 MONARDA MANOR COURT","SPRING","TX","77379"
106212,"20107 45TH STREET","TOWN OF PARIS","WI","53104"
106213,"20107 GLEN BURN CT","KINGWOOD","TX","77346"
106214,"2011  WEHR AVENUE","ALLENTOWN","PA","18104"
106215,"2011 24TH AVE","OAKLAND","CA","94601"
106216,"2011 25TH STREET SOUTH","ST PETERSBURG","FL","33712"
106217,"2011 2ND LOOP RD STE B","FLORENCE","SC","29501"
106218,"2011 36TH ST","MISSOULA","MT","59801"
106219,"2011 4TH STREET","SACRAMENTO","CA","95818"
106220,"2011 ARDELLA DRIVE","POCATELLO","ID","83201"
106221,"2011 ASPEN RIDGE CT","OCOEE","FL","34761"
106222,"2011 BALFOUR CIR","TAMPA","FL","33619"
106223,"2011 BANCROFT ST","MARQUETTE","MI","49855"
106224,"2011 BLEECKER ST","RIDGEWOOD","NY","11385"
106225,"2011 BRIDGEPORT RD NE APT 302","GRAND RAPIDS","MI","49505"
106226,"2011 BROOKVIEW DR NW","ATLANTA","GA","30318"
106227,"2011 CATSKILL COURT","APEX","NC","27523"
106228,"2011 CIMA COURT","CARLSBAD","CA","92009"
106229,"2011 COMMERCE DR N","PEACHTREE CITY","GA","30269"
106230,"2011 COUNTY ROAD 207","DURANGO","CO","81301"
106231,"2011 COUNTY ROAD 609","FARMERSVILLE","TX","75442"
106232,"2011 CRANDALL DR","SAN DIEGO","CA","92111"
106233,"2011 CRYSTAL DRIVE SUITE 1010","ARLINGTON","VA","22202"
106234,"2011 DELTA BLVD","TALLAHASSEE","FL","32303"
106235,"2011 E CROSSROADS LANE SUITE 304","OLATHE","KS","66062"
106236,"2011 E LONE SPRUCE COURT","DRAPER","UT","84020"
106237,"2011 E RIVER RD","TRAVERSE CITY","MI","49696"
106238,"2011 E WISCONSIN AVENUE","LITTLE CHUTE","WI","54140"
106239,"2011 EAGLING ROAD","RILEY TWP.","MI","48041"
106240,"2011 FIRESIDE DRIVE","CHAPEL HILL","NC","27517"
106241,"2011 FIRST AVENUE","NEW YORK","NY","10029"
106242,"2011 FM 2237","MULDOON","TX","78949"
106243,"2011 FOSTER STREET","EVANSTON","IL","60201"
106244,"2011 FOX CREEK ROAD","BLOOMINGTON","IL","61701"
106245,"2011 FRANKLIN ST  NE","WASHINGTON","DC","20018"
106246,"2011 GRACE AVE","EVANS","GA","30809"
106247,"2011 GULF SHORE BLVD N 64","NAPLES","FL","34102"
106248,"2011 HATFIELD ROAD","LEBANON","OH","45036"
106249,"2011 HOFFMAN DR NE","ALBUQUERQUE","NM","87110"
106250,"2011 ICES FERRY DRIVE","MORGANTOWN","WV","26508"
106251,"2011 JOHNSON INDUSTRIAL DRIVE","NOLENSVILLE","TN","37135"
106252,"2011 KESTRAL CIR","AUDUBON","PA","19403"
106253,"2011 LAKELAND AVE APT 9","LAKEWOOD","OH","44107"
106254,"2011 LAUREN LAKE DRIVE","LEAGUE CITY","TX","77573"
106255,"2011 PLAZA LN APT 317T","ATLANTA","GA","30311"
106256,"2011 RAMSEY AVENUE","DALLAS","TX","75216"
106257,"2011 RED BERRY ROAD","FAIRBANKS","AK","99709"
106258,"2011 RICE DR","LEVELLAND","TX","79336"
106259,"2011 ROBINHOOD ROAD","ALBANY","GA","31707"
106260,"2011 RUTH CIRCLE","ALICE","TX","78332"
106261,"2011 S 1600 W","WOODS CRISS","UT","84087"
106262,"2011 S 1600 W","WOODS CROSS","UT","84087"
106263,"2011 S 25TH STREET SUITE 206","FORT PIERCE","FL","34947"
106264,"2011 S SHEPPARD STREET","KENNEWICK","WA","99338"
106265,"2011 SAN ANTONIO DR","CORONA","CA","92882"
106266,"2011 SENTRY CIRCLE 301","ODENTON","MD","21113"
106267,"2011 SHADOWBROOK CIRCLE","ROUND ROCK","TX","78681"
106268,"2011 SHANNON LAKES CR","KISSIMMEE","FL","34743"
106269,"2011 SHELL RING CIRCLE","MT. PLEASANT","SC","29466"
106270,"2011 SOUTH 1600 WEST","WOODS CROSS","UT","84087"
106271,"2011 SOUTH 7TH STREET","OSKALOOSA","IA","52577"
106272,"2011 SOUTH MONROE STREET","TALLAHASSEE","FL","32301"
106273,"2011 STEPHENS BLVD","JOPLIN","MO","64084"
106274,"2011 SW JANETTE AVE","PORT SAINT LUCIE","FL","34953"
106275,"2011 SYCAMORE CREEK DRIVE","MANAKIN SABOT","VA","23103"
106276,"2011 TERRAPIN CREEK ROAD","SYKESVILLE","MD","21784"
106277,"2011 TORBETT ST","RICHLAND","WA","99354"
106278,"2011 TROJAN AVENUE","ARCANUM","OH","45304"
106279,"2011 W 57TH STREET","DAVENPORT","IA","52806"
106280,"2011 W AVON BLVD","AVON PARK","FL","33825"
106281,"2011 WATER FALL WAY","WYLIE","TX","75098"
106282,"20110 GLENWOOD DR","CASTRO VALLEY","CA","94552"
106283,"20110 RIVERBROOKE RUN","ESTERO","FL","33928"
106284,"20111 HUBBELL","DETROIT","MI","48235"
106285,"20111 QUICKTIME CT","SPRING","TX","77379"
106286,"20111 STEVENS CREEK BLVD  STE 215","CUPERTINO","CA","95014"
106287,"20111 STEVENS CREEK BLVD STE 270","CUPERTINO","CA","95014"
106288,"20111 WEEPING LAUREL PLACE","TAMPA","FL","33647"
106289,"20111 WOODFIELD ROAD","GAITHERSBURG","MD","20882"
106290,"20111","DETROIT","MI","48235"
106291,"20112 BUCKIN HORSE LANE","WHITEWOOD","SD","57793"
106292,"20112 RENFREW RD","DETROIT","MI","48221"
106293,"20112 STRATFORD","DETROIT","MI","48221"
106294,"20112 W 3B ROAD","WALKERTON","IN","46574"
106295,"20113 96TH AVE EAST","GRAHAM","WA","98338"
106296,"20113 KEILMAN LANE","PFLUGERVILLE","TX","78660"
106297,"20113 STEEL ST","DETROIT","MI","48235"
106298,"20113 WELBECK TERRACE","GAITHERSBURG","MD","20886"
106299,"20114 183RD PLACE NE","WOODINVILLE","WA","98077"
106300,"20114 CASCADING FALLS BLVD","CYPRESS","TX","77433"
106301,"20115 SANDWITH DRIVE","KATY","TX","77449"
106302,"20116 GUNNERS TERRACE","GERMANTOWN","MD","20876"
106303,"20117 STILL WIND DR","TAMPA","FL","33647"
106304,"20119 MAYFAIR PARK LANE","SPRING","TX","77379"
106305,"2012 26TH AVENUE NORTH","BIRMINGHAM","AL","35234"
106306,"2012 6TH ST S APT 1","ARLINGTON","VA","22204"
106307,"2012 ALLEN RD","WICHITA FALLS","TX","76309"
106308,"2012 ARLINGTON AVE","STROUDSBURG","PA","18360"
106309,"2012 AUGUSTA COURT","SUFFOLK","VA","23434"
106310,"2012 AVALON MIST CIRCLE","DARDENNE PRAIRE","MO","63368"
106311,"2012 AVALON MIST CIRCLE","DARDENNE PRAIRIE","MO","63368"
106312,"2012 BAKERS MILL RD","DACULA","GA","30019"
106313,"2012 BEARCAMP ROAD","LOUISVILLE","KY","40272"
106314,"2012 BEARD ROAD","FAYETTEVILLE","NC","28312"
106315,"2012 BRIDAL RD","FERNANDINA BEACH","FL","32034"
106316,"2012 BROKEN ARROW CIRCLE","BRYAN","TX","77807"
106317,"2012 CARTER CT","MCHENRY","IL","60051"
106318,"2012 CENTER AVENUE","NEW BERN","NC","28560"
106319,"2012 CERCA VIEJO WAY","AUSTIN","TX","78746"
106320,"2012 CLIFFVIEW ROAD STE 16","CLEVELAND","OH","44121"
106321,"2012 DANDERHALL WAY","SAN JOSE","CA","95121"
106322,"2012 DECKER BLVD","COLUMBIA","SC","29206"
106323,"2012 DOROTHY STREET","WEST COVINA","CA","91792"
106324,"2012 DOUBLE CEDAR DRIVE","CHARLOTTE","NC","28214"
106325,"2012 DOWLING STREET","HOUSTON","TX","77003"
106326,"2012 E 12TH STREET","DES MOINES","IA","50316"
106327,"2012 EAST 50TH STREET","SAVANNAH","GA","31404"
106328,"2012 EASTERN AVE SE","GRAND RAPIDS","MI","49507"
106329,"2012 GOLDEN LAKE LOOP","ST AUGUSTINE","FL","32084"
106330,"2012 GRAND COULEE BLVD","SHASTA LAKE","CA","96019"
106331,"2012 GREEN STREET","HARRISBURG","PA","17102"
106332,"2012 HARDIN DR","OKLAHOMA CITY","OK","73111"
106333,"2012 HILLDALE DR","LA CANADA FLINTRIDGE","CA","91011"
106334,"2012 HINKLE AVE","KILLEEN","TX","76549"
106335,"2012 JONES AVENUE","MOBILE","AL","36617"
106336,"2012 KIMBERTON ROAD BOX 305","KIMBERTON","PA","19442"
106337,"2012 KINGS HIGHWAY","FAIRFIELD","CT","06824"
106338,"2012 LIVE OAK DRIVE","PLANT CITY","FL","33566"
106339,"2012 MASON AVE","JOLIET","IL","60435"
106340,"2012 MISSOURI STATE ROAD","ARNOLD","MO","63010"
106341,"2012 N FAYETTEVILLE ST","ASHEBORO","NC","27203"
106342,"2012 N SKYLANE DR","ALBANY","GA","31705"
106343,"2012 N WOOD CT","WICHITA","KS","67212"
106344,"2012 NEW YORK AVE","BROOKLYN","NY","11210"
106345,"2012 NW MILITARY HWY SUITE 107","SAN ANTONIO","TX","78213"
106346,"2012 NW SOUTH OUTER ROAD","BLUE SPRINGS","MO","64015"
106347,"2012 OLIVE RD","AUGUSTA","GA","30906"
106348,"2012 PEBBLE BEACH DR","PLAINFIELD","IL","60586"
106349,"2012 REPOSE STREET","VIOLET","LA","70092"
106350,"2012 REYNOLDS DR SW","ATLANTA","GA","30315"
106351,"2012 S 15TH AVE","BROADVIEW","IL","60155"
106352,"2012 S 198TH ST","OMAHA","NE","68130"
106353,"2012 S 69TH STREET","PHILADELPHIA","PA","19142"
106354,"2012 S 78TH STREET","WEST ALLIS","IL","53219"
106355,"2012 S ATLANTIC AVE","DAYTONA BEACH","FL","32118"
106356,"2012 SIGEL ST","PHILADELPHIA","PA","19145"
106357,"2012 SUNGATE DR","NEW BRAUNFELS","TX","78130"
106358,"2012 SUNSET AVENUE","SAN DIEGO","CA","92154"
106359,"2012 W 96TH STREET","LEAWOOD","KS","66206"
106360,"2012 W ASH APT 101","COLUMBIA","MO","65203"
106361,"2012 W BOYD ST","NORMAN","OK","73069"
106362,"2012 WAGES WAY","JACKSONVILLE","FL","32218"
106363,"2012 WENTWORTH DR","MONTGOMERY","AL","36106"
106364,"2012 WEST 25TH STREET SUITE 900","CLEVELAND","OH","44113"
106365,"2012 WHITE BIRCH DR","VISTA","CA","92081"
106366,"2012 WYOMING AVE NW SUITE 301","WASHINGTON","DC","20009"
106367,"2012 WYOMING AVE NW","WASHINGTON","DC","20009"
106368,"20120 CYPRESS WAY","LYNNWOOD","WA","98036"
106369,"20120 FM 619","ELGIN","TX","78621"
106370,"20120 VETERANS BLVD","PORT CHARLOTTE","FL","33954"
106371,"20120 VOLTERRA LANE","LONG BEACH","CA","92886"
106372,"20120 W WORTHAM RD","SAUCIER","MS","39574"
106373,"20121 2ND AVE S","DES MOINES","WA","98198"
106374,"20121 CATALPA AVE","LYNWOOD","IL","60411"
106375,"20121 GRIGGS","DETROIT","MI","48235"
106376,"20121 GUNLOCK AVE","CARSON","CA","90746"
106377,"20121 OAKFLOWER AVENUE","TAMPA","FL","33647"
106378,"20121 SW 117TH AVE","MIAMI","FL","33177"
106379,"20122 STONEBRIDGE TERR DR","RICHMOND","TX","77407"
106380,"20122 SW 124 AVENUE","MIAMI","FL","33177"
106381,"20123 COURTHOUSE ROAD","YALE","VA","23897"
106382,"20125 25 MILE ROAD","MACOMB","MI","48042"
106383,"20125 HARTZELL ROAD","LONG BEACH","MS","39560"
106384,"20125 NORTH 2300TH ROAD","PRAIRIE CITY","IL","61470"
106385,"20125 SOUTH RIDGE ROAD","OREGON CITY","OR","97045"
106386,"20125 STOCKBRIDGE WAY","CALDWELL","ID","83605"
106387,"20125 TOWN CENTER STREET UNIT 824","RESTON","VA","20190"
106388,"20126 ALABAMA HIGHWAY 14","SAWYERVILLE","AL","36776"
106389,"20129 US HIGHWAY 18","APPLE VALLEY","CA","92307"
106390,"2013 30TH AVE NE","ISSAQUAH","WA","98029"
106391,"2013 4TH ST NE WASHINGTON DC UNIT 1","WASHINGTON","DC","20002"
106392,"2013 5TH   AVENUE","MEIGS","GA","31765"
106393,"2013 7TH AVENUE","SACRAMENTO","CA","95818"
106394,"2013 ARBOR DR","CLEARWATER","FM","33760"
106395,"2013 BEECHER RD","PLANO","IL","60545"
106396,"2013 BLACKBERRY DR","GREENVILLE","NC","27858"
106397,"2013 C STREET","ANTIOCH","CA","94509"
106398,"2013 CAMELBACK DRIVE","LAWRENCE","KS","66047"
106399,"2013 CANDELNUT CIRCLE","APOPKA","FL","32712"
106400,"2013 CHILDRESS DR","FORNEY","TX","75126"
106401,"2013 CLEARWATER LOOP","ALBUQUERQUE","NM","87144"
106402,"2013 CRAWFORD RD","RALEIGH","NC","27610"
106403,"2013 E DUBLIN GRANVILLE ROAD","COLUMBUS","OH","43229"
106404,"2013 E GENESEE STREET","SYRACUSE","NY","13210"
106405,"2013 EAST GENESEE","SYRACUSE","NY","13210"
106406,"2013 EMERSON LANE","DENTON","TX","76209"
106407,"2013 FOOTE DRIVE","IDAHO FALLS","ID","83402"
106408,"2013 FRINGEWOOD DR","MIDLAND","TX","79707"
106409,"2013 GREEN RIDGE STREET","DUNMORE","PA","18512"
106410,"2013 HILTON WAY RD","LANCASTER","SC","29720"
106411,"2013 INDIAN TRAILS STREET","JONESBORO","AR","72401"
106412,"2013 JADEWOOD DR","MORRISVILLE","NC","27560"
106413,"2013 JOHN HENRY CIRCLE APT 512","APOPKA","FL","32703"
106414,"2013 JOHN HENRY CIRCLE APT 521","APOPKA","FL","32703"
106415,"2013 LAKEVIEW CIRCLE OFFICE C13","MATTHEWS","NC","28105"
106416,"2013 MEADOWS AVE","LANTANA","TX","76226"
106417,"2013 N 22ND PLACE","PHOENIX","AZ","85006"
106418,"2013 N HOWARD AVE","TAMPA","FL","33607"
106419,"2013 NE 55TH BLVD","GAINESVILLE","FL","32641"
106420,"2013 NEW HOPE CHURCH RD SUITE E","RALEIGH","NC","27604"
106421,"2013 NOBSCOT PLACE","APOPKA","FL","32703"
106422,"2013 NORWAY ROAD","ORANGEBURG","SC","29115"
106423,"2013 NW 56TH TERRACE","OKLAHOMA CITY","OK","73118"
106424,"2013 PHEASANT DRAW ROAD","SHERIDAN","WY","82801"
106425,"2013 QUAIL LANE","MISSION","TX","78572"
106426,"2013 QUEEN  CATHERINE COURT SUIT 3","VIRGINIA BEACH","VA","23454"
106427,"2013 RANDALL COURT","SPRINGFIELD","IL","62703"
106428,"2013 RAVENWOOD ROAD","FOLCROFT","PA","19032"
106429,"2013 ROCKWOOD DRIVE","SACRAMENTO","CA","95864"
106430,"2013 RUEA ST","GRAND PRAIRIE","TX","75050"
106431,"2013 SAMANTHA DRIVE","KANNAPOLIS","NC","28083"
106432,"2013 SEAWIND LANE","WILMINGTON","NC","28405"
106433,"2013 STOFFEL RD","BERNARD","IA","52032"
106434,"2013 TULIP PETAL RD","AUBURN","GA","30011"
106435,"2013 VERMONT RD","RANTOUL","KS","66079"
106436,"2013 W 15TH ST SUITE 105","WASHINGTON","NC","27889"
106437,"2013 W SAN JUAN AVE","PHOENIX","AZ","85015"
106438,"2013 WHELDON SHIVERS DR","EWING","NJ","08628"
106439,"20130 LAKEVIEW CENTER PLAZA NO 423","ASHBURN","VA","20147"
106440,"20130 LAKEVIEW CENTER PLZ STE 400","ASHBURN","VA","20147"
106441,"20130 WEST DIXIE HWY APT 22306","MIAMI","FL","33180"
106442,"20134 BANNISTER ROAD","PETERSBURG","VA","23805"
106443,"20135 COUNTY ROAD 41","ADDISON","AL","35540"
106444,"20137 BUR OAK DR","ZACHARY","LA","70791"
106445,"20137 BUR OAK DRIVE","ZACHARY","LA","70791"
106446,"20139 DRIFTWOOD AVE","LYNWOOD","IL","60411"
106447,"20139 HARDWOOD TERR","ASHBURN","VA","20147"
106448,"2014 4TH AVENUE","SACRAMENTO","CA","95818"
106449,"2014 ATHENS ST","BROWNSVILLE","TX","78520"
106450,"2014 BERGENLINE AVE","UNION CITY","NJ","07087"
106451,"2014 CAMINO DE LA LUZ","SANTA BARBARA","CA","93109"
106452,"2014 COUNTY ROAD 2526","QUINLAN","TX","75474"
106453,"2014 CRIPPLE CREEK LN","LEWISVILLE","TX","75077"
106454,"2014 DORIS CT","MISSOURI CITY","TX","77489"
106455,"2014 E 9TH STREET","CRAIG","CO","81625"
106456,"2014 E HELEN STREET","TUCSON","AZ","85719"
106457,"2014 EDGEWATER DR SUITE 122","ORLANDO","FL","32804"
106458,"2014 EDGEWATER DRIVE SUITE 166","ORLANDO","FL","32804"
106459,"2014 ELECTRIC ROAD STE 220","ROANOKE","VA","24018"
106460,"2014 EMERALD RIDGE DRIVE","LAKELAND","FL","33813"
106461,"2014 MACCUMBER LANE","WILMINGTON","NC","28403"
106462,"2014 MCCULLOCH BLVD","LAKE HAVASU CITY","AZ","86403"
106463,"2014 MIDYETTE ROAD APT 305","TALLAHASSEE","FL","32301"
106464,"2014 N YAVAPAI DR","KINGMAN","AZ","86401"
106465,"2014 NE 10TH ST","OCALA","FL","34470"
106466,"2014 NORTH 57 STREET","PHILADELPHIA","PA","19131"
106467,"2014 NW 139 TERRACE","PEMBROKE PINES","FL","33028"
106468,"2014 NW 38TH TERRACE","LAUDERDALE LAKES","FL","33311"
106469,"2014 OLD ARCH ROAD SUITE 2062","NORRISTOWN","PA","19401"
106470,"2014 OVERVIEW LN","GARLAND","TX","75044"
106471,"2014 REYNOLDS AVE","NORTH CHARLESTON","SC","29405"
106472,"2014 S 15TH ST","TACOMA","WA","98405"
106473,"2014 S PALM CT","PASADENA","TX","77502"
106474,"2014 S POPLAR","WICHITA","KS","67211"
106475,"2014 SAINT HELENS STREET","SAINT HELENS","OR","97051"
106476,"2014 SILVERADO PASS","SPRING HILL","TN","37174"
106477,"2014 SOUTH LONG HOLLOW ROAD","TRION","GA","30753"
106478,"2014 TENNYSON AVE NE","MASSILLON","OH","44646"
106479,"2014 TRAILPINE COURT","NORMAN","OK","73072"
106480,"2014 TULARE STREET STE 631","FRESNO","CA","93721"
106481,"2014 TULARE STREET SUITE 631","FRESNO","CA","93722"
106482,"2014 UPLAND WAY","PHILADELPHIA","PA","19131"
106483,"2014 VENABLE STREET","RICHMOND","VA","23223"
106484,"2014 W 82ND STREET","LOS ANGELES","CA","90047"
106485,"2014 WAGNER ROAD","BATAVIA","IL","60510"
106486,"2014 WATERS TRAIL DRIVE","CHARLOTTE","NC","28216"
106487,"2014 WEST 17TH COURT","RIVIERA BEACH","FL","33404"
106488,"2014 WEST RANDOLPH STREET","CHICAGO","IL","60612"
106489,"2014 WHITLOCK DRIVE","BENTON","AR","72015"
106490,"2014 WISTERIA RD","ROCKFORD","IL","61107"
106491,"20140 LAZY RIVER TER APT 206","ASHBURN","VA","20147"
106492,"20140 ROSCOE BLVD APT 311","WINNETKA","CA","91306"
106493,"20140 SCHOLAR DRIVE - SUITE 321","HAGERSTOWN","MD","21742"
106494,"20140 SHEFFIELD RD","DETROIT","MI","48221"
106495,"20140 WOODINGHAM","DETROIT","MI","48221"
106496,"20141 130TH AVE","MILO","IA","50125"
106497,"20142 E 43RD AVE","DENVER","CO","80249"
106498,"20142 PRAIRIE DUNES TERRACE","ASHBURN","VA","20147"
106499,"20145 LANGWELL DR","PORTER","TX","77365"
106500,"20145 NE SANDY BLVD LOT 10","FAIRVIEW","OR","97024"
