"ID","Address","City","State","Zip"
153501,"2868 BARKHILL ROAD","YORK","PA","17404"
153502,"2868 BARKHILL ROAD","YORK","PW","17404"
153503,"2868 BOLLINGER CANYON RD","SAN RAMON","CA","94583"
153504,"2868 COUNTY ROAD 35","CHESEAPEKE","OH","45619"
153505,"2868 MISSION STREET","SAN FRANCISCO","CA","94110"
153506,"2868 NORTH POWERS DRIVE SUITE 171","ORLANDO","FL","32818"
153507,"2868 STELZER ROAD SUITE 209","COLUMUS","OH","43219"
153508,"2868","OKLAHOMA CITY","OK","73120"
153509,"28680 RANCHWOOD DR","SOUTHFIELD","MI","48076"
153510,"28683 LEXINGTON WAY","MORENO VALLEY","CA","92555"
153511,"28689  WOODSIDE DRIVE","ROCK FALLS","IL","61071"
153512,"2869 AMESBURY PLACE NW","KENNESAW","GA","30144"
153513,"2869 BURROUGHS DR APT 2","ORLANDO","FL","32818"
153514,"2869 CAMELOT BOULEVARD","CHESAPEAKE","VA","23323"
153515,"2869 CHALK CREEK WAY","SOUTH JORDAN","UT","84095"
153516,"2869 DEPOT STREET","RIVERSIDE","AL","35135"
153517,"2869 EAST 112 STREET","CLEVELAND","OH","44104"
153518,"2869 GOOD ROAD","CLOVER","SC","29710"
153519,"2869 IVY ST","DENVER","CO","80207"
153520,"2869 KENSINGTON DRIVE","NORTON","OH","44203"
153521,"2869 RENSHAW DRIVE","TROY","MI","48085"
153522,"2869 WHISTLE STOP DRIVE","NORCROSS","GA","30071"
153523,"2869 ZACH DRIVE","COLUMBUS","OH","43219"
153524,"28692 WALNUT GROVE","MISSION VIEJO","CA","92692"
153525,"28696 VENICE COURT","FARMINGTON HILLS","MI","48334"
153526,"28697 MAGNOLIA DRIVE","NORTH OLMSTED","OH","44070"
153527,"28697 NORTH VILLAGE LANE","SOLON","OH","44139"
153528,"28697 SIBLEY RD","ROMULUS","MI","48174"
153529,"287 125TH ST NE","RICE","MN","56367"
153530,"287 ALEXANDER AVE","HOWELL","NJ","07731"
153531,"287 BALCOM AVENUE","BRONX","NY","10465"
153532,"287 BARK STREET","SW","MA","02777"
153533,"287 BASSETT LOOP","COLUMBIA","SC","29229"
153534,"287 BRONCO LN","SPRINGTOWN","TX","76082"
153535,"287 BUNTING CT","DEERFIELD","IL","60015"
153536,"287 BUTTERFIELD","CATHEDRAL CITY","CA","92234"
153537,"287 CENTER DRIVE","SAVANNAH","GA","31406"
153538,"287 CLINTON AVE","BRIDGEGEPORT","CT","06605"
153539,"287 CLUB HOUSE DR","WILLINGBORO","NJ","08046"
153540,"287 CLYDESDALE CIRCLE","SANFORD","FL","32773"
153541,"287 COLUMBIA AVE","IRVINGTON","NJ","07111"
153542,"287 COTHAM ROAD","SHARON","TN","38255"
153543,"287 EAST 18 STREET","BROOKLYN","NY","11226"
153544,"287 EUREKA DRIVE","MORGANTOWN","WV","26505"
153545,"287 FARGO AVE","BUFFALO","NY","14213"
153546,"287 FM 247 RD","HUNTSVILLE","TX","77320"
153547,"287 FOREST STREET","MARS HILL","NC","28754"
153548,"287 GLASS ROAD","MOUNT AIRY","NC","27030"
153549,"287 HENRY STREET SUITE 4","BROOKLYN","NY","11201"
153550,"287 INDIAN RD","NICHOLLS","GA","31554"
153551,"287 LAKE AVE SOUTH","NESCONSET","NY","11767"
153552,"287 LINDEN BOULEVARD APT D15","BROOKLYN","NY","11226"
153553,"287 LISENSBY ROAD","OLLA","LA","71465"
153554,"287 MADISON AVENUE","MEMPHIS","TN","38103"
153555,"287 MICHAEL DR","WAYNESBORO","TN","38485"
153556,"287 N GREENE AVE","LINDENHURST","NY","11757"
153557,"287 PASCHAL RD","YANCEYVILLE","NC","27379"
153558,"287 S 600 W","HEBRON","IN","46341"
153559,"287 S MAIN STREET","WASHTUCNA","WA","99371"
153560,"287 SHELBY AVE","AKRON","OH","44310"
153561,"287 SOUTH COUNTRY RD","BROOKHAVEN","NY","11719"
153562,"287 SW MAIN STREET","WASHTUCNA","WA","99371"
153563,"287 WAYNE STREET","HOMER CITY","PA","15748"
153564,"287 WOODCLIFFE PLACE DR","CHESTERFIELD","MO","63005"
153565,"2870 COOL SPRING LN","DICKINSON","TX","77539"
153566,"2870 CREOLE PATH","LITHONIA","GA","30038"
153567,"2870 DAULTON DR","BUFFALO GROVE","IL","60089"
153568,"2870 EASTLAND DRIVE","EAST POINT","GA","30344"
153569,"2870 EVERGREEN LN N","PLYMOUTH","MN","55441"
153570,"2870 GREGORY LN","FORT PIERCE","FL","34981"
153571,"2870 HEADLAND DRIVE","EAST POINT","GA","30344"
153572,"2870 HIGHWAY 83","VINCENT","AL","35178"
153573,"2870 JOHNSON FERRY RD STE 250","MARIETTA","GA","30062"
153574,"2870 LOG BRONC WAY","ASTORIA","OR","97103"
153575,"2870 NANSEN DRIVE","MEDFORD","OR","97504"
153576,"2870 NE HOGAN DRIVE STE E/153","GRESHAM","OR","97030"
153577,"2870 NEW HOLT ROAD D365","PADUCAH","KY","42001"
153578,"2870 PEACHTREE RD NW  UNIT 915-9165","ATLANTA","GA","30305"
153579,"2870 PEACHTREE RD NW 828","ATLANTA","GA","30305"
153580,"2870 PEACHTREE RD SUITE 616","ATLANTA","GA","30305"
153581,"2870 PEACHTREE ROAD 179","ATLANTA","GA","30305"
153582,"2870 PEACHTREE ROAD PO BOX 864","ATLANTA","GA","30345"
153583,"2870 PEACHTREE ROAD SUITE 155","ATLANTA","GA","30305"
153584,"2870 PEACHTREE ROAD SUITE 454","ATLANTA","GA","30305"
153585,"2870 PEACHTREE ROAD SUITE 832","ATLANTA","GA","30305"
153586,"2870 ROLLING HILLS DR","CLEVELAND","TN","37312"
153587,"2870 SAN LORENZO CT","LAS CRUCES","NM","88007"
153588,"2870 SANDSTONE DRIVE","IDAHO FALLS","ID","83404"
153589,"2870 SOUTH PALISADES AVE","SANTA CRUZ","CA","95062"
153590,"2870 TYNEWICK DRIVE NE","ROSWELL","GA","30075"
153591,"2870 WEATHERLY ROAD","HOWELL","MI","48843"
153592,"28704 18TH AVE S APT V202","FEDERAL WAY","WA","98003"
153593,"28704 FOUNTAIN ST","ROSEVILLE","MI","48066"
153594,"28705 FLORA CORNER ROAD","MECHANICSVILLE","MD","20659"
153595,"28708 ROADSIDE DR SUITE C","AGOURA HILLS","CA","91301"
153596,"28709 JEWEL RD","ST CATHARINE","MO","64628"
153597,"2871 BIRDSALL AVE","OAKLAND","CA","94619"
153598,"2871 CARRINGTON LAKE BLVD","CANTONMENT","FL","32533"
153599,"2871 CEDAR LANE","POMONA","CA","91767"
153600,"2871 CHERRY BRANCH LN","HERNDON","VA","20171"
153601,"2871 EAST HIGH STREET","POTTSTOWN","PA","19464"
153602,"2871 FULHAM PLACE","MEMPHIS","TN","38128"
153603,"2871 FULHAM","MEMPHIS","TN","38128"
153604,"2871 GLENDALE BLVD UNIT B","LOS ANGELES","CA","90039"
153605,"2871 LOW WATER ROAD","FRANKLIN","IL","62638"
153606,"2871 MALVERN AVE","HOT SPRINGS","AR","71901"
153607,"2871 NW 86TH PL","ANKENY","IA","50023"
153608,"2871 PACKARD ROAD","ANN ARBOR","MI","48108"
153609,"2871 S COLUMBIA ST","BOGALUSA","LA","70433"
153610,"2871 TOAD RD","GILMER","TX","75644"
153611,"2871 W MAPLEWOOD STREET","SPRINGFIELD","MO","65807"
153612,"28711 PACIFIC COAST HIGHWAY UNIT 1","MALIBU","CA","90265"
153613,"28715 HOVEY LANE","NEW HUDSON","MI","48165"
153614,"28717 JARDINERAS DRIVE","SANTA CLARITA","CA","91354"
153615,"28719 HEMLOCK RED COURT","KATY","TX","77494"
153616,"2872 10TH STREET","SAN PABLO","CA","94806"
153617,"2872 BAR HARBOUR ROAD","AURORA","IL","60504"
153618,"2872 BERNARD WAY SE","SMYRNA","GA","30080"
153619,"2872 CAMBON LAKE CIRCLE","WEST FRANKFORT","IL","62896"
153620,"2872 SEA PINES CIR W","CLEARWATER","FL","33761"
153621,"2872 WATER PLANT ROAD","MAIDEN","NC","28560"
153622,"2872 WOLFGANG DRIVE","INDIANAPOLIS","IN","46239"
153623,"2872 YGNACIO VALLEY RD UNIT 439","WALNIT CREEK","CA","94598"
153624,"2872 YGNACIO VALLEY ROAD 130","WALNUT CREEK","CA","94598"
153625,"28720 IH 10 W STE 700","BOERNE","TX","78006"
153626,"28721 LOS ALISOS BLVD","MISSION VIEJO","CA","92692"
153627,"28722 COAL MOUNTAIN CT","VALENCIA","CA","91354"
153628,"28723 LITTLE AMERICA LANE","SAN BENITO","TX","78586"
153629,"28724 RIDGE RD","MT AIRY","MD","21771"
153630,"28726 THOMASVILLE PL","WESLEY CHAPEL","FL","33545"
153631,"28727 COUNTRY ROSE LANE","MENIFEE","CA","92584"
153632,"28727 SW CASCADE LOOP","WILSONVILLE","OR","97070"
153633,"2873 GINGERWOOD CIRCLE","FULLERTON","CA","92835"
153634,"2873 HANOVER STREET","OMAHA","NE","68112"
153635,"2873 MUIR TRAIL DRIVE","FULLERTON","CA","92833"
153636,"2873 NE 25TH STREET","FORT LAUDERDALE","FL","33305"
153637,"2873 S WALDEN WAY","AURORA","CO","80013"
153638,"2873 S XANADU WAY","AURORA","CO","80014"
153639,"2873 SHADWELL PL","GREENWOOD","IN","46143"
153640,"2873 WEST OLD STONE ROAD","PERU","IN","46970"
153641,"28733 INDUSTRY DRIVE","VALENCIA","CA","91355"
153642,"28734 VOTING HOUSE RD","GREEN RIDGE","MO","65332"
153643,"28735 JEFFERSON AVE","ST CLAIR SHORES","MI","48081"
153644,"28737 HOLLY DRIVE NW","ISANTI","MN","55040"
153645,"2874 ALUM ROCK AVENUE SUITE A","SAN JOSE","CA","95127"
153646,"2874 CB REEVES RD","HEATH SPRINGS","SC","29058"
153647,"2874 E IRLO BRONSON MEMORIAL HWY","KISSIMMEE","FL","34744"
153648,"2874 ECHELON COURT","SNELLVILLE","GA","30039"
153649,"2874 GLASS ROAD","LAS CRUCES","NM","88005"
153650,"2874 KINGS LAKE RD","DEFUNIAK SPRINGS","FL","32433"
153651,"2874 MAIN STREET SUITE 2A","STRATFORD","CT","06614"
153652,"2874 QUAIL RUN DRIVE","TROY","MI","48098"
153653,"2874 ROSE HILL ST","STRASBURG","CO","80136"
153654,"2874 SW 183 AVENUE","MIRAMAR","FL","33029"
153655,"2874 TALL OAKS COURT 21","AUBURN HILLS","MI","48326"
153656,"2874 VENEZIA LANE","THOUSAND OAKS","CA","91362"
153657,"2874 WHITMORE AVENUE","CLOVIS","CA","93619"
153658,"28743 RALEIGH ROAD","FARMINGTON","MI","48336"
153659,"28744 WINTERGREEN","FARMINGTON HILLS","MI","48331"
153660,"28746 HIGHPOINT AVENUE","MORENO VALLEY","CA","92555"
153661,"2875 145TH STREET WEST","ROSEMOUNT","MN","55068"
153662,"2875 BAY ST","GULF BREEZE","FL","32563"
153663,"2875 BUHRE AVE SUITE 2","BRONX","NY","10461"
153664,"2875 CLINTON STREET RIGHT SIDE","WEST SENECA","NY","14224"
153665,"2875 COMMUNITY DR","CHAGRIN FALLS","OH","44022"
153666,"2875 CRESCENT PKWY   SUITE 1428","ATLANTA","GA","30339"
153667,"2875 DOROTHY DRIVE","AURORA","IL","60504"
153668,"2875 GLASCOCK STREET SUITE 202","OAKLAND","CA","94601"
153669,"2875 LANGDON FARM RD APT 3","CINCINNATI","OH","45212"
153670,"2875 LILLY DRIVE","ELIDA","OH","45807"
153671,"2875 N SR 3","LAGRANGE","IN","46761"
153672,"2875 NE 191 STREET SUITE 404","AVENTURA","FL","33180"
153673,"2875 NEW COLLEGE WAY","CUMMING","GA","30041"
153674,"2875 OAKVALE FALLS DRIVE","DECATUR","GA","30034"
153675,"2875 PICKWICK DRIVE","COLUMBUS","OH","43221"
153676,"2875 PICKWICK","COLUMBUS","OH","43221"
153677,"2875 ROBINDALE AVENUE","AKRON","OH","44312"
153678,"2875 S ORANGE AVE STE 500-2611","ORLANDO","FL","32806"
153679,"2875 SHADOW DANCE DRIVE","CASTLE ROCK","CO","80109"
153680,"2875 TINA AVE","MISSOULA","MT","59808"
153681,"2875 TROY CENTER DRIVE APT 5020","TROY","MI","48084"
153682,"2875 VILLA DR","CLEVELAND","TN","37312"
153683,"2875 W 10TH ST","GREELEY","CO","80634"
153684,"2875 W RAY RD 6","CHANDLER","AZ","85224"
153685,"2875 W RAY RD STE 6-174","CHANDLER","AZ","85224"
153686,"2875 WHITE BLOSSOM LANE","SUWANEE","GA","30024"
153687,"28751 SEWARD HWY","SEWARD","AK","99664"
153688,"28755 EL TORO ROAD","LAKE ELSINORE","CA","92532"
153689,"28758 STATE HIGHWAY 86","EAGLE ROCK","MO","65641"
153690,"2876 ATTLEBORO ROAD","SHAKER HEIGHTS","OH","44120"
153691,"2876 BALTING PL","VIERA","FL","32940"
153692,"2876 BARON CT SW","WYOMING","MI","49418"
153693,"2876 BROUGHTON STREET","ORANGEBURG","SC","29115"
153694,"2876 E 500 NORTH RD","WELLINGTON","IL","60973"
153695,"2876 EAST 114 STREET","CLEVELAND","OH","44104"
153696,"2876 HARDING HIGHWAY EAST","MARION","OH","43302"
153697,"2876 HWY 167 APT D","OPELOUSAS","LA","70570"
153698,"2876 LANTANA LKS DR E","JACKSONVILLE","FL","32246"
153699,"2876 NW 196 TERR","MIAMI","FL","33056"
153700,"2876 OLD YELLOW SPRINGS RD","FAIRBORN","OH","45324"
153701,"2876 RIEDEL COURT","SAN JOSE","CA","95135"
153702,"2876 SW 176TH TERRACE","MIRAMAR","FL","33029"
153703,"2876 WAVERLEY WAY","LIVERMORE","CA","94551"
153704,"2876 WOODWARDIA DRIVE","LOS ANGELES","CA","90077"
153705,"28766 COLINA VISTA STREET","AGOURA HILLS","CA","91301"
153706,"2877 AUDUBON TERRACE NW","WASHINGTON","DC","20008"
153707,"2877 CARADELLE DR","ROSEVILLE","CA","95661"
153708,"2877 CHILDRESS DRIVE","ANDERSON","CA","96007"
153709,"2877 E 2369TH ROAD","MARSEILLES","IL","61341"
153710,"2877 E MARGARET DR","TERRE HAUTE","IN","47802"
153711,"2877 GRANVILLE DR","SPARKS","NV","89436"
153712,"2877 NINA STREET","PASADENA","CA","91107"
153713,"2877 PADDLE WHEEL DR","NASHVILLE","TN","37214"
153714,"2877 SCREECH OWL WAY","SACRAMENTO","CA","95834"
153715,"2877 SNOWY EGRET WAY","OAKLEY","CA","94561"
153716,"28771 RIKI COURT","LAGUNA NIGUEL","CA","92677"
153717,"28774 PRAIRIE FALCON CT","MURRIETA","CA","92563"
153718,"28778 LEXINGTON WAY","MORENO VALLEY","CA","92555"
153719,"28779 NICK DAVIS ROAD","HARVEST","AL","35749"
153720,"2878 BENJAMIN AVENUE","SAN JOSE","CA","95124"
153721,"2878 BEULAH RD","DRIPPING SPGS","TX","78620"
153722,"2878 INLET COVE LA W","NAPLES","FL","34120"
153723,"2878 JADEN LN","NORWALK","IA","50211"
153724,"2878 NORTH 34TH","MILWAUKEE","WI","53210"
153725,"2878 PERSHING AVENUE","SAN BERNARDINO","CA","92405"
153726,"2878 SELLERS RD","EFFINGHAM","SC","29541"
153727,"2878 ULSTER STREET","DENVER","CO","80238"
153728,"28785 OAK POINT DR","FARMINGTON HILLS","MI","48331"
153729,"28787 RANCHWOOD DR","SOUTHFIELD","MI","48076"
153730,"2879 ACTON ROAD APT H","VESTAVIA","AL","35243"
153731,"2879 BELLAROSA CIRCLE","ROYAL PALM BEACH","FL","33411"
153732,"2879 E DETROIT STREET","CHANDLER","AZ","85225"
153733,"2879 EAST POINT STREET","EAST POINT","GA","30344"
153734,"2879 KEEBLER RD","MARYVILLE","IL","62062"
153735,"2879 OBSERVATION POINT NW","MARIETTA","GA","30064"
153736,"2879 S SHOSHONE ST","ENGLEWOOD","CO","80110"
153737,"2879 ST ROSE PARKWAY SUITE 200","HENDERSON","NV","89052"
153738,"28790 CHAGRIN BLVD  STE 350","CLEVELAND","OH","44122"
153739,"28795 BENSTEAD ROAD","GIRARD","IL","62640"
153740,"288 11TH ST STE E","OAKLAND","CA","94607"
153741,"288 88TH STREET APT 8","DALY CITY","CA","94015"
153742,"288 ANIMAS VIEW DRIVE  UNIT 56","DURANGO","CO","81301"
153743,"288 ANN DAVIS ST","WESTMINSTER","SC","29693"
153744,"288 ANTARES AVE","LOMPOC","CA","93436"
153745,"288 BRIARWOOD DRIVE","WYCKOFF","NJ","07481"
153746,"288 CASPER PLACE","SAN RAMON","CA","94583"
153747,"288 CATOR AVENUE","JERSEY CITY","NJ","07305"
153748,"288 CLAREMONT AVE","JERSEY CITY","NJ","07305"
153749,"288 CORINTH RD","PORTLAND","TN","37148"
153750,"288 COTUIT RD","SANDWICH","MA","02563"
153751,"288 DEHOFF DR","YOUNGSTOWN","OH","44515"
153752,"288 DEL SOL AVE","DAVENPORT","FL","33837"
153753,"288 DERBY RUN","DALLAS","GA","30132"
153754,"288 DOUBLE O NINE RD","REEDS SPRING","MD","65737"
153755,"288 DRS JAMES PARKER BLVD","RED BANK","NJ","07701"
153756,"288 EGG HARBOR RD  SUITE 9 -137","SEWELL","NJ","08080"
153757,"288 ELLIOT SMITH ROAD","JEFFERSON","GA","30549"
153758,"288 FERGUSON ST NE","ATLANTA","GA","30307"
153759,"288 FIELDSTONE DR","KESWICK","VA","22947"
153760,"288 FLAUGH LN","EAST FREEDOM","PA","16637"
153761,"288 FLYNN AVENUE  APT 9","BURLINGTON","VT","05401"
153762,"288 FM 2558 E","BROADDUS","TX","75929"
153763,"288 HARPER ST","LOUISVILLE","CO","80027"
153764,"288 HIGHWAY 107","JONESBOROUGH","TN","37659"
153765,"288 IMPERIAL LANE","LAUDERDALE-BY-SEA","FL","33308"
153766,"288 KING STREET","COHASSET","MA","02025"
153767,"288 LINCOLN ROAD","KING OF PRUSSIA","PA","19406"
153768,"288 LLAMA LN","NEEDMORE","PA","17238"
153769,"288 MAIN STREET","LANCASTER","NH","03584"
153770,"288 MAIN STREET","LE RAYSVILLE","PA","18829"
153771,"288 MARTIN ST SUITE 308","BLAINE","WA","98230"
153772,"288 MARTIN STREET BOX 1","BLAINE","WA","98230"
153773,"288 MCNAIR STREET","BADEN","PA","15005"
153774,"288 N 12TH PL","PROSPECT PARK","NJ","07508"
153775,"288 N 12TH PLACE","PROSPECT PARK","NJ","07508"
153776,"288 N ORR AVE","BENSON","AZ","85602"
153777,"288 NORFOLK ST SUITE 3B","CAMBRIDGE","MA","02139"
153778,"288 OLD GOOSE CREEK RD","FISHERSVILLE","VA","22939"
153779,"288 ORCHARD STREET","MILLIS","MA","02054"
153780,"288 ORCHARDHILL DR SW","NORTH CANTON","OH","44720"
153781,"288 PORTAGE AVENUE","NY","NY","10314"
153782,"288 S 40TH ST UNIT 31843","PHILADELPHIA","PA","19140"
153783,"288 S DEMPSEY LN","SALT LAKE CITY","UT","84104"
153784,"288 S SAN GABRIEL BLVD STE 204","SAN GABRIEL","CA","91776"
153785,"288 SOUTH MUNROE RD","TALLMADGE","OH","44278"
153786,"288 TOM HUNTER ROAD","FORT LEE","NJ","07024"
153787,"288 UPLAND AV","YOUNGSTOWN","OH","44504"
153788,"288 W MERRITT AVE","MERRITT ISLAND","FL","32953"
153789,"288 W SMOKETREE ST","APACHE JUNCTION","AZ","85120"
153790,"288 WEST ESSEX AVE","MEMPHIS","TN","38109"
153791,"288 WINDING WATERS CT","STONE MOUNTAIN","GA","30087"
153792,"2880 AMERICUS DR","THOMPSONS STATION","TN","37179"
153793,"2880 BICENTENNIAL PKWY STE 100-2012","HENDERSON","NV","89044"
153794,"2880 CARROL ST","BONANZA","OR","97623"
153795,"2880 CLAREMONT DR","GRAND PRAIRIE","TX","75052"
153796,"2880 E CRESCENT WAY","GILBERT","AZ","85298"
153797,"2880 EAST 777TH RD","UTICA","IL","61373"
153798,"2880 N LONGHORN DR","TUCSON","AZ","85749"
153799,"2880 ORCHARD TRACE WAY","RALEIGH","NC","27610"
153800,"2880 SEVILLE RD","RITTMAN","OH","44270"
153801,"2880 TECHNOLOGY BLVD WEST  STE 159","BOZEMAN","MT","59718"
153802,"2880 W DAVID HWY","IONIA","MI","48846"
153803,"2880 W OAKLAND PARK BLVD STE 215","OAKLAND PARK","FL","33311"
153804,"28800 MICKLEY RD","DANVILLE","OH","43014"
153805,"28800 SHADOW VALLEY LANE","SANTA CLARITA","CA","91390"
153806,"28802 BRIDGE WATER LN","MENIFEE","CA","92584"
153807,"28802 POWDER RIDGE DR","KATY","TX","77494"
153808,"28802 SILVERSMITH DRIVE","VALENCIA","CA","91354"
153809,"28805 N 44TH ST","CAVE CREEK","AZ","85331"
153810,"2881 CR 4020","CROCKETT","TX","75835"
153811,"2881 EAST OAKLAND PARK BLVD STE 202","FORT LAUDERDALE","FL","33306"
153812,"2881 GROOM RD","BAKER","LA","70714"
153813,"2881 JESSICA TAYLOR PLACE APT 202","FALLS CHURCH","VA","22042"
153814,"2881 PACIFIC HEIGHTS ROAD","HONOLULU","HI","96813"
153815,"2881 PANCOAST AVE","ASTON","PA","19014"
153816,"2881 PORTAGE TRAIL","ROCHESTER HILLS","MI","48309"
153817,"2881 WEATHERSTONE CIRCLE","CONYERS","GA","30094"
153818,"2881 WRIGHT ST","SACRAMENTO","CA","95821"
153819,"28811 KEMPTOWN RD","DAMASCUS","MD","20872"
153820,"28811 WESTPORT WAY","LAGUNA NIGUEL","CA","92677"
153821,"28812 125TH PL SW","VASHON","WA","98070"
153822,"28812 ORANGE BERRY DR","WESLEY CHAPEL","FL","33543"
153823,"28814 US HIGHWAY 385","OELRICHS","SD","57763"
153824,"28815 PACIFIC HWY S SUTIE 8","FEDERAL WAY","WA","98003"
153825,"28816 N 49TH PLACE","CAVE CREEK","AZ","85331"
153826,"28818 TRACE VISTA CIR","HUFFMAN","TX","77336"
153827,"28819 BLACK ROCK AVE","WARSAW","MO","65355"
153828,"2882 BAILEY RD","CUYAHOGA FALLS","OH","44221"
153829,"2882 CAMDEN DRIVE","VISTA","CA","92081"
153830,"2882 LUDLOW RD","CLEVELAND","OH","44120"
153831,"2882 N FEDERAL HWY","BOCA RATON","FL","33431"
153832,"2882 ROYAL OAKS DR","TALLAHASSEE","FL","32309"
153833,"2882 WINTERGREEN","FLORISSANT","MO","63033"
153834,"28820 SOUTHFIELD RD","LATHRUP VILLAGE","MI","48190"
153835,"28821 OLD OWEN RD","MONROE","WA","98272"
153836,"28825 CULLEN DRIVE","ROMULUS","MI","48174"
153837,"28829 PUJOL STREET","TEMECULA","CA","92590"
153838,"2883 ALFRED COURT","OCEANSIDE","NY","11572"
153839,"2883 BATTLECREST DRIVE","DECATUR","GA","30034"
153840,"2883 LORETTO RD","JACKSONVILLE","FL","32223"
153841,"2883 PACES FERRY RD S","ORANGE PARK","FL","32073"
153842,"2883 SE OCEAN BLVD","STUART","FL","34996"
153843,"2883 SOUTH HILLS","RIVERDALE","GA","30296"
153844,"2883 SOUTH MENDENHALL ROAD SUITE 6","MEMPHIS","TN","38115"
153845,"2883 VALAISE PATH","LITHONIA","GA","30038"
153846,"2883 WILLOW RUN","ORLANDO","FL","32808"
153847,"2883 WOLFGANG WAY","INDIANAPOLIS","IN","46239"
153848,"2883 WOLFSON CIRCLE","CORONA","CA","92879"
153849,"28831 110 ST","WESTBORO","MO","64498"
153850,"28839 DETROIT RD","WESTLAKE","OH","44145"
153851,"2884 ANDERSON CIRCLE","SMYRNA","GA","30080"
153852,"2884 CONNALLY DR SW","ATLANTA","GA","30311"
153853,"2884 HWY HH","POPLAR BLUFF","MO","63901"
153854,"2884 LANDYNS CIR","FERNANDINA BEACH","FL","32034"
153855,"2884 MISSION STREET","SAN FRANCISCO","CA","94110"
153856,"2884 RIVER RD","DECATUR","GA","30034"
153857,"2884 SANDERSVILLE RD","LEXINGTON","KY","40511"
153858,"2884 STERLING PLACE","ALTADENA","CA","91001"
153859,"2884 TAYLOR HILL DRIVE","JACKSONVILLE","FL","32221"
153860,"2884 TRADES WEST","SANTA FE","NM","87507"
153861,"2884 TUMBLEWEED ST","ONTARIO","CA","91761"
153862,"2884 TUMBLEWEED STREET","ONTARIO","CA","91761"
153863,"28847 PILGRIMS PASS","PASS","IL","60051"
153864,"2885 CASCADE SPRINGS DR SE","GRAND RAPIDS","MI","49546"
153865,"2885 CLAY AVE","SAN DIEGO","CA","92113"
153866,"2885 DODGE STREET","MILTON","FL","32583"
153867,"2885 E QUAIL AVE SUITE 1001","LAS VEGAS","NV","89120"
153868,"2885 E QUAIL AVE","LAS VEGAS","NV","89120"
153869,"2885 EAST 3500 NORTH","TWINFALLS","ID","83301"
153870,"2885 EASTLAKE DR SE","SALEM","OR","97306"
153871,"2885 EL CAPITAN DRIVE","COLORADO SPRINGS","CO","80918"
153872,"2885 LINDALE MOUNT HOLLY RD","AMELIA","OH","45102"
153873,"2885 MAIN STREET SUITE 105","BUFFALO","NY","14214"
153874,"2885 N DAYTON LAKEVIEW RD","NEW CARLISLE","OH","45344"
153875,"2885 N PRICE RD","CHANDLER","AZ","85224"
153876,"2885 RED LION SQUARE","WINTER PARK","FL","32792"
153877,"2885 RED SPRINGS DRIVE","LAS VEGAS","NV","89135"
153878,"2885 S GRAHAM ROAD","SAGINAW","MI","48609"
153879,"2885 SANFORD AVE 19675","GRANDVILLE","MI","49418"
153880,"2885 SANFORD AVE STE 17635","GRAND RAPIDS","MI","49418"
153881,"2885 SANFORD AVE SW STE 18000","GRANDVILLE","MI","49418"
153882,"2885 SANFORD AVE SW STE 18047","GRANDVILLE","MI","49418"
153883,"2885 SANFORD AVE SW SUITE 32361","GRANDVILLE","MI","49418"
153884,"2885 SANFORD AVE SW UNIT 25803","GRANDVILLE","MI","49418"
153885,"2885 SANFORD AVENUE SW 28310","GRANDVILLE","MI","49418"
153886,"2885 TODD STREET","OCEANSIDE","CA","92054"
153887,"2885 VOORHEIS RD","WATERFORD","MI","48328"
153888,"2885 W RICK DR","PORT HURON","MI","48060"
153889,"28850 VALLEJO AVE","TEMECULA","CA","92592"
153890,"28851 LAHSER APT 103","SOUTHFIELD","MI","48034"
153891,"28854 HERNDONWOOD DR","FARMINGTON HILLS","MI","48334"
153892,"28854 WESTERN DR","EVERGREEN","CO","80439"
153893,"2886 8TH STREET","EAST POINT","GA","30344"
153894,"2886 DUNLAP LN SE","ROCHESTER","MN","55904"
153895,"2886 HORIZON TRAIL","NEW LENOX","IL","60451"
153896,"2886 SANDY PLAINS ROAD  BOX 669723","MARIETTA","GA","30066"
153897,"2886 SANDY SPRINGS RD UNIT 965072","MARIETTA","GA","30066"
153898,"2886 SNAPFINGER MANOR","DECATUR","GA","30035"
153899,"2886 SW BERWICK DRIVE","OAK HARBOR","WA","98277"
153900,"2886 TAMIAMI TRAIL STE 10","PORT CHARLOTTE","FL","33952"
153901,"28861 SELFRIDGE DRIVE","MALIBU","CA","90265"
153902,"28863 HORSETAIL CIRCLE","MENIFEE","CA","92585"
153903,"28865 PIKE VIEW FARM CIR","ELIZABETH","CO","80107"
153904,"2887 ARROYO LANE","GILBERT","AZ","85295"
153905,"2887 CREOLE LANDING","LITHONIA","GA","30038"
153906,"2887 ESCALA CIRCLE","SAN DIEGO","CA","92108"
153907,"2887 N GREELEY RD","ARENZVILLE","IL","62611"
153908,"2887 SANDHURST DR","LEWIS CENTER","OH","43035"
153909,"2887 W 12075 SO","RIVERTON","UT","84065"
153910,"28871 EL APAJO","LAGUNA NIGUEL","CA","92677"
153911,"28871 TWIN OAKS VALLEY RD","VISTA","CA","92084"
153912,"28871 VIA BUENA VISTA","SAN JUAN CAPISTRANO","CA","92675"
153913,"28873 E 800 NORTH ROAD","ELLSWORTH","IL","61737"
153914,"28873 N 111TH PLACE","SCOTTSDALE","AZ","85262"
153915,"28876 DAHLIA STREET NW","ISANTI","MN","55040"
153916,"28877 PUJOL ST APT 1518","TEMECULA","CA","92590"
153917,"2888 B RINGLING BLVD","SARASOTA","FL","34237"
153918,"2888 BROWN DEER CT","PICKERINGTON","OH","43147"
153919,"2888 CRESCENT AVE","EUGENE","OR","97408"
153920,"2888 E RACQUET CT","TUCSON","AZ","85716"
153921,"2888 EAST HYLAND HILLS ROAD","SALT LAKE CITY","UT","84109"
153922,"2888 LOKER AVE EAST STE 105","CARLSBAD","CA","92010"
153923,"2888 LOKER AVE EAST SUITE 111","CARLSBAD","CA","92010"
153924,"2888 LOKER AVENUE EAST STE 120","CARLSBAD","CA","92010"
153925,"2888 MCINTIRE RD","MORROW","OH","45152"
153926,"2888 MEDLIN DRIVE","ARLINGTON","TX","76015"
153927,"2888 MOUNTAIN VIEW","SAN BERNARDINO","CA","92405"
153928,"2888 SALAMANDER CREEK LANE","NORTH CHARLESTON","SC","29406"
153929,"2888 SUTTONWOOD WAY","BUFORD","GA","30519"
153930,"2888 W DIAGONAL ROAD","RATHDRUM","ID","83858"
153931,"28881 HILLAIRE STREET","EUGENE","OR","97402"
153932,"28883 GRANITE PEAK LANE","GOLDEN","CO","80403"
153933,"28889 53RD DRIVE","BRANFORD","FL","32008"
153934,"2889 BELLAROSA CIR","ROYAL PALM BEACH","FL","33411"
153935,"2889 MARKBREIT AVE","CINCINNATI","OH","45209"
153936,"2889 MAYFIELD ROAD","WARRIOR","AL","35180"
153937,"2889 OAKWOOD DR","WILLOUGHBY HILLS","OH","44094"
153938,"2889 PLAZA DEL AMO - UNIT 607","TORRANCE","CA","90503"
153939,"2889 PLAZA DEL AMO UNIT 803","TORRANCE","CA","90503"
153940,"2889 PONTIAC DR APT 427","AURORA","IL","60502"
153941,"2889 SUMMIT CREST COURT","SNELLVILLE","GA","30078"
153942,"2889 W 5TH ST STE 103","OXNARD","CA","93030"
153943,"28894 CONEJO VIEW DRIVE","AGOURA HILLS","CA","91301"
153944,"289 BOB G HUGHES BLVD","HARVEST","AL","35749"
153945,"289 BURGESS AVE","DAYTON","OH","45415"
153946,"289 CACTUS WREN LOOP","NEW BRAUNFELS","TX","78130"
153947,"289 CAPTAIN HM SHREVE BLVD","SHREVEPORT","LA","71115"
153948,"289 CASTLE HILL RANCH ROAD","WALNUT CREEK","CA","94595"
153949,"289 CLIFFHAVEN CIRCLE","NEWNAN","GA","30263"
153950,"289 DEWITT ST","BUFFALO","NY","14213"
153951,"289 DOBBS FERRY RD","WHITE PLAINS","NY","10607"
153952,"289 DRIFTWOOD LN","EDISTO ISLAND","SC","29438"
153953,"289 EAGLE FORK TERRACE","HAYESVILLE","NC","28904"
153954,"289 EAST PIKE RD","INDIANA","PA","15701"
153955,"289 GARDEN STREET","ENGLEWOOD","NJ","07631"
153956,"289 GIRARD STREET APT D","HAVRE DE GRACE","MD","21078"
153957,"289 GOLF COURSE RD","MADISON","ME","04950"
153958,"289 GORDON STREET","JEFFERSON","GA","30549"
153959,"289 GORGE ROAD ROOM 73","CLIFFSIDE PARK","NJ","07010"
153960,"289 GREAT BARRINGTON RD","WEST STOCKBRIDGE","MA","01266"
153961,"289 HARRISON AVE APT 3","ST PAUL","MN","55102"
153962,"289 HAWTHORNE DR","BUCKHANNON","WV","26201"
153963,"289 HIGH STREET","PERTH AMBOY","NJ","08861"
153964,"289 HORSESHOE LAKE ROAD","LINCOLNTON","NC","28092"
153965,"289 JONESBORO RD STE 168","MCDONOUGH","GA","30253"
153966,"289 JONESBORO RD STE 709","MCDONOUGH","GA","30253"
153967,"289 JONESBORO RD SUITE 455","MCDONOUGH","GA","30253"
153968,"289 JONESBORO ROAD 440","MCDONOUGH","GA","30253"
153969,"289 JONESBORO ROAD SUITE 461","MCDONOUGH","GA","30253"
153970,"289 JONESBORO ROAD SUITE 728","MCDONOUGH","GA","30253"
153971,"289 KENSINGTON LANE","ALABASTER","AL","35007"
153972,"289 LAFAYETTE ROAD","HAMPTON","NH","03842"
153973,"289 LAFONTENAY DR","LOUISVILLE","KY","40223"
153974,"289 LAWRENCE ROAD","TRUMBULL","CT","06611"
153975,"289 LORAINE DR APT 254 BUILDING 5","ALTAMONTE SPRINGS","FL","32714"
153976,"289 MANASSAS DRIVE","MANASSAS PARK","VA","20111"
153977,"289 MARTOM RD","WYCKOFF","NJ","07481"
153978,"289 MESEROLE ST STE 206","BROOKLYN","NY","11206"
153979,"289 MORTON ST","STOUGHTON","MA","02072"
153980,"289 N WYCOMBE AVE","LANSDOWNE","PA","19050"
153981,"289 OCEAN COVE LANE","PORT ANGELES","WA","98363"
153982,"289 OLD SUBSTATION ROAD","FORESTVILLE","WI","54213"
153983,"289 OTTER TAIL COURT","OCOEE","FL","34761"
153984,"289 PLEASANT RIVER RD","MILO","ME","04463"
153985,"289 S HWY 92 4207","SIERRA VISTA","AZ","85635"
153986,"289 S MARCIA DRIVE","AUSTINTOWN","OH","44515"
153987,"289 S ROBERTSON BLVD STE 400","BEVERLY HILLS","CA","90211"
153988,"289 S ROBERTSON BLVD UNIT 217","BEVERLY HILLS","CA","90211"
153989,"289 S ROSE BLVD","AKRON","OH","44313"
153990,"289 SE WINCHESTER HILL DR","CHEHALIS","WA","98532"
153991,"289 ST CLAIR ST","SHERIDAN","MI","48884"
153992,"289 SUMMER ST","BUFFALO","NY","14222"
153993,"289 TOBY ROAD","KERSEY","PA","15846"
153994,"289 W 500 S","OREM","UT","84058"
153995,"289 W MAIN ST","HANCOCK","MD","21750"
153996,"289 WALNUT STREET","BELLEVILLE","PA","17004"
153997,"289 WAVE STREET SUITE C","LAGUNA BEACH","CA","92651"
153998,"289 WEST PINE VALLEY LANE","WEST ROTUNDA","FL","33947"
153999,"289 WHITE OAK TRAIL","CATAULA","GA","31804"
154000,"289 WILSON RD","EASTON","CT","06612"
