"ID","Address","City","State","Zip"
173001,"324 SUNSET DRIVE NORTH","SEASIDE HEIGHTS","NJ","08751"
173002,"324 TALL GRASS DRIVE","LAWRENCE","KS","66049"
173003,"324 TAPESTRY CIRCLE","EXTON","PA","19341"
173004,"324 THEODORE DRIVE","EUREKA","MO","63025"
173005,"324 TRAILSIDE DR","DALLAS","GA","30157"
173006,"324 VAN CORTLANDT PARK AVE","YONKERS","NY","10705"
173007,"324 VAQUERO DRIVE","SAGINAW","TX","76131"
173008,"324 VESTA DRIVE","MYRTLE BEACH","SC","29579"
173009,"324 W 33RD ST","HOUSTON","TX","77018"
173010,"324 W BURLINGTON AVE","LA GRANGE","IL","60525"
173011,"324 W COMMERCIAL ST","KENNETT","MO","63857"
173012,"324 W LANE CIRCLE","LAKESIDE","AZ","85929"
173013,"324 WARREN AVE","CINCINNATI","OH","45220"
173014,"324 WASHINGTON AVENUE","OSHKOSH","WI","54901"
173015,"324 WATERS ROAD","MARYVILLE","TN","37803"
173016,"324 WEST 83RD STREET APT 5W","NEW YORK","NY","10024"
173017,"324 WEST CHARLES","BUFFALO","IL","62561"
173018,"324 WEST EVANS STREET","FLORENCE","SC","29501"
173019,"324 WEST MAIN ST","THIBODAUX","LA","70301"
173020,"324 WEST ROCKWELL","SOLDOTNA","AK","99669"
173021,"324 WEST SUPERIOR STREET - SUITE 91","DULUTH","MN","55802"
173022,"324 WOOD RIDGE","PEACHTREE CITY","GA","30269"
173023,"324 YORKSHIRE","CLEVELAND HEIGHTS","OH","44118"
173024,"324","MIDDLE ISLAND","NY","11953"
173025,"324","SHARPSVILLE","IN","46068"
173026,"3240  186TH STREET","HOMEWOOD","IL","60430"
173027,"3240 78TH STREET","EAST ELMHURST","NY","11370"
173028,"3240 AIRPORT ROAD","PAGO PAGO","AS","96799"
173029,"3240 AUSTIN AVE","NEW BERN","NC","28562"
173030,"3240 BAGLEY AVE APT 5","LOS ANGELES","CA","90034"
173031,"3240 BAGLEY AVENUE APT  5","LOS ANGELES","CA","90034"
173032,"3240 BLACKFOOT COURT","LITHONIA","GA","30038"
173033,"3240 BRIDLE PATH","FLINT","MI","48507"
173034,"3240 CARDINAL DRIVE SUITE 200","VERO BEACH","FL","32963"
173035,"3240 CENTRAL MALL DR","PORT ARTHUR","TX","77642"
173036,"3240 CIVIC CENTER DRIVE STE B","NORTH LAS VEGAS","NV","89030"
173037,"3240 CORPORATE COURT STE D","ELLICOTT CITY","MD","21042"
173038,"3240 DAGAN DR","PLANO","TX","75023"
173039,"3240 DEER CREEK CT","FLATWOODS","KY","41139"
173040,"3240 E  SAGINAW","LANSING","MI","48912"
173041,"3240 FRIARS POINT ROAD","CLARKSDALE","MS","38614"
173042,"3240 GLENCREE","CONYERS","GA","30012"
173043,"3240 GOLDEN OAKS CIRCLE","GRANBURY","TX","76049"
173044,"3240 GRACE ST NW","WASHINGTON","DC","20007"
173045,"3240 HAMNER AVENUE SUITE 101B","NORCO","CA","92860"
173046,"3240 HYDER AVENUE","DELTONA","FL","32738"
173047,"3240 LAKESHORE DR","WASHOE VALLEY","NV","89704"
173048,"3240 LANGLEY DRIVE","PLANO","TX","75025"
173049,"3240 LEXINGTON WAY","AUGUSTA","GA","30909"
173050,"3240 MCDOUGALL AVE","ENUMCLAW","WA","98022"
173051,"3240 N LAKE SHORE DRIVE SUITE 3D","CHICAGO","IL","60657"
173052,"3240 NORMANDY WOODS DR APT A","ELLICOTT CITY","MD","21043"
173053,"3240 NORTH MANOR DRIVE STE 324","LANSING","IL","60438"
173054,"3240 NW 4TH PLACE","LAUDERHILL","FL","33311"
173055,"3240 POSTGATE DRIVE","BETHEL PARK","PA","15102"
173056,"3240 RIVERVIEW LN","DAYTONA BEACH","FL","32118"
173057,"3240 S 122ND EAST AVE","TULSA","OK","74146"
173058,"3240 SHASTA CIR S","LOS ANGELES","CA","90065"
173059,"3240 SOUTH SEPULVEDA BOULEVARD","LOS ANGELES","CA","90034"
173060,"3240 SUITE D CORPORATE COURT","ELLICOTT CITY","MD","21042"
173061,"3240 TYLER AVE","EL MONTE","CA","91731"
173062,"3240 W BRITTON RD SUITE 203","OKLAHOMA CITY","OK","73120"
173063,"3240 W LEXINGTON ST","CHICAGO","IL","60624"
173064,"3240 W MARTY ST","SPRINGFIELD","MO","65810"
173065,"3240 WESTMONT AVENUE","BALTIMORE","MD","21216"
173066,"3240 WILSHIRE BOULEVARD SUITE 106","LOS ANGELES","CA","90010"
173067,"3240 WOLF RUN RD","TENINO","WA","98589"
173068,"32400 MAPLEWOOD CT","LAKE ELSINORE","CA","92530"
173069,"32404 SW 203 COURT","HOMESTEAD","FL","33030"
173070,"3241 59TH DR E","BRADENTON","FL","34203"
173071,"3241 60TH ST","WOODSIDE","NY","11377"
173072,"3241 CAMARILLO AVENUE","OCEANSIDE","CA","92056"
173073,"3241 COUNTY ROAD 36","AUBURN","IN","46706"
173074,"3241 COUNTY ROAD 8","HEIDELBERG","MS","39439"
173075,"3241 FM 66","WAXAHACHIE","TX","75167"
173076,"3241 GATEWAY DRIVE","INDEPENDENCE","MO","64057"
173077,"3241 GATEWAY DRIVE","INDEPNDENCE","MO","64057"
173078,"3241 HWY 308","RACELAND","LA","70394"
173079,"3241 N 54TH LN","PHX","AZ","85031"
173080,"3241 N HOLTON ST","MILWAUKEE","WI","53212"
173081,"3241 NORTH KEATING AVENUE","CHICAGO","IL","60641"
173082,"3241 NW 17TH STREET","LAUDERHILL","FL","33311"
173083,"3241 ORIOLE DR","SAN JOSE","CA","95117"
173084,"3241 SIOUX DR","PIQUA","OH","45356"
173085,"3241 STANTON ROAD SE","WASHINGTON","DC","20020"
173086,"3241 STEEL STREET SUITE 1","MEMPHIS","TN","38127"
173087,"32410 MALLARD POINT ROAD","GRAND RAPIDS","MN","55744"
173088,"32412 CLOVERDALE","FARMINGTON","MI","48336"
173089,"3242 BLUFF AVENUE SE","SALEM","OR","97302"
173090,"3242 E 43RD ST","YUMA","AZ","85365"
173091,"3242 E 43RD STREET","YUMA","AZ","85365"
173092,"3242 LONG RD","DESOTO","MO","63020"
173093,"3242 NW 12TH TER","GAINESVILLE","FL","32609"
173094,"3242 PLAYERS CLUB CIRCLE","MEMPHIS","TN","38125"
173095,"3242 QUAIL RUN RD","ROSSMOOR","CA","90720"
173096,"3242 RIVER OAKS","NEW ORLEANS","LA","70114"
173097,"3242 SE 32ND TER","COLUMBUS","KS","66725"
173098,"3242 UBBEN AVE","ELLSWORTH","IA","50075"
173099,"3242 W 8TH ST STE 201","LOS ANGELES","CA","90005"
173100,"3242 WASHBURN AVENUE NORTH","MINNEAPOLIS","MN","55412"
173101,"3242 WESTCHESTER SQUARE BLVD UNIT 2","ORLANDO","FL","32835"
173102,"3242 WESTHEIMER RD 707","HOUSTON","TX","77098"
173103,"3242 WHITNEY AVENUE","FLINT","MI","48532"
173104,"32424 GOLDENROD ST NW","CAMBRIDGE","MN","55008"
173105,"32425 S OLD HWY 6R","REDFIELD","IA","50233"
173106,"32426 CAMAS SWALE RD","CRESWELL","OR","97426"
173107,"32427 N 165TH AVE","SURPRISE","AZ","85387"
173108,"32427 SE 43RD PL","FALL CITY","WA","98024"
173109,"3243 CAMINITO EASTBLUFF UNIT 38","LA JOLLA","CA","92037"
173110,"3243 E NISBET RD","PHOENIX","AZ","85032"
173111,"3243 EAGLE WATCH DRIVE","WOODSTOCK","GA","30189"
173112,"3243 GALWAY CROSSING DR","COLUMBUS","OH","43221"
173113,"3243 STATE ROUTE 5","NEWTON FALLS","OH","44444"
173114,"3243 WOODFORD ROAD","CINCINNATI","OH","45213"
173115,"3243","BRONX","NY","10465"
173116,"3243","KINGSLEY","PA","18826"
173117,"32432 QUIET HARBOR AVENUE UNIT 101","LEESBURG","FL","34788"
173118,"32434 WISCONSIN STREET","LIVONIA","MI","48150"
173119,"3244 34TH AVE S","MINNEAPOLIS","MN","55406"
173120,"3244 BEVEN DR","ESCONDIDO","CA","92027"
173121,"3244 KEGLER DR","JACKSONVILLE","FL","32216"
173122,"3244 LAKE GEORGE COVE DR","ORLANDO","FL","32812"
173123,"3244 LAKE PARK ROAD","BELTON","TX","76513"
173124,"3244 LAKESIDE AVE","NORTHBROOK","IL","60062"
173125,"3244 NORTH FRONT STREET 1ST FL","PHILADELPHIA","PA","19140"
173126,"3244 PAULDING AVE","BRONX","NY","10469"
173127,"3244 RISING SUN ROAD","SUN PRAIRIE","WI","53590"
173128,"3244 TEMESCAL AVENUE","NORCO","CA","92860"
173129,"32441 WRIGHT RD","MAGNOLIA","TX","77355"
173130,"32444 CATTLE CIRCLE","RAMAH","CO","80832"
173131,"32445 NEW HARBOR WAY","UNION CITY","CA","94587"
173132,"32446 HEES STREET","LIVONIA","MI","48150"
173133,"32448 CARRIER DR","LILLIAN","AL","36549"
173134,"3245 AUTUMN FOREST DR","PEARLAND","TX","77584"
173135,"3245 BANTA ROAD","SOUTH PLAINFIELD","NJ","07080"
173136,"3245 BETHSAIDA RD","FAIRBURN","GA","30213"
173137,"3245 COOPER CREEK DR","HENDERSON","NV","89074"
173138,"3245 CRAFT","FAIRBANKS","AK","99709"
173139,"3245 DELL ROAD","BIRMINGHAM","AL","35223"
173140,"3245 EASTBROOKE CIR","INDIANAPOLIS","IN","46235"
173141,"3245 KEARNY VILLA LANE","SAN DIEGO","CA","92123"
173142,"3245 MAIN ST 235  131","FRISCO","FL","75034"
173143,"3245 MAIN ST STE 235 MAILBOX 138","FRISCO","TX","75034"
173144,"3245 MAIN STREET SUITE 235 -106","FRISCO","TX","75034"
173145,"3245 MEADOW ST","TOMS RIVER","NJ","08753"
173146,"3245 MEMPHIS STREET","PHILADELPHIA","PA","19134"
173147,"3245 N 18TH AVE W","NEWTON","IA","50208"
173148,"3245 N ILLINOIS ST 304","INDIANAPOLIS","IN","46208"
173149,"3245 OLD NORTHEAST ROAD","LAKE WACCAMAW","NC","28450"
173150,"3245 UNIVERSITY AVE  165","SAN DIEGO","CA","92104"
173151,"3245 UNIVERSITY AVE  NO 205","SAN DIEGO","CA","92104"
173152,"3245 UNIVERSITY AVE STE 462","SAN DIEGO","CA","92104"
173153,"3245 W 111TH STREET","CHICAGO","IL","60655"
173154,"3245 W MCNAB ROAD","POMPANO BEACH","FL","33069"
173155,"3245 WININGS LN","CARMEL","IN","46074"
173156,"32452 RINGEN SCHOOL ROAD","SMITHTON","MO","65350"
173157,"32455 12 MILE RD PO BOX 3464","FARMINGTON HILLS","MI","48333"
173158,"32455 W 12 MILE RD PO BOX 3433","FARMINGTON HILLS","MI","48333"
173159,"32455 W 12 MILE RD UNIT 2983","FARMINGTON HILLS","MI","48333"
173160,"32455 W 12 MILE ROAD SUITE 3275","FARMINGTON HILLS","MI","48333"
173161,"3246 184TH APT 3E","HOMEWOOD","IL","60430"
173162,"3246 AMHURST DR NW","ATLANTA","GA","30318"
173163,"3246 BEAUFORT DRIVE","BETHLEHEM","PA","18017"
173164,"3246 COTTON BALE LANE","MEMPHIS","TN","38119"
173165,"3246 JOHNSTOWNE STREET","JOHNS ISLAND","SC","29455"
173166,"3246 LEVERTON AVENUE","BALTIMORE","MD","21224"
173167,"3246 MILTON JENSON WAY","TRACY","CA","95377"
173168,"3246 MOULDEN HOLLOW DRIVE","ZEPHYPHILLS","FL","33540"
173169,"3246 N E STREET","SAN BERNARDINO","CA","92405"
173170,"3246 N MIAMI AVE STE A UNIT 370381","MIAMI","FL","33127"
173171,"3246 PARKER RD","FLORISSANT","MO","63033"
173172,"3246 TRINITY JOE LN","HUMBLE","TX","77396"
173173,"3246 W 13TH STREET NORTH","WICHITA","KS","67203"
173174,"3246 WATERSIDE DRIVE","MEMPHIS","TN","38119"
173175,"3246 WHEELOCK DRIVE","RACINE","WI","53405"
173176,"3246 WHITE PLAINS ROAD","BRONX","NY","10467"
173177,"32469 N STATE HWY 108","MINGUS","TX","76463"
173178,"3247 COUNTRY CLUB PKWY","CASTLE PINES","CO","80108"
173179,"3247 COUNTY 107 ROAD NE","EYOTA","MN","55934"
173180,"3247 DUNKIRK AVENUE","NORFOLK","VA","23509"
173181,"3247 E CAMELBACK RD","PHOENIX","AZ","85018"
173182,"3247 ELEANORS GARDEN WAY","WOODBINE","MD","21797"
173183,"3247 HATTING PLACE","BRONX","NY","10465"
173184,"3247 HEDGEWOOD LN","ROCHESTER HILLS","MI","48309"
173185,"3247 NE 104TH","SEATTLE","WA","98125"
173186,"3247 ROSSBURY COURT","DUBLIN","OH","43017"
173187,"3247 VISTA VERDE LN SW","TUMWATER","WA","98512"
173188,"3247 W AL WILHELMI DR","JOLIET","IL","60431"
173189,"3247 W MARCH LANE SUITE 120","STOCKTON","CA","95219"
173190,"32470 WALKER NORTH RD","WALKER","LA","70785"
173191,"3248 ALDRIDGE WAY","EL DORADO HILLS","CA","95762"
173192,"3248 CHEYENNE CT NW","SALEM","OR","97304"
173193,"3248 CORINTH POSEYVILLE RD","BREMEN","GA","30110"
173194,"3248 EMERSON AVE S UNIT 5","MINNEAPOLIS","MN","55408"
173195,"3248 FIREBUSH AVE","ROSAMOND","CA","93560"
173196,"3248 IRWIN AVE","BRONX","NY","10463"
173197,"3248 JEMEZ DR","SAN DIEGO","CA","92117"
173198,"3248 NORTH HILL FARM DRIVE","TUCSON","AZ","85712"
173199,"3248 S 375TH PL","AUBURN","WA","98001"
173200,"3248 SKYWAY CIRCLE NORTH","IRVING","TX","75038"
173201,"3248 TAYLOR BLVD","LOUISVILLE","KY","30215"
173202,"3248 VERDANT DRIVE SW UNIT 812","ATLANTA","GA","30331"
173203,"32480 ZOAR ROAD","LOCUST GROVE","VA","22508"
173204,"32485 CR 55","GILL","CO","80624"
173205,"3249 BARRINGTON DRIVE","HARRISONBURG","VA","22801"
173206,"3249 HENNEPIN AVENUE S STE 75","MINNEAPOLIS","MN","55408"
173207,"3249 MILLWOOD TRAIL","SMYRNA","GA","30080"
173208,"3249 N SEMINARY AVENUE -GDN","CHICAGO","IL","60657"
173209,"3249 NELSON AVE","YOUNGSTOWN","OH","44505"
173210,"3249 PLEASANT RIDGE ROAD","WINGDALE","NY","12594"
173211,"3249 REBEL RIDGE LANE","CULPEPER","VA","22701"
173212,"3249 SANDEFER ST","ABILENE","TX","79603"
173213,"3249 SOUTHAMPTON DRIVE","JEFFERSONTON","VA","22724"
173214,"3249 STATE ROUTE 257","SENECA","PA","16346"
173215,"32490 MODOC POINT RD","CHILOQUIN","OR","97624"
173216,"32496 OLD FRANKLIN DRIVE","FARMINGTON HILLS","MI","48334"
173217,"325 118TH AVE SE SUITE 100","BELLEVUE","WA","98005"
173218,"325 233RD ST SW","BOTHELL","WA","98021"
173219,"325 2ND STREET","FINDLAY","OH","45840"
173220,"325 5TH AVENUE APT 37F","NEW YORK","NY","10016"
173221,"325 7TH AVE NORTH","JACKSONVILLE BEACH","FL","32250"
173222,"325 7TH AVENUE NORTH","JACKSONVILLE BEACH","FL","32250"
173223,"325 7TH STREET NW","WASHINGTON","DC","20004"
173224,"325 84TH ST SW SUITE 102","BYRON CENTER","MI","49315"
173225,"325 88TH STREET","BROOKLYN","NY","11209"
173226,"325 9TH STREET","MENASHA","WI","54952"
173227,"325 9TH STREET","NORTH WALES","PA","19454"
173228,"325 ALLSTATE DR","JACKSON","MS","39211"
173229,"325 ALPINE ST","HOT SPRINGS","AR","71913"
173230,"325 AMBROSE RUN UNIT 409","BEAUFORT","SC","29906"
173231,"325 AMITY ROAD","BETHANY","CT","06524"
173232,"325 ANNA AVE","LEWISVILLE","TX","75056"
173233,"325 ASH TREE ROAD","COLUMBIA","SC","29229"
173234,"325 ASHLAWN DRIVE","NORFOLK","VA","23505"
173235,"325 ASPEN LANE","PHILLIPSBURG","NJ","08865"
173236,"325 AVENIDA CARMEL UNIT B","LAGUNA WOODS","CA","92637"
173237,"325 BADEN PL","STATEN ISLAND","NY","10306"
173238,"325 BARKER ST","GIRARD","PA","16417"
173239,"325 BARTON AVE","TERRE HAUTE","IN","47803"
173240,"325 BAYMIST DRIVE","LOGANVILLE","GA","30052"
173241,"325 BERRY LANE","SHADY SHORES","TX","76208"
173242,"325 BOCA GRANDE BLVD","PUNTA GORDA","FL","33950"
173243,"325 BOOHER ROAD","BRISTOL","VA","24201"
173244,"325 BRADDOCK AVENUE 310","BRADDOCK","PA","15104"
173245,"325 BRENTFORD AVE","GROVETOWN","GA","30813"
173246,"325 BROADWAY STE 204","NEW YORK","NY","10007"
173247,"325 BUNCOMBE STREET","RALEIGH","NC","27609"
173248,"325 BURLEIGH ST","ORLANDO","FL","32824"
173249,"325 BUSHWICK AVE","BROOKLYN","NY","11206"
173250,"325 BYRD ROAD","CAMERON","NC","28326"
173251,"325 CANTERBURY DRIVE","STATE COLLEGE","PA","16803"
173252,"325 CHARDON AVENUE","CHARDON","OH","44024"
173253,"325 CHESTNUT RIDGE WAY","NEWPORT","TN","37821"
173254,"325 CHESTNUT ST STE 876","PHILADELPHIA","PA","19106"
173255,"325 CHESTNUT STREET STE 800","PHILADELPHIA","PA","19106"
173256,"325 CHESTNUT STREET SUITE 876 162","PHILADELPHIA","PA","19106"
173257,"325 CHURCH 114","GALVESTON","TX","77550"
173258,"325 CLASSON AVE SUITE 13H","BROOKLYN","NY","11205"
173259,"325 CLAY ST","TREMONT","PA","17981"
173260,"325 CLINTON AVENUE - APT 12D","BROOKLYN","NY","11205"
173261,"325 CLOVERDALE COURT","STATESVILLE","NC","28677"
173262,"325 COLEBROOK RD","WINSTED","CT","06098"
173263,"325 COLUMBIA TPKE PO BOX 992","FLORHAM PARK","NJ","07932"
173264,"325 COOPER AVE","HAYWARD","CA","94544"
173265,"325 DAWSON SCOTTDALE ROAD","DAWSON","PA","15428"
173266,"325 DIVISION STREET","GALESBURG","IL","61401"
173267,"325 DOWSBY COURT","ROSEVILLE","CA","95661"
173268,"325 E 1375 S","KAYSVILLE","UT","84037"
173269,"325 E 64TH STREET APT 407","NYC","NY","10065"
173270,"325 E BRADLEY AVE APT 124","EL CAJON","CA","92021"
173271,"325 E GRAND RIVER AVE 345","EAST LANSING","MI","48823"
173272,"325 E LINCOLN WAY","SPARKS","NV","89431"
173273,"325 E MAGNOLIA ST APT 9","STOCKTON","CA","95202"
173274,"325 E MONTCASTLE DRIVE UNIT A","GREENSBORO","NC","27406"
173275,"325 E SONTERRA NO 230","SAN ANTONIO","TX","78258"
173276,"325 E SOUTHERN AVE SUITE 106","TEMPE","AZ","85282"
173277,"325 E SOUTHERN AVE SUITE 115","TEMPE","AZ","85282"
173278,"325 E THIRD AVE","CLIFTON","IL","60927"
173279,"325 E WASHINGTON 126","SEQUIM","WA","98382"
173280,"325 EAST 101 STREET","NEW YORK","NY","10029"
173281,"325 EAST 112 DRIVE","NORTHGLENN","CO","80233"
173282,"325 EAST 23RD STREET","FLATBUSH","NY","11226"
173283,"325 EAST 72ND STREET APT 8A","NEW YORK","NY","10021"
173284,"325 EAST 75TH ST","NEW YORK","NY","10021"
173285,"325 EAST 92ND STREET 1C","NEW YORK","NY","10126"
173286,"325 EAST AIRPORT FREEWAY","IRVING","TX","75062"
173287,"325 EAST ELM STREET","LADD","IL","61354"
173288,"325 EAST FLAMINGO ROAD","LAS VEGAS","NV","89169"
173289,"325 EAST GRAND RIVER AVE STE 317","EAST LANSING","MI","48823"
173290,"325 EAST MORNING SUN CT","TUCSON","AZ","85704"
173291,"325 EAST PENN AVE","ROBESONIA","PA","19551"
173292,"325 ED PADGETT RD","LAKELAND","FL","33809"
173293,"325 ELLINGTON BLVD NUM 109","GAITHERSBURG","MD","20878"
173294,"325 ENON CT SW","ATLANTA","GA","30331"
173295,"325 ESSEX STREET","BROOKLYN","NY","11208"
173296,"325 EVERGREEN ST WEST","VERMILLION","MN","55085"
173297,"325 EXECUTIVE CENTER DR A115","WPB","FL","33401"
173298,"325 FERNCLIFF DRIVE","ATHENS","GA","30606"
173299,"325 FIELDVIEW LANE","COVINGTON","GA","30016"
173300,"325 FIFTH AVENUE 32A","NEW YORK","NY","10016"
173301,"325 FIFTH AVENUE SUITE 28B","NEW YORK","NY","10016"
173302,"325 FOREST AVE SUITE 1","OSWEGO","IL","60543"
173303,"325 FOREST GROVE DRIVE STE 200","PEWAUKEE","WI","53072"
173304,"325 FOREST PARK ROAD","WILMINGTON","NC","28409"
173305,"325 FORESTWAY CIRCLE UNIT 102","ALTAMONTE","FL","32701"
173306,"325 FRONT ST","MCHENRY","IL","60050"
173307,"325 FULTON INDUSTRIAL CIRCLE","FULTON","GA","30336"
173308,"325 GEORGE RD","BETSY LAYNE","KY","41605"
173309,"325 GLENDOVER RD","LEXINGTON","KY","40503"
173310,"325 GLENWOOD AVENUE","LOCKPORT","NY","14094"
173311,"325 GODSHALL DR","HARLEYSVILLE","PA","19438"
173312,"325 GREY ROCK DRIVE","MIDLAND","GA","31820"
173313,"325 HARDING BLVD","NORRISTOWN","PA","19401"
173314,"325 HAWTHORNE LANE STE 300","CHARLOTTE","NC","28204"
173315,"325 HERITAGE PLACE","JACKSON","MS","39212"
173316,"325 HERMITAGE DRIVE","ELKTON","MD","21921"
173317,"325 HIGH STREET","GARDINER","OR","97441"
173318,"325 HIGHLAND AVE","JENKINTOWN","PA","19046"
173319,"325 HIGHWAY 78","SUMITON","AL","35148"
173320,"325 HILLSIDE CT","VISTA","CA","92084"
173321,"325 HILLVIEW","MARION","KS","52302"
173322,"325 HOLT STREET","DAYTON","OH","45402"
173323,"325 INDIAN RIDGE DRIVE","WAUKEE","IA","50263"
173324,"325 JESSING TRAIL","COLUMBUS","OH","43235"
173325,"325 JIMMIE LEEDS ROAD STE 7 PMB 240","GALLOWAY","NJ","08205"
173326,"325 JP HOWARD ROAD","EVERGREEN","AL","36401"
173327,"325 KENT AVE APT 820","BROOKLYN","NY","11249"
173328,"325 LAFAYETTE ST UNIT 4309","BRIDGEPORT","CT","06604"
173329,"325 LAKE RIDGE DRIVE","KERNERSVILLE","NC","27284"
173330,"325 LAKESPRING PLACE","OAKLEY","CA","94561"
173331,"325 LEGION ST","LAGUNA BEACH","CA","92651"
173332,"325 LINCOLN STREET","ROSEVILLE","CA","95678"
173333,"325 LION DR","GRAVETTE","AR","72736"
173334,"325 LORI LANE","RIVERDALE","GA","30296"
173335,"325 LYONS LN","SACRAMENTO","KY","42372"
173336,"325 MACON STREET","BROOKLYN","NY","11216"
173337,"325 MAIN LIBRARY","URBANA","IL","61820"
173338,"325 MAIN ST","WINOOSKI","VT","05404"
173339,"325 MAIN STREET SUITE 4","WINOOSKI","VT","05404"
173340,"325 MAIN STREET","SAVANNAH","TN","38372"
173341,"325 MAINE STREET SUITE 8","WINOOSKI","VT","05404"
173342,"325 MAJORCA AVE APT 3","CORAL GABLES","FL","33134"
173343,"325 MALCOLM AVENUE","BELMONT","CA","94402"
173344,"325 MARION AVENUE","BEN LOMOND","CA","95005"
173345,"325 MARMOT POINT","LAFAYETTE","CO","80026"
173346,"325 MAUMEE DRIVE","CIRCLEVILLE","OH","43113"
173347,"325 MELVILLE AVENUE","PALO ALTO","CA","94301"
173348,"325 MERGANSER DR UNIT 1146","SUISUN CITY","CA","94585"
173349,"325 MINOR ST","KENNER","LA","70062"
173350,"325 MISTY MOUNTAIN DR","FORT WORTH","TX","76140"
173351,"325 MONTEREY BLVD APT B","HERMOSA BEACH","CA","90254"
173352,"325 MOORE STREET","EAST LIVERPOOL","OH","43920"
173353,"325 MORRISON STREET","SHELBY","NC","28152"
173354,"325 MULBERRY STREET","YORK","PA","17403"
173355,"325 N 10TH ST STE 400 NO 264","LEWISBURG","PA","17837"
173356,"325 N 3RD ST","FAIRBORN","OH","45324"
173357,"325 N 5TH AVE","GILMAN","WI","54433"
173358,"325 N BLUE LAKE TERRACE","DELAND","FL","32724"
173359,"325 N BROADWAY","SHAWNEE","OK","74801"
173360,"325 N EIGHTH AVE","DES PLAINES","IL","60016"
173361,"325 N LASALLE STREET SUITE 350","CHICAGO","IL","60654"
173362,"325 N MAIN ST","CISCO","IL","61830"
173363,"325 N MAPLE DR UNIT 5138","BEVERLY HILLS","CA","90209"
173364,"325 N PORTER ST","WAYNESBURG","PA","15370"
173365,"325 N SAINT PAUL ST STE 3100","DALLAS","TX","75201"
173366,"325 N SAINT PAUL STREET SUITE 3100","DALLAS","TX","75201"
173367,"325 N SAINT PAUL STREET SUITE 3300","DALLAS","TX","75201"
173368,"325 NANCY DRIVE","HAMPTON","VA","23669"
173369,"325 NEW ALBANY RD","MOORESTOWN","NJ","08057"
173370,"325 NOB NORTH DRIVE","COHUTTA","GA","30710"
173371,"325 NORRIS RD","CLAYTON","NC","27520"
173372,"325 NORRIS ROAD","CLAYTON","NC","27520"
173373,"325 NORTH END AVENUE 16G","NYC","NY","10282"
173374,"325 NORTH LARCHMONT BLVD SUITE 375","LOS ANGELES","CA","90004"
173375,"325 NW 21 AVE SUITE 100","PORTLAND","OR","97209"
173376,"325 OCEAN HOUSE ROAD","CAPE ELIZABETH","ME","04107"
173377,"325 OKLAHOMA RD","MANITOU SPRINGS","CO","80829"
173378,"325 OLD BRICK ROAD","BUNNELL","FM","32110"
173379,"325 PARKE VIEW LN","BREMEN","IN","46506"
173380,"325 PERSIMMON RIDGE DR","LOUSIVILLE","KY","40245"
173381,"325 PLEASANT RIDGE ROAD","ELKIN","NC","28621"
173382,"325 PLUS PARK BLVD  SUITE 106","NASHVILLE","TN","37217"
173383,"325 PLUS PARK BLVD STE 107","NASHVILLE","TN","37217"
173384,"325 PUTNAM AVE","WOODSTOCK","IL","60098"
173385,"325 RAYMOND AVE","GLENDALE","CA","91201"
173386,"325 RICHMOND ROAD","IRINE","KY","40336"
173387,"325 RIVERBANK DR","FLINT","MI","48503"
173388,"325 ROBEY BETHEL GROVE ROAD","FRANKLIN","KY","42134"
173389,"325 S 8TH ST","ST CHARLES","IL","60174"
173390,"325 S BISCAYNE BLVD  APT 3022","MIAMI","FL","33131"
173391,"325 S BISCAYNE BLVD","MIAMI","FL","33131"
173392,"325 S KENILWORTH AVE","OAK PARK","IL","60302"
173393,"325 S LAWRENCE AVE","GIBSON CITY","IL","60936"
173394,"325 S MADISON AVE APT 17","PASADENA","CA","91101"
173395,"325 S MAIN STREET","BURNETTSVILLE","IN","47926"
173396,"325 S MONTEZUMA ST","PRESCOTT","AZ","86303"
173397,"325 S RETREAT RD","WESTMINSTER","SC","29693"
173398,"325 S RIFE","DILLON","MT","59725"
173399,"325 S SOCORA ST","WICHITA","KS","67209"
173400,"325 SCHOOL ST","ROCKTON","IL","61072"
173401,"325 SE 15TH AVENUE","OKEECHOBEE","FL","34974"
173402,"325 SECOND NH TURNPIKE SOUTH","FRANCESTOWN","NH","03043"
173403,"325 SELTSAM RD","BRIDGEPORT","CT","06606"
173404,"325 SEVEN ISLES DRIVE","FT. LAUDERDALE","FL","33301"
173405,"325 SHANNON DRIVE","CHILLICOTHE","OH","45601"
173406,"325 SHARON PARK DRIVE  NUMBER 741","MENLO PARK","CA","94025"
173407,"325 SHELLNUT AVE","COLUMBIA","SC","29209"
173408,"325 SHETUCKET TPKE","PRESTON","CT","06365"
173409,"325 SNEDDEN DRIVE","BOONE","IA","50036"
173410,"325 SOUTH 11TH STREET","SPRINGFIELD","IL","62703"
173411,"325 SOUTH CLAIREMONT AVE","SPRINGFIELD","OH","45503"
173412,"325 SOUTH LAKE DRIVE","NOVI","MI","48377"
173413,"325 SOUTH ORCHARD DRIVE D203","NORTH SALT LAKE","UT","84054"
173414,"325 SOUTH SCENIC  HWY","LAKE WALES","FL","33853"
173415,"325 SPRINGVILLE AV","AMHERST","NY","14226"
173416,"325 SQUIREBROOK DR","DESOTO","TX","75115"
173417,"325 STATION STREET","ALTAMONTE SPRINGS","FL","32715"
173418,"325 STELLERS EAGLE ST NW","SALEM","OR","97304"
173419,"325 STEWART AVE NW","MASSILLON","OH","44646"
173420,"325 STRATTON STREET","LOGAN","WV","25601"
173421,"325 SUGARLOAF AVENUE","ABILENE","TX","79602"
173422,"325 SUITE B HIGHWAY 75 NORTH","HUNTSVILLE","TX","77320"
173423,"325 SUN MEADOW LN","FORT WORTH","TX","76140"
173424,"325 SUNSET BLVD","WADSWORTH","OH","44281"
173425,"325 SUNSHINE LANE","RENO","NV","89502"
173426,"325 SW 11TH AVE","DELRAY BEACH","FL","33444"
173427,"325 TALLOW LN","SHREVEPORT","LA","71105"
173428,"325 TENAFLY ROAD","ENGLEWOOD","NJ","07631"
173429,"325 THE VALLEY RD","CONCORD","MA","01742"
173430,"325 THELMA AVE","GLEN BURNIE","MD","21061"
173431,"325 THOMPSON RUN ROAD","PITTSBURGH","PA","15237"
173432,"325 THORNDALE COURT","ROSWELL","GA","30075"
173433,"325 TOSCANO COURT","ROSEVILLE","CA","95661"
173434,"325 TREMONT STREET","CHARLESTON,","WV","25303"
173435,"325 TRYON AVENUE","ENGLEWOOD","NJ","07631"
173436,"325 UNDERHILL AVE","BRONX","NY","10475"
173437,"325 UNION AVENUE","MEMPIS","TN","38103"
173438,"325 US HIGHWAY 43","WINFIELD","AL","35594"
173439,"325 VILLAGE ROAD","MICHIGAN CITY","IN","46360"
173440,"325 W 11TH STREET APT 5R","NEW YORK","NY","10014"
173441,"325 W 3RD UNIT 301","LONG BEACH","CA","90802"
173442,"325 W 45TH STREET APT 812","NEW YORK","NY","10036"
173443,"325 W 8TH ST APT 304","LOS ANGELES","CA","90014"
173444,"325 W 8TH STREET","PORT ARTHUR","TX","77640"
173445,"325 W BELDEN AVE APT 3","CHICAGO","IL","60614"
173446,"325 W EVERGREEN DR","APPLETON","WI","54913"
173447,"325 W HORNE STREET","CLAYTON","NC","27520"
173448,"325 W HUNTINGTON DR","MONROVIA","CA","91016"
173449,"325 W KENTUCKY AVE","WILLIAMSFIELD","IL","61489"
173450,"325 W MAIN ST -  PO BOX 144","COUNCIL GROVE","KS","66846"
173451,"325 W MAIN ST STE 150","LOUISVILLE","KY","40202"
173452,"325 W MIDDLEBURY STREET","SHIPSHEWANA","IN","46565"
173453,"325 W YELLOW ST","FRANCESVILLE","IN","47946"
173454,"325 W37TH ST 5F","NEW YORK","NY","10018"
173455,"325 WALLACE LANE","FREDERICKSBURG","VA","22408"
173456,"325 WASHINGTON AVE S 435","KENT","WA","98032"
173457,"325 WASHINGTON AVE UNIT 61","KENT","WA","98032"
173458,"325 WASHINGTON AVENUE","WASHBURN","WI","54891"
173459,"325 WASHINGTON STREET","AURORA","IN","47001"
173460,"325 WEST 2ND ST","CLARKSDALE","MS","38614"
173461,"325 WEST 38TH STREET","NEW YORK","NY","10018"
173462,"325 WEST 45TH ST APT 205","NYC","NY","10036"
173463,"325 WEST 550 SOUTH","BOONE GROVE","IN","46302"
173464,"325 WEST MAIN STREET  SUITE 150","LOUISVILLE","KY","40202"
173465,"325 WEST MOUNTAIN STREET","KERNERSVILLE","NC","27285"
173466,"325 WEST PUGH DRIVE","SPRINGBORO","OH","45066"
173467,"325 WEST QUEEN STREET","SOUTHINGTON","CT","06489"
173468,"325 WHITES LANE","WHEELING","WV","26003"
173469,"325 WHITNEY AVE PO BOX 3141","ALBANY","GA","31701"
173470,"325 WILDFLOWER COURT","AZUSA","CA","91702"
173471,"325 WOODLAND SPRINGS LANE","BOONE","NC","28607"
173472,"325","ATLANTA","GA","30312"
173473,"325","TURTLE CREEK","PA","15145"
173474,"3250  S PRAIRIE ST  N2","CHICAGO","IL","60616"
173475,"3250 140TH STREET","RIVERSIDE","IA","52327"
173476,"3250 16TH AVE S","MINNEAPOLIS","MN","55407"
173477,"3250 44TH ST","VERO BEACH","FL","32967"
173478,"3250 46TH AVE SW","SEATTLE","WA","98116"
173479,"3250 AIRPORT WAY S SUITE 419","SEATTLE","WA","98134"
173480,"3250 BACK RD","WOODSTOCK","VA","22664"
173481,"3250 BOB MALKAS DRIVE","LANSING","IL","60438"
173482,"3250 FAIRESTA STREET","GLENDALE","CA","91214"
173483,"3250 GREY HAWK CT","CARLSBAD","CA","92010"
173484,"3250 HARRISON","SAN BERNARDINO","CA","92404"
173485,"3250 HEIGHTS DRIVE","CAMERON PARK","CA","95682"
173486,"3250 LAKEVIEW DR","WINTER HAVEN","FL","33884"
173487,"3250 LONE OAK DRIVE","BATON ROUGE","LA","70814"
173488,"3250 MARKET ST STE 305","RIVERSIDE","CA","92501"
173489,"3250 MONROE ST","SANTA CLARA","CA","95051"
173490,"3250 MONTANA","CINCINNATI","OH","45211"
173491,"3250 N POST RD 180","INDIANAPOLIS","IN","46226"
173492,"3250 NACOGDOCHES RD","SAN ANTONIO","TX","78217"
173493,"3250 NE 188TH STREET APT202","AVENTURA","FL","33180"
173494,"3250 NE 1ST AVE STE 305","MIAMI","FL","33137"
173495,"3250 NE 1ST AVE SUITE 305","MIAMI","FL","33137"
173496,"3250 OLD EVERGREEN WAY","ALPHARETTA","GA","30022"
173497,"3250 ONEAL CIRCLE APT C24","BOULDER","CO","80301"
173498,"3250 PLACE DU JARDIN","SAN JOSE","CA","95148"
173499,"3250 PLUM GROVE RD","ROLLING MEADOWS","IL","60008"
173500,"3250 PLUM GROVE ROAD","ROLLING MEADOWS","IL","60008"
