"ID","Address","City","State","Zip"
73501,"157 BISHOP DR","AVONDALE","LA","70094"
73502,"157 BRAHMA AVENUE","BRIDGEWATER","NJ","08807"
73503,"157 BRIDGETON PIKE SUITE 310B","MULLICA HILL","NJ","08062"
73504,"157 BROAD STREET","RED BANK","NJ","07701"
73505,"157 BROOK HILL LANE","TROY","MO","63379"
73506,"157 BRUSH RD","RICHMOND HTS","OH","44143"
73507,"157 CARMEL RIVIERA DR","CARMEL","CA","93923"
73508,"157 CHURCH STREET 12TH FLOOR","NEW HAVEN","CT","06510"
73509,"157 CHURCH STREET 19TH FLOOR","NEW HAVEN","CT","06511"
73510,"157 CLAREMONT GARDENS","OSSINING","NY","10562"
73511,"157 CLINTON AVE","LOWER BURRELL","PA","15068"
73512,"157 COUNTRY RIDGE DRIVE","REY BROOK","NY","10573"
73513,"157 CR 104","OXFORD","MS","38655"
73514,"157 CRAVEN STREET","VALLEJO","CA","94590"
73515,"157 CULVER ELLIS BLVD","KILLEN","AL","35645"
73516,"157 CUMNER ROAD","VIENNA","ME","04360"
73517,"157 DREGER","MEMPHIS","TN","38109"
73518,"157 E 122 ST","CHICAGO","IL","60628"
73519,"157 E 154TH ST","HARVEY","IL","60426"
73520,"157 E LINCOLN AVE","ROSELLE PARK","NJ","07204"
73521,"157 E MAIN STREET","KUTZTOWN","PA","19530"
73522,"157 E NORTH","FRESNO","CA","93706"
73523,"157 E SPRING VALLEY AVE","MAYWOOD","NJ","07607"
73524,"157 E SPRUCE ST","INGLEWOOD","CA","90301"
73525,"157 EAGLE ROCK AVENUE SUITE 121","ROSELAND","NJ","07068"
73526,"157 EAST 32ND STREET","NEW YORK","NY","10016"
73527,"157 EAST BAY STREET","CHARLESTON","SC","29401"
73528,"157 EAST PULASKI ROAD","HUNTINGTON STATION","NY","11746"
73529,"157 EAST RAMPART STREET","SHELBYVILLE","IN","46176"
73530,"157 ELK LANE","LOCK HAVEN","PA","17745"
73531,"157 FANO ST APT C","ARCADIA","CA","91006"
73532,"157 FLEET STREET PH 14","OXON HILL","MD","20745"
73533,"157 FRANCES LANE","GREENTOWN","PA","18426"
73534,"157 GEERTSON CREEK ROAD","SALMON","ID","83467"
73535,"157 GRASS LAKE PLACE SUITE 208","SAINT PAUL","MN","55126"
73536,"157 HENDERSON PL","EAST WINDSOR","NJ","08520"
73537,"157 INVERNESS AVE","NEWNAN","GA","30263"
73538,"157 JAMACIA ST","SPRINGFIELD","MA","01119"
73539,"157 JAMAICA STREET","SPRINGFIELD","MA","01119"
73540,"157 JARIPOL CIRCLE","RANCHO MISSION VIEJO","CA","92694"
73541,"157 JOHNSON FARM LANE","WOODSTOCK","GA","30188"
73542,"157 JONES LN","VERSAILLES","KY","40383"
73543,"157 KNIGHT CIR UNIT 2","PAWLEYS ISLAND","SC","29585"
73544,"157 LAKESHORE DRIVE","RICHMOND","KY","40475"
73545,"157 LITTLE JOHN LN","DIVIDE","CO","80814"
73546,"157 MAIN STREET WEST","WABASHA","MN","55981"
73547,"157 MANCHESTER ST","LEOMINSTER","MA","01453"
73548,"157 MARDELLA WAY","HOLLY RIDGE","NC","28445"
73549,"157 MCCONNELL DR","LAWRENCEVILLE","GA","30046"
73550,"157 MELISSA LANE","WEST CHESTER","PA","19380"
73551,"157 METLARS LANE","PISCATAWAY","NJ","08854"
73552,"157 METLARS LN","PISCATAWAY","NJ","08854"
73553,"157 N 3700 W PO BOX 1324","PAROWAN","UT","84761"
73554,"157 N 87TH STREET","WAUWATOSA","WI","53226"
73555,"157 NEWTOWN ROAD","HAMPTON BAYS","NY","11946"
73556,"157 NORTH STREAM DRIVE","AIKEN","SC","29805"
73557,"157 NW 88TH STREET","EL PORTAL","FL","33150"
73558,"157 OLD UPTON ROAD","GRAFTON","MA","01519"
73559,"157 PATTON COURT","GRIFFIN","GA","30224"
73560,"157 PENNSYLVANIA AVENUE","FREEPORT","NY","11520"
73561,"157 PEREGRINE COURT","WINTER SPRINGS","FL","32708"
73562,"157 PEREGRINE LANE","HUMMELSTOWN","PA","17036"
73563,"157 PINE BROOK RD","MONTVILLE","NJ","07045"
73564,"157 POPLIN RUN RD","ARGILLITTE","KY","41121"
73565,"157 PROSPECT ST","GARFIELD","NJ","07026"
73566,"157 REDSTONE WAY","BIRMINGHAM","AL","35215"
73567,"157 RIDGELAND","MAUMELLE","AR","72113"
73568,"157 RIVERVIEW AVE APT 4","PITTSBURGH","PA","15214"
73569,"157 ROBSON TRAIL","MCDONOUGH","GA","30252"
73570,"157 RUTLAND ROAD","BROOKLYN","NY","11225"
73571,"157 S MCDONOUGH STREET","JONESBORO","GA","30236"
73572,"157 S MOORE ROAD","COPPELL","TX","75019"
73573,"157 SHERWOOD DR","WESTLAKE VILLAGE","CA","91361"
73574,"157 SHORE ROAD","ELLSWORTH","ME","04605"
73575,"157 SOUTH KALAMAZOO MALL APT 406","KALAMAZOO","MI","49007"
73576,"157 SOUTH MONROE STREET","SPOKANE","WA","99201"
73577,"157 SOUTH PROSPECT STREET","YORK","PA","17406"
73578,"157 SOUTHWIND LN","WEST ST PAUL","MN","55118"
73579,"157 ST CATHERINE STREET","NATCHEZ","MS","39120"
73580,"157 ST NICHOLAS AVENUE","BROOKLYN","NY","11237"
73581,"157 STONEBRIDGE BLVD APT 1135","EDMOND","OK","73013"
73582,"157 SWAN LANE","VAUGHAN","MS","39179"
73583,"157 TARA LANE","LUCEDALE","MS","39452"
73584,"157 TENTHS STREET APT 2","BUFFALO","NY","14201"
73585,"157 UNIVERSITY AVE","AKRON","OH","44325"
73586,"157 W 19TH ST","BAYONNE","NJ","07002"
73587,"157 W 32ND ST","DURANGO","CO","81301"
73588,"157 W 7065 S SUITE 2","MIDVALE","UT","84047"
73589,"157 W GRANADA BLVD","ORMOND BEACH","FL","32174"
73590,"157 WADE AVE","NILES","OH","44446"
73591,"157 WELLS MILL ROAD","WARETOWN","NJ","08758"
73592,"157 WEST GRENWICH STREET","READING","PA","19601"
73593,"157 WESTCOTT AVE","HAMILTON","NJ","08610"
73594,"157 YORKSHIRE DR","HEATH","TX","75032"
73595,"157-02 MEYER AVENUE","JAMAICA","NY","11434"
73596,"157-07 45TH AVENUE 3","FLUSHING","NY","11355"
73597,"157-10 RIVERSIDE DRIVE  APT 8V","NEW YORK","NY","10032"
73598,"157-10 RIVERSIDE DRIVE WEST APT 9W","NEW YORK","NY","10032"
73599,"157-12 BAISLEY BLVD","JAMAICA","NY","11434"
73600,"157-50 80TH STREET","HOWARD BEACH","NY","11414"
73601,"157-57 17 RD","WHITESTONE","NY","11357"
73602,"157","SPARTA","MI","49345"
73603,"1570 52ND STREET","BROOKLYN","NY","11219"
73604,"1570 ARTHUR AVE","LAKEWOOD","OH","44107"
73605,"1570 BRENTWOOD DRIVE","TROY","MI","48098"
73606,"1570 BROYLES LANE","INDIANAPOLIS","IN","46231"
73607,"1570 COUNTY ROAD 417","ELLSINORE","MO","63937"
73608,"1570 DOVER CT","REDLANDS","CA","92374"
73609,"1570 E 8600 S","SANDY","UT","84093"
73610,"1570 EAST 14TH STREET   SUITE 6J","BROOKLYN","NY","11230"
73611,"1570 ELIZABETH ST","GREEN BAY","WI","54302"
73612,"1570 ELMWOOD AVE UNIT 1502","EVANSTON","IL","60201"
73613,"1570 HALLS VALLEY RD","TRION","GA","30753"
73614,"1570 I ROAD","DELTA","CO","81416"
73615,"1570 MACARTHUR BLVD","OAKLAND","CA","94602"
73616,"1570 MILL ACRES DR SW","ATLANTA","GA","30311"
73617,"1570 MORSE ROAD","COLUMBUS","OH","43215"
73618,"1570 NORTH GENTRY","WICHITA","KS","67208"
73619,"1570 NW SERRANO LN","POWELL BUTTE","OR","97753"
73620,"1570 OLD HWY 34","FAIRFIELD","IA","52556"
73621,"1570 RAPID RIVER RUN","PLOVER","WI","54467"
73622,"1570 RIDGEWOOD AVENUE APT 2","LAKEWOOD","OH","44107"
73623,"1570 SAGEMONT WAY","WESTON","FL","33326"
73624,"1570 SAN PASQUAL ST","PASADENA","CA","91106"
73625,"1570 SOQUEL DR STE 2","SANTA CRUZ","CA","95062"
73626,"1570 STATE HIGHWAY 19","LYND","MN","56157"
73627,"1570 TENAKA PLACE STE 1","SUNNYVALE","CA","94087"
73628,"1570 TRALEE DRIVE","DRESHER","PA","19025"
73629,"1570 W MAGGIO WAY 1042","CHANDLER","AZ","85224"
73630,"1570 WEST FIRST AVE","COLUMBUS","OH","43212"
73631,"15700 EASTWOOD RD","MOUNT ORAB","OH","45154"
73632,"15700 LEXINGTON BOULEVARD 1106","SUGAR LAND","TX","77478"
73633,"15700 MORNINGSTAR AVE","MAPLE HEIGHTS","OH","44137"
73634,"15700 SPACE CENTER BOULEVARD","HOUSTON","TX","77062"
73635,"15700 SWANSCOMBE LOOP","UPPER MARLBORO","MD","20774"
73636,"15700 W CLARY CIR","WAMEGO","KS","66547"
73637,"15701 ASHLAND DR","LAUREL","MD","20707"
73638,"15701 LAKE STREET","OMAHA","NE","68116"
73639,"15701 NORUS STREET","UPPER MARLBORO","MD","20772"
73640,"15701 ROYAL RIDGE ROAD","SHERMAN OAKS","CA","91403"
73641,"15701 STATE ROAD 50 STE 205","CLERMONT","FL","34711"
73642,"15701 WOODSHED PL","TAMPA","FL","33624"
73643,"15702 CRANBERRY COURT","DUMFRIES","VA","22025"
73644,"15702 GLASTONBURY WAY","UPPER MARLBORO","MD","20774"
73645,"15702 STABLE VIEW CT","CYPRESS","TX","77429"
73646,"15703 93RD CIRCLE NE","OTSEGO","MN","55330"
73647,"15703 DARROW RD","VERMILION","OH","44089"
73648,"15703 KNOLLTRAIL","SAN ANTONIO","TX","78247"
73649,"15703 NW 37TH PLACE","MIAMI","FL","33054"
73650,"15703 STILLER PARK DR","CYPRESS","TX","77429"
73651,"15703 STOUT","DETROIT","MI","48223"
73652,"15703 SWANSCOMBE LOOP","UPPER MARLBORO","MD","20774"
73653,"15705 E PROGRESS CIR","CENTENNIAL","CO","80015"
73654,"15705 E PUMA DR","FOUNTAIN HILLS","AZ","85268"
73655,"15705 PAGE AVE","HARVEY","IL","60426"
73656,"15706 ALTO LINDA LANE","TAMPA","FL","33624"
73657,"15706 NEW GALE DRIVE","MIDLOTHIAN","VA","23112"
73658,"15706 PERKINS LANE","BOWIE","MD","20716"
73659,"15707 ATHENA DRIVE","FONTANA","CA","92336"
73660,"15707 ERWIN COURT","BOWIE","MD","20716"
73661,"15707 FRY ST","PLYMOUTH","MI","48170"
73662,"15707 MONTESA DR","HOUSTON","TX","77083"
73663,"15707 SHELDON RIDGE WAY","HOUSTON","TX","77044"
73664,"15707 WISTERIA HILL ST","HOUSTON","TX","77073"
73665,"15708 DORSET ROAD SUITE 201","LAUREL","MD","20707"
73666,"15708 E CHICORY DRIVE","FOUNTAIN HILLS","AZ","85268"
73667,"15708 LARSON ROAD","ALTURA","MN","55910"
73668,"15708 MOUNT OAK ROAD","BOWIE","MD","20716"
73669,"15708 VAN NESS AVE APT 2","GARDENA","CA","90249"
73670,"15709 MORNING STAR AVE","MAPLE HEIGHTS","OH","44137"
73671,"15709 NE 93RD ST","VANCOUVER","WA","98682"
73672,"15709 OLIVE BRANCH DR","LA MIRADA","CA","90638"
73673,"1571 210TH STREET","WINTERSET","IA","50273"
73674,"1571 BASS BLVD","DUNEDIN","FL","34698"
73675,"1571 BEVERLY BLVD","LOS ANGELES","CA","90026"
73676,"1571 BLOOMINGBURG NEW HOLLAND ROAD","BLOOMINGBURG","OH","43106"
73677,"1571 DESERT GOLD","BOERNE","TX","78006"
73678,"1571 E 30 N","ST GEORGE","UT","84790"
73679,"1571 EAST DUVAL ST","LAKE CITY","FL","32055"
73680,"1571 FULTON AVENUE APT 4A","BRONX","NY","10457"
73681,"1571 GIRARD WAY 6","BOURBONNAIS","IL","60914"
73682,"1571 GREAT ROAD","SKILLMAN","NJ","08558"
73683,"1571 JOSLYN ROAD","MUSKEGON","MI","49445"
73684,"1571 KENSINGTON DR","ALGONQUIN","IL","60102"
73685,"1571 RED SPRINGS RD","GURDON","AR","71743"
73686,"1571 SHERIDAN AVENUE","BRONX","NY","10457"
73687,"1571 SUNSET DRIVE","LIVERMORE","CA","94551"
73688,"1571 VARNUM AVE","LOWELL","MA","01854"
73689,"15710 124TH AVE NE","WOODINVILLE","WA","98072"
73690,"15710 CEDAR LANE","BASEHOR","KS","66007"
73691,"15710 EL ESTADO APT 206","DALLAS","TX","75248"
73692,"15710 RAYNOR CT","MISSOURI CITY","TX","77489"
73693,"15710 W 66TH PL","ARVADA","CO","80007"
73694,"15710 W SOUTHWEST BLVD","CLEARWATER","KS","67026"
73695,"15710 W WILSHIRE DR","GOODYEAR","AZ","85395"
73696,"15711 E WELLESLEY AVE","SPOKANE","WA","99217"
73697,"15712 BOVINE PL","TAMPA","FL","33624"
73698,"15712 COPPER BEECH DRIVE","UPPER MARLBORO","MD","20774"
73699,"15712 HEYWOOD WAY","APPLE VALLEY","MN","55124"
73700,"15712 LAVERGNE AVE","OAK FOREST","IL","60452"
73701,"15712 NE 28TH CIRCLE","VANCOUVER","WA","98686"
73702,"15712 NW 140TH STREET","ALACHUA","FL","32615"
73703,"15712 NW HITE CENTER RD","SEABECK","WA","98380"
73704,"15713 MAYBERRY PLACE LANE","HUNTERSVILLE","NC","28078"
73705,"15714 CROOKED ARROW DR","SUGAR LAND","TX","77498"
73706,"15714 PLYMOUTH ROAD","DETROIT","MI","47227"
73707,"15714 S PRINCE DRIVE","SOUTH HOLLAND","IL","60473"
73708,"15714 SLOWIK COURT","FONTANA","CA","92336"
73709,"15715 CANNION FALLS DR","TOMBALL","TX","77377"
73710,"15715 MARKHAM DRIVE","CLERMONT","FL","34715"
73711,"15715 RILL LN","HOUSTON","TX","77062"
73712,"15715 S DIXIE HIGHWAY SUITE 406","MIAMI","FL","33157"
73713,"15715 WILD OAK LANE","ROLAND","AR","72135"
73714,"15715 WINTERS LN","RIVERSIDE","CA","92504"
73715,"15716 BOONES WAY","LAKE OSWEGO","OR","97035"
73716,"15716 JAMES THOMAS CT","EDMOND","OK","73013"
73717,"15716 MACARTHUR DR - UNIT C","NORTH LITTLE ROCK","AR","72118"
73718,"15716 SATICOY STREET UNIT 40","VAN NUYS","CA","91406"
73719,"15716 SUMMIT VIEW LANE","NORTH LITTLE ROCK","AR","72113"
73720,"15716 THRUSH GATE LANE","SAN ANTONIO","TX","78248"
73721,"15717 98TH ST","HOWARD BEACH","NY","11414"
73722,"15718 LARKFIELD DRIVE","HOUSTON","TX","77059"
73723,"15718 PARAMOUNT BLVD SUITE B","PARAMOUNT","CA","90723"
73724,"15719 AL-157","BATTLEGROUND","AL","35179"
73725,"15719 EUCALYPTUS AVE 19","BELLFLOWER","CA","90706"
73726,"1572 ARIEBILL","WYOMING","MI","49509"
73727,"1572 BRIDAL TRL","ROCK HILL","SC","29732"
73728,"1572 BUENA VISTA AVE APT 3","ALAMEDA","CA","94501"
73729,"1572 COURTNEY COURT","HELLERTOWN","PA","18055"
73730,"1572 EAST 7TH ST","BROOKLYN","NY","11230"
73731,"1572 EAST 9 STREET","BROOKLYN","NY","11230"
73732,"1572 EDGERTON STREET","SAINT PAUL","MN","55130"
73733,"1572 FLYING JIB DR","AZLE","TX","76020"
73734,"1572 HIGHWAY 85 NORTH SUITE 304","FAYETTEVILLE","GA","30214"
73735,"1572 HOWELL ST","CPE GIRARDEAU","MO","63701"
73736,"1572 NEWCASTLE WAY","PENSACOLA","FL","32534"
73737,"1572 PEARL HEIGHTS ROAD","VISTA","CA","92081"
73738,"1572 RABON FARMS LN","COLUMBIA","SC","29223"
73739,"1572 W LINCOLN BLVD","FREEPORT","IL","61032"
73740,"15720 ARTIST WAY APT 2907","ADDISON","TX","75001"
73741,"15720 BRIXHAM HILL AVENUE SUITE 300","CHARLOTTE","NC","28277"
73742,"15720 CHESTNUT DR","MONTGOMERY","TX","77356"
73743,"15720 GAULT STREET","LOS ANGELES","CA","91406"
73744,"15720 JOHN J DELANEY DRIVE  SUITE 3","CHARLOTTE","NC","28277"
73745,"15721 26TH AVENUE WEST","LYNNWOOD","WA","98087"
73746,"15721 FOREST PARK DRIVE","WOODBRIDGE","VA","22193"
73747,"15721 HILL LANE","SELMA","TX","78154"
73748,"15721 ROSECRANS AVE","LA MIRADA","CA","90638"
73749,"15722 BURT STREET","OMAHA","NE","68118"
73750,"15722 DREXEL AVENUE","DOLTON","IL","60419"
73751,"15722 STONEHAVEN DR","HOUSTON","TX","77059"
73752,"15722 SUNNYLAND LN","WELLINGTON","FL","33414"
73753,"15722 WILDWOOD DRIVE","CLIVE","IA","50325"
73754,"15722 WOODWICK AVENUE","BATON ROUGE","LA","70816"
73755,"15725 MESA DR","HUMBLE","TX","77396"
73756,"15725 NW 19TH AVE","MIAMI","FL","33054"
73757,"15726 BEREA DRIVE","ODESSA","FL","33556"
73758,"15726 E ABERDEEN AVE","AURORA","CO","80016"
73759,"15726 SE DANA AVE","MILWAUKIE","OR","97267"
73760,"15727 HAYNES RD","LAUREL","MD","20707"
73761,"15727 OLD JAPANESE RD","LOS GATOS","CA","95033"
73762,"15727 PLYMOUTH RD","DETROIT","MI","48227"
73763,"15727 S WESTERN AVE SUITE A141","GARDENA","CA","90247"
73764,"15727 SCHULTZ ST","CLINTON TWP","MI","48038"
73765,"15727 WANDERING TRAIL","FRIENDSWOOD","TX","77546"
73766,"1573 CORTE DE PEARSON","SAN JOSE","CA","95124"
73767,"1573 EAST 750 NORTH RD","CISSNA PARK","IL","60924"
73768,"1573 FRIEDENS CHURCH ROAD","MOUNT CRAWFORD","VA","22841"
73769,"1573 GROUSE LANE","MOUNTAINSIDE","NJ","07092"
73770,"1573 MAPLEWOOD DR","SLIDELL","LA","70458"
73771,"1573 RIDGEVIEW TERRACE","OSAGE BEACH","MO","65065"
73772,"1573 S TALLGRASS DR","FAYETTEVILLE","AR","72701"
73773,"1573 SUGAR GROVE ROAD","TROY","MO","63379"
73774,"1573 SURREY DRIVE","BOURBONNAIS","IL","60914"
73775,"1573 VIRGINIA STREET EAST","CHARLESTON","WV","25311"
73776,"1573","HOCKESSIN","DE","19707"
73777,"15730 BASELINE AVE","FONTANA","CA","92336"
73778,"15730 NEW GALE DRIVE","MIDLOTHIAN","VA","23112"
73779,"15730 VINTAGE STREET","NORTH HILLS","CA","91343"
73780,"15730","WASHINGTON","DC","20003"
73781,"15731 CRESCENT DRIVE","AURORA","IN","47001"
73782,"15731 FREMONT WAY","APPLE VALLEY","MN","55124"
73783,"15731 GRIGGS STREET","DETROIT","MI","48238"
73784,"15731 LYONS VALLEY ROAD","JAMUL","CA","91935"
73785,"15731 NE 8TH ST UNIT 6323","BELLEVUE","WA","98008"
73786,"15732 BOLTON CIRCLE","WESTFIELD","IN","46074"
73787,"15732 SWAN LANE","HUNTINGTON BEACH","CA","92649"
73788,"15733 CAPITOL AVE","OMAHA","NE","68118"
73789,"15733 ELDERWOOD AVE","BATON ROUGE","LA","70816"
73790,"15733 VINCENNES ST","NORTH HILLS","CA","91343"
73791,"15734 ROAN ROAD","CHINO HILLS","CA","91709"
73792,"15734 SE SWIFT CT","CLACKAMAS","OR","97015"
73793,"15734 VIA CALANOVA","SAN DIEGO","CA","92128"
73794,"15735  PLAINVIEW   AVENUE","DETROIT","MI","48223"
73795,"15735 38TH AVE NE","LAKE FOREST PARK","WA","98155"
73796,"15735 NORDHOFF ST STE 11","NORTH HILLS","CA","91343"
73797,"15735 YOUPON VALLEY DR","HOUSTON","TX","77073"
73798,"15736 TERRACE DR - SUITE O2","OAK FOREST","IL","60452"
73799,"15736 W ALMERIA RD","GOODYEAR","AZ","85395"
73800,"1574 79TH AVE","OAKLAND","CA","94621"
73801,"1574 BRANDYWINE LN","LITTLE ELM","TX","75068"
73802,"1574 CHANDLER ST","OAKLAND","CA","94603"
73803,"1574 COBURG RD NUM 314","EUGENE","OR","97401"
73804,"1574 COBURG ROAD  NUMBER 408","EUGENE","OR","97401"
73805,"1574 COBURG ROAD 145","EUGENE","OR","97401"
73806,"1574 E SHELBY DRIVE","MEMPHIS","TN","38116"
73807,"1574 FRANKLIN CIRCLE","DACULA","GA","30019"
73808,"1574 HOPSCOTCH DRIVE","CHULA VISTA","CA","91915"
73809,"1574 N PECAN","REEDLEY","CA","93654"
73810,"1574 P ROAD","LOMA","CO","81524"
73811,"1574 PARK BLVD","CAMDEN","NJ","08104"
73812,"1574 ROUTE 259","LIGONIER","PA","15658"
73813,"1574 S WASHINGTON STREET","DENVER","CO","80210"
73814,"1574 SUTTER STREET","DALLAS","TX","75216"
73815,"1574 TILLINGSDALE DRIVE","KALAMAZOO","MI","49009"
73816,"15740 112 TH CT","ORLAND PARK","IL","60467"
73817,"15740 LOOMIS AVE","HARVEY","IL","60426"
73818,"15740 N 83RD AVE APT 2052","PEORIA","AZ","85382"
73819,"15740 PORCHLIGHT LN","EDEN PRAIRIE","MN","55347"
73820,"15740 PORTOFINO SPRINGS BLVD 102","FORT MYERS","FL","33908"
73821,"15740 TAYLOR ROAD","BAY MINETTE","AL","36507"
73822,"15741 INGLESIDE AVE","DOLTON","IL","60419"
73823,"15741 MCINTOSH AVE","CHINO","CA","91708"
73824,"15741 QUINCY ST","DETROIT","MI","48238"
73825,"15741 QUINCY","DETROIT","MI","48238"
73826,"15741 TUPPER ST","NORTH HILLS","CA","91343"
73827,"15742 CALIFORNIA ST","TUSTIN","CA","92780"
73828,"15743 HWY 47","MARTHASVILLE","MO","63357"
73829,"15744 DAKOTA AVE","PRIOR LAKE","MN","55372"
73830,"15744 SULLIVAN RIDGE DRIVE","CHARLOTTE","NC","28277"
73831,"15745 EAST END AVE","DOLTON","IL","60419"
73832,"15745 VAIL RD SE","YELM","WA","98597"
73833,"15747 SW 147 STREET","MIAMI","FL","33196"
73834,"15747 WEAVER GULCH DR","MORRISON","CO","80465"
73835,"1575 BARRES STREET","STRASBURG","CO","80136"
73836,"1575 BEN KING ROAD","KENNESAW","GA","30144"
73837,"1575 CALAVERAS AVENUE","SAN JOSE","CA","95126"
73838,"1575 CASTLE WAY","MOUNTAIN HOME","ID","83647"
73839,"1575 CASTLE WAY","RENO","NV","89512"
73840,"1575 CATHERINE LAKE RD","JACKSONVILLE","NC","28540"
73841,"1575 CR 1110","MERIDIAN","TX","76665"
73842,"1575 DEGEEST DR","RAPID CITY","SD","57703"
73843,"1575 DEPOT ST NE","CHRISTIANSBURG","VA","24073"
73844,"1575 DEWAR DRIVE SUITE 400","ROCK SPRINGS","WY","82901"
73845,"1575 E 89TH DRIVE","MERRILLVILLE","IN","46410"
73846,"1575 E RIVER ROAD","BEDMINSTER","NJ","07921"
73847,"1575 GORMAN RD","WAYCROSS","GA","31503"
73848,"1575 HOWARD AVENUE","SAN YSIDRO","CA","92173"
73849,"1575 JORDAN RD","HUNTSVILLE","AL","35811"
73850,"1575 LAWRENCEVILLE HWY SUITE K","LAWRENCEVILLE","GA","30044"
73851,"1575 MARIPOSA AVENUE","BOULDER","CO","80302"
73852,"1575 MCFARLAND RD SUITE 201","PITTSBURGH","PA","15216"
73853,"1575 NOTTINGHAM RD","CHARLESTON","WV","25314"
73854,"1575 PAUL RUSSELL RD APT 604","TALLAHASSEE","FL","32301"
73855,"1575 PAUL RUSSELL RD UNIT 4302","TALLAHASSEE","FL","32301"
73856,"1575 PAUL RUSSELL ROAD APT 902","TALLAHASSEE","FL","32301"
73857,"1575 PAUL RUSSELL ROAD UNIT 2703","TALLAHASSEE","FL","32301"
73858,"1575 PLEASANT HILL RD","SEBASTOPOL","CA","95472"
73859,"1575 PLEASANT HILL ROAD","SEBASTOPOL","CA","95472"
73860,"1575 POSTAL ROAD  UNIT 242","CHESTER","MD","21619"
73861,"1575 QUIET HILLS DR","OCEANSIDE","CA","92056"
73862,"1575 QUIET HILLS DRIVE","OCEANSIDE","CA","92056"
73863,"1575 RIDENOUR PARKWAY APT 704","KENNESAW","GA","30152"
73864,"1575 ROUTE 517","HACKETTSTOWN","NJ","07840"
73865,"1575 S HELM AVE","FRESNO","CA","93727"
73866,"1575 SAILPOINT DRIVE","BARTOW","FL","33830"
73867,"1575 SALIDA DEL SOL","CHINO VALLEY","AZ","86323"
73868,"1575 SAUNDERS DR","WOOSTER","OH","44691"
73869,"1575 SOUTH RESERVOIR STREET UNIT F","POMONA","CA","91766"
73870,"1575 TAPERING POINTE RD","GLENCOE","KY","41046"
73871,"1575 TREMONT STREET APT1010","BOSTON","MA","02120"
73872,"1575 UNDERWOOD RD","GAMBRILLS","MD","21054"
73873,"1575 W HAMLIN RD","ROCHESTER HILLS","MI","48309"
73874,"1575 W HORIZON RIDGE PKWY 530475","HENDERSON","NV","89012"
73875,"1575 WEST WARM SPRINGS ROAD 3114","HENDERSON","NV","89014"
73876,"1575 WESTERN AVENUE","SAINT PAUL","MN","55117"
73877,"1575 WILLIAMSBRIDGE ROAD SUITE 6H","BRONX","NY","10461"
73878,"15750 DAWSON CREEK DRIVE","MONUMENT","CO","80132"
73879,"15750 REED ROAD","LAKEVIEW","OR","97630"
73880,"15750 S BELL ROAD 1B","HOMER GLEN","IL","60491"
73881,"15750 SOUTH TARRANT AVE","COMPTON","CA","90220"
73882,"15750 SPECTRUM DR    2221","ADDISON","TX","75001"
73883,"15751 BROOKHURST ST/STE 210","WESTMINSTER","CA","92683"
73884,"15751 SHERIDAN ST    STE 431","FT LAUDERDALE","FL","33331"
73885,"15751 SHERIDAN ST STE 448","FORT LAUDERDALE","FL","33331"
73886,"15752 DAYBREEZE DRIVE","SPRING HILL","FL","34610"
73887,"15754 FM 1567 WEST","CUMBY","TX","75433"
73888,"15754 LEADER","TAYLOR","MI","48180"
73889,"15755 JEFFERSON HIGHWAY","BATON ROUGE","LA","70817"
73890,"15756 STEEL","DETROIT","MI","48227"
73891,"15757 N 90TH PL APT 2074","SCOTTSDALE","AZ","85260"
73892,"15757 N 90TH PLACE APT 1152","SCOTTSDALE","AZ","85260"
73893,"15757 PINES BLVD STE 107","PEMBROKE PINES","FL","33027"
73894,"15757 PINES BLVD STE 326","PEMBROKE PINES","FL","33027"
73895,"15757 PINES BLVD STE 743","PEMBROKE PINES","FL","33027"
73896,"15757 PINES BLVD SUITE 163","PEMBROKE PINES","FL","33027"
73897,"15757 PINES BLVD SUITE 185","PEMBROKE PINES","FL","33027"
73898,"15757 PINES BLVD SUITE 250","PEMBROKE PINES","FL","33028"
73899,"15757 PINES BOULEVARD SUITE 169","PEMBROKE PINES","FL","33027"
73900,"15758 PRENTICE LANE","CENTENNIAL","CO","80015"
73901,"15759 MANSFIELD ST","DETROIT","MI","48227"
73902,"15759 TURNBERRY STREET","MORENO VALLEY","CA","92555"
73903,"15759 VANOWEN ST APT 16","LAKE BALBOA","CA","91406"
73904,"1576 ALLERTON AVE","BRONX","NY","10469"
73905,"1576 ATKINSON ROAD SUITE 210","LAWRENCEVILLE","GA","30043"
73906,"1576 BELLA CRUZ DR BOX 426","THE VILLAGES","FL","32159"
73907,"1576 CHURCHILL CT","CLARKSVILLE","TN","37042"
73908,"1576 HALL ROAD","THOMASVILLE","GA","31757"
73909,"1576 HWY 42","IBERIA","MO","65486"
73910,"1576 LATOUCHE STREET UNIT 1","ANCHORAGE","AK","99501"
73911,"1576 LOCUST AVENUE STE 203","LONG BEACH","CA","90813"
73912,"1576 MENDELL DRIVE","ST. LOUIS","MO","63130"
73913,"1576 OAKLAND CHASE PKWY","HENRICO","VA","23231"
73914,"1576 PLAZA DRIVE","SAN LEANDRO","CA","94578"
73915,"1576 SE OHIO AVENUE","ARCADIA","FL","34266"
73916,"1576 SHERMAN STREET SUITE 100","DENVER","CO","80203"
73917,"1576 SW 2ND STREET","HOMESTEAD","FL","33030"
73918,"1576 W STONEMAN PLACE","ANAHEIM","CA","92802"
73919,"1576 WILLIAMS DR","WINTER PARK","FL","32789"
73920,"15760 VENTURA BLVD SUITE 801","ENCINO","CA","91436"
73921,"15761 CHAPEL STREET","DETROIT","MI","48223"
73922,"15761 Chapel","Detroit","MI","48223"
73923,"15761 PARKERS FORD COURT","HAYMARKET","VA","20169"
73924,"15763 AUDUBON WAY","HAYMARKET","VA","20169"
73925,"15763 LYONS VALLEY RD","JAMUL","CA","91935"
73926,"15763 SW 21 ST","MIRAMAR","FM","30227"
73927,"15765 CAYMAN CIRCLE","MORENO VALLEY","CA","92551"
73928,"15765 HAMBY ROAD","ALPHARETTA","GA","30004"
73929,"15766 HEYDEN","DETROIT","MI","48223"
73930,"1577 27TH ST SW","LOVELAND","CO","80537"
73931,"1577 58TH ST","BROOKLYN","NY","11219"
73932,"1577 BROADWAY ST NE","SALEM","OR","97301"
73933,"1577 CARROLL STREET","BROOKLYN","NY","11213"
73934,"1577 ELAINE DR","HANFORD","CA","93230"
73935,"1577 FLORENCE AVE","EVANSTON","IL","60201"
73936,"1577 LASKIN ROAD SUITE 100","VIRGINIA BEACH","VA","23451"
73937,"1577 N LINDER RD  BOX 175","KUNA","ID","83634"
73938,"1577 N LINDER RD MB 211","KUNA","ID","83634"
73939,"1577 N LINDER RD NUM 211","KUNA","ID","83634"
73940,"1577 N LINDER ROAD  212","KUNA","ID","83634"
73941,"1577 N LINDER ROAD 212","KUNA","ID","83634"
73942,"1577 N LINDER ROAD SUITE 212","KUNA","ID","83634"
73943,"1577 NEVADA RD","PRINCETON","KS","66078"
73944,"1577 PARKVIEW DR","VISTA","CA","92081"
73945,"1577 RED OAK LANE","BRENTWOOD","TN","37027"
73946,"1577 ROUTE 300","NEWBURGH","NY","12550"
73947,"1577 SANAT MONICA DRIVE","DUNEDIN","FL","34698"
73948,"1577 SHOTWELL RD","CLAYTON","NC","27520"
73949,"1577 STEESE RD","UNIONTOWN","OH","44685"
73950,"1577 STONE GATE LN SE","ATLANTA","GA","30317"
73951,"1577 TEN MILE ROAD","EVERSON","WA","98247"
73952,"1577 UNION CHURCH ROAD","CAMERON","NC","28326"
73953,"15770 BELDEN STREET","DETROIT","MI","48238"
73954,"15770 BELLAIRE BLVD  APT 902","HOUSTON","TX","77083"
73955,"15770 CRYSTALLO DRIVE","PARKER","CO","80134"
73956,"15770 LASSELLE STREET APTM","MORENO VALLEY","CA","92551"
73957,"15771 LAUDER","DETROIT","MI","48227"
73958,"15774 S LAGRANGE - 223","ORLAND PARK","IL","60462"
73959,"15774 S LAGRANGE RD STE 267","ORLAND PARK","IL","60462"
73960,"15774 S LAGRANGE RD","ORLAND PARK","IL","60462"
73961,"15775 LOMELA CT","LA MIRADA","CA","90638"
73962,"15776 SW 74 LANE","MIAMI","FL","33193"
73963,"15777 QUARTZ LANE","WILDER","ID","83686"
73964,"15777 QUORUM DRIVE APT 1149","ADDISON","TX","75001"
73965,"15779 78TH DR N","PALM BEACH GARDENS","FL","33418"
73966,"15779 SELWYN STREET","SOUTHGATE","MI","48195"
73967,"1578 BALLANTREE WAY","SAN JOSE","CA","95118"
73968,"1578 LEGRAND CIRCLE","LAWRENCEVILLE","GA","30043"
73969,"1578 LEXINGTON AVENUE","NEW YORK","NY","10029"
73970,"1578 MAHOGANY DRIVE","ALLEN","TX","75002"
73971,"1578 MCKEE ROAD","TONEY","AL","35773"
73972,"1578 MONTROSE RD","RAEFORD","NC","28376"
73973,"1578 SPARROW ROAD","WACONIA","MN","55387"
73974,"1578 TIFFANY LANE","BEAUMONT","CA","92223"
73975,"1578 TRAILWOOD AVENUE","CHULA VISTA","CA","91913"
73976,"1578 UNION STREET","BROOKLYN","NY","11213"
73977,"1578 US HIGHWAY 19S NUMBER 2310","LEESBURG","GA","31763"
73978,"1578 W 1700 S  204","SALT LAKE CITY","UT","84118"
73979,"1578 WEST 1700 SOUTH","SALT LAKE CITY","UT","84104"
73980,"1578 WILLIAMSBRIDGE RD UNIT 3E","BRONX","NY","10461"
73981,"1578","LIBERTY","TX","77575"
73982,"15781 GORDON CUMMINGS ROAD","CANYON","TX","79015"
73983,"15782 BASELINE ROAD","BELLEVUE","MI","49021"
73984,"15784 2600 ROAD","CEDAREDGE","CO","81413"
73985,"15784 FLACKWOOD TRAIL","APPLE VALLEY","MN","55124"
73986,"15784 WAGNER ST","SAN LORENZO","CA","94580"
73987,"15785 INDIANA ST","DETROIT","MI","48238"
73988,"15786 PASEO HERMOSO","POWAY","CA","92064"
73989,"15789 E GREENWOOD DR","AURORA","CO","80013"
73990,"1579 CEDAR ELM DRIVE","EULESS","TX","76039"
73991,"1579 EAST 10TH STREET","BROOKLYN","NY","11230"
73992,"1579 EMBER LANE","TARPON SPRINGS","FL","34689"
73993,"1579 GOLDEN BEAR GATEWAY","MOUNT JULIET","TN","37122"
73994,"1579 HAYWORTH CIR NW","PALM BAY","FL","32907"
73995,"1579 HIGHWAY 85 N","FAYETTEVILLE","GA","30214"
73996,"1579 KINGSTON DRIVE","KANNAPOLIS","NC","28083"
73997,"1579 MONROE DR STE F329","ATLANTA","GA","30324"
73998,"1579 MONROE DRIVE F195","ATLANTA","GA","30324"
73999,"1579 MONROE DRIVE NE STE 410","ATLANTA","GA","30324"
74000,"1579 MONROE DRIVE NE SUITE 410","ATLANTA","GA","30324"
