"ID","Address","City","State","Zip"
250501,"5822 RHYNE COVE LANE","KNOXVILLE","TN","37931"
250502,"5822 ROXBURY CT","CYPRESS","CA","90630"
250503,"5822 SPILMAN AVE","SACRAMENTO","CA","95819"
250504,"5822 TYNDALL AVENUE","BRONX","NY","10471"
250505,"5822 W ABRAHAM LANE","GLENDALE","AZ","85308"
250506,"5822 WEDGEWOOD DRIVE","GRANITE BAY","CA","95746"
250507,"5822 WEST SIESTA WAY","PHOENIX","AZ","85339"
250508,"58220 PUEBLO TRAIL","YUCCA VALLEY","CA","92284"
250509,"5823 BOWEN DANIEL DR UNIT 801","TAMPA","FL","33616"
250510,"5823 BOWEN DANIEL DRIVE UNIT 1403","TAMPA","FL","33616"
250511,"5823 BROOKLYN ST","EATON","NY","13334"
250512,"5823 COUNTY ROAD 707","BRAZORIA","TX","77566"
250513,"5823 S CHARITON AVE","LOS ANGELES","CA","90056"
250514,"5823 SOUTH 23RD WAY","PHOENIX","AZ","85040"
250515,"5823 WALWORTH ROAD","ONTARIO","NY","14519"
250516,"5823 WIND DRIFT LN","BOCA RATON","FL","33433"
250517,"5824 84TH STREET EAST","PUYALLUP","WA","98371"
250518,"5824 BEE RIDGE ROAD NUM 165","SARASOTA","FL","34233"
250519,"5824 CLEVELANDTOWN ROAD","BOONSBORO","MD","21713"
250520,"5824 CLOVER DRIVE","OAKLAND","CA","94618"
250521,"5824 COLFAX AVENUE","ALEXANDRIA","VA","22311"
250522,"5824 DUNHAM ROAD","MAPLE HEIGHTS","OH","44137"
250523,"5824 E BERRY ST","FORT WORTH","TX","76119"
250524,"5824 LAKE POINTED VILLAGE APT 504","ORLANDO","FL","32822"
250525,"5824 LESLIE AVE","NASHVILLE","TN","37209"
250526,"5824 MATHIAS ROAD EAST","GRAHAM","WA","98338"
250527,"5824 OKEMOS ROAD","HASLETT","MI","48840"
250528,"5824 SILVER MOON AVE","TAMPA","FL","33625"
250529,"5824 SONNY DRIVE","LOTHIAN","MD","20711"
250530,"5824 SUMMERWOOD DRIVE","GRAND PRAIRIE","TX","75052"
250531,"5824 W ROOSEVELT RD","CHICAGO","IL","60644"
250532,"5824 WESSEX AVE","FORT WORTH","TX","76133"
250533,"5824 WILLIAMSBURG LANDING DR","WILLIAMSBURG","VA","23185"
250534,"5824 YOLANDA DR","FORT WORTH","TX","76112"
250535,"5825 BIRDCAGE STREET APT 289","CITRUS HIGHTS","CA","95610"
250536,"5825 BROOKFIELD POINTE DRIVE","CHARLOTTE","NC","28216"
250537,"5825 BURGUNDY AVE","ALTA LOMA","CA","91737"
250538,"5825 DEERFIELD DRIVE","ALEXANDRIA","LA","71301"
250539,"5825 DELMONICO DR SUITE 200","COLORADO SPRINGS","CO","80919"
250540,"5825 DOYLE ST","CLIFTON","VA","20124"
250541,"5825 FALLS RIDGE LANE","CHARLOTTE","NC","28269"
250542,"5825 FOLSUM DR","MCKINNEY","TX","75070"
250543,"5825 GERMANTOWN AVENUE","PHILADELPHIA","PA","19144"
250544,"5825 JEFFERSON BLVD","FREDERICK","MD","21703"
250545,"5825 KINGS VIEW CT","SAN DIEGO","CA","92214"
250546,"5825 LAKE HUBBARD PARKWAY SUITE 706","GARLAND","TX","75043"
250547,"5825 LINCOLN AVENUE D481","BUENA PARK","CA","90620"
250548,"5825 MALLORY ROAD","COLLEGE PARK","GA","30349"
250549,"5825 PLANK ROAD SUITE 113","FREDERICKSBURG","VA","22407"
250550,"5825 S BAHNSON AVENUE","SIOUX FALLS","SD","57108"
250551,"5825 S M ST","TACOMA","WA","98408"
250552,"5825 SARDINIA DR","ROUND ROCK","TX","78665"
250553,"5825 SOUTH 1025 EAST","HUDSON","IN","46747"
250554,"5825 SOUTH 2ND AVE","EVERETT","WA","98208"
250555,"5825 SOUTH 2ND AVENUE","EVERETT","WA","98208"
250556,"5825 SUNSET DR 201","MIAMI","FL","33143"
250557,"5825 SW 117 ST","MIAMI","FL","33156"
250558,"5825 SW 117 STREET","CORAL GABLES","FL","33156"
250559,"5825 SW 68TH STREET SUITE 201","SOUTH MIAMI","FL","33143"
250560,"5825 TEAKWOOD LANE N UNIT G","PLYMOUTH","MN","55442"
250561,"5825 TRIPLETT SQUARE","NEW ALBANY","OH","43054"
250562,"5825 TRYON ROAD","CARY","NC","27518"
250563,"5825 W CORCORAN","CHICAGO","IL","60644"
250564,"5825 W RAMONA WAY","FRESNO","CA","93722"
250565,"5825 WESTCLIFFE DRIVE","SAINT LOUIS","MO","63129"
250566,"58250 SW HEBO RD","LONGVIEW","OR","98632"
250567,"58256 MCCORMICK CT","SOUTH LYON","MI","48178"
250568,"5826 BEECHCROFT ROAD","COLUMBUS","OH","43229"
250569,"5826 DEWEY STREET","HOLLYWOOD","FL","33023"
250570,"5826 GLENEAGLES CIRCLE","SAN JOSE","CA","95138"
250571,"5826 HIRONDEL","HOUSTON","TX","77033"
250572,"5826 NEW TERRITORY BLVD PMB 309","SUGAR LAND","TX","77479"
250573,"5826 NEW TERRITORY BLVD SUITE 311","SUGAR LAND","TX","77479"
250574,"5826 NEW TERRITORY BLVD SUITE 915","SUGAR LAND","TX","77479"
250575,"5826 POLO CLUB DR","ARLINGTON","TX","76017"
250576,"5826 PRENTISS","SAN ANTONIO","TX","78240"
250577,"5826 QUEENSLOCH DRIVE","HOUSTON","TX","77096"
250578,"5826 STIRLING ROAD","HOLLYWOOD","FL","33021"
250579,"5826 TAYWOOD DRIVE","TAMPA","FL","33624"
250580,"5827 4TH STREET NW","ALBUQUERQUE","NM","87107"
250581,"5827 CHARLOTTE DR APT B571","SAN JOSE","CA","95123"
250582,"5827 COLUMBIA PIKE SUITE 414","FALLS CHURCH","VA","22041"
250583,"5827 COLUMBIA PIKE UNIT 213","FALLS CHURCH","VA","22041"
250584,"5827 CORBIN AVE","TARZANA","CA","91356"
250585,"5827 LARCHWOOD DR","DISPUTANTA","VA","23842"
250586,"5827 SIMPLE LANE","LAWRENCE","KS","66049"
250587,"5827 W MARCONI AVE","GLENDALE","AZ","85306"
250588,"58275 193RD LANE","MANKATO","MN","56001"
250589,"5828 APACHE LANE","LYNCHBURG","VA","24502"
250590,"5828 ARBORLAWN DRIVE APT 1401","FORT WORTH","TX","76109"
250591,"5828 BAR DEL EAST DRIVE","INDIANAPOLIS","IN","46221"
250592,"5828 BLUE HERON DRIVE","LONG GROVE","IL","60047"
250593,"5828 E ELIDA ST","TUCSON","AZ","85712"
250594,"5828 FALCON AVE","EL PASO","TX","79924"
250595,"5828 HIGHTOWER DRIVE","SAINT LOUIS","MO","63128"
250596,"5828 JANET","SAINT LOUIS","MO","63136"
250597,"5828 LANCELOT DR","VIRGINIA BEACH","VA","23464"
250598,"5828 LINDA LANE","GARFIELD HEIGHTS","OH","44125"
250599,"5828 N ST LOUIS AVE","CHICAGO","IL","60659"
250600,"5828 NORTH HOPE STREET","PHILADELPHIA","PA","19120"
250601,"5828 PLATEAU CT","FT COLLINS","CO","80526"
250602,"5828 RESEARCH PARK BLVD","HUNTSVILLE","AL","35806"
250603,"5828 SW CHELTENHAM DRIVE","PORTLAND","OR","97239"
250604,"5828 TRAIL CREEK DRIVE","DUBLIN","OH","43016"
250605,"5828 W RICE STREET","CHICAGO","IL","60651"
250606,"5828 WEST 30TH STREET","SPEEDWAY","IN","46224"
250607,"5829 6TH AVE","KENOSHA","WI","53140"
250608,"5829 80TH STREET","MIDDLE VILLAGE","NY","11379"
250609,"5829 BUSH HILL DRIVE","ALEXANDRIA","VA","22310"
250610,"5829 DOLORES STREET","HOUSTON","TX","77057"
250611,"5829 DUSKYWING DR","ROCKLEDGE","FL","32955"
250612,"5829 GRAND NATIONAL DR","ORLANDO","FL","32819"
250613,"5829 LEE AVENUE","DOWNERS GROVE","IL","60516"
250614,"5829 NORTH ZIMMER ROAD","WILLIAMSTON","MI","48895"
250615,"5829 NW 88TH STREET","OKLAHOMA CITY","OK","73132"
250616,"5829 SPANISH PLACE","EL PASO","TX","79932"
250617,"583 BARLEY CT","SMYRNA","DE","19977"
250618,"583 BLACKWOOD ST","SACRAMENTO","CA","95815"
250619,"583 CARNABY RD","LATHROP","CA","95330"
250620,"583 CHOUTEAU POINT DRIVE","LOCUS GROVE","OK","74352"
250621,"583 COBBLESTONE LANE","BUFFALO GROVE","IL","60089"
250622,"583 COLES MEADOW ROAD","NORTHAMPTON","MA","01060"
250623,"583 E 191ST ST APT 2R","BRONX","NY","10458"
250624,"583 EMERSON DR","AMHERST","NY","14226"
250625,"583 GRANT ST","CLARKESVILLE","GA","30523"
250626,"583 KAMOKU ST APT 2805","HONOLULU","HI","96826"
250627,"583 KAMOKU STREET APT 2805","HONOLULU","HI","96826"
250628,"583 LEONARD RD","LAGRANGE","GA","30241"
250629,"583 MAPLE PARK DRIVE","MENDOTA HEIGHTS","MN","55118"
250630,"583 S EDGEWOOD AVE","ELMHURST","IL","60126"
250631,"583 SAW GRASS WAY","OAKLEY","CA","94561"
250632,"583 SHELDON AVE SE","GRAND RAPIDS","MI","49503"
250633,"583 SINCLAIR WAY","JONESBORO","GA","30238"
250634,"583 SMITH CHAPEL RD","CAMPOBELLO","SC","29322"
250635,"583 SUMMERS SCHOOL ROAD","MORGANTOWN","WV","26508"
250636,"583 US HWY 45","NORRIS CITY","IL","62869"
250637,"583 VADEN RD","ARKADELPHIA","AR","71923"
250638,"583 W THOMPSON PL","CHANDLER","AZ","85286"
250639,"5830 34TH STREET NORTH","BIRMINGHAM","AL","35207"
250640,"5830 CHAPEL RD","MADISON","OH","44057"
250641,"5830 CR 351","DUBLIN","TX","76446"
250642,"5830 DEMPSTER ST","MORTON GROVE","IL","60053"
250643,"5830 E 2ND ST STE  7000 NO1973","CASPER","WY","82609"
250644,"5830 E 2ND STE 8","CASPER","CA","82609"
250645,"5830 E 2ND STREET SUITE 7000 2146","CASPER","WY","82609"
250646,"5830 E 2ND STREET SUITE 7000-3298","CASPER","WY","82609"
250647,"5830 E 2ND STREET-SUITE 8","CASPER","WY","82609"
250648,"5830 EAST 2ND ST SUITE 7000 - 2913","CASPER","WY","82609"
250649,"5830 F AVE BLDG 408","HILL","UT","84056"
250650,"5830 FAIRVIEW FOREST DRIVE","HOUSTON","TX","77088"
250651,"5830 GOLDENEYE LANE","DALLAS","TX","75249"
250652,"5830 GRANITE PARKWAY SUITE 100","PLANO","TX","75024"
250653,"5830 GRANITE PKWY STE 100-225","PLANO","TX","75024"
250654,"5830 GREEN VALLEY CIR 106","CULVER CITY","CA","90230"
250655,"5830 ILLINOIS AVE","NEW PORT RICHEY","FL","34652"
250656,"5830 MILL ROAD","MOUNT  EDEN","KY","40046"
250657,"5830 N GLENWOOD AVE","CHICAGO","IL","60660"
250658,"5830 NORTH MELVINA","CHICAGO","IL","60646"
250659,"5830 NW 64TH AVE APT 210","TAMARAC","FL","33319"
250660,"5830 NW EXPRESSWAY PMB 128","OKLAHOMA CITY","OK","73132"
250661,"5830 NW EXPRESSWAY SUITE 239","OKLAHOMA CITY","OK","73132"
250662,"5830 NW EXPRESSWAY SUITE 340","OKLAHOMA CITY","OK","73132"
250663,"5830 OAKMOSS TRAIL","SPRING","TX","77379"
250664,"5830 ROYAL BEND","SAN ANTONIO","TX","78239"
250665,"5830 S SAYRE","CHICAGO","IL","60638"
250666,"5830 TINSLEY DR","ARLINGTON","TX","76017"
250667,"5830 W GREENBRIAR DR","GLENDALE","AZ","85308"
250668,"5830 W THUNDERBIRD RD SUITE B8 1018","GLENDALE","AZ","85306"
250669,"5830 W THUNDERBIRD RD SUITE B8 116","GLENDALE","AZ","85306"
250670,"5830 W THUNDERBIRD RD SUITE B8-1047","GLENDALE","AZ","85306"
250671,"5830 WEST PARK","CHARLOTTE","NC","28217"
250672,"5831 146TH ST","FLUSHING","NY","11354"
250673,"5831 ACACIA ROSE CT","RICHMOND","TX","77407"
250674,"5831 CORTE MARGARITA","PLEASANTON","CA","94566"
250675,"5831 LADY BUG LANE","MELROSE","FL","32666"
250676,"5831 MONTICELLO AVE","DALLAS","TX","75206"
250677,"5831 PICASSO PLACE","HOUSTON","TX","77096"
250678,"5831 RIVERDALE RD","ATLANTA","GA","30349"
250679,"5831 RUTH DRIVE","CHARLOTTE","NC","28215"
250680,"5831 S 58TH STREET SUITE B","LINCOLN","NE","68516"
250681,"5831 SUNNINGDALE LANE","HOPE MILLS","NC","28348"
250682,"5831 SUNNYGATE DR","SPRING","TX","77373"
250683,"5831 TAFT ST","ARVADA","CO","80004"
250684,"58317 WEAVER ROAD","UNION","OR","97883"
250685,"5832 BUTTERFIELD ST","RIVERVIEW","FL","33578"
250686,"5832 DEVERS DR C","INDIANAPOLIS","IN","46216"
250687,"5832 DREXEL ROAD","LAND O LAKES","FL","34638"
250688,"5832 ELON DR","ORLANDO","FL","32808"
250689,"5832 FAYETTEVILLE ROAD STE 105","DURHAM","NC","27713"
250690,"5832 GLENEDEN DRIVE","COLUMBUS","GA","31907"
250691,"5832 GOENER AVE APT A","SAINT  LOUIS","MO","63116"
250692,"5832 HARWOOD DR","DES MOINES","IA","50312"
250693,"5832 JACKSON STREET","ALEXANDRIA","LA","71303"
250694,"5832 LEMAY","DETROIT","MI","48213"
250695,"5832 LOBELIA WAY","LIVERMORE","CA","94551"
250696,"5832 NEWHARD MILL ROAD","RHODESDALE","MD","21659"
250697,"5832 S NETTLETON AVE","SPRINGFIELD","MO","65810"
250698,"5832 STRAWBERRY LAKES CIRCLE","LAKE WORTH","FL","33463"
250699,"5832 WEST DESERT COVE","GLENDALE","AZ","85304"
250700,"5832 WILKERSON ROAD","KNOXVILLE","TN","37912"
250701,"5833 ARSENAL STREET","SAINT LOUIS","MO","63139"
250702,"5833 CLINTON HIGHWAY SUITE 202","KNOXVILLE","TN","37912"
250703,"5833 FIELDCREST DR","GALLOWAY","OH","43119"
250704,"5833 GREENWAY VISTA LANE","CHARLOTTE","NC","28216"
250705,"5833 LOCKMERE PL","WALDORF","MD","20601"
250706,"5833 MEADOWS DEL MAR","SAN DIEGO","CA","92130"
250707,"5833 PENNYCROSS LANE","CHARLOTTE","NC","28216"
250708,"5833 ROANOKE ST","SAN DIEGO","CA","92139"
250709,"5833 S GOLDENROD SUITE B 151","ORLANDO","FL","32822"
250710,"5833 SARATOGA BOULEVARD 318","CORPUS CHRISTI","TX","78413"
250711,"5833 STUDENT STREET","WEST CARROLLTON","OH","45449"
250712,"5833 THOMAS JEFFERSON RD","FOREST","VA","24551"
250713,"5834 BRENWOOD GLEN TRAIL","KATY","TX","77449"
250714,"5834 E HAMILTON AVE","FRESNO","CA","93727"
250715,"5834 FAIRHILL DR SE","BUFFALO","MN","55313"
250716,"5834 LOCKTON LANE","FAIRWAY","KS","66205"
250717,"5834 MERCER LAKE ROAD","FLORENCE","OR","97439"
250718,"5834 MUSCADINE WAY","ZIONSVILLE","IN","46077"
250719,"5834 N PAULINA STREET STE 1S","CHICAGO","IL","60660"
250720,"5834 PETTUS ROAD","ANITOCH","TN","37013"
250721,"5834 SAWMILL ROAD","PARADISE","CA","95969"
250722,"5834 SOUTH HIGHWAY 37","MINEOLA","TX","75773"
250723,"5834 THOMAS STREET  APT 6","HOLLYWOOD","FL","33021"
250724,"5834 THOMPSON PLACE","TYLER","TX","75707"
250725,"5835 ACACIA ROSE COURT","RICHMOND","TX","77407"
250726,"5835 BELDART ST","HOUSTON","TX","77033"
250727,"5835 CAMPBELLTON RD SW STE 105","ATLANTA","GA","30331"
250728,"5835 EXECUTIVE CENTER DRIVE SUITE I","CHARLOTTE","NC","28212"
250729,"5835 FISH HATCHERY ROAD","GRANTS PASS","OR","97527"
250730,"5835 GOLDEN WEST TRAIL","LILBURN","GA","30047"
250731,"5835 GRAND AVENUE SUITE 105","DES MOINES","IA","50312"
250732,"5835 GRIFFITH DR","BRIGHTON","MI","48116"
250733,"5835 HERON DR","HOUSTON","TX","77033"
250734,"5835 HONORS DR","SAN DIEGO","CA","92122"
250735,"5835 INSKEEP AVE","LOS ANGELES","CA","90003"
250736,"5835 LARRY DEAN STREET","EASTVALE","CA","92880"
250737,"5835 MERWIN CHASE RD","BROOKFIELD","OH","44403"
250738,"5835 N VICTORIA DRIVE","INDIANAPOLIS","IN","46228"
250739,"5835 NESTLE COURT","RENO","NV","89511"
250740,"5835 OSAGE AVE","PHILADELPHIA","PA","19143"
250741,"5835 PARIS AVE","NEW ORLEANS","LA","70122"
250742,"5835 S NATCHEZ","CHICAGO","IL","60638"
250743,"5835 VICKERY BLVD","DALLAS","TX","75206"
250744,"5835 W FETLOCK TRAIL","PHOENIX","AZ","85083"
250745,"5835 WHITE CLOVER DR","RICHMOND","TX","77469"
250746,"5836 10TH AVE","NEW PORT RICHEY","FL","34652"
250747,"5836 BROME CIRCLE","WALBRIDGE","OH","43465"
250748,"5836 CORPORATE AVENUE SUITE 200","CYPRESS","CA","90630"
250749,"5836 CROSS CREEK CIR APT C","INDIANAPOLIS","IN","46254"
250750,"5836 DEWEY STREET","CHEVERLY","MD","20785"
250751,"5836 E ITHACA PLACE","DENVER","CO","80237"
250752,"5836 LEISURE LANE","PITTSBORO","IN","46167"
250753,"5836 LUDLOW STREET","PHILADELPHIA","PA","19139"
250754,"5836 MALVERN AVE","PHILADELPHIA","PA","19131"
250755,"5836 MCKELLAR DRIVE","SAN JOSE","CA","95129"
250756,"5836 N SAGE CREST DRIVE","MOUNTAIN GREEN","UT","84050"
250757,"5836 S PECOS BUILDING D 206","LAS VEGAS","NV","89120"
250758,"5836 S PECOS RD STE 104","LAS VEGAS","NV","89120"
250759,"5836 S PECOS ROAD  SUITE 204","LAS VEGAS","NV","89120"
250760,"5836 SANDSTONE WAY","JACKSONVILLE","FL","32258"
250761,"5836 VISTA AVE","SACRAMENTO","CA","95824"
250762,"5836 WAYNE AVE","KANSAS CITY","MO","64110"
250763,"5837 8TH STREET SOUTH","ST PETERSBURG","FL","33705"
250764,"5837 BIENVENUE AVE","MARRERO","LA","70072"
250765,"5837 COLLEEN DR","TROY","MI","48085"
250766,"5837 DE ZAVALA PO BOX 691972","SAN ANTONIO","TX","78269"
250767,"5837 EDGEWOOD BLVD","MONROE","MI","48161"
250768,"5837 HUMBERT STREET","FORT WORTH","TX","76107"
250769,"5837 MORGAN PLACE UNIT 88","STOCKTON","CA","95219"
250770,"5837 NW 56TH DR","CORAL SPRINGS","FL","33067"
250771,"5837 QUIET PINE CIRCLE","CHESTER","VA","23831"
250772,"5837 SARATOGA DRIVE","CRESTVIEW","FL","32536"
250773,"5837 SHAMBAUGH LANE","LOOMIS","CA","95650"
250774,"5837 VELASCO AVENUE APT 104","DALLAS","TX","75206"
250775,"5837 WEST SUNSET BLVD APT 406","LOS ANGELES","CA","90028"
250776,"58375 ELM ST","PLAQUEMINE","LA","70764"
250777,"5838 BATTLE CREEK RD SE","SALEM","OR","97306"
250778,"5838 DEVONSHIRE BLVD APT C","MIAMI","FL","33155"
250779,"5838 KATHRYN LANE","MATTESON","IL","60443"
250780,"5838 MARBLE CREEK ST","COLUMBUS","OH","43016"
250781,"5838 NW BANNISTER DR","PORTLAND","OR","97229"
250782,"5838 POWELL VALLEY RD","BIG STONE GAP","VA","24219"
250783,"5838 S ARCHER AVE ST 203","CHICAGO","IL","60638"
250784,"5839 DEGIVERVILLE","SAINT LOUIS","MO","63112"
250785,"5839 EAST WINDSOR AVENUE","SCOTTSDALE","AZ","85257"
250786,"5839 ELEVATION RD","BENSON","NC","27504"
250787,"5839 PATTON STREET","OAKLAND","CA","94618"
250788,"5839 W PARK AVE","SAINT LOUIS","MO","63110"
250789,"584 ALABAMA AVENUE","BROOKLYN","NY","11207"
250790,"584 BOUNDS ROAD","BYRAM","MS","39272"
250791,"584 CASTRO STREET - BOX 613","SAN FRANCISCO","CA","94114"
250792,"584 CASTRO STREET 3024","SAN FRANCISCO","CA","94114"
250793,"584 CASTRO STREET NO 492","SAN FRANCISCO","CA","94114"
250794,"584 CASTRO STREET NUMBER 624","SAN FRANCISCO","CA","94114"
250795,"584 CASTRO STREET SUITE 404","SAN FRANCISCO","CA","94114"
250796,"584 DAWN ROAD","MADISON","OH","44057"
250797,"584 E CREST RIDGE DR","MERIDIAN","ID","83642"
250798,"584 EPIRUS HILL ROAD","SOUTH ABINGTON TWP","PA","18411"
250799,"584 HORSE FERRY ROAD","LAWRENCEVILLE","GA","30044"
250800,"584 INVERNESS DRIVE","PACIFICA","CA","94044"
250801,"584 LOUISIANA DR","RAEFORD","NC","28376"
250802,"584 NW 27TH ST","MIAMI","FL","33127"
250803,"584 OLD POST RD","TOLLAND","CT","06084"
250804,"584 OTTER WAY","FREDERICA","DE","19946"
250805,"584 PENELOPE PL NE","CONCORD","NC","28025"
250806,"584 PO BOX","KETTLE FALLS","WA","99141"
250807,"584 RICHARDS ROAD","COLUMBUS","OH","43214"
250808,"584 ROCKDALE AVENUE","NEW BEDFORD","MA","02740"
250809,"584 SCHILLER AVE","AKRON","OH","44310"
250810,"584 SHADOW VALLEY COURT","LITHONIA","GA","30058"
250811,"584 SHAWNEE RUN","TAYLORSVILLE","KY","40071"
250812,"584 SHERMAN STREET","TECUMSEH","NE","68450"
250813,"584 SOUTH STATE STREET/SUITE 501","OREM","UT","84058"
250814,"584 TANGLEWOOD LANE","DEVON","PA","19333"
250815,"584 TETON CANYON ROAD","CHOTEAU","MT","59422"
250816,"584 THE BOULEVARD","NEWNAN","GA","30263"
250817,"584 TILLMAN STREET","HILLSIDE","NJ","07205"
250818,"584 VERDAE DRIVE","SPARTANBURG","SC","29301"
250819,"584 WEST BROAD STREET","COLUMBUS","OH","43215"
250820,"584","BENSALEM","PA","19020"
250821,"5840 AUTUMN DAMASK ST","LAS VEGAS","NV","89081"
250822,"5840 BENNER STREET UNIT 307","LOS ANGELES","CA","90042"
250823,"5840 CANTON STREET SOUTH","ST PETERSBURG","FL","33712"
250824,"5840 GULFTON STREET  1735","HOUSTON","TX","77081"
250825,"5840 N CANTON CENTER RD STE 290","CANTON","MI","48187"
250826,"5840 N CANTON CENTER ROAD STE 270","CANTON","MI","48187"
250827,"5840 N WILLOW BEND","MOUNTAIN GREEN","UT","84050"
250828,"5840 NAUGHTOR AVENUE NE","SAINT MICHAEL","MN","55376"
250829,"5840 NW 31ST AVENUE","MIAMI","FL","33142"
250830,"5840 NW 52ND STREET","JOHNSTON","IA","50131"
250831,"5840 QUAIL AVENUE NORTH","CRYSTAL","MN","55429"
250832,"5840 RED BUG LAKE ROAD 1573","WINTER SPRINGS","FL","32708"
250833,"5840 RED BUG LAKE ROAD SUITE 1536","WINTER SPRINGS","FL","32708"
250834,"5840 RED BUG LAKE ROAD UNIT 1571","WINTER SPRINGS","FL","32708"
250835,"5840 SAN FELIPE ST","HOUSTON","TX","77057"
250836,"5840 SW 113TH PLACE","WEBSTER","FL","33597"
250837,"58408 SUNNYSLOPE DR","YUCCA VALLEY","CA","92284"
250838,"5841 E CHARLESTON BLVD 230","LAS VEGAS","NV","89142"
250839,"5841 FITZTOWN ROAD","VIRGINIA BEACH","VA","23457"
250840,"5841 NW 122 DR","CORAL SPRINGS","FL","33076"
250841,"5841 NW 61ST AVE UNIT 303","TAMARAC","FL","33319"
250842,"5841 S BLACKSTONE APT 101","CHICAGO","IL","60637"
250843,"5841 SOUTH MARYLAND AVENUE  MC1030","CHICAGO","IL","60637"
250844,"5841 W 4600 S","HOOPER","UT","84315"
250845,"5841 W DIVISION","CHICAGO","IL","60651"
250846,"5841 WHITMORE LAKE RD SUITE C","BRIGHTON","MI","48116"
250847,"5842 FAYETTEVILLE ROAD SUITE 204","DURHAM","NC","27713"
250848,"5842 LUND STREET","JUNEAU","AK","99801"
250849,"5842 SUGAR GROVE ROAD","SUGAR GROVE","OH","43155"
250850,"58428 DEERFIELD DR","WASHINGTON TWP","MI","48094"
250851,"5843  CR 400","FREEPORT","TX","77541"
250852,"5843 CALUMET ROAD","SOUTH HAVEN","MN","55382"
250853,"5843 GRAND REUNION DR","HOSCHTON","GA","30548"
250854,"5844 BELAIR RD","BALTIMORE","MD","21206"
250855,"5844 CHAPARRAL TRAIL","BEEVILLE","TX","78102"
250856,"5844 MERIWETHER PLACE","SARASOTA","FL","34232"
250857,"5844 ROBERT DRIVE","BROOK PARK","OH","44142"
250858,"5845 240TH STREET N","FOREST LAKE","MN","55025"
250859,"5845 BROOKFLOWER CIRCLE LANE E","LAKE CHARLES","LA","70605"
250860,"5845 BRUSHWOOD CT","CHINO HILLS","CA","91709"
250861,"5845 CRANE PLACE","ORLANDO","FL","32807"
250862,"5845 E KIMBRYER LANE","INVERNESS","FL","34452"
250863,"5845 EL CAMINO RD","LAS VEGAS","NV","89118"
250864,"5845 FRIARS ROAD 1216","SAN DIEGO","CA","92110"
250865,"5845 HIGH CLIFF COURT","WESTLAKE VILLAGE","CA","91362"
250866,"5845 IRVING AVE","LA CRESCENTA","CA","91214"
250867,"5845 MAUD HUGHES RD","LIBERTY TOWNSHIP","OH","45011"
250868,"5845 PEARL OYSTER LN","FORT WORTH","TX","76179"
250869,"5845 SPRINGFIELD","DETROIT","MI","48213"
250870,"5845 THURGOOD CIRCLE NORTH","JACKSONVILLE","FL","32219"
250871,"5845 W FOSTER AVE","CHICAGO","IL","60630"
250872,"58456 ROCKY POINT LN","NEW LONDON","MO","63459"
250873,"5846 CLEMENS","SAINT LOUIS","MO","63112"
250874,"5846 CRAVEN ROAD","EMMETT","MI","48022"
250875,"5846 DEMOCRACY DR","INDIANAPOLIS","IN","46254"
250876,"5846 LILLIAN LANE","MORROW","GA","30260"
250877,"5846 RED COAT LANE","WEST BLOOMFIELD","MI","48322"
250878,"5846 SOUTH FLAMINGO RD SUITE 501","COOPER CITY","FL","33330"
250879,"5847 BLUE SAGE DRIVE","PALMDALE","CA","93552"
250880,"5847 RAMSEY ST ASCOT PLAZA SUITE A","FAYETTEVILLE","NC","28311"
250881,"5847 SAN FELIPE STREET SUITE 1700","HOUSTON","TX","77057"
250882,"5847 WEST 6TH STREET","LOS ANGELES","CA","90036"
250883,"5848 CONSTITUTION ST","AVE MARIA","FL","34142"
250884,"5848 E 145TH ST S","BIXBY","OK","74008"
250885,"5848 GLEN HAVEN DR","GREENDALE","WI","53129"
250886,"5848 MONTROSE STREET","PHILADELPHIA","PA","19143"
250887,"5848 PLUNKETT ST","HOLLYWOOD","FL","33023"
250888,"5848 RACEHORSE LOOP","HELENA","MT","59602"
250889,"5848 S PRINCETON","CHICAGO","IL","60621"
250890,"5848 SANTA FE WAY","NORTH HIGHLANDS","CA","95660"
250891,"5848 SEGENETTE DR","MARRERO","LA","70072"
250892,"5848 SOUTH LAWNDALE","CHICAGO","IL","60629"
250893,"5848 VISTA AVE","SACRAMENTO","CA","95824"
250894,"5849 1ST AVE N","TOWNER","ND","58788"
250895,"5849 CATES AVE","SAINT LOUIS","MO","63112"
250896,"5849 COLFAX AVENUE NORTH","MINNEAPOLIS","MN","55430"
250897,"5849 FIDLER AVENUE","LAKEWOOD","CA","90712"
250898,"5849 KINGSFIELD","WEST BLOOMFIELD","MI","48322"
250899,"5849 N 74TH STREET","MILWAUKEE","WI","53218"
250900,"5849 SHETLAND CIRCLE","FRISCO","TX","75034"
250901,"5849 SOUTH MANSFIELD AVE","LOS ANGELES","CA","90043"
250902,"5849 SYCAMORE RIDGE DRIVE","SUGAR HILL","GA","30518"
250903,"5849 WASHINGTON STREET APT 79","HOLLYWOOD","FL","33023"
250904,"585 127TH LANE NW","COON RAPIDS","MN","55448"
250905,"585 BARKWORTH ROAD","CLEMMONS","NC","27012"
250906,"585 BELANGER DRIVE","NIPOMO","CA","93444"
250907,"585 CENTER STREET","IVINS","UT","84738"
250908,"585 CLAREMONT AVE","ROCKINGHAM","VA","22801"
250909,"585 DONNA DR","MATTITUCK","NY","11952"
250910,"585 E CENTER ST","IVINS","UT","84738"
250911,"585 EAST QUAIL ROAD","OREM","UT","84097"
250912,"585 GRANDE RIO DRIVE","WOODBRIDGE","CA","95258"
250913,"585 GREASY COVE ROAD","HUNTLAND","TN","37345"
250914,"585 HAMILTON STREET","SPRINGFIELD","OR","97477"
250915,"585 HICKAM AVE BLDG 181","TRAVIS AFB","CA","95687"
250916,"585 ISLAND DRIVE","WHITE LAKE","MI","48386"
250917,"585 JEFFERSON AVE","FAYETTEVILLE","GA","30214"
250918,"585 LIST AVENUE","ROCHESTER","NY","14617"
250919,"585 LONGSHORE DR","FLORENCE","AL","35634"
250920,"585 MAPLEWOOD RD","WEST NEWFIELD","ME","04095"
250921,"585 MCWILLIAMS RD SE UNIT 1105","ATLANTA","GA","30315"
250922,"585 MINI DRIVE","VALLEJO","CA","94589"
250923,"585 MONTGOMERY ROAD","HILLSBOROUGH","NJ","08844"
250924,"585 N HOPPER ROAD","MODESTO","CA","95357"
250925,"585 NEILL CEMETERY DRIVE","SAVANNAH","TN","38372"
250926,"585 NEWARK AVE APT 4A","ELIZABETH","NJ","07208"
250927,"585 OCEAN SHORE BLVD","ORMOND BEACH","FL","32176"
250928,"585 PEACHTREE PARKWAY","CUMMING","GA","30041"
250929,"585 POINT BROWN AVE NW","OCEAN SHORES","WA","98569"
250930,"585 PROSPECT STREET","MAPLEWOOD","NJ","07040"
250931,"585 QUAIL ROAD","OREM","UT","84097"
250932,"585 RIVERSIDE DRIVE","PAINESVILLE","OH","44077"
250933,"585 SHILOH HEIGHTS RD","AIKEN","SC","29801"
250934,"585 SILO HILL RD","LORENA","TX","76655"
250935,"585 SOLANCO RD","QUARRYVILLE","PA","17566"
250936,"585 SOUTH ALTON WAY 4C","DENVER","CO","80247"
250937,"585 SUMMERLIN STREET","BARTOW","FL","33830"
250938,"585 TECHNOLOGY PARK","LAKE MARY","FL","32746"
250939,"585 THORNTON WAY","ASHLAND","OR","97520"
250940,"585 TROY SCHENECTADY RD","LATHAM","NY","12110"
250941,"585 VAN KIRK STREET","PHILADELPHIA","PA","19120"
250942,"585 WILLOW AVE","HAYWARD","CA","94541"
250943,"585 WINDSPIRIT CIRCLE","PRESCOTT","AZ","86303"
250944,"585 WOODWARD DRIVE","FAYETTEVILLE","GA","30215"
250945,"585 WYARNO ROAD","SHERIDAN","WY","82801"
250946,"5850 CAMERON RUN TER APT 909","ALEXANDRIA","VA","22303"
250947,"5850 CANOGA AVE STE 400","WOODLAND HILLS","CA","91367"
250948,"5850 CANOGA AVE SUITE 400","WOODLAND HILLS","CA","91367"
250949,"5850 CANOGA AVE","WOODLAND HILLS","CA","91367"
250950,"5850 CHARON LN APT 100","MADISON","WI","53718"
250951,"5850 COMMERCE BLVD SUITE 100","ROHNERT PARK","CA","94928"
250952,"5850 CR 3918","ATHENS","TX","75752"
250953,"5850 E BUTTE ST","MESA","AZ","85205"
250954,"5850 E STILL CIR","MESA","AZ","85206"
250955,"5850 GLASSPORT LANE","CHARLOTTE","NC","28210"
250956,"5850 GRANITE PARKWAY STE 900","PLANO","TX","75024"
250957,"5850 GRANITE PARKWAY SUITE 215","PLANO","TX","75024"
250958,"5850 GRANITE PARKWAY SUITE 900","PLANO","TX","75024"
250959,"5850 GRANITE PKWY STE 215","PLANO","TX","75024"
250960,"5850 GRANITE PKWY STE 900","PLANO","TX","75024"
250961,"5850 HILLANDALE DRIVE APT 224","LITHONIA","GA","30058"
250962,"5850 HUBBARD DRIVE","ROCKVILLE","MD","20852"
250963,"5850 LAKESHORE DR","ANN ARBOR","MI","48108"
250964,"5850 MAIN ST","MILLBROOK","AL","36054"
250965,"5850 NW 111TH AVENUE","DORAL","FL","33178"
250966,"5850 OPUS PARKWAY  SUITE 120","MINNETONKA","MN","55343"
250967,"5850 OPUS PARKWAY SUITE 250","MINNETONKA","MN","55343"
250968,"5850 PETERSON LOOP","FORT BELVOIR","VA","22060"
250969,"5850 POLARIS AVE SUITE 1400","LAS VEGAS","NV","89118"
250970,"5850 SAN FELIPE ST  SUITE 500","HOUSTON","TX","77057"
250971,"5850 SPRINGBOX DR","SUWANEE","GA","30024"
250972,"5850 STRASBOURG COURT","RENO","NV","89511"
250973,"5850 W GLENDALE AVE STE B-51","GLENDALE","AZ","85301"
250974,"5850 W GLENDALE AVE STE B51","GLENDALE","AZ","85301"
250975,"5850 W GLENDALE AVENUE SUITE B-51","GLENDALE","AZ","85301"
250976,"5850 W TIFFIN ST PO BOX 133","BASCOM","OH","44809"
250977,"5850","PLANO","TX","75024"
250978,"5851 BARNES RD","HOLLAND","TX","76534"
250979,"5851 CAMINO DEL SOL APT 104","BOCA RATON","FL","33433"
250980,"5851 CHAPELWOOD WAY","DALLAS","TX","75228"
250981,"5851 FEEZOR ROAD","FARMINGTON","MO","63640"
250982,"5851 HERONPARK PLACE","LITHIA","FL","33547"
250983,"5851 HOLMBERG RD  UNIT 1414","PARKLAND","FL","33067"
250984,"5851 HOLMBERG RD 1414","PARKLAND","FL","33067"
250985,"5851 KOVARIK RD","WICHITA FALLS","TX","76310"
250986,"5851 MAC ARTHUR BOULEVARD","OAKLAND","CA","94605"
250987,"5851 NE 96TH AVE","BRONSON","FL","32621"
250988,"5851 NORTH LAKESHORE DRIVE","SHREVEPORT","LA","71107"
250989,"5851 SANTA BARBARA AVE","GARDEN GROVE","CA","92845"
250990,"5851 ST RD 62","FRIENDSHIP","IN","47021"
250991,"5851 WEST 82ND STREET","BURBANK","IL","60459"
250992,"5851 WESTCHASE ST","ATLANTA","GA","30336"
250993,"5851 WINDSONG DR","STANSBURY PARK","UT","84074"
250994,"5852 CHIMNEY SPRINGS RD","BUFORD","GA","30518"
250995,"5852 DAISY CREEK CT","LAS VEGAS","NV","89141"
250996,"5852 HAMILTON AVENUE","CINCINNATI","OH","45224"
250997,"5852 MCASHAN RIDGE ROAD","MC CALLA","AL","35111"
250998,"5852 S PRAIRIE ST UNIT-2","CHICAGO","IL","60637"
250999,"5852 STATE HIGHWAY 56","HANNAWA FALLS","NY","13647"
251000,"5853 COPPER LAKE DR","JACKSONVILLE","FL","32218"
