"ID","Address","City","State","Zip"
299501,"8297 COTTONWOOD AVE 35","FONTANA","CA","92335"
299502,"8298 STORROW DRIVE","WESTERVILLE","OH","43081"
299503,"8299 HIGHWAY 166","DOUGLASVILLE","GA","30135"
299504,"8299 RIVERDALE ST","DEARBORN HEIGHTS","MI","48127"
299505,"82998 562 AVE","STANTON","NE","68779"
299506,"82A MANOR RD","HUNTINGTON","NY","11743"
299507,"83 APRICOT AVE","LEOLA","PA","17540"
299508,"83 ARNOLD AVENUE","MOUNT HOLLY","NJ","08060"
299509,"83 ARTESIA DRIVE","CHICO","CA","95973"
299510,"83 BOSTON POST ROAD","WATERFORD","CT","06385"
299511,"83 BRIAR PATCH ROAD","PHILIPPI","WV","26416"
299512,"83 BRIDGE STREET","SAINT AUGUSTINE","FL","32084"
299513,"83 BURROUGHS DRIVE","AMHERST","NY","14226"
299514,"83 CANAL STREET SUITE 611","NEW YORK","NY","10002"
299515,"83 CANE CREEK DRIVE","QUINTON","AL","35130"
299516,"83 CASTELLAN DRIVE","GREER","SC","29650"
299517,"83 CERCLE DE LA CERESE","SPARKS","NV","89434"
299518,"83 CHARLES ST","DUMONT","NJ","07628"
299519,"83 CHESTNUT ST SOUTH","LIVINGSTON","NJ","07039"
299520,"83 CHESTNUT ST","SAUGUS","MA","01906"
299521,"83 CHURCH ST","WHITINSVILLE","MA","01588"
299522,"83 CHURCH STREET","WINCHESTER","MA","01890"
299523,"83 COVINGTON DRIVE","SHREWSBURY","PA","17361"
299524,"83 CRESCENT STREET","GREENFIELD","MA","01301"
299525,"83 DANBURY COURT","ALAMO","CA","94507"
299526,"83 DELAFIELD PL","STATEN ISLAND","NY","10310"
299527,"83 DIVISION ST","GROTON","CT","06340"
299528,"83 DOBBS DRIVE","COLUMBUS","MS","39701"
299529,"83 DOUGLAS AVENUE","MCKENZIE","TN","38201"
299530,"83 DRESSER STREET","BOSTON","MA","02127"
299531,"83 EAST 56TH STREET","BROOKLYN","NY","11203"
299532,"83 EAST MAIN STREET","WESTMINSTER","MD","21157"
299533,"83 ELIZABETH AVE","NEWARK","NJ","07108"
299534,"83 EMERALD RIDGE","AIKEN","SC","29803"
299535,"83 ENCANTO LANE","SAN LUIS OBISPO","CA","93401"
299536,"83 FAIRMOUNT AVE UNIT 1","HYDE PARK","MA","02136"
299537,"83 FRANCES AVENUE","STANHOPE","NJ","07874"
299538,"83 GARVINS FALLS RD","CONCORD","NH","03301"
299539,"83 GELSTON AVENUE","BROOKLYN","NY","11209"
299540,"83 GLEN ROAD","WOODCLIFF LAKE","NJ","07677"
299541,"83 GRANBY STREET","SPRINGFIELD","MA","01108"
299542,"83 GREEN PASTURES LANE","LACROSSE","VA","23950"
299543,"83 HAMMOND ROAD","JAYESS","MS","39641"
299544,"83 HANOHANO STREET","HILO","HI","96720"
299545,"83 HIGHLAND STREE","CANTON","MA","02021"
299546,"83 HOOK MOUNTAIN RPAD","MONTVILLE","NJ","07045"
299547,"83 HOSKINS ST","HESPERIA","MI","49421"
299548,"83 IKENA KAI PL","KULA","HI","96790"
299549,"83 JOHNSON ST","TRUMBULL","CT","06611"
299550,"83 JORDAN STREET","BROCKTON","MA","02302"
299551,"83 KILVERT STREET","WARWICK","RI","02886"
299552,"83 KNOLLWOOD DR","BETHEL","CT","06801"
299553,"83 LAKEVIEW AVENE","CAMBRIDGE","MA","02138"
299554,"83 LAZELL STREET","HINGHAM","MA","02043"
299555,"83 LORING","WINTRHOP","MA","02152"
299556,"83 MAGNOLIA WAY","NORTH HALEDON","NJ","07508"
299557,"83 MAGOUN PATH","MARSHFIELD","MA","02050"
299558,"83 MAIN STREET - UNIT D-2","TARRYTOWN","NY","10591"
299559,"83 MAIN STREET","CHESTER","CT","06412"
299560,"83 MARTZ DRIVE","RINGGOLD","GA","30736"
299561,"83 MEADOW VIEW DR","SYLVA","NC","28779"
299562,"83 MEADOW VIEW DRIVE","SYLVA","NC","28779"
299563,"83 MEMORIAL PARK AVE","LYNN","MA","01902"
299564,"83 MILLS STREET","DOTHAN","AL","36303"
299565,"83 MORGAN STREET SUITE D","STAMFORD","CT","06905"
299566,"83 N PARK BLVD","GLEN ELLYN","IL","60137"
299567,"83 NE HOLMAN ST","PORTLAND","OR","97211"
299568,"83 NORFOLK ST","FALL RIVER","MA","02720"
299569,"83 NORTH 4TH STREET","ALLEGANY","NY","14706"
299570,"83 NORWOOD AVE","STATEN ISLAND","NY","10304"
299571,"83 NOTTINGHAM LANE","SANFORD","NC","27330"
299572,"83 PEABODY STREET","MIDDLETON","MA","01949"
299573,"83 PINE STREET UNIT F","PEABODY","MA","01960"
299574,"83 PLEASANT STREET","ANTRIM","NH","03440"
299575,"83 QUEENS COURT","NEWPORT NEWS","VA","23606"
299576,"83 RICHTON","HIGHLAND PARK","MI","48203"
299577,"83 RIDGE TERRACE","NEPTUNE CITY","NJ","07753"
299578,"83 RIDGEVIEW ACRES ROAD","VICKSBURG","MS","39180"
299579,"83 RIVIERA DR","SELDEN","NY","11784"
299580,"83 S PALM ST","VENTURA","CA","93001"
299581,"83 SE JEROME STREET","OAK HARBOR","WA","98277"
299582,"83 SHERMAN PLACE","JERSEY CITY","NJ","07307"
299583,"83 SPRING VALLEY ROAD","BELMONT","MA","02478"
299584,"83 SPRINGDALE DRIVE","NEWPORT NEWS","VA","23608"
299585,"83 SPRINGFIELD CIRCLE","MIDDLETOWN","DE","19709"
299586,"83 STANLEY ROAD","SPRINGVALE","ME","04083"
299587,"83 STONECREEK COURT","EPHRATA","PA","17522"
299588,"83 SWIFT STREET","QUINCY","FL","32351"
299589,"83 SYCAMORE COURT","LAWRENCEVILLE","NJ","08648"
299590,"83 TEMPLE STREET 2ND FLOOR","PATERSON","NJ","07522"
299591,"83 TOWNSEND STREET","WALTON","NY","13856"
299592,"83 VALLEY RD","BERWICK","PA","18603"
299593,"83 VICTORIA SPRINGS DRIVE","FLAT ROCK","NC","28731"
299594,"83 WARREN AVENUE","BOSTON","MA","02116"
299595,"83 WATERMAN AVE","EAST LONGMEADOW","MA","01028"
299596,"83 WESTERN LEDGE RD","BOOTHBAY","ME","04537"
299597,"83 WESTERVELT PLACE","PASSAIC","NJ","07055"
299598,"83 WILLIAMSON AVE","BLOOMFIELD","NJ","07003"
299599,"83 WILMINGTON DRIVE","PETALUMA","CA","94952"
299600,"83 WILMORE ROAD","LITTLE FALLS","NJ","07424"
299601,"83 WINTHROP ST APT 4A","BROOKLYN","NY","11225"
299602,"83 WOLTZ AVE - FRONT","BUFFALO","NY","14212"
299603,"83-10 35TH AVENUE 4U","JACKSON HEIGHTS","NY","11372"
299604,"83-13 133RD AVE","OZONE PARK","NY","11417"
299605,"83-33 AUSTIN STREET APT 3C","KEW GARDENS","NY","11415"
299606,"83-5295 MIDDLE KEEI ROAD","CAPTAIN COOK","HI","96704"
299607,"83-5437 PAINTED CHURCH ROAD","CAPTAIN COOK","HI","96704"
299608,"83-5502 MAMALAHOA HWY","CAPTAIN COOK","HI","96704"
299609,"83-669 KEEI BEACH ROAD","CAPTAIN COOK","HI","96704"
299610,"83-85 WOODHAVEN BLVD APT 2S","NEW YORK","NY","11421"
299611,"83","PROVIDENCE FORGE","VA","23140"
299612,"830  TRAIL RIDGE DRIVE","LOUISVILLE","CO","80027"
299613,"830 11TH STREET EAST SUITE 218","GLENCOE","MN","55336"
299614,"830 13TH STREET","BOULDER","CO","80302"
299615,"830 1ST STREET","FAIRFIELD","CA","94533"
299616,"830 A1A N STE 13 BOX 123","PONTE VEDRA BEACH","FL","32082"
299617,"830 A1A NORTH SUITE 13-116","PONTE VEDRA BEACH","FL","32082"
299618,"830 ALLEN LAKE LN","SUWANEE","GA","30024"
299619,"830 ALTMAN RD","WAUCHULA","FL","33873"
299620,"830 APPLE VALLEY DRIVE","LANCASTER","TX","75134"
299621,"830 AUBURN AVE","PONTIAC","MI","48342"
299622,"830 BELLVIEW STREET","WINSTON SALEM","NC","27103"
299623,"830 BELMONTE PARK NORTH","DAYTON","OH","45405"
299624,"830 BLUE RIDGE DRIVE","PROSPER","TX","75078"
299625,"830 CARLOW DR","DES PLAINES","IL","60016"
299626,"830 CENTRAL AVE","MATTESON","IL","60443"
299627,"830 CLOVER RIDGE COURT","ITASCA","IL","60143"
299628,"830 COLONIAL DRIVE","WEST PALM BEACH","FL","33405"
299629,"830 COLUMBUS AVENUE","NEW YORK","NY","10025"
299630,"830 COUNTY ROAD 1200","MINCO","OK","73059"
299631,"830 CRAWFORD WILSON RD P O BOX 204","AMITY","AR","71921"
299632,"830 DAYTON ST","AURORA","CO","80010"
299633,"830 DENIO AVE","GILROY","CA","95020"
299634,"830 DOGWOOD DRIVE","RED BAY","AL","35582"
299635,"830 E 147TH STREET APT 1B","BRONX","NY","10455"
299636,"830 E 39TH STREET","TUCSON","AZ","85713"
299637,"830 E BISHOP STREET","BELLEFONTE","PA","16823"
299638,"830 E NUEVO RD","PERRIS","CA","92571"
299639,"830 E PALMDALE BLVD STE 5029","PALMDALE","CA","93550"
299640,"830 EAST 6TH STREET SUITE B","PLAINFIELD","NJ","07062"
299641,"830 EAST ELIZABETH STREET","PASADENA","CA","91104"
299642,"830 EAST LANDIS AVE","VINELAND","NJ","08360"
299643,"830 EAST OAKLAND PARK BLVD 108","OAKLAND PARK","FL","33334"
299644,"830 EAST VILLAGE DR","NEWARK","OH","43055"
299645,"830 ELLEN STREET","SARALAND","AL","36571"
299646,"830 ELTON AVENUE APT 3A","BRONX","NY","10451"
299647,"830 EWELLING LN","NEW BRAUNFELS","TX","78130"
299648,"830 FIRST STREET","FAIRFIELD","CA","94533"
299649,"830 GLENWOOD AVE SE UNIT 510110","ATLANTA","GA","30316"
299650,"830 GLENWOOD AVENUE UNIT 132","ATLANTA","GA","30316"
299651,"830 GUNNISON AVENUE","GRAND JUNCTION","CO","81501"
299652,"830 HENRY HALE PLACE","NASHVILLE","TN","37203"
299653,"830 KINGS PARK RD","MONROE","MI","48161"
299654,"830 KLOCKNER RD","HAMILTON","NJ","08619"
299655,"830 LINGERING PINE DR NW","ISSAQUAH","WA","98027"
299656,"830 LIVE OAK AVE","ORANGE CITY","FL","32763"
299657,"830 Locksley Dr","Charleston","SC","29407"
299658,"830 MAIN STREET SUITE 900","CINCINNATI","OH","45202"
299659,"830 MANHATTAN BEACH ROAD","SEVERNA PARK","MD","21146"
299660,"830 MAYFIELD RD STE 340","GRAND PRAIRIE","TX","75052"
299661,"830 MAYFIELD RD SUITE 120","GRAND PRAIRIE","TX","75052"
299662,"830 MCKINLEY PLACE S","ST CLOUD","MN","56301"
299663,"830 N 5TH ST","SILSBEE","TX","77656"
299664,"830 N 7TH ST","AUMSVILLE","OR","97325"
299665,"830 N ARGONAUT STREET","STOCKTON","CA","95203"
299666,"830 NE WINFIELD AVE","TOPEKA","KS","66616"
299667,"830 NELSO DRIVE","KINGSTON","TN","37763"
299668,"830 NORTH RAMPART STREET","NEW ORLEANS","LA","70116"
299669,"830 NW 79TH AVE","MARGATE","FL","33063"
299670,"830 OAK CREEK PL","SPRING CREEK","NV","89815"
299671,"830 OAKLEY DR","FREEHOLD","NJ","07728"
299672,"830 OLD EDGEMOOR LN","CLINTON","TN","37716"
299673,"830 OREGON AVENUE","SAN MATEO","CA","94402"
299674,"830 PINE GROVE RD","HANOVER","PA","17331"
299675,"830 RALEIGH RD","GLENVIEW","IL","60025"
299676,"830 REBECCA DRIVE","BOULDER CREEK","CA","95006"
299677,"830 ROCKFISH RD","RAEFORD","NC","28376"
299678,"830 S 19TH AVE","MAYWOOD","IL","60153"
299679,"830 S 20TH AVE","SAFFORD","AZ","85546"
299680,"830 S 2ND ST  APT 177","COSHOCTON","OH","43812"
299681,"830 S BRONSON AVENUE","LOS ANGELES","CA","90005"
299682,"830 S FLOWER STREET  SUITE 4","INGLEWOOD","CA","90301"
299683,"830 S PALMWAY","LAKE WORTH BEACH","FL","33460"
299684,"830 S PARK AVE","MEDFORD","WI","54451"
299685,"830 SAINT PAUL STREET","DENVER","CO","80206"
299686,"830 SE MARTIN LUTHER KING JR BLVD","STUART","FL","34994"
299687,"830 SEABREEZE TERRACE","COOS BAY","OR","97420"
299688,"830 SHERIDAN DR","WAUCONDA","IL","60084"
299689,"830 SHORE GROVE CIRCLE SUITE 103","AUBURN HILLS","MI","48326"
299690,"830 SINCLAIR AVENUE","STATEN ISLAND","NY","10309"
299691,"830 SNODGRASS RD","ELLENSBURG","WA","98926"
299692,"830 SOUTH 24TH WEST ST","SAINT JOHNS","AZ","85936"
299693,"830 SOUTH D ST","BROKEN BOW","NE","68822"
299694,"830 SOUTHERN BOULEVARD 4TH FLOOR","BRONX","NY","10459"
299695,"830 ST MARKS AVENUE","BROOKLYN","NY","11213"
299696,"830 STADLER COVE","CIBOLO","TX","78108"
299697,"830 STEWART DRIVE SUITE 135","SUNNYVALE","CA","94085"
299698,"830 SW 355TH CT","FEDERAL WAY","WA","98023"
299699,"830 TAFT ROAD","HUNTINGTON","VT","05462"
299700,"830 TALONA MTN RD","ELLIJAY","GA","30536"
299701,"830 TRACTION AVE 3A","LOS ANGELES","CA","90013"
299702,"830 TRACTION AVENUE 3A","LOS ANGELES","CA","90013"
299703,"830 TUTTLE RD","BIG SANDY","MT","59520"
299704,"830 UNION ST 3RD FLOOR","NEW ORLEANS","LA","70112"
299705,"830 VILLAGE WAY","PALM HARBOR","FL","34683"
299706,"830 VIVIAN ST","LAKEWOOD","CO","80401"
299707,"830 W 18TH ST","CHICAGO","IL","60608"
299708,"830 W 18TH ST","CHICAGO","IL","60609"
299709,"830 W BONITA AVE","CLAREMONT","CA","91711"
299710,"830 W DAVIS ST","FAYETTEVILLE","AR","72703"
299711,"830 W MONTROSE ST","CLERMONT","FL","34711"
299712,"830 W ROUTE 22 STE 127","LAKE ZURICH","IL","60047"
299713,"830 WELSH RD /37","HUNTINGDON VY","PA","19006"
299714,"830 WELSH RD 37","HUNTINGDON VALLEY","PA","19006"
299715,"830 WEST 6TH STREET","DAVENPORT","IA","52802"
299716,"830 WEST LAKE MANN DRIVE","ORLANDO","FL","32805"
299717,"830 WEST PREVO ROAD","LINWOOD","MI","48634"
299718,"830 WESTVIEW DRIVE SW","ATLANTA","GA","30314"
299719,"830 WESTVIEW DRIVE SW/ KILGORE STE","ATLANTA","GA","30314"
299720,"830 WHITCOMB WOODS DRIVE","TROY","MO","63379"
299721,"830 WOLFE LANE","ADA","OK","74820"
299722,"830-13 A1A NORTH 245","PONTE VEDRA","FL","32082"
299723,"830","CHURCH POINT","LA","70525"
299724,"8300 160TH AVE NE STE 105","REDMOND","WA","98052"
299725,"8300 ANASTASIA AVENUE","BEAUMONT","TX","77705"
299726,"8300 BEVERLY BLVD","LOS ANGELES","CA","90048"
299727,"8300 BOONE BLVD STE 500","VIENNA","VA","22182"
299728,"8300 BOONE BLVD SUITE 550","VIENNA","VA","22182"
299729,"8300 BOONE BOULEVARD SUITE 620","VIENNA","VA","22182"
299730,"8300 BRIDLE DALE CR","LENEXA","KS","66220"
299731,"8300 BROADWAY SUITE H-1","MERRIVILLE","IN","46410"
299732,"8300 BUSTLETON AVE","PHILADELPHIA","PA","19152"
299733,"8300 CANYON ST APT 524","HOUSTON","TX","77051"
299734,"8300 CYPRESS CREEK PKWY STE 200","HOUSTON","TX","77070"
299735,"8300 CYPRESS CREEK PKWY STE 450","HOUSTON","TX","77070"
299736,"8300 E DIXILETA DR UNIT 301","SCOTTSDALE","AZ","85266"
299737,"8300 EL MUNDO ST APT 311","HOUSTON","TX","77054"
299738,"8300 FALLS OF NEUSE ROAD STE 110","RALEIGH","NC","27615"
299739,"8300 FENKELL ST","DETROIT","MI","48238"
299740,"8300 FM 1960 ROAD EAST APT 1128","HUMBLE","TX","77346"
299741,"8300 FM 1960 WEST STE 450","HOUSTON","TX","77070"
299742,"8300 FM 1960 WEST SUITE 450","HOUSTON","TX","77070"
299743,"8300 FOUNTAIN RIDGE DRIVE","PLANO","TX","75025"
299744,"8300 GREENSBORO DR LBBY L1 BOX 189","MCLEAN","VA","22102"
299745,"8300 GREENSBORO DR STE L1-640","MCLEAN","VA","22102"
299746,"8300 GREENSBORO DRIVE SUITE L-130","MCLEAN","VA","22102"
299747,"8300 GREENSBORO DRIVE","MCLEAN","VA","22102"
299748,"8300 KRUPP AVE SE","COMSTOCK PARK","MI","49321"
299749,"8300 MARY LEE LN","LAUREL","MD","20723"
299750,"8300 MERRIFIELD AVE","FAIRFAX","VA","22031"
299751,"8300 MORRISON RD","HASTINGS","FL","32145"
299752,"8300 MORRISON ROAD","HASTINGS","FL","32145"
299753,"8300 N STRAITS HWY","CHEBOYGAN","MI","49721"
299754,"8300 NE 146TH STREET","KENMORE","WA","98028"
299755,"8300 NORMAN CENTER DRIVE","MINNEAPOLIS","MN","55437"
299756,"8300 NORTH HIX RD","WESTLAND","PA","48185"
299757,"8300 NW 53RD ST- UNIT 102","DORAL","FL","33166"
299758,"8300 NW 53RD ST","DORAL","FL","33166"
299759,"8300 NW 54 COURT","LAUDERHILL","FL","33351"
299760,"8300 OLD HICKORY LANE","MCKINNEY","TX","75070"
299761,"8300 S GREEN ST APT 2","CHICAGO","IL","60620"
299762,"8300 S SANTA FE AVENNUE","OKLAHOMA CITY","OK","73139"
299763,"8300 SEA STAR DR","BLACKLICK","OH","43004"
299764,"8300 SHERIDAN BLVD  APT 36F","WESTMINSTER","CO","80003"
299765,"8300 SHERIDAN BLVD  UNIT 36F","WESTMINSTER","CO","80003"
299766,"8300 SW 148 DRIVE","MIAMI","FL","33158"
299767,"8300 TALBOT STREET","KEW GARDENS","NY","11415"
299768,"8300 THIRD AVE","NORTH BERGEN","NJ","07047"
299769,"8301 47TH AVE N","NEW HOPE","MN","55428"
299770,"8301 AMELIA CT","CHARLESTOWN","IN","47111"
299771,"8301 ARQUETTE RD","OREGON","OH","43616"
299772,"8301 CALLEYSTONE WAY","ANTELOPE","CA","95843"
299773,"8301 COURTHOUSE RD","PROVIDENCE FORGE","VA","23140"
299774,"8301 E 163RD STREET","BELTON","MO","64012"
299775,"8301 E 21ST STREET NORTH STE 450","WICHITA","KS","67206"
299776,"8301 E BUCKEYE","SPOKANE","WA","99212"
299777,"8301 E CAROL WAY","SCOTTSDALE","AZ","85260"
299778,"8301 E PRENTICE AVE SUITE 402","GREENWOOD VILLAGE","CO","80111"
299779,"8301 EARLY DAWN TRAIL","DENTON","TX","76210"
299780,"8301 HADDON DRIVE","TAKOMA","MD","20912"
299781,"8301 HICKORY ROAD","SOUTH CHESTERFIELD","VA","23803"
299782,"8301 HORSESHOE DRIVE","LINCOLN","NE","68516"
299783,"8301 HUNGARY SPRING ROAD","HENRICO","VA","23228"
299784,"8301 LAKE VISTA / 1314","SAN ANTONIO","TX","78227"
299785,"8301 ROCKMOOR RIDGE ROAD","CHARLOTTE","NC","28215"
299786,"8301 SEMINOLE TRAIL","RUCKERSVILLE","WA","22968"
299787,"8301 SHORE ROAD","BROOKLYN","NY","11209"
299788,"8301 SMITH GROVE LANE","NORTH DINWIDDIE","VA","23803"
299789,"8301 STONECREST TRAIL","LIHTONIA","GA","30038"
299790,"8301 VALLEY CREEK RD","WOODBURY","MN","55125"
299791,"8301 W 86TH ST","INDIANAPOLIS","IN","46278"
299792,"8301 W MONTGOMERY ROAD","HOUSTON","TX","77088"
299793,"8301-307 BRASS MILL LANE","RALEIGH","NC","27617"
299794,"8301-A JEFFERSON ST NE","ALBUQUERQUE","NM","87113"
299795,"8301","COVINGTON","GA","30014"
299796,"8302 CARAWAY CIR","BAYTOWN","TX","77521"
299797,"8302 CEDAR VIEW COURT","CLINTON","MD","20735"
299798,"8302 CEDARVIEW CT","CLINTON","MD","20735"
299799,"8302 CLOVERPORT DRIVE","LOUISVILLE","KY","40228"
299800,"8302 CORNISH AVE APT 1J","ELMHURST","NY","11373"
299801,"8302 DOGWOOD TRAIL","HAUGHTON","LA","71037"
299802,"8302 DRAVO CIR","LOUISVILLE","KY","40220"
299803,"8302 E JULIA ST","TUCSON","AZ","85710"
299804,"8302 EAST BROADWAY BLVD","TUCSON","AZ","85710"
299805,"8302 HIGHLAND STREET","MANASSAS","VA","20110"
299806,"8302 LYNNEWOOD ROAD","PHILADELPHIA","PA","19150"
299807,"8302 MONTAGUE ST","TAMPA","FL","33635"
299808,"8302 MONTAGUE STREET","TAMPA","FL","33635"
299809,"8302 N HILLSBOROUGH  LANE","TAMPA","FL","33604"
299810,"8302 N TAHOE DRIVE","JERSEY VILLAGE","TX","77040"
299811,"8302 OLD YORK ROAD B55","ELKINS PARK","PA","19027"
299812,"8302 ROBERTS COVE RD","RAYNE","LA","70578"
299813,"8302 UNDERWOOD ARBOR PLACE","CARY","NC","27518"
299814,"8302 WEST LAKE CREEK ROAD","RIESEL","TX","76682"
299815,"8302 WHITAKER STREET","BUENA PARK","CA","90621"
299816,"8303 CONDY COURT","CLINTON","MD","20735"
299817,"8303 CR 6920","LUBBOCK","TX","79407"
299818,"8303 FORESTREE CT","VIENNA","VA","22182"
299819,"8303 GREATVIEW   APT 1204","SAN ANTONIO","TX","78230"
299820,"8303 HAYDEN COVE DRIVE","TOMBALL","TX","77375"
299821,"8303 HYDRANGEA RD","ORE CITY","TX","75683"
299822,"8303 JUXA DRIVE","MYRTLE BEACH","SC","29579"
299823,"8303 SOUTHWEST FREEWAY STE 270","HOUSTON","TX","77074"
299824,"8303 THORA LANE","SPRING","TX","77379"
299825,"8303 VINTAGE CREEK DRIVE","SPRING","TX","77379"
299826,"8303 W 4TH PLACE","KENNEWICK","WA","99336"
299827,"8304 CLAIREMONT MESA BLVD SUITE 213","SAN DIEGO","CA","92111"
299828,"8304 CREEDMOOR ROAD","RALEIGH","NC","27613"
299829,"8304 DAVIS DRIVE","FRISCO","TX","75034"
299830,"8304 ELM GROVE CT","VIENNA","VA","22182"
299831,"8304 N 106TH STREET","MILWAUKEE","WI","53224"
299832,"8304 N TAHOE","MUNCIE","IN","47303"
299833,"8304 NAIRN ST","HOUSTON","TX","77074"
299834,"8304 NE 27TH AVE","ALTOONA","IA","50009"
299835,"8304 PLANO CT","RALEIGH","NC","27616"
299836,"8304 RAIN FOREST LANE","FORT WORTH","TX","76123"
299837,"8304 SOUTHRIDGE DRIVE","ROTHSCHILD","WI","54474"
299838,"8304 SPICEWOOD SPRINGS COVE","AUSTIN","TX","78759"
299839,"8304 VICTORY TRL","BRENTWOOD","TN","37027"
299840,"8305 BLACKWOOD DRIVE","WINDSOR","CO","80550"
299841,"8305 DELAWARE NE","ALBUQUERQUE","NM","87110"
299842,"8305 E 2250 NORTH RD","CARLOCK","IL","61725"
299843,"8305 LINWALT ST","ROSEMEAD","CA","91770"
299844,"8305 MERIDIAN RIVER RUN","SPARTANBURG","SC","29301"
299845,"8305 OAKRIDGE RD","SHERWOOD","AR","72120"
299846,"8305 PHOENICIAN CT","DAVIE","FL","33328"
299847,"8305 SOUTH WESTNEDGE AVENUE","PORTAGE","MI","49002"
299848,"8305 STERLING AVE","RAYTOWN","MO","64138"
299849,"8305 SVL BOX","VICTORVILLE","CA","92395"
299850,"8305 WHITMAN DRIVE","BETHESDA","MD","20817"
299851,"8306 155TH PLACE NORTH","PALM BEACH GARDENS","FL","33418"
299852,"8306 ANALEE AVE","ROSEDALE","MD","21237"
299853,"8306 ARKANSAS ST","HOUSTON","TX","77093"
299854,"8306 BOOTH AVENUE","KANSAS CITY","MO","64138"
299855,"8306 CHURCH POND RD","FREDERICKSBURG","VA","22408"
299856,"8306 CLOVER HILL LOOP","HUDSON","FL","34667"
299857,"8306 E JAMISON CIRCLE","CENTENNIAL","CO","80112"
299858,"8306 GILDED CROWN CT","LAS VEGAS","NV","89117"
299859,"8306 MILLS DRIVE SUITE 106","MIAMI","FL","33183"
299860,"8306 QUEEN ANNES DRIVE","SILVER SPRING","MD","20910"
299861,"8306 WILSHIRE BL","BEVERLY HILLS","CA","90211"
299862,"8306 WILSHIRE BLVD 262","BEVERLY HILLS","CA","90211"
299863,"8306 WILSHIRE BLVD STE 1099","BEVERLY HILLS","CA","90211"
299864,"8306 WILSHIRE BLVD STE 412","BEVERLY HILLS","CA","90211"
299865,"8306 WILSHIRE BLVD STE 493","BEVERLY HILLS","CA","90211"
299866,"8306 WILSHIRE BLVD STE 721","CA","CA","90211"
299867,"8306 WILSHIRE BLVD SUITE 276","BEVERLY HILLS","CA","90211"
299868,"8306 WILSHIRE BLVD SUITE 392","BEVERLY HILLS","CA","90211"
299869,"8306 WILSHIRE BLVD SUITE 451","BEVELRY HILLS","CA","90211"
299870,"8306 WILSHIRE BLVD SUITE 623","BEVERLY HILLS","CA","90211"
299871,"8306 WILSHIRE BLVD SUITE 963","BEVERLY HILLS","CA","90211"
299872,"8306 WILSHIRE BLVD UNIT - 394","BEVERLY HILLS","CA","90211"
299873,"8306 WINDERSVILLE DR","BARTLETT","TN","38133"
299874,"8307 29TH ST W","UNIVERSITY PLACE","WA","98466"
299875,"8307 5TH AVE W","EVERETT","WA","98203"
299876,"8307 BROOKVIEW PLACE","URBANDALE","IA","50322"
299877,"8307 CHESHIRE WAY","LOUISVILLE","KY","40222"
299878,"8307 COUNTY ROAD 109B","LADY LAKE","FL","32159"
299879,"8307 CYPRESS STAND ST","TAMPA","FL","33621"
299880,"8307 E CHOLLA ST","SCOTTSDALE","AZ","85260"
299881,"8307 EDEN STREET","HENRICO","VA","23228"
299882,"8307 IVY POINT DR","HOUSTON","TX","77083"
299883,"8307 KEIM ST","ROSEMEAD","CA","91770"
299884,"8307 MINDALE CIRCLE STE B","BALTIMORE","MD","21244"
299885,"8307 ROXBORO RD","BAHAMA","NC","27503"
299886,"8307 ROYAL GROVE CT","HOUSTON","TX","77083"
299887,"83078 SHADOW HILLS WAY","INDIO","CA","92203"
299888,"8308 46TH AVE N","NEW HOPE","MN","55428"
299889,"8308 ARDEN LANE","FORT WASHINGTON","MD","20744"
299890,"8308 HOLT","HENRICO","VA","23228"
299891,"8308 KILPATRICK AVENUE","SKOKIE","IL","60076"
299892,"8308 MENDOTA COVE","AUSTIN","TX","78717"
299893,"8308 RIVERDALE LANE","DAVENPORT","FL","33896"
299894,"8308 S HALSTED AVENUE","CHICAGO","IL","60620"
299895,"8308 SKY EAGLE DRIVE","TAMPA","FL","33635"
299896,"8308 SO 3RD  AVENUE","INGLEWOOD","CA","90305"
299897,"8308 W 475 S","OWENSVILLE","IN","47665"
299898,"8308 WEST 72ND AVENUE","ARVADA","CO","80005"
299899,"83089 HIGHWAY 111","INDIO","CA","92201"
299900,"8309 BIRCH RUN LANE","KNOXVILLE","TN","37919"
299901,"8309 CARROLLTON PKWY","NEW CARROLLTON","MD","20784"
299902,"8309 CHADBOURNE RD","DALLAS","TX","75209"
299903,"8309 CORNITH ROAD","RICHMOND","VA","23227"
299904,"8309 COUNTRY MEADOWS DRIVE","INDIANAPOLIS","IN","46234"
299905,"8309 EMPRESS BLVD","AUSTIN","TX","78745"
299906,"8309 GRAINFIELD RD","SEVERN","MD","21144"
299907,"8309 HEDGES AVE","RAYTOWN","MO","64138"
299908,"8309 INVERNESS DRIVE","MADISON","WI","53717"
299909,"8309 LAGES LN","WINDSOR MILL","MD","21244"
299910,"8309 LAUREL CANYON BLVD 211","SUN VALLEY","CA","91352"
299911,"8309 MURPHY DR","MIDDLETON","WI","53562"
299912,"8309 N KNOXVILLE AVE","PEORIA","IL","61615"
299913,"8309 REGALIA CT","CHESTERFIELD","VA","23838"
299914,"8309 REGGIO STREET","ROUND ROCK","TX","78665"
299915,"8309 W LAKE MARION RD","HAINES CITY","FL","33844"
299916,"8309 WESTCHESTER LANE","CANTON","MI","48187"
299917,"830A RADIO ROAD","LITTLE EGG HARBOR","NJ","08087"
299918,"831 AMERICUS DRIVE","ALLENTOWN","PA","18103"
299919,"831 BAREBONE RD","BEDFORD","KY","40006"
299920,"831 BARTH DRIVE","NORTH BALDWIN","NY","11510"
299921,"831 BEACON ST NUM 186","NEWTON CENTRE","MA","02459"
299922,"831 BEACON ST NUM 260","NEWTON CENTRE","MA","02459"
299923,"831 BORDEAUX STREET","NEW ORLEANS","LA","70115"
299924,"831 CARVER STREET","JACKSON","MS","39203"
299925,"831 E ORANGE GROVE AVE","BURBANK","CA","91501"
299926,"831 E PARKER HEIGHTS ROAD","WAPATO","WA","98951"
299927,"831 EAST PRITCHARD ST","ASHEBORO","NC","27203"
299928,"831 EAST VINE ST","OWATONNA","MN","55060"
299929,"831 ELIZABETH AVE","COLUMBUS","OH","43227"
299930,"831 HIGHWOOD DRIVE","BLOOMFIELD HILLS","MI","48304"
299931,"831 HORSESHOE FALLS DRIVE","ORLANDO","FL","32828"
299932,"831 IVY GLEN CT","PROSPER","TX","75078"
299933,"831 LA SOLANA DR","REDLAND","CA","92373"
299934,"831 MEADOW DR","OAKBORO","NC","28129"
299935,"831 N 12TH","ELWOOD","IN","46036"
299936,"831 N DETROIT AVENUE","TOLEDO","OH","43607"
299937,"831 N GRAND AVENUE SUITE 240","WAUKESHA","WI","53186"
299938,"831 N GREENFIELD AVE","WAUKESHA","WI","53186"
299939,"831 N HIGHLAND AVE","AURORA","IL","60506"
299940,"831 N WASHINGTON STREET","WILMINGTON","DE","19801"
299941,"831 NE 207 LANE UNIT 2-105","MIAMI","FL","33179"
299942,"831 NE YELLOW PINE AV","MADISON","FL","32340"
299943,"831 NORTH DRIVE","HOPKINSVILLE","KY","42240"
299944,"831 NORTH LAKE SHORE DRIVE","CULVER","IN","46511"
299945,"831 NORTH TATNALL ST SUITE M 227","WILMINGTON","DE","19801"
299946,"831 OAK RIDGE AVE","STATE COLLEGE","PA","16801"
299947,"831 OLEANDER AV","HOLLY HILL","FL","32117"
299948,"831 PIERRE STREET","MANHATTAN","KS","66502"
299949,"831 RIFLE RANGE ROAD","PRESIDIO OF MONTEREY","CA","93940"
299950,"831 ROBINSON TOWN ROAD","CASSATT","SC","29032"
299951,"831 S CHESTNUT STREET","REED CITY","MI","49677"
299952,"831 S HIGH ST","BLOOMINGTON","IN","47401"
299953,"831 S NEWCOMBE WAY","LAKEWOOD","CO","80226"
299954,"831 S SEVENTH AVE","WEST BEND","WI","53095"
299955,"831 SOAP HOLLOW ROAD","HOLLSOPPLE","PA","15935"
299956,"831 SOUTH 13TH AVENUE","WASHINGTON","IA","52353"
299957,"831 SOUTH WESTLAKE AVE SUITE 1","LOS ANGELES","CA","90057"
299958,"831 TONI AVE","LAS VEGAS","NV","89119"
299959,"831 W 49TH ST","HIALEAH","FL","33012"
299960,"831 W 7TH STREET","OXNARD","CA","93030"
299961,"831 W FRANKLIN STREET","HANCOCK","MI","49930"
299962,"831 WASHINGTON STREET","MICHIGAN CITY","IN","46360"
299963,"831 WEDGEWOOD CT","PLATTSMOUTH","NE","68048"
299964,"831 WEST SIXTH STREET","TRACY","CA","95376"
299965,"831 WINCHESTER DR","FORT COLLINS","CO","80526"
299966,"8310 BAY OAKS DRIVE","BAYTOWN","TX","77523"
299967,"8310 BRAMBLEBERRY DRIVE","INDIANAPOLIS","IN","46239"
299968,"8310 COUNTY PARK DR","WALES","MI","48027"
299969,"8310 CRAVEN RD","ARLINGTON","TN","38002"
299970,"8310 CRESCENT KNOLLS DRIVE","RICHMOND","TX","77406"
299971,"8310 E 73RD STREET SUITE 103","TULSA","OK","74133"
299972,"8310 E PIMA ST","TUCSON","AZ","85715"
299973,"8310 EAST WADORA CIRCLE NW","NORTH CANTON","OH","44720"
299974,"8310 ELEUTHERA LN","WELLINGTON","FL","33414"
299975,"8310 FORT FOOTE ROAD","FORT WASHINGTON","MD","20744"
299976,"8310 GARLAND AVE 3","TAKOMA PARK","MD","20912"
299977,"8310 HARGROVE ROAD EAST","COTTONDALE","AL","35453"
299978,"8310 LAKESIDE CT 1B","FORT WAYNE","IN","46816"
299979,"8310 LIBERTY RD","WINDSOR MILL","MD","21244"
299980,"8310 MENTEITH TERR","MIAMI LAKES","FL","33016"
299981,"8310 N CAP OF TX HWY BLDG 1 STE 305","AUSTIN","TX","78731"
299982,"8310 N CAPITAL OF TX HWY STE 150","AUSTIN","TX","78731"
299983,"8310 N SHERMAN CIRCLE APT K102","MIRAMAR","FL","33025"
299984,"8310 NW 52ND STREET","LAUDERHILL","FL","33351"
299985,"8310 PICKERING AVE","PHILADELPHIA","PA","19150"
299986,"8310 ROMA AVE NE","ALBUQUERQUE","NM","87108"
299987,"8310 S 36TH WEST AVE","TULSA","OK","74132"
299988,"8310 S 85TH E AVE","TULSA","OK","74133"
299989,"8310 S KERFOOT AVE","CHICAGO","IL","60620"
299990,"8310 STONEY BROOK DR","CHAGRIN FALLS","OH","44023"
299991,"8310 TURNING LEAF LANE","MCLEAN","VA","22102"
299992,"8310 WAYSIDE CREEK","SAN ANTONIO","TX","78255"
299993,"8310 WEST APPLETON AVENUE","MILWAUKEE","WI","53218"
299994,"8310 WEST CHESTER PIKE","UPPER DARBY","PA","19082"
299995,"8310 WEST COURTLAND AVENUE","MILWAUKEE","WI","53218"
299996,"83103 AVENUE 48 SUITE 1B 219","COACHELLA","CA","92236"
299997,"8311 BENT MEADOW DR","CONVERSE","TX","78109"
299998,"8311 BRADDOCK","SAINT LOUIS","PW","63130"
299999,"8311 BRIAR CREEK PARKWAY STE 10591","RALEIGH","NC","27617"
300000,"8311 BRIER CREEK PARKWAY  105-446","RALEIGH","NC","27617"
