"ID","Address","City","State","Zip"
124001,"2241 NOAH STREET","HONOLULU","HI","96816"
124002,"2241 NORTH  7TH STREET","GRAND JUNCTION","CO","81501"
124003,"2241 NW 3RD STREET","POMPANO BEACH","FL","33069"
124004,"2241 PARK PL SUITE E","MINDEN","NV","89423"
124005,"2241 PIGS EAR ROAD","GRANTSVILLE","MD","21536"
124006,"2241 S PREAKNESS WAY","NAMPA","ID","83686"
124007,"2241 S SHERMAN CIRCLE","MIRAMAR","FL","33025"
124008,"2241 SPAULDING DRIVE","ELY","MN","55731"
124009,"2241 WASHINGTON PIKE","KNOXVILLE","TN","37917"
124010,"2241 WEATHERSTONE CIRCLE","CONYERS","GA","30094"
124011,"2241 WOODEN ACRES DRIVE","MUSCATINE","IA","52761"
124012,"22410 MOUNTAIN VIEW ROAD","MORENO VALLEY","CA","92557"
124013,"22410 S CLEVELAND AVE","PECULIAR","MO","64078"
124014,"22410 SE 111TH AVENUE","HAWTHORNE","FL","32640"
124015,"22411 PLUM CREEK DRIVE","SAUK VILLAGE","IL","60411"
124016,"22411 RIPPLING BROOK","LAKE FOREST","CA","92630"
124017,"22413 THEISEN AVE","SAUKVILLAGE","IL","60411"
124018,"22414 SW 88TH PATH","CUTLER BAY","FL","33190"
124019,"22415 BRIGGS COLEMAN RD","HARLINGEN","TX","78550"
124020,"22415 MARKET STREET 1216","CORNELIUS","NC","28301"
124021,"22415 MIRAMAR CREST DRIVE","TOMBALL","TX","77375"
124022,"22415 SPRING CROSSING DRIVE","SPRING","TX","77373"
124023,"22416 OCEAN AVENUE APARTMENT 119","TORRANCE","CA","90505"
124024,"22417 AUTUMN DRIVE","FRANKFORT","IL","60423"
124025,"22417 SHAWNEE ROAD","INDIAN HILLS","CO","80454"
124026,"224175 ARROWHEAD TRAIL","RINGLE","WI","54471"
124027,"22419 JEAN COURT UNIT 1B","RICHTON PARK","IL","60471"
124028,"2242 1/2 248TH STREET","LOMITA","CA","90717"
124029,"2242 7TH STREET WEST 102","SAINT PAUL","MN","55116"
124030,"2242 BLUEBIRD DRIVE","WESTMINSTER","MD","21157"
124031,"2242 CARSON AVE","CLOVIS","CA","93611"
124032,"2242 DAWN SHADOW WAY","FRESNO","TX","77545"
124033,"2242 EL MANTO DRIVE","RANCHO CORDOVA","CA","95670"
124034,"2242 ELM GROVE ROAD","WYLIE","TX","75098"
124035,"2242 FIELDS CREEK ROAD","WINIFREDE","WV","25214"
124036,"2242 GROTON ROAD","POCOMOKE CITY","MD","21851"
124037,"2242 LAWTON DRIVE","LEMON GROVE","CA","91945"
124038,"2242 N EDGEWOOD RD","EAGLE","ID","83616"
124039,"2242 NE DAVIS STREET","PORTLAND","OR","97232"
124040,"2242 NW 59TH TERRACE","LAUDERHILL","FL","33313"
124041,"2242 NW 78TH AVE","MARGAGE","FL","33063"
124042,"2242 RIVERSIDE DR","WEST COLUMBIA","TX","77486"
124043,"2242 ROSEMOORE WALK","MARIETTA","GA","30062"
124044,"2242 S MILSTEAD","WICHITA","KS","67209"
124045,"2242 S OLIVEWOOD","MESA","AZ","85209"
124046,"2242 US HIGHWAY 50","BATAVIA","OH","45103"
124047,"2242 US HWY 40","ST ELMO","IL","62458"
124048,"2242 WELLSPRING LN","CORDOVA","TN","38016"
124049,"22420 FENKELL","DETROIT","MI","48223"
124050,"22420 FM 1017","EDINBURG","TX","78541"
124051,"22420 GREATER MACK AVE","SAINT CLAIR SHORES","MI","48080"
124052,"22420 NONA STREET","DEARBORN","MI","48124"
124053,"22421 BARTON RD PMM 477","GRAND TERRACE","CA","92313"
124054,"22421 BARTON RD STE 504","GRAND TERRACE","CA","92313"
124055,"22421 BARTON ROAD 298","GRAND TERRACE","CA","92313"
124056,"22421 BARTON ROAD UNIT 290","GRAND TERRACE","CA","92313"
124057,"22423 STRASSBURG AVE","SAUK VILLAGE","IL","60411"
124058,"22424 S ELLSWORTH LOOP RD STE 604","QUEEN CREEK","AZ","85142"
124059,"22424 S ELLSWORTH LOOP RD","QUEEN CREEK","AZ","85142"
124060,"22425 AMHERST STREET","SAINT CLAIR SHORES","MI","48081"
124061,"22425 BENSON ROAD SE- APT A102","KENT","WA","98031"
124062,"22425 RIVERDALE DR","SOUTHFIELD","MI","48033"
124063,"22426 LAWNDALE AVENUE","RICHTON PARK","IL","60471"
124064,"22427 MANOR ROAD","QUEENS VILLAGE","NY","11427"
124065,"22428 STANAFORD ROAD","DANESE","WV","25831"
124066,"22429 WOOD BRANCH ROAD","GEORGETOWN","DE","19947"
124067,"2243 BACOM POINT RD","PAHOKEE","FL","33476"
124068,"2243 CAMINO BRAZOS","PLEASANTON","CA","94556"
124069,"2243 CURTIS ST","DENVER","CO","80205"
124070,"2243 DAVENPORT AVENUE","BATON ROUGE","LA","70807"
124071,"2243 EAST DENNEYS RD","DOVER","DE","19901"
124072,"2243 EUTAW PLACE","BALTIMORE","MD","21217"
124073,"2243 EVENING STAR LN","LAFAYETTE","CO","80026"
124074,"2243 GORDON ST","NEW ORLEANS","LA","70117"
124075,"2243 JESSICA LANE","KISSIMMEE","FL","34744"
124076,"2243 JOANN DRIVE","SPRING HILL","TN","37174"
124077,"2243 N HWY 16","DENVER","NC","28037"
124078,"2243 OAK FALLS LANE","BUFORD","GA","30519"
124079,"2243 PALM TER","SARASOTA","FL","34231"
124080,"2243 PINE TREE LANE","TWINSBURG","OH","44087"
124081,"2243 W PORTER AVENUE","VISALIA","CA","93291"
124082,"22430 GRATIOT AVE PO BOX 122","EASTPOINTE","MI","48021"
124083,"22430 GRATIOT AVENUE - NUMBER 8319","EASTPOINTE","MI","48021"
124084,"22430 GRATIOT AVENUE UNIT 250","EASTPOINTE","MI","48021"
124085,"22430 STARWOOD DRIVE","YORBA LINDA","CA","92887"
124086,"22431 ANTONIO PARKWAY B160-229","RACHO SANTA MARGARIT","CA","92688"
124087,"22431 ANTONIO PARKWAY STE B160-663","RANCHO SANTA MARGARI","CA","92688"
124088,"22431 FARM ROAD 1060","WASHBURN","MO","65772"
124089,"22431 HERON NECK TERRACE","CLARKSBURG","MD","20871"
124090,"22432 MARTELLA AVE","BOCA RATON","FL","33433"
124091,"22433 MAPLE LANE","CLINTON TOWNSHIP","MI","48035"
124092,"224335 KOLBY LN","BIRNAMWOOD","WI","54414"
124093,"22434 DARK STAR WAY","LEXINGTON PARK","MD","20653"
124094,"22436 LOS ROGUES DR","SANTA CLARITA","CA","91350"
124095,"22439 DOREMUS ST","ST CLAIR SHORES","MI","48080"
124096,"22439 WALNUT CIRCLE N","CUPERTINO","CA","95014"
124097,"2244 45TH ST","HIGHLAND","IN","46322"
124098,"2244 DERBYSHIRE DRIVE","MARIETTA","GA","30064"
124099,"2244 E FALCON WAY","SANDY","UT","84093"
124100,"2244 ELM","RIVER GROVE","IL","60171"
124101,"2244 FOX RIDGE TR","FRISCO","TX","75034"
124102,"2244 HIGHWAY 17","IBERIA","MO","65486"
124103,"2244 JACKSON AVENUE","LONG ISLAND CITY","NY","11101"
124104,"2244 MARSHALL AVE","WHEELING","WV","26003"
124105,"2244 MINNEKAHTA AVE","HOT SPRINGS","SD","57747"
124106,"2244 OAKWOOD DRIVE","HILLSDALE","MI","49242"
124107,"2244 PANOLA ROAD","LITHONIA","GA","30058"
124108,"2244 PARKWOOD BLVD","EUREKA","CA","95503"
124109,"2244 PATRICK LN","WAUKESHA","WI","53188"
124110,"2244 POLDER WAY","AUSTELL","GA","30168"
124111,"2244 S QUICKSILVER ST","BOISE","ID","83705"
124112,"2244 SEWARD AVENUE","BRONX","NY","10473"
124113,"2244 SKILLMAN AVE APT 203","SAINT PAUL","MN","55109"
124114,"2244 STRAWBERRY TREE LANE","ORLANDO","FL","32828"
124115,"2244 SUNSTATES COURT SUITE 106","VIRGINIA BEACH","VA","23451"
124116,"2244 US 68 NORTH","YELLOW SPRINGS","OH","45387"
124117,"22445 JONES ROAD","CALHAN","CO","80808"
124118,"22445 MEADOWBROOK ROAD","NOVI","MI","48375"
124119,"22445 SW 102 AVE","MIAMI","FL","33190"
124120,"22446 DAVIS DRIVE SUITE 187","STERLING","VA","20164"
124121,"22447 SW 111 AVENUE","MIAMI","FL","33170"
124122,"2245 AL HWY 89","MINTER","AL","36761"
124123,"2245 ASTER AVE","MIDDLEBURG","FL","32068"
124124,"2245 ATKINSON","DETROIT","MI","48206"
124125,"2245 BAR HARBOR DRIVE","FORT COLLINS","CO","80524"
124126,"2245 BARKER AVE 1C","BRONX","NY","10467"
124127,"2245 CABRILLO ST APT 5","SAN FRANCISCO","CA","94121"
124128,"2245 CACTUS VALLEY DR","LEANDER","TX","78641"
124129,"2245 COLLINGWOOD","DETROIT","MI","48206"
124130,"2245 CONOWINGO RD 200","BEL AIR","MD","21015"
124131,"2245 E CAMBRIA ST","PHILADELPHIA","PA","19134"
124132,"2245 E WASHINGTON BLVD","LOS ANGELES","CA","90021"
124133,"2245 EAST COLORADO BLVD NUM 104-65","PASADENA","CA","91107"
124134,"2245 FLORIN RD STE 4","SACRAMENTO","CA","95822"
124135,"2245 GARNER RD","RALEIGH","NC","27610"
124136,"2245 GUIANA PLUM DR","ORLANDO","FL","32828"
124137,"2245 HIGHWAY 105 SOUTH","LINVILLE","NC","28646"
124138,"2245 INDIANA AVE","COLUMBUS","OH","43202"
124139,"2245 JARMAN ST","MUSKEGON HEIGHTS","MI","49444"
124140,"2245 MCGREGOR BLVD","FORT MYERS","FL","33901"
124141,"2245 N LAKE DRIVE","MILWAUKEE","WI","53202"
124142,"2245 N MAIN STREET","PEARLAND","TX","77581"
124143,"2245 N ORCHARD RD NE","BOLIVAR","OH","44612"
124144,"2245 NW 110 AVENUE","MIAMI","FL","33172"
124145,"2245 PARLIAMENT DR","COLORADO SPRINGS","CO","80920"
124146,"2245 S LINWOOD","VISALIA","CA","93277"
124147,"2245 S MARSHALL BLVD APT 1","CHICAGO","IL","60623"
124148,"2245 SAN DIEGO AVE SUITE 226","SAN DIEGO","CA","92110"
124149,"2245 SAN PASQUAL VALLEY ROAD","ESCONDIDO","CA","92027"
124150,"2245 SHARON WAY","RENO","NV","89509"
124151,"2245 SOUTH STREET","ELGIN","IL","60123"
124152,"2245 STREAM VISTA PLACE UNIT 106","WALDORF","MD","20601"
124153,"2245 TEXAS DROVE SUITE 300","SUGAR LAND","TX","77479"
124154,"2245 TURNINGLEAF DRIVE","BEAUMONT","TX","77706"
124155,"2245 W BUNCHE PARK DR","MIAMI GARDENS","FL","33054"
124156,"2245 W WAYLAND","PHOENIX","AZ","85041"
124157,"2245 WENDER DR","TUCKER","GA","30084"
124158,"22450 LANSING LANE","MIDDLETON","ID","83644"
124159,"22450 WHITE OAK DR","PORTER","TX","77365"
124160,"22451 N 81ST AVE","PEORIA","AZ","85383"
124161,"22453 BALMORAL DRIVE","DENHAM SPRINGS","LA","70726"
124162,"22453 LAKE ROAD 210","ROCKY RIVER","OH","44116"
124163,"22455 NE 18TH STREET","SAMMAMISH","WA","98074"
124164,"2245N 1175W","LINTON","IN","47441"
124165,"2246 BELCHERY COURT DRIVE","CLEARWATER","FL","33764"
124166,"2246 BIRNAM PLACE","AUGUSTA","GA","30904"
124167,"2246 COLONY DR","LAKELAND","FL","33813"
124168,"2246 MOHLER DR NW","NORTH CANTON","OH","44720"
124169,"2246 NAMEOKE AVENUE","FAR ROCKAWAY","NY","11691"
124170,"2246 SAMPLE AVE","CLOVIS","CA","93611"
124171,"2246 SOUTH 11TH STREET","SPRINGFIELD","IL","62703"
124172,"2246 SOUTHERN WOODS DRIVE","CORDOVA","TN","38016"
124173,"2246 W 80TH ST","HIALEAH","FL","33016"
124174,"2246 W GREENLEAF DRIVE","FREDERICK","MD","21702"
124175,"2246 W SURREY ROAD","TAYLORSVILLE","UT","84129"
124176,"2246 WASHINGTON AVE APT 204","SILVER SPRING","MD","20910"
124177,"22460 CEDAR RIDGE RD","EDMOND","OK","73025"
124178,"22461 INTERSTATE 30 - SUITE 1100A","BRYANT","AR","72022"
124179,"22462 224TH PLACE","QUEEN CREEK","AZ","85142"
124180,"22462 S 224TH PLACE","QUEEN CREEK","AZ","85142"
124181,"22465 C R 104","ELKHART","IN","46514"
124182,"22465 THREE BRIDGE RD","COUNCIL BLUFFS","IA","51503"
124183,"22466 STATE HWY 81","KEWANEE","IL","61443"
124184,"2247 37TH STREET APARTMENT 2","ASTORIA","NY","11105"
124185,"2247 ARCHER BOULEVARD","ORLANDO","FL","32833"
124186,"2247 CORONADA WAY S","ST PETERSBURG","FL","33712"
124187,"2247 EAST 640TH PL","URSA","IL","62376"
124188,"2247 MEADOW DRIVE","BLAIR","NE","68008"
124189,"2247 N 3RD STREET","HARRISBURG","PA","17110"
124190,"2247 NW 100TH STREET","GAINESVILLE","FL","32606"
124191,"2247 NW 15TH AVE","GAINESVILLE","FL","32605"
124192,"2247 NW 93RD STREET","MIAMI","FL","33147"
124193,"2247 RED BIRCH WAY","CONCORD","NC","28027"
124194,"2247 ROSELAWN AVE W","ST PAUL","MN","55113"
124195,"2247 SAN DIEGO AVENUE SUITE 232","SAN DIEGO","CA","92110"
124196,"2247 SPINNINGWHEEL LANE","CINCINNATI","OH","45244"
124197,"2247 SWITZER ROAD","STAMPING GROUND","KY","40379"
124198,"2247 VIA OESTE DRIVE","FALLBROOK","CA","92028"
124199,"2247 WEYMOUTH RD","HINCKLEY","OH","44233"
124200,"2247 WILDFLOWER COURT","ASHEBORO","NC","27205"
124201,"22470 LEE WRIGHT","SOUTHFIELD","MI","48033"
124202,"22470 WALNUT CT","SOUTH BEND","IN","46628"
124203,"22476 PAUL REVERE DRIVE","CALABASAS","CA","91302"
124204,"2248 ADDISON AVE","EAST PALO ALTO","CA","94303"
124205,"2248 ARLAN REASON ROAD","BELLS","TN","38006"
124206,"2248 CARDIFF CT NE","GRAND RAPIDS","MI","49505"
124207,"2248 E VERMONT AVE","ANAHEIM","CA","92806"
124208,"2248 EAST 48TH STREET","TULSA","OK","74105"
124209,"2248 EIFERT RD","HOLT","MI","48842"
124210,"2248 EMERSON AVE","LOUISVILLE","KY","40205"
124211,"2248 FIRST STREET","FORT MYERS","FL","33901"
124212,"2248 FM 3157","CUERO","TX","77954"
124213,"2248 FORT MELLON CT","ST AUGUSTINE","FL","32092"
124214,"2248 HEARTHSIDE DR SE","ADA","MI","49301"
124215,"2248 KIMBALL STREET","PHILADELPHIA","PA","19146"
124216,"2248 LAMAR AVENUE  PO BOX 915","PARIS","TX","75460"
124217,"2248 LILLY STREET","LAKE WALES","FL","33898"
124218,"2248 N CAMPBELL AVE","CHICAGO","IL","60647"
124219,"2248 N MONTICELLO AVENUE SUITE G","CHICAGO","IL","60647"
124220,"2248 NE 123RD ST","MIAMI","FL","33181"
124221,"2248 RIDING CROP WAY","WINDSOR MILL","MD","21244"
124222,"2248 S KEELER AVE","CHICAGO","IL","60623"
124223,"2248 W 1000 N","ROOSEVELT","UT","84066"
124224,"2248 W FARRAGUT AVE","CHICAGO","IL","60625"
124225,"2248 WANDERING RIDGE DR","CHINO HILLS","CA","91709"
124226,"2248","PORTSMOUTH","VA","23702"
124227,"22481 STATE HIGHWAY 11","KIRKSVILLE","MO","63501"
124228,"2249 COUNTRY CLUB ROAD","SPARTANBURG","SC","29302"
124229,"2249 E 130TH STREET","COMPTON","CA","90222"
124230,"2249 E 97TH ST","CLEVELAND","OH","44106"
124231,"2249 E BURNSIDE ST","PORTLAND","OR","97214"
124232,"2249 GARLAND DRIVE","BIRMINGHAM","AL","35216"
124233,"2249 GLENCOE HILLS DRIVE","ANN ARBOR","MI","48108"
124234,"2249 HARVARD AVE","FORT MYERS","FL","33907"
124235,"2249 MONTECLARO DRIVE","CHINO HILLS","CA","91709"
124236,"2249 N 52ND ST","PHILADELPHIA","PA","19131"
124237,"2249 PARKHURST ROAD","ELMONT","NY","11003"
124238,"2249 PINE VALLEY RD","POWDER SPRINGS","GA","30127"
124239,"2249 ROBBINS NEST CV","COLLIERVILLE","TN","38017"
124240,"2249 ROSS AVENUE","HOOVER","AL","35226"
124241,"2249 S ALDER LANE","SANTA MARIA","CA","93455"
124242,"2249 SUGAR RUN ROAD","DUNCANSVILLE","PA","16635"
124243,"2249 THORNTREE LN","PALATINE","IL","60067"
124244,"2249 W CATALINA VIEW DR","TUCSON","AZ","85742"
124245,"2249 WICK ST","WARREN","OH","44484"
124246,"22491 STATE HWY 18","CONNEAUTVILLE","PA","16406"
124247,"224A BULLSBORO DRIVE","NEWNAN","GA","30263"
124248,"224A JEFFERSON AVE","PARAMUS","NJ","07652"
124249,"225  HOLLY ST","WINNSBORO","SC","29180"
124250,"225 - THOMAS AVENUE NORTH SUITE 700","MPLS","MN","55405"
124251,"225 1/2 S WESTERN AVE","LOS ANGELES","CA","90004"
124252,"225 23RD AVE","VERO BEACH","FL","32962"
124253,"225 2ND STREET SUITE 108","DAVENPORT","IA","52801"
124254,"225 30TH STREET SUITE 306","SACRAMENTO","CA","95816"
124255,"225 4TH STREET","LAKEWOOD","NJ","08701"
124256,"225 9TH STREET SW","PINE CITY","MN","55063"
124257,"225 ADELPHI ST","BROOKLYN","NY","11205"
124258,"225 ANNISTON COURT","CARY","NC","27519"
124259,"225 APPLE DEW AVENUE","LAS VEGAS","NV","89131"
124260,"225 ARIZONA DRIVE","LOWER BURRELL","PA","15068"
124261,"225 ARLINGTON DRIVE","UKIAH","CA","95482"
124262,"225 ASHBY AVE","CHARLESTON","WV","25314"
124263,"225 AVENIDA LOBEIRO","SAN CLEMENTE","CA","92672"
124264,"225 B ANAYA ROAD","STANLEY","NM","87056"
124265,"225 B STREET NW","MIAMI","OK","74354"
124266,"225 BAINBRIDGE ST APT 2","BROOKLYN","NY","11233"
124267,"225 BAN ROAD","MUNCY","PA","17756"
124268,"225 BARKER RD","WYNCOTE","PA","19095"
124269,"225 BARTLETT AVE","SHARON HILL","PA","19079"
124270,"225 BAY 44TH STREET","BROOKLYN","NY","11214"
124271,"225 BOREN AVENUE","LAKE PLACID","FL","33852"
124272,"225 BOWMAN RD","HANOVER","PA","17331"
124273,"225 BOWTIE LANE","LOWGAP","NC","27024"
124274,"225 BRIARGATE DR","LEBANON","OH","45036"
124275,"225 BROADWAY          SUITE 2605","NEW YORK","NY","10007"
124276,"225 BROADWAY 19TH FLOOR","SAN DIEGO","CA","92101"
124277,"225 BROADWAY STE 1420","NEW YORK","NY","10007"
124278,"225 BROADWAY STE 1504","NEW YORK","NY","10007"
124279,"225 BROADWAY STE 1700","NEW YORK","NY","10007"
124280,"225 BROADWAY SUITE 1902","NEW YORK","NY","10007"
124281,"225 BROWN ROAD LOT 53","FRANKLIN","KY","42134"
124282,"225 BUTLER ST","MILPITAS","CA","95035"
124283,"225 BUTTONWOOD AVENUE","CORTLANDT MANOR","NY","10567"
124284,"225 CAL YOUNG ROAD APT 217","EUGENE","OR","97401"
124285,"225 CALLE PINTORESCO","SAN CLEMENTE","CA","92672"
124286,"225 CAMINO DE LA TIERRA","CORRALES","NM","87048"
124287,"225 CARL STREET","COLUMBIA","IL","62236"
124288,"225 CASTLE KEEP RD","SALISBURY","NC","28146"
124289,"225 CEDAR AVE","GAITHERSBURG","MD","20877"
124290,"225 CEDAR HILL ST","MARLBOROUGH","MA","01752"
124291,"225 CEDAR HILL STREET  SUITE 331","MARLBOROUGH","MA","01752"
124292,"225 CEDAR RD","COVINGTON","GA","30016"
124293,"225 CENTRAL AVE SW STE 101-1322","ATLANTA","GA","30303"
124294,"225 CENTRAL PARK WEST APT 312","NEW YORK","NY","10024"
124295,"225 CHACE ROAD","E FREETOWN","MA","02717"
124296,"225 CHASE RD","READFIELD","ME","04355"
124297,"225 CHURCH ST APT 1F","PHILADELPHIA","PA","19106"
124298,"225 CLEARVIEW RD","HANOVER","PA","17331"
124299,"225 CLEVELAND ST","ORANGE","NJ","07050"
124300,"225 COLLEGE AVE STE 65456","ORANGE PARK","FL","32065"
124301,"225 COMMONWEALTH AVE","WEST MIFFLIN","PA","15122"
124302,"225 CONNARISTA ROAD","KELFORD","NC","27847"
124303,"225 CONWELL ST","AURORA","IN","47001"
124304,"225 CORDOVA STREET","ANCHORAGE","AK","99501"
124305,"225 CORRY STREET","YELLOW SPRINGS","OH","45324"
124306,"225 COUNTRY HAVEN RD","HOPKINS","SC","29061"
124307,"225 COUNTY ROAD 2074","BURNET","TX","78611"
124308,"225 COUNTY ROAD 222","NACOGDOCHES","TX","75965"
124309,"225 CREEKSTONE RIDGE SUITE 2","WOODSTOCK","GA","30188"
124310,"225 CRESCENT DRIVE","ORCHARD PARK","NY","14127"
124311,"225 CROSLAND AVENUE","DANVILLE","VA","24540"
124312,"225 CRUSE AVE","HELENA","MT","59601"
124313,"225 CULBRETH RD","CHAPEL HILL","NC","27516"
124314,"225 DAUGTHERTY ST","JACKSON","TN","38301"
124315,"225 DEER AVENUE","NICEVILLE","FL","32578"
124316,"225 DODGE ST","BUFFALO","IA","52728"
124317,"225 DOGWOOD LANE","PALATKA","FL","32177"
124318,"225 DRIFTWOOD LANE","LARGO","FL","33770"
124319,"225 DUNBAR RD","PALM BEACH","FL","33480"
124320,"225 E  DEL AMO BLVD  APT 323","LONG BEACH","CA","90805"
124321,"225 E 1ST AVE","ROSELLE","NJ","07203"
124322,"225 E 1ST ST","CARNEGIE","OK","73015"
124323,"225 E 34TH ST SUITE 18H","NEW YORK","NY","10016"
124324,"225 E 36TH ST APT 15M","NEW YORK","NY","10016"
124325,"225 E 4TH STREET","SAN BERNARDINO","CA","92410"
124326,"225 E 7TH ST","CARROLL","IA","51401"
124327,"225 E 7TH STREET APT2B","NEW YORK","NY","10009"
124328,"225 E 8TH ST","MUNCIE","IN","47302"
124329,"225 E BROAD ST","COLUMBUS","OH","43215"
124330,"225 E CARRILLO ST UNIT 305","SANTA BARBARA","CA","93101"
124331,"225 E CENTRAL AVE","GREENSBURG","IN","47240"
124332,"225 E CLINTON STREET","JOLIET","IL","60432"
124333,"225 E DOMINICK ST","ROME","NY","13440"
124334,"225 E DYKES STREET","COCHRAN","GA","31014"
124335,"225 E IDAHO AVE STE 25","LAS CRUCES","NM","88005"
124336,"225 E IDAHO AVE STE 27","LAS CRUCES","NM","88005"
124337,"225 E MAIN ST","PORT WASHINGTON","OH","43837"
124338,"225 E MAIN STREET","RANGELY","CO","81648"
124339,"225 E NORTH ST  APT 702","INDIANAPOLIS","IN","46204"
124340,"225 E REDWOOD AVENUE","FORT BRAGG","CA","95437"
124341,"225 EAST 115","NEW YORK","NY","10029"
124342,"225 EAST 11TH STREET SUITE 101","SIOUX FALLS","SD","57104"
124343,"225 EAST 34TH STREET APT 18H","NEW YORK","NY","10016"
124344,"225 EAST 39TH STREET SUITE 30C","NEW YORK","NY","10016"
124345,"225 EAST 4TH STREET","CANTON","SD","57013"
124346,"225 EAST 5TH STREET SUITE 300","FLINT","MI","48502"
124347,"225 EAST 5TH STREET","PORT ANGELES","WA","98362"
124348,"225 EAST 96TH STREET  APT 1RW","NEW YORK","NY","10128"
124349,"225 EAST CRANBERRY LANE","GREENVILLE","SC","29615"
124350,"225 EAST DEAN AVENUE","MADISON","WI","53716"
124351,"225 EAST FOURTH STREET","HAZLETON","PA","18201"
124352,"225 EAST SEVENTH STREET","PLAINFIELD","NJ","07060"
124353,"225 EASTVIEW DRIVE","CENTRAL ISLIP","NY","11722"
124354,"225 EASTWYCK WAY","DECATUR","GA","30032"
124355,"225 ELMWOOD ST","OPELOUSAS","LA","70570"
124356,"225 EMERSON AVENUE","PLAINFIELD","NY","07062"
124357,"225 FALLON RD APT 456","STONEHAM","MA","02180"
124358,"225 FERNDALE LN","BEAUMONT","TX","77707"
124359,"225 FIRST STREET NORTH","VIRGINIA","MN","55746"
124360,"225 FLANDER ROAD","ST JOHNSVILLE","NY","13452"
124361,"225 FOREST CREEK DRIVE","FAYETTEVILLE","NC","28303"
124362,"225 FRANKLIN AVE","GRAND HAVEN","MI","49417"
124363,"225 FRONT STREET","BINGHAMTON","NY","13905"
124364,"225 GARDEN VIEW DR","APPLE VALLEY","MN","55124"
124365,"225 GARLAND AVE","OPELOUSAS","LA","70570"
124366,"225 GIBSON ST","BEREA","OH","44017"
124367,"225 GORMAN LOOP","ARKADELPHIA","AR","71923"
124368,"225 GRAND BLVD","EMERSON","NJ","07630"
124369,"225 GRAND ST","NEW JERSEY","NJ","07302"
124370,"225 GRAYFIELD CT SE","ADA","MI","49301"
124371,"225 GREEN BAY ROAD APT C","THIENSVILLE","WI","53092"
124372,"225 GREEN ST STE 601 E","FAYETTEVILLE","NC","28303"
124373,"225 GREEN ST SUITE 601 E","FAYETTEVILLE","NC","28303"
124374,"225 GREEN STREET SUITE 902","FAYETTEVILLE","NC","28301"
124375,"225 GUN HILL STREET","MILTON","MA","02186"
124376,"225 HCR 3242","HUBBARD","TX","76648"
124377,"225 HIGHLAND CROSS","RUTHERFORD","NJ","07070"
124378,"225 HORNER STREET","HENDERSON","NC","27536"
124379,"225 HORSE SHOE DR","CLINTON","PA","15026"
124380,"225 HULAN WAY","LAWRENCEVILLE","GA","30044"
124381,"225 HWY 24 S","WAYNESBORO","GA","30830"
124382,"225 HWY 50","KENDALL","KS","67857"
124383,"225 IVY ROCK LANE","HAVERTOWN","PA","19083"
124384,"225 JEFFERSON AVE","VALLEY PARK","MO","63088"
124385,"225 JOHNSON RD APT 44A","FOREST PARK","GA","30297"
124386,"225 KILGALLEN RD","BUTLER","PA","16002"
124387,"225 KIMBARK ST","LONGMONT","CO","80501"
124388,"225 KIMBARK STREET","LONGMONT","CO","80501"
124389,"225 LAKE DRIVE","TOPTON","NC","28781"
124390,"225 LEATH COURT","SHEPHERDSVILLE","KY","40165"
124391,"225 LINDEN STREET","SUNBURY","PA","17801"
124392,"225 LOOKOUT POINT  A5","HOT SPRINGS","AR","71913"
124393,"225 MAIN STREET","BELPRE","OH","45714"
124394,"225 MAIN STREET","FAIRVIEW","OR","97024"
124395,"225 MAIN STREET","PAWTUCKET","RI","02840"
124396,"225 MARTINGALE DRIVE","OLD HICKORY","TN","37138"
124397,"225 MEADOW RIDGE TRL","DOYLESTOWN","OH","44230"
124398,"225 MEADOW WOODS DRIVE","LEWISTOWN","PA","17044"
124399,"225 MEDFORD DRIVE","PATCHOGUE","NY","11772"
124400,"225 MIDDLE SCHOOL ROAD","ROCKY MOUNT","VA","24151"
124401,"225 MONROE RD","BOLINGBROOK","IL","60440"
124402,"225 MORAY CT","CRETE","IL","60417"
124403,"225 MOUNTAIN VIEW ROAD","EL CAJON","CA","92021"
124404,"225 N  DOVER RD","DOVER","FL","33527"
124405,"225 N 18TH STREET","KENILWORTH","NJ","07033"
124406,"225 N 4TH AVE","IRON RIVER","MI","49935"
124407,"225 N 5TH STREET","WEST MEMPHIS","AR","72301"
124408,"225 N ASH","BLACKFOOT","ID","83221"
124409,"225 N BEAUMONT RD SUITE 240","PRAIRIE DU CHIEN","WI","53821"
124410,"225 N CALVERT STREET APT 1811","Baltimore","MD","21202"
124411,"225 N CEDAR STREET 119","CHARLOTTE","NC","28202"
124412,"225 N CENTRAL BLVD","QUARTZSITE","AZ","85346"
124413,"225 N CLIFTON AVE STE 8","LOUISVILLE","KY","40206"
124414,"225 N DIVISION ST SUITE 302","SALISBURY","MD","21801"
124415,"225 N INTERSTATE DR","NORMAN","OK","73069"
124416,"225 N KENNEL ROAD","SANFORD","FL","32771"
124417,"225 N MAIN ST","HAY SPRINGS","NE","69347"
124418,"225 N MCKINLEY AVE","FORT COLLINS","CO","80521"
124419,"225 N PEARL STREET PO BOX 201","ETNA GREEN","IN","46524"
124420,"225 N RICHMOND ROAD","WHARTON","TX","77488"
124421,"225 N SABLE BLVD 10215","AURORA","CO","80011"
124422,"225 N WASHINGTON STREET","ALEXANDRIA","VA","22314"
124423,"225 N YALE","WICHITA","KS","67208"
124424,"225 NE 17TH CT","NEWPORT","OR","97365"
124425,"225 NE 39TH CT","POMPANO BEACH","FL","33064"
124426,"225 NEWMAN AVE","RUMFORD","RI","02916"
124427,"225 NOKETCHEE CREEK RD","ATHENS","GA","30601"
124428,"225 NORFOLK STREET","SPRINGFIELD","MA","01109"
124429,"225 NORTH 59TH STREET","PHILADELPHIA","PA","19139"
124430,"225 NORTH 8TH STREET","KENILWORTH","NJ","07033"
124431,"225 NORTH MARTINE AVE","FANWOOD","NJ","07023"
124432,"225 NORTH MCKAY AVE","ALEXANDRIA","MN","56308"
124433,"225 NORTH MONTGOMERY STREET","STARKVILLE","MS","39759"
124434,"225 NORTH NEW JERSEY ST   APT  62","EVANSVILLE","IN","46204"
124435,"225 NORTH TRENT AVENUE","FAYETTEVILLE","AR","72701"
124436,"225 NORTHWIND DR","EL PASO","TX","79912"
124437,"225 NORWICH DR","BARTLETT","IL","60103"
124438,"225 NW 47 TERRACE","DEERFIELD BEACH","FL","33442"
124439,"225 NW SCHOOL ST","ANKENY","IA","50023"
124440,"225 OAKGROVE RD","SELMER","TN","38375"
124441,"225 OCEAN AVE","JERSEY CITY","NJ","07305"
124442,"225 OCEAN AVENUE SUITE 2A","JERSEY CITY","NJ","07305"
124443,"225 OCEAN STREET","SOUTH PORTLAND","ME","04106"
124444,"225 OCEAN VIEW AVE","NEWPORT BEACH","CA","92663"
124445,"225 OLD SEGUIN ROAD","LA VERNIA","TX","78121"
124446,"225 PARKER RD","DYERSBURG","TN","38024"
124447,"225 PARKERS MILL ROAD","SOMERSET","KY","42501"
124448,"225 PARKWOOD DRIVE NE","KENNESAW","GA","30114"
124449,"225 PARRISH PLACE","MOUNT JULIET","TN","37122"
124450,"225 PEACEABLE HILL ROAD","RIDGEFIELD","CT","06877"
124451,"225 PEMBROOK PLACE","ROSWELL","GA","30075"
124452,"225 PIERRE RD","WALNUT","CA","91789"
124453,"225 PINE AVENUE ROOM 212","ALBANY","GA","31701"
124454,"225 POOLE ROAD","TROY","NC","27371"
124455,"225 PORTLAND AVENUE  APT 340","MINNEAPOLIS","MN","55401"
124456,"225 POTTER LANE","MOREHEAD","KY","40351"
124457,"225 PRIVATE ROAD 3584","CLARKSVILLE","AR","72830"
124458,"225 PROSPECT STREET","SOUTH ORANGE","NJ","07079"
124459,"225 PROVIDENCE DRIVE","COVINGTON","GA","30016"
124460,"225 RECTOR PL APT 11S","NEW YORK","NY","10280"
124461,"225 RED JACKET TRACE","MURFREESBORO","TN","37127"
124462,"225 RED SCHOOL LANE   APT X7","PHILLIPSBURG","NJ","08865"
124463,"225 RIVER OAKS","PLYMOUTH","MI","48170"
124464,"225 RIVERFRONT TERR APT 315","EAU CLAIRE","WI","54701"
124465,"225 RIVOLI STREET","SAN FRANCISCO","CA","94117"
124466,"225 ROBERTS LN","BADEN","PA","15005"
124467,"225 ROSECROFT DR","ROCHESTER","NY","14616"
124468,"225 S 13TH ST APT 11","WEST COLUMBIA","TX","77486"
124469,"225 S 18TH ST APT 1218","PHILADELPHIA","PA","19103"
124470,"225 S 5TH ST","WACO","TX","76701"
124471,"225 S 66TH E AVE","TULSA","OK","74112"
124472,"225 S 6TH STREET FLOOR 9","MINNEAPOLIS","MN","55402"
124473,"225 S CHEVY CHASE DR","GLENDALE","CA","91205"
124474,"225 S CLINTON","MAPLE SHADE","NJ","08052"
124475,"225 S EXECUTIVE DRIVE","BROOKFIELD","WI","53005"
124476,"225 S HEIGHTS BLVD APT 4209","HOUSTON","TX","77007"
124477,"225 S HITE AVENUE","LOUISVILLE","KY","40206"
124478,"225 S IVY   913","MONROVIA","CA","91017"
124479,"225 S IVY AVE UNIT 821","MONROVIA","CA","91017"
124480,"225 S KENNEDY DR","CARPENTERSVILLE","IL","60110"
124481,"225 S KNOTT AVE NO 41","ANHEIM","CA","92804"
124482,"225 S LAKE AVE STE 1400","PASADENA","CA","91101"
124483,"225 S LILY ROAD","PAXINOS","PA","17860"
124484,"225 S LIMESTONE ST","GAFFNEY","SC","29340"
124485,"225 S MAIN AVE","WARRENTON","OR","97146"
124486,"225 S MAIN STREET SUITE 102","JONESBORO","AR","72401"
124487,"225 S PIERCE ST","NEW ORLEANS","LA","70119"
124488,"225 S PLEASANTBURG DR STE E8","GREENVILLE","SC","29607"
124489,"225 S UNIVERSITY ST RM 119","WEST LAFAYETTE","IN","47907"
124490,"225 S WHITING STREET","ALEXANDRIA","VA","22304"
124491,"225 SAWGRASS DR","PALOS HEIGHTS","IL","60463"
124492,"225 SCHILLING CIRCLE SUITE 400","HUNT VALLEY","MD","21031"
124493,"225 SOUTH 42ND STREET SUITE 106B","LOUISVILLE","KY","40212"
124494,"225 SOUTH BLACK HORSE PIKE","BLACKWOOD","NJ","08012"
124495,"225 SOUTH BROADWAY","TURLOCK","CA","95380"
124496,"225 SOUTH FRANKLIN STREET","COCHRANTON","PA","16314"
124497,"225 SOUTH GRAND AVE 1105","LOS ANGELES","CA","90012"
124498,"225 SOUTH IVY AVE NUM 11","MONROVIA","CA","91016"
124499,"225 SOUTH IVY AVENUE SUITE 2096","MONROVIA","CA","91017"
124500,"225 SOUTH MAIN ST","HIAWASSEE","GA","30546"
