"ID","Address","City","State","Zip"
263001,"631 ROYAL TOWER WAY","CARY","NC","27513"
263002,"631 S B STREET","SAN MATEO","CA","94401"
263003,"631 S WALNUT STREET","LA HABRA","CA","90631"
263004,"631 SCOTT AVENUE","NILES","OH","44446"
263005,"631 SEDAN PARK CT","SAINT LOUIS","MO","63125"
263006,"631 SOUTH LIMITS ROAD","ENDEAVOR","WI","53930"
263007,"631 SOUTHERN HIGH SCHOOL ROAD","GRAHAM","NC","27253"
263008,"631 ST ANDREWS BLVD","CHARLESTON","SC","29407"
263009,"631 SW 111TH LN APT 202","PEMBROKE PINES","FL","33025"
263010,"631 SYLVAN COURT","BATAVIA","IL","60510"
263011,"631 TENNESSEE ST SUITE 104","VALLEJO","CA","94590"
263012,"631 US HWY 1 STE 411","NORTH PALM BEACH","FL","33408"
263013,"631 VALLEY VIEW DRIVE","MESQUITE","NV","89027"
263014,"631 VANDALIA AVENUE SUITE 2","BROOKLYN","NY","11239"
263015,"631 VANDALIA AVENUE","BROOKLYN","NY","11239"
263016,"631 W BELLEVIEW ST","WINONA","MN","55987"
263017,"631 W HORAH ST","SALISBURY","NC","28146"
263018,"631 W KIOWA AVENUE","FORT MORGAN","CO","80701"
263019,"631 W MAIN PO BOX 326","VAN WERT","OH","45891"
263020,"631 W SPRUCE ST APT B","COMPTON","CA","90220"
263021,"631 WASHINGTON AVE","BOWLING GREEN","KY","42103"
263022,"631 WESTWIND DR","NORTH PALM BEACH","FL","33408"
263023,"631 WILKS AVENUE","ORLANDO","FL","32809"
263024,"631 WOODSIDE HEIGHTS","CINCINNATI","OH","45217"
263025,"6310 160TH ST E","PUYALLUP","WA","98375"
263026,"6310 ANNA MILLS LANE","RICHMOND","TX","77469"
263027,"6310 BALLINA MEADOWS CT","KATY","TX","77449"
263028,"6310 CLARK STATE RD","COLUMBUS","OH","43230"
263029,"6310 E 31ST STREET SUITE I","TULSA","OK","74135"
263030,"6310 E ARABIAN WAY","PARADISE VALLEY","AZ","85253"
263031,"6310 EAST 129TH STREET","CROWN POINT","IN","46307"
263032,"6310 EVERETT COURT","WESTERVILLE","OH","43082"
263033,"6310 HALL POND CT","KATY","TX","77449"
263034,"6310 HAVENSPORT DR","APOLLO BEACH","FL","33572"
263035,"6310 JACKSON AVE","HAMMOND","IN","46324"
263036,"6310 KENNEDY BLVD W APT 1","WEST NEW YORK","NJ","07093"
263037,"6310 LAKEAIRES DRIVE","CUMMING","GA","30040"
263038,"6310 MAGNOLIA TRAILS LN","GIBSONTON","FL","33534"
263039,"6310 MARIETTA AVE","PORTAGE","IN","46368"
263040,"6310 RAVENA RD","PLEASANT VALLEY","MO","64068"
263041,"6310 ROCK CREEK RD","TULLAHOMA","TN","37388"
263042,"6310 ROYAL HUNT DRIVE APT104","TAMPA","FL","33625"
263043,"6310 SE CONVENIENCE BLVD","ANKENY","IA","50021"
263044,"6310 SW 18TH TERRACE","MIAMI","FL","33155"
263045,"6310 TIMBER VIEW DRIVE EAST","LANSING","MI","48823"
263046,"6311 ABBEY DRIVE","COLUMBUS","GA","31909"
263047,"6311 ALONZO DRIVE","INDIANAPOLIS","IN","46217"
263048,"6311 BERYL ROAD","ALEXANDRIA","VA","22312"
263049,"6311 BEVERLYHILL ST UNIT 110","HOUSTON","TX","77057"
263050,"6311 BLACKWELLS HOLLOW ROAD","CROZET","VA","22932"
263051,"6311 CATHARPIN ROAD","GAINESVILLE","VA","20155"
263052,"6311 CHERRY RUN","HOUSTON","TX","77084"
263053,"6311 E 109TH TERRACE","KANSAS CITY","MO","64134"
263054,"6311 E 9TH AVE","ANCHORAGE","AK","99504"
263055,"6311 FRANCIS ST APT A","PALM BEACH GARDENS","FL","33458"
263056,"6311 GREENVILLE LOOP RD","WILMINGTON","NC","28409"
263057,"6311 GRIMSBY CT","BOWIE","MD","20721"
263058,"6311 GULF FREEWAY APT 1202","HOUSTON","TX","77023"
263059,"6311 INDUCON CORPORATE DRIVE","SANBORN","NY","14132"
263060,"6311 LANGWOOD BLVD","FORT WAYNE","IN","46835"
263061,"6311 MID-PINES COURT","GROVE CITY","OH","43123"
263062,"6311 MONTEREY ROAD APT 114","LOS ANGELES","CA","90042"
263063,"6311 N 18TH STREET","PHILADELPHIA","PA","19141"
263064,"6311 N 47TH PL","PARADISE VALLEY","AZ","85253"
263065,"6311 N BALES AVE","KANSAS CITY","MO","64119"
263066,"6311 NORTH FRESNO STREET SUITE 102","FRESNO","CA","93710"
263067,"6311 RAVINNIA DR","ORLANDO","FL","32809"
263068,"6311 SAMPRAS ACE COURT","SPRING","TX","77379"
263069,"6311 SHANANDOAH LANE","OLIVE BRANCH","MS","38654"
263070,"6311 VAN NUYS BLV UNIT 474","VAN NUYS","CA","91401"
263071,"6311 WESTBURY DR","SALISBURY","MD","21801"
263072,"6311 WHISPERING BROOK COURT","CHARLOTTE","NC","28216"
263073,"6311 WOODLAND AVE  SUITE 416","KANSAS CITY","MO","64131"
263074,"6311","LANHAM","MD","20706"
263075,"6311A PANDA COURT","WALDORF","MD","20603"
263076,"6312 BOBBY JONES LANE","WOODRIDGE","IL","60517"
263077,"6312 BOLLINGER RD","SAN JOSE","CA","95129"
263078,"6312 BURNT MOUNTAIN PATH","COLUMBIA","MD","21045"
263079,"6312 CHICKERING WOODS DR","NASHVILLE","TN","37215"
263080,"6312 FLY ROAD","EAST SYRACUSE","NY","13057"
263081,"6312 GROSSE POINT DRIVE","COLUMBIA","SC","29206"
263082,"6312 LAVANO DR","FORT WORTH","TX","76134"
263083,"6312 N COLLEGE ST","OKLAHOMA CITY","OK","73122"
263084,"6312 PROVINCES ST","FORT WORTH","TX","76179"
263085,"6312 SEVEN CORNERS CENTER STE 303","FALLS CHURCH","VA","22044"
263086,"6312 SILO ROAD","ARLINGTON","TX","76002"
263087,"6312 SUNHIGH PL","COLUMBIA","MD","21045"
263088,"6312 SW CAPITOL HWY      NUM 411","PORTLAND","OR","97239"
263089,"6313 35TH AVENUE WEST","BRADENTON","FL","34209"
263090,"6313 BEAVER CREEK RD","OKLAHOMA CITY","OK","73162"
263091,"6313 BENDING RIVER ROAD","BARTLETT","TN","38135"
263092,"6313 CHATHAM RD","OKLAHOMA CITY","OK","73132"
263093,"6313 DOWNEAST DR","FORT WORTH","TX","76179"
263094,"6313 ESTATE WINTBERG","ST. THOMAS","VI","00802"
263095,"6313 GRAND VALLEY TRAIL","RIVERSIDE","CA","92509"
263096,"6313 GREEN VALLEY LANE","LOCKPORT","NY","14094"
263097,"6313 HOLLY TRAIL","GLOUCESTER","VA","23061"
263098,"6313 JAMESTOWN CT APT B","EVANSVILLE","IN","47715"
263099,"6313 LA TIJERA BLVD","LOS ANGELES","CA","90056"
263100,"6313 N LAMBERT STREET","PHILADELPHIA","PA","19138"
263101,"6313 OCEAN AVE NORTH","ARVERNE","NY","11692"
263102,"6313 PRESTON RD SUITE 200","PLANO","TX","75024"
263103,"6313 RING DRIVE","SACRAMNENTO","CA","95824"
263104,"6313 S BOWIE ST","AMARILLO","TX","79118"
263105,"6313 SAUK TRAIL","SALINE","MI","48176"
263106,"6313 SEABISCUIT PL","MOORPARK","CA","93021"
263107,"6313 WILDGROVE DRIVE","ANTIOCH","TN","37013"
263108,"6314 108TH AVE NE","KIRKLAND","WA","98033"
263109,"6314 BAYONNE DRIVE","SPRING","TX","77389"
263110,"6314 FAIRDALE DRIVE","CAMBRIDGE","OH","43725"
263111,"6314 HADDOCK COURT","HOUSTON","TX","77041"
263112,"6314 HIRONDEL ST","HOUSTON","TX","77087"
263113,"6314 LANGDON LN","LANHAM","MD","20706"
263114,"6314 N PINEGROVE DRIVE","COEUR D ALENE","ID","83815"
263115,"6314 OAKLEAF RD","DALLAS","TX","75248"
263116,"6314 ODANA RD STE 14","MADISON","WI","53719"
263117,"6314 POTRERO DRIVE","NEWARK","CA","94560"
263118,"6314 SANTO PLACE","CAPITOL HEIGHTS","MD","20743"
263119,"6314 SMOOTH PLAIN AVE","LAS VEGAS","NV","89139"
263120,"6314 WAGNER WAY","SUGAR LAND","TX","77479"
263121,"6315 36TH AVE SW","SEATTLE","WA","98126"
263122,"6315 69TH DR NE","MARYSVILLE","WA","98270"
263123,"6315 BEECHFIELD DR","LANSING","MI","48911"
263124,"6315 BURDOCK DR","SANTA FE","TX","77510"
263125,"6315 CAMPBELL ROAD APT308","DALLAS","TX","75248"
263126,"6315 CANAL BLVD","NEW ORLEANS","LA","70124"
263127,"6315 EAST THUNDERBIRD ROAD","SCOTTSDALE","AZ","85254"
263128,"6315 FORBES AVENUE 212","PITTSBURGH","PA","15217"
263129,"6315 FOUNTAIN SQUARE DRIVE","CITRUS HEIGHTS","CA","95621"
263130,"6315 GROFF ST 1","FORT HOOD","TX","76544"
263131,"6315 HILLSIDE COURT SUITE D","COLUMBIA","MD","21046"
263132,"6315 LAUREL STREET","NEW ORLEANS","LA","70118"
263133,"6315 LAVER LOVE DRIVE","SPRING","TX","77379"
263134,"6315 MILL POINT CIRCLE","DALLAS","TX","75248"
263135,"6315 OLD HARRISON LANE","FORT SMITH","AR","72916"
263136,"6315 PENN AVE S","RICHFIELD","MN","55423"
263137,"6315 RIDGE FOREST DR","SAN ANTONIO","TX","78233"
263138,"6315 S ARROWHEAD LAKE DRIVE","COLUMBIA","MO","65203"
263139,"6315 SAINT ANDREWS DRIVE","STOCKTON","CA","95219"
263140,"6315 SPRING HILL DR","OLIVE BRANCH","MS","38654"
263141,"6315 VALLEY VIEW LANE","LONG GROVE","IL","60047"
263142,"6315 VINE ST REAR 3","CINCINNATI","OH","45216"
263143,"6315 WALDRON AVE","PITTSBURGH","PA","15217"
263144,"6315 WATERMAN AVENUE","SAINT LOUIS","MO","63130"
263145,"6316 BUSHNELL RD","CONNEAUT","OH","44030"
263146,"6316 CARRIZO DRIVE","GRANBURY","TX","76049"
263147,"6316 CONSTITUTION AVE NE","ALBUQUERQUE","NM","87110"
263148,"6316 DEERFIELD AVE","SAN GABRIEL","CA","91775"
263149,"6316 FREMONT ROAD","EAST SYRACUSE","NY","13057"
263150,"6316 GARDEN VIEW LANE","MATTESON","IL","60443"
263151,"6316 GERANIUM CT","WESTMINSTER","CA","92683"
263152,"6316 MAISON PRIVEE CV","MEMPHIS","TN","38120"
263153,"6316 OLD MILL FARM DRIVE","WENDELL","NC","27591"
263154,"6316 OXON HILL RD NUMBER 502","OXON HILL","MD","20745"
263155,"6316 OXON HILL ROAD UNIT 301","OXON HILL","MD","20745"
263156,"6316 PARSLEY HILL","SAN ANTONIO","TX","78238"
263157,"6316 S COUNTRY CLUB DR","OKLAHOMA CITY","OK","73159"
263158,"6316 SOUTHWIND DRIVE","WHITTIER","CA","90601"
263159,"6316 SW 19 ST","MIRAMAR","FL","33023"
263160,"6316 VAN NUYS BLVD","VAN NUYS","CA","91401"
263161,"6316 W SWEETWATER AVE","GLENDALE","AZ","85304"
263162,"6316 WYLER COURT","DUBLIN","OH","43016"
263163,"63160 733 RD","BROCK","NE","68320"
263164,"6317 150TH AVE SE","BELLEVUE","WA","98006"
263165,"6317 2ND ST NW","WASHINGTON","DC","20011"
263166,"6317 7TH STREET NW","WASHINGTON","DC","20011"
263167,"6317 BELLAIRE DRIVE","NEW ORLEANS","LA","70124"
263168,"6317 CAPRICORN AVE","AGOURA HILLS","CA","91301"
263169,"6317 CARLSON DRIVE","NEW ORLEANS","LA","70122"
263170,"6317 DARLOW DR","ST LOUIS","MO","63123"
263171,"6317 DAY SPRING DR","THE COLONY","TX","75056"
263172,"6317 DERBY DR","BAKERSFIELD","CA","93306"
263173,"6317 ERNWOOD CIRCLE","SHREVEPORT","LA","71119"
263174,"6317 FOSTER BROOK DR","CHARLOTTE","NC","28216"
263175,"6317 GLENLOCH STREET","PHILADELPHIA","PA","19135"
263176,"6317 MOUNT RIDGE ROAD","BALTIMORE","MD","21228"
263177,"6317 MOUNTAIN GROVE LN","WAKE FOREST","NC","27587"
263178,"6317 SAN MARINO DRIVE","ROWLETT","TX","75089"
263179,"6317 SATURN DR","MADISON","WI","53718"
263180,"6317 W BROADWAY AVE N","BROOKLYN PARK","MN","55428"
263181,"6317 WIND SONG DRIVE","MCKINNEY","TX","75071"
263182,"6318 40TH ST N","OAKDALE","MN","55128"
263183,"6318 BLANCHARD CT","COLUMBUS","GA","31909"
263184,"6318 CHELWYNDE AVENUE","PHILADELPHIA","PA","19142"
263185,"6318 E 96TH ST","TULSA","OK","74137"
263186,"6318 E DWIGHT WAY","FRESNO","CA","93727"
263187,"6318 HANOVER CT","FISHERS","IN","46038"
263188,"6318 HEFFERNAN","HOUSTON","TX","77087"
263189,"6318 LAMY ST NW","ALBUQUERQUE","NM","87120"
263190,"6318 MICHAEL LANE","MATTESON","IL","60443"
263191,"6318 SHOOTING IRON WAY","COLORADO SPRINGS","CO","80923"
263192,"6318 W SILVERBROOK","WEST BLOOMFIELD","MI","48322"
263193,"6318 WEST 60TH STREET","CHICAGO","IL","60638"
263194,"6318 WILSHIRE RIDGE","HOUSTON","TX","77040"
263195,"6318COUNTY ROAD 178","SALIDA","CA","81201"
263196,"6319 COUNTRY CLUB DRIVE","HUNTINGTON","WV","25705"
263197,"6319 MISTY CREEK","MISSOURI CITY","TX","77459"
263198,"6319 MONTEO LN","INDIANAPOLIS","IN","46217"
263199,"6319 N RIDGEWAY","CHICAGO","IL","60659"
263200,"6319 RAEFORD ROAD APT 30","FAYETTEVILLE","NC","28304"
263201,"6319 STRAIGHT HOLW","PINSONFORK","KY","41555"
263202,"6319 WEST 13400 SOUTH","HERRIMAN","UT","84096"
263203,"6319 WILMINGTON DRIVE","BURKE","VA","22015"
263204,"6319-21 S KIMBARK AVENUE","CHICAGO","IL","60637"
263205,"632 1/2 SAINT JOSEPH STREET","RAPID CITY","SD","57701"
263206,"632 21ST STREET","SAN DIEGO","CA","92102"
263207,"632 27TH AVENUE","ST PETERSBURG","FL","33705"
263208,"632 ADAMS STREET","BOWLING GREEN","KY","42101"
263209,"632 AVENIDA CELAYA","SANTA FE","NM","87506"
263210,"632 BATTERSEA DRIVE","ST AUGUSTINE","FL","32095"
263211,"632 BELINDA WAY","CHULA VISTA","CA","91910"
263212,"632 BETH LANE","SULPHUR SPRINGS","TX","75482"
263213,"632 BETH LN","SULPHUR SPRINGS","TX","75482"
263214,"632 BOGUE ST RM N270","EAST LANSING","MI","48824"
263215,"632 BONIVIEW LANE","ALTAMONTE SPRINGS","FL","32714"
263216,"632 BRISBANE ROAD","BALTIMORE","MD","21229"
263217,"632 CHARETTE HILL RD","FORT KENT","ME","04743"
263218,"632 CHARLES STREET AVENUE","TOWSON","MD","21204"
263219,"632 CLINTON PLACE","RIVER FOREST","IL","60305"
263220,"632 COLE STREET","SAN FRANCISCO","CA","94117"
263221,"632 COUNTRY CLUB DR","WINTER PARK","FL","32789"
263222,"632 CROSSROADS CHURCH ROAD","DOBSON","NC","27017"
263223,"632 DITMAR ST","PENSACOLA","FL","32503"
263224,"632 DUFF DR","WINTER GARDEN","FL","34787"
263225,"632 DURANGO WAY","REDDING","CA","96003"
263226,"632 E ROBERTS ST","NORRISTOWN","PA","19401"
263227,"632 EAST 14TH STREET  SUITE 20","NEW YORK","NY","10009"
263228,"632 EASTLINE RD","BALLSTON SPA","NY","12020"
263229,"632 EL TORO WAY","DAVIS","CA","95618"
263230,"632 FORT HILL RD","SCARSDALE","NY","10583"
263231,"632 FOUR SEASONS BLVD","AURORA","IL","60504"
263232,"632 GIBBONS DRIVE","SCOTTDALE","GA","30079"
263233,"632 HILLARY FARM ROAD","HUDSON","WI","54016"
263234,"632 KING STREET","BRISTOL","CT","06010"
263235,"632 LAKELAND EAST DR","FLOWOOD","MS","39232"
263236,"632 LANGDON ST","FAYETTEVILLE","NC","28301"
263237,"632 MAIN STREET STE 1","MILFORD","OH","45150"
263238,"632 MARSHA DR","ANDOVER","KS","67002"
263239,"632 MILL RACE RD","GRANVILLE","OH","43023"
263240,"632 MT RUSHMORE ROAD","CUSTER","SD","57730"
263241,"632 N 3000 EAST ROAD","STEWARDSON","IL","62463"
263242,"632 N 5TH STREET","PHILADELPHIA","PA","19123"
263243,"632 N 63RD STREET","PHILADELPHIA","PA","19151"
263244,"632 N JACKSON AVE","QUITMAN","MS","39355"
263245,"632 NEW HAVEN AVENUE","MILFORD","CT","06460"
263246,"632 NORTH MAIN STREET PO BOX 584","ANSONIA","OH","45303"
263247,"632 NORTH STREET","TEWKSBURY","MA","01876"
263248,"632 NORTH WOOD RIVER AVENUE","WOOD RIVER","IL","62095"
263249,"632 NW BROOKHILL LANE","HILLSBORO","OR","97124"
263250,"632 OBRIANS PATH","MCDONOUGH","GA","30253"
263251,"632 PIFER ROAD","HOUSTON","TX","77024"
263252,"632 PRIMROSE CIRCLE","MATTESON","IL","60443"
263253,"632 REED STREET","PHILADELPHIA","PA","19147"
263254,"632 RUSSELL ST","COVINGTON","KY","41011"
263255,"632 SAUCE FACTORY DRIVE","TIPTON","PA","16684"
263256,"632 SIERRA LANE","EUREKA","MO","63025"
263257,"632 SOLOMON DRIVE","MCDONOUGH","GA","30252"
263258,"632 SOUTH BEDFORD ROAD","BEDFORD","NY","10506"
263259,"632 SOUTH MERIDIAN AVE","ALHAMBRA","CA","91803"
263260,"632 STATE ROUTE 3306","GRAYSON","KY","41143"
263261,"632 SWARTHMORE AVENUE","PACIFIC PALISADES","CA","90272"
263262,"632 TEMPLE AVENUE","KENT","OH","44240"
263263,"632 W 42ND PLACE","LOS ANGELES","CA","90037"
263264,"632 W 55TH ST","HINSDALE","IL","60521"
263265,"632 W LANCASHIRE BLVD","BELLA VISTA","AR","72715"
263266,"632 W SOUTH ST","RALEIGH","NC","27603"
263267,"632 WEST FRONT STREET NORTH","THOMASVILLE","AL","36784"
263268,"632 WEST FRONT STREET","GRAND LEDGE","MI","48837"
263269,"632 WEST LANE","AUBURN","AL","36830"
263270,"632 WEST MAPLE STREET","STAYTON","OR","97383"
263271,"632 WINDEMERE ROAD","WILMINGTON","NC","28405"
263272,"6320 327TH STREET WAY","CANNON FALLS","MN","55009"
263273,"6320 76TH STREET EAST","PUYALLUP","WA","98371"
263274,"6320 ABERDEEN DRIVE","ATLANTA","GA","30328"
263275,"6320 ARMINDALE AVENUE","RURAL HALL","NC","27045"
263276,"6320 BROOKSIDE PLAZA","KANSAS CITY","MO","64113"
263277,"6320 BROOKSIDE PLZ STE 190","KANSAS CITY","MO","64113"
263278,"6320 BURBANK CROSSING LOOP","MONTGOMERY AL","AL","36117"
263279,"6320 CROSSWOOD AVE","LAS VEGAS","NV","89108"
263280,"6320 DOGWOD RD","GWYNN OAK","MD","21207"
263281,"6320 E 112TH AVE","TEMPLE TERRACE","FL","33617"
263282,"6320 E RED RANGE WAY","CAVE CREEK","AZ","85331"
263283,"6320 FENCE POST RD","LAS VEGAS","NV","89148"
263284,"6320 GROVE STREET SUITE A","JACKSONVILLE","FL","32219"
263285,"6320 LAWNTON AVENUE","PHILADELPHIA","PA","19141"
263286,"6320 MAID MARION CLOSE","ALPHARETTA","GA","30005"
263287,"6320 MAIN STREET","COLUMBIA","SC","29203"
263288,"6320 MOROSO COURT APT A","INDIANAPOLIS","IN","46224"
263289,"6320 NORTH EWING STREET","INDIANAPOLIS","IN","46220"
263290,"6320 PECAN COURSE","OCALA","FL","34472"
263291,"6320 RIVERSIDE DR UNIT 323 BLDG- E","METAIRIE","LA","70003"
263292,"6320 RUIDOSO","SAGINAW","MI","48603"
263293,"6320 SOUTH VERNON AVENUE","CHICAGO","IL","60637"
263294,"6320 ST AUGUSTINE RD SUITE 3AB 4A","JACKSONVILLE","FL","32217"
263295,"6320 SW LOMBARD AVE APT 15","BEAVERTON","OR","97008"
263296,"6320 SW MACADAM AVENUE","PORTLAND","OR","97239"
263297,"6320 VAN NUYS BLVD 310","VAN NUYS","CA","91401"
263298,"6320 VENTURE DRIVE SUITE 104","LAKEWOOD RANCH","FL","34202"
263299,"6320 WYDOWN BLVD","ST LOUIS","MO","63105"
263300,"6320-A MARLBORO PIKE","DISTRICT HEIGHTS","MD","20747"
263301,"6321 87TH STREET","LUBBOCK","TX","79424"
263302,"6321 JAMES ROUSE BLVD","CANAL WINCHESTER","OH","43110"
263303,"6321 OVER SEE CT","SPRINGFIELD","VA","22152"
263304,"6321 PELICAN CRESCENT S","SUFFOLK","VA","23435"
263305,"6321 PORTER ROAD SUITE 8","SARASOTA","FL","34240"
263306,"6321 TAMIAMI CANAL RD","MIAMI","FL","33126"
263307,"6321 WHITE OAK LANE","GEORGETOWN","OH","45121"
263308,"6322 219TH STREET COURT EAST","SPANWAY","WA","98387"
263309,"6322 25TH ST S   APT 147","ST PETERSBURG","FL","33712"
263310,"6322 JESSIE ANNE LN","HOUSTON","TX","77041"
263311,"6322 KIMMY COURT","SAN DIEGO","CA","92114"
263312,"6322 WINDERMERE PARK LN","SUGAR LAND","TX","77479"
263313,"6323 CHARLESTON PL","DUNWOODY","GA","30338"
263314,"6323 ELLENWOOD DR","REX","GA","30273"
263315,"6323 FM 78 STE116","SAN ANTONIO","TX","78244"
263316,"6323 GEORGIA AVENUE NW 55011","WASHINGTON","DC","20040"
263317,"6323 HIGBEE MILL","SAN ANTONIO","TX","78247"
263318,"6323 OLD POST COURT","COLUMBUS","GA","31909"
263319,"6323 WILDWOOD LANE","WEST BLOOMFIELD","MI","48324"
263320,"6323 WOODINGTON WAY","MADISON","WI","53711"
263321,"6324 27TH STREET","SACRAMENTO","CA","95822"
263322,"6324 BROADWAY","EVERETT","WA","98203"
263323,"6324 CARLSON DRIVE","NEW ORLEANS","LA","70122"
263324,"6324 CHICKERING WOODS DRIVE","NASHVILLE","TN","37215"
263325,"6324 E PACIFIC COAST HWY STE C","LONG BEACH","CA","90803"
263326,"6324 EMBERWOOD CT","WEST CHESTER","OH","45069"
263327,"6324 FAIRMOUNT AVENUE UNIT 2418","EL CERRITO","CA","94530"
263328,"6324 FREEDOM AVENUE","SYKESVILLE","MD","21784"
263329,"6324 LAKE SMITH CIRCLE","WINDERMERE","FL","34786"
263330,"6324 LAKECREST DRIVE","SHAWNEE","KS","66218"
263331,"6324 LEY ROAD","MINERAL POINT","WI","53565"
263332,"6324 N 31ST AVENUE","OMAHA","NE","68111"
263333,"6324 N CHATHAM SUITE 162","KANSAS CITY","MO","64151"
263334,"6324 N","CHICAGO","IL","60659"
263335,"6324 SEAL CV","FORT WORTH","TX","76179"
263336,"6324 SILVER CREEK LANE","RALEIGH","NC","27603"
263337,"6324 WILCOT COURT","JOHNSTON","IA","50131"
263338,"6325 6TH AVENUE SOUTH","ST PETERSBURG","FL","33707"
263339,"6325 ARGENTINE ROAD","HOWELL","MI","48855"
263340,"6325 BURGUNDY LEAF LANE","ALEXANDRIA","VA","22312"
263341,"6325 CHIEF WASHAKIE AVE","CHEYENNE","WY","82009"
263342,"6325 E GATEWAY CT","BOISE","ID","83716"
263343,"6325 FAIRHURST AVE","CINCINNATI","OH","45213"
263344,"6325 FALLS OF NEUSE RD  STE 35/400","RALEIGH","NC","27615"
263345,"6325 FALLS OF NEUSE RD STE 35-241","RALEIGH","NC","27615"
263346,"6325 FALLS OF NEUSE RD SUITE 35-109","RALEIGH","NC","27615"
263347,"6325 FALLS OF NEUSE RD SUITE 35-216","RALEIGH","NC","27615"
263348,"6325 FALLS OF NEUSE RD SUITE 35-431","RALEIGH","NC","27615"
263349,"6325 FALSWORTH DRIVE","BEAUMONT","TX","77707"
263350,"6325 GARDEN ROAD","MAUMEE","OH","43537"
263351,"6325 IAN CHAD DR W","JACKSONVILLE","FL","32244"
263352,"6325 KINSEY TER","LANHAM","MD","20706"
263353,"6325 LEAVENWORTH ROAD","KANSAS CITY","KS","66104"
263354,"6325 LYNDALE AVE S UNIT 2","RICHFIELD","MN","55423"
263355,"6325 MARAVIAN DRIVE","LOUISVILLE","KY","40258"
263356,"6325 MINLO DRIVE","INDIANAPOLIS","IN","46227"
263357,"6325 N 128TH ST","OMAHA","NE","68164"
263358,"6325 N 128TH STREET","OMAHA","NE","68164"
263359,"6325 N 14TH PLACE","PHOENIX","AZ","85014"
263360,"6325 N SHERIDAN RD","CHICAGO","IL","60660"
263361,"6325 ORION AVENUE","VAN NUYS","CA","91411"
263362,"6325 QUEENSDALE DR","DOUGLASVILLE","GA","30135"
263363,"6325 RICKERT ROAD","SARANAC","MI","48881"
263364,"6325 RIDGEPATH CT","RANCHO PALOS VERDES","CA","90275"
263365,"6325 S WICKLOW AVE","SIOUX FALLS","SD","57108"
263366,"6325 SHANNON PARKWAY SUITE A1","UNION CITY","GA","30291"
263367,"6325 STEEPLE CHASE CT","LAWRENCE","KS","66049"
263368,"6326 16TH ST NW","WASHINGTON","DC","20011"
263369,"6326 ARCTIC WARRIOR DR","ANCHORAGE","AK","99506"
263370,"6326 COPPER COURT","WEST RICHLAND","WA","99353"
263371,"6326 LAKESIDE LANE","LAWRENCE","KS","66049"
263372,"6326 MAYFLOWER AVENUE","BELL","CA","90201"
263373,"6326 PEMBROKE ROAD UNIT E","MIRAMAR","FL","33023"
263374,"6326 S MORGAN","CHICAGO","IL","60621"
263375,"6326 SADDLE LANE EAST","WESTERVILLE","OH","43081"
263376,"6326 SAN JOSE BLVD WEST","JACKSONVILLE","FL","32217"
263377,"6326 W POTTER DR","GLENDALE","AZ","85308"
263378,"6326 WITSELL AVENUE","SAINT LOUIS","MO","63134"
263379,"63262 ORANGE ROAD","SOUTH BEND","IN","46614"
263380,"6327 95TH AVE NE","LAKE STEVENS","WA","98258"
263381,"6327 BAYNTON ST","PHILADELPHIA","PA","19144"
263382,"6327 S OLIVE STREET","CENTENNIAL","CO","80111"
263383,"6327 SIERRA DR","OLIVE BRANCH","MS","38654"
263384,"6327 WATERS EDGE DRIVE","ROCKY MOUNT","NC","27803"
263385,"6327 WEST COMMERICAL BLVD","TAMARAC","FL","33319"
263386,"6327 WINGATE STREET","ALEXANDRIA","VA","22312"
263387,"6328 BELLBROOK DRIVE","DALLAS","TX","75217"
263388,"6328 E FILLMORE AVE","FRESNO","CA","93727"
263389,"6328 EAST COUNTY LINE RD 102A","HIGHLANDS RANCH","CO","80126"
263390,"6328 LAKESORE DR","SARANAC","MI","48881"
263391,"6328 MONARCH CREEK ST","LAS VEGAS","NV","89130"
263392,"6328 OUTLOOK AVE","OAKLAND","CA","94605"
263393,"6328 VALLEY VIEW RD","EDINA","MN","55436"
263394,"6328 W  BROWN ST","GLENDALE","AZ","85302"
263395,"6328 YORKDALE DR","PLANO","TX","75093"
263396,"6328W HILLCREST DRIVE","MANISTIQUE","MI","49854"
263397,"6329 75TH STREET","MIDDLE VILLAGE","NY","11379"
263398,"6329 ARLINGTON BLVD  SUITE B","FALLS CHURCH","VA","22044"
263399,"6329 ARLINGTON BLVD SUITE L","FALLS CHURCH","VA","22044"
263400,"6329 MCRAY DR","BALL","LA","71405"
263401,"6329 S 251 STREET  V V 104","KENT","WA","98032"
263402,"6329 S 251ST STREET SUITE V V 104","KENT","WA","98032"
263403,"6329 STATE ROAD 54","NEW PORT RICHEY","FL","34653"
263404,"6329 TEANECK PLACE","CHARLOTTE","NC","28215"
263405,"6329 TRIMBLE ROAD","WOODSIDE","NY","11377"
263406,"6329 WILLIAMS RUN ROAD","PORT REPUBLIC","VA","24471"
263407,"63292 WINTERGREEN ROAD","LORE CITY","OH","43755"
263408,"63294 EASTVIEW DR","BEND","OR","97701"
263409,"633 41ST STREET","NEWPORT NEWS","VA","23607"
263410,"633 AERICK STREET SUITE 125","INGLEWOOD","CA","90301"
263411,"633 ARTIS LANE","CONWAY","AR","72034"
263412,"633 ARTWOOD DRIVE","PHILADELPHIA","PA","19115"
263413,"633 ASHFORD DRIVE NE","CEDAR RAPIDS","IA","52402"
263414,"633 AZALEA ROAD","MOBILE","AL","36609"
263415,"633 BANKS ROAD","MARGATE","FL","33063"
263416,"633 BARNETT DRIVE APT 312","KINGSPORT","TN","37664"
263417,"633 BEECHWOOD STREET","WOOSTER","OH","44691"
263418,"633 BELLEFORTE AVENUE","OAK PARK","IL","60302"
263419,"633 BELLEVIEW BOULEVARD","STEUBENVILLE","OH","43952"
263420,"633 BELVIDERE RD","PHILLIPSBURG","NJ","08865"
263421,"633 BIG HILL AVENUE APT J77","RICHMOND","KY","40475"
263422,"633 BLUE RIDGE DRIVE","DRIPPING SPRINGS","TX","78620"
263423,"633 BOYER ROAD","CHELTENHAM","PA","19012"
263424,"633 BRAESIDE SOUTH DR","INDIANAPOLIS","IN","46260"
263425,"633 BROKEN ARROW COVE","MCDONOUGH","GA","30252"
263426,"633 BURLINGAME","DETROIT","MI","48202"
263427,"633 CARDINAL LANE","CONTINENTAL","OH","45831"
263428,"633 CARLOTTA CIRCLE","PINOLE","CA","94564"
263429,"633 CHESTNUT ST STE 1800","CHATTANOOGA","TN","37450"
263430,"633 CHESTNUT ST","MISSOULA","MT","59801"
263431,"633 CHESTNUT STREET SUITE 900","CHATTANOOGA","TN","37450"
263432,"633 DICKVALE ROAD","PERU","ME","04290"
263433,"633 DOVER HEIGHTS TRAIL","MANSFIELD","TX","76063"
263434,"633 E 200 S APT 3","SALT LAKE CITY","UT","84102"
263435,"633 E 50TH STREET","INDIANAPOLIS","IN","46205"
263436,"633 E BOWEN","CHICAGO","IL","60653"
263437,"633 E FRONTAGE RD","NOGALES","AZ","85621"
263438,"633 E NEW YORK  AVE APT 2LF","BROOKLYN","NY","11203"
263439,"633 E NEW YORK AVE APT 4RF","BROOKLYN","NY","11203"
263440,"633 E RAY ROAD STE 132","GILBERT","AZ","85296"
263441,"633 EDWIN DR","VIRGINIA BEACH","VA","23462"
263442,"633 ENGLEWOOD DRIVE","LAKE OSWEGO","OR","97034"
263443,"633 FREMONT AVE","RUPERT","ID","83350"
263444,"633 FREMONT STREET","ELMORE","OH","43416"
263445,"633 GARFIELD STREET","CLARKSDALE","MS","38614"
263446,"633 GIBBONS AVE","ELKTON","VA","22827"
263447,"633 GOODYEAR DRIVE","SPRING LAKE","NC","28390"
263448,"633 HUNTING FIELDS RD","BALTIMORE","MD","21220"
263449,"633 JACKSON STREET","PUEBLO","CO","81004"
263450,"633 KENSINGTON CR","LOS BANOS","CA","93635"
263451,"633 LAUNCELOT RD","JACKSON","MS","39206"
263452,"633 MARVIN RD","INDIAN LAND","SC","29707"
263453,"633 MARYLAND AVE NE","WASHINGTON","DC","20002"
263454,"633 MAXWELTON CT UNIT 1","LEXINGTON","KY","40508"
263455,"633 MILWAUKEE STREET","LOMIRA","WI","53048"
263456,"633 N 3RD AVENUE","STAYTON","OR","97383"
263457,"633 N CENTRAL AVE UNITA320","GLENDALE","CA","91203"
263458,"633 N SAINT CLAIR STREET","CHICAGO","IL","60611"
263459,"633 NE 167TH ST SUITE 826","NORTH MIAMI BEACH","FL","33162"
263460,"633 NE 167TH STREET SUITE 813","NORTH MIAMI BEACH","FL","33162"
263461,"633 NE NEWPORT DRIVE","LEES SUMMIT","MO","64064"
263462,"633 NEW SEABURY COURT","WALNUT CREEK","CA","94598"
263463,"633 OAK STREET","NEPTUNE BEACH","FL","32266"
263464,"633 OAKLAND RD","LIMESTONE","TN","37681"
263465,"633 OXFORD STREET","YOUNGSTOWN","OH","44510"
263466,"633 PROCTOR TRAIL","BOWLING GREEN","KY","42101"
263467,"633 RED ROBIN ROAD","SEFFNER","FL","33584"
263468,"633 RETRIEVER LANE","MEBANE","NC","27302"
263469,"633 RIVERVIEW DRIVE","BELMONT","WV","26134"
263470,"633 S ANDREWS AVE","FT LAUDERDALE","FL","33301"
263471,"633 S ATCHER STREET","RADCLIFF","KY","40160"
263472,"633 S COUNTRY CLUB RD","CONWAY","AR","72034"
263473,"633 S EVELYN PL NW","ATLANTA","GA","30318"
263474,"633 SEARLES RD","TOLEDO","OH","43607"
263475,"633 SO CONCORD ST SUITE 400","SOUTH ST PAUL","MN","55075"
263476,"633 STATION ROAD","HEBRON","ME","04238"
263477,"633 STEVENS STREET","EUFAULA","AL","36027"
263478,"633 SUNSET LANE SUITE E","CULPEPER","VA","22701"
263479,"633 VALLIANT STREET","GREENVILLE","MS","38701"
263480,"633 W 172ND PL","BROOMFIELD","CO","80023"
263481,"633 W 5TH STREET FL 26","LOS ANGELES","CA","90071"
263482,"633 W 5TH STREET STE 2639","LOS ANGELES","CA","90071"
263483,"633 W DAVIS STREET 233","DALLAS","TX","75208"
263484,"633 W DAVIS STREET","DALLAS","TX","75208"
263485,"633 W FIFTH STREET SUITE 1150","LOS ANGELES","CA","90071"
263486,"633 WEATHERVANE WAY","ROCKY MOUNT","NC","27803"
263487,"633 WEST 5TH STREET SUITE 2639","LOS ANGELES","CA","90071"
263488,"633 WEST DAVIS STREET SUITE 342","DALLAS","TX","75208"
263489,"633 WEST MAIN STREET","LOUISVILLE","KY","40202"
263490,"633 WEST OAKDALE AVE SUITE 2E","CHICAGO","IL","60657"
263491,"633 WESTSIDE BLVD NW","ROANOKE","VA","24017"
263492,"633 YAKIMA VALLEY HWY 272","SUNNYSIDE","WA","98944"
263493,"633 YATES AVE","CALUMET CITY","IL","60409"
263494,"6330 ALTHORNE ROAD","BARTLETT","TN","38134"
263495,"6330 CARIBOU DRIVE","CLINTON","OH","44216"
263496,"6330 DE ZEVALA   SUITE114","SAN ANTONIO","TX","78249"
263497,"6330 GRAYS AVENUE","PHILADELPHIA","PA","19142"
263498,"6330 GROUSE CIR","COOPERSBURG","PA","18036"
263499,"6330 HOLBORNE LANE","DOUGLASVILLE","GA","30134"
263500,"6330 HOLBURN LANE","DOUGLASVILLE","GA","30134"
