"ID","Address","City","State","Zip"
187001,"3625 ROUNDTREE FOREST DRIVE","ANTIOCH","TN","37013"
187002,"3625 SAVANNAH PL DR STE 102","DULUTH","GA","30096"
187003,"3625 SCRANTON DR","RICHLAND HILLS","TX","76118"
187004,"3625 SENNA WAY","GRAND JUNCTION","CO","81506"
187005,"3625 SILVERGATE DRIVE","CHEYENNE","WY","82001"
187006,"3625 SOUTH 1ST STREET APT 229","AUSTIN","TX","78704"
187007,"3625 SOUTH LAKE PARK AVE UNIT 500","CHICAGO","IL","60653"
187008,"3625 TEN TEN RD","FAYETTEVILLE","NC","28312"
187009,"3625 WELSH ROAD SUITE C13","WILLOW GROVE","PA","19090"
187010,"36250 CRYSTAL SPRINGS DRIVE","NEWARK","CA","94560"
187011,"36258 GLOUCESTER TRL","CLINTOWN TOWNSHIP","MI","48035"
187012,"3625N 800 W","PLEASANT VEIW","UT","84414"
187013,"3626 35TH AVENUE","OAKLAND","CA","94619"
187014,"3626 ARISTIDES LANE","DECATUR","GA","30034"
187015,"3626 CLUB DRIVE","ALBANY","GA","31721"
187016,"3626 FOREST TRACE","TRUSSVILLE","AL","35173"
187017,"3626 N HALL ST SUITE 610","DALLAS","TX","75219"
187018,"3626 N HALL STREET SUITE 610","DALLAS TEXAS","TX","75219"
187019,"3626 OLD MANSE CT","ELLICOTT CITY","MD","21043"
187020,"3626 PARKER KNOLL LANE","COLUMBUS","OH","43219"
187021,"3626 ROSEHAVEN DR","CHARLOTTE","NC","28205"
187022,"3626 ROSEMEAR AVE","BROOKFIELD","IL","60513"
187023,"3626 S CENTRAL AVE","PHOENIX","AZ","85040"
187024,"3626 S OAKHAVEN STREET","VISALIA","CA","93277"
187025,"3626 SOUTH RALSTON AVE","INDEPENDENCE","MO","64052"
187026,"3626 WEST DEVONSHIRE AVENUE STE1007","HEMET","CA","92545"
187027,"3627 BACALL ST NE","LACEY","WA","98516"
187028,"3627 COURTDALE DR","FARMERS BRANCH","TX","75234"
187029,"3627 CUMBERLAND RD","FAYETTEVILLE","NC","28306"
187030,"3627 E 108TH STREET","CLEVELAND","OH","44105"
187031,"3627 ENFIELD RD","CHARLOTTE","NC","28205"
187032,"3627 GARDENIA BEND DR","HOUSTON","TX","77053"
187033,"3627 HURSTON STREET","NEW PORT RICHEY","FL","34655"
187034,"3627 KESTRAL DRI","NAPERVILLE","IL","60564"
187035,"3627 KILAUEA AVE STE 101","HONOLULU","HI","96816"
187036,"3627 MACNICHOL TRL","WEST BLOOMFIELD","MI","48323"
187037,"3627 MANHATTAN BEACH BLVD","LAWNDALE","CA","90260"
187038,"3627 MARLBOROUGH WAY","PADUCAH","KY","42001"
187039,"3627 MCTAVISH PLACE","BURTONSVILLE","MD","20866"
187040,"3627 N 37TH STREET","MILWAUKEE","WI","53216"
187041,"3627 N PASEO DEL SOL","MESA","AZ","85207"
187042,"3627 NE 17TH STREET","REDMOND","OR","97756"
187043,"3627 ORBETELLO CT","SANTA ROSA","CA","95404"
187044,"3627 RAVENWOOD AVENUE","CINCINNATI","OH","45213"
187045,"3627 S COTTAGE GROVE PO BOX 53430","CHICAGO","IL","60653"
187046,"3627 SWEET ASHLEY LANE","LOGANVILLE","GA","30052"
187047,"3627 THISTLE","HOUSTON","TX","77047"
187048,"3627 W SCRIBNER LANE","INGLEWOOD","CA","90305"
187049,"3627 WEST BELVEDERE AVE","BALTIMORE","MD","21215"
187050,"3628 23RD STREET 2ND FLOOR","LONG ISLAND CITY","NY","11106"
187051,"3628 24TH PL W 104","SEATTLE","WA","98199"
187052,"3628 AIRWAY DR","SANTA ROSA","CA","95403"
187053,"3628 CAPE LANE","CONYERS","GA","30013"
187054,"3628 CHRISTENSEN LN","CASTRO VALLEY","CA","94546"
187055,"3628 COOPER RD","DULUTH","MN","55803"
187056,"3628 HOLLIDAY COURT","DALLAS","TX","75224"
187057,"3628 HUMBOLDT ST","DENVER","CO","80205"
187058,"3628 JOSEFINA DRIVE","LAREDO","TX","78041"
187059,"3628 KIMBERLY LANE","FORT WORTH","TX","76133"
187060,"3628 MADISON AVENUE SUITE 6","NORTH HIGHLANDS","CA","95660"
187061,"3628 NORTH GRAHAM AVENUE","INDIANAPOLIS","IN","46218"
187062,"3628 OLYMPIAD DRIVE","VIEW PARK","CA","90043"
187063,"3628 REDWOOD STREET","LAS VEGAS","NV","89103"
187064,"3628 SATELITE BLVD SUITE 956066","DULUTH","GA","30095"
187065,"3628 SATELLITE BLVD  UNIT 956111","DULUTH","GA","30095"
187066,"3628 SPOONER AVENUE","ALTOONA","WI","54720"
187067,"3628 UNIVERSITY AVE","SAN DIEGO","CA","92104"
187068,"3628 WEST 105TH STREET","INGLEWOOD","CA","90303"
187069,"3628 WOOD BRIDGE DR","NASHVILLE","TN","37217"
187070,"3628 WYNDHAM DR","FREMONT","CA","94536"
187071,"36280 CRESSMAN RD","SHAVER LAKE","CA","93664"
187072,"36280 CRESSMAN ROAD","SHAVER LAKE","CA","93664"
187073,"36287 GREENVILLE AVE","DENHAM SPRINGS","LA","70706"
187074,"3629 AFTON LANE","AVONDALE","LA","70094"
187075,"3629 CONEWANGO AVENUE","WARREN","PA","16365"
187076,"3629 DRYADES ST","NEW ORLEANS","LA","70115"
187077,"3629 E 62ND COURT","DAVENPORT","IA","52807"
187078,"3629 FIVE MILE ROAD","ALLEGANY","NY","14706"
187079,"3629 GRAND AVE APT 309","MIAMI","FL","33133"
187080,"3629 INVERRARY BLVD WEST","LAUDERHILL","FL","33319"
187081,"3629 JACKSON AVENUE","SPIRIT LAKE","IA","51360"
187082,"3629 KEYS ST","ANDERSON","SC","29624"
187083,"3629 LAUREL ST","NEW ORLEANS","LA","70115"
187084,"3629 LONDON BLVD","AUGUSTA","GA","30906"
187085,"3629 MADRID DR","FORT WORTH","TX","76133"
187086,"3629 MEADOWLAND CT","ZACHARY","LA","70791"
187087,"3629 MOUNTAIN RANCH RD","FORT WORTH","TX","76262"
187088,"3629 NE STATE ROUTE U","HAMILTON","MO","64644"
187089,"3629 REISTERSTOWN ROAD","BALTIMORE","MD","21215"
187090,"3629 TRAILS END LN","NORTH TONAWANDA","NY","14120"
187091,"3629 VINEVILLE AVE","MACON","GA","31204"
187092,"3629 WREN AVE","CONCORD","CA","94519"
187093,"3629 WREN AVENUE","CONCORD","CA","94519"
187094,"3629 WYNWOOD COVE","COLLIERVILLE","TN","38017"
187095,"36290 WESTLUND AVE","TAYLORS FALLS","MN","55084"
187096,"36295 SEACOCK CHAPEL ROAD","ZUNI","VA","23898"
187097,"363 - 62ND STREET","OAKLAND","CA","94618"
187098,"363 3RD AVE","BROOKLYN","NY","11215"
187099,"363 40TH AVENUE","HILLS","MN","56138"
187100,"363 ANDERSON ROAD","ENON VALLEY","PA","16120"
187101,"363 ATHENS BOONESBORO ROAD","WINCHESTER","KY","40391"
187102,"363 BELMONT AVENUE- 81241","SPRINGFIELD","MA","01138"
187103,"363 BENT TWIG AVE","CAMARILLO","CA","93012"
187104,"363 BLUE FACTORY ROAD","AVERILL PARK","NY","12018"
187105,"363 BON AIR CENTER","GREENBRAE","CA","94904"
187106,"363 BOYD AVE","MARTINSBURG","WV","25401"
187107,"363 BOYER ROAD","FORT VALLEY","VA","22652"
187108,"363 CLEARVIEW AVE","NAZARETH","PA","18064"
187109,"363 COUNTY ROUTE 2","ACCORD","NY","12404"
187110,"363 DOVER ROAD","CLARKSVILLE","TN","37042"
187111,"363 E WISTER STREET","PHILADELPHIA","PA","19144"
187112,"363 EARLE FRANKLIN DRIVE","HAMLET","NC","28345"
187113,"363 EAST 21ST STREET APT 4A","BROOKLYN","NY","11226"
187114,"363 EAST HOOVER DRIVE","FORT WAYNE","IN","46816"
187115,"363 EAST WOODLAKE DRIVE APT 232","SALT LAKE CITY","UT","84107"
187116,"363 EDDY GLOVER BLVD","NEW BRITAIN","CT","06053"
187117,"363 FAIRBANK ROAD","RIVERSIDE","IL","60546"
187118,"363 HEWLETT PARKWAY","HEWLETT","NY","11557"
187119,"363 HILLSIDE DRIVE SW","ATLANTA","GA","30310"
187120,"363 ILIMAILA LOOP","KAILUA","HI","96734"
187121,"363 JANET ST SE","GRAND RAPIDS","MI","49548"
187122,"363 LENOX AVENUE 3A","NEW YORK","NY","10027"
187123,"363 MACREADY AVE","MONROE","OH","45050"
187124,"363 MADISON AVE","YORK","PA","17404"
187125,"363 MC 8124","PEEL","AR","72668"
187126,"363 MILL POND RS","SPRINGHILL","LA","71075"
187127,"363 N 2ND STREET","KALAMAZOO","MI","49001"
187128,"363 N SAM HOU PKWY E 11TH FL ST 50","HOUSTON","TX","77060"
187129,"363 PALMETTO ST","BROOKLYN","NY","11237"
187130,"363 PALMETTO STREET","BROOKLYN","NY","11237"
187131,"363 PENNY LANE","SHELBURNE","VT","05482"
187132,"363 PRINCE GEORGE RD","LAS VEGAS","NV","89123"
187133,"363 ROPE FERRY ROAD","WATERFORD","CT","06385"
187134,"363 S 219TH DR","BUCKEYE","AZ","85326"
187135,"363 S MAIN ST","PLEASANTVILLE","NJ","08232"
187136,"363 SANDERS DAVIES RD","NEWNAN","GA","30263"
187137,"363 SEVEN SPRINGS LOOP","STATESVILLE","NC","28625"
187138,"363 SOUTH MAIN STREET","FOND DU LAC","WI","54935"
187139,"363 THACKERAY LANE","NORTHFIELD","IL","60093"
187140,"363 TWISTING RD","LEXINGTON","SC","29072"
187141,"363 VERSAILLES ROAD   SUITE E","FRANKFORT","KY","40601"
187142,"363 W COWBOY WAY","LABELLE","FL","33935"
187143,"363 WALLACE HILL RD","RANDOLPH","VT","05060"
187144,"363 WEST 51ST ST 4E","NEW YORK","NY","10019"
187145,"363 WEST DR","BILOXI","MS","39531"
187146,"363 WEST L STREET","COLTON","CA","92324"
187147,"363 WHITE HOUSE WAY","PORT HUENEME","CA","93043"
187148,"363 WINTERHAWK LN","ONTARIO","OR","97914"
187149,"363","BRIDGER","MT","59014"
187150,"363","HILLIARD","OH","43026"
187151,"363","MILLBROOK","AL","36054"
187152,"3630 213TH ST","MATTESON","IL","60443"
187153,"3630 ALLANDALE LANE","MEMPHIS","TN","38111"
187154,"3630 BELGIUM LANE","SAN ANTONIO","TX","78219"
187155,"3630 COLLEGE STREET","JACKSONVILLE","FL","32205"
187156,"3630 CRENNA AVE","CONCORD","CA","94519"
187157,"3630 EAGLE RIDGE DRIVE","WOODBRIDGE","VA","22191"
187158,"3630 FAIRMOUNT BLVD","CLEVELAND","OH","44118"
187159,"3630 GEORGIA STREET APT 4","SAN DIEGO","CA","92103"
187160,"3630 HARRY HINES BLVD BOX 18","DALLAS","TX","75219"
187161,"3630 HARRY HINES BLVD","DALLAS","TX","75219"
187162,"3630 HIGH STREET   UNIT 18642","OAKLAND","CA","94619"
187163,"3630 HIGH STREET UNIT 19157","OAKLAND","CA","94619"
187164,"3630 JEWEL LAKE RD","ANCHORAGE","AK","99502"
187165,"3630 LEWISTON RD","GREENSBORO","NC","27410"
187166,"3630 LYLE CREEK AVE NE","CONOVER","NC","28613"
187167,"3630 MANCHESTER RD","COVENTRY TOWNSHIP","OH","44319"
187168,"3630 MARATHON STREET APT 218","BROOKLYN","NY","11249"
187169,"3630 MCDUFF AVE","MEMPHIS","TN","38111"
187170,"3630 N GOVERNMENT WAY","COEUR D'ALENE","WA","83815"
187171,"3630 NW 197 STREET","MIAMI GARDENS","FL","33056"
187172,"3630 NW 33RD AVENUE","LAUDERDALE LAKES","FL","33309"
187173,"3630 PASTEUR LANE","ROSHARON","TX","77583"
187174,"3630 PEARL CT","NAVARRE","FL","32566"
187175,"3630 PENDLETON COURT","HEARTLAND","TX","75126"
187176,"3630 POINT HITCH ROAD","GLENWOOD","MD","21738"
187177,"3630 S SEPULVEDA BLVD UNIT 249","LOS ANGELES","CA","90034"
187178,"3630 SAVANNAH PLACE DRIVE BLDG B","DULUTH","GA","30096"
187179,"3630 SINTON ROAD","COLORADO SPRINGS","CO","80907"
187180,"3630 SOUTH PLAZA TRAIL STE 210 J","VIRGINIA BEACH","VA","23452"
187181,"3630 SOUTH PLAZA TRL STE 210 G","VIRGINIA BEACH","VA","23452"
187182,"3630 SOUTH RALSTON AVE","INDEPENDENCE","MO","64052"
187183,"3630 SOUTHPARK DRIVE","HIGH POINT","NC","27263"
187184,"3630 SW 46TH AVE","WEST PARK","FL","33023"
187185,"3630 SW SHATTUCK RD","PORTLAND","OR","97221"
187186,"3630 VALLEYWAY RD","CUMMING","GA","30040"
187187,"3630 W FLOURNOY ST B","CHICAGO","IL","60624"
187188,"3630 W GEORGIA AVE","PHOENIX","AZ","85019"
187189,"3630 WASATCH AVE","LOS ANGELES","CA","90066"
187190,"3630-2 N JOSEY LANE STE 212","CARROLLTON","TX","75007"
187191,"36300 8TH STREET","NEHALEM","OR","97131"
187192,"36300 WOODWARD AVE","BLOOMFIELD HILLS","MI","48304"
187193,"36309 NE 91ST WAY","CARNATION","WA","98014"
187194,"3631 ATHENS HIGHWAY","MADISON","GA","30650"
187195,"3631 CHAMBLEE TUCKER RD  STE A 294","ATLANTA","GA","30341"
187196,"3631 CLEAR FALLS DR","KINGWOOD","TX","77339"
187197,"3631 CRETE AVE","MERIDIAN","ID","83642"
187198,"3631 DOROTHY LANE","WATERFORD","MI","48329"
187199,"3631 DWYER LANE","AIKEN","SC","29801"
187200,"3631 EAST 1ST STREET SUITE 7","LONG BEACH","CA","90803"
187201,"3631 EVE CIR J","MIRA LOMA","CA","91752"
187202,"3631 EXPEDITION DRIVE","TRIANGLE","VA","22172"
187203,"3631 FALKNER DRIVE","NAPERVILLE","IL","60564"
187204,"3631 HWY 101 N","GEARHART","OR","97138"
187205,"3631 ISABEL COURT","BLACKSBURG","VA","24060"
187206,"3631 LEXINGTON AVE","PORT ARTHUR","TX","77642"
187207,"3631 LINCOLN DRIVE","FRISCO","TX","75034"
187208,"3631 MAIN STREET","ST BONIFACIUS","MN","55375"
187209,"3631 MINNESOTA DRIVE","FORT MYERS","FL","33916"
187210,"3631 N KEELER AVE","CHICAGO","IL","60641"
187211,"3631 OHIO AVE","SAINT LOUIS","MO","63118"
187212,"3631 PARKER KNOLL LANE","COLUMBIS","OH","43219"
187213,"3631 RANSOM PLACE","ALEXANDRIA","VA","22306"
187214,"3631 RAWNSDALE ROAD","SHAKER HEIGHTS","OH","44122"
187215,"3631 REEVES DRIVE","MELVINDALE","MI","48122"
187216,"3631 RUBLE ROAD","TURLOCK","CA","95380"
187217,"3631 SHANNON ROAD","CLEVELAND HEIGHTS","OH","44118"
187218,"3631 WASHINGTON STREET APT 3","COLLEGE PARK","GA","30337"
187219,"3631 WEST COMMERICAL BLVD 131","Ft. Lauderdale","FL","33309"
187220,"3631 WINSTROME COURT","KATY","TX","77449"
187221,"36310 SE 13TH ST","WASHOUGAL","WA","98671"
187222,"36311 DETROIT ROAD SUITE 205","AVON","OH","44011"
187223,"36314 43RD STREET EAST","PALMDALE","CA","93557"
187224,"36319 LAKE UNITY NURSERY ROAD","FRUITLAND PARK","FL","34731"
187225,"3632 CHAMBLEE TUCKER RD","ATLANTA","GA","30341"
187226,"3632 DORAL DR","ELGIN","IL","60124"
187227,"3632 HIGHLANDS CIRCLE","MARTINEEZ","GA","30907"
187228,"3632 HUDDLESTONE LANE","BUFORD","GA","30519"
187229,"3632 KEAOLELE PLACE","HONOLULU","HI","96816"
187230,"3632 SOUTH POPE AVENUE","INDEPENDENCE","MO","64055"
187231,"3632 ULLOA STREET","SAN FRANCISCO","CA","94116"
187232,"3632 W GRENSHAW","CHICAGO","IL","60624"
187233,"3632","OMAHA","NE","68103"
187234,"36320 LANIGAN RD","DADE CITY","FL","33523"
187235,"3633 ANNANDALE DRIVE","CHARLOTTE","NC","28269"
187236,"3633 BARCROFT VIEW TERRACE 102","FALLS CHURCH","VA","22041"
187237,"3633 BERKSHIRE ST","EUGENE","OR","97401"
187238,"3633 BRINKMORE ROAD","CLEVELAND HEIGHTS","OH","44121"
187239,"3633 CALLE SERENA","LANCASTER","CA","93536"
187240,"3633 EAST SANDPIPER DR","BOYNTON BEACH","FL","33436"
187241,"3633 EAST THUNDERBIRD ROAD","PHOENIX","AZ","85032"
187242,"3633 GRAY AVENUE","ADAMSVILLE","AL","35005"
187243,"3633 HORNER PLACE SE","WASHINGTON","DC","20032"
187244,"3633 LESLIE ANN ROAD","BIRMINGHAM","AL","35243"
187245,"3633 MARKET PLACE WEST SUTIE 221","TACOMA","WA","98466"
187246,"3633 MICHIGAN","ST LOUIS","MO","63136"
187247,"3633 N 3RD AVE UNIT 2049","PHOENIX","AZ","85013"
187248,"3633 N 3RD AVENUE UNIT 2064","PHOENIX","AZ","85013"
187249,"3633 N FM 1486 RD","MONTGOMERY","TX","77356"
187250,"3633 NAPA LANE","NORMAL","IL","61761"
187251,"3633 RUSHLAND AVE","TOLEDO","OH","43613"
187252,"3633 S 20TH ST","ABILENE","TX","79605"
187253,"3633 S MORGANTOWN ROAD","GREENWOOD","IN","46143"
187254,"3633 TIOGA ST","DALLAS","TX","75241"
187255,"3633 VICTORY BOULEVARD","STATEN ISLAND","NY","10314"
187256,"3633 WEST SHORE DR","SHERWOOD","AR","72120"
187257,"36330 HIDDEN SPRINGS RD STE E","WILDOMAR","CA","92595"
187258,"36330 HIDDEN SPRINGS ROAD SUITE E","WILDOMAR","CA","92595"
187259,"36332 WENDELL ST","AVON","OH","44011"
187260,"3634 AUTUMN RIDGE PKWY","MARIETTA","GA","30066"
187261,"3634 CENTRAL AVE","PENN YAN","NY","14527"
187262,"3634 E AVE H13","LANCASTER","CA","93535"
187263,"3634 EL JAMES","SPRING","TX","77388"
187264,"3634 FALLEN OAK LANE","BUFORD","GA","30519"
187265,"3634 NORTH 100 EAST","PROVO","UT","84604"
187266,"3634 OLD ELIZABETHTOWN ROAD","HODGENVILLE","KY","42748"
187267,"3634 RALEIGH MILLINGTON","MEMPHIS","TN","38128"
187268,"3634 ROCKWOOD ROAD-P O BOX358","ROCKWOOD","ME","04478"
187269,"3634 SW 5TH PLACE","CAPE CORAL","FL","33914"
187270,"3634 TULSA WAY","FORT WORTH","TX","76107"
187271,"3634 WEST MARKET ST STE 104","AKRON","OH","44333"
187272,"36346 CHITTAM WOOD PLACE","MURRIETA","CA","92562"
187273,"3634B CLARKSVILLE HWY","NASHVILLE","TN","37218"
187274,"3635 ALPINE DR","SANTA CLARA","UT","84765"
187275,"3635 ARTESIAN AVE","ARMSTORNG","IL","61812"
187276,"3635 BAY POINTE DR","SHERRILLS FORD","NC","28673"
187277,"3635 BRIAR RUN DRIVE","CLERMONT","FL","34711"
187278,"3635 BROCKENBROUGH DRIVE","DUMFRIES","VA","22026"
187279,"3635 CLAYTON TRACE TRAIL","HOUSTON","UT","77082"
187280,"3635 CLEVELAND AVENUE","COLUMBUS","OH","43224"
187281,"3635 DELTON DR","BALDWIN PARK","CA","91706"
187282,"3635 DUNKIRK DRIVE","OXNARD","CA","93035"
187283,"3635 EAST LAKE DRIVE","LAND O LAKES","FL","34639"
187284,"3635 EMILY DR","PORT ALLEN","LA","70767"
187285,"3635 FAIR OAKS PLACE","LONGBOAT KEY","FL","34228"
187286,"3635 GREENLEAF ST","SKOKIE","IL","60076"
187287,"3635 HWY 177","WALLACE","SC","29596"
187288,"3635 MADISON CYPRESS DR","LUTZ","FL","33558"
187289,"3635 MANASSAS AVE","MELBOURNE","FL","32934"
187290,"3635 MAXWELL DRIVE","WANTAGH","NY","11793"
187291,"3635 NOTASULGA ROAD","TALLASSEE","AL","36078"
187292,"3635 OLIN AVE","OMAHA","NE","68105"
187293,"3635 ROCHESTER ROAD","TROY","MI","48083"
187294,"3635 S FORT APACHE RD STE 200","LAS VEGAS","NV","89147"
187295,"3635 S FORT APACHE ROAD 200-5","LAS VEGAS","NV","89147"
187296,"3635 S FORT APACHE ROAD SUITE 200-2","LAS VEGAS","NV","89147"
187297,"3635 S MCINTOSH COURT","NEW BERLIN","WI","53151"
187298,"3635 SHADOW COVE DR","HOUSTON","TX","77082"
187299,"3635 SKIPPER BRIDGE ROAD","VALDOSTA","GA","31605"
187300,"3635 SOUTH BARCELONA STREET  APT 1","SPRING VALLEY","CA","91977"
187301,"3635 SPANISH TRACE DRIVE","HEPHZIBAH","GA","30815"
187302,"3635 STANWOOD DRIVE","DEWITT","MI","48820"
187303,"3635 SW 87 PL","MIAMI","FL","33165"
187304,"3635 WEST STATE ROAD","ELIDA","OH","45807"
187305,"3635 WILLOWWOOD BLVD","SAN ANTONIO","TX","78219"
187306,"3635 WINTERS HILL DRIVE","ATLANTA","GA","30360"
187307,"36351 MILLS ROAD","NORTH RIDGEVILLE","OH","44039"
187308,"36359 MAGELLAN DR","FREMONT","CA","94536"
187309,"3636 16TH ST NW 4TH FLOOR","WASHINGTON","DC","20010"
187310,"3636 16TH ST NW STE A1269","WASHINGTON","DC","20010"
187311,"3636 16TH ST NW","WASHINGTON","DC","20010"
187312,"3636 16TH STREET NW APT  A608","WASHINGTON","DC","20010"
187313,"3636 ATLANTIC AVENUE 318","LONG BEACH","CA","90807"
187314,"3636 AZURE CIRCLE","CARLSBAD","CA","92008"
187315,"3636 BIRCH STREET","NEWPORT BEACH","CA","92660"
187316,"3636 COLLEGE STREET","COLLEGE PARK","GA","30337"
187317,"3636 DIAMOND CIRCLE","DECATUR","GA","30034"
187318,"3636 E PACES CIRCLE UNIT 1303","ATLANTA","GA","30326"
187319,"3636 FRENTRESS DRIVE","LAKELAND","FL","33812"
187320,"3636 GOVERNMENT ST","ALEXANDRIA","LA","71301"
187321,"3636 HANEY RD","DAYTON","OH","45416"
187322,"3636 HAWTHORNE DRIVE","FLINT","MI","48503"
187323,"3636 KATY HOLLAR RD","SEVIERVILLE","TN","37862"
187324,"3636 KEYSTONE AVENUE 1","LOS ANGELES","CA","90034"
187325,"3636 LANDER ROAD","JEFFERSON","MD","21755"
187326,"3636 N CRESCENT AVE","INDIANAPOLIS","IN","46208"
187327,"3636 N LEAVITT ST","CHICAGO","IL","60618"
187328,"3636 N MACARTHUR BLVD SUTIE 160","IRVING","TX","75062"
187329,"3636 NOBEL DRIVE SUITE 170","SAN DIEGO","CA","92122"
187330,"3636 OLD SPANISH TRAIL B1 229","HOUSTON","TX","77021"
187331,"3636 OLD SPANISH TRAIL STE B-1 269","HOUSTON","TX","77021"
187332,"3636 PANOLA ROAD  SUITE A","LITHONIA","GA","30038"
187333,"3636 PORTLAND AVE S","MINNEAPOLIS","MN","55407"
187334,"3636 RIVERVAIL DR","COLUMBUS","OH","43221"
187335,"3636 S IRON ST STE 338C","CHICAGO","IL","60609"
187336,"3636 SHEFFIELD MONROE RD","KINGSVILLE","OH","44048"
187337,"3636 SOLAR VISTA PLACE","CINCINNATI","OH","45213"
187338,"3636 SOUTH GEYER ROAD SUITE 100","SAINT LOUIS","MO","63127"
187339,"3636","CHICAGO","IL","60609"
187340,"36361 LIME BANK RD","LOGAN","OH","43138"
187341,"3637 1ST AVE","GLENDALE","CA","91214"
187342,"3637 CHESTNUT ST","PHILADELPHIA","PA","19104"
187343,"3637 COLUMBIA PKWY","DECATUR","GA","30034"
187344,"3637 DEL PRADO BLVD S STE 301","CAPE CORAL","FL","33904"
187345,"3637 DR MARTIN LUTHER KING BLVD","FORT MYERS","FL","33916"
187346,"3637 E CO RD 1200N","BATESVILLE","IN","47006"
187347,"3637 E TRINITY MILLS RD 1911","DALLAS","TX","75287"
187348,"3637 FREDA COURT","DECATUR","GA","30034"
187349,"3637 GLENDON AVE SUITE 203","LOS ANGELES","CA","90034"
187350,"3637 HALF SOUTH VICTORIA AVENUE","LOS ANGELES","CA","90016"
187351,"3637 JASMINE ST","DENVER","CO","80207"
187352,"3637 MAGEE AVE","oakland","CA","94619"
187353,"3637 N MAGNOLIA AVE APT 2","CHICAGO","IL","60613"
187354,"3637 RUSSELL ROAD","ALEXANDRIA","VA","22305"
187355,"3637 S LAKESHORE DR","BYRNES MILL","MO","63051"
187356,"3637 SEA GULL ROAD","VIRGINIA BEACH","VA","23452"
187357,"3637 SINGLETON TERRACE","FREDERICK","MD","21704"
187358,"3637 SOUTH STATE STREET UNIT 301","CHICAGO","IL","60609"
187359,"3637 US HWY 259 APT 1609","LONGVIEW","TX","75605"
187360,"3637 W EL SEGUNDO BLVD UNIT C","HAWTHORNE","CA","90250"
187361,"3637 WEST 3900 SOUTH","WEST VALLEY CITY","UT","84120"
187362,"36375 GRAND AVE APT 204","FARMINGTON","MI","48335"
187363,"36377 TARPON DRIVE","LEWES","DE","19958"
187364,"3637W81PL","CHGO","IL","60652"
187365,"3638 14TH AVE S","SAINT PETERSBURG","FL","33711"
187366,"3638 BELLINGER COURT SUITE B","SACRAMENTO","CA","95660"
187367,"3638 BROADWATER ROAD","CHESTER","VA","23831"
187368,"3638 COMMODORE JOSHUA BARNEY DR NE","WASHINGTON","DC","20018"
187369,"3638 E TREMAINE CT","GILBERT","AZ","85234"
187370,"3638 GUNSTON ROAD","ALEXANDRIA","VA","22302"
187371,"3638 IDLECREEK DRIVE","DECATUR","GA","30034"
187372,"3638 NESTING RIDGE DRIVE","ROCHESTER HILLS","MI","48309"
187373,"3638 SOUTH PERKINS ROAD","MEMPHIS","TN","38118"
187374,"3638 SW SUNSET TRACE CIRCLE","PALM CITY","FL","34990"
187375,"3638 W 113TH ST APT 14","INGLEWOOD","CA","90303"
187376,"3638 WILLETT AVENUE","BRONX","NY","10467"
187377,"3638 WINDING WAY RD SW","ROANOKE","VA","24015"
187378,"36380 GARFIELD RD SUITE 4","CLINTON TOWNSHIP","MI","48035"
187379,"36385 SUTTER AVE","LUCERNE VALLEY","CA","92356"
187380,"36388 SEACOCK CHAPEL ROAD","ZUNI","VA","23898"
187381,"3639  TIMBER COURT","NEW ORLEANS","LA","70131"
187382,"3639 62ND AVE E","BRADENTON","FL","34203"
187383,"3639 ALLENDALE CIRCLE","PITTSBURGH","PA","15204"
187384,"3639 AMBASSADOR CAFFERY PKWY SUITE","LAFAYETTE","LA","70503"
187385,"3639 CAMPFIELD","KATY","TX","77449"
187386,"3639 COBB HILL ROAD","CAZENOVIA","NY","13035"
187387,"3639 FM 1565","CADDO MILLS","TX","75135"
187388,"3639 FOOTHILL BLVD SUITE 203","GLENDALE","CA","91214"
187389,"3639 HARBOR BLVD SUITE 203A","VENTURA","CA","93001"
187390,"3639 HAVEN WAY","BURBANK","CA","91504"
187391,"3639 HENPECK RD PO BOX 86","BLADENSBURG","OH","43005"
187392,"3639 JAMAICA DR","AUGUSTA","GA","30909"
187393,"3639 MIDWAY DR STE B 373","SAN DIEGO","CA","92110"
187394,"3639 NEW GETWELL ROAD  SUITE 16","MEMPHIS","TN","38118"
187395,"3639 OLIVE AVE","LONG BEACH","CA","90807"
187396,"3639 SAYLES BLVD","ABILENE","TX","79605"
187397,"3639 WEST LEXINGTON","CHICAGO","IL","60624"
187398,"3639 WILLOW OAK CIRCLE NW","CLEVELAND","TN","37312"
187399,"364  RUTLAND ROAD 2ND FLOOR","BROOKLYN","NY","11225"
187400,"364 2ND AVE E","TWIN FALLS","ID","83301"
187401,"364 9TH STREET NE UNIT C","EAST WENATCHEE","WA","98802"
187402,"364 ATLANTIC AVE","MARBLEHEAD","MA","01945"
187403,"364 AVENUE A","WESTWEGO","LA","70094"
187404,"364 BOSTON TURNPIKE SUITE 2E","SHREWSBURY","MA","01545"
187405,"364 BRYCE WAY","MT WASHINGTON","KY","40047"
187406,"364 CLARENDON RD","UNIONDALE","NY","11503"
187407,"364 CLIFF DR UNIT 2","LAGUNA BEACH","CA","92651"
187408,"364 COMPTON BLVD","COMPTON","CA","90220"
187409,"364 CORONA ST","DENVER","CO","80218"
187410,"364 COTTONWOOD LN","RUSSELLVILLE","AR","72802"
187411,"364 COUNTY ROAD 250","MOULTON","TX","77975"
187412,"364 DAKOTA AVE","ROBERTS","WI","54023"
187413,"364 DECKER AVE","STATEN ISLAND","NY","10302"
187414,"364 E CALIFONIA AVE","RIDGECREST","CA","93555"
187415,"364 E MAIN ST","NEWARK","DE","19711"
187416,"364 E MAIN STREET  SUITE 1003","MIDDLETOWN","DE","19709"
187417,"364 E STATE ST","AMERICAN FORK","UT","84003"
187418,"364 EAST AVE","OSWEGO","NY","13126"
187419,"364 EAST HARRISON STREET","LONG BEACH","NY","11561"
187420,"364 FEDERAL CT","PERTH AMBOY","NJ","08861"
187421,"364 FERRARA WAY","VISTA","CA","92083"
187422,"364 FOSTERTOWN ROAD","NEWBURGH","NY","12550"
187423,"364 GREEN STREET NW  SUITE 2580","GAINESVILLE","GA","30501"
187424,"364 HOLT ROAD","GRAFORD","TX","76449"
187425,"364 KALLUM MILL ROAD","MADISON","NC","27025"
187426,"364 KEYSTONE DRIVE","FENTON","MO","63026"
187427,"364 KNOLLWOOD DR","THOMASVILLE","NC","27360"
187428,"364 LAKESHORE DR","ALTO","NM","88312"
187429,"364 LEDGEWOOD DRIVE","FOND DU SAC","WI","54937"
187430,"364 LEE ST","SYLVA","NC","28779"
187431,"364 LIVINGSTON STREET 1C","BROOKLYN","NY","11217"
187432,"364 MAPLEWOOD AVENUE","STRUTHERS","OH","44471"
187433,"364 N 300 W","BLACKFOOT","ID","83221"
187434,"364 OAK ST","SOUTH HEMPSTEAD","NY","11550"
187435,"364 PARAGON DR","TROY","MI","48098"
187436,"364 PATTESON DRIVE","MORGANTOWN","WV","26505"
187437,"364 PERFECT DRIVE","DAYTONA BEACH","FL","32124"
187438,"364 PERRY AVENUE","LEWISVILLE","TX","75057"
187439,"364 PINE CREST DRIVE","BREMEN","IN","46506"
187440,"364 PINEWOOD DRIVE","COLUMBUS","MS","39702"
187441,"364 PROSPECT STREET","NUTLEY","NJ","07110"
187442,"364 RUTLAND RD","BROOKLYN","NY","11225"
187443,"364 SCOTT ST","BROWNSVILLE","TX","78521"
187444,"364 SE WOODSIDE COURT","MADRAS","OR","97741"
187445,"364 SEANOR CHURCH ROAD","NEW STANTON","PA","15672"
187446,"364 SKYLINE ORCHARD DR","HOCKESSIN","DE","19707"
187447,"364 SMITH RIDGE ROAD","NEW CANAAN","CT","06840"
187448,"364 SOUTH ATLANTIC AVE","ORMOND BEACH","FL","32176"
187449,"364 STONEGATE DR","FRANKLIN","TN","37064"
187450,"364 SW MITCHUM TERRACE","BEAVERTON","OR","97006"
187451,"364 VIEW RIDGE DRIVE","GOODLETTSVILLE","TN","37072"
187452,"364 W 116TH ST 3B","NEW YORK","NY","10026"
187453,"364 WEST 121ST ST APT 2B","NEW YORK","NY","10027"
187454,"364 WEST 3900 NORTH","PROVO","UT","84604"
187455,"364 WEST CANDLER STREET","WINDER","GA","30680"
187456,"364 WEST DIVISION ROAD","VALPARAISO","IN","46385"
187457,"364 WEST MEETINGHOUSE RD","NEW MILFORD","CT","06776"
187458,"3640 COLONEL GLENN HIGHWAY","DAYTON","OH","45435"
187459,"3640 COLONEL GLENN HIGHWAY","FAIRBORN","OH","45435"
187460,"3640 COLONEL GLENN HWY","DAYTON","OH","45435"
187461,"3640 GRAND AVENUE SUITE 206","OAKLAND","CA","94610"
187462,"3640 MORINDA DR","DOUGLASVILLE","GA","30135"
187463,"3640 NEWCASTLE DR SE","GRAND RAPIDS","MI","49508"
187464,"3640 NOTTINGHAM DRIVE NW","ROCHESTER","MN","55901"
187465,"3640 OLD OAKDALE ROAD","MCDONALD","PA","15057"
187466,"3640 PALM CROSSING DRIVE UNIT 102","TAMPA","FL","33613"
187467,"3640 PARK AVE APT 1","MINNEAPOLIS","MN","55407"
187468,"3640 PARK AVE S","MINNEAPOLIS","MN","55407"
187469,"3640 REINDEER CIRCLE","COLORADO SPRINGS","CO","80922"
187470,"3640 RIVER HEIGHTS CROSSING SE","MARIETTA","GA","30067"
187471,"3640 ROSALINA LOOP","ROUND ROCK","TX","78665"
187472,"3640 S CEDAR ST SUITE M","TACOMA","WA","98409"
187473,"3640 SOUTH PLAZA TRAIL STE 101A","VIRGINIA BEACH","VA","23452"
187474,"3640 STARBOARD LANE","SNELLVILLE","GA","30039"
187475,"3640 TROUT RUN ROAD","YORK","PA","17406"
187476,"3640 W GRENSHAW","CHICAGO","IL","60624"
187477,"3640 WHITE PLAINS ROAD","BRONX","NY","10467"
187478,"3640-38 YARBROUGH AVE","WINSTON SALEM","NC","27106"
187479,"36406 HIGHWAY 12","DAYTON","WA","99328"
187480,"36406 HWY 12","DAYTON","WA","99328"
187481,"36409 OLA DR","DENHAM SPRINGS","LA","70706"
187482,"3641 ADAMS ST","GARY","IN","46408"
187483,"3641 CHICAGO AVENUE SOUTH","MINNEAPOLIS","MN","55407"
187484,"3641 COLONNADE CT","REX","GA","30273"
187485,"3641 CORTE RUBIOLO","CASTRO VALLEY","CA","94546"
187486,"3641 GATEWAY DRIVE APT 3C","PORTSMOUTH","VA","23703"
187487,"3641 GEORGIA AVE NW","WASHINGTON","DC","20010"
187488,"3641 HARDY STREET","FORT WORTH","TX","76106"
187489,"3641 HUTCHESON FERRY ROAD","WHITESBURG","GA","30185"
187490,"3641 MOLINE CT","MONROVIA","MD","21770"
187491,"3641 MT DIABLO BOULEVARD - BOX 87","LAFAYETTE","CA","94549"
187492,"3641 NE BROGDEN ST","HILLSBORO","OR","97124"
187493,"3641 PARAMOUNT RIDGE LANE","CINCINNATI","OH","45247"
187494,"3641 PONTIAC STREET","DENVER","CO","80207"
187495,"3641 S PERTH UNIT 102","AURORA","CO","80013"
187496,"3641 S PORT DR","SACRAMENTO","CA","95826"
187497,"3641 SOUTH PORT DRIVE","SACRAMENTO","CA","95826"
187498,"3641 THORNGATE DRIVE","MASON","OH","45040"
187499,"3641 VILLAGE GREEN LANE","MOORHEAD","MN","56560"
187500,"3641 WILLIAMS RD","COLUMBIAVILLE","MI","48421"
