"ID","Address","City","State","Zip"
17001,"1080 ALAMEDA AVE","IDAHO FALLS","ID","83401"
17002,"1080 ANDERSON AVE  APTO 4 F","NEW YORK","NY","10452"
17003,"1080 BERGEN STREET BOX 103","BROOKLYN","NY","11216"
17004,"1080 BICHARA DRIVE BOX 519","THE VILLAGE","FL","32159"
17005,"1080 BINNS BLVD","COLUMBUS","OH","43204"
17006,"1080 BUNKER HILL ROAD","MIDDLETOWN","DE","19709"
17007,"1080 CHESTNUT VIEW LANE","WINSTON SALEM","NC","27105"
17008,"1080 COMPTON RD","MURFREESBORO","TN","37130"
17009,"1080 COVERSTONE DR","WINCHESTER","VA","22602"
17010,"1080 CYPRESS PKWY STE 141","KISSIMMEE","FL","34759"
17011,"1080 E INDIANTOWN RD SUITE 100","JUPITER","FL","33477"
17012,"1080 E JANSS ROAD","THOUSAND OAKS","CA","91360"
17013,"1080 E OAKRIDGE CIRCLE","SANDY","UT","84094"
17014,"1080 E RIVER PKWY","SANTA CLARA","CA","95054"
17015,"1080 EAST BROAD STREET","COLUMBUS","OH","43205"
17016,"1080 ENTERPRISE CT","NOKOMIS","FL","34275"
17017,"1080 HANCOCK SCHOOL RD","SPENCER","IN","47460"
17018,"1080 HAWKWOOD WAY","ALLEN","TX","75013"
17019,"1080 HYDE AVE","SAN JOSE","CA","95129"
17020,"1080 JORDAN CREEK PKWY STE 200 N","WEST DES MOINES","IA","50266"
17021,"1080 KIRTS BOULDEVARD STE 300","TROY","MI","48084"
17022,"1080 LIMA STREET","AURORA","CO","80010"
17023,"1080 LOBLOLLY LANE","HICKORY","NC","28602"
17024,"1080 MAGNOLIA ST","MACON","GA","31201"
17025,"1080 MAIN STREET","BUFFALO","NY","14209"
17026,"1080 MCKINLEY AVE","SCHENECTADY","NY","12303"
17027,"1080 MERCER ST SE","ATLANTA","GA","30316"
17028,"1080 NE 145TH ST","NORTH MIAMI","FL","33161"
17029,"1080 NICHOLSON AVENUE","LAKEWOOD","OH","44107"
17030,"1080 NORTH CALIFORNIA STREET","ORANGE","CA","92867"
17031,"1080 NW 127TH CT","OCALA","FL","34482"
17032,"1080 OLD NATIONAL HIGHWAY","ELGIN","SC","29045"
17033,"1080 OPAL STREET UNIT 103","BROOMFIELD","CO","80020"
17034,"1080 ORYAN TRAIL N","STILLWATER","MN","55082"
17035,"1080 PARK BLVD 604","SAN DIEGO","CA","92101"
17036,"1080 PARK CENTRAL CIRCLE","GROVELAND","FL","34736"
17037,"1080 PROSPECT PLACE","BROOKLYN","NY","11213"
17038,"1080 S POTOMAC ST","HAGERSTOWN","MD","21740"
17039,"1080 SANDY SPRINGS RD NW","HUNTSVILLE","AL","35806"
17040,"1080 SAULSBURY CT","LAKEWOOD","CO","80232"
17041,"1080 SCHADT AVENUE","WHITEHALL","PA","18052"
17042,"1080 TALBOT AVE","JACKSONVILLE","FL","32205"
17043,"1080 TEVLIN ST","ALBAN","CA","94706"
17044,"1080 VEGA WAY","SAN MARCOS","CA","92078"
17045,"1080 W AULT FIELD ROAD   BLDG 138","OAK HARBOR","WA","98278"
17046,"1080 W TROPICAL WAY","PLANTATION","FL","33317"
17047,"1080 WATERVIEW CIR","ANTIOCH","IL","60002"
17048,"1080 WEST PATRICK STREET SUITE 16","FREDERICK","MD","21703"
17049,"1080 WILLIAMSON CIRCLE","PONTIAC","MI","48340"
17050,"1080 WISCONSIN AVE NW UNIT 2010","WASHINGTON","DC","20007"
17051,"10800 ALPHARETTA HWY STE 208-635","ROSWELL","GA","30076"
17052,"10800 BEATRICE WAY","LOUISVILLE","KY","40272"
17053,"10800 BISCAYNE BLVD","MIAMI","FL","33161"
17054,"10800 BRIDGE CREEK CIR","PENSACOLA","FL","32506"
17055,"10800 BRIGHTON BAY BLV NE  STE 9191","ST PETERSBURG","FL","33716"
17056,"10800 CLAY RD APT 2204","HOUSTON","TX","77041"
17057,"10800 DAISY CT","MANASSAS","VA","20109"
17058,"10800 E 49TH STREET","KANSAS CITY","MO","64133"
17059,"10800 E VALENCIA RD","TUCSON","AZ","85747"
17060,"10800 FARLEY  STE 265","OVERLAND PARK","KS","66210"
17061,"10800 GOSLING RD UNIT 130187","SPRING","TX","77393"
17062,"10800 GOSLING ROAD BOX 131176","SPRING","TX","77393"
17063,"10800 GOSLING ROAD SUITE 131146","SPRING","TX","77393"
17064,"10800 JOLIET ST","ST JOHN","IN","46373"
17065,"10800 LAUREL AVENUE UNIT K43","WHITTIER","CA","90605"
17066,"10800 LYNDALE AVE S","BLOOMINGTON","MN","55420"
17067,"10800 MONTEVALLO ROAD","BRIERFIELD","AL","35035"
17068,"10800 MORRISON ROAD","NEW ORLEANS","LA","70127"
17069,"10800 N LA QUINTA DR","TUCSON","AZ","85737"
17070,"10800 NE 53RD CT","VANCOUVER","WA","98686"
17071,"10800 NORTH 2060 ROAD","CANUTE","OK","73626"
17072,"10800 PICKFORD WAY","CULVER CITY","CA","90230"
17073,"10800 SC 707","MURRELLS INLET","SC","29576"
17074,"10800 SHAY LN","RENO","NV","89511"
17075,"10800 SIKES PLACE   SUITE 300","CHARLOTTE","NC","28277"
17076,"10800 SONORA AVENUE","RANCHO CUCAMONGA","CA","91701"
17077,"10800 STAGE ROAD","CLARENCE","NY","14031"
17078,"10800 SW 156 STREET","MIAMI","FL","33157"
17079,"10800 SW 165TH STREET","MIAMI","FL","33157"
17080,"10800 TREE LINE TRL","VANCE","AL","35490"
17081,"10800 WILDWOOD LANE","ROLLA","MO","65401"
17082,"10801 EMILY DR","ISLAND CITY","OR","97850"
17083,"10801 FALCONWING DRIVE","THE WOODLANDS","TX","77381"
17084,"10801 HARCOURT AVE","ANAHEIM","CA","92804"
17085,"10801 JOHNSTON ROAD SUITE 130","CHARLOTTE","NC","28226"
17086,"10801 JOHNSTON ROAD SUITE 202","CHARLOTTE","NC","28226"
17087,"10801 LEMON AVENUE APT 2621","RCH CUCAMONGA","CA","91737"
17088,"10801 NW 14TH ST UNIT 103","MIAMI","FL","33172"
17089,"10801 ROAD RUNNER LANE","DALLAS","TX","75217"
17090,"10801 ROSE AVE NUMBER 24","LOS ANGELES","CA","90034"
17091,"10801 RUSH RD UNIT B","AUSTIN","TX","78732"
17092,"10801 RUSKIN WAY","KANSAS CITY","MO","64134"
17093,"10801 S SUNNYLANE ROAD","OKLAHOMA CITY","OK","73160"
17094,"10801 SO 209TH EA AVE","BROKEN ARROW","OK","74014"
17095,"10801 STARKEY RD SUITE 104 410","SEMINOLE","FL","33777"
17096,"10801 STARKEY ROAD SUITE 104-410","SEMINOLE","FL","33777"
17097,"10801 SW 102 PLACE","MIAMI","FL","33176"
17098,"10801 SW 238TH ST","VASHON","WA","98070"
17099,"10801 TOWN SQUARE DR NE","BLAINE","MN","55449"
17100,"10801 TOWN SQUARE DRIVE","BLAINE","MN","55449"
17101,"10801 VILLA LEA LANE","HOUSTON","TX","77071"
17102,"10801 WEYMOUTH AVE","POWELL","OH","43065"
17103,"10802 CAPITAL AVENUE SUITE 64","GARDEN GROVE","CA","92843"
17104,"10802 LEGACY PARK DR APT 9201","HOUSTON","TX","77064"
17105,"10802 MOONLIT CANYON","SAN ANTONIO","TX","78252"
17106,"10802 N STABE RD","GOLTRY","OK","73739"
17107,"10802 QUAIL PLAZA SUITE 208","OKLAHOMA CITY","OK","73120"
17108,"10802 ROLLER MILL LN","SUGAR LAND","TX","77498"
17109,"10802 TARA OAKS DRIVE","CHARLOTTE","NC","28227"
17110,"10802 W 58TH STREET","SHAWNEE","KS","66203"
17111,"10803 HASKINS STREET","LENEXA","KS","66210"
17112,"10803 HAZEN","HOUSTON","TX","77072"
17113,"10803 NE 63RD CT","VANCOUVER","WA","98686"
17114,"10803 RENO AVENUE","CLEVELAND","OH","44105"
17115,"10804 COLONEL HANCOCK DRIVE","LOUISVILLE","KY","40291"
17116,"10804 GOVERNOR AVE","CLEVELAND","OH","44111"
17117,"10804 LONGMEADOW DRIVE","DAMASCUS","MD","20872"
17118,"10804 LUDLOW AVENUE","HUNTINGTON WOODS","MI","48070"
17119,"10804 MCCOMAS CT","KENSINGTON","MD","20895"
17120,"10804 SOUTH KING DRIVE","CHICAGO","IL","60628"
17121,"10804 US 82 EAST","NAHUNTA","GA","31553"
17122,"10805 CORSICAN ST","ORLANDO","FL","32824"
17123,"10805 DINAH DRIVE","AUSTIN","TX","78748"
17124,"10805 E EL RANCHO DRIVE","SCOTTSDALE","AZ","85259"
17125,"10805 EBERHARDT","GAITHERSBURG","MD","20879"
17126,"10805 HOLDER ST STE 350","CYPRESS","CA","90630"
17127,"10805 KINGSTON PIKE SUITE 200","KNOXVILLE","TN","37934"
17128,"10805 MELLOW LANE","AUSTIN","TX","78759"
17129,"10805 OLD MILL ROAD","OMAHA","NE","68154"
17130,"10805 SUNSET OFFICE DR STE 300","ST LOUIS","MO","63127"
17131,"10805 SUNSET OFFICE DRIVE  STE 100","SAINT LOUIS","MO","63127"
17132,"10806 GREAT CORMORANT DRIVE","RIVERVIEW","FL","33579"
17133,"10806 TERRACE WALK","SAN ANTONIO","TX","78223"
17134,"108065 JACKSON RD","DEER CREEK","OK","74636"
17135,"10807 HARRY HINES BLVD","DALLAS","TX","75220"
17136,"10807 LAUREL STREET","RANCHO CUCAMONGA","CA","91730"
17137,"10807 ROUTE 322","SHIPPENVILLE","PA","16254"
17138,"10808 E FOOTHILL BLVD STE 359","RANCHO CUCAMONGA","CA","91730"
17139,"10808 FOOTHILL BLVD 160 630","RANCHO CUCAMONGA","CA","91730"
17140,"10808 FOOTHILL BLVD 160-174","RANCHO CUCAMONGA","CA","91730"
17141,"10808 FOOTHILL BLVD BLDG 160 STE712","RANCHO CUCAMONGA","CA","91730"
17142,"10808 FOOTHILL BLVD STE160 151","RANCHO CUCAMONGA","CA","91730"
17143,"10808 FOOTHILL BLVD SUITE 160-257","RANCHO CUCAMONGA","CA","91730"
17144,"10808 FOOTHILL BLVD SUITE 160-580","RANCHO CUCAMONGA","CA","91730"
17145,"10808 FOOTHILL BLVD SUITE 320","RANCHO CUCAMONGA","CA","91730"
17146,"10808 FOOTHILL BLVD","RANCHO CUCAMONGA","CA","91730"
17147,"10808 FOOTHILL SUITE 162","RANCHO CUCAMONGA","CA","91730"
17148,"10808 RINGWOOD AVE","SANTA FE SPRINGS","CA","90670"
17149,"10808 ROCKLEDGE VIEW DR","RIVERVIEW","FL","33579"
17150,"10808 S RIVER FRONT PKWY STE 3018","SOUTH JORDAN","UT","84095"
17151,"10808 S RIVER FRONT PKWY SUITE 3064","SOUTH JORDAN","UT","84095"
17152,"10808 S RIVERFRONT PARKWAY STE 3014","SOUTH JORDAN","UT","84095"
17153,"10809 BLACKTHORN LANE","HENRICO","VA","23233"
17154,"10809 GLENDALE AVE NE","ALBUQUERQUE","NM","87122"
17155,"10809 NE FREMONT ST","PORTLAND","OR","97220"
17156,"10809 PAUL AVENUE","BAKERSFIELD","CA","93312"
17157,"10809 S POST RD","HOUSTON","TX","77035"
17158,"10809 TIPPETT ROAD","CLINTON","MD","20735"
17159,"1081 27TH AVE SE","MINNEAPOLIS","MN","55414"
17160,"1081 ANCHOR BAY CIRCLE","GREENSBORO","GA","30642"
17161,"1081 CAMINO DEL RIO SOUTH SUITE 108","SAN DIEGO","CA","92108"
17162,"1081 CAPRICE LANE","FRUIT HEIGHTS","UT","84037"
17163,"1081 CARLSON CORNERS","PORTER","IN","46304"
17164,"1081 COUNTY LINE ROAD","RUDOLPH","WI","54475"
17165,"1081 COUNTY ROAD 121","HESPERUS","CO","81326"
17166,"1081 COVE RD  APT 822","SEVIERVILLE","TN","37876"
17167,"1081 DAVIS STREET","FRANKLIN SQUARE","NY","11010"
17168,"1081 E MAIN ST","GRASS VALLEY","CA","95945"
17169,"1081 FIELDSTONE DRIVE","CANTON","GA","30114"
17170,"1081 LONGBOW COURT","ONEIDA","WI","54155"
17171,"1081 MAIN ST","COVENTRY","CT","06238"
17172,"1081 MAYA STREET","CAMDEN","AR","71701"
17173,"1081 MULBERRY PLACE","TOMS RIVER","NJ","08753"
17174,"1081 PAMPLIN ROAD","PAMPLIN","VA","23958"
17175,"1081 PR 6232 UNIT 1","KARNES CITY","TX","78118"
17176,"1081 S MAIN STREET","SALINAS","CA","93901"
17177,"1081 SEALE RD NW","ROXIE","MS","39661"
17178,"1081 SILVER SPUR LANE","FORT WORTH","TX","76179"
17179,"1081 SUFFRAGETTE CIRCLE","HAINES CITY","FL","33844"
17180,"1081 W 3150 NORTH","OGDEN","UT","84111"
17181,"1081 WANTAGH AVE","WANTAGH","NY","11793"
17182,"1081 WILLOW ST","WOODVILLE","GA","30669"
17183,"1081-B STATE ROUTE 28 BYPASS -145","MILFORD","OH","45150"
17184,"10810 BOYETTE RD 2416","RIVERVIEW","FL","33569"
17185,"10810 BOYETTE RD 2432","RIVERVIEW","FL","33569"
17186,"10810 BOYETTE RD NO 811","RIVERVIEW","FL","33568"
17187,"10810 BOYETTE ROAD 385","RIVERVIEW","FL","33569"
17188,"10810 CHERRY BLOSSOM COURT","ADELPHI","MD","20783"
17189,"10810 COUNTY RD 32","LISMAN","AL","36912"
17190,"10810 DARNESTOWN RD SUITE H1","GAITHERSBURG","MD","20878"
17191,"10810 DRAKELAND","HUMBLE","TX","77396"
17192,"10810 E EL RANCHO DR","SCOTTSDALE","AZ","85259"
17193,"10810 GOLF COURSE TERRACE","BOWIE","MD","20721"
17194,"10810 KATY FREEWAY SUITE 105","HOUSTON","TX","77043"
17195,"10810 LAKE MINNEOLA SHORES","CLERMONT","FL","34711"
17196,"10810 LAKE PATH DRIVE","SAN ANTONIO","TX","78217"
17197,"10810 N TATUM BLVD 102 - 224","PHOENIX","AZ","85028"
17198,"10810 PARKDALE AVENUE","SAN DIEGO","CA","92126"
17199,"10810 SHETLAND BROOK","SAN ANTONIO","TX","78254"
17200,"10810 SW 14 COURT","DAVIE","FL","33324"
17201,"10810 W ACACIA DR","SUN CITY","AZ","85373"
17202,"10810 WEST LIBERTY DRIVE","MILWAUKEE","WI","53224"
17203,"10811 BIRCHWOOD DR","SISTER BAY","WI","54234"
17204,"10811 CRESCENT LANE","CLERMONT","FL","34711"
17205,"10811 DRUMM AVENUE","KENSINGTON","MD","20895"
17206,"10811 FERNDALE RD","DALLAS","TX","75238"
17207,"10811 NE 96TH CT","VANCOUVER","WA","98662"
17208,"10811 NW 34TH PLACE","CORAL SPRINGS","FL","33065"
17209,"10811 W 143RD STREET SUITE 210","ORLAND PARK","IL","60467"
17210,"10812 HARLEY RD","LORTON","VA","22079"
17211,"10812 HEAVENS SCENT LANE","MANASSAS","VA","20110"
17212,"10812 RIVER OAKS TERRACE","MITCHELLVILLE","MD","20721"
17213,"10812 S HALSTED ST","CHICAGO","IL","60628"
17214,"10812 S PEORIA","CHICAGO","IL","60643"
17215,"10812 SOUTH FOREST","CHICAGO","IL","60628"
17216,"10812 W COLLEGE DRIVE","PHOENIX","AZ","85037"
17217,"10812 WASHINGTON CT","KANSAS CITY","MO","64114"
17218,"10813 BEATRICE WAY","LOUISVILLE","KY","40272"
17219,"10813 CARLOWAY HILLS DR","WIMAUMA","FL","33598"
17220,"10813 EASTLAND CIRCLE","UPPER MARLBORO","MD","20772"
17221,"10813 GREEN ASH LANE","BELTSVILLE","MD","20705"
17222,"10813 HASTINGS STREET","WESTCHESTER","IL","60154"
17223,"10813 MARFA WAY","MCKINNEY","TX","75071"
17224,"10814 181ST AVE NE","REDMOND","WA","98052"
17225,"10814 DUANE ST","HOUSTON","TX","77047"
17226,"10814 GA HWY 122","THOMASVILLE","GA","31757"
17227,"10814 OLD COACH RD","POTOMAC","MD","20854"
17228,"10814 POLO DRIVE","BAKERSFIELD","CA","93212"
17229,"10815 AMAR DR","CONROE","TX","77303"
17230,"10815 CARDIGAN DR","EL PASO","TX","79935"
17231,"10815 GUNSEL TRAIL","SAN ANTONIO","TX","78245"
17232,"10815 M-43 HIGHWAY","RICHLAND","MI","49083"
17233,"10815 MALDEN DR","HOUSTON","TX","77075"
17234,"10815 MEADOWHILL ROAD","SILVER SPRING","MD","20901"
17235,"10815 N 50 AVE","OMAHA","NE","68152"
17236,"10815 N HIGHWAY 38","DEWEYVILLE","UT","84309"
17237,"10815 N HWY 38","DEWEYVILLE","UT","84309"
17238,"10815 N KENDALL DR APT 242","MIAMI","FL","33176"
17239,"10815 OAK ACRES DRIVE","HOUSTON","TX","77065"
17240,"10815 S WESTERN AVE STE B","LOS ANGELES","CA","90047"
17241,"10815 VISTA GARDENS DRIVE","BOWIE","MD","20720"
17242,"10816 79TH ST E","PARRISH","FL","34219"
17243,"10816 BURBANK BOULEVARD","NORTH HOLLYWOOD","CA","91601"
17244,"10816 FOREST PATH DRIVE","ST LOUIS","MO","63128"
17245,"10816 UPTON AVE S","BLOOMINGTON","MN","55431"
17246,"10816 WASHINGTON BLVD","CULVER CITY","CA","90232"
17247,"10817 LONGWORTH AVENUE","DOWNEY","CA","90241"
17248,"10817 RANGE VIEW DRIVE","AUSTIN","TX","78730"
17249,"10817 REDWOOD LANE","BERLIN","MD","21811"
17250,"10817 S BOUSE DR","SILVER LAKE","IN","46982"
17251,"10817 W BRIDGFORD DR","CARY","NC","27518"
17252,"10817 WEEPING WILLOW LANE 101","BELTSVILLE","MD","20705"
17253,"10818 ALMIRA AVENUE","CLEVELAND","OH","44111"
17254,"10818 GRAND TETON DR","CORPUS CHRISTI","TX","78410"
17255,"10818 KOELEMAY DR","BEAUMONT","TX","77705"
17256,"10818 NE COXLEY DR STE E","VANCOUVER","WA","98662"
17257,"10818 NW 80TH CIR","PARKLAND","FL","33076"
17258,"10818 RT E","PINEVILLE","MO","64856"
17259,"10818 TIMBERGLEN","HOUSTON","TX","77024"
17260,"10819 BUCHANAN COURT","TEMPLE","TX","76502"
17261,"10819 CARDINAL CIRCLE","PLYMOUTH","IN","46563"
17262,"10819 IDLEWILD RD SW","LAKEWOOD","WA","98498"
17263,"10819 PENROSE STREET","SUN VALLEY","CA","91352"
17264,"10819 PRATHAM ROAD","GLENWOOD","NY","14069"
17265,"10819 S KING DRIVE","CHICAGO","IL","60628"
17266,"1082 BOXWOOD LANE","GREENWOOD","IN","46143"
17267,"1082 BROADMOOR ROAD","BRYN MAWR","PA","19010"
17268,"1082 COMMONWEALTH AVENUE APT 200","BOSTON","MA","02215"
17269,"1082 E171ST","CLEVELAND","OH","44119"
17270,"1082 GLENGROVE AVENUE","CENTRAL POINT","OR","97502"
17271,"1082 HUFF RD","ATLANTA","GA","30318"
17272,"1082 LOUISIANA STREET","SULLIVAN","MO","63080"
17273,"1082 LULLWOOD COURT NE","MARIETTA","GA","30066"
17274,"1082 MANDERLY DR","MILFORD","MI","48381"
17275,"1082 N FAIRWAY DR","PONTIAC","MI","48340"
17276,"1082 NORTH RABECK AVENUE","LECANTO","FL","34461"
17277,"1082 NW BROWN ROAD","LAKE CITY","FL","32055"
17278,"1082 OLD ROCK ROAD","CLARKSVILLE","VA","23927"
17279,"1082 PALO VERDE AVE","LONG BEACH","CA","90815"
17280,"1082 REDFISH ROAD","HITCHCOCK","TX","77563"
17281,"1082 ROSEDALE DRIVE NE","ATLANTA","GA","30306"
17282,"1082 SARDIS COVE DR","CHARLOTTE","NC","28270"
17283,"1082 WACCAMAW DR","CONWAY","SC","29526"
17284,"1082 WHITE WILLOW LANE","CHESTERTON","IN","46304"
17285,"10820 BEVERLY BLVD SUITE A5-184","WHITTIER","CA","90601"
17286,"10820 E 30TH","SPOKANE VALLEY","WA","99206"
17287,"10820 ELYSIAN CIRCLE","DAPHNE","AL","36526"
17288,"10820 N 42ND PLACE","PHOENIX","AZ","85028"
17289,"10820 PANCAKE ROAD","OHIO CITY","OH","45874"
17290,"10820 SW 200TH DRIVE APT 475","MIAMI","FL","33157"
17291,"10820 WHITTIER","DETROIT","MI","48224"
17292,"10820 WILLOW RIDGE LOOP","ORLANDO","FL","32835"
17293,"10821 174 ST","JAMAICA","NY","11433"
17294,"10821 FLATLANDS 7TH STREET","BROOKLYN","NY","11236"
17295,"10821 NE 10 AVE","BISCAYNE PARK","FL","33161"
17296,"10821 RAMSGATE DRIVE","SANTEE","CA","92071"
17297,"10821 RED RUN BLVD UNIT 1012","OWINGS MILLS","MD","21117"
17298,"10821 RED RUN BLVD","OWINGS MILLS","MD","21117"
17299,"10822 BARKER GATE CT","CYPRESS","TX","77433"
17300,"10822 COLES CREEK ROAD","TENNYSON","IN","47637"
17301,"10822 CORAL DUNE DRIVE","SOUTH JORDAN","UT","84009"
17302,"10822 ELMDALE DR","HOUSTON","TX","77070"
17303,"10822 NUTMEG RD","PLYMOUTH","IN","46563"
17304,"10822 OTSEGO NUM 212","NORTH HOLLYWOOD","CA","91601"
17305,"10823 ARLINE AVE","LAKEWOOD","CA","90715"
17306,"10823 BRISTOW RD","BRISTOW","VA","20136"
17307,"10823 CHINA BERRY LANE","MACHESNEY PARK","IL","61115"
17308,"10823 LAKE RAVEN CT","CYPRESS","TX","77433"
17309,"10823 LAKEHURST COURT","CINCINNATI","OH","45242"
17310,"10823 MILLARD DRIVE","SAINT JOHN","IN","46373"
17311,"10823 N 33RD DR","PHOENIX","AZ","85029"
17312,"10823 SAGEBERRY DR","HOUSTON","TX","77089"
17313,"10824 OLIVET AVENUE","CLEVELAND","OH","44108"
17314,"10824 OLSON DR  STE-332","RANCHO CORDOVA","CA","95670"
17315,"10824 OLSON DRIVE STE C-311","RANCHO CORDOVA","CA","95670"
17316,"10824 REISTERSTOWN ROAD","OWINGS MILLS","MD","21117"
17317,"10824 WRIGHTWOOD LANE","STUDIO CITY","CA","91604"
17318,"10825 BRIGANTINE DR","INDIANAPOLIS","IN","46256"
17319,"10825 BUNKER HILL DR","CARMEL","IN","46032"
17320,"10825 HAYES RD","CLARKLAKE","MI","49234"
17321,"10825 KEY HAVEN BLVD STE 504","JACKSONVILLE","FL","32218"
17322,"10825 PITTMAN AVE NW","SOUTH HAVEN","MN","55382"
17323,"10825 WEST ESTATES DR","CUPERTINO","CA","95014"
17324,"10826 RED OAK BATTLEBOIRO RD","BATTLEBORO","NC","27809"
17325,"10827 HENLEY CT","COLUMBIA","MD","21044"
17326,"10828 DINEEN DRIVE","KNOXVILLE","TN","37934"
17327,"10828 ELDERBURRY COURT","SAN DIEGO","CA","92126"
17328,"10828 LAKE RIDGE DR S","SEATTLE","WA","98178"
17329,"10828 LEABROOK DRIVE","GLEN ALLEN","VA","23059"
17330,"10828 LOU DILLON AVE","LOS ANGELES","CA","90059"
17331,"10828 OLD MAPLE ROAD","OMAHA","NE","68164"
17332,"10828 REID ALEXANDER LANE","MINT HILL","NC","28227"
17333,"10828 WEST CAVE LOOP","DRIPPING SPRINGS","TX","78620"
17334,"10829 CHASE PARK LANE D","CREVE","MO","63141"
17335,"10829 FULTON WELLS AVE APT 1110","SANTA FE SPRINGS","CA","90670"
17336,"10829 FULTON WELLSAPT 1110","SANTA FE SPRINGS","CA","90670"
17337,"10829 S NORMAL","CHICAGO","IL","60653"
17338,"10829 SILVER CHARM LANE","UNION","KY","41091"
17339,"10829 WILLOW RUN COURT","POTOMAC","MD","20854"
17340,"1083 AUSTIN AVE NE","ATLANTA","GA","30307"
17341,"1083 BUTTON ROCK DR","LONGMONT","CO","80504"
17342,"1083 ESRO RD","FAIRBANKS","AK","99712"
17343,"1083 FRANKLIN TURNPIKE","DANVILLE","VA","24540"
17344,"1083 HARTSVILLE AIRPORT ROAD","HARTSVILLE","SC","29550"
17345,"1083 INDEPENDENDENCE BLVD STE 237","VIRGINIA BEACH","VA","23462"
17346,"1083 LAFAYETTE STREET","ELIZABETH","NJ","07201"
17347,"1083 MEADOW BROOK DRIVE","WOODSTOCK","GA","30188"
17348,"1083 N BOYD ROAD","APACHE JUNCTION","AZ","85119"
17349,"1083 PINEY RUN ROAD","FROSTBURG","MD","21532"
17350,"1083 PRICKLY PEAR PL","COLORADO SPRINGS","CO","80921"
17351,"1083 RED MAPLE WAY","NEW SMYRNA BEACH","FL","32168"
17352,"1083 S DE ANZA BLVD","SAN JOSE","CA","95129"
17353,"1083 S DEE ANN AVENUE","FRESNO","CA","93727"
17354,"1083 SYCAMORE COURT","WIXOM","MI","48393"
17355,"1083 TERRACE ACRES DRIVE","AUBURN","AL","36830"
17356,"1083 VINE STREET PMB 222","HEALDSBURG","CA","95448"
17357,"1083 VINE STREET","HEALDSBURG","CA","95448"
17358,"1083 W  UMPTANUM RD","ELLENSBURG","WA","98926"
17359,"1083 W STATE RD 68","HAUBSTADT","IN","47639"
17360,"1083 WILDCAT CREEK ROAD","MANHATTAN","KS","66503"
17361,"1083","PITTSBORO","NC","27312"
17362,"10830 ARRINGTON DR","RANCHO CORDOVA","CA","95670"
17363,"10830 BIG BONE ROAD","UNION","KY","41091"
17364,"10830 DOWNEY AVE","DOWNEY","CA","90241"
17365,"10830 HIGHWAY 486","PHILADELPHIA","MS","39350"
17366,"10830 N 71ST PLACE SUITE 203","SCOTTSDALE","AZ","85254"
17367,"10830 N CENTRAL EXPWY","DALLAS","TX","75231"
17368,"10830 WARWICK BOULEVARD UNIT 11205","NEWPORT NEWS","VA","23601"
17369,"10831 69TH RD","FOREST HILLS","NY","11375"
17370,"10831 ARNDT RD NE","AURORA","OR","97002"
17371,"10831 CLEAR ARBOR LN","HOUSTON","TX","77034"
17372,"10831 FINCHLEY AVE","RIVERSIDE","CA","92505"
17373,"10831 MELVA RD","LA MESA","CA","91941"
17374,"10831 PANHANDLE RD","HAMPTON","GA","30228"
17375,"10831 SONJA DR","KNOXVILLE","TN","37934"
17376,"10831 W STATE ST","STAR","ID","83669"
17377,"10832 GILBERT DR","BEAUMONT","TX","77705"
17378,"10832 KENWOOD RD","BLUE ASH","OH","45242"
17379,"10833 IRIS BLOOM DR","STOCKTON","CA","95209"
17380,"10833 S LOSTWOOD DRIVE","SANDY","UT","84092"
17381,"10833 VISTA LOMAS DR","EL PASO","TX","79935"
17382,"10834 BLIX STREET APT 205","TOLUCA LAKE","CA","91602"
17383,"10834 OWENS PLACE","TUJUNGA","CA","91042"
17384,"10834 T CIR","OMAHA","NE","68137"
17385,"10835 CARTIER DR","BRIGHTON","MI","48114"
17386,"10835 COPPER HILL DRIVE","JACKSONVILLE","FL","32218"
17387,"10835 FELLOWS HILL DRIVE","PLYMOUTH","MI","48170"
17388,"10835 JENNIFER MARIE  PL","FAIRFAX COUNTY","VA","22039"
17389,"10835 LEOLANG AVENUE","SUNLAND","CA","91040"
17390,"10836 COUNTY ROAD 330","FINDLAY","OH","45840"
17391,"10836 DEVONTREE DR","HASLET","TX","76052"
17392,"10837 ELK RUN TRAIL","SELLERSBURG","IN","47172"
17393,"10837 MILE 1 1/2 W RD","MERCEDES","TX","78570"
17394,"10837 MISSISSIPPI DRIVE N","MINNEAPOLIS","MN","55443"
17395,"10838 HOLE AVE","RIVERSIDE","CA","92505"
17396,"10838 TEDDER LAKE DRIVE","INDIANAPOLIS","IN","46239"
17397,"10839 DREXEL AVENUE","CLEVELAND","OH","44108"
17398,"10839 HIGHWAY 256","ANTLER","ND","58711"
17399,"10839 ROCKLAND DRIVE","LAUREL","MD","20723"
17400,"10839 SCOTCH ROSE ST","HENDERSON","NV","89052"
17401,"10839 ULMERTON ROAD","LARGO","FL","33778"
17402,"10839 YOLO ST","RANCHO CUCAMONGA","CA","91701"
17403,"1084 BRADLEY SQ","SPARKS","NV","89434"
17404,"1084 BRENTNELL AVE","COLUMBUS","OH","43219"
17405,"1084 E 12TH AVE","COLUMBUS","OH","43211"
17406,"1084 E 36TH STREET","BROOKLYN","NY","11210"
17407,"1084 HIGHLAND DR","DEL MAR","CA","92014"
17408,"1084 HOWELL MILL ROAD NW NO 1316","ATLANTA","GA","30318"
17409,"1084 IDAHO ST","CAROL STREAM","IL","60188"
17410,"1084 LARCH DRIVE","WINDSOR","CO","80550"
17411,"1084 LISLE RD","GEORGETOWN","KY","40324"
17412,"1084 MEETING PLACE","CHATTANOOGA","TN","37421"
17413,"1084 MOYLAN LANE","LEXINGTON","KY","40514"
17414,"1084 NORTHFIELD PLACE S","REYNOLDSBURG","OH","43068"
17415,"1084 ORANGE ST","NEWPORT","NC","28570"
17416,"1084 PAWNEE STREET","STRASBURG","CO","80136"
17417,"1084 PUTNAM BLVD","WALLINGFORD","PA","19086"
17418,"1084 RAINTREE DR","PALM BEACH GARDENS","FL","33410"
17419,"1084 SKYHAVEN COVE","SOUTH WEBER","UT","84405"
17420,"1084 STONEYKIRK RD","PELHAM","AL","35124"
17421,"1084 W WALDEN WOOD DRIVE","MURRAY","UT","84123"
17422,"1084 WEST BULLARD AVE","FRESNO","CA","93711"
17423,"1084 WOODLAND AVE SE","ATLANTA","GA","30316"
17424,"1084","LOVELAND","OH","45140"
17425,"10840 E PLACITA DE PASCUA","TUCSON","AZ","85730"
17426,"10840 GILMORE WAY","GRASS VALLEY","CA","95945"
17427,"10840 LONGFELLOW TRACE","SHREVEPORT","LA","71106"
17428,"10840 ROCKLEY ROAD","HOUSTON","TX","77099"
17429,"10840 S ATLANTIC AVE","LYNWOOD","CA","90262"
17430,"10840 S ATLANTIC BLVD","LYNWOOD","CA","90262"
17431,"10840 S STATE ST","CHICAGO","IL","60628"
17432,"10840 STONE CANYON RD 3437","DALLAS","TX","75230"
17433,"10841 DRAGONWOOD DRIVE","TAMPA","FL","33647"
17434,"10841 ENDICOTT DRIVE","RIVERSIDE","CA","92505"
17435,"10841 S HOMAN AVE","CHICAGO","IL","60655"
17436,"10842 MEADOWLEA RD","OWINGS MILLS","MD","21117"
17437,"10842 S FERN RIDGE DR","SOUTH JORDAN","UT","84095"
17438,"10842 STANDING STONE DR","WIMAUMA","FL","33598"
17439,"10842 STANDING STONE DRIVE","WIMAUMA","FL","33598"
17440,"10844 SOLERI DRIVE","COUNTRY CLUB HILLS","IL","60478"
17441,"10847 SW 75 TERRACE","MIAMI","FL","33173"
17442,"10848 8TH AVE SW","SEATTLE","WA","98146"
17443,"10848 FLATLANDS 9TH STREET 27A","BROOKLYN","NY","11236"
17444,"10848 HENDERSON ROAD","FAIRFAX STATION","VA","22039"
17445,"10848 LAKE FOREST DR","CONROE","TX","77384"
17446,"10848 MALLORY DR","ST LOUIS","MO","63123"
17447,"10848 PARKGATE LANE","KNOXVILLE","TN","37934"
17448,"10848 RAVENS CRY STREET","LAS VEGAS","NV","89183"
17449,"10849 INDIAN HEAD IND BLVD","ST LOUIS","MO","63132"
17450,"10849 KURALEI DR","JACKSONVILLE","FL","32246"
17451,"1085 18TH AVE","NEWARK","NJ","07106"
17452,"1085 82ND TER N UNIT B","ST PETERSBURG","FL","33702"
17453,"1085 ADAMS LANE","STARKVILLE","MS","39759"
17454,"1085 APT 3 CHEYENNE CT","GREENVILLE","NC","27858"
17455,"1085 BROWN ROAD","JAMESVILLE","NC","27846"
17456,"1085 BURNING EMBERS LANE","CONCORD","MP","28025"
17457,"1085 DECKNER AVE SW","ATLANTA","GA","30310"
17458,"1085 E ALAMOSA DRIVE","TERRELL","TX","75160"
17459,"1085 KANE CONCOURSE","BAY HARBOR ISLANDS","FL","33154"
17460,"1085 LEWIS RIDGE CIRCLE","LAWRENCEVILLE","GA","30045"
17461,"1085 LINKS DR","MIDWAY","UT","84049"
17462,"1085 MARGUERIATE CT","LAFAYETTE","CA","94549"
17463,"1085 MARGUERITE CT","LAFAYETTE","CA","94549"
17464,"1085 N WASHINGTON ST","PHILADELPHIA","PA","19464"
17465,"1085 NICK DAVIS RD STE 2","HARVEST","AL","35749"
17466,"1085 OAK HILL ROAD","LAFAYETTE","CA","94549"
17467,"1085 OLD CLEMSON HWY STE 7","SENECA","SC","29672"
17468,"1085 PERKINS WAY","SACRAMENTO","CA","95818"
17469,"1085 PIONEER TRAIL","CHASKA","MN","55318"
17470,"1085 ROLLING GREEN DRIVE","WAUKESHA","WI","53186"
17471,"1085 SAN JACINTO","BEAUMONT","TX","77701"
17472,"1085 SCOTT DRIVE","PRESCOTT","AZ","86301"
17473,"1085 SONORA AVE","MANTECA","CA","95337"
17474,"1085 SOUTH HIGHWAY 76","NEWCASTLE","OK","73065"
17475,"1085 SOUTHVIEW CIRCLE","CHULA VISTA","CA","91910"
17476,"1085 TASMAN DR SPC 412","SUNNYVALE","CA","94089"
17477,"1085 TASMAN DRIVE SPACE 777","SUNNYVALE","CA","94089"
17478,"1085 TASMAN DRIVE SPC 777","SUNNYVALE","CA","94089"
17479,"1085 TERRELL CT","CANTON","MI","48187"
17480,"1085 TIMBERLINE TER","ASHLAND","OR","97520"
17481,"1085 W NEW HAMPHSHIRE AVE","SOUTHERN PINES","NC","28387"
17482,"1085 WARBURTON AVENUE  APT 824","YONKERS","NY","10701"
17483,"1085 WARBURTON AVENUE APT 501","YONKERS","NY","10701"
17484,"1085 WARD STREET","MARINE CITY","MI","48039"
17485,"1085 WINDMILL ROAD","WARFIELD","VA","23889"
17486,"1085 WOODMERE ROAD","COLUMBUS","OH","43220"
17487,"10850 E TRAVERSE HIGHWAY SUITE 2225","TRAVERSE CITY","MI","49684"
17488,"10850 LINCOLN TRAIL STE 16","FAIRVIEW HEIGHTS","IL","62208"
17489,"10850 NW JACKSON QUARRY RD","HILLSBORO","OR","97124"
17490,"10850 SW 88 STREET SUITE 109","MIAMI","FL","33176"
17491,"10850 WILSHIRE BLVD 400","LOS ANGELES","CA","90024"
17492,"10850 WILSHIRE BOULEVARD SUITE 520","LOS ANGELES","CA","90024"
17493,"10851 FM 1176","BANGS","TX","76823"
17494,"10851 MASTIN ST STE 200","OVERLAND PARK","KS","66210"
17495,"10851 MASTIN ST SUITE 120","OVERLAND PARK","KS","66210"
17496,"10851 SANDPIPER DRIVE","HOUSTON","TX","77096"
17497,"10851 ST MARYS LN","HOUSTON","TX","77079"
17498,"10851 THISTLE RDG","FISHERS","IN","46038"
17499,"10851 THISTLE RDG","INDIANAPOLIS","IN","46038"
17500,"10852 CEDAR BEND","MINNETONKA","MN","55305"
