"ID","Address","City","State","Zip"
94501,"1855 PLANTATION DR","CLEVELAND","TN","37323"
94502,"1855 PLANTATION DRIVE SE","CLEVELAND","TN","37323"
94503,"1855 PLUMAS STREET SUITE 1","RENO","NV","89509"
94504,"1855 RAES CREEK DR","BOLINGBROOK","IL","60564"
94505,"1855 RUSSELL ROAD","SHREVEPORT","LA","71107"
94506,"1855 SE LANGDALE LN","WAUKEE","IA","50263"
94507,"1855 SILVER BELL ROAD UNIT 217","EAGAN","MN","55122"
94508,"1855 SMARTY JONES SE","ALBUQUERQUE","NM","87123"
94509,"1855 SMOKE RIDGE DR","COLORADO SPRINGS","CO","80919"
94510,"1855 SPRING PARK CT","OCONOMOWOC","WI","53066"
94511,"1855 STRATFORD PARK PLACE 216","RESTON","VA","20190"
94512,"1855 SUNSET DR","RICHMOND HEIGHTS","OH","44143"
94513,"1855 VALLEY ROAD","BERKELEY SPRINGS","WV","25411"
94514,"1855 VISTA WAY","MARGATE","FL","33063"
94515,"1855 W WICKENBURG WAY 125","WICKENBURG","AZ","85390"
94516,"1855 WEST SR 434    SUITE 216","LONGWOOD","FL","32750"
94517,"1855 WOOD ORCHARD DRIVE","MISSOURI CITY","TX","77489"
94518,"18550 CLARKS RUN RD","MOUNT STERLING","OH","43143"
94519,"18550 HATTERAS ST - 115","TARZANA","CA","91356"
94520,"18550 OHIO STREET","DETROIT","MI","48221"
94521,"18550 SW KINNAMAN RD","ALOHA","OR","97078"
94522,"18551 E 160TH AVENUE","BRIGHTON","CO","80601"
94523,"18551 GIBBONS DRIVE","DALLAS","TX","75287"
94524,"18554 CLYDE AVE","LANSING","IL","60438"
94525,"18555 DAYS WAY LANE","AURORA","IN","47001"
94526,"18555 E SMOKY HILL RD 462071","AURORA","CO","80015"
94527,"18555 E SMOKY HILL RD UNIT 461874","AURORA","CO","80015"
94528,"18555 HICKORY COURT 12","LANSING","IL","60438"
94529,"18555 PITTS RD","WELLINGTON","OH","44090"
94530,"18555 WARNER RD","DECATUR","MI","49045"
94531,"18556 W SUNWARD DR","GOODYEAR","AZ","85338"
94532,"18557 RED OAK DRIVE","PRAIRIEVILLE","LA","70769"
94533,"18559 LAKE HARBOR LANE","PRAIRIEVILLE","LA","70769"
94534,"18559 STATE ROUTE 15","NASHVILLE","IL","62263"
94535,"1856 ANCHOR WAY","SEAL BEACH","CA","90720"
94536,"1856 BENICK DRIVE","CONLEY","GA","30288"
94537,"1856 CRAWFORD RD","CLEVELAND","OH","44106"
94538,"1856 CROWDERS CREEK RD","GASTONIA","NC","28152"
94539,"1856 DR M L KING JR WAY","SARASOTA","FL","34234"
94540,"1856 GRAHAM BLVD","VALE","OR","97918"
94541,"1856 JAMESON CIRCLE","LAWRENCEVILLE","GA","30043"
94542,"1856 N 800 E","LEHI","UT","84043"
94543,"1856 N RICHMOND ST","CHICAGO","IL","60647"
94544,"1856 STEVENS BLUFF LN","DALLAS","TX","75208"
94545,"1856 WINDBORNE LANE","GREENWOOD","IN","46143"
94546,"18560 134TH WAY N","JUPITER","FL","33478"
94547,"18560 GODDARD","DETROIT","MI","48234"
94548,"18560 PENN VALLEY DRIVE","PENN VALLEY","CA","95946"
94549,"18565 SOLEDAD CANYON ROAD SUITE 184","CANYON COUNTRY","CA","91351"
94550,"18565 SOLEDAD CANYON ROAD SUITE 300","SANTA CLARITA","CA","91351"
94551,"18568 ROYALTON ROAD 202","STRONGSVILLE","OH","44136"
94552,"1856A HILLSBORO BLVD W","DEERFIELD BEACH","FL","33442"
94553,"1857 13TH ST W","HASTINGS","MN","55033"
94554,"1857 3RD STREET NW","WASHINGTON","DC","20001"
94555,"1857 ATWOOD DR APT 25C","PENSACOLA","FL","32514"
94556,"1857 BANSTEAD COVE","CORDOVA","TN","38016"
94557,"1857 BROOKCROSSING COURT","INDIANAPOLIS","IN","46229"
94558,"1857 COVENTENT LN","LYNWOOD","IL","60411"
94559,"1857 DEWEY AVE BOX 15496","ROCHESTER","NY","14615"
94560,"1857 FLORENCE BYRAM RD","FLORENCE","MS","39073"
94561,"1857 HAWK ROAD","HOME","PA","15747"
94562,"1857 HUGHES TERRACE","PISCATAWAY","NJ","08854"
94563,"1857 JOSIE AVENUE","LONG BEACH","CA","90815"
94564,"1857 LINDA AVE","MARYSVILLE","CA","95901"
94565,"1857 LONGVIEW LANE","TARPON SPRINGS","FL","34689"
94566,"1857 POWERS RD","WOODSTOCK","IL","60098"
94567,"1857 TULIP LANE","WELLINGTON","FL","33414"
94568,"1857 TURNPIKE STREET","STOUGHTON","MA","02072"
94569,"1857 W 35TH ST","CHICAGO","IL","60609"
94570,"1857 W OAKHAMPTON DR","EAGLE","ID","83616"
94571,"1857 WEST WALNUT ST","GARLAND","TX","75042"
94572,"18570 FORT MORGAN RD","GULF SHORES","AL","36542"
94573,"18570 OFFICE PARK DR","GAITHERSBURG","MD","20886"
94574,"18570 OFFICE PARK DRIVE","GAITHERSBURG","MD","20886"
94575,"18570 WAGON TRAIL","MEAD","CO","80542"
94576,"18571 EAST TANGO AVENUE","ANAHEIM","CA","92807"
94577,"18575 JAMBOREE ROAD 6","IRVINE","CA","92612"
94578,"18578 BLAKELY","WOODHAVEN","MI","48183"
94579,"18579 W LAKEVIEW LN","MOUNT VERNON","WA","98274"
94580,"1858 13TH ST SE","SALEM","OR","97302"
94581,"1858 ENTERPRISE DR","TROY","MI","48083"
94582,"1858 GUILFORD ROAD","UPPER ARLINGTON","OH","43221"
94583,"1858 HIGH ST","BLUE ISLAND","IL","60406"
94584,"1858 LAKENOLL DR APT D","CINCINNATI","OH","45231"
94585,"1858 MORNINGSIDE CT","AZUSA","CA","91702"
94586,"1858 N KELLY AVE","UPLAND","CA","91784"
94587,"1858 NORTH CAROLINA AVE","CLOVIS","CA","93619"
94588,"1858 NORTH CAROLINA AVENUE","CLOVIS","CA","93619"
94589,"1858 NORTH KINGSLEY DRIVE","LOS ANGELES","CA","90027"
94590,"1858 NW 141ST AVE","PEMBROKE PINES","FL","33028"
94591,"1858 NW 142ND LANE","MIAMI","FL","33054"
94592,"1858 ONTARIO PL NW","WASHINGTON","DC","20009"
94593,"1858 RINGLING BOULEVARD SUITE 300","SARASOTA","FL","34236"
94594,"1858 S CARISBROOK PL","AUSTELL","GA","30168"
94595,"1858 SANDY SHORES DR","OXFORD","MI","48371"
94596,"1858 SEMINOLE CT","FAYETTEVILLE","AR","72701"
94597,"1858 SQUIRREL VALLEY DRIVE","BLOOMFIELD HILLS","MI","48304"
94598,"1858 W GRANDVIEW BLVD","ERIE","PA","16509"
94599,"1858 W SANTA CLARA DR","MERIDIAN","ID","83642"
94600,"1858 WOODHAVEN CIRCLE","SARASOTA","FL","34232"
94601,"1858","COLSTRIP","MT","59323"
94602,"18581 CAPITOL DR","SOUTHFIELD","MI","48075"
94603,"18585 EAST BEND","DANVERS","IL","61732"
94604,"18585 GUENOC LANE","MIDDLETOWN","CA","95461"
94605,"18587 KERILL ROAD","TRIANGLE","VA","22172"
94606,"18588 SHERMAN AVE","LINCOLN","DE","19960"
94607,"18589 COLSTON CT","LEESBURG","VA","20176"
94608,"1859 13TH ST E","WEST FARGO","ND","58078"
94609,"1859 AIRLINE ROAD","MCDONOUGH","GA","30252"
94610,"1859 BIRD ST","OROVILLE","CA","95965"
94611,"1859 E 66TH ST","LOS ANGELES","CA","90001"
94612,"1859 EM STATELY ST","MINNEAPOLIS","MN","55404"
94613,"1859 FALCON WOOD DR NE","MARIETTA","GA","30066"
94614,"1859 FARMINGTON AVE","CLEVELAND","OH","44112"
94615,"1859 FEATHERWOOD ST","SILVER SPRING","MD","20904"
94616,"1859 HANSON STREET","FORT MYERS","FL","33901"
94617,"1859 HIGHWAY 50","OWENSVILLE","MO","65066"
94618,"1859 MANITOBA CT","KISSIMMEE","FL","34759"
94619,"1859 MONTICELLO ST","PETERBSURG","VA","23805"
94620,"1859 POWELL STREET STE 143","SAN FRANCISCO","CA","94133"
94621,"1859 S ASHLAND AVE UNIT 8103","CHICAGO","IL","60608"
94622,"1859 SAVAGE RD","CHARLESTON","SC","29407"
94623,"1859 W GUADALUPE RD STE 105","MESA","AZ","85202"
94624,"18591 131ST TRAIL NORTH","JUPITER","FL","33478"
94625,"18591 MUSHTOWN ROAD","PRIOR LAKE","MN","55372"
94626,"18592 MAIN STREET","HUNTINGTON BEACH","CA","92648"
94627,"18593 BUSINESS 13 STE 206-205","BRANSON WEST","MO","65737"
94628,"18593 BUSINESS 13 STE 206-207","BRANSON WEST","MO","65737"
94629,"18593 SIMONET DRIVE NW","ELK RIVER","MN","55330"
94630,"18595 RAY ROAD","LONG BEACH","MS","39560"
94631,"18596 SMITH ST NW","ELK RIVER","MN","55330"
94632,"18596 STATE RTE 664 SOUTH","LOGAN","OH","43138"
94633,"18597 BARTOW BLVD","FORT MYERS","FL","33967"
94634,"18598 ST AUBIN ST","DETROIT","MI","48234"
94635,"18599 AVON LANE","SARATOGA","CA","95070"
94636,"18599 LANGLY AVE N","MARINE ON ST CRIOX","MN","55047"
94637,"186  BEECH SPRINGS  RD","OCOEE","TN","37361"
94638,"186 ALEWIFE BROOK PARKWAY UNIT 1030","CAMBRIDGE","MA","02138"
94639,"186 ALEWIFE BROOK PKWY NO 1114","CAMBRIDGE","MA","02138"
94640,"186 ALEWIFE BROOK PKWY","CAMBRIDGE","MA","02138"
94641,"186 ANNWOOD CT","SAINE","MI","48176"
94642,"186 AUBURN AVE NE","ATLANTA","GA","30303"
94643,"186 BACHELOR STREET","WEST NEWBURY","MA","01985"
94644,"186 BRAHMA AVE","BRIDGEWATER","NJ","08807"
94645,"186 BRECKINRIDGE SQ","LOUISVILLE","KY","40220"
94646,"186 BRIANS LAKE ROAD","MOUNTAIN REST ROAD","SC","29664"
94647,"186 BRIANS LAKE ROAD","MOUNTAIN REST","SC","29664"
94648,"186 BUCH AVENUE","LANCASTER","PA","17601"
94649,"186 CARPENTER STREET","PROVIDENCE","RI","02903"
94650,"186 CISCO ROAD","ASHEVILLE","NC","28805"
94651,"186 CLYMER ST APT 24","BROOKLYN","NY","11211"
94652,"186 COMMONWEALTH AVENUE","BOSTON","MA","02116"
94653,"186 COUNTRY ESTATES ROAD","FLORENCE","MS","39073"
94654,"186 COUNTY ROAD 2239","BAGWELL","TX","75412"
94655,"186 CR 367","HONDO","TX","78861"
94656,"186 CRESTRIDGE DR","TIMBERLAKE","NC","27583"
94657,"186 CROOKS SCHOOL RD","CLINTON","PA","15026"
94658,"186 DAVISON PLACE","ENGLEWOOD","NJ","07631"
94659,"186 E CAMERON PLACE","LONG BEACH","CA","90807"
94660,"186 E GISH RD","SAN JOSE","CA","95110"
94661,"186 EAGLE DRIVE","EPHRATA","PA","17522"
94662,"186 ELMWOOD AVENUE","EAST AURORA","NY","14052"
94663,"186 EUCLID ROAD","RAGLEY","LA","70657"
94664,"186 GOFF RD","LUCEDALE","MS","39452"
94665,"186 GOODNIGHT TRAIL","LIVINGSTON","TX","77351"
94666,"186 GOSS LANE","BARNWELL","SC","29812"
94667,"186 GRANNIS RD","CONSTANTIA","NY","13044"
94668,"186 GRASSHOPPER CIR","MOORESVILLE","NC","28117"
94669,"186 HALE STREET","NEW BRUNSWICK","NJ","08901"
94670,"186 HENDERSON BEND RD","KNOXVILLE","TN","37931"
94671,"186 HICKORY RIDGE","ONALASKA","TX","77360"
94672,"186 HOMESTEAD LOOP","JEROME","ID","83338"
94673,"186 HUNTER STREET","NORCROSS","GA","30071"
94674,"186 JOBS POND ROAD","PORTLAND","CT","06480"
94675,"186 KAYAK DRIVE","SAN JOSE","CA","95111"
94676,"186 LAKE SHORE RD-4","BRIGHTON","MA","02135"
94677,"186 LEE ROAD","SHOHOLA","PA","18458"
94678,"186 LENOX RD APT 1E","BROOKLYN","NY","11226"
94679,"186 LENOX RD","RICHMOND","MA","01254"
94680,"186 LINCOLN HGWY","EDISON","NJ","08820"
94681,"186 LINDSEY RD","ROME","GA","30165"
94682,"186 LOWELL ST APT 2","SOMERVILLE","MA","02144"
94683,"186 MADISON STREET","BROOKLYN","NY","11216"
94684,"186 MCALISTER REFUGE HWY","LAS VEGAS","NM","87701"
94685,"186 MILBURY ROAD","COATESVILLE","PA","19320"
94686,"186 MOBILE DRIVE","ROCHESTER","NY","14616"
94687,"186 MOKAPU STREET","KAHULUI","HI","96732"
94688,"186 MORNINGSIDE RD","PARAMUS","NJ","07652"
94689,"186 N COMMERCE WAY","BETHLEHEM","PA","18017"
94690,"186 N COTTAGE RD","STERLING","VA","20164"
94691,"186 N LANSDOWNE AVE","LANSDOWNE","PA","19050"
94692,"186 N VESPER BEND CIRCLE","THE WOODLANDS","TX","77382"
94693,"186 NASSAU AVENUE","FREEPORT","NY","11520"
94694,"186 NATURE LANE","N TAZEWELL","VA","24630"
94695,"186 NEW HOPE RD","LAWRENCEVILLE","GA","30046"
94696,"186 NEWPORT ST","ARLINGTON","MA","02476"
94697,"186 NEWTON ST","MANCHESTER","GA","31816"
94698,"186 NORTH BURNETT DRIVE","BAYTOWN","TX","77520"
94699,"186 OXMOOR ROAD SUITE 116","HOMEWOOD","AL","35209"
94700,"186 PADDOCK WAY","SUMMERVILLE","SC","29486"
94701,"186 PARK STREET","NEWTON","MA","02458"
94702,"186 PIERCE ROAD","FLORENCE","MS","39073"
94703,"186 PIERCE ROAD","TOWNSEND","MA","01469"
94704,"186 PIN OAK CIRCLE","GRAND ISLAND","NY","14072"
94705,"186 PINE CONE DR","DOVER","DE","19901"
94706,"186 PRINCE ROAD","VINCENT","AL","35178"
94707,"186 PROSPECT PL  APT 11","BROOKLYN","NY","11238"
94708,"186 PROSPECT STREET","WALTHAM","MA","02453"
94709,"186 RICHMOND AVENUE","WEST HAVEN","CT","06516"
94710,"186 RIVERSIDE DRIVE 11C","NEW YORK","NY","10024"
94711,"186 SANDPEBBLE DRIVE","WOODLANDS","TX","77381"
94712,"186 SAWMILL ROAD","STAMFORD","CT","06903"
94713,"186 SCOTCH ROAD","EWING","NJ","08628"
94714,"186 SE 12 TER 1607","MIAMI","FL","33131"
94715,"186 SHIPS ROW","MONTROSS","VA","22520"
94716,"186 SHOREVIEW","PACIFICA","CA","94044"
94717,"186 STONE VALLEY WAY","ALAMO","CA","94507"
94718,"186 THORN CREEK WAY","DALLAS","GA","30157"
94719,"186 TRANSFER STATION RD","SMITHVILLE","TN","37166"
94720,"186 TREE FARM LN","LOPEZ ISLAND","WA","98261"
94721,"186 US OVAL","PLATTSBURGH","NY","12903"
94722,"186 W PARKWAY BLVD","COPPELL","TX","75019"
94723,"186 WALNUT STREET","MONT CLARE","PA","19453"
94724,"186 WARWICK STREET 1ST FL","BROOKLYN","NY","11207"
94725,"186 WEST REYNOLDS ST","OZARK","AL","36360"
94726,"186 WESTCHESTER AVENUE","TUCKAHOE","NY","10707"
94727,"186 WINDWARD DRIVE","PORT ISABEL","TX","78578"
94728,"186 WOODWIND DRIVE","BLOOMFIELD HILLS","MI","48304"
94729,"186-17 MERRICK BOULEVARD STE 102","SPRINGFIELD GARDENS","NY","11413"
94730,"1860 130TH AVE","ELLIS","KS","67637"
94731,"1860 43RD AVENUE","CAPITOLA","CA","95010"
94732,"1860 52ND STREET APT 3K","BROOKLYN","NY","11204"
94733,"1860 AUBURN LANE APT 19C","MYRTLE BEACH","SC","29575"
94734,"1860 BARNETT SHOALS RD NUM 103-543","ATHENS","GA","30605"
94735,"1860 BELLE ARBOR DR","NASHVILLE","TN","37207"
94736,"1860 BLAKE STREET SUITE 130","DENVER","CO","80202"
94737,"1860 BROUGHTON STREET","ORANGEBURG","SC","29115"
94738,"1860 BRUSH CREEK ROAD","COLBERT","GA","30628"
94739,"1860 COLUMBIA DRIVE","CONWAY","AR","72034"
94740,"1860 DUNBAR PLACE","BURLINGTON","NC","27215"
94741,"1860 E WHEELING AVE","CAMBRIDGE","OH","43725"
94742,"1860 EAST APPLEBY ROAD","GILBERT","AZ","85298"
94743,"1860 EAST NORTHSIDE DRIVE APT 2506","FORT WORTH","TX","76106"
94744,"1860 EASTWOOD","HIGHLAND PARK","IL","60035"
94745,"1860 FLATSHOALS RD","CONYERS","GA","30013"
94746,"1860 FM 1332","JOURDANTON","TX","78026"
94747,"1860 FM 359 NUMBER 134","RICHMOND","TX","77406"
94748,"1860 FM 359 UNIT 162","RICHMON","TX","77406"
94749,"1860 GLENMONT DR","CANTON","OH","44708"
94750,"1860 GREEN T ROAD","HERNANDO","MS","38632"
94751,"1860 KHAKI LN","CHULA VISTA","CA","91913"
94752,"1860 LAFAYETTE AVE APT 3A","BRONX","NY","10473"
94753,"1860 LAFAYETTE AVE SUITE 1B","BRONX","NY","10473"
94754,"1860 LINCOLN STREET 3RD FLOOR","DENVER","CO","80203"
94755,"1860 MELLWOOD AVE","LOUISVILLE","KY","40206"
94756,"1860 N KENWYCK","YPSILANTI","MI","48198"
94757,"1860 N PINE ISLAND RD STE 107","PLANTTION","FL","33322"
94758,"1860 N SEACREST BLVD APT B","BOYNTON BEACH","FL","33435"
94759,"1860 N WASHINGTON ST SUITE 614","DENVER","CO","80203"
94760,"1860 NORTH PINE ISLAND ROAD 103","PLANTATION","FL","33322"
94761,"1860 NORTH TYLER ROAD","WICHITA","KS","67212"
94762,"1860 OAKLAND DRIVE","MT. PLEASANT","MI","48858"
94763,"1860 PARK AVE","BRIDGEPORT","CT","06604"
94764,"1860 PARTRIDGE CIRCLE","FLORENCE","SC","29505"
94765,"1860 RIVERVIEW ST","EUGENE","OR","97403"
94766,"1860 ROSSINI DRIVE","CARDIFF","CA","92007"
94767,"1860 S 284TH LN UNIT M103","FEDERAL WAY","WA","98003"
94768,"1860 S LONGMORE","MESA","AZ","85202"
94769,"1860 S WALNUT ST SUITE 6","BLOOMINGTON","IN","47403"
94770,"1860 SAN MARCO BLVD","JACKSONVILLE","FL","32207"
94771,"1860 SANDY PLAINS RD STE 204-416","MARIETTA","GA","30066"
94772,"1860 SANDY PLAINS RD SUITE 204-161","MARIETTA","GA","30066"
94773,"1860 SIERRA GARDENS DRIVE 744","ROSEVILLE","CA","95661"
94774,"1860 SW ALEDO LN APT 6306","PORT SAINT LUCIE","FL","34953"
94775,"1860 SW FOUNTAINVIEW BLVD STE 100","PORT ST LUCIE","FL","34986"
94776,"1860 TALMADGE STREET","LOS ANGELES","CA","90027"
94777,"1860 VENICE PARK DRIVE","NORTH MIAMI","FL","33181"
94778,"1860 W BEND DRIVE","BLOOMFIELD HILLS","MI","48302"
94779,"1860 W ROSE GARDEN LANE","PHOENIX","AZ","85027"
94780,"1860 WASHINGTON STREET UNIT 206","DENVER","CO","80203"
94781,"1860 WEST 12TH AVENUE","DENVER","CO","80204"
94782,"1860 WESTMINSTER STREET","PROVIDENCE","RI","02909"
94783,"1860 WILMA RUDOLPH BLVD STE 110A","CLARKSVILLE","TN","37040"
94784,"1860 WILMA RUDOLPH BLVD STE 120","CLARKSVILLE","TN","37040"
94785,"1860 WILMA RUDOLPH BLVD SUITE 109","CLARKSVILLE","TN","37040"
94786,"1860 WILMA RUDOLPH BLVD","CLARKSVILLE","TN","37040"
94787,"1860 WINDING CROSSING TRAIL","FAIRBURN","GA","30213"
94788,"18600 CAISTEAL CASTLE PATH","PFLUGERVILLE","TX","78660"
94789,"18600 DALLAS PARKWAY APT 1432","DALLAS","TX","75287"
94790,"18600 DALLAS PARKWAY APT 1537","DALLAS","TX","75287"
94791,"18600 HEATHWAY LANE","BROOKFIELD","WI","53045"
94792,"18600 W 10 MILE ES STE 207","SOUTHFIELD","MI","48075"
94793,"18600 W 10 MILE RD STE 209","SOUTHFIELD","MI","48075"
94794,"18601 GREEN VALLEY RANCH BLVD 104","DENVER","CO","80249"
94795,"18601 GREEN VALLEY RANCH BLVD","DENVER","CO","80249"
94796,"18601 GREENVALLEY RNCH BLVD 108-133","DENVER","CO","80249"
94797,"18601 GRN VLLY RNCH BLVDSTE 108-372","DENVER","CO","80249"
94798,"18601 MIDDLEBELT","ROMULUS","MI","48174"
94799,"18601 PATRICK HENRY HWY","AMELIA","VA","23002"
94800,"18601 PRAIRIE STREET","NORTHRIDGE","CA","91324"
94801,"18602 CLAY RD PMB 94","HOUSTON","TX","77084"
94802,"18602 COUCH MARKET RD","BEND","OR","97703"
94803,"18602 COUCH MARKET ROAD","BEND","OR","97703"
94804,"18602 E MESCALERO STREET","ROWLAND HEIGHTS","CA","91748"
94805,"18602 N 99TH AVE","SUN CITY","AZ","85373"
94806,"18603 GLENN HAVEN ESTATES DR","SPRING","TX","77379"
94807,"18604 STAMFORD","LIVONIA","MI","48152"
94808,"18605 RUFFNER DR APT 3D","CORNELIUS","NC","28031"
94809,"18605 SW 124 AV","MIAMI","FL","33177"
94810,"18606 HORSE PEN LANE","HOWE","OK","74940"
94811,"18606 LA BLANCA DRIVE","EDINBURG","TX","78542"
94812,"18606 STATE ROUTE 700","HIRAM","OH","44234"
94813,"18609 182 AVE NE","WOODINVILLE","WA","98077"
94814,"18609 35TH DR SE","BOTHELL","WA","98012"
94815,"18609 E STRAWBERRY DR","QUEEN CREEK","AZ","85142"
94816,"18609 N 30TH PLACE","PHOENIX","AZ","85050"
94817,"1861 ANITA PLACE","POCATELLO","ID","83201"
94818,"1861 CHAMPION CIRCLE","VIRGINIA BEACH","VA","23456"
94819,"1861 COOPER FIELDS DRIVE","NASHVILLE","NC","27856"
94820,"1861 ECHO PARK AVE","LOS ANGELES","CA","90026"
94821,"1861 HARSH AVE","MASSILLON","OH","44646"
94822,"1861 HARVEST WAY","LOGANVILLE","GA","30052"
94823,"1861 HIDDEN HOLLOW CT NW","CEDAR RAPIDS","IA","52405"
94824,"1861 MARKLEY ST NW","NORTH CANTON","OH","44720"
94825,"1861 MIDDLESEX ST-APT 107","LOWELL","MA","01851"
94826,"1861 MISSOURI STATE ROAD","ARNOLD","MO","63010"
94827,"1861 N EUCLID ST STE 131","FULLERTON","CA","92835"
94828,"1861 N WEBB RD","WICHITA","KS","67206"
94829,"1861 PALO VERDE AVE","LONG BEACH","CA","90815"
94830,"1861 PEBBLE BEACH CIRCLE","ELGIN","IL","60123"
94831,"1861 PUOWAINA DR","HONOLULU","HI","96813"
94832,"1861 REPOLL ROAD","MOBILE","AL","36695"
94833,"1861 S SUMMERFIELD LN","WASHINGTON","UT","84780"
94834,"1861 STRATFORD AVE","WESTCHESTER","IL","60154"
94835,"1861 WATSON BLVD","WARNER ROBINS","GA","31093"
94836,"1861","MOBILE","AL","36607"
94837,"18610 BLACK KETTLE DRIVE","BOYDS","MD","20841"
94838,"18610 BRANSFORD PL","OLNEY","MD","20832"
94839,"18610 BURNHAM AVENUE SUITE A","LANSING","IL","60438"
94840,"18610 CONNIE AVE","MAGNOLIA","TX","77355"
94841,"18610 E RAVEN DRIVE","QUEEN CREEK","AZ","85142"
94842,"18610 HART STREET","RESEDA","CA","91335"
94843,"18610 SEA TURTLE LANE","BOCA RATON","FL","33498"
94844,"18611 65TH STREET","BANGOR","MI","49013"
94845,"18611 DUCROS RD","PRAIRIEVILLE","LA","70769"
94846,"18611 PELHAM GROVE LANE","RICHMOND","TX","77407"
94847,"18611 WALNUT AVE","COUNTRY CLUB HILLS","IL","60478"
94848,"18611","DAVIDSON","NC","28036"
94849,"18613 WILDEMERE","DETROIT","MI","48221"
94850,"18613 WINDY HOLLOW LANE","WILDWOOD","MO","63069"
94851,"18614 MAIN ST","TONTOGANY","OH","43565"
94852,"18614 S ABIQUA ROAD NE","SILVERTON","OR","97381"
94853,"18615 COACHMANS TRACE","CORNELIUS","NC","28031"
94854,"18615 ELAINE AVENUE","ARTESIA","CA","90701"
94855,"18616 NE 189TH ST","WOODINVILLE","WA","98077"
94856,"18617 LORAS CT","COUNTRY CLUB HILLS","IL","60478"
94857,"18617 N 86TH DRIVE","PEORIA","AZ","85382"
94858,"18617 NE 57TH STREET","REDMOND","WA","98052"
94859,"18619 MCCLELLAN CIR","EAST GARRISON","CA","93933"
94860,"1862 ARCH ST APT 4","BERKELEY","CA","94709"
94861,"1862 BALTIMORE PIKE","GETTYSBURG","PA","17325"
94862,"1862 BLEECKER STREET - 1R","RIDGEWOOD","NY","11385"
94863,"1862 E BELVIDERE RD STE 143","GRAYSLAKE","IL","60030"
94864,"1862 EVANS DRIVE","ATLANTTA","GA","30310"
94865,"1862 GLORY LILY CT","LAS VEGAS","NV","89123"
94866,"1862 GOLD TRAIL","EAGAN","MN","55122"
94867,"1862 HAWKINS ROAD","HODGENVILLE","KY","42748"
94868,"1862 JUAREZ WAY SOUTH","SAINT PETERSBURG","FL","33712"
94869,"1862 JUAREZ WAY SOUTH","ST. PETERBURG","FL","33712"
94870,"1862 NEWPORT HWY","SEVIERVILLE","TN","37876"
94871,"1862 NORTON ST","CHARLESTON","SC","29414"
94872,"1862 PARKERSBURG TURNPIKE","SWOOPE","VA","24479"
94873,"1862 PENSTEMON LANE","SHAKOPEE","MN","55379"
94874,"1862 ST HWY 66","ESTES PARK","CO","80517"
94875,"1862 W STATE ROAD 234","FORTVILLE","IN","46040"
94876,"18620 70TH AVE W","LYNNWOOD","WA","98037"
94877,"18620 TEN MILE ROAD SUITE 160","SOUTHFIELD","MI","48075"
94878,"18621 AMSTUTZ ROAD","AUBURN","IN","46706"
94879,"18621 CEDAR AVE","COUNTRY CLUB HILLS","IL","60478"
94880,"18621 RUNIONS CREEK RD","BROADWAY","VA","22815"
94881,"18621 VENTURA BLVD","TARZANA","CA","91356"
94882,"18623 W KENDALL ST","GOODYEAR","AZ","85338"
94883,"18624 NE MAIN ST","ASHWOOD","OR","97711"
94884,"18625 34TH AVENUE NORTH","PLYMOUTH","MN","55447"
94885,"18625 62 AVE NW","STANWOOD","WA","98292"
94886,"18625 CAMBRIDGE BLVD","SOUTHFIELD","MI","48076"
94887,"18625 MIDWAY ROAD APT A719","DALLAS","TX","75287"
94888,"18627 BROOKHURST 382","FOUNTAIN VALLEY","CA","92708"
94889,"18627 BROOKHURST ST 217","FOUNTAIN VALLEY","CA","92708"
94890,"18627 OLD TRIANGLE ROAD SUITE 155","TRIANGLE","VA","22172"
94891,"18629 COUNTY HIGHWAY 14","CALLAWAY","MN","56521"
94892,"1863 17TH ST","CUYAHOGA FALLS","OH","44223"
94893,"1863 34TH AVE","SAN FRANCISCO","CA","94122"
94894,"1863 ADDISON ROAD SOUTH","DISTRICT HEIGHTS","MD","20747"
94895,"1863 AVE FERNANDEZ JUNCOS APT205","SAN JUAN","PR","00909"
94896,"1863 B CAMBRIA DRIVE","GREENVILLE","NC","27834"
94897,"1863 BISHOP ESTATES RD","SAINT JOHNS","FL","32259"
94898,"1863 CHEROKEE ROSE CIRCLE","MOUNT PLEASANT","SC","29466"
94899,"1863 COUNTY ROAD 79","BILLINGSLEY","AL","36006"
94900,"1863 E EVRY CT","HOLLADAY","UT","84117"
94901,"1863 E MAGDALNA DRIVE","TEMPE","AZ","85283"
94902,"1863 FOSTER AVE","MEMPHIS","TN","38114"
94903,"1863 GARRETT SHORTCUT ROAD","GARRETT","PA","15542"
94904,"1863 GETTYSBURG VILLLAGE DRIVE","GETTYSBURG","PA","17325"
94905,"1863 HIGHWAY 100","CENTERVILLE","TN","37033"
94906,"1863 MARLBORO DR","LEXINGTON","KY","40505"
94907,"1863 N JANTZEN AVE","PORTLAND","OR","97217"
94908,"1863 OAKWOOD AVE","TOLEDO","OH","43607"
94909,"1863 S 161ST AVE","GOODYEAR","AZ","85338"
94910,"1863 SPRINGTIME AVE","CLEARWATER","FL","33755"
94911,"1863 VAUXHALL DR","LITHONIA","GA","30058"
94912,"1863 WOODWORTH ROAD","BINGHAMTON","NY","13903"
94913,"18630 34TH AVENUE NORTH","PLYMOUTH","MN","55447"
94914,"18631 NW 11TH PLACE","MIAMI GARDENS","FL","33169"
94915,"18631 SW 107 AVE","MIAMI","FL","33157"
94916,"18632 PONY EXPRESS DRIVE","PARKER","CO","80134"
94917,"18633 BLUE VIOLET LANE","GAITHERSBURG","MD","20879"
94918,"18633 RIVER WOODS DR","BEND","OR","97702"
94919,"18634 BRIDOON","CYPRESS","TX","77433"
94920,"18634 LOCKSLEY ST","SAN DIEGO","CA","92128"
94921,"18635 CONNIE AVE","MAGNOLIA","TX","77355"
94922,"18635 IH 10 SUITE 750","VIDOR","TX","77662"
94923,"18635 OHIO","DETROIT","MI","48221"
94924,"18636 SD HWY 79","NEWELL","SD","57760"
94925,"18638 TREFOLDIGHED RD","BATTLE LAKE","MN","56515"
94926,"18639 PARTHENIA ST","NORTHRIDGE","CA","91324"
94927,"18639 SANTA MARIE","CLINTON TOWNSHIP","MI","48036"
94928,"1863A CORPORAL KENNEDY STREET3140 S","BAYSIDE","NY","11360"
94929,"1864 39TH STREET SOUTH 212","FARGO","ND","58103"
94930,"1864 ALIF RD NE","RIO RANCHO","NM","87144"
94931,"1864 CHIMNEY STONE COURT","DRAPER","UT","84020"
94932,"1864 EAST INNOVATION PARK SUITE 100","ORO VALLEY","AZ","85755"
94933,"1864 EVENINGSIDE WAY","KENNESAW","GA","30152"
94934,"1864 HIGHWAY 80 E","CALHOUN","LA","71225"
94935,"1864 MADISON AVE","MEMPHIS","TN","38104"
94936,"1864 MARTIN LUTHER KING WAY","SARASOTA","FL","34234"
94937,"1864 MOHICAN COURT","FREMONT","CA","94539"
94938,"1864 MOTEREY PINE DRIVE","ROSEVILLE","CA","95747"
94939,"1864 PRECINCT LINE RD","HURST","TX","76054"
94940,"1864 PRECINCT LINE ROAD","HURST","TX","76054"
94941,"1864 RIVERVIEW ROAD","DAUPHIN","PA","17018"
94942,"1864 SHARWOOD PLACE","CROFTON","MD","21114"
94943,"1864 SOUTH 600 EAST","SALT LAKE CITY","UT","84105"
94944,"1864 STONE CANYON DRIVE","ROSEVILLE","CA","95661"
94945,"1864 SUTTERWOOD DR","REDDING","CA","96002"
94946,"18640 E 14 MILE A5","FRASER","MI","48026"
94947,"18640 MACK AVE UNIT 361307","GROSSE POINTE FARMS","MI","48236"
94948,"18640 MACK","GROSEE POINTE","MI","48236"
94949,"18640 NW 2ND AVE UNIT 695449","MIAMI","FL","33269"
94950,"18640 NW 2ND AVENUE  BOX 3097","MIAMI GARDENS","FL","33169"
94951,"18640 NW WALKER RD","BEAVERTON","OR","97006"
94952,"18642 WEST MCNICHOLS","DETROIT","MI","48219"
94953,"18643 KEELER AVE","COUNTRY CLUB HILLS","IL","60478"
94954,"18644 BAINBRIDGE AVE","LIVONIA","MI","48152"
94955,"18644 US HWY 36","CHRISMAN","IL","61924"
94956,"18644 WOLF CREEK RD","GRASS VALLEY","CA","95949"
94957,"18645 GAINSBOROUGH RD","DETROIT","MI","48223"
94958,"18645 LOWCOUNTRY HIGHWAY","RUFFIN","SC","29475"
94959,"18646 LUMPKIN","DETROIT","MI","48234"
94960,"18646 PIER POINT PLACE","MONTGOMERY VILLAGE","MD","20886"
94961,"18648 E ARROWHEAD TRAIL","QUEEN CREEK","AZ","85142"
94962,"18648 RANCH ROAD 2242","MASON","TX","76856"
94963,"1865 BRICKELL AVE APT A1513","MIAMI","FL","33129"
94964,"1865 COLLEGE AVE","HARRISONBURG","VA","22802"
94965,"1865 DALIA AVE","SAN DIEGO","CA","92154"
94966,"1865 GRASSLAND PKWY","ALPHARETTA","GA","30004"
94967,"1865 GULF TO BAY BOULEVARD","CLEARWATER","FL","33765"
94968,"1865 HERNDON AVE K316","CLOVIS","CA","93611"
94969,"1865 HERNDON AVE NUM K199","CLOVIS","CA","93611"
94970,"1865 HERNDON AVE STE K519","CLOVIS","CA","93611"
94971,"1865 HERNDON AVE SUITE K 570","CLOVIS","CA","93611"
94972,"1865 HERNDON AVENUE SUITE K-622","CLOVIS","CA","93611"
94973,"1865 HI MOUNTAIN ROAD","ARROYO GRANDE","CA","93420"
94974,"1865 HILLSIDE AVE","EAST CLEVELAND","OH","44112"
94975,"1865 INDIAN MERIDIAN","CHOCTAW","OK","73020"
94976,"1865 JF KENNEDY BLVD APT 24","JERSEY CITY","NJ","07305"
94977,"1865 LADD AVE","BRITT","IA","50423"
94978,"1865 LAKEVIEW CHURCH RD","LENOX","GA","31637"
94979,"1865 MAGNOLIA DRIVE","NEDERLAND","CO","80466"
94980,"1865 MCCAFFERY LOOKOUT ROAD","BIGFORK","MT","59911"
94981,"1865 MCKINLEY AVENUE","COLUMBUS","OH","43222"
94982,"1865 N ECONLOCKHATCHEE TRAIL","ORLANDO","FL","32817"
94983,"1865 N HENDERSON ST SUITE11B","GALESBURG","IL","61401"
94984,"1865 N JEFFERSON","SPRINGFIELD","MO","65803"
94985,"1865 NORTH KENWYCK DRIVE","SUPERIOR TWP","MI","48198"
94986,"1865 RIVER RD","COLBERT","OK","74733"
94987,"1865 ROXBURY RD","EAST CLEVELAND","OH","44112"
94988,"1865 ROXBURY ROAD","EAST CLEVELAND","OH","44112"
94989,"1865 TERRY LANE","VICTOR","MT","59875"
94990,"1865 US HWY 2 EAST","HAVRE","MT","59501"
94991,"1865 VETERANS PARK DRIVE SUITE 203","NAPLES","FL","34109"
94992,"1865 W SR 89A STE C","SEDONA","AZ","86336"
94993,"1865 WAKE FOREST AVE","CLERMONT","FL","34711"
94994,"1865 WEBSTER ST","LAKEWOOD","CO","80214"
94995,"1865 WHITEOAK CREEK ROAD","ATHENS","WV","24712"
94996,"1865 WICKS VALLEY DRIVE","MARIETTA","GA","30062"
94997,"18650 LANCASHIRE STREET","DETROIT","MI","48223"
94998,"18651 BUCHANAN STREET NE","EAST BETHEL","MN","55011"
94999,"18651 KITA CT","PORTER","TX","77365"
95000,"18653 VENTURA BLVD 227","TARZANA","CA","91356"
