"ID","Address","City","State","Zip"
362501,"POBOX 734","MIDDLEBURG","FL","32068"
362502,"POBOX 77222","FORT WORTH","TX","76177"
362503,"POBOX 7992","SPRING","TX","77007"
362504,"POBOX 80025","MILWAUKEE","WI","53208"
362505,"POBOX 803","LYNN","MA","01902"
362506,"POBOX 834","MIDDLETON","ID","83644"
362507,"POBOX 838","KAUNAKAKAI","HI","96748"
362508,"POBOX 852801","RICHARDSON","TX","75085"
362509,"POBOX 88","HAMILTON","MT","59840"
362510,"POBOX 895152","LEESBURG","FL","34789"
362511,"POBOX 91","GLOUCESTER","NC","28528"
362512,"POBOX 91344","HOUSTON","TX","77291"
362513,"POBOX 92","GLADEVILLE","TN","37071"
362514,"POBOX 944","GORDONSVILLE","VA","22942"
362515,"POBOX 982","MAXTON","NC","28364"
362516,"POBOX 991","INDIANTOWN","FL","34956"
362517,"POBOX","SUMNER","ME","04292"
362518,"POBOX1234","FORSYTH","MT","59327"
362519,"POBOX163","MEADOWVIEW","VA","24361"
362520,"POBOX17422","HONOLULU","HI","96817"
362521,"POBOX186/4957 EVERGREEN RD","OXFORD","MD","21654"
362522,"POBOX2012","EATONVILLE","FL","32751"
362523,"POBOX2453","ESTES PARK","CO","80517"
362524,"POBOX36","STONEHAM","ME","04231"
362525,"POBOX376","ARROYO HONDO","NM","87513"
362526,"POBOX384","COLUMBIA","CA","95310"
362527,"POBOX421","CARBON HILL","AL","35549"
362528,"POBOX4435","OAK PARK","IL","60304"
362529,"POBOX503","KANKAKEE","IL","60914"
362530,"POBOX514","LEIGHTON","AL","35646"
362531,"POBOX537","WILLARD","OH","44890"
362532,"POBOX5651","PLANTCITY","FL","33563"
362533,"POBOX794","SULPHUR SPRINGS","TX","75482"
362534,"POBOX804","POMEROY","WA","99347"
362535,"POBOX8351","DENVER","CO","80201"
362536,"POBOX9893","PENSACOLA","FL","32513"
362537,"POBX 290661","PHELAN","CA","92329"
362538,"POBX 656","GLEN","NH","03838"
362539,"PONTIAC","PONTIAC","MI","48342"
362540,"POO BOX 430","MOSS BEACH","CA","94038"
362541,"POP BOX 145","VALLIANT","OK","74764"
362542,"POP BOX 167","EAST MOLINE","IL","61244"
362543,"POP BOX 62","CHENEY","WA","99004"
362544,"POP BOX 817","LITTLE FALLS","NY","13365"
362545,"POPE HIGH SCHOOL  3001 HEMBREE ROAD","MARIETTA","GA","30062"
362546,"PORT ROYALE BLVD PAT 416","FT LAUDERDALE","FL","33308"
362547,"PORTER WRIGHT 9132 STRADA PL 3RD FL","NAPLES","LA","34108"
362548,"POST BOX 1365","ZEBULON","NC","27597"
362549,"POST BOX 338141","GREELEY","CO","80634"
362550,"POST BOX 671","TUSKEGEE","AL","36087"
362551,"POST OAK - 21ST FLOOR","HOUSTON","TX","77056"
362552,"POST OFFICCE BOX 694","SPRING CITY","TN","37381"
362553,"POST OFFICE  BOX 12620","DENVER","CO","80212"
362554,"POST OFFICE  BOX 1415","IONE","CA","95640"
362555,"POST OFFICE  BOX 195","MOUNT JULIET","TN","37122"
362556,"POST OFFICE  BOX 382434","BIRMINGHAM","AL","35238"
362557,"POST OFFICE  BOX 5914","KINGWOOD","TX","77325"
362558,"POST OFFICE  BOX 986","FRANKLIN","TN","37065"
362559,"POST OFFICE 1031","FORT LAUDERDALE","FL","33311"
362560,"POST OFFICE 1613","NEWPORT","OR","97365"
362561,"POST OFFICE 287","SCRANTON","SC","29591"
362562,"POST OFFICE 329","MANCHACA","TX","78652"
362563,"POST OFFICE 60336","NORTH CHARLESTON","SC","29419"
362564,"POST OFFICE 6672","THOMASVILLE","GA","31799"
362565,"POST OFFICE 73","LINCOLN","IA","50652"
362566,"POST OFFICE BOX  213","SOMERVILLE","NJ","08876"
362567,"POST OFFICE BOX 1","PERRY","IA","50220"
362568,"POST OFFICE BOX 10","MIDDLEBROOK","VA","24459"
362569,"POST OFFICE BOX 1007","BLOOMFIELD","NJ","07039"
362570,"POST OFFICE BOX 101","STARKE","FL","32091"
362571,"POST OFFICE BOX 10192","SWANZEY","NH","03446"
362572,"POST OFFICE BOX 102","FALL RIVER MILLS","CA","96028"
362573,"POST OFFICE BOX 1020","UNA","SC","29378"
362574,"POST OFFICE BOX 103","JACKSON","NJ","08527"
362575,"POST OFFICE BOX 103","NEW YORK","NY","10056"
362576,"POST OFFICE BOX 10317","CHICAGO","IL","60610"
362577,"POST OFFICE BOX 1046","DYERSBURG","TN","38025"
362578,"POST OFFICE BOX 105","APALACHICOLA","FL","32329"
362579,"POST OFFICE BOX 1052","PITTSFORD","NY","14534"
362580,"POST OFFICE BOX 10532","PENSACOLA","FL","32524"
362581,"POST OFFICE BOX 1055","WOODVILLE","MS","39669"
362582,"POST OFFICE BOX 1062","LOCUST GROVE","VA","22508"
362583,"POST OFFICE BOX 1063","NEW YORK","NY","10009"
362584,"POST OFFICE BOX 10639","PRICHARD","AL","36610"
362585,"POST OFFICE BOX 1072","PARKTON","NC","28371"
362586,"POST OFFICE BOX 1072","SARASOTA","FL","34230"
362587,"POST OFFICE BOX 1090","DICKINSON","TX","77539"
362588,"POST OFFICE BOX 1092","FREDERICKSBURG","VA","22402"
362589,"POST OFFICE BOX 1102","ORLANDO","FL","32802"
362590,"POST OFFICE BOX 11020","CHARLESTON","WV","25339"
362591,"POST OFFICE BOX 11063","SOUTHPORT","NC","28461"
362592,"POST OFFICE BOX 11116","WASHINGTON","DC","20008"
362593,"POST OFFICE BOX 1124","NEWARK","NJ","07101"
362594,"POST OFFICE BOX 11241","SOUTHPORT","NC","28461"
362595,"POST OFFICE BOX 1128","MADISON","AL","35758"
362596,"POST OFFICE BOX 113","CANFIELD","OH","44406"
362597,"POST OFFICE BOX 1136","STATESBORO","GA","30459"
362598,"POST OFFICE BOX 11611","KILLEEN","TX","76547"
362599,"POST OFFICE BOX 1164","ELYRIA","OH","44035"
362600,"POST OFFICE BOX 11656","SOUTH BEND","IN","46634"
362601,"POST OFFICE BOX 1166","GRANBURY","TX","76048"
362602,"POST OFFICE BOX 11774","JACKSON","MS","39283"
362603,"POST OFFICE BOX 1182","MORRISVILLE","NC","27560"
362604,"POST OFFICE BOX 1187","FLINT","MI","48501"
362605,"POST OFFICE BOX 12","LAND O LAKES","FL","34639"
362606,"POST OFFICE BOX 1205","TURNER","OR","97392"
362607,"POST OFFICE BOX 121","YEMASSEE","SC","29945"
362608,"POST OFFICE BOX 1211","LA CROSSE","WI","54602"
362609,"POST OFFICE BOX 1216","TRUSSVILLE","AL","35173"
362610,"POST OFFICE BOX 1217","KINGSTREE","SC","29556"
362611,"POST OFFICE BOX 1218","BROWNING","MT","59417"
362612,"POST OFFICE BOX 1222","SOUTHAVEN","MS","38671"
362613,"POST OFFICE BOX 1223","FRAMINGHAM","MA","01701"
362614,"POST OFFICE BOX 124","ATLANTA","TX","75551"
362615,"POST OFFICE BOX 1243","BRANDON","MS","39043"
362616,"POST OFFICE BOX 12452","COLUMBUS","GA","31917"
362617,"POST OFFICE BOX 126","UPPER MARLBORO","MD","20772"
362618,"POST OFFICE BOX 1281","JASPER","AL","35502"
362619,"POST OFFICE BOX 1282","HOLLY SPRINGS","NC","27540"
362620,"POST OFFICE BOX 12832","PRESCOTT","AZ","86304"
362621,"POST OFFICE BOX 12871","PENSACOLA","FL","32591"
362622,"POST OFFICE BOX 13","SPRINGFIELD CENTER","NY","13468"
362623,"POST OFFICE BOX 13","WATERVILLE VALLEY","NH","03215"
362624,"POST OFFICE BOX 130","LANE","SC","29564"
362625,"POST OFFICE BOX 130","RED OAK","GA","30272"
362626,"POST OFFICE BOX 131","ARLEY","AL","35541"
362627,"POST OFFICE BOX 1313","PAINTSVILLE","KY","41240"
362628,"POST OFFICE BOX 132","FAIRFIELD","VA","24435"
362629,"POST OFFICE BOX 133","HOLDEN","MO","64040"
362630,"POST OFFICE BOX 1343","EAST WINDSOR","NJ","08520"
362631,"POST OFFICE BOX 1343","FUQUAY VARINA","NC","27526"
362632,"POST OFFICE BOX 1352","CLARKSDALE","MS","38614"
362633,"POST OFFICE BOX 1354","NEW BERN","NC","28563"
362634,"POST OFFICE BOX 136","CLAYMONT","DE","19703"
362635,"POST OFFICE BOX 1362","CHOCTAW","OK","73020"
362636,"POST OFFICE BOX 1377","SANTEE","SC","29142"
362637,"POST OFFICE BOX 1379","WINDSOR","NC","27983"
362638,"POST OFFICE BOX 13896","DETROIT","MI","48213"
362639,"POST OFFICE BOX 14","TULSA","OK","74101"
362640,"POST OFFICE BOX 140110","BROOKLYN","NY","11214"
362641,"POST OFFICE BOX 1407","QUINCY","FL","32351"
362642,"POST OFFICE BOX 141","CRUGER","MS","38924"
362643,"POST OFFICE BOX 1427","JASPER","AL","35502"
362644,"POST OFFICE BOX 143","LAUREL SPRINGS","NC","28644"
362645,"POST OFFICE BOX 1438","AMITE","LA","70422"
362646,"POST OFFICE BOX 144","MT ZION","IL","62549"
362647,"POST OFFICE BOX 1462","LUFKIN","TX","75902"
362648,"POST OFFICE BOX 1463","WEST POINT","MS","39773"
362649,"POST OFFICE BOX 148","HARTSEL","CO","80449"
362650,"POST OFFICE BOX 151","LYNN HAVEN","FL","32444"
362651,"POST OFFICE BOX 152","GLEN ROSE","TX","76043"
362652,"POST OFFICE BOX 152","SOUTHWORTH","WA","98386"
362653,"POST OFFICE BOX 1520","KNIGHTDALE","NC","27545"
362654,"POST OFFICE BOX 1525","AUGUSTA","GA","30903"
362655,"POST OFFICE BOX 153","OLDEN","TX","76466"
362656,"POST OFFICE BOX 15446","ATLANTA","GA","30333"
362657,"POST OFFICE BOX 15523","CHEVY CHASE","MD","20815"
362658,"POST OFFICE BOX 1573","CONWAY","AR","72033"
362659,"POST OFFICE BOX 158","CROWVILLE","LA","71230"
362660,"POST OFFICE BOX 1589","ORLANDO","FL","32802"
362661,"POST OFFICE BOX 160","LOS ALAMOS","NM","87544"
362662,"POST OFFICE BOX 1608","WOODVILLE","MS","39669"
362663,"POST OFFICE BOX 161","PRINCE GEORGE","VA","23803"
362664,"POST OFFICE BOX 161348","MOBILE","AL","36606"
362665,"POST OFFICE BOX 162","NATCHITOCHES","LA","71458"
362666,"POST OFFICE BOX 16297","ASHEVILLE","NC","28816"
362667,"POST OFFICE BOX 1646","SHEPHERDSTOWN","WV","25443"
362668,"POST OFFICE BOX 167","LAGRANGE","ME","04453"
362669,"POST OFFICE BOX 1691","CLINTON","MD","20735"
362670,"POST OFFICE BOX 170","CANTON","MS","39046"
362671,"POST OFFICE BOX 17087","ST PAUL","CO","55117"
362672,"POST OFFICE BOX 1726","ROXBORO","NC","27573"
362673,"POST OFFICE BOX 17272","FERNANDINA BEACH","FL","32035"
362674,"POST OFFICE BOX 17294","AUSTIN","TX","78766"
362675,"POST OFFICE BOX 174","PLAINFIELD","VT","05667"
362676,"POST OFFICE BOX 174","RIVERSIDE","CA","92502"
362677,"POST OFFICE BOX 1744","WILMINGTON","DE","19899"
362678,"POST OFFICE BOX 1749","PAGO PAGO","AS","96799"
362679,"POST OFFICE BOX 1765","ROCKY MOUNT","NC","27802"
362680,"POST OFFICE BOX 18","LEIGHTON","AL","35646"
362681,"POST OFFICE BOX 180261","CASSELBERRY","FL","32718"
362682,"POST OFFICE BOX 1803","STATESVILLE","NC","28687"
362683,"POST OFFICE BOX 180571","TALLAHASSEE","FL","32318"
362684,"POST OFFICE BOX 1818","INDIANTOWN","FL","34956"
362685,"POST OFFICE BOX 1824","BARTOW","FL","33831"
362686,"POST OFFICE BOX 184","SUMMERTON","SC","29148"
362687,"POST OFFICE BOX 1841","MARTINEZ","CA","94553"
362688,"POST OFFICE BOX 186","MIDDLEFIELD","OH","44062"
362689,"POST OFFICE BOX 188","ACWORTH","NH","03601"
362690,"POST OFFICE BOX 1892","ANTIOCH","TN","37011"
362691,"POST OFFICE BOX 1892","CHINO HILLS","CA","91709"
362692,"POST OFFICE BOX 1896","EASTSOUND","WA","98245"
362693,"POST OFFICE BOX 18964","SALT LAKE","UT","84118"
362694,"POST OFFICE BOX 19","COTTONPORT","LA","71327"
362695,"POST OFFICE BOX 1900","OCEAN SHORES","WA","98569"
362696,"POST OFFICE BOX 19004","NEWBURY PARK","CA","91319"
362697,"POST OFFICE BOX 1901","WEST MONROE","LA","71294"
362698,"POST OFFICE BOX 192063","DALLAS","TX","75219"
362699,"POST OFFICE BOX 1925","TAOS","NM","87571"
362700,"POST OFFICE BOX 193","SARALAND","AL","36571"
362701,"POST OFFICE BOX 194","ROBERT","LA","70455"
362702,"POST OFFICE BOX 1945","RIVERVIEW","FL","33568"
362703,"POST OFFICE BOX 196","THORNTON","AR","71766"
362704,"POST OFFICE BOX 198","GLIDE","OR","97443"
362705,"POST OFFICE BOX 20006-C","DURHAM","NC","27707"
362706,"POST OFFICE BOX 2004","MONCKS CORNER","SC","29461"
362707,"POST OFFICE BOX 2008","ANDERSON","IN","46013"
362708,"POST OFFICE BOX 202","PENN LAIRD","VA","22846"
362709,"POST OFFICE BOX 202","WESTWOOD","MA","02090"
362710,"POST OFFICE BOX 2026","FORT MYERS","FL","33902"
362711,"POST OFFICE BOX 205","MADISON","WV","25130"
362712,"POST OFFICE BOX 205","MONTGOMERY CITY","MO","63661"
362713,"POST OFFICE BOX 20565","CHARLESTON","WV","25362"
362714,"POST OFFICE BOX 2088","ISSAQUAH","WA","98027"
362715,"POST OFFICE BOX 21","LA PLATA","MD","20646"
362716,"POST OFFICE BOX 2105","SCOTIA","NY","12302"
362717,"POST OFFICE BOX 211","GREEN BAY","WI","54520"
362718,"POST OFFICE BOX 2123","LITTLE ROCK","AR","72203"
362719,"POST OFFICE BOX 21232","CHARLESTON","SC","29413"
362720,"POST OFFICE BOX 2124","OXFORD","NC","27565"
362721,"POST OFFICE BOX 2126","SEMINOLE","OK","74868"
362722,"POST OFFICE BOX 2129","PACIFIC GROVE","CA","93950"
362723,"POST OFFICE BOX 2137","HOLLISTER","CA","95024"
362724,"POST OFFICE BOX 214","NAPPANEE","IN","46550"
362725,"POST OFFICE BOX 214","SIBLEY","MS","39165"
362726,"POST OFFICE BOX 21411","COLUMBIA","SC","29221"
362727,"POST OFFICE BOX 22","COLE CAMP","MO","65325"
362728,"POST OFFICE BOX 22","SPARTA","NC","28675"
362729,"POST OFFICE BOX 220575","NEWHALL","CA","91322"
362730,"POST OFFICE BOX 221","HUNTSVILLE","AL","35804"
362731,"POST OFFICE BOX 2216","DESOTO","TX","75115"
362732,"POST OFFICE BOX 2254","HARLINGEN","TX","78551"
362733,"POST OFFICE BOX 2274","GUERNEVILLE","CA","95446"
362734,"POST OFFICE BOX 2277","GRANBURY","TX","76048"
362735,"POST OFFICE BOX 229","JAMESTOWN","RI","02835"
362736,"POST OFFICE BOX 22902","NEWARK","NJ","07101"
362737,"POST OFFICE BOX 23","FAIRFAX STATION","VA","22039"
362738,"POST OFFICE BOX 23","WITTS SPRINGS","AR","72686"
362739,"POST OFFICE BOX 231","RESCUE","CA","95672"
362740,"POST OFFICE BOX 231","WEST ISLIP","NY","11795"
362741,"POST OFFICE BOX 23110","SAINT LOUIS","MO","63108"
362742,"POST OFFICE BOX 2312","DURHAM","NC","27702"
362743,"POST OFFICE BOX 2312","SAN BERNARDINO","CA","92406"
362744,"POST OFFICE BOX 233","AVONDALE ESTATES","GA","30002"
362745,"POST OFFICE BOX 233","RIVIERA","TX","78379"
362746,"POST OFFICE BOX 23311","FARRAGUT","TN","37933"
362747,"POST OFFICE BOX 234","HILLSBORO","IL","62049"
362748,"POST OFFICE BOX 235","CHIMAYO","NM","87522"
362749,"POST OFFICE BOX 236","HOMESTEAD","FL","33090"
362750,"POST OFFICE BOX 23623","COLUMBIA","SC","29224"
362751,"POST OFFICE BOX 2368","THOMASVILLE","NC","27361"
362752,"POST OFFICE BOX 238","SHADY SPRING","WV","25918"
362753,"POST OFFICE BOX 2382","EATONVILLE","FL","32751"
362754,"POST OFFICE BOX 241931","CHARLOTTE","NC","28224"
362755,"POST OFFICE BOX 2446","LARAMIE","WY","82073"
362756,"POST OFFICE BOX 246","MASHPEE","MA","02648"
362757,"POST OFFICE BOX 2485","WORCESTER","MA","01613"
362758,"POST OFFICE BOX 250","GRAMBLING","LA","71245"
362759,"POST OFFICE BOX 2502","BLAIRSVILLE","GA","30514"
362760,"POST OFFICE BOX 25043","HOUSTON","TX","77265"
362761,"POST OFFICE BOX 2517","HARTFORD","CT","06146"
362762,"POST OFFICE BOX 25531","FAYETTEVILLE","NC","28314"
362763,"POST OFFICE BOX 257","MADISON","TN","37116"
362764,"POST OFFICE BOX 25873","TAMPA","FL","33622"
362765,"POST OFFICE BOX 25966","RICHMOND","VA","23260"
362766,"POST OFFICE BOX 26","GREENSBORO","NC","27402"
362767,"POST OFFICE BOX 26","HOUSTON","TX","77002"
362768,"POST OFFICE BOX 261","CALEDONIA","MS","39740"
362769,"POST OFFICE BOX 261250","PLANO","TX","75023"
362770,"POST OFFICE BOX 26192","CLEVELAND","OH","44126"
362771,"POST OFFICE BOX 262","MILLER","SD","57362"
362772,"POST OFFICE BOX 262","NORCO","CA","92860"
362773,"POST OFFICE BOX 26463","CHARLOTTE","NC","28221"
362774,"POST OFFICE BOX 26483","RALEIGH","NC","27611"
362775,"POST OFFICE BOX 266","CHERRY VALLEY","NY","13320"
362776,"POST OFFICE BOX 27","LISBON","NY","13658"
362777,"POST OFFICE BOX 2703","FRIDAY HARBOR","WA","98240"
362778,"POST OFFICE BOX 270383","SUSANVILLE","CA","96127"
362779,"POST OFFICE BOX 270721","BOSTON","MA","02127"
362780,"POST OFFICE BOX 274","MCNEIL","AR","71752"
362781,"POST OFFICE BOX 2766","CYPRESS","TX","77410"
362782,"POST OFFICE BOX 277","MELVILLE","LA","71353"
362783,"POST OFFICE BOX 278","TROY","TN","38260"
362784,"POST OFFICE BOX 28","RANCOCAS","NJ","08073"
362785,"POST OFFICE BOX 28111","OAKDALE","MN","55128"
362786,"POST OFFICE BOX 282","BALDWINSVILLE","NY","13027"
362787,"POST OFFICE BOX 2847","SOUTH PORTLAND","ME","04106"
362788,"POST OFFICE BOX 2862","FAYETTEVILLE","NC","28302"
362789,"POST OFFICE BOX 2902","ORANGEBURG","SC","29116"
362790,"POST OFFICE BOX 293240","NASHVILLE","TN","37229"
362791,"POST OFFICE BOX 294","CANDOR","NC","27229"
362792,"POST OFFICE BOX 2947","JACKSON","MS","39207"
362793,"POST OFFICE BOX 298","BALLSTON SPA","NY","12020"
362794,"POST OFFICE BOX 301","BENNETTSVILLE","SC","29512"
362795,"POST OFFICE BOX 30153","COLUMBIA","SC","29230"
362796,"POST OFFICE BOX 308","POINT REYES STATION","CA","94956"
362797,"POST OFFICE BOX 31031","JACKSON","MS","39206"
362798,"POST OFFICE BOX 311856","ATLANTA","GA","31131"
362799,"POST OFFICE BOX 314","DRIFTWOOD","TX","78619"
362800,"POST OFFICE BOX 314","MADISON","SD","57042"
362801,"POST OFFICE BOX 3177","MUSKOGEE","OK","74464"
362802,"POST OFFICE BOX 31952","RALEIGH","NC","27622"
362803,"POST OFFICE BOX 32","WARSAW","NC","28398"
362804,"POST OFFICE BOX 322","WILLOW LAKE","SD","57278"
362805,"POST OFFICE BOX 32636","PIKESVILLE","MD","21282"
362806,"POST OFFICE BOX 328","COLLINSVILLE","IL","62234"
362807,"POST OFFICE BOX 3282","CATHEDRAL CITY","CA","92235"
362808,"POST OFFICE BOX 32883","SANTA FE","NM","87594"
362809,"POST OFFICE BOX 32885","DETROIT","MI","48232"
362810,"POST OFFICE BOX 33","RICHMOND","VA","23218"
362811,"POST OFFICE BOX 3307","FREDERICK","MD","21705"
362812,"POST OFFICE BOX 3311","HUNTSVILLE","AL","35810"
362813,"POST OFFICE BOX 332","NANTUCKET","MA","02554"
362814,"POST OFFICE BOX 336","CLIFTON","CO","81520"
362815,"POST OFFICE BOX 3388","HUNTSVILLE","AL","35810"
362816,"POST OFFICE BOX 339","SILOAM SPRINGS","AR","72761"
362817,"POST OFFICE BOX 3390","STATELINE","NV","89449"
362818,"POST OFFICE BOX 341","KEOSAUQUA","IA","52565"
362819,"POST OFFICE BOX 341033","JAMAICA","NY","11434"
362820,"POST OFFICE BOX 343","KINGSVILLE","TX","78364"
362821,"POST OFFICE BOX 3446","HUEYTOWN","AL","35023"
362822,"POST OFFICE BOX 3480","SANTA BARBARA","CA","93130"
362823,"POST OFFICE BOX 3492","ALPHARETTA","GA","30023"
362824,"POST OFFICE BOX 35","ELIOT","ME","03903"
362825,"POST OFFICE BOX 35","NORWOOD","NJ","07648"
362826,"POST OFFICE BOX 353783","PALM COAST","FL","32135"
362827,"POST OFFICE BOX 35381","FAYETTEVILLE","NC","28303"
362828,"POST OFFICE BOX 355","MARION","AL","36756"
362829,"POST OFFICE BOX 356","MOUNT GILEAD","NC","27306"
362830,"POST OFFICE BOX 3574","ST. FRANCISVILLE","LA","70775"
362831,"POST OFFICE BOX 360623","DECATUR","GA","30036"
362832,"POST OFFICE BOX 3608","HUEYTOWN","AL","35023"
362833,"POST OFFICE BOX 362","PORT ALLEN","LA","70767"
362834,"POST OFFICE BOX 370857","KEY LARGO","FL","33037"
362835,"POST OFFICE BOX 371005","DECATUR","GA","30037"
362836,"POST OFFICE BOX 373","COLUMBUS","MS","39703"
362837,"POST OFFICE BOX 3731","HAMPTON","VA","23663"
362838,"POST OFFICE BOX 374581","DECATUR","GA","30037"
362839,"POST OFFICE BOX 375","MIDWAY","GA","31320"
362840,"POST OFFICE BOX 376","RANCHO SANTA FE","CA","92067"
362841,"POST OFFICE BOX 377","INOLA","OK","74036"
362842,"POST OFFICE BOX 3784","SAN RAMON","CA","94583"
362843,"POST OFFICE BOX 382","SPARTA","NC","28675"
362844,"POST OFFICE BOX 38269","HENRICO","VA","23231"
362845,"POST OFFICE BOX 385  112 NANCE ST","RIPLEY","MS","38663"
362846,"POST OFFICE BOX 38565","SACRAMENTO","CA","95838"
362847,"POST OFFICE BOX 3893","SARASOTA","FL","34230"
362848,"POST OFFICE BOX 390","BLYTHEWOOD","SC","29016"
362849,"POST OFFICE BOX 393","ASHLAND","VA","23005"
362850,"POST OFFICE BOX 3944","MERCED","CA","95344"
362851,"POST OFFICE BOX 4","ST FRANCSVLE","LA","70775"
362852,"POST OFFICE BOX 401","BUFFALO","NY","14207"
362853,"POST OFFICE BOX 403","ROSENBERG","TX","77471"
362854,"POST OFFICE BOX 404","MASTIC BEACH","NY","11951"
362855,"POST OFFICE BOX 4043","MILTON","FL","32570"
362856,"POST OFFICE BOX 40693","INDIANAPOLIS","IN","46240"
362857,"POST OFFICE BOX 41061","TUCSON","AZ","85717"
362858,"POST OFFICE BOX 4111","JACKSON","MI","49204"
362859,"POST OFFICE BOX 413","BOULDER JUNCTION","WI","54512"
362860,"POST OFFICE BOX 41323","MESA","AZ","85274"
362861,"POST OFFICE BOX 4163","MERIDIAN","MS","39307"
362862,"POST OFFICE BOX 419","CRETE","NE","68333"
362863,"POST OFFICE BOX 421","CEDARBURG","WI","53012"
362864,"POST OFFICE BOX 422","BOLIVIA","NC","28422"
362865,"POST OFFICE BOX 4233","WILSON","NC","27894"
362866,"POST OFFICE BOX 424","BALLENTINE","SC","29002"
362867,"POST OFFICE BOX 4244","GREENVILLE","NC","27836"
362868,"POST OFFICE BOX 425","MONTCLAIR","CA","91763"
362869,"POST OFFICE BOX 426","GREENVILLE","MS","38702"
362870,"POST OFFICE BOX 428","ALUDA","NC","28773"
362871,"POST OFFICE BOX 43","HALLOWELL","ME","04347"
362872,"POST OFFICE BOX 4341","ROSWELL","NM","88202"
362873,"POST OFFICE BOX 44","CORFU","NY","14036"
362874,"POST OFFICE BOX 441","BALLENTINE","SC","29002"
362875,"POST OFFICE BOX 441","COPPELL","TX","75019"
362876,"POST OFFICE BOX 441004","DETROIT","MI","48244"
362877,"POST OFFICE BOX 4457","FORT LAUDERDALE","FL","33338"
362878,"POST OFFICE BOX 4484","ROCK HILL","SC","29732"
362879,"POST OFFICE BOX 451","EASTPOINT","FL","32328"
362880,"POST OFFICE BOX 451483","SUNRISE","FL","33345"
362881,"POST OFFICE BOX 452","BREVARD","NC","28712"
362882,"POST OFFICE BOX 454","CURTIS","MI","49820"
362883,"POST OFFICE BOX 457","ALTAMONT","NY","12009"
362884,"POST OFFICE BOX 4583","SAN CLEMENTE","CA","92674"
362885,"POST OFFICE BOX 459","SHREVEPORT","LA","71162"
362886,"POST OFFICE BOX 46073","WEST HOLLYWOOD","CA","90046"
362887,"POST OFFICE BOX 461","STATE LINE","MS","39362"
362888,"POST OFFICE BOX 4613","MIDLAND","TX","79704"
362889,"POST OFFICE BOX 473","WARRENTON","NC","27589"
362890,"POST OFFICE BOX 474","SHELTER ISLAND","NY","11964"
362891,"POST OFFICE BOX 47435","FORESTVILLE","MD","20753"
362892,"POST OFFICE BOX 47576","WINDSOR MILL","MD","21244"
362893,"POST OFFICE BOX 48","MARTELLE","IA","52305"
362894,"POST OFFICE BOX 48","WOBURN","MA","01801"
362895,"POST OFFICE BOX 483","FARMVILLE","VA","23901"
362896,"POST OFFICE BOX 48442","ATHENS","GA","30604"
362897,"POST OFFICE BOX 4882","YOUNGSTOWN","OH","44515"
362898,"POST OFFICE BOX 489","PLANTERSVILLE","MS","38862"
362899,"POST OFFICE BOX 49","BAPTISTOWN","NJ","08803"
362900,"POST OFFICE BOX 492","REIDSVILLE","GA","30453"
362901,"POST OFFICE BOX 4923","TYLER","TX","75712"
362902,"POST OFFICE BOX 493","ORIENTAL","NC","28571"
362903,"POST OFFICE BOX 4934","MOORESVILLE","NC","28117"
362904,"POST OFFICE BOX 494","EAGLE RIVER","WI","54521"
362905,"POST OFFICE BOX 5","VIRGINIA CITY","NV","89440"
362906,"POST OFFICE BOX 501","VINEBURG","CA","95487"
362907,"POST OFFICE BOX 5012","COLUMBUS","GA","31906"
362908,"POST OFFICE BOX 502","SEYMOUR","IN","47274"
362909,"POST OFFICE BOX 51","ADDISON","AL","35540"
362910,"POST OFFICE BOX 51","HARRINGTON","WA","99134"
362911,"POST OFFICE BOX 510","VAUXHALL","NJ","07088"
362912,"POST OFFICE BOX 511183","LIVONIA","MI","48151"
362913,"POST OFFICE BOX 5115","NAVARRE","FL","32566"
362914,"POST OFFICE BOX 51194","MESA","AZ","85209"
362915,"POST OFFICE BOX 513","GRAND BAY","AL","36541"
362916,"POST OFFICE BOX 514","MARSTONS MILLS","MA","02648"
362917,"POST OFFICE BOX 5161","GLEN ALLEN","VA","23058"
362918,"POST OFFICE BOX 5169","ARLINGTON","VA","22205"
362919,"POST OFFICE BOX 518","MT IDA","AR","71957"
362920,"POST OFFICE BOX 5183","BERGENFIELD","NJ","07621"
362921,"POST OFFICE BOX 52","HANSON","MA","02341"
362922,"POST OFFICE BOX 520","SAG HARBOR","NY","11963"
362923,"POST OFFICE BOX 520778","LONGWOOD","FL","32752"
362924,"POST OFFICE BOX 521","SNEAD","AL","35952"
362925,"POST OFFICE BOX 52231","SHREVEPORT","LA","71135"
362926,"POST OFFICE BOX 523","BASSFIELD","MS","39421"
362927,"POST OFFICE BOX 523","FRANKLIN","TN","37065"
362928,"POST OFFICE BOX 529","HOPE MILLS","NC","28348"
362929,"POST OFFICE BOX 538","STUART","VA","24171"
362930,"POST OFFICE BOX 540","NEWARK","NJ","07101"
362931,"POST OFFICE BOX 540002","GREENACRES","FL","33454"
362932,"POST OFFICE BOX 541","LANETT","AL","36863"
362933,"POST OFFICE BOX 5462","HAUPPAUGE","NY","11788"
362934,"POST OFFICE BOX 5473","GAINESVILLE","FL","32627"
362935,"POST OFFICE BOX 55","LAWTEY","FL","32058"
362936,"POST OFFICE BOX 550","SARASOTA","FL","34230"
362937,"POST OFFICE BOX 5522","KATY","TX","77491"
362938,"POST OFFICE BOX 553","HAZLEHURST","GA","31539"
362939,"POST OFFICE BOX 554","HUGER","SC","29450"
362940,"POST OFFICE BOX 56","PITKIN","LA","70656"
362941,"POST OFFICE BOX 561062","CHARLOTTE","NC","28256"
362942,"POST OFFICE BOX 561305","LOS ANGELES","CA","90056"
362943,"POST OFFICE BOX 565","ORIENTAL","NC","28571"
362944,"POST OFFICE BOX 567","TAYLOR","AR","71861"
362945,"POST OFFICE BOX 57","PONTOTOC","MS","38863"
362946,"POST OFFICE BOX 572","EAGLE RIVER","WI","54521"
362947,"POST OFFICE BOX 57835","NEW ORLEANS","LA","70157"
362948,"POST OFFICE BOX 579083","MODESTO","CA","95357"
362949,"POST OFFICE BOX 58","LELAND","NC","28451"
362950,"POST OFFICE BOX 58","MAXWELL","NE","69151"
362951,"POST OFFICE BOX 580047","NORTH PALM SPRINGS","CA","92258"
362952,"POST OFFICE BOX 582","ANGUILLA","MS","38721"
362953,"POST OFFICE BOX 5837","PASADENA","CA","91107"
362954,"POST OFFICE BOX 584","QUESTA","NM","87556"
362955,"POST OFFICE BOX 585","HAZLEHURST","GA","31539"
362956,"POST OFFICE BOX 588","POTEAU","OK","74953"
362957,"POST OFFICE BOX 590034","FORT LAUDERDALE","FL","33359"
362958,"POST OFFICE BOX 595","MORAVIAN FALLS","NC","28654"
362959,"POST OFFICE BOX 59504","JACKSON","MS","39284"
362960,"POST OFFICE BOX 596","ASHLAND","MS","38635"
362961,"POST OFFICE BOX 598","ALEXANDER CITY","AL","35011"
362962,"POST OFFICE BOX 599","KANNAPOLIS","NC","28082"
362963,"POST OFFICE BOX 6","BELEWS CREEK","NC","27009"
362964,"POST OFFICE BOX 6","WEBSTER","FL","33597"
362965,"POST OFFICE BOX 6037","ALAMEDA","CA","94501"
362966,"POST OFFICE BOX 604","TEAGUE","TX","75860"
362967,"POST OFFICE BOX 6074","EAST SAINT LOUIS","IL","62201"
362968,"POST OFFICE BOX 61","MEYERSDALE","PA","15552"
362969,"POST OFFICE BOX 61","WOODVILLE","MS","39669"
362970,"POST OFFICE BOX 6101","PORTSMOUTH","VA","23703"
362971,"POST OFFICE BOX 61024","PASADENA","CA","91116"
362972,"POST OFFICE BOX 610663","BIRMINGHAM","AL","35261"
362973,"POST OFFICE BOX 611014","MIAMI","FL","33261"
362974,"POST OFFICE BOX 62","FOREST HILL","LA","71430"
362975,"POST OFFICE BOX 62","SARALAND","AL","36571"
362976,"POST OFFICE BOX 620184","CHARLOTTE","NC","28262"
362977,"POST OFFICE BOX 6214","ROCKY MOUNT","NC","27803"
362978,"POST OFFICE BOX 622","VIENNA","VA","22183"
362979,"POST OFFICE BOX 626","ONEONTA","AL","35121"
362980,"POST OFFICE BOX 63","ORANGEBURG","SC","29817"
362981,"POST OFFICE BOX 630501","IRVING","TX","75063"
362982,"POST OFFICE BOX 63330","COLORADO SPRINGS","CO","80962"
362983,"POST OFFICE BOX 637","BOURBON","MO","65441"
362984,"POST OFFICE BOX 640726","BEVERLY HILLS","FL","34464"
362985,"POST OFFICE BOX 641","ACAMPO","CA","95220"
362986,"POST OFFICE BOX 642","SPLENDORA","TX","77372"
362987,"POST OFFICE BOX 648","MAIDEN","NC","28650"
362988,"POST OFFICE BOX 6492","SPARTANBURG","SC","29304"
362989,"POST OFFICE BOX 65","SPRING HOPE","NC","27882"
362990,"POST OFFICE BOX 651","LITTLETON","NC","27850"
362991,"POST OFFICE BOX 6532","FREEHOLD","NJ","07728"
362992,"POST OFFICE BOX 65535","VIRGINIA BEACH","VA","23467"
362993,"POST OFFICE BOX 6555","OLYMPIA","WA","98507"
362994,"POST OFFICE BOX 66","MELROSE","FL","32666"
362995,"POST OFFICE BOX 662","IONE","WA","99139"
362996,"POST OFFICE BOX 66318","MOBILE","AL","36660"
362997,"POST OFFICE BOX 6660","APACHE JUNCTION","AZ","85178"
362998,"POST OFFICE BOX 67","SWEETWATER","TN","37874"
362999,"POST OFFICE BOX 674","KING GEORGE","VA","22485"
363000,"POST OFFICE BOX 68","LEWISTON","NC","27849"
