"ID","Address","City","State","Zip"
128501,"2317 JERI LYNN ST","PORT ANGELES","WA","98363"
128502,"2317 LAKE FALLS DRIVE","FORT WORTH","TX","76118"
128503,"2317 LIBERTY ST SUITE 2","HOLLYWOOD","FL","33020"
128504,"2317 MARYLAND AVE","FLINT","MI","48506"
128505,"2317 MASTLANDS DRIVE  SUITE A","OAKLAND","CA","94611"
128506,"2317 MERIDIAN STREET SUITE 45","HUNTSVILLE","AL","35811"
128507,"2317 MILFORD CT","DACULA","GA","30019"
128508,"2317 MIRANDESA DR","FORT WORTH","TX","76131"
128509,"2317 MOODY STREET","MOUNT VERNON","WA","98274"
128510,"2317 N 15TH AVE","GULFPORT","MS","39501"
128511,"2317 N 8TH TERR","KANSAS CITY","KS","66109"
128512,"2317 N AVERS AVE","CHICAGO","IL","60647"
128513,"2317 NE 19TH AVE","WILTON MANORS","FL","33305"
128514,"2317 NW 30TH STREET","CAPE CORAL","FL","33993"
128515,"2317 OLDE FARM LN","HUDSON","OH","44236"
128516,"2317 PEREZ STREET","SAN ANTONIO","TX","78207"
128517,"2317 RANGER DR","FORT WORTH","TX","76120"
128518,"2317 RIVER QUEEN DRIVE","VIOLET","LA","70092"
128519,"2317 S PATTON COURT","DENVER","CO","80219"
128520,"2317 SAN PABLO AVE APT 6","OAKLAND","CA","94612"
128521,"2317 SANDSTONE CT","BURLESON","TX","76028"
128522,"2317 SAWDUST RD","VIENNA","VA","22181"
128523,"2317 SHERIDAN RD","EVANSTON","IL","60201"
128524,"2317 SPEEDWAY","AUSTIN","TX","78712"
128525,"2317 SUMMERHILL DR","ENCINITAS","CA","92024"
128526,"2317 W MELROSE ST","CHICAGO","IL","60618"
128527,"2317 W TICHENOR ST","COMPTON","CA","90220"
128528,"2317 WEST CHESTNUT STREET","LOUISVILLE","KY","40211"
128529,"2317 WESTCHESTER DRIVE","MARYVILLE","IL","62062"
128530,"2317 WESTWOOD AVE SUITE 103A","RICHMOND","VA","23230"
128531,"2317 WESTWOOD AVENUE  SUITE 115","RICHMOND","VA","23230"
128532,"2317 WOOD BARK LANE","SUITLAND","MD","20746"
128533,"2317 WYNTHROPE PATH","RIVERDALE","GA","30274"
128534,"2317 YORKSHIRE ROAD","ANN ARBOR","MI","48104"
128535,"23171 PARK PINTA","CALABASAS","CA","91302"
128536,"23171 ROAD 7","CHOWCHILLA","CA","93610"
128537,"23172","NASHVILLE","TN","37202"
128538,"23173 FLORA MURE DR","ASHBURN","VA","20148"
128539,"23175 224TH PLACE SE SUITE B","MAPLE VALLEY","WA","98038"
128540,"2318 125TH DR E","PARRISH","FL","34219"
128541,"2318 13TH PLACE NORTHEAST","WASHINGTON","DC","20018"
128542,"2318 1ST AVE NE","ATLANTA","GA","30317"
128543,"2318 31ST AVENUE","LONG ISLAND CITY","NY","11106"
128544,"2318 ADAMS FARM PKWY","GREENSBORO","NC","27407"
128545,"2318 BABSON DRIVE","ELK GROVE","CA","95758"
128546,"2318 BLUE SAPPHIRE CIRCLE","ORLANDO","FL","32837"
128547,"2318 CENTER STREET STE 310","DEER PARK","TX","77536"
128548,"2318 CHADWICK LANE","GARLAND","TX","75044"
128549,"2318 CHANCERY DRIVE","HOLIDAY","FL","34690"
128550,"2318 CHRISTY CIRCLE","CALDWELL","ID","83605"
128551,"2318 COUNTY ROAD 123","MARBURY","AL","36051"
128552,"2318 CROSS CREEK DRIVE","POWDER SPRINGS","GA","30127"
128553,"2318 DALIB ROAD","FINKSBURG","MD","21048"
128554,"2318 E 110TH STREET","KANSAS CITY","MO","64131"
128555,"2318 E NC HWY 97","WILSON","NC","27896"
128556,"2318 FIG TREE LN","ARLINGTON","TX","76014"
128557,"2318 GRANADA AVENUE NORTH","OAKDALE","MN","55128"
128558,"2318 IA 9 STREET","LESTER","IA","51242"
128559,"2318 KEMPER LANE SUITE 300","CINCINNATI","OH","45206"
128560,"2318 LARKSPUR DRIVE","GREENSBORO","NC","27406"
128561,"2318 MASSACHUSETTS AVE","LEXINGTON","MA","02421"
128562,"2318 NE 29TH ST","LIGHTHOUSE POINT","FL","33064"
128563,"2318 NOBLE ROAD","CLEVELAND HEIGHTS","OH","44121"
128564,"2318 OVERTON RD","AUGUSTA","GA","30904"
128565,"2318 PEBBLEDOWNE CIRCLE","SUGAR LAND","TX","77478"
128566,"2318 S CYPRESS BEND DR 125","POMPANO BEACH","FL","33069"
128567,"2318 SPRING OAKS CIRCLE","SARASOTA","FL","34243"
128568,"2318 STAFFORD WAY","BOTHELL","WA","98012"
128569,"2318 SWORD DR","GARLAND","TX","75044"
128570,"2318 W CULLOM AVE","CHICAGO","IL","60618"
128571,"2318 WEST AVE P12","PALMDALE","CA","93551"
128572,"23180 S REID ROAD","ESTACADA","OR","97023"
128573,"23181 DAKOTAH ST","ST FRANCIS","MN","55070"
128574,"23182 S BLUEGRASS LN","ESTACADA","OR","97023"
128575,"23185 MORNINGSIDE","SOUTHFIELD","MI","48034"
128576,"23185","BEAUMONT","TX","77720"
128577,"23186 GLENORCHY COURT","ASHBURN","VA","20148"
128578,"23186","LEXINGTON","KY","40523"
128579,"2319 13TH AVENUE SOUTH","CLINTON","IA","52732"
128580,"2319 1ST AVENUE APARTMENT 507","SEATTLE","WA","98121"
128581,"2319 31ST AVE N","TEXAS CITY","TX","77590"
128582,"2319 5TH ST NE","MINNEAPOLIS","MN","55418"
128583,"2319 8TH AVE","COUNCIL BLUFFS","IA","51501"
128584,"2319 BRANT ST","SAN DIEGO","CA","92101"
128585,"2319 CHARLENE HWY","EUNICE","LA","70535"
128586,"2319 DAVIS DR","NIXA","MO","65714"
128587,"2319 FOREST HILL IRENE RD N","CORDOVA","TN","38016"
128588,"2319 LIME KILN LN STE A","LOUISVILLE","KY","40222"
128589,"2319 LINCOLN PARK DR","GRAND PRAIRIE","TX","75050"
128590,"2319 MEDITERRANEAN SEA AVE","NORTH LAS VEGAS","NV","89031"
128591,"2319 N 45TH ST STE 105","SEATTLE","WA","98103"
128592,"2319 NORTH BOONVILLE AVENUE","SPRINGFIELD","MO","65803"
128593,"2319 NW ACORN DRIVE","BLUE SPRINGS","MO","64014"
128594,"2319 PERRYTON DRIVE","DALLAS","TX","75224"
128595,"2319 PITTOCK STREET","PITTSBURGH","PA","15217"
128596,"2319 PLAINFIELD ROAD STE 1W","CREST HILL","IL","60403"
128597,"2319 RANDOLPH RD","CHARLOTTE","NC","28207"
128598,"2319 RUSSELVILLE ROAD UNIT A","BOWLING GREEN","KY","42101"
128599,"2319 S NORMAN ST","SEATTLE","WA","98144"
128600,"2319 SKYLARK DR APT B","OCEANSIDE","CA","92054"
128601,"2319 SO GARTH AVE","LOS ANGELES","CA","90034"
128602,"2319 SONGBIRD LANE","ROWLAND HEIGHTS","CA","91748"
128603,"2319 STOTESBURY WAY","WELLINGTON","FL","33414"
128604,"2319 TEXANA WAY","RICHMOND","TX","77406"
128605,"2319 THIRD ST","NEW ORLEANS","LA","70123"
128606,"2319 VALENCE ST","NEW ORLEANS","LA","70115"
128607,"2319 W CATALINA AVE","MESA","AZ","85202"
128608,"2319 W CHICAGO AVE STE B","CHICAGO","IL","60622"
128609,"2319 W GARDNER AVE","SPOKANE","WA","99301"
128610,"2319 W GRACE STREET","RICHMOND","VA","23220"
128611,"2319 WEEPING OAK DRIVE","BRASELTON","GA","30517"
128612,"23191 N RIVER ROAD","ALVA","FL","33920"
128613,"23193 LA CADENA DRIVE SUITE 103","LAGUNA HILLS","CA","92653"
128614,"23199 - 217TH AVE","CENTERVILLE","IA","52544"
128615,"23199 TRADEWIND DRIVE","ASHBURN","VA","20148"
128616,"231C PANTIGO RD","EAST HAMPTON","NY","11937"
128617,"232 19TH STREET NW","ATLANTA","GA","30363"
128618,"232 2ND AVE N","WAITE PARK","MN","56387"
128619,"232 3RD STREET SUITE C201","BROOKLYN","NY","11215"
128620,"232 7TH ST 4B","BROOKLYN","NY","11215"
128621,"232 AMPERE PARKWAY FLOOR 1","BLOOMFIELD","NJ","07003"
128622,"232 ANDALUSIA AVE SUITE 201","CORAL GABLES","FL","33134"
128623,"232 BACH ROAD","SCHERERVILLE","IN","46375"
128624,"232 BARCLAY SQUARE DRIVE","ROCHESTER","NY","14618"
128625,"232 BEAVER DR","ARABI","LA","70032"
128626,"232 BLUE RIDGE DR","OLD HICKORY","TN","37138"
128627,"232 BRADBERRY ST SW","ATLANTA","GA","30313"
128628,"232 BRANDYWOOD CT","CAMERON","NC","28326"
128629,"232 BRIARHILL DRIVE","BATTLE CREEK","MI","49015"
128630,"232 BRIDGES DRIVE","WINTERVILLE","GA","30683"
128631,"232 BROWN STREET","PROVIDENCE","RI","02906"
128632,"232 BUNGALOW AVE","SAN RAFAEL","CA","94901"
128633,"232 CALHOUN ST","CHARLESTON","SC","29401"
128634,"232 CAPPUCINO WAY","SACRAMENTO","CA","95838"
128635,"232 CASTLE ROAD","LUMBERTON","NC","28358"
128636,"232 CHAPEL HILL DR","JOHNSON CREEK","WI","53038"
128637,"232 CHARWOOD CIR","ROCHESTER","NY","14609"
128638,"232 CHURCH ST N","CONCORD","NC","28025"
128639,"232 CITZENS AVENUE","WATERBURY","CT","06704"
128640,"232 COLLINS RD","WABAN","MA","02468"
128641,"232 CONCORD HILL DRIVE","ALTAMONT","NY","12009"
128642,"232 CORDOVA DRIVE","COLUMBIA","SC","29203"
128643,"232 COWBOY WAY","SAGLE","ID","83860"
128644,"232 DANIELS POINTE DR","WINTER GARDEN","FL","34787"
128645,"232 DRAKES BAY COURT","RICHMOND","CA","94801"
128646,"232 DRIFTWOOD DRIVE","LAFAYETTE","LA","70503"
128647,"232 E HIGH ST","ELIZABETHTOWN","PA","17022"
128648,"232 E LIMBERLOSR DR","TUCSON","AZ","85705"
128649,"232 E MAIN ST","JONESBOROUGH","TN","37659"
128650,"232 EAST 11TH STREET","NEW YORK","NY","10003"
128651,"232 EAST BROAD STREET","GRIFFIN","GA","30223"
128652,"232 EAST HILLCREST AVENUE","NEW CASTLE","PA","16105"
128653,"232 EAST MAXWELL STREET","LEXINGTON","KY","40506"
128654,"232 EAST PINE LOG RD","AIKEN","SC","29803"
128655,"232 EAST WAPATO AVENUE","CHELAN","WA","98816"
128656,"232 ELOHI WAY","LOUDON","TN","37774"
128657,"232 ERIE STREET APT 6","DAUPHIN","PA","17018"
128658,"232 FAIRBANKS STREET","JACKSON","MS","39202"
128659,"232 FARM LANE","WESTWOOD","MA","02090"
128660,"232 FULLER ROAD","QUEENSBURY","NY","12804"
128661,"232 GARNET DRIVE S","LIZELLA","GA","31052"
128662,"232 GILMER ST STE 207","REIDSVILLE","NC","27320"
128663,"232 GISELE STREET","NEW ROADS","LA","70760"
128664,"232 GRIGGS SW","GRAND RAPIDS","MI","49507"
128665,"232 GROVE STREET","WESTWOOD","MA","02090"
128666,"232 HARBOR RD","WANCHESE","NC","27981"
128667,"232 HARRISON AVE SUITE B","CLAREMONT","CA","91711"
128668,"232 HIGH STREET","NORTH ARLINGTON","NJ","07031"
128669,"232 HIGHWAY 469 N","FLORENCE","MS","39073"
128670,"232 HIGHWAY 469 NORTH","FLORENCE","MS","39073"
128671,"232 HOPE STREET","BRISTOL","RI","02809"
128672,"232 IDLEWILD DR","HOUMA","LA","70364"
128673,"232 IRON LAKE DRIVE","EXTON","PA","19341"
128674,"232 JEFFERSON ST","PATERSON","NJ","07522"
128675,"232 KAIULANI AVE 504A","HONOLULU","HI","96815"
128676,"232 KANDEMOR LANE","ROCKY MOUNT","NC","27804"
128677,"232 LAKE ARROWHEAD CIRCLE","BEAR","DE","19701"
128678,"232 LEXINGTON AVE","LANSDOWNE","PA","19050"
128679,"232 LIBERTY STREET","BLAKELY","GA","39823"
128680,"232 LILLIAN AVE","SARALAND","AL","36571"
128681,"232 MARKET STREET BUILDING K","FLOWOOD","MS","39232"
128682,"232 MARKET STREET","FLOWOOD","MS","39232"
128683,"232 MARYLAND AVENUE","EDGEWATER","MD","21037"
128684,"232 MCCASLIN BLVD NO 207","LOUISVILLE","CO","80027"
128685,"232 MEADOWBROOK DR","HIGHLAND VILLAGE","TX","75077"
128686,"232 MELROSE AVENUE","EAST LANSDOWNE","PA","19050"
128687,"232 MLK DRIVE","LAKEWOOD","NJ","08701"
128688,"232 MONTGOMERY ROAD","WESTFIELD","MA","01085"
128689,"232 MORRIS RANCH RD","DANVILLE","CA","94526"
128690,"232 MT PLEASANT AVE","NEWARK","NJ","07104"
128691,"232 N BRAZILIANA DR","SAN DIMAS","CA","91773"
128692,"232 N JONES BLVD SUITE 170","LAS VEGAS","NV","89107"
128693,"232 NORTH CANON DRIVE","BEVERLY HILLS","CA","90212"
128694,"232 NORTH MARSHALL INDUSTRIAL AVE","MARSHALL","TX","75670"
128695,"232 NORTH MARTINE AVENUE","FANWOOD","NJ","07023"
128696,"232 NORTH PERSHING DRIVE","MUNCIE","IN","47305"
128697,"232 NORTH WALLACE AVE","WILMINGTON","NC","28403"
128698,"232 NORTHVIEW DRIVE","DAYTON","VA","22821"
128699,"232 OAKWOOD DRIVE","LANCASTER","TX","75146"
128700,"232 OCEAN AVENUE","SEA BRIGHT","NJ","07760"
128701,"232 OLIVIA DR","THIBODAUX","LA","70301"
128702,"232 PARK AVE","BALTIMORE","MD","21201"
128703,"232 PATRICIA LANE","HIGHLAND VILLAGE","TX","75077"
128704,"232 PEARL STREET","STOUGHTON","MA","02072"
128705,"232 PELICAN AVENUE","NEW ORLEANS","LA","70114"
128706,"232 PERKINS AVENUE","BROCKTON","MD","02302"
128707,"232 PINE STREET","QUINCY","MA","02170"
128708,"232 PONTE VEDRA PARK DRIVE","PONTE VEDRA BEACH","FL","32082"
128709,"232 PRESIDENT STREET APT 5L","BROOKLYN","NY","11231"
128710,"232 PROSPECT STREET","BELLEVUE","KY","41073"
128711,"232 RIGGS CIRLCE","MESQUITE","TX","75149"
128712,"232 ROLLINGWOOD DRIVE","NEWPORT","NC","28570"
128713,"232 S 3RD AVENUE","LEBANON","PA","17042"
128714,"232 S HORNE","OCEANSIDE","CA","92054"
128715,"232 S OREGON STREET","DORRIS","CA","96023"
128716,"232 SACKETT STREET","BROOKLYN","NY","11231"
128717,"232 SAINT JAMES AVENUE","MILTON","NH","03851"
128718,"232 SANDLETON WAY","EVANS","GA","30809"
128719,"232 SE OAK STREET SUITE 103","PORTLAND","OR","97214"
128720,"232 SHEFFIELD ST","NEWTON","KS","67114"
128721,"232 SHIRLEY ST","BUFFALO","NY","14215"
128722,"232 SMOKERISE TRACE","PEACHTREE CITY","GA","30269"
128723,"232 SOUTH ARDEN BLVD","LOS ANGELES","CA","90004"
128724,"232 SOUTH DALE CT","DENVER","CO","80219"
128725,"232 SOUTH GEORGE STREET","YORK","PA","17401"
128726,"232 SOUTH HARRISON STREET","YORK","PA","17403"
128727,"232 SOUTHWEST WINTERPARK CIRCLE","LEES SUMMIT","MO","64081"
128728,"232 TAYLORS FARM DRIVE","CANTON","GA","30115"
128729,"232 TRANSIT STREET","WATERBURY","CT","06704"
128730,"232 TURNER ST","STEVENSVILLE","MT","59870"
128731,"232 UPPER PIKE CREEK ROAD","NEWARK","DE","19711"
128732,"232 VILLAGE ROAD","SOUTH ORANGE","NJ","07079"
128733,"232 VIVIEN CT","PARAMUS","NJ","07652"
128734,"232 W 116TH ST SUITE 837","NEW YORK","NY","10026"
128735,"232 W CHURCH ST","SWAINSBORO","GA","30401"
128736,"232 W MEADOW DR","VAIL","CO","81657"
128737,"232 W PECAN","DE LEON","TX","76444"
128738,"232 W UNIVERSITY ST","WOOSTER","OH","44691"
128739,"232 WALWORTH ST APT 4R","BROOKLYN","NY","11205"
128740,"232 WEST 15TH STREET","APOPKA","FL","32703"
128741,"232 WEST CHURCH ST","SWAINSBORO","GA","30401"
128742,"232 WEST PEACE STREET","CANTON","MS","39046"
128743,"232 WEST SIENNA CIRCLE","BUDA","TX","78666"
128744,"232 WEST ST LOUIS STREET","LAFAYETTE","LA","70506"
128745,"232 WINTERCREEK DRIVE","BLUEFIELD","VA","24605"
128746,"232 WYOMING AVENUE","SCRANTON","PA","18503"
128747,"232","MAUPIN","OR","97037"
128748,"2320 16TH AVENUE NORTH","BESSEMER","AL","35020"
128749,"2320 2ND STREET NE","WASHINGTON","DC","20002"
128750,"2320 7 LKS S","WEST END","NC","27376"
128751,"2320 AIRPORT DRIVE","SHAWNEE","OK","74804"
128752,"2320 BEE RIDGE ROAD LOT 60","SARASOTA","FL","34239"
128753,"2320 BRISBANE ST 58","CLEARWATER","FL","33763"
128754,"2320 CANTON STREET","DALLAS","TX","75201"
128755,"2320 CENTRAL AVENUE 4","IRWINDALE","CA","91010"
128756,"2320 CLARKE AVE","EAST PALO ALTO","CA","94303"
128757,"2320 DARTMOUTH STREET","PALO ALTO","CA","94306"
128758,"2320 E AVE R","PALMDALE","CA","93551"
128759,"2320 E BASELINE RD STE 148-110","PHOENIX","AZ","85042"
128760,"2320 E BASELINE RD STE 148-278","PHOENIX","AZ","85042"
128761,"2320 E BASELINE RD STE 148-624","PHOENIX","AZ","85042"
128762,"2320 E MACARTHUR LOT T21","WICHITA","KS","67216"
128763,"2320 E NORTH ST SUITE GG8","GREENVILLE","SC","29607"
128764,"2320 FAYETTEVILLE HWY","BELFAST","TN","37019"
128765,"2320 FM 1960 WEST","HOUSTON","TX","77379"
128766,"2320 GANTZ RD","GROVE CITY","OH","43123"
128767,"2320 GLENCREST DR","FORT WORTH","TX","76119"
128768,"2320 GLENN AVENUE","EVANSVILLE","IN","47711"
128769,"2320 GOLF CLUB LN","NASHVILLE","TN","37215"
128770,"2320 GOVERNMENT STREET","OCEAN SPRINGS","MS","39564"
128771,"2320 HAWKSBURY LANE","HOOVER","AL","35226"
128772,"2320 HIGHWAY 2","BONIFAY","FL","32425"
128773,"2320 HOLIDAY LANE","MARYVILLE","IL","62062"
128774,"2320 HOLLY DRIVE","ERIE","CO","80516"
128775,"2320 HYLAN BOULEVARD","STATEN ISLAND","NY","10306"
128776,"2320 IOWA AVE","INDEPENDENCE","IA","50644"
128777,"2320 JACKSON ST STE 1","STOUGHTON","WI","53589"
128778,"2320 JAMES STREET","LEESBURG","FL","34748"
128779,"2320 KINGSTON AVE E","MAPLEWOOD","MN","55109"
128780,"2320 KROGH COURT NW","ALBUQUERQUE","NM","87104"
128781,"2320 LAST CHANCE RD","ELKO","NV","89801"
128782,"2320 MALLARD HIGHLAND DRIVE","CHARLOTTE","NC","28262"
128783,"2320 MAPLE AVE","FORT MYERS","FL","33901"
128784,"2320 MAUMEE AVENUE","FORT WAYNE","IN","46803"
128785,"2320 MOONWATER WAY","GARNER","NC","27529"
128786,"2320 MORICZVILLE LANE","PLANY CITY","FL","33565"
128787,"2320 N 14TH AVE","PENSACOLA","FL","32503"
128788,"2320 NE FRANCIS CT","GRESHAM","OR","97030"
128789,"2320 NORTH 19 AVENUE UNIT 7","HOLLYWOOD","FL","33020"
128790,"2320 NW 92ND STREET","MIAMI","FL","33147"
128791,"2320 OAKLAWN BLVD","HOPEWELL","VA","23860"
128792,"2320 OAKWOOD DRIVE","LAKE JACKSON","TX","77566"
128793,"2320 PASEO DEL PRADO B201B","LAS VEGAS","NV","89102"
128794,"2320 PLEASANT ROAD","FORT MILL","SC","29708"
128795,"2320 ROSWELL AVE APT I","CHARLOTTE","NC","28207"
128796,"2320 S CLOVERDALE AVE","LOS ANGELES","CA","90016"
128797,"2320 SHADY LANE","HIGHLAND PARK","IL","60035"
128798,"2320 SUMMIT AVENUE","SCHOFIELD","WI","54476"
128799,"2320 VERDE WEST DRIVE","CAMP VERDE","AZ","86322"
128800,"2320 W ADDISON ST","CHICAGO","IL","60618"
128801,"2320 W OLYMPIC BLVD STE 208","LOS ANGELES","CA","90006"
128802,"2320 W PEORIA AVE","PHOENIX","AZ","85029"
128803,"2320 WEST END AVE APT 2","NASHVILLE","TN","37203"
128804,"2320 WEST RUBY AVE","MILWAUKEE","WI","53209"
128805,"2320 WILLOW BROOK DR","HUNTINGDON VALLEY","PA","19006"
128806,"2320 WOODWIND TRAIL APT 1009","MELBOURNE","FL","32935"
128807,"23200 100TH AVE WEST","EDMONDS","WA","98020"
128808,"23200 GLADIOLA ST NW","ST  FRANCIS","MN","55070"
128809,"23200 JOHN R ROAD UNIT 404","HAZEL PARK","MI","48030"
128810,"23201 LAKE CENTER DRIVE STE 201","LAKE FOREST","CA","92630"
128811,"23202 REDBUD RIDGE CIR","VALENCIA","CA","91354"
128812,"23203 PELHAM PRAIRIE LANE","SPRING","TX","77373"
128813,"23203 PLANTATION DRIVE NE","ATLANTA","GA","30324"
128814,"23205 FRONTIER WAY","BROOKSVILLE","FL","34601"
128815,"23205 GRATIOR AVE SUITE 391","EASTPOINTE","MI","48021"
128816,"23205 GRATIOT AVE STE 372","EASTPOINTE","MI","48021"
128817,"23205 SE BLACK NUGGET RD APT M8","ISSAQUAH","WA","98029"
128818,"23205 SE BLACK NUGGET RD L7","ISSAQUAH","WA","98029"
128819,"23206 255TH ST","WAUCOMA","IA","52171"
128820,"23206 FIRWOOD AVE","EASTPOINTE","MI","48021"
128821,"23206 MARYDALE DRIVE","ELKHART","IN","46517"
128822,"23206 SHANDS DR","COURTLAND","VA","23837"
128823,"23206 WOODLAWN RIDGE","SAN ANTONIO","TX","78259"
128824,"23207 BENT ARROW DR","CLARKSBURG","MD","20871"
128825,"23207 FALL WIND CT","KATY","TX","77494"
128826,"23209 SALINAS WAY","BONITA SPRINGS","FL","34135"
128827,"2321 1ST AVE NORTH UNIT 109","BIRMINGHAM","AL","35203"
128828,"2321 2ND AVE WEST SUITE 5","WILLISTON","ND","58801"
128829,"2321 4TH ST NE APT 412","WASHINGTON","DC","20002"
128830,"2321 50TH ST STE G","LUBBOCK","TX","79412"
128831,"2321 ABBEYWOOD RD","LEXINGTON","KY","40515"
128832,"2321 ALDERSGATE COURT","TURLOCK","CA","95382"
128833,"2321 AXMINSTER COURT","GRAND PRAIRIE","TX","75050"
128834,"2321 BLUEGILL COURT","SAINT AUGUSTINE","FL","32092"
128835,"2321 CANDLER ROAD","DECATUR","GA","30032"
128836,"2321 COUNTRY CLUB DRIVE","TITUSVILLE","FL","32780"
128837,"2321 CUNNINGHAM RD","COLUMBIA","SC","29210"
128838,"2321 E 4TH ST C426","SANTA ANA","CA","92705"
128839,"2321 E CARLISE RD","PHOENIX","AZ","85086"
128840,"2321 E SPEEDWAY BLVD","TUCSON","AZ","85719"
128841,"2321 FM 3036","ROCKPORT","TX","78382"
128842,"2321 FOX CREEK DR","MURFREESBORO","TN","37127"
128843,"2321 FOX RUN","WESTLAKE","OH","44145"
128844,"2321 HIGHLAND AVENUE","OSKALOOSA","IA","52577"
128845,"2321 HUNTINGTON PLACE","CORDOVA","TN","38016"
128846,"2321 MYRNA STREET","ORLANDO","FL","32839"
128847,"2321 N BROAD STREET","PHILADELPHIA","PA","19132"
128848,"2321 NORTH MAIN STREET","FINDLAY","OH","45840"
128849,"2321 PORTER ROAD","PLOVER","WI","54467"
128850,"2321 S PLACITA PITIQUITO","TUCSON","AZ","85713"
128851,"2321 S ROCKPORT RD","BLOOMINGTON","IN","47403"
128852,"2321 STONYBROOK ST","WAUCONDA","IL","60084"
128853,"2321 SW 135TH AVE","MIRAMAR","FL","33027"
128854,"2321 SW 34TH PLACE-C","GAINESVILLE","FL","32608"
128855,"2321 THALIA ST","NEW ORLEANS","LA","70113"
128856,"2321 TRARAS ROAD","MOGADORE","OH","44260"
128857,"2321 W 143RD STREET","LEAWOOD","KS","66224"
128858,"2321 W BARRY UNIT 1","CHICAGO","IL","60618"
128859,"2321 W FAIRWAY DR","COEUR D ALENE","ID","83815"
128860,"2321 WELDON RD SE","CONYERS","GA","30094"
128861,"2321 WESTVIEW TRAIL","DENTON","TX","76207"
128862,"2321 WOODLAND HILLS DR","BLACKSBURG","VA","24060"
128863,"23210 57TH AVE W UNIT 403","MOUNTLAKE TERRACE","WA","98043"
128864,"23210 ANTHONY RD","CICERO","IN","46034"
128865,"23211 LA VACA ST","LAKE FOREST","CA","92630"
128866,"23211 LA VACA STREET","LAKE FOREST","CA","92630"
128867,"23214 MARIANO STREET","WOODLAND HILLS","CA","91367"
128868,"23214 SONOMA LANE","CICERO","IN","46034"
128869,"23215 REDBUD RIDGE CIR","VALENCIA","CA","91354"
128870,"23215 SCHOLL MANOR WAY","CLARKSBURG","MD","20871"
128871,"23217 N 71ST DR","GLENDALE","AZ","85310"
128872,"23218 60TH PL S","KENT","WA","98032"
128873,"23218 SESAME ST UNIT 8F","TORRANCE","CA","90502"
128874,"23219 STRINGTOWN RD - 207","CLARKSBURG","MD","20871"
128875,"23219 TRADEWIND DRIVE","BRAMBLETON","VA","20148"
128876,"2322 1/2 ENGLEWOOD COURT","INDEPENDENCE","MO","64052"
128877,"2322 40TH PLACE NW 203","WASHINGTON","DC","20007"
128878,"2322 ATLANTA STREET","GREENSBORO","NC","27406"
128879,"2322 BAHAMAS DR","GARLAND","TX","75044"
128880,"2322 BEECH STREET WEST","ROSEMOUNT","MN","55068"
128881,"2322 BIGELOW AVE N","SEATTLE","WA","98109"
128882,"2322 BUTANO AVENUE SUITE 106","SACRAMENTO","CA","95825"
128883,"2322 EAST NYE LN","CARSON CITY","NV","89706"
128884,"2322 EPSY LN","FLATWOODS","KY","41139"
128885,"2322 HARTS BLUFF ROAD","MOUNT PLEASANT","TX","75455"
128886,"2322 LILY PAD LANE","KISSIMMEE","FL","34743"
128887,"2322 MARY THISTLE DRIVE","SPRING","TX","77373"
128888,"2322 N HUMMINGBIRD LN","FAYETTEVILLE","AR","72703"
128889,"2322 NORTH PATTERSON AVE","WINSTON SALEM","NC","27105"
128890,"2322 PALOS VERDES DRIVE UNIT 109","PALOS VERDES","CA","90274"
128891,"2322 SE 8TH ST","CAPE CORAL","FL","33990"
128892,"2322 SHATTUCK AVENUE APT NO 412","BERKELEY","CA","94704"
128893,"2322 SOUTH ANDERSON ROAD","NEWTON","KS","67114"
128894,"2322 SOUTH PEAK ROAD","GEYSER","MT","59447"
128895,"2322 SW 67TH AVE","MIAMI","FL","33155"
128896,"2322 UNION AVE","VILLISCA","IA","50864"
128897,"2322 W 10TH STREET","INDIANAPOLIS","IN","46222"
128898,"2322 W 4375 N","CEDAR CITY","UT","84721"
128899,"2322 WEST 164 PLACE","BROOMFIELD","CO","80023"
128900,"2322 WILLOW RUN DRIVE","JACKSON","MS","39212"
128901,"2322 WINDSOR LANE","COUNTRY CLUB HILLS","IL","60478"
128902,"2322 WINTERBERRY WAY","VESTAVIA HILLS","AL","35216"
128903,"2322 YOSEMITE DR","LOS ANGELES","CA","90041"
128904,"23220 GAY STREET","EUCLID","OH","44123"
128905,"23220 S HIDDEN LAKE TRL","CRETE","IL","60417"
128906,"23225 FALLEN HILLS DRIVE","BRAMBLETON","VA","20148"
128907,"23227 GRAYLING TERRACE","BRAMBLETON","VA","20148"
128908,"23228  NIDO COURT","VALENCIA","CA","91354"
128909,"2323 16TH AVENUE SOUTH","MOORHEAD","MN","56560"
128910,"2323 66TH STREET","LUBBOCK","TX","79412"
128911,"2323 ALCOVE FOSTER CT","FRESNO","TX","77545"
128912,"2323 AVENUE L","BROOKLYN","NY","11210"
128913,"2323 BARCLAY STREET","BALTIMORE","MD","21218"
128914,"2323 BERINGER LANE","POWDER SPRINGS","GA","30127"
128915,"2323 BROADWATER AVE STE 2","BILLINGS","MT","59102"
128916,"2323 BROADWAY","OAKLAND","CA","94612"
128917,"2323 BULLCREEK ROAD","GRUNDY","VA","24614"
128918,"2323 BURNLEY AVE","HENRICO","VA","23228"
128919,"2323 CENTRE AVE","BELLMORE","NY","11710"
128920,"2323 CHURN CREEK ROAD 493216","REDDING","CA","96002"
128921,"2323 CLEAR LAKE CITY BLVD SUITE 180","HOUSTON","TX","77062"
128922,"2323 CORNWALLIS ROAD","GARNER","NC","27529"
128923,"2323 COTTONWOOD SCHOOL RD","ROSENBERG","TX","77471"
128924,"2323 COUNTRYSIDE DRIVE SUITE B","FREMONT","OH","43420"
128925,"2323 CROSSLANES WAY","ODENTON","MD","21113"
128926,"2323 E APACHE BLVD","TEMPE","AZ","85281"
128927,"2323 EAST MONUMENT STREET","BALTIMORE","MD","21205"
128928,"2323 EAST MOUNTAIN GATE PASS","PHOENIX","AZ","85024"
128929,"2323 ELDRIDGE PKWY APT 414","HOUSTON","TX","77077"
128930,"2323 ESTELLE DR SE","EAST GRAND RAPIDS","MI","49506"
128931,"2323 GLENCROFTE LANE","CHATTANOOGA","TN","37421"
128932,"2323 GRAND BLVD STE 1000","KANSAS CITY","KS","64108"
128933,"2323 GRAND BLVD SUITE 1000","KANSAS CITY","MO","64108"
128934,"2323 GRAND BLVD SUITE 1100","KANSAS CITY","MO","64108"
128935,"2323 GREEN BAY ROAD","NORTH CHICAGO","IL","60064"
128936,"2323 KATHERINE ST","FORT MYERS","FL","33901"
128937,"2323 LOCUST ST  UNIT 211","ST LOUIS","MO","63103"
128938,"2323 MAPLE ROAD","BURLINGTON","WI","53105"
128939,"2323 MICHELLE LANE","GREENSBORO","NC","27407"
128940,"2323 MONROE ST NE","MINNEAPOLIS","MN","55418"
128941,"2323 N BROADWAY STE 302","SANTA ANA","CA","92706"
128942,"2323 N CALVERT STREET","BALTIMORE","MD","21218"
128943,"2323 N HOUSTON ST  APT 512","DALLAS","TX","75219"
128944,"2323 N HOUSTON ST APT 512","DALLAS","TX","75219"
128945,"2323 N ILLINOIS STREET","INDIANAPOLIS","IN","46208"
128946,"2323 N MOORPARK ROAD","THOUSAND OAKS","CA","91360"
128947,"2323 N WOODLAWN  APT 801","WICHITA","KS","67220"
128948,"2323 NIPSIC AVE","BREMERTON","WA","98310"
128949,"2323 PACIFIC STREET","NORTH BEND","OR","97459"
128950,"2323 PALMDALE WALK DRIVE APT 301","FORT MILL","SC","29708"
128951,"2323 PERIMETER PARK DRIVE","ATLANTA","GA","30341"
128952,"2323 PIEDMONT ROAD NE SUITE 2401","ATLANTA","GA","30324"
128953,"2323 REEF COURT","DISCOVERY BAY","CA","94505"
128954,"2323 REO DRIVE","SAN DIEGO","CA","92139"
128955,"2323 RIDGMAR BLVD APT 82","FORT WORTH","TX","76116"
128956,"2323 ROSS AVE SUITE 200","DALLAS","TX","75201"
128957,"2323 ROSS AVENUE STE 600","DALLAS","TX","75201"
128958,"2323 ROUTE 73","PENNSAUKEN","NJ","08110"
128959,"2323 S TROY ST SUITE 4-170","AURORA","CO","80014"
128960,"2323 S TROY ST","AURORA","CO","80014"
128961,"2323 S TROY STREET STE 4-210","AURORA","CO","80015"
128962,"2323 S TROY STREET SUITE 5","AURORA","CO","80014"
128963,"2323 S VOSS RD STE 390","HOUSTON","TX","77057"
128964,"2323 SAN ANTONIO ST-SUITE 1934","AUSTIN","TX","78705"
128965,"2323 SANDSPRING DRIVE","ATLANTA","GA","30331"
128966,"2323 SOUTH BROOK STREET","LOUISVILLE","KY","40208"
128967,"2323 SOUTH FLORIDA AVENUE","LAKELAND","FL","33813"
128968,"2323 SOUTH RIDGEWOOD AVENUE","EDGEWATER","FL","32141"
128969,"2323 SOUTH SALINA STREET","SYRACUSE","NY","13205"
128970,"2323 SOUTH SHEPHERD 14TH FLOOR","HOUSTON","TX","77019"
128971,"2323 SOUTH TROY ST STE 5-209","AURORA","CO","80014"
128972,"2323 SOUTH TROY STREET 5-330","AURORA","CO","80014"
128973,"2323 SOUTH VOSS ROAD NO 320","HOUSTON","TX","77057"
128974,"2323 STABLERIDGE DR","CONROE","TX","77384"
128975,"2323 STATE ROUTE 770","SEAMAN","OH","45679"
128976,"2323 STONEBROOK PKWY","FRISCO","TX","75036"
128977,"2323 SUNRISE DR","SAN JOSE","CA","95124"
128978,"2323 VENETIAN DRIVE SW","ATLANTA","GA","30311"
128979,"2323 VICTORY AVENUE SUITE 700","DALLAS","TX","75219"
128980,"2323 W 59TH ST","INDIANAPOLIS","IN","46228"
128981,"2323 W JOHNSTON STREET","OLATHE","KS","66061"
128982,"2323 WEST 16TH STREET","WILMINGTON","DE","19806"
128983,"2323 WEST CAPITOL DRIVE","MILWAUKEE","WI","53206"
128984,"2323 WEST PARKSIDE LANE","PHOENIX","AZ","85027"
128985,"23230 HALSTED 202","FARMINGTON HILLS","MI","48335"
128986,"23230 HALSTED SUITE 202","FARMINGTON HILLS","MI","48335"
128987,"23230 SPRUCE FALLS COURT","HOUSTON","TX","77494"
128988,"23231 BANEBERRY RD","MAGNOLIA","TX","77355"
128989,"23231 DENVER CT","MORENO VALLEY","CA","92553"
128990,"23233 DRAKE RD","FARMINGTON HILLS","MI","48335"
128991,"23235 SANDSAGE LN","KATY","TX","77494"
128992,"23235 SUTTON DRIVE - 3936","SOUTHFIELD","MI","48033"
128993,"23236 SCHOLL MANOR WAY","CLARKSBURG","MD","20871"
128994,"23237 PROVIDENCE DR 406","SOUTHFIELD","MI","48075"
128995,"2324 129TH LN NW","COON RAPIDS","MN","55448"
128996,"2324 190TH ST","BEDFORD","IA","50833"
128997,"2324 1ST AVE  APT 503","SEATTLE","WA","98121"
128998,"2324 1ST AVE APT 310","SEATTLE","WA","98121"
128999,"2324 3RD AVE","ROCK ISLAND","IL","61201"
129000,"2324 ASHLEY DRIVE","OKLAHOMA CITY","OK","73120"
