"ID","Address","City","State","Zip"
332501,"PO BOX 126639","HARRISBURG","PA","17112"
332502,"PO BOX 12664","ODESSA","TX","79768"
332503,"PO BOX 12669","TALLAHASSEE","FL","32317"
332504,"PO BOX 1267","KENNESAW","GA","30156"
332505,"PO BOX 1267","KINGSTON","NY","12401"
332506,"PO BOX 1267","OAK GROVE","KY","37042"
332507,"PO BOX 1267","OPELOUSAS","LA","70501"
332508,"PO BOX 1267","PROSPER","TX","75078"
332509,"PO BOX 1267","SANTA FE","TX","77510"
332510,"PO BOX 12671","ODESSA","TX","79768"
332511,"PO BOX 12671","PENSACOLA","FL","32591"
332512,"PO BOX 12677","CHICAGO","IL","60612"
332513,"PO BOX 1268","FRAMINGHAM","MA","01701"
332514,"PO BOX 1268","LONDONDERRY","NH","03053"
332515,"PO BOX 1268","MOUNT IDA","AR","71957"
332516,"PO BOX 1268","MUSKEGON","MI","49440"
332517,"PO BOX 1268","PORT ORFORD","OR","97465"
332518,"PO BOX 1268","SANGER","CA","93657"
332519,"PO BOX 12684","PORTLAND","OR","97212"
332520,"PO BOX 12686","JACKSON","MS","39236"
332521,"PO BOX 1269","BAY MINETTE","AL","36507"
332522,"PO BOX 1269","CORRALES","NM","87048"
332523,"PO BOX 1269","HUNTINGTON","WV","25714"
332524,"PO BOX 1269","OCOEE","FL","34761"
332525,"PO BOX 1269","PEARSALL","TX","78061"
332526,"PO BOX 127  2000 ALLSTON WAY","BERKELEY","CA","94704"
332527,"PO BOX 127","ALTO","GA","30510"
332528,"PO BOX 127","ARIZONA CITY","AZ","85123"
332529,"PO BOX 127","BATH","PA","18014"
332530,"PO BOX 127","BRISTOW","OK","74010"
332531,"PO BOX 127","CAROGA LAKE","NY","12032"
332532,"PO BOX 127","ECHO","OR","97826"
332533,"PO BOX 127","FARMINGVILLE","NY","11738"
332534,"PO BOX 127","FOREST","VA","24551"
332535,"PO BOX 127","HUSTON","ID","83630"
332536,"PO BOX 127","LEOLA","SD","57456"
332537,"PO BOX 127","LINCOLN","DE","19960"
332538,"PO BOX 127","LOYALTON","CA","96118"
332539,"PO BOX 127","MANGO","FL","33550"
332540,"PO BOX 127","MANILA","UT","84046"
332541,"PO BOX 127","MARIPOSA","CA","95338"
332542,"PO BOX 127","MCGREGOR","TX","76657"
332543,"PO BOX 127","MIDDLEBURGH","NY","12122"
332544,"PO BOX 127","MILFORD","NY","13807"
332545,"PO BOX 127","MONTAGUE","TX","76251"
332546,"PO BOX 127","PHILOMATH","OR","97370"
332547,"PO BOX 127","PLATTEVILLE","CO","80651"
332548,"PO BOX 127","POMPTON PLAINS","NJ","07444"
332549,"PO BOX 127","SAN AUGUSTINE","TX","75972"
332550,"PO BOX 127","SAN CARLOS","CA","94070"
332551,"PO BOX 127","SOUTHINGTON","OH","44470"
332552,"PO BOX 127","SPRINGLAKE","TX","79072"
332553,"PO BOX 127","ST FRANCISVILLE","LA","70775"
332554,"PO BOX 127","TAWAS CITY","MI","48764"
332555,"PO BOX 127","TICONDEROGA","NY","12883"
332556,"PO BOX 127","WALDPORT","OR","97394"
332557,"PO BOX 127","WATERFORD","VA","20197"
332558,"PO BOX 127","WEIMAR","CA","95736"
332559,"PO BOX 127","WORDEN","MT","59088"
332560,"PO BOX 1270","CUT OFF","LA","70345"
332561,"PO BOX 1270","FRISCO","CO","80443"
332562,"PO BOX 1270","ORTING","WA","98360"
332563,"PO BOX 1270","SARATOGA","WY","82331"
332564,"PO BOX 12702","BIRMINGHAM","AL","35202"
332565,"PO BOX 1271","CHESTER","VT","05143"
332566,"PO BOX 1271","IDAHO SPRINGS","CO","80452"
332567,"PO BOX 1271","MADERA","CA","93637"
332568,"PO BOX 1271","PENDLETON","OR","97801"
332569,"PO BOX 1271","VAN ALSTYNE","TX","75495"
332570,"PO BOX 1271","WILLIAMSPORT","PA","17703"
332571,"PO BOX 12710","CINCINNATI","OH","45212"
332572,"PO BOX 12714","LA JOLLA","CA","92039"
332573,"PO BOX 1272","FORT JONES","CA","96032"
332574,"PO BOX 1272","FORT SMITH","AR","72902"
332575,"PO BOX 1272","GAINESVILLE","TX","76241"
332576,"PO BOX 1272","HOLLYWOOD","SC","29449"
332577,"PO BOX 1272","SOUTHAVEN","MS","38671"
332578,"PO BOX 1272","SPRINGFIELD","OR","97477"
332579,"PO BOX 1272","TRACY","CA","95378"
332580,"PO BOX 1272","WAYNESVILLE","NC","28786"
332581,"PO BOX 12725","SAN LUIS OBISPO","CA","93406"
332582,"PO BOX 1273","ASTORIA","OR","97103"
332583,"PO BOX 1273","BROOKHAVEN","PA","19015"
332584,"PO BOX 1273","CRESTONE","CO","81131"
332585,"PO BOX 1273","FOND DU LAC","WI","54936"
332586,"PO BOX 1273","HUNTSVILLE","AL","35805"
332587,"PO BOX 1273","KILAUEA","HI","96754"
332588,"PO BOX 1273","ROSWELL","NM","88202"
332589,"PO BOX 1273","SPRINGFIELD","MA","01101"
332590,"PO BOX 1273","YUCCA VALLEY","CA","98226"
332591,"PO BOX 12735","YUMA","AZ","85365"
332592,"PO BOX 1274","BONNERS FERRY","ID","83805"
332593,"PO BOX 1274","ELLENSBURG","WA","98926"
332594,"PO BOX 1274","KINGSTON","WA","98346"
332595,"PO BOX 1274","MARBLEHEAD","MA","01945"
332596,"PO BOX 1274","MURPHYSBORO","IL","62966"
332597,"PO BOX 1274","ORANGE","VA","22960"
332598,"PO BOX 1274","TALKEETNA","AK","99676"
332599,"PO BOX 12743","SAN LUIS OBISPO","CA","93406"
332600,"PO BOX 1275","CAMBRIDGE","MD","21613"
332601,"PO BOX 1275","CHARLESTOWN","NH","03603"
332602,"PO BOX 1275","ENNIS","TX","75120"
332603,"PO BOX 1275","FLORENCE","OR","97439"
332604,"PO BOX 1275","GAINESVILLE","TX","76241"
332605,"PO BOX 1275","LINDSAY","OK","73052"
332606,"PO BOX 1275","OCEAN CITY","NJ","08226"
332607,"PO BOX 12756","NEW BERN","NC","28562"
332608,"PO BOX 12758","FORT WAYNE","IN","46864"
332609,"PO BOX 1276","LITCHFIELD PARK","AZ","85340"
332610,"PO BOX 1276","OKANOGAN","WA","98840"
332611,"PO BOX 1276","WICHITA","KS","67201"
332612,"PO BOX 12762","RALEIGH","NC","27605"
332613,"PO BOX 12768","CHARLOTTE","NC","28220"
332614,"PO BOX 12768","ROCHESTER","NY","14612"
332615,"PO BOX 1277","IDALOU","TX","79329"
332616,"PO BOX 1277","PINE BUSH","NY","12566"
332617,"PO BOX 1277","TILLAMOOK","OR","97141"
332618,"PO BOX 1277","WALLER","TX","77484"
332619,"PO BOX 12771","WILMINGTON","NC","28405"
332620,"PO BOX 12774","TALLAHASSEE","FL","32317"
332621,"PO BOX 1278","BAKER","MT","59313"
332622,"PO BOX 1278","INGRAM","TX","78025"
332623,"PO BOX 1278","ROUND MOUNTAIN","NV","89045"
332624,"PO BOX 1278","SCAPPOOSE","OR","97056"
332625,"PO BOX 12780","ALEXANDRIA","LA","71315"
332626,"PO BOX 12793","ODESSA","TX","79768"
332627,"PO BOX 12793","WILMINGTON","NC","28405"
332628,"PO BOX 128 C/O MABREYBANK","HASKELL","OK","74436"
332629,"PO BOX 128","ASTATULA","FL","34705"
332630,"PO BOX 128","BELOIT","KS","67420"
332631,"PO BOX 128","BURDEN","KS","67019"
332632,"PO BOX 128","CLEAR LAKE","WA","98235"
332633,"PO BOX 128","ERIE","CO","80516"
332634,"PO BOX 128","FLORA","IN","46929"
332635,"PO BOX 128","HARVARD","IL","60033"
332636,"PO BOX 128","HARVEST","AL","35749"
332637,"PO BOX 128","HAVANA","FL","32333"
332638,"PO BOX 128","KENEDY","TX","78119"
332639,"PO BOX 128","LA CRESCENT","MN","55947"
332640,"PO BOX 128","LOUISBURG","KS","66053"
332641,"PO BOX 128","MASTIC BEACH","NY","11951"
332642,"PO BOX 128","MCCALL","ID","83638"
332643,"PO BOX 128","MIDFIELD","TX","77458"
332644,"PO BOX 128","MORIAH","NY","12960"
332645,"PO BOX 128","MOUNT OLIVE","NC","28365"
332646,"PO BOX 128","NORTH WEBSTER","IN","46555"
332647,"PO BOX 128","ODESSA","DE","19730"
332648,"PO BOX 128","PALMYRA","NJ","08065"
332649,"PO BOX 128","PHOENIX","AZ","85001"
332650,"PO BOX 128","PLEASANTVILLE","NY","10570"
332651,"PO BOX 128","ROANOKE","TX","76262"
332652,"PO BOX 128","SCOTLAND NECK","NC","27874"
332653,"PO BOX 128","SMITHVILLE","MO","64089"
332654,"PO BOX 128","SNELLVILLE","GA","30078"
332655,"PO BOX 128","WOODRUFF","WI","54568"
332656,"PO BOX 12803","RENO","NV","89510"
332657,"PO BOX 12804","ROANOKE","VA","24028"
332658,"PO BOX 12809","SAN DIEGO","CA","92112"
332659,"PO BOX 1281","ATHENS","GA","30603"
332660,"PO BOX 1281","CHEHALIS","WA","98531"
332661,"PO BOX 1281","DURANGO","CO","81302"
332662,"PO BOX 1281","PENDLETON","OR","97801"
332663,"PO BOX 12813","BEAUMONT","TX","77706"
332664,"PO BOX 128156","NASHVILLE","TN","37212"
332665,"PO BOX 1282","BLANCHARD","OK","73010"
332666,"PO BOX 1282","CLOVIS","CA","93613"
332667,"PO BOX 1282","GLENDIVE","MT","59330"
332668,"PO BOX 1282","NEW YORK","NY","10276"
332669,"PO BOX 1282","PARAGOULD","AR","72451"
332670,"PO BOX 1282","PENSACOLA","FL","32591"
332671,"PO BOX 1282","SANDPOINT","ID","83864"
332672,"PO BOX 1282","WEST POINT","CA","95255"
332673,"PO BOX 12823","WINSTON SALEM","NC","27117"
332674,"PO BOX 1283","ANN ARBOR","MI","48106"
332675,"PO BOX 1283","EAST STROUDSBURG","PA","18301"
332676,"PO BOX 1283","EL CAJON","CA","92022"
332677,"PO BOX 1283","KINGSTREE","SC","29556"
332678,"PO BOX 1283","MCCAMEY","TX","79752"
332679,"PO BOX 1283","REDMOND","OR","97756"
332680,"PO BOX 1283","STOWE","VT","05672"
332681,"PO BOX 12832","COLUMBUS","OH","43212"
332682,"PO BOX 1284","CASPER","WY","82602"
332683,"PO BOX 1284","HARTWELL","GA","30643"
332684,"PO BOX 1284","KINGS MOUNTAIN","NC","28086"
332685,"PO BOX 1284","LA MESA","CA","91944"
332686,"PO BOX 1284","QUEEN CREEK","AZ","85142"
332687,"PO BOX 1284","SOMERSET","KY","42502"
332688,"PO BOX 1284","WHITEHOUSE","TX","75791"
332689,"PO BOX 128403","NASHVILLE","TN","37212"
332690,"PO BOX 128435","NASHVILLE","TN","37212"
332691,"PO BOX 1285","OURAY","CO","81427"
332692,"PO BOX 128527","NASHVILLE","TN","37212"
332693,"PO BOX 1286","CALDWELL","TX","77836"
332694,"PO BOX 1286","MARY ESTHER","FL","32569"
332695,"PO BOX 1286","MOUNT GILEAD","NC","27306"
332696,"PO BOX 1286","WESTCLIFFE","CO","81252"
332697,"PO BOX 12861","LAHAINA","HI","96761"
332698,"PO BOX 12861","TALLAHASSEE","FL","32317"
332699,"PO BOX 1287","ALAMEDA","CA","94501"
332700,"PO BOX 1287","HASLET","TX","76052"
332701,"PO BOX 1287","LELAND","NC","28451"
332702,"PO BOX 1287","MERCER ISLAND","WA","98040"
332703,"PO BOX 1287","NAPLES","FL","34106"
332704,"PO BOX 1287","NORTH PLATTE","NE","69103"
332705,"PO BOX 1287","OAKWOOD","GA","30566"
332706,"PO BOX 12873","GAINESVILLE","FL","32604"
332707,"PO BOX 12873","OGDEN","UT","84412"
332708,"PO BOX 1288","LAKE OSWEGO","OR","97035"
332709,"PO BOX 1288","NORTHVILLE","NY","12134"
332710,"PO BOX 1288","OREM","UT","84059"
332711,"PO BOX 1288","SHELBYVILLE","KY","40066"
332712,"PO BOX 1288","WARRENTON","VA","20188"
332713,"PO BOX 1288","YELM","WA","98597"
332714,"PO BOX 12887","DURHAM","NC","27709"
332715,"PO BOX 1289","EUSTIS","FL","32727"
332716,"PO BOX 1289","TELLURIDE","CO","81435"
332717,"PO BOX 12892","FLORENCE","SC","29504"
332718,"PO BOX 129","ALLEN","TX","75013"
332719,"PO BOX 129","CALHOUN","TN","37309"
332720,"PO BOX 129","CARBON","IN","47837"
332721,"PO BOX 129","DAYTON","IN","47941"
332722,"PO BOX 129","DURHAM","NC","27702"
332723,"PO BOX 129","HOLLY","MI","48442"
332724,"PO BOX 129","LOUVIERS","CO","80131"
332725,"PO BOX 129","PERKINS","OK","74059"
332726,"PO BOX 129","REFUGIO","TX","78377"
332727,"PO BOX 129","SNYDER","OK","73566"
332728,"PO BOX 129","SODDY DAISY","TN","37379"
332729,"PO BOX 129","WARING","TX","78074"
332730,"PO BOX 129","WINFALL","NC","27985"
332731,"PO BOX 129","WOODLAND PARK","CO","80866"
332732,"PO BOX 1290","CONCORD","NC","28026"
332733,"PO BOX 1290","SANDPOINT","ID","83864"
332734,"PO BOX 1291","BUDA","TX","78610"
332735,"PO BOX 1291","CLIFTON PARK","NY","12065"
332736,"PO BOX 1291","CRESTED BUTTE","CO","81224"
332737,"PO BOX 1291","DELAND","FL","32721"
332738,"PO BOX 1291","HOPKINSVILLE","KY","42241"
332739,"PO BOX 1291","KILAUEA","HI","96754"
332740,"PO BOX 1291","SUMMERTON","SC","29148"
332741,"PO BOX 12916","WILMINGTON","NC","28405"
332742,"PO BOX 1292","CLEVELAND","TX","77328"
332743,"PO BOX 1292","FOND DU LAC","WI","54935"
332744,"PO BOX 1292","HILLSBORO","NH","03244"
332745,"PO BOX 1292","LEESBURG","VA","20177"
332746,"PO BOX 1292","MIAMI","OK","74355"
332747,"PO BOX 1292","MONTREAT","NC","28757"
332748,"PO BOX 1292","MURRIETA","CA","92564"
332749,"PO BOX 1292","OVERTON","NV","89040"
332750,"PO BOX 1292","SHEPHERDSVILLE","KY","40165"
332751,"PO BOX 1292","SPRINGFIELD","TN","37172"
332752,"PO BOX 1292","SUWANEE","GA","30024"
332753,"PO BOX 1292","TONASKET","WA","98855"
332754,"PO BOX 1292","YONKERS","NY","10703"
332755,"PO BOX 1292","ZANESVILLE","OH","43702"
332756,"PO BOX 12921","TUCSON","AZ","85732"
332757,"PO BOX 12923","SEATTLE","WA","98111"
332758,"PO BOX 1293","BAY SHORE","NY","11706"
332759,"PO BOX 1293","FRANKFORT","KY","40602"
332760,"PO BOX 1294","CALUMET CITY","IL","60409"
332761,"PO BOX 1294","CHINO VALLEY","AZ","86323"
332762,"PO BOX 1294","EAU CLAIRE","WI","54702"
332763,"PO BOX 1294","SAHUARITA","AZ","85629"
332764,"PO BOX 12945","NEWPORT BEACH","CA","92658"
332765,"PO BOX 12945","SALEM","OR","97309"
332766,"PO BOX 1295","CHARLESTON","WV","25325"
332767,"PO BOX 1295","HERMITAGE","PA","16148"
332768,"PO BOX 1295","LEWISBURG","WV","24901"
332769,"PO BOX 1295","SONOITA","AZ","85637"
332770,"PO BOX 1296","BEEVILLE","TX","78104"
332771,"PO BOX 1296","FORT LAUDERDALE","FL","33302"
332772,"PO BOX 1296","HAYDEN","ID","83835"
332773,"PO BOX 1296","LAHAINA","HI","96767"
332774,"PO BOX 1296","MIDLAND","MI","48641"
332775,"PO BOX 1296","MORRISTOWN","NJ","07960"
332776,"PO BOX 1296","RICHMOND","KY","40475"
332777,"PO BOX 1296","WELDON","CA","93283"
332778,"PO BOX 12963","NEW IBERIA","LA","70563"
332779,"PO BOX 12963","SAN ANTONIO","TX","78212"
332780,"PO BOX 1297","CODY","WY","82414"
332781,"PO BOX 1297","CONNELL","WA","99326"
332782,"PO BOX 1297","LINDSAY","CA","93247"
332783,"PO BOX 1297","MCCAYSVILLE","GA","30555"
332784,"PO BOX 1298","BUNNELL","FL","32110"
332785,"PO BOX 1298","KILL DEVIL HILLS",NA,"27948"
332786,"PO BOX 1298","KILL DEVIL HILLS","NC","27948"
332787,"PO BOX 1298","PAULDEN","AZ","86334"
332788,"PO BOX 1298","RESTON","VA","20195"
332789,"PO BOX 1298","ST GEORGE","UT","84771"
332790,"PO BOX 1298","WEST MEMPHIS","AR","72303"
332791,"PO BOX 1299","AMARILLO","TX","79105"
332792,"PO BOX 1299","BATTLEGROUND","WA","98604"
332793,"PO BOX 1299","BRADFORD","PA","16701"
332794,"PO BOX 1299","BUSHNELL","FL","33513"
332795,"PO BOX 1299","COLUMBIA FALLS","MT","59912"
332796,"PO BOX 1299","DAVIDSON","NC","28036"
332797,"PO BOX 1299","DECATUR","TX","76234"
332798,"PO BOX 1299","KILLEN","AL","35645"
332799,"PO BOX 1299","MORENO VALLEY","CA","92556"
332800,"PO BOX 1299","ZEBULON","NC","27597"
332801,"PO BOX 12990","LONGVIEW","TX","75607"
332802,"PO BOX 13","ALTOONA","WI","54720"
332803,"PO BOX 13","BARKER","TX","77413"
332804,"PO BOX 13","BLACKWOOD","NJ","08012"
332805,"PO BOX 13","BRIDGEPORT","WV","26330"
332806,"PO BOX 13","BUFFALO LAKE","MN","55314"
332807,"PO BOX 13","CEDAR CREST","NM","87008"
332808,"PO BOX 13","CHURCH ROAD","VA","23833"
332809,"PO BOX 13","CLINTONVILLE","WI","54929"
332810,"PO BOX 13","CLOUDCROFT","NM","88317"
332811,"PO BOX 13","CRESCENT CITY","CA","95531"
332812,"PO BOX 13","DECKERVILLE","MI","48427"
332813,"PO BOX 13","EDINA","MO","63537"
332814,"PO BOX 13","ELBERT","WV","24830"
332815,"PO BOX 13","FAIRBURY","NE","68352"
332816,"PO BOX 13","FRANKENMUTH","MI","48734"
332817,"PO BOX 13","HARRODS CREEK","KY","40027"
332818,"PO BOX 13","HIGHLANDS","NJ","07732"
332819,"PO BOX 13","JASPER","IN","47545"
332820,"PO BOX 13","LINCOLN","CA","95648"
332821,"PO BOX 13","LISBON","OH","44432"
332822,"PO BOX 13","LODI","NY","14860"
332823,"PO BOX 13","MARSHALLTOWN","IA","50158"
332824,"PO BOX 13","NORTH ZULCH","TX","77872"
332825,"PO BOX 13","PORT RICHEY","FL","34673"
332826,"PO BOX 13","PRINCE FREDERICK","MD","20678"
332827,"PO BOX 13","RADISSON","WI","54867"
332828,"PO BOX 13","REEDSBURG","WI","53959"
332829,"PO BOX 13","ROMNEY","WV","26757"
332830,"PO BOX 13","SCHOHARIE","NY","12157"
332831,"PO BOX 13","SELLERSBURG","IN","47172"
332832,"PO BOX 13","ST HELENA ISLAND","SC","29920"
332833,"PO BOX 13","STANARDSVILLE","VA","22973"
332834,"PO BOX 13","TITUSVILLE","NJ","08560"
332835,"PO BOX 13","WINNETT","MT","59087"
332836,"PO BOX 130 2401 NORTH OCOEE STREET","CLEVELAND","TN","37312"
332837,"PO BOX 130","ANDOVER","KS","67002"
332838,"PO BOX 130","BARNEGAT","NJ","08005"
332839,"PO BOX 130","BRANSON","MO","65615"
332840,"PO BOX 130","BRIDGEPORT","MI","48722"
332841,"PO BOX 130","BRONX","NY","10465"
332842,"PO BOX 130","DRAKESBORO","KY","42337"
332843,"PO BOX 130","EVESHAM","NJ","08053"
332844,"PO BOX 130","GNADENHUTTEN","OH","44629"
332845,"PO BOX 130","HOUSE SPRINGS","MO","63051"
332846,"PO BOX 130","LAKE PARK","GA","31636"
332847,"PO BOX 130","LAVEEN","AZ","85339"
332848,"PO BOX 130","MAMARONECK","NY","10543"
332849,"PO BOX 130","MENDON","UT","84325"
332850,"PO BOX 130","MENOMONIE","WI","54751"
332851,"PO BOX 130","MIDLAND","NC","28107"
332852,"PO BOX 130","MULHALL","OK","73063"
332853,"PO BOX 130","OXFORD","MD","21654"
332854,"PO BOX 130","READING","MA","01867"
332855,"PO BOX 130","SARCOXIE","MO","64862"
332856,"PO BOX 130","WILLMAR","MN","56201"
332857,"PO BOX 1300","STREAMWOOD","IL","60007"
332858,"PO BOX 130019","BROOKLYN","NY","11213"
332859,"PO BOX 13003","OFFUTT AFB","NE","68113"
332860,"PO BOX 130044","ANN ARBOR","MI","48113"
332861,"PO BOX 13006","OFFUTT AFB","NE","68113"
332862,"PO BOX 1301","DURANT","OK","74702"
332863,"PO BOX 1301","FREER","TX","78357"
332864,"PO BOX 1301","HUNTSVILLE","AL","35807"
332865,"PO BOX 1301","KELLER","TX","76244"
332866,"PO BOX 1301","LOUISVILLE","KY","40201"
332867,"PO BOX 1301","MARION","MT","59925"
332868,"PO BOX 1301","SHELTER IS HTS","NY","11965"
332869,"PO BOX 1301","UKIAH","CA","95482"
332870,"PO BOX 1301","WESTMORLAND","CA","92281"
332871,"PO BOX 13011","LOS ANGELES","CA","90013"
332872,"PO BOX 1302","CANTON","TX","75103"
332873,"PO BOX 1302","CASTROVILLE","TX","78009"
332874,"PO BOX 1302","CHIEFLAND","FL","32644"
332875,"PO BOX 1302","CORTEZ","CO","81321"
332876,"PO BOX 1302","PERU","IN","46970"
332877,"PO BOX 1302","WHEATON","IL","60187"
332878,"PO BOX 1303","CONCORD","NC","28025"
332879,"PO BOX 1303","DAVIDSON","NC","28036"
332880,"PO BOX 1303","EAGLE RIVER","WI","54521"
332881,"PO BOX 1303","ISABELA","PR","00662"
332882,"PO BOX 1303","LAKEVIEW","OR","97630"
332883,"PO BOX 1303","LANCASTER","CA","93584"
332884,"PO BOX 1303","NOBLESVILLE","IN","46061"
332885,"PO BOX 1303","SANDIA PARK","NM","87047"
332886,"PO BOX 1303","SPRING VALLEY","CA","91977"
332887,"PO BOX 130301","ANN ARBOR","MI","48113"
332888,"PO BOX 13031","MONROE","LA","71213"
332889,"PO BOX 130332","TAMPA","FL","33681"
332890,"PO BOX 130335 HANOVER STREET","BOSTON","MA","02113"
332891,"PO BOX 13035","MARINA DEL REY","CA","90295"
332892,"PO BOX 130378","CORAM","MT","59913"
332893,"PO BOX 130383","THE WOODLANDS","TX","77393"
332894,"PO BOX 1304","ASBURY PARK","NJ","07712"
332895,"PO BOX 1304","BOULDER","UT","84716"
332896,"PO BOX 1304","GASTONIA","NC","28053"
332897,"PO BOX 130428","TAMPA","FL","33681"
332898,"PO BOX 13047","AIEA","HI","96701"
332899,"PO BOX 1305","BETHEL","AK","99559"
332900,"PO BOX 1305","MARION","SC","29571"
332901,"PO BOX 1305","MOUNT JULIET","TN","37121"
332902,"PO BOX 130512","BIRMINGHAM","AL","35214"
332903,"PO BOX 13052","PHILADELPHIA","PA","19101"
332904,"PO BOX 13056","MINNEAPOLIS","MN","55414"
332905,"PO BOX 13056","ODESSA","TX","79768"
332906,"PO BOX 130572","THE WOODLANDS","TX","77393"
332907,"PO BOX 130581","TYLER","TX","75713"
332908,"PO BOX 1306","FAIRHOPE","AL","36533"
332909,"PO BOX 1306","JONESBORO","GA","30237"
332910,"PO BOX 1306","MONTAGUE","NJ","07827"
332911,"PO BOX 1306","OVERTON","NV","89040"
332912,"PO BOX 1306","PHILIPSBURG","MT","59858"
332913,"PO BOX 13063","FAIRLAWN","OH","44334"
332914,"PO BOX 1307","BISBEE","AZ","85603"
332915,"PO BOX 1307","BURLINGTON","VT","05402"
332916,"PO BOX 1307","MARYSVILLE","WA","98271"
332917,"PO BOX 1307","SANTA MONICA","CA","90406"
332918,"PO BOX 130705","HOUSTON","TX","77219"
332919,"PO BOX 13071","BIRMINGHAM","AL","35202"
332920,"PO BOX 13071","SALEM","OR","97309"
332921,"PO BOX 13071","SAVANNAH","GA","31416"
332922,"PO BOX 13073","RICHMOND","VA","23225"
332923,"PO BOX 130743   3000 GREEN ROAD","ANN ARBOR","MI","48113"
332924,"PO BOX 130792","HOUSTON","TX","77219"
332925,"PO BOX 1308  GRACIE STATION","NEW YORK","NY","10028"
332926,"PO BOX 1308","CALERA","AL","35040"
332927,"PO BOX 1308","NEW YORK","NY","10028"
332928,"PO BOX 1308","ROCKLAND","ME","04841"
332929,"PO BOX 1308","SHELTON","WA","98584"
332930,"PO BOX 1308","TRAVELERS REST","SC","29690"
332931,"PO BOX 1308","YONKERS","NY","10701"
332932,"PO BOX 130811","SPRING","TX","77393"
332933,"PO BOX 13082","JACKSON","WY","83002"
332934,"PO BOX 1309","DELTA JUNCTION","AK","99737"
332935,"PO BOX 1309","HOT SPRINGS","VA","24445"
332936,"PO BOX 1309","LITCHFIELD PARK","AZ","85340"
332937,"PO BOX 1309","UKIAH","CA","95482"
332938,"PO BOX 1309","WINTERVILLE","NC","28590"
332939,"PO BOX 130923","TYLER","TX","75703"
332940,"PO BOX 130934","DALLAS","TX","75313"
332941,"PO BOX 130940","ROSEVILLE","MN","55113"
332942,"PO BOX 130941","HOUSTON","TX","77219"
332943,"PO BOX 130998","ROSEVILLE","MN","55113"
332944,"PO BOX 131 2448 HUNTINGFIELD RD","ROCK HALL","MD","21661"
332945,"PO BOX 131","ALLENSVILLE","KY","42204"
332946,"PO BOX 131","BENHAM","KY","40807"
332947,"PO BOX 131","BOURG","LA","70343"
332948,"PO BOX 131","CASSOPOLIS","MI","49031"
332949,"PO BOX 131","CHAPIN","SC","29036"
332950,"PO BOX 131","CUYAHOGA FALLS","OH","44221"
332951,"PO BOX 131","ELLSWORTH","IA","50075"
332952,"PO BOX 131","FAIRFIELD","CT","06824"
332953,"PO BOX 131","FALCONER","NY","14733"
332954,"PO BOX 131","HALES CORNERS","WI","53130"
332955,"PO BOX 131","JACKSONVILLE","FL","32004"
332956,"PO BOX 131","LAKE ELMORE","VT","05657"
332957,"PO BOX 131","MANITOWISH WATERS","WI","54545"
332958,"PO BOX 131","MOODY","AL","35004"
332959,"PO BOX 131","NEGAUNEE","MI","49866"
332960,"PO BOX 131","OWENSBORO","KY","42302"
332961,"PO BOX 131","PENDLETON","SC","29670"
332962,"PO BOX 131","PORTSULPHUR","LA","70083"
332963,"PO BOX 131","SANDPOINT","ID","83864"
332964,"PO BOX 131","SEALE","AL","36875"
332965,"PO BOX 131","SOUTH HAVEN","MI","49090"
332966,"PO BOX 131","SPRINGERVILLE","AZ","85938"
332967,"PO BOX 131","ST JOSEPH","IL","61873"
332968,"PO BOX 131","TWENTYNINE PALMS","CA","92277"
332969,"PO BOX 131","TWIN PEAKS","CA","92391"
332970,"PO BOX 131","UNION","NJ","07083"
332971,"PO BOX 131","UWCHLAND","PA","19480"
332972,"PO BOX 131","WALLINS","KY","40873"
332973,"PO BOX 131","WARNERS","NY","13164"
332974,"PO BOX 131","WHITEWRIGHT","TX","75491"
332975,"PO BOX 1310","BROWNING","MT","59417"
332976,"PO BOX 1310","MEREDITH","NH","03253"
332977,"PO BOX 1310","SPOKANE VALLEY","WA","99037"
332978,"PO BOX 13102","ATLANTA","GA","30324"
332979,"PO BOX 13104","SACRAMENTO","CA","95813"
332980,"PO BOX 1311","BELMONT","NH","03220"
332981,"PO BOX 1311","CONWAY","AR","72033"
332982,"PO BOX 1311","DICKINSON","TX","77539"
332983,"PO BOX 1311","HONOLULU","HI","96807"
332984,"PO BOX 1311","JOHNSTON","IA","50131"
332985,"PO BOX 1311","WAYNESBORO","GA","30830"
332986,"PO BOX 131148","THE WOODLANDS","TX","77393"
332987,"PO BOX 131173","HOUSTON","TX","77219"
332988,"PO BOX 1312","DECATUR","GA","30031"
332989,"PO BOX 1312","EYOTA","MN","55934"
332990,"PO BOX 1312","FLORA VISTA","NM","87415"
332991,"PO BOX 1312","FORNEY","TX","75126"
332992,"PO BOX 1312","HIRAM","GA","30141"
332993,"PO BOX 1312","LA PORTE","TX","77572"
332994,"PO BOX 1312","LUCASVILEE","OH","45648"
332995,"PO BOX 1312","MARSHFIELD","MA","02050"
332996,"PO BOX 1312","WAKE FOREST","NC","27588"
332997,"PO BOX 1312","WEST CHESTER","OH","45071"
332998,"PO BOX 131224","DALLAS","TX","75313"
332999,"PO BOX 131265","SPRING","TX","77393"
333000,"PO BOX 131272","CARLSBAD","CA","92013"
