"ID","Address","City","State","Zip"
103501,"20 W 120TH ST -APT 1","NEW YORK","NY","10027"
103502,"20 W 2ND ST","WHITEFISH","MT","59937"
103503,"20 W 2ND STREET","SAND SPRINGS","OK","74063"
103504,"20 W 5TH ST N","BIG STONE GAP","VA","24219"
103505,"20 W BROAD ST","PALMYRA","NJ","08065"
103506,"20 W BROAD STREET","PALMYRA","NJ","08065"
103507,"20 W HAWLEY ST","AMBOY","IL","61310"
103508,"20 W MAIN STREET","FORSYTH","GA","31029"
103509,"20 W MOSHOLU PARKWAY S APT 17B","BRONX","NY","10468"
103510,"20 W SUMNER 301","SPOKANE","WA","99204"
103511,"20 W TARPON AVE","TARPON SPRINGS","FL","34689"
103512,"20 WALDINGFIELD ROAD","S. HAMILTON","MA","01982"
103513,"20 WALKER ROAD","TRAVELERS REST","SC","29690"
103514,"20 WALLENBERG CIR","MONSEY","NY","10952"
103515,"20 WALLENBERG CIRCLE","MONSEY","NY","10952"
103516,"20 WALNUT AVE","SOMERSET","NJ","08873"
103517,"20 WALSH LANE","GREENWICH","CT","06830"
103518,"20 WASHINGTON AVENUE","ASTON","PA","19014"
103519,"20 WASHINGTON PLACE - 2ND FLOOR","NEWARK","NJ","07102"
103520,"20 WATER GRANT ST APT 663","YONKERS","NY","10701"
103521,"20 WEBBER AVE","OAKFIELD","NY","14125"
103522,"20 WELLINGTON DRIVE","SUGAR LAND","TX","77478"
103523,"20 WENDELL ST APT 39C","HEMPSTEAD","NY","11550"
103524,"20 WENDELL STREET   APT 27A","HEMPSTEAD","NY","11550"
103525,"20 WENDELL STREET 19E","HEMPSTEAD","NY","11550"
103526,"20 WENDELL STREET APT A20","HEMPSTEAD","NY","11550"
103527,"20 WEST COLONY PLACE SUITE 280","DURHAM","NC","27705"
103528,"20 WEST CREAMERY ROAD  PO BOX 570","TRUMBAUERSVILLE","PA","18970"
103529,"20 WEST MAIN ST PMB 161","HOHENWALD","TN","38462"
103530,"20 WEST MAIN STREET","MADISON","OH","44057"
103531,"20 WEST MINSTER ROAD APT 3A","BROOKLYN","NY","11218"
103532,"20 WEST MOSHOLU PARKWAY SUITE 14M","BRONX","NY","10468"
103533,"20 WEST OAKWOOD PL","BUFFALO","NY","14214"
103534,"20 WEST THIRD STREET","MAYSVILLE","KY","41056"
103535,"20 WEST WASHINGTON STREET","COLORADO SPRINGS","CO","80907"
103536,"20 WESTBROOK LN","POMONA","CA","91766"
103537,"20 WESTFIELD DRIVE","LITTLE ROCK","AR","72210"
103538,"20 WHEATRIDGE DR","COLLINSVILLE","IL","62234"
103539,"20 WHITETAIL DRIVE","CHADDSFORD","PA","19317"
103540,"20 WHITFORD ROAD","NASHUA","NH","03062"
103541,"20 WHITNEY ROAD","SHORT HILLS","NJ","07078"
103542,"20 WILLOUGHBY LN","IOWA CITY","IA","52240"
103543,"20 WILSON ROAD","LAMBERTVILLE","NJ","08530"
103544,"20 WINKLER RD","CHEEKTOWAGA","NY","14225"
103545,"20 WINOOSKI FALLS WAY STE 7","WINOOSKI","VT","05404"
103546,"20 WINTERGREEN LANE","GROTON","MA","01450"
103547,"20 WOOD RIDGE DR","COLUMBIA FALLS","MT","59912"
103548,"20 WOODCLIFF CR","LITTLE ROCK","AR","72204"
103549,"20 WOODSHIRE DR","SICKLERVILLE","NJ","08081"
103550,"20 WYNFIELD WAY","COVINGTON","GA","30016"
103551,"20-05 46 STREET","ASTORIA","NY","11105"
103552,"20-24 BRANFORD PLC        SUITE 605","NEWARK","NJ","07102"
103553,"20-39 SEAGIRT BLVD APT 6F","FAR ROCKAWAY","NY","11691"
103554,"20-41 SEAGIRT BLVD APT 3A","FAR ROCKAWAY","NY","11691"
103555,"20-49 SEAGIRT BLVD","FAR ROCKAWAY","NY","11691"
103556,"20-65 23 STREET - FLOOR 1","ASTORIA","NY","11105"
103557,"20-86 28TH STREET","ASTORIA","NY","11105"
103558,"20","ASHEVILLE","NC","28806"
103559,"20","REEVESVILLE","SC","29471"
103560,"20","ROME","GA","30161"
103561,"20","WESTWOOD","MA","02090"
103562,"200  EDGEHILL CIR","LAFAYETTE","LA","70508"
103563,"200 104TH AVE 221","TREASURE ISLAND","FL","33706"
103564,"200 112TH AVENUE NE SUITE 210","BELLEVUE","WA","98004"
103565,"200 11TH ST SE","WASHINGTON","DC","20003"
103566,"200 13TH STREET N","BENSON","MN","56215"
103567,"200 16TH AVENUE","COUNCIL BLUFFS","IA","51501"
103568,"200 177TH DR APT 211","SUNNY ISLES BEACH","FL","33160"
103569,"200 1ST AVE W STE 312","SEATTLE","WA","98119"
103570,"200 24TH AVE S","SEATTLE","WA","98144"
103571,"200 26TH STREET","OPELIKA","AL","36801"
103572,"200 2ND AVE S UNIT 286","SAINT PETERSBURG","FL","33701"
103573,"200 2ND AVE SE","CULLMAN","AL","35055"
103574,"200 2ND AVENUE SOUTH","ST PETERSBURG","IL","33701"
103575,"200 3RD AVE","PASSAIC","NJ","07055"
103576,"200 3RD STREET NORTH","WESLEY","IA","50483"
103577,"200 4TH STREET","MINTO","ND","58261"
103578,"200 78TH AVENUE NORTH APT 46","SAINT PETERSBURG","FL","33702"
103579,"200 AIRPORT DRIVE","BROWNSBORO","AL","35741"
103580,"200 AIRPORT ROAD SUITE 100","NEW CUMBERLAND","PA","17070"
103581,"200 ALAMOS PL","SAN RAMON","CA","94583"
103582,"200 ALMEDA STREET","LAFAYETTE","LA","70501"
103583,"200 AMMO AVENUE","WHITEMAN AFB","MO","65305"
103584,"200 ANASTASIA BLVD","ST AUGUSTINE","FL","32080"
103585,"200 ANDOVER PARK E  SUITE 3","TUKWILA","WA","98188"
103586,"200 ARMORY ROAD","CENTRE","AL","35960"
103587,"200 ASCOT PLACE NE","WASHINGTON","DC","20002"
103588,"200 ASHTON COURT","PITTSBURGH","PA","15202"
103589,"200 ASHVILLE CIRCLE","MONTEVALLO","AL","35115"
103590,"200 ASPHODEL DR","DOTHAN","AL","36303"
103591,"200 ATRIUM WAY","COLUMBIA","SC","29223"
103592,"200 ATSION WAY","TOMS RIVER","NJ","08753"
103593,"200 AUSTREE DRIVE","COLUMBIA","SC","29229"
103594,"200 B SOUTH HIGHWAY 27","CLERMONT","FL","34715"
103595,"200 BALLANTINE PARKWAY","NEWARK","NJ","07104"
103596,"200 BALTIC CIR UNIT 238","REDWOOD CITY","CA","94065"
103597,"200 BARFIELD RD","DARLINGTON","SC","29532"
103598,"200 BARTONS CREEK RD LOT 10","LEBANON","TN","37090"
103599,"200 BEAN STATION SCHOOL ROAD","BEAN STATION","TN","37708"
103600,"200 BED FORD RD APT N0 7A","WOBURN","MA","01801"
103601,"200 BEDFORD RD APT 19A","WOBURN","MA","01801"
103602,"200 BEDFORD RD-APT 19A","WOBURN","MA","01801"
103603,"200 BELL AVENUE","PUNXSUTAWNEY","PA","15767"
103604,"200 BENDIX ROAD SUITE 300","VIRGINIA BEACH","VA","23452"
103605,"200 BICENTENNIAL CIR APT 32","SACRAMENTO","CA","95826"
103606,"200 BLAKESLEES ST APT 196","BRISTOL","CT","06010"
103607,"200 BLOOMFIELD FARM LANE","CENTREVILLE","MD","21617"
103608,"200 BLOOMSBURY AVENUE","CATONSVILLE","MD","21228"
103609,"200 BLUE GABLE ROAD APT 117","HATTIESBURG","MS","39401"
103610,"200 BLUE RIDGE ROAD","PLYMOUTH MEETING","PA","19462"
103611,"200 BLUEGRASS TERRACE","MCDONOUGH","GA","30253"
103612,"200 BOARDWALK WAY","KELSO","WA","98626"
103613,"200 BOCES DRIVE","YORKTOWN HEIGHTS","NY","10598"
103614,"200 BOLETTE LANE","COLUMBIA","SC","29229"
103615,"200 BOWLES LANE","AFTON","WY","83110"
103616,"200 BOWMAN RD","HANOVER","PA","17331"
103617,"200 BOYD LN","HENDERSON","NC","27536"
103618,"200 BOYDEN AVENUE - 451","MAPLEWOOD","NJ","07040"
103619,"200 BRAEBURN LANE","HIGHLAND PARK","IL","60035"
103620,"200 BRANDON RIDGE COURT","RIVERDALE","GA","30274"
103621,"200 BRANDYWINE RD","COLLEGEVILLE","PA","19426"
103622,"200 BRIAR PATH","REIDSVILLE","NC","27320"
103623,"200 BRIDGE STREET 201","BURLINGTON","WI","53105"
103624,"200 BRIDGEWAY APT 249","LAFAYETTE","LA","70506"
103625,"200 BROADWAY","SEATTLE","WA","98122"
103626,"200 BROCK AVENUE","QUITMAN","MS","39355"
103627,"200 BROMPTON RD","GARDEN CITY","NY","11530"
103628,"200 BROOKVILLE RD","BROOKVILLE","NY","11545"
103629,"200 BROOKWOOD DRIVE","ENTERPRISE","AL","36330"
103630,"200 BROWN ROAD STE 300","FREMONT","CA","94539"
103631,"200 BRUCE RD","LOCKPORT","IL","60441"
103632,"200 BUCHANAN STREET APT 21","SAN FRANCISCO","CA","94102"
103633,"200 BUCKTHORNE DRIVE","LEXINGTON","SC","29072"
103634,"200 BUTLER ST  SUITE 305","WEST PALM BEACH","FL","33407"
103635,"200 BYRAM PKWY","BYRAM","MS","39272"
103636,"200 BYRN STREET","CAMBRIDGE","MD","21613"
103637,"200 C AND O DAM RD","DANIELS","WV","25832"
103638,"200 CABRINI BLVD -  APT 111","NEW YORK","NY","10033"
103639,"200 CABRINI BLVD APT 93","NEW YORK","NY","10033"
103640,"200 CALIFORNIA STREET","SAN FRANCISCO","CA","94111"
103641,"200 CAMP 5 RD","CRYSTAL FALLS","MI","49920"
103642,"200 CAPTAINS ROW UNIT 510","CHELSEA","MA","02150"
103643,"200 CARRINGTON LANE","CENTERVILLE","GA","31028"
103644,"200 CASPER WAY","MIDDLETOWN","DE","19709"
103645,"200 CASS ST","CLEVELAND","MO","64734"
103646,"200 CASTLEBROOK LN","BUFFALO","NY","14221"
103647,"200 CENTENNIAL AVENUE  STE 200-270","PISCATAWAY","NJ","08854"
103648,"200 CENTENNIAL AVENUE STE 108","PISCATAWAY","NJ","08854"
103649,"200 CENTENNIAL AVENUE SUITE 106","PISCATAWAY","NJ","08854"
103650,"200 CENTENNIAL AVENUE SUITE 200","PISCATAWAY","NJ","08854"
103651,"200 CENTER NEW TEXAS ROAD","PLUM","PA","15239"
103652,"200 CENTER STREET","BOWLING GREEN","KY","42101"
103653,"200 CENTRE AVENUE 2M","NEW ROCHELLE","NY","10805"
103654,"200 CHAMPION DRIVE","LAKEWAY","TX","78734"
103655,"200 CHARLES STREET NE","FRIDLEY","MN","55432"
103656,"200 CHERRY STREET","TROY","AL","36081"
103657,"200 CHESAPEAKE BLVD SUITE 2550","ELKTON","MD","21921"
103658,"200 CHISHOLM PL STE 250","PLANO","TX","75075"
103659,"200 CHURCH ST E","EAST CANTON","OH","44730"
103660,"200 CHURCH STREET STAR CITY AR 7166","STAR CITY","AR","71667"
103661,"200 CHURCH STREET","LANDISVILLE","PA","17538"
103662,"200 CHURCH STREET","NATCHITOCHES","LA","71457"
103663,"200 CITY CENTER CIRCLE DRIVE","BOARDMAN","OR","97818"
103664,"200 CITY PARK ROAD","HODGENVILLE","KY","42748"
103665,"200 CIVIC CENTER WAY","EL CAJON","CA","92020"
103666,"200 CLAIBORNE WAY","SAN ANTONIO","TX","78209"
103667,"200 CLARK ST NE","CULLMAN","AL","35055"
103668,"200 CLEVIE JAMES ROAD","BROWNSVILLE","KY","42210"
103669,"200 CLOCK TOWER PL STE D205","CARMEL","CA","93923"
103670,"200 CLOCK TOWER PLACE SUITE D205","CARMEL","CA","93923"
103671,"200 COLLEGE DRIVE","BLACKWOOD","NJ","08012"
103672,"200 COLLEGE STREET","BATESVILLE","MS","38606"
103673,"200 COMMERCE STREET","MONTGOMERY","AL","36104"
103674,"200 COMMERCE STREET","SMITHFIELD","VA","23430"
103675,"200 COMMONS DRIVE","HOLLY SPRINGS","NC","27540"
103676,"200 CONCORD PLAZA DR STE 425","SAN ANTONIO","TX","78216"
103677,"200 CONCORD PLAZA DR SUITE 700","SAN ANTONIO","TX","78216"
103678,"200 CONCORD PLAZA DRIVE SUITE 700","SAN ANTONIO","TX","78216"
103679,"200 CONNIE DRIVE","ELK CITY","OK","73644"
103680,"200 CONTINENTAL DR SUITE 401","NEWARK","DE","19713"
103681,"200 CONTINENTAL DRIVE - SUITE 401","NEWARK","DE","19713"
103682,"200 CONTINENTAL DRIVE SUITE 111","NEWARK","DE","19713"
103683,"200 COOS STREET","BERLIN","NH","03570"
103684,"200 CORPORAL STEPHEN J BALLARD WAY","NEWARK","DE","19702"
103685,"200 COTTESBROOKE CIRCLE","MADISON","MS","39110"
103686,"200 COTTON AVE STE 1","AMERICUS","GA","31709"
103687,"200 COUNTRY CLUB DRIVE UNIT 1306","LARGO","FL","33771"
103688,"200 COUNTY EXTENSION ROAD","LONDON","KY","40741"
103689,"200 COUNTY ROAD 1917","LINDEN","TX","75563"
103690,"200 COUNTY ROAD 552","ROGERSVILLE","AL","35652"
103691,"200 COUNTY ROAD 68","ORRVILLE","AL","36767"
103692,"200 COYOTE ST 566","NEVADA CITY","CA","95959"
103693,"200 CP AND L DRIVE","ARDEN","NC","28704"
103694,"200 CRAIG ROAD   SUITE 203","MANALAPAN","NJ","07726"
103695,"200 CREEK DRIVE","QINBY","SC","29506"
103696,"200 CRICKET HOLLOW RUN","CLAYTON","NC","27520"
103697,"200 CROSSWINDS DRIVE UNIT A1","GREENACRES","FL","33413"
103698,"200 CURRIE STREET APT 102","CHAPEL HILL","NC","27517"
103699,"200 CUSHMAN STREET","DURHAM","NC","27703"
103700,"200 D STREET","ROSEVILLE","CA","95678"
103701,"200 DAHLIA STREET APT B","NEW IBERIA","LA","70563"
103702,"200 DAIRY ROAD","KAHULUI","HI","96732"
103703,"200 DAVIS COURT SE APT 5","MILEDGEVILLE","GA","31061"
103704,"200 DAYSTAR DRIVE","CULLMAN","AL","35057"
103705,"200 DE NEVE DRIVE","LOS ANGELES","CA","90095"
103706,"200 DE SPAIN LANE","RENO","NV","89511"
103707,"200 DEL VERDE CIR UNIT 5","SACRAMENTO","CA","95833"
103708,"200 DEPOT STREET","ETHRIDGE","TN","38456"
103709,"200 DERRY ROAD","HUDSON","NH","03051"
103710,"200 DOMINION PARK DRIVE","HOUSTON","TX","77090"
103711,"200 DOUGLAS ST NE","WASHINGTON","DC","20002"
103712,"200 DOUGLAS STREET","PETALUMA","CA","94954"
103713,"200 DOWNING DR","SUMMERVILLE","SC","29485"
103714,"200 DS HALL STREET","HERLONG","CA","96113"
103715,"200 E 10TH ST SUITE 1014","NEW YORK","NY","10003"
103716,"200 E 10TH STREET SUITE 200","SIOUX FALLS","SD","57101"
103717,"200 E 15TH ST APT 8C","NEW YORK","NY","10003"
103718,"200 E 17TH STREET","BROOKLYN","NY","11226"
103719,"200 E 1ST ST SUITE 212","WICHITA","KS","67202"
103720,"200 E 20TH","CRANE","TX","79731"
103721,"200 E 22ND TRAILER 40","ROSWELL","NM","88201"
103722,"200 E 33RD APT 22G","NEW YORK","NY","10016"
103723,"200 E 3TH ST","CHARLOTTE","NC","28206"
103724,"200 E 71 STREET 11J","NEW YORK","NY","10021"
103725,"200 E 72ND ST APT 21K","NEW YORK","NY","10021"
103726,"200 E 72ND STREET APT 27K","NEW YORK","NY","10021"
103727,"200 E 89TH ST APT 6F","NEW YORK","NY","10128"
103728,"200 E ASSOCIATION STREET","ELLETTSVILLE","IN","47429"
103729,"200 E BEVERLY BLVD STE 200","MONTEBELLO","CA","90640"
103730,"200 E BIG BEAVER RD","TROY","MI","48083"
103731,"200 E BROWARD BLVD STE 1900","FORT LAUDERDALE","FL","33301"
103732,"200 E BURGESS RD 51B","PENSACOLA","FL","32503"
103733,"200 E CAMPBELL AVENUE","CHERRY","IL","61317"
103734,"200 E CAMPUS VIEW BLVD STE 200","COLUMBUS","OH","43235"
103735,"200 E CENTENNIAL DR -641","OAK CREEK","WI","53154"
103736,"200 E CENTER AVENUE SUITE B","VISALIA","CA","93291"
103737,"200 E CENTRAL AVE","OZAWKIE","KS","66070"
103738,"200 E CHAPIN STREET","MORRIS","IL","60450"
103739,"200 E CLINTON AVE","FARMER CITY","IL","61842"
103740,"200 E DEL MAR BLVD STE 300","PASADENA","CA","91105"
103741,"200 E DIVISION ST","SPARTA","MI","49345"
103742,"200 E DONALD ST","WATERLOO","IA","50703"
103743,"200 E GRANADA BLVD 304","ORMOND BEACH","FL","32176"
103744,"200 E HARRISON","FAIRFIELD","IA","52556"
103745,"200 E HWY 14","JANESVILLE","WI","53545"
103746,"200 E LAKE DR","AUDUBON","NJ","08106"
103747,"200 E MADISON STREET","GIBSONBURG","OH","43431"
103748,"200 E MAIN ST","EASLEY","SC","29640"
103749,"200 E MARION BLVD","FULLERTON","CA","92835"
103750,"200 E MARLETTE RD","PECK","MI","48466"
103751,"200 E MILLER RD","LANSING","MI","48911"
103752,"200 E MYRTLE STREET","LITTLESTOWN","PA","17340"
103753,"200 E NORTH STREET","CROWN POINT","IN","46307"
103754,"200 E OREGON RD","LITITZ","PA","17543"
103755,"200 E PINE STREET","QUENEMO","KS","66528"
103756,"200 E RANDOLPH ST FL 38","CHICAGO","IL","60601"
103757,"200 E RANDOLPH ST STE 2900","CHICAGO","IL","60601"
103758,"200 E RANDOLPH ST STE 5100-38","CHICAGO","IL","60601"
103759,"200 E RANDOLPH ST SUITE 5100","CHICAGO","IL","60601"
103760,"200 E SABINE DR","JONESBOROUGH","TN","37659"
103761,"200 E SOUTH STREET","KEWANEE","IL","61443"
103762,"200 E UPPER ILLINOIS STE 3901","CHICAGO","IL","60611"
103763,"200 E VERONA AVE NUM 34","VERONA","WI","53593"
103764,"200 E WASHINGTON STREET NO 311","INDIANAPOLIS","IN","46204"
103765,"200 E WASHINGTON STREET","CULVER","IN","46511"
103766,"200 E WASHNGTON ST SUITE 120","GREENWOOD","MS","38930"
103767,"200 E WILLOW STREET","HARRISBURG","SD","57032"
103768,"200 E YOUNG STREET","ROLESVILLE","NC","27571"
103769,"200 E10TH STREET  / 178","NEW YORK","NY","10003"
103770,"200 EAGLE TRAIL CT","WHITEWATER","CO","81527"
103771,"200 EAST 10TH STREET SUITE 200","SIOUX FALLS","SD","57104"
103772,"200 EAST 32ND STREET APT 30D","NEW YORK","NY","10016"
103773,"200 EAST 61ST STREET APT 19DE","NEW YORK","NY","10065"
103774,"200 EAST 63RD STREET 3G","NEW YORK","NY","10065"
103775,"200 EAST 69TH STREET SUITE 10C","NEW YORK","NY","10021"
103776,"200 EAST 71ST STREET APT 2J","NEW YORK","NY","10021"
103777,"200 EAST 74TH ST STE 15F","NEW YORK","NY","10021"
103778,"200 EAST 78TH STREET APT 11G","NEW YORK","NY","10075"
103779,"200 EAST 8TH AVENUE","PINE BLUFF","AR","71601"
103780,"200 EAST BIG BEAVER ROAD","TROY","MI","48083"
103781,"200 EAST BROADWAY PO BOX 47","MONETT","MO","65708"
103782,"200 EAST BROADWAY SUITE A","NEW YORK CITY","NY","10002"
103783,"200 EAST BROADWAY","MT PLEASANT","MI","48858"
103784,"200 EAST CAMPERDOWN","GREENVILLE","SC","29601"
103785,"200 EAST CHAMPAIGN AVENUE","RANTOUL","IL","61866"
103786,"200 EAST CHESTNUT STREET  UNIT 207","CHICAGO","IL","60611"
103787,"200 EAST CLAY STREET","WHITEWATER","WI","53190"
103788,"200 EAST EAGLE STREET","BUFFALO","NY","14204"
103789,"200 EAST EVANS STREET","ORLANDO","FL","32804"
103790,"200 EAST HARLEM AVENUE","MONMOUTH","IL","61462"
103791,"200 EAST LEXINGTON ST SUITE 1305","BALTIMORE","MD","21202"
103792,"200 EAST LOCUST ST","LAFAYETTE","TN","37083"
103793,"200 EAST MAIN BOX 511","SUBLETTE","IL","61367"
103794,"200 EAST MAIN ST","EASLEY","SC","29640"
103795,"200 EAST MAIN STREET","ABINGDON","VA","24210"
103796,"200 EAST MAIN STREET","STARKVILLE","MS","39759"
103797,"200 EAST ORVIS ST","MASSENA","NY","13662"
103798,"200 EAST PALMETTO PARK ROAD STE 104","BOCA RATON","FL","33432"
103799,"200 EAST PARK CIRCLE","DICKSON","TN","37055"
103800,"200 EAST RANDOLPH ST S 5100","CHICAGO","IL","60601"
103801,"200 EAST SAN AUGUSTINE 1597","DEER PARK","TX","77536"
103802,"200 EAST SHELDON STREET","PHILADELPHIA","PA","19120"
103803,"200 EAST STREET","PITTSBORO","NC","27312"
103804,"200 EAST VERONA AVENUE - SUITE 16","VERONA","WI","53593"
103805,"200 EASY STREET","HOWELL TOWNSHIP","NJ","07731"
103806,"200 EDGEWOOD CIRCLE","NINETY SIX","SC","29666"
103807,"200 EDWARDS ST APT GFE","ROSLYN HEIGHTS","NY","11577"
103808,"200 ELKS RD","RICHMOND","IN","47374"
103809,"200 ETHYL WAY","STOUGHTON","MA","02072"
103810,"200 EVERGLADES CIRCLE","CANTON","GA","30114"
103811,"200 F MAIN ST  MAILBOX 261","STONEHAM","MA","02180"
103812,"200 FAIRVIEW CHASE","COVINGTON","GA","30016"
103813,"200 FANNIE LANE","LEXINGTON","SC","29073"
103814,"200 FEDERAL STREET SUITE 213","CAMDEN","NJ","08103"
103815,"200 FEDERAL STREET","CAMDEN","NJ","08103"
103816,"200 FERNVUE DRIVE","MOON TOWNSHIP","PA","15108"
103817,"200 FIGUERES AVE","SAN JOSE","CA","95116"
103818,"200 FILLMORE ST","DENVER","CO","80206"
103819,"200 FIREHOUSE LANE","SEELEY LAKE","MT","59868"
103820,"200 FIRST AVE NW SUITE 303B","HICKORY","NC","28601"
103821,"200 FIRST STREET SW","ROCHESTER","MN","55905"
103822,"200 FOOTPATH LANE","ROUND LAKE","IL","60073"
103823,"200 FORREST RD","FORT OGLETHORPE","GA","30742"
103824,"200 FORT MEADE RD 1108","LAUREL","MD","20707"
103825,"200 FORTSON DRIVE","ATHENS","GA","30606"
103826,"200 FOSTER CREEK ROAD","GOOSE CREEK","SC","29445"
103827,"200 FOXHALL DRIVE","BEL AIR","MD","21009"
103828,"200 FRANKLIN PARKWAY","SAN MATEO","CA","94403"
103829,"200 FREMONT STREET","WEST CHICAGO","IL","60185"
103830,"200 FRIENDSHIP CIRCLE APT 430","LANSING","MI","48912"
103831,"200 FULLER STREET","COLUMBUS","WI","53925"
103832,"200 FULLER STREET","SULPHUR SPRINGS","TX","75482"
103833,"200 FULTON ROAD","MONTPELIER","OH","43543"
103834,"200 FULTON STE 202","SALMON","ID","83467"
103835,"200 GENERAL SIEBEN DRIVE","HASTINGS","MN","55033"
103836,"200 GENESEE AVE","GAINES","MI","48436"
103837,"200 GINGER WAY UNIT A","MORGAN HILL","CA","95037"
103838,"200 GORDON AVE","THOMASVILLE","GA","31792"
103839,"200 GOVERNMENT STREET 4TH FLOOR","MOBILE","AL","36602"
103840,"200 GRANT STREET","SALISBURY","NC","28144"
103841,"200 GRAPEVINE ROAD STE 127","VISTA","CA","92083"
103842,"200 GREEN BRANCH CT","NASHVILLE","TN","37207"
103843,"200 GREENE AVE","SAYVILLE","NY","11782"
103844,"200 GRESHAM DRIVE","MILLBROOK","AL","36054"
103845,"200 GROVE RUN ROAD","COMMERCIAL POINT","OH","43116"
103846,"200 GUILLE ST","ATHENS","TN","37303"
103847,"200 HACKENSACK AVENUE","HACKENSACK","NJ","07601"
103848,"200 HALF MILE ROAD","CENTRAL ISLIP","NY","11722"
103849,"200 HAMPTON AVENUE","KINGSTREE","SC","29556"
103850,"200 HANNA DRIVE","PONCA CITY","OK","74604"
103851,"200 HARDIN LANE","HARVEST","AL","35749"
103852,"200 HARRIETT STREET","YPSILANTI","MI","48197"
103853,"200 HARRISON AVE","PANAMA CITY","FL","32401"
103854,"200 HART BLVD  APT 5B","STATEN ISLAND","NY","10301"
103855,"200 HARVARD AVE","ROCKVILLE CENTRE","NY","11570"
103856,"200 HAVANA AVE","EGG HARBOR CITY","NJ","08215"
103857,"200 HAYES ROAD","CHAPEL HILL","NC","27517"
103858,"200 HEATHERSTON LANE","ROCHESTER","NY","14618"
103859,"200 HEMLOCK","ROMEOVILLE","IL","60446"
103860,"200 HENDRICKS DRIVE","ORGAS","WV","25148"
103861,"200 HIGH POINT DRIVE PH-3","HARTSDALE","NY","10530"
103862,"200 HIGH ST  SUITE 201","PORTSMOUTH","VA","23704"
103863,"200 HIGH STREET C/O DENNIS WEMM","GLENVILLE","WV","26351"
103864,"200 HIGH STREET SUITE 201","PORTSMOUTH","VA","23704"
103865,"200 HIGH STREET","GLENVILLE","WV","26351"
103866,"200 HIGHLAND BLVD APT 2G","BROOKLYN","NY","11207"
103867,"200 HIGHLAND DRIVE","ROANOKE","VA","24019"
103868,"200 HIGHLAND STREET SUITE 1","WORCESTER","MA","01609"
103869,"200 HIGHLAND WAY","HARRIMAN","TN","37748"
103870,"200 HIGHWAY 50","ROSEBUD","MO","63091"
103871,"200 HILTON AVE UNIT 11","HEMPSTEAD","NY","11550"
103872,"200 HOLCOMBE HILL LANE","MILTON","GA","30004"
103873,"200 HOLLY DR","MIDLAND","TX","79703"
103874,"200 HOLMDENE BLVD NE","GRAND RAPIDS","MI","49503"
103875,"200 HOWARD STREET","LA PLATA","MD","20646"
103876,"200 HUDSON ST APT 33","NORTHBOROUGH","MA","01532"
103877,"200 HUNTINGTON HALL","SYRACUSE","NY","13244"
103878,"200 HWY 35 S","PORT LAVACA","TX","77982"
103879,"200 HWY 54 NY PASS APT N 208","CARRBORO","NC","27510"
103880,"200 HYLAN AVE","HAMLET","NC","28345"
103881,"200 INDUSTRIAL DRIVE","PLACERVILLE","CA","95667"
103882,"200 ISAQUEENA DR","GREER","SC","29651"
103883,"200 J BROWN RD","SALINE","LA","71070"
103884,"200 JACK JONES RD","MILAN","GA","31060"
103885,"200 JACKIES TERRACE","MADISON","AL","35758"
103886,"200 JASLIE DRIVE","CARY","NC","27518"
103887,"200 JEFFERSON AVE SUITE 1250","MEMPHIS","TN","38103"
103888,"200 JELLISON BLVD  APT 102","DUNCANVILLE","TX","75116"
103889,"200 JOHN TYLER LANE","WILLIAMSBURG","VA","23185"
103890,"200 JUNIPER AVENUE","ATWATER","CA","95301"
103891,"200 K ST NE APT 709","WASHINGTON","DC","20002"
103892,"200 K ST NW APT 805","WASHINGTON","DC","20001"
103893,"200 KANOELEHUA AVE SUITE 229","HILO","HI","96720"
103894,"200 KEAWE ST","HONOLULU","HI","96813"
103895,"200 KEITH WAY","VACAVILLE","CA","95687"
103896,"200 KING RAIL DRIVE","LYNNFIELD","MA","01940"
103897,"200 KIRKSEY DRIVE","SUMMERVILLE","SC","29485"
103898,"200 KITTY HAWK CIRCLE","BRANDON","MS","39047"
103899,"200 L AND E RAILROAD PL","SLADE","KY","40376"
103900,"200 LA PALOMA DRIVE","RAWLINS","WY","82301"
103901,"200 LAIRD AVE APT 203","CLIFFSIDE PARK","NJ","07010"
103902,"200 LAKESHORE BLVD","KISSIMMEE","FL","34741"
103903,"200 LAKESIDE DRIVE","HORSHAM","PA","19044"
103904,"200 LAKEVIEW PKWY","RED OAK","TX","75154"
103905,"200 LANDAU WAY","BEAR","DE","19701"
103906,"200 LARALAN AVENUE","FRANKFORT","KY","40601"
103907,"200 LAU ST","GREEN BAY","WI","54302"
103908,"200 LAUREL LAKE DRIVE","HUDSON","OH","44236"
103909,"200 LAWSON CHAPEL CHURCH RD","ROXBORO","NC","27574"
103910,"200 LAWYERS RD NW BOX 435","VIENNA","VA","22183"
103911,"200 LAYUEL HILLDRIVE","STARKVILLE","MS","39759"
103912,"200 LEDGEWOOD DRIVE APT 108","STONEHAM","MA","02180"
103913,"200 LEE BARTON DRIVE SUITE 100","AUSTIN","TX","78704"
103914,"200 LEISURE LN APT 62","STONEHAM","MA","02180"
103915,"200 LENOX AVENUE SUITE 2","NEW YORK","NY","10027"
103916,"200 LESLIE DR APT 801","HALLANDALE BEACH","MD","33009"
103917,"200 LESLIE DRIVE  528","HALLANDALE BEACH","FL","33009"
103918,"200 LESLIE DRIVE APT 818","HALLANDALE BEACH","FL","33009"
103919,"200 LEXINGTON AVENUE","NEW YORK","NY","10016"
103920,"200 LIMEKILN ROAD","READING","PA","19606"
103921,"200 LINDELL BLVD SUITE 916","DELRAY BEACH","FL","33483"
103922,"200 LLOYD ROAD","GEORGETOWN","KY","40324"
103923,"200 LONE OAK LANE","SIBLEY","TX","71073"
103924,"200 LONG ROAD","COVINGTON","TN","38019"
103925,"200 LONGHORN DRIVE","VEGA","TX","79092"
103926,"200 LOVELACE MOUNTAIN VIEW LOOP","FALL BRANCH","TN","37656"
103927,"200 LUNDY LANE","BLAIRSDEN","CA","96103"
103928,"200 MACDONALD AVENUE","RICHMOND","CA","94801"
103929,"200 MAGNOLIA BLVD UNIT 200-203","PORT WENTWORTH","GA","31407"
103930,"200 MAIN AVE STE A","PASSAIC","NJ","07055"
103931,"200 MAIN ST","ELLENDALE","DE","19941"
103932,"200 MAIN ST","NEW HAVEN","MO","63068"
103933,"200 MAIN ST","RIVES JUNCTION","MI","49277"
103934,"200 MAIN STREET SUITE 1","WATSONTOWN","PA","17777"
103935,"200 MAIN STREET SUITE 105","ORANGE","NJ","07050"
103936,"200 MAIN STREET SUITE 4","BURLINGTON","VT","05401"
103937,"200 MAIN STREET","CHESTER","CA","96020"
103938,"200 MAIN STREET","EAU CLAIRE","WI","54701"
103939,"200 MAIN STREET","GUTTENBERG","IA","52052"
103940,"200 MAIN STREET","MARBLE FALLS","TX","78654"
103941,"200 MAIN STREET","SAINT PETERS","MO","63376"
103942,"200 MAINT STREET","CUSHING","IA","51018"
103943,"200 MALL BOULEVARD","KING OF PRUSSIA","PA","19406"
103944,"200 MANGROVE BAY COURT NUM 103","OCOEE","FL","34761"
103945,"200 MANOR","MARION","AR","72364"
103946,"200 MANSFIELD ROAD EAST","COLUMBUS","NJ","08022"
103947,"200 MAPLE AVENUE WEST","MORA","MN","55051"
103948,"200 MAPLE ST APT 5","SUGAR GROVE","IL","60554"
103949,"200 MARKET AVE N SUITE 300","CANTON","OH","44702"
103950,"200 MARKET PLACE  110","ROSWELL","GA","30075"
103951,"200 MARON RD","HATFIELD","PA","19440"
103952,"200 MARSH LANDING DRIVE","HOLLY SPRINGS","NC","27540"
103953,"200 MARSHALL AVE","PITTSBURGH","PA","15214"
103954,"200 MARY SANDRA PL","CLAYTON","NC","27520"
103955,"200 MASSACHUSETTS AVE NW","WASHINGTON","DC","20001"
103956,"200 MASSMILLS DR APT 503","LOWELL","MA","01852"
103957,"200 MEDICAL CTR DRIVE  STE 3A","HAZARD","KY","41701"
103958,"200 MELVIN AVENUE","CATONSVILLE","MD","21228"
103959,"200 MERION","SAINT SIMONS ISLAND","GA","31522"
103960,"200 MERRICK DR APT 1","RICHMOND","KY","40475"
103961,"200 MERRIMAC COURT","LEXINGTON","SC","29072"
103962,"200 MESHANTICUT VALLEY PKWY","CRANSTON","RI","02920"
103963,"200 METROPLEX DRIVE STE 414","EDISON","NJ","08817"
103964,"200 MIDDLE HWY SUITE 211","BARRINGTON","RI","02806"
103965,"200 MIDDLE HWY UNIT 248","BARRINGTON","RI","02806"
103966,"200 MIDWAY STREET","LONDON","OH","43140"
103967,"200 MILL LANE ROAD","LYNCHBURG","VA","24503"
103968,"200 MILLHAVEN LANDING","FAYETTEVILLE","GA","30215"
103969,"200 MONTE VERDA ST","ANGELS CAMP","CA","95222"
103970,"200 MONTFORD DR UNIT F4","GEORGETOWN","SC","29440"
103971,"200 MONTICELLO COURT","SMITHFIELD","VA","23430"
103972,"200 MOORE STREET","CROTHERSVILLE","IN","47229"
103973,"200 MOORES STREET","HELENA","AR","72342"
103974,"200 MOSSY POINTE","CANTON","GA","30114"
103975,"200 MOTT STREET","TRENTON","NJ","08611"
103976,"200 MOUNT KEMBLE AVE","MORRISTOWN","NJ","07960"
103977,"200 MOUNT OLIVE ROAD","ELIZABETHTOWN","NC","28337"
103978,"200 MOUNTAIN BAY TRAIL DRIVE APT 10","SHAWANO","WI","54166"
103979,"200 MT ELLIOTT ST","DETROIT","MI","48207"
103980,"200 MUSIC VALE RD","SALEM","CT","06420"
103981,"200 N  ASH ST  STE 102","ESCONDIDO","CA","92027"
103982,"200 N 160 E","HENRIEVILLE","UT","84736"
103983,"200 N 3RD STREET","NEBRASKA CITY","NE","68410"
103984,"200 N 5TH ST","CANNELTON","IN","47520"
103985,"200 N ARGONNE ROAD","SPOKANE VALLEY","WA","99212"
103986,"200 N BALTIC 104","MERIDIAN","ID","83642"
103987,"200 N BARRIE RD SUITE 100","BAD AXE","MI","48413"
103988,"200 N BATTLEFIELD BOULEVARD UNIT10A","CHESAPEAKE","VA","23320"
103989,"200 N BECKHAM AVE OFFICE 217","TYLER","TX","75702"
103990,"200 N BECKHAM AVE OFFICE 218","TYLER","TX","75702"
103991,"200 N BECKHAM AVE","TYLER","TX","75702"
103992,"200 N BI STATE BLVD","DELMAR","DE","19940"
103993,"200 N BROWN","CANYON","TX","79015"
103994,"200 N CENTRAL AVE","HARTSDALE","NY","10530"
103995,"200 N CORONADO BLVD","CLIFTON","AZ","85533"
103996,"200 N DAVIE ST BOX 2","GREENSBORO","NC","27401"
103997,"200 N DAVIE ST","GREENSBORO","NC","27401"
103998,"200 N EUCLID BLVD / 778","LA HABRA","CA","90631"
103999,"200 N EVERGREEN ST","MEMPHIS","TN","38112"
104000,"200 N FAIRVIEW APT B","KEENE","TX","76059"
