"ID","Address","City","State","Zip"
318001,"954 5THN AVENUE","LONGMONT","CO","80501"
318002,"954 60TH STREET SUITE 10","OAKLAND","CA","94608"
318003,"954 ABINGDON WAY","CANTON","MI","48187"
318004,"954 AIRLINE RD","MCDONOUGH","GA","30252"
318005,"954 AVE PONCE DE LEON STE 205","SAN JUAN","PR","00907"
318006,"954 BANK STREET","SMYRNA","GA","30080"
318007,"954 DOWNINGS CREEK ROAD","HAYESVILLE","NC","28904"
318008,"954 EAST BLACKJACK RD","PILOT POINT","TX","76258"
318009,"954 GALLOWAY STREET","PACIFIC PALISADES","CA","90272"
318010,"954 GRASSLICK RD","RIPLEY","WV","25271"
318011,"954 HAMPSHIRE HEATH DRIVE","DARDENNE PRAIRIE","MO","63368"
318012,"954 HONOKAHUA PL","HONOLULU","HI","96825"
318013,"954 LEXINGTON AVE 309","NEW YORK","NY","10021"
318014,"954 LEXINGTON AVE APT 128","NEW YORK","NY","10121"
318015,"954 LEXINGTON AVE SUITE 303","NEW YORK","NY","10022"
318016,"954 MEADOW LAKES ROAD","ROCK HILL","SC","29732"
318017,"954 MONUMENT AVE","PAGOSA SPRINGS","CO","81147"
318018,"954 OLD LYNCHBURG RD","CHARLOTTESVILLE","VA","22903"
318019,"954 OLDE TOWN COURT","JONESBORO","GA","30236"
318020,"954 PACINI STREET","BAKERSFIELD","CA","93314"
318021,"954 READ  ST","ATTLEBORO","MA","02703"
318022,"954 S MAIN STREET SUITE 100","CONYERS","GA","30012"
318023,"954 SOUTH WASHINGTON STREET","MARKSVILLLE","LA","71351"
318024,"954 STRUDER AVE","COLUMBUS","OH","43206"
318025,"954 TALBERT AVE","FOUNTAIN VALLEY","CA","92708"
318026,"954 VIRGINIA AVE","EDEN","NC","27288"
318027,"954 W CENTER ST","EUREKA","IL","61530"
318028,"954 W WASHINGTON BLVD SUITE 510","CHICAGO","IL","60607"
318029,"954 W WASHINGTON BLVD","CHICAGO","IL","60607"
318030,"9540 CHLISON COMMONS CIRCLE","PINCKNEY","MI","48169"
318031,"9540 DANIEL LEWIS LN","VIENNA","VA","22181"
318032,"9540 GARLAND RD STE 381 261","DALLAS","TX","75218"
318033,"9540 GARLAND RD STE 381 BOX 161","DALLA","TX","75218"
318034,"9540 GARLAND ROAD SUITE 381-396","DALLAS","TX","75218"
318035,"9540 JOHN RUSSELL RD","CHARLOTTE","NC","28215"
318036,"9540 LAZY LANE APT 202","TAMPA","FL","33614"
318037,"9540 PARK HIGHLANDS DRIVE","DALLAS","TX","75238"
318038,"9540 PHEASANT CROSSING","MINNETRISTA","MN","55375"
318039,"9540 PINECROFT DR UNIT 8154","THE WOODLANDS","TX","77380"
318040,"9540 S ORANGE MALLOW DR","TUCSON","AZ","85747"
318041,"9540 S PROSPECT AVE","CHICAGO","IL","60643"
318042,"9540 SIERRA VISTA RD","PHELAN","CA","92371"
318043,"9540 WOODBINE WAY","PLAIN CITY","OH","43064"
318044,"9540-19 GREEN CYPRESS LANE","FORT MYERS","FL","33905"
318045,"9541 103RD ST APT 615","JACKSONVILLE","FL","32210"
318046,"9541 HIGHFIELD DR","DALLAS","TX","75227"
318047,"9541 JUSTIN LANE","MANASSAS","VA","20110"
318048,"9541 MALLARD AVE","GARDEN GROVE","CA","92844"
318049,"9542 DEER VALLEY DRIVE","CEDAR RAPIDS","IA","52411"
318050,"9542 HWY 160","DODDRIDGE","AR","71834"
318051,"9542 MARKWOOD DR","SANTEE","CA","92071"
318052,"9542 RUGGLES ST","OMAHA","NE","68134"
318053,"9543 BROADWAY UNIT 6","TEMPLE CITY","CA","91780"
318054,"9543 RYANS RANCH LN","KATY","TX","77494"
318055,"9543 S 700 E STE 200","SANDY","UT","84070"
318056,"9544 HIKER HILL RD","SAN DIEGO","CA","92129"
318057,"9544 NALL AVENUE","OVERLAND PARK","KS","66207"
318058,"9544 S KENNETH PL","TEMPE","AZ","85284"
318059,"9545 EFFEN STREET","RANCHO CUCAMONGA","CA","91730"
318060,"9545 HONDO RD","LAS CRUCES","NM","88012"
318061,"9545 N STATE ROAD 545","TROY","IN","47588"
318062,"9545 SUMMIT AVENUE","ROCKFORD","MI","49341"
318063,"9545 VETERANS COURT","LAS VEGA","NV","89148"
318064,"9546 CALLE DIAZ WAY SUITE 912","CAROLINA","PR","00979"
318065,"9546 N PLACITA ROCA DE BRONCE","ORO VALLEY","AZ","85704"
318066,"9547 DUNSTABLE DRIVE","SAN ANTONIO","TX","78239"
318067,"9547 E 108TH PL S","TULSA","OK","74133"
318068,"9547 ROCKYBROOK WAY","ELK GROVE","CA","95624"
318069,"9548 HUNGARY WOODS DRIVE","GLEN ALLEN","VA","23060"
318070,"9548 LEWIS CLARK BLVD","SAINT LOUIS","MO","63136"
318071,"9548 SURVEYOR COURT","MANASSAS","VA","20110"
318072,"9548 THOMAS DOWNS LANE","JONESBORO","GA","30238"
318073,"9548 W 650 S","PENDLETON","IN","46064"
318074,"9549 CALICO TRAIL","RIVERSIDE","CA","92508"
318075,"9549 CASTLEFORD PT","ORLANDO","FL","32836"
318076,"9549 HIGHWAY 5","COLUMBUS","ND","58727"
318077,"9549 INKSTER","LIVONIA","MI","48150"
318078,"9549 NOBLE DRIVE","UPPER MARLBORO","MD","20772"
318079,"955 - D BEACON PARKWAY EAST","BIRMINGHAM","AL","35209"
318080,"955 53RD ST E APT 1234","BRADENTON","FL","34208"
318081,"955 53RD STREET EAST - UNIT 823","BRADENTON","FL","34208"
318082,"955 82ND AVENUE","VERO BEACH","FL","32966"
318083,"955 AKEPO LN UNIT B215","HONOLULU","HI","96817"
318084,"955 ATHENS STREET","SAGINAW","MI","48601"
318085,"955 BEACON STREET","NEWTON","MA","02459"
318086,"955 BENTON ST","WOODMERE","NY","11598"
318087,"955 BRIARCLIFF DR","SANTA MARIA","CA","93455"
318088,"955 BROWNING LN","ROCKLIN","CA","95765"
318089,"955 CALIFORNIA ST NW","GRAND RAPIDS","MI","49504"
318090,"955 CAULDWELL AVENUE APT 3D","BRONX","NY","10456"
318091,"955 CAULDWELL AVENUE SUITE 3-C","BRONX","NY","10456"
318092,"955 CONEY ISLAND AVE APT 404","BROOKLYN","NY","11230"
318093,"955 COUNTY HWY 84","PHIL CAMPBELL","AL","35581"
318094,"955 COUNTY STREET 2988","BLANCHARD","OK","73010"
318095,"955 CRESTVIEW DRIVE","PASADENA","CA","91107"
318096,"955 CUMBERLAND DRIVE","CLARKSVILLE","TN","37040"
318097,"955 DEEP HOLE DRIVE","MATTITUCK","NY","11952"
318098,"955 DOG TRACK RD","PENSACOLA","FL","32506"
318099,"955 DUESENBERG DR 5301","ONTARIO","CA","91764"
318100,"955 E 1800 S","BOUNTIFUL","UT","84010"
318101,"955 E 53RD STREET","BROOKLYN","NY","11234"
318102,"955 E GODFREY AVENUE","PHILADELPHIA","PA","19124"
318103,"955 E GORHAM ST","MADISON","WI","53703"
318104,"955 E KNOX ROAD UNIT 126","CHANDLER","AZ","85225"
318105,"955 E MAIN ST STE E-19","LEXINGTON","SC","29072"
318106,"955 E PLEASEANT","SANTA PAULA","CA","93060"
318107,"955 EAST 2750 NORTH","NORTH OGDEN","UT","84414"
318108,"955 EAST 82ND STREET","BROOKLYN","NY","11236"
318109,"955 EAST NEW YORK ST","AURORA","IL","60505"
318110,"955 EASTON RD APT H89","WARRINGTON","PA","18976"
318111,"955 ELDERBERRY LANE","CLOVER","SC","29710"
318112,"955 ESCALON AVE APT 805","SUNNYVALE","CA","94085"
318113,"955 FELICIANA CROSSING DRIVE","JACKSON","LA","70748"
318114,"955 FLORIDA AVENUE","OVIEDO","FL","32765"
318115,"955 HELMSDALE RD","CLEVELAND HEIGHTS","OH","44112"
318116,"955 JUNIPER STREET NE APT 2218","ATLANTA","GA","30309"
318117,"955 KAMEHAMEHA HWY","PEARL CITY","HI","96792"
318118,"955 LACE FERN ROAD","ORLANDO","FL","32811"
318119,"955 LAURELMONT DR SW","ATLANTA","GA","30311"
318120,"955 LAWRENCE AVENUE","WESTFIELD","NJ","07090"
318121,"955 LOOP ROAD","RICHARDSON","TX","75080"
318122,"955 MASSACHUSETTS AVENUE NO 403","CAMBRIDGE","MA","02139"
318123,"955 MASSACHUSETTS AVENUE-NO 218","CAMBRIDGE","MA","02139"
318124,"955 N BENSON","UNION","OR","97883"
318125,"955 N PONTIAC TRAIL 1382","WALKED LAKE","MI","48390"
318126,"955 N RESLER DR STE 104-138","EL PASO","TX","79912"
318127,"955 NW 129TH AVE","PEMBROKE PINES","FL","33028"
318128,"955 OLD 6 AND 50","MACK","CO","81525"
318129,"955 ORANGE AVE SUITE 170","DAYTONA BEACH","FL","32114"
318130,"955 RIDGEWAY STREET","SAINTE GENEVIEVE","MO","63670"
318131,"955 ROBIN HOOD LN","MEMPHIS","TN","38111"
318132,"955 S KIPLING PARKWAY","LAKEWOOD","CO","80226"
318133,"955 SANFORD AVE","IRVINGTON","NJ","07111"
318134,"955 SANFORD AVENUE","IRVINGTON","NJ","07111"
318135,"955 SANSBURY WAY SUITE 213","WEST PALM BEACH","FL","33411"
318136,"955 SHERIDAN AVENUE NO 5B","BRONX","NY","10458"
318137,"955 SOUTHWICK DR","ALCOA","TN","37701"
318138,"955 ST PETERS CHURCH RD","CHAPIN","SC","29036"
318139,"955 TREASURE LANE","VERO BEACH","FL","32963"
318140,"955 W 29TH STREET","ERIE","PA","16508"
318141,"955 WEST SILVER SPRING PLACE","ORO VALLEY","AZ","85755"
318142,"955 WESTBURY BLVD","HOWELL","MI","48843"
318143,"9550 BOLSA AVE SUITE 217","WESTMINSTER","CA","92683"
318144,"9550 BOYDS TURN ROAD","OWINGS","MD","20736"
318145,"9550 CARMEL MOUNTAIN ROAD","SAN DIEGO","CA","92129"
318146,"9550 CENTRAL AVENUE","BEN LOMOND","CA","95005"
318147,"9550 E WOODMEN ROAD","COLORADO SPRINGS","CO","80908"
318148,"9550 FOREST LANE SUITE 452","DALLAS","TX","75243"
318149,"9550 N LA CHOLLA BLVD","TUCSON","AZ","85742"
318150,"9550 ROCKYCREEK LANE","LOUISVILLE","KY","40299"
318151,"9550 RONALD E MCNAIR WAY","STOCKTON","CA","95210"
318152,"9550 SCADLOCKE RD","JACKSONVILLE","FL","32208"
318153,"9550 SHERWOOD FOREST LANE","BEVERLY HILLS","CA","90210"
318154,"9550 SOUTH EASTERN AVE SUITE 253","LAS VEGAS","NV","89123"
318155,"9550 SOUTH HARVARD","CHICAGO","IL","60628"
318156,"9550 SOUTH MCCARRAN BLVD SUITE B","RENO","NV","89523"
318157,"9550 WALKER STREET","CYPRESS","CA","90630"
318158,"95502 DIAMONDHEAD DR WEST","DIAMONDHEAD","MS","39525"
318159,"9551 ASHLEY DRIVE","MIRAMAR","FL","33025"
318160,"9551 BARLOW SPRINGS LANE","HUMBLE","TX","77396"
318161,"9551 CEDROS AVE STE 14","PANORAMA CITY","CA","91402"
318162,"9551 CIVIC CENTER DR","THORNTON","CO","80229"
318163,"9551 EAST 145TH AVE","BRIGHTON","CO","80023"
318164,"9551 ELK MOUNTAIN CIRCLE","LITTLETON","CO","80125"
318165,"9551 MACON ROAD","MEMPHIS","TN","38016"
318166,"9551 PAGEWOOD","HOUSTON","TX","77063"
318167,"9551 RAINIER AVE S APT 408","SEATTLE","WA","98118"
318168,"9551 ROCKPOINT DRIVE","HUNTINGTON BEACH","CA","92646"
318169,"9551 TOWNSHIP ROAD 179","KENTON","OH","43326"
318170,"9552 PEARL CIRCLE UNIT 203","PARKER","CO","80134"
318171,"9552 SILVER BUTTONWOOD ST","ORLANDO","FL","32832"
318172,"9553 BIRMINGHAM DRIVE","MANASSAS","VA","20110"
318173,"9553 BRIGADOON LANE","FREDERICK","MD","21704"
318174,"9553 S UNION AVE","CHICAGO","IL","60628"
318175,"9554 E HIDDEN HILL LANE","LONE TREE","CO","80124"
318176,"9554 GOLDEN DESERT COURT","CONCORD","NC","28027"
318177,"9554 INVERARY CT","LORTON","VA","22079"
318178,"9555 20TH BAY ST","NORFOLK","VA","23518"
318179,"9555 CANVASBACK DR","LAREDO","TX","78045"
318180,"9555 DEERFIELD ROAD","FRANKTOWN","CO","80116"
318181,"9555 EAST 59TH STREET","INDIANAPOLIS","IN","46216"
318182,"9555 HUAKAI STREET","WAIMEA","HI","96741"
318183,"9555 JAMES AVE S STE 245","BLOOMINGTON","MN","55431"
318184,"9555 LINKAGE TRAIL","FOUNTAIN","CO","80817"
318185,"9555 MONTICELLO AVE","EVANSTON","IL","60203"
318186,"9555 NORTH OAK TRAFFICWAY","KANSAS CITY","MO","64155"
318187,"9555 W VAN BUREN","TOLLESON","AZ","85353"
318188,"9555 WEST VAN BUREN STREET","TOLLESON","AZ","85353"
318189,"9556 FLEMING ROAD","FOWLERVILLE","MI","48836"
318190,"9557 BLACKWOLF RUN","DOUGLASVILLE","GA","30135"
318191,"9557 HASTINGS WAY","OOLTEWAH","TN","37363"
318192,"9557 PAINTER SCHOOL RD","BERRIEN CENTER","MI","49102"
318193,"9557 PERIDOT AVE","HESPERIA","CA","92344"
318194,"9557 RED APPLE LANE","COLUMBIA","MD","21046"
318195,"9557 SVL BOX","VICTORVILLE","CA","92395"
318196,"9559 E BUFFALO TRAIL","ODON","IN","47562"
318197,"9559 FOUR WINDS DRIVE APT 925","ELK GROVE","CA","95758"
318198,"9559 RUFF AVENUE","STOCKTON","CA","95212"
318199,"9559 WINSTON","REDFORD","MI","48239"
318200,"956 47 STREET","BROOKLYN","NY","11219"
318201,"956 CHATFIELD DR","JAMESTOWN","NC","27282"
318202,"956 COMMERCE LOOP","GULF SHORES","AL","36542"
318203,"956 EASTERN AVE SE","GRAND RAPIDS","MI","49507"
318204,"956 ESTUDILLO AVE","SAN LEANDRO","CA","94577"
318205,"956 HODGES COURT","MARIETTA","GA","30064"
318206,"956 N MASSASOIT AVE","CHICAGO","IL","60651"
318207,"956 OLD STATE RTE 74 STE 3","BATAVIA","OH","45103"
318208,"956 PHELPS ROAD","TEANECK","NJ","07666"
318209,"956 PISTOL RIVER WAY","COLORADO SPRINGS","CO","80921"
318210,"956 QUARRY DRIVE","CLEVELAND HEIGHTS","OH","44121"
318211,"956 RICHWOOD ROAD APT B","BEL AIR","MD","21014"
318212,"956 RUSHLEIGH RD","CLEVELAND HTS","OH","44121"
318213,"956 S BARTLETT ROAD ROOM 122","BARTLETT","IL","60103"
318214,"956 S ELM AVE","KANKAKEE","IL","60901"
318215,"956 SPAIGHT STREET","MADISON","WI","53703"
318216,"956 W JERICHO TNPKE","SMITHTOWN","NY","11787"
318217,"956 WEEPING WILLOW RD","HENDERSONVILLE","TN","37075"
318218,"956 WELLINGTON CIRCLE","AURORA","IL","60506"
318219,"956 WOODLAND AVE","ORADELL","NJ","07649"
318220,"9560 BOYDS TURN RD","OWINGS","MD","20736"
318221,"9560 COMPASS POINT DR S UNIT 8","SAN DIEGO","CA","92126"
318222,"9560 DEERING DR APT 60","HOUSTON","TX","77036"
318223,"9560 EAST RAY ROAD","MESA","AZ","85212"
318224,"9560 TOPANGA CANYON BLVD SUITE 204","CHATSWORTH","CA","91311"
318225,"9561 CONEY ISLAND CIR","ELK GROVE","CA","95758"
318226,"9561 N LAUREL RD","LAUREL","MD","20723"
318227,"9561 PAINTED CANYON CIR","HIGHLANDS RANCH","CO","80129"
318228,"9561 PATCHIN COURT","COLUMBIA","MD","21045"
318229,"9561 SW 9TH COURT","PEMBROKE PINES","FL","33025"
318230,"9562 WINTER GARDENS BLVD STE D360","LAKESIDE","CA","92040"
318231,"9563 E 2000TH AVENUE","WEST YORK","IL","62478"
318232,"9563 GARDEN GROVE BLVD","GARDEN GROVE","CA","92844"
318233,"9563 LIME ORCHARD ROAD","BEVERLY HILLS","CA","90210"
318234,"9563 SE 168TH MAPLESONG LANE","THE VILLAGES","FL","32162"
318235,"9564 MAIE AVE","LOS ANGELES","CA","90002"
318236,"9564 SANGER ST","LORTON","VA","22079"
318237,"9564 THORNECREST DRIVE","MECHANICSVILLE","VA","23116"
318238,"9565 C AVENUE SUITE  M","HESPERIA","CA","92345"
318239,"9565 HANCOCK ROAD","LAKELAND","FL","33810"
318240,"9565 RIDGE TOP TRAIL","CLARKSTON","MI","48348"
318241,"9566 INDUSTRIAL DRIVE","SAINT JOHN","IN","46373"
318242,"9567 ARROW RTE SUITE C","RANCHO CUCAMONGA","CA","91730"
318243,"9567 CHANDLER STREET","PENSACOLA","FL","32534"
318244,"9568 KINGS CHARTER DRIVE SUITE 101","ASHLAND","VA","23005"
318245,"9568 NW 24TH AVENUE","MIAMI","FL","33147"
318246,"9569 113TH ST","RICHMOND HILL","NY","11419"
318247,"9569 COGGSVILLE DRIVE NO 104","MANASSAS","VA","20110"
318248,"9569 TAYLORSVILLE ROAD STE 105","LOUISVILLE","KY","40299"
318249,"9569 W COAL MINE AVENUE UNIT A","LITTLETON","CO","80123"
318250,"957 AVENUE E","NORFOLK","VA","23513"
318251,"957 DOWNE COURT","EL DORADO HILLS","CA","95762"
318252,"957 DUPONT AVENUE","WINTER PARK","FL","32789"
318253,"957 E MULKEY ST","FORT WORTH","TX","76104"
318254,"957 EAST 3745 SOUTH APT 1","SALT LAKE CITY","UT","84106"
318255,"957 EATON ROAD","WEISER","ID","83672"
318256,"957 ELM STREET","EAGLEVILLE","TN","37060"
318257,"957 GLENDALE DR","BATAVIA","OH","45103"
318258,"957 GREENE ST","SILVERTON","CO","81433"
318259,"957 GREENSWARD LANE","DELRAY BEACH","FL","33445"
318260,"957 HAMMON AVENUE","EPHRATA","PA","17522"
318261,"957 HAYES ST APT 2","SAN FRANCISCO","CA","94117"
318262,"957 HIGH STREET","WILLIAMSPORT","PA","17701"
318263,"957 KERRY DRIVE","PASADENA","TX","77506"
318264,"957 MAHALA DRIVE","CAMP VERDE","AZ","86322"
318265,"957 MASTERS WAY","HARLEYSVILLE","PA","19438"
318266,"957 NASA PARKWAY STE 333","HOUSTON","TX","77598"
318267,"957 NASA PARKWAY SUITE 510","HOUSTON","TX","77058"
318268,"957 NASA PKWY 1160","HOUSTON","TX","77058"
318269,"957 NW 3RD AVE STE 4","FLORIDA CITY","FL","33034"
318270,"957 PATTERSON DRIVE","SHAKOPEE","MN","55379"
318271,"957 RIVER RD","HILLSBOROUGH","NJ","08844"
318272,"957 ROSS COURT","STONE MOUNTAIN","GA","30087"
318273,"957 S FRONT ST","COOS BAY","OR","97420"
318274,"957 SEA ISLAND PARKWAY","ST. HELENA ISLAND","SC","29920"
318275,"957 SIOUX DRIVE","ROUND LAKE HEIGHTS","IL","60073"
318276,"957 VENTURA AVENUE","ALBANY","CA","94707"
318277,"957 W FOOTHILL BLVD","UPLAND","CA","91786"
318278,"957 WABASH AVENUE","ZANESVILLE","OH","43701"
318279,"957 WEATHERSFIELD DRIVE","DUNEDIN","FL","34698"
318280,"957 WEST AVE SUITE 102","CROSSVILLE","TN","38555"
318281,"9570 BERGER ROAD SUITE A","COLUMBIA","MD","21046"
318282,"9570 DUFF RD","HILLSBORO","OH","45133"
318283,"9570 GEORGE RUFF RD","BULLOCK","NC","27507"
318284,"9570 GROVE ROAD","CORDOVA","TN","38016"
318285,"9570 LINWOOD AVE","SHREVEPORT","LA","71106"
318286,"9570 OSDELL LANE","ETHEL","LA","70730"
318287,"9570 PARDEE RD","TAYLOR","MI","48180"
318288,"9570 SW CYPRESS STREET","BEAVERTON","OR","97005"
318289,"9571 N BUCHANON DR","PORTLAND","OR","97203"
318290,"9571 NW MARING DR","PORTLAND","OR","97229"
318291,"9571 RUSSELL AVE","GARDEN GROVE","CA","92844"
318292,"9571 SE 43RD ST","MERCER ISLAND","WA","98040"
318293,"9572 STONEGLEN DRIVE","COLORADO SPRINGS","CO","80920"
318294,"9573 CA-9","BEN LOMOND","CA","95005"
318295,"9573 LISA LN","PERRYSBURG","OH","43551"
318296,"9573 PEARL CIR 102","parker","CO","80134"
318297,"9573 STATE HWY 70","MINOCQUA","WI","54548"
318298,"9574 JAYHAWK TERRACE SUITE 102","MANASSAS","VA","20110"
318299,"9574 LINNETT HILL DRIVE","LORTON","VA","22079"
318300,"9574 N LANDON CIRCLE","CEDAR HILLS","UT","84062"
318301,"9575 KATY FREEWAY STE 370","HOUSTON","TX","77024"
318302,"9575 LAGUNA SPRINGS DR STE 102","ELK GROVE","CA","95757"
318303,"9575 OAKBROOK RIDGE","RURAL HALL","NC","27045"
318304,"9575 VAUGHN ROAD","PIKE ROAD","AL","36064"
318305,"9575 W ANN ARBOR RD","PLYMOUTH","MI","48170"
318306,"9577 W NICHOLS PL","LITTLETON","OH","80128"
318307,"9578 NAPLES DR","CYPRESS","CA","90630"
318308,"9579 HIDDEN POINT DRIVE","SANDY","UT","84070"
318309,"9579 NC HWY 53 WEST","WHITE OAK","NC","28399"
318310,"9579 SAGE RANCH CT","ELK GROVE","CA","95624"
318311,"958 111TH AVENUE NE APT 2101","BELLEVUE","WA","98004"
318312,"958 E 10TH ST","BROOKLYN","NY","11230"
318313,"958 E WINDSOR CIR","FRESNO","CA","93720"
318314,"958 ELM STREET","WHEATLAND","WY","82201"
318315,"958 FERN AVENUE SE","ATLANTA","GA","30315"
318316,"958 LAFAYETTE AVE","BROOKLYN","NY","11221"
318317,"958 MAGNOLIA RD","MARYSVILLE","CA","95901"
318318,"958 MANTON WAY","PITTSBURGH","PA","15210"
318319,"958 MONTROSE AVENUE","COLUMBUS","OH","43209"
318320,"958 N WESTERN AVE STE 5","LOS ANGELES","CA","90029"
318321,"958 POPHAM ROAD","PHIPPSBURG","ME","04562"
318322,"958 S PAXON ST","PHILADELPHIA","PA","19143"
318323,"958 SAN LEANDRO AVE SUITE 600","MOUNTAIN VIEW","CA","94043"
318324,"958 SHAW CIRCLE","MELBOURNE","FL","32940"
318325,"958 SHRIVER CIR","LAKE MARY","FL","32746"
318326,"958 SMITH AVENUE","HARRISONBURG","VA","22802"
318327,"958 SOUTH STREET APT 2","ROSLINDALE","MA","02131"
318328,"958 WEST MAIN STREET","SUN PRAIRIE","WI","53590"
318329,"958 WEST PARK AVENUE","NILES","OH","44446"
318330,"9580 COMMERCE CENTER DRIVE","RANCHO CUCAMONGA","CA","91730"
318331,"9581 BRONTE DRIVE","BURKE","VA","22015"
318332,"9581 BURGOYNE ROAD","BERRIEN SPRINGS","MI","49103"
318333,"9581 PINTAIL TRAIL","JONESBORO","GA","30238"
318334,"9582 TOPEKA  LANE","WEST CHESTER","OH","45069"
318335,"9582 TOPEKA LANE","WEST CHESTER","OH","45069"
318336,"9583 KENAI SPUR HWY","KENAI","AK","99611"
318337,"9584 AUTUMN LEAF WAY","RENO","NV","89506"
318338,"9584 CAVELL STREET","LIVONIA","MI","48150"
318339,"9584 TABERNA LANE","OLMSTED TOWNSHIP","OH","44138"
318340,"9585 CANDIDA ST","SAN DIEGO","CA","92126"
318341,"9585 HIGHWAY 78 STE C","LADSON","SC","29456"
318342,"9587 W 89TH CIRCLE","WESTMINSTER","CO","80021"
318343,"9587 WELDON CIRCLE UNIT B104","TAMARAC","FL","33321"
318344,"9588 FOREST LN  APT 914","DALLAS","TX","75243"
318345,"9588 KENLEY CT","PARKLAND","FL","33076"
318346,"9589 BRENTWOOD BLVD","NAVARRE","FL","32566"
318347,"9589 LINFIELD DRIVE","CINCINNATI","OH","45242"
318348,"959 CRAMER COURT","BALDWIN","NY","11510"
318349,"959 DELAWARE AVENUE","MENDOTA HEIGHTS","MN","55118"
318350,"959 DONAGHE ST","STAUNTON","VA","24401"
318351,"959 E 130TH STREET","CLEVELAND","OH","44108"
318352,"959 EAST HOLLYWOOD AVENUE","SALT LAKE CITY","UT","84105"
318353,"959 EAST MAIN STREET APT 1022","LEXINGTON","SC","29072"
318354,"959 GOLF COURSE DRIVE STE 114","ROHNERT PARK","CA","94928"
318355,"959 GOLF COURSE DRIVE SUITE 272","ROHNERT PARK","CA","94928"
318356,"959 HAVENSPORT DRIVE","CINCINNATI","OH","45240"
318357,"959 HIGHWAY 95N","SHINER","TX","77984"
318358,"959 KAWAIKI PLACE","HONOLULU","HI","96825"
318359,"959 LA MESA TERRACE UNIT D","SUNNYVALE","CA","94086"
318360,"959 MYRTLE COURT","MT. PLEASANT","SC","29464"
318361,"959 N COCOA BLVD SUITE 5","COCOA","FL","32922"
318362,"959 N CROFT AVE","LOS ANGELES","CA","90069"
318363,"959 N CROFT AVENUE","LOS ANGELES","CA","90069"
318364,"959 N MONROE AVE","LINDENHURST","NY","11757"
318365,"959 N SUMMIT AVE","PASADENA","CA","91103"
318366,"959 OSCEOLA STREET","GASTONIA","NC","28054"
318367,"959 OTSEGO RD","WEST HEMPSTEAD","NY","11552"
318368,"959 PEEL CASTLE LN","AUSTELL","GA","30106"
318369,"959 REDHAWK LANE","GREENSBURG","PA","15601"
318370,"959 RIVER STRAND LOOP","ANNAPOLIS","MD","21401"
318371,"959 ROSA AVE","METAIRIE","LA","70005"
318372,"959 SADDLE LANE","ROUND LAKE BEACH","IL","60073"
318373,"959 SHADOW CREEK BLVD","BUDA","TX","78610"
318374,"959 SILVER CREEK DR","DESOTO","TX","75115"
318375,"959 STATE ROUTE 28","MILFORD","OH","45150"
318376,"959 STATE ST 2A","NEW HAVEN","CT","06511"
318377,"959 SYBERTON ROAD","GALLITZIN","PA","16641"
318378,"959 WATERMARK DRIVE","EVANS","GA","30809"
318379,"959 WEST 530 NORTH","PLEASANT GROVE","UT","84062"
318380,"959 WHISPERING WOODS DRIVE","MACEDONIA","OH","44056"
318381,"9590 AVENUE G","NILAND","CA","92257"
318382,"9590 CRAIN HIGHWAY  SUITE 303","UPPER MARLBORO","MD","20772"
318383,"9590 CRAIN HIGHWAY APARTMENT 409","UPPER MARLBORO","MD","20772"
318384,"9590 E IRONWOOD SQUARE DR 210","SCOTTSDALE","AZ","85258"
318385,"9590 E IRONWOOD SQUARE DR STE 225","SCOTTSDALE","AZ","85258"
318386,"9590 NW 40 ST RD","DORAL","FM","33178"
318387,"9590 NW 40TH ST RD","DORAL","FL","33178"
318388,"9590 OLD M 72","WILLIAMSBURG","MI","49690"
318389,"9590 POLO CLUB COURT","LITTLETON","CO","80125"
318390,"9590 ROOKWOOD CIRCLE","OOLTEWAH","TN","37363"
318391,"9591 EAST 750 NORTH","SHERIDAN","IN","46069"
318392,"9591 W GAMBIT TRL","PEORIA","AZ","85383"
318393,"9591 YORK ALPHA DR UNIT 6","NORTH ROYALTON","OH","44133"
318394,"9593 KENNEDY RD","MUNITH","MI","49259"
318395,"9593 S COLTSFOOT DR","PARKER","CO","80134"
318396,"9594 ASH LANE","FREOMONT","WI","54940"
318397,"9594 DOLIVER DR","HOUSTON","TX","77063"
318398,"9594 LONG GROVE ROAD","RINEYVILLE","KY","40162"
318399,"9594 TARA BLVD","JONESBORO","GA","30236"
318400,"9595 COLLINS AV APT 305","SURFSIDE","FL","33154"
318401,"9595 SIX PINES BLVD - STE 8210","THE WOODLANDS","TX","77380"
318402,"9595 SIX PINES DR","THE WOODLANDS","TX","77380"
318403,"9595 SWEDE CREEK ROAD","PALO CEDRO","CA","96073"
318404,"9595 WILSHIRE BLVD STE 900","BEVERLY HILLS","CA","90212"
318405,"9595 WILSHIRE BOULEVARD SUITE 900","BEVERLY HILLS","CA","90212"
318406,"9595 WINKLER","HOUSTON","TX","77017"
318407,"9596 EGRETS LANDING DRIVE","JACKSONVILLE","FL","32257"
318408,"9597 JONES RD 974","HOUSTON","TX","77065"
318409,"9597 JONES RD NUM 969","HOUSTON","TX","77065"
318410,"9597 JONES RD PO BOX 319","HOUSTON","TX","77065"
318411,"9599 APACHE AVE","FREMONT","WI","54940"
318412,"9599 GATOR DRIVE UNIT 7","SEBASTIAN","FL","32958"
318413,"9599 JUNIPER WAY","ARVADA","CO","80007"
318414,"9599 PIEDMONT","DETROIT","MI","48228"
318415,"95A ELMWOOD TER","ELMWOOD PARK","NJ","07407"
318416,"96 5TH AVENUE APT 4J","NEW YORK","NY","10011"
318417,"96 ALLEN RD  RT 314","GRAND ISLE","VT","05458"
318418,"96 ASBURY AVENUE","FREEHOLD","NJ","07728"
318419,"96 BAXTER STREET","DENNISPORT","MA","02639"
318420,"96 BELL MOUNTAIN PARKWAY","CASTLE ROCK","CO","80104"
318421,"96 BELMONT ST  APT 2","SOMERVILLE","MA","02143"
318422,"96 BLACKWOOD DRIVE","PACHECO","CA","94553"
318423,"96 BLUEBIRD LANE","EAST TAUNTON","MA","02718"
318424,"96 BREAKWATER ROAD","BREWSTER","MA","02631"
318425,"96 BROAD STREET","CHARLESTON","SC","29401"
318426,"96 BROOKSIDE PLACE","NEW ROCHELLE","NY","10801"
318427,"96 BUCKEYE BRANCH DRIVE","CLYDE","NC","28721"
318428,"96 CAROL PLACE","WAYNE","NJ","07470"
318429,"96 CHILDERBURG FAYETTE HWY","CHILDERSBURG","AL","35044"
318430,"96 COMMERCE DR","WYOMISSING","PA","19610"
318431,"96 COUNCIL AVE","CLAWSON","MI","48017"
318432,"96 COUNTY ROAD 4426","MOUNT PLEASANT","TX","75455"
318433,"96 CRICKET AVE","BOYERTOWN","PA","19512"
318434,"96 CURTIS STREET","MERIDEN","CT","06450"
318435,"96 DELAWARE STREET","STATEN ISLAND","NY","10304"
318436,"96 EAGLE NEST RD","GRAYSVILLE","TN","37338"
318437,"96 EAGLES LANDING DR","WINFIELD","MO","63389"
318438,"96 EAST MAIN STREET","HAGERSTOWN","IN","47346"
318439,"96 ELM STREET 2ND FLOOR","DANBURY","CT","06810"
318440,"96 EVERETT AVENUE","PROVIDENCE","RI","02906"
318441,"96 FOREST DRIVE","FLORA","IL","62839"
318442,"96 FOREST RD","BRADFORDWOODS","PA","15015"
318443,"96 FRELINGHUYSEN RD - CIVIL ENG","PISCATAWAY","NJ","08854"
318444,"96 FRENEAU AVENUE","MATAWAN","NJ","07747"
318445,"96 FROGTOWN ROAD","HOGANSBURG","NY","13655"
318446,"96 GALEN STREET","LAKE OSWEGO","OR","97035"
318447,"96 GREEN STREET","WINTHROP","ME","04364"
318448,"96 GREENWICH AVE APT 3","NEW YORK","NY","10011"
318449,"96 HAGUE ST","JERSEY CITY","NJ","07307"
318450,"96 HARLOW ST STE 320","BANGOR","ME","04401"
318451,"96 HARMON AVE","PAINESVILLE","OH","44077"
318452,"96 HARRIS ROAD","CRAWFORD","GA","30630"
318453,"96 HARRISON AVENUE","SAUSALITO","CA","94965"
318454,"96 HEMPSTEAD AVENUE","STATEN ISLAND","NY","10306"
318455,"96 HIGHLAND PLACE","RIDGEFIELD PARK","NJ","07660"
318456,"96 HILLSPOINT ROAD","WESTPORT","CT","06880"
318457,"96 HOPE CROSSING ROAD","BELVIDERE","NJ","07823"
318458,"96 HUDSON ROAD","SUDBURY","MA","01776"
318459,"96 HUETT LANE","RUSSELLVILLE","AR","72802"
318460,"96 ISEULA ST PO BOX 96","FAGATOGO","AS","96799"
318461,"96 JILLSON CIRCLE","WATERBURY","CT","06708"
318462,"96 JORDAN AVENUE","BRUNSWICK","ME","04011"
318463,"96 KILLDEER RD","HAMDEN","CT","06517"
318464,"96 LAKESIDE DRIVE","COVINGTON","GA","30016"
318465,"96 LAKEVIEW PARK DR","MONROE","LA","71203"
318466,"96 LENAPE TRAIL","WASHINGTON","NJ","07882"
318467,"96 LEONARD AVE","FREEPORT","NY","11520"
318468,"96 LINWOOD PLAZA  117","FORT LEE","NJ","07024"
318469,"96 LINWOOD PLAZA UNIT 363","FORT LEE","NJ","07024"
318470,"96 LIVINGSTON AVENUE","ALBANY","NY","12207"
318471,"96 LOTT STREET APT 2","BROOKLYN","NY","11226"
318472,"96 MAIN ST","MERCER","ME","04957"
318473,"96 MAIN STREET SUITE ONE","SPRINGFIELD","VT","05156"
318474,"96 MARSH LANE","WHITE POST","VA","22663"
318475,"96 MELBOURNE STREET","DETROIT","MI","48202"
318476,"96 MILLSAP AVENUE","MONROEVILLE","AL","36460"
318477,"96 MORNINGSIDE CMNS","BRATTLEBORO","VT","05301"
318478,"96 N 825 E","AMERICAN FORK","UT","84003"
318479,"96 NORTH HALSEY ROAD","DOVER","DE","19901"
318480,"96 OLD MEETING HOUSE LANE","NORWELL","MA","02061"
318481,"96 PARKVILLE AVE","BROOKLYN","NY","11230"
318482,"96 PAUL AVE","MOUNTAIN VIEW","CA","94041"
318483,"96 POWERS CREEK RD","ELMA","WA","98541"
318484,"96 RAVEN HILLS CT","COLORADO SPRINGS","CO","80919"
318485,"96 READ RD","RED HOOK","NY","12571"
318486,"96 RED BIR RD","QUINCY","FL","32352"
318487,"96 RIVER PALMS RD UNIT C","NEWPORT NEWS","VA","23608"
318488,"96 ROBINSON STREET","TEANECK","NJ","07666"
318489,"96 ROCHFORD AVE","HAMDEN","CT","06514"
318490,"96 ROUTE 206 SUITE 2","AUGUSTA","NJ","07822"
318491,"96 S MAIDA RD","LINWOOD","MI","48634"
318492,"96 SALISBURY ST W","WRIGHTSVILLE BEACH","NC","28480"
318493,"96 SALISBURY STREET","HULL","MA","02045"
318494,"96 SHELLEY DRIVE","MILL VALLEY","CA","94941"
318495,"96 SOUTH 11TH STREET","NEWARK","NJ","07107"
318496,"96 SOUTH BOARDWAY","SOUTH NYACK","NY","10960"
318497,"96 STOCKYARD ROAD","FALKVILLE","AL","35622"
318498,"96 SUGARPINE TRAIL","CLAYTON","NC","27520"
318499,"96 SUNRISE TERRACE","WETHERSFIELD","CT","06109"
318500,"96 SWAMPSCOTT ROAD UNIT 6","SALEM","MA","01970"
