"ID","Address","City","State","Zip"
130501,"2353 PARK AVE APT 3","CINCINNATI","OH","45206"
130502,"2353 RAINY LAKE ST","WAKE FOREST","NC","27587"
130503,"2353 RICE BLVD","HOUSTON","TX","77005"
130504,"2353 RICE ST SUITE 103","ROSEVILLE","MN","55113"
130505,"2353 RICE STREET SUT 107","ROSEVILLE","MN","55113"
130506,"2353 SOUTH 39TH STREET","ST. LOUIS","MO","63110"
130507,"2353 SOUTH WOLFSNARE CT","VIRGINIA BEACH","VA","23454"
130508,"2353 W JACKSON BLVD","CHICAGO","IL","60612"
130509,"23531 MEADOWLARK ST","OAK PARK","MI","48237"
130510,"23531 SUNSET VW","SORRENTO","FL","32776"
130511,"23531 V ROAD","HOLTON","KS","66436"
130512,"23535 PALOMINO DR 197","DIAMOND BAR","CA","91765"
130513,"23535 PALOMINO DRIVE - 290","DIAMOND BAR","CA","91765"
130514,"23535","MARIONVILLE","MO","65705"
130515,"23539 BAYLFEAD DR","SPRING","TX","77373"
130516,"23539 CR 150","TINA","MO","64682"
130517,"23539 FISHMARKET RD","TECUMSEH","OK","74873"
130518,"23539 KING","CLINTON TOWNSHIP","MI","48035"
130519,"23539 W MANOR DR","GENOA","OH","43430"
130520,"2354 248TH ST","LOMITA","CA","90717"
130521,"2354 FAIRWAY","HIGH RIDGE","MO","63049"
130522,"2354 GREEN FORREST DRIVE","DECATUR","GA","30032"
130523,"2354 NE HOTSPUR LANE","LINCOLN CITY","OR","97367"
130524,"2354 NORTH WILMINGTON AVENUE","COMPTON","CA","90222"
130525,"2354 OKALINA AVNUE","WINSTON-SALEM","NC","27105"
130526,"2354 PIONEER RD","CHIPLEY","FL","32428"
130527,"2354 S STATE STREET","SALT LAKE CITY","UT","84115"
130528,"2354 SEAMIST CIRCLE","SEABROOK","TX","77586"
130529,"2354 SEQUOIA GROVE ST","WALDORF","MD","20601"
130530,"2354 WEST CREEK DRIVE","FRISCO","TX","75033"
130531,"2354","ANAHUAC","TX","77514"
130532,"23540 DAVID DR C114","NORTH OLMSTED","OH","44070"
130533,"23541 OLD WAGON ROAD","ESCONDIDO","CA","92027"
130534,"23545 CRENSHAW BLVD STE 102A","TORRANCE","CA","90505"
130535,"23546 FOREST HAVEN WAY","CLARKSBURG","MD","20871"
130536,"23548 CALABASAS ROAD 206 E","CALABASAS","CA","91302"
130537,"2355 14TH AVE N","ST PETERSBURG","FL","33713"
130538,"2355 16TH AVENUE","VERO BEACH","FL","32960"
130539,"2355 BOULDER CLIFF WAY","ATLANTA","GA","30316"
130540,"2355 CENTERVILLE RD 12371","TALLAHASSEE","FL","32308"
130541,"2355 COMPTON PL","SUWANEE","GA","30024"
130542,"2355 COUNTY ROAD 55","CENTRE","AL","35960"
130543,"2355 DIVISION AVE S","GRAND RAPIDS","MI","49507"
130544,"2355 E CAMELBACK RD STE 610","PHOENIX","AZ","85016"
130545,"2355 E CAMELBACK ROAD SUITE 250","PHOENIX","AZ","85016"
130546,"2355 EAST CEDAR RIDGE ROAD","TISHOMINGO","OK","73460"
130547,"2355 FAIRVIEW AVE 192","ROSEVILLE","MN","55113"
130548,"2355 FAIRVIEW AVENUE SUITE 281","ROSEVILLE","MN","55113"
130549,"2355 HALKIRK STREET SOUTH","COLUMBUS","OH","43229"
130550,"2355 HEATHERGLEN DR","MAUMEE","OH","43537"
130551,"2355 HILLVIEW STREET","PITTSBURGH","PA","15234"
130552,"2355 JACKSONBURG RD","HAMILTON","OH","45011"
130553,"2355 LEBANON RD NO 16107","FRISCO","TX","75034"
130554,"2355 LONG BEACH BLVD STE 406","LONG BEACH","CA","90806"
130555,"2355 MATTHEW COURT","MONROE","GA","30655"
130556,"2355 MEADOW ST","FLUSHING","MI","48433"
130557,"2355 NEBRASKA AVENUE","PALM HARBOR","FL","34683"
130558,"2355 NORTH HIGHWAY 360 APT 1124","GRAND PRAIRIE","TX","75050"
130559,"2355 NORTH SAINT PAUL CHURCH ROAD","SUMTER","SC","29154"
130560,"2355 PLAYERS POND LANE","RESTON","VA","20191"
130561,"2355 RED ROCK ST 103","LAS VEGAS","NV","89146"
130562,"2355 REDMAN RD","SAINT LOUIS","MO","63136"
130563,"2355 ROSSMERE ST","COLORADO SPGS","CO","80919"
130564,"2355 ROUTE 100","OREFIELD","PA","18069"
130565,"2355 S LUMPKIN ST","ATHENS","GA","30606"
130566,"2355 S RIPPLE PATH","CRYSTAL RIVER","FL","34429"
130567,"2355 TWELVESTONES DRIVE","ROSWELL","GA","30076"
130568,"2355 VIA MARIPOSA WEST UNIT 2E","LAGUNA WOODS","CA","92637"
130569,"2355 W  MICHIGAN AVE E29","PENSACOLA","FL","32526"
130570,"2355 WATERWHEEL RD","EMMETT","ID","83617"
130571,"2355 WESTWOOD BLVD     838","LOS ANGELES","CA","90064"
130572,"2355 WESTWOOD BLVD 332","LOS ANGELES","CA","90064"
130573,"2355 WESTWOOD BLVD 578","LOS ANGELES","CA","90064"
130574,"2355 WESTWOOD BLVD NUM 832","LOS ANGELES","CA","90064"
130575,"2355 WESTWOOD BLVD SUITE 371","LOS ANGELES","CA","90064"
130576,"2355 WESTWOOD BLVD SUITE 604","LOS ANGELES","CA","90064"
130577,"2355 WESTWOOD BOULEVARD    NUM 582","LOS ANGELES","CA","90064"
130578,"2355 WESTWOOD BOULEVARD   SUITE 582","LOS ANGELES","CA","90064"
130579,"2355 WESTWOOD BOULEVARD - UNIT 512","LOS ANGELES","CA","90064"
130580,"2355 WILSON CREEK CIR","AURORA","IL","60503"
130581,"2355 YOLANDA AVE","SPRINGFIELD","OR","97477"
130582,"23550 DENTON APT 151","CLINTON TWP","MI","48036"
130583,"23550 LOOP 494","PORTER","TX","77365"
130584,"23553","OVERLAND PARK","KS","66283"
130585,"23555 GODDARD RD","TAYLOR","MI","48180"
130586,"23555 N 67TH AVE","GLENDALE","AZ","85310"
130587,"23558 ULYSSES ST N E","EAST BETHEL","MN","55005"
130588,"23559 COUNTY ROAD 23","GREENBUSH","MN","56726"
130589,"2356 AIRPORT DRIVE","DIAMONDHEAD","MS","39525"
130590,"2356 CHANTILLY TER","OVIEDO","FL","32765"
130591,"2356 COUNTY ROAD 220","DURANGO","CO","81303"
130592,"2356 ELVIS PRESLEY BLVD","MEMPHIS","TN","38106"
130593,"2356 GREEN ST SE","WASHINGTON","DC","20020"
130594,"2356 HARRODSBURG RD","LEXINGTON","KY","40503"
130595,"2356 HOBART AVE SW","SEATTLE","WA","98116"
130596,"2356 MORNINGSTAR LANE","BRIGHTON","IL","62012"
130597,"2356 PLUMB PLACE","ERIE","CO","80516"
130598,"2356 PORTAL WAY","SAN JOSE","CA","95148"
130599,"2356 SHARPE-ELVA ROAD","BENTON","KY","42025"
130600,"23560 CANTARA ROAD","CORONA","CA","92883"
130601,"23560 N 1800 RD","BUSHNELL","IL","61422"
130602,"23560 STATE ROUTE 4","MARYSVILLE","OH","43040"
130603,"23563 COUNTY ROAD 2183 E","TATUM","TX","75691"
130604,"23569 ENCINA CORTE","RAMONA","CA","92065"
130605,"2357 BIRDIE DRIVE","MILLIKEN","CO","80543"
130606,"2357 BOULEVARD DEL CAMPO","SAN LUIS OBISPO","CA","93401"
130607,"2357 BRIAR KNOLL RD","LITHONIA","GA","30058"
130608,"2357 BROOKMOOR LANE","WOODBRIDGE","VA","22191"
130609,"2357 BUCKINGHAM RUN CT","ORLANDO","FL","32828"
130610,"2357 CR 467","STEPHENVILLE","TX","76401"
130611,"2357 CRESTONE DRIVE","RENO","NV","89523"
130612,"2357 CROSBY DRIVE","MOUNT VERNON","WA","98274"
130613,"2357 E MINARETS AVE","FRESNO","CA","93720"
130614,"2357 EDGEWOOD AVENUE NORTH","JACKSONVILLE","FL","32254"
130615,"2357 FLAMINGO RD","PALM BEACH GARDENS","FL","33410"
130616,"2357 GILLIS ROAD","MOUNT AIRY","MD","21771"
130617,"2357 HERMITS GLEN","LOS ANGELES","CA","90046"
130618,"2357 KEHOE AVENUE","SAN MATEO","CA","94403"
130619,"2357 OLD CIFAX ROAD","GOODE","VA","24556"
130620,"2357 QUAIL RUN ROAD","ARLINGTON","TX","76014"
130621,"2357 STONEBRIDGE DRIVE BUILDING I","FLINT","MI","48532"
130622,"2357 WINDY COVE COURT","LEAGUE CITY","TX","77573"
130623,"23570 SAMOSET TRL","SOUTHFIELD","MI","48033"
130624,"23573 EMMONS ROAD","COLUMBIA STATION","OH","44028"
130625,"23578 MN HWY 22","LITCHFIELD","MN","55355"
130626,"2358 1150TH ST","KENNEY","IL","61749"
130627,"2358 84TH STREET APT2R","BROOKLYN","NY","11214"
130628,"2358 BANNING RD","AKRON","OH","44333"
130629,"2358 CALDERO LANE","MONTROSE","CA","91020"
130630,"2358 E 124TH CT","THORNTON","CO","80241"
130631,"2358 EAST SPRINGS DR","MADISON","WI","53704"
130632,"2358 FLUSHING DR","SAN DIEGO","CA","92111"
130633,"2358 GROVER ROAD","CANTON","PA","17724"
130634,"2358 HUNTERS SQUARE CT","RESTON","VA","20191"
130635,"2358 MONTE VILLA CTS","MARIETTA","GA","30062"
130636,"2358 ROUTH DRIVE","ROWLAND HEIGHTS","CA","91748"
130637,"2358 SNAPDRAGON POINT","EAST STROUDSBURG","PA","18301"
130638,"2358 SOUTH CEDARBROOK AVE","SPRINGFIELD","MO","65804"
130639,"2358 UNIVERSITY AVE 954","SUCKOW","CA","92104"
130640,"2358 UNIVERSITY AVE STE 2137","SAN DIEGO","CA","92104"
130641,"2358 UNIVERSITY AVENUE PMB 137","SAN DIEGO","CA","92104"
130642,"2358 UNIVERSITY AVENUE STE 2019","SAN DIEGO","CA","92104"
130643,"2358 URQUHART ST","NEW ORLEANS","LA","70117"
130644,"23580 ALESSANDRO BLVD NUMBER 9425","MORENO VALLEY","CA","92553"
130645,"23580 ALESSANDRO BLVD UNIT 8836","MORENO VALLEY","CA","92552"
130646,"2359 CARSON ROAD","BIRMINGHAM","AL","35215"
130647,"2359 GENESEE ST","CHEEKTOWAGA","NY","14225"
130648,"2359 GRANTS FERRY DR","BILOXI","MS","39531"
130649,"2359 HIGHLAND RD APT 110","DALLAS","TX","75228"
130650,"2359 OAK STREET UNIT 3","JACKSONVILLE","FL","32204"
130651,"2359 PLUM NELLY RD","RISING FAWN","GA","30738"
130652,"2359 RAILROAD STREET APT 3401","PITTSBURGH","PA","15222"
130653,"2359 RUTA CORTA","SANTA FE","NM","87507"
130654,"2359 TREY COURT","NORTH CHARLESTON","SC","29406"
130655,"2359 US HWY 70 SE 351","HICKORY","NC","28602"
130656,"23590 FM 1314 RD","PORTER","TX","77365"
130657,"23590 MCDANIELS RD","CALHAN","CO","80808"
130658,"23591 EL TORO ROAD SUITE 235","LAKE FOREST","CA","92630"
130659,"23593 130TH AVE","LAKE PARK","MN","56554"
130660,"23595 NORRIS CIRCLE","MORENO VALLEY","CA","92557"
130661,"23595 PHOENIX AVE","CARROLL","IA","51401"
130662,"23597 COUNTY ROAD 7","WINONA","MN","55987"
130663,"23599 AQUACATE RD","CORONA","CA","92883"
130664,"235A LEXINGTON AVE","BROOKLYN","NY","11216"
130665,"235A WINDSOR PLACE","BROOKLYN","NY","11215"
130666,"236 147TH ST NE","BRADENTON","FL","34212"
130667,"236 5TH AVE","HUNTINGTON","WV","25701"
130668,"236 ALGONQUIN CT UNIT B","BOLINGBROOK","IL","60440"
130669,"236 AUBURN AVENUE SUITE 201","ATLANTA","GA","30303"
130670,"236 AUTUMN BREEZE WAY","WINTER PARK","FL","32792"
130671,"236 BARREL LANE","WASHINGTON","UT","84780"
130672,"236 BEACHSIDE COVE","LOCUST GROVE","VA","22508"
130673,"236 BEAULIEU ROAD","ST DAVID","ME","04773"
130674,"236 BELLWETHER PASS","RIDGELAND","MS","39157"
130675,"236 BLEW COURT","EAST BRUNSWICK","NJ","08816"
130676,"236 BROOKHILL RD","LIBERTYVILLE","IL","60048"
130677,"236 CAMDEN HILLS DRIVE","MONTGOMERY","TX","77356"
130678,"236 CAMDEN RD","LINCOLNVILLE","ME","04849"
130679,"236 CASTILIAN WAY","San Mateo","CA","94402"
130680,"236 CENTRAL","CRESCENT CITY","FL","32112"
130681,"236 CHARACTER DR","ROLESVILLE","NC","27571"
130682,"236 CHIPMAN PARK","MIDDLEBURY","WA","05753"
130683,"236 CLAIBORNE WAY","SEWELL","NJ","08080"
130684,"236 CLARIDGE CIRCLE","BOLINGBROOK","IL","60440"
130685,"236 CONCORD AVE UNIT 2","CAMBRIDGE","MA","02138"
130686,"236 COUNTY ROAD 1900 EAST","GREENUP","IL","62428"
130687,"236 CUMMINS FERRY ROAD","SALVISA","KY","40372"
130688,"236 DEARBORN RD","GREENLAND","NH","03840"
130689,"236 DELLWOOD DRIVE","SPARTANBURG","SC","29301"
130690,"236 DREAMLAND CIRCLE","WINDER","GA","30680"
130691,"236 E 23RD STREET APT 3A","BROOKLYN","NY","11226"
130692,"236 E 31ST ST","EDMOND","OK","73013"
130693,"236 E 80TH ST 26","NY","NY","10075"
130694,"236 E GARVEY AVE","MONTEREY PARK","CA","91755"
130695,"236 E HERITAGE CT","FRUITA","CO","81521"
130696,"236 E MAIN ST 177","SEVIERVILLE","TN","37862"
130697,"236 E PLUM STREET","ANDERSON","IN","46012"
130698,"236 EAST GUN HILL ROAD  APT 3D","NEW YORK","NJ","10467"
130699,"236 EAST MAIN STREET","MAPLE SHADE","NJ","08052"
130700,"236 EAST SHARON CIRCLE","RINGGOLD","GA","30736"
130701,"236 ELDER ROAD","MEMPHIS","TN","38109"
130702,"236 ERMINES WAY","MCDONOUGH,","GA","30253"
130703,"236 GABRIEL DR","MARS","PA","16046"
130704,"236 GARLAND MTN RD","CANTON","NC","28716"
130705,"236 GRAHAM DAVIS RD","DENTON","NC","27239"
130706,"236 HARRIS DR","SEWELL","NJ","08080"
130707,"236 HARRISON LANE","BOONE","NC","28607"
130708,"236 HIGH STREET","FAIRBORN","OH","45324"
130709,"236 HIGH STREET","MONROE","NY","10950"
130710,"236 HOMEWARD LANE","ROCK HILL","SC","29732"
130711,"236 HUNTINGTON ROAD","WILMINGTON","NC","28403"
130712,"236 JOHNSON AVE","PISCATAWAY","NJ","08854"
130713,"236 KEVIN ROAD","HINESVILLE","GA","31313"
130714,"236 LA GRANDE PRINCESSE SUITE 23","CHRISTIANSTED","VI","00820"
130715,"236 LANCASTER DRIVE","DAVENPORT","FL","33897"
130716,"236 LONGCHAMP DR","SOUDERTON","PA","18964"
130717,"236 MAIN STREET PO BOX 328","AURELIA","IA","51005"
130718,"236 MAIN STREET SUITE 222","SEVIERVILLE","TN","37862"
130719,"236 MAIN STREET","MILAN","GA","31060"
130720,"236 MAPLE ST","NEW BRITAIN","CT","06051"
130721,"236 MARIA AVE","SAINT PAUL","MN","55106"
130722,"236 MERICAL MOUNTAIN ROAD","KILA","MT","59920"
130723,"236 MIDDLETON PLACE","GRAYSON","GA","30017"
130724,"236 MILLEDGEVILLE ST STE F26","ROBINS AFB","GA","31098"
130725,"236 MILO PL","SAN RAMON","CA","94583"
130726,"236 MORELAND ST","WORCESTER","MA","01609"
130727,"236 MOUNTAIN LION TRAIL","BOZEMAN","MT","59718"
130728,"236 MOUNTAIRE PKWY","CLAYTON","CA","94517"
130729,"236 MUD CREEK ROAD","LAMOIINE","ME","04605"
130730,"236 N 11TH ST 3B","BROOKLYN","NY","11211"
130731,"236 N 1200 AVE","ORION","IL","61273"
130732,"236 N E TAYLOR","BURLESON","TX","76028"
130733,"236 NEW BRIDGE STREET","JACKSONVILLE","NC","28540"
130734,"236 NORTH MOUNTAIN AVENUE","ASHLAND","OR","97520"
130735,"236 NW 16TH STREET","MIAMI","FL","33136"
130736,"236 OHANA NUI CIRCLE","HICKAM AFB","HI","96818"
130737,"236 OLD LOVERS LANE","BOWLING GREEN","KY","42103"
130738,"236 OLD STONE HIGHWAY","EAST HAMPTON","NY","11937"
130739,"236 ORLEANS TRAIL","STATESBORO","GA","30461"
130740,"236 OVERLOOK DR","DALLAS","GA","30157"
130741,"236 PARKER ROAD","DANVILLE","VA","24540"
130742,"236 PATTERNOTE RD","MOORESVILLE","NC","28117"
130743,"236 PEACHTREE DRIVE","EAST","NY","11732"
130744,"236 PENN BLVD","EAST LANSDOWNE","PA","19050"
130745,"236 PINE VALLEY RD A","ST CLOUD","FL","34769"
130746,"236 PLEASANT STREET STE 6","METHUEN","MA","01844"
130747,"236 PONY CLUB CIRCLE","CARY","NC","27519"
130748,"236 PROSPECT AVENUE","WHITE PLAINS","NY","10607"
130749,"236 RIVER VISTA PLACE","TWIN FALLS","ID","83301"
130750,"236 ROUTE 739","HAWLEY","PA","18428"
130751,"236 S 3RD ST BOX 342","MONTROSE","CO","81401"
130752,"236 S NEGLEY AVENUE APT 6","PITTSBURGH","PA","15206"
130753,"236 S SALEM DR","SCHAUMBURG","IL","60193"
130754,"236 S SEMORAN BLVD","ORLANDO","FL","32807"
130755,"236 S SIRRINE","MESA","AZ","85210"
130756,"236 S TISDALE AVE","BUFFALO","WY","82834"
130757,"236 SHANNONBROOK LN","FREDERICK",NA,"21702"
130758,"236 SOUTH SMITH ROAD","WAYMART","PA","18472"
130759,"236 SOUTH WEBSTER STREET","WHITE CLOUD","MI","49349"
130760,"236 SOUTHFIELD DRIVE","VERNON HILLS","IL","60061"
130761,"236 SPRING VALLEY AVENUE","HACKENSACK","NJ","07601"
130762,"236 SYLVAN WALK","PITTSBURGH","PA","15202"
130763,"236 TOPZ CIRCLE","HEWITT","TX","76643"
130764,"236 TRILLUM LOOP","ANDREWS","SC","29450"
130765,"236 VERNON ST","BETHEL","ME","04217"
130766,"236 W BEVERLY PLACE","TRACY","CA","95376"
130767,"236 W BIRCH ST","SHELTON","WA","98584"
130768,"236 W MOUNTAIN  SUITE 108-A","COVINA","CA","91103"
130769,"236 W TAYLOR ST","SHELBYVILLE","IN","46176"
130770,"236 WEST 137TH STREET","NEW YORK","NY","10030"
130771,"236 WEST LAMB ST","BELLEFONTE","PA","16823"
130772,"236 WEST PORTAL 810","SAN FRANCISCO","CA","94127"
130773,"236 WESTERN HIGHWAY","TAPPAN","NY","10983"
130774,"236 ZACHARY WALK","MURPHY","TX","75094"
130775,"236","KILLEEN","TX","76541"
130776,"236","NESBIT","MS","38651"
130777,"2360 400TH STREET SW","OXFORD","IA","52322"
130778,"2360 8TH AVE APT 2D","NEW YORK","NY","10027"
130779,"2360 95TH STREET","NAPERVILLE","IL","60564"
130780,"2360 AMSTERDAM AVE STE 6C","NEW YORK","NY","10033"
130781,"2360 BRINER AVE","AKRON","OH","44305"
130782,"2360 CALHOUN ST","GARY","IN","46406"
130783,"2360 CORPORATE CIRCLE  SUITE 400","HENDERSON","NV","89074"
130784,"2360 CORPORATE CIRCLE SUITE 400","HENDERSON","CA","89074"
130785,"2360 CRANBERRY HWY SUITE 422","WAREHAM","MA","02576"
130786,"2360 CTY HWY B","BRULE","WI","54820"
130787,"2360 DAIRY ROAD","LANCASTER","PA","17601"
130788,"2360 E BARSTOW AVE M/S VR 89","FERSNO","CA","93740"
130789,"2360 E BARSTOW AVE MS VR 89","FRESNO","CA","93740"
130790,"2360 E CAMPUS DRIVE","COTTONWOOD HEIGHTS","UT","84121"
130791,"2360 E MOUNTAIN STREET","PASADENA","CA","91104"
130792,"2360 EL CAMINO AVENUE","SACRAMENTO","CA","95821"
130793,"2360 FAIRMONT AVE","MIRAMAR","FL","33025"
130794,"2360 GEORGE TOWN CIRCLE","AURORA","IL","60503"
130795,"2360 HAYES AVE","LONG BEACH","CA","90810"
130796,"2360 HILLSDALE WAY","BOULDER","CO","80305"
130797,"2360 HWY 336","PONTOTOC","MS","38863"
130798,"2360 JOSE CIRCLE SOUTH","JACKSONVILLE","FL","32217"
130799,"2360 LAKE ANGELUS LANE","LAKE ANGELUS","MI","48326"
130800,"2360 MARION AVE","FREMONT","CA","94539"
130801,"2360 MCCULLOCH BLVD N","LAKE HAVASU CITY","AZ","86403"
130802,"2360 MCCULLOCH BLVD N","LK HAVASU CITY","AZ","86403"
130803,"2360 MLK JR DR APT 1","GRAMBLING","LA","71245"
130804,"2360 MONROE ST","DENVER","CO","80210"
130805,"2360 NORTH CARTERVILLE ROAD","PROVO","UT","84604"
130806,"2360 NW QUIMBY STREET","PORTLAND","OR","97210"
130807,"2360 OAK CREEK CIRCLE","MELBOURNE","FL","32935"
130808,"2360 ORCHARD LAKE RD    SUITE 109","SYLVAN LAKE","MI","48320"
130809,"2360 RAINWATER ROAD","TIFTON","GA","31793"
130810,"2360 S 900 W","SYRACUSE","UT","84075"
130811,"2360 S CANNON DR APT 313","MOUNT PROSPECT","IL","60056"
130812,"2360 TURNER LAKES CT","JACKSONVILLE","FL","32221"
130813,"2360 VALLEY RD","RENO","NV","89512"
130814,"2360 VANDENBERG DR UNIT 1178","USAF ACADEMY","CO","80841"
130815,"2360 VERMONT AVE","CONNERSVILLE","IN","47331"
130816,"2360 W SPRING MOUNTAIN DR","BOISE","ID","83702"
130817,"2360 YEMANS","HAMTRAMCK","MI","48212"
130818,"23600 COVENTRY WOODS LN","SOUTHFIELD","MI","48034"
130819,"23600 CR 1630","STONEWALL","OK","74871"
130820,"23600 FM 1093 / APT 620","RICHMOND","TX","77406"
130821,"23600 FM 3009","SAN ANTONIO","TX","78266"
130822,"23600 MERCANTILE RD","BEACHWOOD","OH","44122"
130823,"23601 COLBOURNE RD","EUCLUD","OH","44123"
130824,"23602 N 45 AVE","GLENDALE","AZ","85310"
130825,"23602 SE 468TH WAY","ENUMCLAW","WA","98022"
130826,"23603 CATSKILL AVE","CARSON","CA","90745"
130827,"23603 FOREST TRAIL DRIVE","HOCKLEY","TX","77447"
130828,"23603 PARK SORRENTO","CALABASAS","CA","91302"
130829,"23603 SAN RICCI COURT","RICHMOND","TX","77406"
130830,"23605 SW BOONES FERRY ROAD","TUALATIN","OR","97062"
130831,"23608 155TH AVE SE","SNOHOMISH","WA","98296"
130832,"23608 MONETA AVE","CARSON","CA","90745"
130833,"23608 NW 202 STREET","HIGH SPRINGS","FL","32643"
130834,"23609 CRANBROOKE DRIVE","NOVI","MI","48375"
130835,"23609 VALLEY OAK LANE","MURRIETA","CA","92592"
130836,"2361 E 29TH STREET","OAKLAND","CA","94606"
130837,"2361 E PALMDALE BLVD SUITE A","PALMDALE","CA","93550"
130838,"2361 FAVOR RD SW","MARIETTA","GA","30060"
130839,"2361 FAVOR ROAD SW","MARIETTA","GA","30060"
130840,"2361 HENDERSON MILL RD UNIT 4","ATLANTA","GA","30345"
130841,"2361 HURT ST","MILLEDGEVILLE","GA","31061"
130842,"2361 LAKE DEBRA DR APT 815","ORLANDO","FL","32835"
130843,"2361 LAKESHORE DRIVE","SAGLE","ID","83860"
130844,"2361 NOSTRAND AVENUE SUITE 802","BROOKLYN","NY","11210"
130845,"2361 PERCH COURT SW","MARIETTA","GA","30008"
130846,"2361 RUTH LANE","KISSIMMEE","FL","34744"
130847,"2361 SAINT THOMAS STREET","NEW ORLEANS","LA","70130"
130848,"2361 SE 13TH STREET","POMPANO BEACH","FL","33062"
130849,"2361 VERMONT STREET","MELBOURNE","FL","32904"
130850,"2361 W WASHINGTON STREET","WEST BEND","WI","53095"
130851,"23611 ANZA AVENUE APT A","TORRANCE","CA","90505"
130852,"23611 MERIDIAN PL W","BOTHELL","WA","98021"
130853,"23611 MESQUITE TRAIL LN","SPRING","TX","77373"
130854,"23614 ESPERIA STREET","RICHMOND","TX","77406"
130855,"23617 LINCOLN AVE","MURRIETA","CA","92562"
130856,"23617 RIDGE ROAD E28","ANAMOSA","IA","52205"
130857,"23619 RIVER ROAD","N DIWIDDIE","VA","23803"
130858,"2362 ANDREWS VALLEY DRIVE","KISSIMMEE","FL","34758"
130859,"2362 CARNATION DR","CREST HILL","IL","60403"
130860,"2362 COUNTY HWY 14","ALTOONA","AL","35952"
130861,"2362 KERRIA COURT","BRYANS ROAD","MD","20616"
130862,"2362 M BERING DRIVE","HOUSTON","TX","77057"
130863,"2362 MCFARLAND ROAD","ROCKFORD","IL","61108"
130864,"2362 NORTH 18TH STREET","PHILADELPHIA","PA","19132"
130865,"2362 SE 14TH STREET","POMPANO BEACH","FL","33062"
130866,"2362 SOWER BLVD","OKEMOS","MI","48864"
130867,"2362 SPOTSWOOD PLACE","BOULDER","CO","80304"
130868,"2362 STATE HWY 94","OQUAWKA","IL","61469"
130869,"23620 THREE NOTCH ROAD UNIT 104","HOLLYWOOD","MD","20636"
130870,"23620- 108TH PLACE SE APT 1 M206","KENT","WA","98031"
130871,"23621 N DESERT DR","FLORENCE","AZ","85132"
130872,"23623 NOTTINGHAM LN","SOUTHFIELD","MI","48033"
130873,"23626 SORESINA","LAGUNA HILLS","CA","92653"
130874,"23628 ANDREW BLVD","BROWNSTOWN TWP","MI","48134"
130875,"23629 LIBERTY STREET SUITE 104","FARMINGTON","MI","48335"
130876,"23629 PARKVIEW DR","BULLARD","TX","75757"
130877,"2363 CRESTLINE DRIVE","ST LOUIS","MO","63129"
130878,"2363 EHRING ROAD","COLUMBUS","OH","43211"
130879,"2363 GARDENSDALE DR","COLUMBUS","OH","43219"
130880,"2363 GARDNER DRIVE","FAIRBORN","OH","45324"
130881,"2363 HILLFIELD ROAD SUITE 111","LAYTON","UT","84041"
130882,"2363 ISRAELI DRIVE - 47","CLEARWATER","FL","33763"
130883,"2363 JAMES STREET STE 1015","SYRACUSE","NY","13206"
130884,"2363 JUNE SPRINGS DR SW","MARIETTA","GA","30008"
130885,"2363 KINGSGATE COURT","DUNWOODY","GA","30338"
130886,"2363 KIRKTON DRIVE","TROY","MI","48083"
130887,"2363 LEMAY SHORES DRIVE","MENDOTA HEIGHTS","MN","55120"
130888,"2363 NORTH AVE","BRIDGEPORT","CT","06604"
130889,"2363 PUU ROAD STE 4C","KALAHEO","HI","96741"
130890,"2363 RANCHITO DRIVE       APT B","CONCORD","CA","94520"
130891,"2363 TELLER RD STE 110","NEWBURY PARK","CA","91320"
130892,"2363 TOLLIVER HILLS LANE","ELLENWOOD","GA","30294"
130893,"23630 SE 440TH ST","ENUMCLAW","WA","98022"
130894,"23631 SUNNYMEAD BLVD","MORENO VALLEY","CA","92553"
130895,"23631 SW 108 AVE","HOMESTEAD","FL","33032"
130896,"23632 CALABASAS ROAD SUITE 202","CALABASAS","CA","91302"
130897,"23634 42ND AVE","ST CLOUD","MN","56301"
130898,"23634 LONGACRE ST","FARMINGTON","MI","48335"
130899,"23635 NEWHALL AVENUE SUITE 104","NEWHALL","CA","91321"
130900,"23635 VERDE RIVER","SAN ANTONIO","TX","78255"
130901,"23636 MICHIGAN AVENUE SUITE 475","DEARBORN","MI","48124"
130902,"23637 OAKREST LANE","HARBOR CITY","CA","90710"
130903,"23638 LYONS AVE UNIT 214","NEWHALL","CA","91321"
130904,"23638 LYONS AVENUE SUITE 277","NEWHALL","CA","91321"
130905,"23638 LYONS AVENUE UNIT 215","NEWHALL","CA","91321"
130906,"23638 W MAGIC MOUNTAIN PKWY APT 320","VALENCIA","CA","91355"
130907,"2364 14TH ST NW","MINOT","ND","58703"
130908,"2364 ALDERBROOK DR","HIGH POINT","NC","27265"
130909,"2364 BATTERY HILL CIRCLE","WOODBRIDGE","VA","22191"
130910,"2364 DAWN CT","DECATUR","GA","30032"
130911,"2364 E MIRAVAL SEGUNDO","TUCSON","AZ","85718"
130912,"2364 ESSINGTON RD UNIT 105","JOLIET","IL","60435"
130913,"2364 ESSINGTON ROAD UNIT 105","JOLIET","IL","60435"
130914,"2364 F ROAD","OAKLAND","NE","68045"
130915,"2364 JACKSON ST  186","STOUGHTON","WI","53589"
130916,"2364 JACKSON ST - 181","STOUGHTON","WI","53589"
130917,"2364 JACKSON ST NUM 113","STOUGHTON","WI","53589"
130918,"2364 JACKSON ST NUMBER 118","STOUGHTON","WI","53589"
130919,"2364 JACKSON ST PMB 140","STOUGHTON","WI","53589"
130920,"2364 JACKSON ST PMB 215","STOUGHTON","WI","53589"
130921,"2364 JACKSON STREET  BOX 161","STOUGHTON","WI","53589"
130922,"2364 JACKSON STREET NUMBER 193","STOUGHTON","WI","53589"
130923,"2364 JACKSON STREET NUMBER 236","STOUGHTON","WI","53589"
130924,"2364 JACKSON STREET PMB 117","STOUGHTON","WI","53589"
130925,"2364 LILIUOKALANI","KILAUEA","HI","96722"
130926,"2364 N 1200TH AVE","ORION","IL","61273"
130927,"2364 NOTTINGHILL DR NW","KENNESAW","GA","30152"
130928,"2364 NW 138 DR","SUNRISE","FL","33323"
130929,"2364 OAKRIDGE COURT","DECATUR","GA","30032"
130930,"2364 PINEWOOD DRIVE","DECATUR","GA","30032"
130931,"2364 RIDGE RD","FINLEYVILLE","PA","15332"
130932,"2364 STATE ROUTE 17A","GOSHEN","NY","10924"
130933,"2364 WEST MCMICKEN AVENUE","CINCINNATI","OH","45214"
130934,"23641 FINDLEY ROAD","STURGIS","MI","49091"
130935,"23642 CLEAR CT","CLEARLAKE","WA","98235"
130936,"23643 104TH AVE","KENT","WA","98031"
130937,"23646 EAST COUNTY ROAD 1595","ELMORE CITY","OK","73433"
130938,"23646 ROCKFORD STREET","DEARBORN","MI","48124"
130939,"2365 COUNTY ROAD 187","LANETT","AL","36863"
130940,"2365 DANIEL ISLAND DRIVE","CHARLESTON","SC","29492"
130941,"2365 DESERT FALLS LN","ROCKWALL","TX","75087"
130942,"2365 E LONG SHADOW PLACE","TUCSON","AZ","85718"
130943,"2365 HARRODSBURG ROAD STE A110","LEXINGTON","KY","40504"
130944,"2365 HOLLOW OAK DRIVE","ANN ARBOR","MI","48103"
130945,"2365 NE 173RD ST APT C218","NORTH MIAMI BEACH","FL","33160"
130946,"2365 NORTH MCKNIGHT ROAD","NORTH ST. PAUL","MN","55109"
130947,"2365 PACIFIC STREET APT 4A","BROOKLYN","NY","11233"
130948,"2365 PLAZA DEL AMO","TORRANCE","CA","90501"
130949,"2365 RIDGELAKE DRIVE","VILLA RICA","GA","30180"
130950,"2365 ROCK N HORSE FARMS DR","FESTUS","MO","63028"
130951,"2365 S CONGRESS AVE","WEST PALM BEACH","FL","33406"
130952,"2365 SALISBURY COURT","LEWISVILLE","TX","75056"
130953,"2365 STRASBURG ROAD","COATESVILLE","PA","19320"
130954,"2365 SWEETWATER DR APT 216","GRAND PRAIRIE","TX","75050"
130955,"2365 TOPAZ DRIVE","TROY","MI","48085"
130956,"2365 VIA ALTA SUITE 330","SAN DIEGO","CA","92108"
130957,"2365 VISTA PARKWAY SUITE 6","WEST PALM BEACH","FL","33411"
130958,"2365 WALL STREET STE 210","CONYERS","GA","30013"
130959,"2365 WATERFRONT PARK DRIVE","CANYON LAKE","TX","78133"
130960,"2365-F","SAN JOSE","CA","95131"
130961,"23650 ROUND MOUNTAIN CIRCLE","LEANDER","TX","78641"
130962,"23651 SUMMIT DR","CALABASAS","CA","91302"
130963,"23654 KLUPENGER RD NE","AURORA","OR","97002"
130964,"23654 PLUM AVENUE","CASTANA","IA","51010"
130965,"23655 ARMADA CENTER RD","ARMADA","MI","48005"
130966,"23655 N 91ST AVE","PEORIA","AZ","85383"
130967,"23655 NEWHALL AVE STE C","NEWHALL","CA","91321"
130968,"23657 E ELLSWORTH AVE","AURORA","CO","80018"
130969,"2366 48TH AVENUE","SAN FRANCISCO","CA","94116"
130970,"2366 BEVERLY BLVD","BERKLEY","MI","48072"
130971,"2366 BLACKBERRY CIRCLE","RAVENNA","OH","44266"
130972,"2366 E 1ST STREET","LOVELAND","CO","80537"
130973,"2366 EAST 39TH STREET","CLEVELAND","OH","44115"
130974,"2366 FLATBUSH AVENUE","BROOKLYN","NY","11234"
130975,"2366 FRONT STREET","SAN DIEGO","CA","92101"
130976,"2366 GODDARD RD","TOLEDO","OH","43606"
130977,"2366 PLAYA WAY","GOLD RIVER","CA","95670"
130978,"2366 PROSPERITY WAY","SAN LEANDRO","CA","94578"
130979,"2366 SYLVAN ROAD","ATLANTA","GA","30344"
130980,"2366 TACOMA AVE SO","TACOMA","WA","98402"
130981,"2366 TANASI DR","CORDOVA","TN","38016"
130982,"2366 VERMONT AVE STE 101","HYATTSVILLE","MD","20785"
130983,"23660 WILLOW ISLAND TRL","OAK CREEK","CO","80467"
130984,"23661 PACIFIC COAST HIGHWAY","MALIBU","CA","90265"
130985,"23665 W MOHAVE ST","BUCKEYE","AZ","85326"
130986,"23667 E ALABAMA PL","AURORA","CO","80018"
130987,"2367 CAROUSEL PARK DR","MORROW","GA","30260"
130988,"2367 HIGHWAY 6 NW","TIFFIN","IA","52340"
130989,"2367 INCA DRIVE","DALLAS","TX","75216"
130990,"2367 LONE OAK AVENUE","NAPA","CA","94558"
130991,"2367 MARTIN LUTHER KING JR HWY","KINGSTREE","SC","29556"
130992,"2367 SUNSET HEIGHTS DRIVE","LOS ANGELES","CA","90046"
130993,"2367 W 228TH STREET","TORRANCE","CA","90501"
130994,"23674 415TH AVENUE","BELLEVUE","IA","52031"
130995,"23674 SANDALWOOD ST","WEST HILLS","CA","91307"
130996,"23677 PLANK ROAD","ZACHARY","LA","70791"
130997,"23679 BOLAM AVE","WARREN","MI","48089"
130998,"23679 CALABASAS RD NUM 625","CALABASAS","CA","91302"
130999,"23679 CALABASAS RD STE 1024","CALABASAS","CA","91302"
131000,"23679 CALABASAS ROAD NUM 377","CALABASAS","CA","91302"
