"ID","Address","City","State","Zip"
30501,"1168 CEMETERY RD SE","NEW LEXINGTON","OH","43764"
30502,"1168 COUNTY ROAD 304","FLORESVILLE","TX","78114"
30503,"1168 E 100TH ST","BROOKLYN","NY","11236"
30504,"1168 FLOWING SPRINGS TRAIL","FLAGSTAFF","AZ","86004"
30505,"1168 FM 247 RD","HUNTSVILLE","TX","77320"
30506,"1168 FRANKLIN AVE","BRONX","NY","10456"
30507,"1168 JEWETT RD","SKANEATELES","NY","13152"
30508,"1168 LINCOLN STREET","CRAIG","CO","81625"
30509,"1168 LIVE OAK BLVD","YUBA CITY","CA","95991"
30510,"1168 METCALFE ROAD","GREENVILLE","MS","38703"
30511,"1168 MONZA DR","JENISON","MI","49428"
30512,"1168 N SAN MARCOS RD","SANTA BARBARA","CA","93111"
30513,"1168 NW 30TH AVE UNIT S","FT LAUDERDALE","FL","33311"
30514,"1168 NW 30TH AVENUE UNIT S","FORT LAUDERDALE","FL","33311"
30515,"1168 OAK HILL LANE","BEDFORD","VA","24523"
30516,"1168 PARACLETE RD","PUNTA GORDA","FL","33983"
30517,"1168 RIVERSIDE DRIVE","NORTH GROSVENORDALE","CT","06255"
30518,"1168 ROSAMUND DRIVE","SAN RAMON","CA","94582"
30519,"1168 S ELMWOOD AVE","OAK PARK","IL","60304"
30520,"1168 S FARMVIEW DRIVE","DOVER","DE","19904"
30521,"1168 SMITH","BIRMINGHAM","MI","48009"
30522,"1168 TEAL WAY","HASTINGS","MN","55033"
30523,"1168 WABASSO ST","WALLED LAKE","MI","48390"
30524,"11680 HERITAGE DR","HAMPTON","GA","30228"
30525,"11680 OAK AVE","SEMINOLE","FL","33772"
30526,"11681 PAMPUS DR","JURUPA VALLEY","CA","91752"
30527,"11682 BENNINGTON WOODS RD","RESTON","VA","20194"
30528,"11683 44TH AVE","CHIPPEWA FALLS","WI","54729"
30529,"11683 BULLIS ROAD","MARILLA","NY","14102"
30530,"11683 MELONES CIRCLE","GOLD RIVER","CA","95670"
30531,"11684 213TH AVE NW","ELK RIVER","MN","55330"
30532,"11684 ARROYO DR","FLORISSANT","MO","63033"
30533,"11684 VENTURA BLVD 254","STUDIO CITY","CA","91604"
30534,"11684 VENTURA BLVD 798","STUDIO CITY","CA","91604"
30535,"11685 CR 350","SIDNEY","MT","59270"
30536,"11686 JADE AVE","LIME SPRINGS","IA","52155"
30537,"11687 COUNTY ROAD 59","DEGRAFF","OH","43318"
30538,"11687 SADDLEBRED COURT","NORTH HUNTINGDON","PA","15642"
30539,"11688 CR 3119","WINONA","TX","75792"
30540,"11688 RIVER CREST DR","GLOUCESTER","VA","23061"
30541,"11689 QUARTZ AVE","FOUNTAIN VALLEY","CA","92708"
30542,"11689 ROCHFORD ROAD","HILL CITY","SD","57745"
30543,"1169 23 STREET","RICHMOND","CA","94804"
30544,"1169 AUTUMN PINES DR","ORANGE PARK","FL","32065"
30545,"1169 BERKSHIRE DR","PEARL RIVER","LA","70452"
30546,"1169 BRODERICK RD","OMRO","WI","54963"
30547,"1169 BRODERICK ROAD","OMRO","WI","54963"
30548,"1169 CAMPGROUND ROAD","ELIZABETH CITY","NC","27909"
30549,"1169 E 8TH STREET","BROOKLYN","NY","11230"
30550,"1169 E ORIOLE DR","GILBERT","AZ","85297"
30551,"1169 EASTERN PKWY STE 1124","LOUISVILLE","KY","40217"
30552,"1169 FAXON AVE","MEMPHIS","TN","38105"
30553,"1169 HERON AVENUE","MIAMI SPRINGS","FL","33166"
30554,"1169 INDIAN GROVE LANE","ROGERSVILLE","MO","65742"
30555,"1169 MELDON AVENUE","DONORA","PA","15033"
30556,"1169 MERIDEN WATERBURY TPKE","PLANTSVILLE","CT","06479"
30557,"1169 N 172ND E AVE","TULSA","OK","74116"
30558,"1169 NECK ROAD","PONTE VEDRA BEACH","FL","32082"
30559,"1169 ORANGEWOOD DRIVE","ESCONDIDO","CA","92025"
30560,"1169 REED AVE","AKRON","OH","44306"
30561,"1169 RULE HOLLOW RD","SEVIERVILLE","TN","37876"
30562,"1169 SOUTH  KINGS DR","CHARLOTTE","NC","28207"
30563,"1169 SOUTH KINGS DRIVE","CHARLOTTE","NC","28207"
30564,"1169 SW COLLEGE AVE","TOPEKA","KS","66604"
30565,"1169 VERONICA LANE","MENDOTA HEIGHTS","MN","55118"
30566,"1169 WARWICK CT","MEDINA","OH","44256"
30567,"1169 WINSTON RD","SOUTH EUCLID","OH","44121"
30568,"11690 TROUTMAN RD","MIDLAND","NC","28107"
30569,"11691 CHERRY BARK DRIVE WEST","JACKSONVILLE","FL","32218"
30570,"11692 YOUNGMAN RD","BELDING","MI","48809"
30571,"11693 SAN VICENTE BLVD    135","LOS ANGELES","CA","90049"
30572,"11693 SAN VICENTE BLVD PB 392","LOS ANGELES","CA","90049"
30573,"11693 SAN VICENTE BLVD","LOS ANGELES","CA","90049"
30574,"11693 SAN VICENTE STE 124","LOS ANGELES","CA","90049"
30575,"11693 SAN VINCENTE BLVD UNIT 255","LOS ANGELES","CA","90049"
30576,"11694 CELEBRATION DR","RANCHO CUCAMONGA","CA","91730"
30577,"11695 COLVIN LANE","NOKESVILLE","VA","20181"
30578,"11695 VERNETTE COURT","EL CAJON","CA","92020"
30579,"11696 MOORSEVILLE ROAD","MT ULLA","NC","28125"
30580,"11697 HWY TT","WARSAW","MO","65355"
30581,"11697 MALAGON DRIVE","FONTANA","CA","92337"
30582,"11699 BROOKPARK ROAD","PARMA","OH","44130"
30583,"11699 KIGSVILLE DR","FRISCO","TX","75035"
30584,"11699 KINGSVILLE DR","FRISCO","TX","75035"
30585,"116A SAILORS COVE DR","PORT ST JOE","FL","32456"
30586,"116A WEST 7TH STREET","COLUMBIA","TN","38401"
30587,"116G DEHAVEN CT","WILLIAMSBURG","VA","23188"
30588,"116W 550N","VALPARAISO","IN","46385"
30589,"117 12TH COURT NW","BIRMINGHAM","AL","35215"
30590,"117 13TH AVENUE","UNION GROVE","WI","53182"
30591,"117 13TH STREET","WEST SACRAMENTO","CA","95691"
30592,"117 168TH AVE NE","BELLEVUE","WA","98008"
30593,"117 2ND STREET","FOLLANSBEE","WV","26037"
30594,"117 56TH STREET SE","WASHINGTON","DC","20019"
30595,"117 5TH AVE SW  BOX 264","MINOT","ND","58702"
30596,"117 7TH AVENUE SOUTH PH","NEW YORK","NY","10014"
30597,"117 97TH AVE SE C60","LAKE STEVENS","WA","98258"
30598,"117 9TH ST","WILMETTE","IL","60091"
30599,"117 ALPHA STREET","BELLE CHASSE","LA","70037"
30600,"117 ALTA VISTA AVE","WATERLOO","IA","50703"
30601,"117 ANDREA CIR APT 7","EASLEY","SC","29642"
30602,"117 APPLE TREE LANE","UNION","NJ","07083"
30603,"117 ARDEN RD","WATERBURY","CT","06708"
30604,"117 ARDEN WAY","SACRAMENTO","CA","95815"
30605,"117 ARDMORE DRIVE","MADISON","WI","53713"
30606,"117 ATLANTIC STREET SE","WASHINGTON","DC","20032"
30607,"117 AUCILLA LANE","WOODSTOCK","GA","30188"
30608,"117 BALTIMORE STREET ROOM 301","GETTYSBURG","PA","17325"
30609,"117 BANK STREET APT 2","BURLINGTON","VT","05401"
30610,"117 BARCLAY CRESCENT","SMITHFIELD","VA","23430"
30611,"117 BARTON HEIGHTS ROAD","JOSEPH","OR","97846"
30612,"117 BEAVER STREET","WALTHAM","MA","02454"
30613,"117 BECKWORTH DR","TAYLORS","SC","29687"
30614,"117 BEECH COURT","LITTLETON","NC","27850"
30615,"117 BELLWOOD AVE","WEST SENECA","NY","14224"
30616,"117 BIG BEAR LN","JONESBOROUGH","TN","37659"
30617,"117 BLOOMFIELD WAY","FOLSOM","CA","95630"
30618,"117 BLUE GILL CT","PELLA","IA","50219"
30619,"117 BLUE RIDGE ROAD","VOORHEES","NJ","08043"
30620,"117 BLUELEAF CT","SAVANNAH","GA","31410"
30621,"117 BOLT HILL RD","ELIOT","ME","03903"
30622,"117 BRACEY ROAD","CANTON","MS","39046"
30623,"117 BRADFIELD ROAD","MADISON","MS","39110"
30624,"117 BRAETHORN DRIVE","BUTLER","PA","16001"
30625,"117 BROADMOOR DRIVE","SOUTH SIOUX CITY","NE","68776"
30626,"117 BROKEN POTTERY DR","PONTE VEDRA","FL","32082"
30627,"117 BROOK DRIVE","MARSHALL","MI","49068"
30628,"117 BRUSHY LAKE WAY","CARY","NC","27513"
30629,"117 BRYN MAWR DR SE","ALBUQUERQUE","NM","87106"
30630,"117 BUCK RUN WAY","ST AUGUSTINE","FL","32092"
30631,"117 BUTLER STREET PO BOX 468","BOWLING GREEN","VA","22427"
30632,"117 C CHERRY ST","BLACK MOUNTAIN","NC","28711"
30633,"117 CAMEO LN","MADISON","WI","53714"
30634,"117 CAMERON BRIDGE WAY","ALPHARETTA","GA","30022"
30635,"117 CAMINO RUIZ 62","CAMARILLO","CA","93012"
30636,"117 CAMPBELL ROAD","BENTON","TN","37307"
30637,"117 CARDINAL LANE","LAREDO","TX","78045"
30638,"117 CARMEL DRIVE","EGG HARBOR TOWNSHIP","NJ","08234"
30639,"117 CENTRAL AVE N PO BOX 150","ELBOW LAKE","MN","56531"
30640,"117 CENTRAL AVENUE NORTH","ELBOW LAKE","MN","56531"
30641,"117 CENTRAL ST E9","ACTON","MA","01720"
30642,"117 CHARLOTTE AVENUE","ROYAL OAK","MI","48073"
30643,"117 CHARLOTTE WHITE ROAD","WESTPORT","MA","02790"
30644,"117 CHEROKEE DRIVE","JEFFERSONVILLE","IN","47130"
30645,"117 CIVIC CENTER","MOUNT STERLING","KY","40353"
30646,"117 CLOWSON COURT","OCOEE","FL","34761"
30647,"117 COLEMAN ROAD","WELLFORD","SC","29385"
30648,"117 COLLEGE STREET","BUFFALO","NY","14201"
30649,"117 COLONIAL CIRCLE","CARTERVILLE","GA","30120"
30650,"117 COLONIAL ROAD","KITTANNING","PA","16201"
30651,"117 COLUMBUS STREET","FREDERICKTOWN","OH","43019"
30652,"117 CORNELIA AVENUE","MILL VALLEY","CA","94941"
30653,"117 COUNTRY CT","KNOXVILLE","IL","61448"
30654,"117 COUNTY ROAD 741","BLAND","MO","65014"
30655,"117 CREEKWOOD DRIVE","COLUMBIANA","AL","35051"
30656,"117 CREST DRIVE","MANHATTAN BEACH","CA","90266"
30657,"117 CROCKER BLVD","MOUNT CLEMENS","MI","48043"
30658,"117 CROSBY CIRCLE","GREENVILLE","SC","29605"
30659,"117 CROSS CREEK DR","BETHALTO","IL","62010"
30660,"117 CROSS DRIVE","POPLAR GROVE","IL","61065"
30661,"117 CULLODEN ROAD","STAMFORD","CT","06902"
30662,"117 CYNTHIA LYNN DRIVE","BOWLING GREEN","KY","42103"
30663,"117 DANDELION LANE","MARQUETTE","MI","49855"
30664,"117 DANIEL LOW TERRACE","STATEN ISLAND","NY","10301"
30665,"117 DARTMOOR ROAD","MAHTOMEDI","MN","55115"
30666,"117 DEER PASS","HAVANA","FL","32333"
30667,"117 DELFELDER RD","RIVERTON","WY","82501"
30668,"117 DELTA STREET","BELLE CHASSE","LA","70037"
30669,"117 DEWITT STREET","SPRINGFIELD","MA","01129"
30670,"117 DORIS STREET","NEW IBERIA","LA","70560"
30671,"117 DUPEE PLACE","WILMETTE","IL","60091"
30672,"117 DUTTON AVENUE","SAN LEANDRO","CA","94577"
30673,"117 E 18TH ST  MB 192","OWENSBORO","KY","42303"
30674,"117 E 18TH STREET SUITE 1480","OWENSBORO","KY","42303"
30675,"117 E 37TH ST NUMBER 400","LOVELAND","CO","80538"
30676,"117 E 5TH STREET","SHAWANO","WI","54166"
30677,"117 E 8TH ST APT 4","COVINGTON","KY","41011"
30678,"117 E ATLANTIC AVE","HADDON HEIGHTS","NJ","08035"
30679,"117 E BELAIR DRIVE","MOSES LAKE","WA","98837"
30680,"117 E CRESCENT AVE","ELMHURST","IL","60126"
30681,"117 E CRESCENT AVENUE SUITE B","ELMHURST","IL","60126"
30682,"117 E FIRST STREET PO BOX 255","CRUCIBLE","PA","15325"
30683,"117 E FRANKLIN AVENUE","NEW  CASTLE","DE","19720"
30684,"117 E GLOHAVEN PL","SIMPSONVILLE","SC","29681"
30685,"117 E LINCOLN ST","NEGAUNEE","MI","49866"
30686,"117 E LOUISA ST 488","SEATTLE","WA","98102"
30687,"117 E LOUISA ST 726","SEATTLE","WA","98102"
30688,"117 E LOUISA ST BOX 570","SEATTLE","WA","98102"
30689,"117 E LOUISA ST PMB 273","SEATTLE","WA","98102"
30690,"117 E LOUISA ST SUITE 172","SEATTLE","WA","98102"
30691,"117 E MAIN ST","HEYWORTH","IL","61745"
30692,"117 E MAIN STREET","MUNCIE","IN","47305"
30693,"117 E MAIN","MOORE","OK","73160"
30694,"117 E MEADOWS STREET SUITE 78","VIDALIA","GA","30474"
30695,"117 E MILLER ST","FALFURRIAS","TX","78355"
30696,"117 E NORTHWEST HWY STE C","BARRINGTON","IL","60010"
30697,"117 E PLUM ST","THORNTOWN","IN","46071"
30698,"117 E SHERMAN","HUTCHINSON","KS","67501"
30699,"117 E WALNUT STREET","TITUSVILLE","PA","16354"
30700,"117 EAGLE RIDGE RD","JOPLIN","MO","64804"
30701,"117 EAST 37TH AVE  STE 350","LOVELAND","CO","80538"
30702,"117 EAST 8TH ST","LAKEWOOD","NJ","08701"
30703,"117 EAST BROADWAY STREET","PRINCETON","IN","47670"
30704,"117 EAST CENTRAL STREET","NATICK","MA","01760"
30705,"117 EAST FESLER STREET SUITE C","SANTA MARIA","CA","93454"
30706,"117 EAST LAKE AVE SUITE C1","AUBURNDALE","FL","33823"
30707,"117 EAST LOUISA STREET 176","SEATTLE","WA","98102"
30708,"117 EAST MADISON STREET 621","BOLTON","MS","39041"
30709,"117 EAST MAIN ST","BOYCE","VA","22620"
30710,"117 EAST MAIN STREET","RIPON","CA","95366"
30711,"117 EAST UPSAL STREET","PHILADELPHIA","PA","19119"
30712,"117 EDGEFIELD DRIVE","DOWNINGTOWN","PA","19335"
30713,"117 EDGINGTON LANE","WHEELING","WV","26003"
30714,"117 EL CAPITAN DRIVE","ISLAMORADA","FL","33036"
30715,"117 ELISA LANDI DRIVE","KINGSTON","NY","12401"
30716,"117 ELM ST","AMERY","WI","54001"
30717,"117 ELM ST","MOUNT STERLING","KY","40353"
30718,"117 ELMORE DR","DALTON","MA","01226"
30719,"117 ESTATE DRIVE","JERICHO","NY","11753"
30720,"117 ESTHER ST","MICHIGAN CITY","IN","46360"
30721,"117 EUCLID STREET","ATHENS","TN","37303"
30722,"117 EVANS DRIVE","FORT COLLINS","CO","80524"
30723,"117 FAIRFIELD DR","SAINT MARYS","GA","31558"
30724,"117 FAIRVIEW ROAD","CHAGRIN FALLS","OH","44022"
30725,"117 FELLSWOOD DR","LIVINGSTON","NJ","07039"
30726,"117 FOREST DRIVE","CARL JUNCTION","MO","64834"
30727,"117 FOREST STREET","DANVERS","MA","01923"
30728,"117 FRIPP LN","SUMMERVILLE","SC","29483"
30729,"117 GARFIELD AVE","MORROW","OH","45152"
30730,"117 GARRIS ROAD","DOWNINGTOWN","PA","19335"
30731,"117 GAYLA DR","JONESBORO","LA","71251"
30732,"117 GENE COURT","BRUNSWICK","GA","31525"
30733,"117 GLENBROOK DRIVE","CRANBERRY TOWNSHIP","PA","16066"
30734,"117 GLENN RD","ARDMORE","PA","19003"
30735,"117 GOOD HOLLOW RD","TAFT","TN","38488"
30736,"117 GRANBERRY ST","HOUSTON","TX","77338"
30737,"117 GRAND AVENUE","MIAMI","FL","33133"
30738,"117 GRANITE DR","GEORGETOWN","TX","78626"
30739,"117 GREEN POINT ROAD","NORTH HERO","VT","05474"
30740,"117 GREENBRIAR CT","EUCLID","OH","44143"
30741,"117 HALIFAX PLACE","LEESBURG","VA","20175"
30742,"117 HALL DRIVE","GALLION","AL","36742"
30743,"117 HARDING AVENUE","FEASTERVILLE","PA","19053"
30744,"117 HARPERS WAY","FREDERICK","MD","21072"
30745,"117 HENSLEY ST STE 1","JBSA LACKLAND","TX","78236"
30746,"117 HERALD COURT SUITE 211","PUNTA GORDA","FL","33950"
30747,"117 HERALD CT","PUNTA GORDA",NA,"33950"
30748,"117 HERITAGE WAY","WEST PALM BEACH","FL","33407"
30749,"117 HERMITAGE ROAD","GREENVILLE","SC","29615"
30750,"117 HIDDEN VALLEY RD","ROGERSVILLE","TN","37857"
30751,"117 HIGH STREET UNIT 3","IPSWICH","MA","01938"
30752,"117 HIGH STREET","BALTIC","CT","06330"
30753,"117 HILLVIEW AVE","BRONSTON","KY","42518"
30754,"117 HONOR WAY","MADISON","AL","35758"
30755,"117 HOWERTON WAY SE","ILWACO","WA","98624"
30756,"117 HUDSON STREET","LAKEWOOD","NJ","08701"
30757,"117 HUGHES AVENUE","SANFORD","FL","32771"
30758,"117 HULL STREET","BROOKLYN","NY","11233"
30759,"117 IMILDA DR","GULFPORT","MS","39503"
30760,"117 INSLEE AVE","SAN ANTONIO","TX","78209"
30761,"117 J ST STE 201","SACRAMENTO","CA","95814"
30762,"117 JOYMAR CIRCLE","ST CLOUND","MN","56301"
30763,"117 KAREN STREET","SUMMERSVILLE","WV","26651"
30764,"117 KARYLN DR","NEW CASTLE","DE","19720"
30765,"117 KIMBERWICKE CT","CRANBERRY TWP","PA","16066"
30766,"117 KING STREET TRLR 8","HENDERSON","NV","89011"
30767,"117 KNOLLWOOD ST","LUFKIN","TX","75904"
30768,"117 LACKAWANNA AVE","DUPONT","PA","18641"
30769,"117 LARIAT TRAIL","OVILLA","TX","75154"
30770,"117 LAZY HOLLOW","LEAGUE CITY","TX","77573"
30771,"117 LEAH DRIVE","CLAYTON","NC","27520"
30772,"117 LINCOLN ST","MERDIEN","CT","06451"
30773,"117 LINDBURG AVENUE","FAYETTEVILLE","WV","25840"
30774,"117 LIPMAN STREET","SUMMERVILLE","SC","29483"
30775,"117 LOCKTOWN FLEMINGTON ROAD","FLEMINGTON","NJ","08822"
30776,"117 LUDLOW STREET B2","NEW YORK","NY","10002"
30777,"117 LUNDY STREET","COLUMBUS","OH","43215"
30778,"117 MACKIE LANE","LOUISVILLE","KY","40214"
30779,"117 MADISON AVENUE","SAN MATEO","CA","94402"
30780,"117 MAIN ST","FREEMANSBURG","PA","18017"
30781,"117 MAIN STREET","NORFOLK","MA","02056"
30782,"117 MARON ROAD","HATFIELD","PA","19440"
30783,"117 MARSHALL AVENUE","SANDUSKY","OH","44870"
30784,"117 MARYLAND AVE","PAWTUCKET","RI","02860"
30785,"117 MASON AVE STE E","CAPE CHARLES","VA","23310"
30786,"117 MCMANN AVE","PITTSBURGH","PA","15205"
30787,"117 MEADOW GREEN DRIVE","MIFFLINBURG","PA","17844"
30788,"117 MEADOWBROOK BLVD","FOND DU LAC","WI","54935"
30789,"117 MEADOWS DRIVE","LOGANVILLE","GA","30052"
30790,"117 MEIGS STREET APT 1","ROCHESTER","NY","14607"
30791,"117 MELLON AVE","PATTON","PA","16668"
30792,"117 MILDRED AVENUE","COLLINGDALE","PA","19023"
30793,"117 MILROY LANE","MOORESVILLE","NC","28115"
30794,"117 MITCHELL STREET","PROVIDENCE","RI","02907"
30795,"117 MOATS LN","SUPERIOR","MT","59872"
30796,"117 MOUNT ZION EAST RD","BUCHANAN","GA","30113"
30797,"117 N 4TH ST","SAYRE","OK","73662"
30798,"117 N 4TH","SAYRE","OK","73662"
30799,"117 N CENTER ST","STATESVILLE","NC","28677"
30800,"117 N DECKER AVE","DAYTON","OH","45417"
30801,"117 N GALE DR","BEVERLY HILLS","CA","90211"
30802,"117 N H ST","COTTAGE GROVE","OR","97424"
30803,"117 N HICKORY ST","FOUNTAIN HILL","AR","71642"
30804,"117 N MAIN ST","SOMERSET","KY","42501"
30805,"117 N MAIN STREET","MIDDLEBURY","IN","46540"
30806,"117 N MAIN STREET","NEWTON","MS","39345"
30807,"117 N MCALLISTER STREET","LAKE CITY","SC","29560"
30808,"117 N RICHARDSON DR","SOMERSET","KY","42501"
30809,"117 N RIVER RD","FLETCHER","NC","28732"
30810,"117 N SACATON ST","CASA GRANDE","AZ","85122"
30811,"117 NATIVE CIRCLE","LANCASTER","TX","75146"
30812,"117 NE 48TH STREET","MIAMI","FL","33137"
30813,"117 NESTLEBROOKE DR","DAWSONVILLE","GA","30534"
30814,"117 NESTLEWOOD LN","GRAPEVINE","TX","76051"
30815,"117 NEWFOUND HARBOR ROAD","BIG PINE KEY","FM","33043"
30816,"117 NEWPORT WAY","LIITLE EGG HARBOR","NJ","08087"
30817,"117 NORTH COOPER","OLATHE","KS","66061"
30818,"117 NORTH COUNTRY ROAD","SMITHTOWN","NY","11787"
30819,"117 NORTH MAIN STREET","SOUDERTON","PA","18964"
30820,"117 NORTH MAYWOOD AVENUE","CLEARWATER","FL","33765"
30821,"117 NORTH MONROE STREET","MARKSVILLE","LA","71351"
30822,"117 NORTH RAILROAD AVENUE","CHAUNCEY","GA","31011"
30823,"117 NORTH SUN ARBOR TER APT 1278","SALT LAKE CITY","UT","84116"
30824,"117 NORTH WATER STREET","MILAN","MO","63556"
30825,"117 NW TRINITY PL 35","PORTLAND","OR","97209"
30826,"117 OAK KNOLL CIR","BOERNE","TX","78006"
30827,"117 OAK LANE UNIT 1","BROCKTON","MA","02301"
30828,"117 OARSMAN CROSSING","ST MARYS","GA","31558"
30829,"117 OLD FARM RD","RIVERHEAD","NY","11901"
30830,"117 OLD FRAZIER MILL LANE","BUTLER","PA","16002"
30831,"117 OLD HAWKINSVILLE ROAD","BONAIRE","GA","31005"
30832,"117 OLIVER LANE","DURHAM","NC","27713"
30833,"117 PARRIS LANE APT G3","EASTON","MD","21601"
30834,"117 PARRIS LN APT H2","EASTON","MD","21601"
30835,"117 PEARL AVE","NEWPORT BEACH","CA","92662"
30836,"117 PEGGY LANE","CRESCENT CITY","FL","32112"
30837,"117 PENINSULA DRIVE","BRANDON","MS","39047"
30838,"117 PENNSYLVANIA AVENUE","YARDLEY","PA","19067"
30839,"117 PERRY ST","LOWELL","MA","01852"
30840,"117 PINE","GIBSON CITY","IL","60936"
30841,"117 PLANTATION DR","WARNER ROBINS","GA","31088"
30842,"117 PLUM ST","SPRINGDALE","AR","72764"
30843,"117 POCAHONTAS STREET","FRANKLIN","VA","23851"
30844,"117 POPLAR STREET","ROSELLE","NJ","07203"
30845,"117 PRIEST HOLLOW ROAD","RUSSELL","PA","16345"
30846,"117 RADEK CT","DOWNINGTOWN","PA","19335"
30847,"117 RAILROAD DR","GRIFFIN","GA","30234"
30848,"117 RAINBOW GLEN CIRCLE","MADISON","AL","35758"
30849,"117 RANCH CIR","DANVILLE","AL","35619"
30850,"117 RANCH CIRCLE","DANVILLE","AL","35619"
30851,"117 RAZORBACK LANE","WALHALLA","SC","29691"
30852,"117 RED PINE CT","COLLINSVILLE","IL","62234"
30853,"117 RETAMA RD","BOERNE","TX","78006"
30854,"117 RICHARD DRIVE","LEESBURG","VA","20185"
30855,"117 ROGER HOLLOW ROAD","MEHOOPANY","PA","18629"
30856,"117 ROYAL STREET","PORT GIBSON","MS","39150"
30857,"117 RUE HOLIDAY","SLIDELL","LA","70461"
30858,"117 RUSHING BROOK DR","MADISON","AL","35756"
30859,"117 S 200 E","KAYSVILLE","UT","84037"
30860,"117 S BAY COUNTRY ST","WICHITA","KS","67235"
30861,"117 S CHAMPION ST","YOUNGSTOWN","OH","44503"
30862,"117 S CHURCH ST","MOUNTAIN CITY","TN","37683"
30863,"117 S COLLINGWOOD AVE APT 2","SYRACUSE","NY","13206"
30864,"117 S DOHENY DR SUITE 213","LOS ANGELES","CA","90048"
30865,"117 S FRANKLIN STREET","MT PLEASANT","MI","48858"
30866,"117 S GREAT ROAD","LINCOLN","MA","01773"
30867,"117 S HOLLYWOOD BLVD BOX 133","STEUBENVILLE","OH","43952"
30868,"117 S HOLLYWOOD BLVD","STEUBENVILLE","OH","43952"
30869,"117 S JACKSON ST","TULLAHOMA","TN","37388"
30870,"117 S LEXINGTON ST STE 100","HARRISONVILLE","MO","64701"
30871,"117 S MAIN ST SUITE 205B","LAKE ELSINORE","CA","92530"
30872,"117 S PENDLETON ST","EASLEY","SC","29640"
30873,"117 S SPRING ST","MANCHESTER","TN","37355"
30874,"117 S STATE ST APT 1AF","MARENGO","IL","60152"
30875,"117 S WEBER DR","HAUBSTADT","IN","47639"
30876,"117 SE BREON BAY","LEES SUMMIT","MO","64063"
30877,"117 SHADOW WOOD COVE","MARTIN","TN","38237"
30878,"117 SHARON RD","WATERBURY","CT","06705"
30879,"117 SHARON ROAD","WATERBURY","CT","06705"
30880,"117 SHEPHERDS TRACE","VERSAILLES","KY","40383"
30881,"117 SHOREVIEW DRIVE","COTTONWOOD","MN","56229"
30882,"117 SILVER PINE CT","GALT","CA","95632"
30883,"117 SILVER WILLOW COURT","GALT","CA","95632"
30884,"117 SLADE ST","BELMONT","MA","02478"
30885,"117 SLOOP CREEK RD","BAYVILLE","NJ","08721"
30886,"117 SOUTH  WEST STREET","PETERSBURG","VA","23803"
30887,"117 SOUTH BROADWAY SUITE 100","CASSOPOLIS","MI","49031"
30888,"117 SOUTH LAKE AVENUE","GROVELAND","FL","34736"
30889,"117 SOUTH LEXINGTON ST STE 100","HARRISONVILLE","MO","64052"
30890,"117 SOUTH LEXINGTON ST STE 100","HARRISONVILLE","MO","64701"
30891,"117 SOUTH LEXINGTON STREET STE 100","HARRISONVILLE","MO","64701"
30892,"117 SOUTH MAIN STREET","RAWSON","OH","45881"
30893,"117 SOUTH SLOPE DRIVE","KENSINGTON","CT","06037"
30894,"117 SPRUCE LANE","WILLISTON","VT","05495"
30895,"117 STATION DRIVE","MORRISVILLE","NC","27560"
30896,"117 STEARNS AVE","WYOMING","OH","45215"
30897,"117 STONE AVE","LAFAYETTE","LA","70507"
30898,"117 STRATFORD PLACE","MADISON","MS","39110"
30899,"117 SUMMER TERRACE LANE","CLARKSVILLE","TN","37040"
30900,"117 SUMMIT RIDGE DRIVE","SAVANNAH","GA","31406"
30901,"117 SUNRAY DR NW APT 1","DALTON","GA","30721"
30902,"117 SUSQUEHANNA CT","HAVRE DE GRACE","MD","21078"
30903,"117 SW 4TH AVENUE","MULBERRY","FL","33860"
30904,"117 SW ROOSEVELT","BEND","OR","97702"
30905,"117 TEMPLETON PARKWAY","WATERTOWN","MA","02472"
30906,"117 THACHER ST","HORNELL","NY","14843"
30907,"117 THACHER STREET","HORNELL","NY","14843"
30908,"117 THISTLE CT","SCHAUMBURG","IL","60194"
30909,"117 TIMBER RIDGE","LIBERTY","TX","77575"
30910,"117 TIMOTHY AVENUE","CUYAHOGA FALLS","OH","44223"
30911,"117 TOWER RD","LINCOLN","MA","01773"
30912,"117 TRACKSIDE DR","TROUTMAN","NC","28166"
30913,"117 TRADEPARK DRIVE","SOMERSET","KY","42503"
30914,"117 TULLY DR","ANDERSON","SC","29621"
30915,"117 TURNBURY LN","WASHINTON","UT","84780"
30916,"117 VALLEYVIEW ST","HOT SPRINGS","AR","71901"
30917,"117 VAN BUREN STREET 4C","BROOKLYN","NY","11221"
30918,"117 VARMOR DR","NEW BRITAIN","CT","06053"
30919,"117 VIRGIL AVENUE","BUFFALO","NY","14216"
30920,"117 W 123RD ST","CHICAGO","IL","60628"
30921,"117 W 129 STREET SUITE 5D","NEW YORK","NY","10027"
30922,"117 W 20TH STREET APT 303","KANSAS CITY","MO","64108"
30923,"117 W 2ND ST","KEWANEE","IL","61443"
30924,"117 W 3RD AVE APT 13","ROSELLE PARK","NJ","07203"
30925,"117 W 65TH AVE","PHILADELPHIA","PA","19120"
30926,"117 W 8TH STREET","JACKSONVILLE","FL","32206"
30927,"117 W BROOKSHIRE AVE","ORANGE","CA","92865"
30928,"117 W BUCHANAN ST","LITCHFIELD","IL","62056"
30929,"117 W FRANKLIN ST","OTSEGO","MI","49078"
30930,"117 W GAY ST STE 324","WEST CHESTER","PA","19380"
30931,"117 W MAPLE ST","LOMPOC","CA","93436"
30932,"117 W NEBRASKA ST","LEROY","KS","66857"
30933,"117 W WASHINGTON AVE","GILBERT","AZ","85233"
30934,"117 W WASHINGTON ST","ST PAUL","IN","47272"
30935,"117 W WILLIAM CANNON DR APT 225","AUSTIN","TX","78745"
30936,"117 WAGON TRAIN AVE","HICKMAN","NE","68372"
30937,"117 WALKING LEAF DRIVE","NEWPORT","NC","28570"
30938,"117 WALNUT CREEK WAY","NAMPA","ID","83686"
30939,"117 WARD ST","LUFKIN","TX","75901"
30940,"117 WASHINGTON STREET","WEST WARWICK","RI","02893"
30941,"117 WATKINS GLEN DRIVE","MCDONOUGH","GA","30252"
30942,"117 WELLESLEY DR","IRVING","TX","75062"
30943,"117 WEST 123RD STREET SUITE 8B","NEW YORK","NY","10027"
30944,"117 WEST 17TH STREET STE C7","COSTA MESA","CA","92627"
30945,"117 WEST AUGUSTA SUITE 2","SPOKANE","WA","99205"
30946,"117 WEST DUFFY ST","SAVANNAH","GA","31401"
30947,"117 WEST FRONT STREET","CASSVILLE","WI","53806"
30948,"117 WEST KELLY AVE","HAMPTON","VA","23663"
30949,"117 WEST LONG CREEK COURT","SIMPSONVILLE","SC","29680"
30950,"117 WEST MAIN STREET","CARRBORO","NC","27510"
30951,"117 WEST MAIN","RICHMOND","MO","64085"
30952,"117 WEST PIKE STREET/ SUITE 3","CANONSBURG","PA","15317"
30953,"117 WEST ROSS STREET","WILKES BARRE","PA","18702"
30954,"117 WEST STREET","POLKTON","NC","28135"
30955,"117 WEST VIRGINIA BEACH BLVD 4N","NORFOLK","VA","23510"
30956,"117 WEST WALKER STREET SUITE 310","MILWAUKEE","WI","53204"
30957,"117 WHITESTONE DR NE","HUNTSVILLE","AL","35810"
30958,"117 WILDERS WOODS GROVE LN","CLAYTON","NC","27520"
30959,"117 WILDWOOD DR","ELKVIEW","WV","25071"
30960,"117 WOOD POND ROAD","WEST HARTFORD","CT","06107"
30961,"117 WOODGATE ROAD","PITTSBURGH","PA","15235"
30962,"117 WOODWINDS DRIVE","MOUNT HOLLY","NC","28120"
30963,"117 WORTHAM ST","WADESBORO","NC","28170"
30964,"117 YELLOWSTONE LAKE DRIVE","LAREDO","TX","78041"
30965,"117-1/2 FIFTH AVENUE SOUTH","SAINT CLOUD","MN","56301"
30966,"117-11 133 STREET","JAMAICA","NY","11420"
30967,"117-12 OCEAN PROMENADE SUITE 3D","ROCKWAY PARK","NY","11694"
30968,"117-32165 STREET","JAMAICA","NY","11434"
30969,"117-46 PARK LANE SOUTH","RICHMOND HILL","NY","11418"
30970,"1170 BASIN ROCK LN","LEXINGTON","SC","29073"
30971,"1170 BLUFF DRIVE","OSAGE BEACH","MO","65065"
30972,"1170 CANDLENUT LANE","CHICAGO","IL","60074"
30973,"1170 COMMERCIAL STREET SUITE 213","ASTORIA","OR","97103"
30974,"1170 COUNTY ROAD 519","FRENCHTOWN","NJ","08825"
30975,"1170 E SIERRA WAY","SALT LAKE CITY","UT","84106"
30976,"1170 FERGUSON AVENUE","COOS BAY","OR","97420"
30977,"1170 FERNWOOD ST","BETHLEHEM","PA","18018"
30978,"1170 HARRISON ST SUITE 201","SEATTLE","WA","98109"
30979,"1170 IDA WAY","MELBOURNE","FL","32940"
30980,"1170 JANDELL CIR NE","ST MICHAEL","MN","55376"
30981,"1170 KRUGER LN","FRISCO","TX","75036"
30982,"1170 LEGEND OAK DR","FOUNTAIN","CO","80817"
30983,"1170 MCCLELLAN DR","LOS ANGELES","CA","90049"
30984,"1170 MIRAGE LAKE STREET","HENDERSON","NV","89052"
30985,"1170 N HAIRSTON RD","STONE MOUNTAIN","GA","30083"
30986,"1170 NELSON AVE","BRONX","NY","10452"
30987,"1170 NOSTRAND AVE","BROOKLYN","NY","11225"
30988,"1170 NUUANU AVE PO BOX 37992","HONOLULU","HI","96817"
30989,"1170 NUUANU AVENUE STE 37702","HONOLULU","HI","96837"
30990,"1170 NUUANU AVENUE","HONOLULU","HI","96813"
30991,"1170 NW 11TH ST  NO 303","MIAMI","FL","33136"
30992,"1170 OCEAN PKWY SUITE 12A","BROOKLYN","NY","11230"
30993,"1170 PEACHTREE ST  BUTLER SNOW 1900","ATLANTA","GA","30309"
30994,"1170 PEACHTREE STREET NE STE 2200","ATLANTA","GA","30309"
30995,"1170 PEACHTREE STREET SUITE 1200","ATLANTA","GA","30281"
30996,"1170 RIDGE ROAD - SUITE 327","WEBSTER","NY","14580"
30997,"1170 RUGGLESTONE WAY","JOHNS CREEK","GA","30097"
30998,"1170 SALEM CHURCH ROAD","ELIZABETH CITY","NC","27909"
30999,"1170 SASSAQUIN AVEENUE","NEW BEDFORD","MA","02745"
31000,"1170 SOUTH CHARLEYS LOOP","CAMDEN","AR","71701"
